{
  "ts_utc": "2026-03-07T05:07:42Z",
  "threshold_m": 150,
  "source": "stations_override.txt (ICAO list) + aviationweather.gov (METAR/TAF raw)",
  "station_count": 159,
  "stations": [
    {
      "icao": "BIKF",
      "alert": "OK",
      "vis_m": 9999,
      "fzfg": false,
      "metar_trigger": false,
      "taf_trigger": false,
      "metar": "METAR BIKF 070500Z 18033G43KT 9999 VCSH SCT015CB BKN040 03/M00 Q0972",
      "taf": "TAF BIKF 070445Z 0706/0806 20038G52KT 9999 SCT015 BKN035 TX04/0710Z TN01/0706Z"
    },
    {
      "icao": "BKPR",
      "alert": "OK",
      "vis_m": 3000,
      "fzfg": false,
      "metar_trigger": false,
      "taf_trigger": false,
      "metar": "METAR BKPR 070500Z 00000KT 3000 BR NSC M01/M01 Q1027 BECMG 1200 BR",
      "taf": "TAF BKPR 070300Z 0703/0724 VRB03KT 8000 FEW020"
    },
    {
      "icao": "EBCI",
      "alert": "OK",
      "vis_m": 7000,
      "fzfg": false,
      "metar_trigger": false,
      "taf_trigger": false,
      "metar": "METAR EBCI 070450Z 36002KT 7000 NSC 08/06 Q1024 TEMPO 2500 BR",
      "taf": ""
    },
    {
      "icao": "EDDB",
      "alert": "OK",
      "vis_m": 9999,
      "fzfg": false,
      "metar_trigger": false,
      "taf_trigger": false,
      "metar": "METAR EDDB 070450Z AUTO 10004KT CAVOK 00/M02 Q1025 NOSIG",
      "taf": "TAF EDDB 062300Z 0700/0724 12004KT CAVOK"
    },
    {
      "icao": "EDDH",
      "alert": "OK",
      "vis_m": 9999,
      "fzfg": false,
      "metar_trigger": false,
      "taf_trigger": false,
      "metar": "METAR EDDH 070450Z AUTO 09003KT CAVOK 03/01 Q1024 NOSIG",
      "taf": "TAF EDDH 062300Z 0700/0806 VRB03KT CAVOK"
    },
    {
      "icao": "EDDK",
      "alert": "OK",
      "vis_m": 9999,
      "fzfg": false,
      "metar_trigger": false,
      "taf_trigger": false,
      "metar": "METAR EDDK 070450Z AUTO VRB02KT CAVOK 03/02 Q1024 NOSIG",
      "taf": "TAF EDDK 062300Z 0700/0806 VRB03KT CAVOK"
    },
    {
      "icao": "EDDN",
      "alert": "OK",
      "vis_m": 7000,
      "fzfg": false,
      "metar_trigger": false,
      "taf_trigger": false,
      "metar": "METAR EDDN 070450Z AUTO 10002KT 7000 NSC M01/M02 Q1024",
      "taf": "TAF EDDN 062300Z 0700/0724 VRB03KT CAVOK"
    },
    {
      "icao": "EDDS",
      "alert": "OK",
      "vis_m": 6000,
      "fzfg": false,
      "metar_trigger": false,
      "taf_trigger": false,
      "metar": "METAR EDDS 070450Z AUTO VRB01KT 6000 NSC 02/02 Q1022",
      "taf": "TAF EDDS 062300Z 0700/0724 VRB03KT CAVOK"
    },
    {
      "icao": "EDFH",
      "alert": "OK",
      "vis_m": 9999,
      "fzfg": false,
      "metar_trigger": false,
      "taf_trigger": false,
      "metar": "METAR EDFH 070450Z 10005KT CAVOK 06/02 Q1023",
      "taf": "TAF EDFH 062300Z 0700/0724 13005KT CAVOK"
    },
    {
      "icao": "EDJA",
      "alert": "OK",
      "vis_m": 9999,
      "fzfg": false,
      "metar_trigger": false,
      "taf_trigger": false,
      "metar": "METAR EDJA 070450Z 13002KT CAVOK M01/M02 Q1023",
      "taf": "TAF EDJA 070200Z 0703/0712 VRB02KT CAVOK"
    },
    {
      "icao": "EDLW",
      "alert": "OK",
      "vis_m": 9999,
      "fzfg": false,
      "metar_trigger": false,
      "taf_trigger": false,
      "metar": "METAR EDLW 070450Z 13007KT CAVOK 05/03 Q1023",
      "taf": "TAF EDLW 070420Z 0705/0724 15006KT CAVOK"
    },
    {
      "icao": "EDNY",
      "alert": "OK",
      "vis_m": 5000,
      "fzfg": false,
      "metar_trigger": false,
      "taf_trigger": false,
      "metar": "METAR EDNY 070450Z AUTO 07004KT 5000 NCD M00/M00 Q1023",
      "taf": "TAF EDNY 070200Z 0703/0712 VRB02KT 6000 NSC"
    },
    {
      "icao": "EDSB",
      "alert": "OK",
      "vis_m": 9999,
      "fzfg": false,
      "metar_trigger": false,
      "taf_trigger": false,
      "metar": "METAR EDSB 070450Z VRB01KT CAVOK 03/03 Q1023",
      "taf": "TAF EDSB 062300Z 0700/0724 VRB03KT CAVOK"
    },
    {
      "icao": "EETN",
      "alert": "OK",
      "vis_m": 9999,
      "fzfg": false,
      "metar_trigger": false,
      "taf_trigger": false,
      "metar": "METAR EETN 070450Z 30003KT CAVOK 00/M02 Q1025 NOSIG",
      "taf": "TAF EETN 062330Z 0700/0724 29007KT CAVOK"
    },
    {
      "icao": "EFTU",
      "alert": "OK",
      "vis_m": 9999,
      "fzfg": false,
      "metar_trigger": false,
      "taf_trigger": false,
      "metar": "METAR EFTU 070450Z AUTO 28002KT 9999 4200 NSC M02/M02 Q1026",
      "taf": "TAF EFTU 070222Z 0703/0803 34003KT CAVOK"
    },
    {
      "icao": "EGBB",
      "alert": "OK",
      "vis_m": 8000,
      "fzfg": false,
      "metar_trigger": false,
      "taf_trigger": false,
      "metar": "METAR EGBB 070450Z 08002KT 8000 BKN028 05/03 Q1026",
      "taf": "TAF EGBB 062257Z 0700/0724 01004KT 9999 BKN020"
    },
    {
      "icao": "EGGP",
      "alert": "OK",
      "vis_m": 9999,
      "fzfg": false,
      "metar_trigger": false,
      "taf_trigger": false,
      "metar": "METAR EGGP 070450Z AUTO VRB01KT 9999 OVC025/// 04/03 Q1026",
      "taf": "TAF EGGP 062256Z 0700/0724 VRB03KT 9999 SCT030"
    },
    {
      "icao": "EGGW",
      "alert": "OK",
      "vis_m": 3400,
      "fzfg": false,
      "metar_trigger": false,
      "taf_trigger": false,
      "metar": "METAR EGGW 070450Z AUTO 04008KT 3400 BR OVC002 05/05 Q1025",
      "taf": ""
    },
    {
      "icao": "EGKK",
      "alert": "OK",
      "vis_m": 3000,
      "fzfg": false,
      "metar_trigger": false,
      "taf_trigger": false,
      "metar": "METAR EGKK 070450Z 04006KT 3000 BR BKN003 07/07 Q1025",
      "taf": "TAF EGKK 062256Z 0700/0806 02005KT 9999 BKN010"
    },
    {
      "icao": "EGNM",
      "alert": "OK",
      "vis_m": 9999,
      "fzfg": false,
      "metar_trigger": false,
      "taf_trigger": false,
      "metar": "METAR EGNM 070450Z 19003KT 170V230 9999 BKN020 05/02 Q1026",
      "taf": ""
    },
    {
      "icao": "EGPD",
      "alert": "OK",
      "vis_m": 9999,
      "fzfg": false,
      "metar_trigger": false,
      "taf_trigger": false,
      "metar": "METAR EGPD 070450Z COR AUTO 19004KT 9999 NCD M02/M05 Q1022 NOSIG",
      "taf": "TAF EGPD 062255Z 0700/0724 17006KT CAVOK"
    },
    {
      "icao": "EGPF",
      "alert": "OK",
      "vis_m": 9999,
      "fzfg": false,
      "metar_trigger": false,
      "taf_trigger": false,
      "metar": "METAR EGPF 070450Z AUTO 06002KT 9999 NCD M01/M02 Q1024",
      "taf": ""
    },
    {
      "icao": "EHBK",
      "alert": "OK",
      "vis_m": 9999,
      "fzfg": false,
      "metar_trigger": false,
      "taf_trigger": false,
      "metar": "METAR EHBK 070455Z AUTO VRB01KT 9999 NCD 06/05 Q1024 NOSIG",
      "taf": "TAF EHBK 062312Z 0700/0806 VRB02KT CAVOK"
    },
    {
      "icao": "EHEH",
      "alert": "OK",
      "vis_m": 2700,
      "fzfg": false,
      "metar_trigger": false,
      "taf_trigger": false,
      "metar": "METAR EHEH 070455Z AUTO 31003KT 270V350 2700 BR FEW330 04/04 Q1024 YLO",
      "taf": ""
    },
    {
      "icao": "EKBI",
      "alert": "OK",
      "vis_m": 8000,
      "fzfg": false,
      "metar_trigger": false,
      "taf_trigger": false,
      "metar": "METAR EKBI 070450Z AUTO 10003KT 8000 BKN100/// 04/02 Q1023",
      "taf": "TAF EKBI 070227Z 0703/0803 10003KT 9999 FEW040"
    },
    {
      "icao": "EKCH",
      "alert": "OK",
      "vis_m": 6000,
      "fzfg": false,
      "metar_trigger": false,
      "taf_trigger": false,
      "metar": "METAR EKCH 070450Z AUTO 13004KT 6000 NCD 01/M01 Q1025 NOSIG",
      "taf": "TAF EKCH 070227Z 0703/0803 15007KT CAVOK"
    },
    {
      "icao": "ENAL",
      "alert": "OK",
      "vis_m": 9999,
      "fzfg": false,
      "metar_trigger": false,
      "taf_trigger": false,
      "metar": "METAR ENAL 070450Z AUTO 18004KT 9999 NCD 01/M00 Q1022",
      "taf": "TAF ENAL 070200Z 0703/0712 15006KT CAVOK"
    },
    {
      "icao": "ENBR",
      "alert": "OK",
      "vis_m": 100,
      "fzfg": false,
      "metar_trigger": false,
      "taf_trigger": false,
      "metar": "METAR ENBR 070450Z VRB02KT 0100 R17/0400N R35/0550N FG VV001 04/04 Q1023 RMK WIND 1200FT 15006KT",
      "taf": "TAF ENBR 062300Z 0700/0724 VRB04KT 4000 -RADZ BR SCT003 OVC008"
    },
    {
      "icao": "ENGM",
      "alert": "OK",
      "vis_m": 4700,
      "fzfg": false,
      "metar_trigger": false,
      "taf_trigger": false,
      "metar": "METAR ENGM 070450Z VRB01KT 4700 BR OVC009 00/M00 Q1024 TEMPO 2000",
      "taf": "TAF ENGM 062300Z 0700/0724 36005KT 8000 BKN020"
    },
    {
      "icao": "ENHD",
      "alert": "OK",
      "vis_m": 900,
      "fzfg": false,
      "metar_trigger": false,
      "taf_trigger": false,
      "metar": "METAR ENHD 070450Z AUTO 11002KT 0900 R13/P2000N R31/P2000N FG SCT003/// BKN005/// 04/04 Q1023",
      "taf": "TAF ENHD 070200Z 0703/0712 20008KT 1500 BR BKN003"
    },
    {
      "icao": "ENTC",
      "alert": "OK",
      "vis_m": 4700,
      "fzfg": false,
      "metar_trigger": false,
      "taf_trigger": false,
      "metar": "METAR ENTC 070450Z 28013KT 4700 SHRA BKN035 03/01 Q1012 RMK WIND 2600FT 31036KT",
      "taf": "TAF ENTC 062300Z 0700/0724 27016KT 9999 FEW015 SCT025"
    },
    {
      "icao": "ENTO",
      "alert": "OK",
      "vis_m": 1800,
      "fzfg": false,
      "metar_trigger": false,
      "taf_trigger": false,
      "metar": "METAR ENTO 070450Z AUTO 01004KT 1800 +RA OVC028/// 01/01 Q1024 RERA",
      "taf": "TAF ENTO 062300Z 0700/0724 36005KT 6000 BKN020"
    },
    {
      "icao": "ENVA",
      "alert": "OK",
      "vis_m": 9999,
      "fzfg": false,
      "metar_trigger": false,
      "taf_trigger": false,
      "metar": "METAR ENVA 070420Z AUTO 10003KT 060V120 9999 NCD M01/M03 Q1023 RMK WIND 670FT 11007KT",
      "taf": "TAF ENVA 062300Z 0700/0724 09006KT 9999 FEW030"
    },
    {
      "icao": "ENZV",
      "alert": "OK",
      "vis_m": 7000,
      "fzfg": false,
      "metar_trigger": false,
      "taf_trigger": false,
      "metar": "METAR ENZV 070450Z 00000KT 7000 OVC014 04/04 Q1023",
      "taf": ""
    },
    {
      "icao": "EPGD",
      "alert": "OK",
      "vis_m": 9999,
      "fzfg": false,
      "metar_trigger": false,
      "taf_trigger": false,
      "metar": "METAR EPGD 070500Z VRB01KT CAVOK 00/M02 Q1027",
      "taf": "TAF EPGD 062330Z 0700/0724 VRB02KT 6000 NSC"
    },
    {
      "icao": "EPKK",
      "alert": "OK",
      "vis_m": 9999,
      "fzfg": false,
      "metar_trigger": false,
      "taf_trigger": false,
      "metar": "METAR EPKK 070500Z 25001KT CAVOK M02/M05 Q1028",
      "taf": "TAF EPKK 070230Z 0703/0803 VRB02KT CAVOK"
    },
    {
      "icao": "EPKT",
      "alert": "OK",
      "vis_m": 9999,
      "fzfg": false,
      "metar_trigger": false,
      "taf_trigger": false,
      "metar": "METAR EPKT 070500Z 06003KT CAVOK M06/M07 Q1027",
      "taf": "TAF EPKT 062330Z 0700/0724 07003KT CAVOK"
    },
    {
      "icao": "EPLB",
      "alert": "OK",
      "vis_m": 6000,
      "fzfg": false,
      "metar_trigger": false,
      "taf_trigger": false,
      "metar": "METAR EPLB 070500Z 16001KT 6000 NSC M03/M04 Q1028",
      "taf": "TAF EPLB 062330Z 0700/0724 VRB02KT CAVOK"
    },
    {
      "icao": "EPMO",
      "alert": "OK",
      "vis_m": 6000,
      "fzfg": false,
      "metar_trigger": false,
      "taf_trigger": false,
      "metar": "METAR EPMO 070500Z VRB02KT 6000 NSC M03/M04 Q1028",
      "taf": "TAF EPMO 062330Z 0700/0724 VRB02KT CAVOK"
    },
    {
      "icao": "EPPO",
      "alert": "OK",
      "vis_m": 8000,
      "fzfg": false,
      "metar_trigger": false,
      "taf_trigger": false,
      "metar": "METAR EPPO 070500Z 10003KT 8000 NSC M02/M05 Q1027",
      "taf": "TAF EPPO 062330Z 0700/0724 14004KT CAVOK"
    },
    {
      "icao": "EPRA",
      "alert": "OK",
      "vis_m": 9999,
      "fzfg": false,
      "metar_trigger": false,
      "taf_trigger": false,
      "metar": "METAR EPRA 070500Z VRB01KT CAVOK M03/M05 Q1028",
      "taf": "TAF EPRA 070230Z 0703/0712 VRB02KT CAVOK"
    },
    {
      "icao": "EPRZ",
      "alert": "OK",
      "vis_m": 6000,
      "fzfg": false,
      "metar_trigger": false,
      "taf_trigger": false,
      "metar": "METAR EPRZ 070500Z VRB01KT 6000 NSC M04/M05 Q1028",
      "taf": "TAF EPRZ 062330Z 0700/0724 VRB02KT 8000 NSC"
    },
    {
      "icao": "EPSC",
      "alert": "OK",
      "vis_m": 9999,
      "fzfg": false,
      "metar_trigger": false,
      "taf_trigger": false,
      "metar": "METAR EPSC 070500Z 12006KT CAVOK 01/M02 Q1026",
      "taf": "TAF EPSC 062330Z 0700/0724 12006KT CAVOK"
    },
    {
      "icao": "EPSY",
      "alert": "OK",
      "vis_m": 9999,
      "fzfg": false,
      "metar_trigger": false,
      "taf_trigger": false,
      "metar": "METAR EPSY 070500Z 19001KT CAVOK M06/M08 Q1028",
      "taf": "TAF EPSY 070230Z 0703/0712 VRB03KT CAVOK"
    },
    {
      "icao": "EPWA",
      "alert": "OK",
      "vis_m": 8000,
      "fzfg": false,
      "metar_trigger": false,
      "taf_trigger": false,
      "metar": "METAR EPWA 070500Z 13003KT 8000 NSC M02/M04 Q1028 NOSIG",
      "taf": "TAF EPWA 070230Z 0703/0803 VRB02KT 8000 NSC"
    },
    {
      "icao": "EPWR",
      "alert": "OK",
      "vis_m": 9999,
      "fzfg": false,
      "metar_trigger": false,
      "taf_trigger": false,
      "metar": "METAR EPWR 070500Z 09001KT CAVOK M01/M03 Q1027",
      "taf": "TAF EPWR 070230Z 0703/0803 14004KT CAVOK"
    },
    {
      "icao": "ESGG",
      "alert": "OK",
      "vis_m": 9999,
      "fzfg": false,
      "metar_trigger": false,
      "taf_trigger": false,
      "metar": "METAR ESGG 070450Z 12004KT CAVOK 02/M02 Q1023",
      "taf": "TAF ESGG 070230Z 0703/0803 13003KT CAVOK"
    },
    {
      "icao": "ESKN",
      "alert": "OK",
      "vis_m": 6000,
      "fzfg": false,
      "metar_trigger": false,
      "taf_trigger": false,
      "metar": "METAR ESKN 070450Z 00000KT 6000 NSC M03/M03 Q1025",
      "taf": "TAF ESKN 070230Z 0703/0803 VRB02KT CAVOK"
    },
    {
      "icao": "ESMS",
      "alert": "OK",
      "vis_m": 6000,
      "fzfg": false,
      "metar_trigger": false,
      "taf_trigger": false,
      "metar": "METAR ESMS 070450Z AUTO 11003KT 6000 NCD M01/M01 Q1025",
      "taf": "TAF ESMS 070227Z 0703/0803 15003KT CAVOK"
    },
    {
      "icao": "ESSA",
      "alert": "OK",
      "vis_m": 9999,
      "fzfg": false,
      "metar_trigger": false,
      "taf_trigger": false,
      "metar": "METAR ESSA 070450Z 05005KT 9999 BKN049 01/M00 Q1026 NOSIG",
      "taf": "TAF ESSA 070230Z 0703/0803 08003KT CAVOK"
    },
    {
      "icao": "EYKA",
      "alert": "OK",
      "vis_m": 2600,
      "fzfg": false,
      "metar_trigger": false,
      "taf_trigger": false,
      "metar": "METAR EYKA 070450Z VRB01KT 2600 BR NSC M04/M04 Q1028",
      "taf": "TAF EYKA 070505Z 0706/0806 VRB04KT 5000 BR SCT005"
    },
    {
      "icao": "EYPA",
      "alert": "OK",
      "vis_m": 9999,
      "fzfg": false,
      "metar_trigger": false,
      "taf_trigger": false,
      "metar": "METAR EYPA 070450Z 15003KT CAVOK M03/M04 Q1027",
      "taf": "TAF EYPA 070504Z 0706/0806 VRB04KT 9000 NSC"
    },
    {
      "icao": "EYVI",
      "alert": "OK",
      "vis_m": 4400,
      "fzfg": false,
      "metar_trigger": false,
      "taf_trigger": false,
      "metar": "METAR EYVI 070450Z 17005KT 4400 BR NSC M04/M04 Q1027 NOSIG",
      "taf": "TAF EYVI 070502Z 0706/0806 VRB04KT 5000 BR SCT002"
    },
    {
      "icao": "GCFV",
      "alert": "OK",
      "vis_m": 9999,
      "fzfg": false,
      "metar_trigger": false,
      "taf_trigger": false,
      "metar": "METAR GCFV 070500Z AUTO 36017KT 9999 OVC041 16/07 Q1020",
      "taf": "TAF GCFV 070200Z 0703/0803 02018KT 9999 BKN030 TX20/0714Z TN14/0706Z"
    },
    {
      "icao": "GCLP",
      "alert": "OK",
      "vis_m": 9999,
      "fzfg": false,
      "metar_trigger": false,
      "taf_trigger": false,
      "metar": "METAR GCLP 070500Z 36014KT 9999 BKN035 15/09 Q1020 NOSIG",
      "taf": "TAF GCLP 070200Z 0703/0803 02020KT 9999 BKN030 TX18/0714Z TN14/0706Z"
    },
    {
      "icao": "GCTS",
      "alert": "OK",
      "vis_m": 9999,
      "fzfg": false,
      "metar_trigger": false,
      "taf_trigger": false,
      "metar": "METAR GCTS 070500Z 06012KT 9999 BKN040 15/06 Q1020 NOSIG",
      "taf": "TAF GCTS 070200Z 0703/0803 05015KT 9999 SCT040 TX22/0714Z TN14/0706Z"
    },
    {
      "icao": "GMAD",
      "alert": "OK",
      "vis_m": 8000,
      "fzfg": false,
      "metar_trigger": false,
      "taf_trigger": false,
      "metar": "METAR GMAD 070500Z 09003KT 8000 NSC 08/06 Q1015 NOSIG",
      "taf": "TAF GMAD 062300Z 0700/0806 06006KT 6000 NSC"
    },
    {
      "icao": "GMMN",
      "alert": "OK",
      "vis_m": 9999,
      "fzfg": false,
      "metar_trigger": false,
      "taf_trigger": false,
      "metar": "METAR GMMN 070500Z 21006KT 9999 SCT026 05/04 Q1019 NOSIG",
      "taf": "TAF GMMN 062300Z 0700/0806 20006KT 9999 BKN026"
    },
    {
      "icao": "GMMX",
      "alert": "OK",
      "vis_m": 9999,
      "fzfg": false,
      "metar_trigger": false,
      "taf_trigger": false,
      "metar": "METAR GMMX 070500Z 03005KT 9999 BKN020 09/06 Q1018 NOSIG",
      "taf": "TAF GMMX 062300Z 0700/0806 06006KT 9999 SCT020"
    },
    {
      "icao": "HEGN",
      "alert": "OK",
      "vis_m": 9999,
      "fzfg": false,
      "metar_trigger": false,
      "taf_trigger": false,
      "metar": "METAR HEGN 070400Z 28012KT CAVOK 13/06 Q1016 NOSIG",
      "taf": "TAF HEGN 070500Z 0706/0812 32010G24KT CAVOK"
    },
    {
      "icao": "HEMA",
      "alert": "OK",
      "vis_m": 9999,
      "fzfg": false,
      "metar_trigger": false,
      "taf_trigger": false,
      "metar": "METAR HEMA 070400Z 31012KT CAVOK 18/05 Q1014 NOSIG",
      "taf": "TAF HEMA 070500Z 0706/0812 33010G24KT 6000 NSC"
    },
    {
      "icao": "HESH",
      "alert": "OK",
      "vis_m": 9999,
      "fzfg": false,
      "metar_trigger": false,
      "taf_trigger": false,
      "metar": "METAR HESH 070400Z 34010KT CAVOK 17/06 Q1015 NOSIG",
      "taf": "TAF HESH 070500Z 0706/0812 34016KT CAVOK"
    },
    {
      "icao": "HESX",
      "alert": "OK",
      "vis_m": 6000,
      "fzfg": false,
      "metar_trigger": false,
      "taf_trigger": false,
      "metar": "METAR HESX 070400Z 34002KT 6000 NSC 09/07 Q1019 NOSIG",
      "taf": "TAF HESX 070500Z 0706/0812 34010KT 6000 SCT2500FT"
    },
    {
      "icao": "LATI",
      "alert": "OK",
      "vis_m": 9999,
      "fzfg": false,
      "metar_trigger": false,
      "taf_trigger": false,
      "metar": "METAR LATI 070450Z 12002KT CAVOK 03/01 Q1026 NOSIG",
      "taf": "TAF LATI 062300Z 0700/0724 VRB03KT CAVOK TX21/0713Z TN04/0705Z"
    },
    {
      "icao": "LBPD",
      "alert": "OK",
      "vis_m": 8000,
      "fzfg": false,
      "metar_trigger": false,
      "taf_trigger": false,
      "metar": "METAR LBPD 070500Z AUTO 00000KT 8000 FEW036/// 03/03 Q1030 NOSIG",
      "taf": "TAF LBPD 062300Z 0700/0724 VRB03KT 9999 SCT080"
    },
    {
      "icao": "LBSF",
      "alert": "OK",
      "vis_m": 8000,
      "fzfg": false,
      "metar_trigger": false,
      "taf_trigger": false,
      "metar": "METAR LBSF 070500Z 12005KT 8000 NSC 02/M00 Q1028 NOSIG",
      "taf": ""
    },
    {
      "icao": "LBWN",
      "alert": "OK",
      "vis_m": 9999,
      "fzfg": false,
      "metar_trigger": false,
      "taf_trigger": false,
      "metar": "METAR LBWN 070500Z AUTO VRB02KT 9999 NCD M00/M03 Q1030 NOSIG",
      "taf": "TAF LBWN 062300Z 0700/0724 VRB03KT 9999 SCT040"
    },
    {
      "icao": "LCLK",
      "alert": "OK",
      "vis_m": 9999,
      "fzfg": false,
      "metar_trigger": false,
      "taf_trigger": false,
      "metar": "METAR LCLK 070500Z 32008KT 9999 FEW025 SCT050 14/07 Q1019 NOSIG",
      "taf": "TAF LCLK 062330Z 0700/0800 31008KT 9999 FEW030"
    },
    {
      "icao": "LCPH",
      "alert": "OK",
      "vis_m": 9999,
      "fzfg": false,
      "metar_trigger": false,
      "taf_trigger": false,
      "metar": "METAR LCPH 070500Z 07008KT 010V080 9999 4500N FU FEW030 11/08 Q1018 BECMG 9999",
      "taf": "TAF LCPH 062330Z 0700/0800 02008KT 9999 FEW030"
    },
    {
      "icao": "LEAL",
      "alert": "OK",
      "vis_m": 9999,
      "fzfg": false,
      "metar_trigger": false,
      "taf_trigger": false,
      "metar": "METAR LEAL 070500Z 00000KT 9999 FEW050 08/08 Q1014 NOSIG",
      "taf": "TAF LEAL 062300Z 0700/0724 VRB04KT 9999 FEW020 TX15/0713Z TN09/0706Z"
    },
    {
      "icao": "LEBB",
      "alert": "OK",
      "vis_m": 3500,
      "fzfg": false,
      "metar_trigger": false,
      "taf_trigger": false,
      "metar": "METAR LEBB 070500Z COR 27003KT 240V310 3500 -RA OVC013 10/10 Q1019 NOSIG",
      "taf": "TAF LEBB 062300Z 0700/0724 31009KT 7000 SCT005 BKN016 TX14/0714Z TN09/0724Z"
    },
    {
      "icao": "LEBL",
      "alert": "OK",
      "vis_m": 9999,
      "fzfg": false,
      "metar_trigger": false,
      "taf_trigger": false,
      "metar": "METAR LEBL 070500Z 15008KT 9999 FEW015 BKN050 14/12 Q1018 NOSIG",
      "taf": "TAF LEBL 062300Z 0700/0724 09014KT 9999 SCT020 TX15/0712Z TN11/0706Z"
    },
    {
      "icao": "LECH",
      "alert": "OK",
      "vis_m": 1200,
      "fzfg": false,
      "metar_trigger": false,
      "taf_trigger": false,
      "metar": "METAR LECH 070500Z AUTO 07011G22KT 1200 R06/0700D +RA SCT012 BKN019 BKN025 09/08 Q1015",
      "taf": ""
    },
    {
      "icao": "LEMD",
      "alert": "OK",
      "vis_m": 9999,
      "fzfg": false,
      "metar_trigger": false,
      "taf_trigger": false,
      "metar": "METAR LEMD 070500Z 03004KT 340V120 9999 SCT049 BKN070 08/04 Q1014 NOSIG",
      "taf": "TAF LEMD 062300Z 0700/0806 VRB04KT 9999 SCT030 TX14/0713Z TN06/0707Z"
    },
    {
      "icao": "LEMG",
      "alert": "OK",
      "vis_m": 9999,
      "fzfg": false,
      "metar_trigger": false,
      "taf_trigger": false,
      "metar": "METAR LEMG 070500Z 29007KT 9999 FEW045 BKN065 08/06 Q1015 NOSIG",
      "taf": "TAF LEMG 062300Z 0700/0724 29006KT 9999 FEW035 TX18/0714Z TN07/0707Z"
    },
    {
      "icao": "LEVC",
      "alert": "OK",
      "vis_m": 9999,
      "fzfg": false,
      "metar_trigger": false,
      "taf_trigger": false,
      "metar": "METAR LEVC 070500Z 35004KT 310V040 9999 -RA FEW006 SCT012 BKN015 11/10 Q1013 NOSIG",
      "taf": "TAF LEVC 062300Z 0700/0724 09006KT 9999 SCT015 TX13/0713Z TN09/0706Z"
    },
    {
      "icao": "LEXJ",
      "alert": "OK",
      "vis_m": 1500,
      "fzfg": false,
      "metar_trigger": false,
      "taf_trigger": false,
      "metar": "METAR LEXJ 070500Z 27015KT 240V300 1500 RA BR BKN008 OVC012 07/06 Q1020",
      "taf": ""
    },
    {
      "icao": "LEZG",
      "alert": "OK",
      "vis_m": 5000,
      "fzfg": false,
      "metar_trigger": false,
      "taf_trigger": false,
      "metar": "METAR LEZG 070500Z 07006KT 5000 -RA OVC015 10/10 Q1016 NOSIG",
      "taf": "TAF LEZG 062300Z 0700/0724 VRB04KT 9999 BKN020 TX15/0714Z TN08/0706Z"
    },
    {
      "icao": "LEZL",
      "alert": "OK",
      "vis_m": 9000,
      "fzfg": false,
      "metar_trigger": false,
      "taf_trigger": false,
      "metar": "METAR LEZL 070500Z 21004KT 180V240 9000 SCT030 12/09 Q1015 NOSIG",
      "taf": "TAF LEZL 070200Z 0703/0803 VRB03KT 9999 SCT040 TX17/0715Z TN08/0707Z"
    },
    {
      "icao": "LFBD",
      "alert": "OK",
      "vis_m": 9999,
      "fzfg": false,
      "metar_trigger": false,
      "taf_trigger": false,
      "metar": "METAR LFBD 070500Z AUTO 08006KT 050V120 9999 BKN039 BKN230 13/08 Q1019 NOSIG",
      "taf": "TAF LFBD 062300Z 0700/0806 08010KT CAVOK TX16/0715Z TN10/0705Z"
    },
    {
      "icao": "LFLL",
      "alert": "OK",
      "vis_m": 9999,
      "fzfg": false,
      "metar_trigger": false,
      "taf_trigger": false,
      "metar": "METAR LFLL 070500Z 14007KT CAVOK 09/06 Q1022 NOSIG",
      "taf": "TAF LFLL 062300Z 0700/0806 16003KT CAVOK"
    },
    {
      "icao": "LFLS",
      "alert": "OK",
      "vis_m": 9999,
      "fzfg": false,
      "metar_trigger": false,
      "taf_trigger": false,
      "metar": "METAR LFLS 070500Z AUTO 09007KT CAVOK 05/04 Q1022 NOSIG",
      "taf": "TAF LFLS 070200Z 0703/0803 09006KT CAVOK"
    },
    {
      "icao": "LFMN",
      "alert": "OK",
      "vis_m": 9999,
      "fzfg": false,
      "metar_trigger": false,
      "taf_trigger": false,
      "metar": "METAR LFMN 070500Z 32007KT 9999 BKN063 13/06 Q1023 NOSIG",
      "taf": "TAF LFMN 070200Z 0703/0809 02006KT 9999 BKN080"
    },
    {
      "icao": "LFOB",
      "alert": "OK",
      "vis_m": 3200,
      "fzfg": false,
      "metar_trigger": false,
      "taf_trigger": false,
      "metar": "METAR LFOB 070500Z AUTO 33005KT 290V350 3200 BR NSC 07/07 Q1024 TEMPO 0500 FG VV///",
      "taf": "TAF LFOB 062300Z 0700/0724 35006KT 7000 NSC"
    },
    {
      "icao": "LFPO",
      "alert": "OK",
      "vis_m": 8000,
      "fzfg": false,
      "metar_trigger": false,
      "taf_trigger": false,
      "metar": "METAR LFPO 070500Z 01005KT 8000 NSC 10/09 Q1023 NOSIG",
      "taf": "TAF LFPO 062300Z 0700/0806 02004KT CAVOK"
    },
    {
      "icao": "LFSB",
      "alert": "OK",
      "vis_m": 6000,
      "fzfg": false,
      "metar_trigger": false,
      "taf_trigger": false,
      "metar": "METAR LFSB 070500Z AUTO VRB02KT 6000 NSC 02/02 Q1023 TEMPO 3000 BR",
      "taf": "TAF LFSB 062300Z 0700/0724 VRB03KT 7000 NSC"
    },
    {
      "icao": "LGAV",
      "alert": "OK",
      "vis_m": 9999,
      "fzfg": false,
      "metar_trigger": false,
      "taf_trigger": false,
      "metar": "METAR LGAV 070450Z 35003KT 9999 FEW030 10/04 Q1026 NOSIG",
      "taf": "TAF LGAV 062300Z 0700/0724 03010KT 9999 FEW025"
    },
    {
      "icao": "LGTS",
      "alert": "OK",
      "vis_m": 9999,
      "fzfg": false,
      "metar_trigger": false,
      "taf_trigger": false,
      "metar": "METAR LGTS 070450Z VRB02KT 9999 FEW020 05/02 Q1027 NOSIG",
      "taf": "TAF LGTS 062300Z 0700/0724 VRB03KT 9999 FEW025"
    },
    {
      "icao": "LHBP",
      "alert": "OK",
      "vis_m": 9999,
      "fzfg": false,
      "metar_trigger": false,
      "taf_trigger": false,
      "metar": "METAR LHBP 070500Z 36003KT CAVOK M03/M04 Q1027 NOSIG",
      "taf": "TAF LHBP 062315Z 0700/0724 VRB03KT CAVOK"
    },
    {
      "icao": "LHDC",
      "alert": "OK",
      "vis_m": 9999,
      "fzfg": false,
      "metar_trigger": false,
      "taf_trigger": false,
      "metar": "METAR LHDC 070445Z AUTO 06002KT CAVOK M01/M04 Q1027",
      "taf": ""
    },
    {
      "icao": "LIBD",
      "alert": "OK",
      "vis_m": 5000,
      "fzfg": false,
      "metar_trigger": false,
      "taf_trigger": false,
      "metar": "METAR LIBD 070450Z 26004KT 5000 BR FEW003 SCT025 09/09 Q1025",
      "taf": "TAF LIBD 062300Z 0700/0724 VRB05KT 7000 SCT018"
    },
    {
      "icao": "LIBG",
      "alert": "OK",
      "vis_m": null,
      "fzfg": false,
      "metar_trigger": false,
      "taf_trigger": false,
      "metar": "",
      "taf": ""
    },
    {
      "icao": "LIBP",
      "alert": "OK",
      "vis_m": 3800,
      "fzfg": false,
      "metar_trigger": false,
      "taf_trigger": false,
      "metar": "METAR LIBP 070450Z AUTO 23004KT 3800 BR NCD 07/07 Q1026",
      "taf": "TAF LIBP 062300Z 0700/0724 VRB06KT 7000 FEW025"
    },
    {
      "icao": "LIBR",
      "alert": "OK",
      "vis_m": 6000,
      "fzfg": false,
      "metar_trigger": false,
      "taf_trigger": false,
      "metar": "METAR LIBR 070450Z 30004KT 6000 NSC 11/10 Q1025",
      "taf": "TAF LIBR 062300Z 0700/0724 VRB05KT 7000 FEW015"
    },
    {
      "icao": "LICA",
      "alert": "OK",
      "vis_m": 9999,
      "fzfg": false,
      "metar_trigger": false,
      "taf_trigger": false,
      "metar": "METAR LICA 070450Z AUTO 05010KT 9999 -RA FEW050/// OVC062/// 13/10 Q1024",
      "taf": "TAF LICA 062300Z 0700/0724 08010KT 9999 SCT040"
    },
    {
      "icao": "LICC",
      "alert": "OK",
      "vis_m": 9999,
      "fzfg": false,
      "metar_trigger": false,
      "taf_trigger": false,
      "metar": "METAR LICC 070450Z 07007KT CAVOK 14/12 Q1023",
      "taf": "TAF LICC 062300Z 0700/0724 07008KT 9999 SCT015 BKN040"
    },
    {
      "icao": "LICJ",
      "alert": "OK",
      "vis_m": 9999,
      "fzfg": false,
      "metar_trigger": false,
      "taf_trigger": false,
      "metar": "METAR LICJ 070450Z 18004KT 9999 FEW065 11/09 Q1022",
      "taf": "TAF LICJ 062300Z 0700/0724 VRB05KT 9999 FEW040"
    },
    {
      "icao": "LIMC",
      "alert": "OK",
      "vis_m": 4000,
      "fzfg": false,
      "metar_trigger": false,
      "taf_trigger": false,
      "metar": "METAR LIMC 070450Z 03005KT 4000 BR BCFG NSC 02/01 Q1025 NOSIG",
      "taf": "TAF LIMC 062300Z 0700/0806 VRB05KT 7000 NSC"
    },
    {
      "icao": "LIME",
      "alert": "OK",
      "vis_m": 9000,
      "fzfg": false,
      "metar_trigger": false,
      "taf_trigger": false,
      "metar": "METAR LIME 070450Z 02006KT 9000 NSC 05/04 Q1025 NOSIG",
      "taf": "TAF LIME 062300Z 0700/0724 VRB05KT 9000 FEW030"
    },
    {
      "icao": "LIMF",
      "alert": "OK",
      "vis_m": 5000,
      "fzfg": false,
      "metar_trigger": false,
      "taf_trigger": false,
      "metar": "METAR LIMF 070450Z 26003KT 220V300 5000 BR NSC 06/03 Q1025",
      "taf": "TAF LIMF 062300Z 0700/0724 VRB04KT 4000 BR SCT035"
    },
    {
      "icao": "LIMJ",
      "alert": "OK",
      "vis_m": 7000,
      "fzfg": false,
      "metar_trigger": false,
      "taf_trigger": false,
      "metar": "METAR LIMJ 070450Z 02014KT 7000 NSC 11/06 Q1024",
      "taf": "TAF LIMJ 062300Z 0700/0724 03012KT 8000 SCT040"
    },
    {
      "icao": "LIPE",
      "alert": "OK",
      "vis_m": 4000,
      "fzfg": false,
      "metar_trigger": false,
      "taf_trigger": false,
      "metar": "METAR LIPE 070450Z 22002KT 4000 BR NSC 05/04 Q1026",
      "taf": "TAF LIPE 062300Z 0700/0724 VRB04KT 7000 BKN020"
    },
    {
      "icao": "LIPH",
      "alert": "OK",
      "vis_m": 4900,
      "fzfg": false,
      "metar_trigger": false,
      "taf_trigger": false,
      "metar": "METAR LIPH 070450Z AUTO 00000KT 4900 BR NCD 03/03 Q1025",
      "taf": "TAF LIPH 062300Z 0700/0724 VRB04KT 4000 BR NSC"
    },
    {
      "icao": "LIPQ",
      "alert": "OK",
      "vis_m": 1100,
      "fzfg": false,
      "metar_trigger": false,
      "taf_trigger": false,
      "metar": "METAR LIPQ 070450Z AUTO VRB01KT 1100 R09/1700U BCFG NCD 02/02 Q1025",
      "taf": "TAF LIPQ 062300Z 0700/0724 VRB04KT CAVOK"
    },
    {
      "icao": "LIPR",
      "alert": "OK",
      "vis_m": 7000,
      "fzfg": false,
      "metar_trigger": false,
      "taf_trigger": false,
      "metar": "METAR LIPR 070450Z AUTO VRB01KT 7000 NCD 04/03 Q1025",
      "taf": "TAF LIPR 062300Z 0700/0724 VRB05KT 7000 SCT020"
    },
    {
      "icao": "LIPX",
      "alert": "OK",
      "vis_m": 7000,
      "fzfg": false,
      "metar_trigger": false,
      "taf_trigger": false,
      "metar": "METAR LIPX 070450Z 33003KT 7000 NSC 04/04 Q1025",
      "taf": "TAF LIPX 062300Z 0700/0724 VRB05KT 4000 BR SCT020"
    },
    {
      "icao": "LIPY",
      "alert": "OK",
      "vis_m": 3800,
      "fzfg": false,
      "metar_trigger": false,
      "taf_trigger": false,
      "metar": "METAR LIPY 070450Z AUTO 20004KT 3800 BR NCD 05/05 Q1025",
      "taf": "TAF LIPY 062300Z 0700/0724 VRB05KT 2000 BR NSC"
    },
    {
      "icao": "LIPZ",
      "alert": "OK",
      "vis_m": 5000,
      "fzfg": false,
      "metar_trigger": false,
      "taf_trigger": false,
      "metar": "METAR LIPZ 070450Z 33002KT 5000 BR NSC 05/05 Q1025 NOSIG",
      "taf": "TAF LIPZ 062300Z 0700/0806 VRB04KT 8000 NSC"
    },
    {
      "icao": "LIRF",
      "alert": "OK",
      "vis_m": 9999,
      "fzfg": false,
      "metar_trigger": false,
      "taf_trigger": false,
      "metar": "METAR LIRF 070450Z 04003KT CAVOK 11/09 Q1023 NOSIG",
      "taf": "TAF LIRF 062300Z 0700/0806 05006KT CAVOK"
    },
    {
      "icao": "LIRN",
      "alert": "OK",
      "vis_m": 9999,
      "fzfg": false,
      "metar_trigger": false,
      "taf_trigger": false,
      "metar": "METAR LIRN 070450Z 01005KT CAVOK 12/07 Q1023 NOSIG",
      "taf": "TAF LIRN 062300Z 0700/0724 VRB05KT CAVOK"
    },
    {
      "icao": "LIRP",
      "alert": "OK",
      "vis_m": 9999,
      "fzfg": false,
      "metar_trigger": false,
      "taf_trigger": false,
      "metar": "METAR LIRP 070445Z 11003KT 9999 FEW040 SCT050 08/07 Q1023 NOSIG",
      "taf": "TAF LIRP 062300Z 0700/0724 11005KT 9999 FEW030 SCT060"
    },
    {
      "icao": "LIRZ",
      "alert": "OK",
      "vis_m": 9999,
      "fzfg": false,
      "metar_trigger": false,
      "taf_trigger": false,
      "metar": "METAR LIRZ 070450Z AUTO VRB02KT 9999 NCD 05/04 Q1025",
      "taf": "TAF LIRZ 062300Z 0700/0724 VRB05KT CAVOK"
    },
    {
      "icao": "LJLJ",
      "alert": "OK",
      "vis_m": 9999,
      "fzfg": false,
      "metar_trigger": false,
      "taf_trigger": false,
      "metar": "METAR LJLJ 070500Z VRB02KT CAVOK M01/M02 Q1026 NOSIG",
      "taf": "TAF LJLJ 070500Z 0706/0806 28002KT CAVOK"
    },
    {
      "icao": "LKMT",
      "alert": "OK",
      "vis_m": 9999,
      "fzfg": false,
      "metar_trigger": false,
      "taf_trigger": false,
      "metar": "METAR LKMT 070500Z 22004KT CAVOK M01/M03 Q1027 NOSIG",
      "taf": "TAF LKMT 062300Z 0700/0724 20002KT CAVOK"
    },
    {
      "icao": "LKPR",
      "alert": "OK",
      "vis_m": 5000,
      "fzfg": false,
      "metar_trigger": false,
      "taf_trigger": false,
      "metar": "METAR LKPR 070500Z 04003KT 5000 BR BCFG NSC M00/M00 Q1025 TEMPO 2000 BR",
      "taf": "TAF LKPR 070200Z 0703/0809 14004KT CAVOK"
    },
    {
      "icao": "LLBG",
      "alert": "OK",
      "vis_m": 9999,
      "fzfg": false,
      "metar_trigger": false,
      "taf_trigger": false,
      "metar": "METAR LLBG 070450Z VRB02KT 9999 FEW035 11/07 Q1019 NOSIG",
      "taf": "TAF LLBG 070502Z 0706/0806 VRB04KT 9999 SCT035 TX19/0711Z TN08/0804Z"
    },
    {
      "icao": "LMML",
      "alert": "OK",
      "vis_m": 9999,
      "fzfg": false,
      "metar_trigger": false,
      "taf_trigger": false,
      "metar": "METAR LMML 070445Z 06008KT 9999 SCT006 BKN021 15/14 Q1021 NOSIG",
      "taf": "TAF LMML 070500Z 0706/0806 10013KT 9999 SCT013"
    },
    {
      "icao": "LOWW",
      "alert": "OK",
      "vis_m": 9999,
      "fzfg": false,
      "metar_trigger": false,
      "taf_trigger": false,
      "metar": "METAR LOWW 070450Z 13011KT CAVOK 06/01 Q1025 NOSIG",
      "taf": "TAF LOWW 070215Z 0703/0809 13012KT CAVOK TX16/0714Z TN02/0805Z"
    },
    {
      "icao": "LPFR",
      "alert": "OK",
      "vis_m": 9999,
      "fzfg": false,
      "metar_trigger": false,
      "taf_trigger": false,
      "metar": "METAR LPFR 070500Z 31010KT CAVOK 10/07 Q1016",
      "taf": "TAF LPFR 062300Z 0700/0724 VRB02KT CAVOK"
    },
    {
      "icao": "LPMA",
      "alert": "OK",
      "vis_m": 9999,
      "fzfg": false,
      "metar_trigger": false,
      "taf_trigger": false,
      "metar": "METAR LPMA 070500Z 01013KT 9999 BKN016 13/07 Q1024",
      "taf": "TAF LPMA 062300Z 0700/0724 02012KT 9999 SCT015 SCT030"
    },
    {
      "icao": "LPPR",
      "alert": "OK",
      "vis_m": 9999,
      "fzfg": false,
      "metar_trigger": false,
      "taf_trigger": false,
      "metar": "METAR LPPR 070500Z 35007KT CAVOK 06/03 Q1019",
      "taf": "TAF LPPR 062300Z 0700/0724 35010KT CAVOK"
    },
    {
      "icao": "LPPS",
      "alert": "OK",
      "vis_m": 9999,
      "fzfg": false,
      "metar_trigger": false,
      "taf_trigger": false,
      "metar": "METAR LPPS 070500Z 05007KT 010V080 9999 FEW015 BKN030 13/05 Q1024",
      "taf": "TAF LPPS 062300Z 0700/0806 03012KT 9999 FEW015 BKN030"
    },
    {
      "icao": "LPPT",
      "alert": "OK",
      "vis_m": 9999,
      "fzfg": false,
      "metar_trigger": false,
      "taf_trigger": false,
      "metar": "METAR LPPT 070500Z 32011KT CAVOK 10/07 Q1017",
      "taf": "TAF LPPT 062300Z 0700/0806 34013KT CAVOK"
    },
    {
      "icao": "LQBK",
      "alert": "OK",
      "vis_m": 7000,
      "fzfg": false,
      "metar_trigger": false,
      "taf_trigger": false,
      "metar": "METAR LQBK 070500Z 14005KT 7000 NSC 01/M01 Q1026 NOSIG",
      "taf": "TAF LQBK 070500Z 0706/0806 16005KT CAVOK TX17/0714Z TN01/0806Z"
    },
    {
      "icao": "LQSA",
      "alert": "OK",
      "vis_m": 9999,
      "fzfg": false,
      "metar_trigger": false,
      "taf_trigger": false,
      "metar": "METAR LQSA 070500Z VRB01KT CAVOK M01/M01 Q1027 NOSIG",
      "taf": "TAF LQSA 070500Z 0706/0806 VRB02KT CAVOK TX18/0714Z TNM01/0706Z"
    },
    {
      "icao": "LQTZ",
      "alert": "OK",
      "vis_m": 9999,
      "fzfg": false,
      "metar_trigger": false,
      "taf_trigger": false,
      "metar": "METAR LQTZ 070430Z 00000KT CAVOK M00/M00 Q1026",
      "taf": "TAF LQTZ 070500Z 0706/0806 10005KT CAVOK TX17/0714Z TNM00/0805Z"
    },
    {
      "icao": "LRBC",
      "alert": "OK",
      "vis_m": 9999,
      "fzfg": false,
      "metar_trigger": false,
      "taf_trigger": false,
      "metar": "METAR LRBC 070500Z 02001KT CAVOK M02/M03 Q1030",
      "taf": "TAF LRBC 070200Z 0703/0712 VRB04KT CAVOK"
    },
    {
      "icao": "LRBS",
      "alert": "OK",
      "vis_m": 9999,
      "fzfg": false,
      "metar_trigger": false,
      "taf_trigger": false,
      "metar": "METAR LRBS 070500Z VRB02KT CAVOK 01/M02 Q1030 NOSIG",
      "taf": "TAF LRBS 062300Z 0700/0724 VRB04KT CAVOK"
    },
    {
      "icao": "LRBV",
      "alert": "OK",
      "vis_m": 9999,
      "fzfg": false,
      "metar_trigger": false,
      "taf_trigger": false,
      "metar": "METAR LRBV 070500Z 18004KT CAVOK M03/M04 Q1028",
      "taf": "TAF LRBV 070200Z 0703/0712 VRB04KT CAVOK"
    },
    {
      "icao": "LRCL",
      "alert": "OK",
      "vis_m": 9999,
      "fzfg": false,
      "metar_trigger": false,
      "taf_trigger": false,
      "metar": "METAR LRCL 070500Z 00000KT CAVOK M04/M05 Q1028",
      "taf": "TAF LRCL 070200Z 0703/0712 VRB04KT CAVOK"
    },
    {
      "icao": "LRCV",
      "alert": "OK",
      "vis_m": 9999,
      "fzfg": false,
      "metar_trigger": false,
      "taf_trigger": false,
      "metar": "METAR LRCV 070500Z 05010KT CAVOK 02/00 Q1029",
      "taf": "TAF LRCV 070200Z 0703/0712 06008KT CAVOK"
    },
    {
      "icao": "LRIA",
      "alert": "OK",
      "vis_m": 9999,
      "fzfg": false,
      "metar_trigger": false,
      "taf_trigger": false,
      "metar": "METAR LRIA 070500Z VRB01KT CAVOK 00/M02 Q1030",
      "taf": "TAF LRIA 070200Z 0703/0712 VRB04KT CAVOK"
    },
    {
      "icao": "LROP",
      "alert": "OK",
      "vis_m": 9999,
      "fzfg": false,
      "metar_trigger": false,
      "taf_trigger": false,
      "metar": "METAR LROP 070500Z 03006KT CAVOK 02/M03 Q1030 NOSIG",
      "taf": "TAF LROP 062300Z 0700/0724 VRB04KT CAVOK"
    },
    {
      "icao": "LRSB",
      "alert": "OK",
      "vis_m": 9999,
      "fzfg": false,
      "metar_trigger": false,
      "taf_trigger": false,
      "metar": "METAR LRSB 070500Z 25003KT CAVOK M03/M04 Q1027",
      "taf": "TAF LRSB 062300Z 0700/0724 VRB04KT CAVOK"
    },
    {
      "icao": "LRSM",
      "alert": "OK",
      "vis_m": 9999,
      "fzfg": false,
      "metar_trigger": false,
      "taf_trigger": false,
      "metar": "METAR LRSM 070500Z AUTO 08001KT 9999 NCD M03/M04 Q1028",
      "taf": ""
    },
    {
      "icao": "LRSV",
      "alert": "OK",
      "vis_m": 9999,
      "fzfg": false,
      "metar_trigger": false,
      "taf_trigger": false,
      "metar": "METAR LRSV 070500Z 25004KT 200V260 CAVOK 00/M02 Q1028",
      "taf": "TAF LRSV 070200Z 0703/0712 24005KT CAVOK"
    },
    {
      "icao": "LRTM",
      "alert": "OK",
      "vis_m": 9999,
      "fzfg": false,
      "metar_trigger": false,
      "taf_trigger": false,
      "metar": "METAR LRTM 070500Z 09005KT 9999 FEW008 M03/M05 Q1028",
      "taf": "TAF LRTM 070200Z 0703/0712 VRB04KT CAVOK"
    },
    {
      "icao": "LRTR",
      "alert": "OK",
      "vis_m": 9999,
      "fzfg": false,
      "metar_trigger": false,
      "taf_trigger": false,
      "metar": "METAR LRTR 070500Z 11007KT CAVOK M01/M02 Q1027",
      "taf": "TAF LRTR 062300Z 0700/0724 VRB04KT CAVOK"
    },
    {
      "icao": "LTAC",
      "alert": "OK",
      "vis_m": 9999,
      "fzfg": false,
      "metar_trigger": false,
      "taf_trigger": false,
      "metar": "METAR LTAC 070450Z 06004KT 9999 BKN040 M00/M07 Q1024 NOSIG RMK RWY21C VRB02KT RWY03L 06003KT 040V100 RWY21R VRB02KT RWY03R 06003KT RWY21L VRB02KT",
      "taf": "TAF LTAC 070440Z 0706/0806 03008KT 9999 BKN033"
    },
    {
      "icao": "LTFM",
      "alert": "OK",
      "vis_m": 9999,
      "fzfg": false,
      "metar_trigger": false,
      "taf_trigger": false,
      "metar": "METAR LTFM 070450Z 32004KT 280V340 9999 FEW006 04/02 Q1029 NOSIG RMK RWY17L 26005KT RWY34L 32005KT 290V360 RWY16R 25004KT RWY36 35002KT RWY18 25004KT",
      "taf": "TAF LTFM 070440Z 0706/0812 VRB02KT 9999 FEW010"
    },
    {
      "icao": "LUKK",
      "alert": "OK",
      "vis_m": 9999,
      "fzfg": false,
      "metar_trigger": false,
      "taf_trigger": false,
      "metar": "METAR LUKK 070500Z 25002KT CAVOK M02/M03 Q1030 NOSIG",
      "taf": "TAF LUKK 062310Z 0700/0724 VRB05KT CAVOK"
    },
    {
      "icao": "LWOH",
      "alert": "OK",
      "vis_m": 9999,
      "fzfg": false,
      "metar_trigger": false,
      "taf_trigger": false,
      "metar": "METAR LWOH 070450Z 36005KT CAVOK M01/M02 Q1027",
      "taf": "TAF LWOH 070230Z 0703/0803 34006KT CAVOK"
    },
    {
      "icao": "LWSK",
      "alert": "OK",
      "vis_m": 9999,
      "fzfg": false,
      "metar_trigger": false,
      "taf_trigger": false,
      "metar": "METAR LWSK 070450Z VRB01KT CAVOK M00/M02 Q1028 NOSIG",
      "taf": "TAF LWSK 070230Z 0703/0803 VRB02KT CAVOK"
    },
    {
      "icao": "LYBE",
      "alert": "OK",
      "vis_m": 9999,
      "fzfg": false,
      "metar_trigger": false,
      "taf_trigger": false,
      "metar": "METAR LYBE 070500Z 08004KT CAVOK 03/M00 Q1027 NOSIG",
      "taf": "TAF LYBE 062300Z 0700/0724 07004KT CAVOK TX18/0713Z TN01/0705Z"
    },
    {
      "icao": "LYNI",
      "alert": "OK",
      "vis_m": 9999,
      "fzfg": false,
      "metar_trigger": false,
      "taf_trigger": false,
      "metar": "METAR LYNI 070500Z 00000KT 9999 MIFG NSC 01/01 Q1028 TEMPO 4000 BR",
      "taf": "TAF LYNI 062300Z 0700/0724 13004KT CAVOK TX18/0714Z TN01/0706Z"
    },
    {
      "icao": "LYPG",
      "alert": "OK",
      "vis_m": 9999,
      "fzfg": false,
      "metar_trigger": false,
      "taf_trigger": false,
      "metar": "METAR LYPG 070500Z 35006KT CAVOK 06/00 Q1026 NOSIG",
      "taf": "TAF LYPG 062300Z 0700/0724 36005KT CAVOK TX20/0714Z TN04/0705Z"
    },
    {
      "icao": "LZIB",
      "alert": "OK",
      "vis_m": 9999,
      "fzfg": false,
      "metar_trigger": false,
      "taf_trigger": false,
      "metar": "METAR LZIB 070500Z 02003KT CAVOK 03/M01 Q1027 NOSIG",
      "taf": ""
    },
    {
      "icao": "LZKZ",
      "alert": "OK",
      "vis_m": 9999,
      "fzfg": false,
      "metar_trigger": false,
      "taf_trigger": false,
      "metar": "METAR LZKZ 070500Z 35002KT CAVOK M01/M04 Q1028 NOSIG",
      "taf": ""
    },
    {
      "icao": "LZTT",
      "alert": "OK",
      "vis_m": 9999,
      "fzfg": false,
      "metar_trigger": false,
      "taf_trigger": false,
      "metar": "METAR LZTT 070500Z 34003KT CAVOK M04/M07 Q1027",
      "taf": ""
    },
    {
      "icao": "OEJN",
      "alert": "OK",
      "vis_m": 9999,
      "fzfg": false,
      "metar_trigger": false,
      "taf_trigger": false,
      "metar": "METAR OEJN 070500Z 34008KT 9999 SCT040 25/19 Q1012 NOSIG",
      "taf": "TAF OEJN 070500Z 0706/0812 29012KT 7000 SCT040"
    },
    {
      "icao": "OEMA",
      "alert": "OK",
      "vis_m": 9999,
      "fzfg": false,
      "metar_trigger": false,
      "taf_trigger": false,
      "metar": "METAR OEMA 070500Z VRB02KT 9999 SCT045 19/00 Q1016 NOSIG",
      "taf": "TAF OEMA 070500Z 0706/0812 27012KT 9999 FEW040"
    },
    {
      "icao": "OJAI",
      "alert": "OK",
      "vis_m": 4500,
      "fzfg": false,
      "metar_trigger": false,
      "taf_trigger": false,
      "metar": "METAR OJAI 070400Z 10003KT 4500 HZ SCT025 02/M00 Q1018 NOSIG",
      "taf": "TAF OJAI 062250Z 0700/0806 28008KT 5000 HZ NSC"
    },
    {
      "icao": "OMAA",
      "alert": "OK",
      "vis_m": null,
      "fzfg": false,
      "metar_trigger": false,
      "taf_trigger": false,
      "metar": "",
      "taf": ""
    },
    {
      "icao": "OMDB",
      "alert": "OK",
      "vis_m": null,
      "fzfg": false,
      "metar_trigger": false,
      "taf_trigger": false,
      "metar": "",
      "taf": ""
    },
    {
      "icao": "UAAA",
      "alert": "OK",
      "vis_m": 9999,
      "fzfg": false,
      "metar_trigger": false,
      "taf_trigger": false,
      "metar": "METAR UAAA 070500Z VRB01MPS 9999 OVC013 03/M01 Q1024 NOSIG",
      "taf": "TAF UAAA 062301Z 0700/0724 04003MPS 3100 BR FU BKN011 OVC030 TX09/0709Z TNM00/0701Z"
    },
    {
      "icao": "UBBB",
      "alert": "OK",
      "vis_m": 9999,
      "fzfg": false,
      "metar_trigger": false,
      "taf_trigger": false,
      "metar": "METAR UBBB 070500Z 33020G30KT 9999 SCT010 BKN027 07/05 Q1020 NOSIG",
      "taf": "TAF UBBB 070504Z 0706/0806 33018G28KT 9999 BKN010 BKN030 TX09/0710Z TN05/0801Z"
    },
    {
      "icao": "UDSG",
      "alert": "OK",
      "vis_m": 9999,
      "fzfg": false,
      "metar_trigger": false,
      "taf_trigger": false,
      "metar": "METAR UDSG 070500Z 23001KT 9999 OVC043 M04/M06 Q1017 NOSIG",
      "taf": "TAF UDSG 062300Z 0700/0724 VRB06KT 1000 BR BKN010"
    },
    {
      "icao": "UDYZ",
      "alert": "OK",
      "vis_m": 1800,
      "fzfg": false,
      "metar_trigger": false,
      "taf_trigger": false,
      "metar": "METAR UDYZ 070500Z 28001KT 1800 R08/1800U -SN BR SCT003 OVC017 00/00 Q1018 NOSIG",
      "taf": "TAF UDYZ 062300Z 0700/0724 VRB06KT 6000 BKN040"
    },
    {
      "icao": "UGKO",
      "alert": "OK",
      "vis_m": 9999,
      "fzfg": false,
      "metar_trigger": false,
      "taf_trigger": false,
      "metar": "METAR UGKO 070500Z 09005KT 9999 -RA SCT015 BKN021 OVC040 02/01 Q1023 NOSIG",
      "taf": "TAF UGKO 070500Z 0706/0806 10006KT 9999 SCT022 BKN040 TX09/0711Z TN02/0804Z"
    }
  ]
}