{
  "ts_utc": "2026-03-28T23:50:10Z",
  "threshold_m": 150,
  "source": "stations_override.txt (ICAO list) + aviationweather.gov (METAR/TAF raw)",
  "station_count": 159,
  "stations": [
    {
      "icao": "BIKF",
      "alert": "OK",
      "vis_m": 9999,
      "fzfg": false,
      "metar_trigger": false,
      "taf_trigger": false,
      "metar": "METAR BIKF 282330Z 22018KT 9999 VCSH BKN015 OVC095 04/02 Q0976",
      "taf": "TAF BIKF 282258Z 2900/3000 23018KT 9999 -SHRA SCT014 BKN025 TX04/2912Z TN01/2906Z"
    },
    {
      "icao": "BKPR",
      "alert": "OK",
      "vis_m": 9999,
      "fzfg": false,
      "metar_trigger": false,
      "taf_trigger": false,
      "metar": "METAR BKPR 282330Z 32003KT 290V350 9999 BKN020 03/01 Q1005 NOSIG",
      "taf": "TAF BKPR 282330Z 2900/2924 VRB05KT 9999 BKN040"
    },
    {
      "icao": "EBCI",
      "alert": "OK",
      "vis_m": 9999,
      "fzfg": false,
      "metar_trigger": false,
      "taf_trigger": false,
      "metar": "METAR EBCI 282320Z 29005KT 250V330 CAVOK 02/00 Q1027 NOSIG",
      "taf": "TAF EBCI 282311Z 2900/3006 27006KT 9999 SCT017"
    },
    {
      "icao": "EDDB",
      "alert": "OK",
      "vis_m": 9999,
      "fzfg": false,
      "metar_trigger": false,
      "taf_trigger": false,
      "metar": "METAR EDDB 282320Z AUTO 33005KT 9999 -RADZ BKN011 BKN018 04/03 Q1020 TEMPO BKN009",
      "taf": "TAF EDDB 282300Z 2900/2924 32006KT 9999 BKN012"
    },
    {
      "icao": "EDDH",
      "alert": "OK",
      "vis_m": 9999,
      "fzfg": false,
      "metar_trigger": false,
      "taf_trigger": false,
      "metar": "METAR EDDH 282320Z AUTO VRB02KT 9999 4500 BR NCD 01/00 Q1021 NOSIG",
      "taf": "TAF EDDH 282300Z 2900/3006 25004KT CAVOK"
    },
    {
      "icao": "EDDK",
      "alert": "OK",
      "vis_m": 9999,
      "fzfg": false,
      "metar_trigger": false,
      "taf_trigger": false,
      "metar": "METAR EDDK 282320Z AUTO VRB01KT 9999 BKN031 02/M00 Q1025 NOSIG",
      "taf": "TAF EDDK 282300Z 2900/3006 32005KT 9999 SCT020"
    },
    {
      "icao": "EDDN",
      "alert": "OK",
      "vis_m": 7000,
      "fzfg": false,
      "metar_trigger": false,
      "taf_trigger": false,
      "metar": "METAR EDDN 282320Z AUTO 31006KT 7000 -SNRA OVC004 01/00 Q1021",
      "taf": "TAF EDDN 282300Z 2900/2924 30007KT 8000 SCT004 OVC015"
    },
    {
      "icao": "EDDS",
      "alert": "OK",
      "vis_m": 9999,
      "fzfg": false,
      "metar_trigger": false,
      "taf_trigger": false,
      "metar": "METAR EDDS 282320Z AUTO 32008KT 290V350 9999 SCT010 BKN017 OVC038 03/01 Q1022",
      "taf": "TAF EDDS 282300Z 2900/2924 31007KT 9999 BKN015"
    },
    {
      "icao": "EDFH",
      "alert": "OK",
      "vis_m": 9999,
      "fzfg": false,
      "metar_trigger": false,
      "taf_trigger": false,
      "metar": "METAR EDFH 282320Z 28004KT CAVOK M00/M01 Q1023",
      "taf": "TAF EDFH 282300Z 2900/2924 32006KT 9999 SCT015"
    },
    {
      "icao": "EDJA",
      "alert": "OK",
      "vis_m": 3000,
      "fzfg": false,
      "metar_trigger": false,
      "taf_trigger": false,
      "metar": "METAR EDJA 282320Z AUTO 28006KT 3000 // BKN002/// OVC010/// 00/M00 Q1021",
      "taf": "TAF EDJA 281700Z 2818/2903 27007KT 8000 SCT005 OVC015"
    },
    {
      "icao": "EDLW",
      "alert": "OK",
      "vis_m": 9999,
      "fzfg": false,
      "metar_trigger": false,
      "taf_trigger": false,
      "metar": "METAR EDLW 282320Z AUTO 23006KT 9999 // SCT022/// BKN028/// BKN054/// 03/01 Q1024",
      "taf": "TAF EDLW 281700Z 2818/2918 30004KT 9999 SCT030"
    },
    {
      "icao": "EDNY",
      "alert": "OK",
      "vis_m": 9999,
      "fzfg": false,
      "metar_trigger": false,
      "taf_trigger": false,
      "metar": "METAR EDNY 282320Z AUTO 27003KT 240V300 9999 // FEW008/// OVC020/// 01/00 Q1022",
      "taf": "TAF EDNY 281700Z 2818/2903 24005KT 9999 SCT009 OVC020"
    },
    {
      "icao": "EDSB",
      "alert": "OK",
      "vis_m": 6000,
      "fzfg": false,
      "metar_trigger": false,
      "taf_trigger": false,
      "metar": "METAR EDSB 282320Z AUTO 15004KT 6000 // OVC040/// 04/03 Q1024",
      "taf": "TAF EDSB 282300Z 2900/2924 21006KT 9999 BKN020"
    },
    {
      "icao": "EETN",
      "alert": "OK",
      "vis_m": 9999,
      "fzfg": false,
      "metar_trigger": false,
      "taf_trigger": false,
      "metar": "METAR EETN 282320Z 00000KT CAVOK M02/M02 Q1018",
      "taf": "TAF EETN 282330Z 2900/2924 20008KT CAVOK"
    },
    {
      "icao": "EFTU",
      "alert": "OK",
      "vis_m": 9999,
      "fzfg": false,
      "metar_trigger": false,
      "taf_trigger": false,
      "metar": "METAR EFTU 282320Z AUTO 20007KT 9999 SCT007 OVC029 02/01 Q1015",
      "taf": "TAF EFTU 282336Z 2900/2924 20007KT 9999 BKN007 OVC030"
    },
    {
      "icao": "EGBB",
      "alert": "OK",
      "vis_m": 9999,
      "fzfg": false,
      "metar_trigger": false,
      "taf_trigger": false,
      "metar": "METAR EGBB 282320Z 28004KT CAVOK 04/00 Q1031",
      "taf": "TAF EGBB 282258Z 2900/2924 23003KT 9999 FEW040"
    },
    {
      "icao": "EGGP",
      "alert": "OK",
      "vis_m": 9999,
      "fzfg": false,
      "metar_trigger": false,
      "taf_trigger": false,
      "metar": "METAR EGGP 282320Z 28008KT 9999 FEW037 05/02 Q1030",
      "taf": "TAF EGGP 282302Z 2900/2924 28007KT 9999 FEW030"
    },
    {
      "icao": "EGGW",
      "alert": "OK",
      "vis_m": 9999,
      "fzfg": false,
      "metar_trigger": false,
      "taf_trigger": false,
      "metar": "METAR EGGW 282320Z AUTO 30012KT 9999 NCD 03/M00 Q1030",
      "taf": "TAF EGGW 282254Z 2900/2924 27008KT 9999 FEW045"
    },
    {
      "icao": "EGKK",
      "alert": "OK",
      "vis_m": 9999,
      "fzfg": false,
      "metar_trigger": false,
      "taf_trigger": false,
      "metar": "METAR EGKK 282320Z 23003KT 190V260 CAVOK 04/M01 Q1031",
      "taf": "TAF EGKK 282257Z 2900/3006 30006KT 9999 FEW045"
    },
    {
      "icao": "EGNM",
      "alert": "OK",
      "vis_m": 9999,
      "fzfg": false,
      "metar_trigger": false,
      "taf_trigger": false,
      "metar": "METAR EGNM 282320Z 27005KT 9999 FEW013 03/01 Q1028",
      "taf": "TAF EGNM 282259Z 2900/2924 23007KT 9999 SCT025"
    },
    {
      "icao": "EGPD",
      "alert": "OK",
      "vis_m": 9999,
      "fzfg": false,
      "metar_trigger": false,
      "taf_trigger": false,
      "metar": "METAR EGPD 282320Z COR AUTO 25011KT 9999 NCD 04/M03 Q1022 NOSIG",
      "taf": "TAF EGPD 282254Z 2900/2924 24012KT 9999 FEW025"
    },
    {
      "icao": "EGPF",
      "alert": "OK",
      "vis_m": 9999,
      "fzfg": false,
      "metar_trigger": false,
      "taf_trigger": false,
      "metar": "METAR EGPF 282320Z AUTO 25007KT 9999 FEW032 05/03 Q1026",
      "taf": "TAF EGPF 282254Z 2900/2924 24008KT 9999 FEW030"
    },
    {
      "icao": "EHBK",
      "alert": "OK",
      "vis_m": 9999,
      "fzfg": false,
      "metar_trigger": false,
      "taf_trigger": false,
      "metar": "METAR EHBK 282325Z AUTO 26006KT 230V330 9999 FEW009 SCT012 BKN014 FEW015CB 04/02 Q1026",
      "taf": "TAF EHBK 282307Z 2900/3006 28006KT 9999 BKN030"
    },
    {
      "icao": "EHEH",
      "alert": "OK",
      "vis_m": 9999,
      "fzfg": false,
      "metar_trigger": false,
      "taf_trigger": false,
      "metar": "METAR EHEH 282325Z AUTO 23004KT 9999 NCD 03/02 Q1026 BLU",
      "taf": ""
    },
    {
      "icao": "EKBI",
      "alert": "OK",
      "vis_m": 9999,
      "fzfg": false,
      "metar_trigger": false,
      "taf_trigger": false,
      "metar": "METAR EKBI 282320Z AUTO 00000KT 9999 SCT008/// OVC019/// 02/02 Q1019",
      "taf": "TAF EKBI 282327Z 2900/2924 15005KT 9999 SCT008"
    },
    {
      "icao": "EKCH",
      "alert": "OK",
      "vis_m": 9999,
      "fzfg": false,
      "metar_trigger": false,
      "taf_trigger": false,
      "metar": "METAR EKCH 282320Z AUTO 28008KT 9999 NCD 04/01 Q1019 NOSIG",
      "taf": "TAF EKCH 282327Z 2900/2924 29008KT 9999 FEW025"
    },
    {
      "icao": "ENAL",
      "alert": "OK",
      "vis_m": 9999,
      "fzfg": false,
      "metar_trigger": false,
      "taf_trigger": false,
      "metar": "METAR ENAL 282320Z AUTO 22019KT 9999 -DZRA FEW032/// BKN041/// BKN051/// 05/00 Q1008",
      "taf": "TAF ENAL 282300Z 2900/2909 19015KT 9999 -SHRA FEW025TCU SCT040"
    },
    {
      "icao": "ENBR",
      "alert": "OK",
      "vis_m": 9999,
      "fzfg": false,
      "metar_trigger": false,
      "taf_trigger": false,
      "metar": "METAR ENBR 282320Z 12009KT 9999 -SHRA FEW012 BKN015 03/02 Q1012 RMK WIND 1200FT 14010KT",
      "taf": "TAF ENBR 282300Z 2900/2924 14008KT 9999 -SHRA FEW015TCU BKN030"
    },
    {
      "icao": "ENGM",
      "alert": "OK",
      "vis_m": 9999,
      "fzfg": false,
      "metar_trigger": false,
      "taf_trigger": false,
      "metar": "METAR ENGM 282320Z VRB02KT CAVOK M00/M01 Q1011",
      "taf": "TAF ENGM 282300Z 2900/2924 20003KT CAVOK"
    },
    {
      "icao": "ENHD",
      "alert": "OK",
      "vis_m": 8000,
      "fzfg": false,
      "metar_trigger": false,
      "taf_trigger": false,
      "metar": "METAR ENHD 282320Z AUTO 21010KT 8000 SCT010/// BKN013/// BKN016/// 06/04 Q1013",
      "taf": "TAF ENHD 281400Z 2815/2823 25012KT 9999 -SHRA FEW012TCU BKN025"
    },
    {
      "icao": "ENTC",
      "alert": "OK",
      "vis_m": 9999,
      "fzfg": false,
      "metar_trigger": false,
      "taf_trigger": false,
      "metar": "METAR ENTC 282320Z AUTO 21014KT 9999 OVC045/// 03/M00 Q1001 RMK WIND 2600FT 19022KT",
      "taf": "TAF ENTC 282300Z 2900/2924 22014KT 9999 SCT020 BKN045"
    },
    {
      "icao": "ENTO",
      "alert": "OK",
      "vis_m": 9999,
      "fzfg": false,
      "metar_trigger": false,
      "taf_trigger": false,
      "metar": "METAR ENTO 282320Z AUTO 24005KT 9999 NCD 03/M01 Q1013",
      "taf": "TAF ENTO 282300Z 2900/2924 24005KT CAVOK"
    },
    {
      "icao": "ENVA",
      "alert": "OK",
      "vis_m": 9999,
      "fzfg": false,
      "metar_trigger": false,
      "taf_trigger": false,
      "metar": "METAR ENVA 282320Z 09007KT CAVOK M00/M03 Q1007 RMK WIND 670FT 14010KT",
      "taf": "TAF ENVA 282300Z 2900/2924 12008KT CAVOK"
    },
    {
      "icao": "ENZV",
      "alert": "OK",
      "vis_m": 9999,
      "fzfg": false,
      "metar_trigger": false,
      "taf_trigger": false,
      "metar": "METAR ENZV 282320Z 19009KT 9999 FEW016 SCT019 BKN026 05/03 Q1014",
      "taf": "TAF ENZV 282300Z 2900/2924 20008KT 9999 -SHRA FEW015TCU SCT030"
    },
    {
      "icao": "EPGD",
      "alert": "OK",
      "vis_m": 9999,
      "fzfg": false,
      "metar_trigger": false,
      "taf_trigger": false,
      "metar": "METAR EPGD 282330Z 11007KT 9999 -RA BKN031 04/02 Q1018",
      "taf": "TAF EPGD 282330Z 2900/2924 VRB03KT 9999 BKN040"
    },
    {
      "icao": "EPKK",
      "alert": "OK",
      "vis_m": 5000,
      "fzfg": false,
      "metar_trigger": false,
      "taf_trigger": false,
      "metar": "METAR EPKK 282330Z 24008KT 5000 BR SCT008 04/03 Q1013",
      "taf": "TAF EPKK 282330Z 2900/2924 23007KT 4000 BR BKN008"
    },
    {
      "icao": "EPKT",
      "alert": "OK",
      "vis_m": 9999,
      "fzfg": false,
      "metar_trigger": false,
      "taf_trigger": false,
      "metar": "METAR EPKT 282330Z 31006KT 9999 FEW049 03/02 Q1014",
      "taf": "TAF EPKT 282330Z 2900/2924 30005KT 9999 SCT017"
    },
    {
      "icao": "EPLB",
      "alert": "OK",
      "vis_m": 9999,
      "fzfg": false,
      "metar_trigger": false,
      "taf_trigger": false,
      "metar": "METAR EPLB 282330Z 03007KT CAVOK 09/02 Q1012",
      "taf": "TAF EPLB 282330Z 2900/2924 02008KT CAVOK"
    },
    {
      "icao": "EPMO",
      "alert": "OK",
      "vis_m": 9999,
      "fzfg": false,
      "metar_trigger": false,
      "taf_trigger": false,
      "metar": "METAR EPMO 282330Z 35006KT CAVOK 06/02 Q1014",
      "taf": "TAF EPMO 282330Z 2900/2924 36008KT CAVOK"
    },
    {
      "icao": "EPPO",
      "alert": "OK",
      "vis_m": 9999,
      "fzfg": false,
      "metar_trigger": false,
      "taf_trigger": false,
      "metar": "METAR EPPO 282330Z VRB02KT 9999 OVC049 06/01 Q1018",
      "taf": "TAF EPPO 282330Z 2900/2924 VRB02KT 9999 BKN045"
    },
    {
      "icao": "EPRA",
      "alert": "OK",
      "vis_m": 9999,
      "fzfg": false,
      "metar_trigger": false,
      "taf_trigger": false,
      "metar": "METAR EPRA 282330Z 01004KT CAVOK 08/03 Q1012",
      "taf": "TAF EPRA 282330Z 2900/2909 35008KT CAVOK"
    },
    {
      "icao": "EPRZ",
      "alert": "OK",
      "vis_m": 1700,
      "fzfg": false,
      "metar_trigger": false,
      "taf_trigger": false,
      "metar": "METAR EPRZ 282330Z 26007KT 1700 BR BKN002 06/06 Q1010",
      "taf": "TAF EPRZ 282330Z 2900/2924 25008KT 3000 BR SCT003"
    },
    {
      "icao": "EPSC",
      "alert": "OK",
      "vis_m": 9999,
      "fzfg": false,
      "metar_trigger": false,
      "taf_trigger": false,
      "metar": "METAR EPSC 282330Z 32006KT 9999 SCT007 BKN013 04/03 Q1019",
      "taf": "TAF EPSC 282330Z 2900/2924 31005KT 9999 BKN012 OVC020"
    },
    {
      "icao": "EPSY",
      "alert": "OK",
      "vis_m": 9999,
      "fzfg": false,
      "metar_trigger": false,
      "taf_trigger": false,
      "metar": "METAR EPSY 282330Z 01004KT CAVOK 03/00 Q1015",
      "taf": "TAF EPSY 282330Z 2900/2909 01005KT CAVOK"
    },
    {
      "icao": "EPWA",
      "alert": "OK",
      "vis_m": 9999,
      "fzfg": false,
      "metar_trigger": false,
      "taf_trigger": false,
      "metar": "METAR EPWA 282330Z 04006KT CAVOK 10/03 Q1014 NOSIG",
      "taf": "TAF EPWA 282330Z 2900/2924 02008KT CAVOK"
    },
    {
      "icao": "EPWR",
      "alert": "OK",
      "vis_m": 9999,
      "fzfg": false,
      "metar_trigger": false,
      "taf_trigger": false,
      "metar": "METAR EPWR 282330Z 31008KT 9999 -RA BKN023 04/03 Q1018",
      "taf": "TAF EPWR 282330Z 2900/2924 32010KT 6000 -RA FEW015 BKN025"
    },
    {
      "icao": "ESGG",
      "alert": "OK",
      "vis_m": 9999,
      "fzfg": false,
      "metar_trigger": false,
      "taf_trigger": false,
      "metar": "METAR ESGG 282320Z 21005KT CAVOK M00/M01 Q1016",
      "taf": "TAF ESGG 282330Z 2900/2924 20005KT 9999 FEW020"
    },
    {
      "icao": "ESKN",
      "alert": "OK",
      "vis_m": 9999,
      "fzfg": false,
      "metar_trigger": false,
      "taf_trigger": false,
      "metar": "METAR ESKN 282320Z 23003KT 9999 SCT048 02/02 Q1015",
      "taf": "TAF ESKN 282330Z 2900/2924 23003KT 9999 SCT045"
    },
    {
      "icao": "ESMS",
      "alert": "OK",
      "vis_m": 5000,
      "fzfg": false,
      "metar_trigger": false,
      "taf_trigger": false,
      "metar": "METAR ESMS 282320Z 25003KT 5000 BR NSC 02/02 Q1018",
      "taf": "TAF ESMS 282327Z 2900/2924 24003KT 9999 FEW030"
    },
    {
      "icao": "ESSA",
      "alert": "OK",
      "vis_m": 9999,
      "fzfg": false,
      "metar_trigger": false,
      "taf_trigger": false,
      "metar": "METAR ESSA 282320Z 22005KT CAVOK 03/01 Q1014 NOSIG",
      "taf": "TAF ESSA 282330Z 2900/2924 22006KT CAVOK"
    },
    {
      "icao": "EYKA",
      "alert": "OK",
      "vis_m": 9999,
      "fzfg": false,
      "metar_trigger": false,
      "taf_trigger": false,
      "metar": "METAR EYKA 282320Z AUTO VRB01KT 9999 NCD 02/00 Q1017",
      "taf": "TAF EYKA 282302Z 2900/2924 VRB04KT 9000 NSC"
    },
    {
      "icao": "EYPA",
      "alert": "OK",
      "vis_m": 9999,
      "fzfg": false,
      "metar_trigger": false,
      "taf_trigger": false,
      "metar": "METAR EYPA 282320Z AUTO 06003KT 9999 FEW054/// OVC075/// 01/M02 Q1018",
      "taf": "TAF EYPA 282308Z 2900/2924 VRB04KT 9000 BKN025"
    },
    {
      "icao": "EYVI",
      "alert": "OK",
      "vis_m": 9999,
      "fzfg": false,
      "metar_trigger": false,
      "taf_trigger": false,
      "metar": "METAR EYVI 282320Z 35004KT CAVOK 04/M01 Q1016 NOSIG",
      "taf": "TAF EYVI 282300Z 2900/2924 VRB04KT 9000 NSC"
    },
    {
      "icao": "GCFV",
      "alert": "OK",
      "vis_m": 9999,
      "fzfg": false,
      "metar_trigger": false,
      "taf_trigger": false,
      "metar": "METAR GCFV 282330Z AUTO 01014KT 9999 OVC028 18/12 Q1020",
      "taf": "TAF GCFV 282000Z 2821/2921 01011KT 9999 SCT020 TX22/2914Z TN16/2906Z"
    },
    {
      "icao": "GCLP",
      "alert": "OK",
      "vis_m": 9999,
      "fzfg": false,
      "metar_trigger": false,
      "taf_trigger": false,
      "metar": "METAR GCLP 282330Z 01019KT 9999 SCT025 18/13 Q1021 NOSIG",
      "taf": "TAF GCLP 282000Z 2821/2921 36020KT 9999 FEW020 TX22/2914Z TN17/2906Z"
    },
    {
      "icao": "GCTS",
      "alert": "OK",
      "vis_m": 9999,
      "fzfg": false,
      "metar_trigger": false,
      "taf_trigger": false,
      "metar": "METAR GCTS 282330Z 04008KT 020V080 9999 FEW025 17/11 Q1021 NOSIG",
      "taf": "TAF GCTS 282000Z 2821/2921 03012KT 9999 FEW025 TX24/2914Z TN16/2906Z"
    },
    {
      "icao": "GMAD",
      "alert": "OK",
      "vis_m": 6000,
      "fzfg": false,
      "metar_trigger": false,
      "taf_trigger": false,
      "metar": "METAR GMAD 282330Z 08004KT 6000 SCT020 13/13 Q1017 NOSIG",
      "taf": "TAF GMAD 282300Z 2900/3006 08006KT 6000 SCT020"
    },
    {
      "icao": "GMMN",
      "alert": "OK",
      "vis_m": 9999,
      "fzfg": false,
      "metar_trigger": false,
      "taf_trigger": false,
      "metar": "METAR GMMN 282330Z 04003KT 020V090 CAVOK 12/11 Q1020 NOSIG",
      "taf": "TAF GMMN 282300Z 2900/3006 03004KT CAVOK"
    },
    {
      "icao": "GMMX",
      "alert": "OK",
      "vis_m": 8000,
      "fzfg": false,
      "metar_trigger": false,
      "taf_trigger": false,
      "metar": "METAR GMMX 282330Z 08004KT 8000 SCT026 15/12 Q1018 NOSIG",
      "taf": "TAF GMMX 282300Z 2900/3006 04006KT 8000 SCT020"
    },
    {
      "icao": "HEGN",
      "alert": "OK",
      "vis_m": 9999,
      "fzfg": false,
      "metar_trigger": false,
      "taf_trigger": false,
      "metar": "METAR HEGN 282300Z 13005KT CAVOK 21/13 Q1011 NOSIG",
      "taf": "TAF HEGN 282300Z 2900/3006 15010KT 9999 FEW025"
    },
    {
      "icao": "HEMA",
      "alert": "OK",
      "vis_m": 9999,
      "fzfg": false,
      "metar_trigger": false,
      "taf_trigger": false,
      "metar": "METAR HEMA 282300Z 19005KT CAVOK 19/12 Q1012 NOSIG",
      "taf": "TAF HEMA 282300Z 2900/3006 19010KT CAVOK"
    },
    {
      "icao": "HESH",
      "alert": "OK",
      "vis_m": 9999,
      "fzfg": false,
      "metar_trigger": false,
      "taf_trigger": false,
      "metar": "METAR HESH 282300Z 23004KT CAVOK 19/13 Q1012 NOSIG",
      "taf": "TAF HESH 282300Z 2900/3006 25010KT 9999 SCT025"
    },
    {
      "icao": "HESX",
      "alert": "OK",
      "vis_m": 9999,
      "fzfg": false,
      "metar_trigger": false,
      "taf_trigger": false,
      "metar": "METAR HESX 282300Z 19015KT CAVOK 23/M01 Q1007 NOSIG",
      "taf": "TAF HESX 282300Z 2900/3006 20013KT 9999 FEW025"
    },
    {
      "icao": "LATI",
      "alert": "OK",
      "vis_m": null,
      "fzfg": false,
      "metar_trigger": false,
      "taf_trigger": false,
      "metar": "",
      "taf": "TAF LATI 282300Z 2900/2924 VRB04KT 9999 SCT080 TX18/2912Z TN05/2904Z"
    },
    {
      "icao": "LBPD",
      "alert": "OK",
      "vis_m": 9999,
      "fzfg": false,
      "metar_trigger": false,
      "taf_trigger": false,
      "metar": "METAR LBPD 282330Z AUTO 30011KT 9999 FEW048/// BKN059/// BKN090/// 07/03 Q1002",
      "taf": "TAF LBPD 282300Z 2900/2924 28012KT 9999 BKN040"
    },
    {
      "icao": "LBSF",
      "alert": "OK",
      "vis_m": 9999,
      "fzfg": false,
      "metar_trigger": false,
      "taf_trigger": false,
      "metar": "METAR LBSF 282330Z AUTO 29010KT 9999 OVC021/// 02/M01 Q1003 NOSIG",
      "taf": "TAF LBSF 282300Z 2900/2924 28012KT 9999 SCT025 BKN040"
    },
    {
      "icao": "LBWN",
      "alert": "OK",
      "vis_m": 9999,
      "fzfg": false,
      "metar_trigger": false,
      "taf_trigger": false,
      "metar": "METAR LBWN 282330Z AUTO VRB02KT 9999 -SHRA SCT007/// OVC009/// 10/10 Q1001 NOSIG",
      "taf": "TAF LBWN 282300Z 2900/2924 32010KT 5000 RA SCT010 OVC025"
    },
    {
      "icao": "LCLK",
      "alert": "OK",
      "vis_m": 9999,
      "fzfg": false,
      "metar_trigger": false,
      "taf_trigger": false,
      "metar": "METAR LCLK 282330Z 14010KT CAVOK 18/15 Q1004 NOSIG",
      "taf": "TAF LCLK 282330Z 2900/3000 15009KT 9999 FEW035"
    },
    {
      "icao": "LCPH",
      "alert": "OK",
      "vis_m": 9999,
      "fzfg": false,
      "metar_trigger": false,
      "taf_trigger": false,
      "metar": "METAR LCPH 282330Z AUTO 11022G35KT 090V160 9999 NCD 18/09 Q1001 NOSIG",
      "taf": "TAF LCPH 282330Z 2900/3000 11016KT 9999 FEW035"
    },
    {
      "icao": "LEAL",
      "alert": "OK",
      "vis_m": 9999,
      "fzfg": false,
      "metar_trigger": false,
      "taf_trigger": false,
      "metar": "METAR LEAL 282330Z 23006KT CAVOK 13/10 Q1021 NOSIG",
      "taf": "TAF LEAL 282300Z 2900/2924 VRB04KT 9999 FEW025 TX18/2912Z TN09/2906Z"
    },
    {
      "icao": "LEBB",
      "alert": "OK",
      "vis_m": 9999,
      "fzfg": false,
      "metar_trigger": false,
      "taf_trigger": false,
      "metar": "METAR LEBB 282330Z AUTO 31011G21KT 280V340 9999 -RA SCT039 BKN050 BKN067 09/05 Q1034 RERA",
      "taf": "TAF LEBB 282300Z 2900/2924 35009KT 9999 SCT015 BKN030 TX12/2912Z TN07/2905Z"
    },
    {
      "icao": "LEBL",
      "alert": "OK",
      "vis_m": 9999,
      "fzfg": false,
      "metar_trigger": false,
      "taf_trigger": false,
      "metar": "METAR LEBL 282330Z 08011KT 060V120 9999 FEW018 14/12 Q1017 NOSIG",
      "taf": "TAF LEBL 282300Z 2900/2924 34008KT 9999 FEW025 TX18/2913Z TN09/2906Z"
    },
    {
      "icao": "LECH",
      "alert": "OK",
      "vis_m": 9999,
      "fzfg": false,
      "metar_trigger": false,
      "taf_trigger": false,
      "metar": "METAR LECH 282330Z AUTO 33035G53KT 290V010 CAVOK 09/M05 Q1018",
      "taf": "TAF LECH 282300Z 2900/2924 33020KT 9999 FEW030 TX16/2913Z TN07/2906Z"
    },
    {
      "icao": "LEMD",
      "alert": "OK",
      "vis_m": 9999,
      "fzfg": false,
      "metar_trigger": false,
      "taf_trigger": false,
      "metar": "METAR LEMD 282330Z 36012G22KT 330V030 CAVOK 07/M02 Q1027 NOSIG",
      "taf": "TAF LEMD 282300Z 2900/3006 01012KT CAVOK TX15/2915Z TN02/2906Z"
    },
    {
      "icao": "LEMG",
      "alert": "OK",
      "vis_m": 9999,
      "fzfg": false,
      "metar_trigger": false,
      "taf_trigger": false,
      "metar": "METAR LEMG 282330Z 29004KT CAVOK 11/09 Q1021 NOSIG",
      "taf": "TAF LEMG 282300Z 2900/2924 29004KT 9999 FEW030 TX22/2913Z TN10/2907Z"
    },
    {
      "icao": "LEVC",
      "alert": "OK",
      "vis_m": 9999,
      "fzfg": false,
      "metar_trigger": false,
      "taf_trigger": false,
      "metar": "METAR LEVC 282330Z 36015KT CAVOK 14/M04 Q1021 NOSIG",
      "taf": "TAF LEVC 282300Z 2900/2924 32013KT 9999 FEW025 TX18/2913Z TN09/2906Z"
    },
    {
      "icao": "LEXJ",
      "alert": "OK",
      "vis_m": 9999,
      "fzfg": false,
      "metar_trigger": false,
      "taf_trigger": false,
      "metar": "METAR LEXJ 282330Z AUTO 25004KT 220V280 9999 FEW031 07/05 Q1035",
      "taf": ""
    },
    {
      "icao": "LEZG",
      "alert": "OK",
      "vis_m": 9999,
      "fzfg": false,
      "metar_trigger": false,
      "taf_trigger": false,
      "metar": "METAR LEZG 282330Z 29029G39KT 260V320 9999 FEW035 08/M00 Q1027 NOSIG",
      "taf": "TAF LEZG 282300Z 2900/2924 31020KT 9999 FEW045 TX15/2914Z TN05/2906Z"
    },
    {
      "icao": "LEZL",
      "alert": "OK",
      "vis_m": 9999,
      "fzfg": false,
      "metar_trigger": false,
      "taf_trigger": false,
      "metar": "METAR LEZL 282330Z 05006KT CAVOK 14/06 Q1022 NOSIG",
      "taf": "TAF LEZL 282000Z 2821/2921 03008KT CAVOK TX22/2915Z TN12/2907Z"
    },
    {
      "icao": "LFBD",
      "alert": "OK",
      "vis_m": 9999,
      "fzfg": false,
      "metar_trigger": false,
      "taf_trigger": false,
      "metar": "METAR LFBD 282330Z AUTO 33005KT CAVOK 07/00 Q1031 NOSIG",
      "taf": "TAF LFBD 282300Z 2900/3006 36010KT CAVOK TX14/2914Z TN04/2905Z"
    },
    {
      "icao": "LFLL",
      "alert": "OK",
      "vis_m": 9999,
      "fzfg": false,
      "metar_trigger": false,
      "taf_trigger": false,
      "metar": "METAR LFLL 282330Z 35014KT 9999 FEW013 BKN110 05/03 Q1023 NOSIG",
      "taf": "TAF LFLL 282300Z 2900/3006 36020KT 9999 SCT035 BKN100"
    },
    {
      "icao": "LFLS",
      "alert": "OK",
      "vis_m": 9999,
      "fzfg": false,
      "metar_trigger": false,
      "taf_trigger": false,
      "metar": "METAR LFLS 282330Z AUTO 34017KT 310V010 9999 BKN047 BKN064 BKN076 04/02 Q1021",
      "taf": ""
    },
    {
      "icao": "LFMN",
      "alert": "OK",
      "vis_m": 9999,
      "fzfg": false,
      "metar_trigger": false,
      "taf_trigger": false,
      "metar": "METAR LFMN 282330Z 04006KT 020V080 CAVOK 12/04 Q1009 NOSIG",
      "taf": "TAF LFMN 282000Z 2821/3003 02010KT CAVOK"
    },
    {
      "icao": "LFOB",
      "alert": "OK",
      "vis_m": 9999,
      "fzfg": false,
      "metar_trigger": false,
      "taf_trigger": false,
      "metar": "METAR LFOB 282330Z AUTO 31006KT 9999 FEW038 SCT064 01/M00 Q1029 TEMPO 4000 BR",
      "taf": "TAF LFOB 282300Z 2900/2924 33005KT CAVOK"
    },
    {
      "icao": "LFPO",
      "alert": "OK",
      "vis_m": 9999,
      "fzfg": false,
      "metar_trigger": false,
      "taf_trigger": false,
      "metar": "METAR LFPO 282330Z 30006KT CAVOK 04/01 Q1029 NOSIG",
      "taf": "TAF LFPO 282300Z 2900/3006 32010KT 9999 BKN035"
    },
    {
      "icao": "LFSB",
      "alert": "OK",
      "vis_m": 9999,
      "fzfg": false,
      "metar_trigger": false,
      "taf_trigger": false,
      "metar": "METAR LFSB 282330Z AUTO 31005KT 9999 -RA SCT020 BKN027 BKN033 04/02 Q1024 TEMPO 3500 -RADZ BKN006",
      "taf": "TAF LFSB 282300Z 2900/2924 35008KT 9999 OVC020"
    },
    {
      "icao": "LGAV",
      "alert": "OK",
      "vis_m": 9999,
      "fzfg": false,
      "metar_trigger": false,
      "taf_trigger": false,
      "metar": "METAR LGAV 282320Z VRB02KT 9999 FEW020 05/03 Q1002 NOSIG",
      "taf": "TAF LGAV 282300Z 2900/2924 VRB05KT 9999 FEW020"
    },
    {
      "icao": "LGTS",
      "alert": "OK",
      "vis_m": 9999,
      "fzfg": false,
      "metar_trigger": false,
      "taf_trigger": false,
      "metar": "METAR LGTS 282320Z 36017KT 9999 FEW025 10/02 Q1002 NOSIG",
      "taf": "TAF LGTS 282300Z 2900/2924 34015KT 9999 FEW030"
    },
    {
      "icao": "LHBP",
      "alert": "OK",
      "vis_m": 8000,
      "fzfg": false,
      "metar_trigger": false,
      "taf_trigger": false,
      "metar": "METAR LHBP 282330Z 33012KT 8000 -SHRA SCT042 BKN072 07/05 Q1008 NOSIG",
      "taf": "TAF LHBP 282315Z 2900/2924 32012KT CAVOK"
    },
    {
      "icao": "LHDC",
      "alert": "OK",
      "vis_m": 9999,
      "fzfg": false,
      "metar_trigger": false,
      "taf_trigger": false,
      "metar": "METAR LHDC 282315Z AUTO 07010KT CAVOK 10/06 Q1005",
      "taf": "TAF LHDC 281415Z 2815/2824 03009KT CAVOK"
    },
    {
      "icao": "LIBD",
      "alert": "OK",
      "vis_m": 9999,
      "fzfg": false,
      "metar_trigger": false,
      "taf_trigger": false,
      "metar": "METAR LIBD 282320Z 29009KT 260V320 9999 BKN030 09/06 Q1007",
      "taf": "TAF LIBD 282300Z 2900/2924 28010KT 9999 BKN030"
    },
    {
      "icao": "LIBG",
      "alert": "OK",
      "vis_m": null,
      "fzfg": false,
      "metar_trigger": false,
      "taf_trigger": false,
      "metar": "",
      "taf": "TAF LIBG 281700Z 2818/2903 30010KT 9999 SCT030"
    },
    {
      "icao": "LIBP",
      "alert": "OK",
      "vis_m": 9999,
      "fzfg": false,
      "metar_trigger": false,
      "taf_trigger": false,
      "metar": "METAR LIBP 282320Z AUTO 24006KT 9999 NCD 04/03 Q1010",
      "taf": "TAF LIBP 282300Z 2900/2924 25008KT 9999 FEW060"
    },
    {
      "icao": "LIBR",
      "alert": "OK",
      "vis_m": 9999,
      "fzfg": false,
      "metar_trigger": false,
      "taf_trigger": false,
      "metar": "METAR LIBR 282320Z 35015KT CAVOK 11/04 Q1005",
      "taf": "TAF LIBR 282300Z 2900/2924 33018KT 9999 SCT030"
    },
    {
      "icao": "LICA",
      "alert": "OK",
      "vis_m": 9999,
      "fzfg": false,
      "metar_trigger": false,
      "taf_trigger": false,
      "metar": "METAR LICA 282320Z AUTO 28008KT 9999 NCD 11/05 Q1008",
      "taf": "TAF LICA 282300Z 2900/2924 VRB05KT 9999 SCT050"
    },
    {
      "icao": "LICC",
      "alert": "OK",
      "vis_m": 9999,
      "fzfg": false,
      "metar_trigger": false,
      "taf_trigger": false,
      "metar": "METAR LICC 282320Z 12003KT 050V160 CAVOK 09/04 Q1009",
      "taf": "TAF LICC 282300Z 2900/2924 27010KT 9999 FEW070"
    },
    {
      "icao": "LICJ",
      "alert": "OK",
      "vis_m": 9999,
      "fzfg": false,
      "metar_trigger": false,
      "taf_trigger": false,
      "metar": "METAR LICJ 282320Z 31009KT 9999 SCT060 14/07 Q1011",
      "taf": "TAF LICJ 282300Z 2900/2924 30013KT 9999 FEW040"
    },
    {
      "icao": "LIMC",
      "alert": "OK",
      "vis_m": 9999,
      "fzfg": false,
      "metar_trigger": false,
      "taf_trigger": false,
      "metar": "METAR LIMC 282320Z 36007KT 300V040 CAVOK 14/M06 Q1010 NOSIG",
      "taf": "TAF LIMC 282300Z 2900/3006 01015KT CAVOK"
    },
    {
      "icao": "LIME",
      "alert": "OK",
      "vis_m": 9999,
      "fzfg": false,
      "metar_trigger": false,
      "taf_trigger": false,
      "metar": "METAR LIME 282320Z 02003KT CAVOK 08/01 Q1010 NOSIG",
      "taf": "TAF LIME 282300Z 2900/2924 VRB04KT CAVOK"
    },
    {
      "icao": "LIMF",
      "alert": "OK",
      "vis_m": 9999,
      "fzfg": false,
      "metar_trigger": false,
      "taf_trigger": false,
      "metar": "METAR LIMF 282320Z 28005KT 9999 BKN100 12/M00 Q1010",
      "taf": "TAF LIMF 282300Z 2900/2924 VRB04KT 9999 FEW060"
    },
    {
      "icao": "LIMJ",
      "alert": "OK",
      "vis_m": 9999,
      "fzfg": false,
      "metar_trigger": false,
      "taf_trigger": false,
      "metar": "METAR LIMJ 282320Z 05005KT CAVOK 12/02 Q1010",
      "taf": "TAF LIMJ 282300Z 2900/2924 VRB05KT CAVOK"
    },
    {
      "icao": "LIPE",
      "alert": "OK",
      "vis_m": 9999,
      "fzfg": false,
      "metar_trigger": false,
      "taf_trigger": false,
      "metar": "METAR LIPE 282320Z 19006KT CAVOK 08/01 Q1010",
      "taf": "TAF LIPE 282300Z 2900/2924 VRB05KT CAVOK"
    },
    {
      "icao": "LIPH",
      "alert": "OK",
      "vis_m": 9999,
      "fzfg": false,
      "metar_trigger": false,
      "taf_trigger": false,
      "metar": "METAR LIPH 282320Z AUTO 04004KT 320V070 9999 BKN110/// 09/04 Q1010",
      "taf": "TAF LIPH 282300Z 2900/2924 VRB05KT CAVOK"
    },
    {
      "icao": "LIPQ",
      "alert": "OK",
      "vis_m": 9999,
      "fzfg": false,
      "metar_trigger": false,
      "taf_trigger": false,
      "metar": "METAR LIPQ 282320Z AUTO 33003KT 200V350 9999 BKN110/// 05/02 Q1010",
      "taf": "TAF LIPQ 282300Z 2900/2924 VRB05KT 9999 SCT080"
    },
    {
      "icao": "LIPR",
      "alert": "OK",
      "vis_m": 9999,
      "fzfg": false,
      "metar_trigger": false,
      "taf_trigger": false,
      "metar": "METAR LIPR 282320Z AUTO 22004KT 9999 NCD 05/01 Q1010",
      "taf": "TAF LIPR 282300Z 2900/2924 VRB05KT CAVOK"
    },
    {
      "icao": "LIPX",
      "alert": "OK",
      "vis_m": 9999,
      "fzfg": false,
      "metar_trigger": false,
      "taf_trigger": false,
      "metar": "METAR LIPX 282320Z 34005KT CAVOK 05/01 Q1010",
      "taf": "TAF LIPX 282300Z 2900/2924 VRB04KT CAVOK"
    },
    {
      "icao": "LIPY",
      "alert": "OK",
      "vis_m": 9999,
      "fzfg": false,
      "metar_trigger": false,
      "taf_trigger": false,
      "metar": "METAR LIPY 282320Z AUTO 18003KT 9999 NCD 04/02 Q1010",
      "taf": "TAF LIPY 282300Z 2900/2924 VRB05KT CAVOK"
    },
    {
      "icao": "LIPZ",
      "alert": "OK",
      "vis_m": 9999,
      "fzfg": false,
      "metar_trigger": false,
      "taf_trigger": false,
      "metar": "METAR LIPZ 282320Z 05003KT CAVOK 10/04 Q1010 NOSIG",
      "taf": "TAF LIPZ 282300Z 2900/3006 VRB06KT CAVOK"
    },
    {
      "icao": "LIRF",
      "alert": "OK",
      "vis_m": 9999,
      "fzfg": false,
      "metar_trigger": false,
      "taf_trigger": false,
      "metar": "METAR LIRF 282320Z 31005KT CAVOK 08/01 Q1009 NOSIG",
      "taf": "TAF LIRF 282300Z 2900/3006 03007KT CAVOK"
    },
    {
      "icao": "LIRN",
      "alert": "OK",
      "vis_m": 9999,
      "fzfg": false,
      "metar_trigger": false,
      "taf_trigger": false,
      "metar": "METAR LIRN 282320Z 35003KT CAVOK 07/02 Q1008 NOSIG",
      "taf": "TAF LIRN 282300Z 2900/2924 VRB05KT CAVOK"
    },
    {
      "icao": "LIRP",
      "alert": "OK",
      "vis_m": 9999,
      "fzfg": false,
      "metar_trigger": false,
      "taf_trigger": false,
      "metar": "METAR LIRP 282315Z 12003KT CAVOK 06/04 Q1010 NOSIG",
      "taf": "TAF LIRP 282300Z 2900/2924 VRB03KT CAVOK"
    },
    {
      "icao": "LIRZ",
      "alert": "OK",
      "vis_m": 9999,
      "fzfg": false,
      "metar_trigger": false,
      "taf_trigger": false,
      "metar": "METAR LIRZ 282320Z AUTO 35009KT 9999 NCD 04/01 Q1010",
      "taf": "TAF LIRZ 282300Z 2900/2924 VRB05KT CAVOK"
    },
    {
      "icao": "LJLJ",
      "alert": "OK",
      "vis_m": 9999,
      "fzfg": false,
      "metar_trigger": false,
      "taf_trigger": false,
      "metar": "METAR LJLJ 282330Z 00000KT 9999 BKN075 05/M01 Q1011 NOSIG",
      "taf": "TAF LJLJ 282300Z 2900/3000 34005KT 9999 SCT080"
    },
    {
      "icao": "LKMT",
      "alert": "OK",
      "vis_m": 9999,
      "fzfg": false,
      "metar_trigger": false,
      "taf_trigger": false,
      "metar": "METAR LKMT 282330Z 04006KT 9999 SCT016 BKN026 OVC033 03/01 Q1016 NOSIG",
      "taf": "TAF LKMT 282300Z 2900/2924 36011KT 9999 OVC025"
    },
    {
      "icao": "LKPR",
      "alert": "OK",
      "vis_m": 9999,
      "fzfg": false,
      "metar_trigger": false,
      "taf_trigger": false,
      "metar": "METAR LKPR 282330Z 29006KT CAVOK 03/M00 Q1018 NOSIG",
      "taf": "TAF LKPR 282300Z 2900/3006 30008KT CAVOK"
    },
    {
      "icao": "LLBG",
      "alert": "OK",
      "vis_m": 9999,
      "fzfg": false,
      "metar_trigger": false,
      "taf_trigger": false,
      "metar": "METAR LLBG 282320Z 13004KT CAVOK 18/06 Q1006 NOSIG RMK SCT100",
      "taf": "TAF LLBG 282303Z 2900/2924 15005KT CAVOK TX18/2912Z TN14/2903Z"
    },
    {
      "icao": "LMML",
      "alert": "OK",
      "vis_m": 9999,
      "fzfg": false,
      "metar_trigger": false,
      "taf_trigger": false,
      "metar": "METAR LMML 282345Z 29017KT 9999 FEW030 12/09 Q1011 RERA NOSIG",
      "taf": "TAF LMML 282300Z 2900/2924 30020KT 9999 SCT025"
    },
    {
      "icao": "LOWW",
      "alert": "OK",
      "vis_m": 9999,
      "fzfg": false,
      "metar_trigger": false,
      "taf_trigger": false,
      "metar": "METAR LOWW 282320Z 33014KT 9999 FEW046 BKN050 07/M01 Q1015 NOSIG",
      "taf": "TAF LOWW 282315Z 2900/3006 32014KT 9999 BKN040 TX06/2900Z TN04/2906Z"
    },
    {
      "icao": "LPFR",
      "alert": "OK",
      "vis_m": 9999,
      "fzfg": false,
      "metar_trigger": false,
      "taf_trigger": false,
      "metar": "METAR LPFR 282330Z 01011KT CAVOK 19/05 Q1022",
      "taf": "TAF LPFR 282300Z 2900/2924 03013KT CAVOK"
    },
    {
      "icao": "LPMA",
      "alert": "OK",
      "vis_m": 9999,
      "fzfg": false,
      "metar_trigger": false,
      "taf_trigger": false,
      "metar": "METAR LPMA 282330Z 02016KT 9999 BKN015 16/10 Q1025",
      "taf": "TAF LPMA 282300Z 2900/2924 01015KT 9999 BKN015"
    },
    {
      "icao": "LPPR",
      "alert": "OK",
      "vis_m": 9999,
      "fzfg": false,
      "metar_trigger": false,
      "taf_trigger": false,
      "metar": "METAR LPPR 282330Z 04009KT CAVOK 14/04 Q1029",
      "taf": "TAF LPPR 282300Z 2900/2924 04010KT CAVOK"
    },
    {
      "icao": "LPPS",
      "alert": "OK",
      "vis_m": 9999,
      "fzfg": false,
      "metar_trigger": false,
      "taf_trigger": false,
      "metar": "METAR LPPS 282330Z 05010KT 360V090 9999 SCT015 BKN030 15/10 Q1026",
      "taf": "TAF LPPS 282300Z 2900/3006 04013KT 9999 SCT015 BKN030"
    },
    {
      "icao": "LPPT",
      "alert": "OK",
      "vis_m": 9999,
      "fzfg": false,
      "metar_trigger": false,
      "taf_trigger": false,
      "metar": "METAR LPPT 282330Z 02015KT CAVOK 17/02 Q1026",
      "taf": "TAF LPPT 282300Z 2900/3006 04012KT CAVOK"
    },
    {
      "icao": "LQBK",
      "alert": "OK",
      "vis_m": 9999,
      "fzfg": false,
      "metar_trigger": false,
      "taf_trigger": false,
      "metar": "METAR LQBK 282330Z 26010KT 9999 RA OVC027 04/01 Q1010 NOSIG",
      "taf": "TAF LQBK 282300Z 2900/2924 33007KT 9999 -RA BKN020 OVC030 TX06/2913Z TN02/2905Z"
    },
    {
      "icao": "LQSA",
      "alert": "OK",
      "vis_m": 8000,
      "fzfg": false,
      "metar_trigger": false,
      "taf_trigger": false,
      "metar": "METAR LQSA 282330Z VRB02KT 8000 -SN BKN015 OVC030 02/01 Q1008",
      "taf": "TAF LQSA 282300Z 2900/2924 32006KT 8000 -RA SCT015 BKN030 TX04/2913Z TN01/2906Z"
    },
    {
      "icao": "LQTZ",
      "alert": "OK",
      "vis_m": 3000,
      "fzfg": false,
      "metar_trigger": false,
      "taf_trigger": false,
      "metar": "METAR LQTZ 282330Z 32006KT 3000 -SN BR OVC007 00/00 Q1009",
      "taf": "TAF LQTZ 282300Z 2900/2924 30007KT 4000 -SN BR BKN008 OVC020 TX04/2913Z TNM00/2905Z"
    },
    {
      "icao": "LRBC",
      "alert": "OK",
      "vis_m": 9999,
      "fzfg": false,
      "metar_trigger": false,
      "taf_trigger": false,
      "metar": "METAR LRBC 282330Z 36003KT 9999 -RA OVC013 08/07 Q1005",
      "taf": "TAF LRBC 282300Z 2900/2909 36005KT 9999 OVC030"
    },
    {
      "icao": "LRBS",
      "alert": "OK",
      "vis_m": 7000,
      "fzfg": false,
      "metar_trigger": false,
      "taf_trigger": false,
      "metar": "METAR LRBS 282330Z 06007KT 7000 BKN005 09/08 Q1003 NOSIG",
      "taf": "TAF LRBS 282300Z 2900/2924 05008KT 9999 BKN005 OVC015"
    },
    {
      "icao": "LRBV",
      "alert": "OK",
      "vis_m": 9999,
      "fzfg": false,
      "metar_trigger": false,
      "taf_trigger": false,
      "metar": "METAR LRBV 282330Z AUTO 25003KT 9999 BKN013/// OVC051/// 04/04 Q1003",
      "taf": "TAF LRBV 282000Z 2821/2906 VRB04KT 9999 BKN010"
    },
    {
      "icao": "LRCL",
      "alert": "OK",
      "vis_m": 9999,
      "fzfg": false,
      "metar_trigger": false,
      "taf_trigger": false,
      "metar": "METAR LRCL 282330Z 06001KT 9999 FEW011 OVC031 07/06 Q1004",
      "taf": "TAF LRCL 282300Z 2900/2909 VRB04KT 9999 OVC035"
    },
    {
      "icao": "LRCV",
      "alert": "OK",
      "vis_m": 9999,
      "fzfg": false,
      "metar_trigger": false,
      "taf_trigger": false,
      "metar": "METAR LRCV 282330Z 36007KT 9999 -RA OVC011 07/07 Q1003",
      "taf": "TAF LRCV 282300Z 2900/2909 34004KT 9999 OVC010"
    },
    {
      "icao": "LRIA",
      "alert": "OK",
      "vis_m": 9999,
      "fzfg": false,
      "metar_trigger": false,
      "taf_trigger": false,
      "metar": "METAR LRIA 282330Z 07006KT 9999 -RA NSC 09/08 Q1006",
      "taf": "TAF LRIA 282300Z 2900/2909 07005KT 9999 BKN040"
    },
    {
      "icao": "LROP",
      "alert": "OK",
      "vis_m": 7000,
      "fzfg": false,
      "metar_trigger": false,
      "taf_trigger": false,
      "metar": "METAR LROP 282330Z AUTO 06008KT 7000 BKN005/// OVC027/// 09/09 Q1003 NOSIG",
      "taf": "TAF LROP 282300Z 2900/2924 06008KT 9999 BKN005 OVC015"
    },
    {
      "icao": "LRSB",
      "alert": "OK",
      "vis_m": 9999,
      "fzfg": false,
      "metar_trigger": false,
      "taf_trigger": false,
      "metar": "METAR LRSB 282330Z VRB01KT 9999 BKN012 06/05 Q1003",
      "taf": "TAF LRSB 282300Z 2900/2924 VRB04KT 9999 BKN015 BKN025"
    },
    {
      "icao": "LRSM",
      "alert": "OK",
      "vis_m": 9999,
      "fzfg": false,
      "metar_trigger": false,
      "taf_trigger": false,
      "metar": "METAR LRSM 282330Z AUTO 18008KT 9999 -RA BKN050/// OVC100/// 10/07 Q1005",
      "taf": ""
    },
    {
      "icao": "LRSV",
      "alert": "OK",
      "vis_m": 1500,
      "fzfg": false,
      "metar_trigger": false,
      "taf_trigger": false,
      "metar": "METAR LRSV 282330Z 03006KT 1500 -SHRA BR BKN004 SCT035CB 08/08 Q1006",
      "taf": "TAF LRSV 282300Z 2900/2909 06006KT 5000 -RA BKN010 BKN030"
    },
    {
      "icao": "LRTM",
      "alert": "OK",
      "vis_m": 9999,
      "fzfg": false,
      "metar_trigger": false,
      "taf_trigger": false,
      "metar": "METAR LRTM 282330Z 10002KT 9999 SCT039 07/06 Q1004",
      "taf": "TAF LRTM 282300Z 2900/2909 VRB04KT 9999 BKN040"
    },
    {
      "icao": "LRTR",
      "alert": "OK",
      "vis_m": 8000,
      "fzfg": false,
      "metar_trigger": false,
      "taf_trigger": false,
      "metar": "METAR LRTR 282330Z 15004KT 8000 -DZRA BKN005 BKN019 08/08 Q1004",
      "taf": "TAF LRTR 282300Z 2900/2924 VRB04KT 9999 BKN020"
    },
    {
      "icao": "LTAC",
      "alert": "OK",
      "vis_m": 9999,
      "fzfg": false,
      "metar_trigger": false,
      "taf_trigger": false,
      "metar": "METAR LTAC 282320Z 24004KT 170V270 9999 BKN035 BKN080 09/05 Q1003 RESHRA NOSIG RMK RWY21C 17008KT RWY03L 22003KT 160V270 RWY21R 17008KT RWY03R 19005KT 130V230 RWY21L 17008KT",
      "taf": "TAF LTAC 282240Z 2900/2924 18009KT 9999 SCT035 BKN090"
    },
    {
      "icao": "LTFM",
      "alert": "OK",
      "vis_m": 4800,
      "fzfg": false,
      "metar_trigger": false,
      "taf_trigger": false,
      "metar": "METAR LTFM 282320Z 10006KT 070V130 4800 -RA BR BKN006 BKN020 09/08 Q1000 NOSIG RMK RWY17L 11004KT RWY34L 08005KT RWY16R 11006KT RWY36 07005KT 010V110 RWY18 11002KT",
      "taf": "TAF LTFM 282240Z 2900/3006 VRB02KT 3200 -RA BR BKN006 BKN022"
    },
    {
      "icao": "LUKK",
      "alert": "OK",
      "vis_m": 9999,
      "fzfg": false,
      "metar_trigger": false,
      "taf_trigger": false,
      "metar": "METAR LUKK 282330Z 02004KT 010V090 9999 -RA SCT047 09/08 Q1006 NOSIG",
      "taf": "TAF LUKK 282330Z 2900/2924 VRB04KT 9999 OVC025"
    },
    {
      "icao": "LWOH",
      "alert": "OK",
      "vis_m": null,
      "fzfg": false,
      "metar_trigger": false,
      "taf_trigger": false,
      "metar": "",
      "taf": "TAF LWOH 282345Z 2900/2924 33006KT 9999 SCT035 SCT090"
    },
    {
      "icao": "LWSK",
      "alert": "OK",
      "vis_m": null,
      "fzfg": false,
      "metar_trigger": false,
      "taf_trigger": false,
      "metar": "",
      "taf": "TAF LWSK 282345Z 2900/2924 01005KT 9999 BKN035 BKN070"
    },
    {
      "icao": "LYBE",
      "alert": "OK",
      "vis_m": 9999,
      "fzfg": false,
      "metar_trigger": false,
      "taf_trigger": false,
      "metar": "METAR LYBE 282330Z 27014KT 9999 -RA BKN005 05/04 Q1005 NOSIG",
      "taf": "TAF LYBE 282300Z 2900/2924 27014KT 8000 BKN006 BKN027 TX08/2912Z TN04/2905Z"
    },
    {
      "icao": "LYNI",
      "alert": "OK",
      "vis_m": 8000,
      "fzfg": false,
      "metar_trigger": false,
      "taf_trigger": false,
      "metar": "METAR LYNI 282330Z VRB02KT 8000 -DZ FEW003 BKN005 OVC012 03/03 Q1006 NOSIG",
      "taf": "TAF LYNI 282300Z 2900/2924 05004KT 8000 BKN010 BKN025 TX08/2912Z TN02/2905Z"
    },
    {
      "icao": "LYPG",
      "alert": "OK",
      "vis_m": 9999,
      "fzfg": false,
      "metar_trigger": false,
      "taf_trigger": false,
      "metar": "METAR LYPG 282330Z 33011KT 9999 BKN080 09/M00 Q1005 NOSIG",
      "taf": "TAF LYPG 282300Z 2900/2924 33008KT 9999 FEW030 SCT080 TX17/2913Z TN07/2904Z"
    },
    {
      "icao": "LZIB",
      "alert": "OK",
      "vis_m": 9999,
      "fzfg": false,
      "metar_trigger": false,
      "taf_trigger": false,
      "metar": "METAR LZIB 282330Z 01010KT 330V040 9999 -RA FEW029 BKN047 07/00 Q1013 NOSIG",
      "taf": "TAF LZIB 282315Z 2900/3000 34011KT 9999 FEW044 BKN048"
    },
    {
      "icao": "LZKZ",
      "alert": "OK",
      "vis_m": 9999,
      "fzfg": false,
      "metar_trigger": false,
      "taf_trigger": false,
      "metar": "METAR LZKZ 282330Z 36016KT CAVOK 10/05 Q1007 NOSIG",
      "taf": "TAF LZKZ 282315Z 2900/3000 36018KT 9999 FEW020"
    },
    {
      "icao": "LZTT",
      "alert": "OK",
      "vis_m": 9999,
      "fzfg": false,
      "metar_trigger": false,
      "taf_trigger": false,
      "metar": "METAR LZTT 282330Z 28007KT 9999 FEW006 02/01 Q1010",
      "taf": "TAF LZTT 282315Z 2900/3000 26008KT 9999 FEW005 SCT020 BKN060"
    },
    {
      "icao": "OEJN",
      "alert": "OK",
      "vis_m": 9999,
      "fzfg": false,
      "metar_trigger": false,
      "taf_trigger": false,
      "metar": "METAR OEJN 282300Z 02002KT CAVOK 21/12 Q1011 NOSIG",
      "taf": "TAF OEJN 282300Z 2900/3006 VRB03KT CAVOK"
    },
    {
      "icao": "OEMA",
      "alert": "OK",
      "vis_m": 9999,
      "fzfg": false,
      "metar_trigger": false,
      "taf_trigger": false,
      "metar": "METAR OEMA 282300Z 11004KT CAVOK 20/05 Q1013 NOSIG",
      "taf": "TAF OEMA 282300Z 2900/3006 VRB03KT CAVOK"
    },
    {
      "icao": "OJAI",
      "alert": "OK",
      "vis_m": 5000,
      "fzfg": false,
      "metar_trigger": false,
      "taf_trigger": false,
      "metar": "METAR OJAI 282300Z 13004KT 5000 BR NSC 09/07 Q1011 NOSIG",
      "taf": "TAF OJAI 282300Z 2900/3006 24012KT 5000 HZ SCT020"
    },
    {
      "icao": "OMAA",
      "alert": "OK",
      "vis_m": null,
      "fzfg": false,
      "metar_trigger": false,
      "taf_trigger": false,
      "metar": "",
      "taf": ""
    },
    {
      "icao": "OMDB",
      "alert": "OK",
      "vis_m": null,
      "fzfg": false,
      "metar_trigger": false,
      "taf_trigger": false,
      "metar": "",
      "taf": ""
    },
    {
      "icao": "UAAA",
      "alert": "OK",
      "vis_m": 9000,
      "fzfg": false,
      "metar_trigger": false,
      "taf_trigger": false,
      "metar": "METAR UAAA 282330Z 18002MPS 9000 NSC 05/00 Q1008 NOSIG",
      "taf": "TAF UAAA 282302Z 2900/2924 03003G08MPS 9999 FEW100 TX20/2910Z TN04/2901Z"
    },
    {
      "icao": "UBBB",
      "alert": "OK",
      "vis_m": 9999,
      "fzfg": false,
      "metar_trigger": false,
      "taf_trigger": false,
      "metar": "METAR UBBB 282330Z 20010KT 9999 SCT003 SCT040CB OVC040 12/11 Q1002 NOSIG",
      "taf": "TAF UBBB 282304Z 2900/2924 21010KT 9999 SCT008 BKN040 TX15/2911Z TN11/2901Z"
    },
    {
      "icao": "UDSG",
      "alert": "OK",
      "vis_m": 9999,
      "fzfg": false,
      "metar_trigger": false,
      "taf_trigger": false,
      "metar": "METAR UDSG 282330Z 20001KT 9999 FEW043CB BKN049 04/M01 Q1007 NOSIG",
      "taf": "TAF UDSG 282258Z 2900/2924 24006KT 9999 BKN040"
    },
    {
      "icao": "UDYZ",
      "alert": "OK",
      "vis_m": 9999,
      "fzfg": false,
      "metar_trigger": false,
      "taf_trigger": false,
      "metar": "METAR UDYZ 282330Z 15004KT 9999 BKN043CB 10/03 Q1004 NOSIG",
      "taf": "TAF UDYZ 282300Z 2900/2924 16006KT 6000 BKN040"
    },
    {
      "icao": "UGKO",
      "alert": "OK",
      "vis_m": 9999,
      "fzfg": false,
      "metar_trigger": false,
      "taf_trigger": false,
      "metar": "METAR UGKO 282330Z 08005KT CAVOK 08/07 Q1004 NOSIG",
      "taf": ""
    }
  ]
}