{
  "ts_utc": "2026-01-09T20:58:18Z",
  "threshold_m": 150,
  "source": "stations_override.txt (ICAO list) + aviationweather.gov (METAR/TAF raw)",
  "station_count": 159,
  "stations": [
    {
      "icao": "BIKF",
      "alert": "OK",
      "vis_m": 9999,
      "fzfg": false,
      "metar_trigger": false,
      "taf_trigger": false,
      "metar": "METAR BIKF 092030Z 07009KT CAVOK M03/M07 Q1012",
      "taf": "TAF BIKF 091952Z 0921/1021 03008KT CAVOK TXM02/1021Z TNM07/1010Z"
    },
    {
      "icao": "BKPR",
      "alert": "OK",
      "vis_m": null,
      "fzfg": false,
      "metar_trigger": false,
      "taf_trigger": false,
      "metar": "",
      "taf": "TAF BKPR 091730Z 0918/1018 18008KT 9999 FEW012 SCT030 BKN080"
    },
    {
      "icao": "EBCI",
      "alert": "OK",
      "vis_m": 4000,
      "fzfg": false,
      "metar_trigger": false,
      "taf_trigger": false,
      "metar": "METAR EBCI 092050Z 25013KT 4000 -SNRA SCT003 OVC005 01/00 Q0992 TEMPO 2500 -SN OVC004",
      "taf": "TAF EBCI 091700Z 0918/1024 30010KT 6000 -RASN SCT006 BKN010"
    },
    {
      "icao": "EDDB",
      "alert": "OK",
      "vis_m": 9999,
      "fzfg": false,
      "metar_trigger": false,
      "taf_trigger": false,
      "metar": "METAR EDDB 092050Z AUTO 08014KT 9999 SCT020 BKN039 OVC045 M06/M11 Q1001 TEMPO 4000 -SN",
      "taf": "TAF EDDB 091700Z 0918/1018 08015KT 9999 SCT020"
    },
    {
      "icao": "EDDH",
      "alert": "OK",
      "vis_m": 9999,
      "fzfg": false,
      "metar_trigger": false,
      "taf_trigger": false,
      "metar": "METAR EDDH 092050Z AUTO 08019KT 9999 FEW047 M02/M08 Q1000 TEMPO 09020G35KT",
      "taf": "TAF EDDH 091700Z 0918/1024 08020G30KT 9999 SCT030"
    },
    {
      "icao": "EDDK",
      "alert": "OK",
      "vis_m": 9999,
      "fzfg": false,
      "metar_trigger": false,
      "taf_trigger": false,
      "metar": "METAR EDDK 092050Z AUTO 22010KT 9999 -RADZ BKN016 OVC021 03/01 Q0990 TEMPO RA BKN012",
      "taf": "TAF EDDK 091700Z 0918/1024 23008KT 9999 FEW014 OVC025"
    },
    {
      "icao": "EDDN",
      "alert": "OK",
      "vis_m": 9999,
      "fzfg": false,
      "metar_trigger": false,
      "taf_trigger": false,
      "metar": "METAR EDDN 092050Z AUTO 22011KT 190V250 9999 -RA SCT019 BKN026 BKN034 04/01 Q0995 TEMPO BKN012",
      "taf": "TAF EDDN 091700Z 0918/1018 20008KT 9999 BKN035"
    },
    {
      "icao": "EDDS",
      "alert": "OK",
      "vis_m": 9000,
      "fzfg": false,
      "metar_trigger": false,
      "taf_trigger": false,
      "metar": "METAR EDDS 092050Z AUTO 23008KT 160V280 9000 -SHRA BKN012 BKN018 BKN027 FEW///CB 03/01 Q0995 RESHRA TEMPO SHRA",
      "taf": "TAF EDDS 091700Z 0918/1018 20013KT 9999 BKN025"
    },
    {
      "icao": "EDFH",
      "alert": "OK",
      "vis_m": 6000,
      "fzfg": false,
      "metar_trigger": false,
      "taf_trigger": false,
      "metar": "METAR EDFH 092050Z 25017KT 210V280 6000 -SN FEW002 OVC005 00/M00 Q0990",
      "taf": "TAF EDFH 091700Z 0918/1018 24015G25KT 6000 SCT002 BKN008"
    },
    {
      "icao": "EDJA",
      "alert": "OK",
      "vis_m": 9999,
      "fzfg": false,
      "metar_trigger": false,
      "taf_trigger": false,
      "metar": "METAR EDJA 092050Z 24021G33KT CAVOK 03/M02 Q0997",
      "taf": "TAF EDJA 091700Z 0918/1003 24015G25KT 9999 SCT035"
    },
    {
      "icao": "EDLW",
      "alert": "OK",
      "vis_m": 9999,
      "fzfg": false,
      "metar_trigger": false,
      "taf_trigger": false,
      "metar": "METAR EDLW 092050Z 11004KT 9999 -RA FEW013 BKN016 OVC025 03/01 Q0989",
      "taf": "TAF EDLW 091700Z 0918/1018 17007KT 9999 BKN015"
    },
    {
      "icao": "EDNY",
      "alert": "OK",
      "vis_m": 9999,
      "fzfg": false,
      "metar_trigger": false,
      "taf_trigger": false,
      "metar": "METAR EDNY 092050Z 24016KT 9999 SCT053 05/M01 Q0999",
      "taf": "TAF EDNY 091700Z 0918/1003 23015G25KT 9999 SCT025 BKN040"
    },
    {
      "icao": "EDSB",
      "alert": "OK",
      "vis_m": 9999,
      "fzfg": false,
      "metar_trigger": false,
      "taf_trigger": false,
      "metar": "METAR EDSB 092050Z 19020KT 9999 -RA BKN032 OVC040 05/02 Q0997",
      "taf": "TAF EDSB 091700Z 0918/1018 20015G25KT 9999 BKN030"
    },
    {
      "icao": "EETN",
      "alert": "OK",
      "vis_m": 9999,
      "fzfg": false,
      "metar_trigger": false,
      "taf_trigger": false,
      "metar": "METAR EETN 092050Z 04012KT 360V060 9999 BKN014 M06/M08 Q1014 NOSIG",
      "taf": "TAF EETN 091730Z 0918/1018 05018G30KT 9999 DRSN SCT020"
    },
    {
      "icao": "EFTU",
      "alert": "OK",
      "vis_m": 9999,
      "fzfg": false,
      "metar_trigger": false,
      "taf_trigger": false,
      "metar": "METAR EFTU 092050Z AUTO 04009KT CAVOK M15/M20 Q1020",
      "taf": "TAF EFTU 092025Z 0921/1021 04009KT CAVOK"
    },
    {
      "icao": "EGBB",
      "alert": "OK",
      "vis_m": 9999,
      "fzfg": false,
      "metar_trigger": false,
      "taf_trigger": false,
      "metar": "METAR EGBB 092050Z 32010KT 9999 BKN020 03/00 Q1005",
      "taf": "TAF EGBB 091701Z 0918/1018 32008KT 9999 FEW010"
    },
    {
      "icao": "EGGP",
      "alert": "OK",
      "vis_m": 9999,
      "fzfg": false,
      "metar_trigger": false,
      "taf_trigger": false,
      "metar": "METAR EGGP 092050Z 01005KT 330V030 9999 SCT040 03/00 Q1007",
      "taf": "TAF EGGP 091658Z 0918/1018 34010KT 9999 SCT020"
    },
    {
      "icao": "EGGW",
      "alert": "OK",
      "vis_m": 9999,
      "fzfg": false,
      "metar_trigger": false,
      "taf_trigger": false,
      "metar": "METAR EGGW 092050Z AUTO 33015KT 9999 BKN011 OVC015 02/01 Q1002",
      "taf": "TAF EGGW 091704Z 0918/1018 32013KT 9999 SCT010 BKN016"
    },
    {
      "icao": "EGKK",
      "alert": "OK",
      "vis_m": 9999,
      "fzfg": false,
      "metar_trigger": false,
      "taf_trigger": false,
      "metar": "METAR EGKK 092020Z 31017KT 9999 SCT018 BKN021 04/01 Q1002",
      "taf": "TAF EGKK 091657Z 0918/1024 31012KT 9999 SCT020"
    },
    {
      "icao": "EGNM",
      "alert": "OK",
      "vis_m": 9999,
      "fzfg": false,
      "metar_trigger": false,
      "taf_trigger": false,
      "metar": "METAR EGNM 092050Z 33006KT 9999 SCT025 01/00 Q1005",
      "taf": "TAF EGNM 091827Z 0918/1018 01010KT 9999 SCT025"
    },
    {
      "icao": "EGPD",
      "alert": "OK",
      "vis_m": 9999,
      "fzfg": false,
      "metar_trigger": false,
      "taf_trigger": false,
      "metar": "METAR EGPD 092050Z VRB02KT 9999 BKN032 02/00 Q1009 TEMPO 4000 SHRASN",
      "taf": ""
    },
    {
      "icao": "EGPF",
      "alert": "OK",
      "vis_m": 6000,
      "fzfg": false,
      "metar_trigger": false,
      "taf_trigger": false,
      "metar": "METAR EGPF 092050Z AUTO 28002KT 6000 -RA SCT014 BKN027 BKN038 01/00 Q1008",
      "taf": "TAF EGPF 091659Z 0918/1018 VRB03KT 9999 SCT020"
    },
    {
      "icao": "EHBK",
      "alert": "OK",
      "vis_m": 2800,
      "fzfg": false,
      "metar_trigger": false,
      "taf_trigger": false,
      "metar": "METAR EHBK 092055Z AUTO 25008KT 200V280 2800 -SN OVC002 00/00 Q0990 TEMPO 1500 SN VV001",
      "taf": "TAF EHBK 091712Z 0918/1024 24013KT 9999 -RADZ BKN008"
    },
    {
      "icao": "EHEH",
      "alert": "OK",
      "vis_m": 2800,
      "fzfg": false,
      "metar_trigger": false,
      "taf_trigger": false,
      "metar": "METAR EHEH 092025Z AUTO 31009KT 270V360 2800 R21/P3000N -RADZ BKN003 OVC004 01/00 Q0990 YLO TEMPO 1500 SN BKN003 OVC004 RMK TREND REMOTE BY EHWX",
      "taf": ""
    },
    {
      "icao": "EKBI",
      "alert": "OK",
      "vis_m": 9999,
      "fzfg": false,
      "metar_trigger": false,
      "taf_trigger": false,
      "metar": "METAR EKBI 092050Z AUTO 07021KT 9999 -SN OVC034/// M01/M06 Q1008",
      "taf": "TAF EKBI 092027Z 0921/1021 07020KT 9000 BKN025"
    },
    {
      "icao": "EKCH",
      "alert": "OK",
      "vis_m": 9999,
      "fzfg": false,
      "metar_trigger": false,
      "taf_trigger": false,
      "metar": "METAR EKCH 092050Z AUTO 05020KT 9999 OVC032/// M01/M05 Q1010 TEMPO 06015G25KT",
      "taf": ""
    },
    {
      "icao": "ENAL",
      "alert": "OK",
      "vis_m": 9999,
      "fzfg": false,
      "metar_trigger": false,
      "taf_trigger": false,
      "metar": "METAR ENAL 092050Z 18006KT CAVOK 00/M07 Q1015",
      "taf": "TAF ENAL 092000Z 0921/1006 17008KT CAVOK"
    },
    {
      "icao": "ENBR",
      "alert": "OK",
      "vis_m": 9999,
      "fzfg": false,
      "metar_trigger": false,
      "taf_trigger": false,
      "metar": "METAR ENBR 092050Z 04003KT CAVOK M05/M12 Q1017 RMK WIND 1200FT 14003KT",
      "taf": "TAF ENBR 091700Z 0918/1018 08005KT CAVOK"
    },
    {
      "icao": "ENGM",
      "alert": "OK",
      "vis_m": 9999,
      "fzfg": false,
      "metar_trigger": false,
      "taf_trigger": false,
      "metar": "METAR ENGM 092050Z 05003KT 9999 -SN FEW026 OVC031 M06/M08 Q1021 NOSIG",
      "taf": "TAF ENGM 091700Z 0918/1018 02005KT 9999 -SN FEW010 BKN030"
    },
    {
      "icao": "ENHD",
      "alert": "OK",
      "vis_m": 9999,
      "fzfg": false,
      "metar_trigger": false,
      "taf_trigger": false,
      "metar": "METAR ENHD 092050Z AUTO 10013KT 9999 NCD M02/M10 Q1017",
      "taf": "TAF ENHD 091400Z 0915/0923 10008KT CAVOK"
    },
    {
      "icao": "ENTC",
      "alert": "OK",
      "vis_m": 9999,
      "fzfg": false,
      "metar_trigger": false,
      "taf_trigger": false,
      "metar": "METAR ENTC 092050Z 23008KT 200V270 CAVOK M06/M12 Q1023 NOSIG RMK WIND 2600FT 18021KT",
      "taf": "TAF ENTC 091700Z 0918/1018 20005KT CAVOK"
    },
    {
      "icao": "ENTO",
      "alert": "OK",
      "vis_m": 9999,
      "fzfg": false,
      "metar_trigger": false,
      "taf_trigger": false,
      "metar": "METAR ENTO 092050Z 05009KT 9999 -SN BKN030 M04/M08 Q1020 NOSIG",
      "taf": "TAF ENTO 091700Z 0918/1018 03010KT 9999 -SN BKN030"
    },
    {
      "icao": "ENVA",
      "alert": "OK",
      "vis_m": 9999,
      "fzfg": false,
      "metar_trigger": false,
      "taf_trigger": false,
      "metar": "METAR ENVA 092050Z 15009KT 120V190 CAVOK M02/M10 Q1018 RMK WIND 670FT 16018KT",
      "taf": "TAF ENVA 091700Z 0918/1018 10008KT CAVOK"
    },
    {
      "icao": "ENZV",
      "alert": "OK",
      "vis_m": 9999,
      "fzfg": false,
      "metar_trigger": false,
      "taf_trigger": false,
      "metar": "METAR ENZV 092050Z 08012G23KT 040V140 9999 FEW044 M01/M10 Q1016",
      "taf": ""
    },
    {
      "icao": "EPGD",
      "alert": "OK",
      "vis_m": 9999,
      "fzfg": false,
      "metar_trigger": false,
      "taf_trigger": false,
      "metar": "METAR EPGD 092030Z 05012KT 9999 -SN BKN018 M03/M07 Q1005",
      "taf": "TAF EPGD 091730Z 0918/1018 05012KT 9999 BKN016"
    },
    {
      "icao": "EPKK",
      "alert": "OK",
      "vis_m": 5000,
      "fzfg": false,
      "metar_trigger": false,
      "taf_trigger": false,
      "metar": "METAR EPKK 092030Z VRB02KT 5000 BR NSC M10/M12 Q1001",
      "taf": "TAF EPKK 092030Z 0921/1021 05005KT 6000 NSC"
    },
    {
      "icao": "EPKT",
      "alert": "OK",
      "vis_m": 3600,
      "fzfg": false,
      "metar_trigger": false,
      "taf_trigger": false,
      "metar": "METAR EPKT 092030Z VRB01KT 3600 BR NSC M10/M11 Q1000",
      "taf": ""
    },
    {
      "icao": "EPLB",
      "alert": "OK",
      "vis_m": 9999,
      "fzfg": false,
      "metar_trigger": false,
      "taf_trigger": false,
      "metar": "METAR EPLB 092030Z 30005KT 9999 -SN OVC022 M10/M12 Q1000",
      "taf": "TAF EPLB 091730Z 0918/1018 29008KT 7000 -SN BKN020"
    },
    {
      "icao": "EPMO",
      "alert": "OK",
      "vis_m": 9999,
      "fzfg": false,
      "metar_trigger": false,
      "taf_trigger": false,
      "metar": "METAR EPMO 092030Z 31006KT CAVOK M13/M14 Q1003",
      "taf": "TAF EPMO 091730Z 0918/1018 33007KT 8000 BKN020"
    },
    {
      "icao": "EPPO",
      "alert": "OK",
      "vis_m": 9999,
      "fzfg": false,
      "metar_trigger": false,
      "taf_trigger": false,
      "metar": "METAR EPPO 092030Z 07010KT CAVOK M09/M11 Q1004",
      "taf": "TAF EPPO 091730Z 0918/1018 08005KT 7000 NSC"
    },
    {
      "icao": "EPRA",
      "alert": "OK",
      "vis_m": 8000,
      "fzfg": false,
      "metar_trigger": false,
      "taf_trigger": false,
      "metar": "METAR EPRA 092030Z 33006KT 8000 -SN BKN014 M10/M12 Q1001",
      "taf": "TAF EPRA 092030Z 0921/1006 32008KT 8000 SCT020"
    },
    {
      "icao": "EPRZ",
      "alert": "OK",
      "vis_m": 2600,
      "fzfg": false,
      "metar_trigger": false,
      "taf_trigger": false,
      "metar": "METAR EPRZ 092030Z 26007KT 2600 BR BKN011 M12/M13 Q1001",
      "taf": ""
    },
    {
      "icao": "EPSC",
      "alert": "OK",
      "vis_m": 9999,
      "fzfg": false,
      "metar_trigger": false,
      "taf_trigger": false,
      "metar": "METAR EPSC 092030Z 06010KT 030V090 CAVOK M04/M08 Q1005",
      "taf": "TAF EPSC 091730Z 0918/1018 07010KT CAVOK"
    },
    {
      "icao": "EPSY",
      "alert": "OK",
      "vis_m": 9999,
      "fzfg": false,
      "metar_trigger": false,
      "taf_trigger": false,
      "metar": "METAR EPSY 092030Z 32010KT 9999 -SN SCT005 OVC008 M12/M14 Q1002",
      "taf": "TAF EPSY 092030Z 0921/1006 34008KT 9999 -SN BKN012"
    },
    {
      "icao": "EPWA",
      "alert": "OK",
      "vis_m": 9999,
      "fzfg": false,
      "metar_trigger": false,
      "taf_trigger": false,
      "metar": "METAR EPWA 092030Z 32007KT 9999 FEW011 M12/M14 Q1002 NOSIG",
      "taf": "TAF EPWA 092030Z 0921/1021 33008KT 8000 BKN020"
    },
    {
      "icao": "EPWR",
      "alert": "OK",
      "vis_m": 7000,
      "fzfg": false,
      "metar_trigger": false,
      "taf_trigger": false,
      "metar": "METAR EPWR 092030Z 06004KT 7000 NSC M06/M09 Q1001",
      "taf": "TAF EPWR 092030Z 0921/1021 08008KT 7000 NSC"
    },
    {
      "icao": "ESGG",
      "alert": "OK",
      "vis_m": 9999,
      "fzfg": false,
      "metar_trigger": false,
      "taf_trigger": false,
      "metar": "METAR ESGG 092050Z 05010KT 9999 BKN025 OVC034 M04/M07 Q1015",
      "taf": "TAF ESGG 092030Z 0921/1021 04008KT 9999 BKN035"
    },
    {
      "icao": "ESKN",
      "alert": "OK",
      "vis_m": 9999,
      "fzfg": false,
      "metar_trigger": false,
      "taf_trigger": false,
      "metar": "METAR ESKN 092050Z 02010KT 9999 FEW041 M07/M09 Q1019",
      "taf": "TAF ESKN 092030Z 0921/1021 02010KT 9999 BKN040"
    },
    {
      "icao": "ESMS",
      "alert": "OK",
      "vis_m": 9999,
      "fzfg": false,
      "metar_trigger": false,
      "taf_trigger": false,
      "metar": "METAR ESMS 092050Z 08020KT 9999 BKN036 M01/M07 Q1008",
      "taf": "TAF ESMS 092027Z 0921/1021 08020KT 9999 BKN040"
    },
    {
      "icao": "ESSA",
      "alert": "OK",
      "vis_m": 9999,
      "fzfg": false,
      "metar_trigger": false,
      "taf_trigger": false,
      "metar": "METAR ESSA 092050Z 02010KT CAVOK M10/M12 Q1021 NOSIG",
      "taf": "TAF ESSA 092030Z 0921/1021 02010KT CAVOK"
    },
    {
      "icao": "EYKA",
      "alert": "OK",
      "vis_m": 1200,
      "fzfg": false,
      "metar_trigger": false,
      "taf_trigger": false,
      "metar": "METAR EYKA 092050Z 36010KT 310V030 1200 R08/P2000N +SN BLSN SCT004 BKN009 OVC013 M09/M10 Q1000",
      "taf": "TAF EYKA 091723Z 0918/1018 02012KT 3000 SN BLSN SCT005 OVC010"
    },
    {
      "icao": "EYPA",
      "alert": "OK",
      "vis_m": 9999,
      "fzfg": false,
      "metar_trigger": false,
      "taf_trigger": false,
      "metar": "METAR EYPA 092050Z 03013KT CAVOK M06/M10 Q1006",
      "taf": "TAF EYPA 091722Z 0918/1018 04014KT 9000 NSC"
    },
    {
      "icao": "EYVI",
      "alert": "OK",
      "vis_m": 4000,
      "fzfg": false,
      "metar_trigger": false,
      "taf_trigger": false,
      "metar": "METAR EYVI 092050Z 02011KT 4000 SN BLSN FEW008 BKN034 M10/M12 Q0997 NOSIG",
      "taf": "TAF EYVI 091725Z 0918/1018 01013KT 1500 SN OVC015"
    },
    {
      "icao": "GCFV",
      "alert": "OK",
      "vis_m": 9999,
      "fzfg": false,
      "metar_trigger": false,
      "taf_trigger": false,
      "metar": "METAR GCFV 092030Z 04015KT 9999 SCT025 BKN038 18/12 Q1028",
      "taf": "TAF GCFV 092000Z 0921/1021 05015KT 9999 SCT025 TX20/1014Z TN15/1006Z"
    },
    {
      "icao": "GCLP",
      "alert": "OK",
      "vis_m": 9999,
      "fzfg": false,
      "metar_trigger": false,
      "taf_trigger": false,
      "metar": "METAR GCLP 092030Z 03014KT 9999 SCT027 SCT050 18/12 Q1028 NOSIG",
      "taf": "TAF GCLP 092000Z 0921/1021 03013KT 9999 SCT030 TX19/1014Z TN15/1006Z"
    },
    {
      "icao": "GCTS",
      "alert": "OK",
      "vis_m": 9999,
      "fzfg": false,
      "metar_trigger": false,
      "taf_trigger": false,
      "metar": "METAR GCTS 092030Z 06010KT 350V080 9999 BKN035 18/10 Q1029 NOSIG",
      "taf": "TAF GCTS 092000Z 0921/1021 04009KT 9999 FEW030 TX23/1014Z TN15/1006Z"
    },
    {
      "icao": "GMAD",
      "alert": "OK",
      "vis_m": 9999,
      "fzfg": false,
      "metar_trigger": false,
      "taf_trigger": false,
      "metar": "METAR GMAD 092030Z 14006KT CAVOK 11/10 Q1027 NOSIG",
      "taf": "TAF GMAD 091700Z 0918/1024 06008KT CAVOK"
    },
    {
      "icao": "GMMN",
      "alert": "OK",
      "vis_m": 8000,
      "fzfg": false,
      "metar_trigger": false,
      "taf_trigger": false,
      "metar": "METAR GMMN 092030Z 04005KT 020V080 8000 FEW023 11/09 Q1030 NOSIG",
      "taf": "TAF GMMN 091700Z 0918/1024 02006KT 9999 FEW023"
    },
    {
      "icao": "GMMX",
      "alert": "OK",
      "vis_m": 9999,
      "fzfg": false,
      "metar_trigger": false,
      "taf_trigger": false,
      "metar": "METAR GMMX 092030Z 09005KT CAVOK 11/07 Q1029 NOSIG",
      "taf": "TAF GMMX 091700Z 0918/1024 06006KT 8000 NSC"
    },
    {
      "icao": "HEGN",
      "alert": "OK",
      "vis_m": 9999,
      "fzfg": false,
      "metar_trigger": false,
      "taf_trigger": false,
      "metar": "METAR HEGN 092000Z 30012KT CAVOK 18/03 Q1019 NOSIG",
      "taf": "TAF HEGN 091700Z 0918/1024 31010G22KT CAVOK"
    },
    {
      "icao": "HEMA",
      "alert": "OK",
      "vis_m": 9999,
      "fzfg": false,
      "metar_trigger": false,
      "taf_trigger": false,
      "metar": "METAR HEMA 092000Z 31014KT CAVOK 19/10 Q1017 NOSIG",
      "taf": "TAF HEMA 091700Z 0918/1024 34008G20KT 8000 NSC"
    },
    {
      "icao": "HESH",
      "alert": "OK",
      "vis_m": 9999,
      "fzfg": false,
      "metar_trigger": false,
      "taf_trigger": false,
      "metar": "METAR HESH 092000Z 33011KT CAVOK 20/03 Q1016 NOSIG",
      "taf": "TAF HESH 091700Z 0918/1024 36012KT CAVOK"
    },
    {
      "icao": "HESX",
      "alert": "OK",
      "vis_m": 9999,
      "fzfg": false,
      "metar_trigger": false,
      "taf_trigger": false,
      "metar": "METAR HESX 092000Z 31009KT CAVOK 13/08 Q1021 NOSIG",
      "taf": "TAF HESX 091700Z 0918/1024 32015KT 9999 SCT025"
    },
    {
      "icao": "LATI",
      "alert": "OK",
      "vis_m": 9999,
      "fzfg": false,
      "metar_trigger": false,
      "taf_trigger": false,
      "metar": "METAR LATI 092050Z 15007KT 110V190 9999 -RA FEW024CB BKN035 OVC060 13/08 Q1005 TEMPO 17012G25KT -TSRA",
      "taf": "TAF LATI 091700Z 0918/1018 14013KT 9999 -RA SCT030 BKN060 TX14/1001Z TN07/1018Z"
    },
    {
      "icao": "LBPD",
      "alert": "OK",
      "vis_m": 9999,
      "fzfg": false,
      "metar_trigger": false,
      "taf_trigger": false,
      "metar": "METAR LBPD 092030Z AUTO 30004KT 9999 BKN098/// 01/M03 Q1006",
      "taf": "TAF LBPD 091700Z 0918/1018 VRB03KT 9999 SCT050"
    },
    {
      "icao": "LBSF",
      "alert": "OK",
      "vis_m": 9999,
      "fzfg": false,
      "metar_trigger": false,
      "taf_trigger": false,
      "metar": "METAR LBSF 092030Z AUTO 14003KT 100V210 9999 SCT065/// M00/M03 Q1004 TEMPO 5000 SNRA",
      "taf": "TAF LBSF 091700Z 0918/1018 VRB03KT 9999 SCT030 BKN050"
    },
    {
      "icao": "LBWN",
      "alert": "OK",
      "vis_m": 9999,
      "fzfg": false,
      "metar_trigger": false,
      "taf_trigger": false,
      "metar": "METAR LBWN 092030Z AUTO VRB02KT 9999 FEW009/// 01/M04 Q1005 NOSIG",
      "taf": "TAF LBWN 091700Z 0918/1018 VRB04KT CAVOK"
    },
    {
      "icao": "LCLK",
      "alert": "OK",
      "vis_m": 9999,
      "fzfg": false,
      "metar_trigger": false,
      "taf_trigger": false,
      "metar": "METAR LCLK 092030Z VRB02KT 9999 FEW020 12/06 Q1013 NOSIG",
      "taf": "TAF LCLK 091730Z 0918/1018 30018KT 9999 FEW020 SCT040"
    },
    {
      "icao": "LCPH",
      "alert": "OK",
      "vis_m": 9999,
      "fzfg": false,
      "metar_trigger": false,
      "taf_trigger": false,
      "metar": "METAR LCPH 092030Z 33018KT 9999 FEW030 BKN043 15/06 Q1014 NOSIG",
      "taf": "TAF LCPH 091730Z 0918/1018 30025G35KT 9999 FEW025 SCT040"
    },
    {
      "icao": "LEAL",
      "alert": "OK",
      "vis_m": 9999,
      "fzfg": false,
      "metar_trigger": false,
      "taf_trigger": false,
      "metar": "METAR LEAL 092030Z 25008KT 9999 SCT062 14/05 Q1021 WS R28 NOSIG",
      "taf": "TAF LEAL 091700Z 0918/1018 27009KT CAVOK TX16/1014Z TN08/1006Z"
    },
    {
      "icao": "LEBB",
      "alert": "OK",
      "vis_m": 9999,
      "fzfg": false,
      "metar_trigger": false,
      "taf_trigger": false,
      "metar": "METAR LEBB 092030Z 28010KT 240V300 9999 FEW022 BKN040 BKN057 08/04 Q1021 TEMPO 3000 SHRA SCT025TCU",
      "taf": "TAF LEBB 091700Z 0918/1018 29009KT 9999 FEW020 SCT040 TX10/0923Z TN07/0923Z"
    },
    {
      "icao": "LEBL",
      "alert": "OK",
      "vis_m": 9999,
      "fzfg": false,
      "metar_trigger": false,
      "taf_trigger": false,
      "metar": "METAR LEBL 092030Z 28008KT 9999 FEW050 10/M00 Q1014 NOSIG",
      "taf": ""
    },
    {
      "icao": "LECH",
      "alert": "OK",
      "vis_m": 9999,
      "fzfg": false,
      "metar_trigger": false,
      "taf_trigger": false,
      "metar": "METAR LECH 092030Z AUTO 01011G23KT 330V050 CAVOK 08/01 Q1019",
      "taf": ""
    },
    {
      "icao": "LEMD",
      "alert": "OK",
      "vis_m": 9999,
      "fzfg": false,
      "metar_trigger": false,
      "taf_trigger": false,
      "metar": "METAR LEMD 092030Z 24014G24KT CAVOK 08/M00 Q1022 NOSIG",
      "taf": "TAF LEMD 091700Z 0918/1024 27012KT 9999 SCT030 TX10/1014Z TN01/1006Z"
    },
    {
      "icao": "LEMG",
      "alert": "OK",
      "vis_m": 9999,
      "fzfg": false,
      "metar_trigger": false,
      "taf_trigger": false,
      "metar": "METAR LEMG 092030Z 32012KT CAVOK 14/09 Q1026 NOSIG",
      "taf": "TAF LEMG 091700Z 0918/1018 29010KT 9999 FEW030 TX18/1014Z TN10/1006Z"
    },
    {
      "icao": "LEVC",
      "alert": "OK",
      "vis_m": 9999,
      "fzfg": false,
      "metar_trigger": false,
      "taf_trigger": false,
      "metar": "METAR LEVC 092030Z 26008KT CAVOK 11/03 Q1019 NOSIG",
      "taf": "TAF LEVC 091700Z 0918/1018 27015KT 9999 FEW040 TX16/1014Z TN07/1006Z"
    },
    {
      "icao": "LEXJ",
      "alert": "OK",
      "vis_m": 9999,
      "fzfg": false,
      "metar_trigger": false,
      "taf_trigger": false,
      "metar": "METAR LEXJ 092030Z 28019G30KT 240V320 9999 SCT040 BKN050 BKN065 08/04 Q1022",
      "taf": ""
    },
    {
      "icao": "LEZG",
      "alert": "OK",
      "vis_m": 9999,
      "fzfg": false,
      "metar_trigger": false,
      "taf_trigger": false,
      "metar": "METAR LEZG 092030Z 26009KT 9999 FEW085 06/03 Q1020 NOSIG",
      "taf": "TAF LEZG 091700Z 0918/1018 29012KT 9999 FEW040 TX11/1015Z TN05/1006Z"
    },
    {
      "icao": "LEZL",
      "alert": "OK",
      "vis_m": 9999,
      "fzfg": false,
      "metar_trigger": false,
      "taf_trigger": false,
      "metar": "METAR LEZL 092030Z 30006KT CAVOK 12/09 Q1027 NOSIG",
      "taf": "TAF LEZL 092000Z 0921/1021 30003KT CAVOK TX15/1015Z TN06/1007Z"
    },
    {
      "icao": "LFBD",
      "alert": "OK",
      "vis_m": 9000,
      "fzfg": false,
      "metar_trigger": false,
      "taf_trigger": false,
      "metar": "METAR LFBD 092030Z AUTO 24006KT 9000 -RA SCT030/// BKN036/// BKN045/// ///CB 05/04 Q1015",
      "taf": ""
    },
    {
      "icao": "LFLL",
      "alert": "OK",
      "vis_m": 9999,
      "fzfg": false,
      "metar_trigger": false,
      "taf_trigger": false,
      "metar": "METAR LFLL 092030Z 24004KT 200V290 9999 SCT043 BKN200 05/00 Q1006 NOSIG",
      "taf": "TAF LFLL 091700Z 0918/1024 25010KT 9999 SCT060"
    },
    {
      "icao": "LFLS",
      "alert": "OK",
      "vis_m": 9999,
      "fzfg": false,
      "metar_trigger": false,
      "taf_trigger": false,
      "metar": "METAR LFLS 092030Z AUTO 07006KT 9999 BKN041 BKN048 BKN054 01/01 Q1007 NOSIG",
      "taf": ""
    },
    {
      "icao": "LFMN",
      "alert": "OK",
      "vis_m": 9999,
      "fzfg": false,
      "metar_trigger": false,
      "taf_trigger": false,
      "metar": "METAR LFMN 092030Z 25019KT CAVOK 10/02 Q1000 BECMG 30015KT",
      "taf": "TAF LFMN 092000Z 0921/1103 30015KT CAVOK"
    },
    {
      "icao": "LFOB",
      "alert": "OK",
      "vis_m": 9999,
      "fzfg": false,
      "metar_trigger": false,
      "taf_trigger": false,
      "metar": "METAR LFOB 092030Z AUTO 29017KT 9999 -RA SCT024 SCT030 BKN045 05/02 Q0999 TEMPO 4000 -SHRA BKN011TCU BECMG 28015G25KT",
      "taf": "TAF LFOB 091700Z 0918/1018 28015G25KT 9999 BKN025"
    },
    {
      "icao": "LFPO",
      "alert": "OK",
      "vis_m": 9999,
      "fzfg": false,
      "metar_trigger": false,
      "taf_trigger": false,
      "metar": "METAR LFPO 092030Z 27015KT 250V310 9999 FEW021 SCT040 05/02 Q1001 NOSIG",
      "taf": "TAF LFPO 091700Z 0918/1024 27015KT 9999 SCT020 BKN140"
    },
    {
      "icao": "LFSB",
      "alert": "OK",
      "vis_m": 9999,
      "fzfg": false,
      "metar_trigger": false,
      "taf_trigger": false,
      "metar": "METAR LFSB 092030Z AUTO 25019KT 9999 BKN032/// BKN044/// BKN062/// ///TCU 05/01 Q1000 TEMPO 4000 -SHRASN BECMG 25015G30KT",
      "taf": ""
    },
    {
      "icao": "LGAV",
      "alert": "OK",
      "vis_m": 9999,
      "fzfg": false,
      "metar_trigger": false,
      "taf_trigger": false,
      "metar": "METAR LGAV 092050Z 06008KT 340V080 9999 FEW030 09/04 Q1011 NOSIG",
      "taf": "TAF LGAV 091700Z 0918/1018 24012KT 9999 FEW025"
    },
    {
      "icao": "LGTS",
      "alert": "OK",
      "vis_m": 9999,
      "fzfg": false,
      "metar_trigger": false,
      "taf_trigger": false,
      "metar": "METAR LGTS 092050Z 12003KT 9999 FEW025 03/00 Q1007 NOSIG",
      "taf": "TAF LGTS 091700Z 0918/1018 VRB03KT 9999 FEW030"
    },
    {
      "icao": "LHBP",
      "alert": "OK",
      "vis_m": 6000,
      "fzfg": false,
      "metar_trigger": false,
      "taf_trigger": false,
      "metar": "METAR LHBP 092030Z 03004KT 360V060 6000 OVC006 M07/M09 Q1002 TEMPO OVC004",
      "taf": "TAF LHBP 091715Z 0918/1018 09006KT 7000 BKN015 BKN025"
    },
    {
      "icao": "LHDC",
      "alert": "OK",
      "vis_m": 6000,
      "fzfg": false,
      "metar_trigger": false,
      "taf_trigger": false,
      "metar": "METAR LHDC 092015Z AUTO 08006KT 6000 OVC011 M05/M07 Q1002",
      "taf": "TAF LHDC 091415Z 0915/0924 VRB02KT 7000 NSC"
    },
    {
      "icao": "LIBD",
      "alert": "OK",
      "vis_m": 9999,
      "fzfg": false,
      "metar_trigger": false,
      "taf_trigger": false,
      "metar": "METAR LIBD 092050Z 27006KT 250V310 CAVOK 14/08 Q1004",
      "taf": "TAF LIBD 091700Z 0918/1018 25016KT 9999 SCT040"
    },
    {
      "icao": "LIBG",
      "alert": "OK",
      "vis_m": null,
      "fzfg": false,
      "metar_trigger": false,
      "taf_trigger": false,
      "metar": "",
      "taf": "TAF LIBG 091700Z 0918/1003 21010KT 9999 SCT040"
    },
    {
      "icao": "LIBP",
      "alert": "OK",
      "vis_m": 9999,
      "fzfg": false,
      "metar_trigger": false,
      "taf_trigger": false,
      "metar": "METAR LIBP 092020Z AUTO 24009KT 9999 BKN190/// 13/04 Q1002",
      "taf": "TAF LIBP 091700Z 0918/1018 24012KT 9999 SCT050"
    },
    {
      "icao": "LIBR",
      "alert": "OK",
      "vis_m": 9999,
      "fzfg": false,
      "metar_trigger": false,
      "taf_trigger": false,
      "metar": "METAR LIBR 092050Z 23005KT CAVOK 14/10 Q1005",
      "taf": "TAF LIBR 091700Z 0918/1018 21013KT 9999 FEW040"
    },
    {
      "icao": "LICA",
      "alert": "OK",
      "vis_m": 9999,
      "fzfg": false,
      "metar_trigger": false,
      "taf_trigger": false,
      "metar": "METAR LICA 092020Z AUTO 24017KT 9999 DZRA OVC027/// 15/12 Q1010",
      "taf": "TAF LICA 091700Z 0918/1018 27026G38KT 9999 BKN016"
    },
    {
      "icao": "LICC",
      "alert": "OK",
      "vis_m": 9999,
      "fzfg": false,
      "metar_trigger": false,
      "taf_trigger": false,
      "metar": "METAR LICC 092050Z 26011KT 9999 SCT040 14/10 Q1013",
      "taf": "TAF LICC 091700Z 0918/1018 26013KT 9999 FEW050"
    },
    {
      "icao": "LICJ",
      "alert": "OK",
      "vis_m": 9999,
      "fzfg": false,
      "metar_trigger": false,
      "taf_trigger": false,
      "metar": "METAR LICJ 092050Z 23020KT 9999 SCT060 16/12 Q1012",
      "taf": "TAF LICJ 091700Z 0918/1018 23020G30KT 9999 SCT020"
    },
    {
      "icao": "LIMC",
      "alert": "OK",
      "vis_m": 5000,
      "fzfg": false,
      "metar_trigger": false,
      "taf_trigger": false,
      "metar": "METAR LIMC 092050Z 04005KT 5000 BR NSC M02/M03 Q1000 NOSIG",
      "taf": "TAF LIMC 091700Z 0918/1024 VRB04KT 9000 SCT030"
    },
    {
      "icao": "LIME",
      "alert": "OK",
      "vis_m": 7000,
      "fzfg": false,
      "metar_trigger": false,
      "taf_trigger": false,
      "metar": "METAR LIME 092050Z 30003KT 7000 SCT035 M02/M03 Q1000 NOSIG",
      "taf": "TAF LIME 091700Z 0918/1018 VRB04KT 9999 SCT050"
    },
    {
      "icao": "LIMF",
      "alert": "OK",
      "vis_m": 5000,
      "fzfg": false,
      "metar_trigger": false,
      "taf_trigger": false,
      "metar": "METAR LIMF 092050Z 05004KT 010V070 5000 BR NSC M01/M04 Q1000",
      "taf": "TAF LIMF 091700Z 0918/1018 VRB05KT 9999 FEW030"
    },
    {
      "icao": "LIMJ",
      "alert": "OK",
      "vis_m": 9999,
      "fzfg": false,
      "metar_trigger": false,
      "taf_trigger": false,
      "metar": "METAR LIMJ 092050Z 03007KT 350V050 CAVOK 09/M01 Q0999",
      "taf": "TAF LIMJ 091700Z 0918/1018 36013KT 9999 FEW030"
    },
    {
      "icao": "LIPE",
      "alert": "OK",
      "vis_m": 6000,
      "fzfg": false,
      "metar_trigger": false,
      "taf_trigger": false,
      "metar": "METAR LIPE 092050Z 22003KT 200V270 6000 NSC M00/M02 Q1001",
      "taf": "TAF LIPE 091700Z 0918/1018 VRB05KT 6000 BKN015"
    },
    {
      "icao": "LIPH",
      "alert": "OK",
      "vis_m": 8000,
      "fzfg": false,
      "metar_trigger": false,
      "taf_trigger": false,
      "metar": "METAR LIPH 092050Z VRB02KT 8000 NSC 00/M01 Q1001",
      "taf": "TAF LIPH 091700Z 0918/1018 VRB05KT 9999 SCT040"
    },
    {
      "icao": "LIPQ",
      "alert": "OK",
      "vis_m": 9999,
      "fzfg": false,
      "metar_trigger": false,
      "taf_trigger": false,
      "metar": "METAR LIPQ 092050Z AUTO 32003KT 9999 FEW016/// OVC033/// 03/01 Q1001",
      "taf": "TAF LIPQ 091700Z 0918/1018 VRB05KT 9999 BKN030"
    },
    {
      "icao": "LIPR",
      "alert": "OK",
      "vis_m": 7000,
      "fzfg": false,
      "metar_trigger": false,
      "taf_trigger": false,
      "metar": "METAR LIPR 092050Z 21005KT 7000 NSC M00/M02 Q1002",
      "taf": "TAF LIPR 091700Z 0918/1018 29010KT 9999 SCT040"
    },
    {
      "icao": "LIPX",
      "alert": "OK",
      "vis_m": 9999,
      "fzfg": false,
      "metar_trigger": false,
      "taf_trigger": false,
      "metar": "METAR LIPX 092050Z 14002KT CAVOK M03/M04 Q1000",
      "taf": "TAF LIPX 091700Z 0918/1018 VRB05KT 9999 FEW020"
    },
    {
      "icao": "LIPY",
      "alert": "OK",
      "vis_m": 9999,
      "fzfg": false,
      "metar_trigger": false,
      "taf_trigger": false,
      "metar": "METAR LIPY 092020Z AUTO 29006KT 200V360 9999 SCT220/// 06/03 Q1001",
      "taf": "TAF LIPY 091700Z 0918/1018 24012KT 9999 SCT050"
    },
    {
      "icao": "LIPZ",
      "alert": "OK",
      "vis_m": 9999,
      "fzfg": false,
      "metar_trigger": false,
      "taf_trigger": false,
      "metar": "METAR LIPZ 092050Z 28004KT CAVOK 01/M02 Q1001 NOSIG",
      "taf": "TAF LIPZ 091700Z 0918/1024 VRB05KT 9999 SCT030"
    },
    {
      "icao": "LIRF",
      "alert": "OK",
      "vis_m": 9999,
      "fzfg": false,
      "metar_trigger": false,
      "taf_trigger": false,
      "metar": "METAR LIRF 092050Z 26015KT CAVOK 14/07 Q1004 WS R16R NOSIG",
      "taf": "TAF LIRF 091700Z 0918/1024 25023G35KT 9999 SCT020"
    },
    {
      "icao": "LIRN",
      "alert": "OK",
      "vis_m": 9999,
      "fzfg": false,
      "metar_trigger": false,
      "taf_trigger": false,
      "metar": "METAR LIRN 092050Z 26009KT 9999 SCT040 13/08 Q1007 NOSIG",
      "taf": "TAF LIRN 091700Z 0918/1018 25018KT 9999 BKN025"
    },
    {
      "icao": "LIRP",
      "alert": "OK",
      "vis_m": 9999,
      "fzfg": false,
      "metar_trigger": false,
      "taf_trigger": false,
      "metar": "METAR LIRP 092045Z 26021KT 9999 SCT030 12/07 Q1001 NOSIG",
      "taf": "TAF LIRP 091700Z 0918/1018 27015KT 9999 FEW020 SCT040"
    },
    {
      "icao": "LIRZ",
      "alert": "OK",
      "vis_m": 9999,
      "fzfg": false,
      "metar_trigger": false,
      "taf_trigger": false,
      "metar": "METAR LIRZ 092020Z AUTO 19004KT 9999 BKN047/// 10/02 Q1003",
      "taf": "TAF LIRZ 091700Z 0918/1018 24012KT 9999 BKN040"
    },
    {
      "icao": "LJLJ",
      "alert": "OK",
      "vis_m": 4000,
      "fzfg": false,
      "metar_trigger": false,
      "taf_trigger": false,
      "metar": "METAR LJLJ 092030Z 28004KT 4000 -RA BR OVC010 00/M00 Q0999 NOSIG",
      "taf": "TAF LJLJ 091700Z 0918/1018 29006KT 6000 FEW003 BKN016 BKN030"
    },
    {
      "icao": "LKMT",
      "alert": "OK",
      "vis_m": 9999,
      "fzfg": false,
      "metar_trigger": false,
      "taf_trigger": false,
      "metar": "METAR LKMT 092030Z 10002KT 9999 FEW047 M04/M07 Q1000 NOSIG",
      "taf": "TAF LKMT 091700Z 0918/1018 VRB02KT 9999 BKN035"
    },
    {
      "icao": "LKPR",
      "alert": "OK",
      "vis_m": 4000,
      "fzfg": false,
      "metar_trigger": false,
      "taf_trigger": false,
      "metar": "METAR LKPR 092030Z 03003KT 340V070 4000 -SN BR BKN003 OVC005 M04/M05 Q0997 NOSIG",
      "taf": "TAF LKPR 092000Z 0921/1103 06005KT 6000 SCT008 OVC013"
    },
    {
      "icao": "LLBG",
      "alert": "OK",
      "vis_m": 9999,
      "fzfg": false,
      "metar_trigger": false,
      "taf_trigger": false,
      "metar": "METAR LLBG 092050Z 28015KT 9999 FEW040 SCT048 16/07 Q1017 TEMPO 7000 SHRA FEW025TCU BKN030",
      "taf": "TAF LLBG 091703Z 0918/1018 29012KT 9999 SCT035"
    },
    {
      "icao": "LMML",
      "alert": "OK",
      "vis_m": 9999,
      "fzfg": false,
      "metar_trigger": false,
      "taf_trigger": false,
      "metar": "METAR LMML 092045Z 23006KT 9999 FEW017 13/11 Q1017 NOSIG",
      "taf": "TAF LMML 091700Z 0918/1018 24018KT 9999 FEW015"
    },
    {
      "icao": "LOWW",
      "alert": "OK",
      "vis_m": 5000,
      "fzfg": false,
      "metar_trigger": false,
      "taf_trigger": false,
      "metar": "METAR LOWW 092050Z 15002KT 5000 BR NSC M06/M08 Q1001 TEMPO 4000 BR BKN009",
      "taf": "TAF LOWW 092015Z 0921/1103 12003KT 6000 BKN008 TXM02/1013Z TNM06/1101Z"
    },
    {
      "icao": "LPFR",
      "alert": "OK",
      "vis_m": 9999,
      "fzfg": false,
      "metar_trigger": false,
      "taf_trigger": false,
      "metar": "METAR LPFR 092030Z 32008KT 9999 FEW020 11/09 Q1029",
      "taf": "TAF LPFR 091700Z 0918/1018 26012KT 9999 SCT012 BKN018"
    },
    {
      "icao": "LPMA",
      "alert": "OK",
      "vis_m": 9999,
      "fzfg": false,
      "metar_trigger": false,
      "taf_trigger": false,
      "metar": "METAR LPMA 092030Z 35006KT 300V020 9999 BKN012 14/13 Q1032",
      "taf": "TAF LPMA 091700Z 0918/1018 05010KT 9999 SCT015"
    },
    {
      "icao": "LPPR",
      "alert": "OK",
      "vis_m": 9999,
      "fzfg": false,
      "metar_trigger": false,
      "taf_trigger": false,
      "metar": "METAR LPPR 092030Z 36004KT 320V060 9999 FEW020 SCT028 09/07 Q1028",
      "taf": "TAF LPPR 091700Z 0918/1018 30007KT 9999 FEW015 SCT030"
    },
    {
      "icao": "LPPS",
      "alert": "OK",
      "vis_m": 9999,
      "fzfg": false,
      "metar_trigger": false,
      "taf_trigger": false,
      "metar": "METAR LPPS 092030Z 36004KT 9999 FEW014 14/11 Q1032",
      "taf": "TAF LPPS 091700Z 0918/1024 07008KT 9999 SCT015 SCT030"
    },
    {
      "icao": "LPPT",
      "alert": "OK",
      "vis_m": 9999,
      "fzfg": false,
      "metar_trigger": false,
      "taf_trigger": false,
      "metar": "METAR LPPT 092030Z VRB02KT 9999 FEW015 10/07 Q1029",
      "taf": "TAF LPPT 091700Z 0918/1024 32010KT 9999 SCT020"
    },
    {
      "icao": "LQBK",
      "alert": "OK",
      "vis_m": 3500,
      "fzfg": false,
      "metar_trigger": false,
      "taf_trigger": false,
      "metar": "METAR LQBK 092030Z 14007KT 3500 -RA BR FEW007 SCT020 BKN045 01/01 Q1001 NOSIG",
      "taf": "TAF LQBK 091700Z 0918/1018 VRB03KT 7000 SCT040 TX00/1013Z TNM02/1006Z"
    },
    {
      "icao": "LQSA",
      "alert": "OK",
      "vis_m": 3500,
      "fzfg": false,
      "metar_trigger": false,
      "taf_trigger": false,
      "metar": "METAR LQSA 092030Z VRB03KT 3500 -FZRA BR FEW015 BKN035 M00/M00 Q1000 NOSIG",
      "taf": ""
    },
    {
      "icao": "LQTZ",
      "alert": "OK",
      "vis_m": 2000,
      "fzfg": false,
      "metar_trigger": false,
      "taf_trigger": false,
      "metar": "METAR LQTZ 092030Z 36003KT 320V060 2000 -RASN BR SCT010 OVC015 01/01 Q1002",
      "taf": "TAF LQTZ 091700Z 0918/1018 16005KT 3000 BR SCT005 BKN025 TX01/1013Z TNM03/1006Z"
    },
    {
      "icao": "LRBC",
      "alert": "OK",
      "vis_m": 9999,
      "fzfg": false,
      "metar_trigger": false,
      "taf_trigger": false,
      "metar": "METAR LRBC 092030Z 13005KT CAVOK M04/M12 Q1002",
      "taf": "TAF LRBC 092000Z 0921/1006 14005KT CAVOK"
    },
    {
      "icao": "LRBS",
      "alert": "OK",
      "vis_m": 9999,
      "fzfg": false,
      "metar_trigger": false,
      "taf_trigger": false,
      "metar": "METAR LRBS 092030Z VRB02KT 9999 OVC035 01/M03 Q1004 NOSIG",
      "taf": "TAF LRBS 091700Z 0918/1018 VRB04KT CAVOK"
    },
    {
      "icao": "LRBV",
      "alert": "OK",
      "vis_m": 9999,
      "fzfg": false,
      "metar_trigger": false,
      "taf_trigger": false,
      "metar": "METAR LRBV 092030Z 09003KT 9999 SCT043 BKN053 M05/M09 Q1001",
      "taf": "TAF LRBV 091700Z 0918/1003 VRB04KT 9999 BKN050"
    },
    {
      "icao": "LRCL",
      "alert": "OK",
      "vis_m": 9999,
      "fzfg": false,
      "metar_trigger": false,
      "taf_trigger": false,
      "metar": "METAR LRCL 092030Z 07007KT 9999 OVC039 M05/M08 Q1002",
      "taf": "TAF LRCL 092000Z 0921/1006 09006KT 9999 OVC040"
    },
    {
      "icao": "LRCV",
      "alert": "OK",
      "vis_m": 9999,
      "fzfg": false,
      "metar_trigger": false,
      "taf_trigger": false,
      "metar": "METAR LRCV 092030Z 07005KT 9999 FEW030 BKN049 M00/M01 Q1002",
      "taf": "TAF LRCV 092000Z 0921/1006 VRB04KT 9999 SCT025 BKN035"
    },
    {
      "icao": "LRIA",
      "alert": "OK",
      "vis_m": 9999,
      "fzfg": false,
      "metar_trigger": false,
      "taf_trigger": false,
      "metar": "METAR LRIA 092030Z 22005KT 170V250 CAVOK M04/M09 Q1002",
      "taf": "TAF LRIA 092000Z 0921/1006 21005KT CAVOK"
    },
    {
      "icao": "LROP",
      "alert": "OK",
      "vis_m": 9999,
      "fzfg": false,
      "metar_trigger": false,
      "taf_trigger": false,
      "metar": "METAR LROP 092030Z 28004KT 9999 OVC038 00/M03 Q1004 NOSIG",
      "taf": "TAF LROP 091700Z 0918/1018 VRB04KT CAVOK"
    },
    {
      "icao": "LRSB",
      "alert": "OK",
      "vis_m": 9999,
      "fzfg": false,
      "metar_trigger": false,
      "taf_trigger": false,
      "metar": "METAR LRSB 092030Z VRB02KT 9999 SCT040 SCT050 M03/M07 Q1000",
      "taf": "TAF LRSB 091700Z 0918/1018 VRB04KT 9999 OVC045"
    },
    {
      "icao": "LRSM",
      "alert": "OK",
      "vis_m": 9999,
      "fzfg": false,
      "metar_trigger": false,
      "taf_trigger": false,
      "metar": "METAR LRSM 092030Z AUTO 10006KT 9999 OVC026/// M05/M08 Q1003",
      "taf": "TAF LRSM 091400Z 0915/0924 VRB04KT CAVOK"
    },
    {
      "icao": "LRSV",
      "alert": "OK",
      "vis_m": 9999,
      "fzfg": false,
      "metar_trigger": false,
      "taf_trigger": false,
      "metar": "METAR LRSV 092030Z 23007KT CAVOK M06/M12 Q0999",
      "taf": "TAF LRSV 092000Z 0921/1006 24008KT CAVOK"
    },
    {
      "icao": "LRTM",
      "alert": "OK",
      "vis_m": 9999,
      "fzfg": false,
      "metar_trigger": false,
      "taf_trigger": false,
      "metar": "METAR LRTM 092030Z AUTO 06006KT 9999 SCT032/// BKN037/// M05/M08 Q1002",
      "taf": "TAF LRTM 091400Z 0915/0924 VRB04KT CAVOK"
    },
    {
      "icao": "LRTR",
      "alert": "OK",
      "vis_m": 1800,
      "fzfg": false,
      "metar_trigger": false,
      "taf_trigger": false,
      "metar": "METAR LRTR 092030Z 11005KT 1800 SN BKN005 OVC024 M02/M02 Q1001",
      "taf": "TAF LRTR 091700Z 0918/1018 11010KT 3000 -SN BR BKN010 OVC025"
    },
    {
      "icao": "LTAC",
      "alert": "OK",
      "vis_m": 9999,
      "fzfg": false,
      "metar_trigger": false,
      "taf_trigger": false,
      "metar": "METAR LTAC 092050Z 22007KT CAVOK M04/M09 Q1011 NOSIG RMK RWY21C 18006KT RWY03L 23008KT RWY21R 19008KT RWY03R 17006KT RWY21L 17007KT",
      "taf": "TAF LTAC 091640Z 0918/1018 26012KT CAVOK"
    },
    {
      "icao": "LTFM",
      "alert": "OK",
      "vis_m": 9999,
      "fzfg": false,
      "metar_trigger": false,
      "taf_trigger": false,
      "metar": "METAR LTFM 092050Z 22019KT CAVOK 08/01 Q1008 NOSIG RMK RWY17L 22020KT RWY34L 20018KT RWY16R 21014KT RWY36 22021KT RWY18 22021KT",
      "taf": "TAF LTFM 091640Z 0918/1024 20018KT CAVOK"
    },
    {
      "icao": "LUKK",
      "alert": "OK",
      "vis_m": 9999,
      "fzfg": false,
      "metar_trigger": false,
      "taf_trigger": false,
      "metar": "METAR LUKK 092030Z 22008KT CAVOK M06/M10 Q1002 NOSIG",
      "taf": "TAF LUKK 091702Z 0918/1018 VRB05KT 9999 SCT030"
    },
    {
      "icao": "LWOH",
      "alert": "OK",
      "vis_m": 9999,
      "fzfg": false,
      "metar_trigger": false,
      "taf_trigger": false,
      "metar": "METAR LWOH 091950Z 11010KT 9999 -RA SCT006 OVC020 07/05 Q1005",
      "taf": "TAF LWOH 092050Z 0921/1021 13010KT 9999 RA SCT005 OVC020"
    },
    {
      "icao": "LWSK",
      "alert": "OK",
      "vis_m": 9999,
      "fzfg": false,
      "metar_trigger": false,
      "taf_trigger": false,
      "metar": "METAR LWSK 092050Z 14001KT 9999 SCT060 SCT090 M01/M03 Q1006 NOSIG",
      "taf": "TAF LWSK 092050Z 0921/1021 VRB02KT 9999 BKN050 BKN080"
    },
    {
      "icao": "LYBE",
      "alert": "OK",
      "vis_m": 2500,
      "fzfg": false,
      "metar_trigger": false,
      "taf_trigger": false,
      "metar": "METAR LYBE 092030Z 18003KT 140V200 2500 -RA BR SCT010 BKN030 00/M00 Q1001 BECMG BKN010",
      "taf": "TAF LYBE 091700Z 0918/1018 10006KT 6000 BKN040 TX01/0918Z TN00/1006Z"
    },
    {
      "icao": "LYNI",
      "alert": "OK",
      "vis_m": 9999,
      "fzfg": false,
      "metar_trigger": false,
      "taf_trigger": false,
      "metar": "METAR LYNI 092030Z 18005KT 9999 BKN037 02/00 Q1003 NOSIG",
      "taf": "TAF LYNI 091700Z 0918/1018 17004KT 8000 SCT015 BKN030 TX01/0918Z TN00/1006Z"
    },
    {
      "icao": "LYPG",
      "alert": "OK",
      "vis_m": 2500,
      "fzfg": false,
      "metar_trigger": false,
      "taf_trigger": false,
      "metar": "METAR LYPG 092030Z VRB03KT 2500 +SHRA FEW013 SCT026TCU BKN030 02/02 Q1005 RETS TEMPO TSRA FEW025CB BKN030",
      "taf": "TAF LYPG 091700Z 0918/1018 35005KT 7000 RA FEW010 SCT023 OVC070 TX08/1012Z TN02/0918Z"
    },
    {
      "icao": "LZIB",
      "alert": "OK",
      "vis_m": 9999,
      "fzfg": false,
      "metar_trigger": false,
      "taf_trigger": false,
      "metar": "METAR LZIB 092030Z 04006KT 9999 BKN009 OVC010 M04/M06 Q1001 NOSIG",
      "taf": "TAF LZIB 091715Z 0918/1018 06005KT 9999 OVC008"
    },
    {
      "icao": "LZKZ",
      "alert": "OK",
      "vis_m": 9999,
      "fzfg": false,
      "metar_trigger": false,
      "taf_trigger": false,
      "metar": "METAR LZKZ 092030Z 07003KT 9999 SCT041 M09/M12 Q1002 NOSIG",
      "taf": "TAF LZKZ 091715Z 0918/1018 VRB02KT 9999 SCT045"
    },
    {
      "icao": "LZTT",
      "alert": "OK",
      "vis_m": 9999,
      "fzfg": false,
      "metar_trigger": false,
      "taf_trigger": false,
      "metar": "METAR LZTT 092030Z VRB01KT 9999 BKN026 M11/M13 Q0998",
      "taf": "TAF LZTT 091715Z 0918/1018 VRB02KT 9999 BKN045"
    },
    {
      "icao": "OEJN",
      "alert": "OK",
      "vis_m": 9999,
      "fzfg": false,
      "metar_trigger": false,
      "taf_trigger": false,
      "metar": "METAR OEJN 092000Z VRB03KT 9999 FEW040 26/17 Q1014 NOSIG",
      "taf": "TAF OEJN 091700Z 0918/1024 04006KT 6000 SCT040"
    },
    {
      "icao": "OEMA",
      "alert": "OK",
      "vis_m": 9999,
      "fzfg": false,
      "metar_trigger": false,
      "taf_trigger": false,
      "metar": "METAR OEMA 092000Z 21008KT CAVOK 22/09 Q1017 NOSIG",
      "taf": "TAF OEMA 091700Z 0918/1024 30010KT 7000 SCT040"
    },
    {
      "icao": "OJAI",
      "alert": "OK",
      "vis_m": 2500,
      "fzfg": false,
      "metar_trigger": false,
      "taf_trigger": false,
      "metar": "METAR OJAI 092000Z 28022KT 2500 -RA FEW015 BKN025 09/06 Q1016 NOSIG",
      "taf": "TAF OJAI 091700Z 0918/1024 26016KT 2500 RA BR SCT030 BKN035"
    },
    {
      "icao": "OMAA",
      "alert": "OK",
      "vis_m": 9999,
      "fzfg": false,
      "metar_trigger": false,
      "taf_trigger": false,
      "metar": "METAR OMAA 092000Z 05004KT CAVOK 19/13 Q1018 NOSIG",
      "taf": "TAF OMAA 091700Z 0918/1100 VRB02KT 8000 NSC"
    },
    {
      "icao": "OMDB",
      "alert": "OK",
      "vis_m": 9999,
      "fzfg": false,
      "metar_trigger": false,
      "taf_trigger": false,
      "metar": "METAR OMDB 092030Z 06005KT 020V100 CAVOK 21/12 Q1018 NOSIG",
      "taf": "TAF OMDB 091700Z 0918/1100 12005KT 8000 NSC"
    },
    {
      "icao": "UAAA",
      "alert": "OK",
      "vis_m": 1800,
      "fzfg": false,
      "metar_trigger": false,
      "taf_trigger": false,
      "metar": "METAR UAAA 092030Z 17002MPS 1800 R23L/P2000N BR OVC005 M05/M06 Q1020 NOSIG RMK QBB160",
      "taf": "TAF UAAA 091701Z 0918/1018 17003MPS 1200 BR FU BKN011 OVC020 TX03/1009Z TNM07/1001Z"
    },
    {
      "icao": "UBBB",
      "alert": "OK",
      "vis_m": 9999,
      "fzfg": false,
      "metar_trigger": false,
      "taf_trigger": false,
      "metar": "METAR UBBB 092030Z 31016KT 9999 FEW017 08/05 Q1003 NOSIG",
      "taf": ""
    },
    {
      "icao": "UDSG",
      "alert": "OK",
      "vis_m": 1800,
      "fzfg": false,
      "metar_trigger": false,
      "taf_trigger": false,
      "metar": "METAR UDSG 092030Z 02002KT 1800 R02/P2000N BR OVC023 M03/M03 Q1006 NOSIG",
      "taf": "TAF UDSG 091700Z 0918/1018 VRB06KT 1500 BR OVC020"
    },
    {
      "icao": "UDYZ",
      "alert": "OK",
      "vis_m": 1100,
      "fzfg": false,
      "metar_trigger": false,
      "taf_trigger": false,
      "metar": "METAR UDYZ 092030Z VRB01KT 1100 R08/2000D -SHGS BR FEW008 OVC033CB M00/M02 Q1007 NOSIG",
      "taf": "TAF UDYZ 091700Z 0918/1018 24006KT 1000 BR BKN030CB"
    },
    {
      "icao": "UGKO",
      "alert": "OK",
      "vis_m": 9999,
      "fzfg": false,
      "metar_trigger": false,
      "taf_trigger": false,
      "metar": "METAR UGKO 092030Z VRB02KT 9999 SCT098 05/05 Q1006 NOSIG",
      "taf": "TAF UGKO 091700Z 0918/1018 25010KT 9999 OVC050 TX09/1012Z TN04/1003Z"
    }
  ]
}