{
  "ts_utc": "2026-06-12T01:39:50Z",
  "threshold_m": 150,
  "source": "stations_override.txt (ICAO list) + aviationweather.gov (METAR/TAF raw)",
  "station_count": 159,
  "stations": [
    {
      "icao": "BIKF",
      "alert": "OK",
      "vis_m": 9999,
      "fzfg": false,
      "metar_trigger": false,
      "taf_trigger": false,
      "metar": "METAR BIKF 120130Z 32004KT 290V360 CAVOK 10/08 Q1001",
      "taf": "TAF BIKF 120104Z 1203/1303 08008KT 9999 FEW024 SCT036 TX16/1215Z TN10/1206Z"
    },
    {
      "icao": "BKPR",
      "alert": "OK",
      "vis_m": 9999,
      "fzfg": false,
      "metar_trigger": false,
      "taf_trigger": false,
      "metar": "METAR BKPR 120130Z VRB02KT 9999 -DZ FEW015 BKN045 13/12 Q1019 NOSIG",
      "taf": "TAF BKPR 112330Z 1200/1224 34010KT 9999 BKN040"
    },
    {
      "icao": "EBCI",
      "alert": "OK",
      "vis_m": 3500,
      "fzfg": false,
      "metar_trigger": false,
      "taf_trigger": false,
      "metar": "METAR EBCI 120120Z 25013KT 3500 -RADZ SCT003 BKN004 13/13 Q1019 NOSIG",
      "taf": "TAF EBCI 112310Z 1200/1306 25012KT 6000 -RADZ SCT004 BKN006"
    },
    {
      "icao": "EDDB",
      "alert": "OK",
      "vis_m": 9999,
      "fzfg": false,
      "metar_trigger": false,
      "taf_trigger": false,
      "metar": "METAR EDDB 120120Z AUTO 24005KT CAVOK 10/08 Q1019 NOSIG",
      "taf": "TAF EDDB 112300Z 1200/1224 19005KT 9999 SCT030"
    },
    {
      "icao": "EDDH",
      "alert": "OK",
      "vis_m": 9999,
      "fzfg": false,
      "metar_trigger": false,
      "taf_trigger": false,
      "metar": "METAR EDDH 120120Z AUTO 21006KT CAVOK 11/09 Q1016 TEMPO 15006KT",
      "taf": "TAF EDDH 112300Z 1200/1306 20002KT 9999 SCT040"
    },
    {
      "icao": "EDDK",
      "alert": "OK",
      "vis_m": 4500,
      "fzfg": false,
      "metar_trigger": false,
      "taf_trigger": false,
      "metar": "METAR EDDK 120120Z AUTO 16008KT 4500 -RADZ BR SCT005 BKN018 12/12 Q1018 TEMPO RADZ BKN005",
      "taf": "TAF EDDK 112300Z 1200/1306 19007KT 9999 BKN020"
    },
    {
      "icao": "EDDN",
      "alert": "OK",
      "vis_m": 9999,
      "fzfg": false,
      "metar_trigger": false,
      "taf_trigger": false,
      "metar": "METAR EDDN 120120Z AUTO 22005KT 180V240 9999 FEW040 12/08 Q1022",
      "taf": "TAF EDDN 112300Z 1200/1224 23005KT 9999 SCT040"
    },
    {
      "icao": "EDDS",
      "alert": "OK",
      "vis_m": 9999,
      "fzfg": false,
      "metar_trigger": false,
      "taf_trigger": false,
      "metar": "METAR EDDS 120120Z AUTO 18003KT 130V230 9999 OVC041 12/08 Q1022",
      "taf": "TAF EDDS 112300Z 1200/1224 VRB03KT 9999 BKN040"
    },
    {
      "icao": "EDFH",
      "alert": "OK",
      "vis_m": 9999,
      "fzfg": false,
      "metar_trigger": false,
      "taf_trigger": false,
      "metar": "METAR EDFH 120120Z 25015KT 210V270 9999 -RA OVC006 11/10 Q1019 RERA",
      "taf": "TAF EDFH 112300Z 1200/1224 25013KT 9999 BKN025"
    },
    {
      "icao": "EDJA",
      "alert": "OK",
      "vis_m": 9999,
      "fzfg": false,
      "metar_trigger": false,
      "taf_trigger": false,
      "metar": "METAR EDJA 120120Z AUTO 21005KT 9999 // SCT042/// BKN050/// OVC058/// 10/08 Q1025",
      "taf": "TAF EDJA 111700Z 1118/1203 26013KT 9999 FEW035"
    },
    {
      "icao": "EDLW",
      "alert": "OK",
      "vis_m": 9999,
      "fzfg": false,
      "metar_trigger": false,
      "taf_trigger": false,
      "metar": "METAR EDLW 120120Z AUTO 19011KT 9999 // OVC017/// 12/11 Q1016",
      "taf": "TAF EDLW 111700Z 1118/1218 21007KT 9999 SCT030"
    },
    {
      "icao": "EDNY",
      "alert": "OK",
      "vis_m": 9999,
      "fzfg": false,
      "metar_trigger": false,
      "taf_trigger": false,
      "metar": "METAR EDNY 120120Z AUTO 25005KT 220V280 9999 // SCT049/// OVC057/// 15/09 Q1025",
      "taf": "TAF EDNY 111700Z 1118/1203 23008KT CAVOK"
    },
    {
      "icao": "EDSB",
      "alert": "OK",
      "vis_m": 9999,
      "fzfg": false,
      "metar_trigger": false,
      "taf_trigger": false,
      "metar": "METAR EDSB 120120Z AUTO 20009KT 9999 // OVC042/// 14/10 Q1023",
      "taf": "TAF EDSB 112300Z 1200/1224 21006KT 9999 BKN045"
    },
    {
      "icao": "EETN",
      "alert": "OK",
      "vis_m": 9999,
      "fzfg": false,
      "metar_trigger": false,
      "taf_trigger": false,
      "metar": "METAR EETN 120120Z 28004KT 9999 OVC004 13/12 Q1006",
      "taf": "TAF EETN 112330Z 1200/1224 VRB02KT 9999 OVC006"
    },
    {
      "icao": "EFTU",
      "alert": "OK",
      "vis_m": 4300,
      "fzfg": false,
      "metar_trigger": false,
      "taf_trigger": false,
      "metar": "METAR EFTU 120120Z AUTO 33003KT 270V010 4300 -RA OVC006 11/11 Q1009",
      "taf": ""
    },
    {
      "icao": "EGBB",
      "alert": "OK",
      "vis_m": 9999,
      "fzfg": false,
      "metar_trigger": false,
      "taf_trigger": false,
      "metar": "METAR EGBB 120050Z 25007KT 210V280 9999 BKN010 BKN016 16/14 Q1016",
      "taf": "TAF EGBB 112256Z 1200/1224 24006KT 9999 FEW012 BKN035"
    },
    {
      "icao": "EGGP",
      "alert": "OK",
      "vis_m": 9999,
      "fzfg": false,
      "metar_trigger": false,
      "taf_trigger": false,
      "metar": "METAR EGGP 120120Z 27013KT 9999 FEW023 SCT039 14/11 Q1015",
      "taf": "TAF EGGP 112300Z 1200/1224 27012KT 9999 SCT025"
    },
    {
      "icao": "EGGW",
      "alert": "OK",
      "vis_m": 9999,
      "fzfg": false,
      "metar_trigger": false,
      "taf_trigger": false,
      "metar": "METAR EGGW 120120Z AUTO 25014KT 9999 OVC007 14/13 Q1017",
      "taf": ""
    },
    {
      "icao": "EGKK",
      "alert": "OK",
      "vis_m": 9999,
      "fzfg": false,
      "metar_trigger": false,
      "taf_trigger": false,
      "metar": "METAR EGKK 120120Z 26012KT 9999 BKN013 16/14 Q1018",
      "taf": "TAF EGKK 112256Z 1200/1306 25009KT 9999 BKN012"
    },
    {
      "icao": "EGNM",
      "alert": "OK",
      "vis_m": 9999,
      "fzfg": false,
      "metar_trigger": false,
      "taf_trigger": false,
      "metar": "METAR EGNM 120120Z 27011KT 9999 FEW010 SCT018 13/12 Q1013",
      "taf": "TAF EGNM 112258Z 1200/1224 26009KT 9999 SCT020"
    },
    {
      "icao": "EGPD",
      "alert": "OK",
      "vis_m": 9999,
      "fzfg": false,
      "metar_trigger": false,
      "taf_trigger": false,
      "metar": "METAR EGPD 120120Z COR AUTO 26005KT 9999 NCD 11/07 Q1006 NOSIG",
      "taf": "TAF EGPD 112257Z 1200/1224 25008KT 9999 SCT030"
    },
    {
      "icao": "EGPF",
      "alert": "OK",
      "vis_m": 9999,
      "fzfg": false,
      "metar_trigger": false,
      "taf_trigger": false,
      "metar": "METAR EGPF 120120Z AUTO 26013KT 9999 SCT017 BKN024 OVC030 12/10 Q1011",
      "taf": "TAF EGPF 112256Z 1200/1224 26008KT 9999 BKN020"
    },
    {
      "icao": "EHBK",
      "alert": "OK",
      "vis_m": 9999,
      "fzfg": false,
      "metar_trigger": false,
      "taf_trigger": false,
      "metar": "METAR EHBK 120125Z AUTO 23012KT 190V280 9999 BKN006 BKN007 FEW015CB 14/12 Q1017",
      "taf": "TAF EHBK 112259Z 1200/1306 22012KT 4000 -DZRA BKN004"
    },
    {
      "icao": "EHEH",
      "alert": "OK",
      "vis_m": 9999,
      "fzfg": false,
      "metar_trigger": false,
      "taf_trigger": false,
      "metar": "METAR EHEH 120125Z AUTO 23009KT 200V270 9999 -DZ SCT005 OVC006 14/13 Q1016 YLO",
      "taf": "TAF EHEH 112356Z 1200/1306 23009KT 5000 -DZ SCT003 BKN005"
    },
    {
      "icao": "EKBI",
      "alert": "OK",
      "vis_m": 9999,
      "fzfg": false,
      "metar_trigger": false,
      "taf_trigger": false,
      "metar": "METAR EKBI 120120Z AUTO 12003KT 9999 FEW150/// BKN170/// 08/08 Q1015",
      "taf": "TAF EKBI 112327Z 1200/1224 22006KT 9999 FEW030"
    },
    {
      "icao": "EKCH",
      "alert": "OK",
      "vis_m": 9999,
      "fzfg": false,
      "metar_trigger": false,
      "taf_trigger": false,
      "metar": "METAR EKCH 120120Z AUTO 21001KT 9999 NCD 10/09 Q1016 NOSIG",
      "taf": "TAF EKCH 112327Z 1200/1224 22005KT 9999 SCT040"
    },
    {
      "icao": "ENAL",
      "alert": "OK",
      "vis_m": 9999,
      "fzfg": false,
      "metar_trigger": false,
      "taf_trigger": false,
      "metar": "METAR ENAL 120120Z AUTO 09005KT 9999 NCD 09/07 Q1009",
      "taf": ""
    },
    {
      "icao": "ENBR",
      "alert": "OK",
      "vis_m": 9999,
      "fzfg": false,
      "metar_trigger": false,
      "taf_trigger": false,
      "metar": "METAR ENBR 120120Z AUTO 13009KT 9999 FEW022/// 10/07 Q1010 RMK WIND 1200FT 14016KT",
      "taf": "TAF ENBR 112300Z 1200/1224 15008KT 9999 SCT030"
    },
    {
      "icao": "ENGM",
      "alert": "OK",
      "vis_m": 9999,
      "fzfg": false,
      "metar_trigger": false,
      "taf_trigger": false,
      "metar": "METAR ENGM 120120Z VRB02KT 9999 SCT012 08/06 Q1012",
      "taf": ""
    },
    {
      "icao": "ENHD",
      "alert": "OK",
      "vis_m": 9999,
      "fzfg": false,
      "metar_trigger": false,
      "taf_trigger": false,
      "metar": "METAR ENHD 120120Z AUTO 13011KT 9999 NCD 11/08 Q1010",
      "taf": "TAF ENHD 111400Z 1115/1122 19015KT 9999 FEW020 SCT030"
    },
    {
      "icao": "ENTC",
      "alert": "OK",
      "vis_m": 9999,
      "fzfg": false,
      "metar_trigger": false,
      "taf_trigger": false,
      "metar": "METAR ENTC 120120Z AUTO 34003KT 300V030 9999 NCD 10/06 Q1016 RMK WIND 2600FT 20014KT",
      "taf": "TAF ENTC 112300Z 1200/1224 23007KT 9999 FEW040"
    },
    {
      "icao": "ENTO",
      "alert": "OK",
      "vis_m": 9999,
      "fzfg": false,
      "metar_trigger": false,
      "taf_trigger": false,
      "metar": "METAR ENTO 120120Z AUTO 20008KT 9999 NCD 10/07 Q1012",
      "taf": "TAF ENTO 112300Z 1200/1224 23008KT 9999 FEW040"
    },
    {
      "icao": "ENVA",
      "alert": "OK",
      "vis_m": 9999,
      "fzfg": false,
      "metar_trigger": false,
      "taf_trigger": false,
      "metar": "METAR ENVA 120120Z AUTO 12006KT 9999 NCD 07/06 Q1011 RMK WIND 670FT 10006KT",
      "taf": "TAF ENVA 112300Z 1200/1224 12005KT CAVOK"
    },
    {
      "icao": "ENZV",
      "alert": "OK",
      "vis_m": 9999,
      "fzfg": false,
      "metar_trigger": false,
      "taf_trigger": false,
      "metar": "METAR ENZV 120120Z AUTO 14006KT 9999 NCD 10/07 Q1011",
      "taf": "TAF ENZV 112300Z 1200/1224 18008KT 9999 SCT030"
    },
    {
      "icao": "EPGD",
      "alert": "OK",
      "vis_m": 500,
      "fzfg": false,
      "metar_trigger": false,
      "taf_trigger": false,
      "metar": "METAR EPGD 120130Z 23004KT 210V270 0500 R29/1200N FG SCT001 10/09 Q1017",
      "taf": "TAF EPGD 112330Z 1200/1224 26004KT CAVOK"
    },
    {
      "icao": "EPKK",
      "alert": "OK",
      "vis_m": 9999,
      "fzfg": false,
      "metar_trigger": false,
      "taf_trigger": false,
      "metar": "METAR EPKK 120130Z 22004KT 9999 SCT055 11/10 Q1020",
      "taf": "TAF EPKK 112330Z 1200/1224 26005KT 9999 SCT060"
    },
    {
      "icao": "EPKT",
      "alert": "OK",
      "vis_m": 9999,
      "fzfg": false,
      "metar_trigger": false,
      "taf_trigger": false,
      "metar": "METAR EPKT 120130Z 26005KT CAVOK 08/08 Q1020",
      "taf": "TAF EPKT 112330Z 1200/1224 26005KT CAVOK"
    },
    {
      "icao": "EPLB",
      "alert": "OK",
      "vis_m": 9999,
      "fzfg": false,
      "metar_trigger": false,
      "taf_trigger": false,
      "metar": "METAR EPLB 120130Z 29004KT CAVOK 12/10 Q1018",
      "taf": "TAF EPLB 112330Z 1200/1224 VRB02KT 9999 SCT040"
    },
    {
      "icao": "EPMO",
      "alert": "OK",
      "vis_m": 9999,
      "fzfg": false,
      "metar_trigger": false,
      "taf_trigger": false,
      "metar": "METAR EPMO 120130Z 25005KT CAVOK 10/09 Q1019",
      "taf": "TAF EPMO 112330Z 1200/1224 26003KT CAVOK"
    },
    {
      "icao": "EPPO",
      "alert": "OK",
      "vis_m": 1400,
      "fzfg": false,
      "metar_trigger": false,
      "taf_trigger": false,
      "metar": "METAR EPPO 120130Z 17002KT 1400 R28/P2000U MIFG BR NSC 07/07 Q1019",
      "taf": "TAF EPPO 112330Z 1200/1224 VRB02KT CAVOK"
    },
    {
      "icao": "EPRA",
      "alert": "OK",
      "vis_m": 9999,
      "fzfg": false,
      "metar_trigger": false,
      "taf_trigger": false,
      "metar": "METAR EPRA 120130Z 30004KT 270V340 CAVOK 12/10 Q1019",
      "taf": "TAF EPRA 112330Z 1200/1209 28006KT CAVOK"
    },
    {
      "icao": "EPRZ",
      "alert": "OK",
      "vis_m": 9999,
      "fzfg": false,
      "metar_trigger": false,
      "taf_trigger": false,
      "metar": "METAR EPRZ 120130Z 28007KT 9999 -SHRA BKN040CB 12/11 Q1019",
      "taf": "TAF EPRZ 112330Z 1200/1224 28006KT 9999 -RA SCT040"
    },
    {
      "icao": "EPSC",
      "alert": "OK",
      "vis_m": 6000,
      "fzfg": false,
      "metar_trigger": false,
      "taf_trigger": false,
      "metar": "METAR EPSC 120130Z 11006KT 6000 NSC 07/07 Q1018",
      "taf": "TAF EPSC 112330Z 1200/1224 VRB03KT 9000 NSC"
    },
    {
      "icao": "EPSY",
      "alert": "OK",
      "vis_m": 9999,
      "fzfg": false,
      "metar_trigger": false,
      "taf_trigger": false,
      "metar": "METAR EPSY 120130Z 15001KT 9999 MIFG NSC 08/07 Q1018",
      "taf": "TAF EPSY 112330Z 1200/1209 24003KT 9999 SCT045"
    },
    {
      "icao": "EPWA",
      "alert": "OK",
      "vis_m": 9999,
      "fzfg": false,
      "metar_trigger": false,
      "taf_trigger": false,
      "metar": "METAR EPWA 120130Z 26003KT CAVOK 10/10 Q1018 NOSIG",
      "taf": "TAF EPWA 112330Z 1200/1224 VRB02KT 9999 SCT035"
    },
    {
      "icao": "EPWR",
      "alert": "OK",
      "vis_m": 9999,
      "fzfg": false,
      "metar_trigger": false,
      "taf_trigger": false,
      "metar": "METAR EPWR 120130Z VRB02KT CAVOK 09/08 Q1020",
      "taf": "TAF EPWR 112330Z 1200/1224 VRB02KT CAVOK"
    },
    {
      "icao": "ESGG",
      "alert": "OK",
      "vis_m": 9999,
      "fzfg": false,
      "metar_trigger": false,
      "taf_trigger": false,
      "metar": "METAR ESGG 120120Z 14005KT CAVOK 08/06 Q1014",
      "taf": "TAF ESGG 112330Z 1200/1224 16004KT CAVOK"
    },
    {
      "icao": "ESKN",
      "alert": "OK",
      "vis_m": 9999,
      "fzfg": false,
      "metar_trigger": false,
      "taf_trigger": false,
      "metar": "METAR ESKN 120120Z 24005KT CAVOK 09/09 Q1013",
      "taf": "TAF ESKN 112330Z 1200/1224 22005KT CAVOK"
    },
    {
      "icao": "ESMS",
      "alert": "OK",
      "vis_m": 9999,
      "fzfg": false,
      "metar_trigger": false,
      "taf_trigger": false,
      "metar": "METAR ESMS 120120Z 12001KT CAVOK 06/06 Q1016",
      "taf": "TAF ESMS 112327Z 1200/1224 25005KT 9999 FEW040"
    },
    {
      "icao": "ESSA",
      "alert": "OK",
      "vis_m": 9999,
      "fzfg": false,
      "metar_trigger": false,
      "taf_trigger": false,
      "metar": "METAR ESSA 120120Z 17003KT CAVOK 09/07 Q1011 NOSIG",
      "taf": "TAF ESSA 112330Z 1200/1224 VRB02KT CAVOK"
    },
    {
      "icao": "EYKA",
      "alert": "OK",
      "vis_m": 9999,
      "fzfg": false,
      "metar_trigger": false,
      "taf_trigger": false,
      "metar": "METAR EYKA 120120Z 29007KT 9999 OVC013 11/09 Q1016",
      "taf": "TAF EYKA 112302Z 1200/1224 29010KT 9000 BKN015"
    },
    {
      "icao": "EYPA",
      "alert": "OK",
      "vis_m": 9999,
      "fzfg": false,
      "metar_trigger": false,
      "taf_trigger": false,
      "metar": "METAR EYPA 120120Z VRB03KT 9999 FEW017 12/09 Q1016",
      "taf": "TAF EYPA 112303Z 1200/1224 VRB03KT 9000 SCT020"
    },
    {
      "icao": "EYVI",
      "alert": "OK",
      "vis_m": 9999,
      "fzfg": false,
      "metar_trigger": false,
      "taf_trigger": false,
      "metar": "METAR EYVI 120120Z 28007KT 9999 SCT013 BKN023 OVC029 11/09 Q1015 NOSIG",
      "taf": "TAF EYVI 112302Z 1200/1224 30010KT 9000 OVC015"
    },
    {
      "icao": "GCFV",
      "alert": "OK",
      "vis_m": 9999,
      "fzfg": false,
      "metar_trigger": false,
      "taf_trigger": false,
      "metar": "METAR GCFV 120130Z AUTO 03006KT 350V060 9999 OVC012 20/17 Q1017",
      "taf": "TAF GCFV 112000Z 1121/1221 04012KT 9999 FEW020 TX26/1214Z TN18/1206Z"
    },
    {
      "icao": "GCLP",
      "alert": "OK",
      "vis_m": 9999,
      "fzfg": false,
      "metar_trigger": false,
      "taf_trigger": false,
      "metar": "METAR GCLP 120130Z 01014KT 9999 FEW025 19/16 Q1017 NOSIG",
      "taf": "TAF GCLP 112000Z 1121/1221 01015KT 9999 FEW025 TX26/1214Z TN19/1206Z"
    },
    {
      "icao": "GCTS",
      "alert": "OK",
      "vis_m": 9999,
      "fzfg": false,
      "metar_trigger": false,
      "taf_trigger": false,
      "metar": "METAR GCTS 120130Z 07007KT 9999 FEW014 19/16 Q1018 NOSIG",
      "taf": "TAF GCTS 112000Z 1121/1221 05010KT 9999 FEW025 TX27/1214Z TN18/1206Z"
    },
    {
      "icao": "GMAD",
      "alert": "OK",
      "vis_m": 6000,
      "fzfg": false,
      "metar_trigger": false,
      "taf_trigger": false,
      "metar": "METAR GMAD 120130Z 16004KT 120V190 6000 BKN006 19/17 Q1016 NOSIG",
      "taf": "TAF GMAD 112300Z 1200/1306 12004KT 6000 OVC006"
    },
    {
      "icao": "GMMN",
      "alert": "OK",
      "vis_m": 9999,
      "fzfg": false,
      "metar_trigger": false,
      "taf_trigger": false,
      "metar": "METAR GMMN 120130Z 26003KT 220V300 CAVOK 20/17 Q1015 NOSIG",
      "taf": "TAF GMMN 112300Z 1200/1306 24005KT CAVOK"
    },
    {
      "icao": "GMMX",
      "alert": "OK",
      "vis_m": 8000,
      "fzfg": false,
      "metar_trigger": false,
      "taf_trigger": false,
      "metar": "METAR GMMX 120130Z 27004KT 8000 SCT026 23/15 Q1016 NOSIG",
      "taf": "TAF GMMX 112300Z 1200/1306 06006KT 8000 SCT023"
    },
    {
      "icao": "HEGN",
      "alert": "OK",
      "vis_m": 9999,
      "fzfg": false,
      "metar_trigger": false,
      "taf_trigger": false,
      "metar": "METAR HEGN 120100Z 30010KT CAVOK 29/10 Q1009 NOSIG",
      "taf": "TAF HEGN 112300Z 1200/1306 32014KT CAVOK"
    },
    {
      "icao": "HEMA",
      "alert": "OK",
      "vis_m": 9999,
      "fzfg": false,
      "metar_trigger": false,
      "taf_trigger": false,
      "metar": "METAR HEMA 120100Z 31013KT CAVOK 29/08 Q1008 NOSIG",
      "taf": "TAF HEMA 112300Z 1200/1306 31014KT CAVOK"
    },
    {
      "icao": "HESH",
      "alert": "OK",
      "vis_m": 9999,
      "fzfg": false,
      "metar_trigger": false,
      "taf_trigger": false,
      "metar": "METAR HESH 120100Z 35014KT CAVOK 30/17 Q1009 NOSIG",
      "taf": "TAF HESH 112300Z 1200/1306 35012KT CAVOK"
    },
    {
      "icao": "HESX",
      "alert": "OK",
      "vis_m": 9999,
      "fzfg": false,
      "metar_trigger": false,
      "taf_trigger": false,
      "metar": "METAR HESX 120100Z 06005KT CAVOK 21/15 Q1013 NOSIG",
      "taf": "TAF HESX 112300Z 1200/1306 03008KT CAVOK"
    },
    {
      "icao": "LATI",
      "alert": "OK",
      "vis_m": 9999,
      "fzfg": false,
      "metar_trigger": false,
      "taf_trigger": false,
      "metar": "METAR LATI 120120Z 16005KT 9999 SCT110 20/16 Q1013 NOSIG",
      "taf": "TAF LATI 112300Z 1200/1224 VRB06KT 9999 -RA SCT030 BKN070 TX29/1212Z TN19/1204Z"
    },
    {
      "icao": "LBPD",
      "alert": "OK",
      "vis_m": 9999,
      "fzfg": false,
      "metar_trigger": false,
      "taf_trigger": false,
      "metar": "METAR LBPD 120130Z AUTO 30006KT 9999 SCT130/// 18/18 Q1013",
      "taf": "TAF LBPD 112300Z 1200/1224 VRB04KT 9999 SCT070"
    },
    {
      "icao": "LBSF",
      "alert": "OK",
      "vis_m": 9999,
      "fzfg": false,
      "metar_trigger": false,
      "taf_trigger": false,
      "metar": "METAR LBSF 120130Z AUTO 28008KT 260V330 9999 -RA FEW019/// 15/12 Q1017 TEMPO 5000 SHRA FEW025TCU BKN040",
      "taf": "TAF LBSF 112300Z 1200/1224 29012KT 9999 SCT060"
    },
    {
      "icao": "LBWN",
      "alert": "OK",
      "vis_m": 9999,
      "fzfg": false,
      "metar_trigger": false,
      "taf_trigger": false,
      "metar": "METAR LBWN 120130Z AUTO 09003KT 9999 NCD 17/17 Q1012 NOSIG",
      "taf": "TAF LBWN 112300Z 1200/1224 VRB04KT 9999 SCT040"
    },
    {
      "icao": "LCLK",
      "alert": "OK",
      "vis_m": 5000,
      "fzfg": false,
      "metar_trigger": false,
      "taf_trigger": false,
      "metar": "METAR LCLK 120130Z VRB01KT 5000 BR NSC 23/22 Q1010 TEMPO 3000 BR BKN008",
      "taf": "TAF LCLK 112330Z 1200/1300 20006KT 9999 FEW025"
    },
    {
      "icao": "LCPH",
      "alert": "OK",
      "vis_m": 9999,
      "fzfg": false,
      "metar_trigger": false,
      "taf_trigger": false,
      "metar": "METAR LCPH 120130Z AUTO 01006KT 9999 NCD 21/17 Q1010 TEMPO BKN008",
      "taf": "TAF LCPH 112330Z 1200/1300 35008KT 9999 FEW016"
    },
    {
      "icao": "LEAL",
      "alert": "OK",
      "vis_m": 9999,
      "fzfg": false,
      "metar_trigger": false,
      "taf_trigger": false,
      "metar": "METAR LEAL 120130Z 36004KT 9999 SCT024 BKN026 22/16 Q1025 NOSIG",
      "taf": "TAF LEAL 112300Z 1200/1224 08010KT 9999 SCT020 TX27/1212Z TN20/1205Z"
    },
    {
      "icao": "LEBB",
      "alert": "OK",
      "vis_m": 9999,
      "fzfg": false,
      "metar_trigger": false,
      "taf_trigger": false,
      "metar": "METAR LEBB 120130Z AUTO 08003KT CAVOK 13/11 Q1029",
      "taf": "TAF LEBB 112300Z 1200/1224 05009KT CAVOK TX25/1213Z TN11/1205Z"
    },
    {
      "icao": "LEBL",
      "alert": "OK",
      "vis_m": 9999,
      "fzfg": false,
      "metar_trigger": false,
      "taf_trigger": false,
      "metar": "METAR LEBL 120130Z 30005KT CAVOK 19/14 Q1024 NOSIG",
      "taf": "TAF LEBL 112300Z 1200/1224 VRB04KT CAVOK TX26/1213Z TN18/1205Z"
    },
    {
      "icao": "LECH",
      "alert": "OK",
      "vis_m": 7000,
      "fzfg": false,
      "metar_trigger": false,
      "taf_trigger": false,
      "metar": "METAR LECH 120130Z AUTO 19003KT 7000 NCD 17/16 Q1026",
      "taf": "TAF LECH 112300Z 1200/1224 VRB04KT 9999 FEW040 TX30/1213Z TN14/1205Z"
    },
    {
      "icao": "LEMD",
      "alert": "OK",
      "vis_m": 9999,
      "fzfg": false,
      "metar_trigger": false,
      "taf_trigger": false,
      "metar": "METAR LEMD 120130Z 35006KT 320V030 CAVOK 20/04 Q1025 NOSIG",
      "taf": "TAF LEMD 112300Z 1200/1306 04008KT CAVOK TX35/1216Z TN17/1206Z"
    },
    {
      "icao": "LEMG",
      "alert": "OK",
      "vis_m": 9999,
      "fzfg": false,
      "metar_trigger": false,
      "taf_trigger": false,
      "metar": "METAR LEMG 120130Z 12006KT 090V150 9999 BKN025 22/18 Q1022 NOSIG",
      "taf": "TAF LEMG 112300Z 1200/1224 29006KT 9999 SCT030 TX26/1214Z TN19/1206Z"
    },
    {
      "icao": "LEVC",
      "alert": "OK",
      "vis_m": 9999,
      "fzfg": false,
      "metar_trigger": false,
      "taf_trigger": false,
      "metar": "METAR LEVC 120130Z 30004KT 270V330 9999 FEW069 19/16 Q1025 NOSIG",
      "taf": "TAF LEVC 112300Z 1200/1224 VRB04KT 9999 SCT020 TX29/1212Z TN17/1205Z"
    },
    {
      "icao": "LEXJ",
      "alert": "OK",
      "vis_m": 6000,
      "fzfg": false,
      "metar_trigger": false,
      "taf_trigger": false,
      "metar": "METAR LEXJ 120130Z AUTO 18003KT 6000 NCD 13/12 Q1028",
      "taf": "TAF LEXJ 112000Z 1121/1221 08009KT CAVOK TX24/1213Z TN13/1205Z"
    },
    {
      "icao": "LEZG",
      "alert": "OK",
      "vis_m": 9999,
      "fzfg": false,
      "metar_trigger": false,
      "taf_trigger": false,
      "metar": "METAR LEZG 120130Z 27011KT CAVOK 17/09 Q1025 NOSIG",
      "taf": "TAF LEZG 112300Z 1200/1224 31015KT CAVOK TX34/1215Z TN15/1205Z"
    },
    {
      "icao": "LEZL",
      "alert": "OK",
      "vis_m": 9999,
      "fzfg": false,
      "metar_trigger": false,
      "taf_trigger": false,
      "metar": "METAR LEZL 120130Z AUTO 02005KT CAVOK 24/16 Q1019",
      "taf": ""
    },
    {
      "icao": "LFBD",
      "alert": "OK",
      "vis_m": 9999,
      "fzfg": false,
      "metar_trigger": false,
      "taf_trigger": false,
      "metar": "METAR LFBD 120130Z AUTO 25002KT 9999 2100 NSC 11/10 Q1029 NOSIG",
      "taf": "TAF LFBD 112300Z 1200/1306 VRB03KT CAVOK TX28/1215Z TN09/1205Z"
    },
    {
      "icao": "LFLL",
      "alert": "OK",
      "vis_m": 9999,
      "fzfg": false,
      "metar_trigger": false,
      "taf_trigger": false,
      "metar": "METAR LFLL 120130Z 15001KT CAVOK 15/10 Q1026 NOSIG",
      "taf": "TAF LFLL 112300Z 1200/1306 VRB02KT CAVOK"
    },
    {
      "icao": "LFLS",
      "alert": "OK",
      "vis_m": 9999,
      "fzfg": false,
      "metar_trigger": false,
      "taf_trigger": false,
      "metar": "METAR LFLS 120130Z AUTO 10007KT CAVOK 08/07 Q1026",
      "taf": "TAF LFLS 111400Z 1115/1215 35010KT CAVOK"
    },
    {
      "icao": "LFMN",
      "alert": "OK",
      "vis_m": 9999,
      "fzfg": false,
      "metar_trigger": false,
      "taf_trigger": false,
      "metar": "METAR LFMN 120130Z 34007KT CAVOK 20/06 Q1019 NOSIG",
      "taf": "TAF LFMN 112000Z 1121/1303 34005KT CAVOK"
    },
    {
      "icao": "LFOB",
      "alert": "OK",
      "vis_m": 9999,
      "fzfg": false,
      "metar_trigger": false,
      "taf_trigger": false,
      "metar": "METAR LFOB 120130Z AUTO 26011KT 240V300 9999 OVC009 16/14 Q1021 TEMPO 2500 RADZ BKN004 OVC007",
      "taf": "TAF LFOB 112300Z 1200/1224 26010G20KT 9999 BKN007 OVC012"
    },
    {
      "icao": "LFPO",
      "alert": "OK",
      "vis_m": 9999,
      "fzfg": false,
      "metar_trigger": false,
      "taf_trigger": false,
      "metar": "METAR LFPO 120130Z AUTO 24012KT 9999 BKN024 BKN034 OVC056 17/11 Q1023 NOSIG",
      "taf": "TAF LFPO 112300Z 1200/1306 25008KT CAVOK"
    },
    {
      "icao": "LFSB",
      "alert": "OK",
      "vis_m": 9999,
      "fzfg": false,
      "metar_trigger": false,
      "taf_trigger": false,
      "metar": "METAR LFSB 120130Z AUTO 15005KT 9999 BKN058 OVC070 15/09 Q1025 NOSIG",
      "taf": "TAF LFSB 112300Z 1200/1224 24004KT CAVOK"
    },
    {
      "icao": "LGAV",
      "alert": "OK",
      "vis_m": 9999,
      "fzfg": false,
      "metar_trigger": false,
      "taf_trigger": false,
      "metar": "METAR LGAV 120120Z VRB02KT 9999 FEW025 20/11 Q1011 NOSIG",
      "taf": "TAF LGAV 112300Z 1200/1224 08012KT 9999 SCT025"
    },
    {
      "icao": "LGTS",
      "alert": "OK",
      "vis_m": 9999,
      "fzfg": false,
      "metar_trigger": false,
      "taf_trigger": false,
      "metar": "METAR LGTS 120120Z 17004KT 9999 FEW020TCU 21/21 Q1012 NOSIG",
      "taf": "TAF LGTS 112300Z 1200/1224 17012KT 9999 SCT030"
    },
    {
      "icao": "LHBP",
      "alert": "OK",
      "vis_m": 9999,
      "fzfg": false,
      "metar_trigger": false,
      "taf_trigger": false,
      "metar": "METAR LHBP 120130Z 31012KT CAVOK 12/09 Q1020 NOSIG",
      "taf": "TAF LHBP 112315Z 1200/1224 31008KT CAVOK"
    },
    {
      "icao": "LHDC",
      "alert": "OK",
      "vis_m": 9999,
      "fzfg": false,
      "metar_trigger": false,
      "taf_trigger": false,
      "metar": "METAR LHDC 120115Z AUTO 35007KT 320V020 9999 -SHRA OVC076 //////TCU 13/12 Q1018",
      "taf": "TAF LHDC 111715Z 1118/1203 30009KT 9999 -RA SCT020 OVC080"
    },
    {
      "icao": "LIBD",
      "alert": "OK",
      "vis_m": 9999,
      "fzfg": false,
      "metar_trigger": false,
      "taf_trigger": false,
      "metar": "METAR LIBD 120120Z 33009KT 9999 FEW045 21/16 Q1016",
      "taf": "TAF LIBD 112300Z 1200/1224 32011KT 9999 SCT025"
    },
    {
      "icao": "LIBG",
      "alert": "OK",
      "vis_m": 9999,
      "fzfg": false,
      "metar_trigger": false,
      "taf_trigger": false,
      "metar": "METAR LIBG 120120Z AUTO 36012G22KT 320V030 9999 BKN061/// 21/18 Q1014 RERA",
      "taf": "TAF LIBG 112300Z 1200/1224 35012KT 9999 SCT030"
    },
    {
      "icao": "LIBP",
      "alert": "OK",
      "vis_m": 9999,
      "fzfg": false,
      "metar_trigger": false,
      "taf_trigger": false,
      "metar": "METAR LIBP 120120Z AUTO VRB02KT 9999 NCD 18/12 Q1019",
      "taf": "TAF LIBP 112300Z 1200/1224 30007KT 9999 SCT050"
    },
    {
      "icao": "LIBR",
      "alert": "OK",
      "vis_m": 8000,
      "fzfg": false,
      "metar_trigger": false,
      "taf_trigger": false,
      "metar": "METAR LIBR 120120Z 32011KT 8000 TSRA SCT030CB 21/21 Q1014",
      "taf": "TAF LIBR 112300Z 1200/1224 33011KT 9999 SCT030"
    },
    {
      "icao": "LICA",
      "alert": "OK",
      "vis_m": 9999,
      "fzfg": false,
      "metar_trigger": false,
      "taf_trigger": false,
      "metar": "METAR LICA 120120Z AUTO 27013KT 9999 NCD 23/16 Q1014",
      "taf": "TAF LICA 112300Z 1200/1224 26012KT 9999 FEW030"
    },
    {
      "icao": "LICC",
      "alert": "OK",
      "vis_m": 9999,
      "fzfg": false,
      "metar_trigger": false,
      "taf_trigger": false,
      "metar": "METAR LICC 120120Z VRB01KT CAVOK 22/14 Q1013",
      "taf": "TAF LICC 112300Z 1200/1224 VRB05KT CAVOK"
    },
    {
      "icao": "LICJ",
      "alert": "OK",
      "vis_m": 9999,
      "fzfg": false,
      "metar_trigger": false,
      "taf_trigger": false,
      "metar": "METAR LICJ 120120Z AUTO 36007KT 9999 NCD 23/18 Q1017",
      "taf": "TAF LICJ 112300Z 1200/1224 32010KT 9999 FEW020"
    },
    {
      "icao": "LIMC",
      "alert": "OK",
      "vis_m": 9999,
      "fzfg": false,
      "metar_trigger": false,
      "taf_trigger": false,
      "metar": "METAR LIMC 120120Z 02005KT CAVOK 13/06 Q1021 NOSIG",
      "taf": "TAF LIMC 112300Z 1200/1306 VRB05KT CAVOK"
    },
    {
      "icao": "LIME",
      "alert": "OK",
      "vis_m": 9999,
      "fzfg": false,
      "metar_trigger": false,
      "taf_trigger": false,
      "metar": "METAR LIME 120120Z 36005KT CAVOK 16/08 Q1021 NOSIG",
      "taf": "TAF LIME 112300Z 1200/1224 VRB05KT CAVOK"
    },
    {
      "icao": "LIMF",
      "alert": "OK",
      "vis_m": 9999,
      "fzfg": false,
      "metar_trigger": false,
      "taf_trigger": false,
      "metar": "METAR LIMF 120120Z 33005KT CAVOK 16/09 Q1021",
      "taf": "TAF LIMF 112300Z 1200/1224 VRB05KT CAVOK"
    },
    {
      "icao": "LIMJ",
      "alert": "OK",
      "vis_m": 9999,
      "fzfg": false,
      "metar_trigger": false,
      "taf_trigger": false,
      "metar": "METAR LIMJ 120120Z 04009KT CAVOK 22/03 Q1019",
      "taf": "TAF LIMJ 112300Z 1200/1224 04008KT CAVOK"
    },
    {
      "icao": "LIPE",
      "alert": "OK",
      "vis_m": 9999,
      "fzfg": false,
      "metar_trigger": false,
      "taf_trigger": false,
      "metar": "METAR LIPE 120120Z VRB02KT CAVOK 17/13 Q1020",
      "taf": "TAF LIPE 112300Z 1200/1224 VRB06KT CAVOK"
    },
    {
      "icao": "LIPH",
      "alert": "OK",
      "vis_m": 9999,
      "fzfg": false,
      "metar_trigger": false,
      "taf_trigger": false,
      "metar": "METAR LIPH 120120Z AUTO 01003KT 330V030 9999 FEW073/// 17/12 Q1021",
      "taf": "TAF LIPH 112300Z 1200/1224 VRB05KT 9999 SCT060"
    },
    {
      "icao": "LIPQ",
      "alert": "OK",
      "vis_m": null,
      "fzfg": false,
      "metar_trigger": false,
      "taf_trigger": false,
      "metar": "METAR LIPQ 120120Z AUTO 01004KT //// // NCD 14/09 Q1021",
      "taf": "TAF LIPQ 112300Z 1200/1224 VRB05KT 9999 SCT050"
    },
    {
      "icao": "LIPR",
      "alert": "OK",
      "vis_m": 9999,
      "fzfg": false,
      "metar_trigger": false,
      "taf_trigger": false,
      "metar": "METAR LIPR 120120Z AUTO VRB02KT 9999 NCD 16/13 Q1020",
      "taf": "TAF LIPR 112300Z 1200/1224 VRB05KT 9999 FEW050"
    },
    {
      "icao": "LIPX",
      "alert": "OK",
      "vis_m": 9999,
      "fzfg": false,
      "metar_trigger": false,
      "taf_trigger": false,
      "metar": "METAR LIPX 120120Z 36002KT CAVOK 15/11 Q1021",
      "taf": "TAF LIPX 112300Z 1200/1224 VRB05KT CAVOK"
    },
    {
      "icao": "LIPY",
      "alert": "OK",
      "vis_m": 9999,
      "fzfg": false,
      "metar_trigger": false,
      "taf_trigger": false,
      "metar": "METAR LIPY 120120Z AUTO 04007KT 9999 NCD 19/12 Q1020",
      "taf": "TAF LIPY 112300Z 1200/1224 01010KT 9999 FEW050"
    },
    {
      "icao": "LIPZ",
      "alert": "OK",
      "vis_m": 9999,
      "fzfg": false,
      "metar_trigger": false,
      "taf_trigger": false,
      "metar": "METAR LIPZ 120120Z 02006KT CAVOK 17/11 Q1021 NOSIG",
      "taf": "TAF LIPZ 112300Z 1200/1306 10010KT 9999 FEW060"
    },
    {
      "icao": "LIRF",
      "alert": "OK",
      "vis_m": 9999,
      "fzfg": false,
      "metar_trigger": false,
      "taf_trigger": false,
      "metar": "METAR LIRF 120120Z 32004KT CAVOK 18/13 Q1017 NOSIG",
      "taf": "TAF LIRF 112300Z 1200/1306 03010KT CAVOK"
    },
    {
      "icao": "LIRN",
      "alert": "OK",
      "vis_m": 9999,
      "fzfg": false,
      "metar_trigger": false,
      "taf_trigger": false,
      "metar": "METAR LIRN 120120Z 35004KT CAVOK 20/14 Q1016 NOSIG",
      "taf": "TAF LIRN 112300Z 1200/1224 VRB05KT CAVOK"
    },
    {
      "icao": "LIRP",
      "alert": "OK",
      "vis_m": 9999,
      "fzfg": false,
      "metar_trigger": false,
      "taf_trigger": false,
      "metar": "METAR LIRP 120115Z 10004KT CAVOK 15/12 Q1019 NOSIG",
      "taf": "TAF LIRP 112300Z 1200/1224 10003KT CAVOK"
    },
    {
      "icao": "LIRZ",
      "alert": "OK",
      "vis_m": 9999,
      "fzfg": false,
      "metar_trigger": false,
      "taf_trigger": false,
      "metar": "METAR LIRZ 120120Z AUTO 32004KT 9999 FEW230/// 16/12 Q1020",
      "taf": "TAF LIRZ 112300Z 1200/1224 03006KT CAVOK"
    },
    {
      "icao": "LJLJ",
      "alert": "OK",
      "vis_m": 9999,
      "fzfg": false,
      "metar_trigger": false,
      "taf_trigger": false,
      "metar": "METAR LJLJ 120130Z 02003KT 330V030 9999 MIFG NSC 07/07 Q1023 NOSIG",
      "taf": "TAF LJLJ 112300Z 1200/1300 VRB02KT 9999 FEW033"
    },
    {
      "icao": "LKMT",
      "alert": "OK",
      "vis_m": 9999,
      "fzfg": false,
      "metar_trigger": false,
      "taf_trigger": false,
      "metar": "METAR LKMT 120130Z 22006KT 9999 FEW035 09/09 Q1021 NOSIG",
      "taf": "TAF LKMT 112300Z 1200/1224 20002KT 9999 SCT040"
    },
    {
      "icao": "LKPR",
      "alert": "OK",
      "vis_m": 9999,
      "fzfg": false,
      "metar_trigger": false,
      "taf_trigger": false,
      "metar": "METAR LKPR 120130Z 23010KT CAVOK 08/07 Q1021 NOSIG",
      "taf": "TAF LKPR 112300Z 1200/1306 24010KT CAVOK"
    },
    {
      "icao": "LLBG",
      "alert": "OK",
      "vis_m": 9999,
      "fzfg": false,
      "metar_trigger": false,
      "taf_trigger": false,
      "metar": "METAR LLBG 120120Z 15005KT 9999 FEW020 22/19 Q1012 NOSIG",
      "taf": "TAF LLBG 112303Z 1200/1224 VRB04KT 9999 FEW020 TX29/1210Z TN21/1203Z"
    },
    {
      "icao": "LMML",
      "alert": "OK",
      "vis_m": 9999,
      "fzfg": false,
      "metar_trigger": false,
      "taf_trigger": false,
      "metar": "METAR LMML 120115Z 30015KT 260V320 CAVOK 21/18 Q1015 NOSIG",
      "taf": "TAF LMML 112300Z 1200/1224 31020KT 9999 FEW015"
    },
    {
      "icao": "LOWW",
      "alert": "OK",
      "vis_m": 9999,
      "fzfg": false,
      "metar_trigger": false,
      "taf_trigger": false,
      "metar": "METAR LOWW 120120Z 28009KT CAVOK 12/07 Q1022 NOSIG",
      "taf": "TAF LOWW 112315Z 1200/1306 30012KT CAVOK TX19/1213Z TN11/1202Z"
    },
    {
      "icao": "LPFR",
      "alert": "OK",
      "vis_m": 9999,
      "fzfg": false,
      "metar_trigger": false,
      "taf_trigger": false,
      "metar": "METAR LPFR 120130Z 06011KT CAVOK 23/16 Q1018",
      "taf": "TAF LPFR 112306Z 1200/1224 10012KT CAVOK"
    },
    {
      "icao": "LPMA",
      "alert": "OK",
      "vis_m": 9999,
      "fzfg": false,
      "metar_trigger": false,
      "taf_trigger": false,
      "metar": "METAR LPMA 120130Z COR 35005KT 9999 FEW015 19/16 Q1020",
      "taf": "TAF LPMA 112306Z 1200/1224 VRB05KT 9999 SCT015"
    },
    {
      "icao": "LPPR",
      "alert": "OK",
      "vis_m": 9999,
      "fzfg": false,
      "metar_trigger": false,
      "taf_trigger": false,
      "metar": "METAR LPPR 120130Z 07006KT CAVOK 25/09 Q1019",
      "taf": "TAF LPPR 112306Z 1200/1224 05007KT CAVOK"
    },
    {
      "icao": "LPPS",
      "alert": "OK",
      "vis_m": 9999,
      "fzfg": false,
      "metar_trigger": false,
      "taf_trigger": false,
      "metar": "METAR LPPS 120100Z 01010KT 9999 BKN015 19/15 Q1020",
      "taf": "TAF LPPS 112306Z 1200/1306 01008KT 9999 BKN015"
    },
    {
      "icao": "LPPT",
      "alert": "OK",
      "vis_m": 9999,
      "fzfg": false,
      "metar_trigger": false,
      "taf_trigger": false,
      "metar": "METAR LPPT 120130Z 06003KT CAVOK 24/11 Q1017",
      "taf": "TAF LPPT 112306Z 1200/1306 33007KT CAVOK"
    },
    {
      "icao": "LQBK",
      "alert": "OK",
      "vis_m": 9999,
      "fzfg": false,
      "metar_trigger": false,
      "taf_trigger": false,
      "metar": "METAR LQBK 120130Z VRB01KT CAVOK 09/08 Q1023 NOSIG",
      "taf": "TAF LQBK 112300Z 1200/1224 15005KT CAVOK TX24/1214Z TN08/1203Z"
    },
    {
      "icao": "LQSA",
      "alert": "OK",
      "vis_m": 9999,
      "fzfg": false,
      "metar_trigger": false,
      "taf_trigger": false,
      "metar": "METAR LQSA 120130Z 32005KT 9999 SCT015 BKN030 11/10 Q1022",
      "taf": "TAF LQSA 112300Z 1200/1224 30008KT 9999 FEW012 BKN030 TX20/1214Z TN09/1204Z"
    },
    {
      "icao": "LQTZ",
      "alert": "OK",
      "vis_m": 9999,
      "fzfg": false,
      "metar_trigger": false,
      "taf_trigger": false,
      "metar": "METAR LQTZ 120130Z 29003KT 9999 BKN016 OVC037 12/12 Q1022",
      "taf": "TAF LQTZ 112300Z 1200/1224 28005KT 9999 SCT020 BKN035 TX22/1214Z TN07/1203Z"
    },
    {
      "icao": "LRBC",
      "alert": "OK",
      "vis_m": 9999,
      "fzfg": false,
      "metar_trigger": false,
      "taf_trigger": false,
      "metar": "METAR LRBC 120130Z 35010KT 9999 -RA OVC019 16/14 Q1015 RESHRA",
      "taf": "TAF LRBC 112300Z 1200/1209 34012KT 9999 BKN035"
    },
    {
      "icao": "LRBS",
      "alert": "OK",
      "vis_m": 9999,
      "fzfg": false,
      "metar_trigger": false,
      "taf_trigger": false,
      "metar": "METAR LRBS 120130Z 25008KT 230V020 9999 VCTS FEW009 FEW050CB 19/18 Q1012 TEMPO VRB15G25KT 3000 TSRA",
      "taf": "TAF LRBS 112300Z 1200/1224 VRB04KT CAVOK"
    },
    {
      "icao": "LRBV",
      "alert": "OK",
      "vis_m": 9999,
      "fzfg": false,
      "metar_trigger": false,
      "taf_trigger": false,
      "metar": "METAR LRBV 120130Z AUTO 30010KT 260V330 9999 SCT009/// BKN020/// OVC026/// 16/14 Q1015 REDZ",
      "taf": "TAF LRBV 111700Z 1118/1203 27007KT 9999 SCT050"
    },
    {
      "icao": "LRCL",
      "alert": "OK",
      "vis_m": 9999,
      "fzfg": false,
      "metar_trigger": false,
      "taf_trigger": false,
      "metar": "METAR LRCL 120130Z VRB03KT 9999 -RA SCT032 OVC064 14/12 Q1016",
      "taf": "TAF LRCL 112300Z 1200/1209 30010KT 9999 SCT015 OVC040"
    },
    {
      "icao": "LRCV",
      "alert": "OK",
      "vis_m": 9999,
      "fzfg": false,
      "metar_trigger": false,
      "taf_trigger": false,
      "metar": "METAR LRCV 120130Z 26014KT 9999 -RA BKN003 16/16 Q1015",
      "taf": "TAF LRCV 112300Z 1200/1209 26010KT 5000 TSRA SCT010 BKN035CB"
    },
    {
      "icao": "LRIA",
      "alert": "OK",
      "vis_m": 9999,
      "fzfg": false,
      "metar_trigger": false,
      "taf_trigger": false,
      "metar": "METAR LRIA 120130Z 29011KT 270V330 9999 BKN010 16/13 Q1014",
      "taf": ""
    },
    {
      "icao": "LROP",
      "alert": "OK",
      "vis_m": 9999,
      "fzfg": false,
      "metar_trigger": false,
      "taf_trigger": false,
      "metar": "METAR LROP 120130Z VRB06KT 9999 TS SCT045CB 19/18 Q1012 TEMPO VRB15G25KT 3000 TSRA",
      "taf": "TAF LROP 112300Z 1200/1224 VRB04KT CAVOK"
    },
    {
      "icao": "LRSB",
      "alert": "OK",
      "vis_m": 9999,
      "fzfg": false,
      "metar_trigger": false,
      "taf_trigger": false,
      "metar": "METAR LRSB 120130Z 35007KT 9999 -RA BKN042 OVC050 14/14 Q1016",
      "taf": "TAF LRSB 112300Z 1200/1224 31010KT 9999 BKN025 BKN070"
    },
    {
      "icao": "LRSM",
      "alert": "OK",
      "vis_m": 9999,
      "fzfg": false,
      "metar_trigger": false,
      "taf_trigger": false,
      "metar": "METAR LRSM 120130Z AUTO 32007KT 9999 RA FEW037/// BKN070/// 14/13 Q1017",
      "taf": "TAF LRSM 112000Z 1121/1206 32008KT 9999 SCT035"
    },
    {
      "icao": "LRSV",
      "alert": "OK",
      "vis_m": 9999,
      "fzfg": false,
      "metar_trigger": false,
      "taf_trigger": false,
      "metar": "METAR LRSV 120130Z 30011KT 9999 BKN014 13/12 Q1016",
      "taf": "TAF LRSV 112300Z 1200/1209 32014KT 9999 BKN025"
    },
    {
      "icao": "LRTM",
      "alert": "OK",
      "vis_m": 9999,
      "fzfg": false,
      "metar_trigger": false,
      "taf_trigger": false,
      "metar": "METAR LRTM 120130Z 25006KT 9999 -RA SCT009 BKN034 FEW040CB 14/13 Q1016",
      "taf": "TAF LRTM 112300Z 1200/1209 29008KT 9999 SCT015 OVC040"
    },
    {
      "icao": "LRTR",
      "alert": "OK",
      "vis_m": 9999,
      "fzfg": false,
      "metar_trigger": false,
      "taf_trigger": false,
      "metar": "METAR LRTR 120130Z 27006KT 9999 FEW030 14/14 Q1018",
      "taf": "TAF LRTR 112300Z 1200/1224 24006KT 9999 BKN015 BKN030"
    },
    {
      "icao": "LTAC",
      "alert": "OK",
      "vis_m": 9999,
      "fzfg": false,
      "metar_trigger": false,
      "taf_trigger": false,
      "metar": "METAR LTAC 120120Z VRB01KT CAVOK 11/08 Q1015 NOSIG RMK RWY21C VRB02KT RWY03L 04002KT RWY21R 00000KT RWY03R 00000KT RWY21L 00000KT",
      "taf": "TAF LTAC 112240Z 1200/1224 VRB02KT CAVOK"
    },
    {
      "icao": "LTFM",
      "alert": "OK",
      "vis_m": 9999,
      "fzfg": false,
      "metar_trigger": false,
      "taf_trigger": false,
      "metar": "METAR LTFM 120120Z 07005KT 040V100 9999 FEW012 19/17 Q1013 NOSIG RMK RWY17L 09003KT RWY34L 07004KT 020V090 RWY16R 09004KT RWY36 VRB02KT RWY18 09003KT",
      "taf": "TAF LTFM 112240Z 1200/1306 09005KT 9999 SCT012"
    },
    {
      "icao": "LUKK",
      "alert": "OK",
      "vis_m": 9999,
      "fzfg": false,
      "metar_trigger": false,
      "taf_trigger": false,
      "metar": "METAR LUKK 120130Z VRB02KT CAVOK 17/15 Q1012 NOSIG",
      "taf": "TAF LUKK 112318Z 1200/1224 VRB05KT 9999 SCT030"
    },
    {
      "icao": "LWOH",
      "alert": "OK",
      "vis_m": null,
      "fzfg": false,
      "metar_trigger": false,
      "taf_trigger": false,
      "metar": "",
      "taf": ""
    },
    {
      "icao": "LWSK",
      "alert": "OK",
      "vis_m": 9999,
      "fzfg": false,
      "metar_trigger": false,
      "taf_trigger": false,
      "metar": "METAR LWSK 120120Z 18004KT 120V220 9999 -RA SCT033 BKN070 17/14 Q1017 NOSIG",
      "taf": ""
    },
    {
      "icao": "LYBE",
      "alert": "OK",
      "vis_m": 9999,
      "fzfg": false,
      "metar_trigger": false,
      "taf_trigger": false,
      "metar": "METAR LYBE 120130Z 27010KT 9999 BKN005 BKN040 13/12 Q1020 NOSIG",
      "taf": "TAF LYBE 112300Z 1200/1224 29010KT 9999 BKN006 TX22/1213Z TN12/1204Z"
    },
    {
      "icao": "LYNI",
      "alert": "OK",
      "vis_m": 9999,
      "fzfg": false,
      "metar_trigger": false,
      "taf_trigger": false,
      "metar": "METAR LYNI 120130Z 31004KT 280V340 9999 BKN010 BKN020 13/13 Q1019 NOSIG",
      "taf": "TAF LYNI 112300Z 1200/1224 32008KT 9999 BKN015 BKN033 TX21/1213Z TN12/1206Z"
    },
    {
      "icao": "LYPG",
      "alert": "OK",
      "vis_m": 9999,
      "fzfg": false,
      "metar_trigger": false,
      "taf_trigger": false,
      "metar": "METAR LYPG 120130Z 33008KT 9999 FEW090 18/15 Q1015 NOSIG",
      "taf": "TAF LYPG 112300Z 1200/1224 36012KT 9999 FEW030 SCT090 TX26/1214Z TN19/1203Z"
    },
    {
      "icao": "LZIB",
      "alert": "OK",
      "vis_m": 9999,
      "fzfg": false,
      "metar_trigger": false,
      "taf_trigger": false,
      "metar": "METAR LZIB 120130Z 30009KT CAVOK 11/07 Q1022 NOSIG",
      "taf": "TAF LZIB 112315Z 1200/1300 30011KT CAVOK"
    },
    {
      "icao": "LZKZ",
      "alert": "OK",
      "vis_m": 9999,
      "fzfg": false,
      "metar_trigger": false,
      "taf_trigger": false,
      "metar": "METAR LZKZ 120130Z 01007KT CAVOK 13/10 Q1019 NOSIG",
      "taf": "TAF LZKZ 112315Z 1200/1300 02009KT 9999 SCT040"
    },
    {
      "icao": "LZTT",
      "alert": "OK",
      "vis_m": 9999,
      "fzfg": false,
      "metar_trigger": false,
      "taf_trigger": false,
      "metar": "METAR LZTT 120130Z 31004KT 280V340 9999 FEW030 BKN060 09/08 Q1019",
      "taf": "TAF LZTT 112315Z 1200/1300 28007KT 9999 FEW025 SCT045"
    },
    {
      "icao": "OEJN",
      "alert": "OK",
      "vis_m": 9999,
      "fzfg": false,
      "metar_trigger": false,
      "taf_trigger": false,
      "metar": "METAR OEJN 120100Z 00000KT CAVOK 29/20 Q1006 NOSIG",
      "taf": "TAF OEJN 112300Z 1200/1306 VRB03KT CAVOK"
    },
    {
      "icao": "OEMA",
      "alert": "OK",
      "vis_m": 9999,
      "fzfg": false,
      "metar_trigger": false,
      "taf_trigger": false,
      "metar": "METAR OEMA 120100Z 30011KT CAVOK 34/M01 Q1012 NOSIG",
      "taf": "TAF OEMA 112300Z 1200/1306 29010KT CAVOK"
    },
    {
      "icao": "OJAI",
      "alert": "OK",
      "vis_m": 5000,
      "fzfg": false,
      "metar_trigger": false,
      "taf_trigger": false,
      "metar": "METAR OJAI 120100Z 28012KT 5000 HZ NSC 19/08 Q1015 NOSIG",
      "taf": "TAF OJAI 112300Z 1200/1306 28011KT 5000 HZ NSC"
    },
    {
      "icao": "OMAA",
      "alert": "OK",
      "vis_m": 9999,
      "fzfg": false,
      "metar_trigger": false,
      "taf_trigger": false,
      "metar": "METAR OMAA 120130Z 20006KT CAVOK 28/20 Q1000 NOSIG",
      "taf": "TAF OMAA 112300Z 1200/1306 20004KT 8000 NSC"
    },
    {
      "icao": "OMDB",
      "alert": "OK",
      "vis_m": 9999,
      "fzfg": false,
      "metar_trigger": false,
      "taf_trigger": false,
      "metar": "METAR OMDB 120130Z 19008KT CAVOK 29/20 Q0999 NOSIG",
      "taf": "TAF OMDB 112300Z 1200/1306 19007KT CAVOK"
    },
    {
      "icao": "UAAA",
      "alert": "OK",
      "vis_m": 9999,
      "fzfg": false,
      "metar_trigger": false,
      "taf_trigger": false,
      "metar": "METAR UAAA 120130Z VRB01MPS 9999 SCT100 21/13 Q1013 NOSIG",
      "taf": "TAF UAAA 112301Z 1200/1224 34003G08MPS 9999 FEW050CB SCT100 TX30/1210Z TN17/1202Z"
    },
    {
      "icao": "UBBB",
      "alert": "OK",
      "vis_m": 9999,
      "fzfg": false,
      "metar_trigger": false,
      "taf_trigger": false,
      "metar": "METAR UBBB 120130Z VRB02KT CAVOK 20/18 Q1010 NOSIG",
      "taf": "TAF UBBB 112306Z 1200/1224 33008KT 9999 SCT040 TX28/1210Z TN19/1200Z"
    },
    {
      "icao": "UDSG",
      "alert": "OK",
      "vis_m": 9999,
      "fzfg": false,
      "metar_trigger": false,
      "taf_trigger": false,
      "metar": "METAR UDSG 120130Z 09007KT 9999 -SHRA BKN046CB 11/10 Q1017 NOSIG",
      "taf": "TAF UDSG 112258Z 1200/1224 06006KT 9999 SCT040"
    },
    {
      "icao": "UDYZ",
      "alert": "OK",
      "vis_m": 9999,
      "fzfg": false,
      "metar_trigger": false,
      "taf_trigger": false,
      "metar": "METAR UDYZ 120130Z 06003KT 9999 FEW043CB 14/12 Q1013 NOSIG",
      "taf": "TAF UDYZ 112300Z 1200/1224 04006KT 9999 FEW040"
    },
    {
      "icao": "UGKO",
      "alert": "OK",
      "vis_m": 9999,
      "fzfg": false,
      "metar_trigger": false,
      "taf_trigger": false,
      "metar": "METAR UGKO 120130Z VRB02KT 9999 SCT033CB BKN037 19/18 Q1011 NOSIG",
      "taf": "TAF UGKO 112300Z 1200/1224 25006KT 9999 SCT030 BKN050 TX24/1211Z TN18/1202Z"
    }
  ]
}