{
  "ts_utc": "2026-01-27T11:02:32Z",
  "threshold_m": 150,
  "source": "stations_override.txt (ICAO list) + aviationweather.gov (METAR/TAF raw)",
  "station_count": 159,
  "stations": [
    {
      "icao": "BIKF",
      "alert": "OK",
      "vis_m": 9999,
      "fzfg": false,
      "metar_trigger": false,
      "taf_trigger": false,
      "metar": "METAR BIKF 271030Z 07026KT 9999 BKN041 BKN071 05/M04 Q0996",
      "taf": "TAF BIKF 271031Z 2712/2812 08020G30KT 9999 SCT030 BKN045 TX06/2715Z TN01/2807Z"
    },
    {
      "icao": "BKPR",
      "alert": "OK",
      "vis_m": 9999,
      "fzfg": false,
      "metar_trigger": false,
      "taf_trigger": false,
      "metar": "METAR BKPR 271100Z 32010KT 9999 FEW030 BKN050 07/02 Q1004 NOSIG",
      "taf": "TAF BKPR 270530Z 2706/2806 35008KT 9999 SCT030 BKN060"
    },
    {
      "icao": "EBCI",
      "alert": "OK",
      "vis_m": 9999,
      "fzfg": false,
      "metar_trigger": false,
      "taf_trigger": false,
      "metar": "METAR EBCI 271050Z 13010KT 9999 -RA SCT033 BKN048 05/01 Q0992 NOSIG",
      "taf": "TAF EBCI 270520Z 2706/2812 14010KT 6000 SCT008 BKN014"
    },
    {
      "icao": "EDDB",
      "alert": "OK",
      "vis_m": 9000,
      "fzfg": false,
      "metar_trigger": false,
      "taf_trigger": false,
      "metar": "METAR EDDB 271050Z AUTO VRB01KT 9000 FEW008 SCT019 OVC025 00/M02 Q1002 TEMPO BKN012",
      "taf": ""
    },
    {
      "icao": "EDDH",
      "alert": "OK",
      "vis_m": 9999,
      "fzfg": false,
      "metar_trigger": false,
      "taf_trigger": false,
      "metar": "METAR EDDH 271050Z AUTO 12007KT 9999 OVC007 00/M01 Q1002 NOSIG",
      "taf": "TAF EDDH 270500Z 2706/2812 VRB03KT 9999 OVC008"
    },
    {
      "icao": "EDDK",
      "alert": "OK",
      "vis_m": 9999,
      "fzfg": false,
      "metar_trigger": false,
      "taf_trigger": false,
      "metar": "METAR EDDK 271050Z AUTO 12007KT 080V170 CAVOK 05/00 Q0997 NOSIG",
      "taf": "TAF EDDK 270500Z 2706/2812 12005KT 9000 OVC030"
    },
    {
      "icao": "EDDN",
      "alert": "OK",
      "vis_m": 9999,
      "fzfg": false,
      "metar_trigger": false,
      "taf_trigger": false,
      "metar": "METAR EDDN 271050Z AUTO 10007KT CAVOK 02/00 Q1000 NOSIG",
      "taf": "TAF EDDN 270500Z 2706/2806 10004KT 9000 BKN020"
    },
    {
      "icao": "EDDS",
      "alert": "OK",
      "vis_m": 9999,
      "fzfg": false,
      "metar_trigger": false,
      "taf_trigger": false,
      "metar": "METAR EDDS 271050Z AUTO VRB02KT CAVOK 04/M01 Q0998 NOSIG",
      "taf": ""
    },
    {
      "icao": "EDFH",
      "alert": "OK",
      "vis_m": 9999,
      "fzfg": false,
      "metar_trigger": false,
      "taf_trigger": false,
      "metar": "METAR EDFH 271050Z 13013KT 9999 FEW003 02/01 Q0996",
      "taf": ""
    },
    {
      "icao": "EDJA",
      "alert": "OK",
      "vis_m": 9999,
      "fzfg": false,
      "metar_trigger": false,
      "taf_trigger": false,
      "metar": "METAR EDJA 271050Z 03002KT CAVOK 03/M01 Q0998",
      "taf": "TAF EDJA 270800Z 2709/2718 VRB03KT CAVOK"
    },
    {
      "icao": "EDLW",
      "alert": "OK",
      "vis_m": 9999,
      "fzfg": false,
      "metar_trigger": false,
      "taf_trigger": false,
      "metar": "METAR EDLW 271050Z 05008KT CAVOK 02/M00 Q0997",
      "taf": "TAF EDLW 270500Z 2706/2806 10004KT 3000 BR BKN008 OVC025"
    },
    {
      "icao": "EDNY",
      "alert": "OK",
      "vis_m": 9999,
      "fzfg": false,
      "metar_trigger": false,
      "taf_trigger": false,
      "metar": "METAR EDNY 271050Z VRB02KT CAVOK 03/M00 Q0999",
      "taf": "TAF EDNY 270800Z 2709/2718 VRB02KT CAVOK"
    },
    {
      "icao": "EDSB",
      "alert": "OK",
      "vis_m": 9999,
      "fzfg": false,
      "metar_trigger": false,
      "taf_trigger": false,
      "metar": "METAR EDSB 271050Z VRB02KT 9999 FEW003 03/03 Q0998",
      "taf": ""
    },
    {
      "icao": "EETN",
      "alert": "OK",
      "vis_m": 9999,
      "fzfg": false,
      "metar_trigger": false,
      "taf_trigger": false,
      "metar": "METAR EETN 271050Z 11005KT 9999 OVC009 M07/M08 Q1014 NOSIG",
      "taf": "TAF EETN 270530Z 2706/2806 09010KT 9999 OVC013"
    },
    {
      "icao": "EFTU",
      "alert": "OK",
      "vis_m": 9999,
      "fzfg": false,
      "metar_trigger": false,
      "taf_trigger": false,
      "metar": "METAR EFTU 271050Z AUTO 08006KT 9999 OVC006 M09/M10 Q1015",
      "taf": "TAF EFTU 270829Z 2709/2809 06003KT 9999 OVC006"
    },
    {
      "icao": "EGBB",
      "alert": "OK",
      "vis_m": 4000,
      "fzfg": false,
      "metar_trigger": false,
      "taf_trigger": false,
      "metar": "METAR EGBB 271050Z 13017KT 4000 RA BKN006 06/06 Q0981",
      "taf": ""
    },
    {
      "icao": "EGGP",
      "alert": "OK",
      "vis_m": 8000,
      "fzfg": false,
      "metar_trigger": false,
      "taf_trigger": false,
      "metar": "METAR EGGP 271050Z 13022G33KT 8000 -RA BKN013 OVC017 06/04 Q0978",
      "taf": "TAF EGGP 270501Z 2706/2806 11016G28KT 9999 SCT015"
    },
    {
      "icao": "EGGW",
      "alert": "OK",
      "vis_m": 4900,
      "fzfg": false,
      "metar_trigger": false,
      "taf_trigger": false,
      "metar": "METAR EGGW 271050Z AUTO 13016KT 4900 -RA OVC004 05/05 Q0983",
      "taf": "TAF EGGW 270456Z 2706/2806 12020G32KT 6000 -RA OVC010"
    },
    {
      "icao": "EGKK",
      "alert": "OK",
      "vis_m": 9999,
      "fzfg": false,
      "metar_trigger": false,
      "taf_trigger": false,
      "metar": "METAR EGKK 271050Z 13010KT 9999 -RA BKN006 08/07 Q0984",
      "taf": "TAF EGKK 270453Z 2706/2812 11010KT 9999 SCT015"
    },
    {
      "icao": "EGNM",
      "alert": "OK",
      "vis_m": 3500,
      "fzfg": false,
      "metar_trigger": false,
      "taf_trigger": false,
      "metar": "METAR EGNM 271050Z 11020G30KT 3500 -RA BR SCT004 OVC006 03/03 Q0983",
      "taf": ""
    },
    {
      "icao": "EGPD",
      "alert": "OK",
      "vis_m": 5000,
      "fzfg": false,
      "metar_trigger": false,
      "taf_trigger": false,
      "metar": "METAR EGPD 271050Z AUTO 13022G36KT 5000 -DZ BKN012 OVC016 05/03 Q0992 TEMPO BKN020",
      "taf": "TAF EGPD 270454Z 2706/2806 11015KT 9999 SCT010 BKN025"
    },
    {
      "icao": "EGPF",
      "alert": "OK",
      "vis_m": 6000,
      "fzfg": false,
      "metar_trigger": false,
      "taf_trigger": false,
      "metar": "METAR EGPF 271050Z 08022KT 6000 -RA BKN014 OVC019 04/03 Q0982",
      "taf": "TAF EGPF 270459Z 2706/2806 08017KT 9999 BKN018"
    },
    {
      "icao": "EHBK",
      "alert": "OK",
      "vis_m": 9999,
      "fzfg": false,
      "metar_trigger": false,
      "taf_trigger": false,
      "metar": "METAR EHBK 271055Z AUTO 08008KT 050V120 9999 NSC 03/01 Q0995 NOSIG",
      "taf": "TAF EHBK 270514Z 2706/2812 11006KT 4000 BR BKN030"
    },
    {
      "icao": "EHEH",
      "alert": "OK",
      "vis_m": null,
      "fzfg": false,
      "metar_trigger": false,
      "taf_trigger": false,
      "metar": "",
      "taf": "TAF EHEH 270549Z 2706/2812 10006KT 5000 OVC030"
    },
    {
      "icao": "EKBI",
      "alert": "OK",
      "vis_m": 9999,
      "fzfg": false,
      "metar_trigger": false,
      "taf_trigger": false,
      "metar": "METAR EKBI 271050Z AUTO 08016KT 9999 OVC015/// M00/M03 Q1004",
      "taf": "TAF EKBI 270827Z 2709/2809 08012KT 9999 BKN014"
    },
    {
      "icao": "EKCH",
      "alert": "OK",
      "vis_m": 9999,
      "fzfg": false,
      "metar_trigger": false,
      "taf_trigger": false,
      "metar": "METAR EKCH 271050Z 05012KT 9999 BKN016 M01/M03 Q1007 NOSIG",
      "taf": "TAF EKCH 270827Z 2709/2809 05015KT 9999 BKN018"
    },
    {
      "icao": "ENAL",
      "alert": "OK",
      "vis_m": 9999,
      "fzfg": false,
      "metar_trigger": false,
      "taf_trigger": false,
      "metar": "METAR ENAL 271050Z 09009KT 050V130 CAVOK M01/M06 Q1009",
      "taf": ""
    },
    {
      "icao": "ENBR",
      "alert": "OK",
      "vis_m": 9999,
      "fzfg": false,
      "metar_trigger": false,
      "taf_trigger": false,
      "metar": "METAR ENBR 271050Z 04002KT CAVOK M03/M11 Q1008 NOSIG RMK WIND 1200FT 00000KT",
      "taf": "TAF ENBR 270500Z 2706/2806 07004KT CAVOK"
    },
    {
      "icao": "ENGM",
      "alert": "OK",
      "vis_m": 9999,
      "fzfg": false,
      "metar_trigger": false,
      "taf_trigger": false,
      "metar": "METAR ENGM 271050Z 00000KT 9999 4100NW -SHSN FEW007 BKN013 M08/M09 Q1014 TEMPO 4000 -SN BR",
      "taf": "TAF ENGM 270500Z 2706/2806 02005KT 9000 SCT005 BKN015"
    },
    {
      "icao": "ENHD",
      "alert": "OK",
      "vis_m": 9999,
      "fzfg": false,
      "metar_trigger": false,
      "taf_trigger": false,
      "metar": "METAR ENHD 271050Z /////KT CAVOK M02/M08 Q1008 RMK WIND RWY 31 06003KT",
      "taf": "TAF ENHD 270800Z 2709/2718 12005KT CAVOK"
    },
    {
      "icao": "ENTC",
      "alert": "OK",
      "vis_m": 9999,
      "fzfg": false,
      "metar_trigger": false,
      "taf_trigger": false,
      "metar": "METAR ENTC 271050Z VRB01KT 9999 FEW010 M08/M09 Q1011 NOSIG RMK WIND 2600FT 17008KT",
      "taf": "TAF ENTC 270500Z 2706/2806 18005KT 9999 FEW012 SCT025 BKN035"
    },
    {
      "icao": "ENTO",
      "alert": "OK",
      "vis_m": 9999,
      "fzfg": false,
      "metar_trigger": false,
      "taf_trigger": false,
      "metar": "METAR ENTO 271050Z 36005KT 9999 -SN OVC018 M05/M08 Q1014 NOSIG",
      "taf": "TAF ENTO 270500Z 2706/2806 02010KT 9999 BKN008"
    },
    {
      "icao": "ENVA",
      "alert": "OK",
      "vis_m": 9999,
      "fzfg": false,
      "metar_trigger": false,
      "taf_trigger": false,
      "metar": "METAR ENVA 271050Z 10007KT CAVOK M12/M16 Q1013 NOSIG RMK WIND 670FT 14005KT",
      "taf": "TAF ENVA 270500Z 2706/2806 10005KT CAVOK"
    },
    {
      "icao": "ENZV",
      "alert": "OK",
      "vis_m": 9999,
      "fzfg": false,
      "metar_trigger": false,
      "taf_trigger": false,
      "metar": "METAR ENZV 271050Z 00000KT CAVOK M00/M09 Q1008 NOSIG",
      "taf": "TAF ENZV 270500Z 2706/2806 15005KT CAVOK"
    },
    {
      "icao": "EPGD",
      "alert": "OK",
      "vis_m": 600,
      "fzfg": true,
      "metar_trigger": false,
      "taf_trigger": false,
      "metar": "METAR EPGD 271030Z 07004KT 030V130 0600 R29/0800N FZFG OVC001 M01/M01 Q1003",
      "taf": ""
    },
    {
      "icao": "EPKK",
      "alert": "OK",
      "vis_m": 4000,
      "fzfg": false,
      "metar_trigger": false,
      "taf_trigger": false,
      "metar": "METAR EPKK 271030Z 14001KT 4000 BR BKN036 01/00 Q1003",
      "taf": "TAF EPKK 270830Z 2709/2809 VRB02KT 3000 BR BKN033"
    },
    {
      "icao": "EPKT",
      "alert": "OK",
      "vis_m": 6000,
      "fzfg": false,
      "metar_trigger": false,
      "taf_trigger": false,
      "metar": "METAR EPKT 271030Z 26004KT 6000 FEW012 BKN021 02/00 Q1002",
      "taf": "TAF EPKT 270530Z 2706/2806 VRB02KT 6000 BKN020"
    },
    {
      "icao": "EPLB",
      "alert": "OK",
      "vis_m": 1400,
      "fzfg": false,
      "metar_trigger": false,
      "taf_trigger": false,
      "metar": "METAR EPLB 271030Z 16001KT 1400 R25/P2000N BR BKN003 03/03 Q1002",
      "taf": "TAF EPLB 270530Z 2706/2806 VRB03KT 2500 BR BKN006"
    },
    {
      "icao": "EPMO",
      "alert": "OK",
      "vis_m": 2400,
      "fzfg": false,
      "metar_trigger": false,
      "taf_trigger": false,
      "metar": "METAR EPMO 271030Z 22006KT 2400 BR SCT004 BKN009 M01/M01 Q1003",
      "taf": ""
    },
    {
      "icao": "EPPO",
      "alert": "OK",
      "vis_m": 4800,
      "fzfg": false,
      "metar_trigger": false,
      "taf_trigger": false,
      "metar": "METAR EPPO 271030Z 19005KT 4800 BR OVC005 M01/M02 Q1002",
      "taf": ""
    },
    {
      "icao": "EPRA",
      "alert": "OK",
      "vis_m": 6000,
      "fzfg": false,
      "metar_trigger": false,
      "taf_trigger": false,
      "metar": "METAR EPRA 271030Z 30004KT 260V320 6000 NSC 02/M00 Q1002",
      "taf": "TAF EPRA 270830Z 2709/2718 19005KT 1500 BR BKN004"
    },
    {
      "icao": "EPRZ",
      "alert": "OK",
      "vis_m": 7000,
      "fzfg": false,
      "metar_trigger": false,
      "taf_trigger": false,
      "metar": "METAR EPRZ 271030Z 24006KT 200V280 7000 OVC040 04/02 Q1003",
      "taf": "TAF EPRZ 270530Z 2706/2806 24004KT 1500 BR FEW003 OVC030"
    },
    {
      "icao": "EPSC",
      "alert": "OK",
      "vis_m": 2900,
      "fzfg": false,
      "metar_trigger": false,
      "taf_trigger": false,
      "metar": "METAR EPSC 271030Z 02005KT 350V090 2900 -SN BR OVC004 M01/M01 Q1002",
      "taf": "TAF EPSC 270530Z 2706/2806 VRB04KT 2500 BR OVC003"
    },
    {
      "icao": "EPSY",
      "alert": "OK",
      "vis_m": 400,
      "fzfg": true,
      "metar_trigger": false,
      "taf_trigger": false,
      "metar": "METAR EPSY 271030Z 00000KT 0400 R01/0800N FZFG OVC001 M00/M00 Q1002",
      "taf": "TAF EPSY 270830Z 2709/2718 VRB02KT 0400 FZFG OVC002"
    },
    {
      "icao": "EPWA",
      "alert": "OK",
      "vis_m": 3500,
      "fzfg": false,
      "metar_trigger": false,
      "taf_trigger": false,
      "metar": "METAR EPWA 271030Z 27005KT 3500 BR BKN007 BKN013 01/00 Q1002 TEMPO BKN003",
      "taf": "TAF EPWA 270830Z 2709/2809 VRB02KT 2500 BR OVC003"
    },
    {
      "icao": "EPWR",
      "alert": "OK",
      "vis_m": 9999,
      "fzfg": false,
      "metar_trigger": false,
      "taf_trigger": false,
      "metar": "METAR EPWR 271030Z 22004KT 9999 FEW036 02/M02 Q1003",
      "taf": "TAF EPWR 270830Z 2709/2809 VRB02KT 8000 BKN025"
    },
    {
      "icao": "ESGG",
      "alert": "OK",
      "vis_m": 9999,
      "fzfg": false,
      "metar_trigger": false,
      "taf_trigger": false,
      "metar": "METAR ESGG 271050Z 05010KT 9999 FEW026 M03/M06 Q1009",
      "taf": "TAF ESGG 270830Z 2709/2809 05010KT 9999 SCT028"
    },
    {
      "icao": "ESKN",
      "alert": "OK",
      "vis_m": 9999,
      "fzfg": false,
      "metar_trigger": false,
      "taf_trigger": false,
      "metar": "METAR ESKN 271050Z 02008KT 9999 BKN025 M04/M07 Q1013",
      "taf": "TAF ESKN 270830Z 2709/2809 02008KT 9999 BKN030"
    },
    {
      "icao": "ESMS",
      "alert": "OK",
      "vis_m": 7000,
      "fzfg": false,
      "metar_trigger": false,
      "taf_trigger": false,
      "metar": "METAR ESMS 271050Z 04009KT 7000 SG BKN007 M01/M02 Q1005",
      "taf": ""
    },
    {
      "icao": "ESSA",
      "alert": "OK",
      "vis_m": 9999,
      "fzfg": false,
      "metar_trigger": false,
      "taf_trigger": false,
      "metar": "METAR ESSA 271050Z 06007KT 9999 OVC015 M06/M08 Q1014 NOSIG",
      "taf": ""
    },
    {
      "icao": "EYKA",
      "alert": "OK",
      "vis_m": 3100,
      "fzfg": false,
      "metar_trigger": false,
      "taf_trigger": false,
      "metar": "METAR EYKA 271050Z 02005KT 340V060 3100 -SN BR BKN007 OVC031 M04/M04 Q1004",
      "taf": "TAF EYKA 271100Z 2712/2812 VRB04KT 5000 SN BR OVC010"
    },
    {
      "icao": "EYPA",
      "alert": "OK",
      "vis_m": 1500,
      "fzfg": false,
      "metar_trigger": false,
      "taf_trigger": false,
      "metar": "METAR EYPA 271050Z 08012KT 1500 SN BR FEW022 OVC035 M06/M09 Q1006",
      "taf": "TAF EYPA 271100Z 2712/2812 08012KT 3000 SN SCT010 OVC020"
    },
    {
      "icao": "EYVI",
      "alert": "OK",
      "vis_m": 6000,
      "fzfg": false,
      "metar_trigger": false,
      "taf_trigger": false,
      "metar": "METAR EYVI 271050Z 08006KT 6000 -SN OVC005 M01/M02 Q1004 NOSIG",
      "taf": "TAF EYVI 271100Z 2712/2812 09010KT 5000 BR OVC005"
    },
    {
      "icao": "GCFV",
      "alert": "OK",
      "vis_m": 9999,
      "fzfg": false,
      "metar_trigger": false,
      "taf_trigger": false,
      "metar": "METAR GCFV 271030Z 21007KT 180V240 9999 FEW033 19/10 Q1023",
      "taf": "TAF GCFV 270800Z 2709/2809 30005KT 9999 FEW035 TX22/2714Z TN14/2806Z"
    },
    {
      "icao": "GCLP",
      "alert": "OK",
      "vis_m": 9999,
      "fzfg": false,
      "metar_trigger": false,
      "taf_trigger": false,
      "metar": "METAR GCLP 271030Z 16004KT 080V220 9999 FEW030 18/11 Q1023 NOSIG",
      "taf": "TAF GCLP 270800Z 2709/2809 19010KT 9999 FEW035 TX22/2714Z TN15/2806Z"
    },
    {
      "icao": "GCTS",
      "alert": "OK",
      "vis_m": 9999,
      "fzfg": false,
      "metar_trigger": false,
      "taf_trigger": false,
      "metar": "METAR GCTS 271030Z 00000KT 9999 FEW030 19/10 Q1023 NOSIG",
      "taf": "TAF GCTS 270800Z 2709/2809 17006KT 9999 FEW035 TX22/2714Z TN16/2806Z"
    },
    {
      "icao": "GMAD",
      "alert": "OK",
      "vis_m": 8000,
      "fzfg": false,
      "metar_trigger": false,
      "taf_trigger": false,
      "metar": "METAR GMAD 271030Z 04006KT 8000 FEW020 BKN083 13/13 Q1023 NOSIG",
      "taf": "TAF GMAD 270500Z 2706/2812 22004KT 8000 NSC"
    },
    {
      "icao": "GMMN",
      "alert": "OK",
      "vis_m": 9999,
      "fzfg": false,
      "metar_trigger": false,
      "taf_trigger": false,
      "metar": "METAR GMMN 271030Z 22023KT 9999 FEW040 BKN080 16/12 Q1016 NOSIG",
      "taf": "TAF GMMN 270500Z 2706/2812 20015KT 9999 BKN026"
    },
    {
      "icao": "GMMX",
      "alert": "OK",
      "vis_m": 8000,
      "fzfg": false,
      "metar_trigger": false,
      "taf_trigger": false,
      "metar": "METAR GMMX 271030Z 11008KT 080V140 8000 SCT020 14/10 Q1020 NOSIG",
      "taf": "TAF GMMX 270500Z 2706/2812 26006KT 8000 BKN015"
    },
    {
      "icao": "HEGN",
      "alert": "OK",
      "vis_m": 4000,
      "fzfg": false,
      "metar_trigger": false,
      "taf_trigger": false,
      "metar": "METAR HEGN 271000Z 35015KT 4000 SA NSC 22/06 Q1015 NOSIG",
      "taf": "TAF HEGN 271100Z 2712/2818 34018KT 6000 NSC"
    },
    {
      "icao": "HEMA",
      "alert": "OK",
      "vis_m": 9999,
      "fzfg": false,
      "metar_trigger": false,
      "taf_trigger": false,
      "metar": "METAR HEMA 271000Z 01015KT CAVOK 24/12 Q1014 NOSIG",
      "taf": "TAF HEMA 271100Z 2712/2818 36018KT 6000 NSC"
    },
    {
      "icao": "HESH",
      "alert": "OK",
      "vis_m": 9999,
      "fzfg": false,
      "metar_trigger": false,
      "taf_trigger": false,
      "metar": "METAR HESH 271000Z 10007KT CAVOK 24/13 Q1015 NOSIG",
      "taf": "TAF HESH 271100Z 2712/2818 35008KT CAVOK"
    },
    {
      "icao": "HESX",
      "alert": "OK",
      "vis_m": 9999,
      "fzfg": false,
      "metar_trigger": false,
      "taf_trigger": false,
      "metar": "METAR HESX 271000Z 24010KT CAVOK 17/M06 Q1015 NOSIG",
      "taf": "TAF HESX 271100Z 2712/2818 23015G25KT 6000 NSC"
    },
    {
      "icao": "LATI",
      "alert": "OK",
      "vis_m": 9999,
      "fzfg": false,
      "metar_trigger": false,
      "taf_trigger": false,
      "metar": "METAR LATI 271050Z 34004KT 310V030 9999 FEW020 13/07 Q1005 NOSIG",
      "taf": "TAF LATI 271100Z 2712/2812 VRB04KT 9999 SCT030 TX15/2811Z TN06/2805Z"
    },
    {
      "icao": "LBPD",
      "alert": "OK",
      "vis_m": 9999,
      "fzfg": false,
      "metar_trigger": false,
      "taf_trigger": false,
      "metar": "METAR LBPD 271100Z AUTO 29016KT 9999 FEW035/// BKN047/// BKN130/// 10/07 Q1000 NOSIG",
      "taf": "TAF LBPD 270500Z 2706/2806 VRB03KT 5000 BR BKN003 OVC005"
    },
    {
      "icao": "LBSF",
      "alert": "OK",
      "vis_m": 9999,
      "fzfg": false,
      "metar_trigger": false,
      "taf_trigger": false,
      "metar": "METAR LBSF 271100Z 28011KT 9999 -DZ FEW009 BKN012 OVC044 04/02 Q1002 NOSIG",
      "taf": "TAF LBSF 270500Z 2706/2806 28014KT 9999 -RA SCT010 BKN020 OVC030"
    },
    {
      "icao": "LBWN",
      "alert": "OK",
      "vis_m": 9999,
      "fzfg": false,
      "metar_trigger": false,
      "taf_trigger": false,
      "metar": "METAR LBWN 271100Z 13012KT 9999 FEW012 BKN042 OVC048 10/09 Q1000 NOSIG",
      "taf": "TAF LBWN 270500Z 2706/2806 VRB03KT 9999 SCT010 BKN030"
    },
    {
      "icao": "LCLK",
      "alert": "OK",
      "vis_m": 4000,
      "fzfg": false,
      "metar_trigger": false,
      "taf_trigger": false,
      "metar": "METAR LCLK 271030Z 21008KT 4000 DU FEW030 SCT040 19/11 Q1011 TEMPO 3000 DU",
      "taf": ""
    },
    {
      "icao": "LCPH",
      "alert": "OK",
      "vis_m": 1500,
      "fzfg": false,
      "metar_trigger": false,
      "taf_trigger": false,
      "metar": "METAR LCPH 271030Z 18011KT 170V240 1500 DU FEW025 FEW030CB SCT035 17/11 Q1010 TEMPO 0800 DU SHRA",
      "taf": ""
    },
    {
      "icao": "LEAL",
      "alert": "OK",
      "vis_m": 9999,
      "fzfg": false,
      "metar_trigger": false,
      "taf_trigger": false,
      "metar": "METAR LEAL 271030Z 19008KT 150V230 CAVOK 19/10 Q1003 NOSIG",
      "taf": ""
    },
    {
      "icao": "LEBB",
      "alert": "OK",
      "vis_m": 9999,
      "fzfg": false,
      "metar_trigger": false,
      "taf_trigger": false,
      "metar": "METAR LEBB 271030Z VRB02KT 9999 FEW013 BKN025 10/09 Q0995 NOSIG",
      "taf": ""
    },
    {
      "icao": "LEBL",
      "alert": "OK",
      "vis_m": 9999,
      "fzfg": false,
      "metar_trigger": false,
      "taf_trigger": false,
      "metar": "METAR LEBL 271030Z 34004KT 260V040 9999 FEW038TCU 12/11 Q0998 NOSIG",
      "taf": "TAF LEBL 270500Z 2706/2806 VRB04KT 9999 FEW055 TX16/2712Z TN08/2706Z"
    },
    {
      "icao": "LECH",
      "alert": "OK",
      "vis_m": 9999,
      "fzfg": false,
      "metar_trigger": false,
      "taf_trigger": false,
      "metar": "METAR LECH 271030Z AUTO 22016KT CAVOK 15/07 Q0999",
      "taf": ""
    },
    {
      "icao": "LEMD",
      "alert": "OK",
      "vis_m": 9999,
      "fzfg": false,
      "metar_trigger": false,
      "taf_trigger": false,
      "metar": "SPECI LEMD 271042Z 23014KT 9999 -RA SCT014 SCT030 BKN040 10/09 Q0997 RERA TEMPO RA",
      "taf": ""
    },
    {
      "icao": "LEMG",
      "alert": "OK",
      "vis_m": 3000,
      "fzfg": false,
      "metar_trigger": false,
      "taf_trigger": false,
      "metar": "SPECI LEMG 271036Z 22026G44KT 170V260 3000 -RA SCT025 BKN035 15/12 Q1007 NOSIG",
      "taf": "TAF LEMG 270500Z 2706/2806 21014KT 9999 FEW010 SCT030 TX19/2714Z TN10/2707Z"
    },
    {
      "icao": "LEVC",
      "alert": "OK",
      "vis_m": 9999,
      "fzfg": false,
      "metar_trigger": false,
      "taf_trigger": false,
      "metar": "METAR LEVC 271030Z 23011KT 200V280 9999 FEW030 17/07 Q1001 NOSIG",
      "taf": "TAF LEVC 270500Z 2706/2806 24012KT 9999 FEW040 TX20/2712Z TN09/2806Z"
    },
    {
      "icao": "LEXJ",
      "alert": "OK",
      "vis_m": 9000,
      "fzfg": false,
      "metar_trigger": false,
      "taf_trigger": false,
      "metar": "METAR LEXJ 271030Z 13009KT 9000 SCT043 BKN059 10/08 Q0993",
      "taf": "TAF LEXJ 270800Z 2709/2809 23009KT 9999 SCT040 TX15/2712Z TN07/2802Z"
    },
    {
      "icao": "LEZG",
      "alert": "OK",
      "vis_m": 9999,
      "fzfg": false,
      "metar_trigger": false,
      "taf_trigger": false,
      "metar": "METAR LEZG 271030Z 09008KT 9999 OVC050 09/09 Q0997 NOSIG",
      "taf": ""
    },
    {
      "icao": "LEZL",
      "alert": "OK",
      "vis_m": 9999,
      "fzfg": false,
      "metar_trigger": false,
      "taf_trigger": false,
      "metar": "METAR LEZL 271030Z 23015KT 9999 SCT014 16/14 Q1004 NOSIG",
      "taf": "TAF LEZL 270800Z 2709/2809 24020KT 9999 FEW015 SCT030 TX17/2715Z TN10/2807Z"
    },
    {
      "icao": "LFBD",
      "alert": "OK",
      "vis_m": 9999,
      "fzfg": false,
      "metar_trigger": false,
      "taf_trigger": false,
      "metar": "METAR LFBD 271030Z AUTO 29015KT 9999 -RA FEW007/// BKN014/// BKN041/// ///TCU 09/08 Q0994 TEMPO 4000 -SHRA BKN020 BKN030TCU BECMG 28005KT",
      "taf": "TAF LFBD 270500Z 2706/2812 17010KT 9999 BKN045 TX11/2713Z TN04/2807Z"
    },
    {
      "icao": "LFLL",
      "alert": "OK",
      "vis_m": 9999,
      "fzfg": false,
      "metar_trigger": false,
      "taf_trigger": false,
      "metar": "METAR LFLL 271030Z 12007KT 9999 -RA FEW050 BKN076 08/01 Q0998 NOSIG",
      "taf": ""
    },
    {
      "icao": "LFLS",
      "alert": "OK",
      "vis_m": 9999,
      "fzfg": false,
      "metar_trigger": false,
      "taf_trigger": false,
      "metar": "METAR LFLS 271030Z AUTO VRB01KT 9999 SCT050 OVC100 04/01 Q0998 NOSIG",
      "taf": "TAF LFLS 270800Z 2709/2809 VRB05KT CAVOK"
    },
    {
      "icao": "LFMN",
      "alert": "OK",
      "vis_m": 9999,
      "fzfg": false,
      "metar_trigger": false,
      "taf_trigger": false,
      "metar": "METAR LFMN 271030Z 33008KT 9999 FEW018 BKN033 09/M01 Q1006 TEMPO 4000 RA",
      "taf": "TAF LFMN 270800Z 2709/2815 34012KT 9999 FEW030 OVC060"
    },
    {
      "icao": "LFOB",
      "alert": "OK",
      "vis_m": 5000,
      "fzfg": false,
      "metar_trigger": false,
      "taf_trigger": false,
      "metar": "METAR LFOB 271030Z AUTO 12011KT 5000 BR OVC004/// ///TCU 05/05 Q0989 TEMPO 2500 RADZ OVC004",
      "taf": "TAF LFOB 270500Z 2706/2806 14010G20KT 7000 -RA SCT045 OVC080"
    },
    {
      "icao": "LFPO",
      "alert": "OK",
      "vis_m": 8000,
      "fzfg": false,
      "metar_trigger": false,
      "taf_trigger": false,
      "metar": "METAR LFPO 271030Z 17008KT 140V210 8000 -RA BKN008 OVC014 07/06 Q0990 NOSIG",
      "taf": "TAF LFPO 270500Z 2706/2812 16009KT 9999 BKN030"
    },
    {
      "icao": "LFSB",
      "alert": "OK",
      "vis_m": 9999,
      "fzfg": false,
      "metar_trigger": false,
      "taf_trigger": false,
      "metar": "METAR LFSB 271030Z AUTO 11011KT CAVOK 06/M01 Q0997 NOSIG",
      "taf": "TAF LFSB 270500Z 2706/2806 VRB03KT CAVOK"
    },
    {
      "icao": "LGAV",
      "alert": "OK",
      "vis_m": 9999,
      "fzfg": false,
      "metar_trigger": false,
      "taf_trigger": false,
      "metar": "METAR LGAV 271050Z 28006KT 140V070 9999 FEW018 15/06 Q1001 NOSIG",
      "taf": "TAF LGAV 270500Z 2706/2806 VRB05KT 9999 FEW020 SCT070"
    },
    {
      "icao": "LGTS",
      "alert": "OK",
      "vis_m": 9999,
      "fzfg": false,
      "metar_trigger": false,
      "taf_trigger": false,
      "metar": "METAR LGTS 271050Z 33015KT 9999 FEW018 SCT040 10/06 Q1001 NOSIG",
      "taf": ""
    },
    {
      "icao": "LHBP",
      "alert": "OK",
      "vis_m": 9999,
      "fzfg": false,
      "metar_trigger": false,
      "taf_trigger": false,
      "metar": "METAR LHBP 271030Z 23005KT 190V250 CAVOK 06/01 Q1005 NOSIG",
      "taf": "TAF LHBP 270515Z 2706/2806 31005KT 5000 BCFG BR NSC"
    },
    {
      "icao": "LHDC",
      "alert": "OK",
      "vis_m": 7000,
      "fzfg": false,
      "metar_trigger": false,
      "taf_trigger": false,
      "metar": "METAR LHDC 271015Z AUTO 27005KT 230V300 7000 FEW003 BKN024 BKN037 05/04 Q1004 NOSIG",
      "taf": "TAF LHDC 270815Z 2709/2718 26005KT 2500 BR BKN003 OVC025"
    },
    {
      "icao": "LIBD",
      "alert": "OK",
      "vis_m": 9999,
      "fzfg": false,
      "metar_trigger": false,
      "taf_trigger": false,
      "metar": "METAR LIBD 271050Z 29008KT 260V320 CAVOK 13/05 Q1007",
      "taf": "TAF LIBD 270500Z 2706/2806 28013KT 9999 SCT025"
    },
    {
      "icao": "LIBG",
      "alert": "OK",
      "vis_m": 9999,
      "fzfg": false,
      "metar_trigger": false,
      "taf_trigger": false,
      "metar": "METAR LIBG 270950Z 32008KT 280V340 CAVOK 13/05 Q1006",
      "taf": "TAF LIBG 270800Z 2709/2718 30010KT CAVOK"
    },
    {
      "icao": "LIBP",
      "alert": "OK",
      "vis_m": 9999,
      "fzfg": false,
      "metar_trigger": false,
      "taf_trigger": false,
      "metar": "METAR LIBP 271050Z AUTO VRB02KT 9999 NCD 12/03 Q1007",
      "taf": "TAF LIBP 270500Z 2706/2806 VRB05KT CAVOK"
    },
    {
      "icao": "LIBR",
      "alert": "OK",
      "vis_m": 9999,
      "fzfg": false,
      "metar_trigger": false,
      "taf_trigger": false,
      "metar": "METAR LIBR 271050Z 32021KT 9999 FEW040 13/07 Q1006",
      "taf": "TAF LIBR 270500Z 2706/2806 31016KT 9999 FEW020"
    },
    {
      "icao": "LICA",
      "alert": "OK",
      "vis_m": 9999,
      "fzfg": false,
      "metar_trigger": false,
      "taf_trigger": false,
      "metar": "METAR LICA 271050Z AUTO 25010KT 9999 SCT017/// 15/11 Q1009",
      "taf": "TAF LICA 270500Z 2706/2806 VRB05KT 9999 SCT040"
    },
    {
      "icao": "LICC",
      "alert": "OK",
      "vis_m": 9999,
      "fzfg": false,
      "metar_trigger": false,
      "taf_trigger": false,
      "metar": "METAR LICC 271050Z 26009KT 230V300 9999 FEW060 16/14 Q1009",
      "taf": "TAF LICC 270500Z 2706/2806 26010KT 9999 FEW050"
    },
    {
      "icao": "LICJ",
      "alert": "OK",
      "vis_m": 9999,
      "fzfg": false,
      "metar_trigger": false,
      "taf_trigger": false,
      "metar": "METAR LICJ 271050Z 27010KT 9999 SCT030 14/08 Q1011",
      "taf": "TAF LICJ 270500Z 2706/2806 34012KT 9999 SCT030"
    },
    {
      "icao": "LIMC",
      "alert": "OK",
      "vis_m": 9999,
      "fzfg": false,
      "metar_trigger": false,
      "taf_trigger": false,
      "metar": "METAR LIMC 271050Z VRB02KT 9999 SCT060 07/00 Q1005 NOSIG",
      "taf": "TAF LIMC 270500Z 2706/2812 VRB04KT 6000 SCT025"
    },
    {
      "icao": "LIME",
      "alert": "OK",
      "vis_m": 9999,
      "fzfg": false,
      "metar_trigger": false,
      "taf_trigger": false,
      "metar": "METAR LIME 271050Z VRB02KT 9999 FEW070 08/01 Q1005",
      "taf": "TAF LIME 270500Z 2706/2806 VRB05KT 7000 FEW020"
    },
    {
      "icao": "LIMF",
      "alert": "OK",
      "vis_m": 9999,
      "fzfg": false,
      "metar_trigger": false,
      "taf_trigger": false,
      "metar": "METAR LIMF 271050Z VRB02KT CAVOK 05/M01 Q1005",
      "taf": "TAF LIMF 270500Z 2706/2806 VRB04KT 6000 SCT020"
    },
    {
      "icao": "LIMJ",
      "alert": "OK",
      "vis_m": 9999,
      "fzfg": false,
      "metar_trigger": false,
      "taf_trigger": false,
      "metar": "METAR LIMJ 271050Z 22008KT 9999 BKN028 13/07 Q1005",
      "taf": "TAF LIMJ 270500Z 2706/2806 17010KT 9999 SCT040"
    },
    {
      "icao": "LIPE",
      "alert": "OK",
      "vis_m": 9999,
      "fzfg": false,
      "metar_trigger": false,
      "taf_trigger": false,
      "metar": "METAR LIPE 271050Z VRB02KT CAVOK 09/02 Q1006",
      "taf": "TAF LIPE 270500Z 2706/2806 VRB05KT 8000 SCT020"
    },
    {
      "icao": "LIPH",
      "alert": "OK",
      "vis_m": 9999,
      "fzfg": false,
      "metar_trigger": false,
      "taf_trigger": false,
      "metar": "METAR LIPH 271050Z 07004KT 040V100 CAVOK 08/04 Q1006",
      "taf": "TAF LIPH 270500Z 2706/2806 VRB05KT 1200 BCFG BKN004"
    },
    {
      "icao": "LIPQ",
      "alert": "OK",
      "vis_m": 9999,
      "fzfg": false,
      "metar_trigger": false,
      "taf_trigger": false,
      "metar": "METAR LIPQ 271050Z AUTO 18004KT 150V210 9999 BKN008/// 08/06 Q1006",
      "taf": "TAF LIPQ 270500Z 2706/2806 VRB04KT 9999 SCT020"
    },
    {
      "icao": "LIPR",
      "alert": "OK",
      "vis_m": 9999,
      "fzfg": false,
      "metar_trigger": false,
      "taf_trigger": false,
      "metar": "METAR LIPR 271050Z 06003KT CAVOK 09/02 Q1007",
      "taf": "TAF LIPR 270500Z 2706/2806 23005KT 9999 SCT015"
    },
    {
      "icao": "LIPX",
      "alert": "OK",
      "vis_m": 9999,
      "fzfg": false,
      "metar_trigger": false,
      "taf_trigger": false,
      "metar": "METAR LIPX 271050Z 07003KT 050V110 CAVOK 06/02 Q1006",
      "taf": "TAF LIPX 270500Z 2706/2806 VRB04KT 4000 BR SCT020"
    },
    {
      "icao": "LIPY",
      "alert": "OK",
      "vis_m": 9999,
      "fzfg": false,
      "metar_trigger": false,
      "taf_trigger": false,
      "metar": "METAR LIPY 271050Z AUTO VRB01KT 9999 NCD 12/02 Q1007",
      "taf": "TAF LIPY 270500Z 2706/2806 VRB05KT 9999 SCT015"
    },
    {
      "icao": "LIPZ",
      "alert": "OK",
      "vis_m": 9999,
      "fzfg": false,
      "metar_trigger": false,
      "taf_trigger": false,
      "metar": "METAR LIPZ 271050Z 17003KT CAVOK 05/03 Q1006 NOSIG",
      "taf": "TAF LIPZ 270500Z 2706/2812 VRB04KT 1200 BCFG BKN002"
    },
    {
      "icao": "LIRF",
      "alert": "OK",
      "vis_m": 9999,
      "fzfg": false,
      "metar_trigger": false,
      "taf_trigger": false,
      "metar": "METAR LIRF 271050Z 07003KT 030V130 CAVOK 11/06 Q1009 NOSIG",
      "taf": "TAF LIRF 270500Z 2706/2812 05005KT 9999 FEW030"
    },
    {
      "icao": "LIRN",
      "alert": "OK",
      "vis_m": 9999,
      "fzfg": false,
      "metar_trigger": false,
      "taf_trigger": false,
      "metar": "METAR LIRN 271050Z 18003KT 120V250 CAVOK 13/05 Q1008 NOSIG",
      "taf": "TAF LIRN 270500Z 2706/2806 VRB05KT 9999 FEW040"
    },
    {
      "icao": "LIRP",
      "alert": "OK",
      "vis_m": 9999,
      "fzfg": false,
      "metar_trigger": false,
      "taf_trigger": false,
      "metar": "METAR LIRP 271045Z 12008KT 9999 FEW030 09/07 Q1008 NOSIG",
      "taf": "TAF LIRP 270500Z 2706/2806 09003KT 7000 FEW020"
    },
    {
      "icao": "LIRZ",
      "alert": "OK",
      "vis_m": 9999,
      "fzfg": false,
      "metar_trigger": false,
      "taf_trigger": false,
      "metar": "METAR LIRZ 271050Z AUTO 19003KT 140V230 9999 NCD 04/02 Q1008",
      "taf": "TAF LIRZ 270500Z 2706/2806 VRB04KT 9999 SCT020"
    },
    {
      "icao": "LJLJ",
      "alert": "OK",
      "vis_m": 2500,
      "fzfg": false,
      "metar_trigger": false,
      "taf_trigger": false,
      "metar": "METAR LJLJ 271030Z 24001KT 2500 BR OVC002 M00/M01 Q1006 NOSIG",
      "taf": "TAF LJLJ 271100Z 2712/2812 VRB02KT 4000 BR OVC003"
    },
    {
      "icao": "LKMT",
      "alert": "OK",
      "vis_m": 9999,
      "fzfg": false,
      "metar_trigger": false,
      "taf_trigger": false,
      "metar": "METAR LKMT 271030Z 24010KT 9999 FEW037 04/M00 Q1003 NOSIG",
      "taf": "TAF LKMT 270500Z 2706/2806 23008KT CAVOK"
    },
    {
      "icao": "LKPR",
      "alert": "OK",
      "vis_m": 9999,
      "fzfg": false,
      "metar_trigger": false,
      "taf_trigger": false,
      "metar": "METAR LKPR 271030Z 21004KT 9999 FEW012 BKN028 00/M01 Q1001 NOSIG",
      "taf": "TAF LKPR 270800Z 2709/2815 20006KT 9999 BKN017"
    },
    {
      "icao": "LLBG",
      "alert": "OK",
      "vis_m": 9999,
      "fzfg": false,
      "metar_trigger": false,
      "taf_trigger": false,
      "metar": "METAR LLBG 271050Z 23010KT 9999 SCT035 20/10 Q1013 NOSIG RMK SCT060",
      "taf": "TAF LLBG 270501Z 2706/2806 18006KT 9999 SCT025"
    },
    {
      "icao": "LMML",
      "alert": "OK",
      "vis_m": 9999,
      "fzfg": false,
      "metar_trigger": false,
      "taf_trigger": false,
      "metar": "METAR LMML 271045Z 29016G26KT 9999 FEW025 16/09 Q1012 NOSIG",
      "taf": "TAF LMML 270500Z 2706/2806 30018G28KT 9999 FEW020"
    },
    {
      "icao": "LOWW",
      "alert": "OK",
      "vis_m": 9999,
      "fzfg": false,
      "metar_trigger": false,
      "taf_trigger": false,
      "metar": "METAR LOWW 271050Z 16009KT CAVOK 05/01 Q1003 NOSIG",
      "taf": "TAF LOWW 270815Z 2709/2815 16007KT CAVOK TX04/2712Z TNM00/2722Z"
    },
    {
      "icao": "LPFR",
      "alert": "OK",
      "vis_m": 7000,
      "fzfg": false,
      "metar_trigger": false,
      "taf_trigger": false,
      "metar": "METAR LPFR 271030Z 27018KT 7000 SCT007 SCT012 14/13 Q1006 RERA",
      "taf": ""
    },
    {
      "icao": "LPMA",
      "alert": "OK",
      "vis_m": 9999,
      "fzfg": false,
      "metar_trigger": false,
      "taf_trigger": false,
      "metar": "METAR LPMA 271030Z VRB03KT 9999 SCT014 20/12 Q1016",
      "taf": "TAF LPMA 270500Z 2706/2806 VRB05KT 9999 SCT015"
    },
    {
      "icao": "LPPR",
      "alert": "OK",
      "vis_m": 8000,
      "fzfg": false,
      "metar_trigger": false,
      "taf_trigger": false,
      "metar": "METAR LPPR 271030Z 27012G26KT 230V300 8000 -SHRA FEW012 FEW020CB BKN035 09/07 Q0997 RETSRA",
      "taf": "TAF LPPR 270500Z 2706/2806 24010KT 9999 SCT020"
    },
    {
      "icao": "LPPS",
      "alert": "OK",
      "vis_m": 9999,
      "fzfg": false,
      "metar_trigger": false,
      "taf_trigger": false,
      "metar": "METAR LPPS 271030Z 28020KT 9999 FEW014 18/12 Q1017",
      "taf": "TAF LPPS 270500Z 2706/2812 27018KT 9999 SCT015 SCT030"
    },
    {
      "icao": "LPPT",
      "alert": "OK",
      "vis_m": 9999,
      "fzfg": false,
      "metar_trigger": false,
      "taf_trigger": false,
      "metar": "METAR LPPT 271030Z 23013KT 210V270 9999 VCSH FEW018 FEW023CB SCT028 12/10 Q1002",
      "taf": "TAF LPPT 270500Z 2706/2812 26012KT 9999 SCT020"
    },
    {
      "icao": "LQBK",
      "alert": "OK",
      "vis_m": 1200,
      "fzfg": false,
      "metar_trigger": false,
      "taf_trigger": false,
      "metar": "METAR LQBK 271030Z VRB03KT 1200 R16/P2000N BR OVC003 04/04 Q1006 BECMG 3000",
      "taf": "TAF LQBK 270500Z 2706/2806 16005KT 8000 SCT040 TX08/2714Z TN01/2801Z"
    },
    {
      "icao": "LQSA",
      "alert": "OK",
      "vis_m": 9999,
      "fzfg": false,
      "metar_trigger": false,
      "taf_trigger": false,
      "metar": "METAR LQSA 271030Z VRB02KT CAVOK 08/M01 Q1005 NOSIG",
      "taf": "TAF LQSA 270500Z 2706/2806 VRB02KT CAVOK TX10/2714Z TNM02/2801Z"
    },
    {
      "icao": "LQTZ",
      "alert": "OK",
      "vis_m": 4500,
      "fzfg": false,
      "metar_trigger": false,
      "taf_trigger": false,
      "metar": "METAR LQTZ 271030Z VRB02KT 4500 BR NSC 06/06 Q1006",
      "taf": "TAF LQTZ 270500Z 2706/2806 12005KT 9999 SCT050 TX10/2713Z TN01/2800Z"
    },
    {
      "icao": "LRBC",
      "alert": "OK",
      "vis_m": 7000,
      "fzfg": false,
      "metar_trigger": false,
      "taf_trigger": false,
      "metar": "METAR LRBC 271030Z 16009KT 7000 BKN003 03/03 Q1003",
      "taf": ""
    },
    {
      "icao": "LRBS",
      "alert": "OK",
      "vis_m": 1000,
      "fzfg": false,
      "metar_trigger": false,
      "taf_trigger": false,
      "metar": "METAR LRBS 271030Z 05010KT 1000 R07/1400D -DZ BR OVC002 03/03 Q1002 NOSIG",
      "taf": "TAF LRBS 270500Z 2706/2806 07014KT 3000 BR OVC003"
    },
    {
      "icao": "LRBV",
      "alert": "OK",
      "vis_m": 8000,
      "fzfg": false,
      "metar_trigger": false,
      "taf_trigger": false,
      "metar": "METAR LRBV 271030Z 31008KT 8000 -RADZ FEW006 SCT009 OVC016 05/04 Q1001",
      "taf": "TAF LRBV 270800Z 2709/2718 VRB04KT 9999 BKN020 BKN045"
    },
    {
      "icao": "LRCL",
      "alert": "OK",
      "vis_m": 9999,
      "fzfg": false,
      "metar_trigger": false,
      "taf_trigger": false,
      "metar": "METAR LRCL 271030Z 00000KT 9999 SCT009 OVC028 05/04 Q1002",
      "taf": "TAF LRCL 270800Z 2709/2718 VRB04KT 9999 SCT010 BKN030"
    },
    {
      "icao": "LRCV",
      "alert": "OK",
      "vis_m": 4500,
      "fzfg": false,
      "metar_trigger": false,
      "taf_trigger": false,
      "metar": "METAR LRCV 271030Z 10004KT 4500 BR OVC002 06/06 Q1002",
      "taf": "TAF LRCV 270800Z 2709/2718 VRB04KT 5000 -RADZ BR BKN004 OVC010"
    },
    {
      "icao": "LRIA",
      "alert": "OK",
      "vis_m": 2500,
      "fzfg": false,
      "metar_trigger": false,
      "taf_trigger": false,
      "metar": "METAR LRIA 271030Z 10010KT 2500 BR OVC001 01/00 Q1004",
      "taf": ""
    },
    {
      "icao": "LROP",
      "alert": "OK",
      "vis_m": 4500,
      "fzfg": false,
      "metar_trigger": false,
      "taf_trigger": false,
      "metar": "METAR LROP 271030Z 06012KT 4500 BR OVC003 03/03 Q1002 NOSIG",
      "taf": "TAF LROP 270500Z 2706/2806 07014KT 3000 BR OVC003"
    },
    {
      "icao": "LRSB",
      "alert": "OK",
      "vis_m": 1000,
      "fzfg": false,
      "metar_trigger": false,
      "taf_trigger": false,
      "metar": "METAR LRSB 271030Z COR 23003KT 1000 R27/1600N PRFG BR BKN003 OVC006 05/05 Q1001 TEMPO 0800 FG",
      "taf": "TAF LRSB 270500Z 2706/2806 35006KT 3000 -DZ BR BKN005 BKN050"
    },
    {
      "icao": "LRSM",
      "alert": "OK",
      "vis_m": 700,
      "fzfg": false,
      "metar_trigger": false,
      "taf_trigger": false,
      "metar": "METAR LRSM 271030Z 24005KT 0700 R19/1000N -RADZ FG OVC002 04/03 Q1003",
      "taf": "TAF LRSM 270800Z 2709/2718 VRB04KT 0300 -RADZ FG VV001"
    },
    {
      "icao": "LRSV",
      "alert": "OK",
      "vis_m": 100,
      "fzfg": false,
      "metar_trigger": false,
      "taf_trigger": false,
      "metar": "METAR LRSV 271030Z 08005KT 0100 R34/0200N DZ FG VV001 00/00 Q1002",
      "taf": "TAF LRSV 270800Z 2709/2718 14008KT 0150 FG VV001"
    },
    {
      "icao": "LRTM",
      "alert": "OK",
      "vis_m": 600,
      "fzfg": false,
      "metar_trigger": false,
      "taf_trigger": false,
      "metar": "METAR LRTM 271030Z 25005KT 0600 R07/1500D -RA FG SCT001 BKN003 OVC025 02/02 Q1002",
      "taf": ""
    },
    {
      "icao": "LRTR",
      "alert": "OK",
      "vis_m": 5000,
      "fzfg": false,
      "metar_trigger": false,
      "taf_trigger": false,
      "metar": "METAR LRTR 271030Z 30007KT 5000 BR SCT003 BKN004 OVC015 03/03 Q1005",
      "taf": ""
    },
    {
      "icao": "LTAC",
      "alert": "OK",
      "vis_m": 9999,
      "fzfg": false,
      "metar_trigger": false,
      "taf_trigger": false,
      "metar": "METAR LTAC 271050Z 23012KT 9999 SCT040 BKN100 11/02 Q1007 NOSIG",
      "taf": "TAF LTAC 271040Z 2712/2812 21012KT 9999 SCT035 BKN090"
    },
    {
      "icao": "LTFM",
      "alert": "OK",
      "vis_m": 9999,
      "fzfg": false,
      "metar_trigger": false,
      "taf_trigger": false,
      "metar": "METAR LTFM 271050Z 19013KT 9999 SCT040 BKN100 14/06 Q1002 NOSIG",
      "taf": "TAF LTFM 271040Z 2712/2818 20017G27KT 9999 SCT040 BKN100"
    },
    {
      "icao": "LUKK",
      "alert": "OK",
      "vis_m": 8000,
      "fzfg": false,
      "metar_trigger": false,
      "taf_trigger": false,
      "metar": "METAR LUKK 271030Z 08007KT 8000 OVC005 M01/M02 Q1005 REFZRA NOSIG",
      "taf": "TAF LUKK 270519Z 2706/2806 08010KT 5000 -FZRA BR OVC004"
    },
    {
      "icao": "LWOH",
      "alert": "OK",
      "vis_m": 9999,
      "fzfg": false,
      "metar_trigger": false,
      "taf_trigger": false,
      "metar": "METAR LWOH 271050Z 31014KT 270V330 9999 SCT035 09/02 Q1003",
      "taf": "TAF LWOH 270817Z 2709/2809 VRB02KT 9999 SCT015 BKN040 OVC090"
    },
    {
      "icao": "LWSK",
      "alert": "OK",
      "vis_m": 9999,
      "fzfg": false,
      "metar_trigger": false,
      "taf_trigger": false,
      "metar": "METAR LWSK 271050Z 01006KT 9999 FEW026 BKN050 09/03 Q1004 NOSIG",
      "taf": "TAF LWSK 270817Z 2709/2809 36010KT 9999 FEW025 OVC040"
    },
    {
      "icao": "LYBE",
      "alert": "OK",
      "vis_m": 9999,
      "fzfg": false,
      "metar_trigger": false,
      "taf_trigger": false,
      "metar": "METAR LYBE 271030Z 28006KT 9999 OVC006 03/02 Q1007 BECMG SCT008",
      "taf": "TAF LYBE 270500Z 2706/2806 27010KT 8000 OVC004 TX10/2712Z TN03/2706Z"
    },
    {
      "icao": "LYNI",
      "alert": "OK",
      "vis_m": 6000,
      "fzfg": false,
      "metar_trigger": false,
      "taf_trigger": false,
      "metar": "METAR LYNI 271030Z 32012KT 6000 -RA BKN004 OVC013 04/04 Q1005 NOSIG",
      "taf": "TAF LYNI 270500Z 2706/2806 35013KT 9999 RA BKN008 OVC027 TX07/2713Z TNM01/2806Z"
    },
    {
      "icao": "LYPG",
      "alert": "OK",
      "vis_m": 9999,
      "fzfg": false,
      "metar_trigger": false,
      "taf_trigger": false,
      "metar": "METAR LYPG 271030Z 12004KT 080V160 9999 FEW030 14/04 Q1005 NOSIG",
      "taf": "TAF LYPG 270500Z 2706/2806 34006KT 9999 FEW030 TX14/2713Z TN04/2723Z"
    },
    {
      "icao": "LZIB",
      "alert": "OK",
      "vis_m": 150,
      "fzfg": true,
      "metar_trigger": false,
      "taf_trigger": false,
      "metar": "METAR LZIB 271030Z 13003KT 110V170 0150 R31/0300N R22/0325N FZFG VV001 M02/M03 Q1005 NOSIG",
      "taf": ""
    },
    {
      "icao": "LZKZ",
      "alert": "OK",
      "vis_m": 500,
      "fzfg": false,
      "metar_trigger": false,
      "taf_trigger": false,
      "metar": "METAR LZKZ 271030Z 18004KT 160V230 0500 R01/0750N FG OVC002 03/03 Q1003 TEMPO 0800 FG",
      "taf": ""
    },
    {
      "icao": "LZTT",
      "alert": "OK",
      "vis_m": 9999,
      "fzfg": false,
      "metar_trigger": false,
      "taf_trigger": false,
      "metar": "METAR LZTT 271030Z 26013KT 9999 FEW010 04/M02 Q1001 NOSIG",
      "taf": "TAF LZTT 270515Z 2706/2806 28008KT 9999 FEW010 BKN025"
    },
    {
      "icao": "OEJN",
      "alert": "OK",
      "vis_m": 9999,
      "fzfg": false,
      "metar_trigger": false,
      "taf_trigger": false,
      "metar": "METAR OEJN 271100Z 24010KT CAVOK 30/17 Q1012 NOSIG",
      "taf": "TAF OEJN 270500Z 2706/2812 22010KT 7000 NSC"
    },
    {
      "icao": "OEMA",
      "alert": "OK",
      "vis_m": 7000,
      "fzfg": false,
      "metar_trigger": false,
      "taf_trigger": false,
      "metar": "METAR OEMA 271100Z VRB03KT 7000 NSC 26/02 Q1016 NOSIG",
      "taf": "TAF OEMA 270500Z 2706/2812 07006KT CAVOK"
    },
    {
      "icao": "OJAI",
      "alert": "OK",
      "vis_m": 3500,
      "fzfg": false,
      "metar_trigger": false,
      "taf_trigger": false,
      "metar": "METAR OJAI 271000Z 26008KT 3500 HZ NSC 15/03 Q1015 NOSIG",
      "taf": "TAF OJAI 270500Z 2706/2812 24012KT 5000 HZ NSC"
    },
    {
      "icao": "OMAA",
      "alert": "OK",
      "vis_m": 9999,
      "fzfg": false,
      "metar_trigger": false,
      "taf_trigger": false,
      "metar": "METAR OMAA 271030Z 31013KT CAVOK 23/11 Q1019 NOSIG",
      "taf": "TAF OMAA 271100Z 2712/2818 34011KT 8000 NSC"
    },
    {
      "icao": "OMDB",
      "alert": "OK",
      "vis_m": 9999,
      "fzfg": false,
      "metar_trigger": false,
      "taf_trigger": false,
      "metar": "SPECI OMDB 271043Z 36010KT CAVOK 24/10 Q1019 NOSIG",
      "taf": "TAF OMDB 271100Z 2712/2818 35012KT 8000 NSC"
    },
    {
      "icao": "UAAA",
      "alert": "OK",
      "vis_m": 5000,
      "fzfg": false,
      "metar_trigger": false,
      "taf_trigger": false,
      "metar": "METAR UAAA 271030Z 02002MPS 5000 FU SCT100 BKN200 00/M06 Q1019 NOSIG",
      "taf": "TAF UAAA 270507Z 2706/2806 34003MPS 6000 SCT050 BKN100 TX03/2708Z TNM06/2802Z"
    },
    {
      "icao": "UBBB",
      "alert": "OK",
      "vis_m": 9999,
      "fzfg": false,
      "metar_trigger": false,
      "taf_trigger": false,
      "metar": "METAR UBBB 271030Z 05008KT 9999 OVC020 03/M02 Q1025 NOSIG",
      "taf": "TAF UBBB 271055Z 2712/2812 12005KT 9999 BKN012 BKN020 TX03/2712Z TN01/2800Z"
    },
    {
      "icao": "UDSG",
      "alert": "OK",
      "vis_m": 5000,
      "fzfg": false,
      "metar_trigger": false,
      "taf_trigger": false,
      "metar": "METAR UDSG 271030Z 26001KT 5000 BR SCT033 M06/M08 Q1020 NOSIG",
      "taf": "TAF UDSG 270458Z 2706/2806 VRB06KT 1500 BR BKN020"
    },
    {
      "icao": "UDYZ",
      "alert": "OK",
      "vis_m": 4500,
      "fzfg": false,
      "metar_trigger": false,
      "taf_trigger": false,
      "metar": "METAR UDYZ 271030Z VRB01KT 4500 BR BKN010 M04/M06 Q1023 NOSIG",
      "taf": "TAF UDYZ 270500Z 2706/2806 VRB04KT 2300 BR BKN010"
    },
    {
      "icao": "UGKO",
      "alert": "OK",
      "vis_m": 9999,
      "fzfg": false,
      "metar_trigger": false,
      "taf_trigger": false,
      "metar": "METAR UGKO 271030Z 08029G43KT CAVOK 13/00 Q1013 NOSIG",
      "taf": "TAF UGKO 270500Z 2706/2806 08027G41KT CAVOK TX13/2711Z TN06/2802Z"
    }
  ]
}