{
  "ts_utc": "2026-01-24T13:56:06Z",
  "threshold_m": 150,
  "source": "stations_override.txt (ICAO list) + aviationweather.gov (METAR/TAF raw)",
  "station_count": 159,
  "stations": [
    {
      "icao": "BIKF",
      "alert": "OK",
      "vis_m": 9999,
      "fzfg": false,
      "metar_trigger": false,
      "taf_trigger": false,
      "metar": "METAR BIKF 241330Z 07016KT CAVOK 03/M02 Q1002",
      "taf": "TAF BIKF 241347Z 2415/2515 07015KT 9999 FEW025 TX04/2515Z TN02/2506Z"
    },
    {
      "icao": "BKPR",
      "alert": "OK",
      "vis_m": null,
      "fzfg": false,
      "metar_trigger": false,
      "taf_trigger": false,
      "metar": "",
      "taf": "TAF BKPR 241130Z 2412/2512 18012KT 9999 SCT040"
    },
    {
      "icao": "EBCI",
      "alert": "OK",
      "vis_m": 9999,
      "fzfg": false,
      "metar_trigger": false,
      "taf_trigger": false,
      "metar": "METAR EBCI 241320Z 13006KT 100V170 9999 FEW024 08/02 Q1000 NOSIG",
      "taf": "TAF EBCI 241110Z 2412/2518 12006KT 9999 FEW020"
    },
    {
      "icao": "EDDB",
      "alert": "OK",
      "vis_m": 5000,
      "fzfg": false,
      "metar_trigger": false,
      "taf_trigger": false,
      "metar": "METAR EDDB 241350Z AUTO 08007KT 050V110 5000 BR OVC011 M02/M04 Q1008 NOSIG",
      "taf": "TAF EDDB 241100Z 2412/2512 08009KT 4000 BR OVC009"
    },
    {
      "icao": "EDDH",
      "alert": "OK",
      "vis_m": 9999,
      "fzfg": false,
      "metar_trigger": false,
      "taf_trigger": false,
      "metar": "METAR EDDH 241350Z AUTO 08011KT 9999 OVC015 M02/M05 Q1007 TEMPO BKN014",
      "taf": "TAF EDDH 241100Z 2412/2518 10011KT 9000 BKN013 OVC035"
    },
    {
      "icao": "EDDK",
      "alert": "OK",
      "vis_m": 9999,
      "fzfg": false,
      "metar_trigger": false,
      "taf_trigger": false,
      "metar": "METAR EDDK 241350Z AUTO 14009KT 100V160 CAVOK 05/M02 Q1002 NOSIG",
      "taf": "TAF EDDK 241100Z 2412/2518 12006KT 9999 BKN040"
    },
    {
      "icao": "EDDN",
      "alert": "OK",
      "vis_m": 9999,
      "fzfg": false,
      "metar_trigger": false,
      "taf_trigger": false,
      "metar": "METAR EDDN 241350Z AUTO 11008KT CAVOK M01/M06 Q1003 NOSIG",
      "taf": "TAF EDDN 241100Z 2412/2512 12009KT 9000 SCT015"
    },
    {
      "icao": "EDDS",
      "alert": "OK",
      "vis_m": 9999,
      "fzfg": false,
      "metar_trigger": false,
      "taf_trigger": false,
      "metar": "METAR EDDS 241350Z AUTO 07003KT 030V110 CAVOK 04/M01 Q1000 NOSIG",
      "taf": "TAF EDDS 241100Z 2412/2512 VRB03KT 8000 FEW013"
    },
    {
      "icao": "EDFH",
      "alert": "OK",
      "vis_m": 9999,
      "fzfg": false,
      "metar_trigger": false,
      "taf_trigger": false,
      "metar": "METAR EDFH 241320Z 16006KT 9999 SCT006 01/M03 Q1000",
      "taf": "TAF EDFH 241100Z 2412/2512 14011KT 9000 SCT035"
    },
    {
      "icao": "EDJA",
      "alert": "OK",
      "vis_m": 9999,
      "fzfg": false,
      "metar_trigger": false,
      "taf_trigger": false,
      "metar": "METAR EDJA 241320Z 36006KT 9999 BKN010 02/00 Q1000",
      "taf": "TAF EDJA 241100Z 2412/2421 06006KT 8000 BKN007"
    },
    {
      "icao": "EDLW",
      "alert": "OK",
      "vis_m": 6000,
      "fzfg": false,
      "metar_trigger": false,
      "taf_trigger": false,
      "metar": "METAR EDLW 241320Z 02006KT 340V050 6000 NSC 02/00 Q1002",
      "taf": "TAF EDLW 241100Z 2412/2512 08005KT 9999 BKN030"
    },
    {
      "icao": "EDNY",
      "alert": "OK",
      "vis_m": 9999,
      "fzfg": false,
      "metar_trigger": false,
      "taf_trigger": false,
      "metar": "METAR EDNY 241320Z 05005KT 360V080 9999 BKN011 03/01 Q1000",
      "taf": "TAF EDNY 241100Z 2412/2421 03005KT 8000 BKN012"
    },
    {
      "icao": "EDSB",
      "alert": "OK",
      "vis_m": 9000,
      "fzfg": false,
      "metar_trigger": false,
      "taf_trigger": false,
      "metar": "METAR EDSB 241320Z 02010KT 9000 NSC 04/M03 Q1001",
      "taf": "TAF EDSB 241100Z 2412/2512 03006KT 6000 SCT035"
    },
    {
      "icao": "EETN",
      "alert": "OK",
      "vis_m": 9999,
      "fzfg": false,
      "metar_trigger": false,
      "taf_trigger": false,
      "metar": "METAR EETN 241350Z 11003KT 9999 FEW013 M12/M14 Q1025 NOSIG",
      "taf": "TAF EETN 241130Z 2412/2512 15007KT 9999 OVC013"
    },
    {
      "icao": "EFTU",
      "alert": "OK",
      "vis_m": 9999,
      "fzfg": false,
      "metar_trigger": false,
      "taf_trigger": false,
      "metar": "METAR EFTU 241350Z AUTO 10005KT 9999 -SHSN BKN028 M11/M12 Q1025",
      "taf": "TAF EFTU 241129Z 2412/2512 09005KT 9999 FEW020"
    },
    {
      "icao": "EGBB",
      "alert": "OK",
      "vis_m": 9999,
      "fzfg": false,
      "metar_trigger": false,
      "taf_trigger": false,
      "metar": "METAR EGBB 241320Z 13017KT 9999 SCT025 08/03 Q0991",
      "taf": "TAF EGBB 241101Z 2412/2512 11012KT 9999 SCT020"
    },
    {
      "icao": "EGGP",
      "alert": "OK",
      "vis_m": 9999,
      "fzfg": false,
      "metar_trigger": false,
      "taf_trigger": false,
      "metar": "METAR EGGP 241320Z 11018KT 9999 SCT024 SCT040 08/03 Q0990",
      "taf": "TAF EGGP 241102Z 2412/2512 11020G32KT 9999 BKN020"
    },
    {
      "icao": "EGGW",
      "alert": "OK",
      "vis_m": 9999,
      "fzfg": false,
      "metar_trigger": false,
      "taf_trigger": false,
      "metar": "METAR EGGW 241320Z AUTO 14011KT 9999 FEW024 08/04 Q0993",
      "taf": "TAF EGGW 241055Z 2412/2512 13012KT 9999 FEW025"
    },
    {
      "icao": "EGKK",
      "alert": "OK",
      "vis_m": 9999,
      "fzfg": false,
      "metar_trigger": false,
      "taf_trigger": false,
      "metar": "METAR EGKK 241320Z 14010KT 100V180 9999 FEW025 09/04 Q0994",
      "taf": "TAF EGKK 241055Z 2412/2518 14012KT 9999 FEW020"
    },
    {
      "icao": "EGNM",
      "alert": "OK",
      "vis_m": 9999,
      "fzfg": false,
      "metar_trigger": false,
      "taf_trigger": false,
      "metar": "METAR EGNM 241320Z 10012KT 9999 BKN012 06/04 Q0994",
      "taf": "TAF EGNM 241100Z 2412/2512 10012KT 9999 BKN006"
    },
    {
      "icao": "EGPD",
      "alert": "OK",
      "vis_m": 6000,
      "fzfg": false,
      "metar_trigger": false,
      "taf_trigger": false,
      "metar": "METAR EGPD 241320Z AUTO 12015KT 6000 -RA BKN011/// OVC022/// //////TCU 05/03 Q1001 RERA",
      "taf": "TAF EGPD 241057Z 2412/2512 11014KT 9999 BKN015"
    },
    {
      "icao": "EGPF",
      "alert": "OK",
      "vis_m": 8000,
      "fzfg": false,
      "metar_trigger": false,
      "taf_trigger": false,
      "metar": "METAR EGPF 241320Z AUTO 07015KT 8000 -RA FEW024 SCT032 BKN041 07/04 Q0995",
      "taf": "TAF EGPF 241103Z 2412/2512 09012KT 9999 SCT020 BKN040"
    },
    {
      "icao": "EHBK",
      "alert": "OK",
      "vis_m": 9999,
      "fzfg": false,
      "metar_trigger": false,
      "taf_trigger": false,
      "metar": "METAR EHBK 241325Z AUTO 16003KT 120V220 9999 NSC 10/03 Q1001 NOSIG",
      "taf": "TAF EHBK 241110Z 2412/2518 12005KT CAVOK"
    },
    {
      "icao": "EHEH",
      "alert": "OK",
      "vis_m": 9999,
      "fzfg": false,
      "metar_trigger": false,
      "taf_trigger": false,
      "metar": "METAR EHEH 241325Z AUTO 13005KT 110V190 9999 NCD 10/03 Q1001 BLU NOSIG RMK TREND REMOTE BY EHWX",
      "taf": "TAF EHEH 241126Z 2412/2518 13005KT CAVOK"
    },
    {
      "icao": "EKBI",
      "alert": "OK",
      "vis_m": 9999,
      "fzfg": false,
      "metar_trigger": false,
      "taf_trigger": false,
      "metar": "METAR EKBI 241350Z AUTO 10012KT 9999 OVC011/// 00/M02 Q1009",
      "taf": "TAF EKBI 241127Z 2412/2512 11015KT 9999 OVC017"
    },
    {
      "icao": "EKCH",
      "alert": "OK",
      "vis_m": 9999,
      "fzfg": false,
      "metar_trigger": false,
      "taf_trigger": false,
      "metar": "METAR EKCH 241350Z AUTO 10013KT 9999 BKN018/// OVC046/// 01/M03 Q1012 NOSIG",
      "taf": "TAF EKCH 241127Z 2412/2512 09012KT 9999 BKN025"
    },
    {
      "icao": "ENAL",
      "alert": "OK",
      "vis_m": 9999,
      "fzfg": false,
      "metar_trigger": false,
      "taf_trigger": false,
      "metar": "METAR ENAL 241320Z 15011KT CAVOK M00/M10 Q1014",
      "taf": "TAF ENAL 241100Z 2412/2421 14009KT 9999 FEW040"
    },
    {
      "icao": "ENBR",
      "alert": "OK",
      "vis_m": 9999,
      "fzfg": false,
      "metar_trigger": false,
      "taf_trigger": false,
      "metar": "METAR ENBR 241320Z 00000KT CAVOK 00/M10 Q1014 NOSIG RMK WIND 1200FT 13004KT",
      "taf": "TAF ENBR 241100Z 2412/2512 08003KT 9999 FEW040"
    },
    {
      "icao": "ENGM",
      "alert": "OK",
      "vis_m": 9999,
      "fzfg": false,
      "metar_trigger": false,
      "taf_trigger": false,
      "metar": "METAR ENGM 241320Z 03006KT 9999 -SN BKN015 M06/M08 Q1018 NOSIG",
      "taf": "TAF ENGM 241100Z 2412/2512 04008KT 9999 -SN FEW015 OVC035"
    },
    {
      "icao": "ENHD",
      "alert": "OK",
      "vis_m": 9999,
      "fzfg": false,
      "metar_trigger": false,
      "taf_trigger": false,
      "metar": "METAR ENHD 241320Z /////KT CAVOK 00/M11 Q1014 RMK WIND RWY 31 10012KT",
      "taf": "TAF ENHD 241100Z 2412/2421 10008KT CAVOK"
    },
    {
      "icao": "ENTC",
      "alert": "OK",
      "vis_m": 9999,
      "fzfg": false,
      "metar_trigger": false,
      "taf_trigger": false,
      "metar": "METAR ENTC 241320Z 21008KT 9999 VCSH FEW019 SCT024 BKN037 M05/M06 Q1018 TEMPO BKN009 RMK WIND 2600FT 30015KT",
      "taf": ""
    },
    {
      "icao": "ENTO",
      "alert": "OK",
      "vis_m": 9999,
      "fzfg": false,
      "metar_trigger": false,
      "taf_trigger": false,
      "metar": "METAR ENTO 241320Z 02006KT 9999 -SN BKN010 M04/M05 Q1017 NOSIG",
      "taf": "TAF ENTO 241100Z 2412/2512 04010KT 9999 -SN OVC020"
    },
    {
      "icao": "ENVA",
      "alert": "OK",
      "vis_m": 9999,
      "fzfg": false,
      "metar_trigger": false,
      "taf_trigger": false,
      "metar": "METAR ENVA 241320Z 10004KT 9999 SCT053 M04/M12 Q1017 NOSIG RMK WIND 670FT 15010KT",
      "taf": "TAF ENVA 241100Z 2412/2512 09008KT CAVOK"
    },
    {
      "icao": "ENZV",
      "alert": "OK",
      "vis_m": 9999,
      "fzfg": false,
      "metar_trigger": false,
      "taf_trigger": false,
      "metar": "METAR ENZV 241320Z 10012KT CAVOK 00/M11 Q1014 NOSIG",
      "taf": "TAF ENZV 241100Z 2412/2512 10012KT CAVOK"
    },
    {
      "icao": "EPGD",
      "alert": "OK",
      "vis_m": 9999,
      "fzfg": false,
      "metar_trigger": false,
      "taf_trigger": false,
      "metar": "METAR EPGD 241330Z 08009KT 9999 BKN045 M06/M09 Q1013",
      "taf": "TAF EPGD 241130Z 2412/2512 09010KT 9999 BKN035"
    },
    {
      "icao": "EPKK",
      "alert": "OK",
      "vis_m": 4000,
      "fzfg": false,
      "metar_trigger": false,
      "taf_trigger": false,
      "metar": "METAR EPKK 241330Z 05008KT 4000 BR OVC007 M01/M03 Q1007",
      "taf": "TAF EPKK 241130Z 2412/2512 06008KT 4000 BR OVC006"
    },
    {
      "icao": "EPKT",
      "alert": "OK",
      "vis_m": 5000,
      "fzfg": false,
      "metar_trigger": false,
      "taf_trigger": false,
      "metar": "METAR EPKT 241330Z 06006KT 5000 -SN BR OVC007 M01/M03 Q1006",
      "taf": "TAF EPKT 241130Z 2412/2512 09006KT 6000 BKN006"
    },
    {
      "icao": "EPLB",
      "alert": "OK",
      "vis_m": 3800,
      "fzfg": false,
      "metar_trigger": false,
      "taf_trigger": false,
      "metar": "METAR EPLB 241330Z 07010KT 3800 -SN BR FEW009 OVC021 M05/M06 Q1011",
      "taf": ""
    },
    {
      "icao": "EPMO",
      "alert": "OK",
      "vis_m": 8000,
      "fzfg": false,
      "metar_trigger": false,
      "taf_trigger": false,
      "metar": "METAR EPMO 241330Z 07012KT 8000 BKN021 M05/M08 Q1012",
      "taf": "TAF EPMO 241130Z 2412/2512 08013KT 9000 BKN016 BKN047"
    },
    {
      "icao": "EPPO",
      "alert": "OK",
      "vis_m": 7000,
      "fzfg": false,
      "metar_trigger": false,
      "taf_trigger": false,
      "metar": "METAR EPPO 241330Z 09011KT 7000 OVC011 M04/M07 Q1010",
      "taf": "TAF EPPO 241130Z 2412/2512 08009KT 9000 OVC012"
    },
    {
      "icao": "EPRA",
      "alert": "OK",
      "vis_m": 9000,
      "fzfg": false,
      "metar_trigger": false,
      "taf_trigger": false,
      "metar": "METAR EPRA 241330Z 06011KT 9000 OVC012 M05/M08 Q1010",
      "taf": ""
    },
    {
      "icao": "EPRZ",
      "alert": "OK",
      "vis_m": 5000,
      "fzfg": false,
      "metar_trigger": false,
      "taf_trigger": false,
      "metar": "METAR EPRZ 241330Z 07009KT 5000 BR OVC004 M01/M02 Q1008",
      "taf": "TAF EPRZ 241130Z 2412/2512 09008KT 6000 OVC006"
    },
    {
      "icao": "EPSC",
      "alert": "OK",
      "vis_m": 8000,
      "fzfg": false,
      "metar_trigger": false,
      "taf_trigger": false,
      "metar": "METAR EPSC 241330Z 07007KT 030V090 8000 OVC011 M03/M06 Q1010",
      "taf": "TAF EPSC 241130Z 2412/2512 08010KT 8000 OVC011"
    },
    {
      "icao": "EPSY",
      "alert": "OK",
      "vis_m": 9999,
      "fzfg": false,
      "metar_trigger": false,
      "taf_trigger": false,
      "metar": "METAR EPSY 241330Z 09007KT 050V130 9999 OVC037 M07/M10 Q1014",
      "taf": "TAF EPSY 241130Z 2412/2421 09008KT 8000 BKN040"
    },
    {
      "icao": "EPWA",
      "alert": "OK",
      "vis_m": 9000,
      "fzfg": false,
      "metar_trigger": false,
      "taf_trigger": false,
      "metar": "METAR EPWA 241330Z 08010KT 9000 BKN015 M05/M08 Q1012 TEMPO BKN014",
      "taf": "TAF EPWA 241130Z 2412/2512 08010KT 9999 BKN015"
    },
    {
      "icao": "EPWR",
      "alert": "OK",
      "vis_m": 4000,
      "fzfg": false,
      "metar_trigger": false,
      "taf_trigger": false,
      "metar": "METAR EPWR 241330Z 07006KT 4000 -SG BR OVC008 M01/M03 Q1008",
      "taf": "TAF EPWR 241130Z 2412/2512 10007KT 4500 -SN BR OVC006"
    },
    {
      "icao": "ESGG",
      "alert": "OK",
      "vis_m": 7000,
      "fzfg": false,
      "metar_trigger": false,
      "taf_trigger": false,
      "metar": "METAR ESGG 241320Z 08007KT 050V120 7000 -SN FEW016 BKN051 M03/M05 Q1015",
      "taf": ""
    },
    {
      "icao": "ESKN",
      "alert": "OK",
      "vis_m": 9999,
      "fzfg": false,
      "metar_trigger": false,
      "taf_trigger": false,
      "metar": "METAR ESKN 241320Z 11008KT 9999 -SN BKN023 M02/M05 Q1020",
      "taf": "TAF ESKN 241130Z 2412/2512 10010KT 9999 BKN025"
    },
    {
      "icao": "ESMS",
      "alert": "OK",
      "vis_m": 9999,
      "fzfg": false,
      "metar_trigger": false,
      "taf_trigger": false,
      "metar": "METAR ESMS 241320Z 09016KT 9999 OVC015 00/M03 Q1012",
      "taf": "TAF ESMS 241127Z 2412/2512 09012KT 9999 OVC025"
    },
    {
      "icao": "ESSA",
      "alert": "OK",
      "vis_m": 8000,
      "fzfg": false,
      "metar_trigger": false,
      "taf_trigger": false,
      "metar": "METAR ESSA 241320Z 09006KT 8000 -SN FEW022 OVC037 M03/M06 Q1021 NOSIG",
      "taf": "TAF ESSA 241130Z 2412/2512 09009KT 9999 BKN030"
    },
    {
      "icao": "EYKA",
      "alert": "OK",
      "vis_m": 9000,
      "fzfg": false,
      "metar_trigger": false,
      "taf_trigger": false,
      "metar": "METAR EYKA 241350Z 09011KT 9000 BKN038 M09/M13 Q1019",
      "taf": ""
    },
    {
      "icao": "EYPA",
      "alert": "OK",
      "vis_m": 9999,
      "fzfg": false,
      "metar_trigger": false,
      "taf_trigger": false,
      "metar": "METAR EYPA 241350Z 09008KT 060V120 CAVOK M08/M14 Q1019",
      "taf": "TAF EYPA 240500Z 2406/2506 09012KT 9000 SCT030"
    },
    {
      "icao": "EYVI",
      "alert": "OK",
      "vis_m": 9999,
      "fzfg": false,
      "metar_trigger": false,
      "taf_trigger": false,
      "metar": "METAR EYVI 241350Z 08007KT 060V130 9999 FEW037 M10/M14 Q1019 NOSIG",
      "taf": "TAF EYVI 241102Z 2412/2512 09009KT 9000 BKN020"
    },
    {
      "icao": "GCFV",
      "alert": "OK",
      "vis_m": 9999,
      "fzfg": false,
      "metar_trigger": false,
      "taf_trigger": false,
      "metar": "METAR GCFV 241330Z 36014KT 9999 FEW030 SCT040 21/08 Q1025",
      "taf": "TAF GCFV 240800Z 2409/2509 02015KT 9999 SCT040 TX21/2414Z TN14/2506Z"
    },
    {
      "icao": "GCLP",
      "alert": "OK",
      "vis_m": 9999,
      "fzfg": false,
      "metar_trigger": false,
      "taf_trigger": false,
      "metar": "METAR GCLP 241330Z 03021KT 9999 FEW040 20/10 Q1026 NOSIG",
      "taf": "TAF GCLP 240800Z 2409/2509 02018KT 9999 SCT040 TX20/2414Z TN14/2506Z"
    },
    {
      "icao": "GCTS",
      "alert": "OK",
      "vis_m": 9999,
      "fzfg": false,
      "metar_trigger": false,
      "taf_trigger": false,
      "metar": "METAR GCTS 241330Z 10015KT 070V130 9999 SCT040 20/08 Q1026 NOSIG",
      "taf": "TAF GCTS 240800Z 2409/2509 32005KT 9999 SCT035 TX22/2414Z TN15/2506Z"
    },
    {
      "icao": "GMAD",
      "alert": "OK",
      "vis_m": 9999,
      "fzfg": false,
      "metar_trigger": false,
      "taf_trigger": false,
      "metar": "METAR GMAD 241330Z 30016KT 9999 SCT016 18/08 Q1021 NOSIG",
      "taf": "TAF GMAD 241100Z 2412/2518 28015KT 8000 SCT016"
    },
    {
      "icao": "GMMN",
      "alert": "OK",
      "vis_m": 9999,
      "fzfg": false,
      "metar_trigger": false,
      "taf_trigger": false,
      "metar": "SPECI GMMN 241345Z 29021KT 9999 BKN020TCU SCT030CB 11/08 Q1018 RERA TEMPO 2000 SHRA",
      "taf": "TAF GMMN 241100Z 2412/2518 30018KT 9999 BKN020TCU"
    },
    {
      "icao": "GMMX",
      "alert": "OK",
      "vis_m": 8000,
      "fzfg": false,
      "metar_trigger": false,
      "taf_trigger": false,
      "metar": "METAR GMMX 241330Z 26013KT 8000 SCT010 BKN020 12/09 Q1021 TEMPO 3000 RA",
      "taf": "TAF GMMX 241100Z 2412/2518 24010KT 8000 SCT023"
    },
    {
      "icao": "HEGN",
      "alert": "OK",
      "vis_m": 4000,
      "fzfg": false,
      "metar_trigger": false,
      "taf_trigger": false,
      "metar": "METAR HEGN 241300Z 35013KT 4000 SA NSC 23/01 Q1016 NOSIG",
      "taf": "TAF HEGN 241100Z 2412/2518 33012G25KT 6000 NSC"
    },
    {
      "icao": "HEMA",
      "alert": "OK",
      "vis_m": 9999,
      "fzfg": false,
      "metar_trigger": false,
      "taf_trigger": false,
      "metar": "METAR HEMA 241300Z 35018KT CAVOK 23/05 Q1015 NOSIG",
      "taf": "TAF HEMA 241110Z 2412/2518 35012G22KT 6000 NSC"
    },
    {
      "icao": "HESH",
      "alert": "OK",
      "vis_m": 9999,
      "fzfg": false,
      "metar_trigger": false,
      "taf_trigger": false,
      "metar": "METAR HESH 241300Z 02010KT CAVOK 23/04 Q1015 NOSIG",
      "taf": "TAF HESH 241100Z 2412/2518 01015KT 6000 NSC"
    },
    {
      "icao": "HESX",
      "alert": "OK",
      "vis_m": 9999,
      "fzfg": false,
      "metar_trigger": false,
      "taf_trigger": false,
      "metar": "METAR HESX 241300Z 28012KT CAVOK 20/M00 Q1016 NOSIG",
      "taf": "TAF HESX 241110Z 2412/2518 25015KT CAVOK"
    },
    {
      "icao": "LATI",
      "alert": "OK",
      "vis_m": 7000,
      "fzfg": false,
      "metar_trigger": false,
      "taf_trigger": false,
      "metar": "METAR LATI 241350Z VRB02KT 7000 -RA FEW009 OVC049 11/08 Q1010 NOSIG",
      "taf": "TAF LATI 241100Z 2412/2512 16012KT 9999 SCT040 BKN080 TX15/2412Z TN07/2505Z"
    },
    {
      "icao": "LBPD",
      "alert": "OK",
      "vis_m": 3700,
      "fzfg": false,
      "metar_trigger": false,
      "taf_trigger": false,
      "metar": "METAR LBPD 241330Z AUTO 30004KT 3700 BR OVC004/// 02/02 Q1014 NOSIG",
      "taf": "TAF LBPD 241100Z 2412/2512 VRB03KT 3000 BR BKN005"
    },
    {
      "icao": "LBSF",
      "alert": "OK",
      "vis_m": 5000,
      "fzfg": false,
      "metar_trigger": false,
      "taf_trigger": false,
      "metar": "METAR LBSF 241330Z 11003KT 060V150 5000 BR OVC004 00/00 Q1012 NOSIG",
      "taf": "TAF LBSF 241100Z 2412/2512 VRB03KT 5000 BR BKN005"
    },
    {
      "icao": "LBWN",
      "alert": "OK",
      "vis_m": 9999,
      "fzfg": false,
      "metar_trigger": false,
      "taf_trigger": false,
      "metar": "METAR LBWN 241330Z 13008KT 9999 OVC007 04/04 Q1014 NOSIG",
      "taf": "TAF LBWN 241100Z 2412/2512 12008KT 7000 BKN007 OVC010"
    },
    {
      "icao": "LCLK",
      "alert": "OK",
      "vis_m": 9999,
      "fzfg": false,
      "metar_trigger": false,
      "taf_trigger": false,
      "metar": "METAR LCLK 241330Z 35011KT 9999 BKN011 FEW025TCU SCT040 14/12 Q1017 NOSIG",
      "taf": ""
    },
    {
      "icao": "LCPH",
      "alert": "OK",
      "vis_m": 9999,
      "fzfg": false,
      "metar_trigger": false,
      "taf_trigger": false,
      "metar": "METAR LCPH 241330Z 16004KT 9999 FEW025 FEW030TCU SCT050 17/12 Q1016 NOSIG",
      "taf": "TAF LCPH 241130Z 2412/2512 29010KT 9999 FEW020 SCT050"
    },
    {
      "icao": "LEAL",
      "alert": "OK",
      "vis_m": 9999,
      "fzfg": false,
      "metar_trigger": false,
      "taf_trigger": false,
      "metar": "METAR LEAL 241330Z 28018G28KT 250V320 9999 FEW025 15/M02 Q1004 NOSIG",
      "taf": "TAF LEAL 241100Z 2412/2512 28018KT CAVOK TX14/2413Z TN09/2506Z"
    },
    {
      "icao": "LEBB",
      "alert": "OK",
      "vis_m": 9999,
      "fzfg": false,
      "metar_trigger": false,
      "taf_trigger": false,
      "metar": "METAR LEBB 241330Z 23007KT 190V280 9999 BKN060 13/01 Q1000 NOSIG",
      "taf": "TAF LEBB 241100Z 2412/2512 20009KT 9999 FEW040 TX11/2413Z TN07/2423Z"
    },
    {
      "icao": "LEBL",
      "alert": "OK",
      "vis_m": 6000,
      "fzfg": false,
      "metar_trigger": false,
      "taf_trigger": false,
      "metar": "METAR LEBL 241330Z 25013KT 6000 -RA FEW016 BKN022 OVC030 05/04 Q0994 NOSIG",
      "taf": "TAF LEBL 241100Z 2412/2512 30012KT 9999 BKN030 OVC040 TX11/2412Z TN07/2506Z"
    },
    {
      "icao": "LECH",
      "alert": "OK",
      "vis_m": 9999,
      "fzfg": false,
      "metar_trigger": false,
      "taf_trigger": false,
      "metar": "METAR LECH 241330Z AUTO 27016G27KT 240V330 CAVOK 10/M03 Q0998",
      "taf": ""
    },
    {
      "icao": "LEMD",
      "alert": "OK",
      "vis_m": 9999,
      "fzfg": false,
      "metar_trigger": false,
      "taf_trigger": false,
      "metar": "METAR LEMD 241330Z 26011G25KT 9999 SCT035 SCT045 06/00 Q1004 NOSIG",
      "taf": "TAF LEMD 241100Z 2412/2518 23010KT 9999 FEW030 TX07/2414Z TN02/2504Z"
    },
    {
      "icao": "LEMG",
      "alert": "OK",
      "vis_m": 9999,
      "fzfg": false,
      "metar_trigger": false,
      "taf_trigger": false,
      "metar": "METAR LEMG 241330Z 30012KT 260V340 9999 FEW055 12/04 Q1010 NOSIG",
      "taf": "TAF LEMG 241100Z 2412/2512 31012KT 9999 SCT050 TX14/2414Z TN10/2507Z"
    },
    {
      "icao": "LEVC",
      "alert": "OK",
      "vis_m": 9999,
      "fzfg": false,
      "metar_trigger": false,
      "taf_trigger": false,
      "metar": "METAR LEVC 241330Z 28024G35KT 9999 FEW057 11/M01 Q1002 NOSIG",
      "taf": ""
    },
    {
      "icao": "LEXJ",
      "alert": "OK",
      "vis_m": 9999,
      "fzfg": false,
      "metar_trigger": false,
      "taf_trigger": false,
      "metar": "METAR LEXJ 241330Z 28019G29KT 260V320 9999 FEW040 BKN050 12/02 Q1001",
      "taf": "TAF LEXJ 240800Z 2409/2509 24009KT 9999 SCT040 TX12/2414Z TN07/2409Z"
    },
    {
      "icao": "LEZG",
      "alert": "OK",
      "vis_m": 9999,
      "fzfg": false,
      "metar_trigger": false,
      "taf_trigger": false,
      "metar": "METAR LEZG 241330Z 29016KT 9999 FEW040 09/02 Q1000 NOSIG",
      "taf": "TAF LEZG 241100Z 2412/2512 28010KT 9999 FEW055 TX10/2415Z TN06/2506Z"
    },
    {
      "icao": "LEZL",
      "alert": "OK",
      "vis_m": 9999,
      "fzfg": false,
      "metar_trigger": false,
      "taf_trigger": false,
      "metar": "METAR LEZL 241330Z 27007KT 230V320 9999 FEW025 12/06 Q1012 NOSIG",
      "taf": "TAF LEZL 240800Z 2409/2509 VRB03KT 9999 FEW040 TX15/2415Z TN09/2507Z"
    },
    {
      "icao": "LFBD",
      "alert": "OK",
      "vis_m": 9999,
      "fzfg": false,
      "metar_trigger": false,
      "taf_trigger": false,
      "metar": "METAR LFBD 241330Z AUTO 23010KT 9999 4700 FEW034/// SCT056/// ///TCU 10/06 Q0998 TEMPO 24015G25KT 4000 SHRA BKN020TCU SCT025CB",
      "taf": "TAF LFBD 241100Z 2412/2518 23008KT CAVOK TX10/2412Z TN05/2505Z"
    },
    {
      "icao": "LFLL",
      "alert": "OK",
      "vis_m": 400,
      "fzfg": false,
      "metar_trigger": false,
      "taf_trigger": false,
      "metar": "METAR LFLL 241330Z VRB03KT 0400 R35L/0650D R17R/0600U R35R/0700D R17L/0600N FG VV/// 02/02 Q0999 NOSIG",
      "taf": ""
    },
    {
      "icao": "LFLS",
      "alert": "OK",
      "vis_m": 9999,
      "fzfg": false,
      "metar_trigger": false,
      "taf_trigger": false,
      "metar": "METAR LFLS 241330Z AUTO 09008KT CAVOK 06/02 Q0998 NOSIG",
      "taf": "TAF LFLS 240800Z 2409/2509 10005KT CAVOK"
    },
    {
      "icao": "LFMN",
      "alert": "OK",
      "vis_m": 9999,
      "fzfg": false,
      "metar_trigger": false,
      "taf_trigger": false,
      "metar": "METAR LFMN 241330Z 03006KT 9999 SCT046 OVC150 11/07 Q0999 BECMG 09012KT",
      "taf": "TAF LFMN 240800Z 2409/2515 33010KT 9999 BKN033"
    },
    {
      "icao": "LFOB",
      "alert": "OK",
      "vis_m": 9999,
      "fzfg": false,
      "metar_trigger": false,
      "taf_trigger": false,
      "metar": "METAR LFOB 241330Z AUTO 13010KT CAVOK 09/05 Q0997 NOSIG",
      "taf": "TAF LFOB 241100Z 2412/2512 12010KT CAVOK"
    },
    {
      "icao": "LFPO",
      "alert": "OK",
      "vis_m": 9999,
      "fzfg": false,
      "metar_trigger": false,
      "taf_trigger": false,
      "metar": "METAR LFPO 241330Z 12006KT 090V170 CAVOK 09/04 Q0997 NOSIG",
      "taf": "TAF LFPO 241100Z 2412/2518 16006KT CAVOK"
    },
    {
      "icao": "LFSB",
      "alert": "OK",
      "vis_m": 9999,
      "fzfg": false,
      "metar_trigger": false,
      "taf_trigger": false,
      "metar": "METAR LFSB 241330Z AUTO 36005KT 340V040 9999 BKN017 OVC022 04/02 Q1000 TEMPO FEW009 BKN014",
      "taf": ""
    },
    {
      "icao": "LGAV",
      "alert": "OK",
      "vis_m": 9999,
      "fzfg": false,
      "metar_trigger": false,
      "taf_trigger": false,
      "metar": "METAR LGAV 241320Z 17004KT 130V220 9999 SCT020 17/10 Q1013 NOSIG",
      "taf": "TAF LGAV 241100Z 2412/2512 VRB05KT 9999 SCT020 BKN060"
    },
    {
      "icao": "LGTS",
      "alert": "OK",
      "vis_m": 8000,
      "fzfg": false,
      "metar_trigger": false,
      "taf_trigger": false,
      "metar": "METAR LGTS 241320Z VRB03KT 8000 FEW008 BKN025 11/07 Q1013 NOSIG",
      "taf": "TAF LGTS 241100Z 2412/2512 VRB03KT 9999 BKN030"
    },
    {
      "icao": "LHBP",
      "alert": "OK",
      "vis_m": 5000,
      "fzfg": false,
      "metar_trigger": false,
      "taf_trigger": false,
      "metar": "METAR LHBP 241330Z 09005KT 5000 BR NSC 03/01 Q1006 NOSIG",
      "taf": "TAF LHBP 241115Z 2412/2512 07006KT 6000 SCT008 BKN050"
    },
    {
      "icao": "LHDC",
      "alert": "OK",
      "vis_m": 9999,
      "fzfg": false,
      "metar_trigger": false,
      "taf_trigger": false,
      "metar": "METAR LHDC 241315Z AUTO 21004KT CAVOK 07/03 Q1008 NOSIG",
      "taf": "TAF LHDC 241115Z 2412/2421 08006KT 6000 NSC"
    },
    {
      "icao": "LIBD",
      "alert": "OK",
      "vis_m": 9999,
      "fzfg": false,
      "metar_trigger": false,
      "taf_trigger": false,
      "metar": "METAR LIBD 241320Z 18007KT CAVOK 16/08 Q1005",
      "taf": "TAF LIBD 241100Z 2412/2512 16010KT 9999 SCT030"
    },
    {
      "icao": "LIBG",
      "alert": "OK",
      "vis_m": 9999,
      "fzfg": false,
      "metar_trigger": false,
      "taf_trigger": false,
      "metar": "METAR LIBG 241250Z 19007KT CAVOK 16/10 Q1006",
      "taf": "TAF LIBG 241100Z 2412/2421 17008KT 9999 FEW030"
    },
    {
      "icao": "LIBP",
      "alert": "OK",
      "vis_m": 9999,
      "fzfg": false,
      "metar_trigger": false,
      "taf_trigger": false,
      "metar": "METAR LIBP 241320Z AUTO 07008KT 9999 NCD 13/09 Q1002",
      "taf": "TAF LIBP 241100Z 2412/2512 VRB05KT 9999 SCT040"
    },
    {
      "icao": "LIBR",
      "alert": "OK",
      "vis_m": 9999,
      "fzfg": false,
      "metar_trigger": false,
      "taf_trigger": false,
      "metar": "METAR LIBR 241320Z 20016KT 9999 FEW020 16/11 Q1007",
      "taf": "TAF LIBR 241100Z 2412/2512 17013KT 9999 SCT020"
    },
    {
      "icao": "LICA",
      "alert": "OK",
      "vis_m": 9999,
      "fzfg": false,
      "metar_trigger": false,
      "taf_trigger": false,
      "metar": "METAR LICA 241320Z AUTO VRB02KT 9999 NCD 20/07 Q1007",
      "taf": "TAF LICA 241100Z 2412/2512 07010KT 9999 SCT020"
    },
    {
      "icao": "LICC",
      "alert": "OK",
      "vis_m": 9999,
      "fzfg": false,
      "metar_trigger": false,
      "taf_trigger": false,
      "metar": "METAR LICC 241320Z 25008KT 9999 SCT040 18/16 Q1008",
      "taf": "TAF LICC 241100Z 2412/2512 VRB06KT 9999 SCT030"
    },
    {
      "icao": "LICJ",
      "alert": "OK",
      "vis_m": 9999,
      "fzfg": false,
      "metar_trigger": false,
      "taf_trigger": false,
      "metar": "METAR LICJ 241320Z 19012KT CAVOK 18/10 Q1004",
      "taf": "TAF LICJ 241100Z 2412/2512 22012KT 9999 SCT030"
    },
    {
      "icao": "LIMC",
      "alert": "OK",
      "vis_m": 8000,
      "fzfg": false,
      "metar_trigger": false,
      "taf_trigger": false,
      "metar": "METAR LIMC 241320Z 25006KT 220V280 8000 -RA SCT004 BKN035 06/05 Q1002 NOSIG",
      "taf": "TAF LIMC 241100Z 2412/2518 VRB04KT 6000 SCT040"
    },
    {
      "icao": "LIME",
      "alert": "OK",
      "vis_m": 8000,
      "fzfg": false,
      "metar_trigger": false,
      "taf_trigger": false,
      "metar": "METAR LIME 241320Z 19005KT 150V230 8000 BKN006 06/05 Q1002 NOSIG",
      "taf": ""
    },
    {
      "icao": "LIMF",
      "alert": "OK",
      "vis_m": 7000,
      "fzfg": false,
      "metar_trigger": false,
      "taf_trigger": false,
      "metar": "METAR LIMF 241320Z 21003KT 170V230 7000 BKN030 BKN050 06/02 Q1003",
      "taf": ""
    },
    {
      "icao": "LIMJ",
      "alert": "OK",
      "vis_m": 9000,
      "fzfg": false,
      "metar_trigger": false,
      "taf_trigger": false,
      "metar": "METAR LIMJ 241320Z 03015KT 9000 BKN044 07/02 Q1001",
      "taf": ""
    },
    {
      "icao": "LIPE",
      "alert": "OK",
      "vis_m": 8000,
      "fzfg": false,
      "metar_trigger": false,
      "taf_trigger": false,
      "metar": "METAR LIPE 241320Z 27008KT 8000 BKN008 SCT014 06/04 Q1003",
      "taf": "TAF LIPE 241100Z 2412/2512 VRB05KT 3000 -RA BR BKN006"
    },
    {
      "icao": "LIPH",
      "alert": "OK",
      "vis_m": 9999,
      "fzfg": false,
      "metar_trigger": false,
      "taf_trigger": false,
      "metar": "METAR LIPH 241320Z 05008KT 9999 BKN010 09/08 Q1002",
      "taf": "TAF LIPH 241100Z 2412/2512 VRB05KT 7000 BKN040"
    },
    {
      "icao": "LIPQ",
      "alert": "OK",
      "vis_m": 9999,
      "fzfg": false,
      "metar_trigger": false,
      "taf_trigger": false,
      "metar": "METAR LIPQ 241320Z AUTO 07004KT 040V100 9999 -RA OVC030/// 09/09 Q1003 RERA",
      "taf": "TAF LIPQ 241100Z 2412/2512 10006KT 9999 BKN015"
    },
    {
      "icao": "LIPR",
      "alert": "OK",
      "vis_m": 8000,
      "fzfg": false,
      "metar_trigger": false,
      "taf_trigger": false,
      "metar": "METAR LIPR 241320Z 31008KT 8000 SCT010 BKN030 07/06 Q1003",
      "taf": "TAF LIPR 241100Z 2412/2512 30010KT 6000 BKN010"
    },
    {
      "icao": "LIPX",
      "alert": "OK",
      "vis_m": 9999,
      "fzfg": false,
      "metar_trigger": false,
      "taf_trigger": false,
      "metar": "METAR LIPX 241320Z 24005KT 210V270 9999 FEW007 BKN070 07/06 Q1002",
      "taf": ""
    },
    {
      "icao": "LIPY",
      "alert": "OK",
      "vis_m": 9999,
      "fzfg": false,
      "metar_trigger": false,
      "taf_trigger": false,
      "metar": "METAR LIPY 241320Z AUTO 34009KT 9999 OVC003/// 08/08 Q1003",
      "taf": ""
    },
    {
      "icao": "LIPZ",
      "alert": "OK",
      "vis_m": 7000,
      "fzfg": false,
      "metar_trigger": false,
      "taf_trigger": false,
      "metar": "METAR LIPZ 241320Z 05006KT 7000 BKN004 08/08 Q1002 NOSIG",
      "taf": ""
    },
    {
      "icao": "LIRF",
      "alert": "OK",
      "vis_m": 9999,
      "fzfg": false,
      "metar_trigger": false,
      "taf_trigger": false,
      "metar": "METAR LIRF 241320Z 18007KT 9999 SCT020 16/12 Q1002 NOSIG",
      "taf": "TAF LIRF 241100Z 2412/2518 18012KT 9999 SCT030"
    },
    {
      "icao": "LIRN",
      "alert": "OK",
      "vis_m": 9999,
      "fzfg": false,
      "metar_trigger": false,
      "taf_trigger": false,
      "metar": "METAR LIRN 241320Z 21011KT 9999 FEW010 BKN030 15/12 Q1005 NOSIG",
      "taf": "TAF LIRN 241100Z 2412/2512 19013KT 9999 SCT030"
    },
    {
      "icao": "LIRP",
      "alert": "OK",
      "vis_m": 9999,
      "fzfg": false,
      "metar_trigger": false,
      "taf_trigger": false,
      "metar": "METAR LIRP 241315Z 10009KT 9999 SCT020 SCT040 12/11 Q1000 NOSIG",
      "taf": "TAF LIRP 241100Z 2412/2512 11008KT 9999 FEW020 SCT050"
    },
    {
      "icao": "LIRZ",
      "alert": "OK",
      "vis_m": 9999,
      "fzfg": false,
      "metar_trigger": false,
      "taf_trigger": false,
      "metar": "METAR LIRZ 241320Z AUTO 16006KT 140V200 9999 BKN023/// 14/09 Q1002",
      "taf": "TAF LIRZ 241100Z 2412/2512 VRB05KT 9999 BKN030"
    },
    {
      "icao": "LJLJ",
      "alert": "OK",
      "vis_m": 1500,
      "fzfg": false,
      "metar_trigger": false,
      "taf_trigger": false,
      "metar": "METAR LJLJ 241330Z 06002KT 1500 R30/P2000D -RA BR BKN002 OVC037 03/03 Q1003 NOSIG",
      "taf": "TAF LJLJ 241100Z 2412/2512 VRB02KT 3000 RA BR SCT003 OVC033"
    },
    {
      "icao": "LKMT",
      "alert": "OK",
      "vis_m": 1000,
      "fzfg": false,
      "metar_trigger": false,
      "taf_trigger": false,
      "metar": "METAR LKMT 241330Z 05004KT 1000 R22/1500N R04/1400N -FZDZ BR OVC003 M01/M01 Q1006 NOSIG",
      "taf": ""
    },
    {
      "icao": "LKPR",
      "alert": "OK",
      "vis_m": 3500,
      "fzfg": false,
      "metar_trigger": false,
      "taf_trigger": false,
      "metar": "METAR LKPR 241330Z VRB02KT 3500 BR FEW006 OVC013 M03/M04 Q1004 NOSIG",
      "taf": "TAF LKPR 241100Z 2412/2518 VRB02KT 6000 SCT006 OVC012"
    },
    {
      "icao": "LLBG",
      "alert": "OK",
      "vis_m": 9000,
      "fzfg": false,
      "metar_trigger": false,
      "taf_trigger": false,
      "metar": "METAR LLBG 241350Z 26007KT 9000 FEW035 18/08 Q1017 NOSIG",
      "taf": "TAF LLBG 241108Z 2412/2512 26012KT 8000 FEW045"
    },
    {
      "icao": "LMML",
      "alert": "OK",
      "vis_m": 9999,
      "fzfg": false,
      "metar_trigger": false,
      "taf_trigger": false,
      "metar": "METAR LMML 241345Z 17013KT CAVOK 18/14 Q1008 NOSIG",
      "taf": "TAF LMML 241100Z 2412/2512 19012KT 9999 FEW018"
    },
    {
      "icao": "LOWW",
      "alert": "OK",
      "vis_m": 4700,
      "fzfg": false,
      "metar_trigger": false,
      "taf_trigger": false,
      "metar": "METAR LOWW 241320Z VRB02KT 4700 BR SCT006 BKN009 M01/M02 Q1005 TEMPO 2500 BR BKN004",
      "taf": "TAF LOWW 241115Z 2412/2518 VRB04KT 3000 BR FEW003 OVC005 TX02/2514Z TNM01/2412Z"
    },
    {
      "icao": "LPFR",
      "alert": "OK",
      "vis_m": 9999,
      "fzfg": false,
      "metar_trigger": false,
      "taf_trigger": false,
      "metar": "METAR LPFR 241330Z 31012KT 9999 FEW030 13/06 Q1013",
      "taf": "TAF LPFR 241100Z 2412/2512 01008KT 9999 SCT020"
    },
    {
      "icao": "LPMA",
      "alert": "OK",
      "vis_m": 9999,
      "fzfg": false,
      "metar_trigger": false,
      "taf_trigger": false,
      "metar": "METAR LPMA 241330Z 33009KT 290V040 9999 FEW015 19/08 Q1026",
      "taf": "TAF LPMA 241100Z 2412/2512 36010KT 9999 SCT015"
    },
    {
      "icao": "LPPR",
      "alert": "OK",
      "vis_m": 5000,
      "fzfg": false,
      "metar_trigger": false,
      "taf_trigger": false,
      "metar": "METAR LPPR 241330Z 34008KT 5000 -SHRA FEW007 SCT015 FEW018CB BKN040 10/08 Q1009 RESHRA",
      "taf": "TAF LPPR 241100Z 2412/2512 17010KT 9999 SCT025 SCT045"
    },
    {
      "icao": "LPPS",
      "alert": "OK",
      "vis_m": 9999,
      "fzfg": false,
      "metar_trigger": false,
      "taf_trigger": false,
      "metar": "METAR LPPS 241330Z 33014KT 9999 FEW015 17/08 Q1026",
      "taf": "TAF LPPS 241100Z 2412/2518 33013KT 9999 SCT015"
    },
    {
      "icao": "LPPT",
      "alert": "OK",
      "vis_m": 9000,
      "fzfg": false,
      "metar_trigger": false,
      "taf_trigger": false,
      "metar": "METAR LPPT 241330Z 33015G25KT 290V360 9000 -SHRA FEW012 FEW020TCU BKN028 11/08 Q1013",
      "taf": "TAF LPPT 241100Z 2412/2518 30012KT 9999 SCT020"
    },
    {
      "icao": "LQBK",
      "alert": "OK",
      "vis_m": 4500,
      "fzfg": false,
      "metar_trigger": false,
      "taf_trigger": false,
      "metar": "METAR LQBK 241330Z 29003KT 4500 BR NSC 07/03 Q1004 NOSIG",
      "taf": "TAF LQBK 241100Z 2412/2512 VRB02KT 6000 SCT040 TX07/2413Z TN02/2506Z"
    },
    {
      "icao": "LQSA",
      "alert": "OK",
      "vis_m": 9999,
      "fzfg": false,
      "metar_trigger": false,
      "taf_trigger": false,
      "metar": "METAR LQSA 241330Z 14016KT 9999 BKN050 09/03 Q1005 NOSIG",
      "taf": ""
    },
    {
      "icao": "LQTZ",
      "alert": "OK",
      "vis_m": 9999,
      "fzfg": false,
      "metar_trigger": false,
      "taf_trigger": false,
      "metar": "METAR LQTZ 241330Z 10009KT CAVOK 07/03 Q1004",
      "taf": "TAF LQTZ 241100Z 2412/2512 15006KT 6000 NSC TX13/2512Z TN03/2502Z"
    },
    {
      "icao": "LRBC",
      "alert": "OK",
      "vis_m": 1500,
      "fzfg": false,
      "metar_trigger": false,
      "taf_trigger": false,
      "metar": "METAR LRBC 241330Z 16011KT 1500 BR OVC002 M02/M03 Q1013",
      "taf": "TAF LRBC 241100Z 2412/2421 15010KT 3000 BR OVC002"
    },
    {
      "icao": "LRBS",
      "alert": "OK",
      "vis_m": 2000,
      "fzfg": false,
      "metar_trigger": false,
      "taf_trigger": false,
      "metar": "METAR LRBS 241330Z 09004KT 060V130 2000 BR OVC001 00/00 Q1014 NOSIG",
      "taf": "TAF LRBS 241100Z 2412/2512 VRB04KT 1500 BR OVC003"
    },
    {
      "icao": "LRBV",
      "alert": "OK",
      "vis_m": 9999,
      "fzfg": false,
      "metar_trigger": false,
      "taf_trigger": false,
      "metar": "METAR LRBV 241330Z VRB02KT CAVOK 06/01 Q1009",
      "taf": "TAF LRBV 241100Z 2412/2421 VRB04KT CAVOK"
    },
    {
      "icao": "LRCL",
      "alert": "OK",
      "vis_m": 8000,
      "fzfg": false,
      "metar_trigger": false,
      "taf_trigger": false,
      "metar": "METAR LRCL 241330Z 07007KT 8000 SCT068 03/00 Q1009",
      "taf": "TAF LRCL 241100Z 2412/2421 07006KT 5000 BR BKN050"
    },
    {
      "icao": "LRCV",
      "alert": "OK",
      "vis_m": 600,
      "fzfg": false,
      "metar_trigger": false,
      "taf_trigger": false,
      "metar": "METAR LRCV 241330Z 10003KT 080V140 0600 R26/1100D FG OVC002 00/00 Q1013",
      "taf": "TAF LRCV 241100Z 2412/2421 VRB04KT 0300 FG VV001"
    },
    {
      "icao": "LRIA",
      "alert": "OK",
      "vis_m": 9000,
      "fzfg": false,
      "metar_trigger": false,
      "taf_trigger": false,
      "metar": "METAR LRIA 241330Z 11012KT 9000 OVC014 M02/M04 Q1014",
      "taf": "TAF LRIA 241100Z 2412/2421 11012KT 9999 BKN015 OVC025"
    },
    {
      "icao": "LROP",
      "alert": "OK",
      "vis_m": 600,
      "fzfg": false,
      "metar_trigger": false,
      "taf_trigger": false,
      "metar": "METAR LROP 241330Z VRB02KT 0600 R08R/1300D R08L/1900D FG OVC002 00/00 Q1014 TEMPO 1500 BR",
      "taf": "TAF LROP 241100Z 2412/2512 VRB04KT 1500 BR OVC002"
    },
    {
      "icao": "LRSB",
      "alert": "OK",
      "vis_m": 9999,
      "fzfg": false,
      "metar_trigger": false,
      "taf_trigger": false,
      "metar": "METAR LRSB 241330Z 29003KT CAVOK 06/01 Q1008 NOSIG",
      "taf": "TAF LRSB 241100Z 2412/2512 VRB04KT CAVOK"
    },
    {
      "icao": "LRSM",
      "alert": "OK",
      "vis_m": 9999,
      "fzfg": false,
      "metar_trigger": false,
      "taf_trigger": false,
      "metar": "METAR LRSM 241330Z AUTO 10004KT 9999 FEW110/// BKN130/// 04/01 Q1009",
      "taf": ""
    },
    {
      "icao": "LRSV",
      "alert": "OK",
      "vis_m": 800,
      "fzfg": true,
      "metar_trigger": false,
      "taf_trigger": false,
      "metar": "METAR LRSV 241330Z 14010KT 0800 R34/1200N FZFG OVC001 M02/M03 Q1010",
      "taf": ""
    },
    {
      "icao": "LRTM",
      "alert": "OK",
      "vis_m": 9999,
      "fzfg": false,
      "metar_trigger": false,
      "taf_trigger": false,
      "metar": "METAR LRTM 241330Z VRB01KT CAVOK 06/01 Q1009",
      "taf": "TAF LRTM 241100Z 2412/2421 VRB04KT 5000 BR NSC"
    },
    {
      "icao": "LRTR",
      "alert": "OK",
      "vis_m": 9999,
      "fzfg": false,
      "metar_trigger": false,
      "taf_trigger": false,
      "metar": "METAR LRTR 241330Z 18012KT CAVOK 09/02 Q1008",
      "taf": "TAF LRTR 241100Z 2412/2512 12008KT CAVOK"
    },
    {
      "icao": "LTAC",
      "alert": "OK",
      "vis_m": 8000,
      "fzfg": false,
      "metar_trigger": false,
      "taf_trigger": false,
      "metar": "METAR LTAC 241320Z 04004KT 8000 SCT030 BKN080 07/04 Q1014 NOSIG RMK RWY21C 04003KT RWY03L 04004KT RWY21R 01003KT RWY03R VRB02KT RWY21L 03003KT",
      "taf": "TAF LTAC 241040Z 2412/2512 VRB02KT 9999 SCT040 BKN100"
    },
    {
      "icao": "LTFM",
      "alert": "OK",
      "vis_m": 9000,
      "fzfg": false,
      "metar_trigger": false,
      "taf_trigger": false,
      "metar": "METAR LTFM 241320Z 07007KT 9000 BKN006 BKN020 08/07 Q1015 NOSIG RMK RWY17L 08008KT RWY34L 06006KT RWY16R 08007KT RWY36 05008KT 010V080 RWY18 07007KT",
      "taf": "TAF LTFM 241040Z 2412/2518 06008KT 9999 BKN006 BKN020"
    },
    {
      "icao": "LUKK",
      "alert": "OK",
      "vis_m": 9000,
      "fzfg": false,
      "metar_trigger": false,
      "taf_trigger": false,
      "metar": "METAR LUKK 241330Z 10008KT 9000 BKN013 OVC028 M04/M06 Q1015 NOSIG",
      "taf": "TAF LUKK 241128Z 2412/2512 10008KT 7000 SCT008 BKN018"
    },
    {
      "icao": "LWOH",
      "alert": "OK",
      "vis_m": 9999,
      "fzfg": false,
      "metar_trigger": false,
      "taf_trigger": false,
      "metar": "METAR LWOH 241350Z 00000KT 9999 -RA FEW020 OVC040 07/04 Q1011",
      "taf": "TAF LWOH 241120Z 2412/2512 18006KT 9999 FEW020 BKN040"
    },
    {
      "icao": "LWSK",
      "alert": "OK",
      "vis_m": 5000,
      "fzfg": false,
      "metar_trigger": false,
      "taf_trigger": false,
      "metar": "METAR LWSK 241350Z VRB02KT 5000 BR FEW004 OVC020 05/03 Q1013 NOSIG",
      "taf": "TAF LWSK 241120Z 2412/2512 VRB02KT 3000 BR SCT004 OVC015"
    },
    {
      "icao": "LYBE",
      "alert": "OK",
      "vis_m": 9999,
      "fzfg": false,
      "metar_trigger": false,
      "taf_trigger": false,
      "metar": "METAR LYBE 241330Z 10008KT CAVOK 10/03 Q1006 NOSIG",
      "taf": "TAF LYBE 241100Z 2412/2512 12008KT CAVOK TX12/2512Z TN04/2506Z"
    },
    {
      "icao": "LYNI",
      "alert": "OK",
      "vis_m": 9999,
      "fzfg": false,
      "metar_trigger": false,
      "taf_trigger": false,
      "metar": "METAR LYNI 241330Z 11004KT 060V160 9999 FEW060 10/03 Q1010 NOSIG",
      "taf": "TAF LYNI 241100Z 2412/2512 15006KT 9999 SCT045 TX12/2512Z TN03/2505Z"
    },
    {
      "icao": "LYPG",
      "alert": "OK",
      "vis_m": 4000,
      "fzfg": false,
      "metar_trigger": false,
      "taf_trigger": false,
      "metar": "METAR LYPG 241330Z 17004KT 140V200 4000 -RA BR SCT005 BKN043 OVC080 10/09 Q1009 TEMPO 3000 RA",
      "taf": "TAF LYPG 241100Z 2412/2512 17005KT 8000 FEW010 BKN040 OVC070 TX11/2412Z TN07/2505Z"
    },
    {
      "icao": "LZIB",
      "alert": "OK",
      "vis_m": 1800,
      "fzfg": false,
      "metar_trigger": false,
      "taf_trigger": false,
      "metar": "METAR LZIB 241330Z 20003KT 1800 BR FEW003 SCT006 OVC008 01/00 Q1006 NOSIG",
      "taf": "TAF LZIB 241115Z 2412/2512 08005KT 3500 BR BKN006 BKN014"
    },
    {
      "icao": "LZKZ",
      "alert": "OK",
      "vis_m": 800,
      "fzfg": false,
      "metar_trigger": false,
      "taf_trigger": false,
      "metar": "METAR LZKZ 241330Z 02003KT 0800 R01/1000D -DZ FG OVC009 02/02 Q1007 NOSIG",
      "taf": ""
    },
    {
      "icao": "LZTT",
      "alert": "OK",
      "vis_m": 7000,
      "fzfg": false,
      "metar_trigger": false,
      "taf_trigger": false,
      "metar": "METAR LZTT 241330Z VRB02KT 7000 -DZ BKN005 01/00 Q1004 NOSIG",
      "taf": "TAF LZTT 241115Z 2412/2512 VRB02KT 6000 BKN006 BKN025"
    },
    {
      "icao": "OEJN",
      "alert": "OK",
      "vis_m": 8000,
      "fzfg": false,
      "metar_trigger": false,
      "taf_trigger": false,
      "metar": "METAR OEJN 241300Z 24012KT 8000 SCT040 29/21 Q1012 NOSIG",
      "taf": "TAF OEJN 241100Z 2412/2518 25012KT 7000 FEW040"
    },
    {
      "icao": "OEMA",
      "alert": "OK",
      "vis_m": 9999,
      "fzfg": false,
      "metar_trigger": false,
      "taf_trigger": false,
      "metar": "METAR OEMA 241300Z 28010KT 9999 SCT040 22/15 Q1015 RETSRA NOSIG",
      "taf": "TAF OEMA 241100Z 2412/2518 24015KT 7000 SCT045"
    },
    {
      "icao": "OJAI",
      "alert": "OK",
      "vis_m": 3000,
      "fzfg": false,
      "metar_trigger": false,
      "taf_trigger": false,
      "metar": "METAR OJAI 241300Z 30024G35KT 3000 BLDU BKN030 11/02 Q1018 NOSIG",
      "taf": ""
    },
    {
      "icao": "OMAA",
      "alert": "OK",
      "vis_m": 9999,
      "fzfg": false,
      "metar_trigger": false,
      "taf_trigger": false,
      "metar": "METAR OMAA 241330Z 33009KT CAVOK 21/10 Q1017 NOSIG",
      "taf": "TAF OMAA 241100Z 2412/2518 26005KT 8000 NSC"
    },
    {
      "icao": "OMDB",
      "alert": "OK",
      "vis_m": 9999,
      "fzfg": false,
      "metar_trigger": false,
      "taf_trigger": false,
      "metar": "METAR OMDB 241330Z 35007KT 310V020 CAVOK 21/09 Q1018 NOSIG",
      "taf": "TAF OMDB 241100Z 2412/2518 30010KT 8000 NSC"
    },
    {
      "icao": "UAAA",
      "alert": "OK",
      "vis_m": 4100,
      "fzfg": false,
      "metar_trigger": false,
      "taf_trigger": false,
      "metar": "METAR UAAA 241330Z 23004MPS 4100 BR FU SCT100 M06/M09 Q1017 NOSIG",
      "taf": "TAF UAAA 241102Z 2412/2512 06003MPS 3100 BR FU SCT050 BKN100 TXM01/2508Z TNM12/2502Z"
    },
    {
      "icao": "UBBB",
      "alert": "OK",
      "vis_m": 9999,
      "fzfg": false,
      "metar_trigger": false,
      "taf_trigger": false,
      "metar": "METAR UBBB 241330Z 05006KT 9999 BKN024 06/02 Q1016 NOSIG",
      "taf": "TAF UBBB 241055Z 2412/2512 36005KT 9999 SCT012 BKN025 TX07/2412Z TN02/2502Z"
    },
    {
      "icao": "UDSG",
      "alert": "OK",
      "vis_m": 5000,
      "fzfg": false,
      "metar_trigger": false,
      "taf_trigger": false,
      "metar": "METAR UDSG 241330Z 26001KT 5000 BR OVC033 M05/M07 Q1018 NOSIG",
      "taf": "TAF UDSG 241100Z 2412/2512 VRB06KT 2000 BR BKN020"
    },
    {
      "icao": "UDYZ",
      "alert": "OK",
      "vis_m": 2400,
      "fzfg": false,
      "metar_trigger": false,
      "taf_trigger": false,
      "metar": "METAR UDYZ 241330Z VRB01KT 2400 BR BKN046 M02/M04 Q1020 NOSIG",
      "taf": "TAF UDYZ 241100Z 2412/2512 VRB06KT 2300 BR BKN020"
    },
    {
      "icao": "UGKO",
      "alert": "OK",
      "vis_m": 9999,
      "fzfg": false,
      "metar_trigger": false,
      "taf_trigger": false,
      "metar": "METAR UGKO 241330Z VRB04KT 9999 BKN048 09/05 Q1016 NOSIG",
      "taf": "TAF UGKO 241100Z 2412/2512 09007KT 9999 BKN080 TX11/2412Z TN05/2504Z"
    }
  ]
}