{
  "ts_utc": "2026-05-16T04:02:30Z",
  "threshold_m": 150,
  "source": "stations_override.txt (ICAO list) + aviationweather.gov (METAR/TAF raw)",
  "station_count": 159,
  "stations": [
    {
      "icao": "BIKF",
      "alert": "OK",
      "vis_m": 9999,
      "fzfg": false,
      "metar_trigger": false,
      "taf_trigger": false,
      "metar": "METAR BIKF 160330Z 11026KT 9999 -RA BKN011 OVC030 07/06 Q0998",
      "taf": "TAF BIKF 160155Z 1603/1703 13026KT 9999 -RA BKN011 OVC020 TX08/1603Z TN06/1609Z"
    },
    {
      "icao": "BKPR",
      "alert": "OK",
      "vis_m": 9999,
      "fzfg": false,
      "metar_trigger": false,
      "taf_trigger": false,
      "metar": "METAR BKPR 160330Z VRB02KT 9999 BKN063 09/07 Q1006 NOSIG",
      "taf": "TAF BKPR 152330Z 1600/1624 22008KT 9999 SCT040"
    },
    {
      "icao": "EBCI",
      "alert": "OK",
      "vis_m": 9999,
      "fzfg": false,
      "metar_trigger": false,
      "taf_trigger": false,
      "metar": "METAR EBCI 160350Z 22005KT CAVOK 04/02 Q1008 NOSIG",
      "taf": "TAF EBCI 152305Z 1600/1706 25006KT 9999 FEW030"
    },
    {
      "icao": "EDDB",
      "alert": "OK",
      "vis_m": 9999,
      "fzfg": false,
      "metar_trigger": false,
      "taf_trigger": false,
      "metar": "METAR EDDB 160350Z AUTO 26005KT CAVOK 04/03 Q1004 NOSIG",
      "taf": "TAF EDDB 152300Z 1600/1624 27004KT CAVOK"
    },
    {
      "icao": "EDDH",
      "alert": "OK",
      "vis_m": 9999,
      "fzfg": false,
      "metar_trigger": false,
      "taf_trigger": false,
      "metar": "METAR EDDH 160350Z AUTO 22008KT 9999 BKN009 BKN039 06/06 Q1003 TEMPO SHRA BKN015CB",
      "taf": ""
    },
    {
      "icao": "EDDK",
      "alert": "OK",
      "vis_m": 9999,
      "fzfg": false,
      "metar_trigger": false,
      "taf_trigger": false,
      "metar": "METAR EDDK 160350Z AUTO VRB02KT 9999 BKN026 BKN035 BKN044 05/04 Q1007 NOSIG",
      "taf": "TAF EDDK 152300Z 1600/1706 VRB03KT 9999 SCT035"
    },
    {
      "icao": "EDDN",
      "alert": "OK",
      "vis_m": 5000,
      "fzfg": false,
      "metar_trigger": false,
      "taf_trigger": false,
      "metar": "METAR EDDN 160350Z AUTO VRB01KT 5000 0750 R28/1500N BCFG FEW007 00/M00 Q1005",
      "taf": "TAF EDDN 152300Z 1600/1624 30003KT CAVOK"
    },
    {
      "icao": "EDDS",
      "alert": "OK",
      "vis_m": 9999,
      "fzfg": false,
      "metar_trigger": false,
      "taf_trigger": false,
      "metar": "METAR EDDS 160350Z AUTO VRB01KT CAVOK 05/03 Q1006",
      "taf": "TAF EDDS 152300Z 1600/1624 VRB03KT CAVOK"
    },
    {
      "icao": "EDFH",
      "alert": "OK",
      "vis_m": 9999,
      "fzfg": false,
      "metar_trigger": false,
      "taf_trigger": false,
      "metar": "METAR EDFH 160350Z 28005KT 240V300 9999 -RA FEW000 BKN002 OVC016 04/04 Q1007",
      "taf": ""
    },
    {
      "icao": "EDJA",
      "alert": "OK",
      "vis_m": 9999,
      "fzfg": false,
      "metar_trigger": false,
      "taf_trigger": false,
      "metar": "METAR EDJA 160350Z 22005KT 9999 FEW019 SCT049 OVC058 05/04 Q1006",
      "taf": "TAF EDJA 160200Z 1603/1612 25007KT 9999 BKN040"
    },
    {
      "icao": "EDLW",
      "alert": "OK",
      "vis_m": 9999,
      "fzfg": false,
      "metar_trigger": false,
      "taf_trigger": false,
      "metar": "METAR EDLW 160350Z 23007KT 9999 OVC042 05/04 Q1006",
      "taf": "TAF EDLW 160350Z 1604/1624 24007KT 9999 FEW045"
    },
    {
      "icao": "EDNY",
      "alert": "OK",
      "vis_m": 9999,
      "fzfg": false,
      "metar_trigger": false,
      "taf_trigger": false,
      "metar": "METAR EDNY 160350Z VRB02KT 9999 FEW019 BKN054 06/05 Q1007",
      "taf": "TAF EDNY 160200Z 1603/1612 VRB03KT 9999 BKN040"
    },
    {
      "icao": "EDSB",
      "alert": "OK",
      "vis_m": 9999,
      "fzfg": false,
      "metar_trigger": false,
      "taf_trigger": false,
      "metar": "METAR EDSB 160350Z 21003KT 9999 VCSH SCT042 BKN049CB 06/05 Q1008",
      "taf": "TAF EDSB 152300Z 1600/1624 21004KT CAVOK"
    },
    {
      "icao": "EETN",
      "alert": "OK",
      "vis_m": 9999,
      "fzfg": false,
      "metar_trigger": false,
      "taf_trigger": false,
      "metar": "METAR EETN 160350Z 26004KT CAVOK 10/06 Q1002 NOSIG",
      "taf": "TAF EETN 152330Z 1600/1624 VRB02KT CAVOK"
    },
    {
      "icao": "EFTU",
      "alert": "OK",
      "vis_m": 9999,
      "fzfg": false,
      "metar_trigger": false,
      "taf_trigger": false,
      "metar": "METAR EFTU 160350Z AUTO 09002KT CAVOK 08/07 Q1002",
      "taf": "TAF EFTU 160229Z 1603/1703 09002KT CAVOK"
    },
    {
      "icao": "EGBB",
      "alert": "OK",
      "vis_m": 9999,
      "fzfg": false,
      "metar_trigger": false,
      "taf_trigger": false,
      "metar": "METAR EGBB 160350Z VRB02KT CAVOK 07/03 Q1007",
      "taf": "TAF EGBB 152303Z 1600/1624 28004KT 9999 FEW040"
    },
    {
      "icao": "EGGP",
      "alert": "OK",
      "vis_m": 9999,
      "fzfg": false,
      "metar_trigger": false,
      "taf_trigger": false,
      "metar": "METAR EGGP 160350Z 27004KT CAVOK 05/04 Q1007",
      "taf": "TAF EGGP 152259Z 1600/1624 26005KT 9999 SCT035"
    },
    {
      "icao": "EGGW",
      "alert": "OK",
      "vis_m": 9999,
      "fzfg": false,
      "metar_trigger": false,
      "taf_trigger": false,
      "metar": "METAR EGGW 160350Z AUTO 29008KT 9999 NCD 04/00 Q1007",
      "taf": "TAF EGGW 152254Z 1600/1624 28005KT 9999 FEW040"
    },
    {
      "icao": "EGKK",
      "alert": "OK",
      "vis_m": 9999,
      "fzfg": false,
      "metar_trigger": false,
      "taf_trigger": false,
      "metar": "METAR EGKK 160350Z VRB02KT CAVOK 05/01 Q1008",
      "taf": "TAF EGKK 152300Z 1600/1706 30005KT 9999 FEW045"
    },
    {
      "icao": "EGNM",
      "alert": "OK",
      "vis_m": 9999,
      "fzfg": false,
      "metar_trigger": false,
      "taf_trigger": false,
      "metar": "METAR EGNM 160350Z 26010KT CAVOK 03/02 Q1006",
      "taf": "TAF EGNM 152259Z 1600/1624 26007KT 9999 FEW030"
    },
    {
      "icao": "EGPD",
      "alert": "OK",
      "vis_m": 9999,
      "fzfg": false,
      "metar_trigger": false,
      "taf_trigger": false,
      "metar": "METAR EGPD 160350Z AUTO 29011KT 9999 BKN027 05/02 Q1004",
      "taf": ""
    },
    {
      "icao": "EGPF",
      "alert": "OK",
      "vis_m": 9999,
      "fzfg": false,
      "metar_trigger": false,
      "taf_trigger": false,
      "metar": "METAR EGPF 160350Z AUTO 26003KT 9999 BKN046 02/01 Q1006",
      "taf": "TAF EGPF 152300Z 1600/1624 VRB03KT 9999 SCT030"
    },
    {
      "icao": "EHBK",
      "alert": "OK",
      "vis_m": 9999,
      "fzfg": false,
      "metar_trigger": false,
      "taf_trigger": false,
      "metar": "METAR EHBK 160355Z AUTO 21006KT 9999 NCD 03/02 Q1008 NOSIG",
      "taf": "TAF EHBK 152308Z 1600/1706 26004KT 9999 BKN045"
    },
    {
      "icao": "EHEH",
      "alert": "OK",
      "vis_m": 9999,
      "fzfg": false,
      "metar_trigger": false,
      "taf_trigger": false,
      "metar": "METAR EHEH 160355Z AUTO 24003KT 9999 FEW029 BKN037 BKN042 04/03 Q1007 BLU",
      "taf": "TAF EHEH 152324Z 1600/1706 24005KT 9999 FEW040"
    },
    {
      "icao": "EKBI",
      "alert": "OK",
      "vis_m": 9999,
      "fzfg": false,
      "metar_trigger": false,
      "taf_trigger": false,
      "metar": "METAR EKBI 160350Z AUTO 22007KT 190V250 9999 -RA BKN007/// BKN037/// OVC056/// 07/07 Q0998",
      "taf": "TAF EKBI 160227Z 1603/1703 21010KT 9999 BKN015"
    },
    {
      "icao": "EKCH",
      "alert": "OK",
      "vis_m": 9999,
      "fzfg": false,
      "metar_trigger": false,
      "taf_trigger": false,
      "metar": "METAR EKCH 160350Z AUTO 20009KT 9999 SCT094/// BKN110/// 08/06 Q1000 NOSIG",
      "taf": "TAF EKCH 160227Z 1603/1703 20010KT 9999 SCT030"
    },
    {
      "icao": "ENAL",
      "alert": "OK",
      "vis_m": 9999,
      "fzfg": false,
      "metar_trigger": false,
      "taf_trigger": false,
      "metar": "METAR ENAL 160350Z AUTO 14009KT 9999 NCD 09/00 Q0999",
      "taf": "TAF ENAL 160200Z 1603/1612 16008KT CAVOK"
    },
    {
      "icao": "ENBR",
      "alert": "OK",
      "vis_m": 9999,
      "fzfg": false,
      "metar_trigger": false,
      "taf_trigger": false,
      "metar": "METAR ENBR 160350Z 05004KT CAVOK 10/M01 Q0997 RMK WIND 1200FT 08004KT",
      "taf": "TAF ENBR 152300Z 1600/1624 10005KT CAVOK"
    },
    {
      "icao": "ENGM",
      "alert": "OK",
      "vis_m": 9999,
      "fzfg": false,
      "metar_trigger": false,
      "taf_trigger": false,
      "metar": "METAR ENGM 160350Z 03005KT 9999 SCT020 BKN035 06/04 Q1000 NOSIG",
      "taf": "TAF ENGM 152300Z 1600/1624 03007KT 9999 FEW015 BKN030"
    },
    {
      "icao": "ENHD",
      "alert": "OK",
      "vis_m": 9999,
      "fzfg": false,
      "metar_trigger": false,
      "taf_trigger": false,
      "metar": "METAR ENHD 160350Z AUTO 10003KT 9999 NCD 06/03 Q0997",
      "taf": "TAF ENHD 160200Z 1603/1612 08005KT 9999 BKN040"
    },
    {
      "icao": "ENTC",
      "alert": "OK",
      "vis_m": 9999,
      "fzfg": false,
      "metar_trigger": false,
      "taf_trigger": false,
      "metar": "METAR ENTC 160350Z 18004KT 140V220 CAVOK 11/01 Q1005 RMK WIND 2600FT 18021KT",
      "taf": "TAF ENTC 152300Z 1600/1624 18010KT CAVOK"
    },
    {
      "icao": "ENTO",
      "alert": "OK",
      "vis_m": 9999,
      "fzfg": false,
      "metar_trigger": false,
      "taf_trigger": false,
      "metar": "METAR ENTO 160320Z AUTO 03007KT 9999 BKN011/// 06/06 Q0999",
      "taf": ""
    },
    {
      "icao": "ENVA",
      "alert": "OK",
      "vis_m": 9999,
      "fzfg": false,
      "metar_trigger": false,
      "taf_trigger": false,
      "metar": "METAR ENVA 160350Z 07005KT 020V110 CAVOK 06/03 Q1003 RMK WIND 670FT 09006KT",
      "taf": "TAF ENVA 152300Z 1600/1624 08008KT 9999 FEW050"
    },
    {
      "icao": "ENZV",
      "alert": "OK",
      "vis_m": 9999,
      "fzfg": false,
      "metar_trigger": false,
      "taf_trigger": false,
      "metar": "METAR ENZV 160350Z 06003KT 9999 SCT042 07/04 Q0996",
      "taf": "TAF ENZV 152300Z 1600/1624 VRB05KT 9999 BKN040"
    },
    {
      "icao": "EPGD",
      "alert": "OK",
      "vis_m": 9999,
      "fzfg": false,
      "metar_trigger": false,
      "taf_trigger": false,
      "metar": "METAR EPGD 160330Z 29008KT 9999 BKN007 07/06 Q1002",
      "taf": "TAF EPGD 152330Z 1600/1624 VRB04KT 9999 BKN020"
    },
    {
      "icao": "EPKK",
      "alert": "OK",
      "vis_m": 7000,
      "fzfg": false,
      "metar_trigger": false,
      "taf_trigger": false,
      "metar": "METAR EPKK 160330Z 01003KT 7000 -RA OVC033 10/09 Q1001",
      "taf": "TAF EPKK 160230Z 1603/1703 VRB02KT 9999 -RA BKN040"
    },
    {
      "icao": "EPKT",
      "alert": "OK",
      "vis_m": 5000,
      "fzfg": false,
      "metar_trigger": false,
      "taf_trigger": false,
      "metar": "METAR EPKT 160330Z 04004KT 5000 -RA BR FEW005 SCT035 07/07 Q1001",
      "taf": "TAF EPKT 152330Z 1600/1624 04006KT 9999 -RA BKN040"
    },
    {
      "icao": "EPLB",
      "alert": "OK",
      "vis_m": 9999,
      "fzfg": false,
      "metar_trigger": false,
      "taf_trigger": false,
      "metar": "METAR EPLB 160330Z 07002KT CAVOK 11/10 Q1002",
      "taf": "TAF EPLB 152330Z 1600/1624 VRB04KT CAVOK"
    },
    {
      "icao": "EPMO",
      "alert": "OK",
      "vis_m": 1800,
      "fzfg": false,
      "metar_trigger": false,
      "taf_trigger": false,
      "metar": "METAR EPMO 160330Z 23003KT 200V280 1800 BR OVC003 08/08 Q1002",
      "taf": "TAF EPMO 152330Z 1600/1624 VRB02KT CAVOK"
    },
    {
      "icao": "EPPO",
      "alert": "OK",
      "vis_m": 200,
      "fzfg": false,
      "metar_trigger": false,
      "taf_trigger": false,
      "metar": "METAR EPPO 160330Z 08002KT 0200 R28/0400D FG NSC 03/03 Q1003",
      "taf": "TAF EPPO 152330Z 1600/1624 VRB02KT 0800 FG NSC"
    },
    {
      "icao": "EPRA",
      "alert": "OK",
      "vis_m": 9999,
      "fzfg": false,
      "metar_trigger": false,
      "taf_trigger": false,
      "metar": "METAR EPRA 160330Z 31003KT 270V330 CAVOK 10/09 Q1002",
      "taf": "TAF EPRA 160230Z 1603/1612 VRB03KT CAVOK"
    },
    {
      "icao": "EPRZ",
      "alert": "OK",
      "vis_m": 9999,
      "fzfg": false,
      "metar_trigger": false,
      "taf_trigger": false,
      "metar": "METAR EPRZ 160330Z 09006KT 9999 BKN027 11/10 Q1001",
      "taf": "TAF EPRZ 152330Z 1600/1624 18005KT CAVOK"
    },
    {
      "icao": "EPSC",
      "alert": "OK",
      "vis_m": 450,
      "fzfg": false,
      "metar_trigger": false,
      "taf_trigger": false,
      "metar": "METAR EPSC 160330Z 12003KT 0450 R31/1100U FG NSC 02/02 Q1002",
      "taf": "TAF EPSC 152330Z 1600/1624 VRB02KT CAVOK"
    },
    {
      "icao": "EPSY",
      "alert": "OK",
      "vis_m": 400,
      "fzfg": false,
      "metar_trigger": false,
      "taf_trigger": false,
      "metar": "METAR EPSY 160330Z VRB02KT 0400 R01/0500N FG VV001 08/08 Q1001",
      "taf": "TAF EPSY 160230Z 1603/1612 VRB02KT 0400 FG OVC002"
    },
    {
      "icao": "EPWA",
      "alert": "OK",
      "vis_m": 8000,
      "fzfg": false,
      "metar_trigger": false,
      "taf_trigger": false,
      "metar": "METAR EPWA 160330Z 26005KT 8000 NSC 08/08 Q1002 NOSIG",
      "taf": "TAF EPWA 160230Z 1603/1703 VRB04KT CAVOK"
    },
    {
      "icao": "EPWR",
      "alert": "OK",
      "vis_m": 6000,
      "fzfg": false,
      "metar_trigger": false,
      "taf_trigger": false,
      "metar": "METAR EPWR 160330Z 23002KT 6000 NSC 07/07 Q1002",
      "taf": "TAF EPWR 160230Z 1603/1703 VRB02KT CAVOK"
    },
    {
      "icao": "ESGG",
      "alert": "OK",
      "vis_m": 9999,
      "fzfg": false,
      "metar_trigger": false,
      "taf_trigger": false,
      "metar": "METAR ESGG 160350Z 13006KT CAVOK 04/03 Q0998",
      "taf": "TAF ESGG 160230Z 1603/1703 11005KT CAVOK"
    },
    {
      "icao": "ESKN",
      "alert": "OK",
      "vis_m": 9999,
      "fzfg": false,
      "metar_trigger": false,
      "taf_trigger": false,
      "metar": "METAR ESKN 160350Z 07005KT 040V100 9999 -RA FEW038 SCT065 08/08 Q0998",
      "taf": "TAF ESKN 160230Z 1603/1703 09005KT 9999 -RA BKN045"
    },
    {
      "icao": "ESMS",
      "alert": "OK",
      "vis_m": 9999,
      "fzfg": false,
      "metar_trigger": false,
      "taf_trigger": false,
      "metar": "METAR ESMS 160350Z 20005KT CAVOK 05/05 Q1000",
      "taf": "TAF ESMS 160227Z 1603/1703 20010KT 9999 SCT025"
    },
    {
      "icao": "ESSA",
      "alert": "OK",
      "vis_m": 9999,
      "fzfg": false,
      "metar_trigger": false,
      "taf_trigger": false,
      "metar": "METAR ESSA 160350Z 04012KT CAVOK 08/05 Q1000 TEMPO RA SCT050CB",
      "taf": "TAF ESSA 160230Z 1603/1703 07010KT CAVOK"
    },
    {
      "icao": "EYKA",
      "alert": "OK",
      "vis_m": 9999,
      "fzfg": false,
      "metar_trigger": false,
      "taf_trigger": false,
      "metar": "METAR EYKA 160350Z 16003KT CAVOK 12/07 Q1002",
      "taf": "TAF EYKA 152301Z 1600/1624 VRB03KT 9000 NSC"
    },
    {
      "icao": "EYPA",
      "alert": "OK",
      "vis_m": 9999,
      "fzfg": false,
      "metar_trigger": false,
      "taf_trigger": false,
      "metar": "METAR EYPA 160350Z 25004KT 210V290 9999 SCT006 SCT034 09/08 Q1001",
      "taf": "TAF EYPA 152302Z 1600/1624 VRB03KT 8000 NSC"
    },
    {
      "icao": "EYVI",
      "alert": "OK",
      "vis_m": 9999,
      "fzfg": false,
      "metar_trigger": false,
      "taf_trigger": false,
      "metar": "METAR EYVI 160350Z 16005KT CAVOK 12/07 Q1002 NOSIG",
      "taf": "TAF EYVI 152301Z 1600/1624 VRB03KT 9000 NSC"
    },
    {
      "icao": "GCFV",
      "alert": "OK",
      "vis_m": 9999,
      "fzfg": false,
      "metar_trigger": false,
      "taf_trigger": false,
      "metar": "METAR GCFV 160330Z AUTO 01016KT 9999 BKN048 19/13 Q1018",
      "taf": "TAF GCFV 160200Z 1603/1703 02020KT 9999 SCT035 TX24/1614Z TN17/1606Z"
    },
    {
      "icao": "GCLP",
      "alert": "OK",
      "vis_m": 9999,
      "fzfg": false,
      "metar_trigger": false,
      "taf_trigger": false,
      "metar": "METAR GCLP 160330Z 35013KT 9999 SCT035 18/13 Q1018 NOSIG",
      "taf": "TAF GCLP 160200Z 1603/1703 02020KT 9999 SCT030 TX23/1614Z TN17/1606Z"
    },
    {
      "icao": "GCTS",
      "alert": "OK",
      "vis_m": 9999,
      "fzfg": false,
      "metar_trigger": false,
      "taf_trigger": false,
      "metar": "METAR GCTS 160330Z 01004KT 9999 BKN040 18/09 Q1019 NOSIG",
      "taf": "TAF GCTS 160200Z 1603/1703 VRB06KT 9999 SCT035 TX23/1614Z TN15/1606Z"
    },
    {
      "icao": "GMAD",
      "alert": "OK",
      "vis_m": 9999,
      "fzfg": false,
      "metar_trigger": false,
      "taf_trigger": false,
      "metar": "METAR GMAD 160330Z 15009KT CAVOK 14/09 Q1011 NOSIG",
      "taf": "TAF GMAD 152300Z 1600/1706 17007KT CAVOK"
    },
    {
      "icao": "GMMN",
      "alert": "OK",
      "vis_m": 9999,
      "fzfg": false,
      "metar_trigger": false,
      "taf_trigger": false,
      "metar": "METAR GMMN 160330Z 21003KT 170V260 9999 BKN020 14/11 Q1015 NOSIG",
      "taf": "TAF GMMN 152300Z 1600/1706 34008KT 9999 BKN020"
    },
    {
      "icao": "GMMX",
      "alert": "OK",
      "vis_m": 8000,
      "fzfg": false,
      "metar_trigger": false,
      "taf_trigger": false,
      "metar": "METAR GMMX 160330Z 33003KT 300V020 8000 -RA FEW010 BKN023 FEW033TCU 13/10 Q1016 TEMPO 2000 RA",
      "taf": ""
    },
    {
      "icao": "HEGN",
      "alert": "OK",
      "vis_m": 9999,
      "fzfg": false,
      "metar_trigger": false,
      "taf_trigger": false,
      "metar": "METAR HEGN 160400Z 33018KT CAVOK 24/07 Q1009 NOSIG",
      "taf": "TAF HEGN 152300Z 1600/1706 32012G22KT CAVOK"
    },
    {
      "icao": "HEMA",
      "alert": "OK",
      "vis_m": 9999,
      "fzfg": false,
      "metar_trigger": false,
      "taf_trigger": false,
      "metar": "METAR HEMA 160400Z 33007KT CAVOK 26/05 Q1008 NOSIG",
      "taf": "TAF HEMA 152300Z 1600/1706 30016KT CAVOK"
    },
    {
      "icao": "HESH",
      "alert": "OK",
      "vis_m": 9999,
      "fzfg": false,
      "metar_trigger": false,
      "taf_trigger": false,
      "metar": "METAR HESH 160400Z 33014KT CAVOK 25/16 Q1008 NOSIG",
      "taf": "TAF HESH 152300Z 1600/1706 35014KT CAVOK"
    },
    {
      "icao": "HESX",
      "alert": "OK",
      "vis_m": 9999,
      "fzfg": false,
      "metar_trigger": false,
      "taf_trigger": false,
      "metar": "METAR HESX 160400Z 25004KT CAVOK 16/13 Q1013 NOSIG",
      "taf": "TAF HESX 152300Z 1600/1706 32010KT CAVOK"
    },
    {
      "icao": "LATI",
      "alert": "OK",
      "vis_m": 9999,
      "fzfg": false,
      "metar_trigger": false,
      "taf_trigger": false,
      "metar": "METAR LATI 160350Z VRB03KT 9999 FEW023 BKN049 14/12 Q1004 NOSIG",
      "taf": "TAF LATI 152300Z 1600/1624 17005KT 9999 SCT050 BKN070 TX21/1610Z TN09/1624Z"
    },
    {
      "icao": "LBPD",
      "alert": "OK",
      "vis_m": 9999,
      "fzfg": false,
      "metar_trigger": false,
      "taf_trigger": false,
      "metar": "METAR LBPD 160400Z AUTO VRB02KT 9999 NCD 13/12 Q1007 NOSIG",
      "taf": "TAF LBPD 152300Z 1600/1624 VRB04KT 9999 SCT070"
    },
    {
      "icao": "LBSF",
      "alert": "OK",
      "vis_m": 9999,
      "fzfg": false,
      "metar_trigger": false,
      "taf_trigger": false,
      "metar": "METAR LBSF 160400Z 11004KT 9999 FEW080 09/07 Q1007 NOSIG",
      "taf": "TAF LBSF 152300Z 1600/1624 VRB04KT 9999 SCT050"
    },
    {
      "icao": "LBWN",
      "alert": "OK",
      "vis_m": 9999,
      "fzfg": false,
      "metar_trigger": false,
      "taf_trigger": false,
      "metar": "METAR LBWN 160400Z AUTO 26003KT 240V300 9999 FEW005/// 10/10 Q1007 TEMPO 2000 BR",
      "taf": "TAF LBWN 152300Z 1600/1624 VRB04KT 9999 SCT045"
    },
    {
      "icao": "LCLK",
      "alert": "OK",
      "vis_m": 9999,
      "fzfg": false,
      "metar_trigger": false,
      "taf_trigger": false,
      "metar": "METAR LCLK 160330Z VRB03KT CAVOK 18/13 Q1007 NOSIG",
      "taf": "TAF LCLK 152330Z 1600/1700 28009KT 9999 FEW030"
    },
    {
      "icao": "LCPH",
      "alert": "OK",
      "vis_m": 9999,
      "fzfg": false,
      "metar_trigger": false,
      "taf_trigger": false,
      "metar": "METAR LCPH 160330Z 02005KT 9999 FEW013 BKN021 18/16 Q1008 NOSIG",
      "taf": "TAF LCPH 152330Z 1600/1700 35009KT 9999 SCT014"
    },
    {
      "icao": "LEAL",
      "alert": "OK",
      "vis_m": 9999,
      "fzfg": false,
      "metar_trigger": false,
      "taf_trigger": false,
      "metar": "METAR LEAL 160330Z 31009KT CAVOK 13/07 Q1013 NOSIG",
      "taf": "TAF LEAL 152300Z 1600/1624 30006KT CAVOK TX23/1612Z TN11/1606Z"
    },
    {
      "icao": "LEBB",
      "alert": "OK",
      "vis_m": 3000,
      "fzfg": false,
      "metar_trigger": false,
      "taf_trigger": false,
      "metar": "SPECI LEBB 160345Z 06003KT 360V100 3000 +RA BKN035 BKN042 OVC060 10/09 Q1017 NOSIG",
      "taf": "TAF LEBB 152300Z 1600/1624 30009KT 9999 FEW020 BKN035 TX16/1616Z TN08/1605Z"
    },
    {
      "icao": "LEBL",
      "alert": "OK",
      "vis_m": 9999,
      "fzfg": false,
      "metar_trigger": false,
      "taf_trigger": false,
      "metar": "METAR LEBL 160330Z 34012KT 250V350 9999 FEW025 11/05 Q1012 NOSIG",
      "taf": "TAF LEBL 152300Z 1600/1624 33005KT 9999 FEW020 TX19/1612Z TN11/1605Z"
    },
    {
      "icao": "LECH",
      "alert": "OK",
      "vis_m": 9999,
      "fzfg": false,
      "metar_trigger": false,
      "taf_trigger": false,
      "metar": "METAR LECH 160330Z AUTO 34006KT 270V060 CAVOK 11/M01 Q1013",
      "taf": ""
    },
    {
      "icao": "LEMD",
      "alert": "OK",
      "vis_m": 9999,
      "fzfg": false,
      "metar_trigger": false,
      "taf_trigger": false,
      "metar": "METAR LEMD 160330Z VRB01KT CAVOK 05/01 Q1016 NOSIG",
      "taf": "TAF LEMD 152300Z 1600/1706 VRB04KT 9999 FEW050 TX21/1616Z TN05/1605Z"
    },
    {
      "icao": "LEMG",
      "alert": "OK",
      "vis_m": 9999,
      "fzfg": false,
      "metar_trigger": false,
      "taf_trigger": false,
      "metar": "METAR LEMG 160330Z 29004KT 280V010 CAVOK 14/10 Q1014 NOSIG",
      "taf": "TAF LEMG 152300Z 1600/1624 VRB02KT 9999 FEW040 TX23/1614Z TN16/1607Z"
    },
    {
      "icao": "LEVC",
      "alert": "OK",
      "vis_m": 9999,
      "fzfg": false,
      "metar_trigger": false,
      "taf_trigger": false,
      "metar": "METAR LEVC 160330Z 26007KT CAVOK 08/04 Q1014 NOSIG",
      "taf": "TAF LEVC 152300Z 1600/1624 30005KT CAVOK TX23/1612Z TN09/1606Z"
    },
    {
      "icao": "LEXJ",
      "alert": "OK",
      "vis_m": 9999,
      "fzfg": false,
      "metar_trigger": false,
      "taf_trigger": false,
      "metar": "METAR LEXJ 160330Z 24006KT 200V260 9999 SCT038 BKN050 10/08 Q1017",
      "taf": "TAF LEXJ 160200Z 1603/1703 22009KT 9999 SCT020 BKN045 TX17/1614Z TN10/1606Z"
    },
    {
      "icao": "LEZG",
      "alert": "OK",
      "vis_m": 9999,
      "fzfg": false,
      "metar_trigger": false,
      "taf_trigger": false,
      "metar": "METAR LEZG 160330Z 30009KT CAVOK 08/04 Q1016 NOSIG",
      "taf": "TAF LEZG 152300Z 1600/1624 30009KT 9999 FEW030 TX18/1618Z TN08/1605Z"
    },
    {
      "icao": "LEZL",
      "alert": "OK",
      "vis_m": 9999,
      "fzfg": false,
      "metar_trigger": false,
      "taf_trigger": false,
      "metar": "METAR LEZL 160330Z VRB01KT CAVOK 13/12 Q1014 NOSIG",
      "taf": "TAF LEZL 160200Z 1603/1703 VRB02KT CAVOK TX30/1615Z TN14/1607Z"
    },
    {
      "icao": "LFBD",
      "alert": "OK",
      "vis_m": 9999,
      "fzfg": false,
      "metar_trigger": false,
      "taf_trigger": false,
      "metar": "METAR LFBD 160330Z AUTO 24004KT 9999 NSC 09/08 Q1013 TEMPO 4000 -SHRA BKN020TCU",
      "taf": "TAF LFBD 152300Z 1600/1706 28005KT 9999 SCT040 TX16/1614Z TN07/1601Z"
    },
    {
      "icao": "LFLL",
      "alert": "OK",
      "vis_m": 9999,
      "fzfg": false,
      "metar_trigger": false,
      "taf_trigger": false,
      "metar": "METAR LFLL 160330Z VRB02KT 9999 -RADZ BKN035 07/05 Q1009 NOSIG",
      "taf": "TAF LFLL 152300Z 1600/1706 VRB03KT 9999 BKN050"
    },
    {
      "icao": "LFLS",
      "alert": "OK",
      "vis_m": 9999,
      "fzfg": false,
      "metar_trigger": false,
      "taf_trigger": false,
      "metar": "METAR LFLS 160330Z AUTO VRB03KT 9999 SCT039 SCT047 BKN070 04/04 Q1009 TEMPO 4000 -RA BKN014",
      "taf": "TAF LFLS 160200Z 1603/1703 VRB03KT 9999 BKN030"
    },
    {
      "icao": "LFMN",
      "alert": "OK",
      "vis_m": 9999,
      "fzfg": false,
      "metar_trigger": false,
      "taf_trigger": false,
      "metar": "METAR LFMN 160330Z 33007KT CAVOK 11/03 Q1001 NOSIG",
      "taf": "TAF LFMN 160200Z 1603/1709 34010KT CAVOK"
    },
    {
      "icao": "LFOB",
      "alert": "OK",
      "vis_m": 9999,
      "fzfg": false,
      "metar_trigger": false,
      "taf_trigger": false,
      "metar": "METAR LFOB 160330Z AUTO VRB02KT 9999 BKN036 BKN045 BKN052 07/06 Q1009 TEMPO VRB15G25KT 4000 -SHRA SCT020TCU",
      "taf": "TAF LFOB 152300Z 1600/1624 VRB03KT 9999 SCT030"
    },
    {
      "icao": "LFPO",
      "alert": "OK",
      "vis_m": 9999,
      "fzfg": false,
      "metar_trigger": false,
      "taf_trigger": false,
      "metar": "METAR LFPO 160330Z AUTO 26005KT CAVOK 05/04 Q1009 NOSIG",
      "taf": "TAF LFPO 152300Z 1600/1706 27006KT 9999 BKN040"
    },
    {
      "icao": "LFSB",
      "alert": "OK",
      "vis_m": 9999,
      "fzfg": false,
      "metar_trigger": false,
      "taf_trigger": false,
      "metar": "METAR LFSB 160330Z AUTO VRB02KT CAVOK 05/05 Q1008 TEMPO BKN014",
      "taf": "TAF LFSB 152300Z 1600/1624 25006KT 9999 FEW030 BKN050"
    },
    {
      "icao": "LGAV",
      "alert": "OK",
      "vis_m": 9999,
      "fzfg": false,
      "metar_trigger": false,
      "taf_trigger": false,
      "metar": "METAR LGAV 160250Z 00000KT 9999 FEW030 16/12 Q1008 NOSIG",
      "taf": "TAF LGAV 152300Z 1600/1624 VRB03KT 9999 FEW025"
    },
    {
      "icao": "LGTS",
      "alert": "OK",
      "vis_m": 9999,
      "fzfg": false,
      "metar_trigger": false,
      "taf_trigger": false,
      "metar": "METAR LGTS 160350Z 10004KT 9999 FEW025 13/12 Q1006 NOSIG",
      "taf": "TAF LGTS 152300Z 1600/1624 VRB03KT 9999 FEW030"
    },
    {
      "icao": "LHBP",
      "alert": "OK",
      "vis_m": 9999,
      "fzfg": false,
      "metar_trigger": false,
      "taf_trigger": false,
      "metar": "METAR LHBP 160330Z 04003KT 9999 -RA SCT022 OVC028 11/11 Q1000 NOSIG",
      "taf": "TAF LHBP 152315Z 1600/1624 09005KT 9999 -RA SCT030 OVC050"
    },
    {
      "icao": "LHDC",
      "alert": "OK",
      "vis_m": 9999,
      "fzfg": false,
      "metar_trigger": false,
      "taf_trigger": false,
      "metar": "METAR LHDC 160315Z AUTO 12005KT 090V150 CAVOK 13/10 Q1001 NOSIG",
      "taf": "TAF LHDC 160215Z 1603/1612 12004KT CAVOK"
    },
    {
      "icao": "LIBD",
      "alert": "OK",
      "vis_m": 9999,
      "fzfg": false,
      "metar_trigger": false,
      "taf_trigger": false,
      "metar": "METAR LIBD 160350Z 19007G17KT 160V220 CAVOK 17/12 Q1000",
      "taf": "TAF LIBD 152300Z 1600/1624 19013KT 9999 FEW040"
    },
    {
      "icao": "LIBG",
      "alert": "OK",
      "vis_m": null,
      "fzfg": false,
      "metar_trigger": false,
      "taf_trigger": false,
      "metar": "",
      "taf": ""
    },
    {
      "icao": "LIBP",
      "alert": "OK",
      "vis_m": 9999,
      "fzfg": false,
      "metar_trigger": false,
      "taf_trigger": false,
      "metar": "METAR LIBP 160350Z AUTO 28004KT 240V310 9999 -RA BKN071/// BKN120/// BKN150/// 13/13 Q0999 RERA",
      "taf": "TAF LIBP 152300Z 1600/1624 35012KT 7000 RA FEW020 SCT070"
    },
    {
      "icao": "LIBR",
      "alert": "OK",
      "vis_m": 9999,
      "fzfg": false,
      "metar_trigger": false,
      "taf_trigger": false,
      "metar": "METAR LIBR 160350Z 19014G26KT 9999 FEW015 18/17 Q1002",
      "taf": "TAF LIBR 152300Z 1600/1624 19015KT 9999 FEW030"
    },
    {
      "icao": "LICA",
      "alert": "OK",
      "vis_m": 9000,
      "fzfg": false,
      "metar_trigger": false,
      "taf_trigger": false,
      "metar": "METAR LICA 160350Z AUTO VRB01KT 9000 NCD 16/15 Q1004",
      "taf": "TAF LICA 152300Z 1600/1624 08006KT 9999 SCT025"
    },
    {
      "icao": "LICC",
      "alert": "OK",
      "vis_m": 9999,
      "fzfg": false,
      "metar_trigger": false,
      "taf_trigger": false,
      "metar": "METAR LICC 160350Z 29011KT 9999 SCT080 BKN110 18/13 Q1006",
      "taf": "TAF LICC 152300Z 1600/1624 26010KT 9999 SCT050"
    },
    {
      "icao": "LICJ",
      "alert": "OK",
      "vis_m": 9999,
      "fzfg": false,
      "metar_trigger": false,
      "taf_trigger": false,
      "metar": "METAR LICJ 160350Z 20015KT 9999 SCT020 SCT070 19/12 Q1005",
      "taf": "TAF LICJ 152300Z 1600/1624 20012KT 9999 SCT040"
    },
    {
      "icao": "LIMC",
      "alert": "OK",
      "vis_m": 9999,
      "fzfg": false,
      "metar_trigger": false,
      "taf_trigger": false,
      "metar": "METAR LIMC 160350Z 02003KT 9999 MIFG NSC 05/05 Q1001 NOSIG",
      "taf": "TAF LIMC 152300Z 1600/1706 VRB05KT 9999 SCT060"
    },
    {
      "icao": "LIME",
      "alert": "OK",
      "vis_m": 3000,
      "fzfg": false,
      "metar_trigger": false,
      "taf_trigger": false,
      "metar": "METAR LIME 160350Z 24004KT 3000 BR BKN003 09/09 Q1000 NOSIG",
      "taf": "TAF LIME 152300Z 1600/1624 VRB05KT 9999 SCT020"
    },
    {
      "icao": "LIMF",
      "alert": "OK",
      "vis_m": 9999,
      "fzfg": false,
      "metar_trigger": false,
      "taf_trigger": false,
      "metar": "METAR LIMF 160350Z VRB02KT CAVOK 05/04 Q1001",
      "taf": "TAF LIMF 152300Z 1600/1624 VRB05KT 9999 SCT070"
    },
    {
      "icao": "LIMJ",
      "alert": "OK",
      "vis_m": 9999,
      "fzfg": false,
      "metar_trigger": false,
      "taf_trigger": false,
      "metar": "METAR LIMJ 160350Z AUTO 02004KT 9999 BKN130/// 11/08 Q1000",
      "taf": "TAF LIMJ 152300Z 1600/1624 03010KT 9999 SCT050"
    },
    {
      "icao": "LIPE",
      "alert": "OK",
      "vis_m": 8000,
      "fzfg": false,
      "metar_trigger": false,
      "taf_trigger": false,
      "metar": "METAR LIPE 160350Z 29004KT 8000 SCT005 BKN010 10/10 Q1000",
      "taf": "TAF LIPE 152300Z 1600/1624 VRB05KT 7000 FEW010 SCT030"
    },
    {
      "icao": "LIPH",
      "alert": "OK",
      "vis_m": 9999,
      "fzfg": false,
      "metar_trigger": false,
      "taf_trigger": false,
      "metar": "METAR LIPH 160350Z AUTO VRB02KT 9999 SCT077/// 09/09 Q1000",
      "taf": "TAF LIPH 152300Z 1600/1624 VRB06KT 7000 FEW010"
    },
    {
      "icao": "LIPQ",
      "alert": "OK",
      "vis_m": 9999,
      "fzfg": false,
      "metar_trigger": false,
      "taf_trigger": false,
      "metar": "METAR LIPQ 160350Z AUTO 01005KT 9999 OVC160/// 09/09 Q0999",
      "taf": "TAF LIPQ 152300Z 1600/1624 04008KT 8000 FEW015"
    },
    {
      "icao": "LIPR",
      "alert": "OK",
      "vis_m": 9000,
      "fzfg": false,
      "metar_trigger": false,
      "taf_trigger": false,
      "metar": "METAR LIPR 160350Z AUTO 26004KT 9000 -RA BKN042/// 11/10 Q1000",
      "taf": "TAF LIPR 152300Z 1600/1624 17006KT 9999 SCT040"
    },
    {
      "icao": "LIPX",
      "alert": "OK",
      "vis_m": 4500,
      "fzfg": false,
      "metar_trigger": false,
      "taf_trigger": false,
      "metar": "METAR LIPX 160350Z 31002KT 4500 -RA BR OVC060 10/10 Q1000",
      "taf": "TAF LIPX 152300Z 1600/1624 VRB05KT 9999 FEW010 BKN050"
    },
    {
      "icao": "LIPY",
      "alert": "OK",
      "vis_m": 9999,
      "fzfg": false,
      "metar_trigger": false,
      "taf_trigger": false,
      "metar": "METAR LIPY 160350Z AUTO 25003KT 9999 -RA OVC066/// 12/11 Q1000",
      "taf": "TAF LIPY 152300Z 1600/1624 VRB05KT 8000 RA FEW020 BKN050"
    },
    {
      "icao": "LIPZ",
      "alert": "OK",
      "vis_m": 7000,
      "fzfg": false,
      "metar_trigger": false,
      "taf_trigger": false,
      "metar": "METAR LIPZ 160350Z 35005KT 7000 FEW070 09/09 Q0999 NOSIG",
      "taf": "TAF LIPZ 152300Z 1600/1706 35006KT 9999 FEW010"
    },
    {
      "icao": "LIRF",
      "alert": "OK",
      "vis_m": 9999,
      "fzfg": false,
      "metar_trigger": false,
      "taf_trigger": false,
      "metar": "METAR LIRF 160350Z 26016KT 9999 -RA FEW030 16/10 Q1000 NOSIG",
      "taf": "TAF LIRF 152300Z 1600/1706 24012KT 9999 BKN030"
    },
    {
      "icao": "LIRN",
      "alert": "OK",
      "vis_m": 9999,
      "fzfg": false,
      "metar_trigger": false,
      "taf_trigger": false,
      "metar": "METAR LIRN 160350Z 11005KT 9999 SCT050 13/12 Q1001 NOSIG",
      "taf": "TAF LIRN 152300Z 1600/1624 21012KT 9999 BKN035"
    },
    {
      "icao": "LIRP",
      "alert": "OK",
      "vis_m": 9999,
      "fzfg": false,
      "metar_trigger": false,
      "taf_trigger": false,
      "metar": "METAR LIRP 160345Z 11005KT 9999 SCT025 SCT030 11/09 Q0999 NOSIG",
      "taf": "TAF LIRP 152300Z 1600/1624 10004KT 9999 SCT030"
    },
    {
      "icao": "LIRZ",
      "alert": "OK",
      "vis_m": 9000,
      "fzfg": false,
      "metar_trigger": false,
      "taf_trigger": false,
      "metar": "METAR LIRZ 160350Z AUTO 25009G19KT 9000 RA FEW006/// BKN031/// 09/09 Q1001",
      "taf": "TAF LIRZ 152300Z 1600/1624 VRB06KT 9999 BKN030"
    },
    {
      "icao": "LJLJ",
      "alert": "OK",
      "vis_m": 9999,
      "fzfg": false,
      "metar_trigger": false,
      "taf_trigger": false,
      "metar": "METAR LJLJ 160330Z 26004KT 9999 FEW003 BKN110 06/05 Q1000 NOSIG",
      "taf": "TAF LJLJ 152300Z 1600/1700 28003KT 9999 FEW003 BKN055"
    },
    {
      "icao": "LKMT",
      "alert": "OK",
      "vis_m": 7000,
      "fzfg": false,
      "metar_trigger": false,
      "taf_trigger": false,
      "metar": "METAR LKMT 160330Z 05003KT 7000 -RA OVC020 08/08 Q1001 NOSIG",
      "taf": "TAF LKMT 152300Z 1600/1624 VRB02KT 9999 BKN035"
    },
    {
      "icao": "LKPR",
      "alert": "OK",
      "vis_m": 9999,
      "fzfg": false,
      "metar_trigger": false,
      "taf_trigger": false,
      "metar": "METAR LKPR 160330Z 32007KT 9999 OVC041 07/06 Q1003 NOSIG",
      "taf": "TAF LKPR 160200Z 1603/1709 34006KT 9999 BKN035"
    },
    {
      "icao": "LLBG",
      "alert": "OK",
      "vis_m": 9999,
      "fzfg": false,
      "metar_trigger": false,
      "taf_trigger": false,
      "metar": "METAR LLBG 160350Z 14004KT 9999 SCT023 19/14 Q1011 NOSIG",
      "taf": "TAF LLBG 152327Z 1600/1624 VRB04KT 9999 SCT025 TX24/1611Z TN18/1603Z"
    },
    {
      "icao": "LMML",
      "alert": "OK",
      "vis_m": 9999,
      "fzfg": false,
      "metar_trigger": false,
      "taf_trigger": false,
      "metar": "METAR LMML 160345Z 31006KT CAVOK 18/15 Q1006 NOSIG",
      "taf": "TAF LMML 152300Z 1600/1624 VRB05KT 9999 FEW018"
    },
    {
      "icao": "LOWW",
      "alert": "OK",
      "vis_m": 3200,
      "fzfg": false,
      "metar_trigger": false,
      "taf_trigger": false,
      "metar": "METAR LOWW 160350Z 33009KT 3200 RA FEW002 BKN005 10/09 Q1000 TEMPO 6000 -RA FEW002 SCT005 BKN010",
      "taf": "TAF LOWW 160215Z 1603/1709 VRB03KT 9999 -RA FEW020 BKN040 TX13/1709Z TN09/1604Z"
    },
    {
      "icao": "LPFR",
      "alert": "OK",
      "vis_m": 9999,
      "fzfg": false,
      "metar_trigger": false,
      "taf_trigger": false,
      "metar": "METAR LPFR 160330Z 01013KT CAVOK 15/09 Q1014",
      "taf": "TAF LPFR 152300Z 1600/1624 36010KT CAVOK"
    },
    {
      "icao": "LPMA",
      "alert": "OK",
      "vis_m": 9999,
      "fzfg": false,
      "metar_trigger": false,
      "taf_trigger": false,
      "metar": "METAR LPMA 160330Z 01014G26KT 330V050 9999 SCT016 16/12 Q1022",
      "taf": "TAF LPMA 152300Z 1600/1624 01010KT 9999 SCT015"
    },
    {
      "icao": "LPPR",
      "alert": "OK",
      "vis_m": 9999,
      "fzfg": false,
      "metar_trigger": false,
      "taf_trigger": false,
      "metar": "METAR LPPR 160330Z 36006KT CAVOK 09/06 Q1018",
      "taf": "TAF LPPR 152300Z 1600/1624 34010KT CAVOK"
    },
    {
      "icao": "LPPS",
      "alert": "OK",
      "vis_m": 9999,
      "fzfg": false,
      "metar_trigger": false,
      "taf_trigger": false,
      "metar": "METAR LPPS 160330Z 02011KT 9999 SCT014 16/11 Q1022",
      "taf": "TAF LPPS 152300Z 1600/1706 01010KT 9999 FEW015 BKN030"
    },
    {
      "icao": "LPPT",
      "alert": "OK",
      "vis_m": 9999,
      "fzfg": false,
      "metar_trigger": false,
      "taf_trigger": false,
      "metar": "METAR LPPT 160330Z 35010KT 320V040 9999 FEW020 13/10 Q1017",
      "taf": "TAF LPPT 152300Z 1600/1706 35008KT 9999 FEW020"
    },
    {
      "icao": "LQBK",
      "alert": "OK",
      "vis_m": 9999,
      "fzfg": false,
      "metar_trigger": false,
      "taf_trigger": false,
      "metar": "METAR LQBK 160330Z VRB02KT 9999 RA FEW007 SCT030 BKN045 11/10 Q1001 NOSIG",
      "taf": "TAF LQBK 152300Z 1600/1624 02006KT 9999 SCT030 BKN040 TX12/1600Z TN09/1700Z"
    },
    {
      "icao": "LQSA",
      "alert": "OK",
      "vis_m": 9999,
      "fzfg": false,
      "metar_trigger": false,
      "taf_trigger": false,
      "metar": "METAR LQSA 160330Z 24004KT 180V300 9999 FEW010 FEW040TCU BKN050 11/11 Q1000",
      "taf": "TAF LQSA 152300Z 1600/1624 17006KT 9999 BKN050 TX16/1613Z TN10/1605Z"
    },
    {
      "icao": "LQTZ",
      "alert": "OK",
      "vis_m": 9999,
      "fzfg": false,
      "metar_trigger": false,
      "taf_trigger": false,
      "metar": "METAR LQTZ 160330Z 11005KT 070V130 9999 -RA BKN050 12/11 Q1000",
      "taf": "TAF LQTZ 152300Z 1600/1624 12006KT 9999 SCT040 TX19/1610Z TN07/1624Z"
    },
    {
      "icao": "LRBC",
      "alert": "OK",
      "vis_m": 9999,
      "fzfg": false,
      "metar_trigger": false,
      "taf_trigger": false,
      "metar": "METAR LRBC 160330Z 17009KT CAVOK 10/09 Q1006",
      "taf": "TAF LRBC 160200Z 1603/1612 17010KT CAVOK"
    },
    {
      "icao": "LRBS",
      "alert": "OK",
      "vis_m": 9999,
      "fzfg": false,
      "metar_trigger": false,
      "taf_trigger": false,
      "metar": "METAR LRBS 160330Z 02003KT 350V050 CAVOK 10/09 Q1005 NOSIG",
      "taf": "TAF LRBS 152300Z 1600/1624 VRB04KT CAVOK"
    },
    {
      "icao": "LRBV",
      "alert": "OK",
      "vis_m": 9999,
      "fzfg": false,
      "metar_trigger": false,
      "taf_trigger": false,
      "metar": "METAR LRBV 160330Z AUTO 06003KT 010V090 9999 OVC095/// 09/07 Q1006",
      "taf": "TAF LRBV 160200Z 1603/1612 VRB04KT CAVOK"
    },
    {
      "icao": "LRCL",
      "alert": "OK",
      "vis_m": 9999,
      "fzfg": false,
      "metar_trigger": false,
      "taf_trigger": false,
      "metar": "METAR LRCL 160330Z 07004KT 020V090 CAVOK 10/08 Q1004",
      "taf": "TAF LRCL 160200Z 1603/1612 VRB04KT CAVOK"
    },
    {
      "icao": "LRCV",
      "alert": "OK",
      "vis_m": 9999,
      "fzfg": false,
      "metar_trigger": false,
      "taf_trigger": false,
      "metar": "METAR LRCV 160330Z 08002KT CAVOK 10/10 Q1005",
      "taf": "TAF LRCV 160200Z 1603/1612 VRB04KT CAVOK"
    },
    {
      "icao": "LRIA",
      "alert": "OK",
      "vis_m": 9999,
      "fzfg": false,
      "metar_trigger": false,
      "taf_trigger": false,
      "metar": "METAR LRIA 160330Z 11006KT CAVOK 11/08 Q1006",
      "taf": "TAF LRIA 160200Z 1603/1612 11010KT CAVOK"
    },
    {
      "icao": "LROP",
      "alert": "OK",
      "vis_m": 9999,
      "fzfg": false,
      "metar_trigger": false,
      "taf_trigger": false,
      "metar": "METAR LROP 160330Z 02006KT CAVOK 10/08 Q1006 NOSIG",
      "taf": "TAF LROP 152300Z 1600/1624 VRB04KT CAVOK"
    },
    {
      "icao": "LRSB",
      "alert": "OK",
      "vis_m": 9999,
      "fzfg": false,
      "metar_trigger": false,
      "taf_trigger": false,
      "metar": "METAR LRSB 160330Z 06004KT 030V120 9999 FEW080 13/08 Q1004",
      "taf": "TAF LRSB 152300Z 1600/1624 VRB04KT CAVOK"
    },
    {
      "icao": "LRSM",
      "alert": "OK",
      "vis_m": 9999,
      "fzfg": false,
      "metar_trigger": false,
      "taf_trigger": false,
      "metar": "METAR LRSM 160330Z AUTO 09004KT 9999 BKN085/// 12/09 Q1002",
      "taf": "TAF LRSM 160200Z 1603/1612 12010KT CAVOK"
    },
    {
      "icao": "LRSV",
      "alert": "OK",
      "vis_m": 9999,
      "fzfg": false,
      "metar_trigger": false,
      "taf_trigger": false,
      "metar": "METAR LRSV 160330Z 20010KT CAVOK 11/08 Q1004",
      "taf": "TAF LRSV 160200Z 1603/1612 20006KT CAVOK"
    },
    {
      "icao": "LRTM",
      "alert": "OK",
      "vis_m": 9999,
      "fzfg": false,
      "metar_trigger": false,
      "taf_trigger": false,
      "metar": "METAR LRTM 160330Z 08004KT CAVOK 10/08 Q1004",
      "taf": "TAF LRTM 160200Z 1603/1612 08005KT CAVOK"
    },
    {
      "icao": "LRTR",
      "alert": "OK",
      "vis_m": 9999,
      "fzfg": false,
      "metar_trigger": false,
      "taf_trigger": false,
      "metar": "METAR LRTR 160330Z 11006KT CAVOK 10/10 Q1001 NOSIG",
      "taf": "TAF LRTR 152300Z 1600/1624 10006KT CAVOK"
    },
    {
      "icao": "LTAC",
      "alert": "OK",
      "vis_m": 9999,
      "fzfg": false,
      "metar_trigger": false,
      "taf_trigger": false,
      "metar": "METAR LTAC 160350Z VRB01KT CAVOK 05/03 Q1012 NOSIG RMK RWY21C VRB02KT RWY03L VRB02KT RWY21R 00000KT RWY03R 00000KT RWY21L VRB01KT",
      "taf": "TAF LTAC 152240Z 1600/1624 VRB02KT CAVOK"
    },
    {
      "icao": "LTFM",
      "alert": "OK",
      "vis_m": 9999,
      "fzfg": false,
      "metar_trigger": false,
      "taf_trigger": false,
      "metar": "METAR LTFM 160350Z 19008KT CAVOK 15/09 Q1008 NOSIG RMK RWY17L 19011KT RWY34L 19009KT RWY16R 21006KT RWY36 18006KT 150V210 RWY18 19009KT",
      "taf": "TAF LTFM 152240Z 1600/1706 19010KT CAVOK"
    },
    {
      "icao": "LUKK",
      "alert": "OK",
      "vis_m": 9999,
      "fzfg": false,
      "metar_trigger": false,
      "taf_trigger": false,
      "metar": "METAR LUKK 160330Z 11006KT CAVOK 10/08 Q1008 NOSIG",
      "taf": "TAF LUKK 152319Z 1600/1624 VRB05KT CAVOK"
    },
    {
      "icao": "LWOH",
      "alert": "OK",
      "vis_m": null,
      "fzfg": false,
      "metar_trigger": false,
      "taf_trigger": false,
      "metar": "",
      "taf": "TAF LWOH 160245Z 1603/1703 VRB02KT 9999 SCT030 BKN060"
    },
    {
      "icao": "LWSK",
      "alert": "OK",
      "vis_m": 9999,
      "fzfg": false,
      "metar_trigger": false,
      "taf_trigger": false,
      "metar": "METAR LWSK 160350Z VRB01KT 9999 BKN080 10/08 Q1006 NOSIG",
      "taf": "TAF LWSK 160245Z 1603/1703 VRB02KT 9999 SCT090"
    },
    {
      "icao": "LYBE",
      "alert": "OK",
      "vis_m": 9999,
      "fzfg": false,
      "metar_trigger": false,
      "taf_trigger": false,
      "metar": "METAR LYBE 160330Z 14008KT CAVOK 15/07 Q1001 NOSIG",
      "taf": "TAF LYBE 152300Z 1600/1624 16010KT CAVOK TX20/1612Z TN13/1604Z"
    },
    {
      "icao": "LYNI",
      "alert": "OK",
      "vis_m": 9999,
      "fzfg": false,
      "metar_trigger": false,
      "taf_trigger": false,
      "metar": "METAR LYNI 160330Z 09004KT CAVOK 10/08 Q1004 NOSIG",
      "taf": "TAF LYNI 152300Z 1600/1624 12008KT CAVOK TX21/1613Z TN10/1604Z"
    },
    {
      "icao": "LYPG",
      "alert": "OK",
      "vis_m": 9999,
      "fzfg": false,
      "metar_trigger": false,
      "taf_trigger": false,
      "metar": "METAR LYPG 160330Z 13017KT 9999 FEW030 SCT050 OVC080 16/12 Q1002 NOSIG",
      "taf": "TAF LYPG 152300Z 1600/1624 16008KT 9999 FEW027 BKN033 OVC090 TX21/1613Z TN14/1604Z"
    },
    {
      "icao": "LZIB",
      "alert": "OK",
      "vis_m": 5000,
      "fzfg": false,
      "metar_trigger": false,
      "taf_trigger": false,
      "metar": "METAR LZIB 160330Z 36006KT 5000 -RA BR FEW003 SCT006 BKN010 11/10 Q0999 TEMPO RA",
      "taf": "TAF LZIB 152315Z 1600/1700 17005KT 9999 -RA SCT025 BKN040"
    },
    {
      "icao": "LZKZ",
      "alert": "OK",
      "vis_m": 9999,
      "fzfg": false,
      "metar_trigger": false,
      "taf_trigger": false,
      "metar": "METAR LZKZ 160330Z 36005KT 9999 FEW005 10/09 Q1001 NOSIG",
      "taf": "TAF LZKZ 152315Z 1600/1700 20007KT 9999 -RA SCT040"
    },
    {
      "icao": "LZTT",
      "alert": "OK",
      "vis_m": 5000,
      "fzfg": false,
      "metar_trigger": false,
      "taf_trigger": false,
      "metar": "METAR LZTT 160330Z VRB02KT 5000 -RA BR BKN003 OVC046 08/08 Q1001",
      "taf": ""
    },
    {
      "icao": "OEJN",
      "alert": "OK",
      "vis_m": 9999,
      "fzfg": false,
      "metar_trigger": false,
      "taf_trigger": false,
      "metar": "METAR OEJN 160400Z 01003KT CAVOK 27/21 Q1005 NOSIG",
      "taf": "TAF OEJN 152300Z 1600/1706 01005KT CAVOK"
    },
    {
      "icao": "OEMA",
      "alert": "OK",
      "vis_m": 9999,
      "fzfg": false,
      "metar_trigger": false,
      "taf_trigger": false,
      "metar": "METAR OEMA 160400Z 33003KT CAVOK 31/M03 Q1010 NOSIG",
      "taf": "TAF OEMA 152300Z 1600/1706 VRB03KT CAVOK"
    },
    {
      "icao": "OJAI",
      "alert": "OK",
      "vis_m": 4000,
      "fzfg": false,
      "metar_trigger": false,
      "taf_trigger": false,
      "metar": "METAR OJAI 160300Z 27008KT 4000 HZ SCT030 13/10 Q1012 NOSIG",
      "taf": "TAF OJAI 152300Z 1600/1706 27014KT 5000 HZ SCT030"
    },
    {
      "icao": "OMAA",
      "alert": "OK",
      "vis_m": 9999,
      "fzfg": false,
      "metar_trigger": false,
      "taf_trigger": false,
      "metar": "METAR OMAA 160400Z 22005KT 190V270 CAVOK 28/19 Q1002 NOSIG",
      "taf": "TAF OMAA 152300Z 1600/1706 22005KT 8000 NSC"
    },
    {
      "icao": "OMDB",
      "alert": "OK",
      "vis_m": 9999,
      "fzfg": false,
      "metar_trigger": false,
      "taf_trigger": false,
      "metar": "METAR OMDB 160400Z 19009KT CAVOK 28/18 Q1002 NOSIG",
      "taf": "TAF OMDB 152300Z 1600/1706 20008KT CAVOK"
    },
    {
      "icao": "UAAA",
      "alert": "OK",
      "vis_m": 9999,
      "fzfg": false,
      "metar_trigger": false,
      "taf_trigger": false,
      "metar": "METAR UAAA 160330Z 03002MPS 300V070 9999 NSC 14/01 Q1014 NOSIG",
      "taf": "TAF UAAA 152302Z 1600/1624 34003MPS 9999 FEW100 TX23/1610Z TN05/1601Z"
    },
    {
      "icao": "UBBB",
      "alert": "OK",
      "vis_m": 9999,
      "fzfg": false,
      "metar_trigger": false,
      "taf_trigger": false,
      "metar": "METAR UBBB 160400Z 33018KT 9999 SCT013 18/14 Q1002 NOSIG",
      "taf": ""
    },
    {
      "icao": "UDSG",
      "alert": "OK",
      "vis_m": 9999,
      "fzfg": false,
      "metar_trigger": false,
      "taf_trigger": false,
      "metar": "METAR UDSG 160330Z 09005KT 040V110 9999 -SHRA BKN033CB 08/07 Q1007 NOSIG",
      "taf": "TAF UDSG 152258Z 1600/1624 06006KT 9999 BKN040"
    },
    {
      "icao": "UDYZ",
      "alert": "OK",
      "vis_m": 9999,
      "fzfg": false,
      "metar_trigger": false,
      "taf_trigger": false,
      "metar": "METAR UDYZ 160330Z VRB01KT 9999 BKN043CB 12/09 Q1004 NOSIG",
      "taf": "TAF UDYZ 152300Z 1600/1624 04006KT 9999 BKN040"
    },
    {
      "icao": "UGKO",
      "alert": "OK",
      "vis_m": 9999,
      "fzfg": false,
      "metar_trigger": false,
      "taf_trigger": false,
      "metar": "METAR UGKO 160330Z 27006KT 9999 -RA SCT005 OVC020 12/12 Q1008 NOSIG",
      "taf": "TAF UGKO 152300Z 1600/1624 26012KT 9999 BKN050 TX15/1612Z TN12/1602Z"
    }
  ]
}