{
  "ts_utc": "2026-06-24T00:15:10Z",
  "threshold_m": 150,
  "source": "stations_override.txt (ICAO list) + aviationweather.gov (METAR/TAF raw)",
  "station_count": 159,
  "stations": [
    {
      "icao": "BIKF",
      "alert": "OK",
      "vis_m": 9999,
      "fzfg": false,
      "metar_trigger": false,
      "taf_trigger": false,
      "metar": "METAR BIKF 240000Z 03004KT 9999 -DZ BKN036 OVC081 11/10 Q1002",
      "taf": "TAF BIKF 232246Z 2400/2500 01007KT 9999 -RA BKN020 TX13/2415Z TN09/2403Z"
    },
    {
      "icao": "BKPR",
      "alert": "OK",
      "vis_m": 9999,
      "fzfg": false,
      "metar_trigger": false,
      "taf_trigger": false,
      "metar": "METAR BKPR 240000Z 30006KT 9999 FEW070 18/16 Q1019 NOSIG",
      "taf": "TAF BKPR 232330Z 2400/2424 34008KT 9999 FEW050"
    },
    {
      "icao": "EBCI",
      "alert": "OK",
      "vis_m": 9999,
      "fzfg": false,
      "metar_trigger": false,
      "taf_trigger": false,
      "metar": "METAR EBCI 232350Z 12004KT CAVOK 23/18 Q1019 NOSIG",
      "taf": "TAF EBCI 232314Z 2400/2506 VRB04KT CAVOK"
    },
    {
      "icao": "EDDB",
      "alert": "OK",
      "vis_m": 9999,
      "fzfg": false,
      "metar_trigger": false,
      "taf_trigger": false,
      "metar": "METAR EDDB 232350Z AUTO 05003KT CAVOK 16/13 Q1020 NOSIG",
      "taf": "TAF EDDB 232300Z 2400/2424 VRB03KT CAVOK"
    },
    {
      "icao": "EDDH",
      "alert": "OK",
      "vis_m": 9999,
      "fzfg": false,
      "metar_trigger": false,
      "taf_trigger": false,
      "metar": "METAR EDDH 232350Z AUTO 09003KT 070V130 CAVOK 16/12 Q1020 NOSIG",
      "taf": "TAF EDDH 232300Z 2400/2506 VRB03KT CAVOK"
    },
    {
      "icao": "EDDK",
      "alert": "OK",
      "vis_m": 9999,
      "fzfg": false,
      "metar_trigger": false,
      "taf_trigger": false,
      "metar": "METAR EDDK 232350Z AUTO VRB01KT CAVOK 20/18 Q1019 NOSIG",
      "taf": "TAF EDDK 232300Z 2400/2506 11003KT CAVOK"
    },
    {
      "icao": "EDDN",
      "alert": "OK",
      "vis_m": 9999,
      "fzfg": false,
      "metar_trigger": false,
      "taf_trigger": false,
      "metar": "METAR EDDN 232350Z AUTO VRB02KT CAVOK 20/18 Q1020",
      "taf": "TAF EDDN 232300Z 2400/2424 VRB02KT CAVOK"
    },
    {
      "icao": "EDDS",
      "alert": "OK",
      "vis_m": 9999,
      "fzfg": false,
      "metar_trigger": false,
      "taf_trigger": false,
      "metar": "METAR EDDS 232350Z AUTO 32004KT CAVOK 23/17 Q1020",
      "taf": "TAF EDDS 232300Z 2400/2424 VRB03KT CAVOK"
    },
    {
      "icao": "EDFH",
      "alert": "OK",
      "vis_m": 9999,
      "fzfg": false,
      "metar_trigger": false,
      "taf_trigger": false,
      "metar": "METAR EDFH 232350Z VRB02KT CAVOK 20/16 Q1021",
      "taf": "TAF EDFH 232300Z 2400/2424 12004KT CAVOK"
    },
    {
      "icao": "EDJA",
      "alert": "OK",
      "vis_m": 9999,
      "fzfg": false,
      "metar_trigger": false,
      "taf_trigger": false,
      "metar": "METAR EDJA 232350Z AUTO VRB01KT 9999 // FEW140/// 18/15 Q1021",
      "taf": "TAF EDJA 231700Z 2318/2403 33005KT CAVOK"
    },
    {
      "icao": "EDLW",
      "alert": "OK",
      "vis_m": 9999,
      "fzfg": false,
      "metar_trigger": false,
      "taf_trigger": false,
      "metar": "METAR EDLW 232350Z AUTO 14005KT 9999 // NCD 21/18 Q1019",
      "taf": "TAF EDLW 231700Z 2318/2418 VRB03KT CAVOK"
    },
    {
      "icao": "EDNY",
      "alert": "OK",
      "vis_m": 9999,
      "fzfg": false,
      "metar_trigger": false,
      "taf_trigger": false,
      "metar": "METAR EDNY 232350Z AUTO 05003KT 9999 // NCD 19/18 Q1020",
      "taf": "TAF EDNY 231700Z 2318/2403 VRB03KT CAVOK"
    },
    {
      "icao": "EDSB",
      "alert": "OK",
      "vis_m": 9999,
      "fzfg": false,
      "metar_trigger": false,
      "taf_trigger": false,
      "metar": "METAR EDSB 232350Z AUTO 04007KT 9999 // NCD 24/18 Q1018",
      "taf": "TAF EDSB 232300Z 2400/2424 VRB03KT CAVOK"
    },
    {
      "icao": "EETN",
      "alert": "OK",
      "vis_m": 9999,
      "fzfg": false,
      "metar_trigger": false,
      "taf_trigger": false,
      "metar": "METAR EETN 232350Z 21003KT CAVOK 13/09 Q1016",
      "taf": "TAF EETN 232330Z 2400/2424 19007KT 9999 SCT045"
    },
    {
      "icao": "EFTU",
      "alert": "OK",
      "vis_m": 9999,
      "fzfg": false,
      "metar_trigger": false,
      "taf_trigger": false,
      "metar": "METAR EFTU 232350Z AUTO 21004KT 9999 -SHRA NSC 14/13 Q1014",
      "taf": "TAF EFTU 232333Z 2400/2424 19005KT 9999 -SHRA SCT040"
    },
    {
      "icao": "EGBB",
      "alert": "OK",
      "vis_m": 9999,
      "fzfg": false,
      "metar_trigger": false,
      "taf_trigger": false,
      "metar": "METAR EGBB 232350Z 32006KT CAVOK 23/20 Q1018",
      "taf": "TAF EGBB 232253Z 2400/2424 34005KT CAVOK"
    },
    {
      "icao": "EGGP",
      "alert": "OK",
      "vis_m": 9999,
      "fzfg": false,
      "metar_trigger": false,
      "taf_trigger": false,
      "metar": "METAR EGGP 232350Z 30005KT CAVOK 19/16 Q1018",
      "taf": "TAF EGGP 232253Z 2400/2424 VRB03KT 9999 FEW040"
    },
    {
      "icao": "EGGW",
      "alert": "OK",
      "vis_m": 9999,
      "fzfg": false,
      "metar_trigger": false,
      "taf_trigger": false,
      "metar": "METAR EGGW 232350Z AUTO 14002KT 9999 NCD 21/19 Q1017",
      "taf": "TAF EGGW 232253Z 2400/2424 13002KT CAVOK"
    },
    {
      "icao": "EGKK",
      "alert": "OK",
      "vis_m": 9999,
      "fzfg": false,
      "metar_trigger": false,
      "taf_trigger": false,
      "metar": "METAR EGKK 232350Z 04003KT 010V130 CAVOK 25/20 Q1017",
      "taf": "TAF EGKK 232300Z 2400/2506 02003KT CAVOK"
    },
    {
      "icao": "EGNM",
      "alert": "OK",
      "vis_m": 9999,
      "fzfg": false,
      "metar_trigger": false,
      "taf_trigger": false,
      "metar": "METAR EGNM 232350Z 29009KT CAVOK 20/18 Q1018",
      "taf": "TAF EGNM 232254Z 2400/2424 31005KT 9999 FEW040"
    },
    {
      "icao": "EGPD",
      "alert": "OK",
      "vis_m": 9999,
      "fzfg": false,
      "metar_trigger": false,
      "taf_trigger": false,
      "metar": "METAR EGPD 232350Z AUTO VRB02KT 9999 OVC037 18/13 Q1017",
      "taf": "TAF EGPD 232255Z 2400/2424 VRB03KT 9999 FEW030"
    },
    {
      "icao": "EGPF",
      "alert": "OK",
      "vis_m": 9999,
      "fzfg": false,
      "metar_trigger": false,
      "taf_trigger": false,
      "metar": "METAR EGPF 232350Z AUTO 27004KT 9999 OVC039 16/14 Q1019",
      "taf": "TAF EGPF 232258Z 2400/2424 31005KT 9999 BKN020"
    },
    {
      "icao": "EHBK",
      "alert": "OK",
      "vis_m": 9999,
      "fzfg": false,
      "metar_trigger": false,
      "taf_trigger": false,
      "metar": "METAR EHBK 232325Z AUTO 10005KT 9999 NCD 22/17 Q1019",
      "taf": "TAF EHBK 232314Z 2400/2506 09003KT CAVOK"
    },
    {
      "icao": "EHEH",
      "alert": "OK",
      "vis_m": 9999,
      "fzfg": false,
      "metar_trigger": false,
      "taf_trigger": false,
      "metar": "METAR EHEH 232325Z AUTO 07001KT 9999 NCD 20/18 Q1019 BLU",
      "taf": "TAF EHEH 232309Z 2400/2506 09003KT CAVOK"
    },
    {
      "icao": "EKBI",
      "alert": "OK",
      "vis_m": 9999,
      "fzfg": false,
      "metar_trigger": false,
      "taf_trigger": false,
      "metar": "METAR EKBI 232350Z AUTO 07002KT 9999 NCD 13/13 Q1020",
      "taf": "TAF EKBI 232327Z 2400/2424 VRB03KT CAVOK"
    },
    {
      "icao": "EKCH",
      "alert": "OK",
      "vis_m": 9999,
      "fzfg": false,
      "metar_trigger": false,
      "taf_trigger": false,
      "metar": "METAR EKCH 232350Z 26003KT CAVOK 15/12 Q1020 NOSIG",
      "taf": "TAF EKCH 232327Z 2400/2424 VRB02KT CAVOK"
    },
    {
      "icao": "ENAL",
      "alert": "OK",
      "vis_m": 9999,
      "fzfg": false,
      "metar_trigger": false,
      "taf_trigger": false,
      "metar": "METAR ENAL 232350Z AUTO 15006KT 9999 BKN026/// BKN033/// 12/12 Q1013 REDZRA",
      "taf": "TAF ENAL 232300Z 2400/2409 14005KT 9999 FEW015 BKN025"
    },
    {
      "icao": "ENBR",
      "alert": "OK",
      "vis_m": 9999,
      "fzfg": false,
      "metar_trigger": false,
      "taf_trigger": false,
      "metar": "METAR ENBR 232350Z 14009KT 9999 BKN015 13/10 Q1016 RMK WIND 1200FT 15021KT",
      "taf": "TAF ENBR 232300Z 2400/2424 15012KT 9999 FEW008 BKN014"
    },
    {
      "icao": "ENGM",
      "alert": "OK",
      "vis_m": 9999,
      "fzfg": false,
      "metar_trigger": false,
      "taf_trigger": false,
      "metar": "METAR ENGM 232350Z VRB01KT CAVOK 14/12 Q1014",
      "taf": "TAF ENGM 232300Z 2400/2424 VRB03KT CAVOK"
    },
    {
      "icao": "ENHD",
      "alert": "OK",
      "vis_m": 9999,
      "fzfg": false,
      "metar_trigger": false,
      "taf_trigger": false,
      "metar": "METAR ENHD 232350Z AUTO 14012KT 9999 OVC012/// 14/12 Q1016",
      "taf": "TAF ENHD 231400Z 2315/2322 16010KT 9999 BKN040"
    },
    {
      "icao": "ENTC",
      "alert": "OK",
      "vis_m": 9999,
      "fzfg": false,
      "metar_trigger": false,
      "taf_trigger": false,
      "metar": "METAR ENTC 232320Z AUTO VRB02KT 9999 SCT026/// BKN033/// 08/06 Q1014 RMK WIND 2600FT 17002KT",
      "taf": "TAF ENTC 232300Z 2400/2424 03005KT 9999 -SHRA FEW025TCU BKN030"
    },
    {
      "icao": "ENTO",
      "alert": "OK",
      "vis_m": 3800,
      "fzfg": false,
      "metar_trigger": false,
      "taf_trigger": false,
      "metar": "METAR ENTO 232350Z AUTO VRB02KT 3800 // NCD 17/09 Q1016",
      "taf": "TAF ENTO 231700Z 2318/2418 26005KT CAVOK"
    },
    {
      "icao": "ENVA",
      "alert": "OK",
      "vis_m": 9999,
      "fzfg": false,
      "metar_trigger": false,
      "taf_trigger": false,
      "metar": "METAR ENVA 232350Z AUTO 10003KT 9999 -RA FEW013/// SCT032/// 11/11 Q1014 RMK WIND 670FT 12003KT",
      "taf": "TAF ENVA 232300Z 2400/2424 VRB05KT 9999 -RA FEW020 BKN040"
    },
    {
      "icao": "ENZV",
      "alert": "OK",
      "vis_m": 9999,
      "fzfg": false,
      "metar_trigger": false,
      "taf_trigger": false,
      "metar": "METAR ENZV 232350Z AUTO 19004KT 9999 BKN021/// OVC047/// 15/11 Q1018",
      "taf": "TAF ENZV 232300Z 2400/2424 17010KT 9999 BKN045"
    },
    {
      "icao": "EPGD",
      "alert": "OK",
      "vis_m": 9999,
      "fzfg": false,
      "metar_trigger": false,
      "taf_trigger": false,
      "metar": "METAR EPGD 240000Z 27002KT CAVOK 12/11 Q1020",
      "taf": "TAF EPGD 232330Z 2400/2424 VRB02KT CAVOK"
    },
    {
      "icao": "EPKK",
      "alert": "OK",
      "vis_m": 9999,
      "fzfg": false,
      "metar_trigger": false,
      "taf_trigger": false,
      "metar": "METAR EPKK 240000Z 25002KT CAVOK 17/13 Q1020",
      "taf": "TAF EPKK 232330Z 2400/2424 VRB02KT CAVOK"
    },
    {
      "icao": "EPKT",
      "alert": "OK",
      "vis_m": 5000,
      "fzfg": false,
      "metar_trigger": false,
      "taf_trigger": false,
      "metar": "METAR EPKT 240000Z VRB01KT 5000 0600NE BCFG BR NSC 12/12 Q1020",
      "taf": "TAF EPKT 232330Z 2400/2424 VRB02KT CAVOK"
    },
    {
      "icao": "EPLB",
      "alert": "OK",
      "vis_m": 9999,
      "fzfg": false,
      "metar_trigger": false,
      "taf_trigger": false,
      "metar": "METAR EPLB 240000Z VRB02KT CAVOK 14/11 Q1019",
      "taf": "TAF EPLB 232330Z 2400/2424 31005KT CAVOK"
    },
    {
      "icao": "EPMO",
      "alert": "OK",
      "vis_m": 9999,
      "fzfg": false,
      "metar_trigger": false,
      "taf_trigger": false,
      "metar": "METAR EPMO 240000Z VRB02KT CAVOK 14/10 Q1019",
      "taf": "TAF EPMO 232330Z 2400/2424 VRB02KT CAVOK"
    },
    {
      "icao": "EPPO",
      "alert": "OK",
      "vis_m": 9999,
      "fzfg": false,
      "metar_trigger": false,
      "taf_trigger": false,
      "metar": "METAR EPPO 240000Z 13001KT CAVOK 14/10 Q1020",
      "taf": "TAF EPPO 232330Z 2400/2424 VRB02KT CAVOK"
    },
    {
      "icao": "EPRA",
      "alert": "OK",
      "vis_m": 9999,
      "fzfg": false,
      "metar_trigger": false,
      "taf_trigger": false,
      "metar": "METAR EPRA 240000Z VRB02KT CAVOK 16/08 Q1020",
      "taf": "TAF EPRA 232330Z 2400/2409 VRB02KT CAVOK"
    },
    {
      "icao": "EPRZ",
      "alert": "OK",
      "vis_m": 9999,
      "fzfg": false,
      "metar_trigger": false,
      "taf_trigger": false,
      "metar": "METAR EPRZ 240000Z 24002KT CAVOK 17/12 Q1019",
      "taf": "TAF EPRZ 232330Z 2400/2424 VRB02KT CAVOK"
    },
    {
      "icao": "EPSC",
      "alert": "OK",
      "vis_m": 9999,
      "fzfg": false,
      "metar_trigger": false,
      "taf_trigger": false,
      "metar": "METAR EPSC 240000Z 13002KT CAVOK 13/12 Q1020",
      "taf": "TAF EPSC 232330Z 2400/2424 VRB02KT CAVOK"
    },
    {
      "icao": "EPSY",
      "alert": "OK",
      "vis_m": 9999,
      "fzfg": false,
      "metar_trigger": false,
      "taf_trigger": false,
      "metar": "METAR EPSY 240000Z 00000KT CAVOK 11/10 Q1020",
      "taf": "TAF EPSY 232330Z 2400/2409 VRB02KT CAVOK"
    },
    {
      "icao": "EPWA",
      "alert": "OK",
      "vis_m": 9999,
      "fzfg": false,
      "metar_trigger": false,
      "taf_trigger": false,
      "metar": "METAR EPWA 240000Z 26004KT CAVOK 15/11 Q1019 NOSIG",
      "taf": "TAF EPWA 232330Z 2400/2424 26005KT CAVOK"
    },
    {
      "icao": "EPWR",
      "alert": "OK",
      "vis_m": 9999,
      "fzfg": false,
      "metar_trigger": false,
      "taf_trigger": false,
      "metar": "METAR EPWR 240000Z VRB01KT CAVOK 13/11 Q1021",
      "taf": "TAF EPWR 232330Z 2400/2424 VRB02KT CAVOK"
    },
    {
      "icao": "ESGG",
      "alert": "OK",
      "vis_m": 9999,
      "fzfg": false,
      "metar_trigger": false,
      "taf_trigger": false,
      "metar": "METAR ESGG 232350Z 24005KT CAVOK 14/10 Q1019",
      "taf": "TAF ESGG 232330Z 2400/2424 25006KT CAVOK"
    },
    {
      "icao": "ESKN",
      "alert": "OK",
      "vis_m": 9999,
      "fzfg": false,
      "metar_trigger": false,
      "taf_trigger": false,
      "metar": "METAR ESKN 232350Z 25005KT CAVOK 15/11 Q1015",
      "taf": "TAF ESKN 232330Z 2400/2424 25004KT CAVOK"
    },
    {
      "icao": "ESMS",
      "alert": "OK",
      "vis_m": 9999,
      "fzfg": false,
      "metar_trigger": false,
      "taf_trigger": false,
      "metar": "METAR ESMS 232350Z AUTO 00000KT 9999 NCD 11/09 Q1020",
      "taf": "TAF ESMS 232327Z 2400/2424 26004KT 9999 FEW030"
    },
    {
      "icao": "ESSA",
      "alert": "OK",
      "vis_m": 9999,
      "fzfg": false,
      "metar_trigger": false,
      "taf_trigger": false,
      "metar": "METAR ESSA 232350Z 26004KT 9999 -RA FEW046 14/12 Q1014 NOSIG",
      "taf": "TAF ESSA 232330Z 2400/2424 VRB03KT CAVOK"
    },
    {
      "icao": "EYKA",
      "alert": "OK",
      "vis_m": 9999,
      "fzfg": false,
      "metar_trigger": false,
      "taf_trigger": false,
      "metar": "METAR EYKA 232350Z AUTO VRB01KT 9999 NCD 09/08 Q1019",
      "taf": "TAF EYKA 232300Z 2400/2424 VRB03KT CAVOK"
    },
    {
      "icao": "EYPA",
      "alert": "OK",
      "vis_m": 9999,
      "fzfg": false,
      "metar_trigger": false,
      "taf_trigger": false,
      "metar": "METAR EYPA 232350Z AUTO VRB01KT 9999 NCD 11/10 Q1019",
      "taf": "TAF EYPA 232300Z 2400/2424 VRB03KT 9000 NSC"
    },
    {
      "icao": "EYVI",
      "alert": "OK",
      "vis_m": 9999,
      "fzfg": false,
      "metar_trigger": false,
      "taf_trigger": false,
      "metar": "METAR EYVI 232350Z VRB01KT CAVOK 11/07 Q1019 NOSIG",
      "taf": "TAF EYVI 232300Z 2400/2424 VRB03KT CAVOK"
    },
    {
      "icao": "GCFV",
      "alert": "OK",
      "vis_m": 9999,
      "fzfg": false,
      "metar_trigger": false,
      "taf_trigger": false,
      "metar": "METAR GCFV 240000Z AUTO 01008KT CAVOK 21/17 Q1017",
      "taf": "TAF GCFV 232000Z 2321/2421 36008KT 9999 BKN018 TX25/2414Z TN20/2406Z"
    },
    {
      "icao": "GCLP",
      "alert": "OK",
      "vis_m": 9999,
      "fzfg": false,
      "metar_trigger": false,
      "taf_trigger": false,
      "metar": "METAR GCLP 240000Z 01013KT 9999 FEW035 22/18 Q1017 NOSIG",
      "taf": "TAF GCLP 232000Z 2321/2421 01013KT 9999 SCT030 TX25/2414Z TN20/2406Z"
    },
    {
      "icao": "GCTS",
      "alert": "OK",
      "vis_m": 9999,
      "fzfg": false,
      "metar_trigger": false,
      "taf_trigger": false,
      "metar": "METAR GCTS 240000Z 07012KT 030V090 9999 BKN035 22/18 Q1017 NOSIG",
      "taf": "TAF GCTS 232000Z 2321/2421 03008KT 9999 OVC025 TX26/2414Z TN19/2406Z"
    },
    {
      "icao": "GMAD",
      "alert": "OK",
      "vis_m": 8000,
      "fzfg": false,
      "metar_trigger": false,
      "taf_trigger": false,
      "metar": "METAR GMAD 240000Z 14003KT 8000 FEW020 19/17 Q1015 NOSIG",
      "taf": "TAF GMAD 232300Z 2400/2506 06008KT 8000 SCT010"
    },
    {
      "icao": "GMMN",
      "alert": "OK",
      "vis_m": 9999,
      "fzfg": false,
      "metar_trigger": false,
      "taf_trigger": false,
      "metar": "METAR GMMN 240000Z 01004KT 340V040 9999 SCT016 19/16 Q1016 NOSIG",
      "taf": "TAF GMMN 232300Z 2400/2506 36003KT 9999 BKN013"
    },
    {
      "icao": "GMMX",
      "alert": "OK",
      "vis_m": 9999,
      "fzfg": false,
      "metar_trigger": false,
      "taf_trigger": false,
      "metar": "METAR GMMX 240000Z 25009KT CAVOK 21/16 Q1016 NOSIG",
      "taf": "TAF GMMX 232300Z 2400/2506 24006KT 8000 NSC"
    },
    {
      "icao": "HEGN",
      "alert": "OK",
      "vis_m": 9999,
      "fzfg": false,
      "metar_trigger": false,
      "taf_trigger": false,
      "metar": "METAR HEGN 232300Z 28010KT CAVOK 28/06 Q1008 NOSIG",
      "taf": "TAF HEGN 232300Z 2400/2506 29008G20KT CAVOK"
    },
    {
      "icao": "HEMA",
      "alert": "OK",
      "vis_m": 9999,
      "fzfg": false,
      "metar_trigger": false,
      "taf_trigger": false,
      "metar": "METAR HEMA 232300Z 27006KT CAVOK 27/03 Q1008 NOSIG",
      "taf": "TAF HEMA 232300Z 2400/2506 30008G20KT CAVOK"
    },
    {
      "icao": "HESH",
      "alert": "OK",
      "vis_m": 9999,
      "fzfg": false,
      "metar_trigger": false,
      "taf_trigger": false,
      "metar": "METAR HESH 232300Z 35010KT CAVOK 31/04 Q1007 NOSIG",
      "taf": "TAF HESH 232300Z 2400/2506 32012KT CAVOK"
    },
    {
      "icao": "HESX",
      "alert": "OK",
      "vis_m": 9999,
      "fzfg": false,
      "metar_trigger": false,
      "taf_trigger": false,
      "metar": "METAR HESX 232300Z 34006KT CAVOK 22/17 Q1011 NOSIG",
      "taf": "TAF HESX 232300Z 2400/2506 32009KT CAVOK"
    },
    {
      "icao": "LATI",
      "alert": "OK",
      "vis_m": 9999,
      "fzfg": false,
      "metar_trigger": false,
      "taf_trigger": false,
      "metar": "METAR LATI 232350Z VRB02KT CAVOK 23/17 Q1013 NOSIG",
      "taf": "TAF LATI 232300Z 2400/2424 VRB03KT CAVOK TX34/2412Z TN20/2404Z"
    },
    {
      "icao": "LBPD",
      "alert": "OK",
      "vis_m": 9999,
      "fzfg": false,
      "metar_trigger": false,
      "taf_trigger": false,
      "metar": "METAR LBPD 240000Z AUTO 00000KT 9999 FEW073/// SCT110/// OVC140/// 20/15 Q1015",
      "taf": "TAF LBPD 232300Z 2400/2424 VRB04KT 9999 SCT070"
    },
    {
      "icao": "LBSF",
      "alert": "OK",
      "vis_m": 9999,
      "fzfg": false,
      "metar_trigger": false,
      "taf_trigger": false,
      "metar": "METAR LBSF 240000Z AUTO 33003KT 300V020 9999 NCD 16/15 Q1018 NOSIG",
      "taf": "TAF LBSF 232300Z 2400/2424 VRB04KT 9999 SCT060"
    },
    {
      "icao": "LBWN",
      "alert": "OK",
      "vis_m": 9999,
      "fzfg": false,
      "metar_trigger": false,
      "taf_trigger": false,
      "metar": "METAR LBWN 240000Z AUTO 00000KT 9999 NCD 15/13 Q1015 NOSIG",
      "taf": "TAF LBWN 232300Z 2400/2424 VRB03KT CAVOK"
    },
    {
      "icao": "LCLK",
      "alert": "OK",
      "vis_m": 9999,
      "fzfg": false,
      "metar_trigger": false,
      "taf_trigger": false,
      "metar": "METAR LCLK 240000Z VRB02KT CAVOK 25/24 Q1006 NOSIG",
      "taf": "TAF LCLK 232330Z 2400/2500 28007KT 9999 FEW025"
    },
    {
      "icao": "LCPH",
      "alert": "OK",
      "vis_m": 9999,
      "fzfg": false,
      "metar_trigger": false,
      "taf_trigger": false,
      "metar": "METAR LCPH 240000Z AUTO 02006KT 9999 NCD 22/14 Q1007 NOSIG",
      "taf": "TAF LCPH 232330Z 2400/2500 35009KT 9999 FEW020"
    },
    {
      "icao": "LEAL",
      "alert": "OK",
      "vis_m": 9999,
      "fzfg": false,
      "metar_trigger": false,
      "taf_trigger": false,
      "metar": "METAR LEAL 240000Z 33003KT CAVOK 26/13 Q1016 NOSIG",
      "taf": "TAF LEAL 232300Z 2400/2424 34004KT CAVOK TX33/2412Z TN22/2406Z"
    },
    {
      "icao": "LEBB",
      "alert": "OK",
      "vis_m": 9999,
      "fzfg": false,
      "metar_trigger": false,
      "taf_trigger": false,
      "metar": "METAR LEBB 240000Z AUTO 08003KT CAVOK 25/19 Q1014",
      "taf": "TAF LEBB 232300Z 2400/2424 12005KT CAVOK TX38/2412Z TN24/2406Z"
    },
    {
      "icao": "LEBL",
      "alert": "OK",
      "vis_m": 9000,
      "fzfg": false,
      "metar_trigger": false,
      "taf_trigger": false,
      "metar": "METAR LEBL 240000Z VRB01KT 9000 FEW020 25/25 Q1016 NOSIG",
      "taf": "TAF LEBL 232300Z 2400/2424 VRB04KT CAVOK TX31/2412Z TN23/2405Z"
    },
    {
      "icao": "LECH",
      "alert": "OK",
      "vis_m": 9999,
      "fzfg": false,
      "metar_trigger": false,
      "taf_trigger": false,
      "metar": "METAR LECH 240000Z AUTO 19005KT CAVOK 23/15 Q1018",
      "taf": "TAF LECH 232300Z 2400/2424 VRB03KT CAVOK TX35/2412Z TN20/2406Z"
    },
    {
      "icao": "LEMD",
      "alert": "OK",
      "vis_m": 9999,
      "fzfg": false,
      "metar_trigger": false,
      "taf_trigger": false,
      "metar": "METAR LEMD 240000Z 11004KT 070V160 CAVOK 29/08 Q1017 NOSIG",
      "taf": "TAF LEMD 232300Z 2400/2506 VRB04KT CAVOK TX40/2416Z TN23/2405Z"
    },
    {
      "icao": "LEMG",
      "alert": "OK",
      "vis_m": 9999,
      "fzfg": false,
      "metar_trigger": false,
      "taf_trigger": false,
      "metar": "METAR LEMG 240000Z VRB01KT CAVOK 24/14 Q1014 NOSIG",
      "taf": "TAF LEMG 232300Z 2400/2424 29006KT CAVOK TX30/2414Z TN22/2406Z"
    },
    {
      "icao": "LEVC",
      "alert": "OK",
      "vis_m": 9999,
      "fzfg": false,
      "metar_trigger": false,
      "taf_trigger": false,
      "metar": "METAR LEVC 240000Z 27003KT CAVOK 23/15 Q1017 NOSIG",
      "taf": "TAF LEVC 232300Z 2400/2424 31004KT CAVOK TX35/2412Z TN22/2406Z"
    },
    {
      "icao": "LEXJ",
      "alert": "OK",
      "vis_m": 9999,
      "fzfg": false,
      "metar_trigger": false,
      "taf_trigger": false,
      "metar": "METAR LEXJ 240000Z AUTO 19003KT CAVOK 23/20 Q1013",
      "taf": "TAF LEXJ 232000Z 2321/2421 VRB03KT 9999 FEW015 TX38/2412Z TN20/2405Z"
    },
    {
      "icao": "LEZG",
      "alert": "OK",
      "vis_m": 9999,
      "fzfg": false,
      "metar_trigger": false,
      "taf_trigger": false,
      "metar": "METAR LEZG 240000Z 09004KT CAVOK 29/12 Q1016 NOSIG",
      "taf": "TAF LEZG 232300Z 2400/2424 11007KT CAVOK TX40/2415Z TN25/2406Z"
    },
    {
      "icao": "LEZL",
      "alert": "OK",
      "vis_m": 9000,
      "fzfg": false,
      "metar_trigger": false,
      "taf_trigger": false,
      "metar": "METAR LEZL 240000Z AUTO 22007KT 190V250 9000 NCD 25/20 Q1014",
      "taf": "TAF LEZL 232000Z 2321/2421 23010KT CAVOK TX35/2415Z TN21/2406Z"
    },
    {
      "icao": "LFBD",
      "alert": "OK",
      "vis_m": 9999,
      "fzfg": false,
      "metar_trigger": false,
      "taf_trigger": false,
      "metar": "METAR LFBD 240000Z AUTO 04003KT CAVOK 30/18 Q1014 NOSIG",
      "taf": "TAF LFBD 232300Z 2400/2506 06008KT CAVOK TX42/2415Z TN27/2404Z"
    },
    {
      "icao": "LFLL",
      "alert": "OK",
      "vis_m": 9999,
      "fzfg": false,
      "metar_trigger": false,
      "taf_trigger": false,
      "metar": "METAR LFLL 240000Z 00000KT CAVOK 26/17 Q1017 NOSIG",
      "taf": "TAF LFLL 232300Z 2400/2506 VRB02KT CAVOK"
    },
    {
      "icao": "LFLS",
      "alert": "OK",
      "vis_m": 9999,
      "fzfg": false,
      "metar_trigger": false,
      "taf_trigger": false,
      "metar": "METAR LFLS 240000Z AUTO 11005KT 070V130 CAVOK 19/16 Q1018",
      "taf": "TAF LFLS 231400Z 2315/2415 36007KT CAVOK"
    },
    {
      "icao": "LFMN",
      "alert": "OK",
      "vis_m": 9999,
      "fzfg": false,
      "metar_trigger": false,
      "taf_trigger": false,
      "metar": "METAR LFMN 240000Z 34009KT CAVOK 27/18 Q1015 NOSIG",
      "taf": "TAF LFMN 232000Z 2321/2503 33010KT CAVOK"
    },
    {
      "icao": "LFOB",
      "alert": "OK",
      "vis_m": 9999,
      "fzfg": false,
      "metar_trigger": false,
      "taf_trigger": false,
      "metar": "METAR LFOB 240000Z AUTO 00000KT CAVOK 22/19 Q1017 NOSIG",
      "taf": "TAF LFOB 232300Z 2400/2424 12006KT CAVOK"
    },
    {
      "icao": "LFPO",
      "alert": "OK",
      "vis_m": 9999,
      "fzfg": false,
      "metar_trigger": false,
      "taf_trigger": false,
      "metar": "METAR LFPO 240000Z AUTO 13004KT CAVOK 27/17 Q1017 NOSIG",
      "taf": "TAF LFPO 232300Z 2400/2506 12008KT CAVOK"
    },
    {
      "icao": "LFSB",
      "alert": "OK",
      "vis_m": 9999,
      "fzfg": false,
      "metar_trigger": false,
      "taf_trigger": false,
      "metar": "METAR LFSB 240000Z AUTO 00000KT CAVOK 21/18 Q1019 NOSIG",
      "taf": "TAF LFSB 232300Z 2400/2424 VRB03KT CAVOK"
    },
    {
      "icao": "LGAV",
      "alert": "OK",
      "vis_m": 9999,
      "fzfg": false,
      "metar_trigger": false,
      "taf_trigger": false,
      "metar": "METAR LGAV 232350Z 35005KT CAVOK 26/10 Q1013 NOSIG",
      "taf": "TAF LGAV 232300Z 2400/2424 02012KT 9999 FEW025"
    },
    {
      "icao": "LGTS",
      "alert": "OK",
      "vis_m": 9999,
      "fzfg": false,
      "metar_trigger": false,
      "taf_trigger": false,
      "metar": "METAR LGTS 232350Z 32004KT 9999 FEW025 25/21 Q1014 NOSIG",
      "taf": "TAF LGTS 232300Z 2400/2424 VRB03KT 9999 SCT025"
    },
    {
      "icao": "LHBP",
      "alert": "OK",
      "vis_m": 9999,
      "fzfg": false,
      "metar_trigger": false,
      "taf_trigger": false,
      "metar": "METAR LHBP 240000Z 09003KT 050V110 CAVOK 22/14 Q1017 NOSIG",
      "taf": "TAF LHBP 232315Z 2400/2424 09009KT CAVOK"
    },
    {
      "icao": "LHDC",
      "alert": "OK",
      "vis_m": 9999,
      "fzfg": false,
      "metar_trigger": false,
      "taf_trigger": false,
      "metar": "METAR LHDC 232345Z AUTO 03011KT CAVOK 23/14 Q1017",
      "taf": "TAF LHDC 231715Z 2318/2403 02009KT CAVOK"
    },
    {
      "icao": "LIBD",
      "alert": "OK",
      "vis_m": 9999,
      "fzfg": false,
      "metar_trigger": false,
      "taf_trigger": false,
      "metar": "METAR LIBD 232350Z 25008KT CAVOK 25/17 Q1014",
      "taf": "TAF LIBD 232300Z 2400/2424 27006KT CAVOK"
    },
    {
      "icao": "LIBG",
      "alert": "OK",
      "vis_m": 9999,
      "fzfg": false,
      "metar_trigger": false,
      "taf_trigger": false,
      "metar": "METAR LIBG 232350Z AUTO 24003KT 9999 NCD 26/16 Q1014",
      "taf": "TAF LIBG 232300Z 2400/2424 VRB04KT 9999 FEW050"
    },
    {
      "icao": "LIBP",
      "alert": "OK",
      "vis_m": 9999,
      "fzfg": false,
      "metar_trigger": false,
      "taf_trigger": false,
      "metar": "METAR LIBP 232350Z AUTO 24005KT 9999 NCD 22/17 Q1016",
      "taf": "TAF LIBP 232300Z 2400/2424 VRB04KT CAVOK"
    },
    {
      "icao": "LIBR",
      "alert": "OK",
      "vis_m": 9999,
      "fzfg": false,
      "metar_trigger": false,
      "taf_trigger": false,
      "metar": "METAR LIBR 232350Z 31006KT CAVOK 25/20 Q1014",
      "taf": "TAF LIBR 232300Z 2400/2424 28006KT CAVOK"
    },
    {
      "icao": "LICA",
      "alert": "OK",
      "vis_m": 9999,
      "fzfg": false,
      "metar_trigger": false,
      "taf_trigger": false,
      "metar": "METAR LICA 232350Z AUTO VRB01KT 9999 SCT028/// 25/22 Q1015",
      "taf": "TAF LICA 232300Z 2400/2424 VRB05KT 9999 FEW020"
    },
    {
      "icao": "LICC",
      "alert": "OK",
      "vis_m": 9999,
      "fzfg": false,
      "metar_trigger": false,
      "taf_trigger": false,
      "metar": "METAR LICC 232350Z 20003KT CAVOK 23/16 Q1015",
      "taf": "TAF LICC 232300Z 2400/2424 26006KT CAVOK"
    },
    {
      "icao": "LICJ",
      "alert": "OK",
      "vis_m": 9999,
      "fzfg": false,
      "metar_trigger": false,
      "taf_trigger": false,
      "metar": "METAR LICJ 232350Z VRB02KT CAVOK 25/23 Q1015",
      "taf": "TAF LICJ 232300Z 2400/2424 VRB05KT CAVOK"
    },
    {
      "icao": "LIMC",
      "alert": "OK",
      "vis_m": 9999,
      "fzfg": false,
      "metar_trigger": false,
      "taf_trigger": false,
      "metar": "METAR LIMC 232350Z 02004KT CAVOK 26/20 Q1017 NOSIG",
      "taf": "TAF LIMC 232300Z 2400/2506 VRB06KT CAVOK"
    },
    {
      "icao": "LIME",
      "alert": "OK",
      "vis_m": 1000,
      "fzfg": false,
      "metar_trigger": false,
      "taf_trigger": false,
      "metar": "METAR LIME 232350Z AUTO 22016KT 1000 0650NW R28/1200U +TSRA BR BKN024/// BKN058/// 20/19 Q1019",
      "taf": "TAF LIME 232300Z 2400/2424 VRB05KT 9999 FEW060"
    },
    {
      "icao": "LIMF",
      "alert": "OK",
      "vis_m": 9999,
      "fzfg": false,
      "metar_trigger": false,
      "taf_trigger": false,
      "metar": "METAR LIMF 232350Z 32006KT CAVOK 29/18 Q1017",
      "taf": "TAF LIMF 232300Z 2400/2424 VRB06KT CAVOK"
    },
    {
      "icao": "LIMJ",
      "alert": "OK",
      "vis_m": 9999,
      "fzfg": false,
      "metar_trigger": false,
      "taf_trigger": false,
      "metar": "METAR LIMJ 232350Z VRB02KT CAVOK 28/17 Q1015",
      "taf": "TAF LIMJ 232300Z 2400/2424 VRB06KT CAVOK"
    },
    {
      "icao": "LIPE",
      "alert": "OK",
      "vis_m": 9999,
      "fzfg": false,
      "metar_trigger": false,
      "taf_trigger": false,
      "metar": "METAR LIPE 232350Z AUTO 16005KT 9999 FEW110/// BKN150/// 27/19 Q1015",
      "taf": "TAF LIPE 232300Z 2400/2424 10010KT CAVOK"
    },
    {
      "icao": "LIPH",
      "alert": "OK",
      "vis_m": 9999,
      "fzfg": false,
      "metar_trigger": false,
      "taf_trigger": false,
      "metar": "METAR LIPH 232350Z AUTO 04003KT 9999 FEW150/// 26/21 Q1017",
      "taf": "TAF LIPH 232300Z 2400/2424 VRB05KT 9999 FEW040"
    },
    {
      "icao": "LIPQ",
      "alert": "OK",
      "vis_m": 9999,
      "fzfg": false,
      "metar_trigger": false,
      "taf_trigger": false,
      "metar": "METAR LIPQ 232350Z AUTO VRB02KT 9999 NCD 23/19 Q1016",
      "taf": "TAF LIPQ 232300Z 2400/2424 08007KT 9999 FEW040"
    },
    {
      "icao": "LIPR",
      "alert": "OK",
      "vis_m": 9999,
      "fzfg": false,
      "metar_trigger": false,
      "taf_trigger": false,
      "metar": "METAR LIPR 232350Z AUTO 19003KT 9999 NCD 23/18 Q1016",
      "taf": "TAF LIPR 232300Z 2400/2424 VRB05KT CAVOK"
    },
    {
      "icao": "LIPX",
      "alert": "OK",
      "vis_m": 9999,
      "fzfg": false,
      "metar_trigger": false,
      "taf_trigger": false,
      "metar": "METAR LIPX 232350Z 11003KT CAVOK 27/20 Q1016",
      "taf": "TAF LIPX 232300Z 2400/2424 VRB05KT 9999 FEW060"
    },
    {
      "icao": "LIPY",
      "alert": "OK",
      "vis_m": 9999,
      "fzfg": false,
      "metar_trigger": false,
      "taf_trigger": false,
      "metar": "METAR LIPY 232350Z AUTO 18003KT 9999 NCD 23/21 Q1016",
      "taf": "TAF LIPY 232300Z 2400/2424 VRB05KT CAVOK"
    },
    {
      "icao": "LIPZ",
      "alert": "OK",
      "vis_m": 9999,
      "fzfg": false,
      "metar_trigger": false,
      "taf_trigger": false,
      "metar": "METAR LIPZ 232350Z 04006KT CAVOK 25/21 Q1016 NOSIG",
      "taf": "TAF LIPZ 232300Z 2400/2506 VRB05KT CAVOK"
    },
    {
      "icao": "LIRF",
      "alert": "OK",
      "vis_m": 9999,
      "fzfg": false,
      "metar_trigger": false,
      "taf_trigger": false,
      "metar": "METAR LIRF 232350Z 36004KT CAVOK 22/19 Q1015 NOSIG",
      "taf": "TAF LIRF 232300Z 2400/2506 VRB05KT CAVOK"
    },
    {
      "icao": "LIRN",
      "alert": "OK",
      "vis_m": 9999,
      "fzfg": false,
      "metar_trigger": false,
      "taf_trigger": false,
      "metar": "METAR LIRN 232350Z VRB02KT CAVOK 24/20 Q1016 NOSIG",
      "taf": "TAF LIRN 232300Z 2400/2424 VRB05KT CAVOK"
    },
    {
      "icao": "LIRP",
      "alert": "OK",
      "vis_m": 9999,
      "fzfg": false,
      "metar_trigger": false,
      "taf_trigger": false,
      "metar": "METAR LIRP 232315Z 11004KT CAVOK 23/19 Q1017 NOSIG",
      "taf": "TAF LIRP 232300Z 2400/2424 12005KT CAVOK"
    },
    {
      "icao": "LIRZ",
      "alert": "OK",
      "vis_m": 9999,
      "fzfg": false,
      "metar_trigger": false,
      "taf_trigger": false,
      "metar": "METAR LIRZ 232350Z AUTO 28003KT 250V350 9999 NCD 22/16 Q1017",
      "taf": "TAF LIRZ 232300Z 2400/2424 VRB05KT CAVOK"
    },
    {
      "icao": "LJLJ",
      "alert": "OK",
      "vis_m": 9999,
      "fzfg": false,
      "metar_trigger": false,
      "taf_trigger": false,
      "metar": "METAR LJLJ 240000Z 31009KT 9999 BKN050 19/18 Q1020 NOSIG",
      "taf": "TAF LJLJ 232300Z 2400/2500 09006KT 9999 SCT055"
    },
    {
      "icao": "LKMT",
      "alert": "OK",
      "vis_m": 9999,
      "fzfg": false,
      "metar_trigger": false,
      "taf_trigger": false,
      "metar": "METAR LKMT 240000Z VRB01KT CAVOK 14/11 Q1021 NOSIG",
      "taf": "TAF LKMT 232300Z 2400/2424 VRB02KT CAVOK"
    },
    {
      "icao": "LKPR",
      "alert": "OK",
      "vis_m": 9999,
      "fzfg": false,
      "metar_trigger": false,
      "taf_trigger": false,
      "metar": "METAR LKPR 240000Z 27002KT CAVOK 16/14 Q1021 NOSIG",
      "taf": "TAF LKPR 232300Z 2400/2506 04004KT CAVOK"
    },
    {
      "icao": "LLBG",
      "alert": "OK",
      "vis_m": 9999,
      "fzfg": false,
      "metar_trigger": false,
      "taf_trigger": false,
      "metar": "METAR LLBG 232350Z VRB03KT 9999 FEW020 23/16 Q1009 NOSIG",
      "taf": "TAF LLBG 232306Z 2400/2424 VRB04KT 9999 FEW020 TX31/2411Z TN22/2403Z"
    },
    {
      "icao": "LMML",
      "alert": "OK",
      "vis_m": 9999,
      "fzfg": false,
      "metar_trigger": false,
      "taf_trigger": false,
      "metar": "METAR LMML 232345Z 23006KT CAVOK 25/21 Q1016 NOSIG",
      "taf": "TAF LMML 232300Z 2400/2424 27008KT 9999 FEW018"
    },
    {
      "icao": "LOWW",
      "alert": "OK",
      "vis_m": 9999,
      "fzfg": false,
      "metar_trigger": false,
      "taf_trigger": false,
      "metar": "METAR LOWW 232350Z 33004KT CAVOK 20/14 Q1019 NOSIG",
      "taf": "TAF LOWW 232315Z 2400/2506 34004KT 9999 SCT050 TX31/2416Z TN18/2403Z"
    },
    {
      "icao": "LPFR",
      "alert": "OK",
      "vis_m": 9999,
      "fzfg": false,
      "metar_trigger": false,
      "taf_trigger": false,
      "metar": "METAR LPFR 240000Z 26008KT CAVOK 22/19 Q1014",
      "taf": "TAF LPFR 232300Z 2400/2424 27008KT 9999 SCT008"
    },
    {
      "icao": "LPMA",
      "alert": "OK",
      "vis_m": 9999,
      "fzfg": false,
      "metar_trigger": false,
      "taf_trigger": false,
      "metar": "METAR LPMA 240000Z 24004KT 210V280 9999 FEW015 20/16 Q1017",
      "taf": "TAF LPMA 232300Z 2400/2424 VRB05KT 9999 SCT015"
    },
    {
      "icao": "LPPR",
      "alert": "OK",
      "vis_m": 9000,
      "fzfg": false,
      "metar_trigger": false,
      "taf_trigger": false,
      "metar": "METAR LPPR 240000Z 35003KT 9000 NSC 18/17 Q1012",
      "taf": "TAF LPPR 232300Z 2400/2424 19005KT 8000 SCT012"
    },
    {
      "icao": "LPPS",
      "alert": "OK",
      "vis_m": 9999,
      "fzfg": false,
      "metar_trigger": false,
      "taf_trigger": false,
      "metar": "METAR LPPS 240000Z 28009KT 9999 FEW015 21/17 Q1017",
      "taf": "TAF LPPS 232300Z 2400/2506 30010KT 9999 FEW015"
    },
    {
      "icao": "LPPT",
      "alert": "OK",
      "vis_m": 9999,
      "fzfg": false,
      "metar_trigger": false,
      "taf_trigger": false,
      "metar": "METAR LPPT 240000Z 33004KT 280V350 CAVOK 19/17 Q1013",
      "taf": "TAF LPPT 232300Z 2400/2506 29007KT 9999 SCT015"
    },
    {
      "icao": "LQBK",
      "alert": "OK",
      "vis_m": 9999,
      "fzfg": false,
      "metar_trigger": false,
      "taf_trigger": false,
      "metar": "METAR LQBK 240000Z 00000KT CAVOK 19/17 Q1017 NOSIG",
      "taf": "TAF LQBK 232300Z 2400/2424 15005KT CAVOK TX33/2414Z TN18/2403Z"
    },
    {
      "icao": "LQSA",
      "alert": "OK",
      "vis_m": 9999,
      "fzfg": false,
      "metar_trigger": false,
      "taf_trigger": false,
      "metar": "METAR LQSA 240000Z 14003KT 110V180 CAVOK 17/15 Q1019",
      "taf": ""
    },
    {
      "icao": "LQTZ",
      "alert": "OK",
      "vis_m": 9999,
      "fzfg": false,
      "metar_trigger": false,
      "taf_trigger": false,
      "metar": "METAR LQTZ 240000Z 32003KT CAVOK 18/18 Q1017",
      "taf": "TAF LQTZ 232300Z 2400/2424 30005KT CAVOK TX30/2414Z TN17/2403Z"
    },
    {
      "icao": "LRBC",
      "alert": "OK",
      "vis_m": 9999,
      "fzfg": false,
      "metar_trigger": false,
      "taf_trigger": false,
      "metar": "METAR LRBC 240000Z AUTO 32003KT 270V030 9999 FEW120/// BKN150/// 18/17 Q1017",
      "taf": "TAF LRBC 232300Z 2400/2409 34006KT CAVOK"
    },
    {
      "icao": "LRBS",
      "alert": "OK",
      "vis_m": 9999,
      "fzfg": false,
      "metar_trigger": false,
      "taf_trigger": false,
      "metar": "METAR LRBS 240000Z VRB02KT 9999 -RA NSC 22/20 Q1015 NOSIG",
      "taf": "TAF LRBS 232300Z 2400/2424 VRB04KT CAVOK"
    },
    {
      "icao": "LRBV",
      "alert": "OK",
      "vis_m": 9999,
      "fzfg": false,
      "metar_trigger": false,
      "taf_trigger": false,
      "metar": "METAR LRBV 240000Z AUTO 23003KT 210V290 9999 NCD 16/14 Q1018",
      "taf": "TAF LRBV 231700Z 2318/2403 VRB04KT CAVOK"
    },
    {
      "icao": "LRCL",
      "alert": "OK",
      "vis_m": 9999,
      "fzfg": false,
      "metar_trigger": false,
      "taf_trigger": false,
      "metar": "METAR LRCL 240000Z 00000KT CAVOK 18/17 Q1017",
      "taf": "TAF LRCL 232300Z 2400/2409 VRB04KT CAVOK"
    },
    {
      "icao": "LRCV",
      "alert": "OK",
      "vis_m": 4000,
      "fzfg": false,
      "metar_trigger": false,
      "taf_trigger": false,
      "metar": "METAR LRCV 240000Z COR VRB02KT 4000 1500N PRFG FEW007 17/17 Q1016",
      "taf": "TAF LRCV 232300Z 2400/2409 VRB04KT 3000 BR SCT005"
    },
    {
      "icao": "LRIA",
      "alert": "OK",
      "vis_m": 9999,
      "fzfg": false,
      "metar_trigger": false,
      "taf_trigger": false,
      "metar": "METAR LRIA 240000Z 23004KT CAVOK 19/18 Q1016",
      "taf": "TAF LRIA 232300Z 2400/2409 27006KT CAVOK"
    },
    {
      "icao": "LROP",
      "alert": "OK",
      "vis_m": 9999,
      "fzfg": false,
      "metar_trigger": false,
      "taf_trigger": false,
      "metar": "METAR LROP 240000Z 01005KT 320V050 9999 -SHRA FEW056CB 22/20 Q1016 NOSIG",
      "taf": "TAF LROP 232300Z 2400/2424 VRB04KT CAVOK"
    },
    {
      "icao": "LRSB",
      "alert": "OK",
      "vis_m": 9999,
      "fzfg": false,
      "metar_trigger": false,
      "taf_trigger": false,
      "metar": "METAR LRSB 240000Z 25003KT CAVOK 17/16 Q1018",
      "taf": "TAF LRSB 232300Z 2400/2424 VRB04KT CAVOK"
    },
    {
      "icao": "LRSM",
      "alert": "OK",
      "vis_m": 9999,
      "fzfg": false,
      "metar_trigger": false,
      "taf_trigger": false,
      "metar": "METAR LRSM 240000Z AUTO 00000KT 9999 NCD 17/16 Q1016",
      "taf": "TAF LRSM 232000Z 2321/2406 03006KT CAVOK"
    },
    {
      "icao": "LRSV",
      "alert": "OK",
      "vis_m": 9999,
      "fzfg": false,
      "metar_trigger": false,
      "taf_trigger": false,
      "metar": "METAR LRSV 240000Z 31008KT CAVOK 19/16 Q1018",
      "taf": "TAF LRSV 232300Z 2400/2409 31008KT CAVOK"
    },
    {
      "icao": "LRTM",
      "alert": "OK",
      "vis_m": 9999,
      "fzfg": false,
      "metar_trigger": false,
      "taf_trigger": false,
      "metar": "METAR LRTM 240000Z 09006KT 9999 FEW007 18/18 Q1017",
      "taf": "TAF LRTM 232300Z 2400/2409 VRB04KT CAVOK"
    },
    {
      "icao": "LRTR",
      "alert": "OK",
      "vis_m": 6000,
      "fzfg": false,
      "metar_trigger": false,
      "taf_trigger": false,
      "metar": "METAR LRTR 240000Z 08003KT 6000 FEW002 18/18 Q1016",
      "taf": "TAF LRTR 232300Z 2400/2424 VRB04KT 3000 BR NSC"
    },
    {
      "icao": "LTAC",
      "alert": "OK",
      "vis_m": 9999,
      "fzfg": false,
      "metar_trigger": false,
      "taf_trigger": false,
      "metar": "METAR LTAC 232350Z 02004KT CAVOK 14/10 Q1015 NOSIG RMK RWY21C 01005KT RWY03L 01003KT RWY21R 01005KT RWY03R VRB02KT RWY21L 02004KT",
      "taf": "TAF LTAC 232240Z 2400/2424 04009KT CAVOK"
    },
    {
      "icao": "LTFM",
      "alert": "OK",
      "vis_m": 9999,
      "fzfg": false,
      "metar_trigger": false,
      "taf_trigger": false,
      "metar": "METAR LTFM 232350Z 05011KT CAVOK 22/18 Q1014 NOSIG RMK RWY17L 06008KT RWY34L 04010KT RWY16R 05009KT RWY36 05012KT RWY18 06010KT",
      "taf": "TAF LTFM 232240Z 2400/2506 04007KT CAVOK"
    },
    {
      "icao": "LUKK",
      "alert": "OK",
      "vis_m": 9999,
      "fzfg": false,
      "metar_trigger": false,
      "taf_trigger": false,
      "metar": "METAR LUKK 240000Z 30003KT CAVOK 21/18 Q1015 NOSIG",
      "taf": "TAF LUKK 232323Z 2400/2424 34006KT CAVOK"
    },
    {
      "icao": "LWOH",
      "alert": "OK",
      "vis_m": null,
      "fzfg": false,
      "metar_trigger": false,
      "taf_trigger": false,
      "metar": "",
      "taf": "TAF LWOH 232320Z 2400/2424 34005KT 9999 FEW050"
    },
    {
      "icao": "LWSK",
      "alert": "OK",
      "vis_m": 9999,
      "fzfg": false,
      "metar_trigger": false,
      "taf_trigger": false,
      "metar": "METAR LWSK 232350Z 02005KT CAVOK 21/16 Q1016 NOSIG",
      "taf": "TAF LWSK 232320Z 2400/2424 VRB02KT CAVOK"
    },
    {
      "icao": "LYBE",
      "alert": "OK",
      "vis_m": 9999,
      "fzfg": false,
      "metar_trigger": false,
      "taf_trigger": false,
      "metar": "METAR LYBE 240000Z 19004KT 160V230 CAVOK 22/18 Q1015 NOSIG",
      "taf": "TAF LYBE 232300Z 2400/2424 23005KT CAVOK TX33/2414Z TN19/2403Z"
    },
    {
      "icao": "LYNI",
      "alert": "OK",
      "vis_m": 9999,
      "fzfg": false,
      "metar_trigger": false,
      "taf_trigger": false,
      "metar": "METAR LYNI 240000Z VRB02KT CAVOK 20/18 Q1017 NOSIG",
      "taf": "TAF LYNI 232300Z 2400/2424 08005KT 9999 SCT050 TX30/2414Z TN18/2403Z"
    },
    {
      "icao": "LYPG",
      "alert": "OK",
      "vis_m": 9999,
      "fzfg": false,
      "metar_trigger": false,
      "taf_trigger": false,
      "metar": "METAR LYPG 240000Z 07001KT CAVOK 22/21 Q1014 NOSIG",
      "taf": "TAF LYPG 232300Z 2400/2424 34005KT CAVOK TX35/2412Z TN22/2401Z"
    },
    {
      "icao": "LZIB",
      "alert": "OK",
      "vis_m": 9999,
      "fzfg": false,
      "metar_trigger": false,
      "taf_trigger": false,
      "metar": "METAR LZIB 240000Z 34006KT CAVOK 22/13 Q1018 NOSIG",
      "taf": "TAF LZIB 232315Z 2400/2500 03005KT CAVOK"
    },
    {
      "icao": "LZKZ",
      "alert": "OK",
      "vis_m": 9999,
      "fzfg": false,
      "metar_trigger": false,
      "taf_trigger": false,
      "metar": "METAR LZKZ 240000Z 35005KT CAVOK 21/13 Q1018 NOSIG",
      "taf": "TAF LZKZ 232315Z 2400/2500 35010KT CAVOK"
    },
    {
      "icao": "LZTT",
      "alert": "OK",
      "vis_m": 9999,
      "fzfg": false,
      "metar_trigger": false,
      "taf_trigger": false,
      "metar": "METAR LZTT 240000Z 29004KT CAVOK 12/11 Q1021",
      "taf": "TAF LZTT 232315Z 2400/2500 31003KT CAVOK"
    },
    {
      "icao": "OEJN",
      "alert": "OK",
      "vis_m": 9999,
      "fzfg": false,
      "metar_trigger": false,
      "taf_trigger": false,
      "metar": "METAR OEJN 240000Z 28002KT CAVOK 31/19 Q1004 NOSIG",
      "taf": "TAF OEJN 232300Z 2400/2506 VRB03KT CAVOK"
    },
    {
      "icao": "OEMA",
      "alert": "OK",
      "vis_m": 9999,
      "fzfg": false,
      "metar_trigger": false,
      "taf_trigger": false,
      "metar": "METAR OEMA 240000Z 30007KT CAVOK 36/00 Q1009 NOSIG",
      "taf": "TAF OEMA 232300Z 2400/2506 26005KT CAVOK"
    },
    {
      "icao": "OJAI",
      "alert": "OK",
      "vis_m": null,
      "fzfg": false,
      "metar_trigger": false,
      "taf_trigger": false,
      "metar": "",
      "taf": "TAF OJAI 232228Z 2400/2506 29004KT 5000 HZ NSC"
    },
    {
      "icao": "OMAA",
      "alert": "OK",
      "vis_m": 9999,
      "fzfg": false,
      "metar_trigger": false,
      "taf_trigger": false,
      "metar": "METAR OMAA 240000Z 06004KT 340V120 CAVOK 34/19 Q0997 NOSIG",
      "taf": "TAF OMAA 232300Z 2400/2506 11005KT 8000 NSC"
    },
    {
      "icao": "OMDB",
      "alert": "OK",
      "vis_m": 9999,
      "fzfg": false,
      "metar_trigger": false,
      "taf_trigger": false,
      "metar": "METAR OMDB 240000Z 10005KT 050V130 CAVOK 37/20 Q0997 NOSIG",
      "taf": "TAF OMDB 232300Z 2400/2506 10005KT 8000 NSC"
    },
    {
      "icao": "UAAA",
      "alert": "OK",
      "vis_m": 9999,
      "fzfg": false,
      "metar_trigger": false,
      "taf_trigger": false,
      "metar": "METAR UAAA 240000Z VRB01MPS 9999 FEW050 18/07 Q1007 NOSIG",
      "taf": "TAF UAAA 232303Z 2400/2424 32003G08MPS 9999 SCT050CB BKN100 TX35/2410Z TN18/2401Z"
    },
    {
      "icao": "UBBB",
      "alert": "OK",
      "vis_m": 9999,
      "fzfg": false,
      "metar_trigger": false,
      "taf_trigger": false,
      "metar": "METAR UBBB 240000Z VRB02KT CAVOK 20/17 Q1011 NOSIG",
      "taf": "TAF UBBB 232302Z 2400/2424 VRB04KT CAVOK TX29/2410Z TN21/2401Z"
    },
    {
      "icao": "UDSG",
      "alert": "OK",
      "vis_m": 9999,
      "fzfg": false,
      "metar_trigger": false,
      "taf_trigger": false,
      "metar": "METAR UDSG 240000Z 08007KT 9999 BKN043CB 13/13 Q1017 NOSIG",
      "taf": "TAF UDSG 232258Z 2400/2424 06006KT 9999 SCT040"
    },
    {
      "icao": "UDYZ",
      "alert": "OK",
      "vis_m": 9000,
      "fzfg": false,
      "metar_trigger": false,
      "taf_trigger": false,
      "metar": "METAR UDYZ 240000Z 34004KT 270V010 9000 -TSRA OVC043CB 19/15 Q1011 NOSIG",
      "taf": "TAF UDYZ 232300Z 2400/2424 04006KT 9999 SCT040"
    },
    {
      "icao": "UGKO",
      "alert": "OK",
      "vis_m": 9999,
      "fzfg": false,
      "metar_trigger": false,
      "taf_trigger": false,
      "metar": "METAR UGKO 240000Z 26004KT 220V280 9999 BKN018 19/18 Q1011 NOSIG",
      "taf": "TAF UGKO 232300Z 2400/2424 25006KT 9999 SCT023 OVC030 TX23/2411Z TN18/2402Z"
    }
  ]
}