{
  "ts_utc": "2026-05-13T01:20:48Z",
  "threshold_m": 150,
  "source": "stations_override.txt (ICAO list) + aviationweather.gov (METAR/TAF raw)",
  "station_count": 159,
  "stations": [
    {
      "icao": "BIKF",
      "alert": "OK",
      "vis_m": 9999,
      "fzfg": false,
      "metar_trigger": false,
      "taf_trigger": false,
      "metar": "METAR BIKF 130100Z 01010KT 9999 FEW031 03/M00 Q1016",
      "taf": "TAF BIKF 130108Z 1303/1403 36015KT 9999 FEW020 SCT035 TX06/1316Z TN02/1303Z"
    },
    {
      "icao": "BKPR",
      "alert": "OK",
      "vis_m": 9999,
      "fzfg": false,
      "metar_trigger": false,
      "taf_trigger": false,
      "metar": "METAR BKPR 130100Z 35018KT 9999 SCT015 BKN050 07/06 Q1008 NOSIG",
      "taf": "TAF BKPR 122330Z 1300/1324 34010KT 9999 SCT040 BKN080"
    },
    {
      "icao": "EBCI",
      "alert": "OK",
      "vis_m": 9999,
      "fzfg": false,
      "metar_trigger": false,
      "taf_trigger": false,
      "metar": "METAR EBCI 130050Z 24007KT 9999 BKN025 09/06 Q1008 NOSIG",
      "taf": "TAF EBCI 122310Z 1300/1406 26009KT 9999 FEW025TCU"
    },
    {
      "icao": "EDDB",
      "alert": "OK",
      "vis_m": 9999,
      "fzfg": false,
      "metar_trigger": false,
      "taf_trigger": false,
      "metar": "METAR EDDB 130050Z AUTO 25007KT 9999 FEW042 03/03 Q1005 NOSIG",
      "taf": "TAF EDDB 122300Z 1300/1324 27010KT 9999 SCT014 BKN020"
    },
    {
      "icao": "EDDH",
      "alert": "OK",
      "vis_m": 9999,
      "fzfg": false,
      "metar_trigger": false,
      "taf_trigger": false,
      "metar": "METAR EDDH 130050Z AUTO 18006KT 9999 BKN031 OVC042 07/04 Q1003 NOSIG",
      "taf": "TAF EDDH 122300Z 1300/1406 18006KT 9999 OVC035"
    },
    {
      "icao": "EDDK",
      "alert": "OK",
      "vis_m": 9999,
      "fzfg": false,
      "metar_trigger": false,
      "taf_trigger": false,
      "metar": "METAR EDDK 130050Z AUTO 22009KT 9999 VCSH SCT046 FEW///TCU 10/04 Q1007 TEMPO SHRA",
      "taf": "TAF EDDK 122300Z 1300/1406 22007KT 9999 BKN035"
    },
    {
      "icao": "EDDN",
      "alert": "OK",
      "vis_m": 9999,
      "fzfg": false,
      "metar_trigger": false,
      "taf_trigger": false,
      "metar": "METAR EDDN 130050Z AUTO 18004KT 150V210 CAVOK 05/01 Q1009",
      "taf": "TAF EDDN 122300Z 1300/1324 17005KT 9999 FEW035"
    },
    {
      "icao": "EDDS",
      "alert": "OK",
      "vis_m": 9999,
      "fzfg": false,
      "metar_trigger": false,
      "taf_trigger": false,
      "metar": "METAR EDDS 130050Z AUTO 26005KT 220V280 CAVOK 04/01 Q1010",
      "taf": "TAF EDDS 122300Z 1300/1324 24004KT CAVOK"
    },
    {
      "icao": "EDFH",
      "alert": "OK",
      "vis_m": 9999,
      "fzfg": false,
      "metar_trigger": false,
      "taf_trigger": false,
      "metar": "METAR EDFH 130050Z 23006KT 200V260 CAVOK 05/01 Q1008",
      "taf": "TAF EDFH 122300Z 1300/1324 25010KT 9999 SCT035"
    },
    {
      "icao": "EDJA",
      "alert": "OK",
      "vis_m": 9999,
      "fzfg": false,
      "metar_trigger": false,
      "taf_trigger": false,
      "metar": "METAR EDJA 130050Z AUTO 17005KT 9999 // SCT056/// BKN098/// BKN140/// 01/M00 Q1011",
      "taf": "TAF EDJA 121700Z 1218/1303 28008KT 9999 BKN050"
    },
    {
      "icao": "EDLW",
      "alert": "OK",
      "vis_m": 9999,
      "fzfg": false,
      "metar_trigger": false,
      "taf_trigger": false,
      "metar": "METAR EDLW 130050Z AUTO 21011KT 9999 // BKN029/// OVC035/// 08/06 Q1005",
      "taf": "TAF EDLW 121700Z 1218/1318 28010KT 9999 SCT040"
    },
    {
      "icao": "EDNY",
      "alert": "OK",
      "vis_m": 9999,
      "fzfg": false,
      "metar_trigger": false,
      "taf_trigger": false,
      "metar": "METAR EDNY 130050Z AUTO 00000KT 9999 // SCT100/// BKN240/// 03/02 Q1011",
      "taf": "TAF EDNY 121700Z 1218/1303 VRB03KT CAVOK"
    },
    {
      "icao": "EDSB",
      "alert": "OK",
      "vis_m": 9999,
      "fzfg": false,
      "metar_trigger": false,
      "taf_trigger": false,
      "metar": "METAR EDSB 130050Z AUTO 21005KT 9999 NCD 05/02 Q1011",
      "taf": "TAF EDSB 122300Z 1300/1324 21006KT CAVOK"
    },
    {
      "icao": "EETN",
      "alert": "OK",
      "vis_m": 9999,
      "fzfg": false,
      "metar_trigger": false,
      "taf_trigger": false,
      "metar": "METAR EETN 130050Z 18002KT CAVOK 11/11 Q0997",
      "taf": "TAF EETN 122330Z 1300/1324 VRB02KT 9999 SCT008"
    },
    {
      "icao": "EFTU",
      "alert": "OK",
      "vis_m": 3700,
      "fzfg": false,
      "metar_trigger": false,
      "taf_trigger": false,
      "metar": "METAR EFTU 130050Z AUTO 00000KT 3700 BR OVC031 09/09 Q0996",
      "taf": ""
    },
    {
      "icao": "EGBB",
      "alert": "OK",
      "vis_m": 9999,
      "fzfg": false,
      "metar_trigger": false,
      "taf_trigger": false,
      "metar": "METAR EGBB 130050Z 24006KT 200V270 CAVOK 09/03 Q1007",
      "taf": "TAF EGBB 122255Z 1300/1324 25007KT 9999 FEW045"
    },
    {
      "icao": "EGGP",
      "alert": "OK",
      "vis_m": 9999,
      "fzfg": false,
      "metar_trigger": false,
      "taf_trigger": false,
      "metar": "METAR EGGP 130050Z 25012KT 9999 -RA SCT031 BKN036 09/05 Q1005 RESHRA",
      "taf": "TAF EGGP 122255Z 1300/1324 25010KT 9999 SCT040"
    },
    {
      "icao": "EGGW",
      "alert": "OK",
      "vis_m": 9999,
      "fzfg": false,
      "metar_trigger": false,
      "taf_trigger": false,
      "metar": "METAR EGGW 130050Z AUTO 26006KT 9999 NCD 06/02 Q1007",
      "taf": "TAF EGGW 122257Z 1300/1324 25010KT 9999 FEW040"
    },
    {
      "icao": "EGKK",
      "alert": "OK",
      "vis_m": 9999,
      "fzfg": false,
      "metar_trigger": false,
      "taf_trigger": false,
      "metar": "METAR EGKK 130050Z 23003KT 170V260 CAVOK 08/02 Q1009",
      "taf": "TAF EGKK 122302Z 1300/1406 23007KT 9999 SCT035"
    },
    {
      "icao": "EGNM",
      "alert": "OK",
      "vis_m": 9999,
      "fzfg": false,
      "metar_trigger": false,
      "taf_trigger": false,
      "metar": "METAR EGNM 130050Z 23006KT 9999 -RA FEW015 SCT025 06/04 Q1003",
      "taf": "TAF EGNM 122253Z 1300/1324 25008KT 9999 SCT040"
    },
    {
      "icao": "EGPD",
      "alert": "OK",
      "vis_m": 9999,
      "fzfg": false,
      "metar_trigger": false,
      "taf_trigger": false,
      "metar": "METAR EGPD 130050Z COR AUTO 21004KT 120V240 9999 NCD 06/01 Q0998 NOSIG",
      "taf": "TAF EGPD 122254Z 1300/1324 27003KT 9999 FEW045"
    },
    {
      "icao": "EGPF",
      "alert": "OK",
      "vis_m": 9999,
      "fzfg": false,
      "metar_trigger": false,
      "taf_trigger": false,
      "metar": "METAR EGPF 130050Z AUTO 24008KT 9999 -RA SCT022/// BKN027/// //////CB 07/05 Q1000",
      "taf": "TAF EGPF 122257Z 1300/1324 24006KT 9999 SCT020"
    },
    {
      "icao": "EHBK",
      "alert": "OK",
      "vis_m": 9999,
      "fzfg": false,
      "metar_trigger": false,
      "taf_trigger": false,
      "metar": "METAR EHBK 130055Z AUTO 23010KT 190V280 9999 -RA FEW015CB OVC045 09/06 Q1007 REDZRA",
      "taf": "TAF EHBK 122315Z 1300/1406 23010KT 9999 BKN045"
    },
    {
      "icao": "EHEH",
      "alert": "OK",
      "vis_m": 9999,
      "fzfg": false,
      "metar_trigger": false,
      "taf_trigger": false,
      "metar": "METAR EHEH 130055Z AUTO 23005KT 200V270 9999 BKN079 BKN084 OVC091 09/07 Q1006 BLU",
      "taf": "TAF EHEH 122316Z 1300/1406 24006KT 9999 BKN048"
    },
    {
      "icao": "EKBI",
      "alert": "OK",
      "vis_m": 9999,
      "fzfg": false,
      "metar_trigger": false,
      "taf_trigger": false,
      "metar": "METAR EKBI 130050Z AUTO 12004KT 9999 -DZRA BKN018/// OVC035/// 06/04 Q1000",
      "taf": "TAF EKBI 122327Z 1300/1324 29009KT 9999 SCT040"
    },
    {
      "icao": "EKCH",
      "alert": "OK",
      "vis_m": 9999,
      "fzfg": false,
      "metar_trigger": false,
      "taf_trigger": false,
      "metar": "METAR EKCH 130050Z AUTO 27007KT 9999 OVC060/// 08/06 Q1001 NOSIG",
      "taf": "TAF EKCH 122327Z 1300/1324 29006KT 9999 BKN025"
    },
    {
      "icao": "ENAL",
      "alert": "OK",
      "vis_m": 9999,
      "fzfg": false,
      "metar_trigger": false,
      "taf_trigger": false,
      "metar": "METAR ENAL 130050Z AUTO 21005KT 9999 NCD 03/02 Q1000",
      "taf": "TAF ENAL 122300Z 1300/1309 24006KT 9999 SCT060"
    },
    {
      "icao": "ENBR",
      "alert": "OK",
      "vis_m": 9999,
      "fzfg": false,
      "metar_trigger": false,
      "taf_trigger": false,
      "metar": "METAR ENBR 130050Z 14007KT 9999 SCT010 BKN020 05/02 Q0999 RMK WIND 1200FT 13013KT",
      "taf": "TAF ENBR 122300Z 1300/1324 16005KT 9999 SCT020 BKN035"
    },
    {
      "icao": "ENGM",
      "alert": "OK",
      "vis_m": 9999,
      "fzfg": false,
      "metar_trigger": false,
      "taf_trigger": false,
      "metar": "METAR ENGM 130050Z 14005KT CAVOK 07/02 Q1000",
      "taf": "TAF ENGM 122300Z 1300/1324 VRB05KT CAVOK"
    },
    {
      "icao": "ENHD",
      "alert": "OK",
      "vis_m": 9999,
      "fzfg": false,
      "metar_trigger": false,
      "taf_trigger": false,
      "metar": "METAR ENHD 130050Z AUTO 11008KT 9999 DZRA BKN011/// BKN014/// BKN017/// 06/05 Q0999 REUP",
      "taf": "TAF ENHD 121400Z 1215/1222 18010KT 9999 -RA SCT020"
    },
    {
      "icao": "ENTC",
      "alert": "OK",
      "vis_m": 9999,
      "fzfg": false,
      "metar_trigger": false,
      "taf_trigger": false,
      "metar": "METAR ENTC 130050Z 19013KT 9999 -RA FEW011 SCT016 BKN018 05/02 Q1002 REDZRA RMK WIND 2600FT 30014KT",
      "taf": "TAF ENTC 122300Z 1300/1324 21009KT 9999 -SHRA FEW010 BKN018"
    },
    {
      "icao": "ENTO",
      "alert": "OK",
      "vis_m": 9999,
      "fzfg": false,
      "metar_trigger": false,
      "taf_trigger": false,
      "metar": "METAR ENTO 130050Z AUTO 21003KT 9999 NCD 06/03 Q0999",
      "taf": "TAF ENTO 122300Z 1300/1324 VRB03KT 9999 FEW040"
    },
    {
      "icao": "ENVA",
      "alert": "OK",
      "vis_m": 9999,
      "fzfg": false,
      "metar_trigger": false,
      "taf_trigger": false,
      "metar": "METAR ENVA 130050Z AUTO 12005KT 9999 NCD 03/M03 Q1001 RMK WIND 670FT 09009KT",
      "taf": "TAF ENVA 121700Z 1218/1318 06008KT CAVOK"
    },
    {
      "icao": "ENZV",
      "alert": "OK",
      "vis_m": 9999,
      "fzfg": false,
      "metar_trigger": false,
      "taf_trigger": false,
      "metar": "METAR ENZV 130050Z AUTO 15004KT 9999 -DZRA FEW011/// BKN019/// BKN026/// 06/04 Q0999 RERA",
      "taf": "TAF ENZV 122300Z 1300/1324 15005KT 9999 FEW008 BKN025"
    },
    {
      "icao": "EPGD",
      "alert": "OK",
      "vis_m": 9999,
      "fzfg": false,
      "metar_trigger": false,
      "taf_trigger": false,
      "metar": "METAR EPGD 130100Z 23007KT CAVOK 07/05 Q1000",
      "taf": "TAF EPGD 122330Z 1300/1324 27015KT 9999 BKN030"
    },
    {
      "icao": "EPKK",
      "alert": "OK",
      "vis_m": 9999,
      "fzfg": false,
      "metar_trigger": false,
      "taf_trigger": false,
      "metar": "METAR EPKK 130100Z 25009KT CAVOK 05/01 Q1006",
      "taf": "TAF EPKK 122330Z 1300/1324 27010KT CAVOK"
    },
    {
      "icao": "EPKT",
      "alert": "OK",
      "vis_m": 9999,
      "fzfg": false,
      "metar_trigger": false,
      "taf_trigger": false,
      "metar": "METAR EPKT 130100Z 26007KT 9999 FEW021 03/01 Q1006",
      "taf": "TAF EPKT 122330Z 1300/1324 28010KT CAVOK"
    },
    {
      "icao": "EPLB",
      "alert": "OK",
      "vis_m": 9999,
      "fzfg": false,
      "metar_trigger": false,
      "taf_trigger": false,
      "metar": "METAR EPLB 130100Z 30008KT CAVOK 08/03 Q1002",
      "taf": "TAF EPLB 122330Z 1300/1324 27012KT 9999 BKN030"
    },
    {
      "icao": "EPMO",
      "alert": "OK",
      "vis_m": 9999,
      "fzfg": false,
      "metar_trigger": false,
      "taf_trigger": false,
      "metar": "METAR EPMO 130100Z 24009KT CAVOK 06/03 Q1003",
      "taf": "TAF EPMO 122330Z 1300/1324 26010KT CAVOK"
    },
    {
      "icao": "EPPO",
      "alert": "OK",
      "vis_m": 9999,
      "fzfg": false,
      "metar_trigger": false,
      "taf_trigger": false,
      "metar": "METAR EPPO 130100Z 23007KT 9999 BKN008 05/03 Q1004",
      "taf": "TAF EPPO 122330Z 1300/1324 25010KT CAVOK"
    },
    {
      "icao": "EPRA",
      "alert": "OK",
      "vis_m": 9999,
      "fzfg": false,
      "metar_trigger": false,
      "taf_trigger": false,
      "metar": "METAR EPRA 130100Z 25008KT CAVOK 06/01 Q1004",
      "taf": "TAF EPRA 122330Z 1300/1309 26010KT CAVOK"
    },
    {
      "icao": "EPRZ",
      "alert": "OK",
      "vis_m": 9999,
      "fzfg": false,
      "metar_trigger": false,
      "taf_trigger": false,
      "metar": "METAR EPRZ 130100Z 28010KT CAVOK 08/05 Q1004",
      "taf": "TAF EPRZ 122330Z 1300/1324 29005KT CAVOK"
    },
    {
      "icao": "EPSC",
      "alert": "OK",
      "vis_m": 2400,
      "fzfg": false,
      "metar_trigger": false,
      "taf_trigger": false,
      "metar": "METAR EPSC 130100Z 28009KT 2400 -SHRA BKN002 BKN008CB 07/07 Q1003 RESHRA",
      "taf": ""
    },
    {
      "icao": "EPSY",
      "alert": "OK",
      "vis_m": 4100,
      "fzfg": false,
      "metar_trigger": false,
      "taf_trigger": false,
      "metar": "METAR EPSY 130100Z 24003KT 4100 BR NSC 06/06 Q1000",
      "taf": "TAF EPSY 122330Z 1300/1309 21005KT 0400 FG BKN002"
    },
    {
      "icao": "EPWA",
      "alert": "OK",
      "vis_m": 9999,
      "fzfg": false,
      "metar_trigger": false,
      "taf_trigger": false,
      "metar": "METAR EPWA 130100Z 26009KT CAVOK 06/02 Q1003 NOSIG",
      "taf": "TAF EPWA 122330Z 1300/1324 26010KT CAVOK"
    },
    {
      "icao": "EPWR",
      "alert": "OK",
      "vis_m": 9999,
      "fzfg": false,
      "metar_trigger": false,
      "taf_trigger": false,
      "metar": "METAR EPWR 130100Z 27014KT 9999 SCT017 BKN023 06/04 Q1006",
      "taf": "TAF EPWR 122330Z 1300/1324 27010KT 9999 SCT035"
    },
    {
      "icao": "ESGG",
      "alert": "OK",
      "vis_m": 9999,
      "fzfg": false,
      "metar_trigger": false,
      "taf_trigger": false,
      "metar": "METAR ESGG 130050Z 30004KT 9999 FEW015 05/04 Q0999",
      "taf": ""
    },
    {
      "icao": "ESKN",
      "alert": "OK",
      "vis_m": 7000,
      "fzfg": false,
      "metar_trigger": false,
      "taf_trigger": false,
      "metar": "METAR ESKN 130050Z 33009KT 7000 OVC003 06/06 Q0997",
      "taf": "TAF ESKN 122330Z 1300/1324 35010KT 8000 OVC006"
    },
    {
      "icao": "ESMS",
      "alert": "OK",
      "vis_m": 9999,
      "fzfg": false,
      "metar_trigger": false,
      "taf_trigger": false,
      "metar": "METAR ESMS 130050Z 30004KT CAVOK 08/07 Q1000",
      "taf": "TAF ESMS 122327Z 1300/1324 31007KT 9999 BKN025"
    },
    {
      "icao": "ESSA",
      "alert": "OK",
      "vis_m": 9999,
      "fzfg": false,
      "metar_trigger": false,
      "taf_trigger": false,
      "metar": "METAR ESSA 130050Z 36010KT 9999 OVC003 05/05 Q0997 TEMPO 2500",
      "taf": "TAF ESSA 122330Z 1300/1324 36008KT 8000 OVC003"
    },
    {
      "icao": "EYKA",
      "alert": "OK",
      "vis_m": 9999,
      "fzfg": false,
      "metar_trigger": false,
      "taf_trigger": false,
      "metar": "METAR EYKA 130050Z 30005KT 270V330 9999 OVC007 07/06 Q0998",
      "taf": "TAF EYKA 122326Z 1300/1324 27007KT 5000 BR OVC005"
    },
    {
      "icao": "EYPA",
      "alert": "OK",
      "vis_m": 8000,
      "fzfg": false,
      "metar_trigger": false,
      "taf_trigger": false,
      "metar": "METAR EYPA 130050Z VRB02KT 8000 OVC001 07/07 Q0998",
      "taf": "TAF EYPA 121719Z 1218/1318 25005KT 5000 BR OVC005"
    },
    {
      "icao": "EYVI",
      "alert": "OK",
      "vis_m": 7000,
      "fzfg": false,
      "metar_trigger": false,
      "taf_trigger": false,
      "metar": "METAR EYVI 130050Z 32007KT 290V360 7000 -DZ OVC004 07/06 Q0997 NOSIG",
      "taf": "TAF EYVI 122327Z 1300/1324 29010KT 5000 -RA BR OVC005"
    },
    {
      "icao": "GCFV",
      "alert": "OK",
      "vis_m": 9999,
      "fzfg": false,
      "metar_trigger": false,
      "taf_trigger": false,
      "metar": "METAR GCFV 130100Z AUTO 02010KT 350V050 9999 SCT021 19/15 Q1021",
      "taf": "TAF GCFV 122000Z 1221/1321 35009KT 9999 SCT025 TX23/1314Z TN17/1306Z"
    },
    {
      "icao": "GCLP",
      "alert": "OK",
      "vis_m": 9999,
      "fzfg": false,
      "metar_trigger": false,
      "taf_trigger": false,
      "metar": "METAR GCLP 130100Z 34008KT 9999 FEW030 18/13 Q1021 NOSIG",
      "taf": "TAF GCLP 122000Z 1221/1321 01013KT 9999 SCT030 TX23/1314Z TN17/1306Z"
    },
    {
      "icao": "GCTS",
      "alert": "OK",
      "vis_m": 9999,
      "fzfg": false,
      "metar_trigger": false,
      "taf_trigger": false,
      "metar": "METAR GCTS 130100Z 05007KT 9999 BKN040 19/11 Q1022 NOSIG",
      "taf": "TAF GCTS 122000Z 1221/1321 04009KT 9999 SCT040 TX24/1314Z TN16/1306Z"
    },
    {
      "icao": "GMAD",
      "alert": "OK",
      "vis_m": 8000,
      "fzfg": false,
      "metar_trigger": false,
      "taf_trigger": false,
      "metar": "METAR GMAD 130100Z 00000KT 8000 NSC 17/14 Q1020 NOSIG",
      "taf": "TAF GMAD 122300Z 1300/1406 06012KT 8000 SCT020"
    },
    {
      "icao": "GMMN",
      "alert": "OK",
      "vis_m": 9999,
      "fzfg": false,
      "metar_trigger": false,
      "taf_trigger": false,
      "metar": "METAR GMMN 130100Z 03006KT 9999 FEW016 14/12 Q1020 NOSIG",
      "taf": "TAF GMMN 122300Z 1300/1406 04006KT CAVOK"
    },
    {
      "icao": "GMMX",
      "alert": "OK",
      "vis_m": 9999,
      "fzfg": false,
      "metar_trigger": false,
      "taf_trigger": false,
      "metar": "METAR GMMX 130100Z 25006KT 220V280 9999 FEW026 SCT200 16/09 Q1020 NOSIG",
      "taf": "TAF GMMX 122300Z 1300/1406 24006KT 8000 NSC"
    },
    {
      "icao": "HEGN",
      "alert": "OK",
      "vis_m": 9999,
      "fzfg": false,
      "metar_trigger": false,
      "taf_trigger": false,
      "metar": "METAR HEGN 130100Z 34012KT CAVOK 28/11 Q1007 NOSIG",
      "taf": "TAF HEGN 122300Z 1300/1406 29010KT CAVOK"
    },
    {
      "icao": "HEMA",
      "alert": "OK",
      "vis_m": 9999,
      "fzfg": false,
      "metar_trigger": false,
      "taf_trigger": false,
      "metar": "METAR HEMA 130100Z 24010KT CAVOK 27/M06 Q1007 NOSIG",
      "taf": "TAF HEMA 122300Z 1300/1406 30014KT CAVOK"
    },
    {
      "icao": "HESH",
      "alert": "OK",
      "vis_m": 9999,
      "fzfg": false,
      "metar_trigger": false,
      "taf_trigger": false,
      "metar": "METAR HESH 130100Z 32005KT CAVOK 30/03 Q1007 NOSIG",
      "taf": "TAF HESH 122300Z 1300/1406 32010KT CAVOK"
    },
    {
      "icao": "HESX",
      "alert": "OK",
      "vis_m": 3000,
      "fzfg": false,
      "metar_trigger": false,
      "taf_trigger": false,
      "metar": "METAR HESX 130100Z 34005KT 3000 BR NSC 15/13 Q1011 NOSIG",
      "taf": "TAF HESX 122300Z 1300/1406 36007KT CAVOK"
    },
    {
      "icao": "LATI",
      "alert": "OK",
      "vis_m": 9999,
      "fzfg": false,
      "metar_trigger": false,
      "taf_trigger": false,
      "metar": "METAR LATI 130120Z VRB03KT 9999 SCT033 BKN110 17/10 Q1007 NOSIG",
      "taf": "TAF LATI 122300Z 1300/1324 VRB05KT 9999 SCT040 BKN080 TX23/1311Z TN15/1304Z"
    },
    {
      "icao": "LBPD",
      "alert": "OK",
      "vis_m": 9999,
      "fzfg": false,
      "metar_trigger": false,
      "taf_trigger": false,
      "metar": "METAR LBPD 130100Z AUTO 24004KT 200V270 9999 SCT120/// 12/11 Q1004",
      "taf": "TAF LBPD 122300Z 1300/1324 VRB04KT 9999 SCT040 BKN060"
    },
    {
      "icao": "LBSF",
      "alert": "OK",
      "vis_m": 9999,
      "fzfg": false,
      "metar_trigger": false,
      "taf_trigger": false,
      "metar": "METAR LBSF 130100Z AUTO 29009KT 270V330 9999 SCT019/// SCT032/// 11/08 Q1007 NOSIG",
      "taf": "TAF LBSF 122300Z 1300/1324 32012KT 9999 SCT040 BKN060"
    },
    {
      "icao": "LBWN",
      "alert": "OK",
      "vis_m": 9999,
      "fzfg": false,
      "metar_trigger": false,
      "taf_trigger": false,
      "metar": "METAR LBWN 130100Z AUTO VRB01KT 9999 NCD 11/11 Q1002 NOSIG",
      "taf": "TAF LBWN 122300Z 1300/1324 30008KT 9999 SCT040"
    },
    {
      "icao": "LCLK",
      "alert": "OK",
      "vis_m": 9999,
      "fzfg": false,
      "metar_trigger": false,
      "taf_trigger": false,
      "metar": "METAR LCLK 130100Z 21004KT 180V250 CAVOK 19/17 Q1006 NOSIG",
      "taf": "TAF LCLK 122330Z 1300/1400 30009KT 9999 FEW009"
    },
    {
      "icao": "LCPH",
      "alert": "OK",
      "vis_m": 7000,
      "fzfg": false,
      "metar_trigger": false,
      "taf_trigger": false,
      "metar": "METAR LCPH 130100Z AUTO 01005KT 7000 NCD 16/14 Q1007 NOSIG",
      "taf": "TAF LCPH 122330Z 1300/1400 32009KT 8000 FEW003 SCT006"
    },
    {
      "icao": "LEAL",
      "alert": "OK",
      "vis_m": 9999,
      "fzfg": false,
      "metar_trigger": false,
      "taf_trigger": false,
      "metar": "METAR LEAL 130100Z 26006KT CAVOK 19/09 Q1016 NOSIG",
      "taf": "TAF LEAL 122300Z 1300/1324 29009KT 9999 FEW020 TX27/1312Z TN15/1305Z"
    },
    {
      "icao": "LEBB",
      "alert": "OK",
      "vis_m": 5000,
      "fzfg": false,
      "metar_trigger": false,
      "taf_trigger": false,
      "metar": "METAR LEBB 130100Z AUTO 06004KT 010V090 5000 -RA BR SCT022 BKN028 12/11 Q1019",
      "taf": "TAF LEBB 122300Z 1300/1324 32009KT 9999 SCT025 BKN035 TX17/1314Z TN11/1305Z"
    },
    {
      "icao": "LEBL",
      "alert": "OK",
      "vis_m": 9999,
      "fzfg": false,
      "metar_trigger": false,
      "taf_trigger": false,
      "metar": "METAR LEBL 130100Z 32005KT 9999 FEW032 SCT040 15/13 Q1013 NOSIG",
      "taf": "TAF LEBL 122300Z 1300/1324 34007KT 9999 FEW025 TX21/1312Z TN13/1305Z"
    },
    {
      "icao": "LECH",
      "alert": "OK",
      "vis_m": 9999,
      "fzfg": false,
      "metar_trigger": false,
      "taf_trigger": false,
      "metar": "METAR LECH 130100Z AUTO 01004KT 280V050 CAVOK 13/07 Q1015",
      "taf": "TAF LECH 122300Z 1300/1324 VRB04KT 9999 FEW060 TX22/1314Z TN11/1305Z"
    },
    {
      "icao": "LEMD",
      "alert": "OK",
      "vis_m": 9999,
      "fzfg": false,
      "metar_trigger": false,
      "taf_trigger": false,
      "metar": "METAR LEMD 130100Z 27005KT 240V310 9999 SCT065 12/06 Q1018 NOSIG",
      "taf": "TAF LEMD 122300Z 1300/1406 VRB04KT 9999 FEW050 TX21/1313Z TN07/1305Z"
    },
    {
      "icao": "LEMG",
      "alert": "OK",
      "vis_m": 9999,
      "fzfg": false,
      "metar_trigger": false,
      "taf_trigger": false,
      "metar": "METAR LEMG 130100Z 29009KT CAVOK 15/08 Q1019 NOSIG",
      "taf": "TAF LEMG 122300Z 1300/1324 30010KT 9999 FEW060 TX26/1314Z TN15/1306Z"
    },
    {
      "icao": "LEVC",
      "alert": "OK",
      "vis_m": 9999,
      "fzfg": false,
      "metar_trigger": false,
      "taf_trigger": false,
      "metar": "METAR LEVC 130100Z 25006KT CAVOK 15/08 Q1015 NOSIG",
      "taf": "TAF LEVC 122300Z 1300/1324 27010KT CAVOK TX28/1312Z TN15/1305Z"
    },
    {
      "icao": "LEXJ",
      "alert": "OK",
      "vis_m": 9999,
      "fzfg": false,
      "metar_trigger": false,
      "taf_trigger": false,
      "metar": "METAR LEXJ 130100Z AUTO 29005KT 230V330 9999 SCT018 OVC024 13/11 Q1019",
      "taf": "TAF LEXJ 122000Z 1221/1321 22005KT 9999 FEW025 BKN030 TX17/1314Z TN12/1305Z"
    },
    {
      "icao": "LEZG",
      "alert": "OK",
      "vis_m": 9999,
      "fzfg": false,
      "metar_trigger": false,
      "taf_trigger": false,
      "metar": "METAR LEZG 130100Z 29019KT 9999 FEW030 12/07 Q1016 NOSIG",
      "taf": "TAF LEZG 122300Z 1300/1324 30013KT 9999 FEW040 TX20/1318Z TN10/1305Z"
    },
    {
      "icao": "LEZL",
      "alert": "OK",
      "vis_m": 9000,
      "fzfg": false,
      "metar_trigger": false,
      "taf_trigger": false,
      "metar": "METAR LEZL 130100Z AUTO 17005KT 9000 NSC 15/13 Q1020",
      "taf": "TAF LEZL 122000Z 1221/1321 VRB03KT CAVOK TX26/1315Z TN11/1306Z"
    },
    {
      "icao": "LFBD",
      "alert": "OK",
      "vis_m": 9999,
      "fzfg": false,
      "metar_trigger": false,
      "taf_trigger": false,
      "metar": "METAR LFBD 130100Z AUTO 25005KT 9999 FEW047 BKN140 12/08 Q1016 TEMPO 4000 -SHRA BKN010 BKN030TCU",
      "taf": "TAF LFBD 122300Z 1300/1406 27005KT 9999 BKN040 TX19/1314Z TN11/1306Z"
    },
    {
      "icao": "LFLL",
      "alert": "OK",
      "vis_m": 9999,
      "fzfg": false,
      "metar_trigger": false,
      "taf_trigger": false,
      "metar": "METAR LFLL 130100Z 35004KT CAVOK 10/05 Q1012 NOSIG",
      "taf": "TAF LFLL 122300Z 1300/1406 VRB02KT CAVOK"
    },
    {
      "icao": "LFLS",
      "alert": "OK",
      "vis_m": 9999,
      "fzfg": false,
      "metar_trigger": false,
      "taf_trigger": false,
      "metar": "METAR LFLS 130100Z AUTO 28004KT 230V340 CAVOK 09/03 Q1012",
      "taf": ""
    },
    {
      "icao": "LFMN",
      "alert": "OK",
      "vis_m": 9999,
      "fzfg": false,
      "metar_trigger": false,
      "taf_trigger": false,
      "metar": "METAR LFMN 130100Z 31006KT 9999 FEW100 SCT240 17/10 Q1006 NOSIG",
      "taf": ""
    },
    {
      "icao": "LFOB",
      "alert": "OK",
      "vis_m": 9999,
      "fzfg": false,
      "metar_trigger": false,
      "taf_trigger": false,
      "metar": "METAR LFOB 130100Z AUTO 26008KT CAVOK 08/07 Q1010 NOSIG",
      "taf": "TAF LFOB 122300Z 1300/1324 25010KT 9999 SCT040"
    },
    {
      "icao": "LFPO",
      "alert": "OK",
      "vis_m": 9999,
      "fzfg": false,
      "metar_trigger": false,
      "taf_trigger": false,
      "metar": "METAR LFPO 130100Z AUTO 26005KT CAVOK 09/06 Q1011 NOSIG",
      "taf": "TAF LFPO 122300Z 1300/1406 27008KT CAVOK"
    },
    {
      "icao": "LFSB",
      "alert": "OK",
      "vis_m": 9999,
      "fzfg": false,
      "metar_trigger": false,
      "taf_trigger": false,
      "metar": "METAR LFSB 130100Z AUTO 00000KT CAVOK 04/03 Q1012 NOSIG",
      "taf": "TAF LFSB 122300Z 1300/1324 VRB03KT CAVOK"
    },
    {
      "icao": "LGAV",
      "alert": "OK",
      "vis_m": 9999,
      "fzfg": false,
      "metar_trigger": false,
      "taf_trigger": false,
      "metar": "METAR LGAV 130050Z 34005KT CAVOK 20/06 Q1007 NOSIG",
      "taf": "TAF LGAV 122300Z 1300/1324 25010KT 9999 FEW025"
    },
    {
      "icao": "LGTS",
      "alert": "OK",
      "vis_m": 9999,
      "fzfg": false,
      "metar_trigger": false,
      "taf_trigger": false,
      "metar": "METAR LGTS 130050Z 11007KT 9999 FEW020 16/09 Q1005 NOSIG",
      "taf": "TAF LGTS 122300Z 1300/1324 33010KT 9999 FEW030"
    },
    {
      "icao": "LHBP",
      "alert": "OK",
      "vis_m": 9999,
      "fzfg": false,
      "metar_trigger": false,
      "taf_trigger": false,
      "metar": "METAR LHBP 130100Z 30014KT CAVOK 08/00 Q1008 NOSIG",
      "taf": "TAF LHBP 122315Z 1300/1324 31013KT CAVOK"
    },
    {
      "icao": "LHDC",
      "alert": "OK",
      "vis_m": 9999,
      "fzfg": false,
      "metar_trigger": false,
      "taf_trigger": false,
      "metar": "METAR LHDC 130045Z AUTO 29011KT 260V320 9999 -RA OVC035 //////TCU 08/07 Q1005",
      "taf": "TAF LHDC 121415Z 1215/1224 02012KT 9999 SCT030 BKN060"
    },
    {
      "icao": "LIBD",
      "alert": "OK",
      "vis_m": 9999,
      "fzfg": false,
      "metar_trigger": false,
      "taf_trigger": false,
      "metar": "METAR LIBD 130050Z 25007KT CAVOK 14/11 Q1008",
      "taf": "TAF LIBD 122300Z 1300/1324 28011KT CAVOK"
    },
    {
      "icao": "LIBG",
      "alert": "OK",
      "vis_m": null,
      "fzfg": false,
      "metar_trigger": false,
      "taf_trigger": false,
      "metar": "",
      "taf": "TAF LIBG 121400Z 1215/1224 25012KT CAVOK"
    },
    {
      "icao": "LIBP",
      "alert": "OK",
      "vis_m": 9999,
      "fzfg": false,
      "metar_trigger": false,
      "taf_trigger": false,
      "metar": "METAR LIBP 130050Z AUTO 06005KT 9999 SCT022/// OVC035/// 15/10 Q1010",
      "taf": "TAF LIBP 122300Z 1300/1324 VRB05KT 9999 BKN020"
    },
    {
      "icao": "LIBR",
      "alert": "OK",
      "vis_m": 9999,
      "fzfg": false,
      "metar_trigger": false,
      "taf_trigger": false,
      "metar": "METAR LIBR 130050Z 33008KT CAVOK 18/14 Q1008",
      "taf": "TAF LIBR 122300Z 1300/1324 27010KT CAVOK"
    },
    {
      "icao": "LICA",
      "alert": "OK",
      "vis_m": 9999,
      "fzfg": false,
      "metar_trigger": false,
      "taf_trigger": false,
      "metar": "METAR LICA 130050Z AUTO 25008KT 9999 BKN019/// 18/16 Q1010",
      "taf": "TAF LICA 122300Z 1300/1324 27006KT 9999 SCT015"
    },
    {
      "icao": "LICC",
      "alert": "OK",
      "vis_m": 9999,
      "fzfg": false,
      "metar_trigger": false,
      "taf_trigger": false,
      "metar": "METAR LICC 130050Z 30006KT CAVOK 17/12 Q1010",
      "taf": "TAF LICC 122300Z 1300/1324 VRB05KT CAVOK"
    },
    {
      "icao": "LICJ",
      "alert": "OK",
      "vis_m": 9999,
      "fzfg": false,
      "metar_trigger": false,
      "taf_trigger": false,
      "metar": "METAR LICJ 130050Z 22007KT CAVOK 19/11 Q1011",
      "taf": "TAF LICJ 122300Z 1300/1324 20006KT CAVOK"
    },
    {
      "icao": "LIMC",
      "alert": "OK",
      "vis_m": 9999,
      "fzfg": false,
      "metar_trigger": false,
      "taf_trigger": false,
      "metar": "METAR LIMC 130050Z 04006KT CAVOK 11/04 Q1009 NOSIG",
      "taf": "TAF LIMC 122300Z 1300/1406 03008KT CAVOK"
    },
    {
      "icao": "LIME",
      "alert": "OK",
      "vis_m": 9999,
      "fzfg": false,
      "metar_trigger": false,
      "taf_trigger": false,
      "metar": "METAR LIME 130050Z 01003KT CAVOK 10/M00 Q1009 NOSIG",
      "taf": "TAF LIME 122300Z 1300/1324 04006KT CAVOK"
    },
    {
      "icao": "LIMF",
      "alert": "OK",
      "vis_m": 9999,
      "fzfg": false,
      "metar_trigger": false,
      "taf_trigger": false,
      "metar": "METAR LIMF 130050Z 06005KT 9999 SCT080 12/02 Q1009",
      "taf": "TAF LIMF 122300Z 1300/1324 VRB05KT CAVOK"
    },
    {
      "icao": "LIMJ",
      "alert": "OK",
      "vis_m": 9999,
      "fzfg": false,
      "metar_trigger": false,
      "taf_trigger": false,
      "metar": "METAR LIMJ 130050Z 01004KT 350V050 9999 BKN080 16/13 Q1007",
      "taf": "TAF LIMJ 122300Z 1300/1324 03010KT 9999 SCT030"
    },
    {
      "icao": "LIPE",
      "alert": "OK",
      "vis_m": 9999,
      "fzfg": false,
      "metar_trigger": false,
      "taf_trigger": false,
      "metar": "METAR LIPE 130050Z 09007KT CAVOK 12/09 Q1008",
      "taf": "TAF LIPE 122300Z 1300/1324 10008KT 9999 FEW015"
    },
    {
      "icao": "LIPH",
      "alert": "OK",
      "vis_m": 9999,
      "fzfg": false,
      "metar_trigger": false,
      "taf_trigger": false,
      "metar": "METAR LIPH 130050Z AUTO VRB01KT 9999 FEW250/// 09/09 Q1010",
      "taf": "TAF LIPH 122300Z 1300/1324 VRB04KT 9999 FEW030"
    },
    {
      "icao": "LIPQ",
      "alert": "OK",
      "vis_m": 9999,
      "fzfg": false,
      "metar_trigger": false,
      "taf_trigger": false,
      "metar": "METAR LIPQ 130050Z AUTO VRB02KT 9999 BKN075/// BKN088/// 07/04 Q1011",
      "taf": "TAF LIPQ 122300Z 1300/1324 VRB05KT CAVOK"
    },
    {
      "icao": "LIPR",
      "alert": "OK",
      "vis_m": 9999,
      "fzfg": false,
      "metar_trigger": false,
      "taf_trigger": false,
      "metar": "METAR LIPR 130050Z AUTO 18002KT 9999 FEW061/// BKN077/// 12/09 Q1009",
      "taf": "TAF LIPR 122300Z 1300/1324 11010KT 9999 FEW020"
    },
    {
      "icao": "LIPX",
      "alert": "OK",
      "vis_m": 9999,
      "fzfg": false,
      "metar_trigger": false,
      "taf_trigger": false,
      "metar": "METAR LIPX 130050Z 02006KT CAVOK 11/07 Q1010",
      "taf": "TAF LIPX 122300Z 1300/1324 09010KT CAVOK"
    },
    {
      "icao": "LIPY",
      "alert": "OK",
      "vis_m": 9999,
      "fzfg": false,
      "metar_trigger": false,
      "taf_trigger": false,
      "metar": "METAR LIPY 130050Z AUTO 12003KT 040V180 9999 FEW025/// BKN059/// BKN079/// 12/11 Q1010",
      "taf": "TAF LIPY 122300Z 1300/1324 VRB04KT 9999 FEW020"
    },
    {
      "icao": "LIPZ",
      "alert": "OK",
      "vis_m": 9999,
      "fzfg": false,
      "metar_trigger": false,
      "taf_trigger": false,
      "metar": "METAR LIPZ 130050Z 12006KT CAVOK 14/04 Q1010 NOSIG",
      "taf": "TAF LIPZ 122300Z 1300/1406 05006KT 9999 FEW030"
    },
    {
      "icao": "LIRF",
      "alert": "OK",
      "vis_m": 9999,
      "fzfg": false,
      "metar_trigger": false,
      "taf_trigger": false,
      "metar": "METAR LIRF 130050Z 09003KT 070V130 CAVOK 15/14 Q1008 NOSIG",
      "taf": "TAF LIRF 122300Z 1300/1406 VRB05KT 9999 FEW030"
    },
    {
      "icao": "LIRN",
      "alert": "OK",
      "vis_m": 9999,
      "fzfg": false,
      "metar_trigger": false,
      "taf_trigger": false,
      "metar": "METAR LIRN 130050Z 25005KT CAVOK 18/11 Q1010 NOSIG",
      "taf": "TAF LIRN 122300Z 1300/1324 VRB06KT 9999 SCT025"
    },
    {
      "icao": "LIRP",
      "alert": "OK",
      "vis_m": 9999,
      "fzfg": false,
      "metar_trigger": false,
      "taf_trigger": false,
      "metar": "METAR LIRP 130045Z 25006KT 9999 FEW040 SCT050 16/11 Q1008 NOSIG",
      "taf": "TAF LIRP 122300Z 1300/1324 26010KT 9999 SCT025"
    },
    {
      "icao": "LIRZ",
      "alert": "OK",
      "vis_m": 9999,
      "fzfg": false,
      "metar_trigger": false,
      "taf_trigger": false,
      "metar": "METAR LIRZ 130050Z AUTO 34004KT 9999 FEW074/// 10/09 Q1009",
      "taf": "TAF LIRZ 122300Z 1300/1324 VRB05KT 9999 SCT030"
    },
    {
      "icao": "LJLJ",
      "alert": "OK",
      "vis_m": 9999,
      "fzfg": false,
      "metar_trigger": false,
      "taf_trigger": false,
      "metar": "METAR LJLJ 130100Z 10004KT 9999 MIFG FEW003 02/02 Q1012 NOSIG",
      "taf": "TAF LJLJ 122300Z 1300/1400 15006KT 9999 FEW015 SCT020"
    },
    {
      "icao": "LKMT",
      "alert": "OK",
      "vis_m": 9999,
      "fzfg": false,
      "metar_trigger": false,
      "taf_trigger": false,
      "metar": "METAR LKMT 130100Z 22007KT CAVOK 04/01 Q1008 NOSIG",
      "taf": "TAF LKMT 122300Z 1300/1324 24007KT CAVOK"
    },
    {
      "icao": "LKPR",
      "alert": "OK",
      "vis_m": 9999,
      "fzfg": false,
      "metar_trigger": false,
      "taf_trigger": false,
      "metar": "METAR LKPR 130100Z 24009KT CAVOK 04/01 Q1008 NOSIG",
      "taf": "TAF LKPR 122300Z 1300/1406 23009KT CAVOK"
    },
    {
      "icao": "LLBG",
      "alert": "OK",
      "vis_m": 9000,
      "fzfg": false,
      "metar_trigger": false,
      "taf_trigger": false,
      "metar": "METAR LLBG 130050Z 29005KT 9000 BKN016 20/17 Q1010 TEMPO 5000 BR BKN008",
      "taf": "TAF LLBG 122302Z 1300/1324 25006KT 9000 SCT013 TX27/1313Z TN19/1303Z"
    },
    {
      "icao": "LMML",
      "alert": "OK",
      "vis_m": 9999,
      "fzfg": false,
      "metar_trigger": false,
      "taf_trigger": false,
      "metar": "METAR LMML 130115Z 25013KT CAVOK 19/13 Q1012 NOSIG",
      "taf": "TAF LMML 122300Z 1300/1324 29015KT 9999 FEW015"
    },
    {
      "icao": "LOWW",
      "alert": "OK",
      "vis_m": 9999,
      "fzfg": false,
      "metar_trigger": false,
      "taf_trigger": false,
      "metar": "METAR LOWW 130050Z 29015KT CAVOK 08/M00 Q1010 NOSIG",
      "taf": "TAF LOWW 122315Z 1300/1406 22006KT 9999 SCT050 TX16/1315Z TN06/1303Z"
    },
    {
      "icao": "LPFR",
      "alert": "OK",
      "vis_m": 9999,
      "fzfg": false,
      "metar_trigger": false,
      "taf_trigger": false,
      "metar": "METAR LPFR 130100Z 03004KT CAVOK 14/12 Q1020",
      "taf": "TAF LPFR 122300Z 1300/1324 VRB02KT 9999 SCT020"
    },
    {
      "icao": "LPMA",
      "alert": "OK",
      "vis_m": 9999,
      "fzfg": false,
      "metar_trigger": false,
      "taf_trigger": false,
      "metar": "METAR LPMA 130100Z VRB02KT 9999 FEW015 15/10 Q1023",
      "taf": "TAF LPMA 122300Z 1300/1324 VRB05KT 9999 SCT015"
    },
    {
      "icao": "LPPR",
      "alert": "OK",
      "vis_m": 9999,
      "fzfg": false,
      "metar_trigger": false,
      "taf_trigger": false,
      "metar": "METAR LPPR 130100Z 00000KT 9999 BKN012 12/11 Q1019",
      "taf": "TAF LPPR 122300Z 1300/1324 VRB02KT 9999 SCT004"
    },
    {
      "icao": "LPPS",
      "alert": "OK",
      "vis_m": 9999,
      "fzfg": false,
      "metar_trigger": false,
      "taf_trigger": false,
      "metar": "METAR LPPS 130100Z 33003KT 9999 FEW015 15/13 Q1023",
      "taf": "TAF LPPS 122300Z 1300/1406 33008KT 9999 SCT015"
    },
    {
      "icao": "LPPT",
      "alert": "OK",
      "vis_m": 9999,
      "fzfg": false,
      "metar_trigger": false,
      "taf_trigger": false,
      "metar": "METAR LPPT 130100Z 31003KT 9999 FEW008 13/12 Q1019",
      "taf": "TAF LPPT 122300Z 1300/1406 VRB02KT 9999 SCT015"
    },
    {
      "icao": "LQBK",
      "alert": "OK",
      "vis_m": 9999,
      "fzfg": false,
      "metar_trigger": false,
      "taf_trigger": false,
      "metar": "METAR LQBK 130100Z VRB02KT CAVOK 03/02 Q1013 NOSIG",
      "taf": "TAF LQBK 122300Z 1300/1324 15005KT CAVOK TX17/1313Z TN03/1304Z"
    },
    {
      "icao": "LQSA",
      "alert": "OK",
      "vis_m": 9999,
      "fzfg": false,
      "metar_trigger": false,
      "taf_trigger": false,
      "metar": "METAR LQSA 130100Z VRB01KT 9999 SCT030 BKN050 05/03 Q1013",
      "taf": "TAF LQSA 122300Z 1300/1324 33006KT 9999 SCT050 TX18/1314Z TN02/1304Z"
    },
    {
      "icao": "LQTZ",
      "alert": "OK",
      "vis_m": 9999,
      "fzfg": false,
      "metar_trigger": false,
      "taf_trigger": false,
      "metar": "METAR LQTZ 130100Z 00000KT CAVOK 05/05 Q1013",
      "taf": "TAF LQTZ 122300Z 1300/1324 30005KT 9999 SCT040 TX16/1313Z TN02/1304Z"
    },
    {
      "icao": "LRBC",
      "alert": "OK",
      "vis_m": 9999,
      "fzfg": false,
      "metar_trigger": false,
      "taf_trigger": false,
      "metar": "METAR LRBC 130100Z 35009KT 9999 OVC017 13/10 Q1001",
      "taf": "TAF LRBC 122300Z 1300/1309 34008KT 9999 BKN015 BKN045"
    },
    {
      "icao": "LRBS",
      "alert": "OK",
      "vis_m": 9999,
      "fzfg": false,
      "metar_trigger": false,
      "taf_trigger": false,
      "metar": "METAR LRBS 130100Z 26007KT 230V310 CAVOK 13/11 Q1001 NOSIG",
      "taf": "TAF LRBS 122300Z 1300/1324 25014KT CAVOK"
    },
    {
      "icao": "LRBV",
      "alert": "OK",
      "vis_m": 9999,
      "fzfg": false,
      "metar_trigger": false,
      "taf_trigger": false,
      "metar": "METAR LRBV 130100Z AUTO 21009KT 9999 BKN057/// 10/08 Q1001",
      "taf": "TAF LRBV 121700Z 1218/1303 26006KT 9999 FEW040CB BKN065"
    },
    {
      "icao": "LRCL",
      "alert": "OK",
      "vis_m": 9999,
      "fzfg": false,
      "metar_trigger": false,
      "taf_trigger": false,
      "metar": "METAR LRCL 130100Z 32006KT 270V360 9999 -RA OVC013 11/09 Q1001",
      "taf": "TAF LRCL 122300Z 1300/1309 VRB04KT 9999 BKN045"
    },
    {
      "icao": "LRCV",
      "alert": "OK",
      "vis_m": 9999,
      "fzfg": false,
      "metar_trigger": false,
      "taf_trigger": false,
      "metar": "METAR LRCV 130100Z 28023KT 9999 FEW025 10/07 Q1004",
      "taf": "TAF LRCV 122300Z 1300/1309 27020KT CAVOK"
    },
    {
      "icao": "LRIA",
      "alert": "OK",
      "vis_m": 9999,
      "fzfg": false,
      "metar_trigger": false,
      "taf_trigger": false,
      "metar": "METAR LRIA 130100Z 29013KT 9999 OVC008 11/09 Q1000",
      "taf": "TAF LRIA 122300Z 1300/1309 30012KT 9999 BKN010"
    },
    {
      "icao": "LROP",
      "alert": "OK",
      "vis_m": 9999,
      "fzfg": false,
      "metar_trigger": false,
      "taf_trigger": false,
      "metar": "METAR LROP 130100Z 25007KT CAVOK 12/11 Q1001 NOSIG",
      "taf": "TAF LROP 122300Z 1300/1324 25014KT CAVOK"
    },
    {
      "icao": "LRSB",
      "alert": "OK",
      "vis_m": 9999,
      "fzfg": false,
      "metar_trigger": false,
      "taf_trigger": false,
      "metar": "METAR LRSB 130100Z 32012KT 9999 -RA OVC050 11/09 Q1001",
      "taf": "TAF LRSB 122300Z 1300/1324 25006KT CAVOK"
    },
    {
      "icao": "LRSM",
      "alert": "OK",
      "vis_m": 9999,
      "fzfg": false,
      "metar_trigger": false,
      "taf_trigger": false,
      "metar": "METAR LRSM 130100Z AUTO 32014KT 9999 -DZ FEW033/// OVC039/// 09/07 Q1002",
      "taf": "TAF LRSM 121400Z 1215/1224 32010KT 9999 SCT045"
    },
    {
      "icao": "LRSV",
      "alert": "OK",
      "vis_m": 9999,
      "fzfg": false,
      "metar_trigger": false,
      "taf_trigger": false,
      "metar": "METAR LRSV 130100Z 31017KT 9999 SCT010 BKN036 09/07 Q1001",
      "taf": "TAF LRSV 122300Z 1300/1309 32014KT 9999 SCT010 BKN045"
    },
    {
      "icao": "LRTM",
      "alert": "OK",
      "vis_m": 9999,
      "fzfg": false,
      "metar_trigger": false,
      "taf_trigger": false,
      "metar": "METAR LRTM 130100Z VRB02KT 9999 FEW012 SCT034 BKN040 12/11 Q1000",
      "taf": "TAF LRTM 122300Z 1300/1309 VRB04KT 9999 SCT045"
    },
    {
      "icao": "LRTR",
      "alert": "OK",
      "vis_m": 9999,
      "fzfg": false,
      "metar_trigger": false,
      "taf_trigger": false,
      "metar": "METAR LRTR 130100Z 26009KT 9999 SCT010 SCT026 07/07 Q1009",
      "taf": "TAF LRTR 122300Z 1300/1324 30014KT 9999 BKN035"
    },
    {
      "icao": "LTAC",
      "alert": "OK",
      "vis_m": 9999,
      "fzfg": false,
      "metar_trigger": false,
      "taf_trigger": false,
      "metar": "METAR LTAC 130050Z 05004KT 9999 FEW040 SCT100 10/09 Q1007 NOSIG RMK RWY21C 03004KT RWY03L 03004KT 360V060 RWY21R 02004KT RWY03R VRB02KT RWY21L VRB02KT",
      "taf": "TAF LTAC 122240Z 1300/1324 VRB02KT 9999 SCT040 SCT100"
    },
    {
      "icao": "LTFM",
      "alert": "OK",
      "vis_m": 9999,
      "fzfg": false,
      "metar_trigger": false,
      "taf_trigger": false,
      "metar": "METAR LTFM 130050Z 19008KT 9999 SCT035 BKN080 16/13 Q1003 NOSIG RMK RWY17L 20013KT RWY34L 21012KT RWY16R 20012KT RWY36 22011KT RWY18 21014KT",
      "taf": "TAF LTFM 122240Z 1300/1406 21014KT 9999 SCT035 BKN100"
    },
    {
      "icao": "LUKK",
      "alert": "OK",
      "vis_m": 9000,
      "fzfg": false,
      "metar_trigger": false,
      "taf_trigger": false,
      "metar": "METAR LUKK 130100Z 26005KT 9000 OVC005 13/13 Q0999 NOSIG",
      "taf": "TAF LUKK 122324Z 1300/1324 25005KT 3000 BR OVC004"
    },
    {
      "icao": "LWOH",
      "alert": "OK",
      "vis_m": null,
      "fzfg": false,
      "metar_trigger": false,
      "taf_trigger": false,
      "metar": "",
      "taf": "TAF LWOH 122025Z 1221/1321 22010KT 9999 SCT040"
    },
    {
      "icao": "LWSK",
      "alert": "OK",
      "vis_m": 9999,
      "fzfg": false,
      "metar_trigger": false,
      "taf_trigger": false,
      "metar": "METAR LWSK 130120Z 01016KT 9999 -DZ FEW050 BKN070 15/10 Q1006 NOSIG",
      "taf": "TAF LWSK 122025Z 1221/1321 VRB02KT 9999 FEW050"
    },
    {
      "icao": "LYBE",
      "alert": "OK",
      "vis_m": 9999,
      "fzfg": false,
      "metar_trigger": false,
      "taf_trigger": false,
      "metar": "METAR LYBE 130100Z 27012KT CAVOK 07/05 Q1012 NOSIG",
      "taf": "TAF LYBE 122300Z 1300/1324 28014KT 9999 SCT030 TX17/1313Z TN06/1304Z"
    },
    {
      "icao": "LYNI",
      "alert": "OK",
      "vis_m": 9999,
      "fzfg": false,
      "metar_trigger": false,
      "taf_trigger": false,
      "metar": "METAR LYNI 130100Z 32011KT 290V020 9999 BKN013 OVC027 07/06 Q1011 NOSIG",
      "taf": "TAF LYNI 122300Z 1300/1324 30012KT 9999 BKN050 TX18/1314Z TN06/1304Z"
    },
    {
      "icao": "LYPG",
      "alert": "OK",
      "vis_m": 9999,
      "fzfg": false,
      "metar_trigger": false,
      "taf_trigger": false,
      "metar": "METAR LYPG 130100Z 00000KT 9999 FEW030 SCT080 17/15 Q1006 NOSIG",
      "taf": "TAF LYPG 122300Z 1300/1324 36007KT 9999 SCT040 BKN080 TX22/1313Z TN13/1304Z"
    },
    {
      "icao": "LZIB",
      "alert": "OK",
      "vis_m": 9999,
      "fzfg": false,
      "metar_trigger": false,
      "taf_trigger": false,
      "metar": "METAR LZIB 130100Z 29012KT CAVOK 07/01 Q1009 NOSIG",
      "taf": "TAF LZIB 122315Z 1300/1400 30013KT CAVOK"
    },
    {
      "icao": "LZKZ",
      "alert": "OK",
      "vis_m": 9999,
      "fzfg": false,
      "metar_trigger": false,
      "taf_trigger": false,
      "metar": "METAR LZKZ 130100Z VRB02KT 9999 SCT040 07/04 Q1005 NOSIG",
      "taf": "TAF LZKZ 122315Z 1300/1400 35008KT CAVOK"
    },
    {
      "icao": "LZTT",
      "alert": "OK",
      "vis_m": 9999,
      "fzfg": false,
      "metar_trigger": false,
      "taf_trigger": false,
      "metar": "METAR LZTT 130100Z 27016KT 9999 SCT020 OVC040 03/01 Q1005",
      "taf": "TAF LZTT 122315Z 1300/1400 27013KT 9999 FEW035"
    },
    {
      "icao": "OEJN",
      "alert": "OK",
      "vis_m": 9999,
      "fzfg": false,
      "metar_trigger": false,
      "taf_trigger": false,
      "metar": "METAR OEJN 130100Z VRB02KT CAVOK 28/22 Q1006 NOSIG",
      "taf": "TAF OEJN 122300Z 1300/1406 VRB03KT 7000 FEW040"
    },
    {
      "icao": "OEMA",
      "alert": "OK",
      "vis_m": 9999,
      "fzfg": false,
      "metar_trigger": false,
      "taf_trigger": false,
      "metar": "METAR OEMA 130100Z VRB02KT CAVOK 30/M04 Q1012 NOSIG",
      "taf": "TAF OEMA 122300Z 1300/1406 VRB03KT CAVOK"
    },
    {
      "icao": "OJAI",
      "alert": "OK",
      "vis_m": 5000,
      "fzfg": false,
      "metar_trigger": false,
      "taf_trigger": false,
      "metar": "METAR OJAI 130100Z 26006KT 5000 HZ NSC 18/03 Q1011 NOSIG",
      "taf": "TAF OJAI 122227Z 1300/1406 25008KT 5000 HZ NSC"
    },
    {
      "icao": "OMAA",
      "alert": "OK",
      "vis_m": 9999,
      "fzfg": false,
      "metar_trigger": false,
      "taf_trigger": false,
      "metar": "METAR OMAA 130100Z 20003KT CAVOK 26/18 Q1002 NOSIG",
      "taf": "TAF OMAA 122300Z 1300/1406 19009KT 8000 NSC"
    },
    {
      "icao": "OMDB",
      "alert": "OK",
      "vis_m": 9999,
      "fzfg": false,
      "metar_trigger": false,
      "taf_trigger": false,
      "metar": "METAR OMDB 130100Z 19004KT CAVOK 28/20 Q1002 NOSIG",
      "taf": "TAF OMDB 122300Z 1300/1406 13005KT 8000 NSC"
    },
    {
      "icao": "UAAA",
      "alert": "OK",
      "vis_m": 9999,
      "fzfg": false,
      "metar_trigger": false,
      "taf_trigger": false,
      "metar": "METAR UAAA 130100Z VRB01MPS 9999 NSC 08/05 Q1023 NOSIG",
      "taf": "TAF UAAA 122305Z 1300/1324 03003G08MPS 9999 SCT100 TX17/1306Z TN05/1302Z"
    },
    {
      "icao": "UBBB",
      "alert": "OK",
      "vis_m": 9999,
      "fzfg": false,
      "metar_trigger": false,
      "taf_trigger": false,
      "metar": "METAR UBBB 130100Z 15008KT CAVOK 18/15 Q1004 NOSIG",
      "taf": "TAF UBBB 122301Z 1300/1324 VRB04KT 9999 FEW040 TX25/1310Z TN15/1301Z"
    },
    {
      "icao": "UDSG",
      "alert": "OK",
      "vis_m": 9999,
      "fzfg": false,
      "metar_trigger": false,
      "taf_trigger": false,
      "metar": "METAR UDSG 130100Z 08002KT 9999 NSC 05/05 Q1012 NOSIG",
      "taf": "TAF UDSG 122300Z 1300/1324 22006KT 9999 BKN040"
    },
    {
      "icao": "UDYZ",
      "alert": "OK",
      "vis_m": 5000,
      "fzfg": false,
      "metar_trigger": false,
      "taf_trigger": false,
      "metar": "METAR UDYZ 130100Z 06001KT 5000 BR FEW046 12/11 Q1008 NOSIG",
      "taf": "TAF UDYZ 122300Z 1300/1324 18006KT 9999 BKN040"
    },
    {
      "icao": "UGKO",
      "alert": "OK",
      "vis_m": 9999,
      "fzfg": false,
      "metar_trigger": false,
      "taf_trigger": false,
      "metar": "METAR UGKO 130100Z 08009KT CAVOK 17/11 Q1001 NOSIG",
      "taf": "TAF UGKO 122300Z 1300/1324 26010KT 9999 SCT022 BKN050 TX23/1311Z TN16/1302Z"
    }
  ]
}