{
  "ts_utc": "2026-03-22T16:59:21Z",
  "threshold_m": 150,
  "source": "stations_override.txt (ICAO list) + aviationweather.gov (METAR/TAF raw)",
  "station_count": 159,
  "stations": [
    {
      "icao": "BIKF",
      "alert": "OK",
      "vis_m": 9999,
      "fzfg": false,
      "metar_trigger": false,
      "taf_trigger": false,
      "metar": "METAR BIKF 221630Z 26029KT 9999 DRSN FEW022 BKN047 M02/M10 Q0996",
      "taf": "TAF BIKF 221636Z 2218/2318 26026G36KT 9999 -SHSN SCT015 BKN025 TX02/2316Z TNM03/2221Z"
    },
    {
      "icao": "BKPR",
      "alert": "OK",
      "vis_m": null,
      "fzfg": false,
      "metar_trigger": false,
      "taf_trigger": false,
      "metar": "",
      "taf": "TAF BKPR 221130Z 2212/2312 01008KT 9999 SCT045"
    },
    {
      "icao": "EBCI",
      "alert": "OK",
      "vis_m": 9999,
      "fzfg": false,
      "metar_trigger": false,
      "taf_trigger": false,
      "metar": "METAR EBCI 221650Z 04009KT CAVOK 13/02 Q1014 NOSIG",
      "taf": "TAF EBCI 221114Z 2212/2318 07005KT 9999 FEW030"
    },
    {
      "icao": "EDDB",
      "alert": "OK",
      "vis_m": 9999,
      "fzfg": false,
      "metar_trigger": false,
      "taf_trigger": false,
      "metar": "METAR EDDB 221650Z AUTO 10007KT CAVOK 12/01 Q1017 NOSIG",
      "taf": "TAF EDDB 221100Z 2212/2312 09008KT CAVOK"
    },
    {
      "icao": "EDDH",
      "alert": "OK",
      "vis_m": 9999,
      "fzfg": false,
      "metar_trigger": false,
      "taf_trigger": false,
      "metar": "METAR EDDH 221650Z AUTO 10006KT CAVOK 13/00 Q1017 NOSIG",
      "taf": "TAF EDDH 221100Z 2212/2318 11007KT CAVOK"
    },
    {
      "icao": "EDDK",
      "alert": "OK",
      "vis_m": 9999,
      "fzfg": false,
      "metar_trigger": false,
      "taf_trigger": false,
      "metar": "METAR EDDK 221650Z AUTO 08003KT CAVOK 14/00 Q1014 NOSIG",
      "taf": "TAF EDDK 221100Z 2212/2318 09006KT CAVOK"
    },
    {
      "icao": "EDDN",
      "alert": "OK",
      "vis_m": 9999,
      "fzfg": false,
      "metar_trigger": false,
      "taf_trigger": false,
      "metar": "METAR EDDN 221650Z AUTO 08011KT 040V110 CAVOK 12/M00 Q1013 NOSIG",
      "taf": "TAF EDDN 221100Z 2212/2312 11013KT CAVOK"
    },
    {
      "icao": "EDDS",
      "alert": "OK",
      "vis_m": 9999,
      "fzfg": false,
      "metar_trigger": false,
      "taf_trigger": false,
      "metar": "METAR EDDS 221650Z AUTO 04008KT CAVOK 13/00 Q1011 NOSIG",
      "taf": "TAF EDDS 221100Z 2212/2312 06007KT CAVOK"
    },
    {
      "icao": "EDFH",
      "alert": "OK",
      "vis_m": 9999,
      "fzfg": false,
      "metar_trigger": false,
      "taf_trigger": false,
      "metar": "METAR EDFH 221650Z 09003KT 030V130 CAVOK 10/M01 Q1013",
      "taf": "TAF EDFH 221100Z 2212/2312 09010KT CAVOK"
    },
    {
      "icao": "EDJA",
      "alert": "OK",
      "vis_m": 9999,
      "fzfg": false,
      "metar_trigger": false,
      "taf_trigger": false,
      "metar": "METAR EDJA 221650Z 05007KT CAVOK 10/M01 Q1010",
      "taf": "TAF EDJA 221400Z 2215/2224 03010KT CAVOK"
    },
    {
      "icao": "EDLW",
      "alert": "OK",
      "vis_m": 9999,
      "fzfg": false,
      "metar_trigger": false,
      "taf_trigger": false,
      "metar": "METAR EDLW 221650Z 08008KT 050V110 CAVOK 14/M00 Q1014",
      "taf": "TAF EDLW 221100Z 2212/2312 07009KT CAVOK"
    },
    {
      "icao": "EDNY",
      "alert": "OK",
      "vis_m": 9999,
      "fzfg": false,
      "metar_trigger": false,
      "taf_trigger": false,
      "metar": "METAR EDNY 221650Z 03008KT CAVOK 13/01 Q1010",
      "taf": "TAF EDNY 221400Z 2215/2224 03008KT CAVOK"
    },
    {
      "icao": "EDSB",
      "alert": "OK",
      "vis_m": 9999,
      "fzfg": false,
      "metar_trigger": false,
      "taf_trigger": false,
      "metar": "METAR EDSB 221650Z 02007KT 330V040 CAVOK 13/03 Q1011",
      "taf": "TAF EDSB 221100Z 2212/2312 02012KT CAVOK"
    },
    {
      "icao": "EETN",
      "alert": "OK",
      "vis_m": 9999,
      "fzfg": false,
      "metar_trigger": false,
      "taf_trigger": false,
      "metar": "METAR EETN 221650Z 22008KT CAVOK 07/M00 Q1018 NOSIG",
      "taf": "TAF EETN 221130Z 2212/2312 23012KT CAVOK"
    },
    {
      "icao": "EFTU",
      "alert": "OK",
      "vis_m": 9999,
      "fzfg": false,
      "metar_trigger": false,
      "taf_trigger": false,
      "metar": "METAR EFTU 221650Z AUTO 21010KT 170V230 CAVOK 04/M02 Q1014",
      "taf": "TAF EFTU 221421Z 2215/2315 23017G27KT CAVOK"
    },
    {
      "icao": "EGBB",
      "alert": "OK",
      "vis_m": 8000,
      "fzfg": false,
      "metar_trigger": false,
      "taf_trigger": false,
      "metar": "METAR EGBB 221650Z 01006KT 8000 NSC 13/06 Q1015",
      "taf": "TAF EGBB 221102Z 2212/2312 34007KT 9999 FEW035"
    },
    {
      "icao": "EGGP",
      "alert": "OK",
      "vis_m": 9999,
      "fzfg": false,
      "metar_trigger": false,
      "taf_trigger": false,
      "metar": "METAR EGGP 221650Z 31009KT 9999 FEW017 SCT021 10/06 Q1017",
      "taf": ""
    },
    {
      "icao": "EGGW",
      "alert": "OK",
      "vis_m": 9999,
      "fzfg": false,
      "metar_trigger": false,
      "taf_trigger": false,
      "metar": "METAR EGGW 221650Z AUTO 01005KT 9999 NCD 10/01 Q1016",
      "taf": "TAF EGGW 221102Z 2212/2312 04005KT 9000 BKN010"
    },
    {
      "icao": "EGKK",
      "alert": "OK",
      "vis_m": 9999,
      "fzfg": false,
      "metar_trigger": false,
      "taf_trigger": false,
      "metar": "METAR EGKK 221650Z 30007KT 190V320 CAVOK 12/03 Q1015",
      "taf": "TAF EGKK 221056Z 2212/2318 09005KT 9999 FEW020"
    },
    {
      "icao": "EGNM",
      "alert": "OK",
      "vis_m": 9000,
      "fzfg": false,
      "metar_trigger": false,
      "taf_trigger": false,
      "metar": "METAR EGNM 221650Z 27012KT 9000 FEW020 09/05 Q1016",
      "taf": "TAF EGNM 221057Z 2212/2312 28008KT 8000 FEW035"
    },
    {
      "icao": "EGPD",
      "alert": "OK",
      "vis_m": 9999,
      "fzfg": false,
      "metar_trigger": false,
      "taf_trigger": false,
      "metar": "METAR EGPD 221650Z AUTO 31011KT 9999 NCD 11/M01 Q1014",
      "taf": "TAF EGPD 221101Z 2212/2312 28009KT 9999 SCT030"
    },
    {
      "icao": "EGPF",
      "alert": "OK",
      "vis_m": 9999,
      "fzfg": false,
      "metar_trigger": false,
      "taf_trigger": false,
      "metar": "METAR EGPF 221650Z AUTO 29011KT 9999 NCD 10/M01 Q1017",
      "taf": "TAF EGPF 221104Z 2212/2312 24009KT 9999 SCT030"
    },
    {
      "icao": "EHBK",
      "alert": "OK",
      "vis_m": 9999,
      "fzfg": false,
      "metar_trigger": false,
      "taf_trigger": false,
      "metar": "METAR EHBK 221625Z AUTO 05007KT 9999 NCD 13/03 Q1014 NOSIG",
      "taf": "TAF EHBK 221116Z 2212/2318 07008KT CAVOK"
    },
    {
      "icao": "EHEH",
      "alert": "OK",
      "vis_m": 9999,
      "fzfg": false,
      "metar_trigger": false,
      "taf_trigger": false,
      "metar": "METAR EHEH 221625Z AUTO 05007KT 020V090 9999 NCD 14/03 Q1014 BLU NOSIG RMK TREND REMOTE BY EHWX",
      "taf": "TAF EHEH 221154Z 2212/2318 08007KT CAVOK"
    },
    {
      "icao": "EKBI",
      "alert": "OK",
      "vis_m": 9999,
      "fzfg": false,
      "metar_trigger": false,
      "taf_trigger": false,
      "metar": "METAR EKBI 221650Z AUTO 16006KT 9999 NCD 11/02 Q1018",
      "taf": "TAF EKBI 221427Z 2215/2315 18008KT CAVOK"
    },
    {
      "icao": "EKCH",
      "alert": "OK",
      "vis_m": 9999,
      "fzfg": false,
      "metar_trigger": false,
      "taf_trigger": false,
      "metar": "METAR EKCH 221650Z AUTO 16007KT 9999 NCD 07/01 Q1020 NOSIG",
      "taf": "TAF EKCH 221427Z 2215/2315 17005KT CAVOK"
    },
    {
      "icao": "ENAL",
      "alert": "OK",
      "vis_m": 9999,
      "fzfg": false,
      "metar_trigger": false,
      "taf_trigger": false,
      "metar": "METAR ENAL 221650Z 24033G49KT 9999 -RA FEW007 SCT025 BKN043 05/02 Q1002",
      "taf": "TAF ENAL 221400Z 2215/2224 23025KT 9999 -SHRA FEW015 BKN035"
    },
    {
      "icao": "ENBR",
      "alert": "OK",
      "vis_m": 9999,
      "fzfg": false,
      "metar_trigger": false,
      "taf_trigger": false,
      "metar": "METAR ENBR 221650Z 15008KT 9999 -RA FEW005 SCT010 BKN020 05/04 Q1010 NOSIG RMK WIND 1200FT 20012KT",
      "taf": "TAF ENBR 221100Z 2212/2312 16022KT 9999 SCT008 BKN012"
    },
    {
      "icao": "ENGM",
      "alert": "OK",
      "vis_m": 9999,
      "fzfg": false,
      "metar_trigger": false,
      "taf_trigger": false,
      "metar": "METAR ENGM 221650Z 19017KT 9999 VCSH BKN013 03/M00 Q1010 NOSIG",
      "taf": ""
    },
    {
      "icao": "ENHD",
      "alert": "OK",
      "vis_m": 9999,
      "fzfg": false,
      "metar_trigger": false,
      "taf_trigger": false,
      "metar": "METAR ENHD 221650Z 27007KT 9999 -RA SCT004 BKN028 06/05 Q1012",
      "taf": ""
    },
    {
      "icao": "ENTC",
      "alert": "OK",
      "vis_m": 9999,
      "fzfg": false,
      "metar_trigger": false,
      "taf_trigger": false,
      "metar": "METAR ENTC 221650Z 20020KT 9999 BKN045 06/M00 Q0986 RERA TEMPO 21023G33KT RMK WIND 2600FT 20046G60KT",
      "taf": "TAF ENTC 221100Z 2212/2312 21015KT 9999 FEW008 SCT010 BKN020"
    },
    {
      "icao": "ENTO",
      "alert": "OK",
      "vis_m": 8000,
      "fzfg": false,
      "metar_trigger": false,
      "taf_trigger": false,
      "metar": "METAR ENTO 221650Z 21017KT 8000 BKN006 04/03 Q1013 TEMPO 4000 -DZ BR BKN004",
      "taf": "TAF ENTO 221100Z 2212/2312 20020KT 9999 BKN015"
    },
    {
      "icao": "ENVA",
      "alert": "OK",
      "vis_m": 9999,
      "fzfg": false,
      "metar_trigger": false,
      "taf_trigger": false,
      "metar": "METAR ENVA 221650Z 24012KT 9999 -RA FEW049 07/05 Q0999 RMK WIND 670FT 28016KT",
      "taf": "TAF ENVA 221100Z 2212/2312 16010KT 9999 BKN050"
    },
    {
      "icao": "ENZV",
      "alert": "OK",
      "vis_m": 4000,
      "fzfg": false,
      "metar_trigger": false,
      "taf_trigger": false,
      "metar": "METAR ENZV 221650Z 18014KT 4000 RA BR FEW003 BKN005 06/04 Q1013 TEMPO 2500 RADZ BR BKN004",
      "taf": ""
    },
    {
      "icao": "EPGD",
      "alert": "OK",
      "vis_m": 9999,
      "fzfg": false,
      "metar_trigger": false,
      "taf_trigger": false,
      "metar": "METAR EPGD 221630Z 06008KT CAVOK 08/00 Q1021",
      "taf": "TAF EPGD 221130Z 2212/2312 11008KT CAVOK"
    },
    {
      "icao": "EPKK",
      "alert": "OK",
      "vis_m": 9999,
      "fzfg": false,
      "metar_trigger": false,
      "taf_trigger": false,
      "metar": "METAR EPKK 221630Z 11008KT 9999 FEW060 12/M00 Q1017",
      "taf": "TAF EPKK 221430Z 2215/2315 09010KT CAVOK"
    },
    {
      "icao": "EPKT",
      "alert": "OK",
      "vis_m": 9999,
      "fzfg": false,
      "metar_trigger": false,
      "taf_trigger": false,
      "metar": "METAR EPKT 221630Z 11006KT CAVOK 11/00 Q1017",
      "taf": "TAF EPKT 221130Z 2212/2312 10013KT CAVOK"
    },
    {
      "icao": "EPLB",
      "alert": "OK",
      "vis_m": 9999,
      "fzfg": false,
      "metar_trigger": false,
      "taf_trigger": false,
      "metar": "METAR EPLB 221630Z 10007KT CAVOK 10/M01 Q1020",
      "taf": "TAF EPLB 221130Z 2212/2312 10010KT CAVOK"
    },
    {
      "icao": "EPMO",
      "alert": "OK",
      "vis_m": 9999,
      "fzfg": false,
      "metar_trigger": false,
      "taf_trigger": false,
      "metar": "METAR EPMO 221630Z 09007KT CAVOK 12/01 Q1020",
      "taf": "TAF EPMO 221130Z 2212/2312 10011KT CAVOK"
    },
    {
      "icao": "EPPO",
      "alert": "OK",
      "vis_m": 9999,
      "fzfg": false,
      "metar_trigger": false,
      "taf_trigger": false,
      "metar": "METAR EPPO 221630Z 08006KT CAVOK 12/M01 Q1018",
      "taf": "TAF EPPO 221130Z 2212/2312 10010KT CAVOK"
    },
    {
      "icao": "EPRA",
      "alert": "OK",
      "vis_m": 9999,
      "fzfg": false,
      "metar_trigger": false,
      "taf_trigger": false,
      "metar": "METAR EPRA 221630Z 10008KT CAVOK 12/M01 Q1019",
      "taf": "TAF EPRA 221430Z 2215/2224 09008KT CAVOK"
    },
    {
      "icao": "EPRZ",
      "alert": "OK",
      "vis_m": 9999,
      "fzfg": false,
      "metar_trigger": false,
      "taf_trigger": false,
      "metar": "METAR EPRZ 221630Z 09008KT CAVOK 11/M02 Q1018",
      "taf": "TAF EPRZ 221130Z 2212/2312 11016KT CAVOK"
    },
    {
      "icao": "EPSC",
      "alert": "OK",
      "vis_m": 9999,
      "fzfg": false,
      "metar_trigger": false,
      "taf_trigger": false,
      "metar": "METAR EPSC 221630Z 13007KT CAVOK 12/M01 Q1018",
      "taf": "TAF EPSC 221130Z 2212/2312 13010KT CAVOK"
    },
    {
      "icao": "EPSY",
      "alert": "OK",
      "vis_m": 9999,
      "fzfg": false,
      "metar_trigger": false,
      "taf_trigger": false,
      "metar": "METAR EPSY 221630Z VRB03KT CAVOK 11/M00 Q1021",
      "taf": "TAF EPSY 221430Z 2215/2224 12006KT CAVOK"
    },
    {
      "icao": "EPWA",
      "alert": "OK",
      "vis_m": 9999,
      "fzfg": false,
      "metar_trigger": false,
      "taf_trigger": false,
      "metar": "METAR EPWA 221630Z 11007KT CAVOK 12/M00 Q1020 NOSIG",
      "taf": "TAF EPWA 221430Z 2215/2315 10010KT CAVOK"
    },
    {
      "icao": "EPWR",
      "alert": "OK",
      "vis_m": 9999,
      "fzfg": false,
      "metar_trigger": false,
      "taf_trigger": false,
      "metar": "METAR EPWR 221630Z 08006KT CAVOK 12/02 Q1017",
      "taf": "TAF EPWR 221430Z 2215/2315 08011KT CAVOK"
    },
    {
      "icao": "ESGG",
      "alert": "OK",
      "vis_m": 9999,
      "fzfg": false,
      "metar_trigger": false,
      "taf_trigger": false,
      "metar": "METAR ESGG 221650Z 21009KT CAVOK 06/02 Q1017",
      "taf": ""
    },
    {
      "icao": "ESKN",
      "alert": "OK",
      "vis_m": 9999,
      "fzfg": false,
      "metar_trigger": false,
      "taf_trigger": false,
      "metar": "METAR ESKN 221650Z 24011KT CAVOK 09/M05 Q1015",
      "taf": "TAF ESKN 221430Z 2215/2315 23012KT CAVOK"
    },
    {
      "icao": "ESMS",
      "alert": "OK",
      "vis_m": 9999,
      "fzfg": false,
      "metar_trigger": false,
      "taf_trigger": false,
      "metar": "METAR ESMS 221650Z 16006KT CAVOK 07/00 Q1019",
      "taf": "TAF ESMS 221427Z 2215/2315 15006KT CAVOK"
    },
    {
      "icao": "ESSA",
      "alert": "OK",
      "vis_m": 9999,
      "fzfg": false,
      "metar_trigger": false,
      "taf_trigger": false,
      "metar": "METAR ESSA 221650Z 22011KT CAVOK 09/M03 Q1014 NOSIG",
      "taf": ""
    },
    {
      "icao": "EYKA",
      "alert": "OK",
      "vis_m": 9999,
      "fzfg": false,
      "metar_trigger": false,
      "taf_trigger": false,
      "metar": "METAR EYKA 221650Z VRB01KT CAVOK 10/M01 Q1022",
      "taf": "TAF EYKA 220500Z 2206/2306 VRB04KT 9000 NSC"
    },
    {
      "icao": "EYPA",
      "alert": "OK",
      "vis_m": 9999,
      "fzfg": false,
      "metar_trigger": false,
      "taf_trigger": false,
      "metar": "METAR EYPA 221650Z VRB01KT CAVOK 05/01 Q1022",
      "taf": "TAF EYPA 220500Z 2206/2306 VRB04KT CAVOK"
    },
    {
      "icao": "EYVI",
      "alert": "OK",
      "vis_m": 9999,
      "fzfg": false,
      "metar_trigger": false,
      "taf_trigger": false,
      "metar": "METAR EYVI 221650Z 18003KT CAVOK 10/M03 Q1022 NOSIG",
      "taf": "TAF EYVI 221105Z 2212/2312 VRB04KT 9000 NSC"
    },
    {
      "icao": "GCFV",
      "alert": "OK",
      "vis_m": 9999,
      "fzfg": false,
      "metar_trigger": false,
      "taf_trigger": false,
      "metar": "METAR GCFV 221630Z 19018G31KT 140V230 9999 FEW035 SCT041 22/13 Q1003",
      "taf": "TAF GCFV 221400Z 2215/2315 21015KT 9999 SCT030 TX21/2314Z TN16/2306Z"
    },
    {
      "icao": "GCLP",
      "alert": "OK",
      "vis_m": 9999,
      "fzfg": false,
      "metar_trigger": false,
      "taf_trigger": false,
      "metar": "METAR GCLP 221630Z 21015KT 9999 FEW025 BKN045 22/13 Q1001 NOSIG",
      "taf": "TAF GCLP 221400Z 2215/2315 20017KT 9999 SCT025 TX21/2314Z TN15/2306Z"
    },
    {
      "icao": "GCTS",
      "alert": "OK",
      "vis_m": 9999,
      "fzfg": false,
      "metar_trigger": false,
      "taf_trigger": false,
      "metar": "METAR GCTS 221630Z 27020G30KT 9999 BKN030 20/14 Q1002 NOSIG",
      "taf": "TAF GCTS 221400Z 2215/2315 25018KT 9999 BKN030 TX20/2314Z TN15/2306Z"
    },
    {
      "icao": "GMAD",
      "alert": "OK",
      "vis_m": 9999,
      "fzfg": false,
      "metar_trigger": false,
      "taf_trigger": false,
      "metar": "METAR GMAD 221630Z 27010KT 9999 FEW030 22/13 Q1005 NOSIG",
      "taf": "TAF GMAD 221100Z 2212/2318 27010KT 8000 SCT020"
    },
    {
      "icao": "GMMN",
      "alert": "OK",
      "vis_m": 9999,
      "fzfg": false,
      "metar_trigger": false,
      "taf_trigger": false,
      "metar": "METAR GMMN 221630Z COR 35011KT 320V020 9999 BKN020CB 16/14 Q1007 RERA NOSIG",
      "taf": "TAF GMMN 221100Z 2212/2318 08006KT 9999 FEW040"
    },
    {
      "icao": "GMMX",
      "alert": "OK",
      "vis_m": 9999,
      "fzfg": false,
      "metar_trigger": false,
      "taf_trigger": false,
      "metar": "METAR GMMX 221630Z 35012KT 290V030 9999 BKN026 FEW030TCU 22/10 Q1005 NOSIG",
      "taf": "TAF GMMX 221100Z 2212/2318 06005KT 8000 SCT020 SCT080"
    },
    {
      "icao": "HEGN",
      "alert": "OK",
      "vis_m": 9999,
      "fzfg": false,
      "metar_trigger": false,
      "taf_trigger": false,
      "metar": "METAR HEGN 221600Z 36005KT 9999 SCT020 BKN025 21/09 Q1008 NOSIG",
      "taf": ""
    },
    {
      "icao": "HEMA",
      "alert": "OK",
      "vis_m": 9999,
      "fzfg": false,
      "metar_trigger": false,
      "taf_trigger": false,
      "metar": "METAR HEMA 221600Z 12010KT CAVOK 22/14 Q1008 NOSIG",
      "taf": ""
    },
    {
      "icao": "HESH",
      "alert": "OK",
      "vis_m": 9999,
      "fzfg": false,
      "metar_trigger": false,
      "taf_trigger": false,
      "metar": "METAR HESH 221600Z 01003KT 9999 SCT020 24/08 Q1007 NOSIG",
      "taf": ""
    },
    {
      "icao": "HESX",
      "alert": "OK",
      "vis_m": 9999,
      "fzfg": false,
      "metar_trigger": false,
      "taf_trigger": false,
      "metar": "METAR HESX 221600Z 30007KT 9999 FEW025 19/03 Q1009 NOSIG",
      "taf": ""
    },
    {
      "icao": "LATI",
      "alert": "OK",
      "vis_m": 9999,
      "fzfg": false,
      "metar_trigger": false,
      "taf_trigger": false,
      "metar": "METAR LATI 221650Z 31006KT 9999 SCT110 13/07 Q1012 NOSIG",
      "taf": "TAF LATI 221100Z 2212/2312 29010KT 9999 BKN080 TX20/2212Z TN09/2305Z"
    },
    {
      "icao": "LBPD",
      "alert": "OK",
      "vis_m": 9999,
      "fzfg": false,
      "metar_trigger": false,
      "taf_trigger": false,
      "metar": "METAR LBPD 221630Z AUTO 13008KT 9999 FEW046/// OVC057/// 09/05 Q1015 NOSIG",
      "taf": "TAF LBPD 221100Z 2212/2312 12010KT 9999 SCT030 OVC050"
    },
    {
      "icao": "LBSF",
      "alert": "OK",
      "vis_m": 9999,
      "fzfg": false,
      "metar_trigger": false,
      "taf_trigger": false,
      "metar": "METAR LBSF 221630Z AUTO 05007KT 020V080 9999 FEW038/// BKN086/// 06/02 Q1015 NOSIG",
      "taf": "TAF LBSF 221100Z 2212/2312 04012KT 9999 SCT025 BKN050"
    },
    {
      "icao": "LBWN",
      "alert": "OK",
      "vis_m": 9999,
      "fzfg": false,
      "metar_trigger": false,
      "taf_trigger": false,
      "metar": "METAR LBWN 221630Z AUTO VRB04KT 9999 SCT012/// OVC014/// 07/05 Q1015 NOSIG",
      "taf": "TAF LBWN 221100Z 2212/2312 01012KT 9999 SCT020 OVC040"
    },
    {
      "icao": "LCLK",
      "alert": "OK",
      "vis_m": 9999,
      "fzfg": false,
      "metar_trigger": false,
      "taf_trigger": false,
      "metar": "METAR LCLK 221630Z 23006KT 9999 FEW020 FEW025TCU 15/12 Q1007 NOSIG",
      "taf": "TAF LCLK 221130Z 2212/2312 22018KT 9999 FEW030 SCT045"
    },
    {
      "icao": "LCPH",
      "alert": "OK",
      "vis_m": 9999,
      "fzfg": false,
      "metar_trigger": false,
      "taf_trigger": false,
      "metar": "METAR LCPH 221630Z 26005KT 250V320 9999 FEW025 15/10 Q1007 NOSIG",
      "taf": "TAF LCPH 221130Z 2212/2312 25009KT 9999 FEW020 SCT030 BKN040"
    },
    {
      "icao": "LEAL",
      "alert": "OK",
      "vis_m": 9999,
      "fzfg": false,
      "metar_trigger": false,
      "taf_trigger": false,
      "metar": "METAR LEAL 221630Z 17006KT 130V250 CAVOK 17/09 Q1011 NOSIG",
      "taf": "TAF LEAL 221100Z 2212/2312 15010KT 9999 FEW030 TX17/2212Z TN07/2306Z"
    },
    {
      "icao": "LEBB",
      "alert": "OK",
      "vis_m": 9999,
      "fzfg": false,
      "metar_trigger": false,
      "taf_trigger": false,
      "metar": "METAR LEBB 221630Z 30008KT 260V330 9999 SCT015 BKN020 OVC030 14/11 Q1014 TEMPO BKN010",
      "taf": ""
    },
    {
      "icao": "LEBL",
      "alert": "OK",
      "vis_m": 9999,
      "fzfg": false,
      "metar_trigger": false,
      "taf_trigger": false,
      "metar": "METAR LEBL 221630Z 22016KT 9999 FEW020 15/11 Q1009 NOSIG",
      "taf": "TAF LEBL 221100Z 2212/2312 22014KT 9999 FEW020 TX16/2212Z TN10/2306Z"
    },
    {
      "icao": "LECH",
      "alert": "OK",
      "vis_m": 9999,
      "fzfg": false,
      "metar_trigger": false,
      "taf_trigger": false,
      "metar": "METAR LECH 221630Z AUTO 15006KT 120V210 CAVOK 15/06 Q1009",
      "taf": "TAF LECH 221100Z 2212/2312 VRB03KT 9999 FEW030 TX18/2212Z TN05/2306Z"
    },
    {
      "icao": "LEMD",
      "alert": "OK",
      "vis_m": 9999,
      "fzfg": false,
      "metar_trigger": false,
      "taf_trigger": false,
      "metar": "METAR LEMD 221630Z 29005KT 250V340 9999 FEW060 18/05 Q1009 NOSIG",
      "taf": "TAF LEMD 221100Z 2212/2318 VRB04KT CAVOK TX18/2216Z TN03/2306Z"
    },
    {
      "icao": "LEMG",
      "alert": "OK",
      "vis_m": 9999,
      "fzfg": false,
      "metar_trigger": false,
      "taf_trigger": false,
      "metar": "METAR LEMG 221630Z 13004KT 090V190 9999 FEW030 16/10 Q1011 NOSIG",
      "taf": "TAF LEMG 221100Z 2212/2312 11008KT 9999 FEW040 TX17/2213Z TN11/2306Z"
    },
    {
      "icao": "LEVC",
      "alert": "OK",
      "vis_m": 9999,
      "fzfg": false,
      "metar_trigger": false,
      "taf_trigger": false,
      "metar": "METAR LEVC 221630Z 11010KT 080V140 CAVOK 17/09 Q1009 NOSIG",
      "taf": "TAF LEVC 221100Z 2212/2312 VRB03KT CAVOK TX20/2212Z TN06/2306Z"
    },
    {
      "icao": "LEXJ",
      "alert": "OK",
      "vis_m": 7000,
      "fzfg": false,
      "metar_trigger": false,
      "taf_trigger": false,
      "metar": "METAR LEXJ 221630Z 31007KT 290V350 7000 SCT020 13/08 Q1014",
      "taf": "TAF LEXJ 221400Z 2215/2315 30008KT 9999 FEW015 SCT025 TX16/2215Z TN09/2307Z"
    },
    {
      "icao": "LEZG",
      "alert": "OK",
      "vis_m": 9999,
      "fzfg": false,
      "metar_trigger": false,
      "taf_trigger": false,
      "metar": "METAR LEZG 221630Z 32019KT CAVOK 19/01 Q1009 NOSIG",
      "taf": "TAF LEZG 221100Z 2212/2312 30012KT CAVOK TX20/2214Z TN08/2306Z"
    },
    {
      "icao": "LEZL",
      "alert": "OK",
      "vis_m": 9999,
      "fzfg": false,
      "metar_trigger": false,
      "taf_trigger": false,
      "metar": "METAR LEZL 221630Z 22003KT 160V290 CAVOK 22/10 Q1009 NOSIG",
      "taf": "TAF LEZL 221400Z 2215/2315 08005KT CAVOK TX23/2215Z TN10/2307Z"
    },
    {
      "icao": "LFBD",
      "alert": "OK",
      "vis_m": 9999,
      "fzfg": false,
      "metar_trigger": false,
      "taf_trigger": false,
      "metar": "METAR LFBD 221630Z AUTO 33011KT CAVOK 17/05 Q1011 TEMPO SCT040TCU",
      "taf": "TAF LFBD 221100Z 2212/2318 36010KT CAVOK TX19/2214Z TN06/2306Z"
    },
    {
      "icao": "LFLL",
      "alert": "OK",
      "vis_m": 9999,
      "fzfg": false,
      "metar_trigger": false,
      "taf_trigger": false,
      "metar": "METAR LFLL 221630Z 21010KT 9999 FEW021 FEW023TCU SCT260 10/05 Q1011 NOSIG",
      "taf": "TAF LFLL 221100Z 2212/2318 12006KT 9999 FEW030 SCT050"
    },
    {
      "icao": "LFLS",
      "alert": "OK",
      "vis_m": 9999,
      "fzfg": false,
      "metar_trigger": false,
      "taf_trigger": false,
      "metar": "METAR LFLS 221630Z AUTO 08006KT 9999 OVC033 07/05 Q1011 TEMPO 4500 -SHRA FEW020TCU BKN025",
      "taf": ""
    },
    {
      "icao": "LFMN",
      "alert": "OK",
      "vis_m": 9999,
      "fzfg": false,
      "metar_trigger": false,
      "taf_trigger": false,
      "metar": "METAR LFMN 221630Z 33009KT 9999 OVC066 11/06 Q1013 NOSIG",
      "taf": "TAF LFMN 221400Z 2215/2321 36010KT 9999 BKN060"
    },
    {
      "icao": "LFOB",
      "alert": "OK",
      "vis_m": 9999,
      "fzfg": false,
      "metar_trigger": false,
      "taf_trigger": false,
      "metar": "METAR LFOB 221630Z AUTO 04008KT CAVOK 13/05 Q1013 NOSIG",
      "taf": "TAF LFOB 221100Z 2212/2312 02006KT CAVOK"
    },
    {
      "icao": "LFPO",
      "alert": "OK",
      "vis_m": 9999,
      "fzfg": false,
      "metar_trigger": false,
      "taf_trigger": false,
      "metar": "METAR LFPO 221630Z 05009KT CAVOK 14/03 Q1013 NOSIG",
      "taf": "TAF LFPO 221100Z 2212/2318 04008KT 9999 SCT050"
    },
    {
      "icao": "LFSB",
      "alert": "OK",
      "vis_m": 9999,
      "fzfg": false,
      "metar_trigger": false,
      "taf_trigger": false,
      "metar": "METAR LFSB 221630Z AUTO 36008KT 9999 FEW045 13/04 Q1011 TEMPO FEW040TCU",
      "taf": "TAF LFSB 221100Z 2212/2312 36005KT 9999 SCT030"
    },
    {
      "icao": "LGAV",
      "alert": "OK",
      "vis_m": 9999,
      "fzfg": false,
      "metar_trigger": false,
      "taf_trigger": false,
      "metar": "METAR LGAV 221650Z 01006KT 9999 SCT020 BKN060 11/06 Q1012 NOSIG",
      "taf": "TAF LGAV 221100Z 2212/2312 03013KT 9999 SCT025 SCT070"
    },
    {
      "icao": "LGTS",
      "alert": "OK",
      "vis_m": 9999,
      "fzfg": false,
      "metar_trigger": false,
      "taf_trigger": false,
      "metar": "METAR LGTS 221650Z 17008KT 9999 SCT025 13/04 Q1013 NOSIG",
      "taf": "TAF LGTS 221100Z 2212/2312 15008KT 9999 SCT025"
    },
    {
      "icao": "LHBP",
      "alert": "OK",
      "vis_m": 9999,
      "fzfg": false,
      "metar_trigger": false,
      "taf_trigger": false,
      "metar": "METAR LHBP 221630Z 07006KT CAVOK 14/M02 Q1016 NOSIG",
      "taf": "TAF LHBP 221115Z 2212/2312 10010KT CAVOK"
    },
    {
      "icao": "LHDC",
      "alert": "OK",
      "vis_m": 9999,
      "fzfg": false,
      "metar_trigger": false,
      "taf_trigger": false,
      "metar": "METAR LHDC 221615Z AUTO 08006KT CAVOK 14/M00 Q1015 NOSIG",
      "taf": "TAF LHDC 221415Z 2215/2224 08008KT CAVOK"
    },
    {
      "icao": "LIBD",
      "alert": "OK",
      "vis_m": 9999,
      "fzfg": false,
      "metar_trigger": false,
      "taf_trigger": false,
      "metar": "METAR LIBD 221650Z 11006KT CAVOK 12/05 Q1012",
      "taf": "TAF LIBD 221100Z 2212/2312 06010KT 9999 SCT050"
    },
    {
      "icao": "LIBG",
      "alert": "OK",
      "vis_m": 9999,
      "fzfg": false,
      "metar_trigger": false,
      "taf_trigger": false,
      "metar": "METAR LIBG 221550Z 12003KT CAVOK 13/07 Q1011",
      "taf": "TAF LIBG 221400Z 2215/2224 21010KT 9999 SCT040"
    },
    {
      "icao": "LIBP",
      "alert": "OK",
      "vis_m": 9999,
      "fzfg": false,
      "metar_trigger": false,
      "taf_trigger": false,
      "metar": "METAR LIBP 221650Z AUTO 25003KT 9999 OVC092/// 12/06 Q1012",
      "taf": "TAF LIBP 221100Z 2212/2312 06010KT 9999 SCT060"
    },
    {
      "icao": "LIBR",
      "alert": "OK",
      "vis_m": 9999,
      "fzfg": false,
      "metar_trigger": false,
      "taf_trigger": false,
      "metar": "METAR LIBR 221650Z VRB02KT CAVOK 13/07 Q1011",
      "taf": "TAF LIBR 221100Z 2212/2312 VRB05KT 9999 FEW040"
    },
    {
      "icao": "LICA",
      "alert": "OK",
      "vis_m": 9999,
      "fzfg": false,
      "metar_trigger": false,
      "taf_trigger": false,
      "metar": "METAR LICA 221650Z AUTO 07010KT 9999 SCT056/// 13/07 Q1011",
      "taf": "TAF LICA 221100Z 2212/2312 09012KT 9999 SCT040"
    },
    {
      "icao": "LICC",
      "alert": "OK",
      "vis_m": 9999,
      "fzfg": false,
      "metar_trigger": false,
      "taf_trigger": false,
      "metar": "METAR LICC 221650Z 13005KT 100V160 9999 SCT030 SCT070 14/11 Q1011",
      "taf": "TAF LICC 221100Z 2212/2312 09013KT 9999 SCT040"
    },
    {
      "icao": "LICJ",
      "alert": "OK",
      "vis_m": 9999,
      "fzfg": false,
      "metar_trigger": false,
      "taf_trigger": false,
      "metar": "METAR LICJ 221650Z 27006KT 9999 SCT060 14/08 Q1011",
      "taf": "TAF LICJ 221100Z 2212/2312 03010KT 9999 SCT040"
    },
    {
      "icao": "LIMC",
      "alert": "OK",
      "vis_m": 9999,
      "fzfg": false,
      "metar_trigger": false,
      "taf_trigger": false,
      "metar": "METAR LIMC 221650Z 34003KT 9999 SCT050 12/00 Q1014 NOSIG",
      "taf": "TAF LIMC 221100Z 2212/2318 VRB05KT 9999 BKN050"
    },
    {
      "icao": "LIME",
      "alert": "OK",
      "vis_m": 9999,
      "fzfg": false,
      "metar_trigger": false,
      "taf_trigger": false,
      "metar": "METAR LIME 221650Z 02005KT 9999 BKN080 12/M00 Q1013 NOSIG",
      "taf": "TAF LIME 221100Z 2212/2312 13008KT 9999 SCT060"
    },
    {
      "icao": "LIMF",
      "alert": "OK",
      "vis_m": 9999,
      "fzfg": false,
      "metar_trigger": false,
      "taf_trigger": false,
      "metar": "METAR LIMF 221650Z 30008KT 9999 SCT045 SCT100 09/01 Q1014",
      "taf": "TAF LIMF 221100Z 2212/2312 36010KT 7000 RA BKN030"
    },
    {
      "icao": "LIMJ",
      "alert": "OK",
      "vis_m": 9999,
      "fzfg": false,
      "metar_trigger": false,
      "taf_trigger": false,
      "metar": "METAR LIMJ 221650Z 02009KT 330V050 CAVOK 14/03 Q1012",
      "taf": "TAF LIMJ 221100Z 2212/2312 02014KT 9999 FEW050"
    },
    {
      "icao": "LIPE",
      "alert": "OK",
      "vis_m": 9999,
      "fzfg": false,
      "metar_trigger": false,
      "taf_trigger": false,
      "metar": "METAR LIPE 221650Z 12001KT 9999 FEW055 SCT070 12/04 Q1013",
      "taf": "TAF LIPE 221100Z 2212/2312 VRB05KT 9999 FEW050"
    },
    {
      "icao": "LIPH",
      "alert": "OK",
      "vis_m": 9999,
      "fzfg": false,
      "metar_trigger": false,
      "taf_trigger": false,
      "metar": "METAR LIPH 221650Z 36004KT 330V030 9999 BKN070 13/01 Q1013",
      "taf": "TAF LIPH 221100Z 2212/2312 04010KT 9999 SCT060"
    },
    {
      "icao": "LIPQ",
      "alert": "OK",
      "vis_m": 9999,
      "fzfg": false,
      "metar_trigger": false,
      "taf_trigger": false,
      "metar": "METAR LIPQ 221650Z AUTO 14004KT 120V180 9999 OVC070/// 13/00 Q1013",
      "taf": "TAF LIPQ 221100Z 2212/2312 08015KT 9999 SCT060"
    },
    {
      "icao": "LIPR",
      "alert": "OK",
      "vis_m": 9999,
      "fzfg": false,
      "metar_trigger": false,
      "taf_trigger": false,
      "metar": "METAR LIPR 221650Z 33003KT 290V360 9999 FEW040 12/05 Q1013",
      "taf": "TAF LIPR 221100Z 2212/2312 VRB05KT 9999 FEW040"
    },
    {
      "icao": "LIPX",
      "alert": "OK",
      "vis_m": 9999,
      "fzfg": false,
      "metar_trigger": false,
      "taf_trigger": false,
      "metar": "METAR LIPX 221650Z 06007KT 9999 SCT080 13/M01 Q1013",
      "taf": "TAF LIPX 221100Z 2212/2312 08011KT 9999 SCT070"
    },
    {
      "icao": "LIPY",
      "alert": "OK",
      "vis_m": 9999,
      "fzfg": false,
      "metar_trigger": false,
      "taf_trigger": false,
      "metar": "METAR LIPY 221650Z AUTO VRB02KT 9999 FEW083/// 12/07 Q1012",
      "taf": "TAF LIPY 221100Z 2212/2312 VRB05KT 9999 SCT060"
    },
    {
      "icao": "LIPZ",
      "alert": "OK",
      "vis_m": 9999,
      "fzfg": false,
      "metar_trigger": false,
      "taf_trigger": false,
      "metar": "METAR LIPZ 221650Z 09004KT 9999 SCT060 14/01 Q1013 NOSIG",
      "taf": "TAF LIPZ 221100Z 2212/2318 08015KT 9999 SCT060"
    },
    {
      "icao": "LIRF",
      "alert": "OK",
      "vis_m": 9999,
      "fzfg": false,
      "metar_trigger": false,
      "taf_trigger": false,
      "metar": "METAR LIRF 221650Z 02005KT CAVOK 12/06 Q1011 NOSIG",
      "taf": "TAF LIRF 221100Z 2212/2318 15010KT 9999 SCT060"
    },
    {
      "icao": "LIRN",
      "alert": "OK",
      "vis_m": 9999,
      "fzfg": false,
      "metar_trigger": false,
      "taf_trigger": false,
      "metar": "METAR LIRN 221650Z VRB02KT 9999 FEW040 12/04 Q1011 NOSIG",
      "taf": "TAF LIRN 221100Z 2212/2312 VRB06KT 9999 FEW040"
    },
    {
      "icao": "LIRP",
      "alert": "OK",
      "vis_m": 9999,
      "fzfg": false,
      "metar_trigger": false,
      "taf_trigger": false,
      "metar": "METAR LIRP 221645Z 33005KT 9999 FEW050 12/03 Q1012 NOSIG",
      "taf": "TAF LIRP 221100Z 2212/2312 09005KT CAVOK"
    },
    {
      "icao": "LIRZ",
      "alert": "OK",
      "vis_m": 9999,
      "fzfg": false,
      "metar_trigger": false,
      "taf_trigger": false,
      "metar": "METAR LIRZ 221650Z AUTO 05008KT 9999 SCT069/// BKN100/// 12/02 Q1012",
      "taf": "TAF LIRZ 221100Z 2212/2312 04012KT 9999 SCT040"
    },
    {
      "icao": "LJLJ",
      "alert": "OK",
      "vis_m": 9999,
      "fzfg": false,
      "metar_trigger": false,
      "taf_trigger": false,
      "metar": "METAR LJLJ 221630Z 35004KT 320V020 9999 FEW045 SCT057 10/M00 Q1014 NOSIG",
      "taf": "TAF LJLJ 221100Z 2212/2312 12006KT 9999 SCT050"
    },
    {
      "icao": "LKMT",
      "alert": "OK",
      "vis_m": 9999,
      "fzfg": false,
      "metar_trigger": false,
      "taf_trigger": false,
      "metar": "METAR LKMT 221630Z 06005KT CAVOK 10/00 Q1017 NOSIG",
      "taf": "TAF LKMT 221100Z 2212/2312 04005KT CAVOK"
    },
    {
      "icao": "LKPR",
      "alert": "OK",
      "vis_m": 9999,
      "fzfg": false,
      "metar_trigger": false,
      "taf_trigger": false,
      "metar": "METAR LKPR 221630Z 12009KT CAVOK 10/00 Q1015 NOSIG",
      "taf": "TAF LKPR 221400Z 2215/2321 09006KT CAVOK"
    },
    {
      "icao": "LLBG",
      "alert": "OK",
      "vis_m": 9999,
      "fzfg": false,
      "metar_trigger": false,
      "taf_trigger": false,
      "metar": "METAR LLBG 221650Z VRB02KT CAVOK 15/09 Q1010 NOSIG",
      "taf": "TAF LLBG 220507Z 2206/2306 16008KT 9999 SCT035 TX18/2211Z TN09/2303Z"
    },
    {
      "icao": "LMML",
      "alert": "OK",
      "vis_m": 9999,
      "fzfg": false,
      "metar_trigger": false,
      "taf_trigger": false,
      "metar": "METAR LMML 221645Z COR 07006KT 9999 FEW015 14/10 Q1011 NOSIG",
      "taf": "TAF LMML 221200Z 2212/2312 15006KT 9999 FEW020"
    },
    {
      "icao": "LOWW",
      "alert": "OK",
      "vis_m": 9999,
      "fzfg": false,
      "metar_trigger": false,
      "taf_trigger": false,
      "metar": "METAR LOWW 221650Z 10005KT CAVOK 12/M02 Q1015 NOSIG",
      "taf": "TAF LOWW 221415Z 2215/2321 13010KT 9999 FEW050 TX15/2313Z TN02/2305Z"
    },
    {
      "icao": "LPFR",
      "alert": "OK",
      "vis_m": 9999,
      "fzfg": false,
      "metar_trigger": false,
      "taf_trigger": false,
      "metar": "METAR LPFR 221630Z 12008KT 9999 FEW015 FEW020CB 17/12 Q1010",
      "taf": "TAF LPFR 221100Z 2212/2312 10010KT 9999 FEW020"
    },
    {
      "icao": "LPMA",
      "alert": "OK",
      "vis_m": 9999,
      "fzfg": false,
      "metar_trigger": false,
      "taf_trigger": false,
      "metar": "METAR LPMA 221630Z 03012KT 9999 FEW007 BKN012 FEW018CB 17/15 Q1004",
      "taf": "TAF LPMA 221100Z 2212/2312 03015KT 9999 SCT016 SCT030"
    },
    {
      "icao": "LPPR",
      "alert": "OK",
      "vis_m": 9999,
      "fzfg": false,
      "metar_trigger": false,
      "taf_trigger": false,
      "metar": "METAR LPPR 221630Z 27005KT 240V360 9999 FEW004 16/12 Q1011",
      "taf": "TAF LPPR 221100Z 2212/2312 26005KT 9999 FEW004"
    },
    {
      "icao": "LPPS",
      "alert": "OK",
      "vis_m": 9999,
      "fzfg": false,
      "metar_trigger": false,
      "taf_trigger": false,
      "metar": "METAR LPPS 221630Z 08013KT 050V110 9999 SCT013 FEW018CB 17/14 Q1004",
      "taf": "TAF LPPS 221100Z 2212/2318 06018KT 9999 SCT012 SCT030"
    },
    {
      "icao": "LPPT",
      "alert": "OK",
      "vis_m": 9999,
      "fzfg": false,
      "metar_trigger": false,
      "taf_trigger": false,
      "metar": "METAR LPPT 221630Z 07004KT 020V120 9999 FEW033 FEW037CB 19/12 Q1010",
      "taf": "TAF LPPT 221100Z 2212/2318 05007KT 9999 FEW030"
    },
    {
      "icao": "LQBK",
      "alert": "OK",
      "vis_m": 9999,
      "fzfg": false,
      "metar_trigger": false,
      "taf_trigger": false,
      "metar": "METAR LQBK 221630Z 04009KT CAVOK 12/00 Q1013 NOSIG",
      "taf": "TAF LQBK 220500Z 2206/2306 34005KT 9999 SCT050 TX14/2213Z TN05/2305Z"
    },
    {
      "icao": "LQSA",
      "alert": "OK",
      "vis_m": 9999,
      "fzfg": false,
      "metar_trigger": false,
      "taf_trigger": false,
      "metar": "METAR LQSA 221630Z 12009KT 9999 SCT060 11/M02 Q1011 NOSIG",
      "taf": "TAF LQSA 220500Z 2206/2306 VRB02KT 9999 SCT060 TX14/2214Z TN03/2206Z"
    },
    {
      "icao": "LQTZ",
      "alert": "OK",
      "vis_m": 9999,
      "fzfg": false,
      "metar_trigger": false,
      "taf_trigger": false,
      "metar": "METAR LQTZ 221630Z 09006KT 9999 SCT068 13/02 Q1012",
      "taf": "TAF LQTZ 220500Z 2206/2306 16005KT 9999 SCT060 TX14/2213Z TN03/2305Z"
    },
    {
      "icao": "LRBC",
      "alert": "OK",
      "vis_m": 9999,
      "fzfg": false,
      "metar_trigger": false,
      "taf_trigger": false,
      "metar": "METAR LRBC 221630Z 05003KT 360V100 9999 OVC060 09/00 Q1018",
      "taf": "TAF LRBC 221400Z 2215/2224 01010KT 9999 BKN050"
    },
    {
      "icao": "LRBS",
      "alert": "OK",
      "vis_m": 9999,
      "fzfg": false,
      "metar_trigger": false,
      "taf_trigger": false,
      "metar": "METAR LRBS 221630Z 06011KT 9999 -RA SCT037 BKN044 07/04 Q1017 NOSIG",
      "taf": "TAF LRBS 221100Z 2212/2312 06015KT 9999 BKN040"
    },
    {
      "icao": "LRBV",
      "alert": "OK",
      "vis_m": 9999,
      "fzfg": false,
      "metar_trigger": false,
      "taf_trigger": false,
      "metar": "METAR LRBV 221630Z 09012KT 9999 FEW041 BKN056 07/M01 Q1017",
      "taf": "TAF LRBV 221400Z 2215/2224 08010KT 9999 SCT035 BKN060"
    },
    {
      "icao": "LRCL",
      "alert": "OK",
      "vis_m": 9999,
      "fzfg": false,
      "metar_trigger": false,
      "taf_trigger": false,
      "metar": "METAR LRCL 221630Z 11007KT 9999 SCT070 12/M02 Q1016",
      "taf": "TAF LRCL 221400Z 2215/2224 13006KT CAVOK"
    },
    {
      "icao": "LRCV",
      "alert": "OK",
      "vis_m": 9999,
      "fzfg": false,
      "metar_trigger": false,
      "taf_trigger": false,
      "metar": "METAR LRCV 221630Z 13007KT 9999 -RA SCT027 OVC032 08/06 Q1017",
      "taf": "TAF LRCV 221400Z 2215/2224 14009KT 9999 BKN035"
    },
    {
      "icao": "LRIA",
      "alert": "OK",
      "vis_m": 9999,
      "fzfg": false,
      "metar_trigger": false,
      "taf_trigger": false,
      "metar": "METAR LRIA 221630Z 05004KT CAVOK 11/M01 Q1018",
      "taf": "TAF LRIA 221400Z 2215/2224 02006KT CAVOK"
    },
    {
      "icao": "LROP",
      "alert": "OK",
      "vis_m": 9999,
      "fzfg": false,
      "metar_trigger": false,
      "taf_trigger": false,
      "metar": "METAR LROP 221630Z 07013KT 9999 -RA NSC 08/02 Q1017 NOSIG",
      "taf": "TAF LROP 221100Z 2212/2312 08015KT 9999 BKN040"
    },
    {
      "icao": "LRSB",
      "alert": "OK",
      "vis_m": 9999,
      "fzfg": false,
      "metar_trigger": false,
      "taf_trigger": false,
      "metar": "METAR LRSB 221630Z 10008KT 9999 SCT070 10/M02 Q1015",
      "taf": "TAF LRSB 221100Z 2212/2312 10012KT 9999 BKN055"
    },
    {
      "icao": "LRSM",
      "alert": "OK",
      "vis_m": 9999,
      "fzfg": false,
      "metar_trigger": false,
      "taf_trigger": false,
      "metar": "METAR LRSM 221630Z 05002KT CAVOK 14/M02 Q1015",
      "taf": "TAF LRSM 221400Z 2215/2224 07006KT CAVOK"
    },
    {
      "icao": "LRSV",
      "alert": "OK",
      "vis_m": 9999,
      "fzfg": false,
      "metar_trigger": false,
      "taf_trigger": false,
      "metar": "METAR LRSV 221630Z 02006KT CAVOK 08/M04 Q1018",
      "taf": "TAF LRSV 221400Z 2215/2224 03010KT CAVOK"
    },
    {
      "icao": "LRTM",
      "alert": "OK",
      "vis_m": 9999,
      "fzfg": false,
      "metar_trigger": false,
      "taf_trigger": false,
      "metar": "METAR LRTM 221630Z 08013KT 9999 FEW044 11/M03 Q1016",
      "taf": "TAF LRTM 221400Z 2215/2224 13006KT 9999 SCT040"
    },
    {
      "icao": "LRTR",
      "alert": "OK",
      "vis_m": 9999,
      "fzfg": false,
      "metar_trigger": false,
      "taf_trigger": false,
      "metar": "METAR LRTR 221630Z 24004KT 180V270 CAVOK 13/02 Q1015",
      "taf": "TAF LRTR 221100Z 2212/2312 10006KT CAVOK"
    },
    {
      "icao": "LTAC",
      "alert": "OK",
      "vis_m": 9999,
      "fzfg": false,
      "metar_trigger": false,
      "taf_trigger": false,
      "metar": "METAR LTAC 221650Z 10008KT 9999 SCT025 BKN080 08/05 Q1007 NOSIG",
      "taf": ""
    },
    {
      "icao": "LTFM",
      "alert": "OK",
      "vis_m": 2500,
      "fzfg": false,
      "metar_trigger": false,
      "taf_trigger": false,
      "metar": "METAR LTFM 221650Z 02014KT 2500 -DZ BR BKN002 BKN018 08/07 Q1012 NOSIG",
      "taf": "TAF LTFM 221040Z 2212/2318 02014KT 1800 -DZ BCFG BKN004 BKN020"
    },
    {
      "icao": "LUKK",
      "alert": "OK",
      "vis_m": 9999,
      "fzfg": false,
      "metar_trigger": false,
      "taf_trigger": false,
      "metar": "METAR LUKK 221630Z 03009KT CAVOK 11/M00 Q1017 NOSIG",
      "taf": "TAF LUKK 221110Z 2212/2312 02010KT 9999 SCT040"
    },
    {
      "icao": "LWOH",
      "alert": "OK",
      "vis_m": 9999,
      "fzfg": false,
      "metar_trigger": false,
      "taf_trigger": false,
      "metar": "METAR LWOH 221650Z 04007KT 9999 FEW035 SCT050 09/00 Q1012",
      "taf": "TAF LWOH 221430Z 2215/2315 16006KT 9999 SCT030 BKN050"
    },
    {
      "icao": "LWSK",
      "alert": "OK",
      "vis_m": 9999,
      "fzfg": false,
      "metar_trigger": false,
      "taf_trigger": false,
      "metar": "METAR LWSK 221650Z 35004KT 9999 FEW050 BKN080 12/03 Q1012 NOSIG",
      "taf": "TAF LWSK 221430Z 2215/2315 02006KT 9999 SCT050 BKN080"
    },
    {
      "icao": "LYBE",
      "alert": "OK",
      "vis_m": 9999,
      "fzfg": false,
      "metar_trigger": false,
      "taf_trigger": false,
      "metar": "METAR LYBE 221630Z 12015KT CAVOK 12/02 Q1014 NOSIG",
      "taf": "TAF LYBE 221100Z 2212/2312 11011KT 9999 SCT040 TX14/2213Z TN06/2305Z"
    },
    {
      "icao": "LYNI",
      "alert": "OK",
      "vis_m": 9999,
      "fzfg": false,
      "metar_trigger": false,
      "taf_trigger": false,
      "metar": "METAR LYNI 221630Z 05011KT 9999 SCT075 11/02 Q1013 NOSIG",
      "taf": "TAF LYNI 221100Z 2212/2312 06009KT 9999 SCT040 BKN070 TX14/2213Z TN03/2305Z"
    },
    {
      "icao": "LYPG",
      "alert": "OK",
      "vis_m": 9999,
      "fzfg": false,
      "metar_trigger": false,
      "taf_trigger": false,
      "metar": "METAR LYPG 221630Z VRB02KT 9999 BKN093 16/M01 Q1011 NOSIG",
      "taf": "TAF LYPG 221100Z 2212/2312 18006KT 9999 SCT050 TX18/2213Z TN08/2304Z"
    },
    {
      "icao": "LZIB",
      "alert": "OK",
      "vis_m": 9999,
      "fzfg": false,
      "metar_trigger": false,
      "taf_trigger": false,
      "metar": "METAR LZIB 221630Z 09004KT CAVOK 13/M01 Q1015 NOSIG",
      "taf": "TAF LZIB 221115Z 2212/2312 10011KT CAVOK"
    },
    {
      "icao": "LZKZ",
      "alert": "OK",
      "vis_m": 9999,
      "fzfg": false,
      "metar_trigger": false,
      "taf_trigger": false,
      "metar": "METAR LZKZ 221630Z 06002KT CAVOK 12/M00 Q1016 NOSIG",
      "taf": "TAF LZKZ 221115Z 2212/2312 10008KT CAVOK"
    },
    {
      "icao": "LZTT",
      "alert": "OK",
      "vis_m": 9999,
      "fzfg": false,
      "metar_trigger": false,
      "taf_trigger": false,
      "metar": "METAR LZTT 221630Z VRB03KT 9999 FEW053 BKN073 08/M01 Q1017 NOSIG",
      "taf": "TAF LZTT 221115Z 2212/2312 10007KT 9999 SCT045"
    },
    {
      "icao": "OEJN",
      "alert": "OK",
      "vis_m": 9999,
      "fzfg": false,
      "metar_trigger": false,
      "taf_trigger": false,
      "metar": "METAR OEJN 221600Z 33011KT CAVOK 29/10 Q1008 NOSIG",
      "taf": "TAF OEJN 221100Z 2212/2318 30008KT 7000 NSC"
    },
    {
      "icao": "OEMA",
      "alert": "OK",
      "vis_m": 9999,
      "fzfg": false,
      "metar_trigger": false,
      "taf_trigger": false,
      "metar": "METAR OEMA 221600Z 28009KT CAVOK 27/M02 Q1011 NOSIG",
      "taf": "TAF OEMA 221100Z 2212/2318 27012KT 7000 NSC"
    },
    {
      "icao": "OJAI",
      "alert": "OK",
      "vis_m": 5000,
      "fzfg": false,
      "metar_trigger": false,
      "taf_trigger": false,
      "metar": "METAR OJAI 221600Z 23005KT 5000 HZ FEW030 11/06 Q1011 NOSIG",
      "taf": "TAF OJAI 221100Z 2212/2318 24012KT 5000 BR SCT020 BKN025"
    },
    {
      "icao": "OMAA",
      "alert": "OK",
      "vis_m": null,
      "fzfg": false,
      "metar_trigger": false,
      "taf_trigger": false,
      "metar": "",
      "taf": ""
    },
    {
      "icao": "OMDB",
      "alert": "OK",
      "vis_m": null,
      "fzfg": false,
      "metar_trigger": false,
      "taf_trigger": false,
      "metar": "",
      "taf": ""
    },
    {
      "icao": "UAAA",
      "alert": "OK",
      "vis_m": 3600,
      "fzfg": false,
      "metar_trigger": false,
      "taf_trigger": false,
      "metar": "METAR UAAA 221630Z VRB01MPS 3600 FU BKN100 11/00 Q1014 NOSIG",
      "taf": "TAF UAAA 221104Z 2212/2312 04002G07MPS 9999 SCT100 TX18/2309Z TN06/2301Z"
    },
    {
      "icao": "UBBB",
      "alert": "OK",
      "vis_m": 9999,
      "fzfg": false,
      "metar_trigger": false,
      "taf_trigger": false,
      "metar": "METAR UBBB 221630Z 35008KT CAVOK 09/07 Q1013 NOSIG",
      "taf": "TAF UBBB 221052Z 2212/2312 03012KT CAVOK TX15/2212Z TN06/2301Z"
    },
    {
      "icao": "UDSG",
      "alert": "OK",
      "vis_m": 9000,
      "fzfg": false,
      "metar_trigger": false,
      "taf_trigger": false,
      "metar": "METAR UDSG 221630Z 35004KT 9000 -RA OVC033 05/03 Q1011 NOSIG",
      "taf": "TAF UDSG 221100Z 2212/2312 36006KT 9999 BKN040"
    },
    {
      "icao": "UDYZ",
      "alert": "OK",
      "vis_m": 9999,
      "fzfg": false,
      "metar_trigger": false,
      "taf_trigger": false,
      "metar": "METAR UDYZ 221630Z 04005KT 9999 BKN043CB 11/06 Q1009 NOSIG",
      "taf": "TAF UDYZ 221100Z 2212/2312 14006KT 9999 FEW040CB"
    },
    {
      "icao": "UGKO",
      "alert": "OK",
      "vis_m": 9999,
      "fzfg": false,
      "metar_trigger": false,
      "taf_trigger": false,
      "metar": "METAR UGKO 221630Z 25008KT CAVOK 10/08 Q1008 NOSIG",
      "taf": "TAF UGKO 220500Z 2206/2306 26007KT 9999 SCT030 BKN060 TX18/2212Z TN08/2303Z"
    }
  ]
}