{
  "ts_utc": "2026-02-19T12:31:01Z",
  "threshold_m": 150,
  "source": "stations_override.txt (ICAO list) + aviationweather.gov (METAR/TAF raw)",
  "station_count": 159,
  "stations": [
    {
      "icao": "BIKF",
      "alert": "OK",
      "vis_m": 9999,
      "fzfg": false,
      "metar_trigger": false,
      "taf_trigger": false,
      "metar": "METAR BIKF 191201Z 04020KT CAVOK M00/M06 Q1010",
      "taf": "TAF BIKF 191032Z 1912/2012 04017KT 9999 FEW025 TX01/1915Z TNM03/2006Z"
    },
    {
      "icao": "BKPR",
      "alert": "OK",
      "vis_m": 9999,
      "fzfg": false,
      "metar_trigger": false,
      "taf_trigger": false,
      "metar": "METAR BKPR 191230Z 15007KT 9999 BKN050 09/02 Q1013 NOSIG",
      "taf": "TAF BKPR 191130Z 1912/2012 16008KT 9999 SCT050"
    },
    {
      "icao": "EBCI",
      "alert": "OK",
      "vis_m": 9999,
      "fzfg": false,
      "metar_trigger": false,
      "taf_trigger": false,
      "metar": "METAR EBCI 191220Z 08009KT 060V130 9999 -SHRA SCT013 BKN025 08/05 Q0997 TEMPO 4000 RADZ BR BKN010",
      "taf": "TAF EBCI 191114Z 1912/2018 10006KT 9999 SCT009 BKN012"
    },
    {
      "icao": "EDDB",
      "alert": "OK",
      "vis_m": 9999,
      "fzfg": false,
      "metar_trigger": false,
      "taf_trigger": false,
      "metar": "METAR EDDB 191220Z AUTO 04009KT CAVOK M01/M07 Q1013 NOSIG",
      "taf": "TAF EDDB 191100Z 1912/2012 09007KT CAVOK"
    },
    {
      "icao": "EDDH",
      "alert": "OK",
      "vis_m": 9999,
      "fzfg": false,
      "metar_trigger": false,
      "taf_trigger": false,
      "metar": "METAR EDDH 191220Z AUTO 09017KT CAVOK M00/M06 Q1013 NOSIG",
      "taf": "TAF EDDH 191100Z 1912/2018 09012KT CAVOK"
    },
    {
      "icao": "EDDK",
      "alert": "OK",
      "vis_m": 9999,
      "fzfg": false,
      "metar_trigger": false,
      "taf_trigger": false,
      "metar": "METAR EDDK 191220Z AUTO 10010KT 070V140 9999 SCT018 OVC036 OVC043 04/00 Q1002 NOSIG",
      "taf": "TAF EDDK 191100Z 1912/2018 10012KT 9999 SCT040"
    },
    {
      "icao": "EDDN",
      "alert": "OK",
      "vis_m": 7000,
      "fzfg": false,
      "metar_trigger": false,
      "taf_trigger": false,
      "metar": "METAR EDDN 191220Z AUTO 09007KT 060V130 7000 -SN FEW010 OVC031 01/M01 Q1003 TEMPO 4000 -SN BKN010",
      "taf": "TAF EDDN 191100Z 1912/2012 07005KT 9999 FEW007 BKN025"
    },
    {
      "icao": "EDDS",
      "alert": "OK",
      "vis_m": 7000,
      "fzfg": false,
      "metar_trigger": false,
      "taf_trigger": false,
      "metar": "METAR EDDS 191220Z AUTO 08006KT 7000 -RA FEW002 BKN048 03/03 Q1000 NOSIG",
      "taf": "TAF EDDS 191100Z 1912/2012 09006KT 9999 BKN045"
    },
    {
      "icao": "EDFH",
      "alert": "OK",
      "vis_m": 9999,
      "fzfg": false,
      "metar_trigger": false,
      "taf_trigger": false,
      "metar": "METAR EDFH 191220Z 13014KT 9999 -SN OVC001 00/00 Q0999",
      "taf": "TAF EDFH 191100Z 1912/2012 13014KT 4000 BR FEW001 BKN005"
    },
    {
      "icao": "EDJA",
      "alert": "OK",
      "vis_m": 7000,
      "fzfg": false,
      "metar_trigger": false,
      "taf_trigger": false,
      "metar": "METAR EDJA 191220Z COR VRB02KT 7000 -RA SCT002 BKN015 OVC019 02/01 Q1001",
      "taf": "TAF EDJA 191100Z 1912/1921 VRB03KT 2500 BR SCT002 BKN015"
    },
    {
      "icao": "EDLW",
      "alert": "OK",
      "vis_m": 6000,
      "fzfg": false,
      "metar_trigger": false,
      "taf_trigger": false,
      "metar": "METAR EDLW 191220Z 04011KT 6000 -SN FEW017 SCT023 OVC032 02/M01 Q1003",
      "taf": "TAF EDLW 191100Z 1912/2012 07013KT 9999 SCT040"
    },
    {
      "icao": "EDNY",
      "alert": "OK",
      "vis_m": 9999,
      "fzfg": false,
      "metar_trigger": false,
      "taf_trigger": false,
      "metar": "METAR EDNY 191220Z 09005KT 9999 -RA SCT007 BKN030 OVC055 05/03 Q1001",
      "taf": "TAF EDNY 191100Z 1912/1921 03005KT 5000 -RA BKN040"
    },
    {
      "icao": "EDSB",
      "alert": "OK",
      "vis_m": 9999,
      "fzfg": false,
      "metar_trigger": false,
      "taf_trigger": false,
      "metar": "METAR EDSB 191220Z 02008KT 9999 SCT007 07/05 Q1000",
      "taf": "TAF EDSB 191100Z 1912/2012 01005KT 9999 BKN006 BKN045"
    },
    {
      "icao": "EETN",
      "alert": "OK",
      "vis_m": 6000,
      "fzfg": false,
      "metar_trigger": false,
      "taf_trigger": false,
      "metar": "METAR EETN 191220Z 07005KT 6000 -SN FEW013 BKN045 M07/M10 Q1009 TEMPO 3000 SHSN BKN010 FEW018CB",
      "taf": "TAF EETN 191130Z 1912/2012 05010KT 9000 BKN012 BKN030"
    },
    {
      "icao": "EFTU",
      "alert": "OK",
      "vis_m": 9999,
      "fzfg": false,
      "metar_trigger": false,
      "taf_trigger": false,
      "metar": "METAR EFTU 191220Z AUTO 04005KT 360V060 CAVOK M08/M13 Q1012",
      "taf": "TAF EFTU 191123Z 1912/2012 03005KT CAVOK"
    },
    {
      "icao": "EGBB",
      "alert": "OK",
      "vis_m": 8000,
      "fzfg": false,
      "metar_trigger": false,
      "taf_trigger": false,
      "metar": "METAR EGBB 191220Z 36006KT 8000 OVC007 04/02 Q1003",
      "taf": ""
    },
    {
      "icao": "EGGP",
      "alert": "OK",
      "vis_m": 9999,
      "fzfg": false,
      "metar_trigger": false,
      "taf_trigger": false,
      "metar": "METAR EGGP 191220Z 06005KT 030V090 9999 FEW021 SCT025 BKN039 05/01 Q1005",
      "taf": "TAF EGGP 191102Z 1912/2012 VRB04KT 9999 SCT025"
    },
    {
      "icao": "EGGW",
      "alert": "OK",
      "vis_m": 2700,
      "fzfg": false,
      "metar_trigger": false,
      "taf_trigger": false,
      "metar": "METAR EGGW 191220Z AUTO 01008KT 340V100 2700 BR OVC003 04/04 Q1001",
      "taf": "TAF EGGW 191104Z 1912/2012 02010KT 4000 -RADZ BR OVC002"
    },
    {
      "icao": "EGKK",
      "alert": "OK",
      "vis_m": 9999,
      "fzfg": false,
      "metar_trigger": false,
      "taf_trigger": false,
      "metar": "METAR EGKK 191220Z VRB09KT 9999 BKN009 06/05 Q1000",
      "taf": "TAF EGKK 191053Z 1912/2018 03006KT 9999 BKN007"
    },
    {
      "icao": "EGNM",
      "alert": "OK",
      "vis_m": 3600,
      "fzfg": false,
      "metar_trigger": false,
      "taf_trigger": false,
      "metar": "METAR EGNM 191220Z 05004KT 020V080 3600 -DZ BR OVC006 03/02 Q1004",
      "taf": "TAF EGNM 191101Z 1912/2012 06010KT 3000 -DZ BKN004"
    },
    {
      "icao": "EGPD",
      "alert": "OK",
      "vis_m": 9999,
      "fzfg": false,
      "metar_trigger": false,
      "taf_trigger": false,
      "metar": "METAR EGPD 191220Z COR AUTO 16019KT 9999 FEW028 OVC034 05/M00 Q1006 NOSIG",
      "taf": "TAF EGPD 191058Z 1912/2012 16012KT 9999 SCT030"
    },
    {
      "icao": "EGPF",
      "alert": "OK",
      "vis_m": 9999,
      "fzfg": false,
      "metar_trigger": false,
      "taf_trigger": false,
      "metar": "METAR EGPF 191220Z AUTO 10005KT 050V150 9999 OVC046 06/00 Q1006",
      "taf": "TAF EGPF 191104Z 1912/2012 09009KT 9999 FEW015 SCT025"
    },
    {
      "icao": "EHBK",
      "alert": "OK",
      "vis_m": 9999,
      "fzfg": false,
      "metar_trigger": false,
      "taf_trigger": false,
      "metar": "METAR EHBK 191225Z AUTO 09012KT 050V120 9999 OVC036 05/03 Q0999 NOSIG",
      "taf": "TAF EHBK 191118Z 1912/2018 09012KT 9999 OVC030"
    },
    {
      "icao": "EHEH",
      "alert": "OK",
      "vis_m": 9999,
      "fzfg": false,
      "metar_trigger": false,
      "taf_trigger": false,
      "metar": "METAR EHEH 191155Z AUTO 09012KT 060V130 9999 BKN007 OVC008 02/01 Q1000 GRN BECMG 9999 NSW FEW008 SCT010 BKN030",
      "taf": "TAF EHEH 191124Z 1912/2018 08011KT 6000 -RA SCT006 BKN008"
    },
    {
      "icao": "EKBI",
      "alert": "OK",
      "vis_m": 9999,
      "fzfg": false,
      "metar_trigger": false,
      "taf_trigger": false,
      "metar": "METAR EKBI 191220Z AUTO 09008KT 9999 NCD M01/M05 Q1015",
      "taf": "TAF EKBI 191127Z 1912/2012 09010KT 9999 FEW010"
    },
    {
      "icao": "EKCH",
      "alert": "OK",
      "vis_m": 9999,
      "fzfg": false,
      "metar_trigger": false,
      "taf_trigger": false,
      "metar": "METAR EKCH 191220Z AUTO 01003KT 9999 NCD M02/M07 Q1016 NOSIG",
      "taf": "TAF EKCH 191127Z 1912/2012 02008KT CAVOK"
    },
    {
      "icao": "ENAL",
      "alert": "OK",
      "vis_m": 9999,
      "fzfg": false,
      "metar_trigger": false,
      "taf_trigger": false,
      "metar": "METAR ENAL 191220Z 20015KT 9999 FEW056 04/M04 Q1009",
      "taf": "TAF ENAL 191100Z 1912/1921 20012KT 9999 FEW040 BKN050"
    },
    {
      "icao": "ENBR",
      "alert": "OK",
      "vis_m": 9999,
      "fzfg": false,
      "metar_trigger": false,
      "taf_trigger": false,
      "metar": "METAR ENBR 191220Z 15010KT CAVOK 01/M05 Q1014 NOSIG RMK WIND 1200FT 16014KT",
      "taf": "TAF ENBR 191100Z 1912/2012 16010KT CAVOK"
    },
    {
      "icao": "ENGM",
      "alert": "OK",
      "vis_m": 9999,
      "fzfg": false,
      "metar_trigger": false,
      "taf_trigger": false,
      "metar": "METAR ENGM 191220Z VRB02KT CAVOK M08/M11 Q1014 NOSIG",
      "taf": "TAF ENGM 191100Z 1912/2012 20005KT CAVOK"
    },
    {
      "icao": "ENHD",
      "alert": "OK",
      "vis_m": 9999,
      "fzfg": false,
      "metar_trigger": false,
      "taf_trigger": false,
      "metar": "METAR ENHD 191220Z 17011KT 140V200 CAVOK 02/M06 Q1014",
      "taf": "TAF ENHD 191100Z 1912/1921 16012KT CAVOK"
    },
    {
      "icao": "ENTC",
      "alert": "OK",
      "vis_m": 9999,
      "fzfg": false,
      "metar_trigger": false,
      "taf_trigger": false,
      "metar": "METAR ENTC 191220Z 20010KT 9999 -SN FEW015 SCT028 BKN050 M06/M09 Q1010 NOSIG RMK WIND 2600FT 19013KT",
      "taf": "TAF ENTC 191100Z 1912/2012 22009KT 9999 FEW015 SCT040"
    },
    {
      "icao": "ENTO",
      "alert": "OK",
      "vis_m": 9999,
      "fzfg": false,
      "metar_trigger": false,
      "taf_trigger": false,
      "metar": "METAR ENTO 191220Z 17005KT CAVOK M06/M10 Q1015 NOSIG",
      "taf": ""
    },
    {
      "icao": "ENVA",
      "alert": "OK",
      "vis_m": 9999,
      "fzfg": false,
      "metar_trigger": false,
      "taf_trigger": false,
      "metar": "METAR ENVA 191220Z 11005KT 9999 VCSH FEW007 SCT042 M02/M03 Q1009 NOSIG RMK WIND 670FT 18010KT",
      "taf": "TAF ENVA 191100Z 1912/2012 10005KT 9999 FEW025 BKN040"
    },
    {
      "icao": "ENZV",
      "alert": "OK",
      "vis_m": 9999,
      "fzfg": false,
      "metar_trigger": false,
      "taf_trigger": false,
      "metar": "METAR ENZV 191220Z 18012KT CAVOK 01/M07 Q1014 NOSIG",
      "taf": "TAF ENZV 191100Z 1912/2012 15008KT CAVOK"
    },
    {
      "icao": "EPGD",
      "alert": "OK",
      "vis_m": 9999,
      "fzfg": false,
      "metar_trigger": false,
      "taf_trigger": false,
      "metar": "METAR EPGD 191200Z 27006KT 9999 FEW015 BKN021 M02/M06 Q1011",
      "taf": "TAF EPGD 191130Z 1912/2012 29010KT 9999 BKN025"
    },
    {
      "icao": "EPKK",
      "alert": "OK",
      "vis_m": 6000,
      "fzfg": false,
      "metar_trigger": false,
      "taf_trigger": false,
      "metar": "METAR EPKK 191200Z 06008KT 6000 FEW015 M01/M05 Q1010",
      "taf": "TAF EPKK 191130Z 1912/2012 06010KT 6000 SCT014"
    },
    {
      "icao": "EPKT",
      "alert": "OK",
      "vis_m": 9999,
      "fzfg": false,
      "metar_trigger": false,
      "taf_trigger": false,
      "metar": "METAR EPKT 191200Z 09004KT 040V130 9999 FEW025 00/M06 Q1010",
      "taf": "TAF EPKT 191130Z 1912/2012 06004KT 9999 FEW024"
    },
    {
      "icao": "EPLB",
      "alert": "OK",
      "vis_m": 9999,
      "fzfg": false,
      "metar_trigger": false,
      "taf_trigger": false,
      "metar": "METAR EPLB 191200Z 29006KT 260V330 9999 BKN034 M02/M09 Q1012",
      "taf": "TAF EPLB 191130Z 1912/2012 27006KT 9999 SCT025"
    },
    {
      "icao": "EPMO",
      "alert": "OK",
      "vis_m": 9999,
      "fzfg": false,
      "metar_trigger": false,
      "taf_trigger": false,
      "metar": "METAR EPMO 191200Z 25007KT 9999 BKN033 M03/M08 Q1012",
      "taf": "TAF EPMO 191130Z 1912/2012 25005KT 9999 SCT030"
    },
    {
      "icao": "EPPO",
      "alert": "OK",
      "vis_m": 9999,
      "fzfg": false,
      "metar_trigger": false,
      "taf_trigger": false,
      "metar": "METAR EPPO 191200Z 14003KT 060V180 9999 FEW035 01/M09 Q1013",
      "taf": "TAF EPPO 191130Z 1912/2012 06010KT CAVOK"
    },
    {
      "icao": "EPRA",
      "alert": "OK",
      "vis_m": 9999,
      "fzfg": false,
      "metar_trigger": false,
      "taf_trigger": false,
      "metar": "METAR EPRA 191200Z 35004KT 300V020 9999 BKN026 M03/M09 Q1012",
      "taf": "TAF EPRA 191130Z 1912/1921 35006KT 9999 BKN033"
    },
    {
      "icao": "EPRZ",
      "alert": "OK",
      "vis_m": 9999,
      "fzfg": false,
      "metar_trigger": false,
      "taf_trigger": false,
      "metar": "METAR EPRZ 191200Z 10006KT 9999 BKN040 M01/M06 Q1011",
      "taf": "TAF EPRZ 191130Z 1912/2012 08005KT 9999 SCT040"
    },
    {
      "icao": "EPSC",
      "alert": "OK",
      "vis_m": 9999,
      "fzfg": false,
      "metar_trigger": false,
      "taf_trigger": false,
      "metar": "METAR EPSC 191200Z 28004KT 9999 SCT018 M01/M07 Q1014",
      "taf": "TAF EPSC 191130Z 1912/2012 VRB03KT 9999 SCT030"
    },
    {
      "icao": "EPSY",
      "alert": "OK",
      "vis_m": 9999,
      "fzfg": false,
      "metar_trigger": false,
      "taf_trigger": false,
      "metar": "METAR EPSY 191200Z 29006KT 250V330 9999 SCT033 M02/M09 Q1011",
      "taf": "TAF EPSY 191130Z 1912/1921 28006KT 9999 BKN030"
    },
    {
      "icao": "EPWA",
      "alert": "OK",
      "vis_m": 9999,
      "fzfg": false,
      "metar_trigger": false,
      "taf_trigger": false,
      "metar": "METAR EPWA 191200Z 26007KT 9999 BKN033 M03/M09 Q1012 NOSIG",
      "taf": "TAF EPWA 191130Z 1912/2012 29005KT 9999 SCT030"
    },
    {
      "icao": "EPWR",
      "alert": "OK",
      "vis_m": 9999,
      "fzfg": false,
      "metar_trigger": false,
      "taf_trigger": false,
      "metar": "METAR EPWR 191200Z 07003KT 020V120 CAVOK M01/M06 Q1012",
      "taf": "TAF EPWR 191130Z 1912/2012 07008KT CAVOK"
    },
    {
      "icao": "ESGG",
      "alert": "OK",
      "vis_m": 9999,
      "fzfg": false,
      "metar_trigger": false,
      "taf_trigger": false,
      "metar": "METAR ESGG 191220Z 02004KT CAVOK M05/M06 Q1015",
      "taf": "TAF ESGG 191130Z 1912/2012 VRB02KT CAVOK"
    },
    {
      "icao": "ESKN",
      "alert": "OK",
      "vis_m": 9999,
      "fzfg": false,
      "metar_trigger": false,
      "taf_trigger": false,
      "metar": "METAR ESKN 191220Z 27006KT CAVOK M05/M10 Q1014",
      "taf": "TAF ESKN 191130Z 1912/2012 31005KT CAVOK"
    },
    {
      "icao": "ESMS",
      "alert": "OK",
      "vis_m": 9999,
      "fzfg": false,
      "metar_trigger": false,
      "taf_trigger": false,
      "metar": "METAR ESMS 191220Z 09005KT CAVOK M01/M09 Q1014",
      "taf": "TAF ESMS 191127Z 1912/2012 02008KT CAVOK"
    },
    {
      "icao": "ESSA",
      "alert": "OK",
      "vis_m": 9999,
      "fzfg": false,
      "metar_trigger": false,
      "taf_trigger": false,
      "metar": "METAR ESSA 191220Z 31008KT 9999 SCT028 M06/M12 Q1013 NOSIG",
      "taf": "TAF ESSA 191130Z 1912/2012 30005KT 9999 BKN030"
    },
    {
      "icao": "EYKA",
      "alert": "OK",
      "vis_m": 9999,
      "fzfg": false,
      "metar_trigger": false,
      "taf_trigger": false,
      "metar": "METAR EYKA 191220Z 28010KT 250V310 9999 BKN020 M04/M08 Q1009",
      "taf": "TAF EYKA 191100Z 1912/2012 28010KT 8000 SCT010 BKN015"
    },
    {
      "icao": "EYPA",
      "alert": "OK",
      "vis_m": 9999,
      "fzfg": false,
      "metar_trigger": false,
      "taf_trigger": false,
      "metar": "METAR EYPA 191220Z VRB03KT 9999 -SHSN FEW013 BKN023CB BKN032 M02/M06 Q1010",
      "taf": "TAF EYPA 191100Z 1912/2012 VRB04KT 5000 SN SCT005 BKN015"
    },
    {
      "icao": "EYVI",
      "alert": "OK",
      "vis_m": 9999,
      "fzfg": false,
      "metar_trigger": false,
      "taf_trigger": false,
      "metar": "METAR EYVI 191220Z 27011KT 9999 -SN BKN017 M05/M08 Q1007 NOSIG",
      "taf": "TAF EYVI 191103Z 1912/2012 29010KT 5000 SN BKN015"
    },
    {
      "icao": "GCFV",
      "alert": "OK",
      "vis_m": 9999,
      "fzfg": false,
      "metar_trigger": false,
      "taf_trigger": false,
      "metar": "METAR GCFV 191200Z 03019KT 9999 SCT022 19/12 Q1024",
      "taf": "TAF GCFV 190800Z 1909/2009 04018KT 9999 FEW025 TX19/1914Z TN16/2006Z"
    },
    {
      "icao": "GCLP",
      "alert": "OK",
      "vis_m": 9999,
      "fzfg": false,
      "metar_trigger": false,
      "taf_trigger": false,
      "metar": "METAR GCLP 191200Z 01019KT 9999 BKN025 19/12 Q1024 NOSIG",
      "taf": "TAF GCLP 190800Z 1909/2009 03020KT 9999 SCT025 TX20/1914Z TN15/2006Z"
    },
    {
      "icao": "GCTS",
      "alert": "OK",
      "vis_m": 9999,
      "fzfg": false,
      "metar_trigger": false,
      "taf_trigger": false,
      "metar": "METAR GCTS 191200Z 07023KT 9999 FEW020 21/12 Q1023 NOSIG",
      "taf": "TAF GCTS 190800Z 1909/2009 05010KT 9999 FEW020 TX24/1914Z TN17/2006Z"
    },
    {
      "icao": "GMAD",
      "alert": "OK",
      "vis_m": 5000,
      "fzfg": false,
      "metar_trigger": false,
      "taf_trigger": false,
      "metar": "METAR GMAD 191200Z 21004KT 180V270 5000 R27/1800V2000U BKN006 13/11 Q1022 BECMG SCT006",
      "taf": "TAF GMAD 191100Z 1912/2018 24010KT 6000 BKN016"
    },
    {
      "icao": "GMMN",
      "alert": "OK",
      "vis_m": 9999,
      "fzfg": false,
      "metar_trigger": false,
      "taf_trigger": false,
      "metar": "METAR GMMN 191200Z 03011KT 360V070 9999 SCT020 17/12 Q1026 NOSIG",
      "taf": "TAF GMMN 191100Z 1912/2018 05008KT 9999 SCT020"
    },
    {
      "icao": "GMMX",
      "alert": "OK",
      "vis_m": 8000,
      "fzfg": false,
      "metar_trigger": false,
      "taf_trigger": false,
      "metar": "METAR GMMX 191200Z 01006KT 310V070 8000 SCT010 15/12 Q1024 NOSIG",
      "taf": "TAF GMMX 191100Z 1912/2018 06006KT CAVOK"
    },
    {
      "icao": "HEGN",
      "alert": "OK",
      "vis_m": 9999,
      "fzfg": false,
      "metar_trigger": false,
      "taf_trigger": false,
      "metar": "METAR HEGN 191200Z 36015KT CAVOK 22/03 Q1017 NOSIG",
      "taf": "TAF HEGN 191100Z 1912/2018 34012G22KT CAVOK"
    },
    {
      "icao": "HEMA",
      "alert": "OK",
      "vis_m": 9999,
      "fzfg": false,
      "metar_trigger": false,
      "taf_trigger": false,
      "metar": "METAR HEMA 191200Z 36021KT CAVOK 23/07 Q1016 NOSIG",
      "taf": "TAF HEMA 191100Z 1912/2018 35012G22KT CAVOK"
    },
    {
      "icao": "HESH",
      "alert": "OK",
      "vis_m": null,
      "fzfg": false,
      "metar_trigger": false,
      "taf_trigger": false,
      "metar": "",
      "taf": "TAF HESH 191100Z 1912/2018 02014KT CAVOK"
    },
    {
      "icao": "HESX",
      "alert": "OK",
      "vis_m": 9999,
      "fzfg": false,
      "metar_trigger": false,
      "taf_trigger": false,
      "metar": "METAR HESX 191200Z 01007KT 9999 SCT020 19/06 Q1020 NOSIG",
      "taf": "TAF HESX 191110Z 1912/2018 02010KT 9999 SCT025"
    },
    {
      "icao": "LATI",
      "alert": "OK",
      "vis_m": 9999,
      "fzfg": false,
      "metar_trigger": false,
      "taf_trigger": false,
      "metar": "METAR LATI 191220Z 15012KT 9999 SCT060 BKN080 16/01 Q1015 NOSIG",
      "taf": "TAF LATI 191100Z 1912/2012 15015KT 9999 SCT040 BKN070 TX16/1912Z TN07/2005Z"
    },
    {
      "icao": "LBPD",
      "alert": "OK",
      "vis_m": 9999,
      "fzfg": false,
      "metar_trigger": false,
      "taf_trigger": false,
      "metar": "METAR LBPD 191200Z AUTO 10004KT 030V160 9999 SCT230/// 10/M01 Q1017 NOSIG",
      "taf": "TAF LBPD 191100Z 1912/2012 VRB04KT CAVOK"
    },
    {
      "icao": "LBSF",
      "alert": "OK",
      "vis_m": 9999,
      "fzfg": false,
      "metar_trigger": false,
      "taf_trigger": false,
      "metar": "METAR LBSF 191200Z 09005KT 030V130 CAVOK 08/M03 Q1015 NOSIG",
      "taf": "TAF LBSF 191100Z 1912/2012 VRB03KT CAVOK"
    },
    {
      "icao": "LBWN",
      "alert": "OK",
      "vis_m": 9999,
      "fzfg": false,
      "metar_trigger": false,
      "taf_trigger": false,
      "metar": "METAR LBWN 191200Z 27007KT 230V290 CAVOK 10/M01 Q1017 NOSIG",
      "taf": "TAF LBWN 191100Z 1912/2012 28008KT CAVOK"
    },
    {
      "icao": "LCLK",
      "alert": "OK",
      "vis_m": 9999,
      "fzfg": false,
      "metar_trigger": false,
      "taf_trigger": false,
      "metar": "METAR LCLK 191200Z 14004KT 120V190 9999 SCT030 SCT050 18/11 Q1019 NOSIG",
      "taf": "TAF LCLK 191130Z 1912/2012 06009KT 9999 FEW025"
    },
    {
      "icao": "LCPH",
      "alert": "OK",
      "vis_m": 9999,
      "fzfg": false,
      "metar_trigger": false,
      "taf_trigger": false,
      "metar": "METAR LCPH 191200Z 31011KT 260V320 9999 FEW030 18/08 Q1019 NOSIG",
      "taf": "TAF LCPH 191130Z 1912/2012 29014KT 9999 FEW025"
    },
    {
      "icao": "LEAL",
      "alert": "OK",
      "vis_m": 9999,
      "fzfg": false,
      "metar_trigger": false,
      "taf_trigger": false,
      "metar": "METAR LEAL 191200Z 30021G33KT 260V330 9999 FEW052 18/M01 Q1020 NOSIG",
      "taf": "TAF LEAL 191100Z 1912/2012 30015KT 9999 FEW030 TX19/1913Z TN09/2006Z"
    },
    {
      "icao": "LEBB",
      "alert": "OK",
      "vis_m": 9999,
      "fzfg": false,
      "metar_trigger": false,
      "taf_trigger": false,
      "metar": "METAR LEBB 191200Z 29017G27KT 250V320 9999 SCT038 BKN054 11/05 Q1021 NOSIG",
      "taf": "TAF LEBB 191100Z 1912/2012 28009KT 9999 SCT020 BKN040 TX12/1913Z TN07/2005Z"
    },
    {
      "icao": "LEBL",
      "alert": "OK",
      "vis_m": 9999,
      "fzfg": false,
      "metar_trigger": false,
      "taf_trigger": false,
      "metar": "METAR LEBL 191200Z COR 29020G30KT 260V320 9999 FEW030 15/02 Q1012 NOSIG",
      "taf": "TAF LEBL 191100Z 1912/2012 29012KT CAVOK TX17/1913Z TN09/2006Z"
    },
    {
      "icao": "LECH",
      "alert": "OK",
      "vis_m": 9000,
      "fzfg": false,
      "metar_trigger": false,
      "taf_trigger": false,
      "metar": "METAR LECH 191200Z AUTO 28009G20KT 180V330 9000 NSC 14/M06 Q1016",
      "taf": ""
    },
    {
      "icao": "LEMD",
      "alert": "OK",
      "vis_m": 9999,
      "fzfg": false,
      "metar_trigger": false,
      "taf_trigger": false,
      "metar": "METAR LEMD 191200Z 28010G22KT 230V330 9999 FEW050 10/M02 Q1022 NOSIG",
      "taf": "TAF LEMD 191100Z 1912/2018 29010KT CAVOK TX13/1915Z TNM00/2006Z"
    },
    {
      "icao": "LEMG",
      "alert": "OK",
      "vis_m": 9999,
      "fzfg": false,
      "metar_trigger": false,
      "taf_trigger": false,
      "metar": "METAR LEMG 191200Z 31013KT 9999 FEW050 15/05 Q1025 NOSIG",
      "taf": "TAF LEMG 191100Z 1912/2012 32016KT CAVOK TX17/1914Z TN11/2007Z"
    },
    {
      "icao": "LEVC",
      "alert": "OK",
      "vis_m": 9999,
      "fzfg": false,
      "metar_trigger": false,
      "taf_trigger": false,
      "metar": "METAR LEVC 191200Z 28018KT 250V320 CAVOK 17/M03 Q1018 NOSIG",
      "taf": "TAF LEVC 191100Z 1912/2012 28013KT 9999 FEW035 TX19/1914Z TN08/2006Z"
    },
    {
      "icao": "LEXJ",
      "alert": "OK",
      "vis_m": 8000,
      "fzfg": false,
      "metar_trigger": false,
      "taf_trigger": false,
      "metar": "METAR LEXJ 191200Z 30031G45KT 270V330 8000 SCT035 12/05 Q1021",
      "taf": ""
    },
    {
      "icao": "LEZG",
      "alert": "OK",
      "vis_m": 9999,
      "fzfg": false,
      "metar_trigger": false,
      "taf_trigger": false,
      "metar": "METAR LEZG 191200Z 28015KT 240V300 9999 BKN060 14/01 Q1019 NOSIG",
      "taf": "TAF LEZG 191100Z 1912/2012 30015KT 9999 FEW040 TX14/1914Z TN07/2006Z"
    },
    {
      "icao": "LEZL",
      "alert": "OK",
      "vis_m": 9999,
      "fzfg": false,
      "metar_trigger": false,
      "taf_trigger": false,
      "metar": "METAR LEZL 191200Z 34006KT 270V040 9999 FEW045 16/06 Q1027 NOSIG",
      "taf": "TAF LEZL 190800Z 1909/2009 29006KT CAVOK TX18/1915Z TN06/2007Z"
    },
    {
      "icao": "LFBD",
      "alert": "OK",
      "vis_m": 9999,
      "fzfg": false,
      "metar_trigger": false,
      "taf_trigger": false,
      "metar": "METAR LFBD 191200Z AUTO 28022KT 9999 -RA BKN024/// BKN037/// BKN049/// ///CB 11/08 Q1011 TEMPO 29030G45KT 3000 SHRA BKN013 BKN025CB",
      "taf": "TAF LFBD 191100Z 1912/2018 26015G25KT 9999 BKN030 TX13/2013Z TN07/2006Z"
    },
    {
      "icao": "LFLL",
      "alert": "OK",
      "vis_m": 9999,
      "fzfg": false,
      "metar_trigger": false,
      "taf_trigger": false,
      "metar": "METAR LFLL 191200Z 19013KT 9999 BKN048 10/04 Q1003 TEMPO 4000 SHRA BKN030TCU",
      "taf": "TAF LFLL 191100Z 1912/2018 20012KT 9999 FEW030TCU OVC035"
    },
    {
      "icao": "LFLS",
      "alert": "OK",
      "vis_m": 9999,
      "fzfg": false,
      "metar_trigger": false,
      "taf_trigger": false,
      "metar": "METAR LFLS 191200Z AUTO 19010KT 160V220 9999 BKN046 OVC054 09/03 Q1004 TEMPO 3000 SHRA FEW025CB BKN025TCU",
      "taf": "TAF LFLS 190800Z 1909/2009 21010KT 9999 BKN035"
    },
    {
      "icao": "LFMN",
      "alert": "OK",
      "vis_m": 9999,
      "fzfg": false,
      "metar_trigger": false,
      "taf_trigger": false,
      "metar": "METAR LFMN 191200Z 16007KT 080V240 CAVOK 14/08 Q1000 NOSIG",
      "taf": "TAF LFMN 190800Z 1909/2015 27010KT CAVOK"
    },
    {
      "icao": "LFOB",
      "alert": "OK",
      "vis_m": 7000,
      "fzfg": false,
      "metar_trigger": false,
      "taf_trigger": false,
      "metar": "METAR LFOB 191200Z AUTO 34009KT 7000 3200 RA BKN008/// BKN021/// BKN030/// ///TCU 10/09 Q0996 TEMPO 3500 SHRA",
      "taf": "TAF LFOB 191100Z 1912/2012 26010KT 9999 SCT016 OVC030"
    },
    {
      "icao": "LFPO",
      "alert": "OK",
      "vis_m": 8000,
      "fzfg": false,
      "metar_trigger": false,
      "taf_trigger": false,
      "metar": "METAR LFPO 191200Z 28010KT 8000 -SHRA BKN010 BKN028 08/06 Q0996 TEMPO 4000 -SHRA BKN012TCU",
      "taf": "TAF LFPO 191100Z 1912/2018 28010KT 8000 BKN015 BKN030"
    },
    {
      "icao": "LFSB",
      "alert": "OK",
      "vis_m": 9999,
      "fzfg": false,
      "metar_trigger": false,
      "taf_trigger": false,
      "metar": "METAR LFSB 191200Z AUTO 25011KT 9999 -RA BKN040/// OVC047/// ///CB 10/04 Q0999 TEMPO 4000 SHRA",
      "taf": "TAF LFSB 191100Z 1912/2012 23010KT 9999 SCT025 BKN040"
    },
    {
      "icao": "LGAV",
      "alert": "OK",
      "vis_m": 9999,
      "fzfg": false,
      "metar_trigger": false,
      "taf_trigger": false,
      "metar": "METAR LGAV 191220Z 21014KT 9999 FEW030 16/02 Q1020 NOSIG",
      "taf": "TAF LGAV 191100Z 1912/2012 20010KT 9999 FEW025"
    },
    {
      "icao": "LGTS",
      "alert": "OK",
      "vis_m": 9999,
      "fzfg": false,
      "metar_trigger": false,
      "taf_trigger": false,
      "metar": "METAR LGTS 191220Z 20005KT 9999 FEW020 14/03 Q1018 NOSIG",
      "taf": "TAF LGTS 191100Z 1912/2012 14013KT 9999 FEW030"
    },
    {
      "icao": "LHBP",
      "alert": "OK",
      "vis_m": 6000,
      "fzfg": false,
      "metar_trigger": false,
      "taf_trigger": false,
      "metar": "SPECI LHBP 191212Z 09006KT 6000 -RA OVC006 02/01 Q1008 NOSIG",
      "taf": "TAF LHBP 191115Z 1912/2012 08010KT 9999 FEW010 BKN060"
    },
    {
      "icao": "LHDC",
      "alert": "OK",
      "vis_m": 9999,
      "fzfg": false,
      "metar_trigger": false,
      "taf_trigger": false,
      "metar": "METAR LHDC 191145Z AUTO 16010KT 120V200 9999 -RA OVC023 05/00 Q1011 BECMG RA",
      "taf": "TAF LHDC 191115Z 1912/1921 13008KT 9999 -RA BKN030 OVC050"
    },
    {
      "icao": "LIBD",
      "alert": "OK",
      "vis_m": 9999,
      "fzfg": false,
      "metar_trigger": false,
      "taf_trigger": false,
      "metar": "METAR LIBD 191220Z 17010KT CAVOK 16/08 Q1009",
      "taf": "TAF LIBD 191100Z 1912/2012 17016G30KT 9999 SCT040"
    },
    {
      "icao": "LIBG",
      "alert": "OK",
      "vis_m": 9999,
      "fzfg": false,
      "metar_trigger": false,
      "taf_trigger": false,
      "metar": "METAR LIBG 191150Z 17012KT 9999 FEW030 16/10 Q1012",
      "taf": "TAF LIBG 191100Z 1912/1921 17015KT 9999 SCT020"
    },
    {
      "icao": "LIBP",
      "alert": "OK",
      "vis_m": 9999,
      "fzfg": false,
      "metar_trigger": false,
      "taf_trigger": false,
      "metar": "METAR LIBP 191220Z AUTO 24014KT 9999 SCT073/// 20/07 Q1001",
      "taf": "TAF LIBP 191100Z 1912/2012 22012KT 9999 SCT050"
    },
    {
      "icao": "LIBR",
      "alert": "OK",
      "vis_m": 9999,
      "fzfg": false,
      "metar_trigger": false,
      "taf_trigger": false,
      "metar": "METAR LIBR 191220Z 19017KT 9999 FEW030 16/09 Q1012",
      "taf": "TAF LIBR 191100Z 1912/2012 18020G33KT 9999 SCT025"
    },
    {
      "icao": "LICA",
      "alert": "OK",
      "vis_m": 9999,
      "fzfg": false,
      "metar_trigger": false,
      "taf_trigger": false,
      "metar": "METAR LICA 191220Z AUTO 08010KT 9999 NCD 19/09 Q1012",
      "taf": "TAF LICA 191100Z 1912/2012 VRB06KT 9999 FEW025"
    },
    {
      "icao": "LICC",
      "alert": "OK",
      "vis_m": 9999,
      "fzfg": false,
      "metar_trigger": false,
      "taf_trigger": false,
      "metar": "METAR LICC 191220Z 24006KT 190V280 9999 FEW040 SCT060 21/16 Q1013",
      "taf": "TAF LICC 191100Z 1912/2012 26011KT 9999 FEW040"
    },
    {
      "icao": "LICJ",
      "alert": "OK",
      "vis_m": 9999,
      "fzfg": false,
      "metar_trigger": false,
      "taf_trigger": false,
      "metar": "METAR LICJ 191220Z 20023KT CAVOK 20/10 Q1009",
      "taf": "TAF LICJ 191100Z 1912/2012 22022G32KT 9999 SCT035"
    },
    {
      "icao": "LIMC",
      "alert": "OK",
      "vis_m": 9999,
      "fzfg": false,
      "metar_trigger": false,
      "taf_trigger": false,
      "metar": "METAR LIMC 191220Z 23008KT 9999 BKN010 BKN030 06/05 Q1000 NOSIG",
      "taf": "TAF LIMC 191100Z 1912/2018 35010KT 9999 BKN025"
    },
    {
      "icao": "LIME",
      "alert": "OK",
      "vis_m": 9999,
      "fzfg": false,
      "metar_trigger": false,
      "taf_trigger": false,
      "metar": "METAR LIME 191220Z AUTO 27004KT 230V310 9999 -RA OVC007/// 05/04 Q0999",
      "taf": "TAF LIME 191100Z 1912/2012 31010KT 7000 BKN030"
    },
    {
      "icao": "LIMF",
      "alert": "OK",
      "vis_m": 9999,
      "fzfg": false,
      "metar_trigger": false,
      "taf_trigger": false,
      "metar": "METAR LIMF 191220Z 20005KT 170V250 9999 FEW015 08/03 Q0999",
      "taf": "TAF LIMF 191100Z 1912/2012 VRB05KT 8000 BKN020"
    },
    {
      "icao": "LIMJ",
      "alert": "OK",
      "vis_m": 9999,
      "fzfg": false,
      "metar_trigger": false,
      "taf_trigger": false,
      "metar": "METAR LIMJ 191220Z 06009KT 020V080 9999 FEW040 11/03 Q1000",
      "taf": "TAF LIMJ 191100Z 1912/2012 05015KT 9999 SCT020"
    },
    {
      "icao": "LIPE",
      "alert": "OK",
      "vis_m": 9999,
      "fzfg": false,
      "metar_trigger": false,
      "taf_trigger": false,
      "metar": "METAR LIPE 191220Z 29012KT 260V330 9999 BKN012 07/04 Q1000",
      "taf": "TAF LIPE 191100Z 1912/2012 29014KT 9999 SCT040"
    },
    {
      "icao": "LIPH",
      "alert": "OK",
      "vis_m": 8000,
      "fzfg": false,
      "metar_trigger": false,
      "taf_trigger": false,
      "metar": "METAR LIPH 191220Z 05006KT 8000 SCT010 BKN040 10/10 Q0998",
      "taf": "TAF LIPH 191100Z 1912/2012 06012KT 7000 BKN020"
    },
    {
      "icao": "LIPQ",
      "alert": "OK",
      "vis_m": 9999,
      "fzfg": false,
      "metar_trigger": false,
      "taf_trigger": false,
      "metar": "METAR LIPQ 191220Z AUTO 14018KT 9999 -RA FEW031/// OVC050/// 12/09 Q0999",
      "taf": "TAF LIPQ 191100Z 1912/2012 15016KT 7000 RA SCT010 BKN030"
    },
    {
      "icao": "LIPR",
      "alert": "OK",
      "vis_m": 5000,
      "fzfg": false,
      "metar_trigger": false,
      "taf_trigger": false,
      "metar": "METAR LIPR 191220Z 24011KT 5000 TSRA SCT025CB BKN045 11/09 Q1000",
      "taf": "TAF LIPR 191100Z 1912/2012 22016KT 9999 SCT040"
    },
    {
      "icao": "LIPX",
      "alert": "OK",
      "vis_m": 9999,
      "fzfg": false,
      "metar_trigger": false,
      "taf_trigger": false,
      "metar": "METAR LIPX 191220Z 26014KT 9999 -DZ FEW006 BKN018 06/05 Q0999",
      "taf": "TAF LIPX 191100Z 1912/2012 26013KT 4000 RA BKN030"
    },
    {
      "icao": "LIPY",
      "alert": "OK",
      "vis_m": 9999,
      "fzfg": false,
      "metar_trigger": false,
      "taf_trigger": false,
      "metar": "METAR LIPY 191220Z AUTO 13011KT 090V160 9999 SCT069/// BKN110/// 18/07 Q0999",
      "taf": "TAF LIPY 191100Z 1912/2012 15010KT 9999 SCT040"
    },
    {
      "icao": "LIPZ",
      "alert": "OK",
      "vis_m": 9999,
      "fzfg": false,
      "metar_trigger": false,
      "taf_trigger": false,
      "metar": "METAR LIPZ 191220Z 16016G26KT 9999 FEW025 BKN050 12/09 Q0997 NOSIG",
      "taf": "TAF LIPZ 191100Z 1912/2018 17018G32KT 7000 SCT020"
    },
    {
      "icao": "LIRF",
      "alert": "OK",
      "vis_m": 9999,
      "fzfg": false,
      "metar_trigger": false,
      "taf_trigger": false,
      "metar": "METAR LIRF 191220Z 19012KT 9999 SCT010CB BKN015 16/14 Q1003 TEMPO TSRA",
      "taf": "TAF LIRF 191100Z 1912/2018 18022G35KT 9999 FEW025"
    },
    {
      "icao": "LIRN",
      "alert": "OK",
      "vis_m": 9999,
      "fzfg": false,
      "metar_trigger": false,
      "taf_trigger": false,
      "metar": "METAR LIRN 191220Z 18011KT 120V220 9999 BKN040 15/09 Q1009 NOSIG",
      "taf": "TAF LIRN 191100Z 1912/2012 19022G32KT 9999 SCT030"
    },
    {
      "icao": "LIRP",
      "alert": "OK",
      "vis_m": 9999,
      "fzfg": false,
      "metar_trigger": false,
      "taf_trigger": false,
      "metar": "METAR LIRP 191215Z 24012KT 9999 FEW027 SCT035 12/10 Q1002 NOSIG",
      "taf": "TAF LIRP 191100Z 1912/2012 27013KT 9999 SCT025 BKN035"
    },
    {
      "icao": "LIRZ",
      "alert": "OK",
      "vis_m": 9999,
      "fzfg": false,
      "metar_trigger": false,
      "taf_trigger": false,
      "metar": "METAR LIRZ 191220Z AUTO 21021KT 9999 SCT021/// BKN042/// 14/10 Q1001",
      "taf": "TAF LIRZ 191100Z 1912/2012 19013KT 9999 SCT035"
    },
    {
      "icao": "LJLJ",
      "alert": "OK",
      "vis_m": 5000,
      "fzfg": false,
      "metar_trigger": false,
      "taf_trigger": false,
      "metar": "METAR LJLJ 191200Z 12001KT 5000 -RA BR FEW001 BKN020 OVC035 05/05 Q1002 RERA NOSIG",
      "taf": "TAF LJLJ 191100Z 1912/2012 VRB02KT 6000 -RA SCT002 BKN015 OVC025"
    },
    {
      "icao": "LKMT",
      "alert": "OK",
      "vis_m": 1800,
      "fzfg": false,
      "metar_trigger": false,
      "taf_trigger": false,
      "metar": "METAR LKMT 191200Z 04007KT 1800 BR OVC008 M01/M02 Q1009 NOSIG",
      "taf": "TAF LKMT 191100Z 1912/2012 03008KT 1600 BR BKN006 OVC010"
    },
    {
      "icao": "LKPR",
      "alert": "OK",
      "vis_m": 9000,
      "fzfg": false,
      "metar_trigger": false,
      "taf_trigger": false,
      "metar": "METAR LKPR 191200Z 08011KT 9000 BKN011 M01/M02 Q1007 NOSIG",
      "taf": "TAF LKPR 191100Z 1912/2018 08009KT 8000 BKN008"
    },
    {
      "icao": "LLBG",
      "alert": "OK",
      "vis_m": 9999,
      "fzfg": false,
      "metar_trigger": false,
      "taf_trigger": false,
      "metar": "METAR LLBG 191220Z 32010KT 9999 BKN040 18/08 Q1020 NOSIG",
      "taf": "TAF LLBG 191104Z 1912/2012 30010KT 9999 FEW040"
    },
    {
      "icao": "LMML",
      "alert": "OK",
      "vis_m": 9999,
      "fzfg": false,
      "metar_trigger": false,
      "taf_trigger": false,
      "metar": "METAR LMML 191215Z 20012KT 170V230 CAVOK 18/14 Q1014 NOSIG",
      "taf": "TAF LMML 191100Z 1912/2012 18015KT CAVOK"
    },
    {
      "icao": "LOWW",
      "alert": "OK",
      "vis_m": 9999,
      "fzfg": false,
      "metar_trigger": false,
      "taf_trigger": false,
      "metar": "METAR LOWW 191220Z 09007KT 9999 FEW005 BKN006 01/M01 Q1007 NOSIG",
      "taf": "TAF LOWW 191115Z 1912/2018 10009KT 9999 OVC009 TX00/1912Z TNM02/2018Z"
    },
    {
      "icao": "LPFR",
      "alert": "OK",
      "vis_m": 9999,
      "fzfg": false,
      "metar_trigger": false,
      "taf_trigger": false,
      "metar": "METAR LPFR 191200Z 30007KT 240V360 9999 FEW020 15/09 Q1028",
      "taf": "TAF LPFR 191100Z 1912/2012 36010KT CAVOK"
    },
    {
      "icao": "LPMA",
      "alert": "OK",
      "vis_m": 9999,
      "fzfg": false,
      "metar_trigger": false,
      "taf_trigger": false,
      "metar": "METAR LPMA 191200Z 04013KT 9999 BKN013 17/11 Q1028",
      "taf": "TAF LPMA 191100Z 1912/2012 03010KT 9999 SCT016"
    },
    {
      "icao": "LPPR",
      "alert": "OK",
      "vis_m": 9999,
      "fzfg": false,
      "metar_trigger": false,
      "taf_trigger": false,
      "metar": "METAR LPPR 191200Z 34009KT 9999 FEW025 SCT035 12/06 Q1028",
      "taf": "TAF LPPR 191100Z 1912/2012 35010KT 9999 SCT035"
    },
    {
      "icao": "LPPS",
      "alert": "OK",
      "vis_m": 9999,
      "fzfg": false,
      "metar_trigger": false,
      "taf_trigger": false,
      "metar": "METAR LPPS 191200Z 10011KT 020V130 9999 SCT015 17/11 Q1028",
      "taf": "TAF LPPS 191100Z 1912/2018 08010KT 9999 SCT015"
    },
    {
      "icao": "LPPT",
      "alert": "OK",
      "vis_m": 9999,
      "fzfg": false,
      "metar_trigger": false,
      "taf_trigger": false,
      "metar": "METAR LPPT 191200Z 34010KT 320V020 9999 BKN032 13/07 Q1029",
      "taf": "TAF LPPT 191100Z 1912/2018 34010KT 9999 SCT035"
    },
    {
      "icao": "LQBK",
      "alert": "OK",
      "vis_m": 9999,
      "fzfg": false,
      "metar_trigger": false,
      "taf_trigger": false,
      "metar": "METAR LQBK 191200Z 17018KT CAVOK 15/04 Q1005 TEMPO 17015G25KT",
      "taf": ""
    },
    {
      "icao": "LQSA",
      "alert": "OK",
      "vis_m": 9999,
      "fzfg": false,
      "metar_trigger": false,
      "taf_trigger": false,
      "metar": "METAR LQSA 191200Z 14019KT 9999 BKN045 10/04 Q1009 NOSIG",
      "taf": "TAF LQSA 191100Z 1912/2012 14013KT 9999 BKN045 TX11/1913Z TN04/2006Z"
    },
    {
      "icao": "LQTZ",
      "alert": "OK",
      "vis_m": 9999,
      "fzfg": false,
      "metar_trigger": false,
      "taf_trigger": false,
      "metar": "METAR LQTZ 191200Z 20004KT 140V260 CAVOK 15/03 Q1008",
      "taf": "TAF LQTZ 191100Z 1912/2012 09006KT CAVOK TX16/1914Z TN06/2005Z"
    },
    {
      "icao": "LRBC",
      "alert": "OK",
      "vis_m": 8000,
      "fzfg": false,
      "metar_trigger": false,
      "taf_trigger": false,
      "metar": "METAR LRBC 191200Z 20005KT 8000 NSC 01/M03 Q1014",
      "taf": "TAF LRBC 191100Z 1912/1921 VRB04KT 5000 BR NSC"
    },
    {
      "icao": "LRBS",
      "alert": "OK",
      "vis_m": 9999,
      "fzfg": false,
      "metar_trigger": false,
      "taf_trigger": false,
      "metar": "METAR LRBS 191200Z 23005KT 180V260 CAVOK 07/M02 Q1016 NOSIG",
      "taf": "TAF LRBS 191100Z 1912/2012 25006KT CAVOK"
    },
    {
      "icao": "LRBV",
      "alert": "OK",
      "vis_m": 9999,
      "fzfg": false,
      "metar_trigger": false,
      "taf_trigger": false,
      "metar": "METAR LRBV 191200Z 04004KT 9999 FEW062 SCT072 02/M03 Q1012",
      "taf": "TAF LRBV 191100Z 1912/1921 VRB04KT CAVOK"
    },
    {
      "icao": "LRCL",
      "alert": "OK",
      "vis_m": 9999,
      "fzfg": false,
      "metar_trigger": false,
      "taf_trigger": false,
      "metar": "METAR LRCL 191200Z 09011KT CAVOK 04/M02 Q1011",
      "taf": "TAF LRCL 191100Z 1912/1921 12010KT CAVOK"
    },
    {
      "icao": "LRCV",
      "alert": "OK",
      "vis_m": 9999,
      "fzfg": false,
      "metar_trigger": false,
      "taf_trigger": false,
      "metar": "METAR LRCV 191200Z 14009KT CAVOK 09/00 Q1014",
      "taf": "TAF LRCV 191100Z 1912/1921 14010KT CAVOK"
    },
    {
      "icao": "LRIA",
      "alert": "OK",
      "vis_m": 9999,
      "fzfg": false,
      "metar_trigger": false,
      "taf_trigger": false,
      "metar": "METAR LRIA 191200Z 11006KT CAVOK 01/M02 Q1015",
      "taf": "TAF LRIA 191100Z 1912/1921 VRB04KT CAVOK"
    },
    {
      "icao": "LROP",
      "alert": "OK",
      "vis_m": 9999,
      "fzfg": false,
      "metar_trigger": false,
      "taf_trigger": false,
      "metar": "METAR LROP 191200Z 24005KT CAVOK 07/M06 Q1016 NOSIG",
      "taf": "TAF LROP 191100Z 1912/2012 25006KT CAVOK"
    },
    {
      "icao": "LRSB",
      "alert": "OK",
      "vis_m": 9999,
      "fzfg": false,
      "metar_trigger": false,
      "taf_trigger": false,
      "metar": "METAR LRSB 191200Z 18004KT 120V230 9999 FEW062 SCT082 07/M04 Q1011",
      "taf": "TAF LRSB 191100Z 1912/2012 12007KT CAVOK"
    },
    {
      "icao": "LRSM",
      "alert": "OK",
      "vis_m": 9999,
      "fzfg": false,
      "metar_trigger": false,
      "taf_trigger": false,
      "metar": "METAR LRSM 191200Z 13007KT 9999 SCT040 05/M03 Q1012",
      "taf": "TAF LRSM 191100Z 1912/1921 14006KT CAVOK"
    },
    {
      "icao": "LRSV",
      "alert": "OK",
      "vis_m": 9999,
      "fzfg": false,
      "metar_trigger": false,
      "taf_trigger": false,
      "metar": "METAR LRSV 191200Z COR 09006KT CAVOK 01/M02 Q1012",
      "taf": "TAF LRSV 191100Z 1912/1921 11006KT CAVOK"
    },
    {
      "icao": "LRTM",
      "alert": "OK",
      "vis_m": 9999,
      "fzfg": false,
      "metar_trigger": false,
      "taf_trigger": false,
      "metar": "METAR LRTM 191200Z 06006KT 030V110 CAVOK 04/00 Q1012",
      "taf": "TAF LRTM 191100Z 1912/1921 09007KT CAVOK"
    },
    {
      "icao": "LRTR",
      "alert": "OK",
      "vis_m": 9999,
      "fzfg": false,
      "metar_trigger": false,
      "taf_trigger": false,
      "metar": "METAR LRTR 191200Z 12012KT CAVOK 09/03 Q1010 NOSIG",
      "taf": "TAF LRTR 191100Z 1912/2012 10012KT CAVOK"
    },
    {
      "icao": "LTAC",
      "alert": "OK",
      "vis_m": 9999,
      "fzfg": false,
      "metar_trigger": false,
      "taf_trigger": false,
      "metar": "METAR LTAC 191220Z 24011KT 210V270 9999 SCT040 05/M06 Q1020 NOSIG RMK RWY21C 25012KT 220V280 RWY03L 23011KT 200V280 RWY21R 23011KT RWY03R 25009KT 200V280 RWY21L 25011KT 210V270",
      "taf": "TAF LTAC 191040Z 1912/2012 VRB02KT 9999 SCT040"
    },
    {
      "icao": "LTFM",
      "alert": "OK",
      "vis_m": 9999,
      "fzfg": false,
      "metar_trigger": false,
      "taf_trigger": false,
      "metar": "METAR LTFM 191220Z 22016KT 9999 FEW030 11/01 Q1020 NOSIG RMK RWY17L 21014KT RWY34L 22014KT RWY16R 22013KT RWY36 21014KT RWY18 22015KT",
      "taf": "TAF LTFM 191040Z 1912/2018 20013KT 9999 FEW030"
    },
    {
      "icao": "LUKK",
      "alert": "OK",
      "vis_m": 9999,
      "fzfg": false,
      "metar_trigger": false,
      "taf_trigger": false,
      "metar": "METAR LUKK 191200Z 27008KT CAVOK 02/M03 Q1015 NOSIG",
      "taf": "TAF LUKK 191128Z 1912/2012 26008KT 9999 SCT020"
    },
    {
      "icao": "LWOH",
      "alert": "OK",
      "vis_m": 9999,
      "fzfg": false,
      "metar_trigger": false,
      "taf_trigger": false,
      "metar": "METAR LWOH 191220Z 16006KT 120V180 9999 SCT040 10/03 Q1015",
      "taf": ""
    },
    {
      "icao": "LWSK",
      "alert": "OK",
      "vis_m": 9999,
      "fzfg": false,
      "metar_trigger": false,
      "taf_trigger": false,
      "metar": "METAR LWSK 191220Z VRB02KT CAVOK 12/M01 Q1015 NOSIG",
      "taf": ""
    },
    {
      "icao": "LYBE",
      "alert": "OK",
      "vis_m": 9999,
      "fzfg": false,
      "metar_trigger": false,
      "taf_trigger": false,
      "metar": "METAR LYBE 191200Z 17013KT CAVOK 13/00 Q1009 NOSIG",
      "taf": "TAF LYBE 191100Z 1912/2012 16012KT CAVOK TX14/1913Z TN06/2005Z"
    },
    {
      "icao": "LYNI",
      "alert": "OK",
      "vis_m": 9999,
      "fzfg": false,
      "metar_trigger": false,
      "taf_trigger": false,
      "metar": "METAR LYNI 191200Z 16008KT 110V200 9999 FEW040 12/M02 Q1013 NOSIG",
      "taf": "TAF LYNI 191100Z 1912/2012 18012KT CAVOK TX12/1913Z TN04/2005Z"
    },
    {
      "icao": "LYPG",
      "alert": "OK",
      "vis_m": 9999,
      "fzfg": false,
      "metar_trigger": false,
      "taf_trigger": false,
      "metar": "METAR LYPG 191200Z 30003KT 260V340 9999 -RA FEW027 SCT040 OVC070 08/06 Q1015 NOSIG",
      "taf": "TAF LYPG 191100Z 1912/2012 16008KT 9999 FEW027 SCT040 BKN070 TX12/1918Z TN07/2006Z"
    },
    {
      "icao": "LZIB",
      "alert": "OK",
      "vis_m": 3000,
      "fzfg": false,
      "metar_trigger": false,
      "taf_trigger": false,
      "metar": "METAR LZIB 191200Z 04010KT 3000 -SN BKN003 BKN004 00/00 Q1007 TEMPO 2500 -SNRA BKN006",
      "taf": "TAF LZIB 191115Z 1912/2012 05011KT 3200 -SN SCT003 BKN015"
    },
    {
      "icao": "LZKZ",
      "alert": "OK",
      "vis_m": 9999,
      "fzfg": false,
      "metar_trigger": false,
      "taf_trigger": false,
      "metar": "METAR LZKZ 191200Z VRB02KT 9999 -SN OVC025 02/M00 Q1010 NOSIG",
      "taf": "TAF LZKZ 191115Z 1912/2012 VRB02KT 9999 FEW005 BKN025"
    },
    {
      "icao": "LZTT",
      "alert": "OK",
      "vis_m": 9999,
      "fzfg": false,
      "metar_trigger": false,
      "taf_trigger": false,
      "metar": "METAR LZTT 191200Z 14006KT 9999 FEW016 00/M04 Q1007 NOSIG",
      "taf": "TAF LZTT 191115Z 1912/2012 16005KT 9999 FEW015 BKN040"
    },
    {
      "icao": "OEJN",
      "alert": "OK",
      "vis_m": 9999,
      "fzfg": false,
      "metar_trigger": false,
      "taf_trigger": false,
      "metar": "METAR OEJN 191200Z 30012KT CAVOK 30/16 Q1011 NOSIG",
      "taf": "TAF OEJN 191100Z 1912/2018 33010KT CAVOK"
    },
    {
      "icao": "OEMA",
      "alert": "OK",
      "vis_m": 9999,
      "fzfg": false,
      "metar_trigger": false,
      "taf_trigger": false,
      "metar": "METAR OEMA 191200Z 12004KT CAVOK 32/01 Q1015 NOSIG",
      "taf": "TAF OEMA 191100Z 1912/2018 30008KT CAVOK"
    },
    {
      "icao": "OJAI",
      "alert": "OK",
      "vis_m": 5000,
      "fzfg": false,
      "metar_trigger": false,
      "taf_trigger": false,
      "metar": "METAR OJAI 191200Z 30009KT 5000 HZ BKN030 14/05 Q1021 NOSIG",
      "taf": "TAF OJAI 191035Z 1912/2018 28010KT 5000 HZ FEW030"
    },
    {
      "icao": "OMAA",
      "alert": "OK",
      "vis_m": 9999,
      "fzfg": false,
      "metar_trigger": false,
      "taf_trigger": false,
      "metar": "METAR OMAA 191230Z 32013KT CAVOK 29/08 Q1014 NOSIG",
      "taf": "TAF OMAA 191100Z 1912/2018 35011KT 8000 NSC"
    },
    {
      "icao": "OMDB",
      "alert": "OK",
      "vis_m": 9999,
      "fzfg": false,
      "metar_trigger": false,
      "taf_trigger": false,
      "metar": "METAR OMDB 191230Z 33012KT 250V020 CAVOK 28/10 Q1014 NOSIG",
      "taf": "TAF OMDB 191100Z 1912/2018 35013KT CAVOK"
    },
    {
      "icao": "UAAA",
      "alert": "OK",
      "vis_m": 9999,
      "fzfg": false,
      "metar_trigger": false,
      "taf_trigger": false,
      "metar": "METAR UAAA 191200Z 31002MPS 270V340 9999 NSC 17/06 Q1015 NOSIG",
      "taf": "TAF UAAA 191102Z 1912/2012 20003MPS 4000 BR FU FEW050 SCT100 TX12/2009Z TN03/2003Z"
    },
    {
      "icao": "UBBB",
      "alert": "OK",
      "vis_m": 9999,
      "fzfg": false,
      "metar_trigger": false,
      "taf_trigger": false,
      "metar": "METAR UBBB 191200Z 31018G28KT CAVOK 10/06 Q1008 NOSIG",
      "taf": ""
    },
    {
      "icao": "UDSG",
      "alert": "OK",
      "vis_m": 9999,
      "fzfg": false,
      "metar_trigger": false,
      "taf_trigger": false,
      "metar": "METAR UDSG 191200Z 18009KT 9999 SCT049CB 05/M00 Q1014 NOSIG",
      "taf": ""
    },
    {
      "icao": "UDYZ",
      "alert": "OK",
      "vis_m": 9999,
      "fzfg": false,
      "metar_trigger": false,
      "taf_trigger": false,
      "metar": "METAR UDYZ 191200Z 27017KT 9999 SCT///CB 14/M01 Q1012 NOSIG",
      "taf": "TAF UDYZ 191100Z 1912/2012 25006KT 9999 SCT040"
    },
    {
      "icao": "UGKO",
      "alert": "OK",
      "vis_m": 9999,
      "fzfg": false,
      "metar_trigger": false,
      "taf_trigger": false,
      "metar": "METAR UGKO 191200Z 23013KT 9999 -SHRA SCT013 BKN021CB OVC058 06/04 Q1023 NOSIG",
      "taf": "TAF UGKO 191100Z 1912/2012 25007KT 9000 OVC050 TX19/2011Z TN02/2003Z"
    }
  ]
}