{
  "ts_utc": "2026-02-24T09:30:46Z",
  "threshold_m": 150,
  "source": "stations_override.txt (ICAO list) + aviationweather.gov (METAR/TAF raw)",
  "station_count": 159,
  "stations": [
    {
      "icao": "BIKF",
      "alert": "OK",
      "vis_m": 9999,
      "fzfg": false,
      "metar_trigger": false,
      "taf_trigger": false,
      "metar": "METAR BIKF 240900Z 32022KT 9999 BKN019 OVC028 01/M02 Q0984",
      "taf": "TAF BIKF 240800Z 2409/2509 33013KT 9999 -SHSN SCT015 BKN025 TX02/2414Z TNM02/2423Z"
    },
    {
      "icao": "BKPR",
      "alert": "OK",
      "vis_m": null,
      "fzfg": false,
      "metar_trigger": false,
      "taf_trigger": false,
      "metar": "",
      "taf": "TAF BKPR 240530Z 2406/2506 01007KT 9999 BKN040"
    },
    {
      "icao": "EBCI",
      "alert": "OK",
      "vis_m": 1600,
      "fzfg": false,
      "metar_trigger": false,
      "taf_trigger": false,
      "metar": "METAR EBCI 240920Z COR 24010KT 1600 BR BKN002 10/10 Q1019 TEMPO 1200 BR",
      "taf": "TAF EBCI 240520Z 2406/2512 24010KT 9999 SCT005 BKN007"
    },
    {
      "icao": "EDDB",
      "alert": "OK",
      "vis_m": 9999,
      "fzfg": false,
      "metar_trigger": false,
      "taf_trigger": false,
      "metar": "METAR EDDB 240920Z AUTO 32007KT 9999 FEW011 BKN015 BKN025 07/05 Q1018 TEMPO BKN014",
      "taf": "TAF EDDB 240500Z 2406/2506 30008KT 9999 SCT008 BKN015"
    },
    {
      "icao": "EDDH",
      "alert": "OK",
      "vis_m": 9999,
      "fzfg": false,
      "metar_trigger": false,
      "taf_trigger": false,
      "metar": "METAR EDDH 240920Z AUTO 25005KT 230V290 9999 BKN005 BKN020 06/05 Q1018 BECMG BKN010",
      "taf": "TAF EDDH 240500Z 2406/2512 28005KT 9999 OVC008"
    },
    {
      "icao": "EDDK",
      "alert": "OK",
      "vis_m": 9999,
      "fzfg": false,
      "metar_trigger": false,
      "taf_trigger": false,
      "metar": "METAR EDDK 240920Z AUTO 17004KT 9999 BKN003 BKN011 OVC020 10/09 Q1020 TEMPO SCT003 BKN011",
      "taf": ""
    },
    {
      "icao": "EDDN",
      "alert": "OK",
      "vis_m": 9999,
      "fzfg": false,
      "metar_trigger": false,
      "taf_trigger": false,
      "metar": "METAR EDDN 240920Z AUTO 35005KT 320V020 9999 SCT008 BKN014 OVC048 08/06 Q1020 BECMG SCT010 BKN020",
      "taf": ""
    },
    {
      "icao": "EDDS",
      "alert": "OK",
      "vis_m": 2200,
      "fzfg": false,
      "metar_trigger": false,
      "taf_trigger": false,
      "metar": "METAR EDDS 240920Z AUTO VRB01KT 2200 1100 R25/1600U RA BR BKN005 BKN010 10/10 Q1019 TEMPO 3000 -RADZ",
      "taf": ""
    },
    {
      "icao": "EDFH",
      "alert": "OK",
      "vis_m": 1800,
      "fzfg": false,
      "metar_trigger": false,
      "taf_trigger": false,
      "metar": "METAR EDFH 240920Z 11004KT 1800 DZ BR OVC001 08/07 Q1019 RERA",
      "taf": "TAF EDFH 240500Z 2406/2506 27008KT 3000 BR OVC003"
    },
    {
      "icao": "EDJA",
      "alert": "OK",
      "vis_m": 9999,
      "fzfg": false,
      "metar_trigger": false,
      "taf_trigger": false,
      "metar": "METAR EDJA 240920Z 23014KT 9999 -RA FEW009 SCT016 OVC020 08/07 Q1020",
      "taf": "TAF EDJA 240800Z 2409/2418 24015G25KT 9999 SCT010 OVC015"
    },
    {
      "icao": "EDLW",
      "alert": "OK",
      "vis_m": 9999,
      "fzfg": false,
      "metar_trigger": false,
      "taf_trigger": false,
      "metar": "METAR EDLW 240920Z 23007KT 9999 SCT006 BKN008 BKN019 10/09 Q1019",
      "taf": ""
    },
    {
      "icao": "EDNY",
      "alert": "OK",
      "vis_m": 9999,
      "fzfg": false,
      "metar_trigger": false,
      "taf_trigger": false,
      "metar": "METAR EDNY 240920Z 24010KT 9999 FEW043 11/08 Q1021",
      "taf": "TAF EDNY 240800Z 2409/2418 24008KT 9999 BKN025"
    },
    {
      "icao": "EDSB",
      "alert": "OK",
      "vis_m": 9999,
      "fzfg": false,
      "metar_trigger": false,
      "taf_trigger": false,
      "metar": "METAR EDSB 240920Z 19007KT 9999 SCT010 OVC012 11/10 Q1021",
      "taf": "TAF EDSB 240500Z 2406/2506 20008KT 8000 OVC020"
    },
    {
      "icao": "EETN",
      "alert": "OK",
      "vis_m": 9999,
      "fzfg": false,
      "metar_trigger": false,
      "taf_trigger": false,
      "metar": "METAR EETN 240920Z 07007KT CAVOK M04/M08 Q1012 NOSIG",
      "taf": "TAF EETN 240530Z 2406/2506 07010KT 9999 SCT020 BKN040"
    },
    {
      "icao": "EFTU",
      "alert": "OK",
      "vis_m": 9999,
      "fzfg": false,
      "metar_trigger": false,
      "taf_trigger": false,
      "metar": "METAR EFTU 240920Z AUTO 08006KT CAVOK M06/M09 Q1014",
      "taf": "TAF EFTU 240823Z 2409/2509 07006KT CAVOK"
    },
    {
      "icao": "EGBB",
      "alert": "OK",
      "vis_m": 9999,
      "fzfg": false,
      "metar_trigger": false,
      "taf_trigger": false,
      "metar": "METAR EGBB 240920Z 18007KT 150V210 9999 FEW015 BKN026 12/09 Q1015",
      "taf": "TAF EGBB 240500Z 2406/2506 18009KT 9999 BKN035"
    },
    {
      "icao": "EGGP",
      "alert": "OK",
      "vis_m": 9999,
      "fzfg": false,
      "metar_trigger": false,
      "taf_trigger": false,
      "metar": "METAR EGGP 240920Z 18007KT 160V220 9999 FEW030 BKN035 12/08 Q1013",
      "taf": "TAF EGGP 240519Z 2406/2506 18007KT 9999 SCT020"
    },
    {
      "icao": "EGGW",
      "alert": "OK",
      "vis_m": 9999,
      "fzfg": false,
      "metar_trigger": false,
      "taf_trigger": false,
      "metar": "METAR EGGW 240920Z AUTO 21009KT 170V230 9999 OVC007 11/10 Q1016",
      "taf": ""
    },
    {
      "icao": "EGKK",
      "alert": "OK",
      "vis_m": 9000,
      "fzfg": false,
      "metar_trigger": false,
      "taf_trigger": false,
      "metar": "METAR EGKK 240920Z 20008KT 160V230 9000 BKN005 11/11 Q1017",
      "taf": ""
    },
    {
      "icao": "EGNM",
      "alert": "OK",
      "vis_m": 9999,
      "fzfg": false,
      "metar_trigger": false,
      "taf_trigger": false,
      "metar": "METAR EGNM 240920Z 21013KT 9999 FEW012 SCT032 11/07 Q1012",
      "taf": "TAF EGNM 240519Z 2406/2506 19006KT 9999 SCT024"
    },
    {
      "icao": "EGPD",
      "alert": "OK",
      "vis_m": 9999,
      "fzfg": false,
      "metar_trigger": false,
      "taf_trigger": false,
      "metar": "METAR EGPD 240920Z AUTO 17010KT 9999 BKN006 OVC012 09/08 Q1006 TEMPO SCT006",
      "taf": "TAF EGPD 240458Z 2406/2506 17008KT 9999 SCT020"
    },
    {
      "icao": "EGPF",
      "alert": "OK",
      "vis_m": 9999,
      "fzfg": false,
      "metar_trigger": false,
      "taf_trigger": false,
      "metar": "METAR EGPF 240920Z AUTO 20005KT 170V250 9999 BKN019 BKN031 OVC045 10/08 Q1007",
      "taf": ""
    },
    {
      "icao": "EHBK",
      "alert": "OK",
      "vis_m": 1400,
      "fzfg": false,
      "metar_trigger": false,
      "taf_trigger": false,
      "metar": "METAR EHBK 240925Z AUTO 23005KT 1400 R21/1500N BR OVC001/// 10/10 Q1019 TEMPO 2500 BR BKN004",
      "taf": "TAF EHBK 240505Z 2406/2512 25005KT 9999 -RADZ BKN003"
    },
    {
      "icao": "EHEH",
      "alert": "OK",
      "vis_m": 2700,
      "fzfg": false,
      "metar_trigger": false,
      "taf_trigger": false,
      "metar": "METAR EHEH 240855Z AUTO 18004KT 2700 R21/P3000N BR BKN002 OVC003 10/10 Q1019 AMB TEMPO 2000 DZ BR BKN002 OVC003 RMK TREND REMOTE BY EHWX",
      "taf": ""
    },
    {
      "icao": "EKBI",
      "alert": "OK",
      "vis_m": 350,
      "fzfg": false,
      "metar_trigger": false,
      "taf_trigger": false,
      "metar": "METAR EKBI 240920Z AUTO 26002KT 0350 R09/0500N R27/0450N FG VV002 02/02 Q1017",
      "taf": "TAF EKBI 240827Z 2409/2509 23005KT 0200 FG OVC002"
    },
    {
      "icao": "EKCH",
      "alert": "OK",
      "vis_m": 9999,
      "fzfg": false,
      "metar_trigger": false,
      "taf_trigger": false,
      "metar": "METAR EKCH 240920Z 30006KT 280V340 9999 BKN008 02/00 Q1017 TEMPO BKN010",
      "taf": "TAF EKCH 240827Z 2409/2509 28005KT 6000 FEW005 BKN012"
    },
    {
      "icao": "ENAL",
      "alert": "OK",
      "vis_m": 9999,
      "fzfg": false,
      "metar_trigger": false,
      "taf_trigger": false,
      "metar": "METAR ENAL 240920Z 14011KT CAVOK 03/M07 Q1013",
      "taf": "TAF ENAL 240800Z 2409/2418 13012KT CAVOK"
    },
    {
      "icao": "ENBR",
      "alert": "OK",
      "vis_m": 9999,
      "fzfg": false,
      "metar_trigger": false,
      "taf_trigger": false,
      "metar": "METAR ENBR 240920Z 12007KT 9999 BKN033 05/03 Q1013 NOSIG RMK WIND 1200FT 14013KT",
      "taf": "TAF ENBR 240500Z 2406/2506 13008KT 9999 SCT004 BKN025"
    },
    {
      "icao": "ENGM",
      "alert": "OK",
      "vis_m": 9999,
      "fzfg": false,
      "metar_trigger": false,
      "taf_trigger": false,
      "metar": "METAR ENGM 240920Z 05004KT CAVOK M05/M09 Q1017 NOSIG",
      "taf": "TAF ENGM 240500Z 2406/2506 02008KT CAVOK"
    },
    {
      "icao": "ENHD",
      "alert": "OK",
      "vis_m": 9999,
      "fzfg": false,
      "metar_trigger": false,
      "taf_trigger": false,
      "metar": "METAR ENHD 240920Z 13010KT CAVOK 04/02 Q1014",
      "taf": "TAF ENHD 240800Z 2409/2418 14012KT 9999 FEW030"
    },
    {
      "icao": "ENTC",
      "alert": "OK",
      "vis_m": 9999,
      "fzfg": false,
      "metar_trigger": false,
      "taf_trigger": false,
      "metar": "METAR ENTC 240920Z 22012KT 9999 FEW040 M04/M09 Q1018 NOSIG RMK WIND 2600FT 20013KT",
      "taf": "TAF ENTC 240500Z 2406/2506 22008KT 9999 FEW015"
    },
    {
      "icao": "ENTO",
      "alert": "OK",
      "vis_m": 9999,
      "fzfg": false,
      "metar_trigger": false,
      "taf_trigger": false,
      "metar": "METAR ENTO 240920Z 36006KT CAVOK M02/M04 Q1017 NOSIG",
      "taf": "TAF ENTO 240500Z 2406/2506 01010KT CAVOK"
    },
    {
      "icao": "ENVA",
      "alert": "OK",
      "vis_m": 9999,
      "fzfg": false,
      "metar_trigger": false,
      "taf_trigger": false,
      "metar": "METAR ENVA 240920Z 10008KT CAVOK M12/M15 Q1019 NOSIG RMK WIND 670FT 11008KT",
      "taf": "TAF ENVA 240500Z 2406/2506 11008KT CAVOK"
    },
    {
      "icao": "ENZV",
      "alert": "OK",
      "vis_m": 9999,
      "fzfg": false,
      "metar_trigger": false,
      "taf_trigger": false,
      "metar": "METAR ENZV 240920Z 16003KT 140V230 CAVOK 02/01 Q1014 NOSIG",
      "taf": "TAF ENZV 240500Z 2406/2506 15005KT 9999 BKN035"
    },
    {
      "icao": "EPGD",
      "alert": "OK",
      "vis_m": 9999,
      "fzfg": false,
      "metar_trigger": false,
      "taf_trigger": false,
      "metar": "METAR EPGD 240900Z 31009KT 9999 BKN007 01/M00 Q1013",
      "taf": ""
    },
    {
      "icao": "EPKK",
      "alert": "OK",
      "vis_m": 9999,
      "fzfg": false,
      "metar_trigger": false,
      "taf_trigger": false,
      "metar": "METAR EPKK 240900Z 28010KT 9999 SCT010CB BKN018 05/03 Q1013",
      "taf": "TAF EPKK 240830Z 2409/2509 28012KT 9999 BKN009"
    },
    {
      "icao": "EPKT",
      "alert": "OK",
      "vis_m": 9999,
      "fzfg": false,
      "metar_trigger": false,
      "taf_trigger": false,
      "metar": "METAR EPKT 240900Z 30007KT 260V360 9999 FEW005 OVC008 04/03 Q1013",
      "taf": ""
    },
    {
      "icao": "EPLB",
      "alert": "OK",
      "vis_m": 9999,
      "fzfg": false,
      "metar_trigger": false,
      "taf_trigger": false,
      "metar": "METAR EPLB 240900Z 30007KT 9999 FEW008 BKN014 OVC024 04/03 Q1009",
      "taf": "TAF EPLB 240530Z 2406/2506 31013KT 7000 BKN006 OVC010"
    },
    {
      "icao": "EPMO",
      "alert": "OK",
      "vis_m": 9999,
      "fzfg": false,
      "metar_trigger": false,
      "taf_trigger": false,
      "metar": "METAR EPMO 240900Z 30009KT 9999 BKN010 03/02 Q1011",
      "taf": "TAF EPMO 240530Z 2406/2506 31010KT 9999 BKN012"
    },
    {
      "icao": "EPPO",
      "alert": "OK",
      "vis_m": 9999,
      "fzfg": false,
      "metar_trigger": false,
      "taf_trigger": false,
      "metar": "METAR EPPO 240900Z 31009KT 9999 BKN007 BKN032 05/04 Q1015",
      "taf": "TAF EPPO 240530Z 2406/2506 26008KT 9999 BKN006"
    },
    {
      "icao": "EPRA",
      "alert": "OK",
      "vis_m": 9999,
      "fzfg": false,
      "metar_trigger": false,
      "taf_trigger": false,
      "metar": "METAR EPRA 240900Z 32009KT 280V350 9999 BKN008 OVC020 04/02 Q1011",
      "taf": "TAF EPRA 240830Z 2409/2418 31012KT 9999 BKN010 BKN020"
    },
    {
      "icao": "EPRZ",
      "alert": "OK",
      "vis_m": 9999,
      "fzfg": false,
      "metar_trigger": false,
      "taf_trigger": false,
      "metar": "METAR EPRZ 240900Z 29010KT 9999 BKN009 BKN015 05/03 Q1011",
      "taf": "TAF EPRZ 240530Z 2406/2506 21010KT 9999 BKN012"
    },
    {
      "icao": "EPSC",
      "alert": "OK",
      "vis_m": 700,
      "fzfg": false,
      "metar_trigger": false,
      "taf_trigger": false,
      "metar": "METAR EPSC 240900Z 29007KT 0700 R31/0800N FG OVC001 03/03 Q1016",
      "taf": ""
    },
    {
      "icao": "EPSY",
      "alert": "OK",
      "vis_m": 9999,
      "fzfg": false,
      "metar_trigger": false,
      "taf_trigger": false,
      "metar": "METAR EPSY 240900Z 32009KT 9999 BKN005 BKN010 01/00 Q1010",
      "taf": "TAF EPSY 240830Z 2409/2418 32010KT 9999 BKN006 BKN010"
    },
    {
      "icao": "EPWA",
      "alert": "OK",
      "vis_m": 9999,
      "fzfg": false,
      "metar_trigger": false,
      "taf_trigger": false,
      "metar": "METAR EPWA 240900Z 29012KT 9999 BKN012 04/03 Q1011 NOSIG",
      "taf": "TAF EPWA 240830Z 2409/2509 31010KT 9999 BKN012"
    },
    {
      "icao": "EPWR",
      "alert": "OK",
      "vis_m": 9999,
      "fzfg": false,
      "metar_trigger": false,
      "taf_trigger": false,
      "metar": "METAR EPWR 240900Z 29010KT 9999 FEW009 BKN011 06/05 Q1015",
      "taf": "TAF EPWR 240830Z 2409/2509 30010KT 9999 BKN012"
    },
    {
      "icao": "ESGG",
      "alert": "OK",
      "vis_m": 9999,
      "fzfg": false,
      "metar_trigger": false,
      "taf_trigger": false,
      "metar": "METAR ESGG 240920Z 02007KT 9999 SG FEW006 BKN016 M00/M01 Q1015",
      "taf": ""
    },
    {
      "icao": "ESKN",
      "alert": "OK",
      "vis_m": 9999,
      "fzfg": false,
      "metar_trigger": false,
      "taf_trigger": false,
      "metar": "METAR ESKN 240920Z 32008KT 9999 BKN005 01/00 Q1012",
      "taf": "TAF ESKN 240830Z 2409/2509 VRB03KT 7000 -SN OVC004"
    },
    {
      "icao": "ESMS",
      "alert": "OK",
      "vis_m": 9000,
      "fzfg": false,
      "metar_trigger": false,
      "taf_trigger": false,
      "metar": "METAR ESMS 240920Z 29006KT 270V330 9000 BKN004 BKN006 OVC008 02/02 Q1015",
      "taf": "TAF ESMS 240827Z 2409/2509 30006KT 6000 BKN004"
    },
    {
      "icao": "ESSA",
      "alert": "OK",
      "vis_m": 6000,
      "fzfg": false,
      "metar_trigger": false,
      "taf_trigger": false,
      "metar": "METAR ESSA 240920Z 11005KT 6000 -SN BKN005 OVC008 M00/M01 Q1012 TEMPO 2000 VV015",
      "taf": "TAF ESSA 240830Z 2409/2509 12003KT 1200 SN VV015"
    },
    {
      "icao": "EYKA",
      "alert": "OK",
      "vis_m": 9999,
      "fzfg": false,
      "metar_trigger": false,
      "taf_trigger": false,
      "metar": "METAR EYKA 240920Z 29005KT 250V350 9999 SCT011 OVC016 00/M02 Q1008",
      "taf": "TAF EYKA 240508Z 2406/2506 VRB04KT 5000 BR BKN005"
    },
    {
      "icao": "EYPA",
      "alert": "OK",
      "vis_m": 9999,
      "fzfg": false,
      "metar_trigger": false,
      "taf_trigger": false,
      "metar": "METAR EYPA 240920Z 35004KT 290V030 9999 OVC026 00/M02 Q1011",
      "taf": "TAF EYPA 240500Z 2406/2506 VRB05KT 8000 SCT010 OVC015"
    },
    {
      "icao": "EYVI",
      "alert": "OK",
      "vis_m": 9999,
      "fzfg": false,
      "metar_trigger": false,
      "taf_trigger": false,
      "metar": "METAR EYVI 240920Z 33008KT 9999 OVC001 01/00 Q1006 NOSIG",
      "taf": "TAF EYVI 240503Z 2406/2506 VRB04KT 0500 FG OVC002"
    },
    {
      "icao": "GCFV",
      "alert": "OK",
      "vis_m": 9999,
      "fzfg": false,
      "metar_trigger": false,
      "taf_trigger": false,
      "metar": "METAR GCFV 240900Z 28005KT CAVOK 21/03 Q1021",
      "taf": "TAF GCFV 240800Z 2409/2509 17008KT CAVOK TX24/2414Z TN17/2506Z"
    },
    {
      "icao": "GCLP",
      "alert": "OK",
      "vis_m": 9999,
      "fzfg": false,
      "metar_trigger": false,
      "taf_trigger": false,
      "metar": "METAR GCLP 240900Z 23004KT 140V300 CAVOK 23/01 Q1021 NOSIG",
      "taf": "TAF GCLP 240800Z 2409/2509 16008KT CAVOK TX25/2414Z TN18/2506Z"
    },
    {
      "icao": "GCTS",
      "alert": "OK",
      "vis_m": 9999,
      "fzfg": false,
      "metar_trigger": false,
      "taf_trigger": false,
      "metar": "METAR GCTS 240900Z 13002KT CAVOK 22/M05 Q1020 NOSIG",
      "taf": "TAF GCTS 240800Z 2409/2509 17006KT CAVOK TX29/2414Z TN19/2506Z"
    },
    {
      "icao": "GMAD",
      "alert": "OK",
      "vis_m": 9999,
      "fzfg": false,
      "metar_trigger": false,
      "taf_trigger": false,
      "metar": "METAR GMAD 240900Z 06009KT CAVOK 17/05 Q1021 NOSIG",
      "taf": "TAF GMAD 240500Z 2406/2512 07007KT CAVOK"
    },
    {
      "icao": "GMMN",
      "alert": "OK",
      "vis_m": 9999,
      "fzfg": false,
      "metar_trigger": false,
      "taf_trigger": false,
      "metar": "METAR GMMN 240900Z 14003KT 110V180 CAVOK 14/11 Q1021 NOSIG",
      "taf": "TAF GMMN 240500Z 2406/2512 14006KT 5000 NSC"
    },
    {
      "icao": "GMMX",
      "alert": "OK",
      "vis_m": 9999,
      "fzfg": false,
      "metar_trigger": false,
      "taf_trigger": false,
      "metar": "METAR GMMX 240900Z 08003KT CAVOK 16/06 Q1022 NOSIG",
      "taf": "TAF GMMX 240500Z 2406/2512 06006KT 8000 NSC"
    },
    {
      "icao": "HEGN",
      "alert": "OK",
      "vis_m": 9999,
      "fzfg": false,
      "metar_trigger": false,
      "taf_trigger": false,
      "metar": "METAR HEGN 240900Z 34018KT 9999 FEW025 19/08 Q1019 NOSIG",
      "taf": "TAF HEGN 240500Z 2406/2512 34018G28KT CAVOK"
    },
    {
      "icao": "HEMA",
      "alert": "OK",
      "vis_m": 9999,
      "fzfg": false,
      "metar_trigger": false,
      "taf_trigger": false,
      "metar": "METAR HEMA 240900Z 34018KT CAVOK 21/04 Q1018 NOSIG",
      "taf": "TAF HEMA 240500Z 2406/2512 36018G28KT CAVOK"
    },
    {
      "icao": "HESH",
      "alert": "OK",
      "vis_m": 9999,
      "fzfg": false,
      "metar_trigger": false,
      "taf_trigger": false,
      "metar": "METAR HESH 240900Z 02012KT CAVOK 21/06 Q1019 NOSIG",
      "taf": "TAF HESH 240500Z 2406/2512 03015KT CAVOK"
    },
    {
      "icao": "HESX",
      "alert": "OK",
      "vis_m": 9999,
      "fzfg": false,
      "metar_trigger": false,
      "taf_trigger": false,
      "metar": "METAR HESX 240900Z 30011KT 9999 SCT020 17/08 Q1021 NOSIG",
      "taf": ""
    },
    {
      "icao": "LATI",
      "alert": "OK",
      "vis_m": 9999,
      "fzfg": false,
      "metar_trigger": false,
      "taf_trigger": false,
      "metar": "METAR LATI 240920Z 13004KT 100V160 9999 SCT045 15/02 Q1018 NOSIG",
      "taf": "TAF LATI 240500Z 2406/2506 VRB05KT CAVOK TX18/2412Z TN06/2504Z"
    },
    {
      "icao": "LBPD",
      "alert": "OK",
      "vis_m": 9999,
      "fzfg": false,
      "metar_trigger": false,
      "taf_trigger": false,
      "metar": "METAR LBPD 240900Z AUTO 34007KT 9999 FEW150/// BKN220/// 13/04 Q1012 NOSIG",
      "taf": "TAF LBPD 240500Z 2406/2506 26008KT 9999 SCT060"
    },
    {
      "icao": "LBSF",
      "alert": "OK",
      "vis_m": 9999,
      "fzfg": false,
      "metar_trigger": false,
      "taf_trigger": false,
      "metar": "METAR LBSF 240900Z 00000KT 9999 BKN066 06/02 Q1014 NOSIG",
      "taf": "TAF LBSF 240500Z 2406/2506 VRB03KT 9999 SCT070"
    },
    {
      "icao": "LBWN",
      "alert": "OK",
      "vis_m": 9999,
      "fzfg": false,
      "metar_trigger": false,
      "taf_trigger": false,
      "metar": "METAR LBWN 240900Z 25008KT CAVOK 13/06 Q1011 NOSIG",
      "taf": ""
    },
    {
      "icao": "LCLK",
      "alert": "OK",
      "vis_m": 9999,
      "fzfg": false,
      "metar_trigger": false,
      "taf_trigger": false,
      "metar": "METAR LCLK 240900Z 20011KT 9999 FEW020 FEW030TCU 20/12 Q1016 NOSIG",
      "taf": "TAF LCLK 240530Z 2406/2506 30007KT 9999 FEW025"
    },
    {
      "icao": "LCPH",
      "alert": "OK",
      "vis_m": 9999,
      "fzfg": false,
      "metar_trigger": false,
      "taf_trigger": false,
      "metar": "METAR LCPH 240900Z 29014KT 250V320 9999 FEW025 SCT035 19/12 Q1017 NOSIG",
      "taf": "TAF LCPH 240530Z 2406/2506 01008KT 9999 FEW020"
    },
    {
      "icao": "LEAL",
      "alert": "OK",
      "vis_m": 9999,
      "fzfg": false,
      "metar_trigger": false,
      "taf_trigger": false,
      "metar": "METAR LEAL 240900Z 24005KT 210V270 CAVOK 16/06 Q1022 NOSIG",
      "taf": "TAF LEAL 240500Z 2406/2506 VRB04KT CAVOK TX22/2412Z TN07/2406Z"
    },
    {
      "icao": "LEBB",
      "alert": "OK",
      "vis_m": 9999,
      "fzfg": false,
      "metar_trigger": false,
      "taf_trigger": false,
      "metar": "METAR LEBB 240900Z VRB02KT CAVOK 19/05 Q1017 NOSIG",
      "taf": "TAF LEBB 240500Z 2406/2506 12005KT CAVOK TX24/2414Z TN09/2406Z"
    },
    {
      "icao": "LEBL",
      "alert": "OK",
      "vis_m": 9999,
      "fzfg": false,
      "metar_trigger": false,
      "taf_trigger": false,
      "metar": "METAR LEBL 240900Z 29004KT 260V320 9999 FEW010 13/07 Q1021 NOSIG",
      "taf": ""
    },
    {
      "icao": "LECH",
      "alert": "OK",
      "vis_m": 9999,
      "fzfg": false,
      "metar_trigger": false,
      "taf_trigger": false,
      "metar": "METAR LECH 240900Z AUTO VRB01KT CAVOK 13/02 Q1022",
      "taf": ""
    },
    {
      "icao": "LEMD",
      "alert": "OK",
      "vis_m": 9999,
      "fzfg": false,
      "metar_trigger": false,
      "taf_trigger": false,
      "metar": "METAR LEMD 240900Z 33005KT CAVOK 07/03 Q1023 NOSIG",
      "taf": "TAF LEMD 240500Z 2406/2512 VRB04KT CAVOK TX20/2415Z TN03/2507Z"
    },
    {
      "icao": "LEMG",
      "alert": "OK",
      "vis_m": 9999,
      "fzfg": false,
      "metar_trigger": false,
      "taf_trigger": false,
      "metar": "METAR LEMG 240900Z VRB02KT CAVOK 11/07 Q1023 NOSIG",
      "taf": "TAF LEMG 240500Z 2406/2506 28005KT CAVOK TX20/2414Z TN08/2407Z"
    },
    {
      "icao": "LEVC",
      "alert": "OK",
      "vis_m": 9999,
      "fzfg": false,
      "metar_trigger": false,
      "taf_trigger": false,
      "metar": "METAR LEVC 240900Z 32003KT 290V360 CAVOK 14/04 Q1022 NOSIG",
      "taf": "TAF LEVC 240500Z 2406/2506 VRB04KT CAVOK TX23/2412Z TN06/2406Z"
    },
    {
      "icao": "LEXJ",
      "alert": "OK",
      "vis_m": 9999,
      "fzfg": false,
      "metar_trigger": false,
      "taf_trigger": false,
      "metar": "METAR LEXJ 240900Z 23007KT 190V270 CAVOK 20/04 Q1016",
      "taf": "TAF LEXJ 240800Z 2409/2509 21009KT CAVOK TX23/2415Z TN10/2423Z"
    },
    {
      "icao": "LEZG",
      "alert": "OK",
      "vis_m": 9999,
      "fzfg": false,
      "metar_trigger": false,
      "taf_trigger": false,
      "metar": "METAR LEZG 240900Z 10004KT 050V130 CAVOK 09/05 Q1022 NOSIG",
      "taf": "TAF LEZG 240500Z 2406/2506 VRB04KT CAVOK TX21/2414Z TN05/2406Z"
    },
    {
      "icao": "LEZL",
      "alert": "OK",
      "vis_m": 9999,
      "fzfg": false,
      "metar_trigger": false,
      "taf_trigger": false,
      "metar": "METAR LEZL 240900Z 04005KT CAVOK 13/10 Q1022 NOSIG",
      "taf": "TAF LEZL 240800Z 2409/2509 04004KT CAVOK TX23/2415Z TN09/2507Z"
    },
    {
      "icao": "LFBD",
      "alert": "OK",
      "vis_m": 9999,
      "fzfg": false,
      "metar_trigger": false,
      "taf_trigger": false,
      "metar": "METAR LFBD 240900Z AUTO 13009KT CAVOK 11/09 Q1018 NOSIG",
      "taf": "TAF LFBD 240500Z 2406/2512 12005KT CAVOK TX20/2415Z TN08/2406Z"
    },
    {
      "icao": "LFLL",
      "alert": "OK",
      "vis_m": 300,
      "fzfg": false,
      "metar_trigger": false,
      "taf_trigger": false,
      "metar": "METAR LFLL 240900Z VRB02KT 0300 R35L/0450U R17R/0325N R35R/0500N R17L/0275N FG VV/// 09/09 Q1023 BECMG 3000 BR",
      "taf": ""
    },
    {
      "icao": "LFLS",
      "alert": "OK",
      "vis_m": 9999,
      "fzfg": false,
      "metar_trigger": false,
      "taf_trigger": false,
      "metar": "METAR LFLS 240900Z AUTO VRB02KT CAVOK 11/09 Q1022 NOSIG",
      "taf": "TAF LFLS 240800Z 2409/2509 06004KT CAVOK"
    },
    {
      "icao": "LFMN",
      "alert": "OK",
      "vis_m": 9999,
      "fzfg": false,
      "metar_trigger": false,
      "taf_trigger": false,
      "metar": "METAR LFMN 240900Z 32009KT 9999 SCT030 12/07 Q1019 NOSIG",
      "taf": "TAF LFMN 240800Z 2409/2515 33010KT 9999 FEW017 BKN033"
    },
    {
      "icao": "LFOB",
      "alert": "OK",
      "vis_m": 9999,
      "fzfg": false,
      "metar_trigger": false,
      "taf_trigger": false,
      "metar": "METAR LFOB 240900Z AUTO 21005KT 9999 OVC011 13/12 Q1020 TEMPO 4000 DZ BR OVC009",
      "taf": "TAF LFOB 240500Z 2406/2506 24010KT 9999 OVC012"
    },
    {
      "icao": "LFPO",
      "alert": "OK",
      "vis_m": 9999,
      "fzfg": false,
      "metar_trigger": false,
      "taf_trigger": false,
      "metar": "METAR LFPO 240900Z 19006KT 9999 SCT006 OVC016 12/11 Q1021 TEMPO BKN008",
      "taf": "TAF LFPO 240500Z 2406/2512 21005KT 9999 BKN020"
    },
    {
      "icao": "LFSB",
      "alert": "OK",
      "vis_m": 9999,
      "fzfg": false,
      "metar_trigger": false,
      "taf_trigger": false,
      "metar": "METAR LFSB 240900Z AUTO 26011KT 9999 FEW019 OVC092 13/09 Q1022 NOSIG",
      "taf": "TAF LFSB 240500Z 2406/2506 25008KT 9999 BKN025 BKN030"
    },
    {
      "icao": "LGAV",
      "alert": "OK",
      "vis_m": 9999,
      "fzfg": false,
      "metar_trigger": false,
      "taf_trigger": false,
      "metar": "METAR LGAV 240920Z VRB02KT CAVOK 17/08 Q1017 NOSIG",
      "taf": "TAF LGAV 240500Z 2406/2506 25007KT 9999 FEW020"
    },
    {
      "icao": "LGTS",
      "alert": "OK",
      "vis_m": 9999,
      "fzfg": false,
      "metar_trigger": false,
      "taf_trigger": false,
      "metar": "METAR LGTS 240920Z 30004KT CAVOK 11/04 Q1016 NOSIG",
      "taf": ""
    },
    {
      "icao": "LHBP",
      "alert": "OK",
      "vis_m": 9999,
      "fzfg": false,
      "metar_trigger": false,
      "taf_trigger": false,
      "metar": "METAR LHBP 240900Z 32024KT 9999 FEW030 10/03 Q1013 NOSIG",
      "taf": "TAF LHBP 240515Z 2406/2506 30013KT CAVOK"
    },
    {
      "icao": "LHDC",
      "alert": "OK",
      "vis_m": null,
      "fzfg": false,
      "metar_trigger": false,
      "taf_trigger": false,
      "metar": "",
      "taf": "TAF LHDC 240815Z 2409/2418 31005KT 9999 SCT030 SCT070"
    },
    {
      "icao": "LIBD",
      "alert": "OK",
      "vis_m": 9999,
      "fzfg": false,
      "metar_trigger": false,
      "taf_trigger": false,
      "metar": "METAR LIBD 240920Z 35005KT 320V030 CAVOK 14/08 Q1018",
      "taf": "TAF LIBD 240500Z 2406/2506 25007KT CAVOK"
    },
    {
      "icao": "LIBG",
      "alert": "OK",
      "vis_m": 9999,
      "fzfg": false,
      "metar_trigger": false,
      "taf_trigger": false,
      "metar": "METAR LIBG 240850Z VRB02KT CAVOK 15/08 Q1018",
      "taf": "TAF LIBG 240800Z 2409/2418 VRB05KT CAVOK"
    },
    {
      "icao": "LIBP",
      "alert": "OK",
      "vis_m": 9999,
      "fzfg": false,
      "metar_trigger": false,
      "taf_trigger": false,
      "metar": "METAR LIBP 240920Z AUTO 04007KT 9999 NCD 14/07 Q1018",
      "taf": "TAF LIBP 240500Z 2406/2506 VRB05KT 8000 NSC"
    },
    {
      "icao": "LIBR",
      "alert": "OK",
      "vis_m": 9999,
      "fzfg": false,
      "metar_trigger": false,
      "taf_trigger": false,
      "metar": "METAR LIBR 240920Z 32003KT 250V060 CAVOK 15/09 Q1018",
      "taf": "TAF LIBR 240500Z 2406/2506 28008KT 8000 NSC"
    },
    {
      "icao": "LICA",
      "alert": "OK",
      "vis_m": 9999,
      "fzfg": false,
      "metar_trigger": false,
      "taf_trigger": false,
      "metar": "METAR LICA 240920Z AUTO 25010KT 9999 BKN016/// BKN036/// 15/12 Q1020",
      "taf": "TAF LICA 240500Z 2406/2506 VRB05KT 9999 FEW020"
    },
    {
      "icao": "LICC",
      "alert": "OK",
      "vis_m": 9999,
      "fzfg": false,
      "metar_trigger": false,
      "taf_trigger": false,
      "metar": "METAR LICC 240920Z 18003KT 090V250 CAVOK 17/13 Q1019",
      "taf": "TAF LICC 240500Z 2406/2506 VRB05KT CAVOK"
    },
    {
      "icao": "LICJ",
      "alert": "OK",
      "vis_m": 9999,
      "fzfg": false,
      "metar_trigger": false,
      "taf_trigger": false,
      "metar": "METAR LICJ 240920Z 23008KT CAVOK 16/09 Q1021",
      "taf": "TAF LICJ 240500Z 2406/2506 21012KT CAVOK"
    },
    {
      "icao": "LIMC",
      "alert": "OK",
      "vis_m": 9999,
      "fzfg": false,
      "metar_trigger": false,
      "taf_trigger": false,
      "metar": "METAR LIMC 240920Z VRB02KT CAVOK 13/06 Q1017 NOSIG",
      "taf": "TAF LIMC 240500Z 2406/2512 VRB05KT 7000 NSC"
    },
    {
      "icao": "LIME",
      "alert": "OK",
      "vis_m": 5000,
      "fzfg": false,
      "metar_trigger": false,
      "taf_trigger": false,
      "metar": "METAR LIME 240920Z 14004KT 100V180 5000 BR NSC 11/07 Q1016 NOSIG",
      "taf": "TAF LIME 240500Z 2406/2506 VRB05KT 7000 FEW020"
    },
    {
      "icao": "LIMF",
      "alert": "OK",
      "vis_m": 9999,
      "fzfg": false,
      "metar_trigger": false,
      "taf_trigger": false,
      "metar": "METAR LIMF 240920Z 17002KT CAVOK 12/06 Q1017",
      "taf": "TAF LIMF 240500Z 2406/2506 VRB05KT CAVOK"
    },
    {
      "icao": "LIMJ",
      "alert": "OK",
      "vis_m": 9999,
      "fzfg": false,
      "metar_trigger": false,
      "taf_trigger": false,
      "metar": "METAR LIMJ 240920Z VRB01KT 9999 FEW016 OVC026 14/10 Q1019",
      "taf": "TAF LIMJ 240500Z 2406/2506 VRB05KT 9999 SCT020"
    },
    {
      "icao": "LIPE",
      "alert": "OK",
      "vis_m": 9999,
      "fzfg": false,
      "metar_trigger": false,
      "taf_trigger": false,
      "metar": "METAR LIPE 240920Z 28003KT 230V310 CAVOK 12/08 Q1017",
      "taf": "TAF LIPE 240500Z 2406/2506 VRB05KT 9999 FEW030"
    },
    {
      "icao": "LIPH",
      "alert": "OK",
      "vis_m": 1400,
      "fzfg": false,
      "metar_trigger": false,
      "taf_trigger": false,
      "metar": "METAR LIPH 240920Z 03004KT 360V060 1400 R07/P2000N BR SCT004 BKN032 08/07 Q1018",
      "taf": "TAF LIPH 240500Z 2406/2506 VRB05KT 4000 BR OVC035"
    },
    {
      "icao": "LIPQ",
      "alert": "OK",
      "vis_m": 9999,
      "fzfg": false,
      "metar_trigger": false,
      "taf_trigger": false,
      "metar": "METAR LIPQ 240920Z AUTO 01003KT 9999 BKN039/// 11/07 Q1018",
      "taf": "TAF LIPQ 240500Z 2406/2506 VRB05KT 9999 SCT030"
    },
    {
      "icao": "LIPR",
      "alert": "OK",
      "vis_m": 9999,
      "fzfg": false,
      "metar_trigger": false,
      "taf_trigger": false,
      "metar": "METAR LIPR 240920Z VRB02KT CAVOK 14/09 Q1018",
      "taf": "TAF LIPR 240500Z 2406/2506 VRB05KT 3000 BR FEW030"
    },
    {
      "icao": "LIPX",
      "alert": "OK",
      "vis_m": 2500,
      "fzfg": false,
      "metar_trigger": false,
      "taf_trigger": false,
      "metar": "METAR LIPX 240920Z 14004KT 110V180 2500 BR SCT006 BKN020 09/07 Q1018",
      "taf": "TAF LIPX 240500Z 2406/2506 VRB05KT 7000 SCT020"
    },
    {
      "icao": "LIPY",
      "alert": "OK",
      "vis_m": 9999,
      "fzfg": false,
      "metar_trigger": false,
      "taf_trigger": false,
      "metar": "METAR LIPY 240920Z AUTO 01005KT 9999 NCD 14/09 Q1018",
      "taf": "TAF LIPY 240500Z 2406/2506 VRB05KT 7000 FEW030"
    },
    {
      "icao": "LIPZ",
      "alert": "OK",
      "vis_m": 2000,
      "fzfg": false,
      "metar_trigger": false,
      "taf_trigger": false,
      "metar": "METAR LIPZ 240920Z 03005KT 2000 BR BKN030 07/07 Q1018 NOSIG",
      "taf": "TAF LIPZ 240500Z 2406/2512 VRB05KT 4000 BR BKN012"
    },
    {
      "icao": "LIRF",
      "alert": "OK",
      "vis_m": 9999,
      "fzfg": false,
      "metar_trigger": false,
      "taf_trigger": false,
      "metar": "METAR LIRF 240920Z 17005KT 140V210 9999 SCT018 SCT030 15/11 Q1019 NOSIG",
      "taf": "TAF LIRF 240500Z 2406/2512 10006KT 9999 SCT030"
    },
    {
      "icao": "LIRN",
      "alert": "OK",
      "vis_m": 9999,
      "fzfg": false,
      "metar_trigger": false,
      "taf_trigger": false,
      "metar": "METAR LIRN 240920Z VRB01KT 9999 FEW035 BKN060 14/10 Q1020 NOSIG",
      "taf": "TAF LIRN 240500Z 2406/2506 VRB05KT 9999 BKN030"
    },
    {
      "icao": "LIRP",
      "alert": "OK",
      "vis_m": 7000,
      "fzfg": false,
      "metar_trigger": false,
      "taf_trigger": false,
      "metar": "METAR LIRP 240915Z 12002KT 7000 FEW013 BKN030 11/11 Q1019 NOSIG",
      "taf": "TAF LIRP 240500Z 2406/2506 11005KT 9999 SCT030"
    },
    {
      "icao": "LIRZ",
      "alert": "OK",
      "vis_m": 9999,
      "fzfg": false,
      "metar_trigger": false,
      "taf_trigger": false,
      "metar": "METAR LIRZ 240920Z AUTO VRB02KT 9999 BKN035/// 11/09 Q1019",
      "taf": "TAF LIRZ 240500Z 2406/2506 VRB05KT 9999 BKN030"
    },
    {
      "icao": "LJLJ",
      "alert": "OK",
      "vis_m": 9999,
      "fzfg": false,
      "metar_trigger": false,
      "taf_trigger": false,
      "metar": "METAR LJLJ 240900Z 27004KT 240V300 9999 FEW025 BKN095 07/04 Q1018 NOSIG",
      "taf": "TAF LJLJ 240500Z 2406/2506 VRB02KT 9999 SCT025 BKN090"
    },
    {
      "icao": "LKMT",
      "alert": "OK",
      "vis_m": 9999,
      "fzfg": false,
      "metar_trigger": false,
      "taf_trigger": false,
      "metar": "METAR LKMT 240900Z 26005KT 9999 -RA BKN019 OVC034 06/04 Q1015 NOSIG",
      "taf": "TAF LKMT 240500Z 2406/2506 25010KT CAVOK"
    },
    {
      "icao": "LKPR",
      "alert": "OK",
      "vis_m": 9999,
      "fzfg": false,
      "metar_trigger": false,
      "taf_trigger": false,
      "metar": "METAR LKPR 240900Z 26012KT 9999 FEW020 BKN032 07/04 Q1017 NOSIG",
      "taf": "TAF LKPR 240800Z 2409/2515 26010KT 9999 SCT045"
    },
    {
      "icao": "LLBG",
      "alert": "OK",
      "vis_m": 9999,
      "fzfg": false,
      "metar_trigger": false,
      "taf_trigger": false,
      "metar": "METAR LLBG 240920Z 24013KT 9999 SCT030 18/09 Q1018 NOSIG",
      "taf": "TAF LLBG 240501Z 2406/2506 15007KT 9999 SCT025"
    },
    {
      "icao": "LMML",
      "alert": "OK",
      "vis_m": 9999,
      "fzfg": false,
      "metar_trigger": false,
      "taf_trigger": false,
      "metar": "METAR LMML 240915Z 27011KT 9999 FEW015 18/09 Q1021 NOSIG",
      "taf": "TAF LMML 240500Z 2406/2506 23010KT CAVOK"
    },
    {
      "icao": "LOWW",
      "alert": "OK",
      "vis_m": 9999,
      "fzfg": false,
      "metar_trigger": false,
      "taf_trigger": false,
      "metar": "METAR LOWW 240920Z 32016KT 290V350 9999 FEW032 BKN038 10/03 Q1017 NOSIG",
      "taf": "TAF LOWW 240815Z 2409/2515 30013KT 9999 FEW030 SCT050 TX11/2514Z TN00/2505Z"
    },
    {
      "icao": "LPFR",
      "alert": "OK",
      "vis_m": 700,
      "fzfg": false,
      "metar_trigger": false,
      "taf_trigger": false,
      "metar": "METAR LPFR 240900Z 07007KT 030V100 0700 R28/1100U FG OVC001 12/12 Q1021",
      "taf": "TAF LPFR 240500Z 2406/2506 10007KT 3000 BR BKN003"
    },
    {
      "icao": "LPMA",
      "alert": "OK",
      "vis_m": 9999,
      "fzfg": false,
      "metar_trigger": false,
      "taf_trigger": false,
      "metar": "METAR LPMA 240900Z VRB02KT 9999 FEW015 17/13 Q1019",
      "taf": "TAF LPMA 240500Z 2406/2506 01010KT 9999 SCT014"
    },
    {
      "icao": "LPPR",
      "alert": "OK",
      "vis_m": 9999,
      "fzfg": false,
      "metar_trigger": false,
      "taf_trigger": false,
      "metar": "METAR LPPR 240900Z 18012KT 140V200 9999 FEW018 BKN025 13/09 Q1018",
      "taf": "TAF LPPR 240500Z 2406/2506 17010KT 9999 SCT008 SCT015"
    },
    {
      "icao": "LPPS",
      "alert": "OK",
      "vis_m": 9999,
      "fzfg": false,
      "metar_trigger": false,
      "taf_trigger": false,
      "metar": "METAR LPPS 240900Z 28007KT 9999 FEW014 SCT030 16/13 Q1019",
      "taf": "TAF LPPS 240500Z 2406/2512 VRB05KT 9999 SCT014 SCT030"
    },
    {
      "icao": "LPPT",
      "alert": "OK",
      "vis_m": 9999,
      "fzfg": false,
      "metar_trigger": false,
      "taf_trigger": false,
      "metar": "METAR LPPT 240900Z 16007KT 120V190 9999 FEW008 BKN010 13/11 Q1019",
      "taf": "TAF LPPT 240500Z 2406/2512 20010KT 9999 BKN012"
    },
    {
      "icao": "LQBK",
      "alert": "OK",
      "vis_m": 9999,
      "fzfg": false,
      "metar_trigger": false,
      "taf_trigger": false,
      "metar": "METAR LQBK 240900Z VRB02KT 9999 SCT047 09/06 Q1018 NOSIG",
      "taf": ""
    },
    {
      "icao": "LQSA",
      "alert": "OK",
      "vis_m": 9999,
      "fzfg": false,
      "metar_trigger": false,
      "taf_trigger": false,
      "metar": "METAR LQSA 240900Z 00000KT 9999 SCT065 09/04 Q1017 NOSIG",
      "taf": "TAF LQSA 240500Z 2406/2506 VRB02KT 9999 SCT050 TX11/2414Z TN00/2505Z"
    },
    {
      "icao": "LQTZ",
      "alert": "OK",
      "vis_m": 5000,
      "fzfg": false,
      "metar_trigger": false,
      "taf_trigger": false,
      "metar": "METAR LQTZ 240900Z VRB03KT 5000 -RA BR SCT028 BKN038 06/05 Q1018",
      "taf": "TAF LQTZ 240500Z 2406/2506 27005KT CAVOK TX10/2413Z TN00/2505Z"
    },
    {
      "icao": "LRBC",
      "alert": "OK",
      "vis_m": 1000,
      "fzfg": false,
      "metar_trigger": false,
      "taf_trigger": false,
      "metar": "METAR LRBC 240900Z 18005KT 1000 R34/1000U -RA BR BKN002 OVC057 02/02 Q1008",
      "taf": "TAF LRBC 240800Z 2409/2418 15005KT 0600 FG OVC001"
    },
    {
      "icao": "LRBS",
      "alert": "OK",
      "vis_m": 9999,
      "fzfg": false,
      "metar_trigger": false,
      "taf_trigger": false,
      "metar": "METAR LRBS 240900Z 26009KT CAVOK 04/02 Q1011 NOSIG",
      "taf": "TAF LRBS 240500Z 2406/2506 VRB04KT 3000 BR NSC"
    },
    {
      "icao": "LRBV",
      "alert": "OK",
      "vis_m": 9999,
      "fzfg": false,
      "metar_trigger": false,
      "taf_trigger": false,
      "metar": "METAR LRBV 240900Z 26007KT 170V310 9999 FEW018 SCT055 05/01 Q1009",
      "taf": "TAF LRBV 240800Z 2409/2418 27010KT 9999 BKN020"
    },
    {
      "icao": "LRCL",
      "alert": "OK",
      "vis_m": 9999,
      "fzfg": false,
      "metar_trigger": false,
      "taf_trigger": false,
      "metar": "METAR LRCL 240900Z 29017KT 9999 4000W RA FEW030 BKN042 06/03 Q1009",
      "taf": "TAF LRCL 240800Z 2409/2418 VRB04KT 9999 BKN040"
    },
    {
      "icao": "LRCV",
      "alert": "OK",
      "vis_m": 4500,
      "fzfg": false,
      "metar_trigger": false,
      "taf_trigger": false,
      "metar": "METAR LRCV 240900Z 30011KT 4500 SHRA FEW019 SCT030CB OVC040 06/05 Q1013",
      "taf": "TAF LRCV 240800Z 2409/2418 27006KT 9999 BKN045"
    },
    {
      "icao": "LRIA",
      "alert": "OK",
      "vis_m": 200,
      "fzfg": false,
      "metar_trigger": false,
      "taf_trigger": false,
      "metar": "METAR LRIA 240900Z 09006KT 0200 R14/0375N -RA FG VV001 01/00 Q1008",
      "taf": "TAF LRIA 240800Z 2409/2418 VRB04KT 0200 FG VV001"
    },
    {
      "icao": "LROP",
      "alert": "OK",
      "vis_m": 8000,
      "fzfg": false,
      "metar_trigger": false,
      "taf_trigger": false,
      "metar": "METAR LROP 240900Z 25007KT 8000 NSC 04/01 Q1010 NOSIG",
      "taf": "TAF LROP 240500Z 2406/2506 VRB04KT 3000 BR NSC"
    },
    {
      "icao": "LRSB",
      "alert": "OK",
      "vis_m": 9999,
      "fzfg": false,
      "metar_trigger": false,
      "taf_trigger": false,
      "metar": "METAR LRSB 240900Z 28013KT 9999 SCT030 SCT055 BKN085 08/02 Q1010 NOSIG",
      "taf": "TAF LRSB 240500Z 2406/2506 27010KT 9999 SCT045 BKN070"
    },
    {
      "icao": "LRSM",
      "alert": "OK",
      "vis_m": 9999,
      "fzfg": false,
      "metar_trigger": false,
      "taf_trigger": false,
      "metar": "METAR LRSM 240900Z 29008KT 260V320 9999 FEW004 08/06 Q1011",
      "taf": "TAF LRSM 240800Z 2409/2418 26006KT 9999 BKN040"
    },
    {
      "icao": "LRSV",
      "alert": "OK",
      "vis_m": 9999,
      "fzfg": false,
      "metar_trigger": false,
      "taf_trigger": false,
      "metar": "METAR LRSV 240900Z 25008KT 9999 -RA SCT034 03/02 Q1007",
      "taf": "TAF LRSV 240800Z 2409/2418 23008KT 9999 BKN040"
    },
    {
      "icao": "LRTM",
      "alert": "OK",
      "vis_m": 9999,
      "fzfg": false,
      "metar_trigger": false,
      "taf_trigger": false,
      "metar": "METAR LRTM 240900Z 22010KT 9999 FEW013 FEW030CB BKN035 07/05 Q1009",
      "taf": "TAF LRTM 240800Z 2409/2418 23010KT 9999 BKN040"
    },
    {
      "icao": "LRTR",
      "alert": "OK",
      "vis_m": 9999,
      "fzfg": false,
      "metar_trigger": false,
      "taf_trigger": false,
      "metar": "METAR LRTR 240900Z 26009KT 9999 -RA BKN037 08/08 Q1013",
      "taf": "TAF LRTR 240500Z 2406/2506 VRB04KT 9999 BKN040"
    },
    {
      "icao": "LTAC",
      "alert": "OK",
      "vis_m": 9999,
      "fzfg": false,
      "metar_trigger": false,
      "taf_trigger": false,
      "metar": "METAR LTAC 240920Z 23012KT 9999 FEW019 SCT040 BKN080 04/M01 Q1015 NOSIG RMK RWY21C 22012KT RWY03L 22011KT RWY21R 21013KT RWY03R 23010KT 190V250 RWY21L 22013KT",
      "taf": "TAF LTAC 240440Z 2406/2506 VRB02KT 9999 SCT040 BKN100"
    },
    {
      "icao": "LTFM",
      "alert": "OK",
      "vis_m": 9999,
      "fzfg": false,
      "metar_trigger": false,
      "taf_trigger": false,
      "metar": "METAR LTFM 240920Z 22015KT 9999 SCT025 12/07 Q1014 NOSIG RMK RWY17L 22015KT RWY34L 21016KT RWY16R 22012KT RWY36 23012KT 200V260 RWY18 23017KT",
      "taf": "TAF LTFM 240440Z 2406/2512 21018G28KT 9999 FEW017 SCT040 BKN070"
    },
    {
      "icao": "LUKK",
      "alert": "OK",
      "vis_m": 9000,
      "fzfg": true,
      "metar_trigger": false,
      "taf_trigger": false,
      "metar": "METAR LUKK 240900Z 17005KT 9000 NSC 05/04 Q1009 NOSIG",
      "taf": "TAF LUKK 240514Z 2406/2506 VRB04KT 0300 FZFG VV001"
    },
    {
      "icao": "LWOH",
      "alert": "OK",
      "vis_m": 9999,
      "fzfg": false,
      "metar_trigger": false,
      "taf_trigger": false,
      "metar": "METAR LWOH 240920Z 14005KT 090V180 9999 FEW045 10/04 Q1017",
      "taf": ""
    },
    {
      "icao": "LWSK",
      "alert": "OK",
      "vis_m": 9999,
      "fzfg": false,
      "metar_trigger": false,
      "taf_trigger": false,
      "metar": "METAR LWSK 240920Z VRB02KT CAVOK 06/03 Q1016 NOSIG",
      "taf": "TAF LWSK 240835Z 2409/2509 VRB02KT CAVOK"
    },
    {
      "icao": "LYBE",
      "alert": "OK",
      "vis_m": 6000,
      "fzfg": false,
      "metar_trigger": false,
      "taf_trigger": false,
      "metar": "METAR LYBE 240900Z 22009KT 6000 -RA BKN046 07/06 Q1017 BECMG 32014KT",
      "taf": "TAF LYBE 240500Z 2406/2506 28005KT 9999 BKN040 TX12/2413Z TN01/2506Z"
    },
    {
      "icao": "LYNI",
      "alert": "OK",
      "vis_m": 9999,
      "fzfg": false,
      "metar_trigger": false,
      "taf_trigger": false,
      "metar": "METAR LYNI 240900Z VRB01KT 9999 BKN063 08/04 Q1015 BECMG FM0930 32017KT",
      "taf": "TAF LYNI 240500Z 2406/2506 32006KT 9999 SCT070 TX10/2414Z TN04/2406Z"
    },
    {
      "icao": "LYPG",
      "alert": "OK",
      "vis_m": 9999,
      "fzfg": false,
      "metar_trigger": false,
      "taf_trigger": false,
      "metar": "METAR LYPG 240900Z VRB02KT CAVOK 11/04 Q1019 NOSIG",
      "taf": "TAF LYPG 240500Z 2406/2506 18005KT CAVOK TX15/2413Z TN03/2406Z"
    },
    {
      "icao": "LZIB",
      "alert": "OK",
      "vis_m": 9999,
      "fzfg": false,
      "metar_trigger": false,
      "taf_trigger": false,
      "metar": "METAR LZIB 240900Z 31006KT 260V350 9999 SCT027 SCT031 08/03 Q1017 NOSIG",
      "taf": ""
    },
    {
      "icao": "LZKZ",
      "alert": "OK",
      "vis_m": 9999,
      "fzfg": false,
      "metar_trigger": false,
      "taf_trigger": false,
      "metar": "METAR LZKZ 240900Z VRB02KT 9999 -RA FEW010 SCT037 08/03 Q1011 NOSIG",
      "taf": "TAF LZKZ 240515Z 2406/2506 VRB02KT 4000 BR SCT004 BKN030"
    },
    {
      "icao": "LZTT",
      "alert": "OK",
      "vis_m": 9999,
      "fzfg": false,
      "metar_trigger": false,
      "taf_trigger": false,
      "metar": "METAR LZTT 240900Z VRB04KT 9999 -RA BKN015 BKN020 03/01 Q1010 NOSIG",
      "taf": ""
    },
    {
      "icao": "OEJN",
      "alert": "OK",
      "vis_m": 9999,
      "fzfg": false,
      "metar_trigger": false,
      "taf_trigger": false,
      "metar": "METAR OEJN 240900Z 34018KT 9999 FEW040 27/11 Q1014 NOSIG",
      "taf": "TAF OEJN 240500Z 2406/2512 36015KT CAVOK"
    },
    {
      "icao": "OEMA",
      "alert": "OK",
      "vis_m": 9999,
      "fzfg": false,
      "metar_trigger": false,
      "taf_trigger": false,
      "metar": "METAR OEMA 240900Z 29007KT CAVOK 22/M01 Q1016 NOSIG",
      "taf": "TAF OEMA 240500Z 2406/2512 28010KT CAVOK"
    },
    {
      "icao": "OJAI",
      "alert": "OK",
      "vis_m": 5000,
      "fzfg": false,
      "metar_trigger": false,
      "taf_trigger": false,
      "metar": "METAR OJAI 240900Z 29012KT 5000 HZ SCT025 BKN030 11/05 Q1019 NOSIG",
      "taf": "TAF OJAI 240500Z 2406/2512 27012KT 5000 BR SCT035"
    },
    {
      "icao": "OMAA",
      "alert": "OK",
      "vis_m": null,
      "fzfg": false,
      "metar_trigger": false,
      "taf_trigger": false,
      "metar": "",
      "taf": "TAF OMAA 240500Z 2406/2512 15005KT 8000 NSC"
    },
    {
      "icao": "OMDB",
      "alert": "OK",
      "vis_m": null,
      "fzfg": false,
      "metar_trigger": false,
      "taf_trigger": false,
      "metar": "",
      "taf": "TAF OMDB 240500Z 2406/2512 18005KT 7000 NSC"
    },
    {
      "icao": "UAAA",
      "alert": "OK",
      "vis_m": 5000,
      "fzfg": false,
      "metar_trigger": false,
      "taf_trigger": false,
      "metar": "METAR UAAA 240900Z VRB01MPS 5000 -SHSN BR BKN029CB OVC100 M03/M06 Q1023 NOSIG",
      "taf": "TAF UAAA 240509Z 2406/2506 02003MPS 6000 BKN050CB OVC100 TXM01/2409Z TNM06/2502Z"
    },
    {
      "icao": "UBBB",
      "alert": "OK",
      "vis_m": 9999,
      "fzfg": false,
      "metar_trigger": false,
      "taf_trigger": false,
      "metar": "METAR UBBB 240900Z 35008KT 9999 BKN011 OVC025 07/04 Q1016 NOSIG",
      "taf": "TAF UBBB 240457Z 2406/2506 34010KT 9999 BKN012 BKN025 TX08/2410Z TN04/2501Z"
    },
    {
      "icao": "UDSG",
      "alert": "OK",
      "vis_m": 9999,
      "fzfg": false,
      "metar_trigger": false,
      "taf_trigger": false,
      "metar": "METAR UDSG 240900Z 22002KT 9999 FEW012 BKN040 02/M01 Q1012 NOSIG",
      "taf": "TAF UDSG 240458Z 2406/2506 VRB06KT 5000 BR BKN030"
    },
    {
      "icao": "UDYZ",
      "alert": "OK",
      "vis_m": 9999,
      "fzfg": false,
      "metar_trigger": false,
      "taf_trigger": false,
      "metar": "METAR UDYZ 240900Z VRB02KT 9999 SCT046 10/01 Q1010 NOSIG",
      "taf": "TAF UDYZ 240500Z 2406/2506 17006KT 9999 SCT040"
    },
    {
      "icao": "UGKO",
      "alert": "OK",
      "vis_m": 9999,
      "fzfg": false,
      "metar_trigger": false,
      "taf_trigger": false,
      "metar": "METAR UGKO 240900Z 17004KT 130V230 9999 SCT024 BKN037 13/05 Q1014 NOSIG",
      "taf": "TAF UGKO 240500Z 2406/2506 09006KT CAVOK TX15/2411Z TN03/2502Z"
    }
  ]
}