{
  "ts_utc": "2026-03-08T17:57:37Z",
  "threshold_m": 150,
  "source": "stations_override.txt (ICAO list) + aviationweather.gov (METAR/TAF raw)",
  "station_count": 159,
  "stations": [
    {
      "icao": "BIKF",
      "alert": "OK",
      "vis_m": 9999,
      "fzfg": false,
      "metar_trigger": false,
      "taf_trigger": false,
      "metar": "METAR BIKF 081730Z 20014KT 9999 VCSH FEW018CB SCT035 BKN055 02/M03 Q0997",
      "taf": "TAF BIKF 081700Z 0818/0918 20010KT 9999 SCT015 BKN035 TX05/0916Z TNM01/0901Z"
    },
    {
      "icao": "BKPR",
      "alert": "OK",
      "vis_m": null,
      "fzfg": false,
      "metar_trigger": false,
      "taf_trigger": false,
      "metar": "",
      "taf": "TAF BKPR 081730Z 0818/0918 05007KT 9999 SCT050"
    },
    {
      "icao": "EBCI",
      "alert": "OK",
      "vis_m": 9999,
      "fzfg": false,
      "metar_trigger": false,
      "taf_trigger": false,
      "metar": "METAR EBCI 081750Z 34003KT 310V020 CAVOK 14/08 Q1022 NOSIG",
      "taf": "TAF EBCI 081700Z 0818/0924 VRB03KT CAVOK"
    },
    {
      "icao": "EDDB",
      "alert": "OK",
      "vis_m": 9999,
      "fzfg": false,
      "metar_trigger": false,
      "taf_trigger": false,
      "metar": "METAR EDDB 081750Z AUTO 10009KT CAVOK 11/00 Q1027 NOSIG",
      "taf": "TAF EDDB 081700Z 0818/0918 12007KT CAVOK"
    },
    {
      "icao": "EDDH",
      "alert": "OK",
      "vis_m": 9999,
      "fzfg": false,
      "metar_trigger": false,
      "taf_trigger": false,
      "metar": "METAR EDDH 081750Z AUTO 11007KT CAVOK 13/04 Q1025 NOSIG",
      "taf": "TAF EDDH 081700Z 0818/0924 12006KT CAVOK"
    },
    {
      "icao": "EDDK",
      "alert": "OK",
      "vis_m": 9999,
      "fzfg": false,
      "metar_trigger": false,
      "taf_trigger": false,
      "metar": "METAR EDDK 081750Z AUTO 13004KT CAVOK 15/02 Q1022 NOSIG",
      "taf": "TAF EDDK 081700Z 0818/0924 13004KT CAVOK"
    },
    {
      "icao": "EDDN",
      "alert": "OK",
      "vis_m": 9999,
      "fzfg": false,
      "metar_trigger": false,
      "taf_trigger": false,
      "metar": "METAR EDDN 081750Z AUTO 10005KT CAVOK 12/04 Q1023 NOSIG",
      "taf": "TAF EDDN 081700Z 0818/0918 10004KT CAVOK"
    },
    {
      "icao": "EDDS",
      "alert": "OK",
      "vis_m": 9999,
      "fzfg": false,
      "metar_trigger": false,
      "taf_trigger": false,
      "metar": "METAR EDDS 081750Z AUTO 35003KT CAVOK 13/00 Q1022 NOSIG",
      "taf": "TAF EDDS 081700Z 0818/0918 VRB03KT CAVOK"
    },
    {
      "icao": "EDFH",
      "alert": "OK",
      "vis_m": 9999,
      "fzfg": false,
      "metar_trigger": false,
      "taf_trigger": false,
      "metar": "METAR EDFH 081750Z 12009KT CAVOK 11/04 Q1023",
      "taf": "TAF EDFH 081700Z 0818/0918 15006KT CAVOK"
    },
    {
      "icao": "EDJA",
      "alert": "OK",
      "vis_m": 9999,
      "fzfg": false,
      "metar_trigger": false,
      "taf_trigger": false,
      "metar": "METAR EDJA 081750Z 09005KT CAVOK 10/05 Q1023",
      "taf": "TAF EDJA 081700Z 0818/0903 VRB03KT CAVOK"
    },
    {
      "icao": "EDLW",
      "alert": "OK",
      "vis_m": 9999,
      "fzfg": false,
      "metar_trigger": false,
      "taf_trigger": false,
      "metar": "METAR EDLW 081750Z 06005KT CAVOK 14/05 Q1022",
      "taf": "TAF EDLW 081700Z 0818/0918 05004KT CAVOK"
    },
    {
      "icao": "EDNY",
      "alert": "OK",
      "vis_m": 9999,
      "fzfg": false,
      "metar_trigger": false,
      "taf_trigger": false,
      "metar": "METAR EDNY 081750Z 00000KT CAVOK 11/05 Q1023",
      "taf": "TAF EDNY 081700Z 0818/0903 VRB03KT CAVOK"
    },
    {
      "icao": "EDSB",
      "alert": "OK",
      "vis_m": 9999,
      "fzfg": false,
      "metar_trigger": false,
      "taf_trigger": false,
      "metar": "METAR EDSB 081750Z 01002KT CAVOK 13/07 Q1022",
      "taf": "TAF EDSB 081700Z 0818/0918 VRB03KT CAVOK"
    },
    {
      "icao": "EETN",
      "alert": "OK",
      "vis_m": 9999,
      "fzfg": false,
      "metar_trigger": false,
      "taf_trigger": false,
      "metar": "METAR EETN 081750Z 25008KT CAVOK 03/M01 Q1029 NOSIG",
      "taf": "TAF EETN 081730Z 0818/0918 24010KT CAVOK"
    },
    {
      "icao": "EFTU",
      "alert": "OK",
      "vis_m": 9999,
      "fzfg": false,
      "metar_trigger": false,
      "taf_trigger": false,
      "metar": "METAR EFTU 081750Z AUTO 23004KT CAVOK 03/M00 Q1027",
      "taf": "TAF EFTU 081734Z 0818/0918 26008KT CAVOK"
    },
    {
      "icao": "EGBB",
      "alert": "OK",
      "vis_m": 6000,
      "fzfg": false,
      "metar_trigger": false,
      "taf_trigger": false,
      "metar": "METAR EGBB 081750Z 16004KT 6000 OVC011 10/07 Q1021",
      "taf": "TAF EGBB 081708Z 0818/0918 14006KT 6000 BKN008"
    },
    {
      "icao": "EGGP",
      "alert": "OK",
      "vis_m": 7000,
      "fzfg": false,
      "metar_trigger": false,
      "taf_trigger": false,
      "metar": "METAR EGGP 081750Z 15007KT 7000 OVC008 09/08 Q1020",
      "taf": "TAF EGGP 081704Z 0818/0918 16007KT 7000 SCT012 BKN025"
    },
    {
      "icao": "EGGW",
      "alert": "OK",
      "vis_m": 1600,
      "fzfg": false,
      "metar_trigger": false,
      "taf_trigger": false,
      "metar": "METAR EGGW 081750Z AUTO 14004KT 110V180 1600 BR OVC003 08/07 Q1021",
      "taf": "TAF EGGW 081658Z 0818/0918 15005KT 2000 BR OVC002"
    },
    {
      "icao": "EGKK",
      "alert": "OK",
      "vis_m": 4000,
      "fzfg": false,
      "metar_trigger": false,
      "taf_trigger": false,
      "metar": "METAR EGKK 081750Z 08003KT 010V150 4000 HZ BKN007 09/08 Q1021",
      "taf": "TAF EGKK 081659Z 0818/0924 13005KT 6000 BKN007"
    },
    {
      "icao": "EGNM",
      "alert": "OK",
      "vis_m": 1400,
      "fzfg": false,
      "metar_trigger": false,
      "taf_trigger": false,
      "metar": "METAR EGNM 081750Z 14006KT 110V180 1400 R14/P1500N BR SCT002 OVC003 08/07 Q1020",
      "taf": "TAF EGNM 081703Z 0818/0918 13007KT 7000 SCT007 BKN012"
    },
    {
      "icao": "EGPD",
      "alert": "OK",
      "vis_m": 9999,
      "fzfg": false,
      "metar_trigger": false,
      "taf_trigger": false,
      "metar": "METAR EGPD 081750Z COR AUTO 18008KT 9999 NCD 07/03 Q1018 NOSIG",
      "taf": "TAF EGPD 081654Z 0818/0918 19009KT 9999 FEW030"
    },
    {
      "icao": "EGPF",
      "alert": "OK",
      "vis_m": 9999,
      "fzfg": false,
      "metar_trigger": false,
      "taf_trigger": false,
      "metar": "METAR EGPF 081750Z AUTO 28001KT 9999 NCD 07/02 Q1019",
      "taf": "TAF EGPF 081652Z 0818/0918 18008KT 9999 FEW035"
    },
    {
      "icao": "EHBK",
      "alert": "OK",
      "vis_m": 9999,
      "fzfg": false,
      "metar_trigger": false,
      "taf_trigger": false,
      "metar": "METAR EHBK 081725Z AUTO 01004KT 9999 NSC 15/08 Q1021 NOSIG",
      "taf": "TAF EHBK 081709Z 0818/0924 VRB02KT CAVOK"
    },
    {
      "icao": "EHEH",
      "alert": "OK",
      "vis_m": 9000,
      "fzfg": false,
      "metar_trigger": false,
      "taf_trigger": false,
      "metar": "METAR EHEH 081725Z AUTO 02003KT 320V030 9000 HZ NCD 14/07 Q1022 BLU NOSIG RMK TREND REMOTE BY EHWX",
      "taf": "TAF EHEH 081100Z 0812/0918 VRB03KT 6000 NSC"
    },
    {
      "icao": "EKBI",
      "alert": "OK",
      "vis_m": 500,
      "fzfg": false,
      "metar_trigger": false,
      "taf_trigger": false,
      "metar": "METAR EKBI 081750Z AUTO 01004KT 0500 R09/P1500N R27/0500U FG FEW007/// FEW008/// 06/06 Q1026",
      "taf": "TAF EKBI 081727Z 0818/0918 13003KT 6000 SCT005"
    },
    {
      "icao": "EKCH",
      "alert": "OK",
      "vis_m": 8000,
      "fzfg": false,
      "metar_trigger": false,
      "taf_trigger": false,
      "metar": "METAR EKCH 081750Z AUTO 16004KT 8000 NCD 05/01 Q1028 NOSIG",
      "taf": "TAF EKCH 081727Z 0818/0918 13006KT CAVOK"
    },
    {
      "icao": "ENAL",
      "alert": "OK",
      "vis_m": 9999,
      "fzfg": false,
      "metar_trigger": false,
      "taf_trigger": false,
      "metar": "METAR ENAL 081750Z 05006KT 9999 FEW013 SCT038 BKN045 06/04 Q1020",
      "taf": "TAF ENAL 081700Z 0818/0903 33008KT 9999 FEW030 BKN060"
    },
    {
      "icao": "ENBR",
      "alert": "OK",
      "vis_m": 6000,
      "fzfg": false,
      "metar_trigger": false,
      "taf_trigger": false,
      "metar": "METAR ENBR 081750Z 15011KT 6000 -RADZ OVC006 04/04 Q1022 TEMPO 3000 -DZRA BR BKN003 RMK WIND 1200FT 16014KT",
      "taf": "TAF ENBR 081700Z 0818/0918 18009KT 3000 -DZRA BR OVC003"
    },
    {
      "icao": "ENGM",
      "alert": "OK",
      "vis_m": 4300,
      "fzfg": false,
      "metar_trigger": false,
      "taf_trigger": false,
      "metar": "METAR ENGM 081750Z 15004KT 4300 BR BKN006 03/02 Q1023 TEMPO 2500 BKN004",
      "taf": "TAF ENGM 081700Z 0818/0918 18005KT 4000 BR BKN015"
    },
    {
      "icao": "ENHD",
      "alert": "OK",
      "vis_m": 5000,
      "fzfg": false,
      "metar_trigger": false,
      "taf_trigger": false,
      "metar": "METAR ENHD 081750Z 18011KT 5000 -DZ BR SCT002 OVC003 04/04 Q1023",
      "taf": ""
    },
    {
      "icao": "ENTC",
      "alert": "OK",
      "vis_m": 9999,
      "fzfg": false,
      "metar_trigger": false,
      "taf_trigger": false,
      "metar": "METAR ENTC 081750Z VRB02KT 9999 -RA BKN025 03/00 Q1016 TEMPO RA BKN014 RMK WIND 2600FT 22008KT",
      "taf": "TAF ENTC 081700Z 0818/0918 21005KT 9999 FEW015 BKN020"
    },
    {
      "icao": "ENTO",
      "alert": "OK",
      "vis_m": 100,
      "fzfg": false,
      "metar_trigger": false,
      "taf_trigger": false,
      "metar": "METAR ENTO 081750Z VRB02KT 0100 R18/0600N R36/0600N FG VV001 02/02 Q1025 NOSIG",
      "taf": ""
    },
    {
      "icao": "ENVA",
      "alert": "OK",
      "vis_m": 9999,
      "fzfg": false,
      "metar_trigger": false,
      "taf_trigger": false,
      "metar": "METAR ENVA 081750Z 11008KT CAVOK 01/M01 Q1022 RMK WIND 670FT 14009KT",
      "taf": "TAF ENVA 081700Z 0818/0918 27008KT CAVOK"
    },
    {
      "icao": "ENZV",
      "alert": "OK",
      "vis_m": 4000,
      "fzfg": false,
      "metar_trigger": false,
      "taf_trigger": false,
      "metar": "METAR ENZV 081750Z 17007KT 4000 SHRA BKN004 OVC005 04/04 Q1024 TEMPO BKN006",
      "taf": ""
    },
    {
      "icao": "EPGD",
      "alert": "OK",
      "vis_m": 9999,
      "fzfg": false,
      "metar_trigger": false,
      "taf_trigger": false,
      "metar": "METAR EPGD 081730Z 16006KT CAVOK 10/M02 Q1031",
      "taf": "TAF EPGD 081730Z 0818/0918 15006KT CAVOK"
    },
    {
      "icao": "EPKK",
      "alert": "OK",
      "vis_m": 9999,
      "fzfg": false,
      "metar_trigger": false,
      "taf_trigger": false,
      "metar": "METAR EPKK 081730Z 05004KT 020V080 CAVOK 08/M00 Q1030",
      "taf": "TAF EPKK 081730Z 0818/0918 06009KT CAVOK"
    },
    {
      "icao": "EPKT",
      "alert": "OK",
      "vis_m": 9999,
      "fzfg": false,
      "metar_trigger": false,
      "taf_trigger": false,
      "metar": "METAR EPKT 081730Z 07008KT CAVOK 06/M02 Q1029",
      "taf": "TAF EPKT 081730Z 0818/0918 08008KT CAVOK"
    },
    {
      "icao": "EPLB",
      "alert": "OK",
      "vis_m": 9999,
      "fzfg": false,
      "metar_trigger": false,
      "taf_trigger": false,
      "metar": "METAR EPLB 081730Z 14001KT CAVOK 07/00 Q1032",
      "taf": "TAF EPLB 081730Z 0818/0918 08002KT CAVOK"
    },
    {
      "icao": "EPMO",
      "alert": "OK",
      "vis_m": 9999,
      "fzfg": false,
      "metar_trigger": false,
      "taf_trigger": false,
      "metar": "METAR EPMO 081730Z 06002KT CAVOK 07/M03 Q1032",
      "taf": "TAF EPMO 081730Z 0818/0918 11004KT CAVOK"
    },
    {
      "icao": "EPPO",
      "alert": "OK",
      "vis_m": 9999,
      "fzfg": false,
      "metar_trigger": false,
      "taf_trigger": false,
      "metar": "METAR EPPO 081730Z 09006KT CAVOK 08/M02 Q1030",
      "taf": "TAF EPPO 081730Z 0818/0918 09005KT CAVOK"
    },
    {
      "icao": "EPRA",
      "alert": "OK",
      "vis_m": 9999,
      "fzfg": false,
      "metar_trigger": false,
      "taf_trigger": false,
      "metar": "METAR EPRA 081730Z 10006KT CAVOK 08/M03 Q1031",
      "taf": "TAF EPRA 081730Z 0818/0903 10008KT CAVOK"
    },
    {
      "icao": "EPRZ",
      "alert": "OK",
      "vis_m": 9999,
      "fzfg": false,
      "metar_trigger": false,
      "taf_trigger": false,
      "metar": "METAR EPRZ 081730Z 06006KT CAVOK 08/M01 Q1031",
      "taf": "TAF EPRZ 081730Z 0818/0918 06007KT CAVOK"
    },
    {
      "icao": "EPSC",
      "alert": "OK",
      "vis_m": 9999,
      "fzfg": false,
      "metar_trigger": false,
      "taf_trigger": false,
      "metar": "METAR EPSC 081730Z 11001KT CAVOK 07/M01 Q1028",
      "taf": "TAF EPSC 081730Z 0818/0918 12005KT CAVOK"
    },
    {
      "icao": "EPSY",
      "alert": "OK",
      "vis_m": 9999,
      "fzfg": false,
      "metar_trigger": false,
      "taf_trigger": false,
      "metar": "METAR EPSY 081730Z 00000KT CAVOK 04/M03 Q1032",
      "taf": "TAF EPSY 081730Z 0818/0903 VRB02KT CAVOK"
    },
    {
      "icao": "EPWA",
      "alert": "OK",
      "vis_m": 9999,
      "fzfg": false,
      "metar_trigger": false,
      "taf_trigger": false,
      "metar": "METAR EPWA 081730Z 11003KT 070V130 CAVOK 09/M02 Q1032 NOSIG",
      "taf": "TAF EPWA 081730Z 0818/0918 11004KT CAVOK"
    },
    {
      "icao": "EPWR",
      "alert": "OK",
      "vis_m": 9999,
      "fzfg": false,
      "metar_trigger": false,
      "taf_trigger": false,
      "metar": "METAR EPWR 081730Z 08006KT CAVOK 11/M01 Q1028",
      "taf": "TAF EPWR 081730Z 0818/0918 08005KT CAVOK"
    },
    {
      "icao": "ESGG",
      "alert": "OK",
      "vis_m": 5000,
      "fzfg": false,
      "metar_trigger": false,
      "taf_trigger": false,
      "metar": "METAR ESGG 081750Z 19008KT 5000 BR BKN006 06/05 Q1026",
      "taf": "TAF ESGG 081730Z 0818/0918 18008KT 9999 SCT007"
    },
    {
      "icao": "ESKN",
      "alert": "OK",
      "vis_m": 9999,
      "fzfg": false,
      "metar_trigger": false,
      "taf_trigger": false,
      "metar": "METAR ESKN 081750Z 13003KT CAVOK 02/01 Q1027",
      "taf": "TAF ESKN 081730Z 0818/0918 13004KT CAVOK"
    },
    {
      "icao": "ESMS",
      "alert": "OK",
      "vis_m": 9999,
      "fzfg": false,
      "metar_trigger": false,
      "taf_trigger": false,
      "metar": "METAR ESMS 081750Z 10005KT CAVOK 06/00 Q1027",
      "taf": "TAF ESMS 081727Z 0818/0918 13008KT CAVOK"
    },
    {
      "icao": "ESSA",
      "alert": "OK",
      "vis_m": 9999,
      "fzfg": false,
      "metar_trigger": false,
      "taf_trigger": false,
      "metar": "METAR ESSA 081750Z 19009KT CAVOK 05/M02 Q1026 NOSIG",
      "taf": "TAF ESSA 081730Z 0818/0918 18008KT CAVOK"
    },
    {
      "icao": "EYKA",
      "alert": "OK",
      "vis_m": 9999,
      "fzfg": false,
      "metar_trigger": false,
      "taf_trigger": false,
      "metar": "METAR EYKA 081750Z 15001KT CAVOK 01/M03 Q1032",
      "taf": "TAF EYKA 081700Z 0818/0918 VRB02KT 9000 NSC"
    },
    {
      "icao": "EYPA",
      "alert": "OK",
      "vis_m": 9999,
      "fzfg": false,
      "metar_trigger": false,
      "taf_trigger": false,
      "metar": "METAR EYPA 081750Z 18002KT CAVOK 02/M01 Q1031",
      "taf": "TAF EYPA 081700Z 0818/0918 VRB02KT 9000 NSC"
    },
    {
      "icao": "EYVI",
      "alert": "OK",
      "vis_m": 9999,
      "fzfg": false,
      "metar_trigger": false,
      "taf_trigger": false,
      "metar": "METAR EYVI 081750Z 19003KT CAVOK 05/M04 Q1032 NOSIG",
      "taf": "TAF EYVI 081700Z 0818/0918 VRB03KT 9000 NSC"
    },
    {
      "icao": "GCFV",
      "alert": "OK",
      "vis_m": 9999,
      "fzfg": false,
      "metar_trigger": false,
      "taf_trigger": false,
      "metar": "METAR GCFV 081730Z 03018KT 9999 SCT035 BKN045 18/12 Q1021",
      "taf": "TAF GCFV 081400Z 0815/0915 04017KT 9999 SCT035 TX20/0914Z TN15/0906Z"
    },
    {
      "icao": "GCLP",
      "alert": "OK",
      "vis_m": 9999,
      "fzfg": false,
      "metar_trigger": false,
      "taf_trigger": false,
      "metar": "METAR GCLP 081730Z 36022KT 9999 FEW030 BKN045 18/10 Q1021 NOSIG",
      "taf": "TAF GCLP 081400Z 0815/0915 02023KT 9999 BKN040 TX20/0914Z TN15/0906Z"
    },
    {
      "icao": "GCTS",
      "alert": "OK",
      "vis_m": 9999,
      "fzfg": false,
      "metar_trigger": false,
      "taf_trigger": false,
      "metar": "METAR GCTS 081730Z 08025KT 050V110 9999 FEW045 19/07 Q1021 NOSIG",
      "taf": "TAF GCTS 081400Z 0815/0915 09026KT 9999 SCT045 TX22/0914Z TN14/0906Z"
    },
    {
      "icao": "GMAD",
      "alert": "OK",
      "vis_m": 9999,
      "fzfg": false,
      "metar_trigger": false,
      "taf_trigger": false,
      "metar": "METAR GMAD 081730Z 20010KT CAVOK 19/11 Q1016 NOSIG",
      "taf": "TAF GMAD 081700Z 0818/0924 22010KT CAVOK"
    },
    {
      "icao": "GMMN",
      "alert": "OK",
      "vis_m": 9999,
      "fzfg": false,
      "metar_trigger": false,
      "taf_trigger": false,
      "metar": "METAR GMMN 081730Z 35010KT 9999 SCT030 14/10 Q1021 NOSIG",
      "taf": "TAF GMMN 081700Z 0818/0924 34010KT 9999 SCT030"
    },
    {
      "icao": "GMMX",
      "alert": "OK",
      "vis_m": 9999,
      "fzfg": false,
      "metar_trigger": false,
      "taf_trigger": false,
      "metar": "METAR GMMX 081730Z 03006KT 350V060 9999 BKN023 17/05 Q1019 NOSIG",
      "taf": "TAF GMMX 081700Z 0818/0924 06006KT 9999 BKN023"
    },
    {
      "icao": "HEGN",
      "alert": "OK",
      "vis_m": 9999,
      "fzfg": false,
      "metar_trigger": false,
      "taf_trigger": false,
      "metar": "METAR HEGN 081700Z 33012KT CAVOK 21/05 Q1016 NOSIG",
      "taf": "TAF HEGN 081700Z 0818/0924 33008G20KT CAVOK"
    },
    {
      "icao": "HEMA",
      "alert": "OK",
      "vis_m": 9999,
      "fzfg": false,
      "metar_trigger": false,
      "taf_trigger": false,
      "metar": "METAR HEMA 081700Z 34014KT CAVOK 21/07 Q1015 NOSIG",
      "taf": "TAF HEMA 081700Z 0818/0924 34008G20KT CAVOK"
    },
    {
      "icao": "HESH",
      "alert": "OK",
      "vis_m": 9999,
      "fzfg": false,
      "metar_trigger": false,
      "taf_trigger": false,
      "metar": "METAR HESH 081700Z 35010KT CAVOK 21/08 Q1016 NOSIG",
      "taf": "TAF HESH 081700Z 0818/0924 35006G18KT CAVOK"
    },
    {
      "icao": "HESX",
      "alert": "OK",
      "vis_m": 9999,
      "fzfg": false,
      "metar_trigger": false,
      "taf_trigger": false,
      "metar": "METAR HESX 081700Z 01011KT CAVOK 18/03 Q1018 NOSIG",
      "taf": "TAF HESX 081700Z 0818/0924 35007KT CAVOK"
    },
    {
      "icao": "LATI",
      "alert": "OK",
      "vis_m": 9999,
      "fzfg": false,
      "metar_trigger": false,
      "taf_trigger": false,
      "metar": "METAR LATI 081750Z 00000KT 9999 FEW040 BKN068 13/09 Q1025 NOSIG",
      "taf": "TAF LATI 081700Z 0818/0918 VRB04KT 9999 SCT080 TX17/0912Z TN08/0905Z"
    },
    {
      "icao": "LBPD",
      "alert": "OK",
      "vis_m": 9999,
      "fzfg": false,
      "metar_trigger": false,
      "taf_trigger": false,
      "metar": "METAR LBPD 081730Z AUTO 13008KT 9999 NCD 08/01 Q1029 NOSIG",
      "taf": "TAF LBPD 081700Z 0818/0918 11010KT CAVOK"
    },
    {
      "icao": "LBSF",
      "alert": "OK",
      "vis_m": 9999,
      "fzfg": false,
      "metar_trigger": false,
      "taf_trigger": false,
      "metar": "METAR LBSF 081730Z AUTO 07009KT 9999 NSC 08/01 Q1028 NOSIG",
      "taf": "TAF LBSF 081700Z 0818/0918 10012KT CAVOK"
    },
    {
      "icao": "LBWN",
      "alert": "OK",
      "vis_m": 9999,
      "fzfg": false,
      "metar_trigger": false,
      "taf_trigger": false,
      "metar": "METAR LBWN 081730Z AUTO 05004KT 9999 NSC 05/01 Q1032 NOSIG",
      "taf": "TAF LBWN 081700Z 0818/0918 10010KT CAVOK"
    },
    {
      "icao": "LCLK",
      "alert": "OK",
      "vis_m": 9999,
      "fzfg": false,
      "metar_trigger": false,
      "taf_trigger": false,
      "metar": "METAR LCLK 081730Z 30004KT CAVOK 11/06 Q1019 NOSIG",
      "taf": "TAF LCLK 081730Z 0818/0918 34007KT 9999 FEW025"
    },
    {
      "icao": "LCPH",
      "alert": "OK",
      "vis_m": 9999,
      "fzfg": false,
      "metar_trigger": false,
      "taf_trigger": false,
      "metar": "METAR LCPH 081730Z 36005KT 9999 FEW040 12/01 Q1020 NOSIG",
      "taf": "TAF LCPH 081730Z 0818/0918 02007KT 9999 FEW020"
    },
    {
      "icao": "LEAL",
      "alert": "OK",
      "vis_m": 9999,
      "fzfg": false,
      "metar_trigger": false,
      "taf_trigger": false,
      "metar": "METAR LEAL 081730Z 12005KT 080V150 9999 FEW030 BKN053 15/09 Q1021 NOSIG",
      "taf": "TAF LEAL 081700Z 0818/0918 VRB04KT 9999 SCT025 TX17/0913Z TN07/0906Z"
    },
    {
      "icao": "LEBB",
      "alert": "OK",
      "vis_m": 9999,
      "fzfg": false,
      "metar_trigger": false,
      "taf_trigger": false,
      "metar": "METAR LEBB 081730Z 34004KT 300V360 9999 FEW030 14/09 Q1021 NOSIG",
      "taf": "TAF LEBB 081700Z 0818/0918 14006KT 9999 FEW040 TX15/0911Z TN06/0907Z"
    },
    {
      "icao": "LEBL",
      "alert": "OK",
      "vis_m": 9999,
      "fzfg": false,
      "metar_trigger": false,
      "taf_trigger": false,
      "metar": "METAR LEBL 081730Z 13003KT 9999 FEW015 14/11 Q1021 NOSIG",
      "taf": "TAF LEBL 081700Z 0818/0918 11008KT 9999 FEW015 SCT025 TX15/0912Z TN09/0906Z"
    },
    {
      "icao": "LECH",
      "alert": "OK",
      "vis_m": 9999,
      "fzfg": false,
      "metar_trigger": false,
      "taf_trigger": false,
      "metar": "METAR LECH 081730Z AUTO 14003KT 100V180 9999 FEW038 OVC070 10/09 Q1021",
      "taf": ""
    },
    {
      "icao": "LEMD",
      "alert": "OK",
      "vis_m": 9999,
      "fzfg": false,
      "metar_trigger": false,
      "taf_trigger": false,
      "metar": "METAR LEMD 081730Z 06003KT 330V130 9999 FEW050TCU SCT065 BKN080 10/05 Q1020 NOSIG",
      "taf": "TAF LEMD 081700Z 0818/0924 02006KT 9999 SCT040 TX13/0915Z TN02/0904Z"
    },
    {
      "icao": "LEMG",
      "alert": "OK",
      "vis_m": 9999,
      "fzfg": false,
      "metar_trigger": false,
      "taf_trigger": false,
      "metar": "METAR LEMG 081730Z 01005KT 330V120 9999 FEW015 BKN060 14/12 Q1021 NOSIG",
      "taf": "TAF LEMG 081700Z 0818/0918 29004KT 9999 FEW030 TX16/0914Z TN08/0907Z"
    },
    {
      "icao": "LEVC",
      "alert": "OK",
      "vis_m": 9999,
      "fzfg": false,
      "metar_trigger": false,
      "taf_trigger": false,
      "metar": "METAR LEVC 081730Z 13004KT 9999 FEW025 13/09 Q1021 NOSIG",
      "taf": "TAF LEVC 081700Z 0818/0918 VRB04KT 9999 SCT025 TX18/0913Z TN06/0906Z"
    },
    {
      "icao": "LEXJ",
      "alert": "OK",
      "vis_m": 9999,
      "fzfg": false,
      "metar_trigger": false,
      "taf_trigger": false,
      "metar": "METAR LEXJ 081730Z VRB02KT 9999 SCT037 11/08 Q1021",
      "taf": "TAF LEXJ 081400Z 0815/0915 24005KT 9999 FEW030 TX13/0815Z TN07/0905Z"
    },
    {
      "icao": "LEZG",
      "alert": "OK",
      "vis_m": 9999,
      "fzfg": false,
      "metar_trigger": false,
      "taf_trigger": false,
      "metar": "METAR LEZG 081730Z 32005KT 9999 SCT050 BKN070 13/09 Q1020 NOSIG",
      "taf": "TAF LEZG 081700Z 0818/0918 VRB04KT 9999 SCT025 SCT040 TX15/0914Z TN06/0906Z"
    },
    {
      "icao": "LEZL",
      "alert": "OK",
      "vis_m": 9999,
      "fzfg": false,
      "metar_trigger": false,
      "taf_trigger": false,
      "metar": "METAR LEZL 081730Z 23003KT 9999 FEW040 17/12 Q1020 NOSIG",
      "taf": "TAF LEZL 081400Z 0815/0915 29005KT 9999 FEW030 TX19/0815Z TN12/0907Z"
    },
    {
      "icao": "LFBD",
      "alert": "OK",
      "vis_m": 9999,
      "fzfg": false,
      "metar_trigger": false,
      "taf_trigger": false,
      "metar": "METAR LFBD 081730Z AUTO 13005KT 9999 FEW045/// OVC058/// ///CB 13/10 Q1020 BECMG BKN040",
      "taf": "TAF LFBD 081700Z 0818/0924 VRB03KT 9999 BKN040 TX16/0914Z TN05/0905Z"
    },
    {
      "icao": "LFLL",
      "alert": "OK",
      "vis_m": 9999,
      "fzfg": false,
      "metar_trigger": false,
      "taf_trigger": false,
      "metar": "METAR LFLL 081730Z 01003KT CAVOK 17/04 Q1022 NOSIG",
      "taf": "TAF LFLL 081700Z 0818/0924 17005KT CAVOK"
    },
    {
      "icao": "LFLS",
      "alert": "OK",
      "vis_m": 9999,
      "fzfg": false,
      "metar_trigger": false,
      "taf_trigger": false,
      "metar": "METAR LFLS 081730Z AUTO 19004KT 9999 SCT062 SCT078 BKN100 14/06 Q1022 TEMPO 24015G25KT SHRA SCT035TCU BKN050",
      "taf": "TAF LFLS 081400Z 0815/0915 VRB04KT CAVOK"
    },
    {
      "icao": "LFMN",
      "alert": "OK",
      "vis_m": 9999,
      "fzfg": false,
      "metar_trigger": false,
      "taf_trigger": false,
      "metar": "METAR LFMN 081730Z 08007KT 9999 FEW015 SCT260 14/11 Q1024 NOSIG",
      "taf": "TAF LFMN 081400Z 0815/0921 09008KT 9999 FEW110 SCT260"
    },
    {
      "icao": "LFOB",
      "alert": "OK",
      "vis_m": 4700,
      "fzfg": false,
      "metar_trigger": false,
      "taf_trigger": false,
      "metar": "METAR LFOB 081730Z AUTO 12002KT 4700 BR NSC 11/10 Q1021 BECMG 6000 NSW",
      "taf": "TAF LFOB 081700Z 0818/0918 VRB03KT 7000 NSC"
    },
    {
      "icao": "LFPO",
      "alert": "OK",
      "vis_m": 9999,
      "fzfg": false,
      "metar_trigger": false,
      "taf_trigger": false,
      "metar": "METAR LFPO 081730Z 25002KT CAVOK 16/09 Q1021 NOSIG",
      "taf": "TAF LFPO 081700Z 0818/0924 VRB02KT CAVOK"
    },
    {
      "icao": "LFSB",
      "alert": "OK",
      "vis_m": 9999,
      "fzfg": false,
      "metar_trigger": false,
      "taf_trigger": false,
      "metar": "METAR LFSB 081730Z AUTO 00000KT CAVOK 14/08 Q1022 NOSIG",
      "taf": "TAF LFSB 081700Z 0818/0918 VRB03KT CAVOK"
    },
    {
      "icao": "LGAV",
      "alert": "OK",
      "vis_m": 9999,
      "fzfg": false,
      "metar_trigger": false,
      "taf_trigger": false,
      "metar": "METAR LGAV 081750Z 03004KT 330V070 9999 FEW030 11/05 Q1025 NOSIG",
      "taf": "TAF LGAV 081700Z 0818/0918 02015KT 9999 FEW025"
    },
    {
      "icao": "LGTS",
      "alert": "OK",
      "vis_m": 9999,
      "fzfg": false,
      "metar_trigger": false,
      "taf_trigger": false,
      "metar": "METAR LGTS 081750Z VRB02KT 9999 SCT025 12/08 Q1028 NOSIG",
      "taf": "TAF LGTS 081700Z 0818/0918 14013KT 9999 SCT025"
    },
    {
      "icao": "LHBP",
      "alert": "OK",
      "vis_m": 9999,
      "fzfg": false,
      "metar_trigger": false,
      "taf_trigger": false,
      "metar": "METAR LHBP 081730Z 08005KT CAVOK 13/M02 Q1028 NOSIG",
      "taf": "TAF LHBP 081715Z 0818/0918 07006KT CAVOK"
    },
    {
      "icao": "LHDC",
      "alert": "OK",
      "vis_m": 9999,
      "fzfg": false,
      "metar_trigger": false,
      "taf_trigger": false,
      "metar": "METAR LHDC 081715Z AUTO 04006KT CAVOK 12/M01 Q1028 NOSIG",
      "taf": "TAF LHDC 081715Z 0818/0903 04005KT CAVOK"
    },
    {
      "icao": "LIBD",
      "alert": "OK",
      "vis_m": 9999,
      "fzfg": false,
      "metar_trigger": false,
      "taf_trigger": false,
      "metar": "METAR LIBD 081750Z VRB02KT 9999 SCT020 13/11 Q1025",
      "taf": "TAF LIBD 081700Z 0818/0918 VRB05KT 8000 SCT020"
    },
    {
      "icao": "LIBG",
      "alert": "OK",
      "vis_m": 9999,
      "fzfg": false,
      "metar_trigger": false,
      "taf_trigger": false,
      "metar": "METAR LIBG 081650Z 07004KT CAVOK 14/11 Q1024",
      "taf": "TAF LIBG 081700Z 0818/0903 VRB03KT 7000 SCT015"
    },
    {
      "icao": "LIBP",
      "alert": "OK",
      "vis_m": 9999,
      "fzfg": false,
      "metar_trigger": false,
      "taf_trigger": false,
      "metar": "METAR LIBP 081750Z AUTO 14001KT 9999 BKN034/// BKN110/// 12/11 Q1026",
      "taf": "TAF LIBP 081700Z 0818/0918 VRB04KT 8000 SCT030"
    },
    {
      "icao": "LIBR",
      "alert": "OK",
      "vis_m": 9999,
      "fzfg": false,
      "metar_trigger": false,
      "taf_trigger": false,
      "metar": "METAR LIBR 081750Z 10004KT 9999 BKN025 13/11 Q1025",
      "taf": "TAF LIBR 081700Z 0818/0918 VRB06KT 8000 SCT018"
    },
    {
      "icao": "LICA",
      "alert": "OK",
      "vis_m": 9999,
      "fzfg": false,
      "metar_trigger": false,
      "taf_trigger": false,
      "metar": "METAR LICA 081750Z AUTO 04005KT 9999 FEW022/// 14/11 Q1024",
      "taf": "TAF LICA 081700Z 0818/0918 VRB06KT 9999 FEW030"
    },
    {
      "icao": "LICC",
      "alert": "OK",
      "vis_m": 9999,
      "fzfg": false,
      "metar_trigger": false,
      "taf_trigger": false,
      "metar": "METAR LICC 081750Z 08004KT 9999 SCT110 15/13 Q1024",
      "taf": "TAF LICC 081700Z 0818/0918 VRB05KT 9999 SCT015"
    },
    {
      "icao": "LICJ",
      "alert": "OK",
      "vis_m": 9999,
      "fzfg": false,
      "metar_trigger": false,
      "taf_trigger": false,
      "metar": "METAR LICJ 081750Z 21006KT CAVOK 15/13 Q1023",
      "taf": "TAF LICJ 081700Z 0818/0918 05012KT 9999 FEW030"
    },
    {
      "icao": "LIMC",
      "alert": "OK",
      "vis_m": 9999,
      "fzfg": false,
      "metar_trigger": false,
      "taf_trigger": false,
      "metar": "METAR LIMC 081750Z 17001KT CAVOK 13/03 Q1025 NOSIG",
      "taf": "TAF LIMC 081700Z 0818/0924 VRB05KT CAVOK"
    },
    {
      "icao": "LIME",
      "alert": "OK",
      "vis_m": 9999,
      "fzfg": false,
      "metar_trigger": false,
      "taf_trigger": false,
      "metar": "METAR LIME 081750Z 15004KT 110V200 CAVOK 13/04 Q1025 NOSIG",
      "taf": "TAF LIME 081700Z 0818/0918 VRB05KT 9999 FEW030"
    },
    {
      "icao": "LIMF",
      "alert": "OK",
      "vis_m": 9999,
      "fzfg": false,
      "metar_trigger": false,
      "taf_trigger": false,
      "metar": "METAR LIMF 081750Z 07004KT CAVOK 12/04 Q1025",
      "taf": "TAF LIMF 081700Z 0818/0918 VRB04KT CAVOK"
    },
    {
      "icao": "LIMJ",
      "alert": "OK",
      "vis_m": 9999,
      "fzfg": false,
      "metar_trigger": false,
      "taf_trigger": false,
      "metar": "METAR LIMJ 081750Z 28003KT 9999 SCT080 14/11 Q1025",
      "taf": "TAF LIMJ 081700Z 0818/0918 VRB05KT 9999 SCT030"
    },
    {
      "icao": "LIPE",
      "alert": "OK",
      "vis_m": 9999,
      "fzfg": false,
      "metar_trigger": false,
      "taf_trigger": false,
      "metar": "METAR LIPE 081750Z 10004KT CAVOK 10/08 Q1026",
      "taf": "TAF LIPE 081700Z 0818/0918 VRB04KT 8000 FEW050"
    },
    {
      "icao": "LIPH",
      "alert": "OK",
      "vis_m": 9999,
      "fzfg": false,
      "metar_trigger": false,
      "taf_trigger": false,
      "metar": "METAR LIPH 081750Z 20003KT CAVOK 12/06 Q1026",
      "taf": "TAF LIPH 081700Z 0818/0918 VRB04KT 8000 FEW050"
    },
    {
      "icao": "LIPQ",
      "alert": "OK",
      "vis_m": 3200,
      "fzfg": false,
      "metar_trigger": false,
      "taf_trigger": false,
      "metar": "METAR LIPQ 081750Z AUTO 14004KT 3200 BR NCD 11/09 Q1026",
      "taf": "TAF LIPQ 081700Z 0818/0918 VRB04KT 7000 SCT060"
    },
    {
      "icao": "LIPR",
      "alert": "OK",
      "vis_m": 7000,
      "fzfg": false,
      "metar_trigger": false,
      "taf_trigger": false,
      "metar": "METAR LIPR 081750Z VRB01KT 7000 NSC 10/09 Q1026",
      "taf": "TAF LIPR 081700Z 0818/0918 VRB04KT 7000 NSC"
    },
    {
      "icao": "LIPX",
      "alert": "OK",
      "vis_m": 8000,
      "fzfg": false,
      "metar_trigger": false,
      "taf_trigger": false,
      "metar": "METAR LIPX 081750Z 23003KT 8000 NSC 11/09 Q1026",
      "taf": "TAF LIPX 081700Z 0818/0918 VRB05KT CAVOK"
    },
    {
      "icao": "LIPY",
      "alert": "OK",
      "vis_m": 2900,
      "fzfg": false,
      "metar_trigger": false,
      "taf_trigger": false,
      "metar": "METAR LIPY 081750Z AUTO VRB01KT 2900 BR NCD 11/10 Q1026",
      "taf": "TAF LIPY 081700Z 0818/0918 VRB05KT 7000 FEW020"
    },
    {
      "icao": "LIPZ",
      "alert": "OK",
      "vis_m": 9999,
      "fzfg": false,
      "metar_trigger": false,
      "taf_trigger": false,
      "metar": "METAR LIPZ 081750Z 22005KT CAVOK 11/09 Q1026 NOSIG",
      "taf": "TAF LIPZ 081700Z 0818/0924 VRB04KT 8000 FEW050"
    },
    {
      "icao": "LIRF",
      "alert": "OK",
      "vis_m": 9999,
      "fzfg": false,
      "metar_trigger": false,
      "taf_trigger": false,
      "metar": "METAR LIRF 081750Z 28004KT CAVOK 14/11 Q1024 NOSIG",
      "taf": "TAF LIRF 081700Z 0818/0924 VRB06KT 9999 FEW030"
    },
    {
      "icao": "LIRN",
      "alert": "OK",
      "vis_m": 9999,
      "fzfg": false,
      "metar_trigger": false,
      "taf_trigger": false,
      "metar": "METAR LIRN 081750Z 03008KT CAVOK 15/09 Q1024 NOSIG",
      "taf": "TAF LIRN 081700Z 0818/0918 VRB05KT 9999 SCT040"
    },
    {
      "icao": "LIRP",
      "alert": "OK",
      "vis_m": 9999,
      "fzfg": false,
      "metar_trigger": false,
      "taf_trigger": false,
      "metar": "METAR LIRP 081745Z VRB02KT 9999 FEW030 14/12 Q1025 NOSIG",
      "taf": "TAF LIRP 081700Z 0818/0918 28006KT 9999 SCT030 SCT060"
    },
    {
      "icao": "LIRZ",
      "alert": "OK",
      "vis_m": 9999,
      "fzfg": false,
      "metar_trigger": false,
      "taf_trigger": false,
      "metar": "METAR LIRZ 081750Z AUTO 35005KT 9999 FEW088/// 11/09 Q1024",
      "taf": "TAF LIRZ 081700Z 0818/0918 VRB05KT 9999 SCT030"
    },
    {
      "icao": "LJLJ",
      "alert": "OK",
      "vis_m": 9999,
      "fzfg": false,
      "metar_trigger": false,
      "taf_trigger": false,
      "metar": "METAR LJLJ 081730Z VRB02KT 9999 FEW060 09/05 Q1025 NOSIG",
      "taf": "TAF LJLJ 081700Z 0818/0918 10004KT 9999 FEW060"
    },
    {
      "icao": "LKMT",
      "alert": "OK",
      "vis_m": 9999,
      "fzfg": false,
      "metar_trigger": false,
      "taf_trigger": false,
      "metar": "METAR LKMT 081730Z 04007KT CAVOK 07/00 Q1028 NOSIG",
      "taf": "TAF LKMT 081700Z 0818/0918 03005KT CAVOK"
    },
    {
      "icao": "LKPR",
      "alert": "OK",
      "vis_m": 9999,
      "fzfg": false,
      "metar_trigger": false,
      "taf_trigger": false,
      "metar": "METAR LKPR 081730Z 10007KT CAVOK 10/01 Q1026 NOSIG",
      "taf": "TAF LKPR 081700Z 0818/0924 11006KT CAVOK"
    },
    {
      "icao": "LLBG",
      "alert": "OK",
      "vis_m": 9999,
      "fzfg": false,
      "metar_trigger": false,
      "taf_trigger": false,
      "metar": "METAR LLBG 081750Z VRB03KT 9999 FEW050 14/03 Q1020 NOSIG",
      "taf": "TAF LLBG 081700Z 0818/0918 VRB04KT 9999 FEW035 TX19/0911Z TN06/0903Z"
    },
    {
      "icao": "LMML",
      "alert": "OK",
      "vis_m": 9999,
      "fzfg": false,
      "metar_trigger": false,
      "taf_trigger": false,
      "metar": "METAR LMML 081745Z 07012KT 9999 FEW015 15/13 Q1022 NOSIG",
      "taf": "TAF LMML 081700Z 0818/0918 09015KT 9999 SCT013"
    },
    {
      "icao": "LOWW",
      "alert": "OK",
      "vis_m": 9999,
      "fzfg": false,
      "metar_trigger": false,
      "taf_trigger": false,
      "metar": "METAR LOWW 081750Z 11006KT CAVOK 12/00 Q1027 NOSIG",
      "taf": "TAF LOWW 081715Z 0818/0924 13007KT CAVOK TX15/0914Z TN05/0905Z"
    },
    {
      "icao": "LPFR",
      "alert": "OK",
      "vis_m": 9999,
      "fzfg": false,
      "metar_trigger": false,
      "taf_trigger": false,
      "metar": "METAR LPFR 081730Z 26010KT 9999 FEW035 SCT045 16/11 Q1020",
      "taf": "TAF LPFR 081700Z 0818/0918 25012KT 9999 SCT035"
    },
    {
      "icao": "LPMA",
      "alert": "OK",
      "vis_m": 9999,
      "fzfg": false,
      "metar_trigger": false,
      "taf_trigger": false,
      "metar": "METAR LPMA 081730Z 02010KT 350V070 9999 BKN015 15/07 Q1026",
      "taf": "TAF LPMA 081700Z 0818/0918 01012KT 9999 SCT015 SCT030"
    },
    {
      "icao": "LPPR",
      "alert": "OK",
      "vis_m": 9999,
      "fzfg": false,
      "metar_trigger": false,
      "taf_trigger": false,
      "metar": "METAR LPPR 081730Z 32010KT 9999 BKN015 12/09 Q1022",
      "taf": "TAF LPPR 081700Z 0818/0918 30010KT 9999 SCT018"
    },
    {
      "icao": "LPPS",
      "alert": "OK",
      "vis_m": 9999,
      "fzfg": false,
      "metar_trigger": false,
      "taf_trigger": false,
      "metar": "METAR LPPS 081730Z 02013KT 360V060 9999 SCT014 15/07 Q1026",
      "taf": "TAF LPPS 081700Z 0818/0924 02013KT 9999 FEW013 BKN030"
    },
    {
      "icao": "LPPT",
      "alert": "OK",
      "vis_m": 9999,
      "fzfg": false,
      "metar_trigger": false,
      "taf_trigger": false,
      "metar": "METAR LPPT 081730Z 32010KT 290V350 9999 FEW032 14/08 Q1022",
      "taf": "TAF LPPT 081700Z 0818/0924 33012KT 9999 SCT030"
    },
    {
      "icao": "LQBK",
      "alert": "OK",
      "vis_m": 9999,
      "fzfg": false,
      "metar_trigger": false,
      "taf_trigger": false,
      "metar": "METAR LQBK 081730Z 05003KT CAVOK 12/M00 Q1026 NOSIG",
      "taf": "TAF LQBK 081700Z 0818/0918 14005KT CAVOK TX17/0914Z TN00/0905Z"
    },
    {
      "icao": "LQSA",
      "alert": "OK",
      "vis_m": 9999,
      "fzfg": false,
      "metar_trigger": false,
      "taf_trigger": false,
      "metar": "METAR LQSA 081730Z VRB03KT CAVOK 12/04 Q1025 NOSIG",
      "taf": "TAF LQSA 081700Z 0818/0918 VRB02KT 9999 SCT055 TX17/0914Z TN01/0905Z"
    },
    {
      "icao": "LQTZ",
      "alert": "OK",
      "vis_m": 9999,
      "fzfg": false,
      "metar_trigger": false,
      "taf_trigger": false,
      "metar": "METAR LQTZ 081730Z 10004KT 070V130 CAVOK 12/01 Q1026",
      "taf": "TAF LQTZ 081700Z 0818/0918 VRB02KT CAVOK TX17/0914Z TNM01/0905Z"
    },
    {
      "icao": "LRBC",
      "alert": "OK",
      "vis_m": 9999,
      "fzfg": false,
      "metar_trigger": false,
      "taf_trigger": false,
      "metar": "METAR LRBC 081730Z 34006KT CAVOK 05/M02 Q1032",
      "taf": "TAF LRBC 081700Z 0818/0903 34007KT CAVOK"
    },
    {
      "icao": "LRBS",
      "alert": "OK",
      "vis_m": 9999,
      "fzfg": false,
      "metar_trigger": false,
      "taf_trigger": false,
      "metar": "METAR LRBS 081730Z 08004KT CAVOK 07/01 Q1032 NOSIG",
      "taf": "TAF LRBS 081700Z 0818/0918 VRB04KT CAVOK"
    },
    {
      "icao": "LRBV",
      "alert": "OK",
      "vis_m": 9999,
      "fzfg": false,
      "metar_trigger": false,
      "taf_trigger": false,
      "metar": "METAR LRBV 081730Z 08011KT CAVOK 07/M02 Q1029",
      "taf": "TAF LRBV 081700Z 0818/0903 07010KT CAVOK"
    },
    {
      "icao": "LRCL",
      "alert": "OK",
      "vis_m": 9999,
      "fzfg": false,
      "metar_trigger": false,
      "taf_trigger": false,
      "metar": "METAR LRCL 081730Z 00000KT CAVOK 06/M02 Q1028",
      "taf": "TAF LRCL 081700Z 0818/0903 10004KT CAVOK"
    },
    {
      "icao": "LRCV",
      "alert": "OK",
      "vis_m": 9999,
      "fzfg": false,
      "metar_trigger": false,
      "taf_trigger": false,
      "metar": "METAR LRCV 081730Z 08007KT CAVOK 06/02 Q1031",
      "taf": "TAF LRCV 081700Z 0818/0903 09008KT CAVOK"
    },
    {
      "icao": "LRIA",
      "alert": "OK",
      "vis_m": 9999,
      "fzfg": false,
      "metar_trigger": false,
      "taf_trigger": false,
      "metar": "METAR LRIA 081730Z 36008KT CAVOK 08/M01 Q1032",
      "taf": "TAF LRIA 081700Z 0818/0903 01007KT CAVOK"
    },
    {
      "icao": "LROP",
      "alert": "OK",
      "vis_m": 9999,
      "fzfg": false,
      "metar_trigger": false,
      "taf_trigger": false,
      "metar": "METAR LROP 081730Z 10004KT CAVOK 06/M02 Q1031 NOSIG",
      "taf": "TAF LROP 081700Z 0818/0918 VRB04KT CAVOK"
    },
    {
      "icao": "LRSB",
      "alert": "OK",
      "vis_m": 9999,
      "fzfg": false,
      "metar_trigger": false,
      "taf_trigger": false,
      "metar": "METAR LRSB 081730Z VRB02KT CAVOK 11/M00 Q1028",
      "taf": "TAF LRSB 081700Z 0818/0918 VRB04KT CAVOK"
    },
    {
      "icao": "LRSM",
      "alert": "OK",
      "vis_m": 9999,
      "fzfg": false,
      "metar_trigger": false,
      "taf_trigger": false,
      "metar": "METAR LRSM 081730Z AUTO 07003KT 9999 NCD 10/M00 Q1028",
      "taf": "TAF LRSM 081400Z 0815/0824 VRB04KT CAVOK"
    },
    {
      "icao": "LRSV",
      "alert": "OK",
      "vis_m": 9999,
      "fzfg": false,
      "metar_trigger": false,
      "taf_trigger": false,
      "metar": "METAR LRSV 081730Z 04003KT CAVOK 07/M02 Q1032",
      "taf": "TAF LRSV 081700Z 0818/0903 VRB04KT CAVOK"
    },
    {
      "icao": "LRTM",
      "alert": "OK",
      "vis_m": 9999,
      "fzfg": false,
      "metar_trigger": false,
      "taf_trigger": false,
      "metar": "METAR LRTM 081730Z AUTO 08005KT 9999 NCD 07/M01 Q1028",
      "taf": "TAF LRTM 081400Z 0815/0824 VRB04KT CAVOK"
    },
    {
      "icao": "LRTR",
      "alert": "OK",
      "vis_m": 9999,
      "fzfg": false,
      "metar_trigger": false,
      "taf_trigger": false,
      "metar": "METAR LRTR 081730Z 02006KT CAVOK 08/01 Q1027",
      "taf": "TAF LRTR 081700Z 0818/0918 VRB04KT CAVOK"
    },
    {
      "icao": "LTAC",
      "alert": "OK",
      "vis_m": 9999,
      "fzfg": false,
      "metar_trigger": false,
      "taf_trigger": false,
      "metar": "METAR LTAC 081750Z 03006KT CAVOK 02/M06 Q1024 NOSIG",
      "taf": "TAF LTAC 081640Z 0818/0918 03008KT CAVOK"
    },
    {
      "icao": "LTFM",
      "alert": "OK",
      "vis_m": 9999,
      "fzfg": false,
      "metar_trigger": false,
      "taf_trigger": false,
      "metar": "METAR LTFM 081750Z 06014KT 9999 BKN028 07/03 Q1030 NOSIG",
      "taf": "TAF LTFM 081640Z 0818/0924 05014KT 9999 BKN028"
    },
    {
      "icao": "LUKK",
      "alert": "OK",
      "vis_m": 9999,
      "fzfg": false,
      "metar_trigger": false,
      "taf_trigger": false,
      "metar": "METAR LUKK 081730Z 07003KT CAVOK 07/00 Q1032 NOSIG",
      "taf": "TAF LUKK 081716Z 0818/0918 VRB04KT CAVOK"
    },
    {
      "icao": "LWOH",
      "alert": "OK",
      "vis_m": 9999,
      "fzfg": false,
      "metar_trigger": false,
      "taf_trigger": false,
      "metar": "METAR LWOH 081750Z 35004KT 290V040 9999 SCT040 BKN090 11/03 Q1025",
      "taf": "TAF LWOH 081740Z 0818/0918 VRB02KT 9999 SCT040 BKN090"
    },
    {
      "icao": "LWSK",
      "alert": "OK",
      "vis_m": 9999,
      "fzfg": false,
      "metar_trigger": false,
      "taf_trigger": false,
      "metar": "METAR LWSK 081750Z 05004KT 020V090 9999 BKN090 13/04 Q1025 NOSIG",
      "taf": "TAF LWSK 081740Z 0818/0918 VRB02KT 9999 SCT050 SCT100"
    },
    {
      "icao": "LYBE",
      "alert": "OK",
      "vis_m": 9999,
      "fzfg": false,
      "metar_trigger": false,
      "taf_trigger": false,
      "metar": "METAR LYBE 081730Z 10008KT CAVOK 14/00 Q1027 NOSIG",
      "taf": "TAF LYBE 081700Z 0818/0918 10008KT CAVOK TX16/0913Z TN06/0905Z"
    },
    {
      "icao": "LYNI",
      "alert": "OK",
      "vis_m": 9999,
      "fzfg": false,
      "metar_trigger": false,
      "taf_trigger": false,
      "metar": "METAR LYNI 081730Z 05010KT 9999 SCT085 12/00 Q1026 NOSIG",
      "taf": "TAF LYNI 081700Z 0818/0918 06011KT CAVOK TX16/0913Z TN05/0905Z"
    },
    {
      "icao": "LYPG",
      "alert": "OK",
      "vis_m": 9999,
      "fzfg": false,
      "metar_trigger": false,
      "taf_trigger": false,
      "metar": "METAR LYPG 081730Z 16005KT 9999 FEW050 SCT090 15/06 Q1024 NOSIG",
      "taf": "TAF LYPG 081700Z 0818/0918 35008KT CAVOK TX18/0913Z TN07/0905Z"
    },
    {
      "icao": "LZIB",
      "alert": "OK",
      "vis_m": 9999,
      "fzfg": false,
      "metar_trigger": false,
      "taf_trigger": false,
      "metar": "METAR LZIB 081730Z VRB02KT CAVOK 12/M02 Q1027 NOSIG",
      "taf": "TAF LZIB 081715Z 0818/0918 10005KT CAVOK"
    },
    {
      "icao": "LZKZ",
      "alert": "OK",
      "vis_m": 9999,
      "fzfg": false,
      "metar_trigger": false,
      "taf_trigger": false,
      "metar": "METAR LZKZ 081730Z 35005KT CAVOK 11/M04 Q1029 NOSIG",
      "taf": "TAF LZKZ 081715Z 0818/0918 35006KT CAVOK"
    },
    {
      "icao": "LZTT",
      "alert": "OK",
      "vis_m": 9999,
      "fzfg": false,
      "metar_trigger": false,
      "taf_trigger": false,
      "metar": "METAR LZTT 081730Z VRB01KT CAVOK 04/M03 Q1029 NOSIG",
      "taf": "TAF LZTT 081715Z 0818/0918 VRB02KT CAVOK"
    },
    {
      "icao": "OEJN",
      "alert": "OK",
      "vis_m": 9999,
      "fzfg": false,
      "metar_trigger": false,
      "taf_trigger": false,
      "metar": "METAR OEJN 081700Z 33010KT CAVOK 24/14 Q1013 NOSIG",
      "taf": "TAF OEJN 081700Z 0818/0924 35006KT CAVOK"
    },
    {
      "icao": "OEMA",
      "alert": "OK",
      "vis_m": 9999,
      "fzfg": false,
      "metar_trigger": false,
      "taf_trigger": false,
      "metar": "METAR OEMA 081700Z 26007KT CAVOK 25/M07 Q1014 NOSIG",
      "taf": "TAF OEMA 081700Z 0818/0924 VRB03KT CAVOK"
    },
    {
      "icao": "OJAI",
      "alert": "OK",
      "vis_m": 5000,
      "fzfg": false,
      "metar_trigger": false,
      "taf_trigger": false,
      "metar": "METAR OJAI 081700Z 30007KT 5000 HZ NSC 08/M01 Q1019 NOSIG",
      "taf": "TAF OJAI 081700Z 0818/0924 30010KT 5000 HZ FEW030"
    },
    {
      "icao": "OMAA",
      "alert": "OK",
      "vis_m": null,
      "fzfg": false,
      "metar_trigger": false,
      "taf_trigger": false,
      "metar": "",
      "taf": ""
    },
    {
      "icao": "OMDB",
      "alert": "OK",
      "vis_m": null,
      "fzfg": false,
      "metar_trigger": false,
      "taf_trigger": false,
      "metar": "",
      "taf": ""
    },
    {
      "icao": "UAAA",
      "alert": "OK",
      "vis_m": 3500,
      "fzfg": false,
      "metar_trigger": false,
      "taf_trigger": false,
      "metar": "METAR UAAA 081730Z 35002MPS 3500 BR FU FEW100 BKN200 05/01 Q1020 NOSIG",
      "taf": "TAF UAAA 081704Z 0818/0918 17003MPS 3100 BR FU SCT050 BKN100 TX16/0909Z TN02/0902Z"
    },
    {
      "icao": "UBBB",
      "alert": "OK",
      "vis_m": 9999,
      "fzfg": false,
      "metar_trigger": false,
      "taf_trigger": false,
      "metar": "METAR UBBB 081730Z 03006KT CAVOK 06/02 Q1025 NOSIG",
      "taf": "TAF UBBB 081702Z 0818/0918 02006KT 9999 BKN035 TX08/0910Z TN04/0901Z"
    },
    {
      "icao": "UDSG",
      "alert": "OK",
      "vis_m": 9999,
      "fzfg": false,
      "metar_trigger": false,
      "taf_trigger": false,
      "metar": "METAR UDSG 081730Z 35007KT 9999 SCT049 M04/M10 Q1020 NOSIG",
      "taf": "TAF UDSG 081658Z 0818/0918 VRB06KT 9999 BKN040"
    },
    {
      "icao": "UDYZ",
      "alert": "OK",
      "vis_m": 9999,
      "fzfg": false,
      "metar_trigger": false,
      "taf_trigger": false,
      "metar": "METAR UDYZ 081730Z 36002KT 9999 FEW046 02/M01 Q1020 NOSIG",
      "taf": ""
    },
    {
      "icao": "UGKO",
      "alert": "OK",
      "vis_m": 9999,
      "fzfg": false,
      "metar_trigger": false,
      "taf_trigger": false,
      "metar": "METAR UGKO 081730Z 23012KT 9999 SCT045CB BKN055 05/02 Q1028 NOSIG",
      "taf": "TAF UGKO 081700Z 0818/0918 25010KT 9999 SCT024 BKN050 TX08/0911Z TN02/0903Z"
    }
  ]
}