{
  "ts_utc": "2025-12-25T14:58:50Z",
  "threshold_m": 150,
  "source": "stations_override.txt (ICAO list) + aviationweather.gov (METAR/TAF raw)",
  "station_count": 159,
  "stations": [
    {
      "icao": "BIKF",
      "alert": "OK",
      "vis_m": 9999,
      "fzfg": false,
      "metar_trigger": false,
      "taf_trigger": false,
      "metar": "METAR BIKF 251430Z 15023G35KT 9999 FEW009 BKN036 BKN058 08/07 Q1020",
      "taf": "TAF BIKF 251331Z 2515/2615 16022G32KT 7000 -RADZ SCT007 BKN014 TX08/2522Z TN03/2603Z"
    },
    {
      "icao": "BKPR",
      "alert": "OK",
      "vis_m": null,
      "fzfg": false,
      "metar_trigger": false,
      "taf_trigger": false,
      "metar": "",
      "taf": "TAF BKPR 251130Z 2512/2612 01014KT 9999 SCT013 BKN030"
    },
    {
      "icao": "EBCI",
      "alert": "OK",
      "vis_m": 9999,
      "fzfg": false,
      "metar_trigger": false,
      "taf_trigger": false,
      "metar": "METAR EBCI 251450Z 05012KT CAVOK M01/M06 Q1024 NOSIG",
      "taf": "TAF EBCI 251120Z 2512/2618 06012KT CAVOK"
    },
    {
      "icao": "EDDB",
      "alert": "OK",
      "vis_m": 9999,
      "fzfg": false,
      "metar_trigger": false,
      "taf_trigger": false,
      "metar": "METAR EDDB 251450Z AUTO 05006KT CAVOK M06/M09 Q1035 NOSIG",
      "taf": "TAF EDDB 251100Z 2512/2612 07008KT CAVOK"
    },
    {
      "icao": "EDDH",
      "alert": "OK",
      "vis_m": 9999,
      "fzfg": false,
      "metar_trigger": false,
      "taf_trigger": false,
      "metar": "METAR EDDH 251450Z AUTO 05005KT CAVOK M02/M10 Q1036 NOSIG",
      "taf": "TAF EDDH 251100Z 2512/2618 09009KT CAVOK"
    },
    {
      "icao": "EDDK",
      "alert": "OK",
      "vis_m": 9999,
      "fzfg": false,
      "metar_trigger": false,
      "taf_trigger": false,
      "metar": "METAR EDDK 251450Z AUTO 10003KT 040V180 CAVOK 03/M04 Q1026 NOSIG",
      "taf": "TAF EDDK 251100Z 2512/2618 09007KT CAVOK"
    },
    {
      "icao": "EDDN",
      "alert": "OK",
      "vis_m": 9999,
      "fzfg": false,
      "metar_trigger": false,
      "taf_trigger": false,
      "metar": "METAR EDDN 251450Z AUTO 08010KT 040V110 CAVOK 02/M04 Q1025 NOSIG",
      "taf": "TAF EDDN 251100Z 2512/2612 08010KT CAVOK"
    },
    {
      "icao": "EDDS",
      "alert": "OK",
      "vis_m": 9999,
      "fzfg": false,
      "metar_trigger": false,
      "taf_trigger": false,
      "metar": "METAR EDDS 251450Z AUTO 09006KT 050V120 9999 FEW028 02/M03 Q1022 NOSIG",
      "taf": "TAF EDDS 251100Z 2512/2612 07010KT 9999 BKN020"
    },
    {
      "icao": "EDFH",
      "alert": "OK",
      "vis_m": 9999,
      "fzfg": false,
      "metar_trigger": false,
      "taf_trigger": false,
      "metar": "METAR EDFH 251450Z 07009KT CAVOK M01/M05 Q1023",
      "taf": "TAF EDFH 251100Z 2512/2612 09012KT 9999 BKN015"
    },
    {
      "icao": "EDJA",
      "alert": "OK",
      "vis_m": 9999,
      "fzfg": false,
      "metar_trigger": false,
      "taf_trigger": false,
      "metar": "METAR EDJA 251450Z 06007KT 030V090 9999 BKN006 M02/M04 Q1020",
      "taf": "TAF EDJA 251400Z 2515/2524 06008KT 9999 OVC006"
    },
    {
      "icao": "EDLW",
      "alert": "OK",
      "vis_m": 9999,
      "fzfg": false,
      "metar_trigger": false,
      "taf_trigger": false,
      "metar": "METAR EDLW 251450Z 03009KT 360V060 CAVOK M02/M07 Q1028",
      "taf": "TAF EDLW 251100Z 2512/2612 05012KT CAVOK"
    },
    {
      "icao": "EDNY",
      "alert": "OK",
      "vis_m": 9999,
      "fzfg": false,
      "metar_trigger": false,
      "taf_trigger": false,
      "metar": "METAR EDNY 251450Z AUTO 04009KT 9999 // BKN013/// 00/M03 Q1021",
      "taf": "TAF EDNY 251100Z 2512/2521 03010KT 9999 FEW010"
    },
    {
      "icao": "EDSB",
      "alert": "OK",
      "vis_m": 9999,
      "fzfg": false,
      "metar_trigger": false,
      "taf_trigger": false,
      "metar": "METAR EDSB 251450Z 03012KT CAVOK 03/M03 Q1022",
      "taf": "TAF EDSB 251100Z 2512/2612 03015G25KT 9999 SCT025"
    },
    {
      "icao": "EETN",
      "alert": "OK",
      "vis_m": 9999,
      "fzfg": false,
      "metar_trigger": false,
      "taf_trigger": false,
      "metar": "METAR EETN 251450Z 28020KT 9999 FEW035 06/03 Q1016 TEMPO 28020G30KT",
      "taf": "TAF EETN 251130Z 2512/2612 27018KT 9999 SCT020"
    },
    {
      "icao": "EFTU",
      "alert": "OK",
      "vis_m": 9999,
      "fzfg": false,
      "metar_trigger": false,
      "taf_trigger": false,
      "metar": "METAR EFTU 251450Z AUTO 30014KT CAVOK 06/02 Q1018",
      "taf": "TAF EFTU 251429Z 2515/2615 29014KT CAVOK"
    },
    {
      "icao": "EGBB",
      "alert": "OK",
      "vis_m": 9999,
      "fzfg": false,
      "metar_trigger": false,
      "taf_trigger": false,
      "metar": "METAR EGBB 251450Z 05013KT CAVOK 05/M02 Q1030",
      "taf": "TAF EGBB 251059Z 2512/2612 04012KT 9999 SCT020"
    },
    {
      "icao": "EGGP",
      "alert": "OK",
      "vis_m": 9999,
      "fzfg": false,
      "metar_trigger": false,
      "taf_trigger": false,
      "metar": "METAR EGGP 251450Z AUTO 07011KT 030V090 9999 SCT030/// 05/M01 Q1032",
      "taf": ""
    },
    {
      "icao": "EGGW",
      "alert": "OK",
      "vis_m": 9999,
      "fzfg": false,
      "metar_trigger": false,
      "taf_trigger": false,
      "metar": "METAR EGGW 251450Z AUTO 05015KT 9999 NCD 03/M05 Q1027",
      "taf": "TAF EGGW 251053Z 2512/2612 05013KT 9999 FEW025"
    },
    {
      "icao": "EGKK",
      "alert": "OK",
      "vis_m": 9999,
      "fzfg": false,
      "metar_trigger": false,
      "taf_trigger": false,
      "metar": "METAR EGKK 251450Z 05020G30KT 9999 SCT028 05/M01 Q1026",
      "taf": "TAF EGKK 251056Z 2512/2618 05018G30KT 9999 FEW025"
    },
    {
      "icao": "EGNM",
      "alert": "OK",
      "vis_m": null,
      "fzfg": false,
      "metar_trigger": false,
      "taf_trigger": false,
      "metar": "",
      "taf": ""
    },
    {
      "icao": "EGPD",
      "alert": "OK",
      "vis_m": 9999,
      "fzfg": false,
      "metar_trigger": false,
      "taf_trigger": false,
      "metar": "METAR EGPD 251450Z COR AUTO 04002KT 9999 OVC022 03/01 Q1038 NOSIG",
      "taf": "TAF EGPD 251056Z 2512/2612 VRB02KT 9999 BKN020"
    },
    {
      "icao": "EGPF",
      "alert": "OK",
      "vis_m": 9999,
      "fzfg": false,
      "metar_trigger": false,
      "taf_trigger": false,
      "metar": "METAR EGPF 251450Z AUTO 09007KT 9999 OVC025 06/02 Q1037",
      "taf": "TAF EGPF 251059Z 2512/2612 07005KT 9999 FEW018 SCT025"
    },
    {
      "icao": "EHBK",
      "alert": "OK",
      "vis_m": 9999,
      "fzfg": false,
      "metar_trigger": false,
      "taf_trigger": false,
      "metar": "METAR EHBK 251455Z AUTO 05014KT 9999 NCD M01/M06 Q1026 NOSIG",
      "taf": "TAF EHBK 251049Z 2512/2618 06013KT CAVOK"
    },
    {
      "icao": "EHEH",
      "alert": "OK",
      "vis_m": 9999,
      "fzfg": false,
      "metar_trigger": false,
      "taf_trigger": false,
      "metar": "METAR EHEH 251425Z AUTO 06013KT 030V110 9999 OVC110 M00/M07 Q1028 BLU NOSIG RMK TREND REMOTE BY EHWX",
      "taf": "TAF EHEH 251107Z 2512/2618 04012KT CAVOK"
    },
    {
      "icao": "EKBI",
      "alert": "OK",
      "vis_m": 9999,
      "fzfg": false,
      "metar_trigger": false,
      "taf_trigger": false,
      "metar": "METAR EKBI 251450Z AUTO 00000KT 9999 NCD M01/M03 Q1037",
      "taf": "TAF EKBI 251427Z 2515/2615 VRB03KT CAVOK"
    },
    {
      "icao": "EKCH",
      "alert": "OK",
      "vis_m": 9999,
      "fzfg": false,
      "metar_trigger": false,
      "taf_trigger": false,
      "metar": "METAR EKCH 251450Z AUTO 28004KT 9999 NCD M00/M03 Q1038 NOSIG",
      "taf": "TAF EKCH 251427Z 2515/2615 28006KT 9999 SCT020"
    },
    {
      "icao": "ENAL",
      "alert": "OK",
      "vis_m": 9999,
      "fzfg": false,
      "metar_trigger": false,
      "taf_trigger": false,
      "metar": "METAR ENAL 251450Z 23012KT 9999 BKN020 09/05 Q1037",
      "taf": "TAF ENAL 251400Z 2515/2524 23012KT 9999 BKN020"
    },
    {
      "icao": "ENBR",
      "alert": "OK",
      "vis_m": 9999,
      "fzfg": false,
      "metar_trigger": false,
      "taf_trigger": false,
      "metar": "METAR ENBR 251450Z VRB01KT 9999 SCT029 04/03 Q1038 NOSIG RMK WIND 1200FT 35009KT",
      "taf": "TAF ENBR 251100Z 2512/2612 34008KT 9999 BKN028"
    },
    {
      "icao": "ENGM",
      "alert": "OK",
      "vis_m": 9999,
      "fzfg": false,
      "metar_trigger": false,
      "taf_trigger": false,
      "metar": "METAR ENGM 251450Z VRB01KT 9999 FEW003 M04/M05 Q1032 NOSIG",
      "taf": "TAF ENGM 251100Z 2512/2612 02005KT 9999 FEW003"
    },
    {
      "icao": "ENHD",
      "alert": "OK",
      "vis_m": 9999,
      "fzfg": false,
      "metar_trigger": false,
      "taf_trigger": false,
      "metar": "METAR ENHD 251450Z 36017KT CAVOK 06/04 Q1036",
      "taf": "TAF ENHD 250800Z 2509/2515 03005KT 9999 BKN025"
    },
    {
      "icao": "ENTC",
      "alert": "OK",
      "vis_m": 9999,
      "fzfg": false,
      "metar_trigger": false,
      "taf_trigger": false,
      "metar": "METAR ENTC 251450Z 28010KT 260V320 9999 -RA BKN032 BKN037 OVC043 04/M01 Q1015 NOSIG RMK WIND 2600FT 30037KT",
      "taf": "TAF ENTC 251100Z 2512/2612 28015KT 9999 -RA FEW009 BKN018"
    },
    {
      "icao": "ENTO",
      "alert": "OK",
      "vis_m": 9999,
      "fzfg": false,
      "metar_trigger": false,
      "taf_trigger": false,
      "metar": "METAR ENTO 251450Z 31001KT CAVOK M04/M04 Q1033 NOSIG",
      "taf": "TAF ENTO 251100Z 2512/2612 34005KT CAVOK"
    },
    {
      "icao": "ENVA",
      "alert": "OK",
      "vis_m": 9999,
      "fzfg": false,
      "metar_trigger": false,
      "taf_trigger": false,
      "metar": "METAR ENVA 251450Z 28021KT 9999 VCSH SCT018 BKN021 08/07 Q1031 NOSIG RMK WIND 670FT 28028KT",
      "taf": "TAF ENVA 251100Z 2512/2612 28018KT 9999 SCT018 BKN030"
    },
    {
      "icao": "ENZV",
      "alert": "OK",
      "vis_m": 9999,
      "fzfg": false,
      "metar_trigger": false,
      "taf_trigger": false,
      "metar": "METAR ENZV 251450Z 03003KT CAVOK 01/M00 Q1036 NOSIG",
      "taf": "TAF ENZV 251100Z 2512/2612 35008KT CAVOK"
    },
    {
      "icao": "EPGD",
      "alert": "OK",
      "vis_m": 9999,
      "fzfg": false,
      "metar_trigger": false,
      "taf_trigger": false,
      "metar": "METAR EPGD 251430Z 25005KT CAVOK M04/M10 Q1035",
      "taf": "TAF EPGD 251130Z 2512/2612 26008KT CAVOK"
    },
    {
      "icao": "EPKK",
      "alert": "OK",
      "vis_m": 9999,
      "fzfg": false,
      "metar_trigger": false,
      "taf_trigger": false,
      "metar": "METAR EPKK 251430Z 08007KT 9999 OVC008 M05/M07 Q1034",
      "taf": "TAF EPKK 251430Z 2515/2615 05010KT 9999 OVC009"
    },
    {
      "icao": "EPKT",
      "alert": "OK",
      "vis_m": 9999,
      "fzfg": false,
      "metar_trigger": false,
      "taf_trigger": false,
      "metar": "METAR EPKT 251430Z 04007KT 9999 OVC010 M05/M07 Q1034",
      "taf": "TAF EPKT 251130Z 2512/2612 06010KT 9999 OVC010"
    },
    {
      "icao": "EPLB",
      "alert": "OK",
      "vis_m": 9999,
      "fzfg": false,
      "metar_trigger": false,
      "taf_trigger": false,
      "metar": "METAR EPLB 251430Z 08003KT CAVOK M07/M12 Q1036",
      "taf": "TAF EPLB 251130Z 2512/2612 09005KT CAVOK"
    },
    {
      "icao": "EPMO",
      "alert": "OK",
      "vis_m": 9999,
      "fzfg": false,
      "metar_trigger": false,
      "taf_trigger": false,
      "metar": "METAR EPMO 251430Z 36002KT CAVOK M06/M11 Q1037",
      "taf": "TAF EPMO 251130Z 2512/2612 VRB05KT CAVOK"
    },
    {
      "icao": "EPPO",
      "alert": "OK",
      "vis_m": 9999,
      "fzfg": false,
      "metar_trigger": false,
      "taf_trigger": false,
      "metar": "METAR EPPO 251430Z 08003KT CAVOK M05/M12 Q1037",
      "taf": "TAF EPPO 251130Z 2512/2612 09005KT CAVOK"
    },
    {
      "icao": "EPRA",
      "alert": "OK",
      "vis_m": 9999,
      "fzfg": false,
      "metar_trigger": false,
      "taf_trigger": false,
      "metar": "METAR EPRA 251430Z VRB02KT CAVOK M06/M11 Q1036",
      "taf": "TAF EPRA 251430Z 2515/2524 VRB03KT CAVOK"
    },
    {
      "icao": "EPRZ",
      "alert": "OK",
      "vis_m": 9999,
      "fzfg": false,
      "metar_trigger": false,
      "taf_trigger": false,
      "metar": "METAR EPRZ 251430Z 04007KT 9999 OVC013 M04/M08 Q1035",
      "taf": "TAF EPRZ 251130Z 2512/2612 09010KT 9999 OVC010"
    },
    {
      "icao": "EPSC",
      "alert": "OK",
      "vis_m": 9999,
      "fzfg": false,
      "metar_trigger": false,
      "taf_trigger": false,
      "metar": "METAR EPSC 251430Z 11003KT CAVOK M04/M10 Q1037",
      "taf": "TAF EPSC 251130Z 2512/2612 VRB04KT CAVOK"
    },
    {
      "icao": "EPSY",
      "alert": "OK",
      "vis_m": 9999,
      "fzfg": false,
      "metar_trigger": false,
      "taf_trigger": false,
      "metar": "METAR EPSY 251430Z 21002KT CAVOK M07/M11 Q1036",
      "taf": "TAF EPSY 251430Z 2515/2524 VRB02KT CAVOK"
    },
    {
      "icao": "EPWA",
      "alert": "OK",
      "vis_m": 9999,
      "fzfg": false,
      "metar_trigger": false,
      "taf_trigger": false,
      "metar": "METAR EPWA 251430Z 22002KT CAVOK M07/M12 Q1037 NOSIG",
      "taf": "TAF EPWA 251430Z 2515/2615 VRB05KT CAVOK"
    },
    {
      "icao": "EPWR",
      "alert": "OK",
      "vis_m": 9999,
      "fzfg": false,
      "metar_trigger": false,
      "taf_trigger": false,
      "metar": "METAR EPWR 251430Z 08005KT 9999 OVC011 M04/M07 Q1035",
      "taf": "TAF EPWR 251430Z 2515/2615 08006KT 9999 OVC010"
    },
    {
      "icao": "ESGG",
      "alert": "OK",
      "vis_m": 9999,
      "fzfg": false,
      "metar_trigger": false,
      "taf_trigger": false,
      "metar": "METAR ESGG 251450Z 24006KT 9999 OVC005 01/01 Q1035",
      "taf": "TAF ESGG 251430Z 2515/2615 26005KT 9999 BKN006"
    },
    {
      "icao": "ESKN",
      "alert": "OK",
      "vis_m": 9999,
      "fzfg": false,
      "metar_trigger": false,
      "taf_trigger": false,
      "metar": "METAR ESKN 251450Z 28013KT CAVOK 01/M00 Q1029",
      "taf": "TAF ESKN 251430Z 2515/2615 29014KT CAVOK"
    },
    {
      "icao": "ESMS",
      "alert": "OK",
      "vis_m": 9999,
      "fzfg": false,
      "metar_trigger": false,
      "taf_trigger": false,
      "metar": "METAR ESMS 251450Z 26002KT CAVOK M02/M03 Q1037",
      "taf": "TAF ESMS 251427Z 2515/2615 VRB03KT 9999 FEW020"
    },
    {
      "icao": "ESSA",
      "alert": "OK",
      "vis_m": 9999,
      "fzfg": false,
      "metar_trigger": false,
      "taf_trigger": false,
      "metar": "METAR ESSA 251450Z 27011KT CAVOK 00/M03 Q1026 NOSIG",
      "taf": "TAF ESSA 251430Z 2515/2615 26012KT CAVOK"
    },
    {
      "icao": "EYKA",
      "alert": "OK",
      "vis_m": 9999,
      "fzfg": false,
      "metar_trigger": false,
      "taf_trigger": false,
      "metar": "METAR EYKA 251450Z 25013KT 9999 OVC019 M02/M06 Q1031",
      "taf": ""
    },
    {
      "icao": "EYPA",
      "alert": "OK",
      "vis_m": 9999,
      "fzfg": false,
      "metar_trigger": false,
      "taf_trigger": false,
      "metar": "METAR EYPA 251450Z 26006KT 170V310 9999 OVC015 03/00 Q1031",
      "taf": "TAF EYPA 251100Z 2512/2612 27012KT 9000 OVC025"
    },
    {
      "icao": "EYVI",
      "alert": "OK",
      "vis_m": 9999,
      "fzfg": false,
      "metar_trigger": false,
      "taf_trigger": false,
      "metar": "METAR EYVI 251450Z 27017KT 9999 OVC014 M02/M05 Q1030 NOSIG",
      "taf": "TAF EYVI 251100Z 2512/2612 27012KT 9000 OVC015"
    },
    {
      "icao": "GCFV",
      "alert": "OK",
      "vis_m": 9999,
      "fzfg": false,
      "metar_trigger": false,
      "taf_trigger": false,
      "metar": "METAR GCFV 251430Z 35014KT 320V020 9999 SCT035 21/10 Q1015",
      "taf": "TAF GCFV 251400Z 2515/2615 35014KT 9999 SCT035 TX22/2614Z TN15/2606Z"
    },
    {
      "icao": "GCLP",
      "alert": "OK",
      "vis_m": 9999,
      "fzfg": false,
      "metar_trigger": false,
      "taf_trigger": false,
      "metar": "METAR GCLP 251430Z 01016KT 9999 FEW030 BKN035 21/11 Q1016 NOSIG",
      "taf": "TAF GCLP 251400Z 2515/2615 36018KT 9999 FEW030 SCT040 TX22/2614Z TN16/2606Z"
    },
    {
      "icao": "GCTS",
      "alert": "OK",
      "vis_m": 9999,
      "fzfg": false,
      "metar_trigger": false,
      "taf_trigger": false,
      "metar": "METAR GCTS 251430Z VRB02KT 9999 FEW030 BKN050 21/11 Q1016 NOSIG",
      "taf": "TAF GCTS 251400Z 2515/2615 08012KT 9999 FEW030 SCT045 TX23/2614Z TN15/2606Z"
    },
    {
      "icao": "GMAD",
      "alert": "OK",
      "vis_m": 9999,
      "fzfg": false,
      "metar_trigger": false,
      "taf_trigger": false,
      "metar": "METAR GMAD 251430Z 27017KT 9999 SCT026TCU 18/11 Q1010 NOSIG",
      "taf": "TAF GMAD 251100Z 2512/2618 28012KT 8000 SCT020"
    },
    {
      "icao": "GMMN",
      "alert": "OK",
      "vis_m": 9999,
      "fzfg": false,
      "metar_trigger": false,
      "taf_trigger": false,
      "metar": "METAR GMMN 251430Z 26008KT 9999 SCT024 SCT100 15/11 Q1011 TEMPO 2500 RA",
      "taf": "TAF GMMN 251100Z 2512/2618 26012KT 9999 BKN020"
    },
    {
      "icao": "GMMX",
      "alert": "OK",
      "vis_m": 8000,
      "fzfg": false,
      "metar_trigger": false,
      "taf_trigger": false,
      "metar": "SPECI GMMX 251452Z VRB02KT 8000 SCT016 BKN020 FEW023CB 11/09 Q1012 NOSIG M0",
      "taf": "TAF GMMX 251100Z 2512/2618 22008KT 8000 SCT010 BKN020"
    },
    {
      "icao": "HEGN",
      "alert": "OK",
      "vis_m": 9999,
      "fzfg": false,
      "metar_trigger": false,
      "taf_trigger": false,
      "metar": "METAR HEGN 251400Z 36012KT CAVOK 24/09 Q1014 NOSIG",
      "taf": "TAF HEGN 251100Z 2512/2618 35014KT CAVOK"
    },
    {
      "icao": "HEMA",
      "alert": "OK",
      "vis_m": 9999,
      "fzfg": false,
      "metar_trigger": false,
      "taf_trigger": false,
      "metar": "METAR HEMA 251400Z 02014KT CAVOK 23/13 Q1013 NOSIG",
      "taf": "TAF HEMA 251100Z 2512/2618 01015KT 9999 SCT025"
    },
    {
      "icao": "HESH",
      "alert": "OK",
      "vis_m": 9999,
      "fzfg": false,
      "metar_trigger": false,
      "taf_trigger": false,
      "metar": "METAR HESH 251400Z 01006KT CAVOK 24/09 Q1013 NOSIG",
      "taf": "TAF HESH 251100Z 2512/2618 02012KT CAVOK"
    },
    {
      "icao": "HESX",
      "alert": "OK",
      "vis_m": 9999,
      "fzfg": false,
      "metar_trigger": false,
      "taf_trigger": false,
      "metar": "METAR HESX 251400Z 35012KT 9999 SCT020 20/10 Q1016 NOSIG",
      "taf": "TAF HESX 251100Z 2512/2618 03010KT CAVOK"
    },
    {
      "icao": "LATI",
      "alert": "OK",
      "vis_m": 9999,
      "fzfg": false,
      "metar_trigger": false,
      "taf_trigger": false,
      "metar": "METAR LATI 251450Z 36003KT 9999 FEW098 13/05 Q1018 NOSIG",
      "taf": "TAF LATI 251100Z 2512/2612 VRB05KT 9999 FEW045 BKN090 TX16/2512Z TN03/2601Z"
    },
    {
      "icao": "LBPD",
      "alert": "OK",
      "vis_m": 9000,
      "fzfg": false,
      "metar_trigger": false,
      "taf_trigger": false,
      "metar": "METAR LBPD 251430Z AUTO 12014KT 9000 RA FEW009/// BKN011/// OVC018/// 06/06 Q1026 TEMPO 4000 RA",
      "taf": "TAF LBPD 251100Z 2512/2612 11012KT 7000 RA BKN005 OVC010"
    },
    {
      "icao": "LBSF",
      "alert": "OK",
      "vis_m": 2800,
      "fzfg": false,
      "metar_trigger": false,
      "taf_trigger": false,
      "metar": "METAR LBSF 251430Z 11004KT 2800 -SN BKN003 OVC019 M00/M01 Q1025 BECMG 3000 BR SCT002 BKN004",
      "taf": "TAF LBSF 251100Z 2512/2612 05010KT 2000 SN BKN002 OVC007"
    },
    {
      "icao": "LBWN",
      "alert": "OK",
      "vis_m": 9999,
      "fzfg": false,
      "metar_trigger": false,
      "taf_trigger": false,
      "metar": "METAR LBWN 251430Z AUTO 04017KT 9999 -SHRA SCT011/// OVC017/// 01/00 Q1028 NOSIG",
      "taf": "TAF LBWN 251100Z 2512/2612 04020KT 9999 SCT015 OVC030"
    },
    {
      "icao": "LCLK",
      "alert": "OK",
      "vis_m": 9999,
      "fzfg": false,
      "metar_trigger": false,
      "taf_trigger": false,
      "metar": "METAR LCLK 251430Z 34012KT 9999 SCT025 FEW030CB BKN040 15/14 Q1018 RERA NOSIG",
      "taf": ""
    },
    {
      "icao": "LCPH",
      "alert": "OK",
      "vis_m": 9999,
      "fzfg": false,
      "metar_trigger": false,
      "taf_trigger": false,
      "metar": "METAR LCPH 251430Z 31007KT 9999 FEW030 19/11 Q1017 NOSIG",
      "taf": "TAF LCPH 251130Z 2512/2612 20010KT 9999 FEW025"
    },
    {
      "icao": "LEAL",
      "alert": "OK",
      "vis_m": 9999,
      "fzfg": false,
      "metar_trigger": false,
      "taf_trigger": false,
      "metar": "METAR LEAL 251430Z 33004KT 300V020 9999 RA BKN032 OVC057 11/10 Q1007 NOSIG",
      "taf": "TAF LEAL 251100Z 2512/2612 30009KT 9999 FEW030 TX11/2512Z TN06/2606Z"
    },
    {
      "icao": "LEBB",
      "alert": "OK",
      "vis_m": 9999,
      "fzfg": false,
      "metar_trigger": false,
      "taf_trigger": false,
      "metar": "METAR LEBB 251430Z VRB01KT 9999 FEW035 BKN060 08/01 Q1013 NOSIG",
      "taf": "TAF LEBB 251100Z 2512/2612 VRB03KT 9999 SCT040 TX08/2514Z TN01/2601Z"
    },
    {
      "icao": "LEBL",
      "alert": "OK",
      "vis_m": 9000,
      "fzfg": false,
      "metar_trigger": false,
      "taf_trigger": false,
      "metar": "METAR LEBL 251430Z 33006KT 9000 FEW014 BKN028 BKN034 11/08 Q1011 NOSIG",
      "taf": "TAF LEBL 251100Z 2512/2612 34008KT 9999 SCT025 TX13/2513Z TN10/2606Z"
    },
    {
      "icao": "LECH",
      "alert": "OK",
      "vis_m": 9000,
      "fzfg": false,
      "metar_trigger": false,
      "taf_trigger": false,
      "metar": "METAR LECH 251430Z AUTO 03011KT 9000 SCT023 SCT031 BKN037 07/04 Q1010",
      "taf": ""
    },
    {
      "icao": "LEMD",
      "alert": "OK",
      "vis_m": 9999,
      "fzfg": false,
      "metar_trigger": false,
      "taf_trigger": false,
      "metar": "METAR LEMD 251430Z 01004KT 310V060 9999 OVC045 04/M01 Q1009 NOSIG",
      "taf": "TAF LEMD 251100Z 2512/2618 VRB04KT 9999 SCT030 TX07/2514Z TNM00/2606Z"
    },
    {
      "icao": "LEMG",
      "alert": "OK",
      "vis_m": 9999,
      "fzfg": false,
      "metar_trigger": false,
      "taf_trigger": false,
      "metar": "METAR LEMG 251430Z 29006KT 260V320 9999 FEW040 14/07 Q1008 NOSIG",
      "taf": "TAF LEMG 251100Z 2512/2612 29010KT 9999 FEW040 TX14/2514Z TN06/2606Z"
    },
    {
      "icao": "LEVC",
      "alert": "OK",
      "vis_m": 9999,
      "fzfg": false,
      "metar_trigger": false,
      "taf_trigger": false,
      "metar": "METAR LEVC 251430Z 03012KT 350V060 9999 SCT020 BKN050 10/06 Q1009 NOSIG",
      "taf": ""
    },
    {
      "icao": "LEXJ",
      "alert": "OK",
      "vis_m": 9999,
      "fzfg": false,
      "metar_trigger": false,
      "taf_trigger": false,
      "metar": "METAR LEXJ 251430Z 11002KT 9999 FEW030 09/00 Q1013",
      "taf": "TAF LEXJ 251400Z 2515/2615 VRB03KT 9999 FEW030 TX10/2515Z TN02/2603Z"
    },
    {
      "icao": "LEZG",
      "alert": "OK",
      "vis_m": 9999,
      "fzfg": false,
      "metar_trigger": false,
      "taf_trigger": false,
      "metar": "METAR LEZG 251430Z VRB02KT 9999 FEW050 OVC070 06/M02 Q1013 NOSIG",
      "taf": "TAF LEZG 251100Z 2512/2612 31009KT 9999 BKN070 TX06/2514Z TN03/2606Z"
    },
    {
      "icao": "LEZL",
      "alert": "OK",
      "vis_m": 9999,
      "fzfg": false,
      "metar_trigger": false,
      "taf_trigger": false,
      "metar": "METAR LEZL 251430Z VRB02KT 9999 FEW022 15/09 Q1009 NOSIG",
      "taf": "TAF LEZL 251400Z 2515/2615 VRB03KT 9999 FEW040 TX15/2515Z TN06/2607Z"
    },
    {
      "icao": "LFBD",
      "alert": "OK",
      "vis_m": 9999,
      "fzfg": false,
      "metar_trigger": false,
      "taf_trigger": false,
      "metar": "METAR LFBD 251430Z AUTO 09006KT 060V130 CAVOK 06/M02 Q1015 NOSIG",
      "taf": "TAF LFBD 251100Z 2512/2618 09005KT CAVOK TX08/2615Z TN01/2608Z"
    },
    {
      "icao": "LFLL",
      "alert": "OK",
      "vis_m": 9999,
      "fzfg": false,
      "metar_trigger": false,
      "taf_trigger": false,
      "metar": "METAR LFLL 251430Z 02004KT 9999 SCT009 01/M00 Q1018 NOSIG",
      "taf": "TAF LFLL 251100Z 2512/2618 35005KT 9999 BKN008"
    },
    {
      "icao": "LFLS",
      "alert": "OK",
      "vis_m": 9999,
      "fzfg": false,
      "metar_trigger": false,
      "taf_trigger": false,
      "metar": "METAR LFLS 251430Z AUTO 36010KT CAVOK 03/01 Q1017 NOSIG",
      "taf": "TAF LFLS 251400Z 2515/2615 36005KT 9999 FEW015"
    },
    {
      "icao": "LFMN",
      "alert": "OK",
      "vis_m": 9999,
      "fzfg": false,
      "metar_trigger": false,
      "taf_trigger": false,
      "metar": "METAR LFMN 251430Z 08017KT 9999 SCT083 16/04 Q1014 NOSIG",
      "taf": "TAF LFMN 251400Z 2515/2621 05020KT CAVOK"
    },
    {
      "icao": "LFOB",
      "alert": "OK",
      "vis_m": 9999,
      "fzfg": false,
      "metar_trigger": false,
      "taf_trigger": false,
      "metar": "METAR LFOB 251430Z AUTO 06014KT CAVOK M00/M04 Q1023 NOSIG",
      "taf": "TAF LFOB 251100Z 2512/2612 05012KT CAVOK"
    },
    {
      "icao": "LFPO",
      "alert": "OK",
      "vis_m": 9999,
      "fzfg": false,
      "metar_trigger": false,
      "taf_trigger": false,
      "metar": "METAR LFPO 251430Z AUTO 05010KT CAVOK 03/M03 Q1022",
      "taf": "TAF LFPO 250500Z 2506/2612 06010G20KT CAVOK"
    },
    {
      "icao": "LFSB",
      "alert": "OK",
      "vis_m": 9999,
      "fzfg": false,
      "metar_trigger": false,
      "taf_trigger": false,
      "metar": "METAR LFSB 251430Z AUTO 03004KT 9999 OVC022 02/M02 Q1021 NOSIG",
      "taf": ""
    },
    {
      "icao": "LGAV",
      "alert": "OK",
      "vis_m": 9999,
      "fzfg": false,
      "metar_trigger": false,
      "taf_trigger": false,
      "metar": "METAR LGAV 251450Z 08002KT 9999 FEW025 14/10 Q1019 NOSIG",
      "taf": "TAF LGAV 251100Z 2512/2612 36010KT 9999 FEW020"
    },
    {
      "icao": "LGTS",
      "alert": "OK",
      "vis_m": 9999,
      "fzfg": false,
      "metar_trigger": false,
      "taf_trigger": false,
      "metar": "METAR LGTS 251450Z 31010KT 9999 FEW015 SCT035 12/09 Q1021 NOSIG",
      "taf": "TAF LGTS 251100Z 2512/2612 33016KT 8000 FEW012 BKN025"
    },
    {
      "icao": "LHBP",
      "alert": "OK",
      "vis_m": 9999,
      "fzfg": false,
      "metar_trigger": false,
      "taf_trigger": false,
      "metar": "METAR LHBP 251430Z 05006KT 9999 SCT026 BKN055 BKN080 04/M02 Q1030 NOSIG",
      "taf": "TAF LHBP 251115Z 2512/2612 05006KT 9999 BKN030 OVC060"
    },
    {
      "icao": "LHDC",
      "alert": "OK",
      "vis_m": 9999,
      "fzfg": false,
      "metar_trigger": false,
      "taf_trigger": false,
      "metar": "METAR LHDC 251415Z AUTO 03006KT 350V060 CAVOK 05/M01 Q1029",
      "taf": "TAF LHDC 250815Z 2509/2518 04012KT CAVOK"
    },
    {
      "icao": "LIBD",
      "alert": "OK",
      "vis_m": 9999,
      "fzfg": false,
      "metar_trigger": false,
      "taf_trigger": false,
      "metar": "METAR LIBD 251450Z 11008KT 9999 FEW035 14/10 Q1017",
      "taf": "TAF LIBD 251100Z 2512/2612 11010KT 9999 SCT040"
    },
    {
      "icao": "LIBG",
      "alert": "OK",
      "vis_m": 9999,
      "fzfg": false,
      "metar_trigger": false,
      "taf_trigger": false,
      "metar": "METAR LIBG 251350Z 09009KT 9999 FEW035 SCT045 15/14 Q1016",
      "taf": ""
    },
    {
      "icao": "LIBP",
      "alert": "OK",
      "vis_m": 9999,
      "fzfg": false,
      "metar_trigger": false,
      "taf_trigger": false,
      "metar": "METAR LIBP 251450Z AUTO 36003KT 330V030 9999 FEW067/// 13/07 Q1019",
      "taf": "TAF LIBP 251100Z 2512/2612 VRB05KT 9999 BKN060"
    },
    {
      "icao": "LIBR",
      "alert": "OK",
      "vis_m": 9999,
      "fzfg": false,
      "metar_trigger": false,
      "taf_trigger": false,
      "metar": "METAR LIBR 251450Z 12006KT CAVOK 14/10 Q1017",
      "taf": "TAF LIBR 251100Z 2512/2612 11015KT 9999 FEW040"
    },
    {
      "icao": "LICA",
      "alert": "OK",
      "vis_m": 9999,
      "fzfg": false,
      "metar_trigger": false,
      "taf_trigger": false,
      "metar": "METAR LICA 251450Z AUTO 08013KT 9999 SCT061/// BKN080/// 15/11 Q1015",
      "taf": "TAF LICA 251100Z 2512/2612 07012KT CAVOK"
    },
    {
      "icao": "LICC",
      "alert": "OK",
      "vis_m": 9999,
      "fzfg": false,
      "metar_trigger": false,
      "taf_trigger": false,
      "metar": "METAR LICC 251450Z 22004KT 9999 SCT040 17/15 Q1015",
      "taf": "TAF LICC 251100Z 2512/2612 27010KT 9999 FEW030 SCT050"
    },
    {
      "icao": "LICJ",
      "alert": "OK",
      "vis_m": 9999,
      "fzfg": false,
      "metar_trigger": false,
      "taf_trigger": false,
      "metar": "METAR LICJ 251450Z 19008KT 150V210 9999 FEW040 17/09 Q1013",
      "taf": "TAF LICJ 251100Z 2512/2612 21015KT 9999 SCT060"
    },
    {
      "icao": "LIMC",
      "alert": "OK",
      "vis_m": 9999,
      "fzfg": false,
      "metar_trigger": false,
      "taf_trigger": false,
      "metar": "METAR LIMC 251450Z 26004KT 220V290 9999 -RA BKN030 06/05 Q1023 NOSIG",
      "taf": "TAF LIMC 251100Z 2512/2618 VRB05KT 7000 BKN020"
    },
    {
      "icao": "LIME",
      "alert": "OK",
      "vis_m": 9999,
      "fzfg": false,
      "metar_trigger": false,
      "taf_trigger": false,
      "metar": "METAR LIME 251450Z AUTO 33002KT 9999 SCT039/// 07/06 Q1022",
      "taf": "TAF LIME 251100Z 2512/2612 VRB05KT 7000 BKN030"
    },
    {
      "icao": "LIMF",
      "alert": "OK",
      "vis_m": 8000,
      "fzfg": false,
      "metar_trigger": false,
      "taf_trigger": false,
      "metar": "METAR LIMF 251450Z 22006KT 8000 -RA BKN015 OVC035 05/03 Q1023",
      "taf": "TAF LIMF 251100Z 2512/2612 34007KT 6000 RA BKN012"
    },
    {
      "icao": "LIMJ",
      "alert": "OK",
      "vis_m": 9999,
      "fzfg": false,
      "metar_trigger": false,
      "taf_trigger": false,
      "metar": "METAR LIMJ 251450Z 03009KT 9999 SCT060 BKN080 11/01 Q1019",
      "taf": "TAF LIMJ 251100Z 2512/2612 03016KT 9999 SCT050"
    },
    {
      "icao": "LIPE",
      "alert": "OK",
      "vis_m": 9000,
      "fzfg": false,
      "metar_trigger": false,
      "taf_trigger": false,
      "metar": "METAR LIPE 251450Z 25010KT 9000 -DZ BKN008 05/05 Q1022",
      "taf": "TAF LIPE 251100Z 2512/2612 26012KT 7000 BKN008"
    },
    {
      "icao": "LIPH",
      "alert": "OK",
      "vis_m": 9999,
      "fzfg": false,
      "metar_trigger": false,
      "taf_trigger": false,
      "metar": "METAR LIPH 251450Z 08012KT 9999 BKN060 09/01 Q1023",
      "taf": "TAF LIPH 251100Z 2512/2612 05014KT 9999 FEW030"
    },
    {
      "icao": "LIPQ",
      "alert": "OK",
      "vis_m": 9999,
      "fzfg": false,
      "metar_trigger": false,
      "taf_trigger": false,
      "metar": "METAR LIPQ 251450Z AUTO 06007KT 030V100 9999 FEW230/// 09/M01 Q1024",
      "taf": "TAF LIPQ 251100Z 2512/2612 06015KT 9999 FEW050"
    },
    {
      "icao": "LIPR",
      "alert": "OK",
      "vis_m": 9999,
      "fzfg": false,
      "metar_trigger": false,
      "taf_trigger": false,
      "metar": "METAR LIPR 251450Z 11009KT 9999 -RA BKN030 SCT060 12/08 Q1020",
      "taf": "TAF LIPR 251100Z 2512/2612 08015KT 8000 BKN020"
    },
    {
      "icao": "LIPX",
      "alert": "OK",
      "vis_m": 9999,
      "fzfg": false,
      "metar_trigger": false,
      "taf_trigger": false,
      "metar": "METAR LIPX 251450Z 08008KT 9999 BKN050 10/01 Q1022",
      "taf": "TAF LIPX 251100Z 2512/2612 07008KT 9999 SCT050"
    },
    {
      "icao": "LIPY",
      "alert": "OK",
      "vis_m": 9999,
      "fzfg": false,
      "metar_trigger": false,
      "taf_trigger": false,
      "metar": "METAR LIPY 251450Z AUTO 08009KT 9999 SCT031/// BKN039/// BKN210/// 12/08 Q1019",
      "taf": "TAF LIPY 251100Z 2512/2612 10015KT 9999 SCT050"
    },
    {
      "icao": "LIPZ",
      "alert": "OK",
      "vis_m": 9999,
      "fzfg": false,
      "metar_trigger": false,
      "taf_trigger": false,
      "metar": "METAR LIPZ 251450Z 07010KT 9999 BKN055 08/02 Q1023 NOSIG",
      "taf": "TAF LIPZ 251100Z 2512/2618 07015KT 9999 FEW040"
    },
    {
      "icao": "LIRF",
      "alert": "OK",
      "vis_m": 9999,
      "fzfg": false,
      "metar_trigger": false,
      "taf_trigger": false,
      "metar": "METAR LIRF 251450Z 11003KT 070V140 9999 -DZ NSC 12/10 Q1015 NOSIG",
      "taf": "TAF LIRF 251100Z 2512/2618 11012KT 6000 FEW015 SCT050"
    },
    {
      "icao": "LIRN",
      "alert": "OK",
      "vis_m": 9999,
      "fzfg": false,
      "metar_trigger": false,
      "taf_trigger": false,
      "metar": "METAR LIRN 251450Z VRB01KT CAVOK 16/06 Q1015 NOSIG",
      "taf": "TAF LIRN 251100Z 2512/2612 VRB05KT 9999 FEW050"
    },
    {
      "icao": "LIRP",
      "alert": "OK",
      "vis_m": 9999,
      "fzfg": false,
      "metar_trigger": false,
      "taf_trigger": false,
      "metar": "METAR LIRP 251445Z 07012KT 9999 FEW040 SCT050 10/04 Q1016 NOSIG",
      "taf": "TAF LIRP 251100Z 2512/2612 09012KT 9999 SCT030 SCT070"
    },
    {
      "icao": "LIRZ",
      "alert": "OK",
      "vis_m": 9999,
      "fzfg": false,
      "metar_trigger": false,
      "taf_trigger": false,
      "metar": "METAR LIRZ 251450Z AUTO 05011KT 9999 NCD 12/06 Q1016",
      "taf": "TAF LIRZ 251100Z 2512/2612 04012KT 9999 BKN050"
    },
    {
      "icao": "LJLJ",
      "alert": "OK",
      "vis_m": 9999,
      "fzfg": false,
      "metar_trigger": false,
      "taf_trigger": false,
      "metar": "METAR LJLJ 251430Z VRB02KT 9999 FEW013 BKN057 03/00 Q1027 NOSIG",
      "taf": "TAF LJLJ 251100Z 2512/2612 VRB02KT 8000 FEW015 BKN060"
    },
    {
      "icao": "LKMT",
      "alert": "OK",
      "vis_m": 9999,
      "fzfg": false,
      "metar_trigger": false,
      "taf_trigger": false,
      "metar": "METAR LKMT 251430Z 04009KT 9999 OVC009 M04/M06 Q1033 NOSIG",
      "taf": ""
    },
    {
      "icao": "LKPR",
      "alert": "OK",
      "vis_m": 9999,
      "fzfg": false,
      "metar_trigger": false,
      "taf_trigger": false,
      "metar": "METAR LKPR 251430Z 10007KT 050V170 CAVOK M03/M06 Q1030 NOSIG",
      "taf": "TAF LKPR 251400Z 2515/2621 07008KT CAVOK"
    },
    {
      "icao": "LLBG",
      "alert": "OK",
      "vis_m": 9999,
      "fzfg": false,
      "metar_trigger": false,
      "taf_trigger": false,
      "metar": "METAR LLBG 251450Z 29006KT CAVOK 18/10 Q1016 NOSIG",
      "taf": "TAF LLBG 251115Z 2512/2612 30008KT CAVOK"
    },
    {
      "icao": "LMML",
      "alert": "OK",
      "vis_m": 9999,
      "fzfg": false,
      "metar_trigger": false,
      "taf_trigger": false,
      "metar": "METAR LMML 251445Z 21010KT 170V240 9999 FEW035 17/10 Q1016 NOSIG",
      "taf": "TAF LMML 251100Z 2512/2612 22012KT 9999 SCT025"
    },
    {
      "icao": "LOWW",
      "alert": "OK",
      "vis_m": 9999,
      "fzfg": false,
      "metar_trigger": false,
      "taf_trigger": false,
      "metar": "METAR LOWW 251450Z 04004KT 9999 FEW016 OVC017 M00/M03 Q1031 NOSIG",
      "taf": "TAF LOWW 251423Z 2515/2621 01005KT 9999 BKN020 TX01/2613Z TNM03/2604Z"
    },
    {
      "icao": "LPFR",
      "alert": "OK",
      "vis_m": 9999,
      "fzfg": false,
      "metar_trigger": false,
      "taf_trigger": false,
      "metar": "METAR LPFR 251430Z 28011KT 9999 FEW020 16/07 Q1009",
      "taf": "TAF LPFR 251100Z 2512/2612 26010KT CAVOK"
    },
    {
      "icao": "LPMA",
      "alert": "OK",
      "vis_m": 9999,
      "fzfg": false,
      "metar_trigger": false,
      "taf_trigger": false,
      "metar": "METAR LPMA 251430Z VRB06KT 9999 FEW016 19/09 Q1018",
      "taf": "TAF LPMA 251100Z 2512/2612 36012KT 9999 SCT015"
    },
    {
      "icao": "LPPR",
      "alert": "OK",
      "vis_m": 9999,
      "fzfg": false,
      "metar_trigger": false,
      "taf_trigger": false,
      "metar": "METAR LPPR 251430Z VRB02KT CAVOK 12/05 Q1011",
      "taf": "TAF LPPR 251100Z 2512/2612 03005KT 9999 SCT040"
    },
    {
      "icao": "LPPS",
      "alert": "OK",
      "vis_m": 9999,
      "fzfg": false,
      "metar_trigger": false,
      "taf_trigger": false,
      "metar": "METAR LPPS 251430Z 34013KT 9999 SCT012 18/12 Q1018",
      "taf": "TAF LPPS 251100Z 2512/2618 36012KT 9999 SCT015"
    },
    {
      "icao": "LPPT",
      "alert": "OK",
      "vis_m": 9999,
      "fzfg": false,
      "metar_trigger": false,
      "taf_trigger": false,
      "metar": "METAR LPPT 251430Z 06005KT 020V080 9999 FEW035 SCT048 11/05 Q1010",
      "taf": "TAF LPPT 251100Z 2512/2618 07007KT 9999 BKN035"
    },
    {
      "icao": "LQBK",
      "alert": "OK",
      "vis_m": 9999,
      "fzfg": false,
      "metar_trigger": false,
      "taf_trigger": false,
      "metar": "METAR LQBK 251430Z 02005KT 350V050 9999 -RA SCT010 OVC020 03/02 Q1028 REDZ NOSIG",
      "taf": "TAF LQBK 251100Z 2512/2612 04005KT 6000 SCT005 OVC012 TX04/2513Z TN00/2605Z"
    },
    {
      "icao": "LQSA",
      "alert": "OK",
      "vis_m": 9999,
      "fzfg": false,
      "metar_trigger": false,
      "taf_trigger": false,
      "metar": "METAR LQSA 251430Z 29008KT 9999 SCT023 OVC030 03/02 Q1023 NOSIG",
      "taf": "TAF LQSA 251100Z 2512/2612 28007KT 9999 SCT015 BKN035 TX03/2512Z TNM01/2606Z"
    },
    {
      "icao": "LQTZ",
      "alert": "OK",
      "vis_m": 9999,
      "fzfg": false,
      "metar_trigger": false,
      "taf_trigger": false,
      "metar": "METAR LQTZ 251430Z VRB03KT 9999 -RA FEW010 SCT015 OVC024 02/02 Q1026",
      "taf": "TAF LQTZ 251100Z 2512/2612 04005KT 7000 BKN007 OVC015 TX04/2513Z TN00/2605Z"
    },
    {
      "icao": "LRBC",
      "alert": "OK",
      "vis_m": 9999,
      "fzfg": false,
      "metar_trigger": false,
      "taf_trigger": false,
      "metar": "METAR LRBC 251430Z 34006KT 9999 OVC011 M05/M07 Q1035",
      "taf": "TAF LRBC 251400Z 2515/2524 35008KT 9999 BKN010 OVC025"
    },
    {
      "icao": "LRBS",
      "alert": "OK",
      "vis_m": 9999,
      "fzfg": false,
      "metar_trigger": false,
      "taf_trigger": false,
      "metar": "METAR LRBS 251430Z 04016KT 9999 OVC022 M02/M07 Q1033 NOSIG",
      "taf": "TAF LRBS 251100Z 2512/2612 05016G26KT 9999 BKN025"
    },
    {
      "icao": "LRBV",
      "alert": "OK",
      "vis_m": 9999,
      "fzfg": false,
      "metar_trigger": false,
      "taf_trigger": false,
      "metar": "METAR LRBV 251430Z VRB02KT 9999 SCT064 M01/M10 Q1029",
      "taf": "TAF LRBV 251400Z 2515/2524 10010KT 9999 BKN045"
    },
    {
      "icao": "LRCL",
      "alert": "OK",
      "vis_m": 9999,
      "fzfg": false,
      "metar_trigger": false,
      "taf_trigger": false,
      "metar": "METAR LRCL 251430Z 15005KT 9999 SCT071 03/M03 Q1029",
      "taf": "TAF LRCL 251400Z 2515/2524 10004KT CAVOK"
    },
    {
      "icao": "LRCV",
      "alert": "OK",
      "vis_m": 2500,
      "fzfg": false,
      "metar_trigger": false,
      "taf_trigger": false,
      "metar": "METAR LRCV 251430Z 07014KT 2500 -SN FEW003 SCT007 OVC022 M02/M03 Q1032",
      "taf": "TAF LRCV 251400Z 2515/2524 07010KT 1000 SN BKN010 OVC015"
    },
    {
      "icao": "LRIA",
      "alert": "OK",
      "vis_m": 9999,
      "fzfg": false,
      "metar_trigger": false,
      "taf_trigger": false,
      "metar": "METAR LRIA 251430Z 29005KT CAVOK M07/M09 Q1035",
      "taf": "TAF LRIA 251400Z 2515/2524 32005KT CAVOK"
    },
    {
      "icao": "LROP",
      "alert": "OK",
      "vis_m": 9999,
      "fzfg": false,
      "metar_trigger": false,
      "taf_trigger": false,
      "metar": "METAR LROP 251430Z 06017KT 9999 BKN026 M02/M09 Q1033 NOSIG",
      "taf": "TAF LROP 251100Z 2512/2612 05022KT 9999 BKN030"
    },
    {
      "icao": "LRSB",
      "alert": "OK",
      "vis_m": 9999,
      "fzfg": false,
      "metar_trigger": false,
      "taf_trigger": false,
      "metar": "METAR LRSB 251430Z 13004KT 9999 FEW020 BKN065 02/M02 Q1029",
      "taf": "TAF LRSB 251100Z 2512/2612 VRB04KT 9999 OVC020"
    },
    {
      "icao": "LRSM",
      "alert": "OK",
      "vis_m": 9999,
      "fzfg": false,
      "metar_trigger": false,
      "taf_trigger": false,
      "metar": "METAR LRSM 251430Z 05005KT CAVOK 05/M02 Q1030",
      "taf": "TAF LRSM 251400Z 2515/2524 07006KT CAVOK"
    },
    {
      "icao": "LRSV",
      "alert": "CRITICAL",
      "vis_m": 100,
      "fzfg": true,
      "metar_trigger": true,
      "taf_trigger": true,
      "metar": "METAR LRSV 251430Z VRB02KT 0100 R34/0400N FZFG VV002 M08/M09 Q1032",
      "taf": "TAF LRSV 251400Z 2515/2524 VRB04KT 0100 FZFG VV001"
    },
    {
      "icao": "LRTM",
      "alert": "OK",
      "vis_m": 9999,
      "fzfg": false,
      "metar_trigger": false,
      "taf_trigger": false,
      "metar": "METAR LRTM 251430Z 07002KT CAVOK 04/M03 Q1029",
      "taf": "TAF LRTM 251400Z 2515/2524 VRB04KT CAVOK"
    },
    {
      "icao": "LRTR",
      "alert": "OK",
      "vis_m": 9999,
      "fzfg": false,
      "metar_trigger": false,
      "taf_trigger": false,
      "metar": "METAR LRTR 251430Z 30004KT CAVOK 06/03 Q1029",
      "taf": "TAF LRTR 251100Z 2512/2612 VRB04KT CAVOK"
    },
    {
      "icao": "LTAC",
      "alert": "OK",
      "vis_m": 9999,
      "fzfg": false,
      "metar_trigger": false,
      "taf_trigger": false,
      "metar": "METAR LTAC 251420Z 04008KT 9999 SCT035 BKN100 05/02 Q1021 NOSIG RMK RWY21C 03007KT RWY03L 04007KT RWY21R 02007KT RWY03R 02007KT RWY21L 03006KT",
      "taf": "TAF LTAC 251040Z 2512/2612 VRB02KT 7000 SCT035 BKN090"
    },
    {
      "icao": "LTFM",
      "alert": "OK",
      "vis_m": 8000,
      "fzfg": false,
      "metar_trigger": false,
      "taf_trigger": false,
      "metar": "METAR LTFM 251420Z 07022KT 8000 -RA BKN012 BKN022 10/08 Q1023 NOSIG RMK RWY17L 07024KT RWY34L 06020KT RWY16R 07025KT RWY36 07022KT RWY18 07023KT",
      "taf": "TAF LTFM 251040Z 2512/2618 07019G29KT 8000 -RA BKN012 BKN022"
    },
    {
      "icao": "LUKK",
      "alert": "OK",
      "vis_m": 9999,
      "fzfg": false,
      "metar_trigger": false,
      "taf_trigger": false,
      "metar": "METAR LUKK 251430Z 03006KT CAVOK M06/M12 Q1035 NOSIG",
      "taf": "TAF LUKK 251120Z 2512/2612 35009KT CAVOK"
    },
    {
      "icao": "LWOH",
      "alert": "OK",
      "vis_m": 9999,
      "fzfg": false,
      "metar_trigger": false,
      "taf_trigger": false,
      "metar": "METAR LWOH 251450Z 31003KT 9999 FEW020 BKN040 06/04 Q1020",
      "taf": "TAF LWOH 251415Z 2515/2615 34006KT 9999 FEW015 BKN035"
    },
    {
      "icao": "LWSK",
      "alert": "OK",
      "vis_m": 9999,
      "fzfg": false,
      "metar_trigger": false,
      "taf_trigger": false,
      "metar": "METAR LWSK 251450Z 02009KT 9999 FEW020 OVC040 05/03 Q1024 NOSIG",
      "taf": "TAF LWSK 251415Z 2515/2615 02008KT 9999 SCT015 OVC040"
    },
    {
      "icao": "LYBE",
      "alert": "OK",
      "vis_m": 5000,
      "fzfg": false,
      "metar_trigger": false,
      "taf_trigger": false,
      "metar": "METAR LYBE 251430Z 10012KT 5000 -SN BKN015 BKN033 01/M01 Q1029 NOSIG",
      "taf": "TAF LYBE 251100Z 2512/2612 10014KT 9999 SCT015 BKN033 TX03/2612Z TNM01/2606Z"
    },
    {
      "icao": "LYNI",
      "alert": "OK",
      "vis_m": 9999,
      "fzfg": false,
      "metar_trigger": false,
      "taf_trigger": false,
      "metar": "METAR LYNI 251430Z 08006KT 030V110 9999 FEW011 BKN028 OVC085 01/M04 Q1027 NOSIG",
      "taf": "TAF LYNI 251100Z 2512/2612 36005KT 9999 SCT013 BKN025 OVC070 TX02/2612Z TNM01/2606Z"
    },
    {
      "icao": "LYPG",
      "alert": "OK",
      "vis_m": 9999,
      "fzfg": false,
      "metar_trigger": false,
      "taf_trigger": false,
      "metar": "METAR LYPG 251430Z 18004KT 9999 FEW070 12/06 Q1019 NOSIG",
      "taf": "TAF LYPG 251100Z 2512/2612 18005KT CAVOK TX14/2513Z TN01/2605Z"
    },
    {
      "icao": "LZIB",
      "alert": "OK",
      "vis_m": 9999,
      "fzfg": false,
      "metar_trigger": false,
      "taf_trigger": false,
      "metar": "METAR LZIB 251430Z 04005KT 9999 OVC023 03/M02 Q1031 NOSIG",
      "taf": "TAF LZIB 251115Z 2512/2612 04006KT 9999 BKN040"
    },
    {
      "icao": "LZKZ",
      "alert": "OK",
      "vis_m": 9999,
      "fzfg": false,
      "metar_trigger": false,
      "taf_trigger": false,
      "metar": "METAR LZKZ 251430Z 03010KT 9999 FEW046 00/M04 Q1030 NOSIG",
      "taf": "TAF LZKZ 251115Z 2512/2612 01016KT CAVOK"
    },
    {
      "icao": "LZTT",
      "alert": "OK",
      "vis_m": 9999,
      "fzfg": false,
      "metar_trigger": false,
      "taf_trigger": false,
      "metar": "METAR LZTT 251430Z 08003KT 9999 FEW060 M03/M05 Q1029 NOSIG",
      "taf": "TAF LZTT 251115Z 2512/2612 05003KT CAVOK"
    },
    {
      "icao": "OEJN",
      "alert": "OK",
      "vis_m": 8000,
      "fzfg": false,
      "metar_trigger": false,
      "taf_trigger": false,
      "metar": "METAR OEJN 251400Z 30008KT 8000 SCT040 28/23 Q1011 NOSIG",
      "taf": "TAF OEJN 251100Z 2512/2618 30010KT 7000 FEW040"
    },
    {
      "icao": "OEMA",
      "alert": "OK",
      "vis_m": 9999,
      "fzfg": false,
      "metar_trigger": false,
      "taf_trigger": false,
      "metar": "METAR OEMA 251400Z 01006KT CAVOK 24/03 Q1016 NOSIG",
      "taf": "TAF OEMA 251100Z 2512/2618 11010KT 7000 SCT045"
    },
    {
      "icao": "OJAI",
      "alert": "OK",
      "vis_m": 5000,
      "fzfg": false,
      "metar_trigger": false,
      "taf_trigger": false,
      "metar": "METAR OJAI 251400Z 09009KT 5000 HZ NSC 15/03 Q1018 NOSIG",
      "taf": "TAF OJAI 251031Z 2512/2618 12008KT 5000 HZ FEW035"
    },
    {
      "icao": "OMAA",
      "alert": "OK",
      "vis_m": 9999,
      "fzfg": false,
      "metar_trigger": false,
      "taf_trigger": false,
      "metar": "METAR OMAA 251400Z 30009KT 9999 FEW040 22/14 Q1016 NOSIG",
      "taf": "TAF OMAA 251100Z 2512/2618 32011KT 8000 FEW040"
    },
    {
      "icao": "OMDB",
      "alert": "OK",
      "vis_m": 9999,
      "fzfg": false,
      "metar_trigger": false,
      "taf_trigger": false,
      "metar": "METAR OMDB 251430Z 34006KT 300V020 9999 FEW045 23/16 Q1016 NOSIG",
      "taf": "TAF OMDB 251100Z 2512/2618 31010KT 8000 FEW040"
    },
    {
      "icao": "UAAA",
      "alert": "OK",
      "vis_m": 1500,
      "fzfg": false,
      "metar_trigger": false,
      "taf_trigger": false,
      "metar": "METAR UAAA 251430Z VRB01MPS 1500 R05R/P2000 BR OVC100 M01/M05 Q1015 NOSIG",
      "taf": "TAF UAAA 251102Z 2512/2612 22003MPS 3100 BR FU SCT011 OVC030 TX04/2609Z TNM06/2601Z"
    },
    {
      "icao": "UBBB",
      "alert": "OK",
      "vis_m": 9999,
      "fzfg": false,
      "metar_trigger": false,
      "taf_trigger": false,
      "metar": "METAR UBBB 251430Z 36016KT 9999 -SHRA SCT032CB OVC049 04/01 Q1028 NOSIG",
      "taf": "TAF UBBB 251055Z 2512/2612 32018G28KT 9999 SCT015 FEW030CB OVC030 TX05/2512Z TN03/2602Z"
    },
    {
      "icao": "UDSG",
      "alert": "OK",
      "vis_m": 9999,
      "fzfg": false,
      "metar_trigger": false,
      "taf_trigger": false,
      "metar": "METAR UDSG 251430Z 19003KT 9999 OVC036 01/M04 Q1020 NOSIG",
      "taf": ""
    },
    {
      "icao": "UDYZ",
      "alert": "OK",
      "vis_m": 3300,
      "fzfg": false,
      "metar_trigger": false,
      "taf_trigger": false,
      "metar": "METAR UDYZ 251430Z 28001KT 3300 BR NSC 02/M03 Q1021 NOSIG",
      "taf": "TAF UDYZ 251100Z 2512/2612 VRB04KT 6000 FEW040"
    },
    {
      "icao": "UGKO",
      "alert": "OK",
      "vis_m": 9999,
      "fzfg": false,
      "metar_trigger": false,
      "taf_trigger": false,
      "metar": "METAR UGKO 251430Z 21007KT 9999 SCT023 BKN050 08/04 Q1023 NOSIG",
      "taf": "TAF UGKO 251100Z 2512/2612 09006KT 9000 SCT023 OVC050 TX09/2512Z TN04/2603Z"
    }
  ]
}