{
  "ts_utc": "2026-03-14T08:37:32Z",
  "threshold_m": 150,
  "source": "stations_override.txt (ICAO list) + aviationweather.gov (METAR/TAF raw)",
  "station_count": 159,
  "stations": [
    {
      "icao": "BIKF",
      "alert": "OK",
      "vis_m": 9999,
      "fzfg": false,
      "metar_trigger": false,
      "taf_trigger": false,
      "metar": "METAR BIKF 140830Z 24005KT 9999 SCT025 M00/M02 Q0990",
      "taf": "TAF BIKF 140759Z 1409/1509 VRB03KT 9999 FEW025 SCT035 TX04/1415Z TNM01/1409Z"
    },
    {
      "icao": "BKPR",
      "alert": "OK",
      "vis_m": 9999,
      "fzfg": false,
      "metar_trigger": false,
      "taf_trigger": false,
      "metar": "METAR BKPR 140830Z 15004KT CAVOK 08/03 Q1013 NOSIG",
      "taf": "TAF BKPR 140530Z 1406/1506 16007KT CAVOK"
    },
    {
      "icao": "EBCI",
      "alert": "OK",
      "vis_m": 4000,
      "fzfg": false,
      "metar_trigger": false,
      "taf_trigger": false,
      "metar": "METAR EBCI 140820Z 22008KT 4000 -SNRA SCT004 BKN006 01/01 Q1001 NOSIG",
      "taf": "TAF EBCI 140503Z 1406/1512 29008KT 9999 BKN012"
    },
    {
      "icao": "EDDB",
      "alert": "OK",
      "vis_m": 9999,
      "fzfg": false,
      "metar_trigger": false,
      "taf_trigger": false,
      "metar": "METAR EDDB 140820Z AUTO 19009KT CAVOK 13/06 Q0998 NOSIG",
      "taf": "TAF EDDB 140500Z 1406/1506 17008KT 9999 SCT020"
    },
    {
      "icao": "EDDH",
      "alert": "OK",
      "vis_m": 9999,
      "fzfg": false,
      "metar_trigger": false,
      "taf_trigger": false,
      "metar": "METAR EDDH 140820Z AUTO VRB02KT 9999 FEW006 SCT043 05/03 Q1000 TEMPO BKN007",
      "taf": "TAF EDDH 140500Z 1406/1512 28004KT 9999 BKN020"
    },
    {
      "icao": "EDDK",
      "alert": "OK",
      "vis_m": 9999,
      "fzfg": false,
      "metar_trigger": false,
      "taf_trigger": false,
      "metar": "METAR EDDK 140820Z AUTO 12003KT 090V150 9999 -RADZ SCT007 BKN023 OVC030 03/03 Q1000 TEMPO BKN007",
      "taf": "TAF EDDK 140500Z 1406/1512 19004KT 9999 SCT010 BKN020"
    },
    {
      "icao": "EDDN",
      "alert": "OK",
      "vis_m": 9999,
      "fzfg": false,
      "metar_trigger": false,
      "taf_trigger": false,
      "metar": "METAR EDDN 140820Z AUTO 28010KT 230V320 9999 FEW028 10/04 Q1000 NOSIG",
      "taf": "TAF EDDN 140500Z 1406/1506 13007KT CAVOK"
    },
    {
      "icao": "EDDS",
      "alert": "OK",
      "vis_m": 9999,
      "fzfg": false,
      "metar_trigger": false,
      "taf_trigger": false,
      "metar": "METAR EDDS 140820Z AUTO 30008KT 260V330 9999 SHRA FEW009 BKN030 OVC037 FEW///TCU 06/04 Q1000 TEMPO NSW",
      "taf": "TAF EDDS 140500Z 1406/1506 26010KT 9999 BKN040"
    },
    {
      "icao": "EDFH",
      "alert": "OK",
      "vis_m": 9999,
      "fzfg": false,
      "metar_trigger": false,
      "taf_trigger": false,
      "metar": "METAR EDFH 140820Z 22006KT 9999 BKN005 OVC008 03/02 Q0999",
      "taf": "TAF EDFH 140500Z 1406/1506 26010KT 9999 BKN020"
    },
    {
      "icao": "EDJA",
      "alert": "OK",
      "vis_m": 9999,
      "fzfg": false,
      "metar_trigger": false,
      "taf_trigger": false,
      "metar": "METAR EDJA 140820Z 29010KT 9999 BKN034 08/02 Q1000",
      "taf": "TAF EDJA 140800Z 1409/1418 28010KT 9999 BKN030"
    },
    {
      "icao": "EDLW",
      "alert": "OK",
      "vis_m": 9999,
      "fzfg": false,
      "metar_trigger": false,
      "taf_trigger": false,
      "metar": "METAR EDLW 140820Z 11003KT 060V160 9999 -DZ FEW006 OVC025 03/02 Q1000",
      "taf": "TAF EDLW 140500Z 1406/1506 19005KT 9999 SCT010 BKN020"
    },
    {
      "icao": "EDNY",
      "alert": "OK",
      "vis_m": 9999,
      "fzfg": false,
      "metar_trigger": false,
      "taf_trigger": false,
      "metar": "METAR EDNY 140820Z 26010KT 230V300 9999 OVC029 08/04 Q1001",
      "taf": "TAF EDNY 140800Z 1409/1418 27007KT 9999 BKN035"
    },
    {
      "icao": "EDSB",
      "alert": "OK",
      "vis_m": 9999,
      "fzfg": false,
      "metar_trigger": false,
      "taf_trigger": false,
      "metar": "METAR EDSB 140820Z 23009KT 190V260 9999 RA FEW019 BKN024 OVC031 06/04 Q1002",
      "taf": "TAF EDSB 140500Z 1406/1506 23008KT 9999 BKN015"
    },
    {
      "icao": "EETN",
      "alert": "OK",
      "vis_m": 9999,
      "fzfg": false,
      "metar_trigger": false,
      "taf_trigger": false,
      "metar": "METAR EETN 140820Z 19012G23KT 160V230 CAVOK 10/03 Q1007 NOSIG",
      "taf": "TAF EETN 140530Z 1406/1506 17012KT CAVOK"
    },
    {
      "icao": "EFTU",
      "alert": "OK",
      "vis_m": 9000,
      "fzfg": false,
      "metar_trigger": false,
      "taf_trigger": false,
      "metar": "METAR EFTU 140820Z AUTO 16008KT 9000 SCT008 05/04 Q1003",
      "taf": "TAF EFTU 140528Z 1406/1506 16006KT 4000 -DZRA FEW009 BKN040"
    },
    {
      "icao": "EGBB",
      "alert": "OK",
      "vis_m": 9999,
      "fzfg": false,
      "metar_trigger": false,
      "taf_trigger": false,
      "metar": "METAR EGBB 140820Z 28005KT 9999 SCT037 05/01 Q1003",
      "taf": "TAF EGBB 140456Z 1406/1506 28008KT 9999 FEW045"
    },
    {
      "icao": "EGGP",
      "alert": "OK",
      "vis_m": 9999,
      "fzfg": false,
      "metar_trigger": false,
      "taf_trigger": false,
      "metar": "METAR EGGP 140820Z 29009KT 9999 FEW017 07/04 Q1003",
      "taf": "TAF EGGP 140455Z 1406/1506 27008KT 9999 FEW030"
    },
    {
      "icao": "EGGW",
      "alert": "OK",
      "vis_m": 9999,
      "fzfg": false,
      "metar_trigger": false,
      "taf_trigger": false,
      "metar": "METAR EGGW 140820Z AUTO 29009KT 9999 NCD 03/02 Q1002",
      "taf": "TAF EGGW 140456Z 1406/1506 29010KT 9999 FEW045"
    },
    {
      "icao": "EGKK",
      "alert": "OK",
      "vis_m": 9999,
      "fzfg": false,
      "metar_trigger": false,
      "taf_trigger": false,
      "metar": "METAR EGKK 140820Z COR 30007KT 9999 FEW008 04/02 Q1003",
      "taf": "TAF EGKK 140454Z 1406/1512 22004KT CAVOK"
    },
    {
      "icao": "EGNM",
      "alert": "OK",
      "vis_m": 9999,
      "fzfg": false,
      "metar_trigger": false,
      "taf_trigger": false,
      "metar": "METAR EGNM 140820Z 29014KT CAVOK 04/02 Q1001",
      "taf": "TAF EGNM 140558Z 1406/1506 27009KT 9999 FEW020"
    },
    {
      "icao": "EGPD",
      "alert": "OK",
      "vis_m": 9999,
      "fzfg": false,
      "metar_trigger": false,
      "taf_trigger": false,
      "metar": "METAR EGPD 140820Z COR AUTO 26005KT 220V290 9999 NCD 06/M01 Q0998 NOSIG",
      "taf": "TAF EGPD 140456Z 1406/1506 25009KT 9999 FEW040"
    },
    {
      "icao": "EGPF",
      "alert": "OK",
      "vis_m": 9999,
      "fzfg": false,
      "metar_trigger": false,
      "taf_trigger": false,
      "metar": "METAR EGPF 140820Z AUTO 23003KT 210V270 9999 NCD 02/01 Q1001",
      "taf": "TAF EGPF 140456Z 1406/1506 26006KT 9999 FEW030"
    },
    {
      "icao": "EHBK",
      "alert": "OK",
      "vis_m": 2800,
      "fzfg": false,
      "metar_trigger": false,
      "taf_trigger": false,
      "metar": "METAR EHBK 140825Z AUTO 24003KT 210V270 2800 -SN BKN001 OVC007 01/M00 Q1000 TEMPO 4000 BKN002",
      "taf": ""
    },
    {
      "icao": "EHEH",
      "alert": "OK",
      "vis_m": 5000,
      "fzfg": false,
      "metar_trigger": false,
      "taf_trigger": false,
      "metar": "METAR EHEH 140825Z AUTO 28003KT 250V340 5000 -SHRA FEW001 OVC009 04/03 Q1000 GRN TEMPO 4500 RA SCT010 BKN014 RMK TREND REMOTE BY EHWX",
      "taf": "TAF EHEH 140530Z 1406/1512 20003KT 6000 BKN018"
    },
    {
      "icao": "EKBI",
      "alert": "OK",
      "vis_m": 9999,
      "fzfg": false,
      "metar_trigger": false,
      "taf_trigger": false,
      "metar": "METAR EKBI 140820Z AUTO 16006KT 130V190 9999 OVC005/// 04/03 Q0999",
      "taf": "TAF EKBI 140827Z 1409/1509 19006KT 8000 BKN005"
    },
    {
      "icao": "EKCH",
      "alert": "OK",
      "vis_m": 9999,
      "fzfg": false,
      "metar_trigger": false,
      "taf_trigger": false,
      "metar": "METAR EKCH 140820Z 02008KT 9999 -RA FEW007 BKN035 03/02 Q1000 TEMPO BKN010",
      "taf": "TAF EKCH 140827Z 1409/1509 02007KT 9999 -RA FEW008 BKN030"
    },
    {
      "icao": "ENAL",
      "alert": "OK",
      "vis_m": 9999,
      "fzfg": false,
      "metar_trigger": false,
      "taf_trigger": false,
      "metar": "METAR ENAL 140820Z 20011KT 170V230 9999 FEW044 SCT057 07/00 Q0988",
      "taf": "TAF ENAL 140800Z 1409/1418 20012KT 9999 SCT025"
    },
    {
      "icao": "ENBR",
      "alert": "OK",
      "vis_m": 9999,
      "fzfg": false,
      "metar_trigger": false,
      "taf_trigger": false,
      "metar": "METAR ENBR 140820Z 16014KT 9999 -SHRA FEW012CB SCT020 BKN030 04/03 Q0993 TEMPO 4000 SHRA BKN007 SCT014CB RMK WIND 1200FT 19018KT",
      "taf": "TAF ENBR 140500Z 1406/1506 17015KT 9999 FEW007 BKN020"
    },
    {
      "icao": "ENGM",
      "alert": "OK",
      "vis_m": 9999,
      "fzfg": false,
      "metar_trigger": false,
      "taf_trigger": false,
      "metar": "METAR ENGM 140820Z 18007KT 9999 -RA OVC004 02/01 Q0997 NOSIG",
      "taf": "TAF ENGM 140500Z 1406/1506 18007KT 9000 BKN005"
    },
    {
      "icao": "ENHD",
      "alert": "OK",
      "vis_m": 9999,
      "fzfg": false,
      "metar_trigger": false,
      "taf_trigger": false,
      "metar": "METAR ENHD 140820Z 18009KT 9999 FEW025 BKN037 06/04 Q0995",
      "taf": "TAF ENHD 140800Z 1409/1418 16010KT 9999 FEW008 BKN020"
    },
    {
      "icao": "ENTC",
      "alert": "OK",
      "vis_m": 9999,
      "fzfg": false,
      "metar_trigger": false,
      "taf_trigger": false,
      "metar": "METAR ENTC 140820Z 26009KT 9999 -RASN BKN018 03/01 Q0987 NOSIG RMK WIND 2600FT 25022KT",
      "taf": ""
    },
    {
      "icao": "ENTO",
      "alert": "OK",
      "vis_m": 6000,
      "fzfg": false,
      "metar_trigger": false,
      "taf_trigger": false,
      "metar": "METAR ENTO 140820Z 18005KT 6000 BKN002 OVC003 03/03 Q0998 TEMPO 4000 BR",
      "taf": "TAF ENTO 140500Z 1406/1506 20007KT 8000 BKN005"
    },
    {
      "icao": "ENVA",
      "alert": "OK",
      "vis_m": 9999,
      "fzfg": false,
      "metar_trigger": false,
      "taf_trigger": false,
      "metar": "METAR ENVA 140820Z 15012KT CAVOK 05/M02 Q0991 TEMPO 16018G28KT RMK WIND 670FT 17022KT",
      "taf": "TAF ENVA 140500Z 1406/1506 15015KT CAVOK"
    },
    {
      "icao": "ENZV",
      "alert": "OK",
      "vis_m": 9999,
      "fzfg": false,
      "metar_trigger": false,
      "taf_trigger": false,
      "metar": "METAR ENZV 140820Z 17006KT 9999 FEW010 SCT014 OVC040 05/04 Q0996 REDZ REDZRA NOSIG",
      "taf": "TAF ENZV 140500Z 1406/1506 19009KT 9999 SCT015 BKN030"
    },
    {
      "icao": "EPGD",
      "alert": "OK",
      "vis_m": 9999,
      "fzfg": false,
      "metar_trigger": false,
      "taf_trigger": false,
      "metar": "METAR EPGD 140830Z 16012KT CAVOK 12/05 Q1002",
      "taf": "TAF EPGD 140530Z 1406/1506 17010KT CAVOK"
    },
    {
      "icao": "EPKK",
      "alert": "OK",
      "vis_m": 9999,
      "fzfg": false,
      "metar_trigger": false,
      "taf_trigger": false,
      "metar": "METAR EPKK 140830Z 14011KT CAVOK 14/M02 Q1007",
      "taf": "TAF EPKK 140830Z 1409/1509 09009KT CAVOK"
    },
    {
      "icao": "EPKT",
      "alert": "OK",
      "vis_m": 9999,
      "fzfg": false,
      "metar_trigger": false,
      "taf_trigger": false,
      "metar": "METAR EPKT 140830Z 14015KT CAVOK 14/M03 Q1006",
      "taf": "TAF EPKT 140530Z 1406/1506 13010KT CAVOK"
    },
    {
      "icao": "EPLB",
      "alert": "OK",
      "vis_m": 9999,
      "fzfg": false,
      "metar_trigger": false,
      "taf_trigger": false,
      "metar": "METAR EPLB 140830Z 16006KT CAVOK 13/02 Q1011",
      "taf": "TAF EPLB 140530Z 1406/1506 13007KT CAVOK"
    },
    {
      "icao": "EPMO",
      "alert": "OK",
      "vis_m": 9999,
      "fzfg": false,
      "metar_trigger": false,
      "taf_trigger": false,
      "metar": "METAR EPMO 140830Z 14011KT 100V170 CAVOK 13/03 Q1007",
      "taf": "TAF EPMO 140530Z 1406/1506 16008KT CAVOK"
    },
    {
      "icao": "EPPO",
      "alert": "OK",
      "vis_m": 9999,
      "fzfg": false,
      "metar_trigger": false,
      "taf_trigger": false,
      "metar": "METAR EPPO 140830Z 17013KT CAVOK 14/04 Q1002",
      "taf": "TAF EPPO 140530Z 1406/1506 16010KT CAVOK"
    },
    {
      "icao": "EPRA",
      "alert": "OK",
      "vis_m": 9999,
      "fzfg": false,
      "metar_trigger": false,
      "taf_trigger": false,
      "metar": "METAR EPRA 140830Z 17012KT 140V200 CAVOK 12/01 Q1009",
      "taf": "TAF EPRA 140830Z 1409/1418 15012KT CAVOK"
    },
    {
      "icao": "EPRZ",
      "alert": "OK",
      "vis_m": 9999,
      "fzfg": false,
      "metar_trigger": false,
      "taf_trigger": false,
      "metar": "METAR EPRZ 140830Z 18013KT CAVOK 14/M01 Q1011",
      "taf": "TAF EPRZ 140530Z 1406/1506 12006KT CAVOK"
    },
    {
      "icao": "EPSC",
      "alert": "OK",
      "vis_m": 9999,
      "fzfg": false,
      "metar_trigger": false,
      "taf_trigger": false,
      "metar": "METAR EPSC 140830Z 15011KT CAVOK 10/04 Q0999",
      "taf": "TAF EPSC 140530Z 1406/1506 14010KT CAVOK"
    },
    {
      "icao": "EPSY",
      "alert": "OK",
      "vis_m": 9999,
      "fzfg": false,
      "metar_trigger": false,
      "taf_trigger": false,
      "metar": "METAR EPSY 140830Z 16011KT 110V190 CAVOK 13/04 Q1007",
      "taf": "TAF EPSY 140830Z 1409/1418 16012KT CAVOK"
    },
    {
      "icao": "EPWA",
      "alert": "OK",
      "vis_m": 9999,
      "fzfg": false,
      "metar_trigger": false,
      "taf_trigger": false,
      "metar": "METAR EPWA 140830Z 15013KT CAVOK 13/03 Q1008 NOSIG",
      "taf": "TAF EPWA 140830Z 1409/1509 15016KT CAVOK"
    },
    {
      "icao": "EPWR",
      "alert": "OK",
      "vis_m": 9999,
      "fzfg": false,
      "metar_trigger": false,
      "taf_trigger": false,
      "metar": "METAR EPWR 140830Z 14012KT CAVOK 14/05 Q1002",
      "taf": "TAF EPWR 140830Z 1409/1509 13012KT CAVOK"
    },
    {
      "icao": "ESGG",
      "alert": "OK",
      "vis_m": 4700,
      "fzfg": false,
      "metar_trigger": false,
      "taf_trigger": false,
      "metar": "METAR ESGG 140820Z 16006KT 4700 BR VV003 03/03 Q0999",
      "taf": "TAF ESGG 140830Z 1409/1509 16005KT 5000 BR OVC003"
    },
    {
      "icao": "ESKN",
      "alert": "OK",
      "vis_m": 9999,
      "fzfg": false,
      "metar_trigger": false,
      "taf_trigger": false,
      "metar": "METAR ESKN 140820Z VRB03KT 9999 -RA FEW003 BKN027 04/04 Q1000",
      "taf": "TAF ESKN 140830Z 1409/1509 VRB01KT 9999 BKN025"
    },
    {
      "icao": "ESMS",
      "alert": "OK",
      "vis_m": 9999,
      "fzfg": false,
      "metar_trigger": false,
      "taf_trigger": false,
      "metar": "METAR ESMS 140820Z 35009KT 9999 -RASN BKN004 OVC014 02/02 Q0998",
      "taf": "TAF ESMS 140827Z 1409/1509 33007KT 7000 -SNRA BKN015"
    },
    {
      "icao": "ESSA",
      "alert": "OK",
      "vis_m": 9999,
      "fzfg": false,
      "metar_trigger": false,
      "taf_trigger": false,
      "metar": "METAR ESSA 140820Z VRB01KT 9999 -RA FEW004 BKN018 04/03 Q1001 BECMG BKN008",
      "taf": "TAF ESSA 140830Z 1409/1509 VRB02KT 9000 -RA BKN020"
    },
    {
      "icao": "EYKA",
      "alert": "OK",
      "vis_m": 9999,
      "fzfg": false,
      "metar_trigger": false,
      "taf_trigger": false,
      "metar": "METAR EYKA 140820Z 15012KT 120V180 CAVOK 10/00 Q1011",
      "taf": "TAF EYKA 140502Z 1406/1506 15011KT 9000 NSC"
    },
    {
      "icao": "EYPA",
      "alert": "OK",
      "vis_m": 9999,
      "fzfg": false,
      "metar_trigger": false,
      "taf_trigger": false,
      "metar": "METAR EYPA 140820Z 17014G24KT CAVOK 11/04 Q1005",
      "taf": "TAF EYPA 140506Z 1406/1506 16014KT 9000 NSC"
    },
    {
      "icao": "EYVI",
      "alert": "OK",
      "vis_m": 9999,
      "fzfg": false,
      "metar_trigger": false,
      "taf_trigger": false,
      "metar": "METAR EYVI 140820Z 17015KT CAVOK 10/00 Q1013 NOSIG",
      "taf": "TAF EYVI 140500Z 1406/1506 16012KT 9000 NSC"
    },
    {
      "icao": "GCFV",
      "alert": "OK",
      "vis_m": 9999,
      "fzfg": false,
      "metar_trigger": false,
      "taf_trigger": false,
      "metar": "METAR GCFV 140830Z 03018KT 9999 BKN022 17/13 Q1020",
      "taf": "TAF GCFV 140800Z 1409/1509 04018KT 9999 FEW020 TX20/1414Z TN16/1506Z"
    },
    {
      "icao": "GCLP",
      "alert": "OK",
      "vis_m": 9999,
      "fzfg": false,
      "metar_trigger": false,
      "taf_trigger": false,
      "metar": "METAR GCLP 140830Z 02020KT 9999 FEW020 BKN030 18/13 Q1020 NOSIG",
      "taf": "TAF GCLP 140800Z 1409/1509 02023KT 9999 FEW025 TX21/1414Z TN16/1506Z"
    },
    {
      "icao": "GCTS",
      "alert": "OK",
      "vis_m": 9999,
      "fzfg": false,
      "metar_trigger": false,
      "taf_trigger": false,
      "metar": "METAR GCTS 140830Z 07028KT 9999 FEW020 18/11 Q1019 WS R07 NOSIG",
      "taf": "TAF GCTS 140800Z 1409/1509 08027KT 9999 FEW025 TX24/1414Z TN17/1506Z"
    },
    {
      "icao": "GMAD",
      "alert": "OK",
      "vis_m": 2000,
      "fzfg": false,
      "metar_trigger": false,
      "taf_trigger": false,
      "metar": "METAR GMAD 140830Z 00000KT 2000 R27/0800V1000D BR BKN001 13/11 Q1018 BECMG 5000 SCT010 BKN016",
      "taf": "TAF GMAD 140500Z 1406/1512 22004KT CAVOK"
    },
    {
      "icao": "GMMN",
      "alert": "OK",
      "vis_m": 9999,
      "fzfg": false,
      "metar_trigger": false,
      "taf_trigger": false,
      "metar": "METAR GMMN 140830Z 31004KT 270V330 9999 BKN016 13/13 Q1021 NOSIG",
      "taf": "TAF GMMN 140500Z 1406/1512 26003KT 3000 BR BKN010"
    },
    {
      "icao": "GMMX",
      "alert": "OK",
      "vis_m": 3000,
      "fzfg": false,
      "metar_trigger": false,
      "taf_trigger": false,
      "metar": "METAR GMMX 140830Z 04005KT 350V080 3000 BR BKN006 12/10 Q1020 NOSIG",
      "taf": "TAF GMMX 140500Z 1406/1512 04006KT 8000 SCT026"
    },
    {
      "icao": "HEGN",
      "alert": "OK",
      "vis_m": 9999,
      "fzfg": false,
      "metar_trigger": false,
      "taf_trigger": false,
      "metar": "METAR HEGN 140800Z 12005KT 9999 SCT020 BKN025 25/15 Q1005 NOSIG",
      "taf": "TAF HEGN 140500Z 1406/1512 14012KT 6000 SCT025"
    },
    {
      "icao": "HEMA",
      "alert": "OK",
      "vis_m": 9999,
      "fzfg": false,
      "metar_trigger": false,
      "taf_trigger": false,
      "metar": "METAR HEMA 140800Z 14009KT CAVOK 26/10 Q1005 NOSIG",
      "taf": "TAF HEMA 140500Z 1406/1512 17012KT 6000 SCT025"
    },
    {
      "icao": "HESH",
      "alert": "OK",
      "vis_m": 9999,
      "fzfg": false,
      "metar_trigger": false,
      "taf_trigger": false,
      "metar": "METAR HESH 140800Z 00000KT CAVOK 26/06 Q1006 NOSIG",
      "taf": "TAF HESH 140500Z 1406/1512 29010KT 9999 SCT025"
    },
    {
      "icao": "HESX",
      "alert": "OK",
      "vis_m": 2000,
      "fzfg": false,
      "metar_trigger": false,
      "taf_trigger": false,
      "metar": "METAR HESX 140800Z 22020KT 2000 SA NSC 19/10 Q1004 NOSIG",
      "taf": "TAF HESX 140500Z 1406/1512 21014G28KT 6000 SCT025"
    },
    {
      "icao": "LATI",
      "alert": "OK",
      "vis_m": 9999,
      "fzfg": false,
      "metar_trigger": false,
      "taf_trigger": false,
      "metar": "METAR LATI 140820Z VRB03KT CAVOK 15/06 Q1012 NOSIG",
      "taf": "TAF LATI 140500Z 1406/1506 VRB03KT CAVOK TX19/1413Z TN04/1504Z"
    },
    {
      "icao": "LBPD",
      "alert": "OK",
      "vis_m": 9999,
      "fzfg": false,
      "metar_trigger": false,
      "taf_trigger": false,
      "metar": "METAR LBPD 140830Z AUTO 06004KT 030V130 9999 NCD 09/00 Q1015 NOSIG",
      "taf": "TAF LBPD 140500Z 1406/1506 VRB04KT CAVOK"
    },
    {
      "icao": "LBSF",
      "alert": "OK",
      "vis_m": 9999,
      "fzfg": false,
      "metar_trigger": false,
      "taf_trigger": false,
      "metar": "METAR LBSF 140830Z VRB02KT CAVOK 07/M01 Q1014 NOSIG",
      "taf": "TAF LBSF 140500Z 1406/1506 VRB04KT CAVOK"
    },
    {
      "icao": "LBWN",
      "alert": "OK",
      "vis_m": 9999,
      "fzfg": false,
      "metar_trigger": false,
      "taf_trigger": false,
      "metar": "METAR LBWN 140830Z 16003KT 090V220 9999 SCT012 BKN014 07/04 Q1017 NOSIG",
      "taf": "TAF LBWN 140500Z 1406/1506 VRB03KT 8000 SCT005 BKN010"
    },
    {
      "icao": "LCLK",
      "alert": "OK",
      "vis_m": 8000,
      "fzfg": false,
      "metar_trigger": false,
      "taf_trigger": false,
      "metar": "METAR LCLK 140830Z 02017KT 8000 BKN012 SCT030 FEW035TCU 16/14 Q1006 NOSIG",
      "taf": "TAF LCLK 140530Z 1406/1506 05020KT 9999 SCT040"
    },
    {
      "icao": "LCPH",
      "alert": "OK",
      "vis_m": 9999,
      "fzfg": false,
      "metar_trigger": false,
      "taf_trigger": false,
      "metar": "METAR LCPH 140830Z 08011KT 9999 FEW025 FEW030CB SCT050 18/11 Q1000 NOSIG RMK CB TO NW",
      "taf": "TAF LCPH 140530Z 1406/1506 05017KT 9999 SCT040"
    },
    {
      "icao": "LEAL",
      "alert": "OK",
      "vis_m": 9999,
      "fzfg": false,
      "metar_trigger": false,
      "taf_trigger": false,
      "metar": "METAR LEAL 140830Z 23006KT 9999 FEW050 15/09 Q1009 NOSIG",
      "taf": "TAF LEAL 140500Z 1406/1506 VRB04KT CAVOK TX21/1412Z TN12/1406Z"
    },
    {
      "icao": "LEBB",
      "alert": "OK",
      "vis_m": 6000,
      "fzfg": false,
      "metar_trigger": false,
      "taf_trigger": false,
      "metar": "METAR LEBB 140830Z VRB02KT 6000 -RA SCT019 BKN027 BKN036 08/07 Q1012 TEMPO 3000 RA",
      "taf": "TAF LEBB 140500Z 1406/1506 32009KT 9999 SCT015 BKN025 TX09/1418Z TN08/1506Z"
    },
    {
      "icao": "LEBL",
      "alert": "OK",
      "vis_m": 4000,
      "fzfg": false,
      "metar_trigger": false,
      "taf_trigger": false,
      "metar": "METAR LEBL 140830Z 05006KT 010V090 4000 -RA BR FEW025TCU SCT049 BKN057 13/13 Q1004 NOSIG",
      "taf": ""
    },
    {
      "icao": "LECH",
      "alert": "OK",
      "vis_m": 9999,
      "fzfg": false,
      "metar_trigger": false,
      "taf_trigger": false,
      "metar": "METAR LECH 140830Z AUTO 33017KT 300V010 9999 BKN056 11/03 Q1007",
      "taf": ""
    },
    {
      "icao": "LEMD",
      "alert": "OK",
      "vis_m": 9999,
      "fzfg": false,
      "metar_trigger": false,
      "taf_trigger": false,
      "metar": "METAR LEMD 140830Z 28012KT 240V310 9999 SCT050 10/02 Q1010 NOSIG",
      "taf": "TAF LEMD 140500Z 1406/1512 VRB05KT CAVOK TX13/1415Z TN08/1407Z"
    },
    {
      "icao": "LEMG",
      "alert": "OK",
      "vis_m": 9999,
      "fzfg": false,
      "metar_trigger": false,
      "taf_trigger": false,
      "metar": "METAR LEMG 140830Z 30020G32KT 9999 SCT028 15/09 Q1015 NOSIG",
      "taf": "TAF LEMG 140500Z 1406/1506 31015KT 9999 FEW040 TX19/1415Z TN10/1407Z"
    },
    {
      "icao": "LEVC",
      "alert": "OK",
      "vis_m": 9999,
      "fzfg": false,
      "metar_trigger": false,
      "taf_trigger": false,
      "metar": "METAR LEVC 140830Z 25017KT CAVOK 15/08 Q1007 NOSIG",
      "taf": "TAF LEVC 140500Z 1406/1506 VRB04KT CAVOK TX18/1414Z TN11/1406Z"
    },
    {
      "icao": "LEXJ",
      "alert": "OK",
      "vis_m": 6000,
      "fzfg": false,
      "metar_trigger": false,
      "taf_trigger": false,
      "metar": "METAR LEXJ 140830Z 26010KT 220V290 6000 -RA SCT034 BKN047 OVC052 07/05 Q1012 RERA",
      "taf": "TAF LEXJ 140800Z 1409/1509 29009KT 9999 SCT015 BKN025 TX10/1413Z TN09/1505Z"
    },
    {
      "icao": "LEZG",
      "alert": "OK",
      "vis_m": 9999,
      "fzfg": false,
      "metar_trigger": false,
      "taf_trigger": false,
      "metar": "METAR LEZG 140830Z 29014KT 9999 -RA SCT050 OVC075 09/07 Q1009 NOSIG",
      "taf": "TAF LEZG 140500Z 1406/1506 31014KT CAVOK TX13/1414Z TN07/1406Z"
    },
    {
      "icao": "LEZL",
      "alert": "OK",
      "vis_m": 9999,
      "fzfg": false,
      "metar_trigger": false,
      "taf_trigger": false,
      "metar": "METAR LEZL 140830Z 22008KT 9999 FEW030 15/12 Q1017 NOSIG",
      "taf": "TAF LEZL 140800Z 1409/1509 29011KT 9999 BKN040 TX21/1415Z TN10/1507Z"
    },
    {
      "icao": "LFBD",
      "alert": "OK",
      "vis_m": 9999,
      "fzfg": false,
      "metar_trigger": false,
      "taf_trigger": false,
      "metar": "METAR LFBD 140830Z AUTO VRB02KT CAVOK 07/04 Q1009 TEMPO 3000 SHRA BKN020TCU",
      "taf": "TAF LFBD 140500Z 1406/1512 27008KT 9999 BKN030 TX12/1413Z TN03/1505Z"
    },
    {
      "icao": "LFLL",
      "alert": "OK",
      "vis_m": 9999,
      "fzfg": false,
      "metar_trigger": false,
      "taf_trigger": false,
      "metar": "METAR LFLL 140830Z 12007KT 9999 RA FEW008 BKN018 OVC030 04/03 Q1006 NOSIG",
      "taf": "TAF LFLL 140500Z 1406/1512 34010KT 9999 FEW010 OVC025"
    },
    {
      "icao": "LFLS",
      "alert": "OK",
      "vis_m": 5000,
      "fzfg": false,
      "metar_trigger": false,
      "taf_trigger": false,
      "metar": "METAR LFLS 140830Z AUTO 09004KT 050V110 5000 -SNRA BR BKN010 OVC015 02/01 Q1006 TEMPO RA",
      "taf": "TAF LFLS 140800Z 1409/1509 11010KT 9999 FEW010 OVC025"
    },
    {
      "icao": "LFMN",
      "alert": "OK",
      "vis_m": 3000,
      "fzfg": false,
      "metar_trigger": false,
      "taf_trigger": false,
      "metar": "METAR LFMN 140830Z 35008KT 300V030 3000 RA SCT013 FEW016CB OVC030 09/07 Q1002 WS ALL RWY NOSIG",
      "taf": "TAF LFMN 140800Z 1409/1515 18010G20KT 8000 OVC040"
    },
    {
      "icao": "LFOB",
      "alert": "OK",
      "vis_m": 9999,
      "fzfg": false,
      "metar_trigger": false,
      "taf_trigger": false,
      "metar": "METAR LFOB 140830Z AUTO 27009KT 9999 SCT011 SCT029 05/03 Q1004 TEMPO 4000 SHRA BKN020 SCT030CB",
      "taf": "TAF LFOB 140500Z 1406/1506 26009KT 9999 BKN025 OVC040"
    },
    {
      "icao": "LFPO",
      "alert": "OK",
      "vis_m": 9999,
      "fzfg": false,
      "metar_trigger": false,
      "taf_trigger": false,
      "metar": "METAR LFPO 140800Z 27012KT 9999 BKN012 04/02 Q1005 NOSIG",
      "taf": "TAF LFPO 140500Z 1406/1512 25008KT 9999 BKN020 BKN040"
    },
    {
      "icao": "LFSB",
      "alert": "OK",
      "vis_m": 9999,
      "fzfg": false,
      "metar_trigger": false,
      "taf_trigger": false,
      "metar": "METAR LFSB 140830Z AUTO 26009KT 9999 -RA BKN014/// BKN019/// BKN024/// ///TCU 05/03 Q1003 NOSIG",
      "taf": "TAF LFSB 140500Z 1406/1506 26012KT 9999 SCT030 BKN050"
    },
    {
      "icao": "LGAV",
      "alert": "OK",
      "vis_m": 9999,
      "fzfg": false,
      "metar_trigger": false,
      "taf_trigger": false,
      "metar": "METAR LGAV 140820Z 03012KT 350V060 9999 SCT025 13/05 Q1012 NOSIG",
      "taf": "TAF LGAV 140500Z 1406/1506 35010KT 9999 FEW025"
    },
    {
      "icao": "LGTS",
      "alert": "OK",
      "vis_m": 8000,
      "fzfg": false,
      "metar_trigger": false,
      "taf_trigger": false,
      "metar": "METAR LGTS 140820Z 29005KT 8000 FEW005 10/08 Q1014 NOSIG",
      "taf": "TAF LGTS 140500Z 1406/1506 VRB03KT 9999 FEW030"
    },
    {
      "icao": "LHBP",
      "alert": "OK",
      "vis_m": 9999,
      "fzfg": false,
      "metar_trigger": false,
      "taf_trigger": false,
      "metar": "METAR LHBP 140830Z 14013KT CAVOK 12/01 Q1010 NOSIG",
      "taf": "TAF LHBP 140515Z 1406/1506 12008KT CAVOK"
    },
    {
      "icao": "LHDC",
      "alert": "OK",
      "vis_m": 9999,
      "fzfg": false,
      "metar_trigger": false,
      "taf_trigger": false,
      "metar": "METAR LHDC 140815Z AUTO 09009KT CAVOK 13/M00 Q1012 NOSIG",
      "taf": "TAF LHDC 140815Z 1409/1418 08006KT CAVOK"
    },
    {
      "icao": "LIBD",
      "alert": "OK",
      "vis_m": 9999,
      "fzfg": false,
      "metar_trigger": false,
      "taf_trigger": false,
      "metar": "METAR LIBD 140820Z 15006KT 130V190 CAVOK 15/10 Q1011",
      "taf": "TAF LIBD 140500Z 1406/1506 VRB05KT 9999 FEW020"
    },
    {
      "icao": "LIBG",
      "alert": "OK",
      "vis_m": 8000,
      "fzfg": false,
      "metar_trigger": false,
      "taf_trigger": false,
      "metar": "METAR LIBG 140750Z 12004KT 8000 FEW020 SCT030 13/13 Q1011",
      "taf": "TAF LIBG 140800Z 1409/1418 VRB05KT 9999 SCT020"
    },
    {
      "icao": "LIBP",
      "alert": "OK",
      "vis_m": 9999,
      "fzfg": false,
      "metar_trigger": false,
      "taf_trigger": false,
      "metar": "METAR LIBP 140820Z AUTO VRB01KT 9999 NCD 13/08 Q1009",
      "taf": "TAF LIBP 140500Z 1406/1506 VRB05KT 0600 FG NSC"
    },
    {
      "icao": "LIBR",
      "alert": "OK",
      "vis_m": 9999,
      "fzfg": false,
      "metar_trigger": false,
      "taf_trigger": false,
      "metar": "METAR LIBR 140820Z 14004KT 110V170 9999 FEW010 14/11 Q1011",
      "taf": "TAF LIBR 140500Z 1406/1506 VRB05KT 3000 BR SCT020"
    },
    {
      "icao": "LICA",
      "alert": "OK",
      "vis_m": 9999,
      "fzfg": false,
      "metar_trigger": false,
      "taf_trigger": false,
      "metar": "METAR LICA 140820Z AUTO 09006KT 060V120 9999 NCD 16/10 Q1011",
      "taf": "TAF LICA 140500Z 1406/1506 07006KT 9999 FEW040"
    },
    {
      "icao": "LICC",
      "alert": "OK",
      "vis_m": 9999,
      "fzfg": false,
      "metar_trigger": false,
      "taf_trigger": false,
      "metar": "METAR LICC 140820Z 27009KT CAVOK 15/12 Q1011",
      "taf": "TAF LICC 140500Z 1406/1506 26008KT 9999 SCT030"
    },
    {
      "icao": "LICJ",
      "alert": "OK",
      "vis_m": 9999,
      "fzfg": false,
      "metar_trigger": false,
      "taf_trigger": false,
      "metar": "METAR LICJ 140820Z 20008KT CAVOK 14/08 Q1011",
      "taf": "TAF LICJ 140500Z 1406/1506 18010KT 9999 FEW040"
    },
    {
      "icao": "LIMC",
      "alert": "OK",
      "vis_m": 9999,
      "fzfg": false,
      "metar_trigger": false,
      "taf_trigger": false,
      "metar": "METAR LIMC 140820Z 11010KT 9999 BKN040 11/07 Q1004 NOSIG",
      "taf": "TAF LIMC 140500Z 1406/1512 VRB04KT 7000 SCT030"
    },
    {
      "icao": "LIME",
      "alert": "OK",
      "vis_m": 9999,
      "fzfg": false,
      "metar_trigger": false,
      "taf_trigger": false,
      "metar": "METAR LIME 140820Z 08007KT 9999 SCT045 BKN070 12/06 Q1005 NOSIG",
      "taf": "TAF LIME 140500Z 1406/1506 VRB04KT 8000 SCT030"
    },
    {
      "icao": "LIMF",
      "alert": "OK",
      "vis_m": 9999,
      "fzfg": false,
      "metar_trigger": false,
      "taf_trigger": false,
      "metar": "METAR LIMF 140820Z 07004KT 9999 OVC025 10/06 Q1003",
      "taf": "TAF LIMF 140500Z 1406/1506 VRB06KT 7000 BKN035"
    },
    {
      "icao": "LIMJ",
      "alert": "OK",
      "vis_m": 9999,
      "fzfg": false,
      "metar_trigger": false,
      "taf_trigger": false,
      "metar": "METAR LIMJ 140820Z 16013KT 9999 BKN018 BKN055 14/11 Q1005",
      "taf": "TAF LIMJ 140500Z 1406/1506 17012KT 9999 BKN010"
    },
    {
      "icao": "LIPE",
      "alert": "OK",
      "vis_m": 9999,
      "fzfg": false,
      "metar_trigger": false,
      "taf_trigger": false,
      "metar": "METAR LIPE 140820Z 19005KT CAVOK 15/06 Q1006",
      "taf": "TAF LIPE 140500Z 1406/1506 VRB05KT CAVOK"
    },
    {
      "icao": "LIPH",
      "alert": "OK",
      "vis_m": 1500,
      "fzfg": false,
      "metar_trigger": false,
      "taf_trigger": false,
      "metar": "METAR LIPH 140820Z 35005KT 1500 BR FEW002 BKN003 11/11 Q1007",
      "taf": "TAF LIPH 140500Z 1406/1506 VRB05KT 2000 -RA BR BKN006"
    },
    {
      "icao": "LIPQ",
      "alert": "OK",
      "vis_m": 9999,
      "fzfg": false,
      "metar_trigger": false,
      "taf_trigger": false,
      "metar": "METAR LIPQ 140820Z AUTO 11005KT 9999 OVC021/// 10/08 Q1008",
      "taf": "TAF LIPQ 140500Z 1406/1506 VRB05KT 9999 SCT030"
    },
    {
      "icao": "LIPR",
      "alert": "OK",
      "vis_m": 9999,
      "fzfg": false,
      "metar_trigger": false,
      "taf_trigger": false,
      "metar": "METAR LIPR 140820Z 20011KT 150V220 CAVOK 14/07 Q1007",
      "taf": "TAF LIPR 140500Z 1406/1506 16010KT CAVOK"
    },
    {
      "icao": "LIPX",
      "alert": "OK",
      "vis_m": 6000,
      "fzfg": false,
      "metar_trigger": false,
      "taf_trigger": false,
      "metar": "METAR LIPX 140820Z 10007KT 6000 FEW070 13/10 Q1006",
      "taf": "TAF LIPX 140500Z 1406/1506 VRB04KT 2000 BR BKN007"
    },
    {
      "icao": "LIPY",
      "alert": "OK",
      "vis_m": 9999,
      "fzfg": false,
      "metar_trigger": false,
      "taf_trigger": false,
      "metar": "METAR LIPY 140820Z AUTO 18005KT 160V220 9999 FEW075/// 15/08 Q1008",
      "taf": "TAF LIPY 140500Z 1406/1506 VRB05KT CAVOK"
    },
    {
      "icao": "LIPZ",
      "alert": "OK",
      "vis_m": 9999,
      "fzfg": false,
      "metar_trigger": false,
      "taf_trigger": false,
      "metar": "METAR LIPZ 140820Z 17005KT 130V200 9999 FEW030 13/10 Q1006 NOSIG",
      "taf": "TAF LIPZ 140500Z 1406/1512 VRB05KT 2000 -RA BR BKN010"
    },
    {
      "icao": "LIRF",
      "alert": "OK",
      "vis_m": 9999,
      "fzfg": false,
      "metar_trigger": false,
      "taf_trigger": false,
      "metar": "METAR LIRF 140820Z 11005KT 9999 FEW025TCU SCT030 13/10 Q1010 NOSIG",
      "taf": "TAF LIRF 140500Z 1406/1512 08006KT 9999 FEW040"
    },
    {
      "icao": "LIRN",
      "alert": "OK",
      "vis_m": 9999,
      "fzfg": false,
      "metar_trigger": false,
      "taf_trigger": false,
      "metar": "METAR LIRN 140820Z VRB01KT 9999 FEW070 13/09 Q1011 NOSIG",
      "taf": "TAF LIRN 140500Z 1406/1506 VRB05KT 9999 FEW040"
    },
    {
      "icao": "LIRP",
      "alert": "OK",
      "vis_m": 9999,
      "fzfg": false,
      "metar_trigger": false,
      "taf_trigger": false,
      "metar": "METAR LIRP 140815Z 11010KT 9999 FEW030 SCT060 12/11 Q1007 NOSIG",
      "taf": "TAF LIRP 140500Z 1406/1506 10012KT 9999 SCT025 SCT080"
    },
    {
      "icao": "LIRZ",
      "alert": "OK",
      "vis_m": 9999,
      "fzfg": false,
      "metar_trigger": false,
      "taf_trigger": false,
      "metar": "METAR LIRZ 140820Z AUTO VRB02KT 9999 NCD 11/07 Q1009",
      "taf": "TAF LIRZ 140500Z 1406/1506 VRB05KT CAVOK"
    },
    {
      "icao": "LJLJ",
      "alert": "OK",
      "vis_m": 9999,
      "fzfg": false,
      "metar_trigger": false,
      "taf_trigger": false,
      "metar": "METAR LJLJ 140830Z 07004KT 9999 FEW020 BKN030 08/06 Q1007 NOSIG",
      "taf": "TAF LJLJ 140500Z 1406/1506 VRB02KT 9999 SCT050"
    },
    {
      "icao": "LKMT",
      "alert": "OK",
      "vis_m": 9999,
      "fzfg": false,
      "metar_trigger": false,
      "taf_trigger": false,
      "metar": "METAR LKMT 140830Z 19012KT CAVOK 14/M04 Q1005 NOSIG",
      "taf": "TAF LKMT 140500Z 1406/1506 20014KT CAVOK"
    },
    {
      "icao": "LKPR",
      "alert": "OK",
      "vis_m": 9999,
      "fzfg": false,
      "metar_trigger": false,
      "taf_trigger": false,
      "metar": "METAR LKPR 140830Z 10004KT 070V130 CAVOK 07/03 Q1001 NOSIG",
      "taf": "TAF LKPR 140800Z 1409/1515 13008KT CAVOK"
    },
    {
      "icao": "LLBG",
      "alert": "OK",
      "vis_m": 5000,
      "fzfg": false,
      "metar_trigger": false,
      "taf_trigger": false,
      "metar": "METAR LLBG 140820Z 17021G31KT 5000 DU NSC 27/07 Q1002 BECMG 2000 DU RMK BKN110",
      "taf": "TAF LLBG 140508Z 1406/1506 20008KT 6000 NSC TX28/1412Z TN15/1504Z"
    },
    {
      "icao": "LMML",
      "alert": "OK",
      "vis_m": 9999,
      "fzfg": false,
      "metar_trigger": false,
      "taf_trigger": false,
      "metar": "METAR LMML 140815Z 22011KT 9999 -RA FEW009 BKN049 12/10 Q1013 NOSIG",
      "taf": "TAF LMML 140500Z 1406/1506 26010KT 9999 SCT017"
    },
    {
      "icao": "LOWW",
      "alert": "OK",
      "vis_m": 9999,
      "fzfg": false,
      "metar_trigger": false,
      "taf_trigger": false,
      "metar": "METAR LOWW 140820Z 14019KT CAVOK 11/05 Q1004 NOSIG",
      "taf": "TAF LOWW 140815Z 1409/1515 16020KT CAVOK TX18/1414Z TN06/1505Z"
    },
    {
      "icao": "LPFR",
      "alert": "OK",
      "vis_m": 9999,
      "fzfg": false,
      "metar_trigger": false,
      "taf_trigger": false,
      "metar": "METAR LPFR 140830Z 30011KT 9999 FEW023 14/10 Q1019",
      "taf": "TAF LPFR 140500Z 1406/1506 30008KT 9999 SCT015"
    },
    {
      "icao": "LPMA",
      "alert": "OK",
      "vis_m": 9999,
      "fzfg": false,
      "metar_trigger": false,
      "taf_trigger": false,
      "metar": "METAR LPMA 140830Z 36010KT 9999 SCT015 16/11 Q1024",
      "taf": "TAF LPMA 140500Z 1406/1506 02012KT 9999 BKN015"
    },
    {
      "icao": "LPPR",
      "alert": "OK",
      "vis_m": 2500,
      "fzfg": false,
      "metar_trigger": false,
      "taf_trigger": false,
      "metar": "METAR LPPR 140830Z 32005KT 260V350 2500 DZRA BR FEW004 BKN007 OVC014 11/10 Q1017",
      "taf": "TAF LPPR 140500Z 1406/1506 31007KT 9999 BKN020"
    },
    {
      "icao": "LPPS",
      "alert": "OK",
      "vis_m": 9999,
      "fzfg": false,
      "metar_trigger": false,
      "taf_trigger": false,
      "metar": "METAR LPPS 140830Z 02006KT 340V040 9999 SCT013 14/13 Q1024",
      "taf": "TAF LPPS 140500Z 1406/1512 03012KT 9999 SCT015 BKN030"
    },
    {
      "icao": "LPPT",
      "alert": "OK",
      "vis_m": 9999,
      "fzfg": false,
      "metar_trigger": false,
      "taf_trigger": false,
      "metar": "METAR LPPT 140830Z 30007KT 9999 FEW016 SCT030 13/10 Q1019",
      "taf": "TAF LPPT 140500Z 1406/1512 29007KT 9999 BKN020"
    },
    {
      "icao": "LQBK",
      "alert": "OK",
      "vis_m": 9999,
      "fzfg": false,
      "metar_trigger": false,
      "taf_trigger": false,
      "metar": "METAR LQBK 140830Z 14007KT CAVOK 14/04 Q1009 NOSIG",
      "taf": "TAF LQBK 140500Z 1406/1506 16006KT CAVOK TX20/1413Z TN03/1505Z"
    },
    {
      "icao": "LQSA",
      "alert": "OK",
      "vis_m": 9999,
      "fzfg": false,
      "metar_trigger": false,
      "taf_trigger": false,
      "metar": "METAR LQSA 140830Z VRB01KT CAVOK 08/01 Q1010 NOSIG",
      "taf": "TAF LQSA 140500Z 1406/1506 VRB02KT CAVOK TX17/1414Z TN00/1505Z"
    },
    {
      "icao": "LQTZ",
      "alert": "OK",
      "vis_m": 9999,
      "fzfg": false,
      "metar_trigger": false,
      "taf_trigger": false,
      "metar": "METAR LQTZ 140830Z VRB01KT CAVOK 13/04 Q1009",
      "taf": "TAF LQTZ 140500Z 1406/1506 VRB02KT CAVOK TX19/1413Z TN02/1505Z"
    },
    {
      "icao": "LRBC",
      "alert": "OK",
      "vis_m": 9999,
      "fzfg": false,
      "metar_trigger": false,
      "taf_trigger": false,
      "metar": "METAR LRBC 140830Z 16010KT CAVOK 08/00 Q1018",
      "taf": "TAF LRBC 140800Z 1409/1418 17012KT CAVOK"
    },
    {
      "icao": "LRBS",
      "alert": "OK",
      "vis_m": 9999,
      "fzfg": false,
      "metar_trigger": false,
      "taf_trigger": false,
      "metar": "METAR LRBS 140830Z 04011KT 010V070 9999 BKN008 04/02 Q1017 TEMPO BKN004",
      "taf": "TAF LRBS 140500Z 1406/1506 07008KT 5000 BR OVC005"
    },
    {
      "icao": "LRBV",
      "alert": "OK",
      "vis_m": 9999,
      "fzfg": false,
      "metar_trigger": false,
      "taf_trigger": false,
      "metar": "METAR LRBV 140830Z VRB03KT CAVOK 07/M06 Q1014",
      "taf": "TAF LRBV 140800Z 1409/1418 VRB04KT CAVOK"
    },
    {
      "icao": "LRCL",
      "alert": "OK",
      "vis_m": 9999,
      "fzfg": false,
      "metar_trigger": false,
      "taf_trigger": false,
      "metar": "METAR LRCL 140830Z 13009KT CAVOK 11/M04 Q1013",
      "taf": "TAF LRCL 140800Z 1409/1418 12010KT CAVOK"
    },
    {
      "icao": "LRCV",
      "alert": "OK",
      "vis_m": 9999,
      "fzfg": false,
      "metar_trigger": false,
      "taf_trigger": false,
      "metar": "METAR LRCV 140830Z 08014KT 9999 FEW030 07/03 Q1016",
      "taf": "TAF LRCV 140800Z 1409/1418 09015KT CAVOK"
    },
    {
      "icao": "LRIA",
      "alert": "OK",
      "vis_m": 9999,
      "fzfg": false,
      "metar_trigger": false,
      "taf_trigger": false,
      "metar": "METAR LRIA 140830Z 12015KT 9999 BKN009 04/01 Q1019",
      "taf": "TAF LRIA 140800Z 1409/1418 12012KT 9999 BKN010"
    },
    {
      "icao": "LROP",
      "alert": "OK",
      "vis_m": 9000,
      "fzfg": false,
      "metar_trigger": false,
      "taf_trigger": false,
      "metar": "METAR LROP 140830Z 05013KT 9000 FEW004 BKN005 03/01 Q1017 TEMPO BKN004",
      "taf": "TAF LROP 140500Z 1406/1506 07008KT 5000 BR OVC005"
    },
    {
      "icao": "LRSB",
      "alert": "OK",
      "vis_m": 9999,
      "fzfg": false,
      "metar_trigger": false,
      "taf_trigger": false,
      "metar": "METAR LRSB 140830Z AUTO VRB03KT 9999 NCD 13/M03 Q1012",
      "taf": "TAF LRSB 140500Z 1406/1506 VRB04KT CAVOK"
    },
    {
      "icao": "LRSM",
      "alert": "OK",
      "vis_m": 9999,
      "fzfg": false,
      "metar_trigger": false,
      "taf_trigger": false,
      "metar": "METAR LRSM 140830Z AUTO 17008KT 9999 NCD 14/M03 Q1013",
      "taf": ""
    },
    {
      "icao": "LRSV",
      "alert": "OK",
      "vis_m": 9999,
      "fzfg": false,
      "metar_trigger": false,
      "taf_trigger": false,
      "metar": "METAR LRSV 140830Z 13011KT CAVOK 09/M02 Q1016",
      "taf": "TAF LRSV 140800Z 1409/1418 14015KT CAVOK"
    },
    {
      "icao": "LRTM",
      "alert": "OK",
      "vis_m": 9999,
      "fzfg": false,
      "metar_trigger": false,
      "taf_trigger": false,
      "metar": "METAR LRTM 140830Z 08005KT 050V110 CAVOK 11/M03 Q1014",
      "taf": "TAF LRTM 140800Z 1409/1418 07005KT CAVOK"
    },
    {
      "icao": "LRTR",
      "alert": "OK",
      "vis_m": 9999,
      "fzfg": false,
      "metar_trigger": false,
      "taf_trigger": false,
      "metar": "METAR LRTR 140830Z 10012KT CAVOK 12/01 Q1011",
      "taf": "TAF LRTR 140500Z 1406/1506 09008KT CAVOK"
    },
    {
      "icao": "LTAC",
      "alert": "OK",
      "vis_m": 9999,
      "fzfg": false,
      "metar_trigger": false,
      "taf_trigger": false,
      "metar": "METAR LTAC 140820Z 05004KT 310V090 CAVOK 10/M05 Q1011 NOSIG RMK RWY21C 02006KT 320V050 RWY03L 07004KT 330V110 RWY21R 01006KT 290V050 RWY03R 35005KT 310V040 RWY21L 02004KT 290V080",
      "taf": "TAF LTAC 140440Z 1406/1506 VRB02KT CAVOK"
    },
    {
      "icao": "LTFM",
      "alert": "OK",
      "vis_m": 9999,
      "fzfg": false,
      "metar_trigger": false,
      "taf_trigger": false,
      "metar": "METAR LTFM 140820Z 06010KT 9999 OVC022 08/03 Q1014 NOSIG RMK RWY17L 07009KT RWY34L 05009KT RWY16R 07011KT RWY36 06008KT RWY18 07008KT",
      "taf": "TAF LTFM 140440Z 1406/1512 04013KT 9999 BKN022"
    },
    {
      "icao": "LUKK",
      "alert": "OK",
      "vis_m": 9999,
      "fzfg": false,
      "metar_trigger": false,
      "taf_trigger": false,
      "metar": "METAR LUKK 140830Z 12006KT 080V160 9999 BKN013 04/01 Q1019 BECMG SCT015",
      "taf": "TAF LUKK 140515Z 1406/1506 11010KT 9999 BKN008"
    },
    {
      "icao": "LWOH",
      "alert": "OK",
      "vis_m": 9999,
      "fzfg": false,
      "metar_trigger": false,
      "taf_trigger": false,
      "metar": "METAR LWOH 140820Z 16005KT 130V190 CAVOK 09/04 Q1013",
      "taf": "TAF LWOH 140815Z 1409/1509 16008KT FEW040"
    },
    {
      "icao": "LWSK",
      "alert": "OK",
      "vis_m": 9999,
      "fzfg": false,
      "metar_trigger": false,
      "taf_trigger": false,
      "metar": "METAR LWSK 140820Z VRB02KT CAVOK 10/05 Q1014 NOSIG",
      "taf": "TAF LWSK 140815Z 1409/1509 VRB02KT CAVOK"
    },
    {
      "icao": "LYBE",
      "alert": "OK",
      "vis_m": 9999,
      "fzfg": false,
      "metar_trigger": false,
      "taf_trigger": false,
      "metar": "METAR LYBE 140830Z 14017KT CAVOK 14/00 Q1010 NOSIG",
      "taf": "TAF LYBE 140500Z 1406/1506 13015KT CAVOK TX20/1413Z TN08/1505Z"
    },
    {
      "icao": "LYNI",
      "alert": "OK",
      "vis_m": 9999,
      "fzfg": false,
      "metar_trigger": false,
      "taf_trigger": false,
      "metar": "METAR LYNI 140830Z 22003KT 120V280 CAVOK 10/02 Q1013 NOSIG",
      "taf": "TAF LYNI 140500Z 1406/1506 12006KT CAVOK TX20/1414Z TN03/1505Z"
    },
    {
      "icao": "LYPG",
      "alert": "OK",
      "vis_m": 9999,
      "fzfg": false,
      "metar_trigger": false,
      "taf_trigger": false,
      "metar": "METAR LYPG 140830Z VRB02KT 9999 FEW050 14/03 Q1012 NOSIG",
      "taf": "TAF LYPG 140500Z 1406/1506 16008KT CAVOK TX19/1413Z TN06/1505Z"
    },
    {
      "icao": "LZIB",
      "alert": "OK",
      "vis_m": 9999,
      "fzfg": false,
      "metar_trigger": false,
      "taf_trigger": false,
      "metar": "METAR LZIB 140830Z 13012KT CAVOK 12/03 Q1006 NOSIG",
      "taf": "TAF LZIB 140515Z 1406/1506 14005KT CAVOK"
    },
    {
      "icao": "LZKZ",
      "alert": "OK",
      "vis_m": 9999,
      "fzfg": false,
      "metar_trigger": false,
      "taf_trigger": false,
      "metar": "METAR LZKZ 140830Z 18007KT 150V210 CAVOK 11/01 Q1012 NOSIG",
      "taf": "TAF LZKZ 140515Z 1406/1506 VRB02KT CAVOK"
    },
    {
      "icao": "LZTT",
      "alert": "OK",
      "vis_m": 9999,
      "fzfg": false,
      "metar_trigger": false,
      "taf_trigger": false,
      "metar": "METAR LZTT 140830Z 14007KT 110V170 9999 FEW053 10/M01 Q1010 NOSIG",
      "taf": "TAF LZTT 140515Z 1406/1506 23005KT 9999 FEW050"
    },
    {
      "icao": "OEJN",
      "alert": "OK",
      "vis_m": 7000,
      "fzfg": false,
      "metar_trigger": false,
      "taf_trigger": false,
      "metar": "METAR OEJN 140800Z 16010KT 7000 NSC 33/16 Q1008 NOSIG",
      "taf": "TAF OEJN 140500Z 1406/1512 20016KT 7000 NSC"
    },
    {
      "icao": "OEMA",
      "alert": "OK",
      "vis_m": 9999,
      "fzfg": false,
      "metar_trigger": false,
      "taf_trigger": false,
      "metar": "METAR OEMA 140800Z 10013KT CAVOK 29/M03 Q1013 NOSIG",
      "taf": "TAF OEMA 140500Z 1406/1512 11008KT CAVOK"
    },
    {
      "icao": "OJAI",
      "alert": "OK",
      "vis_m": 3500,
      "fzfg": false,
      "metar_trigger": false,
      "taf_trigger": false,
      "metar": "METAR OJAI 140800Z 17012KT 3500 HZ NSC 17/10 Q1009 NOSIG",
      "taf": "TAF OJAI 140439Z 1406/1512 20008KT 3500 -RA FEW035TCU BKN045 OVC080"
    },
    {
      "icao": "OMAA",
      "alert": "OK",
      "vis_m": null,
      "fzfg": false,
      "metar_trigger": false,
      "taf_trigger": false,
      "metar": "",
      "taf": ""
    },
    {
      "icao": "OMDB",
      "alert": "OK",
      "vis_m": null,
      "fzfg": false,
      "metar_trigger": false,
      "taf_trigger": false,
      "metar": "",
      "taf": ""
    },
    {
      "icao": "UAAA",
      "alert": "OK",
      "vis_m": 9999,
      "fzfg": false,
      "metar_trigger": false,
      "taf_trigger": false,
      "metar": "METAR UAAA 140830Z VRB01MPS 9999 NSC 05/M04 Q1025 NOSIG",
      "taf": "TAF UAAA 140504Z 1406/1506 25002MPS 9999 SCT100 TX05/1409Z TNM06/1501Z"
    },
    {
      "icao": "UBBB",
      "alert": "OK",
      "vis_m": 9999,
      "fzfg": false,
      "metar_trigger": false,
      "taf_trigger": false,
      "metar": "METAR UBBB 140830Z 17016KT 9999 SCT026 11/04 Q1024 NOSIG",
      "taf": "TAF UBBB 140456Z 1406/1506 15008KT CAVOK TX13/1410Z TN04/1502Z"
    },
    {
      "icao": "UDSG",
      "alert": "OK",
      "vis_m": 9999,
      "fzfg": false,
      "metar_trigger": false,
      "taf_trigger": false,
      "metar": "METAR UDSG 140830Z 27003KT 9999 BKN023 01/M01 Q1020 NOSIG",
      "taf": ""
    },
    {
      "icao": "UDYZ",
      "alert": "OK",
      "vis_m": 9999,
      "fzfg": false,
      "metar_trigger": false,
      "taf_trigger": false,
      "metar": "METAR UDYZ 140830Z 17005KT 9999 SCT043 09/01 Q1020 NOSIG",
      "taf": "TAF UDYZ 140500Z 1406/1506 24006KT 9999 SCT040"
    },
    {
      "icao": "UGKO",
      "alert": "OK",
      "vis_m": 9999,
      "fzfg": false,
      "metar_trigger": false,
      "taf_trigger": false,
      "metar": "METAR UGKO 140830Z 07027KT CAVOK 15/00 Q1016 NOSIG",
      "taf": "TAF UGKO 140500Z 1406/1506 08025G39KT CAVOK TX17/1412Z TN10/1501Z"
    }
  ]
}