{
  "ts_utc": "2026-01-11T16:34:46Z",
  "threshold_m": 150,
  "source": "stations_override.txt (ICAO list) + aviationweather.gov (METAR/TAF raw)",
  "station_count": 159,
  "stations": [
    {
      "icao": "BIKF",
      "alert": "OK",
      "vis_m": 9999,
      "fzfg": false,
      "metar_trigger": false,
      "taf_trigger": false,
      "metar": "METAR BIKF 111630Z 03008KT 9999 FEW035 M03/M07 Q0993",
      "taf": "TAF BIKF 111625Z 1118/1218 36013KT 9999 FEW030 TX00/1203Z TNM04/1118Z"
    },
    {
      "icao": "BKPR",
      "alert": "OK",
      "vis_m": 9999,
      "fzfg": false,
      "metar_trigger": false,
      "taf_trigger": false,
      "metar": "METAR BKPR 111630Z 35015KT 9999 SCT040 M05/M09 Q1016 NOSIG",
      "taf": "TAF BKPR 111130Z 1112/1212 35008KT 9999 SCT010 BKN030"
    },
    {
      "icao": "EBCI",
      "alert": "OK",
      "vis_m": 9000,
      "fzfg": false,
      "metar_trigger": false,
      "taf_trigger": false,
      "metar": "METAR EBCI 111620Z 18011KT 9000 SCT010 BKN014 M00/M02 Q1020 TEMPO SCT012",
      "taf": "TAF EBCI 111100Z 1112/1218 19010KT 9999 BKN013"
    },
    {
      "icao": "EDDB",
      "alert": "OK",
      "vis_m": 9999,
      "fzfg": false,
      "metar_trigger": false,
      "taf_trigger": false,
      "metar": "METAR EDDB 111620Z AUTO 29010KT CAVOK M05/M07 Q1022 NOSIG",
      "taf": "TAF EDDB 111100Z 1112/1212 29011KT CAVOK"
    },
    {
      "icao": "EDDH",
      "alert": "OK",
      "vis_m": 4700,
      "fzfg": true,
      "metar_trigger": false,
      "taf_trigger": false,
      "metar": "METAR EDDH 111620Z AUTO 08002KT 4700 0350 R23/P2000N R15/0600N BCFG NSC M08/M09 Q1023 TEMPO 6000",
      "taf": "TAF EDDH 111100Z 1112/1218 VRB02KT 0500 FZFG BKN001"
    },
    {
      "icao": "EDDK",
      "alert": "OK",
      "vis_m": 9999,
      "fzfg": false,
      "metar_trigger": false,
      "taf_trigger": false,
      "metar": "METAR EDDK 111620Z AUTO 13008KT 9999 OVC016 M01/M04 Q1023 NOSIG",
      "taf": "TAF EDDK 111100Z 1112/1218 14009KT 9999 SCT020"
    },
    {
      "icao": "EDDN",
      "alert": "OK",
      "vis_m": 9999,
      "fzfg": false,
      "metar_trigger": false,
      "taf_trigger": false,
      "metar": "METAR EDDN 111620Z AUTO 26006KT 9999 BKN020 M04/M07 Q1025 NOSIG",
      "taf": "TAF EDDN 111100Z 1112/1212 VRB03KT CAVOK"
    },
    {
      "icao": "EDDS",
      "alert": "OK",
      "vis_m": 9999,
      "fzfg": false,
      "metar_trigger": false,
      "taf_trigger": false,
      "metar": "METAR EDDS 111620Z AUTO 21004KT 160V270 9999 OVC018 00/M04 Q1023 NOSIG",
      "taf": "TAF EDDS 111100Z 1112/1212 VRB03KT 9999 SCT015"
    },
    {
      "icao": "EDFH",
      "alert": "OK",
      "vis_m": 5000,
      "fzfg": false,
      "metar_trigger": false,
      "taf_trigger": false,
      "metar": "METAR EDFH 111620Z 17008KT 5000 BR BKN002 M03/M04 Q1021",
      "taf": "TAF EDFH 111100Z 1112/1212 17008KT 8000 BKN008"
    },
    {
      "icao": "EDJA",
      "alert": "OK",
      "vis_m": 9999,
      "fzfg": false,
      "metar_trigger": false,
      "taf_trigger": false,
      "metar": "METAR EDJA 111620Z 24004KT 9999 OVC018 M02/M04 Q1023",
      "taf": "TAF EDJA 111400Z 1115/1124 23003KT 9999 FEW013 BKN020"
    },
    {
      "icao": "EDLW",
      "alert": "OK",
      "vis_m": 9999,
      "fzfg": false,
      "metar_trigger": false,
      "taf_trigger": false,
      "metar": "METAR EDLW 111620Z 21007KT CAVOK M02/M06 Q1022",
      "taf": "TAF EDLW 111120Z 1112/1212 17008KT CAVOK"
    },
    {
      "icao": "EDNY",
      "alert": "OK",
      "vis_m": 9999,
      "fzfg": false,
      "metar_trigger": false,
      "taf_trigger": false,
      "metar": "METAR EDNY 111620Z COR 06003KT 9999 OVC023 M01/M02 Q1024",
      "taf": "TAF EDNY 111400Z 1115/1124 04003KT 9999 FEW020"
    },
    {
      "icao": "EDSB",
      "alert": "OK",
      "vis_m": 9000,
      "fzfg": false,
      "metar_trigger": false,
      "taf_trigger": false,
      "metar": "METAR EDSB 111620Z 06002KT 9000 OVC025 00/M02 Q1025",
      "taf": "TAF EDSB 111100Z 1112/1212 VRB03KT 8000 BKN020"
    },
    {
      "icao": "EETN",
      "alert": "OK",
      "vis_m": 6000,
      "fzfg": false,
      "metar_trigger": false,
      "taf_trigger": false,
      "metar": "METAR EETN 111620Z 05010KT 020V080 6000 -SN BKN016 OVC022 M04/M06 Q1012 TEMPO 4000 SN",
      "taf": "TAF EETN 111130Z 1112/1212 07012KT 2500 SN DRSN BKN010 OVC020"
    },
    {
      "icao": "EFTU",
      "alert": "OK",
      "vis_m": 9999,
      "fzfg": false,
      "metar_trigger": false,
      "taf_trigger": false,
      "metar": "METAR EFTU 111620Z AUTO 02006KT 340V050 CAVOK M07/M09 Q1016",
      "taf": "TAF EFTU 111436Z 1115/1215 02006KT 8000 -SN OVC020"
    },
    {
      "icao": "EGBB",
      "alert": "OK",
      "vis_m": 9999,
      "fzfg": false,
      "metar_trigger": false,
      "taf_trigger": false,
      "metar": "METAR EGBB 111620Z 17014KT 9999 BKN009 08/06 Q1002",
      "taf": ""
    },
    {
      "icao": "EGGP",
      "alert": "OK",
      "vis_m": 9999,
      "fzfg": false,
      "metar_trigger": false,
      "taf_trigger": false,
      "metar": "METAR EGGP 111620Z 16015KT 9999 BKN011 08/06 Q0998",
      "taf": ""
    },
    {
      "icao": "EGGW",
      "alert": "OK",
      "vis_m": 9999,
      "fzfg": false,
      "metar_trigger": false,
      "taf_trigger": false,
      "metar": "METAR EGGW 111620Z AUTO 18012KT 140V210 9999 OVC006 06/05 Q1007",
      "taf": "TAF EGGW 111103Z 1112/1212 17018G32KT 9999 FEW010 BKN040"
    },
    {
      "icao": "EGKK",
      "alert": "OK",
      "vis_m": 3200,
      "fzfg": false,
      "metar_trigger": false,
      "taf_trigger": false,
      "metar": "METAR EGKK 111620Z 17013KT 140V200 3200 -RADZ BKN007 BKN013 07/07 Q1009",
      "taf": "TAF EGKK 111057Z 1112/1218 16010KT 9999 SCT015"
    },
    {
      "icao": "EGNM",
      "alert": "OK",
      "vis_m": 9999,
      "fzfg": false,
      "metar_trigger": false,
      "taf_trigger": false,
      "metar": "METAR EGNM 111620Z 16014KT 9999 -RA SCT003 BKN005 05/04 Q0999",
      "taf": "TAF EGNM 111100Z 1112/1212 15015G28KT 9999 BKN006"
    },
    {
      "icao": "EGPD",
      "alert": "OK",
      "vis_m": 6000,
      "fzfg": false,
      "metar_trigger": false,
      "taf_trigger": false,
      "metar": "METAR EGPD 111620Z AUTO 17025KT 6000 OVC006 04/03 Q0992 TEMPO 4000 RA",
      "taf": ""
    },
    {
      "icao": "EGPF",
      "alert": "OK",
      "vis_m": 9999,
      "fzfg": false,
      "metar_trigger": false,
      "taf_trigger": false,
      "metar": "METAR EGPF 111620Z AUTO 14014KT 110V180 9999 -RA //////TCU 09/07 Q0990",
      "taf": "TAF EGPF 111103Z 1112/1212 14009KT 9999 FEW015 SCT030"
    },
    {
      "icao": "EHBK",
      "alert": "OK",
      "vis_m": 9999,
      "fzfg": false,
      "metar_trigger": false,
      "taf_trigger": false,
      "metar": "METAR EHBK 111625Z AUTO 19007KT 9999 BKN014 OVC016 M00/M02 Q1021 TEMPO BKN016",
      "taf": ""
    },
    {
      "icao": "EHEH",
      "alert": "OK",
      "vis_m": 9999,
      "fzfg": false,
      "metar_trigger": false,
      "taf_trigger": false,
      "metar": "METAR EHEH 111625Z AUTO 17009KT 140V200 9999 BKN012 OVC014 M00/M03 Q1021 GRN NOSIG RMK TREND REMOTE BY EHWX",
      "taf": "TAF EHEH 111136Z 1112/1218 18008KT 9999 OVC014"
    },
    {
      "icao": "EKBI",
      "alert": "OK",
      "vis_m": 9999,
      "fzfg": false,
      "metar_trigger": false,
      "taf_trigger": false,
      "metar": "METAR EKBI 111620Z AUTO 11005KT 9999 BKN210/// M07/M10 Q1022",
      "taf": "TAF EKBI 111427Z 1115/1215 VRB04KT CAVOK"
    },
    {
      "icao": "EKCH",
      "alert": "OK",
      "vis_m": 9999,
      "fzfg": false,
      "metar_trigger": false,
      "taf_trigger": false,
      "metar": "METAR EKCH 111620Z AUTO 32006KT 9999 NCD M04/M09 Q1023 NOSIG",
      "taf": "TAF EKCH 111427Z 1115/1215 33010KT CAVOK"
    },
    {
      "icao": "ENAL",
      "alert": "OK",
      "vis_m": 9999,
      "fzfg": false,
      "metar_trigger": false,
      "taf_trigger": false,
      "metar": "METAR ENAL 111620Z 13012KT CAVOK 03/M08 Q1009",
      "taf": "TAF ENAL 111400Z 1115/1124 12015KT CAVOK"
    },
    {
      "icao": "ENBR",
      "alert": "OK",
      "vis_m": 9999,
      "fzfg": false,
      "metar_trigger": false,
      "taf_trigger": false,
      "metar": "METAR ENBR 111620Z 14021KT 9999 BKN042 01/M08 Q1011 WS R17 TEMPO 13025G35KT RMK WIND 1200FT 14044G55KT",
      "taf": "TAF ENBR 111100Z 1112/1212 13012KT 9999 SCT045"
    },
    {
      "icao": "ENGM",
      "alert": "OK",
      "vis_m": 9999,
      "fzfg": false,
      "metar_trigger": false,
      "taf_trigger": false,
      "metar": "METAR ENGM 111620Z VRB01KT 9999 FEW003 M19/M21 Q1022 TEMPO BKN003",
      "taf": "TAF ENGM 111100Z 1112/1212 VRB03KT CAVOK"
    },
    {
      "icao": "ENHD",
      "alert": "OK",
      "vis_m": 9999,
      "fzfg": false,
      "metar_trigger": false,
      "taf_trigger": false,
      "metar": "METAR ENHD 111620Z 14028G40KT 9999 BKN037 01/M05 Q1012",
      "taf": "TAF ENHD 111400Z 1115/1123 14025KT 9999 BKN040"
    },
    {
      "icao": "ENTC",
      "alert": "OK",
      "vis_m": 9999,
      "fzfg": false,
      "metar_trigger": false,
      "taf_trigger": false,
      "metar": "METAR ENTC 111620Z VRB02KT CAVOK M08/M10 Q1021 NOSIG RMK WIND 2600FT 18016KT",
      "taf": "TAF ENTC 111100Z 1112/1212 20005KT CAVOK"
    },
    {
      "icao": "ENTO",
      "alert": "OK",
      "vis_m": 9999,
      "fzfg": false,
      "metar_trigger": false,
      "taf_trigger": false,
      "metar": "METAR ENTO 111620Z 01005KT CAVOK M15/M17 Q1022 NOSIG",
      "taf": ""
    },
    {
      "icao": "ENVA",
      "alert": "OK",
      "vis_m": 9999,
      "fzfg": false,
      "metar_trigger": false,
      "taf_trigger": false,
      "metar": "METAR ENVA 111620Z 08003KT 050V110 CAVOK M10/M14 Q1017 RMK WIND 670FT 11007KT",
      "taf": "TAF ENVA 111100Z 1112/1212 10008KT CAVOK"
    },
    {
      "icao": "ENZV",
      "alert": "OK",
      "vis_m": 9999,
      "fzfg": false,
      "metar_trigger": false,
      "taf_trigger": false,
      "metar": "METAR ENZV 111620Z 14025KT CAVOK 00/M06 Q1014 TEMPO 14025G35KT",
      "taf": ""
    },
    {
      "icao": "EPGD",
      "alert": "OK",
      "vis_m": 9000,
      "fzfg": false,
      "metar_trigger": false,
      "taf_trigger": false,
      "metar": "METAR EPGD 111630Z 34016KT 9000 -SHSN DRSN SCT011 FEW016CB M01/M03 Q1011 RESHSN",
      "taf": "TAF EPGD 111130Z 1112/1212 33012KT 9999 SCT016"
    },
    {
      "icao": "EPKK",
      "alert": "OK",
      "vis_m": 5000,
      "fzfg": false,
      "metar_trigger": false,
      "taf_trigger": false,
      "metar": "METAR EPKK 111630Z 27017KT 5000 -SN DRSN BR BKN030 M05/M07 Q1014",
      "taf": "TAF EPKK 111430Z 1115/1215 27015KT 5000 -SN BR BKN020"
    },
    {
      "icao": "EPKT",
      "alert": "OK",
      "vis_m": 2800,
      "fzfg": false,
      "metar_trigger": false,
      "taf_trigger": false,
      "metar": "METAR EPKT 111630Z 27014KT 2800 SN DRSN SCT010 BKN015 M06/M07 Q1014",
      "taf": "TAF EPKT 111130Z 1112/1212 28015KT 3000 -SN BR BKN014 BKN016"
    },
    {
      "icao": "EPLB",
      "alert": "OK",
      "vis_m": 7000,
      "fzfg": false,
      "metar_trigger": false,
      "taf_trigger": false,
      "metar": "METAR EPLB 111630Z 29009KT 7000 -SN BKN014 OVC021 M05/M06 Q1009",
      "taf": "TAF EPLB 111130Z 1112/1212 30010KT 8000 -SN BKN030"
    },
    {
      "icao": "EPMO",
      "alert": "OK",
      "vis_m": 1000,
      "fzfg": false,
      "metar_trigger": false,
      "taf_trigger": false,
      "metar": "METAR EPMO 111630Z 26006KT 1000 R08/P2000D +SN SCT005 BKN012 M04/M04 Q1009",
      "taf": "TAF EPMO 111130Z 1112/1212 31010KT 7000 -SN BKN025"
    },
    {
      "icao": "EPPO",
      "alert": "OK",
      "vis_m": 9999,
      "fzfg": false,
      "metar_trigger": false,
      "taf_trigger": false,
      "metar": "METAR EPPO 111630Z 29013KT 9999 FEW018 OVC027 M02/M05 Q1016",
      "taf": "TAF EPPO 111130Z 1112/1212 30012KT 9999 BKN020"
    },
    {
      "icao": "EPRA",
      "alert": "OK",
      "vis_m": 4000,
      "fzfg": false,
      "metar_trigger": false,
      "taf_trigger": false,
      "metar": "METAR EPRA 111630Z 29007KT 260V320 4000 -SN BR OVC017 M04/M05 Q1009 RESN",
      "taf": "TAF EPRA 111430Z 1115/1124 29010KT 8000 -SN BKN024"
    },
    {
      "icao": "EPRZ",
      "alert": "OK",
      "vis_m": 6000,
      "fzfg": false,
      "metar_trigger": false,
      "taf_trigger": false,
      "metar": "METAR EPRZ 111630Z 28016KT 6000 -SN FEW003 OVC013 M03/M05 Q1010",
      "taf": "TAF EPRZ 111130Z 1112/1212 28008KT 3000 -SN BR BKN016"
    },
    {
      "icao": "EPSC",
      "alert": "OK",
      "vis_m": 9999,
      "fzfg": false,
      "metar_trigger": false,
      "taf_trigger": false,
      "metar": "METAR EPSC 111630Z 28009KT CAVOK M02/M06 Q1019",
      "taf": ""
    },
    {
      "icao": "EPSY",
      "alert": "OK",
      "vis_m": 8000,
      "fzfg": false,
      "metar_trigger": false,
      "taf_trigger": false,
      "metar": "METAR EPSY 111630Z 31005KT 270V350 8000 -SN BKN012 OVC046 M05/M06 Q1008",
      "taf": "TAF EPSY 111430Z 1115/1124 31005KT 4500 -SN BKN013"
    },
    {
      "icao": "EPWA",
      "alert": "OK",
      "vis_m": 2000,
      "fzfg": false,
      "metar_trigger": false,
      "taf_trigger": false,
      "metar": "METAR EPWA 111630Z 27006KT 2000 SN SCT011 BKN026 M04/M04 Q1009 TEMPO BKN010",
      "taf": ""
    },
    {
      "icao": "EPWR",
      "alert": "OK",
      "vis_m": 9999,
      "fzfg": false,
      "metar_trigger": false,
      "taf_trigger": false,
      "metar": "METAR EPWR 111630Z 28019KT 9999 -SN DRSN FEW018 BKN030 M04/M08 Q1018",
      "taf": "TAF EPWR 111430Z 1115/1215 29015KT 9999 -SN BKN020"
    },
    {
      "icao": "ESGG",
      "alert": "OK",
      "vis_m": 9999,
      "fzfg": false,
      "metar_trigger": false,
      "taf_trigger": false,
      "metar": "METAR ESGG 111620Z 00000KT CAVOK M12/M13 Q1021",
      "taf": "TAF ESGG 111430Z 1115/1215 08004KT CAVOK"
    },
    {
      "icao": "ESKN",
      "alert": "OK",
      "vis_m": 9999,
      "fzfg": false,
      "metar_trigger": false,
      "taf_trigger": false,
      "metar": "METAR ESKN 111620Z 33013KT CAVOK M08/M10 Q1019",
      "taf": "TAF ESKN 111430Z 1115/1215 33013KT CAVOK"
    },
    {
      "icao": "ESMS",
      "alert": "OK",
      "vis_m": 9999,
      "fzfg": false,
      "metar_trigger": false,
      "taf_trigger": false,
      "metar": "METAR ESMS 111620Z 31009KT CAVOK M08/M11 Q1021",
      "taf": "TAF ESMS 111427Z 1115/1215 31010KT CAVOK"
    },
    {
      "icao": "ESSA",
      "alert": "OK",
      "vis_m": 8000,
      "fzfg": false,
      "metar_trigger": false,
      "taf_trigger": false,
      "metar": "METAR ESSA 111620Z 33013KT 8000 -SN FEW010 SCT018 M06/M08 Q1017 TEMPO 2500 VV012",
      "taf": ""
    },
    {
      "icao": "EYKA",
      "alert": "OK",
      "vis_m": 9999,
      "fzfg": false,
      "metar_trigger": false,
      "taf_trigger": false,
      "metar": "METAR EYKA 111620Z VRB01KT 9999 -SN NSC M11/M13 Q1008",
      "taf": "TAF EYKA 111110Z 1112/1212 VRB03KT 5000 SN BKN030"
    },
    {
      "icao": "EYPA",
      "alert": "OK",
      "vis_m": 9999,
      "fzfg": false,
      "metar_trigger": false,
      "taf_trigger": false,
      "metar": "METAR EYPA 111620Z 04003KT 9999 SCT026 M07/M09 Q1011",
      "taf": "TAF EYPA 111102Z 1112/1212 02007KT 7000 BKN030"
    },
    {
      "icao": "EYVI",
      "alert": "OK",
      "vis_m": 4600,
      "fzfg": false,
      "metar_trigger": false,
      "taf_trigger": false,
      "metar": "METAR EYVI 111620Z 34005KT 4600 SN BKN009 BKN022 M12/M14 Q1006 TEMPO 3000 SN",
      "taf": "TAF EYVI 111100Z 1112/1212 VRB04KT 5000 SN BKN025"
    },
    {
      "icao": "GCFV",
      "alert": "OK",
      "vis_m": 9999,
      "fzfg": false,
      "metar_trigger": false,
      "taf_trigger": false,
      "metar": "METAR GCFV 111600Z 05008KT 010V070 9999 FEW020 19/12 Q1023",
      "taf": "TAF GCFV 111400Z 1115/1215 05008KT 9999 FEW025 TX21/1214Z TN14/1206Z"
    },
    {
      "icao": "GCLP",
      "alert": "OK",
      "vis_m": 9999,
      "fzfg": false,
      "metar_trigger": false,
      "taf_trigger": false,
      "metar": "METAR GCLP 111600Z 04012KT 9999 FEW030 20/13 Q1023 NOSIG",
      "taf": "TAF GCLP 111400Z 1115/1215 04012KT 9999 FEW030 TX21/1214Z TN15/1206Z"
    },
    {
      "icao": "GCTS",
      "alert": "OK",
      "vis_m": 9999,
      "fzfg": false,
      "metar_trigger": false,
      "taf_trigger": false,
      "metar": "METAR GCTS 111600Z 09017KT 9999 FEW035 20/13 Q1023 NOSIG",
      "taf": "TAF GCTS 111400Z 1115/1215 09017KT 9999 FEW040 TX23/1214Z TN16/1206Z"
    },
    {
      "icao": "GMAD",
      "alert": "OK",
      "vis_m": 9999,
      "fzfg": false,
      "metar_trigger": false,
      "taf_trigger": false,
      "metar": "METAR GMAD 111630Z 27005KT CAVOK 21/11 Q1022 NOSIG",
      "taf": "TAF GMAD 111100Z 1112/1218 06005KT CAVOK"
    },
    {
      "icao": "GMMN",
      "alert": "OK",
      "vis_m": 9999,
      "fzfg": false,
      "metar_trigger": false,
      "taf_trigger": false,
      "metar": "METAR GMMN 111630Z 36010KT CAVOK 15/10 Q1025 NOSIG",
      "taf": "TAF GMMN 111100Z 1112/1218 05012KT 9999 FEW020"
    },
    {
      "icao": "GMMX",
      "alert": "OK",
      "vis_m": 9999,
      "fzfg": false,
      "metar_trigger": false,
      "taf_trigger": false,
      "metar": "METAR GMMX 111630Z VRB02KT CAVOK 18/08 Q1023 NOSIG",
      "taf": "TAF GMMX 111100Z 1112/1218 06006KT CAVOK"
    },
    {
      "icao": "HEGN",
      "alert": "OK",
      "vis_m": 9999,
      "fzfg": false,
      "metar_trigger": false,
      "taf_trigger": false,
      "metar": "METAR HEGN 111600Z 12003KT CAVOK 21/12 Q1016 NOSIG",
      "taf": "TAF HEGN 111100Z 1112/1218 36013KT CAVOK"
    },
    {
      "icao": "HEMA",
      "alert": "OK",
      "vis_m": 9999,
      "fzfg": false,
      "metar_trigger": false,
      "taf_trigger": false,
      "metar": "METAR HEMA 111600Z 35007KT CAVOK 21/14 Q1016 NOSIG",
      "taf": "TAF HEMA 111100Z 1112/1218 36015KT CAVOK"
    },
    {
      "icao": "HESH",
      "alert": "OK",
      "vis_m": 9999,
      "fzfg": false,
      "metar_trigger": false,
      "taf_trigger": false,
      "metar": "METAR HESH 111600Z 15006KT CAVOK 21/11 Q1016 NOSIG",
      "taf": "TAF HESH 111100Z 1112/1218 01012KT CAVOK"
    },
    {
      "icao": "HESX",
      "alert": "OK",
      "vis_m": 9999,
      "fzfg": false,
      "metar_trigger": false,
      "taf_trigger": false,
      "metar": "METAR HESX 111600Z 25006KT CAVOK 18/02 Q1015 NOSIG",
      "taf": "TAF HESX 111100Z 1112/1218 22010KT 9999 FEW020"
    },
    {
      "icao": "LATI",
      "alert": "OK",
      "vis_m": 9999,
      "fzfg": false,
      "metar_trigger": false,
      "taf_trigger": false,
      "metar": "METAR LATI 111620Z 31013KT CAVOK 04/M05 Q1012 NOSIG",
      "taf": "TAF LATI 111100Z 1112/1212 34012KT CAVOK TX12/1112Z TNM04/1205Z"
    },
    {
      "icao": "LBPD",
      "alert": "OK",
      "vis_m": 9999,
      "fzfg": false,
      "metar_trigger": false,
      "taf_trigger": false,
      "metar": "METAR LBPD 111630Z AUTO 28021KT 9999 -SN OVC041/// M01/M03 Q1013 TEMPO 4000 SN",
      "taf": "TAF LBPD 111100Z 1112/1212 28020KT 9999 SCT020 BKN050"
    },
    {
      "icao": "LBSF",
      "alert": "OK",
      "vis_m": 9999,
      "fzfg": false,
      "metar_trigger": false,
      "taf_trigger": false,
      "metar": "METAR LBSF 111630Z AUTO 28015KT 9999 FEW035/// M05/M10 Q1014 NOSIG",
      "taf": "TAF LBSF 111100Z 1112/1212 28018KT 7000 BKN012 OVC040"
    },
    {
      "icao": "LBWN",
      "alert": "OK",
      "vis_m": 9999,
      "fzfg": false,
      "metar_trigger": false,
      "taf_trigger": false,
      "metar": "METAR LBWN 111630Z 27008KT 9999 -SN OVC037 M02/M06 Q1013 TEMPO 5000 -SN",
      "taf": "TAF LBWN 111100Z 1112/1212 33010KT 9999 SCT010 BKN015 OVC030"
    },
    {
      "icao": "LCLK",
      "alert": "OK",
      "vis_m": 9999,
      "fzfg": false,
      "metar_trigger": false,
      "taf_trigger": false,
      "metar": "METAR LCLK 111630Z 20020KT 9999 FEW020 FEW025TCU 17/14 Q1011 NOSIG",
      "taf": "TAF LCLK 111130Z 1112/1212 21021KT 9999 FEW025TCU FEW030CB SCT035"
    },
    {
      "icao": "LCPH",
      "alert": "OK",
      "vis_m": 9999,
      "fzfg": false,
      "metar_trigger": false,
      "taf_trigger": false,
      "metar": "METAR LCPH 111630Z 24014KT 9999 FEW030 FEW035TCU SCT040 BKN070 18/11 Q1012 NOSIG",
      "taf": "TAF LCPH 111130Z 1112/1212 24019KT 9999 FEW025TCU SCT030 FEW035CB"
    },
    {
      "icao": "LEAL",
      "alert": "OK",
      "vis_m": 9999,
      "fzfg": false,
      "metar_trigger": false,
      "taf_trigger": false,
      "metar": "METAR LEAL 111600Z 06003KT 030V110 CAVOK 15/07 Q1024 NOSIG",
      "taf": "TAF LEAL 111100Z 1112/1212 28008KT CAVOK TX16/1113Z TN07/1206Z"
    },
    {
      "icao": "LEBB",
      "alert": "OK",
      "vis_m": 9999,
      "fzfg": false,
      "metar_trigger": false,
      "taf_trigger": false,
      "metar": "METAR LEBB 111600Z VRB04KT 9999 BKN060 15/07 Q1020 NOSIG",
      "taf": "TAF LEBB 111100Z 1112/1212 18008KT 9999 FEW040 TX14/1114Z TN12/1207Z"
    },
    {
      "icao": "LEBL",
      "alert": "OK",
      "vis_m": 9999,
      "fzfg": false,
      "metar_trigger": false,
      "taf_trigger": false,
      "metar": "METAR LEBL 111600Z 23006KT CAVOK 12/05 Q1023 NOSIG",
      "taf": ""
    },
    {
      "icao": "LECH",
      "alert": "OK",
      "vis_m": 9999,
      "fzfg": false,
      "metar_trigger": false,
      "taf_trigger": false,
      "metar": "METAR LECH 111600Z AUTO 17006KT 140V200 CAVOK 12/00 Q1023",
      "taf": ""
    },
    {
      "icao": "LEMD",
      "alert": "OK",
      "vis_m": 9999,
      "fzfg": false,
      "metar_trigger": false,
      "taf_trigger": false,
      "metar": "METAR LEMD 111600Z 13004KT 090V160 CAVOK 10/03 Q1024 NOSIG",
      "taf": "TAF LEMD 111100Z 1112/1218 VRB03KT CAVOK TX10/1114Z TN02/1200Z"
    },
    {
      "icao": "LEMG",
      "alert": "OK",
      "vis_m": 9999,
      "fzfg": false,
      "metar_trigger": false,
      "taf_trigger": false,
      "metar": "METAR LEMG 111600Z 16005KT 120V200 CAVOK 14/07 Q1025 NOSIG",
      "taf": "TAF LEMG 111100Z 1112/1212 26006KT CAVOK TX17/1114Z TN07/1207Z"
    },
    {
      "icao": "LEVC",
      "alert": "OK",
      "vis_m": 9999,
      "fzfg": false,
      "metar_trigger": false,
      "taf_trigger": false,
      "metar": "METAR LEVC 111600Z 20006KT 170V230 CAVOK 17/03 Q1023 NOSIG",
      "taf": "TAF LEVC 111100Z 1112/1212 27008KT CAVOK TX16/1114Z TN05/1206Z"
    },
    {
      "icao": "LEXJ",
      "alert": "OK",
      "vis_m": 9999,
      "fzfg": false,
      "metar_trigger": false,
      "taf_trigger": false,
      "metar": "METAR LEXJ 111600Z 17007G19KT 100V250 9999 SCT085 16/07 Q1018",
      "taf": "TAF LEXJ 111400Z 1115/1215 22009KT 9999 SCT060 TX15/1213Z TN12/1208Z"
    },
    {
      "icao": "LEZG",
      "alert": "OK",
      "vis_m": 9999,
      "fzfg": false,
      "metar_trigger": false,
      "taf_trigger": false,
      "metar": "METAR LEZG 111600Z 24007KT 210V270 CAVOK 14/05 Q1022 NOSIG",
      "taf": "TAF LEZG 111100Z 1112/1212 24009KT 9999 FEW050 TX13/1115Z TN04/1206Z"
    },
    {
      "icao": "LEZL",
      "alert": "OK",
      "vis_m": 9999,
      "fzfg": false,
      "metar_trigger": false,
      "taf_trigger": false,
      "metar": "METAR LEZL 111600Z VRB01KT CAVOK 16/07 Q1026 NOSIG",
      "taf": "TAF LEZL 111400Z 1115/1215 06004KT CAVOK TX16/1115Z TN05/1207Z"
    },
    {
      "icao": "LFBD",
      "alert": "OK",
      "vis_m": 9999,
      "fzfg": false,
      "metar_trigger": false,
      "taf_trigger": false,
      "metar": "METAR LFBD 111630Z AUTO 13009KT 9999 OVC004 06/06 Q1020",
      "taf": ""
    },
    {
      "icao": "LFLL",
      "alert": "OK",
      "vis_m": 9999,
      "fzfg": false,
      "metar_trigger": false,
      "taf_trigger": false,
      "metar": "METAR LFLL 111630Z VRB02KT CAVOK 03/M02 Q1023 NOSIG",
      "taf": "TAF LFLL 111100Z 1112/1218 35008KT 9999 SCT020"
    },
    {
      "icao": "LFLS",
      "alert": "OK",
      "vis_m": 9999,
      "fzfg": false,
      "metar_trigger": false,
      "taf_trigger": false,
      "metar": "METAR LFLS 111630Z AUTO 02003KT CAVOK M00/M02 Q1022",
      "taf": ""
    },
    {
      "icao": "LFMN",
      "alert": "OK",
      "vis_m": 9999,
      "fzfg": false,
      "metar_trigger": false,
      "taf_trigger": false,
      "metar": "METAR LFMN 111630Z 24010KT CAVOK 12/00 Q1020 NOSIG",
      "taf": "TAF LFMN 111400Z 1115/1221 22010KT CAVOK"
    },
    {
      "icao": "LFOB",
      "alert": "OK",
      "vis_m": 9999,
      "fzfg": false,
      "metar_trigger": false,
      "taf_trigger": false,
      "metar": "METAR LFOB 111630Z AUTO 16011KT CAVOK 04/M00 Q1018 TEMPO 4000 -RA OVC010",
      "taf": "TAF LFOB 111100Z 1112/1212 18012KT 9999 BKN020"
    },
    {
      "icao": "LFPO",
      "alert": "OK",
      "vis_m": 9999,
      "fzfg": false,
      "metar_trigger": false,
      "taf_trigger": false,
      "metar": "METAR LFPO 111630Z AUTO 16009KT CAVOK 04/M01 Q1020",
      "taf": "TAF LFPO 110500Z 1106/1212 19005KT CAVOK"
    },
    {
      "icao": "LFSB",
      "alert": "OK",
      "vis_m": 9999,
      "fzfg": false,
      "metar_trigger": false,
      "taf_trigger": false,
      "metar": "METAR LFSB 111630Z AUTO 00000KT 9999 OVC022 01/M00 Q1024 NOSIG",
      "taf": ""
    },
    {
      "icao": "LGAV",
      "alert": "OK",
      "vis_m": 9999,
      "fzfg": false,
      "metar_trigger": false,
      "taf_trigger": false,
      "metar": "METAR LGAV 111620Z VRB02KT 9999 SCT020 11/01 Q1007 NOSIG",
      "taf": "TAF LGAV 111100Z 1112/1212 30013G23KT 9999 SCT025 SCT070"
    },
    {
      "icao": "LGTS",
      "alert": "OK",
      "vis_m": 9999,
      "fzfg": false,
      "metar_trigger": false,
      "taf_trigger": false,
      "metar": "METAR LGTS 111620Z 34023G33KT 9999 FEW015 SCT025 04/M04 Q1011 NOSIG",
      "taf": "TAF LGTS 111100Z 1112/1212 34015KT 9999 SCT030"
    },
    {
      "icao": "LHBP",
      "alert": "OK",
      "vis_m": 9999,
      "fzfg": false,
      "metar_trigger": false,
      "taf_trigger": false,
      "metar": "METAR LHBP 111630Z 31019KT 9999 DRSN NSC M03/M07 Q1017 NOSIG",
      "taf": "TAF LHBP 111115Z 1112/1212 30020G30KT 9999 DRSN FEW020 SCT080"
    },
    {
      "icao": "LHDC",
      "alert": "OK",
      "vis_m": null,
      "fzfg": false,
      "metar_trigger": false,
      "taf_trigger": false,
      "metar": "",
      "taf": "TAF LHDC 111415Z 1115/1124 19007KT CAVOK"
    },
    {
      "icao": "LIBD",
      "alert": "OK",
      "vis_m": 9999,
      "fzfg": false,
      "metar_trigger": false,
      "taf_trigger": false,
      "metar": "METAR LIBD 111620Z 32014KT 9999 FEW045 08/M04 Q1016",
      "taf": "TAF LIBD 111100Z 1112/1212 34018G28KT 9999 FEW040"
    },
    {
      "icao": "LIBG",
      "alert": "OK",
      "vis_m": 9999,
      "fzfg": false,
      "metar_trigger": false,
      "taf_trigger": false,
      "metar": "METAR LIBG 111550Z 32011KT CAVOK 08/M00 Q1014",
      "taf": "TAF LIBG 111400Z 1115/1124 33014KT 9999 SCT040"
    },
    {
      "icao": "LIBP",
      "alert": "OK",
      "vis_m": 9999,
      "fzfg": false,
      "metar_trigger": false,
      "taf_trigger": false,
      "metar": "METAR LIBP 111620Z AUTO 23004KT 9999 BKN052/// 04/04 Q1022",
      "taf": "TAF LIBP 111100Z 1112/1212 35010KT 9999 SCT040"
    },
    {
      "icao": "LIBR",
      "alert": "OK",
      "vis_m": 9999,
      "fzfg": false,
      "metar_trigger": false,
      "taf_trigger": false,
      "metar": "METAR LIBR 111620Z 35017G28KT 9999 FEW045 09/M02 Q1014",
      "taf": "TAF LIBR 111100Z 1112/1212 34018G30KT 9999 SCT040"
    },
    {
      "icao": "LICA",
      "alert": "OK",
      "vis_m": 9999,
      "fzfg": false,
      "metar_trigger": false,
      "taf_trigger": false,
      "metar": "METAR LICA 111620Z AUTO 36004KT 310V030 9999 SCT062/// 10/03 Q1015",
      "taf": "TAF LICA 111100Z 1112/1212 28010KT 9999 FEW030"
    },
    {
      "icao": "LICC",
      "alert": "OK",
      "vis_m": 9999,
      "fzfg": false,
      "metar_trigger": false,
      "taf_trigger": false,
      "metar": "METAR LICC 111620Z 19005KT 160V220 9999 FEW040 11/06 Q1015",
      "taf": "TAF LICC 111100Z 1112/1212 26016KT 9999 SCT040"
    },
    {
      "icao": "LICJ",
      "alert": "OK",
      "vis_m": 9999,
      "fzfg": false,
      "metar_trigger": false,
      "taf_trigger": false,
      "metar": "METAR LICJ 111620Z VRB02KT 9999 SCT040 09/05 Q1018",
      "taf": "TAF LICJ 111100Z 1112/1212 35011KT 9999 SCT030"
    },
    {
      "icao": "LIMC",
      "alert": "OK",
      "vis_m": 9999,
      "fzfg": false,
      "metar_trigger": false,
      "taf_trigger": false,
      "metar": "METAR LIMC 111620Z 27005KT 250V330 CAVOK 08/M04 Q1019 NOSIG",
      "taf": "TAF LIMC 111100Z 1112/1218 01006KT CAVOK"
    },
    {
      "icao": "LIME",
      "alert": "OK",
      "vis_m": 9999,
      "fzfg": false,
      "metar_trigger": false,
      "taf_trigger": false,
      "metar": "METAR LIME 111620Z 22003KT CAVOK 05/M05 Q1019 NOSIG",
      "taf": "TAF LIME 111100Z 1112/1212 VRB05KT CAVOK"
    },
    {
      "icao": "LIMF",
      "alert": "OK",
      "vis_m": 9999,
      "fzfg": false,
      "metar_trigger": false,
      "taf_trigger": false,
      "metar": "METAR LIMF 111620Z 09003KT CAVOK 07/M08 Q1019",
      "taf": "TAF LIMF 111100Z 1112/1212 VRB05KT CAVOK"
    },
    {
      "icao": "LIMJ",
      "alert": "OK",
      "vis_m": 9999,
      "fzfg": false,
      "metar_trigger": false,
      "taf_trigger": false,
      "metar": "METAR LIMJ 111620Z 33005KT 310V020 CAVOK 10/M10 Q1020",
      "taf": "TAF LIMJ 111100Z 1112/1212 03012KT CAVOK"
    },
    {
      "icao": "LIPE",
      "alert": "OK",
      "vis_m": 9999,
      "fzfg": false,
      "metar_trigger": false,
      "taf_trigger": false,
      "metar": "METAR LIPE 111620Z 11005KT CAVOK 05/M02 Q1020",
      "taf": "TAF LIPE 111100Z 1112/1212 VRB06KT CAVOK"
    },
    {
      "icao": "LIPH",
      "alert": "OK",
      "vis_m": 9999,
      "fzfg": false,
      "metar_trigger": false,
      "taf_trigger": false,
      "metar": "METAR LIPH 111620Z 15003KT 9999 BKN040 06/01 Q1021",
      "taf": "TAF LIPH 111100Z 1112/1212 VRB05KT CAVOK"
    },
    {
      "icao": "LIPQ",
      "alert": "OK",
      "vis_m": 9999,
      "fzfg": false,
      "metar_trigger": false,
      "taf_trigger": false,
      "metar": "METAR LIPQ 111620Z AUTO 25004KT 210V290 9999 BKN050/// 02/M03 Q1022",
      "taf": "TAF LIPQ 111100Z 1112/1212 VRB05KT CAVOK"
    },
    {
      "icao": "LIPR",
      "alert": "OK",
      "vis_m": 9999,
      "fzfg": false,
      "metar_trigger": false,
      "taf_trigger": false,
      "metar": "METAR LIPR 111620Z 17002KT 9999 FEW050 03/M01 Q1021",
      "taf": "TAF LIPR 111100Z 1112/1212 VRB05KT 9999 FEW040"
    },
    {
      "icao": "LIPX",
      "alert": "OK",
      "vis_m": 9999,
      "fzfg": false,
      "metar_trigger": false,
      "taf_trigger": false,
      "metar": "METAR LIPX 111620Z 08005KT CAVOK 06/M02 Q1020",
      "taf": "TAF LIPX 111100Z 1112/1212 VRB05KT CAVOK"
    },
    {
      "icao": "LIPY",
      "alert": "OK",
      "vis_m": 9999,
      "fzfg": false,
      "metar_trigger": false,
      "taf_trigger": false,
      "metar": "METAR LIPY 111620Z AUTO 15003KT 110V200 9999 NCD 05/00 Q1021",
      "taf": "TAF LIPY 111100Z 1112/1212 VRB05KT 9999 SCT030"
    },
    {
      "icao": "LIPZ",
      "alert": "OK",
      "vis_m": 9999,
      "fzfg": false,
      "metar_trigger": false,
      "taf_trigger": false,
      "metar": "METAR LIPZ 111620Z VRB02KT 9999 SCT035 06/01 Q1021 NOSIG",
      "taf": "TAF LIPZ 111100Z 1112/1218 VRB06KT CAVOK"
    },
    {
      "icao": "LIRF",
      "alert": "OK",
      "vis_m": 9999,
      "fzfg": false,
      "metar_trigger": false,
      "taf_trigger": false,
      "metar": "METAR LIRF 111620Z 35009KT CAVOK 09/M00 Q1018 NOSIG",
      "taf": "TAF LIRF 111100Z 1112/1218 02009KT CAVOK"
    },
    {
      "icao": "LIRN",
      "alert": "OK",
      "vis_m": 9999,
      "fzfg": false,
      "metar_trigger": false,
      "taf_trigger": false,
      "metar": "METAR LIRN 111620Z 06011KT 040V100 CAVOK 08/M02 Q1017 NOSIG",
      "taf": "TAF LIRN 111100Z 1112/1212 03012KT 9999 SCT030"
    },
    {
      "icao": "LIRP",
      "alert": "OK",
      "vis_m": 9999,
      "fzfg": false,
      "metar_trigger": false,
      "taf_trigger": false,
      "metar": "METAR LIRP 111615Z VRB02KT CAVOK 10/00 Q1020 NOSIG",
      "taf": "TAF LIRP 111100Z 1112/1212 12005KT CAVOK"
    },
    {
      "icao": "LIRZ",
      "alert": "OK",
      "vis_m": 9999,
      "fzfg": false,
      "metar_trigger": false,
      "taf_trigger": false,
      "metar": "METAR LIRZ 111620Z AUTO 36006KT 9999 BKN062/// 05/M00 Q1020",
      "taf": "TAF LIRZ 111100Z 1112/1212 02013KT 9999 FEW030"
    },
    {
      "icao": "LJLJ",
      "alert": "OK",
      "vis_m": 9999,
      "fzfg": false,
      "metar_trigger": false,
      "taf_trigger": false,
      "metar": "METAR LJLJ 111600Z 29002KT CAVOK M07/M08 Q1021 NOSIG",
      "taf": "TAF LJLJ 111100Z 1112/1212 11008KT 9999 SCT010 BKN018"
    },
    {
      "icao": "LKMT",
      "alert": "OK",
      "vis_m": 8000,
      "fzfg": false,
      "metar_trigger": false,
      "taf_trigger": false,
      "metar": "METAR LKMT 111630Z 22010KT 8000 -SN BKN030 M06/M07 Q1017 NOSIG",
      "taf": ""
    },
    {
      "icao": "LKPR",
      "alert": "OK",
      "vis_m": 9999,
      "fzfg": false,
      "metar_trigger": false,
      "taf_trigger": false,
      "metar": "METAR LKPR 111630Z 25010KT CAVOK M07/M15 Q1021 NOSIG",
      "taf": "TAF LKPR 111400Z 1115/1221 28012KT CAVOK"
    },
    {
      "icao": "LLBG",
      "alert": "OK",
      "vis_m": 9999,
      "fzfg": false,
      "metar_trigger": false,
      "taf_trigger": false,
      "metar": "METAR LLBG 111620Z VRB03KT CAVOK 16/10 Q1016 NOSIG",
      "taf": "TAF LLBG 111116Z 1112/1212 25010KT CAVOK"
    },
    {
      "icao": "LMML",
      "alert": "OK",
      "vis_m": 9999,
      "fzfg": false,
      "metar_trigger": false,
      "taf_trigger": false,
      "metar": "METAR LMML 111615Z 31015KT 9999 FEW030 11/06 Q1016 NOSIG",
      "taf": "TAF LMML 111100Z 1112/1212 30021G32KT 9999 FEW020"
    },
    {
      "icao": "LOWW",
      "alert": "OK",
      "vis_m": 9999,
      "fzfg": false,
      "metar_trigger": false,
      "taf_trigger": false,
      "metar": "METAR LOWW 111620Z 30019KT CAVOK M03/M11 Q1020 NOSIG",
      "taf": "TAF LOWW 111415Z 1115/1221 30015KT CAVOK TXM03/1115Z TNM08/1207Z"
    },
    {
      "icao": "LPFR",
      "alert": "OK",
      "vis_m": 9999,
      "fzfg": false,
      "metar_trigger": false,
      "taf_trigger": false,
      "metar": "METAR LPFR 111600Z 21005KT 180V240 9999 FEW020 15/10 Q1026",
      "taf": "TAF LPFR 111106Z 1112/1212 VRB05KT CAVOK"
    },
    {
      "icao": "LPMA",
      "alert": "OK",
      "vis_m": 9999,
      "fzfg": false,
      "metar_trigger": false,
      "taf_trigger": false,
      "metar": "METAR LPMA 111600Z 05006KT 350V100 9999 SCT013 18/12 Q1025",
      "taf": "TAF LPMA 111106Z 1112/1212 VRB05KT 9999 SCT015"
    },
    {
      "icao": "LPPR",
      "alert": "OK",
      "vis_m": 3000,
      "fzfg": false,
      "metar_trigger": false,
      "taf_trigger": false,
      "metar": "METAR LPPR 111600Z 19014KT 3000 -DZRA BR SCT003 BKN005 14/13 Q1023",
      "taf": "TAF LPPR 111106Z 1112/1212 18013KT 9999 SCT006 BKN015"
    },
    {
      "icao": "LPPS",
      "alert": "OK",
      "vis_m": 9999,
      "fzfg": false,
      "metar_trigger": false,
      "taf_trigger": false,
      "metar": "METAR LPPS 111600Z VRB03KT 9999 FEW015 SCT030 17/13 Q1025",
      "taf": "TAF LPPS 111106Z 1112/1218 VRB05KT 9999 SCT015"
    },
    {
      "icao": "LPPT",
      "alert": "OK",
      "vis_m": 9999,
      "fzfg": false,
      "metar_trigger": false,
      "taf_trigger": false,
      "metar": "METAR LPPT 111600Z 22012KT 9999 FEW008 BKN012 14/13 Q1025",
      "taf": ""
    },
    {
      "icao": "LQBK",
      "alert": "OK",
      "vis_m": 9999,
      "fzfg": false,
      "metar_trigger": false,
      "taf_trigger": false,
      "metar": "METAR LQBK 111630Z 00000KT CAVOK M05/M08 Q1022 NOSIG",
      "taf": "TAF LQBK 111100Z 1112/1212 30006KT CAVOK TXM01/1112Z TNM12/1206Z"
    },
    {
      "icao": "LQSA",
      "alert": "OK",
      "vis_m": 9999,
      "fzfg": false,
      "metar_trigger": false,
      "taf_trigger": false,
      "metar": "METAR LQSA 111630Z 28004KT 9999 FEW035 BKN050 M05/M07 Q1019 NOSIG",
      "taf": "TAF LQSA 111100Z 1112/1212 29006KT 9999 BKN030 TXM04/1212Z TNM14/1206Z"
    },
    {
      "icao": "LQTZ",
      "alert": "OK",
      "vis_m": 9999,
      "fzfg": false,
      "metar_trigger": false,
      "taf_trigger": false,
      "metar": "METAR LQTZ 111630Z 30004KT 9999 FEW028 BKN046 M03/M06 Q1021",
      "taf": "TAF LQTZ 111100Z 1112/1212 34007KT 9999 BKN030 TXM02/1113Z TNM13/1206Z"
    },
    {
      "icao": "LRBC",
      "alert": "OK",
      "vis_m": 9999,
      "fzfg": false,
      "metar_trigger": false,
      "taf_trigger": false,
      "metar": "METAR LRBC 111600Z 26011KT CAVOK M03/M12 Q1011",
      "taf": "TAF LRBC 111400Z 1115/1124 VRB04KT CAVOK"
    },
    {
      "icao": "LRBS",
      "alert": "OK",
      "vis_m": 6000,
      "fzfg": false,
      "metar_trigger": false,
      "taf_trigger": false,
      "metar": "METAR LRBS 111600Z 19003KT 150V220 6000 BKN027 M04/M07 Q1014 TEMPO 5000 BR",
      "taf": "TAF LRBS 111100Z 1112/1212 07008KT 5000 BR BKN035"
    },
    {
      "icao": "LRBV",
      "alert": "OK",
      "vis_m": 9999,
      "fzfg": false,
      "metar_trigger": false,
      "taf_trigger": false,
      "metar": "METAR LRBV 111600Z 23004KT 190V250 9999 SCT039 M07/M11 Q1012",
      "taf": "TAF LRBV 111400Z 1115/1124 30015KT 9999 BKN025 BKN050"
    },
    {
      "icao": "LRCL",
      "alert": "OK",
      "vis_m": 9999,
      "fzfg": false,
      "metar_trigger": false,
      "taf_trigger": false,
      "metar": "METAR LRCL 111600Z 07004KT 9999 OVC065 M06/M09 Q1013",
      "taf": "TAF LRCL 111400Z 1115/1124 VRB04KT 9999 OVC045"
    },
    {
      "icao": "LRCV",
      "alert": "OK",
      "vis_m": 9999,
      "fzfg": false,
      "metar_trigger": false,
      "taf_trigger": false,
      "metar": "METAR LRCV 111600Z 28012KT CAVOK M02/M06 Q1014",
      "taf": "TAF LRCV 111400Z 1115/1124 VRB04KT 3000 BR BKN005 OVC025"
    },
    {
      "icao": "LRIA",
      "alert": "OK",
      "vis_m": 9999,
      "fzfg": false,
      "metar_trigger": false,
      "taf_trigger": false,
      "metar": "METAR LRIA 111600Z 18003KT 120V200 CAVOK M04/M10 Q1010",
      "taf": "TAF LRIA 111400Z 1115/1124 30006KT CAVOK"
    },
    {
      "icao": "LROP",
      "alert": "OK",
      "vis_m": 5000,
      "fzfg": false,
      "metar_trigger": false,
      "taf_trigger": false,
      "metar": "METAR LROP 111600Z 26003KT 5000 BR NSC M05/M05 Q1014 TEMPO 3000 BR",
      "taf": "TAF LROP 111100Z 1112/1212 07008KT 5000 BR BKN035"
    },
    {
      "icao": "LRSB",
      "alert": "OK",
      "vis_m": 9999,
      "fzfg": false,
      "metar_trigger": false,
      "taf_trigger": false,
      "metar": "METAR LRSB 111600Z 14004KT 9999 OVC047 M05/M09 Q1013",
      "taf": "TAF LRSB 111100Z 1112/1212 35008KT 9999 BKN025 OVC040"
    },
    {
      "icao": "LRSM",
      "alert": "OK",
      "vis_m": 9999,
      "fzfg": false,
      "metar_trigger": false,
      "taf_trigger": false,
      "metar": "METAR LRSM 111600Z 23003KT 190V260 9999 FEW045 M08/M10 Q1015",
      "taf": "TAF LRSM 111400Z 1115/1124 27014KT 9999 BKN040"
    },
    {
      "icao": "LRSV",
      "alert": "OK",
      "vis_m": 9999,
      "fzfg": false,
      "metar_trigger": false,
      "taf_trigger": false,
      "metar": "METAR LRSV 111600Z 27009KT 9999 SCT045 M04/M12 Q1007",
      "taf": "TAF LRSV 111400Z 1115/1124 26008KT CAVOK"
    },
    {
      "icao": "LRTM",
      "alert": "OK",
      "vis_m": 9999,
      "fzfg": false,
      "metar_trigger": false,
      "taf_trigger": false,
      "metar": "METAR LRTM 111600Z 09004KT 9999 SCT044 M06/M10 Q1014",
      "taf": "TAF LRTM 111400Z 1115/1124 VRB04KT 9999 OVC045"
    },
    {
      "icao": "LRTR",
      "alert": "OK",
      "vis_m": 9999,
      "fzfg": false,
      "metar_trigger": false,
      "taf_trigger": false,
      "metar": "METAR LRTR 111600Z 19005KT 170V240 9999 -SN OVC027 M05/M07 Q1018",
      "taf": "TAF LRTR 111100Z 1112/1212 28010KT CAVOK"
    },
    {
      "icao": "LTAC",
      "alert": "OK",
      "vis_m": 2800,
      "fzfg": false,
      "metar_trigger": false,
      "taf_trigger": false,
      "metar": "METAR LTAC 111620Z 32002KT 2800 -SN BR SCT002 BKN020 BKN080 00/M00 Q1004 NOSIG RMK RWY21C 32002KT RWY03L 00000KT RWY21R VRB01KT RWY03R VRB01KT RWY21L 32002KT",
      "taf": "TAF LTAC 111040Z 1112/1212 VRB02KT 6000 SCT035 BKN090"
    },
    {
      "icao": "LTFM",
      "alert": "OK",
      "vis_m": 7000,
      "fzfg": false,
      "metar_trigger": false,
      "taf_trigger": false,
      "metar": "METAR LTFM 111620Z 02023KT 7000 -RA BKN012 BKN020 04/01 Q1009 NOSIG RMK RWY17L 02020KT RWY34L 01020KT RWY16R 02021KT RWY36 02022KT RWY18 03020KT",
      "taf": "TAF LTFM 111040Z 1112/1218 03015KT 9999 -RA BKN012 BKN020"
    },
    {
      "icao": "LUKK",
      "alert": "OK",
      "vis_m": 9999,
      "fzfg": false,
      "metar_trigger": false,
      "taf_trigger": false,
      "metar": "METAR LUKK 111630Z 27007KT CAVOK M09/M12 Q1010 NOSIG",
      "taf": "TAF LUKK 111116Z 1112/1212 28009KT CAVOK"
    },
    {
      "icao": "LWOH",
      "alert": "OK",
      "vis_m": 9999,
      "fzfg": false,
      "metar_trigger": false,
      "taf_trigger": false,
      "metar": "METAR LWOH 111620Z 32009KT 280V350 9999 FEW015 SCT040 M02/M05 Q1011",
      "taf": "TAF LWOH 111140Z 1112/1212 36010KT 9999 SCT050"
    },
    {
      "icao": "LWSK",
      "alert": "OK",
      "vis_m": 9999,
      "fzfg": false,
      "metar_trigger": false,
      "taf_trigger": false,
      "metar": "METAR LWSK 111620Z 01012KT 9999 BKN045 M02/M08 Q1017 NOSIG",
      "taf": "TAF LWSK 111455Z 1115/1215 01015KT 9999 BKN045"
    },
    {
      "icao": "LYBE",
      "alert": "OK",
      "vis_m": 9999,
      "fzfg": false,
      "metar_trigger": false,
      "taf_trigger": false,
      "metar": "METAR LYBE 111630Z 28011KT 9999 SCT033 M03/M07 Q1020 NOSIG",
      "taf": "TAF LYBE 111100Z 1112/1212 28015KT 9999 BKN020 TXM02/1212Z TNM10/1206Z"
    },
    {
      "icao": "LYNI",
      "alert": "OK",
      "vis_m": 9999,
      "fzfg": false,
      "metar_trigger": false,
      "taf_trigger": false,
      "metar": "METAR LYNI 111630Z 30004KT 280V340 9999 -SN FEW015 BKN025 M04/M06 Q1019 NOSIG",
      "taf": "TAF LYNI 111100Z 1112/1212 32010KT 9999 SCT015 BKN025 TXM02/1212Z TNM07/1206Z"
    },
    {
      "icao": "LYPG",
      "alert": "OK",
      "vis_m": 9999,
      "fzfg": false,
      "metar_trigger": false,
      "taf_trigger": false,
      "metar": "METAR LYPG 111630Z 36019G31KT 9999 FEW040 01/M13 Q1016 NOSIG",
      "taf": "TAF LYPG 111100Z 1112/1212 36015G25KT CAVOK TX08/1112Z TNM01/1205Z"
    },
    {
      "icao": "LZIB",
      "alert": "OK",
      "vis_m": 9999,
      "fzfg": false,
      "metar_trigger": false,
      "taf_trigger": false,
      "metar": "METAR LZIB 111630Z 29014KT CAVOK M02/M12 Q1020 NOSIG",
      "taf": "TAF LZIB 111115Z 1112/1212 29015KT 9999 SCT030"
    },
    {
      "icao": "LZKZ",
      "alert": "OK",
      "vis_m": 9999,
      "fzfg": false,
      "metar_trigger": false,
      "taf_trigger": false,
      "metar": "METAR LZKZ 111630Z 02003KT 9999 FEW045 M06/M09 Q1013 NOSIG",
      "taf": "TAF LZKZ 111115Z 1112/1212 23005KT 9999 SCT045"
    },
    {
      "icao": "LZTT",
      "alert": "OK",
      "vis_m": 9999,
      "fzfg": false,
      "metar_trigger": false,
      "taf_trigger": false,
      "metar": "METAR LZTT 111630Z 27017KT 9999 -SN DRSN FEW011 BKN046 M07/M10 Q1010 NOSIG",
      "taf": "TAF LZTT 111115Z 1112/1212 25012KT 9999 -SN DRSN FEW013 OVC040"
    },
    {
      "icao": "OEJN",
      "alert": "OK",
      "vis_m": 9999,
      "fzfg": false,
      "metar_trigger": false,
      "taf_trigger": false,
      "metar": "METAR OEJN 111600Z 24005KT CAVOK 27/16 Q1014 NOSIG",
      "taf": "TAF OEJN 111100Z 1112/1218 22010KT 7000 FEW040"
    },
    {
      "icao": "OEMA",
      "alert": "OK",
      "vis_m": 9999,
      "fzfg": false,
      "metar_trigger": false,
      "taf_trigger": false,
      "metar": "METAR OEMA 111600Z VRB03KT CAVOK 24/00 Q1019 NOSIG",
      "taf": "TAF OEMA 111100Z 1112/1218 12012KT 7000 NSC"
    },
    {
      "icao": "OJAI",
      "alert": "OK",
      "vis_m": 5000,
      "fzfg": false,
      "metar_trigger": false,
      "taf_trigger": false,
      "metar": "METAR OJAI 111600Z 21005KT 5000 HZ NSC 13/06 Q1017 NOSIG",
      "taf": "TAF OJAI 111047Z 1112/1218 24012KT 5000HZ"
    },
    {
      "icao": "OMAA",
      "alert": "OK",
      "vis_m": 9999,
      "fzfg": false,
      "metar_trigger": false,
      "taf_trigger": false,
      "metar": "METAR OMAA 111600Z 32006KT CAVOK 21/14 Q1021 NOSIG",
      "taf": "TAF OMAA 111100Z 1112/1218 33012KT 8000 NSC"
    },
    {
      "icao": "OMDB",
      "alert": "OK",
      "vis_m": 9999,
      "fzfg": false,
      "metar_trigger": false,
      "taf_trigger": false,
      "metar": "METAR OMDB 111630Z 33006KT 300V360 CAVOK 23/14 Q1021 NOSIG",
      "taf": "TAF OMDB 111100Z 1112/1218 30010KT 8000 NSC"
    },
    {
      "icao": "UAAA",
      "alert": "OK",
      "vis_m": 1000,
      "fzfg": false,
      "metar_trigger": false,
      "taf_trigger": false,
      "metar": "METAR UAAA 111600Z 18002MPS 1000 R05R/P2000N BR FU BKN200 M01/M04 Q1020 NOSIG",
      "taf": "TAF UAAA 111103Z 1112/1212 21002MPS 1200 BR FU SCT050 BKN100 TX07/1209Z TNM04/1201Z"
    },
    {
      "icao": "UBBB",
      "alert": "OK",
      "vis_m": 9999,
      "fzfg": false,
      "metar_trigger": false,
      "taf_trigger": false,
      "metar": "METAR UBBB 111630Z 18027G37KT CAVOK 11/03 Q1012 NOSIG",
      "taf": "TAF UBBB 111054Z 1112/1212 19024G34KT 9999 SCT030 TX11/1112Z TN05/1202Z"
    },
    {
      "icao": "UDSG",
      "alert": "OK",
      "vis_m": 9999,
      "fzfg": false,
      "metar_trigger": false,
      "taf_trigger": false,
      "metar": "METAR UDSG 111600Z 30003KT 9999 BKN043 M02/M05 Q1020 NOSIG",
      "taf": "TAF UDSG 111058Z 1112/1212 VRB06KT 9999 SCT040"
    },
    {
      "icao": "UDYZ",
      "alert": "OK",
      "vis_m": 2400,
      "fzfg": false,
      "metar_trigger": false,
      "taf_trigger": false,
      "metar": "METAR UDYZ 111600Z 26002KT 2400 BR SCT046 M00/M02 Q1021 NOSIG",
      "taf": "TAF UDYZ 111100Z 1112/1212 VRB06KT 3500 BR SCT040"
    },
    {
      "icao": "UGKO",
      "alert": "OK",
      "vis_m": 9999,
      "fzfg": false,
      "metar_trigger": false,
      "taf_trigger": false,
      "metar": "METAR UGKO 111600Z 09019KT CAVOK 12/M02 Q1010 NOSIG",
      "taf": "TAF UGKO 111100Z 1112/1212 08012KT CAVOK TX14/1212Z TN09/1202Z"
    }
  ]
}