{
  "ts_utc": "2025-12-29T17:12:18Z",
  "threshold_m": 150,
  "source": "stations_override.txt (ICAO list) + aviationweather.gov (METAR/TAF raw)",
  "station_count": 159,
  "stations": [
    {
      "icao": "BIKF",
      "alert": "OK",
      "vis_m": 1500,
      "fzfg": false,
      "metar_trigger": false,
      "taf_trigger": false,
      "metar": "METAR BIKF 291700Z 30009KT 260V320 1500 -DZ BR FEW004 BKN036 04/04 Q1039",
      "taf": "TAF BIKF 291631Z 2918/3018 27005KT 6000 DZ BR SCT007 BKN014 TX06/2918Z TN03/3002Z"
    },
    {
      "icao": "BKPR",
      "alert": "OK",
      "vis_m": 9999,
      "fzfg": false,
      "metar_trigger": false,
      "taf_trigger": false,
      "metar": "METAR BKPR 291700Z 33003KT 280V360 CAVOK M01/M05 Q1016 NOSIG",
      "taf": ""
    },
    {
      "icao": "EBCI",
      "alert": "OK",
      "vis_m": 8000,
      "fzfg": false,
      "metar_trigger": false,
      "taf_trigger": false,
      "metar": "METAR EBCI 291650Z 02005KT 8000 BKN014 BKN020 02/02 Q1025 TEMPO 4000 BR",
      "taf": "TAF EBCI 291109Z 2912/3018 04005KT 8000 BKN018"
    },
    {
      "icao": "EDDB",
      "alert": "OK",
      "vis_m": 9999,
      "fzfg": false,
      "metar_trigger": false,
      "taf_trigger": false,
      "metar": "METAR EDDB 291650Z AUTO 29009KT 250V320 9999 BKN011 BKN035 04/03 Q1015 TEMPO BKN015",
      "taf": "TAF EDDB 291100Z 2912/3012 30008KT 9999 BKN020"
    },
    {
      "icao": "EDDH",
      "alert": "OK",
      "vis_m": 9999,
      "fzfg": false,
      "metar_trigger": false,
      "taf_trigger": false,
      "metar": "METAR EDDH 291650Z AUTO 30009KT 9999 FEW025 BKN038 05/02 Q1018 NOSIG",
      "taf": "TAF EDDH 291100Z 2912/3018 30010KT 9999 BKN025"
    },
    {
      "icao": "EDDK",
      "alert": "OK",
      "vis_m": 4100,
      "fzfg": false,
      "metar_trigger": false,
      "taf_trigger": false,
      "metar": "METAR EDDK 291650Z AUTO 10001KT 4100 BR BKN005 M00/M01 Q1024 REFZDZ TEMPO 2500 -FZDZ BR BKN003",
      "taf": ""
    },
    {
      "icao": "EDDN",
      "alert": "OK",
      "vis_m": 9999,
      "fzfg": false,
      "metar_trigger": false,
      "taf_trigger": false,
      "metar": "METAR EDDN 291650Z AUTO 19002KT 9999 -SN BKN015 BKN022 OVC028 M01/M03 Q1020 TEMPO 4500 -SG BKN009",
      "taf": ""
    },
    {
      "icao": "EDDS",
      "alert": "OK",
      "vis_m": 9999,
      "fzfg": false,
      "metar_trigger": false,
      "taf_trigger": false,
      "metar": "METAR EDDS 291650Z AUTO 33003KT CAVOK M02/M05 Q1021 NOSIG",
      "taf": "TAF EDDS 291100Z 2912/3012 VRB03KT CAVOK"
    },
    {
      "icao": "EDFH",
      "alert": "OK",
      "vis_m": 4000,
      "fzfg": false,
      "metar_trigger": false,
      "taf_trigger": false,
      "metar": "METAR EDFH 291650Z 33004KT 300V360 4000 -SN OVC002 M01/M01 Q1022",
      "taf": "TAF EDFH 291100Z 2912/3012 01008KT 6000 SCT003 BKN005"
    },
    {
      "icao": "EDJA",
      "alert": "OK",
      "vis_m": 5000,
      "fzfg": false,
      "metar_trigger": false,
      "taf_trigger": false,
      "metar": "METAR EDJA 291650Z 23006KT 5000 BR OVC002 M03/M04 Q1019",
      "taf": ""
    },
    {
      "icao": "EDLW",
      "alert": "OK",
      "vis_m": 3100,
      "fzfg": false,
      "metar_trigger": false,
      "taf_trigger": false,
      "metar": "METAR EDLW 291650Z COR 25006KT 3100 R24///// BR OVC002 02/02 Q1022",
      "taf": ""
    },
    {
      "icao": "EDNY",
      "alert": "OK",
      "vis_m": 9999,
      "fzfg": false,
      "metar_trigger": false,
      "taf_trigger": false,
      "metar": "METAR EDNY 291650Z VRB02KT 9999 OVC011 M01/M03 Q1021",
      "taf": "TAF EDNY 291400Z 2915/2924 VRB02KT 9000 OVC008"
    },
    {
      "icao": "EDSB",
      "alert": "OK",
      "vis_m": 450,
      "fzfg": true,
      "metar_trigger": false,
      "taf_trigger": false,
      "metar": "METAR EDSB 291650Z VRB01KT 0450 R21/1000U FZFG FEW001 BKN003 OVC019 M04/M04 Q1023",
      "taf": "TAF EDSB 291100Z 2912/3012 03004KT 0700 FZFG OVC001"
    },
    {
      "icao": "EETN",
      "alert": "OK",
      "vis_m": 2300,
      "fzfg": false,
      "metar_trigger": false,
      "taf_trigger": false,
      "metar": "METAR EETN 291650Z 33019G30KT 310V010 2300 SHSN DRSN SCT016 SCT023CB BKN028 M03/M05 Q0993 TEMPO 4000",
      "taf": "TAF EETN 291130Z 2912/3012 33015G25KT 9999 BKN025"
    },
    {
      "icao": "EFTU",
      "alert": "OK",
      "vis_m": 9999,
      "fzfg": false,
      "metar_trigger": false,
      "taf_trigger": false,
      "metar": "METAR EFTU 291650Z AUTO 34009KT 300V020 CAVOK M04/M10 Q0998",
      "taf": "TAF EFTU 291425Z 2915/3015 34012KT CAVOK"
    },
    {
      "icao": "EGBB",
      "alert": "OK",
      "vis_m": 9999,
      "fzfg": false,
      "metar_trigger": false,
      "taf_trigger": false,
      "metar": "METAR EGBB 291650Z 05009KT 9999 OVC023 06/01 Q1029",
      "taf": "TAF EGBB 291654Z 2918/3018 04006KT 9999 BKN022"
    },
    {
      "icao": "EGGP",
      "alert": "OK",
      "vis_m": 9999,
      "fzfg": false,
      "metar_trigger": false,
      "taf_trigger": false,
      "metar": "METAR EGGP 291650Z 05006KT 9999 BKN025 05/M00 Q1031",
      "taf": "TAF EGGP 291655Z 2918/3018 02005KT 9999 BKN020"
    },
    {
      "icao": "EGGW",
      "alert": "OK",
      "vis_m": 9999,
      "fzfg": false,
      "metar_trigger": false,
      "taf_trigger": false,
      "metar": "METAR EGGW 291650Z AUTO 05008KT 010V080 9999 OVC020 05/02 Q1028",
      "taf": "TAF EGGW 291700Z 2918/3018 03008KT 9999 BKN020"
    },
    {
      "icao": "EGKK",
      "alert": "OK",
      "vis_m": 9999,
      "fzfg": false,
      "metar_trigger": false,
      "taf_trigger": false,
      "metar": "METAR EGKK 291650Z 04009KT 9999 BKN023 05/02 Q1028",
      "taf": "TAF EGKK 291652Z 2918/3024 04009KT 9999 SCT025"
    },
    {
      "icao": "EGNM",
      "alert": "OK",
      "vis_m": 9999,
      "fzfg": false,
      "metar_trigger": false,
      "taf_trigger": false,
      "metar": "METAR EGNM 291650Z 01007KT 9999 SCT010 BKN017 04/03 Q1030",
      "taf": "TAF EGNM 291656Z 2918/3018 01006KT 9999 BKN018"
    },
    {
      "icao": "EGPD",
      "alert": "OK",
      "vis_m": 9999,
      "fzfg": false,
      "metar_trigger": false,
      "taf_trigger": false,
      "metar": "METAR EGPD 291650Z COR AUTO 34006KT 9999 BKN041 04/01 Q1034 NOSIG",
      "taf": "TAF EGPD 291653Z 2918/3018 34010KT 9999 FEW020 SCT035"
    },
    {
      "icao": "EGPF",
      "alert": "OK",
      "vis_m": 9999,
      "fzfg": false,
      "metar_trigger": false,
      "taf_trigger": false,
      "metar": "METAR EGPF 291650Z AUTO 30002KT 9999 BKN023 OVC030 04/02 Q1034",
      "taf": "TAF EGPF 291654Z 2918/3018 05004KT 9999 BKN030"
    },
    {
      "icao": "EHBK",
      "alert": "OK",
      "vis_m": 800,
      "fzfg": false,
      "metar_trigger": false,
      "taf_trigger": false,
      "metar": "METAR EHBK 291655Z AUTO 22005KT 0800 R21/1200D FG OVC000/// 00/00 Q1024 TEMPO BKN004",
      "taf": ""
    },
    {
      "icao": "EHEH",
      "alert": "OK",
      "vis_m": 8000,
      "fzfg": false,
      "metar_trigger": false,
      "taf_trigger": false,
      "metar": "METAR EHEH 291655Z AUTO 26005KT 230V310 8000 BR FEW026 BKN029 OVC033 04/03 Q1025 BLU NOSIG RMK TREND REMOTE BY EHWX",
      "taf": "TAF EHEH 291109Z 2912/3018 28002KT 8000 FEW018 BKN022"
    },
    {
      "icao": "EKBI",
      "alert": "OK",
      "vis_m": 9999,
      "fzfg": false,
      "metar_trigger": false,
      "taf_trigger": false,
      "metar": "METAR EKBI 291650Z AUTO 32006KT 9999 SCT044/// 01/M02 Q1020",
      "taf": "TAF EKBI 291427Z 2915/3015 31010KT 9999 FEW025"
    },
    {
      "icao": "EKCH",
      "alert": "OK",
      "vis_m": 9999,
      "fzfg": false,
      "metar_trigger": false,
      "taf_trigger": false,
      "metar": "METAR EKCH 291650Z AUTO 32009KT 9999 BKN093/// 02/M07 Q1017 NOSIG",
      "taf": "TAF EKCH 291427Z 2915/3015 35015KT CAVOK"
    },
    {
      "icao": "ENAL",
      "alert": "OK",
      "vis_m": 9999,
      "fzfg": false,
      "metar_trigger": false,
      "taf_trigger": false,
      "metar": "METAR ENAL 291650Z 35015KT 310V030 9999 VCSH FEW004 SCT035 02/M06 Q1026",
      "taf": "TAF ENAL 291400Z 2915/2924 35015KT 9999 FEW015CB SCT030"
    },
    {
      "icao": "ENBR",
      "alert": "OK",
      "vis_m": 9999,
      "fzfg": false,
      "metar_trigger": false,
      "taf_trigger": false,
      "metar": "METAR ENBR 291650Z 33011KT 9999 FEW046 00/M03 Q1026 NOSIG RMK WIND 1200FT 34020KT",
      "taf": "TAF ENBR 291100Z 2912/3012 34012KT 9999 FEW035"
    },
    {
      "icao": "ENGM",
      "alert": "OK",
      "vis_m": 9999,
      "fzfg": false,
      "metar_trigger": false,
      "taf_trigger": false,
      "metar": "METAR ENGM 291650Z 34009KT 300V010 CAVOK M01/M12 Q1016 NOSIG",
      "taf": "TAF ENGM 291100Z 2912/3012 34010KT CAVOK"
    },
    {
      "icao": "ENHD",
      "alert": "OK",
      "vis_m": 9999,
      "fzfg": false,
      "metar_trigger": false,
      "taf_trigger": false,
      "metar": "METAR ENHD 291650Z 36021KT 9999 FEW045 03/M03 Q1026",
      "taf": "TAF ENHD 291400Z 2915/2923 35025KT 9999 SCT040"
    },
    {
      "icao": "ENTC",
      "alert": "OK",
      "vis_m": 9999,
      "fzfg": false,
      "metar_trigger": false,
      "taf_trigger": false,
      "metar": "METAR ENTC 291650Z 36012KT 9999 VCSH FEW012 SCT025 BKN060 M04/M07 Q1011 TEMPO 35015G25KT 6000 -SHSN SCT020CB BKN030 RMK WIND 2600FT 36035KT",
      "taf": "TAF ENTC 291100Z 2912/3012 36015KT 9999 -SHSN FEW015 SCT020CB BKN030"
    },
    {
      "icao": "ENTO",
      "alert": "OK",
      "vis_m": 9999,
      "fzfg": false,
      "metar_trigger": false,
      "taf_trigger": false,
      "metar": "METAR ENTO 291650Z 32008KT CAVOK M00/M11 Q1018 NOSIG",
      "taf": "TAF ENTO 291100Z 2912/3012 34010KT CAVOK"
    },
    {
      "icao": "ENVA",
      "alert": "OK",
      "vis_m": 9999,
      "fzfg": false,
      "metar_trigger": false,
      "taf_trigger": false,
      "metar": "METAR ENVA 291650Z 31003KT 240V330 9999 -SN VV010 M02/M02 Q1018 TEMPO 0400 SHSN VV005 RMK WIND 670FT 32007KT",
      "taf": "TAF ENVA 291100Z 2912/3012 30018KT 9999 SCT015CB BKN025"
    },
    {
      "icao": "ENZV",
      "alert": "OK",
      "vis_m": 9999,
      "fzfg": false,
      "metar_trigger": false,
      "taf_trigger": false,
      "metar": "METAR ENZV 291650Z 34014KT CAVOK 02/M04 Q1026 NOSIG",
      "taf": "TAF ENZV 291100Z 2912/3012 35018KT CAVOK"
    },
    {
      "icao": "EPGD",
      "alert": "OK",
      "vis_m": 9999,
      "fzfg": false,
      "metar_trigger": false,
      "taf_trigger": false,
      "metar": "METAR EPGD 291700Z 32014KT 9999 FEW046 01/M10 Q1008",
      "taf": "TAF EPGD 291130Z 2912/3012 28012KT 9999 BKN028"
    },
    {
      "icao": "EPKK",
      "alert": "OK",
      "vis_m": 9999,
      "fzfg": false,
      "metar_trigger": false,
      "taf_trigger": false,
      "metar": "METAR EPKK 291700Z 25012KT 9999 -SN BKN016 BKN027 M00/M03 Q1011",
      "taf": "TAF EPKK 291430Z 2915/3015 25012KT 9999 BKN018"
    },
    {
      "icao": "EPKT",
      "alert": "OK",
      "vis_m": 9999,
      "fzfg": false,
      "metar_trigger": false,
      "taf_trigger": false,
      "metar": "METAR EPKT 291700Z 26010KT 9999 OVC011 M00/M02 Q1011",
      "taf": "TAF EPKT 291130Z 2912/3012 26014KT 9999 BKN008"
    },
    {
      "icao": "EPLB",
      "alert": "OK",
      "vis_m": 9999,
      "fzfg": false,
      "metar_trigger": false,
      "taf_trigger": false,
      "metar": "METAR EPLB 291700Z 28013KT 9999 SCT015 OVC024 01/M01 Q1006",
      "taf": "TAF EPLB 291130Z 2912/3012 27013KT 9999 OVC008"
    },
    {
      "icao": "EPMO",
      "alert": "OK",
      "vis_m": 6000,
      "fzfg": false,
      "metar_trigger": false,
      "taf_trigger": false,
      "metar": "METAR EPMO 291700Z 28013KT 6000 SHRASN BKN011 SCT028CB 02/00 Q1007",
      "taf": "TAF EPMO 291130Z 2912/3012 28011KT 9999 BKN009"
    },
    {
      "icao": "EPPO",
      "alert": "OK",
      "vis_m": 9999,
      "fzfg": false,
      "metar_trigger": false,
      "taf_trigger": false,
      "metar": "METAR EPPO 291700Z 28010KT 9999 OVC013 02/M00 Q1011",
      "taf": "TAF EPPO 291130Z 2912/3012 28010KT 9999 BKN017"
    },
    {
      "icao": "EPRA",
      "alert": "OK",
      "vis_m": 9999,
      "fzfg": false,
      "metar_trigger": false,
      "taf_trigger": false,
      "metar": "METAR EPRA 291700Z 28015KT 9999 BKN013 01/M02 Q1008",
      "taf": "TAF EPRA 291430Z 2915/2924 28012KT 9999 OVC012"
    },
    {
      "icao": "EPRZ",
      "alert": "OK",
      "vis_m": 9999,
      "fzfg": false,
      "metar_trigger": false,
      "taf_trigger": false,
      "metar": "METAR EPRZ 291700Z 26015KT 9999 OVC013 00/M03 Q1009",
      "taf": "TAF EPRZ 291130Z 2912/3012 27014KT 9999 BKN013"
    },
    {
      "icao": "EPSC",
      "alert": "OK",
      "vis_m": 9999,
      "fzfg": false,
      "metar_trigger": false,
      "taf_trigger": false,
      "metar": "METAR EPSC 291700Z 32007KT 9999 FEW046 03/M01 Q1013",
      "taf": "TAF EPSC 291130Z 2912/3012 28010KT 9999 BKN009 BKN012"
    },
    {
      "icao": "EPSY",
      "alert": "OK",
      "vis_m": 9999,
      "fzfg": false,
      "metar_trigger": false,
      "taf_trigger": false,
      "metar": "METAR EPSY 291700Z 30006KT 260V330 9999 SCT010 00/M02 Q1005",
      "taf": "TAF EPSY 291430Z 2915/2924 28010KT 9999 SCT012 BKN030"
    },
    {
      "icao": "EPWA",
      "alert": "OK",
      "vis_m": 9999,
      "fzfg": false,
      "metar_trigger": false,
      "taf_trigger": false,
      "metar": "METAR EPWA 291700Z 27013KT 9999 BKN010 BKN043 01/M00 Q1006 NOSIG",
      "taf": "TAF EPWA 291430Z 2915/3015 27012KT 9999 BKN011"
    },
    {
      "icao": "EPWR",
      "alert": "OK",
      "vis_m": 9999,
      "fzfg": false,
      "metar_trigger": false,
      "taf_trigger": false,
      "metar": "METAR EPWR 291700Z 28012KT 9999 SCT012 BKN021 02/00 Q1013",
      "taf": "TAF EPWR 291430Z 2915/3015 28012KT 9999 BKN020"
    },
    {
      "icao": "ESGG",
      "alert": "OK",
      "vis_m": 9999,
      "fzfg": false,
      "metar_trigger": false,
      "taf_trigger": false,
      "metar": "METAR ESGG 291650Z 32006KT CAVOK M02/M10 Q1016",
      "taf": "TAF ESGG 291430Z 2915/3015 35008KT CAVOK"
    },
    {
      "icao": "ESKN",
      "alert": "OK",
      "vis_m": 9999,
      "fzfg": false,
      "metar_trigger": false,
      "taf_trigger": false,
      "metar": "METAR ESKN 291650Z 30014G26KT 280V350 9999 FEW029 BKN064 M01/M09 Q1008",
      "taf": "TAF ESKN 291430Z 2915/3015 30016G30KT CAVOK"
    },
    {
      "icao": "ESMS",
      "alert": "OK",
      "vis_m": 9999,
      "fzfg": false,
      "metar_trigger": false,
      "taf_trigger": false,
      "metar": "METAR ESMS 291650Z 31012KT CAVOK 00/M08 Q1015",
      "taf": "TAF ESMS 291427Z 2915/3015 31010KT CAVOK"
    },
    {
      "icao": "ESSA",
      "alert": "OK",
      "vis_m": 9999,
      "fzfg": false,
      "metar_trigger": false,
      "taf_trigger": false,
      "metar": "METAR ESSA 291650Z 33019KT 9999 FEW036 M03/M10 Q1006 TEMPO 1700 -SHSN",
      "taf": "TAF ESSA 291430Z 2915/3015 32015G25KT 9999 SCT040"
    },
    {
      "icao": "EYKA",
      "alert": "OK",
      "vis_m": 9999,
      "fzfg": false,
      "metar_trigger": false,
      "taf_trigger": false,
      "metar": "METAR EYKA 291650Z 29011KT 250V340 9999 SCT024 M02/M05 Q0999",
      "taf": "TAF EYKA 291103Z 2912/3012 30010KT 9000 SCT025"
    },
    {
      "icao": "EYPA",
      "alert": "OK",
      "vis_m": 9999,
      "fzfg": false,
      "metar_trigger": false,
      "taf_trigger": false,
      "metar": "METAR EYPA 291650Z 34009G20KT 280V030 9999 VCSH SCT014CB SCT035 M02/M04 Q1003",
      "taf": "TAF EYPA 291105Z 2912/3012 33010KT 9000 SCT030"
    },
    {
      "icao": "EYVI",
      "alert": "OK",
      "vis_m": 9999,
      "fzfg": false,
      "metar_trigger": false,
      "taf_trigger": false,
      "metar": "METAR EYVI 291650Z 31009KT CAVOK M02/M06 Q0997 NOSIG",
      "taf": ""
    },
    {
      "icao": "GCFV",
      "alert": "OK",
      "vis_m": 9999,
      "fzfg": false,
      "metar_trigger": false,
      "taf_trigger": false,
      "metar": "METAR GCFV 291700Z 13004KT 9999 FEW035 19/12 Q1019",
      "taf": "TAF GCFV 291400Z 2915/3015 14005KT 9999 SCT035 TX21/3014Z TN14/3006Z"
    },
    {
      "icao": "GCLP",
      "alert": "OK",
      "vis_m": 9999,
      "fzfg": false,
      "metar_trigger": false,
      "taf_trigger": false,
      "metar": "METAR GCLP 291700Z 16005KT 110V190 9999 BKN030 19/14 Q1019 NOSIG",
      "taf": "TAF GCLP 291400Z 2915/3015 15005KT 9999 BKN030 TX22/3014Z TN15/3006Z"
    },
    {
      "icao": "GCTS",
      "alert": "OK",
      "vis_m": 9999,
      "fzfg": false,
      "metar_trigger": false,
      "taf_trigger": false,
      "metar": "METAR GCTS 291700Z 21006KT 190V250 9999 SCT045 20/13 Q1019 NOSIG",
      "taf": "TAF GCTS 291400Z 2915/3015 18005KT 9999 SCT035 TX24/3014Z TN16/3006Z"
    },
    {
      "icao": "GMAD",
      "alert": "OK",
      "vis_m": 9999,
      "fzfg": false,
      "metar_trigger": false,
      "taf_trigger": false,
      "metar": "METAR GMAD 291700Z 23003KT 160V300 9999 SCT026 BKN200 17/12 Q1019 NOSIG",
      "taf": "TAF GMAD 291100Z 2912/3018 26010KT 8000 SCT020 SCT080"
    },
    {
      "icao": "GMMN",
      "alert": "OK",
      "vis_m": 9999,
      "fzfg": false,
      "metar_trigger": false,
      "taf_trigger": false,
      "metar": "METAR GMMN 291700Z 30006KT 9999 SCT020 14/10 Q1020 NOSIG",
      "taf": "TAF GMMN 291100Z 2912/3018 22014KT 9999 SCT020"
    },
    {
      "icao": "GMMX",
      "alert": "OK",
      "vis_m": 9999,
      "fzfg": false,
      "metar_trigger": false,
      "taf_trigger": false,
      "metar": "METAR GMMX 291700Z 35003KT 320V040 9999 SCT020 SCT200 15/09 Q1019 NOSIG",
      "taf": "TAF GMMX 291100Z 2912/3018 06006KT CAVOK"
    },
    {
      "icao": "HEGN",
      "alert": "OK",
      "vis_m": 9999,
      "fzfg": false,
      "metar_trigger": false,
      "taf_trigger": false,
      "metar": "METAR HEGN 291700Z 32008KT CAVOK 20/07 Q1017 NOSIG",
      "taf": "TAF HEGN 291700Z 2918/3024 34010KT CAVOK"
    },
    {
      "icao": "HEMA",
      "alert": "OK",
      "vis_m": 9999,
      "fzfg": false,
      "metar_trigger": false,
      "taf_trigger": false,
      "metar": "METAR HEMA 291700Z 36006KT CAVOK 19/13 Q1017 NOSIG",
      "taf": "TAF HEMA 291700Z 2918/3024 34010KT CAVOK"
    },
    {
      "icao": "HESH",
      "alert": "OK",
      "vis_m": 9999,
      "fzfg": false,
      "metar_trigger": false,
      "taf_trigger": false,
      "metar": "METAR HESH 291700Z 34003KT CAVOK 20/10 Q1016 NOSIG",
      "taf": "TAF HESH 291700Z 2918/3024 35010KT CAVOK"
    },
    {
      "icao": "HESX",
      "alert": "OK",
      "vis_m": 9999,
      "fzfg": false,
      "metar_trigger": false,
      "taf_trigger": false,
      "metar": "METAR HESX 291700Z 31010KT CAVOK 17/08 Q1018 NOSIG",
      "taf": "TAF HESX 291100Z 2912/3018 30015KT 9999 FEW030"
    },
    {
      "icao": "LATI",
      "alert": "OK",
      "vis_m": 9999,
      "fzfg": false,
      "metar_trigger": false,
      "taf_trigger": false,
      "metar": "METAR LATI 291650Z 15003KT CAVOK 04/M02 Q1017 NOSIG",
      "taf": "TAF LATI 291700Z 2918/3018 VRB04KT CAVOK TX16/3012Z TNM03/3005Z"
    },
    {
      "icao": "LBPD",
      "alert": "OK",
      "vis_m": 9999,
      "fzfg": false,
      "metar_trigger": false,
      "taf_trigger": false,
      "metar": "METAR LBPD 291700Z AUTO 18003KT 130V270 9999 NCD 07/M05 Q1013 NOSIG",
      "taf": "TAF LBPD 291100Z 2912/3012 28016KT CAVOK"
    },
    {
      "icao": "LBSF",
      "alert": "OK",
      "vis_m": 9999,
      "fzfg": false,
      "metar_trigger": false,
      "taf_trigger": false,
      "metar": "METAR LBSF 291700Z AUTO 33003KT 280V010 9999 NCD 01/M06 Q1015 NOSIG",
      "taf": "TAF LBSF 291100Z 2912/3012 29012KT CAVOK"
    },
    {
      "icao": "LBWN",
      "alert": "OK",
      "vis_m": 9999,
      "fzfg": false,
      "metar_trigger": false,
      "taf_trigger": false,
      "metar": "METAR LBWN 291700Z AUTO 30008KT 9999 NCD 01/M03 Q1013 NOSIG",
      "taf": "TAF LBWN 291100Z 2912/3012 27018KT CAVOK"
    },
    {
      "icao": "LCLK",
      "alert": "OK",
      "vis_m": 9999,
      "fzfg": false,
      "metar_trigger": false,
      "taf_trigger": false,
      "metar": "METAR LCLK 291700Z 32005KT 9999 FEW045 12/05 Q1014 NOSIG",
      "taf": ""
    },
    {
      "icao": "LCPH",
      "alert": "OK",
      "vis_m": 9999,
      "fzfg": false,
      "metar_trigger": false,
      "taf_trigger": false,
      "metar": "METAR LCPH 291700Z 35006KT 9999 FEW040 12/03 Q1014 NOSIG",
      "taf": ""
    },
    {
      "icao": "LEAL",
      "alert": "OK",
      "vis_m": 9999,
      "fzfg": false,
      "metar_trigger": false,
      "taf_trigger": false,
      "metar": "METAR LEAL 291700Z 28005KT 9999 FEW024TCU SCT070 12/11 Q1019 RERA NOSIG",
      "taf": ""
    },
    {
      "icao": "LEBB",
      "alert": "OK",
      "vis_m": 9999,
      "fzfg": false,
      "metar_trigger": false,
      "taf_trigger": false,
      "metar": "METAR LEBB 291700Z 26004KT 210V290 9999 FEW030 12/09 Q1020 NOSIG",
      "taf": "TAF LEBB 291100Z 2912/3012 21005KT CAVOK TX14/2914Z TN06/2920Z"
    },
    {
      "icao": "LEBL",
      "alert": "OK",
      "vis_m": 9000,
      "fzfg": false,
      "metar_trigger": false,
      "taf_trigger": false,
      "metar": "METAR LEBL 291700Z 32005KT 270V360 9000 BKN048 12/11 Q1018 NOSIG",
      "taf": "TAF LEBL 291100Z 2912/3012 01008KT 9999 SCT020 TX14/2912Z TN07/3007Z"
    },
    {
      "icao": "LECH",
      "alert": "OK",
      "vis_m": 9999,
      "fzfg": false,
      "metar_trigger": false,
      "taf_trigger": false,
      "metar": "METAR LECH 291700Z AUTO 05002KT CAVOK 10/08 Q1019",
      "taf": ""
    },
    {
      "icao": "LEMD",
      "alert": "OK",
      "vis_m": 9999,
      "fzfg": false,
      "metar_trigger": false,
      "taf_trigger": false,
      "metar": "METAR LEMD 291700Z 14002KT 9999 FEW055 09/04 Q1018 NOSIG",
      "taf": "TAF LEMD 291100Z 2912/3018 VRB04KT 9999 SCT045 TX11/2915Z TNM01/3007Z"
    },
    {
      "icao": "LEMG",
      "alert": "OK",
      "vis_m": 9999,
      "fzfg": false,
      "metar_trigger": false,
      "taf_trigger": false,
      "metar": "METAR LEMG 291700Z 17003KT 140V210 9999 -SHRA FEW040TCU BKN065 14/09 Q1019 NOSIG",
      "taf": ""
    },
    {
      "icao": "LEVC",
      "alert": "OK",
      "vis_m": 9999,
      "fzfg": false,
      "metar_trigger": false,
      "taf_trigger": false,
      "metar": "METAR LEVC 291700Z 16002KT 9999 SCT032 13/08 Q1019 NOSIG",
      "taf": "TAF LEVC 291100Z 2912/3012 VRB04KT 9999 FEW020 TX17/3012Z TN05/3006Z"
    },
    {
      "icao": "LEXJ",
      "alert": "OK",
      "vis_m": 9999,
      "fzfg": false,
      "metar_trigger": false,
      "taf_trigger": false,
      "metar": "METAR LEXJ 291700Z VRB02KT CAVOK 10/08 Q1020",
      "taf": "TAF LEXJ 291400Z 2915/3015 22009KT 9999 SCT020 TX14/2915Z TN08/3007Z"
    },
    {
      "icao": "LEZG",
      "alert": "OK",
      "vis_m": 400,
      "fzfg": false,
      "metar_trigger": false,
      "taf_trigger": false,
      "metar": "METAR LEZG 291700Z 27004KT 230V290 0400 R30R/0800N R12R/P2000 R30L/1600D R12L/P2000 FG VV002 08/08 Q1019 NOSIG",
      "taf": ""
    },
    {
      "icao": "LEZL",
      "alert": "OK",
      "vis_m": 9999,
      "fzfg": false,
      "metar_trigger": false,
      "taf_trigger": false,
      "metar": "METAR LEZL 291700Z 22004KT CAVOK 15/09 Q1019 NOSIG",
      "taf": "TAF LEZL 291400Z 2915/3015 VRB03KT CAVOK TX16/2915Z TN06/3006Z"
    },
    {
      "icao": "LFBD",
      "alert": "OK",
      "vis_m": 9999,
      "fzfg": false,
      "metar_trigger": false,
      "taf_trigger": false,
      "metar": "METAR LFBD 291700Z AUTO 02007KT CAVOK 07/04 Q1020 TEMPO 0300 FG VV///",
      "taf": "TAF LFBD 291100Z 2912/3018 VRB03KT CAVOK TX10/2914Z TNM01/3007Z"
    },
    {
      "icao": "LFLL",
      "alert": "OK",
      "vis_m": 6000,
      "fzfg": false,
      "metar_trigger": false,
      "taf_trigger": false,
      "metar": "METAR LFLL 291700Z 03005KT 360V060 6000 OVC006 00/M01 Q1021 TEMPO 4000 BR BKN004",
      "taf": ""
    },
    {
      "icao": "LFLS",
      "alert": "OK",
      "vis_m": 250,
      "fzfg": true,
      "metar_trigger": false,
      "taf_trigger": false,
      "metar": "METAR LFLS 291700Z AUTO 25003KT 0250 R09/0275N R27/0250N FZFG VV/// M02/M02 Q1019",
      "taf": ""
    },
    {
      "icao": "LFMN",
      "alert": "OK",
      "vis_m": 9999,
      "fzfg": false,
      "metar_trigger": false,
      "taf_trigger": false,
      "metar": "METAR LFMN 291700Z 32010KT CAVOK 09/02 Q1017 NOSIG",
      "taf": "TAF LFMN 291400Z 2915/3021 23008KT CAVOK"
    },
    {
      "icao": "LFOB",
      "alert": "OK",
      "vis_m": 9999,
      "fzfg": false,
      "metar_trigger": false,
      "taf_trigger": false,
      "metar": "METAR LFOB 291700Z AUTO 05011KT 9999 OVC015 02/M00 Q1026",
      "taf": ""
    },
    {
      "icao": "LFPO",
      "alert": "OK",
      "vis_m": 9999,
      "fzfg": false,
      "metar_trigger": false,
      "taf_trigger": false,
      "metar": "METAR LFPO 291700Z 03010KT 9999 SCT012 00/M02 Q1025 NOSIG",
      "taf": "TAF LFPO 291100Z 2912/3018 02008KT CAVOK"
    },
    {
      "icao": "LFSB",
      "alert": "OK",
      "vis_m": 4700,
      "fzfg": true,
      "metar_trigger": false,
      "taf_trigger": false,
      "metar": "METAR LFSB 291700Z AUTO 32003KT 4700 BR OVC003 M03/M03 Q1022 TEMPO 0500 FZFG VV///",
      "taf": ""
    },
    {
      "icao": "LGAV",
      "alert": "OK",
      "vis_m": 9999,
      "fzfg": false,
      "metar_trigger": false,
      "taf_trigger": false,
      "metar": "METAR LGAV 291650Z 23004KT CAVOK 08/03 Q1018 NOSIG",
      "taf": "TAF LGAV 291700Z 2918/3018 23008KT 9999 FEW025"
    },
    {
      "icao": "LGTS",
      "alert": "OK",
      "vis_m": 9999,
      "fzfg": false,
      "metar_trigger": false,
      "taf_trigger": false,
      "metar": "METAR LGTS 291650Z 28008KT 9999 FEW010 10/M02 Q1017 NOSIG",
      "taf": "TAF LGTS 291700Z 2918/3018 VRB03KT CAVOK"
    },
    {
      "icao": "LHBP",
      "alert": "OK",
      "vis_m": 9999,
      "fzfg": false,
      "metar_trigger": false,
      "taf_trigger": false,
      "metar": "METAR LHBP 291700Z 30015KT CAVOK M00/M05 Q1013 NOSIG",
      "taf": "TAF LHBP 291115Z 2912/3012 29012KT CAVOK"
    },
    {
      "icao": "LHDC",
      "alert": "OK",
      "vis_m": 9999,
      "fzfg": false,
      "metar_trigger": false,
      "taf_trigger": false,
      "metar": "METAR LHDC 291645Z AUTO 14006KT CAVOK M02/M04 Q1012 NOSIG",
      "taf": "TAF LHDC 291415Z 2915/2924 19010KT CAVOK"
    },
    {
      "icao": "LIBD",
      "alert": "OK",
      "vis_m": 9999,
      "fzfg": false,
      "metar_trigger": false,
      "taf_trigger": false,
      "metar": "METAR LIBD 291650Z 14003KT 080V190 CAVOK 08/04 Q1017",
      "taf": "TAF LIBD 291100Z 2912/3012 28012KT CAVOK"
    },
    {
      "icao": "LIBG",
      "alert": "OK",
      "vis_m": 9999,
      "fzfg": false,
      "metar_trigger": false,
      "taf_trigger": false,
      "metar": "METAR LIBG 291650Z 12003KT CAVOK 08/07 Q1017",
      "taf": "TAF LIBG 291400Z 2915/2924 35010KT CAVOK"
    },
    {
      "icao": "LIBP",
      "alert": "OK",
      "vis_m": 9999,
      "fzfg": false,
      "metar_trigger": false,
      "taf_trigger": false,
      "metar": "METAR LIBP 291650Z AUTO VRB01KT 9999 NCD 06/06 Q1017",
      "taf": "TAF LIBP 291100Z 2912/3012 VRB05KT 9999 FEW030"
    },
    {
      "icao": "LIBR",
      "alert": "OK",
      "vis_m": 9999,
      "fzfg": false,
      "metar_trigger": false,
      "taf_trigger": false,
      "metar": "METAR LIBR 291650Z 28006KT CAVOK 10/07 Q1017",
      "taf": "TAF LIBR 291100Z 2912/3012 33015KT CAVOK"
    },
    {
      "icao": "LICA",
      "alert": "OK",
      "vis_m": 9999,
      "fzfg": false,
      "metar_trigger": false,
      "taf_trigger": false,
      "metar": "METAR LICA 291650Z AUTO 06005KT 9999 SCT045/// 09/07 Q1018",
      "taf": "TAF LICA 291100Z 2912/3012 07006KT 9999 FEW030"
    },
    {
      "icao": "LICC",
      "alert": "OK",
      "vis_m": 9999,
      "fzfg": false,
      "metar_trigger": false,
      "taf_trigger": false,
      "metar": "METAR LICC 291650Z 22004KT CAVOK 12/10 Q1018",
      "taf": "TAF LICC 291100Z 2912/3012 VRB05KT 9999 FEW040"
    },
    {
      "icao": "LICJ",
      "alert": "OK",
      "vis_m": 9999,
      "fzfg": false,
      "metar_trigger": false,
      "taf_trigger": false,
      "metar": "METAR LICJ 291650Z 17003KT CAVOK 12/07 Q1018",
      "taf": "TAF LICJ 291100Z 2912/3012 VRB05KT CAVOK"
    },
    {
      "icao": "LIMC",
      "alert": "OK",
      "vis_m": 9999,
      "fzfg": false,
      "metar_trigger": false,
      "taf_trigger": false,
      "metar": "METAR LIMC 291650Z VRB01KT CAVOK 03/00 Q1015 NOSIG",
      "taf": "TAF LIMC 291100Z 2912/3018 VRB04KT CAVOK"
    },
    {
      "icao": "LIME",
      "alert": "OK",
      "vis_m": 9999,
      "fzfg": false,
      "metar_trigger": false,
      "taf_trigger": false,
      "metar": "METAR LIME 291650Z 01002KT CAVOK 04/01 Q1015 NOSIG",
      "taf": "TAF LIME 291100Z 2912/3012 VRB05KT CAVOK"
    },
    {
      "icao": "LIMF",
      "alert": "OK",
      "vis_m": 9999,
      "fzfg": false,
      "metar_trigger": false,
      "taf_trigger": false,
      "metar": "METAR LIMF 291650Z AUTO VRB02KT 9999 NCD 06/M02 Q1015",
      "taf": "TAF LIMF 291100Z 2912/3012 VRB05KT CAVOK"
    },
    {
      "icao": "LIMJ",
      "alert": "OK",
      "vis_m": 9999,
      "fzfg": false,
      "metar_trigger": false,
      "taf_trigger": false,
      "metar": "METAR LIMJ 291650Z 13005KT 090V150 CAVOK 13/06 Q1017",
      "taf": "TAF LIMJ 291100Z 2912/3012 15010KT CAVOK"
    },
    {
      "icao": "LIPE",
      "alert": "OK",
      "vis_m": 9999,
      "fzfg": false,
      "metar_trigger": false,
      "taf_trigger": false,
      "metar": "METAR LIPE 291650Z 12003KT CAVOK 03/01 Q1016",
      "taf": "TAF LIPE 291100Z 2912/3012 VRB06KT 6000 NSC"
    },
    {
      "icao": "LIPH",
      "alert": "OK",
      "vis_m": 400,
      "fzfg": false,
      "metar_trigger": false,
      "taf_trigger": false,
      "metar": "METAR LIPH 291650Z 23003KT 0400 R07/0350N FG OVC001 01/01 Q1016",
      "taf": ""
    },
    {
      "icao": "LIPQ",
      "alert": "OK",
      "vis_m": 9999,
      "fzfg": false,
      "metar_trigger": false,
      "taf_trigger": false,
      "metar": "METAR LIPQ 291650Z AUTO VRB02KT 9999 NCD 03/02 Q1016",
      "taf": "TAF LIPQ 291100Z 2912/3012 VRB05KT CAVOK"
    },
    {
      "icao": "LIPR",
      "alert": "OK",
      "vis_m": 3000,
      "fzfg": false,
      "metar_trigger": false,
      "taf_trigger": false,
      "metar": "METAR LIPR 291650Z 16002KT 3000 BR NSC 03/03 Q1017",
      "taf": "TAF LIPR 291100Z 2912/3012 VRB05KT 9999 FEW020"
    },
    {
      "icao": "LIPX",
      "alert": "OK",
      "vis_m": 3000,
      "fzfg": false,
      "metar_trigger": false,
      "taf_trigger": false,
      "metar": "METAR LIPX 291650Z 09002KT 3000 BCFG NSC 02/02 Q1016",
      "taf": "TAF LIPX 291100Z 2912/3012 VRB05KT 1500 BR NSC"
    },
    {
      "icao": "LIPY",
      "alert": "OK",
      "vis_m": 7000,
      "fzfg": false,
      "metar_trigger": false,
      "taf_trigger": false,
      "metar": "METAR LIPY 291650Z AUTO 16004KT 7000 NCD 05/04 Q1017",
      "taf": "TAF LIPY 291100Z 2912/3012 VRB05KT 9999 FEW030"
    },
    {
      "icao": "LIPZ",
      "alert": "OK",
      "vis_m": 100,
      "fzfg": false,
      "metar_trigger": false,
      "taf_trigger": false,
      "metar": "METAR LIPZ 291650Z 28004KT 0100 R04R/0350N FG VV001 01/01 Q1016 NOSIG",
      "taf": ""
    },
    {
      "icao": "LIRF",
      "alert": "OK",
      "vis_m": 9999,
      "fzfg": false,
      "metar_trigger": false,
      "taf_trigger": false,
      "metar": "METAR LIRF 291650Z 34003KT 9999 FEW025 10/08 Q1018 NOSIG",
      "taf": ""
    },
    {
      "icao": "LIRN",
      "alert": "OK",
      "vis_m": 9999,
      "fzfg": false,
      "metar_trigger": false,
      "taf_trigger": false,
      "metar": "METAR LIRN 291650Z AUTO 27002KT 9999 NCD 10/05 Q1018",
      "taf": "TAF LIRN 291100Z 2912/3012 VRB05KT CAVOK"
    },
    {
      "icao": "LIRP",
      "alert": "OK",
      "vis_m": 9999,
      "fzfg": false,
      "metar_trigger": false,
      "taf_trigger": false,
      "metar": "METAR LIRP 291645Z VRB03KT 9999 SCT040 06/02 Q1017 NOSIG",
      "taf": "TAF LIRP 291100Z 2912/3012 14005KT CAVOK"
    },
    {
      "icao": "LIRZ",
      "alert": "OK",
      "vis_m": 9999,
      "fzfg": false,
      "metar_trigger": false,
      "taf_trigger": false,
      "metar": "METAR LIRZ 291650Z AUTO 04003KT 9999 NCD 02/00 Q1017",
      "taf": "TAF LIRZ 291100Z 2912/3012 VRB05KT 8000 NSC"
    },
    {
      "icao": "LJLJ",
      "alert": "OK",
      "vis_m": 9999,
      "fzfg": false,
      "metar_trigger": false,
      "taf_trigger": false,
      "metar": "METAR LJLJ 291700Z 28003KT 9999 MIFG NSC M02/M02 Q1014 NOSIG",
      "taf": "TAF LJLJ 291700Z 2918/3018 30002KT CAVOK"
    },
    {
      "icao": "LKMT",
      "alert": "OK",
      "vis_m": 9999,
      "fzfg": false,
      "metar_trigger": false,
      "taf_trigger": false,
      "metar": "METAR LKMT 291700Z 21008KT 9999 OVC035 M01/M04 Q1013 NOSIG",
      "taf": "TAF LKMT 291100Z 2912/3012 23008KT 9999 SCT024 OVC028"
    },
    {
      "icao": "LKPR",
      "alert": "OK",
      "vis_m": 9999,
      "fzfg": false,
      "metar_trigger": false,
      "taf_trigger": false,
      "metar": "METAR LKPR 291700Z 24006KT 9999 BKN028 02/M02 Q1015 NOSIG",
      "taf": "TAF LKPR 291400Z 2915/3021 26010KT 9999 BKN030"
    },
    {
      "icao": "LLBG",
      "alert": "OK",
      "vis_m": 9999,
      "fzfg": false,
      "metar_trigger": false,
      "taf_trigger": false,
      "metar": "METAR LLBG 291650Z 27010KT 9999 BKN045 16/07 Q1015 NOSIG",
      "taf": "TAF LLBG 291707Z 2918/3018 27008KT 9999 SCT040"
    },
    {
      "icao": "LMML",
      "alert": "OK",
      "vis_m": 9999,
      "fzfg": false,
      "metar_trigger": false,
      "taf_trigger": false,
      "metar": "METAR LMML 291645Z 10005KT 060V130 9999 FEW018TCU 15/12 Q1017 NOSIG",
      "taf": "TAF LMML 291700Z 2918/3018 12007KT 9999 SCT018"
    },
    {
      "icao": "LOWW",
      "alert": "OK",
      "vis_m": 9999,
      "fzfg": false,
      "metar_trigger": false,
      "taf_trigger": false,
      "metar": "METAR LOWW 291650Z 33007KT CAVOK M02/M06 Q1016 NOSIG",
      "taf": "TAF LOWW 291415Z 2915/3021 32010KT CAVOK TX02/3012Z TNM00/3020Z"
    },
    {
      "icao": "LPFR",
      "alert": "OK",
      "vis_m": 9999,
      "fzfg": false,
      "metar_trigger": false,
      "taf_trigger": false,
      "metar": "METAR LPFR 291700Z 19003KT 9999 FEW020 15/11 Q1019",
      "taf": "TAF LPFR 291100Z 2912/3012 16005KT CAVOK"
    },
    {
      "icao": "LPMA",
      "alert": "OK",
      "vis_m": 9999,
      "fzfg": false,
      "metar_trigger": false,
      "taf_trigger": false,
      "metar": "METAR LPMA 291700Z 22016KT 9999 SCT015 17/13 Q1017",
      "taf": "TAF LPMA 291100Z 2912/3012 21015KT 9999 SCT015 BKN030"
    },
    {
      "icao": "LPPR",
      "alert": "OK",
      "vis_m": 9999,
      "fzfg": false,
      "metar_trigger": false,
      "taf_trigger": false,
      "metar": "METAR LPPR 291700Z 29003KT CAVOK 11/08 Q1019",
      "taf": "TAF LPPR 291100Z 2912/3012 08005KT CAVOK"
    },
    {
      "icao": "LPPS",
      "alert": "OK",
      "vis_m": 9999,
      "fzfg": false,
      "metar_trigger": false,
      "taf_trigger": false,
      "metar": "METAR LPPS 291700Z 20016KT 9999 FEW014 18/13 Q1017",
      "taf": "TAF LPPS 291100Z 2912/3018 17012KT 9999 SCT015"
    },
    {
      "icao": "LPPT",
      "alert": "OK",
      "vis_m": 9999,
      "fzfg": false,
      "metar_trigger": false,
      "taf_trigger": false,
      "metar": "METAR LPPT 291700Z VRB01KT 9999 FEW030 13/07 Q1019",
      "taf": "TAF LPPT 291100Z 2912/3018 06007KT CAVOK"
    },
    {
      "icao": "LQBK",
      "alert": "OK",
      "vis_m": 9999,
      "fzfg": false,
      "metar_trigger": false,
      "taf_trigger": false,
      "metar": "METAR LQBK 291700Z 00000KT CAVOK M02/M02 Q1015 NOSIG",
      "taf": "TAF LQBK 291700Z 2918/3018 22004KT CAVOK TX03/3013Z TNM05/3006Z"
    },
    {
      "icao": "LQSA",
      "alert": "OK",
      "vis_m": 9999,
      "fzfg": false,
      "metar_trigger": false,
      "taf_trigger": false,
      "metar": "METAR LQSA 291700Z 13003KT CAVOK M03/M04 Q1016 NOSIG",
      "taf": "TAF LQSA 291700Z 2918/3018 VRB02KT CAVOK TX03/3013Z TNM06/3006Z"
    },
    {
      "icao": "LQTZ",
      "alert": "OK",
      "vis_m": 9999,
      "fzfg": false,
      "metar_trigger": false,
      "taf_trigger": false,
      "metar": "METAR LQTZ 291700Z VRB01KT CAVOK M01/M03 Q1014",
      "taf": "TAF LQTZ 291700Z 2918/3018 VRB02KT CAVOK TX02/3013Z TNM04/3005Z"
    },
    {
      "icao": "LRBC",
      "alert": "OK",
      "vis_m": 9999,
      "fzfg": false,
      "metar_trigger": false,
      "taf_trigger": false,
      "metar": "METAR LRBC 291700Z 25011KT CAVOK 02/M07 Q1008",
      "taf": "TAF LRBC 291400Z 2915/2924 26006KT CAVOK"
    },
    {
      "icao": "LRBS",
      "alert": "OK",
      "vis_m": 9999,
      "fzfg": false,
      "metar_trigger": false,
      "taf_trigger": false,
      "metar": "METAR LRBS 291700Z 24008KT CAVOK 01/M03 Q1011 NOSIG",
      "taf": "TAF LRBS 291100Z 2912/3012 26012KT CAVOK"
    },
    {
      "icao": "LRBV",
      "alert": "OK",
      "vis_m": 9999,
      "fzfg": false,
      "metar_trigger": false,
      "taf_trigger": false,
      "metar": "METAR LRBV 291700Z 25006KT CAVOK M02/M08 Q1010",
      "taf": "TAF LRBV 291400Z 2915/2924 30012KT CAVOK"
    },
    {
      "icao": "LRCL",
      "alert": "OK",
      "vis_m": 9999,
      "fzfg": false,
      "metar_trigger": false,
      "taf_trigger": false,
      "metar": "METAR LRCL 291700Z 02003KT CAVOK M03/M07 Q1012",
      "taf": "TAF LRCL 291400Z 2915/2924 VRB04KT CAVOK"
    },
    {
      "icao": "LRCV",
      "alert": "OK",
      "vis_m": 9999,
      "fzfg": false,
      "metar_trigger": false,
      "taf_trigger": false,
      "metar": "METAR LRCV 291700Z 29011KT CAVOK 02/M04 Q1011",
      "taf": "TAF LRCV 291400Z 2915/2924 28016KT CAVOK"
    },
    {
      "icao": "LRIA",
      "alert": "OK",
      "vis_m": 9999,
      "fzfg": false,
      "metar_trigger": false,
      "taf_trigger": false,
      "metar": "METAR LRIA 291700Z 24005KT 220V310 CAVOK M01/M06 Q1008",
      "taf": "TAF LRIA 291400Z 2915/2924 31012KT CAVOK"
    },
    {
      "icao": "LROP",
      "alert": "OK",
      "vis_m": 9999,
      "fzfg": false,
      "metar_trigger": false,
      "taf_trigger": false,
      "metar": "METAR LROP 291700Z 22005KT CAVOK 00/M04 Q1011 NOSIG",
      "taf": "TAF LROP 291100Z 2912/3012 25012KT CAVOK"
    },
    {
      "icao": "LRSB",
      "alert": "OK",
      "vis_m": 9999,
      "fzfg": false,
      "metar_trigger": false,
      "taf_trigger": false,
      "metar": "METAR LRSB 291700Z 29013KT CAVOK M02/M06 Q1011",
      "taf": "TAF LRSB 291100Z 2912/3012 31012KT CAVOK"
    },
    {
      "icao": "LRSM",
      "alert": "OK",
      "vis_m": 9999,
      "fzfg": false,
      "metar_trigger": false,
      "taf_trigger": false,
      "metar": "METAR LRSM 291700Z 15004KT CAVOK M04/M06 Q1013",
      "taf": "TAF LRSM 291400Z 2915/2924 25014KT 9999 BKN015"
    },
    {
      "icao": "LRSV",
      "alert": "OK",
      "vis_m": 9999,
      "fzfg": false,
      "metar_trigger": false,
      "taf_trigger": false,
      "metar": "METAR LRSV 291700Z 30004KT CAVOK M03/M08 Q1007",
      "taf": "TAF LRSV 291400Z 2915/2924 36007KT CAVOK"
    },
    {
      "icao": "LRTM",
      "alert": "OK",
      "vis_m": 9999,
      "fzfg": false,
      "metar_trigger": false,
      "taf_trigger": false,
      "metar": "METAR LRTM 291700Z COR 27004KT CAVOK M03/M06 Q1011",
      "taf": "TAF LRTM 291400Z 2915/2924 22010KT CAVOK"
    },
    {
      "icao": "LRTR",
      "alert": "OK",
      "vis_m": 9999,
      "fzfg": false,
      "metar_trigger": false,
      "taf_trigger": false,
      "metar": "METAR LRTR 291700Z 17006KT CAVOK 00/M02 Q1014",
      "taf": "TAF LRTR 291100Z 2912/3012 20007KT CAVOK"
    },
    {
      "icao": "LTAC",
      "alert": "OK",
      "vis_m": 9999,
      "fzfg": false,
      "metar_trigger": false,
      "taf_trigger": false,
      "metar": "METAR LTAC 291650Z 25011KT 9999 SCT032 SCT100 M02/M07 Q1012 NOSIG RMK RWY21C 24010KT RWY03L 24008KT RWY21R 23010KT RWY03R 23012KT RWY21L 24010KT",
      "taf": "TAF LTAC 291640Z 2918/3018 24009KT 9999 SCT040 SCT100"
    },
    {
      "icao": "LTFM",
      "alert": "OK",
      "vis_m": 9999,
      "fzfg": false,
      "metar_trigger": false,
      "taf_trigger": false,
      "metar": "METAR LTFM 291650Z 23010KT CAVOK 03/M04 Q1016 NOSIG RMK RWY17L 23010KT RWY34L 22007KT RWY16R 23008KT RWY36 23010KT RWY18 24011KT",
      "taf": "TAF LTFM 291640Z 2918/3024 22012KT CAVOK"
    },
    {
      "icao": "LUKK",
      "alert": "OK",
      "vis_m": 9999,
      "fzfg": false,
      "metar_trigger": false,
      "taf_trigger": false,
      "metar": "METAR LUKK 291700Z 31010KT CAVOK M01/M06 Q1008 NOSIG",
      "taf": "TAF LUKK 291113Z 2912/3012 29012KT 9999 SCT035"
    },
    {
      "icao": "LWOH",
      "alert": "OK",
      "vis_m": 9999,
      "fzfg": false,
      "metar_trigger": false,
      "taf_trigger": false,
      "metar": "METAR LWOH 291650Z 35003KT CAVOK M01/M05 Q1017",
      "taf": "TAF LWOH 291430Z 2915/3015 16008KT CAVOK"
    },
    {
      "icao": "LWSK",
      "alert": "OK",
      "vis_m": 9999,
      "fzfg": false,
      "metar_trigger": false,
      "taf_trigger": false,
      "metar": "METAR LWSK 291650Z 13003KT 100V170 CAVOK M01/M05 Q1018 NOSIG",
      "taf": "TAF LWSK 291430Z 2915/3015 VRB02KT CAVOK"
    },
    {
      "icao": "LYBE",
      "alert": "OK",
      "vis_m": 9999,
      "fzfg": false,
      "metar_trigger": false,
      "taf_trigger": false,
      "metar": "METAR LYBE 291700Z 08005KT CAVOK 01/M04 Q1014 NOSIG",
      "taf": "TAF LYBE 291100Z 2912/3012 19005KT CAVOK TX06/2912Z TNM04/3006Z"
    },
    {
      "icao": "LYNI",
      "alert": "OK",
      "vis_m": 9999,
      "fzfg": false,
      "metar_trigger": false,
      "taf_trigger": false,
      "metar": "METAR LYNI 291700Z 09003KT CAVOK 01/M04 Q1016 NOSIG",
      "taf": "TAF LYNI 291100Z 2912/3012 19006KT CAVOK TX07/2913Z TNM05/3006Z"
    },
    {
      "icao": "LYPG",
      "alert": "OK",
      "vis_m": 9999,
      "fzfg": false,
      "metar_trigger": false,
      "taf_trigger": false,
      "metar": "METAR LYPG 291700Z 08003KT CAVOK 04/M04 Q1017 NOSIG",
      "taf": "TAF LYPG 291100Z 2912/3012 16005KT CAVOK TX12/2913Z TNM02/3005Z"
    },
    {
      "icao": "LZIB",
      "alert": "OK",
      "vis_m": 9999,
      "fzfg": false,
      "metar_trigger": false,
      "taf_trigger": false,
      "metar": "METAR LZIB 291700Z 32011KT 9999 FEW036 01/M04 Q1015 NOSIG",
      "taf": ""
    },
    {
      "icao": "LZKZ",
      "alert": "OK",
      "vis_m": 9999,
      "fzfg": false,
      "metar_trigger": false,
      "taf_trigger": false,
      "metar": "METAR LZKZ 291700Z 20003KT CAVOK M03/M06 Q1012 NOSIG",
      "taf": ""
    },
    {
      "icao": "LZTT",
      "alert": "OK",
      "vis_m": 9999,
      "fzfg": false,
      "metar_trigger": false,
      "taf_trigger": false,
      "metar": "METAR LZTT 291700Z 28012KT 9999 SCT023 M04/M07 Q1009 NOSIG",
      "taf": ""
    },
    {
      "icao": "OEJN",
      "alert": "OK",
      "vis_m": 9999,
      "fzfg": false,
      "metar_trigger": false,
      "taf_trigger": false,
      "metar": "METAR OEJN 291700Z 01004KT CAVOK 24/18 Q1016 NOSIG",
      "taf": "TAF OEJN 291700Z 2918/3024 05008KT 7000 NSC"
    },
    {
      "icao": "OEMA",
      "alert": "OK",
      "vis_m": 9999,
      "fzfg": false,
      "metar_trigger": false,
      "taf_trigger": false,
      "metar": "METAR OEMA 291700Z 29008KT CAVOK 21/M02 Q1018 NOSIG",
      "taf": "TAF OEMA 291700Z 2918/3024 30005KT CAVOK"
    },
    {
      "icao": "OJAI",
      "alert": "OK",
      "vis_m": 2500,
      "fzfg": false,
      "metar_trigger": false,
      "taf_trigger": false,
      "metar": "METAR OJAI 291700Z 26013KT 2500 BR SCT025 BKN030 09/08 Q1014 NOSIG",
      "taf": "TAF OJAI 291639Z 2918/3024 27015G25KT 3000 BR SCT030"
    },
    {
      "icao": "OMAA",
      "alert": "OK",
      "vis_m": 9999,
      "fzfg": false,
      "metar_trigger": false,
      "taf_trigger": false,
      "metar": "METAR OMAA 291700Z 33007KT CAVOK 23/16 Q1013 NOSIG",
      "taf": "TAF OMAA 291100Z 2912/3018 32011KT 8000 NSC"
    },
    {
      "icao": "OMDB",
      "alert": "OK",
      "vis_m": 9999,
      "fzfg": false,
      "metar_trigger": false,
      "taf_trigger": false,
      "metar": "METAR OMDB 291700Z 30013KT CAVOK 24/14 Q1013 NOSIG",
      "taf": "TAF OMDB 291700Z 2918/3100 29013KT 8000 NSC"
    },
    {
      "icao": "UAAA",
      "alert": "OK",
      "vis_m": 1000,
      "fzfg": false,
      "metar_trigger": false,
      "taf_trigger": false,
      "metar": "METAR UAAA 291700Z 15001MPS 1000 R23L/P2000 BR FEW100 SCT200 M02/M04 Q1008 NOSIG",
      "taf": ""
    },
    {
      "icao": "UBBB",
      "alert": "OK",
      "vis_m": 9999,
      "fzfg": false,
      "metar_trigger": false,
      "taf_trigger": false,
      "metar": "METAR UBBB 291700Z 00000KT CAVOK 04/02 Q1002 NOSIG",
      "taf": "TAF UBBB 291706Z 2918/3018 22005KT 9999 SCT015 TX08/3006Z TN02/3002Z"
    },
    {
      "icao": "UDSG",
      "alert": "OK",
      "vis_m": 9999,
      "fzfg": false,
      "metar_trigger": false,
      "taf_trigger": false,
      "metar": "METAR UDSG 291700Z 07003KT 050V120 9999 OVC036 M10/M11 Q1002 NOSIG",
      "taf": "TAF UDSG 291058Z 2912/3012 VRB06KT 5000 BR BKN030"
    },
    {
      "icao": "UDYZ",
      "alert": "OK",
      "vis_m": 1500,
      "fzfg": false,
      "metar_trigger": false,
      "taf_trigger": false,
      "metar": "METAR UDYZ 291700Z 36001KT 1500 1300W R08/P2000D BR SCT040 M06/M07 Q1004 NOSIG",
      "taf": "TAF UDYZ 291100Z 2912/3012 30006KT 6000 SCT040"
    },
    {
      "icao": "UGKO",
      "alert": "OK",
      "vis_m": 8000,
      "fzfg": false,
      "metar_trigger": false,
      "taf_trigger": false,
      "metar": "METAR UGKO 291700Z 24008KT 8000 -SHSNRA BKN014CB OVC016 01/M00 Q1005 NOSIG",
      "taf": "TAF UGKO 291700Z 2918/3018 24010KT 7000 -SNRA SCT015 OVC035 TX02/3006Z TNM00/3001Z"
    }
  ]
}