{
  "ts_utc": "2025-12-23T04:09:54Z",
  "threshold_m": 150,
  "source": "stations_override.txt (ICAO list) + aviationweather.gov (METAR/TAF raw)",
  "station_count": 159,
  "stations": [
    {
      "icao": "BIKF",
      "alert": "OK",
      "vis_m": 9999,
      "fzfg": false,
      "metar_trigger": false,
      "taf_trigger": false,
      "metar": "METAR BIKF 230400Z 24009KT 9999 BKN038 04/M01 Q1008",
      "taf": "TAF BIKF 230155Z 2303/2403 26018G30KT 7000 -SHRA SCT015 BKN030 TX07/2318Z TN02/2306Z"
    },
    {
      "icao": "BKPR",
      "alert": "OK",
      "vis_m": 9999,
      "fzfg": false,
      "metar_trigger": false,
      "taf_trigger": false,
      "metar": "METAR BKPR 230400Z 28007KT 9999 BKN005 00/00 Q1018 NOSIG",
      "taf": "TAF BKPR 222330Z 2300/2324 22006KT 8000 BKN010"
    },
    {
      "icao": "EBCI",
      "alert": "OK",
      "vis_m": 600,
      "fzfg": false,
      "metar_trigger": false,
      "taf_trigger": false,
      "metar": "METAR EBCI 230350Z 09007KT 0600 R24/1800N FG BKN001 00/00 Q1012 TEMPO 0400 FG",
      "taf": "TAF EBCI 222300Z 2300/2406 04003KT 7000 SCT010"
    },
    {
      "icao": "EDDB",
      "alert": "OK",
      "vis_m": 8000,
      "fzfg": false,
      "metar_trigger": false,
      "taf_trigger": false,
      "metar": "METAR EDDB 230350Z AUTO 08010KT 8000 BKN008 OVC011 01/00 Q1021 TEMPO 2500 -DZ BR BKN004",
      "taf": "TAF EDDB 222300Z 2300/2324 06010KT 6000 BKN005"
    },
    {
      "icao": "EDDH",
      "alert": "OK",
      "vis_m": 9000,
      "fzfg": false,
      "metar_trigger": false,
      "taf_trigger": false,
      "metar": "METAR EDDH 230350Z AUTO 09012KT 9000 OVC005 01/00 Q1022 NOSIG",
      "taf": "TAF EDDH 222300Z 2300/2406 08010KT 8000 OVC003"
    },
    {
      "icao": "EDDK",
      "alert": "OK",
      "vis_m": 9999,
      "fzfg": false,
      "metar_trigger": false,
      "taf_trigger": false,
      "metar": "METAR EDDK 230350Z AUTO 11006KT 070V140 9999 OVC018 05/00 Q1014 NOSIG",
      "taf": "TAF EDDK 222300Z 2300/2406 10007KT 9999 OVC015"
    },
    {
      "icao": "EDDN",
      "alert": "OK",
      "vis_m": 9999,
      "fzfg": false,
      "metar_trigger": false,
      "taf_trigger": false,
      "metar": "METAR EDDN 230350Z AUTO 08007KT 050V110 9999 OVC014 03/M00 Q1013",
      "taf": "TAF EDDN 222300Z 2300/2324 08006KT 9000 BKN012"
    },
    {
      "icao": "EDDS",
      "alert": "OK",
      "vis_m": 9999,
      "fzfg": false,
      "metar_trigger": false,
      "taf_trigger": false,
      "metar": "METAR EDDS 230350Z AUTO 09004KT 9999 OVC008 01/M00 Q1010",
      "taf": "TAF EDDS 222300Z 2300/2324 VRB03KT 9999 OVC005"
    },
    {
      "icao": "EDFH",
      "alert": "OK",
      "vis_m": 9999,
      "fzfg": false,
      "metar_trigger": false,
      "taf_trigger": false,
      "metar": "METAR EDFH 230350Z 10012KT 9999 OVC007 01/M01 Q1011",
      "taf": "TAF EDFH 222300Z 2300/2324 10010KT 9999 OVC005"
    },
    {
      "icao": "EDJA",
      "alert": "OK",
      "vis_m": 2100,
      "fzfg": false,
      "metar_trigger": false,
      "taf_trigger": false,
      "metar": "METAR EDJA 230350Z AUTO 09007KT 050V110 2100 // BKN001/// OVC005/// M02/M03 Q1010",
      "taf": "TAF EDJA 230200Z 2303/2312 05005KT 3000 BR OVC002"
    },
    {
      "icao": "EDLW",
      "alert": "OK",
      "vis_m": 9999,
      "fzfg": false,
      "metar_trigger": false,
      "taf_trigger": false,
      "metar": "METAR EDLW 230350Z AUTO 05009KT 9999 // OVC020/// 04/01 Q1014",
      "taf": "TAF EDLW 221700Z 2218/2318 07008KT 9999 SCT020"
    },
    {
      "icao": "EDNY",
      "alert": "OK",
      "vis_m": 9999,
      "fzfg": false,
      "metar_trigger": false,
      "taf_trigger": false,
      "metar": "METAR EDNY 230350Z AUTO 06006KT 9999 // OVC008/// M01/M02 Q1010",
      "taf": "TAF EDNY 221700Z 2218/2303 02005KT 9999 SCT012"
    },
    {
      "icao": "EDSB",
      "alert": "OK",
      "vis_m": 9999,
      "fzfg": false,
      "metar_trigger": false,
      "taf_trigger": false,
      "metar": "METAR EDSB 230350Z 05003KT 9999 FEW016 M01/M01 Q1011",
      "taf": ""
    },
    {
      "icao": "EETN",
      "alert": "OK",
      "vis_m": 9999,
      "fzfg": false,
      "metar_trigger": false,
      "taf_trigger": false,
      "metar": "METAR EETN 230350Z COR 25002KT CAVOK M06/M10 Q1032 NOSIG",
      "taf": "TAF EETN 222330Z 2300/2324 10010KT 9999 BKN035"
    },
    {
      "icao": "EFTU",
      "alert": "OK",
      "vis_m": 9999,
      "fzfg": false,
      "metar_trigger": false,
      "taf_trigger": false,
      "metar": "METAR EFTU 230350Z AUTO 05003KT CAVOK M09/M11 Q1034",
      "taf": "TAF EFTU 230228Z 2303/2403 07005KT CAVOK"
    },
    {
      "icao": "EGBB",
      "alert": "OK",
      "vis_m": 3400,
      "fzfg": false,
      "metar_trigger": false,
      "taf_trigger": false,
      "metar": "METAR EGBB 230350Z 07008KT 030V100 3400 BR OVC003 07/06 Q1015",
      "taf": "TAF EGBB 222258Z 2300/2324 07008KT 5000 BR BKN005"
    },
    {
      "icao": "EGGP",
      "alert": "OK",
      "vis_m": 9999,
      "fzfg": false,
      "metar_trigger": false,
      "taf_trigger": false,
      "metar": "METAR EGGP 230350Z AUTO 07007KT 9999 SCT019/// 06/05 Q1015",
      "taf": "TAF EGGP 222253Z 2300/2324 11006KT 9999 SCT012"
    },
    {
      "icao": "EGGW",
      "alert": "OK",
      "vis_m": 4600,
      "fzfg": false,
      "metar_trigger": false,
      "taf_trigger": false,
      "metar": "METAR EGGW 230350Z AUTO 07009KT 4600 HZ OVC006 06/05 Q1014",
      "taf": ""
    },
    {
      "icao": "EGKK",
      "alert": "OK",
      "vis_m": 9999,
      "fzfg": false,
      "metar_trigger": false,
      "taf_trigger": false,
      "metar": "METAR EGKK 230350Z 06006KT 9999 FEW006 BKN010 07/07 Q1013",
      "taf": "TAF EGKK 222255Z 2300/2406 06007KT 6000 SCT008"
    },
    {
      "icao": "EGNM",
      "alert": "OK",
      "vis_m": null,
      "fzfg": false,
      "metar_trigger": false,
      "taf_trigger": false,
      "metar": "",
      "taf": "TAF EGNM 222253Z 2300/2324 07005KT 6000 SCT003 BKN006"
    },
    {
      "icao": "EGPD",
      "alert": "OK",
      "vis_m": 8000,
      "fzfg": false,
      "metar_trigger": false,
      "taf_trigger": false,
      "metar": "METAR EGPD 230350Z AUTO 15006KT 8000 SCT010 BKN015 OVC024 08/07 Q1019 TEMPO BKN010",
      "taf": "TAF EGPD 222253Z 2300/2324 15009KT 9999 FEW007 BKN016"
    },
    {
      "icao": "EGPF",
      "alert": "OK",
      "vis_m": 7000,
      "fzfg": false,
      "metar_trigger": false,
      "taf_trigger": false,
      "metar": "METAR EGPF 230350Z AUTO 06004KT 7000 OVC017 07/06 Q1017",
      "taf": "TAF EGPF 222256Z 2300/2324 07008KT 9999 SCT040"
    },
    {
      "icao": "EHBK",
      "alert": "OK",
      "vis_m": 9999,
      "fzfg": false,
      "metar_trigger": false,
      "taf_trigger": false,
      "metar": "METAR EHBK 230355Z AUTO 08013KT 040V110 9999 OVC015/// 04/01 Q1012",
      "taf": "TAF EHBK 222318Z 2300/2406 08010KT 9999 SCT018"
    },
    {
      "icao": "EHEH",
      "alert": "OK",
      "vis_m": 9999,
      "fzfg": false,
      "metar_trigger": false,
      "taf_trigger": false,
      "metar": "METAR EHEH 230355Z AUTO 08007KT 050V130 9999 OVC017 05/01 Q1014 WHT",
      "taf": "TAF EHEH 222353Z 2300/2406 06008KT 9999 SCT017 OVC018"
    },
    {
      "icao": "EKBI",
      "alert": "OK",
      "vis_m": 9999,
      "fzfg": false,
      "metar_trigger": false,
      "taf_trigger": false,
      "metar": "METAR EKBI 230350Z AUTO 09011KT 9999 OVC028/// 05/00 Q1025",
      "taf": "TAF EKBI 230227Z 2303/2403 09012KT 9999 OVC020"
    },
    {
      "icao": "EKCH",
      "alert": "OK",
      "vis_m": 9999,
      "fzfg": false,
      "metar_trigger": false,
      "taf_trigger": false,
      "metar": "METAR EKCH 230350Z AUTO 05012KT 9999 SCT016/// BKN029/// 03/00 Q1027 NOSIG",
      "taf": "TAF EKCH 230227Z 2303/2403 06012KT 9999 OVC030"
    },
    {
      "icao": "ENAL",
      "alert": "OK",
      "vis_m": 9999,
      "fzfg": false,
      "metar_trigger": false,
      "taf_trigger": false,
      "metar": "METAR ENAL 230350Z AUTO 15011KT 9999 NCD 03/M04 Q1027",
      "taf": "TAF ENAL 230200Z 2303/2312 15010KT CAVOK"
    },
    {
      "icao": "ENBR",
      "alert": "OK",
      "vis_m": 9999,
      "fzfg": false,
      "metar_trigger": false,
      "taf_trigger": false,
      "metar": "METAR ENBR 230350Z AUTO 14001KT 9999 NCD 01/M02 Q1027 RMK WIND 1200FT 12004KT",
      "taf": "TAF ENBR 222300Z 2300/2324 10003KT CAVOK"
    },
    {
      "icao": "ENGM",
      "alert": "OK",
      "vis_m": 9999,
      "fzfg": false,
      "metar_trigger": false,
      "taf_trigger": false,
      "metar": "METAR ENGM 230350Z 02004KT 9999 -SN OVC019 M02/M03 Q1033",
      "taf": "TAF ENGM 222300Z 2300/2324 02005KT 9999 BKN008"
    },
    {
      "icao": "ENHD",
      "alert": "OK",
      "vis_m": 9999,
      "fzfg": false,
      "metar_trigger": false,
      "taf_trigger": false,
      "metar": "METAR ENHD 230350Z AUTO 13007KT 9999 NCD 04/00 Q1027",
      "taf": "TAF ENHD 230200Z 2303/2312 14006KT CAVOK"
    },
    {
      "icao": "ENTC",
      "alert": "OK",
      "vis_m": null,
      "fzfg": false,
      "metar_trigger": false,
      "taf_trigger": false,
      "metar": "",
      "taf": "TAF ENTC 222300Z 2300/2324 20012KT 9999 -RADZ BKN009"
    },
    {
      "icao": "ENTO",
      "alert": "OK",
      "vis_m": 9999,
      "fzfg": false,
      "metar_trigger": false,
      "taf_trigger": false,
      "metar": "METAR ENTO 230350Z AUTO 02008KT 9999 SCT006/// BKN008/// BKN009/// M01/M01 Q1033",
      "taf": "TAF ENTO 222300Z 2300/2324 02008KT 9999 BKN004"
    },
    {
      "icao": "ENVA",
      "alert": "OK",
      "vis_m": 9999,
      "fzfg": false,
      "metar_trigger": false,
      "taf_trigger": false,
      "metar": "METAR ENVA 230350Z AUTO 10008KT 9999 NCD M03/M05 Q1030 RMK WIND 670FT 13013KT",
      "taf": "TAF ENVA 222300Z 2300/2324 11005KT CAVOK"
    },
    {
      "icao": "ENZV",
      "alert": "OK",
      "vis_m": 9999,
      "fzfg": false,
      "metar_trigger": false,
      "taf_trigger": false,
      "metar": "METAR ENZV 230350Z VRB02KT CAVOK 03/M02 Q1027",
      "taf": "TAF ENZV 222300Z 2300/2324 12003KT CAVOK"
    },
    {
      "icao": "EPGD",
      "alert": "OK",
      "vis_m": 9999,
      "fzfg": false,
      "metar_trigger": false,
      "taf_trigger": false,
      "metar": "METAR EPGD 230400Z 35003KT 9999 -SHRA FEW015TCU BKN018 02/02 Q1024",
      "taf": "TAF EPGD 222330Z 2300/2324 07005KT 9999 BKN030"
    },
    {
      "icao": "EPKK",
      "alert": "OK",
      "vis_m": 4500,
      "fzfg": false,
      "metar_trigger": false,
      "taf_trigger": false,
      "metar": "METAR EPKK 230400Z 06007KT 4500 BR OVC003 00/M00 Q1019",
      "taf": "TAF EPKK 230230Z 2303/2403 06008KT 3500 BR OVC003"
    },
    {
      "icao": "EPKT",
      "alert": "OK",
      "vis_m": 2200,
      "fzfg": false,
      "metar_trigger": false,
      "taf_trigger": false,
      "metar": "METAR EPKT 230400Z 07007KT 2200 -DZ BR OVC002 M00/M00 Q1019",
      "taf": "TAF EPKT 222330Z 2300/2324 07006KT 3000 BR OVC002"
    },
    {
      "icao": "EPLB",
      "alert": "OK",
      "vis_m": 9999,
      "fzfg": false,
      "metar_trigger": false,
      "taf_trigger": false,
      "metar": "METAR EPLB 230400Z VRB02KT 9999 OVC032 01/M01 Q1021",
      "taf": "TAF EPLB 222330Z 2300/2324 09005KT 9999 OVC020"
    },
    {
      "icao": "EPMO",
      "alert": "OK",
      "vis_m": 9999,
      "fzfg": false,
      "metar_trigger": false,
      "taf_trigger": false,
      "metar": "METAR EPMO 230400Z 03003KT 9999 OVC031 01/M00 Q1022",
      "taf": "TAF EPMO 222330Z 2300/2324 08006KT 9999 BKN030"
    },
    {
      "icao": "EPPO",
      "alert": "OK",
      "vis_m": 9999,
      "fzfg": false,
      "metar_trigger": false,
      "taf_trigger": false,
      "metar": "METAR EPPO 230400Z 09010KT 9999 OVC018 02/M02 Q1022",
      "taf": ""
    },
    {
      "icao": "EPRA",
      "alert": "OK",
      "vis_m": 9999,
      "fzfg": false,
      "metar_trigger": false,
      "taf_trigger": false,
      "metar": "METAR EPRA 230400Z 07006KT 9999 BKN028 M00/M02 Q1021",
      "taf": "TAF EPRA 230230Z 2303/2312 09008KT 9999 BKN026"
    },
    {
      "icao": "EPRZ",
      "alert": "OK",
      "vis_m": 9999,
      "fzfg": false,
      "metar_trigger": false,
      "taf_trigger": false,
      "metar": "METAR EPRZ 230400Z 08009KT 9999 OVC006 01/M01 Q1020",
      "taf": "TAF EPRZ 222330Z 2300/2324 07008KT 9999 BKN012"
    },
    {
      "icao": "EPSC",
      "alert": "OK",
      "vis_m": 9999,
      "fzfg": false,
      "metar_trigger": false,
      "taf_trigger": false,
      "metar": "METAR EPSC 230400Z 08006KT 9999 OVC028 03/M03 Q1024",
      "taf": "TAF EPSC 222330Z 2300/2324 10010KT 9999 BKN020"
    },
    {
      "icao": "EPSY",
      "alert": "OK",
      "vis_m": 9999,
      "fzfg": false,
      "metar_trigger": false,
      "taf_trigger": false,
      "metar": "METAR EPSY 230400Z 00000KT 9999 OVC032 01/M01 Q1023",
      "taf": "TAF EPSY 230230Z 2303/2312 VRB02KT 9999 BKN030"
    },
    {
      "icao": "EPWA",
      "alert": "OK",
      "vis_m": 9999,
      "fzfg": false,
      "metar_trigger": false,
      "taf_trigger": false,
      "metar": "METAR EPWA 230400Z 08004KT 9999 BKN033 02/M02 Q1022 NOSIG",
      "taf": "TAF EPWA 230230Z 2303/2403 12005KT 9999 BKN030"
    },
    {
      "icao": "EPWR",
      "alert": "OK",
      "vis_m": 5000,
      "fzfg": false,
      "metar_trigger": false,
      "taf_trigger": false,
      "metar": "METAR EPWR 230400Z 05006KT 5000 BR BKN003 OVC004 02/01 Q1019",
      "taf": "TAF EPWR 230230Z 2303/2403 06008KT 5000 BR OVC003"
    },
    {
      "icao": "ESGG",
      "alert": "OK",
      "vis_m": 9999,
      "fzfg": false,
      "metar_trigger": false,
      "taf_trigger": false,
      "metar": "METAR ESGG 230350Z 05006KT 9999 -SN BKN015 OVC022 M01/M02 Q1029",
      "taf": "TAF ESGG 230230Z 2303/2403 07008KT 9999 OVC008"
    },
    {
      "icao": "ESKN",
      "alert": "OK",
      "vis_m": 9999,
      "fzfg": false,
      "metar_trigger": false,
      "taf_trigger": false,
      "metar": "METAR ESKN 230350Z 01005KT 9999 OVC008 00/M01 Q1031",
      "taf": "TAF ESKN 230230Z 2303/2403 02006KT 9999 SCT020"
    },
    {
      "icao": "ESMS",
      "alert": "OK",
      "vis_m": 9999,
      "fzfg": false,
      "metar_trigger": false,
      "taf_trigger": false,
      "metar": "METAR ESMS 230350Z 04010KT 9999 SCT012 BKN020 02/02 Q1026",
      "taf": "TAF ESMS 230227Z 2303/2403 07010KT 9999 BKN030"
    },
    {
      "icao": "ESSA",
      "alert": "OK",
      "vis_m": 1600,
      "fzfg": false,
      "metar_trigger": false,
      "taf_trigger": false,
      "metar": "METAR ESSA 230350Z 01003KT 1600 -SN FEW008 SCT015 OVC027 M02/M02 Q1032 TEMPO 3500 BKN008",
      "taf": "TAF ESSA 230230Z 2303/2403 02005KT 9999 BKN020"
    },
    {
      "icao": "EYKA",
      "alert": "OK",
      "vis_m": 9999,
      "fzfg": false,
      "metar_trigger": false,
      "taf_trigger": false,
      "metar": "METAR EYKA 230350Z 05004KT 010V090 9999 OVC042 01/M01 Q1025",
      "taf": ""
    },
    {
      "icao": "EYPA",
      "alert": "OK",
      "vis_m": 9999,
      "fzfg": false,
      "metar_trigger": false,
      "taf_trigger": false,
      "metar": "METAR EYPA 230350Z 04002KT CAVOK M01/M02 Q1026",
      "taf": "TAF EYPA 222304Z 2300/2324 06010KT 5000 BR SCT010 BKN015"
    },
    {
      "icao": "EYVI",
      "alert": "OK",
      "vis_m": 9999,
      "fzfg": false,
      "metar_trigger": false,
      "taf_trigger": false,
      "metar": "METAR EYVI 230350Z 03007KT 9999 OVC039 M01/M03 Q1023 NOSIG",
      "taf": ""
    },
    {
      "icao": "GCFV",
      "alert": "OK",
      "vis_m": 9999,
      "fzfg": false,
      "metar_trigger": false,
      "taf_trigger": false,
      "metar": "METAR GCFV 230400Z AUTO 34008KT 9999 BKN034 BKN041 16/11 Q1020",
      "taf": "TAF GCFV 230200Z 2303/2403 32009KT 9999 SCT025 TX22/2314Z TN15/2306Z"
    },
    {
      "icao": "GCLP",
      "alert": "OK",
      "vis_m": 9999,
      "fzfg": false,
      "metar_trigger": false,
      "taf_trigger": false,
      "metar": "METAR GCLP 230400Z 35010KT 9999 FEW030 16/12 Q1021 NOSIG",
      "taf": "TAF GCLP 230200Z 2303/2403 01014KT 9999 BKN020 TX21/2314Z TN16/2306Z"
    },
    {
      "icao": "GCTS",
      "alert": "OK",
      "vis_m": 9999,
      "fzfg": false,
      "metar_trigger": false,
      "taf_trigger": false,
      "metar": "METAR GCTS 230400Z 01010KT 9999 FEW035 17/10 Q1021 NOSIG",
      "taf": "TAF GCTS 230200Z 2303/2403 02009KT 9999 BKN030 TX24/2314Z TN15/2306Z"
    },
    {
      "icao": "GMAD",
      "alert": "OK",
      "vis_m": 9999,
      "fzfg": false,
      "metar_trigger": false,
      "taf_trigger": false,
      "metar": "METAR GMAD 230400Z 05006KT CAVOK 08/08 Q1016 NOSIG",
      "taf": "TAF GMAD 222300Z 2300/2406 12004KT 6000 SCT020"
    },
    {
      "icao": "GMMN",
      "alert": "OK",
      "vis_m": 9999,
      "fzfg": false,
      "metar_trigger": false,
      "taf_trigger": false,
      "metar": "METAR GMMN 230400Z 20009KT 9999 SCT020 09/07 Q1018 NOSIG",
      "taf": "TAF GMMN 222300Z 2300/2406 20008KT 9999 SCT020"
    },
    {
      "icao": "GMMX",
      "alert": "OK",
      "vis_m": 8000,
      "fzfg": false,
      "metar_trigger": false,
      "taf_trigger": false,
      "metar": "METAR GMMX 230400Z 22003KT 180V280 8000 SCT023 07/06 Q1019 NOSIG",
      "taf": "TAF GMMX 222300Z 2300/2406 06006KT 8000 SCT020"
    },
    {
      "icao": "HEGN",
      "alert": "OK",
      "vis_m": 9999,
      "fzfg": false,
      "metar_trigger": false,
      "taf_trigger": false,
      "metar": "METAR HEGN 230400Z 30010KT CAVOK 15/M00 Q1015 NOSIG",
      "taf": "TAF HEGN 222300Z 2300/2406 29010KT CAVOK"
    },
    {
      "icao": "HEMA",
      "alert": "OK",
      "vis_m": 9999,
      "fzfg": false,
      "metar_trigger": false,
      "taf_trigger": false,
      "metar": "METAR HEMA 230400Z 28007KT CAVOK 16/09 Q1014 NOSIG",
      "taf": "TAF HEMA 222300Z 2300/2406 28010KT CAVOK"
    },
    {
      "icao": "HESH",
      "alert": "OK",
      "vis_m": 9999,
      "fzfg": false,
      "metar_trigger": false,
      "taf_trigger": false,
      "metar": "METAR HESH 230400Z 30005KT CAVOK 19/13 Q1014 NOSIG",
      "taf": "TAF HESH 222300Z 2300/2406 32010KT CAVOK"
    },
    {
      "icao": "HESX",
      "alert": "OK",
      "vis_m": 9999,
      "fzfg": false,
      "metar_trigger": false,
      "taf_trigger": false,
      "metar": "METAR HESX 230400Z 20010KT CAVOK 09/04 Q1015 NOSIG",
      "taf": "TAF HESX 222300Z 2300/2406 23009KT CAVOK"
    },
    {
      "icao": "LATI",
      "alert": "OK",
      "vis_m": 9999,
      "fzfg": false,
      "metar_trigger": false,
      "taf_trigger": false,
      "metar": "METAR LATI 230350Z 15002KT 9999 FEW074 BKN120 04/02 Q1015 NOSIG",
      "taf": "TAF LATI 222300Z 2300/2324 VRB05KT CAVOK TX14/2312Z TN02/2302Z"
    },
    {
      "icao": "LBPD",
      "alert": "OK",
      "vis_m": 8000,
      "fzfg": false,
      "metar_trigger": false,
      "taf_trigger": false,
      "metar": "METAR LBPD 230400Z AUTO 10005KT 8000 OVC005/// 06/06 Q1020 TEMPO 5000 BR",
      "taf": "TAF LBPD 222300Z 2300/2324 VRB03KT 3000 BR SCT015 OVC020"
    },
    {
      "icao": "LBSF",
      "alert": "OK",
      "vis_m": 9000,
      "fzfg": false,
      "metar_trigger": false,
      "taf_trigger": false,
      "metar": "METAR LBSF 230400Z AUTO 30002KT 9000 SCT021/// BKN061/// 02/01 Q1018 TEMPO 4000 BR",
      "taf": "TAF LBSF 222300Z 2300/2324 VRB03KT 7000 SCT015 BKN040"
    },
    {
      "icao": "LBWN",
      "alert": "OK",
      "vis_m": 9999,
      "fzfg": false,
      "metar_trigger": false,
      "taf_trigger": false,
      "metar": "METAR LBWN 230400Z AUTO 26004KT 9999 OVC009/// 01/01 Q1021 NOSIG",
      "taf": "TAF LBWN 222300Z 2300/2324 VRB03KT 7000 SCT005 OVC008"
    },
    {
      "icao": "LCLK",
      "alert": "OK",
      "vis_m": 9999,
      "fzfg": false,
      "metar_trigger": false,
      "taf_trigger": false,
      "metar": "METAR LCLK 230400Z 06010KT 9999 FEW025 FEW030CB FEW035TCU BKN040 13/13 Q1014 RETS NOSIG RMK CB TO E",
      "taf": "TAF LCLK 222330Z 2300/2400 06009KT 9999 FEW020 SCT030"
    },
    {
      "icao": "LCPH",
      "alert": "OK",
      "vis_m": 9999,
      "fzfg": false,
      "metar_trigger": false,
      "taf_trigger": false,
      "metar": "METAR LCPH 230400Z 07008KT 9999 TS FEW025 FEW030CB SCT080 14/09 Q1012 NOSIG",
      "taf": "TAF LCPH 222330Z 2300/2400 10009KT 9999 FEW022 SCT030"
    },
    {
      "icao": "LEAL",
      "alert": "OK",
      "vis_m": 9999,
      "fzfg": false,
      "metar_trigger": false,
      "taf_trigger": false,
      "metar": "METAR LEAL 230400Z 32005KT CAVOK 09/02 Q1010 NOSIG",
      "taf": "TAF LEAL 222300Z 2300/2324 30010KT 9999 FEW040 TX15/2313Z TN08/2307Z"
    },
    {
      "icao": "LEBB",
      "alert": "OK",
      "vis_m": 9999,
      "fzfg": false,
      "metar_trigger": false,
      "taf_trigger": false,
      "metar": "METAR LEBB 230400Z 09004KT 060V120 9999 FEW036 BKN055 06/06 Q1009 NOSIG",
      "taf": "TAF LEBB 222300Z 2300/2324 20008KT 9999 FEW040 SCT070 TX11/2313Z TN06/2307Z"
    },
    {
      "icao": "LEBL",
      "alert": "OK",
      "vis_m": 9999,
      "fzfg": false,
      "metar_trigger": false,
      "taf_trigger": false,
      "metar": "METAR LEBL 230400Z 31010KT 280V340 9999 FEW025 06/03 Q1004 TEMPO 4000 SHRA FEW020TCU",
      "taf": ""
    },
    {
      "icao": "LECH",
      "alert": "OK",
      "vis_m": 9000,
      "fzfg": false,
      "metar_trigger": false,
      "taf_trigger": false,
      "metar": "METAR LECH 230400Z AUTO 23008KT 210V320 9000 NCD 06/M02 Q1005",
      "taf": ""
    },
    {
      "icao": "LEMD",
      "alert": "OK",
      "vis_m": 9999,
      "fzfg": false,
      "metar_trigger": false,
      "taf_trigger": false,
      "metar": "METAR LEMD 230400Z 11004KT 060V130 CAVOK 01/01 Q1010 NOSIG",
      "taf": "TAF LEMD 222300Z 2300/2406 VRB04KT 9999 SCT025 TX07/2315Z TNM01/2306Z"
    },
    {
      "icao": "LEMG",
      "alert": "OK",
      "vis_m": 9999,
      "fzfg": false,
      "metar_trigger": false,
      "taf_trigger": false,
      "metar": "METAR LEMG 230400Z 29004KT 250V320 9999 FEW045 SCT055 09/05 Q1013 NOSIG",
      "taf": "TAF LEMG 222300Z 2300/2324 32007KT 9999 FEW040 TX15/2314Z TN05/2306Z"
    },
    {
      "icao": "LEVC",
      "alert": "OK",
      "vis_m": 9999,
      "fzfg": false,
      "metar_trigger": false,
      "taf_trigger": false,
      "metar": "METAR LEVC 230400Z 26008KT CAVOK 07/01 Q1008 NOSIG",
      "taf": "TAF LEVC 222300Z 2300/2324 27010KT CAVOK TX14/2313Z TN07/2307Z"
    },
    {
      "icao": "LEXJ",
      "alert": "OK",
      "vis_m": 9999,
      "fzfg": false,
      "metar_trigger": false,
      "taf_trigger": false,
      "metar": "METAR LEXJ 230400Z AUTO 22010KT 9999 SCT070 08/01 Q1008",
      "taf": "TAF LEXJ 230200Z 2303/2403 22009KT 9999 FEW020 SCT040 TX12/2313Z TN06/2307Z"
    },
    {
      "icao": "LEZG",
      "alert": "OK",
      "vis_m": 9999,
      "fzfg": false,
      "metar_trigger": false,
      "taf_trigger": false,
      "metar": "METAR LEZG 230400Z 25009KT 9999 SCT070 06/02 Q1007 NOSIG",
      "taf": "TAF LEZG 222300Z 2300/2324 27006KT 9999 FEW040 TX11/2314Z TN03/2306Z"
    },
    {
      "icao": "LEZL",
      "alert": "OK",
      "vis_m": 7000,
      "fzfg": false,
      "metar_trigger": false,
      "taf_trigger": false,
      "metar": "METAR LEZL 230400Z AUTO 21003KT 7000 NSC 09/09 Q1015",
      "taf": "TAF LEZL 230200Z 2303/2403 22005KT 9999 SCT040 TX15/2315Z TN08/2307Z"
    },
    {
      "icao": "LFBD",
      "alert": "OK",
      "vis_m": 6000,
      "fzfg": false,
      "metar_trigger": false,
      "taf_trigger": false,
      "metar": "METAR LFBD 230400Z AUTO 13008KT 6000 2100 OVC004 05/05 Q1008 TEMPO 1400 BR",
      "taf": ""
    },
    {
      "icao": "LFLL",
      "alert": "OK",
      "vis_m": 8000,
      "fzfg": false,
      "metar_trigger": false,
      "taf_trigger": false,
      "metar": "METAR LFLL 230400Z 34003KT 8000 BKN007 BKN180 06/05 Q1007 NOSIG",
      "taf": ""
    },
    {
      "icao": "LFLS",
      "alert": "OK",
      "vis_m": 7000,
      "fzfg": false,
      "metar_trigger": false,
      "taf_trigger": false,
      "metar": "METAR LFLS 230400Z AUTO 12004KT 7000 FEW010 OVC110 04/04 Q1006 TEMPO 0300 FG VV///",
      "taf": "TAF LFLS 230200Z 2303/2403 VRB03KT 6000 SCT008 BKN100"
    },
    {
      "icao": "LFMN",
      "alert": "OK",
      "vis_m": 9999,
      "fzfg": false,
      "metar_trigger": false,
      "taf_trigger": false,
      "metar": "METAR LFMN 230400Z 01014KT 9999 BKN046 13/05 Q1004 NOSIG",
      "taf": "TAF LFMN 230200Z 2303/2409 04015KT 9999 BKN040"
    },
    {
      "icao": "LFOB",
      "alert": "OK",
      "vis_m": 9999,
      "fzfg": false,
      "metar_trigger": false,
      "taf_trigger": false,
      "metar": "METAR LFOB 230400Z AUTO 03004KT CAVOK 06/05 Q1010 TEMPO 0500 FG VV///",
      "taf": "TAF LFOB 222300Z 2300/2324 06004KT CAVOK"
    },
    {
      "icao": "LFPO",
      "alert": "OK",
      "vis_m": null,
      "fzfg": false,
      "metar_trigger": false,
      "taf_trigger": false,
      "metar": "",
      "taf": "TAF LFPO 221700Z 2218/2324 09008KT CAVOK"
    },
    {
      "icao": "LFSB",
      "alert": "OK",
      "vis_m": 9999,
      "fzfg": false,
      "metar_trigger": false,
      "taf_trigger": false,
      "metar": "METAR LFSB 230400Z AUTO 12006KT 9999 OVC011 02/M00 Q1010 TEMPO 0500 FG VV///",
      "taf": "TAF LFSB 222300Z 2300/2324 35006KT 7000 OVC009"
    },
    {
      "icao": "LGAV",
      "alert": "OK",
      "vis_m": 9999,
      "fzfg": false,
      "metar_trigger": false,
      "taf_trigger": false,
      "metar": "METAR LGAV 230350Z 35006KT 9999 FEW020 SCT035 BKN070 11/07 Q1016 NOSIG",
      "taf": "TAF LGAV 222300Z 2300/2324 36012KT 9999 FEW018 SCT035 BKN070"
    },
    {
      "icao": "LGTS",
      "alert": "OK",
      "vis_m": 9999,
      "fzfg": false,
      "metar_trigger": false,
      "taf_trigger": false,
      "metar": "METAR LGTS 230350Z 00000KT 9999 FEW018 SCT035 09/09 Q1019 NOSIG",
      "taf": "TAF LGTS 222300Z 2300/2324 VRB03KT 9999 FEW010 SCT025"
    },
    {
      "icao": "LHBP",
      "alert": "OK",
      "vis_m": 7000,
      "fzfg": false,
      "metar_trigger": false,
      "taf_trigger": false,
      "metar": "METAR LHBP 230400Z 11008KT 7000 BKN006 OVC015 03/03 Q1018 NOSIG",
      "taf": "TAF LHBP 222315Z 2300/2324 11006KT 9999 OVC017"
    },
    {
      "icao": "LHDC",
      "alert": "OK",
      "vis_m": 6000,
      "fzfg": false,
      "metar_trigger": false,
      "taf_trigger": false,
      "metar": "METAR LHDC 230345Z AUTO VRB03KT 6000 OVC017 04/03 Q1019",
      "taf": ""
    },
    {
      "icao": "LIBD",
      "alert": "OK",
      "vis_m": 9999,
      "fzfg": false,
      "metar_trigger": false,
      "taf_trigger": false,
      "metar": "METAR LIBD 230350Z 11005KT 9999 -RA SCT035 11/11 Q1012",
      "taf": "TAF LIBD 222300Z 2300/2324 14007KT 9999 FEW040"
    },
    {
      "icao": "LIBG",
      "alert": "OK",
      "vis_m": null,
      "fzfg": false,
      "metar_trigger": false,
      "taf_trigger": false,
      "metar": "",
      "taf": "TAF LIBG 221700Z 2218/2303 10007KT 9999 FEW040"
    },
    {
      "icao": "LIBP",
      "alert": "OK",
      "vis_m": 9999,
      "fzfg": false,
      "metar_trigger": false,
      "taf_trigger": false,
      "metar": "METAR LIBP 230350Z AUTO 21003KT 9999 OVC022/// 10/08 Q1012",
      "taf": "TAF LIBP 222300Z 2300/2324 VRB05KT 9999 BKN020"
    },
    {
      "icao": "LIBR",
      "alert": "OK",
      "vis_m": 9999,
      "fzfg": false,
      "metar_trigger": false,
      "taf_trigger": false,
      "metar": "METAR LIBR 230350Z 11006KT 9999 SCT035 15/12 Q1013",
      "taf": "TAF LIBR 222300Z 2300/2324 15008KT 9999 SCT040"
    },
    {
      "icao": "LICA",
      "alert": "OK",
      "vis_m": 9999,
      "fzfg": false,
      "metar_trigger": false,
      "taf_trigger": false,
      "metar": "METAR LICA 230350Z AUTO 06008KT 9999 NCD 12/11 Q1011",
      "taf": "TAF LICA 222300Z 2300/2324 07015KT 9999 SCT040"
    },
    {
      "icao": "LICC",
      "alert": "OK",
      "vis_m": 6000,
      "fzfg": false,
      "metar_trigger": false,
      "taf_trigger": false,
      "metar": "METAR LICC 230350Z 23005KT 6000 NSC 09/08 Q1011",
      "taf": "TAF LICC 222300Z 2300/2324 VRB05KT 9999 SCT030"
    },
    {
      "icao": "LICJ",
      "alert": "OK",
      "vis_m": 9999,
      "fzfg": false,
      "metar_trigger": false,
      "taf_trigger": false,
      "metar": "METAR LICJ 230350Z 21010KT 9999 FEW035 15/10 Q1008",
      "taf": "TAF LICJ 222300Z 2300/2324 19012KT 9999 SCT040"
    },
    {
      "icao": "LIMC",
      "alert": "OK",
      "vis_m": 9999,
      "fzfg": false,
      "metar_trigger": false,
      "taf_trigger": false,
      "metar": "METAR LIMC 230350Z 35007KT 9999 -RA BKN045 07/06 Q1012 NOSIG",
      "taf": "TAF LIMC 222300Z 2300/2406 VRB04KT 9000 BKN050"
    },
    {
      "icao": "LIME",
      "alert": "OK",
      "vis_m": 9999,
      "fzfg": false,
      "metar_trigger": false,
      "taf_trigger": false,
      "metar": "METAR LIME 230350Z VRB01KT 9999 BKN050 07/04 Q1012 NOSIG",
      "taf": "TAF LIME 222300Z 2300/2324 VRB04KT 9000 SCT050"
    },
    {
      "icao": "LIMF",
      "alert": "OK",
      "vis_m": 2000,
      "fzfg": false,
      "metar_trigger": false,
      "taf_trigger": false,
      "metar": "METAR LIMF 230350Z 25006KT 2000 RA BR OVC032 07/06 Q1013",
      "taf": "TAF LIMF 222300Z 2300/2324 VRB04KT 6000 RA SCT030 OVC060"
    },
    {
      "icao": "LIMJ",
      "alert": "OK",
      "vis_m": 9999,
      "fzfg": false,
      "metar_trigger": false,
      "taf_trigger": false,
      "metar": "METAR LIMJ 230350Z 03015KT 9999 -RA FEW019 BKN035 09/06 Q1009 RERA",
      "taf": "TAF LIMJ 222300Z 2300/2324 03015KT 8000 RA BKN040"
    },
    {
      "icao": "LIPE",
      "alert": "OK",
      "vis_m": 5000,
      "fzfg": false,
      "metar_trigger": false,
      "taf_trigger": false,
      "metar": "METAR LIPE 230350Z 28003KT 5000 BR OVC010 07/07 Q1012",
      "taf": "TAF LIPE 222300Z 2300/2324 VRB04KT 4000 BR BKN010"
    },
    {
      "icao": "LIPH",
      "alert": "OK",
      "vis_m": 9999,
      "fzfg": false,
      "metar_trigger": false,
      "taf_trigger": false,
      "metar": "METAR LIPH 230350Z AUTO 01002KT 9999 BKN047/// OVC069/// 08/04 Q1013",
      "taf": "TAF LIPH 222300Z 2300/2324 05005KT 9999 SCT050"
    },
    {
      "icao": "LIPQ",
      "alert": "OK",
      "vis_m": 9999,
      "fzfg": false,
      "metar_trigger": false,
      "taf_trigger": false,
      "metar": "METAR LIPQ 230350Z AUTO 04003KT 9999 BKN092/// 08/06 Q1013",
      "taf": "TAF LIPQ 222300Z 2300/2324 06005KT 9999 BKN050"
    },
    {
      "icao": "LIPR",
      "alert": "OK",
      "vis_m": 8000,
      "fzfg": false,
      "metar_trigger": false,
      "taf_trigger": false,
      "metar": "METAR LIPR 230350Z AUTO 28003KT 8000 -DZ OVC007/// 09/08 Q1012",
      "taf": "TAF LIPR 222300Z 2300/2324 30007KT 4000 BR BKN020"
    },
    {
      "icao": "LIPX",
      "alert": "OK",
      "vis_m": 9999,
      "fzfg": false,
      "metar_trigger": false,
      "taf_trigger": false,
      "metar": "METAR LIPX 230350Z 01003KT 9999 BKN080 07/05 Q1012",
      "taf": "TAF LIPX 222300Z 2300/2324 VRB05KT 8000 SCT050"
    },
    {
      "icao": "LIPY",
      "alert": "OK",
      "vis_m": 150,
      "fzfg": false,
      "metar_trigger": false,
      "taf_trigger": false,
      "metar": "METAR LIPY 230350Z AUTO VRB01KT 0150 R22/0700N FG OVC002/// 10/10 Q1011",
      "taf": "TAF LIPY 222300Z 2300/2324 VRB05KT 6000 BKN030"
    },
    {
      "icao": "LIPZ",
      "alert": "OK",
      "vis_m": 9999,
      "fzfg": false,
      "metar_trigger": false,
      "taf_trigger": false,
      "metar": "METAR LIPZ 230350Z 04007KT 9999 FEW050 SCT070 06/04 Q1013 NOSIG",
      "taf": "TAF LIPZ 222300Z 2300/2406 03007KT 9999 SCT050"
    },
    {
      "icao": "LIRF",
      "alert": "OK",
      "vis_m": 9999,
      "fzfg": false,
      "metar_trigger": false,
      "taf_trigger": false,
      "metar": "METAR LIRF 230350Z 10013KT 9999 +RA FEW015 SCT040 13/13 Q1008 NOSIG",
      "taf": "TAF LIRF 222300Z 2300/2406 12015KT 9999 BKN030"
    },
    {
      "icao": "LIRN",
      "alert": "OK",
      "vis_m": 9999,
      "fzfg": false,
      "metar_trigger": false,
      "taf_trigger": false,
      "metar": "METAR LIRN 230350Z VRB02KT 9999 SCT060 11/09 Q1010 NOSIG",
      "taf": "TAF LIRN 222300Z 2300/2324 05005KT 9999 SCT040"
    },
    {
      "icao": "LIRP",
      "alert": "OK",
      "vis_m": 9999,
      "fzfg": false,
      "metar_trigger": false,
      "taf_trigger": false,
      "metar": "METAR LIRP 230345Z 08011KT 9999 FEW040 BKN060 12/10 Q1009 NOSIG",
      "taf": "TAF LIRP 222300Z 2300/2324 12012KT 9999 SCT040 BKN050"
    },
    {
      "icao": "LIRZ",
      "alert": "OK",
      "vis_m": 5000,
      "fzfg": false,
      "metar_trigger": false,
      "taf_trigger": false,
      "metar": "METAR LIRZ 230350Z AUTO VRB01KT 5000 BR BKN056/// 07/07 Q1010",
      "taf": "TAF LIRZ 222300Z 2300/2324 VRB05KT 9999 SCT040"
    },
    {
      "icao": "LJLJ",
      "alert": "OK",
      "vis_m": 5000,
      "fzfg": false,
      "metar_trigger": false,
      "taf_trigger": false,
      "metar": "METAR LJLJ 230400Z COR VRB01KT 5000 -RA BR SCT002 BKN010 OVC025 02/01 Q1015 NOSIG",
      "taf": "TAF LJLJ 222300Z 2300/2400 VRB02KT 8000 OVC010"
    },
    {
      "icao": "LKMT",
      "alert": "OK",
      "vis_m": 6000,
      "fzfg": false,
      "metar_trigger": false,
      "taf_trigger": false,
      "metar": "METAR LKMT 230400Z 08003KT 6000 BKN007 OVC014 02/01 Q1018 NOSIG",
      "taf": "TAF LKMT 222300Z 2300/2324 03008KT 4500 BR OVC005"
    },
    {
      "icao": "LKPR",
      "alert": "OK",
      "vis_m": 9999,
      "fzfg": false,
      "metar_trigger": false,
      "taf_trigger": false,
      "metar": "METAR LKPR 230400Z 09011KT 9999 FEW004 BKN006 BKN009 02/01 Q1015 NOSIG",
      "taf": "TAF LKPR 230200Z 2303/2409 09009KT 9999 -DZ BKN004 OVC008"
    },
    {
      "icao": "LLBG",
      "alert": "OK",
      "vis_m": 9999,
      "fzfg": false,
      "metar_trigger": false,
      "taf_trigger": false,
      "metar": "METAR LLBG 230350Z VRB02KT 9999 SCT035 12/06 Q1014 NOSIG",
      "taf": "TAF LLBG 222310Z 2300/2324 VRB04KT CAVOK"
    },
    {
      "icao": "LMML",
      "alert": "OK",
      "vis_m": 9999,
      "fzfg": false,
      "metar_trigger": false,
      "taf_trigger": false,
      "metar": "METAR LMML 230345Z 20006KT 170V230 9999 FEW025 SCT045 15/11 Q1011 NOSIG",
      "taf": "TAF LMML 222300Z 2300/2324 19008KT 9999 FEW019"
    },
    {
      "icao": "LOWW",
      "alert": "OK",
      "vis_m": 6000,
      "fzfg": false,
      "metar_trigger": false,
      "taf_trigger": false,
      "metar": "METAR LOWW 230350Z 14016KT 6000 -DZ SCT005 BKN007 03/03 Q1015 TEMPO BKN005",
      "taf": "TAF LOWW 230215Z 2303/2409 14013KT 8000 BKN008 TX03/2304Z TN00/2407Z"
    },
    {
      "icao": "LPFR",
      "alert": "OK",
      "vis_m": 9999,
      "fzfg": false,
      "metar_trigger": false,
      "taf_trigger": false,
      "metar": "METAR LPFR 230400Z 29003KT 260V320 9999 VCSH FEW015 FEW020CB 11/10 Q1015",
      "taf": "TAF LPFR 222300Z 2300/2324 VRB02KT 9999 SCT020"
    },
    {
      "icao": "LPMA",
      "alert": "OK",
      "vis_m": 9999,
      "fzfg": false,
      "metar_trigger": false,
      "taf_trigger": false,
      "metar": "METAR LPMA 230400Z 34009KT 9999 FEW015 16/09 Q1022",
      "taf": "TAF LPMA 222300Z 2300/2324 33010KT 9999 SCT015"
    },
    {
      "icao": "LPPR",
      "alert": "OK",
      "vis_m": 9999,
      "fzfg": false,
      "metar_trigger": false,
      "taf_trigger": false,
      "metar": "METAR LPPR 230400Z VRB04KT 9999 SCT006 BKN014 BKN020 11/10 Q1009 RERA",
      "taf": "TAF LPPR 222300Z 2300/2324 13007KT 9999 FEW015 BKN030"
    },
    {
      "icao": "LPPS",
      "alert": "OK",
      "vis_m": 9999,
      "fzfg": false,
      "metar_trigger": false,
      "taf_trigger": false,
      "metar": "METAR LPPS 230400Z 31007KT 9999 SCT015 SCT030 16/10 Q1022",
      "taf": "TAF LPPS 222300Z 2300/2406 33007KT 9999 SCT015 SCT030"
    },
    {
      "icao": "LPPT",
      "alert": "OK",
      "vis_m": 9999,
      "fzfg": false,
      "metar_trigger": false,
      "taf_trigger": false,
      "metar": "METAR LPPT 230400Z 25007KT 9999 FEW010 12/11 Q1012",
      "taf": "TAF LPPT 222300Z 2300/2406 26005KT 9999 SCT025"
    },
    {
      "icao": "LQBK",
      "alert": "OK",
      "vis_m": 9999,
      "fzfg": false,
      "metar_trigger": false,
      "taf_trigger": false,
      "metar": "METAR LQBK 230400Z VRB02KT 9999 OVC012 04/02 Q1017 NOSIG",
      "taf": "TAF LQBK 222300Z 2300/2324 16005KT 8000 OVC015 TX05/2313Z TN01/2305Z"
    },
    {
      "icao": "LQSA",
      "alert": "OK",
      "vis_m": 8000,
      "fzfg": false,
      "metar_trigger": false,
      "taf_trigger": false,
      "metar": "METAR LQSA 230400Z 14004KT 8000 OVC006 00/M00 Q1017",
      "taf": ""
    },
    {
      "icao": "LQTZ",
      "alert": "OK",
      "vis_m": 9999,
      "fzfg": false,
      "metar_trigger": false,
      "taf_trigger": false,
      "metar": "METAR LQTZ 230400Z VRB01KT 9999 OVC012 01/00 Q1017",
      "taf": ""
    },
    {
      "icao": "LRBC",
      "alert": "OK",
      "vis_m": 9999,
      "fzfg": false,
      "metar_trigger": false,
      "taf_trigger": false,
      "metar": "METAR LRBC 230400Z 15008KT 9999 SCT013 OVC034 03/02 Q1020",
      "taf": "TAF LRBC 230200Z 2303/2312 15007KT 7000 OVC030"
    },
    {
      "icao": "LRBS",
      "alert": "OK",
      "vis_m": 9999,
      "fzfg": false,
      "metar_trigger": false,
      "taf_trigger": false,
      "metar": "METAR LRBS 230400Z 08006KT 9999 OVC002 01/00 Q1022 NOSIG",
      "taf": "TAF LRBS 222300Z 2300/2324 07008KT 9999 OVC010"
    },
    {
      "icao": "LRBV",
      "alert": "OK",
      "vis_m": 350,
      "fzfg": true,
      "metar_trigger": false,
      "taf_trigger": false,
      "metar": "METAR LRBV 230400Z AUTO 22003KT 0350 R21/0400N SG VV001 M03/M03 Q1018 RESHUP",
      "taf": "TAF LRBV 230200Z 2303/2312 VRB04KT 0300 FZFG VV001"
    },
    {
      "icao": "LRCL",
      "alert": "OK",
      "vis_m": 9999,
      "fzfg": false,
      "metar_trigger": false,
      "taf_trigger": false,
      "metar": "METAR LRCL 230400Z 09005KT 070V130 9999 OVC005 01/M00 Q1019",
      "taf": "TAF LRCL 230200Z 2303/2312 VRB04KT 9999 OVC010"
    },
    {
      "icao": "LRCV",
      "alert": "OK",
      "vis_m": 400,
      "fzfg": false,
      "metar_trigger": false,
      "taf_trigger": false,
      "metar": "METAR LRCV 230400Z 10006KT 0400 R26/0650U FG VV001 03/03 Q1020",
      "taf": "TAF LRCV 230200Z 2303/2312 10008KT 0800 FG OVC002"
    },
    {
      "icao": "LRIA",
      "alert": "OK",
      "vis_m": 9999,
      "fzfg": false,
      "metar_trigger": false,
      "taf_trigger": false,
      "metar": "METAR LRIA 230400Z 10009KT 9999 OVC014 01/M00 Q1021",
      "taf": "TAF LRIA 230200Z 2303/2312 VRB04KT 9999 OVC020"
    },
    {
      "icao": "LROP",
      "alert": "OK",
      "vis_m": 1500,
      "fzfg": false,
      "metar_trigger": false,
      "taf_trigger": false,
      "metar": "METAR LROP 230400Z 10006KT 1500 BR OVC001 01/01 Q1022 NOSIG",
      "taf": "TAF LROP 222300Z 2300/2324 08008KT 9999 OVC010"
    },
    {
      "icao": "LRSB",
      "alert": "OK",
      "vis_m": 400,
      "fzfg": true,
      "metar_trigger": false,
      "taf_trigger": false,
      "metar": "METAR LRSB 230400Z 24004KT 0400 R27/1100N FZFG VV002 M01/M01 Q1018",
      "taf": "TAF LRSB 222300Z 2300/2324 VRB04KT 0350 FZFG VV001"
    },
    {
      "icao": "LRSM",
      "alert": "OK",
      "vis_m": 9999,
      "fzfg": false,
      "metar_trigger": false,
      "taf_trigger": false,
      "metar": "METAR LRSM 230400Z AUTO VRB02KT 9999 OVC025/// 04/02 Q1019",
      "taf": "TAF LRSM 230200Z 2303/2312 VRB04KT 9999 OVC020"
    },
    {
      "icao": "LRSV",
      "alert": "CRITICAL",
      "vis_m": 100,
      "fzfg": true,
      "metar_trigger": true,
      "taf_trigger": false,
      "metar": "METAR LRSV 230400Z 09008KT 0100 R34/0375N FZFG VV001 M00/M00 Q1019",
      "taf": "TAF LRSV 230200Z 2303/2312 09006KT 0100 FG VV001"
    },
    {
      "icao": "LRTM",
      "alert": "OK",
      "vis_m": 9999,
      "fzfg": false,
      "metar_trigger": false,
      "taf_trigger": false,
      "metar": "METAR LRTM 230400Z AUTO 16004KT 9999 BKN003/// OVC005/// M00/M01 Q1020",
      "taf": "TAF LRTM 230200Z 2303/2312 VRB04KT 9999 OVC010"
    },
    {
      "icao": "LRTR",
      "alert": "OK",
      "vis_m": 2000,
      "fzfg": false,
      "metar_trigger": false,
      "taf_trigger": false,
      "metar": "METAR LRTR 230400Z 08007KT 2000 BR BKN002 OVC003 02/02 Q1019",
      "taf": "TAF LRTR 222300Z 2300/2324 09006KT 5000 BR OVC005"
    },
    {
      "icao": "LTAC",
      "alert": "OK",
      "vis_m": 9000,
      "fzfg": false,
      "metar_trigger": false,
      "taf_trigger": false,
      "metar": "METAR LTAC 230350Z 04008KT 9000 -RA SCT015 BKN021 BKN080 03/02 Q1015 NOSIG RMK RWY21C 02007KT RWY03L 04008KT RWY21R 02007KT RWY03R 02007KT RWY21L 02007KT",
      "taf": "TAF LTAC 222240Z 2300/2324 VRB02KT 7000 SCT035 BKN090"
    },
    {
      "icao": "LTFM",
      "alert": "OK",
      "vis_m": 9999,
      "fzfg": false,
      "metar_trigger": false,
      "taf_trigger": false,
      "metar": "METAR LTFM 230350Z 03016KT 9999 -SHRA SCT012 FEW017TCU BKN022 10/08 Q1018 RESHRA NOSIG RMK RWY17L 02017KT RWY34L 02014KT RWY16R 03014KT RWY36 02016KT RWY18 03014KT",
      "taf": "TAF LTFM 222240Z 2300/2406 03014KT 9999 SCT012 BKN022"
    },
    {
      "icao": "LUKK",
      "alert": "OK",
      "vis_m": 9999,
      "fzfg": false,
      "metar_trigger": false,
      "taf_trigger": false,
      "metar": "METAR LUKK 230400Z 20003KT 9999 BKN027 OVC042 01/M02 Q1022 NOSIG",
      "taf": "TAF LUKK 230115Z 2301/2324 VRB05KT 9999 OVC015"
    },
    {
      "icao": "LWOH",
      "alert": "OK",
      "vis_m": null,
      "fzfg": false,
      "metar_trigger": false,
      "taf_trigger": false,
      "metar": "",
      "taf": "TAF LWOH 230225Z 2303/2403 VRB02KT 9999 SCT045"
    },
    {
      "icao": "LWSK",
      "alert": "OK",
      "vis_m": 250,
      "fzfg": false,
      "metar_trigger": false,
      "taf_trigger": false,
      "metar": "METAR LWSK 230320Z VRB02KT 0250 R34/0800N FG VV001 02/01 Q1019 NOSIG",
      "taf": "TAF LWSK 230225Z 2303/2403 VRB02KT 0350 FG VV002"
    },
    {
      "icao": "LYBE",
      "alert": "OK",
      "vis_m": 9999,
      "fzfg": false,
      "metar_trigger": false,
      "taf_trigger": false,
      "metar": "METAR LYBE 230400Z 14006KT 9999 BKN021 05/02 Q1017 NOSIG",
      "taf": "TAF LYBE 222300Z 2300/2324 12005KT 9999 BKN023 TX09/2313Z TN02/2306Z"
    },
    {
      "icao": "LYNI",
      "alert": "OK",
      "vis_m": 9999,
      "fzfg": false,
      "metar_trigger": false,
      "taf_trigger": false,
      "metar": "METAR LYNI 230400Z 10003KT 9999 OVC007 02/01 Q1019 NOSIG",
      "taf": "TAF LYNI 222300Z 2300/2324 07005KT 9999 BKN015 TX09/2312Z TNM01/2306Z"
    },
    {
      "icao": "LYPG",
      "alert": "OK",
      "vis_m": 8000,
      "fzfg": false,
      "metar_trigger": false,
      "taf_trigger": false,
      "metar": "METAR LYPG 230400Z VRB02KT 8000 NSC 01/00 Q1017 NOSIG",
      "taf": "TAF LYPG 222300Z 2300/2324 35005KT 9999 FEW040 SCT080 TX11/2313Z TN02/2305Z"
    },
    {
      "icao": "LZIB",
      "alert": "OK",
      "vis_m": 4500,
      "fzfg": false,
      "metar_trigger": false,
      "taf_trigger": false,
      "metar": "METAR LZIB 230400Z 10009KT 4500 -DZ BR BKN006 OVC012 03/02 Q1017 NOSIG",
      "taf": "TAF LZIB 222315Z 2300/2400 12013KT 9999 SCT005 OVC015"
    },
    {
      "icao": "LZKZ",
      "alert": "OK",
      "vis_m": 5000,
      "fzfg": false,
      "metar_trigger": false,
      "taf_trigger": false,
      "metar": "METAR LZKZ 230400Z 15003KT 5000 BR OVC024 04/04 Q1018 NOSIG",
      "taf": "TAF LZKZ 222315Z 2300/2400 21006KT 5000 BR BKN016"
    },
    {
      "icao": "LZTT",
      "alert": "OK",
      "vis_m": 9999,
      "fzfg": false,
      "metar_trigger": false,
      "taf_trigger": false,
      "metar": "METAR LZTT 230400Z VRB01KT 9999 FEW003 OVC008 01/00 Q1016",
      "taf": "TAF LZTT 222315Z 2300/2400 10005KT 5000 BR OVC004"
    },
    {
      "icao": "OEJN",
      "alert": "OK",
      "vis_m": 6000,
      "fzfg": false,
      "metar_trigger": false,
      "taf_trigger": false,
      "metar": "METAR OEJN 230400Z 14002KT 6000 NSC 24/22 Q1012 NOSIG",
      "taf": "TAF OEJN 222300Z 2300/2406 VRB03KT 9999 FEW040"
    },
    {
      "icao": "OEMA",
      "alert": "OK",
      "vis_m": 9000,
      "fzfg": false,
      "metar_trigger": false,
      "taf_trigger": false,
      "metar": "METAR OEMA 230400Z 32002KT 9000 FEW045 15/01 Q1018 NOSIG",
      "taf": "TAF OEMA 222300Z 2300/2406 12005KT 9999 FEW040"
    },
    {
      "icao": "OJAI",
      "alert": "OK",
      "vis_m": 4000,
      "fzfg": false,
      "metar_trigger": false,
      "taf_trigger": false,
      "metar": "METAR OJAI 230400Z 05004KT 4000 HZ NSC 04/01 Q1016 NOSIG",
      "taf": "TAF OJAI 222250Z 2300/2406 VRB01KT 5000 HZ NSC"
    },
    {
      "icao": "OMAA",
      "alert": "OK",
      "vis_m": 9999,
      "fzfg": false,
      "metar_trigger": false,
      "taf_trigger": false,
      "metar": "METAR OMAA 230400Z 10004KT CAVOK 16/10 Q1020 NOSIG",
      "taf": "TAF OMAA 222300Z 2300/2406 05005KT 8000 NSC"
    },
    {
      "icao": "OMDB",
      "alert": "OK",
      "vis_m": 9999,
      "fzfg": false,
      "metar_trigger": false,
      "taf_trigger": false,
      "metar": "METAR OMDB 230400Z 08004KT 010V110 CAVOK 18/11 Q1020 NOSIG",
      "taf": "TAF OMDB 222300Z 2300/2406 12005KT CAVOK"
    },
    {
      "icao": "UAAA",
      "alert": "OK",
      "vis_m": 5000,
      "fzfg": false,
      "metar_trigger": false,
      "taf_trigger": false,
      "metar": "METAR UAAA 230400Z VRB01MPS 5000 BR BKN011 OVC018 M04/M05 Q1027 NOSIG",
      "taf": "TAF UAAA 222305Z 2300/2324 04003MPS 1200 BR BKN011 OVC030 TXM01/2308Z TNM06/2301Z"
    },
    {
      "icao": "UBBB",
      "alert": "OK",
      "vis_m": 8000,
      "fzfg": false,
      "metar_trigger": false,
      "taf_trigger": false,
      "metar": "METAR UBBB 230400Z 27004KT 8000 FEW022 04/03 Q1021 NOSIG",
      "taf": "TAF UBBB 222301Z 2300/2324 30006KT 8000 SCT012 TX11/2310Z TN04/2300Z"
    },
    {
      "icao": "UDSG",
      "alert": "OK",
      "vis_m": 5000,
      "fzfg": false,
      "metar_trigger": false,
      "taf_trigger": false,
      "metar": "METAR UDSG 230400Z 36003KT 5000 BR FEW049 M07/M08 Q1022 NOSIG",
      "taf": "TAF UDSG 222258Z 2300/2324 VRB06KT 5000 BR SCT050"
    },
    {
      "icao": "UDYZ",
      "alert": "OK",
      "vis_m": 3200,
      "fzfg": false,
      "metar_trigger": false,
      "taf_trigger": false,
      "metar": "METAR UDYZ 230400Z 00000KT 3200 BR NSC M07/M08 Q1023 NOSIG",
      "taf": "TAF UDYZ 222300Z 2300/2324 VRB04KT 2300 BR FEW040"
    },
    {
      "icao": "UGKO",
      "alert": "OK",
      "vis_m": 9999,
      "fzfg": false,
      "metar_trigger": false,
      "taf_trigger": false,
      "metar": "METAR UGKO 230400Z AUTO 10003KT 060V130 CAVOK 06/02 Q1019 NOSIG",
      "taf": "TAF UGKO 222300Z 2300/2324 08007KT 9999 BKN080 TX16/2312Z TN05/2303Z"
    }
  ]
}