{
  "ts_utc": "2026-04-03T11:00:23Z",
  "threshold_m": 150,
  "source": "stations_override.txt (ICAO list) + aviationweather.gov (METAR/TAF raw)",
  "station_count": 159,
  "stations": [
    {
      "icao": "BIKF",
      "alert": "OK",
      "vis_m": 9999,
      "fzfg": false,
      "metar_trigger": false,
      "taf_trigger": false,
      "metar": "METAR BIKF 031030Z 10013KT 9999 VCSH FEW015CB SCT120 M01/M03 Q0993",
      "taf": "TAF BIKF 031040Z 0312/0412 11012KT 9999 FEW015CB BKN030 TX03/0316Z TNM02/0406Z"
    },
    {
      "icao": "BKPR",
      "alert": "OK",
      "vis_m": null,
      "fzfg": false,
      "metar_trigger": false,
      "taf_trigger": false,
      "metar": "",
      "taf": "TAF BKPR 030530Z 0306/0406 30005KT 9999 SCT015 BKN030"
    },
    {
      "icao": "EBCI",
      "alert": "OK",
      "vis_m": 9999,
      "fzfg": false,
      "metar_trigger": false,
      "taf_trigger": false,
      "metar": "METAR EBCI 031050Z 22013KT 9999 SCT048 09/03 Q1017 NOSIG",
      "taf": "TAF EBCI 030504Z 0306/0412 21012KT 9999 FEW020"
    },
    {
      "icao": "EDDB",
      "alert": "OK",
      "vis_m": 9999,
      "fzfg": false,
      "metar_trigger": false,
      "taf_trigger": false,
      "metar": "METAR EDDB 031050Z AUTO 26011KT 9999 OVC038 08/M00 Q1017 NOSIG",
      "taf": "TAF EDDB 030500Z 0306/0406 30010KT CAVOK"
    },
    {
      "icao": "EDDH",
      "alert": "OK",
      "vis_m": 9999,
      "fzfg": false,
      "metar_trigger": false,
      "taf_trigger": false,
      "metar": "METAR EDDH 031050Z AUTO 23010KT CAVOK 08/M00 Q1015 NOSIG",
      "taf": "TAF EDDH 030500Z 0306/0412 26004KT 9999 BKN035"
    },
    {
      "icao": "EDDK",
      "alert": "OK",
      "vis_m": 9999,
      "fzfg": false,
      "metar_trigger": false,
      "taf_trigger": false,
      "metar": "METAR EDDK 031050Z AUTO 17010KT 140V230 9999 FEW029 10/03 Q1017 NOSIG",
      "taf": "TAF EDDK 030500Z 0306/0412 VRB02KT 9999 SCT030"
    },
    {
      "icao": "EDDN",
      "alert": "OK",
      "vis_m": 9999,
      "fzfg": false,
      "metar_trigger": false,
      "taf_trigger": false,
      "metar": "METAR EDDN 031050Z AUTO 26005KT 210V300 9999 FEW026 11/04 Q1018 NOSIG",
      "taf": "TAF EDDN 030500Z 0306/0406 14004KT 9999 BKN030"
    },
    {
      "icao": "EDDS",
      "alert": "OK",
      "vis_m": 9999,
      "fzfg": false,
      "metar_trigger": false,
      "taf_trigger": false,
      "metar": "METAR EDDS 031050Z AUTO 27009KT 220V290 9999 BKN043 11/02 Q1018 NOSIG",
      "taf": "TAF EDDS 030500Z 0306/0406 VRB03KT CAVOK"
    },
    {
      "icao": "EDFH",
      "alert": "OK",
      "vis_m": 9999,
      "fzfg": false,
      "metar_trigger": false,
      "taf_trigger": false,
      "metar": "METAR EDFH 031050Z 27008KT 200V310 9999 FEW023 07/00 Q1017",
      "taf": "TAF EDFH 030500Z 0306/0406 27004KT 9999 BKN015"
    },
    {
      "icao": "EDJA",
      "alert": "OK",
      "vis_m": 9999,
      "fzfg": false,
      "metar_trigger": false,
      "taf_trigger": false,
      "metar": "METAR EDJA 031050Z 28007KT 220V310 9999 BKN051 11/M00 Q1018",
      "taf": "TAF EDJA 030800Z 0309/0318 24008KT CAVOK"
    },
    {
      "icao": "EDLW",
      "alert": "OK",
      "vis_m": 9999,
      "fzfg": false,
      "metar_trigger": false,
      "taf_trigger": false,
      "metar": "METAR EDLW 031050Z 19011KT CAVOK 08/02 Q1016",
      "taf": "TAF EDLW 030500Z 0306/0406 20005KT 9999 SCT030"
    },
    {
      "icao": "EDNY",
      "alert": "OK",
      "vis_m": 9999,
      "fzfg": false,
      "metar_trigger": false,
      "taf_trigger": false,
      "metar": "METAR EDNY 031050Z 23006KT CAVOK 10/02 Q1020",
      "taf": "TAF EDNY 030800Z 0309/0318 VRB03KT CAVOK"
    },
    {
      "icao": "EDSB",
      "alert": "OK",
      "vis_m": 9999,
      "fzfg": false,
      "metar_trigger": false,
      "taf_trigger": false,
      "metar": "METAR EDSB 031050Z 24006KT 210V290 9999 BKN028 12/05 Q1020",
      "taf": "TAF EDSB 030500Z 0306/0406 21004KT CAVOK"
    },
    {
      "icao": "EETN",
      "alert": "OK",
      "vis_m": 9999,
      "fzfg": false,
      "metar_trigger": false,
      "taf_trigger": false,
      "metar": "METAR EETN 031050Z 22006KT 9999 -RA OVC005 06/05 Q1007 NOSIG",
      "taf": "TAF EETN 030530Z 0306/0406 23008KT 9999 OVC008"
    },
    {
      "icao": "EFTU",
      "alert": "OK",
      "vis_m": 9999,
      "fzfg": false,
      "metar_trigger": false,
      "taf_trigger": false,
      "metar": "METAR EFTU 031050Z AUTO 06005KT 010V100 CAVOK 07/M02 Q1006",
      "taf": "TAF EFTU 030826Z 0309/0409 04004KT CAVOK"
    },
    {
      "icao": "EGBB",
      "alert": "OK",
      "vis_m": 9999,
      "fzfg": false,
      "metar_trigger": false,
      "taf_trigger": false,
      "metar": "METAR EGBB 031050Z 22010KT 9999 BKN014 13/10 Q1006",
      "taf": ""
    },
    {
      "icao": "EGGP",
      "alert": "OK",
      "vis_m": 9999,
      "fzfg": false,
      "metar_trigger": false,
      "taf_trigger": false,
      "metar": "METAR EGGP 031050Z 22012KT 180V240 9999 SCT022 BKN026 14/10 Q1003",
      "taf": "TAF EGGP 030455Z 0306/0406 18012KT 9999 FEW015 SCT030"
    },
    {
      "icao": "EGGW",
      "alert": "OK",
      "vis_m": 9999,
      "fzfg": false,
      "metar_trigger": false,
      "taf_trigger": false,
      "metar": "METAR EGGW 031050Z AUTO 21012KT 9999 OVC010 11/10 Q1009",
      "taf": "TAF EGGW 030457Z 0306/0406 20013KT 9999 BKN008"
    },
    {
      "icao": "EGKK",
      "alert": "OK",
      "vis_m": 4500,
      "fzfg": false,
      "metar_trigger": false,
      "taf_trigger": false,
      "metar": "METAR EGKK 031050Z 22011KT 4500 -RADZ BKN005 11/11 Q1011",
      "taf": ""
    },
    {
      "icao": "EGNM",
      "alert": "OK",
      "vis_m": 9999,
      "fzfg": false,
      "metar_trigger": false,
      "taf_trigger": false,
      "metar": "METAR EGNM 031050Z 22019G32KT 190V250 9999 VCSH SCT010 SCT014 13/09 Q1001",
      "taf": "TAF EGNM 030456Z 0306/0406 20012KT 9999 FEW015 SCT030"
    },
    {
      "icao": "EGPD",
      "alert": "OK",
      "vis_m": 9999,
      "fzfg": false,
      "metar_trigger": false,
      "taf_trigger": false,
      "metar": "METAR EGPD 031050Z COR AUTO 28008KT 9999 NCD 08/02 Q0996 NOSIG",
      "taf": "TAF EGPD 030455Z 0306/0406 17015G26KT 9999 BKN030"
    },
    {
      "icao": "EGPF",
      "alert": "OK",
      "vis_m": 9999,
      "fzfg": false,
      "metar_trigger": false,
      "taf_trigger": false,
      "metar": "METAR EGPF 031050Z AUTO 26005KT 220V300 9999 -RA SCT026/// BKN034/// //////TCU 08/05 Q0999",
      "taf": "TAF EGPF 030453Z 0306/0406 25012KT 9999 SCT020"
    },
    {
      "icao": "EHBK",
      "alert": "OK",
      "vis_m": 9999,
      "fzfg": false,
      "metar_trigger": false,
      "taf_trigger": false,
      "metar": "METAR EHBK 031055Z AUTO 22016KT 190V250 9999 FEW026 09/03 Q1016 NOSIG",
      "taf": "TAF EHBK 030512Z 0306/0412 22007KT CAVOK"
    },
    {
      "icao": "EHEH",
      "alert": "OK",
      "vis_m": 9999,
      "fzfg": false,
      "metar_trigger": false,
      "taf_trigger": false,
      "metar": "METAR EHEH 031025Z AUTO 21013KT 180V240 9999 OVC089 10/03 Q1016 BLU NOSIG RMK TREND REMOTE BY EHWX",
      "taf": "TAF EHEH 030505Z 0306/0412 20003KT CAVOK"
    },
    {
      "icao": "EKBI",
      "alert": "OK",
      "vis_m": 9999,
      "fzfg": false,
      "metar_trigger": false,
      "taf_trigger": false,
      "metar": "METAR EKBI 031050Z AUTO 21009KT 180V270 9999 FEW034/// BKN092/// 08/M01 Q1011",
      "taf": "TAF EKBI 030827Z 0309/0409 24010KT 9999 BKN030"
    },
    {
      "icao": "EKCH",
      "alert": "OK",
      "vis_m": 9999,
      "fzfg": false,
      "metar_trigger": false,
      "taf_trigger": false,
      "metar": "METAR EKCH 031050Z AUTO 26016KT 9999 OVC030/// 06/M01 Q1013 NOSIG",
      "taf": "TAF EKCH 030827Z 0309/0409 26014KT 9999 BKN025"
    },
    {
      "icao": "ENAL",
      "alert": "OK",
      "vis_m": 9999,
      "fzfg": false,
      "metar_trigger": false,
      "taf_trigger": false,
      "metar": "METAR ENAL 031050Z 13014KT CAVOK 04/M06 Q1002",
      "taf": "TAF ENAL 030800Z 0309/0318 13009KT CAVOK"
    },
    {
      "icao": "ENBR",
      "alert": "OK",
      "vis_m": 9999,
      "fzfg": false,
      "metar_trigger": false,
      "taf_trigger": false,
      "metar": "METAR ENBR 031050Z 13015KT 9999 SCT049 05/M03 Q1002 TEMPO 15018G28KT RMK WIND 1200FT 14029KT",
      "taf": "TAF ENBR 030500Z 0306/0406 13008KT 9999 SCT030"
    },
    {
      "icao": "ENGM",
      "alert": "OK",
      "vis_m": 9999,
      "fzfg": false,
      "metar_trigger": false,
      "taf_trigger": false,
      "metar": "METAR ENGM 031050Z 02004KT 350V060 9999 BKN019 01/M03 Q1008 NOSIG",
      "taf": "TAF ENGM 030500Z 0306/0406 01010KT 9999 BKN030"
    },
    {
      "icao": "ENHD",
      "alert": "OK",
      "vis_m": 9999,
      "fzfg": false,
      "metar_trigger": false,
      "taf_trigger": false,
      "metar": "METAR ENHD 031050Z AUTO 15017KT 120V180 9999 -RA OVC028/// 04/01 Q1003",
      "taf": "TAF ENHD 030800Z 0309/0318 15015KT 9999 -RA FEW015 BKN025"
    },
    {
      "icao": "ENTC",
      "alert": "OK",
      "vis_m": 4200,
      "fzfg": false,
      "metar_trigger": false,
      "taf_trigger": false,
      "metar": "METAR ENTC 031050Z 28009KT 4200 -SHSN FEW009 BKN022 01/M01 Q1008 TEMPO 2500 -SHSN BKN009 SCT020CB RMK WIND 2600FT 30021KT",
      "taf": "TAF ENTC 030500Z 0306/0406 18008KT 9999 FEW020 BKN025"
    },
    {
      "icao": "ENTO",
      "alert": "OK",
      "vis_m": 9999,
      "fzfg": false,
      "metar_trigger": false,
      "taf_trigger": false,
      "metar": "METAR ENTO 031050Z 02005KT 340V060 9999 OVC016 03/M00 Q1009 NOSIG",
      "taf": ""
    },
    {
      "icao": "ENVA",
      "alert": "OK",
      "vis_m": 9999,
      "fzfg": false,
      "metar_trigger": false,
      "taf_trigger": false,
      "metar": "METAR ENVA 031050Z 10008KT 070V150 CAVOK 06/M06 Q1007 NOSIG RMK WIND 670FT 16014KT",
      "taf": "TAF ENVA 030500Z 0306/0406 10005KT 9999 FEW020"
    },
    {
      "icao": "ENZV",
      "alert": "OK",
      "vis_m": 9999,
      "fzfg": false,
      "metar_trigger": false,
      "taf_trigger": false,
      "metar": "METAR ENZV 031050Z 14023KT 9999 -DZ FEW028 BKN045 05/M01 Q1004 RERA TEMPO 15025G35KT",
      "taf": "TAF ENZV 030500Z 0306/0406 15008KT 9999 BKN040"
    },
    {
      "icao": "EPGD",
      "alert": "OK",
      "vis_m": 9999,
      "fzfg": false,
      "metar_trigger": false,
      "taf_trigger": false,
      "metar": "METAR EPGD 031030Z 28016KT 9999 BKN025 06/M01 Q1012",
      "taf": "TAF EPGD 030530Z 0306/0406 VRB02KT CAVOK"
    },
    {
      "icao": "EPKK",
      "alert": "OK",
      "vis_m": 9999,
      "fzfg": false,
      "metar_trigger": false,
      "taf_trigger": false,
      "metar": "METAR EPKK 031030Z 34007KT 290V020 9999 FEW063 13/M03 Q1014",
      "taf": "TAF EPKK 030830Z 0309/0409 24002KT CAVOK"
    },
    {
      "icao": "EPKT",
      "alert": "OK",
      "vis_m": 9999,
      "fzfg": false,
      "metar_trigger": false,
      "taf_trigger": false,
      "metar": "METAR EPKT 031030Z 31011KT CAVOK 11/M02 Q1014",
      "taf": "TAF EPKT 030530Z 0306/0406 20002KT CAVOK"
    },
    {
      "icao": "EPLB",
      "alert": "OK",
      "vis_m": 9999,
      "fzfg": false,
      "metar_trigger": false,
      "taf_trigger": false,
      "metar": "METAR EPLB 031030Z 30010KT 260V320 CAVOK 14/M02 Q1012",
      "taf": "TAF EPLB 030530Z 0306/0406 31007KT CAVOK"
    },
    {
      "icao": "EPMO",
      "alert": "OK",
      "vis_m": 9999,
      "fzfg": false,
      "metar_trigger": false,
      "taf_trigger": false,
      "metar": "METAR EPMO 031030Z 26012KT 9999 SCT049 12/01 Q1012",
      "taf": "TAF EPMO 030530Z 0306/0406 VRB03KT CAVOK"
    },
    {
      "icao": "EPPO",
      "alert": "OK",
      "vis_m": 9999,
      "fzfg": false,
      "metar_trigger": false,
      "taf_trigger": false,
      "metar": "METAR EPPO 031030Z 27011KT 9999 BKN025 10/02 Q1015",
      "taf": "TAF EPPO 030530Z 0306/0406 23004KT CAVOK"
    },
    {
      "icao": "EPRA",
      "alert": "OK",
      "vis_m": 9999,
      "fzfg": false,
      "metar_trigger": false,
      "taf_trigger": false,
      "metar": "METAR EPRA 031030Z 29011KT CAVOK 13/M02 Q1013",
      "taf": "TAF EPRA 030830Z 0309/0318 31012KT CAVOK"
    },
    {
      "icao": "EPRZ",
      "alert": "OK",
      "vis_m": 9999,
      "fzfg": false,
      "metar_trigger": false,
      "taf_trigger": false,
      "metar": "METAR EPRZ 031030Z VRB06KT CAVOK 14/M02 Q1012",
      "taf": "TAF EPRZ 030530Z 0306/0406 26006KT CAVOK"
    },
    {
      "icao": "EPSC",
      "alert": "OK",
      "vis_m": 9999,
      "fzfg": false,
      "metar_trigger": false,
      "taf_trigger": false,
      "metar": "METAR EPSC 031030Z 26011KT 220V300 9999 OVC031 05/M02 Q1015",
      "taf": "TAF EPSC 030530Z 0306/0406 29012KT 9999 SCT030"
    },
    {
      "icao": "EPSY",
      "alert": "OK",
      "vis_m": 9999,
      "fzfg": false,
      "metar_trigger": false,
      "taf_trigger": false,
      "metar": "METAR EPSY 031030Z 27008KT 220V310 CAVOK 12/M02 Q1011",
      "taf": "TAF EPSY 030830Z 0309/0318 20008KT CAVOK"
    },
    {
      "icao": "EPWA",
      "alert": "OK",
      "vis_m": 9999,
      "fzfg": false,
      "metar_trigger": false,
      "taf_trigger": false,
      "metar": "METAR EPWA 031030Z 26011KT 240V310 CAVOK 13/M01 Q1012 NOSIG",
      "taf": "TAF EPWA 030830Z 0309/0409 27010KT CAVOK"
    },
    {
      "icao": "EPWR",
      "alert": "OK",
      "vis_m": 9999,
      "fzfg": false,
      "metar_trigger": false,
      "taf_trigger": false,
      "metar": "METAR EPWR 031030Z 30013KT 9999 FEW033 12/04 Q1015",
      "taf": "TAF EPWR 030830Z 0309/0409 29010KT CAVOK"
    },
    {
      "icao": "ESGG",
      "alert": "OK",
      "vis_m": 9999,
      "fzfg": false,
      "metar_trigger": false,
      "taf_trigger": false,
      "metar": "METAR ESGG 031050Z 25009KT 9999 BKN020 04/00 Q1008",
      "taf": "TAF ESGG 030830Z 0309/0409 31005KT 9999 BKN006"
    },
    {
      "icao": "ESKN",
      "alert": "OK",
      "vis_m": 9999,
      "fzfg": false,
      "metar_trigger": false,
      "taf_trigger": false,
      "metar": "METAR ESKN 031050Z 01005KT 9999 -RA SCT004 BKN007 04/04 Q1007",
      "taf": "TAF ESKN 030830Z 0309/0409 08004KT 9000 -RA BKN006"
    },
    {
      "icao": "ESMS",
      "alert": "OK",
      "vis_m": 9999,
      "fzfg": false,
      "metar_trigger": false,
      "taf_trigger": false,
      "metar": "METAR ESMS 031050Z 27015KT 9999 BKN025 05/M00 Q1011",
      "taf": "TAF ESMS 030827Z 0309/0409 27015KT 9999 BKN025"
    },
    {
      "icao": "ESSA",
      "alert": "OK",
      "vis_m": 9999,
      "fzfg": false,
      "metar_trigger": false,
      "taf_trigger": false,
      "metar": "METAR ESSA 031050Z 06010KT 9999 -RA BKN010 03/01 Q1008 TEMPO SCT010",
      "taf": "TAF ESSA 030830Z 0309/0409 06008KT 9999 BKN020"
    },
    {
      "icao": "EYKA",
      "alert": "OK",
      "vis_m": 9999,
      "fzfg": false,
      "metar_trigger": false,
      "taf_trigger": false,
      "metar": "METAR EYKA 031050Z 27007KT 250V320 CAVOK 11/M02 Q1010",
      "taf": "TAF EYKA 030500Z 0306/0406 VRB04KT 9000 NSC"
    },
    {
      "icao": "EYPA",
      "alert": "OK",
      "vis_m": 6000,
      "fzfg": false,
      "metar_trigger": false,
      "taf_trigger": false,
      "metar": "METAR EYPA 031050Z 21006KT 180V260 6000 -RA FEW010 SCT018 BKN022 04/03 Q1010",
      "taf": "TAF EYPA 030500Z 0306/0406 VRB04KT 8000 NSC"
    },
    {
      "icao": "EYVI",
      "alert": "OK",
      "vis_m": 9999,
      "fzfg": false,
      "metar_trigger": false,
      "taf_trigger": false,
      "metar": "METAR EYVI 031050Z 29009KT 230V340 CAVOK 12/M07 Q1010 NOSIG",
      "taf": "TAF EYVI 030500Z 0306/0406 VRB04KT 9000 NSC"
    },
    {
      "icao": "GCFV",
      "alert": "OK",
      "vis_m": 9999,
      "fzfg": false,
      "metar_trigger": false,
      "taf_trigger": false,
      "metar": "METAR GCFV 031030Z 03010KT CAVOK 21/12 Q1019",
      "taf": "TAF GCFV 030800Z 0309/0409 05012KT 9999 FEW020 TX24/0314Z TN15/0406Z"
    },
    {
      "icao": "GCLP",
      "alert": "OK",
      "vis_m": 9999,
      "fzfg": false,
      "metar_trigger": false,
      "taf_trigger": false,
      "metar": "METAR GCLP 031030Z 03020KT 9999 FEW030 20/14 Q1019 NOSIG",
      "taf": "TAF GCLP 030800Z 0309/0409 02018KT 9999 FEW025 TX23/0314Z TN16/0406Z"
    },
    {
      "icao": "GCTS",
      "alert": "OK",
      "vis_m": 9999,
      "fzfg": false,
      "metar_trigger": false,
      "taf_trigger": false,
      "metar": "METAR GCTS 031030Z 08016KT 040V100 CAVOK 23/11 Q1019 WS R07 NOSIG",
      "taf": "TAF GCTS 030800Z 0309/0409 07015KT CAVOK TX24/0314Z TN16/0406Z"
    },
    {
      "icao": "GMAD",
      "alert": "OK",
      "vis_m": 8000,
      "fzfg": false,
      "metar_trigger": false,
      "taf_trigger": false,
      "metar": "METAR GMAD 031030Z 29005KT 240V360 8000 NSC 22/13 Q1016 NOSIG",
      "taf": "TAF GMAD 030500Z 0306/0412 22004KT 8000 NSC"
    },
    {
      "icao": "GMMN",
      "alert": "OK",
      "vis_m": 9999,
      "fzfg": false,
      "metar_trigger": false,
      "taf_trigger": false,
      "metar": "METAR GMMN 031030Z 07007KT 020V120 CAVOK 22/12 Q1020 NOSIG",
      "taf": "TAF GMMN 030500Z 0306/0412 12004KT 8000 SCT004"
    },
    {
      "icao": "GMMX",
      "alert": "OK",
      "vis_m": 9999,
      "fzfg": false,
      "metar_trigger": false,
      "taf_trigger": false,
      "metar": "METAR GMMX 031030Z 06004KT 010V150 CAVOK 21/09 Q1019 NOSIG",
      "taf": "TAF GMMX 030500Z 0306/0412 06006KT 8000 NSC"
    },
    {
      "icao": "HEGN",
      "alert": "OK",
      "vis_m": 2000,
      "fzfg": false,
      "metar_trigger": false,
      "taf_trigger": false,
      "metar": "METAR HEGN 031000Z 34020KT 2000 SA SCT020 BKN100 25/08 Q1013 NOSIG",
      "taf": "TAF HEGN 030500Z 0306/0412 33013G26KT 6000 SCT020 BKN070"
    },
    {
      "icao": "HEMA",
      "alert": "OK",
      "vis_m": 1200,
      "fzfg": false,
      "metar_trigger": false,
      "taf_trigger": false,
      "metar": "METAR HEMA 031000Z 34017KT 1200 R33/1200 R15/1200 SA NSC 23/18 Q1013 TEMPO 0800 SS",
      "taf": "TAF HEMA 030800Z 0308/0412 34010G22KT 6000 SCT020 BKN070"
    },
    {
      "icao": "HESH",
      "alert": "OK",
      "vis_m": 6000,
      "fzfg": false,
      "metar_trigger": false,
      "taf_trigger": false,
      "metar": "METAR HESH 031000Z 36015KT 6000 NSC 24/15 Q1014 NOSIG",
      "taf": "TAF HESH 030500Z 0306/0412 36006G18KT 6000 SCT025"
    },
    {
      "icao": "HESX",
      "alert": "OK",
      "vis_m": 4000,
      "fzfg": false,
      "metar_trigger": false,
      "taf_trigger": false,
      "metar": "METAR HESX 031000Z 24005KT 4000 HZ NSC 23/01 Q1016 TEMPO 3000",
      "taf": "TAF HESX 030500Z 0306/0412 VRB03KT 8000 NSC"
    },
    {
      "icao": "LATI",
      "alert": "OK",
      "vis_m": 9999,
      "fzfg": false,
      "metar_trigger": false,
      "taf_trigger": false,
      "metar": "METAR LATI 031050Z VRB03KT 9999 SCT053 19/05 Q1004 BECMG 32010KT",
      "taf": "TAF LATI 030500Z 0306/0406 VRB03KT 9999 FEW060 BKN100 TX19/0312Z TN08/0404Z"
    },
    {
      "icao": "LBPD",
      "alert": "OK",
      "vis_m": 9999,
      "fzfg": false,
      "metar_trigger": false,
      "taf_trigger": false,
      "metar": "METAR LBPD 031030Z AUTO 09006KT 060V130 9999 FEW030/// OVC039/// 13/06 Q1005 NOSIG",
      "taf": "TAF LBPD 030500Z 0306/0406 VRB03KT 8000 SCT015 BKN050"
    },
    {
      "icao": "LBSF",
      "alert": "OK",
      "vis_m": 9999,
      "fzfg": false,
      "metar_trigger": false,
      "taf_trigger": false,
      "metar": "METAR LBSF 031030Z 03004KT 350V060 9999 SCT024 SCT038 BKN043 11/06 Q1005 NOSIG",
      "taf": "TAF LBSF 030500Z 0306/0406 30008KT 9999 SCT015 BKN035"
    },
    {
      "icao": "LBWN",
      "alert": "OK",
      "vis_m": 9999,
      "fzfg": false,
      "metar_trigger": false,
      "taf_trigger": false,
      "metar": "METAR LBWN 031030Z 14010KT 9999 FEW009 BKN013 13/11 Q1005 NOSIG",
      "taf": "TAF LBWN 030500Z 0306/0406 VRB03KT 4000 BR SCT002 BKN004"
    },
    {
      "icao": "LCLK",
      "alert": "OK",
      "vis_m": 1800,
      "fzfg": false,
      "metar_trigger": false,
      "taf_trigger": false,
      "metar": "METAR LCLK 031030Z 21020KT 1800 DU FEW025 FEW030TCU 21/15 Q1013 TEMPO 0800 DU",
      "taf": "TAF LCLK 030530Z 0306/0406 22009KT 5000 DU FEW030 SCT040"
    },
    {
      "icao": "LCPH",
      "alert": "OK",
      "vis_m": 2000,
      "fzfg": false,
      "metar_trigger": false,
      "taf_trigger": false,
      "metar": "METAR LCPH 031030Z 24008KT 2000 DU NSC 20/14 Q1014 TEMPO 3000 DU",
      "taf": "TAF LCPH 030530Z 0306/0406 23007KT 5000 DU FEW030 SCT040"
    },
    {
      "icao": "LEAL",
      "alert": "OK",
      "vis_m": 9999,
      "fzfg": false,
      "metar_trigger": false,
      "taf_trigger": false,
      "metar": "METAR LEAL 031030Z 21006KT 120V280 CAVOK 21/02 Q1021 NOSIG",
      "taf": "TAF LEAL 030500Z 0306/0406 32007KT CAVOK TX20/0312Z TN08/0405Z"
    },
    {
      "icao": "LEBB",
      "alert": "OK",
      "vis_m": 9999,
      "fzfg": false,
      "metar_trigger": false,
      "taf_trigger": false,
      "metar": "METAR LEBB 031030Z 30005KT 240V360 9999 FEW025 SCT038 15/09 Q1027 NOSIG",
      "taf": "TAF LEBB 030500Z 0306/0406 10006KT 9999 BKN035 TX16/0314Z TN07/0405Z"
    },
    {
      "icao": "LEBL",
      "alert": "OK",
      "vis_m": 9999,
      "fzfg": false,
      "metar_trigger": false,
      "taf_trigger": false,
      "metar": "METAR LEBL 031030Z 18007KT 9999 FEW025 16/05 Q1020 NOSIG",
      "taf": "TAF LEBL 030500Z 0306/0406 34009KT 9999 FEW020 SCT030 TX19/0312Z TN11/0306Z"
    },
    {
      "icao": "LECH",
      "alert": "OK",
      "vis_m": 9000,
      "fzfg": false,
      "metar_trigger": false,
      "taf_trigger": false,
      "metar": "METAR LECH 031030Z AUTO 18005KT 9000 NSC 17/M02 Q1021",
      "taf": "TAF LECH 030500Z 0306/0406 33020KT CAVOK TX22/0313Z TN09/0306Z"
    },
    {
      "icao": "LEMD",
      "alert": "OK",
      "vis_m": 9999,
      "fzfg": false,
      "metar_trigger": false,
      "taf_trigger": false,
      "metar": "METAR LEMD 031030Z 25003KT CAVOK 12/M00 Q1024 NOSIG",
      "taf": "TAF LEMD 030500Z 0306/0412 VRB04KT CAVOK TX22/0315Z TN03/0306Z"
    },
    {
      "icao": "LEMG",
      "alert": "OK",
      "vis_m": 9999,
      "fzfg": false,
      "metar_trigger": false,
      "taf_trigger": false,
      "metar": "METAR LEMG 031030Z 10009KT 060V150 CAVOK 18/12 Q1021 NOSIG",
      "taf": "TAF LEMG 030500Z 0306/0406 28010KT CAVOK TX23/0314Z TN11/0405Z"
    },
    {
      "icao": "LEVC",
      "alert": "OK",
      "vis_m": 9999,
      "fzfg": false,
      "metar_trigger": false,
      "taf_trigger": false,
      "metar": "METAR LEVC 031030Z 13003KT 030V180 CAVOK 19/M01 Q1021 NOSIG",
      "taf": "TAF LEVC 030500Z 0306/0406 30007KT CAVOK TX22/0314Z TN08/0405Z"
    },
    {
      "icao": "LEXJ",
      "alert": "OK",
      "vis_m": 9999,
      "fzfg": false,
      "metar_trigger": false,
      "taf_trigger": false,
      "metar": "METAR LEXJ 031030Z 27004KT 230V320 9999 SCT024 BKN080 14/08 Q1027",
      "taf": "TAF LEXJ 030800Z 0309/0409 32008KT 9999 SCT025 BKN045 TX16/0314Z TN09/0405Z"
    },
    {
      "icao": "LEZG",
      "alert": "OK",
      "vis_m": 9999,
      "fzfg": false,
      "metar_trigger": false,
      "taf_trigger": false,
      "metar": "METAR LEZG 031030Z 31024KT 290V350 9999 SCT030 14/04 Q1023 NOSIG",
      "taf": "TAF LEZG 030500Z 0306/0406 30015KT 9999 FEW040 TX20/0314Z TN09/0306Z"
    },
    {
      "icao": "LEZL",
      "alert": "OK",
      "vis_m": 9999,
      "fzfg": false,
      "metar_trigger": false,
      "taf_trigger": false,
      "metar": "METAR LEZL 031030Z 04009KT 020V090 CAVOK 22/04 Q1022 NOSIG",
      "taf": "TAF LEZL 030800Z 0309/0409 06010KT CAVOK TX27/0316Z TN09/0407Z"
    },
    {
      "icao": "LFBD",
      "alert": "OK",
      "vis_m": 9999,
      "fzfg": false,
      "metar_trigger": false,
      "taf_trigger": false,
      "metar": "METAR LFBD 031030Z AUTO 28012KT 9999 SCT024 BKN031 OVC078 14/08 Q1026 NOSIG",
      "taf": "TAF LFBD 030500Z 0306/0412 27005KT CAVOK TX20/0412Z TN06/0403Z"
    },
    {
      "icao": "LFLL",
      "alert": "OK",
      "vis_m": 9999,
      "fzfg": false,
      "metar_trigger": false,
      "taf_trigger": false,
      "metar": "METAR LFLL 031030Z 33010KT 290V010 9999 SCT033 13/04 Q1021 NOSIG",
      "taf": "TAF LFLL 030500Z 0306/0412 34008KT CAVOK"
    },
    {
      "icao": "LFLS",
      "alert": "OK",
      "vis_m": 9999,
      "fzfg": false,
      "metar_trigger": false,
      "taf_trigger": false,
      "metar": "METAR LFLS 031030Z AUTO 01010KT 340V050 CAVOK 13/05 Q1021 NOSIG",
      "taf": "TAF LFLS 030800Z 0309/0409 35010KT CAVOK"
    },
    {
      "icao": "LFMN",
      "alert": "OK",
      "vis_m": 9999,
      "fzfg": false,
      "metar_trigger": false,
      "taf_trigger": false,
      "metar": "METAR LFMN 031030Z 19006KT CAVOK 20/07 Q1013 NOSIG",
      "taf": "TAF LFMN 030800Z 0309/0415 33005KT CAVOK"
    },
    {
      "icao": "LFOB",
      "alert": "OK",
      "vis_m": 9999,
      "fzfg": false,
      "metar_trigger": false,
      "taf_trigger": false,
      "metar": "METAR LFOB 031030Z AUTO 22012KT 9999 FEW019 BKN025 BKN035 10/06 Q1018 TEMPO 4500 -RA BECMG BKN014 OVC020",
      "taf": ""
    },
    {
      "icao": "LFPO",
      "alert": "OK",
      "vis_m": 9999,
      "fzfg": false,
      "metar_trigger": false,
      "taf_trigger": false,
      "metar": "METAR LFPO 031030Z 22010KT 190V250 9999 BKN048 11/05 Q1020 NOSIG",
      "taf": "TAF LFPO 030500Z 0306/0412 22005KT CAVOK"
    },
    {
      "icao": "LFSB",
      "alert": "OK",
      "vis_m": 9999,
      "fzfg": false,
      "metar_trigger": false,
      "taf_trigger": false,
      "metar": "METAR LFSB 031030Z AUTO 27009KT 240V310 9999 FEW037 SCT043 BKN052 13/04 Q1020 NOSIG",
      "taf": "TAF LFSB 030500Z 0306/0406 VRB03KT CAVOK"
    },
    {
      "icao": "LGAV",
      "alert": "OK",
      "vis_m": 9999,
      "fzfg": false,
      "metar_trigger": false,
      "taf_trigger": false,
      "metar": "METAR LGAV 031050Z 22010KT 9999 SCT018 BKN025 16/09 Q1003 NOSIG",
      "taf": "TAF LGAV 030500Z 0306/0406 20010KT 9999 FEW018 SCT035"
    },
    {
      "icao": "LGTS",
      "alert": "OK",
      "vis_m": 9000,
      "fzfg": false,
      "metar_trigger": false,
      "taf_trigger": false,
      "metar": "METAR LGTS 031050Z VRB03KT 9000 -RA FEW008 FEW016TCU BKN030 14/09 Q1004 TEMPO 5000 SHRA",
      "taf": "TAF LGTS 030500Z 0306/0406 33007KT 9999 FEW012 SCT030"
    },
    {
      "icao": "LHBP",
      "alert": "OK",
      "vis_m": 9999,
      "fzfg": false,
      "metar_trigger": false,
      "taf_trigger": false,
      "metar": "METAR LHBP 031030Z 35010KT 300V020 CAVOK 16/03 Q1011 NOSIG",
      "taf": "TAF LHBP 030515Z 0306/0406 34011KT CAVOK"
    },
    {
      "icao": "LHDC",
      "alert": "OK",
      "vis_m": 9999,
      "fzfg": false,
      "metar_trigger": false,
      "taf_trigger": false,
      "metar": "METAR LHDC 031015Z AUTO 02016G28KT 340V060 CAVOK 18/04 Q1008 NOSIG",
      "taf": "TAF LHDC 030815Z 0309/0318 01013KT CAVOK"
    },
    {
      "icao": "LIBD",
      "alert": "OK",
      "vis_m": 9999,
      "fzfg": false,
      "metar_trigger": false,
      "taf_trigger": false,
      "metar": "METAR LIBD 031050Z 33010KT 300V010 9999 FEW030 16/11 Q1006",
      "taf": "TAF LIBD 030500Z 0306/0406 28010KT 9999 SCT010 BKN030"
    },
    {
      "icao": "LIBG",
      "alert": "OK",
      "vis_m": 9999,
      "fzfg": false,
      "metar_trigger": false,
      "taf_trigger": false,
      "metar": "METAR LIBG 030950Z 33005KT 280V010 9999 SCT040 16/09 Q1005",
      "taf": "TAF LIBG 030800Z 0309/0318 33007KT 9999 SCT030"
    },
    {
      "icao": "LIBP",
      "alert": "OK",
      "vis_m": 9999,
      "fzfg": false,
      "metar_trigger": false,
      "taf_trigger": false,
      "metar": "METAR LIBP 031050Z AUTO 34006KT 270V030 9999 -DZ OVC060/// 14/07 Q1011",
      "taf": "TAF LIBP 030500Z 0306/0406 29010KT 9999 SCT030 OVC050"
    },
    {
      "icao": "LIBR",
      "alert": "OK",
      "vis_m": 9999,
      "fzfg": false,
      "metar_trigger": false,
      "taf_trigger": false,
      "metar": "METAR LIBR 031050Z 34011KT CAVOK 15/11 Q1005",
      "taf": "TAF LIBR 030500Z 0306/0406 03010KT 9999 BKN035"
    },
    {
      "icao": "LICA",
      "alert": "OK",
      "vis_m": 9999,
      "fzfg": false,
      "metar_trigger": false,
      "taf_trigger": false,
      "metar": "METAR LICA 031050Z AUTO 26008KT 220V290 9999 SCT077/// 16/10 Q1006",
      "taf": "TAF LICA 030500Z 0306/0406 VRB06KT 9999 BKN030"
    },
    {
      "icao": "LICC",
      "alert": "OK",
      "vis_m": 9999,
      "fzfg": false,
      "metar_trigger": false,
      "taf_trigger": false,
      "metar": "METAR LICC 031050Z 10009KT 9999 BKN045 16/12 Q1006",
      "taf": "TAF LICC 030500Z 0306/0406 28011KT 9999 BKN025"
    },
    {
      "icao": "LICJ",
      "alert": "OK",
      "vis_m": 9999,
      "fzfg": false,
      "metar_trigger": false,
      "taf_trigger": false,
      "metar": "METAR LICJ 031050Z 24005KT 9999 FEW025 SCT055 13/10 Q1009",
      "taf": "TAF LICJ 030500Z 0306/0406 VRB06KT 8000 BKN025"
    },
    {
      "icao": "LIMC",
      "alert": "OK",
      "vis_m": 9999,
      "fzfg": false,
      "metar_trigger": false,
      "taf_trigger": false,
      "metar": "METAR LIMC 031050Z 28007KT 200V320 CAVOK 19/M04 Q1013 NOSIG",
      "taf": "TAF LIMC 030500Z 0306/0412 VRB05KT CAVOK"
    },
    {
      "icao": "LIME",
      "alert": "OK",
      "vis_m": 9999,
      "fzfg": false,
      "metar_trigger": false,
      "taf_trigger": false,
      "metar": "METAR LIME 031050Z 20007KT 150V220 CAVOK 18/01 Q1013 NOSIG",
      "taf": "TAF LIME 030500Z 0306/0406 VRB05KT CAVOK"
    },
    {
      "icao": "LIMF",
      "alert": "OK",
      "vis_m": 9999,
      "fzfg": false,
      "metar_trigger": false,
      "taf_trigger": false,
      "metar": "METAR LIMF 031050Z 19007KT 150V220 CAVOK 18/M01 Q1014",
      "taf": "TAF LIMF 030500Z 0306/0406 VRB04KT CAVOK"
    },
    {
      "icao": "LIMJ",
      "alert": "OK",
      "vis_m": 9999,
      "fzfg": false,
      "metar_trigger": false,
      "taf_trigger": false,
      "metar": "METAR LIMJ 031050Z 34011KT CAVOK 22/M02 Q1013",
      "taf": "TAF LIMJ 030500Z 0306/0406 03012KT CAVOK"
    },
    {
      "icao": "LIPE",
      "alert": "OK",
      "vis_m": 9999,
      "fzfg": false,
      "metar_trigger": false,
      "taf_trigger": false,
      "metar": "METAR LIPE 031050Z 28008KT 250V310 CAVOK 18/04 Q1013",
      "taf": "TAF LIPE 030500Z 0306/0406 VRB05KT 9999 SCT060"
    },
    {
      "icao": "LIPH",
      "alert": "OK",
      "vis_m": 9999,
      "fzfg": false,
      "metar_trigger": false,
      "taf_trigger": false,
      "metar": "METAR LIPH 031050Z VRB03KT CAVOK 20/01 Q1012",
      "taf": "TAF LIPH 030500Z 0306/0406 VRB05KT 9999 FEW060"
    },
    {
      "icao": "LIPQ",
      "alert": "OK",
      "vis_m": 9999,
      "fzfg": false,
      "metar_trigger": false,
      "taf_trigger": false,
      "metar": "METAR LIPQ 031050Z AUTO 06004KT 320V130 9999 NCD 21/M01 Q1012",
      "taf": "TAF LIPQ 030500Z 0306/0406 VRB05KT 9999 FEW060"
    },
    {
      "icao": "LIPR",
      "alert": "OK",
      "vis_m": 9999,
      "fzfg": false,
      "metar_trigger": false,
      "taf_trigger": false,
      "metar": "METAR LIPR 031050Z 35010KT 320V020 CAVOK 16/04 Q1013",
      "taf": "TAF LIPR 030500Z 0306/0406 30008KT 9999 SCT060"
    },
    {
      "icao": "LIPX",
      "alert": "OK",
      "vis_m": 9999,
      "fzfg": false,
      "metar_trigger": false,
      "taf_trigger": false,
      "metar": "METAR LIPX 031050Z 23006KT 180V260 CAVOK 20/M00 Q1013",
      "taf": "TAF LIPX 030500Z 0306/0406 VRB05KT CAVOK"
    },
    {
      "icao": "LIPY",
      "alert": "OK",
      "vis_m": 9999,
      "fzfg": false,
      "metar_trigger": false,
      "taf_trigger": false,
      "metar": "METAR LIPY 031050Z AUTO 33012KT 9999 SCT097/// 15/10 Q1012",
      "taf": "TAF LIPY 030500Z 0306/0406 34013KT 9999 SCT060"
    },
    {
      "icao": "LIPZ",
      "alert": "OK",
      "vis_m": 9999,
      "fzfg": false,
      "metar_trigger": false,
      "taf_trigger": false,
      "metar": "METAR LIPZ 031050Z 16006KT CAVOK 18/03 Q1013 NOSIG",
      "taf": "TAF LIPZ 030500Z 0306/0412 VRB05KT CAVOK"
    },
    {
      "icao": "LIRF",
      "alert": "OK",
      "vis_m": 9999,
      "fzfg": false,
      "metar_trigger": false,
      "taf_trigger": false,
      "metar": "METAR LIRF 031050Z 03010KT CAVOK 18/06 Q1009 NOSIG",
      "taf": "TAF LIRF 030500Z 0306/0412 36013KT CAVOK"
    },
    {
      "icao": "LIRN",
      "alert": "OK",
      "vis_m": 9999,
      "fzfg": false,
      "metar_trigger": false,
      "taf_trigger": false,
      "metar": "METAR LIRN 031050Z 02013KT 340V040 9999 BKN060 15/06 Q1008 NOSIG",
      "taf": "TAF LIRN 030500Z 0306/0406 03012KT 9999 BKN050"
    },
    {
      "icao": "LIRP",
      "alert": "OK",
      "vis_m": 9999,
      "fzfg": false,
      "metar_trigger": false,
      "taf_trigger": false,
      "metar": "METAR LIRP 031045Z 06007KT CAVOK 20/02 Q1012 NOSIG",
      "taf": "TAF LIRP 030500Z 0306/0406 VRB03KT 9999 FEW050"
    },
    {
      "icao": "LIRZ",
      "alert": "OK",
      "vis_m": 9999,
      "fzfg": false,
      "metar_trigger": false,
      "taf_trigger": false,
      "metar": "METAR LIRZ 031050Z AUTO 06014KT 9999 FEW051/// 15/04 Q1011",
      "taf": "TAF LIRZ 030500Z 0306/0406 02012KT 9999 SCT030"
    },
    {
      "icao": "LJLJ",
      "alert": "OK",
      "vis_m": 9999,
      "fzfg": false,
      "metar_trigger": false,
      "taf_trigger": false,
      "metar": "METAR LJLJ 031030Z COR 22004KT 140V300 9999 FEW060 16/M02 Q1013 NOSIG",
      "taf": "TAF LJLJ 030500Z 0306/0406 32008KT 9999 FEW055 SCT100"
    },
    {
      "icao": "LKMT",
      "alert": "OK",
      "vis_m": 9999,
      "fzfg": false,
      "metar_trigger": false,
      "taf_trigger": false,
      "metar": "METAR LKMT 031030Z 34006KT 300V030 CAVOK 12/01 Q1015 NOSIG",
      "taf": "TAF LKMT 030500Z 0306/0406 01008KT CAVOK"
    },
    {
      "icao": "LKPR",
      "alert": "OK",
      "vis_m": 9999,
      "fzfg": false,
      "metar_trigger": false,
      "taf_trigger": false,
      "metar": "METAR LKPR 031030Z VRB03KT 9999 FEW040 10/01 Q1016 NOSIG",
      "taf": "TAF LKPR 030800Z 0309/0415 25009KT CAVOK"
    },
    {
      "icao": "LLBG",
      "alert": "OK",
      "vis_m": 4500,
      "fzfg": false,
      "metar_trigger": false,
      "taf_trigger": false,
      "metar": "METAR LLBG 031050Z 29007KT 4500 DU NSC 22/M00 Q1016 TEMPO 3000",
      "taf": ""
    },
    {
      "icao": "LMML",
      "alert": "OK",
      "vis_m": 9999,
      "fzfg": false,
      "metar_trigger": false,
      "taf_trigger": false,
      "metar": "METAR LMML 031045Z 27019KT 240V300 9999 SCT023TCU 16/10 Q1009 NOSIG",
      "taf": "TAF LMML 030500Z 0306/0406 28020G30KT 9999 SCT020"
    },
    {
      "icao": "LOWW",
      "alert": "OK",
      "vis_m": 9999,
      "fzfg": false,
      "metar_trigger": false,
      "taf_trigger": false,
      "metar": "METAR LOWW 031050Z 35016G26KT CAVOK 15/01 Q1015 NOSIG",
      "taf": "TAF LOWW 030815Z 0309/0415 31015G25KT CAVOK TX15/0314Z TN06/0402Z"
    },
    {
      "icao": "LPFR",
      "alert": "OK",
      "vis_m": 9999,
      "fzfg": false,
      "metar_trigger": false,
      "taf_trigger": false,
      "metar": "METAR LPFR 031030Z 08011KT CAVOK 22/04 Q1022",
      "taf": "TAF LPFR 030500Z 0306/0406 35010KT CAVOK"
    },
    {
      "icao": "LPMA",
      "alert": "OK",
      "vis_m": 9999,
      "fzfg": false,
      "metar_trigger": false,
      "taf_trigger": false,
      "metar": "METAR LPMA 031030Z 04017KT 9999 FEW016 18/11 Q1023",
      "taf": "TAF LPMA 030500Z 0306/0406 01015KT 9999 SCT015"
    },
    {
      "icao": "LPPR",
      "alert": "OK",
      "vis_m": 9999,
      "fzfg": false,
      "metar_trigger": false,
      "taf_trigger": false,
      "metar": "METAR LPPR 031030Z VRB01KT CAVOK 20/07 Q1024",
      "taf": "TAF LPPR 030500Z 0306/0406 VRB02KT CAVOK"
    },
    {
      "icao": "LPPS",
      "alert": "OK",
      "vis_m": 9999,
      "fzfg": false,
      "metar_trigger": false,
      "taf_trigger": false,
      "metar": "METAR LPPS 031030Z 07016KT 9999 FEW014 16/11 Q1023",
      "taf": "TAF LPPS 030500Z 0306/0412 03012KT 9999 SCT012"
    },
    {
      "icao": "LPPT",
      "alert": "OK",
      "vis_m": 9999,
      "fzfg": false,
      "metar_trigger": false,
      "taf_trigger": false,
      "metar": "METAR LPPT 031030Z 06007KT 010V090 CAVOK 18/12 Q1024",
      "taf": "TAF LPPT 030500Z 0306/0412 33007KT CAVOK"
    },
    {
      "icao": "LQBK",
      "alert": "OK",
      "vis_m": 9999,
      "fzfg": false,
      "metar_trigger": false,
      "taf_trigger": false,
      "metar": "METAR LQBK 031030Z 26006KT CAVOK 11/03 Q1012 NOSIG",
      "taf": "TAF LQBK 030500Z 0306/0406 29007KT CAVOK TX14/0313Z TN05/0406Z"
    },
    {
      "icao": "LQSA",
      "alert": "OK",
      "vis_m": 9999,
      "fzfg": false,
      "metar_trigger": false,
      "taf_trigger": false,
      "metar": "METAR LQSA 031030Z 31007KT 9999 -RA SCT018 OVC025 07/04 Q1010 NOSIG",
      "taf": "TAF LQSA 030500Z 0306/0406 28005KT 9999 SCT020 BKN045 TX08/0313Z TN03/0404Z"
    },
    {
      "icao": "LQTZ",
      "alert": "OK",
      "vis_m": 4000,
      "fzfg": false,
      "metar_trigger": false,
      "taf_trigger": false,
      "metar": "METAR LQTZ 031030Z 28007KT 4000 -RA BR SCT010 OVC025 06/06 Q1011",
      "taf": "TAF LQTZ 030500Z 0306/0406 29005KT 3000 RA BR BKN012 OVC020 TX08/0313Z TN05/0405Z"
    },
    {
      "icao": "LRBC",
      "alert": "OK",
      "vis_m": 9999,
      "fzfg": false,
      "metar_trigger": false,
      "taf_trigger": false,
      "metar": "METAR LRBC 031030Z 34010KT 9999 -RA BKN010 OVC033 12/10 Q1007",
      "taf": "TAF LRBC 030800Z 0309/0318 36009KT 5000 BR OVC005"
    },
    {
      "icao": "LRBS",
      "alert": "OK",
      "vis_m": 9999,
      "fzfg": false,
      "metar_trigger": false,
      "taf_trigger": false,
      "metar": "METAR LRBS 031030Z 05008KT 020V080 9999 BKN010 BKN030 12/10 Q1006 REUP BECMG SCT010 BKN020",
      "taf": "TAF LRBS 030500Z 0306/0406 07008KT 9999 OVC005"
    },
    {
      "icao": "LRBV",
      "alert": "OK",
      "vis_m": 9999,
      "fzfg": false,
      "metar_trigger": false,
      "taf_trigger": false,
      "metar": "METAR LRBV 031030Z VRB02KT 9999 FEW022 BKN056 11/06 Q1006",
      "taf": "TAF LRBV 030800Z 0309/0318 VRB04KT 9999 SCT030 BKN050"
    },
    {
      "icao": "LRCL",
      "alert": "OK",
      "vis_m": 9999,
      "fzfg": false,
      "metar_trigger": false,
      "taf_trigger": false,
      "metar": "METAR LRCL 031030Z 30003KT 9999 -RA SCT017 OVC045 12/09 Q1007",
      "taf": "TAF LRCL 030800Z 0309/0318 VRB04KT 9999 SCT015 OVC040"
    },
    {
      "icao": "LRCV",
      "alert": "OK",
      "vis_m": 9999,
      "fzfg": false,
      "metar_trigger": false,
      "taf_trigger": false,
      "metar": "METAR LRCV 031030Z 10010KT 9999 SCT008 BKN012 OVC020 11/10 Q1006",
      "taf": "TAF LRCV 030800Z 0309/0318 07010KT 9999 OVC010"
    },
    {
      "icao": "LRIA",
      "alert": "OK",
      "vis_m": 9999,
      "fzfg": false,
      "metar_trigger": false,
      "taf_trigger": false,
      "metar": "METAR LRIA 031030Z 32009KT 9999 BKN010 13/10 Q1007",
      "taf": "TAF LRIA 030800Z 0309/0318 31007KT 5000 BR BKN003 OVC005"
    },
    {
      "icao": "LROP",
      "alert": "OK",
      "vis_m": 9999,
      "fzfg": false,
      "metar_trigger": false,
      "taf_trigger": false,
      "metar": "METAR LROP 031030Z 10006KT 9999 BKN008 OVC018 11/11 Q1006 BECMG SCT010 BKN020",
      "taf": "TAF LROP 030500Z 0306/0406 07008KT 3000 -RADZ BR OVC005"
    },
    {
      "icao": "LRSB",
      "alert": "OK",
      "vis_m": 8000,
      "fzfg": false,
      "metar_trigger": false,
      "taf_trigger": false,
      "metar": "METAR LRSB 031030Z 36004KT 310V010 8000 -RA FEW007 BKN033 10/08 Q1007",
      "taf": "TAF LRSB 030500Z 0306/0406 VRB04KT 5000 -RA BR BKN010 OVC020"
    },
    {
      "icao": "LRSM",
      "alert": "OK",
      "vis_m": 9999,
      "fzfg": false,
      "metar_trigger": false,
      "taf_trigger": false,
      "metar": "METAR LRSM 031030Z 04007KT CAVOK 18/05 Q1007",
      "taf": "TAF LRSM 030800Z 0309/0318 35010KT CAVOK"
    },
    {
      "icao": "LRSV",
      "alert": "OK",
      "vis_m": 4000,
      "fzfg": false,
      "metar_trigger": false,
      "taf_trigger": false,
      "metar": "METAR LRSV 031030Z 31011KT 4000 RA SCT016 BKN045 08/08 Q1007",
      "taf": "TAF LRSV 030800Z 0309/0318 32012KT 5000 -SHRA BR SCT010 SCT025CB BKN040"
    },
    {
      "icao": "LRTM",
      "alert": "OK",
      "vis_m": 9999,
      "fzfg": false,
      "metar_trigger": false,
      "taf_trigger": false,
      "metar": "METAR LRTM 031030Z 32005KT 270V360 9999 -RA FEW012 SCT018 BKN042 12/09 Q1007",
      "taf": "TAF LRTM 030800Z 0309/0318 VRB04KT 9999 SCT010 OVC040"
    },
    {
      "icao": "LRTR",
      "alert": "OK",
      "vis_m": 9999,
      "fzfg": false,
      "metar_trigger": false,
      "taf_trigger": false,
      "metar": "METAR LRTR 031030Z COR 36009KT 9999 FEW033 13/10 Q1008 NOSIG",
      "taf": "TAF LRTR 030500Z 0306/0406 VRB04KT 5000 -RA BR BKN025"
    },
    {
      "icao": "LTAC",
      "alert": "OK",
      "vis_m": 9999,
      "fzfg": false,
      "metar_trigger": false,
      "taf_trigger": false,
      "metar": "METAR LTAC 031050Z 25014KT 9999 SCT040 SCT100 12/03 Q1007 NOSIG RMK RWY21C 26011KT 220V290 RWY03L 25012KT RWY21R 26011KT RWY03R 24013KT RWY21L 25013KT 220V280",
      "taf": "TAF LTAC 030440Z 0306/0406 24018KT 9999 SCT040 SCT100"
    },
    {
      "icao": "LTFM",
      "alert": "OK",
      "vis_m": 9999,
      "fzfg": false,
      "metar_trigger": false,
      "taf_trigger": false,
      "metar": "METAR LTFM 031050Z 22018KT 9999 SCT035 BKN100 16/08 Q1006 NOSIG RMK RWY17L 22017KT RWY34L 21015KT RWY16R 22016KT RWY36 22018KT RWY18 23018KT",
      "taf": "TAF LTFM 030440Z 0306/0412 17012KT 9999 SCT035 BKN080"
    },
    {
      "icao": "LUKK",
      "alert": "OK",
      "vis_m": 9999,
      "fzfg": false,
      "metar_trigger": false,
      "taf_trigger": false,
      "metar": "METAR LUKK 031030Z VRB03KT 9999 SCT023 BKN048 15/10 Q1005 TEMPO SCT045CB",
      "taf": "TAF LUKK 030512Z 0306/0406 VRB04KT 3000 BR BKN015"
    },
    {
      "icao": "LWOH",
      "alert": "OK",
      "vis_m": 9999,
      "fzfg": false,
      "metar_trigger": false,
      "taf_trigger": false,
      "metar": "METAR LWOH 031050Z 33008KT 280V030 9999 SCT040 SCT080 13/05 Q1005",
      "taf": "TAF LWOH 030820Z 0309/0409 35010KT 9999 FEW015 BKN035"
    },
    {
      "icao": "LWSK",
      "alert": "OK",
      "vis_m": 9999,
      "fzfg": false,
      "metar_trigger": false,
      "taf_trigger": false,
      "metar": "METAR LWSK 031050Z 28005KT 220V350 9999 FEW025 SCT040 BKN080 13/07 Q1006 NOSIG",
      "taf": "TAF LWSK 030820Z 0309/0409 VRB02KT 9999 FEW030 BKN070"
    },
    {
      "icao": "LYBE",
      "alert": "OK",
      "vis_m": 9999,
      "fzfg": false,
      "metar_trigger": false,
      "taf_trigger": false,
      "metar": "METAR LYBE 031030Z 34006KT 9999 -RA SCT010 BKN033 10/09 Q1009 NOSIG",
      "taf": "TAF LYBE 030500Z 0306/0406 31008KT 7000 SCT012 BKN030 TX12/0313Z TN06/0306Z"
    },
    {
      "icao": "LYNI",
      "alert": "OK",
      "vis_m": 9999,
      "fzfg": false,
      "metar_trigger": false,
      "taf_trigger": false,
      "metar": "METAR LYNI 031030Z 32012KT 9999 -RA FEW006 BKN015 OVC030 10/10 Q1006 NOSIG",
      "taf": "TAF LYNI 030500Z 0306/0406 33013KT 9999 SCT010 BKN030 TX11/0313Z TN07/0405Z"
    },
    {
      "icao": "LYPG",
      "alert": "OK",
      "vis_m": 9999,
      "fzfg": false,
      "metar_trigger": false,
      "taf_trigger": false,
      "metar": "METAR LYPG 031030Z 11006KT 070V180 9999 FEW040 SCT060 19/05 Q1004 NOSIG",
      "taf": "TAF LYPG 030500Z 0306/0406 36005KT 9999 FEW040 SCT080 TX18/0313Z TN08/0306Z"
    },
    {
      "icao": "LZIB",
      "alert": "OK",
      "vis_m": 9999,
      "fzfg": false,
      "metar_trigger": false,
      "taf_trigger": false,
      "metar": "METAR LZIB 031030Z 31016KT CAVOK 14/M01 Q1014 NOSIG",
      "taf": "TAF LZIB 030515Z 0306/0406 33012KT CAVOK"
    },
    {
      "icao": "LZKZ",
      "alert": "OK",
      "vis_m": 9999,
      "fzfg": false,
      "metar_trigger": false,
      "taf_trigger": false,
      "metar": "METAR LZKZ 031030Z 01017KT CAVOK 15/M00 Q1011 NOSIG",
      "taf": "TAF LZKZ 030515Z 0306/0406 01017KT CAVOK"
    },
    {
      "icao": "LZTT",
      "alert": "OK",
      "vis_m": 9999,
      "fzfg": false,
      "metar_trigger": false,
      "taf_trigger": false,
      "metar": "METAR LZTT 031030Z 24005KT 170V290 9999 FEW036 11/01 Q1012 NOSIG",
      "taf": "TAF LZTT 030515Z 0306/0406 27005KT 9999 FEW015 SCT045"
    },
    {
      "icao": "OEJN",
      "alert": "OK",
      "vis_m": 9999,
      "fzfg": false,
      "metar_trigger": false,
      "taf_trigger": false,
      "metar": "METAR OEJN 031000Z 27010KT CAVOK 35/15 Q1009 NOSIG",
      "taf": "TAF OEJN 030500Z 0306/0412 26012KT CAVOK"
    },
    {
      "icao": "OEMA",
      "alert": "OK",
      "vis_m": 9999,
      "fzfg": false,
      "metar_trigger": false,
      "taf_trigger": false,
      "metar": "METAR OEMA 031000Z 04009KT 9999 FEW045 SCT100 35/06 Q1015 NOSIG",
      "taf": "TAF OEMA 030500Z 0306/0412 06010KT 9999 FEW045"
    },
    {
      "icao": "OJAI",
      "alert": "OK",
      "vis_m": 600,
      "fzfg": false,
      "metar_trigger": false,
      "taf_trigger": false,
      "metar": "METAR OJAI 031000Z 30014KT 0600 DU FEW015 BKN025 15/03 Q1017 NOSIG",
      "taf": ""
    },
    {
      "icao": "OMAA",
      "alert": "OK",
      "vis_m": null,
      "fzfg": false,
      "metar_trigger": false,
      "taf_trigger": false,
      "metar": "",
      "taf": ""
    },
    {
      "icao": "OMDB",
      "alert": "OK",
      "vis_m": null,
      "fzfg": false,
      "metar_trigger": false,
      "taf_trigger": false,
      "metar": "",
      "taf": ""
    },
    {
      "icao": "UAAA",
      "alert": "OK",
      "vis_m": 9999,
      "fzfg": false,
      "metar_trigger": false,
      "taf_trigger": false,
      "metar": "METAR UAAA 031030Z 04004MPS 010V080 9999 BKN200 26/06 Q1006 NOSIG",
      "taf": "TAF UAAA 030503Z 0306/0406 04003G08MPS 9999 SCT100 TX26/0310Z TN10/0401Z"
    },
    {
      "icao": "UBBB",
      "alert": "OK",
      "vis_m": 9999,
      "fzfg": false,
      "metar_trigger": false,
      "taf_trigger": false,
      "metar": "METAR UBBB 031030Z 15020KT CAVOK 17/12 Q1004 NOSIG",
      "taf": "TAF UBBB 031050Z 0312/0412 17016KT 9999 SCT020 TX18/0312Z TN11/0401Z"
    },
    {
      "icao": "UDSG",
      "alert": "OK",
      "vis_m": 9999,
      "fzfg": false,
      "metar_trigger": false,
      "taf_trigger": false,
      "metar": "METAR UDSG 031030Z 21013KT 9999 SCT043CB 12/03 Q1011 NOSIG",
      "taf": "TAF UDSG 030500Z 0306/0406 21006KT 9999 SCT040"
    },
    {
      "icao": "UDYZ",
      "alert": "OK",
      "vis_m": 9999,
      "fzfg": false,
      "metar_trigger": false,
      "taf_trigger": false,
      "metar": "METAR UDYZ 031030Z VRB02KT 9999 SCT046 18/07 Q1010 NOSIG",
      "taf": "TAF UDYZ 030500Z 0306/0406 24006KT 9999 SCT040"
    },
    {
      "icao": "UGKO",
      "alert": "OK",
      "vis_m": 9999,
      "fzfg": false,
      "metar_trigger": false,
      "taf_trigger": false,
      "metar": "METAR UGKO 031030Z 19004KT 150V230 9999 SCT090 24/08 Q1002 BECMG 25010KT",
      "taf": "TAF UGKO 030500Z 0306/0406 08012KT 9999 BKN050 TX25/0311Z TN11/0403Z"
    }
  ]
}