{
  "ts_utc": "2026-05-01T17:15:54Z",
  "threshold_m": 150,
  "source": "stations_override.txt (ICAO list) + aviationweather.gov (METAR/TAF raw)",
  "station_count": 159,
  "stations": [
    {
      "icao": "BIKF",
      "alert": "OK",
      "vis_m": 9999,
      "fzfg": false,
      "metar_trigger": false,
      "taf_trigger": false,
      "metar": "METAR BIKF 011700Z 31014KT 9999 BKN036 04/M06 Q1019",
      "taf": "TAF BIKF 011646Z 0118/0218 32012KT 9999 SCT030 TX07/0215Z TNM01/0204Z"
    },
    {
      "icao": "BKPR",
      "alert": "OK",
      "vis_m": 9999,
      "fzfg": false,
      "metar_trigger": false,
      "taf_trigger": false,
      "metar": "METAR BKPR 011700Z 01009KT 9999 SCT075 09/00 Q1022 NOSIG",
      "taf": ""
    },
    {
      "icao": "EBCI",
      "alert": "OK",
      "vis_m": 9999,
      "fzfg": false,
      "metar_trigger": false,
      "taf_trigger": false,
      "metar": "METAR EBCI 011650Z 22007KT 170V240 CAVOK 23/M02 Q1021 NOSIG",
      "taf": "TAF EBCI 011110Z 0112/0218 15006KT CAVOK"
    },
    {
      "icao": "EDDB",
      "alert": "OK",
      "vis_m": 9999,
      "fzfg": false,
      "metar_trigger": false,
      "taf_trigger": false,
      "metar": "METAR EDDB 011650Z AUTO 07003KT 020V110 CAVOK 23/06 Q1025 NOSIG",
      "taf": "TAF EDDB 011100Z 0112/0212 33004KT CAVOK"
    },
    {
      "icao": "EDDH",
      "alert": "OK",
      "vis_m": 9999,
      "fzfg": false,
      "metar_trigger": false,
      "taf_trigger": false,
      "metar": "METAR EDDH 011650Z AUTO 15010KT 110V180 CAVOK 22/04 Q1024 BECMG 13005KT",
      "taf": "TAF EDDH 011100Z 0112/0218 14007KT CAVOK"
    },
    {
      "icao": "EDDK",
      "alert": "OK",
      "vis_m": 9999,
      "fzfg": false,
      "metar_trigger": false,
      "taf_trigger": false,
      "metar": "METAR EDDK 011650Z AUTO 13010KT 080V160 CAVOK 23/02 Q1022 NOSIG",
      "taf": "TAF EDDK 011100Z 0112/0218 13013KT CAVOK"
    },
    {
      "icao": "EDDN",
      "alert": "OK",
      "vis_m": 9999,
      "fzfg": false,
      "metar_trigger": false,
      "taf_trigger": false,
      "metar": "METAR EDDN 011650Z AUTO 12006KT 080V140 CAVOK 21/04 Q1024 NOSIG",
      "taf": "TAF EDDN 011100Z 0112/0212 11009KT CAVOK"
    },
    {
      "icao": "EDDS",
      "alert": "OK",
      "vis_m": 9999,
      "fzfg": false,
      "metar_trigger": false,
      "taf_trigger": false,
      "metar": "METAR EDDS 011650Z AUTO 08010KT CAVOK 22/01 Q1022 NOSIG",
      "taf": "TAF EDDS 011100Z 0112/0212 12008KT CAVOK"
    },
    {
      "icao": "EDFH",
      "alert": "OK",
      "vis_m": 9999,
      "fzfg": false,
      "metar_trigger": false,
      "taf_trigger": false,
      "metar": "METAR EDFH 011650Z 14010KT 100V160 CAVOK 19/M01 Q1023",
      "taf": "TAF EDFH 011100Z 0112/0212 13013KT CAVOK"
    },
    {
      "icao": "EDJA",
      "alert": "OK",
      "vis_m": 9999,
      "fzfg": false,
      "metar_trigger": false,
      "taf_trigger": false,
      "metar": "METAR EDJA 011650Z 05011KT CAVOK 19/01 Q1024",
      "taf": "TAF EDJA 011400Z 0115/0124 07010KT CAVOK"
    },
    {
      "icao": "EDLW",
      "alert": "OK",
      "vis_m": 9999,
      "fzfg": false,
      "metar_trigger": false,
      "taf_trigger": false,
      "metar": "METAR EDLW 011650Z 13009KT CAVOK 23/03 Q1022",
      "taf": "TAF EDLW 011100Z 0112/0212 13011KT CAVOK"
    },
    {
      "icao": "EDNY",
      "alert": "OK",
      "vis_m": 9999,
      "fzfg": false,
      "metar_trigger": false,
      "taf_trigger": false,
      "metar": "METAR EDNY 011650Z VRB02KT CAVOK 22/02 Q1022",
      "taf": "TAF EDNY 011400Z 0115/0124 21006KT CAVOK"
    },
    {
      "icao": "EDSB",
      "alert": "OK",
      "vis_m": 9999,
      "fzfg": false,
      "metar_trigger": false,
      "taf_trigger": false,
      "metar": "METAR EDSB 011650Z 35006KT CAVOK 25/M01 Q1021",
      "taf": "TAF EDSB 011100Z 0112/0212 VRB03KT CAVOK"
    },
    {
      "icao": "EETN",
      "alert": "OK",
      "vis_m": 9999,
      "fzfg": false,
      "metar_trigger": false,
      "taf_trigger": false,
      "metar": "METAR EETN 011650Z 26011KT CAVOK 15/03 Q1017 NOSIG",
      "taf": "TAF EETN 011130Z 0112/0212 29012KT CAVOK"
    },
    {
      "icao": "EFTU",
      "alert": "OK",
      "vis_m": 9999,
      "fzfg": false,
      "metar_trigger": false,
      "taf_trigger": false,
      "metar": "METAR EFTU 011650Z AUTO 20007KT CAVOK 16/03 Q1015",
      "taf": "TAF EFTU 011427Z 0115/0215 25010KT CAVOK"
    },
    {
      "icao": "EGBB",
      "alert": "OK",
      "vis_m": 9999,
      "fzfg": false,
      "metar_trigger": false,
      "taf_trigger": false,
      "metar": "METAR EGBB 011650Z 26008KT 220V290 CAVOK 18/10 Q1018",
      "taf": "TAF EGBB 011712Z 0118/0218 26008KT 9999 FEW040"
    },
    {
      "icao": "EGGP",
      "alert": "OK",
      "vis_m": 9999,
      "fzfg": false,
      "metar_trigger": false,
      "taf_trigger": false,
      "metar": "METAR EGGP 011650Z 28006KT 9999 -RA SCT026 OVC037 13/10 Q1019",
      "taf": "TAF EGGP 011657Z 0118/0218 VRB04KT 9999 SCT040"
    },
    {
      "icao": "EGGW",
      "alert": "OK",
      "vis_m": 9999,
      "fzfg": false,
      "metar_trigger": false,
      "taf_trigger": false,
      "metar": "METAR EGGW 011650Z AUTO 22011KT 9999 NCD 21/11 Q1018",
      "taf": "TAF EGGW 011657Z 0118/0218 21008KT 9999 FEW045"
    },
    {
      "icao": "EGKK",
      "alert": "OK",
      "vis_m": 9999,
      "fzfg": false,
      "metar_trigger": false,
      "taf_trigger": false,
      "metar": "METAR EGKK 011650Z 23008KT 9999 FEW030 20/13 Q1019",
      "taf": "TAF EGKK 011656Z 0118/0224 22010KT CAVOK"
    },
    {
      "icao": "EGNM",
      "alert": "OK",
      "vis_m": 9999,
      "fzfg": false,
      "metar_trigger": false,
      "taf_trigger": false,
      "metar": "METAR EGNM 011650Z 30010KT 9999 SCT049 17/10 Q1017",
      "taf": "TAF EGNM 011656Z 0118/0218 26010KT 9999 SCT045"
    },
    {
      "icao": "EGPD",
      "alert": "OK",
      "vis_m": 9999,
      "fzfg": false,
      "metar_trigger": false,
      "taf_trigger": false,
      "metar": "METAR EGPD 011650Z COR 22010KT 9999 -RA NSC 15/09 Q1015 NOSIG",
      "taf": "TAF EGPD 011700Z 0118/0218 21010KT CAVOK"
    },
    {
      "icao": "EGPF",
      "alert": "OK",
      "vis_m": 9999,
      "fzfg": false,
      "metar_trigger": false,
      "taf_trigger": false,
      "metar": "METAR EGPF 011650Z AUTO 25005KT 210V280 9999 BKN044 17/08 Q1016",
      "taf": "TAF EGPF 011654Z 0118/0218 20005KT 9999 BKN030"
    },
    {
      "icao": "EHBK",
      "alert": "OK",
      "vis_m": 9999,
      "fzfg": false,
      "metar_trigger": false,
      "taf_trigger": false,
      "metar": "METAR EHBK 011655Z AUTO 16007KT 120V190 9999 NCD 24/00 Q1021 NOSIG",
      "taf": "TAF EHBK 011112Z 0112/0218 13010KT CAVOK"
    },
    {
      "icao": "EHEH",
      "alert": "OK",
      "vis_m": 9999,
      "fzfg": false,
      "metar_trigger": false,
      "taf_trigger": false,
      "metar": "METAR EHEH 011655Z AUTO 12010KT 080V180 9999 NCD 24/01 Q1020 BLU NOSIG",
      "taf": "TAF EHEH 011143Z 0112/0218 13012G22KT CAVOK"
    },
    {
      "icao": "EKBI",
      "alert": "OK",
      "vis_m": 9999,
      "fzfg": false,
      "metar_trigger": false,
      "taf_trigger": false,
      "metar": "METAR EKBI 011650Z AUTO 23006KT 190V290 9999 NCD 20/04 Q1024",
      "taf": "TAF EKBI 011427Z 0115/0215 21010KT CAVOK"
    },
    {
      "icao": "EKCH",
      "alert": "OK",
      "vis_m": 9999,
      "fzfg": false,
      "metar_trigger": false,
      "taf_trigger": false,
      "metar": "METAR EKCH 011650Z AUTO 13003KT 9999 NCD 17/03 Q1025 NOSIG",
      "taf": "TAF EKCH 011427Z 0115/0215 VRB04KT CAVOK"
    },
    {
      "icao": "ENAL",
      "alert": "OK",
      "vis_m": 9999,
      "fzfg": false,
      "metar_trigger": false,
      "taf_trigger": false,
      "metar": "METAR ENAL 011650Z 24012KT CAVOK 11/05 Q1013",
      "taf": "TAF ENAL 011400Z 0115/0124 22018KT CAVOK"
    },
    {
      "icao": "ENBR",
      "alert": "OK",
      "vis_m": 9999,
      "fzfg": false,
      "metar_trigger": false,
      "taf_trigger": false,
      "metar": "METAR ENBR 011650Z 18015KT CAVOK 12/05 Q1018 NOSIG RMK WIND 1200FT 18024KT",
      "taf": "TAF ENBR 011100Z 0112/0212 16018KT CAVOK"
    },
    {
      "icao": "ENGM",
      "alert": "OK",
      "vis_m": 9999,
      "fzfg": false,
      "metar_trigger": false,
      "taf_trigger": false,
      "metar": "METAR ENGM 011650Z 21015KT CAVOK 20/02 Q1017 NOSIG",
      "taf": "TAF ENGM 011100Z 0112/0212 22012KT CAVOK"
    },
    {
      "icao": "ENHD",
      "alert": "OK",
      "vis_m": 9999,
      "fzfg": false,
      "metar_trigger": false,
      "taf_trigger": false,
      "metar": "METAR ENHD 011650Z 18013KT CAVOK 13/05 Q1019",
      "taf": "TAF ENHD 011400Z 0115/0122 17015KT CAVOK"
    },
    {
      "icao": "ENTC",
      "alert": "OK",
      "vis_m": 9999,
      "fzfg": false,
      "metar_trigger": false,
      "taf_trigger": false,
      "metar": "METAR ENTC 011650Z 20016KT 9999 FEW058 06/00 Q1004 NOSIG RMK WIND 2600FT 22011KT",
      "taf": ""
    },
    {
      "icao": "ENTO",
      "alert": "OK",
      "vis_m": 9999,
      "fzfg": false,
      "metar_trigger": false,
      "taf_trigger": false,
      "metar": "METAR ENTO 011650Z 22019KT CAVOK 16/04 Q1019 NOSIG",
      "taf": "TAF ENTO 011100Z 0112/0212 20012KT CAVOK"
    },
    {
      "icao": "ENVA",
      "alert": "OK",
      "vis_m": 9999,
      "fzfg": false,
      "metar_trigger": false,
      "taf_trigger": false,
      "metar": "METAR ENVA 011650Z 32008KT CAVOK 15/02 Q1014 NOSIG RMK WIND 670FT 31011KT",
      "taf": "TAF ENVA 011100Z 0112/0212 26010KT CAVOK"
    },
    {
      "icao": "ENZV",
      "alert": "OK",
      "vis_m": 9999,
      "fzfg": false,
      "metar_trigger": false,
      "taf_trigger": false,
      "metar": "METAR ENZV 011650Z 19015KT CAVOK 17/02 Q1020 NOSIG",
      "taf": "TAF ENZV 011100Z 0112/0212 18018KT CAVOK"
    },
    {
      "icao": "EPGD",
      "alert": "OK",
      "vis_m": 9999,
      "fzfg": false,
      "metar_trigger": false,
      "taf_trigger": false,
      "metar": "METAR EPGD 011700Z VRB02KT CAVOK 18/05 Q1024",
      "taf": "TAF EPGD 011130Z 0112/0212 06010KT CAVOK"
    },
    {
      "icao": "EPKK",
      "alert": "OK",
      "vis_m": 9999,
      "fzfg": false,
      "metar_trigger": false,
      "taf_trigger": false,
      "metar": "METAR EPKK 011700Z 02007KT CAVOK 18/04 Q1023",
      "taf": "TAF EPKK 011430Z 0115/0215 02006KT 9999 BKN060"
    },
    {
      "icao": "EPKT",
      "alert": "OK",
      "vis_m": 9999,
      "fzfg": false,
      "metar_trigger": false,
      "taf_trigger": false,
      "metar": "METAR EPKT 011700Z 01010KT 330V040 CAVOK 18/03 Q1024",
      "taf": "TAF EPKT 011130Z 0112/0212 32012KT CAVOK"
    },
    {
      "icao": "EPLB",
      "alert": "OK",
      "vis_m": 9999,
      "fzfg": false,
      "metar_trigger": false,
      "taf_trigger": false,
      "metar": "METAR EPLB 011700Z 05006KT CAVOK 14/05 Q1024",
      "taf": "TAF EPLB 011130Z 0112/0212 35010KT 9999 SCT046"
    },
    {
      "icao": "EPMO",
      "alert": "OK",
      "vis_m": 9999,
      "fzfg": false,
      "metar_trigger": false,
      "taf_trigger": false,
      "metar": "METAR EPMO 011700Z 02009KT 360V060 CAVOK 19/03 Q1024",
      "taf": "TAF EPMO 011130Z 0112/0212 36010KT 9999 SCT048"
    },
    {
      "icao": "EPPO",
      "alert": "OK",
      "vis_m": 9999,
      "fzfg": false,
      "metar_trigger": false,
      "taf_trigger": false,
      "metar": "METAR EPPO 011700Z 06003KT CAVOK 23/04 Q1024",
      "taf": "TAF EPPO 011130Z 0112/0212 32006KT CAVOK"
    },
    {
      "icao": "EPRA",
      "alert": "OK",
      "vis_m": 9999,
      "fzfg": false,
      "metar_trigger": false,
      "taf_trigger": false,
      "metar": "METAR EPRA 011700Z 02008KT CAVOK 19/01 Q1023",
      "taf": "TAF EPRA 011430Z 0115/0124 01010KT CAVOK"
    },
    {
      "icao": "EPRZ",
      "alert": "OK",
      "vis_m": 9999,
      "fzfg": false,
      "metar_trigger": false,
      "taf_trigger": false,
      "metar": "METAR EPRZ 011700Z 34006KT CAVOK 16/03 Q1023",
      "taf": "TAF EPRZ 011130Z 0112/0212 31011KT CAVOK"
    },
    {
      "icao": "EPSC",
      "alert": "OK",
      "vis_m": 9999,
      "fzfg": false,
      "metar_trigger": false,
      "taf_trigger": false,
      "metar": "METAR EPSC 011700Z 34007KT CAVOK 21/00 Q1025",
      "taf": ""
    },
    {
      "icao": "EPSY",
      "alert": "OK",
      "vis_m": 9999,
      "fzfg": false,
      "metar_trigger": false,
      "taf_trigger": false,
      "metar": "METAR EPSY 011700Z 01009KT CAVOK 18/05 Q1024",
      "taf": "TAF EPSY 011430Z 0115/0124 01010KT CAVOK"
    },
    {
      "icao": "EPWA",
      "alert": "OK",
      "vis_m": 9999,
      "fzfg": false,
      "metar_trigger": false,
      "taf_trigger": false,
      "metar": "METAR EPWA 011700Z 36009KT CAVOK 20/01 Q1024 NOSIG",
      "taf": "TAF EPWA 011430Z 0115/0215 35010KT CAVOK"
    },
    {
      "icao": "EPWR",
      "alert": "OK",
      "vis_m": 9999,
      "fzfg": false,
      "metar_trigger": false,
      "taf_trigger": false,
      "metar": "METAR EPWR 011700Z 02008KT 350V060 CAVOK 21/03 Q1025",
      "taf": "TAF EPWR 011430Z 0115/0215 33010KT CAVOK"
    },
    {
      "icao": "ESGG",
      "alert": "OK",
      "vis_m": 9999,
      "fzfg": false,
      "metar_trigger": false,
      "taf_trigger": false,
      "metar": "METAR ESGG 011650Z 27007KT CAVOK 17/03 Q1024",
      "taf": "TAF ESGG 011430Z 0115/0215 27012KT CAVOK"
    },
    {
      "icao": "ESKN",
      "alert": "OK",
      "vis_m": 9999,
      "fzfg": false,
      "metar_trigger": false,
      "taf_trigger": false,
      "metar": "METAR ESKN 011650Z 27013KT CAVOK 23/01 Q1019",
      "taf": "TAF ESKN 011430Z 0115/0215 28015KT CAVOK"
    },
    {
      "icao": "ESMS",
      "alert": "OK",
      "vis_m": 9999,
      "fzfg": false,
      "metar_trigger": false,
      "taf_trigger": false,
      "metar": "METAR ESMS 011650Z 30007KT CAVOK 19/03 Q1025",
      "taf": "TAF ESMS 011427Z 0115/0215 31010KT CAVOK"
    },
    {
      "icao": "ESSA",
      "alert": "OK",
      "vis_m": 9999,
      "fzfg": false,
      "metar_trigger": false,
      "taf_trigger": false,
      "metar": "METAR ESSA 011650Z 25017KT CAVOK 21/00 Q1016 NOSIG",
      "taf": "TAF ESSA 011430Z 0115/0215 24015KT CAVOK"
    },
    {
      "icao": "EYKA",
      "alert": "OK",
      "vis_m": 9999,
      "fzfg": false,
      "metar_trigger": false,
      "taf_trigger": false,
      "metar": "METAR EYKA 011650Z VRB02KT CAVOK 18/05 Q1022",
      "taf": "TAF EYKA 011700Z 0118/0218 VRB02KT 9000 NSC"
    },
    {
      "icao": "EYPA",
      "alert": "OK",
      "vis_m": 9999,
      "fzfg": false,
      "metar_trigger": false,
      "taf_trigger": false,
      "metar": "METAR EYPA 011650Z 20005KT 180V240 CAVOK 10/04 Q1023",
      "taf": "TAF EYPA 011700Z 0118/0218 VRB04KT 9000 NSC"
    },
    {
      "icao": "EYVI",
      "alert": "OK",
      "vis_m": 9999,
      "fzfg": false,
      "metar_trigger": false,
      "taf_trigger": false,
      "metar": "METAR EYVI 011650Z 30006KT CAVOK 16/04 Q1022 NOSIG",
      "taf": ""
    },
    {
      "icao": "GCFV",
      "alert": "OK",
      "vis_m": 9999,
      "fzfg": false,
      "metar_trigger": false,
      "taf_trigger": false,
      "metar": "METAR GCFV 011700Z 04008KT CAVOK 21/15 Q1018",
      "taf": "TAF GCFV 011400Z 0115/0215 05008KT 9999 FEW025 TX22/0214Z TN16/0206Z"
    },
    {
      "icao": "GCLP",
      "alert": "OK",
      "vis_m": 9999,
      "fzfg": false,
      "metar_trigger": false,
      "taf_trigger": false,
      "metar": "METAR GCLP 011700Z 07007KT 9999 FEW030 22/14 Q1018 NOSIG",
      "taf": "TAF GCLP 011400Z 0115/0215 08005KT 9999 FEW025 TX23/0214Z TN16/0206Z"
    },
    {
      "icao": "GCTS",
      "alert": "OK",
      "vis_m": 9999,
      "fzfg": false,
      "metar_trigger": false,
      "taf_trigger": false,
      "metar": "METAR GCTS 011700Z 22007KT 160V250 9999 FEW030 22/16 Q1019 NOSIG",
      "taf": "TAF GCTS 011400Z 0115/0215 22010KT 9999 SCT030 TX24/0214Z TN17/0206Z"
    },
    {
      "icao": "GMAD",
      "alert": "OK",
      "vis_m": 9999,
      "fzfg": false,
      "metar_trigger": false,
      "taf_trigger": false,
      "metar": "METAR GMAD 011700Z 24014KT CAVOK 23/13 Q1015 NOSIG",
      "taf": "TAF GMAD 011700Z 0118/0224 26008KT CAVOK"
    },
    {
      "icao": "GMMN",
      "alert": "OK",
      "vis_m": 9999,
      "fzfg": false,
      "metar_trigger": false,
      "taf_trigger": false,
      "metar": "METAR GMMN 011700Z 01012KT 330V040 CAVOK 20/15 Q1018 NOSIG",
      "taf": "TAF GMMN 011100Z 0112/0218 36012KT CAVOK"
    },
    {
      "icao": "GMMX",
      "alert": "OK",
      "vis_m": 9999,
      "fzfg": false,
      "metar_trigger": false,
      "taf_trigger": false,
      "metar": "METAR GMMX 011700Z 25004KT 160V320 9999 FEW026 SCT200 29/13 Q1015 NOSIG",
      "taf": "TAF GMMX 011100Z 0112/0218 34006KT 8000 SCT026"
    },
    {
      "icao": "HEGN",
      "alert": "OK",
      "vis_m": 9999,
      "fzfg": false,
      "metar_trigger": false,
      "taf_trigger": false,
      "metar": "METAR HEGN 011600Z 33015KT CAVOK 30/03 Q1009 NOSIG",
      "taf": "TAF HEGN 011700Z 0118/0224 32014KT CAVOK"
    },
    {
      "icao": "HEMA",
      "alert": "OK",
      "vis_m": 9999,
      "fzfg": false,
      "metar_trigger": false,
      "taf_trigger": false,
      "metar": "METAR HEMA 011600Z 04006KT CAVOK 26/11 Q1010 NOSIG",
      "taf": "TAF HEMA 011700Z 0118/0224 33013KT CAVOK"
    },
    {
      "icao": "HESH",
      "alert": "OK",
      "vis_m": 9999,
      "fzfg": false,
      "metar_trigger": false,
      "taf_trigger": false,
      "metar": "METAR HESH 011600Z 03008KT CAVOK 29/08 Q1008 NOSIG",
      "taf": "TAF HESH 011700Z 0118/0224 36013KT CAVOK"
    },
    {
      "icao": "HESX",
      "alert": "OK",
      "vis_m": 9999,
      "fzfg": false,
      "metar_trigger": false,
      "taf_trigger": false,
      "metar": "METAR HESX 011600Z 02008KT CAVOK 26/07 Q1011 NOSIG",
      "taf": "TAF HESX 011701Z 0118/0224 02010KT CAVOK"
    },
    {
      "icao": "LATI",
      "alert": "OK",
      "vis_m": 9999,
      "fzfg": false,
      "metar_trigger": false,
      "taf_trigger": false,
      "metar": "METAR LATI 011650Z 05012KT CAVOK 17/M01 Q1018 NOSIG",
      "taf": "TAF LATI 011700Z 0118/0218 VRB05KT CAVOK TX22/0212Z TN05/0204Z"
    },
    {
      "icao": "LBPD",
      "alert": "OK",
      "vis_m": 9999,
      "fzfg": false,
      "metar_trigger": false,
      "taf_trigger": false,
      "metar": "METAR LBPD 011700Z AUTO 30004KT 9999 OVC079/// 09/03 Q1024 NOSIG",
      "taf": "TAF LBPD 011700Z 0118/0218 VRB03KT 9999 BKN060"
    },
    {
      "icao": "LBSF",
      "alert": "OK",
      "vis_m": 9999,
      "fzfg": false,
      "metar_trigger": false,
      "taf_trigger": false,
      "metar": "METAR LBSF 011700Z AUTO 08004KT 9999 SCT065/// OVC079/// 07/M01 Q1023 NOSIG",
      "taf": "TAF LBSF 011700Z 0118/0218 03010KT 9999 BKN060"
    },
    {
      "icao": "LBWN",
      "alert": "OK",
      "vis_m": 9999,
      "fzfg": false,
      "metar_trigger": false,
      "taf_trigger": false,
      "metar": "METAR LBWN 011700Z AUTO 28003KT 210V300 9999 NSC 09/05 Q1023 NOSIG",
      "taf": "TAF LBWN 011700Z 0118/0218 VRB04KT 9999 SCT030 BKN045"
    },
    {
      "icao": "LCLK",
      "alert": "OK",
      "vis_m": 9999,
      "fzfg": false,
      "metar_trigger": false,
      "taf_trigger": false,
      "metar": "METAR LCLK 011700Z 23008KT 9999 FEW025 20/17 Q1010 NOSIG",
      "taf": "TAF LCLK 011130Z 0112/0212 21016KT 9999 FEW020"
    },
    {
      "icao": "LCPH",
      "alert": "OK",
      "vis_m": 9999,
      "fzfg": false,
      "metar_trigger": false,
      "taf_trigger": false,
      "metar": "METAR LCPH 011700Z 32006KT 9999 FEW025 19/16 Q1011 NOSIG",
      "taf": "TAF LCPH 011130Z 0112/0212 28014KT 9999 FEW020"
    },
    {
      "icao": "LEAL",
      "alert": "OK",
      "vis_m": 9999,
      "fzfg": false,
      "metar_trigger": false,
      "taf_trigger": false,
      "metar": "METAR LEAL 011700Z 10011KT 080V140 9999 FEW010 21/16 Q1020 NOSIG",
      "taf": "TAF LEAL 011100Z 0112/0212 VRB04KT 9999 SCT025 SCT060 TX23/0113Z TN16/0206Z"
    },
    {
      "icao": "LEBB",
      "alert": "OK",
      "vis_m": 9999,
      "fzfg": false,
      "metar_trigger": false,
      "taf_trigger": false,
      "metar": "METAR LEBB 011700Z 10010KT 060V140 CAVOK 25/18 Q1016 NOSIG",
      "taf": ""
    },
    {
      "icao": "LEBL",
      "alert": "OK",
      "vis_m": 9000,
      "fzfg": false,
      "metar_trigger": false,
      "taf_trigger": false,
      "metar": "METAR LEBL 011700Z 07011KT 9000 FEW018 19/15 Q1022 NOSIG",
      "taf": "TAF LEBL 011100Z 0112/0212 07018KT 9999 FEW015 TX22/0112Z TN16/0206Z"
    },
    {
      "icao": "LECH",
      "alert": "OK",
      "vis_m": 9000,
      "fzfg": false,
      "metar_trigger": false,
      "taf_trigger": false,
      "metar": "METAR LECH 011700Z AUTO 10005KT 010V140 9000 SCT011 OVC038 17/14 Q1022",
      "taf": "TAF LECH 011100Z 0112/0212 05007KT 9999 SCT020 SCT050 TX21/0112Z TN12/0206Z"
    },
    {
      "icao": "LEMD",
      "alert": "OK",
      "vis_m": 9999,
      "fzfg": false,
      "metar_trigger": false,
      "taf_trigger": false,
      "metar": "METAR LEMD 011700Z 20005G17KT 9999 SCT080 25/05 Q1017 NOSIG",
      "taf": ""
    },
    {
      "icao": "LEMG",
      "alert": "OK",
      "vis_m": 9999,
      "fzfg": false,
      "metar_trigger": false,
      "taf_trigger": false,
      "metar": "METAR LEMG 011700Z 12007KT 090V150 CAVOK 20/15 Q1019 NOSIG",
      "taf": "TAF LEMG 011100Z 0112/0212 13010KT CAVOK TX23/0114Z TN14/0206Z"
    },
    {
      "icao": "LEVC",
      "alert": "OK",
      "vis_m": 9999,
      "fzfg": false,
      "metar_trigger": false,
      "taf_trigger": false,
      "metar": "METAR LEVC 011700Z 08007KT 040V110 9999 FEW018 20/16 Q1021 NOSIG",
      "taf": "TAF LEVC 011100Z 0112/0212 07008KT 9999 SCT020 SCT030 TX21/0113Z TN16/0206Z"
    },
    {
      "icao": "LEXJ",
      "alert": "OK",
      "vis_m": 9999,
      "fzfg": false,
      "metar_trigger": false,
      "taf_trigger": false,
      "metar": "METAR LEXJ 011700Z 01004KT 320V060 9999 FEW026 18/16 Q1017",
      "taf": "TAF LEXJ 011400Z 0115/0215 VRB03KT 9999 SCT020 TX18/0213Z TN15/0206Z"
    },
    {
      "icao": "LEZG",
      "alert": "OK",
      "vis_m": 9999,
      "fzfg": false,
      "metar_trigger": false,
      "taf_trigger": false,
      "metar": "METAR LEZG 011700Z 12013KT 9999 VCTS FEW050CB 22/12 Q1020 TEMPO 4000 TSRA FEW050CB",
      "taf": "TAF LEZG 011100Z 0112/0212 12010KT 9999 FEW030 SCT060 TX23/0114Z TN14/0206Z"
    },
    {
      "icao": "LEZL",
      "alert": "OK",
      "vis_m": 9999,
      "fzfg": false,
      "metar_trigger": false,
      "taf_trigger": false,
      "metar": "METAR LEZL 011700Z 23008KT 200V270 CAVOK 26/11 Q1017 NOSIG",
      "taf": "TAF LEZL 011400Z 0115/0215 22010KT CAVOK TX28/0115Z TN13/0206Z"
    },
    {
      "icao": "LFBD",
      "alert": "OK",
      "vis_m": 9999,
      "fzfg": false,
      "metar_trigger": false,
      "taf_trigger": false,
      "metar": "METAR LFBD 011700Z AUTO 12010KT CAVOK 23/14 Q1019 NOSIG",
      "taf": "TAF LFBD 011100Z 0112/0218 11010KT 9999 SCT035 TX24/0114Z TN14/0205Z"
    },
    {
      "icao": "LFLL",
      "alert": "OK",
      "vis_m": 9999,
      "fzfg": false,
      "metar_trigger": false,
      "taf_trigger": false,
      "metar": "METAR LFLL 011700Z 18006KT CAVOK 23/10 Q1021 NOSIG",
      "taf": "TAF LFLL 011100Z 0112/0218 19010KT CAVOK"
    },
    {
      "icao": "LFLS",
      "alert": "OK",
      "vis_m": 9999,
      "fzfg": false,
      "metar_trigger": false,
      "taf_trigger": false,
      "metar": "METAR LFLS 011700Z AUTO 19007KT 160V220 CAVOK 21/10 Q1022 TEMPO FEW055TCU",
      "taf": "TAF LFLS 011400Z 0115/0215 22005KT CAVOK"
    },
    {
      "icao": "LFMN",
      "alert": "OK",
      "vis_m": 9999,
      "fzfg": false,
      "metar_trigger": false,
      "taf_trigger": false,
      "metar": "METAR LFMN 011700Z 20003KT 160V240 CAVOK 18/08 Q1024 NOSIG",
      "taf": "TAF LFMN 011400Z 0115/0221 17004KT CAVOK"
    },
    {
      "icao": "LFOB",
      "alert": "OK",
      "vis_m": 9999,
      "fzfg": false,
      "metar_trigger": false,
      "taf_trigger": false,
      "metar": "METAR LFOB 011700Z AUTO VRB02KT 9999 ///CB 23/12 Q1019 TEMPO VRB15G30KT 2000 -TSRA BKN014 BKN025CB BKN035",
      "taf": "TAF LFOB 011100Z 0112/0212 VRB04KT CAVOK"
    },
    {
      "icao": "LFPO",
      "alert": "OK",
      "vis_m": 9999,
      "fzfg": false,
      "metar_trigger": false,
      "taf_trigger": false,
      "metar": "METAR LFPO 011700Z 02004KT 300V070 9999 VCTS FEW050CB SCT093 23/14 Q1020 TEMPO 4000 TSRA BKN050CB",
      "taf": "TAF LFPO 011100Z 0112/0218 21004KT CAVOK"
    },
    {
      "icao": "LFSB",
      "alert": "OK",
      "vis_m": 9999,
      "fzfg": false,
      "metar_trigger": false,
      "taf_trigger": false,
      "metar": "METAR LFSB 011700Z AUTO 07004KT 030V100 CAVOK 24/02 Q1021 NOSIG",
      "taf": "TAF LFSB 011100Z 0112/0212 07005KT CAVOK"
    },
    {
      "icao": "LGAV",
      "alert": "OK",
      "vis_m": 9999,
      "fzfg": false,
      "metar_trigger": false,
      "taf_trigger": false,
      "metar": "METAR LGAV 011650Z 02017KT 9999 SCT025 BKN040 12/06 Q1019 NOSIG",
      "taf": "TAF LGAV 011700Z 0118/0218 02017KT 9999 SCT020 BKN040"
    },
    {
      "icao": "LGTS",
      "alert": "OK",
      "vis_m": 9999,
      "fzfg": false,
      "metar_trigger": false,
      "taf_trigger": false,
      "metar": "METAR LGTS 011650Z VRB02KT 9999 FEW010 BKN030 11/10 Q1022 NOSIG",
      "taf": "TAF LGTS 011700Z 0118/0218 VRB03KT 9999 BKN035"
    },
    {
      "icao": "LHBP",
      "alert": "OK",
      "vis_m": 9999,
      "fzfg": false,
      "metar_trigger": false,
      "taf_trigger": false,
      "metar": "METAR LHBP 011700Z 35004KT 300V040 CAVOK 18/M00 Q1024 NOSIG",
      "taf": "TAF LHBP 011115Z 0112/0212 02007KT CAVOK"
    },
    {
      "icao": "LHDC",
      "alert": "OK",
      "vis_m": 9999,
      "fzfg": false,
      "metar_trigger": false,
      "taf_trigger": false,
      "metar": "METAR LHDC 011645Z AUTO 02007KT 340V050 CAVOK 16/M00 Q1023 NOSIG",
      "taf": "TAF LHDC 011415Z 0115/0124 36009KT CAVOK"
    },
    {
      "icao": "LIBD",
      "alert": "OK",
      "vis_m": 9999,
      "fzfg": false,
      "metar_trigger": false,
      "taf_trigger": false,
      "metar": "METAR LIBD 011650Z 34011KT 310V020 CAVOK 15/03 Q1020",
      "taf": "TAF LIBD 011100Z 0112/0212 36016KT 9999 SCT030"
    },
    {
      "icao": "LIBG",
      "alert": "OK",
      "vis_m": 9999,
      "fzfg": false,
      "metar_trigger": false,
      "taf_trigger": false,
      "metar": "METAR LIBG 011650Z 36013KT 330V030 CAVOK 15/01 Q1019",
      "taf": "TAF LIBG 011400Z 0115/0124 03015KT CAVOK"
    },
    {
      "icao": "LIBP",
      "alert": "OK",
      "vis_m": 9999,
      "fzfg": false,
      "metar_trigger": false,
      "taf_trigger": false,
      "metar": "METAR LIBP 011650Z AUTO 36007KT 320V040 9999 NCD 16/01 Q1024",
      "taf": "TAF LIBP 011100Z 0112/0212 36014KT 9999 FEW050"
    },
    {
      "icao": "LIBR",
      "alert": "OK",
      "vis_m": 9999,
      "fzfg": false,
      "metar_trigger": false,
      "taf_trigger": false,
      "metar": "METAR LIBR 011650Z 36016KT CAVOK 16/04 Q1019",
      "taf": "TAF LIBR 011100Z 0112/0212 02016G28KT CAVOK"
    },
    {
      "icao": "LICA",
      "alert": "OK",
      "vis_m": 9999,
      "fzfg": false,
      "metar_trigger": false,
      "taf_trigger": false,
      "metar": "METAR LICA 011650Z AUTO 18006KT 130V230 9999 BKN086/// 18/07 Q1017",
      "taf": "TAF LICA 011100Z 0112/0212 28015KT CAVOK"
    },
    {
      "icao": "LICC",
      "alert": "OK",
      "vis_m": null,
      "fzfg": false,
      "metar_trigger": false,
      "taf_trigger": false,
      "metar": "",
      "taf": "TAF LICC 011100Z 0112/0212 10012KT 9999 BKN030"
    },
    {
      "icao": "LICJ",
      "alert": "OK",
      "vis_m": 9999,
      "fzfg": false,
      "metar_trigger": false,
      "taf_trigger": false,
      "metar": "METAR LICJ 011650Z 04016KT 9999 FEW020 18/08 Q1019",
      "taf": "TAF LICJ 011100Z 0112/0212 06016KT 9999 FEW020"
    },
    {
      "icao": "LIMC",
      "alert": "OK",
      "vis_m": 9999,
      "fzfg": false,
      "metar_trigger": false,
      "taf_trigger": false,
      "metar": "METAR LIMC 011650Z 15004KT CAVOK 20/04 Q1025 NOSIG",
      "taf": "TAF LIMC 011100Z 0112/0218 VRB05KT 9999 SCT050"
    },
    {
      "icao": "LIME",
      "alert": "OK",
      "vis_m": 9999,
      "fzfg": false,
      "metar_trigger": false,
      "taf_trigger": false,
      "metar": "METAR LIME 011650Z 18004KT 120V220 CAVOK 19/01 Q1025 NOSIG",
      "taf": "TAF LIME 011100Z 0112/0212 VRB05KT CAVOK"
    },
    {
      "icao": "LIMF",
      "alert": "OK",
      "vis_m": 9999,
      "fzfg": false,
      "metar_trigger": false,
      "taf_trigger": false,
      "metar": "METAR LIMF 011650Z VRB02KT CAVOK 19/06 Q1025",
      "taf": "TAF LIMF 011100Z 0112/0212 VRB05KT 9999 SCT040"
    },
    {
      "icao": "LIMJ",
      "alert": "OK",
      "vis_m": 9999,
      "fzfg": false,
      "metar_trigger": false,
      "taf_trigger": false,
      "metar": "METAR LIMJ 011650Z 01012KT 340V040 CAVOK 22/02 Q1023",
      "taf": "TAF LIMJ 011100Z 0112/0212 04012KT CAVOK"
    },
    {
      "icao": "LIPE",
      "alert": "OK",
      "vis_m": 9999,
      "fzfg": false,
      "metar_trigger": false,
      "taf_trigger": false,
      "metar": "METAR LIPE 011650Z 08004KT CAVOK 19/00 Q1025",
      "taf": "TAF LIPE 011100Z 0112/0212 08010KT CAVOK"
    },
    {
      "icao": "LIPH",
      "alert": "OK",
      "vis_m": 9999,
      "fzfg": false,
      "metar_trigger": false,
      "taf_trigger": false,
      "metar": "METAR LIPH 011650Z 22008KT CAVOK 20/M02 Q1024",
      "taf": "TAF LIPH 011100Z 0112/0212 VRB06KT CAVOK"
    },
    {
      "icao": "LIPQ",
      "alert": "OK",
      "vis_m": 9999,
      "fzfg": false,
      "metar_trigger": false,
      "taf_trigger": false,
      "metar": "METAR LIPQ 011650Z AUTO 30005KT 270V340 9999 NCD 21/00 Q1023",
      "taf": "TAF LIPQ 011100Z 0112/0212 VRB05KT CAVOK"
    },
    {
      "icao": "LIPR",
      "alert": "OK",
      "vis_m": 9999,
      "fzfg": false,
      "metar_trigger": false,
      "taf_trigger": false,
      "metar": "METAR LIPR 011650Z 01006KT CAVOK 16/M01 Q1025",
      "taf": "TAF LIPR 011100Z 0112/0212 06012KT CAVOK"
    },
    {
      "icao": "LIPX",
      "alert": "OK",
      "vis_m": 9999,
      "fzfg": false,
      "metar_trigger": false,
      "taf_trigger": false,
      "metar": "METAR LIPX 011650Z 23006KT CAVOK 20/M01 Q1025",
      "taf": "TAF LIPX 011100Z 0112/0212 10008KT CAVOK"
    },
    {
      "icao": "LIPY",
      "alert": "OK",
      "vis_m": 9999,
      "fzfg": false,
      "metar_trigger": false,
      "taf_trigger": false,
      "metar": "METAR LIPY 011650Z AUTO 33008KT 9999 NCD 16/02 Q1025",
      "taf": "TAF LIPY 011100Z 0112/0212 05011KT CAVOK"
    },
    {
      "icao": "LIPZ",
      "alert": "OK",
      "vis_m": 9999,
      "fzfg": false,
      "metar_trigger": false,
      "taf_trigger": false,
      "metar": "METAR LIPZ 011650Z 21006KT CAVOK 19/02 Q1024 NOSIG",
      "taf": "TAF LIPZ 011100Z 0112/0218 15010KT CAVOK"
    },
    {
      "icao": "LIRF",
      "alert": "OK",
      "vis_m": 9999,
      "fzfg": false,
      "metar_trigger": false,
      "taf_trigger": false,
      "metar": "METAR LIRF 011650Z 35013KT CAVOK 21/02 Q1019 NOSIG",
      "taf": "TAF LIRF 011100Z 0112/0218 02010KT CAVOK"
    },
    {
      "icao": "LIRN",
      "alert": "OK",
      "vis_m": 9999,
      "fzfg": false,
      "metar_trigger": false,
      "taf_trigger": false,
      "metar": "METAR LIRN 011650Z 03014KT 360V060 CAVOK 17/M06 Q1020 NOSIG",
      "taf": "TAF LIRN 011100Z 0112/0212 03020G32KT CAVOK"
    },
    {
      "icao": "LIRP",
      "alert": "OK",
      "vis_m": 9999,
      "fzfg": false,
      "metar_trigger": false,
      "taf_trigger": false,
      "metar": "METAR LIRP 011645Z 30006KT CAVOK 20/07 Q1023 NOSIG",
      "taf": "TAF LIRP 011100Z 0112/0212 09012KT CAVOK"
    },
    {
      "icao": "LIRZ",
      "alert": "OK",
      "vis_m": 9999,
      "fzfg": false,
      "metar_trigger": false,
      "taf_trigger": false,
      "metar": "METAR LIRZ 011650Z AUTO 03013KT 9999 NCD 16/M02 Q1023",
      "taf": "TAF LIRZ 011100Z 0112/0212 04017KT 9999 FEW060"
    },
    {
      "icao": "LJLJ",
      "alert": "OK",
      "vis_m": 9999,
      "fzfg": false,
      "metar_trigger": false,
      "taf_trigger": false,
      "metar": "METAR LJLJ 011700Z 14007KT 120V200 9999 FEW070 17/02 Q1024 NOSIG",
      "taf": "TAF LJLJ 011700Z 0118/0218 VRB02KT CAVOK"
    },
    {
      "icao": "LKMT",
      "alert": "OK",
      "vis_m": 9999,
      "fzfg": false,
      "metar_trigger": false,
      "taf_trigger": false,
      "metar": "METAR LKMT 011700Z 34007KT CAVOK 19/04 Q1024 NOSIG",
      "taf": "TAF LKMT 011100Z 0112/0212 01006KT CAVOK"
    },
    {
      "icao": "LKPR",
      "alert": "OK",
      "vis_m": 9999,
      "fzfg": false,
      "metar_trigger": false,
      "taf_trigger": false,
      "metar": "METAR LKPR 011700Z 30004KT 270V330 CAVOK 20/04 Q1025 NOSIG",
      "taf": "TAF LKPR 011400Z 0115/0221 VRB02KT CAVOK"
    },
    {
      "icao": "LLBG",
      "alert": "OK",
      "vis_m": 9999,
      "fzfg": false,
      "metar_trigger": false,
      "taf_trigger": false,
      "metar": "METAR LLBG 011650Z 30006KT CAVOK 20/13 Q1012 NOSIG",
      "taf": "TAF LLBG 011704Z 0118/0218 VRB03KT CAVOK TX29/0212Z TN12/0203Z"
    },
    {
      "icao": "LMML",
      "alert": "OK",
      "vis_m": 9999,
      "fzfg": false,
      "metar_trigger": false,
      "taf_trigger": false,
      "metar": "METAR LMML 011645Z 08012KT 9999 FEW024 OVC040 17/11 Q1017 NOSIG",
      "taf": "TAF LMML 011700Z 0118/0218 07010KT 9999 FEW020 BKN045"
    },
    {
      "icao": "LOWW",
      "alert": "OK",
      "vis_m": 9999,
      "fzfg": false,
      "metar_trigger": false,
      "taf_trigger": false,
      "metar": "METAR LOWW 011650Z 33005KT CAVOK 19/05 Q1024 NOSIG",
      "taf": "TAF LOWW 011415Z 0115/0221 35010KT CAVOK TX24/0214Z TN07/0204Z"
    },
    {
      "icao": "LPFR",
      "alert": "OK",
      "vis_m": 9999,
      "fzfg": false,
      "metar_trigger": false,
      "taf_trigger": false,
      "metar": "METAR LPFR 011700Z 26011KT CAVOK 20/13 Q1018",
      "taf": "TAF LPFR 011707Z 0118/0218 26010KT CAVOK"
    },
    {
      "icao": "LPMA",
      "alert": "OK",
      "vis_m": 9999,
      "fzfg": false,
      "metar_trigger": false,
      "taf_trigger": false,
      "metar": "METAR LPMA 011700Z VRB04KT 9999 SCT013 19/13 Q1018",
      "taf": "TAF LPMA 011707Z 0118/0218 VRB05KT 9999 SCT015"
    },
    {
      "icao": "LPPR",
      "alert": "OK",
      "vis_m": 9999,
      "fzfg": false,
      "metar_trigger": false,
      "taf_trigger": false,
      "metar": "METAR LPPR 011700Z 29005KT 240V330 CAVOK 18/11 Q1018",
      "taf": "TAF LPPR 011707Z 0118/0218 29005KT CAVOK"
    },
    {
      "icao": "LPPS",
      "alert": "OK",
      "vis_m": 9999,
      "fzfg": false,
      "metar_trigger": false,
      "taf_trigger": false,
      "metar": "METAR LPPS 011700Z 26008KT 240V300 9999 FEW015 19/13 Q1019",
      "taf": "TAF LPPS 011707Z 0118/0224 27008KT 9999 SCT015"
    },
    {
      "icao": "LPPT",
      "alert": "OK",
      "vis_m": 9999,
      "fzfg": false,
      "metar_trigger": false,
      "taf_trigger": false,
      "metar": "METAR LPPT 011700Z 21007KT 170V250 9999 FEW042 20/09 Q1018",
      "taf": "TAF LPPT 011707Z 0118/0224 21008KT 9999 FEW040"
    },
    {
      "icao": "LQBK",
      "alert": "OK",
      "vis_m": 9999,
      "fzfg": false,
      "metar_trigger": false,
      "taf_trigger": false,
      "metar": "METAR LQBK 011700Z VRB03KT CAVOK 15/M01 Q1024 NOSIG",
      "taf": "TAF LQBK 011700Z 0118/0218 VRB03KT CAVOK TX17/0214Z TN02/0201Z"
    },
    {
      "icao": "LQSA",
      "alert": "OK",
      "vis_m": 9999,
      "fzfg": false,
      "metar_trigger": false,
      "taf_trigger": false,
      "metar": "METAR LQSA 011700Z 36008KT 320V040 CAVOK 13/M04 Q1023 NOSIG",
      "taf": ""
    },
    {
      "icao": "LQTZ",
      "alert": "OK",
      "vis_m": 9999,
      "fzfg": false,
      "metar_trigger": false,
      "taf_trigger": false,
      "metar": "METAR LQTZ 011700Z 03004KT 350V060 CAVOK 15/M02 Q1024",
      "taf": "TAF LQTZ 011700Z 0118/0218 VRB02KT CAVOK TX16/0213Z TNM00/0201Z"
    },
    {
      "icao": "LRBC",
      "alert": "OK",
      "vis_m": 9999,
      "fzfg": false,
      "metar_trigger": false,
      "taf_trigger": false,
      "metar": "METAR LRBC 011700Z 35005KT CAVOK 10/M03 Q1023",
      "taf": "TAF LRBC 011400Z 0115/0124 36009KT 9999 SCT065"
    },
    {
      "icao": "LRBS",
      "alert": "OK",
      "vis_m": 9999,
      "fzfg": false,
      "metar_trigger": false,
      "taf_trigger": false,
      "metar": "METAR LRBS 011700Z 11005KT CAVOK 11/M01 Q1024 NOSIG",
      "taf": "TAF LRBS 011100Z 0112/0212 VRB04KT CAVOK"
    },
    {
      "icao": "LRBV",
      "alert": "OK",
      "vis_m": 9999,
      "fzfg": false,
      "metar_trigger": false,
      "taf_trigger": false,
      "metar": "METAR LRBV 011700Z 30004KT 9999 FEW047CB OVC066 09/M02 Q1023",
      "taf": "TAF LRBV 011400Z 0115/0124 VRB04KT 9999 SCT050"
    },
    {
      "icao": "LRCL",
      "alert": "OK",
      "vis_m": 9999,
      "fzfg": false,
      "metar_trigger": false,
      "taf_trigger": false,
      "metar": "METAR LRCL 011700Z 30008KT CAVOK 13/M03 Q1023",
      "taf": "TAF LRCL 011400Z 0115/0124 VRB04KT CAVOK"
    },
    {
      "icao": "LRCV",
      "alert": "OK",
      "vis_m": 9999,
      "fzfg": false,
      "metar_trigger": false,
      "taf_trigger": false,
      "metar": "METAR LRCV 011700Z 24006KT CAVOK 10/03 Q1024",
      "taf": "TAF LRCV 011400Z 0115/0124 VRB04KT 9999 SCT040"
    },
    {
      "icao": "LRIA",
      "alert": "OK",
      "vis_m": 9999,
      "fzfg": false,
      "metar_trigger": false,
      "taf_trigger": false,
      "metar": "METAR LRIA 011700Z 30004KT CAVOK 11/M03 Q1023",
      "taf": "TAF LRIA 011400Z 0115/0124 34007KT CAVOK"
    },
    {
      "icao": "LROP",
      "alert": "OK",
      "vis_m": 9999,
      "fzfg": false,
      "metar_trigger": false,
      "taf_trigger": false,
      "metar": "METAR LROP 011700Z 11004KT CAVOK 09/04 Q1024 NOSIG",
      "taf": "TAF LROP 011100Z 0112/0212 VRB04KT CAVOK"
    },
    {
      "icao": "LRSB",
      "alert": "OK",
      "vis_m": 9999,
      "fzfg": false,
      "metar_trigger": false,
      "taf_trigger": false,
      "metar": "METAR LRSB 011700Z 32006KT 9999 FEW085 11/M03 Q1023",
      "taf": "TAF LRSB 011100Z 0112/0212 VRB04KT CAVOK"
    },
    {
      "icao": "LRSM",
      "alert": "OK",
      "vis_m": 9999,
      "fzfg": false,
      "metar_trigger": false,
      "taf_trigger": false,
      "metar": "METAR LRSM 011700Z AUTO 26004KT 9999 FEW085/// BKN140/// 14/00 Q1023",
      "taf": "TAF LRSM 011400Z 0115/0124 34012KT CAVOK"
    },
    {
      "icao": "LRSV",
      "alert": "OK",
      "vis_m": 9999,
      "fzfg": false,
      "metar_trigger": false,
      "taf_trigger": false,
      "metar": "METAR LRSV 011700Z 33008KT CAVOK 10/M01 Q1023",
      "taf": "TAF LRSV 011400Z 0115/0124 34008KT CAVOK"
    },
    {
      "icao": "LRTM",
      "alert": "OK",
      "vis_m": 9999,
      "fzfg": false,
      "metar_trigger": false,
      "taf_trigger": false,
      "metar": "METAR LRTM 011700Z 27006KT CAVOK 13/M03 Q1022",
      "taf": "TAF LRTM 011400Z 0115/0124 VRB04KT CAVOK"
    },
    {
      "icao": "LRTR",
      "alert": "OK",
      "vis_m": 9999,
      "fzfg": false,
      "metar_trigger": false,
      "taf_trigger": false,
      "metar": "METAR LRTR 011700Z 01008KT CAVOK 14/M00 Q1023",
      "taf": "TAF LRTR 011100Z 0112/0212 01008KT CAVOK"
    },
    {
      "icao": "LTAC",
      "alert": "OK",
      "vis_m": 9999,
      "fzfg": false,
      "metar_trigger": false,
      "taf_trigger": false,
      "metar": "METAR LTAC 011650Z 01007KT 9999 BKN030 BKN080 08/04 Q1014 NOSIG RMK RWY21C 03007KT RWY03L 01005KT RWY21R 02007KT RWY03R 01008KT RWY21L 04007KT",
      "taf": "TAF LTAC 011640Z 0118/0218 VRB02KT 9999 SCT035 BKN090"
    },
    {
      "icao": "LTFM",
      "alert": "OK",
      "vis_m": 9999,
      "fzfg": false,
      "metar_trigger": false,
      "taf_trigger": false,
      "metar": "METAR LTFM 011650Z 04018KT 9999 -SHRA FEW014 BKN025 BKN090 09/05 Q1022 NOSIG RMK RWY17L 05016KT RWY34L 03015KT RWY16R 05016KT RWY36 04017KT RWY18 05016KT",
      "taf": "TAF LTFM 011640Z 0118/0224 03015KT 9999 -SHRA SCT028 BKN090"
    },
    {
      "icao": "LUKK",
      "alert": "OK",
      "vis_m": 9999,
      "fzfg": false,
      "metar_trigger": false,
      "taf_trigger": false,
      "metar": "METAR LUKK 011700Z VRB03KT CAVOK 11/M03 Q1023 NOSIG",
      "taf": "TAF LUKK 011101Z 0112/0212 01010KT 9999 SCT045"
    },
    {
      "icao": "LWOH",
      "alert": "OK",
      "vis_m": 9999,
      "fzfg": false,
      "metar_trigger": false,
      "taf_trigger": false,
      "metar": "METAR LWOH 011650Z 02008KT 330V050 9999 BKN050 09/M01 Q1020",
      "taf": "TAF LWOH 011425Z 0115/0215 02012KT 9999 SCT050 BKN100"
    },
    {
      "icao": "LWSK",
      "alert": "OK",
      "vis_m": 9999,
      "fzfg": false,
      "metar_trigger": false,
      "taf_trigger": false,
      "metar": "METAR LWSK 011650Z 03005KT 9999 BKN075 12/00 Q1022 NOSIG",
      "taf": "TAF LWSK 011425Z 0115/0215 36012KT 9999 SCT060 BKN100"
    },
    {
      "icao": "LYBE",
      "alert": "OK",
      "vis_m": 9999,
      "fzfg": false,
      "metar_trigger": false,
      "taf_trigger": false,
      "metar": "METAR LYBE 011700Z 04007KT CAVOK 15/M02 Q1023 NOSIG",
      "taf": "TAF LYBE 011100Z 0112/0212 01008KT 9999 SCT045 TX17/0113Z TN03/0204Z"
    },
    {
      "icao": "LYNI",
      "alert": "OK",
      "vis_m": 9999,
      "fzfg": false,
      "metar_trigger": false,
      "taf_trigger": false,
      "metar": "METAR LYNI 011700Z 02003KT 340V060 9999 BKN090 13/M02 Q1023 NOSIG",
      "taf": "TAF LYNI 011100Z 0112/0212 34006KT 9999 SCT050 TX16/0212Z TN02/0204Z"
    },
    {
      "icao": "LYPG",
      "alert": "OK",
      "vis_m": 9999,
      "fzfg": false,
      "metar_trigger": false,
      "taf_trigger": false,
      "metar": "METAR LYPG 011700Z 03010KT 9999 FEW090 18/M04 Q1020 TEMPO 02020KT",
      "taf": "TAF LYPG 011100Z 0112/0212 36012KT CAVOK TX20/0113Z TN11/0204Z"
    },
    {
      "icao": "LZIB",
      "alert": "OK",
      "vis_m": 9999,
      "fzfg": false,
      "metar_trigger": false,
      "taf_trigger": false,
      "metar": "METAR LZIB 011700Z 35008KT CAVOK 20/03 Q1024 NOSIG",
      "taf": "TAF LZIB 011715Z 0118/0218 36004KT CAVOK"
    },
    {
      "icao": "LZKZ",
      "alert": "OK",
      "vis_m": 9999,
      "fzfg": false,
      "metar_trigger": false,
      "taf_trigger": false,
      "metar": "METAR LZKZ 011700Z 06004KT 030V090 CAVOK 15/02 Q1023 NOSIG",
      "taf": "TAF LZKZ 011715Z 0118/0218 04007KT CAVOK"
    },
    {
      "icao": "LZTT",
      "alert": "OK",
      "vis_m": 9999,
      "fzfg": false,
      "metar_trigger": false,
      "taf_trigger": false,
      "metar": "METAR LZTT 011700Z 04008KT 9999 SCT060 13/02 Q1024 NOSIG",
      "taf": "TAF LZTT 011715Z 0118/0218 VRB04KT 9999 FEW045 BKN063"
    },
    {
      "icao": "OEJN",
      "alert": "OK",
      "vis_m": 9999,
      "fzfg": false,
      "metar_trigger": false,
      "taf_trigger": false,
      "metar": "METAR OEJN 011700Z 33013KT CAVOK 31/07 Q1008 NOSIG",
      "taf": "TAF OEJN 011700Z 0118/0224 03006KT CAVOK"
    },
    {
      "icao": "OEMA",
      "alert": "OK",
      "vis_m": 9999,
      "fzfg": false,
      "metar_trigger": false,
      "taf_trigger": false,
      "metar": "METAR OEMA 011700Z 25010KT CAVOK 32/03 Q1011 NOSIG",
      "taf": "TAF OEMA 011700Z 0118/0224 VRB03KT CAVOK"
    },
    {
      "icao": "OJAI",
      "alert": "OK",
      "vis_m": 5000,
      "fzfg": false,
      "metar_trigger": false,
      "taf_trigger": false,
      "metar": "METAR OJAI 011700Z 27008KT 5000 HZ NSC 17/05 Q1013 NOSIG",
      "taf": "TAF OJAI 011645Z 0118/0224 30012KT 5000 HZ NSC"
    },
    {
      "icao": "OMAA",
      "alert": "OK",
      "vis_m": 9999,
      "fzfg": false,
      "metar_trigger": false,
      "taf_trigger": false,
      "metar": "METAR OMAA 011700Z 33006KT CAVOK 31/19 Q1007 NOSIG",
      "taf": "TAF OMAA 011700Z 0118/0300 VRB02KT CAVOK"
    },
    {
      "icao": "OMDB",
      "alert": "OK",
      "vis_m": 9999,
      "fzfg": false,
      "metar_trigger": false,
      "taf_trigger": false,
      "metar": "METAR OMDB 011700Z 25004KT 210V270 CAVOK 34/10 Q1007 NOSIG",
      "taf": "TAF OMDB 011700Z 0118/0300 23005KT CAVOK"
    },
    {
      "icao": "UAAA",
      "alert": "OK",
      "vis_m": 9999,
      "fzfg": false,
      "metar_trigger": false,
      "taf_trigger": false,
      "metar": "METAR UAAA 011700Z 15003MPS 9999 SCT100 BKN200 18/08 Q1013 NOSIG",
      "taf": ""
    },
    {
      "icao": "UBBB",
      "alert": "OK",
      "vis_m": 9999,
      "fzfg": false,
      "metar_trigger": false,
      "taf_trigger": false,
      "metar": "METAR UBBB 011700Z 18016KT 9999 BKN010 13/11 Q1015 NOSIG",
      "taf": "TAF UBBB 011709Z 0118/0218 16018KT 9999 SCT010 TX17/0210Z TN11/0201Z"
    },
    {
      "icao": "UDSG",
      "alert": "OK",
      "vis_m": 9999,
      "fzfg": false,
      "metar_trigger": false,
      "taf_trigger": false,
      "metar": "METAR UDSG 011700Z 35005KT 9999 SCT049CB 13/03 Q1015 NOSIG",
      "taf": "TAF UDSG 011100Z 0112/0212 21006KT 9999 SCT040"
    },
    {
      "icao": "UDYZ",
      "alert": "OK",
      "vis_m": 9999,
      "fzfg": false,
      "metar_trigger": false,
      "taf_trigger": false,
      "metar": "METAR UDYZ 011700Z 13009KT 9999 SCT043CB 18/04 Q1011 NOSIG",
      "taf": ""
    },
    {
      "icao": "UGKO",
      "alert": "OK",
      "vis_m": 9999,
      "fzfg": false,
      "metar_trigger": false,
      "taf_trigger": false,
      "metar": "METAR UGKO 011700Z 25009KT 9999 BKN041 13/10 Q1013 NOSIG",
      "taf": "TAF UGKO 011700Z 0118/0218 25010KT 9999 SCT020 BKN050 TX14/0211Z TN10/0202Z"
    }
  ]
}