{
  "ts_utc": "2026-07-03T15:26:10Z",
  "threshold_m": 150,
  "source": "stations_override.txt (ICAO list) + aviationweather.gov (METAR/TAF raw)",
  "station_count": 159,
  "stations": [
    {
      "icao": "BIKF",
      "alert": "OK",
      "vis_m": 9999,
      "fzfg": false,
      "metar_trigger": false,
      "taf_trigger": false,
      "metar": "METAR BIKF 031500Z 24006KT 210V300 9999 BKN028 11/03 Q1005",
      "taf": "TAF BIKF 031339Z 0315/0415 31008KT 9999 SCT030 TX12/0415Z TN05/0404Z"
    },
    {
      "icao": "BKPR",
      "alert": "OK",
      "vis_m": 9999,
      "fzfg": false,
      "metar_trigger": false,
      "taf_trigger": false,
      "metar": "METAR BKPR 031500Z 34013KT 9999 BKN050 23/16 Q1017 NOSIG",
      "taf": "TAF BKPR 031130Z 0312/0412 33010KT 9999 BKN070"
    },
    {
      "icao": "EBCI",
      "alert": "OK",
      "vis_m": 9999,
      "fzfg": false,
      "metar_trigger": false,
      "taf_trigger": false,
      "metar": "METAR EBCI 031450Z 33005KT 260V040 CAVOK 23/09 Q1027 NOSIG",
      "taf": "TAF EBCI 031101Z 0312/0418 32008KT 9999 FEW045"
    },
    {
      "icao": "EDDB",
      "alert": "OK",
      "vis_m": 9999,
      "fzfg": false,
      "metar_trigger": false,
      "taf_trigger": false,
      "metar": "METAR EDDB 031520Z AUTO 29020KT 260V320 CAVOK 22/09 Q1021 TEMPO 29020G30KT",
      "taf": "TAF EDDB 031100Z 0312/0412 28015KT 9999 SCT045"
    },
    {
      "icao": "EDDH",
      "alert": "OK",
      "vis_m": 9999,
      "fzfg": false,
      "metar_trigger": false,
      "taf_trigger": false,
      "metar": "METAR EDDH 031520Z AUTO 29015G25KT 260V330 9999 SCT032 OVC044 17/10 Q1023 NOSIG",
      "taf": "TAF EDDH 031100Z 0312/0418 29015G30KT 9999 SCT030"
    },
    {
      "icao": "EDDK",
      "alert": "OK",
      "vis_m": 9999,
      "fzfg": false,
      "metar_trigger": false,
      "taf_trigger": false,
      "metar": "METAR EDDK 031520Z AUTO 30011KT 270V330 CAVOK 24/09 Q1026 NOSIG",
      "taf": "TAF EDDK 031100Z 0312/0418 32010KT CAVOK"
    },
    {
      "icao": "EDDN",
      "alert": "OK",
      "vis_m": 9999,
      "fzfg": false,
      "metar_trigger": false,
      "taf_trigger": false,
      "metar": "METAR EDDN 031520Z AUTO 33012KT 290V020 CAVOK 24/07 Q1025 NOSIG",
      "taf": "TAF EDDN 031100Z 0312/0412 30009KT CAVOK"
    },
    {
      "icao": "EDDS",
      "alert": "OK",
      "vis_m": 9999,
      "fzfg": false,
      "metar_trigger": false,
      "taf_trigger": false,
      "metar": "METAR EDDS 031520Z AUTO 34007KT 310V030 CAVOK 26/02 Q1025 NOSIG",
      "taf": "TAF EDDS 031100Z 0312/0412 33007KT CAVOK"
    },
    {
      "icao": "EDFH",
      "alert": "OK",
      "vis_m": 9999,
      "fzfg": false,
      "metar_trigger": false,
      "taf_trigger": false,
      "metar": "METAR EDFH 031450Z VRB06KT CAVOK 23/06 Q1027",
      "taf": "TAF EDFH 031100Z 0312/0412 32005KT CAVOK"
    },
    {
      "icao": "EDJA",
      "alert": "OK",
      "vis_m": 9999,
      "fzfg": false,
      "metar_trigger": false,
      "taf_trigger": false,
      "metar": "METAR EDJA 031450Z 26008KT 220V290 CAVOK 24/06 Q1026",
      "taf": "TAF EDJA 031400Z 0315/0324 35005KT 9999 FEW050"
    },
    {
      "icao": "EDLW",
      "alert": "OK",
      "vis_m": 9999,
      "fzfg": false,
      "metar_trigger": false,
      "taf_trigger": false,
      "metar": "METAR EDLW 031450Z VRB07KT CAVOK 23/09 Q1026",
      "taf": "TAF EDLW 031100Z 0312/0412 28010KT 9999 FEW045"
    },
    {
      "icao": "EDNY",
      "alert": "OK",
      "vis_m": 9999,
      "fzfg": false,
      "metar_trigger": false,
      "taf_trigger": false,
      "metar": "METAR EDNY 031450Z 07005KT 010V110 CAVOK 26/13 Q1025",
      "taf": "TAF EDNY 031400Z 0315/0324 28005KT 9999 FEW040"
    },
    {
      "icao": "EDSB",
      "alert": "OK",
      "vis_m": 9999,
      "fzfg": false,
      "metar_trigger": false,
      "taf_trigger": false,
      "metar": "METAR EDSB 031450Z VRB03KT CAVOK 26/07 Q1025",
      "taf": "TAF EDSB 031100Z 0312/0412 36006KT CAVOK"
    },
    {
      "icao": "EETN",
      "alert": "OK",
      "vis_m": 9999,
      "fzfg": false,
      "metar_trigger": false,
      "taf_trigger": false,
      "metar": "METAR EETN 031520Z 11005KT 9999 VCSH FEW017 SCT030CB BKN040 16/15 Q1003 TEMPO 3000 TSRA",
      "taf": "TAF EETN 031139Z 0312/0412 15010KT 9999 SCT015 BKN025"
    },
    {
      "icao": "EFTU",
      "alert": "OK",
      "vis_m": 9999,
      "fzfg": false,
      "metar_trigger": false,
      "taf_trigger": false,
      "metar": "METAR EFTU 031520Z AUTO 23009KT 200V280 9999 BKN032 //////CB 21/13 Q1001",
      "taf": "TAF EFTU 031434Z 0315/0415 21006KT 9999 BKN030 FEW040CB"
    },
    {
      "icao": "EGBB",
      "alert": "OK",
      "vis_m": 9999,
      "fzfg": false,
      "metar_trigger": false,
      "taf_trigger": false,
      "metar": "METAR EGBB 031520Z 23009KT 180V270 CAVOK 25/10 Q1027",
      "taf": "TAF EGBB 031053Z 0312/0412 24008KT 9999 FEW035"
    },
    {
      "icao": "EGGP",
      "alert": "OK",
      "vis_m": 9999,
      "fzfg": false,
      "metar_trigger": false,
      "taf_trigger": false,
      "metar": "METAR EGGP 031520Z 29009KT 240V330 9999 FEW039 22/12 Q1026",
      "taf": "TAF EGGP 031056Z 0312/0412 27008KT 9999 SCT045"
    },
    {
      "icao": "EGGW",
      "alert": "OK",
      "vis_m": 9999,
      "fzfg": false,
      "metar_trigger": false,
      "taf_trigger": false,
      "metar": "METAR EGGW 031520Z AUTO 26011KT 210V280 9999 NCD 25/09 Q1027",
      "taf": "TAF EGGW 031053Z 0312/0412 29008KT 9999 FEW040"
    },
    {
      "icao": "EGKK",
      "alert": "OK",
      "vis_m": 9999,
      "fzfg": false,
      "metar_trigger": false,
      "taf_trigger": false,
      "metar": "METAR EGKK 031520Z 26007KT 220V360 CAVOK 25/09 Q1028",
      "taf": "TAF EGKK 031056Z 0312/0418 30006KT 9999 FEW030"
    },
    {
      "icao": "EGNM",
      "alert": "OK",
      "vis_m": 9999,
      "fzfg": false,
      "metar_trigger": false,
      "taf_trigger": false,
      "metar": "METAR EGNM 031520Z 25012KT 230V290 9999 SCT032 18/11 Q1026",
      "taf": "TAF EGNM 031055Z 0312/0412 26012KT 9999 SCT025"
    },
    {
      "icao": "EGPD",
      "alert": "OK",
      "vis_m": 9999,
      "fzfg": false,
      "metar_trigger": false,
      "taf_trigger": false,
      "metar": "METAR EGPD 031520Z AUTO 08005KT 040V130 9999 NCD 21/10 Q1020",
      "taf": "TAF EGPD 031057Z 0312/0412 26009KT 9999 FEW040"
    },
    {
      "icao": "EGPF",
      "alert": "OK",
      "vis_m": 9999,
      "fzfg": false,
      "metar_trigger": false,
      "taf_trigger": false,
      "metar": "METAR EGPF 031520Z AUTO 23011KT 9999 FEW019 BKN025 15/12 Q1024",
      "taf": "TAF EGPF 031056Z 0312/0412 23010KT 9999 -RA BKN020"
    },
    {
      "icao": "EHBK",
      "alert": "OK",
      "vis_m": 9999,
      "fzfg": false,
      "metar_trigger": false,
      "taf_trigger": false,
      "metar": "METAR EHBK 031455Z AUTO VRB05KT 9999 NSC 24/10 Q1026 NOSIG",
      "taf": "TAF EHBK 031108Z 0312/0418 30010KT CAVOK"
    },
    {
      "icao": "EHEH",
      "alert": "OK",
      "vis_m": 9999,
      "fzfg": false,
      "metar_trigger": false,
      "taf_trigger": false,
      "metar": "METAR EHEH 031455Z AUTO 30008KT 230V010 9999 FEW049 BKN390 22/11 Q1027 BLU NOSIG RMK TREND REMOTE BY EHWX",
      "taf": "TAF EHEH 031139Z 0312/0418 29008KT 9999 BKN045"
    },
    {
      "icao": "EKBI",
      "alert": "OK",
      "vis_m": 9999,
      "fzfg": false,
      "metar_trigger": false,
      "taf_trigger": false,
      "metar": "METAR EKBI 031520Z AUTO 29020G32KT 9999 BKN029/// 15/08 Q1020",
      "taf": "TAF EKBI 031427Z 0315/0415 28022KT 9999 BKN025"
    },
    {
      "icao": "EKCH",
      "alert": "OK",
      "vis_m": 9999,
      "fzfg": false,
      "metar_trigger": false,
      "taf_trigger": false,
      "metar": "METAR EKCH 031520Z AUTO 28024KT 9999 BKN027/// 17/11 Q1015 TEMPO 28022G30KT",
      "taf": "TAF EKCH 031427Z 0315/0415 28020KT 9999 BKN025"
    },
    {
      "icao": "ENAL",
      "alert": "OK",
      "vis_m": 9999,
      "fzfg": false,
      "metar_trigger": false,
      "taf_trigger": false,
      "metar": "METAR ENAL 031450Z 23013KT 9999 FEW027 15/09 Q1016",
      "taf": "TAF ENAL 031400Z 0315/0324 28008KT 9999 SCT009 BKN020"
    },
    {
      "icao": "ENBR",
      "alert": "OK",
      "vis_m": 9999,
      "fzfg": false,
      "metar_trigger": false,
      "taf_trigger": false,
      "metar": "METAR ENBR 031450Z 30006KT 240V330 9999 FEW023 SCT031 BKN040 13/08 Q1019 NOSIG RMK WIND 1200FT 29011KT",
      "taf": "TAF ENBR 031100Z 0312/0412 34015KT 9999 FEW010 BKN025"
    },
    {
      "icao": "ENGM",
      "alert": "OK",
      "vis_m": 9999,
      "fzfg": false,
      "metar_trigger": false,
      "taf_trigger": false,
      "metar": "METAR ENGM 031450Z 27004KT 9999 VCSH FEW039CB 18/10 Q1009 TEMPO 35015G25KT SHRA FEW030CB",
      "taf": ""
    },
    {
      "icao": "ENHD",
      "alert": "OK",
      "vis_m": 9999,
      "fzfg": false,
      "metar_trigger": false,
      "taf_trigger": false,
      "metar": "METAR ENHD 031450Z 29014KT 9999 BKN039 15/09 Q1019",
      "taf": "TAF ENHD 031400Z 0315/0322 32015KT 9999 SCT022 BKN035"
    },
    {
      "icao": "ENTC",
      "alert": "OK",
      "vis_m": 9999,
      "fzfg": false,
      "metar_trigger": false,
      "taf_trigger": false,
      "metar": "METAR ENTC 031450Z 03013KT CAVOK 15/09 Q1007 NOSIG RMK WIND 2600FT 13003KT",
      "taf": "TAF ENTC 031100Z 0312/0412 02010KT 9999 FEW060"
    },
    {
      "icao": "ENTO",
      "alert": "OK",
      "vis_m": 9999,
      "fzfg": false,
      "metar_trigger": false,
      "taf_trigger": false,
      "metar": "METAR ENTO 031450Z 30006KT 9999 VCSH SCT040CB 19/12 Q1010 TEMPO SHRA FEW040CB",
      "taf": "TAF ENTO 031100Z 0312/0412 32012KT 9999 FEW040"
    },
    {
      "icao": "ENVA",
      "alert": "OK",
      "vis_m": 9999,
      "fzfg": false,
      "metar_trigger": false,
      "taf_trigger": false,
      "metar": "METAR ENVA 031450Z 28018KT 9999 FEW012 BKN018 14/11 Q1013 TEMPO SHRA BKN014 SCT020CB RMK WIND 670FT 28019KT",
      "taf": "TAF ENVA 031100Z 0312/0412 26020KT 9999 -RA SCT015 BKN018"
    },
    {
      "icao": "ENZV",
      "alert": "OK",
      "vis_m": 9999,
      "fzfg": false,
      "metar_trigger": false,
      "taf_trigger": false,
      "metar": "METAR ENZV 031450Z 30016KT 9999 SCT038 15/10 Q1020 NOSIG",
      "taf": "TAF ENZV 031100Z 0312/0412 30020KT 9999 BKN030"
    },
    {
      "icao": "EPGD",
      "alert": "OK",
      "vis_m": 9999,
      "fzfg": false,
      "metar_trigger": false,
      "taf_trigger": false,
      "metar": "METAR EPGD 031500Z 26018KT 9999 -SHRA FEW005 BKN012 SCT015TCU 14/12 Q1014",
      "taf": "TAF EPGD 031130Z 0312/0412 25015KT 9999 SCT015"
    },
    {
      "icao": "EPKK",
      "alert": "OK",
      "vis_m": 9999,
      "fzfg": false,
      "metar_trigger": false,
      "taf_trigger": false,
      "metar": "METAR EPKK 031500Z 30014KT 9999 FEW063 22/07 Q1019",
      "taf": "TAF EPKK 031430Z 0315/0415 30014KT 9999 BKN045"
    },
    {
      "icao": "EPKT",
      "alert": "OK",
      "vis_m": 9999,
      "fzfg": false,
      "metar_trigger": false,
      "taf_trigger": false,
      "metar": "METAR EPKT 031500Z 29016KT CAVOK 21/06 Q1019",
      "taf": "TAF EPKT 031130Z 0312/0412 30015G25KT CAVOK"
    },
    {
      "icao": "EPLB",
      "alert": "OK",
      "vis_m": 9999,
      "fzfg": false,
      "metar_trigger": false,
      "taf_trigger": false,
      "metar": "METAR EPLB 031500Z 32014KT 290V360 CAVOK 24/07 Q1015",
      "taf": "TAF EPLB 031130Z 0312/0412 29011KT 9999 FEW020 BKN040"
    },
    {
      "icao": "EPMO",
      "alert": "OK",
      "vis_m": 9999,
      "fzfg": false,
      "metar_trigger": false,
      "taf_trigger": false,
      "metar": "METAR EPMO 031500Z 28015KT CAVOK 22/08 Q1016",
      "taf": "TAF EPMO 031130Z 0312/0412 28015KT 9999 SCT040"
    },
    {
      "icao": "EPPO",
      "alert": "OK",
      "vis_m": 9999,
      "fzfg": false,
      "metar_trigger": false,
      "taf_trigger": false,
      "metar": "METAR EPPO 031500Z 27018KT CAVOK 21/08 Q1018",
      "taf": "TAF EPPO 031130Z 0312/0412 28018KT CAVOK"
    },
    {
      "icao": "EPRA",
      "alert": "OK",
      "vis_m": 9999,
      "fzfg": false,
      "metar_trigger": false,
      "taf_trigger": false,
      "metar": "METAR EPRA 031500Z 31012G23KT 270V350 CAVOK 23/06 Q1016",
      "taf": "TAF EPRA 031430Z 0315/0324 29012KT CAVOK"
    },
    {
      "icao": "EPRZ",
      "alert": "OK",
      "vis_m": 9999,
      "fzfg": false,
      "metar_trigger": false,
      "taf_trigger": false,
      "metar": "METAR EPRZ 031500Z 31013KT CAVOK 23/08 Q1016",
      "taf": "TAF EPRZ 031130Z 0312/0412 28012KT 9999 BKN035"
    },
    {
      "icao": "EPSC",
      "alert": "OK",
      "vis_m": 9999,
      "fzfg": false,
      "metar_trigger": false,
      "taf_trigger": false,
      "metar": "METAR EPSC 031500Z 29018KT CAVOK 19/08 Q1017",
      "taf": "TAF EPSC 031130Z 0312/0412 27013KT CAVOK"
    },
    {
      "icao": "EPSY",
      "alert": "OK",
      "vis_m": 9999,
      "fzfg": false,
      "metar_trigger": false,
      "taf_trigger": false,
      "metar": "METAR EPSY 031500Z 26012G23KT 210V300 9999 SCT036 19/10 Q1014",
      "taf": "TAF EPSY 031430Z 0315/0324 27014KT 9999 SCT040"
    },
    {
      "icao": "EPWA",
      "alert": "OK",
      "vis_m": 9999,
      "fzfg": false,
      "metar_trigger": false,
      "taf_trigger": false,
      "metar": "METAR EPWA 031500Z 30018KT CAVOK 21/07 Q1016 NOSIG",
      "taf": "TAF EPWA 031430Z 0315/0415 28015KT CAVOK"
    },
    {
      "icao": "EPWR",
      "alert": "OK",
      "vis_m": 9999,
      "fzfg": false,
      "metar_trigger": false,
      "taf_trigger": false,
      "metar": "METAR EPWR 031500Z 28016KT CAVOK 22/07 Q1020",
      "taf": "TAF EPWR 031430Z 0315/0415 29017KT CAVOK"
    },
    {
      "icao": "ESGG",
      "alert": "OK",
      "vis_m": 9999,
      "fzfg": false,
      "metar_trigger": false,
      "taf_trigger": false,
      "metar": "METAR ESGG 031520Z 29012KT 260V320 9999 SCT032 19/12 Q1010",
      "taf": "TAF ESGG 031430Z 0315/0415 29012G22KT CAVOK"
    },
    {
      "icao": "ESKN",
      "alert": "OK",
      "vis_m": 9999,
      "fzfg": false,
      "metar_trigger": false,
      "taf_trigger": false,
      "metar": "METAR ESKN 031520Z 33012KT 290V360 9999 FEW011 SCT022CB BKN079 18/15 Q1003 RERA",
      "taf": "TAF ESKN 031430Z 0315/0415 31010KT 9999 SCT015 BKN040"
    },
    {
      "icao": "ESMS",
      "alert": "OK",
      "vis_m": 9999,
      "fzfg": false,
      "metar_trigger": false,
      "taf_trigger": false,
      "metar": "METAR ESMS 031520Z 27018KT 9999 BKN025 16/11 Q1013",
      "taf": "TAF ESMS 031427Z 0315/0415 28020KT 9999 BKN025"
    },
    {
      "icao": "ESSA",
      "alert": "OK",
      "vis_m": 9999,
      "fzfg": false,
      "metar_trigger": false,
      "taf_trigger": false,
      "metar": "METAR ESSA 031520Z 02015KT 9999 -SHRA FEW023CB SCT034 BKN057 15/13 Q1002 TEMPO SCT050CB",
      "taf": "TAF ESSA 031430Z 0315/0415 35012KT 9999 BKN020"
    },
    {
      "icao": "EYKA",
      "alert": "OK",
      "vis_m": 9999,
      "fzfg": false,
      "metar_trigger": false,
      "taf_trigger": false,
      "metar": "METAR EYKA 031520Z 26014KT 9999 SCT047CB 19/11 Q1010",
      "taf": "TAF EYKA 031100Z 0312/0412 27010KT 9000 SCT045"
    },
    {
      "icao": "EYPA",
      "alert": "OK",
      "vis_m": 6000,
      "fzfg": false,
      "metar_trigger": false,
      "taf_trigger": false,
      "metar": "METAR EYPA 031520Z 25008KT 200V300 6000 -SHRA BKN012CB BKN023 BKN031 16/15 Q1007",
      "taf": "TAF EYPA 031100Z 0312/0412 27015G25KT 9000 BKN025"
    },
    {
      "icao": "EYVI",
      "alert": "OK",
      "vis_m": 9999,
      "fzfg": false,
      "metar_trigger": false,
      "taf_trigger": false,
      "metar": "METAR EYVI 031520Z 28014KT 250V310 CAVOK 21/09 Q1011 TEMPO FEW050TCU",
      "taf": "TAF EYVI 031100Z 0312/0412 26012KT 9000 SCT040"
    },
    {
      "icao": "GCFV",
      "alert": "OK",
      "vis_m": 9999,
      "fzfg": false,
      "metar_trigger": false,
      "taf_trigger": false,
      "metar": "METAR GCFV 031500Z 12006KT 090V160 9999 FEW020 25/20 Q1015",
      "taf": "TAF GCFV 031400Z 0315/0415 12006KT 9999 FEW020 TX27/0414Z TN21/0406Z"
    },
    {
      "icao": "GCLP",
      "alert": "OK",
      "vis_m": 9999,
      "fzfg": false,
      "metar_trigger": false,
      "taf_trigger": false,
      "metar": "METAR GCLP 031500Z 06011KT 9999 FEW020 26/19 Q1015 NOSIG",
      "taf": "TAF GCLP 031400Z 0315/0415 07010KT 9999 FEW020 TX27/0414Z TN21/0406Z"
    },
    {
      "icao": "GCTS",
      "alert": "OK",
      "vis_m": 9999,
      "fzfg": false,
      "metar_trigger": false,
      "taf_trigger": false,
      "metar": "METAR GCTS 031500Z 14009KT 9999 FEW030 25/19 Q1016 NOSIG",
      "taf": "TAF GCTS 031400Z 0315/0415 18006KT 9999 SCT030 TX27/0414Z TN22/0406Z"
    },
    {
      "icao": "GMAD",
      "alert": "OK",
      "vis_m": 6000,
      "fzfg": false,
      "metar_trigger": false,
      "taf_trigger": false,
      "metar": "METAR GMAD 031500Z 23010KT 6000 SCT026TCU SCT200 29/20 Q1013 NOSIG",
      "taf": "TAF GMAD 031100Z 0312/0418 26014KT 8000 SCT016 BKN100"
    },
    {
      "icao": "GMMN",
      "alert": "OK",
      "vis_m": 9999,
      "fzfg": false,
      "metar_trigger": false,
      "taf_trigger": false,
      "metar": "METAR GMMN 031500Z 33008KT 300V010 CAVOK 41/14 Q1014 NOSIG",
      "taf": "TAF GMMN 031100Z 0312/0418 33005KT CAVOK"
    },
    {
      "icao": "GMMX",
      "alert": "OK",
      "vis_m": 9999,
      "fzfg": false,
      "metar_trigger": false,
      "taf_trigger": false,
      "metar": "METAR GMMX 031500Z 28005KT 200V320 9999 SCT033 BKN200 42/11 Q1014 NOSIG",
      "taf": ""
    },
    {
      "icao": "HEGN",
      "alert": "OK",
      "vis_m": 9999,
      "fzfg": false,
      "metar_trigger": false,
      "taf_trigger": false,
      "metar": "METAR HEGN 031500Z 35013KT CAVOK 35/14 Q1005 NOSIG",
      "taf": "TAF HEGN 031100Z 0312/0418 01010G20KT CAVOK"
    },
    {
      "icao": "HEMA",
      "alert": "OK",
      "vis_m": 9999,
      "fzfg": false,
      "metar_trigger": false,
      "taf_trigger": false,
      "metar": "METAR HEMA 031500Z 36010KT CAVOK 34/11 Q1005 NOSIG",
      "taf": "TAF HEMA 031100Z 0312/0418 36012G22KT 6000 NSC"
    },
    {
      "icao": "HESH",
      "alert": "OK",
      "vis_m": 9999,
      "fzfg": false,
      "metar_trigger": false,
      "taf_trigger": false,
      "metar": "METAR HESH 031500Z 35013KT CAVOK 37/13 Q1005 NOSIG",
      "taf": "TAF HESH 031100Z 0312/0418 02010G20KT CAVOK"
    },
    {
      "icao": "HESX",
      "alert": "OK",
      "vis_m": 9999,
      "fzfg": false,
      "metar_trigger": false,
      "taf_trigger": false,
      "metar": "METAR HESX 031500Z 34013KT CAVOK 34/15 Q1009 NOSIG",
      "taf": "TAF HESX 031100Z 0312/0418 33010KT CAVOK"
    },
    {
      "icao": "LATI",
      "alert": "OK",
      "vis_m": 9999,
      "fzfg": false,
      "metar_trigger": false,
      "taf_trigger": false,
      "metar": "METAR LATI 031520Z 31014KT CAVOK 32/18 Q1010 NOSIG",
      "taf": "TAF LATI 031100Z 0312/0412 31012KT 9999 FEW040CB SCT080 TX35/0412Z TN20/0404Z"
    },
    {
      "icao": "LBPD",
      "alert": "OK",
      "vis_m": 9999,
      "fzfg": false,
      "metar_trigger": false,
      "taf_trigger": false,
      "metar": "METAR LBPD 031500Z AUTO 03003KT 340V080 9999 BKN150/// 31/18 Q1010 NOSIG",
      "taf": "TAF LBPD 031100Z 0312/0412 29014KT 9999 SCT050"
    },
    {
      "icao": "LBSF",
      "alert": "OK",
      "vis_m": 9999,
      "fzfg": false,
      "metar_trigger": false,
      "taf_trigger": false,
      "metar": "METAR LBSF 031500Z AUTO 29015KT 9999 -SHRA FEW026/// SCT054/// BKN084/// //////CB 24/17 Q1014 NOSIG",
      "taf": "TAF LBSF 031100Z 0312/0412 30010KT 9999 SCT050"
    },
    {
      "icao": "LBWN",
      "alert": "OK",
      "vis_m": 9999,
      "fzfg": false,
      "metar_trigger": false,
      "taf_trigger": false,
      "metar": "METAR LBWN 031500Z 03007KT 9999 FEW035 30/18 Q1008 NOSIG",
      "taf": "TAF LBWN 031100Z 0312/0412 28012KT 9999 SCT030 SCT045"
    },
    {
      "icao": "LCLK",
      "alert": "OK",
      "vis_m": 9999,
      "fzfg": false,
      "metar_trigger": false,
      "taf_trigger": false,
      "metar": "METAR LCLK 031500Z 22023KT CAVOK 30/24 Q1004 NOSIG",
      "taf": "TAF LCLK 031130Z 0312/0412 22018KT 9999 FEW025"
    },
    {
      "icao": "LCPH",
      "alert": "OK",
      "vis_m": 9999,
      "fzfg": false,
      "metar_trigger": false,
      "taf_trigger": false,
      "metar": "METAR LCPH 031500Z 31010KT 250V320 9999 FEW016 28/23 Q1006 NOSIG",
      "taf": "TAF LCPH 031130Z 0312/0412 28014KT 9999 SCT018"
    },
    {
      "icao": "LEAL",
      "alert": "OK",
      "vis_m": 9999,
      "fzfg": false,
      "metar_trigger": false,
      "taf_trigger": false,
      "metar": "METAR LEAL 031500Z 16009KT 110V210 CAVOK 33/12 Q1022 NOSIG",
      "taf": "TAF LEAL 031100Z 0312/0412 15009KT CAVOK TX33/0312Z TN21/0406Z"
    },
    {
      "icao": "LEBB",
      "alert": "OK",
      "vis_m": 9999,
      "fzfg": false,
      "metar_trigger": false,
      "taf_trigger": false,
      "metar": "METAR LEBB 031500Z 33007KT 280V360 9999 SCT018 BKN028 24/20 Q1028 NOSIG",
      "taf": "TAF LEBB 031100Z 0312/0412 35007KT 9999 BKN025 TX29/0412Z TN18/0401Z"
    },
    {
      "icao": "LEBL",
      "alert": "OK",
      "vis_m": 9999,
      "fzfg": false,
      "metar_trigger": false,
      "taf_trigger": false,
      "metar": "METAR LEBL 031500Z 21011KT 170V240 CAVOK 28/20 Q1021 NOSIG",
      "taf": ""
    },
    {
      "icao": "LECH",
      "alert": "OK",
      "vis_m": 9999,
      "fzfg": false,
      "metar_trigger": false,
      "taf_trigger": false,
      "metar": "METAR LECH 031500Z AUTO 14011KT 100V170 CAVOK 29/17 Q1023",
      "taf": "TAF LECH 031100Z 0312/0412 18008KT CAVOK TX34/0312Z TN19/0406Z"
    },
    {
      "icao": "LEMD",
      "alert": "OK",
      "vis_m": 9999,
      "fzfg": false,
      "metar_trigger": false,
      "taf_trigger": false,
      "metar": "METAR LEMD 031500Z 18004KT CAVOK 36/05 Q1023 NOSIG",
      "taf": "TAF LEMD 031100Z 0312/0418 VRB04KT CAVOK TX37/0316Z TN20/0405Z"
    },
    {
      "icao": "LEMG",
      "alert": "OK",
      "vis_m": 9999,
      "fzfg": false,
      "metar_trigger": false,
      "taf_trigger": false,
      "metar": "METAR LEMG 031500Z 12008KT 060V160 CAVOK 29/18 Q1022 NOSIG",
      "taf": "TAF LEMG 031100Z 0312/0412 12011KT 9999 FEW035 TX28/0314Z TN21/0405Z"
    },
    {
      "icao": "LEVC",
      "alert": "OK",
      "vis_m": 9999,
      "fzfg": false,
      "metar_trigger": false,
      "taf_trigger": false,
      "metar": "METAR LEVC 031500Z 12013KT CAVOK 31/18 Q1020 NOSIG",
      "taf": "TAF LEVC 031100Z 0312/0412 13009KT CAVOK TX35/0312Z TN22/0406Z"
    },
    {
      "icao": "LEXJ",
      "alert": "OK",
      "vis_m": 9999,
      "fzfg": false,
      "metar_trigger": false,
      "taf_trigger": false,
      "metar": "METAR LEXJ 031500Z 05005KT 9999 FEW025 SCT034 24/19 Q1028",
      "taf": "TAF LEXJ 031400Z 0315/0415 05009KT 9999 FEW020 BKN030 TX28/0412Z TN18/0405Z"
    },
    {
      "icao": "LEZG",
      "alert": "OK",
      "vis_m": 9999,
      "fzfg": false,
      "metar_trigger": false,
      "taf_trigger": false,
      "metar": "METAR LEZG 031500Z 30020G30KT 270V340 CAVOK 33/14 Q1021 NOSIG",
      "taf": "TAF LEZG 031100Z 0312/0412 30015KT CAVOK TX35/0314Z TN19/0406Z"
    },
    {
      "icao": "LEZL",
      "alert": "OK",
      "vis_m": 9999,
      "fzfg": false,
      "metar_trigger": false,
      "taf_trigger": false,
      "metar": "METAR LEZL 031500Z 13008G20KT 020V190 CAVOK 41/17 Q1016 NOSIG",
      "taf": "TAF LEZL 031400Z 0315/0415 10009KT CAVOK TX41/0315Z TN25/0405Z"
    },
    {
      "icao": "LFBD",
      "alert": "OK",
      "vis_m": 9999,
      "fzfg": false,
      "metar_trigger": false,
      "taf_trigger": false,
      "metar": "METAR LFBD 031500Z AUTO 30007KT 260V030 CAVOK 30/18 Q1026 NOSIG",
      "taf": "TAF LFBD 031100Z 0312/0418 33005KT 9999 BKN020 TX35/0415Z TN17/0405Z"
    },
    {
      "icao": "LFLL",
      "alert": "OK",
      "vis_m": 9999,
      "fzfg": false,
      "metar_trigger": false,
      "taf_trigger": false,
      "metar": "METAR LFLL 031500Z 35015KT 320V020 CAVOK 29/10 Q1023 NOSIG",
      "taf": "TAF LFLL 031100Z 0312/0418 35012KT CAVOK"
    },
    {
      "icao": "LFLS",
      "alert": "OK",
      "vis_m": 9999,
      "fzfg": false,
      "metar_trigger": false,
      "taf_trigger": false,
      "metar": "METAR LFLS 031500Z AUTO 35015KT 310V010 CAVOK 29/10 Q1023 TEMPO 35018G28KT",
      "taf": "TAF LFLS 031400Z 0315/0415 35015KT CAVOK"
    },
    {
      "icao": "LFMN",
      "alert": "OK",
      "vis_m": 9999,
      "fzfg": false,
      "metar_trigger": false,
      "taf_trigger": false,
      "metar": "METAR LFMN 031500Z 19005KT CAVOK 29/20 Q1018 NOSIG",
      "taf": "TAF LFMN 031400Z 0315/0421 19006KT CAVOK"
    },
    {
      "icao": "LFOB",
      "alert": "OK",
      "vis_m": 9999,
      "fzfg": false,
      "metar_trigger": false,
      "taf_trigger": false,
      "metar": "METAR LFOB 031500Z AUTO 34005KT 260V030 CAVOK 27/09 Q1027 NOSIG",
      "taf": "TAF LFOB 031100Z 0312/0412 33008KT CAVOK"
    },
    {
      "icao": "LFPO",
      "alert": "OK",
      "vis_m": 9999,
      "fzfg": false,
      "metar_trigger": false,
      "taf_trigger": false,
      "metar": "METAR LFPO 031500Z 34009KT 290V030 CAVOK 29/08 Q1027 NOSIG",
      "taf": "TAF LFPO 031100Z 0312/0418 34005KT CAVOK"
    },
    {
      "icao": "LFSB",
      "alert": "OK",
      "vis_m": 9999,
      "fzfg": false,
      "metar_trigger": false,
      "taf_trigger": false,
      "metar": "METAR LFSB 031500Z AUTO 02010KT 350V070 CAVOK 28/08 Q1025 NOSIG",
      "taf": "TAF LFSB 031100Z 0312/0412 36008KT CAVOK"
    },
    {
      "icao": "LGAV",
      "alert": "OK",
      "vis_m": 9999,
      "fzfg": false,
      "metar_trigger": false,
      "taf_trigger": false,
      "metar": "METAR LGAV 031520Z 06007KT 030V100 9999 FEW025 31/15 Q1010 NOSIG",
      "taf": "TAF LGAV 031100Z 0312/0412 02010KT 9999 FEW025"
    },
    {
      "icao": "LGTS",
      "alert": "OK",
      "vis_m": 9999,
      "fzfg": false,
      "metar_trigger": false,
      "taf_trigger": false,
      "metar": "METAR LGTS 031450Z 26010KT 9999 FEW025 34/18 Q1009 NOSIG",
      "taf": "TAF LGTS 031100Z 0312/0412 33013KT 9999 FEW030"
    },
    {
      "icao": "LHBP",
      "alert": "OK",
      "vis_m": 9999,
      "fzfg": false,
      "metar_trigger": false,
      "taf_trigger": false,
      "metar": "METAR LHBP 031500Z 30022KT CAVOK 29/09 Q1017 NOSIG",
      "taf": "TAF LHBP 031115Z 0312/0412 31016G28KT CAVOK"
    },
    {
      "icao": "LHDC",
      "alert": "OK",
      "vis_m": 9999,
      "fzfg": false,
      "metar_trigger": false,
      "taf_trigger": false,
      "metar": "METAR LHDC 031445Z AUTO 03015KT 350V060 CAVOK 28/14 Q1014 NOSIG",
      "taf": "TAF LHDC 031415Z 0315/0324 35012G22KT CAVOK"
    },
    {
      "icao": "LIBD",
      "alert": "OK",
      "vis_m": 9999,
      "fzfg": false,
      "metar_trigger": false,
      "taf_trigger": false,
      "metar": "METAR LIBD 031450Z 35009KT 290V020 CAVOK 29/20 Q1014",
      "taf": "TAF LIBD 031100Z 0312/0412 34012KT 9999 FEW040"
    },
    {
      "icao": "LIBG",
      "alert": "OK",
      "vis_m": 9999,
      "fzfg": false,
      "metar_trigger": false,
      "taf_trigger": false,
      "metar": "METAR LIBG 031450Z AUTO 36013KT 330V030 9999 NCD 32/16 Q1012",
      "taf": "TAF LIBG 031100Z 0312/0412 36013KT 9999 SCT050"
    },
    {
      "icao": "LIBP",
      "alert": "OK",
      "vis_m": 9999,
      "fzfg": false,
      "metar_trigger": false,
      "taf_trigger": false,
      "metar": "METAR LIBP 031450Z AUTO 01010KT 340V050 9999 NCD 30/19 Q1016",
      "taf": "TAF LIBP 031100Z 0312/0412 03010KT 9999 FEW080"
    },
    {
      "icao": "LIBR",
      "alert": "OK",
      "vis_m": 9999,
      "fzfg": false,
      "metar_trigger": false,
      "taf_trigger": false,
      "metar": "METAR LIBR 031450Z 34014KT CAVOK 29/22 Q1012",
      "taf": "TAF LIBR 031100Z 0312/0412 35015KT CAVOK"
    },
    {
      "icao": "LICA",
      "alert": "OK",
      "vis_m": 9999,
      "fzfg": false,
      "metar_trigger": false,
      "taf_trigger": false,
      "metar": "METAR LICA 031450Z AUTO 22006KT 190V250 9999 NCD 28/21 Q1013",
      "taf": "TAF LICA 031100Z 0312/0412 26010KT 9999 FEW030"
    },
    {
      "icao": "LICC",
      "alert": "OK",
      "vis_m": 9999,
      "fzfg": false,
      "metar_trigger": false,
      "taf_trigger": false,
      "metar": "METAR LICC 031450Z 33008KT 220V360 9999 FEW025 SCT050 27/20 Q1013",
      "taf": "TAF LICC 031100Z 0312/0412 07012KT 9999 FEW040"
    },
    {
      "icao": "LICJ",
      "alert": "OK",
      "vis_m": 9999,
      "fzfg": false,
      "metar_trigger": false,
      "taf_trigger": false,
      "metar": "METAR LICJ 031450Z 36005KT 9999 SCT030 28/21 Q1014",
      "taf": ""
    },
    {
      "icao": "LIMC",
      "alert": "OK",
      "vis_m": 9999,
      "fzfg": false,
      "metar_trigger": false,
      "taf_trigger": false,
      "metar": "METAR LIMC 031450Z 25008KT 210V280 9999 FEW080 32/12 Q1018 NOSIG",
      "taf": "TAF LIMC 031100Z 0312/0418 VRB05KT CAVOK"
    },
    {
      "icao": "LIME",
      "alert": "OK",
      "vis_m": 9999,
      "fzfg": false,
      "metar_trigger": false,
      "taf_trigger": false,
      "metar": "METAR LIME 031450Z 20006KT 140V240 9999 FEW045 32/14 Q1018 NOSIG",
      "taf": "TAF LIME 031100Z 0312/0412 VRB05KT CAVOK"
    },
    {
      "icao": "LIMF",
      "alert": "OK",
      "vis_m": 9999,
      "fzfg": false,
      "metar_trigger": false,
      "taf_trigger": false,
      "metar": "METAR LIMF 031450Z 13005KT 070V190 CAVOK 33/08 Q1019",
      "taf": "TAF LIMF 031100Z 0312/0412 VRB05KT CAVOK"
    },
    {
      "icao": "LIMJ",
      "alert": "OK",
      "vis_m": 9999,
      "fzfg": false,
      "metar_trigger": false,
      "taf_trigger": false,
      "metar": "METAR LIMJ 031450Z 23006KT 9999 SCT050 29/20 Q1017",
      "taf": "TAF LIMJ 031100Z 0312/0412 19010KT 9999 FEW050"
    },
    {
      "icao": "LIPE",
      "alert": "OK",
      "vis_m": 9999,
      "fzfg": false,
      "metar_trigger": false,
      "taf_trigger": false,
      "metar": "METAR LIPE 031450Z 09007KT 040V120 CAVOK 32/14 Q1017",
      "taf": "TAF LIPE 031100Z 0312/0412 VRB06KT CAVOK"
    },
    {
      "icao": "LIPH",
      "alert": "OK",
      "vis_m": 9999,
      "fzfg": false,
      "metar_trigger": false,
      "taf_trigger": false,
      "metar": "METAR LIPH 031450Z 21005KT 160V270 CAVOK 32/14 Q1017",
      "taf": "TAF LIPH 031100Z 0312/0412 VRB06KT CAVOK"
    },
    {
      "icao": "LIPQ",
      "alert": "OK",
      "vis_m": 9999,
      "fzfg": false,
      "metar_trigger": false,
      "taf_trigger": false,
      "metar": "METAR LIPQ 031450Z AUTO VRB02KT 9999 SCT100/// 32/13 Q1017",
      "taf": "TAF LIPQ 031100Z 0312/0412 VRB06KT CAVOK"
    },
    {
      "icao": "LIPR",
      "alert": "OK",
      "vis_m": 9999,
      "fzfg": false,
      "metar_trigger": false,
      "taf_trigger": false,
      "metar": "METAR LIPR 031450Z 02008KT 350V050 CAVOK 29/18 Q1018",
      "taf": "TAF LIPR 031100Z 0312/0412 02010KT CAVOK"
    },
    {
      "icao": "LIPX",
      "alert": "OK",
      "vis_m": 9999,
      "fzfg": false,
      "metar_trigger": false,
      "taf_trigger": false,
      "metar": "METAR LIPX 031450Z 16006KT 130V190 9999 FEW080 32/16 Q1018",
      "taf": "TAF LIPX 031100Z 0312/0412 VRB05KT 9999 SCT050"
    },
    {
      "icao": "LIPY",
      "alert": "OK",
      "vis_m": 9999,
      "fzfg": false,
      "metar_trigger": false,
      "taf_trigger": false,
      "metar": "METAR LIPY 031450Z AUTO 35010KT 320V020 9999 NCD 29/18 Q1017",
      "taf": "TAF LIPY 031100Z 0312/0412 02010KT CAVOK"
    },
    {
      "icao": "LIPZ",
      "alert": "OK",
      "vis_m": 9999,
      "fzfg": false,
      "metar_trigger": false,
      "taf_trigger": false,
      "metar": "METAR LIPZ 031450Z 17004KT CAVOK 31/14 Q1017 NOSIG",
      "taf": "TAF LIPZ 031100Z 0312/0418 05010KT CAVOK"
    },
    {
      "icao": "LIRF",
      "alert": "OK",
      "vis_m": 9999,
      "fzfg": false,
      "metar_trigger": false,
      "taf_trigger": false,
      "metar": "METAR LIRF 031450Z 28015KT CAVOK 29/22 Q1014 NOSIG",
      "taf": "TAF LIRF 031100Z 0312/0418 26014KT 9999 FEW030"
    },
    {
      "icao": "LIRN",
      "alert": "OK",
      "vis_m": 9999,
      "fzfg": false,
      "metar_trigger": false,
      "taf_trigger": false,
      "metar": "METAR LIRN 031450Z 06008KT 030V140 9999 FEW050 33/16 Q1014 NOSIG",
      "taf": "TAF LIRN 031100Z 0312/0412 28010KT 9999 FEW030"
    },
    {
      "icao": "LIRP",
      "alert": "OK",
      "vis_m": 9999,
      "fzfg": false,
      "metar_trigger": false,
      "taf_trigger": false,
      "metar": "METAR LIRP 031445Z 31012KT 9999 FEW035 32/17 Q1016 NOSIG",
      "taf": "TAF LIRP 031100Z 0312/0412 07008KT CAVOK"
    },
    {
      "icao": "LIRZ",
      "alert": "OK",
      "vis_m": 9999,
      "fzfg": false,
      "metar_trigger": false,
      "taf_trigger": false,
      "metar": "METAR LIRZ 031450Z AUTO 05012KT 020V090 9999 NCD 31/12 Q1016",
      "taf": "TAF LIRZ 031100Z 0312/0412 02013KT CAVOK"
    },
    {
      "icao": "LJLJ",
      "alert": "OK",
      "vis_m": 9999,
      "fzfg": false,
      "metar_trigger": false,
      "taf_trigger": false,
      "metar": "METAR LJLJ 031500Z 10005KT 060V160 9999 FEW075 SCT250 28/12 Q1019 NOSIG",
      "taf": "TAF LJLJ 031100Z 0312/0412 09006KT 9999 FEW070 BKN085"
    },
    {
      "icao": "LKMT",
      "alert": "OK",
      "vis_m": 9999,
      "fzfg": false,
      "metar_trigger": false,
      "taf_trigger": false,
      "metar": "METAR LKMT 031500Z 01009KT 340V040 CAVOK 22/08 Q1020 NOSIG",
      "taf": "TAF LKMT 031100Z 0312/0412 35008KT CAVOK"
    },
    {
      "icao": "LKPR",
      "alert": "OK",
      "vis_m": 9999,
      "fzfg": false,
      "metar_trigger": false,
      "taf_trigger": false,
      "metar": "METAR LKPR 031500Z 31015KT CAVOK 21/07 Q1023 NOSIG",
      "taf": "TAF LKPR 031400Z 0315/0421 32015KT CAVOK"
    },
    {
      "icao": "LLBG",
      "alert": "OK",
      "vis_m": 9999,
      "fzfg": false,
      "metar_trigger": false,
      "taf_trigger": false,
      "metar": "METAR LLBG 031520Z 28010KT 9999 SCT023 29/22 Q1008 NOSIG",
      "taf": "TAF LLBG 031103Z 0312/0412 28012KT 9999 FEW035 TX31/0312Z TN24/0403Z"
    },
    {
      "icao": "LMML",
      "alert": "OK",
      "vis_m": 9999,
      "fzfg": false,
      "metar_trigger": false,
      "taf_trigger": false,
      "metar": "METAR LMML 031515Z 26015KT 9999 FEW028 28/18 Q1014 NOSIG",
      "taf": "TAF LMML 031100Z 0312/0412 30013KT 9999 FEW020"
    },
    {
      "icao": "LOWW",
      "alert": "OK",
      "vis_m": 9999,
      "fzfg": false,
      "metar_trigger": false,
      "taf_trigger": false,
      "metar": "METAR LOWW 031450Z 35018G29KT 320V020 CAVOK 27/06 Q1020 NOSIG",
      "taf": "TAF LOWW 031415Z 0315/0421 33015KT CAVOK TX27/0315Z TN15/0403Z"
    },
    {
      "icao": "LPFR",
      "alert": "OK",
      "vis_m": 9999,
      "fzfg": false,
      "metar_trigger": false,
      "taf_trigger": false,
      "metar": "METAR LPFR 031500Z 11012KT CAVOK 31/19 Q1018",
      "taf": "TAF LPFR 031100Z 0312/0412 09015KT CAVOK"
    },
    {
      "icao": "LPMA",
      "alert": "OK",
      "vis_m": 9999,
      "fzfg": false,
      "metar_trigger": false,
      "taf_trigger": false,
      "metar": "METAR LPMA 031500Z 14005KT 070V210 9999 FEW010 24/20 Q1016",
      "taf": "TAF LPMA 031100Z 0312/0412 19008KT 9999 FEW015"
    },
    {
      "icao": "LPPR",
      "alert": "OK",
      "vis_m": 9999,
      "fzfg": false,
      "metar_trigger": false,
      "taf_trigger": false,
      "metar": "METAR LPPR 031500Z 31008KT CAVOK 35/13 Q1019",
      "taf": "TAF LPPR 031100Z 0312/0412 08010KT CAVOK"
    },
    {
      "icao": "LPPS",
      "alert": "OK",
      "vis_m": 9999,
      "fzfg": false,
      "metar_trigger": false,
      "taf_trigger": false,
      "metar": "METAR LPPS 031500Z 35014KT 9999 FEW008 25/20 Q1016",
      "taf": "TAF LPPS 031100Z 0312/0418 01017KT 9999 SCT008 SCT015"
    },
    {
      "icao": "LPPT",
      "alert": "OK",
      "vis_m": 9999,
      "fzfg": false,
      "metar_trigger": false,
      "taf_trigger": false,
      "metar": "METAR LPPT 031500Z 25009KT 220V310 CAVOK 37/14 Q1018 NOSIG",
      "taf": "TAF LPPT 031100Z 0312/0418 08005KT CAVOK"
    },
    {
      "icao": "LQBK",
      "alert": "OK",
      "vis_m": 9999,
      "fzfg": false,
      "metar_trigger": false,
      "taf_trigger": false,
      "metar": "METAR LQBK 031500Z 35009KT 320V020 CAVOK 30/13 Q1017 NOSIG",
      "taf": "TAF LQBK 031100Z 0312/0412 22005KT CAVOK TX29/0313Z TN14/0403Z"
    },
    {
      "icao": "LQSA",
      "alert": "OK",
      "vis_m": 9999,
      "fzfg": false,
      "metar_trigger": false,
      "taf_trigger": false,
      "metar": "METAR LQSA 031500Z 32009KT CAVOK 25/12 Q1018 NOSIG",
      "taf": "TAF LQSA 031100Z 0312/0412 33005KT 9999 SCT055 TX26/0313Z TN03/0403Z"
    },
    {
      "icao": "LQTZ",
      "alert": "OK",
      "vis_m": 9999,
      "fzfg": false,
      "metar_trigger": false,
      "taf_trigger": false,
      "metar": "METAR LQTZ 031500Z 33008KT 290V010 9999 SCT065 28/12 Q1017",
      "taf": "TAF LQTZ 031100Z 0312/0412 27005KT 9999 SCT040 TX27/0314Z TN13/0403Z"
    },
    {
      "icao": "LRBC",
      "alert": "OK",
      "vis_m": 9999,
      "fzfg": false,
      "metar_trigger": false,
      "taf_trigger": false,
      "metar": "METAR LRBC 031500Z 35014KT 9999 SCT034 SCT047 26/18 Q1012",
      "taf": "TAF LRBC 031400Z 0315/0324 34014KT 9999 SCT040"
    },
    {
      "icao": "LRBS",
      "alert": "OK",
      "vis_m": 9999,
      "fzfg": false,
      "metar_trigger": false,
      "taf_trigger": false,
      "metar": "METAR LRBS 031500Z VRB06KT 9999 SCT052CB 28/18 Q1010 TEMPO 08020KT 5000 TSRA",
      "taf": "TAF LRBS 031100Z 0312/0412 28008KT 9999 BKN045"
    },
    {
      "icao": "LRBV",
      "alert": "OK",
      "vis_m": 9999,
      "fzfg": false,
      "metar_trigger": false,
      "taf_trigger": false,
      "metar": "METAR LRBV 031500Z 29009KT 260V330 9999 FEW025 BKN073 22/17 Q1014",
      "taf": "TAF LRBV 031400Z 0315/0324 30009KT 9999 SCT045"
    },
    {
      "icao": "LRCL",
      "alert": "OK",
      "vis_m": 9999,
      "fzfg": false,
      "metar_trigger": false,
      "taf_trigger": false,
      "metar": "METAR LRCL 031500Z 32010KT 290V350 9999 FEW063 27/11 Q1014",
      "taf": "TAF LRCL 031400Z 0315/0324 31011KT 9999 SCT045"
    },
    {
      "icao": "LRCV",
      "alert": "OK",
      "vis_m": 9999,
      "fzfg": false,
      "metar_trigger": false,
      "taf_trigger": false,
      "metar": "METAR LRCV 031500Z 03007KT 260V050 9999 -TSRA SCT015 SCT035 BKN045CB 22/21 Q1012 RESHRA",
      "taf": "TAF LRCV 031400Z 0315/0324 26009KT 9999 SCT045CB"
    },
    {
      "icao": "LRIA",
      "alert": "OK",
      "vis_m": 9999,
      "fzfg": false,
      "metar_trigger": false,
      "taf_trigger": false,
      "metar": "METAR LRIA 031500Z 31017KT 9999 FEW035 26/17 Q1011",
      "taf": "TAF LRIA 031400Z 0315/0324 31015KT 9999 SCT035"
    },
    {
      "icao": "LROP",
      "alert": "OK",
      "vis_m": 9999,
      "fzfg": false,
      "metar_trigger": false,
      "taf_trigger": false,
      "metar": "METAR LROP 031500Z 25008KT 210V300 9999 SCT063CB 29/19 Q1010 TEMPO 08018KT 5000 TSRA",
      "taf": "TAF LROP 031100Z 0312/0412 28008KT 9999 SCT045"
    },
    {
      "icao": "LRSB",
      "alert": "OK",
      "vis_m": 9999,
      "fzfg": false,
      "metar_trigger": false,
      "taf_trigger": false,
      "metar": "METAR LRSB 031500Z VRB02KT 9999 FEW011 FEW035TCU FEW042CB 22/20 Q1015",
      "taf": "TAF LRSB 031100Z 0312/0412 32008KT 9999 FEW040CB"
    },
    {
      "icao": "LRSM",
      "alert": "OK",
      "vis_m": 9999,
      "fzfg": false,
      "metar_trigger": false,
      "taf_trigger": false,
      "metar": "METAR LRSM 031500Z 34014KT CAVOK 28/14 Q1013",
      "taf": "TAF LRSM 031400Z 0315/0324 34015KT CAVOK"
    },
    {
      "icao": "LRSV",
      "alert": "OK",
      "vis_m": 9999,
      "fzfg": false,
      "metar_trigger": false,
      "taf_trigger": false,
      "metar": "METAR LRSV 031500Z 30010KT 9999 FEW050CB 20/15 Q1014",
      "taf": "TAF LRSV 031400Z 0315/0324 32014KT 9999 SCT035"
    },
    {
      "icao": "LRTM",
      "alert": "OK",
      "vis_m": 9999,
      "fzfg": false,
      "metar_trigger": false,
      "taf_trigger": false,
      "metar": "METAR LRTM 031500Z 35008KT 300V020 9999 BKN023 SCT046CB 23/20 Q1014",
      "taf": "TAF LRTM 031400Z 0315/0324 31008KT 9999 SCT040CB"
    },
    {
      "icao": "LRTR",
      "alert": "OK",
      "vis_m": 9999,
      "fzfg": false,
      "metar_trigger": false,
      "taf_trigger": false,
      "metar": "METAR LRTR 031500Z 32014KT CAVOK 31/09 Q1014",
      "taf": "TAF LRTR 031100Z 0312/0412 33012KT CAVOK"
    },
    {
      "icao": "LTAC",
      "alert": "OK",
      "vis_m": 9999,
      "fzfg": false,
      "metar_trigger": false,
      "taf_trigger": false,
      "metar": "METAR LTAC 031520Z 06013KT 9999 FEW040 SCT100 29/10 Q1010 NOSIG",
      "taf": "TAF LTAC 031040Z 0312/0412 32012KT 9999 SCT040"
    },
    {
      "icao": "LTFM",
      "alert": "OK",
      "vis_m": 9999,
      "fzfg": false,
      "metar_trigger": false,
      "taf_trigger": false,
      "metar": "METAR LTFM 031450Z 04008KT 360V070 9999 FEW033 29/17 Q1009 NOSIG",
      "taf": "TAF LTFM 031040Z 0312/0418 02012KT 9999 FEW033"
    },
    {
      "icao": "LUKK",
      "alert": "OK",
      "vis_m": 9999,
      "fzfg": false,
      "metar_trigger": false,
      "taf_trigger": false,
      "metar": "METAR LUKK 031500Z 34015KT 9999 FEW039 29/19 Q1009 TEMPO 34016G26KT",
      "taf": "TAF LUKK 031101Z 0312/0412 33012KT 9999 SCT030"
    },
    {
      "icao": "LWOH",
      "alert": "OK",
      "vis_m": 9999,
      "fzfg": false,
      "metar_trigger": false,
      "taf_trigger": false,
      "metar": "METAR LWOH 031520Z 34007KT 300V060 9999 FEW035 SCT090 26/18 Q1015",
      "taf": "TAF LWOH 031440Z 0315/0415 34008KT 9999 SCT040"
    },
    {
      "icao": "LWSK",
      "alert": "OK",
      "vis_m": 9999,
      "fzfg": false,
      "metar_trigger": false,
      "taf_trigger": false,
      "metar": "METAR LWSK 031520Z 36015KT 320V020 9999 SCT045 28/17 Q1014 NOSIG",
      "taf": "TAF LWSK 031440Z 0315/0415 33015KT 9999 SCT050"
    },
    {
      "icao": "LYBE",
      "alert": "OK",
      "vis_m": 9999,
      "fzfg": false,
      "metar_trigger": false,
      "taf_trigger": false,
      "metar": "METAR LYBE 031500Z 33010KT CAVOK 30/13 Q1015 NOSIG",
      "taf": "TAF LYBE 031100Z 0312/0412 31012KT CAVOK TX28/0314Z TN16/0403Z"
    },
    {
      "icao": "LYNI",
      "alert": "OK",
      "vis_m": 9999,
      "fzfg": false,
      "metar_trigger": false,
      "taf_trigger": false,
      "metar": "METAR LYNI 031500Z 29008G18KT 9999 SCT033 BKN045 25/17 Q1015 NOSIG",
      "taf": "TAF LYNI 031100Z 0312/0412 30008KT 9999 SCT030 BKN050 TX26/0314Z TN18/0403Z"
    },
    {
      "icao": "LYPG",
      "alert": "OK",
      "vis_m": 9999,
      "fzfg": false,
      "metar_trigger": false,
      "taf_trigger": false,
      "metar": "METAR LYPG 031500Z 01019KT 9999 FEW040 32/15 Q1012 NOSIG",
      "taf": "TAF LYPG 031100Z 0312/0412 36015KT 9999 FEW060 TX34/0313Z TN21/0403Z"
    },
    {
      "icao": "LZIB",
      "alert": "OK",
      "vis_m": 9999,
      "fzfg": false,
      "metar_trigger": false,
      "taf_trigger": false,
      "metar": "METAR LZIB 031500Z 32015KT 290V350 CAVOK 27/06 Q1019 NOSIG",
      "taf": "TAF LZIB 031115Z 0312/0412 32015KT CAVOK"
    },
    {
      "icao": "LZKZ",
      "alert": "OK",
      "vis_m": 9999,
      "fzfg": false,
      "metar_trigger": false,
      "taf_trigger": false,
      "metar": "METAR LZKZ 031500Z 01016KT CAVOK 25/12 Q1016 NOSIG",
      "taf": "TAF LZKZ 031115Z 0312/0412 02014KT CAVOK"
    },
    {
      "icao": "LZTT",
      "alert": "OK",
      "vis_m": 9999,
      "fzfg": false,
      "metar_trigger": false,
      "taf_trigger": false,
      "metar": "METAR LZTT 031500Z 26017KT 9999 FEW050 22/06 Q1018 NOSIG",
      "taf": "TAF LZTT 031115Z 0312/0412 28007KT 9999 FEW035 SCT060"
    },
    {
      "icao": "OEJN",
      "alert": "OK",
      "vis_m": 9999,
      "fzfg": false,
      "metar_trigger": false,
      "taf_trigger": false,
      "metar": "METAR OEJN 031500Z 34012KT CAVOK 36/19 Q1003 NOSIG",
      "taf": "TAF OEJN 031100Z 0312/0418 32012KT CAVOK"
    },
    {
      "icao": "OEMA",
      "alert": "OK",
      "vis_m": 9999,
      "fzfg": false,
      "metar_trigger": false,
      "taf_trigger": false,
      "metar": "METAR OEMA 031500Z 29008KT CAVOK 45/M04 Q1007 NOSIG",
      "taf": "TAF OEMA 031100Z 0312/0418 31010KT CAVOK"
    },
    {
      "icao": "OJAI",
      "alert": "OK",
      "vis_m": 4000,
      "fzfg": false,
      "metar_trigger": false,
      "taf_trigger": false,
      "metar": "METAR OJAI 031500Z 28015KT 4000 BLDU NSC 29/16 Q1011 NOSIG",
      "taf": "TAF OJAI 031047Z 0312/0418 30018KT 4000 BLDU NSC"
    },
    {
      "icao": "OMAA",
      "alert": "OK",
      "vis_m": 9999,
      "fzfg": false,
      "metar_trigger": false,
      "taf_trigger": false,
      "metar": "METAR OMAA 031500Z 32007KT CAVOK 35/27 Q0998 NOSIG",
      "taf": "TAF OMAA 031100Z 0312/0418 32013KT 8000 NSC"
    },
    {
      "icao": "OMDB",
      "alert": "OK",
      "vis_m": 8000,
      "fzfg": false,
      "metar_trigger": false,
      "taf_trigger": false,
      "metar": "METAR OMDB 031500Z 31010KT 290V350 8000 NSC 38/27 Q0997 NOSIG",
      "taf": "TAF OMDB 031100Z 0312/0418 34014KT 7000 NSC"
    },
    {
      "icao": "UAAA",
      "alert": "OK",
      "vis_m": 9999,
      "fzfg": false,
      "metar_trigger": false,
      "taf_trigger": false,
      "metar": "METAR UAAA 031500Z 22001MPS 9999 SCT100 BKN200 17/16 Q1014 NOSIG",
      "taf": "TAF UAAA 031102Z 0312/0412 21002G07MPS 6000 BKN040CB OVC100 TX18/0410Z TN12/0401Z"
    },
    {
      "icao": "UBBB",
      "alert": "OK",
      "vis_m": 9999,
      "fzfg": false,
      "metar_trigger": false,
      "taf_trigger": false,
      "metar": "METAR UBBB 031500Z 17014KT CAVOK 27/18 Q1007 NOSIG",
      "taf": "TAF UBBB 031056Z 0312/0412 16012KT CAVOK TX30/0312Z TN22/0401Z"
    },
    {
      "icao": "UDSG",
      "alert": "OK",
      "vis_m": 9999,
      "fzfg": false,
      "metar_trigger": false,
      "taf_trigger": false,
      "metar": "METAR UDSG 031500Z 36015G27KT 9999 VCTS BKN046CB 21/12 Q1013 TEMPO -TSRA",
      "taf": "TAF UDSG 031100Z 0312/0412 05006KT 9999 SCT050"
    },
    {
      "icao": "UDYZ",
      "alert": "OK",
      "vis_m": 9999,
      "fzfg": false,
      "metar_trigger": false,
      "taf_trigger": false,
      "metar": "METAR UDYZ 031500Z 03013KT 9999 FEW043CB 33/14 Q1005 NOSIG",
      "taf": "TAF UDYZ 031100Z 0312/0412 21006KT 9999 FEW040"
    },
    {
      "icao": "UGKO",
      "alert": "OK",
      "vis_m": 9999,
      "fzfg": false,
      "metar_trigger": false,
      "taf_trigger": false,
      "metar": "METAR UGKO 031500Z 27011KT 9999 BKN029 26/20 Q1007 NOSIG",
      "taf": "TAF UGKO 031100Z 0312/0412 26007KT 9999 SCT030 BKN050 TX28/0312Z TN20/0402Z"
    }
  ]
}