{
  "ts_utc": "2026-04-13T10:20:04Z",
  "threshold_m": 150,
  "source": "stations_override.txt (ICAO list) + aviationweather.gov (METAR/TAF raw)",
  "station_count": 159,
  "stations": [
    {
      "icao": "BIKF",
      "alert": "OK",
      "vis_m": 9999,
      "fzfg": false,
      "metar_trigger": false,
      "taf_trigger": false,
      "metar": "METAR BIKF 131000Z 05004KT 9999 -RA BKN022 OVC026 03/02 Q0995",
      "taf": "TAF BIKF 130755Z 1309/1409 05005KT CAVOK TX06/1319Z TN02/1309Z"
    },
    {
      "icao": "BKPR",
      "alert": "OK",
      "vis_m": 9999,
      "fzfg": false,
      "metar_trigger": false,
      "taf_trigger": false,
      "metar": "METAR BKPR 131000Z 16015KT 9999 FEW040 15/09 Q1016 NOSIG",
      "taf": "TAF BKPR 130530Z 1306/1406 15008KT 9999 FEW040 SCT090"
    },
    {
      "icao": "EBCI",
      "alert": "OK",
      "vis_m": 9999,
      "fzfg": false,
      "metar_trigger": false,
      "taf_trigger": false,
      "metar": "METAR EBCI 130950Z 03005KT 360V060 CAVOK 10/04 Q1013 NOSIG",
      "taf": "TAF EBCI 130508Z 1306/1412 35003KT CAVOK"
    },
    {
      "icao": "EDDB",
      "alert": "OK",
      "vis_m": 9999,
      "fzfg": false,
      "metar_trigger": false,
      "taf_trigger": false,
      "metar": "METAR EDDB 130950Z AUTO 09013KT CAVOK 12/03 Q1014 NOSIG",
      "taf": "TAF EDDB 130500Z 1306/1406 08009KT 9999 SCT045"
    },
    {
      "icao": "EDDH",
      "alert": "OK",
      "vis_m": 9999,
      "fzfg": false,
      "metar_trigger": false,
      "taf_trigger": false,
      "metar": "METAR EDDH 130950Z AUTO 07008KT 9999 BKN014 BKN025 09/06 Q1015 BECMG BKN015",
      "taf": ""
    },
    {
      "icao": "EDDK",
      "alert": "OK",
      "vis_m": 9999,
      "fzfg": false,
      "metar_trigger": false,
      "taf_trigger": false,
      "metar": "METAR EDDK 130950Z AUTO VRB02KT 9999 -RADZ BKN031 09/06 Q1012 NOSIG",
      "taf": "TAF EDDK 130500Z 1306/1412 VRB03KT 9999 BKN040"
    },
    {
      "icao": "EDDN",
      "alert": "OK",
      "vis_m": 9999,
      "fzfg": false,
      "metar_trigger": false,
      "taf_trigger": false,
      "metar": "METAR EDDN 130950Z AUTO 08004KT 360V140 9999 FEW015 10/05 Q1010 NOSIG",
      "taf": "TAF EDDN 130500Z 1306/1406 08005KT 3500 BR NSC"
    },
    {
      "icao": "EDDS",
      "alert": "OK",
      "vis_m": 7000,
      "fzfg": false,
      "metar_trigger": false,
      "taf_trigger": false,
      "metar": "METAR EDDS 130950Z AUTO 33004KT 290V010 7000 -DZ BKN006 OVC009 08/07 Q1009 NOSIG",
      "taf": "TAF EDDS 130500Z 1306/1406 36005KT 6000 OVC007"
    },
    {
      "icao": "EDFH",
      "alert": "OK",
      "vis_m": 9000,
      "fzfg": false,
      "metar_trigger": false,
      "taf_trigger": false,
      "metar": "METAR EDFH 130950Z 34005KT 310V020 9000 -RA BKN004 BKN034 OVC039 06/05 Q1011",
      "taf": "TAF EDFH 130500Z 1306/1406 36006KT 9999 BKN020"
    },
    {
      "icao": "EDJA",
      "alert": "OK",
      "vis_m": 4600,
      "fzfg": false,
      "metar_trigger": false,
      "taf_trigger": false,
      "metar": "METAR EDJA 130950Z 01003KT 310V060 4600 BR OVC002 08/08 Q1008",
      "taf": "TAF EDJA 130800Z 1309/1318 03005KT 1500 BR OVC002"
    },
    {
      "icao": "EDLW",
      "alert": "OK",
      "vis_m": 9999,
      "fzfg": false,
      "metar_trigger": false,
      "taf_trigger": false,
      "metar": "METAR EDLW 130950Z 06006KT 030V090 CAVOK 10/05 Q1012",
      "taf": "TAF EDLW 130500Z 1306/1406 VRB03KT 9999 SCT040"
    },
    {
      "icao": "EDNY",
      "alert": "OK",
      "vis_m": 9999,
      "fzfg": false,
      "metar_trigger": false,
      "taf_trigger": false,
      "metar": "METAR EDNY 130950Z 36003KT 9999 SCT007 OVC011 09/08 Q1009",
      "taf": "TAF EDNY 130800Z 1309/1318 VRB03KT 4000 BR OVC008"
    },
    {
      "icao": "EDSB",
      "alert": "OK",
      "vis_m": 5000,
      "fzfg": false,
      "metar_trigger": false,
      "taf_trigger": false,
      "metar": "METAR EDSB 130950Z 03007KT 5000 BR OVC005 08/07 Q1011",
      "taf": ""
    },
    {
      "icao": "EETN",
      "alert": "OK",
      "vis_m": 9999,
      "fzfg": false,
      "metar_trigger": false,
      "taf_trigger": false,
      "metar": "METAR EETN 130950Z 34005KT CAVOK 10/01 Q1030 NOSIG",
      "taf": "TAF EETN 130530Z 1306/1406 08010KT 9999 SCT045"
    },
    {
      "icao": "EFTU",
      "alert": "OK",
      "vis_m": 9999,
      "fzfg": false,
      "metar_trigger": false,
      "taf_trigger": false,
      "metar": "METAR EFTU 130950Z AUTO 12005KT 060V170 CAVOK 13/M01 Q1030",
      "taf": "TAF EFTU 130823Z 1309/1409 13004KT CAVOK"
    },
    {
      "icao": "EGBB",
      "alert": "OK",
      "vis_m": 9999,
      "fzfg": false,
      "metar_trigger": false,
      "taf_trigger": false,
      "metar": "METAR EGBB 130950Z 14006KT 110V180 9999 SCT024 10/04 Q1013",
      "taf": "TAF EGBB 130456Z 1306/1406 20004KT 9999 SCT030"
    },
    {
      "icao": "EGGP",
      "alert": "OK",
      "vis_m": 9999,
      "fzfg": false,
      "metar_trigger": false,
      "taf_trigger": false,
      "metar": "METAR EGGP 130950Z 14006KT 110V170 CAVOK 10/05 Q1012",
      "taf": "TAF EGGP 130454Z 1306/1406 17007KT 9999 FEW040"
    },
    {
      "icao": "EGGW",
      "alert": "OK",
      "vis_m": 9999,
      "fzfg": false,
      "metar_trigger": false,
      "taf_trigger": false,
      "metar": "METAR EGGW 130950Z AUTO 17004KT 140V200 9999 FEW024 10/04 Q1013",
      "taf": ""
    },
    {
      "icao": "EGKK",
      "alert": "OK",
      "vis_m": 9999,
      "fzfg": false,
      "metar_trigger": false,
      "taf_trigger": false,
      "metar": "METAR EGKK 130950Z 26003KT 220V350 9999 FEW026 SCT046 11/05 Q1013",
      "taf": ""
    },
    {
      "icao": "EGNM",
      "alert": "OK",
      "vis_m": 9999,
      "fzfg": false,
      "metar_trigger": false,
      "taf_trigger": false,
      "metar": "METAR EGNM 130950Z 13005KT 090V190 9999 FEW021 09/03 Q1012",
      "taf": "TAF EGNM 130454Z 1306/1406 VRB03KT 9999 FEW040"
    },
    {
      "icao": "EGPD",
      "alert": "OK",
      "vis_m": 9999,
      "fzfg": false,
      "metar_trigger": false,
      "taf_trigger": false,
      "metar": "METAR EGPD 130950Z COR AUTO 20013KT 9999 NCD 10/01 Q1011 NOSIG",
      "taf": "TAF EGPD 130457Z 1306/1406 16009KT 9999 SCT020"
    },
    {
      "icao": "EGPF",
      "alert": "OK",
      "vis_m": 9999,
      "fzfg": false,
      "metar_trigger": false,
      "taf_trigger": false,
      "metar": "METAR EGPF 130950Z AUTO 20009KT 160V230 9999 FEW038 SCT049 10/04 Q1011",
      "taf": "TAF EGPF 130459Z 1306/1406 16006KT 9999 FEW020"
    },
    {
      "icao": "EHBK",
      "alert": "OK",
      "vis_m": 9999,
      "fzfg": false,
      "metar_trigger": false,
      "taf_trigger": false,
      "metar": "METAR EHBK 130955Z AUTO 05003KT 340V140 9999 NSC 10/05 Q1012 NOSIG",
      "taf": "TAF EHBK 130444Z 1306/1412 36003KT CAVOK"
    },
    {
      "icao": "EHEH",
      "alert": "OK",
      "vis_m": 9999,
      "fzfg": false,
      "metar_trigger": false,
      "taf_trigger": false,
      "metar": "METAR EHEH 130955Z AUTO 06007KT 010V070 9999 OVC100 12/02 Q1013 BLU NOSIG RMK TREND REMOTE BY EHWX",
      "taf": "TAF EHEH 130527Z 1306/1412 VRB02KT CAVOK"
    },
    {
      "icao": "EKBI",
      "alert": "OK",
      "vis_m": 9999,
      "fzfg": false,
      "metar_trigger": false,
      "taf_trigger": false,
      "metar": "METAR EKBI 130950Z AUTO 10007KT 070V130 9999 BKN046/// 10/04 Q1017",
      "taf": "TAF EKBI 130839Z 1309/1409 10008KT 9999 BKN030"
    },
    {
      "icao": "EKCH",
      "alert": "OK",
      "vis_m": 9999,
      "fzfg": false,
      "metar_trigger": false,
      "taf_trigger": false,
      "metar": "METAR EKCH 130950Z AUTO 12013KT 9999 NCD 10/02 Q1020 NOSIG",
      "taf": "TAF EKCH 130827Z 1309/1409 11012KT CAVOK"
    },
    {
      "icao": "ENAL",
      "alert": "OK",
      "vis_m": 9999,
      "fzfg": false,
      "metar_trigger": false,
      "taf_trigger": false,
      "metar": "METAR ENAL 130950Z 14009KT CAVOK 13/M04 Q1017",
      "taf": "TAF ENAL 130800Z 1309/1318 13012KT CAVOK"
    },
    {
      "icao": "ENBR",
      "alert": "OK",
      "vis_m": 9999,
      "fzfg": false,
      "metar_trigger": false,
      "taf_trigger": false,
      "metar": "METAR ENBR 130950Z 14011KT 9999 BKN052 11/M00 Q1017 TEMPO 15015G25KT RMK WIND 1200FT 14026KT",
      "taf": "TAF ENBR 130500Z 1306/1406 14015KT 9999 SCT045"
    },
    {
      "icao": "ENGM",
      "alert": "OK",
      "vis_m": 9999,
      "fzfg": false,
      "metar_trigger": false,
      "taf_trigger": false,
      "metar": "METAR ENGM 130950Z 10005KT 360V130 CAVOK 07/M00 Q1023 NOSIG",
      "taf": "TAF ENGM 130500Z 1306/1406 03005KT 9999 FEW012 BKN040"
    },
    {
      "icao": "ENHD",
      "alert": "OK",
      "vis_m": 9999,
      "fzfg": false,
      "metar_trigger": false,
      "taf_trigger": false,
      "metar": "METAR ENHD 130950Z 13022KT 9999 SCT047 11/03 Q1017",
      "taf": "TAF ENHD 130800Z 1309/1318 14020KT 9999 SCT030"
    },
    {
      "icao": "ENTC",
      "alert": "OK",
      "vis_m": 9999,
      "fzfg": false,
      "metar_trigger": false,
      "taf_trigger": false,
      "metar": "METAR ENTC 130950Z 22003KT CAVOK 06/M04 Q1025 NOSIG RMK WIND 2600FT 17013KT",
      "taf": "TAF ENTC 130500Z 1306/1406 02004KT CAVOK"
    },
    {
      "icao": "ENTO",
      "alert": "OK",
      "vis_m": 9999,
      "fzfg": false,
      "metar_trigger": false,
      "taf_trigger": false,
      "metar": "METAR ENTO 130950Z 01005KT 9999 BKN041 06/02 Q1023 NOSIG",
      "taf": "TAF ENTO 130500Z 1306/1406 02005KT CAVOK"
    },
    {
      "icao": "ENVA",
      "alert": "OK",
      "vis_m": 9999,
      "fzfg": false,
      "metar_trigger": false,
      "taf_trigger": false,
      "metar": "METAR ENVA 130950Z 16018G30KT 140V200 9999 FEW045 11/M02 Q1021 NOSIG RMK WIND 670FT 17031KT",
      "taf": "TAF ENVA 130500Z 1306/1406 14012KT CAVOK"
    },
    {
      "icao": "ENZV",
      "alert": "OK",
      "vis_m": 9999,
      "fzfg": false,
      "metar_trigger": false,
      "taf_trigger": false,
      "metar": "METAR ENZV 130950Z 14021G33KT CAVOK 10/02 Q1017 NOSIG",
      "taf": "TAF ENZV 130500Z 1306/1406 14015KT 9999 SCT030"
    },
    {
      "icao": "EPGD",
      "alert": "OK",
      "vis_m": 9999,
      "fzfg": false,
      "metar_trigger": false,
      "taf_trigger": false,
      "metar": "METAR EPGD 131000Z 12016KT 9999 FEW042 11/M00 Q1023",
      "taf": "TAF EPGD 130530Z 1306/1406 11010KT CAVOK"
    },
    {
      "icao": "EPKK",
      "alert": "OK",
      "vis_m": 9999,
      "fzfg": false,
      "metar_trigger": false,
      "taf_trigger": false,
      "metar": "METAR EPKK 131000Z 07015KT CAVOK 11/M01 Q1019",
      "taf": "TAF EPKK 130830Z 1309/1409 07015KT CAVOK"
    },
    {
      "icao": "EPKT",
      "alert": "OK",
      "vis_m": 9999,
      "fzfg": false,
      "metar_trigger": false,
      "taf_trigger": false,
      "metar": "METAR EPKT 131000Z 10021KT CAVOK 11/M02 Q1018",
      "taf": "TAF EPKT 130530Z 1306/1406 10010KT CAVOK"
    },
    {
      "icao": "EPLB",
      "alert": "OK",
      "vis_m": 9999,
      "fzfg": false,
      "metar_trigger": false,
      "taf_trigger": false,
      "metar": "METAR EPLB 131000Z 12014KT 9999 FEW044 10/M00 Q1023",
      "taf": "TAF EPLB 130530Z 1306/1406 10005KT CAVOK"
    },
    {
      "icao": "EPMO",
      "alert": "OK",
      "vis_m": 9999,
      "fzfg": false,
      "metar_trigger": false,
      "taf_trigger": false,
      "metar": "METAR EPMO 131000Z 11012KT 080V150 CAVOK 12/M01 Q1023",
      "taf": "TAF EPMO 130530Z 1306/1406 10010KT CAVOK"
    },
    {
      "icao": "EPPO",
      "alert": "OK",
      "vis_m": 9999,
      "fzfg": false,
      "metar_trigger": false,
      "taf_trigger": false,
      "metar": "METAR EPPO 131000Z 12017KT CAVOK 13/M01 Q1019",
      "taf": "TAF EPPO 130530Z 1306/1406 11013KT CAVOK"
    },
    {
      "icao": "EPRA",
      "alert": "OK",
      "vis_m": 9999,
      "fzfg": false,
      "metar_trigger": false,
      "taf_trigger": false,
      "metar": "METAR EPRA 131000Z 11013KT 070V150 CAVOK 10/M02 Q1022",
      "taf": "TAF EPRA 130830Z 1309/1318 11014KT CAVOK"
    },
    {
      "icao": "EPRZ",
      "alert": "OK",
      "vis_m": 9999,
      "fzfg": false,
      "metar_trigger": false,
      "taf_trigger": false,
      "metar": "METAR EPRZ 131000Z 11014KT 9999 FEW040 11/01 Q1021",
      "taf": "TAF EPRZ 130530Z 1306/1406 09010KT CAVOK"
    },
    {
      "icao": "EPSC",
      "alert": "OK",
      "vis_m": 9999,
      "fzfg": false,
      "metar_trigger": false,
      "taf_trigger": false,
      "metar": "METAR EPSC 131000Z 10011KT CAVOK 12/M01 Q1018",
      "taf": "TAF EPSC 130530Z 1306/1406 09011KT CAVOK"
    },
    {
      "icao": "EPSY",
      "alert": "OK",
      "vis_m": 9999,
      "fzfg": false,
      "metar_trigger": false,
      "taf_trigger": false,
      "metar": "METAR EPSY 131000Z 11008KT 050V140 9999 SCT044 11/M02 Q1024",
      "taf": "TAF EPSY 130830Z 1309/1318 11010KT CAVOK"
    },
    {
      "icao": "EPWA",
      "alert": "OK",
      "vis_m": 9999,
      "fzfg": false,
      "metar_trigger": false,
      "taf_trigger": false,
      "metar": "METAR EPWA 131000Z 12017KT CAVOK 11/M02 Q1023 NOSIG",
      "taf": "TAF EPWA 130830Z 1309/1409 11015KT CAVOK"
    },
    {
      "icao": "EPWR",
      "alert": "OK",
      "vis_m": 9999,
      "fzfg": false,
      "metar_trigger": false,
      "taf_trigger": false,
      "metar": "METAR EPWR 131000Z 12018KT CAVOK 15/01 Q1016",
      "taf": "TAF EPWR 130830Z 1309/1409 10012KT CAVOK"
    },
    {
      "icao": "ESGG",
      "alert": "OK",
      "vis_m": 9999,
      "fzfg": false,
      "metar_trigger": false,
      "taf_trigger": false,
      "metar": "METAR ESGG 130950Z 13009KT CAVOK 11/00 Q1021",
      "taf": "TAF ESGG 130830Z 1309/1409 12011KT CAVOK"
    },
    {
      "icao": "ESKN",
      "alert": "OK",
      "vis_m": 9999,
      "fzfg": false,
      "metar_trigger": false,
      "taf_trigger": false,
      "metar": "METAR ESKN 130950Z 14009KT 110V190 CAVOK 11/03 Q1027",
      "taf": "TAF ESKN 130830Z 1309/1409 15012KT CAVOK"
    },
    {
      "icao": "ESMS",
      "alert": "OK",
      "vis_m": 9999,
      "fzfg": false,
      "metar_trigger": false,
      "taf_trigger": false,
      "metar": "METAR ESMS 130950Z 10016KT CAVOK 12/01 Q1020",
      "taf": "TAF ESMS 130827Z 1309/1409 11012KT CAVOK"
    },
    {
      "icao": "ESSA",
      "alert": "OK",
      "vis_m": 9999,
      "fzfg": false,
      "metar_trigger": false,
      "taf_trigger": false,
      "metar": "METAR ESSA 130950Z 13009KT 100V160 CAVOK 12/00 Q1028 NOSIG",
      "taf": "TAF ESSA 130830Z 1309/1409 14009KT CAVOK"
    },
    {
      "icao": "EYKA",
      "alert": "OK",
      "vis_m": 9999,
      "fzfg": false,
      "metar_trigger": false,
      "taf_trigger": false,
      "metar": "METAR EYKA 130950Z 12008KT 070V160 9999 FEW045 12/01 Q1028",
      "taf": "TAF EYKA 130500Z 1306/1406 VRB04KT 9000 NSC"
    },
    {
      "icao": "EYPA",
      "alert": "OK",
      "vis_m": 9999,
      "fzfg": false,
      "metar_trigger": false,
      "taf_trigger": false,
      "metar": "METAR EYPA 130950Z 08009KT 060V120 CAVOK 12/M02 Q1027",
      "taf": "TAF EYPA 130500Z 1306/1406 12009KT 9000 NSC"
    },
    {
      "icao": "EYVI",
      "alert": "OK",
      "vis_m": 9999,
      "fzfg": false,
      "metar_trigger": false,
      "taf_trigger": false,
      "metar": "METAR EYVI 130950Z 09009KT 060V130 9999 SCT048 10/M01 Q1027 NOSIG",
      "taf": "TAF EYVI 130500Z 1306/1406 VRB04KT 9000 SCT045"
    },
    {
      "icao": "GCFV",
      "alert": "OK",
      "vis_m": 9999,
      "fzfg": false,
      "metar_trigger": false,
      "taf_trigger": false,
      "metar": "METAR GCFV 131000Z 01019KT 9999 FEW027 BKN037 19/10 Q1022",
      "taf": "TAF GCFV 130800Z 1309/1409 02021KT 9999 FEW035 TX22/1314Z TN16/1406Z"
    },
    {
      "icao": "GCLP",
      "alert": "OK",
      "vis_m": 9999,
      "fzfg": false,
      "metar_trigger": false,
      "taf_trigger": false,
      "metar": "METAR GCLP 131000Z 03025KT 9999 BKN030 19/10 Q1022 NOSIG",
      "taf": "TAF GCLP 130800Z 1309/1409 01025KT 9999 SCT030 TX21/1314Z TN16/1406Z"
    },
    {
      "icao": "GCTS",
      "alert": "OK",
      "vis_m": 9999,
      "fzfg": false,
      "metar_trigger": false,
      "taf_trigger": false,
      "metar": "METAR GCTS 131000Z 08029KT 9999 FEW035 19/09 Q1022 NOSIG",
      "taf": "TAF GCTS 130800Z 1309/1409 09025KT 9999 FEW035 TX24/1314Z TN16/1406Z"
    },
    {
      "icao": "GMAD",
      "alert": "OK",
      "vis_m": 9999,
      "fzfg": false,
      "metar_trigger": false,
      "taf_trigger": false,
      "metar": "METAR GMAD 131000Z 25004KT 180V330 CAVOK 20/11 Q1016",
      "taf": "TAF GMAD 130500Z 1306/1412 22004KT 8000 NSC"
    },
    {
      "icao": "GMMN",
      "alert": "OK",
      "vis_m": 9999,
      "fzfg": false,
      "metar_trigger": false,
      "taf_trigger": false,
      "metar": "METAR GMMN 131000Z 05009KT 010V090 9999 BKN030 16/12 Q1023 NOSIG",
      "taf": ""
    },
    {
      "icao": "GMMX",
      "alert": "OK",
      "vis_m": 9999,
      "fzfg": false,
      "metar_trigger": false,
      "taf_trigger": false,
      "metar": "METAR GMMX 131000Z 07007KT 040V120 9999 SCT026 16/09 Q1021 NOSIG",
      "taf": "TAF GMMX 130500Z 1306/1412 26006KT 8000 BKN026"
    },
    {
      "icao": "HEGN",
      "alert": "OK",
      "vis_m": 9999,
      "fzfg": false,
      "metar_trigger": false,
      "taf_trigger": false,
      "metar": "METAR HEGN 130900Z 01012KT CAVOK 26/05 Q1017 NOSIG",
      "taf": "TAF HEGN 130500Z 1306/1412 32012KT CAVOK"
    },
    {
      "icao": "HEMA",
      "alert": "OK",
      "vis_m": 9999,
      "fzfg": false,
      "metar_trigger": false,
      "taf_trigger": false,
      "metar": "METAR HEMA 130900Z 35018KT CAVOK 27/08 Q1016 NOSIG",
      "taf": "TAF HEMA 130500Z 1306/1412 33010G20KT CAVOK"
    },
    {
      "icao": "HESH",
      "alert": "OK",
      "vis_m": 9999,
      "fzfg": false,
      "metar_trigger": false,
      "taf_trigger": false,
      "metar": "METAR HESH 130900Z 35011KT CAVOK 27/09 Q1017 NOSIG",
      "taf": "TAF HESH 130500Z 1306/1412 36010KT CAVOK"
    },
    {
      "icao": "HESX",
      "alert": "OK",
      "vis_m": 9999,
      "fzfg": false,
      "metar_trigger": false,
      "taf_trigger": false,
      "metar": "METAR HESX 130900Z 08006KT CAVOK 22/10 Q1018 NOSIG",
      "taf": "TAF HESX 130500Z 1306/1412 06005KT 6000 NSC"
    },
    {
      "icao": "LATI",
      "alert": "OK",
      "vis_m": null,
      "fzfg": false,
      "metar_trigger": false,
      "taf_trigger": false,
      "metar": "",
      "taf": "TAF LATI 130500Z 1306/1406 VRB04KT 9999 BKN100 TX27/1312Z TN13/1404Z"
    },
    {
      "icao": "LBPD",
      "alert": "OK",
      "vis_m": 9999,
      "fzfg": false,
      "metar_trigger": false,
      "taf_trigger": false,
      "metar": "METAR LBPD 131000Z AUTO VRB03KT 9999 FEW026/// 12/06 Q1021 NOSIG",
      "taf": "TAF LBPD 130500Z 1306/1406 VRB04KT 9999 SCT060"
    },
    {
      "icao": "LBSF",
      "alert": "OK",
      "vis_m": 9999,
      "fzfg": false,
      "metar_trigger": false,
      "taf_trigger": false,
      "metar": "METAR LBSF 131000Z 09013KT CAVOK 13/05 Q1019 NOSIG",
      "taf": "TAF LBSF 130500Z 1306/1406 10012KT 9999 SCT050"
    },
    {
      "icao": "LBWN",
      "alert": "OK",
      "vis_m": 9999,
      "fzfg": false,
      "metar_trigger": false,
      "taf_trigger": false,
      "metar": "METAR LBWN 131000Z AUTO 11013KT 9999 NCD 13/05 Q1022 NOSIG",
      "taf": "TAF LBWN 130500Z 1306/1406 VRB03KT 9999 SCT040"
    },
    {
      "icao": "LCLK",
      "alert": "OK",
      "vis_m": 9999,
      "fzfg": false,
      "metar_trigger": false,
      "taf_trigger": false,
      "metar": "METAR LCLK 131000Z 14010KT 9999 FEW040 21/08 Q1018 NOSIG",
      "taf": "TAF LCLK 130530Z 1306/1406 33008KT 9999 FEW025"
    },
    {
      "icao": "LCPH",
      "alert": "OK",
      "vis_m": 9999,
      "fzfg": false,
      "metar_trigger": false,
      "taf_trigger": false,
      "metar": "METAR LCPH 131000Z 15013KT 9999 FEW040 20/11 Q1019 NOSIG",
      "taf": "TAF LCPH 130530Z 1306/1406 14006KT 9999 FEW025"
    },
    {
      "icao": "LEAL",
      "alert": "OK",
      "vis_m": 9999,
      "fzfg": false,
      "metar_trigger": false,
      "taf_trigger": false,
      "metar": "METAR LEAL 131000Z 30012KT 270V340 9999 FEW045 17/04 Q1011 NOSIG",
      "taf": "TAF LEAL 130500Z 1306/1406 31009KT 9999 FEW060 TX20/1313Z TN09/1306Z"
    },
    {
      "icao": "LEBB",
      "alert": "OK",
      "vis_m": 9999,
      "fzfg": false,
      "metar_trigger": false,
      "taf_trigger": false,
      "metar": "METAR LEBB 131000Z 27008KT 240V310 9999 -RA FEW019 SCT030 BKN052 10/08 Q1018 TEMPO 3000 RA",
      "taf": "TAF LEBB 130500Z 1306/1406 31009KT 9999 SCT045 TX14/1314Z TN08/1406Z"
    },
    {
      "icao": "LEBL",
      "alert": "OK",
      "vis_m": 9999,
      "fzfg": false,
      "metar_trigger": false,
      "taf_trigger": false,
      "metar": "METAR LEBL 131000Z 32007G18KT 290V020 9999 FEW030 BKN060 12/08 Q1009 NOSIG",
      "taf": ""
    },
    {
      "icao": "LECH",
      "alert": "OK",
      "vis_m": 9999,
      "fzfg": false,
      "metar_trigger": false,
      "taf_trigger": false,
      "metar": "METAR LECH 131000Z AUTO 34014G24KT 300V010 CAVOK 13/01 Q1010",
      "taf": "TAF LECH 130500Z 1306/1406 33018KT CAVOK TX20/1314Z TN07/1309Z"
    },
    {
      "icao": "LEMD",
      "alert": "OK",
      "vis_m": 9999,
      "fzfg": false,
      "metar_trigger": false,
      "taf_trigger": false,
      "metar": "METAR LEMD 131000Z 33007KT 270V040 9999 SCT055 11/M02 Q1016 NOSIG",
      "taf": ""
    },
    {
      "icao": "LEMG",
      "alert": "OK",
      "vis_m": 9999,
      "fzfg": false,
      "metar_trigger": false,
      "taf_trigger": false,
      "metar": "METAR LEMG 131000Z 31013KT 9999 FEW050 16/03 Q1018 NOSIG",
      "taf": "TAF LEMG 130500Z 1306/1406 31015KT CAVOK TX21/1314Z TN12/1306Z"
    },
    {
      "icao": "LEVC",
      "alert": "OK",
      "vis_m": 9999,
      "fzfg": false,
      "metar_trigger": false,
      "taf_trigger": false,
      "metar": "METAR LEVC 131000Z 31009KT 270V350 9999 FEW069 16/04 Q1011 NOSIG",
      "taf": ""
    },
    {
      "icao": "LEXJ",
      "alert": "OK",
      "vis_m": 8000,
      "fzfg": false,
      "metar_trigger": false,
      "taf_trigger": false,
      "metar": "METAR LEXJ 131000Z 27007KT 210V320 8000 -RA SCT044 BKN055 10/07 Q1019",
      "taf": ""
    },
    {
      "icao": "LEZG",
      "alert": "OK",
      "vis_m": 9999,
      "fzfg": false,
      "metar_trigger": false,
      "taf_trigger": false,
      "metar": "METAR LEZG 131000Z 30032KT 260V340 9999 SCT035 12/04 Q1013 NOSIG",
      "taf": ""
    },
    {
      "icao": "LEZL",
      "alert": "OK",
      "vis_m": 9999,
      "fzfg": false,
      "metar_trigger": false,
      "taf_trigger": false,
      "metar": "METAR LEZL 131000Z 34015KT CAVOK 17/03 Q1019 NOSIG",
      "taf": "TAF LEZL 130800Z 1309/1409 33012KT CAVOK TX22/1315Z TN10/1407Z"
    },
    {
      "icao": "LFBD",
      "alert": "OK",
      "vis_m": 9999,
      "fzfg": false,
      "metar_trigger": false,
      "taf_trigger": false,
      "metar": "METAR LFBD 131000Z AUTO 36004KT 270V060 9999 FEW042/// SCT052/// ///TCU 12/07 Q1016 TEMPO 4000 SHRA",
      "taf": "TAF LFBD 130500Z 1306/1412 VRB03KT 9999 BKN040 TX16/1314Z TN06/1306Z"
    },
    {
      "icao": "LFLL",
      "alert": "OK",
      "vis_m": 9999,
      "fzfg": false,
      "metar_trigger": false,
      "taf_trigger": false,
      "metar": "METAR LFLL 131000Z 33011KT 9999 -RA BKN010 BKN016 07/05 Q1012 NOSIG",
      "taf": "TAF LFLL 130500Z 1306/1412 33010KT 9999 -RA BKN011"
    },
    {
      "icao": "LFLS",
      "alert": "OK",
      "vis_m": 9999,
      "fzfg": false,
      "metar_trigger": false,
      "taf_trigger": false,
      "metar": "METAR LFLS 131000Z AUTO 32007KT 270V340 9999 -RA OVC012 06/05 Q1012 TEMPO 4500 RA BECMG SCT014 OVC020",
      "taf": "TAF LFLS 130800Z 1309/1409 33010KT 9000 -RA OVC012"
    },
    {
      "icao": "LFMN",
      "alert": "OK",
      "vis_m": 9999,
      "fzfg": false,
      "metar_trigger": false,
      "taf_trigger": false,
      "metar": "METAR LFMN 131000Z 01013KT 9999 BKN096 BKN260 21/07 Q1002 BECMG 09015KT",
      "taf": "TAF LFMN 130800Z 1309/1415 01010KT 9999 BKN080"
    },
    {
      "icao": "LFOB",
      "alert": "OK",
      "vis_m": 9999,
      "fzfg": false,
      "metar_trigger": false,
      "taf_trigger": false,
      "metar": "METAR LFOB 131000Z AUTO VRB03KT 9999 FEW016/// SCT021/// BKN056/// ///CB 12/08 Q1013 TEMPO 1500 -TSRAGS",
      "taf": "TAF LFOB 130500Z 1306/1406 VRB03KT 9999 FEW045 OVC070"
    },
    {
      "icao": "LFPO",
      "alert": "OK",
      "vis_m": 9999,
      "fzfg": false,
      "metar_trigger": false,
      "taf_trigger": false,
      "metar": "METAR LFPO 131000Z VRB02KT 9999 FEW026 BKN093 BKN260 11/04 Q1013 NOSIG",
      "taf": ""
    },
    {
      "icao": "LFSB",
      "alert": "OK",
      "vis_m": 7000,
      "fzfg": false,
      "metar_trigger": false,
      "taf_trigger": false,
      "metar": "METAR LFSB 131000Z AUTO 31004KT 260V020 7000 OVC005 07/07 Q1011 TEMPO 4000 -RADZ BR",
      "taf": "TAF LFSB 130500Z 1306/1406 33005KT 9999 SCT005 OVC012"
    },
    {
      "icao": "LGAV",
      "alert": "OK",
      "vis_m": 9999,
      "fzfg": false,
      "metar_trigger": false,
      "taf_trigger": false,
      "metar": "METAR LGAV 130950Z 12004KT 350V210 9999 FEW025 18/07 Q1021 NOSIG",
      "taf": "TAF LGAV 130500Z 1306/1406 VRB05KT 9999 FEW020 SCT070"
    },
    {
      "icao": "LGTS",
      "alert": "OK",
      "vis_m": 9999,
      "fzfg": false,
      "metar_trigger": false,
      "taf_trigger": false,
      "metar": "METAR LGTS 130950Z 14008KT 9999 FEW025 18/06 Q1021 NOSIG",
      "taf": "TAF LGTS 130500Z 1306/1406 13010KT 9999 SCT025"
    },
    {
      "icao": "LHBP",
      "alert": "OK",
      "vis_m": 9999,
      "fzfg": false,
      "metar_trigger": false,
      "taf_trigger": false,
      "metar": "METAR LHBP 131000Z 10012KT 070V130 CAVOK 15/01 Q1017 NOSIG",
      "taf": "TAF LHBP 130515Z 1306/1406 04005KT CAVOK"
    },
    {
      "icao": "LHDC",
      "alert": "OK",
      "vis_m": 9999,
      "fzfg": false,
      "metar_trigger": false,
      "taf_trigger": false,
      "metar": "METAR LHDC 130945Z AUTO 06009KT 030V090 CAVOK 14/00 Q1018 NOSIG",
      "taf": "TAF LHDC 130815Z 1309/1318 08012KT CAVOK"
    },
    {
      "icao": "LIBD",
      "alert": "OK",
      "vis_m": 9999,
      "fzfg": false,
      "metar_trigger": false,
      "taf_trigger": false,
      "metar": "METAR LIBD 130950Z 16021G36KT 9999 FEW030 19/11 Q1006",
      "taf": "TAF LIBD 130500Z 1306/1406 15020G35KT CAVOK"
    },
    {
      "icao": "LIBG",
      "alert": "OK",
      "vis_m": 8000,
      "fzfg": false,
      "metar_trigger": false,
      "taf_trigger": false,
      "metar": "METAR LIBG 130950Z 15018KT 8000 SCT010 BKN020 19/14 Q1009",
      "taf": "TAF LIBG 130800Z 1309/1318 16025G40KT 9999 BKN015"
    },
    {
      "icao": "LIBP",
      "alert": "OK",
      "vis_m": 9999,
      "fzfg": false,
      "metar_trigger": false,
      "taf_trigger": false,
      "metar": "METAR LIBP 130950Z AUTO 10009KT 9999 SCT031/// 18/12 Q1004",
      "taf": "TAF LIBP 130500Z 1306/1406 VRB05KT 9999 SCT020"
    },
    {
      "icao": "LIBR",
      "alert": "OK",
      "vis_m": 9999,
      "fzfg": false,
      "metar_trigger": false,
      "taf_trigger": false,
      "metar": "METAR LIBR 130950Z 16019KT 9999 FEW020 20/12 Q1010",
      "taf": "TAF LIBR 130500Z 1306/1406 15010KT 9999 FEW020"
    },
    {
      "icao": "LICA",
      "alert": "OK",
      "vis_m": 9999,
      "fzfg": false,
      "metar_trigger": false,
      "taf_trigger": false,
      "metar": "METAR LICA 130950Z AUTO 07023KT 9999 BKN026/// 19/13 Q1007",
      "taf": "TAF LICA 130500Z 1306/1406 08020G30KT CAVOK"
    },
    {
      "icao": "LICC",
      "alert": "OK",
      "vis_m": 7000,
      "fzfg": false,
      "metar_trigger": false,
      "taf_trigger": false,
      "metar": "METAR LICC 130950Z 05016KT 7000 SCT030 20/16 Q1006",
      "taf": "TAF LICC 130500Z 1306/1406 07013KT 7000 FEW020"
    },
    {
      "icao": "LICJ",
      "alert": "OK",
      "vis_m": 5000,
      "fzfg": false,
      "metar_trigger": false,
      "taf_trigger": false,
      "metar": "METAR LICJ 130950Z 22017KT 5000 HZ FEW025 21/13 Q1002",
      "taf": "TAF LICJ 130500Z 1306/1406 22014KT 7000 FEW030"
    },
    {
      "icao": "LIMC",
      "alert": "OK",
      "vis_m": 8000,
      "fzfg": false,
      "metar_trigger": false,
      "taf_trigger": false,
      "metar": "METAR LIMC 130950Z 34009KT 310V010 8000 -RA BKN040 12/12 Q1008 NOSIG",
      "taf": "TAF LIMC 130500Z 1306/1412 VRB05KT 9999 SCT035"
    },
    {
      "icao": "LIME",
      "alert": "OK",
      "vis_m": 8000,
      "fzfg": false,
      "metar_trigger": false,
      "taf_trigger": false,
      "metar": "METAR LIME 130950Z 28004KT 8000 BKN055 14/11 Q1007 NOSIG",
      "taf": "TAF LIME 130500Z 1306/1406 VRB05KT 9999 BKN040"
    },
    {
      "icao": "LIMF",
      "alert": "OK",
      "vis_m": 5000,
      "fzfg": false,
      "metar_trigger": false,
      "taf_trigger": false,
      "metar": "METAR LIMF 130950Z 35009KT 5000 -RA BR OVC015 12/10 Q1008",
      "taf": "TAF LIMF 130500Z 1306/1406 36007KT 7000 OVC020"
    },
    {
      "icao": "LIMJ",
      "alert": "OK",
      "vis_m": 9999,
      "fzfg": false,
      "metar_trigger": false,
      "taf_trigger": false,
      "metar": "METAR LIMJ 130950Z 02008KT 340V060 9999 FEW070 19/11 Q1003",
      "taf": "TAF LIMJ 130500Z 1306/1406 02013KT 9999 SCT060"
    },
    {
      "icao": "LIPE",
      "alert": "OK",
      "vis_m": 6000,
      "fzfg": false,
      "metar_trigger": false,
      "taf_trigger": false,
      "metar": "METAR LIPE 130950Z 07007KT 040V100 6000 BKN007 15/14 Q1006",
      "taf": "TAF LIPE 130500Z 1306/1406 VRB05KT 5000 BR BKN006"
    },
    {
      "icao": "LIPH",
      "alert": "OK",
      "vis_m": 9999,
      "fzfg": false,
      "metar_trigger": false,
      "taf_trigger": false,
      "metar": "METAR LIPH 130950Z 06011KT 360V080 9999 FEW070 19/09 Q1009",
      "taf": "TAF LIPH 130500Z 1306/1406 04006KT 9999 BKN060"
    },
    {
      "icao": "LIPQ",
      "alert": "OK",
      "vis_m": 9999,
      "fzfg": false,
      "metar_trigger": false,
      "taf_trigger": false,
      "metar": "METAR LIPQ 130950Z AUTO 11008KT 060V140 9999 BKN140/// 21/06 Q1009",
      "taf": "TAF LIPQ 130500Z 1306/1406 VRB05KT 9999 BKN060"
    },
    {
      "icao": "LIPR",
      "alert": "OK",
      "vis_m": 9999,
      "fzfg": false,
      "metar_trigger": false,
      "taf_trigger": false,
      "metar": "METAR LIPR 130950Z 12010KT 9999 BKN035 15/13 Q1005",
      "taf": "TAF LIPR 130500Z 1306/1406 10012KT 9999 SCT015"
    },
    {
      "icao": "LIPX",
      "alert": "OK",
      "vis_m": 9999,
      "fzfg": false,
      "metar_trigger": false,
      "taf_trigger": false,
      "metar": "METAR LIPX 130950Z 08018G31KT 050V120 9999 BKN045 18/09 Q1007",
      "taf": "TAF LIPX 130500Z 1306/1406 09010KT 9999 SCT040"
    },
    {
      "icao": "LIPY",
      "alert": "OK",
      "vis_m": 9999,
      "fzfg": false,
      "metar_trigger": false,
      "taf_trigger": false,
      "metar": "METAR LIPY 130950Z AUTO 14009KT 090V200 9999 BKN022/// BKN160/// 17/12 Q1005",
      "taf": "TAF LIPY 130500Z 1306/1406 13012KT 8000 BKN010"
    },
    {
      "icao": "LIPZ",
      "alert": "OK",
      "vis_m": 9999,
      "fzfg": false,
      "metar_trigger": false,
      "taf_trigger": false,
      "metar": "METAR LIPZ 130950Z 07012KT 9999 FEW070 19/10 Q1009 NOSIG",
      "taf": "TAF LIPZ 130500Z 1306/1412 04012KT 9999 BKN060"
    },
    {
      "icao": "LIRF",
      "alert": "OK",
      "vis_m": 9999,
      "fzfg": false,
      "metar_trigger": false,
      "taf_trigger": false,
      "metar": "METAR LIRF 130950Z 15014KT 9999 -RA FEW035 SCT050 19/13 Q1002 NOSIG",
      "taf": "TAF LIRF 130500Z 1306/1412 14018G30KT 9999 SCT020"
    },
    {
      "icao": "LIRN",
      "alert": "OK",
      "vis_m": 9999,
      "fzfg": false,
      "metar_trigger": false,
      "taf_trigger": false,
      "metar": "METAR LIRN 130950Z 17008KT 100V220 9999 FEW050 21/10 Q1005 NOSIG",
      "taf": "TAF LIRN 130500Z 1306/1406 07006KT 9999 FEW040"
    },
    {
      "icao": "LIRP",
      "alert": "OK",
      "vis_m": 9999,
      "fzfg": false,
      "metar_trigger": false,
      "taf_trigger": false,
      "metar": "METAR LIRP 130945Z 12008KT CAVOK 19/12 Q1003 NOSIG",
      "taf": "TAF LIRP 130500Z 1306/1406 12008KT CAVOK"
    },
    {
      "icao": "LIRZ",
      "alert": "OK",
      "vis_m": 9999,
      "fzfg": false,
      "metar_trigger": false,
      "taf_trigger": false,
      "metar": "METAR LIRZ 130950Z AUTO 01007KT 9999 NCD 18/11 Q1003",
      "taf": "TAF LIRZ 130500Z 1306/1406 03010KT 9999 SCT040"
    },
    {
      "icao": "LJLJ",
      "alert": "OK",
      "vis_m": 9999,
      "fzfg": false,
      "metar_trigger": false,
      "taf_trigger": false,
      "metar": "METAR LJLJ 131000Z 12003KT 040V170 9999 FEW060 SCT075 BKN100 14/05 Q1012 NOSIG",
      "taf": "TAF LJLJ 130500Z 1306/1406 VRB02KT 9999 BKN055"
    },
    {
      "icao": "LKMT",
      "alert": "OK",
      "vis_m": 9999,
      "fzfg": false,
      "metar_trigger": false,
      "taf_trigger": false,
      "metar": "METAR LKMT 131000Z 02010KT CAVOK 16/02 Q1015 NOSIG",
      "taf": "TAF LKMT 130500Z 1306/1406 VRB02KT CAVOK"
    },
    {
      "icao": "LKPR",
      "alert": "OK",
      "vis_m": 9999,
      "fzfg": false,
      "metar_trigger": false,
      "taf_trigger": false,
      "metar": "METAR LKPR 131000Z 11012KT CAVOK 12/00 Q1012 NOSIG",
      "taf": "TAF LKPR 130800Z 1309/1415 11012KT CAVOK"
    },
    {
      "icao": "LLBG",
      "alert": "OK",
      "vis_m": 9999,
      "fzfg": false,
      "metar_trigger": false,
      "taf_trigger": false,
      "metar": "METAR LLBG 130950Z 25008KT 210V290 9999 SCT033 21/12 Q1018 NOSIG",
      "taf": "TAF LLBG 130507Z 1306/1406 VRB04KT 9999 SCT025 TX22/1311Z TN09/1404Z"
    },
    {
      "icao": "LMML",
      "alert": "OK",
      "vis_m": 4000,
      "fzfg": false,
      "metar_trigger": false,
      "taf_trigger": false,
      "metar": "METAR LMML 131015Z 19010KT 160V220 4000 DU NSC 23/12 Q1005 NOSIG",
      "taf": ""
    },
    {
      "icao": "LOWW",
      "alert": "OK",
      "vis_m": 9999,
      "fzfg": false,
      "metar_trigger": false,
      "taf_trigger": false,
      "metar": "METAR LOWW 130950Z 13014KT 9999 FEW050 13/M01 Q1015 NOSIG",
      "taf": "TAF LOWW 130815Z 1309/1415 14012KT 9999 SCT050 TX18/1313Z TN09/1404Z"
    },
    {
      "icao": "LPFR",
      "alert": "OK",
      "vis_m": 9999,
      "fzfg": false,
      "metar_trigger": false,
      "taf_trigger": false,
      "metar": "METAR LPFR 131000Z 33016KT 9999 FEW040 17/06 Q1022",
      "taf": "TAF LPFR 130500Z 1306/1406 33012KT 9999 FEW030"
    },
    {
      "icao": "LPMA",
      "alert": "OK",
      "vis_m": 9999,
      "fzfg": false,
      "metar_trigger": false,
      "taf_trigger": false,
      "metar": "METAR LPMA 131000Z 01008KT 9999 BKN015 SCT030 16/08 Q1027",
      "taf": "TAF LPMA 130500Z 1306/1406 02012KT 9999 SCT015 SCT030"
    },
    {
      "icao": "LPPR",
      "alert": "OK",
      "vis_m": 9000,
      "fzfg": false,
      "metar_trigger": false,
      "taf_trigger": false,
      "metar": "METAR LPPR 131000Z 19007KT 9000 VCSH SCT007 BKN015 BKN030 12/11 Q1021",
      "taf": "TAF LPPR 130500Z 1306/1406 15005KT 9999 SCT008 BKN016"
    },
    {
      "icao": "LPPS",
      "alert": "OK",
      "vis_m": 9999,
      "fzfg": false,
      "metar_trigger": false,
      "taf_trigger": false,
      "metar": "METAR LPPS 131000Z 05006KT 350V090 9999 FEW015 BKN030 16/08 Q1027",
      "taf": "TAF LPPS 130500Z 1306/1412 03010KT 9999 SCT015 BKN030"
    },
    {
      "icao": "LPPT",
      "alert": "OK",
      "vis_m": 9999,
      "fzfg": false,
      "metar_trigger": false,
      "taf_trigger": false,
      "metar": "METAR LPPT 131000Z 30009KT 9999 FEW015 BKN030 13/09 Q1023",
      "taf": "TAF LPPT 130500Z 1306/1412 32010KT 9999 SCT020"
    },
    {
      "icao": "LQBK",
      "alert": "OK",
      "vis_m": 9999,
      "fzfg": false,
      "metar_trigger": false,
      "taf_trigger": false,
      "metar": "METAR LQBK 131000Z 35006KT 290V040 CAVOK 15/04 Q1012 NOSIG",
      "taf": "TAF LQBK 130500Z 1306/1406 03007KT CAVOK TX21/1314Z TN08/1404Z"
    },
    {
      "icao": "LQSA",
      "alert": "OK",
      "vis_m": 9999,
      "fzfg": false,
      "metar_trigger": false,
      "taf_trigger": false,
      "metar": "METAR LQSA 131000Z VRB03KT CAVOK 19/05 Q1011 NOSIG",
      "taf": "TAF LQSA 130500Z 1306/1406 VRB02KT CAVOK TX25/1313Z TN06/1404Z"
    },
    {
      "icao": "LQTZ",
      "alert": "OK",
      "vis_m": 9999,
      "fzfg": false,
      "metar_trigger": false,
      "taf_trigger": false,
      "metar": "METAR LQTZ 131000Z 10007KT CAVOK 18/09 Q1011",
      "taf": "TAF LQTZ 130500Z 1306/1406 16006KT CAVOK TX22/1314Z TN06/1404Z"
    },
    {
      "icao": "LRBC",
      "alert": "OK",
      "vis_m": 9999,
      "fzfg": false,
      "metar_trigger": false,
      "taf_trigger": false,
      "metar": "METAR LRBC 131000Z COR 17010KT 9999 FEW030CB BKN041 11/04 Q1022",
      "taf": "TAF LRBC 130800Z 1309/1318 VRB04KT CAVOK"
    },
    {
      "icao": "LRBS",
      "alert": "OK",
      "vis_m": 9999,
      "fzfg": false,
      "metar_trigger": false,
      "taf_trigger": false,
      "metar": "METAR LRBS 131000Z 08009KT 060V150 CAVOK 16/02 Q1021 NOSIG",
      "taf": "TAF LRBS 130500Z 1306/1406 07012KT CAVOK"
    },
    {
      "icao": "LRBV",
      "alert": "OK",
      "vis_m": 9999,
      "fzfg": false,
      "metar_trigger": false,
      "taf_trigger": false,
      "metar": "METAR LRBV 131000Z 07007KT 030V100 9999 FEW059 12/02 Q1019",
      "taf": "TAF LRBV 130800Z 1309/1318 12010KT CAVOK"
    },
    {
      "icao": "LRCL",
      "alert": "OK",
      "vis_m": 9999,
      "fzfg": false,
      "metar_trigger": false,
      "taf_trigger": false,
      "metar": "METAR LRCL 131000Z 11006KT 080V160 CAVOK 11/01 Q1019",
      "taf": "TAF LRCL 130800Z 1309/1318 11008KT CAVOK"
    },
    {
      "icao": "LRCV",
      "alert": "OK",
      "vis_m": 9999,
      "fzfg": false,
      "metar_trigger": false,
      "taf_trigger": false,
      "metar": "METAR LRCV 131000Z 11011KT 080V140 CAVOK 14/05 Q1020",
      "taf": "TAF LRCV 130800Z 1309/1318 08012KT CAVOK"
    },
    {
      "icao": "LRIA",
      "alert": "OK",
      "vis_m": 9999,
      "fzfg": false,
      "metar_trigger": false,
      "taf_trigger": false,
      "metar": "METAR LRIA 131000Z 05004KT 350V140 CAVOK 12/M02 Q1023",
      "taf": "TAF LRIA 130800Z 1309/1318 11006KT CAVOK"
    },
    {
      "icao": "LROP",
      "alert": "OK",
      "vis_m": 9999,
      "fzfg": false,
      "metar_trigger": false,
      "taf_trigger": false,
      "metar": "METAR LROP 131000Z 09010KT CAVOK 15/M01 Q1021 NOSIG",
      "taf": "TAF LROP 130500Z 1306/1406 07012KT CAVOK"
    },
    {
      "icao": "LRSB",
      "alert": "OK",
      "vis_m": 9999,
      "fzfg": false,
      "metar_trigger": false,
      "taf_trigger": false,
      "metar": "METAR LRSB 131000Z 11011KT 080V140 CAVOK 14/02 Q1018",
      "taf": "TAF LRSB 130500Z 1306/1406 VRB04KT CAVOK"
    },
    {
      "icao": "LRSM",
      "alert": "OK",
      "vis_m": 9999,
      "fzfg": false,
      "metar_trigger": false,
      "taf_trigger": false,
      "metar": "METAR LRSM 131000Z 15008KT 120V180 CAVOK 15/M01 Q1019",
      "taf": "TAF LRSM 130800Z 1309/1318 13008KT CAVOK"
    },
    {
      "icao": "LRSV",
      "alert": "OK",
      "vis_m": 9999,
      "fzfg": false,
      "metar_trigger": false,
      "taf_trigger": false,
      "metar": "METAR LRSV 131000Z 07007KT 020V090 CAVOK 10/03 Q1022",
      "taf": "TAF LRSV 130800Z 1309/1318 VRB04KT CAVOK"
    },
    {
      "icao": "LRTM",
      "alert": "OK",
      "vis_m": 9999,
      "fzfg": false,
      "metar_trigger": false,
      "taf_trigger": false,
      "metar": "METAR LRTM 131000Z 05004KT 330V100 CAVOK 12/02 Q1019",
      "taf": "TAF LRTM 130800Z 1309/1318 10008KT CAVOK"
    },
    {
      "icao": "LRTR",
      "alert": "OK",
      "vis_m": 9999,
      "fzfg": false,
      "metar_trigger": false,
      "taf_trigger": false,
      "metar": "METAR LRTR 131000Z 10010KT CAVOK 15/03 Q1016",
      "taf": "TAF LRTR 130500Z 1306/1406 10010KT CAVOK"
    },
    {
      "icao": "LTAC",
      "alert": "OK",
      "vis_m": 9999,
      "fzfg": false,
      "metar_trigger": false,
      "taf_trigger": false,
      "metar": "METAR LTAC 130950Z VRB04KT 9999 FEW040 SCT180 09/M03 Q1020 NOSIG RMK RWY21C 21008KT RWY03L VRB05KT RWY21R 20008KT 150V230 RWY03R 19007KT 070V220 RWY21L VRB04KT",
      "taf": "TAF LTAC 130440Z 1306/1406 VRB02KT CAVOK"
    },
    {
      "icao": "LTFM",
      "alert": "OK",
      "vis_m": 9999,
      "fzfg": false,
      "metar_trigger": false,
      "taf_trigger": false,
      "metar": "METAR LTFM 130950Z 06014KT CAVOK 11/02 Q1023 NOSIG RMK RWY17L 07013KT RWY34L 06013KT RWY16R 07014KT RWY36 06015KT RWY18 08012KT",
      "taf": "TAF LTFM 130440Z 1306/1412 13004KT CAVOK"
    },
    {
      "icao": "LUKK",
      "alert": "OK",
      "vis_m": 9999,
      "fzfg": false,
      "metar_trigger": false,
      "taf_trigger": false,
      "metar": "METAR LUKK 131000Z VRB03KT 9999 FEW043 SCT049 11/00 Q1023 TEMPO SCT045CB",
      "taf": "TAF LUKK 130505Z 1306/1406 VRB05KT CAVOK"
    },
    {
      "icao": "LWOH",
      "alert": "OK",
      "vis_m": 9999,
      "fzfg": false,
      "metar_trigger": false,
      "taf_trigger": false,
      "metar": "METAR LWOH 130950Z 18006KT 150V240 9999 FEW033 16/09 Q1017",
      "taf": "TAF LWOH 130825Z 1309/1409 16008KT 9999 SCT040"
    },
    {
      "icao": "LWSK",
      "alert": "OK",
      "vis_m": 9999,
      "fzfg": false,
      "metar_trigger": false,
      "taf_trigger": false,
      "metar": "METAR LWSK 130950Z 17004KT 110V220 9999 SCT023 OVC050 16/10 Q1018 NOSIG",
      "taf": "TAF LWSK 130825Z 1309/1409 16012KT 9999 FEW020 BKN050"
    },
    {
      "icao": "LYBE",
      "alert": "OK",
      "vis_m": 9999,
      "fzfg": false,
      "metar_trigger": false,
      "taf_trigger": false,
      "metar": "METAR LYBE 131000Z 11015KT CAVOK 17/05 Q1014 NOSIG",
      "taf": "TAF LYBE 130500Z 1306/1406 10007KT CAVOK TX20/1313Z TN08/1404Z"
    },
    {
      "icao": "LYNI",
      "alert": "OK",
      "vis_m": 9999,
      "fzfg": false,
      "metar_trigger": false,
      "taf_trigger": false,
      "metar": "METAR LYNI 131000Z 11006KT 060V150 CAVOK 19/07 Q1016 NOSIG",
      "taf": "TAF LYNI 130500Z 1306/1406 10014KT CAVOK TX20/1313Z TN08/1404Z"
    },
    {
      "icao": "LYPG",
      "alert": "OK",
      "vis_m": 9999,
      "fzfg": false,
      "metar_trigger": false,
      "taf_trigger": false,
      "metar": "METAR LYPG 131000Z VRB02KT CAVOK 19/08 Q1012 NOSIG",
      "taf": "TAF LYPG 130500Z 1306/1406 36005KT 9999 SCT090 TX24/1313Z TN14/1404Z"
    },
    {
      "icao": "LZIB",
      "alert": "OK",
      "vis_m": 9999,
      "fzfg": false,
      "metar_trigger": false,
      "taf_trigger": false,
      "metar": "METAR LZIB 131000Z 11015KT CAVOK 15/M01 Q1015 NOSIG",
      "taf": "TAF LZIB 130515Z 1306/1406 11009KT 9999 FEW045"
    },
    {
      "icao": "LZKZ",
      "alert": "OK",
      "vis_m": 9999,
      "fzfg": false,
      "metar_trigger": false,
      "taf_trigger": false,
      "metar": "METAR LZKZ 131000Z 07006KT 040V120 CAVOK 13/M02 Q1019 WS R01 NOSIG",
      "taf": "TAF LZKZ 130515Z 1306/1406 07007KT CAVOK"
    },
    {
      "icao": "LZTT",
      "alert": "OK",
      "vis_m": 9999,
      "fzfg": false,
      "metar_trigger": false,
      "taf_trigger": false,
      "metar": "METAR LZTT 131000Z 10006KT 060V140 9999 BKN066 09/M03 Q1018 NOSIG",
      "taf": "TAF LZTT 130515Z 1306/1406 VRB02KT CAVOK"
    },
    {
      "icao": "OEJN",
      "alert": "OK",
      "vis_m": 9999,
      "fzfg": false,
      "metar_trigger": false,
      "taf_trigger": false,
      "metar": "METAR OEJN 131000Z 28012KT CAVOK 29/16 Q1011 NOSIG",
      "taf": "TAF OEJN 130500Z 1306/1412 30015KT 9999 FEW040"
    },
    {
      "icao": "OEMA",
      "alert": "OK",
      "vis_m": 9999,
      "fzfg": false,
      "metar_trigger": false,
      "taf_trigger": false,
      "metar": "METAR OEMA 131000Z 27003KT CAVOK 31/M09 Q1016 NOSIG",
      "taf": "TAF OEMA 130500Z 1306/1412 12006KT CAVOK"
    },
    {
      "icao": "OJAI",
      "alert": "OK",
      "vis_m": 5000,
      "fzfg": false,
      "metar_trigger": false,
      "taf_trigger": false,
      "metar": "METAR OJAI 130900Z 27007KT 5000 HZ SCT025 17/07 Q1020 NOSIG",
      "taf": "TAF OJAI 130500Z 1306/1412 27012KT 5000 HZ NSC"
    },
    {
      "icao": "OMAA",
      "alert": "OK",
      "vis_m": null,
      "fzfg": false,
      "metar_trigger": false,
      "taf_trigger": false,
      "metar": "",
      "taf": ""
    },
    {
      "icao": "OMDB",
      "alert": "OK",
      "vis_m": null,
      "fzfg": false,
      "metar_trigger": false,
      "taf_trigger": false,
      "metar": "",
      "taf": ""
    },
    {
      "icao": "UAAA",
      "alert": "OK",
      "vis_m": 9999,
      "fzfg": false,
      "metar_trigger": false,
      "taf_trigger": false,
      "metar": "METAR UAAA 131000Z 30003MPS 9999 FEW050CB SCT100 21/03 Q1016 NOSIG",
      "taf": "TAF UAAA 130503Z 1306/1406 03003G08MPS 9999 FEW100 TX21/1309Z TN06/1401Z"
    },
    {
      "icao": "UBBB",
      "alert": "OK",
      "vis_m": 9999,
      "fzfg": false,
      "metar_trigger": false,
      "taf_trigger": false,
      "metar": "METAR UBBB 131000Z 35012KT 9999 BKN018 13/08 Q1013 NOSIG",
      "taf": "TAF UBBB 130459Z 1306/1406 31012KT 9999 SCT012 BKN030 TX14/1310Z TN08/1401Z"
    },
    {
      "icao": "UDSG",
      "alert": "OK",
      "vis_m": 9999,
      "fzfg": false,
      "metar_trigger": false,
      "taf_trigger": false,
      "metar": "METAR UDSG 131000Z 36013KT 9999 SCT036CB BKN046 03/M03 Q1013 NOSIG",
      "taf": "TAF UDSG 130458Z 1306/1406 36010KT 9999 BKN050"
    },
    {
      "icao": "UDYZ",
      "alert": "OK",
      "vis_m": 9999,
      "fzfg": false,
      "metar_trigger": false,
      "taf_trigger": false,
      "metar": "METAR UDYZ 131000Z 08006KT 9999 -SHRA OVC036CB 08/03 Q1012 NOSIG",
      "taf": "TAF UDYZ 130500Z 1306/1406 16006KT 9999 SCT040"
    },
    {
      "icao": "UGKO",
      "alert": "OK",
      "vis_m": 9999,
      "fzfg": false,
      "metar_trigger": false,
      "taf_trigger": false,
      "metar": "METAR UGKO 131000Z 34007KT 310V020 9999 BKN011CB OVC033 08/06 Q1019 NOSIG",
      "taf": "TAF UGKO 130500Z 1306/1406 25017KT 9999 SCT023 OVC045 TX10/1310Z TN05/1403Z"
    }
  ]
}