{
  "ts_utc": "2026-02-07T04:15:00Z",
  "threshold_m": 150,
  "source": "stations_override.txt (ICAO list) + aviationweather.gov (METAR/TAF raw)",
  "station_count": 159,
  "stations": [
    {
      "icao": "BIKF",
      "alert": "OK",
      "vis_m": 9999,
      "fzfg": false,
      "metar_trigger": false,
      "taf_trigger": false,
      "metar": "METAR BIKF 070400Z 07005KT CAVOK 02/M02 Q1008",
      "taf": "TAF BIKF 070140Z 0703/0803 09008KT CAVOK TX03/0714Z TNM03/0800Z"
    },
    {
      "icao": "BKPR",
      "alert": "OK",
      "vis_m": 9999,
      "fzfg": false,
      "metar_trigger": false,
      "taf_trigger": false,
      "metar": "METAR BKPR 070400Z VRB01KT 9999 BKN070 05/05 Q1001 NOSIG",
      "taf": "TAF BKPR 062330Z 0700/0724 24008KT 9999 SCT020 BKN040"
    },
    {
      "icao": "EBCI",
      "alert": "OK",
      "vis_m": 9999,
      "fzfg": false,
      "metar_trigger": false,
      "taf_trigger": false,
      "metar": "METAR EBCI 070350Z 20007KT 9999 FEW035 06/05 Q0999 NOSIG",
      "taf": "TAF EBCI 062320Z 0700/0806 19006KT 9999 FEW020"
    },
    {
      "icao": "EDDB",
      "alert": "OK",
      "vis_m": 1200,
      "fzfg": false,
      "metar_trigger": false,
      "taf_trigger": false,
      "metar": "METAR EDDB 070350Z AUTO 09004KT 1200 0900 R06L/1700U R06R/1800D BCFG OVC002 01/01 Q1002 NOSIG",
      "taf": "TAF EDDB 062300Z 0700/0724 08004KT 1200 BR OVC003"
    },
    {
      "icao": "EDDH",
      "alert": "OK",
      "vis_m": 4400,
      "fzfg": false,
      "metar_trigger": false,
      "taf_trigger": false,
      "metar": "METAR EDDH 070350Z AUTO 09006KT 4400 BR OVC003 01/01 Q1001 NOSIG",
      "taf": ""
    },
    {
      "icao": "EDDK",
      "alert": "OK",
      "vis_m": 9000,
      "fzfg": false,
      "metar_trigger": false,
      "taf_trigger": false,
      "metar": "METAR EDDK 070350Z AUTO VRB02KT 9000 SHRA BKN020 BKN032 BKN048 FEW///TCU 06/05 Q1000 NOSIG",
      "taf": "TAF EDDK 062300Z 0700/0806 12005KT 9999 BKN030"
    },
    {
      "icao": "EDDN",
      "alert": "OK",
      "vis_m": 3400,
      "fzfg": false,
      "metar_trigger": false,
      "taf_trigger": false,
      "metar": "METAR EDDN 070350Z AUTO 12005KT 3400 VCSH BR OVC006 FEW///TCU 02/02 Q1002 RERA",
      "taf": ""
    },
    {
      "icao": "EDDS",
      "alert": "OK",
      "vis_m": 9999,
      "fzfg": false,
      "metar_trigger": false,
      "taf_trigger": false,
      "metar": "METAR EDDS 070350Z AUTO 24004KT 9999 BKN032 BKN041 04/04 Q1001",
      "taf": "TAF EDDS 062300Z 0700/0724 VRB02KT 9999 SCT035"
    },
    {
      "icao": "EDFH",
      "alert": "OK",
      "vis_m": 9999,
      "fzfg": false,
      "metar_trigger": false,
      "taf_trigger": false,
      "metar": "METAR EDFH 070350Z 24005KT 9999 -RA FEW002 SCT020 BKN029 06/05 Q1000",
      "taf": "TAF EDFH 062300Z 0700/0724 23006KT 6000 BKN005"
    },
    {
      "icao": "EDJA",
      "alert": "OK",
      "vis_m": 9999,
      "fzfg": false,
      "metar_trigger": false,
      "taf_trigger": false,
      "metar": "METAR EDJA 070350Z AUTO 24008KT 9999 // OVC038/// 05/03 Q1002",
      "taf": "TAF EDJA 070200Z 0703/0712 21009KT 9999 FEW015 BKN030"
    },
    {
      "icao": "EDLW",
      "alert": "OK",
      "vis_m": 9999,
      "fzfg": false,
      "metar_trigger": false,
      "taf_trigger": false,
      "metar": "METAR EDLW 070350Z AUTO 17010KT 9999 // FEW027/// BKN060/// 07/06 Q0999",
      "taf": "TAF EDLW 061700Z 0618/0718 VRB03KT 9999 BKN020"
    },
    {
      "icao": "EDNY",
      "alert": "OK",
      "vis_m": 7000,
      "fzfg": false,
      "metar_trigger": false,
      "taf_trigger": false,
      "metar": "METAR EDNY 070350Z AUTO 00000KT 7000 // OVC027/// 04/04 Q1003",
      "taf": "TAF EDNY 070200Z 0703/0712 VRB02KT 9999 FEW020 BKN040"
    },
    {
      "icao": "EDSB",
      "alert": "OK",
      "vis_m": 9999,
      "fzfg": false,
      "metar_trigger": false,
      "taf_trigger": false,
      "metar": "METAR EDSB 070350Z AUTO 21007KT 9999 OVC024/// 07/06 Q1002",
      "taf": "TAF EDSB 062300Z 0700/0724 22007KT 9999 OVC030"
    },
    {
      "icao": "EETN",
      "alert": "OK",
      "vis_m": 300,
      "fzfg": true,
      "metar_trigger": false,
      "taf_trigger": false,
      "metar": "METAR EETN 070350Z 04007KT 0300 R08/0800 FZFG VV002 M06/M07 Q1013 NOSIG",
      "taf": ""
    },
    {
      "icao": "EFTU",
      "alert": "OK",
      "vis_m": 9999,
      "fzfg": false,
      "metar_trigger": false,
      "taf_trigger": false,
      "metar": "METAR EFTU 070350Z AUTO 04004KT 010V070 CAVOK M18/M21 Q1016",
      "taf": "TAF EFTU 070229Z 0703/0803 04003KT CAVOK"
    },
    {
      "icao": "EGBB",
      "alert": "OK",
      "vis_m": 7000,
      "fzfg": false,
      "metar_trigger": false,
      "taf_trigger": false,
      "metar": "METAR EGBB 070350Z 14007KT 7000 OVC021 06/06 Q0991",
      "taf": ""
    },
    {
      "icao": "EGGP",
      "alert": "OK",
      "vis_m": 5000,
      "fzfg": false,
      "metar_trigger": false,
      "taf_trigger": false,
      "metar": "METAR EGGP 070350Z AUTO 11006KT 5000 BR OVC004/// 06/05 Q0990",
      "taf": ""
    },
    {
      "icao": "EGGW",
      "alert": "OK",
      "vis_m": 9000,
      "fzfg": false,
      "metar_trigger": false,
      "taf_trigger": false,
      "metar": "METAR EGGW 070350Z AUTO 15008KT 9000 SCT006 SCT011 BKN018 06/05 Q0992",
      "taf": ""
    },
    {
      "icao": "EGKK",
      "alert": "OK",
      "vis_m": 9999,
      "fzfg": false,
      "metar_trigger": false,
      "taf_trigger": false,
      "metar": "METAR EGKK 070350Z AUTO 16006KT 120V190 9999 SCT016/// 08/07 Q0993",
      "taf": "TAF EGKK 062300Z 0700/0806 18008KT 9999 FEW030"
    },
    {
      "icao": "EGNM",
      "alert": "OK",
      "vis_m": null,
      "fzfg": false,
      "metar_trigger": false,
      "taf_trigger": false,
      "metar": "",
      "taf": "TAF EGNM 061702Z 0618/0718 08008KT 2000 -RA BR SCT002 BKN003"
    },
    {
      "icao": "EGPD",
      "alert": "OK",
      "vis_m": 4300,
      "fzfg": false,
      "metar_trigger": false,
      "taf_trigger": false,
      "metar": "METAR EGPD 070350Z AUTO 10011KT 4300 RA BKN007 BKN012 OVC020 04/03 Q0997 REDZ TEMPO 6000 -RA",
      "taf": ""
    },
    {
      "icao": "EGPF",
      "alert": "OK",
      "vis_m": 9999,
      "fzfg": false,
      "metar_trigger": false,
      "taf_trigger": false,
      "metar": "METAR EGPF 070350Z AUTO 06011KT 9999 -RA BKN010 OVC017 05/04 Q0993",
      "taf": ""
    },
    {
      "icao": "EHBK",
      "alert": "OK",
      "vis_m": 9999,
      "fzfg": false,
      "metar_trigger": false,
      "taf_trigger": false,
      "metar": "METAR EHBK 070355Z AUTO 19007KT 9999 FEW033/// 07/07 Q0999",
      "taf": "TAF EHBK 062317Z 0700/0806 18007KT CAVOK"
    },
    {
      "icao": "EHEH",
      "alert": "OK",
      "vis_m": 8000,
      "fzfg": false,
      "metar_trigger": false,
      "taf_trigger": false,
      "metar": "METAR EHEH 070355Z AUTO 17004KT 8000 BR FEW260 05/04 Q0999 BLU",
      "taf": "TAF EHEH 062351Z 0700/0806 19007KT 9999 SCT025"
    },
    {
      "icao": "EKBI",
      "alert": "OK",
      "vis_m": 3900,
      "fzfg": false,
      "metar_trigger": false,
      "taf_trigger": false,
      "metar": "METAR EKBI 070350Z AUTO 09012KT 3900 BR OVC004/// 00/M00 Q1004",
      "taf": "TAF EKBI 070227Z 0703/0803 08014KT 2500 BR OVC003"
    },
    {
      "icao": "EKCH",
      "alert": "OK",
      "vis_m": 9999,
      "fzfg": false,
      "metar_trigger": false,
      "taf_trigger": false,
      "metar": "METAR EKCH 070350Z 08009KT 9999 BKN011 01/M01 Q1006 TEMPO BKN008",
      "taf": "TAF EKCH 070227Z 0703/0803 08012KT 9999 BKN014"
    },
    {
      "icao": "ENAL",
      "alert": "OK",
      "vis_m": 9999,
      "fzfg": false,
      "metar_trigger": false,
      "taf_trigger": false,
      "metar": "METAR ENAL 070350Z AUTO 15012KT 9999 NCD 03/M11 Q1008",
      "taf": "TAF ENAL 070200Z 0703/0712 14015KT CAVOK"
    },
    {
      "icao": "ENBR",
      "alert": "OK",
      "vis_m": 9999,
      "fzfg": false,
      "metar_trigger": false,
      "taf_trigger": false,
      "metar": "METAR ENBR 070350Z AUTO VRB02KT 9999 OVC052/// 00/M04 Q1007 RMK WIND 1200FT 06002KT",
      "taf": "TAF ENBR 062300Z 0700/0724 05003KT CAVOK"
    },
    {
      "icao": "ENGM",
      "alert": "OK",
      "vis_m": 9999,
      "fzfg": false,
      "metar_trigger": false,
      "taf_trigger": false,
      "metar": "METAR ENGM 070350Z 02009KT 9999 -SN OVC033 M09/M11 Q1015",
      "taf": "TAF ENGM 062300Z 0700/0724 02008KT 9999 BKN020"
    },
    {
      "icao": "ENHD",
      "alert": "OK",
      "vis_m": 9999,
      "fzfg": false,
      "metar_trigger": false,
      "taf_trigger": false,
      "metar": "METAR ENHD 070350Z AUTO 07004KT 9999 OVC044/// 01/M07 Q1006",
      "taf": "TAF ENHD 070200Z 0703/0712 05005KT 9999 BKN045"
    },
    {
      "icao": "ENTC",
      "alert": "OK",
      "vis_m": 9999,
      "fzfg": false,
      "metar_trigger": false,
      "taf_trigger": false,
      "metar": "METAR ENTC 070350Z 14002KT CAVOK M06/M08 Q1020 RMK WIND 2600FT 14004KT",
      "taf": "TAF ENTC 062300Z 0700/0724 04005KT 9999 SCT020 BKN040"
    },
    {
      "icao": "ENTO",
      "alert": "OK",
      "vis_m": 9999,
      "fzfg": false,
      "metar_trigger": false,
      "taf_trigger": false,
      "metar": "METAR ENTO 070350Z AUTO 02013KT 9999 -SN BKN020/// OVC023/// M06/M09 Q1013",
      "taf": ""
    },
    {
      "icao": "ENVA",
      "alert": "OK",
      "vis_m": 9999,
      "fzfg": false,
      "metar_trigger": false,
      "taf_trigger": false,
      "metar": "METAR ENVA 070350Z AUTO 11008KT 9999 NCD M14/M20 Q1015 RMK WIND 670FT 10008KT",
      "taf": "TAF ENVA 062300Z 0700/0724 12008KT CAVOK"
    },
    {
      "icao": "ENZV",
      "alert": "OK",
      "vis_m": 9999,
      "fzfg": false,
      "metar_trigger": false,
      "taf_trigger": false,
      "metar": "METAR ENZV 070350Z AUTO VRB01KT 9999 OVC049/// M01/M06 Q1006",
      "taf": "TAF ENZV 062300Z 0700/0724 11005KT CAVOK"
    },
    {
      "icao": "EPGD",
      "alert": "OK",
      "vis_m": 3900,
      "fzfg": false,
      "metar_trigger": false,
      "taf_trigger": false,
      "metar": "METAR EPGD 070400Z 05007KT 3900 -FZRA BR OVC003 M02/M03 Q1004",
      "taf": "TAF EPGD 062330Z 0700/0724 06006KT 3500 BR OVC002"
    },
    {
      "icao": "EPKK",
      "alert": "OK",
      "vis_m": 200,
      "fzfg": false,
      "metar_trigger": false,
      "taf_trigger": false,
      "metar": "METAR EPKK 070400Z 04003KT 0200 R25/0500N FG OVC002 01/00 Q1000",
      "taf": "TAF EPKK 070230Z 0703/0803 VRB02KT 2500 BR BKN004"
    },
    {
      "icao": "EPKT",
      "alert": "OK",
      "vis_m": 2800,
      "fzfg": false,
      "metar_trigger": false,
      "taf_trigger": false,
      "metar": "METAR EPKT 070400Z 08002KT 2800 BR FEW035 BKN042 M01/M01 Q1000",
      "taf": "TAF EPKT 062330Z 0700/0724 VRB02KT 4000 BR BKN040"
    },
    {
      "icao": "EPLB",
      "alert": "OK",
      "vis_m": 2300,
      "fzfg": false,
      "metar_trigger": false,
      "taf_trigger": false,
      "metar": "METAR EPLB 070400Z 09004KT 2300 -RA BR OVC002 00/00 Q1001",
      "taf": "TAF EPLB 062330Z 0700/0724 09005KT 2500 BR OVC006"
    },
    {
      "icao": "EPMO",
      "alert": "OK",
      "vis_m": 900,
      "fzfg": true,
      "metar_trigger": false,
      "taf_trigger": false,
      "metar": "METAR EPMO 070400Z 06005KT 0900 R08/0900N FZFG VV001 M00/M00 Q1002",
      "taf": ""
    },
    {
      "icao": "EPPO",
      "alert": "OK",
      "vis_m": 1700,
      "fzfg": false,
      "metar_trigger": false,
      "taf_trigger": false,
      "metar": "METAR EPPO 070400Z 07005KT 1700 BR OVC002 00/M00 Q1002",
      "taf": ""
    },
    {
      "icao": "EPRA",
      "alert": "OK",
      "vis_m": 5000,
      "fzfg": false,
      "metar_trigger": false,
      "taf_trigger": false,
      "metar": "METAR EPRA 070400Z 04004KT 5000 BR BKN003 OVC006 00/M00 Q1001",
      "taf": "TAF EPRA 070230Z 0703/0712 07006KT 4000 BR OVC004"
    },
    {
      "icao": "EPRZ",
      "alert": "OK",
      "vis_m": 1400,
      "fzfg": false,
      "metar_trigger": false,
      "taf_trigger": false,
      "metar": "METAR EPRZ 070400Z 02002KT 1400 R27/P2000N BR OVC002 01/00 Q1000",
      "taf": "TAF EPRZ 062330Z 0700/0724 07006KT 2000 BR OVC002"
    },
    {
      "icao": "EPSC",
      "alert": "OK",
      "vis_m": 4700,
      "fzfg": false,
      "metar_trigger": false,
      "taf_trigger": false,
      "metar": "METAR EPSC 070400Z 04004KT 4700 -FZRA BR SCT010 OVC017 00/M00 Q1003",
      "taf": "TAF EPSC 062330Z 0700/0724 08004KT 4500 BR BKN011"
    },
    {
      "icao": "EPSY",
      "alert": "OK",
      "vis_m": 1700,
      "fzfg": false,
      "metar_trigger": false,
      "taf_trigger": false,
      "metar": "METAR EPSY 070400Z 04004KT 1700 BR OVC001 M02/M02 Q1003",
      "taf": "TAF EPSY 070230Z 0703/0712 07006KT 2500 BR OVC004"
    },
    {
      "icao": "EPWA",
      "alert": "OK",
      "vis_m": 6000,
      "fzfg": false,
      "metar_trigger": false,
      "taf_trigger": false,
      "metar": "METAR EPWA 070400Z 05004KT 350V070 6000 OVC004 01/00 Q1002 TEMPO 4000 DZ BR",
      "taf": "TAF EPWA 070230Z 0703/0803 06006KT 6000 OVC005"
    },
    {
      "icao": "EPWR",
      "alert": "OK",
      "vis_m": 2400,
      "fzfg": false,
      "metar_trigger": false,
      "taf_trigger": false,
      "metar": "METAR EPWR 070400Z VRB03KT 2400 BR FEW005 BKN010 01/01 Q1002",
      "taf": "TAF EPWR 070230Z 0703/0803 VRB02KT 1500 BR BKN003 OVC020"
    },
    {
      "icao": "ESGG",
      "alert": "OK",
      "vis_m": 9999,
      "fzfg": false,
      "metar_trigger": false,
      "taf_trigger": false,
      "metar": "METAR ESGG 070350Z 05011KT 9999 BKN006 M04/M06 Q1008",
      "taf": "TAF ESGG 070230Z 0703/0803 05012KT 9000 -SN BKN017"
    },
    {
      "icao": "ESKN",
      "alert": "OK",
      "vis_m": 9999,
      "fzfg": false,
      "metar_trigger": false,
      "taf_trigger": false,
      "metar": "METAR ESKN 070350Z 02008KT 350V050 9999 OVC006 M04/M05 Q1013",
      "taf": "TAF ESKN 070230Z 0703/0803 03008KT 9999 OVC004"
    },
    {
      "icao": "ESMS",
      "alert": "OK",
      "vis_m": 8000,
      "fzfg": false,
      "metar_trigger": false,
      "taf_trigger": false,
      "metar": "METAR ESMS 070350Z AUTO 09016KT 8000 OVC007/// 00/M01 Q1005",
      "taf": "TAF ESMS 070227Z 0703/0803 09017KT 9999 OVC008"
    },
    {
      "icao": "ESSA",
      "alert": "OK",
      "vis_m": 9999,
      "fzfg": false,
      "metar_trigger": false,
      "taf_trigger": false,
      "metar": "METAR ESSA 070350Z 02013KT 9999 BKN038 M04/M09 Q1014 NOSIG",
      "taf": "TAF ESSA 070230Z 0703/0803 03008KT 9999 BKN035"
    },
    {
      "icao": "EYKA",
      "alert": "OK",
      "vis_m": 7000,
      "fzfg": false,
      "metar_trigger": false,
      "taf_trigger": false,
      "metar": "METAR EYKA 070350Z 05003KT 010V080 7000 -SN OVC025 M04/M05 Q1005",
      "taf": "TAF EYKA 062318Z 0700/0724 05005KT 5000 SN SCT005 OVC015"
    },
    {
      "icao": "EYPA",
      "alert": "OK",
      "vis_m": 9999,
      "fzfg": false,
      "metar_trigger": false,
      "taf_trigger": false,
      "metar": "METAR EYPA 070350Z 07007KT 050V110 9999 OVC034 M05/M08 Q1007",
      "taf": "TAF EYPA 062308Z 0700/0724 07007KT 6000 SCT010 OVC020"
    },
    {
      "icao": "EYVI",
      "alert": "OK",
      "vis_m": 7000,
      "fzfg": false,
      "metar_trigger": false,
      "taf_trigger": false,
      "metar": "METAR EYVI 070350Z 09004KT 7000 -SN OVC019 M04/M05 Q1004 TEMPO 1500 SN OVC015",
      "taf": "TAF EYVI 062326Z 0700/0724 09005KT 5000 SN SCT010 OVC015"
    },
    {
      "icao": "GCFV",
      "alert": "OK",
      "vis_m": 9999,
      "fzfg": false,
      "metar_trigger": false,
      "taf_trigger": false,
      "metar": "METAR GCFV 070400Z AUTO 28007KT CAVOK 13/08 Q1024",
      "taf": "TAF GCFV 070200Z 0703/0803 30005KT 9999 FEW030 TX22/0714Z TN16/0706Z"
    },
    {
      "icao": "GCLP",
      "alert": "OK",
      "vis_m": 9999,
      "fzfg": false,
      "metar_trigger": false,
      "taf_trigger": false,
      "metar": "METAR GCLP 070400Z 31006KT 9999 FEW035 16/09 Q1025 NOSIG",
      "taf": "TAF GCLP 070200Z 0703/0803 30005KT 9999 FEW030 TX22/0714Z TN16/0706Z"
    },
    {
      "icao": "GCTS",
      "alert": "OK",
      "vis_m": 9999,
      "fzfg": false,
      "metar_trigger": false,
      "taf_trigger": false,
      "metar": "METAR GCTS 070400Z 31003KT 9999 BKN030 18/11 Q1025 NOSIG",
      "taf": "TAF GCTS 070200Z 0703/0803 36005KT 9999 FEW035 TX24/0714Z TN16/0706Z"
    },
    {
      "icao": "GMAD",
      "alert": "OK",
      "vis_m": 8000,
      "fzfg": false,
      "metar_trigger": false,
      "taf_trigger": false,
      "metar": "METAR GMAD 070400Z 05003KT 8000 NSC 09/07 Q1022 NOSIG",
      "taf": "TAF GMAD 062300Z 0700/0806 06008KT 8000 BKN016"
    },
    {
      "icao": "GMMN",
      "alert": "OK",
      "vis_m": 9999,
      "fzfg": false,
      "metar_trigger": false,
      "taf_trigger": false,
      "metar": "METAR GMMN 070400Z 20010KT 9999 SCT016 09/08 Q1021 NOSIG",
      "taf": "TAF GMMN 062300Z 0700/0806 22008KT 9999 SCT016"
    },
    {
      "icao": "GMMX",
      "alert": "OK",
      "vis_m": 8000,
      "fzfg": false,
      "metar_trigger": false,
      "taf_trigger": false,
      "metar": "METAR GMMX 070400Z VRB02KT 8000 SCT026 09/08 Q1022 NOSIG",
      "taf": "TAF GMMX 062300Z 0700/0806 26006KT 8000 SCT026 SCT080"
    },
    {
      "icao": "HEGN",
      "alert": "OK",
      "vis_m": 9999,
      "fzfg": false,
      "metar_trigger": false,
      "taf_trigger": false,
      "metar": "METAR HEGN 070300Z 29006KT CAVOK 16/10 Q1015 NOSIG",
      "taf": "TAF HEGN 062300Z 0700/0806 29008KT CAVOK"
    },
    {
      "icao": "HEMA",
      "alert": "OK",
      "vis_m": 9999,
      "fzfg": false,
      "metar_trigger": false,
      "taf_trigger": false,
      "metar": "METAR HEMA 070300Z 25011KT CAVOK 20/M04 Q1014 NOSIG",
      "taf": "TAF HEMA 062300Z 0700/0806 27008KT CAVOK"
    },
    {
      "icao": "HESH",
      "alert": "OK",
      "vis_m": 9999,
      "fzfg": false,
      "metar_trigger": false,
      "taf_trigger": false,
      "metar": "METAR HESH 070300Z 30004KT CAVOK 18/15 Q1015 NOSIG",
      "taf": "TAF HESH 062300Z 0700/0806 31008KT CAVOK"
    },
    {
      "icao": "HESX",
      "alert": "OK",
      "vis_m": 9999,
      "fzfg": false,
      "metar_trigger": false,
      "taf_trigger": false,
      "metar": "METAR HESX 070300Z 17004KT CAVOK 14/00 Q1014 NOSIG",
      "taf": "TAF HESX 062300Z 0700/0806 25008KT CAVOK"
    },
    {
      "icao": "LATI",
      "alert": "OK",
      "vis_m": 9999,
      "fzfg": false,
      "metar_trigger": false,
      "taf_trigger": false,
      "metar": "METAR LATI 070350Z VRB02KT 9999 SCT018 BKN053 12/10 Q1004 NOSIG",
      "taf": "TAF LATI 062300Z 0700/0724 14006KT 9999 SCT030 BKN080 TX17/0712Z TN11/0705Z"
    },
    {
      "icao": "LBPD",
      "alert": "OK",
      "vis_m": 9999,
      "fzfg": false,
      "metar_trigger": false,
      "taf_trigger": false,
      "metar": "METAR LBPD 070400Z AUTO VRB01KT 9999 BKN061/// 05/05 Q1000 NOSIG",
      "taf": "TAF LBPD 062300Z 0700/0724 VRB04KT 3000 BR SCT015 BKN030"
    },
    {
      "icao": "LBSF",
      "alert": "OK",
      "vis_m": 3200,
      "fzfg": false,
      "metar_trigger": false,
      "taf_trigger": false,
      "metar": "METAR LBSF 070400Z AUTO 13003KT 3200 BR SCT009/// BKN011/// OVC042/// 04/04 Q1001 TEMPO 2000 RA BR",
      "taf": "TAF LBSF 062300Z 0700/0724 VRB04KT 3000 BR SCT020 OVC040"
    },
    {
      "icao": "LBWN",
      "alert": "OK",
      "vis_m": 9999,
      "fzfg": false,
      "metar_trigger": false,
      "taf_trigger": false,
      "metar": "METAR LBWN 070400Z AUTO 34008KT 9999 OVC014/// 06/06 Q1000 NOSIG",
      "taf": ""
    },
    {
      "icao": "LCLK",
      "alert": "OK",
      "vis_m": 8000,
      "fzfg": false,
      "metar_trigger": false,
      "taf_trigger": false,
      "metar": "METAR LCLK 070400Z 21003KT 8000 FEW044 12/11 Q1009 NOSIG",
      "taf": "TAF LCLK 062330Z 0700/0800 28006KT 8000 BR DU FEW010"
    },
    {
      "icao": "LCPH",
      "alert": "OK",
      "vis_m": 9999,
      "fzfg": false,
      "metar_trigger": false,
      "taf_trigger": false,
      "metar": "METAR LCPH 070400Z 14003KT 090V160 9999 SCT014 FEW025TCU BKN030 14/12 Q1010 NOSIG",
      "taf": "TAF LCPH 062330Z 0700/0800 01006KT 9999 FEW012 SCT018"
    },
    {
      "icao": "LEAL",
      "alert": "OK",
      "vis_m": 9999,
      "fzfg": false,
      "metar_trigger": false,
      "taf_trigger": false,
      "metar": "METAR LEAL 070400Z 23003KT 180V310 CAVOK 11/05 Q1009 NOSIG",
      "taf": "TAF LEAL 062300Z 0700/0724 26010KT 9999 FEW040 TX15/0714Z TN08/0706Z"
    },
    {
      "icao": "LEBB",
      "alert": "OK",
      "vis_m": 9999,
      "fzfg": false,
      "metar_trigger": false,
      "taf_trigger": false,
      "metar": "METAR LEBB 070400Z COR 18008KT 140V240 CAVOK 10/01 Q1003 NOSIG",
      "taf": "TAF LEBB 062300Z 0700/0724 21010KT CAVOK TX14/0713Z TN09/0707Z"
    },
    {
      "icao": "LEBL",
      "alert": "OK",
      "vis_m": 9999,
      "fzfg": false,
      "metar_trigger": false,
      "taf_trigger": false,
      "metar": "METAR LEBL 070400Z 27007KT CAVOK 11/05 Q1003 NOSIG",
      "taf": "TAF LEBL 062300Z 0700/0724 31009KT 9999 FEW025 TX15/0713Z TN09/0706Z"
    },
    {
      "icao": "LECH",
      "alert": "OK",
      "vis_m": 9999,
      "fzfg": false,
      "metar_trigger": false,
      "taf_trigger": false,
      "metar": "METAR LECH 070400Z AUTO VRB02KT CAVOK 08/01 Q1006",
      "taf": ""
    },
    {
      "icao": "LEMD",
      "alert": "OK",
      "vis_m": 9999,
      "fzfg": false,
      "metar_trigger": false,
      "taf_trigger": false,
      "metar": "METAR LEMD 070400Z 22009KT 9999 BKN016 04/04 Q1008 NOSIG",
      "taf": "TAF LEMD 062300Z 0700/0806 22010KT 9999 SCT015 BKN030 TX07/0712Z TN03/0706Z"
    },
    {
      "icao": "LEMG",
      "alert": "OK",
      "vis_m": 9999,
      "fzfg": false,
      "metar_trigger": false,
      "taf_trigger": false,
      "metar": "METAR LEMG 070400Z 23005KT 9999 FEW048 09/05 Q1016 NOSIG",
      "taf": "TAF LEMG 062300Z 0700/0724 26005KT 9999 FEW040 TX16/0714Z TN10/0707Z"
    },
    {
      "icao": "LEVC",
      "alert": "OK",
      "vis_m": 9999,
      "fzfg": false,
      "metar_trigger": false,
      "taf_trigger": false,
      "metar": "METAR LEVC 070400Z 19004KT 140V260 9999 FEW043 11/03 Q1008 NOSIG",
      "taf": "TAF LEVC 062300Z 0700/0724 25009KT 9999 FEW040 TX16/0714Z TN08/0706Z"
    },
    {
      "icao": "LEXJ",
      "alert": "OK",
      "vis_m": 9999,
      "fzfg": false,
      "metar_trigger": false,
      "taf_trigger": false,
      "metar": "METAR LEXJ 070400Z AUTO 20010KT 150V250 CAVOK 10/01 Q1001",
      "taf": "TAF LEXJ 070200Z 0703/0803 20009KT 9999 FEW060 TX14/0713Z TN09/0706Z"
    },
    {
      "icao": "LEZG",
      "alert": "OK",
      "vis_m": 9999,
      "fzfg": false,
      "metar_trigger": false,
      "taf_trigger": false,
      "metar": "METAR LEZG 070400Z 25016KT 9999 FEW070 09/01 Q1006 NOSIG",
      "taf": "TAF LEZG 062300Z 0700/0724 25010KT 9999 FEW050 TX14/0715Z TN07/0706Z"
    },
    {
      "icao": "LEZL",
      "alert": "OK",
      "vis_m": 9000,
      "fzfg": false,
      "metar_trigger": false,
      "taf_trigger": false,
      "metar": "METAR LEZL 070400Z AUTO 19003KT 150V240 9000 NCD 08/07 Q1015",
      "taf": "TAF LEZL 070200Z 0703/0803 23008KT 9999 SCT030 SCT040 TX15/0715Z TN12/0707Z"
    },
    {
      "icao": "LFBD",
      "alert": "OK",
      "vis_m": 9999,
      "fzfg": false,
      "metar_trigger": false,
      "taf_trigger": false,
      "metar": "METAR LFBD 070400Z AUTO 19006KT CAVOK 07/07 Q1001 NOSIG",
      "taf": "TAF LFBD 062300Z 0700/0806 20010KT CAVOK TX13/0714Z TN06/0704Z"
    },
    {
      "icao": "LFLL",
      "alert": "OK",
      "vis_m": 9999,
      "fzfg": false,
      "metar_trigger": false,
      "taf_trigger": false,
      "metar": "METAR LFLL 070400Z 22001KT CAVOK 04/03 Q1002 NOSIG",
      "taf": "TAF LFLL 062300Z 0700/0806 15004KT CAVOK"
    },
    {
      "icao": "LFLS",
      "alert": "OK",
      "vis_m": 9999,
      "fzfg": false,
      "metar_trigger": false,
      "taf_trigger": false,
      "metar": "METAR LFLS 070400Z AUTO 07007KT CAVOK 04/04 Q1002 NOSIG",
      "taf": "TAF LFLS 070200Z 0703/0803 08007KT 9999 SCT060 BKN200"
    },
    {
      "icao": "LFMN",
      "alert": "OK",
      "vis_m": 9999,
      "fzfg": false,
      "metar_trigger": false,
      "taf_trigger": false,
      "metar": "METAR LFMN 070400Z 34008KT CAVOK 08/03 Q1002 NOSIG",
      "taf": "TAF LFMN 070200Z 0703/0809 33010KT CAVOK"
    },
    {
      "icao": "LFOB",
      "alert": "OK",
      "vis_m": 9999,
      "fzfg": false,
      "metar_trigger": false,
      "taf_trigger": false,
      "metar": "METAR LFOB 070400Z AUTO 15006KT CAVOK 05/04 Q0998 NOSIG",
      "taf": "TAF LFOB 062300Z 0700/0724 20007KT 9999 BKN020"
    },
    {
      "icao": "LFPO",
      "alert": "OK",
      "vis_m": 9999,
      "fzfg": false,
      "metar_trigger": false,
      "taf_trigger": false,
      "metar": "METAR LFPO 070400Z AUTO 19004KT 9999 SCT048 BKN062 07/06 Q1000 TEMPO BKN006",
      "taf": "TAF LFPO 062300Z 0700/0806 19008KT CAVOK"
    },
    {
      "icao": "LFSB",
      "alert": "OK",
      "vis_m": 9999,
      "fzfg": false,
      "metar_trigger": false,
      "taf_trigger": false,
      "metar": "METAR LFSB 070400Z AUTO 17004KT 9999 FEW040 BKN060 BKN100 05/05 Q1003 NOSIG",
      "taf": "TAF LFSB 062300Z 0700/0724 VRB03KT 9999 BKN035"
    },
    {
      "icao": "LGAV",
      "alert": "OK",
      "vis_m": 9999,
      "fzfg": false,
      "metar_trigger": false,
      "taf_trigger": false,
      "metar": "METAR LGAV 070350Z 19012KT 9999 FEW020 14/08 Q1004 NOSIG",
      "taf": "TAF LGAV 062300Z 0700/0724 27012KT 9999 FEW020"
    },
    {
      "icao": "LGTS",
      "alert": "OK",
      "vis_m": 200,
      "fzfg": false,
      "metar_trigger": false,
      "taf_trigger": false,
      "metar": "METAR LGTS 070350Z VRB03KT 0200 R10/0500 R28/0350 FG OVC002 08/08 Q1002 NOSIG",
      "taf": "TAF LGTS 062300Z 0700/0724 VRB03KT 7000 FEW008 SCT025"
    },
    {
      "icao": "LHBP",
      "alert": "OK",
      "vis_m": 9000,
      "fzfg": false,
      "metar_trigger": false,
      "taf_trigger": false,
      "metar": "METAR LHBP 070400Z 31006KT 9000 NSC 04/03 Q1001 NOSIG",
      "taf": "TAF LHBP 062315Z 0700/0724 VRB03KT 6000 SCT020 BKN040"
    },
    {
      "icao": "LHDC",
      "alert": "OK",
      "vis_m": 450,
      "fzfg": false,
      "metar_trigger": false,
      "taf_trigger": false,
      "metar": "METAR LHDC 070345Z AUTO 08001KT 0450 R04/0600U FG BKN021 04/04 Q1001",
      "taf": ""
    },
    {
      "icao": "LIBD",
      "alert": "OK",
      "vis_m": 9999,
      "fzfg": false,
      "metar_trigger": false,
      "taf_trigger": false,
      "metar": "METAR LIBD 070350Z 28005KT CAVOK 08/04 Q1004",
      "taf": "TAF LIBD 062300Z 0700/0724 VRB06KT 9999 FEW030"
    },
    {
      "icao": "LIBG",
      "alert": "OK",
      "vis_m": null,
      "fzfg": false,
      "metar_trigger": false,
      "taf_trigger": false,
      "metar": "",
      "taf": "TAF LIBG 061700Z 0618/0703 25010KT CAVOK"
    },
    {
      "icao": "LIBP",
      "alert": "OK",
      "vis_m": 400,
      "fzfg": false,
      "metar_trigger": false,
      "taf_trigger": false,
      "metar": "METAR LIBP 070350Z AUTO 20002KT 0400 R22/P2000N FG NCD 05/05 Q1004",
      "taf": "TAF LIBP 062300Z 0700/0724 VRB05KT 9999 FEW060"
    },
    {
      "icao": "LIBR",
      "alert": "OK",
      "vis_m": 9999,
      "fzfg": false,
      "metar_trigger": false,
      "taf_trigger": false,
      "metar": "METAR LIBR 070350Z 25006KT CAVOK 09/06 Q1005",
      "taf": "TAF LIBR 062300Z 0700/0724 24010KT 9999 FEW040"
    },
    {
      "icao": "LICA",
      "alert": "OK",
      "vis_m": 8000,
      "fzfg": false,
      "metar_trigger": false,
      "taf_trigger": false,
      "metar": "METAR LICA 070350Z AUTO 25011KT 8000 -DZRA SCT013/// BKN067/// 15/13 Q1009",
      "taf": "TAF LICA 062300Z 0700/0724 27015KT 9999 SCT020"
    },
    {
      "icao": "LICC",
      "alert": "OK",
      "vis_m": 9999,
      "fzfg": false,
      "metar_trigger": false,
      "taf_trigger": false,
      "metar": "METAR LICC 070350Z 24010KT CAVOK 10/06 Q1009",
      "taf": "TAF LICC 062300Z 0700/0724 26012KT 9999 FEW040"
    },
    {
      "icao": "LICJ",
      "alert": "OK",
      "vis_m": 9999,
      "fzfg": false,
      "metar_trigger": false,
      "taf_trigger": false,
      "metar": "METAR LICJ 070350Z 19017KT CAVOK 14/09 Q1008",
      "taf": "TAF LICJ 062300Z 0700/0724 22012KT 9999 FEW030"
    },
    {
      "icao": "LIMC",
      "alert": "OK",
      "vis_m": 9999,
      "fzfg": false,
      "metar_trigger": false,
      "taf_trigger": false,
      "metar": "METAR LIMC 070350Z 04004KT CAVOK 01/01 Q1002 NOSIG",
      "taf": "TAF LIMC 062300Z 0700/0806 VRB05KT 9999 SCT030"
    },
    {
      "icao": "LIME",
      "alert": "OK",
      "vis_m": 9999,
      "fzfg": false,
      "metar_trigger": false,
      "taf_trigger": false,
      "metar": "METAR LIME 070350Z 02003KT CAVOK 05/05 Q1002 NOSIG",
      "taf": "TAF LIME 062300Z 0700/0724 VRB05KT 9999 SCT040"
    },
    {
      "icao": "LIMF",
      "alert": "OK",
      "vis_m": 9999,
      "fzfg": false,
      "metar_trigger": false,
      "taf_trigger": false,
      "metar": "METAR LIMF 070350Z 30005KT CAVOK 04/01 Q1001",
      "taf": "TAF LIMF 062300Z 0700/0724 VRB05KT CAVOK"
    },
    {
      "icao": "LIMJ",
      "alert": "OK",
      "vis_m": 9999,
      "fzfg": false,
      "metar_trigger": false,
      "taf_trigger": false,
      "metar": "METAR LIMJ 070350Z AUTO VRB02KT 9999 BKN025/// 10/07 Q1001",
      "taf": "TAF LIMJ 062300Z 0700/0724 VRB05KT 9999 SCT040"
    },
    {
      "icao": "LIPE",
      "alert": "OK",
      "vis_m": 9999,
      "fzfg": false,
      "metar_trigger": false,
      "taf_trigger": false,
      "metar": "METAR LIPE 070350Z VRB01KT CAVOK 05/05 Q1002",
      "taf": "TAF LIPE 062300Z 0700/0724 VRB05KT 9000 FEW060"
    },
    {
      "icao": "LIPH",
      "alert": "OK",
      "vis_m": 500,
      "fzfg": false,
      "metar_trigger": false,
      "taf_trigger": false,
      "metar": "METAR LIPH 070350Z AUTO 02004KT 0500 R07/1300D -RA FG FEW110/// SCT170/// 07/07 Q1002",
      "taf": "TAF LIPH 062300Z 0700/0724 VRB05KT 7000 SCT060"
    },
    {
      "icao": "LIPQ",
      "alert": "OK",
      "vis_m": 5000,
      "fzfg": false,
      "metar_trigger": false,
      "taf_trigger": false,
      "metar": "METAR LIPQ 070350Z AUTO 06002KT 5000 BR OVC110/// 07/06 Q1003",
      "taf": "TAF LIPQ 062300Z 0700/0724 VRB04KT 7000 SCT070"
    },
    {
      "icao": "LIPR",
      "alert": "OK",
      "vis_m": 9999,
      "fzfg": false,
      "metar_trigger": false,
      "taf_trigger": false,
      "metar": "METAR LIPR 070350Z AUTO VRB02KT 9999 FEW066/// SCT170/// 04/04 Q1003",
      "taf": "TAF LIPR 062300Z 0700/0724 VRB05KT 9999 SCT060"
    },
    {
      "icao": "LIPX",
      "alert": "OK",
      "vis_m": 4000,
      "fzfg": false,
      "metar_trigger": false,
      "taf_trigger": false,
      "metar": "METAR LIPX 070350Z 24004KT 4000 R04/1400D BCFG BR BKN002 03/03 Q1002",
      "taf": "TAF LIPX 062300Z 0700/0724 VRB05KT 9999 SCT050"
    },
    {
      "icao": "LIPY",
      "alert": "OK",
      "vis_m": 9999,
      "fzfg": false,
      "metar_trigger": false,
      "taf_trigger": false,
      "metar": "METAR LIPY 070350Z AUTO 19003KT 9999 OVC047/// 07/07 Q1003",
      "taf": "TAF LIPY 062300Z 0700/0724 VRB05KT 9999 SCT050"
    },
    {
      "icao": "LIPZ",
      "alert": "OK",
      "vis_m": 3000,
      "fzfg": false,
      "metar_trigger": false,
      "taf_trigger": false,
      "metar": "METAR LIPZ 070350Z 22001KT 3000 R04R/0550N BCFG NSC 06/06 Q1002 NOSIG",
      "taf": "TAF LIPZ 062300Z 0700/0806 VRB05KT 7000 FEW060"
    },
    {
      "icao": "LIRF",
      "alert": "OK",
      "vis_m": 9999,
      "fzfg": false,
      "metar_trigger": false,
      "taf_trigger": false,
      "metar": "METAR LIRF 070350Z 12006KT 9999 SCT020 08/08 Q1005 NOSIG",
      "taf": "TAF LIRF 062300Z 0700/0806 VRB05KT 9999 FEW030"
    },
    {
      "icao": "LIRN",
      "alert": "OK",
      "vis_m": 9999,
      "fzfg": false,
      "metar_trigger": false,
      "taf_trigger": false,
      "metar": "METAR LIRN 070350Z 25008KT 9999 FEW020 12/09 Q1006 NOSIG",
      "taf": "TAF LIRN 062300Z 0700/0724 VRB05KT 9999 FEW030"
    },
    {
      "icao": "LIRP",
      "alert": "OK",
      "vis_m": 9999,
      "fzfg": false,
      "metar_trigger": false,
      "taf_trigger": false,
      "metar": "METAR LIRP 070345Z 28006KT 9999 SCT025 12/10 Q1003 NOSIG",
      "taf": "TAF LIRP 062300Z 0700/0724 24010KT 9999 SCT015 BKN030"
    },
    {
      "icao": "LIRZ",
      "alert": "OK",
      "vis_m": 9999,
      "fzfg": false,
      "metar_trigger": false,
      "taf_trigger": false,
      "metar": "METAR LIRZ 070350Z AUTO 02002KT 9999 BKN034/// 06/06 Q1005",
      "taf": "TAF LIRZ 062300Z 0700/0724 VRB05KT 9999 SCT030"
    },
    {
      "icao": "LJLJ",
      "alert": "OK",
      "vis_m": 400,
      "fzfg": false,
      "metar_trigger": false,
      "taf_trigger": false,
      "metar": "METAR LJLJ 070400Z 31002KT 0400 R30/0800N FG VV001 02/02 Q1002 NOSIG",
      "taf": "TAF LJLJ 062300Z 0700/0800 VRB02KT 9999 FEW007"
    },
    {
      "icao": "LKMT",
      "alert": "OK",
      "vis_m": 3500,
      "fzfg": false,
      "metar_trigger": false,
      "taf_trigger": false,
      "metar": "METAR LKMT 070400Z 24006KT 3500 BR SCT004 OVC016 03/03 Q1001 TEMPO OVC012",
      "taf": "TAF LKMT 062300Z 0700/0724 22005KT 2500 BR BKN025"
    },
    {
      "icao": "LKPR",
      "alert": "OK",
      "vis_m": 7000,
      "fzfg": false,
      "metar_trigger": false,
      "taf_trigger": false,
      "metar": "METAR LKPR 070400Z 23004KT 7000 SCT004 BKN005 OVC006 01/00 Q1001 TEMPO BKN004",
      "taf": "TAF LKPR 070200Z 0703/0809 22006KT 9000 OVC010"
    },
    {
      "icao": "LLBG",
      "alert": "OK",
      "vis_m": 9999,
      "fzfg": false,
      "metar_trigger": false,
      "taf_trigger": false,
      "metar": "METAR LLBG 070350Z 15008KT CAVOK 14/08 Q1013 NOSIG RMK BKN130",
      "taf": "TAF LLBG 062313Z 0700/0724 VRB04KT CAVOK"
    },
    {
      "icao": "LMML",
      "alert": "OK",
      "vis_m": 9999,
      "fzfg": false,
      "metar_trigger": false,
      "taf_trigger": false,
      "metar": "METAR LMML 070345Z 26009KT CAVOK 13/11 Q1011 NOSIG",
      "taf": "TAF LMML 062300Z 0700/0724 28007KT CAVOK"
    },
    {
      "icao": "LOWW",
      "alert": "OK",
      "vis_m": 9999,
      "fzfg": false,
      "metar_trigger": false,
      "taf_trigger": false,
      "metar": "METAR LOWW 070350Z 34003KT 9999 FEW018 03/01 Q1002 NOSIG",
      "taf": "TAF LOWW 070215Z 0703/0809 31006KT 9999 BKN030 TX07/0714Z TN03/0801Z"
    },
    {
      "icao": "LPFR",
      "alert": "OK",
      "vis_m": 9999,
      "fzfg": false,
      "metar_trigger": false,
      "taf_trigger": false,
      "metar": "METAR LPFR 070400Z 05004KT 9999 SCT035 09/07 Q1014",
      "taf": "TAF LPFR 062300Z 0700/0724 26010KT 9999 SCT025"
    },
    {
      "icao": "LPMA",
      "alert": "OK",
      "vis_m": 9999,
      "fzfg": false,
      "metar_trigger": false,
      "taf_trigger": false,
      "metar": "METAR LPMA 070400Z 21014KT 9999 SCT015 17/10 Q1020",
      "taf": "TAF LPMA 062300Z 0700/0724 VRB05KT 9999 SCT015"
    },
    {
      "icao": "LPPR",
      "alert": "OK",
      "vis_m": 8000,
      "fzfg": false,
      "metar_trigger": false,
      "taf_trigger": false,
      "metar": "METAR LPPR 070400Z 24014G27KT 200V280 8000 SHRA FEW018 FEW020CB SCT030 10/07 Q1006",
      "taf": "TAF LPPR 062300Z 0700/0724 23010KT 9999 SCT020 FEW025TCU"
    },
    {
      "icao": "LPPS",
      "alert": "OK",
      "vis_m": 9999,
      "fzfg": false,
      "metar_trigger": false,
      "taf_trigger": false,
      "metar": "METAR LPPS 070400Z 26017KT 9999 FEW014 17/10 Q1020",
      "taf": "TAF LPPS 062300Z 0700/0806 26015KT 9999 SCT015"
    },
    {
      "icao": "LPPT",
      "alert": "OK",
      "vis_m": 9999,
      "fzfg": false,
      "metar_trigger": false,
      "taf_trigger": false,
      "metar": "METAR LPPT 070400Z 19006KT 9999 FEW035 BKN045 10/09 Q1010",
      "taf": "TAF LPPT 062300Z 0700/0806 23008KT 9999 SCT025"
    },
    {
      "icao": "LQBK",
      "alert": "OK",
      "vis_m": 5000,
      "fzfg": false,
      "metar_trigger": false,
      "taf_trigger": false,
      "metar": "METAR LQBK 070400Z VRB02KT 5000 -RA BR BKN047 06/06 Q1002 NOSIG",
      "taf": "TAF LQBK 062300Z 0700/0724 VRB02KT 6000 SCT012 BKN025 TX08/0713Z TN03/0723Z"
    },
    {
      "icao": "LQSA",
      "alert": "OK",
      "vis_m": 5000,
      "fzfg": false,
      "metar_trigger": false,
      "taf_trigger": false,
      "metar": "METAR LQSA 070400Z 00000KT 5000 DZ BR FEW005 BKN015 06/06 Q1002",
      "taf": "TAF LQSA 062300Z 0700/0724 VRB02KT 9999 SCT030 BKN050 TX10/0713Z TN03/0705Z"
    },
    {
      "icao": "LQTZ",
      "alert": "OK",
      "vis_m": 1100,
      "fzfg": false,
      "metar_trigger": false,
      "taf_trigger": false,
      "metar": "METAR LQTZ 070400Z 32002KT 1100 R09/0900D BR OVC001 06/06 Q1002",
      "taf": "TAF LQTZ 062300Z 0700/0724 VRB02KT 6000 SCT012 BKN035 TX10/0713Z TN05/0705Z"
    },
    {
      "icao": "LRBC",
      "alert": "OK",
      "vis_m": 9999,
      "fzfg": false,
      "metar_trigger": false,
      "taf_trigger": false,
      "metar": "METAR LRBC 070400Z AUTO VRB01KT 9999 OVC004/// M00/M00 Q1001",
      "taf": "TAF LRBC 070200Z 0703/0712 VRB04KT 3000 BR OVC005"
    },
    {
      "icao": "LRBS",
      "alert": "OK",
      "vis_m": 3000,
      "fzfg": false,
      "metar_trigger": false,
      "taf_trigger": false,
      "metar": "METAR LRBS 070400Z 33002KT 3000 BR OVC002 01/01 Q1003 NOSIG",
      "taf": "TAF LRBS 062300Z 0700/0724 06008KT 5000 BR OVC003"
    },
    {
      "icao": "LRBV",
      "alert": "OK",
      "vis_m": 4900,
      "fzfg": false,
      "metar_trigger": false,
      "taf_trigger": false,
      "metar": "METAR LRBV 070400Z AUTO 00000KT 4900 BR BKN036/// BKN055/// M00/M01 Q1000",
      "taf": "TAF LRBV 070200Z 0703/0712 VRB04KT 5000 BR BKN010"
    },
    {
      "icao": "LRCL",
      "alert": "OK",
      "vis_m": 9999,
      "fzfg": false,
      "metar_trigger": false,
      "taf_trigger": false,
      "metar": "METAR LRCL 070400Z 28001KT 9999 BKN031 04/03 Q1000",
      "taf": "TAF LRCL 070200Z 0703/0712 VRB04KT 9999 SCT055"
    },
    {
      "icao": "LRCV",
      "alert": "OK",
      "vis_m": 350,
      "fzfg": false,
      "metar_trigger": false,
      "taf_trigger": false,
      "metar": "METAR LRCV 070400Z 27005KT 0350 R08/0550N FG VV001 03/02 Q1002",
      "taf": "TAF LRCV 070200Z 0703/0712 11006KT 0200 -DZ FG OVC001"
    },
    {
      "icao": "LRIA",
      "alert": "OK",
      "vis_m": 8000,
      "fzfg": false,
      "metar_trigger": false,
      "taf_trigger": false,
      "metar": "METAR LRIA 070400Z VRB02KT 8000 SCT005 BKN009 M02/M03 Q1002",
      "taf": "TAF LRIA 070200Z 0703/0712 VRB04KT 9999 BKN010"
    },
    {
      "icao": "LROP",
      "alert": "OK",
      "vis_m": 2000,
      "fzfg": false,
      "metar_trigger": false,
      "taf_trigger": false,
      "metar": "METAR LROP 070400Z VRB02KT 2000 BR OVC002 01/01 Q1003 NOSIG",
      "taf": "TAF LROP 062300Z 0700/0724 06008KT 5000 BR OVC003"
    },
    {
      "icao": "LRSB",
      "alert": "OK",
      "vis_m": 9999,
      "fzfg": false,
      "metar_trigger": false,
      "taf_trigger": false,
      "metar": "METAR LRSB 070400Z 30003KT 9999 BKN035 BKN050 04/03 Q1000",
      "taf": "TAF LRSB 062300Z 0700/0724 VRB04KT 9999 SCT050"
    },
    {
      "icao": "LRSM",
      "alert": "OK",
      "vis_m": 1000,
      "fzfg": false,
      "metar_trigger": false,
      "taf_trigger": false,
      "metar": "METAR LRSM 070400Z AUTO 22004KT 1000 R19/1200D BR VV001 06/05 Q1000",
      "taf": ""
    },
    {
      "icao": "LRSV",
      "alert": "OK",
      "vis_m": 300,
      "fzfg": true,
      "metar_trigger": false,
      "taf_trigger": false,
      "metar": "METAR LRSV 070400Z 05003KT 0300 R34/0550N FZFG VV002 M03/M03 Q1000",
      "taf": "TAF LRSV 070200Z 0703/0712 VRB04KT 0300 FZFG OVC001"
    },
    {
      "icao": "LRTM",
      "alert": "OK",
      "vis_m": 5000,
      "fzfg": false,
      "metar_trigger": false,
      "taf_trigger": false,
      "metar": "METAR LRTM 070400Z AUTO 03001KT 5000 FEW049/// 02/02 Q1000",
      "taf": "TAF LRTM 070200Z 0703/0712 VRB04KT 5000 BR BKN010"
    },
    {
      "icao": "LRTR",
      "alert": "OK",
      "vis_m": 9999,
      "fzfg": false,
      "metar_trigger": false,
      "taf_trigger": false,
      "metar": "METAR LRTR 070400Z 31003KT 9999 BKN036 05/05 Q1001",
      "taf": "TAF LRTR 062300Z 0700/0724 VRB04KT 9999 SCT045"
    },
    {
      "icao": "LTAC",
      "alert": "OK",
      "vis_m": 9999,
      "fzfg": false,
      "metar_trigger": false,
      "taf_trigger": false,
      "metar": "METAR LTAC 070350Z VRB03KT 9999 -SHRA SCT010 BKN025 BKN080 06/05 Q1002 NOSIG RMK RWY21C 04004KT 010V100 RWY03L VRB02KT RWY21R 03005KT RWY03R VRB01KT RWY21L VRB02KT",
      "taf": "TAF LTAC 062240Z 0700/0724 19007KT 9999 -SHRA BKN030 BKN080"
    },
    {
      "icao": "LTFM",
      "alert": "OK",
      "vis_m": 9999,
      "fzfg": false,
      "metar_trigger": false,
      "taf_trigger": false,
      "metar": "METAR LTFM 070350Z 22009KT 9999 FEW006 SCT032 BKN080 11/10 Q1000 NOSIG RMK RWY17L 21013KT RWY34L 21009KT RWY16R 21009KT RWY36 22008KT RWY18 22013KT",
      "taf": "TAF LTFM 062240Z 0700/0806 22012KT 9999 SCT032 BKN090"
    },
    {
      "icao": "LUKK",
      "alert": "OK",
      "vis_m": 9999,
      "fzfg": false,
      "metar_trigger": false,
      "taf_trigger": false,
      "metar": "METAR LUKK 070400Z 01004KT 9999 OVC003 M02/M02 Q1001 TEMPO 1000 BR",
      "taf": "TAF LUKK 062321Z 0700/0724 35006KT 5000 BR OVC005"
    },
    {
      "icao": "LWOH",
      "alert": "OK",
      "vis_m": null,
      "fzfg": false,
      "metar_trigger": false,
      "taf_trigger": false,
      "metar": "",
      "taf": "TAF LWOH 070230Z 0703/0803 15010KT 9999 FEW015 SCT040"
    },
    {
      "icao": "LWSK",
      "alert": "OK",
      "vis_m": 5000,
      "fzfg": false,
      "metar_trigger": false,
      "taf_trigger": false,
      "metar": "METAR LWSK 070350Z 15004KT 5000 BR FEW002 SCT075 05/05 Q1002 NOSIG",
      "taf": "TAF LWSK 070230Z 0703/0803 VRB02KT 5000 BR FEW013 BKN030"
    },
    {
      "icao": "LYBE",
      "alert": "OK",
      "vis_m": 9999,
      "fzfg": false,
      "metar_trigger": false,
      "taf_trigger": false,
      "metar": "METAR LYBE 070400Z 22004KT CAVOK 06/05 Q1002 NOSIG",
      "taf": "TAF LYBE 062300Z 0700/0724 27004KT CAVOK TX11/0713Z TN04/0706Z"
    },
    {
      "icao": "LYNI",
      "alert": "OK",
      "vis_m": 9999,
      "fzfg": false,
      "metar_trigger": false,
      "taf_trigger": false,
      "metar": "METAR LYNI 070400Z 00000KT 9999 FEW006 SCT037 BKN070 05/05 Q1001 NOSIG",
      "taf": "TAF LYNI 062300Z 0700/0724 10003KT 9999 SCT012 BKN040 OVC070 TX10/0713Z TN05/0706Z"
    },
    {
      "icao": "LYPG",
      "alert": "OK",
      "vis_m": 1500,
      "fzfg": false,
      "metar_trigger": false,
      "taf_trigger": false,
      "metar": "METAR LYPG 070400Z 07002KT 1500 BR FEW007 SCT050 BKN080 08/08 Q1003 NOSIG",
      "taf": "TAF LYPG 062300Z 0700/0724 36005KT 9999 FEW007 SCT030 BKN070 TX14/0712Z TN06/0706Z"
    },
    {
      "icao": "LZIB",
      "alert": "OK",
      "vis_m": 9999,
      "fzfg": false,
      "metar_trigger": false,
      "taf_trigger": false,
      "metar": "METAR LZIB 070400Z 26003KT 9999 FEW023 BKN034 04/02 Q1002 NOSIG",
      "taf": "TAF LZIB 062315Z 0700/0800 28006KT 9999 SCT013 BKN020"
    },
    {
      "icao": "LZKZ",
      "alert": "OK",
      "vis_m": 6000,
      "fzfg": false,
      "metar_trigger": false,
      "taf_trigger": false,
      "metar": "METAR LZKZ 070400Z 00000KT 6000 1800S BCFG SCT004 OVC012 03/03 Q1000 NOSIG",
      "taf": "TAF LZKZ 062315Z 0700/0800 VRB02KT 9999 SCT020 BKN030"
    },
    {
      "icao": "LZTT",
      "alert": "OK",
      "vis_m": 700,
      "fzfg": false,
      "metar_trigger": false,
      "taf_trigger": false,
      "metar": "METAR LZTT 070400Z 00000KT 0700 R27/1000N FG OVC002 01/01 Q0999",
      "taf": ""
    },
    {
      "icao": "OEJN",
      "alert": "OK",
      "vis_m": 9999,
      "fzfg": false,
      "metar_trigger": false,
      "taf_trigger": false,
      "metar": "METAR OEJN 070400Z 00000KT CAVOK 23/17 Q1015 NOSIG",
      "taf": "TAF OEJN 062300Z 0700/0806 36006KT 7000 NSC"
    },
    {
      "icao": "OEMA",
      "alert": "OK",
      "vis_m": 9999,
      "fzfg": false,
      "metar_trigger": false,
      "taf_trigger": false,
      "metar": "METAR OEMA 070400Z VRB02KT CAVOK 16/08 Q1019 NOSIG",
      "taf": "TAF OEMA 062300Z 0700/0806 VRB03KT CAVOK"
    },
    {
      "icao": "OJAI",
      "alert": "OK",
      "vis_m": 5000,
      "fzfg": false,
      "metar_trigger": false,
      "taf_trigger": false,
      "metar": "METAR OJAI 070400Z 19002KT 5000 HZ NSC 08/03 Q1016 NOSIG",
      "taf": "TAF OJAI 062248Z 0700/0806 23006KT 5000 HZ FEW040"
    },
    {
      "icao": "OMAA",
      "alert": "OK",
      "vis_m": 3500,
      "fzfg": false,
      "metar_trigger": false,
      "taf_trigger": false,
      "metar": "METAR OMAA 070400Z 13009KT 3500 HZ FEW010 18/16 Q1019 BECMG 5000",
      "taf": "TAF OMAA 062300Z 0700/0806 14008KT 8000 NSC"
    },
    {
      "icao": "OMDB",
      "alert": "OK",
      "vis_m": 4000,
      "fzfg": false,
      "metar_trigger": false,
      "taf_trigger": false,
      "metar": "METAR OMDB 070400Z 10004KT 060V120 4000 HZ NSC 19/18 Q1019 BECMG 3000",
      "taf": "TAF OMDB 062300Z 0700/0806 09005KT 8000 NSC"
    },
    {
      "icao": "UAAA",
      "alert": "OK",
      "vis_m": 9999,
      "fzfg": false,
      "metar_trigger": false,
      "taf_trigger": false,
      "metar": "METAR UAAA 070400Z COR 07004MPS 9999 BKN033 00/M03 Q1026 NOSIG",
      "taf": "TAF UAAA 062301Z 0700/0724 04003G08MPS 3100 BR BKN011CB OVC020 TX02/0707Z TNM04/0702Z"
    },
    {
      "icao": "UBBB",
      "alert": "OK",
      "vis_m": 9999,
      "fzfg": false,
      "metar_trigger": false,
      "taf_trigger": false,
      "metar": "METAR UBBB 070400Z 17004KT 9999 BKN027 06/05 Q1014 NOSIG",
      "taf": "TAF UBBB 062257Z 0700/0724 16010KT 9999 SCT010 BKN030 TX08/0710Z TN04/0700Z"
    },
    {
      "icao": "UDSG",
      "alert": "OK",
      "vis_m": 2200,
      "fzfg": false,
      "metar_trigger": false,
      "taf_trigger": false,
      "metar": "METAR UDSG 070400Z 11001KT 2200 -SN BR OVC015 M03/M03 Q1015 NOSIG",
      "taf": "TAF UDSG 062300Z 0700/0724 VRB06KT 2000 BR OVC020"
    },
    {
      "icao": "UDYZ",
      "alert": "OK",
      "vis_m": 6000,
      "fzfg": false,
      "metar_trigger": false,
      "taf_trigger": false,
      "metar": "METAR UDYZ 070400Z 33001KT 6000 BKN046 01/M01 Q1016 NOSIG",
      "taf": "TAF UDYZ 062300Z 0700/0724 14006KT 6000 SCT040"
    },
    {
      "icao": "UGKO",
      "alert": "OK",
      "vis_m": 9999,
      "fzfg": false,
      "metar_trigger": false,
      "taf_trigger": false,
      "metar": "METAR UGKO 070400Z 10011KT 9999 BKN091 11/M01 Q1008 NOSIG",
      "taf": "TAF UGKO 062300Z 0700/0724 08020KT CAVOK TX18/0711Z TN09/0703Z"
    }
  ]
}