{
  "ts_utc": "2025-12-24T19:52:52Z",
  "threshold_m": 150,
  "source": "stations_override.txt (ICAO list) + aviationweather.gov (METAR/TAF raw)",
  "station_count": 159,
  "stations": [
    {
      "icao": "BIKF",
      "alert": "OK",
      "vis_m": 2500,
      "fzfg": false,
      "metar_trigger": false,
      "taf_trigger": false,
      "metar": "METAR BIKF 241930Z 17031G42KT 2500 -DZ BR OVC005 09/08 Q1012",
      "taf": "TAF BIKF 241626Z 2418/2518 18030G40KT 6000 -RADZ SCT007 BKN014 TX09/2418Z TN07/2512Z"
    },
    {
      "icao": "BKPR",
      "alert": "OK",
      "vis_m": null,
      "fzfg": false,
      "metar_trigger": false,
      "taf_trigger": false,
      "metar": "",
      "taf": "TAF BKPR 241730Z 2418/2518 03008KT 9999 SCT012 BKN025"
    },
    {
      "icao": "EBCI",
      "alert": "OK",
      "vis_m": 9999,
      "fzfg": false,
      "metar_trigger": false,
      "taf_trigger": false,
      "metar": "METAR EBCI 241920Z 04018KT 9999 FEW023 M02/M06 Q1026 NOSIG",
      "taf": "TAF EBCI 241720Z 2418/2524 05013KT 9999 FEW030"
    },
    {
      "icao": "EDDB",
      "alert": "OK",
      "vis_m": 9999,
      "fzfg": false,
      "metar_trigger": false,
      "taf_trigger": false,
      "metar": "METAR EDDB 241920Z AUTO 07009KT CAVOK M06/M10 Q1037 NOSIG",
      "taf": "TAF EDDB 241700Z 2418/2518 07008KT CAVOK"
    },
    {
      "icao": "EDDH",
      "alert": "OK",
      "vis_m": 9999,
      "fzfg": false,
      "metar_trigger": false,
      "taf_trigger": false,
      "metar": "METAR EDDH 241920Z AUTO 07010KT 040V100 CAVOK M02/M05 Q1039 NOSIG",
      "taf": "TAF EDDH 241700Z 2418/2524 07010KT CAVOK"
    },
    {
      "icao": "EDDK",
      "alert": "OK",
      "vis_m": 9999,
      "fzfg": false,
      "metar_trigger": false,
      "taf_trigger": false,
      "metar": "METAR EDDK 241920Z AUTO 06005KT CAVOK M02/M08 Q1029 NOSIG",
      "taf": "TAF EDDK 241700Z 2418/2524 07009KT CAVOK"
    },
    {
      "icao": "EDDN",
      "alert": "OK",
      "vis_m": 9999,
      "fzfg": false,
      "metar_trigger": false,
      "taf_trigger": false,
      "metar": "METAR EDDN 241920Z AUTO 07014G26KT 030V110 9999 BKN025 M01/M06 Q1023 NOSIG",
      "taf": "TAF EDDN 241700Z 2418/2518 07015G25KT 9999 SCT030"
    },
    {
      "icao": "EDDS",
      "alert": "OK",
      "vis_m": 9999,
      "fzfg": false,
      "metar_trigger": false,
      "taf_trigger": false,
      "metar": "METAR EDDS 241920Z AUTO 06018G29KT 9999 OVC022 M00/M05 Q1018 NOSIG",
      "taf": "TAF EDDS 241700Z 2418/2518 04015G25KT 9999 BKN020 OVC030"
    },
    {
      "icao": "EDFH",
      "alert": "OK",
      "vis_m": 9999,
      "fzfg": false,
      "metar_trigger": false,
      "taf_trigger": false,
      "metar": "METAR EDFH 241920Z 06018KT 9999 OVC021 M03/M08 Q1023",
      "taf": "TAF EDFH 241700Z 2418/2518 05015G30KT 9999 SCT020 BKN030"
    },
    {
      "icao": "EDJA",
      "alert": "OK",
      "vis_m": 9999,
      "fzfg": false,
      "metar_trigger": false,
      "taf_trigger": false,
      "metar": "METAR EDJA 241920Z AUTO 06017KT 9999 // OVC009/// M02/M03 Q1015",
      "taf": "TAF EDJA 241700Z 2418/2503 06015KT 6000 BKN011"
    },
    {
      "icao": "EDLW",
      "alert": "OK",
      "vis_m": 9999,
      "fzfg": false,
      "metar_trigger": false,
      "taf_trigger": false,
      "metar": "METAR EDLW 241920Z 03014KT CAVOK M03/M08 Q1030",
      "taf": "TAF EDLW 241700Z 2418/2518 05011KT CAVOK"
    },
    {
      "icao": "EDNY",
      "alert": "OK",
      "vis_m": 9999,
      "fzfg": false,
      "metar_trigger": false,
      "taf_trigger": false,
      "metar": "METAR EDNY 241920Z AUTO 05016KT 9999 // OVC020/// 01/M02 Q1014",
      "taf": "TAF EDNY 241400Z 2415/2418 04015KT 9999 BKN020"
    },
    {
      "icao": "EDSB",
      "alert": "OK",
      "vis_m": 9999,
      "fzfg": false,
      "metar_trigger": false,
      "taf_trigger": false,
      "metar": "METAR EDSB 241920Z AUTO 04023KT 9999 // OVC036/// 01/M05 Q1019",
      "taf": ""
    },
    {
      "icao": "EETN",
      "alert": "OK",
      "vis_m": 9999,
      "fzfg": false,
      "metar_trigger": false,
      "taf_trigger": false,
      "metar": "METAR EETN 241950Z 29010KT 9999 BKN012 02/M01 Q1032 TEMPO OVC007",
      "taf": "TAF EETN 241730Z 2418/2518 29014KT 9999 OVC010"
    },
    {
      "icao": "EFTU",
      "alert": "OK",
      "vis_m": 9999,
      "fzfg": false,
      "metar_trigger": false,
      "taf_trigger": false,
      "metar": "METAR EFTU 241950Z AUTO 29006KT 9999 OVC006 02/01 Q1032",
      "taf": ""
    },
    {
      "icao": "EGBB",
      "alert": "OK",
      "vis_m": 9999,
      "fzfg": false,
      "metar_trigger": false,
      "taf_trigger": false,
      "metar": "METAR EGBB 241920Z 04007KT 9999 FEW019 BKN031 04/01 Q1036",
      "taf": "TAF EGBB 241657Z 2418/2518 06009KT 9999 SCT030"
    },
    {
      "icao": "EGGP",
      "alert": "OK",
      "vis_m": 9999,
      "fzfg": false,
      "metar_trigger": false,
      "taf_trigger": false,
      "metar": "METAR EGGP 241920Z 05006KT 9999 SCT027 05/M00 Q1038",
      "taf": "TAF EGGP 241658Z 2418/2518 07007KT 9999 SCT025"
    },
    {
      "icao": "EGGW",
      "alert": "OK",
      "vis_m": 9999,
      "fzfg": false,
      "metar_trigger": false,
      "taf_trigger": false,
      "metar": "METAR EGGW 241920Z AUTO 04014KT 9999 OVC027 03/M00 Q1033",
      "taf": "TAF EGGW 241658Z 2418/2518 05013KT 9999 SCT025"
    },
    {
      "icao": "EGKK",
      "alert": "OK",
      "vis_m": 9999,
      "fzfg": false,
      "metar_trigger": false,
      "taf_trigger": false,
      "metar": "METAR EGKK 241920Z 04014KT 9999 FEW026 SCT029 04/M00 Q1031",
      "taf": "TAF EGKK 241655Z 2418/2524 04013KT 9999 FEW030"
    },
    {
      "icao": "EGNM",
      "alert": "OK",
      "vis_m": 9999,
      "fzfg": false,
      "metar_trigger": false,
      "taf_trigger": false,
      "metar": "METAR EGNM 241920Z 07012KT 9999 BKN027 04/M00 Q1038",
      "taf": "TAF EGNM 241658Z 2418/2518 06008KT 9999 SCT025"
    },
    {
      "icao": "EGPD",
      "alert": "OK",
      "vis_m": 9999,
      "fzfg": false,
      "metar_trigger": false,
      "taf_trigger": false,
      "metar": "METAR EGPD 241920Z COR AUTO 19002KT 9999 NCD 01/M00 Q1041 NOSIG",
      "taf": ""
    },
    {
      "icao": "EGPF",
      "alert": "OK",
      "vis_m": 9999,
      "fzfg": false,
      "metar_trigger": false,
      "taf_trigger": false,
      "metar": "METAR EGPF 241920Z AUTO VRB03KT 9999 NCD 00/M00 Q1041",
      "taf": "TAF EGPF 241657Z 2418/2518 09004KT 9999 FEW025"
    },
    {
      "icao": "EHBK",
      "alert": "OK",
      "vis_m": 9999,
      "fzfg": false,
      "metar_trigger": false,
      "taf_trigger": false,
      "metar": "METAR EHBK 241925Z AUTO 05015KT 030V090 9999 NCD M02/M07 Q1028 NOSIG",
      "taf": "TAF EHBK 241711Z 2418/2524 05015KT CAVOK"
    },
    {
      "icao": "EHEH",
      "alert": "OK",
      "vis_m": 9999,
      "fzfg": false,
      "metar_trigger": false,
      "taf_trigger": false,
      "metar": "METAR EHEH 241925Z AUTO 05016KT 9999 NCD M01/M05 Q1030 BLU NOSIG RMK TREND REMOTE BY EHWX",
      "taf": "TAF EHEH 241723Z 2418/2524 06013KT 9999 FEW025"
    },
    {
      "icao": "EKBI",
      "alert": "OK",
      "vis_m": 9999,
      "fzfg": false,
      "metar_trigger": false,
      "taf_trigger": false,
      "metar": "METAR EKBI 241920Z AUTO 04006KT 9999 OVC023/// 01/M03 Q1041",
      "taf": "TAF EKBI 241727Z 2418/2518 VRB02KT 9999 BKN025"
    },
    {
      "icao": "EKCH",
      "alert": "OK",
      "vis_m": 9999,
      "fzfg": false,
      "metar_trigger": false,
      "taf_trigger": false,
      "metar": "METAR EKCH 241920Z AUTO 04008KT 9999 NCD M01/M04 Q1041 NOSIG",
      "taf": "TAF EKCH 241727Z 2418/2518 05012KT 9999 SCT030"
    },
    {
      "icao": "ENAL",
      "alert": "OK",
      "vis_m": 9999,
      "fzfg": false,
      "metar_trigger": false,
      "taf_trigger": false,
      "metar": "METAR ENAL 241920Z AUTO 21013KT 9999 OVC032/// 08/04 Q1038",
      "taf": "TAF ENAL 241700Z 2418/2503 20012KT 9999 BKN030"
    },
    {
      "icao": "ENBR",
      "alert": "OK",
      "vis_m": 9999,
      "fzfg": false,
      "metar_trigger": false,
      "taf_trigger": false,
      "metar": "METAR ENBR 241920Z 00000KT 9999 OVC033 03/01 Q1041 RMK WIND 1200FT VRB02KT",
      "taf": "TAF ENBR 241700Z 2418/2518 09005KT 9999 BKN030"
    },
    {
      "icao": "ENGM",
      "alert": "OK",
      "vis_m": 9999,
      "fzfg": false,
      "metar_trigger": false,
      "taf_trigger": false,
      "metar": "METAR ENGM 241920Z VRB02KT CAVOK M09/M09 Q1039 NOSIG",
      "taf": "TAF ENGM 241700Z 2418/2518 VRB03KT CAVOK"
    },
    {
      "icao": "ENHD",
      "alert": "OK",
      "vis_m": 9000,
      "fzfg": false,
      "metar_trigger": false,
      "taf_trigger": false,
      "metar": "METAR ENHD 241920Z AUTO 02004KT 9000 NCD M02/M02 Q1042",
      "taf": "TAF ENHD 241400Z 2415/2423 02005KT 9999 FEW030"
    },
    {
      "icao": "ENTC",
      "alert": "OK",
      "vis_m": 9999,
      "fzfg": false,
      "metar_trigger": false,
      "taf_trigger": false,
      "metar": "METAR ENTC 241920Z 21028KT 9999 -RA OVC030/// 04/01 Q1009 REDZRA TEMPO 4000 RA RMK WIND 2600FT 21034KT",
      "taf": "TAF ENTC 241700Z 2418/2518 22025KT 9999 -RA FEW009 BKN018"
    },
    {
      "icao": "ENTO",
      "alert": "OK",
      "vis_m": 9999,
      "fzfg": false,
      "metar_trigger": false,
      "taf_trigger": false,
      "metar": "METAR ENTO 241920Z AUTO VRB02KT 9999 NCD M06/M07 Q1041",
      "taf": "TAF ENTO 241700Z 2418/2518 35005KT CAVOK"
    },
    {
      "icao": "ENVA",
      "alert": "OK",
      "vis_m": 9999,
      "fzfg": false,
      "metar_trigger": false,
      "taf_trigger": false,
      "metar": "METAR ENVA 241920Z AUTO 24016KT 9999 OVC026/// 07/03 Q1035 RMK WIND 670FT 24017KT",
      "taf": ""
    },
    {
      "icao": "ENZV",
      "alert": "OK",
      "vis_m": 9999,
      "fzfg": false,
      "metar_trigger": false,
      "taf_trigger": false,
      "metar": "METAR ENZV 241920Z 00000KT CAVOK M03/M03 Q1042",
      "taf": "TAF ENZV 241700Z 2418/2518 VRB03KT CAVOK"
    },
    {
      "icao": "EPGD",
      "alert": "OK",
      "vis_m": 9999,
      "fzfg": false,
      "metar_trigger": false,
      "taf_trigger": false,
      "metar": "METAR EPGD 241930Z 12006KT CAVOK M07/M11 Q1040",
      "taf": "TAF EPGD 241730Z 2418/2518 11010KT CAVOK"
    },
    {
      "icao": "EPKK",
      "alert": "OK",
      "vis_m": 9999,
      "fzfg": false,
      "metar_trigger": false,
      "taf_trigger": false,
      "metar": "METAR EPKK 241930Z 05012KT 9999 SCT009 OVC010 M06/M08 Q1033",
      "taf": "TAF EPKK 241730Z 2418/2518 05014KT 9999 OVC011"
    },
    {
      "icao": "EPKT",
      "alert": "OK",
      "vis_m": 9999,
      "fzfg": false,
      "metar_trigger": false,
      "taf_trigger": false,
      "metar": "METAR EPKT 241930Z 05011KT 9999 OVC010 M07/M09 Q1033",
      "taf": "TAF EPKT 241730Z 2418/2518 07014KT 9999 OVC012"
    },
    {
      "icao": "EPLB",
      "alert": "OK",
      "vis_m": 9999,
      "fzfg": false,
      "metar_trigger": false,
      "taf_trigger": false,
      "metar": "METAR EPLB 241930Z 08008KT CAVOK M10/M12 Q1037",
      "taf": "TAF EPLB 241730Z 2418/2518 06008KT CAVOK"
    },
    {
      "icao": "EPMO",
      "alert": "OK",
      "vis_m": 9999,
      "fzfg": false,
      "metar_trigger": false,
      "taf_trigger": false,
      "metar": "METAR EPMO 241930Z 06005KT CAVOK M11/M12 Q1039",
      "taf": "TAF EPMO 241730Z 2418/2518 07007KT CAVOK"
    },
    {
      "icao": "EPPO",
      "alert": "OK",
      "vis_m": 9999,
      "fzfg": false,
      "metar_trigger": false,
      "taf_trigger": false,
      "metar": "METAR EPPO 241930Z 09008KT CAVOK M08/M11 Q1038",
      "taf": "TAF EPPO 241730Z 2418/2518 08010KT CAVOK"
    },
    {
      "icao": "EPRA",
      "alert": "OK",
      "vis_m": 9999,
      "fzfg": false,
      "metar_trigger": false,
      "taf_trigger": false,
      "metar": "METAR EPRA 241930Z 06005KT CAVOK M10/M13 Q1037",
      "taf": "TAF EPRA 241730Z 2418/2503 06006KT CAVOK"
    },
    {
      "icao": "EPRZ",
      "alert": "OK",
      "vis_m": 9999,
      "fzfg": false,
      "metar_trigger": false,
      "taf_trigger": false,
      "metar": "METAR EPRZ 241930Z 05011KT 9999 OVC011 M05/M08 Q1035",
      "taf": "TAF EPRZ 241730Z 2418/2518 05012KT 9999 OVC012"
    },
    {
      "icao": "EPSC",
      "alert": "OK",
      "vis_m": 9999,
      "fzfg": false,
      "metar_trigger": false,
      "taf_trigger": false,
      "metar": "METAR EPSC 241930Z 05004KT CAVOK M06/M10 Q1040",
      "taf": "TAF EPSC 241730Z 2418/2518 07005KT CAVOK"
    },
    {
      "icao": "EPSY",
      "alert": "OK",
      "vis_m": 9999,
      "fzfg": false,
      "metar_trigger": false,
      "taf_trigger": false,
      "metar": "METAR EPSY 241930Z 03002KT CAVOK M12/M12 Q1040",
      "taf": "TAF EPSY 241730Z 2418/2503 VRB02KT CAVOK"
    },
    {
      "icao": "EPWA",
      "alert": "OK",
      "vis_m": 9999,
      "fzfg": false,
      "metar_trigger": false,
      "taf_trigger": false,
      "metar": "METAR EPWA 241930Z 07008KT CAVOK M08/M11 Q1039 NOSIG",
      "taf": "TAF EPWA 241730Z 2418/2518 07008KT CAVOK"
    },
    {
      "icao": "EPWR",
      "alert": "OK",
      "vis_m": 9999,
      "fzfg": false,
      "metar_trigger": false,
      "taf_trigger": false,
      "metar": "METAR EPWR 241930Z 05009KT 9999 BKN015 M05/M09 Q1036",
      "taf": "TAF EPWR 241730Z 2418/2518 08010KT 9999 SCT016"
    },
    {
      "icao": "ESGG",
      "alert": "OK",
      "vis_m": 9999,
      "fzfg": false,
      "metar_trigger": false,
      "taf_trigger": false,
      "metar": "METAR ESGG 241920Z 30003KT 250V340 9999 BKN011 M01/M02 Q1039",
      "taf": "TAF ESGG 241730Z 2418/2518 VRB02KT 9999 SCT010 BKN015"
    },
    {
      "icao": "ESKN",
      "alert": "OK",
      "vis_m": 9999,
      "fzfg": false,
      "metar_trigger": false,
      "taf_trigger": false,
      "metar": "METAR ESKN 241920Z 28008KT 9999 OVC003 M03/M03 Q1038",
      "taf": ""
    },
    {
      "icao": "ESMS",
      "alert": "OK",
      "vis_m": 9999,
      "fzfg": false,
      "metar_trigger": false,
      "taf_trigger": false,
      "metar": "METAR ESMS 241920Z 01002KT CAVOK M03/M06 Q1040",
      "taf": "TAF ESMS 241727Z 2418/2518 VRB02KT 9999 BKN030"
    },
    {
      "icao": "ESSA",
      "alert": "OK",
      "vis_m": 9999,
      "fzfg": false,
      "metar_trigger": false,
      "taf_trigger": false,
      "metar": "METAR ESSA 241920Z 24006KT CAVOK M05/M06 Q1036 NOSIG",
      "taf": "TAF ESSA 241730Z 2418/2518 26006KT CAVOK"
    },
    {
      "icao": "EYKA",
      "alert": "OK",
      "vis_m": 9999,
      "fzfg": false,
      "metar_trigger": false,
      "taf_trigger": false,
      "metar": "METAR EYKA 241950Z 25006KT 9999 OVC035 M03/M08 Q1039",
      "taf": "TAF EYKA 241700Z 2418/2518 VRB05KT 9000 OVC030"
    },
    {
      "icao": "EYPA",
      "alert": "OK",
      "vis_m": 9999,
      "fzfg": false,
      "metar_trigger": false,
      "taf_trigger": false,
      "metar": "METAR EYPA 241950Z 28004KT 230V320 9999 OVC035 02/M03 Q1039",
      "taf": "TAF EYPA 241700Z 2418/2518 VRB04KT 9000 OVC025"
    },
    {
      "icao": "EYVI",
      "alert": "OK",
      "vis_m": 9999,
      "fzfg": false,
      "metar_trigger": false,
      "taf_trigger": false,
      "metar": "METAR EYVI 241950Z 25003KT 210V300 9999 OVC033 M05/M09 Q1037 NOSIG",
      "taf": "TAF EYVI 241700Z 2418/2518 VRB05KT 9000 OVC025"
    },
    {
      "icao": "GCFV",
      "alert": "OK",
      "vis_m": 9999,
      "fzfg": false,
      "metar_trigger": false,
      "taf_trigger": false,
      "metar": "METAR GCFV 241930Z 28006KT 250V310 9999 FEW025TCU SCT040 18/15 Q1013",
      "taf": ""
    },
    {
      "icao": "GCLP",
      "alert": "OK",
      "vis_m": 9999,
      "fzfg": false,
      "metar_trigger": false,
      "taf_trigger": false,
      "metar": "METAR GCLP 241930Z 11003KT 070V140 9999 SCT045 20/12 Q1014 NOSIG",
      "taf": "TAF GCLP 241400Z 2415/2515 18010KT 9999 SCT030 TX21/2514Z TN16/2506Z"
    },
    {
      "icao": "GCTS",
      "alert": "OK",
      "vis_m": 9999,
      "fzfg": false,
      "metar_trigger": false,
      "taf_trigger": false,
      "metar": "METAR GCTS 241930Z 05007KT 9999 FEW035 19/09 Q1014 NOSIG",
      "taf": "TAF GCTS 241400Z 2415/2515 14006KT 9999 SCT030 TX23/2514Z TN15/2506Z"
    },
    {
      "icao": "GMAD",
      "alert": "OK",
      "vis_m": 6000,
      "fzfg": false,
      "metar_trigger": false,
      "taf_trigger": false,
      "metar": "METAR GMAD 241930Z 22004KT 6000 SCT006 SCT020 BKN033 14/14 Q1010 NOSIG",
      "taf": "TAF GMAD 241700Z 2418/2524 16006KT 8000 SCT010 BKN020"
    },
    {
      "icao": "GMMN",
      "alert": "OK",
      "vis_m": 9999,
      "fzfg": false,
      "metar_trigger": false,
      "taf_trigger": false,
      "metar": "METAR GMMN 241930Z 26005KT 9999 -RA BKN020 12/10 Q1008 NOSIG",
      "taf": "TAF GMMN 241700Z 2418/2524 30008KT 9999 BKN014"
    },
    {
      "icao": "GMMX",
      "alert": "OK",
      "vis_m": 1500,
      "fzfg": false,
      "metar_trigger": false,
      "taf_trigger": false,
      "metar": "METAR GMMX 241930Z 26006KT 240V300 1500 RA SCT010 BKN020 12/11 Q1009 TEMPO 3000 RA",
      "taf": "TAF GMMX 241700Z 2418/2524 24008KT 6000 SCT016 BKN020"
    },
    {
      "icao": "HEGN",
      "alert": "OK",
      "vis_m": 9999,
      "fzfg": false,
      "metar_trigger": false,
      "taf_trigger": false,
      "metar": "METAR HEGN 241900Z 26007KT CAVOK 17/06 Q1017 NOSIG",
      "taf": "TAF HEGN 241700Z 2418/2524 31010KT CAVOK"
    },
    {
      "icao": "HEMA",
      "alert": "OK",
      "vis_m": 9999,
      "fzfg": false,
      "metar_trigger": false,
      "taf_trigger": false,
      "metar": "METAR HEMA 241900Z 30008KT CAVOK 19/12 Q1016 NOSIG",
      "taf": "TAF HEMA 241747Z 2418/2524 30013KT CAVOK"
    },
    {
      "icao": "HESH",
      "alert": "OK",
      "vis_m": 9999,
      "fzfg": false,
      "metar_trigger": false,
      "taf_trigger": false,
      "metar": "METAR HESH 241900Z 33006KT CAVOK 19/09 Q1017 NOSIG",
      "taf": "TAF HESH 241700Z 2418/2524 32010KT CAVOK"
    },
    {
      "icao": "HESX",
      "alert": "OK",
      "vis_m": 9999,
      "fzfg": false,
      "metar_trigger": false,
      "taf_trigger": false,
      "metar": "METAR HESX 241900Z 03008KT CAVOK 14/08 Q1018 NOSIG",
      "taf": "TAF HESX 241747Z 2418/2524 07009KT CAVOK"
    },
    {
      "icao": "LATI",
      "alert": "OK",
      "vis_m": 9999,
      "fzfg": false,
      "metar_trigger": false,
      "taf_trigger": false,
      "metar": "METAR LATI 241950Z 13003KT CAVOK 08/05 Q1014 NOSIG",
      "taf": "TAF LATI 241700Z 2418/2518 VRB03KT CAVOK TX16/2512Z TN04/2505Z"
    },
    {
      "icao": "LBPD",
      "alert": "OK",
      "vis_m": 3900,
      "fzfg": false,
      "metar_trigger": false,
      "taf_trigger": false,
      "metar": "METAR LBPD 241930Z AUTO 00000KT 3900 RA OVC012/// 06/06 Q1021 TEMPO 1500 RA BR",
      "taf": "TAF LBPD 241700Z 2418/2518 VRB03KT 3000 RA BR BKN005 OVC010"
    },
    {
      "icao": "LBSF",
      "alert": "OK",
      "vis_m": 9999,
      "fzfg": false,
      "metar_trigger": false,
      "taf_trigger": false,
      "metar": "METAR LBSF 241930Z AUTO 12004KT 9999 -SHRA OVC014/// 04/03 Q1020 NOSIG",
      "taf": "TAF LBSF 241700Z 2418/2518 11010KT 7000 RA BKN010 OVC020"
    },
    {
      "icao": "LBWN",
      "alert": "OK",
      "vis_m": 9999,
      "fzfg": false,
      "metar_trigger": false,
      "taf_trigger": false,
      "metar": "METAR LBWN 241930Z AUTO 07016G27KT 9999 -RA SCT010/// BKN013/// OVC019/// 09/09 Q1024 NOSIG",
      "taf": "TAF LBWN 241700Z 2418/2518 05014KT 9999 SCT025 OVC040"
    },
    {
      "icao": "LCLK",
      "alert": "OK",
      "vis_m": 8000,
      "fzfg": false,
      "metar_trigger": false,
      "taf_trigger": false,
      "metar": "METAR LCLK 241930Z 35004KT 8000 -RA SCT022 BKN060 16/15 Q1020 NOSIG",
      "taf": "TAF LCLK 241730Z 2418/2518 35008KT 9999 FEW025 SCT035"
    },
    {
      "icao": "LCPH",
      "alert": "OK",
      "vis_m": 9999,
      "fzfg": false,
      "metar_trigger": false,
      "taf_trigger": false,
      "metar": "METAR LCPH 241930Z 07004KT 9999 FEW030 14/11 Q1020 NOSIG",
      "taf": "TAF LCPH 241730Z 2418/2518 06007KT 9999 FEW025"
    },
    {
      "icao": "LEAL",
      "alert": "OK",
      "vis_m": 9999,
      "fzfg": false,
      "metar_trigger": false,
      "taf_trigger": false,
      "metar": "METAR LEAL 241930Z VRB02KT 9999 BKN055 10/07 Q1008 NOSIG",
      "taf": "TAF LEAL 241700Z 2418/2518 32009KT 9999 FEW030 TX14/2512Z TN05/2506Z"
    },
    {
      "icao": "LEBB",
      "alert": "OK",
      "vis_m": 9000,
      "fzfg": false,
      "metar_trigger": false,
      "taf_trigger": false,
      "metar": "METAR LEBB 241930Z 36005KT 330V030 9000 -RA FEW020 BKN028 OVC034 08/05 Q1015 NOSIG",
      "taf": "TAF LEBB 241700Z 2418/2518 VRB03KT 9999 BKN020 TX07/2514Z TN02/2507Z"
    },
    {
      "icao": "LEBL",
      "alert": "OK",
      "vis_m": 9999,
      "fzfg": false,
      "metar_trigger": false,
      "taf_trigger": false,
      "metar": "METAR LEBL 241930Z 32009KT 9999 FEW025 09/05 Q1006 NOSIG",
      "taf": "TAF LEBL 241700Z 2418/2518 34008KT 9999 BKN025 TX13/2513Z TN09/2506Z"
    },
    {
      "icao": "LECH",
      "alert": "OK",
      "vis_m": 9999,
      "fzfg": false,
      "metar_trigger": false,
      "taf_trigger": false,
      "metar": "METAR LECH 241930Z AUTO 21003KT CAVOK 08/04 Q1007",
      "taf": ""
    },
    {
      "icao": "LEMD",
      "alert": "OK",
      "vis_m": 9999,
      "fzfg": false,
      "metar_trigger": false,
      "taf_trigger": false,
      "metar": "METAR LEMD 241930Z 36004KT 320V020 9999 SCT040 BKN050 07/03 Q1007 NOSIG",
      "taf": "TAF LEMD 241700Z 2418/2524 VRB03KT CAVOK TX06/2514Z TNM00/2506Z"
    },
    {
      "icao": "LEMG",
      "alert": "OK",
      "vis_m": 9999,
      "fzfg": false,
      "metar_trigger": false,
      "taf_trigger": false,
      "metar": "METAR LEMG 241930Z 08004KT 9999 VCSH FEW012 SCT027 FEW029TCU 11/08 Q1007 NOSIG",
      "taf": "TAF LEMG 241700Z 2418/2518 29008KT 9999 FEW030 TX14/2514Z TN07/2506Z"
    },
    {
      "icao": "LEVC",
      "alert": "OK",
      "vis_m": 9999,
      "fzfg": false,
      "metar_trigger": false,
      "taf_trigger": false,
      "metar": "METAR LEVC 241930Z 21003KT CAVOK 09/04 Q1007 NOSIG",
      "taf": "TAF LEVC 241700Z 2418/2518 27007KT 9999 FEW020 TX12/2512Z TN04/2506Z"
    },
    {
      "icao": "LEXJ",
      "alert": "OK",
      "vis_m": 9999,
      "fzfg": false,
      "metar_trigger": false,
      "taf_trigger": false,
      "metar": "METAR LEXJ 241930Z 02009KT 350V060 9999 OVC035 09/05 Q1015",
      "taf": "TAF LEXJ 241400Z 2415/2515 03009KT 9999 SCT015 BKN025 TX08/2515Z TN04/2507Z"
    },
    {
      "icao": "LEZG",
      "alert": "OK",
      "vis_m": 9999,
      "fzfg": false,
      "metar_trigger": false,
      "taf_trigger": false,
      "metar": "METAR LEZG 241930Z 29017KT 9999 FEW030 07/03 Q1008 NOSIG",
      "taf": "TAF LEZG 241700Z 2418/2518 29020KT 9999 FEW080 TX06/2514Z TN03/2506Z"
    },
    {
      "icao": "LEZL",
      "alert": "OK",
      "vis_m": 9999,
      "fzfg": false,
      "metar_trigger": false,
      "taf_trigger": false,
      "metar": "METAR LEZL 241930Z 09003KT 030V140 9999 FEW040 11/09 Q1007 NOSIG",
      "taf": "TAF LEZL 241400Z 2415/2515 VRB03KT 9999 FEW040 TX14/2415Z TN06/2507Z"
    },
    {
      "icao": "LFBD",
      "alert": "OK",
      "vis_m": 9999,
      "fzfg": false,
      "metar_trigger": false,
      "taf_trigger": false,
      "metar": "METAR LFBD 241930Z AUTO 05017KT 9999 SCT040 05/M02 Q1014 TEMPO 02015G25KT",
      "taf": "TAF LFBD 241700Z 2418/2524 02010KT 9999 BKN035 TX05/2418Z TNM02/2508Z"
    },
    {
      "icao": "LFLL",
      "alert": "OK",
      "vis_m": 6000,
      "fzfg": false,
      "metar_trigger": false,
      "taf_trigger": false,
      "metar": "METAR LFLL 241930Z 35012KT 6000 -SN FEW019 OVC040 02/M01 Q1010 NOSIG",
      "taf": "TAF LFLL 241930Z 2419/2524 35010KT 6000 -SN FEW012 BKN030"
    },
    {
      "icao": "LFLS",
      "alert": "OK",
      "vis_m": 9999,
      "fzfg": false,
      "metar_trigger": false,
      "taf_trigger": false,
      "metar": "METAR LFLS 241930Z AUTO 33006KT 290V360 9999 -RA FEW012 OVC037 01/M00 Q1009",
      "taf": "TAF LFLS 241940Z 2419/2515 34005KT 9999 OVC020"
    },
    {
      "icao": "LFMN",
      "alert": "OK",
      "vis_m": 9999,
      "fzfg": false,
      "metar_trigger": false,
      "taf_trigger": false,
      "metar": "METAR LFMN 241930Z 35005KT 330V030 9999 BKN066 BKN093 12/08 Q1006 NOSIG",
      "taf": "TAF LFMN 241400Z 2415/2521 09025KT 9999 SCT040 BKN080"
    },
    {
      "icao": "LFOB",
      "alert": "OK",
      "vis_m": 9999,
      "fzfg": false,
      "metar_trigger": false,
      "taf_trigger": false,
      "metar": "METAR LFOB 241930Z AUTO 05020KT 9999 BKN028 M00/M05 Q1025 TEMPO 03020G30KT",
      "taf": ""
    },
    {
      "icao": "LFPO",
      "alert": "OK",
      "vis_m": 9999,
      "fzfg": false,
      "metar_trigger": false,
      "taf_trigger": false,
      "metar": "METAR LFPO 241930Z 03016KT 9999 FEW026 SCT050 00/M04 Q1022 NOSIG",
      "taf": "TAF LFPO 241700Z 2418/2524 04015KT 9999 BKN030"
    },
    {
      "icao": "LFSB",
      "alert": "OK",
      "vis_m": 9999,
      "fzfg": false,
      "metar_trigger": false,
      "taf_trigger": false,
      "metar": "METAR LFSB 241930Z AUTO 01009KT 350V050 9999 OVC038 01/M02 Q1015 NOSIG",
      "taf": ""
    },
    {
      "icao": "LGAV",
      "alert": "OK",
      "vis_m": 9999,
      "fzfg": false,
      "metar_trigger": false,
      "taf_trigger": false,
      "metar": "METAR LGAV 241920Z VRB02KT 9999 FEW018 BKN030 11/09 Q1017 NOSIG",
      "taf": "TAF LGAV 241700Z 2418/2518 18010KT 9999 FEW015 BKN025 BKN070"
    },
    {
      "icao": "LGTS",
      "alert": "OK",
      "vis_m": 7000,
      "fzfg": false,
      "metar_trigger": false,
      "taf_trigger": false,
      "metar": "METAR LGTS 241920Z VRB02KT 7000 SCT006 BKN020 12/12 Q1017 NOSIG",
      "taf": "TAF LGTS 241700Z 2418/2518 VRB05KT 8000 FEW012 BKN025"
    },
    {
      "icao": "LHBP",
      "alert": "OK",
      "vis_m": 9999,
      "fzfg": false,
      "metar_trigger": false,
      "taf_trigger": false,
      "metar": "METAR LHBP 241930Z 05006KT 020V080 9999 OVC045 04/M03 Q1024 NOSIG",
      "taf": "TAF LHBP 241715Z 2418/2518 06009KT 9999 SCT040 BKN070"
    },
    {
      "icao": "LHDC",
      "alert": "OK",
      "vis_m": 9999,
      "fzfg": false,
      "metar_trigger": false,
      "taf_trigger": false,
      "metar": "METAR LHDC 241915Z AUTO 04014KT CAVOK 04/M02 Q1024",
      "taf": "TAF LHDC 241115Z 2412/2421 04018G28KT CAVOK"
    },
    {
      "icao": "LIBD",
      "alert": "OK",
      "vis_m": 9999,
      "fzfg": false,
      "metar_trigger": false,
      "taf_trigger": false,
      "metar": "METAR LIBD 241920Z VRB01KT CAVOK 07/06 Q1011",
      "taf": "TAF LIBD 241700Z 2418/2518 VRB05KT CAVOK"
    },
    {
      "icao": "LIBG",
      "alert": "OK",
      "vis_m": 9999,
      "fzfg": false,
      "metar_trigger": false,
      "taf_trigger": false,
      "metar": "METAR LIBG 241850Z 12006KT 9999 FEW030 10/10 Q1011",
      "taf": "TAF LIBG 241700Z 2418/2503 VRB05KT 9999 FEW030"
    },
    {
      "icao": "LIBP",
      "alert": "OK",
      "vis_m": 9999,
      "fzfg": false,
      "metar_trigger": false,
      "taf_trigger": false,
      "metar": "METAR LIBP 241920Z AUTO 19003KT 130V290 9999 BKN100/// BKN130/// 11/04 Q1009",
      "taf": "TAF LIBP 241700Z 2418/2518 15010KT 9999 BKN060"
    },
    {
      "icao": "LIBR",
      "alert": "OK",
      "vis_m": 9999,
      "fzfg": false,
      "metar_trigger": false,
      "taf_trigger": false,
      "metar": "METAR LIBR 241920Z 13012KT 100V170 9999 VCTS FEW015CB 13/08 Q1012",
      "taf": "TAF LIBR 241700Z 2418/2518 16008KT 9999 FEW040"
    },
    {
      "icao": "LICA",
      "alert": "OK",
      "vis_m": 9999,
      "fzfg": false,
      "metar_trigger": false,
      "taf_trigger": false,
      "metar": "METAR LICA 241920Z AUTO 07004KT 9999 NCD 07/06 Q1012",
      "taf": "TAF LICA 241700Z 2418/2518 07005KT CAVOK"
    },
    {
      "icao": "LICC",
      "alert": "OK",
      "vis_m": 9999,
      "fzfg": false,
      "metar_trigger": false,
      "taf_trigger": false,
      "metar": "METAR LICC 241920Z 24005KT 9999 FEW050 09/08 Q1012",
      "taf": "TAF LICC 241700Z 2418/2518 25010KT 9999 SCT030"
    },
    {
      "icao": "LICJ",
      "alert": "OK",
      "vis_m": 9999,
      "fzfg": false,
      "metar_trigger": false,
      "taf_trigger": false,
      "metar": "METAR LICJ 241920Z 18015KT 140V200 9999 FEW040 14/06 Q1009",
      "taf": "TAF LICJ 241700Z 2418/2518 21018KT 9999 SCT040"
    },
    {
      "icao": "LIMC",
      "alert": "OK",
      "vis_m": 5000,
      "fzfg": false,
      "metar_trigger": false,
      "taf_trigger": false,
      "metar": "METAR LIMC 241920Z 34009KT 5000 RA BKN015 05/04 Q1014 NOSIG",
      "taf": "TAF LIMC 241700Z 2418/2524 VRB05KT 4000 RA BKN010"
    },
    {
      "icao": "LIME",
      "alert": "OK",
      "vis_m": 5000,
      "fzfg": false,
      "metar_trigger": false,
      "taf_trigger": false,
      "metar": "METAR LIME 241920Z 24006KT 5000 -RA BR SCT004 BKN010 06/06 Q1013 NOSIG",
      "taf": "TAF LIME 241700Z 2418/2518 VRB05KT 6000 RA SCT010 BKN030"
    },
    {
      "icao": "LIMF",
      "alert": "OK",
      "vis_m": 6000,
      "fzfg": false,
      "metar_trigger": false,
      "taf_trigger": false,
      "metar": "METAR LIMF 241920Z 05005KT 6000 -RA SCT008 OVC025 04/03 Q1014 RERA",
      "taf": "TAF LIMF 241700Z 2418/2518 35007KT 4000 RA BKN010"
    },
    {
      "icao": "LIMJ",
      "alert": "OK",
      "vis_m": 9999,
      "fzfg": false,
      "metar_trigger": false,
      "taf_trigger": false,
      "metar": "METAR LIMJ 241920Z 02006KT 320V100 9999 BKN065 11/01 Q1009",
      "taf": "TAF LIMJ 241700Z 2418/2518 02014KT 9999 BKN070"
    },
    {
      "icao": "LIPE",
      "alert": "OK",
      "vis_m": 4000,
      "fzfg": false,
      "metar_trigger": false,
      "taf_trigger": false,
      "metar": "METAR LIPE 241920Z VRB06KT 4000 RA BR BKN009 BKN020 06/05 Q1012",
      "taf": "TAF LIPE 241700Z 2418/2518 05012KT 8000 RA BKN020"
    },
    {
      "icao": "LIPH",
      "alert": "OK",
      "vis_m": 9999,
      "fzfg": false,
      "metar_trigger": false,
      "taf_trigger": false,
      "metar": "METAR LIPH 241920Z 05016G29KT 9999 -RA BKN025 06/04 Q1016",
      "taf": ""
    },
    {
      "icao": "LIPQ",
      "alert": "OK",
      "vis_m": 9999,
      "fzfg": false,
      "metar_trigger": false,
      "taf_trigger": false,
      "metar": "METAR LIPQ 241920Z AUTO 09025G36KT 9999 OVC062/// 08/M02 Q1015",
      "taf": "TAF LIPQ 241700Z 2418/2518 06020G33KT 9999 BKN050"
    },
    {
      "icao": "LIPR",
      "alert": "OK",
      "vis_m": 600,
      "fzfg": false,
      "metar_trigger": false,
      "taf_trigger": false,
      "metar": "METAR LIPR 241920Z VRB02KT 0600 R30/1000D FG SCT007 SCT040 06/06 Q1009",
      "taf": ""
    },
    {
      "icao": "LIPX",
      "alert": "OK",
      "vis_m": 9999,
      "fzfg": false,
      "metar_trigger": false,
      "taf_trigger": false,
      "metar": "METAR LIPX 241920Z 07017G27KT 9999 -RA SCT030 BKN050 06/03 Q1014",
      "taf": "TAF LIPX 241700Z 2418/2518 08014KT 6000 RA BKN040"
    },
    {
      "icao": "LIPY",
      "alert": "OK",
      "vis_m": 9999,
      "fzfg": false,
      "metar_trigger": false,
      "taf_trigger": false,
      "metar": "METAR LIPY 241920Z AUTO 14008KT 100V170 9999 BKN100/// 12/06 Q1009",
      "taf": "TAF LIPY 241700Z 2418/2518 VRB05KT 9999 SCT050"
    },
    {
      "icao": "LIPZ",
      "alert": "OK",
      "vis_m": 9999,
      "fzfg": false,
      "metar_trigger": false,
      "taf_trigger": false,
      "metar": "METAR LIPZ 241920Z 05020KT 9999 -RA BKN040 06/03 Q1015 NOSIG",
      "taf": "TAF LIPZ 241700Z 2418/2524 07020KT 9999 BKN040"
    },
    {
      "icao": "LIRF",
      "alert": "OK",
      "vis_m": 9999,
      "fzfg": false,
      "metar_trigger": false,
      "taf_trigger": false,
      "metar": "METAR LIRF 241920Z 07009KT 9999 -RA SCT008 SCT030 09/08 Q1008 TEMPO RA",
      "taf": "TAF LIRF 241700Z 2418/2524 11015KT 7000 RA SCT010 BKN030"
    },
    {
      "icao": "LIRN",
      "alert": "OK",
      "vis_m": 8000,
      "fzfg": false,
      "metar_trigger": false,
      "taf_trigger": false,
      "metar": "METAR LIRN 241920Z 01005KT 8000 -RA VCTS FEW020CB BKN040 09/07 Q1010 TEMPO TSRA",
      "taf": "TAF LIRN 241700Z 2418/2518 21010KT 4000 RA SCT020 BKN040"
    },
    {
      "icao": "LIRP",
      "alert": "OK",
      "vis_m": 9999,
      "fzfg": false,
      "metar_trigger": false,
      "taf_trigger": false,
      "metar": "METAR LIRP 241915Z 08011KT 9999 SCT040 SCT080 10/04 Q1006 NOSIG",
      "taf": "TAF LIRP 241700Z 2418/2518 07012KT 9999 SCT030 SCT070"
    },
    {
      "icao": "LIRZ",
      "alert": "OK",
      "vis_m": 9999,
      "fzfg": false,
      "metar_trigger": false,
      "taf_trigger": false,
      "metar": "METAR LIRZ 241920Z AUTO 01004KT 9999 BKN055/// 08/07 Q1009",
      "taf": "TAF LIRZ 241700Z 2418/2518 VRB06KT 9999 BKN050"
    },
    {
      "icao": "LJLJ",
      "alert": "OK",
      "vis_m": 8000,
      "fzfg": false,
      "metar_trigger": false,
      "taf_trigger": false,
      "metar": "METAR LJLJ 241930Z 31005KT 8000 FEW004 SCT017 BKN045 01/00 Q1021 NOSIG",
      "taf": "TAF LJLJ 241700Z 2418/2518 VRB02KT 9999 FEW004 OVC040"
    },
    {
      "icao": "LKMT",
      "alert": "OK",
      "vis_m": 9999,
      "fzfg": false,
      "metar_trigger": false,
      "taf_trigger": false,
      "metar": "METAR LKMT 241930Z 04017KT 9999 OVC013 M04/M06 Q1031 NOSIG",
      "taf": ""
    },
    {
      "icao": "LKPR",
      "alert": "OK",
      "vis_m": 9999,
      "fzfg": false,
      "metar_trigger": false,
      "taf_trigger": false,
      "metar": "METAR LKPR 241930Z 06009KT 9999 FEW016 M05/M07 Q1030 NOSIG",
      "taf": "TAF LKPR 241700Z 2418/2524 06013KT CAVOK"
    },
    {
      "icao": "LLBG",
      "alert": "OK",
      "vis_m": 9999,
      "fzfg": false,
      "metar_trigger": false,
      "taf_trigger": false,
      "metar": "METAR LLBG 241950Z VRB03KT 9999 FEW050 16/09 Q1019 NOSIG",
      "taf": "TAF LLBG 241703Z 2418/2518 VRB04KT CAVOK"
    },
    {
      "icao": "LMML",
      "alert": "OK",
      "vis_m": 9999,
      "fzfg": false,
      "metar_trigger": false,
      "taf_trigger": false,
      "metar": "METAR LMML 241945Z 20009KT 170V230 9999 SCT035 15/08 Q1012 NOSIG",
      "taf": "TAF LMML 241700Z 2418/2518 24012KT 9999 FEW030"
    },
    {
      "icao": "LOWW",
      "alert": "OK",
      "vis_m": 9999,
      "fzfg": false,
      "metar_trigger": false,
      "taf_trigger": false,
      "metar": "METAR LOWW 241920Z 01008KT 9999 BKN040 M00/M03 Q1027 NOSIG",
      "taf": "TAF LOWW 241715Z 2418/2524 01008KT 9999 FEW030 BKN040 TXM00/2418Z TNM03/2524Z"
    },
    {
      "icao": "LPFR",
      "alert": "OK",
      "vis_m": 9999,
      "fzfg": false,
      "metar_trigger": false,
      "taf_trigger": false,
      "metar": "METAR LPFR 241930Z 03006KT 9999 FEW048 11/05 Q1008",
      "taf": "TAF LPFR 241700Z 2418/2518 26007KT 9999 FEW018"
    },
    {
      "icao": "LPMA",
      "alert": "OK",
      "vis_m": 9999,
      "fzfg": false,
      "metar_trigger": false,
      "taf_trigger": false,
      "metar": "METAR LPMA 241930Z 01005KT 300V070 9999 -SHRA BKN015 15/11 Q1014",
      "taf": "TAF LPMA 241700Z 2418/2518 36012KT 9999 SCT015"
    },
    {
      "icao": "LPPR",
      "alert": "OK",
      "vis_m": 9999,
      "fzfg": false,
      "metar_trigger": false,
      "taf_trigger": false,
      "metar": "METAR LPPR 241930Z 02002KT CAVOK 10/09 Q1010",
      "taf": "TAF LPPR 241700Z 2418/2518 34005KT 9999 FEW030"
    },
    {
      "icao": "LPPS",
      "alert": "OK",
      "vis_m": 9999,
      "fzfg": false,
      "metar_trigger": false,
      "taf_trigger": false,
      "metar": "METAR LPPS 241930Z 35016KT 9999 SCT015 SCT030 16/10 Q1014",
      "taf": "TAF LPPS 241700Z 2418/2524 34015KT 9999 SCT015"
    },
    {
      "icao": "LPPT",
      "alert": "OK",
      "vis_m": 9999,
      "fzfg": false,
      "metar_trigger": false,
      "taf_trigger": false,
      "metar": "METAR LPPT 241930Z 33007KT 9999 FEW015 10/07 Q1009",
      "taf": "TAF LPPT 241700Z 2418/2524 03007KT 9999 FEW018"
    },
    {
      "icao": "LQBK",
      "alert": "OK",
      "vis_m": 9999,
      "fzfg": false,
      "metar_trigger": false,
      "taf_trigger": false,
      "metar": "METAR LQBK 241930Z 34005KT 9999 DZ OVC007 03/03 Q1021 NOSIG",
      "taf": "TAF LQBK 241700Z 2418/2518 03006KT 4000 -RA BR BKN010 OVC025 TX03/2418Z TN01/2506Z"
    },
    {
      "icao": "LQSA",
      "alert": "OK",
      "vis_m": 5000,
      "fzfg": false,
      "metar_trigger": false,
      "taf_trigger": false,
      "metar": "METAR LQSA 241930Z 31002KT 5000 BR BKN005 04/04 Q1017",
      "taf": "TAF LQSA 241700Z 2418/2518 29005KT 6000 BKN008 TX04/2513Z TN01/2505Z"
    },
    {
      "icao": "LQTZ",
      "alert": "OK",
      "vis_m": 5000,
      "fzfg": false,
      "metar_trigger": false,
      "taf_trigger": false,
      "metar": "METAR LQTZ 241930Z VRB02KT 5000 -DZ BR SCT002 OVC006 04/04 Q1019",
      "taf": "TAF LQTZ 241700Z 2418/2518 04005KT 6000 BKN007 OVC015 TX04/2418Z TN00/2518Z"
    },
    {
      "icao": "LRBC",
      "alert": "OK",
      "vis_m": 6000,
      "fzfg": false,
      "metar_trigger": false,
      "taf_trigger": false,
      "metar": "METAR LRBC 241930Z 05005KT 6000 -SN BKN009 OVC048 M00/M01 Q1034",
      "taf": "TAF LRBC 241700Z 2418/2503 34006KT 5000 -SN BKN010 OVC020"
    },
    {
      "icao": "LRBS",
      "alert": "OK",
      "vis_m": 7000,
      "fzfg": false,
      "metar_trigger": false,
      "taf_trigger": false,
      "metar": "METAR LRBS 241930Z 05017G29KT 010V080 7000 -SN OVC006 01/00 Q1028 BECMG 3000 SN",
      "taf": ""
    },
    {
      "icao": "LRBV",
      "alert": "OK",
      "vis_m": 9999,
      "fzfg": false,
      "metar_trigger": false,
      "taf_trigger": false,
      "metar": "METAR LRBV 241930Z 06019KT 9999 FEW034 OVC078 M00/M04 Q1026",
      "taf": "TAF LRBV 241700Z 2418/2503 06020KT 7000 -SN BKN020"
    },
    {
      "icao": "LRCL",
      "alert": "OK",
      "vis_m": 9999,
      "fzfg": false,
      "metar_trigger": false,
      "taf_trigger": false,
      "metar": "METAR LRCL 241930Z VRB02KT 9999 OVC033 02/M00 Q1026",
      "taf": "TAF LRCL 241700Z 2418/2503 08008KT 9999 OVC020"
    },
    {
      "icao": "LRCV",
      "alert": "OK",
      "vis_m": 4900,
      "fzfg": false,
      "metar_trigger": false,
      "taf_trigger": false,
      "metar": "METAR LRCV 241930Z 06022KT 4900 SNRA BR SCT007 BKN009 OVC011 01/01 Q1024",
      "taf": "TAF LRCV 241700Z 2418/2503 07023KT 5000 RASN OVC008"
    },
    {
      "icao": "LRIA",
      "alert": "OK",
      "vis_m": 9999,
      "fzfg": false,
      "metar_trigger": false,
      "taf_trigger": false,
      "metar": "METAR LRIA 241930Z 04007KT 9999 SCT023 M02/M05 Q1035",
      "taf": "TAF LRIA 241700Z 2418/2503 06009KT 9999 BKN025"
    },
    {
      "icao": "LROP",
      "alert": "OK",
      "vis_m": 7000,
      "fzfg": false,
      "metar_trigger": false,
      "taf_trigger": false,
      "metar": "METAR LROP 241930Z 06023KT 7000 -SNRA OVC007 01/01 Q1028 BECMG 5000 -SN",
      "taf": ""
    },
    {
      "icao": "LRSB",
      "alert": "OK",
      "vis_m": 9999,
      "fzfg": false,
      "metar_trigger": false,
      "taf_trigger": false,
      "metar": "METAR LRSB 241930Z 11011KT 9999 FEW020 SCT063 BKN082 02/M01 Q1024",
      "taf": "TAF LRSB 241700Z 2418/2518 10010KT 9999 SCT010 OVC040"
    },
    {
      "icao": "LRSM",
      "alert": "OK",
      "vis_m": 9999,
      "fzfg": false,
      "metar_trigger": false,
      "taf_trigger": false,
      "metar": "METAR LRSM 241930Z AUTO 09004KT 9999 FEW065/// OVC090/// 04/M01 Q1026",
      "taf": "TAF LRSM 241400Z 2415/2424 06005KT 9999 BKN045"
    },
    {
      "icao": "LRSV",
      "alert": "OK",
      "vis_m": 5000,
      "fzfg": false,
      "metar_trigger": false,
      "taf_trigger": false,
      "metar": "METAR LRSV 241930Z 08009KT 5000 BR OVC003 M04/M04 Q1033",
      "taf": "TAF LRSV 241700Z 2418/2503 08009KT 5000 -SN BR BKN005 OVC010"
    },
    {
      "icao": "LRTM",
      "alert": "OK",
      "vis_m": 9999,
      "fzfg": false,
      "metar_trigger": false,
      "taf_trigger": false,
      "metar": "METAR LRTM 241930Z AUTO 08009KT 9999 BKN075/// BKN100/// 02/M01 Q1026",
      "taf": "TAF LRTM 241400Z 2415/2424 08006KT 7000 SCT010 OVC030"
    },
    {
      "icao": "LRTR",
      "alert": "OK",
      "vis_m": 9999,
      "fzfg": false,
      "metar_trigger": false,
      "taf_trigger": false,
      "metar": "METAR LRTR 241930Z 12004KT 9999 -RA NSC 04/04 Q1022",
      "taf": "TAF LRTR 241700Z 2418/2518 07010KT 5000 -RA BR SCT020 OVC045"
    },
    {
      "icao": "LTAC",
      "alert": "OK",
      "vis_m": 8000,
      "fzfg": false,
      "metar_trigger": false,
      "taf_trigger": false,
      "metar": "METAR LTAC 241920Z VRB02KT 8000 NSC 02/00 Q1022 NOSIG RMK RWY21C 03003KT 350V070 RWY03L VRB01KT RWY21R 01005KT RWY03R 00000KT RWY21L 04002KT",
      "taf": "TAF LTAC 241640Z 2418/2518 VRB02KT 6000 NSC"
    },
    {
      "icao": "LTFM",
      "alert": "OK",
      "vis_m": 9999,
      "fzfg": false,
      "metar_trigger": false,
      "taf_trigger": false,
      "metar": "METAR LTFM 241920Z 09011KT 9999 SCT014 SCT040 BKN120 12/09 Q1021 NOSIG RMK RWY17L 09014KT RWY34L 08010KT RWY16R 09011KT RWY36 08011KT 030V100 RWY18 09014KT",
      "taf": "TAF LTFM 241640Z 2418/2524 08012KT 9999 FEW013 SCT035 BKN120"
    },
    {
      "icao": "LUKK",
      "alert": "OK",
      "vis_m": 9999,
      "fzfg": false,
      "metar_trigger": false,
      "taf_trigger": false,
      "metar": "METAR LUKK 241930Z 04009KT 9999 BKN029 M04/M08 Q1035 NOSIG",
      "taf": "TAF LUKK 241705Z 2418/2518 04009KT CAVOK"
    },
    {
      "icao": "LWOH",
      "alert": "OK",
      "vis_m": 9999,
      "fzfg": false,
      "metar_trigger": false,
      "taf_trigger": false,
      "metar": "METAR LWOH 241950Z 34006KT 320V020 9999 BKN040 06/04 Q1015",
      "taf": "TAF LWOH 241740Z 2418/2518 33006KT 9999 FEW020 BKN040"
    },
    {
      "icao": "LWSK",
      "alert": "OK",
      "vis_m": 6000,
      "fzfg": false,
      "metar_trigger": false,
      "taf_trigger": false,
      "metar": "METAR LWSK 241950Z VRB01KT 6000 BKN020 OVC040 07/06 Q1018 NOSIG",
      "taf": "TAF LWSK 241740Z 2418/2518 VRB02KT 9999 BKN020 OVC040"
    },
    {
      "icao": "LYBE",
      "alert": "OK",
      "vis_m": 9999,
      "fzfg": false,
      "metar_trigger": false,
      "taf_trigger": false,
      "metar": "METAR LYBE 241930Z 10013KT 9999 BKN035 05/01 Q1021 NOSIG",
      "taf": "TAF LYBE 241700Z 2418/2518 10016KT 9999 BKN030 TX04/2418Z TN00/2518Z"
    },
    {
      "icao": "LYNI",
      "alert": "OK",
      "vis_m": 9999,
      "fzfg": false,
      "metar_trigger": false,
      "taf_trigger": false,
      "metar": "METAR LYNI 241930Z 04011KT 9999 FEW017 BKN050 05/01 Q1020 NOSIG",
      "taf": "TAF LYNI 241700Z 2418/2518 05012KT 9999 BKN045 TX05/2418Z TN00/2518Z"
    },
    {
      "icao": "LYPG",
      "alert": "OK",
      "vis_m": 200,
      "fzfg": false,
      "metar_trigger": false,
      "taf_trigger": false,
      "metar": "METAR LYPG 241930Z 21003KT 170V250 0200 R18/0450D R36/0325N FG NSC 06/06 Q1015 NOSIG",
      "taf": ""
    },
    {
      "icao": "LZIB",
      "alert": "OK",
      "vis_m": 9999,
      "fzfg": false,
      "metar_trigger": false,
      "taf_trigger": false,
      "metar": "METAR LZIB 241930Z 03009KT CAVOK 01/M03 Q1026 NOSIG",
      "taf": "TAF LZIB 241715Z 2418/2518 03009KT 9999 FEW025 BKN040"
    },
    {
      "icao": "LZKZ",
      "alert": "OK",
      "vis_m": 9999,
      "fzfg": false,
      "metar_trigger": false,
      "taf_trigger": false,
      "metar": "METAR LZKZ 241930Z 36021KT CAVOK M01/M05 Q1028 NOSIG",
      "taf": "TAF LZKZ 241715Z 2418/2518 01018KT 9999 FEW035"
    },
    {
      "icao": "LZTT",
      "alert": "OK",
      "vis_m": 9999,
      "fzfg": false,
      "metar_trigger": false,
      "taf_trigger": false,
      "metar": "METAR LZTT 241930Z 06013KT 9999 OVC008 M05/M07 Q1027",
      "taf": "TAF LZTT 241715Z 2418/2518 06012KT 9999 BKN016"
    },
    {
      "icao": "OEJN",
      "alert": "OK",
      "vis_m": 9999,
      "fzfg": false,
      "metar_trigger": false,
      "taf_trigger": false,
      "metar": "METAR OEJN 241900Z 34007KT CAVOK 26/25 Q1014 NOSIG",
      "taf": "TAF OEJN 241700Z 2418/2524 35006KT 7000 FEW040"
    },
    {
      "icao": "OEMA",
      "alert": "OK",
      "vis_m": 9999,
      "fzfg": false,
      "metar_trigger": false,
      "taf_trigger": false,
      "metar": "METAR OEMA 241900Z 36003KT 9999 FEW045 23/12 Q1019 NOSIG",
      "taf": "TAF OEMA 241700Z 2418/2524 34006KT CAVOK"
    },
    {
      "icao": "OJAI",
      "alert": "OK",
      "vis_m": 5000,
      "fzfg": false,
      "metar_trigger": false,
      "taf_trigger": false,
      "metar": "METAR OJAI 241900Z 07010KT 5000 HZ NSC 09/05 Q1022 NOSIG",
      "taf": "TAF OJAI 241700Z 2418/2524 12006KT 5000 HZ NSC"
    },
    {
      "icao": "OMAA",
      "alert": "OK",
      "vis_m": 9999,
      "fzfg": false,
      "metar_trigger": false,
      "taf_trigger": false,
      "metar": "METAR OMAA 241900Z 34002KT CAVOK 20/14 Q1017 NOSIG",
      "taf": "TAF OMAA 241700Z 2418/2600 VRB02KT 8000 FEW035"
    },
    {
      "icao": "OMDB",
      "alert": "OK",
      "vis_m": 9999,
      "fzfg": false,
      "metar_trigger": false,
      "taf_trigger": false,
      "metar": "METAR OMDB 241930Z 09004KT 9999 FEW040 21/13 Q1016 NOSIG",
      "taf": "TAF OMDB 241700Z 2418/2600 16005KT 8000 NSC"
    },
    {
      "icao": "UAAA",
      "alert": "CRITICAL",
      "vis_m": 50,
      "fzfg": true,
      "metar_trigger": true,
      "taf_trigger": false,
      "metar": "SPECI UAAA 241937Z 26001MPS 0050 R23L/0225 FZFG VV002 M06/M08 Q1023 NOSIG RMK QBB080",
      "taf": ""
    },
    {
      "icao": "UBBB",
      "alert": "OK",
      "vis_m": 9999,
      "fzfg": false,
      "metar_trigger": false,
      "taf_trigger": false,
      "metar": "METAR UBBB 241930Z 31016KT 9999 SCT013 BKN030 09/07 Q1020 NOSIG",
      "taf": "TAF UBBB 241711Z 2418/2518 30014KT 9999 SCT012 BKN030 TX08/2510Z TN04/2501Z"
    },
    {
      "icao": "UDSG",
      "alert": "OK",
      "vis_m": 6000,
      "fzfg": false,
      "metar_trigger": false,
      "taf_trigger": false,
      "metar": "METAR UDSG 241930Z 00000KT 6000 FEW049 M07/M08 Q1022 NOSIG",
      "taf": "TAF UDSG 241700Z 2418/2518 VRB06KT 9999 SCT050"
    },
    {
      "icao": "UDYZ",
      "alert": "OK",
      "vis_m": 3800,
      "fzfg": false,
      "metar_trigger": false,
      "taf_trigger": false,
      "metar": "METAR UDYZ 241930Z 00000KT 3800 BR NSC M01/M05 Q1023 NOSIG",
      "taf": "TAF UDYZ 241700Z 2418/2518 04006KT 3500 BR NSC"
    },
    {
      "icao": "UGKO",
      "alert": "OK",
      "vis_m": 2500,
      "fzfg": false,
      "metar_trigger": false,
      "taf_trigger": false,
      "metar": "METAR UGKO 241930Z VRB02KT 2500 -RA BR OVC010 07/06 Q1023 NOSIG",
      "taf": "TAF UGKO 241700Z 2418/2518 26007KT 9999 SCT023 BKN050 TX08/2511Z TN04/2503Z"
    }
  ]
}