{
  "ts_utc": "2025-12-22T09:38:54Z",
  "threshold_m": 150,
  "source": "stations_override.txt (ICAO list) + aviationweather.gov (METAR/TAF raw)",
  "station_count": 114,
  "stations": [
    {
      "icao": "BIKF",
      "alert": "OK",
      "vis_m": 9999,
      "fzfg": false,
      "metar_trigger": false,
      "taf_trigger": false,
      "metar": "METAR BIKF 220930Z 12025G38KT 9999 -DZRA BKN018 07/04 Q0999",
      "taf": "TAF BIKF 220752Z 2209/2309 13026G38KT 9999 -SHRA SCT015 BKN025 TX08/2216Z TN02/2308Z"
    },
    {
      "icao": "BKPR",
      "alert": "OK",
      "vis_m": 5000,
      "fzfg": false,
      "metar_trigger": false,
      "taf_trigger": false,
      "metar": "METAR BKPR 220930Z VRB01KT 5000 BR SCT008 BKN020 03/02 Q1019 NOSIG",
      "taf": "TAF BKPR 220530Z 2206/2306 VRB03KT 3000 BR BKN006"
    },
    {
      "icao": "EBBR",
      "alert": "OK",
      "vis_m": 9999,
      "fzfg": false,
      "metar_trigger": false,
      "taf_trigger": false,
      "metar": "METAR EBBR 220920Z VRB02KT CAVOK 05/02 Q1009 NOSIG",
      "taf": "TAF EBBR 220502Z 2206/2312 05005KT CAVOK"
    },
    {
      "icao": "EBCI",
      "alert": "OK",
      "vis_m": 9999,
      "fzfg": false,
      "metar_trigger": false,
      "taf_trigger": false,
      "metar": "METAR EBCI 220920Z 16004KT CAVOK 06/02 Q1009 NOSIG",
      "taf": "TAF EBCI 220502Z 2206/2312 05005KT CAVOK"
    },
    {
      "icao": "EDDB",
      "alert": "OK",
      "vis_m": 7000,
      "fzfg": false,
      "metar_trigger": false,
      "taf_trigger": false,
      "metar": "METAR EDDB 220920Z AUTO 09012KT 7000 OVC004 03/03 Q1018",
      "taf": "TAF EDDB 220500Z 2206/2306 07010KT 2500 BR BKN003"
    },
    {
      "icao": "EDDH",
      "alert": "OK",
      "vis_m": 6000,
      "fzfg": false,
      "metar_trigger": false,
      "taf_trigger": false,
      "metar": "METAR EDDH 220920Z AUTO 10008KT 6000 OVC003 04/04 Q1018 NOSIG",
      "taf": "TAF EDDH 220500Z 2206/2312 09011KT 6000 OVC003"
    },
    {
      "icao": "EDDK",
      "alert": "OK",
      "vis_m": 9999,
      "fzfg": false,
      "metar_trigger": false,
      "taf_trigger": false,
      "metar": "METAR EDDK 220920Z AUTO 14011KT CAVOK 04/01 Q1011 NOSIG",
      "taf": "TAF EDDK 220500Z 2206/2312 11006KT CAVOK"
    },
    {
      "icao": "EDDN",
      "alert": "OK",
      "vis_m": 9999,
      "fzfg": false,
      "metar_trigger": false,
      "taf_trigger": false,
      "metar": "METAR EDDN 220920Z AUTO 13005KT 100V160 9999 OVC013 03/01 Q1012 NOSIG",
      "taf": "TAF EDDN 220500Z 2206/2306 09006KT 9999 OVC010"
    },
    {
      "icao": "EDFH",
      "alert": "OK",
      "vis_m": 3000,
      "fzfg": false,
      "metar_trigger": false,
      "taf_trigger": false,
      "metar": "METAR EDFH 220920Z 13014KT 3000 BR OVC001 M00/M01 Q1009",
      "taf": "TAF EDFH 220500Z 2206/2306 13011KT CAVOK"
    },
    {
      "icao": "EDJA",
      "alert": "OK",
      "vis_m": 4500,
      "fzfg": false,
      "metar_trigger": false,
      "taf_trigger": false,
      "metar": "METAR EDJA 220920Z 05007KT 4500 BR OVC002 M02/M03 Q1009",
      "taf": "TAF EDJA 220800Z 2209/2218 07005KT 3500 BR OVC002"
    },
    {
      "icao": "EDLW",
      "alert": "OK",
      "vis_m": 9999,
      "fzfg": false,
      "metar_trigger": false,
      "taf_trigger": false,
      "metar": "METAR EDLW 220920Z 03006KT CAVOK 04/02 Q1011",
      "taf": "TAF EDLW 220500Z 2206/2306 08007KT CAVOK"
    },
    {
      "icao": "EDSB",
      "alert": "OK",
      "vis_m": 8000,
      "fzfg": false,
      "metar_trigger": false,
      "taf_trigger": false,
      "metar": "METAR EDSB 220920Z 04006KT 8000 SCT009 01/00 Q1011",
      "taf": ""
    },
    {
      "icao": "EETN",
      "alert": "OK",
      "vis_m": 9999,
      "fzfg": false,
      "metar_trigger": false,
      "taf_trigger": false,
      "metar": "METAR EETN 220920Z 01004KT 9999 FEW015CB SCT022 BKN031 02/M00 Q1021 NOSIG",
      "taf": "TAF EETN 220530Z 2206/2306 35008KT 9999 SCT013 BKN020"
    },
    {
      "icao": "EFHK",
      "alert": "OK",
      "vis_m": 9999,
      "fzfg": false,
      "metar_trigger": false,
      "taf_trigger": false,
      "metar": "METAR EFHK 220920Z 32005KT 9999 SCT022 BKN038 01/00 Q1021 TEMPO 3000 -SN BKN007",
      "taf": "TAF EFHK 220827Z 2209/2309 33006KT 9999 FEW012 BKN030"
    },
    {
      "icao": "EFTU",
      "alert": "OK",
      "vis_m": 9999,
      "fzfg": false,
      "metar_trigger": false,
      "taf_trigger": false,
      "metar": "METAR EFTU 220920Z AUTO 04005KT 010V100 9999 -SHSN OVC005 M01/M02 Q1023",
      "taf": ""
    },
    {
      "icao": "EGGW",
      "alert": "OK",
      "vis_m": 2300,
      "fzfg": false,
      "metar_trigger": false,
      "taf_trigger": false,
      "metar": "METAR EGGW 220920Z AUTO 13007KT 2300 BR OVC002 08/07 Q1007",
      "taf": ""
    },
    {
      "icao": "EGKK",
      "alert": "OK",
      "vis_m": 9999,
      "fzfg": false,
      "metar_trigger": false,
      "taf_trigger": false,
      "metar": "METAR EGKK 220920Z 12006KT 9999 SCT024 BKN030 10/09 Q1007",
      "taf": "TAF EGKK 220456Z 2206/2312 10008KT 9999 SCT025"
    },
    {
      "icao": "EHEH",
      "alert": "OK",
      "vis_m": 9999,
      "fzfg": false,
      "metar_trigger": false,
      "taf_trigger": false,
      "metar": "METAR EHEH 220925Z AUTO 07006KT 050V110 9999 OVC210 05/02 Q1010 BLU NOSIG RMK TREND REMOTE BY EHWX",
      "taf": "TAF EHEH 220526Z 2206/2312 09006KT CAVOK"
    },
    {
      "icao": "EKBI",
      "alert": "OK",
      "vis_m": 9999,
      "fzfg": false,
      "metar_trigger": false,
      "taf_trigger": false,
      "metar": "METAR EKBI 220920Z AUTO 10013KT 070V130 9999 OVC014/// 05/02 Q1020",
      "taf": "TAF EKBI 220827Z 2209/2309 10012KT 9999 BKN012"
    },
    {
      "icao": "EKCH",
      "alert": "OK",
      "vis_m": 9999,
      "fzfg": false,
      "metar_trigger": false,
      "taf_trigger": false,
      "metar": "METAR EKCH 220920Z 10011KT 9999 FEW014 BKN016 05/02 Q1023 TEMPO BKN013",
      "taf": "TAF EKCH 220827Z 2209/2309 10012KT 9999 BKN015"
    },
    {
      "icao": "ENTO",
      "alert": "OK",
      "vis_m": 9999,
      "fzfg": false,
      "metar_trigger": false,
      "taf_trigger": false,
      "metar": "METAR ENTO 220920Z 01008KT CAVOK M03/M04 Q1025 NOSIG",
      "taf": "TAF ENTO 220500Z 2206/2306 01008KT CAVOK"
    },
    {
      "icao": "EPGD",
      "alert": "OK",
      "vis_m": 9999,
      "fzfg": false,
      "metar_trigger": false,
      "taf_trigger": false,
      "metar": "METAR EPGD 220930Z 09004KT 9999 FEW011 OVC021 05/03 Q1023",
      "taf": "TAF EPGD 220530Z 2206/2306 VRB03KT 9999 BKN018"
    },
    {
      "icao": "EPKK",
      "alert": "OK",
      "vis_m": 3000,
      "fzfg": false,
      "metar_trigger": false,
      "taf_trigger": false,
      "metar": "METAR EPKK 220930Z 06010KT 3000 BR OVC003 02/02 Q1020",
      "taf": "TAF EPKK 220830Z 2209/2309 06010KT 3500 BR OVC003"
    },
    {
      "icao": "EPKT",
      "alert": "OK",
      "vis_m": 4300,
      "fzfg": false,
      "metar_trigger": false,
      "taf_trigger": false,
      "metar": "METAR EPKT 220930Z 06006KT 4300 BR OVC002 02/02 Q1020",
      "taf": "TAF EPKT 220530Z 2206/2306 07005KT 9999 OVC003"
    },
    {
      "icao": "EPWA",
      "alert": "OK",
      "vis_m": 9999,
      "fzfg": false,
      "metar_trigger": false,
      "taf_trigger": false,
      "metar": "METAR EPWA 220930Z 09005KT 070V130 9999 BKN023 03/M00 Q1023 NOSIG",
      "taf": "TAF EPWA 220830Z 2209/2309 12004KT 9999 BKN025"
    },
    {
      "icao": "EPWR",
      "alert": "OK",
      "vis_m": 4500,
      "fzfg": false,
      "metar_trigger": false,
      "taf_trigger": false,
      "metar": "METAR EPWR 220930Z 10009KT 4500 BR OVC005 04/04 Q1019",
      "taf": "TAF EPWR 220830Z 2209/2309 09009KT 3000 BR OVC003"
    },
    {
      "icao": "ESGG",
      "alert": "OK",
      "vis_m": 9999,
      "fzfg": false,
      "metar_trigger": false,
      "taf_trigger": false,
      "metar": "METAR ESGG 220920Z 10005KT CAVOK M01/M02 Q1024",
      "taf": "TAF ESGG 220830Z 2209/2309 09006KT CAVOK"
    },
    {
      "icao": "ESKN",
      "alert": "OK",
      "vis_m": 9999,
      "fzfg": false,
      "metar_trigger": false,
      "taf_trigger": false,
      "metar": "METAR ESKN 220920Z 35004KT 310V020 CAVOK M02/M02 Q1025",
      "taf": "TAF ESKN 220830Z 2209/2309 31005KT CAVOK"
    },
    {
      "icao": "ESMX",
      "alert": "OK",
      "vis_m": 350,
      "fzfg": true,
      "metar_trigger": false,
      "taf_trigger": false,
      "metar": "METAR ESMX 220920Z AUTO VRB02KT 0350 R01/0700N R19/1300U FZFG BKN001/// OVC003/// M01/M01 Q1024",
      "taf": ""
    },
    {
      "icao": "EVRA",
      "alert": "OK",
      "vis_m": 9999,
      "fzfg": false,
      "metar_trigger": false,
      "taf_trigger": false,
      "metar": "METAR EVRA 220920Z 34008KT 9999 -SHRA SCT020CB OVC026 05/03 Q1021 NOSIG",
      "taf": "TAF EVRA 220801Z 2209/2309 31007KT 9999 OVC025"
    },
    {
      "icao": "EYKA",
      "alert": "OK",
      "vis_m": 9999,
      "fzfg": false,
      "metar_trigger": false,
      "taf_trigger": false,
      "metar": "METAR EYKA 220920Z 29004KT 250V330 9999 BKN016 OVC020 04/01 Q1022",
      "taf": "TAF EYKA 220500Z 2206/2306 VRB04KT 9000 OVC015"
    },
    {
      "icao": "EYVI",
      "alert": "OK",
      "vis_m": 9999,
      "fzfg": false,
      "metar_trigger": false,
      "taf_trigger": false,
      "metar": "METAR EYVI 220920Z 29005KT 250V310 9999 OVC020 03/00 Q1021 NOSIG",
      "taf": ""
    },
    {
      "icao": "GCLP",
      "alert": "OK",
      "vis_m": 9999,
      "fzfg": false,
      "metar_trigger": false,
      "taf_trigger": false,
      "metar": "METAR GCLP 220930Z 35011KT 9999 SCT020 BKN040 18/14 Q1020 NOSIG",
      "taf": "TAF GCLP 220800Z 2209/2309 02017KT 9999 SCT020 BKN035 TX20/2214Z TN16/2306Z"
    },
    {
      "icao": "GCTS",
      "alert": "OK",
      "vis_m": 9999,
      "fzfg": false,
      "metar_trigger": false,
      "taf_trigger": false,
      "metar": "METAR GCTS 220930Z 07006KT 9999 FEW030 19/10 Q1021 NOSIG",
      "taf": "TAF GCTS 220800Z 2209/2309 06015KT 9999 SCT040 TX24/2214Z TN15/2306Z"
    },
    {
      "icao": "HECA",
      "alert": "OK",
      "vis_m": 9999,
      "fzfg": false,
      "metar_trigger": false,
      "taf_trigger": false,
      "metar": "METAR HECA 220930Z 18011KT CAVOK 20/M01 Q1014 NOSIG",
      "taf": "TAF HECA 220500Z 2206/2312 15009KT 6000 NSC"
    },
    {
      "icao": "HEGN",
      "alert": "OK",
      "vis_m": 9999,
      "fzfg": false,
      "metar_trigger": false,
      "taf_trigger": false,
      "metar": "METAR HEGN 220900Z 00000KT CAVOK 24/12 Q1015 NOSIG",
      "taf": "TAF HEGN 220500Z 2206/2312 27008KT CAVOK"
    },
    {
      "icao": "HESH",
      "alert": "OK",
      "vis_m": 9999,
      "fzfg": false,
      "metar_trigger": false,
      "taf_trigger": false,
      "metar": "METAR HESH 220900Z 06004KT CAVOK 24/13 Q1015 NOSIG",
      "taf": "TAF HESH 220500Z 2206/2312 30008KT CAVOK"
    },
    {
      "icao": "HESX",
      "alert": "OK",
      "vis_m": 9999,
      "fzfg": false,
      "metar_trigger": false,
      "taf_trigger": false,
      "metar": "METAR HESX 220900Z 21009KT CAVOK 18/01 Q1014 NOSIG",
      "taf": "TAF HESX 220500Z 2206/2312 20008KT CAVOK"
    },
    {
      "icao": "LATI",
      "alert": "OK",
      "vis_m": 9999,
      "fzfg": false,
      "metar_trigger": false,
      "taf_trigger": false,
      "metar": "METAR LATI 220920Z 34003KT CAVOK 11/04 Q1015 NOSIG",
      "taf": "TAF LATI 220500Z 2206/2306 VRB05KT CAVOK TX17/2212Z TN01/2305Z"
    },
    {
      "icao": "LBSF",
      "alert": "OK",
      "vis_m": 5000,
      "fzfg": false,
      "metar_trigger": false,
      "taf_trigger": false,
      "metar": "METAR LBSF 220930Z 32003KT 290V350 5000 BR BKN028 02/00 Q1020 NOSIG",
      "taf": "TAF LBSF 220500Z 2206/2306 VRB04KT 5000 BR SCT007 BKN020"
    },
    {
      "icao": "LBWN",
      "alert": "OK",
      "vis_m": 9999,
      "fzfg": false,
      "metar_trigger": false,
      "taf_trigger": false,
      "metar": "METAR LBWN 220930Z 36007KT 340V040 9999 OVC012 06/05 Q1021 NOSIG",
      "taf": "TAF LBWN 220500Z 2206/2306 35010KT 9999 BKN012 OVC020"
    },
    {
      "icao": "LCLK",
      "alert": "OK",
      "vis_m": 9999,
      "fzfg": false,
      "metar_trigger": false,
      "taf_trigger": false,
      "metar": "METAR LCLK 220930Z 07015KT 9999 FEW025TCU SCT055 20/14 Q1015 NOSIG",
      "taf": "TAF LCLK 220530Z 2206/2306 03012KT 9999 FEW020 SCT030"
    },
    {
      "icao": "LDDU",
      "alert": "OK",
      "vis_m": 9999,
      "fzfg": false,
      "metar_trigger": false,
      "taf_trigger": false,
      "metar": "METAR LDDU 220930Z VRB02KT CAVOK 15/03 Q1015 NOSIG",
      "taf": "TAF LDDU 220525Z 2206/2306 08007KT CAVOK TX15/2212Z TN08/2206Z"
    },
    {
      "icao": "LDSP",
      "alert": "OK",
      "vis_m": 9999,
      "fzfg": false,
      "metar_trigger": false,
      "taf_trigger": false,
      "metar": "METAR LDSP 220930Z 02004KT 9999 FEW070 10/06 Q1016 NOSIG",
      "taf": "TAF LDSP 220525Z 2206/2306 31004KT CAVOK TX15/2212Z TN07/2206Z"
    },
    {
      "icao": "LDZA",
      "alert": "OK",
      "vis_m": 4000,
      "fzfg": false,
      "metar_trigger": false,
      "taf_trigger": false,
      "metar": "METAR LDZA 220930Z 00000KT 4000 BR FEW004 OVC015 04/03 Q1020 BECMG 7000 NSW",
      "taf": "TAF LDZA 220525Z 2206/2306 VRB02KT 7000 OVC015 TX06/2213Z TN01/2305Z"
    },
    {
      "icao": "LEAL",
      "alert": "OK",
      "vis_m": 9999,
      "fzfg": false,
      "metar_trigger": false,
      "taf_trigger": false,
      "metar": "METAR LEAL 220930Z 29017KT 9999 FEW025 11/02 Q1009 NOSIG",
      "taf": "TAF LEAL 220500Z 2206/2306 28008KT 9999 FEW040 TX13/2213Z TN08/2207Z"
    },
    {
      "icao": "LEBL",
      "alert": "OK",
      "vis_m": 9999,
      "fzfg": false,
      "metar_trigger": false,
      "taf_trigger": false,
      "metar": "METAR LEBL 220930Z 26008KT 240V310 9999 FEW035 09/04 Q1004 NOSIG",
      "taf": "TAF LEBL 220500Z 2206/2306 32012KT 9999 SCT040 TX12/2213Z TN06/2306Z"
    },
    {
      "icao": "LECH",
      "alert": "OK",
      "vis_m": 9000,
      "fzfg": false,
      "metar_trigger": false,
      "taf_trigger": false,
      "metar": "METAR LECH 220930Z AUTO 21005KT 160V230 9000 NSC 07/M01 Q1006",
      "taf": ""
    },
    {
      "icao": "LEMD",
      "alert": "OK",
      "vis_m": 9999,
      "fzfg": false,
      "metar_trigger": false,
      "taf_trigger": false,
      "metar": "METAR LEMD 220930Z 17004KT 130V220 9999 SCT008 BKN010 02/01 Q1009 NOSIG",
      "taf": ""
    },
    {
      "icao": "LEMG",
      "alert": "OK",
      "vis_m": 9999,
      "fzfg": false,
      "metar_trigger": false,
      "taf_trigger": false,
      "metar": "METAR LEMG 220930Z 31012KT 9999 FEW020 08/03 Q1013 NOSIG",
      "taf": "TAF LEMG 220500Z 2206/2306 30005KT 9999 FEW040 TX14/2214Z TN07/2206Z"
    },
    {
      "icao": "LERS",
      "alert": "OK",
      "vis_m": 9999,
      "fzfg": false,
      "metar_trigger": false,
      "taf_trigger": false,
      "metar": "METAR LERS 220930Z 27010KT 240V300 9999 FEW030 08/01 Q1005",
      "taf": "TAF LERS 220800Z 2209/2309 30009KT 9999 FEW040 TX13/2213Z TN05/2306Z"
    },
    {
      "icao": "LEVC",
      "alert": "OK",
      "vis_m": 9999,
      "fzfg": false,
      "metar_trigger": false,
      "taf_trigger": false,
      "metar": "METAR LEVC 220930Z 26007KT 220V290 9999 FEW025 08/00 Q1008 NOSIG",
      "taf": "TAF LEVC 220500Z 2206/2306 27010KT 9999 FEW040 TX12/2213Z TN05/2207Z"
    },
    {
      "icao": "LFLL",
      "alert": "OK",
      "vis_m": 8000,
      "fzfg": false,
      "metar_trigger": false,
      "taf_trigger": false,
      "metar": "METAR LFLL 220900Z 13004KT 070V160 8000 FEW012 BKN060 BKN080 08/07 Q1006 NOSIG",
      "taf": "TAF LFLL 220500Z 2206/2312 15005KT CAVOK"
    },
    {
      "icao": "LFMN",
      "alert": "OK",
      "vis_m": 9999,
      "fzfg": false,
      "metar_trigger": false,
      "taf_trigger": false,
      "metar": "METAR LFMN 220930Z 04014KT 9999 BKN046 BKN063 14/07 Q1009 NOSIG",
      "taf": "TAF LFMN 220800Z 2209/2315 07016KT 9999 BKN045"
    },
    {
      "icao": "LFOB",
      "alert": "OK",
      "vis_m": 9999,
      "fzfg": false,
      "metar_trigger": false,
      "taf_trigger": false,
      "metar": "METAR LFOB 220930Z AUTO 10004KT 050V120 9999 SCT010 BKN014 BKN120 08/07 Q1008 NOSIG",
      "taf": ""
    },
    {
      "icao": "LFPO",
      "alert": "OK",
      "vis_m": 8000,
      "fzfg": false,
      "metar_trigger": false,
      "taf_trigger": false,
      "metar": "METAR LFPO 220930Z 03005KT 8000 NSC 08/08 Q1007 NOSIG",
      "taf": "TAF LFPO 220500Z 2206/2312 10003KT CAVOK"
    },
    {
      "icao": "LFSB",
      "alert": "OK",
      "vis_m": 9999,
      "fzfg": false,
      "metar_trigger": false,
      "taf_trigger": false,
      "metar": "METAR LFSB 220930Z AUTO 11003KT 070V130 9999 SCT009 03/01 Q1010 TEMPO 4000 BR BKN004",
      "taf": ""
    },
    {
      "icao": "LGAV",
      "alert": "OK",
      "vis_m": 9999,
      "fzfg": false,
      "metar_trigger": false,
      "taf_trigger": false,
      "metar": "METAR LGAV 220920Z 02011KT 9999 FEW025 SCT040 BKN070 15/09 Q1016 NOSIG",
      "taf": "TAF LGAV 220500Z 2206/2306 03015KT 9999 SCT035"
    },
    {
      "icao": "LGIR",
      "alert": "OK",
      "vis_m": 9999,
      "fzfg": false,
      "metar_trigger": false,
      "taf_trigger": false,
      "metar": "METAR LGIR 220920Z 00000KT 9999 FEW020 17/12 Q1014 NOSIG",
      "taf": "TAF LGIR 220500Z 2206/2306 18010KT 9999 SCT020 SCT080"
    },
    {
      "icao": "LGKR",
      "alert": "OK",
      "vis_m": 9999,
      "fzfg": false,
      "metar_trigger": false,
      "taf_trigger": false,
      "metar": "METAR LGKR 220920Z 00000KT 9999 FEW020 SCT040 BKN080 13/10 Q1014 NOSIG",
      "taf": "TAF LGKR 220500Z 2206/2306 VRB03KT 9999 FEW010 SCT020"
    },
    {
      "icao": "LGRP",
      "alert": "OK",
      "vis_m": 8000,
      "fzfg": false,
      "metar_trigger": false,
      "taf_trigger": false,
      "metar": "METAR LGRP 220920Z 14005KT 8000 -RA FEW010 FEW018TCU BKN020 15/13 Q1012 RETS NOSIG",
      "taf": ""
    },
    {
      "icao": "LGTS",
      "alert": "OK",
      "vis_m": 9999,
      "fzfg": false,
      "metar_trigger": false,
      "taf_trigger": false,
      "metar": "METAR LGTS 220920Z VRB03KT 9999 FEW010 12/07 Q1019 NOSIG",
      "taf": "TAF LGTS 220500Z 2206/2306 VRB03KT 9999 FEW025"
    },
    {
      "icao": "LGZA",
      "alert": "OK",
      "vis_m": 9999,
      "fzfg": false,
      "metar_trigger": false,
      "taf_trigger": false,
      "metar": "METAR LGZA 220850Z 00000KT 9999 FEW020 BKN080 14/12 Q1014",
      "taf": "TAF LGZA 220800Z 2209/2218 12010KT 9999 FEW020 BKN080"
    },
    {
      "icao": "LHBP",
      "alert": "OK",
      "vis_m": 9999,
      "fzfg": false,
      "metar_trigger": false,
      "taf_trigger": false,
      "metar": "METAR LHBP 220930Z 10007KT 9999 BKN007 OVC009 04/03 Q1021 NOSIG",
      "taf": "TAF LHBP 220515Z 2206/2306 12005KT 6000 OVC010"
    },
    {
      "icao": "LHDC",
      "alert": "OK",
      "vis_m": 3400,
      "fzfg": false,
      "metar_trigger": false,
      "taf_trigger": false,
      "metar": "METAR LHDC 220915Z AUTO VRB02KT 3400 BR OVC015 05/04 Q1021 NOSIG",
      "taf": "TAF LHDC 220815Z 2209/2218 VRB03KT 6000 OVC017"
    },
    {
      "icao": "LIBD",
      "alert": "OK",
      "vis_m": 7000,
      "fzfg": false,
      "metar_trigger": false,
      "taf_trigger": false,
      "metar": "METAR LIBD 220920Z VRB02KT 7000 SCT040 12/11 Q1014",
      "taf": "TAF LIBD 220500Z 2206/2306 VRB05KT 9999 FEW030"
    },
    {
      "icao": "LICC",
      "alert": "OK",
      "vis_m": 9999,
      "fzfg": false,
      "metar_trigger": false,
      "taf_trigger": false,
      "metar": "METAR LICC 220920Z VRB02KT 9999 FEW020 SCT070 15/14 Q1012",
      "taf": "TAF LICC 220500Z 2206/2306 VRB06KT 8000 RA BKN012"
    },
    {
      "icao": "LICJ",
      "alert": "OK",
      "vis_m": 9999,
      "fzfg": false,
      "metar_trigger": false,
      "taf_trigger": false,
      "metar": "METAR LICJ 220920Z VRB02KT 9999 SCT050 16/11 Q1011",
      "taf": "TAF LICJ 220500Z 2206/2306 VRB05KT 9999 FEW040"
    },
    {
      "icao": "LIEO",
      "alert": "OK",
      "vis_m": 9999,
      "fzfg": false,
      "metar_trigger": false,
      "taf_trigger": false,
      "metar": "METAR LIEO 220920Z VRB01KT 9999 SCT010 SCT030 14/14 Q1008",
      "taf": "TAF LIEO 220500Z 2206/2306 VRB05KT 9999 SCT020"
    },
    {
      "icao": "LIMC",
      "alert": "OK",
      "vis_m": 9999,
      "fzfg": false,
      "metar_trigger": false,
      "taf_trigger": false,
      "metar": "METAR LIMC 220920Z 36004KT 9999 BKN055 09/06 Q1015 NOSIG",
      "taf": "TAF LIMC 220500Z 2206/2312 VRB03KT 9999 BKN035"
    },
    {
      "icao": "LIME",
      "alert": "OK",
      "vis_m": 9999,
      "fzfg": false,
      "metar_trigger": false,
      "taf_trigger": false,
      "metar": "METAR LIME 220920Z VRB01KT 9999 SCT050 SCT090 08/04 Q1015 NOSIG",
      "taf": "TAF LIME 220500Z 2206/2306 VRB03KT 8000 BKN035"
    },
    {
      "icao": "LIPH",
      "alert": "OK",
      "vis_m": 9999,
      "fzfg": false,
      "metar_trigger": false,
      "taf_trigger": false,
      "metar": "METAR LIPH 220920Z 03002KT CAVOK 06/03 Q1016",
      "taf": "TAF LIPH 220500Z 2206/2306 VRB04KT 9999 FEW030"
    },
    {
      "icao": "LIPQ",
      "alert": "OK",
      "vis_m": 9999,
      "fzfg": false,
      "metar_trigger": false,
      "taf_trigger": false,
      "metar": "METAR LIPQ 220920Z AUTO 04003KT 9999 BKN074/// 08/03 Q1016",
      "taf": "TAF LIPQ 220500Z 2206/2306 07007KT CAVOK"
    },
    {
      "icao": "LIPX",
      "alert": "OK",
      "vis_m": 9999,
      "fzfg": false,
      "metar_trigger": false,
      "taf_trigger": false,
      "metar": "METAR LIPX 220920Z 01005KT 9999 FEW065 07/04 Q1016",
      "taf": "TAF LIPX 220500Z 2206/2306 VRB03KT 9999 BKN040"
    },
    {
      "icao": "LIPY",
      "alert": "OK",
      "vis_m": 8000,
      "fzfg": false,
      "metar_trigger": false,
      "taf_trigger": false,
      "metar": "METAR LIPY 220920Z AUTO 22003KT 190V260 8000 BKN011/// 12/11 Q1014",
      "taf": "TAF LIPY 220500Z 2206/2306 VRB05KT 3000 BR BKN010"
    },
    {
      "icao": "LIPZ",
      "alert": "OK",
      "vis_m": 9999,
      "fzfg": false,
      "metar_trigger": false,
      "taf_trigger": false,
      "metar": "METAR LIPZ 220920Z 02008KT 9999 FEW070 06/02 Q1016 NOSIG",
      "taf": "TAF LIPZ 220500Z 2206/2312 03005KT 9999 FEW030"
    },
    {
      "icao": "LIRA",
      "alert": "OK",
      "vis_m": 9999,
      "fzfg": false,
      "metar_trigger": false,
      "taf_trigger": false,
      "metar": "METAR LIRA 220920Z 02006KT 9999 SCT060 13/07 Q1012",
      "taf": "TAF LIRA 220500Z 2206/2306 05005KT 9999 SCT060"
    },
    {
      "icao": "LIRN",
      "alert": "OK",
      "vis_m": 9999,
      "fzfg": false,
      "metar_trigger": false,
      "taf_trigger": false,
      "metar": "METAR LIRN 220920Z 36005KT 340V040 CAVOK 15/08 Q1012 NOSIG",
      "taf": "TAF LIRN 220500Z 2206/2306 05005KT 9999 SCT050"
    },
    {
      "icao": "LLBG",
      "alert": "OK",
      "vis_m": 9999,
      "fzfg": false,
      "metar_trigger": false,
      "taf_trigger": false,
      "metar": "METAR LLBG 220920Z VRB02KT CAVOK 23/02 Q1014 NOSIG",
      "taf": "TAF LLBG 220501Z 2206/2306 VRB04KT CAVOK"
    },
    {
      "icao": "LMML",
      "alert": "OK",
      "vis_m": 9999,
      "fzfg": false,
      "metar_trigger": false,
      "taf_trigger": false,
      "metar": "METAR LMML 220915Z 36003KT 290V030 9999 FEW020 17/14 Q1012 NOSIG",
      "taf": "TAF LMML 220500Z 2206/2306 VRB05KT 9999 SCT022"
    },
    {
      "icao": "LOWW",
      "alert": "OK",
      "vis_m": 9999,
      "fzfg": false,
      "metar_trigger": false,
      "taf_trigger": false,
      "metar": "METAR LOWW 220920Z 14015KT 9999 -DZ FEW003 SCT005 BKN007 03/03 Q1018 TEMPO BKN010",
      "taf": "TAF LOWW 220815Z 2209/2315 14015KT 8000 BKN006 TX04/2223Z TN03/2209Z"
    },
    {
      "icao": "LPFR",
      "alert": "OK",
      "vis_m": 9999,
      "fzfg": false,
      "metar_trigger": false,
      "taf_trigger": false,
      "metar": "METAR LPFR 220930Z 31007KT 9999 FEW015 09/07 Q1015",
      "taf": "TAF LPFR 220500Z 2206/2306 VRB02KT 9999 FEW015"
    },
    {
      "icao": "LPPR",
      "alert": "OK",
      "vis_m": 9999,
      "fzfg": false,
      "metar_trigger": false,
      "taf_trigger": false,
      "metar": "METAR LPPR 220930Z 14006KT 9999 VCSH FEW015 SCT045 07/06 Q1011",
      "taf": "TAF LPPR 220500Z 2206/2306 VRB02KT 9999 FEW015 SCT030"
    },
    {
      "icao": "LPPT",
      "alert": "OK",
      "vis_m": 9999,
      "fzfg": false,
      "metar_trigger": false,
      "taf_trigger": false,
      "metar": "METAR LPPT 220930Z 33003KT 300V030 9999 FEW025 09/07 Q1014",
      "taf": "TAF LPPT 220500Z 2206/2312 VRB05KT 9999 SCT030"
    },
    {
      "icao": "LQSA",
      "alert": "OK",
      "vis_m": 9999,
      "fzfg": false,
      "metar_trigger": false,
      "taf_trigger": false,
      "metar": "METAR LQSA 220930Z 00000KT 9999 OVC013 02/M01 Q1018 NOSIG",
      "taf": "TAF LQSA 220500Z 2206/2306 VRB02KT 9999 BKN012 TX06/2213Z TNM04/2305Z"
    },
    {
      "icao": "LQTZ",
      "alert": "OK",
      "vis_m": 9999,
      "fzfg": false,
      "metar_trigger": false,
      "taf_trigger": false,
      "metar": "METAR LQTZ 220930Z 35003KT 9999 SCT017 BKN035 05/03 Q1019",
      "taf": "TAF LQTZ 220500Z 2206/2306 VRB02KT 6000 BKN015 TX05/2213Z TNM01/2305Z"
    },
    {
      "icao": "LRCL",
      "alert": "OK",
      "vis_m": 8000,
      "fzfg": false,
      "metar_trigger": false,
      "taf_trigger": false,
      "metar": "METAR LRCL 220930Z 14005KT 8000 OVC005 02/01 Q1021",
      "taf": "TAF LRCL 220800Z 2209/2218 11006KT 9999 OVC005"
    },
    {
      "icao": "LRCV",
      "alert": "OK",
      "vis_m": 2800,
      "fzfg": false,
      "metar_trigger": false,
      "taf_trigger": false,
      "metar": "METAR LRCV 220930Z 08005KT 2800 BR OVC003 04/04 Q1022",
      "taf": "TAF LRCV 220800Z 2209/2218 09006KT 1500 BR OVC005"
    },
    {
      "icao": "LRIA",
      "alert": "OK",
      "vis_m": 2000,
      "fzfg": false,
      "metar_trigger": false,
      "taf_trigger": false,
      "metar": "METAR LRIA 220930Z 32003KT 290V350 2000 -DZ BR OVC002 03/03 Q1023",
      "taf": "TAF LRIA 220800Z 2209/2218 VRB04KT 3000 BR OVC002"
    },
    {
      "icao": "LROP",
      "alert": "OK",
      "vis_m": 8000,
      "fzfg": false,
      "metar_trigger": false,
      "taf_trigger": false,
      "metar": "METAR LROP 220930Z 05005KT 8000 BKN005 OVC006 03/03 Q1023 NOSIG",
      "taf": ""
    },
    {
      "icao": "LRSB",
      "alert": "OK",
      "vis_m": 400,
      "fzfg": true,
      "metar_trigger": false,
      "taf_trigger": false,
      "metar": "METAR LRSB 220930Z VRB01KT 0400 R27/1100U FZFG VV002 M01/M01 Q1020",
      "taf": ""
    },
    {
      "icao": "LRTR",
      "alert": "OK",
      "vis_m": 4000,
      "fzfg": false,
      "metar_trigger": false,
      "taf_trigger": false,
      "metar": "METAR LRTR 220930Z 11007KT 4000 BR BKN003 OVC009 04/04 Q1021",
      "taf": "TAF LRTR 220500Z 2206/2306 VRB04KT 3000 BR OVC002"
    },
    {
      "icao": "LTAF",
      "alert": "OK",
      "vis_m": 9999,
      "fzfg": false,
      "metar_trigger": false,
      "taf_trigger": false,
      "metar": "METAR LTAF 220920Z 03007KT CAVOK 16/01 Q1018 NOSIG RMK RWY23 05007KT 6AC100",
      "taf": "TAF LTAF 220440Z 2206/2306 05009KT CAVOK"
    },
    {
      "icao": "LTAI",
      "alert": "OK",
      "vis_m": 8000,
      "fzfg": false,
      "metar_trigger": false,
      "taf_trigger": false,
      "metar": "METAR LTAI 220920Z 31003KT 240V350 8000 -SHRA BKN030 BKN080 13/11 Q1015 NOSIG RMK RWY18C VRB02KT RWY36R VRB02KT RWY18L 30003KT 260V030",
      "taf": "TAF LTAI 220440Z 2206/2306 34009KT 9999 SCT030 BKN100"
    },
    {
      "icao": "LTFM",
      "alert": "OK",
      "vis_m": 9999,
      "fzfg": false,
      "metar_trigger": false,
      "taf_trigger": false,
      "metar": "METAR LTFM 220920Z 05017KT 9999 -SHRA SCT017TCU BKN022 13/09 Q1018 NOSIG RMK RWY17L 04015KT 360V060 RWY34L 02014KT 350V050 RWY16R 04015KT RWY36 05017KT RWY18 06014KT",
      "taf": "TAF LTFM 220440Z 2206/2312 03017G27KT 9999 -SHRA BKN012 BKN022"
    },
    {
      "icao": "LUBL",
      "alert": "OK",
      "vis_m": null,
      "fzfg": false,
      "metar_trigger": false,
      "taf_trigger": false,
      "metar": "",
      "taf": ""
    },
    {
      "icao": "LUKK",
      "alert": "OK",
      "vis_m": 9999,
      "fzfg": false,
      "metar_trigger": false,
      "taf_trigger": false,
      "metar": "METAR LUKK 220930Z 04005KT 9999 OVC008 04/02 Q1022 NOSIG",
      "taf": "TAF LUKK 220518Z 2206/2306 35005KT 5000 BR OVC005"
    },
    {
      "icao": "LWSK",
      "alert": "OK",
      "vis_m": 3000,
      "fzfg": false,
      "metar_trigger": false,
      "taf_trigger": false,
      "metar": "METAR LWSK 220920Z VRB01KT 3000 BR BKN004 OVC009 03/02 Q1021 NOSIG",
      "taf": "TAF LWSK 220825Z 2209/2309 VRB02KT 3000 BR OVC004"
    },
    {
      "icao": "LYBE",
      "alert": "OK",
      "vis_m": 9999,
      "fzfg": false,
      "metar_trigger": false,
      "taf_trigger": false,
      "metar": "METAR LYBE 220930Z 12007KT 9999 OVC013 05/02 Q1020 NOSIG",
      "taf": ""
    },
    {
      "icao": "LZIB",
      "alert": "OK",
      "vis_m": 9000,
      "fzfg": false,
      "metar_trigger": false,
      "taf_trigger": false,
      "metar": "METAR LZIB 220930Z 11012KT 9000 -DZ BKN005 OVC015 03/03 Q1019 TEMPO BKN004",
      "taf": "TAF LZIB 220515Z 2206/2306 12009KT 6000 SCT003 OVC011"
    },
    {
      "icao": "LZKZ",
      "alert": "OK",
      "vis_m": 8000,
      "fzfg": false,
      "metar_trigger": false,
      "taf_trigger": false,
      "metar": "METAR LZKZ 220930Z VRB02KT 8000 BKN019 07/04 Q1020 NOSIG",
      "taf": ""
    },
    {
      "icao": "LZTT",
      "alert": "OK",
      "vis_m": 350,
      "fzfg": false,
      "metar_trigger": false,
      "taf_trigger": false,
      "metar": "METAR LZTT 220930Z VRB02KT 0350 R27/0550N -DZ FG OVC002 00/00 Q1018 TEMPO 2000 BR BKN005",
      "taf": ""
    },
    {
      "icao": "OEJN",
      "alert": "OK",
      "vis_m": 9999,
      "fzfg": false,
      "metar_trigger": false,
      "taf_trigger": false,
      "metar": "METAR OEJN 220900Z 00000KT CAVOK 31/17 Q1012 NOSIG",
      "taf": "TAF OEJN 220500Z 2206/2312 VRB03KT 9999 FEW040"
    },
    {
      "icao": "OEMA",
      "alert": "OK",
      "vis_m": 9999,
      "fzfg": false,
      "metar_trigger": false,
      "taf_trigger": false,
      "metar": "METAR OEMA 220900Z 13010KT CAVOK 21/M01 Q1019 NOSIG",
      "taf": "TAF OEMA 220500Z 2206/2312 12010KT CAVOK"
    },
    {
      "icao": "OERK",
      "alert": "OK",
      "vis_m": 9999,
      "fzfg": false,
      "metar_trigger": false,
      "taf_trigger": false,
      "metar": "METAR OERK 220900Z 16007KT CAVOK 16/06 Q1023 NOSIG",
      "taf": "TAF OERK 220500Z 2206/2312 16010KT CAVOK"
    },
    {
      "icao": "OJAI",
      "alert": "OK",
      "vis_m": 5000,
      "fzfg": false,
      "metar_trigger": false,
      "taf_trigger": false,
      "metar": "METAR OJAI 220900Z 00000KT 5000 HZ NSC 13/02 Q1018 NOSIG",
      "taf": "TAF OJAI 220500Z 2206/2312 12010KT 5000 HZ NSC"
    },
    {
      "icao": "OKBK",
      "alert": "OK",
      "vis_m": null,
      "fzfg": false,
      "metar_trigger": false,
      "taf_trigger": false,
      "metar": "",
      "taf": ""
    },
    {
      "icao": "OMAA",
      "alert": "OK",
      "vis_m": 9999,
      "fzfg": false,
      "metar_trigger": false,
      "taf_trigger": false,
      "metar": "METAR OMAA 220900Z 02011KT CAVOK 23/06 Q1019 NOSIG",
      "taf": "TAF OMAA 220500Z 2206/2312 07007KT 8000 NSC"
    },
    {
      "icao": "UAAA",
      "alert": "OK",
      "vis_m": 5000,
      "fzfg": false,
      "metar_trigger": false,
      "taf_trigger": false,
      "metar": "METAR UAAA 220930Z VRB01MPS 5000 BR SCT011 BKN200 M02/M04 Q1028 NOSIG",
      "taf": ""
    },
    {
      "icao": "UCFM",
      "alert": "OK",
      "vis_m": 800,
      "fzfg": true,
      "metar_trigger": false,
      "taf_trigger": false,
      "metar": "METAR UCFM 220930Z 26003MPS 0800 0350W R25/0800N FZFG BKN001 M02/M03 Q1027 NOSIG",
      "taf": ""
    },
    {
      "icao": "UDYZ",
      "alert": "OK",
      "vis_m": 3800,
      "fzfg": false,
      "metar_trigger": false,
      "taf_trigger": false,
      "metar": "METAR UDYZ 220930Z VRB02KT 3800 BR NSC 04/M03 Q1022 NOSIG",
      "taf": "TAF UDYZ 220500Z 2206/2306 VRB04KT 6000 SCT040"
    },
    {
      "icao": "UGTB",
      "alert": "OK",
      "vis_m": 9999,
      "fzfg": false,
      "metar_trigger": false,
      "taf_trigger": false,
      "metar": "METAR UGTB 220930Z 30020KT CAVOK 10/M03 Q1017 NOSIG",
      "taf": "TAF UGTB 220500Z 2206/2306 31015KT CAVOK TX10/2212Z TN02/2303Z"
    },
    {
      "icao": "UKKK",
      "alert": "OK",
      "vis_m": null,
      "fzfg": false,
      "metar_trigger": false,
      "taf_trigger": false,
      "metar": "",
      "taf": ""
    },
    {
      "icao": "UTTT",
      "alert": "OK",
      "vis_m": null,
      "fzfg": false,
      "metar_trigger": false,
      "taf_trigger": false,
      "metar": "",
      "taf": ""
    }
  ]
}