{
  "ts_utc": "2025-12-24T09:39:14Z",
  "threshold_m": 150,
  "source": "stations_override.txt (ICAO list) + aviationweather.gov (METAR/TAF raw)",
  "station_count": 159,
  "stations": [
    {
      "icao": "BIKF",
      "alert": "OK",
      "vis_m": 2000,
      "fzfg": false,
      "metar_trigger": false,
      "taf_trigger": false,
      "metar": "METAR BIKF 240930Z 18029KT 2000 DZRA BR OVC005 08/08 Q1012",
      "taf": "TAF BIKF 240730Z 2409/2509 18030G40KT 9999 -RA SCT010 BKN016 TX09/2418Z TN08/2409Z"
    },
    {
      "icao": "BKPR",
      "alert": "OK",
      "vis_m": 5000,
      "fzfg": false,
      "metar_trigger": false,
      "taf_trigger": false,
      "metar": "METAR BKPR 240930Z VRB02KT 5000 BR SCT012 BKN035 06/05 Q1014 NOSIG",
      "taf": "TAF BKPR 240530Z 2406/2506 15007KT 9999 BKN012 BKN025"
    },
    {
      "icao": "EBCI",
      "alert": "OK",
      "vis_m": 9999,
      "fzfg": false,
      "metar_trigger": false,
      "taf_trigger": false,
      "metar": "METAR EBCI 240920Z 05019KT 9999 FEW020 M00/M04 Q1027 TEMPO 05019G29KT",
      "taf": "TAF EBCI 240500Z 2406/2512 06015KT 9999 SCT030"
    },
    {
      "icao": "EDDB",
      "alert": "OK",
      "vis_m": 9999,
      "fzfg": false,
      "metar_trigger": false,
      "taf_trigger": false,
      "metar": "METAR EDDB 240920Z AUTO 07013KT 9999 BKN017 BKN021 M02/M06 Q1035 NOSIG",
      "taf": "TAF EDDB 240500Z 2406/2506 06010KT 9999 SCT015"
    },
    {
      "icao": "EDDH",
      "alert": "OK",
      "vis_m": 9999,
      "fzfg": false,
      "metar_trigger": false,
      "taf_trigger": false,
      "metar": "METAR EDDH 240920Z AUTO 07008KT 9999 SCT028 01/M03 Q1037 NOSIG",
      "taf": "TAF EDDH 240500Z 2406/2512 07008KT 9999 BKN030"
    },
    {
      "icao": "EDDK",
      "alert": "OK",
      "vis_m": 9999,
      "fzfg": false,
      "metar_trigger": false,
      "taf_trigger": false,
      "metar": "METAR EDDK 240920Z AUTO 34005KT CAVOK 01/M05 Q1030 NOSIG",
      "taf": "TAF EDDK 240500Z 2406/2512 04007KT 9999 FEW025"
    },
    {
      "icao": "EDDN",
      "alert": "OK",
      "vis_m": 9999,
      "fzfg": false,
      "metar_trigger": false,
      "taf_trigger": false,
      "metar": "METAR EDDN 240920Z AUTO 08015G27KT 030V120 9999 FEW036 01/M07 Q1024 NOSIG",
      "taf": "TAF EDDN 240500Z 2406/2506 05010KT 9999 BKN020"
    },
    {
      "icao": "EDDS",
      "alert": "OK",
      "vis_m": 9999,
      "fzfg": false,
      "metar_trigger": false,
      "taf_trigger": false,
      "metar": "METAR EDDS 240920Z AUTO 05012KT 9999 -SN BKN017 BKN022 00/M03 Q1020 TEMPO 06015G25KT 4500 BKN008",
      "taf": "TAF EDDS 240500Z 2406/2506 06012KT 9999 BKN015"
    },
    {
      "icao": "EDFH",
      "alert": "OK",
      "vis_m": 9999,
      "fzfg": false,
      "metar_trigger": false,
      "taf_trigger": false,
      "metar": "METAR EDFH 240920Z 06015G26KT 030V090 9999 OVC030 M01/M07 Q1024",
      "taf": "TAF EDFH 240500Z 2406/2506 06014KT 9999 BKN012"
    },
    {
      "icao": "EDJA",
      "alert": "OK",
      "vis_m": 3900,
      "fzfg": false,
      "metar_trigger": false,
      "taf_trigger": false,
      "metar": "METAR EDJA 240920Z 05017G27KT 3900 -SN OVC007 M01/M02 Q1016",
      "taf": ""
    },
    {
      "icao": "EDLW",
      "alert": "OK",
      "vis_m": 9999,
      "fzfg": false,
      "metar_trigger": false,
      "taf_trigger": false,
      "metar": "METAR EDLW 240920Z 02009KT 9999 BKN023 M01/M04 Q1031",
      "taf": "TAF EDLW 240500Z 2406/2506 05011KT 9999 FEW020"
    },
    {
      "icao": "EDNY",
      "alert": "OK",
      "vis_m": 9999,
      "fzfg": false,
      "metar_trigger": false,
      "taf_trigger": false,
      "metar": "METAR EDNY 240920Z 04014KT 9999 OVC017 01/M02 Q1016",
      "taf": "TAF EDNY 240927Z 2410/2418 04015G25KT 8000 OVC020"
    },
    {
      "icao": "EDSB",
      "alert": "OK",
      "vis_m": 9999,
      "fzfg": false,
      "metar_trigger": false,
      "taf_trigger": false,
      "metar": "METAR EDSB 240920Z 04018KT 9999 OVC028 02/M03 Q1022",
      "taf": "TAF EDSB 240500Z 2406/2506 04014KT 9999 BKN015"
    },
    {
      "icao": "EETN",
      "alert": "OK",
      "vis_m": 9999,
      "fzfg": false,
      "metar_trigger": false,
      "taf_trigger": false,
      "metar": "METAR EETN 240920Z 30011KT 9999 OVC013 01/M02 Q1032 NOSIG",
      "taf": ""
    },
    {
      "icao": "EFTU",
      "alert": "OK",
      "vis_m": 9999,
      "fzfg": false,
      "metar_trigger": false,
      "taf_trigger": false,
      "metar": "METAR EFTU 240920Z AUTO 31008KT 280V340 9999 OVC008 M00/M02 Q1033",
      "taf": "TAF EFTU 240834Z 2409/2509 29006KT 9999 OVC007"
    },
    {
      "icao": "EGBB",
      "alert": "OK",
      "vis_m": 9999,
      "fzfg": false,
      "metar_trigger": false,
      "taf_trigger": false,
      "metar": "METAR EGBB 240920Z 08013KT 9999 BKN018 04/M00 Q1035",
      "taf": "TAF EGBB 240454Z 2406/2506 05011KT 9999 BKN020"
    },
    {
      "icao": "EGGP",
      "alert": "OK",
      "vis_m": 9999,
      "fzfg": false,
      "metar_trigger": false,
      "taf_trigger": false,
      "metar": "METAR EGGP 240920Z 07005KT CAVOK 03/00 Q1036",
      "taf": "TAF EGGP 240458Z 2406/2506 11012KT 9999 SCT025"
    },
    {
      "icao": "EGGW",
      "alert": "OK",
      "vis_m": 9999,
      "fzfg": false,
      "metar_trigger": false,
      "taf_trigger": false,
      "metar": "METAR EGGW 240920Z AUTO 05013G23KT 9999 SCT024 02/M01 Q1032",
      "taf": "TAF EGGW 240457Z 2406/2506 06016G26KT 9999 BKN024"
    },
    {
      "icao": "EGKK",
      "alert": "OK",
      "vis_m": 9999,
      "fzfg": false,
      "metar_trigger": false,
      "taf_trigger": false,
      "metar": "METAR EGKK 240920Z 06015KT 9999 FEW024 04/00 Q1030",
      "taf": "TAF EGKK 240458Z 2406/2512 05017G29KT 9999 SCT025"
    },
    {
      "icao": "EGNM",
      "alert": "OK",
      "vis_m": 9999,
      "fzfg": false,
      "metar_trigger": false,
      "taf_trigger": false,
      "metar": "METAR EGNM 240920Z 07009KT 9999 SCT025 03/01 Q1037",
      "taf": "TAF EGNM 240459Z 2406/2506 07010KT 9999 FEW020 SCT025"
    },
    {
      "icao": "EGPD",
      "alert": "OK",
      "vis_m": 9999,
      "fzfg": false,
      "metar_trigger": false,
      "taf_trigger": false,
      "metar": "METAR EGPD 240920Z COR AUTO 20003KT 170V230 9999 OVC028 06/03 Q1040 NOSIG",
      "taf": "TAF EGPD 240454Z 2406/2506 19005KT 9999 BKN030"
    },
    {
      "icao": "EGPF",
      "alert": "OK",
      "vis_m": 9999,
      "fzfg": false,
      "metar_trigger": false,
      "taf_trigger": false,
      "metar": "METAR EGPF 240920Z AUTO 04004KT 9999 NCD 03/01 Q1039",
      "taf": "TAF EGPF 240454Z 2406/2506 06007KT 9999 SCT030"
    },
    {
      "icao": "EHBK",
      "alert": "OK",
      "vis_m": 9999,
      "fzfg": false,
      "metar_trigger": false,
      "taf_trigger": false,
      "metar": "METAR EHBK 240925Z AUTO 05019KT 020V080 9999 NCD 00/M03 Q1029 NOSIG",
      "taf": "TAF EHBK 240502Z 2406/2512 05014KT CAVOK"
    },
    {
      "icao": "EHEH",
      "alert": "OK",
      "vis_m": 9999,
      "fzfg": false,
      "metar_trigger": false,
      "taf_trigger": false,
      "metar": "METAR EHEH 240925Z AUTO 05012KT 010V080 9999 NCD 01/M03 Q1032 BLU TEMPO SCT012 RMK TREND REMOTE BY EHWX",
      "taf": ""
    },
    {
      "icao": "EKBI",
      "alert": "OK",
      "vis_m": 9999,
      "fzfg": false,
      "metar_trigger": false,
      "taf_trigger": false,
      "metar": "METAR EKBI 240920Z AUTO 05009KT 9999 OVC025/// 01/M04 Q1041",
      "taf": "TAF EKBI 240827Z 2409/2509 05006KT 9999 BKN025"
    },
    {
      "icao": "EKCH",
      "alert": "OK",
      "vis_m": 9999,
      "fzfg": false,
      "metar_trigger": false,
      "taf_trigger": false,
      "metar": "METAR EKCH 240920Z AUTO 05011KT 9999 OVC030/// 00/M05 Q1041 NOSIG",
      "taf": "TAF EKCH 240827Z 2409/2509 04010KT 9999 BKN030"
    },
    {
      "icao": "ENAL",
      "alert": "OK",
      "vis_m": 9999,
      "fzfg": false,
      "metar_trigger": false,
      "taf_trigger": false,
      "metar": "METAR ENAL 240920Z 20011KT 9999 SCT029 BKN035 07/02 Q1039",
      "taf": "TAF ENAL 240800Z 2409/2418 21015KT 9999 BKN030"
    },
    {
      "icao": "ENBR",
      "alert": "OK",
      "vis_m": 9999,
      "fzfg": false,
      "metar_trigger": false,
      "taf_trigger": false,
      "metar": "METAR ENBR 240920Z 06003KT 030V100 9999 BKN033 03/01 Q1042 NOSIG RMK WIND 1200FT 17005KT",
      "taf": "TAF ENBR 240500Z 2406/2506 10005KT 9999 SCT035"
    },
    {
      "icao": "ENGM",
      "alert": "OK",
      "vis_m": 9999,
      "fzfg": false,
      "metar_trigger": false,
      "taf_trigger": false,
      "metar": "METAR ENGM 240920Z VRB02KT CAVOK M09/M10 Q1040 NOSIG",
      "taf": "TAF ENGM 240500Z 2406/2506 VRB03KT 9999 FEW010"
    },
    {
      "icao": "ENHD",
      "alert": "OK",
      "vis_m": 9999,
      "fzfg": false,
      "metar_trigger": false,
      "taf_trigger": false,
      "metar": "METAR ENHD 240920Z 10006KT CAVOK M00/M01 Q1042",
      "taf": "TAF ENHD 240800Z 2409/2418 11007KT 9999 FEW030"
    },
    {
      "icao": "ENTC",
      "alert": "OK",
      "vis_m": 9999,
      "fzfg": false,
      "metar_trigger": false,
      "taf_trigger": false,
      "metar": "METAR ENTC 240920Z 24007KT 210V330 9999 -RA FEW006 SCT019 BKN025 04/02 Q1020 NOSIG RMK WIND 2600FT 27025KT",
      "taf": "TAF ENTC 240500Z 2406/2506 18020KT 9999 SCT030"
    },
    {
      "icao": "ENTO",
      "alert": "OK",
      "vis_m": 9999,
      "fzfg": false,
      "metar_trigger": false,
      "taf_trigger": false,
      "metar": "METAR ENTO 240920Z 32003KT CAVOK M05/M06 Q1041 NOSIG",
      "taf": ""
    },
    {
      "icao": "ENVA",
      "alert": "OK",
      "vis_m": 9999,
      "fzfg": false,
      "metar_trigger": false,
      "taf_trigger": false,
      "metar": "METAR ENVA 240920Z 09005KT 9999 -SN BKN030 M01/M03 Q1038 NOSIG RMK WIND 670FT VRB02KT",
      "taf": "TAF ENVA 240500Z 2406/2506 12008KT 9999 BKN030"
    },
    {
      "icao": "ENZV",
      "alert": "OK",
      "vis_m": 9999,
      "fzfg": false,
      "metar_trigger": false,
      "taf_trigger": false,
      "metar": "METAR ENZV 240920Z 04002KT CAVOK M02/M04 Q1041 NOSIG",
      "taf": "TAF ENZV 240500Z 2406/2506 12005KT 9999 BKN035"
    },
    {
      "icao": "EPGD",
      "alert": "OK",
      "vis_m": 9999,
      "fzfg": false,
      "metar_trigger": false,
      "taf_trigger": false,
      "metar": "METAR EPGD 240930Z 12012KT 9999 SCT024 M04/M10 Q1038",
      "taf": "TAF EPGD 240530Z 2406/2506 10006KT 9999 BKN020"
    },
    {
      "icao": "EPKK",
      "alert": "OK",
      "vis_m": 9999,
      "fzfg": false,
      "metar_trigger": false,
      "taf_trigger": false,
      "metar": "METAR EPKK 240930Z 06014KT 9999 OVC013 M01/M05 Q1029",
      "taf": "TAF EPKK 240830Z 2409/2509 05014KT 9999 OVC015"
    },
    {
      "icao": "EPKT",
      "alert": "OK",
      "vis_m": 9999,
      "fzfg": false,
      "metar_trigger": false,
      "taf_trigger": false,
      "metar": "METAR EPKT 240930Z 06016KT 9999 BKN016 M02/M06 Q1029",
      "taf": "TAF EPKT 240530Z 2406/2506 06014KT 9999 BKN030"
    },
    {
      "icao": "EPLB",
      "alert": "OK",
      "vis_m": 9999,
      "fzfg": false,
      "metar_trigger": false,
      "taf_trigger": false,
      "metar": "METAR EPLB 240930Z 07014KT 9999 SCT015 M09/M11 Q1034",
      "taf": "TAF EPLB 240530Z 2406/2506 06013KT 9999 BKN025"
    },
    {
      "icao": "EPMO",
      "alert": "OK",
      "vis_m": 9999,
      "fzfg": false,
      "metar_trigger": false,
      "taf_trigger": false,
      "metar": "METAR EPMO 240930Z 05011KT 9999 BKN018 M08/M11 Q1037",
      "taf": "TAF EPMO 240530Z 2406/2506 06010KT 9999 BKN020"
    },
    {
      "icao": "EPPO",
      "alert": "OK",
      "vis_m": 9999,
      "fzfg": false,
      "metar_trigger": false,
      "taf_trigger": false,
      "metar": "METAR EPPO 240930Z 08008KT 9999 SCT019 M04/M09 Q1036",
      "taf": "TAF EPPO 240530Z 2406/2506 07010KT 9999 BKN018"
    },
    {
      "icao": "EPRA",
      "alert": "OK",
      "vis_m": 9999,
      "fzfg": false,
      "metar_trigger": false,
      "taf_trigger": false,
      "metar": "METAR EPRA 240930Z 07012KT 9999 SCT011 BKN023 M07/M10 Q1034",
      "taf": "TAF EPRA 240830Z 2409/2418 07012KT 9999 SCT015 BKN025"
    },
    {
      "icao": "EPRZ",
      "alert": "OK",
      "vis_m": 9999,
      "fzfg": false,
      "metar_trigger": false,
      "taf_trigger": false,
      "metar": "METAR EPRZ 240930Z 05014KT 9999 OVC015 M03/M07 Q1030",
      "taf": "TAF EPRZ 240530Z 2406/2506 05015KT 9999 BKN030"
    },
    {
      "icao": "EPSC",
      "alert": "OK",
      "vis_m": 9999,
      "fzfg": false,
      "metar_trigger": false,
      "taf_trigger": false,
      "metar": "METAR EPSC 240930Z 05007KT 010V090 CAVOK M05/M09 Q1037",
      "taf": "TAF EPSC 240530Z 2406/2506 06007KT CAVOK"
    },
    {
      "icao": "EPSY",
      "alert": "OK",
      "vis_m": 9999,
      "fzfg": false,
      "metar_trigger": false,
      "taf_trigger": false,
      "metar": "METAR EPSY 240930Z 08005KT 040V160 9999 BKN016 M07/M11 Q1037",
      "taf": "TAF EPSY 240830Z 2409/2418 07006KT 9999 BKN020"
    },
    {
      "icao": "EPWA",
      "alert": "OK",
      "vis_m": 9999,
      "fzfg": false,
      "metar_trigger": false,
      "taf_trigger": false,
      "metar": "METAR EPWA 240930Z 05008KT 010V080 9999 -SN OVC016 M07/M10 Q1036 NOSIG",
      "taf": "TAF EPWA 240830Z 2409/2509 06010KT 9999 BKN013"
    },
    {
      "icao": "EPWR",
      "alert": "OK",
      "vis_m": 9999,
      "fzfg": false,
      "metar_trigger": false,
      "taf_trigger": false,
      "metar": "METAR EPWR 240930Z 06009KT 030V110 9999 BKN018 OVC021 M02/M06 Q1032",
      "taf": "TAF EPWR 240830Z 2409/2509 07012KT 9999 BKN020"
    },
    {
      "icao": "ESGG",
      "alert": "OK",
      "vis_m": 9999,
      "fzfg": false,
      "metar_trigger": false,
      "taf_trigger": false,
      "metar": "METAR ESGG 240920Z 33005KT 9999 -SN OVC007 M03/M04 Q1040",
      "taf": ""
    },
    {
      "icao": "ESKN",
      "alert": "OK",
      "vis_m": 9999,
      "fzfg": false,
      "metar_trigger": false,
      "taf_trigger": false,
      "metar": "METAR ESKN 240920Z 29008KT 260V320 9999 BKN006 M03/M04 Q1038",
      "taf": "TAF ESKN 240830Z 2409/2509 30010KT 9999 BKN006"
    },
    {
      "icao": "ESMS",
      "alert": "OK",
      "vis_m": 9999,
      "fzfg": false,
      "metar_trigger": false,
      "taf_trigger": false,
      "metar": "METAR ESMS 240920Z 02006KT 9999 BKN030 M01/M05 Q1040",
      "taf": "TAF ESMS 240827Z 2409/2509 03008KT 9999 BKN025"
    },
    {
      "icao": "ESSA",
      "alert": "OK",
      "vis_m": 9999,
      "fzfg": false,
      "metar_trigger": false,
      "taf_trigger": false,
      "metar": "METAR ESSA 240920Z 25007KT CAVOK M04/M06 Q1036 NOSIG",
      "taf": "TAF ESSA 240830Z 2409/2509 27008KT CAVOK"
    },
    {
      "icao": "EYKA",
      "alert": "OK",
      "vis_m": 9999,
      "fzfg": false,
      "metar_trigger": false,
      "taf_trigger": false,
      "metar": "METAR EYKA 240920Z VRB02KT 9999 OVC040 M06/M09 Q1038",
      "taf": ""
    },
    {
      "icao": "EYPA",
      "alert": "OK",
      "vis_m": 9999,
      "fzfg": false,
      "metar_trigger": false,
      "taf_trigger": false,
      "metar": "METAR EYPA 240920Z 19005KT 9999 OVC040 M03/M06 Q1039",
      "taf": "TAF EYPA 240500Z 2406/2506 VRB04KT 8000 BKN035"
    },
    {
      "icao": "EYVI",
      "alert": "OK",
      "vis_m": 9999,
      "fzfg": false,
      "metar_trigger": false,
      "taf_trigger": false,
      "metar": "METAR EYVI 240920Z VRB01KT CAVOK M08/M12 Q1037 NOSIG",
      "taf": "TAF EYVI 240500Z 2406/2506 36006KT 7000 NSC"
    },
    {
      "icao": "GCFV",
      "alert": "OK",
      "vis_m": 9999,
      "fzfg": false,
      "metar_trigger": false,
      "taf_trigger": false,
      "metar": "METAR GCFV 240930Z VRB06KT 9999 SCT040 18/12 Q1016",
      "taf": "TAF GCFV 240800Z 2409/2509 30005KT 9999 SCT040 TX21/2414Z TN15/2506Z"
    },
    {
      "icao": "GCLP",
      "alert": "OK",
      "vis_m": 9999,
      "fzfg": false,
      "metar_trigger": false,
      "taf_trigger": false,
      "metar": "METAR GCLP 240930Z VRB02KT 9999 FEW035 BKN055 18/11 Q1017 NOSIG",
      "taf": "TAF GCLP 240800Z 2409/2509 31008KT 9999 SCT030 TX22/2414Z TN16/2506Z"
    },
    {
      "icao": "GCTS",
      "alert": "OK",
      "vis_m": 9999,
      "fzfg": false,
      "metar_trigger": false,
      "taf_trigger": false,
      "metar": "METAR GCTS 240930Z 01003KT 290V060 9999 FEW040 19/10 Q1018 NOSIG",
      "taf": "TAF GCTS 240800Z 2409/2509 VRB05KT 9999 FEW040 TX24/2414Z TN15/2506Z"
    },
    {
      "icao": "GMAD",
      "alert": "OK",
      "vis_m": 4000,
      "fzfg": false,
      "metar_trigger": false,
      "taf_trigger": false,
      "metar": "METAR GMAD 240930Z 07006KT 4000 R27/1700N RA FEW010 SCT020 BKN033 12/12 Q1014 NOSIG",
      "taf": "TAF GMAD 240500Z 2406/2512 20006KT 8000 SCT016 SCT080"
    },
    {
      "icao": "GMMN",
      "alert": "OK",
      "vis_m": 9999,
      "fzfg": false,
      "metar_trigger": false,
      "taf_trigger": false,
      "metar": "METAR GMMN 240930Z 21007KT 9999 BKN020 13/13 Q1010 NOSIG",
      "taf": "TAF GMMN 240500Z 2406/2512 24012KT 8000 SCT006 BKN020"
    },
    {
      "icao": "GMMX",
      "alert": "OK",
      "vis_m": 1500,
      "fzfg": false,
      "metar_trigger": false,
      "taf_trigger": false,
      "metar": "METAR GMMX 240930Z 21008KT 1500 RA SCT016 BKN020 12/11 Q1012 NOSIG",
      "taf": "TAF GMMX 240500Z 2406/2512 20006KT 8000 SCT020 BKN090"
    },
    {
      "icao": "HEGN",
      "alert": "OK",
      "vis_m": 9999,
      "fzfg": false,
      "metar_trigger": false,
      "taf_trigger": false,
      "metar": "METAR HEGN 240900Z 31008KT CAVOK 21/07 Q1019 NOSIG",
      "taf": "TAF HEGN 240500Z 2406/2512 34012KT CAVOK"
    },
    {
      "icao": "HEMA",
      "alert": "OK",
      "vis_m": 9999,
      "fzfg": false,
      "metar_trigger": false,
      "taf_trigger": false,
      "metar": "METAR HEMA 240900Z 34015KT 9999 SCT025 23/13 Q1017",
      "taf": "TAF HEMA 240500Z 2406/2512 35012KT 9999 SCT25"
    },
    {
      "icao": "HESH",
      "alert": "OK",
      "vis_m": 9999,
      "fzfg": false,
      "metar_trigger": false,
      "taf_trigger": false,
      "metar": "METAR HESH 240900Z 01010KT CAVOK 22/05 Q1018 NOSIG",
      "taf": "TAF HESH 240500Z 2406/2512 01012KT CAVOK"
    },
    {
      "icao": "HESX",
      "alert": "OK",
      "vis_m": 9999,
      "fzfg": false,
      "metar_trigger": false,
      "taf_trigger": false,
      "metar": "METAR HESX 240900Z 13003KT CAVOK 17/06 Q1020 NOSIG",
      "taf": "TAF HESX 240500Z 2406/2512 20007KT CAVOK"
    },
    {
      "icao": "LATI",
      "alert": "OK",
      "vis_m": 9999,
      "fzfg": false,
      "metar_trigger": false,
      "taf_trigger": false,
      "metar": "METAR LATI 240920Z 15003KT 120V180 9999 FEW045 SCT180 14/07 Q1013 NOSIG",
      "taf": "TAF LATI 240500Z 2406/2506 VRB04KT 9999 SCT040 BKN080 TX14/2412Z TN06/2505Z"
    },
    {
      "icao": "LBPD",
      "alert": "OK",
      "vis_m": 1300,
      "fzfg": false,
      "metar_trigger": false,
      "taf_trigger": false,
      "metar": "METAR LBPD 240930Z AUTO 09006KT 1300 1200E R30/1600U BR OVC002/// 05/05 Q1020 TEMPO 2000 BR OVC003",
      "taf": ""
    },
    {
      "icao": "LBSF",
      "alert": "OK",
      "vis_m": 8000,
      "fzfg": false,
      "metar_trigger": false,
      "taf_trigger": false,
      "metar": "METAR LBSF 240930Z 11016KT 8000 -RA SCT014 BKN018 OVC032 04/02 Q1018 NOSIG",
      "taf": "TAF LBSF 240500Z 2406/2506 10014KT 9999 SCT012 OVC033"
    },
    {
      "icao": "LBWN",
      "alert": "OK",
      "vis_m": 9999,
      "fzfg": false,
      "metar_trigger": false,
      "taf_trigger": false,
      "metar": "METAR LBWN 240930Z AUTO 12005KT 9999 OVC030/// 09/06 Q1022 NOSIG",
      "taf": "TAF LBWN 240500Z 2406/2506 VRB04KT 7000 SCT005 BKN015"
    },
    {
      "icao": "LCLK",
      "alert": "OK",
      "vis_m": 9999,
      "fzfg": false,
      "metar_trigger": false,
      "taf_trigger": false,
      "metar": "METAR LCLK 240930Z 08012KT 9999 VCSH FEW028TCU BKN060 19/14 Q1019 NOSIG",
      "taf": "TAF LCLK 240530Z 2406/2506 34008KT 9999 FEW025 SCT040"
    },
    {
      "icao": "LCPH",
      "alert": "OK",
      "vis_m": 9999,
      "fzfg": false,
      "metar_trigger": false,
      "taf_trigger": false,
      "metar": "METAR LCPH 240930Z 16010KT 9999 FEW030 21/13 Q1019 NOSIG",
      "taf": "TAF LCPH 240530Z 2406/2506 06007KT 9999 FEW030 SCT045"
    },
    {
      "icao": "LEAL",
      "alert": "OK",
      "vis_m": 9999,
      "fzfg": false,
      "metar_trigger": false,
      "taf_trigger": false,
      "metar": "METAR LEAL 240930Z 28009KT CAVOK 12/04 Q1009 NOSIG",
      "taf": "TAF LEAL 240500Z 2406/2506 32009KT 9999 FEW030 TX15/2412Z TN05/2506Z"
    },
    {
      "icao": "LEBB",
      "alert": "OK",
      "vis_m": 6000,
      "fzfg": false,
      "metar_trigger": false,
      "taf_trigger": false,
      "metar": "METAR LEBB 240930Z 36007KT 6000 -RA SCT011 BKN024 OVC033 10/10 Q1014 NOSIG",
      "taf": "TAF LEBB 240500Z 2406/2506 VRB03KT 9999 SCT016 TX10/2413Z TN06/2424Z"
    },
    {
      "icao": "LEBL",
      "alert": "OK",
      "vis_m": 9999,
      "fzfg": false,
      "metar_trigger": false,
      "taf_trigger": false,
      "metar": "METAR LEBL 240930Z 32011KT 260V010 9999 FEW050 10/05 Q1007 NOSIG",
      "taf": "TAF LEBL 240500Z 2406/2506 34008KT 9999 SCT030 TX14/2413Z TN08/2406Z"
    },
    {
      "icao": "LECH",
      "alert": "OK",
      "vis_m": 9999,
      "fzfg": false,
      "metar_trigger": false,
      "taf_trigger": false,
      "metar": "METAR LECH 240930Z AUTO 19004KT CAVOK 08/04 Q1009",
      "taf": ""
    },
    {
      "icao": "LEMD",
      "alert": "OK",
      "vis_m": 9999,
      "fzfg": false,
      "metar_trigger": false,
      "taf_trigger": false,
      "metar": "METAR LEMD 240930Z 35005KT 300V040 9999 FEW047 06/02 Q1010 NOSIG",
      "taf": ""
    },
    {
      "icao": "LEMG",
      "alert": "OK",
      "vis_m": 9999,
      "fzfg": false,
      "metar_trigger": false,
      "taf_trigger": false,
      "metar": "METAR LEMG 240930Z 30007KT 9999 FEW025 09/09 Q1007 NOSIG",
      "taf": "TAF LEMG 240500Z 2406/2506 28006KT 9999 FEW045 TX14/2414Z TN07/2406Z"
    },
    {
      "icao": "LEVC",
      "alert": "OK",
      "vis_m": 9999,
      "fzfg": false,
      "metar_trigger": false,
      "taf_trigger": false,
      "metar": "METAR LEVC 240930Z 30009KT 9999 FEW030 10/04 Q1009 NOSIG",
      "taf": "TAF LEVC 240500Z 2406/2506 27007KT 9999 FEW020 TX13/2412Z TN04/2506Z"
    },
    {
      "icao": "LEXJ",
      "alert": "OK",
      "vis_m": 3800,
      "fzfg": false,
      "metar_trigger": false,
      "taf_trigger": false,
      "metar": "METAR LEXJ 240930Z 10001KT 3800 RA BR BKN006 BKN014 OVC037 10/09 Q1014",
      "taf": "TAF LEXJ 240800Z 2409/2509 03009KT 9999 SCT015 BKN025 TX11/2415Z TN04/2507Z"
    },
    {
      "icao": "LEZG",
      "alert": "OK",
      "vis_m": 9999,
      "fzfg": false,
      "metar_trigger": false,
      "taf_trigger": false,
      "metar": "METAR LEZG 240930Z 30006KT CAVOK 07/05 Q1010 NOSIG",
      "taf": ""
    },
    {
      "icao": "LEZL",
      "alert": "OK",
      "vis_m": 8000,
      "fzfg": false,
      "metar_trigger": false,
      "taf_trigger": false,
      "metar": "METAR LEZL 240930Z 03004KT 360V060 8000 OVC005 10/10 Q1008 NOSIG",
      "taf": "TAF LEZL 240800Z 2409/2509 04005KT 9999 FEW040 TX14/2415Z TN06/2507Z"
    },
    {
      "icao": "LFBD",
      "alert": "OK",
      "vis_m": 9999,
      "fzfg": false,
      "metar_trigger": false,
      "taf_trigger": false,
      "metar": "METAR LFBD 240930Z AUTO 04015KT 9999 OVC017 05/01 Q1014 NOSIG",
      "taf": "TAF LFBD 240500Z 2406/2512 03010KT 9999 BKN010 TX07/2414Z TNM02/2506Z"
    },
    {
      "icao": "LFLL",
      "alert": "OK",
      "vis_m": 9000,
      "fzfg": false,
      "metar_trigger": false,
      "taf_trigger": false,
      "metar": "METAR LFLL 240930Z AUTO 35008KT 9000 SCT014 OVC023 03/02 Q1012",
      "taf": "TAF LFLL 240500Z 2406/2512 35009KT 9999 OVC009"
    },
    {
      "icao": "LFLS",
      "alert": "OK",
      "vis_m": 9999,
      "fzfg": false,
      "metar_trigger": false,
      "taf_trigger": false,
      "metar": "METAR LFLS 240930Z AUTO 36004KT 330V030 9999 BKN017 OVC022 02/01 Q1011",
      "taf": "TAF LFLS 240200Z 2403/2503 36008KT 9999 SCT006 OVC020"
    },
    {
      "icao": "LFMN",
      "alert": "OK",
      "vis_m": 9999,
      "fzfg": false,
      "metar_trigger": false,
      "taf_trigger": false,
      "metar": "METAR LFMN 240930Z 33012KT 9999 FEW066 BKN086 11/06 Q1003 NOSIG",
      "taf": "TAF LFMN 240800Z 2409/2515 34012KT 9999 SCT080"
    },
    {
      "icao": "LFOB",
      "alert": "OK",
      "vis_m": 9999,
      "fzfg": false,
      "metar_trigger": false,
      "taf_trigger": false,
      "metar": "METAR LFOB 240930Z AUTO 05017KT 9999 OVC019 03/M00 Q1026 BECMG 05018G30KT",
      "taf": "TAF LFOB 240500Z 2406/2506 05010G20KT 9999 OVC025"
    },
    {
      "icao": "LFPO",
      "alert": "OK",
      "vis_m": 9999,
      "fzfg": false,
      "metar_trigger": false,
      "taf_trigger": false,
      "metar": "METAR LFPO 240930Z AUTO 06020KT 9999 OVC029 05/M01 Q1023 BECMG 04010G20KT",
      "taf": "TAF LFPO 240500Z 2406/2512 04010G20KT 9999 OVC030"
    },
    {
      "icao": "LFSB",
      "alert": "OK",
      "vis_m": 9999,
      "fzfg": false,
      "metar_trigger": false,
      "taf_trigger": false,
      "metar": "METAR LFSB 240930Z AUTO 36016KT 9999 FEW010 OVC042 02/01 Q1016 TEMPO 01015G25KT",
      "taf": "TAF LFSB 240500Z 2406/2506 36006KT 9999 OVC035"
    },
    {
      "icao": "LGAV",
      "alert": "OK",
      "vis_m": 9999,
      "fzfg": false,
      "metar_trigger": false,
      "taf_trigger": false,
      "metar": "METAR LGAV 240920Z VRB02KT 9999 FEW018 BKN030 14/09 Q1017 NOSIG",
      "taf": "TAF LGAV 240500Z 2406/2506 VRB05KT 9999 FEW018 SCT030 BKN070"
    },
    {
      "icao": "LGTS",
      "alert": "OK",
      "vis_m": 3000,
      "fzfg": false,
      "metar_trigger": false,
      "taf_trigger": false,
      "metar": "METAR LGTS 240920Z VRB03KT 3000 1500SE RA BR SCT006 BKN020 11/11 Q1016 NOSIG",
      "taf": "TAF LGTS 240500Z 2406/2506 14010KT 9000 FEW012 BKN025"
    },
    {
      "icao": "LHBP",
      "alert": "OK",
      "vis_m": 9999,
      "fzfg": false,
      "metar_trigger": false,
      "taf_trigger": false,
      "metar": "METAR LHBP 240930Z 03006KT 340V100 CAVOK 04/M02 Q1021 NOSIG",
      "taf": "TAF LHBP 240515Z 2406/2506 06009KT 9999 SCT025 OVC055"
    },
    {
      "icao": "LHDC",
      "alert": "OK",
      "vis_m": 9999,
      "fzfg": false,
      "metar_trigger": false,
      "taf_trigger": false,
      "metar": "METAR LHDC 240915Z AUTO 04018KT 010V070 CAVOK 05/M00 Q1020 NOSIG",
      "taf": "TAF LHDC 240815Z 2409/2418 04016G26KT CAVOK"
    },
    {
      "icao": "LIBD",
      "alert": "OK",
      "vis_m": 9999,
      "fzfg": false,
      "metar_trigger": false,
      "taf_trigger": false,
      "metar": "METAR LIBD 240920Z 17004KT 140V200 CAVOK 13/07 Q1010",
      "taf": "TAF LIBD 240500Z 2406/2506 16008KT 9999 SCT060"
    },
    {
      "icao": "LIBG",
      "alert": "OK",
      "vis_m": 9999,
      "fzfg": false,
      "metar_trigger": false,
      "taf_trigger": false,
      "metar": "METAR LIBG 240850Z VRB02KT 9999 FEW025 14/13 Q1011",
      "taf": "TAF LIBG 240800Z 2409/2418 17015KT 9999 SCT025"
    },
    {
      "icao": "LIBP",
      "alert": "OK",
      "vis_m": 9999,
      "fzfg": false,
      "metar_trigger": false,
      "taf_trigger": false,
      "metar": "METAR LIBP 240920Z AUTO 21003KT 190V250 9999 NCD 11/09 Q1005",
      "taf": ""
    },
    {
      "icao": "LIBR",
      "alert": "OK",
      "vis_m": 9999,
      "fzfg": false,
      "metar_trigger": false,
      "taf_trigger": false,
      "metar": "METAR LIBR 240920Z 16007KT CAVOK 14/09 Q1011",
      "taf": "TAF LIBR 240500Z 2406/2506 15010KT 9999 SCT060"
    },
    {
      "icao": "LICA",
      "alert": "OK",
      "vis_m": 9999,
      "fzfg": false,
      "metar_trigger": false,
      "taf_trigger": false,
      "metar": "METAR LICA 240920Z AUTO 09007KT 9999 NCD 14/08 Q1012",
      "taf": "TAF LICA 240500Z 2406/2506 08012KT 9999 SCT040"
    },
    {
      "icao": "LICC",
      "alert": "OK",
      "vis_m": 9999,
      "fzfg": false,
      "metar_trigger": false,
      "taf_trigger": false,
      "metar": "METAR LICC 240920Z 23005KT CAVOK 12/11 Q1012",
      "taf": "TAF LICC 240500Z 2406/2506 25010KT 9999 SCT030"
    },
    {
      "icao": "LICJ",
      "alert": "OK",
      "vis_m": 9999,
      "fzfg": false,
      "metar_trigger": false,
      "taf_trigger": false,
      "metar": "METAR LICJ 240920Z 17009KT 9999 FEW035 14/07 Q1009",
      "taf": ""
    },
    {
      "icao": "LIMC",
      "alert": "OK",
      "vis_m": 8000,
      "fzfg": false,
      "metar_trigger": false,
      "taf_trigger": false,
      "metar": "METAR LIMC 240920Z 13006KT 8000 SCT010 BKN030 07/06 Q1009 TEMPO RA",
      "taf": "TAF LIMC 240500Z 2406/2512 VRB05KT 6000 BKN050"
    },
    {
      "icao": "LIME",
      "alert": "OK",
      "vis_m": 9999,
      "fzfg": false,
      "metar_trigger": false,
      "taf_trigger": false,
      "metar": "METAR LIME 240920Z 18003KT 140V230 9999 FEW010 BKN035 08/06 Q1009 NOSIG",
      "taf": "TAF LIME 240500Z 2406/2506 VRB05KT 7000 SCT060"
    },
    {
      "icao": "LIMF",
      "alert": "OK",
      "vis_m": 9999,
      "fzfg": false,
      "metar_trigger": false,
      "taf_trigger": false,
      "metar": "METAR LIMF 240920Z VRB01KT 9999 4500S VCFG SCT030 BKN070 08/06 Q1007",
      "taf": "TAF LIMF 240500Z 2406/2506 VRB05KT 6000 BKN040"
    },
    {
      "icao": "LIMJ",
      "alert": "OK",
      "vis_m": 9999,
      "fzfg": false,
      "metar_trigger": false,
      "taf_trigger": false,
      "metar": "METAR LIMJ 240920Z 06011KT 9999 FEW025 SCT050 12/06 Q1005",
      "taf": "TAF LIMJ 240500Z 2406/2506 03015KT 9999 BKN070"
    },
    {
      "icao": "LIPE",
      "alert": "OK",
      "vis_m": 4000,
      "fzfg": false,
      "metar_trigger": false,
      "taf_trigger": false,
      "metar": "METAR LIPE 240920Z 04004KT 330V100 4000 RA BR BKN004 08/08 Q1008",
      "taf": "TAF LIPE 240500Z 2406/2506 VRB05KT 4000 RA BR BKN010"
    },
    {
      "icao": "LIPH",
      "alert": "OK",
      "vis_m": 9999,
      "fzfg": false,
      "metar_trigger": false,
      "taf_trigger": false,
      "metar": "METAR LIPH 240920Z 07019KT 9999 -RA BKN035 07/04 Q1011",
      "taf": ""
    },
    {
      "icao": "LIPQ",
      "alert": "OK",
      "vis_m": 9999,
      "fzfg": false,
      "metar_trigger": false,
      "taf_trigger": false,
      "metar": "METAR LIPQ 240920Z AUTO 08022G35KT 9999 -RA OVC052/// 08/01 Q1012",
      "taf": ""
    },
    {
      "icao": "LIPR",
      "alert": "OK",
      "vis_m": 8000,
      "fzfg": false,
      "metar_trigger": false,
      "taf_trigger": false,
      "metar": "METAR LIPR 240920Z 09015KT 060V120 8000 -RA BKN010 11/10 Q1006",
      "taf": "TAF LIPR 240500Z 2406/2506 06010KT 4000 -RA BR BKN010"
    },
    {
      "icao": "LIPX",
      "alert": "OK",
      "vis_m": 9999,
      "fzfg": false,
      "metar_trigger": false,
      "taf_trigger": false,
      "metar": "METAR LIPX 240920Z 07011KT 9999 -RA OVC050 08/05 Q1009",
      "taf": "TAF LIPX 240500Z 2406/2506 VRB05KT 7000 BKN050"
    },
    {
      "icao": "LIPY",
      "alert": "OK",
      "vis_m": 9999,
      "fzfg": false,
      "metar_trigger": false,
      "taf_trigger": false,
      "metar": "METAR LIPY 240920Z AUTO 14004KT 090V190 9999 NCD 14/10 Q1005",
      "taf": "TAF LIPY 240500Z 2406/2506 VRB05KT 8000 SCT020"
    },
    {
      "icao": "LIPZ",
      "alert": "OK",
      "vis_m": 9999,
      "fzfg": false,
      "metar_trigger": false,
      "taf_trigger": false,
      "metar": "METAR LIPZ 240920Z 06023KT 9999 -RA BKN035 07/04 Q1011 NOSIG",
      "taf": "TAF LIPZ 240500Z 2406/2512 05013KT 9999 SCT040"
    },
    {
      "icao": "LIRF",
      "alert": "OK",
      "vis_m": 9000,
      "fzfg": false,
      "metar_trigger": false,
      "taf_trigger": false,
      "metar": "METAR LIRF 240920Z 11009KT 100V160 9000 -RA SCT020 SCT035 11/10 Q1004 RERA NOSIG",
      "taf": "TAF LIRF 240500Z 2406/2512 10018KT 9999 BKN030"
    },
    {
      "icao": "LIRN",
      "alert": "OK",
      "vis_m": 9999,
      "fzfg": false,
      "metar_trigger": false,
      "taf_trigger": false,
      "metar": "METAR LIRN 240920Z 18009KT 140V220 9999 -RA BKN040 13/05 Q1008 RETS NOSIG",
      "taf": ""
    },
    {
      "icao": "LIRP",
      "alert": "OK",
      "vis_m": 9999,
      "fzfg": false,
      "metar_trigger": false,
      "taf_trigger": false,
      "metar": "METAR LIRP 240915Z 06006KT 9999 FEW030 BKN040 11/10 Q1003 NOSIG",
      "taf": "TAF LIRP 240500Z 2406/2506 11003KT 7000 -RA SCT030 BKN060"
    },
    {
      "icao": "LIRZ",
      "alert": "OK",
      "vis_m": 9999,
      "fzfg": false,
      "metar_trigger": false,
      "taf_trigger": false,
      "metar": "METAR LIRZ 240920Z AUTO 33003KT 9999 FEW005/// BKN055/// 10/09 Q1005",
      "taf": "TAF LIRZ 240500Z 2406/2506 VRB05KT 9999 BKN050"
    },
    {
      "icao": "LJLJ",
      "alert": "OK",
      "vis_m": 9999,
      "fzfg": false,
      "metar_trigger": false,
      "taf_trigger": false,
      "metar": "METAR LJLJ 240930Z 30005KT 9999 -RASN FEW004 BKN015 OVC030 01/00 Q1016 NOSIG",
      "taf": "TAF LJLJ 240500Z 2406/2506 VRB02KT 9999 SCT006 BKN020"
    },
    {
      "icao": "LKMT",
      "alert": "OK",
      "vis_m": 9999,
      "fzfg": false,
      "metar_trigger": false,
      "taf_trigger": false,
      "metar": "METAR LKMT 240930Z 05020KT 9999 FEW018 OVC042 M00/M03 Q1027 NOSIG",
      "taf": "TAF LKMT 240500Z 2406/2506 04016KT 9999 BKN025"
    },
    {
      "icao": "LKPR",
      "alert": "OK",
      "vis_m": 9999,
      "fzfg": false,
      "metar_trigger": false,
      "taf_trigger": false,
      "metar": "METAR LKPR 240930Z 06017KT 9999 FEW015 BKN048 M00/M05 Q1026 NOSIG",
      "taf": "TAF LKPR 240800Z 2409/2515 04015KT 9999 BKN045"
    },
    {
      "icao": "LLBG",
      "alert": "OK",
      "vis_m": 9999,
      "fzfg": false,
      "metar_trigger": false,
      "taf_trigger": false,
      "metar": "METAR LLBG 240920Z VRB02KT 9999 FEW035 21/11 Q1019 NOSIG",
      "taf": "TAF LLBG 240502Z 2406/2506 14006KT 9999 SCT035"
    },
    {
      "icao": "LMML",
      "alert": "OK",
      "vis_m": 9999,
      "fzfg": false,
      "metar_trigger": false,
      "taf_trigger": false,
      "metar": "METAR LMML 240915Z 23012KT 9999 VCSH FEW035 15/08 Q1012 NOSIG",
      "taf": "TAF LMML 240500Z 2406/2506 23015KT 9999 FEW030"
    },
    {
      "icao": "LOWW",
      "alert": "OK",
      "vis_m": 3000,
      "fzfg": false,
      "metar_trigger": false,
      "taf_trigger": false,
      "metar": "METAR LOWW 240920Z 02007KT 3000 -SN BR FEW002 BKN003 00/M01 Q1023 TEMPO 2500 SN",
      "taf": "TAF LOWW 240815Z 2409/2515 01007KT 4000 -SN OVC003 TX01/2413Z TNM02/2507Z"
    },
    {
      "icao": "LPFR",
      "alert": "OK",
      "vis_m": 9999,
      "fzfg": false,
      "metar_trigger": false,
      "taf_trigger": false,
      "metar": "METAR LPFR 240930Z 31005KT 9999 FEW030 10/07 Q1009",
      "taf": "TAF LPFR 240500Z 2406/2506 31007KT CAVOK"
    },
    {
      "icao": "LPMA",
      "alert": "OK",
      "vis_m": 9999,
      "fzfg": false,
      "metar_trigger": false,
      "taf_trigger": false,
      "metar": "METAR LPMA 240930Z 35011KT 320V020 9999 SCT015 16/11 Q1015",
      "taf": "TAF LPMA 240500Z 2406/2506 33007KT 9999 SCT015"
    },
    {
      "icao": "LPPR",
      "alert": "OK",
      "vis_m": 9999,
      "fzfg": false,
      "metar_trigger": false,
      "taf_trigger": false,
      "metar": "METAR LPPR 240930Z VRB02KT CAVOK 08/05 Q1012",
      "taf": "TAF LPPR 240500Z 2406/2506 08005KT 9999 FEW030"
    },
    {
      "icao": "LPPS",
      "alert": "OK",
      "vis_m": 9999,
      "fzfg": false,
      "metar_trigger": false,
      "taf_trigger": false,
      "metar": "METAR LPPS 240930Z 34019KT 9999 FEW014 SCT030 15/12 Q1015",
      "taf": "TAF LPPS 240500Z 2406/2512 34015KT 9999 SCT015 SCT030"
    },
    {
      "icao": "LPPT",
      "alert": "OK",
      "vis_m": 9999,
      "fzfg": false,
      "metar_trigger": false,
      "taf_trigger": false,
      "metar": "METAR LPPT 240930Z 06003KT 010V090 9999 FEW018 FEW020TCU 09/08 Q1010",
      "taf": "TAF LPPT 240500Z 2406/2512 33007KT 9999 FEW025"
    },
    {
      "icao": "LQBK",
      "alert": "OK",
      "vis_m": 7000,
      "fzfg": false,
      "metar_trigger": false,
      "taf_trigger": false,
      "metar": "METAR LQBK 240930Z 07006KT 020V110 7000 RA BKN010 OVC023 03/02 Q1016 NOSIG",
      "taf": "TAF LQBK 240500Z 2406/2506 02005KT 4000 -RA BR BKN010 OVC025 TX04/2406Z TN01/2506Z"
    },
    {
      "icao": "LQSA",
      "alert": "OK",
      "vis_m": 4500,
      "fzfg": false,
      "metar_trigger": false,
      "taf_trigger": false,
      "metar": "METAR LQSA 240930Z 00000KT 4500 -DZ BR FEW005 BKN012 BKN025 03/02 Q1013 NOSIG",
      "taf": ""
    },
    {
      "icao": "LQTZ",
      "alert": "OK",
      "vis_m": 9999,
      "fzfg": false,
      "metar_trigger": false,
      "taf_trigger": false,
      "metar": "METAR LQTZ 240930Z 10006KT 9999 -RA FEW007 SCT019 BKN023 04/04 Q1015",
      "taf": ""
    },
    {
      "icao": "LRBC",
      "alert": "OK",
      "vis_m": 6000,
      "fzfg": false,
      "metar_trigger": false,
      "taf_trigger": false,
      "metar": "METAR LRBC 240930Z 30002KT 6000 -SN SCT006 OVC012 01/00 Q1028",
      "taf": "TAF LRBC 240800Z 2409/2418 VRB04KT 5000 -SN SCT010 OVC020"
    },
    {
      "icao": "LRBS",
      "alert": "OK",
      "vis_m": 5000,
      "fzfg": false,
      "metar_trigger": false,
      "taf_trigger": false,
      "metar": "METAR LRBS 240930Z 05014KT 360V070 5000 -RA BR OVC003 03/03 Q1023 NOSIG",
      "taf": ""
    },
    {
      "icao": "LRBV",
      "alert": "OK",
      "vis_m": 9999,
      "fzfg": false,
      "metar_trigger": false,
      "taf_trigger": false,
      "metar": "METAR LRBV 240930Z 11005KT 040V160 9999 FEW019 02/01 Q1021",
      "taf": "TAF LRBV 240800Z 2409/2418 VRB04KT 9999 SCT045"
    },
    {
      "icao": "LRCL",
      "alert": "OK",
      "vis_m": 9999,
      "fzfg": false,
      "metar_trigger": false,
      "taf_trigger": false,
      "metar": "METAR LRCL 240930Z 05005KT 9999 SCT034 OVC055 01/M00 Q1022",
      "taf": "TAF LRCL 240800Z 2409/2418 08007KT 9999 SCT010 BKN050"
    },
    {
      "icao": "LRCV",
      "alert": "OK",
      "vis_m": 6000,
      "fzfg": false,
      "metar_trigger": false,
      "taf_trigger": false,
      "metar": "METAR LRCV 240930Z 07015KT 6000 -RA BKN003 OVC010 04/03 Q1021",
      "taf": "TAF LRCV 240800Z 2409/2418 08017KT 5000 -RA BR BKN005 OVC020"
    },
    {
      "icao": "LRIA",
      "alert": "OK",
      "vis_m": 9000,
      "fzfg": false,
      "metar_trigger": false,
      "taf_trigger": false,
      "metar": "METAR LRIA 240930Z 09004KT 9000 -SN BKN005 OVC032 00/M00 Q1029",
      "taf": "TAF LRIA 240800Z 2409/2418 08009KT 5000 -SN SCT005 OVC020"
    },
    {
      "icao": "LROP",
      "alert": "OK",
      "vis_m": 6000,
      "fzfg": false,
      "metar_trigger": false,
      "taf_trigger": false,
      "metar": "METAR LROP 240930Z 06018KT 6000 -RA OVC004 03/03 Q1023 NOSIG",
      "taf": ""
    },
    {
      "icao": "LRSB",
      "alert": "OK",
      "vis_m": 3000,
      "fzfg": false,
      "metar_trigger": false,
      "taf_trigger": false,
      "metar": "METAR LRSB 240930Z VRB01KT 3000 -SN BR OVC004 00/00 Q1020",
      "taf": ""
    },
    {
      "icao": "LRSM",
      "alert": "OK",
      "vis_m": 9999,
      "fzfg": false,
      "metar_trigger": false,
      "taf_trigger": false,
      "metar": "METAR LRSM 240930Z 07007KT CAVOK 04/01 Q1022",
      "taf": "TAF LRSM 240800Z 2409/2418 06005KT CAVOK"
    },
    {
      "icao": "LRSV",
      "alert": "OK",
      "vis_m": 1000,
      "fzfg": true,
      "metar_trigger": false,
      "taf_trigger": false,
      "metar": "METAR LRSV 240930Z 08011KT 1000 R34/P2000 -SN BR OVC002 M02/M02 Q1027",
      "taf": "TAF LRSV 240800Z 2409/2418 07011KT 0600 -SN FZFG OVC001"
    },
    {
      "icao": "LRTM",
      "alert": "OK",
      "vis_m": 5000,
      "fzfg": false,
      "metar_trigger": false,
      "taf_trigger": false,
      "metar": "METAR LRTM 240930Z VRB01KT 5000 -SN BR SCT003 BKN008 OVC030 01/M00 Q1022",
      "taf": "TAF LRTM 240800Z 2409/2418 08006KT 7000 BKN005 BKN045"
    },
    {
      "icao": "LRTR",
      "alert": "OK",
      "vis_m": 9999,
      "fzfg": false,
      "metar_trigger": false,
      "taf_trigger": false,
      "metar": "METAR LRTR 240930Z 08008KT 9999 OVC045 04/01 Q1018 NOSIG",
      "taf": "TAF LRTR 240500Z 2406/2506 08006KT 9999 BKN040"
    },
    {
      "icao": "LTAC",
      "alert": "OK",
      "vis_m": 7000,
      "fzfg": false,
      "metar_trigger": false,
      "taf_trigger": false,
      "metar": "METAR LTAC 240920Z 16004KT 050V200 7000 FEW010 SCT040 07/04 Q1021 NOSIG RMK RWY21C VRB01KT RWY03L 16003KT 100V230 RWY21R VRB02KT RWY03R VRB01KT RWY21L VRB02KT",
      "taf": "TAF LTAC 240440Z 2406/2506 VRB02KT 4000 BR FEW020 BKN035"
    },
    {
      "icao": "LTFM",
      "alert": "OK",
      "vis_m": 9999,
      "fzfg": false,
      "metar_trigger": false,
      "taf_trigger": false,
      "metar": "METAR LTFM 240920Z 08008KT 9999 SCT013 BKN032 12/09 Q1020 NOSIG RMK RWY17L 10008KT RWY34L 08007KT 050V110 RWY16R 09008KT RWY36 08007KT 040V100 RWY18 10007KT",
      "taf": "TAF LTFM 240440Z 2406/2512 02007KT 9999 SCT014 BKN025"
    },
    {
      "icao": "LUKK",
      "alert": "OK",
      "vis_m": 9999,
      "fzfg": false,
      "metar_trigger": false,
      "taf_trigger": false,
      "metar": "METAR LUKK 240930Z 08013KT 9999 OVC013 01/M02 Q1029 NOSIG",
      "taf": "TAF LUKK 240516Z 2406/2506 07010KT 9999 BKN030"
    },
    {
      "icao": "LWOH",
      "alert": "OK",
      "vis_m": 9999,
      "fzfg": false,
      "metar_trigger": false,
      "taf_trigger": false,
      "metar": "METAR LWOH 240920Z 17007KT 140V200 9999 FEW010 BKN030 09/06 Q1014",
      "taf": "TAF LWOH 240845Z 2409/2509 15008KT 9999 FEW020 BKN035"
    },
    {
      "icao": "LWSK",
      "alert": "OK",
      "vis_m": 2000,
      "fzfg": false,
      "metar_trigger": false,
      "taf_trigger": false,
      "metar": "METAR LWSK 240920Z VRB01KT 2000 -DZ BR BKN010 OVC033 06/06 Q1016 NOSIG",
      "taf": "TAF LWSK 240845Z 2409/2509 VRB02KT 2000 BR BKN010 OVC033"
    },
    {
      "icao": "LYBE",
      "alert": "OK",
      "vis_m": 9999,
      "fzfg": false,
      "metar_trigger": false,
      "taf_trigger": false,
      "metar": "METAR LYBE 240930Z 11013KT 9999 -RA SCT010 BKN027 04/02 Q1017 RERA NOSIG",
      "taf": "TAF LYBE 240500Z 2406/2506 11014KT 9999 BKN027 TX06/2413Z TN02/2506Z"
    },
    {
      "icao": "LYNI",
      "alert": "OK",
      "vis_m": 9999,
      "fzfg": false,
      "metar_trigger": false,
      "taf_trigger": false,
      "metar": "METAR LYNI 240930Z 08008KT 9999 -RA FEW017 BKN030 OVC075 06/04 Q1016 RERA NOSIG",
      "taf": "TAF LYNI 240500Z 2406/2506 08013KT 9999 BKN030 BKN080 TX06/2412Z TN02/2506Z"
    },
    {
      "icao": "LYPG",
      "alert": "OK",
      "vis_m": 8000,
      "fzfg": false,
      "metar_trigger": false,
      "taf_trigger": false,
      "metar": "METAR LYPG 240930Z 31003KT 280V350 8000 SCT030 BKN080 09/08 Q1013 NOSIG",
      "taf": "TAF LYPG 240500Z 2406/2506 VRB02KT 6000 SCT040 OVC070 TX11/2413Z TN05/2505Z"
    },
    {
      "icao": "LZIB",
      "alert": "OK",
      "vis_m": 9999,
      "fzfg": false,
      "metar_trigger": false,
      "taf_trigger": false,
      "metar": "METAR LZIB 240930Z 02012KT 9999 FEW030 03/M00 Q1022 NOSIG",
      "taf": "TAF LZIB 240515Z 2406/2506 04012KT 9999 -RA FEW009 OVC020"
    },
    {
      "icao": "LZKZ",
      "alert": "OK",
      "vis_m": 9999,
      "fzfg": false,
      "metar_trigger": false,
      "taf_trigger": false,
      "metar": "METAR LZKZ 240930Z 36021KT CAVOK 02/M03 Q1024 NOSIG",
      "taf": "TAF LZKZ 240515Z 2406/2506 01018KT CAVOK"
    },
    {
      "icao": "LZTT",
      "alert": "OK",
      "vis_m": 9999,
      "fzfg": false,
      "metar_trigger": false,
      "taf_trigger": false,
      "metar": "METAR LZTT 240930Z 06013KT 9999 -SN BKN017 M03/M05 Q1023 NOSIG",
      "taf": "TAF LZTT 240515Z 2406/2506 06015KT 9999 -SN BKN016 BKN023"
    },
    {
      "icao": "OEJN",
      "alert": "OK",
      "vis_m": 9999,
      "fzfg": false,
      "metar_trigger": false,
      "taf_trigger": false,
      "metar": "METAR OEJN 240900Z 34003KT CAVOK 30/19 Q1014 NOSIG",
      "taf": "TAF OEJN 240500Z 2406/2512 32010KT 9999 SCT040"
    },
    {
      "icao": "OEMA",
      "alert": "OK",
      "vis_m": 9999,
      "fzfg": false,
      "metar_trigger": false,
      "taf_trigger": false,
      "metar": "METAR OEMA 240900Z VRB03KT CAVOK 25/14 Q1019 NOSIG",
      "taf": "TAF OEMA 240500Z 2406/2512 33010KT 9999 SCT040"
    },
    {
      "icao": "OJAI",
      "alert": "OK",
      "vis_m": 5000,
      "fzfg": false,
      "metar_trigger": false,
      "taf_trigger": false,
      "metar": "METAR OJAI 240900Z 08008KT 5000 HZ NSC 13/07 Q1022 NOSIG",
      "taf": "TAF OJAI 240448Z 2406/2512 VRB02KT 5000 HZ NSC"
    },
    {
      "icao": "OMAA",
      "alert": "OK",
      "vis_m": 9999,
      "fzfg": false,
      "metar_trigger": false,
      "taf_trigger": false,
      "metar": "METAR OMAA 240900Z 34006KT 280V010 CAVOK 24/09 Q1017 NOSIG",
      "taf": "TAF OMAA 240500Z 2406/2512 VRB02KT 8000 NSC"
    },
    {
      "icao": "OMDB",
      "alert": "OK",
      "vis_m": 9999,
      "fzfg": false,
      "metar_trigger": false,
      "taf_trigger": false,
      "metar": "METAR OMDB 240930Z VRB04KT CAVOK 25/10 Q1016 BECMG 34010KT",
      "taf": "TAF OMDB 240500Z 2406/2512 07005KT 8000 NSC"
    },
    {
      "icao": "UAAA",
      "alert": "OK",
      "vis_m": 3600,
      "fzfg": false,
      "metar_trigger": false,
      "taf_trigger": false,
      "metar": "METAR UAAA 240930Z VRB01MPS 3600 BR BKN100 OVC200 M03/M05 Q1026 NOSIG",
      "taf": "TAF UAAA 240501Z 2406/2506 05003MPS 1500 BR FU BKN007 OVC015 TXM03/2408Z TNM06/2501Z"
    },
    {
      "icao": "UBBB",
      "alert": "OK",
      "vis_m": 9999,
      "fzfg": false,
      "metar_trigger": false,
      "taf_trigger": false,
      "metar": "METAR UBBB 240930Z VRB02KT 9999 BKN023 13/08 Q1017 NOSIG",
      "taf": "TAF UBBB 240503Z 2406/2506 28005KT 9999 BKN030 TX12/2410Z TN06/2501Z"
    },
    {
      "icao": "UDSG",
      "alert": "OK",
      "vis_m": 9000,
      "fzfg": false,
      "metar_trigger": false,
      "taf_trigger": false,
      "metar": "METAR UDSG 240930Z 28003KT 9000 NSC 02/M05 Q1020 NOSIG",
      "taf": "TAF UDSG 240500Z 2406/2506 VRB06KT 9999 FEW050"
    },
    {
      "icao": "UDYZ",
      "alert": "OK",
      "vis_m": 4400,
      "fzfg": false,
      "metar_trigger": false,
      "taf_trigger": false,
      "metar": "METAR UDYZ 240930Z VRB02KT 4400 HZ NSC 06/M02 Q1021 NOSIG",
      "taf": "TAF UDYZ 240500Z 2406/2506 VRB06KT 3500 BR FEW040"
    },
    {
      "icao": "UGKO",
      "alert": "OK",
      "vis_m": 6000,
      "fzfg": false,
      "metar_trigger": false,
      "taf_trigger": false,
      "metar": "METAR UGKO 240930Z VRB02KT 6000 -RA SCT023 BKN047 07/05 Q1021 NOSIG",
      "taf": "TAF UGKO 240500Z 2406/2506 09006KT 9999 BKN070 TX11/2411Z TN04/2503Z"
    }
  ]
}