{
  "ts_utc": "2026-04-01T17:30:59Z",
  "threshold_m": 150,
  "source": "stations_override.txt (ICAO list) + aviationweather.gov (METAR/TAF raw)",
  "station_count": 159,
  "stations": [
    {
      "icao": "BIKF",
      "alert": "OK",
      "vis_m": 9999,
      "fzfg": false,
      "metar_trigger": false,
      "taf_trigger": false,
      "metar": "METAR BIKF 011700Z 14021KT 9999 FEW030 BKN055 OVC150 03/M01 Q1013",
      "taf": "TAF BIKF 011654Z 0118/0218 16023G33KT 9999 SCT030 BKN040 TX04/0122Z TN00/0205Z"
    },
    {
      "icao": "BKPR",
      "alert": "OK",
      "vis_m": 9999,
      "fzfg": false,
      "metar_trigger": false,
      "taf_trigger": false,
      "metar": "METAR BKPR 011730Z 02016KT 9999 FEW015 SCT035 BKN050 06/05 Q1006 NOSIG",
      "taf": "TAF BKPR 011730Z 0118/0218 02018KT 9999 SCT015 BKN030"
    },
    {
      "icao": "EBCI",
      "alert": "OK",
      "vis_m": 9999,
      "fzfg": false,
      "metar_trigger": false,
      "taf_trigger": false,
      "metar": "METAR EBCI 011720Z 35004KT 9999 FEW040 12/02 Q1021 NOSIG",
      "taf": "TAF EBCI 011720Z 0118/0224 VRB03KT 9999 FEW030"
    },
    {
      "icao": "EDDB",
      "alert": "OK",
      "vis_m": 9999,
      "fzfg": false,
      "metar_trigger": false,
      "taf_trigger": false,
      "metar": "METAR EDDB 011720Z AUTO 28007KT CAVOK 09/03 Q1022 NOSIG",
      "taf": "TAF EDDB 011700Z 0118/0218 21004KT CAVOK"
    },
    {
      "icao": "EDDH",
      "alert": "OK",
      "vis_m": 9999,
      "fzfg": false,
      "metar_trigger": false,
      "taf_trigger": false,
      "metar": "METAR EDDH 011720Z AUTO 25005KT 210V300 CAVOK 11/01 Q1022 NOSIG",
      "taf": "TAF EDDH 011700Z 0118/0224 20004KT CAVOK"
    },
    {
      "icao": "EDDK",
      "alert": "OK",
      "vis_m": 9999,
      "fzfg": false,
      "metar_trigger": false,
      "taf_trigger": false,
      "metar": "METAR EDDK 011720Z AUTO 13006KT 090V160 CAVOK 11/M01 Q1022 NOSIG",
      "taf": "TAF EDDK 011700Z 0118/0224 13004KT CAVOK"
    },
    {
      "icao": "EDDN",
      "alert": "OK",
      "vis_m": 9999,
      "fzfg": false,
      "metar_trigger": false,
      "taf_trigger": false,
      "metar": "METAR EDDN 011720Z AUTO 36006KT 330V030 9999 BKN047 08/00 Q1021 NOSIG",
      "taf": "TAF EDDN 011700Z 0118/0218 VRB02KT 9999 FEW040"
    },
    {
      "icao": "EDDS",
      "alert": "OK",
      "vis_m": 9999,
      "fzfg": false,
      "metar_trigger": false,
      "taf_trigger": false,
      "metar": "METAR EDDS 011720Z AUTO 07008KT 9999 SCT047 08/M01 Q1020 NOSIG",
      "taf": "TAF EDDS 011700Z 0118/0218 04005KT 9999 FEW045"
    },
    {
      "icao": "EDFH",
      "alert": "OK",
      "vis_m": 9999,
      "fzfg": false,
      "metar_trigger": false,
      "taf_trigger": false,
      "metar": "METAR EDFH 011720Z 12004KT 060V190 CAVOK 07/M03 Q1021",
      "taf": "TAF EDFH 011700Z 0118/0218 13005KT CAVOK"
    },
    {
      "icao": "EDJA",
      "alert": "OK",
      "vis_m": 9999,
      "fzfg": false,
      "metar_trigger": false,
      "taf_trigger": false,
      "metar": "METAR EDJA 011720Z 05008KT 9999 OVC044 05/00 Q1019",
      "taf": "TAF EDJA 011700Z 0118/0203 08003KT 9999 BKN045"
    },
    {
      "icao": "EDLW",
      "alert": "OK",
      "vis_m": 9999,
      "fzfg": false,
      "metar_trigger": false,
      "taf_trigger": false,
      "metar": "METAR EDLW 011720Z 09004KT CAVOK 12/M00 Q1021",
      "taf": "TAF EDLW 011700Z 0118/0218 07004KT CAVOK"
    },
    {
      "icao": "EDNY",
      "alert": "OK",
      "vis_m": 9999,
      "fzfg": false,
      "metar_trigger": false,
      "taf_trigger": false,
      "metar": "METAR EDNY 011720Z 05009KT CAVOK 06/01 Q1020",
      "taf": "TAF EDNY 011700Z 0118/0203 03006KT 9999 SCT050"
    },
    {
      "icao": "EDSB",
      "alert": "OK",
      "vis_m": 9999,
      "fzfg": false,
      "metar_trigger": false,
      "taf_trigger": false,
      "metar": "METAR EDSB 011720Z 04011KT CAVOK 10/00 Q1021",
      "taf": "TAF EDSB 011700Z 0118/0218 04008KT CAVOK"
    },
    {
      "icao": "EETN",
      "alert": "OK",
      "vis_m": 9999,
      "fzfg": false,
      "metar_trigger": false,
      "taf_trigger": false,
      "metar": "METAR EETN 011720Z 00000KT CAVOK 03/01 Q1019 NOSIG",
      "taf": "TAF EETN 011730Z 0118/0218 26004KT CAVOK"
    },
    {
      "icao": "EFTU",
      "alert": "OK",
      "vis_m": 9999,
      "fzfg": false,
      "metar_trigger": false,
      "taf_trigger": false,
      "metar": "METAR EFTU 011720Z AUTO 19008KT CAVOK 03/01 Q1016",
      "taf": "TAF EFTU 011426Z 0115/0215 20010KT CAVOK"
    },
    {
      "icao": "EGBB",
      "alert": "OK",
      "vis_m": 9999,
      "fzfg": false,
      "metar_trigger": false,
      "taf_trigger": false,
      "metar": "METAR EGBB 011720Z 24004KT 200V280 9999 SCT040 12/05 Q1020",
      "taf": "TAF EGBB 011655Z 0118/0218 25005KT 9999 BKN034"
    },
    {
      "icao": "EGGP",
      "alert": "OK",
      "vis_m": 9999,
      "fzfg": false,
      "metar_trigger": false,
      "taf_trigger": false,
      "metar": "METAR EGGP 011720Z 25010KT 9999 VCSH BKN037 12/06 Q1019",
      "taf": "TAF EGGP 011700Z 0118/0218 24008KT 9999 SCT045"
    },
    {
      "icao": "EGGW",
      "alert": "OK",
      "vis_m": 9999,
      "fzfg": false,
      "metar_trigger": false,
      "taf_trigger": false,
      "metar": "METAR EGGW 011720Z AUTO 24006KT 9999 BKN038 OVC046 10/06 Q1021",
      "taf": "TAF EGGW 011658Z 0118/0218 30007KT 9999 SCT030"
    },
    {
      "icao": "EGKK",
      "alert": "OK",
      "vis_m": 9999,
      "fzfg": false,
      "metar_trigger": false,
      "taf_trigger": false,
      "metar": "METAR EGKK 011720Z 28009KT 250V310 9999 BKN047 12/04 Q1021",
      "taf": ""
    },
    {
      "icao": "EGNM",
      "alert": "OK",
      "vis_m": 9999,
      "fzfg": false,
      "metar_trigger": false,
      "taf_trigger": false,
      "metar": "METAR EGNM 011720Z 25011KT 9999 FEW035 11/04 Q1018",
      "taf": "TAF EGNM 011701Z 0118/0218 27014KT 9999 FEW015 SCT030"
    },
    {
      "icao": "EGPD",
      "alert": "OK",
      "vis_m": 8000,
      "fzfg": false,
      "metar_trigger": false,
      "taf_trigger": false,
      "metar": "METAR EGPD 011720Z AUTO 34017KT 8000 -RA BKN011 OVC047 04/02 Q1018 TEMPO TEMPO RA BKN008",
      "taf": "TAF EGPD 011655Z 0118/0218 33012KT 9999 SCT030"
    },
    {
      "icao": "EGPF",
      "alert": "OK",
      "vis_m": 9999,
      "fzfg": false,
      "metar_trigger": false,
      "taf_trigger": false,
      "metar": "METAR EGPF 011720Z AUTO 27013KT 9999 BKN024 BKN029 09/05 Q1018",
      "taf": "TAF EGPF 011657Z 0118/0218 30012KT 9999 SCT040"
    },
    {
      "icao": "EHBK",
      "alert": "OK",
      "vis_m": 9999,
      "fzfg": false,
      "metar_trigger": false,
      "taf_trigger": false,
      "metar": "METAR EHBK 011725Z AUTO 07005KT 040V100 9999 NCD 11/01 Q1021 NOSIG",
      "taf": "TAF EHBK 011709Z 0118/0224 06005KT CAVOK"
    },
    {
      "icao": "EHEH",
      "alert": "OK",
      "vis_m": 9999,
      "fzfg": false,
      "metar_trigger": false,
      "taf_trigger": false,
      "metar": "METAR EHEH 011725Z AUTO 16007KT 120V220 9999 NCD 12/M01 Q1021 BLU NOSIG",
      "taf": "TAF EHEH 011110Z 0112/0218 15005KT 9999 SCT034"
    },
    {
      "icao": "EKBI",
      "alert": "OK",
      "vis_m": 9999,
      "fzfg": false,
      "metar_trigger": false,
      "taf_trigger": false,
      "metar": "METAR EKBI 011720Z AUTO 22007KT 180V240 9999 BKN039/// OVC063/// 07/03 Q1021",
      "taf": "TAF EKBI 011727Z 0118/0218 22008KT 9999 SCT030"
    },
    {
      "icao": "EKCH",
      "alert": "OK",
      "vis_m": 9999,
      "fzfg": false,
      "metar_trigger": false,
      "taf_trigger": false,
      "metar": "METAR EKCH 011720Z AUTO 23010KT 9999 NCD 09/01 Q1021 NOSIG",
      "taf": "TAF EKCH 011727Z 0118/0218 22008KT CAVOK"
    },
    {
      "icao": "ENAL",
      "alert": "OK",
      "vis_m": 2100,
      "fzfg": false,
      "metar_trigger": false,
      "taf_trigger": false,
      "metar": "METAR ENAL 011720Z VRB02KT 2100 -SN VV010 00/M00 Q1014",
      "taf": ""
    },
    {
      "icao": "ENBR",
      "alert": "OK",
      "vis_m": 9000,
      "fzfg": false,
      "metar_trigger": false,
      "taf_trigger": false,
      "metar": "METAR ENBR 011720Z 18012KT 9000 -DZRA BKN003 06/05 Q1012 TEMPO 3000 RADZ BR RMK WIND 1200FT 25007KT",
      "taf": ""
    },
    {
      "icao": "ENGM",
      "alert": "OK",
      "vis_m": 9999,
      "fzfg": false,
      "metar_trigger": false,
      "taf_trigger": false,
      "metar": "METAR ENGM 011720Z 20011KT CAVOK 11/01 Q1011 NOSIG",
      "taf": ""
    },
    {
      "icao": "ENHD",
      "alert": "OK",
      "vis_m": 9999,
      "fzfg": false,
      "metar_trigger": false,
      "taf_trigger": false,
      "metar": "METAR ENHD 011720Z 18012KT 9999 BKN004 07/06 Q1013",
      "taf": "TAF ENHD 011100Z 0112/0121 18015KT 9000 SCT006 BKN015"
    },
    {
      "icao": "ENTC",
      "alert": "OK",
      "vis_m": 9999,
      "fzfg": false,
      "metar_trigger": false,
      "taf_trigger": false,
      "metar": "METAR ENTC 011720Z 22033G43KT 9999 DZRA BKN032 03/M01 Q0990 TEMPO 22033KT 3500 SHSNRA SCT020CB RMK WIND 2600FT 21048G61KT",
      "taf": ""
    },
    {
      "icao": "ENTO",
      "alert": "OK",
      "vis_m": 9999,
      "fzfg": false,
      "metar_trigger": false,
      "taf_trigger": false,
      "metar": "METAR ENTO 011720Z 20015KT 9999 FEW007 SCT036 07/06 Q1014 BECMG BKN008",
      "taf": "TAF ENTO 011100Z 0112/0212 21010KT CAVOK"
    },
    {
      "icao": "ENVA",
      "alert": "OK",
      "vis_m": 9999,
      "fzfg": false,
      "metar_trigger": false,
      "taf_trigger": false,
      "metar": "METAR ENVA 011720Z 27011KT 9999 -RA SCT013 BKN017 03/02 Q1013 TEMPO BKN012 RMK WIND 670FT 28012KT",
      "taf": "TAF ENVA 011100Z 0112/0212 26015KT 8000 -RA SCT007 BKN015"
    },
    {
      "icao": "ENZV",
      "alert": "OK",
      "vis_m": 9999,
      "fzfg": false,
      "metar_trigger": false,
      "taf_trigger": false,
      "metar": "METAR ENZV 011720Z 19012KT 9999 -RA SCT010 BKN038 08/06 Q1014 TEMPO BKN008",
      "taf": "TAF ENZV 011100Z 0112/0212 18015KT 9999 FEW012 BKN030"
    },
    {
      "icao": "EPGD",
      "alert": "OK",
      "vis_m": 9999,
      "fzfg": false,
      "metar_trigger": false,
      "taf_trigger": false,
      "metar": "METAR EPGD 011700Z 07004KT 040V100 CAVOK 05/00 Q1022",
      "taf": "TAF EPGD 011730Z 0118/0218 VRB04KT CAVOK"
    },
    {
      "icao": "EPKK",
      "alert": "OK",
      "vis_m": 9999,
      "fzfg": false,
      "metar_trigger": false,
      "taf_trigger": false,
      "metar": "METAR EPKK 011700Z 21006KT 9999 BKN046 06/03 Q1018",
      "taf": "TAF EPKK 011730Z 0118/0218 22005KT 9999 BKN045"
    },
    {
      "icao": "EPKT",
      "alert": "OK",
      "vis_m": 9999,
      "fzfg": false,
      "metar_trigger": false,
      "taf_trigger": false,
      "metar": "METAR EPKT 011700Z 35008KT 320V020 CAVOK 09/M01 Q1019",
      "taf": "TAF EPKT 011730Z 0118/0218 34006KT CAVOK"
    },
    {
      "icao": "EPLB",
      "alert": "OK",
      "vis_m": 9999,
      "fzfg": false,
      "metar_trigger": false,
      "taf_trigger": false,
      "metar": "METAR EPLB 011700Z 34005KT CAVOK 11/01 Q1017",
      "taf": "TAF EPLB 011730Z 0118/0218 35010KT CAVOK"
    },
    {
      "icao": "EPMO",
      "alert": "OK",
      "vis_m": 9999,
      "fzfg": false,
      "metar_trigger": false,
      "taf_trigger": false,
      "metar": "METAR EPMO 011700Z 34007KT CAVOK 11/M01 Q1019",
      "taf": "TAF EPMO 011730Z 0118/0218 01012KT CAVOK"
    },
    {
      "icao": "EPPO",
      "alert": "OK",
      "vis_m": 9999,
      "fzfg": false,
      "metar_trigger": false,
      "taf_trigger": false,
      "metar": "METAR EPPO 011700Z 33003KT CAVOK 11/M02 Q1021",
      "taf": "TAF EPPO 011730Z 0118/0218 33003KT CAVOK"
    },
    {
      "icao": "EPRA",
      "alert": "OK",
      "vis_m": 9999,
      "fzfg": false,
      "metar_trigger": false,
      "taf_trigger": false,
      "metar": "METAR EPRA 011700Z 36005KT CAVOK 11/M02 Q1018",
      "taf": "TAF EPRA 011730Z 0118/0203 35006KT CAVOK"
    },
    {
      "icao": "EPRZ",
      "alert": "OK",
      "vis_m": 9999,
      "fzfg": false,
      "metar_trigger": false,
      "taf_trigger": false,
      "metar": "METAR EPRZ 011700Z 25010KT 9999 OVC005 05/05 Q1017",
      "taf": "TAF EPRZ 011730Z 0118/0218 24008KT 9999 BKN006"
    },
    {
      "icao": "EPSC",
      "alert": "OK",
      "vis_m": 9999,
      "fzfg": false,
      "metar_trigger": false,
      "taf_trigger": false,
      "metar": "METAR EPSC 011700Z 32005KT CAVOK 11/00 Q1022",
      "taf": "TAF EPSC 011730Z 0118/0218 VRB04KT CAVOK"
    },
    {
      "icao": "EPSY",
      "alert": "OK",
      "vis_m": 9999,
      "fzfg": false,
      "metar_trigger": false,
      "taf_trigger": false,
      "metar": "METAR EPSY 011700Z 35008KT CAVOK 09/M03 Q1020",
      "taf": "TAF EPSY 011730Z 0118/0203 36006KT CAVOK"
    },
    {
      "icao": "EPWA",
      "alert": "OK",
      "vis_m": 9999,
      "fzfg": false,
      "metar_trigger": false,
      "taf_trigger": false,
      "metar": "METAR EPWA 011700Z 35012KT CAVOK 12/M02 Q1019 NOSIG",
      "taf": "TAF EPWA 011730Z 0118/0218 01008KT CAVOK"
    },
    {
      "icao": "EPWR",
      "alert": "OK",
      "vis_m": 9999,
      "fzfg": false,
      "metar_trigger": false,
      "taf_trigger": false,
      "metar": "METAR EPWR 011700Z 01008KT 9999 FEW040 09/01 Q1021",
      "taf": "TAF EPWR 011730Z 0118/0218 01005KT CAVOK"
    },
    {
      "icao": "ESGG",
      "alert": "OK",
      "vis_m": 9999,
      "fzfg": false,
      "metar_trigger": false,
      "taf_trigger": false,
      "metar": "METAR ESGG 011720Z 20009KT 9999 BKN018 06/04 Q1019",
      "taf": "TAF ESGG 011130Z 0112/0212 19009KT 6000 BKN004"
    },
    {
      "icao": "ESKN",
      "alert": "OK",
      "vis_m": 9999,
      "fzfg": false,
      "metar_trigger": false,
      "taf_trigger": false,
      "metar": "METAR ESKN 011720Z 23009KT CAVOK 11/01 Q1016",
      "taf": "TAF ESKN 011130Z 0112/0212 21013KT CAVOK"
    },
    {
      "icao": "ESMS",
      "alert": "OK",
      "vis_m": 9999,
      "fzfg": false,
      "metar_trigger": false,
      "taf_trigger": false,
      "metar": "METAR ESMS 011720Z 23009KT CAVOK 09/02 Q1021",
      "taf": "TAF ESMS 011129Z 0112/0212 22006KT 9999 FEW040"
    },
    {
      "icao": "ESSA",
      "alert": "OK",
      "vis_m": 9999,
      "fzfg": false,
      "metar_trigger": false,
      "taf_trigger": false,
      "metar": "METAR ESSA 011720Z 19013KT CAVOK 09/00 Q1014 NOSIG",
      "taf": "TAF ESSA 011130Z 0112/0212 23015KT CAVOK"
    },
    {
      "icao": "EYKA",
      "alert": "OK",
      "vis_m": 9999,
      "fzfg": false,
      "metar_trigger": false,
      "taf_trigger": false,
      "metar": "METAR EYKA 011720Z 34005KT CAVOK 09/M02 Q1020",
      "taf": "TAF EYKA 011701Z 0118/0218 VRB04KT 9000 NSC"
    },
    {
      "icao": "EYPA",
      "alert": "OK",
      "vis_m": 600,
      "fzfg": false,
      "metar_trigger": false,
      "taf_trigger": false,
      "metar": "METAR EYPA 011720Z VRB01KT 0600 R19/0800N FG VV002 01/00 Q1022",
      "taf": "TAF EYPA 011701Z 0118/0218 VRB04KT 0350 FG VV002"
    },
    {
      "icao": "EYVI",
      "alert": "OK",
      "vis_m": 9999,
      "fzfg": false,
      "metar_trigger": false,
      "taf_trigger": false,
      "metar": "METAR EYVI 011720Z 34008KT CAVOK 10/M01 Q1018 NOSIG",
      "taf": "TAF EYVI 011100Z 0112/0212 36010KT 9000 NSC"
    },
    {
      "icao": "GCFV",
      "alert": "OK",
      "vis_m": 9999,
      "fzfg": false,
      "metar_trigger": false,
      "taf_trigger": false,
      "metar": "METAR GCFV 011700Z 03011KT CAVOK 20/15 Q1018",
      "taf": "TAF GCFV 010800Z 0109/0209 04009KT 8000 NSC TX23/0114Z TN16/0206Z"
    },
    {
      "icao": "GCLP",
      "alert": "OK",
      "vis_m": 9999,
      "fzfg": false,
      "metar_trigger": false,
      "taf_trigger": false,
      "metar": "METAR GCLP 011700Z 03015KT CAVOK 20/15 Q1018 NOSIG",
      "taf": "TAF GCLP 010800Z 0109/0209 35005KT 6000 NSC TX24/0114Z TN16/0206Z"
    },
    {
      "icao": "GCTS",
      "alert": "OK",
      "vis_m": 9999,
      "fzfg": false,
      "metar_trigger": false,
      "taf_trigger": false,
      "metar": "METAR GCTS 011700Z 08020KT CAVOK 22/15 Q1017 NOSIG",
      "taf": ""
    },
    {
      "icao": "GMAD",
      "alert": "OK",
      "vis_m": 8000,
      "fzfg": false,
      "metar_trigger": false,
      "taf_trigger": false,
      "metar": "METAR GMAD 011700Z 24014KT 8000 NSC 21/11 Q1015 NOSIG",
      "taf": "TAF GMAD 011700Z 0118/0224 24008KT 8000 BKN013"
    },
    {
      "icao": "GMMN",
      "alert": "OK",
      "vis_m": 9999,
      "fzfg": false,
      "metar_trigger": false,
      "taf_trigger": false,
      "metar": "METAR GMMN 011700Z 34009KT 310V010 9999 FEW020 20/15 Q1018 NOSIG",
      "taf": "TAF GMMN 011100Z 0112/0218 36012KT CAVOK"
    },
    {
      "icao": "GMMX",
      "alert": "OK",
      "vis_m": 9999,
      "fzfg": false,
      "metar_trigger": false,
      "taf_trigger": false,
      "metar": "METAR GMMX 011700Z 05008KT 350V090 CAVOK 24/05 Q1016 NOSIG",
      "taf": "TAF GMMX 011700Z 0118/0224 06006KT CAVOK"
    },
    {
      "icao": "HEGN",
      "alert": "OK",
      "vis_m": 9999,
      "fzfg": false,
      "metar_trigger": false,
      "taf_trigger": false,
      "metar": "METAR HEGN 011700Z 12003KT 9999 SCT020 BKN025 23/17 Q1008 NOSIG",
      "taf": "TAF HEGN 011712Z 0118/0224 17006G16KT 9999 SCT020"
    },
    {
      "icao": "HEMA",
      "alert": "OK",
      "vis_m": 9999,
      "fzfg": false,
      "metar_trigger": false,
      "taf_trigger": false,
      "metar": "METAR HEMA 011700Z 12007KT CAVOK 24/18 Q1008 NOSIG",
      "taf": "TAF HEMA 011711Z 0118/0224 32008KT 9999 SCT020"
    },
    {
      "icao": "HESH",
      "alert": "OK",
      "vis_m": 9999,
      "fzfg": false,
      "metar_trigger": false,
      "taf_trigger": false,
      "metar": "METAR HESH 011700Z 36005KT CAVOK 28/07 Q1008 NOSIG",
      "taf": "TAF HESH 011712Z 0118/0224 33008KT 9999 SCT020"
    },
    {
      "icao": "HESX",
      "alert": "OK",
      "vis_m": 9999,
      "fzfg": false,
      "metar_trigger": false,
      "taf_trigger": false,
      "metar": "METAR HESX 011700Z 06013KT 9999 FEW030 BKN100 21/16 Q1004 NOSIG",
      "taf": "TAF HESX 011711Z 0118/0224 15015KT 9999 SCT025 BKN070"
    },
    {
      "icao": "LATI",
      "alert": "OK",
      "vis_m": 9999,
      "fzfg": false,
      "metar_trigger": false,
      "taf_trigger": false,
      "metar": "METAR LATI 011720Z 28005KT 9999 OVC090 15/02 Q0998 NOSIG",
      "taf": "TAF LATI 011700Z 0118/0218 VRB05KT 9999 SCT040 BKN080 TX18/0210Z TN11/0204Z"
    },
    {
      "icao": "LBPD",
      "alert": "OK",
      "vis_m": 6000,
      "fzfg": false,
      "metar_trigger": false,
      "taf_trigger": false,
      "metar": "METAR LBPD 011700Z AUTO 22001KT 6000 FEW014/// BKN016/// OVC054/// 09/09 Q1008 TEMPO 3000 RA BR BKN003",
      "taf": "TAF LBPD 011700Z 0118/0218 11010KT 6000 SCT010 BKN015 OVC030"
    },
    {
      "icao": "LBSF",
      "alert": "OK",
      "vis_m": 9999,
      "fzfg": false,
      "metar_trigger": false,
      "taf_trigger": false,
      "metar": "METAR LBSF 011700Z AUTO VRB02KT 9999 OVC033/// 07/06 Q1008 TEMPO 5000 -RA BR",
      "taf": "TAF LBSF 011700Z 0118/0218 09010KT 7000 SCT012 BKN020 BKN040"
    },
    {
      "icao": "LBWN",
      "alert": "OK",
      "vis_m": 9999,
      "fzfg": false,
      "metar_trigger": false,
      "taf_trigger": false,
      "metar": "METAR LBWN 011700Z AUTO VRB01KT 9999 NSC 09/06 Q1010 NOSIG",
      "taf": "TAF LBWN 011700Z 0118/0218 04014KT 9999 SCT025 BKN045"
    },
    {
      "icao": "LCLK",
      "alert": "OK",
      "vis_m": 9999,
      "fzfg": false,
      "metar_trigger": false,
      "taf_trigger": false,
      "metar": "METAR LCLK 011700Z 03003KT 9999 -RA SCT070 17/15 Q1012 NOSIG",
      "taf": ""
    },
    {
      "icao": "LCPH",
      "alert": "OK",
      "vis_m": 9000,
      "fzfg": false,
      "metar_trigger": false,
      "taf_trigger": false,
      "metar": "METAR LCPH 011700Z 10010KT 9000 -RA FEW065 SCT080 16/12 Q1010 NOSIG",
      "taf": "TAF LCPH 011130Z 0112/0212 13017KT 9999 SCT045"
    },
    {
      "icao": "LEAL",
      "alert": "OK",
      "vis_m": 9999,
      "fzfg": false,
      "metar_trigger": false,
      "taf_trigger": false,
      "metar": "METAR LEAL 011700Z 17005KT 110V210 9999 FEW030 17/09 Q1016 NOSIG",
      "taf": "TAF LEAL 011700Z 0118/0218 18008KT 9999 FEW030 SCT050 TX21/0212Z TN10/0205Z"
    },
    {
      "icao": "LEBB",
      "alert": "OK",
      "vis_m": 9999,
      "fzfg": false,
      "metar_trigger": false,
      "taf_trigger": false,
      "metar": "METAR LEBB 011700Z 31012G22KT 290V350 9999 FEW016 BKN022 13/10 Q1027 NOSIG",
      "taf": "TAF LEBB 011700Z 0118/0218 32009KT 9999 FEW020 BKN030 TX13/0214Z TN09/0206Z"
    },
    {
      "icao": "LEBL",
      "alert": "OK",
      "vis_m": 9999,
      "fzfg": false,
      "metar_trigger": false,
      "taf_trigger": false,
      "metar": "METAR LEBL 011700Z 23013KT 9999 SCT018 SCT060 15/10 Q1013 NOSIG",
      "taf": "TAF LEBL 011700Z 0118/0218 20009KT 9999 SCT020 SCT030 TX21/0213Z TN09/0206Z"
    },
    {
      "icao": "LECH",
      "alert": "OK",
      "vis_m": 9999,
      "fzfg": false,
      "metar_trigger": false,
      "taf_trigger": false,
      "metar": "METAR LECH 011700Z AUTO 31007G17KT CAVOK 18/03 Q1015",
      "taf": "TAF LECH 011700Z 0118/0218 33015KT 9999 FEW050 TX19/0213Z TN11/0205Z"
    },
    {
      "icao": "LEMD",
      "alert": "OK",
      "vis_m": 9999,
      "fzfg": false,
      "metar_trigger": false,
      "taf_trigger": false,
      "metar": "METAR LEMD 011700Z 36011KT 320V040 CAVOK 18/01 Q1020 NOSIG",
      "taf": "TAF LEMD 011700Z 0118/0224 01010KT CAVOK TX18/0215Z TN04/0206Z"
    },
    {
      "icao": "LEMG",
      "alert": "OK",
      "vis_m": 9999,
      "fzfg": false,
      "metar_trigger": false,
      "taf_trigger": false,
      "metar": "METAR LEMG 011700Z 14010KT CAVOK 17/11 Q1019 NOSIG",
      "taf": "TAF LEMG 011700Z 0118/0218 14010KT CAVOK TX24/0213Z TN11/0207Z"
    },
    {
      "icao": "LEVC",
      "alert": "OK",
      "vis_m": 9999,
      "fzfg": false,
      "metar_trigger": false,
      "taf_trigger": false,
      "metar": "METAR LEVC 011700Z 16008KT 130V210 CAVOK 19/05 Q1014 NOSIG",
      "taf": "TAF LEVC 011700Z 0118/0218 12006KT CAVOK TX23/0214Z TN12/0205Z"
    },
    {
      "icao": "LEXJ",
      "alert": "OK",
      "vis_m": 9999,
      "fzfg": false,
      "metar_trigger": false,
      "taf_trigger": false,
      "metar": "METAR LEXJ 011700Z 33008KT 280V020 9999 FEW017 OVC023 13/09 Q1028",
      "taf": "TAF LEXJ 010800Z 0109/0209 32009KT 9999 SCT010 BKN020 TX14/0112Z TN10/0204Z"
    },
    {
      "icao": "LEZG",
      "alert": "OK",
      "vis_m": 9999,
      "fzfg": false,
      "metar_trigger": false,
      "taf_trigger": false,
      "metar": "METAR LEZG 011700Z 32026G40KT 9999 FEW045 16/04 Q1020 NOSIG",
      "taf": "TAF LEZG 011700Z 0118/0218 31020KT 9999 FEW040 TX17/0214Z TN09/0205Z"
    },
    {
      "icao": "LEZL",
      "alert": "OK",
      "vis_m": 9999,
      "fzfg": false,
      "metar_trigger": false,
      "taf_trigger": false,
      "metar": "METAR LEZL 011700Z 11002KT CAVOK 25/06 Q1018 NOSIG",
      "taf": "TAF LEZL 010800Z 0109/0209 04011KT CAVOK TX26/0115Z TN09/0207Z"
    },
    {
      "icao": "LFBD",
      "alert": "OK",
      "vis_m": 9999,
      "fzfg": false,
      "metar_trigger": false,
      "taf_trigger": false,
      "metar": "METAR LFBD 011700Z AUTO 31016KT 9999 BKN017 13/09 Q1022 TEMPO 33015G25KT BKN014",
      "taf": ""
    },
    {
      "icao": "LFLL",
      "alert": "OK",
      "vis_m": 9999,
      "fzfg": false,
      "metar_trigger": false,
      "taf_trigger": false,
      "metar": "METAR LFLL 011700Z 35021KT CAVOK 12/M03 Q1016 NOSIG",
      "taf": "TAF LFLL 011700Z 0118/0224 35008KT CAVOK"
    },
    {
      "icao": "LFLS",
      "alert": "OK",
      "vis_m": 9999,
      "fzfg": false,
      "metar_trigger": false,
      "taf_trigger": false,
      "metar": "METAR LFLS 011700Z AUTO 03012KT 360V060 CAVOK 09/M04 Q1015 NOSIG",
      "taf": "TAF LFLS 010800Z 0109/0209 36012KT CAVOK"
    },
    {
      "icao": "LFMN",
      "alert": "OK",
      "vis_m": 9999,
      "fzfg": false,
      "metar_trigger": false,
      "taf_trigger": false,
      "metar": "METAR LFMN 011700Z 22006KT CAVOK 15/M01 Q1009 NOSIG",
      "taf": "TAF LFMN 010800Z 0109/0215 VRB05KT CAVOK"
    },
    {
      "icao": "LFOB",
      "alert": "OK",
      "vis_m": 9999,
      "fzfg": false,
      "metar_trigger": false,
      "taf_trigger": false,
      "metar": "METAR LFOB 011700Z AUTO 35005KT 9999 FEW009 BKN014 BKN028 11/10 Q1021 TEMPO 3000 RA BKN006 OVC012",
      "taf": "TAF LFOB 011700Z 0118/0218 VRB04KT 8000 SCT012"
    },
    {
      "icao": "LFPO",
      "alert": "OK",
      "vis_m": 7000,
      "fzfg": false,
      "metar_trigger": false,
      "taf_trigger": false,
      "metar": "METAR LFPO 011700Z VRB02KT 7000 -DZ OVC025 10/09 Q1021 TEMPO BKN012",
      "taf": "TAF LFPO 011100Z 0112/0218 VRB02KT 8000 BKN008"
    },
    {
      "icao": "LFSB",
      "alert": "OK",
      "vis_m": 9999,
      "fzfg": false,
      "metar_trigger": false,
      "taf_trigger": false,
      "metar": "METAR LFSB 011700Z AUTO 08002KT CAVOK 08/M01 Q1020 NOSIG",
      "taf": "TAF LFSB 011700Z 0118/0218 VRB03KT CAVOK"
    },
    {
      "icao": "LGAV",
      "alert": "OK",
      "vis_m": 6000,
      "fzfg": false,
      "metar_trigger": false,
      "taf_trigger": false,
      "metar": "METAR LGAV 011720Z 05028KT 6000 RA SCT012 BKN020 OVC070 13/11 Q0994 NOSIG",
      "taf": "TAF LGAV 011700Z 0118/0218 04015G25KT 9000 FEW015 BKN025 OVC070"
    },
    {
      "icao": "LGTS",
      "alert": "OK",
      "vis_m": 9999,
      "fzfg": false,
      "metar_trigger": false,
      "taf_trigger": false,
      "metar": "METAR LGTS 011720Z 07004KT 9999 -RA FEW008 BKN025 13/12 Q1003 NOSIG",
      "taf": "TAF LGTS 011700Z 0118/0218 07015KT 9999 FEW010 BKN025"
    },
    {
      "icao": "LHBP",
      "alert": "OK",
      "vis_m": 9999,
      "fzfg": false,
      "metar_trigger": false,
      "taf_trigger": false,
      "metar": "METAR LHBP 011700Z 06005KT CAVOK 12/02 Q1014 NOSIG",
      "taf": "TAF LHBP 011715Z 0118/0218 04008KT CAVOK"
    },
    {
      "icao": "LHDC",
      "alert": "OK",
      "vis_m": 9999,
      "fzfg": false,
      "metar_trigger": false,
      "taf_trigger": false,
      "metar": "METAR LHDC 011645Z AUTO 01012KT 340V040 CAVOK 08/02 Q1015 NOSIG",
      "taf": "TAF LHDC 011115Z 0112/0121 02015G25KT 9999 BKN035"
    },
    {
      "icao": "LIBD",
      "alert": "OK",
      "vis_m": 9999,
      "fzfg": false,
      "metar_trigger": false,
      "taf_trigger": false,
      "metar": "METAR LIBD 011720Z 24001KT 9999 -RA BKN040 09/09 Q0999",
      "taf": "TAF LIBD 011700Z 0118/0218 04012KT 7000 RA BKN040"
    },
    {
      "icao": "LIBG",
      "alert": "OK",
      "vis_m": 8000,
      "fzfg": false,
      "metar_trigger": false,
      "taf_trigger": false,
      "metar": "METAR LIBG 011650Z 04004KT 8000 RA BKN030 10/10 Q0998",
      "taf": "TAF LIBG 011100Z 0112/0121 10012KT 9999 BKN030"
    },
    {
      "icao": "LIBP",
      "alert": "OK",
      "vis_m": 5000,
      "fzfg": false,
      "metar_trigger": false,
      "taf_trigger": false,
      "metar": "METAR LIBP 011720Z AUTO VRB03KT 5000 RA OVC014/// 09/09 Q1004",
      "taf": "TAF LIBP 011700Z 0118/0218 VRB05KT 7000 RA BKN010 OVC030"
    },
    {
      "icao": "LIBR",
      "alert": "OK",
      "vis_m": 5000,
      "fzfg": false,
      "metar_trigger": false,
      "taf_trigger": false,
      "metar": "METAR LIBR 011720Z 05006KT 5000 -RA SCT010 OVC035 11/10 Q0998",
      "taf": "TAF LIBR 011700Z 0118/0218 05014KT 7000 RA OVC040"
    },
    {
      "icao": "LICA",
      "alert": "OK",
      "vis_m": 9999,
      "fzfg": false,
      "metar_trigger": false,
      "taf_trigger": false,
      "metar": "METAR LICA 011720Z AUTO 06008KT 9999 FEW028/// 11/08 Q0995",
      "taf": "TAF LICA 011700Z 0118/0218 08016KT 9999 BKN040"
    },
    {
      "icao": "LICC",
      "alert": "OK",
      "vis_m": 9999,
      "fzfg": false,
      "metar_trigger": false,
      "taf_trigger": false,
      "metar": "METAR LICC 011720Z 03008KT 360V060 9999 -RA FEW020 SCT060 13/11 Q0992",
      "taf": "TAF LICC 011700Z 0118/0218 08012KT 9999 SCT020 BKN050"
    },
    {
      "icao": "LICJ",
      "alert": "OK",
      "vis_m": 8000,
      "fzfg": false,
      "metar_trigger": false,
      "taf_trigger": false,
      "metar": "METAR LICJ 011720Z 09008KT 010V120 8000 -RA SCT020 12/08 Q0994",
      "taf": "TAF LICJ 011700Z 0118/0218 02014KT 9999 SCT020"
    },
    {
      "icao": "LIMC",
      "alert": "OK",
      "vis_m": 9999,
      "fzfg": false,
      "metar_trigger": false,
      "taf_trigger": false,
      "metar": "METAR LIMC 011720Z 23009KT CAVOK 14/M07 Q1011 NOSIG",
      "taf": "TAF LIMC 011700Z 0118/0224 01007KT 9999 SCT090"
    },
    {
      "icao": "LIME",
      "alert": "OK",
      "vis_m": 9999,
      "fzfg": false,
      "metar_trigger": false,
      "taf_trigger": false,
      "metar": "METAR LIME 011720Z AUTO 18004KT 150V220 9999 BKN100/// 13/M04 Q1011",
      "taf": "TAF LIME 011700Z 0118/0218 VRB05KT 9999 FEW090"
    },
    {
      "icao": "LIMF",
      "alert": "OK",
      "vis_m": 9999,
      "fzfg": false,
      "metar_trigger": false,
      "taf_trigger": false,
      "metar": "METAR LIMF 011720Z 25006KT 9999 BKN100 13/M09 Q1012",
      "taf": "TAF LIMF 011700Z 0118/0218 VRB05KT 9999 SCT100"
    },
    {
      "icao": "LIMJ",
      "alert": "OK",
      "vis_m": 9999,
      "fzfg": false,
      "metar_trigger": false,
      "taf_trigger": false,
      "metar": "METAR LIMJ 011720Z 02010KT 350V060 CAVOK 15/M06 Q1010 WS R28",
      "taf": "TAF LIMJ 011700Z 0118/0218 02012KT CAVOK"
    },
    {
      "icao": "LIPE",
      "alert": "OK",
      "vis_m": 9999,
      "fzfg": false,
      "metar_trigger": false,
      "taf_trigger": false,
      "metar": "METAR LIPE 011720Z 06009KT CAVOK 12/M02 Q1011",
      "taf": "TAF LIPE 011700Z 0118/0218 06012KT 9999 SCT060"
    },
    {
      "icao": "LIPH",
      "alert": "OK",
      "vis_m": 9999,
      "fzfg": false,
      "metar_trigger": false,
      "taf_trigger": false,
      "metar": "METAR LIPH 011720Z 09006KT 050V120 9999 SCT080 14/01 Q1011",
      "taf": "TAF LIPH 011700Z 0118/0218 08012KT 9999 SCT060"
    },
    {
      "icao": "LIPQ",
      "alert": "OK",
      "vis_m": 9999,
      "fzfg": false,
      "metar_trigger": false,
      "taf_trigger": false,
      "metar": "METAR LIPQ 011720Z AUTO 09005KT 9999 NCD 13/M00 Q1011",
      "taf": "TAF LIPQ 011700Z 0118/0218 06013KT CAVOK"
    },
    {
      "icao": "LIPR",
      "alert": "OK",
      "vis_m": 9999,
      "fzfg": false,
      "metar_trigger": false,
      "taf_trigger": false,
      "metar": "METAR LIPR 011720Z 07014G24KT 9999 FEW030 11/04 Q1009",
      "taf": "TAF LIPR 011700Z 0118/0218 03016KT 9999 SCT050"
    },
    {
      "icao": "LIPX",
      "alert": "OK",
      "vis_m": 9999,
      "fzfg": false,
      "metar_trigger": false,
      "taf_trigger": false,
      "metar": "METAR LIPX 011720Z 18005KT 160V220 9999 BKN090 13/02 Q1011",
      "taf": "TAF LIPX 011700Z 0118/0218 VRB05KT 9999 BKN080"
    },
    {
      "icao": "LIPY",
      "alert": "OK",
      "vis_m": 9999,
      "fzfg": false,
      "metar_trigger": false,
      "taf_trigger": false,
      "metar": "METAR LIPY 011720Z AUTO 06016KT 040V100 9999 -RA OVC046/// 11/06 Q1007",
      "taf": "TAF LIPY 011700Z 0118/0218 03015KT 9999 BKN050"
    },
    {
      "icao": "LIPZ",
      "alert": "OK",
      "vis_m": 9999,
      "fzfg": false,
      "metar_trigger": false,
      "taf_trigger": false,
      "metar": "METAR LIPZ 011720Z 09009KT CAVOK 13/04 Q1011 NOSIG",
      "taf": "TAF LIPZ 011700Z 0118/0224 10013KT CAVOK"
    },
    {
      "icao": "LIRF",
      "alert": "OK",
      "vis_m": 9999,
      "fzfg": false,
      "metar_trigger": false,
      "taf_trigger": false,
      "metar": "METAR LIRF 011720Z 01018KT CAVOK 12/03 Q1000 NOSIG",
      "taf": "TAF LIRF 011700Z 0118/0224 02020G30KT CAVOK"
    },
    {
      "icao": "LIRN",
      "alert": "OK",
      "vis_m": 9999,
      "fzfg": false,
      "metar_trigger": false,
      "taf_trigger": false,
      "metar": "METAR LIRN 011720Z 03013KT 9999 SCT070 12/06 Q0997 NOSIG",
      "taf": "TAF LIRN 011700Z 0118/0218 03018KT 9999 SCT040"
    },
    {
      "icao": "LIRP",
      "alert": "OK",
      "vis_m": 9999,
      "fzfg": false,
      "metar_trigger": false,
      "taf_trigger": false,
      "metar": "METAR LIRP 011715Z 06011KT 9999 SCT070 13/M00 Q1008 TEMPO 06014G28KT",
      "taf": "TAF LIRP 011700Z 0118/0218 05010KT 9999 SCT060"
    },
    {
      "icao": "LIRZ",
      "alert": "OK",
      "vis_m": 9999,
      "fzfg": false,
      "metar_trigger": false,
      "taf_trigger": false,
      "metar": "METAR LIRZ 011720Z AUTO 04017G29KT 9999 -DZRA BKN048/// 09/04 Q1005",
      "taf": "TAF LIRZ 011700Z 0118/0218 03016KT 9999 BKN040"
    },
    {
      "icao": "LJLJ",
      "alert": "OK",
      "vis_m": 9999,
      "fzfg": false,
      "metar_trigger": false,
      "taf_trigger": false,
      "metar": "METAR LJLJ 011700Z 04003KT 310V100 9999 FEW060 SCT220 11/M02 Q1013 NOSIG",
      "taf": "TAF LJLJ 011700Z 0118/0218 08008KT 9999 FEW060"
    },
    {
      "icao": "LKMT",
      "alert": "OK",
      "vis_m": 9999,
      "fzfg": false,
      "metar_trigger": false,
      "taf_trigger": false,
      "metar": "METAR LKMT 011700Z 03013KT 9999 FEW021 BKN047 09/00 Q1019 NOSIG",
      "taf": "TAF LKMT 011700Z 0118/0218 04008KT 9999 SCT025 BKN040"
    },
    {
      "icao": "LKPR",
      "alert": "OK",
      "vis_m": 9999,
      "fzfg": false,
      "metar_trigger": false,
      "taf_trigger": false,
      "metar": "METAR LKPR 011700Z 35009KT 330V030 9999 FEW045 08/M01 Q1020 NOSIG",
      "taf": "TAF LKPR 011700Z 0118/0224 34005KT CAVOK"
    },
    {
      "icao": "LLBG",
      "alert": "OK",
      "vis_m": 9999,
      "fzfg": false,
      "metar_trigger": false,
      "taf_trigger": false,
      "metar": "METAR LLBG 011720Z 35005KT 310V020 9999 FEW050 20/16 Q1011 NOSIG RMK BKN110",
      "taf": "TAF LLBG 011705Z 0118/0218 09007KT CAVOK TX24/0209Z TN18/0202Z"
    },
    {
      "icao": "LMML",
      "alert": "OK",
      "vis_m": 9999,
      "fzfg": false,
      "metar_trigger": false,
      "taf_trigger": false,
      "metar": "METAR LMML 011715Z 26012KT 9999 FEW010 SCT015TCU 12/11 Q0993 TEMPO 5000 SHRA BKN015TCU",
      "taf": "TAF LMML 011700Z 0118/0218 29017G27KT 9999 SCT015"
    },
    {
      "icao": "LOWW",
      "alert": "OK",
      "vis_m": 9999,
      "fzfg": false,
      "metar_trigger": false,
      "taf_trigger": false,
      "metar": "METAR LOWW 011720Z 02014KT 9999 FEW050 10/M01 Q1018 NOSIG",
      "taf": "TAF LOWW 011715Z 0118/0224 34012KT 9999 FEW030 SCT050 TX11/0214Z TN07/0206Z"
    },
    {
      "icao": "LPFR",
      "alert": "OK",
      "vis_m": 9999,
      "fzfg": false,
      "metar_trigger": false,
      "taf_trigger": false,
      "metar": "METAR LPFR 011700Z 22007KT 190V250 CAVOK 18/10 Q1020",
      "taf": "TAF LPFR 011700Z 0118/0218 23007KT CAVOK"
    },
    {
      "icao": "LPMA",
      "alert": "OK",
      "vis_m": 9999,
      "fzfg": false,
      "metar_trigger": false,
      "taf_trigger": false,
      "metar": "METAR LPMA 011700Z 05010KT 020V080 9999 FEW015 20/09 Q1022",
      "taf": "TAF LPMA 011700Z 0118/0218 03013KT 9999 SCT015"
    },
    {
      "icao": "LPPR",
      "alert": "OK",
      "vis_m": 9999,
      "fzfg": false,
      "metar_trigger": false,
      "taf_trigger": false,
      "metar": "METAR LPPR 011700Z 33008KT 300V360 CAVOK 17/10 Q1023",
      "taf": "TAF LPPR 011700Z 0118/0218 33010KT CAVOK"
    },
    {
      "icao": "LPPS",
      "alert": "OK",
      "vis_m": 9999,
      "fzfg": false,
      "metar_trigger": false,
      "taf_trigger": false,
      "metar": "METAR LPPS 011700Z 02013KT 350V050 9999 FEW012 18/13 Q1023",
      "taf": "TAF LPPS 011700Z 0118/0224 03012KT 9999 SCT015"
    },
    {
      "icao": "LPPT",
      "alert": "OK",
      "vis_m": 9999,
      "fzfg": false,
      "metar_trigger": false,
      "taf_trigger": false,
      "metar": "METAR LPPT 011700Z 34013KT CAVOK 22/09 Q1021",
      "taf": "TAF LPPT 011700Z 0118/0224 33013KT CAVOK"
    },
    {
      "icao": "LQBK",
      "alert": "OK",
      "vis_m": 9999,
      "fzfg": false,
      "metar_trigger": false,
      "taf_trigger": false,
      "metar": "METAR LQBK 011700Z VRB02KT 9999 BKN040 07/04 Q1013 NOSIG",
      "taf": "TAF LQBK 011700Z 0118/0218 01005KT 9999 BKN040 TX10/0213Z TN05/0205Z"
    },
    {
      "icao": "LQSA",
      "alert": "OK",
      "vis_m": 9999,
      "fzfg": false,
      "metar_trigger": false,
      "taf_trigger": false,
      "metar": "METAR LQSA 011700Z 29005KT 9999 -RA SCT020 BKN035 05/04 Q1010 NOSIG",
      "taf": "TAF LQSA 011700Z 0118/0218 28006KT 9999 -RA SCT018 BKN035 TX06/0213Z TN03/0205Z"
    },
    {
      "icao": "LQTZ",
      "alert": "OK",
      "vis_m": 400,
      "fzfg": false,
      "metar_trigger": false,
      "taf_trigger": false,
      "metar": "METAR LQTZ 011700Z VRB01KT 0400 R09/0450D FG OVC027 03/03 Q1012",
      "taf": ""
    },
    {
      "icao": "LRBC",
      "alert": "OK",
      "vis_m": 9999,
      "fzfg": false,
      "metar_trigger": false,
      "taf_trigger": false,
      "metar": "METAR LRBC 011700Z 35010KT 9999 BKN054 09/05 Q1014",
      "taf": "TAF LRBC 011700Z 0118/0203 35010KT 9999 BKN045"
    },
    {
      "icao": "LRBS",
      "alert": "OK",
      "vis_m": 9999,
      "fzfg": false,
      "metar_trigger": false,
      "taf_trigger": false,
      "metar": "METAR LRBS 011700Z 07008KT CAVOK 12/08 Q1011 NOSIG",
      "taf": "TAF LRBS 011700Z 0118/0218 06006KT 9999 SCT030"
    },
    {
      "icao": "LRBV",
      "alert": "OK",
      "vis_m": 9999,
      "fzfg": false,
      "metar_trigger": false,
      "taf_trigger": false,
      "metar": "METAR LRBV 011700Z 02003KT 9999 FEW035 08/04 Q1012",
      "taf": "TAF LRBV 011700Z 0118/0203 VRB04KT CAVOK"
    },
    {
      "icao": "LRCL",
      "alert": "OK",
      "vis_m": 9999,
      "fzfg": false,
      "metar_trigger": false,
      "taf_trigger": false,
      "metar": "METAR LRCL 011700Z 00000KT 9999 BKN058 11/04 Q1013",
      "taf": "TAF LRCL 011700Z 0118/0203 VRB04KT 9999 BKN055"
    },
    {
      "icao": "LRCV",
      "alert": "OK",
      "vis_m": 9999,
      "fzfg": false,
      "metar_trigger": false,
      "taf_trigger": false,
      "metar": "METAR LRCV 011700Z 08006KT CAVOK 10/08 Q1010",
      "taf": "TAF LRCV 011700Z 0118/0203 09008KT CAVOK"
    },
    {
      "icao": "LRIA",
      "alert": "OK",
      "vis_m": 9999,
      "fzfg": false,
      "metar_trigger": false,
      "taf_trigger": false,
      "metar": "METAR LRIA 011700Z 29008KT 260V320 9999 OVC017 08/05 Q1015",
      "taf": "TAF LRIA 011700Z 0118/0203 30010KT 9999 OVC015"
    },
    {
      "icao": "LROP",
      "alert": "OK",
      "vis_m": 9999,
      "fzfg": false,
      "metar_trigger": false,
      "taf_trigger": false,
      "metar": "METAR LROP 011700Z 08009KT 9999 SCT028 12/07 Q1012 NOSIG",
      "taf": "TAF LROP 011700Z 0118/0218 07012KT 9999 SCT030"
    },
    {
      "icao": "LRSB",
      "alert": "OK",
      "vis_m": 9999,
      "fzfg": false,
      "metar_trigger": false,
      "taf_trigger": false,
      "metar": "METAR LRSB 011700Z 10004KT 9999 FEW022 BKN030 10/06 Q1012",
      "taf": "TAF LRSB 011700Z 0118/0218 VRB04KT 9999 BKN030"
    },
    {
      "icao": "LRSM",
      "alert": "OK",
      "vis_m": 9999,
      "fzfg": false,
      "metar_trigger": false,
      "taf_trigger": false,
      "metar": "METAR LRSM 011700Z AUTO 32011KT 9999 OVC050/// 11/03 Q1014",
      "taf": "TAF LRSM 011100Z 0112/0121 01010KT CAVOK"
    },
    {
      "icao": "LRSV",
      "alert": "OK",
      "vis_m": 9999,
      "fzfg": false,
      "metar_trigger": false,
      "taf_trigger": false,
      "metar": "METAR LRSV 011700Z 32011KT 9999 BKN037 06/03 Q1014",
      "taf": "TAF LRSV 011700Z 0118/0203 32012KT 9999 BKN035"
    },
    {
      "icao": "LRTM",
      "alert": "OK",
      "vis_m": 9999,
      "fzfg": false,
      "metar_trigger": false,
      "taf_trigger": false,
      "metar": "METAR LRTM 011700Z 28002KT 9999 FEW030 10/05 Q1013",
      "taf": "TAF LRTM 011700Z 0118/0203 VRB04KT CAVOK"
    },
    {
      "icao": "LRTR",
      "alert": "OK",
      "vis_m": 9999,
      "fzfg": false,
      "metar_trigger": false,
      "taf_trigger": false,
      "metar": "METAR LRTR 011700Z 01013KT CAVOK 11/04 Q1011",
      "taf": "TAF LRTR 011700Z 0118/0218 01010KT CAVOK"
    },
    {
      "icao": "LTAC",
      "alert": "OK",
      "vis_m": 9999,
      "fzfg": false,
      "metar_trigger": false,
      "taf_trigger": false,
      "metar": "METAR LTAC 011720Z 09004KT 030V140 9999 SCT040 BKN100 14/04 Q1010 NOSIG RMK RWY21C 07004KT 030V090 RWY03L 07005KT 040V100 RWY21R 07005KT 050V120 RWY03R 07003KT RWY21L VRB01KT",
      "taf": "TAF LTAC 011640Z 0118/0218 14008KT 9999 SCT040 BKN100"
    },
    {
      "icao": "LTFM",
      "alert": "OK",
      "vis_m": 9999,
      "fzfg": false,
      "metar_trigger": false,
      "taf_trigger": false,
      "metar": "METAR LTFM 011720Z 07014KT 9999 -RA SCT006 SCT032 BKN090 10/09 Q1008 NOSIG RMK RWY17L 07012KT RWY34L 06013KT RWY16R 07014KT RWY36 07011KT RWY18 07012KT",
      "taf": "TAF LTFM 011640Z 0118/0224 06017G27KT 6000 -RA SCT006 SCT032 BKN090"
    },
    {
      "icao": "LUKK",
      "alert": "OK",
      "vis_m": 9999,
      "fzfg": false,
      "metar_trigger": false,
      "taf_trigger": false,
      "metar": "METAR LUKK 011700Z 30008KT 9999 OVC015 09/07 Q1014 NOSIG",
      "taf": "TAF LUKK 011712Z 0118/0218 35006KT 9999 BKN015"
    },
    {
      "icao": "LWOH",
      "alert": "OK",
      "vis_m": 9999,
      "fzfg": false,
      "metar_trigger": false,
      "taf_trigger": false,
      "metar": "METAR LWOH 011720Z 33008KT 300V010 9999 FEW020 BKN040 07/04 Q1002",
      "taf": "TAF LWOH 011720Z 0118/0218 34010KT 9999 RA SCT020 OVC040"
    },
    {
      "icao": "LWSK",
      "alert": "OK",
      "vis_m": 3500,
      "fzfg": false,
      "metar_trigger": false,
      "taf_trigger": false,
      "metar": "METAR LWSK 011720Z VRB01KT 3500 -RA SCT005 BKN020 OVC045 08/07 Q1006 NOSIG",
      "taf": "TAF LWSK 011720Z 0118/0218 VRB02KT 3000 RA SCT004 BKN020 OVC040"
    },
    {
      "icao": "LYBE",
      "alert": "OK",
      "vis_m": 9999,
      "fzfg": false,
      "metar_trigger": false,
      "taf_trigger": false,
      "metar": "METAR LYBE 011700Z 01005KT CAVOK 11/06 Q1011 NOSIG",
      "taf": "TAF LYBE 011700Z 0118/0218 01008KT CAVOK TX11/0213Z TN06/0206Z"
    },
    {
      "icao": "LYNI",
      "alert": "OK",
      "vis_m": 9999,
      "fzfg": false,
      "metar_trigger": false,
      "taf_trigger": false,
      "metar": "METAR LYNI 011700Z 35012KT 9999 FEW033 BKN060 09/06 Q1008 NOSIG",
      "taf": "TAF LYNI 011700Z 0118/0218 34012KT 9999 SCT050 BKN090 TX10/0213Z TN06/0206Z"
    },
    {
      "icao": "LYPG",
      "alert": "OK",
      "vis_m": 9999,
      "fzfg": false,
      "metar_trigger": false,
      "taf_trigger": false,
      "metar": "METAR LYPG 011700Z 35012KT 9999 FEW040 OVC070 14/02 Q1002 NOSIG",
      "taf": "TAF LYPG 011700Z 0118/0218 02015KT 9999 FEW040 BKN080 TX16/0212Z TN10/0204Z"
    },
    {
      "icao": "LZIB",
      "alert": "OK",
      "vis_m": 9999,
      "fzfg": false,
      "metar_trigger": false,
      "taf_trigger": false,
      "metar": "METAR LZIB 011700Z 34012KT CAVOK 10/01 Q1017 NOSIG",
      "taf": "TAF LZIB 011715Z 0118/0218 35014KT CAVOK"
    },
    {
      "icao": "LZKZ",
      "alert": "OK",
      "vis_m": 9999,
      "fzfg": false,
      "metar_trigger": false,
      "taf_trigger": false,
      "metar": "METAR LZKZ 011700Z 02014KT 9999 SCT030 BKN040 06/02 Q1016 NOSIG",
      "taf": "TAF LZKZ 011715Z 0118/0218 01012KT 9999 SCT030"
    },
    {
      "icao": "LZTT",
      "alert": "OK",
      "vis_m": 9999,
      "fzfg": false,
      "metar_trigger": false,
      "taf_trigger": false,
      "metar": "METAR LZTT 011700Z 23004KT 9999 -RASN FEW005 BKN030 OVC040 01/01 Q1016 NOSIG",
      "taf": "TAF LZTT 011715Z 0118/0218 23006KT 9999 FEW030 BKN060"
    },
    {
      "icao": "OEJN",
      "alert": "OK",
      "vis_m": 9999,
      "fzfg": false,
      "metar_trigger": false,
      "taf_trigger": false,
      "metar": "METAR OEJN 011700Z 33011KT CAVOK 28/20 Q1007 NOSIG",
      "taf": "TAF OEJN 011700Z 0118/0224 VRB03KT 7000 NSC"
    },
    {
      "icao": "OEMA",
      "alert": "OK",
      "vis_m": 9999,
      "fzfg": false,
      "metar_trigger": false,
      "taf_trigger": false,
      "metar": "METAR OEMA 011700Z 11008KT 9999 FEW045 32/00 Q1014 NOSIG",
      "taf": "TAF OEMA 011700Z 0118/0224 VRB03KT 9999 SCT045"
    },
    {
      "icao": "OJAI",
      "alert": "OK",
      "vis_m": null,
      "fzfg": false,
      "metar_trigger": false,
      "taf_trigger": false,
      "metar": "",
      "taf": "TAF OJAI 011700Z 0118/0224 12014KT 4000 BR FEW025TCU SCT030"
    },
    {
      "icao": "OMAA",
      "alert": "OK",
      "vis_m": null,
      "fzfg": false,
      "metar_trigger": false,
      "taf_trigger": false,
      "metar": "",
      "taf": ""
    },
    {
      "icao": "OMDB",
      "alert": "OK",
      "vis_m": null,
      "fzfg": false,
      "metar_trigger": false,
      "taf_trigger": false,
      "metar": "",
      "taf": ""
    },
    {
      "icao": "UAAA",
      "alert": "OK",
      "vis_m": 9999,
      "fzfg": false,
      "metar_trigger": false,
      "taf_trigger": false,
      "metar": "METAR UAAA 011700Z 16002MPS 9999 SCT200 13/03 Q1013 NOSIG",
      "taf": "TAF UAAA 011704Z 0118/0218 17003MPS 9999 SCT100 TX26/0210Z TN09/0201Z"
    },
    {
      "icao": "UBBB",
      "alert": "OK",
      "vis_m": 9999,
      "fzfg": false,
      "metar_trigger": false,
      "taf_trigger": false,
      "metar": "METAR UBBB 011700Z 13002KT CAVOK 13/11 Q1015 NOSIG",
      "taf": "TAF UBBB 011703Z 0118/0218 VRB04KT 9999 SCT030 TX19/0210Z TN08/0201Z"
    },
    {
      "icao": "UDSG",
      "alert": "OK",
      "vis_m": 9999,
      "fzfg": false,
      "metar_trigger": false,
      "taf_trigger": false,
      "metar": "METAR UDSG 011700Z 03001KT 9999 SCT049 06/M01 Q1017 NOSIG",
      "taf": "TAF UDSG 011658Z 0118/0218 24006KT 9999 SCT050"
    },
    {
      "icao": "UDYZ",
      "alert": "OK",
      "vis_m": 9999,
      "fzfg": false,
      "metar_trigger": false,
      "taf_trigger": false,
      "metar": "METAR UDYZ 011700Z 23004KT 9999 FEW046 13/01 Q1015 NOSIG",
      "taf": "TAF UDYZ 011700Z 0118/0218 20006KT 9999 FEW040"
    },
    {
      "icao": "UGKO",
      "alert": "OK",
      "vis_m": 9999,
      "fzfg": false,
      "metar_trigger": false,
      "taf_trigger": false,
      "metar": "METAR UGKO 011700Z 16005KT 9999 SCT094 16/09 Q1013 NOSIG",
      "taf": "TAF UGKO 011700Z 0118/0218 09017KT CAVOK TX25/0212Z TN08/0201Z"
    }
  ]
}