{
  "ts_utc": "2026-05-25T23:51:04Z",
  "threshold_m": 150,
  "source": "stations_override.txt (ICAO list) + aviationweather.gov (METAR/TAF raw)",
  "station_count": 159,
  "stations": [
    {
      "icao": "BIKF",
      "alert": "OK",
      "vis_m": 9999,
      "fzfg": false,
      "metar_trigger": false,
      "taf_trigger": false,
      "metar": "METAR BIKF 252330Z 23009KT 9999 FEW014 SCT047 07/06 Q1017",
      "taf": "TAF BIKF 252212Z 2600/2700 24012KT 9999 -SHRA SCT015TCU BKN028 TX10/2613Z TN05/2601Z"
    },
    {
      "icao": "BKPR",
      "alert": "OK",
      "vis_m": 9999,
      "fzfg": false,
      "metar_trigger": false,
      "taf_trigger": false,
      "metar": "METAR BKPR 252330Z VRB01KT CAVOK 14/12 Q1027 NOSIG",
      "taf": "TAF BKPR 252330Z 2600/2624 01008KT 9999 FEW060"
    },
    {
      "icao": "EBCI",
      "alert": "OK",
      "vis_m": 9999,
      "fzfg": false,
      "metar_trigger": false,
      "taf_trigger": false,
      "metar": "METAR EBCI 252320Z 06003KT CAVOK 20/11 Q1031 NOSIG",
      "taf": "TAF EBCI 252310Z 2600/2706 06005KT CAVOK"
    },
    {
      "icao": "EDDB",
      "alert": "OK",
      "vis_m": 9999,
      "fzfg": false,
      "metar_trigger": false,
      "taf_trigger": false,
      "metar": "METAR EDDB 252320Z AUTO 25004KT CAVOK 15/12 Q1029 NOSIG",
      "taf": "TAF EDDB 252300Z 2600/2624 27004KT CAVOK"
    },
    {
      "icao": "EDDH",
      "alert": "OK",
      "vis_m": 9999,
      "fzfg": false,
      "metar_trigger": false,
      "taf_trigger": false,
      "metar": "METAR EDDH 252320Z AUTO VRB01KT CAVOK 14/13 Q1030 NOSIG",
      "taf": "TAF EDDH 252300Z 2600/2706 VRB03KT CAVOK"
    },
    {
      "icao": "EDDK",
      "alert": "OK",
      "vis_m": 9999,
      "fzfg": false,
      "metar_trigger": false,
      "taf_trigger": false,
      "metar": "METAR EDDK 252320Z AUTO VRB01KT CAVOK 15/10 Q1031 NOSIG",
      "taf": "TAF EDDK 252300Z 2600/2706 12003KT CAVOK"
    },
    {
      "icao": "EDDN",
      "alert": "OK",
      "vis_m": 9999,
      "fzfg": false,
      "metar_trigger": false,
      "taf_trigger": false,
      "metar": "METAR EDDN 252320Z AUTO 34003KT CAVOK 16/12 Q1030",
      "taf": "TAF EDDN 252300Z 2600/2624 VRB03KT CAVOK"
    },
    {
      "icao": "EDDS",
      "alert": "OK",
      "vis_m": 9999,
      "fzfg": false,
      "metar_trigger": false,
      "taf_trigger": false,
      "metar": "METAR EDDS 252320Z AUTO 29002KT CAVOK 18/12 Q1030",
      "taf": "TAF EDDS 252300Z 2600/2624 VRB03KT CAVOK"
    },
    {
      "icao": "EDFH",
      "alert": "OK",
      "vis_m": 9999,
      "fzfg": false,
      "metar_trigger": false,
      "taf_trigger": false,
      "metar": "METAR EDFH 252320Z 07004KT CAVOK 17/10 Q1031",
      "taf": "TAF EDFH 252300Z 2600/2624 07005KT CAVOK"
    },
    {
      "icao": "EDJA",
      "alert": "OK",
      "vis_m": 9999,
      "fzfg": false,
      "metar_trigger": false,
      "taf_trigger": false,
      "metar": "METAR EDJA 252320Z AUTO VRB01KT 9999 // NCD 15/11 Q1031",
      "taf": "TAF EDJA 251700Z 2518/2603 04006KT CAVOK"
    },
    {
      "icao": "EDLW",
      "alert": "OK",
      "vis_m": 9999,
      "fzfg": false,
      "metar_trigger": false,
      "taf_trigger": false,
      "metar": "METAR EDLW 252320Z AUTO 16007KT 9999 // NCD 17/10 Q1031",
      "taf": "TAF EDLW 251700Z 2518/2618 04004KT CAVOK"
    },
    {
      "icao": "EDNY",
      "alert": "OK",
      "vis_m": 9999,
      "fzfg": false,
      "metar_trigger": false,
      "taf_trigger": false,
      "metar": "METAR EDNY 252320Z AUTO 07004KT 9999 // NCD 16/12 Q1029",
      "taf": "TAF EDNY 251700Z 2518/2603 03004KT CAVOK"
    },
    {
      "icao": "EDSB",
      "alert": "OK",
      "vis_m": 9999,
      "fzfg": false,
      "metar_trigger": false,
      "taf_trigger": false,
      "metar": "METAR EDSB 252320Z AUTO 04005KT 9999 // NCD 18/13 Q1029",
      "taf": "TAF EDSB 252300Z 2600/2624 01004KT CAVOK"
    },
    {
      "icao": "EETN",
      "alert": "OK",
      "vis_m": 9999,
      "fzfg": false,
      "metar_trigger": false,
      "taf_trigger": false,
      "metar": "METAR EETN 252320Z 29012KT CAVOK 10/06 Q1014",
      "taf": "TAF EETN 252330Z 2600/2624 29012KT CAVOK"
    },
    {
      "icao": "EFTU",
      "alert": "OK",
      "vis_m": 9999,
      "fzfg": false,
      "metar_trigger": false,
      "taf_trigger": false,
      "metar": "METAR EFTU 252320Z AUTO 29006KT CAVOK 07/03 Q1015",
      "taf": "TAF EFTU 252328Z 2600/2624 30007KT CAVOK"
    },
    {
      "icao": "EGBB",
      "alert": "OK",
      "vis_m": 9999,
      "fzfg": false,
      "metar_trigger": false,
      "taf_trigger": false,
      "metar": "METAR EGBB 252320Z 19003KT CAVOK 19/15 Q1029",
      "taf": "TAF EGBB 252253Z 2600/2624 18004KT CAVOK"
    },
    {
      "icao": "EGGP",
      "alert": "OK",
      "vis_m": 9999,
      "fzfg": false,
      "metar_trigger": false,
      "taf_trigger": false,
      "metar": "METAR EGGP 252320Z VRB02KT CAVOK 19/13 Q1028",
      "taf": "TAF EGGP 252259Z 2600/2624 VRB03KT CAVOK"
    },
    {
      "icao": "EGGW",
      "alert": "OK",
      "vis_m": 9999,
      "fzfg": false,
      "metar_trigger": false,
      "taf_trigger": false,
      "metar": "METAR EGGW 252320Z AUTO 14006KT 9999 NCD 20/14 Q1030",
      "taf": "TAF EGGW 252302Z 2600/2624 16007KT CAVOK"
    },
    {
      "icao": "EGKK",
      "alert": "OK",
      "vis_m": 9999,
      "fzfg": false,
      "metar_trigger": false,
      "taf_trigger": false,
      "metar": "METAR EGKK 252320Z 07004KT CAVOK 20/14 Q1029",
      "taf": "TAF EGKK 252253Z 2600/2706 08004KT CAVOK"
    },
    {
      "icao": "EGNM",
      "alert": "OK",
      "vis_m": 9999,
      "fzfg": false,
      "metar_trigger": false,
      "taf_trigger": false,
      "metar": "METAR EGNM 252320Z 26008KT CAVOK 21/15 Q1029",
      "taf": "TAF EGNM 252256Z 2600/2624 VRB04KT CAVOK"
    },
    {
      "icao": "EGPD",
      "alert": "OK",
      "vis_m": 9999,
      "fzfg": false,
      "metar_trigger": false,
      "taf_trigger": false,
      "metar": "METAR EGPD 252320Z COR AUTO VRB02KT 9999 NCD 12/10 Q1028 NOSIG",
      "taf": "TAF EGPD 252254Z 2600/2624 VRB03KT 9999 FEW020"
    },
    {
      "icao": "EGPF",
      "alert": "OK",
      "vis_m": 9999,
      "fzfg": false,
      "metar_trigger": false,
      "taf_trigger": false,
      "metar": "METAR EGPF 252320Z AUTO 23004KT 9999 NCD 12/11 Q1029",
      "taf": "TAF EGPF 252258Z 2600/2624 26006KT 9999 FEW030"
    },
    {
      "icao": "EHBK",
      "alert": "OK",
      "vis_m": 9999,
      "fzfg": false,
      "metar_trigger": false,
      "taf_trigger": false,
      "metar": "METAR EHBK 252325Z AUTO 09005KT 9999 NCD 19/11 Q1030",
      "taf": "TAF EHBK 252300Z 2600/2706 06005KT CAVOK"
    },
    {
      "icao": "EHEH",
      "alert": "OK",
      "vis_m": 9999,
      "fzfg": false,
      "metar_trigger": false,
      "taf_trigger": false,
      "metar": "METAR EHEH 252325Z AUTO 00000KT 9999 ////// 14/13 Q1030 BLU",
      "taf": "TAF EHEH 251712Z 2518/2624 04005KT CAVOK"
    },
    {
      "icao": "EKBI",
      "alert": "OK",
      "vis_m": 9999,
      "fzfg": false,
      "metar_trigger": false,
      "taf_trigger": false,
      "metar": "METAR EKBI 252320Z AUTO 25004KT 9999 NCD 11/10 Q1029",
      "taf": "TAF EKBI 252327Z 2600/2624 25007KT CAVOK"
    },
    {
      "icao": "EKCH",
      "alert": "OK",
      "vis_m": 9999,
      "fzfg": false,
      "metar_trigger": false,
      "taf_trigger": false,
      "metar": "METAR EKCH 252320Z AUTO 28012KT 9999 NCD 16/11 Q1027 NOSIG",
      "taf": "TAF EKCH 252327Z 2600/2624 28010KT CAVOK"
    },
    {
      "icao": "ENAL",
      "alert": "OK",
      "vis_m": 9999,
      "fzfg": false,
      "metar_trigger": false,
      "taf_trigger": false,
      "metar": "METAR ENAL 252320Z AUTO 24016KT 9999 SCT018/// SCT026/// BKN053/// 10/08 Q1020",
      "taf": "TAF ENAL 252300Z 2600/2609 23012KT 9999 -SHRA FEW008 BKN018"
    },
    {
      "icao": "ENBR",
      "alert": "OK",
      "vis_m": 3700,
      "fzfg": false,
      "metar_trigger": false,
      "taf_trigger": false,
      "metar": "METAR ENBR 252320Z 19005KT 3700 BR OVC002 09/09 Q1026 RMK WIND 1200FT 24008KT",
      "taf": "TAF ENBR 252300Z 2600/2624 19006KT 8000 -RADZ BKN006"
    },
    {
      "icao": "ENGM",
      "alert": "OK",
      "vis_m": 9999,
      "fzfg": false,
      "metar_trigger": false,
      "taf_trigger": false,
      "metar": "METAR ENGM 252320Z 23005KT 200V260 CAVOK 14/05 Q1020",
      "taf": "TAF ENGM 252300Z 2600/2624 24008KT CAVOK"
    },
    {
      "icao": "ENHD",
      "alert": "OK",
      "vis_m": 9999,
      "fzfg": false,
      "metar_trigger": false,
      "taf_trigger": false,
      "metar": "METAR ENHD 252320Z AUTO 24006KT 9999 -RA NCD 11/10 Q1027",
      "taf": ""
    },
    {
      "icao": "ENTC",
      "alert": "OK",
      "vis_m": 9999,
      "fzfg": false,
      "metar_trigger": false,
      "taf_trigger": false,
      "metar": "METAR ENTC 252320Z AUTO 19010KT 9999 SCT020/// BKN027/// OVC036/// 07/04 Q1011 RMK WIND 2600FT 19011KT",
      "taf": "TAF ENTC 252300Z 2600/2624 23008KT 9999 -SHRA SCT020 BKN030"
    },
    {
      "icao": "ENTO",
      "alert": "OK",
      "vis_m": 4100,
      "fzfg": false,
      "metar_trigger": false,
      "taf_trigger": false,
      "metar": "METAR ENTO 252320Z AUTO 27006KT 4100 // NCD 15/06 Q1023",
      "taf": "TAF ENTO 252300Z 2600/2624 28008KT CAVOK"
    },
    {
      "icao": "ENVA",
      "alert": "OK",
      "vis_m": 9999,
      "fzfg": false,
      "metar_trigger": false,
      "taf_trigger": false,
      "metar": "METAR ENVA 252320Z AUTO 22008KT 190V250 9999 -RA OVC036/// 10/08 Q1017 RMK WIND 670FT 22013KT",
      "taf": "TAF ENVA 252300Z 2600/2624 24008KT 9999 -SHRA SCT025 BKN035"
    },
    {
      "icao": "ENZV",
      "alert": "OK",
      "vis_m": 9999,
      "fzfg": false,
      "metar_trigger": false,
      "taf_trigger": false,
      "metar": "METAR ENZV 252320Z VRB01KT 9999 SCT006 11/10 Q1027",
      "taf": "TAF ENZV 252300Z 2600/2624 28003KT 9999 -DZ SCT008 BKN018"
    },
    {
      "icao": "EPGD",
      "alert": "OK",
      "vis_m": 9999,
      "fzfg": false,
      "metar_trigger": false,
      "taf_trigger": false,
      "metar": "METAR EPGD 252330Z 28012KT CAVOK 15/11 Q1024",
      "taf": "TAF EPGD 252330Z 2600/2624 28012KT CAVOK"
    },
    {
      "icao": "EPKK",
      "alert": "OK",
      "vis_m": 9999,
      "fzfg": false,
      "metar_trigger": false,
      "taf_trigger": false,
      "metar": "METAR EPKK 252330Z VRB01KT CAVOK 14/10 Q1028",
      "taf": "TAF EPKK 252330Z 2600/2624 VRB02KT CAVOK"
    },
    {
      "icao": "EPKT",
      "alert": "OK",
      "vis_m": 9999,
      "fzfg": false,
      "metar_trigger": false,
      "taf_trigger": false,
      "metar": "METAR EPKT 252330Z 29001KT CAVOK 11/09 Q1028",
      "taf": "TAF EPKT 252330Z 2600/2624 26006KT CAVOK"
    },
    {
      "icao": "EPLB",
      "alert": "OK",
      "vis_m": 9999,
      "fzfg": false,
      "metar_trigger": false,
      "taf_trigger": false,
      "metar": "METAR EPLB 252330Z 29005KT CAVOK 17/11 Q1025",
      "taf": "TAF EPLB 252330Z 2600/2624 28006KT CAVOK"
    },
    {
      "icao": "EPMO",
      "alert": "OK",
      "vis_m": 9999,
      "fzfg": false,
      "metar_trigger": false,
      "taf_trigger": false,
      "metar": "METAR EPMO 252330Z 29007KT CAVOK 17/10 Q1025",
      "taf": "TAF EPMO 252330Z 2600/2624 24007KT CAVOK"
    },
    {
      "icao": "EPPO",
      "alert": "OK",
      "vis_m": 9999,
      "fzfg": false,
      "metar_trigger": false,
      "taf_trigger": false,
      "metar": "METAR EPPO 252330Z 32004KT CAVOK 17/11 Q1028",
      "taf": "TAF EPPO 252330Z 2600/2624 31005KT CAVOK"
    },
    {
      "icao": "EPRA",
      "alert": "OK",
      "vis_m": 9999,
      "fzfg": false,
      "metar_trigger": false,
      "taf_trigger": false,
      "metar": "METAR EPRA 252330Z 28010KT CAVOK 18/10 Q1025",
      "taf": "TAF EPRA 252330Z 2600/2609 27010KT CAVOK"
    },
    {
      "icao": "EPRZ",
      "alert": "OK",
      "vis_m": 9999,
      "fzfg": false,
      "metar_trigger": false,
      "taf_trigger": false,
      "metar": "METAR EPRZ 252330Z 26009KT CAVOK 14/10 Q1026",
      "taf": "TAF EPRZ 252330Z 2600/2624 27006KT CAVOK"
    },
    {
      "icao": "EPSC",
      "alert": "OK",
      "vis_m": 9999,
      "fzfg": false,
      "metar_trigger": false,
      "taf_trigger": false,
      "metar": "METAR EPSC 252330Z 13001KT CAVOK 11/10 Q1028",
      "taf": "TAF EPSC 252330Z 2600/2624 VRB02KT CAVOK"
    },
    {
      "icao": "EPSY",
      "alert": "OK",
      "vis_m": 9999,
      "fzfg": false,
      "metar_trigger": false,
      "taf_trigger": false,
      "metar": "METAR EPSY 252330Z 28007KT 240V320 CAVOK 16/06 Q1023",
      "taf": "TAF EPSY 252330Z 2600/2609 30006KT CAVOK"
    },
    {
      "icao": "EPWA",
      "alert": "OK",
      "vis_m": 9999,
      "fzfg": false,
      "metar_trigger": false,
      "taf_trigger": false,
      "metar": "METAR EPWA 252330Z 27007KT CAVOK 16/11 Q1025 NOSIG",
      "taf": "TAF EPWA 252330Z 2600/2624 26005KT CAVOK"
    },
    {
      "icao": "EPWR",
      "alert": "OK",
      "vis_m": 9999,
      "fzfg": false,
      "metar_trigger": false,
      "taf_trigger": false,
      "metar": "METAR EPWR 252330Z 28005KT CAVOK 17/12 Q1028",
      "taf": "TAF EPWR 252330Z 2600/2624 VRB02KT CAVOK"
    },
    {
      "icao": "ESGG",
      "alert": "OK",
      "vis_m": 9999,
      "fzfg": false,
      "metar_trigger": false,
      "taf_trigger": false,
      "metar": "METAR ESGG 252320Z 25004KT CAVOK 11/10 Q1024",
      "taf": "TAF ESGG 252330Z 2600/2624 27008KT CAVOK"
    },
    {
      "icao": "ESKN",
      "alert": "OK",
      "vis_m": 9999,
      "fzfg": false,
      "metar_trigger": false,
      "taf_trigger": false,
      "metar": "METAR ESKN 252320Z 30006KT 9999 FEW040 BKN065 15/11 Q1019",
      "taf": "TAF ESKN 252330Z 2600/2624 28007KT CAVOK"
    },
    {
      "icao": "ESMS",
      "alert": "OK",
      "vis_m": 9999,
      "fzfg": false,
      "metar_trigger": false,
      "taf_trigger": false,
      "metar": "METAR ESMS 252320Z 30010KT CAVOK 16/11 Q1026",
      "taf": "TAF ESMS 252327Z 2600/2624 29009KT CAVOK"
    },
    {
      "icao": "ESSA",
      "alert": "OK",
      "vis_m": 9999,
      "fzfg": false,
      "metar_trigger": false,
      "taf_trigger": false,
      "metar": "METAR ESSA 252320Z 31005KT CAVOK 12/06 Q1018 NOSIG",
      "taf": "TAF ESSA 252330Z 2600/2624 29004KT CAVOK"
    },
    {
      "icao": "EYKA",
      "alert": "OK",
      "vis_m": 9999,
      "fzfg": false,
      "metar_trigger": false,
      "taf_trigger": false,
      "metar": "METAR EYKA 252320Z 28014KT CAVOK 14/11 Q1018",
      "taf": "TAF EYKA 252300Z 2600/2624 28010KT 9000 SCT045"
    },
    {
      "icao": "EYPA",
      "alert": "OK",
      "vis_m": 9999,
      "fzfg": false,
      "metar_trigger": false,
      "taf_trigger": false,
      "metar": "METAR EYPA 252320Z AUTO VRB02KT 9999 FEW080/// 12/10 Q1019",
      "taf": "TAF EYPA 252300Z 2600/2624 VRB03KT 9000 NSC"
    },
    {
      "icao": "EYVI",
      "alert": "OK",
      "vis_m": 9999,
      "fzfg": false,
      "metar_trigger": false,
      "taf_trigger": false,
      "metar": "METAR EYVI 252320Z 26010KT CAVOK 14/09 Q1017 NOSIG",
      "taf": "TAF EYVI 252300Z 2600/2624 28010KT 9000 BKN030"
    },
    {
      "icao": "GCFV",
      "alert": "OK",
      "vis_m": 9999,
      "fzfg": false,
      "metar_trigger": false,
      "taf_trigger": false,
      "metar": "METAR GCFV 252330Z AUTO 30006KT CAVOK 22/16 Q1018",
      "taf": "TAF GCFV 252000Z 2521/2621 VRB05KT CAVOK TX33/2614Z TN20/2606Z"
    },
    {
      "icao": "GCLP",
      "alert": "OK",
      "vis_m": 9999,
      "fzfg": false,
      "metar_trigger": false,
      "taf_trigger": false,
      "metar": "METAR GCLP 252330Z 01017KT CAVOK 20/17 Q1018 NOSIG",
      "taf": "TAF GCLP 252000Z 2521/2621 02019KT CAVOK TX29/2614Z TN20/2606Z"
    },
    {
      "icao": "GCTS",
      "alert": "OK",
      "vis_m": 9999,
      "fzfg": false,
      "metar_trigger": false,
      "taf_trigger": false,
      "metar": "METAR GCTS 252330Z 08005KT CAVOK 20/17 Q1019 NOSIG",
      "taf": "TAF GCTS 252000Z 2521/2621 03010KT CAVOK TX30/2614Z TN21/2606Z"
    },
    {
      "icao": "GMAD",
      "alert": "OK",
      "vis_m": 9999,
      "fzfg": false,
      "metar_trigger": false,
      "taf_trigger": false,
      "metar": "METAR GMAD 252330Z 11003KT 050V140 CAVOK 25/11 Q1017 NOSIG",
      "taf": "TAF GMAD 252300Z 2600/2706 06008KT 8000 SCT040"
    },
    {
      "icao": "GMMN",
      "alert": "OK",
      "vis_m": 9999,
      "fzfg": false,
      "metar_trigger": false,
      "taf_trigger": false,
      "metar": "METAR GMMN 252330Z 04006KT CAVOK 27/13 Q1019 NOSIG",
      "taf": "TAF GMMN 252300Z 2600/2706 06008KT CAVOK"
    },
    {
      "icao": "GMMX",
      "alert": "OK",
      "vis_m": 8000,
      "fzfg": false,
      "metar_trigger": false,
      "taf_trigger": false,
      "metar": "METAR GMMX 252330Z VRB02KT 8000 SCT030 SCT100 28/12 Q1019 NOSIG",
      "taf": "TAF GMMX 252300Z 2600/2706 16006KT 8000 SCT030 SCT100"
    },
    {
      "icao": "HEGN",
      "alert": "OK",
      "vis_m": 9999,
      "fzfg": false,
      "metar_trigger": false,
      "taf_trigger": false,
      "metar": "METAR HEGN 252300Z 28006KT CAVOK 25/09 Q1013 NOSIG",
      "taf": "TAF HEGN 252300Z 2600/2706 29008G20KT CAVOK"
    },
    {
      "icao": "HEMA",
      "alert": "OK",
      "vis_m": 9999,
      "fzfg": false,
      "metar_trigger": false,
      "taf_trigger": false,
      "metar": "METAR HEMA 252300Z 31012KT CAVOK 26/10 Q1011 NOSIG",
      "taf": "TAF HEMA 252300Z 2600/2706 29008G20KT CAVOK"
    },
    {
      "icao": "HESH",
      "alert": "OK",
      "vis_m": 9999,
      "fzfg": false,
      "metar_trigger": false,
      "taf_trigger": false,
      "metar": "METAR HESH 252300Z 35012KT CAVOK 27/14 Q1011 NOSIG",
      "taf": "TAF HESH 252300Z 2600/2706 32013KT CAVOK"
    },
    {
      "icao": "HESX",
      "alert": "OK",
      "vis_m": 9999,
      "fzfg": false,
      "metar_trigger": false,
      "taf_trigger": false,
      "metar": "METAR HESX 252300Z 04004KT CAVOK 19/13 Q1017 NOSIG",
      "taf": "TAF HESX 252300Z 2600/2706 03010KT CAVOK"
    },
    {
      "icao": "LATI",
      "alert": "OK",
      "vis_m": 9999,
      "fzfg": false,
      "metar_trigger": false,
      "taf_trigger": false,
      "metar": "METAR LATI 252350Z VRB03KT CAVOK 17/11 Q1024 NOSIG",
      "taf": "TAF LATI 252300Z 2600/2624 VRB04KT CAVOK TX32/2612Z TN13/2604Z"
    },
    {
      "icao": "LBPD",
      "alert": "OK",
      "vis_m": 9999,
      "fzfg": false,
      "metar_trigger": false,
      "taf_trigger": false,
      "metar": "METAR LBPD 252330Z AUTO 15004KT 9999 OVC088/// 20/13 Q1023",
      "taf": "TAF LBPD 252300Z 2600/2624 VRB03KT 9999 SCT060"
    },
    {
      "icao": "LBSF",
      "alert": "OK",
      "vis_m": 9999,
      "fzfg": false,
      "metar_trigger": false,
      "taf_trigger": false,
      "metar": "METAR LBSF 252330Z AUTO 14004KT 110V170 9999 NSC 14/11 Q1026 NOSIG",
      "taf": "TAF LBSF 252300Z 2600/2624 VRB03KT 9999 SCT060"
    },
    {
      "icao": "LBWN",
      "alert": "OK",
      "vis_m": 9999,
      "fzfg": false,
      "metar_trigger": false,
      "taf_trigger": false,
      "metar": "METAR LBWN 252330Z AUTO 23004KT 210V020 9999 NSC 17/14 Q1021 NOSIG",
      "taf": "TAF LBWN 252300Z 2600/2624 VRB03KT 9999 SCT040"
    },
    {
      "icao": "LCLK",
      "alert": "OK",
      "vis_m": 9999,
      "fzfg": false,
      "metar_trigger": false,
      "taf_trigger": false,
      "metar": "METAR LCLK 252330Z 32004KT CAVOK 18/17 Q1015 NOSIG",
      "taf": "TAF LCLK 252330Z 2600/2700 32007KT 9999 FEW025"
    },
    {
      "icao": "LCPH",
      "alert": "OK",
      "vis_m": 9999,
      "fzfg": false,
      "metar_trigger": false,
      "taf_trigger": false,
      "metar": "METAR LCPH 252330Z AUTO 02006KT 9999 NCD 18/15 Q1015 NOSIG",
      "taf": "TAF LCPH 252330Z 2600/2700 03005KT 9999 FEW020"
    },
    {
      "icao": "LEAL",
      "alert": "OK",
      "vis_m": 9999,
      "fzfg": false,
      "metar_trigger": false,
      "taf_trigger": false,
      "metar": "METAR LEAL 252330Z VRB02KT CAVOK 21/15 Q1027 NOSIG",
      "taf": "TAF LEAL 252300Z 2600/2624 VRB04KT CAVOK TX28/2612Z TN15/2605Z"
    },
    {
      "icao": "LEBB",
      "alert": "OK",
      "vis_m": 9999,
      "fzfg": false,
      "metar_trigger": false,
      "taf_trigger": false,
      "metar": "METAR LEBB 252330Z AUTO VRB02KT CAVOK 25/11 Q1023",
      "taf": "TAF LEBB 252300Z 2600/2624 13009KT CAVOK TX38/2615Z TN16/2605Z"
    },
    {
      "icao": "LEBL",
      "alert": "OK",
      "vis_m": 9999,
      "fzfg": false,
      "metar_trigger": false,
      "taf_trigger": false,
      "metar": "METAR LEBL 252330Z 33005KT CAVOK 20/13 Q1028 NOSIG",
      "taf": "TAF LEBL 252300Z 2600/2624 VRB04KT 9999 FEW010 TX27/2612Z TN18/2605Z"
    },
    {
      "icao": "LECH",
      "alert": "OK",
      "vis_m": 9999,
      "fzfg": false,
      "metar_trigger": false,
      "taf_trigger": false,
      "metar": "METAR LECH 252330Z AUTO 00000KT CAVOK 16/11 Q1029",
      "taf": "TAF LECH 252300Z 2600/2624 VRB04KT CAVOK TX30/2613Z TN13/2605Z"
    },
    {
      "icao": "LEMD",
      "alert": "OK",
      "vis_m": 9999,
      "fzfg": false,
      "metar_trigger": false,
      "taf_trigger": false,
      "metar": "METAR LEMD 252330Z VRB02KT CAVOK 21/05 Q1027 NOSIG",
      "taf": "TAF LEMD 252300Z 2600/2706 VRB04KT CAVOK TX33/2616Z TN14/2605Z"
    },
    {
      "icao": "LEMG",
      "alert": "OK",
      "vis_m": 9999,
      "fzfg": false,
      "metar_trigger": false,
      "taf_trigger": false,
      "metar": "METAR LEMG 252330Z 28004KT CAVOK 18/12 Q1027 NOSIG",
      "taf": "TAF LEMG 252300Z 2600/2624 29006KT CAVOK TX27/2614Z TN17/2606Z"
    },
    {
      "icao": "LEVC",
      "alert": "OK",
      "vis_m": 9999,
      "fzfg": false,
      "metar_trigger": false,
      "taf_trigger": false,
      "metar": "METAR LEVC 252330Z 29004KT CAVOK 18/15 Q1028 NOSIG",
      "taf": "TAF LEVC 252300Z 2600/2624 VRB04KT CAVOK TX30/2612Z TN15/2605Z"
    },
    {
      "icao": "LEXJ",
      "alert": "OK",
      "vis_m": 7000,
      "fzfg": false,
      "metar_trigger": false,
      "taf_trigger": false,
      "metar": "METAR LEXJ 252330Z AUTO 14003KT 7000 NCD 20/18 Q1022",
      "taf": "TAF LEXJ 252000Z 2521/2621 VRB03KT CAVOK TX36/2612Z TN18/2621Z"
    },
    {
      "icao": "LEZG",
      "alert": "OK",
      "vis_m": 9999,
      "fzfg": false,
      "metar_trigger": false,
      "taf_trigger": false,
      "metar": "METAR LEZG 252330Z 09008KT CAVOK 22/07 Q1027 NOSIG",
      "taf": "TAF LEZG 252300Z 2600/2624 11012KT CAVOK TX34/2615Z TN17/2605Z"
    },
    {
      "icao": "LEZL",
      "alert": "OK",
      "vis_m": 9999,
      "fzfg": false,
      "metar_trigger": false,
      "taf_trigger": false,
      "metar": "METAR LEZL 252330Z AUTO 04003KT CAVOK 22/11 Q1023",
      "taf": "TAF LEZL 252000Z 2521/2621 VRB03KT CAVOK TX37/2615Z TN15/2606Z"
    },
    {
      "icao": "LFBD",
      "alert": "OK",
      "vis_m": 9999,
      "fzfg": false,
      "metar_trigger": false,
      "taf_trigger": false,
      "metar": "METAR LFBD 252330Z AUTO 15006KT CAVOK 24/15 Q1025 NOSIG",
      "taf": "TAF LFBD 252300Z 2600/2706 12005KT CAVOK TX37/2615Z TN20/2605Z"
    },
    {
      "icao": "LFLL",
      "alert": "OK",
      "vis_m": 9999,
      "fzfg": false,
      "metar_trigger": false,
      "taf_trigger": false,
      "metar": "METAR LFLL 252330Z 22003KT CAVOK 23/16 Q1028 NOSIG",
      "taf": "TAF LFLL 252300Z 2600/2706 VRB04KT CAVOK"
    },
    {
      "icao": "LFLS",
      "alert": "OK",
      "vis_m": 9999,
      "fzfg": false,
      "metar_trigger": false,
      "taf_trigger": false,
      "metar": "METAR LFLS 252330Z AUTO 10007KT CAVOK 16/13 Q1029",
      "taf": "TAF LFLS 251400Z 2515/2615 21006KT CAVOK"
    },
    {
      "icao": "LFMN",
      "alert": "OK",
      "vis_m": 9999,
      "fzfg": false,
      "metar_trigger": false,
      "taf_trigger": false,
      "metar": "METAR LFMN 252330Z 33009KT CAVOK 25/08 Q1026 NOSIG",
      "taf": "TAF LFMN 252000Z 2521/2703 34010KT CAVOK"
    },
    {
      "icao": "LFOB",
      "alert": "OK",
      "vis_m": 9999,
      "fzfg": false,
      "metar_trigger": false,
      "taf_trigger": false,
      "metar": "METAR LFOB 252330Z AUTO VRB02KT CAVOK 14/13 Q1030 NOSIG",
      "taf": "TAF LFOB 252300Z 2600/2624 VRB03KT CAVOK"
    },
    {
      "icao": "LFPO",
      "alert": "OK",
      "vis_m": 9999,
      "fzfg": false,
      "metar_trigger": false,
      "taf_trigger": false,
      "metar": "METAR LFPO 252330Z AUTO 36003KT CAVOK 21/15 Q1029 NOSIG",
      "taf": "TAF LFPO 252300Z 2600/2706 04005KT CAVOK"
    },
    {
      "icao": "LFSB",
      "alert": "OK",
      "vis_m": 9999,
      "fzfg": false,
      "metar_trigger": false,
      "taf_trigger": false,
      "metar": "METAR LFSB 252330Z AUTO 00000KT CAVOK 17/13 Q1029 NOSIG",
      "taf": "TAF LFSB 252300Z 2600/2624 VRB03KT CAVOK"
    },
    {
      "icao": "LGAV",
      "alert": "OK",
      "vis_m": 9999,
      "fzfg": false,
      "metar_trigger": false,
      "taf_trigger": false,
      "metar": "METAR LGAV 252320Z 01006KT CAVOK 21/08 Q1022 NOSIG",
      "taf": "TAF LGAV 252300Z 2600/2624 35012KT 9999 FEW025"
    },
    {
      "icao": "LGTS",
      "alert": "OK",
      "vis_m": 9999,
      "fzfg": false,
      "metar_trigger": false,
      "taf_trigger": false,
      "metar": "METAR LGTS 252320Z VRB02KT 9999 FEW025 18/13 Q1023 NOSIG",
      "taf": "TAF LGTS 252300Z 2600/2624 VRB03KT 9999 FEW025"
    },
    {
      "icao": "LHBP",
      "alert": "OK",
      "vis_m": 9999,
      "fzfg": false,
      "metar_trigger": false,
      "taf_trigger": false,
      "metar": "METAR LHBP 252330Z VRB01KT CAVOK 16/11 Q1026 NOSIG",
      "taf": "TAF LHBP 252315Z 2600/2624 VRB04KT CAVOK"
    },
    {
      "icao": "LHDC",
      "alert": "OK",
      "vis_m": 9999,
      "fzfg": false,
      "metar_trigger": false,
      "taf_trigger": false,
      "metar": "METAR LHDC 252315Z AUTO 03013KT CAVOK 20/09 Q1026",
      "taf": "TAF LHDC 251715Z 2518/2603 02009KT CAVOK"
    },
    {
      "icao": "LIBD",
      "alert": "OK",
      "vis_m": 9999,
      "fzfg": false,
      "metar_trigger": false,
      "taf_trigger": false,
      "metar": "METAR LIBD 252320Z 23005KT CAVOK 16/11 Q1025",
      "taf": "TAF LIBD 252300Z 2600/2624 26007KT CAVOK"
    },
    {
      "icao": "LIBG",
      "alert": "OK",
      "vis_m": 9999,
      "fzfg": false,
      "metar_trigger": false,
      "taf_trigger": false,
      "metar": "METAR LIBG 252320Z AUTO VRB02KT 9999 NCD 22/09 Q1024",
      "taf": "TAF LIBG 252300Z 2600/2624 32005KT CAVOK"
    },
    {
      "icao": "LIBP",
      "alert": "OK",
      "vis_m": 9999,
      "fzfg": false,
      "metar_trigger": false,
      "taf_trigger": false,
      "metar": "METAR LIBP 252320Z AUTO 24007KT 9999 NCD 17/12 Q1027",
      "taf": "TAF LIBP 252300Z 2600/2624 23005KT CAVOK"
    },
    {
      "icao": "LIBR",
      "alert": "OK",
      "vis_m": 9999,
      "fzfg": false,
      "metar_trigger": false,
      "taf_trigger": false,
      "metar": "METAR LIBR 252320Z 32013KT CAVOK 21/13 Q1024",
      "taf": "TAF LIBR 252300Z 2600/2624 32013KT CAVOK"
    },
    {
      "icao": "LICA",
      "alert": "OK",
      "vis_m": 9000,
      "fzfg": false,
      "metar_trigger": false,
      "taf_trigger": false,
      "metar": "METAR LICA 252320Z AUTO 07003KT 030V090 9000 NCD 15/15 Q1026",
      "taf": "TAF LICA 252300Z 2600/2624 VRB05KT 9999 FEW050"
    },
    {
      "icao": "LICC",
      "alert": "OK",
      "vis_m": 9999,
      "fzfg": false,
      "metar_trigger": false,
      "taf_trigger": false,
      "metar": "METAR LICC 252320Z 24004KT 220V310 CAVOK 18/10 Q1025",
      "taf": "TAF LICC 252300Z 2600/2624 VRB05KT 9999 FEW060"
    },
    {
      "icao": "LICJ",
      "alert": "OK",
      "vis_m": 9999,
      "fzfg": false,
      "metar_trigger": false,
      "taf_trigger": false,
      "metar": "METAR LICJ 252320Z 20003KT CAVOK 20/18 Q1025",
      "taf": "TAF LICJ 252300Z 2600/2624 VRB05KT CAVOK"
    },
    {
      "icao": "LIMC",
      "alert": "OK",
      "vis_m": 9999,
      "fzfg": false,
      "metar_trigger": false,
      "taf_trigger": false,
      "metar": "METAR LIMC 252320Z 01006KT CAVOK 21/14 Q1028 NOSIG",
      "taf": "TAF LIMC 252300Z 2600/2706 VRB05KT CAVOK"
    },
    {
      "icao": "LIME",
      "alert": "OK",
      "vis_m": 9999,
      "fzfg": false,
      "metar_trigger": false,
      "taf_trigger": false,
      "metar": "METAR LIME 252320Z 02004KT CAVOK 23/14 Q1028 NOSIG",
      "taf": "TAF LIME 252300Z 2600/2624 VRB05KT 9999 FEW055"
    },
    {
      "icao": "LIMF",
      "alert": "OK",
      "vis_m": 9999,
      "fzfg": false,
      "metar_trigger": false,
      "taf_trigger": false,
      "metar": "METAR LIMF 252320Z 32004KT CAVOK 23/14 Q1028",
      "taf": "TAF LIMF 252300Z 2600/2624 VRB04KT CAVOK"
    },
    {
      "icao": "LIMJ",
      "alert": "OK",
      "vis_m": 9999,
      "fzfg": false,
      "metar_trigger": false,
      "taf_trigger": false,
      "metar": "METAR LIMJ 252320Z VRB02KT CAVOK 24/11 Q1026",
      "taf": "TAF LIMJ 252300Z 2600/2624 VRB05KT 9999 FEW030"
    },
    {
      "icao": "LIPE",
      "alert": "OK",
      "vis_m": 9999,
      "fzfg": false,
      "metar_trigger": false,
      "taf_trigger": false,
      "metar": "METAR LIPE 252320Z 22008KT CAVOK 22/15 Q1027",
      "taf": "TAF LIPE 252300Z 2600/2624 20006KT CAVOK"
    },
    {
      "icao": "LIPH",
      "alert": "OK",
      "vis_m": 9999,
      "fzfg": false,
      "metar_trigger": false,
      "taf_trigger": false,
      "metar": "METAR LIPH 252320Z AUTO 03003KT 360V060 9999 NCD 23/17 Q1026",
      "taf": "TAF LIPH 252300Z 2600/2624 VRB05KT CAVOK"
    },
    {
      "icao": "LIPQ",
      "alert": "OK",
      "vis_m": 9999,
      "fzfg": false,
      "metar_trigger": false,
      "taf_trigger": false,
      "metar": "METAR LIPQ 252320Z AUTO VRB01KT 9999 NCD 19/16 Q1027",
      "taf": "TAF LIPQ 252300Z 2600/2624 VRB05KT CAVOK"
    },
    {
      "icao": "LIPR",
      "alert": "OK",
      "vis_m": 9999,
      "fzfg": false,
      "metar_trigger": false,
      "taf_trigger": false,
      "metar": "METAR LIPR 252320Z AUTO 21002KT 9999 NCD 19/13 Q1026",
      "taf": "TAF LIPR 252300Z 2600/2624 VRB05KT CAVOK"
    },
    {
      "icao": "LIPX",
      "alert": "OK",
      "vis_m": 9999,
      "fzfg": false,
      "metar_trigger": false,
      "taf_trigger": false,
      "metar": "METAR LIPX 252320Z 36004KT CAVOK 22/15 Q1027",
      "taf": "TAF LIPX 252300Z 2600/2624 VRB05KT CAVOK"
    },
    {
      "icao": "LIPY",
      "alert": "OK",
      "vis_m": 9999,
      "fzfg": false,
      "metar_trigger": false,
      "taf_trigger": false,
      "metar": "METAR LIPY 252320Z AUTO 19004KT 9999 NCD 18/13 Q1027",
      "taf": "TAF LIPY 252300Z 2600/2624 VRB05KT CAVOK"
    },
    {
      "icao": "LIPZ",
      "alert": "OK",
      "vis_m": 9999,
      "fzfg": false,
      "metar_trigger": false,
      "taf_trigger": false,
      "metar": "METAR LIPZ 252320Z 04005KT CAVOK 23/17 Q1026 NOSIG",
      "taf": "TAF LIPZ 252300Z 2600/2706 VRB05KT CAVOK"
    },
    {
      "icao": "LIRF",
      "alert": "OK",
      "vis_m": 9999,
      "fzfg": false,
      "metar_trigger": false,
      "taf_trigger": false,
      "metar": "METAR LIRF 252320Z 06005KT CAVOK 17/16 Q1025 NOSIG",
      "taf": "TAF LIRF 252300Z 2600/2706 VRB05KT CAVOK"
    },
    {
      "icao": "LIRN",
      "alert": "OK",
      "vis_m": 9999,
      "fzfg": false,
      "metar_trigger": false,
      "taf_trigger": false,
      "metar": "METAR LIRN 252320Z 05007KT CAVOK 22/08 Q1026 NOSIG",
      "taf": "TAF LIRN 252300Z 2600/2624 VRB05KT CAVOK"
    },
    {
      "icao": "LIRP",
      "alert": "OK",
      "vis_m": 9999,
      "fzfg": false,
      "metar_trigger": false,
      "taf_trigger": false,
      "metar": "METAR LIRP 252315Z 07003KT CAVOK 19/13 Q1027 NOSIG",
      "taf": "TAF LIRP 252300Z 2600/2624 09005KT CAVOK"
    },
    {
      "icao": "LIRZ",
      "alert": "OK",
      "vis_m": 9999,
      "fzfg": false,
      "metar_trigger": false,
      "taf_trigger": false,
      "metar": "METAR LIRZ 252320Z AUTO 34003KT 290V010 9999 NCD 17/11 Q1028",
      "taf": "TAF LIRZ 252300Z 2600/2624 VRB05KT CAVOK"
    },
    {
      "icao": "LJLJ",
      "alert": "OK",
      "vis_m": 9999,
      "fzfg": false,
      "metar_trigger": false,
      "taf_trigger": false,
      "metar": "METAR LJLJ 252330Z VRB01KT CAVOK 17/15 Q1029 NOSIG",
      "taf": "TAF LJLJ 252300Z 2600/2700 VRB02KT CAVOK"
    },
    {
      "icao": "LKMT",
      "alert": "OK",
      "vis_m": 9999,
      "fzfg": false,
      "metar_trigger": false,
      "taf_trigger": false,
      "metar": "METAR LKMT 252330Z 17002KT CAVOK 13/11 Q1029 NOSIG",
      "taf": "TAF LKMT 252300Z 2600/2624 22003KT CAVOK"
    },
    {
      "icao": "LKPR",
      "alert": "OK",
      "vis_m": 9999,
      "fzfg": false,
      "metar_trigger": false,
      "taf_trigger": false,
      "metar": "METAR LKPR 252330Z 31005KT CAVOK 15/10 Q1030 NOSIG",
      "taf": "TAF LKPR 252300Z 2600/2706 34006KT CAVOK"
    },
    {
      "icao": "LLBG",
      "alert": "OK",
      "vis_m": 9999,
      "fzfg": false,
      "metar_trigger": false,
      "taf_trigger": false,
      "metar": "METAR LLBG 252320Z 14004KT 9999 SCT025 19/15 Q1016 NOSIG",
      "taf": "TAF LLBG 252313Z 2600/2624 VRB04KT 9999 SCT025 TX27/2610Z TN18/2603Z"
    },
    {
      "icao": "LMML",
      "alert": "OK",
      "vis_m": 9999,
      "fzfg": false,
      "metar_trigger": false,
      "taf_trigger": false,
      "metar": "METAR LMML 252345Z 34006KT 9999 FEW006 19/18 Q1025 NOSIG",
      "taf": "TAF LMML 252300Z 2600/2624 33006KT 9999 FEW012"
    },
    {
      "icao": "LOWW",
      "alert": "OK",
      "vis_m": 9999,
      "fzfg": false,
      "metar_trigger": false,
      "taf_trigger": false,
      "metar": "METAR LOWW 252320Z 33008KT CAVOK 17/11 Q1029 NOSIG",
      "taf": "TAF LOWW 252315Z 2600/2706 35007KT CAVOK TX31/2613Z TN16/2603Z"
    },
    {
      "icao": "LPFR",
      "alert": "OK",
      "vis_m": 9999,
      "fzfg": false,
      "metar_trigger": false,
      "taf_trigger": false,
      "metar": "METAR LPFR 252330Z 07009KT CAVOK 23/12 Q1022",
      "taf": "TAF LPFR 252300Z 2600/2624 08010KT CAVOK"
    },
    {
      "icao": "LPMA",
      "alert": "OK",
      "vis_m": 9999,
      "fzfg": false,
      "metar_trigger": false,
      "taf_trigger": false,
      "metar": "METAR LPMA 252330Z 02004KT 9999 SCT013 BKN030 18/15 Q1021",
      "taf": "TAF LPMA 252300Z 2600/2624 VRB05KT 9999 SCT015 BKN030"
    },
    {
      "icao": "LPPR",
      "alert": "OK",
      "vis_m": 5000,
      "fzfg": false,
      "metar_trigger": false,
      "taf_trigger": false,
      "metar": "METAR LPPR 252330Z 33003KT 5000 BR SCT002 15/15 Q1022",
      "taf": "TAF LPPR 252300Z 2600/2624 VRB02KT 6000 SCT002"
    },
    {
      "icao": "LPPS",
      "alert": "OK",
      "vis_m": 9999,
      "fzfg": false,
      "metar_trigger": false,
      "taf_trigger": false,
      "metar": "METAR LPPS 252330Z 35002KT 9999 SCT014 SCT030 17/14 Q1021",
      "taf": "TAF LPPS 252300Z 2600/2706 35005KT 9999 SCT015"
    },
    {
      "icao": "LPPT",
      "alert": "OK",
      "vis_m": 9999,
      "fzfg": false,
      "metar_trigger": false,
      "taf_trigger": false,
      "metar": "METAR LPPT 252330Z 35003KT 310V110 CAVOK 19/13 Q1022",
      "taf": "TAF LPPT 252300Z 2600/2706 VRB02KT CAVOK"
    },
    {
      "icao": "LQBK",
      "alert": "OK",
      "vis_m": 9999,
      "fzfg": false,
      "metar_trigger": false,
      "taf_trigger": false,
      "metar": "METAR LQBK 252330Z 15004KT CAVOK 17/14 Q1027 NOSIG",
      "taf": "TAF LQBK 251700Z 2518/2618 32005KT CAVOK TX30/2614Z TN14/2604Z"
    },
    {
      "icao": "LQSA",
      "alert": "OK",
      "vis_m": 9999,
      "fzfg": false,
      "metar_trigger": false,
      "taf_trigger": false,
      "metar": "METAR LQSA 252330Z 17002KT CAVOK 14/11 Q1029",
      "taf": "TAF LQSA 251700Z 2518/2618 VRB02KT 9999 SCT060 TX28/2614Z TN11/2604Z"
    },
    {
      "icao": "LQTZ",
      "alert": "OK",
      "vis_m": 9999,
      "fzfg": false,
      "metar_trigger": false,
      "taf_trigger": false,
      "metar": "METAR LQTZ 252330Z 00000KT 9999 SCT065 16/16 Q1027",
      "taf": "TAF LQTZ 251700Z 2518/2618 32005KT 9999 SCT055 TX29/2614Z TN14/2604Z"
    },
    {
      "icao": "LRBC",
      "alert": "OK",
      "vis_m": 9999,
      "fzfg": false,
      "metar_trigger": false,
      "taf_trigger": false,
      "metar": "METAR LRBC 252330Z AUTO 34006KT 9999 NCD 15/08 Q1024",
      "taf": "TAF LRBC 252300Z 2600/2609 32010KT CAVOK"
    },
    {
      "icao": "LRBS",
      "alert": "OK",
      "vis_m": 9999,
      "fzfg": false,
      "metar_trigger": false,
      "taf_trigger": false,
      "metar": "METAR LRBS 252330Z 06009KT CAVOK 20/14 Q1022 NOSIG",
      "taf": "TAF LRBS 252300Z 2600/2624 07010KT CAVOK"
    },
    {
      "icao": "LRBV",
      "alert": "OK",
      "vis_m": 9999,
      "fzfg": false,
      "metar_trigger": false,
      "taf_trigger": false,
      "metar": "METAR LRBV 252330Z AUTO 03002KT 9999 NCD 15/10 Q1025",
      "taf": "TAF LRBV 251700Z 2518/2603 30010KT 9999 SCT060"
    },
    {
      "icao": "LRCL",
      "alert": "OK",
      "vis_m": 9999,
      "fzfg": false,
      "metar_trigger": false,
      "taf_trigger": false,
      "metar": "METAR LRCL 252330Z 25007KT CAVOK 17/10 Q1025",
      "taf": "TAF LRCL 252300Z 2600/2609 29007KT CAVOK"
    },
    {
      "icao": "LRCV",
      "alert": "OK",
      "vis_m": 9999,
      "fzfg": false,
      "metar_trigger": false,
      "taf_trigger": false,
      "metar": "METAR LRCV 252330Z 00000KT CAVOK 18/15 Q1023",
      "taf": "TAF LRCV 252300Z 2600/2609 VRB04KT CAVOK"
    },
    {
      "icao": "LRIA",
      "alert": "OK",
      "vis_m": 9999,
      "fzfg": false,
      "metar_trigger": false,
      "taf_trigger": false,
      "metar": "METAR LRIA 252330Z 28009KT CAVOK 16/07 Q1023",
      "taf": "TAF LRIA 252300Z 2600/2609 30010KT CAVOK"
    },
    {
      "icao": "LROP",
      "alert": "OK",
      "vis_m": 9999,
      "fzfg": false,
      "metar_trigger": false,
      "taf_trigger": false,
      "metar": "METAR LROP 252330Z 07010KT CAVOK 19/14 Q1022 NOSIG",
      "taf": "TAF LROP 252300Z 2600/2624 07010KT CAVOK"
    },
    {
      "icao": "LRSB",
      "alert": "OK",
      "vis_m": 9999,
      "fzfg": false,
      "metar_trigger": false,
      "taf_trigger": false,
      "metar": "METAR LRSB 252330Z 28005KT 260V320 CAVOK 15/11 Q1025",
      "taf": "TAF LRSB 252300Z 2600/2624 30007KT CAVOK"
    },
    {
      "icao": "LRSM",
      "alert": "OK",
      "vis_m": 9999,
      "fzfg": false,
      "metar_trigger": false,
      "taf_trigger": false,
      "metar": "METAR LRSM 252330Z AUTO 32007KT 9999 NCD 15/10 Q1025",
      "taf": "TAF LRSM 251400Z 2515/2524 33014KT CAVOK"
    },
    {
      "icao": "LRSV",
      "alert": "OK",
      "vis_m": 9999,
      "fzfg": false,
      "metar_trigger": false,
      "taf_trigger": false,
      "metar": "METAR LRSV 252330Z 28010KT CAVOK 15/07 Q1025",
      "taf": "TAF LRSV 252300Z 2600/2609 30012KT CAVOK"
    },
    {
      "icao": "LRTM",
      "alert": "OK",
      "vis_m": 9999,
      "fzfg": false,
      "metar_trigger": false,
      "taf_trigger": false,
      "metar": "METAR LRTM 252330Z AUTO 24006KT 9999 NCD 15/12 Q1024",
      "taf": "TAF LRTM 252300Z 2600/2609 27007KT CAVOK"
    },
    {
      "icao": "LRTR",
      "alert": "OK",
      "vis_m": 9999,
      "fzfg": false,
      "metar_trigger": false,
      "taf_trigger": false,
      "metar": "METAR LRTR 252330Z 36004KT CAVOK 17/14 Q1024",
      "taf": "TAF LRTR 252300Z 2600/2624 01010KT CAVOK"
    },
    {
      "icao": "LTAC",
      "alert": "OK",
      "vis_m": 9999,
      "fzfg": false,
      "metar_trigger": false,
      "taf_trigger": false,
      "metar": "METAR LTAC 252320Z VRB02KT CAVOK 10/07 Q1022 NOSIG RMK RWY21C 05004KT 020V100 RWY03L VRB02KT RWY21R 04004KT RWY03R 00000KT RWY21L VRB02KT",
      "taf": "TAF LTAC 252240Z 2600/2624 VRB02KT CAVOK"
    },
    {
      "icao": "LTFM",
      "alert": "OK",
      "vis_m": 9999,
      "fzfg": false,
      "metar_trigger": false,
      "taf_trigger": false,
      "metar": "METAR LTFM 252320Z VRB04KT CAVOK 15/11 Q1022 NOSIG RMK RWY17L 30006KT 260V030 RWY34L 25003KT 190V330 RWY16R 31005KT 170V330 RWY36 VRB03KT RWY18 VRB05KT",
      "taf": "TAF LTFM 252240Z 2600/2706 VRB02KT CAVOK"
    },
    {
      "icao": "LUKK",
      "alert": "OK",
      "vis_m": 9999,
      "fzfg": false,
      "metar_trigger": false,
      "taf_trigger": false,
      "metar": "METAR LUKK 252330Z 33011KT CAVOK 18/07 Q1021 NOSIG",
      "taf": "TAF LUKK 252320Z 2600/2624 32012KT CAVOK"
    },
    {
      "icao": "LWOH",
      "alert": "OK",
      "vis_m": null,
      "fzfg": false,
      "metar_trigger": false,
      "taf_trigger": false,
      "metar": "",
      "taf": "TAF LWOH 252310Z 2600/2624 34005KT 9999 FEW040 SCT090"
    },
    {
      "icao": "LWSK",
      "alert": "OK",
      "vis_m": 9999,
      "fzfg": false,
      "metar_trigger": false,
      "taf_trigger": false,
      "metar": "METAR LWSK 252350Z VRB02KT CAVOK 14/11 Q1025 NOSIG",
      "taf": "TAF LWSK 252310Z 2600/2624 VRB02KT CAVOK"
    },
    {
      "icao": "LYBE",
      "alert": "OK",
      "vis_m": 9999,
      "fzfg": false,
      "metar_trigger": false,
      "taf_trigger": false,
      "metar": "METAR LYBE 252330Z 26007KT CAVOK 20/15 Q1025 NOSIG",
      "taf": "TAF LYBE 252300Z 2600/2624 26005KT CAVOK TX32/2613Z TN18/2604Z"
    },
    {
      "icao": "LYNI",
      "alert": "OK",
      "vis_m": 9999,
      "fzfg": false,
      "metar_trigger": false,
      "taf_trigger": false,
      "metar": "METAR LYNI 252330Z 11003KT 060V150 CAVOK 16/14 Q1025 NOSIG",
      "taf": "TAF LYNI 252300Z 2600/2624 06004KT CAVOK TX30/2613Z TN14/2604Z"
    },
    {
      "icao": "LYPG",
      "alert": "OK",
      "vis_m": 9999,
      "fzfg": false,
      "metar_trigger": false,
      "taf_trigger": false,
      "metar": "METAR LYPG 252330Z 34009KT CAVOK 23/11 Q1024 NOSIG",
      "taf": "TAF LYPG 252300Z 2600/2624 34008KT CAVOK TX32/2613Z TN22/2604Z"
    },
    {
      "icao": "LZIB",
      "alert": "OK",
      "vis_m": 9999,
      "fzfg": false,
      "metar_trigger": false,
      "taf_trigger": false,
      "metar": "METAR LZIB 252330Z VRB03KT CAVOK 20/10 Q1028 NOSIG",
      "taf": "TAF LZIB 252315Z 2600/2700 VRB02KT CAVOK"
    },
    {
      "icao": "LZKZ",
      "alert": "OK",
      "vis_m": 9999,
      "fzfg": false,
      "metar_trigger": false,
      "taf_trigger": false,
      "metar": "METAR LZKZ 252330Z VRB03KT CAVOK 18/09 Q1027 NOSIG",
      "taf": "TAF LZKZ 252315Z 2600/2700 36006KT CAVOK"
    },
    {
      "icao": "LZTT",
      "alert": "OK",
      "vis_m": 9999,
      "fzfg": false,
      "metar_trigger": false,
      "taf_trigger": false,
      "metar": "METAR LZTT 252330Z 32008KT CAVOK 10/07 Q1029",
      "taf": "TAF LZTT 252315Z 2600/2700 VRB02KT CAVOK"
    },
    {
      "icao": "OEJN",
      "alert": "OK",
      "vis_m": 9999,
      "fzfg": false,
      "metar_trigger": false,
      "taf_trigger": false,
      "metar": "METAR OEJN 252300Z 33008KT CAVOK 28/20 Q1007 NOSIG",
      "taf": "TAF OEJN 252300Z 2600/2706 35007KT CAVOK"
    },
    {
      "icao": "OEMA",
      "alert": "OK",
      "vis_m": 9999,
      "fzfg": false,
      "metar_trigger": false,
      "taf_trigger": false,
      "metar": "METAR OEMA 252300Z 29007KT CAVOK 34/04 Q1012 NOSIG",
      "taf": "TAF OEMA 252300Z 2600/2706 VRB03KT CAVOK"
    },
    {
      "icao": "OJAI",
      "alert": "OK",
      "vis_m": 5000,
      "fzfg": false,
      "metar_trigger": false,
      "taf_trigger": false,
      "metar": "METAR OJAI 252300Z 35003KT 5000 HZ NSC 13/11 Q1018 NOSIG",
      "taf": "TAF OJAI 252254Z 2600/2706 VRB02KT 5000 HZ NSC"
    },
    {
      "icao": "OMAA",
      "alert": "OK",
      "vis_m": 9999,
      "fzfg": false,
      "metar_trigger": false,
      "taf_trigger": false,
      "metar": "METAR OMAA 252330Z 17003KT CAVOK 30/21 Q1004 NOSIG",
      "taf": "TAF OMAA 252300Z 2600/2706 VRB02KT 8000 NSC"
    },
    {
      "icao": "OMDB",
      "alert": "OK",
      "vis_m": 9999,
      "fzfg": false,
      "metar_trigger": false,
      "taf_trigger": false,
      "metar": "METAR OMDB 252300Z 19005KT 140V240 CAVOK 32/19 Q1004 NOSIG",
      "taf": "TAF OMDB 252300Z 2600/2706 19006KT 8000 NSC"
    },
    {
      "icao": "UAAA",
      "alert": "OK",
      "vis_m": 9999,
      "fzfg": false,
      "metar_trigger": false,
      "taf_trigger": false,
      "metar": "METAR UAAA 252330Z 16002MPS 120V210 9999 SCT100 BKN200 13/06 Q1012 NOSIG",
      "taf": "TAF UAAA 252300Z 2600/2624 20003MPS 9999 SCT050CB BKN100 TX25/2610Z TN11/2601Z"
    },
    {
      "icao": "UBBB",
      "alert": "OK",
      "vis_m": 9999,
      "fzfg": false,
      "metar_trigger": false,
      "taf_trigger": false,
      "metar": "METAR UBBB 252330Z 31010KT 9999 FEW060CB 19/13 Q1011 NOSIG",
      "taf": "TAF UBBB 252314Z 2600/2624 32010KT 9999 FEW040CB TX24/2610Z TN16/2501Z"
    },
    {
      "icao": "UDSG",
      "alert": "OK",
      "vis_m": 9999,
      "fzfg": false,
      "metar_trigger": false,
      "taf_trigger": false,
      "metar": "METAR UDSG 252330Z 08002KT 9999 FEW049 04/03 Q1019 NOSIG",
      "taf": "TAF UDSG 252300Z 2600/2624 24006KT 9999 SCT040"
    },
    {
      "icao": "UDYZ",
      "alert": "OK",
      "vis_m": 9999,
      "fzfg": false,
      "metar_trigger": false,
      "taf_trigger": false,
      "metar": "METAR UDYZ 252330Z VRB01KT 9999 SCT043CB 12/11 Q1016 NOSIG",
      "taf": "TAF UDYZ 252300Z 2600/2624 14006KT 9999 SCT040"
    },
    {
      "icao": "UGKO",
      "alert": "OK",
      "vis_m": 9999,
      "fzfg": false,
      "metar_trigger": false,
      "taf_trigger": false,
      "metar": "METAR UGKO 252330Z 23003KT 9999 SCT009 BKN012 15/15 Q1017 NOSIG",
      "taf": "TAF UGKO 251700Z 2518/2618 27010KT 9999 BKN050 TX19/2611Z TN14/2602Z"
    }
  ]
}