{
  "ts_utc": "2026-01-20T16:20:30Z",
  "threshold_m": 150,
  "source": "stations_override.txt (ICAO list) + aviationweather.gov (METAR/TAF raw)",
  "station_count": 159,
  "stations": [
    {
      "icao": "BIKF",
      "alert": "OK",
      "vis_m": 9999,
      "fzfg": false,
      "metar_trigger": false,
      "taf_trigger": false,
      "metar": "METAR BIKF 201600Z 10014KT 9999 FEW026 04/01 Q1002",
      "taf": "TAF BIKF 201317Z 2015/2115 12015KT 9999 -SHRA FEW015 BKN035 TX05/2112Z TN02/2019Z"
    },
    {
      "icao": "BKPR",
      "alert": "OK",
      "vis_m": 9999,
      "fzfg": false,
      "metar_trigger": false,
      "taf_trigger": false,
      "metar": "METAR BKPR 201600Z 09011KT CAVOK 01/M06 Q1025 NOSIG",
      "taf": "TAF BKPR 201130Z 2012/2112 13010KT CAVOK"
    },
    {
      "icao": "EBCI",
      "alert": "OK",
      "vis_m": 9000,
      "fzfg": false,
      "metar_trigger": false,
      "taf_trigger": false,
      "metar": "METAR EBCI 201550Z 14005KT 9000 FEW005 04/03 Q1014 NOSIG",
      "taf": ""
    },
    {
      "icao": "EDDB",
      "alert": "OK",
      "vis_m": 9999,
      "fzfg": false,
      "metar_trigger": false,
      "taf_trigger": false,
      "metar": "METAR EDDB 201550Z AUTO 14006KT CAVOK M01/M07 Q1020 NOSIG",
      "taf": "TAF EDDB 201100Z 2012/2112 14007KT CAVOK"
    },
    {
      "icao": "EDDH",
      "alert": "OK",
      "vis_m": 9999,
      "fzfg": false,
      "metar_trigger": false,
      "taf_trigger": false,
      "metar": "METAR EDDH 201550Z AUTO 11005KT CAVOK 01/M04 Q1018 NOSIG",
      "taf": "TAF EDDH 201100Z 2012/2118 12006KT CAVOK"
    },
    {
      "icao": "EDDK",
      "alert": "OK",
      "vis_m": 9999,
      "fzfg": false,
      "metar_trigger": false,
      "taf_trigger": false,
      "metar": "METAR EDDK 201550Z AUTO 15009KT CAVOK 03/M01 Q1016 NOSIG",
      "taf": "TAF EDDK 201100Z 2012/2118 13008KT CAVOK"
    },
    {
      "icao": "EDDN",
      "alert": "OK",
      "vis_m": 9999,
      "fzfg": false,
      "metar_trigger": false,
      "taf_trigger": false,
      "metar": "METAR EDDN 201550Z AUTO 10007KT CAVOK 02/M07 Q1018 NOSIG",
      "taf": "TAF EDDN 201100Z 2012/2112 11007KT CAVOK"
    },
    {
      "icao": "EDDS",
      "alert": "OK",
      "vis_m": 9999,
      "fzfg": false,
      "metar_trigger": false,
      "taf_trigger": false,
      "metar": "METAR EDDS 201550Z AUTO 36004KT CAVOK 04/M01 Q1015 NOSIG",
      "taf": "TAF EDDS 201100Z 2012/2112 VRB03KT CAVOK"
    },
    {
      "icao": "EDFH",
      "alert": "OK",
      "vis_m": 350,
      "fzfg": true,
      "metar_trigger": false,
      "taf_trigger": false,
      "metar": "METAR EDFH 201550Z VRB02KT 0350 R21/0400N FZFG VV/// M01/M01 Q1015",
      "taf": ""
    },
    {
      "icao": "EDJA",
      "alert": "OK",
      "vis_m": 9999,
      "fzfg": false,
      "metar_trigger": false,
      "taf_trigger": false,
      "metar": "METAR EDJA 201550Z 07004KT CAVOK 04/M03 Q1016",
      "taf": "TAF EDJA 201400Z 2015/2024 05003KT CAVOK"
    },
    {
      "icao": "EDLW",
      "alert": "OK",
      "vis_m": 9999,
      "fzfg": false,
      "metar_trigger": false,
      "taf_trigger": false,
      "metar": "METAR EDLW 201550Z VRB02KT CAVOK 05/00 Q1015",
      "taf": ""
    },
    {
      "icao": "EDNY",
      "alert": "OK",
      "vis_m": 5000,
      "fzfg": false,
      "metar_trigger": false,
      "taf_trigger": false,
      "metar": "METAR EDNY 201550Z 23004KT 5000 2000SW BR BKN003 M00/M01 Q1017",
      "taf": "TAF EDNY 201400Z 2015/2024 VRB02KT 7000 NSC"
    },
    {
      "icao": "EDSB",
      "alert": "OK",
      "vis_m": 4000,
      "fzfg": false,
      "metar_trigger": false,
      "taf_trigger": false,
      "metar": "METAR EDSB 201550Z 33003KT 290V360 4000 BR OVC002 00/M00 Q1018",
      "taf": "TAF EDSB 201100Z 2012/2112 VRB03KT 8000 OVC002"
    },
    {
      "icao": "EETN",
      "alert": "OK",
      "vis_m": 9999,
      "fzfg": false,
      "metar_trigger": false,
      "taf_trigger": false,
      "metar": "METAR EETN 201550Z 10005KT 9999 OVC005 M08/M09 Q1025 TEMPO 4000 BR OVC004",
      "taf": "TAF EETN 201130Z 2012/2112 VRB02KT 9999 OVC005"
    },
    {
      "icao": "EFTU",
      "alert": "OK",
      "vis_m": 9999,
      "fzfg": false,
      "metar_trigger": false,
      "taf_trigger": false,
      "metar": "METAR EFTU 201550Z AUTO 09005KT 9999 OVC008 M03/M05 Q1025",
      "taf": "TAF EFTU 201435Z 2015/2115 12005KT 7000 OVC004"
    },
    {
      "icao": "EGBB",
      "alert": "OK",
      "vis_m": 9999,
      "fzfg": false,
      "metar_trigger": false,
      "taf_trigger": false,
      "metar": "METAR EGBB 201550Z 14019KT 9999 BKN029 08/04 Q1002",
      "taf": "TAF EGBB 201056Z 2012/2112 15018G28KT 9999 SCT020"
    },
    {
      "icao": "EGGP",
      "alert": "OK",
      "vis_m": 9999,
      "fzfg": false,
      "metar_trigger": false,
      "taf_trigger": false,
      "metar": "METAR EGGP 201550Z 13023G33KT 9999 BKN031 09/03 Q0999",
      "taf": "TAF EGGP 201102Z 2012/2112 14018G28KT 9999 BKN025"
    },
    {
      "icao": "EGGW",
      "alert": "OK",
      "vis_m": 9999,
      "fzfg": false,
      "metar_trigger": false,
      "taf_trigger": false,
      "metar": "METAR EGGW 201550Z AUTO 15015KT 9999 BKN026 08/04 Q1005",
      "taf": "TAF EGGW 201106Z 2012/2112 15016G26KT 9999 SCT012 BKN022"
    },
    {
      "icao": "EGKK",
      "alert": "OK",
      "vis_m": 9999,
      "fzfg": false,
      "metar_trigger": false,
      "taf_trigger": false,
      "metar": "METAR EGKK 201550Z 15011G21KT 110V180 9999 SCT021 09/06 Q1006",
      "taf": "TAF EGKK 201101Z 2012/2118 16009KT 9999 SCT020"
    },
    {
      "icao": "EGNM",
      "alert": "OK",
      "vis_m": 9999,
      "fzfg": false,
      "metar_trigger": false,
      "taf_trigger": false,
      "metar": "METAR EGNM 201550Z 12012KT 090V160 9999 SCT020 SCT028 07/04 Q1003",
      "taf": "TAF EGNM 201102Z 2012/2112 13013KT 9999 BKN008"
    },
    {
      "icao": "EGPD",
      "alert": "OK",
      "vis_m": 9999,
      "fzfg": false,
      "metar_trigger": false,
      "taf_trigger": false,
      "metar": "METAR EGPD 201550Z 15019KT 9999 BKN011 08/06 Q1006 TEMPO BKN008",
      "taf": "TAF EGPD 201056Z 2012/2112 14012KT 3000 BR BKN004"
    },
    {
      "icao": "EGPF",
      "alert": "OK",
      "vis_m": 9999,
      "fzfg": false,
      "metar_trigger": false,
      "taf_trigger": false,
      "metar": "METAR EGPF 201550Z AUTO 10012KT 9999 FEW046 09/03 Q1000",
      "taf": "TAF EGPF 201053Z 2012/2112 09010KT 9999 SCT025"
    },
    {
      "icao": "EHBK",
      "alert": "OK",
      "vis_m": 9999,
      "fzfg": false,
      "metar_trigger": false,
      "taf_trigger": false,
      "metar": "METAR EHBK 201555Z AUTO 15005KT 9999 NSC 05/01 Q1014 NOSIG",
      "taf": "TAF EHBK 201106Z 2012/2118 18005KT CAVOK"
    },
    {
      "icao": "EHEH",
      "alert": "OK",
      "vis_m": 6000,
      "fzfg": true,
      "metar_trigger": false,
      "taf_trigger": false,
      "metar": "METAR EHEH 201555Z AUTO 11003KT 090V150 6000 BR OVC210 02/01 Q1015 WHT NOSIG",
      "taf": "TAF EHEH 201115Z 2012/2118 13006KT 0400 FZFG OVC001"
    },
    {
      "icao": "EKBI",
      "alert": "OK",
      "vis_m": 9999,
      "fzfg": false,
      "metar_trigger": false,
      "taf_trigger": false,
      "metar": "METAR EKBI 201550Z AUTO 07006KT 9999 NCD 00/M01 Q1020",
      "taf": "TAF EKBI 201427Z 2015/2115 10004KT 6000 NSC"
    },
    {
      "icao": "EKCH",
      "alert": "OK",
      "vis_m": 9999,
      "fzfg": false,
      "metar_trigger": false,
      "taf_trigger": false,
      "metar": "METAR EKCH 201550Z AUTO 06003KT 9999 NCD M00/M02 Q1020 NOSIG",
      "taf": "TAF EKCH 201427Z 2015/2115 14008KT CAVOK"
    },
    {
      "icao": "ENAL",
      "alert": "OK",
      "vis_m": 9999,
      "fzfg": false,
      "metar_trigger": false,
      "taf_trigger": false,
      "metar": "METAR ENAL 201550Z 15006KT 9999 -DZ BKN008 05/03 Q1019",
      "taf": "TAF ENAL 201400Z 2015/2024 17005KT 9999 BKN009"
    },
    {
      "icao": "ENBR",
      "alert": "OK",
      "vis_m": 9999,
      "fzfg": false,
      "metar_trigger": false,
      "taf_trigger": false,
      "metar": "METAR ENBR 201550Z 08002KT CAVOK 01/00 Q1019 NOSIG RMK WIND 1200FT 11007KT",
      "taf": "TAF ENBR 201100Z 2012/2112 14005KT 9999 FEW015 BKN030"
    },
    {
      "icao": "ENGM",
      "alert": "OK",
      "vis_m": 9999,
      "fzfg": false,
      "metar_trigger": false,
      "taf_trigger": false,
      "metar": "METAR ENGM 201550Z 06006KT 9999 SCT011 BKN014 M04/M06 Q1023 TEMPO SCT012 BKN016",
      "taf": "TAF ENGM 201100Z 2012/2112 03005KT 9999 BKN012"
    },
    {
      "icao": "ENHD",
      "alert": "OK",
      "vis_m": 9999,
      "fzfg": false,
      "metar_trigger": false,
      "taf_trigger": false,
      "metar": "METAR ENHD 201550Z 09004KT 9999 SCT024 01/M02 Q1019",
      "taf": "TAF ENHD 201400Z 2015/2023 10006KT CAVOK"
    },
    {
      "icao": "ENTC",
      "alert": "OK",
      "vis_m": 9999,
      "fzfg": false,
      "metar_trigger": false,
      "taf_trigger": false,
      "metar": "METAR ENTC 201550Z VRB02KT 9999 VCFG NSC M07/M08 Q1027 TEMPO 1200 BCFG RMK WIND 2600FT 10006KT",
      "taf": ""
    },
    {
      "icao": "ENTO",
      "alert": "OK",
      "vis_m": 9999,
      "fzfg": false,
      "metar_trigger": false,
      "taf_trigger": false,
      "metar": "METAR ENTO 201550Z 03004KT 360V060 9999 OVC013 M03/M05 Q1024 NOSIG",
      "taf": "TAF ENTO 201100Z 2012/2112 03005KT 9999 BKN012"
    },
    {
      "icao": "ENVA",
      "alert": "OK",
      "vis_m": 9999,
      "fzfg": false,
      "metar_trigger": false,
      "taf_trigger": false,
      "metar": "METAR ENVA 201550Z 07008KT CAVOK M00/M05 Q1022 NOSIG RMK WIND 670FT 09010KT",
      "taf": "TAF ENVA 201100Z 2012/2112 12008KT CAVOK"
    },
    {
      "icao": "ENZV",
      "alert": "OK",
      "vis_m": 9999,
      "fzfg": false,
      "metar_trigger": false,
      "taf_trigger": false,
      "metar": "METAR ENZV 201550Z 10003KT CAVOK 01/M02 Q1019 NOSIG",
      "taf": ""
    },
    {
      "icao": "EPGD",
      "alert": "OK",
      "vis_m": 5000,
      "fzfg": false,
      "metar_trigger": false,
      "taf_trigger": false,
      "metar": "METAR EPGD 201600Z 15007KT 5000 BR NSC M06/M09 Q1023",
      "taf": "TAF EPGD 201130Z 2012/2112 VRB02KT 8000 NSC"
    },
    {
      "icao": "EPKK",
      "alert": "OK",
      "vis_m": 7000,
      "fzfg": false,
      "metar_trigger": false,
      "taf_trigger": false,
      "metar": "METAR EPKK 201600Z VRB02KT 7000 NSC M02/M09 Q1025",
      "taf": "TAF EPKK 201430Z 2015/2115 05005KT 4000 HZ NSC"
    },
    {
      "icao": "EPKT",
      "alert": "OK",
      "vis_m": 9999,
      "fzfg": false,
      "metar_trigger": false,
      "taf_trigger": false,
      "metar": "METAR EPKT 201600Z 15003KT CAVOK M03/M08 Q1024",
      "taf": "TAF EPKT 201130Z 2012/2112 18007KT CAVOK"
    },
    {
      "icao": "EPLB",
      "alert": "OK",
      "vis_m": 5000,
      "fzfg": false,
      "metar_trigger": false,
      "taf_trigger": false,
      "metar": "METAR EPLB 201600Z VRB02KT 5000 BR NSC M07/M10 Q1027",
      "taf": "TAF EPLB 201130Z 2012/2112 21008KT 8000 NSC"
    },
    {
      "icao": "EPMO",
      "alert": "OK",
      "vis_m": 5000,
      "fzfg": false,
      "metar_trigger": false,
      "taf_trigger": false,
      "metar": "METAR EPMO 201600Z 10004KT 5000 BR NSC M05/M09 Q1025",
      "taf": "TAF EPMO 201130Z 2012/2112 13008KT 7000 NSC"
    },
    {
      "icao": "EPPO",
      "alert": "OK",
      "vis_m": 9999,
      "fzfg": false,
      "metar_trigger": false,
      "taf_trigger": false,
      "metar": "METAR EPPO 201600Z 12009KT CAVOK M01/M07 Q1022",
      "taf": "TAF EPPO 201130Z 2012/2112 16010KT CAVOK"
    },
    {
      "icao": "EPRA",
      "alert": "OK",
      "vis_m": 9999,
      "fzfg": false,
      "metar_trigger": false,
      "taf_trigger": false,
      "metar": "METAR EPRA 201600Z 16008KT CAVOK M05/M10 Q1026",
      "taf": "TAF EPRA 201430Z 2015/2024 15006KT CAVOK"
    },
    {
      "icao": "EPRZ",
      "alert": "OK",
      "vis_m": 9999,
      "fzfg": false,
      "metar_trigger": false,
      "taf_trigger": false,
      "metar": "METAR EPRZ 201600Z 16003KT 130V220 CAVOK M02/M09 Q1027",
      "taf": "TAF EPRZ 201130Z 2012/2112 09004KT 4500 BR NSC"
    },
    {
      "icao": "EPSC",
      "alert": "OK",
      "vis_m": 9999,
      "fzfg": false,
      "metar_trigger": false,
      "taf_trigger": false,
      "metar": "METAR EPSC 201600Z 12008KT CAVOK M02/M07 Q1021",
      "taf": "TAF EPSC 201130Z 2012/2112 15007KT CAVOK"
    },
    {
      "icao": "EPSY",
      "alert": "OK",
      "vis_m": 4500,
      "fzfg": false,
      "metar_trigger": false,
      "taf_trigger": false,
      "metar": "METAR EPSY 201600Z VRB02KT 4500 BR NSC M09/M10 Q1025",
      "taf": "TAF EPSY 201430Z 2015/2024 18005KT 7000 NSC"
    },
    {
      "icao": "EPWA",
      "alert": "OK",
      "vis_m": 8000,
      "fzfg": false,
      "metar_trigger": false,
      "taf_trigger": false,
      "metar": "METAR EPWA 201600Z 12006KT 8000 NSC M04/M08 Q1026 NOSIG",
      "taf": "TAF EPWA 201430Z 2015/2115 09008KT 6000 NSC"
    },
    {
      "icao": "EPWR",
      "alert": "OK",
      "vis_m": 9999,
      "fzfg": false,
      "metar_trigger": false,
      "taf_trigger": false,
      "metar": "METAR EPWR 201600Z 12010KT CAVOK M00/M05 Q1022",
      "taf": "TAF EPWR 201430Z 2015/2115 12014KT CAVOK"
    },
    {
      "icao": "ESGG",
      "alert": "OK",
      "vis_m": 9999,
      "fzfg": false,
      "metar_trigger": false,
      "taf_trigger": false,
      "metar": "METAR ESGG 201550Z 06007KT 020V080 9999 OVC009 M01/M03 Q1021",
      "taf": "TAF ESGG 201430Z 2015/2115 06007KT 9000 OVC007"
    },
    {
      "icao": "ESKN",
      "alert": "OK",
      "vis_m": 9000,
      "fzfg": false,
      "metar_trigger": false,
      "taf_trigger": false,
      "metar": "METAR ESKN 201550Z 05007KT 010V080 9000 BKN005 M01/M02 Q1022",
      "taf": "TAF ESKN 201430Z 2015/2115 04006KT 8000 OVC010"
    },
    {
      "icao": "ESMS",
      "alert": "OK",
      "vis_m": 9999,
      "fzfg": false,
      "metar_trigger": false,
      "taf_trigger": false,
      "metar": "METAR ESMS 201550Z 09003KT CAVOK M00/M02 Q1020",
      "taf": "TAF ESMS 201427Z 2015/2115 14005KT CAVOK"
    },
    {
      "icao": "ESSA",
      "alert": "OK",
      "vis_m": 9999,
      "fzfg": false,
      "metar_trigger": false,
      "taf_trigger": false,
      "metar": "METAR ESSA 201550Z 06007KT 9999 OVC012 M02/M05 Q1024 NOSIG",
      "taf": "TAF ESSA 201430Z 2015/2115 05006KT 9999 OVC010"
    },
    {
      "icao": "EYKA",
      "alert": "OK",
      "vis_m": 4300,
      "fzfg": false,
      "metar_trigger": false,
      "taf_trigger": false,
      "metar": "METAR EYKA 201550Z VRB01KT 4300 BR NSC M09/M11 Q1025",
      "taf": "TAF EYKA 201100Z 2012/2112 VRB04KT 5000 BR NSC"
    },
    {
      "icao": "EYPA",
      "alert": "OK",
      "vis_m": 7000,
      "fzfg": false,
      "metar_trigger": false,
      "taf_trigger": false,
      "metar": "METAR EYPA 201550Z 12003KT 090V150 7000 SCT007 M09/M13 Q1024",
      "taf": "TAF EYPA 201103Z 2012/2112 VRB05KT 5000 BR BKN005"
    },
    {
      "icao": "EYVI",
      "alert": "OK",
      "vis_m": 4000,
      "fzfg": false,
      "metar_trigger": false,
      "taf_trigger": false,
      "metar": "METAR EYVI 201550Z 18007KT 4000 BR NSC M12/M13 Q1025 NOSIG",
      "taf": "TAF EYVI 201100Z 2012/2112 VRB04KT 5000 BR NSC"
    },
    {
      "icao": "GCFV",
      "alert": "OK",
      "vis_m": 9999,
      "fzfg": false,
      "metar_trigger": false,
      "taf_trigger": false,
      "metar": "METAR GCFV 201600Z 35012KT 320V030 9999 BKN040 20/08 Q1023",
      "taf": "TAF GCFV 201400Z 2015/2115 36012KT 9999 FEW035 TX21/2114Z TN14/2106Z"
    },
    {
      "icao": "GCLP",
      "alert": "OK",
      "vis_m": 9999,
      "fzfg": false,
      "metar_trigger": false,
      "taf_trigger": false,
      "metar": "METAR GCLP 201600Z 03020KT 9999 FEW040 19/09 Q1023 NOSIG",
      "taf": "TAF GCLP 201400Z 2015/2115 02018KT 9999 SCT040 TX21/2114Z TN14/2106Z"
    },
    {
      "icao": "GCTS",
      "alert": "OK",
      "vis_m": 9999,
      "fzfg": false,
      "metar_trigger": false,
      "taf_trigger": false,
      "metar": "METAR GCTS 201600Z 09016KT 060V120 9999 FEW040 20/08 Q1024 NOSIG",
      "taf": "TAF GCTS 201400Z 2015/2115 07010KT 9999 SCT035 TX22/2114Z TN14/2106Z"
    },
    {
      "icao": "GMAD",
      "alert": "OK",
      "vis_m": 9999,
      "fzfg": false,
      "metar_trigger": false,
      "taf_trigger": false,
      "metar": "METAR GMAD 201600Z 23009KT CAVOK 17/07 Q1019 NOSIG",
      "taf": "TAF GMAD 201100Z 2012/2118 28010KT CAVOK"
    },
    {
      "icao": "GMMN",
      "alert": "OK",
      "vis_m": 9999,
      "fzfg": false,
      "metar_trigger": false,
      "taf_trigger": false,
      "metar": "METAR GMMN 201600Z 22010KT 9999 BKN040 12/10 Q1021 NOSIG",
      "taf": "TAF GMMN 201100Z 2012/2118 22010KT 9999 BKN020"
    },
    {
      "icao": "GMMX",
      "alert": "OK",
      "vis_m": 9999,
      "fzfg": false,
      "metar_trigger": false,
      "taf_trigger": false,
      "metar": "METAR GMMX 201600Z 03005KT 330V100 CAVOK 15/05 Q1020 NOSIG",
      "taf": "TAF GMMX 201100Z 2012/2118 04006KT CAVOK"
    },
    {
      "icao": "HEGN",
      "alert": "OK",
      "vis_m": 9999,
      "fzfg": false,
      "metar_trigger": false,
      "taf_trigger": false,
      "metar": "METAR HEGN 201600Z 33008KT CAVOK 19/08 Q1018 NOSIG",
      "taf": "TAF HEGN 201100Z 2012/2118 35014KT CAVOK"
    },
    {
      "icao": "HEMA",
      "alert": "OK",
      "vis_m": 9999,
      "fzfg": false,
      "metar_trigger": false,
      "taf_trigger": false,
      "metar": "METAR HEMA 201600Z 33012KT CAVOK 19/11 Q1017 NOSIG",
      "taf": "TAF HEMA 201100Z 2012/2118 36015KT CAVOK"
    },
    {
      "icao": "HESH",
      "alert": "OK",
      "vis_m": 9999,
      "fzfg": false,
      "metar_trigger": false,
      "taf_trigger": false,
      "metar": "METAR HESH 201600Z 36011KT CAVOK 20/08 Q1017 NOSIG",
      "taf": "TAF HESH 201100Z 2012/2118 01012KT CAVOK"
    },
    {
      "icao": "HESX",
      "alert": "OK",
      "vis_m": 9999,
      "fzfg": false,
      "metar_trigger": false,
      "taf_trigger": false,
      "metar": "METAR HESX 201600Z 05017KT CAVOK 15/06 Q1019 NOSIG",
      "taf": "TAF HESX 201100Z 2012/2118 06014KT 8000 NSC"
    },
    {
      "icao": "LATI",
      "alert": "OK",
      "vis_m": null,
      "fzfg": false,
      "metar_trigger": false,
      "taf_trigger": false,
      "metar": "",
      "taf": "TAF LATI 201100Z 2012/2112 VRB05KT CAVOK TX13/2012Z TN01/2105Z"
    },
    {
      "icao": "LBPD",
      "alert": "OK",
      "vis_m": 9999,
      "fzfg": false,
      "metar_trigger": false,
      "taf_trigger": false,
      "metar": "METAR LBPD 201600Z AUTO 15006KT 9999 NCD M01/M04 Q1032 NOSIG",
      "taf": "TAF LBPD 201100Z 2012/2112 10008KT CAVOK"
    },
    {
      "icao": "LBSF",
      "alert": "OK",
      "vis_m": 9999,
      "fzfg": false,
      "metar_trigger": false,
      "taf_trigger": false,
      "metar": "METAR LBSF 201600Z AUTO 12008KT 9999 NCD M02/M09 Q1028 NOSIG",
      "taf": "TAF LBSF 201100Z 2012/2112 11012KT CAVOK"
    },
    {
      "icao": "LBWN",
      "alert": "OK",
      "vis_m": 9999,
      "fzfg": false,
      "metar_trigger": false,
      "taf_trigger": false,
      "metar": "METAR LBWN 201600Z 09006KT CAVOK M03/M05 Q1032 NOSIG",
      "taf": "TAF LBWN 201100Z 2012/2112 VRB04KT CAVOK"
    },
    {
      "icao": "LCLK",
      "alert": "OK",
      "vis_m": 9999,
      "fzfg": false,
      "metar_trigger": false,
      "taf_trigger": false,
      "metar": "METAR LCLK 201600Z 34006KT 9999 FEW030 08/01 Q1025 NOSIG",
      "taf": "TAF LCLK 201130Z 2012/2112 03014KT 9999 FEW025"
    },
    {
      "icao": "LCPH",
      "alert": "OK",
      "vis_m": 9999,
      "fzfg": false,
      "metar_trigger": false,
      "taf_trigger": false,
      "metar": "METAR LCPH 201600Z 07005KT CAVOK 09/01 Q1024 NOSIG",
      "taf": "TAF LCPH 201130Z 2012/2112 15010KT 9999 FEW020"
    },
    {
      "icao": "LEAL",
      "alert": "OK",
      "vis_m": 9999,
      "fzfg": false,
      "metar_trigger": false,
      "taf_trigger": false,
      "metar": "METAR LEAL 201600Z 31004KT 280V010 9999 FEW061 17/05 Q1010 NOSIG",
      "taf": "TAF LEAL 201100Z 2012/2112 30009KT 9999 FEW040 TX15/2013Z TN10/2106Z"
    },
    {
      "icao": "LEBB",
      "alert": "OK",
      "vis_m": 9999,
      "fzfg": false,
      "metar_trigger": false,
      "taf_trigger": false,
      "metar": "METAR LEBB 201600Z VRB03KT CAVOK 13/03 Q1011 NOSIG",
      "taf": "TAF LEBB 201100Z 2012/2112 20008KT 9999 SCT040 TX13/2013Z TN09/2021Z"
    },
    {
      "icao": "LEBL",
      "alert": "OK",
      "vis_m": 9999,
      "fzfg": false,
      "metar_trigger": false,
      "taf_trigger": false,
      "metar": "METAR LEBL 201600Z 04015KT 9999 -DZ BKN018 12/10 Q1012 NOSIG",
      "taf": "TAF LEBL 201100Z 2012/2112 01013KT 9999 SCT020 BKN030 TX13/2013Z TN08/2106Z"
    },
    {
      "icao": "LECH",
      "alert": "OK",
      "vis_m": 8000,
      "fzfg": false,
      "metar_trigger": false,
      "taf_trigger": false,
      "metar": "METAR LECH 201600Z 35014G25KT 320V040 8000 SHRA FEW040TCU BKN070 09/04 Q1012",
      "taf": ""
    },
    {
      "icao": "LEMD",
      "alert": "OK",
      "vis_m": 9999,
      "fzfg": false,
      "metar_trigger": false,
      "taf_trigger": false,
      "metar": "METAR LEMD 201600Z VRB02KT CAVOK 12/M01 Q1014 NOSIG",
      "taf": "TAF LEMD 201100Z 2012/2118 VRB03KT CAVOK TX12/2014Z TNM02/2106Z"
    },
    {
      "icao": "LEMG",
      "alert": "OK",
      "vis_m": 9999,
      "fzfg": false,
      "metar_trigger": false,
      "taf_trigger": false,
      "metar": "METAR LEMG 201600Z 30018KT CAVOK 13/02 Q1015 NOSIG",
      "taf": "TAF LEMG 201100Z 2012/2112 29012KT CAVOK TX14/2014Z TN07/2106Z"
    },
    {
      "icao": "LEVC",
      "alert": "OK",
      "vis_m": 9999,
      "fzfg": false,
      "metar_trigger": false,
      "taf_trigger": false,
      "metar": "METAR LEVC 201600Z VRB02KT 9999 FEW065 14/05 Q1011 NOSIG",
      "taf": "TAF LEVC 201100Z 2012/2112 30008KT 9999 SCT050 TX15/2013Z TN09/2106Z"
    },
    {
      "icao": "LEXJ",
      "alert": "OK",
      "vis_m": 9999,
      "fzfg": false,
      "metar_trigger": false,
      "taf_trigger": false,
      "metar": "METAR LEXJ 201600Z 20012KT 160V270 9999 OVC079 13/02 Q1010",
      "taf": "TAF LEXJ 201400Z 2015/2115 22009KT 9999 SCT040 TX15/2115Z TN08/2021Z"
    },
    {
      "icao": "LEZG",
      "alert": "OK",
      "vis_m": 9999,
      "fzfg": false,
      "metar_trigger": false,
      "taf_trigger": false,
      "metar": "METAR LEZG 201600Z 24003KT 200V290 CAVOK 12/03 Q1014 NOSIG",
      "taf": "TAF LEZG 201100Z 2012/2112 30010KT 9999 FEW040 TX10/2015Z TN05/2106Z"
    },
    {
      "icao": "LEZL",
      "alert": "OK",
      "vis_m": 9999,
      "fzfg": false,
      "metar_trigger": false,
      "taf_trigger": false,
      "metar": "METAR LEZL 201600Z 25006KT 220V280 CAVOK 15/06 Q1017 NOSIG",
      "taf": "TAF LEZL 201400Z 2015/2115 21010KT CAVOK TX15/2015Z TN04/2107Z"
    },
    {
      "icao": "LFBD",
      "alert": "OK",
      "vis_m": 9999,
      "fzfg": false,
      "metar_trigger": false,
      "taf_trigger": false,
      "metar": "METAR LFBD 201600Z AUTO 14010KT 9999 BKN026 BKN230 10/07 Q1012 NOSIG",
      "taf": ""
    },
    {
      "icao": "LFLL",
      "alert": "OK",
      "vis_m": 450,
      "fzfg": false,
      "metar_trigger": false,
      "taf_trigger": false,
      "metar": "METAR LFLL 201600Z VRB02KT 0450 R35L/0500N R17R/0900U R35R/0550N R17L/0600N FG VV/// 02/02 Q1016 NOSIG",
      "taf": ""
    },
    {
      "icao": "LFLS",
      "alert": "OK",
      "vis_m": 9999,
      "fzfg": false,
      "metar_trigger": false,
      "taf_trigger": false,
      "metar": "METAR LFLS 201600Z AUTO 26003KT CAVOK 06/03 Q1015 TEMPO 2500 BR",
      "taf": "TAF LFLS 201400Z 2015/2115 VRB03KT CAVOK"
    },
    {
      "icao": "LFMN",
      "alert": "OK",
      "vis_m": 9999,
      "fzfg": false,
      "metar_trigger": false,
      "taf_trigger": false,
      "metar": "METAR LFMN 201600Z 10023KT 9999 FEW070 SCT260 14/06 Q1014 NOSIG",
      "taf": "TAF LFMN 201400Z 2015/2121 09025KT CAVOK"
    },
    {
      "icao": "LFOB",
      "alert": "OK",
      "vis_m": 9999,
      "fzfg": false,
      "metar_trigger": false,
      "taf_trigger": false,
      "metar": "METAR LFOB 201600Z AUTO 14013KT CAVOK 07/05 Q1011 NOSIG",
      "taf": ""
    },
    {
      "icao": "LFPO",
      "alert": "OK",
      "vis_m": 9999,
      "fzfg": false,
      "metar_trigger": false,
      "taf_trigger": false,
      "metar": "METAR LFPO 201600Z 13008KT 9999 FEW020 SCT080 BKN160 08/06 Q1012 NOSIG",
      "taf": ""
    },
    {
      "icao": "LFSB",
      "alert": "OK",
      "vis_m": 7000,
      "fzfg": false,
      "metar_trigger": false,
      "taf_trigger": false,
      "metar": "METAR LFSB 201600Z AUTO 34006KT 7000 NSC 00/M01 Q1016 NOSIG",
      "taf": ""
    },
    {
      "icao": "LGAV",
      "alert": "OK",
      "vis_m": 9999,
      "fzfg": false,
      "metar_trigger": false,
      "taf_trigger": false,
      "metar": "METAR LGAV 201550Z 03013KT 9999 FEW020 BKN030 08/02 Q1025 NOSIG",
      "taf": "TAF LGAV 201100Z 2012/2112 05018KT 9999 FEW018 BKN025"
    },
    {
      "icao": "LGTS",
      "alert": "OK",
      "vis_m": 9999,
      "fzfg": false,
      "metar_trigger": false,
      "taf_trigger": false,
      "metar": "METAR LGTS 201550Z 20004KT 9999 SCT025 05/M02 Q1030 NOSIG",
      "taf": "TAF LGTS 201100Z 2012/2112 11010KT 9999 SCT030"
    },
    {
      "icao": "LHBP",
      "alert": "OK",
      "vis_m": 7000,
      "fzfg": false,
      "metar_trigger": false,
      "taf_trigger": false,
      "metar": "METAR LHBP 201600Z 13005KT 7000 NSC M07/M09 Q1030 NOSIG",
      "taf": "TAF LHBP 201115Z 2012/2112 08006KT 5000 BR SCT006"
    },
    {
      "icao": "LHDC",
      "alert": "OK",
      "vis_m": 6000,
      "fzfg": false,
      "metar_trigger": false,
      "taf_trigger": false,
      "metar": "METAR LHDC 201545Z AUTO 04006KT 6000 NCD M05/M07 Q1031 NOSIG",
      "taf": "TAF LHDC 201415Z 2015/2024 VRB03KT 3500 BR NSC"
    },
    {
      "icao": "LIBD",
      "alert": "OK",
      "vis_m": 9999,
      "fzfg": false,
      "metar_trigger": false,
      "taf_trigger": false,
      "metar": "METAR LIBD 201550Z AUTO 08005KT 9999 FEW100/// BKN110/// 08/03 Q1018",
      "taf": "TAF LIBD 201100Z 2012/2112 11010KT 9999 SCT040"
    },
    {
      "icao": "LIBG",
      "alert": "OK",
      "vis_m": 9999,
      "fzfg": false,
      "metar_trigger": false,
      "taf_trigger": false,
      "metar": "METAR LIBG 201550Z 13002KT CAVOK 08/05 Q1019",
      "taf": "TAF LIBG 201400Z 2015/2024 12007KT CAVOK"
    },
    {
      "icao": "LIBP",
      "alert": "OK",
      "vis_m": 9999,
      "fzfg": false,
      "metar_trigger": false,
      "taf_trigger": false,
      "metar": "METAR LIBP 201550Z AUTO 34004KT 9999 SCT061/// 09/06 Q1020",
      "taf": "TAF LIBP 201100Z 2012/2112 VRB05KT 9999 BKN050"
    },
    {
      "icao": "LIBR",
      "alert": "OK",
      "vis_m": 9999,
      "fzfg": false,
      "metar_trigger": false,
      "taf_trigger": false,
      "metar": "METAR LIBR 201550Z 11004KT CAVOK 10/02 Q1019",
      "taf": "TAF LIBR 201100Z 2012/2112 10008KT 9999 SCT040"
    },
    {
      "icao": "LICA",
      "alert": "OK",
      "vis_m": 9000,
      "fzfg": false,
      "metar_trigger": false,
      "taf_trigger": false,
      "metar": "METAR LICA 201550Z AUTO 06021KT 9000 -RA OVC028/// 09/06 Q1014",
      "taf": "TAF LICA 201100Z 2012/2112 08025G48KT 8000 RA BKN030"
    },
    {
      "icao": "LICC",
      "alert": "OK",
      "vis_m": 2000,
      "fzfg": false,
      "metar_trigger": false,
      "taf_trigger": false,
      "metar": "METAR LICC 201550Z 08032KT 2000 RA BR BKN005 OVC015 12/10 Q1008",
      "taf": "TAF LICC 201100Z 2012/2112 08030G50KT 4000 RA BKN015"
    },
    {
      "icao": "LICJ",
      "alert": "OK",
      "vis_m": 9999,
      "fzfg": false,
      "metar_trigger": false,
      "taf_trigger": false,
      "metar": "METAR LICJ 201550Z AUTO 08028G39KT 9999 -RA SCT032/// BKN100/// 14/08 Q1004",
      "taf": "TAF LICJ 201100Z 2012/2112 08030G58KT 9999 BKN040"
    },
    {
      "icao": "LIMC",
      "alert": "OK",
      "vis_m": 9999,
      "fzfg": false,
      "metar_trigger": false,
      "taf_trigger": false,
      "metar": "METAR LIMC 201550Z 25005KT 9999 SCT070 06/M00 Q1022 NOSIG",
      "taf": "TAF LIMC 201100Z 2012/2118 VRB04KT 9999 SCT050"
    },
    {
      "icao": "LIME",
      "alert": "OK",
      "vis_m": 7000,
      "fzfg": false,
      "metar_trigger": false,
      "taf_trigger": false,
      "metar": "METAR LIME 201550Z VRB02KT 7000 SCT070 04/M02 Q1022 NOSIG",
      "taf": "TAF LIME 201100Z 2012/2112 VRB04KT 9999 SCT060"
    },
    {
      "icao": "LIMF",
      "alert": "OK",
      "vis_m": 6000,
      "fzfg": false,
      "metar_trigger": false,
      "taf_trigger": false,
      "metar": "METAR LIMF 201550Z 22003KT 6000 BKN070 05/M02 Q1022",
      "taf": "TAF LIMF 201100Z 2012/2112 VRB04KT 9999 BKN060"
    },
    {
      "icao": "LIMJ",
      "alert": "OK",
      "vis_m": 9999,
      "fzfg": false,
      "metar_trigger": false,
      "taf_trigger": false,
      "metar": "METAR LIMJ 201550Z 03016KT CAVOK 09/M02 Q1018",
      "taf": "TAF LIMJ 201100Z 2012/2112 02015KT 9999 FEW080"
    },
    {
      "icao": "LIPE",
      "alert": "OK",
      "vis_m": 6000,
      "fzfg": false,
      "metar_trigger": false,
      "taf_trigger": false,
      "metar": "METAR LIPE 201550Z 34003KT 310V010 6000 BKN035 03/M00 Q1023",
      "taf": "TAF LIPE 201100Z 2012/2112 28006KT 8000 BKN030"
    },
    {
      "icao": "LIPH",
      "alert": "OK",
      "vis_m": 9999,
      "fzfg": false,
      "metar_trigger": false,
      "taf_trigger": false,
      "metar": "METAR LIPH 201550Z 01002KT CAVOK 07/M05 Q1023",
      "taf": "TAF LIPH 201100Z 2012/2112 04007KT CAVOK"
    },
    {
      "icao": "LIPQ",
      "alert": "OK",
      "vis_m": 9999,
      "fzfg": false,
      "metar_trigger": false,
      "taf_trigger": false,
      "metar": "METAR LIPQ 201550Z AUTO 06005KT 9999 NCD 05/M06 Q1022",
      "taf": "TAF LIPQ 201100Z 2012/2112 VRB05KT CAVOK"
    },
    {
      "icao": "LIPR",
      "alert": "OK",
      "vis_m": 9999,
      "fzfg": false,
      "metar_trigger": false,
      "taf_trigger": false,
      "metar": "METAR LIPR 201550Z 29009KT 9999 FEW020 03/02 Q1022",
      "taf": "TAF LIPR 201100Z 2012/2112 30010KT 9999 BKN030"
    },
    {
      "icao": "LIPX",
      "alert": "OK",
      "vis_m": 9999,
      "fzfg": false,
      "metar_trigger": false,
      "taf_trigger": false,
      "metar": "METAR LIPX 201550Z 27005KT 9999 BKN060 05/M03 Q1023",
      "taf": "TAF LIPX 201100Z 2012/2112 VRB04KT 9999 SCT070"
    },
    {
      "icao": "LIPY",
      "alert": "OK",
      "vis_m": 9000,
      "fzfg": false,
      "metar_trigger": false,
      "taf_trigger": false,
      "metar": "METAR LIPY 201550Z AUTO 32008KT 9000 NCD 08/07 Q1021",
      "taf": "TAF LIPY 201100Z 2012/2112 09010KT 9999 BKN030"
    },
    {
      "icao": "LIPZ",
      "alert": "OK",
      "vis_m": 9999,
      "fzfg": false,
      "metar_trigger": false,
      "taf_trigger": false,
      "metar": "METAR LIPZ 201550Z 02005KT CAVOK 06/M05 Q1023 NOSIG",
      "taf": "TAF LIPZ 201100Z 2012/2118 02008KT CAVOK"
    },
    {
      "icao": "LIRF",
      "alert": "OK",
      "vis_m": 9999,
      "fzfg": false,
      "metar_trigger": false,
      "taf_trigger": false,
      "metar": "METAR LIRF 201550Z 15004KT CAVOK 13/01 Q1014 NOSIG",
      "taf": "TAF LIRF 201100Z 2012/2118 VRB05KT 9999 SCT050"
    },
    {
      "icao": "LIRN",
      "alert": "OK",
      "vis_m": 9999,
      "fzfg": false,
      "metar_trigger": false,
      "taf_trigger": false,
      "metar": "METAR LIRN 201550Z 05010KT CAVOK 10/01 Q1015 NOSIG",
      "taf": "TAF LIRN 201100Z 2012/2112 05015G26KT 9999 BKN070"
    },
    {
      "icao": "LIRP",
      "alert": "OK",
      "vis_m": 9999,
      "fzfg": false,
      "metar_trigger": false,
      "taf_trigger": false,
      "metar": "METAR LIRP 201545Z 06015KT CAVOK 11/02 Q1017 NOSIG",
      "taf": "TAF LIRP 201100Z 2012/2112 08017KT 9999 BKN080"
    },
    {
      "icao": "LIRZ",
      "alert": "OK",
      "vis_m": 9999,
      "fzfg": false,
      "metar_trigger": false,
      "taf_trigger": false,
      "metar": "METAR LIRZ 201550Z AUTO 06014KT 010V080 9999 NCD 10/01 Q1017",
      "taf": "TAF LIRZ 201100Z 2012/2112 05018G32KT 9999 SCT070"
    },
    {
      "icao": "LJLJ",
      "alert": "OK",
      "vis_m": 9999,
      "fzfg": false,
      "metar_trigger": false,
      "taf_trigger": false,
      "metar": "METAR LJLJ 201600Z VRB01KT 9999 BKN018 M04/M07 Q1026 NOSIG",
      "taf": "TAF LJLJ 201100Z 2012/2112 12003KT 9999 OVC018"
    },
    {
      "icao": "LKMT",
      "alert": "OK",
      "vis_m": 9999,
      "fzfg": false,
      "metar_trigger": false,
      "taf_trigger": false,
      "metar": "METAR LKMT 201600Z 23011KT CAVOK M03/M06 Q1025 NOSIG",
      "taf": "TAF LKMT 201100Z 2012/2112 23014KT CAVOK"
    },
    {
      "icao": "LKPR",
      "alert": "OK",
      "vis_m": 9999,
      "fzfg": false,
      "metar_trigger": false,
      "taf_trigger": false,
      "metar": "METAR LKPR 201600Z 11004KT CAVOK M03/M07 Q1021 NOSIG",
      "taf": "TAF LKPR 201400Z 2015/2121 13006KT CAVOK"
    },
    {
      "icao": "LLBG",
      "alert": "OK",
      "vis_m": 9999,
      "fzfg": false,
      "metar_trigger": false,
      "taf_trigger": false,
      "metar": "METAR LLBG 201550Z 01005KT CAVOK 12/02 Q1023 NOSIG RMK FEW055",
      "taf": "TAF LLBG 201106Z 2012/2112 36010KT CAVOK"
    },
    {
      "icao": "LMML",
      "alert": "OK",
      "vis_m": 5000,
      "fzfg": false,
      "metar_trigger": false,
      "taf_trigger": false,
      "metar": "METAR LMML 201615Z 09027KT 5000 DU FEW009 FEW015TCU BKN024 14/13 Q1000 RESHRA NOSIG",
      "taf": ""
    },
    {
      "icao": "LOWW",
      "alert": "OK",
      "vis_m": 9999,
      "fzfg": false,
      "metar_trigger": false,
      "taf_trigger": false,
      "metar": "METAR LOWW 201550Z 14016KT CAVOK M05/M08 Q1026 TEMPO FM1700 BKN008",
      "taf": "TAF LOWW 201415Z 2015/2121 13018KT 9999 FEW008 TXM03/2115Z TNM07/2106Z"
    },
    {
      "icao": "LPFR",
      "alert": "OK",
      "vis_m": 9999,
      "fzfg": false,
      "metar_trigger": false,
      "taf_trigger": false,
      "metar": "METAR LPFR 201600Z 25010KT 9999 FEW025 15/09 Q1019",
      "taf": "TAF LPFR 201100Z 2012/2112 25010KT 9999 FEW045"
    },
    {
      "icao": "LPMA",
      "alert": "OK",
      "vis_m": 9999,
      "fzfg": false,
      "metar_trigger": false,
      "taf_trigger": false,
      "metar": "METAR LPMA 201600Z 14003KT 070V180 9999 SCT016 18/08 Q1024",
      "taf": "TAF LPMA 201100Z 2012/2112 34010KT 9999 SCT016"
    },
    {
      "icao": "LPPR",
      "alert": "OK",
      "vis_m": 5000,
      "fzfg": false,
      "metar_trigger": false,
      "taf_trigger": false,
      "metar": "METAR LPPR 201600Z 19009KT 5000 RADZ BR SCT007 BKN015 OVC036 11/11 Q1014",
      "taf": "TAF LPPR 201100Z 2012/2112 19015KT 8000 -RA SCT008 BKN025"
    },
    {
      "icao": "LPPS",
      "alert": "OK",
      "vis_m": 9999,
      "fzfg": false,
      "metar_trigger": false,
      "taf_trigger": false,
      "metar": "METAR LPPS 201600Z 29009KT 9999 FEW015 16/09 Q1024",
      "taf": "TAF LPPS 201100Z 2012/2118 34010KT 9999 SCT015 SCT030"
    },
    {
      "icao": "LPPT",
      "alert": "OK",
      "vis_m": 9999,
      "fzfg": false,
      "metar_trigger": false,
      "taf_trigger": false,
      "metar": "METAR LPPT 201600Z 23011KT 9999 FEW020 14/10 Q1017",
      "taf": "TAF LPPT 201100Z 2012/2118 25010KT 9999 SCT035"
    },
    {
      "icao": "LQBK",
      "alert": "OK",
      "vis_m": 9999,
      "fzfg": false,
      "metar_trigger": false,
      "taf_trigger": false,
      "metar": "METAR LQBK 201600Z 34003KT 9999 OVC020 M02/M06 Q1029 NOSIG",
      "taf": "TAF LQBK 201100Z 2012/2112 VRB03KT 9999 BKN020 TXM01/2014Z TNM06/2106Z"
    },
    {
      "icao": "LQSA",
      "alert": "OK",
      "vis_m": 9999,
      "fzfg": false,
      "metar_trigger": false,
      "taf_trigger": false,
      "metar": "METAR LQSA 201600Z 20002KT CAVOK M05/M06 Q1024 NOSIG",
      "taf": "TAF LQSA 201100Z 2012/2112 VRB02KT 7000 OVC012 TXM00/2112Z TNM09/2106Z"
    },
    {
      "icao": "LQTZ",
      "alert": "OK",
      "vis_m": 3500,
      "fzfg": false,
      "metar_trigger": false,
      "taf_trigger": false,
      "metar": "METAR LQTZ 201600Z 26002KT 3500 BR NSC M04/M05 Q1027",
      "taf": "TAF LQTZ 201100Z 2012/2112 28005KT 7000 BKN015 TXM02/2014Z TNM09/2105Z"
    },
    {
      "icao": "LRBC",
      "alert": "OK",
      "vis_m": 9999,
      "fzfg": false,
      "metar_trigger": false,
      "taf_trigger": false,
      "metar": "METAR LRBC 201600Z 15008KT CAVOK M03/M07 Q1030",
      "taf": "TAF LRBC 201400Z 2015/2024 15008KT CAVOK"
    },
    {
      "icao": "LRBS",
      "alert": "OK",
      "vis_m": 9999,
      "fzfg": false,
      "metar_trigger": false,
      "taf_trigger": false,
      "metar": "METAR LRBS 201600Z 26002KT CAVOK M01/M06 Q1032 NOSIG",
      "taf": "TAF LRBS 201100Z 2012/2112 25008KT CAVOK"
    },
    {
      "icao": "LRBV",
      "alert": "OK",
      "vis_m": 9999,
      "fzfg": false,
      "metar_trigger": false,
      "taf_trigger": false,
      "metar": "METAR LRBV 201600Z 22006KT CAVOK M08/M10 Q1029",
      "taf": "TAF LRBV 201400Z 2015/2024 VRB04KT CAVOK"
    },
    {
      "icao": "LRCL",
      "alert": "OK",
      "vis_m": 9999,
      "fzfg": false,
      "metar_trigger": false,
      "taf_trigger": false,
      "metar": "METAR LRCL 201600Z 05001KT CAVOK M08/M10 Q1031",
      "taf": "TAF LRCL 201400Z 2015/2024 VRB04KT CAVOK"
    },
    {
      "icao": "LRCV",
      "alert": "OK",
      "vis_m": 9999,
      "fzfg": false,
      "metar_trigger": false,
      "taf_trigger": false,
      "metar": "METAR LRCV 201600Z 00000KT CAVOK M03/M05 Q1031",
      "taf": "TAF LRCV 201400Z 2015/2024 VRB04KT CAVOK"
    },
    {
      "icao": "LRIA",
      "alert": "OK",
      "vis_m": 9999,
      "fzfg": false,
      "metar_trigger": false,
      "taf_trigger": false,
      "metar": "METAR LRIA 201600Z 06006KT CAVOK M07/M11 Q1031",
      "taf": "TAF LRIA 201400Z 2015/2024 VRB04KT 7000 NSC"
    },
    {
      "icao": "LROP",
      "alert": "OK",
      "vis_m": 7000,
      "fzfg": false,
      "metar_trigger": false,
      "taf_trigger": false,
      "metar": "METAR LROP 201600Z 23004KT 7000 NSC M03/M08 Q1032 BECMG 5000 BR",
      "taf": "TAF LROP 201100Z 2012/2112 25008KT CAVOK"
    },
    {
      "icao": "LRSB",
      "alert": "OK",
      "vis_m": 9999,
      "fzfg": false,
      "metar_trigger": false,
      "taf_trigger": false,
      "metar": "METAR LRSB 201600Z 28003KT CAVOK M06/M08 Q1029",
      "taf": "TAF LRSB 201100Z 2012/2112 VRB04KT CAVOK"
    },
    {
      "icao": "LRSM",
      "alert": "OK",
      "vis_m": 4000,
      "fzfg": false,
      "metar_trigger": false,
      "taf_trigger": false,
      "metar": "METAR LRSM 201600Z 11002KT 4000 BR NSC M08/M09 Q1031",
      "taf": "TAF LRSM 201400Z 2015/2024 VRB04KT 5000 BR NSC"
    },
    {
      "icao": "LRSV",
      "alert": "OK",
      "vis_m": 5000,
      "fzfg": false,
      "metar_trigger": false,
      "taf_trigger": false,
      "metar": "METAR LRSV 201600Z 00000KT 5000 BR NSC M06/M09 Q1028",
      "taf": "TAF LRSV 201400Z 2015/2024 VRB04KT 5000 BR NSC"
    },
    {
      "icao": "LRTM",
      "alert": "OK",
      "vis_m": 4000,
      "fzfg": false,
      "metar_trigger": false,
      "taf_trigger": false,
      "metar": "METAR LRTM 201600Z 25003KT 4000 BR FEW010 M10/M13 Q1031",
      "taf": "TAF LRTM 201400Z 2015/2024 VRB04KT 5000 BR NSC"
    },
    {
      "icao": "LRTR",
      "alert": "OK",
      "vis_m": 8000,
      "fzfg": false,
      "metar_trigger": false,
      "taf_trigger": false,
      "metar": "METAR LRTR 201600Z 36006KT 8000 NSC M02/M03 Q1029",
      "taf": "TAF LRTR 201100Z 2012/2112 10006KT CAVOK"
    },
    {
      "icao": "LTAC",
      "alert": "OK",
      "vis_m": 9999,
      "fzfg": false,
      "metar_trigger": false,
      "taf_trigger": false,
      "metar": "METAR LTAC 201550Z 10005KT CAVOK M01/M11 Q1027 NOSIG RMK RWY21C 10007KT RWY03L 08004KT 030V120 RWY21R 09007KT RWY03R 04005KT RWY21L 10007KT",
      "taf": "TAF LTAC 201040Z 2012/2112 VRB02KT 9999 FEW040"
    },
    {
      "icao": "LTFM",
      "alert": "OK",
      "vis_m": 9999,
      "fzfg": false,
      "metar_trigger": false,
      "taf_trigger": false,
      "metar": "METAR LTFM 201550Z 04014KT 9999 FEW016 BKN032 04/01 Q1031 NOSIG RMK RWY17L 04012KT RWY34L 04013KT RWY16R 04014KT RWY36 05014KT RWY18 05013KT",
      "taf": "TAF LTFM 201040Z 2012/2118 04014KT 9999 SCT016 BKN032"
    },
    {
      "icao": "LUKK",
      "alert": "OK",
      "vis_m": 9000,
      "fzfg": false,
      "metar_trigger": false,
      "taf_trigger": false,
      "metar": "METAR LUKK 201600Z 09005KT 9000 NSC M08/M12 Q1032 NOSIG",
      "taf": "TAF LUKK 201102Z 2012/2112 VRB05KT CAVOK"
    },
    {
      "icao": "LWOH",
      "alert": "OK",
      "vis_m": null,
      "fzfg": false,
      "metar_trigger": false,
      "taf_trigger": false,
      "metar": "",
      "taf": "TAF LWOH 201430Z 2015/2115 04010KT 9999 SCT035"
    },
    {
      "icao": "LWSK",
      "alert": "OK",
      "vis_m": null,
      "fzfg": false,
      "metar_trigger": false,
      "taf_trigger": false,
      "metar": "",
      "taf": "TAF LWSK 201430Z 2015/2115 15008KT CAVOK"
    },
    {
      "icao": "LYBE",
      "alert": "OK",
      "vis_m": 9999,
      "fzfg": false,
      "metar_trigger": false,
      "taf_trigger": false,
      "metar": "METAR LYBE 201600Z 10006KT CAVOK 01/M05 Q1028 NOSIG",
      "taf": "TAF LYBE 201100Z 2012/2112 12012KT CAVOK TX05/2112Z TNM05/2106Z"
    },
    {
      "icao": "LYNI",
      "alert": "OK",
      "vis_m": 9999,
      "fzfg": false,
      "metar_trigger": false,
      "taf_trigger": false,
      "metar": "METAR LYNI 201600Z 05003KT CAVOK 02/M06 Q1028 NOSIG",
      "taf": "TAF LYNI 201100Z 2012/2112 08006KT CAVOK TX05/2112Z TNM08/2106Z"
    },
    {
      "icao": "LYPG",
      "alert": "OK",
      "vis_m": 9999,
      "fzfg": false,
      "metar_trigger": false,
      "taf_trigger": false,
      "metar": "METAR LYPG 201600Z 31003KT 260V330 CAVOK 04/M02 Q1022 NOSIG",
      "taf": "TAF LYPG 201100Z 2012/2112 16005KT CAVOK TX10/2013Z TN00/2023Z"
    },
    {
      "icao": "LZIB",
      "alert": "OK",
      "vis_m": 9999,
      "fzfg": false,
      "metar_trigger": false,
      "taf_trigger": false,
      "metar": "METAR LZIB 201600Z 11008KT 9999 FEW015 M04/M06 Q1028 NOSIG",
      "taf": "TAF LZIB 201115Z 2012/2112 11009KT 8000 SCT010"
    },
    {
      "icao": "LZKZ",
      "alert": "OK",
      "vis_m": 5000,
      "fzfg": false,
      "metar_trigger": false,
      "taf_trigger": false,
      "metar": "METAR LZKZ 201600Z 17001KT 5000 BR NSC M09/M11 Q1030 NOSIG",
      "taf": "TAF LZKZ 201115Z 2012/2112 22004KT 6000 NSC"
    },
    {
      "icao": "LZTT",
      "alert": "OK",
      "vis_m": 9999,
      "fzfg": false,
      "metar_trigger": false,
      "taf_trigger": false,
      "metar": "METAR LZTT 201600Z VRB03KT CAVOK M06/M10 Q1025 NOSIG",
      "taf": "TAF LZTT 201115Z 2012/2112 VRB02KT CAVOK"
    },
    {
      "icao": "OEJN",
      "alert": "OK",
      "vis_m": 9999,
      "fzfg": false,
      "metar_trigger": false,
      "taf_trigger": false,
      "metar": "METAR OEJN 201600Z 34014KT CAVOK 24/13 Q1014 NOSIG",
      "taf": "TAF OEJN 201100Z 2012/2118 34014KT 7000 FEW040"
    },
    {
      "icao": "OEMA",
      "alert": "OK",
      "vis_m": 9999,
      "fzfg": false,
      "metar_trigger": false,
      "taf_trigger": false,
      "metar": "METAR OEMA 201600Z 30003KT CAVOK 22/M08 Q1017 NOSIG",
      "taf": "TAF OEMA 201100Z 2012/2118 30010KT CAVOK"
    },
    {
      "icao": "OJAI",
      "alert": "OK",
      "vis_m": 5000,
      "fzfg": false,
      "metar_trigger": false,
      "taf_trigger": false,
      "metar": "METAR OJAI 201600Z 28006KT 5000 HZ SCT030 06/M01 Q1021 NOSIG",
      "taf": "TAF OJAI 201100Z 2012/2118 07010KT 5000 HZ SCT030"
    },
    {
      "icao": "OMAA",
      "alert": "OK",
      "vis_m": 9999,
      "fzfg": false,
      "metar_trigger": false,
      "taf_trigger": false,
      "metar": "METAR OMAA 201600Z 31004KT CAVOK 21/16 Q1015 NOSIG",
      "taf": "TAF OMAA 201100Z 2012/2118 30010KT 8000 NSC"
    },
    {
      "icao": "OMDB",
      "alert": "OK",
      "vis_m": 9999,
      "fzfg": false,
      "metar_trigger": false,
      "taf_trigger": false,
      "metar": "METAR OMDB 201600Z 27007KT 9999 FEW045 22/16 Q1015 NOSIG",
      "taf": "TAF OMDB 201100Z 2012/2118 29012KT 8000 NSC"
    },
    {
      "icao": "UAAA",
      "alert": "CRITICAL",
      "vis_m": 50,
      "fzfg": true,
      "metar_trigger": true,
      "taf_trigger": false,
      "metar": "SPECI UAAA 201608Z 00000MPS 0050 R23L/0300 FZFG SCT100 BKN200 M11/M12 Q1024 NOSIG",
      "taf": "TAF UAAA 201101Z 2012/2112 16003MPS 1000 BR FU SCT020 BKN100 TXM05/2108Z TNM15/2102Z"
    },
    {
      "icao": "UBBB",
      "alert": "OK",
      "vis_m": 9999,
      "fzfg": false,
      "metar_trigger": false,
      "taf_trigger": false,
      "metar": "METAR UBBB 201600Z 34018KT 9999 -RA BKN007 OVC021 02/01 Q1023 NOSIG",
      "taf": "TAF UBBB 201055Z 2012/2112 35020G30KT 8000 SCT010 OVC025 TX03/2012Z TN01/2101Z"
    },
    {
      "icao": "UDSG",
      "alert": "OK",
      "vis_m": 9999,
      "fzfg": false,
      "metar_trigger": false,
      "taf_trigger": false,
      "metar": "METAR UDSG 201600Z 21004KT 9999 BKN049 M06/M11 Q1018 NOSIG",
      "taf": "TAF UDSG 201058Z 2012/2112 36006KT 9999 BKN040"
    },
    {
      "icao": "UDYZ",
      "alert": "OK",
      "vis_m": 9000,
      "fzfg": false,
      "metar_trigger": false,
      "taf_trigger": false,
      "metar": "METAR UDYZ 201600Z 03002KT 9000 NSC M03/M05 Q1019 NOSIG",
      "taf": "TAF UDYZ 201100Z 2012/2112 VRB06KT 6000 SCT040"
    },
    {
      "icao": "UGKO",
      "alert": "OK",
      "vis_m": 9999,
      "fzfg": false,
      "metar_trigger": false,
      "taf_trigger": false,
      "metar": "METAR UGKO 201600Z 25011KT 9999 -SNRA BKN018 OVC034 03/01 Q1024 NOSIG",
      "taf": "TAF UGKO 201100Z 2012/2112 26007KT 9999 SCT020 BKN045 TX06/2012Z TN01/2106Z"
    }
  ]
}