{
  "ts_utc": "2026-03-06T15:04:36Z",
  "threshold_m": 150,
  "source": "stations_override.txt (ICAO list) + aviationweather.gov (METAR/TAF raw)",
  "station_count": 159,
  "stations": [
    {
      "icao": "BIKF",
      "alert": "OK",
      "vis_m": 5000,
      "fzfg": false,
      "metar_trigger": false,
      "taf_trigger": false,
      "metar": "METAR BIKF 061500Z 19017KT 5000 -RA BR FEW007 BKN012 OVC020 02/02 Q0973",
      "taf": "TAF BIKF 061333Z 0615/0715 15023KT 9999 -RA BKN014 OVC022 TX03/0615Z TN02/0624Z"
    },
    {
      "icao": "BKPR",
      "alert": "OK",
      "vis_m": 9999,
      "fzfg": false,
      "metar_trigger": false,
      "taf_trigger": false,
      "metar": "METAR BKPR 061500Z VRB02KT CAVOK 14/04 Q1023 NOSIG",
      "taf": "TAF BKPR 061130Z 0612/0712 VRB05KT CAVOK"
    },
    {
      "icao": "EBCI",
      "alert": "OK",
      "vis_m": 9999,
      "fzfg": false,
      "metar_trigger": false,
      "taf_trigger": false,
      "metar": "METAR EBCI 061450Z 28003KT 230V340 CAVOK 17/07 Q1021 NOSIG",
      "taf": "TAF EBCI 061106Z 0612/0718 VRB03KT CAVOK"
    },
    {
      "icao": "EDDB",
      "alert": "OK",
      "vis_m": 9999,
      "fzfg": false,
      "metar_trigger": false,
      "taf_trigger": false,
      "metar": "METAR EDDB 061450Z AUTO 13007KT 090V160 CAVOK 17/M00 Q1023 NOSIG",
      "taf": "TAF EDDB 061100Z 0612/0712 12005KT CAVOK"
    },
    {
      "icao": "EDDH",
      "alert": "OK",
      "vis_m": 9999,
      "fzfg": false,
      "metar_trigger": false,
      "taf_trigger": false,
      "metar": "METAR EDDH 061450Z AUTO 15006KT CAVOK 17/02 Q1022 NOSIG",
      "taf": "TAF EDDH 061100Z 0612/0718 15005KT CAVOK"
    },
    {
      "icao": "EDDK",
      "alert": "OK",
      "vis_m": 9999,
      "fzfg": false,
      "metar_trigger": false,
      "taf_trigger": false,
      "metar": "METAR EDDK 061450Z AUTO VRB02KT CAVOK 19/03 Q1021 NOSIG",
      "taf": "TAF EDDK 061100Z 0612/0718 12007KT CAVOK"
    },
    {
      "icao": "EDDN",
      "alert": "OK",
      "vis_m": 9999,
      "fzfg": false,
      "metar_trigger": false,
      "taf_trigger": false,
      "metar": "METAR EDDN 061450Z AUTO VRB03KT CAVOK 17/04 Q1021 NOSIG",
      "taf": "TAF EDDN 061100Z 0612/0712 13006KT CAVOK"
    },
    {
      "icao": "EDDS",
      "alert": "OK",
      "vis_m": 9999,
      "fzfg": false,
      "metar_trigger": false,
      "taf_trigger": false,
      "metar": "METAR EDDS 061450Z AUTO 01004KT 320V080 CAVOK 16/04 Q1020 NOSIG",
      "taf": "TAF EDDS 061100Z 0612/0712 VRB03KT CAVOK"
    },
    {
      "icao": "EDFH",
      "alert": "OK",
      "vis_m": 9999,
      "fzfg": false,
      "metar_trigger": false,
      "taf_trigger": false,
      "metar": "METAR EDFH 061450Z VRB01KT CAVOK 15/04 Q1021",
      "taf": "TAF EDFH 061100Z 0612/0712 13007KT CAVOK"
    },
    {
      "icao": "EDJA",
      "alert": "OK",
      "vis_m": 9999,
      "fzfg": false,
      "metar_trigger": false,
      "taf_trigger": false,
      "metar": "METAR EDJA 061450Z 04007KT CAVOK 14/04 Q1020",
      "taf": "TAF EDJA 061400Z 0615/0624 04004KT CAVOK"
    },
    {
      "icao": "EDLW",
      "alert": "OK",
      "vis_m": 9999,
      "fzfg": false,
      "metar_trigger": false,
      "taf_trigger": false,
      "metar": "METAR EDLW 061450Z 34003KT 280V020 CAVOK 18/06 Q1020",
      "taf": "TAF EDLW 061100Z 0612/0712 VRB03KT CAVOK"
    },
    {
      "icao": "EDNY",
      "alert": "OK",
      "vis_m": 9999,
      "fzfg": false,
      "metar_trigger": false,
      "taf_trigger": false,
      "metar": "METAR EDNY 061450Z 23007KT CAVOK 11/05 Q1020",
      "taf": "TAF EDNY 061400Z 0615/0624 VRB03KT CAVOK"
    },
    {
      "icao": "EDSB",
      "alert": "OK",
      "vis_m": 9999,
      "fzfg": false,
      "metar_trigger": false,
      "taf_trigger": false,
      "metar": "METAR EDSB 061450Z 01006KT CAVOK 15/05 Q1020",
      "taf": "TAF EDSB 061100Z 0612/0712 VRB03KT CAVOK"
    },
    {
      "icao": "EETN",
      "alert": "OK",
      "vis_m": 9999,
      "fzfg": false,
      "metar_trigger": false,
      "taf_trigger": false,
      "metar": "METAR EETN 061450Z 23009KT CAVOK 08/M01 Q1020 NOSIG",
      "taf": "TAF EETN 061130Z 0612/0712 23010KT CAVOK"
    },
    {
      "icao": "EFTU",
      "alert": "OK",
      "vis_m": 9999,
      "fzfg": false,
      "metar_trigger": false,
      "taf_trigger": false,
      "metar": "METAR EFTU 061450Z AUTO 24008KT CAVOK 05/M01 Q1018",
      "taf": "TAF EFTU 061426Z 0615/0715 23008KT CAVOK"
    },
    {
      "icao": "EGBB",
      "alert": "OK",
      "vis_m": 9999,
      "fzfg": false,
      "metar_trigger": false,
      "taf_trigger": false,
      "metar": "METAR EGBB 061450Z 36009KT 9999 BKN013 07/05 Q1023",
      "taf": "TAF EGBB 061102Z 0612/0712 33009KT 9000 OVC007"
    },
    {
      "icao": "EGGP",
      "alert": "OK",
      "vis_m": 9999,
      "fzfg": false,
      "metar_trigger": false,
      "taf_trigger": false,
      "metar": "METAR EGGP 061450Z 28009KT 9999 BKN017 06/03 Q1024",
      "taf": "TAF EGGP 061100Z 0612/0712 VRB03KT 9999 SCT016"
    },
    {
      "icao": "EGGW",
      "alert": "OK",
      "vis_m": 5000,
      "fzfg": false,
      "metar_trigger": false,
      "taf_trigger": false,
      "metar": "METAR EGGW 061450Z AUTO 36010KT 5000 -RA OVC002/// //////CB 06/06 Q1022",
      "taf": ""
    },
    {
      "icao": "EGKK",
      "alert": "OK",
      "vis_m": 2500,
      "fzfg": false,
      "metar_trigger": false,
      "taf_trigger": false,
      "metar": "METAR EGKK 061450Z 35005KT 320V080 2500 RA BKN005 09/09 Q1021",
      "taf": "TAF EGKK 061056Z 0612/0718 35005KT 9999 BKN016"
    },
    {
      "icao": "EGNM",
      "alert": "OK",
      "vis_m": 9999,
      "fzfg": false,
      "metar_trigger": false,
      "taf_trigger": false,
      "metar": "METAR EGNM 061450Z 35007KT 9999 SCT013 BKN025 05/02 Q1023",
      "taf": "TAF EGNM 061057Z 0612/0712 02012KT 9999 SCT008"
    },
    {
      "icao": "EGPD",
      "alert": "OK",
      "vis_m": 9999,
      "fzfg": false,
      "metar_trigger": false,
      "taf_trigger": false,
      "metar": "METAR EGPD 061450Z COR AUTO 24004KT 190V270 9999 OVC041 08/M00 Q1023 NOSIG",
      "taf": ""
    },
    {
      "icao": "EGPF",
      "alert": "OK",
      "vis_m": 9999,
      "fzfg": false,
      "metar_trigger": false,
      "taf_trigger": false,
      "metar": "METAR EGPF 061450Z AUTO 26004KT 9999 SCT043 08/01 Q1025",
      "taf": "TAF EGPF 061056Z 0612/0712 VRB04KT 9999 FEW035"
    },
    {
      "icao": "EHBK",
      "alert": "OK",
      "vis_m": 9999,
      "fzfg": false,
      "metar_trigger": false,
      "taf_trigger": false,
      "metar": "METAR EHBK 061455Z AUTO 03003KT 9999 NCD 18/08 Q1020 NOSIG",
      "taf": "TAF EHBK 061106Z 0612/0718 VRB02KT CAVOK"
    },
    {
      "icao": "EHEH",
      "alert": "OK",
      "vis_m": 9999,
      "fzfg": false,
      "metar_trigger": false,
      "taf_trigger": false,
      "metar": "METAR EHEH 061455Z AUTO 19003KT 150V230 9999 NCD 19/06 Q1020 BLU NOSIG",
      "taf": ""
    },
    {
      "icao": "EKBI",
      "alert": "OK",
      "vis_m": 9999,
      "fzfg": false,
      "metar_trigger": false,
      "taf_trigger": false,
      "metar": "METAR EKBI 061450Z AUTO 18004KT 150V210 9999 NCD 15/04 Q1022",
      "taf": "TAF EKBI 061427Z 0615/0715 14006KT CAVOK"
    },
    {
      "icao": "EKCH",
      "alert": "OK",
      "vis_m": 9999,
      "fzfg": false,
      "metar_trigger": false,
      "taf_trigger": false,
      "metar": "METAR EKCH 061450Z AUTO 16004KT 9999 NCD 10/M03 Q1024 NOSIG",
      "taf": "TAF EKCH 061427Z 0615/0715 15007KT CAVOK"
    },
    {
      "icao": "ENAL",
      "alert": "OK",
      "vis_m": 9999,
      "fzfg": false,
      "metar_trigger": false,
      "taf_trigger": false,
      "metar": "METAR ENAL 061450Z VRB02KT 9999 FEW020 07/02 Q1022",
      "taf": "TAF ENAL 061400Z 0615/0624 15008KT 9999 FEW020"
    },
    {
      "icao": "ENBR",
      "alert": "OK",
      "vis_m": 3000,
      "fzfg": false,
      "metar_trigger": false,
      "taf_trigger": false,
      "metar": "METAR ENBR 061450Z 15003KT 110V200 3000 -RADZ BR OVC004 05/04 Q1021 TEMPO 2000 DZRA BR RMK WIND 1200FT 15007KT",
      "taf": "TAF ENBR 061100Z 0612/0712 15005KT 6000 -RADZ SCT005 BKN015"
    },
    {
      "icao": "ENGM",
      "alert": "OK",
      "vis_m": 5000,
      "fzfg": false,
      "metar_trigger": false,
      "taf_trigger": false,
      "metar": "METAR ENGM 061450Z 33003KT 280V350 5000 2200W BCFG FEW003 01/M00 Q1021 NOSIG",
      "taf": ""
    },
    {
      "icao": "ENHD",
      "alert": "OK",
      "vis_m": 8000,
      "fzfg": false,
      "metar_trigger": false,
      "taf_trigger": false,
      "metar": "METAR ENHD 061450Z 20007KT 8000 SCT009 BKN010 BKN015 06/04 Q1021",
      "taf": "TAF ENHD 061400Z 0615/0623 20008KT 9000 -RA BKN020"
    },
    {
      "icao": "ENTC",
      "alert": "OK",
      "vis_m": 9999,
      "fzfg": false,
      "metar_trigger": false,
      "taf_trigger": false,
      "metar": "METAR ENTC 061450Z 24023KT 9999 VCSH FEW045 SCT056CB 04/M05 Q1005 TEMPO 24025G35KT SHRAGS SCT020CB BKN030 RMK WIND 2600FT 26040G60KT",
      "taf": ""
    },
    {
      "icao": "ENTO",
      "alert": "OK",
      "vis_m": 9999,
      "fzfg": false,
      "metar_trigger": false,
      "taf_trigger": false,
      "metar": "METAR ENTO 061450Z 18006KT CAVOK 05/02 Q1022 NOSIG",
      "taf": "TAF ENTO 061100Z 0612/0712 18005KT 9999 FEW040"
    },
    {
      "icao": "ENVA",
      "alert": "OK",
      "vis_m": 9999,
      "fzfg": false,
      "metar_trigger": false,
      "taf_trigger": false,
      "metar": "METAR ENVA 061450Z 25006KT 9999 FEW040 06/02 Q1023 REDZ NOSIG RMK WIND 670FT 26007KT",
      "taf": "TAF ENVA 061100Z 0612/0712 25010KT 9999 SCT018 BKN024"
    },
    {
      "icao": "ENZV",
      "alert": "OK",
      "vis_m": 9000,
      "fzfg": false,
      "metar_trigger": false,
      "taf_trigger": false,
      "metar": "METAR ENZV 061450Z VRB01KT 9000 SCT040 07/05 Q1021 NOSIG",
      "taf": "TAF ENZV 061100Z 0612/0712 VRB05KT 9999 SCT045"
    },
    {
      "icao": "EPGD",
      "alert": "OK",
      "vis_m": 9999,
      "fzfg": false,
      "metar_trigger": false,
      "taf_trigger": false,
      "metar": "METAR EPGD 061500Z 13005KT 110V170 CAVOK 12/M01 Q1025",
      "taf": "TAF EPGD 061130Z 0612/0712 VRB03KT CAVOK"
    },
    {
      "icao": "EPKK",
      "alert": "OK",
      "vis_m": 9999,
      "fzfg": false,
      "metar_trigger": false,
      "taf_trigger": false,
      "metar": "METAR EPKK 061500Z 08008KT CAVOK 13/M04 Q1026",
      "taf": "TAF EPKK 061430Z 0615/0715 06005KT CAVOK"
    },
    {
      "icao": "EPKT",
      "alert": "OK",
      "vis_m": 9999,
      "fzfg": false,
      "metar_trigger": false,
      "taf_trigger": false,
      "metar": "METAR EPKT 061500Z 06007KT 030V090 CAVOK 14/M07 Q1025",
      "taf": "TAF EPKT 061130Z 0612/0712 14004KT CAVOK"
    },
    {
      "icao": "EPLB",
      "alert": "OK",
      "vis_m": 9999,
      "fzfg": false,
      "metar_trigger": false,
      "taf_trigger": false,
      "metar": "METAR EPLB 061500Z 30006KT CAVOK 11/M01 Q1026",
      "taf": "TAF EPLB 061130Z 0612/0712 32007KT CAVOK"
    },
    {
      "icao": "EPMO",
      "alert": "OK",
      "vis_m": 9999,
      "fzfg": false,
      "metar_trigger": false,
      "taf_trigger": false,
      "metar": "METAR EPMO 061500Z 33003KT 280V020 CAVOK 11/M01 Q1027",
      "taf": "TAF EPMO 061130Z 0612/0712 VRB03KT CAVOK"
    },
    {
      "icao": "EPPO",
      "alert": "OK",
      "vis_m": 9999,
      "fzfg": false,
      "metar_trigger": false,
      "taf_trigger": false,
      "metar": "METAR EPPO 061500Z 14007KT CAVOK 14/M01 Q1026",
      "taf": "TAF EPPO 061130Z 0612/0712 13006KT CAVOK"
    },
    {
      "icao": "EPRA",
      "alert": "OK",
      "vis_m": 9999,
      "fzfg": false,
      "metar_trigger": false,
      "taf_trigger": false,
      "metar": "METAR EPRA 061500Z VRB03KT CAVOK 12/M04 Q1026",
      "taf": "TAF EPRA 061430Z 0615/0624 VRB02KT CAVOK"
    },
    {
      "icao": "EPRZ",
      "alert": "OK",
      "vis_m": 9999,
      "fzfg": false,
      "metar_trigger": false,
      "taf_trigger": false,
      "metar": "METAR EPRZ 061500Z 32003KT 290V070 CAVOK 13/M03 Q1026",
      "taf": "TAF EPRZ 061130Z 0612/0712 VRB03KT CAVOK"
    },
    {
      "icao": "EPSC",
      "alert": "OK",
      "vis_m": 9999,
      "fzfg": false,
      "metar_trigger": false,
      "taf_trigger": false,
      "metar": "METAR EPSC 061500Z 14008KT CAVOK 14/M03 Q1025",
      "taf": "TAF EPSC 061130Z 0612/0712 14010KT CAVOK"
    },
    {
      "icao": "EPSY",
      "alert": "OK",
      "vis_m": 9999,
      "fzfg": false,
      "metar_trigger": false,
      "taf_trigger": false,
      "metar": "METAR EPSY 061500Z 05003KT CAVOK 11/M07 Q1026",
      "taf": "TAF EPSY 061430Z 0615/0624 VRB03KT CAVOK"
    },
    {
      "icao": "EPWA",
      "alert": "OK",
      "vis_m": 9999,
      "fzfg": false,
      "metar_trigger": false,
      "taf_trigger": false,
      "metar": "METAR EPWA 061500Z 27004KT 240V310 CAVOK 12/M01 Q1027 NOSIG",
      "taf": "TAF EPWA 061430Z 0615/0715 VRB04KT CAVOK"
    },
    {
      "icao": "EPWR",
      "alert": "OK",
      "vis_m": 9999,
      "fzfg": false,
      "metar_trigger": false,
      "taf_trigger": false,
      "metar": "METAR EPWR 061500Z 12013KT CAVOK 14/M03 Q1025",
      "taf": "TAF EPWR 061430Z 0615/0715 14012KT CAVOK"
    },
    {
      "icao": "ESGG",
      "alert": "OK",
      "vis_m": 9999,
      "fzfg": false,
      "metar_trigger": false,
      "taf_trigger": false,
      "metar": "METAR ESGG 061450Z 18008KT CAVOK 10/M03 Q1023",
      "taf": "TAF ESGG 061430Z 0615/0715 19009KT CAVOK"
    },
    {
      "icao": "ESKN",
      "alert": "OK",
      "vis_m": 9999,
      "fzfg": false,
      "metar_trigger": false,
      "taf_trigger": false,
      "metar": "METAR ESKN 061450Z 24008KT CAVOK 12/03 Q1022",
      "taf": "TAF ESKN 061430Z 0615/0715 23009KT CAVOK"
    },
    {
      "icao": "ESMS",
      "alert": "OK",
      "vis_m": 9999,
      "fzfg": false,
      "metar_trigger": false,
      "taf_trigger": false,
      "metar": "METAR ESMS 061450Z 13006KT CAVOK 10/M02 Q1024",
      "taf": "TAF ESMS 061427Z 0615/0715 16008KT CAVOK"
    },
    {
      "icao": "ESSA",
      "alert": "OK",
      "vis_m": 9999,
      "fzfg": false,
      "metar_trigger": false,
      "taf_trigger": false,
      "metar": "METAR ESSA 061450Z 25014KT CAVOK 09/02 Q1020 NOSIG",
      "taf": "TAF ESSA 061430Z 0615/0715 26014KT CAVOK"
    },
    {
      "icao": "EYKA",
      "alert": "OK",
      "vis_m": 9999,
      "fzfg": false,
      "metar_trigger": false,
      "taf_trigger": false,
      "metar": "METAR EYKA 061450Z VRB02KT CAVOK 04/M00 Q1026",
      "taf": ""
    },
    {
      "icao": "EYPA",
      "alert": "OK",
      "vis_m": 9999,
      "fzfg": false,
      "metar_trigger": false,
      "taf_trigger": false,
      "metar": "METAR EYPA 061450Z 21006KT 180V240 CAVOK 04/01 Q1026",
      "taf": ""
    },
    {
      "icao": "EYVI",
      "alert": "OK",
      "vis_m": 9999,
      "fzfg": false,
      "metar_trigger": false,
      "taf_trigger": false,
      "metar": "METAR EYVI 061450Z 30004KT 260V330 CAVOK 06/M01 Q1026 NOSIG",
      "taf": "TAF EYVI 061100Z 0612/0712 VRB04KT 8000 NSC"
    },
    {
      "icao": "GCFV",
      "alert": "OK",
      "vis_m": 9999,
      "fzfg": false,
      "metar_trigger": false,
      "taf_trigger": false,
      "metar": "METAR GCFV 061430Z 03019KT 9999 FEW030 BKN040 19/10 Q1021",
      "taf": "TAF GCFV 061400Z 0615/0715 03020KT 9999 SCT025 BKN040 TX20/0714Z TN14/0706Z"
    },
    {
      "icao": "GCLP",
      "alert": "OK",
      "vis_m": 9999,
      "fzfg": false,
      "metar_trigger": false,
      "taf_trigger": false,
      "metar": "METAR GCLP 061430Z 03028G39KT 9999 FEW040 20/08 Q1021 NOSIG",
      "taf": "TAF GCLP 061400Z 0615/0715 03025KT 9999 BKN030 TX18/0714Z TN14/0706Z"
    },
    {
      "icao": "GCTS",
      "alert": "OK",
      "vis_m": 9999,
      "fzfg": false,
      "metar_trigger": false,
      "taf_trigger": false,
      "metar": "METAR GCTS 061430Z 08030KT 9999 FEW040 20/08 Q1022 NOSIG",
      "taf": "TAF GCTS 061400Z 0615/0715 08025KT 9999 SCT040 TX22/0714Z TN14/0706Z"
    },
    {
      "icao": "GMAD",
      "alert": "OK",
      "vis_m": 8000,
      "fzfg": false,
      "metar_trigger": false,
      "taf_trigger": false,
      "metar": "METAR GMAD 061500Z 23010KT 200V270 8000 SCT023 21/14 Q1015 NOSIG",
      "taf": "TAF GMAD 061100Z 0612/0718 28012KT 8000 SCT020"
    },
    {
      "icao": "GMMN",
      "alert": "OK",
      "vis_m": 9999,
      "fzfg": false,
      "metar_trigger": false,
      "taf_trigger": false,
      "metar": "METAR GMMN 061500Z 31013KT 9999 BKN026 15/09 Q1020 NOSIG",
      "taf": "TAF GMMN 061100Z 0612/0718 32014KT 9999 BKN026"
    },
    {
      "icao": "GMMX",
      "alert": "OK",
      "vis_m": 9999,
      "fzfg": false,
      "metar_trigger": false,
      "taf_trigger": false,
      "metar": "METAR GMMX 061500Z 35004KT 280V050 9999 BKN020 16/09 Q1019 NOSIG",
      "taf": ""
    },
    {
      "icao": "HEGN",
      "alert": "OK",
      "vis_m": 9999,
      "fzfg": false,
      "metar_trigger": false,
      "taf_trigger": false,
      "metar": "METAR HEGN 061400Z 36011KT CAVOK 24/07 Q1014 NOSIG",
      "taf": "TAF HEGN 061100Z 0612/0718 36008G20KT CAVOK"
    },
    {
      "icao": "HEMA",
      "alert": "OK",
      "vis_m": 9999,
      "fzfg": false,
      "metar_trigger": false,
      "taf_trigger": false,
      "metar": "METAR HEMA 061400Z 01015KT CAVOK 23/10 Q1014 NOSIG",
      "taf": "TAF HEMA 061100Z 0612/0718 36006G18KT CAVOK"
    },
    {
      "icao": "HESH",
      "alert": "OK",
      "vis_m": 9999,
      "fzfg": false,
      "metar_trigger": false,
      "taf_trigger": false,
      "metar": "METAR HESH 061400Z 36012KT CAVOK 25/09 Q1015 NOSIG",
      "taf": "TAF HESH 061100Z 0612/0718 12008KT CAVOK"
    },
    {
      "icao": "HESX",
      "alert": "OK",
      "vis_m": 9999,
      "fzfg": false,
      "metar_trigger": false,
      "taf_trigger": false,
      "metar": "METAR HESX 061400Z 35008KT CAVOK 19/08 Q1019 NOSIG",
      "taf": "TAF HESX 061100Z 0612/0718 35012KT 9999 SCT025"
    },
    {
      "icao": "LATI",
      "alert": "OK",
      "vis_m": 9999,
      "fzfg": false,
      "metar_trigger": false,
      "taf_trigger": false,
      "metar": "METAR LATI 061450Z 26007KT CAVOK 19/03 Q1022 NOSIG",
      "taf": "TAF LATI 061100Z 0612/0712 VRB04KT CAVOK TX21/0712Z TN04/0705Z"
    },
    {
      "icao": "LBPD",
      "alert": "OK",
      "vis_m": 9999,
      "fzfg": false,
      "metar_trigger": false,
      "taf_trigger": false,
      "metar": "METAR LBPD 061500Z AUTO 30004KT 270V020 9999 NCD 18/M00 Q1022 NOSIG",
      "taf": "TAF LBPD 061100Z 0612/0712 30010KT 9999 SCT070"
    },
    {
      "icao": "LBSF",
      "alert": "OK",
      "vis_m": 9999,
      "fzfg": false,
      "metar_trigger": false,
      "taf_trigger": false,
      "metar": "METAR LBSF 061500Z VRB03KT 9999 SCT067 15/01 Q1023 NOSIG",
      "taf": "TAF LBSF 061100Z 0612/0712 32010KT 9999 SCT060"
    },
    {
      "icao": "LBWN",
      "alert": "OK",
      "vis_m": 9999,
      "fzfg": false,
      "metar_trigger": false,
      "taf_trigger": false,
      "metar": "METAR LBWN 061500Z 35008KT 9999 FEW030 13/M02 Q1024 NOSIG",
      "taf": "TAF LBWN 061100Z 0612/0712 33010KT 9999 BKN030"
    },
    {
      "icao": "LCLK",
      "alert": "OK",
      "vis_m": 9999,
      "fzfg": false,
      "metar_trigger": false,
      "taf_trigger": false,
      "metar": "METAR LCLK 061500Z 26006KT 230V310 9999 FEW025 FEW030TCU BKN048 18/12 Q1017 NOSIG",
      "taf": "TAF LCLK 061130Z 0612/0712 21014KT 9999 FEW025"
    },
    {
      "icao": "LCPH",
      "alert": "OK",
      "vis_m": 9999,
      "fzfg": false,
      "metar_trigger": false,
      "taf_trigger": false,
      "metar": "METAR LCPH 061500Z 31011KT 9999 SCT030 17/10 Q1018 NOSIG",
      "taf": "TAF LCPH 061130Z 0612/0712 29010KT 9999 FEW030 SCT050"
    },
    {
      "icao": "LEAL",
      "alert": "OK",
      "vis_m": 9999,
      "fzfg": false,
      "metar_trigger": false,
      "taf_trigger": false,
      "metar": "METAR LEAL 061430Z 11009KT 080V140 9999 FEW030TCU 17/12 Q1009 NOSIG",
      "taf": "TAF LEAL 061100Z 0612/0712 VRB04KT 9999 SCT030 TX16/0612Z TN09/0706Z"
    },
    {
      "icao": "LEBB",
      "alert": "OK",
      "vis_m": 9999,
      "fzfg": false,
      "metar_trigger": false,
      "taf_trigger": false,
      "metar": "METAR LEBB 061430Z 29014KT 260V320 9999 -RA BKN010 BKN015 12/11 Q1019 TEMPO 3000 RA",
      "taf": "TAF LEBB 061100Z 0612/0712 31009KT 9000 SCT010 BKN016 TX12/0712Z TN09/0700Z"
    },
    {
      "icao": "LEBL",
      "alert": "OK",
      "vis_m": 2500,
      "fzfg": false,
      "metar_trigger": false,
      "taf_trigger": false,
      "metar": "METAR LEBL 061430Z 06017KT 2500 R24R/1100N R06L/1500N R06R/0800N R24L/1300N BR SCT010 BKN020 15/14 Q1013 NOSIG",
      "taf": ""
    },
    {
      "icao": "LECH",
      "alert": "OK",
      "vis_m": 6000,
      "fzfg": false,
      "metar_trigger": false,
      "taf_trigger": false,
      "metar": "METAR LECH 061430Z 03009KT 350V060 6000 SHRA FEW010TCU SCT030 OVC040 12/10 Q1011",
      "taf": ""
    },
    {
      "icao": "LEMD",
      "alert": "OK",
      "vis_m": 9999,
      "fzfg": false,
      "metar_trigger": false,
      "taf_trigger": false,
      "metar": "METAR LEMD 061430Z 04011G25KT 330V110 9999 SCT030 BKN045 11/06 Q1012 NOSIG",
      "taf": ""
    },
    {
      "icao": "LEMG",
      "alert": "OK",
      "vis_m": 9999,
      "fzfg": false,
      "metar_trigger": false,
      "taf_trigger": false,
      "metar": "METAR LEMG 061430Z 29004KT 240V330 9999 FEW020 SCT035 BKN070 12/05 Q1012 NOSIG",
      "taf": ""
    },
    {
      "icao": "LEVC",
      "alert": "OK",
      "vis_m": 9999,
      "fzfg": false,
      "metar_trigger": false,
      "taf_trigger": false,
      "metar": "METAR LEVC 061430Z 09017KT 9999 FEW015 BKN020 15/10 Q1010 NOSIG",
      "taf": "TAF LEVC 061100Z 0612/0712 07008KT 9999 BKN020 TX15/0612Z TN09/0706Z"
    },
    {
      "icao": "LEXJ",
      "alert": "OK",
      "vis_m": 8000,
      "fzfg": false,
      "metar_trigger": false,
      "taf_trigger": false,
      "metar": "METAR LEXJ 061430Z 33009KT 280V020 8000 BKN010 BKN020 BKN033 10/08 Q1021",
      "taf": "TAF LEXJ 061400Z 0615/0715 31009KT 9999 FEW015 BKN025 TX11/0615Z TN10/0707Z"
    },
    {
      "icao": "LEZG",
      "alert": "OK",
      "vis_m": 6000,
      "fzfg": false,
      "metar_trigger": false,
      "taf_trigger": false,
      "metar": "METAR LEZG 061430Z 31008KT 6000 2500SW RA FEW004 SCT030 BKN050 12/12 Q1014 NOSIG",
      "taf": "TAF LEZG 061100Z 0612/0712 31010KT 9999 BKN020 TX13/0614Z TN08/0706Z"
    },
    {
      "icao": "LEZL",
      "alert": "OK",
      "vis_m": 9999,
      "fzfg": false,
      "metar_trigger": false,
      "taf_trigger": false,
      "metar": "METAR LEZL 061430Z 28004KT 210V320 9999 SCT040 BKN045 13/07 Q1013 NOSIG",
      "taf": "TAF LEZL 061400Z 0615/0715 26006KT 9999 SCT020 BKN030 TX17/0715Z TN08/0707Z"
    },
    {
      "icao": "LFBD",
      "alert": "OK",
      "vis_m": 9999,
      "fzfg": false,
      "metar_trigger": false,
      "taf_trigger": false,
      "metar": "METAR LFBD 061500Z AUTO 13008KT 9999 SCT039/// BKN048/// BKN058/// ///TCU 17/09 Q1017 TEMPO 4000 -SHRA",
      "taf": "TAF LFBD 061100Z 0612/0718 13010KT 9999 BKN025 TX17/0615Z TN10/0705Z"
    },
    {
      "icao": "LFLL",
      "alert": "OK",
      "vis_m": 9999,
      "fzfg": false,
      "metar_trigger": false,
      "taf_trigger": false,
      "metar": "METAR LFLL 061500Z 01006KT CAVOK 18/07 Q1019 NOSIG",
      "taf": "TAF LFLL 061100Z 0612/0718 36005KT CAVOK"
    },
    {
      "icao": "LFLS",
      "alert": "OK",
      "vis_m": 9999,
      "fzfg": false,
      "metar_trigger": false,
      "taf_trigger": false,
      "metar": "METAR LFLS 061500Z AUTO 01004KT 330V030 CAVOK 16/07 Q1019 NOSIG",
      "taf": "TAF LFLS 061400Z 0615/0715 03005KT CAVOK"
    },
    {
      "icao": "LFMN",
      "alert": "OK",
      "vis_m": 9999,
      "fzfg": false,
      "metar_trigger": false,
      "taf_trigger": false,
      "metar": "METAR LFMN 061500Z 10021KT 9999 FEW063 BKN100 BKN260 16/10 Q1020 NOSIG",
      "taf": "TAF LFMN 061400Z 0615/0721 10018KT 9999 SCT080 BKN230"
    },
    {
      "icao": "LFOB",
      "alert": "OK",
      "vis_m": 9999,
      "fzfg": false,
      "metar_trigger": false,
      "taf_trigger": false,
      "metar": "METAR LFOB 061500Z AUTO 35005KT 310V030 CAVOK 18/12 Q1020 NOSIG",
      "taf": "TAF LFOB 061100Z 0612/0712 VRB03KT CAVOK"
    },
    {
      "icao": "LFPO",
      "alert": "OK",
      "vis_m": 9999,
      "fzfg": false,
      "metar_trigger": false,
      "taf_trigger": false,
      "metar": "METAR LFPO 061500Z 30005KT 230V030 CAVOK 18/09 Q1020 NOSIG",
      "taf": "TAF LFPO 061100Z 0612/0718 VRB02KT CAVOK"
    },
    {
      "icao": "LFSB",
      "alert": "OK",
      "vis_m": 9999,
      "fzfg": false,
      "metar_trigger": false,
      "taf_trigger": false,
      "metar": "METAR LFSB 061500Z AUTO 01007KT 340V050 CAVOK 17/05 Q1019 NOSIG",
      "taf": "TAF LFSB 061100Z 0612/0712 36004KT CAVOK"
    },
    {
      "icao": "LGAV",
      "alert": "OK",
      "vis_m": 9999,
      "fzfg": false,
      "metar_trigger": false,
      "taf_trigger": false,
      "metar": "METAR LGAV 061450Z 04008KT 9999 SCT030 15/08 Q1023 NOSIG",
      "taf": "TAF LGAV 061100Z 0612/0712 03012KT 9999 SCT025"
    },
    {
      "icao": "LGTS",
      "alert": "OK",
      "vis_m": 9999,
      "fzfg": false,
      "metar_trigger": false,
      "taf_trigger": false,
      "metar": "METAR LGTS 061450Z 25005KT 9999 FEW020 18/04 Q1023 NOSIG",
      "taf": "TAF LGTS 061100Z 0612/0712 VRB03KT 9999 FEW025"
    },
    {
      "icao": "LHBP",
      "alert": "OK",
      "vis_m": 9999,
      "fzfg": false,
      "metar_trigger": false,
      "taf_trigger": false,
      "metar": "METAR LHBP 061500Z 12004KT CAVOK 15/M01 Q1025 NOSIG",
      "taf": "TAF LHBP 061115Z 0612/0712 10006KT CAVOK"
    },
    {
      "icao": "LHDC",
      "alert": "OK",
      "vis_m": 9999,
      "fzfg": false,
      "metar_trigger": false,
      "taf_trigger": false,
      "metar": "METAR LHDC 061445Z AUTO 36006KT 330V050 CAVOK 15/M05 Q1025 NOSIG",
      "taf": "TAF LHDC 061415Z 0615/0624 02006KT CAVOK"
    },
    {
      "icao": "LIBD",
      "alert": "OK",
      "vis_m": 9999,
      "fzfg": false,
      "metar_trigger": false,
      "taf_trigger": false,
      "metar": "METAR LIBD 061450Z 01003KT 330V050 9999 SCT010 14/11 Q1023",
      "taf": "TAF LIBD 061100Z 0612/0712 VRB04KT 8000 FEW015"
    },
    {
      "icao": "LIBG",
      "alert": "OK",
      "vis_m": 9999,
      "fzfg": false,
      "metar_trigger": false,
      "taf_trigger": false,
      "metar": "METAR LIBG 061350Z 03008KT 360V060 CAVOK 17/08 Q1022",
      "taf": "TAF LIBG 061400Z 0615/0624 VRB05KT 9999 FEW020"
    },
    {
      "icao": "LIBP",
      "alert": "OK",
      "vis_m": 9999,
      "fzfg": false,
      "metar_trigger": false,
      "taf_trigger": false,
      "metar": "METAR LIBP 061450Z AUTO 08006KT 9999 FEW013/// 14/11 Q1023",
      "taf": "TAF LIBP 061100Z 0612/0712 VRB05KT 9999 FEW025"
    },
    {
      "icao": "LIBR",
      "alert": "OK",
      "vis_m": 9999,
      "fzfg": false,
      "metar_trigger": false,
      "taf_trigger": false,
      "metar": "METAR LIBR 061450Z 04006KT CAVOK 14/10 Q1022",
      "taf": "TAF LIBR 061100Z 0612/0712 02007KT CAVOK"
    },
    {
      "icao": "LICA",
      "alert": "OK",
      "vis_m": 9999,
      "fzfg": false,
      "metar_trigger": false,
      "taf_trigger": false,
      "metar": "METAR LICA 061450Z AUTO 07017KT 9999 FEW150/// 16/10 Q1020",
      "taf": "TAF LICA 061100Z 0612/0712 08016KT CAVOK"
    },
    {
      "icao": "LICC",
      "alert": "OK",
      "vis_m": 7000,
      "fzfg": false,
      "metar_trigger": false,
      "taf_trigger": false,
      "metar": "METAR LICC 061450Z 12006KT 7000 DZ FEW010 BKN030 15/12 Q1021",
      "taf": "TAF LICC 061100Z 0612/0712 08012KT 9999 SCT020 BKN040"
    },
    {
      "icao": "LICJ",
      "alert": "OK",
      "vis_m": 9999,
      "fzfg": false,
      "metar_trigger": false,
      "taf_trigger": false,
      "metar": "METAR LICJ 061450Z 19003KT 9999 R25/0900N R20/P2000N SCT060 15/12 Q1018",
      "taf": ""
    },
    {
      "icao": "LIMC",
      "alert": "OK",
      "vis_m": 7000,
      "fzfg": false,
      "metar_trigger": false,
      "taf_trigger": false,
      "metar": "METAR LIMC 061450Z VRB02KT 7000 NSC 15/05 Q1023 NOSIG",
      "taf": "TAF LIMC 061100Z 0612/0718 VRB05KT 6000 SCT030"
    },
    {
      "icao": "LIME",
      "alert": "OK",
      "vis_m": 9000,
      "fzfg": false,
      "metar_trigger": false,
      "taf_trigger": false,
      "metar": "METAR LIME 061450Z VRB04KT 9000 NSC 14/06 Q1023 NOSIG",
      "taf": "TAF LIME 061100Z 0612/0712 VRB05KT 6000 SCT030"
    },
    {
      "icao": "LIMF",
      "alert": "OK",
      "vis_m": 4000,
      "fzfg": false,
      "metar_trigger": false,
      "taf_trigger": false,
      "metar": "METAR LIMF 061450Z 09005KT 4000 BR SCT110 14/05 Q1023",
      "taf": "TAF LIMF 061100Z 0612/0712 VRB04KT 6000 SCT030"
    },
    {
      "icao": "LIMJ",
      "alert": "OK",
      "vis_m": 8000,
      "fzfg": false,
      "metar_trigger": false,
      "taf_trigger": false,
      "metar": "METAR LIMJ 061450Z 04013KT 8000 NSC 15/07 Q1021",
      "taf": "TAF LIMJ 061100Z 0612/0712 35015KT 8000 FEW040"
    },
    {
      "icao": "LIPE",
      "alert": "OK",
      "vis_m": 8000,
      "fzfg": false,
      "metar_trigger": false,
      "taf_trigger": false,
      "metar": "METAR LIPE 061450Z 00000KT 8000 BKN035 14/07 Q1024",
      "taf": "TAF LIPE 061100Z 0612/0712 VRB04KT 7000 SCT025"
    },
    {
      "icao": "LIPH",
      "alert": "OK",
      "vis_m": 9999,
      "fzfg": false,
      "metar_trigger": false,
      "taf_trigger": false,
      "metar": "METAR LIPH 061450Z VRB02KT CAVOK 17/05 Q1023",
      "taf": "TAF LIPH 061100Z 0612/0712 VRB03KT CAVOK"
    },
    {
      "icao": "LIPQ",
      "alert": "OK",
      "vis_m": 9999,
      "fzfg": false,
      "metar_trigger": false,
      "taf_trigger": false,
      "metar": "METAR LIPQ 061450Z AUTO 24003KT 190V300 9999 NCD 17/10 Q1023",
      "taf": "TAF LIPQ 061100Z 0612/0712 VRB04KT CAVOK"
    },
    {
      "icao": "LIPR",
      "alert": "OK",
      "vis_m": 9999,
      "fzfg": false,
      "metar_trigger": false,
      "taf_trigger": false,
      "metar": "METAR LIPR 061450Z 05005KT 020V080 9999 SCT040 13/09 Q1024",
      "taf": "TAF LIPR 061100Z 0612/0712 VRB04KT 9999 SCT030"
    },
    {
      "icao": "LIPX",
      "alert": "OK",
      "vis_m": 7000,
      "fzfg": false,
      "metar_trigger": false,
      "taf_trigger": false,
      "metar": "METAR LIPX 061450Z 17003KT 120V210 7000 NSC 15/06 Q1024",
      "taf": "TAF LIPX 061100Z 0612/0712 VRB05KT 6000 NSC"
    },
    {
      "icao": "LIPY",
      "alert": "OK",
      "vis_m": 9999,
      "fzfg": false,
      "metar_trigger": false,
      "taf_trigger": false,
      "metar": "METAR LIPY 061450Z AUTO 04009KT 9999 FEW033/// 13/10 Q1023",
      "taf": "TAF LIPY 061100Z 0612/0712 04010KT 7000 SCT020"
    },
    {
      "icao": "LIPZ",
      "alert": "OK",
      "vis_m": 6000,
      "fzfg": false,
      "metar_trigger": false,
      "taf_trigger": false,
      "metar": "METAR LIPZ 061450Z 16004KT 130V220 6000 NSC 15/08 Q1024 NOSIG",
      "taf": "TAF LIPZ 061100Z 0612/0718 VRB03KT 7000 NSC"
    },
    {
      "icao": "LIRF",
      "alert": "OK",
      "vis_m": 9999,
      "fzfg": false,
      "metar_trigger": false,
      "taf_trigger": false,
      "metar": "METAR LIRF 061450Z 12004KT 030V170 CAVOK 17/09 Q1020 NOSIG",
      "taf": "TAF LIRF 061100Z 0612/0718 17010KT CAVOK"
    },
    {
      "icao": "LIRN",
      "alert": "OK",
      "vis_m": 9999,
      "fzfg": false,
      "metar_trigger": false,
      "taf_trigger": false,
      "metar": "METAR LIRN 061450Z 05003KT 340V110 CAVOK 17/08 Q1021 NOSIG",
      "taf": "TAF LIRN 061100Z 0612/0712 04010KT CAVOK"
    },
    {
      "icao": "LIRP",
      "alert": "OK",
      "vis_m": 9999,
      "fzfg": false,
      "metar_trigger": false,
      "taf_trigger": false,
      "metar": "METAR LIRP 061445Z VRB02KT 9999 FEW070 17/08 Q1021 NOSIG",
      "taf": "TAF LIRP 061100Z 0612/0712 VRB04KT 9999 SCT060"
    },
    {
      "icao": "LIRZ",
      "alert": "OK",
      "vis_m": 9999,
      "fzfg": false,
      "metar_trigger": false,
      "taf_trigger": false,
      "metar": "METAR LIRZ 061450Z AUTO 03008KT 350V060 9999 NCD 17/08 Q1021",
      "taf": "TAF LIRZ 061100Z 0612/0712 04008KT CAVOK"
    },
    {
      "icao": "LJLJ",
      "alert": "OK",
      "vis_m": 9999,
      "fzfg": false,
      "metar_trigger": false,
      "taf_trigger": false,
      "metar": "METAR LJLJ 061430Z 08005KT CAVOK 16/01 Q1023 NOSIG",
      "taf": "TAF LJLJ 061100Z 0612/0712 12006KT CAVOK"
    },
    {
      "icao": "LKMT",
      "alert": "OK",
      "vis_m": 9999,
      "fzfg": false,
      "metar_trigger": false,
      "taf_trigger": false,
      "metar": "METAR LKMT 061500Z 03002KT CAVOK 15/M03 Q1025 NOSIG",
      "taf": "TAF LKMT 061100Z 0612/0712 VRB02KT CAVOK"
    },
    {
      "icao": "LKPR",
      "alert": "OK",
      "vis_m": 9999,
      "fzfg": false,
      "metar_trigger": false,
      "taf_trigger": false,
      "metar": "METAR LKPR 061500Z 06006KT CAVOK 13/04 Q1023 NOSIG",
      "taf": "TAF LKPR 061400Z 0615/0721 08006KT CAVOK"
    },
    {
      "icao": "LLBG",
      "alert": "OK",
      "vis_m": 9999,
      "fzfg": false,
      "metar_trigger": false,
      "taf_trigger": false,
      "metar": "METAR LLBG 061450Z 33011KT CAVOK 17/07 Q1018 NOSIG",
      "taf": "TAF LLBG 061103Z 0612/0712 30010KT CAVOK TX20/0612Z TN10/0704Z"
    },
    {
      "icao": "LMML",
      "alert": "OK",
      "vis_m": 9999,
      "fzfg": false,
      "metar_trigger": false,
      "taf_trigger": false,
      "metar": "METAR LMML 061445Z 07011KT 9999 -DZ SCT008 SCT020 15/14 Q1019 NOSIG",
      "taf": ""
    },
    {
      "icao": "LOWW",
      "alert": "OK",
      "vis_m": 9999,
      "fzfg": false,
      "metar_trigger": false,
      "taf_trigger": false,
      "metar": "METAR LOWW 061450Z 14013KT CAVOK 16/04 Q1024 NOSIG",
      "taf": "TAF LOWW 061415Z 0615/0721 13012KT CAVOK TX16/0615Z TN05/0705Z"
    },
    {
      "icao": "LPFR",
      "alert": "OK",
      "vis_m": 9999,
      "fzfg": false,
      "metar_trigger": false,
      "taf_trigger": false,
      "metar": "METAR LPFR 061430Z 33013KT 9999 FEW025 SCT040 14/05 Q1015",
      "taf": "TAF LPFR 061100Z 0612/0712 32015KT 9999 SCT030"
    },
    {
      "icao": "LPMA",
      "alert": "OK",
      "vis_m": 9999,
      "fzfg": false,
      "metar_trigger": false,
      "taf_trigger": false,
      "metar": "METAR LPMA 061430Z 01016KT 9999 BKN016 16/05 Q1027",
      "taf": "TAF LPMA 061100Z 0612/0712 01015KT 9999 SCT015"
    },
    {
      "icao": "LPPR",
      "alert": "OK",
      "vis_m": 9999,
      "fzfg": false,
      "metar_trigger": false,
      "taf_trigger": false,
      "metar": "METAR LPPR 061430Z 36016G27KT CAVOK 14/04 Q1019",
      "taf": "TAF LPPR 061100Z 0612/0712 35015KT 9999 SCT025"
    },
    {
      "icao": "LPPS",
      "alert": "OK",
      "vis_m": 9999,
      "fzfg": false,
      "metar_trigger": false,
      "taf_trigger": false,
      "metar": "METAR LPPS 061430Z 02016KT 9999 FEW015 BKN030 15/06 Q1028",
      "taf": "TAF LPPS 061100Z 0612/0718 04015KT 9999 FEW015 BKN030"
    },
    {
      "icao": "LPPT",
      "alert": "OK",
      "vis_m": 9999,
      "fzfg": false,
      "metar_trigger": false,
      "taf_trigger": false,
      "metar": "METAR LPPT 061430Z 33022KT 9999 FEW028 13/06 Q1017 WS R02",
      "taf": "TAF LPPT 061100Z 0612/0718 33020KT 9999 SCT025"
    },
    {
      "icao": "LQBK",
      "alert": "OK",
      "vis_m": 9999,
      "fzfg": false,
      "metar_trigger": false,
      "taf_trigger": false,
      "metar": "METAR LQBK 061500Z 03007KT CAVOK 18/00 Q1023 NOSIG",
      "taf": "TAF LQBK 061100Z 0612/0712 33005KT CAVOK TX18/0614Z TN00/0706Z"
    },
    {
      "icao": "LQSA",
      "alert": "OK",
      "vis_m": 9999,
      "fzfg": false,
      "metar_trigger": false,
      "taf_trigger": false,
      "metar": "METAR LQSA 061500Z VRB03KT CAVOK 17/M00 Q1022 NOSIG",
      "taf": "TAF LQSA 061100Z 0612/0712 VRB02KT CAVOK TX16/0614Z TNM00/0705Z"
    },
    {
      "icao": "LQTZ",
      "alert": "OK",
      "vis_m": 9999,
      "fzfg": false,
      "metar_trigger": false,
      "taf_trigger": false,
      "metar": "METAR LQTZ 061500Z 12009KT CAVOK 17/02 Q1023",
      "taf": "TAF LQTZ 061100Z 0612/0712 VRB02KT CAVOK TX18/0614Z TNM02/0706Z"
    },
    {
      "icao": "LRBC",
      "alert": "OK",
      "vis_m": 9999,
      "fzfg": false,
      "metar_trigger": false,
      "taf_trigger": false,
      "metar": "METAR LRBC 061430Z 36013KT CAVOK 12/M03 Q1025",
      "taf": "TAF LRBC 061400Z 0615/0624 36015KT CAVOK"
    },
    {
      "icao": "LRBS",
      "alert": "OK",
      "vis_m": 9999,
      "fzfg": false,
      "metar_trigger": false,
      "taf_trigger": false,
      "metar": "METAR LRBS 061430Z 27003KT 240V010 CAVOK 14/01 Q1024 NOSIG",
      "taf": "TAF LRBS 061100Z 0612/0712 VRB04KT CAVOK"
    },
    {
      "icao": "LRBV",
      "alert": "OK",
      "vis_m": 9999,
      "fzfg": false,
      "metar_trigger": false,
      "taf_trigger": false,
      "metar": "METAR LRBV 061430Z 29009KT CAVOK 12/M05 Q1024",
      "taf": "TAF LRBV 061400Z 0615/0624 30010KT CAVOK"
    },
    {
      "icao": "LRCL",
      "alert": "OK",
      "vis_m": 9999,
      "fzfg": false,
      "metar_trigger": false,
      "taf_trigger": false,
      "metar": "METAR LRCL 061430Z 31006KT 280V350 CAVOK 14/M07 Q1024",
      "taf": "TAF LRCL 061400Z 0615/0624 VRB04KT CAVOK"
    },
    {
      "icao": "LRCV",
      "alert": "OK",
      "vis_m": 9999,
      "fzfg": false,
      "metar_trigger": false,
      "taf_trigger": false,
      "metar": "METAR LRCV 061430Z 09004KT CAVOK 15/05 Q1024",
      "taf": "TAF LRCV 061400Z 0615/0624 08007KT CAVOK"
    },
    {
      "icao": "LRIA",
      "alert": "OK",
      "vis_m": 9999,
      "fzfg": false,
      "metar_trigger": false,
      "taf_trigger": false,
      "metar": "METAR LRIA 061430Z COR 33017KT CAVOK 11/M02 Q1025",
      "taf": "TAF LRIA 061400Z 0615/0624 32016KT CAVOK"
    },
    {
      "icao": "LROP",
      "alert": "OK",
      "vis_m": 9999,
      "fzfg": false,
      "metar_trigger": false,
      "taf_trigger": false,
      "metar": "METAR LROP 061430Z 27006KT CAVOK 14/M03 Q1024 NOSIG",
      "taf": "TAF LROP 061100Z 0612/0712 VRB04KT CAVOK"
    },
    {
      "icao": "LRSB",
      "alert": "OK",
      "vis_m": 9999,
      "fzfg": false,
      "metar_trigger": false,
      "taf_trigger": false,
      "metar": "METAR LRSB 061430Z 01006KT 320V050 CAVOK 14/M05 Q1024",
      "taf": "TAF LRSB 061100Z 0612/0712 VRB04KT CAVOK"
    },
    {
      "icao": "LRSM",
      "alert": "OK",
      "vis_m": 9999,
      "fzfg": false,
      "metar_trigger": false,
      "taf_trigger": false,
      "metar": "METAR LRSM 061430Z 01005KT 310V050 CAVOK 14/M02 Q1025",
      "taf": "TAF LRSM 061400Z 0615/0624 VRB04KT CAVOK"
    },
    {
      "icao": "LRSV",
      "alert": "OK",
      "vis_m": 9999,
      "fzfg": false,
      "metar_trigger": false,
      "taf_trigger": false,
      "metar": "METAR LRSV 061430Z 31012KT 9999 FEW049 10/M02 Q1025",
      "taf": "TAF LRSV 061400Z 0615/0624 32015KT CAVOK"
    },
    {
      "icao": "LRTM",
      "alert": "OK",
      "vis_m": 9999,
      "fzfg": false,
      "metar_trigger": false,
      "taf_trigger": false,
      "metar": "METAR LRTM 061430Z 32005KT 250V360 CAVOK 14/M05 Q1024",
      "taf": "TAF LRTM 061400Z 0615/0624 VRB04KT CAVOK"
    },
    {
      "icao": "LRTR",
      "alert": "OK",
      "vis_m": 9999,
      "fzfg": false,
      "metar_trigger": false,
      "taf_trigger": false,
      "metar": "METAR LRTR 061430Z 35010KT CAVOK 15/M01 Q1025",
      "taf": "TAF LRTR 061100Z 0612/0712 01012KT CAVOK"
    },
    {
      "icao": "LTAC",
      "alert": "OK",
      "vis_m": 9999,
      "fzfg": false,
      "metar_trigger": false,
      "taf_trigger": false,
      "metar": "METAR LTAC 061450Z 34015KT 9999 SCT040 BKN100 06/M03 Q1019 NOSIG RMK RWY21C 33016KT RWY03L 33013KT RWY21R 32015KT RWY03R 32009KT 270V360 RWY21L 32017KT",
      "taf": "TAF LTAC 061040Z 0612/0712 31012KT 9999 SCT040 SCT100"
    },
    {
      "icao": "LTFM",
      "alert": "OK",
      "vis_m": 9999,
      "fzfg": false,
      "metar_trigger": false,
      "taf_trigger": false,
      "metar": "METAR LTFM 061450Z 05010KT 010V070 CAVOK 09/02 Q1025 NOSIG RMK RWY17L 06007KT RWY34L 04008KT RWY16R 06007KT RWY36 05008KT RWY18 07006KT",
      "taf": "TAF LTFM 061040Z 0612/0718 01012KT CAVOK"
    },
    {
      "icao": "LUKK",
      "alert": "OK",
      "vis_m": 9999,
      "fzfg": false,
      "metar_trigger": false,
      "taf_trigger": false,
      "metar": "METAR LUKK 061500Z 01012KT CAVOK 09/M02 Q1024 TEMPO 35016G26KT",
      "taf": "TAF LUKK 061109Z 0612/0712 33012KT 9999 SCT030"
    },
    {
      "icao": "LWOH",
      "alert": "OK",
      "vis_m": 9999,
      "fzfg": false,
      "metar_trigger": false,
      "taf_trigger": false,
      "metar": "METAR LWOH 061450Z 14004KT CAVOK 12/03 Q1023",
      "taf": ""
    },
    {
      "icao": "LWSK",
      "alert": "OK",
      "vis_m": 9999,
      "fzfg": false,
      "metar_trigger": false,
      "taf_trigger": false,
      "metar": "METAR LWSK 061450Z VRB02KT CAVOK 18/05 Q1023 NOSIG",
      "taf": ""
    },
    {
      "icao": "LYBE",
      "alert": "OK",
      "vis_m": 9999,
      "fzfg": false,
      "metar_trigger": false,
      "taf_trigger": false,
      "metar": "METAR LYBE 061500Z 08003KT 030V120 CAVOK 16/01 Q1025 NOSIG",
      "taf": "TAF LYBE 061100Z 0612/0712 05007KT 9999 FEW040 TX17/0712Z TN02/0705Z"
    },
    {
      "icao": "LYNI",
      "alert": "OK",
      "vis_m": 9999,
      "fzfg": false,
      "metar_trigger": false,
      "taf_trigger": false,
      "metar": "METAR LYNI 061500Z 31005KT 280V340 CAVOK 16/03 Q1024 NOSIG",
      "taf": "TAF LYNI 061100Z 0612/0712 28005KT CAVOK TX17/0614Z TN01/0706Z"
    },
    {
      "icao": "LYPG",
      "alert": "OK",
      "vis_m": 9999,
      "fzfg": false,
      "metar_trigger": false,
      "taf_trigger": false,
      "metar": "METAR LYPG 061500Z 15004KT 110V190 CAVOK 19/01 Q1022 NOSIG",
      "taf": "TAF LYPG 061100Z 0612/0712 16007KT CAVOK TX19/0614Z TN04/0705Z"
    },
    {
      "icao": "LZIB",
      "alert": "OK",
      "vis_m": 9999,
      "fzfg": false,
      "metar_trigger": false,
      "taf_trigger": false,
      "metar": "METAR LZIB 061500Z 13006KT 100V160 CAVOK 16/02 Q1024 NOSIG",
      "taf": "TAF LZIB 061115Z 0612/0712 11008KT CAVOK"
    },
    {
      "icao": "LZKZ",
      "alert": "OK",
      "vis_m": 9999,
      "fzfg": false,
      "metar_trigger": false,
      "taf_trigger": false,
      "metar": "METAR LZKZ 061500Z VRB02KT CAVOK 15/M05 Q1025 NOSIG",
      "taf": "TAF LZKZ 061115Z 0612/0712 VRB03KT CAVOK"
    },
    {
      "icao": "LZTT",
      "alert": "OK",
      "vis_m": 9999,
      "fzfg": false,
      "metar_trigger": false,
      "taf_trigger": false,
      "metar": "METAR LZTT 061500Z 08006KT CAVOK 13/M05 Q1024 NOSIG",
      "taf": "TAF LZTT 061115Z 0612/0712 VRB04KT CAVOK"
    },
    {
      "icao": "OEJN",
      "alert": "OK",
      "vis_m": 9999,
      "fzfg": false,
      "metar_trigger": false,
      "taf_trigger": false,
      "metar": "METAR OEJN 061500Z 31010KT CAVOK 27/16 Q1011 NOSIG",
      "taf": "TAF OEJN 061100Z 0612/0718 30012KT 7000 FEW040"
    },
    {
      "icao": "OEMA",
      "alert": "OK",
      "vis_m": 9999,
      "fzfg": false,
      "metar_trigger": false,
      "taf_trigger": false,
      "metar": "METAR OEMA 061500Z 30004KT 9999 FEW040 29/01 Q1014 NOSIG",
      "taf": "TAF OEMA 061100Z 0612/0718 27010KT 7000 FEW045"
    },
    {
      "icao": "OJAI",
      "alert": "OK",
      "vis_m": 5000,
      "fzfg": false,
      "metar_trigger": false,
      "taf_trigger": false,
      "metar": "METAR OJAI 061400Z 28012KT 5000 HZ NSC 17/M02 Q1017 NOSIG",
      "taf": "TAF OJAI 061021Z 0612/0718 28008KT 5000 HZ NSC"
    },
    {
      "icao": "OMAA",
      "alert": "OK",
      "vis_m": null,
      "fzfg": false,
      "metar_trigger": false,
      "taf_trigger": false,
      "metar": "",
      "taf": ""
    },
    {
      "icao": "OMDB",
      "alert": "OK",
      "vis_m": null,
      "fzfg": false,
      "metar_trigger": false,
      "taf_trigger": false,
      "metar": "",
      "taf": ""
    },
    {
      "icao": "UAAA",
      "alert": "OK",
      "vis_m": 9999,
      "fzfg": false,
      "metar_trigger": false,
      "taf_trigger": false,
      "metar": "METAR UAAA 061430Z 02003MPS 9999 OVC015 03/00 Q1024 NOSIG",
      "taf": "TAF UAAA 061101Z 0612/0712 04003MPS 3100 BR FU BKN011 OVC030 TX09/0709Z TNM01/0701Z"
    },
    {
      "icao": "UBBB",
      "alert": "OK",
      "vis_m": 9999,
      "fzfg": false,
      "metar_trigger": false,
      "taf_trigger": false,
      "metar": "METAR UBBB 061500Z 19016KT CAVOK 10/05 Q1012 NOSIG",
      "taf": "TAF UBBB 061050Z 0612/0712 19014G24KT CAVOK TX11/0612Z TN05/0701Z"
    },
    {
      "icao": "UDSG",
      "alert": "OK",
      "vis_m": 1800,
      "fzfg": false,
      "metar_trigger": false,
      "taf_trigger": false,
      "metar": "METAR UDSG 061430Z 33003KT 1800 SN BR OVC026 M02/M05 Q1016 NOSIG",
      "taf": ""
    },
    {
      "icao": "UDYZ",
      "alert": "OK",
      "vis_m": 9999,
      "fzfg": false,
      "metar_trigger": false,
      "taf_trigger": false,
      "metar": "METAR UDYZ 061430Z 34004KT 9999 SCT046 07/M05 Q1016 NOSIG",
      "taf": "TAF UDYZ 061100Z 0612/0712 24006KT 9999 SCT040"
    },
    {
      "icao": "UGKO",
      "alert": "OK",
      "vis_m": 4000,
      "fzfg": false,
      "metar_trigger": false,
      "taf_trigger": false,
      "metar": "METAR UGKO 061430Z 25006KT 4000 SHRA SCT008 BKN020CB OVC068 04/03 Q1021 NOSIG",
      "taf": "TAF UGKO 061100Z 0612/0712 26012KT 9999 SCT020 BKN050 TX09/0711Z TN02/0703Z"
    }
  ]
}