{
  "ts_utc": "2026-02-13T22:48:49Z",
  "threshold_m": 150,
  "source": "stations_override.txt (ICAO list) + aviationweather.gov (METAR/TAF raw)",
  "station_count": 159,
  "stations": [
    {
      "icao": "BIKF",
      "alert": "OK",
      "vis_m": 9999,
      "fzfg": false,
      "metar_trigger": false,
      "taf_trigger": false,
      "metar": "METAR BIKF 132230Z 10004KT CAVOK M04/M09 Q1009",
      "taf": "TAF BIKF 132230Z 1400/1500 09012KT 9999 FEW025 SCT040 TX00/1415Z TNM08/1400Z"
    },
    {
      "icao": "BKPR",
      "alert": "OK",
      "vis_m": 9999,
      "fzfg": false,
      "metar_trigger": false,
      "taf_trigger": false,
      "metar": "METAR BKPR 132230Z 35003KT 9999 SCT040 BKN080 07/03 Q1000 NOSIG",
      "taf": "TAF BKPR 131730Z 1318/1418 01008KT 9999 SCT040"
    },
    {
      "icao": "EBCI",
      "alert": "OK",
      "vis_m": 7000,
      "fzfg": false,
      "metar_trigger": false,
      "taf_trigger": false,
      "metar": "METAR EBCI 132220Z 04011KT 7000 BKN006 02/01 Q0997 NOSIG",
      "taf": "TAF EBCI 131700Z 1318/1424 04009KT 7000 SCT004 BKN009"
    },
    {
      "icao": "EDDB",
      "alert": "OK",
      "vis_m": 9999,
      "fzfg": false,
      "metar_trigger": false,
      "taf_trigger": false,
      "metar": "METAR EDDB 132220Z AUTO 01005KT 9999 -SN BKN007 BKN020 00/M00 Q0998 TEMPO 4000 BR",
      "taf": "TAF EDDB 131700Z 1318/1418 33004KT 6000 SCT005 BKN015"
    },
    {
      "icao": "EDDH",
      "alert": "OK",
      "vis_m": 9999,
      "fzfg": false,
      "metar_trigger": false,
      "taf_trigger": false,
      "metar": "METAR EDDH 132220Z AUTO 03007KT 360V060 9999 FEW009 BKN033 M02/M03 Q1001 TEMPO BKN008",
      "taf": "TAF EDDH 131700Z 1318/1424 02006KT 9999 SCT008 BKN015"
    },
    {
      "icao": "EDDK",
      "alert": "OK",
      "vis_m": 9999,
      "fzfg": false,
      "metar_trigger": false,
      "taf_trigger": false,
      "metar": "METAR EDDK 132220Z AUTO 36005KT 310V040 9999 BKN018 03/00 Q0996 NOSIG",
      "taf": "TAF EDDK 131700Z 1318/1424 35007KT 9999 OVC015"
    },
    {
      "icao": "EDDN",
      "alert": "OK",
      "vis_m": 9999,
      "fzfg": false,
      "metar_trigger": false,
      "taf_trigger": false,
      "metar": "METAR EDDN 132220Z AUTO 35002KT CAVOK 02/01 Q0994",
      "taf": "TAF EDDN 131700Z 1318/1418 08003KT 9999 SCT030"
    },
    {
      "icao": "EDDS",
      "alert": "OK",
      "vis_m": 9999,
      "fzfg": false,
      "metar_trigger": false,
      "taf_trigger": false,
      "metar": "METAR EDDS 132220Z AUTO VRB02KT 9999 BKN043 05/03 Q0992",
      "taf": "TAF EDDS 131700Z 1318/1418 VRB03KT 9999 SCT040"
    },
    {
      "icao": "EDFH",
      "alert": "OK",
      "vis_m": 5000,
      "fzfg": false,
      "metar_trigger": false,
      "taf_trigger": false,
      "metar": "METAR EDFH 132220Z 02008KT 5000 -RA BR OVC001 04/04 Q0993",
      "taf": "TAF EDFH 131700Z 1318/1418 06004KT 9999 SCT012 BKN020"
    },
    {
      "icao": "EDJA",
      "alert": "OK",
      "vis_m": 9999,
      "fzfg": false,
      "metar_trigger": false,
      "taf_trigger": false,
      "metar": "METAR EDJA 132220Z AUTO 06008KT 9999 // BKN140/// BKN160/// 04/01 Q0991",
      "taf": "TAF EDJA 131700Z 1318/1403 05005KT CAVOK"
    },
    {
      "icao": "EDLW",
      "alert": "OK",
      "vis_m": 8000,
      "fzfg": false,
      "metar_trigger": false,
      "taf_trigger": false,
      "metar": "METAR EDLW 132220Z AUTO 03007KT 350V050 8000 // OVC005/// 01/M00 Q0997",
      "taf": ""
    },
    {
      "icao": "EDNY",
      "alert": "OK",
      "vis_m": 9999,
      "fzfg": false,
      "metar_trigger": false,
      "taf_trigger": false,
      "metar": "METAR EDNY 132220Z AUTO 04004KT 360V080 9999 // FEW120/// OVC140/// 05/02 Q0991",
      "taf": "TAF EDNY 131700Z 1318/1403 04004KT CAVOK"
    },
    {
      "icao": "EDSB",
      "alert": "OK",
      "vis_m": 9999,
      "fzfg": false,
      "metar_trigger": false,
      "taf_trigger": false,
      "metar": "METAR EDSB 132220Z 02005KT 9999 SCT045 07/06 Q0992",
      "taf": "TAF EDSB 131700Z 1318/1418 04004KT 9999 BKN040"
    },
    {
      "icao": "EETN",
      "alert": "OK",
      "vis_m": 9999,
      "fzfg": false,
      "metar_trigger": false,
      "taf_trigger": false,
      "metar": "METAR EETN 132220Z 06010KT 030V090 CAVOK M11/M14 Q1004 NOSIG",
      "taf": "TAF EETN 131730Z 1318/1418 05012KT CAVOK"
    },
    {
      "icao": "EFTU",
      "alert": "OK",
      "vis_m": 9999,
      "fzfg": false,
      "metar_trigger": false,
      "taf_trigger": false,
      "metar": "METAR EFTU 132220Z AUTO VRB02KT CAVOK M17/M19 Q1007",
      "taf": "TAF EFTU 132022Z 1321/1421 05004KT CAVOK"
    },
    {
      "icao": "EGBB",
      "alert": "OK",
      "vis_m": 9999,
      "fzfg": false,
      "metar_trigger": false,
      "taf_trigger": false,
      "metar": "METAR EGBB 132220Z 36007KT 9999 BKN011 02/01 Q1005",
      "taf": "TAF EGBB 131658Z 1318/1418 02012KT 9999 BKN014"
    },
    {
      "icao": "EGGP",
      "alert": "OK",
      "vis_m": 9999,
      "fzfg": false,
      "metar_trigger": false,
      "taf_trigger": false,
      "metar": "METAR EGGP 132220Z 35009KT CAVOK 01/M02 Q1008",
      "taf": "TAF EGGP 131658Z 1318/1418 04012KT 9999 BKN035"
    },
    {
      "icao": "EGGW",
      "alert": "OK",
      "vis_m": 9999,
      "fzfg": false,
      "metar_trigger": false,
      "taf_trigger": false,
      "metar": "METAR EGGW 132220Z AUTO 03012KT 9999 -RA FEW013 02/01 Q1002",
      "taf": "TAF EGGW 131654Z 1318/1418 03012KT 9999 SCT012"
    },
    {
      "icao": "EGKK",
      "alert": "OK",
      "vis_m": 9999,
      "fzfg": false,
      "metar_trigger": false,
      "taf_trigger": false,
      "metar": "METAR EGKK 132220Z 03015KT 9999 SCT015 BKN039 04/01 Q1001",
      "taf": "TAF EGKK 131657Z 1318/1424 04012KT 9999 SCT010"
    },
    {
      "icao": "EGNM",
      "alert": "OK",
      "vis_m": 9999,
      "fzfg": false,
      "metar_trigger": false,
      "taf_trigger": false,
      "metar": "METAR EGNM 132220Z 35011KT 9999 FEW045 01/M02 Q1007",
      "taf": "TAF EGNM 131657Z 1318/1418 36005KT 9999 SCT025"
    },
    {
      "icao": "EGPD",
      "alert": "OK",
      "vis_m": 9999,
      "fzfg": false,
      "metar_trigger": false,
      "taf_trigger": false,
      "metar": "METAR EGPD 132220Z COR AUTO 29008KT 9999 NCD 00/M03 Q1008 NOSIG",
      "taf": "TAF EGPD 131657Z 1318/1418 29005KT 9999 FEW015"
    },
    {
      "icao": "EGPF",
      "alert": "OK",
      "vis_m": 9999,
      "fzfg": false,
      "metar_trigger": false,
      "taf_trigger": false,
      "metar": "METAR EGPF 132220Z AUTO VRB01KT 9999 NCD M03/M05 Q1010",
      "taf": "TAF EGPF 131703Z 1318/1418 32004KT 9999 FEW045"
    },
    {
      "icao": "EHBK",
      "alert": "OK",
      "vis_m": 9999,
      "fzfg": false,
      "metar_trigger": false,
      "taf_trigger": false,
      "metar": "METAR EHBK 132225Z AUTO 02011KT 360V060 9999 OVC009 02/00 Q0997",
      "taf": "TAF EHBK 131716Z 1318/1424 03010KT 9999 BKN011"
    },
    {
      "icao": "EHEH",
      "alert": "OK",
      "vis_m": 9999,
      "fzfg": false,
      "metar_trigger": false,
      "taf_trigger": false,
      "metar": "SPECI EHEH 132239Z AUTO 04012KT 360V070 9999 FEW012 OVC015 02/M02 Q0999 WHT",
      "taf": "TAF EHEH 131755Z 1318/1424 05008KT 9999 SCT012 BKN014"
    },
    {
      "icao": "EKBI",
      "alert": "OK",
      "vis_m": 9999,
      "fzfg": false,
      "metar_trigger": false,
      "taf_trigger": false,
      "metar": "METAR EKBI 132220Z AUTO 01005KT 9999 FEW140/// BKN170/// BKN200/// M08/M10 Q1004",
      "taf": "TAF EKBI 132027Z 1321/1421 01010KT 9999 FEW012"
    },
    {
      "icao": "EKCH",
      "alert": "OK",
      "vis_m": 9999,
      "fzfg": false,
      "metar_trigger": false,
      "taf_trigger": false,
      "metar": "METAR EKCH 132220Z AUTO 03010KT 9999 FEW019/// OVC034/// M02/M06 Q1003 NOSIG",
      "taf": "TAF EKCH 132027Z 1321/1421 02010KT 9999 BKN030"
    },
    {
      "icao": "ENAL",
      "alert": "OK",
      "vis_m": 9999,
      "fzfg": false,
      "metar_trigger": false,
      "taf_trigger": false,
      "metar": "METAR ENAL 132220Z AUTO 16006KT 9999 NCD M02/M03 Q1004",
      "taf": "TAF ENAL 132000Z 1321/1406 16008KT 9999 FEW025"
    },
    {
      "icao": "ENBR",
      "alert": "OK",
      "vis_m": 350,
      "fzfg": false,
      "metar_trigger": false,
      "taf_trigger": false,
      "metar": "METAR ENBR 132220Z 06005KT 030V090 0350 R17/1300U R35/1100U +SN VV007 M01/M02 Q1003 RMK WIND 1200FT 09009KT",
      "taf": "TAF ENBR 131700Z 1318/1418 14010KT 9999 SCT025 BKN050"
    },
    {
      "icao": "ENGM",
      "alert": "OK",
      "vis_m": 9999,
      "fzfg": false,
      "metar_trigger": false,
      "taf_trigger": false,
      "metar": "METAR ENGM 132220Z 00000KT 9999 OVC028 M09/M15 Q1006",
      "taf": "TAF ENGM 131700Z 1318/1418 VRB03KT 9999 FEW020 OVC030"
    },
    {
      "icao": "ENHD",
      "alert": "OK",
      "vis_m": 350,
      "fzfg": false,
      "metar_trigger": false,
      "taf_trigger": false,
      "metar": "METAR ENHD 132220Z AUTO 15018G29KT 0350 R13/1200U R31/1600U +SN VV009 M02/M03 Q1001",
      "taf": "TAF ENHD 131400Z 1315/1323 15014KT 9999 FEW008 SCT020CB BKN030"
    },
    {
      "icao": "ENTC",
      "alert": "OK",
      "vis_m": 9999,
      "fzfg": false,
      "metar_trigger": false,
      "taf_trigger": false,
      "metar": "METAR ENTC 132220Z 22010KT 180V250 CAVOK M04/M07 Q0997 RMK WIND 2600FT 19019KT",
      "taf": ""
    },
    {
      "icao": "ENTO",
      "alert": "OK",
      "vis_m": 9999,
      "fzfg": false,
      "metar_trigger": false,
      "taf_trigger": false,
      "metar": "METAR ENTO 132220Z AUTO 35002KT 9999 NCD M10/M14 Q1007",
      "taf": "TAF ENTO 131700Z 1318/1418 02005KT 9999 OVC030"
    },
    {
      "icao": "ENVA",
      "alert": "OK",
      "vis_m": 9999,
      "fzfg": false,
      "metar_trigger": false,
      "taf_trigger": false,
      "metar": "METAR ENVA 132220Z 11008KT CAVOK M12/M16 Q1005 RMK WIND 670FT 15008KT",
      "taf": "TAF ENVA 131700Z 1318/1418 10008KT CAVOK"
    },
    {
      "icao": "ENZV",
      "alert": "OK",
      "vis_m": 9999,
      "fzfg": false,
      "metar_trigger": false,
      "taf_trigger": false,
      "metar": "METAR ENZV 132220Z 16017KT CAVOK M01/M07 Q1003",
      "taf": "TAF ENZV 131700Z 1318/1418 16010KT 9999 BKN030"
    },
    {
      "icao": "EPGD",
      "alert": "OK",
      "vis_m": 9999,
      "fzfg": false,
      "metar_trigger": false,
      "taf_trigger": false,
      "metar": "METAR EPGD 132230Z 36011KT 9999 OVC005 M03/M03 Q0996",
      "taf": "TAF EPGD 131730Z 1318/1418 01010KT 9999 BKN006"
    },
    {
      "icao": "EPKK",
      "alert": "OK",
      "vis_m": 9999,
      "fzfg": false,
      "metar_trigger": false,
      "taf_trigger": false,
      "metar": "METAR EPKK 132230Z 27004KT 9999 SCT020CB BKN025 05/03 Q0995",
      "taf": "TAF EPKK 132030Z 1321/1421 24008KT 9999 BKN040"
    },
    {
      "icao": "EPKT",
      "alert": "OK",
      "vis_m": 9999,
      "fzfg": false,
      "metar_trigger": false,
      "taf_trigger": false,
      "metar": "METAR EPKT 132230Z 28006KT 9999 FEW008 BKN013 02/01 Q0995",
      "taf": ""
    },
    {
      "icao": "EPLB",
      "alert": "OK",
      "vis_m": 9999,
      "fzfg": false,
      "metar_trigger": false,
      "taf_trigger": false,
      "metar": "METAR EPLB 132230Z 28012KT 9999 BKN013 01/M00 Q0994",
      "taf": "TAF EPLB 131730Z 1318/1418 22010KT 9999 BKN020"
    },
    {
      "icao": "EPMO",
      "alert": "OK",
      "vis_m": 9999,
      "fzfg": false,
      "metar_trigger": false,
      "taf_trigger": false,
      "metar": "METAR EPMO 132230Z 28010KT 9999 -SN BKN011 M00/M02 Q0994",
      "taf": "TAF EPMO 131730Z 1318/1418 27011KT 9999 BKN008"
    },
    {
      "icao": "EPPO",
      "alert": "OK",
      "vis_m": 3400,
      "fzfg": false,
      "metar_trigger": false,
      "taf_trigger": false,
      "metar": "METAR EPPO 132230Z 31003KT 3400 -SNRA BR BKN004 00/M00 Q0996",
      "taf": ""
    },
    {
      "icao": "EPRA",
      "alert": "OK",
      "vis_m": 9999,
      "fzfg": false,
      "metar_trigger": false,
      "taf_trigger": false,
      "metar": "METAR EPRA 132230Z 28008KT 9999 OVC010 01/M01 Q0994",
      "taf": "TAF EPRA 132030Z 1321/1406 30010KT 9999 OVC014"
    },
    {
      "icao": "EPRZ",
      "alert": "OK",
      "vis_m": 9999,
      "fzfg": false,
      "metar_trigger": false,
      "taf_trigger": false,
      "metar": "METAR EPRZ 132230Z 20002KT 9999 BKN032 05/02 Q0994",
      "taf": "TAF EPRZ 131730Z 1318/1418 25005KT CAVOK"
    },
    {
      "icao": "EPSC",
      "alert": "OK",
      "vis_m": 9999,
      "fzfg": false,
      "metar_trigger": false,
      "taf_trigger": false,
      "metar": "METAR EPSC 132230Z 35006KT 310V010 9999 OVC010 00/M02 Q0998",
      "taf": "TAF EPSC 131730Z 1318/1418 35010KT 9999 BKN007"
    },
    {
      "icao": "EPSY",
      "alert": "OK",
      "vis_m": 9999,
      "fzfg": false,
      "metar_trigger": false,
      "taf_trigger": false,
      "metar": "METAR EPSY 132230Z 33009KT 300V360 9999 OVC010 M03/M04 Q0993",
      "taf": "TAF EPSY 132030Z 1321/1406 32008KT 9999 OVC010"
    },
    {
      "icao": "EPWA",
      "alert": "OK",
      "vis_m": 9999,
      "fzfg": false,
      "metar_trigger": false,
      "taf_trigger": false,
      "metar": "METAR EPWA 132230Z 29013KT 9999 BKN012 00/M02 Q0994 TEMPO BKN009",
      "taf": "TAF EPWA 132030Z 1321/1421 27010KT 9999 OVC011"
    },
    {
      "icao": "EPWR",
      "alert": "OK",
      "vis_m": 9999,
      "fzfg": false,
      "metar_trigger": false,
      "taf_trigger": false,
      "metar": "METAR EPWR 132230Z 30005KT 9999 BKN015 02/00 Q0996",
      "taf": "TAF EPWR 132030Z 1321/1421 32005KT 9999 FEW012 BKN015"
    },
    {
      "icao": "ESGG",
      "alert": "OK",
      "vis_m": 9999,
      "fzfg": false,
      "metar_trigger": false,
      "taf_trigger": false,
      "metar": "METAR ESGG 132220Z 03007KT 9999 OVC051 M08/M10 Q1004",
      "taf": "TAF ESGG 132030Z 1321/1421 03011KT 9999 BKN040"
    },
    {
      "icao": "ESKN",
      "alert": "OK",
      "vis_m": 9999,
      "fzfg": false,
      "metar_trigger": false,
      "taf_trigger": false,
      "metar": "METAR ESKN 132220Z 35007KT 9999 OVC032 M07/M11 Q1006",
      "taf": "TAF ESKN 132030Z 1321/1421 02009KT 9999 BKN035"
    },
    {
      "icao": "ESMS",
      "alert": "OK",
      "vis_m": 9999,
      "fzfg": false,
      "metar_trigger": false,
      "taf_trigger": false,
      "metar": "METAR ESMS 132220Z 34006KT 9999 BKN038 M05/M07 Q1002",
      "taf": "TAF ESMS 132027Z 1321/1421 01007KT 9999 BKN035"
    },
    {
      "icao": "ESSA",
      "alert": "OK",
      "vis_m": 9999,
      "fzfg": false,
      "metar_trigger": false,
      "taf_trigger": false,
      "metar": "METAR ESSA 132220Z 36005KT CAVOK M14/M16 Q1006 NOSIG",
      "taf": "TAF ESSA 132030Z 1321/1421 05004KT 9999 FEW009 BKN015"
    },
    {
      "icao": "EYKA",
      "alert": "OK",
      "vis_m": 1800,
      "fzfg": false,
      "metar_trigger": false,
      "taf_trigger": false,
      "metar": "METAR EYKA 132220Z 36007KT 290V080 1800 SN BR FEW008 OVC027 M06/M08 Q0991",
      "taf": ""
    },
    {
      "icao": "EYPA",
      "alert": "OK",
      "vis_m": 9999,
      "fzfg": false,
      "metar_trigger": false,
      "taf_trigger": false,
      "metar": "METAR EYPA 132220Z 04011KT 010V080 9999 OVC014 M06/M10 Q0996",
      "taf": "TAF EYPA 131711Z 1318/1418 04010KT 9000 BKN015"
    },
    {
      "icao": "EYVI",
      "alert": "OK",
      "vis_m": 9999,
      "fzfg": false,
      "metar_trigger": false,
      "taf_trigger": false,
      "metar": "METAR EYVI 132220Z 24008KT 9999 OVC003 01/01 Q0988 BECMG OVC005",
      "taf": ""
    },
    {
      "icao": "GCFV",
      "alert": "OK",
      "vis_m": 9999,
      "fzfg": false,
      "metar_trigger": false,
      "taf_trigger": false,
      "metar": "METAR GCFV 132230Z 36020KT 9999 SCT035 18/09 Q1025",
      "taf": "TAF GCFV 132000Z 1321/1421 02017KT 9999 SCT035 TX22/1414Z TN17/1406Z"
    },
    {
      "icao": "GCLP",
      "alert": "OK",
      "vis_m": 9999,
      "fzfg": false,
      "metar_trigger": false,
      "taf_trigger": false,
      "metar": "METAR GCLP 132230Z 01018KT 9999 BKN025 18/10 Q1026 NOSIG",
      "taf": "TAF GCLP 132000Z 1321/1421 01020KT 9999 BKN025 TX22/1414Z TN16/1406Z"
    },
    {
      "icao": "GCTS",
      "alert": "OK",
      "vis_m": 9999,
      "fzfg": false,
      "metar_trigger": false,
      "taf_trigger": false,
      "metar": "METAR GCTS 132230Z 07020KT 9999 SCT035 18/09 Q1026 NOSIG",
      "taf": "TAF GCTS 132000Z 1321/1421 04015KT 9999 SCT030 TX24/1414Z TN14/1406Z"
    },
    {
      "icao": "GMAD",
      "alert": "OK",
      "vis_m": 8000,
      "fzfg": false,
      "metar_trigger": false,
      "taf_trigger": false,
      "metar": "METAR GMAD 132230Z 28007KT 240V310 8000 FEW033 15/06 Q1020 NOSIG",
      "taf": "TAF GMAD 131700Z 1318/1424 24013KT 8000 SCT020"
    },
    {
      "icao": "GMMN",
      "alert": "OK",
      "vis_m": 9999,
      "fzfg": false,
      "metar_trigger": false,
      "taf_trigger": false,
      "metar": "METAR GMMN 132230Z 27008KT 9999 -RA BKN020 11/10 Q1021 NOSIG",
      "taf": "TAF GMMN 131700Z 1318/1424 28014KT 9999 SCT030"
    },
    {
      "icao": "GMMX",
      "alert": "OK",
      "vis_m": 8000,
      "fzfg": false,
      "metar_trigger": false,
      "taf_trigger": false,
      "metar": "METAR GMMX 132230Z 25008KT 8000 SCT023 11/08 Q1023 NOSIG",
      "taf": "TAF GMMX 131700Z 1318/1424 24012KT 8000 BKN023"
    },
    {
      "icao": "HEGN",
      "alert": "OK",
      "vis_m": 9999,
      "fzfg": false,
      "metar_trigger": false,
      "taf_trigger": false,
      "metar": "METAR HEGN 132200Z 00000KT CAVOK 21/11 Q1012 NOSIG",
      "taf": ""
    },
    {
      "icao": "HEMA",
      "alert": "OK",
      "vis_m": 9999,
      "fzfg": false,
      "metar_trigger": false,
      "taf_trigger": false,
      "metar": "METAR HEMA 132200Z 20008KT CAVOK 19/09 Q1013 NOSIG",
      "taf": ""
    },
    {
      "icao": "HESH",
      "alert": "OK",
      "vis_m": 9999,
      "fzfg": false,
      "metar_trigger": false,
      "taf_trigger": false,
      "metar": "METAR HESH 132200Z 00000KT CAVOK 20/15 Q1012 NOSIG",
      "taf": ""
    },
    {
      "icao": "HESX",
      "alert": "OK",
      "vis_m": 9999,
      "fzfg": false,
      "metar_trigger": false,
      "taf_trigger": false,
      "metar": "METAR HESX 132200Z 23008KT CAVOK 18/01 Q1011 NOSIG",
      "taf": ""
    },
    {
      "icao": "LATI",
      "alert": "OK",
      "vis_m": null,
      "fzfg": false,
      "metar_trigger": false,
      "taf_trigger": false,
      "metar": "",
      "taf": "TAF LATI 131700Z 1318/1418 VRB05KT 9999 SCT040 BKN090 TX15/1412Z TN07/1405Z"
    },
    {
      "icao": "LBPD",
      "alert": "OK",
      "vis_m": 9999,
      "fzfg": false,
      "metar_trigger": false,
      "taf_trigger": false,
      "metar": "METAR LBPD 132230Z AUTO 34006KT 9999 OVC085/// 07/07 Q0997",
      "taf": "TAF LBPD 131700Z 1318/1418 28012KT 9999 SCT050"
    },
    {
      "icao": "LBSF",
      "alert": "OK",
      "vis_m": 9999,
      "fzfg": false,
      "metar_trigger": false,
      "taf_trigger": false,
      "metar": "METAR LBSF 132230Z AUTO 29012KT 9999 FEW020/// BKN062/// 07/04 Q0998 NOSIG",
      "taf": "TAF LBSF 131700Z 1318/1418 29012KT 9999 SCT050"
    },
    {
      "icao": "LBWN",
      "alert": "OK",
      "vis_m": 9999,
      "fzfg": false,
      "metar_trigger": false,
      "taf_trigger": false,
      "metar": "METAR LBWN 132230Z AUTO 27010KT 9999 SCT013/// 05/05 Q0995 NOSIG",
      "taf": "TAF LBWN 131700Z 1318/1418 29010KT 4000 RA SCT006 BKN010 OVC020"
    },
    {
      "icao": "LCLK",
      "alert": "OK",
      "vis_m": 9999,
      "fzfg": false,
      "metar_trigger": false,
      "taf_trigger": false,
      "metar": "METAR LCLK 132230Z 24015KT 9999 -SHRA FEW025CB SCT060 16/13 Q1003 NOSIG RMK CB TO S",
      "taf": "TAF LCLK 131730Z 1318/1418 21018KT 9999 FEW020 SCT035"
    },
    {
      "icao": "LCPH",
      "alert": "OK",
      "vis_m": 9999,
      "fzfg": false,
      "metar_trigger": false,
      "taf_trigger": false,
      "metar": "METAR LCPH 132230Z 26016KT 9999 FEW025TCU SCT035 17/13 Q1003 TEMPO 3000 TSRA",
      "taf": "TAF LCPH 131730Z 1318/1418 21016KT 9999 FEW020 SCT035"
    },
    {
      "icao": "LEAL",
      "alert": "OK",
      "vis_m": 9999,
      "fzfg": false,
      "metar_trigger": false,
      "taf_trigger": false,
      "metar": "METAR LEAL 132230Z 27008KT 230V320 CAVOK 16/02 Q0998 NOSIG",
      "taf": "TAF LEAL 131700Z 1318/1418 29015KT 9999 FEW030 TX20/1413Z TN10/1406Z"
    },
    {
      "icao": "LEBB",
      "alert": "OK",
      "vis_m": 9999,
      "fzfg": false,
      "metar_trigger": false,
      "taf_trigger": false,
      "metar": "METAR LEBB 132230Z 28017G27KT 9999 SCT026 BKN032 BKN046 10/07 Q1000 WS ALL RWY TEMPO 3000 SHRA SCT030TCU",
      "taf": ""
    },
    {
      "icao": "LEBL",
      "alert": "OK",
      "vis_m": 9999,
      "fzfg": false,
      "metar_trigger": false,
      "taf_trigger": false,
      "metar": "METAR LEBL 132230Z 28012KT 9999 FEW012 FEW020TCU SCT038 12/07 Q0987 NOSIG",
      "taf": "TAF LEBL 131700Z 1318/1418 29015KT 9999 FEW035 TX18/1413Z TN09/1406Z"
    },
    {
      "icao": "LECH",
      "alert": "OK",
      "vis_m": 9999,
      "fzfg": false,
      "metar_trigger": false,
      "taf_trigger": false,
      "metar": "METAR LECH 132230Z AUTO 30011G25KT 210V010 9999 FEW065 13/00 Q0993",
      "taf": ""
    },
    {
      "icao": "LEMD",
      "alert": "OK",
      "vis_m": 9999,
      "fzfg": false,
      "metar_trigger": false,
      "taf_trigger": false,
      "metar": "METAR LEMD 132230Z 28013KT 9999 SCT060 BKN070 08/01 Q1001 NOSIG",
      "taf": ""
    },
    {
      "icao": "LEMG",
      "alert": "OK",
      "vis_m": 9999,
      "fzfg": false,
      "metar_trigger": false,
      "taf_trigger": false,
      "metar": "METAR LEMG 132230Z 30012G23KT 9999 FEW050 12/04 Q1008 NOSIG",
      "taf": "TAF LEMG 131700Z 1318/1418 31018KT 9999 SCT035 TX17/1414Z TN12/1406Z"
    },
    {
      "icao": "LEVC",
      "alert": "OK",
      "vis_m": 9999,
      "fzfg": false,
      "metar_trigger": false,
      "taf_trigger": false,
      "metar": "METAR LEVC 132230Z 28022G33KT CAVOK 13/03 Q0995 NOSIG",
      "taf": "TAF LEVC 131700Z 1318/1418 29015KT CAVOK TX19/1414Z TN11/1406Z"
    },
    {
      "icao": "LEXJ",
      "alert": "OK",
      "vis_m": 2900,
      "fzfg": false,
      "metar_trigger": false,
      "taf_trigger": false,
      "metar": "SPECI LEXJ 132236Z 33021G34KT 290V020 2900 +SHRA BR FEW011 SCT030 BKN044TCU 10/07 Q1002",
      "taf": "TAF LEXJ 132000Z 1321/1421 30019KT 9999 SCT020 BKN035 TX11/1416Z TN08/1421Z"
    },
    {
      "icao": "LEZG",
      "alert": "OK",
      "vis_m": 9999,
      "fzfg": false,
      "metar_trigger": false,
      "taf_trigger": false,
      "metar": "METAR LEZG 132230Z 29020G30KT 9999 SCT050 SCT080 09/04 Q0995 NOSIG",
      "taf": "TAF LEZG 131700Z 1318/1418 29012KT 9999 FEW020 TX13/1412Z TN06/1406Z"
    },
    {
      "icao": "LEZL",
      "alert": "OK",
      "vis_m": 9999,
      "fzfg": false,
      "metar_trigger": false,
      "taf_trigger": false,
      "metar": "METAR LEZL 132230Z 27012KT 9999 BKN038 12/08 Q1010 NOSIG",
      "taf": "TAF LEZL 132000Z 1321/1421 26011KT 9999 FEW035 TX20/1415Z TN09/1407Z"
    },
    {
      "icao": "LFBD",
      "alert": "OK",
      "vis_m": 9000,
      "fzfg": false,
      "metar_trigger": false,
      "taf_trigger": false,
      "metar": "METAR LFBD 132230Z AUTO 31008KT 9000 -RA BKN007 BKN011 OVC024 09/09 Q0993 TEMPO 4000 RA BKN015 SCT020TCU",
      "taf": ""
    },
    {
      "icao": "LFLL",
      "alert": "OK",
      "vis_m": 9999,
      "fzfg": false,
      "metar_trigger": false,
      "taf_trigger": false,
      "metar": "METAR LFLL 132230Z 35003KT CAVOK 07/05 Q0989 NOSIG",
      "taf": "TAF LFLL 131700Z 1318/1424 14004KT CAVOK"
    },
    {
      "icao": "LFLS",
      "alert": "OK",
      "vis_m": 9999,
      "fzfg": false,
      "metar_trigger": false,
      "taf_trigger": false,
      "metar": "METAR LFLS 132230Z AUTO 00000KT 9999 FEW005 OVC076 05/05 Q0989",
      "taf": "TAF LFLS 131400Z 1315/1415 24008KT CAVOK"
    },
    {
      "icao": "LFMN",
      "alert": "OK",
      "vis_m": 9999,
      "fzfg": false,
      "metar_trigger": false,
      "taf_trigger": false,
      "metar": "METAR LFMN 132230Z 01010KT 9999 -RA OVC046 10/06 Q0988 TEMPO 4500 -SHRA SCT045TCU",
      "taf": "TAF LFMN 132000Z 1321/1503 02015KT 9999 RA FEW020 BKN040 BKN070"
    },
    {
      "icao": "LFOB",
      "alert": "OK",
      "vis_m": 9999,
      "fzfg": false,
      "metar_trigger": false,
      "taf_trigger": false,
      "metar": "METAR LFOB 132230Z AUTO 03013KT 020V090 9999 BKN013 BKN036 BKN052 08/06 Q0995 TEMPO 3000 RA BKN006 BKN012TCU",
      "taf": ""
    },
    {
      "icao": "LFPO",
      "alert": "OK",
      "vis_m": 9999,
      "fzfg": false,
      "metar_trigger": false,
      "taf_trigger": false,
      "metar": "METAR LFPO 132230Z 03009KT 9999 -RA BKN008 BKN015 08/07 Q0993 NOSIG",
      "taf": "TAF LFPO 131700Z 1318/1424 05005KT 9999 BKN030"
    },
    {
      "icao": "LFSB",
      "alert": "OK",
      "vis_m": 9999,
      "fzfg": false,
      "metar_trigger": false,
      "taf_trigger": false,
      "metar": "METAR LFSB 132230Z AUTO 36005KT 330V030 9999 OVC004 06/06 Q0992 TEMPO 4000 BR",
      "taf": "TAF LFSB 131700Z 1318/1418 35007KT 9999 FEW030 BKN100"
    },
    {
      "icao": "LGAV",
      "alert": "OK",
      "vis_m": 9999,
      "fzfg": false,
      "metar_trigger": false,
      "taf_trigger": false,
      "metar": "METAR LGAV 132220Z 31013KT 9999 FEW025 14/07 Q0999 NOSIG",
      "taf": "TAF LGAV 131700Z 1318/1418 28008KT 9999 FEW020"
    },
    {
      "icao": "LGTS",
      "alert": "OK",
      "vis_m": 9999,
      "fzfg": false,
      "metar_trigger": false,
      "taf_trigger": false,
      "metar": "METAR LGTS 132220Z 27006KT 9999 FEW025 11/08 Q0998 NOSIG",
      "taf": "TAF LGTS 131700Z 1318/1418 VRB03KT 9999 SCT025"
    },
    {
      "icao": "LHBP",
      "alert": "OK",
      "vis_m": 9999,
      "fzfg": false,
      "metar_trigger": false,
      "taf_trigger": false,
      "metar": "METAR LHBP 132230Z VRB02KT CAVOK 01/M00 Q0997 NOSIG",
      "taf": "TAF LHBP 131715Z 1318/1418 VRB03KT CAVOK"
    },
    {
      "icao": "LHDC",
      "alert": "OK",
      "vis_m": 9999,
      "fzfg": false,
      "metar_trigger": false,
      "taf_trigger": false,
      "metar": "METAR LHDC 132215Z AUTO 20003KT CAVOK 03/02 Q0997",
      "taf": "TAF LHDC 131415Z 1315/1324 25006KT 9999 SCT030"
    },
    {
      "icao": "LIBD",
      "alert": "OK",
      "vis_m": 9999,
      "fzfg": false,
      "metar_trigger": false,
      "taf_trigger": false,
      "metar": "METAR LIBD 132220Z 21006KT CAVOK 07/05 Q0998",
      "taf": "TAF LIBD 131700Z 1318/1418 29012KT 9999 SCT030"
    },
    {
      "icao": "LIBG",
      "alert": "OK",
      "vis_m": null,
      "fzfg": false,
      "metar_trigger": false,
      "taf_trigger": false,
      "metar": "",
      "taf": "TAF LIBG 131700Z 1318/1403 30010KT 9999 SCT020"
    },
    {
      "icao": "LIBP",
      "alert": "OK",
      "vis_m": 9999,
      "fzfg": false,
      "metar_trigger": false,
      "taf_trigger": false,
      "metar": "METAR LIBP 132220Z AUTO 25005KT 9999 BKN200/// 08/07 Q0996",
      "taf": "TAF LIBP 131700Z 1318/1418 VRB05KT 9999 SCT050"
    },
    {
      "icao": "LIBR",
      "alert": "OK",
      "vis_m": 9999,
      "fzfg": false,
      "metar_trigger": false,
      "taf_trigger": false,
      "metar": "METAR LIBR 132220Z 29005KT CAVOK 10/07 Q1000",
      "taf": "TAF LIBR 131700Z 1318/1418 30020KT 9999 SCT030"
    },
    {
      "icao": "LICA",
      "alert": "OK",
      "vis_m": 9999,
      "fzfg": false,
      "metar_trigger": false,
      "taf_trigger": false,
      "metar": "METAR LICA 132220Z AUTO 09003KT 060V140 9999 SCT022/// 12/09 Q1002",
      "taf": "TAF LICA 131700Z 1318/1418 26014KT 9999 SCT020 SCT060"
    },
    {
      "icao": "LICC",
      "alert": "OK",
      "vis_m": 9999,
      "fzfg": false,
      "metar_trigger": false,
      "taf_trigger": false,
      "metar": "METAR LICC 132220Z 28012KT CAVOK 12/07 Q1002",
      "taf": "TAF LICC 131700Z 1318/1418 30015KT 9999 FEW030"
    },
    {
      "icao": "LICJ",
      "alert": "OK",
      "vis_m": 9999,
      "fzfg": false,
      "metar_trigger": false,
      "taf_trigger": false,
      "metar": "METAR LICJ 132220Z 20013KT CAVOK 15/06 Q1000",
      "taf": "TAF LICJ 131700Z 1318/1418 19012KT 9999 FEW030"
    },
    {
      "icao": "LIMC",
      "alert": "OK",
      "vis_m": 8000,
      "fzfg": false,
      "metar_trigger": false,
      "taf_trigger": false,
      "metar": "METAR LIMC 132220Z 14006KT 8000 -RA FEW025 BKN040 09/07 Q0994 NOSIG",
      "taf": "TAF LIMC 131700Z 1318/1424 VRB05KT CAVOK"
    },
    {
      "icao": "LIME",
      "alert": "OK",
      "vis_m": 9999,
      "fzfg": false,
      "metar_trigger": false,
      "taf_trigger": false,
      "metar": "METAR LIME 132220Z 11008KT 9999 -RA FEW035 BKN045 10/05 Q0994 BECMG RA",
      "taf": "TAF LIME 131700Z 1318/1418 VRB06KT CAVOK"
    },
    {
      "icao": "LIMF",
      "alert": "OK",
      "vis_m": 9999,
      "fzfg": false,
      "metar_trigger": false,
      "taf_trigger": false,
      "metar": "METAR LIMF 132220Z 03006KT 9999 RA OVC030 08/06 Q0993",
      "taf": "TAF LIMF 131700Z 1318/1418 07006KT 9999 SCT060"
    },
    {
      "icao": "LIMJ",
      "alert": "OK",
      "vis_m": 9999,
      "fzfg": false,
      "metar_trigger": false,
      "taf_trigger": false,
      "metar": "METAR LIMJ 132220Z AUTO 03011KT 9999 OVC090/// 11/06 Q0991",
      "taf": "TAF LIMJ 131700Z 1318/1418 13018KT 9999 SCT030"
    },
    {
      "icao": "LIPE",
      "alert": "OK",
      "vis_m": 2500,
      "fzfg": false,
      "metar_trigger": false,
      "taf_trigger": false,
      "metar": "METAR LIPE 132220Z 35003KT 270V030 2500 BR BKN003 08/07 Q0994",
      "taf": "TAF LIPE 131700Z 1318/1418 VRB05KT CAVOK"
    },
    {
      "icao": "LIPH",
      "alert": "OK",
      "vis_m": 2500,
      "fzfg": false,
      "metar_trigger": false,
      "taf_trigger": false,
      "metar": "METAR LIPH 132220Z AUTO 06003KT 2500 0750W BR VV002 07/07 Q0996",
      "taf": "TAF LIPH 131700Z 1318/1418 VRB04KT 0500 FG BKN001"
    },
    {
      "icao": "LIPQ",
      "alert": "OK",
      "vis_m": 350,
      "fzfg": false,
      "metar_trigger": false,
      "taf_trigger": false,
      "metar": "METAR LIPQ 132220Z AUTO 36003KT 330V030 0350 R09/1000N FG VV002 07/07 Q0996",
      "taf": "TAF LIPQ 131700Z 1318/1418 VRB04KT 0500 FG BKN001"
    },
    {
      "icao": "LIPR",
      "alert": "OK",
      "vis_m": 9999,
      "fzfg": false,
      "metar_trigger": false,
      "taf_trigger": false,
      "metar": "METAR LIPR 132220Z AUTO VRB02KT 9999 BKN120/// 11/07 Q0994",
      "taf": "TAF LIPR 131700Z 1318/1418 14008KT CAVOK"
    },
    {
      "icao": "LIPX",
      "alert": "OK",
      "vis_m": 2000,
      "fzfg": false,
      "metar_trigger": false,
      "taf_trigger": false,
      "metar": "METAR LIPX 132220Z 32004KT 2000 -DZ BR BKN002 08/08 Q0995",
      "taf": "TAF LIPX 131700Z 1318/1418 VRB05KT 0500 FG BKN002"
    },
    {
      "icao": "LIPY",
      "alert": "OK",
      "vis_m": 9999,
      "fzfg": false,
      "metar_trigger": false,
      "taf_trigger": false,
      "metar": "METAR LIPY 132220Z AUTO 24005KT 9999 BKN190/// 12/06 Q0994",
      "taf": "TAF LIPY 131700Z 1318/1418 14008KT CAVOK"
    },
    {
      "icao": "LIPZ",
      "alert": "OK",
      "vis_m": 7000,
      "fzfg": false,
      "metar_trigger": false,
      "taf_trigger": false,
      "metar": "METAR LIPZ 132220Z 06006KT 7000 OVC003 08/08 Q0996 NOSIG",
      "taf": ""
    },
    {
      "icao": "LIRF",
      "alert": "OK",
      "vis_m": 9999,
      "fzfg": false,
      "metar_trigger": false,
      "taf_trigger": false,
      "metar": "METAR LIRF 132220Z 13008KT 9999 FEW020 12/11 Q0996 NOSIG",
      "taf": "TAF LIRF 131700Z 1318/1424 18010KT CAVOK"
    },
    {
      "icao": "LIRN",
      "alert": "OK",
      "vis_m": 9999,
      "fzfg": false,
      "metar_trigger": false,
      "taf_trigger": false,
      "metar": "METAR LIRN 132220Z VRB03KT CAVOK 12/10 Q0999 NOSIG",
      "taf": "TAF LIRN 131700Z 1318/1418 VRB05KT CAVOK"
    },
    {
      "icao": "LIRP",
      "alert": "OK",
      "vis_m": 9999,
      "fzfg": false,
      "metar_trigger": false,
      "taf_trigger": false,
      "metar": "METAR LIRP 132215Z 11009KT CAVOK 11/09 Q0991 NOSIG",
      "taf": "TAF LIRP 131700Z 1318/1418 34005KT 9999 SCT025"
    },
    {
      "icao": "LIRZ",
      "alert": "OK",
      "vis_m": 9999,
      "fzfg": false,
      "metar_trigger": false,
      "taf_trigger": false,
      "metar": "METAR LIRZ 132220Z AUTO VRB02KT 9999 SCT100/// BKN160/// 09/06 Q0995",
      "taf": "TAF LIRZ 131700Z 1318/1418 VRB05KT 9999 FEW030"
    },
    {
      "icao": "LJLJ",
      "alert": "OK",
      "vis_m": 9999,
      "fzfg": false,
      "metar_trigger": false,
      "taf_trigger": false,
      "metar": "METAR LJLJ 132230Z VRB01KT 9999 MIFG FEW001 BKN250 03/02 Q0996 NOSIG",
      "taf": "TAF LJLJ 131700Z 1318/1418 VRB02KT 9999 FEW040 SCT090"
    },
    {
      "icao": "LKMT",
      "alert": "OK",
      "vis_m": 9999,
      "fzfg": false,
      "metar_trigger": false,
      "taf_trigger": false,
      "metar": "METAR LKMT 132230Z 31005KT 270V330 9999 FEW026 05/03 Q0996 NOSIG",
      "taf": "TAF LKMT 131700Z 1318/1418 23013KT 9999 SCT035 BKN040"
    },
    {
      "icao": "LKPR",
      "alert": "OK",
      "vis_m": 9999,
      "fzfg": false,
      "metar_trigger": false,
      "taf_trigger": false,
      "metar": "METAR LKPR 132230Z VRB02KT 9999 BKN011 BKN035 02/01 Q0995 NOSIG",
      "taf": "TAF LKPR 132000Z 1321/1503 VRB02KT 9999 SCT025"
    },
    {
      "icao": "LLBG",
      "alert": "OK",
      "vis_m": 9999,
      "fzfg": false,
      "metar_trigger": false,
      "taf_trigger": false,
      "metar": "METAR LLBG 132220Z 18004KT 9999 FEW050 18/10 Q1009 NOSIG",
      "taf": "TAF LLBG 131719Z 1318/1418 VRB04KT CAVOK"
    },
    {
      "icao": "LMML",
      "alert": "OK",
      "vis_m": 9999,
      "fzfg": false,
      "metar_trigger": false,
      "taf_trigger": false,
      "metar": "METAR LMML 132245Z 18009KT CAVOK 14/11 Q1002 NOSIG",
      "taf": "TAF LMML 131700Z 1318/1418 25015KT CAVOK"
    },
    {
      "icao": "LOWW",
      "alert": "OK",
      "vis_m": 9999,
      "fzfg": false,
      "metar_trigger": false,
      "taf_trigger": false,
      "metar": "METAR LOWW 132220Z 11004KT 9999 FEW050 05/01 Q0996 NOSIG",
      "taf": "TAF LOWW 132015Z 1321/1503 VRB03KT 9999 FEW050 TX08/1414Z TN02/1503Z"
    },
    {
      "icao": "LPFR",
      "alert": "OK",
      "vis_m": 9999,
      "fzfg": false,
      "metar_trigger": false,
      "taf_trigger": false,
      "metar": "METAR LPFR 132230Z 30020KT 9999 FEW020 FEW022CB 11/08 Q1015",
      "taf": "TAF LPFR 131700Z 1318/1418 28020KT 9999 SCT020"
    },
    {
      "icao": "LPMA",
      "alert": "OK",
      "vis_m": 9999,
      "fzfg": false,
      "metar_trigger": false,
      "taf_trigger": false,
      "metar": "METAR LPMA 132230Z 36009KT 310V020 9999 FEW016 16/07 Q1029",
      "taf": "TAF LPMA 131700Z 1318/1418 35013KT 9999 SCT015"
    },
    {
      "icao": "LPPR",
      "alert": "OK",
      "vis_m": 9999,
      "fzfg": false,
      "metar_trigger": false,
      "taf_trigger": false,
      "metar": "METAR LPPR 132230Z 35018KT 9999 FEW020 FEW025CB SCT032 10/05 Q1014",
      "taf": "TAF LPPR 131700Z 1318/1418 31013KT 9999 SCT020"
    },
    {
      "icao": "LPPS",
      "alert": "OK",
      "vis_m": 9999,
      "fzfg": false,
      "metar_trigger": false,
      "taf_trigger": false,
      "metar": "METAR LPPS 132230Z 36015KT 9999 SCT015 SCT030 16/09 Q1029",
      "taf": "TAF LPPS 131700Z 1318/1424 33018KT 9999 SCT015"
    },
    {
      "icao": "LPPT",
      "alert": "OK",
      "vis_m": 9999,
      "fzfg": false,
      "metar_trigger": false,
      "taf_trigger": false,
      "metar": "METAR LPPT 132230Z 32012KT 290V350 9999 FEW025 FEW030CB 11/07 Q1016 WS R02",
      "taf": "TAF LPPT 131700Z 1318/1424 31015KT 9999 SCT025"
    },
    {
      "icao": "LQBK",
      "alert": "OK",
      "vis_m": 9999,
      "fzfg": false,
      "metar_trigger": false,
      "taf_trigger": false,
      "metar": "METAR LQBK 132230Z VRB03KT CAVOK 04/03 Q0997 NOSIG",
      "taf": "TAF LQBK 131700Z 1318/1418 VRB02KT CAVOK TX13/1412Z TN02/1405Z"
    },
    {
      "icao": "LQSA",
      "alert": "OK",
      "vis_m": 6000,
      "fzfg": false,
      "metar_trigger": false,
      "taf_trigger": false,
      "metar": "METAR LQSA 132230Z 12002KT 6000 NSC 02/02 Q1000",
      "taf": "TAF LQSA 131700Z 1318/1418 VRB02KT 9999 BKN050 TX13/1413Z TN01/1404Z"
    },
    {
      "icao": "LQTZ",
      "alert": "OK",
      "vis_m": 1900,
      "fzfg": false,
      "metar_trigger": false,
      "taf_trigger": false,
      "metar": "METAR LQTZ 132230Z VRB02KT 1900 BR FEW002 00/00 Q0999",
      "taf": "TAF LQTZ 131700Z 1318/1418 VRB02KT CAVOK TX14/1413Z TN02/1405Z"
    },
    {
      "icao": "LRBC",
      "alert": "OK",
      "vis_m": 200,
      "fzfg": false,
      "metar_trigger": false,
      "taf_trigger": false,
      "metar": "METAR LRBC 132230Z VRB01KT 0200 R16/0600N FG VV002 02/02 Q0995",
      "taf": "TAF LRBC 132000Z 1321/1406 VRB04KT 0600 FG OVC002"
    },
    {
      "icao": "LRBS",
      "alert": "OK",
      "vis_m": 600,
      "fzfg": false,
      "metar_trigger": false,
      "taf_trigger": false,
      "metar": "METAR LRBS 132230Z 24010KT 0600 R07/1900D FG OVC001 05/04 Q0996 TEMPO 0300 FG",
      "taf": "TAF LRBS 131700Z 1318/1418 25008KT 5000 BR BKN010 BKN030"
    },
    {
      "icao": "LRBV",
      "alert": "OK",
      "vis_m": 9999,
      "fzfg": false,
      "metar_trigger": false,
      "taf_trigger": false,
      "metar": "METAR LRBV 132230Z AUTO 30009KT 9999 BKN024/// OVC067/// 07/04 Q0996",
      "taf": "TAF LRBV 132000Z 1321/1406 29008KT 9999 BKN040"
    },
    {
      "icao": "LRCL",
      "alert": "OK",
      "vis_m": 7000,
      "fzfg": false,
      "metar_trigger": false,
      "taf_trigger": false,
      "metar": "METAR LRCL 132230Z 26004KT 7000 MIFG NSC 02/01 Q0997",
      "taf": ""
    },
    {
      "icao": "LRCV",
      "alert": "OK",
      "vis_m": 250,
      "fzfg": false,
      "metar_trigger": false,
      "taf_trigger": false,
      "metar": "METAR LRCV 132230Z 27007KT 0250 R26/0325N FG VV001 03/03 Q0996",
      "taf": "TAF LRCV 132000Z 1321/1406 VRB04KT 0150 FG VV001"
    },
    {
      "icao": "LRIA",
      "alert": "OK",
      "vis_m": 1600,
      "fzfg": false,
      "metar_trigger": false,
      "taf_trigger": false,
      "metar": "METAR LRIA 132230Z 31006KT 1600 BR OVC001 02/02 Q0995",
      "taf": "TAF LRIA 132000Z 1321/1406 30005KT 0200 FG VV001"
    },
    {
      "icao": "LROP",
      "alert": "OK",
      "vis_m": 2500,
      "fzfg": false,
      "metar_trigger": false,
      "taf_trigger": false,
      "metar": "METAR LROP 132230Z 25009KT 2500 BR OVC001 05/05 Q0996 TEMPO 1500 BR",
      "taf": "TAF LROP 131700Z 1318/1418 25008KT 5000 BR BKN010 BKN030"
    },
    {
      "icao": "LRSB",
      "alert": "OK",
      "vis_m": 9999,
      "fzfg": false,
      "metar_trigger": false,
      "taf_trigger": false,
      "metar": "METAR LRSB 132230Z 31006KT CAVOK 07/02 Q0996",
      "taf": "TAF LRSB 131700Z 1318/1418 32008KT 9999 BKN050"
    },
    {
      "icao": "LRSM",
      "alert": "OK",
      "vis_m": 8000,
      "fzfg": false,
      "metar_trigger": false,
      "taf_trigger": false,
      "metar": "METAR LRSM 132230Z AUTO 21005KT 8000 SCT060/// 05/04 Q0997",
      "taf": "TAF LRSM 131400Z 1315/1324 25010KT 9999 BKN030"
    },
    {
      "icao": "LRSV",
      "alert": "OK",
      "vis_m": 3000,
      "fzfg": false,
      "metar_trigger": false,
      "taf_trigger": false,
      "metar": "METAR LRSV 132230Z 32003KT 3000 BR NSC 01/01 Q0995",
      "taf": ""
    },
    {
      "icao": "LRTM",
      "alert": "OK",
      "vis_m": 9999,
      "fzfg": false,
      "metar_trigger": false,
      "taf_trigger": false,
      "metar": "METAR LRTM 132230Z AUTO 23004KT 9999 -RA BKN043/// 07/05 Q0997",
      "taf": "TAF LRTM 132000Z 1321/1406 32008KT 9999 BKN040"
    },
    {
      "icao": "LRTR",
      "alert": "OK",
      "vis_m": 8000,
      "fzfg": false,
      "metar_trigger": false,
      "taf_trigger": false,
      "metar": "METAR LRTR 132230Z 07002KT 8000 NSC 01/01 Q0999",
      "taf": "TAF LRTR 131700Z 1318/1418 31005KT 9999 SCT040"
    },
    {
      "icao": "LTAC",
      "alert": "OK",
      "vis_m": 9999,
      "fzfg": false,
      "metar_trigger": false,
      "taf_trigger": false,
      "metar": "METAR LTAC 132220Z 21003KT 130V240 9999 SCT040 BKN100 06/04 Q0997 NOSIG RMK RWY21C 14003KT RWY03L VRB02KT RWY21R 11003KT 030V130 RWY03R 21007KT RWY21L VRB01KT",
      "taf": "TAF LTAC 131640Z 1318/1418 21008KT 9999 SCT040 BKN100"
    },
    {
      "icao": "LTFM",
      "alert": "OK",
      "vis_m": 6000,
      "fzfg": false,
      "metar_trigger": false,
      "taf_trigger": false,
      "metar": "METAR LTFM 132220Z 33012KT 6000 -SHRA BKN002 BKN022 07/06 Q0995 NOSIG RMK RWY17L 33010KT RWY34L 33012KT RWY16R 33007KT RWY36 33012KT RWY18 32011KT",
      "taf": "TAF LTFM 131640Z 1318/1424 VRB02KT 9999 -SHRA SCT003 BKN028"
    },
    {
      "icao": "LUKK",
      "alert": "OK",
      "vis_m": 3200,
      "fzfg": false,
      "metar_trigger": false,
      "taf_trigger": false,
      "metar": "METAR LUKK 132230Z 01003KT 3200 BR OVC002 02/02 Q0995 TEMPO 2000 BR",
      "taf": "TAF LUKK 131719Z 1318/1418 VRB05KT 1500 BR BKN003"
    },
    {
      "icao": "LWOH",
      "alert": "OK",
      "vis_m": null,
      "fzfg": false,
      "metar_trigger": false,
      "taf_trigger": false,
      "metar": "",
      "taf": "TAF LWOH 132050Z 1321/1421 VRB03KT 9999 SCT040"
    },
    {
      "icao": "LWSK",
      "alert": "OK",
      "vis_m": null,
      "fzfg": false,
      "metar_trigger": false,
      "taf_trigger": false,
      "metar": "",
      "taf": "TAF LWSK 132050Z 1321/1421 VRB02KT 9999 SCT050 BKN080"
    },
    {
      "icao": "LYBE",
      "alert": "OK",
      "vis_m": 9999,
      "fzfg": false,
      "metar_trigger": false,
      "taf_trigger": false,
      "metar": "METAR LYBE 132230Z 18003KT 140V210 CAVOK 06/04 Q0999 NOSIG",
      "taf": "TAF LYBE 131700Z 1318/1418 28006KT CAVOK TX15/1413Z TN03/1406Z"
    },
    {
      "icao": "LYNI",
      "alert": "OK",
      "vis_m": 9999,
      "fzfg": false,
      "metar_trigger": false,
      "taf_trigger": false,
      "metar": "METAR LYNI 132230Z 00000KT 9999 SCT033 07/05 Q0999 NOSIG",
      "taf": "TAF LYNI 131700Z 1318/1418 24004KT 9999 SCT025 BKN070 TX14/1413Z TN02/1406Z"
    },
    {
      "icao": "LYPG",
      "alert": "OK",
      "vis_m": 9999,
      "fzfg": false,
      "metar_trigger": false,
      "taf_trigger": false,
      "metar": "METAR LYPG 132230Z 32008KT CAVOK 11/03 Q0999 NOSIG",
      "taf": "TAF LYPG 131700Z 1318/1418 36009KT 9999 FEW040 SCT080 TX14/1318Z TN08/1405Z"
    },
    {
      "icao": "LZIB",
      "alert": "OK",
      "vis_m": 9999,
      "fzfg": false,
      "metar_trigger": false,
      "taf_trigger": false,
      "metar": "METAR LZIB 132230Z VRB01KT CAVOK 04/01 Q0996 NOSIG",
      "taf": "TAF LZIB 131715Z 1318/1418 29005KT CAVOK"
    },
    {
      "icao": "LZKZ",
      "alert": "OK",
      "vis_m": 9999,
      "fzfg": false,
      "metar_trigger": false,
      "taf_trigger": false,
      "metar": "METAR LZKZ 132230Z 35001KT CAVOK 02/02 Q0996 NOSIG",
      "taf": ""
    },
    {
      "icao": "LZTT",
      "alert": "OK",
      "vis_m": 9999,
      "fzfg": false,
      "metar_trigger": false,
      "taf_trigger": false,
      "metar": "METAR LZTT 132230Z 24005KT CAVOK 01/M01 Q0994",
      "taf": "TAF LZTT 131715Z 1318/1418 28017KT 9999 FEW033"
    },
    {
      "icao": "OEJN",
      "alert": "OK",
      "vis_m": 9999,
      "fzfg": false,
      "metar_trigger": false,
      "taf_trigger": false,
      "metar": "METAR OEJN 132200Z 00000KT CAVOK 25/16 Q1012 NOSIG",
      "taf": "TAF OEJN 131700Z 1318/1424 03005KT CAVOK"
    },
    {
      "icao": "OEMA",
      "alert": "OK",
      "vis_m": 9999,
      "fzfg": false,
      "metar_trigger": false,
      "taf_trigger": false,
      "metar": "METAR OEMA 132200Z 25006KT CAVOK 25/09 Q1016 NOSIG",
      "taf": "TAF OEMA 131700Z 1318/1424 VRB03KT CAVOK"
    },
    {
      "icao": "OJAI",
      "alert": "OK",
      "vis_m": 3000,
      "fzfg": false,
      "metar_trigger": false,
      "taf_trigger": false,
      "metar": "METAR OJAI 132200Z COR 22005KT 3000 DU SCT040 14/06 Q1011 NOSIG",
      "taf": "TAF OJAI 131642Z 1318/1424 26018KT 2000 BLDU NSC"
    },
    {
      "icao": "OMAA",
      "alert": "OK",
      "vis_m": 7000,
      "fzfg": false,
      "metar_trigger": false,
      "taf_trigger": false,
      "metar": "METAR OMAA 132230Z 06003KT 360V110 7000 NSC 20/16 Q1015 NOSIG",
      "taf": ""
    },
    {
      "icao": "OMDB",
      "alert": "OK",
      "vis_m": 9999,
      "fzfg": false,
      "metar_trigger": false,
      "taf_trigger": false,
      "metar": "METAR OMDB 132230Z 16004KT 110V180 CAVOK 22/14 Q1015 NOSIG",
      "taf": "TAF OMDB 131700Z 1318/1500 10005KT CAVOK"
    },
    {
      "icao": "UAAA",
      "alert": "OK",
      "vis_m": 3500,
      "fzfg": false,
      "metar_trigger": false,
      "taf_trigger": false,
      "metar": "SPECI UAAA 132244Z 21002MPS 3500 BR BKN003 BKN/// M07/M08 Q1018 NOSIG RMK QBB090",
      "taf": "TAF UAAA 131711Z 1318/1418 24003MPS 3100 BR FU BKN011CB OVC030 TX00/1409Z TNM07/1403Z"
    },
    {
      "icao": "UBBB",
      "alert": "OK",
      "vis_m": 9999,
      "fzfg": false,
      "metar_trigger": false,
      "taf_trigger": false,
      "metar": "METAR UBBB 132230Z 19014KT CAVOK 11/05 Q1004 NOSIG",
      "taf": "TAF UBBB 131701Z 1318/1418 17014KT 9999 SCT030 TX15/1410Z TN06/1401Z"
    },
    {
      "icao": "UDSG",
      "alert": "OK",
      "vis_m": 9999,
      "fzfg": false,
      "metar_trigger": false,
      "taf_trigger": false,
      "metar": "METAR UDSG 132230Z 36002KT 9999 OVC036 03/01 Q1011 NOSIG",
      "taf": "TAF UDSG 131700Z 1318/1418 VRB06KT 9999 BKN040"
    },
    {
      "icao": "UDYZ",
      "alert": "OK",
      "vis_m": 3300,
      "fzfg": false,
      "metar_trigger": false,
      "taf_trigger": false,
      "metar": "METAR UDYZ 132230Z VRB02KT 3300 BR SCT046 05/04 Q1010 NOSIG",
      "taf": "TAF UDYZ 131700Z 1318/1418 VRB06KT 2000 BR SCT040"
    },
    {
      "icao": "UGKO",
      "alert": "OK",
      "vis_m": 9999,
      "fzfg": false,
      "metar_trigger": false,
      "taf_trigger": false,
      "metar": "METAR UGKO 132230Z AUTO 06016KT CAVOK 18/03 Q1000 NOSIG",
      "taf": "TAF UGKO 131700Z 1318/1418 08020KT CAVOK TX18/1411Z TN13/1406Z"
    }
  ]
}