{
  "ts_utc": "2026-06-29T21:09:29Z",
  "threshold_m": 150,
  "source": "stations_override.txt (ICAO list) + aviationweather.gov (METAR/TAF raw)",
  "station_count": 159,
  "stations": [
    {
      "icao": "BIKF",
      "alert": "OK",
      "vis_m": 9000,
      "fzfg": false,
      "metar_trigger": false,
      "taf_trigger": false,
      "metar": "METAR BIKF 292100Z 24009KT 9000 -SHRA SCT012 BKN023 BKN036 09/08 Q1004",
      "taf": "TAF BIKF 291949Z 2921/3021 22012KT 9999 SCT015 BKN030 TX11/3013Z TN08/3004Z"
    },
    {
      "icao": "BKPR",
      "alert": "OK",
      "vis_m": 9999,
      "fzfg": false,
      "metar_trigger": false,
      "taf_trigger": false,
      "metar": "METAR BKPR 292100Z 34009KT CAVOK 25/14 Q1020 NOSIG",
      "taf": "TAF BKPR 291730Z 2918/3018 03007KT 9999 FEW050"
    },
    {
      "icao": "EBCI",
      "alert": "OK",
      "vis_m": 9999,
      "fzfg": false,
      "metar_trigger": false,
      "taf_trigger": false,
      "metar": "METAR EBCI 292050Z 02008KT CAVOK 19/13 Q1026 NOSIG",
      "taf": "TAF EBCI 291720Z 2918/3024 35004KT 9999 FEW048"
    },
    {
      "icao": "EDDB",
      "alert": "OK",
      "vis_m": 9999,
      "fzfg": false,
      "metar_trigger": false,
      "taf_trigger": false,
      "metar": "METAR EDDB 292050Z AUTO 36006KT 9999 FEW044 21/17 Q1024 NOSIG",
      "taf": "TAF EDDB 291700Z 2918/3018 01008KT 9999 BKN030"
    },
    {
      "icao": "EDDH",
      "alert": "OK",
      "vis_m": 9999,
      "fzfg": false,
      "metar_trigger": false,
      "taf_trigger": false,
      "metar": "METAR EDDH 292050Z AUTO 33003KT 310V030 CAVOK 17/11 Q1025 NOSIG",
      "taf": "TAF EDDH 291700Z 2918/3024 33010KT CAVOK"
    },
    {
      "icao": "EDDK",
      "alert": "OK",
      "vis_m": 9999,
      "fzfg": false,
      "metar_trigger": false,
      "taf_trigger": false,
      "metar": "METAR EDDK 292050Z AUTO VRB01KT CAVOK 20/13 Q1024 NOSIG",
      "taf": "TAF EDDK 291700Z 2918/3024 33007KT CAVOK"
    },
    {
      "icao": "EDDN",
      "alert": "OK",
      "vis_m": 9999,
      "fzfg": false,
      "metar_trigger": false,
      "taf_trigger": false,
      "metar": "METAR EDDN 292050Z AUTO 34006KT CAVOK 23/18 Q1023",
      "taf": "TAF EDDN 291700Z 2918/3018 34008KT CAVOK"
    },
    {
      "icao": "EDDS",
      "alert": "OK",
      "vis_m": 9999,
      "fzfg": false,
      "metar_trigger": false,
      "taf_trigger": false,
      "metar": "METAR EDDS 292050Z AUTO 33003KT 280V030 CAVOK 24/17 Q1024",
      "taf": "TAF EDDS 291700Z 2918/3018 36006KT 9999 FEW045"
    },
    {
      "icao": "EDFH",
      "alert": "OK",
      "vis_m": 9999,
      "fzfg": false,
      "metar_trigger": false,
      "taf_trigger": false,
      "metar": "METAR EDFH 292050Z VRB02KT CAVOK 20/11 Q1026",
      "taf": "TAF EDFH 291700Z 2918/3018 04004KT 9999 FEW045"
    },
    {
      "icao": "EDJA",
      "alert": "OK",
      "vis_m": 9999,
      "fzfg": false,
      "metar_trigger": false,
      "taf_trigger": false,
      "metar": "METAR EDJA 292050Z VRB02KT 9999 SCT054 21/16 Q1025",
      "taf": "TAF EDJA 291700Z 2918/3003 34005KT 9999 BKN035"
    },
    {
      "icao": "EDLW",
      "alert": "OK",
      "vis_m": 9999,
      "fzfg": false,
      "metar_trigger": false,
      "taf_trigger": false,
      "metar": "METAR EDLW 292050Z 00000KT CAVOK 18/12 Q1024",
      "taf": "TAF EDLW 291700Z 2918/3018 VRB03KT CAVOK"
    },
    {
      "icao": "EDNY",
      "alert": "OK",
      "vis_m": 9999,
      "fzfg": false,
      "metar_trigger": false,
      "taf_trigger": false,
      "metar": "METAR EDNY 292050Z AUTO 02005KT 9999 // FEW091/// BKN110/// BKN130/// 24/15 Q1023",
      "taf": "TAF EDNY 291700Z 2918/3003 06004KT 9999 FEW035"
    },
    {
      "icao": "EDSB",
      "alert": "OK",
      "vis_m": 9999,
      "fzfg": false,
      "metar_trigger": false,
      "taf_trigger": false,
      "metar": "METAR EDSB 292050Z 33003KT CAVOK 23/21 Q1023",
      "taf": "TAF EDSB 291700Z 2918/3018 35004KT CAVOK"
    },
    {
      "icao": "EETN",
      "alert": "OK",
      "vis_m": 9999,
      "fzfg": false,
      "metar_trigger": false,
      "taf_trigger": false,
      "metar": "METAR EETN 292050Z 24005KT CAVOK 20/15 Q1014 NOSIG",
      "taf": "TAF EETN 291730Z 2918/3018 VRB02KT CAVOK"
    },
    {
      "icao": "EFTU",
      "alert": "OK",
      "vis_m": 9999,
      "fzfg": false,
      "metar_trigger": false,
      "taf_trigger": false,
      "metar": "METAR EFTU 292050Z AUTO 22005KT 9999 BKN046 //////CB 21/17 Q1013",
      "taf": "TAF EFTU 292025Z 2921/3021 22006KT CAVOK"
    },
    {
      "icao": "EGBB",
      "alert": "OK",
      "vis_m": 9999,
      "fzfg": false,
      "metar_trigger": false,
      "taf_trigger": false,
      "metar": "METAR EGBB 292020Z 34007KT 9999 BKN045 17/09 Q1025",
      "taf": "TAF EGBB 291658Z 2918/3018 27008KT 9999 BKN035"
    },
    {
      "icao": "EGGP",
      "alert": "OK",
      "vis_m": 9999,
      "fzfg": false,
      "metar_trigger": false,
      "taf_trigger": false,
      "metar": "METAR EGGP 292050Z 22003KT 190V250 CAVOK 16/09 Q1024",
      "taf": "TAF EGGP 291703Z 2918/3018 30010KT 9999 SCT035"
    },
    {
      "icao": "EGGW",
      "alert": "OK",
      "vis_m": 9999,
      "fzfg": false,
      "metar_trigger": false,
      "taf_trigger": false,
      "metar": "METAR EGGW 292050Z AUTO 28006KT 9999 NCD 18/09 Q1025",
      "taf": "TAF EGGW 291654Z 2918/3018 26008KT 9999 SCT045"
    },
    {
      "icao": "EGKK",
      "alert": "OK",
      "vis_m": 9999,
      "fzfg": false,
      "metar_trigger": false,
      "taf_trigger": false,
      "metar": "METAR EGKK 292050Z 23006KT CAVOK 17/12 Q1026",
      "taf": "TAF EGKK 291659Z 2918/3024 23007KT 9999 FEW045"
    },
    {
      "icao": "EGNM",
      "alert": "OK",
      "vis_m": 9999,
      "fzfg": false,
      "metar_trigger": false,
      "taf_trigger": false,
      "metar": "METAR EGNM 292050Z 26004KT CAVOK 14/09 Q1025",
      "taf": "TAF EGNM 291659Z 2918/3018 27010KT 9999 FEW030"
    },
    {
      "icao": "EGPD",
      "alert": "OK",
      "vis_m": 9999,
      "fzfg": false,
      "metar_trigger": false,
      "taf_trigger": false,
      "metar": "METAR EGPD 292050Z AUTO 23007KT 9999 NCD 17/11 Q1021",
      "taf": "TAF EGPD 291656Z 2918/3018 26010KT 9999 FEW045"
    },
    {
      "icao": "EGPF",
      "alert": "OK",
      "vis_m": 9999,
      "fzfg": false,
      "metar_trigger": false,
      "taf_trigger": false,
      "metar": "METAR EGPF 292050Z AUTO 20006KT 160V240 9999 SCT032 BKN044 16/12 Q1022",
      "taf": "TAF EGPF 291701Z 2918/3018 23012KT 9999 BKN025"
    },
    {
      "icao": "EHBK",
      "alert": "OK",
      "vis_m": 9999,
      "fzfg": false,
      "metar_trigger": false,
      "taf_trigger": false,
      "metar": "METAR EHBK 292055Z AUTO 34005KT 310V010 9999 NCD 21/12 Q1025 NOSIG",
      "taf": "TAF EHBK 291659Z 2918/3024 34006KT CAVOK"
    },
    {
      "icao": "EHEH",
      "alert": "OK",
      "vis_m": 9999,
      "fzfg": false,
      "metar_trigger": false,
      "taf_trigger": false,
      "metar": "METAR EHEH 292055Z AUTO 35003KT 300V020 9999 NCD 18/12 Q1025 BLU NOSIG RMK TREND REMOTE BY EHWX",
      "taf": "TAF EHEH 291703Z 2918/3024 30007KT CAVOK"
    },
    {
      "icao": "EKBI",
      "alert": "OK",
      "vis_m": 9999,
      "fzfg": false,
      "metar_trigger": false,
      "taf_trigger": false,
      "metar": "METAR EKBI 292050Z AUTO 26006KT 9999 NCD 14/11 Q1025",
      "taf": "TAF EKBI 292027Z 2921/3021 25004KT 9999 FEW030"
    },
    {
      "icao": "EKCH",
      "alert": "OK",
      "vis_m": 9999,
      "fzfg": false,
      "metar_trigger": false,
      "taf_trigger": false,
      "metar": "METAR EKCH 292050Z AUTO 35006KT 320V030 9999 NCD 19/11 Q1023 NOSIG",
      "taf": "TAF EKCH 292027Z 2921/3021 36007KT 9999 FEW040"
    },
    {
      "icao": "ENAL",
      "alert": "OK",
      "vis_m": 9999,
      "fzfg": false,
      "metar_trigger": false,
      "taf_trigger": false,
      "metar": "METAR ENAL 292050Z 23015KT 9999 SCT036 14/10 Q1018",
      "taf": "TAF ENAL 292000Z 2921/3006 24015KT 9999 FEW020TCU BKN030"
    },
    {
      "icao": "ENBR",
      "alert": "OK",
      "vis_m": 9999,
      "fzfg": false,
      "metar_trigger": false,
      "taf_trigger": false,
      "metar": "METAR ENBR 292050Z 21006KT 9999 VCSH FEW015 SCT035 13/10 Q1022 RMK WIND 1200FT 24007KT",
      "taf": "TAF ENBR 291700Z 2918/3018 22010KT 9999 FEW015TCU SCT035"
    },
    {
      "icao": "ENGM",
      "alert": "OK",
      "vis_m": 9999,
      "fzfg": false,
      "metar_trigger": false,
      "taf_trigger": false,
      "metar": "METAR ENGM 292050Z VRB01KT CAVOK 17/06 Q1017 NOSIG",
      "taf": "TAF ENGM 291700Z 2918/3018 29008KT CAVOK"
    },
    {
      "icao": "ENHD",
      "alert": "OK",
      "vis_m": 9999,
      "fzfg": false,
      "metar_trigger": false,
      "taf_trigger": false,
      "metar": "METAR ENHD 292050Z 24007KT 9999 FEW019 15/09 Q1022",
      "taf": "TAF ENHD 291400Z 2915/2922 21015KT 9999 SCT020"
    },
    {
      "icao": "ENTC",
      "alert": "OK",
      "vis_m": 9999,
      "fzfg": false,
      "metar_trigger": false,
      "taf_trigger": false,
      "metar": "METAR ENTC 292050Z 29017KT 9999 -RA FEW007 SCT009 BKN012 11/10 Q1009 TEMPO 4000 RADZ BKN008 RMK WIND 2600FT 32010KT",
      "taf": ""
    },
    {
      "icao": "ENTO",
      "alert": "OK",
      "vis_m": 2800,
      "fzfg": false,
      "metar_trigger": false,
      "taf_trigger": false,
      "metar": "METAR ENTO 292050Z AUTO 26006KT 2800 // NCD 18/06 Q1019",
      "taf": "TAF ENTO 291700Z 2918/3018 28010KT CAVOK"
    },
    {
      "icao": "ENVA",
      "alert": "OK",
      "vis_m": 9999,
      "fzfg": false,
      "metar_trigger": false,
      "taf_trigger": false,
      "metar": "METAR ENVA 292050Z 22007KT 9999 -RA FEW016 SCT031 BKN042 13/12 Q1018 RMK WIND 670FT 26009KT",
      "taf": "TAF ENVA 291700Z 2918/3018 VRB07KT 9999 FEW018TCU BKN050"
    },
    {
      "icao": "ENZV",
      "alert": "OK",
      "vis_m": 9999,
      "fzfg": false,
      "metar_trigger": false,
      "taf_trigger": false,
      "metar": "METAR ENZV 292050Z 23002KT CAVOK 14/09 Q1023",
      "taf": "TAF ENZV 291700Z 2918/3018 22010KT 9999 FEW050"
    },
    {
      "icao": "EPGD",
      "alert": "OK",
      "vis_m": 9999,
      "fzfg": false,
      "metar_trigger": false,
      "taf_trigger": false,
      "metar": "METAR EPGD 292100Z 29011KT CAVOK 20/17 Q1022",
      "taf": "TAF EPGD 291730Z 2918/3018 31010KT CAVOK"
    },
    {
      "icao": "EPKK",
      "alert": "OK",
      "vis_m": 9999,
      "fzfg": false,
      "metar_trigger": false,
      "taf_trigger": false,
      "metar": "METAR EPKK 292100Z 32014KT CAVOK 26/16 Q1019",
      "taf": "TAF EPKK 292030Z 2921/3021 22004KT CAVOK"
    },
    {
      "icao": "EPKT",
      "alert": "OK",
      "vis_m": 9999,
      "fzfg": false,
      "metar_trigger": false,
      "taf_trigger": false,
      "metar": "METAR EPKT 292100Z 03014KT 9999 -TSRA BKN060CB 20/20 Q1022 RESHRA",
      "taf": "TAF EPKT 291730Z 2918/3018 34007KT CAVOK"
    },
    {
      "icao": "EPLB",
      "alert": "OK",
      "vis_m": 9999,
      "fzfg": false,
      "metar_trigger": false,
      "taf_trigger": false,
      "metar": "METAR EPLB 292100Z 02009KT 340V050 CAVOK 29/16 Q1018",
      "taf": "TAF EPLB 291730Z 2918/3018 35007KT CAVOK"
    },
    {
      "icao": "EPMO",
      "alert": "OK",
      "vis_m": 9999,
      "fzfg": false,
      "metar_trigger": false,
      "taf_trigger": false,
      "metar": "METAR EPMO 292100Z 01007KT CAVOK 25/18 Q1019",
      "taf": "TAF EPMO 291730Z 2918/3018 01010KT CAVOK"
    },
    {
      "icao": "EPPO",
      "alert": "OK",
      "vis_m": 9999,
      "fzfg": false,
      "metar_trigger": false,
      "taf_trigger": false,
      "metar": "METAR EPPO 292100Z 35007KT CAVOK 23/17 Q1022",
      "taf": "TAF EPPO 291730Z 2918/3018 35008KT CAVOK"
    },
    {
      "icao": "EPRA",
      "alert": "OK",
      "vis_m": 9999,
      "fzfg": false,
      "metar_trigger": false,
      "taf_trigger": false,
      "metar": "METAR EPRA 292100Z 02005KT CAVOK 29/15 Q1018",
      "taf": "TAF EPRA 292030Z 2921/3006 02006KT CAVOK"
    },
    {
      "icao": "EPRZ",
      "alert": "OK",
      "vis_m": 9999,
      "fzfg": false,
      "metar_trigger": false,
      "taf_trigger": false,
      "metar": "METAR EPRZ 292100Z 25006KT CAVOK 27/19 Q1017",
      "taf": "TAF EPRZ 291730Z 2918/3018 23007KT CAVOK"
    },
    {
      "icao": "EPSC",
      "alert": "OK",
      "vis_m": 9999,
      "fzfg": false,
      "metar_trigger": false,
      "taf_trigger": false,
      "metar": "METAR EPSC 292100Z VRB01KT CAVOK 18/17 Q1023",
      "taf": "TAF EPSC 291730Z 2918/3018 35010KT 9999 SCT040"
    },
    {
      "icao": "EPSY",
      "alert": "OK",
      "vis_m": 9999,
      "fzfg": false,
      "metar_trigger": false,
      "taf_trigger": false,
      "metar": "METAR EPSY 292100Z 34007KT CAVOK 22/18 Q1020",
      "taf": "TAF EPSY 292030Z 2921/3006 34007KT CAVOK"
    },
    {
      "icao": "EPWA",
      "alert": "OK",
      "vis_m": 9999,
      "fzfg": false,
      "metar_trigger": false,
      "taf_trigger": false,
      "metar": "METAR EPWA 292100Z 02010KT CAVOK 28/17 Q1019 NOSIG",
      "taf": "TAF EPWA 292030Z 2921/3021 35007KT CAVOK"
    },
    {
      "icao": "EPWR",
      "alert": "OK",
      "vis_m": 9999,
      "fzfg": false,
      "metar_trigger": false,
      "taf_trigger": false,
      "metar": "METAR EPWR 292100Z 36009KT 330V030 CAVOK 25/19 Q1021",
      "taf": "TAF EPWR 292030Z 2921/3021 32010KT CAVOK"
    },
    {
      "icao": "ESGG",
      "alert": "OK",
      "vis_m": 9999,
      "fzfg": false,
      "metar_trigger": false,
      "taf_trigger": false,
      "metar": "METAR ESGG 292050Z 25008KT 9999 FEW025 15/11 Q1022",
      "taf": "TAF ESGG 292030Z 2921/3021 26010KT CAVOK"
    },
    {
      "icao": "ESKN",
      "alert": "OK",
      "vis_m": 9999,
      "fzfg": false,
      "metar_trigger": false,
      "taf_trigger": false,
      "metar": "METAR ESKN 292050Z 27009KT CAVOK 18/09 Q1017",
      "taf": "TAF ESKN 292030Z 2921/3021 26010KT CAVOK"
    },
    {
      "icao": "ESMS",
      "alert": "OK",
      "vis_m": 9999,
      "fzfg": false,
      "metar_trigger": false,
      "taf_trigger": false,
      "metar": "METAR ESMS 292050Z 31006KT CAVOK 16/13 Q1023",
      "taf": "TAF ESMS 292027Z 2921/3021 32006KT 9999 FEW040"
    },
    {
      "icao": "ESSA",
      "alert": "OK",
      "vis_m": 9999,
      "fzfg": false,
      "metar_trigger": false,
      "taf_trigger": false,
      "metar": "METAR ESSA 292050Z 25011KT CAVOK 17/08 Q1015 NOSIG",
      "taf": "TAF ESSA 292030Z 2921/3021 25012KT CAVOK"
    },
    {
      "icao": "EYKA",
      "alert": "OK",
      "vis_m": 9999,
      "fzfg": false,
      "metar_trigger": false,
      "taf_trigger": false,
      "metar": "METAR EYKA 292050Z 30005KT CAVOK 24/21 Q1017",
      "taf": "TAF EYKA 291700Z 2918/3018 32008KT 9000 NSC"
    },
    {
      "icao": "EYPA",
      "alert": "OK",
      "vis_m": 9999,
      "fzfg": false,
      "metar_trigger": false,
      "taf_trigger": false,
      "metar": "METAR EYPA 292050Z 27003KT 180V340 CAVOK 22/19 Q1018",
      "taf": "TAF EYPA 291700Z 2918/3018 27008KT 9000 NSC"
    },
    {
      "icao": "EYVI",
      "alert": "OK",
      "vis_m": 9999,
      "fzfg": false,
      "metar_trigger": false,
      "taf_trigger": false,
      "metar": "METAR EYVI 292050Z 31004KT 9999 FEW043 26/20 Q1017 NOSIG",
      "taf": "TAF EYVI 291700Z 2918/3018 34008KT 9000 NSC"
    },
    {
      "icao": "GCFV",
      "alert": "OK",
      "vis_m": 9999,
      "fzfg": false,
      "metar_trigger": false,
      "taf_trigger": false,
      "metar": "METAR GCFV 292100Z 03013KT CAVOK 24/18 Q1017",
      "taf": "TAF GCFV 292000Z 2921/3021 03012KT CAVOK TX28/3014Z TN22/3006Z"
    },
    {
      "icao": "GCLP",
      "alert": "OK",
      "vis_m": 9999,
      "fzfg": false,
      "metar_trigger": false,
      "taf_trigger": false,
      "metar": "METAR GCLP 292100Z 36026KT 9999 FEW020 23/18 Q1016 NOSIG",
      "taf": "TAF GCLP 292000Z 2921/3021 01026KT 9999 FEW020 TX31/3014Z TN24/3006Z"
    },
    {
      "icao": "GCTS",
      "alert": "OK",
      "vis_m": 9999,
      "fzfg": false,
      "metar_trigger": false,
      "taf_trigger": false,
      "metar": "METAR GCTS 292100Z 06011KT 9999 FEW025 24/17 Q1017 WS R07 NOSIG",
      "taf": "TAF GCTS 292000Z 2921/3021 05014KT CAVOK TX33/3014Z TN24/3006Z"
    },
    {
      "icao": "GMAD",
      "alert": "OK",
      "vis_m": 8000,
      "fzfg": false,
      "metar_trigger": false,
      "taf_trigger": false,
      "metar": "METAR GMAD 292100Z 22007KT 8000 NSC 22/18 Q1014 NOSIG",
      "taf": "TAF GMAD 291700Z 2918/3024 21013KT 8000 NSC"
    },
    {
      "icao": "GMMN",
      "alert": "OK",
      "vis_m": 9999,
      "fzfg": false,
      "metar_trigger": false,
      "taf_trigger": false,
      "metar": "METAR GMMN 292100Z 36005KT 330V040 9999 FEW016 22/18 Q1019 NOSIG",
      "taf": "TAF GMMN 291700Z 2918/3024 02015KT CAVOK"
    },
    {
      "icao": "GMMX",
      "alert": "OK",
      "vis_m": 9999,
      "fzfg": false,
      "metar_trigger": false,
      "taf_trigger": false,
      "metar": "METAR GMMX 292100Z 35006KT 300V030 CAVOK 33/15 Q1018 NOSIG",
      "taf": "TAF GMMX 291700Z 2918/3024 04006KT 8000 SCT033 FEW040TCU BKN200"
    },
    {
      "icao": "HEGN",
      "alert": "OK",
      "vis_m": 9999,
      "fzfg": false,
      "metar_trigger": false,
      "taf_trigger": false,
      "metar": "METAR HEGN 292000Z 30011KT CAVOK 33/08 Q1006 NOSIG",
      "taf": "TAF HEGN 291700Z 2918/3024 31012KT CAVOK"
    },
    {
      "icao": "HEMA",
      "alert": "OK",
      "vis_m": 9999,
      "fzfg": false,
      "metar_trigger": false,
      "taf_trigger": false,
      "metar": "METAR HEMA 292000Z 00000KT CAVOK 31/10 Q1006 NOSIG",
      "taf": "TAF HEMA 291700Z 2918/3024 32012KT CAVOK"
    },
    {
      "icao": "HESH",
      "alert": "OK",
      "vis_m": 9999,
      "fzfg": false,
      "metar_trigger": false,
      "taf_trigger": false,
      "metar": "METAR HESH 292000Z 35008KT CAVOK 35/09 Q1005 NOSIG",
      "taf": "TAF HESH 291700Z 2918/3024 36010KT CAVOK"
    },
    {
      "icao": "HESX",
      "alert": "OK",
      "vis_m": 9999,
      "fzfg": false,
      "metar_trigger": false,
      "taf_trigger": false,
      "metar": "METAR HESX 292000Z 02010KT CAVOK 27/16 Q1011 NOSIG",
      "taf": "TAF HESX 291700Z 2918/3024 36010KT CAVOK"
    },
    {
      "icao": "LATI",
      "alert": "OK",
      "vis_m": 9999,
      "fzfg": false,
      "metar_trigger": false,
      "taf_trigger": false,
      "metar": "METAR LATI 292050Z 16003KT CAVOK 25/18 Q1015 NOSIG",
      "taf": "TAF LATI 291700Z 2918/3018 VRB03KT CAVOK TX37/3012Z TN21/3004Z"
    },
    {
      "icao": "LBPD",
      "alert": "OK",
      "vis_m": 9999,
      "fzfg": false,
      "metar_trigger": false,
      "taf_trigger": false,
      "metar": "METAR LBPD 292100Z AUTO 15006KT 9999 NCD 27/17 Q1016",
      "taf": "TAF LBPD 291700Z 2918/3018 VRB04KT CAVOK"
    },
    {
      "icao": "LBSF",
      "alert": "OK",
      "vis_m": 9999,
      "fzfg": false,
      "metar_trigger": false,
      "taf_trigger": false,
      "metar": "METAR LBSF 292100Z AUTO VRB01KT 9999 NCD 21/15 Q1020 NOSIG",
      "taf": "TAF LBSF 291700Z 2918/3018 05010KT CAVOK"
    },
    {
      "icao": "LBWN",
      "alert": "OK",
      "vis_m": 9999,
      "fzfg": false,
      "metar_trigger": false,
      "taf_trigger": false,
      "metar": "METAR LBWN 292100Z AUTO 01003KT 9999 NCD 23/16 Q1016 NOSIG",
      "taf": "TAF LBWN 291700Z 2918/3018 VRB03KT CAVOK"
    },
    {
      "icao": "LCLK",
      "alert": "OK",
      "vis_m": 9999,
      "fzfg": false,
      "metar_trigger": false,
      "taf_trigger": false,
      "metar": "METAR LCLK 292100Z 27003KT CAVOK 27/13 Q1008 NOSIG",
      "taf": "TAF LCLK 291730Z 2918/3018 23006KT CAVOK"
    },
    {
      "icao": "LCPH",
      "alert": "OK",
      "vis_m": 9999,
      "fzfg": false,
      "metar_trigger": false,
      "taf_trigger": false,
      "metar": "METAR LCPH 292100Z 02006KT CAVOK 25/13 Q1009 NOSIG",
      "taf": "TAF LCPH 291730Z 2918/3018 34008KT CAVOK"
    },
    {
      "icao": "LEAL",
      "alert": "OK",
      "vis_m": 9999,
      "fzfg": false,
      "metar_trigger": false,
      "taf_trigger": false,
      "metar": "METAR LEAL 292100Z VRB01KT CAVOK 28/18 Q1019 NOSIG",
      "taf": "TAF LEAL 291700Z 2918/3018 09008KT CAVOK TX32/3012Z TN24/3006Z"
    },
    {
      "icao": "LEBB",
      "alert": "OK",
      "vis_m": 9999,
      "fzfg": false,
      "metar_trigger": false,
      "taf_trigger": false,
      "metar": "METAR LEBB 292100Z VRB02KT CAVOK 21/18 Q1026 NOSIG",
      "taf": "TAF LEBB 291700Z 2918/3018 02010KT 9999 SCT020 TX24/3014Z TN17/3002Z"
    },
    {
      "icao": "LEBL",
      "alert": "OK",
      "vis_m": 9999,
      "fzfg": false,
      "metar_trigger": false,
      "taf_trigger": false,
      "metar": "METAR LEBL 292100Z 25008KT CAVOK 28/20 Q1019 NOSIG",
      "taf": "TAF LEBL 291700Z 2918/3018 22010KT CAVOK TX33/3013Z TN24/3005Z"
    },
    {
      "icao": "LECH",
      "alert": "OK",
      "vis_m": 9999,
      "fzfg": false,
      "metar_trigger": false,
      "taf_trigger": false,
      "metar": "METAR LECH 292100Z AUTO 33001KT CAVOK 24/18 Q1022",
      "taf": "TAF LECH 291700Z 2918/3018 12007KT CAVOK TX35/3012Z TN18/3006Z"
    },
    {
      "icao": "LEMD",
      "alert": "OK",
      "vis_m": 9999,
      "fzfg": false,
      "metar_trigger": false,
      "taf_trigger": false,
      "metar": "METAR LEMD 292100Z 08002KT CAVOK 28/07 Q1021 NOSIG",
      "taf": "TAF LEMD 291700Z 2918/3024 VRB04KT CAVOK TX37/3016Z TN18/3005Z"
    },
    {
      "icao": "LEMG",
      "alert": "OK",
      "vis_m": 9999,
      "fzfg": false,
      "metar_trigger": false,
      "taf_trigger": false,
      "metar": "METAR LEMG 292100Z 16003KT 100V190 CAVOK 25/20 Q1019 NOSIG",
      "taf": "TAF LEMG 291700Z 2918/3018 13010KT CAVOK TX31/3013Z TN23/3005Z"
    },
    {
      "icao": "LEVC",
      "alert": "OK",
      "vis_m": 9999,
      "fzfg": false,
      "metar_trigger": false,
      "taf_trigger": false,
      "metar": "METAR LEVC 292100Z 11003KT 070V160 CAVOK 28/20 Q1020 NOSIG",
      "taf": "TAF LEVC 291700Z 2918/3018 09009KT CAVOK TX35/3012Z TN23/3006Z"
    },
    {
      "icao": "LEXJ",
      "alert": "OK",
      "vis_m": 9999,
      "fzfg": false,
      "metar_trigger": false,
      "taf_trigger": false,
      "metar": "METAR LEXJ 292100Z 10003KT 040V150 9999 BKN034 20/17 Q1026",
      "taf": "TAF LEXJ 292000Z 2921/3021 05009KT 9999 SCT020 TX22/3014Z TN16/3005Z"
    },
    {
      "icao": "LEZG",
      "alert": "OK",
      "vis_m": 9999,
      "fzfg": false,
      "metar_trigger": false,
      "taf_trigger": false,
      "metar": "METAR LEZG 292100Z 29014KT 260V320 CAVOK 25/16 Q1022 NOSIG",
      "taf": "TAF LEZG 291700Z 2918/3018 30015KT CAVOK TX36/3015Z TN19/3006Z"
    },
    {
      "icao": "LEZL",
      "alert": "OK",
      "vis_m": 9999,
      "fzfg": false,
      "metar_trigger": false,
      "taf_trigger": false,
      "metar": "METAR LEZL 292100Z 23005KT 200V260 CAVOK 31/15 Q1017 NOSIG",
      "taf": "TAF LEZL 292000Z 2921/3021 20010KT CAVOK TX40/3015Z TN23/3005Z"
    },
    {
      "icao": "LFBD",
      "alert": "OK",
      "vis_m": 9999,
      "fzfg": false,
      "metar_trigger": false,
      "taf_trigger": false,
      "metar": "METAR LFBD 292100Z AUTO 32005KT CAVOK 21/15 Q1025 NOSIG",
      "taf": "TAF LFBD 291700Z 2918/3024 32010KT CAVOK TX31/3015Z TN17/3004Z"
    },
    {
      "icao": "LFLL",
      "alert": "OK",
      "vis_m": 9999,
      "fzfg": false,
      "metar_trigger": false,
      "taf_trigger": false,
      "metar": "METAR LFLL 292100Z 35008KT 9999 FEW066CB SCT095 26/18 Q1023 NOSIG",
      "taf": "TAF LFLL 291700Z 2918/3024 36012KT CAVOK"
    },
    {
      "icao": "LFLS",
      "alert": "OK",
      "vis_m": 9999,
      "fzfg": false,
      "metar_trigger": false,
      "taf_trigger": false,
      "metar": "METAR LFLS 292100Z AUTO 05005KT 9999 SCT050/// SCT062/// BKN074/// ///CB 25/17 Q1022",
      "taf": "TAF LFLS 291400Z 2915/3015 34010KT 9999 FEW045"
    },
    {
      "icao": "LFMN",
      "alert": "OK",
      "vis_m": 9999,
      "fzfg": false,
      "metar_trigger": false,
      "taf_trigger": false,
      "metar": "METAR LFMN 292100Z 03012KT CAVOK 32/12 Q1016 NOSIG",
      "taf": "TAF LFMN 292000Z 2921/0103 03015G25KT CAVOK"
    },
    {
      "icao": "LFOB",
      "alert": "OK",
      "vis_m": 9999,
      "fzfg": false,
      "metar_trigger": false,
      "taf_trigger": false,
      "metar": "METAR LFOB 292100Z AUTO 01004KT 320V050 CAVOK 16/10 Q1026 NOSIG",
      "taf": "TAF LFOB 291700Z 2918/3018 33007KT CAVOK"
    },
    {
      "icao": "LFPO",
      "alert": "OK",
      "vis_m": 9999,
      "fzfg": false,
      "metar_trigger": false,
      "taf_trigger": false,
      "metar": "METAR LFPO 292100Z AUTO 01010KT 340V040 CAVOK 22/11 Q1025 NOSIG",
      "taf": "TAF LFPO 291700Z 2918/3024 34006KT CAVOK"
    },
    {
      "icao": "LFSB",
      "alert": "OK",
      "vis_m": 9999,
      "fzfg": false,
      "metar_trigger": false,
      "taf_trigger": false,
      "metar": "METAR LFSB 292100Z AUTO 33007KT 9999 FEW013/// BKN064/// BKN082/// ///CB 25/18 Q1023 NOSIG",
      "taf": ""
    },
    {
      "icao": "LGAV",
      "alert": "OK",
      "vis_m": 9999,
      "fzfg": false,
      "metar_trigger": false,
      "taf_trigger": false,
      "metar": "METAR LGAV 292050Z VRB04KT CAVOK 27/11 Q1013 NOSIG",
      "taf": "TAF LGAV 291700Z 2918/3018 03015KT 9999 FEW025"
    },
    {
      "icao": "LGTS",
      "alert": "OK",
      "vis_m": 9999,
      "fzfg": false,
      "metar_trigger": false,
      "taf_trigger": false,
      "metar": "METAR LGTS 292050Z 11005KT CAVOK 26/15 Q1015 NOSIG",
      "taf": "TAF LGTS 291700Z 2918/3018 VRB03KT CAVOK"
    },
    {
      "icao": "LHBP",
      "alert": "OK",
      "vis_m": 9999,
      "fzfg": false,
      "metar_trigger": false,
      "taf_trigger": false,
      "metar": "METAR LHBP 292100Z 32003KT CAVOK 25/12 Q1017 NOSIG",
      "taf": "TAF LHBP 291715Z 2918/3018 24007KT CAVOK"
    },
    {
      "icao": "LHDC",
      "alert": "OK",
      "vis_m": 9999,
      "fzfg": false,
      "metar_trigger": false,
      "taf_trigger": false,
      "metar": "METAR LHDC 292045Z AUTO 00000KT CAVOK 29/17 Q1016",
      "taf": "TAF LHDC 291415Z 2915/2924 VRB05KT CAVOK"
    },
    {
      "icao": "LIBD",
      "alert": "OK",
      "vis_m": 9999,
      "fzfg": false,
      "metar_trigger": false,
      "taf_trigger": false,
      "metar": "METAR LIBD 292050Z 29003KT CAVOK 25/25 Q1016",
      "taf": "TAF LIBD 291700Z 2918/3018 25007KT CAVOK"
    },
    {
      "icao": "LIBG",
      "alert": "OK",
      "vis_m": 9999,
      "fzfg": false,
      "metar_trigger": false,
      "taf_trigger": false,
      "metar": "METAR LIBG 292050Z AUTO 36002KT 9999 NCD 26/18 Q1015",
      "taf": "TAF LIBG 291700Z 2918/3018 VRB05KT 9999 SCT030"
    },
    {
      "icao": "LIBP",
      "alert": "OK",
      "vis_m": 9999,
      "fzfg": false,
      "metar_trigger": false,
      "taf_trigger": false,
      "metar": "METAR LIBP 292050Z AUTO 26002KT 9999 NCD 25/20 Q1016",
      "taf": "TAF LIBP 291700Z 2918/3018 VRB05KT CAVOK"
    },
    {
      "icao": "LIBR",
      "alert": "OK",
      "vis_m": 9999,
      "fzfg": false,
      "metar_trigger": false,
      "taf_trigger": false,
      "metar": "METAR LIBR 292050Z 31004KT CAVOK 27/27 Q1015",
      "taf": "TAF LIBR 291700Z 2918/3018 VRB05KT CAVOK"
    },
    {
      "icao": "LICA",
      "alert": "OK",
      "vis_m": 9999,
      "fzfg": false,
      "metar_trigger": false,
      "taf_trigger": false,
      "metar": "METAR LICA 292050Z AUTO VRB02KT 9999 NCD 25/23 Q1016",
      "taf": "TAF LICA 291700Z 2918/3018 VRB05KT 9999 FEW020"
    },
    {
      "icao": "LICC",
      "alert": "OK",
      "vis_m": 9999,
      "fzfg": false,
      "metar_trigger": false,
      "taf_trigger": false,
      "metar": "METAR LICC 292050Z 07004KT 9999 FEW090 28/20 Q1016",
      "taf": ""
    },
    {
      "icao": "LICJ",
      "alert": "OK",
      "vis_m": 9999,
      "fzfg": false,
      "metar_trigger": false,
      "taf_trigger": false,
      "metar": "METAR LICJ 292050Z 05009KT CAVOK 29/25 Q1016",
      "taf": "TAF LICJ 291700Z 2918/3018 03010KT CAVOK"
    },
    {
      "icao": "LIMC",
      "alert": "OK",
      "vis_m": 9999,
      "fzfg": false,
      "metar_trigger": false,
      "taf_trigger": false,
      "metar": "METAR LIMC 292050Z 30010KT CAVOK 28/15 Q1020 NOSIG",
      "taf": "TAF LIMC 291700Z 2918/3024 VRB05KT CAVOK"
    },
    {
      "icao": "LIME",
      "alert": "OK",
      "vis_m": 9999,
      "fzfg": false,
      "metar_trigger": false,
      "taf_trigger": false,
      "metar": "METAR LIME 292050Z 28009KT 9999 SCT100 25/15 Q1018 NOSIG",
      "taf": "TAF LIME 291700Z 2918/3018 VRB05KT CAVOK"
    },
    {
      "icao": "LIMF",
      "alert": "OK",
      "vis_m": 9999,
      "fzfg": false,
      "metar_trigger": false,
      "taf_trigger": false,
      "metar": "METAR LIMF 292050Z 01006KT 9999 -RA FEW080 BKN140 24/17 Q1021",
      "taf": ""
    },
    {
      "icao": "LIMJ",
      "alert": "OK",
      "vis_m": 9999,
      "fzfg": false,
      "metar_trigger": false,
      "taf_trigger": false,
      "metar": "METAR LIMJ 292050Z VRB08KT CAVOK 30/18 Q1016",
      "taf": ""
    },
    {
      "icao": "LIPE",
      "alert": "OK",
      "vis_m": 500,
      "fzfg": false,
      "metar_trigger": false,
      "taf_trigger": false,
      "metar": "METAR LIPE 292050Z 08016G33KT 050V150 0500 R12/1900D R30/P2000N +TSRA FEW012 BKN015CB 23/20 Q1019",
      "taf": ""
    },
    {
      "icao": "LIPH",
      "alert": "OK",
      "vis_m": 9999,
      "fzfg": false,
      "metar_trigger": false,
      "taf_trigger": false,
      "metar": "METAR LIPH 292050Z 01004KT 340V040 CAVOK 30/16 Q1015",
      "taf": "TAF LIPH 291700Z 2918/3018 VRB05KT 9999 SCT030"
    },
    {
      "icao": "LIPQ",
      "alert": "OK",
      "vis_m": 9999,
      "fzfg": false,
      "metar_trigger": false,
      "taf_trigger": false,
      "metar": "METAR LIPQ 292050Z 09008KT CAVOK 29/19 Q1016",
      "taf": "TAF LIPQ 291700Z 2918/3018 VRB05KT 9999 FEW040"
    },
    {
      "icao": "LIPR",
      "alert": "OK",
      "vis_m": 9999,
      "fzfg": false,
      "metar_trigger": false,
      "taf_trigger": false,
      "metar": "METAR LIPR 292050Z 20008KT CAVOK 31/16 Q1015",
      "taf": "TAF LIPR 291700Z 2918/3018 VRB05KT 9999 FEW040"
    },
    {
      "icao": "LIPX",
      "alert": "OK",
      "vis_m": 9999,
      "fzfg": false,
      "metar_trigger": false,
      "taf_trigger": false,
      "metar": "METAR LIPX 292050Z 35009KT CAVOK 31/13 Q1016",
      "taf": "TAF LIPX 291700Z 2918/3018 VRB05KT CAVOK"
    },
    {
      "icao": "LIPY",
      "alert": "OK",
      "vis_m": 9999,
      "fzfg": false,
      "metar_trigger": false,
      "taf_trigger": false,
      "metar": "METAR LIPY 292050Z AUTO 18003KT 150V210 9999 NCD 27/18 Q1016",
      "taf": "TAF LIPY 291700Z 2918/3018 04010KT CAVOK"
    },
    {
      "icao": "LIPZ",
      "alert": "OK",
      "vis_m": 9999,
      "fzfg": false,
      "metar_trigger": false,
      "taf_trigger": false,
      "metar": "METAR LIPZ 292050Z 05004KT CAVOK 30/21 Q1016 NOSIG",
      "taf": "TAF LIPZ 291700Z 2918/3024 VRB05KT 9999 FEW040"
    },
    {
      "icao": "LIRF",
      "alert": "OK",
      "vis_m": 9999,
      "fzfg": false,
      "metar_trigger": false,
      "taf_trigger": false,
      "metar": "METAR LIRF 292050Z 30004KT 260V350 CAVOK 27/19 Q1015 NOSIG",
      "taf": "TAF LIRF 291700Z 2918/3024 VRB05KT 9999 FEW030"
    },
    {
      "icao": "LIRN",
      "alert": "OK",
      "vis_m": 9999,
      "fzfg": false,
      "metar_trigger": false,
      "taf_trigger": false,
      "metar": "METAR LIRN 292050Z 05007KT 9999 FEW080 26/17 Q1017 NOSIG",
      "taf": "TAF LIRN 291700Z 2918/3018 VRB05KT 9999 FEW070"
    },
    {
      "icao": "LIRP",
      "alert": "OK",
      "vis_m": 9999,
      "fzfg": false,
      "metar_trigger": false,
      "taf_trigger": false,
      "metar": "METAR LIRP 292045Z 14010KT 9999 VCTS FEW015CB SCT030 26/24 Q1017 NOSIG",
      "taf": "TAF LIRP 291700Z 2918/3018 29010KT 9999 SCT070"
    },
    {
      "icao": "LIRZ",
      "alert": "OK",
      "vis_m": 9999,
      "fzfg": false,
      "metar_trigger": false,
      "taf_trigger": false,
      "metar": "METAR LIRZ 292050Z AUTO VRB02KT 9999 NCD 24/15 Q1018",
      "taf": "TAF LIRZ 291700Z 2918/3018 16010KT CAVOK"
    },
    {
      "icao": "LJLJ",
      "alert": "OK",
      "vis_m": 9999,
      "fzfg": false,
      "metar_trigger": false,
      "taf_trigger": false,
      "metar": "METAR LJLJ 292100Z 33004KT 320V020 9999 FEW060 BKN250 24/20 Q1019 NOSIG",
      "taf": "TAF LJLJ 291700Z 2918/3018 12005KT 9999 FEW065"
    },
    {
      "icao": "LKMT",
      "alert": "OK",
      "vis_m": 9999,
      "fzfg": false,
      "metar_trigger": false,
      "taf_trigger": false,
      "metar": "METAR LKMT 292100Z 07006KT CAVOK 23/18 Q1021 NOSIG",
      "taf": "TAF LKMT 291700Z 2918/3018 23005KT CAVOK"
    },
    {
      "icao": "LKPR",
      "alert": "OK",
      "vis_m": 9999,
      "fzfg": false,
      "metar_trigger": false,
      "taf_trigger": false,
      "metar": "METAR LKPR 292100Z 34007KT CAVOK 21/17 Q1023 NOSIG",
      "taf": "TAF LKPR 292000Z 2921/0103 33010KT CAVOK"
    },
    {
      "icao": "LLBG",
      "alert": "OK",
      "vis_m": 9999,
      "fzfg": false,
      "metar_trigger": false,
      "taf_trigger": false,
      "metar": "METAR LLBG 292050Z VRB03KT 9999 FEW015 26/22 Q1010 NOSIG",
      "taf": "TAF LLBG 291705Z 2918/3018 33006KT CAVOK TX33/3011Z TN22/3003Z"
    },
    {
      "icao": "LMML",
      "alert": "OK",
      "vis_m": 9999,
      "fzfg": false,
      "metar_trigger": false,
      "taf_trigger": false,
      "metar": "METAR LMML 292045Z 03006KT CAVOK 28/21 Q1016 NOSIG",
      "taf": "TAF LMML 291700Z 2918/3018 VRB06KT CAVOK"
    },
    {
      "icao": "LOWW",
      "alert": "OK",
      "vis_m": 9999,
      "fzfg": false,
      "metar_trigger": false,
      "taf_trigger": false,
      "metar": "METAR LOWW 292050Z 32008KT CAVOK 28/13 Q1019 NOSIG",
      "taf": "TAF LOWW 292015Z 2921/0103 32010KT CAVOK TX35/3014Z TN21/0103Z"
    },
    {
      "icao": "LPFR",
      "alert": "OK",
      "vis_m": 9999,
      "fzfg": false,
      "metar_trigger": false,
      "taf_trigger": false,
      "metar": "METAR LPFR 292100Z 26005KT CAVOK 26/18 Q1017",
      "taf": "TAF LPFR 291700Z 2918/3018 27008KT CAVOK"
    },
    {
      "icao": "LPMA",
      "alert": "OK",
      "vis_m": 9999,
      "fzfg": false,
      "metar_trigger": false,
      "taf_trigger": false,
      "metar": "METAR LPMA 292100Z 02022G35KT 9999 SCT014 22/18 Q1022",
      "taf": "TAF LPMA 291700Z 2918/3018 01015KT 9999 SCT015"
    },
    {
      "icao": "LPPR",
      "alert": "OK",
      "vis_m": 9999,
      "fzfg": false,
      "metar_trigger": false,
      "taf_trigger": false,
      "metar": "METAR LPPR 292100Z 30004KT CAVOK 19/16 Q1021",
      "taf": "TAF LPPR 291700Z 2918/3018 33010KT CAVOK"
    },
    {
      "icao": "LPPS",
      "alert": "OK",
      "vis_m": 9999,
      "fzfg": false,
      "metar_trigger": false,
      "taf_trigger": false,
      "metar": "METAR LPPS 292100Z 02016KT 9999 SCT014 BKN030 21/16 Q1024",
      "taf": "TAF LPPS 291700Z 2918/3024 06013KT 9999 SCT015 SCT030"
    },
    {
      "icao": "LPPT",
      "alert": "OK",
      "vis_m": 9999,
      "fzfg": false,
      "metar_trigger": false,
      "taf_trigger": false,
      "metar": "METAR LPPT 292100Z 32014KT 9999 FEW012 20/15 Q1020",
      "taf": "TAF LPPT 291700Z 2918/3024 35013KT CAVOK"
    },
    {
      "icao": "LQBK",
      "alert": "OK",
      "vis_m": 9999,
      "fzfg": false,
      "metar_trigger": false,
      "taf_trigger": false,
      "metar": "METAR LQBK 292100Z VRB01KT CAVOK 23/15 Q1017 NOSIG",
      "taf": "TAF LQBK 291700Z 2918/3018 16005KT CAVOK TX38/3013Z TN20/3003Z"
    },
    {
      "icao": "LQSA",
      "alert": "OK",
      "vis_m": 9999,
      "fzfg": false,
      "metar_trigger": false,
      "taf_trigger": false,
      "metar": "METAR LQSA 292100Z VRB02KT CAVOK 23/13 Q1020 NOSIG",
      "taf": "TAF LQSA 291700Z 2918/3018 VRB02KT CAVOK TX34/3012Z TN18/3003Z"
    },
    {
      "icao": "LQTZ",
      "alert": "OK",
      "vis_m": 9999,
      "fzfg": false,
      "metar_trigger": false,
      "taf_trigger": false,
      "metar": "METAR LQTZ 292100Z 32005KT CAVOK 23/16 Q1018",
      "taf": "TAF LQTZ 291700Z 2918/3018 VRB03KT CAVOK TX39/3013Z TN18/3003Z"
    },
    {
      "icao": "LRBC",
      "alert": "OK",
      "vis_m": 9999,
      "fzfg": false,
      "metar_trigger": false,
      "taf_trigger": false,
      "metar": "METAR LRBC 292100Z VRB02KT CAVOK 25/20 Q1017",
      "taf": "TAF LRBC 292000Z 2921/3006 VRB04KT CAVOK"
    },
    {
      "icao": "LRBS",
      "alert": "OK",
      "vis_m": 9999,
      "fzfg": false,
      "metar_trigger": false,
      "taf_trigger": false,
      "metar": "METAR LRBS 292100Z VRB02KT CAVOK 28/20 Q1016 NOSIG",
      "taf": "TAF LRBS 291700Z 2918/3018 03006KT CAVOK"
    },
    {
      "icao": "LRBV",
      "alert": "OK",
      "vis_m": 9999,
      "fzfg": false,
      "metar_trigger": false,
      "taf_trigger": false,
      "metar": "METAR LRBV 292100Z AUTO 24004KT 200V290 9999 NCD 20/18 Q1020",
      "taf": "TAF LRBV 291700Z 2918/3003 36006KT 9999 SCT050"
    },
    {
      "icao": "LRCL",
      "alert": "OK",
      "vis_m": 9999,
      "fzfg": false,
      "metar_trigger": false,
      "taf_trigger": false,
      "metar": "METAR LRCL 292100Z 00000KT CAVOK 25/17 Q1018",
      "taf": "TAF LRCL 292000Z 2921/3006 VRB04KT CAVOK"
    },
    {
      "icao": "LRCV",
      "alert": "OK",
      "vis_m": 9999,
      "fzfg": false,
      "metar_trigger": false,
      "taf_trigger": false,
      "metar": "METAR LRCV 292100Z 04006KT CAVOK 25/20 Q1017",
      "taf": "TAF LRCV 292000Z 2921/3006 04006KT CAVOK"
    },
    {
      "icao": "LRIA",
      "alert": "OK",
      "vis_m": 9999,
      "fzfg": false,
      "metar_trigger": false,
      "taf_trigger": false,
      "metar": "METAR LRIA 292100Z 00000KT CAVOK 27/20 Q1016",
      "taf": "TAF LRIA 292000Z 2921/3006 VRB04KT CAVOK"
    },
    {
      "icao": "LROP",
      "alert": "OK",
      "vis_m": 9999,
      "fzfg": false,
      "metar_trigger": false,
      "taf_trigger": false,
      "metar": "METAR LROP 292100Z 33004KT 240V020 CAVOK 26/20 Q1016 NOSIG",
      "taf": "TAF LROP 291700Z 2918/3018 03006KT CAVOK"
    },
    {
      "icao": "LRSB",
      "alert": "OK",
      "vis_m": 9999,
      "fzfg": false,
      "metar_trigger": false,
      "taf_trigger": false,
      "metar": "METAR LRSB 292100Z VRB01KT CAVOK 23/18 Q1019",
      "taf": "TAF LRSB 291700Z 2918/3018 01008KT CAVOK"
    },
    {
      "icao": "LRSM",
      "alert": "OK",
      "vis_m": 9999,
      "fzfg": false,
      "metar_trigger": false,
      "taf_trigger": false,
      "metar": "METAR LRSM 292100Z AUTO VRB01KT 9999 NCD 26/19 Q1017",
      "taf": "TAF LRSM 291400Z 2915/2924 VRB04KT CAVOK"
    },
    {
      "icao": "LRSV",
      "alert": "OK",
      "vis_m": 9999,
      "fzfg": false,
      "metar_trigger": false,
      "taf_trigger": false,
      "metar": "METAR LRSV 292100Z 31003KT 260V340 CAVOK 28/18 Q1018",
      "taf": "TAF LRSV 292000Z 2921/3006 VRB04KT CAVOK"
    },
    {
      "icao": "LRTM",
      "alert": "OK",
      "vis_m": 9999,
      "fzfg": false,
      "metar_trigger": false,
      "taf_trigger": false,
      "metar": "METAR LRTM 292100Z 09005KT CAVOK 23/20 Q1018",
      "taf": "TAF LRTM 292000Z 2921/3006 VRB04KT CAVOK"
    },
    {
      "icao": "LRTR",
      "alert": "OK",
      "vis_m": 9999,
      "fzfg": false,
      "metar_trigger": false,
      "taf_trigger": false,
      "metar": "METAR LRTR 292100Z 07005KT CAVOK 24/19 Q1017",
      "taf": ""
    },
    {
      "icao": "LTAC",
      "alert": "OK",
      "vis_m": 9999,
      "fzfg": false,
      "metar_trigger": false,
      "taf_trigger": false,
      "metar": "METAR LTAC 292050Z 09005KT CAVOK 20/10 Q1019 NOSIG",
      "taf": "TAF LTAC 291640Z 2918/3018 VRB02KT CAVOK"
    },
    {
      "icao": "LTFM",
      "alert": "OK",
      "vis_m": 9999,
      "fzfg": false,
      "metar_trigger": false,
      "taf_trigger": false,
      "metar": "METAR LTFM 292050Z 06009KT 020V080 9999 SCT007 24/23 Q1016 NOSIG",
      "taf": "TAF LTFM 291640Z 2918/3024 03014KT CAVOK"
    },
    {
      "icao": "LUKK",
      "alert": "OK",
      "vis_m": 9999,
      "fzfg": false,
      "metar_trigger": false,
      "taf_trigger": false,
      "metar": "METAR LUKK 292100Z 26006KT 190V280 CAVOK 25/20 Q1016 NOSIG",
      "taf": "TAF LUKK 291702Z 2918/3018 VRB04KT CAVOK"
    },
    {
      "icao": "LWOH",
      "alert": "OK",
      "vis_m": null,
      "fzfg": false,
      "metar_trigger": false,
      "taf_trigger": false,
      "metar": "",
      "taf": "TAF LWOH 292020Z 2921/3021 VRB02KT CAVOK"
    },
    {
      "icao": "LWSK",
      "alert": "OK",
      "vis_m": 9999,
      "fzfg": false,
      "metar_trigger": false,
      "taf_trigger": false,
      "metar": "METAR LWSK 292050Z 17003KT 120V210 CAVOK 23/16 Q1017 NOSIG",
      "taf": "TAF LWSK 292020Z 2921/3021 VRB02KT CAVOK"
    },
    {
      "icao": "LYBE",
      "alert": "OK",
      "vis_m": 9999,
      "fzfg": false,
      "metar_trigger": false,
      "taf_trigger": false,
      "metar": "METAR LYBE 292100Z 18003KT 150V210 CAVOK 27/14 Q1017 NOSIG",
      "taf": "TAF LYBE 291700Z 2918/3018 07006KT CAVOK TX39/3014Z TN23/3003Z"
    },
    {
      "icao": "LYNI",
      "alert": "OK",
      "vis_m": 9999,
      "fzfg": false,
      "metar_trigger": false,
      "taf_trigger": false,
      "metar": "METAR LYNI 292100Z 03003KT CAVOK 27/16 Q1017 NOSIG",
      "taf": "TAF LYNI 291700Z 2918/3018 04006KT CAVOK TX36/3014Z TN20/3003Z"
    },
    {
      "icao": "LYPG",
      "alert": "OK",
      "vis_m": 9999,
      "fzfg": false,
      "metar_trigger": false,
      "taf_trigger": false,
      "metar": "METAR LYPG 292100Z 33006KT 300V030 CAVOK 30/12 Q1015 NOSIG",
      "taf": "TAF LYPG 291700Z 2918/3018 35005KT CAVOK TX39/3013Z TN26/3003Z"
    },
    {
      "icao": "LZIB",
      "alert": "OK",
      "vis_m": null,
      "fzfg": false,
      "metar_trigger": false,
      "taf_trigger": false,
      "metar": "",
      "taf": "TAF LZIB 291115Z 2912/3012 16009KT CAVOK"
    },
    {
      "icao": "LZKZ",
      "alert": "OK",
      "vis_m": null,
      "fzfg": false,
      "metar_trigger": false,
      "taf_trigger": false,
      "metar": "",
      "taf": "TAF LZKZ 291115Z 2912/3012 VRB04KT CAVOK"
    },
    {
      "icao": "LZTT",
      "alert": "OK",
      "vis_m": null,
      "fzfg": false,
      "metar_trigger": false,
      "taf_trigger": false,
      "metar": "",
      "taf": "TAF LZTT 291115Z 2912/3012 07005KT 9999 SCT056"
    },
    {
      "icao": "OEJN",
      "alert": "OK",
      "vis_m": 9999,
      "fzfg": false,
      "metar_trigger": false,
      "taf_trigger": false,
      "metar": "METAR OEJN 292100Z 34004KT CAVOK 33/14 Q1003 NOSIG",
      "taf": "TAF OEJN 291700Z 2918/3024 36008KT CAVOK"
    },
    {
      "icao": "OEMA",
      "alert": "OK",
      "vis_m": 9999,
      "fzfg": false,
      "metar_trigger": false,
      "taf_trigger": false,
      "metar": "METAR OEMA 292100Z 30006KT CAVOK 37/M05 Q1010 NOSIG",
      "taf": "TAF OEMA 291700Z 2918/3024 28010KT CAVOK"
    },
    {
      "icao": "OJAI",
      "alert": "OK",
      "vis_m": 5000,
      "fzfg": false,
      "metar_trigger": false,
      "taf_trigger": false,
      "metar": "METAR OJAI 292100Z 30006KT 5000 HZ NSC 21/12 Q1014 NOSIG",
      "taf": "TAF OJAI 291650Z 2918/3024 31008KT 6000 NSC"
    },
    {
      "icao": "OMAA",
      "alert": "OK",
      "vis_m": 9999,
      "fzfg": false,
      "metar_trigger": false,
      "taf_trigger": false,
      "metar": "METAR OMAA 292100Z 26002KT CAVOK 33/26 Q0997 NOSIG",
      "taf": "TAF OMAA 291700Z 2918/0100 24005KT 8000 NSC"
    },
    {
      "icao": "OMDB",
      "alert": "OK",
      "vis_m": 9000,
      "fzfg": false,
      "metar_trigger": false,
      "taf_trigger": false,
      "metar": "METAR OMDB 292100Z 22004KT 190V250 9000 NSC 34/25 Q0997 NOSIG",
      "taf": "TAF OMDB 291700Z 2918/0100 18005KT 8000 NSC"
    },
    {
      "icao": "UAAA",
      "alert": "OK",
      "vis_m": 9999,
      "fzfg": false,
      "metar_trigger": false,
      "taf_trigger": false,
      "metar": "METAR UAAA 292100Z VRB01MPS 9999 SCT050CB BKN100 21/14 Q1010 NOSIG",
      "taf": "TAF UAAA 291702Z 2918/3018 20003G08MPS 9999 SCT050CB BKN100 TX31/3010Z TN20/3001Z"
    },
    {
      "icao": "UBBB",
      "alert": "OK",
      "vis_m": 9999,
      "fzfg": false,
      "metar_trigger": false,
      "taf_trigger": false,
      "metar": "METAR UBBB 292100Z 29002KT CAVOK 21/16 Q1013 NOSIG",
      "taf": "TAF UBBB 291702Z 2918/3018 35006KT 9999 SCT025 TX27/3010Z TN19/3001Z"
    },
    {
      "icao": "UDSG",
      "alert": "OK",
      "vis_m": 9999,
      "fzfg": false,
      "metar_trigger": false,
      "taf_trigger": false,
      "metar": "METAR UDSG 292100Z 03005KT 9999 NSC 10/06 Q1021 NOSIG",
      "taf": "TAF UDSG 291700Z 2918/3018 36006KT 9999 FEW050"
    },
    {
      "icao": "UDYZ",
      "alert": "OK",
      "vis_m": 9999,
      "fzfg": false,
      "metar_trigger": false,
      "taf_trigger": false,
      "metar": "METAR UDYZ 292100Z 27004KT 9999 NSC 18/09 Q1015 NOSIG",
      "taf": "TAF UDYZ 291700Z 2918/3018 30006KT 9999 FEW050"
    },
    {
      "icao": "UGKO",
      "alert": "OK",
      "vis_m": 9999,
      "fzfg": false,
      "metar_trigger": false,
      "taf_trigger": false,
      "metar": "METAR UGKO 292100Z VRB02KT 9999 BKN073 19/17 Q1015 NOSIG",
      "taf": "TAF UGKO 291700Z 2918/3018 26007KT 9999 BKN060 TX26/3012Z TN17/3002Z"
    }
  ]
}