{
  "ts_utc": "2026-01-18T13:18:16Z",
  "threshold_m": 150,
  "source": "stations_override.txt (ICAO list) + aviationweather.gov (METAR/TAF raw)",
  "station_count": 159,
  "stations": [
    {
      "icao": "BIKF",
      "alert": "OK",
      "vis_m": 9999,
      "fzfg": false,
      "metar_trigger": false,
      "taf_trigger": false,
      "metar": "METAR BIKF 181300Z 13031G42KT 9999 -RA BKN015 OVC024 07/05 Q0992",
      "taf": "TAF BIKF 181049Z 1812/1912 13030G50KT 5000 RADZ BKN012 OVC020 TX07/1815Z TN01/1906Z"
    },
    {
      "icao": "BKPR",
      "alert": "OK",
      "vis_m": 9999,
      "fzfg": false,
      "metar_trigger": false,
      "taf_trigger": false,
      "metar": "METAR BKPR 181300Z 35012KT 9999 FEW050 01/M04 Q1028 NOSIG",
      "taf": "TAF BKPR 181130Z 1812/1912 02012KT 9999 FEW040"
    },
    {
      "icao": "EBCI",
      "alert": "OK",
      "vis_m": 9999,
      "fzfg": false,
      "metar_trigger": false,
      "taf_trigger": false,
      "metar": "METAR EBCI 181250Z 08005KT 050V110 CAVOK 11/04 Q1017 NOSIG",
      "taf": "TAF EBCI 181104Z 1812/1918 17004KT CAVOK"
    },
    {
      "icao": "EDDB",
      "alert": "OK",
      "vis_m": 9999,
      "fzfg": false,
      "metar_trigger": false,
      "taf_trigger": false,
      "metar": "METAR EDDB 181250Z AUTO 11009KT 080V140 CAVOK 05/M00 Q1027 NOSIG",
      "taf": "TAF EDDB 181100Z 1812/1912 11010KT CAVOK"
    },
    {
      "icao": "EDDH",
      "alert": "OK",
      "vis_m": 9999,
      "fzfg": false,
      "metar_trigger": false,
      "taf_trigger": false,
      "metar": "METAR EDDH 181250Z AUTO 13008KT 090V150 9999 FEW017 05/01 Q1023 NOSIG",
      "taf": "TAF EDDH 181100Z 1812/1918 12010KT 9999 BKN013"
    },
    {
      "icao": "EDDK",
      "alert": "OK",
      "vis_m": 9999,
      "fzfg": false,
      "metar_trigger": false,
      "taf_trigger": false,
      "metar": "METAR EDDK 181250Z AUTO 12009KT 090V150 9999 OVC010 02/M00 Q1021 NOSIG",
      "taf": "TAF EDDK 181100Z 1812/1918 12007KT 9999 BKN009"
    },
    {
      "icao": "EDDN",
      "alert": "OK",
      "vis_m": 9999,
      "fzfg": false,
      "metar_trigger": false,
      "taf_trigger": false,
      "metar": "METAR EDDN 181250Z AUTO 08009KT 060V120 CAVOK 05/M01 Q1021 NOSIG",
      "taf": "TAF EDDN 181100Z 1812/1912 10007KT CAVOK"
    },
    {
      "icao": "EDDS",
      "alert": "OK",
      "vis_m": 9999,
      "fzfg": false,
      "metar_trigger": false,
      "taf_trigger": false,
      "metar": "METAR EDDS 181250Z AUTO VRB02KT 9999 OVC009 02/M01 Q1018 BECMG OVC010",
      "taf": ""
    },
    {
      "icao": "EDFH",
      "alert": "OK",
      "vis_m": 400,
      "fzfg": true,
      "metar_trigger": false,
      "taf_trigger": false,
      "metar": "METAR EDFH 181250Z 11011KT 080V140 0400 R21/0700U FZFG VV/// M00/M01 Q1018",
      "taf": ""
    },
    {
      "icao": "EDJA",
      "alert": "OK",
      "vis_m": 4400,
      "fzfg": false,
      "metar_trigger": false,
      "taf_trigger": false,
      "metar": "METAR EDJA 181250Z COR 07006KT 4400 BR OVC002 M02/M02 Q1018",
      "taf": "TAF EDJA 181100Z 1812/1821 06005KT 1500 BCFG OVC001"
    },
    {
      "icao": "EDLW",
      "alert": "OK",
      "vis_m": 9999,
      "fzfg": false,
      "metar_trigger": false,
      "taf_trigger": false,
      "metar": "METAR EDLW 181250Z 03004KT CAVOK 04/01 Q1020",
      "taf": "TAF EDLW 181100Z 1812/1912 11004KT CAVOK"
    },
    {
      "icao": "EDNY",
      "alert": "OK",
      "vis_m": 9999,
      "fzfg": false,
      "metar_trigger": false,
      "taf_trigger": false,
      "metar": "METAR EDNY 181250Z 36003KT 320V080 9999 OVC010 00/M02 Q1019",
      "taf": "TAF EDNY 181100Z 1812/1821 03005KT 9999 OVC009"
    },
    {
      "icao": "EDSB",
      "alert": "OK",
      "vis_m": 9999,
      "fzfg": false,
      "metar_trigger": false,
      "taf_trigger": false,
      "metar": "METAR EDSB 181250Z 18003KT 150V210 9999 FEW009 SCT011 OVC017 02/M00 Q1020",
      "taf": "TAF EDSB 181100Z 1812/1912 02003KT 8000 SCT007 BKN010"
    },
    {
      "icao": "EETN",
      "alert": "OK",
      "vis_m": 1500,
      "fzfg": false,
      "metar_trigger": false,
      "taf_trigger": false,
      "metar": "METAR EETN 181250Z 20007KT 1500 BR OVC002 M05/M05 Q1037 TEMPO 3000",
      "taf": "TAF EETN 181130Z 1812/1912 19007KT 6000 BKN004 OVC010"
    },
    {
      "icao": "EFTU",
      "alert": "OK",
      "vis_m": 4500,
      "fzfg": false,
      "metar_trigger": false,
      "taf_trigger": false,
      "metar": "METAR EFTU 181250Z AUTO 16004KT 110V180 4500 BR OVC003 01/01 Q1035",
      "taf": "TAF EFTU 181132Z 1812/1912 20006KT 8000 SCT003 BKN010"
    },
    {
      "icao": "EGBB",
      "alert": "OK",
      "vis_m": 600,
      "fzfg": false,
      "metar_trigger": false,
      "taf_trigger": false,
      "metar": "METAR EGBB 181250Z 12004KT 080V150 0600 R15/P1500N BR OVC002 06/06 Q1016",
      "taf": ""
    },
    {
      "icao": "EGGP",
      "alert": "OK",
      "vis_m": 1000,
      "fzfg": false,
      "metar_trigger": false,
      "taf_trigger": false,
      "metar": "METAR EGGP 181250Z 13002KT 1000 R09/P2000 RA BR OVC004 05/05 Q1016",
      "taf": ""
    },
    {
      "icao": "EGGW",
      "alert": "OK",
      "vis_m": 4500,
      "fzfg": false,
      "metar_trigger": false,
      "taf_trigger": false,
      "metar": "METAR EGGW 181250Z AUTO 15006KT 4500 BR OVC004 07/07 Q1016",
      "taf": "TAF EGGW 181104Z 1812/1912 14007KT 3000 -RADZ BR BKN003"
    },
    {
      "icao": "EGKK",
      "alert": "OK",
      "vis_m": 9999,
      "fzfg": false,
      "metar_trigger": false,
      "taf_trigger": false,
      "metar": "METAR EGKK 181250Z 15006KT 110V190 9999 SCT017 12/09 Q1016",
      "taf": "TAF EGKK 181059Z 1812/1918 14006KT 5000 BR BKN008"
    },
    {
      "icao": "EGNM",
      "alert": "OK",
      "vis_m": 200,
      "fzfg": false,
      "metar_trigger": false,
      "taf_trigger": false,
      "metar": "METAR EGNM 181250Z 07005KT 040V100 0200 R32/0300N -RA FG VV/// 04/04 Q1016",
      "taf": "TAF EGNM 181100Z 1812/1912 06003KT 0300 FG VV///"
    },
    {
      "icao": "EGPD",
      "alert": "OK",
      "vis_m": 8000,
      "fzfg": false,
      "metar_trigger": false,
      "taf_trigger": false,
      "metar": "METAR EGPD 181250Z AUTO 16005KT 8000 BKN007 OVC011 07/05 Q1018 TEMPO 4000 BR BKN004",
      "taf": "TAF EGPD 181055Z 1812/1912 16004KT 9999 SCT010 BKN015"
    },
    {
      "icao": "EGPF",
      "alert": "OK",
      "vis_m": 9999,
      "fzfg": false,
      "metar_trigger": false,
      "taf_trigger": false,
      "metar": "METAR EGPF 181250Z AUTO 07008KT 9999 FEW033 06/04 Q1016",
      "taf": "TAF EGPF 181104Z 1812/1912 06003KT 9999 FEW020 SCT040"
    },
    {
      "icao": "EHBK",
      "alert": "OK",
      "vis_m": 9999,
      "fzfg": false,
      "metar_trigger": false,
      "taf_trigger": false,
      "metar": "METAR EHBK 181255Z AUTO 07010KT 9999 NSC 05/02 Q1018 NOSIG",
      "taf": "TAF EHBK 181104Z 1812/1918 08005KT CAVOK"
    },
    {
      "icao": "EHEH",
      "alert": "OK",
      "vis_m": 9999,
      "fzfg": false,
      "metar_trigger": false,
      "taf_trigger": false,
      "metar": "METAR EHEH 181255Z AUTO 09005KT 050V130 9999 NCD 08/02 Q1019 BLU NOSIG RMK TREND REMOTE BY EHWX",
      "taf": "TAF EHEH 181003Z 1812/1918 10005KT CAVOK"
    },
    {
      "icao": "EKBI",
      "alert": "OK",
      "vis_m": 8000,
      "fzfg": false,
      "metar_trigger": false,
      "taf_trigger": false,
      "metar": "METAR EKBI 181250Z AUTO 11008KT 8000 OVC007/// 02/02 Q1025",
      "taf": "TAF EKBI 181127Z 1812/1912 11010KT 3000 BR BKN004"
    },
    {
      "icao": "EKCH",
      "alert": "OK",
      "vis_m": 7000,
      "fzfg": false,
      "metar_trigger": false,
      "taf_trigger": false,
      "metar": "METAR EKCH 181250Z AUTO 11010KT 7000 NCD 04/02 Q1029 NOSIG",
      "taf": "TAF EKCH 181127Z 1812/1912 12012KT 9999 FEW008"
    },
    {
      "icao": "ENAL",
      "alert": "OK",
      "vis_m": 9999,
      "fzfg": false,
      "metar_trigger": false,
      "taf_trigger": false,
      "metar": "METAR ENAL 181250Z 05003KT 030V100 9999 FEW052 04/M00 Q1026",
      "taf": "TAF ENAL 181100Z 1812/1821 15006KT 9999 FEW050"
    },
    {
      "icao": "ENBR",
      "alert": "OK",
      "vis_m": 1500,
      "fzfg": false,
      "metar_trigger": false,
      "taf_trigger": false,
      "metar": "METAR ENBR 181250Z VRB02KT 1500 BR VV004 05/04 Q1025 TEMPO 0800 FG VV002 RMK WIND 1200FT 25005KT",
      "taf": ""
    },
    {
      "icao": "ENGM",
      "alert": "OK",
      "vis_m": 7000,
      "fzfg": false,
      "metar_trigger": false,
      "taf_trigger": false,
      "metar": "METAR ENGM 181250Z 05006KT 330V070 7000 OVC002 00/M00 Q1030 TEMPO 4000 BR",
      "taf": ""
    },
    {
      "icao": "ENHD",
      "alert": "OK",
      "vis_m": 9999,
      "fzfg": false,
      "metar_trigger": false,
      "taf_trigger": false,
      "metar": "METAR ENHD 181250Z 18004KT 9999 BKN007 05/04 Q1025",
      "taf": ""
    },
    {
      "icao": "ENTC",
      "alert": "OK",
      "vis_m": 9999,
      "fzfg": false,
      "metar_trigger": false,
      "taf_trigger": false,
      "metar": "METAR ENTC 181250Z 19010KT 9999 FEW009 BKN015 BKN025 03/01 Q1028 TEMPO -SHRA BKN014 SCT020CB RMK WIND 2600FT 25015KT",
      "taf": "TAF ENTC 181100Z 1812/1912 21009KT 9999 -SHRA FEW010 BKN018"
    },
    {
      "icao": "ENTO",
      "alert": "OK",
      "vis_m": 750,
      "fzfg": false,
      "metar_trigger": false,
      "taf_trigger": false,
      "metar": "METAR ENTO 181250Z 01003KT 0750 R18/1500D R36/P2000N DZ FG VV002 01/01 Q1030 NOSIG",
      "taf": ""
    },
    {
      "icao": "ENVA",
      "alert": "OK",
      "vis_m": 9999,
      "fzfg": false,
      "metar_trigger": false,
      "taf_trigger": false,
      "metar": "METAR ENVA 181250Z 09003KT CAVOK M05/M05 Q1028 NOSIG RMK WIND 670FT 08007KT",
      "taf": "TAF ENVA 181100Z 1812/1912 10008KT CAVOK"
    },
    {
      "icao": "ENZV",
      "alert": "OK",
      "vis_m": 9999,
      "fzfg": false,
      "metar_trigger": false,
      "taf_trigger": false,
      "metar": "METAR ENZV 181250Z 06002KT 9999 BKN031 04/04 Q1025 NOSIG",
      "taf": "TAF ENZV 181100Z 1812/1912 16005KT 9999 FEW020 BKN040"
    },
    {
      "icao": "EPGD",
      "alert": "OK",
      "vis_m": 9000,
      "fzfg": false,
      "metar_trigger": false,
      "taf_trigger": false,
      "metar": "METAR EPGD 181300Z 17008KT 9000 NSC M08/M09 Q1033",
      "taf": "TAF EPGD 181130Z 1812/1912 16010KT CAVOK"
    },
    {
      "icao": "EPKK",
      "alert": "OK",
      "vis_m": 9999,
      "fzfg": false,
      "metar_trigger": false,
      "taf_trigger": false,
      "metar": "METAR EPKK 181300Z 06008KT CAVOK M06/M11 Q1033",
      "taf": "TAF EPKK 181130Z 1812/1912 07008KT CAVOK"
    },
    {
      "icao": "EPKT",
      "alert": "OK",
      "vis_m": 9999,
      "fzfg": false,
      "metar_trigger": false,
      "taf_trigger": false,
      "metar": "METAR EPKT 181300Z 15005KT CAVOK 01/M07 Q1031",
      "taf": "TAF EPKT 181130Z 1812/1912 15006KT CAVOK"
    },
    {
      "icao": "EPLB",
      "alert": "OK",
      "vis_m": 9999,
      "fzfg": false,
      "metar_trigger": false,
      "taf_trigger": false,
      "metar": "METAR EPLB 181300Z 09008KT CAVOK M08/M12 Q1037",
      "taf": "TAF EPLB 181130Z 1812/1912 11009KT CAVOK"
    },
    {
      "icao": "EPMO",
      "alert": "OK",
      "vis_m": 9999,
      "fzfg": false,
      "metar_trigger": false,
      "taf_trigger": false,
      "metar": "METAR EPMO 181300Z 10008KT CAVOK M05/M10 Q1036",
      "taf": "TAF EPMO 181130Z 1812/1912 09009KT 8000 NSC"
    },
    {
      "icao": "EPPO",
      "alert": "OK",
      "vis_m": 9999,
      "fzfg": false,
      "metar_trigger": false,
      "taf_trigger": false,
      "metar": "METAR EPPO 181300Z 10010KT CAVOK 01/M03 Q1031",
      "taf": "TAF EPPO 181130Z 1812/1912 11010KT CAVOK"
    },
    {
      "icao": "EPRA",
      "alert": "OK",
      "vis_m": 9999,
      "fzfg": false,
      "metar_trigger": false,
      "taf_trigger": false,
      "metar": "METAR EPRA 181300Z 11008KT 080V140 CAVOK M06/M12 Q1035",
      "taf": "TAF EPRA 181130Z 1812/1821 12010KT CAVOK"
    },
    {
      "icao": "EPRZ",
      "alert": "OK",
      "vis_m": 9999,
      "fzfg": false,
      "metar_trigger": false,
      "taf_trigger": false,
      "metar": "METAR EPRZ 181300Z 10015KT CAVOK M07/M12 Q1035",
      "taf": "TAF EPRZ 181130Z 1812/1912 09014KT CAVOK"
    },
    {
      "icao": "EPSC",
      "alert": "OK",
      "vis_m": 9999,
      "fzfg": false,
      "metar_trigger": false,
      "taf_trigger": false,
      "metar": "METAR EPSC 181300Z 13012KT CAVOK 02/M03 Q1029",
      "taf": "TAF EPSC 181130Z 1812/1912 13012KT CAVOK"
    },
    {
      "icao": "EPSY",
      "alert": "OK",
      "vis_m": 9999,
      "fzfg": false,
      "metar_trigger": false,
      "taf_trigger": false,
      "metar": "METAR EPSY 181300Z 13005KT 060V180 CAVOK M08/M12 Q1037",
      "taf": "TAF EPSY 181130Z 1812/1821 13008KT CAVOK"
    },
    {
      "icao": "EPWA",
      "alert": "OK",
      "vis_m": 9999,
      "fzfg": false,
      "metar_trigger": false,
      "taf_trigger": false,
      "metar": "METAR EPWA 181300Z 11011KT CAVOK M06/M11 Q1036 NOSIG",
      "taf": "TAF EPWA 181130Z 1812/1912 11010KT CAVOK"
    },
    {
      "icao": "EPWR",
      "alert": "OK",
      "vis_m": 8000,
      "fzfg": false,
      "metar_trigger": false,
      "taf_trigger": false,
      "metar": "METAR EPWR 181300Z 13011KT 8000 NSC 02/M01 Q1030",
      "taf": "TAF EPWR 181130Z 1812/1912 12010KT 6000 NSC"
    },
    {
      "icao": "ESGG",
      "alert": "OK",
      "vis_m": 7000,
      "fzfg": false,
      "metar_trigger": false,
      "taf_trigger": false,
      "metar": "METAR ESGG 181250Z 11005KT 070V140 7000 OVC002 01/01 Q1029",
      "taf": "TAF ESGG 181130Z 1812/1912 13006KT 6000 OVC002"
    },
    {
      "icao": "ESKN",
      "alert": "OK",
      "vis_m": 2400,
      "fzfg": false,
      "metar_trigger": false,
      "taf_trigger": false,
      "metar": "METAR ESKN 181250Z 15007KT 2400 BR VV002 01/01 Q1033",
      "taf": "TAF ESKN 181130Z 1812/1912 15008KT 0600 FG VV002"
    },
    {
      "icao": "ESMS",
      "alert": "OK",
      "vis_m": 3100,
      "fzfg": false,
      "metar_trigger": false,
      "taf_trigger": false,
      "metar": "METAR ESMS 181250Z 12010KT 3100 BR BKN005 03/03 Q1029",
      "taf": "TAF ESMS 181127Z 1812/1912 11010KT 3000 BR BKN004"
    },
    {
      "icao": "ESSA",
      "alert": "OK",
      "vis_m": 2100,
      "fzfg": false,
      "metar_trigger": false,
      "taf_trigger": false,
      "metar": "METAR ESSA 181250Z 15005KT 2100 BR OVC002 01/01 Q1033 TEMPO 3000 BR BKN005",
      "taf": "TAF ESSA 181130Z 1812/1912 16005KT 6000 BKN003"
    },
    {
      "icao": "EYKA",
      "alert": "OK",
      "vis_m": 9999,
      "fzfg": false,
      "metar_trigger": false,
      "taf_trigger": false,
      "metar": "METAR EYKA 181250Z 18006KT 130V240 CAVOK M10/M13 Q1040",
      "taf": ""
    },
    {
      "icao": "EYPA",
      "alert": "OK",
      "vis_m": 9999,
      "fzfg": false,
      "metar_trigger": false,
      "taf_trigger": false,
      "metar": "METAR EYPA 181250Z 15009KT CAVOK M06/M11 Q1037",
      "taf": "TAF EYPA 181100Z 1812/1912 15010KT 9000 NSC"
    },
    {
      "icao": "EYVI",
      "alert": "OK",
      "vis_m": 9999,
      "fzfg": false,
      "metar_trigger": false,
      "taf_trigger": false,
      "metar": "METAR EYVI 181250Z 16006KT CAVOK M11/M14 Q1040 NOSIG",
      "taf": ""
    },
    {
      "icao": "GCFV",
      "alert": "OK",
      "vis_m": 9999,
      "fzfg": false,
      "metar_trigger": false,
      "taf_trigger": false,
      "metar": "METAR GCFV 181300Z 34020G31KT 300V360 9999 FEW020 BKN035 19/13 Q1015",
      "taf": "TAF GCFV 180800Z 1809/1909 35020KT 9999 BKN025 TX20/1814Z TN14/1906Z"
    },
    {
      "icao": "GCLP",
      "alert": "OK",
      "vis_m": 5000,
      "fzfg": false,
      "metar_trigger": false,
      "taf_trigger": false,
      "metar": "SPECI GCLP 181313Z 36018KT 5000 -RA FEW015 SCT020 BKN030 18/16 Q1016 NOSIG",
      "taf": ""
    },
    {
      "icao": "GCTS",
      "alert": "OK",
      "vis_m": 9999,
      "fzfg": false,
      "metar_trigger": false,
      "taf_trigger": false,
      "metar": "METAR GCTS 181300Z 15008KT 120V200 9999 FEW040 21/13 Q1016 NOSIG",
      "taf": "TAF GCTS 180800Z 1809/1909 VRB05KT 9999 SCT030 TX22/1814Z TN15/1906Z"
    },
    {
      "icao": "GMAD",
      "alert": "OK",
      "vis_m": 8000,
      "fzfg": false,
      "metar_trigger": false,
      "taf_trigger": false,
      "metar": "METAR GMAD 181300Z 31015KT 8000 FEW006 SCT026 16/08 Q1007 NOSIG",
      "taf": "TAF GMAD 181100Z 1812/1918 24008KT 8000 SCT010 BKN016"
    },
    {
      "icao": "GMMN",
      "alert": "OK",
      "vis_m": 9999,
      "fzfg": false,
      "metar_trigger": false,
      "taf_trigger": false,
      "metar": "METAR GMMN 181300Z 32007KT 290V350 9999 SCT008 BKN017 FEW023TCU 10/08 Q1007 TEMPO 3000 RA",
      "taf": "TAF GMMN 181100Z 1812/1918 30008KT 9999 SCT008 BKN017 FEW030TCU"
    },
    {
      "icao": "GMMX",
      "alert": "OK",
      "vis_m": 1500,
      "fzfg": false,
      "metar_trigger": false,
      "taf_trigger": false,
      "metar": "SPECI GMMX 181314Z 30012G26KT 270V010 1500 RA SCT010 BKN020 FEW026CB 09/05 Q1007",
      "taf": "TAF GMMX 181100Z 1812/1918 30008KT 8000 BKN023 SCT080"
    },
    {
      "icao": "HEGN",
      "alert": "OK",
      "vis_m": 9999,
      "fzfg": false,
      "metar_trigger": false,
      "taf_trigger": false,
      "metar": "METAR HEGN 181200Z 35017KT CAVOK 22/07 Q1014 NOSIG",
      "taf": "TAF HEGN 181100Z 1812/1918 35010G20KT 6000 NSC"
    },
    {
      "icao": "HEMA",
      "alert": "OK",
      "vis_m": 9999,
      "fzfg": false,
      "metar_trigger": false,
      "taf_trigger": false,
      "metar": "METAR HEMA 181200Z 01012KT CAVOK 21/08 Q1014 NOSIG",
      "taf": "TAF HEMA 181100Z 1812/1918 36010G20KT 6000 NSC"
    },
    {
      "icao": "HESH",
      "alert": "OK",
      "vis_m": 9999,
      "fzfg": false,
      "metar_trigger": false,
      "taf_trigger": false,
      "metar": "METAR HESH 181200Z 05009KT CAVOK 22/09 Q1013 NOSIG",
      "taf": "TAF HESH 181100Z 1812/1918 02012KT CAVOK"
    },
    {
      "icao": "HESX",
      "alert": "OK",
      "vis_m": 9999,
      "fzfg": false,
      "metar_trigger": false,
      "taf_trigger": false,
      "metar": "METAR HESX 181200Z 29009KT 9999 SCT020 19/06 Q1016 NOSIG",
      "taf": "TAF HESX 181100Z 1812/1918 30010KT CAVOK"
    },
    {
      "icao": "LATI",
      "alert": "OK",
      "vis_m": null,
      "fzfg": false,
      "metar_trigger": false,
      "taf_trigger": false,
      "metar": "",
      "taf": "TAF LATI 181100Z 1812/1912 VRB05KT CAVOK TX16/1812Z TNM01/1905Z"
    },
    {
      "icao": "LBPD",
      "alert": "OK",
      "vis_m": 9999,
      "fzfg": false,
      "metar_trigger": false,
      "taf_trigger": false,
      "metar": "METAR LBPD 181300Z AUTO 15003KT 110V210 9999 SCT038/// M01/M06 Q1033 NOSIG",
      "taf": "TAF LBPD 181100Z 1812/1912 11010KT 9999 BKN030"
    },
    {
      "icao": "LBSF",
      "alert": "OK",
      "vis_m": 9999,
      "fzfg": false,
      "metar_trigger": false,
      "taf_trigger": false,
      "metar": "METAR LBSF 181300Z 03008KT 360V060 9999 FEW062 M02/M09 Q1030 NOSIG",
      "taf": "TAF LBSF 181100Z 1812/1912 03010KT 9999 SCT020"
    },
    {
      "icao": "LBWN",
      "alert": "OK",
      "vis_m": 9999,
      "fzfg": false,
      "metar_trigger": false,
      "taf_trigger": false,
      "metar": "METAR LBWN 181300Z AUTO 27009KT 240V300 9999 FEW023/// M06/M10 Q1034 NOSIG",
      "taf": "TAF LBWN 181100Z 1812/1912 32014KT 9999 SCT030 BKN045"
    },
    {
      "icao": "LCLK",
      "alert": "OK",
      "vis_m": 9999,
      "fzfg": false,
      "metar_trigger": false,
      "taf_trigger": false,
      "metar": "METAR LCLK 181300Z 03013KT 9999 FEW020 SCT050 13/04 Q1016 NOSIG",
      "taf": "TAF LCLK 181130Z 1812/1912 03014KT 9999 FEW025"
    },
    {
      "icao": "LCPH",
      "alert": "OK",
      "vis_m": 7000,
      "fzfg": false,
      "metar_trigger": false,
      "taf_trigger": false,
      "metar": "METAR LCPH 181300Z 07007KT 010V080 7000 -TSRA FEW013 FEW025CB BKN045 13/09 Q1015 NOSIG",
      "taf": "TAF LCPH 181130Z 1812/1912 13010KT 9999 SCT025"
    },
    {
      "icao": "LEAL",
      "alert": "OK",
      "vis_m": 9999,
      "fzfg": false,
      "metar_trigger": false,
      "taf_trigger": false,
      "metar": "METAR LEAL 181300Z 09006KT 020V140 9999 FEW045 15/05 Q1010 NOSIG",
      "taf": "TAF LEAL 181100Z 1812/1912 09004KT 9999 FEW030 TX15/1813Z TN06/1904Z"
    },
    {
      "icao": "LEBB",
      "alert": "OK",
      "vis_m": 8000,
      "fzfg": false,
      "metar_trigger": false,
      "taf_trigger": false,
      "metar": "METAR LEBB 181300Z VRB01KT 8000 -RA BKN015 10/09 Q1013 NOSIG",
      "taf": "TAF LEBB 181100Z 1812/1912 29008KT 9999 FEW010 BKN020 TX11/1814Z TN07/1906Z"
    },
    {
      "icao": "LEBL",
      "alert": "OK",
      "vis_m": 9000,
      "fzfg": false,
      "metar_trigger": false,
      "taf_trigger": false,
      "metar": "METAR LEBL 181300Z 03008KT 330V070 9000 FEW016 SCT040 BKN060 12/11 Q1011 RERA NOSIG",
      "taf": "TAF LEBL 181100Z 1812/1912 07009KT 9999 FEW020 TX14/1812Z TN10/1906Z"
    },
    {
      "icao": "LECH",
      "alert": "OK",
      "vis_m": 9999,
      "fzfg": false,
      "metar_trigger": false,
      "taf_trigger": false,
      "metar": "METAR LECH 181300Z AUTO 07006KT 030V100 9999 FEW026 SCT066 11/06 Q1010",
      "taf": ""
    },
    {
      "icao": "LEMD",
      "alert": "OK",
      "vis_m": 9999,
      "fzfg": false,
      "metar_trigger": false,
      "taf_trigger": false,
      "metar": "METAR LEMD 181300Z 05004KT 340V110 9999 BKN035 08/02 Q1011 NOSIG",
      "taf": "TAF LEMD 181100Z 1812/1918 02006KT 9999 SCT035 TX09/1814Z TNM01/1906Z"
    },
    {
      "icao": "LEMG",
      "alert": "OK",
      "vis_m": 9999,
      "fzfg": false,
      "metar_trigger": false,
      "taf_trigger": false,
      "metar": "METAR LEMG 181300Z 29005KT 9999 FEW030 SCT070 11/04 Q1009 NOSIG",
      "taf": ""
    },
    {
      "icao": "LEVC",
      "alert": "OK",
      "vis_m": 9999,
      "fzfg": false,
      "metar_trigger": false,
      "taf_trigger": false,
      "metar": "METAR LEVC 181300Z 09006KT 040V130 9999 FEW027 SCT033 13/07 Q1010 NOSIG",
      "taf": "TAF LEVC 181100Z 1812/1912 06006KT 9999 FEW020 TX14/1813Z TN06/1906Z"
    },
    {
      "icao": "LEXJ",
      "alert": "OK",
      "vis_m": 5000,
      "fzfg": false,
      "metar_trigger": false,
      "taf_trigger": false,
      "metar": "METAR LEXJ 181300Z 26005KT 220V290 5000 -RA BKN009 BKN015 10/09 Q1014 RERA",
      "taf": "TAF LEXJ 180800Z 1809/1909 25009KT 9999 FEW015 BKN040 TX11/1815Z TN08/1909Z"
    },
    {
      "icao": "LEZG",
      "alert": "OK",
      "vis_m": 4000,
      "fzfg": false,
      "metar_trigger": false,
      "taf_trigger": false,
      "metar": "METAR LEZG 181300Z 31005KT 4000 -DZ BR OVC007 08/08 Q1012 NOSIG",
      "taf": ""
    },
    {
      "icao": "LEZL",
      "alert": "OK",
      "vis_m": 9999,
      "fzfg": false,
      "metar_trigger": false,
      "taf_trigger": false,
      "metar": "METAR LEZL 181300Z 07013KT 030V100 CAVOK 14/05 Q1010 NOSIG",
      "taf": "TAF LEZL 180800Z 1809/1909 05010KT CAVOK TX14/1815Z TN03/1907Z"
    },
    {
      "icao": "LFBD",
      "alert": "OK",
      "vis_m": 9999,
      "fzfg": false,
      "metar_trigger": false,
      "taf_trigger": false,
      "metar": "METAR LFBD 181300Z AUTO 19006KT 160V230 9999 BKN010 BKN050 11/09 Q1012 NOSIG",
      "taf": "TAF LFBD 181100Z 1812/1918 14005KT 6000 BKN010 TX11/1815Z TN08/1903Z"
    },
    {
      "icao": "LFLL",
      "alert": "OK",
      "vis_m": 550,
      "fzfg": false,
      "metar_trigger": false,
      "taf_trigger": false,
      "metar": "METAR LFLL 181300Z 07003KT 040V100 0550 R35L/0750D R17R/0500D R35R/0650D R17L/1300D FG VV/// 05/05 Q1017 TEMPO 2000 BR OVC001",
      "taf": ""
    },
    {
      "icao": "LFLS",
      "alert": "OK",
      "vis_m": 9999,
      "fzfg": false,
      "metar_trigger": false,
      "taf_trigger": false,
      "metar": "METAR LFLS 181300Z AUTO 09004KT CAVOK 06/04 Q1016 NOSIG",
      "taf": "TAF LFLS 180800Z 1809/1909 08005KT CAVOK"
    },
    {
      "icao": "LFMN",
      "alert": "OK",
      "vis_m": 9999,
      "fzfg": false,
      "metar_trigger": false,
      "taf_trigger": false,
      "metar": "METAR LFMN 181300Z 10028KT 9999 -RA OVC061 15/08 Q1017 TEMPO RA",
      "taf": "TAF LFMN 180800Z 1809/1915 08025KT 9999 OVC060"
    },
    {
      "icao": "LFOB",
      "alert": "OK",
      "vis_m": 9999,
      "fzfg": false,
      "metar_trigger": false,
      "taf_trigger": false,
      "metar": "METAR LFOB 181300Z AUTO 09009KT CAVOK 09/04 Q1016 NOSIG",
      "taf": "TAF LFOB 181100Z 1812/1912 10005KT 9999 FEW045 BKN080"
    },
    {
      "icao": "LFPO",
      "alert": "OK",
      "vis_m": 9999,
      "fzfg": false,
      "metar_trigger": false,
      "taf_trigger": false,
      "metar": "METAR LFPO 181300Z 12006KT CAVOK 08/04 Q1016 NOSIG",
      "taf": "TAF LFPO 181100Z 1812/1918 09005KT CAVOK"
    },
    {
      "icao": "LFSB",
      "alert": "OK",
      "vis_m": 9999,
      "fzfg": false,
      "metar_trigger": false,
      "taf_trigger": false,
      "metar": "METAR LFSB 181300Z AUTO 08006KT 040V120 9999 OVC012 02/M01 Q1019 TEMPO BKN017",
      "taf": "TAF LFSB 181100Z 1812/1912 08005KT 9999 OVC010"
    },
    {
      "icao": "LGAV",
      "alert": "OK",
      "vis_m": 9999,
      "fzfg": false,
      "metar_trigger": false,
      "taf_trigger": false,
      "metar": "METAR LGAV 181250Z 02014KT 340V050 9999 SCT035 07/M02 Q1027 NOSIG",
      "taf": "TAF LGAV 181100Z 1812/1912 03015G25KT 9999 FEW020 SCT030"
    },
    {
      "icao": "LGTS",
      "alert": "OK",
      "vis_m": 9999,
      "fzfg": false,
      "metar_trigger": false,
      "taf_trigger": false,
      "metar": "METAR LGTS 181250Z VRB01KT 9999 FEW020 SCT035 07/M00 Q1030 NOSIG",
      "taf": "TAF LGTS 181100Z 1812/1912 09007KT 9999 FEW015 BKN035"
    },
    {
      "icao": "LHBP",
      "alert": "OK",
      "vis_m": 9999,
      "fzfg": false,
      "metar_trigger": false,
      "taf_trigger": false,
      "metar": "METAR LHBP 181300Z 15004KT CAVOK 00/M06 Q1034 NOSIG",
      "taf": "TAF LHBP 181115Z 1812/1912 VRB03KT CAVOK"
    },
    {
      "icao": "LHDC",
      "alert": "OK",
      "vis_m": 1700,
      "fzfg": true,
      "metar_trigger": false,
      "taf_trigger": false,
      "metar": "METAR LHDC 181245Z AUTO VRB02KT 1700 BR OVC002 M02/M03 Q1035 TEMPO 0500 -SG FZFG VV002",
      "taf": ""
    },
    {
      "icao": "LIBD",
      "alert": "OK",
      "vis_m": 7000,
      "fzfg": false,
      "metar_trigger": false,
      "taf_trigger": false,
      "metar": "METAR LIBD 181250Z 35004KT 300V040 7000 SCT005 11/10 Q1022",
      "taf": "TAF LIBD 181100Z 1812/1912 VRB05KT 2000 BR BKN003"
    },
    {
      "icao": "LIBG",
      "alert": "OK",
      "vis_m": 9999,
      "fzfg": false,
      "metar_trigger": false,
      "taf_trigger": false,
      "metar": "METAR LIBG 181250Z 15005KT 9999 SCT025 14/14 Q1022",
      "taf": "TAF LIBG 181100Z 1812/1821 VRB06KT 9999 FEW020"
    },
    {
      "icao": "LIBP",
      "alert": "OK",
      "vis_m": 9999,
      "fzfg": false,
      "metar_trigger": false,
      "taf_trigger": false,
      "metar": "METAR LIBP 181250Z AUTO 03005KT 9999 BKN012/// 12/10 Q1022",
      "taf": "TAF LIBP 181100Z 1812/1912 VRB06KT 9000 SCT018 BKN040"
    },
    {
      "icao": "LIBR",
      "alert": "OK",
      "vis_m": 9999,
      "fzfg": false,
      "metar_trigger": false,
      "taf_trigger": false,
      "metar": "METAR LIBR 181250Z 09006KT 9999 SCT035 14/09 Q1022",
      "taf": "TAF LIBR 181100Z 1812/1912 17006KT 9999 FEW030"
    },
    {
      "icao": "LICA",
      "alert": "OK",
      "vis_m": 9999,
      "fzfg": false,
      "metar_trigger": false,
      "taf_trigger": false,
      "metar": "METAR LICA 181250Z AUTO 06015KT 9999 -RA BKN018/// BKN047/// 13/11 Q1019",
      "taf": "TAF LICA 181100Z 1812/1912 08016KT 9999 BKN020"
    },
    {
      "icao": "LICC",
      "alert": "OK",
      "vis_m": 9999,
      "fzfg": false,
      "metar_trigger": false,
      "taf_trigger": false,
      "metar": "METAR LICC 181250Z 08011KT 9999 FEW015 SCT030 16/15 Q1017",
      "taf": "TAF LICC 181100Z 1812/1912 08015KT 9999 SCT015 BKN040"
    },
    {
      "icao": "LICJ",
      "alert": "OK",
      "vis_m": 9999,
      "fzfg": false,
      "metar_trigger": false,
      "taf_trigger": false,
      "metar": "METAR LICJ 181250Z 30003KT 9999 FEW040 17/11 Q1015",
      "taf": "TAF LICJ 181100Z 1812/1912 06012KT 9999 SCT040"
    },
    {
      "icao": "LIMC",
      "alert": "OK",
      "vis_m": 9999,
      "fzfg": false,
      "metar_trigger": false,
      "taf_trigger": false,
      "metar": "METAR LIMC 181250Z 11003KT 9999 BKN085 10/03 Q1024 NOSIG",
      "taf": "TAF LIMC 181100Z 1812/1918 VRB04KT 9999 BKN050"
    },
    {
      "icao": "LIME",
      "alert": "OK",
      "vis_m": 9999,
      "fzfg": false,
      "metar_trigger": false,
      "taf_trigger": false,
      "metar": "METAR LIME 181250Z VRB02KT 9999 BKN090 10/04 Q1024 NOSIG",
      "taf": "TAF LIME 181100Z 1812/1912 VRB03KT 7000 BKN070"
    },
    {
      "icao": "LIMF",
      "alert": "OK",
      "vis_m": 7000,
      "fzfg": false,
      "metar_trigger": false,
      "taf_trigger": false,
      "metar": "METAR LIMF 181250Z 06004KT 7000 SCT030 OVC050 08/06 Q1024",
      "taf": "TAF LIMF 181100Z 1812/1912 30007KT 4000 -RA SCT020 BKN050"
    },
    {
      "icao": "LIMJ",
      "alert": "OK",
      "vis_m": 9999,
      "fzfg": false,
      "metar_trigger": false,
      "taf_trigger": false,
      "metar": "METAR LIMJ 181250Z 02012KT CAVOK 13/07 Q1020",
      "taf": "TAF LIMJ 181100Z 1812/1912 02014KT 9999 FEW040"
    },
    {
      "icao": "LIPE",
      "alert": "OK",
      "vis_m": 5000,
      "fzfg": false,
      "metar_trigger": false,
      "taf_trigger": false,
      "metar": "METAR LIPE 181250Z VRB02KT 5000 BR BKN005 08/07 Q1024",
      "taf": "TAF LIPE 181100Z 1812/1912 02005KT 7000 BKN035"
    },
    {
      "icao": "LIPH",
      "alert": "OK",
      "vis_m": 9999,
      "fzfg": false,
      "metar_trigger": false,
      "taf_trigger": false,
      "metar": "METAR LIPH 181250Z 07009KT CAVOK 09/01 Q1025",
      "taf": "TAF LIPH 181100Z 1812/1912 04007KT 9999 SCT060"
    },
    {
      "icao": "LIPQ",
      "alert": "OK",
      "vis_m": 9999,
      "fzfg": false,
      "metar_trigger": false,
      "taf_trigger": false,
      "metar": "METAR LIPQ 181250Z AUTO 08006KT 050V110 9999 OVC090/// 09/M02 Q1026",
      "taf": "TAF LIPQ 181100Z 1812/1912 08009KT 9999 SCT060"
    },
    {
      "icao": "LIPR",
      "alert": "OK",
      "vis_m": 2200,
      "fzfg": false,
      "metar_trigger": false,
      "taf_trigger": false,
      "metar": "METAR LIPR 181250Z AUTO 30004KT 2200 -DZRA BR OVC004/// 09/08 Q1023",
      "taf": "TAF LIPR 181100Z 1812/1912 VRB06KT 7000 SCT025"
    },
    {
      "icao": "LIPX",
      "alert": "OK",
      "vis_m": 9999,
      "fzfg": false,
      "metar_trigger": false,
      "taf_trigger": false,
      "metar": "METAR LIPX 181250Z 10007KT 9999 FEW050 BKN080 11/01 Q1024",
      "taf": "TAF LIPX 181100Z 1812/1912 10008KT 9999 BKN070"
    },
    {
      "icao": "LIPY",
      "alert": "OK",
      "vis_m": 9999,
      "fzfg": false,
      "metar_trigger": false,
      "taf_trigger": false,
      "metar": "METAR LIPY 181250Z AUTO 08004KT 9999 SCT068/// SCT086/// BKN120/// 11/10 Q1023",
      "taf": "TAF LIPY 181100Z 1812/1912 09007KT 8000 SCT030"
    },
    {
      "icao": "LIPZ",
      "alert": "OK",
      "vis_m": 9999,
      "fzfg": false,
      "metar_trigger": false,
      "taf_trigger": false,
      "metar": "METAR LIPZ 181250Z 07009KT 9999 FEW050 08/02 Q1025 NOSIG",
      "taf": "TAF LIPZ 181100Z 1812/1918 05010KT 9999 SCT050"
    },
    {
      "icao": "LIRF",
      "alert": "OK",
      "vis_m": 9999,
      "fzfg": false,
      "metar_trigger": false,
      "taf_trigger": false,
      "metar": "METAR LIRF 181250Z 07007KT CAVOK 15/06 Q1018 NOSIG",
      "taf": "TAF LIRF 181100Z 1812/1918 06010KT 9999 SCT040"
    },
    {
      "icao": "LIRN",
      "alert": "OK",
      "vis_m": 9999,
      "fzfg": false,
      "metar_trigger": false,
      "taf_trigger": false,
      "metar": "METAR LIRN 181250Z 04010KT CAVOK 15/07 Q1019 NOSIG",
      "taf": "TAF LIRN 181100Z 1812/1912 05010KT 9999 SCT040"
    },
    {
      "icao": "LIRP",
      "alert": "OK",
      "vis_m": 9999,
      "fzfg": false,
      "metar_trigger": false,
      "taf_trigger": false,
      "metar": "METAR LIRP 181245Z 12008KT CAVOK 14/07 Q1020",
      "taf": "TAF LIRP 181100Z 1812/1912 10013KT 9999 BKN080"
    },
    {
      "icao": "LIRZ",
      "alert": "OK",
      "vis_m": 9999,
      "fzfg": false,
      "metar_trigger": false,
      "taf_trigger": false,
      "metar": "METAR LIRZ 181250Z AUTO 03010KT 9999 NCD 15/05 Q1019",
      "taf": "TAF LIRZ 181100Z 1812/1912 03014KT CAVOK"
    },
    {
      "icao": "LJLJ",
      "alert": "OK",
      "vis_m": 9999,
      "fzfg": false,
      "metar_trigger": false,
      "taf_trigger": false,
      "metar": "METAR LJLJ 181300Z 09001KT 9999 FEW017 SCT029 04/M03 Q1029 NOSIG",
      "taf": "TAF LJLJ 181100Z 1812/1912 12005KT 9999 SCT015 BKN025"
    },
    {
      "icao": "LKMT",
      "alert": "OK",
      "vis_m": 300,
      "fzfg": true,
      "metar_trigger": false,
      "taf_trigger": false,
      "metar": "METAR LKMT 181300Z 00000KT 0300 R22/0275N R04/0325N FZFG VV002 M03/M03 Q1032 NOSIG",
      "taf": "TAF LKMT 181100Z 1812/1912 VRB02KT 0300 FZFG VV002"
    },
    {
      "icao": "LKPR",
      "alert": "OK",
      "vis_m": 9999,
      "fzfg": false,
      "metar_trigger": false,
      "taf_trigger": false,
      "metar": "METAR LKPR 181300Z 11015KT CAVOK 04/M03 Q1025 NOSIG",
      "taf": "TAF LKPR 181100Z 1812/1918 13012KT CAVOK"
    },
    {
      "icao": "LLBG",
      "alert": "OK",
      "vis_m": 8000,
      "fzfg": false,
      "metar_trigger": false,
      "taf_trigger": false,
      "metar": "METAR LLBG 181250Z 20010KT 8000 -RA FEW015 FEW027TCU 15/12 Q1014 TEMPO 7000 RA FEW020TCU RMK BKN068",
      "taf": "TAF LLBG 181102Z 1812/1912 23012KT 9999 SCT030"
    },
    {
      "icao": "LMML",
      "alert": "OK",
      "vis_m": 9999,
      "fzfg": false,
      "metar_trigger": false,
      "taf_trigger": false,
      "metar": "METAR LMML 181315Z 11014KT 9999 FEW013 17/13 Q1016 NOSIG",
      "taf": "TAF LMML 181100Z 1812/1912 12012KT 9999 SCT018"
    },
    {
      "icao": "LOWW",
      "alert": "OK",
      "vis_m": 9999,
      "fzfg": false,
      "metar_trigger": false,
      "taf_trigger": false,
      "metar": "METAR LOWW 181250Z 14013KT 9999 FEW017 BKN019 01/M03 Q1031 NOSIG",
      "taf": "TAF LOWW 181115Z 1812/1918 14013KT 9999 FEW020 SCT030 TX01/1812Z TNM05/1907Z"
    },
    {
      "icao": "LPFR",
      "alert": "OK",
      "vis_m": 9999,
      "fzfg": false,
      "metar_trigger": false,
      "taf_trigger": false,
      "metar": "METAR LPFR 181300Z 05011KT 9999 FEW025 SCT035 14/05 Q1010",
      "taf": "TAF LPFR 181100Z 1812/1912 02012KT 9999 FEW035"
    },
    {
      "icao": "LPMA",
      "alert": "OK",
      "vis_m": 9999,
      "fzfg": false,
      "metar_trigger": false,
      "taf_trigger": false,
      "metar": "METAR LPMA 181300Z 02018G32KT 290V050 9999 SCT015 17/08 Q1019",
      "taf": "TAF LPMA 181100Z 1812/1912 02017KT 9999 SCT015"
    },
    {
      "icao": "LPPR",
      "alert": "OK",
      "vis_m": 9999,
      "fzfg": false,
      "metar_trigger": false,
      "taf_trigger": false,
      "metar": "METAR LPPR 181300Z 30004KT 250V350 CAVOK 11/05 Q1015",
      "taf": "TAF LPPR 181100Z 1812/1912 34007KT CAVOK"
    },
    {
      "icao": "LPPS",
      "alert": "OK",
      "vis_m": 9999,
      "fzfg": false,
      "metar_trigger": false,
      "taf_trigger": false,
      "metar": "METAR LPPS 181300Z 02018KT 9999 SCT015 16/09 Q1019",
      "taf": "TAF LPPS 181100Z 1812/1918 01018KT 9999 SCT015"
    },
    {
      "icao": "LPPT",
      "alert": "OK",
      "vis_m": 9999,
      "fzfg": false,
      "metar_trigger": false,
      "taf_trigger": false,
      "metar": "METAR LPPT 181300Z 06008KT 9999 FEW025 09/06 Q1013",
      "taf": "TAF LPPT 181100Z 1812/1918 02005KT 9999 FEW030"
    },
    {
      "icao": "LQBK",
      "alert": "OK",
      "vis_m": 9999,
      "fzfg": false,
      "metar_trigger": false,
      "taf_trigger": false,
      "metar": "METAR LQBK 181300Z 33004KT 310V010 9999 BKN017 OVC027 00/M03 Q1032 NOSIG",
      "taf": "TAF LQBK 181100Z 1812/1912 34006KT 9999 BKN025 TX01/1813Z TNM06/1906Z"
    },
    {
      "icao": "LQSA",
      "alert": "OK",
      "vis_m": 7000,
      "fzfg": false,
      "metar_trigger": false,
      "taf_trigger": false,
      "metar": "METAR LQSA 181300Z VRB01KT 7000 FEW010 BKN025 02/01 Q1027 NOSIG",
      "taf": "TAF LQSA 181100Z 1812/1912 VRB02KT 2000 BR BKN006 TX03/1813Z TNM06/1906Z"
    },
    {
      "icao": "LQTZ",
      "alert": "OK",
      "vis_m": 9999,
      "fzfg": false,
      "metar_trigger": false,
      "taf_trigger": false,
      "metar": "METAR LQTZ 181300Z VRB03KT 9999 OVC025 02/M02 Q1030",
      "taf": "TAF LQTZ 181100Z 1812/1912 10008KT 9999 BKN025 TX02/1814Z TNM05/1905Z"
    },
    {
      "icao": "LRBC",
      "alert": "OK",
      "vis_m": 9999,
      "fzfg": false,
      "metar_trigger": false,
      "taf_trigger": false,
      "metar": "METAR LRBC 181300Z 35008KT CAVOK M06/M12 Q1038",
      "taf": "TAF LRBC 181100Z 1812/1821 35010KT CAVOK"
    },
    {
      "icao": "LRBS",
      "alert": "OK",
      "vis_m": 8000,
      "fzfg": false,
      "metar_trigger": false,
      "taf_trigger": false,
      "metar": "METAR LRBS 181300Z 00000KT 8000 BKN024 M05/M10 Q1038 NOSIG",
      "taf": "TAF LRBS 181100Z 1812/1912 VRB04KT 9999 BKN025"
    },
    {
      "icao": "LRBV",
      "alert": "OK",
      "vis_m": 9999,
      "fzfg": false,
      "metar_trigger": false,
      "taf_trigger": false,
      "metar": "METAR LRBV 181300Z 09009KT CAVOK M03/M09 Q1033",
      "taf": "TAF LRBV 181100Z 1812/1821 08008KT CAVOK"
    },
    {
      "icao": "LRCL",
      "alert": "OK",
      "vis_m": 9999,
      "fzfg": false,
      "metar_trigger": false,
      "taf_trigger": false,
      "metar": "METAR LRCL 181300Z 08008KT CAVOK M02/M09 Q1034",
      "taf": "TAF LRCL 181100Z 1812/1821 05005KT CAVOK"
    },
    {
      "icao": "LRCV",
      "alert": "OK",
      "vis_m": 9999,
      "fzfg": false,
      "metar_trigger": false,
      "taf_trigger": false,
      "metar": "METAR LRCV 181300Z 20003KT 160V250 9999 SCT015 M06/M10 Q1037",
      "taf": "TAF LRCV 181100Z 1812/1821 15005KT 9999 BKN020"
    },
    {
      "icao": "LRIA",
      "alert": "OK",
      "vis_m": 9999,
      "fzfg": false,
      "metar_trigger": false,
      "taf_trigger": false,
      "metar": "METAR LRIA 181300Z 30006KT 260V340 CAVOK M09/M14 Q1040",
      "taf": "TAF LRIA 181100Z 1812/1821 30006KT CAVOK"
    },
    {
      "icao": "LROP",
      "alert": "OK",
      "vis_m": 8000,
      "fzfg": false,
      "metar_trigger": false,
      "taf_trigger": false,
      "metar": "METAR LROP 181300Z 28004KT 250V320 8000 SCT020 BKN035 M05/M12 Q1037 NOSIG",
      "taf": "TAF LROP 181100Z 1812/1912 VRB04KT 9999 BKN030"
    },
    {
      "icao": "LRSB",
      "alert": "OK",
      "vis_m": 9999,
      "fzfg": false,
      "metar_trigger": false,
      "taf_trigger": false,
      "metar": "METAR LRSB 181300Z 10007KT 070V130 CAVOK M02/M09 Q1032",
      "taf": "TAF LRSB 181100Z 1812/1912 11010KT CAVOK"
    },
    {
      "icao": "LRSM",
      "alert": "OK",
      "vis_m": 9999,
      "fzfg": false,
      "metar_trigger": false,
      "taf_trigger": false,
      "metar": "METAR LRSM 181300Z 11004KT CAVOK 01/M08 Q1034",
      "taf": "TAF LRSM 181100Z 1812/1821 13006KT CAVOK"
    },
    {
      "icao": "LRSV",
      "alert": "OK",
      "vis_m": 9999,
      "fzfg": false,
      "metar_trigger": false,
      "taf_trigger": false,
      "metar": "METAR LRSV 181300Z 05005KT CAVOK M09/M13 Q1036",
      "taf": "TAF LRSV 181100Z 1812/1821 VRB04KT 9999 BKN030"
    },
    {
      "icao": "LRTM",
      "alert": "OK",
      "vis_m": 6000,
      "fzfg": false,
      "metar_trigger": false,
      "taf_trigger": false,
      "metar": "METAR LRTM 181300Z 23003KT 6000 NSC M07/M11 Q1035",
      "taf": "TAF LRTM 181100Z 1812/1821 VRB04KT 7000 NSC"
    },
    {
      "icao": "LRTR",
      "alert": "OK",
      "vis_m": 9999,
      "fzfg": false,
      "metar_trigger": false,
      "taf_trigger": false,
      "metar": "METAR LRTR 181300Z 03003KT CAVOK M00/M06 Q1034",
      "taf": "TAF LRTR 181100Z 1812/1912 VRB04KT CAVOK"
    },
    {
      "icao": "LTAC",
      "alert": "OK",
      "vis_m": 9999,
      "fzfg": false,
      "metar_trigger": false,
      "taf_trigger": false,
      "metar": "METAR LTAC 181250Z 32011KT 9999 SCT040 SCT100 M01/M11 Q1019 NOSIG RMK RWY21C 30013KT RWY03L 32009KT 290V350 RWY21R 30011KT 260V320 RWY03R 31010KT 280V340 RWY21L 30013KT",
      "taf": "TAF LTAC 181040Z 1812/1912 VRB02KT 9999 SCT040 SCT100"
    },
    {
      "icao": "LTFM",
      "alert": "OK",
      "vis_m": 9999,
      "fzfg": false,
      "metar_trigger": false,
      "taf_trigger": false,
      "metar": "METAR LTFM 181250Z 36028KT 9999 BKN008 BKN022 00/M02 Q1030 RESHSNRA NOSIG RMK RWY17L 36025KT RWY34L 35024KT RWY16R 36025KT RWY36 36025KT RWY18 01025KT",
      "taf": "TAF LTFM 181040Z 1812/1918 36024G36KT 8000 -SHSN SCT012 BKN025"
    },
    {
      "icao": "LUKK",
      "alert": "OK",
      "vis_m": 9999,
      "fzfg": false,
      "metar_trigger": false,
      "taf_trigger": false,
      "metar": "METAR LUKK 181300Z 03013KT 9999 OVC013 M08/M11 Q1038 TEMPO BKN015",
      "taf": "TAF LUKK 181126Z 1812/1912 36009KT 9999 SCT025"
    },
    {
      "icao": "LWOH",
      "alert": "OK",
      "vis_m": 9999,
      "fzfg": false,
      "metar_trigger": false,
      "taf_trigger": false,
      "metar": "METAR LWOH 181250Z 34008KT 270V040 9999 BKN040 07/M02 Q1025",
      "taf": "TAF LWOH 181120Z 1812/1912 35006KT 9999 SCT040"
    },
    {
      "icao": "LWSK",
      "alert": "OK",
      "vis_m": null,
      "fzfg": false,
      "metar_trigger": false,
      "taf_trigger": false,
      "metar": "",
      "taf": "TAF LWSK 181120Z 1812/1912 02008KT 9999 SCT040"
    },
    {
      "icao": "LYBE",
      "alert": "OK",
      "vis_m": 9999,
      "fzfg": false,
      "metar_trigger": false,
      "taf_trigger": false,
      "metar": "METAR LYBE 181300Z 12010KT CAVOK 01/M06 Q1033 NOSIG",
      "taf": "TAF LYBE 181100Z 1812/1912 11012KT CAVOK TX01/1813Z TNM05/1906Z"
    },
    {
      "icao": "LYNI",
      "alert": "OK",
      "vis_m": 9999,
      "fzfg": false,
      "metar_trigger": false,
      "taf_trigger": false,
      "metar": "METAR LYNI 181300Z 05008KT 010V080 CAVOK 01/M07 Q1032 NOSIG",
      "taf": "TAF LYNI 181100Z 1812/1912 05007KT CAVOK TX01/1813Z TNM07/1906Z"
    },
    {
      "icao": "LYPG",
      "alert": "OK",
      "vis_m": 9999,
      "fzfg": false,
      "metar_trigger": false,
      "taf_trigger": false,
      "metar": "METAR LYPG 181300Z 18008KT 140V200 CAVOK 11/M01 Q1025 NOSIG",
      "taf": "TAF LYPG 181100Z 1812/1912 16005KT CAVOK TX11/1812Z TNM02/1906Z"
    },
    {
      "icao": "LZIB",
      "alert": "OK",
      "vis_m": 9999,
      "fzfg": false,
      "metar_trigger": false,
      "taf_trigger": false,
      "metar": "METAR LZIB 181300Z 13009KT 9999 FEW017 02/M02 Q1032 NOSIG",
      "taf": "TAF LZIB 181115Z 1812/1912 09005KT 9999 FEW020"
    },
    {
      "icao": "LZKZ",
      "alert": "OK",
      "vis_m": 9999,
      "fzfg": false,
      "metar_trigger": false,
      "taf_trigger": false,
      "metar": "METAR LZKZ 181300Z VRB01KT CAVOK 02/M06 Q1034 NOSIG",
      "taf": "TAF LZKZ 181115Z 1812/1912 VRB02KT CAVOK"
    },
    {
      "icao": "LZTT",
      "alert": "OK",
      "vis_m": 9999,
      "fzfg": false,
      "metar_trigger": false,
      "taf_trigger": false,
      "metar": "METAR LZTT 181300Z 00000KT CAVOK 01/M07 Q1030 NOSIG",
      "taf": "TAF LZTT 181115Z 1812/1912 VRB02KT CAVOK"
    },
    {
      "icao": "OEJN",
      "alert": "OK",
      "vis_m": 9999,
      "fzfg": false,
      "metar_trigger": false,
      "taf_trigger": false,
      "metar": "METAR OEJN 181300Z 30010KT 9999 FEW040 28/15 Q1011 NOSIG",
      "taf": "TAF OEJN 181100Z 1812/1918 30010KT 9999 SCT040"
    },
    {
      "icao": "OEMA",
      "alert": "OK",
      "vis_m": 9999,
      "fzfg": false,
      "metar_trigger": false,
      "taf_trigger": false,
      "metar": "METAR OEMA 181300Z 20010KT CAVOK 26/06 Q1012 NOSIG",
      "taf": "TAF OEMA 181100Z 1812/1918 28010KT 7000 NSC"
    },
    {
      "icao": "OJAI",
      "alert": "OK",
      "vis_m": 3500,
      "fzfg": false,
      "metar_trigger": false,
      "taf_trigger": false,
      "metar": "METAR OJAI 181300Z 26011KT 3500 -RA SCT025 SCT030 10/08 Q1014 NOSIG",
      "taf": "TAF OJAI 181042Z 1812/1918 27012KT 3000 RA BR SCT020 BKN025"
    },
    {
      "icao": "OMAA",
      "alert": "OK",
      "vis_m": 9999,
      "fzfg": false,
      "metar_trigger": false,
      "taf_trigger": false,
      "metar": "METAR OMAA 181300Z 30008KT 270V340 CAVOK 21/12 Q1015 NOSIG",
      "taf": "TAF OMAA 181100Z 1812/1918 33010KT 9999 FEW040"
    },
    {
      "icao": "OMDB",
      "alert": "OK",
      "vis_m": 9999,
      "fzfg": false,
      "metar_trigger": false,
      "taf_trigger": false,
      "metar": "METAR OMDB 181300Z 30010KT 9999 FEW040 22/11 Q1014 NOSIG",
      "taf": "TAF OMDB 181100Z 1812/1918 28010KT 8000 SCT040"
    },
    {
      "icao": "UAAA",
      "alert": "OK",
      "vis_m": 5000,
      "fzfg": false,
      "metar_trigger": false,
      "taf_trigger": false,
      "metar": "METAR UAAA 181300Z 00000MPS 5000 BR FEW100 SCT200 M14/M18 Q1030 NOSIG",
      "taf": "TAF UAAA 181106Z 1812/1912 34003MPS 3100 BR FU SCT050 BKN100 TXM09/1908Z TNM17/1903Z"
    },
    {
      "icao": "UBBB",
      "alert": "OK",
      "vis_m": 9999,
      "fzfg": false,
      "metar_trigger": false,
      "taf_trigger": false,
      "metar": "METAR UBBB 181300Z 03010KT 9999 SCT028 06/01 Q1028 NOSIG",
      "taf": "TAF UBBB 181057Z 1812/1912 03010KT 9999 SCT012 OVC025 TX06/1812Z TN01/1901Z"
    },
    {
      "icao": "UDSG",
      "alert": "OK",
      "vis_m": 5000,
      "fzfg": false,
      "metar_trigger": false,
      "taf_trigger": false,
      "metar": "METAR UDSG 181300Z 30001KT 5000 BR BKN033 M06/M08 Q1017 NOSIG",
      "taf": "TAF UDSG 181058Z 1812/1912 VRB06KT 5000 BR BKN030"
    },
    {
      "icao": "UDYZ",
      "alert": "OK",
      "vis_m": 7000,
      "fzfg": false,
      "metar_trigger": false,
      "taf_trigger": false,
      "metar": "METAR UDYZ 181300Z 25005KT 7000 BKN033 01/M03 Q1019 NOSIG",
      "taf": "TAF UDYZ 181100Z 1812/1912 24006KT 6000 BKN030"
    },
    {
      "icao": "UGKO",
      "alert": "OK",
      "vis_m": 9999,
      "fzfg": false,
      "metar_trigger": false,
      "taf_trigger": false,
      "metar": "METAR UGKO 181300Z 26005KT 9999 BKN025 05/01 Q1021 NOSIG",
      "taf": "TAF UGKO 181100Z 1812/1912 25010KT 9999 BKN050 TX05/1812Z TN00/1823Z"
    }
  ]
}