{
  "ts_utc": "2026-06-11T00:19:28Z",
  "threshold_m": 150,
  "source": "stations_override.txt (ICAO list) + aviationweather.gov (METAR/TAF raw)",
  "station_count": 159,
  "stations": [
    {
      "icao": "BIKF",
      "alert": "OK",
      "vis_m": 9999,
      "fzfg": false,
      "metar_trigger": false,
      "taf_trigger": false,
      "metar": "METAR BIKF 110000Z 04003KT CAVOK 09/07 Q1003",
      "taf": "TAF BIKF 102239Z 1100/1200 12005KT 9999 FEW020 BKN035 TX14/1115Z TN05/1103Z"
    },
    {
      "icao": "BKPR",
      "alert": "OK",
      "vis_m": 9999,
      "fzfg": false,
      "metar_trigger": false,
      "taf_trigger": false,
      "metar": "METAR BKPR 110000Z VRB01KT CAVOK 16/13 Q1015 NOSIG",
      "taf": "TAF BKPR 102330Z 1100/1124 VRB05KT CAVOK"
    },
    {
      "icao": "EBCI",
      "alert": "OK",
      "vis_m": 9999,
      "fzfg": false,
      "metar_trigger": false,
      "taf_trigger": false,
      "metar": "METAR EBCI 102350Z 23007KT CAVOK 10/07 Q1020 NOSIG",
      "taf": "TAF EBCI 102310Z 1100/1206 24008KT 9999 FEW020 SCT040"
    },
    {
      "icao": "EDDB",
      "alert": "OK",
      "vis_m": 9999,
      "fzfg": false,
      "metar_trigger": false,
      "taf_trigger": false,
      "metar": "METAR EDDB 102350Z AUTO 14004KT CAVOK 12/11 Q1015 NOSIG",
      "taf": "TAF EDDB 102300Z 1100/1124 25005KT CAVOK"
    },
    {
      "icao": "EDDH",
      "alert": "OK",
      "vis_m": 9999,
      "fzfg": false,
      "metar_trigger": false,
      "taf_trigger": false,
      "metar": "METAR EDDH 102350Z AUTO 00000KT CAVOK 09/08 Q1017 NOSIG",
      "taf": "TAF EDDH 102300Z 1100/1206 VRB02KT 9999 FEW035"
    },
    {
      "icao": "EDDK",
      "alert": "OK",
      "vis_m": 9999,
      "fzfg": false,
      "metar_trigger": false,
      "taf_trigger": false,
      "metar": "METAR EDDK 102350Z AUTO 35002KT 9999 -SHRA FEW016 BKN035 FEW///CB 10/10 Q1019 NOSIG",
      "taf": "TAF EDDK 102300Z 1100/1206 VRB03KT 9999 SCT040"
    },
    {
      "icao": "EDDN",
      "alert": "OK",
      "vis_m": 9999,
      "fzfg": false,
      "metar_trigger": false,
      "taf_trigger": false,
      "metar": "METAR EDDN 102350Z AUTO 20005KT 9999 BKN027 BKN039 11/09 Q1020",
      "taf": "TAF EDDN 102300Z 1100/1124 22004KT 9999 BKN040"
    },
    {
      "icao": "EDDS",
      "alert": "OK",
      "vis_m": 9999,
      "fzfg": false,
      "metar_trigger": false,
      "taf_trigger": false,
      "metar": "METAR EDDS 102350Z AUTO VRB01KT CAVOK 11/07 Q1020",
      "taf": "TAF EDDS 102300Z 1100/1124 23005KT 9999 FEW045"
    },
    {
      "icao": "EDFH",
      "alert": "OK",
      "vis_m": 9999,
      "fzfg": false,
      "metar_trigger": false,
      "taf_trigger": false,
      "metar": "METAR EDFH 102350Z 24005KT CAVOK 08/07 Q1019",
      "taf": "TAF EDFH 102300Z 1100/1124 26005KT 9999 FEW035"
    },
    {
      "icao": "EDJA",
      "alert": "OK",
      "vis_m": 9999,
      "fzfg": false,
      "metar_trigger": false,
      "taf_trigger": false,
      "metar": "METAR EDJA 102350Z AUTO 21006KT 9999 // FEW054/// SCT072/// 07/06 Q1021",
      "taf": "TAF EDJA 101700Z 1018/1103 22008KT 9999 SCT020 BKN040"
    },
    {
      "icao": "EDLW",
      "alert": "OK",
      "vis_m": 9999,
      "fzfg": false,
      "metar_trigger": false,
      "taf_trigger": false,
      "metar": "METAR EDLW 102350Z AUTO 22005KT 9999 // FEW067/// OVC085/// 10/09 Q1018",
      "taf": "TAF EDLW 101700Z 1018/1118 20004KT 9999 SCT030"
    },
    {
      "icao": "EDNY",
      "alert": "OK",
      "vis_m": 9999,
      "fzfg": false,
      "metar_trigger": false,
      "taf_trigger": false,
      "metar": "METAR EDNY 102350Z AUTO VRB01KT 9999 // FEW065/// OVC094/// 09/09 Q1022",
      "taf": "TAF EDNY 101700Z 1018/1103 VRB03KT 9999 SCT020 BKN045"
    },
    {
      "icao": "EDSB",
      "alert": "OK",
      "vis_m": 9999,
      "fzfg": false,
      "metar_trigger": false,
      "taf_trigger": false,
      "metar": "METAR EDSB 102350Z AUTO 23004KT 200V270 9999 // SCT053/// BKN100/// BKN170/// 11/10 Q1021",
      "taf": "TAF EDSB 102300Z 1100/1124 23007KT 9999 FEW045"
    },
    {
      "icao": "EETN",
      "alert": "OK",
      "vis_m": 9999,
      "fzfg": false,
      "metar_trigger": false,
      "taf_trigger": false,
      "metar": "METAR EETN 102350Z 19005KT CAVOK 10/09 Q1018",
      "taf": ""
    },
    {
      "icao": "EFTU",
      "alert": "OK",
      "vis_m": 9999,
      "fzfg": false,
      "metar_trigger": false,
      "taf_trigger": false,
      "metar": "METAR EFTU 102350Z AUTO 18006KT 9999 FEW009 12/11 Q1015",
      "taf": "TAF EFTU 102329Z 1100/1124 18005KT 9999 FEW010"
    },
    {
      "icao": "EGBB",
      "alert": "OK",
      "vis_m": 9999,
      "fzfg": false,
      "metar_trigger": false,
      "taf_trigger": false,
      "metar": "METAR EGBB 102350Z 23004KT 190V260 CAVOK 08/07 Q1019",
      "taf": "TAF EGBB 102300Z 1100/1124 20005KT 9999 SCT045"
    },
    {
      "icao": "EGGP",
      "alert": "OK",
      "vis_m": 9999,
      "fzfg": false,
      "metar_trigger": false,
      "taf_trigger": false,
      "metar": "METAR EGGP 102350Z 22004KT CAVOK 11/08 Q1018",
      "taf": "TAF EGGP 102302Z 1100/1124 19006KT 9999 FEW040"
    },
    {
      "icao": "EGGW",
      "alert": "OK",
      "vis_m": 9999,
      "fzfg": false,
      "metar_trigger": false,
      "taf_trigger": false,
      "metar": "METAR EGGW 102350Z AUTO 24005KT 9999 NCD 09/08 Q1019",
      "taf": "TAF EGGW 102255Z 1100/1124 22005KT CAVOK"
    },
    {
      "icao": "EGKK",
      "alert": "OK",
      "vis_m": 9999,
      "fzfg": false,
      "metar_trigger": false,
      "taf_trigger": false,
      "metar": "METAR EGKK 102350Z 22003KT CAVOK 10/08 Q1020",
      "taf": "TAF EGKK 102259Z 1100/1206 26005KT 9999 FEW040"
    },
    {
      "icao": "EGNM",
      "alert": "OK",
      "vis_m": 9999,
      "fzfg": false,
      "metar_trigger": false,
      "taf_trigger": false,
      "metar": "METAR EGNM 102350Z 24005KT CAVOK 08/06 Q1017",
      "taf": "TAF EGNM 102301Z 1100/1124 24005KT 9999 FEW040"
    },
    {
      "icao": "EGPD",
      "alert": "OK",
      "vis_m": 9999,
      "fzfg": false,
      "metar_trigger": false,
      "taf_trigger": false,
      "metar": "METAR EGPD 102350Z COR AUTO VRB02KT 9999 NCD 08/06 Q1012 NOSIG",
      "taf": "TAF EGPD 102254Z 1100/1124 23005KT 9999 FEW045"
    },
    {
      "icao": "EGPF",
      "alert": "OK",
      "vis_m": 9999,
      "fzfg": false,
      "metar_trigger": false,
      "taf_trigger": false,
      "metar": "METAR EGPF 102350Z AUTO /////KT 9999 NCD 09/07 Q1014",
      "taf": "TAF EGPF 102258Z 1100/1124 20006KT 9999 SCT030"
    },
    {
      "icao": "EHBK",
      "alert": "OK",
      "vis_m": 9999,
      "fzfg": false,
      "metar_trigger": false,
      "taf_trigger": false,
      "metar": "METAR EHBK 102355Z AUTO 24004KT 200V290 9999 -SHRA FEW003 SCT020 BKN024 10/09 Q1019",
      "taf": "TAF EHBK 102310Z 1100/1206 21005KT 9999 BKN035"
    },
    {
      "icao": "EHEH",
      "alert": "OK",
      "vis_m": 9999,
      "fzfg": false,
      "metar_trigger": false,
      "taf_trigger": false,
      "metar": "METAR EHEH 102325Z AUTO 21003KT 9999 BKN110 OVC180 08/08 Q1018 BLU",
      "taf": "TAF EHEH 102335Z 1100/1206 21005KT CAVOK"
    },
    {
      "icao": "EKBI",
      "alert": "OK",
      "vis_m": 9999,
      "fzfg": false,
      "metar_trigger": false,
      "taf_trigger": false,
      "metar": "METAR EKBI 102350Z AUTO 00000KT 9999 -RA FG FEW003/// 05/05 Q1016",
      "taf": "TAF EKBI 102327Z 1100/1124 VRB03KT 9999 SCT030"
    },
    {
      "icao": "EKCH",
      "alert": "OK",
      "vis_m": 9999,
      "fzfg": false,
      "metar_trigger": false,
      "taf_trigger": false,
      "metar": "METAR EKCH 102350Z AUTO 24003KT 9999 FEW220/// 11/08 Q1016 NOSIG",
      "taf": "TAF EKCH 102327Z 1100/1124 27006KT 9999 SCT030"
    },
    {
      "icao": "ENAL",
      "alert": "OK",
      "vis_m": 9999,
      "fzfg": false,
      "metar_trigger": false,
      "taf_trigger": false,
      "metar": "METAR ENAL 102350Z AUTO 19010KT 9999 SCT036/// 11/05 Q1008",
      "taf": "TAF ENAL 102300Z 1100/1109 20009KT 9999 FEW030"
    },
    {
      "icao": "ENBR",
      "alert": "OK",
      "vis_m": 9999,
      "fzfg": false,
      "metar_trigger": false,
      "taf_trigger": false,
      "metar": "METAR ENBR 102350Z 12003KT 100V160 9999 SCT017 BKN026 09/07 Q1011 RMK WIND 1200FT 22010KT",
      "taf": "TAF ENBR 102300Z 1100/1124 24007KT 9999 -SHRA FEW015TCU BKN030"
    },
    {
      "icao": "ENGM",
      "alert": "OK",
      "vis_m": 9999,
      "fzfg": false,
      "metar_trigger": false,
      "taf_trigger": false,
      "metar": "METAR ENGM 102350Z 20008KT 9999 -SHRA BKN041 09/07 Q1010",
      "taf": "TAF ENGM 102300Z 1100/1124 18007KT 9999 FEW020 SCT040"
    },
    {
      "icao": "ENHD",
      "alert": "OK",
      "vis_m": 9999,
      "fzfg": false,
      "metar_trigger": false,
      "taf_trigger": false,
      "metar": "METAR ENHD 102350Z AUTO 19004KT 160V220 9999 FEW020/// SCT033/// BKN046/// 10/07 Q1012 RERA",
      "taf": "TAF ENHD 101400Z 1015/1022 27012KT 9999 -SHRA FEW015TCU SCT025"
    },
    {
      "icao": "ENTC",
      "alert": "OK",
      "vis_m": 9999,
      "fzfg": false,
      "metar_trigger": false,
      "taf_trigger": false,
      "metar": "METAR ENTC 102350Z 04011KT CAVOK 17/09 Q1000 RMK WIND 2600FT 10016KT",
      "taf": ""
    },
    {
      "icao": "ENTO",
      "alert": "OK",
      "vis_m": 9999,
      "fzfg": false,
      "metar_trigger": false,
      "taf_trigger": false,
      "metar": "METAR ENTO 102350Z AUTO 28005KT 9999 NCD 08/06 Q1011",
      "taf": "TAF ENTO 102300Z 1100/1124 25007KT 9999 FEW030"
    },
    {
      "icao": "ENVA",
      "alert": "OK",
      "vis_m": 9999,
      "fzfg": false,
      "metar_trigger": false,
      "taf_trigger": false,
      "metar": "METAR ENVA 102350Z AUTO 12004KT 9999 FEW044/// SCT057/// 09/09 Q1008 RMK WIND 670FT 12005KT",
      "taf": "TAF ENVA 102300Z 1100/1124 VRB05KT 9999 BKN045"
    },
    {
      "icao": "ENZV",
      "alert": "OK",
      "vis_m": 9999,
      "fzfg": false,
      "metar_trigger": false,
      "taf_trigger": false,
      "metar": "METAR ENZV 102350Z 23004KT 9999 FEW023 11/07 Q1013 RERA",
      "taf": "TAF ENZV 102300Z 1100/1124 26008KT 9999 -SHRA FEW020TCU SCT030"
    },
    {
      "icao": "EPGD",
      "alert": "OK",
      "vis_m": 9999,
      "fzfg": false,
      "metar_trigger": false,
      "taf_trigger": false,
      "metar": "METAR EPGD 110000Z 25005KT CAVOK 13/10 Q1016",
      "taf": ""
    },
    {
      "icao": "EPKK",
      "alert": "OK",
      "vis_m": 6000,
      "fzfg": false,
      "metar_trigger": false,
      "taf_trigger": false,
      "metar": "METAR EPKK 110000Z 01003KT 6000 -DZ OVC004 12/12 Q1012",
      "taf": "TAF EPKK 102330Z 1100/1124 02003KT 6000 OVC005"
    },
    {
      "icao": "EPKT",
      "alert": "OK",
      "vis_m": 3600,
      "fzfg": false,
      "metar_trigger": false,
      "taf_trigger": false,
      "metar": "METAR EPKT 110000Z 36005KT 330V030 3600 -RADZ BR SCT003 OVC005 11/10 Q1013",
      "taf": "TAF EPKT 102330Z 1100/1124 02005KT 9999 OVC005"
    },
    {
      "icao": "EPLB",
      "alert": "OK",
      "vis_m": 6000,
      "fzfg": false,
      "metar_trigger": false,
      "taf_trigger": false,
      "metar": "METAR EPLB 110000Z 36001KT 6000 -SHRA BKN049CB 15/15 Q1012",
      "taf": "TAF EPLB 102330Z 1100/1124 04008KT 9999 BKN030"
    },
    {
      "icao": "EPMO",
      "alert": "OK",
      "vis_m": 4600,
      "fzfg": false,
      "metar_trigger": false,
      "taf_trigger": false,
      "metar": "METAR EPMO 110000Z 03008KT 4600 RA FEW005 BKN042 12/12 Q1014 RERA",
      "taf": "TAF EPMO 102330Z 1100/1124 02010KT 9999 -RA BKN030"
    },
    {
      "icao": "EPPO",
      "alert": "OK",
      "vis_m": 9999,
      "fzfg": false,
      "metar_trigger": false,
      "taf_trigger": false,
      "metar": "METAR EPPO 110000Z 30006KT 9999 -RA NSC 13/11 Q1016",
      "taf": "TAF EPPO 102330Z 1100/1124 30006KT CAVOK"
    },
    {
      "icao": "EPRA",
      "alert": "OK",
      "vis_m": 9999,
      "fzfg": false,
      "metar_trigger": false,
      "taf_trigger": false,
      "metar": "METAR EPRA 110000Z 35005KT 9999 BKN008 13/12 Q1012",
      "taf": "TAF EPRA 102330Z 1100/1109 01006KT 9999 BKN009 BKN025"
    },
    {
      "icao": "EPRZ",
      "alert": "OK",
      "vis_m": 9999,
      "fzfg": false,
      "metar_trigger": false,
      "taf_trigger": false,
      "metar": "METAR EPRZ 110000Z 09007KT 9999 -TSRA BKN040CB 17/16 Q1011",
      "taf": "TAF EPRZ 102330Z 1100/1124 12007KT 9999 BKN030"
    },
    {
      "icao": "EPSC",
      "alert": "OK",
      "vis_m": 4900,
      "fzfg": false,
      "metar_trigger": false,
      "taf_trigger": false,
      "metar": "METAR EPSC 110000Z 32002KT 4900 BR NSC 10/10 Q1016",
      "taf": "TAF EPSC 102330Z 1100/1124 VRB03KT CAVOK"
    },
    {
      "icao": "EPSY",
      "alert": "OK",
      "vis_m": 9999,
      "fzfg": false,
      "metar_trigger": false,
      "taf_trigger": false,
      "metar": "METAR EPSY 110000Z VRB02KT 9999 -RA SCT034 BKN045 12/11 Q1015",
      "taf": "TAF EPSY 102330Z 1100/1109 VRB02KT 9999 -RA BKN040"
    },
    {
      "icao": "EPWA",
      "alert": "OK",
      "vis_m": 6000,
      "fzfg": false,
      "metar_trigger": false,
      "taf_trigger": false,
      "metar": "METAR EPWA 110000Z 01016KT 6000 RA FEW008 BKN021 12/12 Q1013 BECMG NSW BKN007",
      "taf": "TAF EPWA 102330Z 1100/1124 36010KT 9999 -RA BKN025"
    },
    {
      "icao": "EPWR",
      "alert": "OK",
      "vis_m": 6000,
      "fzfg": false,
      "metar_trigger": false,
      "taf_trigger": false,
      "metar": "METAR EPWR 110000Z 29006KT 6000 -RA BKN003 11/11 Q1016",
      "taf": ""
    },
    {
      "icao": "ESGG",
      "alert": "OK",
      "vis_m": 9999,
      "fzfg": false,
      "metar_trigger": false,
      "taf_trigger": false,
      "metar": "METAR ESGG 102350Z 18004KT CAVOK 08/07 Q1014",
      "taf": "TAF ESGG 102330Z 1100/1124 20004KT CAVOK"
    },
    {
      "icao": "ESKN",
      "alert": "OK",
      "vis_m": 9999,
      "fzfg": false,
      "metar_trigger": false,
      "taf_trigger": false,
      "metar": "METAR ESKN 102350Z 00000KT CAVOK 08/08 Q1014",
      "taf": "TAF ESKN 102330Z 1100/1124 20004KT CAVOK"
    },
    {
      "icao": "ESMS",
      "alert": "OK",
      "vis_m": 9999,
      "fzfg": false,
      "metar_trigger": false,
      "taf_trigger": false,
      "metar": "METAR ESMS 102350Z 20004KT CAVOK 09/09 Q1016",
      "taf": "TAF ESMS 102327Z 1100/1124 VRB03KT 9999 SCT030"
    },
    {
      "icao": "ESSA",
      "alert": "OK",
      "vis_m": 9999,
      "fzfg": false,
      "metar_trigger": false,
      "taf_trigger": false,
      "metar": "METAR ESSA 102350Z 16004KT CAVOK 09/07 Q1014 NOSIG",
      "taf": "TAF ESSA 102330Z 1100/1124 19005KT CAVOK"
    },
    {
      "icao": "EYKA",
      "alert": "OK",
      "vis_m": 9999,
      "fzfg": false,
      "metar_trigger": false,
      "taf_trigger": false,
      "metar": "METAR EYKA 102350Z AUTO VRB01KT 9999 OVC082/// 13/12 Q1017",
      "taf": "TAF EYKA 102300Z 1100/1124 VRB04KT 9000 SCT040CB OVC045"
    },
    {
      "icao": "EYPA",
      "alert": "OK",
      "vis_m": 9999,
      "fzfg": false,
      "metar_trigger": false,
      "taf_trigger": false,
      "metar": "METAR EYPA 102350Z VRB01KT CAVOK 11/09 Q1017",
      "taf": "TAF EYPA 102300Z 1100/1124 VRB04KT 9000 NSC"
    },
    {
      "icao": "EYVI",
      "alert": "OK",
      "vis_m": 9999,
      "fzfg": false,
      "metar_trigger": false,
      "taf_trigger": false,
      "metar": "METAR EYVI 102350Z 04004KT 9999 FEW067CB 14/11 Q1017 NOSIG",
      "taf": "TAF EYVI 102300Z 1100/1124 VRB05KT 9000 SCT035CB OVC040"
    },
    {
      "icao": "GCFV",
      "alert": "OK",
      "vis_m": 9999,
      "fzfg": false,
      "metar_trigger": false,
      "taf_trigger": false,
      "metar": "METAR GCFV 110000Z AUTO 04013KT 9999 FEW021 20/16 Q1017",
      "taf": "TAF GCFV 102000Z 1021/1121 03013KT 9999 BKN016 TX25/1114Z TN18/1106Z"
    },
    {
      "icao": "GCLP",
      "alert": "OK",
      "vis_m": 9999,
      "fzfg": false,
      "metar_trigger": false,
      "taf_trigger": false,
      "metar": "METAR GCLP 110000Z 36019KT 9999 SCT020 20/15 Q1017 NOSIG",
      "taf": "TAF GCLP 102000Z 1021/1121 01022KT 9999 SCT020 TX25/1114Z TN18/1106Z"
    },
    {
      "icao": "GCTS",
      "alert": "OK",
      "vis_m": 9999,
      "fzfg": false,
      "metar_trigger": false,
      "taf_trigger": false,
      "metar": "METAR GCTS 110000Z 05009KT 9999 FEW025 20/14 Q1017 NOSIG",
      "taf": "TAF GCTS 102000Z 1021/1121 04009KT 9999 SCT020 TX26/1114Z TN19/1106Z"
    },
    {
      "icao": "GMAD",
      "alert": "OK",
      "vis_m": 8000,
      "fzfg": false,
      "metar_trigger": false,
      "taf_trigger": false,
      "metar": "METAR GMAD 110000Z 09003KT 8000 SCT013 18/16 Q1015 NOSIG",
      "taf": "TAF GMAD 102300Z 1100/1206 23003KT 8000 OVC010"
    },
    {
      "icao": "GMMN",
      "alert": "OK",
      "vis_m": 9999,
      "fzfg": false,
      "metar_trigger": false,
      "taf_trigger": false,
      "metar": "METAR GMMN 110000Z 35005KT 320V030 9999 BKN010 20/17 Q1015 NOSIG",
      "taf": "TAF GMMN 102300Z 1100/1206 34003KT 9999 SCT010"
    },
    {
      "icao": "GMMX",
      "alert": "OK",
      "vis_m": 9999,
      "fzfg": false,
      "metar_trigger": false,
      "taf_trigger": false,
      "metar": "METAR GMMX 110000Z 25007KT CAVOK 23/15 Q1016 NOSIG",
      "taf": "TAF GMMX 102300Z 1100/1206 06006KT 8000 NSC"
    },
    {
      "icao": "HEGN",
      "alert": "OK",
      "vis_m": 9999,
      "fzfg": false,
      "metar_trigger": false,
      "taf_trigger": false,
      "metar": "METAR HEGN 102300Z 30008KT CAVOK 30/12 Q1009 NOSIG",
      "taf": "TAF HEGN 102300Z 1100/1206 32012KT CAVOK"
    },
    {
      "icao": "HEMA",
      "alert": "OK",
      "vis_m": 9999,
      "fzfg": false,
      "metar_trigger": false,
      "taf_trigger": false,
      "metar": "METAR HEMA 102300Z 24004KT CAVOK 29/15 Q1007 NOSIG",
      "taf": "TAF HEMA 102300Z 1100/1206 30014KT CAVOK"
    },
    {
      "icao": "HESH",
      "alert": "OK",
      "vis_m": 9999,
      "fzfg": false,
      "metar_trigger": false,
      "taf_trigger": false,
      "metar": "METAR HESH 102300Z 04006KT CAVOK 31/13 Q1008 NOSIG",
      "taf": "TAF HESH 102300Z 1100/1206 35010KT CAVOK"
    },
    {
      "icao": "HESX",
      "alert": "OK",
      "vis_m": 9999,
      "fzfg": false,
      "metar_trigger": false,
      "taf_trigger": false,
      "metar": "METAR HESX 102300Z 36004KT CAVOK 21/15 Q1013 NOSIG",
      "taf": "TAF HESX 102300Z 1100/1206 36008KT CAVOK"
    },
    {
      "icao": "LATI",
      "alert": "OK",
      "vis_m": null,
      "fzfg": false,
      "metar_trigger": false,
      "taf_trigger": false,
      "metar": "",
      "taf": "TAF LATI 102300Z 1100/1124 VRB05KT CAVOK TX33/1112Z TN17/1104Z"
    },
    {
      "icao": "LBPD",
      "alert": "OK",
      "vis_m": 9999,
      "fzfg": false,
      "metar_trigger": false,
      "taf_trigger": false,
      "metar": "METAR LBPD 110000Z AUTO 29003KT 9999 NCD 16/15 Q1015",
      "taf": "TAF LBPD 102300Z 1100/1124 VRB04KT 9999 SCT060"
    },
    {
      "icao": "LBSF",
      "alert": "OK",
      "vis_m": 9999,
      "fzfg": false,
      "metar_trigger": false,
      "taf_trigger": false,
      "metar": "METAR LBSF 110000Z AUTO 15005KT 9999 NCD 17/14 Q1016 NOSIG",
      "taf": "TAF LBSF 102300Z 1100/1124 VRB04KT 9999 SCT060"
    },
    {
      "icao": "LBWN",
      "alert": "OK",
      "vis_m": 9999,
      "fzfg": false,
      "metar_trigger": false,
      "taf_trigger": false,
      "metar": "METAR LBWN 110000Z AUTO VRB02KT 9999 NCD 15/15 Q1014 TEMPO 5000 BR",
      "taf": "TAF LBWN 102300Z 1100/1124 VRB04KT CAVOK"
    },
    {
      "icao": "LCLK",
      "alert": "OK",
      "vis_m": 9999,
      "fzfg": false,
      "metar_trigger": false,
      "taf_trigger": false,
      "metar": "METAR LCLK 110000Z 28002KT 9999 FEW012 21/20 Q1009 NOSIG",
      "taf": "TAF LCLK 102330Z 1100/1200 26005KT 9999 FEW030"
    },
    {
      "icao": "LCPH",
      "alert": "OK",
      "vis_m": 9999,
      "fzfg": false,
      "metar_trigger": false,
      "taf_trigger": false,
      "metar": "METAR LCPH 110000Z AUTO 07004KT 010V080 9999 NCD 21/16 Q1010 NOSIG",
      "taf": "TAF LCPH 102330Z 1100/1200 36007KT 9999 FEW015"
    },
    {
      "icao": "LEAL",
      "alert": "OK",
      "vis_m": 9999,
      "fzfg": false,
      "metar_trigger": false,
      "taf_trigger": false,
      "metar": "METAR LEAL 110000Z 08009KT 9999 BKN033 24/18 Q1021 NOSIG",
      "taf": "TAF LEAL 102300Z 1100/1124 08010KT 9999 SCT020 TX27/1112Z TN20/1105Z"
    },
    {
      "icao": "LEBB",
      "alert": "OK",
      "vis_m": 9999,
      "fzfg": false,
      "metar_trigger": false,
      "taf_trigger": false,
      "metar": "METAR LEBB 110000Z AUTO 09003KT 060V120 9999 FEW042 12/11 Q1027",
      "taf": "TAF LEBB 102300Z 1100/1124 VRB03KT 9999 SCT035 TX23/1113Z TN13/1104Z"
    },
    {
      "icao": "LEBL",
      "alert": "OK",
      "vis_m": 9999,
      "fzfg": false,
      "metar_trigger": false,
      "taf_trigger": false,
      "metar": "METAR LEBL 110000Z 21005KT 170V240 9999 FEW030 BKN050 21/15 Q1021 NOSIG",
      "taf": "TAF LEBL 102300Z 1100/1124 23006KT 9999 SCT025 TX25/1113Z TN19/1105Z"
    },
    {
      "icao": "LECH",
      "alert": "OK",
      "vis_m": 9000,
      "fzfg": false,
      "metar_trigger": false,
      "taf_trigger": false,
      "metar": "METAR LECH 110000Z AUTO 00000KT 9000 NCD 16/14 Q1022",
      "taf": "TAF LECH 102300Z 1100/1124 VRB04KT 9999 FEW040 TX28/1113Z TN14/1105Z"
    },
    {
      "icao": "LEMD",
      "alert": "OK",
      "vis_m": 9999,
      "fzfg": false,
      "metar_trigger": false,
      "taf_trigger": false,
      "metar": "METAR LEMD 110000Z 06005KT 350V130 CAVOK 19/06 Q1021 NOSIG",
      "taf": "TAF LEMD 102300Z 1100/1206 03007KT CAVOK TX33/1116Z TN15/1105Z"
    },
    {
      "icao": "LEMG",
      "alert": "OK",
      "vis_m": 9999,
      "fzfg": false,
      "metar_trigger": false,
      "taf_trigger": false,
      "metar": "METAR LEMG 110000Z 12005KT 9999 FEW015 BKN035 23/19 Q1019 NOSIG",
      "taf": "TAF LEMG 102300Z 1100/1124 13009KT 9999 SCT030 TX27/1114Z TN20/1107Z"
    },
    {
      "icao": "LEVC",
      "alert": "OK",
      "vis_m": 9999,
      "fzfg": false,
      "metar_trigger": false,
      "taf_trigger": false,
      "metar": "METAR LEVC 110000Z 29003KT CAVOK 19/16 Q1021 NOSIG",
      "taf": "TAF LEVC 102300Z 1100/1124 VRB04KT 9999 FEW020 TX26/1112Z TN18/1105Z"
    },
    {
      "icao": "LEXJ",
      "alert": "OK",
      "vis_m": 9999,
      "fzfg": false,
      "metar_trigger": false,
      "taf_trigger": false,
      "metar": "METAR LEXJ 110000Z AUTO 21002KT CAVOK 13/11 Q1026",
      "taf": "TAF LEXJ 102000Z 1021/1121 20005KT 9999 SCT020 BKN040 TX22/1115Z TN13/1105Z"
    },
    {
      "icao": "LEZG",
      "alert": "OK",
      "vis_m": 9999,
      "fzfg": false,
      "metar_trigger": false,
      "taf_trigger": false,
      "metar": "METAR LEZG 110000Z 28016KT 260V320 CAVOK 16/07 Q1023 NOSIG",
      "taf": "TAF LEZG 102300Z 1100/1124 31015KT CAVOK TX29/1115Z TN13/1105Z"
    },
    {
      "icao": "LEZL",
      "alert": "OK",
      "vis_m": 9999,
      "fzfg": false,
      "metar_trigger": false,
      "taf_trigger": false,
      "metar": "METAR LEZL 110000Z AUTO 24005KT 200V260 CAVOK 25/16 Q1016",
      "taf": "TAF LEZL 102000Z 1021/1121 22010KT CAVOK TX38/1115Z TN20/1106Z"
    },
    {
      "icao": "LFBD",
      "alert": "OK",
      "vis_m": 9999,
      "fzfg": false,
      "metar_trigger": false,
      "taf_trigger": false,
      "metar": "METAR LFBD 110000Z AUTO 26003KT CAVOK 11/09 Q1026 NOSIG",
      "taf": "TAF LFBD 102300Z 1100/1206 24005KT 9999 SCT040 TX23/1115Z TN10/1103Z"
    },
    {
      "icao": "LFLL",
      "alert": "OK",
      "vis_m": 9999,
      "fzfg": false,
      "metar_trigger": false,
      "taf_trigger": false,
      "metar": "METAR LFLL 110000Z 00000KT CAVOK 14/09 Q1022 NOSIG",
      "taf": "TAF LFLL 102300Z 1100/1206 VRB02KT CAVOK"
    },
    {
      "icao": "LFLS",
      "alert": "OK",
      "vis_m": 9999,
      "fzfg": false,
      "metar_trigger": false,
      "taf_trigger": false,
      "metar": "METAR LFLS 110000Z AUTO 04005KT CAVOK 09/06 Q1022",
      "taf": "TAF LFLS 101400Z 1015/1115 36012KT CAVOK"
    },
    {
      "icao": "LFMN",
      "alert": "OK",
      "vis_m": 9999,
      "fzfg": false,
      "metar_trigger": false,
      "taf_trigger": false,
      "metar": "METAR LFMN 110000Z 31004KT 280V350 9999 SCT030 BKN260 21/16 Q1012 TEMPO 26010KT",
      "taf": "TAF LFMN 102000Z 1021/1203 08015KT CAVOK"
    },
    {
      "icao": "LFOB",
      "alert": "OK",
      "vis_m": 9999,
      "fzfg": false,
      "metar_trigger": false,
      "taf_trigger": false,
      "metar": "METAR LFOB 110000Z AUTO 25005KT CAVOK 10/08 Q1021 NOSIG",
      "taf": "TAF LFOB 102300Z 1100/1124 26005KT 9999 FEW020"
    },
    {
      "icao": "LFPO",
      "alert": "OK",
      "vis_m": 9999,
      "fzfg": false,
      "metar_trigger": false,
      "taf_trigger": false,
      "metar": "METAR LFPO 110000Z AUTO VRB02KT CAVOK 11/09 Q1022 NOSIG",
      "taf": "TAF LFPO 102300Z 1100/1206 26005KT CAVOK"
    },
    {
      "icao": "LFSB",
      "alert": "OK",
      "vis_m": 9999,
      "fzfg": false,
      "metar_trigger": false,
      "taf_trigger": false,
      "metar": "METAR LFSB 110000Z AUTO 10004KT CAVOK 12/10 Q1022 TEMPO FEW030CB",
      "taf": "TAF LFSB 102300Z 1100/1124 21004KT 9999 FEW030 BKN060"
    },
    {
      "icao": "LGAV",
      "alert": "OK",
      "vis_m": 9999,
      "fzfg": false,
      "metar_trigger": false,
      "taf_trigger": false,
      "metar": "METAR LGAV 102350Z VRB03KT CAVOK 16/08 Q1014 NOSIG",
      "taf": "TAF LGAV 102300Z 1100/1124 VRB03KT 9999 FEW025"
    },
    {
      "icao": "LGTS",
      "alert": "OK",
      "vis_m": 9999,
      "fzfg": false,
      "metar_trigger": false,
      "taf_trigger": false,
      "metar": "METAR LGTS 102350Z 11006KT 9999 FEW025 20/17 Q1014 NOSIG",
      "taf": "TAF LGTS 102300Z 1100/1124 VRB03KT 9999 FEW030"
    },
    {
      "icao": "LHBP",
      "alert": "OK",
      "vis_m": 7000,
      "fzfg": false,
      "metar_trigger": false,
      "taf_trigger": false,
      "metar": "SPECI LHBP 110010Z 30018G29KT 7000 3400 TSRA FEW018 BKN028CB OVC040 15/13 Q1014 BECMG SHRA SCT025CB OVC040",
      "taf": "TAF LHBP 102315Z 1100/1124 31015G25KT 9999 SCT025 BKN080"
    },
    {
      "icao": "LHDC",
      "alert": "OK",
      "vis_m": 9999,
      "fzfg": false,
      "metar_trigger": false,
      "taf_trigger": false,
      "metar": "METAR LHDC 102345Z AUTO 10005KT CAVOK 19/15 Q1009",
      "taf": "TAF LHDC 101415Z 1015/1024 VRB03KT CAVOK"
    },
    {
      "icao": "LIBD",
      "alert": "OK",
      "vis_m": 9999,
      "fzfg": false,
      "metar_trigger": false,
      "taf_trigger": false,
      "metar": "METAR LIBD 102350Z 20006KT CAVOK 21/14 Q1012",
      "taf": "TAF LIBD 102300Z 1100/1124 23006KT 9999 FEW040"
    },
    {
      "icao": "LIBG",
      "alert": "OK",
      "vis_m": 9999,
      "fzfg": false,
      "metar_trigger": false,
      "taf_trigger": false,
      "metar": "METAR LIBG 102350Z AUTO VRB01KT 9999 NCD 20/17 Q1013",
      "taf": "TAF LIBG 102300Z 1100/1124 VRB05KT CAVOK"
    },
    {
      "icao": "LIBP",
      "alert": "OK",
      "vis_m": 9999,
      "fzfg": false,
      "metar_trigger": false,
      "taf_trigger": false,
      "metar": "METAR LIBP 102350Z AUTO 31006KT 9999 NCD 25/12 Q1011",
      "taf": "TAF LIBP 102300Z 1100/1124 VRB05KT 9999 FEW070"
    },
    {
      "icao": "LIBR",
      "alert": "OK",
      "vis_m": 9999,
      "fzfg": false,
      "metar_trigger": false,
      "taf_trigger": false,
      "metar": "METAR LIBR 102350Z AUTO 22009KT 9999 NCD 23/20 Q1012",
      "taf": "TAF LIBR 102300Z 1100/1124 VRB05KT 9999 FEW040"
    },
    {
      "icao": "LICA",
      "alert": "OK",
      "vis_m": 9999,
      "fzfg": false,
      "metar_trigger": false,
      "taf_trigger": false,
      "metar": "METAR LICA 102350Z AUTO 05003KT 040V100 9999 SCT014/// 18/18 Q1015",
      "taf": "TAF LICA 102300Z 1100/1124 VRB05KT CAVOK"
    },
    {
      "icao": "LICC",
      "alert": "OK",
      "vis_m": 9999,
      "fzfg": false,
      "metar_trigger": false,
      "taf_trigger": false,
      "metar": "METAR LICC 102350Z VRB02KT 9999 SCT130 21/12 Q1014",
      "taf": "TAF LICC 102300Z 1100/1124 VRB05KT CAVOK"
    },
    {
      "icao": "LICJ",
      "alert": "OK",
      "vis_m": 9999,
      "fzfg": false,
      "metar_trigger": false,
      "taf_trigger": false,
      "metar": "METAR LICJ 102350Z 24006KT CAVOK 23/18 Q1014",
      "taf": "TAF LICJ 102300Z 1100/1124 VRB05KT CAVOK"
    },
    {
      "icao": "LIMC",
      "alert": "OK",
      "vis_m": 9999,
      "fzfg": false,
      "metar_trigger": false,
      "taf_trigger": false,
      "metar": "METAR LIMC 102350Z 03008KT CAVOK 17/01 Q1014 NOSIG",
      "taf": "TAF LIMC 102300Z 1100/1206 03008KT CAVOK"
    },
    {
      "icao": "LIME",
      "alert": "OK",
      "vis_m": 9999,
      "fzfg": false,
      "metar_trigger": false,
      "taf_trigger": false,
      "metar": "METAR LIME 102350Z 02004KT 350V050 CAVOK 15/07 Q1014 NOSIG",
      "taf": "TAF LIME 102300Z 1100/1124 VRB05KT 9999 FEW040"
    },
    {
      "icao": "LIMF",
      "alert": "OK",
      "vis_m": 9999,
      "fzfg": false,
      "metar_trigger": false,
      "taf_trigger": false,
      "metar": "METAR LIMF 102350Z 08009KT 060V130 CAVOK 19/07 Q1015",
      "taf": "TAF LIMF 102300Z 1100/1124 VRB05KT 9999 FEW030"
    },
    {
      "icao": "LIMJ",
      "alert": "OK",
      "vis_m": 9999,
      "fzfg": false,
      "metar_trigger": false,
      "taf_trigger": false,
      "metar": "METAR LIMJ 102350Z AUTO 07006KT 9999 NCD 19/14 Q1013",
      "taf": "TAF LIMJ 102300Z 1100/1124 35008KT 9999 SCT040"
    },
    {
      "icao": "LIPE",
      "alert": "OK",
      "vis_m": 9999,
      "fzfg": false,
      "metar_trigger": false,
      "taf_trigger": false,
      "metar": "METAR LIPE 102350Z AUTO 19003KT 9999 NCD 18/06 Q1013",
      "taf": "TAF LIPE 102300Z 1100/1124 29008KT 9999 FEW050"
    },
    {
      "icao": "LIPH",
      "alert": "OK",
      "vis_m": 9999,
      "fzfg": false,
      "metar_trigger": false,
      "taf_trigger": false,
      "metar": "METAR LIPH 102350Z AUTO VRB02KT 9999 NCD 16/10 Q1012",
      "taf": "TAF LIPH 102300Z 1100/1124 VRB05KT 9999 FEW030"
    },
    {
      "icao": "LIPQ",
      "alert": "OK",
      "vis_m": null,
      "fzfg": false,
      "metar_trigger": false,
      "taf_trigger": false,
      "metar": "METAR LIPQ 102350Z AUTO 36004KT //// // NCD 17/15 Q1011",
      "taf": "TAF LIPQ 102300Z 1100/1124 07012KT 9999 SCT040"
    },
    {
      "icao": "LIPR",
      "alert": "OK",
      "vis_m": 9999,
      "fzfg": false,
      "metar_trigger": false,
      "taf_trigger": false,
      "metar": "METAR LIPR 102350Z AUTO 26004KT 9999 BKN068/// 23/12 Q1012",
      "taf": "TAF LIPR 102300Z 1100/1124 22012KT 9999 FEW060"
    },
    {
      "icao": "LIPX",
      "alert": "OK",
      "vis_m": 9999,
      "fzfg": false,
      "metar_trigger": false,
      "taf_trigger": false,
      "metar": "METAR LIPX 102350Z 01008KT CAVOK 18/04 Q1012",
      "taf": "TAF LIPX 102300Z 1100/1124 01008KT 9999 FEW030"
    },
    {
      "icao": "LIPY",
      "alert": "OK",
      "vis_m": 9999,
      "fzfg": false,
      "metar_trigger": false,
      "taf_trigger": false,
      "metar": "METAR LIPY 102350Z AUTO 22008KT 9999 NCD 23/14 Q1012",
      "taf": "TAF LIPY 102300Z 1100/1124 22009KT 9999 SCT060"
    },
    {
      "icao": "LIPZ",
      "alert": "OK",
      "vis_m": 9999,
      "fzfg": false,
      "metar_trigger": false,
      "taf_trigger": false,
      "metar": "METAR LIPZ 102350Z 34006KT CAVOK 18/11 Q1012 NOSIG",
      "taf": "TAF LIPZ 102300Z 1100/1206 03013KT CAVOK"
    },
    {
      "icao": "LIRF",
      "alert": "OK",
      "vis_m": 9999,
      "fzfg": false,
      "metar_trigger": false,
      "taf_trigger": false,
      "metar": "METAR LIRF 102350Z 21005KT CAVOK 22/16 Q1014 NOSIG",
      "taf": "TAF LIRF 102300Z 1100/1206 21010KT CAVOK"
    },
    {
      "icao": "LIRN",
      "alert": "OK",
      "vis_m": 9999,
      "fzfg": false,
      "metar_trigger": false,
      "taf_trigger": false,
      "metar": "METAR LIRN 102350Z VRB01KT CAVOK 21/15 Q1015 NOSIG",
      "taf": "TAF LIRN 102300Z 1100/1124 VRB05KT CAVOK"
    },
    {
      "icao": "LIRP",
      "alert": "OK",
      "vis_m": 9999,
      "fzfg": false,
      "metar_trigger": false,
      "taf_trigger": false,
      "metar": "METAR LIRP 102345Z 08003KT 9999 FEW030 17/13 Q1014 NOSIG",
      "taf": "TAF LIRP 102300Z 1100/1124 11005KT CAVOK"
    },
    {
      "icao": "LIRZ",
      "alert": "OK",
      "vis_m": 9999,
      "fzfg": false,
      "metar_trigger": false,
      "taf_trigger": false,
      "metar": "METAR LIRZ 102350Z AUTO 23004KT 180V280 9999 BKN030/// 20/15 Q1014",
      "taf": "TAF LIRZ 102300Z 1100/1124 VRB05KT CAVOK"
    },
    {
      "icao": "LJLJ",
      "alert": "OK",
      "vis_m": 9999,
      "fzfg": false,
      "metar_trigger": false,
      "taf_trigger": false,
      "metar": "METAR LJLJ 110000Z 05003KT 030V170 9999 FEW010 SCT068 BKN090 11/11 Q1015 NOSIG",
      "taf": "TAF LJLJ 102300Z 1100/1200 30004KT 9999 FEW005 BKN030"
    },
    {
      "icao": "LKMT",
      "alert": "OK",
      "vis_m": 6000,
      "fzfg": false,
      "metar_trigger": false,
      "taf_trigger": false,
      "metar": "METAR LKMT 110000Z 31004KT 280V340 6000 RA SCT005 BKN011 OVC013 11/11 Q1014 NOSIG",
      "taf": "TAF LKMT 102300Z 1100/1124 02010KT 8000 -RA BKN010 OVC020"
    },
    {
      "icao": "LKPR",
      "alert": "OK",
      "vis_m": 9999,
      "fzfg": false,
      "metar_trigger": false,
      "taf_trigger": false,
      "metar": "METAR LKPR 110000Z 26011KT 9999 -RA FEW026 10/09 Q1018 NOSIG",
      "taf": "TAF LKPR 102300Z 1100/1206 20004KT 9999 SCT025 BKN030"
    },
    {
      "icao": "LLBG",
      "alert": "OK",
      "vis_m": 9999,
      "fzfg": false,
      "metar_trigger": false,
      "taf_trigger": false,
      "metar": "METAR LLBG 102350Z 15006KT 9999 BKN027 23/19 Q1012 NOSIG",
      "taf": "TAF LLBG 102300Z 1100/1124 VRB04KT 9999 SCT025 TX29/1110Z TN19/1103Z"
    },
    {
      "icao": "LMML",
      "alert": "OK",
      "vis_m": 9999,
      "fzfg": false,
      "metar_trigger": false,
      "taf_trigger": false,
      "metar": "METAR LMML 110015Z VRB02KT CAVOK 22/21 Q1015 NOSIG",
      "taf": "TAF LMML 102300Z 1100/1124 27007KT 9999 FEW015"
    },
    {
      "icao": "LOWW",
      "alert": "OK",
      "vis_m": 9999,
      "fzfg": false,
      "metar_trigger": false,
      "taf_trigger": false,
      "metar": "METAR LOWW 102350Z 30015KT CAVOK 12/09 Q1017 NOSIG",
      "taf": "TAF LOWW 102315Z 1100/1206 30014KT 9999 FEW050 TX18/1112Z TN11/1103Z"
    },
    {
      "icao": "LPFR",
      "alert": "OK",
      "vis_m": 9999,
      "fzfg": false,
      "metar_trigger": false,
      "taf_trigger": false,
      "metar": "METAR LPFR 110000Z 10005KT CAVOK 20/17 Q1015",
      "taf": "TAF LPFR 102300Z 1100/1124 VRB02KT CAVOK"
    },
    {
      "icao": "LPMA",
      "alert": "OK",
      "vis_m": 9999,
      "fzfg": false,
      "metar_trigger": false,
      "taf_trigger": false,
      "metar": "METAR LPMA 110000Z 36015KT 320V030 9999 FEW015 19/12 Q1021",
      "taf": "TAF LPMA 102300Z 1100/1124 01015KT 9999 SCT015"
    },
    {
      "icao": "LPPR",
      "alert": "OK",
      "vis_m": 9999,
      "fzfg": false,
      "metar_trigger": false,
      "taf_trigger": false,
      "metar": "METAR LPPR 110000Z 36008KT CAVOK 21/09 Q1019",
      "taf": "TAF LPPR 102300Z 1100/1124 VRB02KT CAVOK"
    },
    {
      "icao": "LPPS",
      "alert": "OK",
      "vis_m": 9999,
      "fzfg": false,
      "metar_trigger": false,
      "taf_trigger": false,
      "metar": "METAR LPPS 110000Z 03012KT 9999 SCT012 18/15 Q1022",
      "taf": "TAF LPPS 102300Z 1100/1206 02013KT 9999 SCT014"
    },
    {
      "icao": "LPPT",
      "alert": "OK",
      "vis_m": 9999,
      "fzfg": false,
      "metar_trigger": false,
      "taf_trigger": false,
      "metar": "METAR LPPT 110000Z 34010KT CAVOK 21/09 Q1018",
      "taf": "TAF LPPT 102300Z 1100/1206 34010KT CAVOK"
    },
    {
      "icao": "LQBK",
      "alert": "OK",
      "vis_m": 9999,
      "fzfg": false,
      "metar_trigger": false,
      "taf_trigger": false,
      "metar": "METAR LQBK 110000Z 30020G33KT 9999 SHRA FEW020 FEW033TCU BKN047 20/16 Q1012 NOSIG",
      "taf": "TAF LQBK 102300Z 1100/1124 15005KT 9999 SCT035 TX17/1100Z TN12/1123Z"
    },
    {
      "icao": "LQSA",
      "alert": "OK",
      "vis_m": 9999,
      "fzfg": false,
      "metar_trigger": false,
      "taf_trigger": false,
      "metar": "METAR LQSA 110000Z 29004KT CAVOK 15/12 Q1013",
      "taf": "TAF LQSA 102300Z 1100/1124 VRB02KT 9999 SCT060 TX22/1112Z TN14/1103Z"
    },
    {
      "icao": "LQTZ",
      "alert": "OK",
      "vis_m": 9999,
      "fzfg": false,
      "metar_trigger": false,
      "taf_trigger": false,
      "metar": "METAR LQTZ 110000Z VRB01KT CAVOK 17/17 Q1011",
      "taf": "TAF LQTZ 102300Z 1100/1124 30006KT 9999 SCT040 TX17/1100Z TN12/1123Z"
    },
    {
      "icao": "LRBC",
      "alert": "OK",
      "vis_m": 9999,
      "fzfg": false,
      "metar_trigger": false,
      "taf_trigger": false,
      "metar": "METAR LRBC 110000Z 31002KT CAVOK 16/15 Q1014",
      "taf": "TAF LRBC 102300Z 1100/1109 VRB04KT CAVOK"
    },
    {
      "icao": "LRBS",
      "alert": "OK",
      "vis_m": 9000,
      "fzfg": false,
      "metar_trigger": false,
      "taf_trigger": false,
      "metar": "METAR LRBS 110000Z 04002KT 9000 NSC 18/17 Q1014 NOSIG",
      "taf": "TAF LRBS 102300Z 1100/1124 VRB04KT CAVOK"
    },
    {
      "icao": "LRBV",
      "alert": "OK",
      "vis_m": 9999,
      "fzfg": false,
      "metar_trigger": false,
      "taf_trigger": false,
      "metar": "METAR LRBV 110000Z AUTO VRB02KT 9999 NCD 15/13 Q1015",
      "taf": "TAF LRBV 101700Z 1018/1103 20012KT 9999 FEW050CB"
    },
    {
      "icao": "LRCL",
      "alert": "OK",
      "vis_m": 9999,
      "fzfg": false,
      "metar_trigger": false,
      "taf_trigger": false,
      "metar": "METAR LRCL 110000Z 00000KT CAVOK 15/13 Q1013",
      "taf": "TAF LRCL 102300Z 1100/1109 VRB04KT CAVOK"
    },
    {
      "icao": "LRCV",
      "alert": "OK",
      "vis_m": 9999,
      "fzfg": false,
      "metar_trigger": false,
      "taf_trigger": false,
      "metar": "METAR LRCV 110000Z 08006KT CAVOK 17/16 Q1013",
      "taf": "TAF LRCV 102300Z 1100/1109 07008KT CAVOK"
    },
    {
      "icao": "LRIA",
      "alert": "OK",
      "vis_m": 9999,
      "fzfg": false,
      "metar_trigger": false,
      "taf_trigger": false,
      "metar": "METAR LRIA 110000Z 07005KT CAVOK 19/13 Q1014",
      "taf": "TAF LRIA 102300Z 1100/1109 VRB04KT CAVOK"
    },
    {
      "icao": "LROP",
      "alert": "OK",
      "vis_m": 9999,
      "fzfg": false,
      "metar_trigger": false,
      "taf_trigger": false,
      "metar": "METAR LROP 110000Z 06003KT CAVOK 19/17 Q1014 NOSIG",
      "taf": "TAF LROP 102300Z 1100/1124 VRB04KT CAVOK"
    },
    {
      "icao": "LRSB",
      "alert": "OK",
      "vis_m": 9999,
      "fzfg": false,
      "metar_trigger": false,
      "taf_trigger": false,
      "metar": "METAR LRSB 110000Z VRB02KT CAVOK 16/12 Q1014",
      "taf": "TAF LRSB 102300Z 1100/1124 16006KT CAVOK"
    },
    {
      "icao": "LRSM",
      "alert": "OK",
      "vis_m": 9999,
      "fzfg": false,
      "metar_trigger": false,
      "taf_trigger": false,
      "metar": "METAR LRSM 110000Z AUTO 03004KT 340V080 9999 FEW085/// SCT170/// 19/13 Q1010",
      "taf": "TAF LRSM 101400Z 1015/1024 12006KT CAVOK"
    },
    {
      "icao": "LRSV",
      "alert": "OK",
      "vis_m": 9999,
      "fzfg": false,
      "metar_trigger": false,
      "taf_trigger": false,
      "metar": "METAR LRSV 110000Z 20005KT CAVOK 17/12 Q1015",
      "taf": "TAF LRSV 102300Z 1100/1109 VRB04KT CAVOK"
    },
    {
      "icao": "LRTM",
      "alert": "OK",
      "vis_m": 9999,
      "fzfg": false,
      "metar_trigger": false,
      "taf_trigger": false,
      "metar": "METAR LRTM 110000Z 09005KT CAVOK 15/14 Q1014",
      "taf": "TAF LRTM 102300Z 1100/1109 12006KT CAVOK"
    },
    {
      "icao": "LRTR",
      "alert": "OK",
      "vis_m": 9999,
      "fzfg": false,
      "metar_trigger": false,
      "taf_trigger": false,
      "metar": "METAR LRTR 110000Z 09008KT CAVOK 18/15 Q1010",
      "taf": "TAF LRTR 102300Z 1100/1124 17006KT 9999 FEW040"
    },
    {
      "icao": "LTAC",
      "alert": "OK",
      "vis_m": 9999,
      "fzfg": false,
      "metar_trigger": false,
      "taf_trigger": false,
      "metar": "METAR LTAC 102350Z VRB02KT CAVOK 12/10 Q1016 NOSIG RMK RWY21C 16004KT RWY03L 00000KT RWY21R 15003KT RWY03R 00000KT RWY21L 18002KT",
      "taf": "TAF LTAC 102240Z 1100/1124 VRB02KT CAVOK"
    },
    {
      "icao": "LTFM",
      "alert": "OK",
      "vis_m": 9999,
      "fzfg": false,
      "metar_trigger": false,
      "taf_trigger": false,
      "metar": "METAR LTFM 102350Z 07007KT 010V090 9999 FEW012 20/17 Q1014 NOSIG RMK RWY17L 08004KT RWY34L 05006KT RWY16R 08006KT RWY36 06008KT RWY18 08007KT",
      "taf": "TAF LTFM 102240Z 1100/1206 07004KT 9999 SCT013"
    },
    {
      "icao": "LUKK",
      "alert": "OK",
      "vis_m": 9999,
      "fzfg": false,
      "metar_trigger": false,
      "taf_trigger": false,
      "metar": "METAR LUKK 110000Z VRB01KT CAVOK 17/15 Q1015 NOSIG",
      "taf": "TAF LUKK 102303Z 1100/1124 VRB04KT CAVOK"
    },
    {
      "icao": "LWOH",
      "alert": "OK",
      "vis_m": null,
      "fzfg": false,
      "metar_trigger": false,
      "taf_trigger": false,
      "metar": "",
      "taf": "TAF LWOH 102340Z 1100/1124 VRB03KT 9999 FEW040"
    },
    {
      "icao": "LWSK",
      "alert": "OK",
      "vis_m": null,
      "fzfg": false,
      "metar_trigger": false,
      "taf_trigger": false,
      "metar": "",
      "taf": "TAF LWSK 102340Z 1100/1124 VRB02KT CAVOK"
    },
    {
      "icao": "LYBE",
      "alert": "OK",
      "vis_m": 9999,
      "fzfg": false,
      "metar_trigger": false,
      "taf_trigger": false,
      "metar": "METAR LYBE 110000Z 16007KT CAVOK 23/16 Q1009 NOSIG",
      "taf": "TAF LYBE 102300Z 1100/1124 16006KT CAVOK TX24/1101Z TN13/1124Z"
    },
    {
      "icao": "LYNI",
      "alert": "OK",
      "vis_m": 9999,
      "fzfg": false,
      "metar_trigger": false,
      "taf_trigger": false,
      "metar": "METAR LYNI 110000Z VRB02KT CAVOK 20/16 Q1013 NOSIG",
      "taf": "TAF LYNI 102300Z 1100/1124 09008KT CAVOK TX28/1113Z TN13/1124Z"
    },
    {
      "icao": "LYPG",
      "alert": "OK",
      "vis_m": 9999,
      "fzfg": false,
      "metar_trigger": false,
      "taf_trigger": false,
      "metar": "METAR LYPG 110000Z VRB02KT CAVOK 20/14 Q1014 NOSIG",
      "taf": "TAF LYPG 102300Z 1100/1124 36005KT CAVOK TX31/1114Z TN20/1103Z"
    },
    {
      "icao": "LZIB",
      "alert": "OK",
      "vis_m": 9999,
      "fzfg": false,
      "metar_trigger": false,
      "taf_trigger": false,
      "metar": "METAR LZIB 110000Z 29014KT 250V310 9999 -RA BKN012 13/11 Q1016 BECMG NSC",
      "taf": ""
    },
    {
      "icao": "LZKZ",
      "alert": "OK",
      "vis_m": 9999,
      "fzfg": false,
      "metar_trigger": false,
      "taf_trigger": false,
      "metar": "METAR LZKZ 110000Z 34006KT 310V010 9999 -SHRA FEW040CB SCT040 18/17 Q1010 TEMPO TSRA",
      "taf": "TAF LZKZ 102315Z 1100/1200 03011KT 9999 SCT035"
    },
    {
      "icao": "LZTT",
      "alert": "OK",
      "vis_m": 5000,
      "fzfg": false,
      "metar_trigger": false,
      "taf_trigger": false,
      "metar": "METAR LZTT 110000Z 09003KT 5000 BR OVC004 15/15 Q1011",
      "taf": "TAF LZTT 102315Z 1100/1200 27008KT 9999 FEW014 BKN030"
    },
    {
      "icao": "OEJN",
      "alert": "OK",
      "vis_m": 9999,
      "fzfg": false,
      "metar_trigger": false,
      "taf_trigger": false,
      "metar": "METAR OEJN 110000Z 00000KT CAVOK 30/12 Q1005 NOSIG",
      "taf": "TAF OEJN 102300Z 1100/1206 18006KT CAVOK"
    },
    {
      "icao": "OEMA",
      "alert": "OK",
      "vis_m": 9999,
      "fzfg": false,
      "metar_trigger": false,
      "taf_trigger": false,
      "metar": "METAR OEMA 110000Z VRB03KT CAVOK 34/M05 Q1012 NOSIG",
      "taf": "TAF OEMA 102300Z 1100/1206 VRB03KT CAVOK"
    },
    {
      "icao": "OJAI",
      "alert": "OK",
      "vis_m": 5000,
      "fzfg": false,
      "metar_trigger": false,
      "taf_trigger": false,
      "metar": "METAR OJAI 110000Z 00000KT 5000 HZ NSC 18/06 Q1016 NOSIG",
      "taf": ""
    },
    {
      "icao": "OMAA",
      "alert": "OK",
      "vis_m": 9999,
      "fzfg": false,
      "metar_trigger": false,
      "taf_trigger": false,
      "metar": "METAR OMAA 110000Z 23003KT 190V260 CAVOK 30/24 Q1000 NOSIG",
      "taf": "TAF OMAA 102300Z 1100/1206 18005KT CAVOK"
    },
    {
      "icao": "OMDB",
      "alert": "OK",
      "vis_m": null,
      "fzfg": false,
      "metar_trigger": false,
      "taf_trigger": false,
      "metar": "",
      "taf": ""
    },
    {
      "icao": "UAAA",
      "alert": "OK",
      "vis_m": 9999,
      "fzfg": false,
      "metar_trigger": false,
      "taf_trigger": false,
      "metar": "METAR UAAA 110000Z 03003MPS 9999 SCT050CB BKN100 17/16 Q1015 NOSIG",
      "taf": "TAF UAAA 102301Z 1100/1124 21003G08MPS 9999 SCT050CB BKN100 TX26/1110Z TN17/1101Z"
    },
    {
      "icao": "UBBB",
      "alert": "OK",
      "vis_m": 9999,
      "fzfg": false,
      "metar_trigger": false,
      "taf_trigger": false,
      "metar": "METAR UBBB 110000Z 00000KT CAVOK 21/18 Q1012 NOSIG",
      "taf": "TAF UBBB 102259Z 1100/1124 VRB04KT 9999 FEW060CB TX30/1110Z TN19/1100Z"
    },
    {
      "icao": "UDSG",
      "alert": "OK",
      "vis_m": 9999,
      "fzfg": false,
      "metar_trigger": false,
      "taf_trigger": false,
      "metar": "METAR UDSG 110000Z 32002KT 9999 TS BKN033CB 11/09 Q1019 TEMPO -TSRA",
      "taf": "TAF UDSG 102300Z 1100/1124 27006KT 9999 SCT040"
    },
    {
      "icao": "UDYZ",
      "alert": "OK",
      "vis_m": 9999,
      "fzfg": false,
      "metar_trigger": false,
      "taf_trigger": false,
      "metar": "METAR UDYZ 110000Z 13003KT 090V180 9999 VCTS SCT043CB 18/13 Q1014 NOSIG",
      "taf": "TAF UDYZ 102300Z 1100/1124 14006KT 9999 SCT040"
    },
    {
      "icao": "UGKO",
      "alert": "OK",
      "vis_m": 9999,
      "fzfg": false,
      "metar_trigger": false,
      "taf_trigger": false,
      "metar": "METAR UGKO 110000Z 13005KT 090V170 9999 -SHRA SCT024CB BKN045 19/18 Q1013 NOSIG",
      "taf": "TAF UGKO 102300Z 1100/1124 26007KT 9999 SCT026 BKN050 TX26/1111Z TN17/1102Z"
    }
  ]
}