{
  "ts_utc": "2026-01-25T05:43:32Z",
  "threshold_m": 150,
  "source": "stations_override.txt (ICAO list) + aviationweather.gov (METAR/TAF raw)",
  "station_count": 159,
  "stations": [
    {
      "icao": "BIKF",
      "alert": "OK",
      "vis_m": 9999,
      "fzfg": false,
      "metar_trigger": false,
      "taf_trigger": false,
      "metar": "METAR BIKF 250530Z 08016KT CAVOK 04/M00 Q1006",
      "taf": "TAF BIKF 250406Z 2506/2606 09015KT 9999 FEW025 TX05/2513Z TN01/2602Z"
    },
    {
      "icao": "BKPR",
      "alert": "OK",
      "vis_m": 9999,
      "fzfg": false,
      "metar_trigger": false,
      "taf_trigger": false,
      "metar": "METAR BKPR 250530Z 20010KT 9999 FEW035 BKN055 05/04 Q1011 NOSIG",
      "taf": "TAF BKPR 250530Z 2506/2606 18010KT 9999 BKN040"
    },
    {
      "icao": "EBCI",
      "alert": "OK",
      "vis_m": 6000,
      "fzfg": false,
      "metar_trigger": false,
      "taf_trigger": false,
      "metar": "METAR EBCI 250520Z 16008KT 6000 NSC M00/M02 Q0997 TEMPO 3000 BR BKN008",
      "taf": "TAF EBCI 250506Z 2506/2612 16006KT CAVOK"
    },
    {
      "icao": "EDDB",
      "alert": "OK",
      "vis_m": 5000,
      "fzfg": false,
      "metar_trigger": false,
      "taf_trigger": false,
      "metar": "METAR EDDB 250520Z AUTO 08008KT 5000 BR BKN010 OVC030 M03/M05 Q1007 TEMPO 4000 BR",
      "taf": "TAF EDDB 250500Z 2506/2606 07008KT 4000 BR BKN009"
    },
    {
      "icao": "EDDH",
      "alert": "OK",
      "vis_m": 6000,
      "fzfg": false,
      "metar_trigger": false,
      "taf_trigger": false,
      "metar": "METAR EDDH 250520Z AUTO 09009KT 070V130 6000 OVC009 M02/M04 Q1005 TEMPO OVC010",
      "taf": "TAF EDDH 250500Z 2506/2612 09009KT 6000 OVC009"
    },
    {
      "icao": "EDDK",
      "alert": "OK",
      "vis_m": 9000,
      "fzfg": false,
      "metar_trigger": false,
      "taf_trigger": false,
      "metar": "METAR EDDK 250520Z AUTO 13008KT 090V160 9000 NSC M02/M06 Q1000 NOSIG",
      "taf": "TAF EDDK 250500Z 2506/2612 11006KT CAVOK"
    },
    {
      "icao": "EDDN",
      "alert": "OK",
      "vis_m": 7000,
      "fzfg": false,
      "metar_trigger": false,
      "taf_trigger": false,
      "metar": "METAR EDDN 250520Z AUTO VRB01KT 7000 OVC008 M03/M05 Q1001 NOSIG",
      "taf": "TAF EDDN 250500Z 2506/2606 VRB03KT 7000 BKN008"
    },
    {
      "icao": "EDDS",
      "alert": "OK",
      "vis_m": 7000,
      "fzfg": false,
      "metar_trigger": false,
      "taf_trigger": false,
      "metar": "METAR EDDS 250520Z AUTO VRB01KT 7000 NSC M03/M04 Q0998 TEMPO 3000 BR",
      "taf": "TAF EDDS 250500Z 2506/2606 VRB03KT 6000 BKN010"
    },
    {
      "icao": "EDFH",
      "alert": "OK",
      "vis_m": 5000,
      "fzfg": false,
      "metar_trigger": false,
      "taf_trigger": false,
      "metar": "METAR EDFH 250520Z 14010KT 5000 BR NSC M05/M06 Q0998",
      "taf": "TAF EDFH 250500Z 2506/2606 14010KT 6000 NSC"
    },
    {
      "icao": "EDJA",
      "alert": "OK",
      "vis_m": 4200,
      "fzfg": false,
      "metar_trigger": false,
      "taf_trigger": false,
      "metar": "METAR EDJA 250520Z 00000KT 4200 BR OVC004 M03/M03 Q0998",
      "taf": "TAF EDJA 250500Z 2506/2515 VRB03KT 4000 BR OVC003"
    },
    {
      "icao": "EDLW",
      "alert": "OK",
      "vis_m": 4100,
      "fzfg": false,
      "metar_trigger": false,
      "taf_trigger": false,
      "metar": "METAR EDLW 250520Z 02003KT 4100 BR NSC M04/M05 Q1000",
      "taf": "TAF EDLW 250500Z 2506/2606 08005KT CAVOK"
    },
    {
      "icao": "EDNY",
      "alert": "OK",
      "vis_m": 6000,
      "fzfg": false,
      "metar_trigger": false,
      "taf_trigger": false,
      "metar": "METAR EDNY 250520Z 03004KT 6000 OVC005 M00/M01 Q0999",
      "taf": "TAF EDNY 250500Z 2506/2515 VRB03KT 6000 BKN006"
    },
    {
      "icao": "EDSB",
      "alert": "OK",
      "vis_m": 5000,
      "fzfg": false,
      "metar_trigger": false,
      "taf_trigger": false,
      "metar": "METAR EDSB 250520Z 03006KT 5000 BR OVC011 M02/M03 Q1000",
      "taf": "TAF EDSB 250500Z 2506/2606 VRB03KT 4000 BR OVC005"
    },
    {
      "icao": "EETN",
      "alert": "OK",
      "vis_m": 9999,
      "fzfg": false,
      "metar_trigger": false,
      "taf_trigger": false,
      "metar": "METAR EETN 250520Z 10003KT 080V140 CAVOK M18/M20 Q1022 NOSIG",
      "taf": "TAF EETN 250530Z 2506/2606 13007KT 9999 FEW030"
    },
    {
      "icao": "EFTU",
      "alert": "OK",
      "vis_m": 9999,
      "fzfg": false,
      "metar_trigger": false,
      "taf_trigger": false,
      "metar": "METAR EFTU 250520Z AUTO 13005KT CAVOK M14/M15 Q1021",
      "taf": "TAF EFTU 250529Z 2506/2606 14004KT 9999 SCT025"
    },
    {
      "icao": "EGBB",
      "alert": "OK",
      "vis_m": 9999,
      "fzfg": false,
      "metar_trigger": false,
      "taf_trigger": false,
      "metar": "METAR EGBB 250520Z 15006KT 9999 FEW006 OVC009 06/06 Q0990",
      "taf": "TAF EGBB 250459Z 2506/2606 13010KT 9999 SCT008 BKN030"
    },
    {
      "icao": "EGGP",
      "alert": "OK",
      "vis_m": 9999,
      "fzfg": false,
      "metar_trigger": false,
      "taf_trigger": false,
      "metar": "METAR EGGP 250520Z AUTO 12011KT 9999 OVC016/// 06/04 Q0989",
      "taf": "TAF EGGP 250458Z 2506/2606 12010KT 9999 OVC030"
    },
    {
      "icao": "EGGW",
      "alert": "OK",
      "vis_m": 9000,
      "fzfg": false,
      "metar_trigger": false,
      "taf_trigger": false,
      "metar": "METAR EGGW 250520Z AUTO 14008KT 9000 BKN003/// //////TCU 06/05 Q0991",
      "taf": "TAF EGGW 250458Z 2506/2606 13010KT 9999 BKN005"
    },
    {
      "icao": "EGKK",
      "alert": "OK",
      "vis_m": 9999,
      "fzfg": false,
      "metar_trigger": false,
      "taf_trigger": false,
      "metar": "METAR EGKK 250520Z 14004KT 110V180 9999 BKN010 07/07 Q0992",
      "taf": "TAF EGKK 250502Z 2506/2612 14010KT 9999 FEW008 SCT020"
    },
    {
      "icao": "EGNM",
      "alert": "OK",
      "vis_m": 6000,
      "fzfg": false,
      "metar_trigger": false,
      "taf_trigger": false,
      "metar": "METAR EGNM 250520Z 11013KT 080V150 6000 -RA BKN004 05/05 Q0992",
      "taf": "TAF EGNM 242254Z 2500/2524 11012KT 9999 BKN013"
    },
    {
      "icao": "EGPD",
      "alert": "OK",
      "vis_m": 9999,
      "fzfg": false,
      "metar_trigger": false,
      "taf_trigger": false,
      "metar": "METAR EGPD 250520Z COR AUTO 11012G22KT 9999 BKN013 BKN036 06/03 Q1000 NOSIG",
      "taf": "TAF EGPD 250500Z 2506/2606 11012KT 9999 SCT014 BKN025"
    },
    {
      "icao": "EGPF",
      "alert": "OK",
      "vis_m": 7000,
      "fzfg": false,
      "metar_trigger": false,
      "taf_trigger": false,
      "metar": "METAR EGPF 250520Z AUTO 07020G30KT 7000 -RA BKN019 BKN034 06/04 Q0992",
      "taf": "TAF EGPF 250456Z 2506/2606 08018G28KT 9999 SCT016 BKN030"
    },
    {
      "icao": "EHBK",
      "alert": "OK",
      "vis_m": 6000,
      "fzfg": false,
      "metar_trigger": false,
      "taf_trigger": false,
      "metar": "METAR EHBK 250525Z AUTO 12005KT 6000 NSC M01/M03 Q0998 BECMG 8000",
      "taf": "TAF EHBK 250512Z 2506/2612 10007KT 9999 NSC"
    },
    {
      "icao": "EHEH",
      "alert": "OK",
      "vis_m": null,
      "fzfg": false,
      "metar_trigger": false,
      "taf_trigger": false,
      "metar": "",
      "taf": "TAF EHEH 242342Z 2500/2606 08004KT 5000 HZ NSC"
    },
    {
      "icao": "EKBI",
      "alert": "OK",
      "vis_m": 9000,
      "fzfg": false,
      "metar_trigger": false,
      "taf_trigger": false,
      "metar": "METAR EKBI 250520Z AUTO 07011KT 9000 -SN OVC006/// M00/M01 Q1007",
      "taf": "TAF EKBI 250527Z 2506/2606 08012KT 7000 OVC006"
    },
    {
      "icao": "EKCH",
      "alert": "OK",
      "vis_m": 9999,
      "fzfg": false,
      "metar_trigger": false,
      "taf_trigger": false,
      "metar": "METAR EKCH 250520Z 10011KT 9999 OVC012 01/M02 Q1010 NOSIG",
      "taf": "TAF EKCH 250527Z 2506/2606 10013KT 9999 OVC010"
    },
    {
      "icao": "ENAL",
      "alert": "OK",
      "vis_m": 9999,
      "fzfg": false,
      "metar_trigger": false,
      "taf_trigger": false,
      "metar": "METAR ENAL 250520Z AUTO 14013KT 9999 FEW037/// SCT048/// OVC059/// M01/M09 Q1013",
      "taf": "TAF ENAL 250500Z 2506/2515 14012KT 9999 BKN040"
    },
    {
      "icao": "ENBR",
      "alert": "OK",
      "vis_m": 9999,
      "fzfg": false,
      "metar_trigger": false,
      "taf_trigger": false,
      "metar": "METAR ENBR 250520Z 05003KT 9999 BKN049 M05/M11 Q1012 RMK WIND 1200FT 11007KT",
      "taf": "TAF ENBR 250500Z 2506/2606 04005KT 9999 FEW040"
    },
    {
      "icao": "ENGM",
      "alert": "OK",
      "vis_m": 9999,
      "fzfg": false,
      "metar_trigger": false,
      "taf_trigger": false,
      "metar": "METAR ENGM 250520Z 02003KT 9999 -SN BKN047 M07/M09 Q1016 NOSIG",
      "taf": "TAF ENGM 250500Z 2506/2606 36005KT 9999 -SN FEW020 BKN040"
    },
    {
      "icao": "ENHD",
      "alert": "OK",
      "vis_m": 9999,
      "fzfg": false,
      "metar_trigger": false,
      "taf_trigger": false,
      "metar": "METAR ENHD 250520Z AUTO 24013KT 9999 NCD 00/M09 Q1011",
      "taf": ""
    },
    {
      "icao": "ENTC",
      "alert": "OK",
      "vis_m": 4500,
      "fzfg": false,
      "metar_trigger": false,
      "taf_trigger": false,
      "metar": "METAR ENTC 250520Z 18011KT 4500 -SHSN VV014 M01/M01 Q1008 RMK WIND 2600FT 31011KT",
      "taf": "TAF ENTC 250500Z 2506/2606 19012KT 7000 -SN SCT010 BKN020"
    },
    {
      "icao": "ENTO",
      "alert": "OK",
      "vis_m": 9999,
      "fzfg": false,
      "metar_trigger": false,
      "taf_trigger": false,
      "metar": "METAR ENTO 250520Z AUTO 03005KT 9999 OVC048/// M05/M07 Q1015",
      "taf": "TAF ENTO 250500Z 2506/2606 02008KT 9999 -SN FEW012 BKN040"
    },
    {
      "icao": "ENVA",
      "alert": "OK",
      "vis_m": 9999,
      "fzfg": false,
      "metar_trigger": false,
      "taf_trigger": false,
      "metar": "METAR ENVA 250520Z AUTO 12005KT 9999 SCT047/// M10/M14 Q1015 RMK WIND 670FT 10008KT",
      "taf": "TAF ENVA 250500Z 2506/2606 10005KT 9999 BKN050"
    },
    {
      "icao": "ENZV",
      "alert": "OK",
      "vis_m": 9999,
      "fzfg": false,
      "metar_trigger": false,
      "taf_trigger": false,
      "metar": "METAR ENZV 250520Z 10009KT CAVOK M00/M09 Q1011",
      "taf": "TAF ENZV 250500Z 2506/2606 08008KT 9999 FEW050"
    },
    {
      "icao": "EPGD",
      "alert": "OK",
      "vis_m": 9999,
      "fzfg": false,
      "metar_trigger": false,
      "taf_trigger": false,
      "metar": "METAR EPGD 250530Z 12009KT 9999 BKN036 M08/M10 Q1012",
      "taf": "TAF EPGD 250530Z 2506/2606 11010KT 9999 OVC035"
    },
    {
      "icao": "EPKK",
      "alert": "OK",
      "vis_m": 2000,
      "fzfg": false,
      "metar_trigger": false,
      "taf_trigger": false,
      "metar": "METAR EPKK 250530Z 06009KT 2000 BR OVC003 M01/M02 Q1007 REFZRA",
      "taf": "TAF EPKK 250530Z 2506/2606 06008KT 3000 BR OVC006"
    },
    {
      "icao": "EPKT",
      "alert": "OK",
      "vis_m": 3100,
      "fzfg": false,
      "metar_trigger": false,
      "taf_trigger": false,
      "metar": "METAR EPKT 250530Z 07006KT 3100 -FZRA BR SCT003 OVC029 M01/M01 Q1006",
      "taf": "TAF EPKT 250530Z 2506/2606 09006KT 4000 BR BKN006"
    },
    {
      "icao": "EPLB",
      "alert": "OK",
      "vis_m": 4000,
      "fzfg": false,
      "metar_trigger": false,
      "taf_trigger": false,
      "metar": "METAR EPLB 250530Z 09010KT 4000 -SN BR OVC005 M06/M07 Q1012",
      "taf": "TAF EPLB 250530Z 2506/2606 10012KT 6000 -SN BKN007 OVC012"
    },
    {
      "icao": "EPMO",
      "alert": "OK",
      "vis_m": 9000,
      "fzfg": false,
      "metar_trigger": false,
      "taf_trigger": false,
      "metar": "METAR EPMO 250530Z 08011KT 9000 -SN OVC009 M06/M07 Q1011",
      "taf": "TAF EPMO 250530Z 2506/2606 08012KT 8000 OVC010"
    },
    {
      "icao": "EPPO",
      "alert": "OK",
      "vis_m": 6000,
      "fzfg": false,
      "metar_trigger": false,
      "taf_trigger": false,
      "metar": "METAR EPPO 250530Z 09009KT 6000 OVC009 M04/M06 Q1009",
      "taf": "TAF EPPO 250530Z 2506/2606 09010KT 6000 OVC012"
    },
    {
      "icao": "EPRA",
      "alert": "OK",
      "vis_m": 5000,
      "fzfg": false,
      "metar_trigger": false,
      "taf_trigger": false,
      "metar": "METAR EPRA 250530Z 09010KT 5000 -SN OVC003 M04/M06 Q1010",
      "taf": "TAF EPRA 250530Z 2506/2515 09010KT 5000 -SN BR OVC004"
    },
    {
      "icao": "EPRZ",
      "alert": "OK",
      "vis_m": 4000,
      "fzfg": false,
      "metar_trigger": false,
      "taf_trigger": false,
      "metar": "METAR EPRZ 250530Z 09012KT 4000 -FZRA BR BKN005 OVC033 M01/M02 Q1009",
      "taf": "TAF EPRZ 250530Z 2506/2606 09008KT 6000 OVC006"
    },
    {
      "icao": "EPSC",
      "alert": "OK",
      "vis_m": 6000,
      "fzfg": false,
      "metar_trigger": false,
      "taf_trigger": false,
      "metar": "METAR EPSC 250530Z 10007KT 080V140 6000 BKN012 M04/M07 Q1009",
      "taf": "TAF EPSC 250530Z 2506/2606 09009KT 9999 OVC020"
    },
    {
      "icao": "EPSY",
      "alert": "OK",
      "vis_m": 9000,
      "fzfg": false,
      "metar_trigger": false,
      "taf_trigger": false,
      "metar": "METAR EPSY 250530Z 10006KT 060V150 9000 -SN BKN010 OVC026 M07/M09 Q1013",
      "taf": "TAF EPSY 250530Z 2506/2515 10008KT 8000 OVC026"
    },
    {
      "icao": "EPWA",
      "alert": "OK",
      "vis_m": 9999,
      "fzfg": false,
      "metar_trigger": false,
      "taf_trigger": false,
      "metar": "METAR EPWA 250530Z 09010KT 9999 OVC008 M05/M06 Q1011 NOSIG",
      "taf": "TAF EPWA 250530Z 2506/2606 09010KT 8000 OVC010"
    },
    {
      "icao": "EPWR",
      "alert": "OK",
      "vis_m": 4400,
      "fzfg": false,
      "metar_trigger": false,
      "taf_trigger": false,
      "metar": "METAR EPWR 250530Z 08006KT 4400 BR OVC009 M02/M03 Q1006",
      "taf": "TAF EPWR 250530Z 2506/2606 08006KT 4000 BR OVC009"
    },
    {
      "icao": "ESGG",
      "alert": "OK",
      "vis_m": 9999,
      "fzfg": false,
      "metar_trigger": false,
      "taf_trigger": false,
      "metar": "METAR ESGG 250520Z 09008KT 9999 -SN OVC032 M04/M07 Q1012",
      "taf": "TAF ESGG 250530Z 2506/2606 09009KT 9999 -SN OVC030"
    },
    {
      "icao": "ESKN",
      "alert": "OK",
      "vis_m": 9999,
      "fzfg": false,
      "metar_trigger": false,
      "taf_trigger": false,
      "metar": "METAR ESKN 250520Z 10009KT 9999 BKN033 M03/M08 Q1017",
      "taf": "TAF ESKN 250530Z 2506/2606 10008KT 9999 -SN BKN030"
    },
    {
      "icao": "ESMS",
      "alert": "OK",
      "vis_m": 6000,
      "fzfg": false,
      "metar_trigger": false,
      "taf_trigger": false,
      "metar": "METAR ESMS 250520Z 09015KT 6000 OVC009 00/M02 Q1009",
      "taf": "TAF ESMS 250527Z 2506/2606 09015KT 6000 OVC008"
    },
    {
      "icao": "ESSA",
      "alert": "OK",
      "vis_m": 9000,
      "fzfg": false,
      "metar_trigger": false,
      "taf_trigger": false,
      "metar": "METAR ESSA 250520Z 07010KT 9000 -SN FEW016 BKN040 M05/M07 Q1018 TEMPO 4000",
      "taf": "TAF ESSA 250530Z 2506/2606 07007KT 9999 -SN BKN040"
    },
    {
      "icao": "EYKA",
      "alert": "OK",
      "vis_m": 9999,
      "fzfg": false,
      "metar_trigger": false,
      "taf_trigger": false,
      "metar": "METAR EYKA 250520Z 10007KT 9999 -SN BKN044 M10/M13 Q1018",
      "taf": "TAF EYKA 250510Z 2506/2606 12010KT 9000 BKN040"
    },
    {
      "icao": "EYPA",
      "alert": "OK",
      "vis_m": 9999,
      "fzfg": false,
      "metar_trigger": false,
      "taf_trigger": false,
      "metar": "METAR EYPA 250520Z 09006KT 060V120 CAVOK M10/M13 Q1017",
      "taf": "TAF EYPA 250509Z 2506/2606 12009KT 7000 BKN025"
    },
    {
      "icao": "EYVI",
      "alert": "OK",
      "vis_m": 9999,
      "fzfg": false,
      "metar_trigger": false,
      "taf_trigger": false,
      "metar": "METAR EYVI 250520Z 12007KT 9999 -SN NSC M13/M15 Q1018 NOSIG",
      "taf": "TAF EYVI 250500Z 2506/2606 12012KT 9000 OVC035"
    },
    {
      "icao": "GCFV",
      "alert": "OK",
      "vis_m": 9999,
      "fzfg": false,
      "metar_trigger": false,
      "taf_trigger": false,
      "metar": "METAR GCFV 250530Z AUTO 29007KT 9999 FEW040 13/08 Q1027",
      "taf": "TAF GCFV 250200Z 2503/2603 33005KT 9999 FEW030 TX20/2514Z TN14/2506Z"
    },
    {
      "icao": "GCLP",
      "alert": "OK",
      "vis_m": 9999,
      "fzfg": false,
      "metar_trigger": false,
      "taf_trigger": false,
      "metar": "METAR GCLP 250530Z 34007KT 9999 SCT035 16/10 Q1027 NOSIG",
      "taf": "TAF GCLP 250200Z 2503/2603 33006KT 9999 FEW035 TX20/2514Z TN13/2506Z"
    },
    {
      "icao": "GCTS",
      "alert": "OK",
      "vis_m": 9999,
      "fzfg": false,
      "metar_trigger": false,
      "taf_trigger": false,
      "metar": "METAR GCTS 250530Z 04008KT 9999 FEW040 16/08 Q1028 NOSIG",
      "taf": "TAF GCTS 250200Z 2503/2603 01007KT 9999 SCT040 TX22/2514Z TN14/2506Z"
    },
    {
      "icao": "GMAD",
      "alert": "OK",
      "vis_m": 9999,
      "fzfg": false,
      "metar_trigger": false,
      "taf_trigger": false,
      "metar": "METAR GMAD 250530Z 02004KT 9999 FEW020 06/05 Q1023 NOSIG",
      "taf": "TAF GMAD 250500Z 2506/2612 06010KT 8000 SCT020"
    },
    {
      "icao": "GMMN",
      "alert": "OK",
      "vis_m": 9999,
      "fzfg": false,
      "metar_trigger": false,
      "taf_trigger": false,
      "metar": "METAR GMMN 250530Z 20007KT 9999 FEW016TCU SCT030 08/07 Q1024 NOSIG",
      "taf": "TAF GMMN 250500Z 2506/2612 20004KT 8000 FEW016TCU SCT030"
    },
    {
      "icao": "GMMX",
      "alert": "OK",
      "vis_m": 8000,
      "fzfg": false,
      "metar_trigger": false,
      "taf_trigger": false,
      "metar": "METAR GMMX 250530Z 08004KT 8000 SCT010 SCT020 05/03 Q1024 NOSIG",
      "taf": "TAF GMMX 250500Z 2506/2612 20006KT 8000 SCT020"
    },
    {
      "icao": "HEGN",
      "alert": "OK",
      "vis_m": 9999,
      "fzfg": false,
      "metar_trigger": false,
      "taf_trigger": false,
      "metar": "METAR HEGN 250500Z 00000KT CAVOK 12/M01 Q1021 NOSIG",
      "taf": "TAF HEGN 250500Z 2506/2612 01012KT CAVOK"
    },
    {
      "icao": "HEMA",
      "alert": "OK",
      "vis_m": 9999,
      "fzfg": false,
      "metar_trigger": false,
      "taf_trigger": false,
      "metar": "METAR HEMA 250500Z 30015KT CAVOK 19/05 Q1019 NOSIG",
      "taf": "TAF HEMA 250500Z 2506/2612 02014KT CAVOK"
    },
    {
      "icao": "HESH",
      "alert": "OK",
      "vis_m": 9999,
      "fzfg": false,
      "metar_trigger": false,
      "taf_trigger": false,
      "metar": "METAR HESH 250500Z 32008KT CAVOK 16/00 Q1021 NOSIG",
      "taf": "TAF HESH 250500Z 2506/2612 03012KT CAVOK"
    },
    {
      "icao": "HESX",
      "alert": "OK",
      "vis_m": 9999,
      "fzfg": false,
      "metar_trigger": false,
      "taf_trigger": false,
      "metar": "METAR HESX 250500Z 15004KT CAVOK 09/04 Q1020 NOSIG",
      "taf": "TAF HESX 250500Z 2506/2612 15007KT 6000 NSC"
    },
    {
      "icao": "LATI",
      "alert": "OK",
      "vis_m": 9999,
      "fzfg": false,
      "metar_trigger": false,
      "taf_trigger": false,
      "metar": "METAR LATI 250520Z 16004KT 9999 OVC120 09/06 Q1008 NOSIG",
      "taf": "TAF LATI 250500Z 2506/2606 17008KT 9999 BKN080 TX18/2512Z TN06/2604Z"
    },
    {
      "icao": "LBPD",
      "alert": "OK",
      "vis_m": 9999,
      "fzfg": false,
      "metar_trigger": false,
      "taf_trigger": false,
      "metar": "METAR LBPD 250530Z AUTO VRB02KT 9999 OVC007/// 03/03 Q1016 NOSIG",
      "taf": "TAF LBPD 250500Z 2506/2606 VRB04KT 9999 OVC010"
    },
    {
      "icao": "LBSF",
      "alert": "OK",
      "vis_m": 800,
      "fzfg": true,
      "metar_trigger": false,
      "taf_trigger": false,
      "metar": "METAR LBSF 250530Z VRB02KT 0800 R27/1700U FZFG VV002 M01/M01 Q1014 NOSIG",
      "taf": "TAF LBSF 250500Z 2506/2606 VRB04KT 0400 FZFG OVC002"
    },
    {
      "icao": "LBWN",
      "alert": "OK",
      "vis_m": 5000,
      "fzfg": false,
      "metar_trigger": false,
      "taf_trigger": false,
      "metar": "METAR LBWN 250530Z AUTO 10004KT 5000 BR FEW016/// 05/05 Q1014 TEMPO 3000 BR",
      "taf": "TAF LBWN 250500Z 2506/2606 VRB03KT 5000 BR BKN015"
    },
    {
      "icao": "LCLK",
      "alert": "OK",
      "vis_m": 9999,
      "fzfg": false,
      "metar_trigger": false,
      "taf_trigger": false,
      "metar": "METAR LCLK 250530Z 33005KT 9999 FEW020 10/09 Q1022 NOSIG",
      "taf": ""
    },
    {
      "icao": "LCPH",
      "alert": "OK",
      "vis_m": 7000,
      "fzfg": false,
      "metar_trigger": false,
      "taf_trigger": false,
      "metar": "METAR LCPH 250530Z 07008KT 010V080 7000 NSC 10/07 Q1021 TEMPO 5000 DU",
      "taf": ""
    },
    {
      "icao": "LEAL",
      "alert": "OK",
      "vis_m": 9999,
      "fzfg": false,
      "metar_trigger": false,
      "taf_trigger": false,
      "metar": "METAR LEAL 250530Z 26011KT 220V290 CAVOK 12/01 Q1009 NOSIG",
      "taf": "TAF LEAL 250500Z 2506/2606 23008KT CAVOK TX18/2513Z TN09/2506Z"
    },
    {
      "icao": "LEBB",
      "alert": "OK",
      "vis_m": 9999,
      "fzfg": false,
      "metar_trigger": false,
      "taf_trigger": false,
      "metar": "METAR LEBB 250530Z 21019G36KT 160V260 CAVOK 11/02 Q1001 NOSIG",
      "taf": "TAF LEBB 250500Z 2506/2606 21009KT 9999 FEW040 TX12/2512Z TN07/2605Z"
    },
    {
      "icao": "LEBL",
      "alert": "OK",
      "vis_m": 9999,
      "fzfg": false,
      "metar_trigger": false,
      "taf_trigger": false,
      "metar": "METAR LEBL 250530Z 35007KT 9999 FEW030 07/03 Q1003 NOSIG",
      "taf": "TAF LEBL 250500Z 2506/2606 31012KT 9999 FEW020 TX16/2512Z TN08/2506Z"
    },
    {
      "icao": "LECH",
      "alert": "OK",
      "vis_m": 9999,
      "fzfg": false,
      "metar_trigger": false,
      "taf_trigger": false,
      "metar": "METAR LECH 250530Z AUTO VRB01KT CAVOK 06/M02 Q1005",
      "taf": ""
    },
    {
      "icao": "LEMD",
      "alert": "OK",
      "vis_m": 9000,
      "fzfg": false,
      "metar_trigger": false,
      "taf_trigger": false,
      "metar": "METAR LEMD 250530Z 23007KT 9000 -DZRA SCT035 BKN040 BKN050 04/04 Q1009 RERA WS ALL RWY NOSIG",
      "taf": "TAF LEMD 250500Z 2506/2612 23010KT 9999 FEW030 TX10/2516Z TN03/2606Z"
    },
    {
      "icao": "LEMG",
      "alert": "OK",
      "vis_m": 9999,
      "fzfg": false,
      "metar_trigger": false,
      "taf_trigger": false,
      "metar": "METAR LEMG 250530Z 27004KT 230V290 9999 SCT055 09/04 Q1017 NOSIG",
      "taf": "TAF LEMG 250500Z 2506/2606 VRB02KT CAVOK TX16/2514Z TN10/2507Z"
    },
    {
      "icao": "LEVC",
      "alert": "OK",
      "vis_m": 9999,
      "fzfg": false,
      "metar_trigger": false,
      "taf_trigger": false,
      "metar": "METAR LEVC 250530Z 24010KT CAVOK 09/02 Q1009 NOSIG",
      "taf": "TAF LEVC 250500Z 2506/2606 27018KT CAVOK TX17/2513Z TN08/2506Z"
    },
    {
      "icao": "LEXJ",
      "alert": "OK",
      "vis_m": 9999,
      "fzfg": false,
      "metar_trigger": false,
      "taf_trigger": false,
      "metar": "METAR LEXJ 250530Z 21012KT 170V260 9999 BKN080 10/01 Q1000",
      "taf": "TAF LEXJ 250200Z 2503/2603 20009KT 9999 BKN050 TX12/2514Z TN07/2603Z"
    },
    {
      "icao": "LEZG",
      "alert": "OK",
      "vis_m": 9999,
      "fzfg": false,
      "metar_trigger": false,
      "taf_trigger": false,
      "metar": "METAR LEZG 250530Z 24018KT 220V280 9999 FEW070 09/02 Q1005 NOSIG",
      "taf": "TAF LEZG 250500Z 2506/2606 26018KT 9999 FEW050 TX14/2513Z TN06/2506Z"
    },
    {
      "icao": "LEZL",
      "alert": "OK",
      "vis_m": 9999,
      "fzfg": false,
      "metar_trigger": false,
      "taf_trigger": false,
      "metar": "METAR LEZL 250530Z 23008KT 9999 SCT049 11/09 Q1017 NOSIG",
      "taf": "TAF LEZL 250200Z 2503/2603 24010KT CAVOK TX18/2515Z TN09/2507Z"
    },
    {
      "icao": "LFBD",
      "alert": "OK",
      "vis_m": 6000,
      "fzfg": false,
      "metar_trigger": false,
      "taf_trigger": false,
      "metar": "METAR LFBD 250530Z AUTO 21011KT 180V240 6000 RA FEW008/// BKN035/// OVC041/// ///CB 08/07 Q0998 TEMPO 24020G30KT 2000 TSRA BKN010 BKN025CB",
      "taf": "TAF LFBD 250500Z 2506/2612 20010KT 9999 BKN040 TX12/2612Z TN05/2520Z"
    },
    {
      "icao": "LFLL",
      "alert": "OK",
      "vis_m": 4700,
      "fzfg": false,
      "metar_trigger": false,
      "taf_trigger": false,
      "metar": "METAR LFLL 250530Z 16003KT 120V210 4700 BR BKN002 BKN030 02/02 Q1000 NOSIG",
      "taf": "TAF LFLL 250500Z 2506/2612 VRB02KT 4000 BR BKN004"
    },
    {
      "icao": "LFLS",
      "alert": "OK",
      "vis_m": 3500,
      "fzfg": false,
      "metar_trigger": false,
      "taf_trigger": false,
      "metar": "METAR LFLS 250530Z AUTO 14003KT 3500 -RA BR OVC029 02/02 Q1000 TEMPO BKN008 BKN030 BECMG 9999 NSW",
      "taf": "TAF LFLS 250200Z 2503/2603 VRB04KT 9999 SCT020 BKN040"
    },
    {
      "icao": "LFMN",
      "alert": "OK",
      "vis_m": 7000,
      "fzfg": false,
      "metar_trigger": false,
      "taf_trigger": false,
      "metar": "METAR LFMN 250530Z 34006KT 7000 -SHRA FEW026CB SCT030 BKN040 07/04 Q0999 TEMPO 4000 -TSRA",
      "taf": "TAF LFMN 250200Z 2503/2609 34010KT 9999 BKN060"
    },
    {
      "icao": "LFOB",
      "alert": "OK",
      "vis_m": 7000,
      "fzfg": false,
      "metar_trigger": false,
      "taf_trigger": false,
      "metar": "METAR LFOB 250530Z AUTO 11007KT 7000 OVC007 03/03 Q0995 TEMPO 4000 -DZ OVC004",
      "taf": "TAF LFOB 250500Z 2506/2606 13007KT 6000 OVC012"
    },
    {
      "icao": "LFPO",
      "alert": "OK",
      "vis_m": 9999,
      "fzfg": false,
      "metar_trigger": false,
      "taf_trigger": false,
      "metar": "METAR LFPO 250530Z AUTO 16004KT 120V190 9999 OVC008 05/03 Q0996 TEMPO 4000 BR BKN002",
      "taf": ""
    },
    {
      "icao": "LFSB",
      "alert": "OK",
      "vis_m": 4600,
      "fzfg": false,
      "metar_trigger": false,
      "taf_trigger": false,
      "metar": "METAR LFSB 250530Z AUTO 35002KT 4600 BR OVC005 01/01 Q0999 TEMPO 0500 FG VV///",
      "taf": "TAF LFSB 250500Z 2506/2606 VRB03KT 3000 BR OVC005"
    },
    {
      "icao": "LGAV",
      "alert": "OK",
      "vis_m": 9999,
      "fzfg": false,
      "metar_trigger": false,
      "taf_trigger": false,
      "metar": "METAR LGAV 250520Z 23002KT 9999 FEW015 SCT180 07/06 Q1016 NOSIG",
      "taf": "TAF LGAV 250500Z 2506/2606 20012KT 9999 FEW015 SCT020"
    },
    {
      "icao": "LGTS",
      "alert": "OK",
      "vis_m": 8000,
      "fzfg": false,
      "metar_trigger": false,
      "taf_trigger": false,
      "metar": "METAR LGTS 250520Z VRB02KT 8000 SCT007 BKN025 10/09 Q1015 NOSIG",
      "taf": "TAF LGTS 250500Z 2506/2606 VRB03KT 9999 FEW010 BKN025"
    },
    {
      "icao": "LHBP",
      "alert": "OK",
      "vis_m": 6000,
      "fzfg": false,
      "metar_trigger": false,
      "taf_trigger": false,
      "metar": "METAR LHBP 250530Z VRB01KT 6000 2700W FEW004 BKN230 M00/M01 Q1007 TEMPO 3000 BR BKN004",
      "taf": "TAF LHBP 250515Z 2506/2606 06006KT 6000 SCT015 BKN150"
    },
    {
      "icao": "LHDC",
      "alert": "OK",
      "vis_m": 5000,
      "fzfg": false,
      "metar_trigger": false,
      "taf_trigger": false,
      "metar": "METAR LHDC 250515Z AUTO 06004KT 5000 -SHRA BR NSC 02/01 Q1009",
      "taf": "TAF LHDC 250515Z 2506/2515 05004KT 5000 BR SCT015 BKN040"
    },
    {
      "icao": "LIBD",
      "alert": "OK",
      "vis_m": 9999,
      "fzfg": false,
      "metar_trigger": false,
      "taf_trigger": false,
      "metar": "METAR LIBD 250520Z 17011G22KT CAVOK 15/11 Q1002",
      "taf": "TAF LIBD 242300Z 2500/2524 15012KT 9999 SCT020"
    },
    {
      "icao": "LIBG",
      "alert": "OK",
      "vis_m": null,
      "fzfg": false,
      "metar_trigger": false,
      "taf_trigger": false,
      "metar": "",
      "taf": ""
    },
    {
      "icao": "LIBP",
      "alert": "OK",
      "vis_m": 100,
      "fzfg": false,
      "metar_trigger": false,
      "taf_trigger": false,
      "metar": "METAR LIBP 250520Z AUTO 22005KT 0100 R22/0550N -RA FG VV002 08/08 Q0998",
      "taf": ""
    },
    {
      "icao": "LIBR",
      "alert": "OK",
      "vis_m": 9999,
      "fzfg": false,
      "metar_trigger": false,
      "taf_trigger": false,
      "metar": "METAR LIBR 250520Z 16014KT 9999 BKN025 15/12 Q1006",
      "taf": "TAF LIBR 250500Z 2506/2606 15016G26KT 9999 SCT020"
    },
    {
      "icao": "LICA",
      "alert": "OK",
      "vis_m": 9999,
      "fzfg": false,
      "metar_trigger": false,
      "taf_trigger": false,
      "metar": "METAR LICA 250520Z AUTO 08019KT 9999 FEW024/// SCT140/// 16/12 Q1003",
      "taf": ""
    },
    {
      "icao": "LICC",
      "alert": "OK",
      "vis_m": 8000,
      "fzfg": false,
      "metar_trigger": false,
      "taf_trigger": false,
      "metar": "METAR LICC 250520Z 03006KT 8000 NSC 15/13 Q1002",
      "taf": "TAF LICC 242300Z 2500/2524 VRB06KT 9999 SCT030"
    },
    {
      "icao": "LICJ",
      "alert": "OK",
      "vis_m": 9999,
      "fzfg": false,
      "metar_trigger": false,
      "taf_trigger": false,
      "metar": "METAR LICJ 250520Z 16006KT 9999 -RA SCT035 11/09 Q1003",
      "taf": "TAF LICJ 242300Z 2500/2524 22010KT 9999 SCT030"
    },
    {
      "icao": "LIMC",
      "alert": "OK",
      "vis_m": 8000,
      "fzfg": false,
      "metar_trigger": false,
      "taf_trigger": false,
      "metar": "METAR LIMC 250520Z 03005KT 8000 -RA BKN010 04/04 Q1000 NOSIG",
      "taf": "TAF LIMC 250500Z 2506/2612 VRB05KT 2000 BR BKN012"
    },
    {
      "icao": "LIME",
      "alert": "OK",
      "vis_m": 1500,
      "fzfg": false,
      "metar_trigger": false,
      "taf_trigger": false,
      "metar": "METAR LIME 250520Z 25003KT 1500 BR BKN002 05/05 Q1000 NOSIG",
      "taf": ""
    },
    {
      "icao": "LIMF",
      "alert": "OK",
      "vis_m": 8000,
      "fzfg": false,
      "metar_trigger": false,
      "taf_trigger": false,
      "metar": "METAR LIMF 250520Z 28004KT 8000 SCT010 BKN035 04/02 Q1000",
      "taf": "TAF LIMF 250500Z 2506/2606 VRB03KT 4000 RA SCT020 BKN040"
    },
    {
      "icao": "LIMJ",
      "alert": "OK",
      "vis_m": 9999,
      "fzfg": false,
      "metar_trigger": false,
      "taf_trigger": false,
      "metar": "METAR LIMJ 250520Z 04014KT CAVOK 06/02 Q0999",
      "taf": "TAF LIMJ 250500Z 2506/2606 03012KT 9999 SCT040"
    },
    {
      "icao": "LIPE",
      "alert": "OK",
      "vis_m": 1200,
      "fzfg": false,
      "metar_trigger": false,
      "taf_trigger": false,
      "metar": "METAR LIPE 250520Z VRB03KT 1200 R12/P2000N R30/P2000N DZ BR SCT005 BKN060 05/05 Q0999",
      "taf": "TAF LIPE 242300Z 2500/2524 VRB05KT 2000 -RA BR BKN004"
    },
    {
      "icao": "LIPH",
      "alert": "OK",
      "vis_m": 7000,
      "fzfg": false,
      "metar_trigger": false,
      "taf_trigger": false,
      "metar": "METAR LIPH 250520Z AUTO 36006KT 7000 RA BKN004/// BKN023/// BKN033/// 08/08 Q1000",
      "taf": "TAF LIPH 250500Z 2506/2606 VRB05KT 4000 RA BKN010"
    },
    {
      "icao": "LIPQ",
      "alert": "OK",
      "vis_m": 9999,
      "fzfg": false,
      "metar_trigger": false,
      "taf_trigger": false,
      "metar": "METAR LIPQ 250520Z AUTO 02003KT 350V080 9999 -RA SCT029/// OVC055/// 08/07 Q0999",
      "taf": "TAF LIPQ 242300Z 2500/2524 08007KT 9999 BKN020"
    },
    {
      "icao": "LIPR",
      "alert": "OK",
      "vis_m": 4500,
      "fzfg": false,
      "metar_trigger": false,
      "taf_trigger": false,
      "metar": "METAR LIPR 250520Z AUTO 31005KT 4500 -RA BR OVC047/// 07/07 Q0999",
      "taf": "TAF LIPR 250500Z 2506/2606 VRB05KT 4000 RA BKN030"
    },
    {
      "icao": "LIPX",
      "alert": "OK",
      "vis_m": 9999,
      "fzfg": false,
      "metar_trigger": false,
      "taf_trigger": false,
      "metar": "METAR LIPX 250520Z 26006KT 240V300 9999 FEW009 SCT090 07/06 Q1000",
      "taf": "TAF LIPX 250500Z 2506/2606 09007KT 4000 RA BR BKN040"
    },
    {
      "icao": "LIPY",
      "alert": "OK",
      "vis_m": 2700,
      "fzfg": false,
      "metar_trigger": false,
      "taf_trigger": false,
      "metar": "METAR LIPY 250520Z AUTO 19003KT 150V210 2700 RA BR OVC012/// 09/09 Q0999",
      "taf": "TAF LIPY 242300Z 2500/2524 VRB05KT 2000 BR BKN010"
    },
    {
      "icao": "LIPZ",
      "alert": "OK",
      "vis_m": 9000,
      "fzfg": false,
      "metar_trigger": false,
      "taf_trigger": false,
      "metar": "METAR LIPZ 250520Z 01007KT 9000 -RA BKN030 08/08 Q0999 NOSIG",
      "taf": "TAF LIPZ 242300Z 2500/2606 04008KT 4000 RA BKN004"
    },
    {
      "icao": "LIRF",
      "alert": "OK",
      "vis_m": 9999,
      "fzfg": false,
      "metar_trigger": false,
      "taf_trigger": false,
      "metar": "METAR LIRF 250520Z 08008KT 9999 -RA SCT050 08/07 Q1001 NOSIG",
      "taf": "TAF LIRF 250500Z 2506/2612 09010KT 9999 SCT030"
    },
    {
      "icao": "LIRN",
      "alert": "OK",
      "vis_m": 9999,
      "fzfg": false,
      "metar_trigger": false,
      "taf_trigger": false,
      "metar": "METAR LIRN 250520Z AUTO 21014G24KT 9999 -RA SCT012/// SCT039/// BKN067/// 14/11 Q1000",
      "taf": "TAF LIRN 250500Z 2506/2606 25012KT 9999 SCT030"
    },
    {
      "icao": "LIRP",
      "alert": "OK",
      "vis_m": 8000,
      "fzfg": false,
      "metar_trigger": false,
      "taf_trigger": false,
      "metar": "METAR LIRP 250515Z 12012KT 8000 -RA SCT020 BKN050 09/09 Q0999 NOSIG",
      "taf": "TAF LIRP 250500Z 2506/2606 10008KT 9999 SCT020 BKN050"
    },
    {
      "icao": "LIRZ",
      "alert": "OK",
      "vis_m": 9999,
      "fzfg": false,
      "metar_trigger": false,
      "taf_trigger": false,
      "metar": "METAR LIRZ 250520Z AUTO 35003KT 9999 -RA OVC047/// 07/06 Q1000",
      "taf": "TAF LIRZ 250500Z 2506/2606 VRB05KT 9999 BKN030"
    },
    {
      "icao": "LJLJ",
      "alert": "OK",
      "vis_m": 800,
      "fzfg": false,
      "metar_trigger": false,
      "taf_trigger": false,
      "metar": "METAR LJLJ 250530Z 16003KT 120V190 0800 R30/1400N -RA FG FEW001 OVC010 02/01 Q1002 NOSIG",
      "taf": "TAF LJLJ 250500Z 2506/2606 VRB02KT 2000 BR FEW001 SCT007 OVC030"
    },
    {
      "icao": "LKMT",
      "alert": "OK",
      "vis_m": 1500,
      "fzfg": false,
      "metar_trigger": false,
      "taf_trigger": false,
      "metar": "METAR LKMT 250530Z 03004KT 1500 BR OVC004 M01/M01 Q1005 TEMPO -FZDZ",
      "taf": "TAF LKMT 250500Z 2506/2606 02006KT 1600 BR OVC006"
    },
    {
      "icao": "LKPR",
      "alert": "OK",
      "vis_m": 700,
      "fzfg": true,
      "metar_trigger": false,
      "taf_trigger": false,
      "metar": "METAR LKPR 250530Z 34004KT 300V360 0700 R24/0800N R30/0650N FZFG BKN002 OVC008 M02/M02 Q1002 NOSIG",
      "taf": "TAF LKPR 250500Z 2506/2612 32002KT 0800 FZFG OVC002"
    },
    {
      "icao": "LLBG",
      "alert": "OK",
      "vis_m": 9999,
      "fzfg": false,
      "metar_trigger": false,
      "taf_trigger": false,
      "metar": "METAR LLBG 250520Z VRB01KT CAVOK 10/05 Q1022 NOSIG",
      "taf": "TAF LLBG 250501Z 2506/2606 VRB04KT CAVOK"
    },
    {
      "icao": "LMML",
      "alert": "OK",
      "vis_m": 9999,
      "fzfg": false,
      "metar_trigger": false,
      "taf_trigger": false,
      "metar": "METAR LMML 250515Z COR 30010KT 9999 FEW009 14/13 Q1003 NOSIG",
      "taf": "TAF LMML 250500Z 2506/2606 30015KT 9999 FEW017"
    },
    {
      "icao": "LOWW",
      "alert": "OK",
      "vis_m": 600,
      "fzfg": false,
      "metar_trigger": false,
      "taf_trigger": false,
      "metar": "METAR LOWW 250520Z 15015KT 0600 R11/0600N R16/0800N FG FEW000 BKN001 01/01 Q1003 TEMPO 0400 FG",
      "taf": "TAF LOWW 250515Z 2506/2612 14012KT 0500 FG VV001 TX02/2521Z TN00/2607Z"
    },
    {
      "icao": "LPFR",
      "alert": "OK",
      "vis_m": 9999,
      "fzfg": false,
      "metar_trigger": false,
      "taf_trigger": false,
      "metar": "METAR LPFR 250530Z 27016KT 9999 FEW015 SCT025 14/11 Q1018",
      "taf": "TAF LPFR 250500Z 2506/2606 26015KT 9999 SCT015 BKN030"
    },
    {
      "icao": "LPMA",
      "alert": "OK",
      "vis_m": 9999,
      "fzfg": false,
      "metar_trigger": false,
      "taf_trigger": false,
      "metar": "METAR LPMA 250530Z VRB02KT 9999 FEW016 13/08 Q1026",
      "taf": "TAF LPMA 250500Z 2506/2606 VRB05KT 9999 SCT015"
    },
    {
      "icao": "LPPR",
      "alert": "OK",
      "vis_m": 6000,
      "fzfg": false,
      "metar_trigger": false,
      "taf_trigger": false,
      "metar": "METAR LPPR 250530Z 26004KT 210V300 6000 VCSH FEW020 FEW023CB BKN049 13/11 Q1010",
      "taf": "TAF LPPR 250500Z 2506/2606 27012KT 9999 SCT020"
    },
    {
      "icao": "LPPS",
      "alert": "OK",
      "vis_m": 9999,
      "fzfg": false,
      "metar_trigger": false,
      "taf_trigger": false,
      "metar": "METAR LPPS 250530Z 28011KT 9999 FEW015 16/09 Q1025",
      "taf": "TAF LPPS 250500Z 2506/2612 27010KT 9999 SCT015"
    },
    {
      "icao": "LPPT",
      "alert": "OK",
      "vis_m": 9000,
      "fzfg": false,
      "metar_trigger": false,
      "taf_trigger": false,
      "metar": "METAR LPPT 250530Z 26012KT 9000 FEW008 BKN012 13/12 Q1015",
      "taf": "TAF LPPT 250500Z 2506/2612 26012KT 9999 SCT012 BKN025"
    },
    {
      "icao": "LQBK",
      "alert": "OK",
      "vis_m": 2500,
      "fzfg": false,
      "metar_trigger": false,
      "taf_trigger": false,
      "metar": "METAR LQBK 250530Z VRB02KT 2500 -RA BR FEW005 BKN047 01/01 Q1004 NOSIG",
      "taf": "TAF LQBK 250500Z 2506/2606 VRB02KT 2000 BR BKN040 TX09/2513Z TN00/2506Z"
    },
    {
      "icao": "LQSA",
      "alert": "OK",
      "vis_m": 7000,
      "fzfg": false,
      "metar_trigger": false,
      "taf_trigger": false,
      "metar": "METAR LQSA 250530Z 15012KT 7000 -RA SCT040 BKN055 11/06 Q1004 NOSIG",
      "taf": ""
    },
    {
      "icao": "LQTZ",
      "alert": "OK",
      "vis_m": 3200,
      "fzfg": false,
      "metar_trigger": false,
      "taf_trigger": false,
      "metar": "METAR LQTZ 250530Z VRB02KT 3200 BR FEW052 SCT066 01/01 Q1005",
      "taf": "TAF LQTZ 250500Z 2506/2606 06006KT 2000 BR BKN050 TX11/2514Z TN00/2506Z"
    },
    {
      "icao": "LRBC",
      "alert": "OK",
      "vis_m": 7000,
      "fzfg": false,
      "metar_trigger": false,
      "taf_trigger": false,
      "metar": "METAR LRBC 250530Z COR 16003KT 7000 OVC005 M00/M00 Q1014",
      "taf": "TAF LRBC 250500Z 2506/2515 16008KT 3000 BR OVC005"
    },
    {
      "icao": "LRBS",
      "alert": "OK",
      "vis_m": 9999,
      "fzfg": false,
      "metar_trigger": false,
      "taf_trigger": false,
      "metar": "METAR LRBS 250530Z 23007KT 9999 OVC003 M00/M00 Q1015 NOSIG",
      "taf": "TAF LRBS 250500Z 2506/2606 24006KT 8000 OVC005"
    },
    {
      "icao": "LRBV",
      "alert": "OK",
      "vis_m": 7000,
      "fzfg": false,
      "metar_trigger": false,
      "taf_trigger": false,
      "metar": "METAR LRBV 250530Z VRB02KT 7000 FEW083 M02/M02 Q1011",
      "taf": "TAF LRBV 250500Z 2506/2515 VRB04KT 9999 BKN060"
    },
    {
      "icao": "LRCL",
      "alert": "OK",
      "vis_m": 800,
      "fzfg": true,
      "metar_trigger": false,
      "taf_trigger": false,
      "metar": "METAR LRCL 250530Z 00000KT 0800 R25/2000U FZFG SCT005 OVC058 M02/M03 Q1011",
      "taf": "TAF LRCL 250500Z 2506/2515 VRB04KT 1500 BR SCT002"
    },
    {
      "icao": "LRCV",
      "alert": "OK",
      "vis_m": 500,
      "fzfg": true,
      "metar_trigger": false,
      "taf_trigger": false,
      "metar": "METAR LRCV 250530Z 00000KT 0500 R26/0600D FZFG VV002 M01/M01 Q1014",
      "taf": "TAF LRCV 250500Z 2506/2515 VRB04KT 0600 FZFG VV002"
    },
    {
      "icao": "LRIA",
      "alert": "OK",
      "vis_m": 1000,
      "fzfg": false,
      "metar_trigger": false,
      "taf_trigger": false,
      "metar": "METAR LRIA 250530Z 11010KT 1000 R14/P2000N BR OVC001 M00/M01 Q1014",
      "taf": "TAF LRIA 250500Z 2506/2515 11012KT 1500 BR OVC002"
    },
    {
      "icao": "LROP",
      "alert": "OK",
      "vis_m": 5000,
      "fzfg": false,
      "metar_trigger": false,
      "taf_trigger": false,
      "metar": "METAR LROP 250530Z 26006KT 220V280 5000 BR OVC003 M00/M00 Q1015 NOSIG",
      "taf": "TAF LROP 250500Z 2506/2606 24006KT 5000 BR OVC005"
    },
    {
      "icao": "LRSB",
      "alert": "OK",
      "vis_m": 9999,
      "fzfg": false,
      "metar_trigger": false,
      "taf_trigger": false,
      "metar": "METAR LRSB 250530Z 27003KT 230V330 9999 BKN065 M01/M01 Q1010",
      "taf": "TAF LRSB 250500Z 2506/2606 VRB04KT 9999 SCT055"
    },
    {
      "icao": "LRSM",
      "alert": "OK",
      "vis_m": 7000,
      "fzfg": false,
      "metar_trigger": false,
      "taf_trigger": false,
      "metar": "METAR LRSM 250530Z VRB01KT 7000 NSC 01/M00 Q1010",
      "taf": "TAF LRSM 250500Z 2506/2515 VRB04KT 5000 BR BKN010"
    },
    {
      "icao": "LRSV",
      "alert": "OK",
      "vis_m": 400,
      "fzfg": true,
      "metar_trigger": false,
      "taf_trigger": false,
      "metar": "METAR LRSV 250530Z 16005KT 0400 R34/0650N FZFG VV001 M02/M02 Q1012",
      "taf": "TAF LRSV 250500Z 2506/2515 15008KT 0300 FZFG VV001"
    },
    {
      "icao": "LRTM",
      "alert": "OK",
      "vis_m": 3500,
      "fzfg": false,
      "metar_trigger": false,
      "taf_trigger": false,
      "metar": "METAR LRTM 250530Z 09004KT 3500 BR FEW010 BKN045 M01/M01 Q1011",
      "taf": "TAF LRTM 250500Z 2506/2515 VRB04KT 3000 BR SCT005"
    },
    {
      "icao": "LRTR",
      "alert": "OK",
      "vis_m": 9999,
      "fzfg": false,
      "metar_trigger": false,
      "taf_trigger": false,
      "metar": "METAR LRTR 250530Z 10012KT CAVOK 03/01 Q1008",
      "taf": "TAF LRTR 250500Z 2506/2606 10010KT 9999 BKN045"
    },
    {
      "icao": "LTAC",
      "alert": "OK",
      "vis_m": 500,
      "fzfg": false,
      "metar_trigger": false,
      "taf_trigger": false,
      "metar": "METAR LTAC 250520Z VRB01KT 0500 R03C/1100U R21C/0400N R03L/0450N R03R/0500N BCFG BKN002 03/03 Q1020 BECMG 1200",
      "taf": "TAF LTAC 250440Z 2506/2606 VRB02KT 1200 BCFG BKN001"
    },
    {
      "icao": "LTFM",
      "alert": "OK",
      "vis_m": 4800,
      "fzfg": false,
      "metar_trigger": false,
      "taf_trigger": false,
      "metar": "METAR LTFM 250520Z 19007KT 4800 BR SCT018 BKN028 07/06 Q1016 NOSIG",
      "taf": "TAF LTFM 250440Z 2506/2612 22014KT 9999 BKN035"
    },
    {
      "icao": "LUKK",
      "alert": "OK",
      "vis_m": 3300,
      "fzfg": true,
      "metar_trigger": false,
      "taf_trigger": false,
      "metar": "METAR LUKK 250530Z 10009KT 3300 FZDZ BR OVC002 M03/M03 Q1016 TEMPO 0800 -FZDZ FZFG",
      "taf": "TAF LUKK 250510Z 2506/2606 11008KT 2000 FZDZ BR OVC003"
    },
    {
      "icao": "LWOH",
      "alert": "OK",
      "vis_m": null,
      "fzfg": false,
      "metar_trigger": false,
      "taf_trigger": false,
      "metar": "",
      "taf": ""
    },
    {
      "icao": "LWSK",
      "alert": "OK",
      "vis_m": 4000,
      "fzfg": false,
      "metar_trigger": false,
      "taf_trigger": false,
      "metar": "METAR LWSK 250520Z VRB01KT 4000 BR OVC018 04/03 Q1014 NOSIG",
      "taf": "TAF LWSK 250540Z 2506/2606 VRB02KT 4000 BR OVC020"
    },
    {
      "icao": "LYBE",
      "alert": "OK",
      "vis_m": 9999,
      "fzfg": false,
      "metar_trigger": false,
      "taf_trigger": false,
      "metar": "METAR LYBE 250530Z 14011KT CAVOK 07/04 Q1007 NOSIG",
      "taf": "TAF LYBE 250500Z 2506/2606 12007KT CAVOK TX13/2513Z TN05/2606Z"
    },
    {
      "icao": "LYNI",
      "alert": "OK",
      "vis_m": 9999,
      "fzfg": false,
      "metar_trigger": false,
      "taf_trigger": false,
      "metar": "METAR LYNI 250530Z VRB01KT 9999 SCT070 04/02 Q1011 NOSIG",
      "taf": "TAF LYNI 250500Z 2506/2606 10006KT 9999 SCT070 TX12/2513Z TN03/2506Z"
    },
    {
      "icao": "LYPG",
      "alert": "OK",
      "vis_m": 9999,
      "fzfg": false,
      "metar_trigger": false,
      "taf_trigger": false,
      "metar": "METAR LYPG 250530Z 32002KT 9999 FEW030 SCT050 OVC070 10/09 Q1009 NOSIG",
      "taf": "TAF LYPG 250500Z 2506/2606 16005KT 9999 FEW013 SCT040 OVC070 TX13/2513Z TN08/2605Z"
    },
    {
      "icao": "LZIB",
      "alert": "OK",
      "vis_m": 4500,
      "fzfg": false,
      "metar_trigger": false,
      "taf_trigger": false,
      "metar": "METAR LZIB 250530Z 04004KT 4500 BR OVC004 02/02 Q1005 TEMPO OVC002",
      "taf": "TAF LZIB 250515Z 2506/2606 05007KT 3500 BR BKN005"
    },
    {
      "icao": "LZKZ",
      "alert": "OK",
      "vis_m": 7000,
      "fzfg": false,
      "metar_trigger": false,
      "taf_trigger": false,
      "metar": "METAR LZKZ 250530Z 35003KT 7000 OVC042 01/01 Q1009 NOSIG",
      "taf": "TAF LZKZ 250515Z 2506/2606 23005KT 5000 BR SCT003 BKN030"
    },
    {
      "icao": "LZTT",
      "alert": "OK",
      "vis_m": 8000,
      "fzfg": false,
      "metar_trigger": false,
      "taf_trigger": false,
      "metar": "METAR LZTT 250530Z VRB03KT 8000 BKN005 OVC026 01/00 Q1006",
      "taf": "TAF LZTT 250515Z 2506/2606 15006KT 5000 BR SCT005 BKN030"
    },
    {
      "icao": "OEJN",
      "alert": "OK",
      "vis_m": 9999,
      "fzfg": false,
      "metar_trigger": false,
      "taf_trigger": false,
      "metar": "METAR OEJN 250500Z 02005KT CAVOK 23/09 Q1016 NOSIG",
      "taf": "TAF OEJN 250500Z 2506/2612 34012KT 9999 FEW040"
    },
    {
      "icao": "OEMA",
      "alert": "OK",
      "vis_m": 9999,
      "fzfg": false,
      "metar_trigger": false,
      "taf_trigger": false,
      "metar": "METAR OEMA 250500Z 04007KT CAVOK 14/01 Q1023 NOSIG",
      "taf": "TAF OEMA 250500Z 2506/2612 09012KT 7000 NSC"
    },
    {
      "icao": "OJAI",
      "alert": "OK",
      "vis_m": 3000,
      "fzfg": false,
      "metar_trigger": false,
      "taf_trigger": false,
      "metar": "METAR OJAI 250500Z 00000KT 3000 MIFG NSC 02/02 Q1024 NOSIG",
      "taf": "TAF OJAI 250500Z 2506/2612 13008KT 2000 BR FEW030"
    },
    {
      "icao": "OMAA",
      "alert": "OK",
      "vis_m": 9999,
      "fzfg": false,
      "metar_trigger": false,
      "taf_trigger": false,
      "metar": "METAR OMAA 250530Z 14011KT 120V210 CAVOK 19/05 Q1017 NOSIG",
      "taf": "TAF OMAA 250500Z 2506/2612 16010KT 8000 FEW045"
    },
    {
      "icao": "OMDB",
      "alert": "OK",
      "vis_m": 9999,
      "fzfg": false,
      "metar_trigger": false,
      "taf_trigger": false,
      "metar": "METAR OMDB 250530Z 17004KT 120V280 CAVOK 21/11 Q1018 NOSIG",
      "taf": "TAF OMDB 250500Z 2506/2612 16012KT 8000 NSC"
    },
    {
      "icao": "UAAA",
      "alert": "OK",
      "vis_m": 5000,
      "fzfg": false,
      "metar_trigger": false,
      "taf_trigger": false,
      "metar": "METAR UAAA 250530Z VRB01MPS 5000 FU OVC100 M03/M08 Q1021 NOSIG",
      "taf": "TAF UAAA 250505Z 2506/2606 26003MPS 9999 SCT050 BKN100 TXM01/2508Z TNM07/2602Z"
    },
    {
      "icao": "UBBB",
      "alert": "OK",
      "vis_m": 9999,
      "fzfg": false,
      "metar_trigger": false,
      "taf_trigger": false,
      "metar": "METAR UBBB 250530Z 32008KT 9999 BKN007 OVC020 04/03 Q1020 NOSIG",
      "taf": "TAF UBBB 250502Z 2506/2606 33006KT 9999 SCT009 BKN025 TX07/2510Z TN02/2601Z"
    },
    {
      "icao": "UDSG",
      "alert": "CRITICAL",
      "vis_m": 50,
      "fzfg": true,
      "metar_trigger": true,
      "taf_trigger": false,
      "metar": "METAR UDSG 250530Z 20002KT 0050 R02/0125N FZFG VV001 M10/M11 Q1021 NOSIG",
      "taf": "TAF UDSG 250500Z 2506/2606 VRB06KT 0800 FZFG OVC006"
    },
    {
      "icao": "UDYZ",
      "alert": "OK",
      "vis_m": 1800,
      "fzfg": false,
      "metar_trigger": false,
      "taf_trigger": false,
      "metar": "METAR UDYZ 250530Z VRB01KT 1800 R08/1800U BR BKN006 M04/M05 Q1024 NOSIG",
      "taf": "TAF UDYZ 250500Z 2506/2606 24006KT 2000 BR SCT020"
    },
    {
      "icao": "UGKO",
      "alert": "OK",
      "vis_m": 2800,
      "fzfg": false,
      "metar_trigger": false,
      "taf_trigger": false,
      "metar": "METAR UGKO 250530Z 24003KT 200V270 2800 RA BR SCT022 OVC078 BKN110 05/05 Q1021 NOSIG",
      "taf": "TAF UGKO 250500Z 2506/2606 09007KT 9999 BKN080 TX09/2511Z TN03/2604Z"
    }
  ]
}