{
  "ts_utc": "2026-04-07T11:32:41Z",
  "threshold_m": 150,
  "source": "stations_override.txt (ICAO list) + aviationweather.gov (METAR/TAF raw)",
  "station_count": 159,
  "stations": [
    {
      "icao": "BIKF",
      "alert": "OK",
      "vis_m": 8000,
      "fzfg": false,
      "metar_trigger": false,
      "taf_trigger": false,
      "metar": "METAR BIKF 071100Z 17025KT 8000 VCSH BKN011 BKN047 07/06 Q0982 RERA",
      "taf": "TAF BIKF 071030Z 0712/0812 19025G35KT 9999 -SHRA SCT015 BKN020 TX07/0712Z TN04/0802Z"
    },
    {
      "icao": "BKPR",
      "alert": "OK",
      "vis_m": 9999,
      "fzfg": false,
      "metar_trigger": false,
      "taf_trigger": false,
      "metar": "METAR BKPR 071130Z 05005KT 020V100 CAVOK 20/07 Q1020 NOSIG",
      "taf": "TAF BKPR 071130Z 0712/0812 01008KT CAVOK"
    },
    {
      "icao": "EBCI",
      "alert": "OK",
      "vis_m": 9999,
      "fzfg": false,
      "metar_trigger": false,
      "taf_trigger": false,
      "metar": "METAR EBCI 071120Z 07010KT 040V100 CAVOK 17/05 Q1025 NOSIG",
      "taf": "TAF EBCI 071113Z 0712/0818 07008KT CAVOK"
    },
    {
      "icao": "EDDB",
      "alert": "OK",
      "vis_m": 9999,
      "fzfg": false,
      "metar_trigger": false,
      "taf_trigger": false,
      "metar": "METAR EDDB 071120Z AUTO 30012KT 9999 FEW033 11/02 Q1026 NOSIG",
      "taf": "TAF EDDB 071100Z 0712/0812 32012G22KT 9999 SCT025"
    },
    {
      "icao": "EDDH",
      "alert": "OK",
      "vis_m": 9999,
      "fzfg": false,
      "metar_trigger": false,
      "taf_trigger": false,
      "metar": "METAR EDDH 071120Z AUTO 33006KT 280V010 CAVOK 12/03 Q1028 NOSIG",
      "taf": "TAF EDDH 071100Z 0712/0818 33007KT CAVOK"
    },
    {
      "icao": "EDDK",
      "alert": "OK",
      "vis_m": 9999,
      "fzfg": false,
      "metar_trigger": false,
      "taf_trigger": false,
      "metar": "METAR EDDK 071120Z AUTO 07005KT 010V170 CAVOK 16/M01 Q1026 NOSIG",
      "taf": "TAF EDDK 071100Z 0712/0818 02006KT CAVOK"
    },
    {
      "icao": "EDDN",
      "alert": "OK",
      "vis_m": 9999,
      "fzfg": false,
      "metar_trigger": false,
      "taf_trigger": false,
      "metar": "METAR EDDN 071120Z AUTO VRB05KT CAVOK 15/01 Q1025 NOSIG",
      "taf": "TAF EDDN 071100Z 0712/0812 35006KT CAVOK"
    },
    {
      "icao": "EDDS",
      "alert": "OK",
      "vis_m": 9999,
      "fzfg": false,
      "metar_trigger": false,
      "taf_trigger": false,
      "metar": "METAR EDDS 071120Z AUTO VRB04KT CAVOK 17/04 Q1023 NOSIG",
      "taf": "TAF EDDS 071100Z 0712/0812 04004KT CAVOK"
    },
    {
      "icao": "EDFH",
      "alert": "OK",
      "vis_m": 9999,
      "fzfg": false,
      "metar_trigger": false,
      "taf_trigger": false,
      "metar": "METAR EDFH 071120Z VRB05KT CAVOK 14/01 Q1025",
      "taf": "TAF EDFH 071100Z 0712/0812 10007KT CAVOK"
    },
    {
      "icao": "EDJA",
      "alert": "OK",
      "vis_m": 9999,
      "fzfg": false,
      "metar_trigger": false,
      "taf_trigger": false,
      "metar": "METAR EDJA 071120Z 35004KT 300V040 CAVOK 16/08 Q1024",
      "taf": "TAF EDJA 071100Z 0712/0721 01005KT CAVOK"
    },
    {
      "icao": "EDLW",
      "alert": "OK",
      "vis_m": 9999,
      "fzfg": false,
      "metar_trigger": false,
      "taf_trigger": false,
      "metar": "METAR EDLW 071120Z 07009KT 020V100 CAVOK 13/M01 Q1027",
      "taf": "TAF EDLW 071100Z 0712/0812 06007KT CAVOK"
    },
    {
      "icao": "EDNY",
      "alert": "OK",
      "vis_m": 9999,
      "fzfg": false,
      "metar_trigger": false,
      "taf_trigger": false,
      "metar": "METAR EDNY 071120Z 24006KT CAVOK 15/08 Q1024",
      "taf": "TAF EDNY 071100Z 0712/0721 24005KT CAVOK"
    },
    {
      "icao": "EDSB",
      "alert": "OK",
      "vis_m": 9999,
      "fzfg": false,
      "metar_trigger": false,
      "taf_trigger": false,
      "metar": "METAR EDSB 071120Z 01009KT 340V040 CAVOK 17/04 Q1024",
      "taf": "TAF EDSB 071100Z 0712/0812 01010KT CAVOK"
    },
    {
      "icao": "EETN",
      "alert": "OK",
      "vis_m": 9999,
      "fzfg": false,
      "metar_trigger": false,
      "taf_trigger": false,
      "metar": "METAR EETN 071120Z 01009KT 340V040 9999 OVC028 06/02 Q1012 NOSIG",
      "taf": "TAF EETN 071130Z 0712/0812 36012KT 9999 BKN025 0712/0715 5000 SHRA BKN012 SCT020CB"
    },
    {
      "icao": "EFTU",
      "alert": "OK",
      "vis_m": 9999,
      "fzfg": false,
      "metar_trigger": false,
      "taf_trigger": false,
      "metar": "METAR EFTU 071120Z AUTO 36013KT 9999 OVC023 05/01 Q1015",
      "taf": "TAF EFTU 070827Z 0709/0809 02012KT 9999 SCT016 BKN030"
    },
    {
      "icao": "EGBB",
      "alert": "OK",
      "vis_m": 9999,
      "fzfg": false,
      "metar_trigger": false,
      "taf_trigger": false,
      "metar": "METAR EGBB 071120Z 12011KT 080V150 CAVOK 17/04 Q1022",
      "taf": "TAF EGBB 071104Z 0712/0812 11013KT CAVOK"
    },
    {
      "icao": "EGGP",
      "alert": "OK",
      "vis_m": 9999,
      "fzfg": false,
      "metar_trigger": false,
      "taf_trigger": false,
      "metar": "METAR EGGP 071120Z 14013KT CAVOK 16/05 Q1021",
      "taf": "TAF EGGP 071057Z 0712/0812 14015G25KT CAVOK"
    },
    {
      "icao": "EGGW",
      "alert": "OK",
      "vis_m": 9999,
      "fzfg": false,
      "metar_trigger": false,
      "taf_trigger": false,
      "metar": "METAR EGGW 071120Z AUTO 12015KT 9999 NCD 16/05 Q1023",
      "taf": "TAF EGGW 071057Z 0712/0812 12010KT CAVOK"
    },
    {
      "icao": "EGKK",
      "alert": "OK",
      "vis_m": 9999,
      "fzfg": false,
      "metar_trigger": false,
      "taf_trigger": false,
      "metar": "METAR EGKK 071120Z 10012KT CAVOK 18/04 Q1022",
      "taf": "TAF EGKK 071055Z 0712/0818 09008KT CAVOK"
    },
    {
      "icao": "EGNM",
      "alert": "OK",
      "vis_m": 9999,
      "fzfg": false,
      "metar_trigger": false,
      "taf_trigger": false,
      "metar": "METAR EGNM 071120Z 12015KT 090V160 CAVOK 14/04 Q1023",
      "taf": "TAF EGNM 071056Z 0712/0812 14010KT CAVOK"
    },
    {
      "icao": "EGPD",
      "alert": "OK",
      "vis_m": 9999,
      "fzfg": false,
      "metar_trigger": false,
      "taf_trigger": false,
      "metar": "METAR EGPD 071120Z COR AUTO 16021KT 9999 NCD 12/04 Q1022 NOSIG",
      "taf": "TAF EGPD 071059Z 0712/0812 15012KT CAVOK"
    },
    {
      "icao": "EGPF",
      "alert": "OK",
      "vis_m": 9999,
      "fzfg": false,
      "metar_trigger": false,
      "taf_trigger": false,
      "metar": "METAR EGPF 071120Z AUTO 07008KT 030V100 9999 NCD 15/07 Q1020",
      "taf": "TAF EGPF 071054Z 0712/0812 07010KT CAVOK"
    },
    {
      "icao": "EHBK",
      "alert": "OK",
      "vis_m": 9999,
      "fzfg": false,
      "metar_trigger": false,
      "taf_trigger": false,
      "metar": "METAR EHBK 071125Z AUTO VRB12KT 9999 NCD 15/04 Q1026 NOSIG",
      "taf": "TAF EHBK 071102Z 0712/0818 07011KT CAVOK"
    },
    {
      "icao": "EHEH",
      "alert": "OK",
      "vis_m": 9999,
      "fzfg": false,
      "metar_trigger": false,
      "taf_trigger": false,
      "metar": "METAR EHEH 071125Z AUTO 07009KT 050V130 9999 NCD 16/02 Q1026 BLU NOSIG RMK TREND REMOTE BY EHWX",
      "taf": "TAF EHEH 070529Z 0706/0812 08006KT CAVOK"
    },
    {
      "icao": "EKBI",
      "alert": "OK",
      "vis_m": 9999,
      "fzfg": false,
      "metar_trigger": false,
      "taf_trigger": false,
      "metar": "METAR EKBI 071120Z AUTO VRB03KT 9999 NCD 11/M04 Q1028",
      "taf": "TAF EKBI 071127Z 0712/0812 33004KT CAVOK"
    },
    {
      "icao": "EKCH",
      "alert": "OK",
      "vis_m": 9999,
      "fzfg": false,
      "metar_trigger": false,
      "taf_trigger": false,
      "metar": "METAR EKCH 071120Z AUTO 36011KT 9999 NCD 11/M07 Q1026 NOSIG",
      "taf": "TAF EKCH 071127Z 0712/0812 35010KT CAVOK"
    },
    {
      "icao": "ENAL",
      "alert": "OK",
      "vis_m": 9999,
      "fzfg": false,
      "metar_trigger": false,
      "taf_trigger": false,
      "metar": "METAR ENAL 071120Z 04003KT 360V100 CAVOK 08/M01 Q1029",
      "taf": "TAF ENAL 070800Z 0709/0718 24008KT 9999 FEW025 SCT040"
    },
    {
      "icao": "ENBR",
      "alert": "OK",
      "vis_m": 9999,
      "fzfg": false,
      "metar_trigger": false,
      "taf_trigger": false,
      "metar": "METAR ENBR 071120Z 22004KT CAVOK 07/M01 Q1029 NOSIG RMK WIND 1200FT 22002KT",
      "taf": "TAF ENBR 070500Z 0706/0806 VRB03KT CAVOK"
    },
    {
      "icao": "ENGM",
      "alert": "OK",
      "vis_m": 9999,
      "fzfg": false,
      "metar_trigger": false,
      "taf_trigger": false,
      "metar": "METAR ENGM 071120Z 36013KT CAVOK 10/M06 Q1027 NOSIG",
      "taf": "TAF ENGM 070500Z 0706/0806 02008KT CAVOK"
    },
    {
      "icao": "ENHD",
      "alert": "OK",
      "vis_m": 9999,
      "fzfg": false,
      "metar_trigger": false,
      "taf_trigger": false,
      "metar": "METAR ENHD 071120Z 29008KT CAVOK 09/01 Q1029",
      "taf": "TAF ENHD 070800Z 0709/0718 33008KT CAVOK"
    },
    {
      "icao": "ENTC",
      "alert": "OK",
      "vis_m": 9999,
      "fzfg": false,
      "metar_trigger": false,
      "taf_trigger": false,
      "metar": "METAR ENTC 071120Z 21008KT CAVOK 05/M04 Q1030 NOSIG RMK WIND 2600FT 19008KT",
      "taf": "TAF ENTC 070500Z 0706/0806 02007KT CAVOK"
    },
    {
      "icao": "ENTO",
      "alert": "OK",
      "vis_m": 9999,
      "fzfg": false,
      "metar_trigger": false,
      "taf_trigger": false,
      "metar": "METAR ENTO 071120Z 35008KT 290V020 CAVOK 11/M05 Q1028 NOSIG",
      "taf": "TAF ENTO 070500Z 0706/0806 35005KT CAVOK"
    },
    {
      "icao": "ENVA",
      "alert": "OK",
      "vis_m": 6000,
      "fzfg": false,
      "metar_trigger": false,
      "taf_trigger": false,
      "metar": "METAR ENVA 071120Z VRB02KT 6000 -DZ FEW004 BKN011 BKN013 06/05 Q1029 TEMPO BKN015 RMK WIND 670FT 09002KT",
      "taf": ""
    },
    {
      "icao": "ENZV",
      "alert": "OK",
      "vis_m": 9999,
      "fzfg": false,
      "metar_trigger": false,
      "taf_trigger": false,
      "metar": "METAR ENZV 071120Z 34004KT CAVOK 10/M02 Q1028 NOSIG",
      "taf": "TAF ENZV 070500Z 0706/0806 VRB03KT 9999 FEW030"
    },
    {
      "icao": "EPGD",
      "alert": "OK",
      "vis_m": 9999,
      "fzfg": false,
      "metar_trigger": false,
      "taf_trigger": false,
      "metar": "METAR EPGD 071100Z 32018KT 9999 BKN034 08/M02 Q1019",
      "taf": "TAF EPGD 071130Z 0712/0812 33020KT 9999 BKN035"
    },
    {
      "icao": "EPKK",
      "alert": "OK",
      "vis_m": 9999,
      "fzfg": false,
      "metar_trigger": false,
      "taf_trigger": false,
      "metar": "METAR EPKK 071100Z 29019KT 260V320 9999 FEW061 11/M05 Q1018",
      "taf": "TAF EPKK 071130Z 0712/0812 28020G32KT CAVOK"
    },
    {
      "icao": "EPKT",
      "alert": "OK",
      "vis_m": 9999,
      "fzfg": false,
      "metar_trigger": false,
      "taf_trigger": false,
      "metar": "METAR EPKT 071100Z 27017KT CAVOK 11/M03 Q1019",
      "taf": "TAF EPKT 071130Z 0712/0812 28018G28KT CAVOK"
    },
    {
      "icao": "EPLB",
      "alert": "OK",
      "vis_m": 9999,
      "fzfg": false,
      "metar_trigger": false,
      "taf_trigger": false,
      "metar": "METAR EPLB 071100Z 31015KT 9999 BKN033 09/00 Q1014",
      "taf": "TAF EPLB 071130Z 0712/0812 29020KT 9999 SCT030"
    },
    {
      "icao": "EPMO",
      "alert": "OK",
      "vis_m": 9999,
      "fzfg": false,
      "metar_trigger": false,
      "taf_trigger": false,
      "metar": "METAR EPMO 071100Z 29014KT 9999 FEW035 10/03 Q1016",
      "taf": "TAF EPMO 071130Z 0712/0812 31020KT 9999 BKN035"
    },
    {
      "icao": "EPPO",
      "alert": "OK",
      "vis_m": 9999,
      "fzfg": false,
      "metar_trigger": false,
      "taf_trigger": false,
      "metar": "METAR EPPO 071100Z 30014KT 9999 BKN034 09/M00 Q1022",
      "taf": "TAF EPPO 071130Z 0712/0812 30012KT 9999 BKN035"
    },
    {
      "icao": "EPRA",
      "alert": "OK",
      "vis_m": 9999,
      "fzfg": false,
      "metar_trigger": false,
      "taf_trigger": false,
      "metar": "METAR EPRA 071100Z 31018G28KT 270V330 9999 BKN033 07/M02 Q1017",
      "taf": "TAF EPRA 071130Z 0712/0721 32016KT 9999 BKN030"
    },
    {
      "icao": "EPRZ",
      "alert": "OK",
      "vis_m": 9999,
      "fzfg": false,
      "metar_trigger": false,
      "taf_trigger": false,
      "metar": "METAR EPRZ 071100Z 27022KT CAVOK 12/M02 Q1016",
      "taf": "TAF EPRZ 071130Z 0712/0812 28022G35KT CAVOK"
    },
    {
      "icao": "EPSC",
      "alert": "OK",
      "vis_m": 9999,
      "fzfg": false,
      "metar_trigger": false,
      "taf_trigger": false,
      "metar": "METAR EPSC 071100Z 32017KT 9999 FEW046 10/M02 Q1024",
      "taf": "TAF EPSC 071130Z 0712/0812 32015KT CAVOK"
    },
    {
      "icao": "EPSY",
      "alert": "OK",
      "vis_m": 9999,
      "fzfg": false,
      "metar_trigger": false,
      "taf_trigger": false,
      "metar": "METAR EPSY 071100Z 32019G31KT 280V360 9999 SCT034 BKN046 07/M01 Q1015",
      "taf": "TAF EPSY 071130Z 0712/0721 32012KT 9999 BKN040"
    },
    {
      "icao": "EPWA",
      "alert": "OK",
      "vis_m": 9999,
      "fzfg": false,
      "metar_trigger": false,
      "taf_trigger": false,
      "metar": "METAR EPWA 071100Z 29018KT 9999 SCT036 10/01 Q1016 TEMPO 3000 SHRA SHGS",
      "taf": "TAF EPWA 071130Z 0712/0812 31020KT 9999 BKN035"
    },
    {
      "icao": "EPWR",
      "alert": "OK",
      "vis_m": 9999,
      "fzfg": false,
      "metar_trigger": false,
      "taf_trigger": false,
      "metar": "METAR EPWR 071100Z 33020KT 9999 FEW047 11/M01 Q1022",
      "taf": "TAF EPWR 071130Z 0712/0812 32020KT 9999 FEW045"
    },
    {
      "icao": "ESGG",
      "alert": "OK",
      "vis_m": 9999,
      "fzfg": false,
      "metar_trigger": false,
      "taf_trigger": false,
      "metar": "METAR ESGG 071120Z 35012KT CAVOK 09/M05 Q1026",
      "taf": "TAF ESGG 071130Z 0712/0812 33009KT CAVOK"
    },
    {
      "icao": "ESKN",
      "alert": "OK",
      "vis_m": 9999,
      "fzfg": false,
      "metar_trigger": false,
      "taf_trigger": false,
      "metar": "METAR ESKN 071120Z 34011KT 320V020 9999 BKN036 07/M00 Q1022",
      "taf": "TAF ESKN 071130Z 0712/0812 35013KT 9999 BKN035"
    },
    {
      "icao": "ESMS",
      "alert": "OK",
      "vis_m": 9999,
      "fzfg": false,
      "metar_trigger": false,
      "taf_trigger": false,
      "metar": "METAR ESMS 071120Z 31017KT CAVOK 10/M01 Q1024",
      "taf": "TAF ESMS 071127Z 0712/0812 33015KT CAVOK"
    },
    {
      "icao": "ESSA",
      "alert": "OK",
      "vis_m": 9999,
      "fzfg": false,
      "metar_trigger": false,
      "taf_trigger": false,
      "metar": "METAR ESSA 071120Z 35018KT 9999 BKN017 05/02 Q1022 TEMPO BKN014",
      "taf": "TAF ESSA 071130Z 0712/0812 36015KT 9999 FEW013 BKN017"
    },
    {
      "icao": "EYKA",
      "alert": "OK",
      "vis_m": 9999,
      "fzfg": false,
      "metar_trigger": false,
      "taf_trigger": false,
      "metar": "METAR EYKA 071120Z 32011G22KT 280V360 9999 -RA OVC024 05/01 Q1009",
      "taf": "TAF EYKA 071100Z 0712/0812 32012KT 9000 BKN020"
    },
    {
      "icao": "EYPA",
      "alert": "OK",
      "vis_m": 9999,
      "fzfg": false,
      "metar_trigger": false,
      "taf_trigger": false,
      "metar": "METAR EYPA 071120Z 35010G22KT 270V040 9999 -SHRA BKN009CB 04/03 Q1014",
      "taf": "TAF EYPA 071100Z 0712/0812 34013KT 9000 OVC010"
    },
    {
      "icao": "EYVI",
      "alert": "OK",
      "vis_m": 9999,
      "fzfg": false,
      "metar_trigger": false,
      "taf_trigger": false,
      "metar": "METAR EYVI 071120Z 30011KT 260V330 9999 -RA BKN008 OVC011 04/03 Q1006 TEMPO OVC005",
      "taf": "TAF EYVI 071100Z 0712/0812 33012KT 5000 RA OVC010"
    },
    {
      "icao": "GCFV",
      "alert": "OK",
      "vis_m": 9999,
      "fzfg": false,
      "metar_trigger": false,
      "taf_trigger": false,
      "metar": "METAR GCFV 071100Z COR 31012KT 280V340 9999 SCT030 22/13 Q1021",
      "taf": "TAF GCFV 070800Z 0709/0809 34010KT 9999 FEW025 TX23/0714Z TN15/0806Z"
    },
    {
      "icao": "GCLP",
      "alert": "OK",
      "vis_m": 9999,
      "fzfg": false,
      "metar_trigger": false,
      "taf_trigger": false,
      "metar": "METAR GCLP 071100Z 01017KT 340V050 9999 FEW025 22/13 Q1021 NOSIG",
      "taf": "TAF GCLP 070800Z 0709/0809 36015KT 9999 SCT025 TX23/0714Z TN16/0806Z"
    },
    {
      "icao": "GCTS",
      "alert": "OK",
      "vis_m": 9999,
      "fzfg": false,
      "metar_trigger": false,
      "taf_trigger": false,
      "metar": "METAR GCTS 071100Z 14009KT 110V170 9999 FEW025 BKN040 20/12 Q1022 NOSIG",
      "taf": "TAF GCTS 070800Z 0709/0809 15006KT 9999 BKN025 TX22/0714Z TN15/0806Z"
    },
    {
      "icao": "GMAD",
      "alert": "OK",
      "vis_m": 8000,
      "fzfg": false,
      "metar_trigger": false,
      "taf_trigger": false,
      "metar": "METAR GMAD 071100Z 26013KT 8000 FEW030 BKN100 21/15 Q1019 NOSIG",
      "taf": "TAF GMAD 071100Z 0712/0818 26010KT 8000 SCT026 BKN080"
    },
    {
      "icao": "GMMN",
      "alert": "OK",
      "vis_m": 9999,
      "fzfg": false,
      "metar_trigger": false,
      "taf_trigger": false,
      "metar": "METAR GMMN 071100Z 23011KT 190V270 9999 SCT010 BKN016 21/15 Q1019 NOSIG",
      "taf": "TAF GMMN 071100Z 0712/0818 24012KT 9999 BKN020"
    },
    {
      "icao": "GMMX",
      "alert": "OK",
      "vis_m": 8000,
      "fzfg": false,
      "metar_trigger": false,
      "taf_trigger": false,
      "metar": "METAR GMMX 071100Z 29008KT 240V350 8000 SCT080 21/13 Q1019 NOSIG",
      "taf": "TAF GMMX 071100Z 0712/0818 06006KT 8000 SCT033"
    },
    {
      "icao": "HEGN",
      "alert": "OK",
      "vis_m": 9999,
      "fzfg": false,
      "metar_trigger": false,
      "taf_trigger": false,
      "metar": "METAR HEGN 071100Z 04006KT 9999 SCT020 29/03 Q1017 NOSIG",
      "taf": "TAF HEGN 071100Z 0712/0818 01015KT 9999 SCT025"
    },
    {
      "icao": "HEMA",
      "alert": "OK",
      "vis_m": 9999,
      "fzfg": false,
      "metar_trigger": false,
      "taf_trigger": false,
      "metar": "METAR HEMA 071100Z 36023KT CAVOK 28/07 Q1017 NOSIG",
      "taf": "TAF HEMA 071100Z 0712/0818 02018KT CAVOK"
    },
    {
      "icao": "HESH",
      "alert": "OK",
      "vis_m": 9999,
      "fzfg": false,
      "metar_trigger": false,
      "taf_trigger": false,
      "metar": "METAR HESH 071100Z 12010KT CAVOK 28/07 Q1017 NOSIG",
      "taf": "TAF HESH 071100Z 0712/0818 05012KT CAVOK"
    },
    {
      "icao": "HESX",
      "alert": "OK",
      "vis_m": 9999,
      "fzfg": false,
      "metar_trigger": false,
      "taf_trigger": false,
      "metar": "METAR HESX 071100Z 33009KT 9999 SCT020 22/10 Q1020 NOSIG",
      "taf": "TAF HESX 071100Z 0712/0818 33013KT 9999 SCT025"
    },
    {
      "icao": "LATI",
      "alert": "OK",
      "vis_m": 9999,
      "fzfg": false,
      "metar_trigger": false,
      "taf_trigger": false,
      "metar": "METAR LATI 071120Z 22007KT 180V250 CAVOK 22/07 Q1021 BECMG 30010KT",
      "taf": "TAF LATI 071100Z 0712/0812 29010KT CAVOK TX24/0812Z TN08/0804Z"
    },
    {
      "icao": "LBPD",
      "alert": "OK",
      "vis_m": 9999,
      "fzfg": false,
      "metar_trigger": false,
      "taf_trigger": false,
      "metar": "METAR LBPD 071130Z AUTO 30020KT 9999 NCD 23/05 Q1016 TEMPO 28022G32KT",
      "taf": "TAF LBPD 071100Z 0712/0812 27022KT 9999 SCT080"
    },
    {
      "icao": "LBSF",
      "alert": "OK",
      "vis_m": 9999,
      "fzfg": false,
      "metar_trigger": false,
      "taf_trigger": false,
      "metar": "METAR LBSF 071130Z 30021G31KT CAVOK 19/04 Q1019 TEMPO 28020G30KT",
      "taf": "TAF LBSF 071100Z 0712/0812 28020KT 9999 SCT080"
    },
    {
      "icao": "LBWN",
      "alert": "OK",
      "vis_m": 9999,
      "fzfg": false,
      "metar_trigger": false,
      "taf_trigger": false,
      "metar": "METAR LBWN 071130Z 29011KT 260V330 9999 FEW047 17/04 Q1016 NOSIG",
      "taf": "TAF LBWN 071100Z 0712/0812 27010KT 9999 BKN040"
    },
    {
      "icao": "LCLK",
      "alert": "OK",
      "vis_m": 9999,
      "fzfg": false,
      "metar_trigger": false,
      "taf_trigger": false,
      "metar": "METAR LCLK 071130Z 21014KT 9999 FEW022 FEW025CB FEW030TCU SCT043 20/15 Q1017 NOSIG RMK CB TO NE",
      "taf": "TAF LCLK 071130Z 0712/0812 22018KT 9999 FEW025"
    },
    {
      "icao": "LCPH",
      "alert": "OK",
      "vis_m": 9999,
      "fzfg": false,
      "metar_trigger": false,
      "taf_trigger": false,
      "metar": "METAR LCPH 071130Z 31013KT 250V330 9999 FEW020 FEW030CB 20/14 Q1018 NOSIG",
      "taf": "TAF LCPH 071130Z 0712/0812 29015KT 9999 FEW020"
    },
    {
      "icao": "LEAL",
      "alert": "OK",
      "vis_m": 9999,
      "fzfg": false,
      "metar_trigger": false,
      "taf_trigger": false,
      "metar": "METAR LEAL 071100Z 11007KT 060V150 CAVOK 19/12 Q1021 NOSIG",
      "taf": "TAF LEAL 071100Z 0712/0812 VRB04KT 9999 FEW015 TX21/0712Z TN12/0806Z"
    },
    {
      "icao": "LEBB",
      "alert": "OK",
      "vis_m": 9999,
      "fzfg": false,
      "metar_trigger": false,
      "taf_trigger": false,
      "metar": "METAR LEBB 071100Z VRB03KT CAVOK 22/07 Q1016 NOSIG",
      "taf": "TAF LEBB 071100Z 0712/0812 13009KT CAVOK TX27/0713Z TN14/0806Z"
    },
    {
      "icao": "LEBL",
      "alert": "OK",
      "vis_m": 9999,
      "fzfg": false,
      "metar_trigger": false,
      "taf_trigger": false,
      "metar": "METAR LEBL 071100Z 08010KT 040V100 CAVOK 18/10 Q1022 NOSIG",
      "taf": "TAF LEBL 071100Z 0712/0812 08010KT CAVOK TX20/0712Z TN11/0805Z"
    },
    {
      "icao": "LECH",
      "alert": "OK",
      "vis_m": 9000,
      "fzfg": false,
      "metar_trigger": false,
      "taf_trigger": false,
      "metar": "METAR LECH 071100Z AUTO 11006KT 050V170 9000 NCD 19/05 Q1022",
      "taf": "TAF LECH 071100Z 0712/0812 09006KT CAVOK TX23/0714Z TN10/0806Z"
    },
    {
      "icao": "LEMD",
      "alert": "OK",
      "vis_m": 9999,
      "fzfg": false,
      "metar_trigger": false,
      "taf_trigger": false,
      "metar": "METAR LEMD 071100Z VRB02KT CAVOK 18/05 Q1019 NOSIG",
      "taf": "TAF LEMD 071100Z 0712/0818 VRB05KT CAVOK TX23/0715Z TN10/0806Z"
    },
    {
      "icao": "LEMG",
      "alert": "OK",
      "vis_m": 9999,
      "fzfg": false,
      "metar_trigger": false,
      "taf_trigger": false,
      "metar": "METAR LEMG 071100Z 16007KT 130V200 CAVOK 19/11 Q1019 NOSIG",
      "taf": "TAF LEMG 071100Z 0712/0812 14008KT CAVOK TX22/0714Z TN14/0806Z"
    },
    {
      "icao": "LEVC",
      "alert": "OK",
      "vis_m": 9999,
      "fzfg": false,
      "metar_trigger": false,
      "taf_trigger": false,
      "metar": "METAR LEVC 071100Z 08006KT 360V160 CAVOK 19/07 Q1021 NOSIG",
      "taf": "TAF LEVC 071100Z 0712/0812 09010KT 9999 FEW010 TX22/0714Z TN11/0806Z"
    },
    {
      "icao": "LEXJ",
      "alert": "OK",
      "vis_m": 9999,
      "fzfg": false,
      "metar_trigger": false,
      "taf_trigger": false,
      "metar": "METAR LEXJ 071100Z 14003KT 100V200 CAVOK 20/11 Q1014",
      "taf": "TAF LEXJ 070800Z 0709/0809 12009KT CAVOK TX25/0716Z TN15/0806Z"
    },
    {
      "icao": "LEZG",
      "alert": "OK",
      "vis_m": 9999,
      "fzfg": false,
      "metar_trigger": false,
      "taf_trigger": false,
      "metar": "METAR LEZG 071100Z 10009KT 060V140 CAVOK 20/05 Q1020 NOSIG",
      "taf": "TAF LEZG 071100Z 0712/0812 09010KT CAVOK TX28/0714Z TN12/0806Z"
    },
    {
      "icao": "LEZL",
      "alert": "OK",
      "vis_m": 9999,
      "fzfg": false,
      "metar_trigger": false,
      "taf_trigger": false,
      "metar": "METAR LEZL 071100Z 21015G26KT 150V250 9999 FEW030 21/14 Q1017 NOSIG",
      "taf": "TAF LEZL 070800Z 0709/0809 20015KT 9999 FEW040 TX27/0715Z TN14/0806Z"
    },
    {
      "icao": "LFBD",
      "alert": "OK",
      "vis_m": 9999,
      "fzfg": false,
      "metar_trigger": false,
      "taf_trigger": false,
      "metar": "METAR LFBD 071100Z AUTO 13008KT 090V170 CAVOK 24/10 Q1018 NOSIG",
      "taf": "TAF LFBD 070500Z 0706/0812 12006KT CAVOK TX27/0715Z TN13/0706Z"
    },
    {
      "icao": "LFLL",
      "alert": "OK",
      "vis_m": 9999,
      "fzfg": false,
      "metar_trigger": false,
      "taf_trigger": false,
      "metar": "METAR LFLL 071100Z 19009KT CAVOK 22/05 Q1022 NOSIG",
      "taf": "TAF LFLL 071100Z 0712/0818 17012KT CAVOK"
    },
    {
      "icao": "LFLS",
      "alert": "OK",
      "vis_m": 9999,
      "fzfg": false,
      "metar_trigger": false,
      "taf_trigger": false,
      "metar": "METAR LFLS 071100Z AUTO 23003KT 120V290 CAVOK 21/09 Q1023 NOSIG",
      "taf": "TAF LFLS 070800Z 0709/0809 09005KT CAVOK"
    },
    {
      "icao": "LFMN",
      "alert": "OK",
      "vis_m": 9999,
      "fzfg": false,
      "metar_trigger": false,
      "taf_trigger": false,
      "metar": "METAR LFMN 071100Z 14007KT 9999 FEW022 17/13 Q1024 NOSIG",
      "taf": "TAF LFMN 070800Z 0709/0815 14005KT 9999 FEW012 BKN022"
    },
    {
      "icao": "LFOB",
      "alert": "OK",
      "vis_m": 9999,
      "fzfg": false,
      "metar_trigger": false,
      "taf_trigger": false,
      "metar": "METAR LFOB 071100Z AUTO 09010KT 060V120 CAVOK 18/10 Q1022 NOSIG",
      "taf": "TAF LFOB 071100Z 0712/0812 10009KT CAVOK"
    },
    {
      "icao": "LFPO",
      "alert": "OK",
      "vis_m": 9999,
      "fzfg": false,
      "metar_trigger": false,
      "taf_trigger": false,
      "metar": "METAR LFPO 071100Z 09010KT 050V120 CAVOK 21/09 Q1021 NOSIG",
      "taf": "TAF LFPO 070500Z 0706/0812 08005KT CAVOK"
    },
    {
      "icao": "LFSB",
      "alert": "OK",
      "vis_m": 9999,
      "fzfg": false,
      "metar_trigger": false,
      "taf_trigger": false,
      "metar": "METAR LFSB 071100Z AUTO VRB02KT CAVOK 18/08 Q1023 NOSIG",
      "taf": "TAF LFSB 070500Z 0706/0806 VRB03KT CAVOK"
    },
    {
      "icao": "LGAV",
      "alert": "OK",
      "vis_m": 9999,
      "fzfg": false,
      "metar_trigger": false,
      "taf_trigger": false,
      "metar": "METAR LGAV 071120Z 16009KT 120V200 9999 FEW020 23/08 Q1019 NOSIG",
      "taf": "TAF LGAV 071100Z 0712/0812 VRB05KT 9999 FEW025"
    },
    {
      "icao": "LGTS",
      "alert": "OK",
      "vis_m": 9999,
      "fzfg": false,
      "metar_trigger": false,
      "taf_trigger": false,
      "metar": "METAR LGTS 071120Z 25006KT 9999 FEW030 23/10 Q1018 NOSIG",
      "taf": "TAF LGTS 071100Z 0712/0812 33006KT 9999 FEW025"
    },
    {
      "icao": "LHBP",
      "alert": "OK",
      "vis_m": 9999,
      "fzfg": false,
      "metar_trigger": false,
      "taf_trigger": false,
      "metar": "METAR LHBP 071130Z 31017KT CAVOK 15/M06 Q1020 NOSIG",
      "taf": "TAF LHBP 071115Z 0712/0812 30016G26KT CAVOK"
    },
    {
      "icao": "LHDC",
      "alert": "OK",
      "vis_m": 9999,
      "fzfg": false,
      "metar_trigger": false,
      "taf_trigger": false,
      "metar": "METAR LHDC 071045Z AUTO 26011KT 230V320 CAVOK 14/M04 Q1019 NOSIG",
      "taf": "TAF LHDC 071115Z 0712/0721 29012KT CAVOK"
    },
    {
      "icao": "LIBD",
      "alert": "OK",
      "vis_m": 9999,
      "fzfg": false,
      "metar_trigger": false,
      "taf_trigger": false,
      "metar": "METAR LIBD 071120Z 06005KT 020V090 CAVOK 19/11 Q1022",
      "taf": "TAF LIBD 071100Z 0712/0812 04010KT CAVOK"
    },
    {
      "icao": "LIBG",
      "alert": "OK",
      "vis_m": 9999,
      "fzfg": false,
      "metar_trigger": false,
      "taf_trigger": false,
      "metar": "METAR LIBG 071050Z VRB02KT CAVOK 24/10 Q1022",
      "taf": "TAF LIBG 071100Z 0712/0721 25006KT CAVOK"
    },
    {
      "icao": "LIBP",
      "alert": "OK",
      "vis_m": 9999,
      "fzfg": false,
      "metar_trigger": false,
      "taf_trigger": false,
      "metar": "METAR LIBP 071120Z AUTO 06007KT 9999 NCD 20/06 Q1022",
      "taf": "TAF LIBP 071100Z 0712/0812 07011KT CAVOK"
    },
    {
      "icao": "LIBR",
      "alert": "OK",
      "vis_m": 9999,
      "fzfg": false,
      "metar_trigger": false,
      "taf_trigger": false,
      "metar": "METAR LIBR 071120Z 02008KT CAVOK 17/12 Q1022",
      "taf": "TAF LIBR 071100Z 0712/0812 01010KT CAVOK"
    },
    {
      "icao": "LICA",
      "alert": "OK",
      "vis_m": 9999,
      "fzfg": false,
      "metar_trigger": false,
      "taf_trigger": false,
      "metar": "METAR LICA 071120Z AUTO 25012KT 9999 NCD 17/13 Q1025",
      "taf": "TAF LICA 071100Z 0712/0812 25008KT 9999 FEW020"
    },
    {
      "icao": "LICC",
      "alert": "OK",
      "vis_m": 9999,
      "fzfg": false,
      "metar_trigger": false,
      "taf_trigger": false,
      "metar": "METAR LICC 071120Z 08007KT 050V110 CAVOK 21/17 Q1024",
      "taf": "TAF LICC 071100Z 0712/0812 08010KT CAVOK"
    },
    {
      "icao": "LICJ",
      "alert": "OK",
      "vis_m": 9999,
      "fzfg": false,
      "metar_trigger": false,
      "taf_trigger": false,
      "metar": "METAR LICJ 071120Z 03008KT CAVOK 17/12 Q1025",
      "taf": "TAF LICJ 071100Z 0712/0812 03009KT CAVOK"
    },
    {
      "icao": "LIMC",
      "alert": "OK",
      "vis_m": 9999,
      "fzfg": false,
      "metar_trigger": false,
      "taf_trigger": false,
      "metar": "METAR LIMC 071120Z 15004KT 100V260 CAVOK 22/11 Q1021 NOSIG",
      "taf": "TAF LIMC 071100Z 0712/0818 VRB05KT CAVOK"
    },
    {
      "icao": "LIME",
      "alert": "OK",
      "vis_m": 9999,
      "fzfg": false,
      "metar_trigger": false,
      "taf_trigger": false,
      "metar": "METAR LIME 071120Z 23004KT 180V310 CAVOK 21/10 Q1021 NOSIG",
      "taf": "TAF LIME 071100Z 0712/0812 23010KT CAVOK"
    },
    {
      "icao": "LIMF",
      "alert": "OK",
      "vis_m": 9999,
      "fzfg": false,
      "metar_trigger": false,
      "taf_trigger": false,
      "metar": "METAR LIMF 071120Z 09005KT 030V150 CAVOK 22/07 Q1021",
      "taf": "TAF LIMF 071100Z 0712/0812 VRB05KT CAVOK"
    },
    {
      "icao": "LIMJ",
      "alert": "OK",
      "vis_m": 9999,
      "fzfg": false,
      "metar_trigger": false,
      "taf_trigger": false,
      "metar": "METAR LIMJ 071120Z 14006KT 9999 -DZ SCT012 BKN025 15/13 Q1024",
      "taf": "TAF LIMJ 071100Z 0712/0812 15010KT 9999 SCT015 BKN025"
    },
    {
      "icao": "LIPE",
      "alert": "OK",
      "vis_m": 9999,
      "fzfg": false,
      "metar_trigger": false,
      "taf_trigger": false,
      "metar": "METAR LIPE 071120Z VRB03KT CAVOK 22/09 Q1021",
      "taf": "TAF LIPE 071100Z 0712/0812 VRB05KT CAVOK"
    },
    {
      "icao": "LIPH",
      "alert": "OK",
      "vis_m": 9999,
      "fzfg": false,
      "metar_trigger": false,
      "taf_trigger": false,
      "metar": "METAR LIPH 071120Z 24003KT 140V300 CAVOK 22/09 Q1021",
      "taf": "TAF LIPH 071100Z 0712/0812 VRB05KT 9999 FEW040"
    },
    {
      "icao": "LIPQ",
      "alert": "OK",
      "vis_m": 9999,
      "fzfg": false,
      "metar_trigger": false,
      "taf_trigger": false,
      "metar": "METAR LIPQ 071120Z AUTO 22009KT 9999 NCD 22/07 Q1020",
      "taf": "TAF LIPQ 071100Z 0712/0812 19010KT CAVOK"
    },
    {
      "icao": "LIPR",
      "alert": "OK",
      "vis_m": 9999,
      "fzfg": false,
      "metar_trigger": false,
      "taf_trigger": false,
      "metar": "METAR LIPR 071120Z 06006KT CAVOK 19/12 Q1021",
      "taf": "TAF LIPR 071100Z 0712/0812 06010KT CAVOK"
    },
    {
      "icao": "LIPX",
      "alert": "OK",
      "vis_m": 9999,
      "fzfg": false,
      "metar_trigger": false,
      "taf_trigger": false,
      "metar": "METAR LIPX 071120Z VRB03KT CAVOK 22/10 Q1021",
      "taf": "TAF LIPX 071100Z 0712/0812 VRB05KT CAVOK"
    },
    {
      "icao": "LIPY",
      "alert": "OK",
      "vis_m": 9999,
      "fzfg": false,
      "metar_trigger": false,
      "taf_trigger": false,
      "metar": "METAR LIPY 071120Z AUTO 05007KT 9999 NCD 19/09 Q1021",
      "taf": "TAF LIPY 071100Z 0712/0812 VRB05KT CAVOK"
    },
    {
      "icao": "LIPZ",
      "alert": "OK",
      "vis_m": 9999,
      "fzfg": false,
      "metar_trigger": false,
      "taf_trigger": false,
      "metar": "METAR LIPZ 071120Z 19004KT 140V230 CAVOK 20/12 Q1021 NOSIG",
      "taf": "TAF LIPZ 071100Z 0712/0818 16010KT CAVOK"
    },
    {
      "icao": "LIRF",
      "alert": "OK",
      "vis_m": 9999,
      "fzfg": false,
      "metar_trigger": false,
      "taf_trigger": false,
      "metar": "METAR LIRF 071120Z 20008KT 150V220 CAVOK 18/14 Q1024 NOSIG",
      "taf": "TAF LIRF 071100Z 0712/0818 22010KT CAVOK"
    },
    {
      "icao": "LIRN",
      "alert": "OK",
      "vis_m": 9999,
      "fzfg": false,
      "metar_trigger": false,
      "taf_trigger": false,
      "metar": "METAR LIRN 071120Z 21008KT 9999 FEW030 18/11 Q1025 NOSIG",
      "taf": "TAF LIRN 071100Z 0712/0812 22010KT 8000 FEW016"
    },
    {
      "icao": "LIRP",
      "alert": "OK",
      "vis_m": 9999,
      "fzfg": false,
      "metar_trigger": false,
      "taf_trigger": false,
      "metar": "METAR LIRP 071115Z 30006KT CAVOK 19/07 Q1024 NOSIG",
      "taf": "TAF LIRP 071100Z 0712/0812 24005KT CAVOK"
    },
    {
      "icao": "LIRZ",
      "alert": "OK",
      "vis_m": 9999,
      "fzfg": false,
      "metar_trigger": false,
      "taf_trigger": false,
      "metar": "METAR LIRZ 071120Z AUTO 24008KT 200V310 9999 NCD 21/04 Q1023",
      "taf": "TAF LIRZ 071100Z 0712/0812 VRB04KT CAVOK"
    },
    {
      "icao": "LJLJ",
      "alert": "OK",
      "vis_m": 9999,
      "fzfg": false,
      "metar_trigger": false,
      "taf_trigger": false,
      "metar": "METAR LJLJ 071100Z 09005KT CAVOK 18/03 Q1021 NOSIG",
      "taf": "TAF LJLJ 071100Z 0712/0812 VRB02KT CAVOK"
    },
    {
      "icao": "LKMT",
      "alert": "OK",
      "vis_m": 9999,
      "fzfg": false,
      "metar_trigger": false,
      "taf_trigger": false,
      "metar": "METAR LKMT 071100Z 30010KT 270V350 CAVOK 13/M09 Q1021 NOSIG",
      "taf": "TAF LKMT 071100Z 0712/0812 35012KT CAVOK"
    },
    {
      "icao": "LKPR",
      "alert": "OK",
      "vis_m": 9999,
      "fzfg": false,
      "metar_trigger": false,
      "taf_trigger": false,
      "metar": "METAR LKPR 071100Z 33014KT CAVOK 11/M07 Q1024 NOSIG",
      "taf": "TAF LKPR 071100Z 0712/0818 29012KT CAVOK"
    },
    {
      "icao": "LLBG",
      "alert": "OK",
      "vis_m": 9999,
      "fzfg": false,
      "metar_trigger": false,
      "taf_trigger": false,
      "metar": "METAR LLBG 071120Z 02008KT 9999 FEW027TCU SCT038 18/14 Q1019 RERA NOSIG",
      "taf": "TAF LLBG 071111Z 0712/0812 28012KT 9999 SCT035 TX20/0712Z TN12/0804Z"
    },
    {
      "icao": "LMML",
      "alert": "OK",
      "vis_m": 9999,
      "fzfg": false,
      "metar_trigger": false,
      "taf_trigger": false,
      "metar": "METAR LMML 071115Z 25009KT 230V290 9999 FEW015 20/12 Q1025 NOSIG",
      "taf": "TAF LMML 071100Z 0712/0812 27010KT 9999 FEW015"
    },
    {
      "icao": "LOWW",
      "alert": "OK",
      "vis_m": 9999,
      "fzfg": false,
      "metar_trigger": false,
      "taf_trigger": false,
      "metar": "METAR LOWW 071120Z 31013KT 280V340 CAVOK 16/01 Q1022 NOSIG",
      "taf": "TAF LOWW 071115Z 0712/0818 34012KT CAVOK TX17/0715Z TN04/0804Z"
    },
    {
      "icao": "LPFR",
      "alert": "OK",
      "vis_m": 9999,
      "fzfg": false,
      "metar_trigger": false,
      "taf_trigger": false,
      "metar": "METAR LPFR 071100Z 20010KT 9999 FEW015 SCT028 19/14 Q1016",
      "taf": "TAF LPFR 071100Z 0712/0812 19012KT 9999 SCT015 BKN030"
    },
    {
      "icao": "LPMA",
      "alert": "OK",
      "vis_m": 9999,
      "fzfg": false,
      "metar_trigger": false,
      "taf_trigger": false,
      "metar": "METAR LPMA 071100Z 35008G19KT 280V030 9999 SCT014 16/06 Q1023",
      "taf": "TAF LPMA 071100Z 0712/0812 34013KT 9999 SCT014 SCT030"
    },
    {
      "icao": "LPPR",
      "alert": "OK",
      "vis_m": 6000,
      "fzfg": false,
      "metar_trigger": false,
      "taf_trigger": false,
      "metar": "METAR LPPR 071100Z 23007KT 200V270 6000 SHRA BKN004 SCT020CB 14/13 Q1010 RETSRA",
      "taf": "TAF LPPR 071100Z 0712/0812 22008KT 9999 SCT018 SCT035"
    },
    {
      "icao": "LPPS",
      "alert": "OK",
      "vis_m": 9999,
      "fzfg": false,
      "metar_trigger": false,
      "taf_trigger": false,
      "metar": "METAR LPPS 071100Z 33019KT 9999 FEW015 16/07 Q1023",
      "taf": "TAF LPPS 071100Z 0712/0818 33018KT 9999 SCT015 SCT030"
    },
    {
      "icao": "LPPT",
      "alert": "OK",
      "vis_m": 8000,
      "fzfg": false,
      "metar_trigger": false,
      "taf_trigger": false,
      "metar": "METAR LPPT 071100Z 23009KT 210V270 8000 -RADZ FEW010 SCT018 BKN040 12/10 Q1014",
      "taf": "TAF LPPT 071100Z 0712/0818 24010KT 9999 SCT025"
    },
    {
      "icao": "LQBK",
      "alert": "OK",
      "vis_m": 9999,
      "fzfg": false,
      "metar_trigger": false,
      "taf_trigger": false,
      "metar": "METAR LQBK 071100Z VRB05KT CAVOK 19/M00 Q1022 NOSIG",
      "taf": "TAF LQBK 071100Z 0712/0812 06006KT CAVOK TX22/0713Z TN05/0805Z"
    },
    {
      "icao": "LQSA",
      "alert": "OK",
      "vis_m": 9999,
      "fzfg": false,
      "metar_trigger": false,
      "taf_trigger": false,
      "metar": "METAR LQSA 071100Z COR VRB02KT 9999 FEW045 19/05 Q1020 NOSIG",
      "taf": "TAF LQSA 071100Z 0712/0812 32006KT 9999 SCT050 TX23/0714Z TN04/0805Z"
    },
    {
      "icao": "LQTZ",
      "alert": "OK",
      "vis_m": 9999,
      "fzfg": false,
      "metar_trigger": false,
      "taf_trigger": false,
      "metar": "METAR LQTZ 071100Z 01004KT 300V110 CAVOK 18/03 Q1021",
      "taf": "TAF LQTZ 071100Z 0712/0812 10005KT CAVOK TX22/0713Z TN05/0805Z"
    },
    {
      "icao": "LRBC",
      "alert": "OK",
      "vis_m": 9999,
      "fzfg": false,
      "metar_trigger": false,
      "taf_trigger": false,
      "metar": "METAR LRBC 071100Z 01006KT 340V050 9999 BKN065 12/M02 Q1014",
      "taf": "TAF LRBC 071100Z 0712/0721 01008KT 9999 BKN060"
    },
    {
      "icao": "LRBS",
      "alert": "OK",
      "vis_m": 9999,
      "fzfg": false,
      "metar_trigger": false,
      "taf_trigger": false,
      "metar": "METAR LRBS 071100Z 25010KT 230V360 CAVOK 15/00 Q1017 NOSIG",
      "taf": "TAF LRBS 071100Z 0712/0812 25010KT CAVOK"
    },
    {
      "icao": "LRBV",
      "alert": "OK",
      "vis_m": 9999,
      "fzfg": false,
      "metar_trigger": false,
      "taf_trigger": false,
      "metar": "METAR LRBV 071100Z 29015KT 260V320 9999 SCT075 10/M05 Q1017",
      "taf": "TAF LRBV 071100Z 0712/0721 29015KT CAVOK"
    },
    {
      "icao": "LRCL",
      "alert": "OK",
      "vis_m": 9999,
      "fzfg": false,
      "metar_trigger": false,
      "taf_trigger": false,
      "metar": "METAR LRCL 071100Z 32010KT 280V360 9999 SCT071 12/M03 Q1018",
      "taf": "TAF LRCL 071100Z 0712/0721 32010KT CAVOK"
    },
    {
      "icao": "LRCV",
      "alert": "OK",
      "vis_m": 9999,
      "fzfg": false,
      "metar_trigger": false,
      "taf_trigger": false,
      "metar": "METAR LRCV 071100Z 28017KT CAVOK 18/M01 Q1017",
      "taf": "TAF LRCV 071100Z 0712/0721 28018KT CAVOK"
    },
    {
      "icao": "LRIA",
      "alert": "OK",
      "vis_m": 9999,
      "fzfg": false,
      "metar_trigger": false,
      "taf_trigger": false,
      "metar": "METAR LRIA 071100Z 30015KT CAVOK 11/M02 Q1014",
      "taf": "TAF LRIA 071100Z 0712/0721 30012KT CAVOK"
    },
    {
      "icao": "LROP",
      "alert": "OK",
      "vis_m": 9999,
      "fzfg": false,
      "metar_trigger": false,
      "taf_trigger": false,
      "metar": "METAR LROP 071100Z 25011KT CAVOK 16/M03 Q1017 NOSIG",
      "taf": "TAF LROP 071100Z 0712/0812 26012KT CAVOK"
    },
    {
      "icao": "LRSB",
      "alert": "OK",
      "vis_m": 9999,
      "fzfg": false,
      "metar_trigger": false,
      "taf_trigger": false,
      "metar": "METAR LRSB 071100Z 31015KT CAVOK 12/M06 Q1017",
      "taf": "TAF LRSB 071100Z 0712/0812 32010KT CAVOK"
    },
    {
      "icao": "LRSM",
      "alert": "OK",
      "vis_m": 9999,
      "fzfg": false,
      "metar_trigger": false,
      "taf_trigger": false,
      "metar": "METAR LRSM 071100Z 27014KT 240V300 CAVOK 15/M04 Q1018",
      "taf": "TAF LRSM 071100Z 0712/0721 30015KT CAVOK"
    },
    {
      "icao": "LRSV",
      "alert": "OK",
      "vis_m": 9999,
      "fzfg": false,
      "metar_trigger": false,
      "taf_trigger": false,
      "metar": "METAR LRSV 071100Z 29015G25KT 260V320 9999 FEW035CB 10/M03 Q1013",
      "taf": "TAF LRSV 071100Z 0712/0721 30016KT 9999 SCT045"
    },
    {
      "icao": "LRTM",
      "alert": "OK",
      "vis_m": 9999,
      "fzfg": false,
      "metar_trigger": false,
      "taf_trigger": false,
      "metar": "METAR LRTM 071100Z 28012KT 230V330 9999 FEW047 13/M04 Q1017",
      "taf": "TAF LRTM 071100Z 0712/0721 29012KT CAVOK"
    },
    {
      "icao": "LRTR",
      "alert": "OK",
      "vis_m": 9999,
      "fzfg": false,
      "metar_trigger": false,
      "taf_trigger": false,
      "metar": "METAR LRTR 071100Z 28012KT CAVOK 15/M01 Q1021 NOSIG",
      "taf": "TAF LRTR 071100Z 0712/0812 30014KT CAVOK"
    },
    {
      "icao": "LTAC",
      "alert": "OK",
      "vis_m": 9999,
      "fzfg": false,
      "metar_trigger": false,
      "taf_trigger": false,
      "metar": "METAR LTAC 071120Z 27010KT 230V330 9999 SCT040 17/M01 Q1014 NOSIG RMK RWY21C 27013KT 220V290 RWY03L 27009KT 220V350 RWY21R 27011KT 210V290 RWY03R 22012KT 180V250 RWY21L 25011KT 210V270",
      "taf": "TAF LTAC 071040Z 0712/0812 VRB02KT 9999 SCT040 SCT100"
    },
    {
      "icao": "LTFM",
      "alert": "OK",
      "vis_m": 9999,
      "fzfg": false,
      "metar_trigger": false,
      "taf_trigger": false,
      "metar": "METAR LTFM 071120Z 06008KT 360V100 9999 FEW017 BKN035 12/07 Q1018 NOSIG RMK RWY17L 07005KT 020V120 RWY34L 04006KT 340V080 RWY16R 07006KT 010V090 RWY36 06008KT 020V110 RWY18 07007KT 030V100",
      "taf": "TAF LTFM 071040Z 0712/0818 VRB02KT 9999 SCT035 BKN100"
    },
    {
      "icao": "LUKK",
      "alert": "OK",
      "vis_m": 9999,
      "fzfg": false,
      "metar_trigger": false,
      "taf_trigger": false,
      "metar": "METAR LUKK 071100Z 32017G30KT 300V360 9999 SCT049 11/M02 Q1013 TEMPO 31020G34KT SCT045CB",
      "taf": "TAF LUKK 071101Z 0712/0812 30016KT 9999 SCT035"
    },
    {
      "icao": "LWOH",
      "alert": "OK",
      "vis_m": 9999,
      "fzfg": false,
      "metar_trigger": false,
      "taf_trigger": false,
      "metar": "METAR LWOH 071120Z 16008KT 9999 FEW050 15/08 Q1021",
      "taf": ""
    },
    {
      "icao": "LWSK",
      "alert": "OK",
      "vis_m": 9999,
      "fzfg": false,
      "metar_trigger": false,
      "taf_trigger": false,
      "metar": "METAR LWSK 071120Z 02006KT 300V080 CAVOK 22/09 Q1019 NOSIG",
      "taf": "TAF LWSK 071120Z 0712/0812 36008KT CAVOK"
    },
    {
      "icao": "LYBE",
      "alert": "OK",
      "vis_m": 9999,
      "fzfg": false,
      "metar_trigger": false,
      "taf_trigger": false,
      "metar": "METAR LYBE 071100Z 30008KT CAVOK 17/00 Q1022 NOSIG",
      "taf": "TAF LYBE 071100Z 0712/0812 30010KT CAVOK TX19/0713Z TN04/0804Z"
    },
    {
      "icao": "LYNI",
      "alert": "OK",
      "vis_m": 9999,
      "fzfg": false,
      "metar_trigger": false,
      "taf_trigger": false,
      "metar": "METAR LYNI 071100Z 34010KT 300V020 CAVOK 19/03 Q1021 NOSIG",
      "taf": "TAF LYNI 071100Z 0712/0812 29007KT CAVOK TX21/0713Z TN07/0805Z"
    },
    {
      "icao": "LYPG",
      "alert": "OK",
      "vis_m": 9999,
      "fzfg": false,
      "metar_trigger": false,
      "taf_trigger": false,
      "metar": "METAR LYPG 071100Z 15006KT 110V200 CAVOK 21/07 Q1021 NOSIG",
      "taf": "TAF LYPG 071100Z 0712/0812 16005KT CAVOK TX23/0713Z TN08/0804Z"
    },
    {
      "icao": "LZIB",
      "alert": "OK",
      "vis_m": 9999,
      "fzfg": false,
      "metar_trigger": false,
      "taf_trigger": false,
      "metar": "METAR LZIB 071130Z 32015KT CAVOK 15/M02 Q1022 NOSIG",
      "taf": "TAF LZIB 071115Z 0712/0812 30012KT CAVOK"
    },
    {
      "icao": "LZKZ",
      "alert": "OK",
      "vis_m": 9999,
      "fzfg": false,
      "metar_trigger": false,
      "taf_trigger": false,
      "metar": "METAR LZKZ 071130Z 23009G19KT 160V260 CAVOK 14/M05 Q1017 NOSIG",
      "taf": "TAF LZKZ 071115Z 0712/0812 36013KT CAVOK"
    },
    {
      "icao": "LZTT",
      "alert": "OK",
      "vis_m": 9999,
      "fzfg": false,
      "metar_trigger": false,
      "taf_trigger": false,
      "metar": "METAR LZTT 071130Z 26013KT 200V290 CAVOK 11/M10 Q1016 NOSIG",
      "taf": "TAF LZTT 071115Z 0712/0812 25014KT 9999 FEW065"
    },
    {
      "icao": "OEJN",
      "alert": "OK",
      "vis_m": 9999,
      "fzfg": false,
      "metar_trigger": false,
      "taf_trigger": false,
      "metar": "METAR OEJN 071100Z 32011KT CAVOK 32/13 Q1013 NOSIG",
      "taf": "TAF OEJN 071100Z 0712/0818 32014KT 7000 FEW040"
    },
    {
      "icao": "OEMA",
      "alert": "OK",
      "vis_m": 9999,
      "fzfg": false,
      "metar_trigger": false,
      "taf_trigger": false,
      "metar": "METAR OEMA 071100Z VRB03KT 9999 BKN045 29/M02 Q1017 NOSIG",
      "taf": "TAF OEMA 071100Z 0712/0818 28010KT 9999 FEW045"
    },
    {
      "icao": "OJAI",
      "alert": "OK",
      "vis_m": null,
      "fzfg": false,
      "metar_trigger": false,
      "taf_trigger": false,
      "metar": "",
      "taf": "TAF OJAI 071100Z 0712/0818 27012KT 4000 HZ FEW025TCU SCT030"
    },
    {
      "icao": "OMAA",
      "alert": "OK",
      "vis_m": null,
      "fzfg": false,
      "metar_trigger": false,
      "taf_trigger": false,
      "metar": "",
      "taf": ""
    },
    {
      "icao": "OMDB",
      "alert": "OK",
      "vis_m": null,
      "fzfg": false,
      "metar_trigger": false,
      "taf_trigger": false,
      "metar": "",
      "taf": ""
    },
    {
      "icao": "UAAA",
      "alert": "OK",
      "vis_m": 9999,
      "fzfg": false,
      "metar_trigger": false,
      "taf_trigger": false,
      "metar": "METAR UAAA 071100Z 01002MPS 270V070 9999 FEW050CB BKN200 24/10 Q1001 NOSIG",
      "taf": "TAF UAAA 071103Z 0712/0812 01002MPS 9999 SCT050CB BKN100 TX25/0810Z TN12/0801Z"
    },
    {
      "icao": "UBBB",
      "alert": "OK",
      "vis_m": 9999,
      "fzfg": false,
      "metar_trigger": false,
      "taf_trigger": false,
      "metar": "METAR UBBB 071130Z 17018KT CAVOK 16/04 Q1011 NOSIG",
      "taf": "TAF UBBB 071049Z 0712/0812 17014KT CAVOK TX16/0712Z TN09/0801Z"
    },
    {
      "icao": "UDSG",
      "alert": "OK",
      "vis_m": 9999,
      "fzfg": false,
      "metar_trigger": false,
      "taf_trigger": false,
      "metar": "METAR UDSG 071100Z 31007KT 230V350 9999 BKN043CB 10/00 Q1013 NOSIG",
      "taf": "TAF UDSG 071100Z 0712/0812 22006KT 9999 SCT040"
    },
    {
      "icao": "UDYZ",
      "alert": "OK",
      "vis_m": 9999,
      "fzfg": false,
      "metar_trigger": false,
      "taf_trigger": false,
      "metar": "METAR UDYZ 071100Z 26005KT 200V340 9999 SCT043CB 17/01 Q1011 NOSIG",
      "taf": "TAF UDYZ 071100Z 0712/0812 23006KT SCT040"
    },
    {
      "icao": "UGKO",
      "alert": "OK",
      "vis_m": 9999,
      "fzfg": false,
      "metar_trigger": false,
      "taf_trigger": false,
      "metar": "METAR UGKO 071100Z 25007KT 200V290 CAVOK 20/07 Q1011 NOSIG",
      "taf": "TAF UGKO 071100Z 0712/0812 25007KT CAVOK TX20/0712Z TN07/0803Z"
    }
  ]
}