{
  "ts_utc": "2026-01-07T17:04:00Z",
  "threshold_m": 150,
  "source": "stations_override.txt (ICAO list) + aviationweather.gov (METAR/TAF raw)",
  "station_count": 159,
  "stations": [
    {
      "icao": "BIKF",
      "alert": "OK",
      "vis_m": 9999,
      "fzfg": false,
      "metar_trigger": false,
      "taf_trigger": false,
      "metar": "METAR BIKF 071630Z 07019KT CAVOK M03/M10 Q1004",
      "taf": "TAF BIKF 071635Z 0718/0818 07018KT 9999 FEW045 TX02/0812Z TNM04/0720Z"
    },
    {
      "icao": "BKPR",
      "alert": "OK",
      "vis_m": 8000,
      "fzfg": false,
      "metar_trigger": false,
      "taf_trigger": false,
      "metar": "METAR BKPR 071700Z 36018KT 8000 -FZRA SCT010 BKN030 M00/M00 Q1003 NOSIG",
      "taf": ""
    },
    {
      "icao": "EBCI",
      "alert": "OK",
      "vis_m": 9999,
      "fzfg": false,
      "metar_trigger": false,
      "taf_trigger": false,
      "metar": "METAR EBCI 071650Z 19013KT 9999 BKN009 M01/M03 Q1006 NOSIG",
      "taf": ""
    },
    {
      "icao": "EDDB",
      "alert": "OK",
      "vis_m": 9999,
      "fzfg": false,
      "metar_trigger": false,
      "taf_trigger": false,
      "metar": "METAR EDDB 071650Z AUTO 14006KT CAVOK M05/M08 Q1012 NOSIG",
      "taf": "TAF EDDB 071100Z 0712/0812 16007KT CAVOK"
    },
    {
      "icao": "EDDH",
      "alert": "OK",
      "vis_m": 9999,
      "fzfg": false,
      "metar_trigger": false,
      "taf_trigger": false,
      "metar": "METAR EDDH 071650Z AUTO 15013KT CAVOK M02/M06 Q1006 NOSIG",
      "taf": "TAF EDDH 071100Z 0712/0818 17012KT 9999 BKN025"
    },
    {
      "icao": "EDDK",
      "alert": "OK",
      "vis_m": 9999,
      "fzfg": false,
      "metar_trigger": false,
      "taf_trigger": false,
      "metar": "METAR EDDK 071650Z AUTO 15008KT 9999 OVC037 M01/M05 Q1007 NOSIG",
      "taf": "TAF EDDK 071100Z 0712/0818 15012KT 9999 SCT020 BKN030"
    },
    {
      "icao": "EDDN",
      "alert": "OK",
      "vis_m": 9999,
      "fzfg": false,
      "metar_trigger": false,
      "taf_trigger": false,
      "metar": "METAR EDDN 071650Z AUTO 12005KT CAVOK M06/M11 Q1011 NOSIG",
      "taf": "TAF EDDN 071100Z 0712/0812 15006KT CAVOK"
    },
    {
      "icao": "EDDS",
      "alert": "OK",
      "vis_m": 9999,
      "fzfg": false,
      "metar_trigger": false,
      "taf_trigger": false,
      "metar": "METAR EDDS 071650Z AUTO 16003KT CAVOK M05/M09 Q1009 NOSIG",
      "taf": "TAF EDDS 071100Z 0712/0812 14004KT CAVOK"
    },
    {
      "icao": "EDFH",
      "alert": "OK",
      "vis_m": 3000,
      "fzfg": false,
      "metar_trigger": false,
      "taf_trigger": false,
      "metar": "METAR EDFH 071650Z 21009KT 3000 -SN FEW002 BKN010 OVC020 M04/M06 Q1007",
      "taf": "TAF EDFH 071100Z 0712/0812 21013KT 9999 SCT010"
    },
    {
      "icao": "EDJA",
      "alert": "OK",
      "vis_m": 9999,
      "fzfg": false,
      "metar_trigger": false,
      "taf_trigger": false,
      "metar": "METAR EDJA 071650Z 17005KT CAVOK M10/M13 Q1010",
      "taf": "TAF EDJA 071400Z 0715/0724 20004KT CAVOK"
    },
    {
      "icao": "EDLW",
      "alert": "OK",
      "vis_m": 9999,
      "fzfg": false,
      "metar_trigger": false,
      "taf_trigger": false,
      "metar": "METAR EDLW 071650Z 18016KT 9999 BKN028 BKN041 M02/M05 Q1005",
      "taf": "TAF EDLW 071100Z 0712/0812 18015G25KT 9999 SCT015 BKN030"
    },
    {
      "icao": "EDNY",
      "alert": "OK",
      "vis_m": 9999,
      "fzfg": false,
      "metar_trigger": false,
      "taf_trigger": false,
      "metar": "METAR EDNY 071650Z 00000KT CAVOK M08/M09 Q1011",
      "taf": "TAF EDNY 071400Z 0715/0724 04002KT 9999 BKN025"
    },
    {
      "icao": "EDSB",
      "alert": "OK",
      "vis_m": 9999,
      "fzfg": false,
      "metar_trigger": false,
      "taf_trigger": false,
      "metar": "METAR EDSB 071650Z 20010KT CAVOK M01/M07 Q1011",
      "taf": "TAF EDSB 071100Z 0712/0812 22007KT CAVOK"
    },
    {
      "icao": "EETN",
      "alert": "OK",
      "vis_m": 9999,
      "fzfg": false,
      "metar_trigger": false,
      "taf_trigger": false,
      "metar": "METAR EETN 071650Z VRB01KT 9999 -SN OVC018 M07/M08 Q1016 NOSIG",
      "taf": "TAF EETN 071130Z 0712/0812 VRB02KT 9999 BKN018"
    },
    {
      "icao": "EFTU",
      "alert": "OK",
      "vis_m": 9999,
      "fzfg": false,
      "metar_trigger": false,
      "taf_trigger": false,
      "metar": "METAR EFTU 071650Z AUTO 10011KT 9999 BKN032 OVC042 M07/M10 Q1016",
      "taf": "TAF EFTU 071425Z 0715/0815 09011KT 9999 BKN035"
    },
    {
      "icao": "EGBB",
      "alert": "OK",
      "vis_m": 9999,
      "fzfg": false,
      "metar_trigger": false,
      "taf_trigger": false,
      "metar": "METAR EGBB 071650Z 29008KT 9999 BKN040 05/M02 Q1005",
      "taf": "TAF EGBB 071105Z 0712/0812 28012KT 9999 SCT025"
    },
    {
      "icao": "EGGP",
      "alert": "OK",
      "vis_m": 9999,
      "fzfg": false,
      "metar_trigger": false,
      "taf_trigger": false,
      "metar": "METAR EGGP 071650Z 29009KT 9999 BKN044 05/M00 Q1005",
      "taf": "TAF EGGP 071055Z 0712/0812 29015KT 9999 FEW025"
    },
    {
      "icao": "EGGW",
      "alert": "OK",
      "vis_m": 9999,
      "fzfg": false,
      "metar_trigger": false,
      "taf_trigger": false,
      "metar": "METAR EGGW 071650Z AUTO 28011KT 9999 SCT042 03/M01 Q1004",
      "taf": "TAF EGGW 071056Z 0712/0812 28012KT 9999 SCT030"
    },
    {
      "icao": "EGKK",
      "alert": "OK",
      "vis_m": 9999,
      "fzfg": false,
      "metar_trigger": false,
      "taf_trigger": false,
      "metar": "METAR EGKK 071650Z 25007KT CAVOK 03/M01 Q1006",
      "taf": "TAF EGKK 071100Z 0712/0818 27010KT 9999 FEW030"
    },
    {
      "icao": "EGNM",
      "alert": "OK",
      "vis_m": 9999,
      "fzfg": false,
      "metar_trigger": false,
      "taf_trigger": false,
      "metar": "METAR EGNM 071650Z 27013KT CAVOK 02/M01 Q1001",
      "taf": "TAF EGNM 071055Z 0712/0812 28015KT 9999 FEW015"
    },
    {
      "icao": "EGPD",
      "alert": "OK",
      "vis_m": 7000,
      "fzfg": false,
      "metar_trigger": false,
      "taf_trigger": false,
      "metar": "METAR EGPD 071650Z AUTO 33003KT 7000 -RA FEW006/// SCT009/// BKN017/// //////CB 01/00 Q1003 TEMPO 4000 RASN BKN008",
      "taf": "TAF EGPD 071102Z 0712/0812 03009KT 9999 BKN024"
    },
    {
      "icao": "EGPF",
      "alert": "OK",
      "vis_m": 9999,
      "fzfg": false,
      "metar_trigger": false,
      "taf_trigger": false,
      "metar": "METAR EGPF 071650Z AUTO 21003KT 9999 NCD M00/M02 Q1004",
      "taf": "TAF EGPF 071056Z 0712/0812 29010KT 9999 FEW035"
    },
    {
      "icao": "EHBK",
      "alert": "OK",
      "vis_m": 9999,
      "fzfg": false,
      "metar_trigger": false,
      "taf_trigger": false,
      "metar": "METAR EHBK 071655Z AUTO 20018KT 9999 -FZUP FEW014/// OVC016/// M01/M03 Q1005 TEMPO 2000 -SHSN FEW008CB",
      "taf": "TAF EHBK 071124Z 0712/0818 20017KT 2500 -SN BKN025"
    },
    {
      "icao": "EHEH",
      "alert": "OK",
      "vis_m": 9999,
      "fzfg": false,
      "metar_trigger": false,
      "taf_trigger": false,
      "metar": "METAR EHEH 071655Z AUTO 20011KT 160V230 9999 BKN008 OVC009 M00/M02 Q1004 REFZDZ GRN TEMPO 20013G23KT 1500 SN FEW003 BKN005 OVC008",
      "taf": ""
    },
    {
      "icao": "EKBI",
      "alert": "OK",
      "vis_m": 2200,
      "fzfg": false,
      "metar_trigger": false,
      "taf_trigger": false,
      "metar": "METAR EKBI 071650Z 15013KT 130V190 2200 DRSN -SN BKN007 M02/M03 Q1002",
      "taf": "TAF EKBI 071427Z 0715/0815 17010KT 5000 -SN SCT005 BKN010"
    },
    {
      "icao": "EKCH",
      "alert": "OK",
      "vis_m": 9999,
      "fzfg": false,
      "metar_trigger": false,
      "taf_trigger": false,
      "metar": "METAR EKCH 071650Z AUTO 17018KT 9999 OVC120/// 00/M04 Q1008 TEMPO 17015G25KT",
      "taf": "TAF EKCH 071427Z 0715/0815 17015KT 9999 BKN018"
    },
    {
      "icao": "ENAL",
      "alert": "OK",
      "vis_m": 9999,
      "fzfg": false,
      "metar_trigger": false,
      "taf_trigger": false,
      "metar": "METAR ENAL 071650Z 13011KT CAVOK M03/M12 Q1007",
      "taf": "TAF ENAL 071400Z 0715/0724 14009KT CAVOK"
    },
    {
      "icao": "ENBR",
      "alert": "OK",
      "vis_m": 9999,
      "fzfg": false,
      "metar_trigger": false,
      "taf_trigger": false,
      "metar": "METAR ENBR 071650Z 08004KT CAVOK M09/M14 Q1005 NOSIG RMK WIND 1200FT 30003KT",
      "taf": "TAF ENBR 071100Z 0712/0812 06005KT CAVOK"
    },
    {
      "icao": "ENGM",
      "alert": "OK",
      "vis_m": 9999,
      "fzfg": false,
      "metar_trigger": false,
      "taf_trigger": false,
      "metar": "METAR ENGM 071650Z 01002KT 9999 -SN BKN022 M09/M11 Q1007 TEMPO BKN014",
      "taf": "TAF ENGM 071100Z 0712/0812 01003KT 9999 FEW015 BKN020"
    },
    {
      "icao": "ENHD",
      "alert": "OK",
      "vis_m": 9999,
      "fzfg": false,
      "metar_trigger": false,
      "taf_trigger": false,
      "metar": "METAR ENHD 071650Z 06008KT CAVOK M06/M13 Q1004",
      "taf": "TAF ENHD 071400Z 0715/0723 07008KT CAVOK"
    },
    {
      "icao": "ENTC",
      "alert": "OK",
      "vis_m": 9999,
      "fzfg": false,
      "metar_trigger": false,
      "taf_trigger": false,
      "metar": "METAR ENTC 071650Z 26007KT CAVOK M08/M12 Q1023 NOSIG RMK WIND 2600FT 12008KT",
      "taf": "TAF ENTC 071100Z 0712/0812 VRB05KT CAVOK"
    },
    {
      "icao": "ENTO",
      "alert": "OK",
      "vis_m": 9999,
      "fzfg": false,
      "metar_trigger": false,
      "taf_trigger": false,
      "metar": "METAR ENTO 071650Z 36010KT 9999 -SHSN BKN013 BKN016 BKN019 M08/M11 Q1007 BECMG 4000 -SN",
      "taf": ""
    },
    {
      "icao": "ENVA",
      "alert": "OK",
      "vis_m": 9999,
      "fzfg": false,
      "metar_trigger": false,
      "taf_trigger": false,
      "metar": "METAR ENVA 071650Z 06004KT 350V090 CAVOK M08/M13 Q1013 NOSIG RMK WIND 670FT 10005KT",
      "taf": "TAF ENVA 071100Z 0712/0812 11008KT 9999 FEW025"
    },
    {
      "icao": "ENZV",
      "alert": "OK",
      "vis_m": 9999,
      "fzfg": false,
      "metar_trigger": false,
      "taf_trigger": false,
      "metar": "METAR ENZV 071650Z VRB02KT CAVOK M04/M12 Q1004 NOSIG",
      "taf": "TAF ENZV 071100Z 0712/0812 08006KT CAVOK"
    },
    {
      "icao": "EPGD",
      "alert": "OK",
      "vis_m": 9999,
      "fzfg": false,
      "metar_trigger": false,
      "taf_trigger": false,
      "metar": "METAR EPGD 071700Z 19005KT 170V230 9999 BKN004 M07/M08 Q1015",
      "taf": ""
    },
    {
      "icao": "EPKK",
      "alert": "OK",
      "vis_m": 4000,
      "fzfg": false,
      "metar_trigger": false,
      "taf_trigger": false,
      "metar": "METAR EPKK 071700Z 04004KT 360V060 4000 -SN BR OVC018 M05/M07 Q1013 RESN",
      "taf": ""
    },
    {
      "icao": "EPKT",
      "alert": "OK",
      "vis_m": 9999,
      "fzfg": false,
      "metar_trigger": false,
      "taf_trigger": false,
      "metar": "METAR EPKT 071700Z 04004KT CAVOK M06/M09 Q1013",
      "taf": "TAF EPKT 071130Z 0712/0812 04005KT 9999 BKN018"
    },
    {
      "icao": "EPLB",
      "alert": "OK",
      "vis_m": 4500,
      "fzfg": false,
      "metar_trigger": false,
      "taf_trigger": false,
      "metar": "METAR EPLB 071700Z 36005KT 4500 -SN BR BKN047 M06/M07 Q1014",
      "taf": "TAF EPLB 071130Z 0712/0812 02007KT 3500 -SN BR SCT020 BKN045"
    },
    {
      "icao": "EPMO",
      "alert": "OK",
      "vis_m": 800,
      "fzfg": true,
      "metar_trigger": false,
      "taf_trigger": false,
      "metar": "METAR EPMO 071700Z VRB02KT 0800 R08/1400D FZFG OVC000 M10/M11 Q1016",
      "taf": ""
    },
    {
      "icao": "EPPO",
      "alert": "OK",
      "vis_m": 4000,
      "fzfg": false,
      "metar_trigger": false,
      "taf_trigger": false,
      "metar": "METAR EPPO 071700Z 10005KT 4000 BR FEW016 M06/M08 Q1015",
      "taf": ""
    },
    {
      "icao": "EPRA",
      "alert": "OK",
      "vis_m": 4000,
      "fzfg": false,
      "metar_trigger": false,
      "taf_trigger": false,
      "metar": "METAR EPRA 071700Z 35005KT 4000 BR FEW004 M08/M09 Q1015",
      "taf": "TAF EPRA 071430Z 0715/0724 34005KT 4000 BR NSC"
    },
    {
      "icao": "EPRZ",
      "alert": "OK",
      "vis_m": 3500,
      "fzfg": false,
      "metar_trigger": false,
      "taf_trigger": false,
      "metar": "METAR EPRZ 071700Z 02007KT 3500 -SN BR SCT008 OVC025 M05/M06 Q1013",
      "taf": "TAF EPRZ 071130Z 0712/0812 01007KT 3500 -SN BR OVC045"
    },
    {
      "icao": "EPSC",
      "alert": "OK",
      "vis_m": 9999,
      "fzfg": false,
      "metar_trigger": false,
      "taf_trigger": false,
      "metar": "METAR EPSC 071700Z 14011KT CAVOK M05/M08 Q1013",
      "taf": "TAF EPSC 071130Z 0712/0812 14012KT 9999 BKN030"
    },
    {
      "icao": "EPSY",
      "alert": "OK",
      "vis_m": 2700,
      "fzfg": false,
      "metar_trigger": false,
      "taf_trigger": false,
      "metar": "METAR EPSY 071700Z 21001KT 2700 BR NSC M16/M18 Q1016",
      "taf": "TAF EPSY 071430Z 0715/0724 VRB02KT 3000 BR NSC"
    },
    {
      "icao": "EPWA",
      "alert": "OK",
      "vis_m": 4000,
      "fzfg": false,
      "metar_trigger": false,
      "taf_trigger": false,
      "metar": "METAR EPWA 071700Z 29003KT 270V340 4000 BR BKN006 M10/M11 Q1016 NOSIG",
      "taf": ""
    },
    {
      "icao": "EPWR",
      "alert": "OK",
      "vis_m": 9999,
      "fzfg": false,
      "metar_trigger": false,
      "taf_trigger": false,
      "metar": "METAR EPWR 071700Z 11005KT 9999 BKN025 M03/M06 Q1014",
      "taf": "TAF EPWR 071430Z 0715/0815 VRB02KT 9999 BKN025"
    },
    {
      "icao": "ESGG",
      "alert": "OK",
      "vis_m": 2100,
      "fzfg": false,
      "metar_trigger": false,
      "taf_trigger": false,
      "metar": "METAR ESGG 071650Z 14010KT 2100 SN VV010 M02/M03 Q1004",
      "taf": "TAF ESGG 071430Z 0715/0815 16009KT 5000 -SN SCT005 BKN015"
    },
    {
      "icao": "ESKN",
      "alert": "OK",
      "vis_m": 9999,
      "fzfg": false,
      "metar_trigger": false,
      "taf_trigger": false,
      "metar": "METAR ESKN 071650Z 10004KT 9999 SCT037 BKN053 M04/M04 Q1011",
      "taf": "TAF ESKN 071430Z 0715/0815 11005KT 9999 BKN015"
    },
    {
      "icao": "ESMS",
      "alert": "OK",
      "vis_m": 9999,
      "fzfg": false,
      "metar_trigger": false,
      "taf_trigger": false,
      "metar": "METAR ESMS 071650Z 17013KT CAVOK M01/M05 Q1009",
      "taf": "TAF ESMS 071427Z 0715/0815 20012KT 9999 BKN018"
    },
    {
      "icao": "ESSA",
      "alert": "OK",
      "vis_m": 9999,
      "fzfg": false,
      "metar_trigger": false,
      "taf_trigger": false,
      "metar": "METAR ESSA 071650Z 08009KT 9999 SCT004 M08/M09 Q1012 TEMPO BKN008",
      "taf": ""
    },
    {
      "icao": "EYKA",
      "alert": "OK",
      "vis_m": 900,
      "fzfg": true,
      "metar_trigger": false,
      "taf_trigger": false,
      "metar": "METAR EYKA 071650Z 12001KT 0900 R26/1900N FZFG VV002 M06/M06 Q1017",
      "taf": ""
    },
    {
      "icao": "EYPA",
      "alert": "OK",
      "vis_m": 2000,
      "fzfg": false,
      "metar_trigger": false,
      "taf_trigger": false,
      "metar": "METAR EYPA 071650Z 15005KT 110V180 2000 BR OVC002 M07/M08 Q1016",
      "taf": "TAF EYPA 071100Z 0712/0812 VRB04KT 5000 BR SCT005"
    },
    {
      "icao": "EYVI",
      "alert": "OK",
      "vis_m": 900,
      "fzfg": true,
      "metar_trigger": false,
      "taf_trigger": false,
      "metar": "METAR EYVI 071650Z VRB02KT 0900 R01/1800VP2000N FZFG VV003 M06/M07 Q1015 NOSIG",
      "taf": ""
    },
    {
      "icao": "GCFV",
      "alert": "OK",
      "vis_m": 9999,
      "fzfg": false,
      "metar_trigger": false,
      "taf_trigger": false,
      "metar": "METAR GCFV 071630Z 03024KT 9999 SCT035 18/09 Q1027",
      "taf": "TAF GCFV 071400Z 0715/0815 04023KT 9999 FEW035 TX20/0814Z TN14/0806Z"
    },
    {
      "icao": "GCLP",
      "alert": "OK",
      "vis_m": 9999,
      "fzfg": false,
      "metar_trigger": false,
      "taf_trigger": false,
      "metar": "METAR GCLP 071630Z 03024KT 9999 SCT035 19/10 Q1027 NOSIG",
      "taf": "TAF GCLP 071400Z 0715/0815 03025KT 9999 BKN035 TX20/0814Z TN14/0806Z"
    },
    {
      "icao": "GCTS",
      "alert": "OK",
      "vis_m": 9999,
      "fzfg": false,
      "metar_trigger": false,
      "taf_trigger": false,
      "metar": "METAR GCTS 071630Z 08030KT 9999 FEW035 19/09 Q1027 NOSIG",
      "taf": ""
    },
    {
      "icao": "GMAD",
      "alert": "OK",
      "vis_m": 9999,
      "fzfg": false,
      "metar_trigger": false,
      "taf_trigger": false,
      "metar": "METAR GMAD 071700Z 00000KT CAVOK 18/01 Q1025 NOSIG",
      "taf": "TAF GMAD 071100Z 0712/0818 22006KT CAVOK"
    },
    {
      "icao": "GMMN",
      "alert": "OK",
      "vis_m": 9999,
      "fzfg": false,
      "metar_trigger": false,
      "taf_trigger": false,
      "metar": "METAR GMMN 071700Z 28003KT 9999 SCT040 13/06 Q1030 NOSIG",
      "taf": "TAF GMMN 071100Z 0712/0818 24011KT 9999 SCT040"
    },
    {
      "icao": "GMMX",
      "alert": "OK",
      "vis_m": 9999,
      "fzfg": false,
      "metar_trigger": false,
      "taf_trigger": false,
      "metar": "METAR GMMX 071700Z 05006KT 020V080 CAVOK 12/00 Q1028 NOSIG",
      "taf": "TAF GMMX 071100Z 0712/0818 06006KT 8000 NSC"
    },
    {
      "icao": "HEGN",
      "alert": "OK",
      "vis_m": 9999,
      "fzfg": false,
      "metar_trigger": false,
      "taf_trigger": false,
      "metar": "METAR HEGN 071600Z 30002KT 9999 SCT025 23/12 Q1019 NOSIG",
      "taf": "TAF HEGN 071700Z 0718/0824 33010KT CAVOK"
    },
    {
      "icao": "HEMA",
      "alert": "OK",
      "vis_m": 3000,
      "fzfg": false,
      "metar_trigger": false,
      "taf_trigger": false,
      "metar": "METAR HEMA 071600Z 34011KT 3000 SA NSC 22/16 Q1019 NOSIG",
      "taf": "TAF HEMA 071700Z 0718/0824 33013KT 6000 NSC"
    },
    {
      "icao": "HESH",
      "alert": "OK",
      "vis_m": 9999,
      "fzfg": false,
      "metar_trigger": false,
      "taf_trigger": false,
      "metar": "METAR HESH 071600Z 35008KT CAVOK 23/12 Q1019 NOSIG",
      "taf": "TAF HESH 071700Z 0718/0824 35011KT CAVOK"
    },
    {
      "icao": "HESX",
      "alert": "OK",
      "vis_m": 6000,
      "fzfg": false,
      "metar_trigger": false,
      "taf_trigger": false,
      "metar": "METAR HESX 071600Z 06006KT 6000 NSC 19/07 Q1020 NOSIG",
      "taf": "TAF HESX 071700Z 0718/0824 12008KT 6000 NSC"
    },
    {
      "icao": "LATI",
      "alert": "OK",
      "vis_m": 9999,
      "fzfg": false,
      "metar_trigger": false,
      "taf_trigger": false,
      "metar": "METAR LATI 071650Z VRB01KT 9999 -RA FEW018CB BKN022 OVC035 11/11 Q1001 NOSIG",
      "taf": "TAF LATI 071700Z 0718/0818 VRB05KT 9999 FEW030CB SCT040 OVC060 TX11/0718Z TN05/0818Z"
    },
    {
      "icao": "LBPD",
      "alert": "OK",
      "vis_m": 5000,
      "fzfg": false,
      "metar_trigger": false,
      "taf_trigger": false,
      "metar": "METAR LBPD 071700Z AUTO 11007KT 5000 BR SCT069/// BKN220/// 10/10 Q1005 TEMPO 4000 BR",
      "taf": "TAF LBPD 071100Z 0712/0812 VRB03KT 3000 BR OVC004"
    },
    {
      "icao": "LBSF",
      "alert": "OK",
      "vis_m": 9999,
      "fzfg": false,
      "metar_trigger": false,
      "taf_trigger": false,
      "metar": "METAR LBSF 071700Z AUTO 32003KT 240V350 9999 FEW056/// 07/07 Q1004 NOSIG",
      "taf": ""
    },
    {
      "icao": "LBWN",
      "alert": "OK",
      "vis_m": 9999,
      "fzfg": false,
      "metar_trigger": false,
      "taf_trigger": false,
      "metar": "METAR LBWN 071700Z AUTO 16007KT 9999 SCT036/// 14/10 Q1007 NOSIG",
      "taf": "TAF LBWN 071100Z 0712/0812 19012KT 9999 SCT020 BKN040"
    },
    {
      "icao": "LCLK",
      "alert": "OK",
      "vis_m": 9999,
      "fzfg": false,
      "metar_trigger": false,
      "taf_trigger": false,
      "metar": "METAR LCLK 071700Z 32005KT CAVOK 14/12 Q1022 NOSIG",
      "taf": "TAF LCLK 071130Z 0712/0812 09010KT 9999 FEW040"
    },
    {
      "icao": "LCPH",
      "alert": "OK",
      "vis_m": 9999,
      "fzfg": false,
      "metar_trigger": false,
      "taf_trigger": false,
      "metar": "METAR LCPH 071700Z 09006KT CAVOK 17/12 Q1021 NOSIG",
      "taf": "TAF LCPH 071130Z 0712/0812 15015KT 9999 FEW040"
    },
    {
      "icao": "LEAL",
      "alert": "OK",
      "vis_m": 9999,
      "fzfg": false,
      "metar_trigger": false,
      "taf_trigger": false,
      "metar": "METAR LEAL 071630Z 24009KT 210V270 9999 FEW035 13/M01 Q1022 NOSIG",
      "taf": "TAF LEAL 071100Z 0712/0812 29012KT CAVOK TX13/0714Z TN07/0806Z"
    },
    {
      "icao": "LEBB",
      "alert": "OK",
      "vis_m": 9999,
      "fzfg": false,
      "metar_trigger": false,
      "taf_trigger": false,
      "metar": "METAR LEBB 071630Z 30012KT 280V340 9999 SCT025 BKN037 12/09 Q1022 TEMPO 3000 RA",
      "taf": "TAF LEBB 071100Z 0712/0812 22005KT 9999 SCT020 BKN030 TX11/0714Z TN08/0806Z"
    },
    {
      "icao": "LEBL",
      "alert": "OK",
      "vis_m": 9999,
      "fzfg": false,
      "metar_trigger": false,
      "taf_trigger": false,
      "metar": "METAR LEBL 071630Z 33007KT 9999 FEW040 07/M03 Q1017 NOSIG",
      "taf": ""
    },
    {
      "icao": "LECH",
      "alert": "OK",
      "vis_m": 9999,
      "fzfg": false,
      "metar_trigger": false,
      "taf_trigger": false,
      "metar": "METAR LECH 071630Z AUTO 30007KT 250V010 CAVOK 10/M07 Q1019",
      "taf": ""
    },
    {
      "icao": "LEMD",
      "alert": "OK",
      "vis_m": 9999,
      "fzfg": false,
      "metar_trigger": false,
      "taf_trigger": false,
      "metar": "METAR LEMD 071630Z 27008KT 240V300 CAVOK 07/00 Q1023 NOSIG",
      "taf": "TAF LEMD 071100Z 0712/0818 25005KT CAVOK TX08/0715Z TNM02/0806Z"
    },
    {
      "icao": "LEMG",
      "alert": "OK",
      "vis_m": 9999,
      "fzfg": false,
      "metar_trigger": false,
      "taf_trigger": false,
      "metar": "METAR LEMG 071630Z 32011KT 9999 SCT055 12/01 Q1026 NOSIG",
      "taf": "TAF LEMG 071100Z 0712/0812 29012KT 9999 FEW040 TX13/0714Z TN06/0806Z"
    },
    {
      "icao": "LEVC",
      "alert": "OK",
      "vis_m": 9999,
      "fzfg": false,
      "metar_trigger": false,
      "taf_trigger": false,
      "metar": "METAR LEVC 071630Z 23008KT 190V250 CAVOK 12/M01 Q1020 NOSIG",
      "taf": "TAF LEVC 071100Z 0712/0812 25012KT CAVOK TX13/0714Z TN06/0806Z"
    },
    {
      "icao": "LEXJ",
      "alert": "OK",
      "vis_m": 9000,
      "fzfg": false,
      "metar_trigger": false,
      "taf_trigger": false,
      "metar": "METAR LEXJ 071630Z 28013KT 9000 FEW015 SCT025 BKN053 11/09 Q1022",
      "taf": "TAF LEXJ 071400Z 0715/0815 24009KT 9999 BKN020 TX12/0813Z TN08/0802Z"
    },
    {
      "icao": "LEZG",
      "alert": "OK",
      "vis_m": 9999,
      "fzfg": false,
      "metar_trigger": false,
      "taf_trigger": false,
      "metar": "METAR LEZG 071630Z 27008KT 9999 OVC040 06/01 Q1020 NOSIG",
      "taf": "TAF LEZG 071100Z 0712/0812 30007KT 9999 FEW030 TX08/0715Z TN05/0806Z"
    },
    {
      "icao": "LEZL",
      "alert": "OK",
      "vis_m": 9999,
      "fzfg": false,
      "metar_trigger": false,
      "taf_trigger": false,
      "metar": "METAR LEZL 071630Z 34004KT 230V030 9999 BKN020 BKN030 10/06 Q1028 NOSIG",
      "taf": "TAF LEZL 071400Z 0715/0815 25004KT 9999 FEW030 TX14/0815Z TN03/0807Z"
    },
    {
      "icao": "LFBD",
      "alert": "OK",
      "vis_m": 9999,
      "fzfg": false,
      "metar_trigger": false,
      "taf_trigger": false,
      "metar": "METAR LFBD 071630Z AUTO 31003KT 280V360 CAVOK 07/06 Q1017",
      "taf": ""
    },
    {
      "icao": "LFLL",
      "alert": "OK",
      "vis_m": 9999,
      "fzfg": false,
      "metar_trigger": false,
      "taf_trigger": false,
      "metar": "METAR LFLL 071630Z 17004KT 140V200 9999 -SN FEW018 OVC043 M00/M05 Q1014 NOSIG",
      "taf": "TAF LFLL 071100Z 0712/0818 16005KT CAVOK"
    },
    {
      "icao": "LFLS",
      "alert": "OK",
      "vis_m": 9999,
      "fzfg": false,
      "metar_trigger": false,
      "taf_trigger": false,
      "metar": "METAR LFLS 071630Z AUTO 06003KT 9999 FEW034 BKN054 OVC068 M01/M07 Q1013 TEMPO 4000 -SN BKN009",
      "taf": "TAF LFLS 071400Z 0715/0815 VRB05KT CAVOK"
    },
    {
      "icao": "LFMN",
      "alert": "OK",
      "vis_m": 9999,
      "fzfg": false,
      "metar_trigger": false,
      "taf_trigger": false,
      "metar": "METAR LFMN 071630Z 24010KT CAVOK 08/M06 Q1011 NOSIG",
      "taf": "TAF LFMN 071400Z 0715/0821 24012KT CAVOK"
    },
    {
      "icao": "LFOB",
      "alert": "OK",
      "vis_m": 9999,
      "fzfg": false,
      "metar_trigger": false,
      "taf_trigger": false,
      "metar": "METAR LFOB 071630Z AUTO 23007KT 9999 FEW034 BKN060 02/01 Q1008 TEMPO 3500 SHRA",
      "taf": ""
    },
    {
      "icao": "LFPO",
      "alert": "OK",
      "vis_m": 9999,
      "fzfg": false,
      "metar_trigger": false,
      "taf_trigger": false,
      "metar": "METAR LFPO 071630Z AUTO 23006KT CAVOK 01/M00 Q1010 NOSIG",
      "taf": "TAF LFPO 071100Z 0712/0818 22012KT 9999 BKN009"
    },
    {
      "icao": "LFSB",
      "alert": "OK",
      "vis_m": 9999,
      "fzfg": false,
      "metar_trigger": false,
      "taf_trigger": false,
      "metar": "METAR LFSB 071630Z AUTO 12008KT CAVOK M02/M07 Q1012 TEMPO 24010KT 3000 -SN BKN008",
      "taf": "TAF LFSB 071100Z 0712/0812 16005KT CAVOK"
    },
    {
      "icao": "LGAV",
      "alert": "OK",
      "vis_m": 9999,
      "fzfg": false,
      "metar_trigger": false,
      "taf_trigger": false,
      "metar": "METAR LGAV 071650Z 21020KT 9999 FEW025 18/12 Q1009 NOSIG",
      "taf": "TAF LGAV 071100Z 0712/0812 20015KT 9999 FEW020 SCT030"
    },
    {
      "icao": "LGTS",
      "alert": "OK",
      "vis_m": 9999,
      "fzfg": false,
      "metar_trigger": false,
      "taf_trigger": false,
      "metar": "METAR LGTS 071650Z 11005KT 9999 FEW025 15/12 Q1005 NOSIG",
      "taf": "TAF LGTS 071100Z 0712/0812 16013KT 9999 SCT025"
    },
    {
      "icao": "LHBP",
      "alert": "OK",
      "vis_m": 9000,
      "fzfg": false,
      "metar_trigger": false,
      "taf_trigger": false,
      "metar": "METAR LHBP 071700Z 31006KT 9000 -SN SCT026 BKN090 M03/M05 Q1011 NOSIG",
      "taf": "TAF LHBP 071115Z 0712/0812 33005KT 9999 BKN040"
    },
    {
      "icao": "LHDC",
      "alert": "OK",
      "vis_m": 9000,
      "fzfg": false,
      "metar_trigger": false,
      "taf_trigger": false,
      "metar": "METAR LHDC 071645Z AUTO 03007KT 9000 -SHSN BKN015 M02/M05 Q1010 NOSIG",
      "taf": "TAF LHDC 071415Z 0715/0724 36006KT 9999 OVC025"
    },
    {
      "icao": "LIBD",
      "alert": "OK",
      "vis_m": 9999,
      "fzfg": false,
      "metar_trigger": false,
      "taf_trigger": false,
      "metar": "METAR LIBD 071650Z 27005KT 9999 -RA BKN015 06/05 Q1004",
      "taf": "TAF LIBD 071100Z 0712/0812 28012KT 4000 RA BKN020"
    },
    {
      "icao": "LIBG",
      "alert": "OK",
      "vis_m": 8000,
      "fzfg": false,
      "metar_trigger": false,
      "taf_trigger": false,
      "metar": "METAR LIBG 071550Z 32004KT 280V350 8000 -RA BKN020 09/09 Q1004 RERA",
      "taf": "TAF LIBG 071400Z 0715/0724 35012KT 9999 SCT015"
    },
    {
      "icao": "LIBP",
      "alert": "OK",
      "vis_m": 9999,
      "fzfg": false,
      "metar_trigger": false,
      "taf_trigger": false,
      "metar": "METAR LIBP 071650Z AUTO 27005KT 250V310 9999 -RA OVC026/// 05/01 Q1008",
      "taf": "TAF LIBP 071100Z 0712/0812 30007KT 9999 BKN030"
    },
    {
      "icao": "LIBR",
      "alert": "OK",
      "vis_m": 6000,
      "fzfg": false,
      "metar_trigger": false,
      "taf_trigger": false,
      "metar": "METAR LIBR 071650Z 30011KT 6000 -RA SCT006 BKN035 09/09 Q1003",
      "taf": "TAF LIBR 071100Z 0712/0812 33008KT 6000 RA BKN016"
    },
    {
      "icao": "LICA",
      "alert": "OK",
      "vis_m": 9999,
      "fzfg": false,
      "metar_trigger": false,
      "taf_trigger": false,
      "metar": "METAR LICA 071650Z AUTO 30015KT 9999 RA FEW012/// BKN018/// OVC032/// 09/08 Q1007",
      "taf": "TAF LICA 071100Z 0712/0812 27013KT 9999 RA SCT050"
    },
    {
      "icao": "LICC",
      "alert": "OK",
      "vis_m": 9999,
      "fzfg": false,
      "metar_trigger": false,
      "taf_trigger": false,
      "metar": "METAR LICC 071650Z 25014KT 9999 FEW040 BKN100 12/09 Q1008",
      "taf": "TAF LICC 071100Z 0712/0812 26013KT 9999 SCT050"
    },
    {
      "icao": "LICJ",
      "alert": "OK",
      "vis_m": 9999,
      "fzfg": false,
      "metar_trigger": false,
      "taf_trigger": false,
      "metar": "METAR LICJ 071650Z 26024KT 9999 SCT040 13/07 Q1010",
      "taf": "TAF LICJ 071100Z 0712/0812 27018KT 9999 SCT030"
    },
    {
      "icao": "LIMC",
      "alert": "OK",
      "vis_m": 9999,
      "fzfg": false,
      "metar_trigger": false,
      "taf_trigger": false,
      "metar": "METAR LIMC 071650Z 18002KT CAVOK M02/M03 Q1010 NOSIG",
      "taf": "TAF LIMC 071100Z 0712/0818 VRB04KT CAVOK"
    },
    {
      "icao": "LIME",
      "alert": "OK",
      "vis_m": 9999,
      "fzfg": false,
      "metar_trigger": false,
      "taf_trigger": false,
      "metar": "METAR LIME 071650Z 24004KT CAVOK 00/M03 Q1010 NOSIG",
      "taf": "TAF LIME 071100Z 0712/0812 VRB04KT CAVOK"
    },
    {
      "icao": "LIMF",
      "alert": "OK",
      "vis_m": 9999,
      "fzfg": false,
      "metar_trigger": false,
      "taf_trigger": false,
      "metar": "METAR LIMF 071650Z 29004KT CAVOK 02/M09 Q1010",
      "taf": "TAF LIMF 071100Z 0712/0812 VRB03KT CAVOK"
    },
    {
      "icao": "LIMJ",
      "alert": "OK",
      "vis_m": 9999,
      "fzfg": false,
      "metar_trigger": false,
      "taf_trigger": false,
      "metar": "METAR LIMJ 071650Z 04010KT CAVOK 04/M08 Q1011",
      "taf": "TAF LIMJ 071100Z 0712/0812 04017KT CAVOK"
    },
    {
      "icao": "LIPE",
      "alert": "OK",
      "vis_m": 9999,
      "fzfg": false,
      "metar_trigger": false,
      "taf_trigger": false,
      "metar": "METAR LIPE 071650Z 23003KT 210V270 CAVOK 01/M02 Q1011",
      "taf": "TAF LIPE 071100Z 0712/0812 26007KT 9999 BKN030"
    },
    {
      "icao": "LIPH",
      "alert": "OK",
      "vis_m": 9999,
      "fzfg": false,
      "metar_trigger": false,
      "taf_trigger": false,
      "metar": "METAR LIPH 071650Z 17002KT CAVOK 02/M06 Q1010",
      "taf": "TAF LIPH 071100Z 0712/0812 VRB05KT CAVOK"
    },
    {
      "icao": "LIPQ",
      "alert": "OK",
      "vis_m": 9999,
      "fzfg": false,
      "metar_trigger": false,
      "taf_trigger": false,
      "metar": "METAR LIPQ 071650Z AUTO 09004KT 9999 NCD 00/M07 Q1010",
      "taf": "TAF LIPQ 071100Z 0712/0812 08006KT 9999 SCT070"
    },
    {
      "icao": "LIPR",
      "alert": "OK",
      "vis_m": 9999,
      "fzfg": false,
      "metar_trigger": false,
      "taf_trigger": false,
      "metar": "METAR LIPR 071650Z 29013KT 9999 BKN050 02/M02 Q1010",
      "taf": "TAF LIPR 071100Z 0712/0812 30012KT 9999 BKN030"
    },
    {
      "icao": "LIPX",
      "alert": "OK",
      "vis_m": 9999,
      "fzfg": false,
      "metar_trigger": false,
      "taf_trigger": false,
      "metar": "METAR LIPX 071650Z 23003KT CAVOK M01/M04 Q1010",
      "taf": "TAF LIPX 071100Z 0712/0812 VRB05KT CAVOK"
    },
    {
      "icao": "LIPY",
      "alert": "OK",
      "vis_m": 9999,
      "fzfg": false,
      "metar_trigger": false,
      "taf_trigger": false,
      "metar": "METAR LIPY 071650Z AUTO 29008KT 260V320 9999 OVC031/// 03/M01 Q1009",
      "taf": "TAF LIPY 071100Z 0712/0812 33013KT 9999 BKN020"
    },
    {
      "icao": "LIPZ",
      "alert": "OK",
      "vis_m": 9999,
      "fzfg": false,
      "metar_trigger": false,
      "taf_trigger": false,
      "metar": "METAR LIPZ 071650Z 09003KT CAVOK 00/M03 Q1011 NOSIG",
      "taf": "TAF LIPZ 071100Z 0712/0818 VRB05KT CAVOK"
    },
    {
      "icao": "LIRF",
      "alert": "OK",
      "vis_m": 9999,
      "fzfg": false,
      "metar_trigger": false,
      "taf_trigger": false,
      "metar": "METAR LIRF 071650Z 34005KT 310V020 CAVOK 05/01 Q1007 NOSIG",
      "taf": "TAF LIRF 071100Z 0712/0818 01010KT 9999 FEW040"
    },
    {
      "icao": "LIRN",
      "alert": "OK",
      "vis_m": 9999,
      "fzfg": false,
      "metar_trigger": false,
      "taf_trigger": false,
      "metar": "METAR LIRN 071650Z 25004KT 210V290 9999 -RA BKN050 07/05 Q1006 NOSIG",
      "taf": "TAF LIRN 071100Z 0712/0812 28012KT 9999 SCT030"
    },
    {
      "icao": "LIRP",
      "alert": "OK",
      "vis_m": 9999,
      "fzfg": false,
      "metar_trigger": false,
      "taf_trigger": false,
      "metar": "METAR LIRP 071645Z 14007KT CAVOK 02/M03 Q1010 NOSIG",
      "taf": "TAF LIRP 071100Z 0712/0812 12007KT CAVOK"
    },
    {
      "icao": "LIRZ",
      "alert": "OK",
      "vis_m": 9999,
      "fzfg": false,
      "metar_trigger": false,
      "taf_trigger": false,
      "metar": "METAR LIRZ 071650Z AUTO 36009KT 9999 OVC043/// 02/M02 Q1008",
      "taf": "TAF LIRZ 071100Z 0712/0812 01013KT 9999 BKN040"
    },
    {
      "icao": "LJLJ",
      "alert": "OK",
      "vis_m": 8000,
      "fzfg": false,
      "metar_trigger": false,
      "taf_trigger": false,
      "metar": "METAR LJLJ 071630Z 00000KT 8000 FEW006 SCT010 BKN020 M04/M05 Q1011 NOSIG",
      "taf": "TAF LJLJ 071700Z 0718/0818 VRB02KT 9999 FEW005 BKN020"
    },
    {
      "icao": "LKMT",
      "alert": "OK",
      "vis_m": 9999,
      "fzfg": false,
      "metar_trigger": false,
      "taf_trigger": false,
      "metar": "METAR LKMT 071630Z 04007KT 9999 OVC018 M04/M07 Q1013 NOSIG",
      "taf": "TAF LKMT 071100Z 0712/0812 02007KT 9999 BKN030"
    },
    {
      "icao": "LKPR",
      "alert": "OK",
      "vis_m": 9999,
      "fzfg": false,
      "metar_trigger": false,
      "taf_trigger": false,
      "metar": "METAR LKPR 071630Z 17006KT 9999 BKN031 M05/M10 Q1012 NOSIG",
      "taf": "TAF LKPR 071400Z 0715/0821 21006KT 9999 BKN025"
    },
    {
      "icao": "LLBG",
      "alert": "OK",
      "vis_m": 9999,
      "fzfg": false,
      "metar_trigger": false,
      "taf_trigger": false,
      "metar": "METAR LLBG 071650Z VRB02KT CAVOK 18/12 Q1021 NOSIG",
      "taf": "TAF LLBG 071102Z 0712/0812 33006KT CAVOK"
    },
    {
      "icao": "LMML",
      "alert": "OK",
      "vis_m": 9999,
      "fzfg": false,
      "metar_trigger": false,
      "taf_trigger": false,
      "metar": "METAR LMML 071645Z 30022KT 9999 -RA FEW007 BKN041 10/07 Q1012 NOSIG",
      "taf": "TAF LMML 071100Z 0712/0812 28015KT 9999 SCT018"
    },
    {
      "icao": "LOWW",
      "alert": "OK",
      "vis_m": 9999,
      "fzfg": false,
      "metar_trigger": false,
      "taf_trigger": false,
      "metar": "METAR LOWW 071650Z 34008KT CAVOK M04/M11 Q1013 NOSIG",
      "taf": "TAF LOWW 071415Z 0715/0821 32010KT 9999 FEW040 TXM02/0814Z TNM06/0805Z"
    },
    {
      "icao": "LPFR",
      "alert": "OK",
      "vis_m": 9999,
      "fzfg": false,
      "metar_trigger": false,
      "taf_trigger": false,
      "metar": "METAR LPFR 071630Z 07003KT 020V100 9999 FEW015 14/11 Q1026",
      "taf": ""
    },
    {
      "icao": "LPMA",
      "alert": "OK",
      "vis_m": 9999,
      "fzfg": false,
      "metar_trigger": false,
      "taf_trigger": false,
      "metar": "METAR LPMA 071630Z 01015KT 320V030 9999 SCT015 16/08 Q1032",
      "taf": "TAF LPMA 071100Z 0712/0812 02012KT 9999 SCT015"
    },
    {
      "icao": "LPPR",
      "alert": "OK",
      "vis_m": 9999,
      "fzfg": false,
      "metar_trigger": false,
      "taf_trigger": false,
      "metar": "METAR LPPR 071630Z 32007KT 9999 FEW040 12/08 Q1027",
      "taf": "TAF LPPR 071100Z 0712/0812 01005KT 9999 SCT015"
    },
    {
      "icao": "LPPS",
      "alert": "OK",
      "vis_m": 9999,
      "fzfg": false,
      "metar_trigger": false,
      "taf_trigger": false,
      "metar": "METAR LPPS 071630Z 02009KT 360V070 9999 BKN015 16/08 Q1032",
      "taf": "TAF LPPS 071100Z 0712/0818 02012KT 9999 SCT015"
    },
    {
      "icao": "LPPT",
      "alert": "OK",
      "vis_m": 9999,
      "fzfg": false,
      "metar_trigger": false,
      "taf_trigger": false,
      "metar": "METAR LPPT 071630Z 36009KT 9999 FEW038 13/06 Q1027",
      "taf": "TAF LPPT 071100Z 0712/0818 34012KT 9999 SCT025"
    },
    {
      "icao": "LQBK",
      "alert": "OK",
      "vis_m": 9999,
      "fzfg": false,
      "metar_trigger": false,
      "taf_trigger": false,
      "metar": "METAR LQBK 071630Z 29004KT 9999 SCT017 BKN033 M03/M05 Q1012 NOSIG",
      "taf": "TAF LQBK 071100Z 0712/0812 35006KT 7000 -SN SCT020 BKN030 TXM02/0713Z TNM07/0805Z"
    },
    {
      "icao": "LQSA",
      "alert": "OK",
      "vis_m": 8000,
      "fzfg": false,
      "metar_trigger": false,
      "taf_trigger": false,
      "metar": "METAR LQSA 071630Z 29005KT 8000 -SN SCT015 BKN025 OVC030 M03/M05 Q1008 NOSIG",
      "taf": "TAF LQSA 071100Z 0712/0812 29005KT 7000 -SN SCT012 OVC030 TXM03/0712Z TNM07/0806Z"
    },
    {
      "icao": "LQTZ",
      "alert": "OK",
      "vis_m": 6000,
      "fzfg": false,
      "metar_trigger": false,
      "taf_trigger": false,
      "metar": "METAR LQTZ 071630Z 28004KT 6000 -SN SCT015 OVC025 M04/M04 Q1010 RESG",
      "taf": "TAF LQTZ 071100Z 0712/0812 27007KT 9999 SCT010 BKN020 OVC040 TXM01/0812Z TNM05/0805Z"
    },
    {
      "icao": "LRBC",
      "alert": "OK",
      "vis_m": 8000,
      "fzfg": false,
      "metar_trigger": false,
      "taf_trigger": false,
      "metar": "METAR LRBC 071630Z 35010KT 8000 -DZ OVC008 00/M02 Q1010",
      "taf": "TAF LRBC 071400Z 0715/0724 35008KT 5000 BR OVC004"
    },
    {
      "icao": "LRBS",
      "alert": "OK",
      "vis_m": 1200,
      "fzfg": false,
      "metar_trigger": false,
      "taf_trigger": false,
      "metar": "METAR LRBS 071630Z VRB02KT 1200 R07/1800U -RA BR OVC002 04/04 Q1008 NOSIG",
      "taf": ""
    },
    {
      "icao": "LRBV",
      "alert": "OK",
      "vis_m": 9999,
      "fzfg": false,
      "metar_trigger": false,
      "taf_trigger": false,
      "metar": "METAR LRBV 071630Z 32004KT 9999 BKN009 OVC011 01/00 Q1006",
      "taf": "TAF LRBV 071400Z 0715/0724 30008KT 9999 BKN035"
    },
    {
      "icao": "LRCL",
      "alert": "OK",
      "vis_m": 9999,
      "fzfg": false,
      "metar_trigger": false,
      "taf_trigger": false,
      "metar": "METAR LRCL 071630Z 35004KT 9999 -SN OVC008 M00/M02 Q1008",
      "taf": "TAF LRCL 071400Z 0715/0724 36009KT 9999 BKN010 BKN035"
    },
    {
      "icao": "LRCV",
      "alert": "OK",
      "vis_m": 2000,
      "fzfg": false,
      "metar_trigger": false,
      "taf_trigger": false,
      "metar": "METAR LRCV 071630Z VRB02KT 2000 BR OVC002 03/03 Q1007",
      "taf": "TAF LRCV 071400Z 0715/0724 VRB04KT 3000 -RA BR OVC002"
    },
    {
      "icao": "LRIA",
      "alert": "OK",
      "vis_m": 8000,
      "fzfg": false,
      "metar_trigger": false,
      "taf_trigger": false,
      "metar": "METAR LRIA 071630Z 32007KT 8000 OVC004 M00/M00 Q1010",
      "taf": "TAF LRIA 071400Z 0715/0724 30006KT 3000 BR VV001"
    },
    {
      "icao": "LROP",
      "alert": "OK",
      "vis_m": 1600,
      "fzfg": false,
      "metar_trigger": false,
      "taf_trigger": false,
      "metar": "METAR LROP 071630Z 09004KT 1600 -RA BR BKN001 OVC002 04/04 Q1008 NOSIG",
      "taf": ""
    },
    {
      "icao": "LRSB",
      "alert": "OK",
      "vis_m": 9999,
      "fzfg": false,
      "metar_trigger": false,
      "taf_trigger": false,
      "metar": "METAR LRSB 071630Z 01005KT 9999 OVC016 00/M01 Q1007",
      "taf": "TAF LRSB 071100Z 0712/0812 VRB04KT 9999 BKN010 OVC020"
    },
    {
      "icao": "LRSM",
      "alert": "OK",
      "vis_m": 3000,
      "fzfg": false,
      "metar_trigger": false,
      "taf_trigger": false,
      "metar": "METAR LRSM 071630Z VRB02KT 3000 -SN BR FEW002 OVC008 M02/M03 Q1010",
      "taf": "TAF LRSM 071400Z 0715/0724 VRB04KT 9999 BKN010 OVC030"
    },
    {
      "icao": "LRSV",
      "alert": "OK",
      "vis_m": 8000,
      "fzfg": false,
      "metar_trigger": false,
      "taf_trigger": false,
      "metar": "METAR LRSV 071630Z 32009KT 8000 BKN020 M03/M04 Q1009",
      "taf": "TAF LRSV 071400Z 0715/0724 34010KT 5000 BR OVC020"
    },
    {
      "icao": "LRTM",
      "alert": "OK",
      "vis_m": 9999,
      "fzfg": false,
      "metar_trigger": false,
      "taf_trigger": false,
      "metar": "METAR LRTM 071630Z VRB01KT 9999 SCT006 BKN008 OVC012 00/M01 Q1008",
      "taf": "TAF LRTM 071400Z 0715/0724 VRB04KT 9999 BKN010 BKN035"
    },
    {
      "icao": "LRTR",
      "alert": "OK",
      "vis_m": 3500,
      "fzfg": false,
      "metar_trigger": false,
      "taf_trigger": false,
      "metar": "METAR LRTR 071630Z 32001KT 3500 -SN BR FEW004 SCT022 OVC049 M02/M02 Q1010",
      "taf": "TAF LRTR 071100Z 0712/0812 VRB04KT 3000 BR BKN005 OVC015"
    },
    {
      "icao": "LTAC",
      "alert": "OK",
      "vis_m": 8000,
      "fzfg": false,
      "metar_trigger": false,
      "taf_trigger": false,
      "metar": "METAR LTAC 071650Z VRB03KT 8000 FEW040 04/02 Q1018 NOSIG RMK RWY21C 05005KT RWY03L 03002KT RWY21R 05005KT RWY03R 00000KT RWY21L 04005KT",
      "taf": "TAF LTAC 071640Z 0718/0818 VRB02KT 9999 SCT040"
    },
    {
      "icao": "LTFM",
      "alert": "OK",
      "vis_m": 9999,
      "fzfg": false,
      "metar_trigger": false,
      "taf_trigger": false,
      "metar": "METAR LTFM 071650Z 23011KT 9999 -SHRA SCT040 BKN080 15/10 Q1010 NOSIG RMK RWY17L 21012KT RWY34L 21010KT RWY16R 20013KT RWY36 22010KT RWY18 22015KT",
      "taf": "TAF LTFM 071640Z 0718/0824 18010KT 9999 SCT040 BKN080"
    },
    {
      "icao": "LUKK",
      "alert": "OK",
      "vis_m": 9000,
      "fzfg": false,
      "metar_trigger": false,
      "taf_trigger": false,
      "metar": "METAR LUKK 071630Z 33006KT 9000 -DZ BKN005 OVC011 02/01 Q1009 NOSIG",
      "taf": "TAF LUKK 071114Z 0712/0812 35006KT 0800 -DZ FG VV002"
    },
    {
      "icao": "LWOH",
      "alert": "OK",
      "vis_m": 5000,
      "fzfg": false,
      "metar_trigger": false,
      "taf_trigger": false,
      "metar": "METAR LWOH 071650Z 15017KT 130V190 5000 RA SCT006 OVC030 09/07 Q1003",
      "taf": "TAF LWOH 071420Z 0715/0815 VRB02KT 9999 RA SCT010 OVC040"
    },
    {
      "icao": "LWSK",
      "alert": "OK",
      "vis_m": 6000,
      "fzfg": false,
      "metar_trigger": false,
      "taf_trigger": false,
      "metar": "METAR LWSK 071650Z VRB02KT 6000 -RA SCT010 BKN050 OVC070 10/09 Q1003 NOSIG",
      "taf": "TAF LWSK 071420Z 0715/0815 VRB02KT 6000 RA FEW015 SCT040 BKN070"
    },
    {
      "icao": "LYBE",
      "alert": "OK",
      "vis_m": 2000,
      "fzfg": false,
      "metar_trigger": false,
      "taf_trigger": false,
      "metar": "METAR LYBE 071630Z 32005KT 2000 SN BKN003 OVC025 M03/M03 Q1010 NOSIG",
      "taf": "TAF LYBE 071100Z 0712/0812 27008KT 7000 BKN007 BKN035 TXM01/0713Z TNM04/0806Z"
    },
    {
      "icao": "LYNI",
      "alert": "OK",
      "vis_m": 6000,
      "fzfg": false,
      "metar_trigger": false,
      "taf_trigger": false,
      "metar": "METAR LYNI 071630Z 32014KT 270V350 6000 PL SCT010 BKN023 OVC067 M02/M03 Q1008 REFZRA TEMPO 4000 BKN010 BKN023 OVC067",
      "taf": "TAF LYNI 071100Z 0712/0812 34014KT 9999 SCT008 BKN012 BKN030 TXM01/0712Z TNM04/0806Z"
    },
    {
      "icao": "LYPG",
      "alert": "OK",
      "vis_m": 9999,
      "fzfg": false,
      "metar_trigger": false,
      "taf_trigger": false,
      "metar": "METAR LYPG 071630Z 31006KT 9999 -RA FEW030 BKN050 OVC070 09/07 Q1001 NOSIG",
      "taf": "TAF LYPG 071100Z 0712/0812 15007KT 9999 FEW020 BKN034 OVC070 TX13/0712Z TN03/0806Z"
    },
    {
      "icao": "LZIB",
      "alert": "OK",
      "vis_m": 9999,
      "fzfg": false,
      "metar_trigger": false,
      "taf_trigger": false,
      "metar": "METAR LZIB 071700Z 33008KT 9999 SCT040 M03/M08 Q1013 NOSIG",
      "taf": ""
    },
    {
      "icao": "LZKZ",
      "alert": "OK",
      "vis_m": 6000,
      "fzfg": false,
      "metar_trigger": false,
      "taf_trigger": false,
      "metar": "METAR LZKZ 071700Z 36016KT 6000 -SN BKN034 M03/M07 Q1010 NOSIG",
      "taf": ""
    },
    {
      "icao": "LZTT",
      "alert": "OK",
      "vis_m": 9999,
      "fzfg": false,
      "metar_trigger": false,
      "taf_trigger": false,
      "metar": "METAR LZTT 071700Z 10006KT 9999 -SN FEW011 BKN038 M07/M09 Q1008 NOSIG",
      "taf": ""
    },
    {
      "icao": "OEJN",
      "alert": "OK",
      "vis_m": 9999,
      "fzfg": false,
      "metar_trigger": false,
      "taf_trigger": false,
      "metar": "METAR OEJN 071700Z 26002KT CAVOK 26/18 Q1017 NOSIG",
      "taf": "TAF OEJN 071700Z 0718/0824 02006KT 7000 NSC"
    },
    {
      "icao": "OEMA",
      "alert": "OK",
      "vis_m": 9999,
      "fzfg": false,
      "metar_trigger": false,
      "taf_trigger": false,
      "metar": "METAR OEMA 071700Z 03007KT CAVOK 23/00 Q1023 NOSIG",
      "taf": "TAF OEMA 071700Z 0718/0824 08006KT CAVOK"
    },
    {
      "icao": "OJAI",
      "alert": "OK",
      "vis_m": 5000,
      "fzfg": false,
      "metar_trigger": false,
      "taf_trigger": false,
      "metar": "METAR OJAI 071600Z 06008KT 5000 HZ NSC 12/03 Q1025 NOSIG",
      "taf": "TAF OJAI 071100Z 0712/0818 07010KT 5000 HZ NSC"
    },
    {
      "icao": "OMAA",
      "alert": "OK",
      "vis_m": 9999,
      "fzfg": false,
      "metar_trigger": false,
      "taf_trigger": false,
      "metar": "METAR OMAA 071700Z 30004KT CAVOK 20/14 Q1021 NOSIG",
      "taf": "TAF OMAA 071700Z 0718/0900 29004KT 8000 NSC"
    },
    {
      "icao": "OMDB",
      "alert": "OK",
      "vis_m": 9999,
      "fzfg": false,
      "metar_trigger": false,
      "taf_trigger": false,
      "metar": "METAR OMDB 071700Z 34005KT 280V090 CAVOK 23/09 Q1021 NOSIG",
      "taf": "TAF OMDB 071700Z 0718/0900 07005KT 8000 NSC"
    },
    {
      "icao": "UAAA",
      "alert": "OK",
      "vis_m": 300,
      "fzfg": true,
      "metar_trigger": false,
      "taf_trigger": false,
      "metar": "METAR UAAA 071630Z 00000MPS 0300 R23L/1000 FZFG VV002 M05/M05 Q1032 NOSIG RMK QBB080",
      "taf": "TAF UAAA 071102Z 0712/0812 VRB01MPS 0600 FZFG VV003 TXM01/0809Z TNM05/0801Z"
    },
    {
      "icao": "UBBB",
      "alert": "OK",
      "vis_m": 100,
      "fzfg": false,
      "metar_trigger": false,
      "taf_trigger": false,
      "metar": "METAR UBBB 071630Z 15004KT 0100 R34/0350 R35/0300 FG VV001 05/04 Q1022 NOSIG",
      "taf": "TAF UBBB 071702Z 0718/0818 17005KT 0200 FG VV001 TX09/0810Z TN02/0803Z"
    },
    {
      "icao": "UDSG",
      "alert": "OK",
      "vis_m": 7000,
      "fzfg": false,
      "metar_trigger": false,
      "taf_trigger": false,
      "metar": "METAR UDSG 071630Z 04002KT 7000 FEW049 M12/M13 Q1026 NOSIG",
      "taf": "TAF UDSG 071058Z 0712/0812 VRB06KT 5000 BR FEW040"
    },
    {
      "icao": "UDYZ",
      "alert": "OK",
      "vis_m": 2000,
      "fzfg": false,
      "metar_trigger": false,
      "taf_trigger": false,
      "metar": "METAR UDYZ 071630Z 34002KT 2000 R08/P2000N BR NSC M08/M11 Q1028 NOSIG",
      "taf": "TAF UDYZ 071100Z 0712/0812 22006KT 2300 BR NSC"
    },
    {
      "icao": "UGKO",
      "alert": "OK",
      "vis_m": 9999,
      "fzfg": false,
      "metar_trigger": false,
      "taf_trigger": false,
      "metar": "METAR UGKO 071630Z 09005KT CAVOK 09/M01 Q1017 NOSIG",
      "taf": "TAF UGKO 071100Z 0712/0812 09010KT CAVOK TX18/0812Z TN06/0722Z"
    }
  ]
}