{
  "ts_utc": "2026-03-12T17:35:02Z",
  "threshold_m": 150,
  "source": "stations_override.txt (ICAO list) + aviationweather.gov (METAR/TAF raw)",
  "station_count": 159,
  "stations": [
    {
      "icao": "BIKF",
      "alert": "OK",
      "vis_m": 9999,
      "fzfg": false,
      "metar_trigger": false,
      "taf_trigger": false,
      "metar": "METAR BIKF 121730Z 34027G37KT 9999 SCT017 BKN090 00/M03 Q0967",
      "taf": "TAF BIKF 121635Z 1218/1318 34025G35KT 9999 SCT018 BKN028 TX02/1304Z TNM00/1218Z"
    },
    {
      "icao": "BKPR",
      "alert": "OK",
      "vis_m": 9999,
      "fzfg": false,
      "metar_trigger": false,
      "taf_trigger": false,
      "metar": "METAR BKPR 121730Z 30006KT CAVOK 10/M01 Q1020 NOSIG",
      "taf": "TAF BKPR 121730Z 1218/1318 VRB03KT 9999 FEW050"
    },
    {
      "icao": "EBCI",
      "alert": "OK",
      "vis_m": 9999,
      "fzfg": false,
      "metar_trigger": false,
      "taf_trigger": false,
      "metar": "METAR EBCI 121720Z 21019KT 9999 FEW040 11/02 Q1016 NOSIG",
      "taf": "TAF EBCI 121705Z 1218/1324 20015G25KT 9999 FEW030"
    },
    {
      "icao": "EDDB",
      "alert": "OK",
      "vis_m": 9999,
      "fzfg": false,
      "metar_trigger": false,
      "taf_trigger": false,
      "metar": "METAR EDDB 121720Z AUTO 21007KT CAVOK 11/01 Q1020 NOSIG",
      "taf": "TAF EDDB 121700Z 1218/1318 17009KT CAVOK"
    },
    {
      "icao": "EDDH",
      "alert": "OK",
      "vis_m": 9999,
      "fzfg": false,
      "metar_trigger": false,
      "taf_trigger": false,
      "metar": "METAR EDDH 121720Z AUTO 20012KT CAVOK 11/03 Q1014 NOSIG",
      "taf": "TAF EDDH 121700Z 1218/1324 20012KT 9999 SCT030"
    },
    {
      "icao": "EDDK",
      "alert": "OK",
      "vis_m": 9999,
      "fzfg": false,
      "metar_trigger": false,
      "taf_trigger": false,
      "metar": "METAR EDDK 121720Z AUTO 18012KT CAVOK 11/02 Q1018 NOSIG",
      "taf": "TAF EDDK 121700Z 1218/1324 15008KT CAVOK"
    },
    {
      "icao": "EDDN",
      "alert": "OK",
      "vis_m": 9999,
      "fzfg": false,
      "metar_trigger": false,
      "taf_trigger": false,
      "metar": "METAR EDDN 121720Z AUTO 19004KT CAVOK 10/01 Q1021 BECMG 13004KT",
      "taf": "TAF EDDN 121700Z 1218/1318 16003KT CAVOK"
    },
    {
      "icao": "EDDS",
      "alert": "OK",
      "vis_m": 9999,
      "fzfg": false,
      "metar_trigger": false,
      "taf_trigger": false,
      "metar": "METAR EDDS 121720Z AUTO 25003KT CAVOK 10/01 Q1021 NOSIG",
      "taf": "TAF EDDS 121700Z 1218/1318 26004KT CAVOK"
    },
    {
      "icao": "EDFH",
      "alert": "OK",
      "vis_m": 9999,
      "fzfg": false,
      "metar_trigger": false,
      "taf_trigger": false,
      "metar": "METAR EDFH 121720Z 22009KT 9999 FEW037 07/01 Q1020",
      "taf": "TAF EDFH 121700Z 1218/1318 21012KT 9999 SCT035"
    },
    {
      "icao": "EDJA",
      "alert": "OK",
      "vis_m": 9999,
      "fzfg": false,
      "metar_trigger": false,
      "taf_trigger": false,
      "metar": "METAR EDJA 121720Z 19004KT CAVOK 08/04 Q1021",
      "taf": "TAF EDJA 121700Z 1218/1303 VRB03KT CAVOK"
    },
    {
      "icao": "EDLW",
      "alert": "OK",
      "vis_m": 9999,
      "fzfg": false,
      "metar_trigger": false,
      "taf_trigger": false,
      "metar": "METAR EDLW 121720Z 19013KT CAVOK 10/02 Q1016",
      "taf": "TAF EDLW 121700Z 1218/1318 21012KT CAVOK"
    },
    {
      "icao": "EDNY",
      "alert": "OK",
      "vis_m": 9999,
      "fzfg": false,
      "metar_trigger": false,
      "taf_trigger": false,
      "metar": "METAR EDNY 121720Z 23003KT CAVOK 09/03 Q1022",
      "taf": "TAF EDNY 121700Z 1218/1303 VRB02KT CAVOK"
    },
    {
      "icao": "EDSB",
      "alert": "OK",
      "vis_m": 9999,
      "fzfg": false,
      "metar_trigger": false,
      "taf_trigger": false,
      "metar": "METAR EDSB 121720Z 22005KT CAVOK 11/02 Q1021",
      "taf": "TAF EDSB 121700Z 1218/1318 20005KT CAVOK"
    },
    {
      "icao": "EETN",
      "alert": "OK",
      "vis_m": 9999,
      "fzfg": false,
      "metar_trigger": false,
      "taf_trigger": false,
      "metar": "METAR EETN 121720Z 21007KT 9999 FEW024 05/03 Q1013 NOSIG",
      "taf": "TAF EETN 121730Z 1218/1318 21012KT 9999 SCT020"
    },
    {
      "icao": "EFTU",
      "alert": "OK",
      "vis_m": 9999,
      "fzfg": false,
      "metar_trigger": false,
      "taf_trigger": false,
      "metar": "METAR EFTU 121720Z AUTO 20007KT CAVOK 03/01 Q1009",
      "taf": "TAF EFTU 121428Z 1215/1315 23008KT 9999 SCT013"
    },
    {
      "icao": "EGBB",
      "alert": "OK",
      "vis_m": 5000,
      "fzfg": false,
      "metar_trigger": false,
      "taf_trigger": false,
      "metar": "METAR EGBB 121720Z 20014KT 160V230 5000 RA BKN008 11/10 Q0999",
      "taf": "TAF EGBB 121700Z 1218/1318 20020G32KT 9999 SCT020"
    },
    {
      "icao": "EGGP",
      "alert": "OK",
      "vis_m": 9999,
      "fzfg": false,
      "metar_trigger": false,
      "taf_trigger": false,
      "metar": "METAR EGGP 121720Z 22017G27KT 9999 -RA FEW026 SCT034 BKN049 11/08 Q0995",
      "taf": "TAF EGGP 121657Z 1218/1318 22017G30KT 9999 SCT025"
    },
    {
      "icao": "EGGW",
      "alert": "OK",
      "vis_m": 5000,
      "fzfg": false,
      "metar_trigger": false,
      "taf_trigger": false,
      "metar": "METAR EGGW 121720Z AUTO 21021G35KT 5000 -RA OVC007 10/09 Q1004",
      "taf": "TAF EGGW 121656Z 1218/1318 21025G38KT 9999 BKN012"
    },
    {
      "icao": "EGKK",
      "alert": "OK",
      "vis_m": 8000,
      "fzfg": false,
      "metar_trigger": false,
      "taf_trigger": false,
      "metar": "METAR EGKK 121720Z 21017G31KT 8000 -RA BKN016 11/08 Q1008",
      "taf": "TAF EGKK 121659Z 1218/1324 21015G25KT 9999 SCT020"
    },
    {
      "icao": "EGNM",
      "alert": "OK",
      "vis_m": 9000,
      "fzfg": false,
      "metar_trigger": false,
      "taf_trigger": false,
      "metar": "METAR EGNM 121720Z 22021G34KT 9000 -RA SCT013 BKN035 11/09 Q0992",
      "taf": "TAF EGNM 121656Z 1218/1318 22025G38KT 9999 SCT020"
    },
    {
      "icao": "EGPD",
      "alert": "OK",
      "vis_m": 9999,
      "fzfg": false,
      "metar_trigger": false,
      "taf_trigger": false,
      "metar": "METAR EGPD 121720Z COR AUTO 21016KT 9999 NCD 06/02 Q0982 NOSIG",
      "taf": "TAF EGPD 121657Z 1218/1318 21012KT 9999 SCT020"
    },
    {
      "icao": "EGPF",
      "alert": "OK",
      "vis_m": 9999,
      "fzfg": false,
      "metar_trigger": false,
      "taf_trigger": false,
      "metar": "METAR EGPF 121720Z AUTO 24014KT 9999 SCT029 BKN033 BKN045 06/03 Q0986",
      "taf": "TAF EGPF 121657Z 1218/1318 23018G32KT 9999 SCT030"
    },
    {
      "icao": "EHBK",
      "alert": "OK",
      "vis_m": 9999,
      "fzfg": false,
      "metar_trigger": false,
      "taf_trigger": false,
      "metar": "METAR EHBK 121725Z AUTO 21018G28KT 9999 NSC 11/03 Q1016 BECMG 20018KT",
      "taf": "TAF EHBK 121713Z 1218/1324 21018G28KT 9999 SCT040"
    },
    {
      "icao": "EHEH",
      "alert": "OK",
      "vis_m": 9999,
      "fzfg": false,
      "metar_trigger": false,
      "taf_trigger": false,
      "metar": "METAR EHEH 121725Z AUTO 20013KT 9999 OVC290 11/04 Q1015 BLU TEMPO 21017G27KT",
      "taf": ""
    },
    {
      "icao": "EKBI",
      "alert": "OK",
      "vis_m": 9999,
      "fzfg": false,
      "metar_trigger": false,
      "taf_trigger": false,
      "metar": "METAR EKBI 121720Z AUTO 19020G31KT 9999 BKN034/// 09/04 Q1008",
      "taf": "TAF EKBI 121727Z 1218/1318 20020KT 9999 BKN020"
    },
    {
      "icao": "EKCH",
      "alert": "OK",
      "vis_m": 9999,
      "fzfg": false,
      "metar_trigger": false,
      "taf_trigger": false,
      "metar": "METAR EKCH 121720Z AUTO 19013KT 9999 BKN170/// 06/03 Q1014 NOSIG",
      "taf": "TAF EKCH 121727Z 1218/1318 19015KT 9999 FEW030"
    },
    {
      "icao": "ENAL",
      "alert": "OK",
      "vis_m": 9999,
      "fzfg": false,
      "metar_trigger": false,
      "taf_trigger": false,
      "metar": "METAR ENAL 121720Z 18018KT 9999 -SHRA BKN041 07/03 Q0977",
      "taf": "TAF ENAL 121400Z 1215/1224 19018KT 9999 SCT040"
    },
    {
      "icao": "ENBR",
      "alert": "OK",
      "vis_m": 8000,
      "fzfg": false,
      "metar_trigger": false,
      "taf_trigger": false,
      "metar": "METAR ENBR 121720Z 17029KT 8000 -RA FEW003 BKN010 06/04 Q0983 TEMPO 17030G42 3000 SHRA BR BKN007 SCT018CB RMK WIND 1200FT 18035G55KT",
      "taf": "TAF ENBR 121100Z 1212/1312 16028KT 9999 -RA SCT008 BKN012"
    },
    {
      "icao": "ENGM",
      "alert": "OK",
      "vis_m": 9999,
      "fzfg": false,
      "metar_trigger": false,
      "taf_trigger": false,
      "metar": "METAR ENGM 121720Z 18023G38KT 9999 BKN008 04/02 Q0995 TEMPO 4000 -DZRA BKN004",
      "taf": "TAF ENGM 121100Z 1212/1312 18018KT 9999 OVC004"
    },
    {
      "icao": "ENHD",
      "alert": "OK",
      "vis_m": 6000,
      "fzfg": false,
      "metar_trigger": false,
      "taf_trigger": false,
      "metar": "METAR ENHD 121720Z 18028G40KT 6000 RA BKN006 07/06 Q0985",
      "taf": "TAF ENHD 121400Z 1215/1223 16025KT 8000 -RA SCT006 BKN012"
    },
    {
      "icao": "ENTC",
      "alert": "OK",
      "vis_m": 9999,
      "fzfg": false,
      "metar_trigger": false,
      "taf_trigger": false,
      "metar": "METAR ENTC 121720Z 06003KT 340V110 CAVOK 01/M02 Q0989 NOSIG RMK WIND 2600FT 17018KT",
      "taf": "TAF ENTC 121100Z 1212/1312 20015KT 9999 -RA BKN040"
    },
    {
      "icao": "ENTO",
      "alert": "OK",
      "vis_m": 3100,
      "fzfg": false,
      "metar_trigger": false,
      "taf_trigger": false,
      "metar": "METAR ENTO 121720Z 20027G40KT 3100 +DZRA BR OVC003 04/04 Q0998 NOSIG",
      "taf": "TAF ENTO 121100Z 1212/1312 21025KT 9999 BKN006"
    },
    {
      "icao": "ENVA",
      "alert": "OK",
      "vis_m": 9999,
      "fzfg": false,
      "metar_trigger": false,
      "taf_trigger": false,
      "metar": "METAR ENVA 121720Z 15019KT CAVOK 09/00 Q0984 TEMPO 16020G30KT RMK WIND 670FT 16035G48KT",
      "taf": ""
    },
    {
      "icao": "ENZV",
      "alert": "OK",
      "vis_m": 4900,
      "fzfg": false,
      "metar_trigger": false,
      "taf_trigger": false,
      "metar": "METAR ENZV 121720Z 18025KT 4900 RA BKN007CB 06/05 Q0988 TEMPO 9999 NSW",
      "taf": "TAF ENZV 121100Z 1212/1312 17028KT 9999 -RA BKN012"
    },
    {
      "icao": "EPGD",
      "alert": "OK",
      "vis_m": 9999,
      "fzfg": false,
      "metar_trigger": false,
      "taf_trigger": false,
      "metar": "METAR EPGD 121730Z 13003KT CAVOK 08/01 Q1020",
      "taf": "TAF EPGD 121730Z 1218/1318 18005KT CAVOK"
    },
    {
      "icao": "EPKK",
      "alert": "OK",
      "vis_m": 9999,
      "fzfg": false,
      "metar_trigger": false,
      "taf_trigger": false,
      "metar": "METAR EPKK 121730Z 02005KT CAVOK 11/05 Q1022",
      "taf": "TAF EPKK 121730Z 1218/1318 VRB02KT CAVOK"
    },
    {
      "icao": "EPKT",
      "alert": "OK",
      "vis_m": 9999,
      "fzfg": false,
      "metar_trigger": false,
      "taf_trigger": false,
      "metar": "METAR EPKT 121730Z 32004KT CAVOK 09/05 Q1022",
      "taf": "TAF EPKT 121730Z 1218/1318 33005KT CAVOK"
    },
    {
      "icao": "EPLB",
      "alert": "OK",
      "vis_m": 9999,
      "fzfg": false,
      "metar_trigger": false,
      "taf_trigger": false,
      "metar": "METAR EPLB 121730Z VRB01KT CAVOK 10/04 Q1021",
      "taf": "TAF EPLB 121730Z 1218/1318 VRB02KT CAVOK"
    },
    {
      "icao": "EPMO",
      "alert": "OK",
      "vis_m": 9999,
      "fzfg": false,
      "metar_trigger": false,
      "taf_trigger": false,
      "metar": "METAR EPMO 121730Z 27003KT CAVOK 10/07 Q1021",
      "taf": "TAF EPMO 121730Z 1218/1318 28010KT CAVOK"
    },
    {
      "icao": "EPPO",
      "alert": "OK",
      "vis_m": 9999,
      "fzfg": false,
      "metar_trigger": false,
      "taf_trigger": false,
      "metar": "METAR EPPO 121730Z 21003KT CAVOK 07/01 Q1021",
      "taf": "TAF EPPO 121730Z 1218/1318 19003KT CAVOK"
    },
    {
      "icao": "EPRA",
      "alert": "OK",
      "vis_m": 9999,
      "fzfg": false,
      "metar_trigger": false,
      "taf_trigger": false,
      "metar": "METAR EPRA 121730Z 33003KT CAVOK 13/05 Q1021",
      "taf": "TAF EPRA 121730Z 1218/1303 VRB02KT CAVOK"
    },
    {
      "icao": "EPRZ",
      "alert": "OK",
      "vis_m": 9999,
      "fzfg": false,
      "metar_trigger": false,
      "taf_trigger": false,
      "metar": "METAR EPRZ 121730Z 18004KT CAVOK 12/02 Q1021",
      "taf": "TAF EPRZ 121730Z 1218/1318 18005KT CAVOK"
    },
    {
      "icao": "EPSC",
      "alert": "OK",
      "vis_m": 9999,
      "fzfg": false,
      "metar_trigger": false,
      "taf_trigger": false,
      "metar": "METAR EPSC 121730Z 15004KT CAVOK 08/M01 Q1019",
      "taf": "TAF EPSC 121730Z 1218/1318 18005KT CAVOK"
    },
    {
      "icao": "EPSY",
      "alert": "OK",
      "vis_m": 9999,
      "fzfg": false,
      "metar_trigger": false,
      "taf_trigger": false,
      "metar": "METAR EPSY 121730Z VRB02KT 9999 BKN025 10/07 Q1021",
      "taf": "TAF EPSY 121730Z 1218/1303 VRB02KT 9999 SCT020"
    },
    {
      "icao": "EPWA",
      "alert": "OK",
      "vis_m": 9999,
      "fzfg": false,
      "metar_trigger": false,
      "taf_trigger": false,
      "metar": "METAR EPWA 121730Z 29007KT CAVOK 10/07 Q1021 NOSIG",
      "taf": "TAF EPWA 121730Z 1218/1318 28010KT 9999 SCT040"
    },
    {
      "icao": "EPWR",
      "alert": "OK",
      "vis_m": 9999,
      "fzfg": false,
      "metar_trigger": false,
      "taf_trigger": false,
      "metar": "METAR EPWR 121730Z 19003KT CAVOK 10/06 Q1022",
      "taf": "TAF EPWR 121730Z 1218/1318 20004KT CAVOK"
    },
    {
      "icao": "ESGG",
      "alert": "OK",
      "vis_m": 9999,
      "fzfg": false,
      "metar_trigger": false,
      "taf_trigger": false,
      "metar": "METAR ESGG 121720Z 21025G39KT 9999 BKN027 07/03 Q1007",
      "taf": "TAF ESGG 121730Z 1218/1318 19018G33KT 9999 BKN030"
    },
    {
      "icao": "ESKN",
      "alert": "OK",
      "vis_m": 9999,
      "fzfg": false,
      "metar_trigger": false,
      "taf_trigger": false,
      "metar": "METAR ESKN 121720Z 18010KT CAVOK 08/02 Q1009",
      "taf": "TAF ESKN 121730Z 1218/1318 18010KT CAVOK"
    },
    {
      "icao": "ESMS",
      "alert": "OK",
      "vis_m": 9999,
      "fzfg": false,
      "metar_trigger": false,
      "taf_trigger": false,
      "metar": "METAR ESMS 121720Z 19012KT CAVOK 07/02 Q1014",
      "taf": "TAF ESMS 121727Z 1218/1318 20012KT 9999 FEW030"
    },
    {
      "icao": "ESSA",
      "alert": "OK",
      "vis_m": 9999,
      "fzfg": false,
      "metar_trigger": false,
      "taf_trigger": false,
      "metar": "METAR ESSA 121720Z 21010KT CAVOK 07/01 Q1007 NOSIG",
      "taf": "TAF ESSA 121730Z 1218/1318 21010KT CAVOK"
    },
    {
      "icao": "EYKA",
      "alert": "OK",
      "vis_m": 9999,
      "fzfg": false,
      "metar_trigger": false,
      "taf_trigger": false,
      "metar": "METAR EYKA 121720Z 30003KT 250V360 CAVOK 09/05 Q1020",
      "taf": "TAF EYKA 121713Z 1218/1318 VRB04KT 5000 BR SCT010 BKN015"
    },
    {
      "icao": "EYPA",
      "alert": "OK",
      "vis_m": 1200,
      "fzfg": false,
      "metar_trigger": false,
      "taf_trigger": false,
      "metar": "METAR EYPA 121720Z 20008KT 180V240 1200 R19/1600U BR OVC002 01/01 Q1020",
      "taf": "TAF EYPA 121720Z 1218/1318 VRB05KT 3000 BR OVC002"
    },
    {
      "icao": "EYVI",
      "alert": "OK",
      "vis_m": 9999,
      "fzfg": false,
      "metar_trigger": false,
      "taf_trigger": false,
      "metar": "METAR EYVI 121720Z 19004KT CAVOK 10/03 Q1020 NOSIG",
      "taf": "TAF EYVI 121713Z 1218/1318 VRB04KT 8000 SCT030"
    },
    {
      "icao": "GCFV",
      "alert": "OK",
      "vis_m": 9999,
      "fzfg": false,
      "metar_trigger": false,
      "taf_trigger": false,
      "metar": "METAR GCFV 121700Z 03014KT CAVOK 19/14 Q1017",
      "taf": "TAF GCFV 121400Z 1215/1315 04012KT 9000 NSC TX22/1314Z TN15/1306Z"
    },
    {
      "icao": "GCLP",
      "alert": "OK",
      "vis_m": 9999,
      "fzfg": false,
      "metar_trigger": false,
      "taf_trigger": false,
      "metar": "METAR GCLP 121700Z 03019KT 9999 FEW038 19/12 Q1017 NOSIG",
      "taf": "TAF GCLP 121400Z 1215/1315 03020KT 9999 FEW030 TX21/1314Z TN15/1306Z"
    },
    {
      "icao": "GCTS",
      "alert": "OK",
      "vis_m": 9999,
      "fzfg": false,
      "metar_trigger": false,
      "taf_trigger": false,
      "metar": "METAR GCTS 121700Z 09019KT 9999 FEW045 20/10 Q1017 WS R07 NOSIG",
      "taf": "TAF GCTS 121400Z 1215/1315 09020KT 9999 FEW045 TX22/1314Z TN14/1306Z"
    },
    {
      "icao": "GMAD",
      "alert": "OK",
      "vis_m": 9999,
      "fzfg": false,
      "metar_trigger": false,
      "taf_trigger": false,
      "metar": "METAR GMAD 121730Z 28012KT CAVOK 26/04 Q1015 NOSIG",
      "taf": "TAF GMAD 121700Z 1218/1324 26010KT CAVOK"
    },
    {
      "icao": "GMMN",
      "alert": "OK",
      "vis_m": 9999,
      "fzfg": false,
      "metar_trigger": false,
      "taf_trigger": false,
      "metar": "METAR GMMN 121730Z 34008KT CAVOK 17/11 Q1019 NOSIG",
      "taf": "TAF GMMN 121100Z 1212/1318 36010KT CAVOK"
    },
    {
      "icao": "GMMX",
      "alert": "OK",
      "vis_m": 9999,
      "fzfg": false,
      "metar_trigger": false,
      "taf_trigger": false,
      "metar": "METAR GMMX 121730Z 33007KT 280V020 CAVOK 23/07 Q1018 NOSIG",
      "taf": "TAF GMMX 121700Z 1218/1324 04006KT 8000 NSC"
    },
    {
      "icao": "HEGN",
      "alert": "OK",
      "vis_m": 9999,
      "fzfg": false,
      "metar_trigger": false,
      "taf_trigger": false,
      "metar": "METAR HEGN 121700Z 30004KT CAVOK 25/02 Q1014 NOSIG",
      "taf": "TAF HEGN 121700Z 1218/1324 32010KT 9999 SCT025"
    },
    {
      "icao": "HEMA",
      "alert": "OK",
      "vis_m": 9999,
      "fzfg": false,
      "metar_trigger": false,
      "taf_trigger": false,
      "metar": "METAR HEMA 121700Z 36002KT CAVOK 23/13 Q1014 NOSIG",
      "taf": "TAF HEMA 121700Z 1218/1324 33010KT 9999 SCT025"
    },
    {
      "icao": "HESH",
      "alert": "OK",
      "vis_m": 9999,
      "fzfg": false,
      "metar_trigger": false,
      "taf_trigger": false,
      "metar": "METAR HESH 121700Z 03006KT CAVOK 24/08 Q1013 NOSIG",
      "taf": "TAF HESH 121700Z 1218/1324 36010KT 9999 SCT025"
    },
    {
      "icao": "HESX",
      "alert": "OK",
      "vis_m": 9999,
      "fzfg": false,
      "metar_trigger": false,
      "taf_trigger": false,
      "metar": "METAR HESX 121700Z 05008KT CAVOK 18/08 Q1016 NOSIG",
      "taf": "TAF HESX 121700Z 1218/1324 03012G25KT 9999 BKN025"
    },
    {
      "icao": "LATI",
      "alert": "OK",
      "vis_m": 9999,
      "fzfg": false,
      "metar_trigger": false,
      "taf_trigger": false,
      "metar": "METAR LATI 121720Z 31003KT 270V340 CAVOK 14/09 Q1021 NOSIG",
      "taf": "TAF LATI 121700Z 1218/1318 VRB03KT CAVOK TX20/1311Z TN04/1305Z"
    },
    {
      "icao": "LBPD",
      "alert": "OK",
      "vis_m": 9999,
      "fzfg": false,
      "metar_trigger": false,
      "taf_trigger": false,
      "metar": "METAR LBPD 121730Z AUTO 13007KT 9999 OVC210/// 09/05 Q1022 NOSIG",
      "taf": "TAF LBPD 121700Z 1218/1318 09010KT CAVOK"
    },
    {
      "icao": "LBSF",
      "alert": "OK",
      "vis_m": 9999,
      "fzfg": false,
      "metar_trigger": false,
      "taf_trigger": false,
      "metar": "METAR LBSF 121730Z AUTO 10008KT 9999 NCD 09/M01 Q1021 NOSIG",
      "taf": "TAF LBSF 121700Z 1218/1318 11010KT CAVOK"
    },
    {
      "icao": "LBWN",
      "alert": "OK",
      "vis_m": 9999,
      "fzfg": false,
      "metar_trigger": false,
      "taf_trigger": false,
      "metar": "METAR LBWN 121730Z AUTO 06004KT 9999 NCD 06/03 Q1024 NOSIG",
      "taf": "TAF LBWN 121700Z 1218/1318 VRB04KT 9999 SCT020"
    },
    {
      "icao": "LCLK",
      "alert": "OK",
      "vis_m": 9999,
      "fzfg": false,
      "metar_trigger": false,
      "taf_trigger": false,
      "metar": "METAR LCLK 121730Z 30007KT 250V330 CAVOK 13/08 Q1016 NOSIG",
      "taf": "TAF LCLK 121730Z 1218/1318 34008KT 9999 FEW030"
    },
    {
      "icao": "LCPH",
      "alert": "OK",
      "vis_m": 9999,
      "fzfg": false,
      "metar_trigger": false,
      "taf_trigger": false,
      "metar": "METAR LCPH 121730Z AUTO 07004KT 020V090 9999 NCD 17/02 Q1016 NOSIG",
      "taf": "TAF LCPH 121730Z 1218/1318 04008KT 9999 FEW030"
    },
    {
      "icao": "LEAL",
      "alert": "OK",
      "vis_m": 9999,
      "fzfg": false,
      "metar_trigger": false,
      "taf_trigger": false,
      "metar": "METAR LEAL 121700Z 19005KT 160V220 CAVOK 16/13 Q1024 NOSIG",
      "taf": "TAF LEAL 121700Z 1218/1318 VRB04KT 9999 FEW035 TX22/1312Z TN09/1306Z"
    },
    {
      "icao": "LEBB",
      "alert": "OK",
      "vis_m": 9999,
      "fzfg": false,
      "metar_trigger": false,
      "taf_trigger": false,
      "metar": "METAR LEBB 121700Z 28008KT 9999 FEW038 15/11 Q1023 NOSIG",
      "taf": "TAF LEBB 121700Z 1218/1318 12005KT CAVOK TX20/1313Z TN06/1307Z"
    },
    {
      "icao": "LEBL",
      "alert": "OK",
      "vis_m": 9000,
      "fzfg": false,
      "metar_trigger": false,
      "taf_trigger": false,
      "metar": "METAR LEBL 121700Z 21008KT 9000 FEW045 15/11 Q1022 NOSIG",
      "taf": "TAF LEBL 121700Z 1218/1318 20010KT 9999 SCT020 TX16/1313Z TN10/1307Z"
    },
    {
      "icao": "LECH",
      "alert": "OK",
      "vis_m": 9000,
      "fzfg": false,
      "metar_trigger": false,
      "taf_trigger": false,
      "metar": "METAR LECH 121700Z AUTO 10004KT 9000 NSC 14/07 Q1023",
      "taf": ""
    },
    {
      "icao": "LEMD",
      "alert": "OK",
      "vis_m": 9999,
      "fzfg": false,
      "metar_trigger": false,
      "taf_trigger": false,
      "metar": "METAR LEMD 121700Z 19008KT 130V210 CAVOK 17/06 Q1023 NOSIG",
      "taf": "TAF LEMD 121700Z 1218/1324 VRB04KT CAVOK TX19/1315Z TN02/1307Z"
    },
    {
      "icao": "LEMG",
      "alert": "OK",
      "vis_m": 9999,
      "fzfg": false,
      "metar_trigger": false,
      "taf_trigger": false,
      "metar": "METAR LEMG 121700Z 12003KT CAVOK 15/10 Q1025 NOSIG",
      "taf": "TAF LEMG 121700Z 1218/1318 14005KT CAVOK TX19/1315Z TN07/1307Z"
    },
    {
      "icao": "LEVC",
      "alert": "OK",
      "vis_m": 9999,
      "fzfg": false,
      "metar_trigger": false,
      "taf_trigger": false,
      "metar": "METAR LEVC 121700Z 12006KT 9999 FEW045 17/10 Q1022 NOSIG",
      "taf": "TAF LEVC 121700Z 1218/1318 13010KT 9999 FEW035 TX21/1314Z TN09/1306Z"
    },
    {
      "icao": "LEXJ",
      "alert": "OK",
      "vis_m": 9999,
      "fzfg": false,
      "metar_trigger": false,
      "taf_trigger": false,
      "metar": "METAR LEXJ 121700Z 06004KT 010V110 9999 FEW027 13/08 Q1024",
      "taf": "TAF LEXJ 121400Z 1215/1315 21006KT 9999 FEW040 TX19/1311Z TN09/1302Z"
    },
    {
      "icao": "LEZG",
      "alert": "OK",
      "vis_m": 9999,
      "fzfg": false,
      "metar_trigger": false,
      "taf_trigger": false,
      "metar": "METAR LEZG 121700Z 31005KT 280V350 CAVOK 19/09 Q1022 NOSIG",
      "taf": "TAF LEZG 121700Z 1218/1318 27008KT 9999 FEW030 TX20/1314Z TN07/1306Z"
    },
    {
      "icao": "LEZL",
      "alert": "OK",
      "vis_m": 9999,
      "fzfg": false,
      "metar_trigger": false,
      "taf_trigger": false,
      "metar": "METAR LEZL 121700Z 08005KT 040V110 CAVOK 22/11 Q1022 NOSIG",
      "taf": "TAF LEZL 121400Z 1215/1315 06005KT CAVOK TX24/1315Z TN08/1307Z"
    },
    {
      "icao": "LFBD",
      "alert": "OK",
      "vis_m": 9999,
      "fzfg": false,
      "metar_trigger": false,
      "taf_trigger": false,
      "metar": "METAR LFBD 121730Z AUTO 27006KT CAVOK 14/07 Q1023 NOSIG",
      "taf": "TAF LFBD 121700Z 1218/1324 24005KT 9999 SCT040 TX16/1314Z TN07/1306Z"
    },
    {
      "icao": "LFLL",
      "alert": "OK",
      "vis_m": 9999,
      "fzfg": false,
      "metar_trigger": false,
      "taf_trigger": false,
      "metar": "METAR LFLL 121700Z 36004KT CAVOK 13/00 Q1022 NOSIG",
      "taf": "TAF LFLL 121700Z 1218/1324 VRB03KT CAVOK"
    },
    {
      "icao": "LFLS",
      "alert": "OK",
      "vis_m": 9999,
      "fzfg": false,
      "metar_trigger": false,
      "taf_trigger": false,
      "metar": "METAR LFLS 121730Z AUTO 35005KT CAVOK 10/05 Q1022 NOSIG",
      "taf": "TAF LFLS 121400Z 1215/1315 36005KT CAVOK"
    },
    {
      "icao": "LFMN",
      "alert": "OK",
      "vis_m": 9999,
      "fzfg": false,
      "metar_trigger": false,
      "taf_trigger": false,
      "metar": "METAR LFMN 121730Z 11010KT 9999 FEW030 BKN036 14/11 Q1021 NOSIG",
      "taf": "TAF LFMN 121400Z 1215/1321 20008KT 9999 FEW015 BKN100"
    },
    {
      "icao": "LFOB",
      "alert": "OK",
      "vis_m": 9999,
      "fzfg": false,
      "metar_trigger": false,
      "taf_trigger": false,
      "metar": "METAR LFOB 121730Z AUTO 19013KT 9999 BKN037 11/05 Q1016 BECMG 22015G25KT",
      "taf": "TAF LFOB 121700Z 1218/1318 22015G25KT 9999 BKN030"
    },
    {
      "icao": "LFPO",
      "alert": "OK",
      "vis_m": 9999,
      "fzfg": false,
      "metar_trigger": false,
      "taf_trigger": false,
      "metar": "METAR LFPO 121730Z 20013KT 9999 BKN041 BKN260 12/06 Q1019 NOSIG",
      "taf": "TAF LFPO 121100Z 1212/1318 22012KT 9999 BKN030"
    },
    {
      "icao": "LFSB",
      "alert": "OK",
      "vis_m": 9999,
      "fzfg": false,
      "metar_trigger": false,
      "taf_trigger": false,
      "metar": "METAR LFSB 121730Z AUTO 31005KT CAVOK 10/05 Q1021 NOSIG",
      "taf": "TAF LFSB 121700Z 1218/1318 18003KT CAVOK"
    },
    {
      "icao": "LGAV",
      "alert": "OK",
      "vis_m": 9999,
      "fzfg": false,
      "metar_trigger": false,
      "taf_trigger": false,
      "metar": "METAR LGAV 121720Z VRB03KT 9999 FEW025 12/07 Q1021 NOSIG",
      "taf": ""
    },
    {
      "icao": "LGTS",
      "alert": "OK",
      "vis_m": 9999,
      "fzfg": false,
      "metar_trigger": false,
      "taf_trigger": false,
      "metar": "METAR LGTS 121720Z 12005KT 9999 FEW020 13/03 Q1021 NOSIG",
      "taf": "TAF LGTS 121700Z 1218/1318 VRB03KT 9999 FEW030"
    },
    {
      "icao": "LHBP",
      "alert": "OK",
      "vis_m": 9999,
      "fzfg": false,
      "metar_trigger": false,
      "taf_trigger": false,
      "metar": "METAR LHBP 121730Z 10003KT CAVOK 11/06 Q1022 NOSIG",
      "taf": "TAF LHBP 121715Z 1218/1318 12005KT CAVOK"
    },
    {
      "icao": "LHDC",
      "alert": "OK",
      "vis_m": 9999,
      "fzfg": false,
      "metar_trigger": false,
      "taf_trigger": false,
      "metar": "METAR LHDC 121715Z AUTO 03002KT CAVOK 13/04 Q1022 NOSIG",
      "taf": "TAF LHDC 121415Z 1215/1224 VRB03KT CAVOK"
    },
    {
      "icao": "LIBD",
      "alert": "OK",
      "vis_m": 9999,
      "fzfg": false,
      "metar_trigger": false,
      "taf_trigger": false,
      "metar": "METAR LIBD 121720Z 07004KT CAVOK 13/11 Q1020",
      "taf": "TAF LIBD 121700Z 1218/1318 VRB05KT 9999 FEW030"
    },
    {
      "icao": "LIBG",
      "alert": "OK",
      "vis_m": 9999,
      "fzfg": false,
      "metar_trigger": false,
      "taf_trigger": false,
      "metar": "SPECI LIBG 121703Z 25004KT 220V280 9999 RA SCT015 SCT025 15/11 Q1020",
      "taf": "TAF LIBG 121700Z 1218/1303 VRB04KT 9999 FEW030"
    },
    {
      "icao": "LIBP",
      "alert": "OK",
      "vis_m": 9999,
      "fzfg": false,
      "metar_trigger": false,
      "taf_trigger": false,
      "metar": "METAR LIBP 121720Z AUTO 34004KT 320V020 9999 FEW011/// OVC097/// 14/12 Q1020",
      "taf": "TAF LIBP 121700Z 1218/1318 VRB05KT 9999 SCT015"
    },
    {
      "icao": "LIBR",
      "alert": "OK",
      "vis_m": 9999,
      "fzfg": false,
      "metar_trigger": false,
      "taf_trigger": false,
      "metar": "METAR LIBR 121720Z 15003KT CAVOK 14/11 Q1020",
      "taf": "TAF LIBR 121700Z 1218/1318 VRB05KT 9999 FEW020"
    },
    {
      "icao": "LICA",
      "alert": "OK",
      "vis_m": 9999,
      "fzfg": false,
      "metar_trigger": false,
      "taf_trigger": false,
      "metar": "METAR LICA 121720Z AUTO 25006KT 9999 NCD 14/11 Q1021",
      "taf": "TAF LICA 121700Z 1218/1318 VRB05KT 9999 SCT020"
    },
    {
      "icao": "LICC",
      "alert": "OK",
      "vis_m": 9999,
      "fzfg": false,
      "metar_trigger": false,
      "taf_trigger": false,
      "metar": "METAR LICC 121720Z 32007KT 9999 FEW025 BKN060 16/13 Q1021",
      "taf": "TAF LICC 121700Z 1218/1318 28006KT 9999 SCT030"
    },
    {
      "icao": "LICJ",
      "alert": "OK",
      "vis_m": 9999,
      "fzfg": false,
      "metar_trigger": false,
      "taf_trigger": false,
      "metar": "METAR LICJ 121720Z 33002KT CAVOK 15/11 Q1021",
      "taf": "TAF LICJ 121700Z 1218/1318 VRB05KT 9999 SCT030"
    },
    {
      "icao": "LIMC",
      "alert": "OK",
      "vis_m": 9999,
      "fzfg": false,
      "metar_trigger": false,
      "taf_trigger": false,
      "metar": "METAR LIMC 121720Z 20005KT CAVOK 14/07 Q1020 NOSIG",
      "taf": "TAF LIMC 121700Z 1218/1324 VRB04KT CAVOK"
    },
    {
      "icao": "LIME",
      "alert": "OK",
      "vis_m": 9999,
      "fzfg": false,
      "metar_trigger": false,
      "taf_trigger": false,
      "metar": "METAR LIME 121720Z 14004KT 120V190 9999 SCT050 14/07 Q1020 NOSIG",
      "taf": "TAF LIME 121700Z 1218/1318 VRB04KT 9999 FEW030"
    },
    {
      "icao": "LIMF",
      "alert": "OK",
      "vis_m": 7000,
      "fzfg": false,
      "metar_trigger": false,
      "taf_trigger": false,
      "metar": "METAR LIMF 121720Z 22005KT 7000 NSC 15/06 Q1020",
      "taf": "TAF LIMF 121700Z 1218/1318 VRB04KT 8000 FEW040"
    },
    {
      "icao": "LIMJ",
      "alert": "OK",
      "vis_m": 9999,
      "fzfg": false,
      "metar_trigger": false,
      "taf_trigger": false,
      "metar": "METAR LIMJ 121720Z 01006KT 9999 SCT060 15/09 Q1020",
      "taf": "TAF LIMJ 121700Z 1218/1318 VRB04KT CAVOK"
    },
    {
      "icao": "LIPE",
      "alert": "OK",
      "vis_m": 9999,
      "fzfg": false,
      "metar_trigger": false,
      "taf_trigger": false,
      "metar": "METAR LIPE 121720Z 32002KT CAVOK 13/08 Q1020",
      "taf": "TAF LIPE 121700Z 1218/1318 VRB04KT 9999 FEW020"
    },
    {
      "icao": "LIPH",
      "alert": "OK",
      "vis_m": 9999,
      "fzfg": false,
      "metar_trigger": false,
      "taf_trigger": false,
      "metar": "METAR LIPH 121720Z 14002KT CAVOK 15/09 Q1021",
      "taf": "TAF LIPH 121700Z 1218/1318 VRB04KT 9999 FEW030"
    },
    {
      "icao": "LIPQ",
      "alert": "OK",
      "vis_m": 9999,
      "fzfg": false,
      "metar_trigger": false,
      "taf_trigger": false,
      "metar": "METAR LIPQ 121720Z AUTO 18003KT 9999 BKN057/// BKN150/// 13/10 Q1022",
      "taf": "TAF LIPQ 121700Z 1218/1318 VRB05KT 9999 SCT050"
    },
    {
      "icao": "LIPR",
      "alert": "OK",
      "vis_m": 9999,
      "fzfg": false,
      "metar_trigger": false,
      "taf_trigger": false,
      "metar": "METAR LIPR 121720Z 19003KT 9999 BKN060 13/10 Q1020",
      "taf": "TAF LIPR 121700Z 1218/1318 VRB05KT 9999 SCT040"
    },
    {
      "icao": "LIPX",
      "alert": "OK",
      "vis_m": 8000,
      "fzfg": false,
      "metar_trigger": false,
      "taf_trigger": false,
      "metar": "METAR LIPX 121720Z VRB02KT 8000 FEW035 14/09 Q1020",
      "taf": "TAF LIPX 121700Z 1218/1318 VRB04KT 8000 FEW030"
    },
    {
      "icao": "LIPY",
      "alert": "OK",
      "vis_m": 9999,
      "fzfg": false,
      "metar_trigger": false,
      "taf_trigger": false,
      "metar": "METAR LIPY 121720Z AUTO 13002KT 9999 BKN075/// BKN090/// BKN110/// 14/11 Q1020",
      "taf": "TAF LIPY 121700Z 1218/1318 VRB05KT 9999 SCT040"
    },
    {
      "icao": "LIPZ",
      "alert": "OK",
      "vis_m": 9999,
      "fzfg": false,
      "metar_trigger": false,
      "taf_trigger": false,
      "metar": "METAR LIPZ 121720Z 14005KT CAVOK 13/11 Q1021 NOSIG",
      "taf": "TAF LIPZ 121700Z 1218/1324 VRB05KT 6000 FEW020"
    },
    {
      "icao": "LIRF",
      "alert": "OK",
      "vis_m": 9000,
      "fzfg": false,
      "metar_trigger": false,
      "taf_trigger": false,
      "metar": "METAR LIRF 121720Z 09006KT 9000 -RA BKN050 11/11 Q1020 RERA NOSIG",
      "taf": "TAF LIRF 121700Z 1218/1324 12010KT 9999 SCT030"
    },
    {
      "icao": "LIRN",
      "alert": "OK",
      "vis_m": 9999,
      "fzfg": false,
      "metar_trigger": false,
      "taf_trigger": false,
      "metar": "METAR LIRN 121720Z 23004KT 9999 FEW040 14/10 Q1021 NOSIG",
      "taf": "TAF LIRN 121700Z 1218/1318 VRB05KT 7000 SCT020"
    },
    {
      "icao": "LIRP",
      "alert": "OK",
      "vis_m": 9999,
      "fzfg": false,
      "metar_trigger": false,
      "taf_trigger": false,
      "metar": "METAR LIRP 121715Z 10005KT 9999 BKN080 13/12 Q1019 NOSIG",
      "taf": "TAF LIRP 121700Z 1218/1318 03005KT 9999 SCT020 BKN060"
    },
    {
      "icao": "LIRZ",
      "alert": "OK",
      "vis_m": 9999,
      "fzfg": false,
      "metar_trigger": false,
      "taf_trigger": false,
      "metar": "METAR LIRZ 121720Z AUTO 13001KT 9999 FEW055/// SCT071/// 11/08 Q1020",
      "taf": "TAF LIRZ 121700Z 1218/1318 VRB05KT 9999 BKN040"
    },
    {
      "icao": "LJLJ",
      "alert": "OK",
      "vis_m": 9999,
      "fzfg": false,
      "metar_trigger": false,
      "taf_trigger": false,
      "metar": "METAR LJLJ 121700Z 15006KT 9999 VCSH FEW045TCU BKN065 13/04 Q1021 NOSIG",
      "taf": "TAF LJLJ 121700Z 1218/1318 12005KT 9999 FEW045 BKN060"
    },
    {
      "icao": "LKMT",
      "alert": "OK",
      "vis_m": 9999,
      "fzfg": false,
      "metar_trigger": false,
      "taf_trigger": false,
      "metar": "METAR LKMT 121730Z 03005KT 360V060 9999 BKN047 09/07 Q1022 NOSIG",
      "taf": "TAF LKMT 121700Z 1218/1318 22008KT 9999 SCT035"
    },
    {
      "icao": "LKPR",
      "alert": "OK",
      "vis_m": 9999,
      "fzfg": false,
      "metar_trigger": false,
      "taf_trigger": false,
      "metar": "METAR LKPR 121730Z 13005KT CAVOK 08/05 Q1021 NOSIG",
      "taf": "TAF LKPR 121700Z 1218/1324 20006KT CAVOK"
    },
    {
      "icao": "LLBG",
      "alert": "OK",
      "vis_m": 9999,
      "fzfg": false,
      "metar_trigger": false,
      "taf_trigger": false,
      "metar": "METAR LLBG 121720Z VRB02KT CAVOK 18/10 Q1015 NOSIG",
      "taf": "TAF LLBG 121702Z 1218/1318 VRB03KT 9999 FEW015 TX22/1312Z TN09/1304Z"
    },
    {
      "icao": "LMML",
      "alert": "OK",
      "vis_m": 9999,
      "fzfg": false,
      "metar_trigger": false,
      "taf_trigger": false,
      "metar": "METAR LMML 121715Z 32006KT 290V360 9999 FEW030 14/11 Q1021 NOSIG",
      "taf": "TAF LMML 121700Z 1218/1318 34006KT 9999 SCT016"
    },
    {
      "icao": "LOWW",
      "alert": "OK",
      "vis_m": 9999,
      "fzfg": false,
      "metar_trigger": false,
      "taf_trigger": false,
      "metar": "METAR LOWW 121720Z 29011KT CAVOK 12/05 Q1022 NOSIG",
      "taf": "TAF LOWW 121715Z 1218/1324 32014KT CAVOK TX17/1314Z TN03/1305Z"
    },
    {
      "icao": "LPFR",
      "alert": "OK",
      "vis_m": 9999,
      "fzfg": false,
      "metar_trigger": false,
      "taf_trigger": false,
      "metar": "METAR LPFR 121700Z 13006KT 9999 FEW025 19/12 Q1023",
      "taf": "TAF LPFR 121700Z 1218/1318 13005KT CAVOK"
    },
    {
      "icao": "LPMA",
      "alert": "OK",
      "vis_m": 9999,
      "fzfg": false,
      "metar_trigger": false,
      "taf_trigger": false,
      "metar": "METAR LPMA 121700Z 02017KT 9999 SCT016 18/11 Q1023",
      "taf": "TAF LPMA 121700Z 1218/1318 02015KT 9999 SCT015"
    },
    {
      "icao": "LPPR",
      "alert": "OK",
      "vis_m": 9999,
      "fzfg": false,
      "metar_trigger": false,
      "taf_trigger": false,
      "metar": "METAR LPPR 121700Z 30006KT 270V330 9999 FEW020 14/11 Q1026",
      "taf": "TAF LPPR 121700Z 1218/1318 30007KT 9999 FEW020"
    },
    {
      "icao": "LPPS",
      "alert": "OK",
      "vis_m": 9999,
      "fzfg": false,
      "metar_trigger": false,
      "taf_trigger": false,
      "metar": "METAR LPPS 121700Z 06014KT 020V090 9999 SCT015 17/11 Q1023",
      "taf": "TAF LPPS 121700Z 1218/1324 06015KT 9999 SCT015"
    },
    {
      "icao": "LPPT",
      "alert": "OK",
      "vis_m": 9999,
      "fzfg": false,
      "metar_trigger": false,
      "taf_trigger": false,
      "metar": "METAR LPPT 121700Z 29007KT 250V320 9999 FEW032 18/12 Q1024",
      "taf": "TAF LPPT 121700Z 1218/1324 31010KT 9999 FEW030"
    },
    {
      "icao": "LQBK",
      "alert": "OK",
      "vis_m": 9999,
      "fzfg": false,
      "metar_trigger": false,
      "taf_trigger": false,
      "metar": "METAR LQBK 121730Z 11003KT 080V230 CAVOK 12/06 Q1021 NOSIG",
      "taf": "TAF LQBK 121700Z 1218/1318 15005KT 9999 SCT045 TX17/1313Z TN07/1306Z"
    },
    {
      "icao": "LQSA",
      "alert": "OK",
      "vis_m": 9999,
      "fzfg": false,
      "metar_trigger": false,
      "taf_trigger": false,
      "metar": "METAR LQSA 121730Z 28006KT CAVOK 10/05 Q1021 NOSIG",
      "taf": ""
    },
    {
      "icao": "LQTZ",
      "alert": "OK",
      "vis_m": 9999,
      "fzfg": false,
      "metar_trigger": false,
      "taf_trigger": false,
      "metar": "METAR LQTZ 121730Z 15004KT 100V210 9999 SCT055 11/07 Q1021",
      "taf": "TAF LQTZ 121700Z 1218/1318 30005KT 9999 SCT050 TX19/1313Z TN02/1306Z"
    },
    {
      "icao": "LRBC",
      "alert": "OK",
      "vis_m": 9999,
      "fzfg": false,
      "metar_trigger": false,
      "taf_trigger": false,
      "metar": "METAR LRBC 121700Z 20004KT CAVOK 06/02 Q1024",
      "taf": "TAF LRBC 121700Z 1218/1303 VRB04KT CAVOK"
    },
    {
      "icao": "LRBS",
      "alert": "OK",
      "vis_m": 9999,
      "fzfg": false,
      "metar_trigger": false,
      "taf_trigger": false,
      "metar": "METAR LRBS 121700Z 01004KT CAVOK 10/04 Q1024 NOSIG",
      "taf": "TAF LRBS 121700Z 1218/1318 02005KT CAVOK"
    },
    {
      "icao": "LRBV",
      "alert": "OK",
      "vis_m": 9999,
      "fzfg": false,
      "metar_trigger": false,
      "taf_trigger": false,
      "metar": "METAR LRBV 121700Z 17004KT CAVOK 09/M07 Q1021",
      "taf": "TAF LRBV 121700Z 1218/1303 VRB04KT CAVOK"
    },
    {
      "icao": "LRCL",
      "alert": "OK",
      "vis_m": 9999,
      "fzfg": false,
      "metar_trigger": false,
      "taf_trigger": false,
      "metar": "METAR LRCL 121700Z 00000KT CAVOK 11/M03 Q1021",
      "taf": "TAF LRCL 121700Z 1218/1303 VRB04KT CAVOK"
    },
    {
      "icao": "LRCV",
      "alert": "OK",
      "vis_m": 9999,
      "fzfg": false,
      "metar_trigger": false,
      "taf_trigger": false,
      "metar": "METAR LRCV 121700Z 08009KT CAVOK 06/05 Q1023",
      "taf": "TAF LRCV 121700Z 1218/1303 10008KT CAVOK"
    },
    {
      "icao": "LRIA",
      "alert": "OK",
      "vis_m": 9999,
      "fzfg": false,
      "metar_trigger": false,
      "taf_trigger": false,
      "metar": "METAR LRIA 121700Z 09005KT CAVOK 10/00 Q1025",
      "taf": "TAF LRIA 121700Z 1218/1303 VRB04KT CAVOK"
    },
    {
      "icao": "LROP",
      "alert": "OK",
      "vis_m": 9999,
      "fzfg": false,
      "metar_trigger": false,
      "taf_trigger": false,
      "metar": "METAR LROP 121700Z 02005KT CAVOK 09/02 Q1024 NOSIG",
      "taf": "TAF LROP 121700Z 1218/1318 02005KT CAVOK"
    },
    {
      "icao": "LRSB",
      "alert": "OK",
      "vis_m": 9999,
      "fzfg": false,
      "metar_trigger": false,
      "taf_trigger": false,
      "metar": "METAR LRSB 121700Z 27003KT 230V330 CAVOK 08/M03 Q1021",
      "taf": "TAF LRSB 121700Z 1218/1318 VRB04KT CAVOK"
    },
    {
      "icao": "LRSM",
      "alert": "OK",
      "vis_m": 9999,
      "fzfg": false,
      "metar_trigger": false,
      "taf_trigger": false,
      "metar": "METAR LRSM 121700Z 36003KT CAVOK 13/M01 Q1021",
      "taf": "TAF LRSM 121400Z 1215/1224 VRB04KT CAVOK"
    },
    {
      "icao": "LRSV",
      "alert": "OK",
      "vis_m": 9999,
      "fzfg": false,
      "metar_trigger": false,
      "taf_trigger": false,
      "metar": "METAR LRSV 121700Z 16007KT CAVOK 07/M00 Q1023",
      "taf": "TAF LRSV 121700Z 1218/1303 15005KT CAVOK"
    },
    {
      "icao": "LRTM",
      "alert": "OK",
      "vis_m": 9999,
      "fzfg": false,
      "metar_trigger": false,
      "taf_trigger": false,
      "metar": "METAR LRTM 121700Z 27001KT CAVOK 10/M02 Q1021",
      "taf": "TAF LRTM 121400Z 1215/1224 VRB04KT CAVOK"
    },
    {
      "icao": "LRTR",
      "alert": "OK",
      "vis_m": 9999,
      "fzfg": false,
      "metar_trigger": false,
      "taf_trigger": false,
      "metar": "METAR LRTR 121700Z 35004KT CAVOK 12/04 Q1021 NOSIG",
      "taf": "TAF LRTR 121700Z 1218/1318 VRB04KT CAVOK"
    },
    {
      "icao": "LTAC",
      "alert": "OK",
      "vis_m": 9999,
      "fzfg": false,
      "metar_trigger": false,
      "taf_trigger": false,
      "metar": "METAR LTAC 121720Z 15005KT 100V190 CAVOK 07/M08 Q1018 NOSIG RMK RWY21C VRB02KT RWY03L VRB02KT RWY21R VRB01KT RWY03R 00000KT RWY21L 11009KT",
      "taf": "TAF LTAC 121640Z 1218/1318 VRB02KT CAVOK"
    },
    {
      "icao": "LTFM",
      "alert": "OK",
      "vis_m": 9999,
      "fzfg": false,
      "metar_trigger": false,
      "taf_trigger": false,
      "metar": "METAR LTFM 121720Z 02010KT 9999 BKN020 07/02 Q1023 NOSIG RMK RWY17L 02009KT RWY34L 01009KT RWY16R 03009KT RWY36 03010KT RWY18 04008KT",
      "taf": "TAF LTFM 121640Z 1218/1324 04010KT 9999 BKN017"
    },
    {
      "icao": "LUKK",
      "alert": "OK",
      "vis_m": 9999,
      "fzfg": false,
      "metar_trigger": false,
      "taf_trigger": false,
      "metar": "METAR LUKK 121730Z 08003KT 040V100 CAVOK 09/M00 Q1025 NOSIG",
      "taf": "TAF LUKK 121716Z 1218/1318 VRB04KT CAVOK"
    },
    {
      "icao": "LWOH",
      "alert": "OK",
      "vis_m": 9999,
      "fzfg": false,
      "metar_trigger": false,
      "taf_trigger": false,
      "metar": "METAR LWOH 121720Z VRB01KT 9999 FEW040 10/01 Q1019",
      "taf": "TAF LWOH 121430Z 1215/1315 16008KT 9999 FEW040"
    },
    {
      "icao": "LWSK",
      "alert": "OK",
      "vis_m": 9999,
      "fzfg": false,
      "metar_trigger": false,
      "taf_trigger": false,
      "metar": "METAR LWSK 121720Z 10003KT CAVOK 11/M01 Q1019 NOSIG",
      "taf": "TAF LWSK 121430Z 1215/1315 VRB02KT CAVOK"
    },
    {
      "icao": "LYBE",
      "alert": "OK",
      "vis_m": 9999,
      "fzfg": false,
      "metar_trigger": false,
      "taf_trigger": false,
      "metar": "METAR LYBE 121730Z 30003KT CAVOK 14/03 Q1021 NOSIG",
      "taf": "TAF LYBE 121700Z 1218/1318 07005KT CAVOK TX19/1313Z TN05/1305Z"
    },
    {
      "icao": "LYNI",
      "alert": "OK",
      "vis_m": 9999,
      "fzfg": false,
      "metar_trigger": false,
      "taf_trigger": false,
      "metar": "METAR LYNI 121730Z 07007KT 030V100 CAVOK 15/01 Q1020 NOSIG",
      "taf": "TAF LYNI 121700Z 1218/1318 07006KT CAVOK TX18/1313Z TN03/1305Z"
    },
    {
      "icao": "LYPG",
      "alert": "OK",
      "vis_m": 9999,
      "fzfg": false,
      "metar_trigger": false,
      "taf_trigger": false,
      "metar": "METAR LYPG 121730Z 09003KT CAVOK 13/06 Q1020 NOSIG",
      "taf": "TAF LYPG 121700Z 1218/1318 36005KT 9999 SCT090 TX20/1314Z TN07/1305Z"
    },
    {
      "icao": "LZIB",
      "alert": "OK",
      "vis_m": 9999,
      "fzfg": false,
      "metar_trigger": false,
      "taf_trigger": false,
      "metar": "METAR LZIB 121730Z 30005KT CAVOK 13/05 Q1021 NOSIG",
      "taf": "TAF LZIB 121715Z 1218/1318 32009KT CAVOK"
    },
    {
      "icao": "LZKZ",
      "alert": "OK",
      "vis_m": 9999,
      "fzfg": false,
      "metar_trigger": false,
      "taf_trigger": false,
      "metar": "METAR LZKZ 121730Z 25006KT CAVOK 11/04 Q1022 NOSIG",
      "taf": "TAF LZKZ 121715Z 1218/1318 34005KT CAVOK"
    },
    {
      "icao": "LZTT",
      "alert": "OK",
      "vis_m": 9999,
      "fzfg": false,
      "metar_trigger": false,
      "taf_trigger": false,
      "metar": "METAR LZTT 121730Z 15005KT 9999 FEW053 BKN065 08/03 Q1022 NOSIG",
      "taf": "TAF LZTT 121715Z 1218/1318 36005KT 9999 FEW050"
    },
    {
      "icao": "OEJN",
      "alert": "OK",
      "vis_m": 9999,
      "fzfg": false,
      "metar_trigger": false,
      "taf_trigger": false,
      "metar": "METAR OEJN 121700Z 33010KT CAVOK 25/17 Q1012 NOSIG",
      "taf": "TAF OEJN 121700Z 1218/1324 03006KT 9999 FEW040"
    },
    {
      "icao": "OEMA",
      "alert": "OK",
      "vis_m": 9999,
      "fzfg": false,
      "metar_trigger": false,
      "taf_trigger": false,
      "metar": "METAR OEMA 121700Z 31009KT CAVOK 28/M05 Q1014 NOSIG",
      "taf": "TAF OEMA 121700Z 1218/1324 30012KT CAVOK"
    },
    {
      "icao": "OJAI",
      "alert": "OK",
      "vis_m": 4000,
      "fzfg": false,
      "metar_trigger": false,
      "taf_trigger": false,
      "metar": "METAR OJAI 121700Z 26002KT 4000 HZ NSC 14/01 Q1016 NOSIG",
      "taf": ""
    },
    {
      "icao": "OMAA",
      "alert": "OK",
      "vis_m": null,
      "fzfg": false,
      "metar_trigger": false,
      "taf_trigger": false,
      "metar": "",
      "taf": ""
    },
    {
      "icao": "OMDB",
      "alert": "OK",
      "vis_m": null,
      "fzfg": false,
      "metar_trigger": false,
      "taf_trigger": false,
      "metar": "",
      "taf": ""
    },
    {
      "icao": "UAAA",
      "alert": "OK",
      "vis_m": 5000,
      "fzfg": false,
      "metar_trigger": false,
      "taf_trigger": false,
      "metar": "METAR UAAA 121700Z 17002MPS 5000 BR NSC M05/M08 Q1034 NOSIG",
      "taf": "TAF UAAA 121702Z 1218/1318 22003MPS 3100 BR FU FEW011 SCT050 TX04/1309Z TNM10/1301Z"
    },
    {
      "icao": "UBBB",
      "alert": "OK",
      "vis_m": 9999,
      "fzfg": false,
      "metar_trigger": false,
      "taf_trigger": false,
      "metar": "METAR UBBB 121730Z 17006KT CAVOK 07/03 Q1029 NOSIG",
      "taf": "TAF UBBB 121702Z 1218/1318 14006KT 9999 SCT020 TX11/1310Z TN03/1301Z"
    },
    {
      "icao": "UDSG",
      "alert": "OK",
      "vis_m": 9999,
      "fzfg": false,
      "metar_trigger": false,
      "taf_trigger": false,
      "metar": "METAR UDSG 121700Z 09004KT 9999 FEW049 M03/M06 Q1024 NOSIG",
      "taf": "TAF UDSG 121658Z 1218/1318 VRB06KT 9999 SCT040"
    },
    {
      "icao": "UDYZ",
      "alert": "OK",
      "vis_m": 9999,
      "fzfg": false,
      "metar_trigger": false,
      "taf_trigger": false,
      "metar": "METAR UDYZ 121700Z 01004KT 9999 FEW046 06/M04 Q1023 NOSIG",
      "taf": "TAF UDYZ 121700Z 1218/1318 03006KT 9999 FEW040"
    },
    {
      "icao": "UGKO",
      "alert": "OK",
      "vis_m": 9999,
      "fzfg": false,
      "metar_trigger": false,
      "taf_trigger": false,
      "metar": "METAR UGKO 121700Z 07024G34KT CAVOK 11/M02 Q1021 NOSIG",
      "taf": "TAF UGKO 121700Z 1218/1318 08020G33KT CAVOK TX17/1311Z TN09/1303Z"
    }
  ]
}