{
  "ts_utc": "2026-07-12T10:47:51Z",
  "threshold_m": 150,
  "source": "stations_override.txt (ICAO list) + aviationweather.gov (METAR/TAF raw)",
  "station_count": 159,
  "stations": [
    {
      "icao": "BIKF",
      "alert": "OK",
      "vis_m": 9999,
      "fzfg": false,
      "metar_trigger": false,
      "taf_trigger": false,
      "metar": "METAR BIKF 121030Z 17022KT 9999 -DZ BKN006 OVC020 11/11 Q1021",
      "taf": "TAF BIKF 121045Z 1212/1312 17025G35KT 9999 -DZ BKN007 OVC013 TX11/1215Z TN10/1306Z"
    },
    {
      "icao": "BKPR",
      "alert": "OK",
      "vis_m": 9999,
      "fzfg": false,
      "metar_trigger": false,
      "taf_trigger": false,
      "metar": "METAR BKPR 121030Z 01004KT 290V060 9999 SCT070 21/16 Q1018 RETS NOSIG",
      "taf": ""
    },
    {
      "icao": "EBCI",
      "alert": "OK",
      "vis_m": 9999,
      "fzfg": false,
      "metar_trigger": false,
      "taf_trigger": false,
      "metar": "METAR EBCI 121020Z 06012KT 020V100 CAVOK 29/12 Q1022 NOSIG",
      "taf": "TAF EBCI 120512Z 1206/1312 06007KT CAVOK"
    },
    {
      "icao": "EDDB",
      "alert": "OK",
      "vis_m": 9999,
      "fzfg": false,
      "metar_trigger": false,
      "taf_trigger": false,
      "metar": "METAR EDDB 121020Z AUTO 35013KT 300V010 CAVOK 28/14 Q1019 NOSIG",
      "taf": "TAF EDDB 120500Z 1206/1306 30008KT CAVOK"
    },
    {
      "icao": "EDDH",
      "alert": "OK",
      "vis_m": 9999,
      "fzfg": false,
      "metar_trigger": false,
      "taf_trigger": false,
      "metar": "METAR EDDH 121020Z AUTO 32007KT 280V350 CAVOK 26/14 Q1022 NOSIG",
      "taf": "TAF EDDH 120500Z 1206/1312 31011KT CAVOK"
    },
    {
      "icao": "EDDK",
      "alert": "OK",
      "vis_m": 9999,
      "fzfg": false,
      "metar_trigger": false,
      "taf_trigger": false,
      "metar": "METAR EDDK 121020Z AUTO VRB06KT CAVOK 29/11 Q1022 NOSIG",
      "taf": "TAF EDDK 120500Z 1206/1312 VRB02KT CAVOK"
    },
    {
      "icao": "EDDN",
      "alert": "OK",
      "vis_m": 9999,
      "fzfg": false,
      "metar_trigger": false,
      "taf_trigger": false,
      "metar": "METAR EDDN 121020Z AUTO 06006KT 330V100 CAVOK 27/10 Q1022 NOSIG",
      "taf": "TAF EDDN 120500Z 1206/1306 VRB02KT CAVOK"
    },
    {
      "icao": "EDDS",
      "alert": "OK",
      "vis_m": 9999,
      "fzfg": false,
      "metar_trigger": false,
      "taf_trigger": false,
      "metar": "METAR EDDS 121020Z AUTO 06012KT 030V110 CAVOK 28/07 Q1021 NOSIG",
      "taf": "TAF EDDS 120500Z 1206/1306 VRB03KT CAVOK"
    },
    {
      "icao": "EDFH",
      "alert": "OK",
      "vis_m": 9999,
      "fzfg": false,
      "metar_trigger": false,
      "taf_trigger": false,
      "metar": "METAR EDFH 121020Z 08007KT 020V160 CAVOK 27/09 Q1023",
      "taf": "TAF EDFH 120500Z 1206/1306 09007KT CAVOK"
    },
    {
      "icao": "EDJA",
      "alert": "OK",
      "vis_m": 9999,
      "fzfg": false,
      "metar_trigger": false,
      "taf_trigger": false,
      "metar": "METAR EDJA 121020Z 05011KT 010V090 CAVOK 25/11 Q1023",
      "taf": "TAF EDJA 120800Z 1209/1218 06009KT CAVOK"
    },
    {
      "icao": "EDLW",
      "alert": "OK",
      "vis_m": 9999,
      "fzfg": false,
      "metar_trigger": false,
      "taf_trigger": false,
      "metar": "METAR EDLW 121020Z 05006KT 330V120 CAVOK 28/14 Q1023",
      "taf": "TAF EDLW 120500Z 1206/1306 VRB02KT CAVOK"
    },
    {
      "icao": "EDNY",
      "alert": "OK",
      "vis_m": 9999,
      "fzfg": false,
      "metar_trigger": false,
      "taf_trigger": false,
      "metar": "METAR EDNY 121020Z 05007KT 350V080 CAVOK 27/11 Q1021",
      "taf": "TAF EDNY 120800Z 1209/1218 04010KT CAVOK"
    },
    {
      "icao": "EDSB",
      "alert": "OK",
      "vis_m": 9999,
      "fzfg": false,
      "metar_trigger": false,
      "taf_trigger": false,
      "metar": "METAR EDSB 121020Z 04016KT 010V080 CAVOK 30/08 Q1020",
      "taf": "TAF EDSB 120500Z 1206/1306 02007KT CAVOK"
    },
    {
      "icao": "EETN",
      "alert": "OK",
      "vis_m": 9999,
      "fzfg": false,
      "metar_trigger": false,
      "taf_trigger": false,
      "metar": "METAR EETN 121020Z 02007KT 350V050 CAVOK 25/16 Q1016 NOSIG",
      "taf": "TAF EETN 120530Z 1206/1306 04008KT CAVOK"
    },
    {
      "icao": "EFTU",
      "alert": "OK",
      "vis_m": 9999,
      "fzfg": false,
      "metar_trigger": false,
      "taf_trigger": false,
      "metar": "METAR EFTU 121020Z AUTO 28005KT 260V320 9999 //////CB 25/19 Q1018",
      "taf": "TAF EFTU 120832Z 1209/1309 02005KT CAVOK"
    },
    {
      "icao": "EGBB",
      "alert": "OK",
      "vis_m": 9999,
      "fzfg": false,
      "metar_trigger": false,
      "taf_trigger": false,
      "metar": "METAR EGBB 121020Z 08013KT CAVOK 25/13 Q1026",
      "taf": ""
    },
    {
      "icao": "EGGP",
      "alert": "OK",
      "vis_m": 9999,
      "fzfg": false,
      "metar_trigger": false,
      "taf_trigger": false,
      "metar": "METAR EGGP 121020Z 07011KT CAVOK 24/12 Q1027",
      "taf": "TAF EGGP 120456Z 1206/1306 07008KT CAVOK"
    },
    {
      "icao": "EGGW",
      "alert": "OK",
      "vis_m": 9999,
      "fzfg": false,
      "metar_trigger": false,
      "taf_trigger": false,
      "metar": "METAR EGGW 121020Z 06012KT 9999 FEW024 25/15 Q1025",
      "taf": "TAF EGGW 120456Z 1206/1306 05010KT 9999 BKN012"
    },
    {
      "icao": "EGKK",
      "alert": "OK",
      "vis_m": 9999,
      "fzfg": false,
      "metar_trigger": false,
      "taf_trigger": false,
      "metar": "METAR EGKK 121020Z 05015KT 020V090 9999 FEW027 25/16 Q1024",
      "taf": "TAF EGKK 120455Z 1206/1312 04010KT 9999 BKN009"
    },
    {
      "icao": "EGNM",
      "alert": "OK",
      "vis_m": 9999,
      "fzfg": false,
      "metar_trigger": false,
      "taf_trigger": false,
      "metar": "METAR EGNM 121020Z 06012KT 020V090 9999 FEW025 22/12 Q1029",
      "taf": "TAF EGNM 120458Z 1206/1306 05010KT 9999 FEW012"
    },
    {
      "icao": "EGPD",
      "alert": "OK",
      "vis_m": 9999,
      "fzfg": false,
      "metar_trigger": false,
      "taf_trigger": false,
      "metar": "METAR EGPD 121020Z AUTO 08006KT 050V130 9999 OVC033 16/09 Q1033",
      "taf": "TAF EGPD 120459Z 1206/1306 02006KT 9999 BKN025"
    },
    {
      "icao": "EGPF",
      "alert": "OK",
      "vis_m": 9999,
      "fzfg": false,
      "metar_trigger": false,
      "taf_trigger": false,
      "metar": "METAR EGPF 121020Z AUTO 06013KT 9999 SCT021 19/14 Q1031",
      "taf": ""
    },
    {
      "icao": "EHBK",
      "alert": "OK",
      "vis_m": 9999,
      "fzfg": false,
      "metar_trigger": false,
      "taf_trigger": false,
      "metar": "METAR EHBK 121025Z AUTO 06011KT 020V090 9999 NCD 29/14 Q1022 NOSIG",
      "taf": "TAF EHBK 120457Z 1206/1312 05007KT CAVOK"
    },
    {
      "icao": "EHEH",
      "alert": "OK",
      "vis_m": 9999,
      "fzfg": false,
      "metar_trigger": false,
      "taf_trigger": false,
      "metar": "METAR EHEH 121025Z AUTO 06007KT 360V120 9999 SCT280 28/16 Q1023 BLU NOSIG RMK TREND REMOTE BY EHWX",
      "taf": "TAF EHEH 120511Z 1206/1312 04007KT CAVOK"
    },
    {
      "icao": "EKBI",
      "alert": "OK",
      "vis_m": 9999,
      "fzfg": false,
      "metar_trigger": false,
      "taf_trigger": false,
      "metar": "METAR EKBI 121020Z AUTO 29005KT 240V340 9999 NCD 22/15 Q1023",
      "taf": "TAF EKBI 120827Z 1209/1309 34006KT CAVOK"
    },
    {
      "icao": "EKCH",
      "alert": "OK",
      "vis_m": 9999,
      "fzfg": false,
      "metar_trigger": false,
      "taf_trigger": false,
      "metar": "METAR EKCH 121020Z AUTO 35006KT 310V070 9999 NCD 27/13 Q1021 NOSIG",
      "taf": "TAF EKCH 120827Z 1209/1309 35008KT CAVOK"
    },
    {
      "icao": "ENAL",
      "alert": "OK",
      "vis_m": 9999,
      "fzfg": false,
      "metar_trigger": false,
      "taf_trigger": false,
      "metar": "METAR ENAL 121020Z 06011KT 9999 FEW015 15/11 Q1031",
      "taf": "TAF ENAL 120800Z 1209/1218 05010KT 9999 FEW015"
    },
    {
      "icao": "ENBR",
      "alert": "OK",
      "vis_m": 9999,
      "fzfg": false,
      "metar_trigger": false,
      "taf_trigger": false,
      "metar": "METAR ENBR 121020Z 32009KT CAVOK 17/12 Q1028 BECMG 35015KT RMK WIND 1200FT 33010KT",
      "taf": "TAF ENBR 120500Z 1206/1306 36005KT 9999 FEW008"
    },
    {
      "icao": "ENGM",
      "alert": "OK",
      "vis_m": 9999,
      "fzfg": false,
      "metar_trigger": false,
      "taf_trigger": false,
      "metar": "METAR ENGM 121020Z 03009KT 340V070 CAVOK 19/07 Q1027 NOSIG",
      "taf": "TAF ENGM 120500Z 1206/1306 01010KT CAVOK"
    },
    {
      "icao": "ENHD",
      "alert": "OK",
      "vis_m": 9999,
      "fzfg": false,
      "metar_trigger": false,
      "taf_trigger": false,
      "metar": "METAR ENHD 121020Z 34015KT CAVOK 16/11 Q1027",
      "taf": "TAF ENHD 120800Z 1209/1218 34018KT CAVOK"
    },
    {
      "icao": "ENTC",
      "alert": "OK",
      "vis_m": 9999,
      "fzfg": false,
      "metar_trigger": false,
      "taf_trigger": false,
      "metar": "METAR ENTC 121020Z 22012KT 9999 SCT037 BKN049 13/07 Q1026 NOSIG RMK WIND 2600FT 21017KT",
      "taf": "TAF ENTC 120500Z 1206/1306 22009KT 9999 FEW020 BKN045"
    },
    {
      "icao": "ENTO",
      "alert": "OK",
      "vis_m": 9999,
      "fzfg": false,
      "metar_trigger": false,
      "taf_trigger": false,
      "metar": "METAR ENTO 121020Z 01011KT 340V050 CAVOK 20/12 Q1026 NOSIG",
      "taf": "TAF ENTO 120500Z 1206/1306 02008KT 9999 FEW030CB"
    },
    {
      "icao": "ENVA",
      "alert": "OK",
      "vis_m": 9999,
      "fzfg": false,
      "metar_trigger": false,
      "taf_trigger": false,
      "metar": "METAR ENVA 121020Z 26007KT 9999 SCT025 16/10 Q1030 NOSIG RMK WIND 670FT 30005KT",
      "taf": "TAF ENVA 120500Z 1206/1306 10007KT 9999 FEW012 SCT030"
    },
    {
      "icao": "ENZV",
      "alert": "OK",
      "vis_m": 9999,
      "fzfg": false,
      "metar_trigger": false,
      "taf_trigger": false,
      "metar": "METAR ENZV 121020Z 30010KT CAVOK 18/12 Q1027 NOSIG",
      "taf": "TAF ENZV 120500Z 1206/1306 34005KT CAVOK"
    },
    {
      "icao": "EPGD",
      "alert": "OK",
      "vis_m": 9999,
      "fzfg": false,
      "metar_trigger": false,
      "taf_trigger": false,
      "metar": "METAR EPGD 121030Z 36010KT 330V030 9999 SCT013 21/17 Q1017",
      "taf": "TAF EPGD 120530Z 1206/1306 31010KT 9999 BKN005"
    },
    {
      "icao": "EPKK",
      "alert": "OK",
      "vis_m": 9999,
      "fzfg": false,
      "metar_trigger": false,
      "taf_trigger": false,
      "metar": "METAR EPKK 121030Z 26012KT 9999 BKN010 16/13 Q1017",
      "taf": "TAF EPKK 120830Z 1209/1309 25012KT 9999 BKN045"
    },
    {
      "icao": "EPKT",
      "alert": "OK",
      "vis_m": 9999,
      "fzfg": false,
      "metar_trigger": false,
      "taf_trigger": false,
      "metar": "METAR EPKT 121030Z 27011KT 9999 FEW008 BKN010 15/14 Q1017",
      "taf": ""
    },
    {
      "icao": "EPLB",
      "alert": "OK",
      "vis_m": 9999,
      "fzfg": false,
      "metar_trigger": false,
      "taf_trigger": false,
      "metar": "METAR EPLB 121030Z 31007KT 9999 BKN032 20/12 Q1015",
      "taf": "TAF EPLB 120530Z 1206/1306 18004KT CAVOK"
    },
    {
      "icao": "EPMO",
      "alert": "OK",
      "vis_m": 9999,
      "fzfg": false,
      "metar_trigger": false,
      "taf_trigger": false,
      "metar": "METAR EPMO 121030Z 01003KT 310V040 9999 OVC007 17/16 Q1014",
      "taf": "TAF EPMO 120530Z 1206/1306 25008KT 9999 BKN005"
    },
    {
      "icao": "EPPO",
      "alert": "OK",
      "vis_m": 9999,
      "fzfg": false,
      "metar_trigger": false,
      "taf_trigger": false,
      "metar": "METAR EPPO 121030Z 34011KT 9999 BKN036 24/14 Q1017",
      "taf": "TAF EPPO 120530Z 1206/1306 29006KT CAVOK"
    },
    {
      "icao": "EPRA",
      "alert": "OK",
      "vis_m": 9999,
      "fzfg": false,
      "metar_trigger": false,
      "taf_trigger": false,
      "metar": "METAR EPRA 121030Z 28004KT 240V300 9999 BKN007 OVC017 15/14 Q1015",
      "taf": "TAF EPRA 120830Z 1209/1218 24008KT 9999 BKN012 OVC026"
    },
    {
      "icao": "EPRZ",
      "alert": "OK",
      "vis_m": 9999,
      "fzfg": false,
      "metar_trigger": false,
      "taf_trigger": false,
      "metar": "METAR EPRZ 121030Z 26007KT 230V290 9999 SCT020 19/13 Q1016",
      "taf": "TAF EPRZ 120530Z 1206/1306 28006KT 9999 BKN040"
    },
    {
      "icao": "EPSC",
      "alert": "OK",
      "vis_m": 9999,
      "fzfg": false,
      "metar_trigger": false,
      "taf_trigger": false,
      "metar": "METAR EPSC 121030Z 32014KT CAVOK 26/14 Q1019",
      "taf": "TAF EPSC 120530Z 1206/1306 30006KT CAVOK"
    },
    {
      "icao": "EPSY",
      "alert": "OK",
      "vis_m": 9999,
      "fzfg": false,
      "metar_trigger": false,
      "taf_trigger": false,
      "metar": "METAR EPSY 121030Z 04007KT 010V080 9999 FEW010 BKN016 OVC022 17/15 Q1015",
      "taf": "TAF EPSY 120830Z 1209/1218 03006KT 9999 BKN007"
    },
    {
      "icao": "EPWA",
      "alert": "OK",
      "vis_m": 9999,
      "fzfg": false,
      "metar_trigger": false,
      "taf_trigger": false,
      "metar": "METAR EPWA 121030Z 32003KT 290V010 9999 BKN009 16/14 Q1014 NOSIG",
      "taf": "TAF EPWA 120830Z 1209/1309 24006KT 9999 BKN007 BKN010"
    },
    {
      "icao": "EPWR",
      "alert": "OK",
      "vis_m": 9999,
      "fzfg": false,
      "metar_trigger": false,
      "taf_trigger": false,
      "metar": "METAR EPWR 121030Z 31010KT 9999 BKN040 23/15 Q1017",
      "taf": "TAF EPWR 120830Z 1209/1309 30012KT 9999 BKN040"
    },
    {
      "icao": "ESGG",
      "alert": "OK",
      "vis_m": 9999,
      "fzfg": false,
      "metar_trigger": false,
      "taf_trigger": false,
      "metar": "METAR ESGG 121020Z 02011KT CAVOK 21/16 Q1022",
      "taf": "TAF ESGG 120830Z 1209/1309 02010KT 9999 FEW012"
    },
    {
      "icao": "ESKN",
      "alert": "OK",
      "vis_m": 9999,
      "fzfg": false,
      "metar_trigger": false,
      "taf_trigger": false,
      "metar": "METAR ESKN 121020Z 35011KT 320V020 CAVOK 20/14 Q1022",
      "taf": "TAF ESKN 120830Z 1209/1309 34012KT CAVOK"
    },
    {
      "icao": "ESMS",
      "alert": "OK",
      "vis_m": 9999,
      "fzfg": false,
      "metar_trigger": false,
      "taf_trigger": false,
      "metar": "METAR ESMS 121020Z 02008KT CAVOK 28/13 Q1020",
      "taf": "TAF ESMS 120827Z 1209/1309 01008KT CAVOK"
    },
    {
      "icao": "ESSA",
      "alert": "OK",
      "vis_m": 9999,
      "fzfg": false,
      "metar_trigger": false,
      "taf_trigger": false,
      "metar": "METAR ESSA 121020Z 35015KT CAVOK 17/11 Q1022 NOSIG",
      "taf": "TAF ESSA 120830Z 1209/1309 01015KT CAVOK"
    },
    {
      "icao": "EYKA",
      "alert": "OK",
      "vis_m": 9999,
      "fzfg": false,
      "metar_trigger": false,
      "taf_trigger": false,
      "metar": "METAR EYKA 121020Z 34005KT 300V060 9999 SCT026 20/15 Q1014",
      "taf": "TAF EYKA 120520Z 1206/1306 VRB03KT 9000 BKN010 BKN020"
    },
    {
      "icao": "EYPA",
      "alert": "OK",
      "vis_m": 9999,
      "fzfg": false,
      "metar_trigger": false,
      "taf_trigger": false,
      "metar": "METAR EYPA 121020Z VRB04KT 9999 OVC003 19/17 Q1016",
      "taf": ""
    },
    {
      "icao": "EYVI",
      "alert": "OK",
      "vis_m": 9999,
      "fzfg": false,
      "metar_trigger": false,
      "taf_trigger": false,
      "metar": "METAR EYVI 121020Z 29007KT 250V320 9999 BKN022 19/15 Q1014 NOSIG",
      "taf": "TAF EYVI 120522Z 1206/1306 32008KT 9000 BKN005"
    },
    {
      "icao": "GCFV",
      "alert": "OK",
      "vis_m": 9999,
      "fzfg": false,
      "metar_trigger": false,
      "taf_trigger": false,
      "metar": "METAR GCFV 121030Z 06010KT 9999 FEW027 26/17 Q1017",
      "taf": "TAF GCFV 120800Z 1209/1309 06010KT 9999 FEW025 TX25/1214Z TN20/1306Z"
    },
    {
      "icao": "GCLP",
      "alert": "OK",
      "vis_m": 9999,
      "fzfg": false,
      "metar_trigger": false,
      "taf_trigger": false,
      "metar": "METAR GCLP 121030Z 03017KT 9999 FEW030 26/16 Q1017 NOSIG",
      "taf": "TAF GCLP 120800Z 1209/1309 01018KT 9999 SCT030 TX25/1214Z TN19/1306Z"
    },
    {
      "icao": "GCTS",
      "alert": "OK",
      "vis_m": 9999,
      "fzfg": false,
      "metar_trigger": false,
      "taf_trigger": false,
      "metar": "METAR GCTS 121030Z 11009KT 080V160 9999 SCT035 25/16 Q1018 NOSIG",
      "taf": "TAF GCTS 120800Z 1209/1309 11010KT 9999 SCT030 TX26/1214Z TN19/1306Z"
    },
    {
      "icao": "GMAD",
      "alert": "OK",
      "vis_m": 9999,
      "fzfg": false,
      "metar_trigger": false,
      "taf_trigger": false,
      "metar": "METAR GMAD 121030Z 24007KT 210V280 9999 SCT026 26/18 Q1015 NOSIG",
      "taf": "TAF GMAD 120500Z 1206/1312 20004KT 8000 SCT010 BKN016"
    },
    {
      "icao": "GMMN",
      "alert": "OK",
      "vis_m": 9999,
      "fzfg": false,
      "metar_trigger": false,
      "taf_trigger": false,
      "metar": "METAR GMMN 121030Z 28006KT 240V360 9999 BKN040 28/18 Q1016 NOSIG",
      "taf": "TAF GMMN 120500Z 1206/1312 22003KT 9999 SCT020"
    },
    {
      "icao": "GMMX",
      "alert": "OK",
      "vis_m": 8000,
      "fzfg": false,
      "metar_trigger": false,
      "taf_trigger": false,
      "metar": "METAR GMMX 121030Z VRB02KT 8000 BKN040 27/17 Q1016 NOSIG",
      "taf": "TAF GMMX 120500Z 1206/1312 06006KT 8000 SCT030"
    },
    {
      "icao": "HEGN",
      "alert": "OK",
      "vis_m": 9999,
      "fzfg": false,
      "metar_trigger": false,
      "taf_trigger": false,
      "metar": "METAR HEGN 121000Z 36015KT CAVOK 34/15 Q1007 NOSIG",
      "taf": ""
    },
    {
      "icao": "HEMA",
      "alert": "OK",
      "vis_m": 9999,
      "fzfg": false,
      "metar_trigger": false,
      "taf_trigger": false,
      "metar": "METAR HEMA 121000Z 33016KT CAVOK 35/14 Q1007 NOSIG",
      "taf": ""
    },
    {
      "icao": "HESH",
      "alert": "OK",
      "vis_m": 9999,
      "fzfg": false,
      "metar_trigger": false,
      "taf_trigger": false,
      "metar": "METAR HESH 121000Z 36014KT CAVOK 36/16 Q1006 NOSIG",
      "taf": ""
    },
    {
      "icao": "HESX",
      "alert": "OK",
      "vis_m": 9999,
      "fzfg": false,
      "metar_trigger": false,
      "taf_trigger": false,
      "metar": "METAR HESX 121000Z 01010KT CAVOK 32/10 Q1011 NOSIG",
      "taf": ""
    },
    {
      "icao": "LATI",
      "alert": "OK",
      "vis_m": null,
      "fzfg": false,
      "metar_trigger": false,
      "taf_trigger": false,
      "metar": "",
      "taf": "TAF LATI 120500Z 1206/1306 VRB05KT CAVOK TX35/1212Z TN18/1304Z"
    },
    {
      "icao": "LBPD",
      "alert": "OK",
      "vis_m": 9999,
      "fzfg": false,
      "metar_trigger": false,
      "taf_trigger": false,
      "metar": "METAR LBPD 121030Z AUTO 02003KT 300V070 9999 NCD 29/12 Q1015 NOSIG",
      "taf": "TAF LBPD 120500Z 1206/1306 34010KT 9999 SCT070"
    },
    {
      "icao": "LBSF",
      "alert": "OK",
      "vis_m": 9999,
      "fzfg": false,
      "metar_trigger": false,
      "taf_trigger": false,
      "metar": "METAR LBSF 121030Z 26006KT 210V010 9999 SCT066 29/12 Q1016 NOSIG",
      "taf": "TAF LBSF 120500Z 1206/1306 VRB03KT 9999 SCT060"
    },
    {
      "icao": "LBWN",
      "alert": "OK",
      "vis_m": 9999,
      "fzfg": false,
      "metar_trigger": false,
      "taf_trigger": false,
      "metar": "METAR LBWN 121030Z AUTO 12010KT 080V150 9999 NCD 29/17 Q1014 NOSIG",
      "taf": "TAF LBWN 120500Z 1206/1306 VRB04KT CAVOK"
    },
    {
      "icao": "LCLK",
      "alert": "OK",
      "vis_m": 9999,
      "fzfg": false,
      "metar_trigger": false,
      "taf_trigger": false,
      "metar": "METAR LCLK 121030Z 18009KT 150V220 9999 FEW012 33/25 Q1008 NOSIG",
      "taf": "TAF LCLK 120530Z 1206/1306 32004KT 9999 FEW010"
    },
    {
      "icao": "LCPH",
      "alert": "OK",
      "vis_m": 9999,
      "fzfg": false,
      "metar_trigger": false,
      "taf_trigger": false,
      "metar": "METAR LCPH 121030Z 27012KT 250V320 9999 FEW017 29/25 Q1008 NOSIG",
      "taf": "TAF LCPH 120530Z 1206/1306 02006KT 9999 FEW012"
    },
    {
      "icao": "LEAL",
      "alert": "OK",
      "vis_m": 9999,
      "fzfg": false,
      "metar_trigger": false,
      "taf_trigger": false,
      "metar": "METAR LEAL 121030Z 09012KT 060V120 9999 FEW040 31/22 Q1013 NOSIG",
      "taf": "TAF LEAL 120500Z 1206/1306 VRB03KT 9999 FEW015 TX33/1212Z TN22/1306Z"
    },
    {
      "icao": "LEBB",
      "alert": "OK",
      "vis_m": 9999,
      "fzfg": false,
      "metar_trigger": false,
      "taf_trigger": false,
      "metar": "METAR LEBB 121030Z VRB02KT 9999 FEW030 34/16 Q1010 NOSIG",
      "taf": ""
    },
    {
      "icao": "LEBL",
      "alert": "OK",
      "vis_m": 9999,
      "fzfg": false,
      "metar_trigger": false,
      "taf_trigger": false,
      "metar": "METAR LEBL 121030Z 07013KT 9999 SCT015 28/22 Q1015 NOSIG",
      "taf": "TAF LEBL 120500Z 1206/1306 07009KT 9999 FEW020 TX31/1212Z TN24/1206Z"
    },
    {
      "icao": "LECH",
      "alert": "OK",
      "vis_m": 9000,
      "fzfg": false,
      "metar_trigger": false,
      "taf_trigger": false,
      "metar": "METAR LECH 121030Z AUTO 09012KT 020V130 9000 NCD 29/20 Q1016",
      "taf": "TAF LECH 120500Z 1206/1306 VRB04KT CAVOK TX34/1212Z TN19/1206Z"
    },
    {
      "icao": "LEMD",
      "alert": "OK",
      "vis_m": 9999,
      "fzfg": false,
      "metar_trigger": false,
      "taf_trigger": false,
      "metar": "METAR LEMD 121030Z 16008G18KT 120V210 CAVOK 29/12 Q1014 NOSIG",
      "taf": "TAF LEMD 120500Z 1206/1312 VRB05KT CAVOK TX35/1216Z TN19/1305Z"
    },
    {
      "icao": "LEMG",
      "alert": "OK",
      "vis_m": 9999,
      "fzfg": false,
      "metar_trigger": false,
      "taf_trigger": false,
      "metar": "METAR LEMG 121030Z 14006KT 110V170 CAVOK 28/16 Q1013 NOSIG",
      "taf": "TAF LEMG 120500Z 1206/1306 29012KT CAVOK TX33/1214Z TN21/1305Z"
    },
    {
      "icao": "LEVC",
      "alert": "OK",
      "vis_m": 9999,
      "fzfg": false,
      "metar_trigger": false,
      "taf_trigger": false,
      "metar": "METAR LEVC 121030Z 08011KT 040V120 9999 FEW027 SCT040 30/21 Q1014 NOSIG",
      "taf": "TAF LEVC 120500Z 1206/1306 VRB03KT 9999 FEW015 TX32/1214Z TN22/1306Z"
    },
    {
      "icao": "LEXJ",
      "alert": "OK",
      "vis_m": 9999,
      "fzfg": false,
      "metar_trigger": false,
      "taf_trigger": false,
      "metar": "METAR LEXJ 121030Z VRB02KT 9999 SCT065 26/22 Q1009",
      "taf": ""
    },
    {
      "icao": "LEZG",
      "alert": "OK",
      "vis_m": 9999,
      "fzfg": false,
      "metar_trigger": false,
      "taf_trigger": false,
      "metar": "METAR LEZG 121030Z 12010KT 080V160 CAVOK 32/17 Q1013 NOSIG",
      "taf": "TAF LEZG 120500Z 1206/1306 10010KT CAVOK TX38/1215Z TN22/1306Z"
    },
    {
      "icao": "LEZL",
      "alert": "OK",
      "vis_m": 9999,
      "fzfg": false,
      "metar_trigger": false,
      "taf_trigger": false,
      "metar": "METAR LEZL 121030Z 30005KT 200V350 9999 FEW040 26/15 Q1014 NOSIG",
      "taf": "TAF LEZL 120800Z 1209/1309 VRB03KT CAVOK TX30/1215Z TN18/1305Z"
    },
    {
      "icao": "LFBD",
      "alert": "OK",
      "vis_m": 9999,
      "fzfg": false,
      "metar_trigger": false,
      "taf_trigger": false,
      "metar": "METAR LFBD 121030Z AUTO 09012KT 060V120 CAVOK 35/15 Q1012 NOSIG",
      "taf": "TAF LFBD 120500Z 1206/1312 10008KT CAVOK TX41/1215Z TN24/1305Z"
    },
    {
      "icao": "LFLL",
      "alert": "OK",
      "vis_m": 9999,
      "fzfg": false,
      "metar_trigger": false,
      "taf_trigger": false,
      "metar": "METAR LFLL 121030Z VRB03KT CAVOK 33/14 Q1016 NOSIG",
      "taf": "TAF LFLL 120500Z 1206/1312 14005KT CAVOK"
    },
    {
      "icao": "LFLS",
      "alert": "OK",
      "vis_m": 9999,
      "fzfg": false,
      "metar_trigger": false,
      "taf_trigger": false,
      "metar": "METAR LFLS 121030Z AUTO VRB03KT CAVOK 32/15 Q1017 NOSIG",
      "taf": "TAF LFLS 120800Z 1209/1309 09007KT CAVOK"
    },
    {
      "icao": "LFMN",
      "alert": "OK",
      "vis_m": 9999,
      "fzfg": false,
      "metar_trigger": false,
      "taf_trigger": false,
      "metar": "METAR LFMN 121030Z 10010KT 9999 FEW020 29/23 Q1016 NOSIG",
      "taf": "TAF LFMN 120800Z 1209/1315 12007KT 9999 FEW020"
    },
    {
      "icao": "LFOB",
      "alert": "OK",
      "vis_m": 9999,
      "fzfg": false,
      "metar_trigger": false,
      "taf_trigger": false,
      "metar": "METAR LFOB 121030Z AUTO 07015KT 9999 FEW012 31/14 Q1020 BECMG 05012G22KT",
      "taf": "TAF LFOB 120500Z 1206/1306 VRB03KT CAVOK"
    },
    {
      "icao": "LFPO",
      "alert": "OK",
      "vis_m": 9999,
      "fzfg": false,
      "metar_trigger": false,
      "taf_trigger": false,
      "metar": "METAR LFPO 121030Z 06012KT 020V100 CAVOK 32/12 Q1018 NOSIG",
      "taf": "TAF LFPO 120500Z 1206/1312 04010KT CAVOK"
    },
    {
      "icao": "LFSB",
      "alert": "OK",
      "vis_m": 9999,
      "fzfg": false,
      "metar_trigger": false,
      "taf_trigger": false,
      "metar": "METAR LFSB 121030Z AUTO 36006KT 260V040 CAVOK 31/12 Q1019 NOSIG",
      "taf": "TAF LFSB 120507Z 1206/1306 34005KT CAVOK"
    },
    {
      "icao": "LGAV",
      "alert": "OK",
      "vis_m": 9999,
      "fzfg": false,
      "metar_trigger": false,
      "taf_trigger": false,
      "metar": "METAR LGAV 121020Z 06013KT CAVOK 32/10 Q1014 NOSIG",
      "taf": "TAF LGAV 120500Z 1206/1306 05010KT 9999 FEW025"
    },
    {
      "icao": "LGTS",
      "alert": "OK",
      "vis_m": 9999,
      "fzfg": false,
      "metar_trigger": false,
      "taf_trigger": false,
      "metar": "METAR LGTS 121020Z 27007KT 9999 FEW018 29/18 Q1014 NOSIG",
      "taf": "TAF LGTS 120500Z 1206/1306 13003KT CAVOK"
    },
    {
      "icao": "LHBP",
      "alert": "OK",
      "vis_m": 9999,
      "fzfg": false,
      "metar_trigger": false,
      "taf_trigger": false,
      "metar": "METAR LHBP 121030Z 31011KT CAVOK 25/09 Q1017 NOSIG",
      "taf": "TAF LHBP 120515Z 1206/1306 36004KT CAVOK"
    },
    {
      "icao": "LHDC",
      "alert": "OK",
      "vis_m": 9999,
      "fzfg": false,
      "metar_trigger": false,
      "taf_trigger": false,
      "metar": "METAR LHDC 121015Z AUTO VRB04KT CAVOK 24/10 Q1015 NOSIG",
      "taf": "TAF LHDC 120815Z 1209/1218 05008KT CAVOK"
    },
    {
      "icao": "LIBD",
      "alert": "OK",
      "vis_m": 9999,
      "fzfg": false,
      "metar_trigger": false,
      "taf_trigger": false,
      "metar": "METAR LIBD 121020Z VRB04KT 9999 FEW020 29/20 Q1015",
      "taf": "TAF LIBD 120500Z 1206/1306 21005KT CAVOK"
    },
    {
      "icao": "LIBG",
      "alert": "OK",
      "vis_m": 9999,
      "fzfg": false,
      "metar_trigger": false,
      "taf_trigger": false,
      "metar": "METAR LIBG 121020Z AUTO 19004KT 120V260 9999 FEW033/// 32/22 Q1014",
      "taf": "TAF LIBG 120500Z 1206/1306 VRB05KT CAVOK"
    },
    {
      "icao": "LIBP",
      "alert": "OK",
      "vis_m": 9999,
      "fzfg": false,
      "metar_trigger": false,
      "taf_trigger": false,
      "metar": "METAR LIBP 121020Z AUTO 06007KT 040V100 9999 FEW160/// 28/19 Q1016",
      "taf": "TAF LIBP 120500Z 1206/1306 VRB05KT CAVOK"
    },
    {
      "icao": "LIBR",
      "alert": "OK",
      "vis_m": 9999,
      "fzfg": false,
      "metar_trigger": false,
      "taf_trigger": false,
      "metar": "METAR LIBR 121020Z 09006KT 040V140 9999 FEW045 30/22 Q1015",
      "taf": "TAF LIBR 120500Z 1206/1306 18007KT CAVOK"
    },
    {
      "icao": "LICA",
      "alert": "OK",
      "vis_m": 9999,
      "fzfg": false,
      "metar_trigger": false,
      "taf_trigger": false,
      "metar": "METAR LICA 121020Z AUTO VRB02KT 9999 NCD 33/17 Q1014",
      "taf": "TAF LICA 120500Z 1206/1306 08006KT CAVOK"
    },
    {
      "icao": "LICC",
      "alert": "OK",
      "vis_m": 9999,
      "fzfg": false,
      "metar_trigger": false,
      "taf_trigger": false,
      "metar": "METAR LICC 121020Z 24013KT 210V270 CAVOK 36/25 Q1014",
      "taf": "TAF LICC 120500Z 1206/1306 26008KT CAVOK"
    },
    {
      "icao": "LICJ",
      "alert": "OK",
      "vis_m": 9999,
      "fzfg": false,
      "metar_trigger": false,
      "taf_trigger": false,
      "metar": "METAR LICJ 121020Z 05015KT CAVOK 31/18 Q1014",
      "taf": "TAF LICJ 120500Z 1206/1306 VRB05KT CAVOK"
    },
    {
      "icao": "LIMC",
      "alert": "OK",
      "vis_m": 9999,
      "fzfg": false,
      "metar_trigger": false,
      "taf_trigger": false,
      "metar": "METAR LIMC 121020Z 13004KT 060V180 CAVOK 30/17 Q1017 NOSIG",
      "taf": "TAF LIMC 120500Z 1206/1312 VRB04KT CAVOK"
    },
    {
      "icao": "LIME",
      "alert": "OK",
      "vis_m": 9999,
      "fzfg": false,
      "metar_trigger": false,
      "taf_trigger": false,
      "metar": "METAR LIME 121020Z VRB03KT CAVOK 28/18 Q1017 NOSIG",
      "taf": "TAF LIME 120500Z 1206/1306 VRB04KT CAVOK"
    },
    {
      "icao": "LIMF",
      "alert": "OK",
      "vis_m": 9999,
      "fzfg": false,
      "metar_trigger": false,
      "taf_trigger": false,
      "metar": "METAR LIMF 121020Z VRB03KT CAVOK 28/17 Q1018",
      "taf": "TAF LIMF 120500Z 1206/1306 VRB05KT CAVOK"
    },
    {
      "icao": "LIMJ",
      "alert": "OK",
      "vis_m": 9999,
      "fzfg": false,
      "metar_trigger": false,
      "taf_trigger": false,
      "metar": "METAR LIMJ 121020Z 21005KT CAVOK 28/23 Q1016",
      "taf": "TAF LIMJ 120500Z 1206/1306 VRB06KT CAVOK"
    },
    {
      "icao": "LIPE",
      "alert": "OK",
      "vis_m": 9999,
      "fzfg": false,
      "metar_trigger": false,
      "taf_trigger": false,
      "metar": "METAR LIPE 121020Z 10004KT 050V150 CAVOK 29/21 Q1016",
      "taf": "TAF LIPE 120500Z 1206/1306 VRB06KT CAVOK"
    },
    {
      "icao": "LIPH",
      "alert": "OK",
      "vis_m": 9999,
      "fzfg": false,
      "metar_trigger": false,
      "taf_trigger": false,
      "metar": "METAR LIPH 121020Z 10005KT 050V170 CAVOK 30/18 Q1016",
      "taf": "TAF LIPH 120500Z 1206/1306 VRB06KT CAVOK"
    },
    {
      "icao": "LIPQ",
      "alert": "OK",
      "vis_m": 9999,
      "fzfg": false,
      "metar_trigger": false,
      "taf_trigger": false,
      "metar": "METAR LIPQ 121020Z AUTO 22007KT 190V260 9999 NCD 28/20 Q1016",
      "taf": "TAF LIPQ 120500Z 1206/1306 VRB05KT CAVOK"
    },
    {
      "icao": "LIPR",
      "alert": "OK",
      "vis_m": 9999,
      "fzfg": false,
      "metar_trigger": false,
      "taf_trigger": false,
      "metar": "METAR LIPR 121020Z 08006KT 030V130 CAVOK 27/19 Q1016",
      "taf": "TAF LIPR 120500Z 1206/1306 30006KT CAVOK"
    },
    {
      "icao": "LIPX",
      "alert": "OK",
      "vis_m": 9999,
      "fzfg": false,
      "metar_trigger": false,
      "taf_trigger": false,
      "metar": "METAR LIPX 121020Z VRB04KT 9999 SCT025 30/21 Q1016",
      "taf": "TAF LIPX 120500Z 1206/1306 VRB04KT CAVOK"
    },
    {
      "icao": "LIPY",
      "alert": "OK",
      "vis_m": 9999,
      "fzfg": false,
      "metar_trigger": false,
      "taf_trigger": false,
      "metar": "METAR LIPY 121020Z AUTO 06010KT 9999 NCD 29/16 Q1016",
      "taf": "TAF LIPY 120500Z 1206/1306 33006KT CAVOK"
    },
    {
      "icao": "LIPZ",
      "alert": "OK",
      "vis_m": 9999,
      "fzfg": false,
      "metar_trigger": false,
      "taf_trigger": false,
      "metar": "METAR LIPZ 121020Z 09009KT CAVOK 28/20 Q1016 NOSIG",
      "taf": "TAF LIPZ 120500Z 1206/1312 VRB05KT CAVOK"
    },
    {
      "icao": "LIRF",
      "alert": "OK",
      "vis_m": 9999,
      "fzfg": false,
      "metar_trigger": false,
      "taf_trigger": false,
      "metar": "METAR LIRF 121020Z 24011KT CAVOK 31/20 Q1015 NOSIG",
      "taf": "TAF LIRF 120500Z 1206/1312 VRB05KT CAVOK"
    },
    {
      "icao": "LIRN",
      "alert": "OK",
      "vis_m": 9999,
      "fzfg": false,
      "metar_trigger": false,
      "taf_trigger": false,
      "metar": "METAR LIRN 121020Z VRB04KT CAVOK 33/11 Q1015 NOSIG",
      "taf": "TAF LIRN 120500Z 1206/1306 VRB05KT CAVOK"
    },
    {
      "icao": "LIRP",
      "alert": "OK",
      "vis_m": 9999,
      "fzfg": false,
      "metar_trigger": false,
      "taf_trigger": false,
      "metar": "METAR LIRP 121015Z 23004KT CAVOK 32/18 Q1015 NOSIG",
      "taf": "TAF LIRP 120500Z 1206/1306 VRB03KT CAVOK"
    },
    {
      "icao": "LIRZ",
      "alert": "OK",
      "vis_m": 9999,
      "fzfg": false,
      "metar_trigger": false,
      "taf_trigger": false,
      "metar": "METAR LIRZ 121020Z AUTO VRB03KT 9999 NCD 31/13 Q1016",
      "taf": "TAF LIRZ 120500Z 1206/1306 VRB05KT 9999 FEW040"
    },
    {
      "icao": "LJLJ",
      "alert": "OK",
      "vis_m": 9999,
      "fzfg": false,
      "metar_trigger": false,
      "taf_trigger": false,
      "metar": "METAR LJLJ 121030Z 10005KT 060V140 9999 FEW040 25/17 Q1018 NOSIG",
      "taf": ""
    },
    {
      "icao": "LKMT",
      "alert": "OK",
      "vis_m": 9999,
      "fzfg": false,
      "metar_trigger": false,
      "taf_trigger": false,
      "metar": "METAR LKMT 121030Z 08002KT 9999 -RA OVC029 17/12 Q1019 NOSIG",
      "taf": "TAF LKMT 120500Z 1206/1306 22003KT CAVOK"
    },
    {
      "icao": "LKPR",
      "alert": "OK",
      "vis_m": 9999,
      "fzfg": false,
      "metar_trigger": false,
      "taf_trigger": false,
      "metar": "METAR LKPR 121030Z 31010KT CAVOK 24/12 Q1021 NOSIG",
      "taf": "TAF LKPR 120800Z 1209/1315 32009KT CAVOK"
    },
    {
      "icao": "LLBG",
      "alert": "OK",
      "vis_m": 9999,
      "fzfg": false,
      "metar_trigger": false,
      "taf_trigger": false,
      "metar": "METAR LLBG 121020Z 29009KT 250V320 CAVOK 31/19 Q1009 NOSIG",
      "taf": "TAF LLBG 120503Z 1206/1306 VRB04KT 9999 SCT023 TX32/1211Z TN23/1304Z"
    },
    {
      "icao": "LMML",
      "alert": "OK",
      "vis_m": 9999,
      "fzfg": false,
      "metar_trigger": false,
      "taf_trigger": false,
      "metar": "METAR LMML 121045Z 19008KT 160V230 9999 FEW015 31/22 Q1017 NOSIG",
      "taf": "TAF LMML 120500Z 1206/1306 19009KT 9999 FEW015"
    },
    {
      "icao": "LOWW",
      "alert": "OK",
      "vis_m": 9999,
      "fzfg": false,
      "metar_trigger": false,
      "taf_trigger": false,
      "metar": "METAR LOWW 121020Z 31018KT CAVOK 26/07 Q1019 NOSIG",
      "taf": "TAF LOWW 120815Z 1209/1315 34012KT CAVOK TX30/1314Z TN19/1303Z"
    },
    {
      "icao": "LPFR",
      "alert": "OK",
      "vis_m": 9999,
      "fzfg": false,
      "metar_trigger": false,
      "taf_trigger": false,
      "metar": "METAR LPFR 121030Z 22007KT 190V250 9999 FEW020 24/18 Q1015",
      "taf": "TAF LPFR 120500Z 1206/1306 09005KT 9999 FEW020"
    },
    {
      "icao": "LPMA",
      "alert": "OK",
      "vis_m": 9999,
      "fzfg": false,
      "metar_trigger": false,
      "taf_trigger": false,
      "metar": "METAR LPMA 121030Z 12004KT 090V160 9999 FEW016 SCT033 24/18 Q1017",
      "taf": "TAF LPMA 120500Z 1206/1306 VRB05KT 9999 SCT015"
    },
    {
      "icao": "LPPR",
      "alert": "OK",
      "vis_m": 9999,
      "fzfg": false,
      "metar_trigger": false,
      "taf_trigger": false,
      "metar": "METAR LPPR 121030Z 20011KT 170V240 9999 FEW023 SCT048 22/15 Q1013",
      "taf": "TAF LPPR 120500Z 1206/1306 19010KT 9999 BKN030"
    },
    {
      "icao": "LPPS",
      "alert": "OK",
      "vis_m": 9999,
      "fzfg": false,
      "metar_trigger": false,
      "taf_trigger": false,
      "metar": "METAR LPPS 121030Z 28011KT 9999 FEW012 22/18 Q1017",
      "taf": "TAF LPPS 120500Z 1206/1312 30012KT 9999 SCT015"
    },
    {
      "icao": "LPPT",
      "alert": "OK",
      "vis_m": 9999,
      "fzfg": false,
      "metar_trigger": false,
      "taf_trigger": false,
      "metar": "METAR LPPT 121030Z 22009KT 9999 SCT020 SCT045 23/16 Q1014 NOSIG",
      "taf": "TAF LPPT 120500Z 1206/1312 14005KT 9999 SCT030"
    },
    {
      "icao": "LQBK",
      "alert": "OK",
      "vis_m": 9999,
      "fzfg": false,
      "metar_trigger": false,
      "taf_trigger": false,
      "metar": "METAR LQBK 121030Z 32007KT 240V360 9999 SCT045 28/13 Q1017 NOSIG",
      "taf": "TAF LQBK 120500Z 1206/1306 24005KT CAVOK TX28/1214Z TN15/1303Z"
    },
    {
      "icao": "LQSA",
      "alert": "OK",
      "vis_m": 9999,
      "fzfg": false,
      "metar_trigger": false,
      "taf_trigger": false,
      "metar": "METAR LQSA 121030Z VRB02KT 9999 FEW030 24/16 Q1018 NOSIG",
      "taf": "TAF LQSA 120500Z 1206/1306 VRB02KT 9999 BKN050 TX25/1212Z TN14/1303Z"
    },
    {
      "icao": "LQTZ",
      "alert": "OK",
      "vis_m": 9999,
      "fzfg": false,
      "metar_trigger": false,
      "taf_trigger": false,
      "metar": "METAR LQTZ 121030Z VRB05KT 9999 FEW045 27/17 Q1017",
      "taf": "TAF LQTZ 120500Z 1206/1306 27005KT 9999 SCT045 TX29/1213Z TN11/1303Z"
    },
    {
      "icao": "LRBC",
      "alert": "OK",
      "vis_m": 9999,
      "fzfg": false,
      "metar_trigger": false,
      "taf_trigger": false,
      "metar": "METAR LRBC 121030Z 18010KT 9999 SCT066 23/13 Q1015",
      "taf": "TAF LRBC 120800Z 1209/1218 VRB04KT CAVOK"
    },
    {
      "icao": "LRBS",
      "alert": "OK",
      "vis_m": 9999,
      "fzfg": false,
      "metar_trigger": false,
      "taf_trigger": false,
      "metar": "METAR LRBS 121030Z VRB02KT CAVOK 27/15 Q1014 NOSIG",
      "taf": "TAF LRBS 120500Z 1206/1306 07010KT CAVOK"
    },
    {
      "icao": "LRBV",
      "alert": "OK",
      "vis_m": 9999,
      "fzfg": false,
      "metar_trigger": false,
      "taf_trigger": false,
      "metar": "METAR LRBV 121030Z 29009KT 240V330 9999 FEW060 26/08 Q1016",
      "taf": "TAF LRBV 120800Z 1209/1218 VRB04KT 9999 SCT040"
    },
    {
      "icao": "LRCL",
      "alert": "OK",
      "vis_m": 9999,
      "fzfg": false,
      "metar_trigger": false,
      "taf_trigger": false,
      "metar": "METAR LRCL 121030Z 26007KT 220V320 9999 -TSRA FEW034 SCT040CB BKN052 20/14 Q1016",
      "taf": "TAF LRCL 120800Z 1209/1218 VRB04KT CAVOK"
    },
    {
      "icao": "LRCV",
      "alert": "OK",
      "vis_m": 9999,
      "fzfg": false,
      "metar_trigger": false,
      "taf_trigger": false,
      "metar": "METAR LRCV 121030Z VRB03KT 9999 FEW048 29/16 Q1015",
      "taf": "TAF LRCV 120800Z 1209/1218 VRB04KT CAVOK"
    },
    {
      "icao": "LRIA",
      "alert": "OK",
      "vis_m": 9999,
      "fzfg": false,
      "metar_trigger": false,
      "taf_trigger": false,
      "metar": "METAR LRIA 121030Z VRB03KT CAVOK 24/10 Q1015",
      "taf": "TAF LRIA 120800Z 1209/1218 VRB04KT CAVOK"
    },
    {
      "icao": "LROP",
      "alert": "OK",
      "vis_m": 9999,
      "fzfg": false,
      "metar_trigger": false,
      "taf_trigger": false,
      "metar": "METAR LROP 121030Z 08005KT 360V130 CAVOK 28/15 Q1015 NOSIG",
      "taf": "TAF LROP 120500Z 1206/1306 07010KT CAVOK"
    },
    {
      "icao": "LRSB",
      "alert": "OK",
      "vis_m": 9999,
      "fzfg": false,
      "metar_trigger": false,
      "taf_trigger": false,
      "metar": "METAR LRSB 121030Z 29013KT 9999 SCT042 27/11 Q1015",
      "taf": "TAF LRSB 120500Z 1206/1306 VRB04KT CAVOK"
    },
    {
      "icao": "LRSM",
      "alert": "OK",
      "vis_m": 9999,
      "fzfg": false,
      "metar_trigger": false,
      "taf_trigger": false,
      "metar": "METAR LRSM 121030Z AUTO 02007KT 9999 FEW110/// 23/12 Q1016",
      "taf": ""
    },
    {
      "icao": "LRSV",
      "alert": "OK",
      "vis_m": 9999,
      "fzfg": false,
      "metar_trigger": false,
      "taf_trigger": false,
      "metar": "METAR LRSV 121030Z 03005KT 330V070 9999 SCT043 22/11 Q1016",
      "taf": "TAF LRSV 120800Z 1209/1218 VRB04KT CAVOK"
    },
    {
      "icao": "LRTM",
      "alert": "OK",
      "vis_m": 9999,
      "fzfg": false,
      "metar_trigger": false,
      "taf_trigger": false,
      "metar": "METAR LRTM 121030Z VRB05KT 9999 FEW040 FEW048CB 25/15 Q1015",
      "taf": "TAF LRTM 120800Z 1209/1218 VRB04KT CAVOK"
    },
    {
      "icao": "LRTR",
      "alert": "OK",
      "vis_m": 9999,
      "fzfg": false,
      "metar_trigger": false,
      "taf_trigger": false,
      "metar": "METAR LRTR 121030Z 24005KT 200V280 CAVOK 23/17 Q1017 NOSIG",
      "taf": "TAF LRTR 120500Z 1206/1306 33010KT 9999 SCT045"
    },
    {
      "icao": "LTAC",
      "alert": "OK",
      "vis_m": 9999,
      "fzfg": false,
      "metar_trigger": false,
      "taf_trigger": false,
      "metar": "METAR LTAC 121020Z VRB04KT CAVOK 29/07 Q1016 NOSIG RMK RWY21C 34008KT 280V020 RWY03L VRB03KT RWY21R VRB04KT RWY03R VRB04KT RWY21L VRB06KT",
      "taf": "TAF LTAC 120440Z 1206/1306 VRB02KT CAVOK"
    },
    {
      "icao": "LTFM",
      "alert": "OK",
      "vis_m": 9999,
      "fzfg": false,
      "metar_trigger": false,
      "taf_trigger": false,
      "metar": "METAR LTFM 121020Z 04012KT 010V070 CAVOK 27/14 Q1016 NOSIG RMK RWY17L 04011KT RWY34L 05011KT 010V070 RWY16R 03012KT 360V060 RWY36 05012KT 020V080 RWY18 05010KT",
      "taf": "TAF LTFM 120440Z 1206/1312 VRB02KT 9999 FEW013"
    },
    {
      "icao": "LUKK",
      "alert": "OK",
      "vis_m": 9999,
      "fzfg": false,
      "metar_trigger": false,
      "taf_trigger": false,
      "metar": "METAR LUKK 121030Z VRB06KT CAVOK 26/11 Q1015 NOSIG",
      "taf": "TAF LUKK 120515Z 1206/1306 VRB06KT CAVOK"
    },
    {
      "icao": "LWOH",
      "alert": "OK",
      "vis_m": null,
      "fzfg": false,
      "metar_trigger": false,
      "taf_trigger": false,
      "metar": "",
      "taf": "TAF LWOH 120830Z 1209/1309 16006KT 9999 FEW040"
    },
    {
      "icao": "LWSK",
      "alert": "OK",
      "vis_m": null,
      "fzfg": false,
      "metar_trigger": false,
      "taf_trigger": false,
      "metar": "",
      "taf": "TAF LWSK 120830Z 1209/1309 VRB02KT CAVOK"
    },
    {
      "icao": "LYBE",
      "alert": "OK",
      "vis_m": 9999,
      "fzfg": false,
      "metar_trigger": false,
      "taf_trigger": false,
      "metar": "METAR LYBE 121030Z 17006KT 9999 FEW030 23/17 Q1017 NOSIG",
      "taf": "TAF LYBE 120500Z 1206/1306 24006KT CAVOK TX28/1214Z TN16/1303Z"
    },
    {
      "icao": "LYNI",
      "alert": "OK",
      "vis_m": 9999,
      "fzfg": false,
      "metar_trigger": false,
      "taf_trigger": false,
      "metar": "METAR LYNI 121030Z 32016G28KT 9999 VCSH FEW033TCU SCT040 BKN083 24/18 Q1016 TEMPO TS FEW033CB SCT040 BKN083",
      "taf": "TAF LYNI 120500Z 1206/1306 35005KT CAVOK TX28/1214Z TN15/1303Z"
    },
    {
      "icao": "LYPG",
      "alert": "OK",
      "vis_m": 9999,
      "fzfg": false,
      "metar_trigger": false,
      "taf_trigger": false,
      "metar": "METAR LYPG 121030Z VRB01KT 9999 FEW050 BKN090 26/17 Q1016 NOSIG",
      "taf": "TAF LYPG 120500Z 1206/1306 18007KT 9999 FEW040 SCT080 TX32/1213Z TN24/1303Z"
    },
    {
      "icao": "LZIB",
      "alert": "OK",
      "vis_m": 9999,
      "fzfg": false,
      "metar_trigger": false,
      "taf_trigger": false,
      "metar": "METAR LZIB 121030Z 32017KT 290V350 CAVOK 26/08 Q1018 NOSIG",
      "taf": "TAF LZIB 120515Z 1206/1306 01005KT CAVOK"
    },
    {
      "icao": "LZKZ",
      "alert": "OK",
      "vis_m": 9999,
      "fzfg": false,
      "metar_trigger": false,
      "taf_trigger": false,
      "metar": "METAR LZKZ 121030Z 35003KT 310V020 9999 -SHRA FEW041TCU 18/13 Q1017 BECMG NSC",
      "taf": ""
    },
    {
      "icao": "LZTT",
      "alert": "OK",
      "vis_m": 9999,
      "fzfg": false,
      "metar_trigger": false,
      "taf_trigger": false,
      "metar": "METAR LZTT 121030Z 28012KT 240V300 9999 SCT013 SCT053 17/11 Q1017 NOSIG",
      "taf": ""
    },
    {
      "icao": "OEJN",
      "alert": "OK",
      "vis_m": 9999,
      "fzfg": false,
      "metar_trigger": false,
      "taf_trigger": false,
      "metar": "METAR OEJN 121000Z 29008KT CAVOK 35/20 Q1005 NOSIG",
      "taf": "TAF OEJN 120500Z 1206/1312 32016KT 9999 FEW040"
    },
    {
      "icao": "OEMA",
      "alert": "OK",
      "vis_m": 9999,
      "fzfg": false,
      "metar_trigger": false,
      "taf_trigger": false,
      "metar": "METAR OEMA 121000Z 14004KT CAVOK 43/M05 Q1009 NOSIG",
      "taf": "TAF OEMA 120500Z 1206/1312 12006KT CAVOK"
    },
    {
      "icao": "OJAI",
      "alert": "OK",
      "vis_m": 5000,
      "fzfg": false,
      "metar_trigger": false,
      "taf_trigger": false,
      "metar": "METAR OJAI 121000Z 29012KT 5000 HZ NSC 32/10 Q1012 NOSIG",
      "taf": "TAF OJAI 120500Z 1206/1312 29010KT 5000 HZ NSC"
    },
    {
      "icao": "OMAA",
      "alert": "OK",
      "vis_m": 9999,
      "fzfg": false,
      "metar_trigger": false,
      "taf_trigger": false,
      "metar": "METAR OMAA 121030Z 29008KT 250V320 CAVOK 42/12 Q0997 NOSIG",
      "taf": "TAF OMAA 120500Z 1206/1312 20005KT 8000 NSC"
    },
    {
      "icao": "OMDB",
      "alert": "OK",
      "vis_m": 9999,
      "fzfg": false,
      "metar_trigger": false,
      "taf_trigger": false,
      "metar": "METAR OMDB 121030Z 28011KT 250V320 CAVOK 40/21 Q0997 NOSIG",
      "taf": "TAF OMDB 120500Z 1206/1312 22008KT 8000 NSC"
    },
    {
      "icao": "UAAA",
      "alert": "OK",
      "vis_m": 9999,
      "fzfg": false,
      "metar_trigger": false,
      "taf_trigger": false,
      "metar": "METAR UAAA 121030Z 19005MPS 160V230 9999 FEW050CB BKN200 36/07 Q1003 NOSIG",
      "taf": "TAF UAAA 120502Z 1206/1306 32003G08MPS 9999 FEW050CB SCT100 TX36/1210Z TN20/1301Z"
    },
    {
      "icao": "UBBB",
      "alert": "OK",
      "vis_m": 9999,
      "fzfg": false,
      "metar_trigger": false,
      "taf_trigger": false,
      "metar": "METAR UBBB 121030Z 35016KT CAVOK 31/20 Q1011 NOSIG",
      "taf": "TAF UBBB 120501Z 1206/1306 33018G28KT 9999 FEW015 TX31/1210Z TN24/1301Z"
    },
    {
      "icao": "UDSG",
      "alert": "OK",
      "vis_m": 9999,
      "fzfg": false,
      "metar_trigger": false,
      "taf_trigger": false,
      "metar": "METAR UDSG 121030Z 07015KT 9999 SCT049CB 26/16 Q1018 NOSIG",
      "taf": "TAF UDSG 120500Z 1206/1306 05006KT 9999 FEW050"
    },
    {
      "icao": "UDYZ",
      "alert": "OK",
      "vis_m": 9999,
      "fzfg": false,
      "metar_trigger": false,
      "taf_trigger": false,
      "metar": "METAR UDYZ 121030Z 21006KT 180V260 9999 FEW046TCU 34/15 Q1010 NOSIG",
      "taf": "TAF UDYZ 120500Z 1206/1306 22006KT 9999 FEW040"
    },
    {
      "icao": "UGKO",
      "alert": "OK",
      "vis_m": 9999,
      "fzfg": false,
      "metar_trigger": false,
      "taf_trigger": false,
      "metar": "METAR UGKO 121030Z 34003KT 290V040 9999 BKN054 25/18 Q1013 NOSIG",
      "taf": "TAF UGKO 120500Z 1206/1306 26006KT 9999 SCT030 BKN070 TX28/1211Z TN21/1302Z"
    }
  ]
}