{
  "ts_utc": "2025-12-28T21:50:42Z",
  "threshold_m": 150,
  "source": "stations_override.txt (ICAO list) + aviationweather.gov (METAR/TAF raw)",
  "station_count": 159,
  "stations": [
    {
      "icao": "BIKF",
      "alert": "OK",
      "vis_m": 350,
      "fzfg": false,
      "metar_trigger": false,
      "taf_trigger": false,
      "metar": "METAR BIKF 282130Z 27004KT 0350 R19/1100U FG FEW007 BKN025 05/05 Q1037",
      "taf": "TAF BIKF 281939Z 2821/2921 20005KT 8000 -DZRA SCT007 BKN015 TX06/2824Z TN03/2908Z"
    },
    {
      "icao": "BKPR",
      "alert": "OK",
      "vis_m": 9999,
      "fzfg": false,
      "metar_trigger": false,
      "taf_trigger": false,
      "metar": "METAR BKPR 282130Z 31006KT CAVOK M01/M07 Q1021 NOSIG",
      "taf": "TAF BKPR 281730Z 2818/2918 35008KT CAVOK"
    },
    {
      "icao": "EBCI",
      "alert": "OK",
      "vis_m": 9999,
      "fzfg": false,
      "metar_trigger": false,
      "taf_trigger": false,
      "metar": "METAR EBCI 282120Z 07007KT CAVOK M01/M03 Q1027 NOSIG",
      "taf": "TAF EBCI 281700Z 2818/2924 06008KT CAVOK"
    },
    {
      "icao": "EDDB",
      "alert": "OK",
      "vis_m": 6000,
      "fzfg": false,
      "metar_trigger": false,
      "taf_trigger": false,
      "metar": "METAR EDDB 282120Z COR AUTO 23010KT 6000 BKN002 M02/M02 Q1023 TEMPO 2400 BR",
      "taf": ""
    },
    {
      "icao": "EDDH",
      "alert": "OK",
      "vis_m": 4400,
      "fzfg": false,
      "metar_trigger": false,
      "taf_trigger": false,
      "metar": "METAR EDDH 282120Z AUTO 26006KT 230V290 4400 BR OVC002 01/01 Q1025 BECMG 6000 SCT003",
      "taf": ""
    },
    {
      "icao": "EDDK",
      "alert": "OK",
      "vis_m": 9999,
      "fzfg": false,
      "metar_trigger": false,
      "taf_trigger": false,
      "metar": "METAR EDDK 282120Z AUTO 07003KT 060V130 CAVOK M04/M05 Q1028 NOSIG",
      "taf": "TAF EDDK 281700Z 2818/2924 VRB02KT 6000 FEW004"
    },
    {
      "icao": "EDDN",
      "alert": "OK",
      "vis_m": 9999,
      "fzfg": false,
      "metar_trigger": false,
      "taf_trigger": false,
      "metar": "METAR EDDN 282120Z AUTO 01002KT CAVOK M06/M07 Q1026",
      "taf": ""
    },
    {
      "icao": "EDDS",
      "alert": "OK",
      "vis_m": 9999,
      "fzfg": false,
      "metar_trigger": false,
      "taf_trigger": false,
      "metar": "METAR EDDS 282120Z AUTO 28001KT CAVOK M04/M05 Q1024",
      "taf": "TAF EDDS 281700Z 2818/2918 36003KT CAVOK"
    },
    {
      "icao": "EDFH",
      "alert": "OK",
      "vis_m": 9999,
      "fzfg": false,
      "metar_trigger": false,
      "taf_trigger": false,
      "metar": "METAR EDFH 282120Z 09007KT CAVOK M03/M07 Q1025",
      "taf": "TAF EDFH 281700Z 2818/2918 08008KT CAVOK"
    },
    {
      "icao": "EDJA",
      "alert": "OK",
      "vis_m": 7000,
      "fzfg": false,
      "metar_trigger": false,
      "taf_trigger": false,
      "metar": "METAR EDJA 282120Z 06007KT 7000 OVC004 M04/M05 Q1023",
      "taf": "TAF EDJA 281700Z 2818/2903 07009KT 9999 BKN006"
    },
    {
      "icao": "EDLW",
      "alert": "OK",
      "vis_m": 7000,
      "fzfg": true,
      "metar_trigger": false,
      "taf_trigger": false,
      "metar": "METAR EDLW 282120Z 00000KT 7000 FEW001 M05/M06 Q1028",
      "taf": "TAF EDLW 281700Z 2818/2918 VRB02KT 0200 FZFG VV000"
    },
    {
      "icao": "EDNY",
      "alert": "OK",
      "vis_m": 9999,
      "fzfg": false,
      "metar_trigger": false,
      "taf_trigger": false,
      "metar": "METAR EDNY 282120Z AUTO 02006KT 9999 // OVC011/// M02/M04 Q1024",
      "taf": "TAF EDNY 281400Z 2815/2824 04008KT CAVOK"
    },
    {
      "icao": "EDSB",
      "alert": "OK",
      "vis_m": 9999,
      "fzfg": false,
      "metar_trigger": false,
      "taf_trigger": false,
      "metar": "METAR EDSB 282120Z 04007KT 010V070 CAVOK 00/M04 Q1025",
      "taf": "TAF EDSB 281700Z 2818/2918 04015KT CAVOK"
    },
    {
      "icao": "EETN",
      "alert": "OK",
      "vis_m": 9999,
      "fzfg": false,
      "metar_trigger": false,
      "taf_trigger": false,
      "metar": "METAR EETN 282150Z 29010KT 260V320 9999 -SHRA BKN016 FEW019CB OVC028 03/00 Q1000 TEMPO 4000 SHRASN",
      "taf": "TAF EETN 281730Z 2818/2918 27010KT 9999 BKN025"
    },
    {
      "icao": "EFTU",
      "alert": "OK",
      "vis_m": 9999,
      "fzfg": false,
      "metar_trigger": false,
      "taf_trigger": false,
      "metar": "METAR EFTU 282120Z AUTO 29009KT 9999 OVC036 03/00 Q1000",
      "taf": "TAF EFTU 282036Z 2821/2921 30009KT 9999 BKN040"
    },
    {
      "icao": "EGBB",
      "alert": "OK",
      "vis_m": 9999,
      "fzfg": false,
      "metar_trigger": false,
      "taf_trigger": false,
      "metar": "METAR EGBB 282120Z 08007KT 050V110 9999 OVC015 05/02 Q1031",
      "taf": "TAF EGBB 281657Z 2818/2918 07008KT 9999 BKN018"
    },
    {
      "icao": "EGGP",
      "alert": "OK",
      "vis_m": 9999,
      "fzfg": false,
      "metar_trigger": false,
      "taf_trigger": false,
      "metar": "METAR EGGP 282120Z 11006KT 9999 OVC021 05/01 Q1033",
      "taf": "TAF EGGP 281654Z 2818/2918 08008KT 9999 BKN020"
    },
    {
      "icao": "EGGW",
      "alert": "OK",
      "vis_m": 9999,
      "fzfg": false,
      "metar_trigger": false,
      "taf_trigger": false,
      "metar": "METAR EGGW 282120Z AUTO 04010KT 9999 OVC020 04/02 Q1030",
      "taf": "TAF EGGW 281655Z 2818/2918 06010KT 9999 SCT016"
    },
    {
      "icao": "EGKK",
      "alert": "OK",
      "vis_m": 9999,
      "fzfg": false,
      "metar_trigger": false,
      "taf_trigger": false,
      "metar": "METAR EGKK 282120Z 04007KT 9999 BKN019 06/03 Q1029",
      "taf": "TAF EGKK 281701Z 2818/2924 04009KT 9999 BKN022"
    },
    {
      "icao": "EGNM",
      "alert": "OK",
      "vis_m": 9999,
      "fzfg": false,
      "metar_trigger": false,
      "taf_trigger": false,
      "metar": "METAR EGNM 282120Z 07006KT 030V110 9999 OVC014 04/01 Q1032",
      "taf": "TAF EGNM 281655Z 2818/2918 04007KT 9999 BKN018"
    },
    {
      "icao": "EGPD",
      "alert": "OK",
      "vis_m": 9999,
      "fzfg": false,
      "metar_trigger": false,
      "taf_trigger": false,
      "metar": "METAR EGPD 282120Z COR AUTO 28007KT 9999 OVC018 03/M00 Q1034 NOSIG",
      "taf": "TAF EGPD 281655Z 2818/2918 29005KT 9999 SCT018"
    },
    {
      "icao": "EGPF",
      "alert": "OK",
      "vis_m": 9999,
      "fzfg": false,
      "metar_trigger": false,
      "taf_trigger": false,
      "metar": "METAR EGPF 282120Z AUTO 08002KT 9999 OVC021 05/01 Q1035",
      "taf": ""
    },
    {
      "icao": "EHBK",
      "alert": "OK",
      "vis_m": 4000,
      "fzfg": false,
      "metar_trigger": false,
      "taf_trigger": false,
      "metar": "METAR EHBK 282125Z AUTO 07005KT 4000 BR NCD M02/M02 Q1028 TEMPO 4000 MIFG",
      "taf": "TAF EHBK 281721Z 2818/2924 03005KT CAVOK"
    },
    {
      "icao": "EHEH",
      "alert": "OK",
      "vis_m": 700,
      "fzfg": true,
      "metar_trigger": false,
      "taf_trigger": false,
      "metar": "METAR EHEH 282125Z AUTO 36003KT 0700 R21/P3000U FZFG SCT000 M05/M05 Q1029 RED TEMPO 0300 FZFG RMK LVP BRAVO TREND REMOTE BY EHWX",
      "taf": "TAF EHEH 281717Z 2818/2924 05005KT CAVOK"
    },
    {
      "icao": "EKBI",
      "alert": "OK",
      "vis_m": 9999,
      "fzfg": false,
      "metar_trigger": false,
      "taf_trigger": false,
      "metar": "METAR EKBI 282120Z AUTO 30011KT 9999 NCD 04/02 Q1022",
      "taf": "TAF EKBI 282027Z 2821/2921 30010KT CAVOK"
    },
    {
      "icao": "EKCH",
      "alert": "OK",
      "vis_m": 9999,
      "fzfg": false,
      "metar_trigger": false,
      "taf_trigger": false,
      "metar": "METAR EKCH 282120Z 30006KT 9999 BKN010 03/02 Q1019 BECMG CAVOK",
      "taf": "TAF EKCH 282027Z 2821/2921 27010KT 9999 BKN014"
    },
    {
      "icao": "ENAL",
      "alert": "OK",
      "vis_m": 9999,
      "fzfg": false,
      "metar_trigger": false,
      "taf_trigger": false,
      "metar": "METAR ENAL 282120Z 34011KT 300V010 9999 FEW038 BKN052 05/M02 Q1024",
      "taf": "TAF ENAL 282000Z 2821/2906 34015KT 9999 FEW025 BKN035"
    },
    {
      "icao": "ENBR",
      "alert": "OK",
      "vis_m": 9999,
      "fzfg": false,
      "metar_trigger": false,
      "taf_trigger": false,
      "metar": "METAR ENBR 282120Z 12002KT 9999 FEW003 BKN048 02/01 Q1025 RMK WIND 1200FT 33022KT",
      "taf": "TAF ENBR 281700Z 2818/2918 VRB05KT 9999 -SHRA FEW004 BKN020"
    },
    {
      "icao": "ENGM",
      "alert": "OK",
      "vis_m": 9999,
      "fzfg": false,
      "metar_trigger": false,
      "taf_trigger": false,
      "metar": "METAR ENGM 282120Z 20005KT 160V230 CAVOK M05/M09 Q1014 NOSIG",
      "taf": "TAF ENGM 281700Z 2818/2918 VRB03KT CAVOK"
    },
    {
      "icao": "ENHD",
      "alert": "OK",
      "vis_m": 9999,
      "fzfg": false,
      "metar_trigger": false,
      "taf_trigger": false,
      "metar": "METAR ENHD 282120Z 32014KT 280V340 9999 -DZ FEW015 SCT025 BKN040 07/05 Q1025",
      "taf": "TAF ENHD 281400Z 2815/2823 36015KT 9999 SCT040"
    },
    {
      "icao": "ENTC",
      "alert": "OK",
      "vis_m": 1200,
      "fzfg": false,
      "metar_trigger": false,
      "taf_trigger": false,
      "metar": "METAR ENTC 282120Z 34012KT 1200 R36/P2000N R18/P2000N -SHSN VV014 M04/M06 Q0999 TEMPO 34015G25KT 9999 -SHSN FEW010 BKN025 RMK WIND 2600FT 33041G54KT",
      "taf": "TAF ENTC 281700Z 2818/2918 35015KT 9999 -SHSN FEW015CB BKN030"
    },
    {
      "icao": "ENTO",
      "alert": "OK",
      "vis_m": 9999,
      "fzfg": false,
      "metar_trigger": false,
      "taf_trigger": false,
      "metar": "METAR ENTO 282120Z 27008KT CAVOK 04/M05 Q1017 NOSIG",
      "taf": "TAF ENTO 281700Z 2818/2918 28005KT CAVOK"
    },
    {
      "icao": "ENVA",
      "alert": "OK",
      "vis_m": 9999,
      "fzfg": false,
      "metar_trigger": false,
      "taf_trigger": false,
      "metar": "METAR ENVA 282120Z 31014KT 9999 -RASN VV013 01/M00 Q1016 RMK WIND 670FT 33023G37KT",
      "taf": ""
    },
    {
      "icao": "ENZV",
      "alert": "OK",
      "vis_m": 9999,
      "fzfg": false,
      "metar_trigger": false,
      "taf_trigger": false,
      "metar": "METAR ENZV 282120Z 35009KT 9999 SCT015 BKN023 06/04 Q1025 REDZ",
      "taf": ""
    },
    {
      "icao": "EPGD",
      "alert": "OK",
      "vis_m": 9999,
      "fzfg": false,
      "metar_trigger": false,
      "taf_trigger": false,
      "metar": "METAR EPGD 282130Z 25007KT CAVOK M00/M02 Q1014",
      "taf": "TAF EPGD 281730Z 2818/2918 30012KT CAVOK"
    },
    {
      "icao": "EPKK",
      "alert": "OK",
      "vis_m": 9999,
      "fzfg": false,
      "metar_trigger": false,
      "taf_trigger": false,
      "metar": "METAR EPKK 282130Z 28016KT 9999 BKN021 M00/M05 Q1020",
      "taf": "TAF EPKK 282030Z 2821/2921 27014KT 9999 BKN020"
    },
    {
      "icao": "EPKT",
      "alert": "OK",
      "vis_m": 9999,
      "fzfg": false,
      "metar_trigger": false,
      "taf_trigger": false,
      "metar": "METAR EPKT 282130Z 29010KT 9999 SCT015 BKN018 M01/M04 Q1021",
      "taf": "TAF EPKT 281730Z 2818/2918 28010KT 9999 BKN016 OVC020"
    },
    {
      "icao": "EPLB",
      "alert": "OK",
      "vis_m": 9999,
      "fzfg": false,
      "metar_trigger": false,
      "taf_trigger": false,
      "metar": "METAR EPLB 282130Z 30014KT 9999 FEW024 BKN044 01/M03 Q1014",
      "taf": "TAF EPLB 281730Z 2818/2918 29015KT 9999 BKN030"
    },
    {
      "icao": "EPMO",
      "alert": "OK",
      "vis_m": 9999,
      "fzfg": false,
      "metar_trigger": false,
      "taf_trigger": false,
      "metar": "METAR EPMO 282130Z 29011KT 9999 BKN020 01/M02 Q1016",
      "taf": "TAF EPMO 281730Z 2818/2918 29012KT 9999 BKN030"
    },
    {
      "icao": "EPPO",
      "alert": "OK",
      "vis_m": 9999,
      "fzfg": false,
      "metar_trigger": false,
      "taf_trigger": false,
      "metar": "METAR EPPO 282130Z 26007KT CAVOK M02/M04 Q1021",
      "taf": "TAF EPPO 281730Z 2818/2918 29010KT CAVOK"
    },
    {
      "icao": "EPRA",
      "alert": "OK",
      "vis_m": 9999,
      "fzfg": false,
      "metar_trigger": false,
      "taf_trigger": false,
      "metar": "METAR EPRA 282130Z 32014KT 9999 BKN021 00/M04 Q1017",
      "taf": "TAF EPRA 282030Z 2821/2906 29012KT 9999 BKN022"
    },
    {
      "icao": "EPRZ",
      "alert": "OK",
      "vis_m": 9999,
      "fzfg": false,
      "metar_trigger": false,
      "taf_trigger": false,
      "metar": "METAR EPRZ 282130Z 29014KT 9999 OVC026 01/M05 Q1017",
      "taf": "TAF EPRZ 281730Z 2818/2918 29014KT 9999 BKN030"
    },
    {
      "icao": "EPSC",
      "alert": "OK",
      "vis_m": 9999,
      "fzfg": false,
      "metar_trigger": false,
      "taf_trigger": false,
      "metar": "METAR EPSC 282130Z 23003KT 200V280 9999 BKN016 BKN018 M02/M03 Q1020",
      "taf": "TAF EPSC 281730Z 2818/2918 24002KT CAVOK"
    },
    {
      "icao": "EPSY",
      "alert": "OK",
      "vis_m": 9999,
      "fzfg": false,
      "metar_trigger": false,
      "taf_trigger": false,
      "metar": "METAR EPSY 282130Z 30008KT 260V330 9999 BKN017 OVC033 01/M01 Q1014",
      "taf": "TAF EPSY 282030Z 2821/2906 32012KT 9999 BKN025"
    },
    {
      "icao": "EPWA",
      "alert": "OK",
      "vis_m": 9999,
      "fzfg": false,
      "metar_trigger": false,
      "taf_trigger": false,
      "metar": "METAR EPWA 282130Z 30011KT 9999 OVC024 01/M03 Q1016 NOSIG",
      "taf": "TAF EPWA 282030Z 2821/2921 28012KT 9999 BKN030"
    },
    {
      "icao": "EPWR",
      "alert": "OK",
      "vis_m": 9999,
      "fzfg": false,
      "metar_trigger": false,
      "taf_trigger": false,
      "metar": "METAR EPWR 282130Z 28012KT CAVOK M02/M03 Q1023",
      "taf": "TAF EPWR 282030Z 2821/2921 29012KT CAVOK"
    },
    {
      "icao": "ESGG",
      "alert": "OK",
      "vis_m": 9999,
      "fzfg": false,
      "metar_trigger": false,
      "taf_trigger": false,
      "metar": "METAR ESGG 282120Z 36002KT CAVOK M02/M03 Q1017",
      "taf": "TAF ESGG 282030Z 2821/2921 VRB02KT CAVOK"
    },
    {
      "icao": "ESKN",
      "alert": "OK",
      "vis_m": 9999,
      "fzfg": false,
      "metar_trigger": false,
      "taf_trigger": false,
      "metar": "METAR ESKN 282120Z 28010KT CAVOK M00/M06 Q1011",
      "taf": "TAF ESKN 282030Z 2821/2921 28012KT CAVOK"
    },
    {
      "icao": "ESMS",
      "alert": "OK",
      "vis_m": 9999,
      "fzfg": false,
      "metar_trigger": false,
      "taf_trigger": false,
      "metar": "METAR ESMS 282120Z 32009KT 9999 OVC015 04/02 Q1017",
      "taf": "TAF ESMS 282027Z 2821/2921 28009KT 9999 BKN015"
    },
    {
      "icao": "ESSA",
      "alert": "OK",
      "vis_m": 9999,
      "fzfg": false,
      "metar_trigger": false,
      "taf_trigger": false,
      "metar": "METAR ESSA 282120Z 28012KT CAVOK 01/M07 Q1008 NOSIG",
      "taf": "TAF ESSA 282030Z 2821/2921 29012KT CAVOK"
    },
    {
      "icao": "EYKA",
      "alert": "OK",
      "vis_m": 9999,
      "fzfg": false,
      "metar_trigger": false,
      "taf_trigger": false,
      "metar": "METAR EYKA 282150Z 28007KT 250V320 9999 OVC015 01/M01 Q1009",
      "taf": "TAF EYKA 281701Z 2818/2918 30010KT 9000 SCT030"
    },
    {
      "icao": "EYPA",
      "alert": "OK",
      "vis_m": 9999,
      "fzfg": false,
      "metar_trigger": false,
      "taf_trigger": false,
      "metar": "METAR EYPA 282150Z 30006KT 250V340 9999 FEW026 SCT033 04/M01 Q1010",
      "taf": "TAF EYPA 281701Z 2818/2918 31010KT 9000 SCT025"
    },
    {
      "icao": "EYVI",
      "alert": "OK",
      "vis_m": 9999,
      "fzfg": false,
      "metar_trigger": false,
      "taf_trigger": false,
      "metar": "METAR EYVI 282120Z 32009KT 280V350 9999 BKN034 M01/M04 Q1007 NOSIG",
      "taf": "TAF EYVI 281701Z 2818/2918 31012KT 9000 BKN030"
    },
    {
      "icao": "GCFV",
      "alert": "OK",
      "vis_m": 9999,
      "fzfg": false,
      "metar_trigger": false,
      "taf_trigger": false,
      "metar": "METAR GCFV 282130Z 28005KT CAVOK 17/11 Q1020",
      "taf": "TAF GCFV 282000Z 2821/2921 32005KT 9999 FEW030 TX21/2914Z TN14/2906Z"
    },
    {
      "icao": "GCLP",
      "alert": "OK",
      "vis_m": 9999,
      "fzfg": false,
      "metar_trigger": false,
      "taf_trigger": false,
      "metar": "METAR GCLP 282130Z 32005KT 290V010 9999 SCT040 18/13 Q1020 NOSIG",
      "taf": "TAF GCLP 282000Z 2821/2921 32005KT 9999 BKN030 TX21/2914Z TN15/2906Z"
    },
    {
      "icao": "GCTS",
      "alert": "OK",
      "vis_m": 9999,
      "fzfg": false,
      "metar_trigger": false,
      "taf_trigger": false,
      "metar": "METAR GCTS 282130Z 07004KT 9999 FEW050 18/12 Q1020 NOSIG",
      "taf": "TAF GCTS 282000Z 2821/2921 02005KT 9999 SCT030 TX23/2914Z TN16/2906Z"
    },
    {
      "icao": "GMAD",
      "alert": "OK",
      "vis_m": 9999,
      "fzfg": false,
      "metar_trigger": false,
      "taf_trigger": false,
      "metar": "METAR GMAD 282130Z 20008KT 9999 FEW020 SCT200 13/12 Q1018 NOSIG",
      "taf": "TAF GMAD 281700Z 2818/2924 26008KT 8000 SCT020 SCT080"
    },
    {
      "icao": "GMMN",
      "alert": "OK",
      "vis_m": 9999,
      "fzfg": false,
      "metar_trigger": false,
      "taf_trigger": false,
      "metar": "METAR GMMN 282130Z 24010KT 9999 SCT016 SCT023TCU 11/10 Q1015 TEMPO 5000 RA",
      "taf": "TAF GMMN 281700Z 2818/2924 24016KT 8000 BKN016 BKN020TCU"
    },
    {
      "icao": "GMMX",
      "alert": "OK",
      "vis_m": 8000,
      "fzfg": false,
      "metar_trigger": false,
      "taf_trigger": false,
      "metar": "METAR GMMX 282130Z 23008KT 8000 SCT026 SCT100 11/09 Q1018 NOSIG",
      "taf": ""
    },
    {
      "icao": "HEGN",
      "alert": "OK",
      "vis_m": 9999,
      "fzfg": false,
      "metar_trigger": false,
      "taf_trigger": false,
      "metar": "METAR HEGN 282100Z 28007KT CAVOK 16/07 Q1015 NOSIG",
      "taf": "TAF HEGN 281700Z 2818/2924 28010KT CAVOK"
    },
    {
      "icao": "HEMA",
      "alert": "OK",
      "vis_m": 9999,
      "fzfg": false,
      "metar_trigger": false,
      "taf_trigger": false,
      "metar": "METAR HEMA 282100Z 22008KT CAVOK 16/07 Q1014 NOSIG",
      "taf": "TAF HEMA 281700Z 2818/2924 29010KT CAVOK"
    },
    {
      "icao": "HESH",
      "alert": "OK",
      "vis_m": 9999,
      "fzfg": false,
      "metar_trigger": false,
      "taf_trigger": false,
      "metar": "METAR HESH 282100Z 29006KT CAVOK 18/09 Q1013 NOSIG",
      "taf": "TAF HESH 281700Z 2818/2924 35008KT CAVOK"
    },
    {
      "icao": "HESX",
      "alert": "OK",
      "vis_m": 9999,
      "fzfg": false,
      "metar_trigger": false,
      "taf_trigger": false,
      "metar": "METAR HESX 282100Z 21003KT CAVOK 11/06 Q1015 NOSIG",
      "taf": "TAF HESX 281700Z 2818/2924 30010KT 9999 SCT025"
    },
    {
      "icao": "LATI",
      "alert": "OK",
      "vis_m": 9999,
      "fzfg": false,
      "metar_trigger": false,
      "taf_trigger": false,
      "metar": "METAR LATI 282150Z 15003KT 050V170 CAVOK 01/M02 Q1018 NOSIG",
      "taf": "TAF LATI 281700Z 2818/2918 VRB05KT CAVOK TX15/2912Z TNM01/2905Z"
    },
    {
      "icao": "LBPD",
      "alert": "OK",
      "vis_m": 9999,
      "fzfg": false,
      "metar_trigger": false,
      "taf_trigger": false,
      "metar": "METAR LBPD 282130Z AUTO 28024KT 9999 NCD 03/M06 Q1016",
      "taf": "TAF LBPD 281700Z 2818/2918 28020G32KT 9999 SCT050"
    },
    {
      "icao": "LBSF",
      "alert": "OK",
      "vis_m": 9999,
      "fzfg": false,
      "metar_trigger": false,
      "taf_trigger": false,
      "metar": "METAR LBSF 282130Z AUTO 28013KT 250V310 9999 BKN032/// M00/M06 Q1018 NOSIG",
      "taf": "TAF LBSF 281700Z 2818/2918 29018G30KT 9999 SCT025"
    },
    {
      "icao": "LBWN",
      "alert": "OK",
      "vis_m": 9999,
      "fzfg": false,
      "metar_trigger": false,
      "taf_trigger": false,
      "metar": "METAR LBWN 282130Z AUTO 27007KT 9999 NSC 00/M03 Q1013 NOSIG",
      "taf": "TAF LBWN 281700Z 2818/2918 29018G34KT 9999 SCT045"
    },
    {
      "icao": "LCLK",
      "alert": "OK",
      "vis_m": 9999,
      "fzfg": false,
      "metar_trigger": false,
      "taf_trigger": false,
      "metar": "METAR LCLK 282130Z 22010G20KT 9999 FEW020 11/07 Q1006 NOSIG",
      "taf": "TAF LCLK 281730Z 2818/2918 30008KT 9999 FEW030 SCT060"
    },
    {
      "icao": "LCPH",
      "alert": "OK",
      "vis_m": 9999,
      "fzfg": false,
      "metar_trigger": false,
      "taf_trigger": false,
      "metar": "METAR LCPH 282130Z 31021KT 250V320 9999 FEW030TCU BKN040 BKN070 16/09 Q1007 NOSIG",
      "taf": "TAF LCPH 281730Z 2818/2918 30014KT 9999 FEW030 SCT060"
    },
    {
      "icao": "LEAL",
      "alert": "OK",
      "vis_m": 9999,
      "fzfg": false,
      "metar_trigger": false,
      "taf_trigger": false,
      "metar": "METAR LEAL 282130Z 02004KT 350V060 9999 FEW015 SCT025 14/11 Q1016 NOSIG",
      "taf": "TAF LEAL 281700Z 2818/2918 07012KT 9999 BKN020 TX16/2913Z TN08/2906Z"
    },
    {
      "icao": "LEBB",
      "alert": "OK",
      "vis_m": 9999,
      "fzfg": false,
      "metar_trigger": false,
      "taf_trigger": false,
      "metar": "METAR LEBB 282130Z VRB01KT CAVOK 07/06 Q1020 NOSIG",
      "taf": "TAF LEBB 281700Z 2818/2918 11008KT 9999 FEW040 TX15/2914Z TN04/2908Z"
    },
    {
      "icao": "LEBL",
      "alert": "OK",
      "vis_m": 9999,
      "fzfg": false,
      "metar_trigger": false,
      "taf_trigger": false,
      "metar": "METAR LEBL 282130Z 04007KT 9999 BKN016 13/12 Q1020 NOSIG",
      "taf": ""
    },
    {
      "icao": "LECH",
      "alert": "OK",
      "vis_m": 9999,
      "fzfg": false,
      "metar_trigger": false,
      "taf_trigger": false,
      "metar": "METAR LECH 282130Z AUTO 02008KT 350V050 9999 SCT012 OVC017 09/08 Q1019",
      "taf": ""
    },
    {
      "icao": "LEMD",
      "alert": "OK",
      "vis_m": 9999,
      "fzfg": false,
      "metar_trigger": false,
      "taf_trigger": false,
      "metar": "METAR LEMD 282130Z 35004KT 9999 BKN050 08/04 Q1017 NOSIG",
      "taf": "TAF LEMD 281700Z 2818/2924 02006KT 9999 SCT040 TX11/2915Z TN03/2907Z"
    },
    {
      "icao": "LEMG",
      "alert": "OK",
      "vis_m": 9999,
      "fzfg": false,
      "metar_trigger": false,
      "taf_trigger": false,
      "metar": "METAR LEMG 282130Z 29007KT 9999 FEW025 08/07 Q1014 NOSIG",
      "taf": "TAF LEMG 281700Z 2818/2918 29006KT 9999 FEW025 SCT040 TX16/2914Z TN09/2906Z"
    },
    {
      "icao": "LEVC",
      "alert": "OK",
      "vis_m": 5000,
      "fzfg": false,
      "metar_trigger": false,
      "taf_trigger": false,
      "metar": "METAR LEVC 282130Z 31006KT 5000 SHRA VCTS SCT025CB BKN045 OVC053 09/08 Q1020 NOSIG",
      "taf": "TAF LEVC 281700Z 2818/2918 05010KT 7000 FEW015 OVC030 TX15/2913Z TN06/2906Z"
    },
    {
      "icao": "LEXJ",
      "alert": "OK",
      "vis_m": 8000,
      "fzfg": false,
      "metar_trigger": false,
      "taf_trigger": false,
      "metar": "METAR LEXJ 282130Z VRB02KT 8000 NSC 08/07 Q1019",
      "taf": "TAF LEXJ 282000Z 2821/2921 19009KT CAVOK TX15/2913Z TN07/2906Z"
    },
    {
      "icao": "LEZG",
      "alert": "OK",
      "vis_m": 9999,
      "fzfg": false,
      "metar_trigger": false,
      "taf_trigger": false,
      "metar": "METAR LEZG 282130Z 22003KT 9999 SCT025 BKN050 09/09 Q1020 NOSIG",
      "taf": "TAF LEZG 281700Z 2818/2918 28006KT 9999 FEW060 TX12/2914Z TN06/2906Z"
    },
    {
      "icao": "LEZL",
      "alert": "OK",
      "vis_m": 9999,
      "fzfg": false,
      "metar_trigger": false,
      "taf_trigger": false,
      "metar": "METAR LEZL 282130Z 03005KT CAVOK 10/09 Q1014 NOSIG",
      "taf": "TAF LEZL 282000Z 2821/2921 03006KT 9999 FEW030 TX16/2915Z TN05/2906Z"
    },
    {
      "icao": "LFBD",
      "alert": "OK",
      "vis_m": 9999,
      "fzfg": false,
      "metar_trigger": false,
      "taf_trigger": false,
      "metar": "METAR LFBD 282130Z AUTO 03004KT CAVOK 03/02 Q1020 TEMPO 4000 BR",
      "taf": "TAF LFBD 281700Z 2818/2924 02005KT CAVOK TX09/2913Z TN00/2908Z"
    },
    {
      "icao": "LFLL",
      "alert": "OK",
      "vis_m": 8000,
      "fzfg": false,
      "metar_trigger": false,
      "taf_trigger": false,
      "metar": "METAR LFLL 282130Z VRB02KT 8000 OVC007 M01/M02 Q1024 NOSIG",
      "taf": "TAF LFLL 281700Z 2818/2924 VRB03KT 6000 OVC006"
    },
    {
      "icao": "LFLS",
      "alert": "OK",
      "vis_m": 3700,
      "fzfg": false,
      "metar_trigger": false,
      "taf_trigger": false,
      "metar": "METAR LFLS 282130Z AUTO VRB02KT 3700 BR NSC M03/M03 Q1022",
      "taf": "TAF LFLS 281400Z 2815/2915 03007KT CAVOK"
    },
    {
      "icao": "LFMN",
      "alert": "OK",
      "vis_m": 9999,
      "fzfg": false,
      "metar_trigger": false,
      "taf_trigger": false,
      "metar": "METAR LFMN 282130Z 33011KT CAVOK 07/M00 Q1021 NOSIG",
      "taf": "TAF LFMN 282000Z 2821/3003 33012KT CAVOK"
    },
    {
      "icao": "LFOB",
      "alert": "OK",
      "vis_m": 9000,
      "fzfg": false,
      "metar_trigger": false,
      "taf_trigger": false,
      "metar": "METAR LFOB 282130Z AUTO 36003KT 9000 NSC M01/M01 Q1026",
      "taf": ""
    },
    {
      "icao": "LFPO",
      "alert": "OK",
      "vis_m": 9999,
      "fzfg": false,
      "metar_trigger": false,
      "taf_trigger": false,
      "metar": "METAR LFPO 282130Z 01006KT 350V050 CAVOK M00/M01 Q1025 NOSIG",
      "taf": "TAF LFPO 281700Z 2818/2924 03006KT CAVOK"
    },
    {
      "icao": "LFSB",
      "alert": "OK",
      "vis_m": 450,
      "fzfg": true,
      "metar_trigger": false,
      "taf_trigger": false,
      "metar": "METAR LFSB 282130Z AUTO VRB03KT 0450 0350 R15/0750D R33/0550N FZFG VV/// M03/M03 Q1024 NOSIG",
      "taf": ""
    },
    {
      "icao": "LGAV",
      "alert": "OK",
      "vis_m": 9999,
      "fzfg": false,
      "metar_trigger": false,
      "taf_trigger": false,
      "metar": "METAR LGAV 282120Z 35008KT CAVOK 10/M00 Q1015 NOSIG",
      "taf": "TAF LGAV 281700Z 2818/2918 34012KT 9999 FEW020"
    },
    {
      "icao": "LGTS",
      "alert": "OK",
      "vis_m": 9999,
      "fzfg": false,
      "metar_trigger": false,
      "taf_trigger": false,
      "metar": "METAR LGTS 282120Z 33013G24KT CAVOK 06/M04 Q1018 NOSIG",
      "taf": "TAF LGTS 281700Z 2818/2918 33015G25KT 9999 FEW030"
    },
    {
      "icao": "LHBP",
      "alert": "OK",
      "vis_m": 9999,
      "fzfg": false,
      "metar_trigger": false,
      "taf_trigger": false,
      "metar": "METAR LHBP 282130Z 32019KT CAVOK 00/M04 Q1020 NOSIG",
      "taf": "TAF LHBP 281715Z 2818/2918 31015KT CAVOK"
    },
    {
      "icao": "LHDC",
      "alert": "OK",
      "vis_m": 9999,
      "fzfg": false,
      "metar_trigger": false,
      "taf_trigger": false,
      "metar": "METAR LHDC 282115Z AUTO VRB03KT CAVOK M04/M06 Q1019",
      "taf": "TAF LHDC 281115Z 2812/2821 30014KT CAVOK"
    },
    {
      "icao": "LIBD",
      "alert": "OK",
      "vis_m": 9999,
      "fzfg": false,
      "metar_trigger": false,
      "taf_trigger": false,
      "metar": "METAR LIBD 282120Z 26008KT CAVOK 09/05 Q1019",
      "taf": "TAF LIBD 281700Z 2818/2918 28012KT CAVOK"
    },
    {
      "icao": "LIBG",
      "alert": "OK",
      "vis_m": null,
      "fzfg": false,
      "metar_trigger": false,
      "taf_trigger": false,
      "metar": "",
      "taf": "TAF LIBG 281700Z 2818/2903 35012KT CAVOK"
    },
    {
      "icao": "LIBP",
      "alert": "OK",
      "vis_m": 9999,
      "fzfg": false,
      "metar_trigger": false,
      "taf_trigger": false,
      "metar": "METAR LIBP 282120Z AUTO 21005KT 9999 NCD 02/01 Q1022",
      "taf": "TAF LIBP 281700Z 2818/2918 VRB05KT CAVOK"
    },
    {
      "icao": "LIBR",
      "alert": "OK",
      "vis_m": 9999,
      "fzfg": false,
      "metar_trigger": false,
      "taf_trigger": false,
      "metar": "METAR LIBR 282120Z 30010KT 270V330 9999 SCT030 12/10 Q1018",
      "taf": "TAF LIBR 281700Z 2818/2918 33015KT 9999 FEW025"
    },
    {
      "icao": "LICA",
      "alert": "OK",
      "vis_m": 9999,
      "fzfg": false,
      "metar_trigger": false,
      "taf_trigger": false,
      "metar": "METAR LICA 282120Z AUTO VRB02KT 9999 BKN037/// 08/07 Q1020",
      "taf": "TAF LICA 281700Z 2818/2918 27010KT CAVOK"
    },
    {
      "icao": "LICC",
      "alert": "OK",
      "vis_m": 9999,
      "fzfg": false,
      "metar_trigger": false,
      "taf_trigger": false,
      "metar": "METAR LICC 282120Z 22005KT CAVOK 07/05 Q1019",
      "taf": "TAF LICC 281700Z 2818/2918 VRB05KT 9999 FEW030"
    },
    {
      "icao": "LICJ",
      "alert": "OK",
      "vis_m": 9999,
      "fzfg": false,
      "metar_trigger": false,
      "taf_trigger": false,
      "metar": "METAR LICJ 282120Z AUTO 09009KT 9999 NCD 13/07 Q1020",
      "taf": "TAF LICJ 281700Z 2818/2918 04010KT CAVOK"
    },
    {
      "icao": "LIMC",
      "alert": "OK",
      "vis_m": 9999,
      "fzfg": false,
      "metar_trigger": false,
      "taf_trigger": false,
      "metar": "METAR LIMC 282120Z 02006KT CAVOK 01/M01 Q1023 NOSIG",
      "taf": "TAF LIMC 281700Z 2818/2924 VRB05KT CAVOK"
    },
    {
      "icao": "LIME",
      "alert": "OK",
      "vis_m": 9999,
      "fzfg": false,
      "metar_trigger": false,
      "taf_trigger": false,
      "metar": "METAR LIME 282120Z 03004KT CAVOK 02/00 Q1023 NOSIG",
      "taf": "TAF LIME 281700Z 2818/2918 VRB05KT CAVOK"
    },
    {
      "icao": "LIMF",
      "alert": "OK",
      "vis_m": 9999,
      "fzfg": false,
      "metar_trigger": false,
      "taf_trigger": false,
      "metar": "METAR LIMF 282120Z 28004KT CAVOK 04/M02 Q1023",
      "taf": "TAF LIMF 281700Z 2818/2918 VRB05KT CAVOK"
    },
    {
      "icao": "LIMJ",
      "alert": "OK",
      "vis_m": 9999,
      "fzfg": false,
      "metar_trigger": false,
      "taf_trigger": false,
      "metar": "METAR LIMJ 282120Z 04010KT CAVOK 10/01 Q1021",
      "taf": "TAF LIMJ 281700Z 2818/2918 03005KT 9999 FEW020"
    },
    {
      "icao": "LIPE",
      "alert": "OK",
      "vis_m": 9999,
      "fzfg": false,
      "metar_trigger": false,
      "taf_trigger": false,
      "metar": "METAR LIPE 282120Z VRB02KT CAVOK 01/01 Q1023",
      "taf": "TAF LIPE 281700Z 2818/2918 VRB06KT CAVOK"
    },
    {
      "icao": "LIPH",
      "alert": "OK",
      "vis_m": 9999,
      "fzfg": false,
      "metar_trigger": false,
      "taf_trigger": false,
      "metar": "METAR LIPH 282120Z 36003KT CAVOK 03/01 Q1023",
      "taf": "TAF LIPH 281700Z 2818/2918 VRB05KT CAVOK"
    },
    {
      "icao": "LIPQ",
      "alert": "OK",
      "vis_m": 9999,
      "fzfg": false,
      "metar_trigger": false,
      "taf_trigger": false,
      "metar": "METAR LIPQ 282120Z AUTO VRB01KT 9999 NCD 00/M02 Q1023",
      "taf": "TAF LIPQ 281700Z 2818/2918 VRB05KT CAVOK"
    },
    {
      "icao": "LIPR",
      "alert": "OK",
      "vis_m": 9999,
      "fzfg": false,
      "metar_trigger": false,
      "taf_trigger": false,
      "metar": "METAR LIPR 282120Z 21003KT CAVOK 02/01 Q1023",
      "taf": "TAF LIPR 281700Z 2818/2918 VRB06KT CAVOK"
    },
    {
      "icao": "LIPX",
      "alert": "OK",
      "vis_m": 9999,
      "fzfg": false,
      "metar_trigger": false,
      "taf_trigger": false,
      "metar": "METAR LIPX 282120Z 34003KT CAVOK 00/M00 Q1023",
      "taf": "TAF LIPX 281700Z 2818/2918 VRB05KT CAVOK"
    },
    {
      "icao": "LIPY",
      "alert": "OK",
      "vis_m": 9999,
      "fzfg": false,
      "metar_trigger": false,
      "taf_trigger": false,
      "metar": "METAR LIPY 282120Z AUTO 20004KT 170V230 9999 NCD 03/03 Q1023",
      "taf": "TAF LIPY 281700Z 2818/2918 VRB05KT CAVOK"
    },
    {
      "icao": "LIPZ",
      "alert": "OK",
      "vis_m": 9999,
      "fzfg": false,
      "metar_trigger": false,
      "taf_trigger": false,
      "metar": "METAR LIPZ 282120Z 04006KT CAVOK 03/00 Q1023 NOSIG",
      "taf": "TAF LIPZ 281700Z 2818/2924 VRB05KT CAVOK"
    },
    {
      "icao": "LIRF",
      "alert": "OK",
      "vis_m": 9999,
      "fzfg": false,
      "metar_trigger": false,
      "taf_trigger": false,
      "metar": "METAR LIRF 282120Z 06004KT CAVOK 04/02 Q1020 NOSIG",
      "taf": "TAF LIRF 281700Z 2818/2924 VRB05KT CAVOK"
    },
    {
      "icao": "LIRN",
      "alert": "OK",
      "vis_m": 9999,
      "fzfg": false,
      "metar_trigger": false,
      "taf_trigger": false,
      "metar": "METAR LIRN 282120Z 30005KT 280V340 CAVOK 07/02 Q1020 NOSIG",
      "taf": "TAF LIRN 281700Z 2818/2918 VRB05KT CAVOK"
    },
    {
      "icao": "LIRP",
      "alert": "OK",
      "vis_m": 9999,
      "fzfg": false,
      "metar_trigger": false,
      "taf_trigger": false,
      "metar": "METAR LIRP 282115Z VRB03KT CAVOK 03/03 Q1021 NOSIG",
      "taf": "TAF LIRP 281700Z 2818/2918 12005KT CAVOK"
    },
    {
      "icao": "LIRZ",
      "alert": "OK",
      "vis_m": 9999,
      "fzfg": false,
      "metar_trigger": false,
      "taf_trigger": false,
      "metar": "METAR LIRZ 282120Z AUTO VRB02KT 9999 NCD M01/M02 Q1021",
      "taf": "TAF LIRZ 281700Z 2818/2918 02010KT CAVOK"
    },
    {
      "icao": "LJLJ",
      "alert": "OK",
      "vis_m": 9999,
      "fzfg": false,
      "metar_trigger": false,
      "taf_trigger": false,
      "metar": "METAR LJLJ 282130Z 28004KT 260V320 9999 OVC007 00/M01 Q1025 NOSIG",
      "taf": "TAF LJLJ 281700Z 2818/2918 VRB02KT 7000 FEW003 OVC012"
    },
    {
      "icao": "LKMT",
      "alert": "OK",
      "vis_m": 9999,
      "fzfg": false,
      "metar_trigger": false,
      "taf_trigger": false,
      "metar": "METAR LKMT 282130Z 21003KT 190V250 CAVOK M03/M05 Q1023 NOSIG",
      "taf": "TAF LKMT 281700Z 2818/2918 35008KT 9999 BKN030"
    },
    {
      "icao": "LKPR",
      "alert": "OK",
      "vis_m": 9999,
      "fzfg": false,
      "metar_trigger": false,
      "taf_trigger": false,
      "metar": "METAR LKPR 282130Z 20007KT CAVOK M05/M07 Q1024 NOSIG",
      "taf": "TAF LKPR 282000Z 2821/3003 23008KT CAVOK"
    },
    {
      "icao": "LLBG",
      "alert": "OK",
      "vis_m": 9999,
      "fzfg": false,
      "metar_trigger": false,
      "taf_trigger": false,
      "metar": "METAR LLBG 282120Z 19008KT 160V260 9999 BKN048 16/08 Q1011 TEMPO 27015G25KT 7000 RA FEW025TCU",
      "taf": "TAF LLBG 281705Z 2818/2918 22012KT 9999 SCT035"
    },
    {
      "icao": "LMML",
      "alert": "OK",
      "vis_m": 9999,
      "fzfg": false,
      "metar_trigger": false,
      "taf_trigger": false,
      "metar": "METAR LMML 282145Z 25004KT CAVOK 12/10 Q1020 NOSIG",
      "taf": "TAF LMML 281700Z 2818/2918 29007KT 9999 SCT019"
    },
    {
      "icao": "LOWW",
      "alert": "OK",
      "vis_m": 9999,
      "fzfg": false,
      "metar_trigger": false,
      "taf_trigger": false,
      "metar": "METAR LOWW 282120Z 30012KT CAVOK 01/M05 Q1024 NOSIG",
      "taf": "TAF LOWW 282015Z 2821/3003 32012KT CAVOK TX03/2913Z TNM04/2906Z"
    },
    {
      "icao": "LPFR",
      "alert": "OK",
      "vis_m": 9999,
      "fzfg": false,
      "metar_trigger": false,
      "taf_trigger": false,
      "metar": "METAR LPFR 282130Z 03007KT 9999 FEW025 10/08 Q1014",
      "taf": "TAF LPFR 281700Z 2818/2918 06008KT 9999 SCT020"
    },
    {
      "icao": "LPMA",
      "alert": "OK",
      "vis_m": 9999,
      "fzfg": false,
      "metar_trigger": false,
      "taf_trigger": false,
      "metar": "METAR LPMA 282130Z 33004KT 300V360 9999 SCT016 16/10 Q1019",
      "taf": "TAF LPMA 281700Z 2818/2918 34008KT 9999 SCT015"
    },
    {
      "icao": "LPPR",
      "alert": "OK",
      "vis_m": 9999,
      "fzfg": false,
      "metar_trigger": false,
      "taf_trigger": false,
      "metar": "METAR LPPR 282130Z 07003KT 020V180 CAVOK 07/05 Q1017",
      "taf": "TAF LPPR 281700Z 2818/2918 VRB02KT CAVOK"
    },
    {
      "icao": "LPPS",
      "alert": "OK",
      "vis_m": 9999,
      "fzfg": false,
      "metar_trigger": false,
      "taf_trigger": false,
      "metar": "METAR LPPS 282130Z VRB02KT 9999 FEW015 14/08 Q1020",
      "taf": "TAF LPPS 281700Z 2818/2924 35008KT 9999 SCT015"
    },
    {
      "icao": "LPPT",
      "alert": "OK",
      "vis_m": 9999,
      "fzfg": false,
      "metar_trigger": false,
      "taf_trigger": false,
      "metar": "METAR LPPT 282130Z 33006KT 9999 FEW022 10/08 Q1016",
      "taf": "TAF LPPT 281700Z 2818/2924 02007KT 9999 FEW020"
    },
    {
      "icao": "LQBK",
      "alert": "OK",
      "vis_m": 9999,
      "fzfg": false,
      "metar_trigger": false,
      "taf_trigger": false,
      "metar": "METAR LQBK 282130Z 16002KT CAVOK M03/M04 Q1026 NOSIG",
      "taf": "TAF LQBK 281700Z 2818/2918 18005KT CAVOK TX04/2913Z TNM05/2905Z"
    },
    {
      "icao": "LQSA",
      "alert": "OK",
      "vis_m": 9999,
      "fzfg": false,
      "metar_trigger": false,
      "taf_trigger": false,
      "metar": "METAR LQSA 282130Z VRB01KT CAVOK M05/M05 Q1024 NOSIG",
      "taf": "TAF LQSA 281700Z 2818/2918 VRB02KT CAVOK TX04/2913Z TNM07/2905Z"
    },
    {
      "icao": "LQTZ",
      "alert": "OK",
      "vis_m": 9999,
      "fzfg": false,
      "metar_trigger": false,
      "taf_trigger": false,
      "metar": "METAR LQTZ 282130Z VRB03KT CAVOK M04/M04 Q1025",
      "taf": "TAF LQTZ 281700Z 2818/2918 35005KT 9999 SCT035 TX05/2913Z TNM05/2905Z"
    },
    {
      "icao": "LRBC",
      "alert": "OK",
      "vis_m": 9999,
      "fzfg": false,
      "metar_trigger": false,
      "taf_trigger": false,
      "metar": "METAR LRBC 282130Z 32021KT 9999 -SN OVC050 02/M05 Q1009",
      "taf": "TAF LRBC 282000Z 2821/2906 32010KT 9999 OVC050"
    },
    {
      "icao": "LRBS",
      "alert": "OK",
      "vis_m": 9999,
      "fzfg": false,
      "metar_trigger": false,
      "taf_trigger": false,
      "metar": "METAR LRBS 282130Z 27012KT 250V310 CAVOK 02/M06 Q1012 NOSIG",
      "taf": "TAF LRBS 281700Z 2818/2918 27009KT CAVOK"
    },
    {
      "icao": "LRBV",
      "alert": "OK",
      "vis_m": 9999,
      "fzfg": false,
      "metar_trigger": false,
      "taf_trigger": false,
      "metar": "METAR LRBV 282130Z AUTO 30020G32KT 270V330 9999 -PL OVC036/// M01/M07 Q1012 RESG",
      "taf": "TAF LRBV 282000Z 2821/2906 30018G30KT 9999 OVC030"
    },
    {
      "icao": "LRCL",
      "alert": "OK",
      "vis_m": 9999,
      "fzfg": false,
      "metar_trigger": false,
      "taf_trigger": false,
      "metar": "METAR LRCL 282130Z 29016KT 9999 BKN055 01/M06 Q1016",
      "taf": "TAF LRCL 282000Z 2821/2906 30017KT 9999 SCT025 BKN045"
    },
    {
      "icao": "LRCV",
      "alert": "OK",
      "vis_m": 9999,
      "fzfg": false,
      "metar_trigger": false,
      "taf_trigger": false,
      "metar": "METAR LRCV 282130Z 28015KT CAVOK 00/M03 Q1015",
      "taf": "TAF LRCV 282000Z 2821/2906 28014KT CAVOK"
    },
    {
      "icao": "LRIA",
      "alert": "OK",
      "vis_m": 9999,
      "fzfg": false,
      "metar_trigger": false,
      "taf_trigger": false,
      "metar": "METAR LRIA 282130Z 30023G36KT 270V330 9999 -SN SCT010 OVC025 01/M01 Q1007",
      "taf": "TAF LRIA 282000Z 2821/2906 30020KT 9999 SCT010 OVC030"
    },
    {
      "icao": "LROP",
      "alert": "OK",
      "vis_m": 9999,
      "fzfg": false,
      "metar_trigger": false,
      "taf_trigger": false,
      "metar": "METAR LROP 282130Z 26014KT CAVOK 01/M08 Q1012 NOSIG",
      "taf": "TAF LROP 281700Z 2818/2918 27010KT CAVOK"
    },
    {
      "icao": "LRSB",
      "alert": "OK",
      "vis_m": 9999,
      "fzfg": false,
      "metar_trigger": false,
      "taf_trigger": false,
      "metar": "METAR LRSB 282130Z 29018KT 9999 FEW042 BKN052 01/M06 Q1015",
      "taf": "TAF LRSB 281700Z 2818/2918 29020KT 9999 BKN040 BKN060"
    },
    {
      "icao": "LRSM",
      "alert": "OK",
      "vis_m": 9999,
      "fzfg": false,
      "metar_trigger": false,
      "taf_trigger": false,
      "metar": "METAR LRSM 282130Z AUTO 31016KT 9999 BKN050/// 01/M05 Q1017",
      "taf": "TAF LRSM 281100Z 2812/2821 31015KT 9999 BKN030"
    },
    {
      "icao": "LRSV",
      "alert": "OK",
      "vis_m": 6000,
      "fzfg": false,
      "metar_trigger": false,
      "taf_trigger": false,
      "metar": "METAR LRSV 282130Z 31021G32KT 6000 -SN BLSN BKN043 M00/M05 Q1007",
      "taf": "TAF LRSV 282000Z 2821/2906 31020KT 9999 BKN030"
    },
    {
      "icao": "LRTM",
      "alert": "OK",
      "vis_m": 9999,
      "fzfg": false,
      "metar_trigger": false,
      "taf_trigger": false,
      "metar": "METAR LRTM 282130Z AUTO 28018KT 9999 R25////// FEW035/// BKN055/// 01/M06 Q1015",
      "taf": "TAF LRTM 281400Z 2815/2824 28018KT 9999 BKN035"
    },
    {
      "icao": "LRTR",
      "alert": "OK",
      "vis_m": 9999,
      "fzfg": false,
      "metar_trigger": false,
      "taf_trigger": false,
      "metar": "METAR LRTR 282130Z 28007KT CAVOK M03/M04 Q1021",
      "taf": "TAF LRTR 281700Z 2818/2918 29008KT CAVOK"
    },
    {
      "icao": "LTAC",
      "alert": "OK",
      "vis_m": 9999,
      "fzfg": false,
      "metar_trigger": false,
      "taf_trigger": false,
      "metar": "METAR LTAC 282120Z 23003KT 180V290 9999 FEW015 BKN030 BKN080 M02/M05 Q1005 NOSIG RMK RWY21C 26005KT 230V310 RWY03L VRB01KT RWY21R 24005KT 210V270 RWY03R 22003KT RWY21L 24004KT",
      "taf": "TAF LTAC 281640Z 2818/2918 26012KT 9999 SCT030 BKN080"
    },
    {
      "icao": "LTFM",
      "alert": "OK",
      "vis_m": 9999,
      "fzfg": false,
      "metar_trigger": false,
      "taf_trigger": false,
      "metar": "METAR LTFM 282120Z 25008KT 170V280 9999 SCT035 02/M04 Q1013 NOSIG RMK RWY17L 26011KT RWY34L 25007KT 200V270 RWY16R 26008KT RWY36 25009KT RWY18 27013KT",
      "taf": "TAF LTFM 281640Z 2818/2924 30012KT 9999 SCT035"
    },
    {
      "icao": "LUKK",
      "alert": "OK",
      "vis_m": 2100,
      "fzfg": false,
      "metar_trigger": false,
      "taf_trigger": false,
      "metar": "METAR LUKK 282130Z 32021KT 2100 SHSN BKN007 OVC016CB M00/M01 Q1004 TEMPO 33022G34KT 1500 SHSN SCT025CB",
      "taf": ""
    },
    {
      "icao": "LWOH",
      "alert": "OK",
      "vis_m": null,
      "fzfg": false,
      "metar_trigger": false,
      "taf_trigger": false,
      "metar": "",
      "taf": "TAF LWOH 282030Z 2821/2921 33008KT CAVOK"
    },
    {
      "icao": "LWSK",
      "alert": "OK",
      "vis_m": 9999,
      "fzfg": false,
      "metar_trigger": false,
      "taf_trigger": false,
      "metar": "METAR LWSK 282150Z 28004KT 260V330 CAVOK M00/M06 Q1022 NOSIG",
      "taf": "TAF LWSK 282030Z 2821/2921 36012KT CAVOK"
    },
    {
      "icao": "LYBE",
      "alert": "OK",
      "vis_m": 9999,
      "fzfg": false,
      "metar_trigger": false,
      "taf_trigger": false,
      "metar": "METAR LYBE 282130Z 28011KT 9999 FEW035 00/M03 Q1023 NOSIG",
      "taf": "TAF LYBE 281700Z 2818/2918 29012KT CAVOK TX06/2912Z TNM03/2906Z"
    },
    {
      "icao": "LYNI",
      "alert": "OK",
      "vis_m": 9999,
      "fzfg": false,
      "metar_trigger": false,
      "taf_trigger": false,
      "metar": "METAR LYNI 282130Z 30013KT 260V320 9999 BKN037 02/M04 Q1022 NOSIG",
      "taf": "TAF LYNI 281700Z 2818/2918 30007KT 9999 BKN033 TX06/2912Z TNM03/2906Z"
    },
    {
      "icao": "LYPG",
      "alert": "OK",
      "vis_m": 9999,
      "fzfg": false,
      "metar_trigger": false,
      "taf_trigger": false,
      "metar": "METAR LYPG 282130Z 34018KT CAVOK 06/M09 Q1020 NOSIG",
      "taf": "TAF LYPG 281700Z 2818/2918 36017G27KT CAVOK TX12/2913Z TN01/2906Z"
    },
    {
      "icao": "LZIB",
      "alert": "OK",
      "vis_m": 9999,
      "fzfg": false,
      "metar_trigger": false,
      "taf_trigger": false,
      "metar": "METAR LZIB 282130Z 31008KT 260V350 CAVOK 01/M05 Q1024 NOSIG",
      "taf": "TAF LZIB 281715Z 2818/2918 33015KT CAVOK"
    },
    {
      "icao": "LZKZ",
      "alert": "OK",
      "vis_m": 9999,
      "fzfg": false,
      "metar_trigger": false,
      "taf_trigger": false,
      "metar": "METAR LZKZ 282130Z 28005KT CAVOK M03/M07 Q1018 NOSIG",
      "taf": "TAF LZKZ 281715Z 2818/2918 33010KT CAVOK"
    },
    {
      "icao": "LZTT",
      "alert": "OK",
      "vis_m": 9999,
      "fzfg": false,
      "metar_trigger": false,
      "taf_trigger": false,
      "metar": "METAR LZTT 282130Z 27021KT CAVOK M02/M09 Q1015",
      "taf": "TAF LZTT 281715Z 2818/2918 28018KT 9999 FEW030"
    },
    {
      "icao": "OEJN",
      "alert": "OK",
      "vis_m": 9999,
      "fzfg": false,
      "metar_trigger": false,
      "taf_trigger": false,
      "metar": "METAR OEJN 282100Z 01005KT CAVOK 22/17 Q1013 NOSIG",
      "taf": "TAF OEJN 281700Z 2818/2924 04008KT 7000 NSC"
    },
    {
      "icao": "OEMA",
      "alert": "OK",
      "vis_m": 9999,
      "fzfg": false,
      "metar_trigger": false,
      "taf_trigger": false,
      "metar": "METAR OEMA 282100Z 23007KT CAVOK 19/07 Q1017 NOSIG",
      "taf": "TAF OEMA 281700Z 2818/2924 26008KT 7000 NSC"
    },
    {
      "icao": "OJAI",
      "alert": "OK",
      "vis_m": 3500,
      "fzfg": false,
      "metar_trigger": false,
      "taf_trigger": false,
      "metar": "METAR OJAI 282100Z 27018KT 3500 DZRA SCT030 SCT035 09/08 Q1011 NOSIG",
      "taf": "TAF OJAI 281700Z 2818/2924 29018G36KT 3000 RA BR SCT025TCU BKN030"
    },
    {
      "icao": "OMAA",
      "alert": "OK",
      "vis_m": 9999,
      "fzfg": false,
      "metar_trigger": false,
      "taf_trigger": false,
      "metar": "METAR OMAA 282100Z 11005KT CAVOK 22/13 Q1011 NOSIG",
      "taf": "TAF OMAA 281700Z 2818/3000 15005KT 8000 NSC"
    },
    {
      "icao": "OMDB",
      "alert": "OK",
      "vis_m": 9999,
      "fzfg": false,
      "metar_trigger": false,
      "taf_trigger": false,
      "metar": "METAR OMDB 282130Z 13006KT CAVOK 22/16 Q1011 NOSIG",
      "taf": "TAF OMDB 281700Z 2818/3000 16008KT 8000 NSC"
    },
    {
      "icao": "UAAA",
      "alert": "OK",
      "vis_m": 1700,
      "fzfg": false,
      "metar_trigger": false,
      "taf_trigger": false,
      "metar": "METAR UAAA 282130Z 19002MPS 160V220 1700 R05R/P2000D BR BKN100 M02/M03 Q1014 NOSIG",
      "taf": "TAF UAAA 281701Z 2818/2918 23003MPS 1500 BR FU SCT050 BKN100 TX05/2909Z TNM04/2901Z"
    },
    {
      "icao": "UBBB",
      "alert": "OK",
      "vis_m": 9999,
      "fzfg": false,
      "metar_trigger": false,
      "taf_trigger": false,
      "metar": "METAR UBBB 282130Z 11006KT CAVOK 02/00 Q0999 NOSIG",
      "taf": "TAF UBBB 281712Z 2818/2918 28010KT 9999 SCT012 BKN020 TX09/2910Z TN02/2902Z"
    },
    {
      "icao": "UDSG",
      "alert": "OK",
      "vis_m": 9999,
      "fzfg": false,
      "metar_trigger": false,
      "taf_trigger": false,
      "metar": "METAR UDSG 282130Z 21001KT 9999 NSC M15/M18 Q1002 NOSIG",
      "taf": "TAF UDSG 281700Z 2818/2918 VRB06KT 9999 SCT040"
    },
    {
      "icao": "UDYZ",
      "alert": "OK",
      "vis_m": 9999,
      "fzfg": false,
      "metar_trigger": false,
      "taf_trigger": false,
      "metar": "METAR UDYZ 282130Z 36002KT 9999 FEW046 M09/M11 Q1004 NOSIG",
      "taf": "TAF UDYZ 281700Z 2818/2918 06006KT 6000 FEW040"
    },
    {
      "icao": "UGKO",
      "alert": "OK",
      "vis_m": 9999,
      "fzfg": false,
      "metar_trigger": false,
      "taf_trigger": false,
      "metar": "METAR UGKO 282130Z 10006KT 9999 SCT051 00/M00 Q1002 NOSIG",
      "taf": "TAF UGKO 281700Z 2818/2918 08007KT 9999 SCT015 OVC045 TX02/2911Z TNM01/2904Z"
    }
  ]
}