{
  "ts_utc": "2026-01-02T10:31:18Z",
  "threshold_m": 150,
  "source": "stations_override.txt (ICAO list) + aviationweather.gov (METAR/TAF raw)",
  "station_count": 159,
  "stations": [
    {
      "icao": "BIKF",
      "alert": "OK",
      "vis_m": 9999,
      "fzfg": false,
      "metar_trigger": false,
      "taf_trigger": false,
      "metar": "METAR BIKF 021000Z 05008KT 9999 FEW033 SCT350 M03/M05 Q1025",
      "taf": "TAF BIKF 021030Z 0212/0312 11006KT CAVOK TXM02/0212Z TNM08/0308Z"
    },
    {
      "icao": "BKPR",
      "alert": "OK",
      "vis_m": 9999,
      "fzfg": false,
      "metar_trigger": false,
      "taf_trigger": false,
      "metar": "METAR BKPR 021030Z 17009KT 9999 BKN035 02/M08 Q1012 NOSIG",
      "taf": "TAF BKPR 020530Z 0206/0306 18008KT 9999 BKN040"
    },
    {
      "icao": "EBCI",
      "alert": "OK",
      "vis_m": 9999,
      "fzfg": false,
      "metar_trigger": false,
      "taf_trigger": false,
      "metar": "METAR EBCI 021020Z 25010KT 9999 FEW003 BKN005 00/00 Q1003 TEMPO 2000 SHSN BKN004",
      "taf": "TAF EBCI 020513Z 0206/0312 27012KT 9999 SCT015TCU SCT040"
    },
    {
      "icao": "EDDB",
      "alert": "OK",
      "vis_m": 1700,
      "fzfg": false,
      "metar_trigger": false,
      "taf_trigger": false,
      "metar": "METAR EDDB 021020Z AUTO 25018KT 1700 SN BR SCT005 BKN017 01/M00 Q0988 TEMPO 25020G35KT 6000 -SN BKN008",
      "taf": "TAF EDDB 020500Z 0206/0306 24020G30KT 9999 SCT020 OVC030"
    },
    {
      "icao": "EDDH",
      "alert": "OK",
      "vis_m": 2100,
      "fzfg": false,
      "metar_trigger": false,
      "taf_trigger": false,
      "metar": "METAR EDDH 021020Z AUTO 24011KT 2100 1400 R23/1900N R33/P2000N -SHSN BR SCT005 BKN023 BKN031 FEW///CB 00/00 Q0987 RESHSN TEMPO 3000 SHSN BKN005CB",
      "taf": ""
    },
    {
      "icao": "EDDK",
      "alert": "OK",
      "vis_m": 9999,
      "fzfg": false,
      "metar_trigger": false,
      "taf_trigger": false,
      "metar": "METAR EDDK 021020Z AUTO 26016KT 9999 SCT026 SCT038 03/M01 Q1000 NOSIG",
      "taf": "TAF EDDK 020500Z 0206/0312 26015G25KT 9999 BKN025"
    },
    {
      "icao": "EDDN",
      "alert": "OK",
      "vis_m": 9999,
      "fzfg": false,
      "metar_trigger": false,
      "taf_trigger": false,
      "metar": "METAR EDDN 021020Z AUTO 27016KT CAVOK 01/M03 Q1000 TEMPO 26015G25KT",
      "taf": ""
    },
    {
      "icao": "EDDS",
      "alert": "OK",
      "vis_m": 9999,
      "fzfg": false,
      "metar_trigger": false,
      "taf_trigger": false,
      "metar": "METAR EDDS 021020Z AUTO 26013KT 230V290 9999 FEW034 SCT042 02/M02 Q1002 NOSIG",
      "taf": "TAF EDDS 020500Z 0206/0306 23010KT 9999 BKN025"
    },
    {
      "icao": "EDFH",
      "alert": "OK",
      "vis_m": 9999,
      "fzfg": false,
      "metar_trigger": false,
      "taf_trigger": false,
      "metar": "METAR EDFH 021020Z 24017KT 210V270 9999 -SN FEW002 BKN013 BKN023 M00/M03 Q1000",
      "taf": "TAF EDFH 020500Z 0206/0306 26015G25KT 9999 BKN010"
    },
    {
      "icao": "EDJA",
      "alert": "OK",
      "vis_m": 9999,
      "fzfg": false,
      "metar_trigger": false,
      "taf_trigger": false,
      "metar": "METAR EDJA 021020Z COR 25020G33KT 9999 FEW031 M00/M04 Q1003",
      "taf": "TAF EDJA 020800Z 0209/0218 24020G30KT 9999 SCT013 BKN045"
    },
    {
      "icao": "EDLW",
      "alert": "OK",
      "vis_m": 9999,
      "fzfg": false,
      "metar_trigger": false,
      "taf_trigger": false,
      "metar": "METAR EDLW 021020Z 24017KT 9999 BKN009 OVC012 M00/M01 Q0997",
      "taf": "TAF EDLW 020500Z 0206/0306 24015G25KT 9999 BKN015"
    },
    {
      "icao": "EDNY",
      "alert": "OK",
      "vis_m": 9999,
      "fzfg": false,
      "metar_trigger": false,
      "taf_trigger": false,
      "metar": "METAR EDNY 021020Z 25015KT 9999 FEW047 OVC053 02/M05 Q1006",
      "taf": "TAF EDNY 020852Z 0209/0218 25010KT 9999 BKN025"
    },
    {
      "icao": "EDSB",
      "alert": "OK",
      "vis_m": 9999,
      "fzfg": false,
      "metar_trigger": false,
      "taf_trigger": false,
      "metar": "METAR EDSB 021020Z 20014KT 9999 BKN018 BKN024 02/M01 Q1005",
      "taf": "TAF EDSB 020500Z 0206/0306 20012KT 9999 BKN015"
    },
    {
      "icao": "EETN",
      "alert": "OK",
      "vis_m": 6000,
      "fzfg": false,
      "metar_trigger": false,
      "taf_trigger": false,
      "metar": "METAR EETN 021020Z 11013KT 6000 -SN DRSN SCT025 OVC038 M06/M08 Q0983 TEMPO 2000 SN",
      "taf": "TAF EETN 020530Z 0206/0306 12016KT 9999 BKN012 OVC030"
    },
    {
      "icao": "EFTU",
      "alert": "OK",
      "vis_m": 2800,
      "fzfg": false,
      "metar_trigger": false,
      "taf_trigger": false,
      "metar": "METAR EFTU 021020Z AUTO 07012KT 2800 -SN OVC015 M07/M09 Q0983",
      "taf": "TAF EFTU 020830Z 0209/0309 08011KT 9999 -SN BKN011"
    },
    {
      "icao": "EGBB",
      "alert": "OK",
      "vis_m": 9999,
      "fzfg": false,
      "metar_trigger": false,
      "taf_trigger": false,
      "metar": "METAR EGBB 020950Z 30008KT CAVOK 01/M02 Q1006",
      "taf": "TAF EGBB 020457Z 0206/0306 31010KT 9999 FEW030"
    },
    {
      "icao": "EGGP",
      "alert": "OK",
      "vis_m": 9999,
      "fzfg": false,
      "metar_trigger": false,
      "taf_trigger": false,
      "metar": "METAR EGGP 021020Z 32007KT 290V350 9999 SCT038 02/M03 Q1008",
      "taf": "TAF EGGP 020455Z 0206/0306 32009KT 9999 FEW035"
    },
    {
      "icao": "EGGW",
      "alert": "OK",
      "vis_m": 9999,
      "fzfg": false,
      "metar_trigger": false,
      "taf_trigger": false,
      "metar": "METAR EGGW 021020Z AUTO 29013KT 9999 NCD 01/M01 Q1005",
      "taf": "TAF EGGW 020458Z 0206/0306 29012KT 9999 SCT015"
    },
    {
      "icao": "EGKK",
      "alert": "OK",
      "vis_m": 9999,
      "fzfg": false,
      "metar_trigger": false,
      "taf_trigger": false,
      "metar": "METAR EGKK 021020Z 31009KT 9999 FEW016 03/01 Q1006",
      "taf": "TAF EGKK 020456Z 0206/0312 29009KT 9999 SCT025"
    },
    {
      "icao": "EGNM",
      "alert": "OK",
      "vis_m": 9999,
      "fzfg": false,
      "metar_trigger": false,
      "taf_trigger": false,
      "metar": "METAR EGNM 021020Z 30018KT CAVOK M00/M06 Q1004",
      "taf": "TAF EGNM 020524Z 0206/0306 29010KT 9999 FEW030"
    },
    {
      "icao": "EGPD",
      "alert": "OK",
      "vis_m": 9999,
      "fzfg": false,
      "metar_trigger": false,
      "taf_trigger": false,
      "metar": "METAR EGPD 021020Z AUTO 28011KT 9999 NCD 00/M01 Q1004 TEMPO 1800 SHSN",
      "taf": ""
    },
    {
      "icao": "EGPF",
      "alert": "OK",
      "vis_m": 9999,
      "fzfg": false,
      "metar_trigger": false,
      "taf_trigger": false,
      "metar": "METAR EGPF 021020Z AUTO 30014KT 9999 NCD 02/M02 Q1007",
      "taf": "TAF EGPF 020455Z 0206/0306 29009KT 9999 FEW035"
    },
    {
      "icao": "EHBK",
      "alert": "OK",
      "vis_m": 9999,
      "fzfg": false,
      "metar_trigger": false,
      "taf_trigger": false,
      "metar": "METAR EHBK 021025Z AUTO 24011KT 200V280 9999 SCT016 SCT020 BKN025 02/M01 Q1001 NOSIG",
      "taf": "TAF EHBK 020520Z 0206/0312 25013KT 9999 SCT022"
    },
    {
      "icao": "EHEH",
      "alert": "OK",
      "vis_m": 3100,
      "fzfg": false,
      "metar_trigger": false,
      "taf_trigger": false,
      "metar": "SPECI EHEH 021003Z AUTO 31006KT 240V350 3100 R21/2200D -SN FEW004 SCT005 FEW015CB BKN019 01/M01 Q1000 YLO TEMPO 2000 SHSNRA SCT005 BKN008 SCT015CB RMK TREND REMOTE BY EHWX",
      "taf": ""
    },
    {
      "icao": "EKBI",
      "alert": "OK",
      "vis_m": 9999,
      "fzfg": false,
      "metar_trigger": false,
      "taf_trigger": false,
      "metar": "METAR EKBI 021020Z AUTO 25005KT 9999 SCT140/// BKN180/// M01/M02 Q0982",
      "taf": "TAF EKBI 020827Z 0209/0309 29004KT 9999 SCT030"
    },
    {
      "icao": "EKCH",
      "alert": "OK",
      "vis_m": 9999,
      "fzfg": false,
      "metar_trigger": false,
      "taf_trigger": false,
      "metar": "METAR EKCH 021020Z 28014KT 250V310 9999 BKN037 02/M03 Q0980 NOSIG",
      "taf": ""
    },
    {
      "icao": "ENAL",
      "alert": "OK",
      "vis_m": 9999,
      "fzfg": false,
      "metar_trigger": false,
      "taf_trigger": false,
      "metar": "METAR ENAL 021020Z 03013KT 9999 VCSH SCT030CB SCT055 M00/M06 Q0994",
      "taf": "TAF ENAL 020800Z 0209/0218 07010KT 9999 FEW010 SCT030"
    },
    {
      "icao": "ENBR",
      "alert": "OK",
      "vis_m": 9999,
      "fzfg": false,
      "metar_trigger": false,
      "taf_trigger": false,
      "metar": "METAR ENBR 021020Z 34010KT CAVOK M02/M11 Q0992 NOSIG RMK WIND 1200FT 35017KT",
      "taf": "TAF ENBR 020500Z 0206/0306 35015KT CAVOK"
    },
    {
      "icao": "ENGM",
      "alert": "OK",
      "vis_m": 9999,
      "fzfg": false,
      "metar_trigger": false,
      "taf_trigger": false,
      "metar": "METAR ENGM 020950Z 36015KT 9999 -SN SCT028 M07/M11 Q0987 NOSIG",
      "taf": "TAF ENGM 020500Z 0206/0306 36018KT 4000 -SN BKN020"
    },
    {
      "icao": "ENHD",
      "alert": "OK",
      "vis_m": 9999,
      "fzfg": false,
      "metar_trigger": false,
      "taf_trigger": false,
      "metar": "METAR ENHD 021020Z 01023KT CAVOK 00/M12 Q0991",
      "taf": "TAF ENHD 020800Z 0209/0218 36025KT CAVOK"
    },
    {
      "icao": "ENTC",
      "alert": "OK",
      "vis_m": 900,
      "fzfg": false,
      "metar_trigger": false,
      "taf_trigger": false,
      "metar": "METAR ENTC 021020Z 21016KT 0900 SN VV008 M07/M09 Q0999 TEMPO 5000 -SHSN BKN020CB RMK WIND 2600FT 34013KT",
      "taf": ""
    },
    {
      "icao": "ENTO",
      "alert": "OK",
      "vis_m": 9999,
      "fzfg": false,
      "metar_trigger": false,
      "taf_trigger": false,
      "metar": "METAR ENTO 021020Z 02019KT 9999 -SN SCT026 SCT032 M05/M09 Q0986 NOSIG",
      "taf": "TAF ENTO 020500Z 0206/0306 35018KT 2500 -SN BKN015"
    },
    {
      "icao": "ENVA",
      "alert": "OK",
      "vis_m": 9999,
      "fzfg": false,
      "metar_trigger": false,
      "taf_trigger": false,
      "metar": "METAR ENVA 021020Z 07007KT 9999 VCSH FEW032 BKN051 M08/M11 Q0995 TEMPO 3000 -SN VV012 RMK WIND 670FT 08008KT",
      "taf": ""
    },
    {
      "icao": "ENZV",
      "alert": "OK",
      "vis_m": 9999,
      "fzfg": false,
      "metar_trigger": false,
      "taf_trigger": false,
      "metar": "METAR ENZV 021020Z 02015KT 9999 FEW030 01/M11 Q0990 NOSIG",
      "taf": ""
    },
    {
      "icao": "EPGD",
      "alert": "OK",
      "vis_m": 2600,
      "fzfg": false,
      "metar_trigger": false,
      "taf_trigger": false,
      "metar": "METAR EPGD 021000Z 21015KT 2600 SN OVC011 00/M01 Q0980 RESN",
      "taf": "TAF EPGD 020530Z 0206/0306 23015KT 9999 SCT012 BKN020"
    },
    {
      "icao": "EPKK",
      "alert": "OK",
      "vis_m": 9999,
      "fzfg": false,
      "metar_trigger": false,
      "taf_trigger": false,
      "metar": "METAR EPKK 021000Z 23009KT 9999 BKN030 02/M03 Q0996",
      "taf": "TAF EPKK 020830Z 0209/0309 22014KT 8000 BKN016"
    },
    {
      "icao": "EPKT",
      "alert": "OK",
      "vis_m": 9999,
      "fzfg": false,
      "metar_trigger": false,
      "taf_trigger": false,
      "metar": "METAR EPKT 021000Z 22017KT 9999 -SN FEW021 BKN040 01/M03 Q0994",
      "taf": "TAF EPKT 020530Z 0206/0306 23012KT 9999 BKN030"
    },
    {
      "icao": "EPLB",
      "alert": "OK",
      "vis_m": 8000,
      "fzfg": false,
      "metar_trigger": false,
      "taf_trigger": false,
      "metar": "METAR EPLB 021000Z 23012KT 8000 -SN FEW014 BKN026 00/M01 Q0994",
      "taf": "TAF EPLB 020530Z 0206/0306 21014KT 9999 BKN020"
    },
    {
      "icao": "EPMO",
      "alert": "OK",
      "vis_m": 9999,
      "fzfg": false,
      "metar_trigger": false,
      "taf_trigger": false,
      "metar": "METAR EPMO 021000Z 21014KT 9999 BKN013 01/M00 Q0989",
      "taf": "TAF EPMO 020530Z 0206/0306 22015KT 9999 BKN020"
    },
    {
      "icao": "EPPO",
      "alert": "OK",
      "vis_m": 9999,
      "fzfg": false,
      "metar_trigger": false,
      "taf_trigger": false,
      "metar": "METAR EPPO 021000Z 24018G28KT 9999 BKN032 03/M03 Q0987",
      "taf": "TAF EPPO 020530Z 0206/0306 23014KT 9999 BKN020"
    },
    {
      "icao": "EPRA",
      "alert": "OK",
      "vis_m": 9000,
      "fzfg": false,
      "metar_trigger": false,
      "taf_trigger": false,
      "metar": "METAR EPRA 021000Z 23015KT 9000 -SN BKN015 OVC032 01/M02 Q0993",
      "taf": "TAF EPRA 020830Z 0209/0218 24014KT 9999 BKN020"
    },
    {
      "icao": "EPRZ",
      "alert": "OK",
      "vis_m": 9999,
      "fzfg": false,
      "metar_trigger": false,
      "taf_trigger": false,
      "metar": "METAR EPRZ 021000Z 21012KT 9999 SCT038 01/M04 Q0996",
      "taf": "TAF EPRZ 020530Z 0206/0306 20013KT 9999 BKN040"
    },
    {
      "icao": "EPSC",
      "alert": "OK",
      "vis_m": 9999,
      "fzfg": false,
      "metar_trigger": false,
      "taf_trigger": false,
      "metar": "METAR EPSC 021000Z 24010KT 9999 -SHRA FEW004 BKN005 BKN007TCU 01/00 Q0984",
      "taf": ""
    },
    {
      "icao": "EPSY",
      "alert": "OK",
      "vis_m": 9999,
      "fzfg": false,
      "metar_trigger": false,
      "taf_trigger": false,
      "metar": "METAR EPSY 021000Z 19011KT 9999 SCT008 BKN014 BKN035 01/M01 Q0986",
      "taf": "TAF EPSY 020830Z 0209/0218 22012KT 9999 BKN020"
    },
    {
      "icao": "EPWA",
      "alert": "OK",
      "vis_m": 9999,
      "fzfg": false,
      "metar_trigger": false,
      "taf_trigger": false,
      "metar": "METAR EPWA 021000Z 22010KT 9999 -SN SCT015 01/M01 Q0990 NOSIG",
      "taf": "TAF EPWA 020830Z 0209/0309 22014KT 9999 BKN020"
    },
    {
      "icao": "EPWR",
      "alert": "OK",
      "vis_m": 9999,
      "fzfg": false,
      "metar_trigger": false,
      "taf_trigger": false,
      "metar": "METAR EPWR 021000Z 24011KT 9999 FEW040 BKN046 03/M03 Q0992",
      "taf": "TAF EPWR 020830Z 0209/0309 24012KT 9999 BKN035"
    },
    {
      "icao": "ESGG",
      "alert": "OK",
      "vis_m": 9999,
      "fzfg": false,
      "metar_trigger": false,
      "taf_trigger": false,
      "metar": "METAR ESGG 021020Z 02016KT 9999 BKN011 M02/M04 Q0978",
      "taf": "TAF ESGG 020830Z 0209/0309 36010KT 6000 -SN SCT005 BKN012"
    },
    {
      "icao": "ESKN",
      "alert": "OK",
      "vis_m": 6000,
      "fzfg": false,
      "metar_trigger": false,
      "taf_trigger": false,
      "metar": "METAR ESKN 021020Z 32006KT 6000 -SN OVC006 M01/M01 Q0977",
      "taf": "TAF ESKN 020830Z 0209/0309 33004KT 7000 -SN BKN004"
    },
    {
      "icao": "ESMS",
      "alert": "OK",
      "vis_m": 9999,
      "fzfg": false,
      "metar_trigger": false,
      "taf_trigger": false,
      "metar": "METAR ESMS 021020Z 28017KT 9999 BKN023 01/M02 Q0979",
      "taf": "TAF ESMS 020827Z 0209/0309 29013KT 9999 BKN020"
    },
    {
      "icao": "ESSA",
      "alert": "OK",
      "vis_m": 900,
      "fzfg": false,
      "metar_trigger": false,
      "taf_trigger": false,
      "metar": "METAR ESSA 021020Z 03017KT 0900 R01L/1900N R19R/P2000N R01R/P2000D R19L/P2000N -SN VV010 M03/M03 Q0979 TEMPO 03015G25KT 3000 -SN",
      "taf": ""
    },
    {
      "icao": "EYKA",
      "alert": "OK",
      "vis_m": 9999,
      "fzfg": false,
      "metar_trigger": false,
      "taf_trigger": false,
      "metar": "METAR EYKA 021020Z 22009KT 170V240 9999 BKN013 OVC048 01/M00 Q0985",
      "taf": "TAF EYKA 020500Z 0206/0306 20010KT 5000 BR OVC010"
    },
    {
      "icao": "EYPA",
      "alert": "OK",
      "vis_m": 9999,
      "fzfg": false,
      "metar_trigger": false,
      "taf_trigger": false,
      "metar": "METAR EYPA 021020Z 22008KT 180V250 9999 FEW030 BKN043 04/M01 Q0980",
      "taf": "TAF EYPA 020500Z 0206/0306 23009KT 8000 SCT015 BKN030"
    },
    {
      "icao": "EYVI",
      "alert": "OK",
      "vis_m": 6000,
      "fzfg": false,
      "metar_trigger": false,
      "taf_trigger": false,
      "metar": "METAR EYVI 021020Z 21015KT 6000 -SNRA OVC006 00/M01 Q0986 NOSIG",
      "taf": ""
    },
    {
      "icao": "GCFV",
      "alert": "OK",
      "vis_m": 9999,
      "fzfg": false,
      "metar_trigger": false,
      "taf_trigger": false,
      "metar": "METAR GCFV 021000Z 21016KT 180V240 9999 SCT025 21/15 Q1008",
      "taf": "TAF GCFV 020800Z 0209/0309 22012KT 9999 SCT025 TX23/0214Z TN16/0306Z"
    },
    {
      "icao": "GCLP",
      "alert": "OK",
      "vis_m": 9999,
      "fzfg": false,
      "metar_trigger": false,
      "taf_trigger": false,
      "metar": "METAR GCLP 021000Z 22017KT 9999 FEW035 22/15 Q1007 NOSIG",
      "taf": "TAF GCLP 020800Z 0209/0309 23013KT 9999 FEW035 TX23/0214Z TN16/0306Z"
    },
    {
      "icao": "GCTS",
      "alert": "OK",
      "vis_m": 9999,
      "fzfg": false,
      "metar_trigger": false,
      "taf_trigger": false,
      "metar": "METAR GCTS 021000Z 28017KT 9999 BKN020 19/15 Q1008 NOSIG",
      "taf": "TAF GCTS 020800Z 0209/0309 25023KT 9999 SCT030 TX25/0214Z TN16/0306Z"
    },
    {
      "icao": "GMAD",
      "alert": "OK",
      "vis_m": 9999,
      "fzfg": false,
      "metar_trigger": false,
      "taf_trigger": false,
      "metar": "METAR GMAD 021000Z 03008KT CAVOK 17/10 Q1011 NOSIG",
      "taf": "TAF GMAD 020500Z 0206/0312 07006KT 8000 SCT020 BKN080"
    },
    {
      "icao": "GMMN",
      "alert": "OK",
      "vis_m": 9999,
      "fzfg": false,
      "metar_trigger": false,
      "taf_trigger": false,
      "metar": "METAR GMMN 021000Z 16012KT CAVOK 15/10 Q1009 NOSIG",
      "taf": "TAF GMMN 020500Z 0206/0312 16005KT CAVOK"
    },
    {
      "icao": "GMMX",
      "alert": "OK",
      "vis_m": 9999,
      "fzfg": false,
      "metar_trigger": false,
      "taf_trigger": false,
      "metar": "METAR GMMX 021000Z 20019KT 170V230 9999 SCT020 SCT090 21/03 Q1008 NOSIG",
      "taf": "TAF GMMX 020500Z 0206/0312 24010KT 8000 NSC TEMP 0206/0223 34018G40KT"
    },
    {
      "icao": "HEGN",
      "alert": "OK",
      "vis_m": 9999,
      "fzfg": false,
      "metar_trigger": false,
      "taf_trigger": false,
      "metar": "METAR HEGN 021000Z 35015KT CAVOK 23/08 Q1021 NOSIG",
      "taf": "TAF HEGN 020500Z 0206/0312 31008KT CAVOK"
    },
    {
      "icao": "HEMA",
      "alert": "OK",
      "vis_m": 9999,
      "fzfg": false,
      "metar_trigger": false,
      "taf_trigger": false,
      "metar": "METAR HEMA 021000Z 36017KT 9999 SCT025 23/13 Q1019 NOSIG",
      "taf": "TAF HEMA 020500Z 0206/0312 31008KT CAVOK"
    },
    {
      "icao": "HESH",
      "alert": "OK",
      "vis_m": 9999,
      "fzfg": false,
      "metar_trigger": false,
      "taf_trigger": false,
      "metar": "METAR HESH 021000Z 36012KT CAVOK 23/07 Q1019 NOSIG",
      "taf": "TAF HESH 020500Z 0206/0312 32008KT CAVOK"
    },
    {
      "icao": "HESX",
      "alert": "OK",
      "vis_m": 9999,
      "fzfg": false,
      "metar_trigger": false,
      "taf_trigger": false,
      "metar": "METAR HESX 021000Z 02009KT 9999 FEW020 BKN070 16/06 Q1023 NOSIG",
      "taf": "TAF HESX 020500Z 0206/0312 27008KT 6000 FEW025"
    },
    {
      "icao": "LATI",
      "alert": "OK",
      "vis_m": 9999,
      "fzfg": false,
      "metar_trigger": false,
      "taf_trigger": false,
      "metar": "METAR LATI 021020Z 14008KT 9999 -RA BKN034 OVC060 09/00 Q1016 NOSIG",
      "taf": "TAF LATI 020500Z 0206/0306 VRB05KT 9999 SCT030 BKN050 TX12/0212Z TN03/0305Z"
    },
    {
      "icao": "LBPD",
      "alert": "OK",
      "vis_m": 9999,
      "fzfg": false,
      "metar_trigger": false,
      "taf_trigger": false,
      "metar": "METAR LBPD 021000Z AUTO VRB02KT 9999 NCD 00/M07 Q1017 NOSIG",
      "taf": "TAF LBPD 020500Z 0206/0306 VRB03KT 9999 SCT070"
    },
    {
      "icao": "LBSF",
      "alert": "OK",
      "vis_m": 9999,
      "fzfg": false,
      "metar_trigger": false,
      "taf_trigger": false,
      "metar": "METAR LBSF 021000Z 10006KT 9999 FEW085 M02/M07 Q1015 NOSIG",
      "taf": "TAF LBSF 020500Z 0206/0306 VRB03KT 9999 SCT040"
    },
    {
      "icao": "LBWN",
      "alert": "OK",
      "vis_m": 9999,
      "fzfg": false,
      "metar_trigger": false,
      "taf_trigger": false,
      "metar": "METAR LBWN 021000Z 27007KT 230V310 CAVOK 06/M07 Q1014 NOSIG",
      "taf": "TAF LBWN 020500Z 0206/0306 VRB03KT CAVOK"
    },
    {
      "icao": "LCLK",
      "alert": "OK",
      "vis_m": 9999,
      "fzfg": false,
      "metar_trigger": false,
      "taf_trigger": false,
      "metar": "METAR LCLK 021000Z 03008KT 010V080 9999 FEW040 14/05 Q1022 NOSIG",
      "taf": "TAF LCLK 020530Z 0206/0306 34009KT 9999 FEW030"
    },
    {
      "icao": "LCPH",
      "alert": "OK",
      "vis_m": 9999,
      "fzfg": false,
      "metar_trigger": false,
      "taf_trigger": false,
      "metar": "METAR LCPH 021000Z AUTO 30004KT 250V320 9999 FEW047 OVC050 14/02 Q1021 NOSIG",
      "taf": "TAF LCPH 020530Z 0206/0306 06008KT 9999 FEW030"
    },
    {
      "icao": "LEAL",
      "alert": "OK",
      "vis_m": 9999,
      "fzfg": false,
      "metar_trigger": false,
      "taf_trigger": false,
      "metar": "METAR LEAL 021000Z 22005KT 190V260 CAVOK 12/09 Q1013 NOSIG",
      "taf": "TAF LEAL 020500Z 0206/0306 26004KT 9999 FEW030 TX16/0214Z TN08/0206Z"
    },
    {
      "icao": "LEBB",
      "alert": "OK",
      "vis_m": 9999,
      "fzfg": false,
      "metar_trigger": false,
      "taf_trigger": false,
      "metar": "METAR LEBB 021000Z 11005KT 080V150 CAVOK 10/06 Q1011 NOSIG",
      "taf": "TAF LEBB 020500Z 0206/0306 12006KT 9999 SCT070 TX12/0214Z TN07/0206Z"
    },
    {
      "icao": "LEBL",
      "alert": "OK",
      "vis_m": 9999,
      "fzfg": false,
      "metar_trigger": false,
      "taf_trigger": false,
      "metar": "METAR LEBL 021000Z 33012KT 9999 FEW015 07/02 Q1012 NOSIG",
      "taf": ""
    },
    {
      "icao": "LECH",
      "alert": "OK",
      "vis_m": 8000,
      "fzfg": false,
      "metar_trigger": false,
      "taf_trigger": false,
      "metar": "METAR LECH 021000Z AUTO VRB01KT 8000 NSC 09/04 Q1012",
      "taf": ""
    },
    {
      "icao": "LEMD",
      "alert": "OK",
      "vis_m": 9999,
      "fzfg": false,
      "metar_trigger": false,
      "taf_trigger": false,
      "metar": "METAR LEMD 021000Z 35005KT 9999 BKN007 OVC019 07/05 Q1013 NOSIG",
      "taf": ""
    },
    {
      "icao": "LEMG",
      "alert": "OK",
      "vis_m": 7000,
      "fzfg": false,
      "metar_trigger": false,
      "taf_trigger": false,
      "metar": "SPECI LEMG 021020Z 30006KT 7000 3000NW BCFG SCT001 10/10 Q1013 NOSIG",
      "taf": ""
    },
    {
      "icao": "LEVC",
      "alert": "OK",
      "vis_m": 9999,
      "fzfg": false,
      "metar_trigger": false,
      "taf_trigger": false,
      "metar": "METAR LEVC 021000Z 09004KT 060V140 CAVOK 11/08 Q1012 NOSIG",
      "taf": "TAF LEVC 020500Z 0206/0306 26007KT 9999 FEW035 TX17/0214Z TN07/0206Z"
    },
    {
      "icao": "LEXJ",
      "alert": "OK",
      "vis_m": 7000,
      "fzfg": false,
      "metar_trigger": false,
      "taf_trigger": false,
      "metar": "METAR LEXJ 021000Z VRB01KT 7000 FEW077 08/05 Q1010",
      "taf": "TAF LEXJ 020800Z 0209/0309 10009KT 9999 SCT070 TX11/0213Z TN06/0308Z"
    },
    {
      "icao": "LEZG",
      "alert": "OK",
      "vis_m": 4000,
      "fzfg": false,
      "metar_trigger": false,
      "taf_trigger": false,
      "metar": "METAR LEZG 021000Z 27001KT 4000 BR OVC006 04/03 Q1013 NOSIG",
      "taf": ""
    },
    {
      "icao": "LEZL",
      "alert": "OK",
      "vis_m": 9999,
      "fzfg": false,
      "metar_trigger": false,
      "taf_trigger": false,
      "metar": "METAR LEZL 021000Z VRB04KT CAVOK 12/10 Q1010 NOSIG",
      "taf": "TAF LEZL 020800Z 0209/0309 06007KT 9999 FEW040 TX18/0215Z TN12/0307Z"
    },
    {
      "icao": "LFBD",
      "alert": "OK",
      "vis_m": 6000,
      "fzfg": false,
      "metar_trigger": false,
      "taf_trigger": false,
      "metar": "METAR LFBD 021000Z AUTO 08006KT 010V120 6000 OVC004 M02/M03 Q1014 BECMG NSC",
      "taf": ""
    },
    {
      "icao": "LFLL",
      "alert": "OK",
      "vis_m": 9999,
      "fzfg": false,
      "metar_trigger": false,
      "taf_trigger": false,
      "metar": "METAR LFLL 021000Z 18003KT CAVOK 00/M04 Q1011 NOSIG",
      "taf": "TAF LFLL 020500Z 0206/0312 VRB03KT 6000 NSC"
    },
    {
      "icao": "LFLS",
      "alert": "OK",
      "vis_m": 9999,
      "fzfg": false,
      "metar_trigger": false,
      "taf_trigger": false,
      "metar": "METAR LFLS 021000Z AUTO 00000KT CAVOK 01/M01 Q1011 NOSIG",
      "taf": "TAF LFLS 020800Z 0209/0309 VRB03KT CAVOK"
    },
    {
      "icao": "LFMN",
      "alert": "OK",
      "vis_m": 9999,
      "fzfg": false,
      "metar_trigger": false,
      "taf_trigger": false,
      "metar": "METAR LFMN 021000Z 30004KT 260V350 CAVOK 09/M01 Q1005 NOSIG",
      "taf": "TAF LFMN 020800Z 0209/0315 31010KT CAVOK"
    },
    {
      "icao": "LFOB",
      "alert": "OK",
      "vis_m": 9999,
      "fzfg": false,
      "metar_trigger": false,
      "taf_trigger": false,
      "metar": "METAR LFOB 021000Z AUTO 27005KT 240V310 9999 -RA FEW014/// BKN019/// BKN027/// //////TCU 03/02 Q1005 TEMPO 2000 SNRA BKN006 OVC012",
      "taf": "TAF LFOB 020500Z 0206/0306 24010KT 9999 BKN025"
    },
    {
      "icao": "LFPO",
      "alert": "OK",
      "vis_m": 9999,
      "fzfg": false,
      "metar_trigger": false,
      "taf_trigger": false,
      "metar": "METAR LFPO 021000Z AUTO 24013KT 9999 BKN010 BKN016 BKN031 03/01 Q1007 TEMPO 4500 -SHRASN BKN009TCU",
      "taf": "TAF LFPO 020500Z 0206/0312 24010KT CAVOK"
    },
    {
      "icao": "LFSB",
      "alert": "OK",
      "vis_m": 9999,
      "fzfg": false,
      "metar_trigger": false,
      "taf_trigger": false,
      "metar": "METAR LFSB 021000Z AUTO 26013KT 9999 BKN021 OVC026 01/M01 Q1008 TEMPO 4000 -SHSN FEW030TCU",
      "taf": ""
    },
    {
      "icao": "LGAV",
      "alert": "OK",
      "vis_m": 9999,
      "fzfg": false,
      "metar_trigger": false,
      "taf_trigger": false,
      "metar": "METAR LGAV 021020Z 23010KT CAVOK 11/M00 Q1021 NOSIG",
      "taf": "TAF LGAV 020500Z 0206/0306 24010KT 9999 FEW025"
    },
    {
      "icao": "LGTS",
      "alert": "OK",
      "vis_m": 9999,
      "fzfg": false,
      "metar_trigger": false,
      "taf_trigger": false,
      "metar": "METAR LGTS 021020Z 30005KT 9999 FEW025 04/01 Q1020 NOSIG",
      "taf": "TAF LGTS 020500Z 0206/0306 VRB03KT 9999 FEW030"
    },
    {
      "icao": "LHBP",
      "alert": "OK",
      "vis_m": 9999,
      "fzfg": false,
      "metar_trigger": false,
      "taf_trigger": false,
      "metar": "METAR LHBP 021000Z 18003KT CAVOK 02/M00 Q1002 NOSIG",
      "taf": ""
    },
    {
      "icao": "LHDC",
      "alert": "OK",
      "vis_m": 9999,
      "fzfg": false,
      "metar_trigger": false,
      "taf_trigger": false,
      "metar": "METAR LHDC 020945Z AUTO 19012KT 160V220 9999 -RA OVC016 01/00 Q1004 TEMPO TL1030 BKN014",
      "taf": "TAF LHDC 020815Z 0209/0218 20013KT 9999 SCT030 BKN080"
    },
    {
      "icao": "LIBD",
      "alert": "OK",
      "vis_m": 9999,
      "fzfg": false,
      "metar_trigger": false,
      "taf_trigger": false,
      "metar": "METAR LIBD 021020Z 18006KT 9999 FEW045 13/07 Q1012",
      "taf": "TAF LIBD 020500Z 0206/0306 20015KT CAVOK"
    },
    {
      "icao": "LIBG",
      "alert": "OK",
      "vis_m": 9999,
      "fzfg": false,
      "metar_trigger": false,
      "taf_trigger": false,
      "metar": "METAR LIBG 020950Z 20010KT 9999 SCT040 14/10 Q1014",
      "taf": "TAF LIBG 020800Z 0209/0218 22013KT 9999 SCT030"
    },
    {
      "icao": "LIBP",
      "alert": "OK",
      "vis_m": 9999,
      "fzfg": false,
      "metar_trigger": false,
      "taf_trigger": false,
      "metar": "METAR LIBP 021020Z AUTO 22020KT 9999 NCD 16/04 Q1007",
      "taf": "TAF LIBP 020500Z 0206/0306 22012KT CAVOK"
    },
    {
      "icao": "LIBR",
      "alert": "OK",
      "vis_m": 9999,
      "fzfg": false,
      "metar_trigger": false,
      "taf_trigger": false,
      "metar": "METAR LIBR 021020Z 21017KT 9999 FEW048 14/08 Q1014",
      "taf": "TAF LIBR 020500Z 0206/0306 20012KT CAVOK"
    },
    {
      "icao": "LICA",
      "alert": "OK",
      "vis_m": 9999,
      "fzfg": false,
      "metar_trigger": false,
      "taf_trigger": false,
      "metar": "METAR LICA 021020Z AUTO VRB02KT 9999 FEW081/// 17/07 Q1017",
      "taf": "TAF LICA 020500Z 0206/0306 07010KT 9999 SCT050"
    },
    {
      "icao": "LICC",
      "alert": "OK",
      "vis_m": 9999,
      "fzfg": false,
      "metar_trigger": false,
      "taf_trigger": false,
      "metar": "METAR LICC 021020Z 22009KT 9999 SCT030 15/13 Q1018",
      "taf": "TAF LICC 020500Z 0206/0306 25010KT 9999 SCT030"
    },
    {
      "icao": "LICJ",
      "alert": "OK",
      "vis_m": 9999,
      "fzfg": false,
      "metar_trigger": false,
      "taf_trigger": false,
      "metar": "METAR LICJ 021020Z 20024G35KT 9999 FEW040 16/06 Q1015",
      "taf": "TAF LICJ 020500Z 0206/0306 19018G30KT 9999 SCT030"
    },
    {
      "icao": "LIMC",
      "alert": "OK",
      "vis_m": 9999,
      "fzfg": false,
      "metar_trigger": false,
      "taf_trigger": false,
      "metar": "METAR LIMC 021020Z VRB02KT CAVOK 05/M00 Q1004 NOSIG",
      "taf": "TAF LIMC 020500Z 0206/0312 VRB04KT 7000 BKN040"
    },
    {
      "icao": "LIME",
      "alert": "OK",
      "vis_m": 800,
      "fzfg": false,
      "metar_trigger": false,
      "taf_trigger": false,
      "metar": "METAR LIME 021020Z VRB02KT 0800 0600E R28/0650D FG SCT001 01/01 Q1004 NOSIG",
      "taf": ""
    },
    {
      "icao": "LIMF",
      "alert": "OK",
      "vis_m": 9999,
      "fzfg": false,
      "metar_trigger": false,
      "taf_trigger": false,
      "metar": "METAR LIMF 021020Z VRB02KT CAVOK 03/M03 Q1004",
      "taf": "TAF LIMF 020500Z 0206/0306 VRB04KT 6000 BKN040"
    },
    {
      "icao": "LIMJ",
      "alert": "OK",
      "vis_m": 9999,
      "fzfg": false,
      "metar_trigger": false,
      "taf_trigger": false,
      "metar": "METAR LIMJ 021020Z 13012KT 9999 SCT030 13/06 Q1004",
      "taf": "TAF LIMJ 020500Z 0206/0306 VRB05KT 9999 SCT025"
    },
    {
      "icao": "LIPE",
      "alert": "OK",
      "vis_m": 8000,
      "fzfg": false,
      "metar_trigger": false,
      "taf_trigger": false,
      "metar": "METAR LIPE 021020Z 29004KT 230V330 8000 FEW065 05/01 Q1006",
      "taf": "TAF LIPE 020500Z 0206/0306 VRB05KT 9999 SCT010 BKN050"
    },
    {
      "icao": "LIPH",
      "alert": "OK",
      "vis_m": 9999,
      "fzfg": false,
      "metar_trigger": false,
      "taf_trigger": false,
      "metar": "METAR LIPH 021020Z AUTO 32003KT 250V360 9999 BKN055/// 04/M02 Q1005",
      "taf": "TAF LIPH 020500Z 0206/0306 VRB04KT 9999 OVC030"
    },
    {
      "icao": "LIPQ",
      "alert": "OK",
      "vis_m": 9999,
      "fzfg": false,
      "metar_trigger": false,
      "taf_trigger": false,
      "metar": "METAR LIPQ 021020Z AUTO 14003KT 110V180 9999 OVC018/// 05/03 Q1005",
      "taf": "TAF LIPQ 020500Z 0206/0306 VRB05KT 9999 FEW030"
    },
    {
      "icao": "LIPR",
      "alert": "OK",
      "vis_m": 9999,
      "fzfg": false,
      "metar_trigger": false,
      "taf_trigger": false,
      "metar": "METAR LIPR 021020Z 33005KT 300V360 9999 SCT060 06/03 Q1005",
      "taf": "TAF LIPR 020500Z 0206/0306 18010KT CAVOK"
    },
    {
      "icao": "LIPX",
      "alert": "OK",
      "vis_m": 900,
      "fzfg": false,
      "metar_trigger": false,
      "taf_trigger": false,
      "metar": "METAR LIPX 021020Z VRB02KT 0900 R04/1800D FG OVC003 02/02 Q1005",
      "taf": ""
    },
    {
      "icao": "LIPY",
      "alert": "OK",
      "vis_m": 9999,
      "fzfg": false,
      "metar_trigger": false,
      "taf_trigger": false,
      "metar": "METAR LIPY 021020Z AUTO VRB02KT 9999 -RA FEW016/// BKN040/// 11/07 Q1006",
      "taf": "TAF LIPY 020500Z 0206/0306 VRB05KT 9999 OVC030"
    },
    {
      "icao": "LIPZ",
      "alert": "OK",
      "vis_m": 9000,
      "fzfg": false,
      "metar_trigger": false,
      "taf_trigger": false,
      "metar": "METAR LIPZ 021020Z 30003KT 280V360 9000 BKN050 03/M01 Q1005 NOSIG",
      "taf": "TAF LIPZ 020500Z 0206/0312 VRB05KT 9999 BKN030"
    },
    {
      "icao": "LIRF",
      "alert": "OK",
      "vis_m": 9999,
      "fzfg": false,
      "metar_trigger": false,
      "taf_trigger": false,
      "metar": "METAR LIRF 021020Z 24019KT 9999 SCT040 15/07 Q1010 NOSIG",
      "taf": "TAF LIRF 020500Z 0206/0312 VRB05KT 9999 BKN030"
    },
    {
      "icao": "LIRN",
      "alert": "OK",
      "vis_m": 8000,
      "fzfg": false,
      "metar_trigger": false,
      "taf_trigger": false,
      "metar": "METAR LIRN 021020Z 23013KT 190V290 8000 -RA SCT030 14/10 Q1013 NOSIG",
      "taf": "TAF LIRN 020500Z 0206/0306 23010KT 9999 SCT040"
    },
    {
      "icao": "LIRP",
      "alert": "OK",
      "vis_m": 9999,
      "fzfg": false,
      "metar_trigger": false,
      "taf_trigger": false,
      "metar": "METAR LIRP 021015Z 23020G30KT 9999 BKN030 13/09 Q1006 NOSIG",
      "taf": "TAF LIRP 020500Z 0206/0306 24012KT 9999 SCT030 SCT060"
    },
    {
      "icao": "LIRZ",
      "alert": "OK",
      "vis_m": 9999,
      "fzfg": false,
      "metar_trigger": false,
      "taf_trigger": false,
      "metar": "METAR LIRZ 021020Z AUTO 18006KT 9999 BKN029/// BKN065/// 11/07 Q1009",
      "taf": "TAF LIRZ 020500Z 0206/0306 19012KT 9999 BKN040"
    },
    {
      "icao": "LJLJ",
      "alert": "OK",
      "vis_m": 9999,
      "fzfg": false,
      "metar_trigger": false,
      "taf_trigger": false,
      "metar": "METAR LJLJ 021000Z 24006KT 9999 BKN027 OVC045 04/00 Q1003 NOSIG",
      "taf": "TAF LJLJ 020500Z 0206/0306 30004KT 9999 BKN025 OVC045"
    },
    {
      "icao": "LKMT",
      "alert": "OK",
      "vis_m": 9999,
      "fzfg": false,
      "metar_trigger": false,
      "taf_trigger": false,
      "metar": "METAR LKMT 021000Z 22024KT 9999 FEW017 02/M04 Q0996 NOSIG",
      "taf": "TAF LKMT 020500Z 0206/0306 21018KT 9999 SCT040"
    },
    {
      "icao": "LKPR",
      "alert": "OK",
      "vis_m": 9999,
      "fzfg": false,
      "metar_trigger": false,
      "taf_trigger": false,
      "metar": "METAR LKPR 021000Z 22024KT 9999 FEW024 BKN036 01/M03 Q0995 NOSIG",
      "taf": "TAF LKPR 020800Z 0209/0315 22024KT 9999 SCT030"
    },
    {
      "icao": "LLBG",
      "alert": "OK",
      "vis_m": 9999,
      "fzfg": false,
      "metar_trigger": false,
      "taf_trigger": false,
      "metar": "METAR LLBG 021020Z 28011KT 9999 SCT040 BKN050 16/08 Q1021 NOSIG",
      "taf": "TAF LLBG 020505Z 0206/0306 17006KT 9999 BKN035"
    },
    {
      "icao": "LMML",
      "alert": "OK",
      "vis_m": 9999,
      "fzfg": false,
      "metar_trigger": false,
      "taf_trigger": false,
      "metar": "METAR LMML 021015Z 22013KT 180V240 9999 FEW025 16/12 Q1020 NOSIG",
      "taf": ""
    },
    {
      "icao": "LOWW",
      "alert": "OK",
      "vis_m": 9999,
      "fzfg": false,
      "metar_trigger": false,
      "taf_trigger": false,
      "metar": "METAR LOWW 021020Z 25011KT CAVOK 04/M04 Q1001 TEMPO 27020G30KT",
      "taf": "TAF LOWW 020815Z 0209/0315 26013KT CAVOK TX06/0212Z TN02/0304Z"
    },
    {
      "icao": "LPFR",
      "alert": "OK",
      "vis_m": 8000,
      "fzfg": false,
      "metar_trigger": false,
      "taf_trigger": false,
      "metar": "METAR LPFR 021000Z 10007KT 8000 -RA SCT016 SCT040 16/15 Q1006",
      "taf": "TAF LPFR 020500Z 0206/0306 13015KT 9999 FEW010 SCT030"
    },
    {
      "icao": "LPMA",
      "alert": "OK",
      "vis_m": 9999,
      "fzfg": false,
      "metar_trigger": false,
      "taf_trigger": false,
      "metar": "METAR LPMA 021000Z VRB03KT 9999 SCT015 16/09 Q0999",
      "taf": ""
    },
    {
      "icao": "LPPR",
      "alert": "OK",
      "vis_m": 9999,
      "fzfg": false,
      "metar_trigger": false,
      "taf_trigger": false,
      "metar": "METAR LPPR 021000Z 12011KT 9999 FEW035 BKN040 14/10 Q1004",
      "taf": "TAF LPPR 020500Z 0206/0306 11013KT 9999 SCT040"
    },
    {
      "icao": "LPPS",
      "alert": "OK",
      "vis_m": 9999,
      "fzfg": false,
      "metar_trigger": false,
      "taf_trigger": false,
      "metar": "METAR LPPS 021000Z 26017KT 9999 FEW014 SCT030 17/11 Q0999",
      "taf": "TAF LPPS 020500Z 0206/0312 27020KT 9999 SCT013 SCT030"
    },
    {
      "icao": "LPPT",
      "alert": "OK",
      "vis_m": 9999,
      "fzfg": false,
      "metar_trigger": false,
      "taf_trigger": false,
      "metar": "METAR LPPT 021000Z 17018KT 9999 FEW012 BKN035 16/13 Q1003",
      "taf": "TAF LPPT 020500Z 0206/0312 14013KT 9999 SCT012 BKN025"
    },
    {
      "icao": "LQBK",
      "alert": "OK",
      "vis_m": 9999,
      "fzfg": false,
      "metar_trigger": false,
      "taf_trigger": false,
      "metar": "METAR LQBK 021000Z COR 20015KT CAVOK 11/03 Q1004 NOSIG",
      "taf": "TAF LQBK 020500Z 0206/0306 22005KT CAVOK TX12/0213Z TN00/0306Z"
    },
    {
      "icao": "LQSA",
      "alert": "OK",
      "vis_m": 9999,
      "fzfg": false,
      "metar_trigger": false,
      "taf_trigger": false,
      "metar": "METAR LQSA 021000Z 15010KT 120V180 9999 -RA FEW030 BKN050 07/03 Q1006 NOSIG",
      "taf": "TAF LQSA 020500Z 0206/0306 14005KT CAVOK TX08/0213Z TN01/0301Z"
    },
    {
      "icao": "LQTZ",
      "alert": "OK",
      "vis_m": 9999,
      "fzfg": false,
      "metar_trigger": false,
      "taf_trigger": false,
      "metar": "METAR LQTZ 021000Z 25007KT 210V310 9999 FEW055 13/02 Q1004",
      "taf": "TAF LQTZ 020500Z 0206/0306 16005KT CAVOK TX13/0213Z TN01/0306Z"
    },
    {
      "icao": "LRBC",
      "alert": "OK",
      "vis_m": 9999,
      "fzfg": false,
      "metar_trigger": false,
      "taf_trigger": false,
      "metar": "METAR LRBC 021000Z 17011KT CAVOK 00/M06 Q1005",
      "taf": "TAF LRBC 020800Z 0209/0218 17012KT CAVOK"
    },
    {
      "icao": "LRBS",
      "alert": "OK",
      "vis_m": 9999,
      "fzfg": false,
      "metar_trigger": false,
      "taf_trigger": false,
      "metar": "METAR LRBS 021000Z COR 23006KT 200V270 CAVOK 04/M07 Q1012 NOSIG",
      "taf": "TAF LRBS 020500Z 0206/0306 VRB04KT CAVOK"
    },
    {
      "icao": "LRBV",
      "alert": "OK",
      "vis_m": 9999,
      "fzfg": false,
      "metar_trigger": false,
      "taf_trigger": false,
      "metar": "METAR LRBV 021000Z 36004KT 240V040 9999 FEW062 05/M03 Q1005",
      "taf": "TAF LRBV 020800Z 0209/0218 22014KT 9999 BKN050"
    },
    {
      "icao": "LRCL",
      "alert": "OK",
      "vis_m": 9999,
      "fzfg": false,
      "metar_trigger": false,
      "taf_trigger": false,
      "metar": "METAR LRCL 021000Z 07003KT 360V120 9999 -SN OVC036 01/M02 Q1004",
      "taf": "TAF LRCL 020800Z 0209/0218 VRB04KT 9999 BKN050"
    },
    {
      "icao": "LRCV",
      "alert": "OK",
      "vis_m": 9999,
      "fzfg": false,
      "metar_trigger": false,
      "taf_trigger": false,
      "metar": "METAR LRCV 021000Z 11003KT 070V140 CAVOK 01/M05 Q1011",
      "taf": "TAF LRCV 020800Z 0209/0218 VRB04KT CAVOK"
    },
    {
      "icao": "LRIA",
      "alert": "OK",
      "vis_m": 9999,
      "fzfg": false,
      "metar_trigger": false,
      "taf_trigger": false,
      "metar": "METAR LRIA 021000Z 20009KT CAVOK 03/M06 Q1004",
      "taf": "TAF LRIA 020800Z 0209/0218 18009KT CAVOK"
    },
    {
      "icao": "LROP",
      "alert": "OK",
      "vis_m": 9999,
      "fzfg": false,
      "metar_trigger": false,
      "taf_trigger": false,
      "metar": "METAR LROP 021000Z 21006KT CAVOK 04/M10 Q1012 NOSIG",
      "taf": "TAF LROP 020500Z 0206/0306 VRB04KT CAVOK"
    },
    {
      "icao": "LRSB",
      "alert": "OK",
      "vis_m": 9999,
      "fzfg": false,
      "metar_trigger": false,
      "taf_trigger": false,
      "metar": "METAR LRSB 021000Z VRB03KT 9999 SCT028 SCT042 BKN065 04/M01 Q1005",
      "taf": "TAF LRSB 020500Z 0206/0306 VRB04KT 9999 BKN045"
    },
    {
      "icao": "LRSM",
      "alert": "OK",
      "vis_m": 9999,
      "fzfg": false,
      "metar_trigger": false,
      "taf_trigger": false,
      "metar": "METAR LRSM 021000Z 22013KT 9999 BKN010 OVC015 03/00 Q1004",
      "taf": "TAF LRSM 020800Z 0209/0218 23012KT 9999 BKN035"
    },
    {
      "icao": "LRSV",
      "alert": "OK",
      "vis_m": 9999,
      "fzfg": false,
      "metar_trigger": false,
      "taf_trigger": false,
      "metar": "METAR LRSV 021000Z 21011KT CAVOK 03/M03 Q1001",
      "taf": "TAF LRSV 020800Z 0209/0218 20010KT CAVOK"
    },
    {
      "icao": "LRTM",
      "alert": "OK",
      "vis_m": 9999,
      "fzfg": false,
      "metar_trigger": false,
      "taf_trigger": false,
      "metar": "METAR LRTM 021000Z 24005KT 210V270 9999 FEW035 SCT046 05/M02 Q1005",
      "taf": "TAF LRTM 020800Z 0209/0218 VRB04KT 9999 BKN050"
    },
    {
      "icao": "LRTR",
      "alert": "OK",
      "vis_m": 9999,
      "fzfg": false,
      "metar_trigger": false,
      "taf_trigger": false,
      "metar": "METAR LRTR 021000Z 19017KT CAVOK 06/M08 Q1005",
      "taf": "TAF LRTR 020500Z 0206/0306 18013KT 9999 BKN045"
    },
    {
      "icao": "LTAC",
      "alert": "OK",
      "vis_m": 9999,
      "fzfg": false,
      "metar_trigger": false,
      "taf_trigger": false,
      "metar": "METAR LTAC 021020Z 09003KT 020V130 CAVOK M06/M11 Q1021 NOSIG",
      "taf": "TAF LTAC 020440Z 0206/0306 VRB02KT CAVOK"
    },
    {
      "icao": "LTFM",
      "alert": "OK",
      "vis_m": 9999,
      "fzfg": false,
      "metar_trigger": false,
      "taf_trigger": false,
      "metar": "METAR LTFM 021020Z 21023KT CAVOK 05/M06 Q1019 NOSIG",
      "taf": "TAF LTFM 020440Z 0206/0312 20018KT CAVOK"
    },
    {
      "icao": "LUKK",
      "alert": "OK",
      "vis_m": 9999,
      "fzfg": false,
      "metar_trigger": false,
      "taf_trigger": false,
      "metar": "METAR LUKK 021000Z 23013KT CAVOK 01/M06 Q1006 TEMPO 22016G26KT",
      "taf": "TAF LUKK 020521Z 0206/0306 21012KT CAVOK"
    },
    {
      "icao": "LWOH",
      "alert": "OK",
      "vis_m": 9999,
      "fzfg": false,
      "metar_trigger": false,
      "taf_trigger": false,
      "metar": "METAR LWOH 021020Z 35004KT 260V040 9999 -SN SCT015 BKN035 01/M03 Q1016",
      "taf": "TAF LWOH 020845Z 0209/0309 16010KT 9999 SCT040 BKN080"
    },
    {
      "icao": "LWSK",
      "alert": "OK",
      "vis_m": 9999,
      "fzfg": false,
      "metar_trigger": false,
      "taf_trigger": false,
      "metar": "METAR LWSK 021020Z VRB01KT 9999 BKN070 M03/M09 Q1017 NOSIG",
      "taf": "TAF LWSK 020845Z 0209/0309 VRB02KT 9999 FEW050 SCT100"
    },
    {
      "icao": "LYBE",
      "alert": "OK",
      "vis_m": 9999,
      "fzfg": false,
      "metar_trigger": false,
      "taf_trigger": false,
      "metar": "METAR LYBE 021000Z 15009KT CAVOK 10/M02 Q1006 NOSIG",
      "taf": "TAF LYBE 020500Z 0206/0306 17012KT CAVOK TX11/0212Z TN01/0306Z"
    },
    {
      "icao": "LYNI",
      "alert": "OK",
      "vis_m": 9999,
      "fzfg": false,
      "metar_trigger": false,
      "taf_trigger": false,
      "metar": "METAR LYNI 021000Z 17009KT 140V220 9999 FEW060 08/M07 Q1012 NOSIG",
      "taf": "TAF LYNI 020500Z 0206/0306 16009KT CAVOK TX09/0212Z TNM00/0206Z"
    },
    {
      "icao": "LYPG",
      "alert": "OK",
      "vis_m": 1200,
      "fzfg": false,
      "metar_trigger": false,
      "taf_trigger": false,
      "metar": "METAR LYPG 021000Z 31003KT 270V350 1200 R18/1600D R36/1700D -RA FEW015 BKN034 OVC070 00/M01 Q1016 NOSIG",
      "taf": "TAF LYPG 020500Z 0206/0306 36006KT 9999 FEW030 BKN040 OVC080 TX06/0218Z TN01/0206Z"
    },
    {
      "icao": "LZIB",
      "alert": "OK",
      "vis_m": 9999,
      "fzfg": false,
      "metar_trigger": false,
      "taf_trigger": false,
      "metar": "METAR LZIB 021000Z 21009KT CAVOK 02/M05 Q1001 NOSIG",
      "taf": "TAF LZIB 020515Z 0206/0306 27016KT CAVOK"
    },
    {
      "icao": "LZKZ",
      "alert": "OK",
      "vis_m": 9999,
      "fzfg": false,
      "metar_trigger": false,
      "taf_trigger": false,
      "metar": "METAR LZKZ 021000Z 20010KT CAVOK M01/M03 Q1000 NOSIG",
      "taf": "TAF LZKZ 020515Z 0206/0306 22010KT 9999 SCT020"
    },
    {
      "icao": "LZTT",
      "alert": "OK",
      "vis_m": 6000,
      "fzfg": false,
      "metar_trigger": false,
      "taf_trigger": false,
      "metar": "METAR LZTT 021000Z 28013KT 6000 -SN FEW016 BKN036 M01/M05 Q0996 NOSIG",
      "taf": "TAF LZTT 020515Z 0206/0306 26015KT 9999 BKN033"
    },
    {
      "icao": "OEJN",
      "alert": "OK",
      "vis_m": 9999,
      "fzfg": false,
      "metar_trigger": false,
      "taf_trigger": false,
      "metar": "METAR OEJN 021000Z 34003KT CAVOK 31/12 Q1015 NOSIG",
      "taf": "TAF OEJN 020500Z 0206/0312 33012KT CAVOK"
    },
    {
      "icao": "OEMA",
      "alert": "OK",
      "vis_m": 9999,
      "fzfg": false,
      "metar_trigger": false,
      "taf_trigger": false,
      "metar": "METAR OEMA 021000Z VRB03KT CAVOK 24/00 Q1020 NOSIG",
      "taf": "TAF OEMA 020500Z 0206/0312 09010KT CAVOK"
    },
    {
      "icao": "OJAI",
      "alert": "OK",
      "vis_m": 2800,
      "fzfg": false,
      "metar_trigger": false,
      "taf_trigger": false,
      "metar": "METAR OJAI 021000Z 26014KT 2800 BR FEW015 BKN020 10/08 Q1021 NOSIG",
      "taf": ""
    },
    {
      "icao": "OMAA",
      "alert": "OK",
      "vis_m": 9999,
      "fzfg": false,
      "metar_trigger": false,
      "taf_trigger": false,
      "metar": "METAR OMAA 021000Z 27007KT 230V300 9999 SCT030 23/15 Q1018 NOSIG",
      "taf": "TAF OMAA 020500Z 0206/0312 22005KT 9999 FEW040"
    },
    {
      "icao": "OMDB",
      "alert": "OK",
      "vis_m": 9999,
      "fzfg": false,
      "metar_trigger": false,
      "taf_trigger": false,
      "metar": "METAR OMDB 021030Z 30010KT 270V330 9999 FEW033 24/15 Q1018 NOSIG",
      "taf": "TAF OMDB 020500Z 0206/0312 20005KT 8000 NSC"
    },
    {
      "icao": "UAAA",
      "alert": "OK",
      "vis_m": 5000,
      "fzfg": false,
      "metar_trigger": false,
      "taf_trigger": false,
      "metar": "METAR UAAA 021000Z 00000MPS 5000 BR OVC010 01/M02 Q1020 NOSIG",
      "taf": "TAF UAAA 020503Z 0206/0306 03003MPS 5000 BR BKN011 OVC030 TX02/0209Z TNM02/0302Z"
    },
    {
      "icao": "UBBB",
      "alert": "OK",
      "vis_m": 9999,
      "fzfg": false,
      "metar_trigger": false,
      "taf_trigger": false,
      "metar": "METAR UBBB 021000Z 32024G38KT 9999 -SHRA BKN011 BKN030CB OVC030 03/01 Q1023 NOSIG",
      "taf": "TAF UBBB 020503Z 0206/0306 32026G36KT 9999 SCT015 FEW030CB OVC030 TX04/0209Z TN02/0302Z"
    },
    {
      "icao": "UDSG",
      "alert": "OK",
      "vis_m": 9999,
      "fzfg": false,
      "metar_trigger": false,
      "taf_trigger": false,
      "metar": "METAR UDSG 021000Z 31006KT 9999 NSC M06/M15 Q1019 NOSIG",
      "taf": "TAF UDSG 020458Z 0206/0306 VRB06KT 5000 BR BKN030"
    },
    {
      "icao": "UDYZ",
      "alert": "OK",
      "vis_m": 9999,
      "fzfg": false,
      "metar_trigger": false,
      "taf_trigger": false,
      "metar": "METAR UDYZ 021000Z 00000KT 9999 FEW046 03/M07 Q1020 NOSIG",
      "taf": "TAF UDYZ 020500Z 0206/0306 14006KT 3500 BR BKN030"
    },
    {
      "icao": "UGKO",
      "alert": "OK",
      "vis_m": 9999,
      "fzfg": false,
      "metar_trigger": false,
      "taf_trigger": false,
      "metar": "METAR UGKO 021000Z 28005KT 250V310 CAVOK 05/M07 Q1026 NOSIG",
      "taf": "TAF UGKO 020500Z 0206/0306 24010KT CAVOK TX06/0211Z TNM04/0303Z"
    }
  ]
}