{
  "ts_utc": "2026-03-31T11:33:08Z",
  "threshold_m": 150,
  "source": "stations_override.txt (ICAO list) + aviationweather.gov (METAR/TAF raw)",
  "station_count": 159,
  "stations": [
    {
      "icao": "BIKF",
      "alert": "OK",
      "vis_m": 9999,
      "fzfg": false,
      "metar_trigger": false,
      "taf_trigger": false,
      "metar": "METAR BIKF 311100Z 25021KT 9999 VCSH DRSN FEW003CB SCT015 BKN024 M00/M03 Q1004",
      "taf": "TAF BIKF 311049Z 3112/0112 27025G35KT 9999 -SHSN BKN020 TX04/0112Z TNM01/0101Z"
    },
    {
      "icao": "BKPR",
      "alert": "OK",
      "vis_m": 9999,
      "fzfg": false,
      "metar_trigger": false,
      "taf_trigger": false,
      "metar": "METAR BKPR 311130Z 03014KT 9999 BKN035 07/01 Q1010 NOSIG",
      "taf": "TAF BKPR 311130Z 3112/0112 02014KT 9999 SCT020 BKN040"
    },
    {
      "icao": "EBCI",
      "alert": "OK",
      "vis_m": 9999,
      "fzfg": false,
      "metar_trigger": false,
      "taf_trigger": false,
      "metar": "METAR EBCI 311120Z 29006KT 240V330 9999 FEW025 BKN040 09/03 Q1029 NOSIG",
      "taf": "TAF EBCI 311110Z 3112/0118 31008KT 9999 FEW025 SCT045"
    },
    {
      "icao": "EDDB",
      "alert": "OK",
      "vis_m": 9999,
      "fzfg": false,
      "metar_trigger": false,
      "taf_trigger": false,
      "metar": "METAR EDDB 311120Z AUTO 27012KT 9999 FEW023 SCT037 BKN048 08/03 Q1021 TEMPO 29015G25KT SHRA",
      "taf": "TAF EDDB 311100Z 3112/0112 29011KT 9999 BKN025"
    },
    {
      "icao": "EDDH",
      "alert": "OK",
      "vis_m": 9999,
      "fzfg": false,
      "metar_trigger": false,
      "taf_trigger": false,
      "metar": "METAR EDDH 311120Z AUTO 30020G30KT 9999 -SHRA FEW022 SCT027 BKN036 FEW///TCU 09/04 Q1023 RESHRA NOSIG",
      "taf": "TAF EDDH 311100Z 3112/0118 30015KT 9999 SCT025"
    },
    {
      "icao": "EDDK",
      "alert": "OK",
      "vis_m": 9999,
      "fzfg": false,
      "metar_trigger": false,
      "taf_trigger": false,
      "metar": "METAR EDDK 311120Z AUTO 33008KT 290V360 9999 FEW026 BKN035 09/02 Q1028 NOSIG",
      "taf": "TAF EDDK 311100Z 3112/0118 31010KT 9999 SCT025"
    },
    {
      "icao": "EDDN",
      "alert": "OK",
      "vis_m": 9999,
      "fzfg": false,
      "metar_trigger": false,
      "taf_trigger": false,
      "metar": "METAR EDDN 311120Z AUTO 31008KT 9999 SCT032 SCT039 BKN049 06/M00 Q1025 NOSIG",
      "taf": "TAF EDDN 311100Z 3112/0112 31009KT 9999 SCT025 BKN040"
    },
    {
      "icao": "EDDS",
      "alert": "OK",
      "vis_m": 9999,
      "fzfg": false,
      "metar_trigger": false,
      "taf_trigger": false,
      "metar": "METAR EDDS 311120Z AUTO 32010KT 290V360 9999 FEW018 SCT031 06/00 Q1025 TEMPO SHRA BKN035TCU",
      "taf": "TAF EDDS 311100Z 3112/0112 34007KT 9999 BKN030"
    },
    {
      "icao": "EDFH",
      "alert": "OK",
      "vis_m": 9999,
      "fzfg": false,
      "metar_trigger": false,
      "taf_trigger": false,
      "metar": "METAR EDFH 311120Z 33007KT 300V010 9999 VCSH FEW010 SCT016 BKN021TCU 06/02 Q1026",
      "taf": "TAF EDFH 311100Z 3112/0112 32008KT 9999 BKN025"
    },
    {
      "icao": "EDJA",
      "alert": "OK",
      "vis_m": 9999,
      "fzfg": false,
      "metar_trigger": false,
      "taf_trigger": false,
      "metar": "METAR EDJA 311120Z COR 35005KT 310V010 9999 SCT023 BKN033 OVC040 02/M02 Q1024",
      "taf": "TAF EDJA 311100Z 3112/3121 35005KT 9999 SCT015 BKN030"
    },
    {
      "icao": "EDLW",
      "alert": "OK",
      "vis_m": 9999,
      "fzfg": false,
      "metar_trigger": false,
      "taf_trigger": false,
      "metar": "METAR EDLW 311120Z 30008KT 250V360 9999 BKN032 08/03 Q1026",
      "taf": "TAF EDLW 311100Z 3112/0112 31007KT 9999 SCT030"
    },
    {
      "icao": "EDNY",
      "alert": "OK",
      "vis_m": 9999,
      "fzfg": false,
      "metar_trigger": false,
      "taf_trigger": false,
      "metar": "METAR EDNY 311120Z 36003KT 280V090 9999 FEW019 BKN022 OVC051 05/M01 Q1026",
      "taf": "TAF EDNY 311100Z 3112/3121 36005KT 9999 SCT015 BKN025"
    },
    {
      "icao": "EDSB",
      "alert": "OK",
      "vis_m": 9999,
      "fzfg": false,
      "metar_trigger": false,
      "taf_trigger": false,
      "metar": "METAR EDSB 311120Z 14006KT 120V190 9999 FEW024 SCT038 07/03 Q1028",
      "taf": "TAF EDSB 311100Z 3112/0112 19004KT 9999 BKN035"
    },
    {
      "icao": "EETN",
      "alert": "OK",
      "vis_m": 9999,
      "fzfg": false,
      "metar_trigger": false,
      "taf_trigger": false,
      "metar": "METAR EETN 311120Z 33008KT CAVOK 07/M02 Q1015 NOSIG",
      "taf": "TAF EETN 310530Z 3106/0106 32005KT CAVOK"
    },
    {
      "icao": "EFTU",
      "alert": "OK",
      "vis_m": 9999,
      "fzfg": false,
      "metar_trigger": false,
      "taf_trigger": false,
      "metar": "METAR EFTU 311120Z AUTO 25006KT 9999 BKN012 06/01 Q1015",
      "taf": "TAF EFTU 310825Z 3109/0109 22007KT 9999 FEW010"
    },
    {
      "icao": "EGBB",
      "alert": "OK",
      "vis_m": 9999,
      "fzfg": false,
      "metar_trigger": false,
      "taf_trigger": false,
      "metar": "METAR EGBB 311120Z 30009KT 9999 FEW027 15/08 Q1030",
      "taf": "TAF EGBB 311101Z 3112/0112 28008KT 9999 SCT045"
    },
    {
      "icao": "EGGP",
      "alert": "OK",
      "vis_m": 9999,
      "fzfg": false,
      "metar_trigger": false,
      "taf_trigger": false,
      "metar": "METAR EGGP 311120Z 28013KT 9999 OVC006 11/09 Q1030",
      "taf": "TAF EGGP 311057Z 3112/0112 29010KT 9999 FEW010 SCT025"
    },
    {
      "icao": "EGGW",
      "alert": "OK",
      "vis_m": 9999,
      "fzfg": false,
      "metar_trigger": false,
      "taf_trigger": false,
      "metar": "METAR EGGW 311120Z AUTO 34012KT 9999 BKN018 13/09 Q1030",
      "taf": "TAF EGGW 311101Z 3112/0112 32007KT 9999 SCT030"
    },
    {
      "icao": "EGKK",
      "alert": "OK",
      "vis_m": 9999,
      "fzfg": false,
      "metar_trigger": false,
      "taf_trigger": false,
      "metar": "METAR EGKK 311120Z 32008KT 290V360 9999 BKN018 13/09 Q1030",
      "taf": "TAF EGKK 311054Z 3112/0118 32010KT 9999 SCT020"
    },
    {
      "icao": "EGNM",
      "alert": "OK",
      "vis_m": 9999,
      "fzfg": false,
      "metar_trigger": false,
      "taf_trigger": false,
      "metar": "METAR EGNM 311120Z 28014KT 9999 SCT014 BKN018 13/09 Q1028",
      "taf": "TAF EGNM 311059Z 3112/0112 27012KT 9999 SCT025"
    },
    {
      "icao": "EGPD",
      "alert": "OK",
      "vis_m": 9999,
      "fzfg": false,
      "metar_trigger": false,
      "taf_trigger": false,
      "metar": "METAR EGPD 311120Z COR AUTO 29012KT 9999 BKN039 15/07 Q1023 NOSIG",
      "taf": "TAF EGPD 311101Z 3112/0112 27010KT 9999 FEW035"
    },
    {
      "icao": "EGPF",
      "alert": "OK",
      "vis_m": 9999,
      "fzfg": false,
      "metar_trigger": false,
      "taf_trigger": false,
      "metar": "METAR EGPF 311120Z AUTO 25014KT 9999 BKN011 OVC022 12/10 Q1027",
      "taf": "TAF EGPF 311056Z 3112/0112 26012KT 9999 BKN020"
    },
    {
      "icao": "EHBK",
      "alert": "OK",
      "vis_m": 9999,
      "fzfg": false,
      "metar_trigger": false,
      "taf_trigger": false,
      "metar": "METAR EHBK 311125Z AUTO 26004KT 210V310 9999 NSC 09/05 Q1028 NOSIG",
      "taf": "TAF EHBK 311117Z 3112/0118 28008KT 9999 FEW016"
    },
    {
      "icao": "EHEH",
      "alert": "OK",
      "vis_m": 9999,
      "fzfg": false,
      "metar_trigger": false,
      "taf_trigger": false,
      "metar": "METAR EHEH 311125Z AUTO 26006KT 270V360 9999 BKN024 BKN033 OVC038 10/05 Q1028 WHT BECMG 32006KT",
      "taf": "TAF EHEH 310528Z 3106/0112 25003KT CAVOK"
    },
    {
      "icao": "EKBI",
      "alert": "OK",
      "vis_m": 9999,
      "fzfg": false,
      "metar_trigger": false,
      "taf_trigger": false,
      "metar": "METAR EKBI 311120Z AUTO 30014KT 9999 BKN029/// 09/02 Q1020",
      "taf": "TAF EKBI 311127Z 3112/0112 32015KT 9999 SCT030"
    },
    {
      "icao": "EKCH",
      "alert": "OK",
      "vis_m": 9999,
      "fzfg": false,
      "metar_trigger": false,
      "taf_trigger": false,
      "metar": "METAR EKCH 311120Z AUTO 31011KT 9999 FEW031/// 10/01 Q1018 NOSIG",
      "taf": "TAF EKCH 311127Z 3112/0112 32012KT 9999 SCT025"
    },
    {
      "icao": "ENAL",
      "alert": "OK",
      "vis_m": 9999,
      "fzfg": false,
      "metar_trigger": false,
      "taf_trigger": false,
      "metar": "METAR ENAL 311120Z 24015KT 9999 VCSH FEW019 BKN024 06/04 Q1016",
      "taf": "TAF ENAL 310800Z 3109/3118 23012KT 9999 -SHRA FEW015 BKN025"
    },
    {
      "icao": "ENBR",
      "alert": "OK",
      "vis_m": 9999,
      "fzfg": false,
      "metar_trigger": false,
      "taf_trigger": false,
      "metar": "METAR ENBR 311120Z VRB02KT 9999 SCT011 SCT022 06/03 Q1021 NOSIG RMK WIND 1200FT 15005KT",
      "taf": ""
    },
    {
      "icao": "ENGM",
      "alert": "OK",
      "vis_m": 9999,
      "fzfg": false,
      "metar_trigger": false,
      "taf_trigger": false,
      "metar": "METAR ENGM 311120Z 04005KT 350V110 CAVOK 09/M01 Q1017 NOSIG",
      "taf": "TAF ENGM 310500Z 3106/0106 02005KT 9999 FEW005"
    },
    {
      "icao": "ENHD",
      "alert": "OK",
      "vis_m": 9999,
      "fzfg": false,
      "metar_trigger": false,
      "taf_trigger": false,
      "metar": "METAR ENHD 311120Z 30004KT 250V020 9999 FEW030 09/01 Q1022",
      "taf": "TAF ENHD 310800Z 3109/3118 30008KT 9999 -SHRA FEW015TCU BKN025"
    },
    {
      "icao": "ENTC",
      "alert": "OK",
      "vis_m": 9999,
      "fzfg": false,
      "metar_trigger": false,
      "taf_trigger": false,
      "metar": "METAR ENTC 311120Z 21015KT 9999 SCT033 BKN042 06/01 Q1007 NOSIG RMK WIND 2600FT 19019KT",
      "taf": ""
    },
    {
      "icao": "ENTO",
      "alert": "OK",
      "vis_m": 9999,
      "fzfg": false,
      "metar_trigger": false,
      "taf_trigger": false,
      "metar": "METAR ENTO 311120Z 01012KT 340V040 CAVOK 11/M02 Q1017 NOSIG",
      "taf": "TAF ENTO 310500Z 3106/0106 35008KT CAVOK"
    },
    {
      "icao": "ENVA",
      "alert": "OK",
      "vis_m": 9999,
      "fzfg": false,
      "metar_trigger": false,
      "taf_trigger": false,
      "metar": "METAR ENVA 311120Z 28003KT 240V300 9999 -RA BKN024 07/03 Q1016 NOSIG RMK WIND 670FT 19005KT",
      "taf": "TAF ENVA 310500Z 3106/0106 16008KT 9999 SCT020"
    },
    {
      "icao": "ENZV",
      "alert": "OK",
      "vis_m": 9999,
      "fzfg": false,
      "metar_trigger": false,
      "taf_trigger": false,
      "metar": "METAR ENZV 311120Z 32008KT 9999 FEW022 08/03 Q1022 NOSIG",
      "taf": ""
    },
    {
      "icao": "EPGD",
      "alert": "OK",
      "vis_m": 9999,
      "fzfg": false,
      "metar_trigger": false,
      "taf_trigger": false,
      "metar": "METAR EPGD 311100Z 31011KT 290V350 9999 BKN027 07/01 Q1017",
      "taf": "TAF EPGD 311130Z 3112/0112 31013KT 9999 BKN025"
    },
    {
      "icao": "EPKK",
      "alert": "OK",
      "vis_m": 9999,
      "fzfg": false,
      "metar_trigger": false,
      "taf_trigger": false,
      "metar": "METAR EPKK 311100Z 31007KT 9999 SCT018 BKN030 06/03 Q1016",
      "taf": "TAF EPKK 311130Z 3112/0112 35010KT 9999 BKN020"
    },
    {
      "icao": "EPKT",
      "alert": "OK",
      "vis_m": 9999,
      "fzfg": false,
      "metar_trigger": false,
      "taf_trigger": false,
      "metar": "METAR EPKT 311100Z 34010KT 290V360 9999 BKN032 06/03 Q1017",
      "taf": "TAF EPKT 311130Z 3112/0112 34010KT 9999 BKN030"
    },
    {
      "icao": "EPLB",
      "alert": "OK",
      "vis_m": 9999,
      "fzfg": false,
      "metar_trigger": false,
      "taf_trigger": false,
      "metar": "METAR EPLB 311100Z 34009KT 310V030 9999 -RA SCT023 BKN030 09/04 Q1012",
      "taf": "TAF EPLB 311130Z 3112/0112 34011KT 9999 -RA BKN030"
    },
    {
      "icao": "EPMO",
      "alert": "OK",
      "vis_m": 9999,
      "fzfg": false,
      "metar_trigger": false,
      "taf_trigger": false,
      "metar": "METAR EPMO 311100Z 32010KT 280V360 9999 SCT043 11/01 Q1015",
      "taf": "TAF EPMO 311130Z 3112/0112 33011KT 9999 SCT045"
    },
    {
      "icao": "EPPO",
      "alert": "OK",
      "vis_m": 9999,
      "fzfg": false,
      "metar_trigger": false,
      "taf_trigger": false,
      "metar": "METAR EPPO 311100Z 30012KT 9999 OVC023 08/01 Q1019",
      "taf": "TAF EPPO 311130Z 3112/0112 31009KT 9999 BKN025"
    },
    {
      "icao": "EPRA",
      "alert": "OK",
      "vis_m": 9999,
      "fzfg": false,
      "metar_trigger": false,
      "taf_trigger": false,
      "metar": "METAR EPRA 311100Z 34012KT 9999 SCT035 09/01 Q1014",
      "taf": "TAF EPRA 311130Z 3112/3121 33010KT 9999 BKN040"
    },
    {
      "icao": "EPRZ",
      "alert": "OK",
      "vis_m": 9999,
      "fzfg": false,
      "metar_trigger": false,
      "taf_trigger": false,
      "metar": "METAR EPRZ 311100Z 32008KT 9999 -RA OVC012 07/05 Q1013",
      "taf": "TAF EPRZ 311130Z 3112/0112 32010KT 9999 BKN013"
    },
    {
      "icao": "EPSC",
      "alert": "OK",
      "vis_m": 8000,
      "fzfg": false,
      "metar_trigger": false,
      "taf_trigger": false,
      "metar": "METAR EPSC 311100Z 25008KT 8000 FEW012 SCT027TCU BKN033 07/04 Q1019",
      "taf": "TAF EPSC 311130Z 3112/0112 27010KT 9999 BKN040"
    },
    {
      "icao": "EPSY",
      "alert": "OK",
      "vis_m": 9999,
      "fzfg": false,
      "metar_trigger": false,
      "taf_trigger": false,
      "metar": "METAR EPSY 311100Z 01014KT 9999 FEW035 10/M01 Q1015",
      "taf": "TAF EPSY 311130Z 3112/3121 34010KT 9999 SCT040"
    },
    {
      "icao": "EPWA",
      "alert": "OK",
      "vis_m": 9999,
      "fzfg": false,
      "metar_trigger": false,
      "taf_trigger": false,
      "metar": "METAR EPWA 311100Z 33013KT 300V010 9999 SCT040 10/02 Q1015 NOSIG",
      "taf": "TAF EPWA 311130Z 3112/0112 33012KT 9999 SCT045"
    },
    {
      "icao": "EPWR",
      "alert": "OK",
      "vis_m": 9999,
      "fzfg": false,
      "metar_trigger": false,
      "taf_trigger": false,
      "metar": "METAR EPWR 311100Z 32013KT 9999 FEW030 BKN040 08/02 Q1019",
      "taf": "TAF EPWR 311130Z 3112/0112 31010KT 9999 BKN030"
    },
    {
      "icao": "ESGG",
      "alert": "OK",
      "vis_m": 9999,
      "fzfg": false,
      "metar_trigger": false,
      "taf_trigger": false,
      "metar": "METAR ESGG 311120Z 02008KT 350V070 9999 SCT036 BKN044 09/01 Q1016",
      "taf": "TAF ESGG 311130Z 3112/0112 01008KT 9999 FEW040"
    },
    {
      "icao": "ESKN",
      "alert": "OK",
      "vis_m": 9999,
      "fzfg": false,
      "metar_trigger": false,
      "taf_trigger": false,
      "metar": "METAR ESKN 311120Z 33010KT 9999 FEW012 07/03 Q1016",
      "taf": "TAF ESKN 311130Z 3112/0112 30008KT 9999 SCT015"
    },
    {
      "icao": "ESMS",
      "alert": "OK",
      "vis_m": 9999,
      "fzfg": false,
      "metar_trigger": false,
      "taf_trigger": false,
      "metar": "METAR ESMS 311120Z 29014KT 9999 FEW021 08/03 Q1016",
      "taf": "TAF ESMS 311127Z 3112/0112 31008KT 9999 SCT025"
    },
    {
      "icao": "ESSA",
      "alert": "OK",
      "vis_m": 9999,
      "fzfg": false,
      "metar_trigger": false,
      "taf_trigger": false,
      "metar": "METAR ESSA 311120Z 25008KT CAVOK 08/02 Q1015 NOSIG",
      "taf": "TAF ESSA 311130Z 3112/0112 28006KT 9999 SCT020"
    },
    {
      "icao": "EYKA",
      "alert": "OK",
      "vis_m": 9999,
      "fzfg": false,
      "metar_trigger": false,
      "taf_trigger": false,
      "metar": "METAR EYKA 311120Z 36007KT 310V060 CAVOK 10/M00 Q1014",
      "taf": "TAF EYKA 311100Z 3112/0112 35007KT 9000 SCT045"
    },
    {
      "icao": "EYPA",
      "alert": "OK",
      "vis_m": 4500,
      "fzfg": false,
      "metar_trigger": false,
      "taf_trigger": false,
      "metar": "METAR EYPA 311120Z VRB02KT 4500 BR BKN003 04/02 Q1017",
      "taf": "TAF EYPA 311100Z 3112/0112 VRB04KT 5000 BR BKN002"
    },
    {
      "icao": "EYVI",
      "alert": "OK",
      "vis_m": 9999,
      "fzfg": false,
      "metar_trigger": false,
      "taf_trigger": false,
      "metar": "METAR EYVI 311120Z 34013KT 9999 -RA OVC039 06/04 Q1012 NOSIG",
      "taf": "TAF EYVI 311100Z 3112/0112 34016KT 5000 RA BR SCT010 OVC025"
    },
    {
      "icao": "GCFV",
      "alert": "OK",
      "vis_m": 6000,
      "fzfg": false,
      "metar_trigger": false,
      "taf_trigger": false,
      "metar": "METAR GCFV 311100Z 07009KT 6000 NSC 21/11 Q1021",
      "taf": "TAF GCFV 310800Z 3109/0109 11008KT 6000 NSC TX24/3114Z TN15/0106Z"
    },
    {
      "icao": "GCLP",
      "alert": "OK",
      "vis_m": 2300,
      "fzfg": false,
      "metar_trigger": false,
      "taf_trigger": false,
      "metar": "METAR GCLP 311100Z VRB02KT 2300 HZ NSC 22/08 Q1020 NOSIG",
      "taf": "TAF GCLP 310800Z 3109/0109 11005KT 6000 NSC TX24/3114Z TN18/0106Z"
    },
    {
      "icao": "GCTS",
      "alert": "OK",
      "vis_m": 1400,
      "fzfg": false,
      "metar_trigger": false,
      "taf_trigger": false,
      "metar": "METAR GCTS 311100Z 08015G25KT 050V110 1400 R07/1600N R25/1900N HZ NSC 24/06 Q1019 WS R07 NOSIG",
      "taf": "TAF GCTS 310800Z 3109/0109 11016KT 6000 NSC TX26/3114Z TN18/0106Z"
    },
    {
      "icao": "GMAD",
      "alert": "OK",
      "vis_m": 5000,
      "fzfg": false,
      "metar_trigger": false,
      "taf_trigger": false,
      "metar": "METAR GMAD 311100Z 27006KT 220V330 5000 NSC 25/07 Q1020 NOSIG",
      "taf": "TAF GMAD 311100Z 3112/0118 28013KT 6000 NSC"
    },
    {
      "icao": "GMMN",
      "alert": "OK",
      "vis_m": 9999,
      "fzfg": false,
      "metar_trigger": false,
      "taf_trigger": false,
      "metar": "METAR GMMN 311100Z 05011KT 360V090 CAVOK 20/07 Q1022 NOSIG",
      "taf": "TAF GMMN 311100Z 3112/0118 04012KT CAVOK"
    },
    {
      "icao": "GMMX",
      "alert": "OK",
      "vis_m": 9999,
      "fzfg": false,
      "metar_trigger": false,
      "taf_trigger": false,
      "metar": "METAR GMMX 311100Z VRB02KT CAVOK 21/08 Q1021 NOSIG",
      "taf": "TAF GMMX 311100Z 3112/0118 08006KT CAVOK"
    },
    {
      "icao": "HEGN",
      "alert": "OK",
      "vis_m": 9999,
      "fzfg": false,
      "metar_trigger": false,
      "taf_trigger": false,
      "metar": "METAR HEGN 311100Z 01010KT CAVOK 25/10 Q1011 NOSIG",
      "taf": "TAF HEGN 311100Z 3112/0118 14011KT CAVOK"
    },
    {
      "icao": "HEMA",
      "alert": "OK",
      "vis_m": 9999,
      "fzfg": false,
      "metar_trigger": false,
      "taf_trigger": false,
      "metar": "METAR HEMA 311100Z 36016KT CAVOK 25/11 Q1012 NOSIG",
      "taf": "TAF HEMA 311100Z 3112/0118 13010KT CAVOK"
    },
    {
      "icao": "HESH",
      "alert": "OK",
      "vis_m": 9999,
      "fzfg": false,
      "metar_trigger": false,
      "taf_trigger": false,
      "metar": "METAR HESH 311100Z 01010KT CAVOK 25/08 Q1014 NOSIG",
      "taf": "TAF HESH 311100Z 3112/0118 12011KT CAVOK"
    },
    {
      "icao": "HESX",
      "alert": "OK",
      "vis_m": 9999,
      "fzfg": false,
      "metar_trigger": false,
      "taf_trigger": false,
      "metar": "METAR HESX 311100Z 10008KT CAVOK 23/07 Q1011 NOSIG",
      "taf": "TAF HESX 311100Z 3112/0118 08011KT CAVOK"
    },
    {
      "icao": "LATI",
      "alert": "OK",
      "vis_m": 9999,
      "fzfg": false,
      "metar_trigger": false,
      "taf_trigger": false,
      "metar": "METAR LATI 311120Z 34004KT 280V090 9999 FEW055 17/02 Q1005 BECMG TL1130 32008KT",
      "taf": "TAF LATI 311100Z 3112/0112 32008KT 9999 SCT060 TX16/0112Z TN07/0104Z"
    },
    {
      "icao": "LBPD",
      "alert": "OK",
      "vis_m": 9999,
      "fzfg": false,
      "metar_trigger": false,
      "taf_trigger": false,
      "metar": "METAR LBPD 311130Z AUTO VRB02KT 9999 OVC110/// 14/05 Q1007 NOSIG",
      "taf": "TAF LBPD 311100Z 3112/0112 13010KT 9999 OVC060"
    },
    {
      "icao": "LBSF",
      "alert": "OK",
      "vis_m": 9999,
      "fzfg": false,
      "metar_trigger": false,
      "taf_trigger": false,
      "metar": "METAR LBSF 311130Z 28009KT 9999 BKN084 08/01 Q1009 NOSIG",
      "taf": "TAF LBSF 311100Z 3112/0112 28012KT 9999 SCT015 BKN030"
    },
    {
      "icao": "LBWN",
      "alert": "OK",
      "vis_m": 9999,
      "fzfg": false,
      "metar_trigger": false,
      "taf_trigger": false,
      "metar": "METAR LBWN 311130Z AUTO 24009KT 9999 FEW032/// BKN038/// 14/07 Q1008 NOSIG",
      "taf": "TAF LBWN 311100Z 3112/0112 27012KT 9999 SCT030"
    },
    {
      "icao": "LCLK",
      "alert": "OK",
      "vis_m": 9999,
      "fzfg": false,
      "metar_trigger": false,
      "taf_trigger": false,
      "metar": "METAR LCLK 311130Z 19015KT 9999 FEW025 21/11 Q1012 NOSIG",
      "taf": "TAF LCLK 311130Z 3112/0112 22014KT 9999 FEW025"
    },
    {
      "icao": "LCPH",
      "alert": "OK",
      "vis_m": 9999,
      "fzfg": false,
      "metar_trigger": false,
      "taf_trigger": false,
      "metar": "METAR LCPH 311130Z 25006KT 9999 FEW030 19/11 Q1013 NOSIG",
      "taf": "TAF LCPH 311130Z 3112/0112 25010KT 9999 FEW030"
    },
    {
      "icao": "LEAL",
      "alert": "OK",
      "vis_m": 9999,
      "fzfg": false,
      "metar_trigger": false,
      "taf_trigger": false,
      "metar": "METAR LEAL 311100Z 11011KT 070V150 CAVOK 20/06 Q1021 NOSIG",
      "taf": "TAF LEAL 311100Z 3112/0112 11010KT CAVOK TX19/3112Z TN08/0105Z"
    },
    {
      "icao": "LEBB",
      "alert": "OK",
      "vis_m": 9999,
      "fzfg": false,
      "metar_trigger": false,
      "taf_trigger": false,
      "metar": "METAR LEBB 311100Z 01006KT 300V070 9999 SCT030 SCT035 OVC049 14/08 Q1034 NOSIG",
      "taf": "TAF LEBB 311100Z 3112/0112 33009KT 9999 FEW020 BKN025 TX13/3114Z TN10/0103Z"
    },
    {
      "icao": "LEBL",
      "alert": "OK",
      "vis_m": 9999,
      "fzfg": false,
      "metar_trigger": false,
      "taf_trigger": false,
      "metar": "METAR LEBL 311100Z 10011KT 9999 FEW030 16/09 Q1020 NOSIG",
      "taf": "TAF LEBL 311100Z 3112/0112 18010KT 9999 FEW050 TX17/3113Z TN09/0106Z"
    },
    {
      "icao": "LECH",
      "alert": "OK",
      "vis_m": 9999,
      "fzfg": false,
      "metar_trigger": false,
      "taf_trigger": false,
      "metar": "METAR LECH 311100Z AUTO 02008KT 290V090 CAVOK 19/01 Q1020",
      "taf": "TAF LECH 311100Z 3112/0112 33020KT CAVOK TX22/3113Z TN13/0105Z"
    },
    {
      "icao": "LEMD",
      "alert": "OK",
      "vis_m": 9999,
      "fzfg": false,
      "metar_trigger": false,
      "taf_trigger": false,
      "metar": "METAR LEMD 311100Z 35014KT 310V030 CAVOK 17/03 Q1026 NOSIG",
      "taf": "TAF LEMD 311100Z 3112/0118 01012KT CAVOK TX20/3115Z TN08/0106Z"
    },
    {
      "icao": "LEMG",
      "alert": "OK",
      "vis_m": 9999,
      "fzfg": false,
      "metar_trigger": false,
      "taf_trigger": false,
      "metar": "METAR LEMG 311100Z 27009KT 230V300 CAVOK 22/06 Q1021 NOSIG",
      "taf": "TAF LEMG 311100Z 3112/0112 13010KT CAVOK TX23/3113Z TN09/0107Z"
    },
    {
      "icao": "LEVC",
      "alert": "OK",
      "vis_m": 9999,
      "fzfg": false,
      "metar_trigger": false,
      "taf_trigger": false,
      "metar": "METAR LEVC 311100Z 35010KT 300V040 CAVOK 22/02 Q1020 NOSIG",
      "taf": "TAF LEVC 311100Z 3112/0112 VRB04KT CAVOK TX24/3112Z TN10/0105Z"
    },
    {
      "icao": "LEXJ",
      "alert": "OK",
      "vis_m": 6000,
      "fzfg": false,
      "metar_trigger": false,
      "taf_trigger": false,
      "metar": "SPECI LEXJ 311118Z 33007KT 290V020 6000 DZ SCT021 BKN025 OVC035 12/08 Q1035",
      "taf": "TAF LEXJ 310800Z 3109/0109 34009KT 9999 FEW015 BKN025 TX13/3114Z TN10/0103Z"
    },
    {
      "icao": "LEZG",
      "alert": "OK",
      "vis_m": 9999,
      "fzfg": false,
      "metar_trigger": false,
      "taf_trigger": false,
      "metar": "METAR LEZG 311100Z 31034G46KT 280V340 9999 FEW040 14/02 Q1025 NOSIG",
      "taf": "TAF LEZG 311100Z 3112/0112 32020KT 9999 FEW040 TX17/3114Z TN10/0105Z"
    },
    {
      "icao": "LEZL",
      "alert": "OK",
      "vis_m": 9999,
      "fzfg": false,
      "metar_trigger": false,
      "taf_trigger": false,
      "metar": "METAR LEZL 311100Z 07008KT 040V110 CAVOK 22/08 Q1023 NOSIG",
      "taf": "TAF LEZL 310800Z 3109/0109 04012KT CAVOK TX29/3115Z TN10/0107Z"
    },
    {
      "icao": "LFBD",
      "alert": "OK",
      "vis_m": 9999,
      "fzfg": false,
      "metar_trigger": false,
      "taf_trigger": false,
      "metar": "METAR LFBD 311100Z AUTO 35009KT 300V040 9999 SCT039 BKN046 BKN060 14/05 Q1032 NOSIG",
      "taf": "TAF LFBD 310500Z 3106/0112 35005KT 9999 SCT040 TX15/3114Z TN05/3106Z"
    },
    {
      "icao": "LFLL",
      "alert": "OK",
      "vis_m": 9999,
      "fzfg": false,
      "metar_trigger": false,
      "taf_trigger": false,
      "metar": "METAR LFLL 311100Z 36020KT 9999 FEW036 BKN053 08/M01 Q1027 TEMPO 36022G32KT",
      "taf": "TAF LFLL 311100Z 3112/0118 36022G32KT 9999 SCT040"
    },
    {
      "icao": "LFLS",
      "alert": "OK",
      "vis_m": 9999,
      "fzfg": false,
      "metar_trigger": false,
      "taf_trigger": false,
      "metar": "METAR LFLS 311100Z AUTO 34020KT 9999 BKN041 BKN047 BKN058 07/M00 Q1025 TEMPO 36020G30KT",
      "taf": "TAF LFLS 310800Z 3109/0109 34014KT 9999 SCT020"
    },
    {
      "icao": "LFMN",
      "alert": "OK",
      "vis_m": 9999,
      "fzfg": false,
      "metar_trigger": false,
      "taf_trigger": false,
      "metar": "METAR LFMN 311100Z 04014KT 360V060 9999 FEW120 18/M12 Q1014 NOSIG",
      "taf": "TAF LFMN 310800Z 3109/0115 03015KT CAVOK"
    },
    {
      "icao": "LFOB",
      "alert": "OK",
      "vis_m": 9999,
      "fzfg": false,
      "metar_trigger": false,
      "taf_trigger": false,
      "metar": "METAR LFOB 311100Z AUTO 32010KT 290V350 9999 SCT026 BKN034 BKN043 11/06 Q1031 NOSIG",
      "taf": "TAF LFOB 310500Z 3106/0106 32007KT 9999 SCT030"
    },
    {
      "icao": "LFPO",
      "alert": "OK",
      "vis_m": 9999,
      "fzfg": false,
      "metar_trigger": false,
      "taf_trigger": false,
      "metar": "METAR LFPO 311100Z 32009KT 9999 FEW031 BKN046 11/04 Q1031 NOSIG",
      "taf": "TAF LFPO 311100Z 3112/0118 33010KT 9999 BKN035"
    },
    {
      "icao": "LFSB",
      "alert": "OK",
      "vis_m": 9999,
      "fzfg": false,
      "metar_trigger": false,
      "taf_trigger": false,
      "metar": "METAR LFSB 311100Z AUTO 35009KT 320V020 9999 FEW030/// SCT036/// OVC058/// ///TCU 07/M00 Q1027 TEMPO 4000 SHRA FEW025CB",
      "taf": "TAF LFSB 311100Z 3112/0112 36010KT 9999 FEW025 SCT035 BKN050"
    },
    {
      "icao": "LGAV",
      "alert": "OK",
      "vis_m": 9999,
      "fzfg": false,
      "metar_trigger": false,
      "taf_trigger": false,
      "metar": "METAR LGAV 311120Z 21012KT 9999 SCT025 18/08 Q1007 NOSIG",
      "taf": "TAF LGAV 311100Z 3112/0112 20012KT 9999 FEW025 SCT070"
    },
    {
      "icao": "LGTS",
      "alert": "OK",
      "vis_m": 9999,
      "fzfg": false,
      "metar_trigger": false,
      "taf_trigger": false,
      "metar": "METAR LGTS 311120Z 26006KT 9999 FEW018TCU SCT025 17/09 Q1007 NOSIG",
      "taf": "TAF LGTS 311100Z 3112/0112 VRB03KT 9999 SCT025"
    },
    {
      "icao": "LHBP",
      "alert": "OK",
      "vis_m": 9999,
      "fzfg": false,
      "metar_trigger": false,
      "taf_trigger": false,
      "metar": "METAR LHBP 311130Z 35010KT 9999 OVC016 07/04 Q1013 NOSIG",
      "taf": "TAF LHBP 311115Z 3112/0112 35008KT 9999 BKN030 BKN050"
    },
    {
      "icao": "LHDC",
      "alert": "OK",
      "vis_m": 9000,
      "fzfg": false,
      "metar_trigger": false,
      "taf_trigger": false,
      "metar": "METAR LHDC 311045Z AUTO 01005KT 300V110 9000 OVC009 07/05 Q1012 BECMG BKN012 OVC045",
      "taf": "TAF LHDC 311115Z 3112/3121 36007KT 9999 SCT010 OVC020"
    },
    {
      "icao": "LIBD",
      "alert": "OK",
      "vis_m": 8000,
      "fzfg": false,
      "metar_trigger": false,
      "taf_trigger": false,
      "metar": "METAR LIBD 311120Z 32005KT 290V360 8000 -RA SCT010 BKN034 10/09 Q1004",
      "taf": "TAF LIBD 311100Z 3112/0112 08010KT 9999 SCT030"
    },
    {
      "icao": "LIBG",
      "alert": "OK",
      "vis_m": 9999,
      "fzfg": false,
      "metar_trigger": false,
      "taf_trigger": false,
      "metar": "METAR LIBG 311050Z 11012KT 9999 -TSRA FEW015CB SCT020 13/13 Q1002 RERA",
      "taf": "TAF LIBG 311100Z 3112/3121 04010KT 9999 SCT020"
    },
    {
      "icao": "LIBP",
      "alert": "OK",
      "vis_m": 9999,
      "fzfg": false,
      "metar_trigger": false,
      "taf_trigger": false,
      "metar": "METAR LIBP 311120Z AUTO 02015KT 9999 RA OVC020/// 08/05 Q1010",
      "taf": "TAF LIBP 311100Z 3112/0112 34015KT 9999 SCT030"
    },
    {
      "icao": "LIBR",
      "alert": "OK",
      "vis_m": 9999,
      "fzfg": false,
      "metar_trigger": false,
      "taf_trigger": false,
      "metar": "METAR LIBR 311120Z 13015KT 9999 FEW015 BKN040 13/10 Q1003",
      "taf": "TAF LIBR 311100Z 3112/0112 14014KT 9999 BKN030"
    },
    {
      "icao": "LICA",
      "alert": "OK",
      "vis_m": 9999,
      "fzfg": false,
      "metar_trigger": false,
      "taf_trigger": false,
      "metar": "METAR LICA 311120Z AUTO 10010KT 080V150 9999 -RA OVC051/// 13/09 Q1001",
      "taf": "TAF LICA 311100Z 3112/0112 08016G28KT 9999 SCT020"
    },
    {
      "icao": "LICC",
      "alert": "OK",
      "vis_m": 8000,
      "fzfg": false,
      "metar_trigger": false,
      "taf_trigger": false,
      "metar": "METAR LICC 311120Z 21005KT 160V240 8000 SCT050 BKN070 13/10 Q0999",
      "taf": "TAF LICC 311100Z 3112/0112 26013KT 9999 SCT030 BKN050"
    },
    {
      "icao": "LICJ",
      "alert": "OK",
      "vis_m": 9999,
      "fzfg": false,
      "metar_trigger": false,
      "taf_trigger": false,
      "metar": "METAR LICJ 311120Z VRB02KT 9999 -RA FEW018 SCT026 12/08 Q0999 RERA",
      "taf": "TAF LICJ 311100Z 3112/0112 30014KT 9999 SCT020"
    },
    {
      "icao": "LIMC",
      "alert": "OK",
      "vis_m": 9999,
      "fzfg": false,
      "metar_trigger": false,
      "taf_trigger": false,
      "metar": "METAR LIMC 311120Z 34017KT 320V030 CAVOK 15/M11 Q1016 NOSIG",
      "taf": "TAF LIMC 311100Z 3112/0118 36014KT CAVOK"
    },
    {
      "icao": "LIME",
      "alert": "OK",
      "vis_m": 9999,
      "fzfg": false,
      "metar_trigger": false,
      "taf_trigger": false,
      "metar": "METAR LIME 311120Z 02010KT 340V050 9999 FEW045 14/M13 Q1013 WS R10 NOSIG",
      "taf": "TAF LIME 311100Z 3112/0112 03014KT CAVOK"
    },
    {
      "icao": "LIMF",
      "alert": "OK",
      "vis_m": 9999,
      "fzfg": false,
      "metar_trigger": false,
      "taf_trigger": false,
      "metar": "METAR LIMF 311120Z 03007KT 330V140 9999 FEW060 15/M10 Q1015",
      "taf": "TAF LIMF 311100Z 3112/0112 03010KT CAVOK"
    },
    {
      "icao": "LIMJ",
      "alert": "OK",
      "vis_m": 9999,
      "fzfg": false,
      "metar_trigger": false,
      "taf_trigger": false,
      "metar": "METAR LIMJ 311120Z 01016G27KT 340V040 9999 SCT035 16/M08 Q1013",
      "taf": "TAF LIMJ 311100Z 3112/0112 02017KT 9999 FEW030"
    },
    {
      "icao": "LIPE",
      "alert": "OK",
      "vis_m": 9999,
      "fzfg": false,
      "metar_trigger": false,
      "taf_trigger": false,
      "metar": "METAR LIPE 311120Z 02007KT 340V050 CAVOK 13/00 Q1014",
      "taf": "TAF LIPE 311100Z 3112/0112 03012KT 9999 SCT030"
    },
    {
      "icao": "LIPH",
      "alert": "OK",
      "vis_m": 9999,
      "fzfg": false,
      "metar_trigger": false,
      "taf_trigger": false,
      "metar": "METAR LIPH 311120Z VRB02KT 9999 SCT030 16/M02 Q1013",
      "taf": "TAF LIPH 311100Z 3112/0112 05012KT 9999 SCT040"
    },
    {
      "icao": "LIPQ",
      "alert": "OK",
      "vis_m": 9999,
      "fzfg": false,
      "metar_trigger": false,
      "taf_trigger": false,
      "metar": "METAR LIPQ 311120Z AUTO 03011G24KT 340V100 9999 FEW097/// 16/M06 Q1012",
      "taf": "TAF LIPQ 311100Z 3112/0112 05017KT 9999 SCT050"
    },
    {
      "icao": "LIPR",
      "alert": "OK",
      "vis_m": 9999,
      "fzfg": false,
      "metar_trigger": false,
      "taf_trigger": false,
      "metar": "METAR LIPR 311120Z 03010KT 010V070 9999 FEW040 13/M00 Q1013",
      "taf": "TAF LIPR 311100Z 3112/0112 03017KT 9999 BKN070"
    },
    {
      "icao": "LIPX",
      "alert": "OK",
      "vis_m": 9999,
      "fzfg": false,
      "metar_trigger": false,
      "taf_trigger": false,
      "metar": "METAR LIPX 311120Z 04016G27KT 010V070 9999 FEW040 16/M08 Q1013",
      "taf": "TAF LIPX 311100Z 3112/0112 04016KT CAVOK"
    },
    {
      "icao": "LIPY",
      "alert": "OK",
      "vis_m": 9999,
      "fzfg": false,
      "metar_trigger": false,
      "taf_trigger": false,
      "metar": "METAR LIPY 311120Z AUTO 03015KT 9999 BKN047/// 12/03 Q1011",
      "taf": "TAF LIPY 311100Z 3112/0112 03015KT 9999 SCT040"
    },
    {
      "icao": "LIPZ",
      "alert": "OK",
      "vis_m": 9999,
      "fzfg": false,
      "metar_trigger": false,
      "taf_trigger": false,
      "metar": "METAR LIPZ 311120Z 18006KT CAVOK 14/M03 Q1013 NOSIG",
      "taf": "TAF LIPZ 311100Z 3112/0118 12010KT 9999 SCT040"
    },
    {
      "icao": "LIRF",
      "alert": "OK",
      "vis_m": 9999,
      "fzfg": false,
      "metar_trigger": false,
      "taf_trigger": false,
      "metar": "METAR LIRF 311120Z 04019KT 9999 FEW030 14/01 Q1004 WS R34R NOSIG",
      "taf": "TAF LIRF 311100Z 3112/0118 02020G32KT CAVOK"
    },
    {
      "icao": "LIRN",
      "alert": "OK",
      "vis_m": 9999,
      "fzfg": false,
      "metar_trigger": false,
      "taf_trigger": false,
      "metar": "METAR LIRN 311120Z 06010KT 9999 FEW030 BKN070 10/04 Q1003 NOSIG",
      "taf": "TAF LIRN 311100Z 3112/0112 04016G30KT 9999 SCT040"
    },
    {
      "icao": "LIRP",
      "alert": "OK",
      "vis_m": 9999,
      "fzfg": false,
      "metar_trigger": false,
      "taf_trigger": false,
      "metar": "METAR LIRP 311115Z 03018KT 9999 FEW040 15/M06 Q1012 TEMPO 03020G30KT",
      "taf": "TAF LIRP 311100Z 3112/0112 06020G30KT 9999 FEW040 SCT080"
    },
    {
      "icao": "LIRZ",
      "alert": "OK",
      "vis_m": 9999,
      "fzfg": false,
      "metar_trigger": false,
      "taf_trigger": false,
      "metar": "METAR LIRZ 311120Z AUTO 03025G35KT 9999 FEW036/// SCT043/// 10/00 Q1008",
      "taf": "TAF LIRZ 311100Z 3112/0112 03020G35KT 9999 FEW040"
    },
    {
      "icao": "LJLJ",
      "alert": "OK",
      "vis_m": 9999,
      "fzfg": false,
      "metar_trigger": false,
      "taf_trigger": false,
      "metar": "METAR LJLJ 311100Z 35013G23KT 320V030 9999 SCT070 SCT200 11/M06 Q1014 WS ALL RWY NOSIG",
      "taf": "TAF LJLJ 311100Z 3112/0112 35015G27KT 9999 SCT070"
    },
    {
      "icao": "LKMT",
      "alert": "OK",
      "vis_m": 9999,
      "fzfg": false,
      "metar_trigger": false,
      "taf_trigger": false,
      "metar": "METAR LKMT 311100Z 01013KT 9999 BKN020 06/03 Q1017 NOSIG",
      "taf": "TAF LKMT 311100Z 3112/0112 02008KT 9999 -RA SCT011 BKN015 OVC030"
    },
    {
      "icao": "LKPR",
      "alert": "OK",
      "vis_m": 9999,
      "fzfg": false,
      "metar_trigger": false,
      "taf_trigger": false,
      "metar": "METAR LKPR 311100Z 34014KT 9999 SCT028 BKN043 05/M01 Q1021 NOSIG",
      "taf": "TAF LKPR 311100Z 3112/0118 34008KT 9999 SCT014 BKN030"
    },
    {
      "icao": "LLBG",
      "alert": "OK",
      "vis_m": 9999,
      "fzfg": false,
      "metar_trigger": false,
      "taf_trigger": false,
      "metar": "METAR LLBG 311120Z VRB03KT 9999 SCT038 21/11 Q1013 NOSIG",
      "taf": "TAF LLBG 311109Z 3112/0112 32008KT 9999 SCT035 TX21/3112Z TN13/0101Z"
    },
    {
      "icao": "LMML",
      "alert": "OK",
      "vis_m": 5000,
      "fzfg": false,
      "metar_trigger": false,
      "taf_trigger": false,
      "metar": "METAR LMML 311115Z 22026G38KT 200V260 5000 -SHRA BKN022CB 15/09 Q1001 NOSIG",
      "taf": "TAF LMML 311100Z 3112/0112 24020G30KT 9999 SCT020TCU"
    },
    {
      "icao": "LOWW",
      "alert": "OK",
      "vis_m": 9999,
      "fzfg": false,
      "metar_trigger": false,
      "taf_trigger": false,
      "metar": "METAR LOWW 311120Z 34016KT 9999 FEW024 SCT028 BKN036 08/02 Q1018 NOSIG",
      "taf": "TAF LOWW 311115Z 3112/0118 32013KT 9999 FEW015 BKN030 TX11/0114Z TN04/0104Z"
    },
    {
      "icao": "LPFR",
      "alert": "OK",
      "vis_m": 9999,
      "fzfg": false,
      "metar_trigger": false,
      "taf_trigger": false,
      "metar": "METAR LPFR 311100Z 23007KT CAVOK 21/10 Q1024",
      "taf": "TAF LPFR 311100Z 3112/0112 27010KT CAVOK"
    },
    {
      "icao": "LPMA",
      "alert": "OK",
      "vis_m": 9999,
      "fzfg": false,
      "metar_trigger": false,
      "taf_trigger": false,
      "metar": "METAR LPMA 311100Z 04012KT 9999 SCT016 18/12 Q1025",
      "taf": "TAF LPMA 311100Z 3112/0112 03012KT 9999 SCT015"
    },
    {
      "icao": "LPPR",
      "alert": "OK",
      "vis_m": 9999,
      "fzfg": false,
      "metar_trigger": false,
      "taf_trigger": false,
      "metar": "METAR LPPR 311100Z VRB04KT CAVOK 22/10 Q1028",
      "taf": "TAF LPPR 311100Z 3112/0112 04005KT CAVOK"
    },
    {
      "icao": "LPPS",
      "alert": "OK",
      "vis_m": 9999,
      "fzfg": false,
      "metar_trigger": false,
      "taf_trigger": false,
      "metar": "METAR LPPS 311100Z 10015KT 9999 FEW015 18/12 Q1025",
      "taf": "TAF LPPS 311100Z 3112/0118 08015KT 9999 SCT015"
    },
    {
      "icao": "LPPT",
      "alert": "OK",
      "vis_m": 9999,
      "fzfg": false,
      "metar_trigger": false,
      "taf_trigger": false,
      "metar": "METAR LPPT 311100Z 07006KT 030V110 CAVOK 20/10 Q1026",
      "taf": "TAF LPPT 311100Z 3112/0118 05005KT CAVOK"
    },
    {
      "icao": "LQBK",
      "alert": "OK",
      "vis_m": 9999,
      "fzfg": false,
      "metar_trigger": false,
      "taf_trigger": false,
      "metar": "METAR LQBK 311100Z 31006KT 9999 -RA BKN027 OVC045 07/02 Q1014 NOSIG",
      "taf": "TAF LQBK 311100Z 3112/0112 36005KT 9999 SCT025 OVC040 TX07/3113Z TN03/0105Z"
    },
    {
      "icao": "LQSA",
      "alert": "OK",
      "vis_m": 9999,
      "fzfg": false,
      "metar_trigger": false,
      "taf_trigger": false,
      "metar": "METAR LQSA 311100Z 32005KT 9999 SCT018 BKN030 04/02 Q1012 NOSIG",
      "taf": "TAF LQSA 311100Z 3112/0112 33007KT 7000 -RA SCT015 BKN030 TX07/0112Z TN01/0105Z"
    },
    {
      "icao": "LQTZ",
      "alert": "OK",
      "vis_m": 6000,
      "fzfg": false,
      "metar_trigger": false,
      "taf_trigger": false,
      "metar": "METAR LQTZ 311100Z 31004KT 6000 BKN018 OVC030 04/03 Q1013",
      "taf": "TAF LQTZ 311100Z 3112/0112 27005KT 8000 SCT012 BKN035 TX06/3113Z TN02/0105Z"
    },
    {
      "icao": "LRBC",
      "alert": "OK",
      "vis_m": 6000,
      "fzfg": false,
      "metar_trigger": false,
      "taf_trigger": false,
      "metar": "METAR LRBC 311100Z 02004KT 360V060 6000 BKN006 BKN016 OVC038 09/08 Q1007",
      "taf": "TAF LRBC 311100Z 3112/3121 36006KT 9999 OVC040"
    },
    {
      "icao": "LRBS",
      "alert": "OK",
      "vis_m": 9999,
      "fzfg": false,
      "metar_trigger": false,
      "taf_trigger": false,
      "metar": "METAR LRBS 311100Z 26007KT 230V300 9999 BKN008 09/06 Q1008 BECMG SCT010 BKN040",
      "taf": "TAF LRBS 311100Z 3112/0112 25008KT 9999 BKN040"
    },
    {
      "icao": "LRBV",
      "alert": "OK",
      "vis_m": 9999,
      "fzfg": false,
      "metar_trigger": false,
      "taf_trigger": false,
      "metar": "METAR LRBV 311100Z 29011KT 9999 -DZRA SCT011 BKN018 OVC029 07/05 Q1008",
      "taf": "TAF LRBV 311100Z 3112/3121 30010KT 9999 BKN020 BKN030"
    },
    {
      "icao": "LRCL",
      "alert": "OK",
      "vis_m": 9999,
      "fzfg": false,
      "metar_trigger": false,
      "taf_trigger": false,
      "metar": "METAR LRCL 311100Z 30006KT 9999 BKN016 BKN027 08/04 Q1010",
      "taf": "TAF LRCL 311100Z 3112/3121 30006KT 9999 BKN020"
    },
    {
      "icao": "LRCV",
      "alert": "OK",
      "vis_m": 9999,
      "fzfg": false,
      "metar_trigger": false,
      "taf_trigger": false,
      "metar": "METAR LRCV 311100Z 27009KT 9999 SCT040 12/05 Q1008",
      "taf": "TAF LRCV 311100Z 3112/3121 27010KT 9999 SCT040"
    },
    {
      "icao": "LRIA",
      "alert": "OK",
      "vis_m": 9999,
      "fzfg": false,
      "metar_trigger": false,
      "taf_trigger": false,
      "metar": "METAR LRIA 311100Z 30016KT 9999 -RA BKN007 OVC035 08/07 Q1006",
      "taf": "TAF LRIA 311100Z 3112/3121 30014KT 9999 BKN015 OVC040"
    },
    {
      "icao": "LROP",
      "alert": "OK",
      "vis_m": 9999,
      "fzfg": false,
      "metar_trigger": false,
      "taf_trigger": false,
      "metar": "METAR LROP 311100Z 26008KT 9999 BKN008 OVC048 10/07 Q1008 BECMG SCT010 BKN040",
      "taf": "TAF LROP 311100Z 3112/0112 25008KT 9999 BKN040"
    },
    {
      "icao": "LRSB",
      "alert": "OK",
      "vis_m": 9999,
      "fzfg": false,
      "metar_trigger": false,
      "taf_trigger": false,
      "metar": "METAR LRSB 311100Z 36006KT 9999 FEW018 SCT031 BKN040 08/04 Q1009",
      "taf": "TAF LRSB 311100Z 3112/0112 VRB04KT 9999 BKN040"
    },
    {
      "icao": "LRSM",
      "alert": "OK",
      "vis_m": 9999,
      "fzfg": false,
      "metar_trigger": false,
      "taf_trigger": false,
      "metar": "METAR LRSM 311100Z 26010KT 9999 -RA FEW008 BKN010 OVC015 07/05 Q1011",
      "taf": "TAF LRSM 311100Z 3112/3121 26008KT 9999 BKN015 OVC020"
    },
    {
      "icao": "LRSV",
      "alert": "OK",
      "vis_m": 7000,
      "fzfg": false,
      "metar_trigger": false,
      "taf_trigger": false,
      "metar": "METAR LRSV 311100Z 30014KT 7000 -RA FEW008 BKN034 06/05 Q1007",
      "taf": "TAF LRSV 311100Z 3112/3121 31014KT 9999 OVC040"
    },
    {
      "icao": "LRTM",
      "alert": "OK",
      "vis_m": 9999,
      "fzfg": false,
      "metar_trigger": false,
      "taf_trigger": false,
      "metar": "METAR LRTM 311100Z 27007KT 240V310 9999 -RA SCT015 BKN024 OVC035 08/05 Q1009",
      "taf": "TAF LRTM 311100Z 3112/3121 28008KT 9999 BKN025 OVC035"
    },
    {
      "icao": "LRTR",
      "alert": "OK",
      "vis_m": 9999,
      "fzfg": false,
      "metar_trigger": false,
      "taf_trigger": false,
      "metar": "METAR LRTR 311100Z 29003KT 250V020 9999 SCT017 OVC032 08/03 Q1012 NOSIG",
      "taf": "TAF LRTR 311100Z 3112/0112 VRB04KT 9999 OVC030"
    },
    {
      "icao": "LTAC",
      "alert": "OK",
      "vis_m": 9999,
      "fzfg": false,
      "metar_trigger": false,
      "taf_trigger": false,
      "metar": "METAR LTAC 311120Z 26008KT 9999 SCT040 BKN080 11/04 Q1011 NOSIG RMK RWY21C 24008KT RWY03L 25007KT RWY21R 23008KT RWY03R 25007KT 220V280 RWY21L 26008KT",
      "taf": "TAF LTAC 311040Z 3112/0112 VRB02KT 9999 SCT035 BKN100"
    },
    {
      "icao": "LTFM",
      "alert": "OK",
      "vis_m": 9999,
      "fzfg": false,
      "metar_trigger": false,
      "taf_trigger": false,
      "metar": "METAR LTFM 311120Z 20011KT 9999 FEW040 BKN180 16/07 Q1008 NOSIG RMK RWY17L 22011KT 160V240 RWY34L 20010KT 160V230 RWY16R 22010KT RWY36 22009KT 160V260 RWY18 22011KT",
      "taf": "TAF LTFM 311040Z 3112/0118 18008KT 9999 SCT035 BKN180"
    },
    {
      "icao": "LUKK",
      "alert": "OK",
      "vis_m": 9999,
      "fzfg": false,
      "metar_trigger": false,
      "taf_trigger": false,
      "metar": "METAR LUKK 311100Z 31008KT 9999 -RA BKN013 OVC017 10/09 Q1005 NOSIG",
      "taf": "TAF LUKK 311104Z 3112/0112 32010KT 9999 BKN012"
    },
    {
      "icao": "LWOH",
      "alert": "OK",
      "vis_m": 9999,
      "fzfg": false,
      "metar_trigger": false,
      "taf_trigger": false,
      "metar": "METAR LWOH 311120Z 35011KT 310V030 9999 SCT040 13/04 Q1005",
      "taf": "TAF LWOH 311125Z 3112/0112 36010KT 9999 BKN040"
    },
    {
      "icao": "LWSK",
      "alert": "OK",
      "vis_m": 9999,
      "fzfg": false,
      "metar_trigger": false,
      "taf_trigger": false,
      "metar": "METAR LWSK 311120Z 33005KT 280V010 9999 FEW026 BKN045 BKN085 10/04 Q1010 NOSIG",
      "taf": "TAF LWSK 311125Z 3112/0112 32010KT 9999 SCT025 BKN040 BKN090"
    },
    {
      "icao": "LYBE",
      "alert": "OK",
      "vis_m": 9999,
      "fzfg": false,
      "metar_trigger": false,
      "taf_trigger": false,
      "metar": "METAR LYBE 311100Z 30008KT 260V320 9999 SCT020 BKN043 08/03 Q1012 NOSIG",
      "taf": "TAF LYBE 311100Z 3112/0112 30010KT 9999 SCT020 BKN040 TX11/0112Z TN05/0106Z"
    },
    {
      "icao": "LYNI",
      "alert": "OK",
      "vis_m": 9999,
      "fzfg": false,
      "metar_trigger": false,
      "taf_trigger": false,
      "metar": "METAR LYNI 311100Z 31006KT 280V350 9999 FEW023 SCT030 BKN038 07/04 Q1012 NOSIG",
      "taf": "TAF LYNI 311100Z 3112/0112 32013KT 9999 SCT023 BKN040 TX10/3113Z TN04/0105Z"
    },
    {
      "icao": "LYPG",
      "alert": "OK",
      "vis_m": 9999,
      "fzfg": false,
      "metar_trigger": false,
      "taf_trigger": false,
      "metar": "METAR LYPG 311100Z 24003KT 120V290 9999 FEW050 BKN090 16/01 Q1006 NOSIG",
      "taf": "TAF LYPG 311100Z 3112/0112 36008KT 9999 FEW040 BKN080 TX17/3113Z TN09/0105Z"
    },
    {
      "icao": "LZIB",
      "alert": "OK",
      "vis_m": 9999,
      "fzfg": false,
      "metar_trigger": false,
      "taf_trigger": false,
      "metar": "METAR LZIB 311130Z 34015KT 9999 FEW014 SCT023 07/03 Q1016 NOSIG",
      "taf": "TAF LZIB 311115Z 3112/0112 32014KT 9999 SCT040"
    },
    {
      "icao": "LZKZ",
      "alert": "OK",
      "vis_m": 9999,
      "fzfg": false,
      "metar_trigger": false,
      "taf_trigger": false,
      "metar": "METAR LZKZ 311130Z 36017KT 9999 FEW028 07/03 Q1012 NOSIG",
      "taf": "TAF LZKZ 311115Z 3112/0112 01013KT 9999 BKN040"
    },
    {
      "icao": "LZTT",
      "alert": "OK",
      "vis_m": 8000,
      "fzfg": false,
      "metar_trigger": false,
      "taf_trigger": false,
      "metar": "METAR LZTT 311130Z 16002KT 8000 -RASN FEW006 BKN016 OVC030 02/01 Q1013 NOSIG",
      "taf": "TAF LZTT 311115Z 3112/0112 VRB02KT 9999 -RASN BKN016 OVC030"
    },
    {
      "icao": "OEJN",
      "alert": "OK",
      "vis_m": 9999,
      "fzfg": false,
      "metar_trigger": false,
      "taf_trigger": false,
      "metar": "METAR OEJN 311100Z 28010KT CAVOK 33/18 Q1009 NOSIG",
      "taf": "TAF OEJN 311100Z 3112/0118 30012KT CAVOK"
    },
    {
      "icao": "OEMA",
      "alert": "OK",
      "vis_m": 9999,
      "fzfg": false,
      "metar_trigger": false,
      "taf_trigger": false,
      "metar": "METAR OEMA 311100Z 27013KT CAVOK 32/01 Q1013 NOSIG",
      "taf": "TAF OEMA 311100Z 3112/0118 30016KT 7000 NSC"
    },
    {
      "icao": "OJAI",
      "alert": "OK",
      "vis_m": 5000,
      "fzfg": false,
      "metar_trigger": false,
      "taf_trigger": false,
      "metar": "METAR OJAI 311100Z 00000KT 5000 HZ SCT025 SCT030 16/07 Q1016 NOSIG",
      "taf": "TAF OJAI 311100Z 3112/0118 25014KT 5000 HZ SCT030"
    },
    {
      "icao": "OMAA",
      "alert": "OK",
      "vis_m": null,
      "fzfg": false,
      "metar_trigger": false,
      "taf_trigger": false,
      "metar": "",
      "taf": ""
    },
    {
      "icao": "OMDB",
      "alert": "OK",
      "vis_m": null,
      "fzfg": false,
      "metar_trigger": false,
      "taf_trigger": false,
      "metar": "",
      "taf": ""
    },
    {
      "icao": "UAAA",
      "alert": "OK",
      "vis_m": 9999,
      "fzfg": false,
      "metar_trigger": false,
      "taf_trigger": false,
      "metar": "SPECI UAAA 311110Z 32006MPS 9999 FEW050CB SCT100 BKN200 24/04 Q1010 NOSIG",
      "taf": "TAF UAAA 311104Z 3112/0112 20003MPS 9999 FEW050CB BKN100 TX25/0110Z TN09/0101Z"
    },
    {
      "icao": "UBBB",
      "alert": "OK",
      "vis_m": 9999,
      "fzfg": false,
      "metar_trigger": false,
      "taf_trigger": false,
      "metar": "METAR UBBB 311130Z 03012KT 9999 FEW027 FEW060CB 15/11 Q1005 NOSIG",
      "taf": "TAF UBBB 311053Z 3112/0112 05008KT 9999 SCT025 TX16/3112Z TN08/0101Z"
    },
    {
      "icao": "UDSG",
      "alert": "OK",
      "vis_m": 9999,
      "fzfg": false,
      "metar_trigger": false,
      "taf_trigger": false,
      "metar": "METAR UDSG 311100Z 32016KT 9999 BKN043CB 09/M03 Q1010 NOSIG",
      "taf": "TAF UDSG 311058Z 3112/0112 34006KT 9999 SCT040"
    },
    {
      "icao": "UDYZ",
      "alert": "OK",
      "vis_m": 9999,
      "fzfg": false,
      "metar_trigger": false,
      "taf_trigger": false,
      "metar": "METAR UDYZ 311100Z 23012KT 9999 BKN043CB 14/02 Q1008 TEMPO 24016G26KT",
      "taf": "TAF UDYZ 311100Z 3112/0112 23006KT 9999 SCT040"
    },
    {
      "icao": "UGKO",
      "alert": "OK",
      "vis_m": 9999,
      "fzfg": false,
      "metar_trigger": false,
      "taf_trigger": false,
      "metar": "METAR UGKO 311100Z 27015KT CAVOK 17/07 Q1009 NOSIG",
      "taf": "TAF UGKO 311100Z 3112/0112 09007KT CAVOK TX23/0111Z TN05/0103Z"
    }
  ]
}