{
  "ts_utc": "2026-02-17T10:26:53Z",
  "threshold_m": 150,
  "source": "stations_override.txt (ICAO list) + aviationweather.gov (METAR/TAF raw)",
  "station_count": 159,
  "stations": [
    {
      "icao": "BIKF",
      "alert": "OK",
      "vis_m": 9999,
      "fzfg": false,
      "metar_trigger": false,
      "taf_trigger": false,
      "metar": "METAR BIKF 171000Z 05017KT CAVOK M04/M11 Q1011",
      "taf": "TAF BIKF 170757Z 1709/1809 06012KT CAVOK TXM01/1715Z TNM04/1709Z"
    },
    {
      "icao": "BKPR",
      "alert": "OK",
      "vis_m": null,
      "fzfg": false,
      "metar_trigger": false,
      "taf_trigger": false,
      "metar": "",
      "taf": "TAF BKPR 170530Z 1706/1806 18008KT 9999 SCT015 BKN020"
    },
    {
      "icao": "EBCI",
      "alert": "OK",
      "vis_m": 9999,
      "fzfg": false,
      "metar_trigger": false,
      "taf_trigger": false,
      "metar": "METAR EBCI 171020Z 30009KT 270V330 9999 -SHRA BKN010 BKN018 03/02 Q1011 BECMG SCT020",
      "taf": "TAF EBCI 170520Z 1706/1812 28010KT 9999 FEW018 SCT025"
    },
    {
      "icao": "EDDB",
      "alert": "OK",
      "vis_m": 9999,
      "fzfg": false,
      "metar_trigger": false,
      "taf_trigger": false,
      "metar": "METAR EDDB 171020Z AUTO VRB02KT 9999 FEW009 OVC028 M02/M05 Q1004 TEMPO BKN009",
      "taf": "TAF EDDB 170500Z 1706/1806 09005KT 9000 SCT010 BKN025"
    },
    {
      "icao": "EDDH",
      "alert": "OK",
      "vis_m": 6000,
      "fzfg": false,
      "metar_trigger": false,
      "taf_trigger": false,
      "metar": "METAR EDDH 171020Z AUTO 15007KT 6000 OVC007 M02/M03 Q1003 REFZDZ TEMPO 3500 -SN",
      "taf": "TAF EDDH 170500Z 1706/1812 11004KT 6000 BKN012"
    },
    {
      "icao": "EDDK",
      "alert": "OK",
      "vis_m": 9999,
      "fzfg": false,
      "metar_trigger": false,
      "taf_trigger": false,
      "metar": "METAR EDDK 171020Z AUTO 26015KT 9999 OVC014 04/03 Q1007 RESHRA TEMPO SHRA BKN020TCU",
      "taf": "TAF EDDK 170500Z 1706/1812 27007KT 9999 BKN010"
    },
    {
      "icao": "EDDN",
      "alert": "OK",
      "vis_m": 9999,
      "fzfg": false,
      "metar_trigger": false,
      "taf_trigger": false,
      "metar": "METAR EDDN 171020Z AUTO 27011KT 9999 -SHRA BKN012 BKN017 BKN021 FEW///CB 04/02 Q1006 TEMPO 28015G25KT SHRA BKN010TCU",
      "taf": "TAF EDDN 170500Z 1706/1806 26009KT 9999 FEW004 BKN025"
    },
    {
      "icao": "EDDS",
      "alert": "OK",
      "vis_m": 9999,
      "fzfg": false,
      "metar_trigger": false,
      "taf_trigger": false,
      "metar": "METAR EDDS 171020Z AUTO 26013KT 210V290 9999 FEW022 06/02 Q1008 NOSIG",
      "taf": "TAF EDDS 170500Z 1706/1806 25010KT 9999 BKN020"
    },
    {
      "icao": "EDFH",
      "alert": "OK",
      "vis_m": 9999,
      "fzfg": false,
      "metar_trigger": false,
      "taf_trigger": false,
      "metar": "METAR EDFH 171020Z 28015G26KT 240V310 9999 FEW003 SCT027 03/M01 Q1006",
      "taf": ""
    },
    {
      "icao": "EDJA",
      "alert": "OK",
      "vis_m": 9999,
      "fzfg": false,
      "metar_trigger": false,
      "taf_trigger": false,
      "metar": "METAR EDJA 171020Z 24011KT 9999 FEW034 BKN039 OVC047 03/00 Q1008",
      "taf": "TAF EDJA 170800Z 1709/1718 26012KT 9999 SCT013 BKN020"
    },
    {
      "icao": "EDLW",
      "alert": "OK",
      "vis_m": 7000,
      "fzfg": false,
      "metar_trigger": false,
      "taf_trigger": false,
      "metar": "METAR EDLW 171020Z 28010KT 250V320 7000 -RA BKN007 BKN014 OVC017 03/02 Q1005",
      "taf": "TAF EDLW 170500Z 1706/1806 25010KT 9999 BKN012"
    },
    {
      "icao": "EDNY",
      "alert": "OK",
      "vis_m": 9999,
      "fzfg": false,
      "metar_trigger": false,
      "taf_trigger": false,
      "metar": "METAR EDNY 171020Z 25014KT 9999 FEW014 BKN036 05/02 Q1010",
      "taf": "TAF EDNY 170800Z 1709/1718 25010KT 9999 SCT012 BKN030"
    },
    {
      "icao": "EDSB",
      "alert": "OK",
      "vis_m": 9999,
      "fzfg": false,
      "metar_trigger": false,
      "taf_trigger": false,
      "metar": "METAR EDSB 171020Z 21011KT 190V250 9999 FEW017 07/04 Q1010",
      "taf": "TAF EDSB 170500Z 1706/1806 23008KT 9999 BKN025"
    },
    {
      "icao": "EETN",
      "alert": "OK",
      "vis_m": 9999,
      "fzfg": false,
      "metar_trigger": false,
      "taf_trigger": false,
      "metar": "METAR EETN 171020Z 16004KT CAVOK M07/M11 Q1017 NOSIG",
      "taf": "TAF EETN 170530Z 1706/1806 16006KT CAVOK"
    },
    {
      "icao": "EFTU",
      "alert": "OK",
      "vis_m": 9999,
      "fzfg": false,
      "metar_trigger": false,
      "taf_trigger": false,
      "metar": "METAR EFTU 171020Z AUTO 14004KT 9999 OVC026 M06/M08 Q1015",
      "taf": "TAF EFTU 170832Z 1709/1809 14003KT 9999 OVC024"
    },
    {
      "icao": "EGBB",
      "alert": "OK",
      "vis_m": 9999,
      "fzfg": false,
      "metar_trigger": false,
      "taf_trigger": false,
      "metar": "METAR EGBB 171020Z 33010KT CAVOK 04/M03 Q1016",
      "taf": "TAF EGBB 170455Z 1706/1806 30011KT 9999 FEW030"
    },
    {
      "icao": "EGGP",
      "alert": "OK",
      "vis_m": 9999,
      "fzfg": false,
      "metar_trigger": false,
      "taf_trigger": false,
      "metar": "METAR EGGP 171020Z 02009KT 340V050 9999 SCT039 03/M05 Q1016",
      "taf": "TAF EGGP 170500Z 1706/1806 33012KT CAVOK"
    },
    {
      "icao": "EGGW",
      "alert": "OK",
      "vis_m": 9999,
      "fzfg": false,
      "metar_trigger": false,
      "taf_trigger": false,
      "metar": "METAR EGGW 171020Z AUTO 31009KT 9999 NCD 04/M02 Q1015",
      "taf": "TAF EGGW 170456Z 1706/1806 30014KT 9999 FEW030"
    },
    {
      "icao": "EGKK",
      "alert": "OK",
      "vis_m": 9999,
      "fzfg": false,
      "metar_trigger": false,
      "taf_trigger": false,
      "metar": "METAR EGKK 171020Z 31009KT 280V360 CAVOK 05/M01 Q1015",
      "taf": "TAF EGKK 170456Z 1706/1812 28009KT 9999 FEW035"
    },
    {
      "icao": "EGNM",
      "alert": "OK",
      "vis_m": 9999,
      "fzfg": false,
      "metar_trigger": false,
      "taf_trigger": false,
      "metar": "METAR EGNM 171020Z 33013KT CAVOK 02/M05 Q1014",
      "taf": "TAF EGNM 170458Z 1706/1806 30012KT CAVOK"
    },
    {
      "icao": "EGPD",
      "alert": "OK",
      "vis_m": 9999,
      "fzfg": false,
      "metar_trigger": false,
      "taf_trigger": false,
      "metar": "METAR EGPD 171020Z 32011KT 9999 VCSH SCT011 00/M02 Q1014",
      "taf": ""
    },
    {
      "icao": "EGPF",
      "alert": "OK",
      "vis_m": 9999,
      "fzfg": false,
      "metar_trigger": false,
      "taf_trigger": false,
      "metar": "METAR EGPF 171020Z AUTO VRB04KT 9999 NCD 03/M04 Q1017",
      "taf": "TAF EGPF 170456Z 1706/1806 VRB03KT 9999 FEW040"
    },
    {
      "icao": "EHBK",
      "alert": "OK",
      "vis_m": 7000,
      "fzfg": false,
      "metar_trigger": false,
      "taf_trigger": false,
      "metar": "METAR EHBK 170955Z AUTO 26010KT 220V320 7000 SCT007 BKN008 OVC009 04/02 Q1007 TEMPO 6000 -SHRA FEW020CB",
      "taf": "TAF EHBK 170515Z 1706/1812 25008KT 9999 BKN025"
    },
    {
      "icao": "EHEH",
      "alert": "OK",
      "vis_m": 9999,
      "fzfg": false,
      "metar_trigger": false,
      "taf_trigger": false,
      "metar": "METAR EHEH 170955Z AUTO 27006KT 240V330 9999 -DZ FEW022 SCT056 BKN070 04/03 Q1007 REDZ BLU TEMPO 4000 RA SHRAGS SCT008 SCT012CB RMK TREND REMOTE BY EHWX",
      "taf": "TAF EHEH 170551Z 1706/1812 24008KT 9999 SCT018"
    },
    {
      "icao": "EKBI",
      "alert": "OK",
      "vis_m": 2000,
      "fzfg": false,
      "metar_trigger": false,
      "taf_trigger": false,
      "metar": "METAR EKBI 171020Z AUTO 10012KT 2000 -SN FEW010/// OVC018/// M04/M06 Q1003",
      "taf": "TAF EKBI 170827Z 1709/1809 11012KT 9999 BKN025"
    },
    {
      "icao": "EKCH",
      "alert": "OK",
      "vis_m": 9999,
      "fzfg": false,
      "metar_trigger": false,
      "taf_trigger": false,
      "metar": "METAR EKCH 171020Z AUTO 12012KT 9999 FEW022/// M02/M07 Q1006 NOSIG",
      "taf": "TAF EKCH 170827Z 1709/1809 11014KT 9999 SCT020"
    },
    {
      "icao": "ENAL",
      "alert": "OK",
      "vis_m": 1000,
      "fzfg": false,
      "metar_trigger": false,
      "taf_trigger": false,
      "metar": "METAR ENAL 171020Z 29009KT 250V320 1000 SN VV006 00/M00 Q1003",
      "taf": "TAF ENAL 170800Z 1709/1718 20012KT 9999 -SN SCT015 BKN030"
    },
    {
      "icao": "ENBR",
      "alert": "OK",
      "vis_m": 4000,
      "fzfg": false,
      "metar_trigger": false,
      "taf_trigger": false,
      "metar": "METAR ENBR 171020Z 16013KT 4000 -SN BKN013 M02/M04 Q1007 TEMPO 0500 SHSN VV005 RMK WIND 1200FT 16020KT",
      "taf": ""
    },
    {
      "icao": "ENGM",
      "alert": "OK",
      "vis_m": 9999,
      "fzfg": false,
      "metar_trigger": false,
      "taf_trigger": false,
      "metar": "METAR ENGM 171020Z 34002KT 9999 -SN OVC028 M08/M10 Q1009 NOSIG",
      "taf": "TAF ENGM 170500Z 1706/1806 VRB03KT 9999 BKN020"
    },
    {
      "icao": "ENHD",
      "alert": "OK",
      "vis_m": 9999,
      "fzfg": false,
      "metar_trigger": false,
      "taf_trigger": false,
      "metar": "METAR ENHD 171020Z 12006KT 9999 FEW048 00/M07 Q1007",
      "taf": "TAF ENHD 170800Z 1709/1718 09005KT 9999 BKN040"
    },
    {
      "icao": "ENTC",
      "alert": "OK",
      "vis_m": 9999,
      "fzfg": false,
      "metar_trigger": false,
      "taf_trigger": false,
      "metar": "METAR ENTC 171020Z 23008KT 9999 SCT029 BKN070 M04/M10 Q1001 NOSIG RMK WIND 2600FT 17013KT",
      "taf": "TAF ENTC 170500Z 1706/1806 21010KT 9999 BKN050"
    },
    {
      "icao": "ENTO",
      "alert": "OK",
      "vis_m": 9999,
      "fzfg": false,
      "metar_trigger": false,
      "taf_trigger": false,
      "metar": "METAR ENTO 171020Z 36004KT 9999 -SN BKN019 BKN026 M07/M08 Q1010 NOSIG",
      "taf": "TAF ENTO 170500Z 1706/1806 01005KT 9999 BKN030"
    },
    {
      "icao": "ENVA",
      "alert": "OK",
      "vis_m": 9999,
      "fzfg": false,
      "metar_trigger": false,
      "taf_trigger": false,
      "metar": "METAR ENVA 171020Z 12006KT 090V150 9999 SCT047 M03/M12 Q1003 TEMPO 3000 -SN BKN012 RMK WIND 670FT 15011KT",
      "taf": "TAF ENVA 170500Z 1706/1806 12008KT CAVOK"
    },
    {
      "icao": "ENZV",
      "alert": "OK",
      "vis_m": 9999,
      "fzfg": false,
      "metar_trigger": false,
      "taf_trigger": false,
      "metar": "METAR ENZV 171020Z 12005KT 080V140 CAVOK 00/M10 Q1008 NOSIG",
      "taf": "TAF ENZV 170500Z 1706/1806 07008KT 9999 BKN045"
    },
    {
      "icao": "EPGD",
      "alert": "OK",
      "vis_m": 8000,
      "fzfg": false,
      "metar_trigger": false,
      "taf_trigger": false,
      "metar": "METAR EPGD 171000Z 11007KT 8000 -SN BKN014 OVC027 M09/M12 Q1005",
      "taf": ""
    },
    {
      "icao": "EPKK",
      "alert": "OK",
      "vis_m": 8000,
      "fzfg": false,
      "metar_trigger": false,
      "taf_trigger": false,
      "metar": "METAR EPKK 171000Z VRB02KT 8000 BKN060 00/M03 Q1002",
      "taf": "TAF EPKK 170830Z 1709/1809 07003KT 7000 BKN020"
    },
    {
      "icao": "EPKT",
      "alert": "OK",
      "vis_m": 9000,
      "fzfg": false,
      "metar_trigger": false,
      "taf_trigger": false,
      "metar": "METAR EPKT 171000Z 19005KT 9000 FEW010 BKN023 M00/M03 Q1002",
      "taf": "TAF EPKT 170530Z 1706/1806 18004KT 7000 BKN025"
    },
    {
      "icao": "EPLB",
      "alert": "OK",
      "vis_m": 9999,
      "fzfg": false,
      "metar_trigger": false,
      "taf_trigger": false,
      "metar": "METAR EPLB 171000Z 10009KT 9999 OVC038 M07/M09 Q1005",
      "taf": "TAF EPLB 170530Z 1706/1806 12012KT 9999 BKN030"
    },
    {
      "icao": "EPMO",
      "alert": "OK",
      "vis_m": 9999,
      "fzfg": false,
      "metar_trigger": false,
      "taf_trigger": false,
      "metar": "METAR EPMO 171000Z 11010KT 9999 -SN BKN011 M06/M08 Q1005",
      "taf": "TAF EPMO 170530Z 1706/1806 10012KT 8000 -SN SCT012 BKN030"
    },
    {
      "icao": "EPPO",
      "alert": "OK",
      "vis_m": 9000,
      "fzfg": false,
      "metar_trigger": false,
      "taf_trigger": false,
      "metar": "METAR EPPO 171000Z 10003KT 020V120 9000 OVC011 M04/M07 Q1003",
      "taf": ""
    },
    {
      "icao": "EPRA",
      "alert": "OK",
      "vis_m": 8000,
      "fzfg": false,
      "metar_trigger": false,
      "taf_trigger": false,
      "metar": "METAR EPRA 171000Z 11007KT 8000 -SN BKN020 OVC028 M05/M07 Q1004",
      "taf": "TAF EPRA 170830Z 1709/1718 13010KT 9999 BKN020"
    },
    {
      "icao": "EPRZ",
      "alert": "OK",
      "vis_m": 8000,
      "fzfg": false,
      "metar_trigger": false,
      "taf_trigger": false,
      "metar": "METAR EPRZ 171000Z 08008KT 8000 NSC M03/M06 Q1003",
      "taf": "TAF EPRZ 170530Z 1706/1806 09008KT 7000 OVC038"
    },
    {
      "icao": "EPSC",
      "alert": "OK",
      "vis_m": 9999,
      "fzfg": false,
      "metar_trigger": false,
      "taf_trigger": false,
      "metar": "METAR EPSC 171000Z VRB02KT 9999 BKN011 OVC014 M06/M09 Q1004",
      "taf": ""
    },
    {
      "icao": "EPSY",
      "alert": "OK",
      "vis_m": 8000,
      "fzfg": false,
      "metar_trigger": false,
      "taf_trigger": false,
      "metar": "METAR EPSY 171000Z 11006KT 040V150 8000 -SN BKN023 OVC030 M08/M12 Q1006",
      "taf": "TAF EPSY 170830Z 1709/1718 12012KT 7000 -SN BKN020"
    },
    {
      "icao": "EPWA",
      "alert": "OK",
      "vis_m": 9999,
      "fzfg": false,
      "metar_trigger": false,
      "taf_trigger": false,
      "metar": "METAR EPWA 171000Z 12013KT 9999 -SN BKN011 M06/M08 Q1004 NOSIG",
      "taf": "TAF EPWA 170830Z 1709/1809 12010KT 9999 BKN012"
    },
    {
      "icao": "EPWR",
      "alert": "OK",
      "vis_m": 2800,
      "fzfg": false,
      "metar_trigger": false,
      "taf_trigger": false,
      "metar": "METAR EPWR 171000Z VRB01KT 2800 -SN BR FEW003 BKN011 OVC014 M00/M02 Q1002 RESN",
      "taf": ""
    },
    {
      "icao": "ESGG",
      "alert": "OK",
      "vis_m": 9999,
      "fzfg": false,
      "metar_trigger": false,
      "taf_trigger": false,
      "metar": "METAR ESGG 171020Z 11008KT CAVOK M04/M10 Q1007",
      "taf": "TAF ESGG 170830Z 1709/1809 11009KT CAVOK"
    },
    {
      "icao": "ESKN",
      "alert": "OK",
      "vis_m": 9999,
      "fzfg": false,
      "metar_trigger": false,
      "taf_trigger": false,
      "metar": "METAR ESKN 171020Z 12012KT CAVOK M02/M10 Q1012",
      "taf": "TAF ESKN 170830Z 1709/1809 14010KT 9999 BKN040"
    },
    {
      "icao": "ESMS",
      "alert": "OK",
      "vis_m": 9999,
      "fzfg": false,
      "metar_trigger": false,
      "taf_trigger": false,
      "metar": "METAR ESMS 171020Z 10010KT CAVOK M03/M08 Q1005",
      "taf": "TAF ESMS 170827Z 1709/1809 10010KT 9999 SCT025"
    },
    {
      "icao": "ESSA",
      "alert": "OK",
      "vis_m": 9999,
      "fzfg": false,
      "metar_trigger": false,
      "taf_trigger": false,
      "metar": "METAR ESSA 171020Z 14005KT 9999 -SN SCT016 BKN048 M03/M06 Q1012 NOSIG",
      "taf": "TAF ESSA 170830Z 1709/1809 14006KT 9999 -SN BKN030"
    },
    {
      "icao": "EYKA",
      "alert": "OK",
      "vis_m": 9999,
      "fzfg": false,
      "metar_trigger": false,
      "taf_trigger": false,
      "metar": "METAR EYKA 171020Z 07009KT CAVOK M10/M19 Q1013",
      "taf": "TAF EYKA 170500Z 1706/1806 09008KT CAVOK"
    },
    {
      "icao": "EYPA",
      "alert": "OK",
      "vis_m": 9999,
      "fzfg": false,
      "metar_trigger": false,
      "taf_trigger": false,
      "metar": "METAR EYPA 171020Z 11012KT CAVOK M08/M21 Q1012",
      "taf": "TAF EYPA 170500Z 1706/1806 10010KT CAVOK"
    },
    {
      "icao": "EYVI",
      "alert": "OK",
      "vis_m": 9999,
      "fzfg": false,
      "metar_trigger": false,
      "taf_trigger": false,
      "metar": "METAR EYVI 171020Z 09008KT CAVOK M12/M21 Q1012 NOSIG",
      "taf": "TAF EYVI 170500Z 1706/1806 10008KT 9000 NSC"
    },
    {
      "icao": "GCFV",
      "alert": "OK",
      "vis_m": 9999,
      "fzfg": false,
      "metar_trigger": false,
      "taf_trigger": false,
      "metar": "METAR GCFV 171000Z 03005KT 350V060 9999 SCT013 18/14 Q1026",
      "taf": ""
    },
    {
      "icao": "GCLP",
      "alert": "OK",
      "vis_m": 9999,
      "fzfg": false,
      "metar_trigger": false,
      "taf_trigger": false,
      "metar": "METAR GCLP 171000Z 04011KT 9999 FEW010 18/15 Q1025 NOSIG",
      "taf": ""
    },
    {
      "icao": "GCTS",
      "alert": "OK",
      "vis_m": 8000,
      "fzfg": false,
      "metar_trigger": false,
      "taf_trigger": false,
      "metar": "METAR GCTS 171000Z 09009KT 8000 NSC 20/11 Q1025 NOSIG",
      "taf": ""
    },
    {
      "icao": "GMAD",
      "alert": "OK",
      "vis_m": 9999,
      "fzfg": false,
      "metar_trigger": false,
      "taf_trigger": false,
      "metar": "METAR GMAD 171000Z 00000KT CAVOK 19/11 Q1024 NOSIG",
      "taf": "TAF GMAD 170500Z 1706/1812 22004KT CAVOK"
    },
    {
      "icao": "GMMN",
      "alert": "OK",
      "vis_m": 9999,
      "fzfg": false,
      "metar_trigger": false,
      "taf_trigger": false,
      "metar": "METAR GMMN 171000Z 07006KT 030V120 9999 SCT002 13/12 Q1026 BECMG CAVOK",
      "taf": ""
    },
    {
      "icao": "GMMX",
      "alert": "OK",
      "vis_m": 9999,
      "fzfg": false,
      "metar_trigger": false,
      "taf_trigger": false,
      "metar": "METAR GMMX 171000Z 08003KT 040V130 CAVOK 17/09 Q1025 NOSIG",
      "taf": "TAF GMMX 170500Z 1706/1812 06006KT CAVOK"
    },
    {
      "icao": "HEGN",
      "alert": "OK",
      "vis_m": 4000,
      "fzfg": false,
      "metar_trigger": false,
      "taf_trigger": false,
      "metar": "METAR HEGN 170900Z 34013KT 4000 SA NSC 25/12 Q1013 NOSIG",
      "taf": "TAF HEGN 170500Z 1706/1812 34012G22KT 6000 NSC"
    },
    {
      "icao": "HEMA",
      "alert": "OK",
      "vis_m": 9999,
      "fzfg": false,
      "metar_trigger": false,
      "taf_trigger": false,
      "metar": "METAR HEMA 170900Z 33022KT CAVOK 27/11 Q1013 NOSIG",
      "taf": "TAF HEMA 170500Z 1706/1812 35012G22KT CAVOK"
    },
    {
      "icao": "HESH",
      "alert": "OK",
      "vis_m": null,
      "fzfg": false,
      "metar_trigger": false,
      "taf_trigger": false,
      "metar": "",
      "taf": "TAF HESH 170500Z 1706/1812 01015KT 6000 NSC"
    },
    {
      "icao": "HESX",
      "alert": "OK",
      "vis_m": 9999,
      "fzfg": false,
      "metar_trigger": false,
      "taf_trigger": false,
      "metar": "METAR HESX 170900Z 26011KT CAVOK 19/07 Q1016 NOSIG",
      "taf": "TAF HESX 170500Z 1706/1812 27010KT 6000 FEW030"
    },
    {
      "icao": "LATI",
      "alert": "OK",
      "vis_m": 9999,
      "fzfg": false,
      "metar_trigger": false,
      "taf_trigger": false,
      "metar": "METAR LATI 171020Z 13006KT 100V170 9999 -RA FEW020TCU SCT021 BKN040 11/08 Q0993 NOSIG",
      "taf": "TAF LATI 170500Z 1706/1806 18012KT 9999 RA FEW030 BKN040 OVC060 TX14/1712Z TN05/1805Z"
    },
    {
      "icao": "LBPD",
      "alert": "OK",
      "vis_m": 2200,
      "fzfg": false,
      "metar_trigger": false,
      "taf_trigger": false,
      "metar": "METAR LBPD 171000Z AUTO 00000KT 2200 BR OVC002/// 06/06 Q0995 TEMPO 3000 BR OVC002",
      "taf": "TAF LBPD 170500Z 1706/1806 10010KT 1700 BR SCT003 OVC010"
    },
    {
      "icao": "LBSF",
      "alert": "OK",
      "vis_m": 9999,
      "fzfg": false,
      "metar_trigger": false,
      "taf_trigger": false,
      "metar": "METAR LBSF 171000Z 11012KT 9999 FEW013 OVC017 06/03 Q0993 NOSIG",
      "taf": "TAF LBSF 170500Z 1706/1806 11014KT 6000 SCT020 OVC040"
    },
    {
      "icao": "LBWN",
      "alert": "OK",
      "vis_m": 9999,
      "fzfg": false,
      "metar_trigger": false,
      "taf_trigger": false,
      "metar": "METAR LBWN 171000Z 08014KT 9999 OVC008 08/08 Q0999 NOSIG",
      "taf": "TAF LBWN 170500Z 1706/1806 06014KT 9999 BKN010 OVC015"
    },
    {
      "icao": "LCLK",
      "alert": "OK",
      "vis_m": 9999,
      "fzfg": false,
      "metar_trigger": false,
      "taf_trigger": false,
      "metar": "METAR LCLK 171000Z 22020KT 9999 FEW030 21/14 Q1010 NOSIG",
      "taf": "TAF LCLK 170530Z 1706/1806 24006KT 7000 FEW025"
    },
    {
      "icao": "LCPH",
      "alert": "OK",
      "vis_m": 9999,
      "fzfg": false,
      "metar_trigger": false,
      "taf_trigger": false,
      "metar": "METAR LCPH 171000Z 26009KT 9999 FEW030 19/14 Q1011 NOSIG",
      "taf": "TAF LCPH 170530Z 1706/1806 29012KT 7000 FEW020"
    },
    {
      "icao": "LEAL",
      "alert": "OK",
      "vis_m": 9999,
      "fzfg": false,
      "metar_trigger": false,
      "taf_trigger": false,
      "metar": "METAR LEAL 171000Z 30024KT CAVOK 20/09 Q1023 NOSIG",
      "taf": ""
    },
    {
      "icao": "LEBB",
      "alert": "OK",
      "vis_m": 9000,
      "fzfg": false,
      "metar_trigger": false,
      "taf_trigger": false,
      "metar": "SPECI LEBB 171009Z 09005KT 030V120 9000 FEW007 SCT011 OVC022 11/10 Q1023 NOSIG",
      "taf": "TAF LEBB 170500Z 1706/1806 14005KT 9999 BKN020 TX15/1715Z TN08/1804Z"
    },
    {
      "icao": "LEBL",
      "alert": "OK",
      "vis_m": 9999,
      "fzfg": false,
      "metar_trigger": false,
      "taf_trigger": false,
      "metar": "METAR LEBL 171000Z 13004KT 080V190 9999 FEW030 15/07 Q1020 NOSIG",
      "taf": "TAF LEBL 170500Z 1706/1806 34008KT 9999 FEW030 TX18/1713Z TN09/1806Z"
    },
    {
      "icao": "LECH",
      "alert": "OK",
      "vis_m": 9999,
      "fzfg": false,
      "metar_trigger": false,
      "taf_trigger": false,
      "metar": "METAR LECH 171000Z AUTO VRB02KT 9999 BKN058 BKN067 15/09 Q1022",
      "taf": ""
    },
    {
      "icao": "LEMD",
      "alert": "OK",
      "vis_m": 9999,
      "fzfg": false,
      "metar_trigger": false,
      "taf_trigger": false,
      "metar": "METAR LEMD 171000Z 24010KT 210V280 9999 FEW035 SCT055 13/07 Q1025 NOSIG",
      "taf": "TAF LEMD 170500Z 1706/1812 25010KT 9999 SCT040 TX16/1714Z TN06/1806Z"
    },
    {
      "icao": "LEMG",
      "alert": "OK",
      "vis_m": 9999,
      "fzfg": false,
      "metar_trigger": false,
      "taf_trigger": false,
      "metar": "METAR LEMG 171000Z 28022KT 9999 FEW040 17/10 Q1025 NOSIG",
      "taf": "TAF LEMG 170500Z 1706/1806 29015KT CAVOK TX24/1714Z TN11/1707Z"
    },
    {
      "icao": "LEVC",
      "alert": "OK",
      "vis_m": 9999,
      "fzfg": false,
      "metar_trigger": false,
      "taf_trigger": false,
      "metar": "METAR LEVC 171000Z 28017KT 240V300 9999 FEW045 20/09 Q1022 NOSIG",
      "taf": "TAF LEVC 170500Z 1706/1806 27012KT 9999 FEW050 TX24/1714Z TN15/1706Z"
    },
    {
      "icao": "LEXJ",
      "alert": "OK",
      "vis_m": 9999,
      "fzfg": false,
      "metar_trigger": false,
      "taf_trigger": false,
      "metar": "METAR LEXJ 171000Z 25008KT 220V280 9999 SCT022 BKN027 12/11 Q1023",
      "taf": "TAF LEXJ 170800Z 1709/1809 22009KT 9999 BKN030 TX16/1714Z TN09/1803Z"
    },
    {
      "icao": "LEZG",
      "alert": "OK",
      "vis_m": 9999,
      "fzfg": false,
      "metar_trigger": false,
      "taf_trigger": false,
      "metar": "METAR LEZG 171000Z 27008KT 9999 BKN045 12/08 Q1023 NOSIG",
      "taf": "TAF LEZG 170500Z 1706/1806 29010KT 9999 SCT030 TX17/1714Z TN09/1706Z"
    },
    {
      "icao": "LEZL",
      "alert": "OK",
      "vis_m": 9999,
      "fzfg": false,
      "metar_trigger": false,
      "taf_trigger": false,
      "metar": "METAR LEZL 171000Z 05005KT 9999 FEW019 OVC024 16/12 Q1028 NOSIG",
      "taf": "TAF LEZL 170800Z 1709/1809 05007KT 9999 SCT030 TX19/1715Z TN12/1807Z"
    },
    {
      "icao": "LFBD",
      "alert": "OK",
      "vis_m": 9999,
      "fzfg": false,
      "metar_trigger": false,
      "taf_trigger": false,
      "metar": "METAR LFBD 171000Z AUTO 23005KT 9999 BKN035 OVC100 11/08 Q1021 TEMPO 4000 SHRA BKN020TCU",
      "taf": "TAF LFBD 170500Z 1706/1812 27005KT CAVOK TX16/1812Z TN06/1706Z"
    },
    {
      "icao": "LFLL",
      "alert": "OK",
      "vis_m": 9999,
      "fzfg": false,
      "metar_trigger": false,
      "taf_trigger": false,
      "metar": "METAR LFLL 171000Z VRB02KT 9999 -RA SCT026 BKN033 BKN046 07/04 Q1017 NOSIG",
      "taf": "TAF LFLL 170500Z 1706/1812 31011KT 9999 FEW025 BKN035"
    },
    {
      "icao": "LFLS",
      "alert": "OK",
      "vis_m": 9999,
      "fzfg": false,
      "metar_trigger": false,
      "taf_trigger": false,
      "metar": "METAR LFLS 171000Z AUTO 25008KT 9999 FEW013 SCT043 BKN054 07/04 Q1017 TEMPO 4000 SHRA SCT020TCU BKN030",
      "taf": "TAF LFLS 170800Z 1709/1809 VRB03KT 9999 BKN030"
    },
    {
      "icao": "LFMN",
      "alert": "OK",
      "vis_m": 9999,
      "fzfg": false,
      "metar_trigger": false,
      "taf_trigger": false,
      "metar": "METAR LFMN 171000Z 33015KT CAVOK 16/M04 Q1010 NOSIG",
      "taf": "TAF LFMN 170800Z 1709/1815 34012KT CAVOK"
    },
    {
      "icao": "LFOB",
      "alert": "OK",
      "vis_m": 9999,
      "fzfg": false,
      "metar_trigger": false,
      "taf_trigger": false,
      "metar": "METAR LFOB 171000Z AUTO 31014KT 9999 FEW034 BKN043 06/M00 Q1014 NOSIG",
      "taf": ""
    },
    {
      "icao": "LFPO",
      "alert": "OK",
      "vis_m": 9999,
      "fzfg": false,
      "metar_trigger": false,
      "taf_trigger": false,
      "metar": "METAR LFPO 171000Z 32011G25KT 290V350 9999 SCT030 BKN040 07/01 Q1015 NOSIG",
      "taf": "TAF LFPO 170500Z 1706/1812 28010KT 9999 FEW025 BKN060"
    },
    {
      "icao": "LFSB",
      "alert": "OK",
      "vis_m": 9999,
      "fzfg": false,
      "metar_trigger": false,
      "taf_trigger": false,
      "metar": "METAR LFSB 171000Z AUTO 27015KT 9999 3300 RA SCT023/// BKN031/// BKN043/// ///TCU 05/03 Q1012 TEMPO 29015G30KT 3000 SHRA FEW030CB",
      "taf": "TAF LFSB 170500Z 1706/1806 24010KT 9999 SCT020 BKN050"
    },
    {
      "icao": "LGAV",
      "alert": "OK",
      "vis_m": 5000,
      "fzfg": false,
      "metar_trigger": false,
      "taf_trigger": false,
      "metar": "METAR LGAV 171020Z 27011KT 5000 RA FEW012 FEW018TCU BKN025 OVC060 13/10 Q0997 NOSIG",
      "taf": "TAF LGAV 170500Z 1706/1806 24012KT 9999 SCT020 BKN070"
    },
    {
      "icao": "LGTS",
      "alert": "OK",
      "vis_m": 9999,
      "fzfg": false,
      "metar_trigger": false,
      "taf_trigger": false,
      "metar": "METAR LGTS 171020Z VRB02KT 9999 FEW005 SCT025 11/10 Q0992 NOSIG",
      "taf": "TAF LGTS 170500Z 1706/1806 12015KT 9999 FEW012 BKN030"
    },
    {
      "icao": "LHBP",
      "alert": "OK",
      "vis_m": 6000,
      "fzfg": false,
      "metar_trigger": false,
      "taf_trigger": false,
      "metar": "METAR LHBP 171000Z 35004KT 280V040 6000 BKN009 BKN025 02/M01 Q1003 BECMG SCT014 BKN025",
      "taf": "TAF LHBP 170515Z 1706/1806 33004KT 6000 BKN020 BKN180"
    },
    {
      "icao": "LHDC",
      "alert": "OK",
      "vis_m": 9999,
      "fzfg": false,
      "metar_trigger": false,
      "taf_trigger": false,
      "metar": "METAR LHDC 170945Z AUTO 02008KT 340V050 CAVOK 02/M02 Q1002 NOSIG",
      "taf": "TAF LHDC 170815Z 1709/1718 02008KT 9999 BKN035"
    },
    {
      "icao": "LIBD",
      "alert": "OK",
      "vis_m": 8000,
      "fzfg": false,
      "metar_trigger": false,
      "taf_trigger": false,
      "metar": "METAR LIBD 171020Z 28017KT 8000 -RA VCTS FEW015CB BKN030 09/07 Q0998 RETSRA",
      "taf": ""
    },
    {
      "icao": "LIBG",
      "alert": "OK",
      "vis_m": 9999,
      "fzfg": false,
      "metar_trigger": false,
      "taf_trigger": false,
      "metar": "SPECI LIBG 171004Z 30011KT 270V350 9999 SHRA SCT010 SCT030 11/05 Q0997",
      "taf": "TAF LIBG 170800Z 1709/1718 32015KT 9999 SCT020"
    },
    {
      "icao": "LIBP",
      "alert": "OK",
      "vis_m": 9999,
      "fzfg": false,
      "metar_trigger": false,
      "taf_trigger": false,
      "metar": "METAR LIBP 171020Z AUTO 36010KT 330V030 9999 NCD 14/04 Q1004",
      "taf": "TAF LIBP 170500Z 1706/1806 28008KT 9999 SCT040"
    },
    {
      "icao": "LIBR",
      "alert": "OK",
      "vis_m": 8000,
      "fzfg": false,
      "metar_trigger": false,
      "taf_trigger": false,
      "metar": "METAR LIBR 171020Z 30024KT 8000 -DZ BKN025 10/07 Q0996",
      "taf": "TAF LIBR 170500Z 1706/1806 30018KT 9999 SCT030"
    },
    {
      "icao": "LICA",
      "alert": "OK",
      "vis_m": 9999,
      "fzfg": false,
      "metar_trigger": false,
      "taf_trigger": false,
      "metar": "METAR LICA 171020Z AUTO 29025KT 9999 NCD 14/06 Q1000",
      "taf": "TAF LICA 170500Z 1706/1806 30025G42KT 9999 SCT020"
    },
    {
      "icao": "LICC",
      "alert": "OK",
      "vis_m": 9999,
      "fzfg": false,
      "metar_trigger": false,
      "taf_trigger": false,
      "metar": "METAR LICC 171020Z 30025G35KT 9999 FEW060 16/12 Q1003",
      "taf": "TAF LICC 170500Z 1706/1806 27020G34KT 9999 SCT030"
    },
    {
      "icao": "LICJ",
      "alert": "OK",
      "vis_m": 9999,
      "fzfg": false,
      "metar_trigger": false,
      "taf_trigger": false,
      "metar": "METAR LICJ 171020Z 31026KT 9999 FEW030 SCT050 15/07 Q1009",
      "taf": "TAF LICJ 170500Z 1706/1806 30026G46KT 9999 SCT020"
    },
    {
      "icao": "LIMC",
      "alert": "OK",
      "vis_m": 9999,
      "fzfg": false,
      "metar_trigger": false,
      "taf_trigger": false,
      "metar": "METAR LIMC 171020Z 29003KT 180V350 CAVOK 12/00 Q1008 NOSIG",
      "taf": "TAF LIMC 170500Z 1706/1812 31013KT CAVOK"
    },
    {
      "icao": "LIME",
      "alert": "OK",
      "vis_m": 9999,
      "fzfg": false,
      "metar_trigger": false,
      "taf_trigger": false,
      "metar": "METAR LIME 171020Z 29014KT CAVOK 13/M03 Q1006 NOSIG",
      "taf": ""
    },
    {
      "icao": "LIMF",
      "alert": "OK",
      "vis_m": 9999,
      "fzfg": false,
      "metar_trigger": false,
      "taf_trigger": false,
      "metar": "METAR LIMF 171020Z 30011KT 250V320 CAVOK 14/M06 Q1008",
      "taf": "TAF LIMF 170500Z 1706/1806 28010KT 9999 FEW100"
    },
    {
      "icao": "LIMJ",
      "alert": "OK",
      "vis_m": 9999,
      "fzfg": false,
      "metar_trigger": false,
      "taf_trigger": false,
      "metar": "METAR LIMJ 171020Z VRB06KT CAVOK 16/M05 Q1008",
      "taf": ""
    },
    {
      "icao": "LIPE",
      "alert": "OK",
      "vis_m": 9999,
      "fzfg": false,
      "metar_trigger": false,
      "taf_trigger": false,
      "metar": "METAR LIPE 171020Z 28021G32KT CAVOK 14/M01 Q1006",
      "taf": "TAF LIPE 170500Z 1706/1806 28005KT CAVOK"
    },
    {
      "icao": "LIPH",
      "alert": "OK",
      "vis_m": 9999,
      "fzfg": false,
      "metar_trigger": false,
      "taf_trigger": false,
      "metar": "METAR LIPH 171020Z 22004KT 180V250 CAVOK 11/02 Q1004",
      "taf": "TAF LIPH 170500Z 1706/1806 27006KT CAVOK"
    },
    {
      "icao": "LIPQ",
      "alert": "OK",
      "vis_m": 9999,
      "fzfg": false,
      "metar_trigger": false,
      "taf_trigger": false,
      "metar": "METAR LIPQ 171020Z AUTO 30004KT 250V020 9999 NCD 12/03 Q1004",
      "taf": "TAF LIPQ 170500Z 1706/1806 VRB05KT CAVOK"
    },
    {
      "icao": "LIPR",
      "alert": "OK",
      "vis_m": 9999,
      "fzfg": false,
      "metar_trigger": false,
      "taf_trigger": false,
      "metar": "METAR LIPR 171020Z 31019KT CAVOK 13/02 Q1005",
      "taf": "TAF LIPR 170500Z 1706/1806 30012KT CAVOK"
    },
    {
      "icao": "LIPX",
      "alert": "OK",
      "vis_m": 9999,
      "fzfg": false,
      "metar_trigger": false,
      "taf_trigger": false,
      "metar": "METAR LIPX 171020Z 27010KT CAVOK 12/02 Q1005",
      "taf": "TAF LIPX 170500Z 1706/1806 VRB05KT CAVOK"
    },
    {
      "icao": "LIPY",
      "alert": "OK",
      "vis_m": 9999,
      "fzfg": false,
      "metar_trigger": false,
      "taf_trigger": false,
      "metar": "METAR LIPY 171020Z AUTO 34012KT 9999 NCD 11/05 Q1005",
      "taf": "TAF LIPY 170500Z 1706/1806 31012KT CAVOK"
    },
    {
      "icao": "LIPZ",
      "alert": "OK",
      "vis_m": 9999,
      "fzfg": false,
      "metar_trigger": false,
      "taf_trigger": false,
      "metar": "METAR LIPZ 171020Z 28004KT 210V320 CAVOK 11/00 Q1004 NOSIG",
      "taf": "TAF LIPZ 170500Z 1706/1812 28007KT CAVOK"
    },
    {
      "icao": "LIRF",
      "alert": "OK",
      "vis_m": 9999,
      "fzfg": false,
      "metar_trigger": false,
      "taf_trigger": false,
      "metar": "METAR LIRF 171020Z 31014KT CAVOK 15/01 Q1005 NOSIG",
      "taf": "TAF LIRF 170500Z 1706/1812 32013KT 9999 FEW030"
    },
    {
      "icao": "LIRN",
      "alert": "OK",
      "vis_m": 9999,
      "fzfg": false,
      "metar_trigger": false,
      "taf_trigger": false,
      "metar": "METAR LIRN 171020Z 32010KT 290V360 9999 FEW070 14/04 Q1003 NOSIG",
      "taf": "TAF LIRN 170500Z 1706/1806 31010KT 9999 BKN020"
    },
    {
      "icao": "LIRP",
      "alert": "OK",
      "vis_m": 9999,
      "fzfg": false,
      "metar_trigger": false,
      "taf_trigger": false,
      "metar": "METAR LIRP 171015Z 16003KT CAVOK 13/08 Q1006 NOSIG",
      "taf": "TAF LIRP 170500Z 1706/1806 10003KT 0600 FG FEW001"
    },
    {
      "icao": "LIRZ",
      "alert": "OK",
      "vis_m": 9999,
      "fzfg": false,
      "metar_trigger": false,
      "taf_trigger": false,
      "metar": "METAR LIRZ 171020Z AUTO 31007KT 280V350 9999 NCD 12/M00 Q1006",
      "taf": "TAF LIRZ 170500Z 1706/1806 VRB05KT 9999 SCT025"
    },
    {
      "icao": "LJLJ",
      "alert": "OK",
      "vis_m": 400,
      "fzfg": false,
      "metar_trigger": false,
      "taf_trigger": false,
      "metar": "METAR LJLJ 171000Z VRB02KT 0400 R30/0500N FG VV001 01/01 Q1004 NOSIG",
      "taf": ""
    },
    {
      "icao": "LKMT",
      "alert": "OK",
      "vis_m": 2000,
      "fzfg": false,
      "metar_trigger": false,
      "taf_trigger": false,
      "metar": "METAR LKMT 171000Z 23010KT 2000 -SN BR FEW008 SCT018 OVC038 M00/M01 Q1002 NOSIG",
      "taf": "TAF LKMT 170500Z 1706/1806 22008KT 9999 BKN035"
    },
    {
      "icao": "LKPR",
      "alert": "OK",
      "vis_m": 9999,
      "fzfg": false,
      "metar_trigger": false,
      "taf_trigger": false,
      "metar": "METAR LKPR 171000Z 26008KT 9999 FEW010 BKN022 02/00 Q1003 NOSIG",
      "taf": "TAF LKPR 170800Z 1709/1815 25009KT 9999 BKN025"
    },
    {
      "icao": "LLBG",
      "alert": "OK",
      "vis_m": 9000,
      "fzfg": false,
      "metar_trigger": false,
      "taf_trigger": false,
      "metar": "METAR LLBG 171020Z 23010KT 9000 FEW020 SCT035 18/13 Q1014 NOSIG",
      "taf": "TAF LLBG 170507Z 1706/1806 19008KT 6000 SCT012 BKN025"
    },
    {
      "icao": "LMML",
      "alert": "OK",
      "vis_m": 9999,
      "fzfg": false,
      "metar_trigger": false,
      "taf_trigger": false,
      "metar": "METAR LMML 171015Z 27029G42KT 9999 SCT020 16/12 Q1009 NOSIG",
      "taf": "TAF LMML 170500Z 1706/1806 28020G30KT 9999 FEW018"
    },
    {
      "icao": "LOWW",
      "alert": "OK",
      "vis_m": 9999,
      "fzfg": false,
      "metar_trigger": false,
      "taf_trigger": false,
      "metar": "METAR LOWW 171020Z 31012KT 9999 -RA FEW020 SCT036 BKN048 04/02 Q1004 NOSIG",
      "taf": "TAF LOWW 170815Z 1709/1815 29010KT 9999 FEW010 BKN030 TX06/1813Z TN02/1719Z"
    },
    {
      "icao": "LPFR",
      "alert": "OK",
      "vis_m": 9999,
      "fzfg": false,
      "metar_trigger": false,
      "taf_trigger": false,
      "metar": "METAR LPFR 171000Z 24003KT 190V260 9999 FEW012 BKN016 13/11 Q1029",
      "taf": "TAF LPFR 170500Z 1706/1806 VRB02KT 9999 SCT020"
    },
    {
      "icao": "LPMA",
      "alert": "OK",
      "vis_m": 9999,
      "fzfg": false,
      "metar_trigger": false,
      "taf_trigger": false,
      "metar": "METAR LPMA 171000Z 06004KT 020V130 9999 SCT014 17/12 Q1028",
      "taf": "TAF LPMA 170500Z 1706/1806 26005KT 9999 BKN015"
    },
    {
      "icao": "LPPR",
      "alert": "OK",
      "vis_m": 9999,
      "fzfg": false,
      "metar_trigger": false,
      "taf_trigger": false,
      "metar": "METAR LPPR 171000Z 16004KT 140V200 9999 FEW020 BKN027 14/12 Q1027",
      "taf": "TAF LPPR 170500Z 1706/1806 21008KT 8000 SCT003 BKN006"
    },
    {
      "icao": "LPPS",
      "alert": "OK",
      "vis_m": 9999,
      "fzfg": false,
      "metar_trigger": false,
      "taf_trigger": false,
      "metar": "METAR LPPS 171000Z 14004KT 120V180 9999 FEW014 BKN030 16/12 Q1028",
      "taf": "TAF LPPS 170500Z 1706/1812 13008KT 9999 SCT014"
    },
    {
      "icao": "LPPT",
      "alert": "OK",
      "vis_m": 9999,
      "fzfg": false,
      "metar_trigger": false,
      "taf_trigger": false,
      "metar": "METAR LPPT 171000Z 24003KT 210V300 9999 SCT020 BKN023 13/10 Q1029",
      "taf": "TAF LPPT 170500Z 1706/1812 VRB02KT 9999 BKN015"
    },
    {
      "icao": "LQBK",
      "alert": "OK",
      "vis_m": 9999,
      "fzfg": false,
      "metar_trigger": false,
      "taf_trigger": false,
      "metar": "METAR LQBK 171000Z 00000KT 9999 BKN010 OVC020 05/03 Q1004 NOSIG",
      "taf": ""
    },
    {
      "icao": "LQSA",
      "alert": "OK",
      "vis_m": 5000,
      "fzfg": false,
      "metar_trigger": false,
      "taf_trigger": false,
      "metar": "METAR LQSA 171000Z 31005KT 5000 -SN BKN010 OVC022 01/01 Q1000 NOSIG",
      "taf": "TAF LQSA 170500Z 1706/1806 35006KT 7000 BKN012 OVC030 TX02/1713Z TNM03/1805Z"
    },
    {
      "icao": "LQTZ",
      "alert": "OK",
      "vis_m": 6000,
      "fzfg": false,
      "metar_trigger": false,
      "taf_trigger": false,
      "metar": "METAR LQTZ 171000Z 30005KT 270V330 6000 -RA BKN008 OVC015 03/02 Q1002",
      "taf": "TAF LQTZ 170500Z 1706/1806 27007KT 9999 SCT015 BKN030 TX04/1714Z TNM03/1806Z"
    },
    {
      "icao": "LRBC",
      "alert": "OK",
      "vis_m": 3500,
      "fzfg": false,
      "metar_trigger": false,
      "taf_trigger": false,
      "metar": "METAR LRBC 171000Z 20004KT 3500 -FZDZ BR OVC004 M00/M01 Q1005",
      "taf": "TAF LRBC 170800Z 1709/1718 VRB04KT 3000 -FZDZ BR OVC005"
    },
    {
      "icao": "LRBS",
      "alert": "OK",
      "vis_m": 1500,
      "fzfg": false,
      "metar_trigger": false,
      "taf_trigger": false,
      "metar": "METAR LRBS 171000Z 05015KT 010V080 1500 -PLRA BR OVC003 02/01 Q1001 NOSIG",
      "taf": "TAF LRBS 170500Z 1706/1806 07014KT 3000 BR OVC002"
    },
    {
      "icao": "LRBV",
      "alert": "OK",
      "vis_m": 9999,
      "fzfg": false,
      "metar_trigger": false,
      "taf_trigger": false,
      "metar": "METAR LRBV 171000Z 08009KT 050V110 9999 BKN014 02/M01 Q0999",
      "taf": "TAF LRBV 170800Z 1709/1718 VRB04KT CAVOK"
    },
    {
      "icao": "LRCL",
      "alert": "OK",
      "vis_m": 2700,
      "fzfg": false,
      "metar_trigger": false,
      "taf_trigger": false,
      "metar": "METAR LRCL 171000Z VRB01KT 2700 -SN BR SCT005 OVC020 01/M01 Q1000",
      "taf": "TAF LRCL 170800Z 1709/1718 VRB04KT 9999 SCT005 OVC020"
    },
    {
      "icao": "LRCV",
      "alert": "OK",
      "vis_m": 3500,
      "fzfg": false,
      "metar_trigger": false,
      "taf_trigger": false,
      "metar": "METAR LRCV 171000Z 07019KT 3500 RASN BR SCT004 BKN010 OVC015 02/01 Q0997",
      "taf": ""
    },
    {
      "icao": "LRIA",
      "alert": "OK",
      "vis_m": 9999,
      "fzfg": false,
      "metar_trigger": false,
      "taf_trigger": false,
      "metar": "METAR LRIA 171000Z 10010KT 9999 FEW006 SCT009 BKN012 M02/M04 Q1006",
      "taf": "TAF LRIA 170800Z 1709/1718 11010KT 7000 BKN015"
    },
    {
      "icao": "LROP",
      "alert": "OK",
      "vis_m": 3000,
      "fzfg": false,
      "metar_trigger": false,
      "taf_trigger": false,
      "metar": "METAR LROP 171000Z 06018KT 3000 -RA BR OVC005 02/02 Q1001 NOSIG",
      "taf": "TAF LROP 170500Z 1706/1806 07014KT 3000 BR OVC002"
    },
    {
      "icao": "LRSB",
      "alert": "OK",
      "vis_m": 1800,
      "fzfg": false,
      "metar_trigger": false,
      "taf_trigger": false,
      "metar": "METAR LRSB 171000Z 15003KT 110V180 1800 R27/2000U -SN BR FEW002 SCT004 BKN006 00/00 Q0999",
      "taf": "TAF LRSB 170500Z 1706/1806 VRB04KT 9999 BKN080"
    },
    {
      "icao": "LRSM",
      "alert": "OK",
      "vis_m": 9999,
      "fzfg": false,
      "metar_trigger": false,
      "taf_trigger": false,
      "metar": "METAR LRSM 171000Z 02005KT 350V050 9999 SCT025 03/M01 Q1001",
      "taf": "TAF LRSM 170800Z 1709/1718 01006KT 9999 SCT035"
    },
    {
      "icao": "LRSV",
      "alert": "CRITICAL",
      "vis_m": 100,
      "fzfg": true,
      "metar_trigger": true,
      "taf_trigger": true,
      "metar": "METAR LRSV 171000Z 04006KT 0100 R34/0325N FZFG VV002 M04/M04 Q1003",
      "taf": "TAF LRSV 170800Z 1709/1718 07008KT 0100 FZFG VV001"
    },
    {
      "icao": "LRTM",
      "alert": "OK",
      "vis_m": 9999,
      "fzfg": false,
      "metar_trigger": false,
      "taf_trigger": false,
      "metar": "METAR LRTM 171000Z VRB02KT 9999 FEW038 SCT042 02/M01 Q1000",
      "taf": ""
    },
    {
      "icao": "LRTR",
      "alert": "OK",
      "vis_m": 9999,
      "fzfg": false,
      "metar_trigger": false,
      "taf_trigger": false,
      "metar": "METAR LRTR 171000Z 01013KT 9999 SCT022 03/02 Q1000 NOSIG",
      "taf": "TAF LRTR 170500Z 1706/1806 02010KT 9999 SCT025"
    },
    {
      "icao": "LTAC",
      "alert": "OK",
      "vis_m": 9999,
      "fzfg": false,
      "metar_trigger": false,
      "taf_trigger": false,
      "metar": "METAR LTAC 171020Z 25007KT 9999 SCT040 BKN100 12/04 Q1004 NOSIG",
      "taf": "TAF LTAC 170440Z 1706/1806 21009KT 9999 SCT035 BKN100"
    },
    {
      "icao": "LTFM",
      "alert": "OK",
      "vis_m": 9999,
      "fzfg": false,
      "metar_trigger": false,
      "taf_trigger": false,
      "metar": "METAR LTFM 171020Z 20011KT 9999 FEW002 SCT032 BKN080 15/09 Q0998 NOSIG",
      "taf": "TAF LTFM 170440Z 1706/1812 32005KT 1100 BCFG BKN002 BKN020"
    },
    {
      "icao": "LUKK",
      "alert": "OK",
      "vis_m": 9999,
      "fzfg": false,
      "metar_trigger": false,
      "taf_trigger": false,
      "metar": "METAR LUKK 171000Z 07011KT 9999 BKN013 OVC045 M02/M04 Q1006 NOSIG",
      "taf": "TAF LUKK 170522Z 1706/1806 06008KT 9999 BKN007"
    },
    {
      "icao": "LWOH",
      "alert": "OK",
      "vis_m": 9999,
      "fzfg": false,
      "metar_trigger": false,
      "taf_trigger": false,
      "metar": "METAR LWOH 171020Z 17012KT 9999 SCT010 OVC035 07/04 Q0992",
      "taf": "TAF LWOH 170830Z 1709/1809 12014KT 9999 SCT015 OVC030"
    },
    {
      "icao": "LWSK",
      "alert": "OK",
      "vis_m": 9999,
      "fzfg": false,
      "metar_trigger": false,
      "taf_trigger": false,
      "metar": "METAR LWSK 171020Z VRB01KT 9999 SCT018 OVC045 08/05 Q0993 NOSIG",
      "taf": "TAF LWSK 170830Z 1709/1809 32005KT 9999 SCT015 OVC040"
    },
    {
      "icao": "LYBE",
      "alert": "OK",
      "vis_m": 3000,
      "fzfg": false,
      "metar_trigger": false,
      "taf_trigger": false,
      "metar": "METAR LYBE 171000Z 36005KT 3000 SN BKN004 OVC020 01/00 Q1001 NOSIG",
      "taf": "TAF LYBE 170500Z 1706/1806 02010KT 6000 RA SCT010 OVC030 TX04/1714Z TNM00/1805Z"
    },
    {
      "icao": "LYNI",
      "alert": "OK",
      "vis_m": 9999,
      "fzfg": false,
      "metar_trigger": false,
      "taf_trigger": false,
      "metar": "METAR LYNI 171000Z 30004KT 260V340 9999 -RA SCT010 BKN020 OVC070 04/03 Q0994 BECMG 33015KT",
      "taf": "TAF LYNI 170500Z 1706/1806 08008KT 9999 RA SCT030 OVC060 TX07/1708Z TN00/1718Z"
    },
    {
      "icao": "LYPG",
      "alert": "OK",
      "vis_m": 9999,
      "fzfg": false,
      "metar_trigger": false,
      "taf_trigger": false,
      "metar": "METAR LYPG 171000Z 35023KT 9999 -RA FEW010 BKN027 OVC070 07/04 Q0992 NOSIG",
      "taf": "TAF LYPG 170500Z 1706/1806 14009KT 8000 RA BKN030 OVC060 TX11/1712Z TN08/1706Z"
    },
    {
      "icao": "LZIB",
      "alert": "OK",
      "vis_m": 3800,
      "fzfg": false,
      "metar_trigger": false,
      "taf_trigger": false,
      "metar": "METAR LZIB 171000Z VRB01KT 3800 BR SCT003 BKN005 00/M01 Q1004 BECMG SCT005 BKN018",
      "taf": ""
    },
    {
      "icao": "LZKZ",
      "alert": "OK",
      "vis_m": 9999,
      "fzfg": false,
      "metar_trigger": false,
      "taf_trigger": false,
      "metar": "METAR LZKZ 171000Z 08004KT 060V120 9999 FEW018 02/M02 Q1002 NOSIG",
      "taf": "TAF LZKZ 170515Z 1706/1806 VRB02KT 7000 FEW008 OVC020"
    },
    {
      "icao": "LZTT",
      "alert": "OK",
      "vis_m": 9999,
      "fzfg": false,
      "metar_trigger": false,
      "taf_trigger": false,
      "metar": "METAR LZTT 171000Z VRB02KT 9999 FEW016 BKN064 M02/M05 Q1000 NOSIG",
      "taf": "TAF LZTT 170515Z 1706/1806 VRB02KT 9999 FEW012 SCT030"
    },
    {
      "icao": "OEJN",
      "alert": "OK",
      "vis_m": 8000,
      "fzfg": false,
      "metar_trigger": false,
      "taf_trigger": false,
      "metar": "METAR OEJN 171000Z 20007KT 8000 NSC 33/13 Q1010 NOSIG",
      "taf": "TAF OEJN 170500Z 1706/1812 25010KT CAVOK"
    },
    {
      "icao": "OEMA",
      "alert": "OK",
      "vis_m": 9999,
      "fzfg": false,
      "metar_trigger": false,
      "taf_trigger": false,
      "metar": "METAR OEMA 171000Z 06005KT CAVOK 30/M03 Q1016 NOSIG",
      "taf": "TAF OEMA 170500Z 1706/1812 09010KT CAVOK"
    },
    {
      "icao": "OJAI",
      "alert": "OK",
      "vis_m": 4000,
      "fzfg": false,
      "metar_trigger": false,
      "taf_trigger": false,
      "metar": "METAR OJAI 171000Z 00000KT 4000 HZ NSC 14/10 Q1016 NOSIG",
      "taf": "TAF OJAI 170438Z 1706/1812 27008KT 4000 HZ NSC"
    },
    {
      "icao": "OMAA",
      "alert": "OK",
      "vis_m": 9999,
      "fzfg": false,
      "metar_trigger": false,
      "taf_trigger": false,
      "metar": "METAR OMAA 171000Z 30007KT CAVOK 28/14 Q1013 NOSIG",
      "taf": ""
    },
    {
      "icao": "OMDB",
      "alert": "OK",
      "vis_m": 8000,
      "fzfg": false,
      "metar_trigger": false,
      "taf_trigger": false,
      "metar": "METAR OMDB 171000Z 34010KT 320V020 8000 FEW035 28/13 Q1013 NOSIG",
      "taf": "TAF OMDB 170500Z 1706/1812 14007KT 8000 NSC"
    },
    {
      "icao": "UAAA",
      "alert": "OK",
      "vis_m": 9999,
      "fzfg": false,
      "metar_trigger": false,
      "taf_trigger": false,
      "metar": "METAR UAAA 171000Z 05002MPS 350V100 9999 SCT100 BKN200 13/08 Q1024 NOSIG",
      "taf": "TAF UAAA 170502Z 1706/1806 04003MPS 3100 BR FU SCT020CB BKN100 TX10/1709Z TN01/1803Z"
    },
    {
      "icao": "UBBB",
      "alert": "OK",
      "vis_m": 9999,
      "fzfg": false,
      "metar_trigger": false,
      "taf_trigger": false,
      "metar": "METAR UBBB 171000Z 19016KT CAVOK 17/07 Q1006 NOSIG",
      "taf": "TAF UBBB 170458Z 1706/1806 18016KT CAVOK TX16/1710Z TN07/1802Z"
    },
    {
      "icao": "UDSG",
      "alert": "OK",
      "vis_m": 7000,
      "fzfg": false,
      "metar_trigger": false,
      "taf_trigger": false,
      "metar": "METAR UDSG 171000Z 14002KT 7000 FEW049 03/M01 Q1016 NOSIG",
      "taf": "TAF UDSG 170500Z 1706/1806 VRB06KT 9999 SCT040"
    },
    {
      "icao": "UDYZ",
      "alert": "OK",
      "vis_m": 9999,
      "fzfg": false,
      "metar_trigger": false,
      "taf_trigger": false,
      "metar": "METAR UDYZ 171000Z VRB02KT 9999 FEW046 12/03 Q1014 NOSIG",
      "taf": "TAF UDYZ 170500Z 1706/1806 VRB04KT 6000 FEW040"
    },
    {
      "icao": "UGKO",
      "alert": "OK",
      "vis_m": 9999,
      "fzfg": false,
      "metar_trigger": false,
      "taf_trigger": false,
      "metar": "METAR UGKO 171000Z 20003KT 160V230 CAVOK 20/04 Q1005 NOSIG",
      "taf": "TAF UGKO 170500Z 1706/1806 08007KT CAVOK TX21/1711Z TN11/1803Z"
    }
  ]
}