{
  "ts_utc": "2026-01-16T11:57:53Z",
  "threshold_m": 150,
  "source": "stations_override.txt (ICAO list) + aviationweather.gov (METAR/TAF raw)",
  "station_count": 159,
  "stations": [
    {
      "icao": "BIKF",
      "alert": "OK",
      "vis_m": 9999,
      "fzfg": false,
      "metar_trigger": false,
      "taf_trigger": false,
      "metar": "METAR BIKF 161130Z 01011KT 9999 FEW015 SCT025 01/M01 Q1002",
      "taf": "TAF BIKF 161032Z 1612/1712 02015KT 9999 SCT020 BKN030 TX02/1612Z TNM03/1706Z"
    },
    {
      "icao": "BKPR",
      "alert": "OK",
      "vis_m": null,
      "fzfg": false,
      "metar_trigger": false,
      "taf_trigger": false,
      "metar": "",
      "taf": "TAF BKPR 161130Z 1612/1712 VRB05KT 8000 BKN060"
    },
    {
      "icao": "EBCI",
      "alert": "OK",
      "vis_m": 9999,
      "fzfg": false,
      "metar_trigger": false,
      "taf_trigger": false,
      "metar": "METAR EBCI 161150Z 21012KT 9999 SCT018 BKN025 09/06 Q1013 NOSIG",
      "taf": "TAF EBCI 161109Z 1612/1718 19007KT 9999 FEW020 SCT030"
    },
    {
      "icao": "EDDB",
      "alert": "OK",
      "vis_m": 9999,
      "fzfg": false,
      "metar_trigger": false,
      "taf_trigger": false,
      "metar": "METAR EDDB 161150Z AUTO 16009KT 130V190 CAVOK 08/05 Q1018 NOSIG",
      "taf": "TAF EDDB 161100Z 1612/1712 12007KT CAVOK"
    },
    {
      "icao": "EDDH",
      "alert": "OK",
      "vis_m": 9999,
      "fzfg": false,
      "metar_trigger": false,
      "taf_trigger": false,
      "metar": "METAR EDDH 161150Z AUTO 19007KT 160V230 CAVOK 11/06 Q1013 NOSIG",
      "taf": "TAF EDDH 161100Z 1612/1718 19009KT 9999 BKN030"
    },
    {
      "icao": "EDDK",
      "alert": "OK",
      "vis_m": 9999,
      "fzfg": false,
      "metar_trigger": false,
      "taf_trigger": false,
      "metar": "METAR EDDK 161150Z AUTO 16007KT 9999 -SHRA FEW026 FEW///TCU 12/07 Q1014 NOSIG",
      "taf": "TAF EDDK 161100Z 1612/1718 13007KT 9999 BKN040"
    },
    {
      "icao": "EDDN",
      "alert": "OK",
      "vis_m": 9999,
      "fzfg": false,
      "metar_trigger": false,
      "taf_trigger": false,
      "metar": "METAR EDDN 161150Z AUTO 12005KT 090V150 CAVOK 09/03 Q1018 NOSIG",
      "taf": "TAF EDDN 161100Z 1612/1712 12006KT CAVOK"
    },
    {
      "icao": "EDDS",
      "alert": "OK",
      "vis_m": 9999,
      "fzfg": false,
      "metar_trigger": false,
      "taf_trigger": false,
      "metar": "METAR EDDS 161150Z AUTO VRB02KT CAVOK 09/04 Q1016 NOSIG",
      "taf": "TAF EDDS 161100Z 1612/1712 VRB03KT CAVOK"
    },
    {
      "icao": "EDFH",
      "alert": "OK",
      "vis_m": 9999,
      "fzfg": false,
      "metar_trigger": false,
      "taf_trigger": false,
      "metar": "METAR EDFH 161150Z 20009KT 170V230 9999 SCT020 09/05 Q1014",
      "taf": "TAF EDFH 161100Z 1612/1712 16011KT 9999 SCT030"
    },
    {
      "icao": "EDJA",
      "alert": "OK",
      "vis_m": 9999,
      "fzfg": false,
      "metar_trigger": false,
      "taf_trigger": false,
      "metar": "METAR EDJA 161150Z VRB01KT CAVOK 10/02 Q1017",
      "taf": "TAF EDJA 161100Z 1612/1621 05005KT CAVOK"
    },
    {
      "icao": "EDLW",
      "alert": "OK",
      "vis_m": 9999,
      "fzfg": false,
      "metar_trigger": false,
      "taf_trigger": false,
      "metar": "METAR EDLW 161120Z 19010KT 9999 FEW023 SCT032 OVC040 11/06 Q1013",
      "taf": "TAF EDLW 161100Z 1612/1712 19008KT 9999 SCT040"
    },
    {
      "icao": "EDNY",
      "alert": "OK",
      "vis_m": 450,
      "fzfg": false,
      "metar_trigger": false,
      "taf_trigger": false,
      "metar": "METAR EDNY 161150Z 23004KT 0450 R24/1100N FG BKN001 BKN004 03/03 Q1018",
      "taf": "TAF EDNY 161100Z 1612/1621 VRB03KT 9999 FEW001"
    },
    {
      "icao": "EDSB",
      "alert": "OK",
      "vis_m": 9999,
      "fzfg": false,
      "metar_trigger": false,
      "taf_trigger": false,
      "metar": "METAR EDSB 161150Z VRB02KT CAVOK 10/05 Q1016",
      "taf": "TAF EDSB 161100Z 1612/1712 VRB03KT CAVOK"
    },
    {
      "icao": "EETN",
      "alert": "OK",
      "vis_m": 9999,
      "fzfg": false,
      "metar_trigger": false,
      "taf_trigger": false,
      "metar": "METAR EETN 161150Z 15008KT 120V180 9999 FEW011 OVC026 M06/M08 Q1030 TEMPO BKN008",
      "taf": "TAF EETN 161130Z 1612/1712 17012KT 9999 OVC025"
    },
    {
      "icao": "EFTU",
      "alert": "OK",
      "vis_m": 9999,
      "fzfg": false,
      "metar_trigger": false,
      "taf_trigger": false,
      "metar": "METAR EFTU 161150Z AUTO 18011KT 140V200 9999 OVC014 00/M02 Q1025",
      "taf": "TAF EFTU 161131Z 1612/1712 18010KT 9999 BKN016"
    },
    {
      "icao": "EGBB",
      "alert": "OK",
      "vis_m": 8000,
      "fzfg": false,
      "metar_trigger": false,
      "taf_trigger": false,
      "metar": "METAR EGBB 161150Z 15007KT 8000 BKN004 05/05 Q1006",
      "taf": "TAF EGBB 161057Z 1612/1712 14008KT 4000 BR BKN003"
    },
    {
      "icao": "EGGP",
      "alert": "OK",
      "vis_m": 9999,
      "fzfg": false,
      "metar_trigger": false,
      "taf_trigger": false,
      "metar": "METAR EGGP 161150Z 16007KT 120V190 9999 FEW014 06/05 Q1004",
      "taf": "TAF EGGP 161055Z 1612/1712 15009KT 9999 FEW025"
    },
    {
      "icao": "EGGW",
      "alert": "OK",
      "vis_m": 9999,
      "fzfg": false,
      "metar_trigger": false,
      "taf_trigger": false,
      "metar": "METAR EGGW 161150Z AUTO 20007KT 150V220 9999 BKN004 06/06 Q1007",
      "taf": "TAF EGGW 161056Z 1612/1712 20010KT 9999 SCT015"
    },
    {
      "icao": "EGKK",
      "alert": "OK",
      "vis_m": 9999,
      "fzfg": false,
      "metar_trigger": false,
      "taf_trigger": false,
      "metar": "METAR EGKK 161150Z 19004KT 160V230 9999 BKN031 09/07 Q1008",
      "taf": "TAF EGKK 161059Z 1612/1718 16008KT 9999 SCT045"
    },
    {
      "icao": "EGNM",
      "alert": "OK",
      "vis_m": 9000,
      "fzfg": false,
      "metar_trigger": false,
      "taf_trigger": false,
      "metar": "METAR EGNM 161150Z 15005KT 9000 FEW015 06/04 Q1004",
      "taf": "TAF EGNM 161124Z 1612/1712 15005KT 9999 SCT015"
    },
    {
      "icao": "EGPD",
      "alert": "OK",
      "vis_m": 9999,
      "fzfg": false,
      "metar_trigger": false,
      "taf_trigger": false,
      "metar": "METAR EGPD 161150Z COR VRB01KT 9999 FEW035 M01/M02 Q1003 NOSIG",
      "taf": "TAF EGPD 161100Z 1612/1712 VRB03KT 9999 FEW040"
    },
    {
      "icao": "EGPF",
      "alert": "OK",
      "vis_m": 9999,
      "fzfg": false,
      "metar_trigger": false,
      "taf_trigger": false,
      "metar": "METAR EGPF 161150Z 04006KT 340V080 9999 VCFG SCT020 BKN031 04/03 Q1002",
      "taf": "TAF EGPF 161101Z 1612/1712 07009KT 9999 SCT025"
    },
    {
      "icao": "EHBK",
      "alert": "OK",
      "vis_m": 9999,
      "fzfg": false,
      "metar_trigger": false,
      "taf_trigger": false,
      "metar": "METAR EHBK 161125Z AUTO 20006KT 9999 BKN018/// OVC021/// 10/09 Q1012 TEMPO 7000 -SHRA FEW020TCU",
      "taf": "TAF EHBK 161109Z 1612/1718 18008KT 9999 BKN020"
    },
    {
      "icao": "EHEH",
      "alert": "OK",
      "vis_m": 9999,
      "fzfg": false,
      "metar_trigger": false,
      "taf_trigger": false,
      "metar": "METAR EHEH 161125Z AUTO 19003KT 170V230 9999 BKN140 OVC270 11/07 Q1012 BLU NOSIG RMK TREND REMOTE BY EHWX",
      "taf": "TAF EHEH 160538Z 1606/1712 23016KT 9999 BKN030"
    },
    {
      "icao": "EKBI",
      "alert": "OK",
      "vis_m": 9999,
      "fzfg": false,
      "metar_trigger": false,
      "taf_trigger": false,
      "metar": "METAR EKBI 161150Z AUTO 21015G26KT 9999 OVC012/// 06/05 Q1010",
      "taf": "TAF EKBI 160827Z 1609/1709 17012KT 8000 BKN015"
    },
    {
      "icao": "EKCH",
      "alert": "OK",
      "vis_m": 9999,
      "fzfg": false,
      "metar_trigger": false,
      "taf_trigger": false,
      "metar": "METAR EKCH 161150Z AUTO 16013KT 9999 FEW035/// OVC075/// 05/03 Q1014 NOSIG",
      "taf": "TAF EKCH 161127Z 1612/1712 16015KT 9999 SCT020"
    },
    {
      "icao": "ENAL",
      "alert": "OK",
      "vis_m": 9999,
      "fzfg": false,
      "metar_trigger": false,
      "taf_trigger": false,
      "metar": "METAR ENAL 161150Z 13010KT 9999 FEW060 07/M01 Q1003",
      "taf": ""
    },
    {
      "icao": "ENBR",
      "alert": "OK",
      "vis_m": 7000,
      "fzfg": false,
      "metar_trigger": false,
      "taf_trigger": false,
      "metar": "METAR ENBR 161150Z VRB02KT 7000 -RA FEW002 BKN020 04/03 Q1001 TEMPO 4000 RA BKN012 RMK WIND 1200FT 11008KT",
      "taf": "TAF ENBR 161100Z 1612/1712 35005KT 9999 -RA SCT015 BKN030"
    },
    {
      "icao": "ENGM",
      "alert": "OK",
      "vis_m": 4300,
      "fzfg": false,
      "metar_trigger": false,
      "taf_trigger": false,
      "metar": "METAR ENGM 161150Z 07004KT 040V110 4300 -RA BR OVC003 01/00 Q1008 TEMPO RA BKN005",
      "taf": "TAF ENGM 161100Z 1612/1712 VRB05KT 8000 -RA SCT003 BKN008"
    },
    {
      "icao": "ENHD",
      "alert": "OK",
      "vis_m": 9999,
      "fzfg": false,
      "metar_trigger": false,
      "taf_trigger": false,
      "metar": "METAR ENHD 161150Z 07007KT 9999 -RA FEW019 BKN028 05/04 Q0999",
      "taf": "TAF ENHD 161100Z 1612/1621 09008KT 9999 -RA SCT015 BKN025"
    },
    {
      "icao": "ENTC",
      "alert": "OK",
      "vis_m": 9999,
      "fzfg": false,
      "metar_trigger": false,
      "taf_trigger": false,
      "metar": "METAR ENTC 161150Z 25008KT CAVOK M02/M06 Q1012 NOSIG RMK WIND 2600FT 20008KT",
      "taf": "TAF ENTC 161100Z 1612/1712 22012KT CAVOK"
    },
    {
      "icao": "ENTO",
      "alert": "OK",
      "vis_m": 3400,
      "fzfg": false,
      "metar_trigger": false,
      "taf_trigger": false,
      "metar": "METAR ENTO 161150Z 16016KT 3400 RA BR OVC003 04/04 Q1006 TEMPO 17016G26KT 1200 RA BR",
      "taf": "TAF ENTO 161100Z 1612/1712 17015KT 6000 -RA SCT003 BKN006"
    },
    {
      "icao": "ENVA",
      "alert": "OK",
      "vis_m": 9999,
      "fzfg": false,
      "metar_trigger": false,
      "taf_trigger": false,
      "metar": "METAR ENVA 161150Z 11008KT 080V140 9999 -RA BKN050 05/M01 Q1007 NOSIG RMK WIND 670FT 14013KT",
      "taf": "TAF ENVA 161100Z 1612/1712 12008KT CAVOK"
    },
    {
      "icao": "ENZV",
      "alert": "OK",
      "vis_m": 6000,
      "fzfg": false,
      "metar_trigger": false,
      "taf_trigger": false,
      "metar": "METAR ENZV 161150Z 11009KT 6000 -SHRA SCT006 SCT009 BKN014 06/04 Q0999 REDZRA TEMPO 4000 RA BR BKN008",
      "taf": "TAF ENZV 161100Z 1612/1712 12012KT 9999 -RA SCT010 BKN015"
    },
    {
      "icao": "EPGD",
      "alert": "OK",
      "vis_m": 500,
      "fzfg": true,
      "metar_trigger": false,
      "taf_trigger": false,
      "metar": "METAR EPGD 161130Z 16010KT 0500 R29/0650N FZFG OVC001 M02/M02 Q1023",
      "taf": "TAF EPGD 161130Z 1612/1712 16010KT 0600 FZFG OVC002"
    },
    {
      "icao": "EPKK",
      "alert": "OK",
      "vis_m": 9999,
      "fzfg": false,
      "metar_trigger": false,
      "taf_trigger": false,
      "metar": "METAR EPKK 161130Z 07009KT CAVOK 02/M01 Q1023",
      "taf": "TAF EPKK 161130Z 1612/1712 07010KT CAVOK"
    },
    {
      "icao": "EPKT",
      "alert": "OK",
      "vis_m": 9999,
      "fzfg": false,
      "metar_trigger": false,
      "taf_trigger": false,
      "metar": "METAR EPKT 161130Z 28001KT CAVOK 05/01 Q1022",
      "taf": "TAF EPKT 161130Z 1612/1712 13005KT CAVOK"
    },
    {
      "icao": "EPLB",
      "alert": "OK",
      "vis_m": 7000,
      "fzfg": false,
      "metar_trigger": false,
      "taf_trigger": false,
      "metar": "METAR EPLB 161130Z 10011KT 7000 NSC M06/M08 Q1028",
      "taf": "TAF EPLB 161130Z 1612/1712 11008KT 7000 NSC"
    },
    {
      "icao": "EPMO",
      "alert": "OK",
      "vis_m": 4400,
      "fzfg": false,
      "metar_trigger": false,
      "taf_trigger": false,
      "metar": "METAR EPMO 161130Z 12008KT 090V160 4400 BR BKN010 M03/M03 Q1026",
      "taf": "TAF EPMO 161130Z 1612/1712 11010KT 3000 BR BKN010"
    },
    {
      "icao": "EPPO",
      "alert": "OK",
      "vis_m": 7000,
      "fzfg": false,
      "metar_trigger": false,
      "taf_trigger": false,
      "metar": "METAR EPPO 161130Z 13010KT 7000 NSC 04/02 Q1021",
      "taf": "TAF EPPO 161130Z 1612/1712 13008KT CAVOK"
    },
    {
      "icao": "EPRA",
      "alert": "OK",
      "vis_m": 6000,
      "fzfg": false,
      "metar_trigger": false,
      "taf_trigger": false,
      "metar": "METAR EPRA 161130Z 11009KT 6000 OVC007 M03/M04 Q1026",
      "taf": "TAF EPRA 161130Z 1612/1621 12010KT 8000 OVC006"
    },
    {
      "icao": "EPRZ",
      "alert": "OK",
      "vis_m": 3000,
      "fzfg": false,
      "metar_trigger": false,
      "taf_trigger": false,
      "metar": "METAR EPRZ 161130Z 09013KT 3000 BR OVC003 M03/M04 Q1026",
      "taf": "TAF EPRZ 161130Z 1612/1712 08013KT 3000 BR OVC003"
    },
    {
      "icao": "EPSC",
      "alert": "OK",
      "vis_m": 4100,
      "fzfg": false,
      "metar_trigger": false,
      "taf_trigger": false,
      "metar": "METAR EPSC 161130Z 15013KT 4100 BR OVC003 03/02 Q1019",
      "taf": "TAF EPSC 161130Z 1612/1712 14014KT 3500 BR OVC002"
    },
    {
      "icao": "EPSY",
      "alert": "OK",
      "vis_m": 6000,
      "fzfg": false,
      "metar_trigger": false,
      "taf_trigger": false,
      "metar": "METAR EPSY 161130Z 14006KT 080V190 6000 BKN009 M04/M06 Q1027",
      "taf": "TAF EPSY 161130Z 1612/1621 14008KT 7000 BKN010"
    },
    {
      "icao": "EPWA",
      "alert": "OK",
      "vis_m": 8000,
      "fzfg": false,
      "metar_trigger": false,
      "taf_trigger": false,
      "metar": "METAR EPWA 161130Z 12013KT 8000 BKN011 M03/M05 Q1026 TEMPO SCT010 BKN020",
      "taf": "TAF EPWA 161130Z 1612/1712 12010KT 7000 SCT010 BKN024"
    },
    {
      "icao": "EPWR",
      "alert": "OK",
      "vis_m": 9999,
      "fzfg": false,
      "metar_trigger": false,
      "taf_trigger": false,
      "metar": "METAR EPWR 161130Z 12012KT CAVOK 04/02 Q1021",
      "taf": "TAF EPWR 161130Z 1612/1712 13006KT CAVOK"
    },
    {
      "icao": "ESGG",
      "alert": "OK",
      "vis_m": 8000,
      "fzfg": false,
      "metar_trigger": false,
      "taf_trigger": false,
      "metar": "METAR ESGG 161150Z 16012KT 8000 BKN008 04/04 Q1011",
      "taf": "TAF ESGG 161130Z 1612/1712 16010KT 9000 BKN002"
    },
    {
      "icao": "ESKN",
      "alert": "OK",
      "vis_m": 2100,
      "fzfg": false,
      "metar_trigger": false,
      "taf_trigger": false,
      "metar": "METAR ESKN 161150Z 15015G27KT 2100 BR OVC003 03/03 Q1018",
      "taf": "TAF ESKN 161130Z 1612/1712 17015G25KT 5000 OVC003"
    },
    {
      "icao": "ESMS",
      "alert": "OK",
      "vis_m": 2600,
      "fzfg": false,
      "metar_trigger": false,
      "taf_trigger": false,
      "metar": "METAR ESMS 161150Z 15011KT 2600 BR OVC003 03/03 Q1015",
      "taf": "TAF ESMS 161127Z 1612/1712 15010KT 2000 BR BKN003"
    },
    {
      "icao": "ESSA",
      "alert": "OK",
      "vis_m": 9999,
      "fzfg": false,
      "metar_trigger": false,
      "taf_trigger": false,
      "metar": "METAR ESSA 161150Z 16013KT 9999 OVC007 02/01 Q1018 NOSIG",
      "taf": "TAF ESSA 161130Z 1612/1712 17015KT 9999 OVC004"
    },
    {
      "icao": "EYKA",
      "alert": "OK",
      "vis_m": 9000,
      "fzfg": false,
      "metar_trigger": false,
      "taf_trigger": false,
      "metar": "METAR EYKA 161150Z 17006KT 110V250 9000 NSC M12/M16 Q1033",
      "taf": "TAF EYKA 161100Z 1612/1712 VRB04KT 7000 NSC"
    },
    {
      "icao": "EYPA",
      "alert": "OK",
      "vis_m": 9999,
      "fzfg": false,
      "metar_trigger": false,
      "taf_trigger": false,
      "metar": "METAR EYPA 161150Z 14013KT CAVOK M04/M07 Q1027",
      "taf": "TAF EYPA 161100Z 1612/1712 14012KT 6000 SCT010 BKN015"
    },
    {
      "icao": "EYVI",
      "alert": "OK",
      "vis_m": 9999,
      "fzfg": false,
      "metar_trigger": false,
      "taf_trigger": false,
      "metar": "METAR EYVI 161150Z 16007KT CAVOK M13/M17 Q1032 NOSIG",
      "taf": "TAF EYVI 161101Z 1612/1712 16010KT 7000 NSC"
    },
    {
      "icao": "GCFV",
      "alert": "OK",
      "vis_m": 9999,
      "fzfg": false,
      "metar_trigger": false,
      "taf_trigger": false,
      "metar": "METAR GCFV 161130Z 32008KT 290V350 9999 BKN035 19/09 Q1025",
      "taf": "TAF GCFV 160800Z 1609/1709 03007KT 9999 SCT035 TX22/1614Z TN14/1706Z"
    },
    {
      "icao": "GCLP",
      "alert": "OK",
      "vis_m": 9999,
      "fzfg": false,
      "metar_trigger": false,
      "taf_trigger": false,
      "metar": "METAR GCLP 161130Z 01014KT 9999 SCT035 20/12 Q1025 NOSIG",
      "taf": "TAF GCLP 160800Z 1609/1709 01019KT 9999 SCT035 TX22/1614Z TN15/1706Z"
    },
    {
      "icao": "GCTS",
      "alert": "OK",
      "vis_m": 9999,
      "fzfg": false,
      "metar_trigger": false,
      "taf_trigger": false,
      "metar": "METAR GCTS 161130Z 00000KT 9999 BKN035 19/10 Q1026 NOSIG",
      "taf": "TAF GCTS 160800Z 1609/1709 27010KT 9999 SCT035 TX22/1614Z TN14/1706Z"
    },
    {
      "icao": "GMAD",
      "alert": "OK",
      "vis_m": 9999,
      "fzfg": false,
      "metar_trigger": false,
      "taf_trigger": false,
      "metar": "METAR GMAD 161130Z 00000KT CAVOK 17/13 Q1023 NOSIG",
      "taf": "TAF GMAD 161100Z 1612/1718 09003KT CAVOK"
    },
    {
      "icao": "GMMN",
      "alert": "OK",
      "vis_m": 4000,
      "fzfg": false,
      "metar_trigger": false,
      "taf_trigger": false,
      "metar": "SPECI GMMN 161136Z 22016KT 180V240 4000 RA SCT006 BKN020 13/10 Q1020 NOSIG",
      "taf": "TAF GMMN 161100Z 1612/1718 210015KT 8000 SCT010 BKN020"
    },
    {
      "icao": "GMMX",
      "alert": "OK",
      "vis_m": 8000,
      "fzfg": false,
      "metar_trigger": false,
      "taf_trigger": false,
      "metar": "METAR GMMX 161130Z 24005KT 200V290 8000 NSC 15/10 Q1022 NOSIG",
      "taf": "TAF GMMX 161100Z 1612/1712 06006KT 8000 SCT026"
    },
    {
      "icao": "HEGN",
      "alert": "OK",
      "vis_m": 9999,
      "fzfg": false,
      "metar_trigger": false,
      "taf_trigger": false,
      "metar": "METAR HEGN 161100Z 01005KT CAVOK 21/08 Q1019 NOSIG",
      "taf": "TAF HEGN 161100Z 1612/1718 01012KT CAVOK"
    },
    {
      "icao": "HEMA",
      "alert": "OK",
      "vis_m": 9999,
      "fzfg": false,
      "metar_trigger": false,
      "taf_trigger": false,
      "metar": "METAR HEMA 161100Z 32016KT 9999 SCT020 SCT025 22/12 Q1019 NOSIG",
      "taf": "TAF HEMA 161100Z 1612/1718 36015KT 9999 FEW025"
    },
    {
      "icao": "HESH",
      "alert": "OK",
      "vis_m": 9999,
      "fzfg": false,
      "metar_trigger": false,
      "taf_trigger": false,
      "metar": "METAR HESH 161100Z 02013KT CAVOK 19/05 Q1020 NOSIG",
      "taf": "TAF HESH 161100Z 1612/1718 03010KT CAVOK"
    },
    {
      "icao": "HESX",
      "alert": "OK",
      "vis_m": 9999,
      "fzfg": false,
      "metar_trigger": false,
      "taf_trigger": false,
      "metar": "METAR HESX 161100Z 06007KT CAVOK 18/08 Q1022 NOSIG",
      "taf": "TAF HESX 161100Z 1612/1718 01006KT 9999 SCT025"
    },
    {
      "icao": "LATI",
      "alert": "OK",
      "vis_m": 9999,
      "fzfg": false,
      "metar_trigger": false,
      "taf_trigger": false,
      "metar": "METAR LATI 161150Z 01003KT 340V070 9999 BKN080 15/06 Q1022 NOSIG",
      "taf": "TAF LATI 161100Z 1612/1712 VRB05KT 9999 FEW050 BKN080 TX16/1612Z TN05/1705Z"
    },
    {
      "icao": "LBPD",
      "alert": "OK",
      "vis_m": 9999,
      "fzfg": false,
      "metar_trigger": false,
      "taf_trigger": false,
      "metar": "METAR LBPD 161130Z AUTO 12012KT 9999 OVC006/// 06/06 Q1024 NOSIG",
      "taf": "TAF LBPD 161100Z 1612/1712 10010KT 9999 BKN070"
    },
    {
      "icao": "LBSF",
      "alert": "OK",
      "vis_m": 9999,
      "fzfg": false,
      "metar_trigger": false,
      "taf_trigger": false,
      "metar": "METAR LBSF 161130Z VRB02KT 9999 SCT067 BKN089 08/02 Q1023 NOSIG",
      "taf": "TAF LBSF 161100Z 1612/1712 10010KT 9999 BKN060"
    },
    {
      "icao": "LBWN",
      "alert": "OK",
      "vis_m": 9999,
      "fzfg": false,
      "metar_trigger": false,
      "taf_trigger": false,
      "metar": "METAR LBWN 161130Z 04012KT 010V080 9999 -SN FEW020 BKN045 M01/M05 Q1028 NOSIG",
      "taf": "TAF LBWN 161100Z 1612/1712 02010KT 9999 SCT020 OVC040"
    },
    {
      "icao": "LCLK",
      "alert": "OK",
      "vis_m": 9999,
      "fzfg": false,
      "metar_trigger": false,
      "taf_trigger": false,
      "metar": "METAR LCLK 161130Z 15005KT 120V200 9999 FEW030 18/08 Q1021 NOSIG",
      "taf": "TAF LCLK 161130Z 1612/1712 18010KT 9999 FEW025"
    },
    {
      "icao": "LCPH",
      "alert": "OK",
      "vis_m": 9999,
      "fzfg": false,
      "metar_trigger": false,
      "taf_trigger": false,
      "metar": "METAR LCPH 161130Z 24005KT 170V260 9999 FEW025 18/10 Q1021 NOSIG",
      "taf": "TAF LCPH 161130Z 1612/1712 21010KT 9999 FEW025"
    },
    {
      "icao": "LEAL",
      "alert": "OK",
      "vis_m": 9999,
      "fzfg": false,
      "metar_trigger": false,
      "taf_trigger": false,
      "metar": "METAR LEAL 161130Z VRB02KT 9999 FEW015 17/10 Q1015 NOSIG",
      "taf": "TAF LEAL 161100Z 1612/1712 VRB04KT 9999 FEW020 TX16/1613Z TN07/1706Z"
    },
    {
      "icao": "LEBB",
      "alert": "OK",
      "vis_m": 9999,
      "fzfg": false,
      "metar_trigger": false,
      "taf_trigger": false,
      "metar": "METAR LEBB 161130Z 18005KT 110V250 CAVOK 14/05 Q1011 NOSIG",
      "taf": "TAF LEBB 161100Z 1612/1712 12006KT 9999 FEW045 TX14/1613Z TN06/1707Z"
    },
    {
      "icao": "LEBL",
      "alert": "OK",
      "vis_m": 9999,
      "fzfg": false,
      "metar_trigger": false,
      "taf_trigger": false,
      "metar": "METAR LEBL 161130Z 32007KT 9999 FEW020 SCT060 12/06 Q1015 NOSIG",
      "taf": "TAF LEBL 161100Z 1612/1712 VRB04KT 9999 FEW015 SCT050 TX12/1612Z TN09/1706Z"
    },
    {
      "icao": "LECH",
      "alert": "OK",
      "vis_m": 9000,
      "fzfg": false,
      "metar_trigger": false,
      "taf_trigger": false,
      "metar": "METAR LECH 161130Z AUTO 12004KT 050V170 9000 BKN065 11/05 Q1014",
      "taf": ""
    },
    {
      "icao": "LEMD",
      "alert": "OK",
      "vis_m": 9999,
      "fzfg": false,
      "metar_trigger": false,
      "taf_trigger": false,
      "metar": "METAR LEMD 161130Z 21007KT 180V280 9999 SCT010 BKN012 09/07 Q1012 NOSIG",
      "taf": "TAF LEMD 161100Z 1612/1718 VRB04KT 9999 SCT025 TX11/1614Z TN02/1708Z"
    },
    {
      "icao": "LEMG",
      "alert": "OK",
      "vis_m": 9999,
      "fzfg": false,
      "metar_trigger": false,
      "taf_trigger": false,
      "metar": "METAR LEMG 161130Z 30003KT 9999 SCT018 SCT060 13/12 Q1016 NOSIG",
      "taf": "TAF LEMG 161100Z 1612/1712 31006KT 9999 FEW030 SCT050 TX17/1614Z TN07/1707Z"
    },
    {
      "icao": "LEVC",
      "alert": "OK",
      "vis_m": 9999,
      "fzfg": false,
      "metar_trigger": false,
      "taf_trigger": false,
      "metar": "METAR LEVC 161130Z 13004KT 080V160 9999 FEW030 BKN045 14/08 Q1014 NOSIG",
      "taf": "TAF LEVC 161100Z 1612/1712 VRB04KT 9999 FEW030 TX15/1612Z TN04/1706Z"
    },
    {
      "icao": "LEXJ",
      "alert": "OK",
      "vis_m": 9999,
      "fzfg": false,
      "metar_trigger": false,
      "taf_trigger": false,
      "metar": "METAR LEXJ 161130Z 20002KT CAVOK 13/05 Q1010",
      "taf": "TAF LEXJ 160800Z 1609/1709 20009KT 9999 FEW045 TX15/1614Z TN06/1704Z"
    },
    {
      "icao": "LEZG",
      "alert": "OK",
      "vis_m": 6000,
      "fzfg": false,
      "metar_trigger": false,
      "taf_trigger": false,
      "metar": "METAR LEZG 161130Z 10008KT 6000 BKN040 BKN060 09/07 Q1013 NOSIG",
      "taf": "TAF LEZG 161100Z 1612/1712 09005KT 9999 FEW060 TX10/1614Z TN04/1706Z"
    },
    {
      "icao": "LEZL",
      "alert": "OK",
      "vis_m": 9999,
      "fzfg": false,
      "metar_trigger": false,
      "taf_trigger": false,
      "metar": "METAR LEZL 161130Z 29006KT 260V330 9999 FEW018 15/10 Q1016 NOSIG",
      "taf": ""
    },
    {
      "icao": "LFBD",
      "alert": "OK",
      "vis_m": 7000,
      "fzfg": false,
      "metar_trigger": false,
      "taf_trigger": false,
      "metar": "METAR LFBD 161130Z AUTO 14007KT 7000 -RA BKN033/// BKN039/// BKN045/// ///TCU 09/08 Q1012 TEMPO BKN014",
      "taf": "TAF LFBD 161100Z 1612/1718 14006KT 9999 BKN030 TX11/1615Z TN05/1704Z"
    },
    {
      "icao": "LFLL",
      "alert": "OK",
      "vis_m": 9999,
      "fzfg": false,
      "metar_trigger": false,
      "taf_trigger": false,
      "metar": "METAR LFLL 161100Z 12007KT CAVOK 13/05 Q1015 NOSIG",
      "taf": "TAF LFLL 161100Z 1612/1718 14006KT CAVOK"
    },
    {
      "icao": "LFLS",
      "alert": "OK",
      "vis_m": 9999,
      "fzfg": false,
      "metar_trigger": false,
      "taf_trigger": false,
      "metar": "METAR LFLS 161130Z AUTO VRB04KT CAVOK 13/04 Q1014 NOSIG",
      "taf": "TAF LFLS 160800Z 1609/1709 VRB03KT CAVOK"
    },
    {
      "icao": "LFMN",
      "alert": "OK",
      "vis_m": 9999,
      "fzfg": false,
      "metar_trigger": false,
      "taf_trigger": false,
      "metar": "METAR LFMN 161130Z 32011KT 9999 FEW033 OVC093 12/04 Q1018 NOSIG",
      "taf": "TAF LFMN 160800Z 1609/1715 33010KT 9999 FEW025 BKN100"
    },
    {
      "icao": "LFOB",
      "alert": "OK",
      "vis_m": 9999,
      "fzfg": false,
      "metar_trigger": false,
      "taf_trigger": false,
      "metar": "METAR LFOB 161130Z AUTO 20010KT 170V230 9999 OVC020 10/06 Q1012 BECMG BKN013 OVC018",
      "taf": "TAF LFOB 161100Z 1612/1712 VRB03KT 9999 BKN020"
    },
    {
      "icao": "LFPO",
      "alert": "OK",
      "vis_m": 9999,
      "fzfg": false,
      "metar_trigger": false,
      "taf_trigger": false,
      "metar": "METAR LFPO 161130Z AUTO 20009KT 150V230 9999 BKN018 BKN027 11/07 Q1012",
      "taf": "TAF LFPO 160500Z 1606/1712 21010KT 9999 SCT012 BKN020"
    },
    {
      "icao": "LFSB",
      "alert": "OK",
      "vis_m": 9999,
      "fzfg": false,
      "metar_trigger": false,
      "taf_trigger": false,
      "metar": "METAR LFSB 161130Z AUTO 15007KT CAVOK 09/04 Q1016 NOSIG",
      "taf": "TAF LFSB 161100Z 1612/1712 15008KT CAVOK"
    },
    {
      "icao": "LGAV",
      "alert": "OK",
      "vis_m": 9999,
      "fzfg": false,
      "metar_trigger": false,
      "taf_trigger": false,
      "metar": "METAR LGAV 161150Z 10006KT 9999 FEW025 BKN040 14/07 Q1022 NOSIG",
      "taf": "TAF LGAV 161100Z 1612/1712 VRB03KT 9999 FEW030"
    },
    {
      "icao": "LGTS",
      "alert": "OK",
      "vis_m": 9999,
      "fzfg": false,
      "metar_trigger": false,
      "taf_trigger": false,
      "metar": "METAR LGTS 161150Z VRB03KT 9999 FEW020 12/04 Q1022 NOSIG",
      "taf": "TAF LGTS 161100Z 1612/1712 VRB03KT 9999 FEW030"
    },
    {
      "icao": "LHBP",
      "alert": "OK",
      "vis_m": 800,
      "fzfg": false,
      "metar_trigger": false,
      "taf_trigger": false,
      "metar": "METAR LHBP 161130Z 07006KT 0800 R13R/1200U R13L/0900D PRFG OVC002 01/01 Q1024 NOSIG",
      "taf": "TAF LHBP 161115Z 1612/1712 08005KT 3000 BR SCT004 OVC010"
    },
    {
      "icao": "LHDC",
      "alert": "OK",
      "vis_m": 7000,
      "fzfg": false,
      "metar_trigger": false,
      "taf_trigger": false,
      "metar": "METAR LHDC 161115Z AUTO 06006KT 7000 -SHRA NSC 03/01 Q1024 NOSIG",
      "taf": "TAF LHDC 161115Z 1612/1621 06006KT 6000 OVC025"
    },
    {
      "icao": "LIBD",
      "alert": "OK",
      "vis_m": 9999,
      "fzfg": false,
      "metar_trigger": false,
      "taf_trigger": false,
      "metar": "METAR LIBD 161150Z 35006KT 320V020 CAVOK 12/08 Q1021",
      "taf": "TAF LIBD 161100Z 1612/1712 VRB05KT 9999 FEW030"
    },
    {
      "icao": "LIBG",
      "alert": "OK",
      "vis_m": 9999,
      "fzfg": false,
      "metar_trigger": false,
      "taf_trigger": false,
      "metar": "METAR LIBG 161050Z VRB01KT CAVOK 15/15 Q1021",
      "taf": "TAF LIBG 161100Z 1612/1621 VRB05KT 8000 FEW025"
    },
    {
      "icao": "LIBP",
      "alert": "OK",
      "vis_m": 9999,
      "fzfg": false,
      "metar_trigger": false,
      "taf_trigger": false,
      "metar": "METAR LIBP 161150Z AUTO 04006KT 010V070 9999 FEW190/// 14/06 Q1021",
      "taf": "TAF LIBP 161100Z 1612/1712 VRB05KT CAVOK"
    },
    {
      "icao": "LIBR",
      "alert": "OK",
      "vis_m": 9999,
      "fzfg": false,
      "metar_trigger": false,
      "taf_trigger": false,
      "metar": "METAR LIBR 161150Z 02005KT CAVOK 13/10 Q1021",
      "taf": "TAF LIBR 161100Z 1612/1712 VRB05KT 9999 FEW025"
    },
    {
      "icao": "LICA",
      "alert": "OK",
      "vis_m": 9999,
      "fzfg": false,
      "metar_trigger": false,
      "taf_trigger": false,
      "metar": "METAR LICA 161150Z AUTO 07016KT 9999 SCT024/// 17/12 Q1018",
      "taf": "TAF LICA 161100Z 1612/1712 08012KT CAVOK"
    },
    {
      "icao": "LICC",
      "alert": "OK",
      "vis_m": 9999,
      "fzfg": false,
      "metar_trigger": false,
      "taf_trigger": false,
      "metar": "METAR LICC 161150Z 24004KT 9999 BKN030 14/11 Q1019",
      "taf": "TAF LICC 161100Z 1612/1712 VRB05KT 9999 SCT020"
    },
    {
      "icao": "LICJ",
      "alert": "OK",
      "vis_m": 9999,
      "fzfg": false,
      "metar_trigger": false,
      "taf_trigger": false,
      "metar": "METAR LICJ 161150Z 22012KT CAVOK 14/10 Q1016",
      "taf": "TAF LICJ 161100Z 1612/1712 VRB06KT CAVOK"
    },
    {
      "icao": "LIMC",
      "alert": "OK",
      "vis_m": 3000,
      "fzfg": false,
      "metar_trigger": false,
      "taf_trigger": false,
      "metar": "METAR LIMC 161150Z 27003KT 3000 BR OVC003 07/06 Q1021 NOSIG",
      "taf": "TAF LIMC 161100Z 1612/1718 VRB05KT 2000 -RA BR BKN003"
    },
    {
      "icao": "LIME",
      "alert": "OK",
      "vis_m": 3000,
      "fzfg": false,
      "metar_trigger": false,
      "taf_trigger": false,
      "metar": "METAR LIME 161150Z 19006KT 150V220 3000 BR SCT010 08/06 Q1021 NOSIG",
      "taf": "TAF LIME 161100Z 1612/1712 VRB03KT 4000 BR SCT030"
    },
    {
      "icao": "LIMF",
      "alert": "OK",
      "vis_m": 6000,
      "fzfg": false,
      "metar_trigger": false,
      "taf_trigger": false,
      "metar": "METAR LIMF 161150Z VRB02KT 6000 BKN120 09/03 Q1021",
      "taf": "TAF LIMF 161100Z 1612/1712 VRB03KT 6000 SCT020 BKN060"
    },
    {
      "icao": "LIMJ",
      "alert": "OK",
      "vis_m": 9999,
      "fzfg": false,
      "metar_trigger": false,
      "taf_trigger": false,
      "metar": "METAR LIMJ 161150Z 04015KT 9999 VCSH SCT020 BKN030 10/07 Q1020",
      "taf": "TAF LIMJ 161100Z 1612/1712 04014KT 9999 BKN030"
    },
    {
      "icao": "LIPE",
      "alert": "OK",
      "vis_m": 2000,
      "fzfg": false,
      "metar_trigger": false,
      "taf_trigger": false,
      "metar": "METAR LIPE 161150Z 26003KT 220V300 2000 BR BKN006 08/06 Q1022",
      "taf": "TAF LIPE 161100Z 1612/1712 VRB04KT 2000 BR BKN020"
    },
    {
      "icao": "LIPH",
      "alert": "OK",
      "vis_m": 9999,
      "fzfg": false,
      "metar_trigger": false,
      "taf_trigger": false,
      "metar": "METAR LIPH 161150Z VRB02KT CAVOK 11/04 Q1022",
      "taf": "TAF LIPH 161100Z 1612/1712 VRB04KT 7000 SCT040"
    },
    {
      "icao": "LIPQ",
      "alert": "OK",
      "vis_m": 4700,
      "fzfg": false,
      "metar_trigger": false,
      "taf_trigger": false,
      "metar": "METAR LIPQ 161150Z AUTO 17002KT 4700 BR OVC012/// 10/09 Q1022",
      "taf": "TAF LIPQ 161100Z 1612/1712 VRB04KT 8000 BKN020"
    },
    {
      "icao": "LIPR",
      "alert": "OK",
      "vis_m": 2500,
      "fzfg": false,
      "metar_trigger": false,
      "taf_trigger": false,
      "metar": "METAR LIPR 161150Z VRB01KT 2500 BR BKN005 07/06 Q1022",
      "taf": "TAF LIPR 161100Z 1612/1712 VRB04KT 2000 BR BKN020"
    },
    {
      "icao": "LIPX",
      "alert": "OK",
      "vis_m": 4500,
      "fzfg": false,
      "metar_trigger": false,
      "taf_trigger": false,
      "metar": "METAR LIPX 161150Z VRB02KT 4500 BR BKN070 08/06 Q1022",
      "taf": "TAF LIPX 161100Z 1612/1712 VRB04KT 3000 BR SCT040"
    },
    {
      "icao": "LIPY",
      "alert": "OK",
      "vis_m": 1900,
      "fzfg": false,
      "metar_trigger": false,
      "taf_trigger": false,
      "metar": "METAR LIPY 161150Z AUTO VRB01KT 1900 R22/1300N BR OVC002/// 08/08 Q1022",
      "taf": "TAF LIPY 161100Z 1612/1712 VRB05KT 0200 FG OVC002"
    },
    {
      "icao": "LIPZ",
      "alert": "OK",
      "vis_m": 6000,
      "fzfg": false,
      "metar_trigger": false,
      "taf_trigger": false,
      "metar": "METAR LIPZ 161150Z VRB02KT 6000 SCT016 BKN040 08/04 Q1022 NOSIG",
      "taf": "TAF LIPZ 161100Z 1612/1718 VRB04KT 6000 SCT030"
    },
    {
      "icao": "LIRF",
      "alert": "OK",
      "vis_m": 9999,
      "fzfg": false,
      "metar_trigger": false,
      "taf_trigger": false,
      "metar": "METAR LIRF 161150Z 05006KT CAVOK 14/07 Q1019 NOSIG",
      "taf": "TAF LIRF 161100Z 1612/1718 06007KT CAVOK"
    },
    {
      "icao": "LIRN",
      "alert": "OK",
      "vis_m": 9999,
      "fzfg": false,
      "metar_trigger": false,
      "taf_trigger": false,
      "metar": "METAR LIRN 161150Z 34003KT 300V060 CAVOK 15/05 Q1019 NOSIG",
      "taf": "TAF LIRN 161100Z 1612/1712 VRB05KT CAVOK"
    },
    {
      "icao": "LIRP",
      "alert": "OK",
      "vis_m": 9999,
      "fzfg": false,
      "metar_trigger": false,
      "taf_trigger": false,
      "metar": "METAR LIRP 161145Z 12010KT CAVOK 14/10 Q1019 NOSIG",
      "taf": "TAF LIRP 161100Z 1612/1712 12010KT 9999 BKN030"
    },
    {
      "icao": "LIRZ",
      "alert": "OK",
      "vis_m": 9999,
      "fzfg": false,
      "metar_trigger": false,
      "taf_trigger": false,
      "metar": "METAR LIRZ 161150Z AUTO 24004KT 9999 FEW004/// 09/08 Q1020",
      "taf": "TAF LIRZ 161100Z 1612/1712 VRB04KT CAVOK"
    },
    {
      "icao": "LJLJ",
      "alert": "OK",
      "vis_m": 9999,
      "fzfg": false,
      "metar_trigger": false,
      "taf_trigger": false,
      "metar": "METAR LJLJ 161130Z 36001KT 9999 FEW040 BKN050 05/03 Q1021 NOSIG",
      "taf": "TAF LJLJ 161100Z 1612/1712 30004KT 9999 FEW040 BKN050"
    },
    {
      "icao": "LKMT",
      "alert": "OK",
      "vis_m": 8000,
      "fzfg": false,
      "metar_trigger": false,
      "taf_trigger": false,
      "metar": "METAR LKMT 161130Z 21006KT 8000 OVC015 04/02 Q1023 NOSIG",
      "taf": "TAF LKMT 161100Z 1612/1712 22006KT 5000 BR SCT010 OVC015"
    },
    {
      "icao": "LKPR",
      "alert": "OK",
      "vis_m": 6000,
      "fzfg": false,
      "metar_trigger": false,
      "taf_trigger": false,
      "metar": "METAR LKPR 161130Z 10006KT 060V130 6000 BKN005 OVC007 M00/M00 Q1021 NOSIG",
      "taf": "TAF LKPR 161100Z 1612/1718 11005KT 4000 BR BKN004"
    },
    {
      "icao": "LLBG",
      "alert": "OK",
      "vis_m": 9999,
      "fzfg": false,
      "metar_trigger": false,
      "taf_trigger": false,
      "metar": "METAR LLBG 161150Z VRB03KT 9999 SCT045 18/08 Q1020 NOSIG",
      "taf": "TAF LLBG 161107Z 1612/1712 32008KT 9999 FEW045"
    },
    {
      "icao": "LMML",
      "alert": "OK",
      "vis_m": 9999,
      "fzfg": false,
      "metar_trigger": false,
      "taf_trigger": false,
      "metar": "METAR LMML 161145Z 15008KT 130V200 9999 -RA FEW012 16/14 Q1017 TEMPO 8000 RA",
      "taf": "TAF LMML 161100Z 1612/1712 13012KT 9999 FEW015 BEMG 1612/1615 VRB07KT"
    },
    {
      "icao": "LOWW",
      "alert": "OK",
      "vis_m": 700,
      "fzfg": true,
      "metar_trigger": false,
      "taf_trigger": false,
      "metar": "METAR LOWW 161150Z 12006KT 0700 R16/0700N R29/0900N FZFG FEW000 SCT001 OVC002 M00/M01 Q1023 TEMPO OVC003",
      "taf": "TAF LOWW 161115Z 1612/1718 14008KT 0500 FG OVC002 TX02/1710Z TNM00/1612Z"
    },
    {
      "icao": "LPFR",
      "alert": "OK",
      "vis_m": 9999,
      "fzfg": false,
      "metar_trigger": false,
      "taf_trigger": false,
      "metar": "METAR LPFR 161130Z 25005KT 220V290 9999 FEW020 14/11 Q1017",
      "taf": "TAF LPFR 161100Z 1612/1712 28010KT 9999 SCT035"
    },
    {
      "icao": "LPMA",
      "alert": "OK",
      "vis_m": 9999,
      "fzfg": false,
      "metar_trigger": false,
      "taf_trigger": false,
      "metar": "METAR LPMA 161130Z 02012KT 330V100 9999 SCT015 17/10 Q1026",
      "taf": "TAF LPMA 161100Z 1612/1712 34015KT 9999 SCT015"
    },
    {
      "icao": "LPPR",
      "alert": "OK",
      "vis_m": 6000,
      "fzfg": false,
      "metar_trigger": false,
      "taf_trigger": false,
      "metar": "METAR LPPR 161130Z 06003KT 010V150 6000 -SHRA FEW018CB SCT025 BKN040 09/08 Q1013",
      "taf": "TAF LPPR 161100Z 1612/1712 32010KT 9999 FEW018TCU SCT035"
    },
    {
      "icao": "LPPS",
      "alert": "OK",
      "vis_m": 9999,
      "fzfg": false,
      "metar_trigger": false,
      "taf_trigger": false,
      "metar": "METAR LPPS 161130Z 33014KT 9999 FEW013 16/12 Q1026",
      "taf": "TAF LPPS 161100Z 1612/1718 33015KT 9999 SCT014 SCT030"
    },
    {
      "icao": "LPPT",
      "alert": "OK",
      "vis_m": 9999,
      "fzfg": false,
      "metar_trigger": false,
      "taf_trigger": false,
      "metar": "METAR LPPT 161130Z 32005KT 290V350 9999 -SHRA VCTS FEW008 FEW020CB SCT030 09/08 Q1015 RESHRA",
      "taf": "TAF LPPT 161100Z 1612/1718 30010KT 9999 FEW018 SCT035"
    },
    {
      "icao": "LQBK",
      "alert": "OK",
      "vis_m": 7000,
      "fzfg": false,
      "metar_trigger": false,
      "taf_trigger": false,
      "metar": "METAR LQBK 161130Z 35005KT 7000 NSC 06/03 Q1022 NOSIG",
      "taf": "TAF LQBK 161100Z 1612/1712 04005KT CAVOK TX10/1614Z TNM00/1706Z"
    },
    {
      "icao": "LQSA",
      "alert": "OK",
      "vis_m": 4000,
      "fzfg": false,
      "metar_trigger": false,
      "taf_trigger": false,
      "metar": "METAR LQSA 161130Z 00000KT 4000 BR FEW005 05/02 Q1022 NOSIG",
      "taf": "TAF LQSA 161100Z 1612/1712 VRB02KT 6000 FEW008 TX06/1614Z TNM01/1705Z"
    },
    {
      "icao": "LQTZ",
      "alert": "OK",
      "vis_m": 8000,
      "fzfg": false,
      "metar_trigger": false,
      "taf_trigger": false,
      "metar": "METAR LQTZ 161130Z VRB02KT 8000 FEW012 08/03 Q1022",
      "taf": "TAF LQTZ 161100Z 1612/1712 12005KT 6000 SCT065 TX08/1613Z TNM02/1705Z"
    },
    {
      "icao": "LRBC",
      "alert": "OK",
      "vis_m": 9999,
      "fzfg": false,
      "metar_trigger": false,
      "taf_trigger": false,
      "metar": "METAR LRBC 161130Z 36007KT 330V060 CAVOK M04/M11 Q1032",
      "taf": "TAF LRBC 161100Z 1612/1621 01006KT CAVOK"
    },
    {
      "icao": "LRBS",
      "alert": "OK",
      "vis_m": 9999,
      "fzfg": false,
      "metar_trigger": false,
      "taf_trigger": false,
      "metar": "METAR LRBS 161130Z 05012KT 020V080 CAVOK M03/M08 Q1031 NOSIG",
      "taf": "TAF LRBS 161100Z 1612/1712 07015KT CAVOK"
    },
    {
      "icao": "LRBV",
      "alert": "OK",
      "vis_m": 9999,
      "fzfg": false,
      "metar_trigger": false,
      "taf_trigger": false,
      "metar": "METAR LRBV 161130Z 10011KT 9999 FEW020 SCT026 BKN037 M01/M04 Q1026",
      "taf": "TAF LRBV 161100Z 1612/1621 10010KT 5000 BR SCT020 BKN035"
    },
    {
      "icao": "LRCL",
      "alert": "OK",
      "vis_m": 7000,
      "fzfg": false,
      "metar_trigger": false,
      "taf_trigger": false,
      "metar": "METAR LRCL 161130Z 06005KT 7000 BKN008 OVC017 01/M00 Q1026",
      "taf": "TAF LRCL 161100Z 1612/1621 VRB04KT 5000 BR BKN010"
    },
    {
      "icao": "LRCV",
      "alert": "OK",
      "vis_m": 700,
      "fzfg": true,
      "metar_trigger": false,
      "taf_trigger": false,
      "metar": "METAR LRCV 161130Z 07014KT 0700 R08/1000N +SN DRSN FZFG VV005 M03/M04 Q1029",
      "taf": "TAF LRCV 161100Z 1612/1621 07016KT 3000 -SN BR BKN010 OVC030"
    },
    {
      "icao": "LRIA",
      "alert": "OK",
      "vis_m": 9999,
      "fzfg": false,
      "metar_trigger": false,
      "taf_trigger": false,
      "metar": "METAR LRIA 161130Z 32005KT CAVOK M10/M13 Q1034",
      "taf": "TAF LRIA 161100Z 1612/1621 33005KT CAVOK"
    },
    {
      "icao": "LROP",
      "alert": "OK",
      "vis_m": 9999,
      "fzfg": false,
      "metar_trigger": false,
      "taf_trigger": false,
      "metar": "METAR LROP 161130Z 08014KT CAVOK M03/M09 Q1031",
      "taf": "TAF LROP 161100Z 1612/1712 07015KT CAVOK"
    },
    {
      "icao": "LRSB",
      "alert": "OK",
      "vis_m": 9999,
      "fzfg": false,
      "metar_trigger": false,
      "taf_trigger": false,
      "metar": "METAR LRSB 161130Z 10007KT 9999 BKN012 OVC025 02/01 Q1025 NOSIG",
      "taf": "TAF LRSB 161100Z 1612/1712 10010KT 9999 -RA BKN010 OVC025"
    },
    {
      "icao": "LRSM",
      "alert": "OK",
      "vis_m": 9999,
      "fzfg": false,
      "metar_trigger": false,
      "taf_trigger": false,
      "metar": "METAR LRSM 161130Z 12005KT CAVOK 05/M01 Q1025",
      "taf": "TAF LRSM 161100Z 1612/1621 10006KT CAVOK"
    },
    {
      "icao": "LRSV",
      "alert": "OK",
      "vis_m": 7000,
      "fzfg": false,
      "metar_trigger": false,
      "taf_trigger": false,
      "metar": "METAR LRSV 161130Z 07005KT 7000 NSC M10/M11 Q1030",
      "taf": "TAF LRSV 161100Z 1612/1621 08004KT 7000 NSC"
    },
    {
      "icao": "LRTM",
      "alert": "OK",
      "vis_m": 8000,
      "fzfg": false,
      "metar_trigger": false,
      "taf_trigger": false,
      "metar": "METAR LRTM 161130Z 08005KT 8000 FEW014 SCT023 BKN032 01/M02 Q1026",
      "taf": "TAF LRTM 161100Z 1612/1621 VRB04KT 9999 SCT020"
    },
    {
      "icao": "LRTR",
      "alert": "OK",
      "vis_m": 6000,
      "fzfg": false,
      "metar_trigger": false,
      "taf_trigger": false,
      "metar": "METAR LRTR 161130Z 11005KT 6000 -RA SCT030 03/03 Q1024",
      "taf": "TAF LRTR 161100Z 1612/1712 11008KT 5000 BR BKN040"
    },
    {
      "icao": "LTAC",
      "alert": "OK",
      "vis_m": 7000,
      "fzfg": false,
      "metar_trigger": false,
      "taf_trigger": false,
      "metar": "METAR LTAC 161150Z 26012KT 7000 SCT010 BKN025 BKN080 04/02 Q1019 NOSIG",
      "taf": "TAF LTAC 161040Z 1612/1712 24008KT 8000 -RA SCT010 BKN025 BKN080"
    },
    {
      "icao": "LTFM",
      "alert": "OK",
      "vis_m": 6000,
      "fzfg": false,
      "metar_trigger": false,
      "taf_trigger": false,
      "metar": "METAR LTFM 161150Z 04019KT 6000 -SHRA SCT005 BKN022 06/05 Q1024 NOSIG",
      "taf": "TAF LTFM 161040Z 1612/1718 04017KT 9999 -SHRA SCT007 BKN022"
    },
    {
      "icao": "LUKK",
      "alert": "OK",
      "vis_m": 9999,
      "fzfg": false,
      "metar_trigger": false,
      "taf_trigger": false,
      "metar": "METAR LUKK 161130Z 34007KT CAVOK M07/M13 Q1032 NOSIG",
      "taf": "TAF LUKK 161121Z 1612/1712 36008KT CAVOK"
    },
    {
      "icao": "LWOH",
      "alert": "OK",
      "vis_m": 9999,
      "fzfg": false,
      "metar_trigger": false,
      "taf_trigger": false,
      "metar": "METAR LWOH 161150Z 15003KT 9999 BKN050 08/04 Q1022",
      "taf": "TAF LWOH 161120Z 1612/1712 VRB02KT 9999 SCT050"
    },
    {
      "icao": "LWSK",
      "alert": "OK",
      "vis_m": 8000,
      "fzfg": false,
      "metar_trigger": false,
      "taf_trigger": false,
      "metar": "METAR LWSK 161150Z 35005KT 280V030 8000 FEW042 BKN085 09/04 Q1023 NOSIG",
      "taf": "TAF LWSK 161120Z 1612/1712 VRB02KT 9999 SCT050 BKN090"
    },
    {
      "icao": "LYBE",
      "alert": "OK",
      "vis_m": 4500,
      "fzfg": false,
      "metar_trigger": false,
      "taf_trigger": false,
      "metar": "METAR LYBE 161130Z 36004KT 4500 BR NSC 04/02 Q1024 NOSIG",
      "taf": "TAF LYBE 161100Z 1612/1712 06004KT CAVOK TX06/1612Z TNM00/1706Z"
    },
    {
      "icao": "LYNI",
      "alert": "OK",
      "vis_m": 9999,
      "fzfg": false,
      "metar_trigger": false,
      "taf_trigger": false,
      "metar": "METAR LYNI 161130Z 06010KT 9999 FEW017 09/03 Q1024 NOSIG",
      "taf": "TAF LYNI 161100Z 1612/1712 05012KT 9999 FEW015 SCT040 TX09/1612Z TNM01/1706Z"
    },
    {
      "icao": "LYPG",
      "alert": "OK",
      "vis_m": 9999,
      "fzfg": false,
      "metar_trigger": false,
      "taf_trigger": false,
      "metar": "METAR LYPG 161130Z 19003KT 140V280 9999 FEW030 13/08 Q1023 NOSIG",
      "taf": "TAF LYPG 161100Z 1612/1712 16005KT 9999 FEW030 SCT080 TX15/1613Z TN02/1705Z"
    },
    {
      "icao": "LZIB",
      "alert": "OK",
      "vis_m": 500,
      "fzfg": false,
      "metar_trigger": false,
      "taf_trigger": false,
      "metar": "METAR LZIB 161130Z 05006KT 0500 R31/0800N R22/0800N -DZ FG SCT001 OVC002 00/00 Q1024 BECMG 0200 FG BKN001 OVC002",
      "taf": "TAF LZIB 161115Z 1612/1712 05005KT 2500 BR BKN014"
    },
    {
      "icao": "LZKZ",
      "alert": "OK",
      "vis_m": 9999,
      "fzfg": false,
      "metar_trigger": false,
      "taf_trigger": false,
      "metar": "METAR LZKZ 161130Z 02004KT 9999 SCT018 OVC021 02/00 Q1025 NOSIG",
      "taf": "TAF LZKZ 161115Z 1612/1712 01005KT 9999 BKN015 OVC020"
    },
    {
      "icao": "LZTT",
      "alert": "OK",
      "vis_m": 450,
      "fzfg": false,
      "metar_trigger": false,
      "taf_trigger": false,
      "metar": "METAR LZTT 161130Z 08002KT 0450 R27/0550N FG OVC003 01/01 Q1023 TEMPO 2000 BR BKN006",
      "taf": "TAF LZTT 161115Z 1612/1712 VRB02KT 2500 BR OVC006"
    },
    {
      "icao": "OEJN",
      "alert": "OK",
      "vis_m": 9999,
      "fzfg": false,
      "metar_trigger": false,
      "taf_trigger": false,
      "metar": "METAR OEJN 161100Z 27004KT CAVOK 31/04 Q1012 NOSIG",
      "taf": "TAF OEJN 161100Z 1612/1718 30010KT 7000 FEW040"
    },
    {
      "icao": "OEMA",
      "alert": "OK",
      "vis_m": 9999,
      "fzfg": false,
      "metar_trigger": false,
      "taf_trigger": false,
      "metar": "METAR OEMA 161100Z 12008KT CAVOK 21/01 Q1020 NOSIG",
      "taf": "TAF OEMA 161100Z 1612/1718 10012KT 7000 NSC"
    },
    {
      "icao": "OJAI",
      "alert": "OK",
      "vis_m": 5000,
      "fzfg": false,
      "metar_trigger": false,
      "taf_trigger": false,
      "metar": "METAR OJAI 161100Z 11003KT 5000 HZ FEW020 11/04 Q1022 NOSIG",
      "taf": "TAF OJAI 161041Z 1612/1718 17008KT 5000 HZ FEW035"
    },
    {
      "icao": "OMAA",
      "alert": "OK",
      "vis_m": 9999,
      "fzfg": false,
      "metar_trigger": false,
      "taf_trigger": false,
      "metar": "METAR OMAA 161100Z 30015KT 9999 FEW040 22/11 Q1017 NOSIG",
      "taf": "TAF OMAA 161100Z 1612/1718 32014KT 8000 FEW030"
    },
    {
      "icao": "OMDB",
      "alert": "OK",
      "vis_m": 9999,
      "fzfg": false,
      "metar_trigger": false,
      "taf_trigger": false,
      "metar": "METAR OMDB 161130Z 28017KT 250V310 9999 BKN040 22/11 Q1017 TEMPO 29020G30KT",
      "taf": "TAF OMDB 161100Z 1612/1718 29014KT 8000 FEW030"
    },
    {
      "icao": "UAAA",
      "alert": "OK",
      "vis_m": 1400,
      "fzfg": false,
      "metar_trigger": false,
      "taf_trigger": false,
      "metar": "METAR UAAA 161130Z 26005MPS 1400 R23L/1600 -SN BR BKN006 OVC020 M13/M15 Q1019 NOSIG RMK QBB190",
      "taf": "TAF UAAA 161102Z 1612/1712 28003G08MPS 3100 -SHSN BR BKN011CB OVC030 TXM16/1708Z TNM18/1703Z"
    },
    {
      "icao": "UBBB",
      "alert": "OK",
      "vis_m": 9999,
      "fzfg": false,
      "metar_trigger": false,
      "taf_trigger": false,
      "metar": "METAR UBBB 161130Z 19010KT CAVOK 08/00 Q1020 NOSIG",
      "taf": "TAF UBBB 161056Z 1612/1712 19014KT 9999 FEW025 TX08/1612Z TN01/1702Z"
    },
    {
      "icao": "UDSG",
      "alert": "OK",
      "vis_m": 9999,
      "fzfg": false,
      "metar_trigger": false,
      "taf_trigger": false,
      "metar": "METAR UDSG 161130Z 15001KT 9999 BKN049 M08/M14 Q1020 NOSIG",
      "taf": "TAF UDSG 161100Z 1612/1712 VRB06KT 9999 BKN050"
    },
    {
      "icao": "UDYZ",
      "alert": "OK",
      "vis_m": 9999,
      "fzfg": false,
      "metar_trigger": false,
      "taf_trigger": false,
      "metar": "METAR UDYZ 161130Z VRB02KT 9999 FEW046 00/M11 Q1022 NOSIG",
      "taf": "TAF UDYZ 161100Z 1612/1712 VRB04KT 9999 FEW040"
    },
    {
      "icao": "UGKO",
      "alert": "OK",
      "vis_m": 8000,
      "fzfg": false,
      "metar_trigger": false,
      "taf_trigger": false,
      "metar": "METAR UGKO 161130Z 12006KT 8000 -RA SCT021 OVC045 01/00 Q1022 NOSIG",
      "taf": "TAF UGKO 161100Z 1612/1712 09007KT 9000 SCT012 OVC040 TX02/1612Z TN00/1706Z"
    }
  ]
}