{
  "ts_utc": "2026-01-25T10:17:45Z",
  "threshold_m": 150,
  "source": "stations_override.txt (ICAO list) + aviationweather.gov (METAR/TAF raw)",
  "station_count": 159,
  "stations": [
    {
      "icao": "BIKF",
      "alert": "OK",
      "vis_m": 9999,
      "fzfg": false,
      "metar_trigger": false,
      "taf_trigger": false,
      "metar": "METAR BIKF 251000Z 09014KT CAVOK 04/M01 Q1006",
      "taf": "TAF BIKF 250753Z 2509/2609 09015KT 9999 FEW025 TX05/2513Z TN01/2602Z"
    },
    {
      "icao": "BKPR",
      "alert": "OK",
      "vis_m": 9999,
      "fzfg": false,
      "metar_trigger": false,
      "taf_trigger": false,
      "metar": "METAR BKPR 251000Z 16017KT 9999 FEW050 10/06 Q1010 NOSIG",
      "taf": "TAF BKPR 250530Z 2506/2606 18010KT 9999 BKN040"
    },
    {
      "icao": "EBCI",
      "alert": "OK",
      "vis_m": 3500,
      "fzfg": false,
      "metar_trigger": false,
      "taf_trigger": false,
      "metar": "METAR EBCI 250950Z 16010KT 3500 BR BKN004 01/01 Q0997 BECMG 6000 NSW BKN005",
      "taf": ""
    },
    {
      "icao": "EDDB",
      "alert": "OK",
      "vis_m": 4400,
      "fzfg": false,
      "metar_trigger": false,
      "taf_trigger": false,
      "metar": "METAR EDDB 250950Z AUTO 07010KT 4400 BR BKN012 OVC018 M02/M05 Q1005 NOSIG",
      "taf": ""
    },
    {
      "icao": "EDDH",
      "alert": "OK",
      "vis_m": 6000,
      "fzfg": false,
      "metar_trigger": false,
      "taf_trigger": false,
      "metar": "METAR EDDH 250950Z AUTO 08010KT 6000 BKN010 OVC017 M02/M04 Q1005 TEMPO BKN009",
      "taf": "TAF EDDH 250500Z 2506/2612 09009KT 6000 OVC009"
    },
    {
      "icao": "EDDK",
      "alert": "OK",
      "vis_m": 9999,
      "fzfg": false,
      "metar_trigger": false,
      "taf_trigger": false,
      "metar": "METAR EDDK 250950Z AUTO 13009KT 100V160 CAVOK M01/M05 Q0999 NOSIG",
      "taf": "TAF EDDK 250500Z 2506/2612 11006KT CAVOK"
    },
    {
      "icao": "EDDN",
      "alert": "OK",
      "vis_m": 9000,
      "fzfg": false,
      "metar_trigger": false,
      "taf_trigger": false,
      "metar": "METAR EDDN 250950Z AUTO 11005KT 060V130 9000 OVC009 M01/M03 Q0999 NOSIG",
      "taf": "TAF EDDN 250500Z 2506/2606 VRB03KT 7000 BKN008"
    },
    {
      "icao": "EDDS",
      "alert": "OK",
      "vis_m": 6000,
      "fzfg": false,
      "metar_trigger": false,
      "taf_trigger": false,
      "metar": "METAR EDDS 250950Z AUTO VRB02KT 6000 SCT005 OVC010 M01/M03 Q0997 TEMPO BKN007",
      "taf": ""
    },
    {
      "icao": "EDFH",
      "alert": "OK",
      "vis_m": 2700,
      "fzfg": false,
      "metar_trigger": false,
      "taf_trigger": false,
      "metar": "METAR EDFH 250920Z 14017KT 2700 BR SCT002 M05/M06 Q0997",
      "taf": ""
    },
    {
      "icao": "EDJA",
      "alert": "OK",
      "vis_m": 1200,
      "fzfg": false,
      "metar_trigger": false,
      "taf_trigger": false,
      "metar": "METAR EDJA 250950Z VRB02KT 1200 R24/P2000N BR BKN002 OVC005 M01/M02 Q0997",
      "taf": "TAF EDJA 250800Z 2509/2518 VRB03KT 4000 BR OVC003"
    },
    {
      "icao": "EDLW",
      "alert": "OK",
      "vis_m": 6000,
      "fzfg": false,
      "metar_trigger": false,
      "taf_trigger": false,
      "metar": "METAR EDLW 250950Z 03007KT 6000 NSC M02/M04 Q0998",
      "taf": "TAF EDLW 250500Z 2506/2606 08005KT CAVOK"
    },
    {
      "icao": "EDNY",
      "alert": "OK",
      "vis_m": 4100,
      "fzfg": false,
      "metar_trigger": false,
      "taf_trigger": false,
      "metar": "METAR EDNY 250950Z 09002KT 4100 BR FEW006 OVC012 01/00 Q0998",
      "taf": "TAF EDNY 250800Z 2509/2518 VRB03KT 3500 BR BKN006"
    },
    {
      "icao": "EDSB",
      "alert": "OK",
      "vis_m": 5000,
      "fzfg": false,
      "metar_trigger": false,
      "taf_trigger": false,
      "metar": "METAR EDSB 250950Z 04006KT 5000 BR OVC008 M01/M03 Q0999",
      "taf": ""
    },
    {
      "icao": "EETN",
      "alert": "OK",
      "vis_m": 9999,
      "fzfg": false,
      "metar_trigger": false,
      "taf_trigger": false,
      "metar": "METAR EETN 250950Z 14006KT CAVOK M14/M16 Q1021 NOSIG",
      "taf": "TAF EETN 250530Z 2506/2606 13007KT 9999 FEW030"
    },
    {
      "icao": "EFTU",
      "alert": "OK",
      "vis_m": 9999,
      "fzfg": false,
      "metar_trigger": false,
      "taf_trigger": false,
      "metar": "METAR EFTU 250950Z AUTO 12005KT 090V150 9999 -SN OVC012 M08/M10 Q1020",
      "taf": "TAF EFTU 250838Z 2509/2609 13004KT 9999 -SN OVC015"
    },
    {
      "icao": "EGBB",
      "alert": "OK",
      "vis_m": 9999,
      "fzfg": false,
      "metar_trigger": false,
      "taf_trigger": false,
      "metar": "METAR EGBB 250950Z 11008KT 9999 VCSH BKN007 07/05 Q0992",
      "taf": "TAF EGBB 250459Z 2506/2606 13010KT 9999 SCT008 BKN030"
    },
    {
      "icao": "EGGP",
      "alert": "OK",
      "vis_m": 9999,
      "fzfg": false,
      "metar_trigger": false,
      "taf_trigger": false,
      "metar": "METAR EGGP 250950Z 10010KT 9999 BKN019 07/05 Q0992",
      "taf": "TAF EGGP 250458Z 2506/2606 12010KT 9999 OVC030"
    },
    {
      "icao": "EGGW",
      "alert": "OK",
      "vis_m": 7000,
      "fzfg": false,
      "metar_trigger": false,
      "taf_trigger": false,
      "metar": "METAR EGGW 250950Z AUTO 12009KT 7000 BKN003/// //////TCU 05/05 Q0992",
      "taf": "TAF EGGW 250458Z 2506/2606 13010KT 9999 BKN005"
    },
    {
      "icao": "EGKK",
      "alert": "OK",
      "vis_m": 9999,
      "fzfg": false,
      "metar_trigger": false,
      "taf_trigger": false,
      "metar": "METAR EGKK 250950Z 11006KT 9999 SCT010 BKN023 08/07 Q0992",
      "taf": "TAF EGKK 250502Z 2506/2612 14010KT 9999 FEW008 SCT020"
    },
    {
      "icao": "EGNM",
      "alert": "OK",
      "vis_m": 1500,
      "fzfg": false,
      "metar_trigger": false,
      "taf_trigger": false,
      "metar": "METAR EGNM 250950Z 10013KT 1500 -RA BR OVC002 04/04 Q0994",
      "taf": "TAF EGNM 250556Z 2506/2606 12010KT 4000 BR BKN003"
    },
    {
      "icao": "EGPD",
      "alert": "OK",
      "vis_m": 9999,
      "fzfg": false,
      "metar_trigger": false,
      "taf_trigger": false,
      "metar": "METAR EGPD 250950Z AUTO 12013KT 9999 SCT018 BKN023 OVC031 06/03 Q1002 TEMPO BKN012",
      "taf": "TAF EGPD 250500Z 2506/2606 11012KT 9999 SCT014 BKN025"
    },
    {
      "icao": "EGPF",
      "alert": "OK",
      "vis_m": 7000,
      "fzfg": false,
      "metar_trigger": false,
      "taf_trigger": false,
      "metar": "METAR EGPF 250950Z AUTO 08015KT 7000 -RA BKN019 OVC023 06/04 Q0995",
      "taf": "TAF EGPF 250456Z 2506/2606 08018G28KT 9999 SCT016 BKN030"
    },
    {
      "icao": "EHBK",
      "alert": "OK",
      "vis_m": 8000,
      "fzfg": false,
      "metar_trigger": false,
      "taf_trigger": false,
      "metar": "METAR EHBK 250955Z AUTO 05002KT 8000 NSC M00/M02 Q0997 NOSIG",
      "taf": "TAF EHBK 250512Z 2506/2612 10007KT 9999 NSC"
    },
    {
      "icao": "EHEH",
      "alert": "OK",
      "vis_m": null,
      "fzfg": false,
      "metar_trigger": false,
      "taf_trigger": false,
      "metar": "",
      "taf": "TAF EHEH 250520Z 2506/2612 10005KT 6000 HZ NSC"
    },
    {
      "icao": "EKBI",
      "alert": "OK",
      "vis_m": 3400,
      "fzfg": false,
      "metar_trigger": false,
      "taf_trigger": false,
      "metar": "METAR EKBI 250950Z AUTO 10010KT 3400 -SN OVC005/// M00/M01 Q1008",
      "taf": "TAF EKBI 250827Z 2509/2609 08012KT 7000 BKN010"
    },
    {
      "icao": "EKCH",
      "alert": "OK",
      "vis_m": 9999,
      "fzfg": false,
      "metar_trigger": false,
      "taf_trigger": false,
      "metar": "METAR EKCH 250950Z 11013KT 9999 OVC009 01/M02 Q1010 NOSIG",
      "taf": ""
    },
    {
      "icao": "ENAL",
      "alert": "OK",
      "vis_m": 9999,
      "fzfg": false,
      "metar_trigger": false,
      "taf_trigger": false,
      "metar": "METAR ENAL 250950Z 14009KT 9999 SCT030 BKN053 M00/M08 Q1013",
      "taf": "TAF ENAL 250800Z 2509/2518 14012KT 9999 BKN040"
    },
    {
      "icao": "ENBR",
      "alert": "OK",
      "vis_m": 9999,
      "fzfg": false,
      "metar_trigger": false,
      "taf_trigger": false,
      "metar": "METAR ENBR 250950Z 00000KT 9999 BKN045 M04/M11 Q1012 NOSIG RMK WIND 1200FT 12003KT",
      "taf": "TAF ENBR 250500Z 2506/2606 04005KT 9999 FEW040"
    },
    {
      "icao": "ENGM",
      "alert": "OK",
      "vis_m": 9999,
      "fzfg": false,
      "metar_trigger": false,
      "taf_trigger": false,
      "metar": "METAR ENGM 250950Z 02004KT 350V050 9999 -SN FEW019 OVC048 M06/M09 Q1016 NOSIG",
      "taf": "TAF ENGM 250500Z 2506/2606 36005KT 9999 -SN FEW020 BKN040"
    },
    {
      "icao": "ENHD",
      "alert": "OK",
      "vis_m": 9999,
      "fzfg": false,
      "metar_trigger": false,
      "taf_trigger": false,
      "metar": "METAR ENHD 250950Z /////KT 9999 NSC M00/M11 Q1012 RMK WIND RWY 31 11012KT",
      "taf": "TAF ENHD 250800Z 2509/2518 11009KT CAVOK"
    },
    {
      "icao": "ENTC",
      "alert": "OK",
      "vis_m": 8000,
      "fzfg": false,
      "metar_trigger": false,
      "taf_trigger": false,
      "metar": "METAR ENTC 250950Z 05006KT 8000 -SHSN SCT016 BKN026 M00/M01 Q1009 NOSIG RMK WIND 2600FT 02022KT",
      "taf": "TAF ENTC 250500Z 2506/2606 19012KT 7000 -SN SCT010 BKN020"
    },
    {
      "icao": "ENTO",
      "alert": "OK",
      "vis_m": 8000,
      "fzfg": false,
      "metar_trigger": false,
      "taf_trigger": false,
      "metar": "METAR ENTO 250950Z 03005KT 010V070 8000 -SN BKN014 M04/M06 Q1015 TEMPO 4000",
      "taf": "TAF ENTO 250500Z 2506/2606 02008KT 9999 -SN FEW012 BKN040"
    },
    {
      "icao": "ENVA",
      "alert": "OK",
      "vis_m": 9999,
      "fzfg": false,
      "metar_trigger": false,
      "taf_trigger": false,
      "metar": "METAR ENVA 250950Z 12007KT 9999 NCD M11/M15 Q1015 NOSIG RMK WIND 670FT 09004KT",
      "taf": "TAF ENVA 250500Z 2506/2606 10005KT 9999 BKN050"
    },
    {
      "icao": "ENZV",
      "alert": "OK",
      "vis_m": 9999,
      "fzfg": false,
      "metar_trigger": false,
      "taf_trigger": false,
      "metar": "METAR ENZV 250950Z 10006KT CAVOK M01/M12 Q1013 NOSIG",
      "taf": "TAF ENZV 250500Z 2506/2606 08008KT 9999 FEW050"
    },
    {
      "icao": "EPGD",
      "alert": "OK",
      "vis_m": 9999,
      "fzfg": false,
      "metar_trigger": false,
      "taf_trigger": false,
      "metar": "METAR EPGD 251000Z 10008KT 9999 FEW010 OVC038 M07/M09 Q1011",
      "taf": "TAF EPGD 250530Z 2506/2606 11010KT 9999 OVC035"
    },
    {
      "icao": "EPKK",
      "alert": "OK",
      "vis_m": 500,
      "fzfg": true,
      "metar_trigger": false,
      "taf_trigger": false,
      "metar": "METAR EPKK 251000Z 06008KT 0500 R25/0800U FZFG OVC002 M00/M01 Q1007",
      "taf": ""
    },
    {
      "icao": "EPKT",
      "alert": "OK",
      "vis_m": 7000,
      "fzfg": false,
      "metar_trigger": false,
      "taf_trigger": false,
      "metar": "METAR EPKT 251000Z 09008KT 7000 NSC 02/01 Q1005",
      "taf": "TAF EPKT 250530Z 2506/2606 09006KT 4000 BR BKN006"
    },
    {
      "icao": "EPLB",
      "alert": "OK",
      "vis_m": 7000,
      "fzfg": false,
      "metar_trigger": false,
      "taf_trigger": false,
      "metar": "METAR EPLB 251000Z 11012KT 7000 -FZRA OVC008 M06/M07 Q1011",
      "taf": ""
    },
    {
      "icao": "EPMO",
      "alert": "OK",
      "vis_m": 6000,
      "fzfg": false,
      "metar_trigger": false,
      "taf_trigger": false,
      "metar": "METAR EPMO 251000Z 08010KT 6000 BKN010 M05/M07 Q1010",
      "taf": "TAF EPMO 250530Z 2506/2606 08012KT 8000 OVC010"
    },
    {
      "icao": "EPPO",
      "alert": "OK",
      "vis_m": 6000,
      "fzfg": false,
      "metar_trigger": false,
      "taf_trigger": false,
      "metar": "METAR EPPO 251000Z 10009KT 6000 OVC007 M04/M05 Q1008",
      "taf": ""
    },
    {
      "icao": "EPRA",
      "alert": "OK",
      "vis_m": 9000,
      "fzfg": false,
      "metar_trigger": false,
      "taf_trigger": false,
      "metar": "METAR EPRA 251000Z 10010KT 9000 OVC007 M04/M06 Q1010",
      "taf": "TAF EPRA 250830Z 2509/2518 10010KT 8000 OVC007"
    },
    {
      "icao": "EPRZ",
      "alert": "OK",
      "vis_m": 5000,
      "fzfg": false,
      "metar_trigger": false,
      "taf_trigger": false,
      "metar": "METAR EPRZ 251000Z 08013KT 5000 BR FEW007 M01/M02 Q1009",
      "taf": ""
    },
    {
      "icao": "EPSC",
      "alert": "OK",
      "vis_m": 9000,
      "fzfg": false,
      "metar_trigger": false,
      "taf_trigger": false,
      "metar": "METAR EPSC 251000Z 08007KT 010V110 9000 FEW013 OVC016 M03/M06 Q1008",
      "taf": ""
    },
    {
      "icao": "EPSY",
      "alert": "OK",
      "vis_m": 9999,
      "fzfg": false,
      "metar_trigger": false,
      "taf_trigger": false,
      "metar": "METAR EPSY 251000Z 12007KT 040V160 9999 OVC012 M07/M10 Q1012",
      "taf": "TAF EPSY 250830Z 2509/2518 10010KT 8000 BKN012"
    },
    {
      "icao": "EPWA",
      "alert": "OK",
      "vis_m": 8000,
      "fzfg": false,
      "metar_trigger": false,
      "taf_trigger": false,
      "metar": "METAR EPWA 251000Z 11013KT 8000 BKN011 M05/M06 Q1010 TEMPO -FZDZ BKN009",
      "taf": "TAF EPWA 250830Z 2509/2609 10012KT 6000 OVC007"
    },
    {
      "icao": "EPWR",
      "alert": "OK",
      "vis_m": 5000,
      "fzfg": false,
      "metar_trigger": false,
      "taf_trigger": false,
      "metar": "METAR EPWR 251000Z 08005KT 5000 BR OVC007 M01/M02 Q1005",
      "taf": ""
    },
    {
      "icao": "ESGG",
      "alert": "OK",
      "vis_m": 9999,
      "fzfg": false,
      "metar_trigger": false,
      "taf_trigger": false,
      "metar": "METAR ESGG 250950Z 10009KT 9999 BKN028 M04/M07 Q1012",
      "taf": "TAF ESGG 250830Z 2509/2609 09008KT 9999 -SN -SG OVC030"
    },
    {
      "icao": "ESKN",
      "alert": "OK",
      "vis_m": 5000,
      "fzfg": false,
      "metar_trigger": false,
      "taf_trigger": false,
      "metar": "METAR ESKN 250950Z 08006KT 5000 SN BKN039 M04/M06 Q1016",
      "taf": "TAF ESKN 250830Z 2509/2609 10010KT 9999 -SN BKN030"
    },
    {
      "icao": "ESMS",
      "alert": "OK",
      "vis_m": 9000,
      "fzfg": false,
      "metar_trigger": false,
      "taf_trigger": false,
      "metar": "METAR ESMS 250950Z 10013KT 9000 OVC008 M00/M02 Q1009",
      "taf": "TAF ESMS 250827Z 2509/2609 10013KT 6000 OVC008"
    },
    {
      "icao": "ESSA",
      "alert": "OK",
      "vis_m": 8000,
      "fzfg": false,
      "metar_trigger": false,
      "taf_trigger": false,
      "metar": "METAR ESSA 250920Z 07008KT 8000 -SN BKN033 M05/M07 Q1017 TEMPO 4500",
      "taf": "TAF ESSA 250830Z 2509/2609 07009KT 9999 -SN BKN035"
    },
    {
      "icao": "EYKA",
      "alert": "OK",
      "vis_m": 9999,
      "fzfg": false,
      "metar_trigger": false,
      "taf_trigger": false,
      "metar": "METAR EYKA 250950Z 12010KT CAVOK M08/M12 Q1018",
      "taf": "TAF EYKA 250510Z 2506/2606 12010KT 9000 BKN040"
    },
    {
      "icao": "EYPA",
      "alert": "OK",
      "vis_m": 9999,
      "fzfg": false,
      "metar_trigger": false,
      "taf_trigger": false,
      "metar": "METAR EYPA 250950Z 13006KT 100V160 CAVOK M07/M10 Q1016",
      "taf": "TAF EYPA 250509Z 2506/2606 12009KT 7000 BKN025"
    },
    {
      "icao": "EYVI",
      "alert": "OK",
      "vis_m": 9999,
      "fzfg": false,
      "metar_trigger": false,
      "taf_trigger": false,
      "metar": "METAR EYVI 250950Z 13009KT CAVOK M10/M14 Q1018 NOSIG",
      "taf": "TAF EYVI 250500Z 2506/2606 12012KT 9000 OVC035"
    },
    {
      "icao": "GCFV",
      "alert": "OK",
      "vis_m": 9999,
      "fzfg": false,
      "metar_trigger": false,
      "taf_trigger": false,
      "metar": "METAR GCFV 251000Z 36006KT 9999 FEW040 18/10 Q1029",
      "taf": "TAF GCFV 250800Z 2509/2609 05010KT 9999 FEW035 TX20/2514Z TN14/2606Z"
    },
    {
      "icao": "GCLP",
      "alert": "OK",
      "vis_m": 9999,
      "fzfg": false,
      "metar_trigger": false,
      "taf_trigger": false,
      "metar": "METAR GCLP 251000Z 33004KT 300V360 9999 FEW036 18/10 Q1029 NOSIG",
      "taf": "TAF GCLP 250800Z 2509/2609 04012KT 9999 FEW035 TX20/2514Z TN13/2606Z"
    },
    {
      "icao": "GCTS",
      "alert": "OK",
      "vis_m": 9999,
      "fzfg": false,
      "metar_trigger": false,
      "taf_trigger": false,
      "metar": "METAR GCTS 251000Z 06006KT 020V080 9999 SCT040 18/09 Q1029 NOSIG",
      "taf": "TAF GCTS 250800Z 2509/2609 09010KT 9999 FEW040 TX22/2514Z TN15/2606Z"
    },
    {
      "icao": "GMAD",
      "alert": "OK",
      "vis_m": 9999,
      "fzfg": false,
      "metar_trigger": false,
      "taf_trigger": false,
      "metar": "METAR GMAD 251000Z 06007KT CAVOK 12/09 Q1027 NOSIG",
      "taf": "TAF GMAD 250500Z 2506/2612 06010KT 8000 SCT020"
    },
    {
      "icao": "GMMN",
      "alert": "OK",
      "vis_m": 9999,
      "fzfg": false,
      "metar_trigger": false,
      "taf_trigger": false,
      "metar": "METAR GMMN 251000Z 21012KT 9999 SCT023 13/10 Q1026 NOSIG",
      "taf": "TAF GMMN 250500Z 2506/2612 20004KT 8000 FEW016TCU SCT030"
    },
    {
      "icao": "GMMX",
      "alert": "OK",
      "vis_m": 9999,
      "fzfg": false,
      "metar_trigger": false,
      "taf_trigger": false,
      "metar": "METAR GMMX 251000Z 11003KT 080V140 CAVOK 11/06 Q1027 NOSIG",
      "taf": "TAF GMMX 250500Z 2506/2612 20006KT 8000 SCT020"
    },
    {
      "icao": "HEGN",
      "alert": "OK",
      "vis_m": 9999,
      "fzfg": false,
      "metar_trigger": false,
      "taf_trigger": false,
      "metar": "METAR HEGN 251000Z 05010KT CAVOK 22/06 Q1020 NOSIG",
      "taf": ""
    },
    {
      "icao": "HEMA",
      "alert": "OK",
      "vis_m": 9999,
      "fzfg": false,
      "metar_trigger": false,
      "taf_trigger": false,
      "metar": "METAR HEMA 251000Z 35012KT CAVOK 23/06 Q1020 NOSIG",
      "taf": ""
    },
    {
      "icao": "HESH",
      "alert": "OK",
      "vis_m": 9999,
      "fzfg": false,
      "metar_trigger": false,
      "taf_trigger": false,
      "metar": "METAR HESH 251000Z 02010KT CAVOK 22/05 Q1020 NOSIG",
      "taf": ""
    },
    {
      "icao": "HESX",
      "alert": "OK",
      "vis_m": 9999,
      "fzfg": false,
      "metar_trigger": false,
      "taf_trigger": false,
      "metar": "METAR HESX 251000Z 08005KT CAVOK 20/06 Q1020 NOSIG",
      "taf": ""
    },
    {
      "icao": "LATI",
      "alert": "OK",
      "vis_m": null,
      "fzfg": false,
      "metar_trigger": false,
      "taf_trigger": false,
      "metar": "",
      "taf": "TAF LATI 250500Z 2506/2606 17008KT 9999 BKN080 TX18/2512Z TN06/2604Z"
    },
    {
      "icao": "LBPD",
      "alert": "OK",
      "vis_m": 9999,
      "fzfg": false,
      "metar_trigger": false,
      "taf_trigger": false,
      "metar": "METAR LBPD 251000Z AUTO 13003KT 9999 OVC007/// 04/04 Q1016 NOSIG",
      "taf": "TAF LBPD 250500Z 2506/2606 VRB04KT 9999 OVC010"
    },
    {
      "icao": "LBSF",
      "alert": "OK",
      "vis_m": 5000,
      "fzfg": true,
      "metar_trigger": false,
      "taf_trigger": false,
      "metar": "METAR LBSF 251000Z VRB03KT 5000 BR BKN003 BKN058 00/M00 Q1014 BECMG BKN005",
      "taf": "TAF LBSF 250500Z 2506/2606 VRB04KT 0400 FZFG OVC002"
    },
    {
      "icao": "LBWN",
      "alert": "OK",
      "vis_m": 9999,
      "fzfg": false,
      "metar_trigger": false,
      "taf_trigger": false,
      "metar": "METAR LBWN 251000Z 25004KT 210V280 9999 FEW010 SCT030 10/05 Q1015 NOSIG",
      "taf": "TAF LBWN 250500Z 2506/2606 VRB03KT 5000 BR BKN015"
    },
    {
      "icao": "LCLK",
      "alert": "OK",
      "vis_m": 9999,
      "fzfg": false,
      "metar_trigger": false,
      "taf_trigger": false,
      "metar": "METAR LCLK 251000Z 04008KT 9999 FEW022 18/14 Q1022 NOSIG",
      "taf": ""
    },
    {
      "icao": "LCPH",
      "alert": "OK",
      "vis_m": 7000,
      "fzfg": false,
      "metar_trigger": false,
      "taf_trigger": false,
      "metar": "METAR LCPH 251000Z 15011KT 7000 FEW020 18/10 Q1021 NOSIG",
      "taf": ""
    },
    {
      "icao": "LEAL",
      "alert": "OK",
      "vis_m": 9999,
      "fzfg": false,
      "metar_trigger": false,
      "taf_trigger": false,
      "metar": "METAR LEAL 251000Z 23013KT 200V280 9999 FEW030 SCT050 14/03 Q1011 NOSIG",
      "taf": "TAF LEAL 250500Z 2506/2606 23008KT CAVOK TX18/2513Z TN09/2506Z"
    },
    {
      "icao": "LEBB",
      "alert": "OK",
      "vis_m": 9999,
      "fzfg": false,
      "metar_trigger": false,
      "taf_trigger": false,
      "metar": "METAR LEBB 251000Z 22010KT 170V290 9999 FEW055 13/03 Q1000 NOSIG",
      "taf": "TAF LEBB 250500Z 2506/2606 21009KT 9999 FEW040 TX12/2512Z TN07/2605Z"
    },
    {
      "icao": "LEBL",
      "alert": "OK",
      "vis_m": 9999,
      "fzfg": false,
      "metar_trigger": false,
      "taf_trigger": false,
      "metar": "METAR LEBL 251000Z 29014KT CAVOK 12/04 Q1004 NOSIG",
      "taf": "TAF LEBL 250500Z 2506/2606 31012KT 9999 FEW020 TX16/2512Z TN08/2506Z"
    },
    {
      "icao": "LECH",
      "alert": "OK",
      "vis_m": 9999,
      "fzfg": false,
      "metar_trigger": false,
      "taf_trigger": false,
      "metar": "METAR LECH 251000Z AUTO 25005KT 180V290 CAVOK 11/00 Q1006",
      "taf": ""
    },
    {
      "icao": "LEMD",
      "alert": "OK",
      "vis_m": 9999,
      "fzfg": false,
      "metar_trigger": false,
      "taf_trigger": false,
      "metar": "METAR LEMD 251000Z 21010KT 170V240 9999 SCT013 BKN055 07/05 Q1009 NOSIG",
      "taf": "TAF LEMD 250500Z 2506/2612 23010KT 9999 FEW030 TX10/2516Z TN03/2606Z"
    },
    {
      "icao": "LEMG",
      "alert": "OK",
      "vis_m": 9999,
      "fzfg": false,
      "metar_trigger": false,
      "taf_trigger": false,
      "metar": "METAR LEMG 251000Z VRB02KT 9999 BKN048 12/06 Q1018 NOSIG",
      "taf": "TAF LEMG 250500Z 2506/2606 VRB02KT CAVOK TX16/2514Z TN10/2507Z"
    },
    {
      "icao": "LEVC",
      "alert": "OK",
      "vis_m": 9999,
      "fzfg": false,
      "metar_trigger": false,
      "taf_trigger": false,
      "metar": "METAR LEVC 251000Z 26010G20KT 210V290 9999 FEW040 12/03 Q1008 NOSIG",
      "taf": "TAF LEVC 250500Z 2506/2606 27018KT CAVOK TX17/2513Z TN08/2506Z"
    },
    {
      "icao": "LEXJ",
      "alert": "OK",
      "vis_m": 9000,
      "fzfg": false,
      "metar_trigger": false,
      "taf_trigger": false,
      "metar": "METAR LEXJ 251000Z 31017G29KT 290V350 9000 -RA FEW025 BKN032 10/06 Q1000",
      "taf": "TAF LEXJ 250800Z 2509/2609 22009KT 9999 SCT060 TX13/2513Z TN07/2604Z"
    },
    {
      "icao": "LEZG",
      "alert": "OK",
      "vis_m": 9999,
      "fzfg": false,
      "metar_trigger": false,
      "taf_trigger": false,
      "metar": "METAR LEZG 251000Z 23018KT 200V260 9999 FEW060 11/03 Q1004 NOSIG",
      "taf": ""
    },
    {
      "icao": "LEZL",
      "alert": "OK",
      "vis_m": 9999,
      "fzfg": false,
      "metar_trigger": false,
      "taf_trigger": false,
      "metar": "METAR LEZL 251000Z 24010KT 210V270 9999 -RA FEW040 14/12 Q1018 NOSIG",
      "taf": "TAF LEZL 250800Z 2509/2609 24010KT CAVOK TX18/2515Z TN13/2607Z"
    },
    {
      "icao": "LFBD",
      "alert": "OK",
      "vis_m": 6000,
      "fzfg": false,
      "metar_trigger": false,
      "taf_trigger": false,
      "metar": "METAR LFBD 251000Z AUTO 25010KT 6000 1800 RA SCT024/// BKN036/// BKN045/// ///CB 08/07 Q0997 TEMPO 24020G30KT 2000 TSRA BECMG BKN040",
      "taf": "TAF LFBD 250500Z 2506/2612 20010KT 9999 BKN040 TX12/2612Z TN05/2520Z"
    },
    {
      "icao": "LFLL",
      "alert": "OK",
      "vis_m": 7000,
      "fzfg": false,
      "metar_trigger": false,
      "taf_trigger": false,
      "metar": "METAR LFLL 250930Z 16006KT 7000 FEW005 SCT080 05/03 Q0999 NOSIG",
      "taf": ""
    },
    {
      "icao": "LFLS",
      "alert": "OK",
      "vis_m": 6000,
      "fzfg": false,
      "metar_trigger": false,
      "taf_trigger": false,
      "metar": "METAR LFLS 251000Z AUTO 07008KT 6000 BKN004 04/03 Q0998 TEMPO 3000 BR BECMG SCT040",
      "taf": ""
    },
    {
      "icao": "LFMN",
      "alert": "OK",
      "vis_m": 9999,
      "fzfg": false,
      "metar_trigger": false,
      "taf_trigger": false,
      "metar": "METAR LFMN 251000Z 35005KT 300V020 9999 FEW055 SCT260 10/04 Q0999 NOSIG",
      "taf": "TAF LFMN 250800Z 2509/2615 VRB05KT 9999 SCT050 BKN120"
    },
    {
      "icao": "LFOB",
      "alert": "OK",
      "vis_m": 9999,
      "fzfg": false,
      "metar_trigger": false,
      "taf_trigger": false,
      "metar": "METAR LFOB 251000Z AUTO 15008KT 9999 OVC005 06/05 Q0994 TEMPO 4000 -DZ BR",
      "taf": "TAF LFOB 250500Z 2506/2606 13007KT 6000 OVC012"
    },
    {
      "icao": "LFPO",
      "alert": "OK",
      "vis_m": 9999,
      "fzfg": false,
      "metar_trigger": false,
      "taf_trigger": false,
      "metar": "METAR LFPO 251000Z 15007KT 9999 BKN011 07/05 Q0994 NOSIG",
      "taf": ""
    },
    {
      "icao": "LFSB",
      "alert": "OK",
      "vis_m": 6000,
      "fzfg": false,
      "metar_trigger": false,
      "taf_trigger": false,
      "metar": "METAR LFSB 251000Z AUTO VRB02KT 6000 OVC006 03/01 Q0998 BECMG FEW008 BKN030",
      "taf": ""
    },
    {
      "icao": "LGAV",
      "alert": "OK",
      "vis_m": 9999,
      "fzfg": false,
      "metar_trigger": false,
      "taf_trigger": false,
      "metar": "METAR LGAV 250950Z 20012KT 9999 FEW016 BKN035 16/12 Q1017 NOSIG",
      "taf": "TAF LGAV 250500Z 2506/2606 20012KT 9999 FEW015 SCT020"
    },
    {
      "icao": "LGTS",
      "alert": "OK",
      "vis_m": 9000,
      "fzfg": false,
      "metar_trigger": false,
      "taf_trigger": false,
      "metar": "METAR LGTS 250950Z VRB01KT 9000 FEW015 SCT020 11/07 Q1015 NOSIG",
      "taf": "TAF LGTS 250500Z 2506/2606 VRB03KT 9999 FEW010 BKN025"
    },
    {
      "icao": "LHBP",
      "alert": "OK",
      "vis_m": 6000,
      "fzfg": false,
      "metar_trigger": false,
      "taf_trigger": false,
      "metar": "METAR LHBP 251000Z 08008KT 6000 SCT007 BKN065 03/01 Q1007 TEMPO BKN007",
      "taf": "TAF LHBP 250515Z 2506/2606 06006KT 6000 SCT015 BKN150"
    },
    {
      "icao": "LHDC",
      "alert": "OK",
      "vis_m": 9999,
      "fzfg": false,
      "metar_trigger": false,
      "taf_trigger": false,
      "metar": "METAR LHDC 250945Z AUTO 08007KT CAVOK 07/03 Q1009 NOSIG",
      "taf": "TAF LHDC 250815Z 2509/2518 08006KT 8000 NSC"
    },
    {
      "icao": "LIBD",
      "alert": "OK",
      "vis_m": 9999,
      "fzfg": false,
      "metar_trigger": false,
      "taf_trigger": false,
      "metar": "METAR LIBD 250950Z 16015G26KT 130V190 9999 BKN025 17/12 Q1000",
      "taf": "TAF LIBD 250500Z 2506/2606 15015G25KT 9999 SCT020"
    },
    {
      "icao": "LIBG",
      "alert": "OK",
      "vis_m": 6000,
      "fzfg": false,
      "metar_trigger": false,
      "taf_trigger": false,
      "metar": "METAR LIBG 250950Z 15018KT 6000 BKN015 16/13 Q1003",
      "taf": "TAF LIBG 250800Z 2509/2518 16017G29KT 8000 BKN012"
    },
    {
      "icao": "LIBP",
      "alert": "OK",
      "vis_m": 9999,
      "fzfg": false,
      "metar_trigger": false,
      "taf_trigger": false,
      "metar": "METAR LIBP 250950Z AUTO VRB02KT 9999 SCT094/// SCT140/// 10/09 Q0999",
      "taf": "TAF LIBP 250500Z 2506/2606 VRB05KT 2000 -RA BR BKN004"
    },
    {
      "icao": "LIBR",
      "alert": "OK",
      "vis_m": 8000,
      "fzfg": false,
      "metar_trigger": false,
      "taf_trigger": false,
      "metar": "METAR LIBR 250950Z 18020G31KT 8000 BKN025 17/12 Q1003",
      "taf": "TAF LIBR 250500Z 2506/2606 15016G26KT 9999 SCT020"
    },
    {
      "icao": "LICA",
      "alert": "OK",
      "vis_m": 9999,
      "fzfg": false,
      "metar_trigger": false,
      "taf_trigger": false,
      "metar": "METAR LICA 250950Z AUTO 27011KT 9999 SCT028/// 16/14 Q1003",
      "taf": "TAF LICA 250500Z 2506/2606 07018KT 9999 SCT020"
    },
    {
      "icao": "LICC",
      "alert": "OK",
      "vis_m": 6000,
      "fzfg": false,
      "metar_trigger": false,
      "taf_trigger": false,
      "metar": "METAR LICC 250950Z 27006KT 6000 FEW030 SCT100 14/12 Q1003",
      "taf": "TAF LICC 250500Z 2506/2606 VRB06KT 9999 SCT030"
    },
    {
      "icao": "LICJ",
      "alert": "OK",
      "vis_m": 9999,
      "fzfg": false,
      "metar_trigger": false,
      "taf_trigger": false,
      "metar": "METAR LICJ 250950Z 19009KT 9999 SCT040 BKN060 13/07 Q1005",
      "taf": "TAF LICJ 250500Z 2506/2606 28014KT 9999 SCT030"
    },
    {
      "icao": "LIMC",
      "alert": "OK",
      "vis_m": 1200,
      "fzfg": false,
      "metar_trigger": false,
      "taf_trigger": false,
      "metar": "METAR LIMC 250950Z 21005KT 1200 R35R/P2000N R17L/P2000N R35L/P2000N DZ BR OVC001 04/04 Q0999 NOSIG",
      "taf": ""
    },
    {
      "icao": "LIME",
      "alert": "OK",
      "vis_m": 3000,
      "fzfg": false,
      "metar_trigger": false,
      "taf_trigger": false,
      "metar": "METAR LIME 250950Z 26004KT 220V320 3000 BR BKN004 05/05 Q0999 NOSIG",
      "taf": ""
    },
    {
      "icao": "LIMF",
      "alert": "OK",
      "vis_m": 6000,
      "fzfg": false,
      "metar_trigger": false,
      "taf_trigger": false,
      "metar": "METAR LIMF 250950Z VRB02KT 6000 SCT015 BKN035 05/03 Q0999",
      "taf": "TAF LIMF 250500Z 2506/2606 VRB03KT 4000 RA SCT020 BKN040"
    },
    {
      "icao": "LIMJ",
      "alert": "OK",
      "vis_m": 9999,
      "fzfg": false,
      "metar_trigger": false,
      "taf_trigger": false,
      "metar": "METAR LIMJ 250950Z 04012KT 9999 FEW060 07/02 Q0999",
      "taf": "TAF LIMJ 250500Z 2506/2606 03012KT 9999 SCT040"
    },
    {
      "icao": "LIPE",
      "alert": "OK",
      "vis_m": 2500,
      "fzfg": false,
      "metar_trigger": false,
      "taf_trigger": false,
      "metar": "METAR LIPE 250950Z 28005KT 240V350 2500 BR OVC005 06/05 Q0999",
      "taf": ""
    },
    {
      "icao": "LIPH",
      "alert": "OK",
      "vis_m": 8000,
      "fzfg": false,
      "metar_trigger": false,
      "taf_trigger": false,
      "metar": "METAR LIPH 250950Z 22006KT 8000 -RA BKN020 07/07 Q0998",
      "taf": "TAF LIPH 250500Z 2506/2606 VRB05KT 4000 RA BKN010"
    },
    {
      "icao": "LIPQ",
      "alert": "OK",
      "vis_m": 9999,
      "fzfg": false,
      "metar_trigger": false,
      "taf_trigger": false,
      "metar": "METAR LIPQ 250950Z AUTO 03005KT 9999 RA FEW018/// OVC027/// 09/08 Q0997",
      "taf": "TAF LIPQ 250500Z 2506/2606 08007KT 6000 RA BKN020"
    },
    {
      "icao": "LIPR",
      "alert": "OK",
      "vis_m": 9999,
      "fzfg": false,
      "metar_trigger": false,
      "taf_trigger": false,
      "metar": "METAR LIPR 250950Z 27006KT 9999 -RA SCT020 BKN040 08/07 Q1000 RERA",
      "taf": "TAF LIPR 250500Z 2506/2606 VRB05KT 4000 RA BKN030"
    },
    {
      "icao": "LIPX",
      "alert": "OK",
      "vis_m": 6000,
      "fzfg": false,
      "metar_trigger": false,
      "taf_trigger": false,
      "metar": "METAR LIPX 250950Z 26007KT 6000 -DZ SCT005 BKN090 07/06 Q0999",
      "taf": "TAF LIPX 250500Z 2506/2606 09007KT 4000 RA BR BKN040"
    },
    {
      "icao": "LIPY",
      "alert": "OK",
      "vis_m": 9999,
      "fzfg": false,
      "metar_trigger": false,
      "taf_trigger": false,
      "metar": "METAR LIPY 250950Z AUTO 25006KT 9999 OVC066/// 10/08 Q1000",
      "taf": "TAF LIPY 242300Z 2500/2524 VRB05KT 2000 BR BKN010"
    },
    {
      "icao": "LIPZ",
      "alert": "OK",
      "vis_m": 7000,
      "fzfg": false,
      "metar_trigger": false,
      "taf_trigger": false,
      "metar": "METAR LIPZ 250950Z 29004KT 260V330 7000 -RA BKN005 08/07 Q0998 NOSIG",
      "taf": "TAF LIPZ 250500Z 2506/2612 04008KT 4000 RA BKN004"
    },
    {
      "icao": "LIRF",
      "alert": "OK",
      "vis_m": 9999,
      "fzfg": false,
      "metar_trigger": false,
      "taf_trigger": false,
      "metar": "METAR LIRF 250950Z 08007KT 060V120 CAVOK 09/07 Q1002 NOSIG",
      "taf": "TAF LIRF 250500Z 2506/2612 09010KT 9999 SCT030"
    },
    {
      "icao": "LIRN",
      "alert": "OK",
      "vis_m": 9999,
      "fzfg": false,
      "metar_trigger": false,
      "taf_trigger": false,
      "metar": "METAR LIRN 250950Z 26007KT 9999 FEW025 SCT070 11/07 Q1003 NOSIG",
      "taf": "TAF LIRN 250500Z 2506/2606 25012KT 9999 SCT030"
    },
    {
      "icao": "LIRP",
      "alert": "OK",
      "vis_m": 9999,
      "fzfg": false,
      "metar_trigger": false,
      "taf_trigger": false,
      "metar": "METAR LIRP 250945Z 10012KT 9999 SCT030 09/09 Q0999 NOSIG",
      "taf": "TAF LIRP 250500Z 2506/2606 10008KT 9999 SCT020 BKN050"
    },
    {
      "icao": "LIRZ",
      "alert": "OK",
      "vis_m": 9999,
      "fzfg": false,
      "metar_trigger": false,
      "taf_trigger": false,
      "metar": "METAR LIRZ 250950Z AUTO 17006KT 9999 FEW007/// 07/05 Q1001",
      "taf": "TAF LIRZ 250500Z 2506/2606 VRB05KT 9999 BKN030"
    },
    {
      "icao": "LJLJ",
      "alert": "OK",
      "vis_m": 1500,
      "fzfg": false,
      "metar_trigger": false,
      "taf_trigger": false,
      "metar": "METAR LJLJ 251000Z 00000KT 1500 RA BR BKN003 OVC010 02/02 Q1000 NOSIG",
      "taf": "TAF LJLJ 250500Z 2506/2606 VRB02KT 2000 BR FEW001 SCT007 OVC030"
    },
    {
      "icao": "LKMT",
      "alert": "OK",
      "vis_m": 800,
      "fzfg": true,
      "metar_trigger": false,
      "taf_trigger": false,
      "metar": "METAR LKMT 251000Z 06003KT 030V090 0800 R22/1200U R04/1100D FZFG BKN002 OVC005 M01/M01 Q1004 NOSIG",
      "taf": "TAF LKMT 250500Z 2506/2606 02006KT 1600 BR OVC006"
    },
    {
      "icao": "LKPR",
      "alert": "OK",
      "vis_m": 250,
      "fzfg": true,
      "metar_trigger": false,
      "taf_trigger": false,
      "metar": "METAR LKPR 251000Z 02004KT 330V080 0250 R24/0500N R30/0275N FZFG VV002 M00/M00 Q1001 NOSIG",
      "taf": "TAF LKPR 250800Z 2509/2615 06004KT 0800 FZFG OVC002"
    },
    {
      "icao": "LLBG",
      "alert": "OK",
      "vis_m": 9999,
      "fzfg": false,
      "metar_trigger": false,
      "taf_trigger": false,
      "metar": "METAR LLBG 250950Z VRB02KT CAVOK 21/04 Q1021 NOSIG",
      "taf": "TAF LLBG 250501Z 2506/2606 VRB04KT CAVOK"
    },
    {
      "icao": "LMML",
      "alert": "OK",
      "vis_m": 9999,
      "fzfg": false,
      "metar_trigger": false,
      "taf_trigger": false,
      "metar": "METAR LMML 251015Z 28015KT 9999 FEW017 14/10 Q1005 NOSIG",
      "taf": "TAF LMML 250500Z 2506/2606 30015KT 9999 FEW017"
    },
    {
      "icao": "LOWW",
      "alert": "OK",
      "vis_m": 1700,
      "fzfg": false,
      "metar_trigger": false,
      "taf_trigger": false,
      "metar": "METAR LOWW 250950Z 11008KT 080V140 1700 1300SW R11/P1500N R16/P1500D BR FEW001 BKN002 01/01 Q1003 TEMPO 3000 BR",
      "taf": "TAF LOWW 250815Z 2509/2615 14012KT 0500 FG VV001 TX03/2614Z TN00/2607Z"
    },
    {
      "icao": "LPFR",
      "alert": "OK",
      "vis_m": 9999,
      "fzfg": false,
      "metar_trigger": false,
      "taf_trigger": false,
      "metar": "METAR LPFR 251000Z 26014KT 9999 FEW010 FEW015CB BKN035 15/12 Q1019",
      "taf": "TAF LPFR 250500Z 2506/2606 26015KT 9999 SCT015 BKN030"
    },
    {
      "icao": "LPMA",
      "alert": "OK",
      "vis_m": 9999,
      "fzfg": false,
      "metar_trigger": false,
      "taf_trigger": false,
      "metar": "METAR LPMA 251000Z 02004KT 9999 FEW015 17/08 Q1027",
      "taf": "TAF LPMA 250500Z 2506/2606 VRB05KT 9999 SCT015"
    },
    {
      "icao": "LPPR",
      "alert": "OK",
      "vis_m": 8000,
      "fzfg": false,
      "metar_trigger": false,
      "taf_trigger": false,
      "metar": "METAR LPPR 251000Z 26006KT 220V320 8000 FEW020 SCT036 BKN048 13/09 Q1012",
      "taf": "TAF LPPR 250500Z 2506/2606 27012KT 9999 SCT020"
    },
    {
      "icao": "LPPS",
      "alert": "OK",
      "vis_m": 9999,
      "fzfg": false,
      "metar_trigger": false,
      "taf_trigger": false,
      "metar": "METAR LPPS 251000Z 27013KT 9999 FEW015 17/10 Q1027",
      "taf": "TAF LPPS 250500Z 2506/2612 27010KT 9999 SCT015"
    },
    {
      "icao": "LPPT",
      "alert": "OK",
      "vis_m": 9999,
      "fzfg": false,
      "metar_trigger": false,
      "taf_trigger": false,
      "metar": "METAR LPPT 251000Z 26013G24KT 230V290 9999 VCSH FEW012 SCT016 FEW020CB 14/12 Q1016 RESHRA",
      "taf": "TAF LPPT 250500Z 2506/2612 26012KT 9999 SCT012 BKN025"
    },
    {
      "icao": "LQBK",
      "alert": "OK",
      "vis_m": 4000,
      "fzfg": false,
      "metar_trigger": false,
      "taf_trigger": false,
      "metar": "METAR LQBK 251000Z VRB03KT 4000 BR SCT043 06/05 Q1001 BECMG 6000 NSW",
      "taf": "TAF LQBK 250500Z 2506/2606 VRB02KT 2000 BR BKN040 TX09/2513Z TN00/2506Z"
    },
    {
      "icao": "LQSA",
      "alert": "OK",
      "vis_m": 9999,
      "fzfg": false,
      "metar_trigger": false,
      "taf_trigger": false,
      "metar": "METAR LQSA 251000Z 10014G27KT 030V130 9999 SCT050 11/03 Q1002 NOSIG",
      "taf": ""
    },
    {
      "icao": "LQTZ",
      "alert": "OK",
      "vis_m": 9999,
      "fzfg": false,
      "metar_trigger": false,
      "taf_trigger": false,
      "metar": "METAR LQTZ 251000Z 12014KT 9999 FEW069 11/05 Q1002",
      "taf": ""
    },
    {
      "icao": "LRBC",
      "alert": "OK",
      "vis_m": 6000,
      "fzfg": false,
      "metar_trigger": false,
      "taf_trigger": false,
      "metar": "METAR LRBC 251000Z 15007KT 6000 OVC003 M00/M00 Q1014",
      "taf": "TAF LRBC 250800Z 2509/2518 17008KT 1500 BR OVC002"
    },
    {
      "icao": "LRBS",
      "alert": "OK",
      "vis_m": 3000,
      "fzfg": false,
      "metar_trigger": false,
      "taf_trigger": false,
      "metar": "METAR LRBS 251000Z 22005KT 170V260 3000 BR OVC002 00/M00 Q1016 NOSIG",
      "taf": ""
    },
    {
      "icao": "LRBV",
      "alert": "OK",
      "vis_m": 9999,
      "fzfg": false,
      "metar_trigger": false,
      "taf_trigger": false,
      "metar": "METAR LRBV 251000Z VRB02KT CAVOK 03/00 Q1011",
      "taf": "TAF LRBV 250800Z 2509/2518 VRB04KT CAVOK"
    },
    {
      "icao": "LRCL",
      "alert": "OK",
      "vis_m": 5000,
      "fzfg": false,
      "metar_trigger": false,
      "taf_trigger": false,
      "metar": "METAR LRCL 251000Z VRB01KT 5000 BR FEW038 03/00 Q1011",
      "taf": "TAF LRCL 250800Z 2509/2518 09006KT 3000 BR SCT005 BKN050"
    },
    {
      "icao": "LRCV",
      "alert": "OK",
      "vis_m": 900,
      "fzfg": true,
      "metar_trigger": false,
      "taf_trigger": false,
      "metar": "METAR LRCV 251000Z 17005KT 0900 R26/1500D FZFG OVC002 M00/M00 Q1014",
      "taf": "TAF LRCV 250800Z 2509/2518 VRB04KT 0600 FZFG OVC002"
    },
    {
      "icao": "LRIA",
      "alert": "OK",
      "vis_m": 300,
      "fzfg": false,
      "metar_trigger": false,
      "taf_trigger": false,
      "metar": "METAR LRIA 251000Z 11010KT 0300 R14/0600N FG VV001 00/M00 Q1015",
      "taf": "TAF LRIA 250800Z 2509/2518 11010KT 0300 FG OVC001"
    },
    {
      "icao": "LROP",
      "alert": "OK",
      "vis_m": 4000,
      "fzfg": false,
      "metar_trigger": false,
      "taf_trigger": false,
      "metar": "METAR LROP 251000Z 22006KT 180V250 4000 BR OVC002 M00/M00 Q1015 NOSIG",
      "taf": ""
    },
    {
      "icao": "LRSB",
      "alert": "OK",
      "vis_m": 9999,
      "fzfg": false,
      "metar_trigger": false,
      "taf_trigger": false,
      "metar": "METAR LRSB 251000Z 26004KT CAVOK 04/01 Q1010",
      "taf": "TAF LRSB 250500Z 2506/2606 VRB04KT 9999 SCT055"
    },
    {
      "icao": "LRSM",
      "alert": "OK",
      "vis_m": 9999,
      "fzfg": false,
      "metar_trigger": false,
      "taf_trigger": false,
      "metar": "METAR LRSM 251000Z 13006KT CAVOK 07/01 Q1010",
      "taf": "TAF LRSM 250800Z 2509/2518 12006KT 9999 BKN035"
    },
    {
      "icao": "LRSV",
      "alert": "OK",
      "vis_m": 150,
      "fzfg": true,
      "metar_trigger": false,
      "taf_trigger": false,
      "metar": "METAR LRSV 251000Z 14006KT 0150 R34/0325N FZFG VV001 M01/M01 Q1012",
      "taf": "TAF LRSV 250800Z 2509/2518 16008KT 0300 FZFG VV001"
    },
    {
      "icao": "LRTM",
      "alert": "OK",
      "vis_m": 8000,
      "fzfg": false,
      "metar_trigger": false,
      "taf_trigger": false,
      "metar": "METAR LRTM 251000Z 10001KT 8000 NSC 05/00 Q1011",
      "taf": "TAF LRTM 250800Z 2509/2518 VRB04KT 5000 BR BKN045"
    },
    {
      "icao": "LRTR",
      "alert": "OK",
      "vis_m": 9999,
      "fzfg": false,
      "metar_trigger": false,
      "taf_trigger": false,
      "metar": "METAR LRTR 251000Z 10012KT CAVOK 08/04 Q1007",
      "taf": "TAF LRTR 250500Z 2506/2606 10010KT 9999 BKN045"
    },
    {
      "icao": "LTAC",
      "alert": "OK",
      "vis_m": 9999,
      "fzfg": false,
      "metar_trigger": false,
      "taf_trigger": false,
      "metar": "METAR LTAC 250950Z VRB01KT 9999 BKN040 08/05 Q1020 NOSIG",
      "taf": "TAF LTAC 250440Z 2506/2606 VRB02KT 1200 BCFG BKN001"
    },
    {
      "icao": "LTFM",
      "alert": "OK",
      "vis_m": 9999,
      "fzfg": false,
      "metar_trigger": false,
      "taf_trigger": false,
      "metar": "METAR LTFM 250950Z 21009KT 9999 SCT035 BKN100 13/10 Q1017 NOSIG",
      "taf": "TAF LTFM 250440Z 2506/2612 22014KT 9999 BKN035"
    },
    {
      "icao": "LUKK",
      "alert": "OK",
      "vis_m": 2300,
      "fzfg": true,
      "metar_trigger": false,
      "taf_trigger": false,
      "metar": "METAR LUKK 251000Z 10009KT 2300 FZDZ BR OVC002 M02/M02 Q1017 TEMPO 0800 -FZDZ FZFG",
      "taf": ""
    },
    {
      "icao": "LWOH",
      "alert": "OK",
      "vis_m": null,
      "fzfg": false,
      "metar_trigger": false,
      "taf_trigger": false,
      "metar": "",
      "taf": "TAF LWOH 250830Z 2509/2609 VRB02KT 9999 SCT030 BKN090"
    },
    {
      "icao": "LWSK",
      "alert": "OK",
      "vis_m": 7000,
      "fzfg": false,
      "metar_trigger": false,
      "taf_trigger": false,
      "metar": "METAR LWSK 250950Z VRB01KT 7000 OVC014 05/03 Q1014 NOSIG",
      "taf": "TAF LWSK 250830Z 2509/2609 VRB02KT 5000 BR OVC015"
    },
    {
      "icao": "LYBE",
      "alert": "OK",
      "vis_m": 9999,
      "fzfg": false,
      "metar_trigger": false,
      "taf_trigger": false,
      "metar": "METAR LYBE 251000Z 14018KT CAVOK 11/05 Q1005 NOSIG",
      "taf": "TAF LYBE 250500Z 2506/2606 12007KT CAVOK TX13/2513Z TN05/2606Z"
    },
    {
      "icao": "LYNI",
      "alert": "OK",
      "vis_m": 9999,
      "fzfg": false,
      "metar_trigger": false,
      "taf_trigger": false,
      "metar": "METAR LYNI 251000Z VRB01KT 9999 FEW033 BKN090 09/06 Q1011 NOSIG",
      "taf": "TAF LYNI 250500Z 2506/2606 10006KT 9999 SCT070 TX12/2513Z TN03/2506Z"
    },
    {
      "icao": "LYPG",
      "alert": "OK",
      "vis_m": 9999,
      "fzfg": false,
      "metar_trigger": false,
      "taf_trigger": false,
      "metar": "METAR LYPG 251000Z VRB02KT 9999 FEW030 SCT050 OVC070 11/10 Q1007 NOSIG",
      "taf": "TAF LYPG 250500Z 2506/2606 16005KT 9999 FEW013 SCT040 OVC070 TX13/2513Z TN08/2605Z"
    },
    {
      "icao": "LZIB",
      "alert": "OK",
      "vis_m": 5000,
      "fzfg": false,
      "metar_trigger": false,
      "taf_trigger": false,
      "metar": "METAR LZIB 251000Z 05008KT 5000 -RA BR FEW006 BKN008 BKN014 03/02 Q1004 NOSIG",
      "taf": ""
    },
    {
      "icao": "LZKZ",
      "alert": "OK",
      "vis_m": 9999,
      "fzfg": false,
      "metar_trigger": false,
      "taf_trigger": false,
      "metar": "METAR LZKZ 251000Z VRB02KT 9999 BKN026 OVC040 04/03 Q1009 NOSIG",
      "taf": "TAF LZKZ 250515Z 2506/2606 23005KT 5000 BR SCT003 BKN030"
    },
    {
      "icao": "LZTT",
      "alert": "OK",
      "vis_m": 9999,
      "fzfg": false,
      "metar_trigger": false,
      "taf_trigger": false,
      "metar": "METAR LZTT 251000Z VRB02KT 9999 4000W PRFG FEW003 SCT023 BKN040 02/01 Q1007 NOSIG",
      "taf": "TAF LZTT 250515Z 2506/2606 15006KT 5000 BR SCT005 BKN030"
    },
    {
      "icao": "OEJN",
      "alert": "OK",
      "vis_m": 9999,
      "fzfg": false,
      "metar_trigger": false,
      "taf_trigger": false,
      "metar": "METAR OEJN 251000Z 35010KT CAVOK 30/07 Q1014 NOSIG",
      "taf": "TAF OEJN 250500Z 2506/2612 34012KT 9999 FEW040"
    },
    {
      "icao": "OEMA",
      "alert": "OK",
      "vis_m": 9999,
      "fzfg": false,
      "metar_trigger": false,
      "taf_trigger": false,
      "metar": "METAR OEMA 251000Z 02006KT CAVOK 21/M04 Q1021 NOSIG",
      "taf": "TAF OEMA 250500Z 2506/2612 09012KT 7000 NSC"
    },
    {
      "icao": "OJAI",
      "alert": "OK",
      "vis_m": 5000,
      "fzfg": false,
      "metar_trigger": false,
      "taf_trigger": false,
      "metar": "METAR OJAI 251000Z 11004KT 5000 HZ NSC 13/05 Q1023 NOSIG",
      "taf": "TAF OJAI 250500Z 2506/2612 13008KT 2000 BR FEW030"
    },
    {
      "icao": "OMAA",
      "alert": "OK",
      "vis_m": 9999,
      "fzfg": false,
      "metar_trigger": false,
      "taf_trigger": false,
      "metar": "METAR OMAA 251000Z 16013KT 9999 FEW030 24/10 Q1013 NOSIG",
      "taf": "TAF OMAA 250500Z 2506/2612 16010KT 8000 FEW045"
    },
    {
      "icao": "OMDB",
      "alert": "OK",
      "vis_m": 9999,
      "fzfg": false,
      "metar_trigger": false,
      "taf_trigger": false,
      "metar": "METAR OMDB 251000Z 21009KT CAVOK 24/12 Q1014 NOSIG",
      "taf": "TAF OMDB 250500Z 2506/2612 16012KT 8000 NSC"
    },
    {
      "icao": "UAAA",
      "alert": "OK",
      "vis_m": 3400,
      "fzfg": false,
      "metar_trigger": false,
      "taf_trigger": false,
      "metar": "METAR UAAA 251000Z 01003MPS 3400 FU SCT100 BKN200 M00/M06 Q1021 NOSIG",
      "taf": "TAF UAAA 250505Z 2506/2606 26003MPS 9999 SCT050 BKN100 TXM01/2508Z TNM07/2602Z"
    },
    {
      "icao": "UBBB",
      "alert": "OK",
      "vis_m": 9999,
      "fzfg": false,
      "metar_trigger": false,
      "taf_trigger": false,
      "metar": "METAR UBBB 251000Z 34006KT 9999 SCT013 BKN034 07/03 Q1019 NOSIG",
      "taf": "TAF UBBB 250502Z 2506/2606 33006KT 9999 SCT009 BKN025 TX07/2510Z TN02/2601Z"
    },
    {
      "icao": "UDSG",
      "alert": "OK",
      "vis_m": 200,
      "fzfg": true,
      "metar_trigger": false,
      "taf_trigger": false,
      "metar": "METAR UDSG 251000Z 16002KT 0200 R02/0225N FZFG VV002 M08/M08 Q1021 NOSIG",
      "taf": "TAF UDSG 250500Z 2506/2606 VRB06KT 0800 FZFG OVC006"
    },
    {
      "icao": "UDYZ",
      "alert": "OK",
      "vis_m": 2100,
      "fzfg": false,
      "metar_trigger": false,
      "taf_trigger": false,
      "metar": "METAR UDYZ 251000Z 25002KT 2100 R08/2000D BR BKN007 M03/M05 Q1024 NOSIG",
      "taf": "TAF UDYZ 250500Z 2506/2606 24006KT 2000 BR SCT020"
    },
    {
      "icao": "UGKO",
      "alert": "OK",
      "vis_m": 9999,
      "fzfg": false,
      "metar_trigger": false,
      "taf_trigger": false,
      "metar": "METAR UGKO 251000Z 06005KT 9999 SCT013 BKN047 OVC054 07/06 Q1021 NOSIG",
      "taf": "TAF UGKO 250500Z 2506/2606 09007KT 9999 BKN080 TX09/2511Z TN03/2604Z"
    }
  ]
}