{
  "ts_utc": "2025-12-30T05:56:04Z",
  "threshold_m": 150,
  "source": "stations_override.txt (ICAO list) + aviationweather.gov (METAR/TAF raw)",
  "station_count": 159,
  "stations": [
    {
      "icao": "BIKF",
      "alert": "OK",
      "vis_m": 9999,
      "fzfg": false,
      "metar_trigger": false,
      "taf_trigger": false,
      "metar": "METAR BIKF 300530Z 28006KT 9999 OVC025 05/03 Q1039",
      "taf": "TAF BIKF 300419Z 3006/3106 27005KT 9999 BKN019 OVC032 TX06/3021Z TN04/3006Z"
    },
    {
      "icao": "BKPR",
      "alert": "OK",
      "vis_m": null,
      "fzfg": false,
      "metar_trigger": false,
      "taf_trigger": false,
      "metar": "",
      "taf": "TAF BKPR 300530Z 3006/3106 35008KT CAVOK"
    },
    {
      "icao": "EBCI",
      "alert": "OK",
      "vis_m": 7000,
      "fzfg": false,
      "metar_trigger": false,
      "taf_trigger": false,
      "metar": "METAR EBCI 300520Z 36004KT 7000 FEW045 00/M01 Q1028 NOSIG",
      "taf": "TAF EBCI 300502Z 3006/3112 36006KT 8000 FEW012 SCT030"
    },
    {
      "icao": "EDDB",
      "alert": "OK",
      "vis_m": 9999,
      "fzfg": false,
      "metar_trigger": false,
      "taf_trigger": false,
      "metar": "METAR EDDB 300550Z AUTO 30010KT CAVOK M01/M04 Q1020 NOSIG",
      "taf": "TAF EDDB 300500Z 3006/3106 31010KT CAVOK"
    },
    {
      "icao": "EDDH",
      "alert": "OK",
      "vis_m": 9999,
      "fzfg": false,
      "metar_trigger": false,
      "taf_trigger": false,
      "metar": "METAR EDDH 300550Z AUTO 32005KT CAVOK M02/M05 Q1024 NOSIG",
      "taf": "TAF EDDH 300500Z 3006/3112 31008KT CAVOK"
    },
    {
      "icao": "EDDK",
      "alert": "OK",
      "vis_m": 700,
      "fzfg": false,
      "metar_trigger": false,
      "taf_trigger": false,
      "metar": "METAR EDDK 300550Z AUTO 34005KT 310V010 0700 0450 R31R/1100U R06/0500D FG VV002 00/00 Q1027 TEMPO 0500 FG BKN001",
      "taf": "TAF EDDK 300500Z 3006/3112 33004KT 2500 BR BKN004"
    },
    {
      "icao": "EDDN",
      "alert": "OK",
      "vis_m": 9999,
      "fzfg": false,
      "metar_trigger": false,
      "taf_trigger": false,
      "metar": "METAR EDDN 300550Z AUTO 32005KT 9999 FEW018 SCT037 M01/M02 Q1022 TEMPO 4000 -SN BR BKN008",
      "taf": "TAF EDDN 300500Z 3006/3106 30006KT 9999 FEW025"
    },
    {
      "icao": "EDDS",
      "alert": "OK",
      "vis_m": 9999,
      "fzfg": false,
      "metar_trigger": false,
      "taf_trigger": false,
      "metar": "METAR EDDS 300550Z AUTO VRB01KT 9999 BKN006 OVC041 M01/M03 Q1022 NOSIG",
      "taf": "TAF EDDS 300500Z 3006/3106 VRB02KT 9999 OVC015"
    },
    {
      "icao": "EDFH",
      "alert": "OK",
      "vis_m": 9999,
      "fzfg": false,
      "metar_trigger": false,
      "taf_trigger": false,
      "metar": "METAR EDFH 300520Z 36005KT 330V030 CAVOK M01/M02 Q1024",
      "taf": "TAF EDFH 300500Z 3006/3106 35006KT 9999 BKN030"
    },
    {
      "icao": "EDJA",
      "alert": "OK",
      "vis_m": 7000,
      "fzfg": false,
      "metar_trigger": false,
      "taf_trigger": false,
      "metar": "METAR EDJA 300520Z 25004KT 210V290 7000 FEW006 BKN014 OVC032 M04/M05 Q1021",
      "taf": "TAF EDJA 300500Z 3006/3015 25006KT 7000 FEW009 BKN020"
    },
    {
      "icao": "EDLW",
      "alert": "OK",
      "vis_m": 9999,
      "fzfg": false,
      "metar_trigger": false,
      "taf_trigger": false,
      "metar": "METAR EDLW 300520Z 29003KT CAVOK M00/M01 Q1025",
      "taf": "TAF EDLW 300500Z 3006/3106 29004KT 9999 SCT030"
    },
    {
      "icao": "EDNY",
      "alert": "OK",
      "vis_m": 9999,
      "fzfg": false,
      "metar_trigger": false,
      "taf_trigger": false,
      "metar": "METAR EDNY 300520Z VRB02KT 9999 BKN037 M02/M04 Q1023",
      "taf": "TAF EDNY 300500Z 3006/3015 VRB02KT 9999 OVC030"
    },
    {
      "icao": "EDSB",
      "alert": "OK",
      "vis_m": 4400,
      "fzfg": false,
      "metar_trigger": false,
      "taf_trigger": false,
      "metar": "METAR EDSB 300520Z COR 20003KT 4400 -SN BR OVC016 M02/M03 Q1025",
      "taf": "TAF EDSB 300500Z 3006/3106 20004KT 9999 BKN030"
    },
    {
      "icao": "EETN",
      "alert": "OK",
      "vis_m": 7000,
      "fzfg": false,
      "metar_trigger": false,
      "taf_trigger": false,
      "metar": "METAR EETN 300550Z 01013G23KT 330V030 7000 -SHSN DRSN SCT018CB OVC028 M04/M07 Q0997 TEMPO 01016G26KT 2000 SHSN",
      "taf": "TAF EETN 300530Z 3006/3106 01016G30KT 9999 FEW018CB BKN025"
    },
    {
      "icao": "EFTU",
      "alert": "OK",
      "vis_m": 9999,
      "fzfg": false,
      "metar_trigger": false,
      "taf_trigger": false,
      "metar": "METAR EFTU 300550Z AUTO 02011KT 340V060 9999 BKN033 BKN047 M02/M08 Q1002",
      "taf": "TAF EFTU 300521Z 3006/3106 36015KT 9999 -SHSN BKN025"
    },
    {
      "icao": "EGBB",
      "alert": "OK",
      "vis_m": 9000,
      "fzfg": false,
      "metar_trigger": false,
      "taf_trigger": false,
      "metar": "METAR EGBB 300550Z 02004KT 9000 SCT024 03/02 Q1034",
      "taf": "TAF EGBB 300455Z 3006/3106 02006KT 9999 BKN030"
    },
    {
      "icao": "EGGP",
      "alert": "OK",
      "vis_m": 9999,
      "fzfg": false,
      "metar_trigger": false,
      "taf_trigger": false,
      "metar": "METAR EGGP 300550Z 02005KT 9999 BKN041 02/00 Q1035",
      "taf": "TAF EGGP 300453Z 3006/3106 01005KT 9999 BKN035"
    },
    {
      "icao": "EGGW",
      "alert": "OK",
      "vis_m": 9999,
      "fzfg": false,
      "metar_trigger": false,
      "taf_trigger": false,
      "metar": "METAR EGGW 300550Z AUTO 03005KT 9999 OVC039 02/02 Q1032",
      "taf": "TAF EGGW 300455Z 3006/3106 03008KT 9999 FEW036"
    },
    {
      "icao": "EGKK",
      "alert": "OK",
      "vis_m": 9999,
      "fzfg": false,
      "metar_trigger": false,
      "taf_trigger": false,
      "metar": "METAR EGKK 300550Z 05004KT 9999 FEW039 03/01 Q1031",
      "taf": "TAF EGKK 300453Z 3006/3112 03006KT 9999 SCT035"
    },
    {
      "icao": "EGNM",
      "alert": "OK",
      "vis_m": 9999,
      "fzfg": false,
      "metar_trigger": false,
      "taf_trigger": false,
      "metar": "METAR EGNM 300550Z 01005KT 9999 SCT029 BKN038 03/01 Q1034",
      "taf": "TAF EGNM 300523Z 3006/3106 01005KT 9999 SCT035"
    },
    {
      "icao": "EGPD",
      "alert": "OK",
      "vis_m": 9999,
      "fzfg": false,
      "metar_trigger": false,
      "taf_trigger": false,
      "metar": "METAR EGPD 300550Z COR AUTO 30007KT 9999 OVC036 03/M00 Q1037 NOSIG",
      "taf": "TAF EGPD 300452Z 3006/3106 30006KT 9999 FEW020 SCT035"
    },
    {
      "icao": "EGPF",
      "alert": "OK",
      "vis_m": 5000,
      "fzfg": false,
      "metar_trigger": false,
      "taf_trigger": false,
      "metar": "METAR EGPF 300550Z 27001KT 5000 BCFG NSC M03/M04 Q1038",
      "taf": "TAF EGPF 300454Z 3006/3106 VRB04KT 9999 FEW035"
    },
    {
      "icao": "EHBK",
      "alert": "OK",
      "vis_m": 9999,
      "fzfg": false,
      "metar_trigger": false,
      "taf_trigger": false,
      "metar": "METAR EHBK 300525Z AUTO 34005KT 9999 SCT047/// 01/M00 Q1027 NOSIG",
      "taf": "TAF EHBK 300508Z 3006/3112 34005KT 9999 FEW040"
    },
    {
      "icao": "EHEH",
      "alert": "OK",
      "vis_m": 9999,
      "fzfg": false,
      "metar_trigger": false,
      "taf_trigger": false,
      "metar": "METAR EHEH 300525Z AUTO 33005KT 310V020 9999 BKN051 M00/M01 Q1028 BLU",
      "taf": "TAF EHEH 292353Z 3000/3106 34004KT 9000 BKN040"
    },
    {
      "icao": "EKBI",
      "alert": "OK",
      "vis_m": 9999,
      "fzfg": false,
      "metar_trigger": false,
      "taf_trigger": false,
      "metar": "METAR EKBI 300550Z AUTO 30003KT 9999 NCD M06/M08 Q1025",
      "taf": "TAF EKBI 300527Z 3006/3106 32008KT 9999 SCT040"
    },
    {
      "icao": "EKCH",
      "alert": "OK",
      "vis_m": 9999,
      "fzfg": false,
      "metar_trigger": false,
      "taf_trigger": false,
      "metar": "METAR EKCH 300550Z AUTO 33013KT 300V360 9999 NCD 00/M06 Q1020 TEMPO 35018G28KT",
      "taf": "TAF EKCH 300527Z 3006/3106 32012KT CAVOK"
    },
    {
      "icao": "ENAL",
      "alert": "OK",
      "vis_m": 9999,
      "fzfg": false,
      "metar_trigger": false,
      "taf_trigger": false,
      "metar": "METAR ENAL 300520Z 29011KT 260V320 9999 -SN BKN023 00/M02 Q1029",
      "taf": "TAF ENAL 300500Z 3006/3015 34012KT 9999 FEW008 SCT020CB"
    },
    {
      "icao": "ENBR",
      "alert": "OK",
      "vis_m": 9999,
      "fzfg": false,
      "metar_trigger": false,
      "taf_trigger": false,
      "metar": "METAR ENBR 300520Z 06002KT 9999 FEW040 M02/M05 Q1029 NOSIG RMK WIND 1200FT 35014KT",
      "taf": "TAF ENBR 300500Z 3006/3106 36008KT 9999 FEW030 SCT050"
    },
    {
      "icao": "ENGM",
      "alert": "OK",
      "vis_m": 9999,
      "fzfg": false,
      "metar_trigger": false,
      "taf_trigger": false,
      "metar": "METAR ENGM 300520Z 34006KT 300V020 CAVOK M03/M11 Q1021 NOSIG",
      "taf": "TAF ENGM 300500Z 3006/3106 33010KT CAVOK"
    },
    {
      "icao": "ENHD",
      "alert": "OK",
      "vis_m": 9999,
      "fzfg": false,
      "metar_trigger": false,
      "taf_trigger": false,
      "metar": "METAR ENHD 300520Z 03010KT 9999 SCT043 02/M04 Q1030",
      "taf": "TAF ENHD 300500Z 3006/3015 02008KT 9999 FEW030 SCT040"
    },
    {
      "icao": "ENTC",
      "alert": "OK",
      "vis_m": 900,
      "fzfg": false,
      "metar_trigger": false,
      "taf_trigger": false,
      "metar": "METAR ENTC 300520Z VRB02KT 0900 R36/P2000N R18/P2000D SN VV013 M06/M07 Q1013 RMK WIND 2600FT 35023KT",
      "taf": "TAF ENTC 300500Z 3006/3106 01008KT 8000 -SHSN FEW008 SCT020CB BKN030"
    },
    {
      "icao": "ENTO",
      "alert": "OK",
      "vis_m": 9999,
      "fzfg": false,
      "metar_trigger": false,
      "taf_trigger": false,
      "metar": "METAR ENTO 300520Z 32005KT 290V350 CAVOK M02/M11 Q1023 NOSIG",
      "taf": "TAF ENTO 300500Z 3006/3106 32010KT CAVOK"
    },
    {
      "icao": "ENVA",
      "alert": "OK",
      "vis_m": 9999,
      "fzfg": false,
      "metar_trigger": false,
      "taf_trigger": false,
      "metar": "METAR ENVA 300520Z 32006KT 9999 VCSH FEW014 BKN030 M03/M03 Q1023 TEMPO 0500 SHSN VV005 RMK WIND 670FT 30011KT",
      "taf": "TAF ENVA 300500Z 3006/3106 30009KT 9999 -SHSN SCT015CB BKN025"
    },
    {
      "icao": "ENZV",
      "alert": "OK",
      "vis_m": 9999,
      "fzfg": false,
      "metar_trigger": false,
      "taf_trigger": false,
      "metar": "METAR ENZV 300520Z 34008KT CAVOK 01/M04 Q1030 NOSIG",
      "taf": "TAF ENZV 300500Z 3006/3106 35005KT CAVOK"
    },
    {
      "icao": "EPGD",
      "alert": "OK",
      "vis_m": 9999,
      "fzfg": false,
      "metar_trigger": false,
      "taf_trigger": false,
      "metar": "METAR EPGD 300530Z 32015KT 9999 FEW035 SCT046 M01/M07 Q1009",
      "taf": "TAF EPGD 300530Z 3006/3106 32018KT 9999 SCT040"
    },
    {
      "icao": "EPKK",
      "alert": "OK",
      "vis_m": 9999,
      "fzfg": false,
      "metar_trigger": false,
      "taf_trigger": false,
      "metar": "METAR EPKK 300530Z 28012KT 9999 FEW024 SCT045 M02/M06 Q1011",
      "taf": "TAF EPKK 300530Z 3006/3106 28013KT 9999 SCT035"
    },
    {
      "icao": "EPKT",
      "alert": "OK",
      "vis_m": 9999,
      "fzfg": false,
      "metar_trigger": false,
      "taf_trigger": false,
      "metar": "METAR EPKT 300530Z 28012KT 9999 FEW020 M03/M06 Q1011",
      "taf": "TAF EPKT 300530Z 3006/3106 30012KT 9999 SCT040"
    },
    {
      "icao": "EPLB",
      "alert": "OK",
      "vis_m": 9999,
      "fzfg": false,
      "metar_trigger": false,
      "taf_trigger": false,
      "metar": "METAR EPLB 300530Z 28012KT 9999 SCT027 M04/M07 Q1004",
      "taf": "TAF EPLB 300530Z 3006/3106 28014KT 9999 SCT040"
    },
    {
      "icao": "EPMO",
      "alert": "OK",
      "vis_m": 9999,
      "fzfg": false,
      "metar_trigger": false,
      "taf_trigger": false,
      "metar": "METAR EPMO 300530Z 29017KT 9999 -SN SCT012 M03/M04 Q1007",
      "taf": "TAF EPMO 300530Z 3006/3106 28012KT 9999 BKN030"
    },
    {
      "icao": "EPPO",
      "alert": "OK",
      "vis_m": 9999,
      "fzfg": false,
      "metar_trigger": false,
      "taf_trigger": false,
      "metar": "METAR EPPO 300530Z 30009KT CAVOK M03/M07 Q1014",
      "taf": "TAF EPPO 300530Z 3006/3106 32010KT CAVOK"
    },
    {
      "icao": "EPRA",
      "alert": "OK",
      "vis_m": 9999,
      "fzfg": false,
      "metar_trigger": false,
      "taf_trigger": false,
      "metar": "METAR EPRA 300530Z 31012KT 270V330 CAVOK M03/M08 Q1007",
      "taf": "TAF EPRA 300530Z 3006/3015 30014KT 9999 BKN040"
    },
    {
      "icao": "EPRZ",
      "alert": "OK",
      "vis_m": 9999,
      "fzfg": false,
      "metar_trigger": false,
      "taf_trigger": false,
      "metar": "METAR EPRZ 300530Z 26013KT 9999 FEW043 M04/M06 Q1008",
      "taf": "TAF EPRZ 300530Z 3006/3106 27013KT 9999 SCT030"
    },
    {
      "icao": "EPSC",
      "alert": "OK",
      "vis_m": 9999,
      "fzfg": false,
      "metar_trigger": false,
      "taf_trigger": false,
      "metar": "METAR EPSC 300530Z 29009KT CAVOK M03/M07 Q1017",
      "taf": "TAF EPSC 300530Z 3006/3106 30010KT CAVOK"
    },
    {
      "icao": "EPSY",
      "alert": "OK",
      "vis_m": 1000,
      "fzfg": false,
      "metar_trigger": false,
      "taf_trigger": false,
      "metar": "METAR EPSY 300530Z 34016G29KT 300V020 1000 R01/1200U +SHSN BKN004 BKN012CB M03/M03 Q1005",
      "taf": "TAF EPSY 300530Z 3006/3015 33014KT 9999 SCT030"
    },
    {
      "icao": "EPWA",
      "alert": "OK",
      "vis_m": 9999,
      "fzfg": false,
      "metar_trigger": false,
      "taf_trigger": false,
      "metar": "METAR EPWA 300530Z 30017KT 9999 -SN BKN017 M02/M05 Q1007 TEMPO BKN014",
      "taf": "TAF EPWA 300530Z 3006/3106 28012KT 9999 BKN025"
    },
    {
      "icao": "EPWR",
      "alert": "OK",
      "vis_m": 9999,
      "fzfg": false,
      "metar_trigger": false,
      "taf_trigger": false,
      "metar": "METAR EPWR 300530Z 29014KT CAVOK M02/M06 Q1015",
      "taf": "TAF EPWR 300530Z 3006/3106 32014KT CAVOK"
    },
    {
      "icao": "ESGG",
      "alert": "OK",
      "vis_m": 9999,
      "fzfg": false,
      "metar_trigger": false,
      "taf_trigger": false,
      "metar": "METAR ESGG 300550Z 34010KT CAVOK M02/M10 Q1019",
      "taf": "TAF ESGG 300530Z 3006/3106 34010KT CAVOK"
    },
    {
      "icao": "ESKN",
      "alert": "OK",
      "vis_m": 9999,
      "fzfg": false,
      "metar_trigger": false,
      "taf_trigger": false,
      "metar": "METAR ESKN 300550Z 33018G30KT CAVOK M02/M09 Q1012",
      "taf": "TAF ESKN 300530Z 3006/3106 32015G25KT CAVOK"
    },
    {
      "icao": "ESMS",
      "alert": "OK",
      "vis_m": 9999,
      "fzfg": false,
      "metar_trigger": false,
      "taf_trigger": false,
      "metar": "METAR ESMS 300550Z 33010KT CAVOK M02/M07 Q1018",
      "taf": "TAF ESMS 300527Z 3006/3106 33010KT CAVOK"
    },
    {
      "icao": "ESSA",
      "alert": "OK",
      "vis_m": 9999,
      "fzfg": false,
      "metar_trigger": false,
      "taf_trigger": false,
      "metar": "METAR ESSA 300550Z 33018G29KT 9999 -SN FEW008 SCT024 M03/M09 Q1010 TEMPO 3000 SHSN SCT040TCU",
      "taf": "TAF ESSA 300530Z 3006/3106 32018G30KT CAVOK"
    },
    {
      "icao": "EYKA",
      "alert": "OK",
      "vis_m": 9999,
      "fzfg": false,
      "metar_trigger": false,
      "taf_trigger": false,
      "metar": "METAR EYKA 300550Z 27012KT 9999 OVC016 M04/M06 Q0997",
      "taf": ""
    },
    {
      "icao": "EYPA",
      "alert": "OK",
      "vis_m": 1200,
      "fzfg": false,
      "metar_trigger": false,
      "taf_trigger": false,
      "metar": "METAR EYPA 300550Z 35012G26KT 300V060 1200 R01/1300U +SHSN BKN005 BKN009 BKN016CB M01/M02 Q1001",
      "taf": "TAF EYPA 300510Z 3006/3106 36014KT 9000 BKN025"
    },
    {
      "icao": "EYVI",
      "alert": "OK",
      "vis_m": 9999,
      "fzfg": false,
      "metar_trigger": false,
      "taf_trigger": false,
      "metar": "METAR EYVI 300550Z 28009KT 9999 -SHSN BKN018CB M04/M07 Q0995 NOSIG",
      "taf": "TAF EYVI 300510Z 3006/3106 30013KT 8000 SCT015 BKN035"
    },
    {
      "icao": "GCFV",
      "alert": "OK",
      "vis_m": 9999,
      "fzfg": false,
      "metar_trigger": false,
      "taf_trigger": false,
      "metar": "METAR GCFV 300530Z AUTO 28007KT CAVOK 13/11 Q1021",
      "taf": "TAF GCFV 300200Z 3003/3103 29004KT 9999 FEW030 TX21/3014Z TN14/3006Z"
    },
    {
      "icao": "GCLP",
      "alert": "OK",
      "vis_m": 9999,
      "fzfg": false,
      "metar_trigger": false,
      "taf_trigger": false,
      "metar": "METAR GCLP 300530Z 27006KT 9999 FEW020 15/12 Q1021 NOSIG",
      "taf": "TAF GCLP 300200Z 3003/3103 28004KT 9999 FEW030 TX22/3014Z TN15/3006Z"
    },
    {
      "icao": "GCTS",
      "alert": "OK",
      "vis_m": 9999,
      "fzfg": false,
      "metar_trigger": false,
      "taf_trigger": false,
      "metar": "METAR GCTS 300530Z 36005KT 9999 FEW020 15/11 Q1021 NOSIG",
      "taf": "TAF GCTS 300200Z 3003/3103 35005KT 9999 SCT030 TX24/3014Z TN16/3006Z"
    },
    {
      "icao": "GMAD",
      "alert": "OK",
      "vis_m": 9999,
      "fzfg": false,
      "metar_trigger": false,
      "taf_trigger": false,
      "metar": "METAR GMAD 300530Z 09005KT 9999 FEW026 08/08 Q1020 NOSIG",
      "taf": "TAF GMAD 300500Z 3006/3112 06005KT 8000 SCT020"
    },
    {
      "icao": "GMMN",
      "alert": "OK",
      "vis_m": 5000,
      "fzfg": false,
      "metar_trigger": false,
      "taf_trigger": false,
      "metar": "SPECI GMMN 300549Z 17004KT 5000 FEW005 SCT016 06/05 Q1021 NOSIG",
      "taf": "TAF GMMN 300500Z 3006/3112 18003KT 3000 BR FEW005 SCT016"
    },
    {
      "icao": "GMMX",
      "alert": "OK",
      "vis_m": 8000,
      "fzfg": false,
      "metar_trigger": false,
      "taf_trigger": false,
      "metar": "METAR GMMX 300530Z VRB02KT 8000 SCT020 SCT090 09/06 Q1020 NOSIG",
      "taf": "TAF GMMX 300500Z 3006/3112 10006KT 8000 SCT020 SCT090"
    },
    {
      "icao": "HEGN",
      "alert": "OK",
      "vis_m": 9999,
      "fzfg": false,
      "metar_trigger": false,
      "taf_trigger": false,
      "metar": "METAR HEGN 300500Z 30010KT CAVOK 13/05 Q1021 NOSIG",
      "taf": "TAF HEGN 300500Z 3006/3112 34012KT CAVOK"
    },
    {
      "icao": "HEMA",
      "alert": "OK",
      "vis_m": 9999,
      "fzfg": false,
      "metar_trigger": false,
      "taf_trigger": false,
      "metar": "METAR HEMA 300500Z 31011KT CAVOK 17/08 Q1020 NOSIG",
      "taf": "TAF HEMA 300500Z 3006/3112 35012KT CAVOK"
    },
    {
      "icao": "HESH",
      "alert": "OK",
      "vis_m": 9999,
      "fzfg": false,
      "metar_trigger": false,
      "taf_trigger": false,
      "metar": "METAR HESH 300500Z 35003KT CAVOK 17/04 Q1019 NOSIG",
      "taf": "TAF HESH 300500Z 3006/3112 35012KT CAVOK"
    },
    {
      "icao": "HESX",
      "alert": "OK",
      "vis_m": 9999,
      "fzfg": false,
      "metar_trigger": false,
      "taf_trigger": false,
      "metar": "METAR HESX 300500Z 13003KT 9999 FEW030 BKN100 12/10 Q1020 NOSIG",
      "taf": "TAF HESX 300500Z 3006/3112 23009KT 9999 SCT030 SCT100"
    },
    {
      "icao": "LATI",
      "alert": "OK",
      "vis_m": 9999,
      "fzfg": false,
      "metar_trigger": false,
      "taf_trigger": false,
      "metar": "METAR LATI 300550Z 16006KT 9999 BKN032 01/M03 Q1013 NOSIG",
      "taf": "TAF LATI 300500Z 3006/3106 VRB05KT CAVOK TX15/3012Z TNM02/3105Z"
    },
    {
      "icao": "LBPD",
      "alert": "OK",
      "vis_m": 9999,
      "fzfg": false,
      "metar_trigger": false,
      "taf_trigger": false,
      "metar": "METAR LBPD 300530Z AUTO 11004KT 070V150 9999 NCD M03/M05 Q1008 NOSIG",
      "taf": "TAF LBPD 300500Z 3006/3106 VRB04KT CAVOK"
    },
    {
      "icao": "LBSF",
      "alert": "OK",
      "vis_m": 9999,
      "fzfg": false,
      "metar_trigger": false,
      "taf_trigger": false,
      "metar": "METAR LBSF 300530Z 17003KT 120V270 CAVOK M07/M08 Q1009 NOSIG",
      "taf": "TAF LBSF 300500Z 3006/3106 VRB04KT CAVOK"
    },
    {
      "icao": "LBWN",
      "alert": "OK",
      "vis_m": 9999,
      "fzfg": false,
      "metar_trigger": false,
      "taf_trigger": false,
      "metar": "METAR LBWN 300530Z AUTO 29006KT 9999 NCD M03/M08 Q1006 NOSIG",
      "taf": "TAF LBWN 300500Z 3006/3106 29008KT CAVOK"
    },
    {
      "icao": "LCLK",
      "alert": "OK",
      "vis_m": 9999,
      "fzfg": false,
      "metar_trigger": false,
      "taf_trigger": false,
      "metar": "METAR LCLK 300530Z 33004KT 9999 FEW040 05/02 Q1019 NOSIG",
      "taf": "TAF LCLK 300530Z 3006/3106 33010KT 9999 FEW025"
    },
    {
      "icao": "LCPH",
      "alert": "OK",
      "vis_m": 9999,
      "fzfg": false,
      "metar_trigger": false,
      "taf_trigger": false,
      "metar": "METAR LCPH 300530Z 06008KT 010V080 9999 FEW025 08/02 Q1019 NOSIG",
      "taf": "TAF LCPH 300530Z 3006/3106 07008KT 9999 FEW020"
    },
    {
      "icao": "LEAL",
      "alert": "OK",
      "vis_m": 9999,
      "fzfg": false,
      "metar_trigger": false,
      "taf_trigger": false,
      "metar": "METAR LEAL 300530Z 25006KT CAVOK 08/08 Q1019 NOSIG",
      "taf": "TAF LEAL 300500Z 3006/3106 29008KT CAVOK TX18/3014Z TN07/3006Z"
    },
    {
      "icao": "LEBB",
      "alert": "OK",
      "vis_m": 9999,
      "fzfg": false,
      "metar_trigger": false,
      "taf_trigger": false,
      "metar": "METAR LEBB 300530Z 08004KT 9999 SCT024 BKN040 08/07 Q1021 NOSIG",
      "taf": "TAF LEBB 300500Z 3006/3106 VRB03KT 9999 SCT020 BKN030 TX12/3014Z TN05/3006Z"
    },
    {
      "icao": "LEBL",
      "alert": "OK",
      "vis_m": 9999,
      "fzfg": false,
      "metar_trigger": false,
      "taf_trigger": false,
      "metar": "METAR LEBL 300530Z 31009KT CAVOK 08/07 Q1017 NOSIG",
      "taf": "TAF LEBL 300500Z 3006/3106 32008KT 9999 FEW020 TX15/3012Z TN07/3007Z"
    },
    {
      "icao": "LECH",
      "alert": "OK",
      "vis_m": 9999,
      "fzfg": false,
      "metar_trigger": false,
      "taf_trigger": false,
      "metar": "METAR LECH 300530Z AUTO 18003KT 160V260 CAVOK 04/04 Q1018",
      "taf": ""
    },
    {
      "icao": "LEMD",
      "alert": "OK",
      "vis_m": 9999,
      "fzfg": false,
      "metar_trigger": false,
      "taf_trigger": false,
      "metar": "METAR LEMD 300530Z VRB01KT CAVOK M01/M01 Q1020 NOSIG",
      "taf": "TAF LEMD 300500Z 3006/3112 VRB04KT CAVOK TX11/3015Z TNM02/3107Z"
    },
    {
      "icao": "LEMG",
      "alert": "OK",
      "vis_m": 9999,
      "fzfg": false,
      "metar_trigger": false,
      "taf_trigger": false,
      "metar": "METAR LEMG 300530Z 31006KT CAVOK 06/05 Q1021 NOSIG",
      "taf": "TAF LEMG 300500Z 3006/3106 30009KT CAVOK TX18/3014Z TN06/3006Z"
    },
    {
      "icao": "LEVC",
      "alert": "OK",
      "vis_m": 9999,
      "fzfg": false,
      "metar_trigger": false,
      "taf_trigger": false,
      "metar": "METAR LEVC 300530Z 30002KT CAVOK 06/06 Q1019 NOSIG",
      "taf": "TAF LEVC 300500Z 3006/3106 29006KT CAVOK TX17/3014Z TN04/3106Z"
    },
    {
      "icao": "LEXJ",
      "alert": "OK",
      "vis_m": 9000,
      "fzfg": false,
      "metar_trigger": false,
      "taf_trigger": false,
      "metar": "METAR LEXJ 300530Z VRB02KT 9000 BKN018 BKN040 08/06 Q1022",
      "taf": "TAF LEXJ 300200Z 3003/3103 22007KT 9999 SCT015 BKN025 TX12/3015Z TN07/3003Z"
    },
    {
      "icao": "LEZG",
      "alert": "OK",
      "vis_m": 9999,
      "fzfg": false,
      "metar_trigger": false,
      "taf_trigger": false,
      "metar": "METAR LEZG 300530Z 31003KT 260V350 CAVOK 04/04 Q1019 NOSIG",
      "taf": "TAF LEZG 300500Z 3006/3106 29008KT 9999 FEW010 TX12/3014Z TN04/3006Z"
    },
    {
      "icao": "LEZL",
      "alert": "OK",
      "vis_m": 5000,
      "fzfg": false,
      "metar_trigger": false,
      "taf_trigger": false,
      "metar": "SPECI LEZL 300551Z 00000KT 5000 0700W R27/P2000 R09/1400D PRFG VV004 06/06 Q1021 NOSIG",
      "taf": "TAF LEZL 300200Z 3003/3103 05006KT CAVOK TX16/3015Z TN06/3006Z"
    },
    {
      "icao": "LFBD",
      "alert": "OK",
      "vis_m": 3200,
      "fzfg": false,
      "metar_trigger": false,
      "taf_trigger": false,
      "metar": "METAR LFBD 300530Z AUTO 01008KT 3200 BR OVC002 01/01 Q1022 BECMG 9999 NSW BKN008",
      "taf": "TAF LFBD 300500Z 3006/3112 36005KT 3000 BR OVC002 TX05/3014Z TNM02/3106Z"
    },
    {
      "icao": "LFLL",
      "alert": "OK",
      "vis_m": 5000,
      "fzfg": false,
      "metar_trigger": false,
      "taf_trigger": false,
      "metar": "METAR LFLL 300530Z 34010KT 5000 BR OVC005 M01/M02 Q1021 NOSIG",
      "taf": "TAF LFLL 300500Z 3006/3112 36005KT 9999 OVC009"
    },
    {
      "icao": "LFLS",
      "alert": "OK",
      "vis_m": 5000,
      "fzfg": false,
      "metar_trigger": false,
      "taf_trigger": false,
      "metar": "METAR LFLS 300530Z AUTO 34008KT 5000 BR OVC005 M02/M02 Q1019 NOSIG",
      "taf": "TAF LFLS 300200Z 3003/3103 35005KT 7000 OVC006"
    },
    {
      "icao": "LFMN",
      "alert": "OK",
      "vis_m": 9999,
      "fzfg": false,
      "metar_trigger": false,
      "taf_trigger": false,
      "metar": "METAR LFMN 300530Z 33015KT CAVOK 05/M03 Q1012 NOSIG",
      "taf": "TAF LFMN 300200Z 3003/3109 33010KT CAVOK"
    },
    {
      "icao": "LFOB",
      "alert": "OK",
      "vis_m": 6000,
      "fzfg": false,
      "metar_trigger": false,
      "taf_trigger": false,
      "metar": "METAR LFOB 300530Z AUTO 03008KT 6000 BKN005 BKN140 01/01 Q1028",
      "taf": "TAF LFOB 300500Z 3006/3106 02008KT 9999 BKN005"
    },
    {
      "icao": "LFPO",
      "alert": "OK",
      "vis_m": 9999,
      "fzfg": false,
      "metar_trigger": false,
      "taf_trigger": false,
      "metar": "METAR LFPO 300530Z 02007KT 9999 BKN006 OVC033 03/02 Q1027 NOSIG",
      "taf": "TAF LFPO 300500Z 3006/3112 02007KT 9999 BKN035"
    },
    {
      "icao": "LFSB",
      "alert": "OK",
      "vis_m": 9000,
      "fzfg": false,
      "metar_trigger": false,
      "taf_trigger": false,
      "metar": "METAR LFSB 300530Z AUTO 04004KT 020V080 9000 FEW017 M03/M04 Q1024 TEMPO 0500 -SN VV///",
      "taf": "TAF LFSB 300500Z 3006/3106 VRB03KT 8000 SCT018"
    },
    {
      "icao": "LGAV",
      "alert": "OK",
      "vis_m": 9999,
      "fzfg": false,
      "metar_trigger": false,
      "taf_trigger": false,
      "metar": "METAR LGAV 300550Z VRB01KT 9999 FEW015 07/05 Q1013 NOSIG",
      "taf": "TAF LGAV 300500Z 3006/3106 25010KT 9999 FEW025"
    },
    {
      "icao": "LGTS",
      "alert": "OK",
      "vis_m": 9999,
      "fzfg": false,
      "metar_trigger": false,
      "taf_trigger": false,
      "metar": "METAR LGTS 300520Z 11006KT CAVOK M01/M05 Q1012 NOSIG",
      "taf": "TAF LGTS 300500Z 3006/3106 VRB03KT CAVOK"
    },
    {
      "icao": "LHBP",
      "alert": "OK",
      "vis_m": 9999,
      "fzfg": false,
      "metar_trigger": false,
      "taf_trigger": false,
      "metar": "METAR LHBP 300530Z 30016KT 9999 BKN020 BKN040 01/M03 Q1012 NOSIG",
      "taf": "TAF LHBP 300515Z 3006/3106 31015G27KT 9999 SCT040"
    },
    {
      "icao": "LHDC",
      "alert": "OK",
      "vis_m": 8000,
      "fzfg": false,
      "metar_trigger": false,
      "taf_trigger": false,
      "metar": "METAR LHDC 300515Z AUTO 20004KT 170V230 8000 NSC M04/M05 Q1010 NOSIG",
      "taf": "TAF LHDC 300515Z 3006/3015 VRB03KT CAVOK"
    },
    {
      "icao": "LIBD",
      "alert": "OK",
      "vis_m": 9999,
      "fzfg": false,
      "metar_trigger": false,
      "taf_trigger": false,
      "metar": "METAR LIBD 300520Z 21006KT CAVOK 03/02 Q1012",
      "taf": "TAF LIBD 300500Z 3006/3106 20006KT 9999 SCT030"
    },
    {
      "icao": "LIBG",
      "alert": "OK",
      "vis_m": null,
      "fzfg": false,
      "metar_trigger": false,
      "taf_trigger": false,
      "metar": "",
      "taf": ""
    },
    {
      "icao": "LIBP",
      "alert": "OK",
      "vis_m": 9999,
      "fzfg": false,
      "metar_trigger": false,
      "taf_trigger": false,
      "metar": "METAR LIBP 300520Z AUTO 22006KT 9999 NCD M00/M01 Q1013",
      "taf": "TAF LIBP 300500Z 3006/3106 VRB05KT 1200 BCFG FEW030"
    },
    {
      "icao": "LIBR",
      "alert": "OK",
      "vis_m": 9999,
      "fzfg": false,
      "metar_trigger": false,
      "taf_trigger": false,
      "metar": "METAR LIBR 300520Z 16005KT CAVOK 08/05 Q1012",
      "taf": "TAF LIBR 300500Z 3006/3106 23006KT 9999 FEW025"
    },
    {
      "icao": "LICA",
      "alert": "OK",
      "vis_m": 9999,
      "fzfg": false,
      "metar_trigger": false,
      "taf_trigger": false,
      "metar": "METAR LICA 300520Z AUTO 08003KT 9999 OVC035/// 08/08 Q1013",
      "taf": "TAF LICA 300500Z 3006/3106 07006KT 9999 SCT030"
    },
    {
      "icao": "LICC",
      "alert": "OK",
      "vis_m": 9999,
      "fzfg": false,
      "metar_trigger": false,
      "taf_trigger": false,
      "metar": "METAR LICC 300520Z VRB01KT 9999 BKN080 09/07 Q1013",
      "taf": "TAF LICC 300500Z 3006/3106 26010KT 9999 SCT030"
    },
    {
      "icao": "LICJ",
      "alert": "OK",
      "vis_m": 9999,
      "fzfg": false,
      "metar_trigger": false,
      "taf_trigger": false,
      "metar": "METAR LICJ 300520Z 19006KT CAVOK 11/08 Q1014",
      "taf": "TAF LICJ 300500Z 3006/3106 17006KT 9999 SCT020"
    },
    {
      "icao": "LIMC",
      "alert": "OK",
      "vis_m": 9999,
      "fzfg": false,
      "metar_trigger": false,
      "taf_trigger": false,
      "metar": "METAR LIMC 300520Z 01005KT CAVOK M02/M03 Q1011 NOSIG",
      "taf": "TAF LIMC 300500Z 3006/3112 VRB04KT CAVOK"
    },
    {
      "icao": "LIME",
      "alert": "OK",
      "vis_m": 9999,
      "fzfg": false,
      "metar_trigger": false,
      "taf_trigger": false,
      "metar": "METAR LIME 300520Z 02003KT CAVOK 00/M03 Q1011 NOSIG",
      "taf": "TAF LIME 300500Z 3006/3106 VRB04KT CAVOK"
    },
    {
      "icao": "LIMF",
      "alert": "OK",
      "vis_m": 9999,
      "fzfg": false,
      "metar_trigger": false,
      "taf_trigger": false,
      "metar": "METAR LIMF 300520Z VRB02KT CAVOK 00/M04 Q1011",
      "taf": "TAF LIMF 300500Z 3006/3106 VRB05KT CAVOK"
    },
    {
      "icao": "LIMJ",
      "alert": "OK",
      "vis_m": 9999,
      "fzfg": false,
      "metar_trigger": false,
      "taf_trigger": false,
      "metar": "METAR LIMJ 300520Z 07005KT 050V110 9999 SCT032 11/06 Q1012",
      "taf": "TAF LIMJ 300500Z 3006/3106 VRB05KT 9999 FEW020"
    },
    {
      "icao": "LIPE",
      "alert": "OK",
      "vis_m": 9999,
      "fzfg": false,
      "metar_trigger": false,
      "taf_trigger": false,
      "metar": "METAR LIPE 300520Z VRB01KT CAVOK M02/M02 Q1012",
      "taf": "TAF LIPE 300500Z 3006/3106 VRB05KT 6000 SCT015"
    },
    {
      "icao": "LIPH",
      "alert": "OK",
      "vis_m": 8000,
      "fzfg": false,
      "metar_trigger": false,
      "taf_trigger": false,
      "metar": "METAR LIPH 300520Z AUTO 35004KT 320V020 8000 OVC018/// 03/03 Q1012",
      "taf": "TAF LIPH 300500Z 3006/3106 VRB05KT 7000 BKN013"
    },
    {
      "icao": "LIPQ",
      "alert": "OK",
      "vis_m": 9999,
      "fzfg": false,
      "metar_trigger": false,
      "taf_trigger": false,
      "metar": "METAR LIPQ 300520Z AUTO 07004KT 9999 NCD 00/M00 Q1013",
      "taf": "TAF LIPQ 300500Z 3006/3106 VRB05KT 9999 FEW020"
    },
    {
      "icao": "LIPR",
      "alert": "OK",
      "vis_m": 9999,
      "fzfg": false,
      "metar_trigger": false,
      "taf_trigger": false,
      "metar": "METAR LIPR 300520Z AUTO 32005KT 280V350 9999 NCD M03/M04 Q1012",
      "taf": "TAF LIPR 300500Z 3006/3106 VRB05KT 7000 FEW020"
    },
    {
      "icao": "LIPX",
      "alert": "OK",
      "vis_m": 150,
      "fzfg": true,
      "metar_trigger": false,
      "taf_trigger": false,
      "metar": "METAR LIPX 300520Z VRB02KT 0150 R04/0300D FZFG NSC M04/M05 Q1012",
      "taf": "TAF LIPX 300500Z 3006/3106 VRB05KT 1000 BCFG NSC"
    },
    {
      "icao": "LIPY",
      "alert": "OK",
      "vis_m": 9999,
      "fzfg": false,
      "metar_trigger": false,
      "taf_trigger": false,
      "metar": "METAR LIPY 300520Z AUTO 21005KT 9999 NCD 01/01 Q1012",
      "taf": "TAF LIPY 300500Z 3006/3106 VRB05KT 7000 SCT015"
    },
    {
      "icao": "LIPZ",
      "alert": "OK",
      "vis_m": 1500,
      "fzfg": false,
      "metar_trigger": false,
      "taf_trigger": false,
      "metar": "METAR LIPZ 300520Z 31003KT 280V360 1500 BR BKN020 01/01 Q1012 NOSIG",
      "taf": "TAF LIPZ 300500Z 3006/3112 VRB05KT 2000 BR SCT012"
    },
    {
      "icao": "LIRF",
      "alert": "OK",
      "vis_m": 9999,
      "fzfg": false,
      "metar_trigger": false,
      "taf_trigger": false,
      "metar": "METAR LIRF 300520Z 04003KT CAVOK 05/04 Q1013 NOSIG",
      "taf": "TAF LIRF 300500Z 3006/3112 07007KT 9999 SCT025"
    },
    {
      "icao": "LIRN",
      "alert": "OK",
      "vis_m": 9999,
      "fzfg": false,
      "metar_trigger": false,
      "taf_trigger": false,
      "metar": "METAR LIRN 300520Z 29002KT CAVOK 03/01 Q1013 NOSIG",
      "taf": "TAF LIRN 300500Z 3006/3106 VRB05KT 9999 FEW025"
    },
    {
      "icao": "LIRP",
      "alert": "OK",
      "vis_m": 9999,
      "fzfg": false,
      "metar_trigger": false,
      "taf_trigger": false,
      "metar": "METAR LIRP 300515Z 14005KT 9999 FEW040 SCT050 03/03 Q1012 NOSIG",
      "taf": "TAF LIRP 300500Z 3006/3106 14005KT 9999 SCT020 SCT040"
    },
    {
      "icao": "LIRZ",
      "alert": "OK",
      "vis_m": 9999,
      "fzfg": false,
      "metar_trigger": false,
      "taf_trigger": false,
      "metar": "METAR LIRZ 300520Z AUTO VRB01KT 9999 OVC041/// 02/01 Q1014",
      "taf": "TAF LIRZ 300500Z 3006/3106 VRB03KT 9999 FEW030"
    },
    {
      "icao": "LJLJ",
      "alert": "OK",
      "vis_m": 9999,
      "fzfg": false,
      "metar_trigger": false,
      "taf_trigger": false,
      "metar": "METAR LJLJ 300530Z 28003KT 9999 FEW001 M06/M07 Q1015 NOSIG",
      "taf": "TAF LJLJ 300500Z 3006/3106 30002KT 9999 FEW002"
    },
    {
      "icao": "LKMT",
      "alert": "OK",
      "vis_m": 9999,
      "fzfg": false,
      "metar_trigger": false,
      "taf_trigger": false,
      "metar": "METAR LKMT 300530Z 34007KT CAVOK M03/M07 Q1014 NOSIG",
      "taf": "TAF LKMT 300500Z 3006/3106 34010KT CAVOK"
    },
    {
      "icao": "LKPR",
      "alert": "OK",
      "vis_m": 9999,
      "fzfg": false,
      "metar_trigger": false,
      "taf_trigger": false,
      "metar": "METAR LKPR 300530Z 28005KT 250V310 CAVOK M02/M06 Q1019 NOSIG",
      "taf": "TAF LKPR 300500Z 3006/3112 32014KT 9999 SCT025"
    },
    {
      "icao": "LLBG",
      "alert": "OK",
      "vis_m": 9999,
      "fzfg": false,
      "metar_trigger": false,
      "taf_trigger": false,
      "metar": "METAR LLBG 300550Z 16007KT 9999 FEW045 13/10 Q1020 NOSIG RMK BKN065",
      "taf": "TAF LLBG 300504Z 3006/3106 17006KT 9999 SCT040"
    },
    {
      "icao": "LMML",
      "alert": "OK",
      "vis_m": 9999,
      "fzfg": false,
      "metar_trigger": false,
      "taf_trigger": false,
      "metar": "METAR LMML 300545Z 25007KT 9999 FEW020TCU 12/08 Q1014 TEMPO 8000 SHRA",
      "taf": "TAF LMML 300500Z 3006/3106 27005KT 9999 SCT023"
    },
    {
      "icao": "LOWW",
      "alert": "OK",
      "vis_m": 6000,
      "fzfg": false,
      "metar_trigger": false,
      "taf_trigger": false,
      "metar": "METAR LOWW 300520Z 32017KT 6000 -SN FEW013 SCT018 BKN040 00/M02 Q1016 TEMPO TL0600 3500 -SN BKN010",
      "taf": "TAF LOWW 300515Z 3006/3112 31015KT CAVOK TX02/3011Z TNM02/3106Z"
    },
    {
      "icao": "LPFR",
      "alert": "OK",
      "vis_m": 9999,
      "fzfg": false,
      "metar_trigger": false,
      "taf_trigger": false,
      "metar": "METAR LPFR 300530Z 03006KT CAVOK 08/07 Q1020",
      "taf": "TAF LPFR 300500Z 3006/3106 03005KT CAVOK"
    },
    {
      "icao": "LPMA",
      "alert": "OK",
      "vis_m": 9999,
      "fzfg": false,
      "metar_trigger": false,
      "taf_trigger": false,
      "metar": "METAR LPMA 300530Z 35004KT 320V020 9999 BKN015 16/13 Q1017",
      "taf": "TAF LPMA 300500Z 3006/3106 22012KT 9999 SCT015"
    },
    {
      "icao": "LPPR",
      "alert": "OK",
      "vis_m": 6000,
      "fzfg": false,
      "metar_trigger": false,
      "taf_trigger": false,
      "metar": "METAR LPPR 300530Z VRB01KT 6000 NSC 06/05 Q1021",
      "taf": "TAF LPPR 300500Z 3006/3106 09007KT 6000 FEW004"
    },
    {
      "icao": "LPPS",
      "alert": "OK",
      "vis_m": 9999,
      "fzfg": false,
      "metar_trigger": false,
      "taf_trigger": false,
      "metar": "METAR LPPS 300530Z 28005KT 9999 SCT005 SCT010 18/17 Q1017",
      "taf": "TAF LPPS 300500Z 3006/3112 29010KT 9999 SCT015"
    },
    {
      "icao": "LPPT",
      "alert": "OK",
      "vis_m": 200,
      "fzfg": false,
      "metar_trigger": false,
      "taf_trigger": false,
      "metar": "METAR LPPT 300530Z 00000KT 0200 R02/0325N FG VV001 06/06 Q1021",
      "taf": "TAF LPPT 300500Z 3006/3112 VRB02KT 0100 FG VV001"
    },
    {
      "icao": "LQBK",
      "alert": "OK",
      "vis_m": 9999,
      "fzfg": false,
      "metar_trigger": false,
      "taf_trigger": false,
      "metar": "METAR LQBK 300530Z 14005KT CAVOK M05/M05 Q1017 NOSIG",
      "taf": "TAF LQBK 300500Z 3006/3106 30005KT 9999 SCT030 TX03/3013Z TNM07/3105Z"
    },
    {
      "icao": "LQSA",
      "alert": "OK",
      "vis_m": 6000,
      "fzfg": false,
      "metar_trigger": false,
      "taf_trigger": false,
      "metar": "METAR LQSA 300530Z VRB01KT 6000 FEW004 M08/M08 Q1014 NOSIG",
      "taf": "TAF LQSA 300500Z 3006/3106 VRB02KT CAVOK TX03/3013Z TNM09/3106Z"
    },
    {
      "icao": "LQTZ",
      "alert": "OK",
      "vis_m": 4000,
      "fzfg": false,
      "metar_trigger": false,
      "taf_trigger": false,
      "metar": "METAR LQTZ 300530Z VRB02KT 4000 BR NSC M08/M08 Q1016",
      "taf": "TAF LQTZ 300500Z 3006/3106 29005KT 9999 BKN030 TX02/3013Z TNM08/3105Z"
    },
    {
      "icao": "LRBC",
      "alert": "OK",
      "vis_m": 9999,
      "fzfg": false,
      "metar_trigger": false,
      "taf_trigger": false,
      "metar": "METAR LRBC 300530Z 01004KT CAVOK M04/M06 Q1005",
      "taf": "TAF LRBC 300500Z 3006/3015 VRB04KT CAVOK"
    },
    {
      "icao": "LRBS",
      "alert": "OK",
      "vis_m": 9999,
      "fzfg": false,
      "metar_trigger": false,
      "taf_trigger": false,
      "metar": "METAR LRBS 300530Z 00000KT CAVOK M05/M07 Q1006 NOSIG",
      "taf": "TAF LRBS 300500Z 3006/3106 VRB04KT CAVOK"
    },
    {
      "icao": "LRBV",
      "alert": "OK",
      "vis_m": 9999,
      "fzfg": false,
      "metar_trigger": false,
      "taf_trigger": false,
      "metar": "METAR LRBV 300530Z VRB02KT 9999 OVC026 M06/M09 Q1006",
      "taf": "TAF LRBV 300500Z 3006/3015 25006KT 9999 BKN030"
    },
    {
      "icao": "LRCL",
      "alert": "OK",
      "vis_m": 9999,
      "fzfg": false,
      "metar_trigger": false,
      "taf_trigger": false,
      "metar": "METAR LRCL 300530Z 28004KT 240V330 9999 OVC041 M04/M07 Q1008",
      "taf": "TAF LRCL 300500Z 3006/3015 27005KT 9999 BKN035"
    },
    {
      "icao": "LRCV",
      "alert": "OK",
      "vis_m": 9999,
      "fzfg": false,
      "metar_trigger": false,
      "taf_trigger": false,
      "metar": "METAR LRCV 300530Z 28016KT CAVOK 01/M06 Q1006",
      "taf": "TAF LRCV 300500Z 3006/3015 28018KT CAVOK"
    },
    {
      "icao": "LRIA",
      "alert": "OK",
      "vis_m": 9999,
      "fzfg": false,
      "metar_trigger": false,
      "taf_trigger": false,
      "metar": "METAR LRIA 300530Z 24006KT 9999 -SN SCT023 OVC035 00/M06 Q1004",
      "taf": "TAF LRIA 300500Z 3006/3015 23006KT 9999 BKN040"
    },
    {
      "icao": "LROP",
      "alert": "OK",
      "vis_m": 8000,
      "fzfg": false,
      "metar_trigger": false,
      "taf_trigger": false,
      "metar": "METAR LROP 300530Z 24002KT 8000 NSC M07/M07 Q1006 NOSIG",
      "taf": "TAF LROP 300500Z 3006/3106 VRB04KT CAVOK"
    },
    {
      "icao": "LRSB",
      "alert": "OK",
      "vis_m": 9999,
      "fzfg": false,
      "metar_trigger": false,
      "taf_trigger": false,
      "metar": "METAR LRSB 300530Z COR 01007KT 330V050 9999 SCT016 BKN024 M03/M06 Q1008",
      "taf": "TAF LRSB 300500Z 3006/3106 30012KT 9999 SCT020 BKN050"
    },
    {
      "icao": "LRSM",
      "alert": "OK",
      "vis_m": 9999,
      "fzfg": false,
      "metar_trigger": false,
      "taf_trigger": false,
      "metar": "METAR LRSM 300530Z 26009KT 9999 -SN OVC040 M03/M05 Q1010",
      "taf": "TAF LRSM 300500Z 3006/3015 26008KT 9999 SCT010 BKN040"
    },
    {
      "icao": "LRSV",
      "alert": "OK",
      "vis_m": 9999,
      "fzfg": false,
      "metar_trigger": false,
      "taf_trigger": false,
      "metar": "METAR LRSV 300530Z 27008KT 9999 BKN045 M02/M06 Q1003",
      "taf": "TAF LRSV 300500Z 3006/3015 32012KT 9999 BKN035"
    },
    {
      "icao": "LRTM",
      "alert": "OK",
      "vis_m": 9000,
      "fzfg": false,
      "metar_trigger": false,
      "taf_trigger": false,
      "metar": "METAR LRTM 300530Z 23006KT 9000 FEW004 SCT040 BKN049 M06/M07 Q1008",
      "taf": "TAF LRTM 300500Z 3006/3015 VRB04KT 9999 BKN035"
    },
    {
      "icao": "LRTR",
      "alert": "OK",
      "vis_m": 9999,
      "fzfg": false,
      "metar_trigger": false,
      "taf_trigger": false,
      "metar": "METAR LRTR 300530Z 27004KT 9999 FEW023 M05/M05 Q1012",
      "taf": "TAF LRTR 300500Z 3006/3106 26008KT 9999 BKN025"
    },
    {
      "icao": "LTAC",
      "alert": "OK",
      "vis_m": 9999,
      "fzfg": false,
      "metar_trigger": false,
      "taf_trigger": false,
      "metar": "METAR LTAC 300520Z 17003KT 120V200 9999 FEW040 M06/M08 Q1014 NOSIG RMK RWY21C 18005KT RWY03L VRB02KT RWY21R VRB02KT RWY03R VRB02KT RWY21L 18004KT",
      "taf": "TAF LTAC 300440Z 3006/3106 19007KT 9999 SCT040"
    },
    {
      "icao": "LTFM",
      "alert": "OK",
      "vis_m": 9999,
      "fzfg": false,
      "metar_trigger": false,
      "taf_trigger": false,
      "metar": "METAR LTFM 300520Z 21026KT 9999 SCT025 07/02 Q1009 NOSIG RMK RWY17L 21022G32KT RWY34L 20024KT RWY16R 21019G29KT RWY36 21024KT RWY18 22026KT",
      "taf": "TAF LTFM 300440Z 3006/3112 21023G33KT 9999 SCT025"
    },
    {
      "icao": "LUKK",
      "alert": "OK",
      "vis_m": 9999,
      "fzfg": false,
      "metar_trigger": false,
      "taf_trigger": false,
      "metar": "METAR LUKK 300530Z 29011KT CAVOK M01/M06 Q1004 NOSIG",
      "taf": "TAF LUKK 300510Z 3006/3106 29012KT 9999 BKN040"
    },
    {
      "icao": "LWOH",
      "alert": "OK",
      "vis_m": 9999,
      "fzfg": false,
      "metar_trigger": false,
      "taf_trigger": false,
      "metar": "METAR LWOH 300550Z 31005KT CAVOK M06/M08 Q1012",
      "taf": "TAF LWOH 300520Z 3006/3106 34006KT CAVOK"
    },
    {
      "icao": "LWSK",
      "alert": "OK",
      "vis_m": 9999,
      "fzfg": false,
      "metar_trigger": false,
      "taf_trigger": false,
      "metar": "METAR LWSK 300550Z VRB01KT CAVOK M08/M09 Q1013 NOSIG",
      "taf": "TAF LWSK 300520Z 3006/3106 VRB02KT CAVOK"
    },
    {
      "icao": "LYBE",
      "alert": "OK",
      "vis_m": 9999,
      "fzfg": false,
      "metar_trigger": false,
      "taf_trigger": false,
      "metar": "METAR LYBE 300530Z 26011KT CAVOK M02/M04 Q1014 NOSIG",
      "taf": "TAF LYBE 300500Z 3006/3106 27010KT 9999 SCT027 TX04/3013Z TNM05/3106Z"
    },
    {
      "icao": "LYNI",
      "alert": "OK",
      "vis_m": 9999,
      "fzfg": false,
      "metar_trigger": false,
      "taf_trigger": false,
      "metar": "METAR LYNI 300530Z 00000KT CAVOK M05/M07 Q1013 NOSIG",
      "taf": "TAF LYNI 300500Z 3006/3106 30006KT 9999 SCT030 TX03/3012Z TNM05/3006Z"
    },
    {
      "icao": "LYPG",
      "alert": "OK",
      "vis_m": 9999,
      "fzfg": false,
      "metar_trigger": false,
      "taf_trigger": false,
      "metar": "METAR LYPG 300530Z 28003KT 260V320 CAVOK M02/M05 Q1014 NOSIG",
      "taf": "TAF LYPG 300500Z 3006/3106 36006KT 9999 SCT050 TX10/3013Z TNM02/3006Z"
    },
    {
      "icao": "LZIB",
      "alert": "OK",
      "vis_m": 9999,
      "fzfg": false,
      "metar_trigger": false,
      "taf_trigger": false,
      "metar": "METAR LZIB 300530Z 29010KT 9999 -SN FEW013 00/M02 Q1015 TEMPO 1200 +SHSN BKN002 OVC007",
      "taf": "TAF LZIB 300515Z 3006/3106 30010KT CAVOK"
    },
    {
      "icao": "LZKZ",
      "alert": "OK",
      "vis_m": 9999,
      "fzfg": false,
      "metar_trigger": false,
      "taf_trigger": false,
      "metar": "METAR LZKZ 300530Z 03007KT 9999 FEW040 M04/M06 Q1010 NOSIG",
      "taf": "TAF LZKZ 300515Z 3006/3106 35008KT CAVOK"
    },
    {
      "icao": "LZTT",
      "alert": "OK",
      "vis_m": 9999,
      "fzfg": false,
      "metar_trigger": false,
      "taf_trigger": false,
      "metar": "METAR LZTT 300530Z 04006KT 9999 -SN FEW033 BKN050 M05/M08 Q1007",
      "taf": "TAF LZTT 300515Z 3006/3106 27007KT 9999 -SN SCT012 BKN018"
    },
    {
      "icao": "OEJN",
      "alert": "OK",
      "vis_m": 9999,
      "fzfg": false,
      "metar_trigger": false,
      "taf_trigger": false,
      "metar": "METAR OEJN 300500Z 06002KT CAVOK 21/14 Q1018 NOSIG",
      "taf": "TAF OEJN 300500Z 3006/3112 33014KT 7000 NSC"
    },
    {
      "icao": "OEMA",
      "alert": "OK",
      "vis_m": 9999,
      "fzfg": false,
      "metar_trigger": false,
      "taf_trigger": false,
      "metar": "METAR OEMA 300500Z 10003KT CAVOK 13/05 Q1023 NOSIG",
      "taf": "TAF OEMA 300500Z 3006/3112 09008KT CAVOK"
    },
    {
      "icao": "OJAI",
      "alert": "OK",
      "vis_m": 3500,
      "fzfg": false,
      "metar_trigger": false,
      "taf_trigger": false,
      "metar": "METAR OJAI 300500Z 25007KT 3500 BR SCT025 SCT030 07/06 Q1020 NOSIG",
      "taf": "TAF OJAI 300446Z 3006/3112 25012KT 3000 BR SCT030"
    },
    {
      "icao": "OMAA",
      "alert": "OK",
      "vis_m": 9999,
      "fzfg": false,
      "metar_trigger": false,
      "taf_trigger": false,
      "metar": "METAR OMAA 300500Z 32011KT CAVOK 23/09 Q1017 NOSIG",
      "taf": "TAF OMAA 300500Z 3006/3112 31013KT 8000 FEW040"
    },
    {
      "icao": "OMDB",
      "alert": "OK",
      "vis_m": 9999,
      "fzfg": false,
      "metar_trigger": false,
      "taf_trigger": false,
      "metar": "METAR OMDB 300530Z 30018KT CAVOK 24/07 Q1017 NOSIG",
      "taf": "TAF OMDB 300500Z 3006/3112 29014KT 8000 FEW040"
    },
    {
      "icao": "UAAA",
      "alert": "OK",
      "vis_m": 5000,
      "fzfg": false,
      "metar_trigger": false,
      "taf_trigger": false,
      "metar": "METAR UAAA 300530Z 25002MPS 5000 FU FEW100 BKN200 06/M02 Q1008 NOSIG",
      "taf": "TAF UAAA 300504Z 3006/3106 03003MPS 6000 FEW050CB BKN100 TX07/3009Z TNM03/3101Z"
    },
    {
      "icao": "UBBB",
      "alert": "OK",
      "vis_m": 9999,
      "fzfg": false,
      "metar_trigger": false,
      "taf_trigger": false,
      "metar": "METAR UBBB 300530Z 28010KT CAVOK 06/01 Q1006 NOSIG",
      "taf": "TAF UBBB 300505Z 3006/3106 32016G26KT 9999 SCT030 TX08/3006Z TN02/3102Z"
    },
    {
      "icao": "UDSG",
      "alert": "OK",
      "vis_m": 9999,
      "fzfg": false,
      "metar_trigger": false,
      "taf_trigger": false,
      "metar": "METAR UDSG 300530Z 04003KT 310V100 9999 FEW049 M16/M19 Q1010 NOSIG",
      "taf": "TAF UDSG 300458Z 3006/3106 VRB06KT 9999 FEW050"
    },
    {
      "icao": "UDYZ",
      "alert": "OK",
      "vis_m": 5000,
      "fzfg": false,
      "metar_trigger": false,
      "taf_trigger": false,
      "metar": "METAR UDYZ 300530Z 03004KT 5000 BR FEW033 M11/M13 Q1013 NOSIG",
      "taf": "TAF UDYZ 300500Z 3006/3106 VRB04KT 3500 BR FEW040"
    },
    {
      "icao": "UGKO",
      "alert": "OK",
      "vis_m": 3000,
      "fzfg": false,
      "metar_trigger": false,
      "taf_trigger": false,
      "metar": "METAR UGKO 300530Z 27007KT 240V310 3000 SHSN SCT005 BKN012CB OVC044 00/M00 Q1013 NOSIG",
      "taf": "TAF UGKO 300500Z 3006/3106 25010KT 7000 -SNRA SCT015 OVC035 TX02/3009Z TNM01/3015Z"
    }
  ]
}