{
  "ts_utc": "2026-06-24T08:14:06Z",
  "threshold_m": 150,
  "source": "stations_override.txt (ICAO list) + aviationweather.gov (METAR/TAF raw)",
  "station_count": 159,
  "stations": [
    {
      "icao": "BIKF",
      "alert": "OK",
      "vis_m": 9999,
      "fzfg": false,
      "metar_trigger": false,
      "taf_trigger": false,
      "metar": "METAR BIKF 240800Z 35006KT 320V020 9999 SCT008 BKN062 BKN200 11/09 Q1002",
      "taf": "TAF BIKF 240758Z 2409/2509 01007KT 9999 FEW004 BKN012 TX14/2415Z TN09/2503Z"
    },
    {
      "icao": "BKPR",
      "alert": "OK",
      "vis_m": 9999,
      "fzfg": false,
      "metar_trigger": false,
      "taf_trigger": false,
      "metar": "METAR BKPR 240800Z VRB03KT CAVOK 25/18 Q1019 NOSIG",
      "taf": "TAF BKPR 240530Z 2406/2506 01008KT 9999 FEW050"
    },
    {
      "icao": "EBCI",
      "alert": "OK",
      "vis_m": 9999,
      "fzfg": false,
      "metar_trigger": false,
      "taf_trigger": false,
      "metar": "METAR EBCI 240750Z 16003KT 110V200 CAVOK 29/19 Q1019 NOSIG",
      "taf": "TAF EBCI 240514Z 2406/2512 VRB04KT CAVOK"
    },
    {
      "icao": "EDDB",
      "alert": "OK",
      "vis_m": 9999,
      "fzfg": false,
      "metar_trigger": false,
      "taf_trigger": false,
      "metar": "METAR EDDB 240750Z AUTO VRB03KT CAVOK 27/12 Q1020 NOSIG",
      "taf": "TAF EDDB 240500Z 2406/2506 03003KT CAVOK"
    },
    {
      "icao": "EDDH",
      "alert": "OK",
      "vis_m": null,
      "fzfg": false,
      "metar_trigger": false,
      "taf_trigger": false,
      "metar": "METAR EDDH 240750Z AUTO 26002KT //// R23///// R15///// NCD 26/14 Q1019 NOSIG",
      "taf": "TAF EDDH 240500Z 2406/2512 10004KT CAVOK"
    },
    {
      "icao": "EDDK",
      "alert": "OK",
      "vis_m": 9999,
      "fzfg": false,
      "metar_trigger": false,
      "taf_trigger": false,
      "metar": "METAR EDDK 240750Z AUTO 11003KT 050V210 CAVOK 27/21 Q1019 NOSIG",
      "taf": "TAF EDDK 240500Z 2406/2512 11003KT CAVOK"
    },
    {
      "icao": "EDDN",
      "alert": "OK",
      "vis_m": 9999,
      "fzfg": false,
      "metar_trigger": false,
      "taf_trigger": false,
      "metar": "METAR EDDN 240750Z AUTO VRB02KT CAVOK 28/17 Q1020 NOSIG",
      "taf": "TAF EDDN 240500Z 2406/2506 VRB03KT CAVOK"
    },
    {
      "icao": "EDDS",
      "alert": "OK",
      "vis_m": 9999,
      "fzfg": false,
      "metar_trigger": false,
      "taf_trigger": false,
      "metar": "METAR EDDS 240750Z AUTO VRB02KT CAVOK 28/17 Q1020 NOSIG",
      "taf": "TAF EDDS 240500Z 2406/2506 VRB02KT CAVOK"
    },
    {
      "icao": "EDFH",
      "alert": "OK",
      "vis_m": 9999,
      "fzfg": false,
      "metar_trigger": false,
      "taf_trigger": false,
      "metar": "METAR EDFH 240750Z VRB02KT CAVOK 28/18 Q1021",
      "taf": "TAF EDFH 240500Z 2406/2506 12004KT CAVOK"
    },
    {
      "icao": "EDJA",
      "alert": "OK",
      "vis_m": 9000,
      "fzfg": false,
      "metar_trigger": false,
      "taf_trigger": false,
      "metar": "METAR EDJA 240750Z 34003KT 290V040 9000 3700 NSC 26/18 Q1021",
      "taf": "TAF EDJA 240500Z 2406/2415 VRB02KT CAVOK"
    },
    {
      "icao": "EDLW",
      "alert": "OK",
      "vis_m": 9999,
      "fzfg": false,
      "metar_trigger": false,
      "taf_trigger": false,
      "metar": "METAR EDLW 240750Z VRB01KT CAVOK 27/19 Q1019",
      "taf": "TAF EDLW 240500Z 2406/2506 14006KT CAVOK"
    },
    {
      "icao": "EDNY",
      "alert": "OK",
      "vis_m": 9999,
      "fzfg": false,
      "metar_trigger": false,
      "taf_trigger": false,
      "metar": "METAR EDNY 240750Z VRB02KT CAVOK 26/16 Q1020",
      "taf": "TAF EDNY 240500Z 2406/2415 06004KT CAVOK"
    },
    {
      "icao": "EDSB",
      "alert": "OK",
      "vis_m": 9999,
      "fzfg": false,
      "metar_trigger": false,
      "taf_trigger": false,
      "metar": "METAR EDSB 240750Z 01005KT 330V050 CAVOK 28/20 Q1019",
      "taf": "TAF EDSB 240500Z 2406/2506 02006KT CAVOK"
    },
    {
      "icao": "EETN",
      "alert": "OK",
      "vis_m": 9999,
      "fzfg": false,
      "metar_trigger": false,
      "taf_trigger": false,
      "metar": "METAR EETN 240750Z 21008KT 9999 -RA BKN006 BKN014 OVC041 14/13 Q1012 TEMPO FEW025CB",
      "taf": "TAF EETN 240530Z 2406/2506 19007KT 9999 SCT045"
    },
    {
      "icao": "EFTU",
      "alert": "OK",
      "vis_m": 4700,
      "fzfg": false,
      "metar_trigger": false,
      "taf_trigger": false,
      "metar": "METAR EFTU 240750Z AUTO 05003KT 010V090 4700 -RA FEW004 OVC018 13/13 Q1012",
      "taf": "TAF EFTU 240536Z 2406/2506 28003KT 9999 -SHRA BKN004 FEW030CB"
    },
    {
      "icao": "EGBB",
      "alert": "OK",
      "vis_m": 9999,
      "fzfg": false,
      "metar_trigger": false,
      "taf_trigger": false,
      "metar": "METAR EGBB 240750Z 01007KT CAVOK 25/18 Q1019",
      "taf": "TAF EGBB 240454Z 2406/2506 33005KT 9999 FEW045"
    },
    {
      "icao": "EGGP",
      "alert": "OK",
      "vis_m": 5000,
      "fzfg": false,
      "metar_trigger": false,
      "taf_trigger": false,
      "metar": "METAR EGGP 240750Z 26008KT 5000 HZ NSC 21/18 Q1020",
      "taf": ""
    },
    {
      "icao": "EGGW",
      "alert": "OK",
      "vis_m": 9999,
      "fzfg": false,
      "metar_trigger": false,
      "taf_trigger": false,
      "metar": "METAR EGGW 240750Z AUTO 36010KT 330V040 9999 NCD 25/20 Q1018",
      "taf": "TAF EGGW 240455Z 2406/2506 01002KT CAVOK"
    },
    {
      "icao": "EGKK",
      "alert": "OK",
      "vis_m": 9999,
      "fzfg": false,
      "metar_trigger": false,
      "taf_trigger": false,
      "metar": "METAR EGKK 240750Z 36008KT 310V130 CAVOK 27/21 Q1017",
      "taf": "TAF EGKK 240458Z 2406/2512 02003KT CAVOK"
    },
    {
      "icao": "EGNM",
      "alert": "OK",
      "vis_m": 9999,
      "fzfg": false,
      "metar_trigger": false,
      "taf_trigger": false,
      "metar": "METAR EGNM 240750Z VRB02KT CAVOK 23/17 Q1020",
      "taf": "TAF EGNM 240500Z 2406/2506 36005KT 9999 FEW035"
    },
    {
      "icao": "EGPD",
      "alert": "OK",
      "vis_m": 9999,
      "fzfg": false,
      "metar_trigger": false,
      "taf_trigger": false,
      "metar": "METAR EGPD 240750Z 01003KT 310V070 9999 FEW013 BKN038 17/14 Q1019",
      "taf": "TAF EGPD 240456Z 2406/2506 VRB03KT 9999 SCT020"
    },
    {
      "icao": "EGPF",
      "alert": "OK",
      "vis_m": 9999,
      "fzfg": false,
      "metar_trigger": false,
      "taf_trigger": false,
      "metar": "METAR EGPF 240750Z AUTO 26005KT 220V310 9999 NCD 18/13 Q1020",
      "taf": "TAF EGPF 240500Z 2406/2506 27007KT 9999 BKN020"
    },
    {
      "icao": "EHBK",
      "alert": "OK",
      "vis_m": 9999,
      "fzfg": false,
      "metar_trigger": false,
      "taf_trigger": false,
      "metar": "METAR EHBK 240755Z AUTO 20003KT 160V250 9999 NCD 27/19 Q1019 NOSIG",
      "taf": "TAF EHBK 240509Z 2406/2512 16003KT CAVOK"
    },
    {
      "icao": "EHEH",
      "alert": "OK",
      "vis_m": 9999,
      "fzfg": false,
      "metar_trigger": false,
      "taf_trigger": false,
      "metar": "METAR EHEH 240755Z AUTO 17004KT 130V250 9999 NCD 28/19 Q1018 BLU NOSIG RMK TREND REMOTE BY EHWX",
      "taf": "TAF EHEH 240511Z 2406/2512 13004KT CAVOK"
    },
    {
      "icao": "EKBI",
      "alert": "OK",
      "vis_m": 9999,
      "fzfg": false,
      "metar_trigger": false,
      "taf_trigger": false,
      "metar": "METAR EKBI 240750Z AUTO 23009KT 9999 BKN074/// 21/12 Q1019",
      "taf": "TAF EKBI 240527Z 2406/2506 23007KT CAVOK"
    },
    {
      "icao": "EKCH",
      "alert": "OK",
      "vis_m": 9999,
      "fzfg": false,
      "metar_trigger": false,
      "taf_trigger": false,
      "metar": "METAR EKCH 240750Z AUTO 22009KT 9999 SCT095/// 22/13 Q1019 NOSIG",
      "taf": "TAF EKCH 240527Z 2406/2506 23008KT CAVOK"
    },
    {
      "icao": "ENAL",
      "alert": "OK",
      "vis_m": 9999,
      "fzfg": false,
      "metar_trigger": false,
      "taf_trigger": false,
      "metar": "METAR ENAL 240750Z 24014KT 9999 VCSH FEW009 BKN025 14/13 Q1012",
      "taf": "TAF ENAL 240500Z 2406/2415 14005KT 9999 -RA FEW015 BKN025"
    },
    {
      "icao": "ENBR",
      "alert": "OK",
      "vis_m": 4100,
      "fzfg": false,
      "metar_trigger": false,
      "taf_trigger": false,
      "metar": "METAR ENBR 240750Z 14008KT 4100 BR BKN003 13/12 Q1016 TEMPO 3000 -DZRA BR SCT003 BKN006 RMK WIND 1200FT 15012KT",
      "taf": "TAF ENBR 240500Z 2406/2506 15012KT 9999 FEW008 BKN014"
    },
    {
      "icao": "ENGM",
      "alert": "OK",
      "vis_m": 9999,
      "fzfg": false,
      "metar_trigger": false,
      "taf_trigger": false,
      "metar": "METAR ENGM 240750Z VRB02KT 9999 FEW008 17/12 Q1014 NOSIG",
      "taf": "TAF ENGM 240500Z 2406/2506 VRB03KT 9999 FEW040"
    },
    {
      "icao": "ENHD",
      "alert": "OK",
      "vis_m": 3000,
      "fzfg": false,
      "metar_trigger": false,
      "taf_trigger": false,
      "metar": "METAR ENHD 240750Z 19005KT 150V220 3000 BR BKN002 15/13 Q1017",
      "taf": "TAF ENHD 240500Z 2406/2415 16010KT 9999 BKN012"
    },
    {
      "icao": "ENTC",
      "alert": "OK",
      "vis_m": 9999,
      "fzfg": false,
      "metar_trigger": false,
      "taf_trigger": false,
      "metar": "METAR ENTC 240750Z 24003KT 9999 FEW012TCU SCT053 10/06 Q1014 NOSIG RMK WIND 2600FT VRB02KT",
      "taf": "TAF ENTC 240500Z 2406/2506 25005KT 9999 FEW020 BKN030"
    },
    {
      "icao": "ENTO",
      "alert": "OK",
      "vis_m": 9999,
      "fzfg": false,
      "metar_trigger": false,
      "taf_trigger": false,
      "metar": "METAR ENTO 240750Z 21006KT CAVOK 20/11 Q1014 NOSIG",
      "taf": "TAF ENTO 240500Z 2406/2506 23008KT CAVOK"
    },
    {
      "icao": "ENVA",
      "alert": "OK",
      "vis_m": 9000,
      "fzfg": false,
      "metar_trigger": false,
      "taf_trigger": false,
      "metar": "METAR ENVA 240750Z 11003KT 090V150 9000 RA FEW004 BKN023 13/12 Q1013 TEMPO 4000 DZRA BKN009 RMK WIND 670FT 08004KT",
      "taf": ""
    },
    {
      "icao": "ENZV",
      "alert": "OK",
      "vis_m": 9999,
      "fzfg": false,
      "metar_trigger": false,
      "taf_trigger": false,
      "metar": "METAR ENZV 240750Z 30007KT 240V330 9999 FEW010 BKN016 OVC020 16/13 Q1017 TEMPO BKN012",
      "taf": ""
    },
    {
      "icao": "EPGD",
      "alert": "OK",
      "vis_m": 9999,
      "fzfg": false,
      "metar_trigger": false,
      "taf_trigger": false,
      "metar": "METAR EPGD 240800Z 27007KT CAVOK 20/11 Q1019",
      "taf": "TAF EPGD 240530Z 2406/2506 25005KT CAVOK"
    },
    {
      "icao": "EPKK",
      "alert": "OK",
      "vis_m": 9999,
      "fzfg": false,
      "metar_trigger": false,
      "taf_trigger": false,
      "metar": "METAR EPKK 240800Z 18003KT 130V240 CAVOK 23/14 Q1020",
      "taf": "TAF EPKK 240530Z 2406/2506 VRB02KT CAVOK"
    },
    {
      "icao": "EPKT",
      "alert": "OK",
      "vis_m": 9999,
      "fzfg": false,
      "metar_trigger": false,
      "taf_trigger": false,
      "metar": "METAR EPKT 240800Z 28003KT 240V350 CAVOK 24/09 Q1020",
      "taf": "TAF EPKT 240530Z 2406/2506 VRB02KT CAVOK"
    },
    {
      "icao": "EPLB",
      "alert": "OK",
      "vis_m": 9999,
      "fzfg": false,
      "metar_trigger": false,
      "taf_trigger": false,
      "metar": "METAR EPLB 240800Z 33003KT 280V020 CAVOK 24/11 Q1019",
      "taf": "TAF EPLB 240530Z 2406/2506 28006KT CAVOK"
    },
    {
      "icao": "EPMO",
      "alert": "OK",
      "vis_m": 9999,
      "fzfg": false,
      "metar_trigger": false,
      "taf_trigger": false,
      "metar": "METAR EPMO 240800Z 26006KT 230V310 CAVOK 24/14 Q1019",
      "taf": "TAF EPMO 240530Z 2406/2506 VRB03KT CAVOK"
    },
    {
      "icao": "EPPO",
      "alert": "OK",
      "vis_m": 9999,
      "fzfg": false,
      "metar_trigger": false,
      "taf_trigger": false,
      "metar": "METAR EPPO 240800Z 31006KT 260V320 CAVOK 24/09 Q1020",
      "taf": "TAF EPPO 240530Z 2406/2506 VRB02KT CAVOK"
    },
    {
      "icao": "EPRA",
      "alert": "OK",
      "vis_m": 9999,
      "fzfg": false,
      "metar_trigger": false,
      "taf_trigger": false,
      "metar": "METAR EPRA 240800Z 31008KT 270V360 CAVOK 23/08 Q1020",
      "taf": "TAF EPRA 240530Z 2406/2415 29008KT CAVOK"
    },
    {
      "icao": "EPRZ",
      "alert": "OK",
      "vis_m": 9999,
      "fzfg": false,
      "metar_trigger": false,
      "taf_trigger": false,
      "metar": "METAR EPRZ 240800Z VRB03KT CAVOK 25/11 Q1019",
      "taf": "TAF EPRZ 240503Z 2406/2506 24004KT CAVOK"
    },
    {
      "icao": "EPSC",
      "alert": "OK",
      "vis_m": 9999,
      "fzfg": false,
      "metar_trigger": false,
      "taf_trigger": false,
      "metar": "METAR EPSC 240800Z VRB03KT CAVOK 23/11 Q1020",
      "taf": "TAF EPSC 240530Z 2406/2506 VRB02KT CAVOK"
    },
    {
      "icao": "EPSY",
      "alert": "OK",
      "vis_m": 9999,
      "fzfg": false,
      "metar_trigger": false,
      "taf_trigger": false,
      "metar": "METAR EPSY 240800Z 23004KT 170V310 CAVOK 23/13 Q1019",
      "taf": "TAF EPSY 240530Z 2406/2415 VRB02KT CAVOK"
    },
    {
      "icao": "EPWA",
      "alert": "OK",
      "vis_m": 9999,
      "fzfg": false,
      "metar_trigger": false,
      "taf_trigger": false,
      "metar": "METAR EPWA 240800Z 27006KT 230V340 CAVOK 23/13 Q1019 NOSIG",
      "taf": "TAF EPWA 240530Z 2406/2506 VRB03KT CAVOK"
    },
    {
      "icao": "EPWR",
      "alert": "OK",
      "vis_m": 9999,
      "fzfg": false,
      "metar_trigger": false,
      "taf_trigger": false,
      "metar": "METAR EPWR 240800Z 10003KT 050V140 CAVOK 24/09 Q1020",
      "taf": "TAF EPWR 240530Z 2406/2506 VRB02KT CAVOK"
    },
    {
      "icao": "ESGG",
      "alert": "OK",
      "vis_m": 9999,
      "fzfg": false,
      "metar_trigger": false,
      "taf_trigger": false,
      "metar": "METAR ESGG 240750Z 23008KT 9999 BKN047 18/13 Q1017",
      "taf": "TAF ESGG 240530Z 2406/2506 23006KT CAVOK"
    },
    {
      "icao": "ESKN",
      "alert": "OK",
      "vis_m": 9999,
      "fzfg": false,
      "metar_trigger": false,
      "taf_trigger": false,
      "metar": "METAR ESKN 240750Z 26009KT 220V290 9999 FEW028 SCT048 20/14 Q1014",
      "taf": "TAF ESKN 240530Z 2406/2506 27008KT CAVOK"
    },
    {
      "icao": "ESMS",
      "alert": "OK",
      "vis_m": 9999,
      "fzfg": false,
      "metar_trigger": false,
      "taf_trigger": false,
      "metar": "METAR ESMS 240750Z 23007KT 200V280 CAVOK 22/11 Q1019",
      "taf": "TAF ESMS 240527Z 2406/2506 24008KT CAVOK"
    },
    {
      "icao": "ESSA",
      "alert": "OK",
      "vis_m": 9999,
      "fzfg": false,
      "metar_trigger": false,
      "taf_trigger": false,
      "metar": "METAR ESSA 240750Z 28008KT 260V320 9999 FEW027 18/11 Q1013 NOSIG",
      "taf": "TAF ESSA 240530Z 2406/2506 28004KT CAVOK"
    },
    {
      "icao": "EYKA",
      "alert": "OK",
      "vis_m": 9999,
      "fzfg": false,
      "metar_trigger": false,
      "taf_trigger": false,
      "metar": "METAR EYKA 240750Z VRB02KT CAVOK 20/10 Q1018",
      "taf": "TAF EYKA 240500Z 2406/2506 VRB03KT CAVOK"
    },
    {
      "icao": "EYPA",
      "alert": "OK",
      "vis_m": 9999,
      "fzfg": false,
      "metar_trigger": false,
      "taf_trigger": false,
      "metar": "METAR EYPA 240750Z 23007KT 180V280 CAVOK 19/14 Q1017",
      "taf": "TAF EYPA 240500Z 2406/2506 VRB03KT 9000 NSC"
    },
    {
      "icao": "EYVI",
      "alert": "OK",
      "vis_m": 9999,
      "fzfg": false,
      "metar_trigger": false,
      "taf_trigger": false,
      "metar": "METAR EYVI 240750Z 29004KT 230V330 CAVOK 19/08 Q1018 NOSIG",
      "taf": "TAF EYVI 240500Z 2406/2506 VRB03KT 9000 NSC"
    },
    {
      "icao": "GCFV",
      "alert": "OK",
      "vis_m": 9999,
      "fzfg": false,
      "metar_trigger": false,
      "taf_trigger": false,
      "metar": "METAR GCFV 240800Z 03005KT 340V060 9999 FEW018 22/17 Q1017",
      "taf": "TAF GCFV 240200Z 2403/2503 36008KT 9999 BKN018 TX25/2414Z TN20/2406Z"
    },
    {
      "icao": "GCLP",
      "alert": "OK",
      "vis_m": 9999,
      "fzfg": false,
      "metar_trigger": false,
      "taf_trigger": false,
      "metar": "METAR GCLP 240800Z 02012KT 9999 FEW020 23/15 Q1017 NOSIG",
      "taf": "TAF GCLP 240200Z 2403/2503 01012KT 9999 BKN025 TX25/2414Z TN20/2406Z"
    },
    {
      "icao": "GCTS",
      "alert": "OK",
      "vis_m": 9999,
      "fzfg": false,
      "metar_trigger": false,
      "taf_trigger": false,
      "metar": "METAR GCTS 240800Z VRB02KT 9999 FEW030 22/17 Q1018 NOSIG",
      "taf": "TAF GCTS 240200Z 2403/2503 03008KT 9999 BKN025 TX26/2414Z TN19/2406Z"
    },
    {
      "icao": "GMAD",
      "alert": "OK",
      "vis_m": 8000,
      "fzfg": false,
      "metar_trigger": false,
      "taf_trigger": false,
      "metar": "METAR GMAD 240800Z 18003KT 140V250 8000 SCT010 BKN016 20/17 Q1015 NOSIG",
      "taf": "TAF GMAD 240500Z 2406/2512 06008KT 8000 SCT020"
    },
    {
      "icao": "GMMN",
      "alert": "OK",
      "vis_m": 9999,
      "fzfg": false,
      "metar_trigger": false,
      "taf_trigger": false,
      "metar": "METAR GMMN 240800Z 28005KT 250V330 9999 OVC016 21/17 Q1016 NOSIG",
      "taf": "TAF GMMN 240500Z 2406/2512 VRB02KT 9999 BKN013"
    },
    {
      "icao": "GMMX",
      "alert": "OK",
      "vis_m": 9999,
      "fzfg": false,
      "metar_trigger": false,
      "taf_trigger": false,
      "metar": "METAR GMMX 240800Z 27005KT 230V340 9999 SCT023 21/17 Q1016 NOSIG",
      "taf": "TAF GMMX 240500Z 2406/2512 24006KT 8000 SCT023"
    },
    {
      "icao": "HEGN",
      "alert": "OK",
      "vis_m": 9999,
      "fzfg": false,
      "metar_trigger": false,
      "taf_trigger": false,
      "metar": "METAR HEGN 240800Z 35020KT CAVOK 32/13 Q1010 NOSIG",
      "taf": "TAF HEGN 240500Z 2406/2512 32010G22KT CAVOK"
    },
    {
      "icao": "HEMA",
      "alert": "OK",
      "vis_m": 9999,
      "fzfg": false,
      "metar_trigger": false,
      "taf_trigger": false,
      "metar": "METAR HEMA 240800Z 34025KT CAVOK 34/10 Q1009 NOSIG",
      "taf": "TAF HEMA 240500Z 2406/2512 33010G22KT CAVOK"
    },
    {
      "icao": "HESH",
      "alert": "OK",
      "vis_m": 9999,
      "fzfg": false,
      "metar_trigger": false,
      "taf_trigger": false,
      "metar": "METAR HESH 240800Z 36015KT CAVOK 32/13 Q1009 NOSIG",
      "taf": "TAF HESH 240500Z 2406/2512 34014KT CAVOK"
    },
    {
      "icao": "HESX",
      "alert": "OK",
      "vis_m": 9999,
      "fzfg": false,
      "metar_trigger": false,
      "taf_trigger": false,
      "metar": "METAR HESX 240800Z 31004KT CAVOK 28/17 Q1013 NOSIG",
      "taf": "TAF HESX 240500Z 2406/2512 33009KT CAVOK"
    },
    {
      "icao": "LATI",
      "alert": "OK",
      "vis_m": 9999,
      "fzfg": false,
      "metar_trigger": false,
      "taf_trigger": false,
      "metar": "METAR LATI 240750Z VRB02KT CAVOK 30/19 Q1014 NOSIG",
      "taf": "TAF LATI 240500Z 2406/2506 VRB03KT CAVOK TX34/2412Z TN19/2504Z"
    },
    {
      "icao": "LBPD",
      "alert": "OK",
      "vis_m": 9999,
      "fzfg": false,
      "metar_trigger": false,
      "taf_trigger": false,
      "metar": "METAR LBPD 240800Z AUTO VRB02KT 9999 FEW050/// SCT074/// BKN130/// 23/15 Q1017 NOSIG",
      "taf": "TAF LBPD 240500Z 2406/2506 VRB04KT 9999 SCT070"
    },
    {
      "icao": "LBSF",
      "alert": "OK",
      "vis_m": 9999,
      "fzfg": false,
      "metar_trigger": false,
      "taf_trigger": false,
      "metar": "METAR LBSF 240800Z 28003KT 180V340 9999 SCT014 BKN042 21/17 Q1019 NOSIG",
      "taf": "TAF LBSF 240500Z 2406/2506 VRB04KT 9999 SCT045"
    },
    {
      "icao": "LBWN",
      "alert": "OK",
      "vis_m": 9999,
      "fzfg": false,
      "metar_trigger": false,
      "taf_trigger": false,
      "metar": "METAR LBWN 240800Z 24007KT 210V270 CAVOK 29/14 Q1016 NOSIG",
      "taf": "TAF LBWN 240500Z 2406/2506 VRB03KT 9999 SCT040"
    },
    {
      "icao": "LCLK",
      "alert": "OK",
      "vis_m": 9999,
      "fzfg": false,
      "metar_trigger": false,
      "taf_trigger": false,
      "metar": "METAR LCLK 240800Z 19011KT CAVOK 34/19 Q1007 BECMG 22021KT",
      "taf": "TAF LCLK 240530Z 2406/2506 18008KT 9999 FEW030"
    },
    {
      "icao": "LCPH",
      "alert": "OK",
      "vis_m": 9999,
      "fzfg": false,
      "metar_trigger": false,
      "taf_trigger": false,
      "metar": "METAR LCPH 240800Z 31014KT 250V320 9999 FEW010 27/23 Q1009 NOSIG",
      "taf": "TAF LCPH 240530Z 2406/2506 29015KT 9999 FEW020"
    },
    {
      "icao": "LEAL",
      "alert": "OK",
      "vis_m": 9999,
      "fzfg": false,
      "metar_trigger": false,
      "taf_trigger": false,
      "metar": "METAR LEAL 240800Z 05003KT 340V100 CAVOK 32/10 Q1015 NOSIG",
      "taf": "TAF LEAL 240500Z 2406/2506 34004KT CAVOK TX33/2412Z TN21/2506Z"
    },
    {
      "icao": "LEBB",
      "alert": "OK",
      "vis_m": 9999,
      "fzfg": false,
      "metar_trigger": false,
      "taf_trigger": false,
      "metar": "METAR LEBB 240800Z 09008KT 030V120 CAVOK 36/14 Q1013 NOSIG",
      "taf": ""
    },
    {
      "icao": "LEBL",
      "alert": "OK",
      "vis_m": 9000,
      "fzfg": false,
      "metar_trigger": false,
      "taf_trigger": false,
      "metar": "METAR LEBL 240800Z VRB02KT 9000 NSC 29/19 Q1016 NOSIG",
      "taf": "TAF LEBL 240500Z 2406/2506 VRB04KT CAVOK TX32/2412Z TN23/2406Z"
    },
    {
      "icao": "LECH",
      "alert": "OK",
      "vis_m": 9000,
      "fzfg": false,
      "metar_trigger": false,
      "taf_trigger": false,
      "metar": "METAR LECH 240800Z AUTO 25003KT 200V300 9000 NCD 29/12 Q1018",
      "taf": "TAF LECH 240500Z 2406/2506 VRB03KT CAVOK TX35/2412Z TN20/2406Z"
    },
    {
      "icao": "LEMD",
      "alert": "OK",
      "vis_m": 9999,
      "fzfg": false,
      "metar_trigger": false,
      "taf_trigger": false,
      "metar": "METAR LEMD 240800Z VRB02KT CAVOK 29/08 Q1019 NOSIG",
      "taf": "TAF LEMD 240500Z 2406/2512 VRB04KT CAVOK TX40/2416Z TN23/2505Z"
    },
    {
      "icao": "LEMG",
      "alert": "OK",
      "vis_m": 9999,
      "fzfg": false,
      "metar_trigger": false,
      "taf_trigger": false,
      "metar": "METAR LEMG 240800Z 14005KT 110V190 CAVOK 27/16 Q1014 NOSIG",
      "taf": "TAF LEMG 240500Z 2406/2506 29006KT CAVOK TX30/2414Z TN22/2406Z"
    },
    {
      "icao": "LEVC",
      "alert": "OK",
      "vis_m": 9999,
      "fzfg": false,
      "metar_trigger": false,
      "taf_trigger": false,
      "metar": "METAR LEVC 240800Z 33004KT 280V040 CAVOK 30/12 Q1016 NOSIG",
      "taf": "TAF LEVC 240500Z 2406/2506 31004KT CAVOK TX35/2412Z TN22/2406Z"
    },
    {
      "icao": "LEXJ",
      "alert": "OK",
      "vis_m": 9999,
      "fzfg": false,
      "metar_trigger": false,
      "taf_trigger": false,
      "metar": "METAR LEXJ 240800Z VRB02KT CAVOK 29/20 Q1012",
      "taf": "TAF LEXJ 240200Z 2403/2503 18005KT 9999 FEW010 TX38/2412Z TN20/2405Z"
    },
    {
      "icao": "LEZG",
      "alert": "OK",
      "vis_m": 9999,
      "fzfg": false,
      "metar_trigger": false,
      "taf_trigger": false,
      "metar": "METAR LEZG 240800Z 06004KT 030V100 CAVOK 30/13 Q1017 NOSIG",
      "taf": ""
    },
    {
      "icao": "LEZL",
      "alert": "OK",
      "vis_m": 9999,
      "fzfg": false,
      "metar_trigger": false,
      "taf_trigger": false,
      "metar": "METAR LEZL 240800Z 30002KT CAVOK 26/19 Q1014 NOSIG",
      "taf": "TAF LEZL 240200Z 2403/2503 VRB03KT CAVOK TX35/2415Z TN21/2406Z"
    },
    {
      "icao": "LFBD",
      "alert": "OK",
      "vis_m": 9999,
      "fzfg": false,
      "metar_trigger": false,
      "taf_trigger": false,
      "metar": "METAR LFBD 240800Z AUTO 13008KT 090V150 CAVOK 32/16 Q1015 NOSIG",
      "taf": "TAF LFBD 240500Z 2406/2512 10008KT CAVOK TX42/2415Z TN26/2406Z"
    },
    {
      "icao": "LFLL",
      "alert": "OK",
      "vis_m": 9999,
      "fzfg": false,
      "metar_trigger": false,
      "taf_trigger": false,
      "metar": "METAR LFLL 240800Z VRB02KT CAVOK 29/18 Q1018 NOSIG",
      "taf": "TAF LFLL 240500Z 2406/2512 VRB03KT CAVOK"
    },
    {
      "icao": "LFLS",
      "alert": "OK",
      "vis_m": 9999,
      "fzfg": false,
      "metar_trigger": false,
      "taf_trigger": false,
      "metar": "METAR LFLS 240800Z AUTO 08005KT 350V110 CAVOK 30/16 Q1018 NOSIG",
      "taf": "TAF LFLS 240200Z 2403/2503 09007KT CAVOK"
    },
    {
      "icao": "LFMN",
      "alert": "OK",
      "vis_m": 9999,
      "fzfg": false,
      "metar_trigger": false,
      "taf_trigger": false,
      "metar": "METAR LFMN 240800Z 07004KT CAVOK 31/17 Q1016 NOSIG",
      "taf": "TAF LFMN 240200Z 2403/2509 33010KT CAVOK"
    },
    {
      "icao": "LFOB",
      "alert": "OK",
      "vis_m": 9999,
      "fzfg": false,
      "metar_trigger": false,
      "taf_trigger": false,
      "metar": "METAR LFOB 240800Z AUTO 21003KT 130V270 CAVOK 30/18 Q1018 NOSIG",
      "taf": "TAF LFOB 240500Z 2406/2506 VRB05KT CAVOK"
    },
    {
      "icao": "LFPO",
      "alert": "OK",
      "vis_m": 9999,
      "fzfg": false,
      "metar_trigger": false,
      "taf_trigger": false,
      "metar": "METAR LFPO 240800Z 18006KT 150V220 CAVOK 31/16 Q1017 NOSIG",
      "taf": "TAF LFPO 240500Z 2406/2512 VRB04KT CAVOK"
    },
    {
      "icao": "LFSB",
      "alert": "OK",
      "vis_m": 9999,
      "fzfg": false,
      "metar_trigger": false,
      "taf_trigger": false,
      "metar": "METAR LFSB 240800Z AUTO 29003KT 220V360 CAVOK 29/19 Q1019 NOSIG",
      "taf": "TAF LFSB 240500Z 2406/2506 VRB03KT CAVOK"
    },
    {
      "icao": "LGAV",
      "alert": "OK",
      "vis_m": 9999,
      "fzfg": false,
      "metar_trigger": false,
      "taf_trigger": false,
      "metar": "METAR LGAV 240750Z 06014KT CAVOK 29/11 Q1015 NOSIG",
      "taf": "TAF LGAV 240500Z 2406/2506 02014KT 9999 FEW025"
    },
    {
      "icao": "LGTS",
      "alert": "OK",
      "vis_m": 9999,
      "fzfg": false,
      "metar_trigger": false,
      "taf_trigger": false,
      "metar": "METAR LGTS 240750Z 31005KT 9999 FEW025 27/19 Q1015 NOSIG",
      "taf": "TAF LGTS 240500Z 2406/2506 VRB03KT 9999 FEW025"
    },
    {
      "icao": "LHBP",
      "alert": "OK",
      "vis_m": 9999,
      "fzfg": false,
      "metar_trigger": false,
      "taf_trigger": false,
      "metar": "METAR LHBP 240800Z 09005KT 050V140 CAVOK 29/13 Q1018 NOSIG",
      "taf": "TAF LHBP 240515Z 2406/2506 34005KT CAVOK"
    },
    {
      "icao": "LHDC",
      "alert": "OK",
      "vis_m": 9999,
      "fzfg": false,
      "metar_trigger": false,
      "taf_trigger": false,
      "metar": "METAR LHDC 240745Z AUTO 03006KT 340V100 CAVOK 28/14 Q1017 NOSIG",
      "taf": "TAF LHDC 240515Z 2406/2415 03009KT CAVOK"
    },
    {
      "icao": "LIBD",
      "alert": "OK",
      "vis_m": 9999,
      "fzfg": false,
      "metar_trigger": false,
      "taf_trigger": false,
      "metar": "METAR LIBD 240750Z 35009KT 320V020 CAVOK 29/19 Q1015",
      "taf": "TAF LIBD 240500Z 2406/2506 27006KT CAVOK"
    },
    {
      "icao": "LIBG",
      "alert": "OK",
      "vis_m": 9999,
      "fzfg": false,
      "metar_trigger": false,
      "taf_trigger": false,
      "metar": "METAR LIBG 240750Z AUTO 01008KT 9999 NCD 31/18 Q1014",
      "taf": "TAF LIBG 240500Z 2406/2506 VRB04KT 9999 FEW050"
    },
    {
      "icao": "LIBP",
      "alert": "OK",
      "vis_m": 9999,
      "fzfg": false,
      "metar_trigger": false,
      "taf_trigger": false,
      "metar": "METAR LIBP 240750Z AUTO 02007KT 320V060 9999 BKN079/// 30/17 Q1017",
      "taf": "TAF LIBP 240500Z 2406/2506 VRB04KT 9999 SCT030"
    },
    {
      "icao": "LIBR",
      "alert": "OK",
      "vis_m": 9999,
      "fzfg": false,
      "metar_trigger": false,
      "taf_trigger": false,
      "metar": "METAR LIBR 240750Z 33013KT CAVOK 27/22 Q1014",
      "taf": "TAF LIBR 240500Z 2406/2506 28006KT CAVOK"
    },
    {
      "icao": "LICA",
      "alert": "OK",
      "vis_m": 9999,
      "fzfg": false,
      "metar_trigger": false,
      "taf_trigger": false,
      "metar": "METAR LICA 240750Z AUTO 24009KT 200V270 9999 FEW016/// 28/24 Q1016",
      "taf": "TAF LICA 240500Z 2406/2506 VRB05KT 9999 FEW020"
    },
    {
      "icao": "LICC",
      "alert": "OK",
      "vis_m": 9999,
      "fzfg": false,
      "metar_trigger": false,
      "taf_trigger": false,
      "metar": "METAR LICC 240750Z 16003KT 110V220 CAVOK 31/22 Q1015",
      "taf": "TAF LICC 240500Z 2406/2506 26006KT CAVOK"
    },
    {
      "icao": "LICJ",
      "alert": "OK",
      "vis_m": 9999,
      "fzfg": false,
      "metar_trigger": false,
      "taf_trigger": false,
      "metar": "METAR LICJ 240750Z 30004KT CAVOK 27/23 Q1016",
      "taf": "TAF LICJ 240500Z 2406/2506 VRB05KT CAVOK"
    },
    {
      "icao": "LIMC",
      "alert": "OK",
      "vis_m": 9999,
      "fzfg": false,
      "metar_trigger": false,
      "taf_trigger": false,
      "metar": "METAR LIMC 240750Z 14005KT 090V170 CAVOK 30/19 Q1019 NOSIG",
      "taf": "TAF LIMC 240500Z 2406/2512 VRB06KT CAVOK"
    },
    {
      "icao": "LIME",
      "alert": "OK",
      "vis_m": 9999,
      "fzfg": false,
      "metar_trigger": false,
      "taf_trigger": false,
      "metar": "METAR LIME 240750Z VRB01KT CAVOK 30/19 Q1018 NOSIG",
      "taf": "TAF LIME 240500Z 2406/2506 VRB05KT CAVOK"
    },
    {
      "icao": "LIMF",
      "alert": "OK",
      "vis_m": 9999,
      "fzfg": false,
      "metar_trigger": false,
      "taf_trigger": false,
      "metar": "METAR LIMF 240750Z 06007KT 020V090 CAVOK 29/19 Q1019",
      "taf": "TAF LIMF 240500Z 2406/2506 VRB06KT CAVOK"
    },
    {
      "icao": "LIMJ",
      "alert": "OK",
      "vis_m": 9999,
      "fzfg": false,
      "metar_trigger": false,
      "taf_trigger": false,
      "metar": "METAR LIMJ 240750Z 14009KT CAVOK 27/22 Q1016",
      "taf": "TAF LIMJ 240500Z 2406/2506 VRB06KT CAVOK"
    },
    {
      "icao": "LIPE",
      "alert": "OK",
      "vis_m": 9999,
      "fzfg": false,
      "metar_trigger": false,
      "taf_trigger": false,
      "metar": "METAR LIPE 240750Z VRB03KT CAVOK 30/19 Q1017",
      "taf": ""
    },
    {
      "icao": "LIPH",
      "alert": "OK",
      "vis_m": 9999,
      "fzfg": false,
      "metar_trigger": false,
      "taf_trigger": false,
      "metar": "METAR LIPH 240750Z 11005KT 060V140 CAVOK 31/19 Q1017",
      "taf": "TAF LIPH 240500Z 2406/2506 VRB05KT 9999 FEW040"
    },
    {
      "icao": "LIPQ",
      "alert": "OK",
      "vis_m": 9999,
      "fzfg": false,
      "metar_trigger": false,
      "taf_trigger": false,
      "metar": "METAR LIPQ 240750Z AUTO VRB02KT 9999 NCD 30/21 Q1017",
      "taf": "TAF LIPQ 240500Z 2406/2506 08007KT 9999 FEW040"
    },
    {
      "icao": "LIPR",
      "alert": "OK",
      "vis_m": 9999,
      "fzfg": false,
      "metar_trigger": false,
      "taf_trigger": false,
      "metar": "METAR LIPR 240750Z 06004KT 030V100 CAVOK 28/23 Q1017",
      "taf": "TAF LIPR 240500Z 2406/2506 VRB05KT CAVOK"
    },
    {
      "icao": "LIPX",
      "alert": "OK",
      "vis_m": 9999,
      "fzfg": false,
      "metar_trigger": false,
      "taf_trigger": false,
      "metar": "METAR LIPX 240750Z 10004KT 030V160 CAVOK 30/20 Q1017",
      "taf": "TAF LIPX 240500Z 2406/2506 VRB05KT CAVOK"
    },
    {
      "icao": "LIPY",
      "alert": "OK",
      "vis_m": 9999,
      "fzfg": false,
      "metar_trigger": false,
      "taf_trigger": false,
      "metar": "METAR LIPY 240750Z AUTO 04005KT 010V070 9999 NCD 30/20 Q1017",
      "taf": "TAF LIPY 240500Z 2406/2506 VRB05KT CAVOK"
    },
    {
      "icao": "LIPZ",
      "alert": "OK",
      "vis_m": 9999,
      "fzfg": false,
      "metar_trigger": false,
      "taf_trigger": false,
      "metar": "METAR LIPZ 240750Z VRB02KT CAVOK 29/21 Q1017 NOSIG",
      "taf": "TAF LIPZ 240500Z 2406/2512 VRB05KT CAVOK"
    },
    {
      "icao": "LIRF",
      "alert": "OK",
      "vis_m": 9999,
      "fzfg": false,
      "metar_trigger": false,
      "taf_trigger": false,
      "metar": "METAR LIRF 240750Z 04003KT 010V090 CAVOK 29/18 Q1016 NOSIG",
      "taf": "TAF LIRF 240500Z 2406/2512 VRB05KT CAVOK"
    },
    {
      "icao": "LIRN",
      "alert": "OK",
      "vis_m": 9999,
      "fzfg": false,
      "metar_trigger": false,
      "taf_trigger": false,
      "metar": "METAR LIRN 240750Z 03005KT 300V070 CAVOK 30/17 Q1016 NOSIG",
      "taf": "TAF LIRN 240500Z 2406/2506 VRB05KT CAVOK"
    },
    {
      "icao": "LIRP",
      "alert": "OK",
      "vis_m": 9999,
      "fzfg": false,
      "metar_trigger": false,
      "taf_trigger": false,
      "metar": "METAR LIRP 240745Z 13003KT CAVOK 27/20 Q1016 NOSIG",
      "taf": "TAF LIRP 240500Z 2406/2506 11005KT CAVOK"
    },
    {
      "icao": "LIRZ",
      "alert": "OK",
      "vis_m": 9999,
      "fzfg": false,
      "metar_trigger": false,
      "taf_trigger": false,
      "metar": "METAR LIRZ 240750Z AUTO VRB03KT 9999 NCD 29/17 Q1017",
      "taf": "TAF LIRZ 240500Z 2406/2506 VRB05KT CAVOK"
    },
    {
      "icao": "LJLJ",
      "alert": "OK",
      "vis_m": 9999,
      "fzfg": false,
      "metar_trigger": false,
      "taf_trigger": false,
      "metar": "METAR LJLJ 240800Z 04005KT 330V100 9999 FEW050 26/20 Q1020 NOSIG",
      "taf": "TAF LJLJ 240500Z 2406/2506 09006KT 9999 SCT055"
    },
    {
      "icao": "LKMT",
      "alert": "OK",
      "vis_m": 9999,
      "fzfg": false,
      "metar_trigger": false,
      "taf_trigger": false,
      "metar": "METAR LKMT 240800Z VRB03KT CAVOK 22/12 Q1021 NOSIG",
      "taf": "TAF LKMT 240500Z 2406/2506 VRB02KT CAVOK"
    },
    {
      "icao": "LKPR",
      "alert": "OK",
      "vis_m": 9999,
      "fzfg": false,
      "metar_trigger": false,
      "taf_trigger": false,
      "metar": "METAR LKPR 240800Z 02003KT 290V080 CAVOK 26/14 Q1021 NOSIG",
      "taf": "TAF LKPR 240500Z 2406/2512 33003KT CAVOK"
    },
    {
      "icao": "LLBG",
      "alert": "OK",
      "vis_m": 9999,
      "fzfg": false,
      "metar_trigger": false,
      "taf_trigger": false,
      "metar": "METAR LLBG 240750Z 26009KT 220V290 9999 FEW030 29/19 Q1011 NOSIG",
      "taf": "TAF LLBG 240505Z 2406/2506 VRB03KT 9999 FEW025 TX31/2411Z TN22/2503Z"
    },
    {
      "icao": "LMML",
      "alert": "OK",
      "vis_m": 9999,
      "fzfg": false,
      "metar_trigger": false,
      "taf_trigger": false,
      "metar": "METAR LMML 240745Z 31009KT CAVOK 31/18 Q1016 NOSIG",
      "taf": "TAF LMML 240500Z 2406/2506 28009KT CAVOK"
    },
    {
      "icao": "LOWW",
      "alert": "OK",
      "vis_m": 9999,
      "fzfg": false,
      "metar_trigger": false,
      "taf_trigger": false,
      "metar": "METAR LOWW 240750Z 34006KT 290V050 CAVOK 26/12 Q1020 NOSIG",
      "taf": "TAF LOWW 240515Z 2406/2512 35010KT CAVOK TX32/2512Z TN18/2503Z"
    },
    {
      "icao": "LPFR",
      "alert": "OK",
      "vis_m": 9999,
      "fzfg": false,
      "metar_trigger": false,
      "taf_trigger": false,
      "metar": "METAR LPFR 240800Z 28004KT 240V330 9999 FEW018 21/17 Q1014",
      "taf": "TAF LPFR 240500Z 2406/2506 VRB02KT 9999 SCT008"
    },
    {
      "icao": "LPMA",
      "alert": "OK",
      "vis_m": 9999,
      "fzfg": false,
      "metar_trigger": false,
      "taf_trigger": false,
      "metar": "METAR LPMA 240800Z VRB02KT 9999 FEW015 22/17 Q1016",
      "taf": "TAF LPMA 240500Z 2406/2506 VRB05KT 9999 FEW015"
    },
    {
      "icao": "LPPR",
      "alert": "OK",
      "vis_m": 2000,
      "fzfg": false,
      "metar_trigger": false,
      "taf_trigger": false,
      "metar": "METAR LPPR 240800Z 18008KT 2000 -DZ BR SCT001 BKN003 19/19 Q1015",
      "taf": "TAF LPPR 240500Z 2406/2506 19008KT 6000 SCT004"
    },
    {
      "icao": "LPPS",
      "alert": "OK",
      "vis_m": 9999,
      "fzfg": false,
      "metar_trigger": false,
      "taf_trigger": false,
      "metar": "METAR LPPS 240800Z 26010KT 9999 SCT010 21/19 Q1016",
      "taf": "TAF LPPS 240500Z 2406/2512 29012KT 9999 FEW015"
    },
    {
      "icao": "LPPT",
      "alert": "OK",
      "vis_m": 9999,
      "fzfg": false,
      "metar_trigger": false,
      "taf_trigger": false,
      "metar": "METAR LPPT 240800Z VRB04KT 9999 BKN016 22/17 Q1014",
      "taf": "TAF LPPT 240500Z 2406/2512 21008KT 9999 BKN008"
    },
    {
      "icao": "LQBK",
      "alert": "OK",
      "vis_m": 9999,
      "fzfg": false,
      "metar_trigger": false,
      "taf_trigger": false,
      "metar": "METAR LQBK 240800Z 30006KT 240V340 CAVOK 27/16 Q1018 NOSIG",
      "taf": "TAF LQBK 240500Z 2406/2506 29005KT CAVOK TX32/2414Z TN19/2503Z"
    },
    {
      "icao": "LQSA",
      "alert": "OK",
      "vis_m": 9999,
      "fzfg": false,
      "metar_trigger": false,
      "taf_trigger": false,
      "metar": "METAR LQSA 240800Z VRB02KT CAVOK 24/17 Q1019 NOSIG",
      "taf": "TAF LQSA 240500Z 2406/2506 VRB02KT CAVOK TX28/2414Z TN16/2503Z"
    },
    {
      "icao": "LQTZ",
      "alert": "OK",
      "vis_m": 9999,
      "fzfg": false,
      "metar_trigger": false,
      "taf_trigger": false,
      "metar": "METAR LQTZ 240800Z 33006KT 280V010 CAVOK 27/18 Q1018",
      "taf": "TAF LQTZ 240500Z 2406/2506 30005KT CAVOK TX30/2414Z TN15/2503Z"
    },
    {
      "icao": "LRBC",
      "alert": "OK",
      "vis_m": 9999,
      "fzfg": false,
      "metar_trigger": false,
      "taf_trigger": false,
      "metar": "METAR LRBC 240800Z AUTO 32008KT 9999 BKN087/// 25/19 Q1018",
      "taf": "TAF LRBC 240500Z 2406/2415 35008KT CAVOK"
    },
    {
      "icao": "LRBS",
      "alert": "OK",
      "vis_m": 9999,
      "fzfg": false,
      "metar_trigger": false,
      "taf_trigger": false,
      "metar": "METAR LRBS 240800Z 28003KT 240V350 9999 FEW044 24/20 Q1017 NOSIG",
      "taf": "TAF LRBS 240500Z 2406/2506 VRB04KT CAVOK"
    },
    {
      "icao": "LRBV",
      "alert": "OK",
      "vis_m": 9999,
      "fzfg": false,
      "metar_trigger": false,
      "taf_trigger": false,
      "metar": "METAR LRBV 240800Z VRB04KT 9999 FEW045CB 24/16 Q1019",
      "taf": "TAF LRBV 240500Z 2406/2415 VRB04KT CAVOK"
    },
    {
      "icao": "LRCL",
      "alert": "OK",
      "vis_m": 9999,
      "fzfg": false,
      "metar_trigger": false,
      "taf_trigger": false,
      "metar": "METAR LRCL 240800Z 10003KT 030V150 9999 FEW030 26/17 Q1018",
      "taf": "TAF LRCL 240500Z 2406/2415 VRB04KT CAVOK"
    },
    {
      "icao": "LRCV",
      "alert": "OK",
      "vis_m": 9999,
      "fzfg": false,
      "metar_trigger": false,
      "taf_trigger": false,
      "metar": "METAR LRCV 240800Z 30003KT 230V350 9999 FEW006 SCT010 22/21 Q1018",
      "taf": "TAF LRCV 240500Z 2406/2415 VRB04KT 0600 FG OVC002"
    },
    {
      "icao": "LRIA",
      "alert": "OK",
      "vis_m": 9999,
      "fzfg": false,
      "metar_trigger": false,
      "taf_trigger": false,
      "metar": "METAR LRIA 240800Z 31005KT 270V350 9999 SCT025 26/18 Q1017",
      "taf": "TAF LRIA 240500Z 2406/2415 VRB04KT CAVOK"
    },
    {
      "icao": "LROP",
      "alert": "OK",
      "vis_m": 9999,
      "fzfg": false,
      "metar_trigger": false,
      "taf_trigger": false,
      "metar": "METAR LROP 240800Z 00000KT CAVOK 24/20 Q1017 NOSIG",
      "taf": "TAF LROP 240500Z 2406/2506 VRB04KT CAVOK"
    },
    {
      "icao": "LRSB",
      "alert": "OK",
      "vis_m": 9999,
      "fzfg": false,
      "metar_trigger": false,
      "taf_trigger": false,
      "metar": "METAR LRSB 240800Z VRB03KT 9999 FEW038 FEW040CB 25/18 Q1018",
      "taf": "TAF LRSB 240500Z 2406/2506 VRB04KT CAVOK"
    },
    {
      "icao": "LRSM",
      "alert": "OK",
      "vis_m": 9999,
      "fzfg": false,
      "metar_trigger": false,
      "taf_trigger": false,
      "metar": "METAR LRSM 240800Z VRB03KT CAVOK 28/17 Q1017",
      "taf": "TAF LRSM 240500Z 2406/2415 VRB04KT CAVOK"
    },
    {
      "icao": "LRSV",
      "alert": "OK",
      "vis_m": 9999,
      "fzfg": false,
      "metar_trigger": false,
      "taf_trigger": false,
      "metar": "METAR LRSV 240800Z 33006KT 280V010 9999 FEW040 24/17 Q1019",
      "taf": "TAF LRSV 240500Z 2406/2415 35008KT CAVOK"
    },
    {
      "icao": "LRTM",
      "alert": "OK",
      "vis_m": 9999,
      "fzfg": false,
      "metar_trigger": false,
      "taf_trigger": false,
      "metar": "METAR LRTM 240800Z VRB04KT 9999 SCT030 26/21 Q1018",
      "taf": "TAF LRTM 240500Z 2406/2415 VRB04KT CAVOK"
    },
    {
      "icao": "LRTR",
      "alert": "OK",
      "vis_m": 9999,
      "fzfg": false,
      "metar_trigger": false,
      "taf_trigger": false,
      "metar": "METAR LRTR 240800Z VRB03KT CAVOK 27/21 Q1017",
      "taf": "TAF LRTR 240500Z 2406/2506 VRB04KT CAVOK"
    },
    {
      "icao": "LTAC",
      "alert": "OK",
      "vis_m": 9999,
      "fzfg": false,
      "metar_trigger": false,
      "taf_trigger": false,
      "metar": "METAR LTAC 240750Z 06010KT 020V090 CAVOK 23/06 Q1017 NOSIG RMK RWY21C 09009KT 040V110 RWY03L 06009KT 010V100 RWY21R 07009KT 010V110 RWY03R 06009KT 020V080 RWY21L 07009KT 030V100",
      "taf": "TAF LTAC 240440Z 2406/2506 04009KT CAVOK"
    },
    {
      "icao": "LTFM",
      "alert": "OK",
      "vis_m": 9999,
      "fzfg": false,
      "metar_trigger": false,
      "taf_trigger": false,
      "metar": "METAR LTFM 240750Z 04014KT 9999 SCT016 25/19 Q1015 NOSIG RMK RWY17L 04013KT RWY34L 04013KT 360V060 RWY16R 04014KT RWY36 04015KT RWY18 05012KT",
      "taf": "TAF LTFM 240440Z 2406/2512 04015KT 9999 SCT016"
    },
    {
      "icao": "LUKK",
      "alert": "OK",
      "vis_m": 9999,
      "fzfg": false,
      "metar_trigger": false,
      "taf_trigger": false,
      "metar": "METAR LUKK 240800Z 36004KT 310V080 9999 SCT033 27/19 Q1016 NOSIG",
      "taf": "TAF LUKK 240501Z 2406/2506 34008KT CAVOK"
    },
    {
      "icao": "LWOH",
      "alert": "OK",
      "vis_m": 9999,
      "fzfg": false,
      "metar_trigger": false,
      "taf_trigger": false,
      "metar": "METAR LWOH 240750Z 14007KT 9999 FEW035 24/18 Q1018",
      "taf": "TAF LWOH 240520Z 2406/2506 VRB03KT 9999 FEW050"
    },
    {
      "icao": "LWSK",
      "alert": "OK",
      "vis_m": 9999,
      "fzfg": false,
      "metar_trigger": false,
      "taf_trigger": false,
      "metar": "METAR LWSK 240750Z 26004KT 150V310 9999 FEW050 29/17 Q1016 NOSIG",
      "taf": "TAF LWSK 240520Z 2406/2506 VRB02KT 9999 FEW060"
    },
    {
      "icao": "LYBE",
      "alert": "OK",
      "vis_m": 9999,
      "fzfg": false,
      "metar_trigger": false,
      "taf_trigger": false,
      "metar": "METAR LYBE 240800Z VRB03KT CAVOK 27/19 Q1017 NOSIG",
      "taf": "TAF LYBE 240500Z 2406/2506 32007KT CAVOK TX32/2414Z TN19/2503Z"
    },
    {
      "icao": "LYNI",
      "alert": "OK",
      "vis_m": 9999,
      "fzfg": false,
      "metar_trigger": false,
      "taf_trigger": false,
      "metar": "METAR LYNI 240800Z VRB02KT 9999 FEW040 26/19 Q1017 NOSIG",
      "taf": "TAF LYNI 240500Z 2406/2506 10004KT 9999 SCT050 TX31/2414Z TN17/2503Z"
    },
    {
      "icao": "LYPG",
      "alert": "OK",
      "vis_m": 9999,
      "fzfg": false,
      "metar_trigger": false,
      "taf_trigger": false,
      "metar": "METAR LYPG 240800Z 13003KT 060V210 CAVOK 29/19 Q1014 NOSIG",
      "taf": "TAF LYPG 240500Z 2406/2506 18008KT 9999 FEW040 TX35/2412Z TN22/2503Z"
    },
    {
      "icao": "LZIB",
      "alert": "OK",
      "vis_m": 9999,
      "fzfg": false,
      "metar_trigger": false,
      "taf_trigger": false,
      "metar": "METAR LZIB 240800Z 32013KT CAVOK 27/13 Q1019 NOSIG",
      "taf": "TAF LZIB 240515Z 2406/2506 VRB02KT CAVOK"
    },
    {
      "icao": "LZKZ",
      "alert": "OK",
      "vis_m": 9999,
      "fzfg": false,
      "metar_trigger": false,
      "taf_trigger": false,
      "metar": "METAR LZKZ 240800Z 02009KT 350V060 CAVOK 26/13 Q1019 NOSIG",
      "taf": "TAF LZKZ 240515Z 2406/2506 03008KT CAVOK"
    },
    {
      "icao": "LZTT",
      "alert": "OK",
      "vis_m": 9999,
      "fzfg": false,
      "metar_trigger": false,
      "taf_trigger": false,
      "metar": "METAR LZTT 240800Z 08007KT 020V120 9999 FEW043 22/12 Q1021 NOSIG",
      "taf": "TAF LZTT 240515Z 2406/2506 29004KT 9999 SCT063"
    },
    {
      "icao": "OEJN",
      "alert": "OK",
      "vis_m": 9999,
      "fzfg": false,
      "metar_trigger": false,
      "taf_trigger": false,
      "metar": "METAR OEJN 240800Z 28010KT 9999 FEW040 33/21 Q1007 NOSIG",
      "taf": "TAF OEJN 240500Z 2406/2512 30014KT CAVOK"
    },
    {
      "icao": "OEMA",
      "alert": "OK",
      "vis_m": 9999,
      "fzfg": false,
      "metar_trigger": false,
      "taf_trigger": false,
      "metar": "METAR OEMA 240800Z VRB03KT CAVOK 41/M02 Q1012 NOSIG",
      "taf": "TAF OEMA 240500Z 2406/2512 32010KT CAVOK"
    },
    {
      "icao": "OJAI",
      "alert": "OK",
      "vis_m": 5000,
      "fzfg": false,
      "metar_trigger": false,
      "taf_trigger": false,
      "metar": "METAR OJAI 240800Z 28014KT 5000 HZ NSC 27/09 Q1014 NOSIG",
      "taf": "TAF OJAI 240439Z 2406/2512 29012KT 5000 HZ NSC"
    },
    {
      "icao": "OMAA",
      "alert": "OK",
      "vis_m": 9999,
      "fzfg": false,
      "metar_trigger": false,
      "taf_trigger": false,
      "metar": "METAR OMAA 240800Z 18007KT 120V240 CAVOK 44/17 Q0998 BECMG 33014KT",
      "taf": "TAF OMAA 240500Z 2406/2512 20012KT 8000 NSC"
    },
    {
      "icao": "OMDB",
      "alert": "OK",
      "vis_m": 5000,
      "fzfg": false,
      "metar_trigger": false,
      "taf_trigger": false,
      "metar": "METAR OMDB 240800Z 32013KT 5000 DU NSC 41/26 Q0998 NOSIG",
      "taf": "TAF OMDB 240500Z 2406/2512 18012KT 7000 NSC"
    },
    {
      "icao": "UAAA",
      "alert": "OK",
      "vis_m": 9999,
      "fzfg": false,
      "metar_trigger": false,
      "taf_trigger": false,
      "metar": "METAR UAAA 240800Z 29003MPS 230V030 9999 SCT050CB BKN100 29/12 Q1010 NOSIG",
      "taf": "TAF UAAA 240505Z 2406/2506 26003G08MPS 9999 SCT050CB OVC100 TX32/2409Z TN19/2501Z"
    },
    {
      "icao": "UBBB",
      "alert": "OK",
      "vis_m": 9999,
      "fzfg": false,
      "metar_trigger": false,
      "taf_trigger": false,
      "metar": "METAR UBBB 240800Z 14006KT CAVOK 31/12 Q1010 NOSIG",
      "taf": "TAF UBBB 240457Z 2406/2506 10006KT 9999 SCT040 TX29/2410Z TN21/2501Z"
    },
    {
      "icao": "UDSG",
      "alert": "OK",
      "vis_m": 9999,
      "fzfg": false,
      "metar_trigger": false,
      "taf_trigger": false,
      "metar": "METAR UDSG 240800Z 27003KT 230V310 9999 BKN043CB 21/11 Q1016 NOSIG",
      "taf": "TAF UDSG 240458Z 2406/2506 06006KT 9999 SCT040"
    },
    {
      "icao": "UDYZ",
      "alert": "OK",
      "vis_m": 9999,
      "fzfg": false,
      "metar_trigger": false,
      "taf_trigger": false,
      "metar": "METAR UDYZ 240800Z 30006KT 260V340 9999 SCT043CB 30/11 Q1009 NOSIG",
      "taf": "TAF UDYZ 240500Z 2406/2506 34006KT 9999 SCT040"
    },
    {
      "icao": "UGKO",
      "alert": "OK",
      "vis_m": 4500,
      "fzfg": false,
      "metar_trigger": false,
      "taf_trigger": false,
      "metar": "METAR UGKO 240800Z 27007KT 4500 SHRA SCT007 BKN016CB OVC030 20/18 Q1013 NOSIG",
      "taf": "TAF UGKO 240500Z 2406/2506 25006KT 9999 SCT025 OVC033 TX24/2411Z TN18/2502Z"
    }
  ]
}