{
  "ts_utc": "2025-12-26T04:22:36Z",
  "threshold_m": 150,
  "source": "stations_override.txt (ICAO list) + aviationweather.gov (METAR/TAF raw)",
  "station_count": 159,
  "stations": [
    {
      "icao": "BIKF",
      "alert": "OK",
      "vis_m": 9999,
      "fzfg": false,
      "metar_trigger": false,
      "taf_trigger": false,
      "metar": "METAR BIKF 260400Z 28021KT 9999 -DZRA BKN013 BKN060 04/01 Q1021",
      "taf": "TAF BIKF 260120Z 2603/2703 28022G32KT 4000 -RADZ BR SCT007 BKN013 TX04/2613Z TN00/2703Z"
    },
    {
      "icao": "BKPR",
      "alert": "OK",
      "vis_m": 9999,
      "fzfg": false,
      "metar_trigger": false,
      "taf_trigger": false,
      "metar": "METAR BKPR 260400Z 35009KT 9999 SCT010 BKN020 M01/M02 Q1026 NOSIG",
      "taf": "TAF BKPR 252330Z 2600/2624 35012KT 9999 SCT010 BKN025"
    },
    {
      "icao": "EBCI",
      "alert": "OK",
      "vis_m": 9999,
      "fzfg": false,
      "metar_trigger": false,
      "taf_trigger": false,
      "metar": "METAR EBCI 260350Z 04009KT CAVOK M05/M06 Q1025 NOSIG",
      "taf": "TAF EBCI 252301Z 2600/2706 05008KT CAVOK"
    },
    {
      "icao": "EDDB",
      "alert": "OK",
      "vis_m": 6000,
      "fzfg": false,
      "metar_trigger": false,
      "taf_trigger": false,
      "metar": "METAR EDDB 260350Z AUTO VRB02KT 6000 FEW002 M09/M10 Q1033 TEMPO 3000 BR BKN002",
      "taf": "TAF EDDB 252300Z 2600/2624 04005KT 9999 FEW015"
    },
    {
      "icao": "EDDH",
      "alert": "OK",
      "vis_m": 9999,
      "fzfg": false,
      "metar_trigger": false,
      "taf_trigger": false,
      "metar": "METAR EDDH 260350Z AUTO VRB02KT CAVOK M07/M10 Q1034 NOSIG",
      "taf": "TAF EDDH 252300Z 2600/2706 VRB03KT CAVOK"
    },
    {
      "icao": "EDDK",
      "alert": "OK",
      "vis_m": 9999,
      "fzfg": false,
      "metar_trigger": false,
      "taf_trigger": false,
      "metar": "METAR EDDK 260350Z AUTO 15003KT CAVOK M04/M06 Q1028 NOSIG",
      "taf": "TAF EDDK 252300Z 2600/2706 09006KT CAVOK"
    },
    {
      "icao": "EDDN",
      "alert": "OK",
      "vis_m": 9999,
      "fzfg": false,
      "metar_trigger": false,
      "taf_trigger": false,
      "metar": "METAR EDDN 260350Z AUTO 08004KT 050V110 CAVOK M02/M04 Q1027",
      "taf": "TAF EDDN 252300Z 2600/2624 07007KT CAVOK"
    },
    {
      "icao": "EDDS",
      "alert": "OK",
      "vis_m": 9999,
      "fzfg": false,
      "metar_trigger": false,
      "taf_trigger": false,
      "metar": "METAR EDDS 260350Z AUTO 06003KT 9999 FEW014 M05/M06 Q1023",
      "taf": "TAF EDDS 252300Z 2600/2624 05005KT 9999 FEW020"
    },
    {
      "icao": "EDFH",
      "alert": "OK",
      "vis_m": 9999,
      "fzfg": false,
      "metar_trigger": false,
      "taf_trigger": false,
      "metar": "METAR EDFH 260350Z 08009KT CAVOK M04/M05 Q1024",
      "taf": "TAF EDFH 252300Z 2600/2624 08010KT CAVOK"
    },
    {
      "icao": "EDJA",
      "alert": "OK",
      "vis_m": 3600,
      "fzfg": false,
      "metar_trigger": false,
      "taf_trigger": false,
      "metar": "METAR EDJA 260350Z AUTO 08006KT 040V120 3600 // OVC002/// M03/M03 Q1022",
      "taf": "TAF EDJA 260200Z 2603/2612 06008KT 4500 BR OVC002"
    },
    {
      "icao": "EDLW",
      "alert": "OK",
      "vis_m": 9999,
      "fzfg": false,
      "metar_trigger": false,
      "taf_trigger": false,
      "metar": "METAR EDLW 260350Z AUTO 03005KT 9999 // NCD M06/M08 Q1029",
      "taf": "TAF EDLW 251700Z 2518/2618 06009KT CAVOK"
    },
    {
      "icao": "EDNY",
      "alert": "OK",
      "vis_m": 9999,
      "fzfg": false,
      "metar_trigger": false,
      "taf_trigger": false,
      "metar": "METAR EDNY 260350Z AUTO 07007KT 9999 // OVC009/// M01/M03 Q1023",
      "taf": ""
    },
    {
      "icao": "EDSB",
      "alert": "OK",
      "vis_m": 9999,
      "fzfg": false,
      "metar_trigger": false,
      "taf_trigger": false,
      "metar": "METAR EDSB 260350Z 03009KT CAVOK M01/M04 Q1024",
      "taf": "TAF EDSB 252300Z 2600/2624 03010KT CAVOK"
    },
    {
      "icao": "EETN",
      "alert": "OK",
      "vis_m": 9999,
      "fzfg": false,
      "metar_trigger": false,
      "taf_trigger": false,
      "metar": "METAR EETN 260420Z 33012KT CAVOK 05/01 Q1020 NOSIG",
      "taf": "TAF EETN 252330Z 2600/2624 33014KT CAVOK"
    },
    {
      "icao": "EFTU",
      "alert": "OK",
      "vis_m": 9999,
      "fzfg": false,
      "metar_trigger": false,
      "taf_trigger": false,
      "metar": "METAR EFTU 260420Z AUTO 30006KT CAVOK 03/02 Q1022",
      "taf": "TAF EFTU 260226Z 2603/2703 32005KT CAVOK"
    },
    {
      "icao": "EGBB",
      "alert": "OK",
      "vis_m": 9999,
      "fzfg": false,
      "metar_trigger": false,
      "taf_trigger": false,
      "metar": "METAR EGBB 260350Z 04005KT 9999 OVC017 02/M01 Q1030",
      "taf": "TAF EGBB 252257Z 2600/2624 04012KT CAVOK"
    },
    {
      "icao": "EGGP",
      "alert": "OK",
      "vis_m": 9999,
      "fzfg": false,
      "metar_trigger": false,
      "taf_trigger": false,
      "metar": "METAR EGGP 260350Z AUTO 07011KT 9999 NCD 02/M00 Q1031",
      "taf": ""
    },
    {
      "icao": "EGGW",
      "alert": "OK",
      "vis_m": 9999,
      "fzfg": false,
      "metar_trigger": false,
      "taf_trigger": false,
      "metar": "METAR EGGW 260350Z AUTO 06010KT 9999 OVC012 02/00 Q1028",
      "taf": "TAF EGGW 252257Z 2600/2624 06013KT 9999 FEW025"
    },
    {
      "icao": "EGKK",
      "alert": "OK",
      "vis_m": 9999,
      "fzfg": false,
      "metar_trigger": false,
      "taf_trigger": false,
      "metar": "METAR EGKK 260350Z 04007KT 9999 BKN017 03/00 Q1027",
      "taf": "TAF EGKK 252252Z 2600/2706 06009KT 9999 BKN020"
    },
    {
      "icao": "EGNM",
      "alert": "OK",
      "vis_m": null,
      "fzfg": false,
      "metar_trigger": false,
      "taf_trigger": false,
      "metar": "",
      "taf": ""
    },
    {
      "icao": "EGPD",
      "alert": "OK",
      "vis_m": 9999,
      "fzfg": false,
      "metar_trigger": false,
      "taf_trigger": false,
      "metar": "METAR EGPD 260350Z COR AUTO 01002KT 9999 OVC019 04/03 Q1036 NOSIG",
      "taf": "TAF EGPD 252257Z 2600/2624 VRB02KT 9999 BKN020"
    },
    {
      "icao": "EGPF",
      "alert": "OK",
      "vis_m": 9999,
      "fzfg": false,
      "metar_trigger": false,
      "taf_trigger": false,
      "metar": "METAR EGPF 260350Z AUTO 08007KT 9999 OVC027 06/02 Q1036",
      "taf": "TAF EGPF 252257Z 2600/2624 06005KT 9999 SCT024"
    },
    {
      "icao": "EHBK",
      "alert": "OK",
      "vis_m": 9999,
      "fzfg": false,
      "metar_trigger": false,
      "taf_trigger": false,
      "metar": "METAR EHBK 260355Z AUTO 05011KT 9999 NCD M05/M06 Q1026",
      "taf": "TAF EHBK 252302Z 2600/2706 05012KT CAVOK"
    },
    {
      "icao": "EHEH",
      "alert": "OK",
      "vis_m": 9999,
      "fzfg": false,
      "metar_trigger": false,
      "taf_trigger": false,
      "metar": "METAR EHEH 260355Z AUTO 06007KT 9999 NCD M04/M07 Q1028 BLU",
      "taf": "TAF EHEH 252325Z 2600/2706 06008KT CAVOK"
    },
    {
      "icao": "EKBI",
      "alert": "OK",
      "vis_m": 9999,
      "fzfg": false,
      "metar_trigger": false,
      "taf_trigger": false,
      "metar": "METAR EKBI 260350Z AUTO 24002KT 9999 OVC012/// M01/M02 Q1035",
      "taf": "TAF EKBI 260227Z 2603/2703 24003KT 9999 OVC012"
    },
    {
      "icao": "EKCH",
      "alert": "OK",
      "vis_m": 9999,
      "fzfg": false,
      "metar_trigger": false,
      "taf_trigger": false,
      "metar": "METAR EKCH 260350Z 26005KT 9999 BKN009 00/M00 Q1033 TEMPO BKN010",
      "taf": "TAF EKCH 260227Z 2603/2703 28008KT 9999 BKN008"
    },
    {
      "icao": "ENAL",
      "alert": "OK",
      "vis_m": 9999,
      "fzfg": false,
      "metar_trigger": false,
      "taf_trigger": false,
      "metar": "METAR ENAL 260350Z AUTO 16008KT 9999 OVC018/// 06/04 Q1036",
      "taf": "TAF ENAL 260200Z 2603/2612 15005KT 9999 FEW015 BKN025"
    },
    {
      "icao": "ENBR",
      "alert": "OK",
      "vis_m": 9999,
      "fzfg": false,
      "metar_trigger": false,
      "taf_trigger": false,
      "metar": "METAR ENBR 260350Z 08003KT 040V120 CAVOK 01/M00 Q1034 RMK WIND 1200FT 03017KT",
      "taf": "TAF ENBR 252300Z 2600/2624 34005KT CAVOK"
    },
    {
      "icao": "ENGM",
      "alert": "OK",
      "vis_m": 9999,
      "fzfg": false,
      "metar_trigger": false,
      "taf_trigger": false,
      "metar": "METAR ENGM 260350Z 03007KT CAVOK M05/M05 Q1032",
      "taf": "TAF ENGM 252300Z 2600/2624 VRB03KT CAVOK"
    },
    {
      "icao": "ENHD",
      "alert": "OK",
      "vis_m": 9999,
      "fzfg": false,
      "metar_trigger": false,
      "taf_trigger": false,
      "metar": "METAR ENHD 260350Z AUTO VRB02KT 9999 NCD M00/M01 Q1033",
      "taf": "TAF ENHD 260200Z 2603/2612 VRB04KT CAVOK"
    },
    {
      "icao": "ENTC",
      "alert": "OK",
      "vis_m": 9999,
      "fzfg": false,
      "metar_trigger": false,
      "taf_trigger": false,
      "metar": "METAR ENTC 260350Z AUTO 28022G32KT 9999 -DZRA SCT033/// BKN040/// 07/03 Q1018 RERA RMK WIND 2600FT 29039G53KT",
      "taf": ""
    },
    {
      "icao": "ENTO",
      "alert": "OK",
      "vis_m": 9999,
      "fzfg": false,
      "metar_trigger": false,
      "taf_trigger": false,
      "metar": "METAR ENTO 260350Z AUTO 00000KT 9999 // NCD M00/M02 Q1032",
      "taf": "TAF ENTO 252300Z 2600/2624 VRB03KT CAVOK"
    },
    {
      "icao": "ENVA",
      "alert": "OK",
      "vis_m": 9999,
      "fzfg": false,
      "metar_trigger": false,
      "taf_trigger": false,
      "metar": "METAR ENVA 260350Z 30003KT 9999 -DZRA OVC021 06/05 Q1034 RMK WIND 670FT 29009KT",
      "taf": "TAF ENVA 252300Z 2600/2624 24008KT 9999 BKN020"
    },
    {
      "icao": "ENZV",
      "alert": "OK",
      "vis_m": 9999,
      "fzfg": false,
      "metar_trigger": false,
      "taf_trigger": false,
      "metar": "METAR ENZV 260320Z AUTO 05002KT 9999 NCD M02/M03 Q1034",
      "taf": "TAF ENZV 252300Z 2600/2624 VRB03KT CAVOK"
    },
    {
      "icao": "EPGD",
      "alert": "OK",
      "vis_m": 9999,
      "fzfg": false,
      "metar_trigger": false,
      "taf_trigger": false,
      "metar": "METAR EPGD 260400Z 28012KT 9999 OVC006 01/00 Q1028",
      "taf": "TAF EPGD 252330Z 2600/2624 29014KT 9999 BKN007"
    },
    {
      "icao": "EPKK",
      "alert": "OK",
      "vis_m": 6000,
      "fzfg": false,
      "metar_trigger": false,
      "taf_trigger": false,
      "metar": "METAR EPKK 260400Z 25010KT 6000 OVC005 M05/M07 Q1030",
      "taf": "TAF EPKK 260230Z 2603/2703 27007KT 9000 OVC005"
    },
    {
      "icao": "EPKT",
      "alert": "OK",
      "vis_m": 2900,
      "fzfg": false,
      "metar_trigger": false,
      "taf_trigger": false,
      "metar": "METAR EPKT 260400Z 26006KT 2900 BR SCT003 OVC004 M06/M07 Q1030",
      "taf": ""
    },
    {
      "icao": "EPLB",
      "alert": "OK",
      "vis_m": 9999,
      "fzfg": false,
      "metar_trigger": false,
      "taf_trigger": false,
      "metar": "METAR EPLB 260400Z 28013KT CAVOK M06/M09 Q1027",
      "taf": "TAF EPLB 252330Z 2600/2624 26012KT CAVOK"
    },
    {
      "icao": "EPMO",
      "alert": "OK",
      "vis_m": 9999,
      "fzfg": false,
      "metar_trigger": false,
      "taf_trigger": false,
      "metar": "METAR EPMO 260400Z 26010KT 9999 FEW013 M05/M09 Q1029",
      "taf": "TAF EPMO 252330Z 2600/2624 26012KT CAVOK"
    },
    {
      "icao": "EPPO",
      "alert": "OK",
      "vis_m": 5000,
      "fzfg": false,
      "metar_trigger": false,
      "taf_trigger": false,
      "metar": "METAR EPPO 260400Z 28005KT 5000 BR NSC M08/M10 Q1032",
      "taf": ""
    },
    {
      "icao": "EPRA",
      "alert": "OK",
      "vis_m": 9999,
      "fzfg": false,
      "metar_trigger": false,
      "taf_trigger": false,
      "metar": "METAR EPRA 260400Z 28008KT CAVOK M06/M09 Q1029",
      "taf": "TAF EPRA 260230Z 2603/2612 29010KT 8000 NSC"
    },
    {
      "icao": "EPRZ",
      "alert": "OK",
      "vis_m": 8000,
      "fzfg": false,
      "metar_trigger": false,
      "taf_trigger": false,
      "metar": "METAR EPRZ 260400Z 26013KT 8000 OVC008 M05/M07 Q1029",
      "taf": ""
    },
    {
      "icao": "EPSC",
      "alert": "OK",
      "vis_m": 9999,
      "fzfg": false,
      "metar_trigger": false,
      "taf_trigger": false,
      "metar": "METAR EPSC 260400Z 23003KT 9999 BKN008 M06/M10 Q1033",
      "taf": "TAF EPSC 252330Z 2600/2624 22005KT CAVOK"
    },
    {
      "icao": "EPSY",
      "alert": "OK",
      "vis_m": 9999,
      "fzfg": false,
      "metar_trigger": false,
      "taf_trigger": false,
      "metar": "METAR EPSY 260400Z 29006KT 260V330 9999 OVC006 M01/M03 Q1026",
      "taf": "TAF EPSY 260230Z 2603/2612 27008KT 9999 OVC008"
    },
    {
      "icao": "EPWA",
      "alert": "OK",
      "vis_m": 9999,
      "fzfg": false,
      "metar_trigger": false,
      "taf_trigger": false,
      "metar": "METAR EPWA 260400Z 28011KT CAVOK M06/M09 Q1029 NOSIG",
      "taf": "TAF EPWA 260230Z 2603/2703 26010KT CAVOK"
    },
    {
      "icao": "EPWR",
      "alert": "OK",
      "vis_m": 9999,
      "fzfg": false,
      "metar_trigger": false,
      "taf_trigger": false,
      "metar": "METAR EPWR 260400Z 29004KT 260V320 9999 OVC006 M04/M06 Q1032",
      "taf": "TAF EPWR 260230Z 2603/2703 VRB02KT 9999 OVC012"
    },
    {
      "icao": "ESGG",
      "alert": "OK",
      "vis_m": 100,
      "fzfg": false,
      "metar_trigger": false,
      "taf_trigger": false,
      "metar": "METAR ESGG 260350Z 30003KT 0100 R03/0550N R21/0550N FG VV001 03/03 Q1032",
      "taf": ""
    },
    {
      "icao": "ESKN",
      "alert": "OK",
      "vis_m": 9999,
      "fzfg": false,
      "metar_trigger": false,
      "taf_trigger": false,
      "metar": "METAR ESKN 260350Z 30005KT CAVOK 01/M01 Q1028",
      "taf": "TAF ESKN 260230Z 2603/2703 29008KT CAVOK"
    },
    {
      "icao": "ESMS",
      "alert": "OK",
      "vis_m": 8000,
      "fzfg": false,
      "metar_trigger": false,
      "taf_trigger": false,
      "metar": "METAR ESMS 260350Z AUTO 31011KT 8000 OVC005/// 03/03 Q1032",
      "taf": "TAF ESMS 260227Z 2603/2703 32008KT 9999 BKN008"
    },
    {
      "icao": "ESSA",
      "alert": "OK",
      "vis_m": 9999,
      "fzfg": false,
      "metar_trigger": false,
      "taf_trigger": false,
      "metar": "METAR ESSA 260350Z 29006KT CAVOK 02/M00 Q1027 NOSIG",
      "taf": "TAF ESSA 260230Z 2603/2703 30007KT CAVOK"
    },
    {
      "icao": "EYKA",
      "alert": "OK",
      "vis_m": 9999,
      "fzfg": false,
      "metar_trigger": false,
      "taf_trigger": false,
      "metar": "METAR EYKA 260420Z 30007KT 250V010 9999 BKN007 OVC012 03/03 Q1020",
      "taf": "TAF EYKA 252300Z 2600/2624 30010KT 9000 OVC005"
    },
    {
      "icao": "EYPA",
      "alert": "OK",
      "vis_m": 9999,
      "fzfg": false,
      "metar_trigger": false,
      "taf_trigger": false,
      "metar": "METAR EYPA 260420Z AUTO 35005KT 310V040 9999 OVC014/// 07/05 Q1024",
      "taf": "TAF EYPA 252310Z 2600/2624 34010KT 9000 BKN015"
    },
    {
      "icao": "EYVI",
      "alert": "OK",
      "vis_m": 6000,
      "fzfg": false,
      "metar_trigger": false,
      "taf_trigger": false,
      "metar": "METAR EYVI 260420Z 31009G19KT 290V030 6000 -DZ OVC002 02/02 Q1018 NOSIG",
      "taf": ""
    },
    {
      "icao": "GCFV",
      "alert": "OK",
      "vis_m": 9999,
      "fzfg": false,
      "metar_trigger": false,
      "taf_trigger": false,
      "metar": "METAR GCFV 260400Z AUTO 29007KT CAVOK 14/10 Q1018",
      "taf": "TAF GCFV 260200Z 2603/2703 28005KT 9999 SCT035 TX22/2614Z TN15/2606Z"
    },
    {
      "icao": "GCLP",
      "alert": "OK",
      "vis_m": 9999,
      "fzfg": false,
      "metar_trigger": false,
      "taf_trigger": false,
      "metar": "METAR GCLP 260400Z 33007KT 9999 FEW035 BKN055 17/10 Q1019 NOSIG",
      "taf": "TAF GCLP 260200Z 2603/2703 33005KT 9999 SCT035 TX22/2614Z TN16/2606Z"
    },
    {
      "icao": "GCTS",
      "alert": "OK",
      "vis_m": 9999,
      "fzfg": false,
      "metar_trigger": false,
      "taf_trigger": false,
      "metar": "METAR GCTS 260400Z 05010KT 9999 FEW040 17/07 Q1020 NOSIG",
      "taf": "TAF GCTS 260200Z 2603/2703 36005KT 9999 SCT035 TX23/2614Z TN15/2606Z"
    },
    {
      "icao": "GMAD",
      "alert": "OK",
      "vis_m": 9999,
      "fzfg": false,
      "metar_trigger": false,
      "taf_trigger": false,
      "metar": "METAR GMAD 260400Z 01003KT CAVOK 07/07 Q1016 NOSIG",
      "taf": "TAF GMAD 252300Z 2600/2706 06008KT 8000 SCT020"
    },
    {
      "icao": "GMMN",
      "alert": "OK",
      "vis_m": 8000,
      "fzfg": false,
      "metar_trigger": false,
      "taf_trigger": false,
      "metar": "METAR GMMN 260400Z 20008KT 8000 -RA SCT013 SCT027 10/08 Q1015 NOSIG",
      "taf": "TAF GMMN 252300Z 2600/2706 20008KT 9999 SCT020"
    },
    {
      "icao": "GMMX",
      "alert": "OK",
      "vis_m": 8000,
      "fzfg": false,
      "metar_trigger": false,
      "taf_trigger": false,
      "metar": "METAR GMMX 260400Z 17007KT 8000 NSC 08/06 Q1016 NOSIG",
      "taf": "TAF GMMX 252300Z 2600/2706 22008KT 8000 SCT020"
    },
    {
      "icao": "HEGN",
      "alert": "OK",
      "vis_m": 9999,
      "fzfg": false,
      "metar_trigger": false,
      "taf_trigger": false,
      "metar": "METAR HEGN 260300Z 30013KT CAVOK 15/06 Q1015 NOSIG",
      "taf": "TAF HEGN 252300Z 2600/2706 29014KT CAVOK"
    },
    {
      "icao": "HEMA",
      "alert": "OK",
      "vis_m": 9999,
      "fzfg": false,
      "metar_trigger": false,
      "taf_trigger": false,
      "metar": "METAR HEMA 260300Z 31013KT CAVOK 18/05 Q1013 NOSIG",
      "taf": "TAF HEMA 252300Z 2600/2706 30012KT CAVOK"
    },
    {
      "icao": "HESH",
      "alert": "OK",
      "vis_m": 9999,
      "fzfg": false,
      "metar_trigger": false,
      "taf_trigger": false,
      "metar": "METAR HESH 260300Z 35014KT CAVOK 18/05 Q1013 NOSIG",
      "taf": "TAF HESH 252300Z 2600/2706 35010KT CAVOK"
    },
    {
      "icao": "HESX",
      "alert": "OK",
      "vis_m": 500,
      "fzfg": false,
      "metar_trigger": false,
      "taf_trigger": false,
      "metar": "METAR HESX 260300Z 30002KT 0500 R34R/0500 FG NSC 09/08 Q1018 NOSIG",
      "taf": "TAF HESX 260300Z 2603/2706 03007KT CAVOK"
    },
    {
      "icao": "LATI",
      "alert": "OK",
      "vis_m": 6000,
      "fzfg": false,
      "metar_trigger": false,
      "taf_trigger": false,
      "metar": "METAR LATI 260420Z 15002KT 6000 FEW061 OVC082 07/05 Q1022 NOSIG",
      "taf": "TAF LATI 252300Z 2600/2624 VRB04KT 9999 BKN060 TX18/2612Z TN03/2623Z"
    },
    {
      "icao": "LBPD",
      "alert": "OK",
      "vis_m": 9999,
      "fzfg": false,
      "metar_trigger": false,
      "taf_trigger": false,
      "metar": "METAR LBPD 260400Z AUTO 03001KT 9999 FEW023/// SCT027/// OVC078/// 02/02 Q1027 NOSIG",
      "taf": "TAF LBPD 252300Z 2600/2624 12012KT 8000 BKN020 OVC035"
    },
    {
      "icao": "LBSF",
      "alert": "OK",
      "vis_m": 9999,
      "fzfg": false,
      "metar_trigger": false,
      "taf_trigger": false,
      "metar": "METAR LBSF 260400Z AUTO 14003KT 9999 OVC071/// 00/M01 Q1025 NOSIG",
      "taf": "TAF LBSF 252300Z 2600/2624 11008KT 6000 BKN015 OVC030"
    },
    {
      "icao": "LBWN",
      "alert": "OK",
      "vis_m": 9999,
      "fzfg": false,
      "metar_trigger": false,
      "taf_trigger": false,
      "metar": "METAR LBWN 260400Z AUTO 27004KT 9999 NCD M04/M04 Q1027 NOSIG",
      "taf": "TAF LBWN 252300Z 2600/2624 36012KT 9999 SCT040"
    },
    {
      "icao": "LCLK",
      "alert": "OK",
      "vis_m": 9999,
      "fzfg": false,
      "metar_trigger": false,
      "taf_trigger": false,
      "metar": "METAR LCLK 260400Z 00000KT 9999 FEW020 12/10 Q1016 NOSIG",
      "taf": "TAF LCLK 252330Z 2600/2700 33007KT 9999 FEW025 SCT030"
    },
    {
      "icao": "LCPH",
      "alert": "OK",
      "vis_m": 9999,
      "fzfg": false,
      "metar_trigger": false,
      "taf_trigger": false,
      "metar": "METAR LCPH 260400Z 02007KT 9999 FEW035 12/10 Q1016 NOSIG",
      "taf": "TAF LCPH 252330Z 2600/2700 36009KT 9999 FEW025"
    },
    {
      "icao": "LEAL",
      "alert": "OK",
      "vis_m": 9999,
      "fzfg": false,
      "metar_trigger": false,
      "taf_trigger": false,
      "metar": "METAR LEAL 260400Z 30010KT 9999 -RA SCT032 OVC057 11/08 Q1008 NOSIG",
      "taf": "TAF LEAL 252300Z 2600/2624 31009KT 9999 SCT030 TX17/2612Z TN07/2606Z"
    },
    {
      "icao": "LEBB",
      "alert": "OK",
      "vis_m": 9999,
      "fzfg": false,
      "metar_trigger": false,
      "taf_trigger": false,
      "metar": "METAR LEBB 260400Z VRB01KT CAVOK 03/02 Q1015 NOSIG",
      "taf": "TAF LEBB 252300Z 2600/2624 VRB03KT 9999 FEW040 TX10/2615Z TN01/2601Z"
    },
    {
      "icao": "LEBL",
      "alert": "OK",
      "vis_m": 9000,
      "fzfg": false,
      "metar_trigger": false,
      "taf_trigger": false,
      "metar": "METAR LEBL 260400Z 05019KT 9000 4400E -RA BKN027 BKN047 12/10 Q1009 NOSIG",
      "taf": ""
    },
    {
      "icao": "LECH",
      "alert": "OK",
      "vis_m": 9999,
      "fzfg": false,
      "metar_trigger": false,
      "taf_trigger": false,
      "metar": "METAR LECH 260400Z AUTO 01009KT 340V050 9999 -RA FEW047 BKN055 08/06 Q1009 RERA",
      "taf": ""
    },
    {
      "icao": "LEMD",
      "alert": "OK",
      "vis_m": 9999,
      "fzfg": false,
      "metar_trigger": false,
      "taf_trigger": false,
      "metar": "METAR LEMD 260400Z 18003KT 9999 FEW040 00/M01 Q1011 NOSIG",
      "taf": "TAF LEMD 252300Z 2600/2706 VRB04KT 9999 SCT030 TX09/2614Z TNM00/2606Z"
    },
    {
      "icao": "LEMG",
      "alert": "OK",
      "vis_m": 9999,
      "fzfg": false,
      "metar_trigger": false,
      "taf_trigger": false,
      "metar": "METAR LEMG 260400Z 32007KT 9999 BKN080 07/05 Q1012 NOSIG",
      "taf": "TAF LEMG 252300Z 2600/2624 27007KT 9999 FEW040 TX15/2614Z TN06/2606Z"
    },
    {
      "icao": "LEVC",
      "alert": "OK",
      "vis_m": 9999,
      "fzfg": false,
      "metar_trigger": false,
      "taf_trigger": false,
      "metar": "METAR LEVC 260400Z 31004KT 9999 -RA FEW029 SCT049 OVC055 08/08 Q1009 NOSIG",
      "taf": "TAF LEVC 252300Z 2600/2624 30007KT 9999 BKN030 TX15/2614Z TN06/2606Z"
    },
    {
      "icao": "LEXJ",
      "alert": "OK",
      "vis_m": 8000,
      "fzfg": false,
      "metar_trigger": false,
      "taf_trigger": false,
      "metar": "METAR LEXJ 260400Z AUTO VRB02KT 8000 NSC 03/00 Q1014",
      "taf": "TAF LEXJ 260200Z 2603/2703 VRB03KT 9999 FEW030 TX11/2615Z TNM00/2604Z"
    },
    {
      "icao": "LEZG",
      "alert": "OK",
      "vis_m": 9999,
      "fzfg": false,
      "metar_trigger": false,
      "taf_trigger": false,
      "metar": "METAR LEZG 260400Z 26011KT 9999 -RA SCT030 SCT055 04/02 Q1013 NOSIG",
      "taf": "TAF LEZG 252300Z 2600/2624 29009KT 9999 SCT040 TX08/2614Z TN03/2606Z"
    },
    {
      "icao": "LEZL",
      "alert": "OK",
      "vis_m": 7000,
      "fzfg": false,
      "metar_trigger": false,
      "taf_trigger": false,
      "metar": "METAR LEZL 260400Z AUTO VRB01KT 7000 FEW042 10/10 Q1012",
      "taf": "TAF LEZL 260200Z 2603/2703 VRB03KT 9999 FEW040 TX15/2615Z TN06/2607Z"
    },
    {
      "icao": "LFBD",
      "alert": "OK",
      "vis_m": 9999,
      "fzfg": false,
      "metar_trigger": false,
      "taf_trigger": false,
      "metar": "METAR LFBD 260400Z AUTO 04004KT CAVOK 04/02 Q1016 TEMPO 3000 BR",
      "taf": "TAF LFBD 252300Z 2600/2706 02005KT 9999 BKN030 TX09/2615Z TN01/2605Z"
    },
    {
      "icao": "LFLL",
      "alert": "OK",
      "vis_m": 6000,
      "fzfg": false,
      "metar_trigger": false,
      "taf_trigger": false,
      "metar": "METAR LFLL 260400Z 05003KT 6000 BKN010 OVC013 01/00 Q1020 TEMPO 3000 BR OVC004",
      "taf": "TAF LFLL 252300Z 2600/2706 VRB03KT 9000 OVC013"
    },
    {
      "icao": "LFLS",
      "alert": "OK",
      "vis_m": 9000,
      "fzfg": false,
      "metar_trigger": false,
      "taf_trigger": false,
      "metar": "METAR LFLS 260400Z AUTO 06002KT 9000 FEW013 OVC110 M01/M01 Q1019 TEMPO 0600 BCFG VV///",
      "taf": "TAF LFLS 260200Z 2603/2703 VRB03KT 9000 SCT016"
    },
    {
      "icao": "LFMN",
      "alert": "OK",
      "vis_m": 9999,
      "fzfg": false,
      "metar_trigger": false,
      "taf_trigger": false,
      "metar": "METAR LFMN 260400Z 03016KT 9999 BKN054 12/03 Q1018 NOSIG",
      "taf": "TAF LFMN 260200Z 2603/2709 06015G25KT 9999 BKN070"
    },
    {
      "icao": "LFOB",
      "alert": "OK",
      "vis_m": 8000,
      "fzfg": false,
      "metar_trigger": false,
      "taf_trigger": false,
      "metar": "METAR LFOB 260400Z AUTO 05004KT 010V130 8000 NSC M04/M05 Q1024 NOSIG",
      "taf": "TAF LFOB 252300Z 2600/2624 05009KT CAVOK"
    },
    {
      "icao": "LFPO",
      "alert": "OK",
      "vis_m": 9999,
      "fzfg": false,
      "metar_trigger": false,
      "taf_trigger": false,
      "metar": "METAR LFPO 260400Z AUTO 05007KT CAVOK M02/M04 Q1023",
      "taf": ""
    },
    {
      "icao": "LFSB",
      "alert": "OK",
      "vis_m": 8000,
      "fzfg": false,
      "metar_trigger": false,
      "taf_trigger": false,
      "metar": "METAR LFSB 260400Z AUTO 34006KT 8000 OVC018 M01/M02 Q1023 TEMPO 4000 BR BKN002",
      "taf": "TAF LFSB 252300Z 2600/2624 02005KT 9999 BKN020"
    },
    {
      "icao": "LGAV",
      "alert": "OK",
      "vis_m": 9999,
      "fzfg": false,
      "metar_trigger": false,
      "taf_trigger": false,
      "metar": "METAR LGAV 260350Z 19002KT 9999 FEW020 05/04 Q1021 NOSIG",
      "taf": "TAF LGAV 252300Z 2600/2624 30006KT 9999 SCT020 SCT070"
    },
    {
      "icao": "LGTS",
      "alert": "OK",
      "vis_m": 9999,
      "fzfg": false,
      "metar_trigger": false,
      "taf_trigger": false,
      "metar": "METAR LGTS 260350Z 14004KT 9999 FEW012 BKN030 10/10 Q1024 NOSIG",
      "taf": "TAF LGTS 252300Z 2600/2624 33005KT 8000 FEW012 BKN025"
    },
    {
      "icao": "LHBP",
      "alert": "OK",
      "vis_m": 9999,
      "fzfg": false,
      "metar_trigger": false,
      "taf_trigger": false,
      "metar": "METAR LHBP 260400Z VRB01KT CAVOK 00/M01 Q1029 NOSIG",
      "taf": "TAF LHBP 252315Z 2600/2624 VRB03KT CAVOK"
    },
    {
      "icao": "LHDC",
      "alert": "OK",
      "vis_m": 9999,
      "fzfg": false,
      "metar_trigger": false,
      "taf_trigger": false,
      "metar": "METAR LHDC 260345Z AUTO 02003KT CAVOK M02/M04 Q1029",
      "taf": ""
    },
    {
      "icao": "LIBD",
      "alert": "OK",
      "vis_m": 9999,
      "fzfg": false,
      "metar_trigger": false,
      "taf_trigger": false,
      "metar": "METAR LIBD 260350Z 25003KT 9999 SCT025 09/08 Q1021",
      "taf": "TAF LIBD 252300Z 2600/2624 VRB05KT 9999 FEW016"
    },
    {
      "icao": "LIBG",
      "alert": "OK",
      "vis_m": null,
      "fzfg": false,
      "metar_trigger": false,
      "taf_trigger": false,
      "metar": "",
      "taf": "TAF LIBG 251700Z 2518/2603 VRB05KT 9999 SCT010 BKN040"
    },
    {
      "icao": "LIBP",
      "alert": "OK",
      "vis_m": 9999,
      "fzfg": false,
      "metar_trigger": false,
      "taf_trigger": false,
      "metar": "METAR LIBP 260350Z AUTO VRB01KT 9999 -RA FEW014/// SCT023/// BKN049/// 09/09 Q1022",
      "taf": "TAF LIBP 252300Z 2600/2624 VRB05KT 9999 SCT040"
    },
    {
      "icao": "LIBR",
      "alert": "OK",
      "vis_m": 9999,
      "fzfg": false,
      "metar_trigger": false,
      "taf_trigger": false,
      "metar": "METAR LIBR 260350Z 07012KT 9999 SCT030 13/10 Q1020",
      "taf": "TAF LIBR 252300Z 2600/2624 06008KT 9999 SCT040"
    },
    {
      "icao": "LICA",
      "alert": "OK",
      "vis_m": 9999,
      "fzfg": false,
      "metar_trigger": false,
      "taf_trigger": false,
      "metar": "METAR LICA 260350Z AUTO 04011KT 9999 NCD 11/08 Q1019",
      "taf": "TAF LICA 252300Z 2600/2624 07012KT CAVOK"
    },
    {
      "icao": "LICC",
      "alert": "OK",
      "vis_m": 9999,
      "fzfg": false,
      "metar_trigger": false,
      "taf_trigger": false,
      "metar": "METAR LICC 260350Z 22005KT CAVOK 10/08 Q1018",
      "taf": "TAF LICC 252300Z 2600/2624 27007KT CAVOK"
    },
    {
      "icao": "LICJ",
      "alert": "OK",
      "vis_m": 9999,
      "fzfg": false,
      "metar_trigger": false,
      "taf_trigger": false,
      "metar": "METAR LICJ 260350Z 17004KT 140V220 CAVOK 16/06 Q1016",
      "taf": "TAF LICJ 252300Z 2600/2624 16008KT 9999 FEW040"
    },
    {
      "icao": "LIMC",
      "alert": "OK",
      "vis_m": 9999,
      "fzfg": false,
      "metar_trigger": false,
      "taf_trigger": false,
      "metar": "METAR LIMC 260350Z VRB02KT 9999 BKN070 05/04 Q1026 NOSIG",
      "taf": "TAF LIMC 252300Z 2600/2706 VRB05KT 9999 BKN030"
    },
    {
      "icao": "LIME",
      "alert": "OK",
      "vis_m": 6000,
      "fzfg": false,
      "metar_trigger": false,
      "taf_trigger": false,
      "metar": "METAR LIME 260320Z 29003KT 6000 BKN020 05/05 Q1026 NOSIG",
      "taf": "TAF LIME 252300Z 2600/2624 VRB05KT 9999 BKN030"
    },
    {
      "icao": "LIMF",
      "alert": "OK",
      "vis_m": 8000,
      "fzfg": false,
      "metar_trigger": false,
      "taf_trigger": false,
      "metar": "METAR LIMF 260350Z 34008KT 8000 -DZ BKN013 OVC045 05/02 Q1027",
      "taf": "TAF LIMF 252300Z 2600/2624 34006KT 6000 RA BKN012"
    },
    {
      "icao": "LIMJ",
      "alert": "OK",
      "vis_m": 9999,
      "fzfg": false,
      "metar_trigger": false,
      "taf_trigger": false,
      "metar": "METAR LIMJ 260350Z 34005KT 300V020 9999 BKN065 08/03 Q1023",
      "taf": "TAF LIMJ 252300Z 2600/2624 03015KT 9999 SCT050"
    },
    {
      "icao": "LIPE",
      "alert": "OK",
      "vis_m": null,
      "fzfg": false,
      "metar_trigger": false,
      "taf_trigger": false,
      "metar": "",
      "taf": "TAF LIPE 252300Z 2600/2624 VRB05KT 9000 SCT010 BKN030"
    },
    {
      "icao": "LIPH",
      "alert": "OK",
      "vis_m": 9999,
      "fzfg": false,
      "metar_trigger": false,
      "taf_trigger": false,
      "metar": "METAR LIPH 260350Z AUTO 02004KT 9999 NCD 04/M01 Q1027",
      "taf": "TAF LIPH 252300Z 2600/2624 VRB05KT CAVOK"
    },
    {
      "icao": "LIPQ",
      "alert": "OK",
      "vis_m": 9999,
      "fzfg": false,
      "metar_trigger": false,
      "taf_trigger": false,
      "metar": "METAR LIPQ 260350Z AUTO VRB02KT 9999 NCD 01/M02 Q1026",
      "taf": "TAF LIPQ 252300Z 2600/2624 07006KT CAVOK"
    },
    {
      "icao": "LIPR",
      "alert": "OK",
      "vis_m": 9999,
      "fzfg": false,
      "metar_trigger": false,
      "taf_trigger": false,
      "metar": "METAR LIPR 260350Z AUTO 06009KT 9999 BKN029/// BKN070/// 10/06 Q1024",
      "taf": "TAF LIPR 252300Z 2600/2624 06007KT 9999 SCT040"
    },
    {
      "icao": "LIPX",
      "alert": "OK",
      "vis_m": 9999,
      "fzfg": false,
      "metar_trigger": false,
      "taf_trigger": false,
      "metar": "METAR LIPX 260350Z 33003KT CAVOK 03/M01 Q1026",
      "taf": "TAF LIPX 252300Z 2600/2624 09010KT 9999 SCT050"
    },
    {
      "icao": "LIPY",
      "alert": "OK",
      "vis_m": 9999,
      "fzfg": false,
      "metar_trigger": false,
      "taf_trigger": false,
      "metar": "METAR LIPY 260350Z AUTO 22002KT 9999 FEW029/// OVC044/// 09/06 Q1024",
      "taf": "TAF LIPY 252300Z 2600/2624 VRB05KT 9999 SCT040"
    },
    {
      "icao": "LIPZ",
      "alert": "OK",
      "vis_m": 9999,
      "fzfg": false,
      "metar_trigger": false,
      "taf_trigger": false,
      "metar": "METAR LIPZ 260350Z 02009KT CAVOK 03/M01 Q1026 NOSIG",
      "taf": "TAF LIPZ 252300Z 2600/2706 03008KT CAVOK"
    },
    {
      "icao": "LIRF",
      "alert": "OK",
      "vis_m": 9999,
      "fzfg": false,
      "metar_trigger": false,
      "taf_trigger": false,
      "metar": "METAR LIRF 260350Z 05007KT CAVOK 08/04 Q1019 NOSIG",
      "taf": "TAF LIRF 252300Z 2600/2706 05012KT CAVOK"
    },
    {
      "icao": "LIRN",
      "alert": "OK",
      "vis_m": 9999,
      "fzfg": false,
      "metar_trigger": false,
      "taf_trigger": false,
      "metar": "METAR LIRN 260350Z 01005KT CAVOK 09/05 Q1019 NOSIG",
      "taf": "TAF LIRN 252300Z 2600/2624 01007KT CAVOK"
    },
    {
      "icao": "LIRP",
      "alert": "OK",
      "vis_m": 9999,
      "fzfg": false,
      "metar_trigger": false,
      "taf_trigger": false,
      "metar": "METAR LIRP 260345Z 11009KT CAVOK 09/05 Q1020 NOSIG",
      "taf": "TAF LIRP 252300Z 2600/2624 07012KT CAVOK"
    },
    {
      "icao": "LIRZ",
      "alert": "OK",
      "vis_m": 9999,
      "fzfg": false,
      "metar_trigger": false,
      "taf_trigger": false,
      "metar": "METAR LIRZ 260350Z AUTO 03011KT 9999 FEW039/// 09/06 Q1021",
      "taf": "TAF LIRZ 252300Z 2600/2624 04012KT CAVOK"
    },
    {
      "icao": "LJLJ",
      "alert": "OK",
      "vis_m": 9999,
      "fzfg": false,
      "metar_trigger": false,
      "taf_trigger": false,
      "metar": "METAR LJLJ 260400Z 00000KT 9999 FEW006 OVC040 00/M00 Q1028 NOSIG",
      "taf": "TAF LJLJ 252300Z 2600/2700 VRB02KT 9999 FEW015 BKN040"
    },
    {
      "icao": "LKMT",
      "alert": "OK",
      "vis_m": 800,
      "fzfg": true,
      "metar_trigger": false,
      "taf_trigger": false,
      "metar": "METAR LKMT 260400Z VRB01KT 0800 R22/P2000N R04/1400N FZFG VV003 M05/M05 Q1031 NOSIG",
      "taf": ""
    },
    {
      "icao": "LKPR",
      "alert": "OK",
      "vis_m": 8000,
      "fzfg": false,
      "metar_trigger": false,
      "taf_trigger": false,
      "metar": "METAR LKPR 260400Z 36004KT 8000 NSC M08/M08 Q1030 NOSIG",
      "taf": "TAF LKPR 260200Z 2603/2709 05005KT CAVOK"
    },
    {
      "icao": "LLBG",
      "alert": "OK",
      "vis_m": 9999,
      "fzfg": false,
      "metar_trigger": false,
      "taf_trigger": false,
      "metar": "METAR LLBG 260420Z 14004KT CAVOK 11/08 Q1017 NOSIG",
      "taf": "TAF LLBG 252301Z 2600/2624 14005KT 9999 FEW040"
    },
    {
      "icao": "LMML",
      "alert": "OK",
      "vis_m": 9999,
      "fzfg": false,
      "metar_trigger": false,
      "taf_trigger": false,
      "metar": "METAR LMML 260415Z 14007KT 9999 FEW027 15/11 Q1017 NOSIG",
      "taf": "TAF LMML 252300Z 2600/2624 18008KT 9999 SCT025"
    },
    {
      "icao": "LOWW",
      "alert": "OK",
      "vis_m": 9999,
      "fzfg": false,
      "metar_trigger": false,
      "taf_trigger": false,
      "metar": "METAR LOWW 260350Z 06003KT 9999 FEW017 BKN048 M03/M05 Q1030 NOSIG",
      "taf": "TAF LOWW 260215Z 2603/2709 01005KT 9999 BKN020 TX02/2613Z TNM03/2606Z"
    },
    {
      "icao": "LPFR",
      "alert": "OK",
      "vis_m": 9999,
      "fzfg": false,
      "metar_trigger": false,
      "taf_trigger": false,
      "metar": "METAR LPFR 260400Z 30005KT CAVOK 09/05 Q1013",
      "taf": "TAF LPFR 252300Z 2600/2624 31005KT CAVOK"
    },
    {
      "icao": "LPMA",
      "alert": "OK",
      "vis_m": 9999,
      "fzfg": false,
      "metar_trigger": false,
      "taf_trigger": false,
      "metar": "METAR LPMA 260400Z 30006KT 280V340 9999 SCT015 15/10 Q1020",
      "taf": "TAF LPMA 252300Z 2600/2624 36007KT 9999 SCT015"
    },
    {
      "icao": "LPPR",
      "alert": "OK",
      "vis_m": 9999,
      "fzfg": false,
      "metar_trigger": false,
      "taf_trigger": false,
      "metar": "METAR LPPR 260400Z 12010KT CAVOK 04/02 Q1013",
      "taf": "TAF LPPR 252300Z 2600/2624 08005KT CAVOK"
    },
    {
      "icao": "LPPS",
      "alert": "OK",
      "vis_m": 9999,
      "fzfg": false,
      "metar_trigger": false,
      "taf_trigger": false,
      "metar": "METAR LPPS 260400Z 33009KT 9999 SCT015 15/11 Q1019",
      "taf": "TAF LPPS 252300Z 2600/2706 34010KT 9999 SCT015"
    },
    {
      "icao": "LPPT",
      "alert": "OK",
      "vis_m": 9999,
      "fzfg": false,
      "metar_trigger": false,
      "taf_trigger": false,
      "metar": "METAR LPPT 260400Z 33005KT CAVOK 07/04 Q1014",
      "taf": "TAF LPPT 252300Z 2600/2706 31007KT 9999 FEW012"
    },
    {
      "icao": "LQBK",
      "alert": "OK",
      "vis_m": 9999,
      "fzfg": false,
      "metar_trigger": false,
      "taf_trigger": false,
      "metar": "METAR LQBK 260400Z VRB02KT 9999 BKN005 OVC010 01/00 Q1029 NOSIG",
      "taf": "TAF LQBK 252300Z 2600/2624 02005KT 8000 SCT007 OVC015 TX03/2613Z TNM00/2624Z"
    },
    {
      "icao": "LQSA",
      "alert": "OK",
      "vis_m": 9999,
      "fzfg": false,
      "metar_trigger": false,
      "taf_trigger": false,
      "metar": "METAR LQSA 260400Z 31003KT 9999 OVC013 01/M00 Q1026",
      "taf": "TAF LQSA 252300Z 2600/2624 28005KT 9999 SCT015 BKN030 TX03/2612Z TNM03/2624Z"
    },
    {
      "icao": "LQTZ",
      "alert": "OK",
      "vis_m": 9999,
      "fzfg": false,
      "metar_trigger": false,
      "taf_trigger": false,
      "metar": "METAR LQTZ 260400Z VRB01KT 9999 BKN008 OVC015 01/01 Q1028",
      "taf": "TAF LQTZ 252300Z 2600/2624 10005KT 6000 SCT010 OVC015 TX02/2613Z TNM02/2624Z"
    },
    {
      "icao": "LRBC",
      "alert": "OK",
      "vis_m": 7000,
      "fzfg": false,
      "metar_trigger": false,
      "taf_trigger": false,
      "metar": "METAR LRBC 260400Z VRB02KT 7000 BKN008 M07/M08 Q1026",
      "taf": "TAF LRBC 260200Z 2603/2612 VRB04KT 9999 BKN010"
    },
    {
      "icao": "LRBS",
      "alert": "OK",
      "vis_m": 9999,
      "fzfg": false,
      "metar_trigger": false,
      "taf_trigger": false,
      "metar": "METAR LRBS 260400Z 24005KT CAVOK M06/M08 Q1028 NOSIG",
      "taf": "TAF LRBS 252300Z 2600/2624 VRB04KT CAVOK"
    },
    {
      "icao": "LRBV",
      "alert": "OK",
      "vis_m": 9999,
      "fzfg": false,
      "metar_trigger": false,
      "taf_trigger": false,
      "metar": "METAR LRBV 260400Z AUTO VRB01KT 9999 SCT051/// M07/M09 Q1026",
      "taf": "TAF LRBV 260200Z 2603/2612 VRB04KT CAVOK"
    },
    {
      "icao": "LRCL",
      "alert": "OK",
      "vis_m": 9999,
      "fzfg": false,
      "metar_trigger": false,
      "taf_trigger": false,
      "metar": "METAR LRCL 260400Z VRB01KT CAVOK M02/M03 Q1027",
      "taf": "TAF LRCL 260200Z 2603/2612 VRB04KT CAVOK"
    },
    {
      "icao": "LRCV",
      "alert": "OK",
      "vis_m": 9999,
      "fzfg": false,
      "metar_trigger": false,
      "taf_trigger": false,
      "metar": "METAR LRCV 260400Z 23002KT 9999 BKN013 OVC017 M04/M05 Q1029",
      "taf": "TAF LRCV 260200Z 2603/2612 VRB04KT 9999 BKN010 OVC020"
    },
    {
      "icao": "LRIA",
      "alert": "OK",
      "vis_m": 4900,
      "fzfg": false,
      "metar_trigger": false,
      "taf_trigger": false,
      "metar": "METAR LRIA 260400Z 30005KT 270V340 4900 BR OVC002 M08/M08 Q1026",
      "taf": "TAF LRIA 260200Z 2603/2612 VRB04KT 5000 BR OVC003"
    },
    {
      "icao": "LROP",
      "alert": "OK",
      "vis_m": 9999,
      "fzfg": false,
      "metar_trigger": false,
      "taf_trigger": false,
      "metar": "METAR LROP 260400Z 24005KT CAVOK M06/M08 Q1028 NOSIG",
      "taf": "TAF LROP 252300Z 2600/2624 VRB04KT CAVOK"
    },
    {
      "icao": "LRSB",
      "alert": "OK",
      "vis_m": 9999,
      "fzfg": false,
      "metar_trigger": false,
      "taf_trigger": false,
      "metar": "METAR LRSB 260400Z VRB02KT 9999 OVC075 M01/M02 Q1026 NOSIG",
      "taf": "TAF LRSB 252300Z 2600/2624 VRB04KT 9999 BKN070"
    },
    {
      "icao": "LRSM",
      "alert": "OK",
      "vis_m": 8000,
      "fzfg": false,
      "metar_trigger": false,
      "taf_trigger": false,
      "metar": "METAR LRSM 260400Z AUTO 23003KT 8000 NCD M04/M05 Q1028",
      "taf": "TAF LRSM 260200Z 2603/2612 VRB04KT CAVOK"
    },
    {
      "icao": "LRSV",
      "alert": "OK",
      "vis_m": 1500,
      "fzfg": true,
      "metar_trigger": false,
      "taf_trigger": false,
      "metar": "METAR LRSV 260400Z 26007KT 1500 BR VV002 M09/M10 Q1023",
      "taf": "TAF LRSV 260200Z 2603/2612 VRB04KT 0600 FZFG OVC001"
    },
    {
      "icao": "LRTM",
      "alert": "OK",
      "vis_m": 9999,
      "fzfg": false,
      "metar_trigger": false,
      "taf_trigger": false,
      "metar": "METAR LRTM 260400Z AUTO 00000KT 9999 BKN065/// M04/M06 Q1027",
      "taf": "TAF LRTM 260200Z 2603/2612 VRB04KT 5000 BR NSC"
    },
    {
      "icao": "LRTR",
      "alert": "OK",
      "vis_m": 3000,
      "fzfg": false,
      "metar_trigger": false,
      "taf_trigger": false,
      "metar": "METAR LRTR 260400Z 32007KT 3000 BR OVC002 01/01 Q1030 TEMPO 1500 BR OVC001",
      "taf": "TAF LRTR 252300Z 2600/2624 27006KT 3000 BR OVC002"
    },
    {
      "icao": "LTAC",
      "alert": "OK",
      "vis_m": 3700,
      "fzfg": false,
      "metar_trigger": false,
      "taf_trigger": false,
      "metar": "METAR LTAC 260350Z VRB02KT 3700 BR BKN025 BKN080 02/02 Q1018 REDZ NOSIG",
      "taf": "TAF LTAC 252240Z 2600/2624 VRB02KT 6000 SCT040 BKN100"
    },
    {
      "icao": "LTFM",
      "alert": "OK",
      "vis_m": 9999,
      "fzfg": false,
      "metar_trigger": false,
      "taf_trigger": false,
      "metar": "METAR LTFM 260350Z 03016KT 9999 BKN022 BKN070 07/03 Q1024 NOSIG RMK RWY17L 04014KT RWY34L 03013KT RWY16R 03014KT RWY36 03016KT RWY18 04015KT",
      "taf": "TAF LTFM 252240Z 2600/2706 03018KT 9999 -RA BKN022 BKN070"
    },
    {
      "icao": "LUKK",
      "alert": "OK",
      "vis_m": 9999,
      "fzfg": false,
      "metar_trigger": false,
      "taf_trigger": false,
      "metar": "METAR LUKK 260400Z 30005KT 250V340 CAVOK M12/M15 Q1025 NOSIG",
      "taf": "TAF LUKK 252310Z 2600/2624 29008KT CAVOK"
    },
    {
      "icao": "LWOH",
      "alert": "OK",
      "vis_m": null,
      "fzfg": false,
      "metar_trigger": false,
      "taf_trigger": false,
      "metar": "",
      "taf": "TAF LWOH 260230Z 2603/2703 32006KT 9999 SCT015 OVC035"
    },
    {
      "icao": "LWSK",
      "alert": "OK",
      "vis_m": 9999,
      "fzfg": false,
      "metar_trigger": false,
      "taf_trigger": false,
      "metar": "METAR LWSK 260420Z 03005KT 9999 SCT010 OVC033 02/00 Q1026 NOSIG",
      "taf": "TAF LWSK 260230Z 2603/2703 03005KT 9999 SCT010 OVC030"
    },
    {
      "icao": "LYBE",
      "alert": "OK",
      "vis_m": 9999,
      "fzfg": false,
      "metar_trigger": false,
      "taf_trigger": false,
      "metar": "METAR LYBE 260400Z 12006KT 9999 BKN035 01/M03 Q1030 NOSIG",
      "taf": "TAF LYBE 252300Z 2600/2624 11007KT 9999 BKN035 TX03/2612Z TNM00/2606Z"
    },
    {
      "icao": "LYNI",
      "alert": "OK",
      "vis_m": 9999,
      "fzfg": false,
      "metar_trigger": false,
      "taf_trigger": false,
      "metar": "METAR LYNI 260400Z 36003KT 9999 OVC025 M01/M03 Q1028 NOSIG",
      "taf": "TAF LYNI 252300Z 2600/2624 04003KT 9999 SCT013 OVC025 TX02/2612Z TNM01/2606Z"
    },
    {
      "icao": "LYPG",
      "alert": "OK",
      "vis_m": 9999,
      "fzfg": false,
      "metar_trigger": false,
      "taf_trigger": false,
      "metar": "METAR LYPG 260400Z 01002KT CAVOK 01/00 Q1024 NOSIG",
      "taf": "TAF LYPG 252300Z 2600/2624 36005KT CAVOK TX13/2613Z TN01/2605Z"
    },
    {
      "icao": "LZIB",
      "alert": "OK",
      "vis_m": 9999,
      "fzfg": false,
      "metar_trigger": false,
      "taf_trigger": false,
      "metar": "METAR LZIB 260400Z VRB01KT 9999 BKN048 M00/M01 Q1030 NOSIG",
      "taf": "TAF LZIB 252315Z 2600/2700 VRB02KT CAVOK"
    },
    {
      "icao": "LZKZ",
      "alert": "OK",
      "vis_m": 9999,
      "fzfg": false,
      "metar_trigger": false,
      "taf_trigger": false,
      "metar": "METAR LZKZ 260400Z 21003KT CAVOK M05/M06 Q1029 NOSIG",
      "taf": "TAF LZKZ 252315Z 2600/2700 VRB02KT CAVOK"
    },
    {
      "icao": "LZTT",
      "alert": "OK",
      "vis_m": 9999,
      "fzfg": false,
      "metar_trigger": false,
      "taf_trigger": false,
      "metar": "METAR LZTT 260400Z 36003KT 9999 VCFG FEW002 M08/M09 Q1027 NOSIG",
      "taf": ""
    },
    {
      "icao": "OEJN",
      "alert": "OK",
      "vis_m": 8000,
      "fzfg": false,
      "metar_trigger": false,
      "taf_trigger": false,
      "metar": "METAR OEJN 260400Z 00000KT 8000 FEW040 25/23 Q1011 NOSIG",
      "taf": "TAF OEJN 252300Z 2600/2706 03005KT 8000 SCT030"
    },
    {
      "icao": "OEMA",
      "alert": "OK",
      "vis_m": 9999,
      "fzfg": false,
      "metar_trigger": false,
      "taf_trigger": false,
      "metar": "METAR OEMA 260400Z 03003KT 9999 FEW040 17/04 Q1016 NOSIG",
      "taf": "TAF OEMA 252300Z 2600/2706 06006KT 8000 SCT040"
    },
    {
      "icao": "OJAI",
      "alert": "OK",
      "vis_m": 3000,
      "fzfg": false,
      "metar_trigger": false,
      "taf_trigger": false,
      "metar": "METAR OJAI 260400Z 05005KT 3000 BR NSC 03/02 Q1018 NOSIG",
      "taf": "TAF OJAI 252300Z 2600/2706 VRB02KT 5000 HZ NSC"
    },
    {
      "icao": "OMAA",
      "alert": "OK",
      "vis_m": 6000,
      "fzfg": false,
      "metar_trigger": false,
      "taf_trigger": false,
      "metar": "METAR OMAA 260400Z 20007KT 6000 NSC 17/13 Q1016 NOSIG",
      "taf": "TAF OMAA 252300Z 2600/2706 VRB02KT 8000 NSC"
    },
    {
      "icao": "OMDB",
      "alert": "OK",
      "vis_m": 4000,
      "fzfg": false,
      "metar_trigger": false,
      "taf_trigger": false,
      "metar": "METAR OMDB 260400Z 13004KT 4000 HZ NSC 19/15 Q1016 NOSIG",
      "taf": "TAF OMDB 252300Z 2600/2706 16005KT 7000 FEW040"
    },
    {
      "icao": "UAAA",
      "alert": "OK",
      "vis_m": 5000,
      "fzfg": false,
      "metar_trigger": false,
      "taf_trigger": false,
      "metar": "METAR UAAA 260400Z 36002MPS 320V080 5000 BR FU SCT050 BKN200 M02/M06 Q1017 NOSIG",
      "taf": "TAF UAAA 252303Z 2600/2624 22003MPS 3100 BR FU SCT030CB BKN100 TX03/2609Z TNM05/2601Z"
    },
    {
      "icao": "UBBB",
      "alert": "OK",
      "vis_m": 9999,
      "fzfg": false,
      "metar_trigger": false,
      "taf_trigger": false,
      "metar": "METAR UBBB 260400Z 11004KT 9999 OVC035 04/00 Q1023 NOSIG",
      "taf": "TAF UBBB 252305Z 2600/2624 04005KT 9999 SCT015 OVC030 TX07/2610Z TN03/2601Z"
    },
    {
      "icao": "UDSG",
      "alert": "OK",
      "vis_m": 3600,
      "fzfg": false,
      "metar_trigger": false,
      "taf_trigger": false,
      "metar": "METAR UDSG 260400Z 30001KT 3600 -SN BR OVC036 M02/M02 Q1017 NOSIG",
      "taf": ""
    },
    {
      "icao": "UDYZ",
      "alert": "OK",
      "vis_m": 1900,
      "fzfg": false,
      "metar_trigger": false,
      "taf_trigger": false,
      "metar": "METAR UDYZ 260400Z 04002KT 1900 1400W R08/1800N BR FEW043 M01/M03 Q1018 NOSIG",
      "taf": "TAF UDYZ 252300Z 2600/2624 VRB04KT 3000 BR FEW040"
    },
    {
      "icao": "UGKO",
      "alert": "OK",
      "vis_m": 9999,
      "fzfg": false,
      "metar_trigger": false,
      "taf_trigger": false,
      "metar": "METAR UGKO 260400Z 08003KT 9999 OVC095 03/01 Q1019 NOSIG",
      "taf": "TAF UGKO 252300Z 2600/2624 09006KT 9000 OVC050 TX08/2610Z TN02/2603Z"
    }
  ]
}