{
  "ts_utc": "2026-02-11T21:45:55Z",
  "threshold_m": 150,
  "source": "stations_override.txt (ICAO list) + aviationweather.gov (METAR/TAF raw)",
  "station_count": 159,
  "stations": [
    {
      "icao": "BIKF",
      "alert": "OK",
      "vis_m": 9999,
      "fzfg": false,
      "metar_trigger": false,
      "taf_trigger": false,
      "metar": "METAR BIKF 112130Z 06007KT CAVOK M05/M10 Q1007",
      "taf": "TAF BIKF 111957Z 1121/1221 06008KT CAVOK TXM02/1218Z TNM08/1208Z"
    },
    {
      "icao": "BKPR",
      "alert": "OK",
      "vis_m": 9999,
      "fzfg": false,
      "metar_trigger": false,
      "taf_trigger": false,
      "metar": "METAR BKPR 112130Z 16005KT 9999 BKN015 BKN020 07/05 Q0998 NOSIG",
      "taf": "TAF BKPR 111730Z 1118/1218 16010KT 9999 SCT030 BKN080"
    },
    {
      "icao": "EBCI",
      "alert": "OK",
      "vis_m": 9999,
      "fzfg": false,
      "metar_trigger": false,
      "taf_trigger": false,
      "metar": "METAR EBCI 112120Z 16009KT 9999 -RA FEW008 SCT012 BKN032 08/07 Q0979 TEMPO 2800 RADZ BKN008",
      "taf": "TAF EBCI 111715Z 1118/1224 21010KT 9999 SCT012 BKN016"
    },
    {
      "icao": "EDDB",
      "alert": "OK",
      "vis_m": 2100,
      "fzfg": false,
      "metar_trigger": false,
      "taf_trigger": false,
      "metar": "METAR EDDB 112120Z AUTO 15003KT 030V170 2100 1000 R24R/P2000N R24L/1100N BR BKN002 04/04 Q0984 TEMPO 0800 FG",
      "taf": "TAF EDDB 111700Z 1118/1218 14005KT 9999 BKN020"
    },
    {
      "icao": "EDDH",
      "alert": "OK",
      "vis_m": 4400,
      "fzfg": false,
      "metar_trigger": false,
      "taf_trigger": false,
      "metar": "METAR EDDH 112120Z AUTO 07006KT 4400 BR OVC003 01/01 Q0983 TEMPO 5000",
      "taf": "TAF EDDH 111700Z 1118/1224 08007KT 3500 BR OVC003"
    },
    {
      "icao": "EDDK",
      "alert": "OK",
      "vis_m": 9999,
      "fzfg": false,
      "metar_trigger": false,
      "taf_trigger": false,
      "metar": "METAR EDDK 112120Z AUTO 15008KT CAVOK 08/06 Q0983 NOSIG",
      "taf": "TAF EDDK 111700Z 1118/1224 21007KT 9999 BKN020"
    },
    {
      "icao": "EDDN",
      "alert": "OK",
      "vis_m": 9999,
      "fzfg": false,
      "metar_trigger": false,
      "taf_trigger": false,
      "metar": "METAR EDDN 112120Z AUTO 23009KT 9999 FEW021 BKN043 09/06 Q0988",
      "taf": "TAF EDDN 111700Z 1118/1218 22007KT 9999 SCT020 BKN040"
    },
    {
      "icao": "EDDS",
      "alert": "OK",
      "vis_m": 9999,
      "fzfg": false,
      "metar_trigger": false,
      "taf_trigger": false,
      "metar": "METAR EDDS 112120Z AUTO 21004KT 170V250 CAVOK 08/05 Q0988 NOSIG",
      "taf": "TAF EDDS 111700Z 1118/1218 19006KT 9999 BKN030"
    },
    {
      "icao": "EDFH",
      "alert": "OK",
      "vis_m": 9999,
      "fzfg": false,
      "metar_trigger": false,
      "taf_trigger": false,
      "metar": "METAR EDFH 112120Z 21012KT 9999 BKN012 07/06 Q0984",
      "taf": "TAF EDFH 111700Z 1118/1218 19013KT 9999 BKN006"
    },
    {
      "icao": "EDJA",
      "alert": "OK",
      "vis_m": 9999,
      "fzfg": false,
      "metar_trigger": false,
      "taf_trigger": false,
      "metar": "METAR EDJA 112120Z 23010KT CAVOK 06/03 Q0990",
      "taf": ""
    },
    {
      "icao": "EDLW",
      "alert": "OK",
      "vis_m": 9999,
      "fzfg": false,
      "metar_trigger": false,
      "taf_trigger": false,
      "metar": "METAR EDLW 112120Z AUTO 21009KT 9999 // FEW042/// BKN100/// 09/07 Q0982",
      "taf": "TAF EDLW 111700Z 1118/1218 21009KT 9999 FEW010 OVC030"
    },
    {
      "icao": "EDNY",
      "alert": "OK",
      "vis_m": 9999,
      "fzfg": false,
      "metar_trigger": false,
      "taf_trigger": false,
      "metar": "METAR EDNY 112120Z AUTO VRB01KT 9999 // SCT160/// 05/03 Q0991",
      "taf": "TAF EDNY 111700Z 1118/1203 24010KT 9999 SCT040"
    },
    {
      "icao": "EDSB",
      "alert": "OK",
      "vis_m": 9999,
      "fzfg": false,
      "metar_trigger": false,
      "taf_trigger": false,
      "metar": "METAR EDSB 112120Z 19012KT CAVOK 09/06 Q0987",
      "taf": "TAF EDSB 111700Z 1118/1218 20014KT 9999 BKN030"
    },
    {
      "icao": "EETN",
      "alert": "OK",
      "vis_m": 9999,
      "fzfg": false,
      "metar_trigger": false,
      "taf_trigger": false,
      "metar": "METAR EETN 112120Z 17006KT 9999 OVC047 M07/M10 Q0993 NOSIG",
      "taf": "TAF EETN 111730Z 1118/1218 16008KT 9999 BKN040"
    },
    {
      "icao": "EFTU",
      "alert": "OK",
      "vis_m": 9999,
      "fzfg": false,
      "metar_trigger": false,
      "taf_trigger": false,
      "metar": "METAR EFTU 112120Z AUTO 06006KT 9999 -SHSN BKN015 M07/M09 Q0992",
      "taf": "TAF EFTU 112035Z 1121/1221 06006KT 9999 -SN BKN016"
    },
    {
      "icao": "EGBB",
      "alert": "OK",
      "vis_m": 9999,
      "fzfg": false,
      "metar_trigger": false,
      "taf_trigger": false,
      "metar": "METAR EGBB 112120Z 21002KT 9999 OVC043 06/05 Q0976",
      "taf": "TAF EGBB 111700Z 1118/1218 19004KT 9999 SCT035"
    },
    {
      "icao": "EGGP",
      "alert": "OK",
      "vis_m": 3000,
      "fzfg": false,
      "metar_trigger": false,
      "taf_trigger": false,
      "metar": "METAR EGGP 112120Z 25002KT 3000 1200W R27/P2000 -RADZ BR SCT005 BKN017 BKN023 08/07 Q0976",
      "taf": ""
    },
    {
      "icao": "EGGW",
      "alert": "OK",
      "vis_m": 9999,
      "fzfg": false,
      "metar_trigger": false,
      "taf_trigger": false,
      "metar": "METAR EGGW 112120Z AUTO 22005KT 9999 NCD 07/06 Q0976",
      "taf": ""
    },
    {
      "icao": "EGKK",
      "alert": "OK",
      "vis_m": 9999,
      "fzfg": false,
      "metar_trigger": false,
      "taf_trigger": false,
      "metar": "METAR EGKK 112120Z VRB02KT 9999 -RA FEW007 BKN035 09/08 Q0976",
      "taf": "TAF EGKK 111658Z 1118/1224 18010KT 9999 SCT012 BKN020"
    },
    {
      "icao": "EGNM",
      "alert": "OK",
      "vis_m": 9000,
      "fzfg": false,
      "metar_trigger": false,
      "taf_trigger": false,
      "metar": "METAR EGNM 112120Z 34004KT 9000 -RA FEW004 SCT011 05/05 Q0976",
      "taf": "TAF EGNM 111702Z 1118/1218 02008KT 9999 SCT005"
    },
    {
      "icao": "EGPD",
      "alert": "OK",
      "vis_m": 9999,
      "fzfg": false,
      "metar_trigger": false,
      "taf_trigger": false,
      "metar": "METAR EGPD 112120Z AUTO 06013KT 9999 SCT010 BKN018 BKN032 03/01 Q0987 TEMPO BKN010",
      "taf": "TAF EGPD 111655Z 1118/1218 09012KT 9999 SCT012 BKN025"
    },
    {
      "icao": "EGPF",
      "alert": "OK",
      "vis_m": 9999,
      "fzfg": false,
      "metar_trigger": false,
      "taf_trigger": false,
      "metar": "METAR EGPF 112120Z AUTO 06015KT 9999 -RA OVC010 04/03 Q0982",
      "taf": "TAF EGPF 111701Z 1118/1218 07009KT 9999 BKN016"
    },
    {
      "icao": "EHBK",
      "alert": "OK",
      "vis_m": 9999,
      "fzfg": false,
      "metar_trigger": false,
      "taf_trigger": false,
      "metar": "METAR EHBK 112125Z AUTO 18010KT 140V200 9999 NSC 09/07 Q0982 TEMPO 6000 RADZ",
      "taf": "TAF EHBK 111715Z 1118/1224 24007KT 9999 SCT025"
    },
    {
      "icao": "EHEH",
      "alert": "OK",
      "vis_m": 9999,
      "fzfg": false,
      "metar_trigger": false,
      "taf_trigger": false,
      "metar": "METAR EHEH 112125Z AUTO 16006KT 9999 BKN034 OVC130 08/07 Q0981 BLU RMK TREND REMOTE BY EHWX",
      "taf": "TAF EHEH 111740Z 1118/1224 24012KT 8000 SCT030"
    },
    {
      "icao": "EKBI",
      "alert": "OK",
      "vis_m": 8000,
      "fzfg": false,
      "metar_trigger": false,
      "taf_trigger": false,
      "metar": "METAR EKBI 112120Z AUTO 08013KT 8000 OVC005/// 00/M01 Q0986",
      "taf": "TAF EKBI 112027Z 1121/1221 07011KT 9000 BKN009"
    },
    {
      "icao": "EKCH",
      "alert": "OK",
      "vis_m": 9999,
      "fzfg": false,
      "metar_trigger": false,
      "taf_trigger": false,
      "metar": "METAR EKCH 112120Z 07011KT 9999 OVC009 M00/M02 Q0988 TEMPO BKN015",
      "taf": "TAF EKCH 112027Z 1121/1221 05012KT 8000 BKN015"
    },
    {
      "icao": "ENAL",
      "alert": "OK",
      "vis_m": 9999,
      "fzfg": false,
      "metar_trigger": false,
      "taf_trigger": false,
      "metar": "METAR ENAL 112120Z 15008KT CAVOK M02/M07 Q0992",
      "taf": "TAF ENAL 112000Z 1121/1206 15008KT CAVOK"
    },
    {
      "icao": "ENBR",
      "alert": "OK",
      "vis_m": 9999,
      "fzfg": false,
      "metar_trigger": false,
      "taf_trigger": false,
      "metar": "METAR ENBR 112120Z 09002KT 9999 FEW023 BKN030 M01/M05 Q0991 RMK WIND 1200FT VRB02KT",
      "taf": "TAF ENBR 111700Z 1118/1218 VRB03KT 9999 BKN035"
    },
    {
      "icao": "ENGM",
      "alert": "OK",
      "vis_m": 9999,
      "fzfg": false,
      "metar_trigger": false,
      "taf_trigger": false,
      "metar": "METAR ENGM 112120Z 06004KT 9999 -SN BKN036 M07/M10 Q0994 NOSIG",
      "taf": "TAF ENGM 111700Z 1118/1218 01008KT 9999 BKN025"
    },
    {
      "icao": "ENHD",
      "alert": "OK",
      "vis_m": 9999,
      "fzfg": false,
      "metar_trigger": false,
      "taf_trigger": false,
      "metar": "METAR ENHD 112120Z 11009KT CAVOK M02/M07 Q0991",
      "taf": "TAF ENHD 111400Z 1115/1123 09005KT CAVOK"
    },
    {
      "icao": "ENTC",
      "alert": "OK",
      "vis_m": 9999,
      "fzfg": false,
      "metar_trigger": false,
      "taf_trigger": false,
      "metar": "METAR ENTC 112120Z 00000KT CAVOK M12/M13 Q0996 NOSIG RMK WIND 2600FT 14005KT",
      "taf": "TAF ENTC 111700Z 1118/1218 VRB03KT CAVOK"
    },
    {
      "icao": "ENTO",
      "alert": "OK",
      "vis_m": 9999,
      "fzfg": false,
      "metar_trigger": false,
      "taf_trigger": false,
      "metar": "METAR ENTO 112120Z AUTO 03005KT 9999 -SN SCT017/// OVC021/// M04/M06 Q0994",
      "taf": "TAF ENTO 111700Z 1118/1218 02008KT 9999 FEW015 BKN030"
    },
    {
      "icao": "ENVA",
      "alert": "OK",
      "vis_m": 9999,
      "fzfg": false,
      "metar_trigger": false,
      "taf_trigger": false,
      "metar": "METAR ENVA 112120Z 10010KT CAVOK M10/M15 Q0995 RMK WIND 670FT 10010KT",
      "taf": "TAF ENVA 111700Z 1118/1218 10005KT CAVOK"
    },
    {
      "icao": "ENZV",
      "alert": "OK",
      "vis_m": 9999,
      "fzfg": false,
      "metar_trigger": false,
      "taf_trigger": false,
      "metar": "METAR ENZV 112120Z 09004KT CAVOK M02/M08 Q0991",
      "taf": "TAF ENZV 111700Z 1118/1218 10005KT 9999 BKN040"
    },
    {
      "icao": "EPGD",
      "alert": "OK",
      "vis_m": 1900,
      "fzfg": false,
      "metar_trigger": false,
      "taf_trigger": false,
      "metar": "METAR EPGD 112130Z 06003KT 040V100 1900 BR OVC006 M00/M00 Q0986",
      "taf": "TAF EPGD 111730Z 1118/1218 VRB02KT 2000 BR OVC005"
    },
    {
      "icao": "EPKK",
      "alert": "OK",
      "vis_m": 7000,
      "fzfg": false,
      "metar_trigger": false,
      "taf_trigger": false,
      "metar": "METAR EPKK 112130Z VRB01KT 7000 -RA SCT028 BKN032 03/02 Q0988",
      "taf": "TAF EPKK 112030Z 1121/1221 24006KT 7000 BKN025"
    },
    {
      "icao": "EPKT",
      "alert": "OK",
      "vis_m": 9999,
      "fzfg": false,
      "metar_trigger": false,
      "taf_trigger": false,
      "metar": "METAR EPKT 112130Z 21013KT 9999 -RA SCT008 OVC029 05/03 Q0987",
      "taf": ""
    },
    {
      "icao": "EPLB",
      "alert": "OK",
      "vis_m": 9999,
      "fzfg": false,
      "metar_trigger": false,
      "taf_trigger": false,
      "metar": "METAR EPLB 112130Z 22007KT CAVOK 02/01 Q0989",
      "taf": "TAF EPLB 111730Z 1118/1218 18008KT CAVOK"
    },
    {
      "icao": "EPMO",
      "alert": "OK",
      "vis_m": 9999,
      "fzfg": false,
      "metar_trigger": false,
      "taf_trigger": false,
      "metar": "METAR EPMO 112130Z 15004KT CAVOK 03/00 Q0987",
      "taf": "TAF EPMO 111730Z 1118/1218 15006KT CAVOK"
    },
    {
      "icao": "EPPO",
      "alert": "OK",
      "vis_m": 9999,
      "fzfg": false,
      "metar_trigger": false,
      "taf_trigger": false,
      "metar": "METAR EPPO 112130Z 15002KT 9999 -RA BKN023 OVC036 03/01 Q0985",
      "taf": "TAF EPPO 111730Z 1118/1218 12005KT 9999 SCT035"
    },
    {
      "icao": "EPRA",
      "alert": "OK",
      "vis_m": 9999,
      "fzfg": false,
      "metar_trigger": false,
      "taf_trigger": false,
      "metar": "METAR EPRA 112130Z 17008KT 9999 BKN029 02/M00 Q0987",
      "taf": "TAF EPRA 112030Z 1121/1206 17008KT 9999 BKN040"
    },
    {
      "icao": "EPRZ",
      "alert": "OK",
      "vis_m": 9999,
      "fzfg": false,
      "metar_trigger": false,
      "taf_trigger": false,
      "metar": "METAR EPRZ 112130Z 19010KT 9999 -RA FEW026 BKN038 04/02 Q0990",
      "taf": "TAF EPRZ 111730Z 1118/1218 19012KT 9999 BKN040"
    },
    {
      "icao": "EPSC",
      "alert": "OK",
      "vis_m": 1300,
      "fzfg": false,
      "metar_trigger": false,
      "taf_trigger": false,
      "metar": "METAR EPSC 112130Z 07002KT 1300 R31/P2000N -RA BR OVC002 01/01 Q0985",
      "taf": "TAF EPSC 111730Z 1118/1218 VRB02KT 2500 BR OVC005"
    },
    {
      "icao": "EPSY",
      "alert": "OK",
      "vis_m": 4100,
      "fzfg": false,
      "metar_trigger": false,
      "taf_trigger": false,
      "metar": "METAR EPSY 112130Z 00000KT 4100 BR OVC033 01/00 Q0986",
      "taf": "TAF EPSY 112030Z 1121/1206 VRB02KT 6000 BKN030"
    },
    {
      "icao": "EPWA",
      "alert": "OK",
      "vis_m": 9999,
      "fzfg": false,
      "metar_trigger": false,
      "taf_trigger": false,
      "metar": "METAR EPWA 112130Z 15006KT 9999 SCT026 02/00 Q0987 NOSIG",
      "taf": "TAF EPWA 112030Z 1121/1221 16008KT CAVOK"
    },
    {
      "icao": "EPWR",
      "alert": "OK",
      "vis_m": 6000,
      "fzfg": false,
      "metar_trigger": false,
      "taf_trigger": false,
      "metar": "METAR EPWR 112130Z 14004KT 6000 -RA FEW005 BKN015 03/03 Q0985",
      "taf": "TAF EPWR 112030Z 1121/1221 14005KT 9999 BKN027"
    },
    {
      "icao": "ESGG",
      "alert": "OK",
      "vis_m": 9999,
      "fzfg": false,
      "metar_trigger": false,
      "taf_trigger": false,
      "metar": "METAR ESGG 112120Z 04008KT 9999 BKN039 M04/M05 Q0990",
      "taf": "TAF ESGG 112030Z 1121/1221 04007KT 9999 BKN040"
    },
    {
      "icao": "ESKN",
      "alert": "OK",
      "vis_m": 9999,
      "fzfg": false,
      "metar_trigger": false,
      "taf_trigger": false,
      "metar": "METAR ESKN 112120Z 36005KT 330V050 9999 BKN008 M05/M07 Q0993",
      "taf": "TAF ESKN 112030Z 1121/1221 01005KT 9999 BKN007"
    },
    {
      "icao": "ESMS",
      "alert": "OK",
      "vis_m": 9999,
      "fzfg": false,
      "metar_trigger": false,
      "taf_trigger": false,
      "metar": "METAR ESMS 112120Z 06012KT 9999 OVC009 M01/M02 Q0987",
      "taf": "TAF ESMS 112027Z 1121/1221 06012KT 6000 OVC012"
    },
    {
      "icao": "ESSA",
      "alert": "OK",
      "vis_m": 9999,
      "fzfg": false,
      "metar_trigger": false,
      "taf_trigger": false,
      "metar": "METAR ESSA 112120Z 34007KT 9999 FEW010 BKN017 M07/M09 Q0993 TEMPO OVC012",
      "taf": "TAF ESSA 112030Z 1121/1221 35007KT 9999 -SN OVC009"
    },
    {
      "icao": "EYKA",
      "alert": "OK",
      "vis_m": 2200,
      "fzfg": false,
      "metar_trigger": false,
      "taf_trigger": false,
      "metar": "METAR EYKA 112120Z 15004KT 2200 -SN BR FEW008 OVC018 M00/M00 Q0988",
      "taf": ""
    },
    {
      "icao": "EYPA",
      "alert": "OK",
      "vis_m": 7000,
      "fzfg": false,
      "metar_trigger": false,
      "taf_trigger": false,
      "metar": "METAR EYPA 112120Z 09007KT 7000 OVC021 M05/M07 Q0988",
      "taf": "TAF EYPA 111700Z 1118/1218 VRB05KT 5000 BR BKN015"
    },
    {
      "icao": "EYVI",
      "alert": "OK",
      "vis_m": 8000,
      "fzfg": false,
      "metar_trigger": false,
      "taf_trigger": false,
      "metar": "METAR EYVI 112120Z 17010KT 8000 -SN FEW004 BKN020 BKN028 M01/M01 Q0988 NOSIG",
      "taf": "TAF EYVI 111705Z 1118/1218 17008KT 5000 SN BR SCT010 OVC015"
    },
    {
      "icao": "GCFV",
      "alert": "OK",
      "vis_m": 9999,
      "fzfg": false,
      "metar_trigger": false,
      "taf_trigger": false,
      "metar": "METAR GCFV 112130Z 03015KT 9999 BKN011 19/16 Q1026",
      "taf": "TAF GCFV 112000Z 1121/1221 04013KT 9999 BKN016 TX22/1214Z TN17/1206Z"
    },
    {
      "icao": "GCLP",
      "alert": "OK",
      "vis_m": 9999,
      "fzfg": false,
      "metar_trigger": false,
      "taf_trigger": false,
      "metar": "METAR GCLP 112130Z 01015KT 9999 SCT015 BKN020 19/16 Q1025 NOSIG",
      "taf": "TAF GCLP 112000Z 1121/1221 36015KT 9999 SCT015 TX23/1214Z TN17/1206Z"
    },
    {
      "icao": "GCTS",
      "alert": "OK",
      "vis_m": 9999,
      "fzfg": false,
      "metar_trigger": false,
      "taf_trigger": false,
      "metar": "METAR GCTS 112130Z 06012KT 9999 SCT020 18/15 Q1025 NOSIG",
      "taf": "TAF GCTS 112000Z 1121/1221 08015KT 9999 FEW020 TX25/1214Z TN17/1206Z"
    },
    {
      "icao": "GMAD",
      "alert": "OK",
      "vis_m": 1800,
      "fzfg": false,
      "metar_trigger": false,
      "taf_trigger": false,
      "metar": "METAR GMAD 112130Z 00000KT 1800 R27/1900N BR OVC006 16/15 Q1024 NOSIG",
      "taf": ""
    },
    {
      "icao": "GMMN",
      "alert": "OK",
      "vis_m": 6000,
      "fzfg": false,
      "metar_trigger": false,
      "taf_trigger": false,
      "metar": "METAR GMMN 112130Z 32003KT 270V010 6000 SCT003 14/13 Q1026 NOSIG",
      "taf": "TAF GMMN 111700Z 1118/1224 32006KT 8000 SCT008"
    },
    {
      "icao": "GMMX",
      "alert": "OK",
      "vis_m": 9999,
      "fzfg": false,
      "metar_trigger": false,
      "taf_trigger": false,
      "metar": "METAR GMMX 112130Z 08006KT CAVOK 18/15 Q1026 NOSIG",
      "taf": "TAF GMMX 111700Z 1118/1224 28006KT CAVOK"
    },
    {
      "icao": "HEGN",
      "alert": "OK",
      "vis_m": 9999,
      "fzfg": false,
      "metar_trigger": false,
      "taf_trigger": false,
      "metar": "METAR HEGN 112100Z 28007KT CAVOK 19/01 Q1017 NOSIG",
      "taf": "TAF HEGN 111700Z 1118/1224 32010KT CAVOK"
    },
    {
      "icao": "HEMA",
      "alert": "OK",
      "vis_m": 9999,
      "fzfg": false,
      "metar_trigger": false,
      "taf_trigger": false,
      "metar": "METAR HEMA 112100Z 29004KT CAVOK 20/11 Q1016 NOSIG",
      "taf": "TAF HEMA 111700Z 1118/1224 29010KT CAVOK"
    },
    {
      "icao": "HESH",
      "alert": "OK",
      "vis_m": 9999,
      "fzfg": false,
      "metar_trigger": false,
      "taf_trigger": false,
      "metar": "METAR HESH 112100Z 32005KT CAVOK 21/13 Q1016 NOSIG",
      "taf": "TAF HESH 111700Z 1118/1224 34010KT CAVOK"
    },
    {
      "icao": "HESX",
      "alert": "OK",
      "vis_m": 9999,
      "fzfg": false,
      "metar_trigger": false,
      "taf_trigger": false,
      "metar": "METAR HESX 112100Z 19007KT CAVOK 15/03 Q1017 NOSIG",
      "taf": "TAF HESX 111700Z 1118/1224 27010KT CAVOK"
    },
    {
      "icao": "LATI",
      "alert": "OK",
      "vis_m": 9999,
      "fzfg": false,
      "metar_trigger": false,
      "taf_trigger": false,
      "metar": "METAR LATI 112120Z VRB02KT 9999 -RA BKN057 OVC072 11/08 Q0997 NOSIG",
      "taf": "TAF LATI 111700Z 1118/1218 VRB05KT 9999 RA SCT040 OVC060 TX16/1212Z TN08/1205Z"
    },
    {
      "icao": "LBPD",
      "alert": "OK",
      "vis_m": 9999,
      "fzfg": false,
      "metar_trigger": false,
      "taf_trigger": false,
      "metar": "METAR LBPD 112130Z AUTO 25004KT 9999 OVC009/// 02/02 Q1004",
      "taf": "TAF LBPD 111700Z 1118/1218 VRB04KT 9999 BKN010"
    },
    {
      "icao": "LBSF",
      "alert": "OK",
      "vis_m": 9999,
      "fzfg": false,
      "metar_trigger": false,
      "taf_trigger": false,
      "metar": "METAR LBSF 112130Z AUTO 11006KT 9999 FEW012/// M00/M01 Q1001 NOSIG",
      "taf": "TAF LBSF 111700Z 1118/1218 11012KT 9999 SCT030 BKN050"
    },
    {
      "icao": "LBWN",
      "alert": "OK",
      "vis_m": 9999,
      "fzfg": false,
      "metar_trigger": false,
      "taf_trigger": false,
      "metar": "METAR LBWN 112130Z AUTO 12007KT 9999 NCD 03/03 Q1002 NOSIG",
      "taf": ""
    },
    {
      "icao": "LCLK",
      "alert": "OK",
      "vis_m": 9999,
      "fzfg": false,
      "metar_trigger": false,
      "taf_trigger": false,
      "metar": "METAR LCLK 112130Z 23011KT CAVOK 15/12 Q1012 NOSIG",
      "taf": "TAF LCLK 111730Z 1118/1218 24009KT 9999 FEW030"
    },
    {
      "icao": "LCPH",
      "alert": "OK",
      "vis_m": 9999,
      "fzfg": false,
      "metar_trigger": false,
      "taf_trigger": false,
      "metar": "METAR LCPH 112130Z 26007KT 250V320 9999 SCT022 SCT040 BKN050 17/12 Q1012 NOSIG",
      "taf": "TAF LCPH 111730Z 1118/1218 28015KT 9999 FEW025 SCT035"
    },
    {
      "icao": "LEAL",
      "alert": "OK",
      "vis_m": 9999,
      "fzfg": false,
      "metar_trigger": false,
      "taf_trigger": false,
      "metar": "METAR LEAL 112130Z 24017KT 210V270 CAVOK 21/09 Q1008 NOSIG",
      "taf": "TAF LEAL 111700Z 1118/1218 27015KT 9999 FEW030 TX23/1213Z TN12/1206Z"
    },
    {
      "icao": "LEBB",
      "alert": "OK",
      "vis_m": 9999,
      "fzfg": false,
      "metar_trigger": false,
      "taf_trigger": false,
      "metar": "METAR LEBB 112130Z 23012KT 180V280 CAVOK 17/07 Q0999 NOSIG",
      "taf": "TAF LEBB 111700Z 1118/1218 22009KT 9999 FEW035 BKN050 TX19/1118Z TN09/1208Z"
    },
    {
      "icao": "LEBL",
      "alert": "OK",
      "vis_m": 9999,
      "fzfg": false,
      "metar_trigger": false,
      "taf_trigger": false,
      "metar": "METAR LEBL 112130Z 33006KT 290V360 9999 SCT034 14/13 Q0999 NOSIG",
      "taf": ""
    },
    {
      "icao": "LECH",
      "alert": "OK",
      "vis_m": 9000,
      "fzfg": false,
      "metar_trigger": false,
      "taf_trigger": false,
      "metar": "METAR LECH 112130Z AUTO 28013KT 260V320 9000 NCD 20/10 Q1002",
      "taf": ""
    },
    {
      "icao": "LEMD",
      "alert": "OK",
      "vis_m": 9999,
      "fzfg": false,
      "metar_trigger": false,
      "taf_trigger": false,
      "metar": "METAR LEMD 112130Z 27013KT 9999 FEW020 BKN060 14/10 Q1010 NOSIG",
      "taf": ""
    },
    {
      "icao": "LEMG",
      "alert": "OK",
      "vis_m": 9999,
      "fzfg": false,
      "metar_trigger": false,
      "taf_trigger": false,
      "metar": "METAR LEMG 112130Z 27004KT 9999 FEW080 15/13 Q1019 NOSIG",
      "taf": "TAF LEMG 111700Z 1118/1218 VRB03KT 9999 FEW050 TX23/1214Z TN11/1207Z"
    },
    {
      "icao": "LEVC",
      "alert": "OK",
      "vis_m": 9999,
      "fzfg": false,
      "metar_trigger": false,
      "taf_trigger": false,
      "metar": "METAR LEVC 112130Z 26033G48KT CAVOK 20/11 Q1003 NOSIG",
      "taf": "TAF LEVC 111700Z 1118/1218 27015KT 9999 FEW045 TX21/1214Z TN15/1206Z"
    },
    {
      "icao": "LEXJ",
      "alert": "OK",
      "vis_m": 9999,
      "fzfg": false,
      "metar_trigger": false,
      "taf_trigger": false,
      "metar": "METAR LEXJ 112130Z 28025G39KT 260V320 CAVOK 16/04 Q0999",
      "taf": ""
    },
    {
      "icao": "LEZG",
      "alert": "OK",
      "vis_m": 9999,
      "fzfg": false,
      "metar_trigger": false,
      "taf_trigger": false,
      "metar": "METAR LEZG 112130Z 28025KT 9999 FEW060 17/07 Q1002 NOSIG",
      "taf": ""
    },
    {
      "icao": "LEZL",
      "alert": "OK",
      "vis_m": 9999,
      "fzfg": false,
      "metar_trigger": false,
      "taf_trigger": false,
      "metar": "METAR LEZL 112130Z 22014KT 9999 OVC008 16/15 Q1020 NOSIG",
      "taf": "TAF LEZL 112000Z 1121/1221 24015KT 9999 BKN010 TX20/1215Z TN13/1207Z"
    },
    {
      "icao": "LFBD",
      "alert": "OK",
      "vis_m": 9999,
      "fzfg": false,
      "metar_trigger": false,
      "taf_trigger": false,
      "metar": "METAR LFBD 112130Z AUTO 26036G50KT 9999 BKN031 BKN039 OVC045 14/09 Q0992 TEMPO 27040G60KT 1500 TSRA BKN015 BKN025CB",
      "taf": ""
    },
    {
      "icao": "LFLL",
      "alert": "OK",
      "vis_m": 9999,
      "fzfg": false,
      "metar_trigger": false,
      "taf_trigger": false,
      "metar": "METAR LFLL 112130Z 18016KT CAVOK 13/06 Q0990 TEMPO 20030G45KT",
      "taf": "TAF LFLL 111700Z 1118/1224 18010KT 9999 BKN050"
    },
    {
      "icao": "LFLS",
      "alert": "OK",
      "vis_m": 9999,
      "fzfg": false,
      "metar_trigger": false,
      "taf_trigger": false,
      "metar": "METAR LFLS 112130Z AUTO 21005KT 150V250 CAVOK 12/04 Q0992",
      "taf": "TAF LFLS 111400Z 1115/1215 22008KT 9999 BKN040"
    },
    {
      "icao": "LFMN",
      "alert": "OK",
      "vis_m": 9999,
      "fzfg": false,
      "metar_trigger": false,
      "taf_trigger": false,
      "metar": "METAR LFMN 112130Z 33006KT 9999 SCT083 BKN160 BKN210 11/09 Q0996 BECMG 26015KT",
      "taf": "TAF LFMN 112000Z 1121/1303 30008KT CAVOK"
    },
    {
      "icao": "LFOB",
      "alert": "OK",
      "vis_m": 6000,
      "fzfg": false,
      "metar_trigger": false,
      "taf_trigger": false,
      "metar": "METAR LFOB 112130Z AUTO 19011KT 6000 RA FEW014/// OVC062/// ///CB 11/10 Q0975 TEMPO 19020G30KT 3000 RA BKN004",
      "taf": ""
    },
    {
      "icao": "LFPO",
      "alert": "OK",
      "vis_m": 8000,
      "fzfg": false,
      "metar_trigger": false,
      "taf_trigger": false,
      "metar": "METAR LFPO 112130Z 20017G28KT 8000 -RA FEW011 BKN016 11/10 Q0977 TEMPO 20015G30KT 2500 RA BKN014TCU",
      "taf": "TAF LFPO 111700Z 1118/1224 17010KT 6000 SCT033 BKN073"
    },
    {
      "icao": "LFSB",
      "alert": "OK",
      "vis_m": 9999,
      "fzfg": false,
      "metar_trigger": false,
      "taf_trigger": false,
      "metar": "METAR LFSB 112130Z AUTO 13003KT 090V190 9999 FEW054 SCT070 BKN088 09/04 Q0988 TEMPO 4000 RA SCT030TCU",
      "taf": "TAF LFSB 111700Z 1118/1218 17006KT 9999 SCT025 BKN050"
    },
    {
      "icao": "LGAV",
      "alert": "OK",
      "vis_m": 9000,
      "fzfg": false,
      "metar_trigger": false,
      "taf_trigger": false,
      "metar": "METAR LGAV 112120Z COR 13006KT 9000 -RA FEW015TCU BKN025 13/12 Q0999 NOSIG",
      "taf": "TAF LGAV 111700Z 1118/1218 18010KT 9999 SCT020 BKN070"
    },
    {
      "icao": "LGTS",
      "alert": "OK",
      "vis_m": 9999,
      "fzfg": false,
      "metar_trigger": false,
      "taf_trigger": false,
      "metar": "METAR LGTS 112120Z VRB03KT 9999 FEW010 BKN035 11/11 Q1000 NOSIG",
      "taf": "TAF LGTS 111700Z 1118/1218 14010KT 9999 FEW010 BKN030"
    },
    {
      "icao": "LHBP",
      "alert": "OK",
      "vis_m": 9999,
      "fzfg": false,
      "metar_trigger": false,
      "taf_trigger": false,
      "metar": "METAR LHBP 112130Z VRB02KT 9999 FEW038 BKN110 04/04 Q0993 NOSIG",
      "taf": "TAF LHBP 111715Z 1118/1218 18006KT CAVOK"
    },
    {
      "icao": "LHDC",
      "alert": "OK",
      "vis_m": 9999,
      "fzfg": false,
      "metar_trigger": false,
      "taf_trigger": false,
      "metar": "METAR LHDC 112115Z AUTO 19010KT 9999 -SHRA OVC031 07/05 Q0995",
      "taf": "TAF LHDC 111415Z 1115/1124 19012KT 9999 BKN040 BKN060"
    },
    {
      "icao": "LIBD",
      "alert": "OK",
      "vis_m": 9999,
      "fzfg": false,
      "metar_trigger": false,
      "taf_trigger": false,
      "metar": "METAR LIBD 112120Z 23003KT 9999 FEW040 09/09 Q0997",
      "taf": "TAF LIBD 111700Z 1118/1218 26006KT 9999 FEW040"
    },
    {
      "icao": "LIBG",
      "alert": "OK",
      "vis_m": null,
      "fzfg": false,
      "metar_trigger": false,
      "taf_trigger": false,
      "metar": "",
      "taf": "TAF LIBG 111700Z 1118/1203 VRB04KT 9999 FEW040"
    },
    {
      "icao": "LIBP",
      "alert": "OK",
      "vis_m": 9999,
      "fzfg": false,
      "metar_trigger": false,
      "taf_trigger": false,
      "metar": "METAR LIBP 112120Z AUTO 23003KT 210V270 9999 NCD 08/07 Q0997",
      "taf": "TAF LIBP 111700Z 1118/1218 VRB05KT 9999 FEW060"
    },
    {
      "icao": "LIBR",
      "alert": "OK",
      "vis_m": 9999,
      "fzfg": false,
      "metar_trigger": false,
      "taf_trigger": false,
      "metar": "METAR LIBR 112120Z 28007KT 9999 SCT015 SCT045 11/10 Q0997",
      "taf": "TAF LIBR 111700Z 1118/1218 VRB05KT 9999 SCT030"
    },
    {
      "icao": "LICA",
      "alert": "OK",
      "vis_m": 9999,
      "fzfg": false,
      "metar_trigger": false,
      "taf_trigger": false,
      "metar": "METAR LICA 112120Z AUTO 25019KT 9999 OVC030/// 15/12 Q1002",
      "taf": "TAF LICA 111700Z 1118/1218 25022G33KT 9999 BKN020"
    },
    {
      "icao": "LICC",
      "alert": "OK",
      "vis_m": 9999,
      "fzfg": false,
      "metar_trigger": false,
      "taf_trigger": false,
      "metar": "METAR LICC 112120Z 25014KT CAVOK 14/10 Q1004",
      "taf": "TAF LICC 111700Z 1118/1218 26018G30KT 9999 SCT030"
    },
    {
      "icao": "LICJ",
      "alert": "OK",
      "vis_m": 9999,
      "fzfg": false,
      "metar_trigger": false,
      "taf_trigger": false,
      "metar": "METAR LICJ 112120Z 22015KT CAVOK 15/11 Q1005",
      "taf": "TAF LICJ 111700Z 1118/1218 26022G35KT 9999 SCT020"
    },
    {
      "icao": "LIMC",
      "alert": "OK",
      "vis_m": 9999,
      "fzfg": false,
      "metar_trigger": false,
      "taf_trigger": false,
      "metar": "METAR LIMC 112120Z 36003KT 9999 BKN040 05/05 Q0995 NOSIG",
      "taf": "TAF LIMC 111700Z 1118/1224 VRB04KT 8000 FEW030"
    },
    {
      "icao": "LIME",
      "alert": "OK",
      "vis_m": 9999,
      "fzfg": false,
      "metar_trigger": false,
      "taf_trigger": false,
      "metar": "METAR LIME 112120Z 15003KT 100V200 9999 BKN035 08/07 Q0995 NOSIG",
      "taf": "TAF LIME 111700Z 1118/1218 VRB05KT 9999 SCT030"
    },
    {
      "icao": "LIMF",
      "alert": "OK",
      "vis_m": 9999,
      "fzfg": false,
      "metar_trigger": false,
      "taf_trigger": false,
      "metar": "METAR LIMF 112120Z 34007KT CAVOK 07/04 Q0995",
      "taf": "TAF LIMF 111700Z 1118/1218 VRB03KT 9999 FEW025"
    },
    {
      "icao": "LIMJ",
      "alert": "OK",
      "vis_m": 9999,
      "fzfg": false,
      "metar_trigger": false,
      "taf_trigger": false,
      "metar": "METAR LIMJ 112120Z VRB01KT 9999 FEW016 BKN024 11/08 Q0996",
      "taf": "TAF LIMJ 111700Z 1118/1218 VRB05KT 9999 FEW015"
    },
    {
      "icao": "LIPE",
      "alert": "OK",
      "vis_m": 9999,
      "fzfg": false,
      "metar_trigger": false,
      "taf_trigger": false,
      "metar": "METAR LIPE 112120Z VRB01KT 9999 R12/P2000N R30/1400D BKN018 07/07 Q0996",
      "taf": "TAF LIPE 111700Z 1118/1218 VRB05KT 8000 SCT020"
    },
    {
      "icao": "LIPH",
      "alert": "OK",
      "vis_m": 6000,
      "fzfg": false,
      "metar_trigger": false,
      "taf_trigger": false,
      "metar": "METAR LIPH 112120Z 23002KT 6000 MIFG BKN050 09/09 Q0996",
      "taf": "TAF LIPH 111700Z 1118/1218 VRB05KT 7000 BKN010"
    },
    {
      "icao": "LIPQ",
      "alert": "OK",
      "vis_m": 550,
      "fzfg": false,
      "metar_trigger": false,
      "taf_trigger": false,
      "metar": "METAR LIPQ 112120Z AUTO VRB01KT 0550 R09/1600D FG BKN005/// BKN018/// OVC029/// 09/09 Q0995",
      "taf": "TAF LIPQ 111700Z 1118/1218 VRB04KT 2000 BR BKN005"
    },
    {
      "icao": "LIPR",
      "alert": "OK",
      "vis_m": 8000,
      "fzfg": false,
      "metar_trigger": false,
      "taf_trigger": false,
      "metar": "METAR LIPR 112120Z VRB02KT 8000 MIFG NSC 08/07 Q0996",
      "taf": "TAF LIPR 111700Z 1118/1218 VRB05KT 4000 BR SCT020"
    },
    {
      "icao": "LIPX",
      "alert": "OK",
      "vis_m": 8000,
      "fzfg": false,
      "metar_trigger": false,
      "taf_trigger": false,
      "metar": "METAR LIPX 112120Z 24003KT 8000 BKN030 08/08 Q0996",
      "taf": "TAF LIPX 111700Z 1118/1218 VRB05KT 8000 BKN014"
    },
    {
      "icao": "LIPY",
      "alert": "OK",
      "vis_m": 900,
      "fzfg": false,
      "metar_trigger": false,
      "taf_trigger": false,
      "metar": "METAR LIPY 112120Z AUTO 16003KT 0900 R22/P2000N BCFG NCD 09/08 Q0997",
      "taf": "TAF LIPY 111700Z 1118/1218 VRB05KT 4000 BR SCT040"
    },
    {
      "icao": "LIPZ",
      "alert": "OK",
      "vis_m": 7000,
      "fzfg": false,
      "metar_trigger": false,
      "taf_trigger": false,
      "metar": "METAR LIPZ 112120Z 25005KT 7000 R04R/1300D BCFG NSC 08/08 Q0996 TEMPO 3000 BR",
      "taf": "TAF LIPZ 111700Z 1118/1224 VRB05KT 7000 BKN010"
    },
    {
      "icao": "LIRF",
      "alert": "OK",
      "vis_m": 9999,
      "fzfg": false,
      "metar_trigger": false,
      "taf_trigger": false,
      "metar": "METAR LIRF 112120Z 13003KT 080V170 CAVOK 12/11 Q0999 NOSIG",
      "taf": "TAF LIRF 111700Z 1118/1224 VRB05KT 9999 SCT020"
    },
    {
      "icao": "LIRN",
      "alert": "OK",
      "vis_m": 9999,
      "fzfg": false,
      "metar_trigger": false,
      "taf_trigger": false,
      "metar": "METAR LIRN 112120Z 15003KT 120V180 9999 SCT030 12/11 Q0999 NOSIG",
      "taf": "TAF LIRN 111700Z 1118/1218 VRB05KT 9999 SCT020"
    },
    {
      "icao": "LIRP",
      "alert": "OK",
      "vis_m": 9999,
      "fzfg": false,
      "metar_trigger": false,
      "taf_trigger": false,
      "metar": "METAR LIRP 112115Z 30012KT 9999 BKN030 14/12 Q0996 NOSIG",
      "taf": "TAF LIRP 111700Z 1118/1218 VRB03KT 9999 FEW020"
    },
    {
      "icao": "LIRZ",
      "alert": "OK",
      "vis_m": 9999,
      "fzfg": false,
      "metar_trigger": false,
      "taf_trigger": false,
      "metar": "METAR LIRZ 112120Z AUTO VRB02KT 9999 BKN029/// 11/10 Q0998",
      "taf": "TAF LIRZ 111700Z 1118/1218 19008KT 9999 BKN030"
    },
    {
      "icao": "LJLJ",
      "alert": "OK",
      "vis_m": 9999,
      "fzfg": false,
      "metar_trigger": false,
      "taf_trigger": false,
      "metar": "METAR LJLJ 112130Z 27003KT 9999 4000SE MIFG FEW001 BKN050 05/05 Q0994 BECMG 0800 FG BKN002",
      "taf": "TAF LJLJ 111700Z 1118/1218 VRB02KT 9999 FEW003 SCT030 BKN045"
    },
    {
      "icao": "LKMT",
      "alert": "OK",
      "vis_m": 9999,
      "fzfg": false,
      "metar_trigger": false,
      "taf_trigger": false,
      "metar": "METAR LKMT 112130Z 21015KT 9999 -RA FEW024 OVC032 06/05 Q0988 NOSIG",
      "taf": "TAF LKMT 111700Z 1118/1218 22012KT 9999 BKN022"
    },
    {
      "icao": "LKPR",
      "alert": "OK",
      "vis_m": 9999,
      "fzfg": false,
      "metar_trigger": false,
      "taf_trigger": false,
      "metar": "METAR LKPR 112130Z 21015KT 9999 SCT012 07/06 Q0986 NOSIG",
      "taf": "TAF LKPR 112000Z 1121/1303 22014KT 9999 BKN040"
    },
    {
      "icao": "LLBG",
      "alert": "OK",
      "vis_m": 9999,
      "fzfg": false,
      "metar_trigger": false,
      "taf_trigger": false,
      "metar": "METAR LLBG 112120Z 14006KT CAVOK 15/10 Q1016 NOSIG",
      "taf": "TAF LLBG 111702Z 1118/1218 VRB04KT CAVOK"
    },
    {
      "icao": "LMML",
      "alert": "OK",
      "vis_m": 9999,
      "fzfg": false,
      "metar_trigger": false,
      "taf_trigger": false,
      "metar": "METAR LMML 112145Z 26018G30KT CAVOK 16/13 Q1008 NOSIG",
      "taf": "TAF LMML 111700Z 1118/1218 23025G35KT 9999 FEW020"
    },
    {
      "icao": "LOWW",
      "alert": "OK",
      "vis_m": 9999,
      "fzfg": false,
      "metar_trigger": false,
      "taf_trigger": false,
      "metar": "METAR LOWW 112120Z 18009KT 9999 FEW038 05/04 Q0991 NOSIG",
      "taf": "TAF LOWW 112015Z 1121/1303 20008KT 9999 FEW050 TX08/1303Z TN03/1203Z"
    },
    {
      "icao": "LPFR",
      "alert": "OK",
      "vis_m": 3000,
      "fzfg": false,
      "metar_trigger": false,
      "taf_trigger": false,
      "metar": "METAR LPFR 112130Z 25018KT 3000 -DZ BR OVC003 15/15 Q1021",
      "taf": ""
    },
    {
      "icao": "LPMA",
      "alert": "OK",
      "vis_m": 9999,
      "fzfg": false,
      "metar_trigger": false,
      "taf_trigger": false,
      "metar": "METAR LPMA 112130Z VRB02KT 9999 BKN015 18/12 Q1027",
      "taf": "TAF LPMA 111700Z 1118/1218 04010KT 9999 FEW015 SCT030"
    },
    {
      "icao": "LPPR",
      "alert": "OK",
      "vis_m": 9999,
      "fzfg": false,
      "metar_trigger": false,
      "taf_trigger": false,
      "metar": "METAR LPPR 112130Z 30009G19KT 270V330 9999 FEW015 BKN025 14/11 Q1015",
      "taf": "TAF LPPR 111700Z 1118/1218 26012KT 9999 BKN020"
    },
    {
      "icao": "LPPS",
      "alert": "OK",
      "vis_m": 9999,
      "fzfg": false,
      "metar_trigger": false,
      "taf_trigger": false,
      "metar": "METAR LPPS 112130Z 31006KT 9999 SCT015 BKN030 17/11 Q1027",
      "taf": "TAF LPPS 111700Z 1118/1224 27007KT 9999 FEW015 BKN030"
    },
    {
      "icao": "LPPT",
      "alert": "OK",
      "vis_m": 9999,
      "fzfg": false,
      "metar_trigger": false,
      "taf_trigger": false,
      "metar": "METAR LPPT 112130Z 26011KT 230V290 9999 FEW007 BKN013 15/14 Q1019",
      "taf": "TAF LPPT 111700Z 1118/1224 24015KT 5000 BR SCT003 BKN006"
    },
    {
      "icao": "LQBK",
      "alert": "OK",
      "vis_m": 7000,
      "fzfg": false,
      "metar_trigger": false,
      "taf_trigger": false,
      "metar": "METAR LQBK 112130Z VRB01KT 7000 FEW045 07/07 Q0995 NOSIG",
      "taf": "TAF LQBK 111700Z 1118/1218 16005KT 7000 SCT045 TX13/1213Z TN06/1205Z"
    },
    {
      "icao": "LQSA",
      "alert": "OK",
      "vis_m": 9999,
      "fzfg": false,
      "metar_trigger": false,
      "taf_trigger": false,
      "metar": "METAR LQSA 112100Z VRB02KT CAVOK 06/05 Q0996 NOSIG",
      "taf": "TAF LQSA 111700Z 1118/1218 11005KT 9999 BKN050 TX13/1213Z TN04/1205Z"
    },
    {
      "icao": "LQTZ",
      "alert": "OK",
      "vis_m": 9999,
      "fzfg": false,
      "metar_trigger": false,
      "taf_trigger": false,
      "metar": "METAR LQTZ 112100Z 08002KT CAVOK 08/05 Q0996",
      "taf": "TAF LQTZ 111700Z 1118/1218 VRB02KT 9999 SCT060 TX15/1213Z TN04/1205Z"
    },
    {
      "icao": "LRBC",
      "alert": "OK",
      "vis_m": 300,
      "fzfg": false,
      "metar_trigger": false,
      "taf_trigger": false,
      "metar": "METAR LRBC 112130Z 16011KT 0300 R16/0450N FG VV001 00/00 Q0998",
      "taf": "TAF LRBC 112000Z 1121/1206 17010KT 0600 FG OVC001"
    },
    {
      "icao": "LRBS",
      "alert": "OK",
      "vis_m": 5000,
      "fzfg": false,
      "metar_trigger": false,
      "taf_trigger": false,
      "metar": "METAR LRBS 112130Z 08002KT 5000 BR NSC M02/M03 Q1001 BECMG 3000 BR",
      "taf": "TAF LRBS 111700Z 1118/1218 VRB04KT CAVOK"
    },
    {
      "icao": "LRBV",
      "alert": "OK",
      "vis_m": 9999,
      "fzfg": false,
      "metar_trigger": false,
      "taf_trigger": false,
      "metar": "METAR LRBV 112130Z AUTO 14007KT 110V180 9999 NCD 04/M01 Q0997",
      "taf": "TAF LRBV 112000Z 1121/1206 VRB04KT CAVOK"
    },
    {
      "icao": "LRCL",
      "alert": "OK",
      "vis_m": 9999,
      "fzfg": false,
      "metar_trigger": false,
      "taf_trigger": false,
      "metar": "METAR LRCL 112130Z 07005KT 9999 -RA OVC054 06/02 Q0996",
      "taf": "TAF LRCL 112000Z 1121/1206 VRB04KT CAVOK"
    },
    {
      "icao": "LRCV",
      "alert": "OK",
      "vis_m": 2500,
      "fzfg": false,
      "metar_trigger": false,
      "taf_trigger": false,
      "metar": "METAR LRCV 112130Z 27006KT 2500 BR SCT010 M02/M02 Q1001",
      "taf": "TAF LRCV 112000Z 1121/1206 VRB04KT 3000 BR SCT015"
    },
    {
      "icao": "LRIA",
      "alert": "OK",
      "vis_m": 9999,
      "fzfg": false,
      "metar_trigger": false,
      "taf_trigger": false,
      "metar": "METAR LRIA 112130Z 12012KT 9999 FEW008 01/00 Q0998",
      "taf": "TAF LRIA 112000Z 1121/1206 VRB04KT 9999 BKN010"
    },
    {
      "icao": "LROP",
      "alert": "OK",
      "vis_m": 4500,
      "fzfg": false,
      "metar_trigger": false,
      "taf_trigger": false,
      "metar": "METAR LROP 112130Z 00000KT 4500 BR NSC M01/M01 Q1001 BECMG 3000 BR",
      "taf": "TAF LROP 111700Z 1118/1218 VRB04KT CAVOK"
    },
    {
      "icao": "LRSB",
      "alert": "OK",
      "vis_m": 9999,
      "fzfg": false,
      "metar_trigger": false,
      "taf_trigger": false,
      "metar": "METAR LRSB 112130Z 26005KT 9999 FEW085 01/M01 Q0996",
      "taf": "TAF LRSB 111700Z 1118/1218 VRB04KT CAVOK"
    },
    {
      "icao": "LRSM",
      "alert": "OK",
      "vis_m": 9999,
      "fzfg": false,
      "metar_trigger": false,
      "taf_trigger": false,
      "metar": "METAR LRSM 112130Z AUTO 17005KT 9999 BKN047/// OVC065/// 07/03 Q0995",
      "taf": "TAF LRSM 111400Z 1115/1124 14007KT CAVOK"
    },
    {
      "icao": "LRSV",
      "alert": "OK",
      "vis_m": 9999,
      "fzfg": false,
      "metar_trigger": false,
      "taf_trigger": false,
      "metar": "METAR LRSV 112130Z 18004KT CAVOK 00/M00 Q0995",
      "taf": "TAF LRSV 112000Z 1121/1206 20007KT CAVOK"
    },
    {
      "icao": "LRTM",
      "alert": "OK",
      "vis_m": 9999,
      "fzfg": false,
      "metar_trigger": false,
      "taf_trigger": false,
      "metar": "METAR LRTM 112130Z AUTO 09005KT 9999 NCD 04/01 Q0997",
      "taf": "TAF LRTM 112000Z 1121/1206 VRB04KT CAVOK"
    },
    {
      "icao": "LRTR",
      "alert": "OK",
      "vis_m": 9999,
      "fzfg": false,
      "metar_trigger": false,
      "taf_trigger": false,
      "metar": "METAR LRTR 112130Z VRB01KT CAVOK 04/03 Q0997",
      "taf": "TAF LRTR 111700Z 1118/1218 12006KT CAVOK"
    },
    {
      "icao": "LTAC",
      "alert": "OK",
      "vis_m": 9999,
      "fzfg": false,
      "metar_trigger": false,
      "taf_trigger": false,
      "metar": "METAR LTAC 112120Z 30002KT 9999 SCT040 BKN100 03/02 Q1009 NOSIG RMK RWY21C VRB01KT RWY03L 00000KT RWY21R 36002KT RWY03R 28002KT RWY21L VRB02KT",
      "taf": "TAF LTAC 111640Z 1118/1218 VRB02KT 9999 SCT040 SCT100"
    },
    {
      "icao": "LTFM",
      "alert": "OK",
      "vis_m": 7000,
      "fzfg": false,
      "metar_trigger": false,
      "taf_trigger": false,
      "metar": "METAR LTFM 112120Z 16005KT 7000 SCT040 SCT090 06/04 Q1005 NOSIG RMK RWY17L 17009KT RWY34L 16004KT RWY16R 16010KT RWY36 19006KT RWY18 19009KT",
      "taf": ""
    },
    {
      "icao": "LUKK",
      "alert": "OK",
      "vis_m": 9999,
      "fzfg": false,
      "metar_trigger": false,
      "taf_trigger": false,
      "metar": "METAR LUKK 112130Z 20010G21KT 180V300 9999 OVC008 02/01 Q1000 NOSIG",
      "taf": "TAF LUKK 111700Z 1118/1218 16009KT 9999 OVC018"
    },
    {
      "icao": "LWOH",
      "alert": "OK",
      "vis_m": null,
      "fzfg": false,
      "metar_trigger": false,
      "taf_trigger": false,
      "metar": "",
      "taf": "TAF LWOH 112030Z 1121/1221 VRB02KT 9999 RA SCT015 OVC040"
    },
    {
      "icao": "LWSK",
      "alert": "OK",
      "vis_m": 9999,
      "fzfg": false,
      "metar_trigger": false,
      "taf_trigger": false,
      "metar": "METAR LWSK 112120Z 03003KT 020V090 9999 -RA BKN018 OVC050 07/06 Q1000 NOSIG",
      "taf": ""
    },
    {
      "icao": "LYBE",
      "alert": "OK",
      "vis_m": 9999,
      "fzfg": false,
      "metar_trigger": false,
      "taf_trigger": false,
      "metar": "METAR LYBE 112130Z 12005KT CAVOK 08/04 Q0996 NOSIG",
      "taf": "TAF LYBE 111700Z 1118/1218 13008KT CAVOK TX18/1212Z TN04/1206Z"
    },
    {
      "icao": "LYNI",
      "alert": "OK",
      "vis_m": 9999,
      "fzfg": false,
      "metar_trigger": false,
      "taf_trigger": false,
      "metar": "METAR LYNI 112130Z 11006KT 9999 FEW090 07/04 Q0999 NOSIG",
      "taf": "TAF LYNI 111700Z 1118/1218 12005KT 9999 SCT050 TX14/1212Z TN03/1206Z"
    },
    {
      "icao": "LYPG",
      "alert": "OK",
      "vis_m": 5000,
      "fzfg": false,
      "metar_trigger": false,
      "taf_trigger": false,
      "metar": "METAR LYPG 112130Z 26001KT 5000 2000S -RA BR FEW030 SCT050 OVC070 09/09 Q0998 TEMPO 3000",
      "taf": "TAF LYPG 111700Z 1118/1218 36005KT 8000 FEW007 BKN040 OVC070 TX11/1213Z TN08/1205Z"
    },
    {
      "icao": "LZIB",
      "alert": "OK",
      "vis_m": 3100,
      "fzfg": false,
      "metar_trigger": false,
      "taf_trigger": false,
      "metar": "METAR LZIB 112130Z VRB03KT 3100 BR FEW007 BKN046 03/03 Q0992 NOSIG",
      "taf": "TAF LZIB 111715Z 1118/1218 03006KT 7000 SCT004 BKN025"
    },
    {
      "icao": "LZKZ",
      "alert": "OK",
      "vis_m": 900,
      "fzfg": false,
      "metar_trigger": false,
      "taf_trigger": false,
      "metar": "METAR LZKZ 112130Z 19003KT 0900 R01/P2000N FG OVC008 01/01 Q0993 TEMPO 1500 BR",
      "taf": "TAF LZKZ 111715Z 1118/1218 21005KT 3500 BR BKN006 OVC010"
    },
    {
      "icao": "LZTT",
      "alert": "OK",
      "vis_m": 9999,
      "fzfg": false,
      "metar_trigger": false,
      "taf_trigger": false,
      "metar": "METAR LZTT 112130Z 24007KT 9999 FEW016 03/01 Q0990",
      "taf": ""
    },
    {
      "icao": "OEJN",
      "alert": "OK",
      "vis_m": 9999,
      "fzfg": false,
      "metar_trigger": false,
      "taf_trigger": false,
      "metar": "METAR OEJN 112100Z 35008KT CAVOK 25/20 Q1014 NOSIG",
      "taf": "TAF OEJN 111700Z 1118/1224 36006KT 7000 NSC"
    },
    {
      "icao": "OEMA",
      "alert": "OK",
      "vis_m": 9999,
      "fzfg": false,
      "metar_trigger": false,
      "taf_trigger": false,
      "metar": "METAR OEMA 112100Z 26007KT CAVOK 25/09 Q1018 NOSIG",
      "taf": "TAF OEMA 111700Z 1118/1224 VRB03KT CAVOK"
    },
    {
      "icao": "OJAI",
      "alert": "OK",
      "vis_m": 4000,
      "fzfg": false,
      "metar_trigger": false,
      "taf_trigger": false,
      "metar": "METAR OJAI 112100Z 27006KT 4000 HZ NSC 09/04 Q1017 NOSIG",
      "taf": "TAF OJAI 111700Z 1118/1224 25012KT 5000 HZ FEW035"
    },
    {
      "icao": "OMAA",
      "alert": "OK",
      "vis_m": 8000,
      "fzfg": false,
      "metar_trigger": false,
      "taf_trigger": false,
      "metar": "METAR OMAA 112130Z 34003KT 310V040 8000 NSC 21/18 Q1017 NOSIG",
      "taf": "TAF OMAA 111700Z 1118/1300 01006KT 8000 NSC"
    },
    {
      "icao": "OMDB",
      "alert": "OK",
      "vis_m": 9999,
      "fzfg": false,
      "metar_trigger": false,
      "taf_trigger": false,
      "metar": "METAR OMDB 112130Z 09005KT CAVOK 22/15 Q1017 NOSIG",
      "taf": "TAF OMDB 111700Z 1118/1300 09007KT 8000 NSC"
    },
    {
      "icao": "UAAA",
      "alert": "OK",
      "vis_m": 9999,
      "fzfg": false,
      "metar_trigger": false,
      "taf_trigger": false,
      "metar": "METAR UAAA 112130Z 03003MPS 9999 OVC003 M02/M03 Q1023 NOSIG RMK QBB100",
      "taf": "TAF UAAA 111702Z 1118/1218 02003G08MPS 1500 -SN BR BKN011 OVC020 TX00/1209Z TNM03/1203Z"
    },
    {
      "icao": "UBBB",
      "alert": "OK",
      "vis_m": 9999,
      "fzfg": false,
      "metar_trigger": false,
      "taf_trigger": false,
      "metar": "METAR UBBB 112130Z 14008KT 9999 OVC024 04/02 Q1016 NOSIG",
      "taf": "TAF UBBB 111702Z 1118/1218 16005KT 9999 SCT012 BKN030 TX07/1210Z TN00/1201Z"
    },
    {
      "icao": "UDSG",
      "alert": "OK",
      "vis_m": 1500,
      "fzfg": false,
      "metar_trigger": false,
      "taf_trigger": false,
      "metar": "METAR UDSG 112130Z 12001KT 1500 R02/P2000N BR OVC005 M01/M01 Q1014 NOSIG",
      "taf": "TAF UDSG 111658Z 1118/1218 VRB06KT 3000 BR OVC020"
    },
    {
      "icao": "UDYZ",
      "alert": "OK",
      "vis_m": 3600,
      "fzfg": false,
      "metar_trigger": false,
      "taf_trigger": false,
      "metar": "METAR UDYZ 112130Z VRB01KT 3600 BR BKN020 02/02 Q1015 NOSIG",
      "taf": "TAF UDYZ 111700Z 1118/1218 VRB04KT 6000 BKN020"
    },
    {
      "icao": "UGKO",
      "alert": "OK",
      "vis_m": 9999,
      "fzfg": false,
      "metar_trigger": false,
      "taf_trigger": false,
      "metar": "METAR UGKO 112130Z 09016KT 9999 BKN044 06/M00 Q1012 NOSIG",
      "taf": "TAF UGKO 111700Z 1118/1218 08015KT 9999 BKN050 TX17/1211Z TN04/1202Z"
    }
  ]
}