{
  "ts_utc": "2025-12-24T18:51:58Z",
  "threshold_m": 150,
  "source": "stations_override.txt (ICAO list) + aviationweather.gov (METAR/TAF raw)",
  "station_count": 159,
  "stations": [
    {
      "icao": "BIKF",
      "alert": "OK",
      "vis_m": 3000,
      "fzfg": false,
      "metar_trigger": false,
      "taf_trigger": false,
      "metar": "METAR BIKF 241830Z 17029G39KT 3000 -DZ BR OVC005 09/08 Q1012",
      "taf": "TAF BIKF 241626Z 2418/2518 18030G40KT 6000 -RADZ SCT007 BKN014 TX09/2418Z TN07/2512Z"
    },
    {
      "icao": "BKPR",
      "alert": "OK",
      "vis_m": null,
      "fzfg": false,
      "metar_trigger": false,
      "taf_trigger": false,
      "metar": "",
      "taf": "TAF BKPR 241730Z 2418/2518 03008KT 9999 SCT012 BKN025"
    },
    {
      "icao": "EBCI",
      "alert": "OK",
      "vis_m": 9999,
      "fzfg": false,
      "metar_trigger": false,
      "taf_trigger": false,
      "metar": "METAR EBCI 241820Z 04017KT 9999 FEW024 M02/M05 Q1026 NOSIG",
      "taf": "TAF EBCI 241720Z 2418/2524 05013KT 9999 FEW030"
    },
    {
      "icao": "EDDB",
      "alert": "OK",
      "vis_m": 9999,
      "fzfg": false,
      "metar_trigger": false,
      "taf_trigger": false,
      "metar": "METAR EDDB 241820Z AUTO 06010KT CAVOK M06/M09 Q1037 NOSIG",
      "taf": "TAF EDDB 241700Z 2418/2518 07008KT CAVOK"
    },
    {
      "icao": "EDDH",
      "alert": "OK",
      "vis_m": 9999,
      "fzfg": false,
      "metar_trigger": false,
      "taf_trigger": false,
      "metar": "METAR EDDH 241820Z AUTO 07013KT CAVOK M01/M05 Q1038 NOSIG",
      "taf": "TAF EDDH 241700Z 2418/2524 07010KT CAVOK"
    },
    {
      "icao": "EDDK",
      "alert": "OK",
      "vis_m": 9999,
      "fzfg": false,
      "metar_trigger": false,
      "taf_trigger": false,
      "metar": "METAR EDDK 241820Z AUTO 06007KT CAVOK M01/M08 Q1029 NOSIG",
      "taf": "TAF EDDK 241700Z 2418/2524 07009KT CAVOK"
    },
    {
      "icao": "EDDN",
      "alert": "OK",
      "vis_m": 9999,
      "fzfg": false,
      "metar_trigger": false,
      "taf_trigger": false,
      "metar": "METAR EDDN 241820Z AUTO 06013KT 020V110 9999 SCT027 M01/M06 Q1023 TEMPO 07015G25KT",
      "taf": "TAF EDDN 241700Z 2418/2518 07015G25KT 9999 SCT030"
    },
    {
      "icao": "EDDS",
      "alert": "OK",
      "vis_m": 9999,
      "fzfg": false,
      "metar_trigger": false,
      "taf_trigger": false,
      "metar": "METAR EDDS 241820Z AUTO 06017G27KT 9999 -SN OVC022 M00/M05 Q1018 NOSIG",
      "taf": "TAF EDDS 241700Z 2418/2518 04015G25KT 9999 BKN020 OVC030"
    },
    {
      "icao": "EDFH",
      "alert": "OK",
      "vis_m": 9999,
      "fzfg": false,
      "metar_trigger": false,
      "taf_trigger": false,
      "metar": "METAR EDFH 241820Z 05017KT 9999 OVC023 M03/M08 Q1023",
      "taf": "TAF EDFH 241700Z 2418/2518 05015G30KT 9999 SCT020 BKN030"
    },
    {
      "icao": "EDJA",
      "alert": "OK",
      "vis_m": 9999,
      "fzfg": false,
      "metar_trigger": false,
      "taf_trigger": false,
      "metar": "METAR EDJA 241820Z 06014KT 9999 OVC009 M01/M03 Q1015",
      "taf": "TAF EDJA 241700Z 2418/2503 06015KT 6000 BKN011"
    },
    {
      "icao": "EDLW",
      "alert": "OK",
      "vis_m": 9999,
      "fzfg": false,
      "metar_trigger": false,
      "taf_trigger": false,
      "metar": "METAR EDLW 241820Z 03014G24KT CAVOK M02/M07 Q1030",
      "taf": "TAF EDLW 241700Z 2418/2518 05011KT CAVOK"
    },
    {
      "icao": "EDNY",
      "alert": "OK",
      "vis_m": 9999,
      "fzfg": false,
      "metar_trigger": false,
      "taf_trigger": false,
      "metar": "METAR EDNY 241820Z AUTO 05018KT 9999 // OVC024/// 01/M03 Q1014",
      "taf": "TAF EDNY 241400Z 2415/2418 04015KT 9999 BKN020"
    },
    {
      "icao": "EDSB",
      "alert": "OK",
      "vis_m": 9999,
      "fzfg": false,
      "metar_trigger": false,
      "taf_trigger": false,
      "metar": "METAR EDSB 241820Z AUTO 03020KT 9999 // OVC036/// 02/M05 Q1019",
      "taf": "TAF EDSB 241700Z 2418/2518 04020G30KT 9999 BKN030"
    },
    {
      "icao": "EETN",
      "alert": "OK",
      "vis_m": 9999,
      "fzfg": false,
      "metar_trigger": false,
      "taf_trigger": false,
      "metar": "METAR EETN 241850Z 30014KT 9999 OVC010 02/M00 Q1032 NOSIG",
      "taf": "TAF EETN 241730Z 2418/2518 29014KT 9999 OVC010"
    },
    {
      "icao": "EFTU",
      "alert": "OK",
      "vis_m": 9999,
      "fzfg": false,
      "metar_trigger": false,
      "taf_trigger": false,
      "metar": "METAR EFTU 241820Z AUTO 30007KT 9999 OVC003 01/01 Q1032",
      "taf": ""
    },
    {
      "icao": "EGBB",
      "alert": "OK",
      "vis_m": 9999,
      "fzfg": false,
      "metar_trigger": false,
      "taf_trigger": false,
      "metar": "METAR EGBB 241820Z 03006KT 9999 BKN027 04/00 Q1036",
      "taf": "TAF EGBB 241657Z 2418/2518 06009KT 9999 SCT030"
    },
    {
      "icao": "EGGP",
      "alert": "OK",
      "vis_m": 9999,
      "fzfg": false,
      "metar_trigger": false,
      "taf_trigger": false,
      "metar": "METAR EGGP 241820Z 06005KT 9999 BKN033 05/M01 Q1038",
      "taf": "TAF EGGP 241658Z 2418/2518 07007KT 9999 SCT025"
    },
    {
      "icao": "EGGW",
      "alert": "OK",
      "vis_m": 9999,
      "fzfg": false,
      "metar_trigger": false,
      "taf_trigger": false,
      "metar": "METAR EGGW 241820Z AUTO 03012KT 9999 SCT027 02/M00 Q1033",
      "taf": "TAF EGGW 241658Z 2418/2518 05013KT 9999 SCT025"
    },
    {
      "icao": "EGKK",
      "alert": "OK",
      "vis_m": 9999,
      "fzfg": false,
      "metar_trigger": false,
      "taf_trigger": false,
      "metar": "METAR EGKK 241820Z 04014KT 9999 SCT031 04/M00 Q1032",
      "taf": "TAF EGKK 241655Z 2418/2524 04013KT 9999 FEW030"
    },
    {
      "icao": "EGNM",
      "alert": "OK",
      "vis_m": 9999,
      "fzfg": false,
      "metar_trigger": false,
      "taf_trigger": false,
      "metar": "METAR EGNM 241820Z 06009KT 9999 BKN029 04/M00 Q1038",
      "taf": "TAF EGNM 241658Z 2418/2518 06008KT 9999 SCT025"
    },
    {
      "icao": "EGPD",
      "alert": "OK",
      "vis_m": 9999,
      "fzfg": false,
      "metar_trigger": false,
      "taf_trigger": false,
      "metar": "METAR EGPD 241820Z COR AUTO 19003KT 9999 NCD 02/00 Q1041 NOSIG",
      "taf": "TAF EGPD 241656Z 2418/2518 22004KT 9999 FEW025"
    },
    {
      "icao": "EGPF",
      "alert": "OK",
      "vis_m": 9999,
      "fzfg": false,
      "metar_trigger": false,
      "taf_trigger": false,
      "metar": "METAR EGPF 241820Z AUTO 05005KT 9999 BKN029 02/00 Q1041",
      "taf": "TAF EGPF 241657Z 2418/2518 09004KT 9999 FEW025"
    },
    {
      "icao": "EHBK",
      "alert": "OK",
      "vis_m": 9999,
      "fzfg": false,
      "metar_trigger": false,
      "taf_trigger": false,
      "metar": "METAR EHBK 241825Z AUTO 05015KT 020V080 9999 NCD M01/M06 Q1028 NOSIG",
      "taf": "TAF EHBK 241711Z 2418/2524 05015KT CAVOK"
    },
    {
      "icao": "EHEH",
      "alert": "OK",
      "vis_m": 9999,
      "fzfg": false,
      "metar_trigger": false,
      "taf_trigger": false,
      "metar": "METAR EHEH 241825Z AUTO 04016KT 010V070 9999 NCD M00/M05 Q1031 BLU NOSIG RMK TREND REMOTE BY EHWX",
      "taf": "TAF EHEH 241723Z 2418/2524 06013KT 9999 FEW025"
    },
    {
      "icao": "EKBI",
      "alert": "OK",
      "vis_m": 9999,
      "fzfg": false,
      "metar_trigger": false,
      "taf_trigger": false,
      "metar": "METAR EKBI 241820Z AUTO 02005KT 9999 OVC024/// 01/M03 Q1041",
      "taf": "TAF EKBI 241727Z 2418/2518 VRB02KT 9999 BKN025"
    },
    {
      "icao": "EKCH",
      "alert": "OK",
      "vis_m": 9999,
      "fzfg": false,
      "metar_trigger": false,
      "taf_trigger": false,
      "metar": "METAR EKCH 241820Z AUTO 05007KT 9999 NCD M01/M05 Q1041 NOSIG",
      "taf": "TAF EKCH 241727Z 2418/2518 05012KT 9999 SCT030"
    },
    {
      "icao": "ENAL",
      "alert": "OK",
      "vis_m": 9999,
      "fzfg": false,
      "metar_trigger": false,
      "taf_trigger": false,
      "metar": "METAR ENAL 241820Z AUTO 21011KT 9999 BKN029/// OVC036/// 08/04 Q1038",
      "taf": "TAF ENAL 241700Z 2418/2503 20012KT 9999 BKN030"
    },
    {
      "icao": "ENBR",
      "alert": "OK",
      "vis_m": 9999,
      "fzfg": false,
      "metar_trigger": false,
      "taf_trigger": false,
      "metar": "METAR ENBR 241820Z 05002KT 9999 BKN029 03/01 Q1042 RMK WIND 1200FT 32003KT",
      "taf": "TAF ENBR 241700Z 2418/2518 09005KT 9999 BKN030"
    },
    {
      "icao": "ENGM",
      "alert": "OK",
      "vis_m": 9999,
      "fzfg": false,
      "metar_trigger": false,
      "taf_trigger": false,
      "metar": "METAR ENGM 241820Z VRB02KT CAVOK M09/M10 Q1039 NOSIG",
      "taf": "TAF ENGM 241700Z 2418/2518 VRB03KT CAVOK"
    },
    {
      "icao": "ENHD",
      "alert": "OK",
      "vis_m": 9999,
      "fzfg": false,
      "metar_trigger": false,
      "taf_trigger": false,
      "metar": "METAR ENHD 241820Z AUTO 07003KT 9999 NCD M01/M01 Q1041",
      "taf": "TAF ENHD 241400Z 2415/2423 02005KT 9999 FEW030"
    },
    {
      "icao": "ENTC",
      "alert": "OK",
      "vis_m": 9999,
      "fzfg": false,
      "metar_trigger": false,
      "taf_trigger": false,
      "metar": "METAR ENTC 241820Z 21027KT 9999 -RA OVC033 04/01 Q1011 TEMPO 4000 RA BKN012 RMK WIND 2600FT 21031KT",
      "taf": "TAF ENTC 241700Z 2418/2518 22025KT 9999 -RA FEW009 BKN018"
    },
    {
      "icao": "ENTO",
      "alert": "OK",
      "vis_m": 9999,
      "fzfg": false,
      "metar_trigger": false,
      "taf_trigger": false,
      "metar": "METAR ENTO 241820Z AUTO VRB01KT 9999 NCD M06/M07 Q1041",
      "taf": "TAF ENTO 241700Z 2418/2518 35005KT CAVOK"
    },
    {
      "icao": "ENVA",
      "alert": "OK",
      "vis_m": 9999,
      "fzfg": false,
      "metar_trigger": false,
      "taf_trigger": false,
      "metar": "METAR ENVA 241820Z AUTO 24013KT 9999 OVC027/// 07/03 Q1034 RMK WIND 670FT 24017G30KT",
      "taf": ""
    },
    {
      "icao": "ENZV",
      "alert": "OK",
      "vis_m": 9999,
      "fzfg": false,
      "metar_trigger": false,
      "taf_trigger": false,
      "metar": "METAR ENZV 241820Z VRB02KT CAVOK M02/M03 Q1041",
      "taf": "TAF ENZV 241700Z 2418/2518 VRB03KT CAVOK"
    },
    {
      "icao": "EPGD",
      "alert": "OK",
      "vis_m": 9999,
      "fzfg": false,
      "metar_trigger": false,
      "taf_trigger": false,
      "metar": "METAR EPGD 241830Z 12007KT CAVOK M07/M11 Q1040",
      "taf": "TAF EPGD 241730Z 2418/2518 11010KT CAVOK"
    },
    {
      "icao": "EPKK",
      "alert": "OK",
      "vis_m": 9999,
      "fzfg": false,
      "metar_trigger": false,
      "taf_trigger": false,
      "metar": "METAR EPKK 241830Z 06012KT 9999 -SN FEW009 OVC010 M06/M08 Q1033",
      "taf": "TAF EPKK 241730Z 2418/2518 05014KT 9999 OVC011"
    },
    {
      "icao": "EPKT",
      "alert": "OK",
      "vis_m": 9999,
      "fzfg": false,
      "metar_trigger": false,
      "taf_trigger": false,
      "metar": "METAR EPKT 241830Z 07013KT 9999 OVC010 M06/M09 Q1033",
      "taf": "TAF EPKT 241730Z 2418/2518 07014KT 9999 OVC012"
    },
    {
      "icao": "EPLB",
      "alert": "OK",
      "vis_m": 9999,
      "fzfg": false,
      "metar_trigger": false,
      "taf_trigger": false,
      "metar": "METAR EPLB 241830Z 08008KT CAVOK M10/M12 Q1037",
      "taf": "TAF EPLB 241730Z 2418/2518 06008KT CAVOK"
    },
    {
      "icao": "EPMO",
      "alert": "OK",
      "vis_m": 9999,
      "fzfg": false,
      "metar_trigger": false,
      "taf_trigger": false,
      "metar": "METAR EPMO 241830Z 05005KT CAVOK M10/M12 Q1039",
      "taf": "TAF EPMO 241730Z 2418/2518 07007KT CAVOK"
    },
    {
      "icao": "EPPO",
      "alert": "OK",
      "vis_m": 9999,
      "fzfg": false,
      "metar_trigger": false,
      "taf_trigger": false,
      "metar": "METAR EPPO 241830Z 08005KT CAVOK M08/M11 Q1038",
      "taf": "TAF EPPO 241730Z 2418/2518 08010KT CAVOK"
    },
    {
      "icao": "EPRA",
      "alert": "OK",
      "vis_m": 9999,
      "fzfg": false,
      "metar_trigger": false,
      "taf_trigger": false,
      "metar": "METAR EPRA 241830Z 07005KT CAVOK M10/M13 Q1037",
      "taf": "TAF EPRA 241730Z 2418/2503 06006KT CAVOK"
    },
    {
      "icao": "EPRZ",
      "alert": "OK",
      "vis_m": 9999,
      "fzfg": false,
      "metar_trigger": false,
      "taf_trigger": false,
      "metar": "METAR EPRZ 241830Z 05012KT 9999 OVC012 M05/M08 Q1034",
      "taf": "TAF EPRZ 241730Z 2418/2518 05012KT 9999 OVC012"
    },
    {
      "icao": "EPSC",
      "alert": "OK",
      "vis_m": 9999,
      "fzfg": false,
      "metar_trigger": false,
      "taf_trigger": false,
      "metar": "METAR EPSC 241830Z 05003KT 020V080 CAVOK M06/M10 Q1039",
      "taf": "TAF EPSC 241730Z 2418/2518 07005KT CAVOK"
    },
    {
      "icao": "EPSY",
      "alert": "OK",
      "vis_m": 9999,
      "fzfg": false,
      "metar_trigger": false,
      "taf_trigger": false,
      "metar": "METAR EPSY 241830Z 20001KT CAVOK M12/M13 Q1039",
      "taf": "TAF EPSY 241730Z 2418/2503 VRB02KT CAVOK"
    },
    {
      "icao": "EPWA",
      "alert": "OK",
      "vis_m": 9999,
      "fzfg": false,
      "metar_trigger": false,
      "taf_trigger": false,
      "metar": "METAR EPWA 241830Z 09007KT CAVOK M08/M11 Q1038 NOSIG",
      "taf": "TAF EPWA 241730Z 2418/2518 07008KT CAVOK"
    },
    {
      "icao": "EPWR",
      "alert": "OK",
      "vis_m": 9999,
      "fzfg": false,
      "metar_trigger": false,
      "taf_trigger": false,
      "metar": "METAR EPWR 241830Z 06007KT 020V090 9999 BKN017 M05/M08 Q1035",
      "taf": "TAF EPWR 241730Z 2418/2518 08010KT 9999 SCT016"
    },
    {
      "icao": "ESGG",
      "alert": "OK",
      "vis_m": 9999,
      "fzfg": false,
      "metar_trigger": false,
      "taf_trigger": false,
      "metar": "METAR ESGG 241820Z VRB02KT 9999 BKN011 M01/M02 Q1040",
      "taf": "TAF ESGG 241730Z 2418/2518 VRB02KT 9999 SCT010 BKN015"
    },
    {
      "icao": "ESKN",
      "alert": "OK",
      "vis_m": 9999,
      "fzfg": false,
      "metar_trigger": false,
      "taf_trigger": false,
      "metar": "METAR ESKN 241820Z 28011KT 9999 OVC004 M03/M04 Q1038",
      "taf": "TAF ESKN 241730Z 2418/2518 28009KT 9999 BKN009"
    },
    {
      "icao": "ESMS",
      "alert": "OK",
      "vis_m": 9999,
      "fzfg": false,
      "metar_trigger": false,
      "taf_trigger": false,
      "metar": "METAR ESMS 241820Z VRB03KT 9999 BKN028 M01/M05 Q1040",
      "taf": "TAF ESMS 241727Z 2418/2518 VRB02KT 9999 BKN030"
    },
    {
      "icao": "ESSA",
      "alert": "OK",
      "vis_m": 9999,
      "fzfg": false,
      "metar_trigger": false,
      "taf_trigger": false,
      "metar": "METAR ESSA 241820Z 24006KT CAVOK M05/M06 Q1035 NOSIG",
      "taf": "TAF ESSA 241730Z 2418/2518 26006KT CAVOK"
    },
    {
      "icao": "EYKA",
      "alert": "OK",
      "vis_m": 9999,
      "fzfg": false,
      "metar_trigger": false,
      "taf_trigger": false,
      "metar": "METAR EYKA 241850Z 26005KT 230V300 9999 OVC038 M03/M08 Q1039",
      "taf": "TAF EYKA 241700Z 2418/2518 VRB05KT 9000 OVC030"
    },
    {
      "icao": "EYPA",
      "alert": "OK",
      "vis_m": 9999,
      "fzfg": false,
      "metar_trigger": false,
      "taf_trigger": false,
      "metar": "METAR EYPA 241850Z 28003KT 200V340 9999 OVC035 02/M03 Q1039",
      "taf": "TAF EYPA 241700Z 2418/2518 VRB04KT 9000 OVC025"
    },
    {
      "icao": "EYVI",
      "alert": "OK",
      "vis_m": 9999,
      "fzfg": false,
      "metar_trigger": false,
      "taf_trigger": false,
      "metar": "METAR EYVI 241820Z 29005KT 240V340 9999 OVC033 M05/M09 Q1037 NOSIG",
      "taf": "TAF EYVI 241700Z 2418/2518 VRB05KT 9000 OVC025"
    },
    {
      "icao": "GCFV",
      "alert": "OK",
      "vis_m": 9999,
      "fzfg": false,
      "metar_trigger": false,
      "taf_trigger": false,
      "metar": "METAR GCFV 241830Z 27007KT 9999 FEW025TCU SCT035 18/14 Q1013",
      "taf": ""
    },
    {
      "icao": "GCLP",
      "alert": "OK",
      "vis_m": 9999,
      "fzfg": false,
      "metar_trigger": false,
      "taf_trigger": false,
      "metar": "METAR GCLP 241830Z 10003KT 060V140 9999 BKN050 20/11 Q1014 NOSIG",
      "taf": "TAF GCLP 241400Z 2415/2515 18010KT 9999 SCT030 TX21/2514Z TN16/2506Z"
    },
    {
      "icao": "GCTS",
      "alert": "OK",
      "vis_m": 9999,
      "fzfg": false,
      "metar_trigger": false,
      "taf_trigger": false,
      "metar": "METAR GCTS 241830Z 08009KT 9999 FEW035 20/11 Q1014 NOSIG",
      "taf": "TAF GCTS 241400Z 2415/2515 14006KT 9999 SCT030 TX23/2514Z TN15/2506Z"
    },
    {
      "icao": "GMAD",
      "alert": "OK",
      "vis_m": 6000,
      "fzfg": false,
      "metar_trigger": false,
      "taf_trigger": false,
      "metar": "METAR GMAD 241830Z 18006KT 6000 SCT006 SCT020 BKN033 14/14 Q1010 NOSIG",
      "taf": "TAF GMAD 241700Z 2418/2524 16006KT 8000 SCT010 BKN020"
    },
    {
      "icao": "GMMN",
      "alert": "OK",
      "vis_m": 2000,
      "fzfg": false,
      "metar_trigger": false,
      "taf_trigger": false,
      "metar": "METAR GMMN 241830Z 27015KT 240V310 2000 RA BKN009 BKN015 12/10 Q1008 NOSIG",
      "taf": "TAF GMMN 241700Z 2418/2524 30008KT 9999 BKN014"
    },
    {
      "icao": "GMMX",
      "alert": "OK",
      "vis_m": 1500,
      "fzfg": false,
      "metar_trigger": false,
      "taf_trigger": false,
      "metar": "SPECI GMMX 241840Z 26006KT 230V310 1500 RA SCT010 BKN020 12/12 Q1009 NOSIG",
      "taf": "TAF GMMX 241700Z 2418/2524 24008KT 6000 SCT016 BKN020"
    },
    {
      "icao": "HEGN",
      "alert": "OK",
      "vis_m": 9999,
      "fzfg": false,
      "metar_trigger": false,
      "taf_trigger": false,
      "metar": "METAR HEGN 241800Z 28006KT CAVOK 18/06 Q1017 NOSIG",
      "taf": "TAF HEGN 241700Z 2418/2524 31010KT CAVOK"
    },
    {
      "icao": "HEMA",
      "alert": "OK",
      "vis_m": 9999,
      "fzfg": false,
      "metar_trigger": false,
      "taf_trigger": false,
      "metar": "METAR HEMA 241800Z 30010KT CAVOK 19/13 Q1016 NOSIG",
      "taf": "TAF HEMA 241747Z 2418/2524 30013KT CAVOK"
    },
    {
      "icao": "HESH",
      "alert": "OK",
      "vis_m": 9999,
      "fzfg": false,
      "metar_trigger": false,
      "taf_trigger": false,
      "metar": "METAR HESH 241800Z 32005KT CAVOK 20/09 Q1017 NOSIG",
      "taf": "TAF HESH 241700Z 2418/2524 32010KT CAVOK"
    },
    {
      "icao": "HESX",
      "alert": "OK",
      "vis_m": 9999,
      "fzfg": false,
      "metar_trigger": false,
      "taf_trigger": false,
      "metar": "METAR HESX 241800Z 04007KT CAVOK 15/08 Q1018 NOSIG",
      "taf": "TAF HESX 241747Z 2418/2524 07009KT CAVOK"
    },
    {
      "icao": "LATI",
      "alert": "OK",
      "vis_m": 9999,
      "fzfg": false,
      "metar_trigger": false,
      "taf_trigger": false,
      "metar": "METAR LATI 241850Z VRB01KT CAVOK 08/05 Q1013 NOSIG",
      "taf": "TAF LATI 241700Z 2418/2518 VRB03KT CAVOK TX16/2512Z TN04/2505Z"
    },
    {
      "icao": "LBPD",
      "alert": "OK",
      "vis_m": 4100,
      "fzfg": false,
      "metar_trigger": false,
      "taf_trigger": false,
      "metar": "METAR LBPD 241830Z AUTO 00000KT 4100 -RA BR BKN012/// OVC018/// 06/06 Q1021 TEMPO 1500 RA BR",
      "taf": "TAF LBPD 241700Z 2418/2518 VRB03KT 3000 RA BR BKN005 OVC010"
    },
    {
      "icao": "LBSF",
      "alert": "OK",
      "vis_m": 9999,
      "fzfg": false,
      "metar_trigger": false,
      "taf_trigger": false,
      "metar": "METAR LBSF 241830Z AUTO 11005KT 9999 -SHRA OVC015/// 03/02 Q1019 NOSIG",
      "taf": "TAF LBSF 241700Z 2418/2518 11010KT 7000 RA BKN010 OVC020"
    },
    {
      "icao": "LBWN",
      "alert": "OK",
      "vis_m": 9999,
      "fzfg": false,
      "metar_trigger": false,
      "taf_trigger": false,
      "metar": "METAR LBWN 241830Z AUTO 08017KT 9999 -RA SCT012/// BKN030/// 09/09 Q1023 BECMG 06018G28KT",
      "taf": "TAF LBWN 241700Z 2418/2518 05014KT 9999 SCT025 OVC040"
    },
    {
      "icao": "LCLK",
      "alert": "OK",
      "vis_m": 8000,
      "fzfg": false,
      "metar_trigger": false,
      "taf_trigger": false,
      "metar": "METAR LCLK 241830Z 05008KT 8000 -SHRA SCT022 BKN060 17/15 Q1020 NOSIG",
      "taf": "TAF LCLK 241730Z 2418/2518 35008KT 9999 FEW025 SCT035"
    },
    {
      "icao": "LCPH",
      "alert": "OK",
      "vis_m": 9999,
      "fzfg": false,
      "metar_trigger": false,
      "taf_trigger": false,
      "metar": "METAR LCPH 241830Z 02005KT 010V080 9999 FEW030 14/12 Q1019 NOSIG",
      "taf": "TAF LCPH 241730Z 2418/2518 06007KT 9999 FEW025"
    },
    {
      "icao": "LEAL",
      "alert": "OK",
      "vis_m": 9999,
      "fzfg": false,
      "metar_trigger": false,
      "taf_trigger": false,
      "metar": "METAR LEAL 241830Z 00000KT 9999 SCT060 10/06 Q1007 NOSIG",
      "taf": "TAF LEAL 241700Z 2418/2518 32009KT 9999 FEW030 TX14/2512Z TN05/2506Z"
    },
    {
      "icao": "LEBB",
      "alert": "OK",
      "vis_m": 9000,
      "fzfg": false,
      "metar_trigger": false,
      "taf_trigger": false,
      "metar": "METAR LEBB 241830Z 34005KT 300V020 9000 -DZ SCT020 BKN027 OVC034 08/06 Q1014 TEMPO 3000 RA BR",
      "taf": "TAF LEBB 241700Z 2418/2518 VRB03KT 9999 BKN020 TX07/2514Z TN02/2507Z"
    },
    {
      "icao": "LEBL",
      "alert": "OK",
      "vis_m": 9999,
      "fzfg": false,
      "metar_trigger": false,
      "taf_trigger": false,
      "metar": "METAR LEBL 241830Z 32011KT CAVOK 09/05 Q1006 NOSIG",
      "taf": "TAF LEBL 241700Z 2418/2518 34008KT 9999 BKN025 TX13/2513Z TN09/2506Z"
    },
    {
      "icao": "LECH",
      "alert": "OK",
      "vis_m": 9000,
      "fzfg": false,
      "metar_trigger": false,
      "taf_trigger": false,
      "metar": "METAR LECH 241830Z AUTO 17004KT 9000 NSC 08/04 Q1007",
      "taf": ""
    },
    {
      "icao": "LEMD",
      "alert": "OK",
      "vis_m": 9999,
      "fzfg": false,
      "metar_trigger": false,
      "taf_trigger": false,
      "metar": "METAR LEMD 241830Z VRB02KT 9999 SCT045 07/03 Q1007 NOSIG",
      "taf": "TAF LEMD 241700Z 2418/2524 VRB03KT CAVOK TX06/2514Z TNM00/2506Z"
    },
    {
      "icao": "LEMG",
      "alert": "OK",
      "vis_m": 9999,
      "fzfg": false,
      "metar_trigger": false,
      "taf_trigger": false,
      "metar": "METAR LEMG 241830Z VRB02KT 9999 -SHRA VCTS FEW016 SCT025 FEW028CB 11/10 Q1007 NOSIG",
      "taf": "TAF LEMG 241700Z 2418/2518 29008KT 9999 FEW030 TX14/2514Z TN07/2506Z"
    },
    {
      "icao": "LEVC",
      "alert": "OK",
      "vis_m": 9999,
      "fzfg": false,
      "metar_trigger": false,
      "taf_trigger": false,
      "metar": "METAR LEVC 241830Z 18005KT CAVOK 10/05 Q1006 NOSIG",
      "taf": "TAF LEVC 241700Z 2418/2518 27007KT 9999 FEW020 TX12/2512Z TN04/2506Z"
    },
    {
      "icao": "LEXJ",
      "alert": "OK",
      "vis_m": 9999,
      "fzfg": false,
      "metar_trigger": false,
      "taf_trigger": false,
      "metar": "METAR LEXJ 241830Z 02010KT 350V060 9999 SCT025 OVC036 09/05 Q1015",
      "taf": "TAF LEXJ 241400Z 2415/2515 03009KT 9999 SCT015 BKN025 TX08/2515Z TN04/2507Z"
    },
    {
      "icao": "LEZG",
      "alert": "OK",
      "vis_m": 9999,
      "fzfg": false,
      "metar_trigger": false,
      "taf_trigger": false,
      "metar": "METAR LEZG 241830Z 29016KT 260V320 9999 FEW030 08/04 Q1007 NOSIG",
      "taf": "TAF LEZG 241700Z 2418/2518 29020KT 9999 FEW080 TX06/2514Z TN03/2506Z"
    },
    {
      "icao": "LEZL",
      "alert": "OK",
      "vis_m": 9999,
      "fzfg": false,
      "metar_trigger": false,
      "taf_trigger": false,
      "metar": "METAR LEZL 241830Z VRB01KT CAVOK 12/09 Q1007 NOSIG",
      "taf": "TAF LEZL 241400Z 2415/2515 VRB03KT 9999 FEW040 TX14/2415Z TN06/2507Z"
    },
    {
      "icao": "LFBD",
      "alert": "OK",
      "vis_m": 9999,
      "fzfg": false,
      "metar_trigger": false,
      "taf_trigger": false,
      "metar": "METAR LFBD 241830Z AUTO 03014KT 9999 OVC039 06/M00 Q1014 TEMPO 02015G25KT",
      "taf": "TAF LFBD 241700Z 2418/2524 02010KT 9999 BKN035 TX05/2418Z TNM02/2508Z"
    },
    {
      "icao": "LFLL",
      "alert": "OK",
      "vis_m": 9999,
      "fzfg": false,
      "metar_trigger": false,
      "taf_trigger": false,
      "metar": "METAR LFLL 241830Z AUTO 36013KT 9999 FEW020 OVC045 02/M01 Q1010",
      "taf": ""
    },
    {
      "icao": "LFLS",
      "alert": "OK",
      "vis_m": 9999,
      "fzfg": false,
      "metar_trigger": false,
      "taf_trigger": false,
      "metar": "METAR LFLS 241830Z AUTO 36011KT 9999 BKN023 BKN032 OVC040 02/M01 Q1009",
      "taf": ""
    },
    {
      "icao": "LFMN",
      "alert": "OK",
      "vis_m": 9999,
      "fzfg": false,
      "metar_trigger": false,
      "taf_trigger": false,
      "metar": "METAR LFMN 241830Z 07013KT 9999 BKN060 BKN093 14/06 Q1005 NOSIG",
      "taf": "TAF LFMN 241400Z 2415/2521 09025KT 9999 SCT040 BKN080"
    },
    {
      "icao": "LFOB",
      "alert": "OK",
      "vis_m": 9999,
      "fzfg": false,
      "metar_trigger": false,
      "taf_trigger": false,
      "metar": "METAR LFOB 241830Z AUTO 04018KT 9999 BKN026 00/M03 Q1025 BECMG 03015G25KT",
      "taf": ""
    },
    {
      "icao": "LFPO",
      "alert": "OK",
      "vis_m": 9999,
      "fzfg": false,
      "metar_trigger": false,
      "taf_trigger": false,
      "metar": "METAR LFPO 241830Z 04017KT 9999 SCT024 BKN053 01/M04 Q1022 NOSIG",
      "taf": "TAF LFPO 241700Z 2418/2524 04015KT 9999 BKN030"
    },
    {
      "icao": "LFSB",
      "alert": "OK",
      "vis_m": 9999,
      "fzfg": false,
      "metar_trigger": false,
      "taf_trigger": false,
      "metar": "METAR LFSB 241830Z AUTO 02010KT 9999 BKN030 OVC036 01/M02 Q1015 NOSIG",
      "taf": ""
    },
    {
      "icao": "LGAV",
      "alert": "OK",
      "vis_m": 9999,
      "fzfg": false,
      "metar_trigger": false,
      "taf_trigger": false,
      "metar": "METAR LGAV 241820Z VRB01KT 9999 -RA SCT018 BKN025 12/09 Q1017 NOSIG",
      "taf": "TAF LGAV 241700Z 2418/2518 18010KT 9999 FEW015 BKN025 BKN070"
    },
    {
      "icao": "LGTS",
      "alert": "OK",
      "vis_m": 7000,
      "fzfg": false,
      "metar_trigger": false,
      "taf_trigger": false,
      "metar": "METAR LGTS 241820Z 19002KT 7000 SCT006 BKN020 11/11 Q1016 NOSIG",
      "taf": "TAF LGTS 241700Z 2418/2518 VRB05KT 8000 FEW012 BKN025"
    },
    {
      "icao": "LHBP",
      "alert": "OK",
      "vis_m": 9999,
      "fzfg": false,
      "metar_trigger": false,
      "taf_trigger": false,
      "metar": "METAR LHBP 241830Z 05007KT 360V080 9999 OVC044 04/M03 Q1024 NOSIG",
      "taf": "TAF LHBP 241715Z 2418/2518 06009KT 9999 SCT040 BKN070"
    },
    {
      "icao": "LHDC",
      "alert": "OK",
      "vis_m": 9999,
      "fzfg": false,
      "metar_trigger": false,
      "taf_trigger": false,
      "metar": "METAR LHDC 241815Z AUTO 04014KT CAVOK 04/M02 Q1024",
      "taf": "TAF LHDC 241115Z 2412/2421 04018G28KT CAVOK"
    },
    {
      "icao": "LIBD",
      "alert": "OK",
      "vis_m": 9999,
      "fzfg": false,
      "metar_trigger": false,
      "taf_trigger": false,
      "metar": "METAR LIBD 241820Z 15004KT CAVOK 09/06 Q1011",
      "taf": "TAF LIBD 241700Z 2418/2518 VRB05KT CAVOK"
    },
    {
      "icao": "LIBG",
      "alert": "OK",
      "vis_m": 9999,
      "fzfg": false,
      "metar_trigger": false,
      "taf_trigger": false,
      "metar": "METAR LIBG 241750Z 10005KT 9999 FEW030 11/10 Q1011",
      "taf": "TAF LIBG 241700Z 2418/2503 VRB05KT 9999 FEW030"
    },
    {
      "icao": "LIBP",
      "alert": "OK",
      "vis_m": 9999,
      "fzfg": false,
      "metar_trigger": false,
      "taf_trigger": false,
      "metar": "METAR LIBP 241820Z AUTO 14009KT 110V170 9999 OVC110/// 11/04 Q1009",
      "taf": "TAF LIBP 241700Z 2418/2518 15010KT 9999 BKN060"
    },
    {
      "icao": "LIBR",
      "alert": "OK",
      "vis_m": 9999,
      "fzfg": false,
      "metar_trigger": false,
      "taf_trigger": false,
      "metar": "METAR LIBR 241820Z 18005KT CAVOK 11/06 Q1012",
      "taf": "TAF LIBR 241700Z 2418/2518 16008KT 9999 FEW040"
    },
    {
      "icao": "LICA",
      "alert": "OK",
      "vis_m": 9999,
      "fzfg": false,
      "metar_trigger": false,
      "taf_trigger": false,
      "metar": "METAR LICA 241820Z AUTO 08008KT 9999 FEW190/// 07/05 Q1011",
      "taf": "TAF LICA 241700Z 2418/2518 07005KT CAVOK"
    },
    {
      "icao": "LICC",
      "alert": "OK",
      "vis_m": 9999,
      "fzfg": false,
      "metar_trigger": false,
      "taf_trigger": false,
      "metar": "METAR LICC 241820Z 24004KT CAVOK 10/08 Q1011",
      "taf": "TAF LICC 241700Z 2418/2518 25010KT 9999 SCT030"
    },
    {
      "icao": "LICJ",
      "alert": "OK",
      "vis_m": 9999,
      "fzfg": false,
      "metar_trigger": false,
      "taf_trigger": false,
      "metar": "METAR LICJ 241820Z 18014KT 9999 FEW040 14/05 Q1008",
      "taf": "TAF LICJ 241700Z 2418/2518 21018KT 9999 SCT040"
    },
    {
      "icao": "LIMC",
      "alert": "OK",
      "vis_m": 5000,
      "fzfg": false,
      "metar_trigger": false,
      "taf_trigger": false,
      "metar": "METAR LIMC 241820Z VRB02KT 5000 RA BKN010 06/05 Q1013 NOSIG",
      "taf": "TAF LIMC 241700Z 2418/2524 VRB05KT 4000 RA BKN010"
    },
    {
      "icao": "LIME",
      "alert": "OK",
      "vis_m": 5000,
      "fzfg": false,
      "metar_trigger": false,
      "taf_trigger": false,
      "metar": "METAR LIME 241820Z 28006KT 5000 -RA BR SCT005 BKN015 06/06 Q1012 NOSIG",
      "taf": "TAF LIME 241700Z 2418/2518 VRB05KT 6000 RA SCT010 BKN030"
    },
    {
      "icao": "LIMF",
      "alert": "OK",
      "vis_m": 6000,
      "fzfg": false,
      "metar_trigger": false,
      "taf_trigger": false,
      "metar": "METAR LIMF 241820Z 03005KT 6000 RA BKN008 OVC020 05/03 Q1013",
      "taf": "TAF LIMF 241700Z 2418/2518 35007KT 4000 RA BKN010"
    },
    {
      "icao": "LIMJ",
      "alert": "OK",
      "vis_m": 9999,
      "fzfg": false,
      "metar_trigger": false,
      "taf_trigger": false,
      "metar": "METAR LIMJ 241820Z 03013KT 350V050 9999 BKN060 11/01 Q1007",
      "taf": "TAF LIMJ 241700Z 2418/2518 02014KT 9999 BKN070"
    },
    {
      "icao": "LIPE",
      "alert": "OK",
      "vis_m": 5000,
      "fzfg": false,
      "metar_trigger": false,
      "taf_trigger": false,
      "metar": "METAR LIPE 241820Z 04009KT 360V060 5000 RA BR BKN009 BKN020 06/05 Q1011",
      "taf": "TAF LIPE 241700Z 2418/2518 05012KT 8000 RA BKN020"
    },
    {
      "icao": "LIPH",
      "alert": "OK",
      "vis_m": 9999,
      "fzfg": false,
      "metar_trigger": false,
      "taf_trigger": false,
      "metar": "METAR LIPH 241820Z 05021G31KT 9999 -RA BKN025 05/04 Q1015",
      "taf": "TAF LIPH 241700Z 2418/2518 05014KT 9999 BKN030"
    },
    {
      "icao": "LIPQ",
      "alert": "OK",
      "vis_m": 9999,
      "fzfg": false,
      "metar_trigger": false,
      "taf_trigger": false,
      "metar": "METAR LIPQ 241820Z AUTO 09022G36KT 050V110 9999 OVC057/// 07/M01 Q1015",
      "taf": "TAF LIPQ 241700Z 2418/2518 06020G33KT 9999 BKN050"
    },
    {
      "icao": "LIPR",
      "alert": "OK",
      "vis_m": 1000,
      "fzfg": false,
      "metar_trigger": false,
      "taf_trigger": false,
      "metar": "METAR LIPR 241820Z VRB01KT 1000 0700SE R30/0700N BCFG FEW007 07/07 Q1008",
      "taf": "TAF LIPR 241700Z 2418/2518 VRB05KT 8000 BKN020"
    },
    {
      "icao": "LIPX",
      "alert": "OK",
      "vis_m": 9999,
      "fzfg": false,
      "metar_trigger": false,
      "taf_trigger": false,
      "metar": "METAR LIPX 241820Z 07016KT 9999 -RA FEW030 BKN050 07/03 Q1013",
      "taf": "TAF LIPX 241700Z 2418/2518 08014KT 6000 RA BKN040"
    },
    {
      "icao": "LIPY",
      "alert": "OK",
      "vis_m": 9999,
      "fzfg": false,
      "metar_trigger": false,
      "taf_trigger": false,
      "metar": "METAR LIPY 241820Z AUTO 12005KT 090V180 9999 NCD 12/07 Q1008",
      "taf": "TAF LIPY 241700Z 2418/2518 VRB05KT 9999 SCT050"
    },
    {
      "icao": "LIPZ",
      "alert": "OK",
      "vis_m": 9999,
      "fzfg": false,
      "metar_trigger": false,
      "taf_trigger": false,
      "metar": "METAR LIPZ 241820Z 05023KT 9999 -RA BKN040 05/03 Q1014 NOSIG",
      "taf": "TAF LIPZ 241700Z 2418/2524 07020KT 9999 BKN040"
    },
    {
      "icao": "LIRF",
      "alert": "OK",
      "vis_m": 9999,
      "fzfg": false,
      "metar_trigger": false,
      "taf_trigger": false,
      "metar": "METAR LIRF 241820Z 06009KT 9999 SCT040 09/08 Q1007 TEMPO RA",
      "taf": "TAF LIRF 241700Z 2418/2524 11015KT 7000 RA SCT010 BKN030"
    },
    {
      "icao": "LIRN",
      "alert": "OK",
      "vis_m": 8000,
      "fzfg": false,
      "metar_trigger": false,
      "taf_trigger": false,
      "metar": "METAR LIRN 241820Z 04005KT 8000 -RA BKN040 09/08 Q1010 NOSIG",
      "taf": "TAF LIRN 241700Z 2418/2518 21010KT 4000 RA SCT020 BKN040"
    },
    {
      "icao": "LIRP",
      "alert": "OK",
      "vis_m": 9999,
      "fzfg": false,
      "metar_trigger": false,
      "taf_trigger": false,
      "metar": "METAR LIRP 241815Z 08009KT 9999 SCT040 11/04 Q1005 NOSIG",
      "taf": "TAF LIRP 241700Z 2418/2518 07012KT 9999 SCT030 SCT070"
    },
    {
      "icao": "LIRZ",
      "alert": "OK",
      "vis_m": 9999,
      "fzfg": false,
      "metar_trigger": false,
      "taf_trigger": false,
      "metar": "METAR LIRZ 241820Z AUTO 27003KT 210V290 9999 FEW034/// BKN050/// 09/07 Q1008",
      "taf": "TAF LIRZ 241700Z 2418/2518 VRB06KT 9999 BKN050"
    },
    {
      "icao": "LJLJ",
      "alert": "OK",
      "vis_m": 9999,
      "fzfg": false,
      "metar_trigger": false,
      "taf_trigger": false,
      "metar": "METAR LJLJ 241830Z 27003KT 220V300 9999 FEW004 OVC055 01/00 Q1021 NOSIG",
      "taf": "TAF LJLJ 241700Z 2418/2518 VRB02KT 9999 FEW004 OVC040"
    },
    {
      "icao": "LKMT",
      "alert": "OK",
      "vis_m": 9999,
      "fzfg": false,
      "metar_trigger": false,
      "taf_trigger": false,
      "metar": "METAR LKMT 241830Z 04017KT 9999 OVC014 M03/M05 Q1030 NOSIG",
      "taf": "TAF LKMT 241700Z 2418/2518 04018KT 9999 BKN020"
    },
    {
      "icao": "LKPR",
      "alert": "OK",
      "vis_m": 9999,
      "fzfg": false,
      "metar_trigger": false,
      "taf_trigger": false,
      "metar": "METAR LKPR 241830Z 05010KT 9999 FEW040 M05/M07 Q1029 NOSIG",
      "taf": "TAF LKPR 241700Z 2418/2524 06013KT CAVOK"
    },
    {
      "icao": "LLBG",
      "alert": "OK",
      "vis_m": 9999,
      "fzfg": false,
      "metar_trigger": false,
      "taf_trigger": false,
      "metar": "METAR LLBG 241850Z 03004KT 9999 FEW050 17/10 Q1019 NOSIG",
      "taf": "TAF LLBG 241703Z 2418/2518 VRB04KT CAVOK"
    },
    {
      "icao": "LMML",
      "alert": "OK",
      "vis_m": 9999,
      "fzfg": false,
      "metar_trigger": false,
      "taf_trigger": false,
      "metar": "METAR LMML 241845Z 20011KT 170V230 9999 FEW038 14/08 Q1012 NOSIG",
      "taf": "TAF LMML 241700Z 2418/2518 24012KT 9999 FEW030"
    },
    {
      "icao": "LOWW",
      "alert": "OK",
      "vis_m": 9999,
      "fzfg": false,
      "metar_trigger": false,
      "taf_trigger": false,
      "metar": "METAR LOWW 241820Z 02007KT 9999 OVC040 00/M03 Q1026 NOSIG",
      "taf": "TAF LOWW 241715Z 2418/2524 01008KT 9999 FEW030 BKN040 TXM00/2418Z TNM03/2524Z"
    },
    {
      "icao": "LPFR",
      "alert": "OK",
      "vis_m": 9999,
      "fzfg": false,
      "metar_trigger": false,
      "taf_trigger": false,
      "metar": "METAR LPFR 241830Z 02011KT 9999 FEW048 11/07 Q1007",
      "taf": "TAF LPFR 241700Z 2418/2518 26007KT 9999 FEW018"
    },
    {
      "icao": "LPMA",
      "alert": "OK",
      "vis_m": 9999,
      "fzfg": false,
      "metar_trigger": false,
      "taf_trigger": false,
      "metar": "METAR LPMA 241830Z VRB05KT 9999 SCT015 16/10 Q1014",
      "taf": "TAF LPMA 241700Z 2418/2518 36012KT 9999 SCT015"
    },
    {
      "icao": "LPPR",
      "alert": "OK",
      "vis_m": 9999,
      "fzfg": false,
      "metar_trigger": false,
      "taf_trigger": false,
      "metar": "METAR LPPR 241830Z 02002KT 9999 FEW035 10/08 Q1010",
      "taf": "TAF LPPR 241700Z 2418/2518 34005KT 9999 FEW030"
    },
    {
      "icao": "LPPS",
      "alert": "OK",
      "vis_m": 9999,
      "fzfg": false,
      "metar_trigger": false,
      "taf_trigger": false,
      "metar": "METAR LPPS 241830Z 35015KT 9999 SCT015 SCT030 16/10 Q1013",
      "taf": "TAF LPPS 241700Z 2418/2524 34015KT 9999 SCT015"
    },
    {
      "icao": "LPPT",
      "alert": "OK",
      "vis_m": 9999,
      "fzfg": false,
      "metar_trigger": false,
      "taf_trigger": false,
      "metar": "METAR LPPT 241830Z 34006KT 9999 FEW015 10/06 Q1009",
      "taf": "TAF LPPT 241700Z 2418/2524 03007KT 9999 FEW018"
    },
    {
      "icao": "LQBK",
      "alert": "OK",
      "vis_m": 9999,
      "fzfg": false,
      "metar_trigger": false,
      "taf_trigger": false,
      "metar": "METAR LQBK 241830Z 33004KT 9999 DZ OVC007 03/03 Q1020 NOSIG",
      "taf": "TAF LQBK 241700Z 2418/2518 03006KT 4000 -RA BR BKN010 OVC025 TX03/2418Z TN01/2506Z"
    },
    {
      "icao": "LQSA",
      "alert": "OK",
      "vis_m": 5000,
      "fzfg": false,
      "metar_trigger": false,
      "taf_trigger": false,
      "metar": "METAR LQSA 241830Z 29004KT 5000 BR BKN007 BKN015 04/04 Q1016 NOSIG",
      "taf": "TAF LQSA 241700Z 2418/2518 29005KT 6000 BKN008 TX04/2513Z TN01/2505Z"
    },
    {
      "icao": "LQTZ",
      "alert": "OK",
      "vis_m": 4000,
      "fzfg": false,
      "metar_trigger": false,
      "taf_trigger": false,
      "metar": "METAR LQTZ 241830Z 00000KT 4000 BR BKN004 OVC008 04/04 Q1018",
      "taf": "TAF LQTZ 241700Z 2418/2518 04005KT 6000 BKN007 OVC015 TX04/2418Z TN00/2518Z"
    },
    {
      "icao": "LRBC",
      "alert": "OK",
      "vis_m": 3500,
      "fzfg": false,
      "metar_trigger": false,
      "taf_trigger": false,
      "metar": "METAR LRBC 241830Z 04004KT 3500 -SN BR BKN004 BKN015 OVC025 M00/M00 Q1033",
      "taf": "TAF LRBC 241700Z 2418/2503 34006KT 5000 -SN BKN010 OVC020"
    },
    {
      "icao": "LRBS",
      "alert": "OK",
      "vis_m": 4000,
      "fzfg": false,
      "metar_trigger": false,
      "taf_trigger": false,
      "metar": "METAR LRBS 241830Z 05018G31KT 4000 -RASN BR OVC006 01/00 Q1027 BECMG 3000 SN",
      "taf": "TAF LRBS 241700Z 2418/2518 05020G30KT 3000 -SN OVC005"
    },
    {
      "icao": "LRBV",
      "alert": "OK",
      "vis_m": 9999,
      "fzfg": false,
      "metar_trigger": false,
      "taf_trigger": false,
      "metar": "METAR LRBV 241830Z 06018KT 9999 FEW039 OVC074 M00/M04 Q1025",
      "taf": "TAF LRBV 241700Z 2418/2503 06020KT 7000 -SN BKN020"
    },
    {
      "icao": "LRCL",
      "alert": "OK",
      "vis_m": 9999,
      "fzfg": false,
      "metar_trigger": false,
      "taf_trigger": false,
      "metar": "METAR LRCL 241830Z 07003KT 020V100 9999 OVC039 02/M00 Q1026",
      "taf": "TAF LRCL 241700Z 2418/2503 08008KT 9999 OVC020"
    },
    {
      "icao": "LRCV",
      "alert": "OK",
      "vis_m": 5000,
      "fzfg": false,
      "metar_trigger": false,
      "taf_trigger": false,
      "metar": "METAR LRCV 241830Z 07020KT 5000 -RASN BR FEW006 BKN008 OVC011 01/01 Q1024 RERASN",
      "taf": "TAF LRCV 241700Z 2418/2503 07023KT 5000 RASN OVC008"
    },
    {
      "icao": "LRIA",
      "alert": "OK",
      "vis_m": 9999,
      "fzfg": false,
      "metar_trigger": false,
      "taf_trigger": false,
      "metar": "METAR LRIA 241830Z 06007KT CAVOK M02/M04 Q1034",
      "taf": "TAF LRIA 241700Z 2418/2503 06009KT 9999 BKN025"
    },
    {
      "icao": "LROP",
      "alert": "OK",
      "vis_m": 7000,
      "fzfg": false,
      "metar_trigger": false,
      "taf_trigger": false,
      "metar": "METAR LROP 241830Z 06023KT 7000 -SNRA OVC007 01/01 Q1027 BECMG 3000 SN",
      "taf": "TAF LROP 241700Z 2418/2518 06023KT 3000 -RASN OVC005"
    },
    {
      "icao": "LRSB",
      "alert": "OK",
      "vis_m": 9999,
      "fzfg": false,
      "metar_trigger": false,
      "taf_trigger": false,
      "metar": "METAR LRSB 241830Z 10013KT 9999 SCT020 BKN068 02/M01 Q1023",
      "taf": "TAF LRSB 241700Z 2418/2518 10010KT 9999 SCT010 OVC040"
    },
    {
      "icao": "LRSM",
      "alert": "OK",
      "vis_m": 9999,
      "fzfg": false,
      "metar_trigger": false,
      "taf_trigger": false,
      "metar": "METAR LRSM 241830Z AUTO 06009KT 9999 BKN090/// 04/M02 Q1025",
      "taf": "TAF LRSM 241400Z 2415/2424 06005KT 9999 BKN045"
    },
    {
      "icao": "LRSV",
      "alert": "OK",
      "vis_m": 8000,
      "fzfg": false,
      "metar_trigger": false,
      "taf_trigger": false,
      "metar": "METAR LRSV 241830Z 08010KT 8000 -SN BKN004 BKN020 M03/M03 Q1032",
      "taf": "TAF LRSV 241700Z 2418/2503 08009KT 5000 -SN BR BKN005 OVC010"
    },
    {
      "icao": "LRTM",
      "alert": "OK",
      "vis_m": 9999,
      "fzfg": false,
      "metar_trigger": false,
      "taf_trigger": false,
      "metar": "METAR LRTM 241830Z AUTO 08008KT 9999 OVC047/// 03/M01 Q1025",
      "taf": "TAF LRTM 241400Z 2415/2424 08006KT 7000 SCT010 OVC030"
    },
    {
      "icao": "LRTR",
      "alert": "OK",
      "vis_m": 9999,
      "fzfg": false,
      "metar_trigger": false,
      "taf_trigger": false,
      "metar": "METAR LRTR 241830Z 09006KT 9999 -RA SCT041 04/04 Q1021",
      "taf": "TAF LRTR 241700Z 2418/2518 07010KT 5000 -RA BR SCT020 OVC045"
    },
    {
      "icao": "LTAC",
      "alert": "OK",
      "vis_m": 4000,
      "fzfg": false,
      "metar_trigger": false,
      "taf_trigger": false,
      "metar": "METAR LTAC 241820Z 03005KT 4000 BR NSC 02/01 Q1022 BECMG 6000 RMK RWY21C 04004KT RWY03L 04005KT RWY21R 05004KT RWY03R VRB01KT RWY21L 01006KT",
      "taf": "TAF LTAC 241640Z 2418/2518 VRB02KT 6000 NSC"
    },
    {
      "icao": "LTFM",
      "alert": "OK",
      "vis_m": 9999,
      "fzfg": false,
      "metar_trigger": false,
      "taf_trigger": false,
      "metar": "METAR LTFM 241820Z 09009KT 9999 SCT015 SCT042 BKN120 12/09 Q1021 NOSIG RMK RWY17L 09013KT RWY34L 07009KT RWY16R 08012KT RWY36 09009KT 040V100 RWY18 09012KT",
      "taf": "TAF LTFM 241640Z 2418/2524 08012KT 9999 FEW013 SCT035 BKN120"
    },
    {
      "icao": "LUKK",
      "alert": "OK",
      "vis_m": 9999,
      "fzfg": false,
      "metar_trigger": false,
      "taf_trigger": false,
      "metar": "METAR LUKK 241830Z 06008KT 9999 BKN028 M03/M08 Q1034 NOSIG",
      "taf": "TAF LUKK 241705Z 2418/2518 04009KT CAVOK"
    },
    {
      "icao": "LWOH",
      "alert": "OK",
      "vis_m": 9999,
      "fzfg": false,
      "metar_trigger": false,
      "taf_trigger": false,
      "metar": "METAR LWOH 241850Z 31005KT 280V350 9999 SCT040 06/04 Q1015",
      "taf": "TAF LWOH 241740Z 2418/2518 33006KT 9999 FEW020 BKN040"
    },
    {
      "icao": "LWSK",
      "alert": "OK",
      "vis_m": 6000,
      "fzfg": false,
      "metar_trigger": false,
      "taf_trigger": false,
      "metar": "METAR LWSK 241850Z 03003KT 6000 BKN020 OVC040 08/07 Q1017 NOSIG",
      "taf": "TAF LWSK 241740Z 2418/2518 VRB02KT 9999 BKN020 OVC040"
    },
    {
      "icao": "LYBE",
      "alert": "OK",
      "vis_m": 9999,
      "fzfg": false,
      "metar_trigger": false,
      "taf_trigger": false,
      "metar": "METAR LYBE 241830Z 10015KT 9999 BKN033 05/01 Q1020 NOSIG",
      "taf": "TAF LYBE 241700Z 2418/2518 10016KT 9999 BKN030 TX04/2418Z TN00/2518Z"
    },
    {
      "icao": "LYNI",
      "alert": "OK",
      "vis_m": 9999,
      "fzfg": false,
      "metar_trigger": false,
      "taf_trigger": false,
      "metar": "METAR LYNI 241830Z 03011KT 360V060 9999 FEW015 BKN043 05/01 Q1019 NOSIG",
      "taf": "TAF LYNI 241700Z 2418/2518 05012KT 9999 BKN045 TX05/2418Z TN00/2518Z"
    },
    {
      "icao": "LYPG",
      "alert": "OK",
      "vis_m": 800,
      "fzfg": false,
      "metar_trigger": false,
      "taf_trigger": false,
      "metar": "METAR LYPG 241830Z 06003KT 0800 0300S R18/P2000N R36/1600U FG FEW040 06/06 Q1014 NOSIG",
      "taf": ""
    },
    {
      "icao": "LZIB",
      "alert": "OK",
      "vis_m": 9999,
      "fzfg": false,
      "metar_trigger": false,
      "taf_trigger": false,
      "metar": "METAR LZIB 241830Z 03011KT 9999 BKN045 02/M03 Q1026 NOSIG",
      "taf": "TAF LZIB 241715Z 2418/2518 03009KT 9999 FEW025 BKN040"
    },
    {
      "icao": "LZKZ",
      "alert": "OK",
      "vis_m": 9999,
      "fzfg": false,
      "metar_trigger": false,
      "taf_trigger": false,
      "metar": "METAR LZKZ 241830Z 36023KT CAVOK M01/M05 Q1027 NOSIG",
      "taf": "TAF LZKZ 241715Z 2418/2518 01018KT 9999 FEW035"
    },
    {
      "icao": "LZTT",
      "alert": "OK",
      "vis_m": 9999,
      "fzfg": false,
      "metar_trigger": false,
      "taf_trigger": false,
      "metar": "METAR LZTT 241830Z 05012KT 9999 OVC009 M05/M07 Q1027",
      "taf": "TAF LZTT 241715Z 2418/2518 06012KT 9999 BKN016"
    },
    {
      "icao": "OEJN",
      "alert": "OK",
      "vis_m": 9999,
      "fzfg": false,
      "metar_trigger": false,
      "taf_trigger": false,
      "metar": "METAR OEJN 241800Z 32005KT CAVOK 27/24 Q1013 NOSIG",
      "taf": "TAF OEJN 241700Z 2418/2524 35006KT 7000 FEW040"
    },
    {
      "icao": "OEMA",
      "alert": "OK",
      "vis_m": 9999,
      "fzfg": false,
      "metar_trigger": false,
      "taf_trigger": false,
      "metar": "METAR OEMA 241800Z VRB03KT 9999 FEW045 23/12 Q1019 NOSIG",
      "taf": "TAF OEMA 241700Z 2418/2524 34006KT CAVOK"
    },
    {
      "icao": "OJAI",
      "alert": "OK",
      "vis_m": 5000,
      "fzfg": false,
      "metar_trigger": false,
      "taf_trigger": false,
      "metar": "METAR OJAI 241800Z 07010KT 5000 HZ NSC 10/03 Q1022 NOSIG",
      "taf": "TAF OJAI 241700Z 2418/2524 12006KT 5000 HZ NSC"
    },
    {
      "icao": "OMAA",
      "alert": "OK",
      "vis_m": 9999,
      "fzfg": false,
      "metar_trigger": false,
      "taf_trigger": false,
      "metar": "METAR OMAA 241800Z 36003KT 320V060 CAVOK 21/14 Q1017 NOSIG",
      "taf": "TAF OMAA 241700Z 2418/2600 VRB02KT 8000 FEW035"
    },
    {
      "icao": "OMDB",
      "alert": "OK",
      "vis_m": 9999,
      "fzfg": false,
      "metar_trigger": false,
      "taf_trigger": false,
      "metar": "METAR OMDB 241830Z 07004KT CAVOK 22/14 Q1017 NOSIG",
      "taf": "TAF OMDB 241700Z 2418/2600 16005KT 8000 NSC"
    },
    {
      "icao": "UAAA",
      "alert": "OK",
      "vis_m": 900,
      "fzfg": true,
      "metar_trigger": false,
      "taf_trigger": false,
      "metar": "METAR UAAA 241830Z 35002MPS 310V030 0900 R05R/P2000 FZFG BKN100 M06/M07 Q1024 NOSIG",
      "taf": "TAF UAAA 241702Z 2418/2518 17003MPS 1500 BR FU SCT050 BKN100 TX01/2509Z TNM08/2501Z"
    },
    {
      "icao": "UBBB",
      "alert": "OK",
      "vis_m": 9999,
      "fzfg": false,
      "metar_trigger": false,
      "taf_trigger": false,
      "metar": "METAR UBBB 241830Z 31010KT 9999 FEW016 BKN037 09/07 Q1020 NOSIG",
      "taf": "TAF UBBB 241711Z 2418/2518 30014KT 9999 SCT012 BKN030 TX08/2510Z TN04/2501Z"
    },
    {
      "icao": "UDSG",
      "alert": "OK",
      "vis_m": 6000,
      "fzfg": false,
      "metar_trigger": false,
      "taf_trigger": false,
      "metar": "METAR UDSG 241830Z 06001KT 6000 FEW049 M04/M07 Q1021 NOSIG",
      "taf": "TAF UDSG 241700Z 2418/2518 VRB06KT 9999 SCT050"
    },
    {
      "icao": "UDYZ",
      "alert": "OK",
      "vis_m": 1800,
      "fzfg": false,
      "metar_trigger": false,
      "taf_trigger": false,
      "metar": "METAR UDYZ 241830Z 09001KT 1800 BR NSC M02/M05 Q1022 NOSIG",
      "taf": "TAF UDYZ 241700Z 2418/2518 04006KT 3500 BR NSC"
    },
    {
      "icao": "UGKO",
      "alert": "OK",
      "vis_m": 2100,
      "fzfg": false,
      "metar_trigger": false,
      "taf_trigger": false,
      "metar": "METAR UGKO 241830Z 14003KT 2100 -RA BR SCT011 BKN014 07/06 Q1023 NOSIG",
      "taf": "TAF UGKO 241700Z 2418/2518 26007KT 9999 SCT023 BKN050 TX08/2511Z TN04/2503Z"
    }
  ]
}