{
  "ts_utc": "2026-01-18T12:39:14Z",
  "threshold_m": 150,
  "source": "stations_override.txt (ICAO list) + aviationweather.gov (METAR/TAF raw)",
  "station_count": 159,
  "stations": [
    {
      "icao": "BIKF",
      "alert": "OK",
      "vis_m": 9000,
      "fzfg": false,
      "metar_trigger": false,
      "taf_trigger": false,
      "metar": "METAR BIKF 181230Z 13033G44KT 9000 -RA BKN013 OVC024 06/05 Q0993",
      "taf": "TAF BIKF 181049Z 1812/1912 13030G50KT 5000 RADZ BKN012 OVC020 TX07/1815Z TN01/1906Z"
    },
    {
      "icao": "BKPR",
      "alert": "OK",
      "vis_m": 9999,
      "fzfg": false,
      "metar_trigger": false,
      "taf_trigger": false,
      "metar": "METAR BKPR 181230Z 36014KT 9999 FEW050 01/M04 Q1028 NOSIG",
      "taf": "TAF BKPR 181130Z 1812/1912 02012KT 9999 FEW040"
    },
    {
      "icao": "EBCI",
      "alert": "OK",
      "vis_m": 9999,
      "fzfg": false,
      "metar_trigger": false,
      "taf_trigger": false,
      "metar": "METAR EBCI 181220Z 07006KT CAVOK 11/04 Q1018 NOSIG",
      "taf": "TAF EBCI 181104Z 1812/1918 17004KT CAVOK"
    },
    {
      "icao": "EDDB",
      "alert": "OK",
      "vis_m": 9999,
      "fzfg": false,
      "metar_trigger": false,
      "taf_trigger": false,
      "metar": "METAR EDDB 181220Z AUTO 11009KT CAVOK 04/M00 Q1027 NOSIG",
      "taf": "TAF EDDB 181100Z 1812/1912 11010KT CAVOK"
    },
    {
      "icao": "EDDH",
      "alert": "OK",
      "vis_m": 9999,
      "fzfg": false,
      "metar_trigger": false,
      "taf_trigger": false,
      "metar": "METAR EDDH 181220Z AUTO 12009KT 080V140 9999 FEW017 04/01 Q1024 NOSIG",
      "taf": "TAF EDDH 181100Z 1812/1918 12010KT 9999 BKN013"
    },
    {
      "icao": "EDDK",
      "alert": "OK",
      "vis_m": 9999,
      "fzfg": false,
      "metar_trigger": false,
      "taf_trigger": false,
      "metar": "METAR EDDK 181220Z AUTO 12009KT 080V150 9999 OVC009 02/M00 Q1021 BECMG BKN010",
      "taf": "TAF EDDK 181100Z 1812/1918 12007KT 9999 BKN009"
    },
    {
      "icao": "EDDN",
      "alert": "OK",
      "vis_m": 9999,
      "fzfg": false,
      "metar_trigger": false,
      "taf_trigger": false,
      "metar": "METAR EDDN 181220Z AUTO 09008KT 050V120 CAVOK 05/M01 Q1021 NOSIG",
      "taf": "TAF EDDN 181100Z 1812/1912 10007KT CAVOK"
    },
    {
      "icao": "EDDS",
      "alert": "OK",
      "vis_m": 9999,
      "fzfg": false,
      "metar_trigger": false,
      "taf_trigger": false,
      "metar": "METAR EDDS 181220Z AUTO VRB01KT 9999 OVC009 02/M01 Q1019 BECMG OVC010",
      "taf": ""
    },
    {
      "icao": "EDFH",
      "alert": "OK",
      "vis_m": 300,
      "fzfg": true,
      "metar_trigger": false,
      "taf_trigger": false,
      "metar": "METAR EDFH 181220Z 12009KT 0300 R21/0700U FZFG VV/// M00/M01 Q1018",
      "taf": "TAF EDFH 181100Z 1812/1912 13011KT 0600 FZFG OVC002"
    },
    {
      "icao": "EDJA",
      "alert": "OK",
      "vis_m": 3600,
      "fzfg": false,
      "metar_trigger": false,
      "taf_trigger": false,
      "metar": "METAR EDJA 181220Z 04007KT 3600 BR OVC002 M02/M03 Q1018",
      "taf": "TAF EDJA 181100Z 1812/1821 06005KT 1500 BCFG OVC001"
    },
    {
      "icao": "EDLW",
      "alert": "OK",
      "vis_m": 9999,
      "fzfg": false,
      "metar_trigger": false,
      "taf_trigger": false,
      "metar": "METAR EDLW 181220Z 01004KT 350V060 CAVOK 04/02 Q1020",
      "taf": "TAF EDLW 181100Z 1812/1912 11004KT CAVOK"
    },
    {
      "icao": "EDNY",
      "alert": "OK",
      "vis_m": 9999,
      "fzfg": false,
      "metar_trigger": false,
      "taf_trigger": false,
      "metar": "METAR EDNY 181220Z 01003KT 9999 OVC009 00/M02 Q1019",
      "taf": "TAF EDNY 181100Z 1812/1821 03005KT 9999 OVC009"
    },
    {
      "icao": "EDSB",
      "alert": "OK",
      "vis_m": 9999,
      "fzfg": false,
      "metar_trigger": false,
      "taf_trigger": false,
      "metar": "METAR EDSB 181220Z 17003KT 140V210 9999 SCT008 OVC016 01/M01 Q1020",
      "taf": "TAF EDSB 181100Z 1812/1912 02003KT 8000 SCT007 BKN010"
    },
    {
      "icao": "EETN",
      "alert": "OK",
      "vis_m": 4500,
      "fzfg": false,
      "metar_trigger": false,
      "taf_trigger": false,
      "metar": "METAR EETN 181220Z 19006KT 4500 BR OVC003 M05/M05 Q1037 NOSIG",
      "taf": "TAF EETN 181130Z 1812/1912 19007KT 6000 BKN004 OVC010"
    },
    {
      "icao": "EFTU",
      "alert": "OK",
      "vis_m": 7000,
      "fzfg": false,
      "metar_trigger": false,
      "taf_trigger": false,
      "metar": "METAR EFTU 181220Z AUTO 20004KT 7000 OVC006 02/01 Q1035",
      "taf": "TAF EFTU 181132Z 1812/1912 20006KT 8000 SCT003 BKN010"
    },
    {
      "icao": "EGBB",
      "alert": "OK",
      "vis_m": 1500,
      "fzfg": false,
      "metar_trigger": false,
      "taf_trigger": false,
      "metar": "METAR EGBB 181220Z 13005KT 1500 BR OVC002 06/06 Q1016",
      "taf": "TAF EGBB 181100Z 1812/1912 13005KT 6000 BKN005"
    },
    {
      "icao": "EGGP",
      "alert": "OK",
      "vis_m": 2000,
      "fzfg": false,
      "metar_trigger": false,
      "taf_trigger": false,
      "metar": "METAR EGGP 181220Z 13002KT 2000 RA BR OVC004 05/04 Q1017",
      "taf": ""
    },
    {
      "icao": "EGGW",
      "alert": "OK",
      "vis_m": 4500,
      "fzfg": false,
      "metar_trigger": false,
      "taf_trigger": false,
      "metar": "METAR EGGW 181220Z AUTO 15008KT 4500 BR BKN004 07/07 Q1016",
      "taf": "TAF EGGW 181104Z 1812/1912 14007KT 3000 -RADZ BR BKN003"
    },
    {
      "icao": "EGKK",
      "alert": "OK",
      "vis_m": 9999,
      "fzfg": false,
      "metar_trigger": false,
      "taf_trigger": false,
      "metar": "METAR EGKK 181220Z 16005KT 120V200 9999 FEW018 12/09 Q1017",
      "taf": "TAF EGKK 181059Z 1812/1918 14006KT 5000 BR BKN008"
    },
    {
      "icao": "EGNM",
      "alert": "OK",
      "vis_m": 200,
      "fzfg": false,
      "metar_trigger": false,
      "taf_trigger": false,
      "metar": "METAR EGNM 181220Z 09007KT 0200 R32/0400N -RA FG VV/// 04/04 Q1017",
      "taf": "TAF EGNM 181100Z 1812/1912 06003KT 0300 FG VV///"
    },
    {
      "icao": "EGPD",
      "alert": "OK",
      "vis_m": 8000,
      "fzfg": false,
      "metar_trigger": false,
      "taf_trigger": false,
      "metar": "METAR EGPD 181220Z AUTO 17007KT 8000 BKN009 07/05 Q1018 TEMPO 4000 BR BKN004",
      "taf": "TAF EGPD 181055Z 1812/1912 16004KT 9999 SCT010 BKN015"
    },
    {
      "icao": "EGPF",
      "alert": "OK",
      "vis_m": 9999,
      "fzfg": false,
      "metar_trigger": false,
      "taf_trigger": false,
      "metar": "METAR EGPF 181220Z AUTO 07007KT 9999 NCD 06/04 Q1017",
      "taf": "TAF EGPF 181104Z 1812/1912 06003KT 9999 FEW020 SCT040"
    },
    {
      "icao": "EHBK",
      "alert": "OK",
      "vis_m": 9999,
      "fzfg": false,
      "metar_trigger": false,
      "taf_trigger": false,
      "metar": "METAR EHBK 181225Z AUTO 06009KT 020V080 9999 NCD 06/02 Q1019 NOSIG",
      "taf": "TAF EHBK 181104Z 1812/1918 08005KT CAVOK"
    },
    {
      "icao": "EHEH",
      "alert": "OK",
      "vis_m": 9999,
      "fzfg": false,
      "metar_trigger": false,
      "taf_trigger": false,
      "metar": "METAR EHEH 181225Z AUTO 09005KT 050V120 9999 NCD 08/02 Q1019 BLU NOSIG RMK TREND REMOTE BY EHWX",
      "taf": "TAF EHEH 181003Z 1812/1918 10005KT CAVOK"
    },
    {
      "icao": "EKBI",
      "alert": "OK",
      "vis_m": 8000,
      "fzfg": false,
      "metar_trigger": false,
      "taf_trigger": false,
      "metar": "METAR EKBI 181220Z AUTO 11010KT 090V150 8000 OVC006/// 02/02 Q1025",
      "taf": "TAF EKBI 181127Z 1812/1912 11010KT 3000 BR BKN004"
    },
    {
      "icao": "EKCH",
      "alert": "OK",
      "vis_m": 7000,
      "fzfg": false,
      "metar_trigger": false,
      "taf_trigger": false,
      "metar": "METAR EKCH 181220Z AUTO 11009KT 7000 SCT008/// 04/02 Q1029 NOSIG",
      "taf": "TAF EKCH 181127Z 1812/1912 12012KT 9999 FEW008"
    },
    {
      "icao": "ENAL",
      "alert": "OK",
      "vis_m": 9999,
      "fzfg": false,
      "metar_trigger": false,
      "taf_trigger": false,
      "metar": "METAR ENAL 181220Z 08003KT 9999 FEW055 04/M00 Q1026",
      "taf": "TAF ENAL 181100Z 1812/1821 15006KT 9999 FEW050"
    },
    {
      "icao": "ENBR",
      "alert": "OK",
      "vis_m": 1500,
      "fzfg": false,
      "metar_trigger": false,
      "taf_trigger": false,
      "metar": "METAR ENBR 181220Z 13001KT 1500 BR VV004 04/04 Q1025 TEMPO 0800 FG VV002 RMK WIND 1200FT 24005KT",
      "taf": ""
    },
    {
      "icao": "ENGM",
      "alert": "OK",
      "vis_m": 5000,
      "fzfg": false,
      "metar_trigger": false,
      "taf_trigger": false,
      "metar": "METAR ENGM 181220Z 06005KT 310V090 5000 BR BKN002 00/M00 Q1031 TEMPO 2000 BR",
      "taf": ""
    },
    {
      "icao": "ENHD",
      "alert": "OK",
      "vis_m": 9999,
      "fzfg": false,
      "metar_trigger": false,
      "taf_trigger": false,
      "metar": "METAR ENHD 181220Z 18005KT 160V220 9999 BKN008 05/04 Q1025",
      "taf": ""
    },
    {
      "icao": "ENTC",
      "alert": "OK",
      "vis_m": 9999,
      "fzfg": false,
      "metar_trigger": false,
      "taf_trigger": false,
      "metar": "METAR ENTC 181220Z 18009KT 9999 -RA FEW010 BKN013 OVC018 03/01 Q1028 TEMPO -SHRA BKN015 SCT020CB RMK WIND 2600FT 25017KT",
      "taf": "TAF ENTC 181100Z 1812/1912 21009KT 9999 -SHRA FEW010 BKN018"
    },
    {
      "icao": "ENTO",
      "alert": "OK",
      "vis_m": 700,
      "fzfg": false,
      "metar_trigger": false,
      "taf_trigger": false,
      "metar": "METAR ENTO 181220Z VRB02KT 0700 R18/1500U R36/P2000N -DZ FG VV002 01/01 Q1031 TEMPO 1200 BR BKN005",
      "taf": ""
    },
    {
      "icao": "ENVA",
      "alert": "OK",
      "vis_m": 9999,
      "fzfg": false,
      "metar_trigger": false,
      "taf_trigger": false,
      "metar": "METAR ENVA 181220Z 07003KT CAVOK M05/M05 Q1029 NOSIG RMK WIND 670FT 08005KT",
      "taf": "TAF ENVA 181100Z 1812/1912 10008KT CAVOK"
    },
    {
      "icao": "ENZV",
      "alert": "OK",
      "vis_m": 9999,
      "fzfg": false,
      "metar_trigger": false,
      "taf_trigger": false,
      "metar": "METAR ENZV 181220Z 06001KT 9999 VCFG BKN031 04/04 Q1026 NOSIG",
      "taf": "TAF ENZV 181100Z 1812/1912 16005KT 9999 FEW020 BKN040"
    },
    {
      "icao": "EPGD",
      "alert": "OK",
      "vis_m": 9000,
      "fzfg": false,
      "metar_trigger": false,
      "taf_trigger": false,
      "metar": "METAR EPGD 181230Z 16006KT 9000 NSC M08/M10 Q1033",
      "taf": "TAF EPGD 181130Z 1812/1912 16010KT CAVOK"
    },
    {
      "icao": "EPKK",
      "alert": "OK",
      "vis_m": 9999,
      "fzfg": false,
      "metar_trigger": false,
      "taf_trigger": false,
      "metar": "METAR EPKK 181230Z 07008KT CAVOK M07/M11 Q1033",
      "taf": "TAF EPKK 181130Z 1812/1912 07008KT CAVOK"
    },
    {
      "icao": "EPKT",
      "alert": "OK",
      "vis_m": 9999,
      "fzfg": false,
      "metar_trigger": false,
      "taf_trigger": false,
      "metar": "METAR EPKT 181230Z 14004KT CAVOK 00/M07 Q1031",
      "taf": "TAF EPKT 181130Z 1812/1912 15006KT CAVOK"
    },
    {
      "icao": "EPLB",
      "alert": "OK",
      "vis_m": 9999,
      "fzfg": false,
      "metar_trigger": false,
      "taf_trigger": false,
      "metar": "METAR EPLB 181230Z 10009KT CAVOK M08/M12 Q1037",
      "taf": "TAF EPLB 181130Z 1812/1912 11009KT CAVOK"
    },
    {
      "icao": "EPMO",
      "alert": "OK",
      "vis_m": 8000,
      "fzfg": false,
      "metar_trigger": false,
      "taf_trigger": false,
      "metar": "METAR EPMO 181230Z 06008KT 8000 NSC M08/M11 Q1036",
      "taf": "TAF EPMO 181130Z 1812/1912 09009KT 8000 NSC"
    },
    {
      "icao": "EPPO",
      "alert": "OK",
      "vis_m": 9999,
      "fzfg": false,
      "metar_trigger": false,
      "taf_trigger": false,
      "metar": "METAR EPPO 181230Z 10008KT CAVOK 02/M03 Q1031",
      "taf": "TAF EPPO 181130Z 1812/1912 11010KT CAVOK"
    },
    {
      "icao": "EPRA",
      "alert": "OK",
      "vis_m": 9999,
      "fzfg": false,
      "metar_trigger": false,
      "taf_trigger": false,
      "metar": "METAR EPRA 181230Z 11008KT CAVOK M07/M12 Q1036",
      "taf": "TAF EPRA 181130Z 1812/1821 12010KT CAVOK"
    },
    {
      "icao": "EPRZ",
      "alert": "OK",
      "vis_m": 9999,
      "fzfg": false,
      "metar_trigger": false,
      "taf_trigger": false,
      "metar": "METAR EPRZ 181230Z 09014KT CAVOK M07/M12 Q1035",
      "taf": "TAF EPRZ 181130Z 1812/1912 09014KT CAVOK"
    },
    {
      "icao": "EPSC",
      "alert": "OK",
      "vis_m": 9999,
      "fzfg": false,
      "metar_trigger": false,
      "taf_trigger": false,
      "metar": "METAR EPSC 181230Z 11013KT CAVOK 02/M02 Q1029",
      "taf": "TAF EPSC 181130Z 1812/1912 13012KT CAVOK"
    },
    {
      "icao": "EPSY",
      "alert": "OK",
      "vis_m": 9999,
      "fzfg": false,
      "metar_trigger": false,
      "taf_trigger": false,
      "metar": "METAR EPSY 181230Z 12005KT 090V180 CAVOK M08/M12 Q1037",
      "taf": "TAF EPSY 181130Z 1812/1821 13008KT CAVOK"
    },
    {
      "icao": "EPWA",
      "alert": "OK",
      "vis_m": 9999,
      "fzfg": false,
      "metar_trigger": false,
      "taf_trigger": false,
      "metar": "METAR EPWA 181230Z 11011KT CAVOK M07/M11 Q1036 NOSIG",
      "taf": "TAF EPWA 181130Z 1812/1912 11010KT CAVOK"
    },
    {
      "icao": "EPWR",
      "alert": "OK",
      "vis_m": 8000,
      "fzfg": false,
      "metar_trigger": false,
      "taf_trigger": false,
      "metar": "METAR EPWR 181230Z 13013KT 8000 NSC 02/M01 Q1030",
      "taf": "TAF EPWR 181130Z 1812/1912 12010KT 6000 NSC"
    },
    {
      "icao": "ESGG",
      "alert": "OK",
      "vis_m": 5000,
      "fzfg": false,
      "metar_trigger": false,
      "taf_trigger": false,
      "metar": "METAR ESGG 181220Z 11006KT 5000 BR OVC002 01/01 Q1029",
      "taf": "TAF ESGG 181130Z 1812/1912 13006KT 6000 OVC002"
    },
    {
      "icao": "ESKN",
      "alert": "OK",
      "vis_m": 300,
      "fzfg": false,
      "metar_trigger": false,
      "taf_trigger": false,
      "metar": "METAR ESKN 181220Z 15005KT 0300 R08/1100N R26/0700N FG VV002 01/01 Q1033",
      "taf": "TAF ESKN 181130Z 1812/1912 15008KT 0600 FG VV002"
    },
    {
      "icao": "ESMS",
      "alert": "OK",
      "vis_m": 3400,
      "fzfg": false,
      "metar_trigger": false,
      "taf_trigger": false,
      "metar": "METAR ESMS 181220Z 10011KT 3400 BR BKN005 02/02 Q1029",
      "taf": "TAF ESMS 181127Z 1812/1912 11010KT 3000 BR BKN004"
    },
    {
      "icao": "ESSA",
      "alert": "OK",
      "vis_m": 2800,
      "fzfg": false,
      "metar_trigger": false,
      "taf_trigger": false,
      "metar": "METAR ESSA 181220Z 16006KT 2800 -DZ OVC002 01/01 Q1033 TEMPO 3000 BR BKN005",
      "taf": "TAF ESSA 181130Z 1812/1912 16005KT 6000 BKN003"
    },
    {
      "icao": "EYKA",
      "alert": "OK",
      "vis_m": 9999,
      "fzfg": false,
      "metar_trigger": false,
      "taf_trigger": false,
      "metar": "METAR EYKA 181220Z 18005KT 130V240 CAVOK M10/M14 Q1041",
      "taf": ""
    },
    {
      "icao": "EYPA",
      "alert": "OK",
      "vis_m": 9999,
      "fzfg": false,
      "metar_trigger": false,
      "taf_trigger": false,
      "metar": "METAR EYPA 181220Z 15010KT CAVOK M06/M11 Q1037",
      "taf": "TAF EYPA 181100Z 1812/1912 15010KT 9000 NSC"
    },
    {
      "icao": "EYVI",
      "alert": "OK",
      "vis_m": 9999,
      "fzfg": false,
      "metar_trigger": false,
      "taf_trigger": false,
      "metar": "METAR EYVI 181220Z 17006KT CAVOK M11/M14 Q1040 NOSIG",
      "taf": ""
    },
    {
      "icao": "GCFV",
      "alert": "OK",
      "vis_m": 9999,
      "fzfg": false,
      "metar_trigger": false,
      "taf_trigger": false,
      "metar": "METAR GCFV 181230Z 34022KT 9999 FEW025 SCT035 20/13 Q1015",
      "taf": "TAF GCFV 180800Z 1809/1909 35020KT 9999 BKN025 TX20/1814Z TN14/1906Z"
    },
    {
      "icao": "GCLP",
      "alert": "OK",
      "vis_m": 9999,
      "fzfg": false,
      "metar_trigger": false,
      "taf_trigger": false,
      "metar": "METAR GCLP 181230Z 36017G29KT 330V030 9999 4500S FEW020 BKN033 18/16 Q1016 RERA NOSIG",
      "taf": ""
    },
    {
      "icao": "GCTS",
      "alert": "OK",
      "vis_m": 9999,
      "fzfg": false,
      "metar_trigger": false,
      "taf_trigger": false,
      "metar": "METAR GCTS 181230Z 18006KT 140V220 9999 FEW040 21/13 Q1017 NOSIG",
      "taf": "TAF GCTS 180800Z 1809/1909 VRB05KT 9999 SCT030 TX22/1814Z TN15/1906Z"
    },
    {
      "icao": "GMAD",
      "alert": "OK",
      "vis_m": 8000,
      "fzfg": false,
      "metar_trigger": false,
      "taf_trigger": false,
      "metar": "METAR GMAD 181230Z 21007KT 170V290 8000 FEW006 SCT026 14/12 Q1007 NOSIG",
      "taf": "TAF GMAD 181100Z 1812/1918 24008KT 8000 SCT010 BKN016"
    },
    {
      "icao": "GMMN",
      "alert": "OK",
      "vis_m": 9999,
      "fzfg": false,
      "metar_trigger": false,
      "taf_trigger": false,
      "metar": "METAR GMMN 181230Z 35007KT 330V030 9999 SCT008 BKN017 FEW023TCU 10/08 Q1007 TEMPO 3000 RA",
      "taf": "TAF GMMN 181100Z 1812/1918 30008KT 9999 SCT008 BKN017 FEW030TCU"
    },
    {
      "icao": "GMMX",
      "alert": "OK",
      "vis_m": 8000,
      "fzfg": false,
      "metar_trigger": false,
      "taf_trigger": false,
      "metar": "METAR GMMX 181230Z 31010KT 270V340 8000 SCT010 BKN020 FEW026CB 10/07 Q1008 RERA TEMPO 1500 SHRA",
      "taf": "TAF GMMX 181100Z 1812/1918 30008KT 8000 BKN023 SCT080"
    },
    {
      "icao": "HEGN",
      "alert": "OK",
      "vis_m": 9999,
      "fzfg": false,
      "metar_trigger": false,
      "taf_trigger": false,
      "metar": "METAR HEGN 181200Z 35017KT CAVOK 22/07 Q1014 NOSIG",
      "taf": "TAF HEGN 181100Z 1812/1918 35010G20KT 6000 NSC"
    },
    {
      "icao": "HEMA",
      "alert": "OK",
      "vis_m": 9999,
      "fzfg": false,
      "metar_trigger": false,
      "taf_trigger": false,
      "metar": "METAR HEMA 181200Z 01012KT CAVOK 21/08 Q1014 NOSIG",
      "taf": "TAF HEMA 181100Z 1812/1918 36010G20KT 6000 NSC"
    },
    {
      "icao": "HESH",
      "alert": "OK",
      "vis_m": 9999,
      "fzfg": false,
      "metar_trigger": false,
      "taf_trigger": false,
      "metar": "METAR HESH 181200Z 05009KT CAVOK 22/09 Q1013 NOSIG",
      "taf": "TAF HESH 181100Z 1812/1918 02012KT CAVOK"
    },
    {
      "icao": "HESX",
      "alert": "OK",
      "vis_m": 9999,
      "fzfg": false,
      "metar_trigger": false,
      "taf_trigger": false,
      "metar": "METAR HESX 181200Z 29009KT 9999 SCT020 19/06 Q1016 NOSIG",
      "taf": "TAF HESX 181100Z 1812/1918 30010KT CAVOK"
    },
    {
      "icao": "LATI",
      "alert": "OK",
      "vis_m": 9999,
      "fzfg": false,
      "metar_trigger": false,
      "taf_trigger": false,
      "metar": "METAR LATI 181220Z VRB03KT CAVOK 15/M04 Q1024 NOSIG",
      "taf": "TAF LATI 181100Z 1812/1912 VRB05KT CAVOK TX16/1812Z TNM01/1905Z"
    },
    {
      "icao": "LBPD",
      "alert": "OK",
      "vis_m": 9999,
      "fzfg": false,
      "metar_trigger": false,
      "taf_trigger": false,
      "metar": "METAR LBPD 181230Z AUTO 11004KT 090V180 9999 BKN046/// M01/M06 Q1033 NOSIG",
      "taf": "TAF LBPD 181100Z 1812/1912 11010KT 9999 BKN030"
    },
    {
      "icao": "LBSF",
      "alert": "OK",
      "vis_m": 9999,
      "fzfg": false,
      "metar_trigger": false,
      "taf_trigger": false,
      "metar": "METAR LBSF 181230Z 03010KT 9999 FEW032 M02/M09 Q1030 NOSIG",
      "taf": "TAF LBSF 181100Z 1812/1912 03010KT 9999 SCT020"
    },
    {
      "icao": "LBWN",
      "alert": "OK",
      "vis_m": 9999,
      "fzfg": false,
      "metar_trigger": false,
      "taf_trigger": false,
      "metar": "METAR LBWN 181230Z AUTO 28010KT 250V310 9999 OVC045/// M05/M10 Q1034 NOSIG",
      "taf": "TAF LBWN 181100Z 1812/1912 32014KT 9999 SCT030 BKN045"
    },
    {
      "icao": "LCLK",
      "alert": "OK",
      "vis_m": 9999,
      "fzfg": false,
      "metar_trigger": false,
      "taf_trigger": false,
      "metar": "METAR LCLK 181230Z 03014KT 9999 FEW020 SCT050 13/04 Q1015 NOSIG",
      "taf": "TAF LCLK 181130Z 1812/1912 03014KT 9999 FEW025"
    },
    {
      "icao": "LCPH",
      "alert": "OK",
      "vis_m": 9999,
      "fzfg": false,
      "metar_trigger": false,
      "taf_trigger": false,
      "metar": "METAR LCPH 181230Z 09009KT 9999 -TSRA SCT030 SCT035 BKN050 14/08 Q1015 TEMPO 5000 TSRA",
      "taf": "TAF LCPH 181130Z 1812/1912 13010KT 9999 SCT025"
    },
    {
      "icao": "LEAL",
      "alert": "OK",
      "vis_m": 9999,
      "fzfg": false,
      "metar_trigger": false,
      "taf_trigger": false,
      "metar": "METAR LEAL 181230Z 09006KT 040V110 9999 SCT045 15/05 Q1010 NOSIG",
      "taf": "TAF LEAL 181100Z 1812/1912 09004KT 9999 FEW030 TX15/1813Z TN06/1904Z"
    },
    {
      "icao": "LEBB",
      "alert": "OK",
      "vis_m": 9999,
      "fzfg": false,
      "metar_trigger": false,
      "taf_trigger": false,
      "metar": "METAR LEBB 181230Z VRB02KT 9999 BKN015 09/09 Q1014 NOSIG",
      "taf": "TAF LEBB 181100Z 1812/1912 29008KT 9999 FEW010 BKN020 TX11/1814Z TN07/1906Z"
    },
    {
      "icao": "LEBL",
      "alert": "OK",
      "vis_m": 8000,
      "fzfg": false,
      "metar_trigger": false,
      "taf_trigger": false,
      "metar": "METAR LEBL 181230Z 03007KT 8000 SHRA FEW016 FEW020TCU SCT031 BKN039 13/11 Q1011 TEMPO 4000 BKN010",
      "taf": "TAF LEBL 181100Z 1812/1912 07009KT 9999 FEW020 TX14/1812Z TN10/1906Z"
    },
    {
      "icao": "LECH",
      "alert": "OK",
      "vis_m": 9000,
      "fzfg": false,
      "metar_trigger": false,
      "taf_trigger": false,
      "metar": "METAR LECH 181230Z AUTO 06006KT 9000 FEW050 SCT066 11/06 Q1011",
      "taf": ""
    },
    {
      "icao": "LEMD",
      "alert": "OK",
      "vis_m": 9999,
      "fzfg": false,
      "metar_trigger": false,
      "taf_trigger": false,
      "metar": "METAR LEMD 181230Z 01005KT 290V080 9999 BKN030 08/02 Q1011 NOSIG",
      "taf": "TAF LEMD 181100Z 1812/1918 02006KT 9999 SCT035 TX09/1814Z TNM01/1906Z"
    },
    {
      "icao": "LEMG",
      "alert": "OK",
      "vis_m": 9999,
      "fzfg": false,
      "metar_trigger": false,
      "taf_trigger": false,
      "metar": "METAR LEMG 181230Z 27007KT 9999 FEW030 11/04 Q1009 NOSIG",
      "taf": ""
    },
    {
      "icao": "LEVC",
      "alert": "OK",
      "vis_m": 9999,
      "fzfg": false,
      "metar_trigger": false,
      "taf_trigger": false,
      "metar": "METAR LEVC 181230Z 09005KT 040V130 9999 FEW028 14/07 Q1011 NOSIG",
      "taf": "TAF LEVC 181100Z 1812/1912 06006KT 9999 FEW020 TX14/1813Z TN06/1906Z"
    },
    {
      "icao": "LEXJ",
      "alert": "OK",
      "vis_m": 7000,
      "fzfg": false,
      "metar_trigger": false,
      "taf_trigger": false,
      "metar": "METAR LEXJ 181230Z 25006KT 220V290 7000 RA BKN008 BKN025 10/08 Q1014",
      "taf": "TAF LEXJ 180800Z 1809/1909 25009KT 9999 FEW015 BKN040 TX11/1815Z TN08/1909Z"
    },
    {
      "icao": "LEZG",
      "alert": "OK",
      "vis_m": 4000,
      "fzfg": false,
      "metar_trigger": false,
      "taf_trigger": false,
      "metar": "METAR LEZG 181230Z 30006KT 4000 BR BKN005 BKN010 08/08 Q1013 NOSIG",
      "taf": ""
    },
    {
      "icao": "LEZL",
      "alert": "OK",
      "vis_m": 9999,
      "fzfg": false,
      "metar_trigger": false,
      "taf_trigger": false,
      "metar": "METAR LEZL 181230Z 07011KT 030V100 CAVOK 13/05 Q1010 NOSIG",
      "taf": "TAF LEZL 180800Z 1809/1909 05010KT CAVOK TX14/1815Z TN03/1907Z"
    },
    {
      "icao": "LFBD",
      "alert": "OK",
      "vis_m": 9999,
      "fzfg": false,
      "metar_trigger": false,
      "taf_trigger": false,
      "metar": "METAR LFBD 181230Z AUTO 17008KT 130V190 9999 OVC010 11/09 Q1013 NOSIG",
      "taf": "TAF LFBD 181100Z 1812/1918 14005KT 6000 BKN010 TX11/1815Z TN08/1903Z"
    },
    {
      "icao": "LFLL",
      "alert": "OK",
      "vis_m": 2500,
      "fzfg": false,
      "metar_trigger": false,
      "taf_trigger": false,
      "metar": "METAR LFLL 181230Z 02004KT 2500 0600N R35L/P2000 R17R/0800U R35R/P2000 R17L/1500D PRFG BR OVC001 05/05 Q1017 BECMG 3500 BR",
      "taf": "TAF LFLL 181100Z 1812/1918 VRB02KT 0450 FG BKN001"
    },
    {
      "icao": "LFLS",
      "alert": "OK",
      "vis_m": 9999,
      "fzfg": false,
      "metar_trigger": false,
      "taf_trigger": false,
      "metar": "METAR LFLS 181230Z AUTO 08004KT CAVOK 06/04 Q1016 NOSIG",
      "taf": "TAF LFLS 180800Z 1809/1909 08005KT CAVOK"
    },
    {
      "icao": "LFMN",
      "alert": "OK",
      "vis_m": 9999,
      "fzfg": false,
      "metar_trigger": false,
      "taf_trigger": false,
      "metar": "METAR LFMN 181230Z 10026KT 9999 -RA BKN061 15/08 Q1017 TEMPO RA",
      "taf": "TAF LFMN 180800Z 1809/1915 08025KT 9999 OVC060"
    },
    {
      "icao": "LFOB",
      "alert": "OK",
      "vis_m": 9999,
      "fzfg": false,
      "metar_trigger": false,
      "taf_trigger": false,
      "metar": "METAR LFOB 181230Z AUTO 09008KT CAVOK 10/05 Q1017 NOSIG",
      "taf": "TAF LFOB 181100Z 1812/1912 10005KT 9999 FEW045 BKN080"
    },
    {
      "icao": "LFPO",
      "alert": "OK",
      "vis_m": 9999,
      "fzfg": false,
      "metar_trigger": false,
      "taf_trigger": false,
      "metar": "METAR LFPO 181230Z 09006KT CAVOK 08/03 Q1016 NOSIG",
      "taf": "TAF LFPO 181100Z 1812/1918 09005KT CAVOK"
    },
    {
      "icao": "LFSB",
      "alert": "OK",
      "vis_m": 9999,
      "fzfg": false,
      "metar_trigger": false,
      "taf_trigger": false,
      "metar": "METAR LFSB 181230Z AUTO 10006KT 070V130 9999 OVC013 02/M01 Q1019 TEMPO BKN017",
      "taf": "TAF LFSB 181100Z 1812/1912 08005KT 9999 OVC010"
    },
    {
      "icao": "LGAV",
      "alert": "OK",
      "vis_m": 9999,
      "fzfg": false,
      "metar_trigger": false,
      "taf_trigger": false,
      "metar": "METAR LGAV 181220Z 02016KT 9999 SCT035 07/M02 Q1027 NOSIG",
      "taf": "TAF LGAV 181100Z 1812/1912 03015G25KT 9999 FEW020 SCT030"
    },
    {
      "icao": "LGTS",
      "alert": "OK",
      "vis_m": 9999,
      "fzfg": false,
      "metar_trigger": false,
      "taf_trigger": false,
      "metar": "METAR LGTS 181220Z VRB03KT 9999 FEW020 SCT035 07/M01 Q1030 NOSIG",
      "taf": "TAF LGTS 181100Z 1812/1912 09007KT 9999 FEW015 BKN035"
    },
    {
      "icao": "LHBP",
      "alert": "OK",
      "vis_m": 9999,
      "fzfg": false,
      "metar_trigger": false,
      "taf_trigger": false,
      "metar": "METAR LHBP 181230Z 14003KT 100V180 CAVOK 00/M06 Q1034 NOSIG",
      "taf": "TAF LHBP 181115Z 1812/1912 VRB03KT CAVOK"
    },
    {
      "icao": "LHDC",
      "alert": "OK",
      "vis_m": 900,
      "fzfg": true,
      "metar_trigger": false,
      "taf_trigger": false,
      "metar": "METAR LHDC 181215Z AUTO VRB03KT 0900 R04/1000D -FZDZ FZFG OVC002 M02/M03 Q1035 TEMPO 0500 -SG FZFG VV002",
      "taf": ""
    },
    {
      "icao": "LIBD",
      "alert": "OK",
      "vis_m": 5000,
      "fzfg": false,
      "metar_trigger": false,
      "taf_trigger": false,
      "metar": "METAR LIBD 181220Z 35004KT 320V030 5000 BR SCT005 11/10 Q1023",
      "taf": "TAF LIBD 181100Z 1812/1912 VRB05KT 2000 BR BKN003"
    },
    {
      "icao": "LIBG",
      "alert": "OK",
      "vis_m": 9999,
      "fzfg": false,
      "metar_trigger": false,
      "taf_trigger": false,
      "metar": "METAR LIBG 181150Z 15007KT 9999 SCT030 14/14 Q1022",
      "taf": "TAF LIBG 181100Z 1812/1821 VRB06KT 9999 FEW020"
    },
    {
      "icao": "LIBP",
      "alert": "OK",
      "vis_m": 9999,
      "fzfg": false,
      "metar_trigger": false,
      "taf_trigger": false,
      "metar": "METAR LIBP 181220Z AUTO 04006KT 9999 BKN011/// 12/10 Q1023",
      "taf": "TAF LIBP 181100Z 1812/1912 VRB06KT 9000 SCT018 BKN040"
    },
    {
      "icao": "LIBR",
      "alert": "OK",
      "vis_m": 9999,
      "fzfg": false,
      "metar_trigger": false,
      "taf_trigger": false,
      "metar": "METAR LIBR 181220Z 09006KT 060V150 9999 SCT035 14/09 Q1023",
      "taf": "TAF LIBR 181100Z 1812/1912 17006KT 9999 FEW030"
    },
    {
      "icao": "LICA",
      "alert": "OK",
      "vis_m": 9999,
      "fzfg": false,
      "metar_trigger": false,
      "taf_trigger": false,
      "metar": "METAR LICA 181220Z AUTO 07014KT 9999 -RA OVC019/// 13/12 Q1020",
      "taf": "TAF LICA 181100Z 1812/1912 08016KT 9999 BKN020"
    },
    {
      "icao": "LICC",
      "alert": "OK",
      "vis_m": 9999,
      "fzfg": false,
      "metar_trigger": false,
      "taf_trigger": false,
      "metar": "METAR LICC 181220Z 07007KT 9999 FEW015 BKN030 17/15 Q1018",
      "taf": "TAF LICC 181100Z 1812/1912 08015KT 9999 SCT015 BKN040"
    },
    {
      "icao": "LICJ",
      "alert": "OK",
      "vis_m": 9999,
      "fzfg": false,
      "metar_trigger": false,
      "taf_trigger": false,
      "metar": "METAR LICJ 181220Z 25005KT 9999 FEW040 16/11 Q1016",
      "taf": "TAF LICJ 181100Z 1812/1912 06012KT 9999 SCT040"
    },
    {
      "icao": "LIMC",
      "alert": "OK",
      "vis_m": 9999,
      "fzfg": false,
      "metar_trigger": false,
      "taf_trigger": false,
      "metar": "METAR LIMC 181220Z 08006KT 050V110 9999 BKN085 10/03 Q1024 NOSIG",
      "taf": "TAF LIMC 181100Z 1812/1918 VRB04KT 9999 BKN050"
    },
    {
      "icao": "LIME",
      "alert": "OK",
      "vis_m": 9999,
      "fzfg": false,
      "metar_trigger": false,
      "taf_trigger": false,
      "metar": "METAR LIME 181220Z VRB01KT 9999 BKN090 10/05 Q1024 NOSIG",
      "taf": "TAF LIME 181100Z 1812/1912 VRB03KT 7000 BKN070"
    },
    {
      "icao": "LIMF",
      "alert": "OK",
      "vis_m": 7000,
      "fzfg": false,
      "metar_trigger": false,
      "taf_trigger": false,
      "metar": "METAR LIMF 181220Z 36006KT 320V070 7000 -RA BKN025 OVC040 08/06 Q1024",
      "taf": "TAF LIMF 181100Z 1812/1912 30007KT 4000 -RA SCT020 BKN050"
    },
    {
      "icao": "LIMJ",
      "alert": "OK",
      "vis_m": 9999,
      "fzfg": false,
      "metar_trigger": false,
      "taf_trigger": false,
      "metar": "METAR LIMJ 181220Z 02010KT 350V050 CAVOK 13/06 Q1020",
      "taf": "TAF LIMJ 181100Z 1812/1912 02014KT 9999 FEW040"
    },
    {
      "icao": "LIPE",
      "alert": "OK",
      "vis_m": 4500,
      "fzfg": false,
      "metar_trigger": false,
      "taf_trigger": false,
      "metar": "METAR LIPE 181220Z VRB02KT 4500 BR BKN004 07/07 Q1024",
      "taf": "TAF LIPE 181100Z 1812/1912 02005KT 7000 BKN035"
    },
    {
      "icao": "LIPH",
      "alert": "OK",
      "vis_m": 9999,
      "fzfg": false,
      "metar_trigger": false,
      "taf_trigger": false,
      "metar": "METAR LIPH 181220Z 07009KT CAVOK 10/01 Q1025",
      "taf": "TAF LIPH 181100Z 1812/1912 04007KT 9999 SCT060"
    },
    {
      "icao": "LIPQ",
      "alert": "OK",
      "vis_m": 9999,
      "fzfg": false,
      "metar_trigger": false,
      "taf_trigger": false,
      "metar": "METAR LIPQ 181220Z AUTO 09005KT 050V120 9999 OVC088/// 09/M01 Q1026",
      "taf": "TAF LIPQ 181100Z 1812/1912 08009KT 9999 SCT060"
    },
    {
      "icao": "LIPR",
      "alert": "OK",
      "vis_m": 1900,
      "fzfg": false,
      "metar_trigger": false,
      "taf_trigger": false,
      "metar": "METAR LIPR 181220Z AUTO 31005KT 1900 -RA BR OVC004/// 09/08 Q1023",
      "taf": "TAF LIPR 181100Z 1812/1912 VRB06KT 7000 SCT025"
    },
    {
      "icao": "LIPX",
      "alert": "OK",
      "vis_m": 9999,
      "fzfg": false,
      "metar_trigger": false,
      "taf_trigger": false,
      "metar": "METAR LIPX 181220Z 11008KT 9999 FEW050 BKN080 10/01 Q1024",
      "taf": "TAF LIPX 181100Z 1812/1912 10008KT 9999 BKN070"
    },
    {
      "icao": "LIPY",
      "alert": "OK",
      "vis_m": 9999,
      "fzfg": false,
      "metar_trigger": false,
      "taf_trigger": false,
      "metar": "METAR LIPY 181220Z AUTO 03006KT 9999 FEW064/// OVC120/// 11/10 Q1023",
      "taf": "TAF LIPY 181100Z 1812/1912 09007KT 8000 SCT030"
    },
    {
      "icao": "LIPZ",
      "alert": "OK",
      "vis_m": 9999,
      "fzfg": false,
      "metar_trigger": false,
      "taf_trigger": false,
      "metar": "METAR LIPZ 181220Z 06010KT 9999 FEW050 09/02 Q1026 NOSIG",
      "taf": "TAF LIPZ 181100Z 1812/1918 05010KT 9999 SCT050"
    },
    {
      "icao": "LIRF",
      "alert": "OK",
      "vis_m": 9999,
      "fzfg": false,
      "metar_trigger": false,
      "taf_trigger": false,
      "metar": "METAR LIRF 181220Z 07009KT CAVOK 15/05 Q1018 NOSIG",
      "taf": "TAF LIRF 181100Z 1812/1918 06010KT 9999 SCT040"
    },
    {
      "icao": "LIRN",
      "alert": "OK",
      "vis_m": 9999,
      "fzfg": false,
      "metar_trigger": false,
      "taf_trigger": false,
      "metar": "METAR LIRN 181220Z 04009KT 360V060 CAVOK 15/07 Q1019 NOSIG",
      "taf": "TAF LIRN 181100Z 1812/1912 05010KT 9999 SCT040"
    },
    {
      "icao": "LIRP",
      "alert": "OK",
      "vis_m": 9999,
      "fzfg": false,
      "metar_trigger": false,
      "taf_trigger": false,
      "metar": "METAR LIRP 181215Z 12009KT CAVOK 13/07 Q1020 NOSIG",
      "taf": "TAF LIRP 181100Z 1812/1912 10013KT 9999 BKN080"
    },
    {
      "icao": "LIRZ",
      "alert": "OK",
      "vis_m": 9999,
      "fzfg": false,
      "metar_trigger": false,
      "taf_trigger": false,
      "metar": "METAR LIRZ 181220Z AUTO 03010KT 9999 NCD 15/06 Q1020",
      "taf": "TAF LIRZ 181100Z 1812/1912 03014KT CAVOK"
    },
    {
      "icao": "LJLJ",
      "alert": "OK",
      "vis_m": 9999,
      "fzfg": false,
      "metar_trigger": false,
      "taf_trigger": false,
      "metar": "METAR LJLJ 181230Z VRB01KT 9999 FEW017 SCT030 04/M04 Q1029 NOSIG",
      "taf": "TAF LJLJ 181100Z 1812/1912 12005KT 9999 SCT015 BKN025"
    },
    {
      "icao": "LKMT",
      "alert": "OK",
      "vis_m": 300,
      "fzfg": true,
      "metar_trigger": false,
      "taf_trigger": false,
      "metar": "METAR LKMT 181230Z VRB02KT 0300 R22/0350N R04/0300N FZFG VV002 M03/M04 Q1032 TEMPO 0500 FZFG VV003",
      "taf": "TAF LKMT 181100Z 1812/1912 VRB02KT 0300 FZFG VV002"
    },
    {
      "icao": "LKPR",
      "alert": "OK",
      "vis_m": 9999,
      "fzfg": false,
      "metar_trigger": false,
      "taf_trigger": false,
      "metar": "METAR LKPR 181230Z 11014KT CAVOK 03/M04 Q1025 NOSIG",
      "taf": "TAF LKPR 181100Z 1812/1918 13012KT CAVOK"
    },
    {
      "icao": "LLBG",
      "alert": "OK",
      "vis_m": 9999,
      "fzfg": false,
      "metar_trigger": false,
      "taf_trigger": false,
      "metar": "METAR LLBG 181220Z 20009KT 9999 FEW017 FEW020TCU BKN028 15/12 Q1014 TEMPO 7000 RA FEW020TCU RMK RERA",
      "taf": "TAF LLBG 181102Z 1812/1912 23012KT 9999 SCT030"
    },
    {
      "icao": "LMML",
      "alert": "OK",
      "vis_m": 9999,
      "fzfg": false,
      "metar_trigger": false,
      "taf_trigger": false,
      "metar": "METAR LMML 181215Z 12013KT 9999 FEW013 16/13 Q1016 NOSIG",
      "taf": "TAF LMML 181100Z 1812/1912 12012KT 9999 SCT018"
    },
    {
      "icao": "LOWW",
      "alert": "OK",
      "vis_m": 9999,
      "fzfg": false,
      "metar_trigger": false,
      "taf_trigger": false,
      "metar": "METAR LOWW 181220Z 14013KT 9999 FEW015 BKN018 01/M02 Q1031 NOSIG",
      "taf": "TAF LOWW 181115Z 1812/1918 14013KT 9999 FEW020 SCT030 TX01/1812Z TNM05/1907Z"
    },
    {
      "icao": "LPFR",
      "alert": "OK",
      "vis_m": 9999,
      "fzfg": false,
      "metar_trigger": false,
      "taf_trigger": false,
      "metar": "METAR LPFR 181230Z 05009KT 010V070 9999 FEW030 13/05 Q1011",
      "taf": "TAF LPFR 181100Z 1812/1912 02012KT 9999 FEW035"
    },
    {
      "icao": "LPMA",
      "alert": "OK",
      "vis_m": 9999,
      "fzfg": false,
      "metar_trigger": false,
      "taf_trigger": false,
      "metar": "METAR LPMA 181230Z 01022G38KT 300V060 9999 SCT015 17/07 Q1019",
      "taf": "TAF LPMA 181100Z 1812/1912 02017KT 9999 SCT015"
    },
    {
      "icao": "LPPR",
      "alert": "OK",
      "vis_m": 9999,
      "fzfg": false,
      "metar_trigger": false,
      "taf_trigger": false,
      "metar": "METAR LPPR 181230Z 28003KT 210V340 CAVOK 11/06 Q1015",
      "taf": "TAF LPPR 181100Z 1812/1912 34007KT CAVOK"
    },
    {
      "icao": "LPPS",
      "alert": "OK",
      "vis_m": 9999,
      "fzfg": false,
      "metar_trigger": false,
      "taf_trigger": false,
      "metar": "METAR LPPS 181230Z 01018KT 9999 FEW015 16/09 Q1019",
      "taf": "TAF LPPS 181100Z 1812/1918 01018KT 9999 SCT015"
    },
    {
      "icao": "LPPT",
      "alert": "OK",
      "vis_m": 9999,
      "fzfg": false,
      "metar_trigger": false,
      "taf_trigger": false,
      "metar": "METAR LPPT 181230Z 06008KT 030V090 9999 FEW020 09/06 Q1013",
      "taf": "TAF LPPT 181100Z 1812/1918 02005KT 9999 FEW030"
    },
    {
      "icao": "LQBK",
      "alert": "OK",
      "vis_m": 9999,
      "fzfg": false,
      "metar_trigger": false,
      "taf_trigger": false,
      "metar": "METAR LQBK 181230Z 35005KT 9999 BKN017 OVC025 M00/M03 Q1032 NOSIG",
      "taf": "TAF LQBK 181100Z 1812/1912 34006KT 9999 BKN025 TX01/1813Z TNM06/1906Z"
    },
    {
      "icao": "LQSA",
      "alert": "OK",
      "vis_m": 6000,
      "fzfg": false,
      "metar_trigger": false,
      "taf_trigger": false,
      "metar": "METAR LQSA 181230Z VRB01KT 6000 FEW008 OVC025 02/01 Q1027 NOSIG",
      "taf": "TAF LQSA 181100Z 1812/1912 VRB02KT 2000 BR BKN006 TX03/1813Z TNM06/1906Z"
    },
    {
      "icao": "LQTZ",
      "alert": "OK",
      "vis_m": 9999,
      "fzfg": false,
      "metar_trigger": false,
      "taf_trigger": false,
      "metar": "METAR LQTZ 181230Z 10003KT 9999 OVC025 01/M02 Q1030",
      "taf": "TAF LQTZ 181100Z 1812/1912 10008KT 9999 BKN025 TX02/1814Z TNM05/1905Z"
    },
    {
      "icao": "LRBC",
      "alert": "OK",
      "vis_m": 9999,
      "fzfg": false,
      "metar_trigger": false,
      "taf_trigger": false,
      "metar": "METAR LRBC 181230Z 36008KT 340V040 CAVOK M05/M12 Q1038",
      "taf": "TAF LRBC 181100Z 1812/1821 35010KT CAVOK"
    },
    {
      "icao": "LRBS",
      "alert": "OK",
      "vis_m": 8000,
      "fzfg": false,
      "metar_trigger": false,
      "taf_trigger": false,
      "metar": "METAR LRBS 181230Z 30003KT 250V010 8000 BKN023 M05/M10 Q1038 NOSIG",
      "taf": "TAF LRBS 181100Z 1812/1912 VRB04KT 9999 BKN025"
    },
    {
      "icao": "LRBV",
      "alert": "OK",
      "vis_m": 9999,
      "fzfg": false,
      "metar_trigger": false,
      "taf_trigger": false,
      "metar": "METAR LRBV 181230Z 09009KT CAVOK M03/M10 Q1033",
      "taf": "TAF LRBV 181100Z 1812/1821 08008KT CAVOK"
    },
    {
      "icao": "LRCL",
      "alert": "OK",
      "vis_m": 9999,
      "fzfg": false,
      "metar_trigger": false,
      "taf_trigger": false,
      "metar": "METAR LRCL 181230Z 07008KT CAVOK M03/M09 Q1034",
      "taf": "TAF LRCL 181100Z 1812/1821 05005KT CAVOK"
    },
    {
      "icao": "LRCV",
      "alert": "OK",
      "vis_m": 9999,
      "fzfg": false,
      "metar_trigger": false,
      "taf_trigger": false,
      "metar": "METAR LRCV 181230Z VRB02KT 9999 SCT018 BKN020 M06/M10 Q1037",
      "taf": "TAF LRCV 181100Z 1812/1821 15005KT 9999 BKN020"
    },
    {
      "icao": "LRIA",
      "alert": "OK",
      "vis_m": 9999,
      "fzfg": false,
      "metar_trigger": false,
      "taf_trigger": false,
      "metar": "METAR LRIA 181230Z 30006KT 270V330 CAVOK M09/M14 Q1039",
      "taf": "TAF LRIA 181100Z 1812/1821 30006KT CAVOK"
    },
    {
      "icao": "LROP",
      "alert": "OK",
      "vis_m": 5000,
      "fzfg": false,
      "metar_trigger": false,
      "taf_trigger": false,
      "metar": "METAR LROP 181230Z 27005KT 5000 BR SCT020 BKN025 M05/M12 Q1037 NOSIG",
      "taf": "TAF LROP 181100Z 1812/1912 VRB04KT 9999 BKN030"
    },
    {
      "icao": "LRSB",
      "alert": "OK",
      "vis_m": 9999,
      "fzfg": false,
      "metar_trigger": false,
      "taf_trigger": false,
      "metar": "METAR LRSB 181230Z 12006KT CAVOK M02/M09 Q1032",
      "taf": "TAF LRSB 181100Z 1812/1912 11010KT CAVOK"
    },
    {
      "icao": "LRSM",
      "alert": "OK",
      "vis_m": 9999,
      "fzfg": false,
      "metar_trigger": false,
      "taf_trigger": false,
      "metar": "METAR LRSM 181230Z 13006KT CAVOK 01/M09 Q1035",
      "taf": "TAF LRSM 181100Z 1812/1821 13006KT CAVOK"
    },
    {
      "icao": "LRSV",
      "alert": "OK",
      "vis_m": 9999,
      "fzfg": false,
      "metar_trigger": false,
      "taf_trigger": false,
      "metar": "METAR LRSV 181230Z 08004KT 9999 BKN024 M10/M13 Q1037",
      "taf": "TAF LRSV 181100Z 1812/1821 VRB04KT 9999 BKN030"
    },
    {
      "icao": "LRTM",
      "alert": "OK",
      "vis_m": 6000,
      "fzfg": false,
      "metar_trigger": false,
      "taf_trigger": false,
      "metar": "METAR LRTM 181230Z 23003KT 6000 NSC M07/M11 Q1035",
      "taf": "TAF LRTM 181100Z 1812/1821 VRB04KT 7000 NSC"
    },
    {
      "icao": "LRTR",
      "alert": "OK",
      "vis_m": 9999,
      "fzfg": false,
      "metar_trigger": false,
      "taf_trigger": false,
      "metar": "METAR LRTR 181230Z 01003KT 320V040 CAVOK M01/M06 Q1034",
      "taf": "TAF LRTR 181100Z 1812/1912 VRB04KT CAVOK"
    },
    {
      "icao": "LTAC",
      "alert": "OK",
      "vis_m": 9999,
      "fzfg": false,
      "metar_trigger": false,
      "taf_trigger": false,
      "metar": "METAR LTAC 181220Z 33010KT 9999 SCT040 SCT100 M01/M12 Q1019 NOSIG RMK RWY21C 33009KT 270V010 RWY03L 31008KT RWY21R 32008KT 270V360 RWY03R 31009KT RWY21L 35008KT 300V010",
      "taf": "TAF LTAC 181040Z 1812/1912 VRB02KT 9999 SCT040 SCT100"
    },
    {
      "icao": "LTFM",
      "alert": "OK",
      "vis_m": 8000,
      "fzfg": false,
      "metar_trigger": false,
      "taf_trigger": false,
      "metar": "METAR LTFM 181220Z 36029KT 8000 -SHSNRA BKN008 BKN022 00/M02 Q1029 NOSIG RMK RWY17L 36027KT RWY34L 35028KT RWY16R 36026KT RWY36 36028KT RWY18 36028KT",
      "taf": "TAF LTFM 181040Z 1812/1918 36024G36KT 8000 -SHSN SCT012 BKN025"
    },
    {
      "icao": "LUKK",
      "alert": "OK",
      "vis_m": 9999,
      "fzfg": false,
      "metar_trigger": false,
      "taf_trigger": false,
      "metar": "METAR LUKK 181230Z 02009KT 350V050 9999 OVC015 M07/M12 Q1038 TEMPO BKN015",
      "taf": "TAF LUKK 181126Z 1812/1912 36009KT 9999 SCT025"
    },
    {
      "icao": "LWOH",
      "alert": "OK",
      "vis_m": 9999,
      "fzfg": false,
      "metar_trigger": false,
      "taf_trigger": false,
      "metar": "METAR LWOH 181220Z VRB02KT 9999 BKN040 06/M02 Q1025",
      "taf": "TAF LWOH 181120Z 1812/1912 35006KT 9999 SCT040"
    },
    {
      "icao": "LWSK",
      "alert": "OK",
      "vis_m": 9999,
      "fzfg": false,
      "metar_trigger": false,
      "taf_trigger": false,
      "metar": "METAR LWSK 181220Z 35005KT 290V030 9999 FEW040 07/M02 Q1029 NOSIG",
      "taf": "TAF LWSK 181120Z 1812/1912 02008KT 9999 SCT040"
    },
    {
      "icao": "LYBE",
      "alert": "OK",
      "vis_m": 9999,
      "fzfg": false,
      "metar_trigger": false,
      "taf_trigger": false,
      "metar": "METAR LYBE 181230Z 12009KT CAVOK 01/M06 Q1033 NOSIG",
      "taf": "TAF LYBE 181100Z 1812/1912 11012KT CAVOK TX01/1813Z TNM05/1906Z"
    },
    {
      "icao": "LYNI",
      "alert": "OK",
      "vis_m": 9999,
      "fzfg": false,
      "metar_trigger": false,
      "taf_trigger": false,
      "metar": "METAR LYNI 181230Z 05007KT 010V070 CAVOK 01/M07 Q1032 NOSIG",
      "taf": "TAF LYNI 181100Z 1812/1912 05007KT CAVOK TX01/1813Z TNM07/1906Z"
    },
    {
      "icao": "LYPG",
      "alert": "OK",
      "vis_m": 9999,
      "fzfg": false,
      "metar_trigger": false,
      "taf_trigger": false,
      "metar": "METAR LYPG 181230Z 15004KT 110V200 CAVOK 11/02 Q1025 NOSIG",
      "taf": "TAF LYPG 181100Z 1812/1912 16005KT CAVOK TX11/1812Z TNM02/1906Z"
    },
    {
      "icao": "LZIB",
      "alert": "OK",
      "vis_m": 9999,
      "fzfg": false,
      "metar_trigger": false,
      "taf_trigger": false,
      "metar": "METAR LZIB 181230Z 14009KT 9999 FEW018 SCT023 03/M02 Q1032 NOSIG",
      "taf": "TAF LZIB 181115Z 1812/1912 09005KT 9999 FEW020"
    },
    {
      "icao": "LZKZ",
      "alert": "OK",
      "vis_m": 9999,
      "fzfg": false,
      "metar_trigger": false,
      "taf_trigger": false,
      "metar": "METAR LZKZ 181230Z 10001KT CAVOK 01/M06 Q1034 NOSIG",
      "taf": "TAF LZKZ 181115Z 1812/1912 VRB02KT CAVOK"
    },
    {
      "icao": "LZTT",
      "alert": "OK",
      "vis_m": 9999,
      "fzfg": false,
      "metar_trigger": false,
      "taf_trigger": false,
      "metar": "METAR LZTT 181230Z 30002KT CAVOK 01/M08 Q1030 NOSIG",
      "taf": "TAF LZTT 181115Z 1812/1912 VRB02KT CAVOK"
    },
    {
      "icao": "OEJN",
      "alert": "OK",
      "vis_m": 9999,
      "fzfg": false,
      "metar_trigger": false,
      "taf_trigger": false,
      "metar": "METAR OEJN 181200Z 30010KT 9999 FEW040 28/16 Q1011 NOSIG",
      "taf": "TAF OEJN 181100Z 1812/1918 30010KT 9999 SCT040"
    },
    {
      "icao": "OEMA",
      "alert": "OK",
      "vis_m": 9999,
      "fzfg": false,
      "metar_trigger": false,
      "taf_trigger": false,
      "metar": "METAR OEMA 181200Z 20011KT CAVOK 26/06 Q1013 NOSIG",
      "taf": "TAF OEMA 181100Z 1812/1918 28010KT 7000 NSC"
    },
    {
      "icao": "OJAI",
      "alert": "OK",
      "vis_m": 3500,
      "fzfg": false,
      "metar_trigger": false,
      "taf_trigger": false,
      "metar": "METAR OJAI 181200Z 26011KT 3500 -RA SCT025 SCT030 10/08 Q1014 NOSIG",
      "taf": "TAF OJAI 181042Z 1812/1918 27012KT 3000 RA BR SCT020 BKN025"
    },
    {
      "icao": "OMAA",
      "alert": "OK",
      "vis_m": 9999,
      "fzfg": false,
      "metar_trigger": false,
      "taf_trigger": false,
      "metar": "METAR OMAA 181200Z 31010KT 280V350 CAVOK 22/12 Q1014 NOSIG",
      "taf": "TAF OMAA 181100Z 1812/1918 33010KT 9999 FEW040"
    },
    {
      "icao": "OMDB",
      "alert": "OK",
      "vis_m": 9999,
      "fzfg": false,
      "metar_trigger": false,
      "taf_trigger": false,
      "metar": "METAR OMDB 181230Z 30010KT 190V320 9999 FEW040 22/12 Q1014 NOSIG",
      "taf": "TAF OMDB 181100Z 1812/1918 28010KT 8000 SCT040"
    },
    {
      "icao": "UAAA",
      "alert": "OK",
      "vis_m": 6000,
      "fzfg": false,
      "metar_trigger": false,
      "taf_trigger": false,
      "metar": "METAR UAAA 181230Z 00000MPS 6000 FEW050 SCT100 BKN200 M13/M17 Q1030 NOSIG",
      "taf": "TAF UAAA 181106Z 1812/1912 34003MPS 3100 BR FU SCT050 BKN100 TXM09/1908Z TNM17/1903Z"
    },
    {
      "icao": "UBBB",
      "alert": "OK",
      "vis_m": 9999,
      "fzfg": false,
      "metar_trigger": false,
      "taf_trigger": false,
      "metar": "METAR UBBB 181230Z 04010KT 9999 SCT023 06/02 Q1028 NOSIG",
      "taf": "TAF UBBB 181057Z 1812/1912 03010KT 9999 SCT012 OVC025 TX06/1812Z TN01/1901Z"
    },
    {
      "icao": "UDSG",
      "alert": "OK",
      "vis_m": 6000,
      "fzfg": false,
      "metar_trigger": false,
      "taf_trigger": false,
      "metar": "METAR UDSG 181230Z 21001KT 6000 BKN033 M04/M07 Q1017 NOSIG",
      "taf": "TAF UDSG 181058Z 1812/1912 VRB06KT 5000 BR BKN030"
    },
    {
      "icao": "UDYZ",
      "alert": "OK",
      "vis_m": 8000,
      "fzfg": false,
      "metar_trigger": false,
      "taf_trigger": false,
      "metar": "METAR UDYZ 181230Z 24002KT 8000 BKN033 01/M03 Q1019 NOSIG",
      "taf": "TAF UDYZ 181100Z 1812/1912 24006KT 6000 BKN030"
    },
    {
      "icao": "UGKO",
      "alert": "OK",
      "vis_m": 9999,
      "fzfg": false,
      "metar_trigger": false,
      "taf_trigger": false,
      "metar": "METAR UGKO 181230Z 25007KT 9999 BKN096 05/01 Q1021 NOSIG",
      "taf": "TAF UGKO 181100Z 1812/1912 25010KT 9999 BKN050 TX05/1812Z TN00/1823Z"
    }
  ]
}