{
  "ts_utc": "2026-02-03T10:24:58Z",
  "threshold_m": 150,
  "source": "stations_override.txt (ICAO list) + aviationweather.gov (METAR/TAF raw)",
  "station_count": 159,
  "stations": [
    {
      "icao": "BIKF",
      "alert": "OK",
      "vis_m": 9999,
      "fzfg": false,
      "metar_trigger": false,
      "taf_trigger": false,
      "metar": "METAR BIKF 031000Z 10021KT 9999 SCT035 BKN340 06/02 Q1006",
      "taf": "TAF BIKF 030747Z 0309/0409 11018G30KT 9999 -SHRA FEW020 BKN035 TX06/0315Z TN01/0406Z"
    },
    {
      "icao": "BKPR",
      "alert": "OK",
      "vis_m": null,
      "fzfg": false,
      "metar_trigger": false,
      "taf_trigger": false,
      "metar": "",
      "taf": ""
    },
    {
      "icao": "EBCI",
      "alert": "OK",
      "vis_m": 6000,
      "fzfg": false,
      "metar_trigger": false,
      "taf_trigger": false,
      "metar": "METAR EBCI 030950Z 09007KT 6000 -RA FEW014 BKN045 05/04 Q0993 TEMPO 2500 RADZ BKN012",
      "taf": "TAF EBCI 030520Z 0306/0412 11010KT 9999 SCT020 BKN035"
    },
    {
      "icao": "EDDB",
      "alert": "OK",
      "vis_m": 9999,
      "fzfg": false,
      "metar_trigger": false,
      "taf_trigger": false,
      "metar": "METAR EDDB 031020Z AUTO 10017KT 9999 OVC040 M07/M12 Q1011 TEMPO 09015G25KT",
      "taf": "TAF EDDB 030500Z 0306/0406 08012G22KT 9999 BKN035"
    },
    {
      "icao": "EDDH",
      "alert": "OK",
      "vis_m": 9999,
      "fzfg": false,
      "metar_trigger": false,
      "taf_trigger": false,
      "metar": "METAR EDDH 031020Z AUTO 10017KT 070V130 9999 FEW021 OVC049 M06/M12 Q1009 TEMPO 09015G25KT",
      "taf": "TAF EDDH 030500Z 0306/0412 09013KT 9999 FEW020 BKN035"
    },
    {
      "icao": "EDDK",
      "alert": "OK",
      "vis_m": 9000,
      "fzfg": false,
      "metar_trigger": false,
      "taf_trigger": false,
      "metar": "METAR EDDK 031020Z AUTO 12007KT 070V160 9000 -SHRA FEW018 BKN046 FEW///TCU 01/M01 Q0998 TEMPO RA",
      "taf": "TAF EDDK 030500Z 0306/0412 12010KT 9999 FEW015 BKN045"
    },
    {
      "icao": "EDDN",
      "alert": "OK",
      "vis_m": 9999,
      "fzfg": false,
      "metar_trigger": false,
      "taf_trigger": false,
      "metar": "METAR EDDN 031020Z AUTO 10016KT CAVOK 02/M02 Q0999 NOSIG",
      "taf": ""
    },
    {
      "icao": "EDDS",
      "alert": "OK",
      "vis_m": 9999,
      "fzfg": false,
      "metar_trigger": false,
      "taf_trigger": false,
      "metar": "METAR EDDS 031020Z AUTO VRB02KT 9999 -SHRA FEW///TCU 01/M02 Q0997 RESHRA NOSIG",
      "taf": ""
    },
    {
      "icao": "EDFH",
      "alert": "OK",
      "vis_m": 4000,
      "fzfg": false,
      "metar_trigger": false,
      "taf_trigger": false,
      "metar": "METAR EDFH 030950Z 14016KT 4000 -FZRA BR BKN003 BKN005 OVC038 M01/M02 Q0996",
      "taf": "TAF EDFH 030500Z 0306/0406 13015KT 6000 OVC005"
    },
    {
      "icao": "EDJA",
      "alert": "OK",
      "vis_m": 6000,
      "fzfg": false,
      "metar_trigger": false,
      "taf_trigger": false,
      "metar": "METAR EDJA 030950Z 06006KT 030V090 6000 BKN006 M02/M03 Q0996",
      "taf": "TAF EDJA 030800Z 0309/0318 07009KT 4000 BR OVC004"
    },
    {
      "icao": "EDLW",
      "alert": "OK",
      "vis_m": 9999,
      "fzfg": false,
      "metar_trigger": false,
      "taf_trigger": false,
      "metar": "METAR EDLW 030950Z 04013KT CAVOK 00/M04 Q0998",
      "taf": "TAF EDLW 030500Z 0306/0406 08010KT 9999 SCT045"
    },
    {
      "icao": "EDNY",
      "alert": "OK",
      "vis_m": 9999,
      "fzfg": false,
      "metar_trigger": false,
      "taf_trigger": false,
      "metar": "METAR EDNY 030950Z 02007KT 9999 SCT042 01/M02 Q0998",
      "taf": "TAF EDNY 030800Z 0309/0318 04008KT 9999 FEW040"
    },
    {
      "icao": "EDSB",
      "alert": "OK",
      "vis_m": 4000,
      "fzfg": false,
      "metar_trigger": false,
      "taf_trigger": false,
      "metar": "METAR EDSB 030950Z 35004KT 4000 RA FEW028 02/00 Q0998",
      "taf": "TAF EDSB 030500Z 0306/0406 03009KT 8000 BKN045"
    },
    {
      "icao": "EETN",
      "alert": "OK",
      "vis_m": 9999,
      "fzfg": false,
      "metar_trigger": false,
      "taf_trigger": false,
      "metar": "METAR EETN 031020Z 08007KT 9999 FEW009 M08/M10 Q1027 TEMPO BKN008",
      "taf": ""
    },
    {
      "icao": "EFTU",
      "alert": "OK",
      "vis_m": 9999,
      "fzfg": false,
      "metar_trigger": false,
      "taf_trigger": false,
      "metar": "METAR EFTU 031020Z AUTO 08001KT CAVOK M16/M18 Q1029",
      "taf": "TAF EFTU 030825Z 0309/0409 04003KT 9999 BKN001"
    },
    {
      "icao": "EGBB",
      "alert": "OK",
      "vis_m": 5000,
      "fzfg": false,
      "metar_trigger": false,
      "taf_trigger": false,
      "metar": "METAR EGBB 030950Z 07013KT 5000 -RA OVC010 03/01 Q0994",
      "taf": "TAF EGBB 030500Z 0306/0406 08012KT 7000 BKN010"
    },
    {
      "icao": "EGGP",
      "alert": "OK",
      "vis_m": 9999,
      "fzfg": false,
      "metar_trigger": false,
      "taf_trigger": false,
      "metar": "METAR EGGP 030950Z 09015G25KT 9999 BKN019 03/M00 Q0995",
      "taf": ""
    },
    {
      "icao": "EGGW",
      "alert": "OK",
      "vis_m": 3300,
      "fzfg": false,
      "metar_trigger": false,
      "taf_trigger": false,
      "metar": "METAR EGGW 030950Z 07015KT 3300 BR OVC004 03/02 Q0993",
      "taf": ""
    },
    {
      "icao": "EGKK",
      "alert": "OK",
      "vis_m": 6000,
      "fzfg": false,
      "metar_trigger": false,
      "taf_trigger": false,
      "metar": "METAR EGKK 030950Z 07010KT 6000 -RADZ OVC007 05/04 Q0991",
      "taf": "TAF EGKK 030459Z 0306/0412 08010KT 9999 BKN010"
    },
    {
      "icao": "EGNM",
      "alert": "OK",
      "vis_m": 8000,
      "fzfg": false,
      "metar_trigger": false,
      "taf_trigger": false,
      "metar": "METAR EGNM 030950Z 08013KT 8000 SCT008 BKN010 01/00 Q0997",
      "taf": ""
    },
    {
      "icao": "EGPD",
      "alert": "OK",
      "vis_m": 5000,
      "fzfg": false,
      "metar_trigger": false,
      "taf_trigger": false,
      "metar": "METAR EGPD 030950Z AUTO 10012KT 5000 -RASN BKN008 OVC043 02/00 Q1005 RERA TEMPO 2000 RASN BKN005",
      "taf": ""
    },
    {
      "icao": "EGPF",
      "alert": "OK",
      "vis_m": 9999,
      "fzfg": false,
      "metar_trigger": false,
      "taf_trigger": false,
      "metar": "METAR EGPF 030950Z AUTO 07016KT 9999 BKN019 OVC023 05/02 Q1000",
      "taf": ""
    },
    {
      "icao": "EHBK",
      "alert": "OK",
      "vis_m": 4400,
      "fzfg": false,
      "metar_trigger": false,
      "taf_trigger": false,
      "metar": "METAR EHBK 030955Z AUTO 09010KT 060V130 4400 -RA FEW015CB BKN028 OVC032 02/01 Q0995 REDZRA TEMPO DZRA",
      "taf": "TAF EHBK 030511Z 0306/0412 08010KT 9999 SCT045"
    },
    {
      "icao": "EHEH",
      "alert": "OK",
      "vis_m": null,
      "fzfg": false,
      "metar_trigger": false,
      "taf_trigger": false,
      "metar": "",
      "taf": "TAF EHEH 030552Z 0306/0412 08011KT 9000 BKN018"
    },
    {
      "icao": "EKBI",
      "alert": "OK",
      "vis_m": 9999,
      "fzfg": false,
      "metar_trigger": false,
      "taf_trigger": false,
      "metar": "METAR EKBI 031020Z AUTO 10023G36KT 9999 FEW057/// M02/M11 Q1013",
      "taf": "TAF EKBI 030827Z 0309/0409 10020KT 9999 BKN030"
    },
    {
      "icao": "EKCH",
      "alert": "OK",
      "vis_m": 9999,
      "fzfg": false,
      "metar_trigger": false,
      "taf_trigger": false,
      "metar": "METAR EKCH 031020Z AUTO 11021KT 9999 NCD M01/M08 Q1019 TEMPO 10020G30KT",
      "taf": "TAF EKCH 030827Z 0309/0409 10020G30KT 9999 FEW040"
    },
    {
      "icao": "ENAL",
      "alert": "OK",
      "vis_m": 9999,
      "fzfg": false,
      "metar_trigger": false,
      "taf_trigger": false,
      "metar": "METAR ENAL 030950Z 14012KT 9999 BKN029 M02/M08 Q1019",
      "taf": "TAF ENAL 030800Z 0309/0318 14012KT 9999 BKN030"
    },
    {
      "icao": "ENBR",
      "alert": "OK",
      "vis_m": 9999,
      "fzfg": false,
      "metar_trigger": false,
      "taf_trigger": false,
      "metar": "METAR ENBR 030950Z VRB02KT CAVOK M06/M14 Q1019 NOSIG RMK WIND 1200FT 11005KT",
      "taf": "TAF ENBR 030500Z 0306/0406 06005KT CAVOK"
    },
    {
      "icao": "ENGM",
      "alert": "OK",
      "vis_m": 9999,
      "fzfg": false,
      "metar_trigger": false,
      "taf_trigger": false,
      "metar": "METAR ENGM 030950Z 01003KT 340V040 9999 -SN FEW028 BKN042 M10/M12 Q1026 TEMPO 4000",
      "taf": ""
    },
    {
      "icao": "ENHD",
      "alert": "OK",
      "vis_m": 9999,
      "fzfg": false,
      "metar_trigger": false,
      "taf_trigger": false,
      "metar": "METAR ENHD 030950Z 08010KT CAVOK M03/M15 Q1018",
      "taf": "TAF ENHD 030800Z 0309/0318 10010KT CAVOK"
    },
    {
      "icao": "ENTC",
      "alert": "OK",
      "vis_m": 9999,
      "fzfg": false,
      "metar_trigger": false,
      "taf_trigger": false,
      "metar": "METAR ENTC 030950Z 19008KT 9999 SCT034 M00/M03 Q1023 NOSIG RMK WIND 2600FT 22009KT",
      "taf": "TAF ENTC 030500Z 0306/0406 21009KT 9999 FEW020 BKN050"
    },
    {
      "icao": "ENTO",
      "alert": "OK",
      "vis_m": 9999,
      "fzfg": false,
      "metar_trigger": false,
      "taf_trigger": false,
      "metar": "METAR ENTO 030950Z 07005KT 040V110 9999 OVC038 M04/M08 Q1025 NOSIG",
      "taf": "TAF ENTO 030500Z 0306/0406 09005KT 9999 BKN040"
    },
    {
      "icao": "ENVA",
      "alert": "OK",
      "vis_m": 9999,
      "fzfg": false,
      "metar_trigger": false,
      "taf_trigger": false,
      "metar": "METAR ENVA 030950Z 08007KT CAVOK M08/M17 Q1022 RMK WIND 670FT 14013KT",
      "taf": "TAF ENVA 030500Z 0306/0406 09007KT CAVOK"
    },
    {
      "icao": "ENZV",
      "alert": "OK",
      "vis_m": 9999,
      "fzfg": false,
      "metar_trigger": false,
      "taf_trigger": false,
      "metar": "METAR ENZV 030950Z 09014KT CAVOK M02/M13 Q1018 NOSIG",
      "taf": "TAF ENZV 030500Z 0306/0406 09010KT CAVOK"
    },
    {
      "icao": "EPGD",
      "alert": "OK",
      "vis_m": 9000,
      "fzfg": false,
      "metar_trigger": false,
      "taf_trigger": false,
      "metar": "METAR EPGD 031000Z 12010KT 9000 NSC M09/M15 Q1020",
      "taf": "TAF EPGD 030530Z 0306/0406 VRB03KT CAVOK"
    },
    {
      "icao": "EPKK",
      "alert": "OK",
      "vis_m": 9999,
      "fzfg": false,
      "metar_trigger": false,
      "taf_trigger": false,
      "metar": "METAR EPKK 031000Z 06012KT CAVOK M08/M12 Q1014",
      "taf": "TAF EPKK 030830Z 0309/0409 06012KT CAVOK"
    },
    {
      "icao": "EPKT",
      "alert": "OK",
      "vis_m": 9999,
      "fzfg": false,
      "metar_trigger": false,
      "taf_trigger": false,
      "metar": "METAR EPKT 031000Z 07008KT CAVOK M07/M11 Q1013",
      "taf": "TAF EPKT 030530Z 0306/0406 08010KT 9999 BKN040"
    },
    {
      "icao": "EPLB",
      "alert": "OK",
      "vis_m": 9999,
      "fzfg": false,
      "metar_trigger": false,
      "taf_trigger": false,
      "metar": "METAR EPLB 031000Z 06007KT CAVOK M16/M19 Q1019",
      "taf": "TAF EPLB 030530Z 0306/0406 07002KT 4000 BR NSC"
    },
    {
      "icao": "EPMO",
      "alert": "OK",
      "vis_m": 9000,
      "fzfg": false,
      "metar_trigger": false,
      "taf_trigger": false,
      "metar": "METAR EPMO 031000Z 07008KT 9000 NSC M14/M17 Q1020",
      "taf": "TAF EPMO 030530Z 0306/0406 07005KT 8000 NSC"
    },
    {
      "icao": "EPPO",
      "alert": "OK",
      "vis_m": 9999,
      "fzfg": false,
      "metar_trigger": false,
      "taf_trigger": false,
      "metar": "METAR EPPO 031000Z 09012KT CAVOK M09/M19 Q1017",
      "taf": "TAF EPPO 030530Z 0306/0406 09014KT CAVOK"
    },
    {
      "icao": "EPRA",
      "alert": "OK",
      "vis_m": 9999,
      "fzfg": false,
      "metar_trigger": false,
      "taf_trigger": false,
      "metar": "METAR EPRA 031000Z 09006KT CAVOK M13/M21 Q1018",
      "taf": "TAF EPRA 030830Z 0309/0318 07006KT CAVOK"
    },
    {
      "icao": "EPRZ",
      "alert": "OK",
      "vis_m": 9999,
      "fzfg": false,
      "metar_trigger": false,
      "taf_trigger": false,
      "metar": "METAR EPRZ 031000Z 09012KT 9999 OVC011 M08/M12 Q1017",
      "taf": ""
    },
    {
      "icao": "EPSC",
      "alert": "OK",
      "vis_m": 9999,
      "fzfg": false,
      "metar_trigger": false,
      "taf_trigger": false,
      "metar": "METAR EPSC 031000Z 08011KT 040V110 CAVOK M08/M16 Q1017",
      "taf": "TAF EPSC 030530Z 0306/0406 09012KT CAVOK"
    },
    {
      "icao": "EPSY",
      "alert": "OK",
      "vis_m": 9999,
      "fzfg": false,
      "metar_trigger": false,
      "taf_trigger": false,
      "metar": "METAR EPSY 031000Z 07003KT 020V120 CAVOK M13/M16 Q1021",
      "taf": "TAF EPSY 030830Z 0309/0318 04005KT CAVOK"
    },
    {
      "icao": "EPWA",
      "alert": "OK",
      "vis_m": 9999,
      "fzfg": false,
      "metar_trigger": false,
      "taf_trigger": false,
      "metar": "METAR EPWA 031000Z 10005KT 070V140 CAVOK M12/M19 Q1020 NOSIG",
      "taf": "TAF EPWA 030830Z 0309/0409 09009KT CAVOK"
    },
    {
      "icao": "EPWR",
      "alert": "OK",
      "vis_m": 9999,
      "fzfg": false,
      "metar_trigger": false,
      "taf_trigger": false,
      "metar": "METAR EPWR 031000Z 10012KT 9999 SCT033 BKN037 M07/M12 Q1013",
      "taf": "TAF EPWR 030830Z 0309/0409 10012KT 9999 BKN020"
    },
    {
      "icao": "ESGG",
      "alert": "OK",
      "vis_m": 9999,
      "fzfg": false,
      "metar_trigger": false,
      "taf_trigger": false,
      "metar": "METAR ESGG 030950Z 10012KT 9999 FEW035 M04/M09 Q1021",
      "taf": "TAF ESGG 030830Z 0309/0409 10011KT 9999 SCT030"
    },
    {
      "icao": "ESKN",
      "alert": "OK",
      "vis_m": 9999,
      "fzfg": false,
      "metar_trigger": false,
      "taf_trigger": false,
      "metar": "METAR ESKN 030950Z 04006KT 9999 SCT019 M07/M11 Q1028",
      "taf": "TAF ESKN 030830Z 0309/0409 06005KT CAVOK"
    },
    {
      "icao": "ESMS",
      "alert": "OK",
      "vis_m": 9999,
      "fzfg": false,
      "metar_trigger": false,
      "taf_trigger": false,
      "metar": "METAR ESMS 030950Z 10016KT 9999 FEW024 M02/M07 Q1019",
      "taf": "TAF ESMS 030827Z 0309/0409 11015KT 9999 FEW040"
    },
    {
      "icao": "ESSA",
      "alert": "OK",
      "vis_m": 9999,
      "fzfg": false,
      "metar_trigger": false,
      "taf_trigger": false,
      "metar": "METAR ESSA 030950Z 36004KT 9999 BKN023 M10/M13 Q1029 NOSIG",
      "taf": "TAF ESSA 030830Z 0309/0409 03005KT 9999 BKN025"
    },
    {
      "icao": "EYKA",
      "alert": "OK",
      "vis_m": 9999,
      "fzfg": false,
      "metar_trigger": false,
      "taf_trigger": false,
      "metar": "METAR EYKA 031020Z 09005KT 050V110 CAVOK M13/M17 Q1023",
      "taf": "TAF EYKA 030500Z 0306/0406 VRB03KT 5000 BR NSC"
    },
    {
      "icao": "EYPA",
      "alert": "OK",
      "vis_m": 9999,
      "fzfg": false,
      "metar_trigger": false,
      "taf_trigger": false,
      "metar": "METAR EYPA 031020Z 08009KT CAVOK M08/M13 Q1024",
      "taf": "TAF EYPA 030500Z 0306/0406 VRB03KT 9000 NSC"
    },
    {
      "icao": "EYVI",
      "alert": "OK",
      "vis_m": 9999,
      "fzfg": false,
      "metar_trigger": false,
      "taf_trigger": false,
      "metar": "METAR EYVI 031020Z 05004KT CAVOK M13/M16 Q1021 NOSIG",
      "taf": "TAF EYVI 030500Z 0306/0406 VRB04KT 5000 BR NSC"
    },
    {
      "icao": "GCFV",
      "alert": "OK",
      "vis_m": 9999,
      "fzfg": false,
      "metar_trigger": false,
      "taf_trigger": false,
      "metar": "METAR GCFV 031000Z 33009KT 290V020 9999 FEW035 19/11 Q1019",
      "taf": "TAF GCFV 030800Z 0309/0409 32009KT 9999 FEW040 TX22/0314Z TN16/0406Z"
    },
    {
      "icao": "GCLP",
      "alert": "OK",
      "vis_m": 9999,
      "fzfg": false,
      "metar_trigger": false,
      "taf_trigger": false,
      "metar": "METAR GCLP 031000Z 36012KT 9999 FEW035 19/11 Q1019 NOSIG",
      "taf": "TAF GCLP 030800Z 0309/0409 36012KT 9999 SCT040 TX22/0314Z TN15/0406Z"
    },
    {
      "icao": "GCTS",
      "alert": "OK",
      "vis_m": 9999,
      "fzfg": false,
      "metar_trigger": false,
      "taf_trigger": false,
      "metar": "METAR GCTS 031000Z VRB01KT 9999 FEW030 20/12 Q1020 NOSIG",
      "taf": "TAF GCTS 030800Z 0309/0409 18007KT 9999 SCT035 TX23/0314Z TN15/0406Z"
    },
    {
      "icao": "GMAD",
      "alert": "OK",
      "vis_m": 8000,
      "fzfg": false,
      "metar_trigger": false,
      "taf_trigger": false,
      "metar": "METAR GMAD 031000Z 21006KT 8000 SCT030 BKN080 14/14 Q1016 NOSIG",
      "taf": "TAF GMAD 030500Z 0306/0412 06008KT 8000 BKN020"
    },
    {
      "icao": "GMMN",
      "alert": "OK",
      "vis_m": 9999,
      "fzfg": false,
      "metar_trigger": false,
      "taf_trigger": false,
      "metar": "METAR GMMN 031000Z 22015KT 190V250 9999 SCT013 BKN020 12/11 Q1013 RERA TEMPO 2000 RA BKN012",
      "taf": "TAF GMMN 030500Z 0306/0412 20014KT 9999 SCT010 SCT020"
    },
    {
      "icao": "GMMX",
      "alert": "OK",
      "vis_m": 9999,
      "fzfg": false,
      "metar_trigger": false,
      "taf_trigger": false,
      "metar": "METAR GMMX 031000Z 24008KT 210V270 9999 FEW026 SCT100 13/09 Q1016 NOSIG",
      "taf": "TAF GMMX 030500Z 0306/0412 24006KT 8000 SCT023 SCT080"
    },
    {
      "icao": "HEGN",
      "alert": "OK",
      "vis_m": 6000,
      "fzfg": false,
      "metar_trigger": false,
      "taf_trigger": false,
      "metar": "METAR HEGN 030900Z 32019KT 6000 NSC 22/05 Q1020 NOSIG",
      "taf": "TAF HEGN 030500Z 0306/0412 32013G26KT 6000 NSC"
    },
    {
      "icao": "HEMA",
      "alert": "OK",
      "vis_m": 6000,
      "fzfg": false,
      "metar_trigger": false,
      "taf_trigger": false,
      "metar": "METAR HEMA 030900Z 33016KT 6000 NSC 23/05 Q1019 NOSIG",
      "taf": "TAF HEMA 030500Z 0306/0412 33008G20KT 6000 NSC"
    },
    {
      "icao": "HESH",
      "alert": "OK",
      "vis_m": 9999,
      "fzfg": false,
      "metar_trigger": false,
      "taf_trigger": false,
      "metar": "METAR HESH 030900Z 01010KT CAVOK 23/06 Q1019 NOSIG",
      "taf": "TAF HESH 030500Z 0306/0412 33008G20KT 6000 NSC"
    },
    {
      "icao": "HESX",
      "alert": "OK",
      "vis_m": 9999,
      "fzfg": false,
      "metar_trigger": false,
      "taf_trigger": false,
      "metar": "METAR HESX 030900Z 30009KT CAVOK 18/08 Q1022 NOSIG",
      "taf": "TAF HESX 030500Z 0306/0412 26008KT CAVOK"
    },
    {
      "icao": "LATI",
      "alert": "OK",
      "vis_m": 9999,
      "fzfg": false,
      "metar_trigger": false,
      "taf_trigger": false,
      "metar": "METAR LATI 031020Z 15006KT 9999 BKN055 15/04 Q1016 NOSIG",
      "taf": "TAF LATI 030500Z 0306/0406 VRB05KT 9999 FEW030 BKN070 TX16/0312Z TN07/0405Z"
    },
    {
      "icao": "LBPD",
      "alert": "OK",
      "vis_m": 9999,
      "fzfg": false,
      "metar_trigger": false,
      "taf_trigger": false,
      "metar": "METAR LBPD 031000Z AUTO 09005KT 9999 OVC020/// M01/M02 Q1021 NOSIG",
      "taf": "TAF LBPD 030500Z 0306/0406 VRB03KT 8000 SCT008 BKN015"
    },
    {
      "icao": "LBSF",
      "alert": "OK",
      "vis_m": 9999,
      "fzfg": false,
      "metar_trigger": false,
      "taf_trigger": false,
      "metar": "METAR LBSF 031000Z 12003KT 090V170 9999 FEW012 BKN014 M00/M03 Q1018 NOSIG",
      "taf": "TAF LBSF 030500Z 0306/0406 VRB03KT 9999 BKN015 OVC030"
    },
    {
      "icao": "LBWN",
      "alert": "OK",
      "vis_m": 9999,
      "fzfg": false,
      "metar_trigger": false,
      "taf_trigger": false,
      "metar": "METAR LBWN 031000Z 11004KT 070V150 9999 FEW030 M01/M08 Q1022 NOSIG",
      "taf": "TAF LBWN 030500Z 0306/0406 VRB04KT 9999 BKN040"
    },
    {
      "icao": "LCLK",
      "alert": "OK",
      "vis_m": 9999,
      "fzfg": false,
      "metar_trigger": false,
      "taf_trigger": false,
      "metar": "METAR LCLK 031000Z 31020KT 9999 FEW020 19/09 Q1014 NOSIG",
      "taf": "TAF LCLK 030530Z 0306/0406 24010KT 9999 FEW020"
    },
    {
      "icao": "LCPH",
      "alert": "OK",
      "vis_m": 9999,
      "fzfg": false,
      "metar_trigger": false,
      "taf_trigger": false,
      "metar": "METAR LCPH 031000Z 31023KT 9999 SCT035 18/08 Q1016 NOSIG",
      "taf": "TAF LCPH 030530Z 0306/0406 29020G30KT 9999 FEW020"
    },
    {
      "icao": "LEAL",
      "alert": "OK",
      "vis_m": 9999,
      "fzfg": false,
      "metar_trigger": false,
      "taf_trigger": false,
      "metar": "METAR LEAL 031000Z 22003KT 190V260 CAVOK 12/05 Q1005 NOSIG",
      "taf": ""
    },
    {
      "icao": "LEBB",
      "alert": "OK",
      "vis_m": 9999,
      "fzfg": false,
      "metar_trigger": false,
      "taf_trigger": false,
      "metar": "METAR LEBB 031000Z 18010KT 140V240 9999 FEW035 12/02 Q0998 NOSIG",
      "taf": "TAF LEBB 030500Z 0306/0406 21009KT 9999 SCT040 TX14/0314Z TN07/0406Z"
    },
    {
      "icao": "LEBL",
      "alert": "OK",
      "vis_m": 9999,
      "fzfg": false,
      "metar_trigger": false,
      "taf_trigger": false,
      "metar": "METAR LEBL 031000Z 32005KT 250V030 9999 FEW025 12/06 Q1003 NOSIG",
      "taf": "TAF LEBL 030500Z 0306/0406 29005KT 9999 FEW020 TX15/0314Z TN08/0306Z"
    },
    {
      "icao": "LECH",
      "alert": "OK",
      "vis_m": 9999,
      "fzfg": false,
      "metar_trigger": false,
      "taf_trigger": false,
      "metar": "METAR LECH 031000Z AUTO 27009KT 240V300 CAVOK 10/02 Q1003",
      "taf": ""
    },
    {
      "icao": "LEMD",
      "alert": "OK",
      "vis_m": 9000,
      "fzfg": false,
      "metar_trigger": false,
      "taf_trigger": false,
      "metar": "METAR LEMD 031000Z 21008KT 120V290 9000 -RA FEW013 SCT028 BKN060 05/05 Q1002 NOSIG",
      "taf": ""
    },
    {
      "icao": "LEMG",
      "alert": "OK",
      "vis_m": 9999,
      "fzfg": false,
      "metar_trigger": false,
      "taf_trigger": false,
      "metar": "METAR LEMG 031000Z 31002KT 9999 FEW010 SCT065 09/08 Q1008 NOSIG",
      "taf": "TAF LEMG 030500Z 0306/0406 29005KT 9999 FEW025 SCT040 TX17/0314Z TN09/0307Z"
    },
    {
      "icao": "LEVC",
      "alert": "OK",
      "vis_m": 9999,
      "fzfg": false,
      "metar_trigger": false,
      "taf_trigger": false,
      "metar": "METAR LEVC 031000Z 26006KT 9999 FEW050 12/04 Q1005 NOSIG",
      "taf": "TAF LEVC 030500Z 0306/0406 25007KT 9999 FEW030 TX16/0313Z TN08/0306Z"
    },
    {
      "icao": "LEXJ",
      "alert": "OK",
      "vis_m": 9999,
      "fzfg": false,
      "metar_trigger": false,
      "taf_trigger": false,
      "metar": "METAR LEXJ 031000Z 20018KT 160V240 9999 FEW060 12/02 Q0996",
      "taf": "TAF LEXJ 030800Z 0309/0409 23009KT 9999 FEW040 TX15/0312Z TN08/0407Z"
    },
    {
      "icao": "LEZG",
      "alert": "OK",
      "vis_m": 9999,
      "fzfg": false,
      "metar_trigger": false,
      "taf_trigger": false,
      "metar": "METAR LEZG 031000Z 13008KT 9999 BKN075 10/04 Q1002 NOSIG",
      "taf": "TAF LEZG 030500Z 0306/0406 23009KT 9999 FEW050 TX13/0314Z TN04/0306Z"
    },
    {
      "icao": "LEZL",
      "alert": "OK",
      "vis_m": 9999,
      "fzfg": false,
      "metar_trigger": false,
      "taf_trigger": false,
      "metar": "METAR LEZL 031000Z 22006KT CAVOK 12/09 Q1006 NOSIG",
      "taf": "TAF LEZL 030800Z 0309/0409 22008KT 9999 SCT020 TX15/0315Z TN12/0407Z"
    },
    {
      "icao": "LFBD",
      "alert": "OK",
      "vis_m": 9999,
      "fzfg": false,
      "metar_trigger": false,
      "taf_trigger": false,
      "metar": "METAR LFBD 031000Z AUTO 17010KT CAVOK 10/07 Q0997 NOSIG",
      "taf": ""
    },
    {
      "icao": "LFLL",
      "alert": "OK",
      "vis_m": 9999,
      "fzfg": false,
      "metar_trigger": false,
      "taf_trigger": false,
      "metar": "METAR LFLL 031000Z 19021KT 9999 FEW020 BKN086 10/06 Q1000 NOSIG",
      "taf": "TAF LFLL 030500Z 0306/0412 17010KT CAVOK"
    },
    {
      "icao": "LFLS",
      "alert": "OK",
      "vis_m": 9999,
      "fzfg": false,
      "metar_trigger": false,
      "taf_trigger": false,
      "metar": "METAR LFLS 031000Z AUTO 21010KT 170V250 9999 BKN018 BKN037 09/05 Q1001 TEMPO BKN011",
      "taf": "TAF LFLS 030800Z 0309/0409 19009KT 9999 BKN055"
    },
    {
      "icao": "LFMN",
      "alert": "OK",
      "vis_m": 9999,
      "fzfg": false,
      "metar_trigger": false,
      "taf_trigger": false,
      "metar": "METAR LFMN 031000Z 07011KT 9999 SCT027 13/10 Q1004 NOSIG",
      "taf": "TAF LFMN 030800Z 0309/0415 10012KT CAVOK"
    },
    {
      "icao": "LFOB",
      "alert": "OK",
      "vis_m": 3800,
      "fzfg": false,
      "metar_trigger": false,
      "taf_trigger": false,
      "metar": "METAR LFOB 031000Z AUTO VRB03KT 3800 BR OVC003 06/06 Q0990 TEMPO 2000 RA",
      "taf": ""
    },
    {
      "icao": "LFPO",
      "alert": "OK",
      "vis_m": 9000,
      "fzfg": false,
      "metar_trigger": false,
      "taf_trigger": false,
      "metar": "METAR LFPO 031000Z 24011KT 9000 -RA FEW013 BKN053 09/08 Q0992 NOSIG",
      "taf": ""
    },
    {
      "icao": "LFSB",
      "alert": "OK",
      "vis_m": 6000,
      "fzfg": false,
      "metar_trigger": false,
      "taf_trigger": false,
      "metar": "METAR LFSB 031000Z AUTO VRB02KT 6000 OVC005 04/04 Q0998 TEMPO SHRA FEW040TCU",
      "taf": ""
    },
    {
      "icao": "LGAV",
      "alert": "OK",
      "vis_m": 9999,
      "fzfg": false,
      "metar_trigger": false,
      "taf_trigger": false,
      "metar": "METAR LGAV 030950Z VRB03KT 9999 FEW025 14/06 Q1020 NOSIG",
      "taf": "TAF LGAV 030500Z 0306/0406 VRB05KT 9999 FEW020"
    },
    {
      "icao": "LGTS",
      "alert": "OK",
      "vis_m": 9999,
      "fzfg": false,
      "metar_trigger": false,
      "taf_trigger": false,
      "metar": "METAR LGTS 030950Z 27005KT 9999 FEW025 SCT045 09/07 Q1020 NOSIG",
      "taf": ""
    },
    {
      "icao": "LHBP",
      "alert": "OK",
      "vis_m": 1200,
      "fzfg": false,
      "metar_trigger": false,
      "taf_trigger": false,
      "metar": "METAR LHBP 031000Z 11012KT 1200 R13R/1300D R13L/1400D +SN DRSN SCT006 OVC015 M02/M03 Q1014 TEMPO 0700 +SN DRSN VV004",
      "taf": ""
    },
    {
      "icao": "LHDC",
      "alert": "OK",
      "vis_m": 9999,
      "fzfg": false,
      "metar_trigger": false,
      "taf_trigger": false,
      "metar": "METAR LHDC 030945Z AUTO 09005KT CAVOK 01/M02 Q1016 NOSIG",
      "taf": "TAF LHDC 030815Z 0309/0318 08006KT CAVOK"
    },
    {
      "icao": "LIBD",
      "alert": "OK",
      "vis_m": 9999,
      "fzfg": false,
      "metar_trigger": false,
      "taf_trigger": false,
      "metar": "METAR LIBD 030950Z 17005KT CAVOK 14/09 Q1011",
      "taf": "TAF LIBD 030500Z 0306/0406 18010KT 9999 FEW030"
    },
    {
      "icao": "LIBG",
      "alert": "OK",
      "vis_m": 9999,
      "fzfg": false,
      "metar_trigger": false,
      "taf_trigger": false,
      "metar": "METAR LIBG 030950Z 17015KT 9999 FEW010 SCT020 16/12 Q1013",
      "taf": "TAF LIBG 030800Z 0309/0318 15012KT 9999 FEW040"
    },
    {
      "icao": "LIBP",
      "alert": "OK",
      "vis_m": 9999,
      "fzfg": false,
      "metar_trigger": false,
      "taf_trigger": false,
      "metar": "METAR LIBP 030950Z AUTO 04006KT 9999 SCT150/// 12/06 Q1008",
      "taf": "TAF LIBP 030500Z 0306/0406 VRB05KT 9999 SCT050"
    },
    {
      "icao": "LIBR",
      "alert": "OK",
      "vis_m": 9999,
      "fzfg": false,
      "metar_trigger": false,
      "taf_trigger": false,
      "metar": "METAR LIBR 030950Z 18016KT 9999 BKN020 15/11 Q1013",
      "taf": "TAF LIBR 030500Z 0306/0406 16010KT 9999 FEW030"
    },
    {
      "icao": "LICA",
      "alert": "OK",
      "vis_m": 9999,
      "fzfg": false,
      "metar_trigger": false,
      "taf_trigger": false,
      "metar": "METAR LICA 030950Z AUTO 08014KT 9999 NCD 16/10 Q1012",
      "taf": "TAF LICA 030500Z 0306/0406 07013KT 9999 SCT025"
    },
    {
      "icao": "LICC",
      "alert": "OK",
      "vis_m": 9999,
      "fzfg": false,
      "metar_trigger": false,
      "taf_trigger": false,
      "metar": "METAR LICC 030950Z 23009KT CAVOK 14/12 Q1014",
      "taf": "TAF LICC 030500Z 0306/0406 24014KT 9999 FEW030"
    },
    {
      "icao": "LICJ",
      "alert": "OK",
      "vis_m": 9999,
      "fzfg": false,
      "metar_trigger": false,
      "taf_trigger": false,
      "metar": "METAR LICJ 030950Z 19019KT CAVOK 19/06 Q1010",
      "taf": "TAF LICJ 030500Z 0306/0406 18018G28KT 9999 SCT030"
    },
    {
      "icao": "LIMC",
      "alert": "OK",
      "vis_m": 6000,
      "fzfg": false,
      "metar_trigger": false,
      "taf_trigger": false,
      "metar": "METAR LIMC 030950Z 36005KT 6000 BKN025 02/02 Q1007 NOSIG",
      "taf": "TAF LIMC 030500Z 0306/0412 VRB05KT 3000 RA BKN010"
    },
    {
      "icao": "LIME",
      "alert": "OK",
      "vis_m": 6000,
      "fzfg": false,
      "metar_trigger": false,
      "taf_trigger": false,
      "metar": "METAR LIME 030950Z 26005KT 6000 SCT005 BKN020 04/04 Q1006 NOSIG",
      "taf": "TAF LIME 030500Z 0306/0406 VRB05KT 4000 RA BKN020"
    },
    {
      "icao": "LIMF",
      "alert": "OK",
      "vis_m": 6000,
      "fzfg": false,
      "metar_trigger": false,
      "taf_trigger": false,
      "metar": "METAR LIMF 030950Z VRB02KT 6000 SCT030 03/01 Q1007",
      "taf": "TAF LIMF 030500Z 0306/0406 VRB05KT 2000 SNRA BKN015"
    },
    {
      "icao": "LIMJ",
      "alert": "OK",
      "vis_m": 9999,
      "fzfg": false,
      "metar_trigger": false,
      "taf_trigger": false,
      "metar": "METAR LIMJ 030950Z 04014KT 9999 SCT037 SCT050 06/02 Q1006",
      "taf": "TAF LIMJ 030500Z 0306/0406 04015KT 4000 RA SCT020 BKN030"
    },
    {
      "icao": "LIPE",
      "alert": "OK",
      "vis_m": 4000,
      "fzfg": false,
      "metar_trigger": false,
      "taf_trigger": false,
      "metar": "METAR LIPE 030950Z 29005KT 250V360 4000 -RA BR BKN004 BKN012 06/06 Q1006",
      "taf": "TAF LIPE 030500Z 0306/0406 VRB05KT 6000 BKN015"
    },
    {
      "icao": "LIPH",
      "alert": "OK",
      "vis_m": 3000,
      "fzfg": false,
      "metar_trigger": false,
      "taf_trigger": false,
      "metar": "METAR LIPH 030950Z 04006KT 010V070 3000 -RA BR BKN004 BKN015 06/06 Q1007",
      "taf": "TAF LIPH 030500Z 0306/0406 05010KT 5000 RA SCT010 BKN020"
    },
    {
      "icao": "LIPQ",
      "alert": "OK",
      "vis_m": 8000,
      "fzfg": false,
      "metar_trigger": false,
      "taf_trigger": false,
      "metar": "METAR LIPQ 030950Z AUTO 03004KT 8000 -RA OVC013/// 07/07 Q1007 RERA",
      "taf": "TAF LIPQ 030500Z 0306/0406 05006KT 4000 RA BKN020"
    },
    {
      "icao": "LIPR",
      "alert": "OK",
      "vis_m": 9999,
      "fzfg": false,
      "metar_trigger": false,
      "taf_trigger": false,
      "metar": "METAR LIPR 030950Z VRB03KT 9999 SCT040 13/08 Q1006",
      "taf": "TAF LIPR 030500Z 0306/0406 14010KT 9999 BKN040"
    },
    {
      "icao": "LIPX",
      "alert": "OK",
      "vis_m": 9999,
      "fzfg": false,
      "metar_trigger": false,
      "taf_trigger": false,
      "metar": "METAR LIPX 030950Z 26007KT 9999 FEW004 BKN010 BKN020 06/06 Q1007",
      "taf": "TAF LIPX 030500Z 0306/0406 08010KT 4000 RA BKN030"
    },
    {
      "icao": "LIPY",
      "alert": "OK",
      "vis_m": 9999,
      "fzfg": false,
      "metar_trigger": false,
      "taf_trigger": false,
      "metar": "METAR LIPY 030950Z AUTO 18005KT 100V220 9999 FEW055/// BKN150/// 13/05 Q1007",
      "taf": "TAF LIPY 030500Z 0306/0406 15010KT 9999 BKN050"
    },
    {
      "icao": "LIPZ",
      "alert": "OK",
      "vis_m": 7000,
      "fzfg": false,
      "metar_trigger": false,
      "taf_trigger": false,
      "metar": "METAR LIPZ 030950Z 04012KT 7000 -RA SCT004 BKN010 06/06 Q1006 WS R04R NOSIG",
      "taf": "TAF LIPZ 030500Z 0306/0412 05012KT 5000 RA SCT010 BKN020"
    },
    {
      "icao": "LIRF",
      "alert": "OK",
      "vis_m": 9999,
      "fzfg": false,
      "metar_trigger": false,
      "taf_trigger": false,
      "metar": "METAR LIRF 030950Z 13015KT 9999 -RA SCT025 BKN040 14/10 Q1009 NOSIG",
      "taf": "TAF LIRF 030500Z 0306/0412 15015KT 9999 SCT030"
    },
    {
      "icao": "LIRN",
      "alert": "OK",
      "vis_m": 9999,
      "fzfg": false,
      "metar_trigger": false,
      "taf_trigger": false,
      "metar": "METAR LIRN 030950Z VRB02KT 9999 SCT075 16/06 Q1011 NOSIG",
      "taf": "TAF LIRN 030500Z 0306/0406 18012KT 9999 SCT030"
    },
    {
      "icao": "LIRP",
      "alert": "OK",
      "vis_m": 9999,
      "fzfg": false,
      "metar_trigger": false,
      "taf_trigger": false,
      "metar": "METAR LIRP 030945Z VRB02KT 9999 RA SCT010TCU BKN030 12/12 Q1006 NOSIG",
      "taf": "TAF LIRP 030500Z 0306/0406 13010KT 9999 RA FEW020 SCT050"
    },
    {
      "icao": "LIRZ",
      "alert": "OK",
      "vis_m": 9999,
      "fzfg": false,
      "metar_trigger": false,
      "taf_trigger": false,
      "metar": "METAR LIRZ 030950Z AUTO 17004KT 9999 BKN033/// 12/07 Q1008",
      "taf": "TAF LIRZ 030500Z 0306/0406 18010KT 9999 BKN035"
    },
    {
      "icao": "LJLJ",
      "alert": "OK",
      "vis_m": 4000,
      "fzfg": false,
      "metar_trigger": false,
      "taf_trigger": false,
      "metar": "METAR LJLJ 031000Z VRB02KT 4000 -RA BR BKN003 OVC023 02/02 Q1008 NOSIG",
      "taf": "TAF LJLJ 030500Z 0306/0406 11002KT 3000 -RA BR SCT002 BKN005 OVC020"
    },
    {
      "icao": "LKMT",
      "alert": "OK",
      "vis_m": 9000,
      "fzfg": false,
      "metar_trigger": false,
      "taf_trigger": false,
      "metar": "METAR LKMT 031000Z 03007KT 9000 OVC033 M07/M11 Q1012 NOSIG",
      "taf": "TAF LKMT 030500Z 0306/0406 02010KT 9999 BKN035"
    },
    {
      "icao": "LKPR",
      "alert": "OK",
      "vis_m": 9999,
      "fzfg": false,
      "metar_trigger": false,
      "taf_trigger": false,
      "metar": "METAR LKPR 031000Z 11014KT 9999 FEW010 OVC016 M00/M03 Q1005 NOSIG",
      "taf": "TAF LKPR 030800Z 0309/0415 10010KT 6000 SCT007 OVC014"
    },
    {
      "icao": "LLBG",
      "alert": "OK",
      "vis_m": 9999,
      "fzfg": false,
      "metar_trigger": false,
      "taf_trigger": false,
      "metar": "METAR LLBG 031020Z 28015KT 9999 SCT030 19/11 Q1018 NOSIG",
      "taf": "TAF LLBG 030506Z 0306/0406 16008KT 8000 SCT030"
    },
    {
      "icao": "LMML",
      "alert": "OK",
      "vis_m": 9999,
      "fzfg": false,
      "metar_trigger": false,
      "taf_trigger": false,
      "metar": "METAR LMML 031015Z 17012KT CAVOK 18/14 Q1014 NOSIG",
      "taf": "TAF LMML 030500Z 0306/0406 19015KT CAVOK"
    },
    {
      "icao": "LOWW",
      "alert": "OK",
      "vis_m": 9999,
      "fzfg": false,
      "metar_trigger": false,
      "taf_trigger": false,
      "metar": "METAR LOWW 030950Z 12013KT 9999 FEW009 OVC010 M01/M03 Q1008 NOSIG",
      "taf": "TAF LOWW 030815Z 0309/0415 12015KT 9999 BKN012 TX01/0414Z TNM01/0309Z"
    },
    {
      "icao": "LPFR",
      "alert": "OK",
      "vis_m": 9999,
      "fzfg": false,
      "metar_trigger": false,
      "taf_trigger": false,
      "metar": "METAR LPFR 031000Z 30007KT 9999 FEW015 FEW018TCU SCT030 12/09 Q1006",
      "taf": "TAF LPFR 030500Z 0306/0406 28013KT 9999 FEW015 SCT030"
    },
    {
      "icao": "LPMA",
      "alert": "OK",
      "vis_m": 9999,
      "fzfg": false,
      "metar_trigger": false,
      "taf_trigger": false,
      "metar": "METAR LPMA 031000Z VRB02KT 9999 FEW015 17/09 Q1016",
      "taf": "TAF LPMA 030500Z 0306/0406 VRB05KT 9999 SCT015"
    },
    {
      "icao": "LPPR",
      "alert": "OK",
      "vis_m": 9999,
      "fzfg": false,
      "metar_trigger": false,
      "taf_trigger": false,
      "metar": "METAR LPPR 031000Z 22005KT 180V260 9999 FEW015 FEW020CB BKN040 11/09 Q0998",
      "taf": "TAF LPPR 030500Z 0306/0406 22012KT 9999 FEW015 SCT030"
    },
    {
      "icao": "LPPS",
      "alert": "OK",
      "vis_m": 9999,
      "fzfg": false,
      "metar_trigger": false,
      "taf_trigger": false,
      "metar": "METAR LPPS 031000Z 28015KT 9999 FEW014 17/11 Q1016",
      "taf": "TAF LPPS 030500Z 0306/0412 30017KT 9999 SCT015"
    },
    {
      "icao": "LPPT",
      "alert": "OK",
      "vis_m": 9999,
      "fzfg": false,
      "metar_trigger": false,
      "taf_trigger": false,
      "metar": "METAR LPPT 031000Z 24007KT 9999 -SHRA FEW025 FEW030TCU 10/08 Q1003",
      "taf": "TAF LPPT 030500Z 0306/0412 23008KT 9999 FEW015 SCT030"
    },
    {
      "icao": "LQBK",
      "alert": "OK",
      "vis_m": 8000,
      "fzfg": false,
      "metar_trigger": false,
      "taf_trigger": false,
      "metar": "METAR LQBK 031000Z VRB02KT 8000 NSC 03/00 Q1010 NOSIG",
      "taf": ""
    },
    {
      "icao": "LQSA",
      "alert": "OK",
      "vis_m": 9999,
      "fzfg": false,
      "metar_trigger": false,
      "taf_trigger": false,
      "metar": "METAR LQSA 031000Z 31005KT 9999 FEW050 06/03 Q1011 TEMPO 15012KT",
      "taf": "TAF LQSA 030500Z 0306/0406 10008KT 9999 SCT050 TX13/0313Z TNM02/0306Z"
    },
    {
      "icao": "LQTZ",
      "alert": "OK",
      "vis_m": 9999,
      "fzfg": false,
      "metar_trigger": false,
      "taf_trigger": false,
      "metar": "METAR LQTZ 031000Z 11011KT CAVOK 11/04 Q1010",
      "taf": "TAF LQTZ 030500Z 0306/0406 06005KT CAVOK TX13/0314Z TNM02/0306Z"
    },
    {
      "icao": "LRBC",
      "alert": "OK",
      "vis_m": 9999,
      "fzfg": false,
      "metar_trigger": false,
      "taf_trigger": false,
      "metar": "METAR LRBC 031000Z 15010KT 9999 SCT065 M04/M12 Q1020",
      "taf": "TAF LRBC 030800Z 0309/0318 16010KT CAVOK"
    },
    {
      "icao": "LRBS",
      "alert": "OK",
      "vis_m": 9999,
      "fzfg": false,
      "metar_trigger": false,
      "taf_trigger": false,
      "metar": "METAR LRBS 031000Z VRB03KT CAVOK M02/M11 Q1022 NOSIG",
      "taf": "TAF LRBS 030500Z 0306/0406 23005KT 5000 BR NSC"
    },
    {
      "icao": "LRBV",
      "alert": "OK",
      "vis_m": 9999,
      "fzfg": false,
      "metar_trigger": false,
      "taf_trigger": false,
      "metar": "METAR LRBV 031000Z 06002KT CAVOK 00/M06 Q1015",
      "taf": "TAF LRBV 030800Z 0309/0318 VRB04KT CAVOK"
    },
    {
      "icao": "LRCL",
      "alert": "OK",
      "vis_m": 9999,
      "fzfg": false,
      "metar_trigger": false,
      "taf_trigger": false,
      "metar": "METAR LRCL 031000Z 12003KT 080V180 9999 SCT010 SCT015 02/M02 Q1016",
      "taf": "TAF LRCL 030800Z 0309/0318 VRB04KT 9999 OVC010"
    },
    {
      "icao": "LRCV",
      "alert": "OK",
      "vis_m": 9999,
      "fzfg": false,
      "metar_trigger": false,
      "taf_trigger": false,
      "metar": "METAR LRCV 031000Z VRB01KT 9999 OVC026 M05/M09 Q1021",
      "taf": "TAF LRCV 030800Z 0309/0318 VRB04KT 9999 BKN030"
    },
    {
      "icao": "LRIA",
      "alert": "OK",
      "vis_m": 9999,
      "fzfg": false,
      "metar_trigger": false,
      "taf_trigger": false,
      "metar": "METAR LRIA 031000Z 11009KT CAVOK M06/M13 Q1021",
      "taf": "TAF LRIA 030800Z 0309/0318 11009KT CAVOK"
    },
    {
      "icao": "LROP",
      "alert": "OK",
      "vis_m": 9999,
      "fzfg": false,
      "metar_trigger": false,
      "taf_trigger": false,
      "metar": "METAR LROP 031000Z 27005KT CAVOK M02/M15 Q1022 NOSIG",
      "taf": "TAF LROP 030500Z 0306/0406 23005KT 5000 BR NSC"
    },
    {
      "icao": "LRSB",
      "alert": "OK",
      "vis_m": 9999,
      "fzfg": false,
      "metar_trigger": false,
      "taf_trigger": false,
      "metar": "METAR LRSB 031000Z VRB01KT CAVOK 02/M04 Q1015",
      "taf": "TAF LRSB 030500Z 0306/0406 VRB04KT CAVOK"
    },
    {
      "icao": "LRSM",
      "alert": "OK",
      "vis_m": 9999,
      "fzfg": false,
      "metar_trigger": false,
      "taf_trigger": false,
      "metar": "METAR LRSM 031000Z 10008KT 9999 FEW011 03/M01 Q1017",
      "taf": "TAF LRSM 030800Z 0309/0318 VRB04KT 9999 BKN040"
    },
    {
      "icao": "LRSV",
      "alert": "OK",
      "vis_m": 9999,
      "fzfg": false,
      "metar_trigger": false,
      "taf_trigger": false,
      "metar": "METAR LRSV 031000Z 13005KT 090V160 CAVOK M07/M12 Q1017",
      "taf": "TAF LRSV 030800Z 0309/0318 11008KT 9999 BKN045"
    },
    {
      "icao": "LRTM",
      "alert": "OK",
      "vis_m": 9999,
      "fzfg": false,
      "metar_trigger": false,
      "taf_trigger": false,
      "metar": "METAR LRTM 031000Z VRB02KT 9999 SCT022 03/M01 Q1016",
      "taf": "TAF LRTM 030800Z 0309/0318 VRB04KT CAVOK"
    },
    {
      "icao": "LRTR",
      "alert": "OK",
      "vis_m": 9999,
      "fzfg": false,
      "metar_trigger": false,
      "taf_trigger": false,
      "metar": "METAR LRTR 031000Z 10010KT CAVOK 01/M01 Q1016 NOSIG",
      "taf": "TAF LRTR 030500Z 0306/0406 10010KT 9999 BKN045"
    },
    {
      "icao": "LTAC",
      "alert": "OK",
      "vis_m": 9999,
      "fzfg": false,
      "metar_trigger": false,
      "taf_trigger": false,
      "metar": "METAR LTAC 030950Z 31009KT 270V360 9999 BKN029 05/M02 Q1016 NOSIG",
      "taf": "TAF LTAC 030440Z 0306/0406 VRB02KT 9999 SCT040 BKN100"
    },
    {
      "icao": "LTFM",
      "alert": "OK",
      "vis_m": 9999,
      "fzfg": false,
      "metar_trigger": false,
      "taf_trigger": false,
      "metar": "METAR LTFM 030950Z 04003KT 350V090 9999 BKN013 BKN028 03/M01 Q1022 NOSIG",
      "taf": "TAF LTFM 030440Z 0306/0412 36010KT 9999 BKN012 BKN028"
    },
    {
      "icao": "LUKK",
      "alert": "OK",
      "vis_m": 9999,
      "fzfg": false,
      "metar_trigger": false,
      "taf_trigger": false,
      "metar": "METAR LUKK 031000Z VRB02KT CAVOK M07/M15 Q1022 NOSIG",
      "taf": "TAF LUKK 030506Z 0306/0406 VRB06KT CAVOK"
    },
    {
      "icao": "LWOH",
      "alert": "OK",
      "vis_m": 9999,
      "fzfg": false,
      "metar_trigger": false,
      "taf_trigger": false,
      "metar": "METAR LWOH 031020Z VRB02KT 9999 FEW040 08/03 Q1017",
      "taf": "TAF LWOH 030840Z 0309/0409 VRB02KT 9999 SCT040"
    },
    {
      "icao": "LWSK",
      "alert": "OK",
      "vis_m": 9999,
      "fzfg": false,
      "metar_trigger": false,
      "taf_trigger": false,
      "metar": "METAR LWSK 031020Z VRB02KT 9999 BKN023 04/01 Q1020 NOSIG",
      "taf": "TAF LWSK 030840Z 0309/0409 VRB02KT 9999 BKN020"
    },
    {
      "icao": "LYBE",
      "alert": "OK",
      "vis_m": 9999,
      "fzfg": false,
      "metar_trigger": false,
      "taf_trigger": false,
      "metar": "METAR LYBE 031000Z 13009KT CAVOK 04/M02 Q1014 NOSIG",
      "taf": "TAF LYBE 030500Z 0306/0406 10008KT CAVOK TX07/0313Z TNM03/0306Z"
    },
    {
      "icao": "LYNI",
      "alert": "OK",
      "vis_m": 9999,
      "fzfg": false,
      "metar_trigger": false,
      "taf_trigger": false,
      "metar": "METAR LYNI 031000Z VRB02KT CAVOK 05/M01 Q1017 NOSIG",
      "taf": "TAF LYNI 030500Z 0306/0406 08006KT CAVOK TX06/0313Z TNM03/0306Z"
    },
    {
      "icao": "LYPG",
      "alert": "OK",
      "vis_m": 9999,
      "fzfg": false,
      "metar_trigger": false,
      "taf_trigger": false,
      "metar": "METAR LYPG 031000Z VRB01KT 9999 FEW034 BKN050 BKN080 07/05 Q1017 NOSIG",
      "taf": "TAF LYPG 030500Z 0306/0406 36005KT 9999 FEW020 BKN043 BKN080 TX12/0316Z TN04/0306Z"
    },
    {
      "icao": "LZIB",
      "alert": "OK",
      "vis_m": 9999,
      "fzfg": false,
      "metar_trigger": false,
      "taf_trigger": false,
      "metar": "METAR LZIB 031000Z 09015KT 9999 FEW009 OVC010 M01/M03 Q1011 TEMPO -FZRA OVC009",
      "taf": ""
    },
    {
      "icao": "LZKZ",
      "alert": "OK",
      "vis_m": 8000,
      "fzfg": false,
      "metar_trigger": false,
      "taf_trigger": false,
      "metar": "METAR LZKZ 031000Z 00000KT 8000 -SN OVC017 M02/M04 Q1016 NOSIG",
      "taf": "TAF LZKZ 030515Z 0306/0406 VRB02KT 9999 BKN017"
    },
    {
      "icao": "LZTT",
      "alert": "OK",
      "vis_m": 9999,
      "fzfg": false,
      "metar_trigger": false,
      "taf_trigger": false,
      "metar": "METAR LZTT 031000Z 17006KT 9999 -SN FEW011 BKN029 M02/M04 Q1011 TEMPO BKN013 OVC026",
      "taf": "TAF LZTT 030515Z 0306/0406 17004KT 9999 OVC020"
    },
    {
      "icao": "OEJN",
      "alert": "OK",
      "vis_m": 9999,
      "fzfg": false,
      "metar_trigger": false,
      "taf_trigger": false,
      "metar": "METAR OEJN 031000Z 28010KT CAVOK 30/17 Q1014 NOSIG",
      "taf": "TAF OEJN 030500Z 0306/0412 33012KT 7000 SCT040"
    },
    {
      "icao": "OEMA",
      "alert": "OK",
      "vis_m": 9999,
      "fzfg": false,
      "metar_trigger": false,
      "taf_trigger": false,
      "metar": "METAR OEMA 031000Z 28010KT CAVOK 29/08 Q1017 NOSIG",
      "taf": "TAF OEMA 030500Z 0306/0412 30012KT 7000 NSC"
    },
    {
      "icao": "OJAI",
      "alert": "OK",
      "vis_m": 3000,
      "fzfg": false,
      "metar_trigger": false,
      "taf_trigger": false,
      "metar": "METAR OJAI 030900Z 25021KT 3000 -DZ SCT025 SCT030 12/08 Q1019 NOSIG",
      "taf": ""
    },
    {
      "icao": "OMAA",
      "alert": "OK",
      "vis_m": 9999,
      "fzfg": false,
      "metar_trigger": false,
      "taf_trigger": false,
      "metar": "METAR OMAA 031000Z VRB03KT CAVOK 28/M00 Q1016 BECMG 35010KT",
      "taf": "TAF OMAA 030500Z 0306/0412 20005KT 8000 NSC"
    },
    {
      "icao": "OMDB",
      "alert": "OK",
      "vis_m": 9999,
      "fzfg": false,
      "metar_trigger": false,
      "taf_trigger": false,
      "metar": "METAR OMDB 031000Z 31008KT 280V340 CAVOK 27/13 Q1016 NOSIG",
      "taf": "TAF OMDB 030500Z 0306/0412 VRB02KT 4000 HZ NSC"
    },
    {
      "icao": "UAAA",
      "alert": "OK",
      "vis_m": 9999,
      "fzfg": false,
      "metar_trigger": false,
      "taf_trigger": false,
      "metar": "METAR UAAA 031000Z 30003MPS 9999 FEW050 BKN100 09/02 Q1018 NOSIG",
      "taf": "TAF UAAA 030505Z 0306/0406 22003MPS 9999 SCT050CB BKN100 TX09/0309Z TNM01/0402Z"
    },
    {
      "icao": "UBBB",
      "alert": "OK",
      "vis_m": 9999,
      "fzfg": false,
      "metar_trigger": false,
      "taf_trigger": false,
      "metar": "METAR UBBB 031000Z 32014KT 9999 OVC012 07/05 Q1008 NOSIG",
      "taf": ""
    },
    {
      "icao": "UDSG",
      "alert": "OK",
      "vis_m": 2800,
      "fzfg": false,
      "metar_trigger": false,
      "taf_trigger": false,
      "metar": "METAR UDSG 031000Z 25001KT 2800 BR OVC026 03/03 Q1010 NOSIG",
      "taf": "TAF UDSG 030458Z 0306/0406 VRB06KT 5000 BR OVC030"
    },
    {
      "icao": "UDYZ",
      "alert": "OK",
      "vis_m": 3000,
      "fzfg": false,
      "metar_trigger": false,
      "taf_trigger": false,
      "metar": "METAR UDYZ 031000Z 26005KT 3000 BR BKN036CB 06/04 Q1010 NOSIG",
      "taf": "TAF UDYZ 030500Z 0306/0406 24006KT 1500 BR BKN020"
    },
    {
      "icao": "UGKO",
      "alert": "OK",
      "vis_m": 9999,
      "fzfg": false,
      "metar_trigger": false,
      "taf_trigger": false,
      "metar": "METAR UGKO 031000Z 25028G42KT 9999 SCT019 BKN037 10/07 Q1011 NOSIG",
      "taf": "TAF UGKO 030500Z 0306/0406 09007KT 9999 BKN050 TX11/0311Z TN04/0403Z"
    }
  ]
}