{
  "ts_utc": "2026-05-24T14:16:43Z",
  "threshold_m": 150,
  "source": "stations_override.txt (ICAO list) + aviationweather.gov (METAR/TAF raw)",
  "station_count": 159,
  "stations": [
    {
      "icao": "BIKF",
      "alert": "OK",
      "vis_m": 9999,
      "fzfg": false,
      "metar_trigger": false,
      "taf_trigger": false,
      "metar": "METAR BIKF 241400Z 20014KT 9999 FEW024TCU BKN030 09/04 Q1007",
      "taf": "TAF BIKF 241347Z 2415/2515 19014KT 9999 -SHRA SCT015TCU BKN025 TX10/2415Z TN06/2505Z"
    },
    {
      "icao": "BKPR",
      "alert": "OK",
      "vis_m": 9999,
      "fzfg": false,
      "metar_trigger": false,
      "taf_trigger": false,
      "metar": "METAR BKPR 241400Z 35009KT 9999 FEW035TCU SCT050 24/12 Q1024 NOSIG",
      "taf": "TAF BKPR 241130Z 2412/2512 02008KT 9999 SCT040"
    },
    {
      "icao": "EBCI",
      "alert": "OK",
      "vis_m": 9999,
      "fzfg": false,
      "metar_trigger": false,
      "taf_trigger": false,
      "metar": "METAR EBCI 241350Z 05006KT 360V090 CAVOK 27/16 Q1031 NOSIG",
      "taf": "TAF EBCI 241110Z 2412/2518 04007KT CAVOK"
    },
    {
      "icao": "EDDB",
      "alert": "OK",
      "vis_m": 9999,
      "fzfg": false,
      "metar_trigger": false,
      "taf_trigger": false,
      "metar": "METAR EDDB 241350Z AUTO 31012KT 280V340 CAVOK 28/15 Q1027 NOSIG",
      "taf": "TAF EDDB 241100Z 2412/2512 32012KT CAVOK"
    },
    {
      "icao": "EDDH",
      "alert": "OK",
      "vis_m": 9999,
      "fzfg": false,
      "metar_trigger": false,
      "taf_trigger": false,
      "metar": "METAR EDDH 241350Z AUTO 34010KT 300V030 CAVOK 23/10 Q1031 NOSIG",
      "taf": "TAF EDDH 241100Z 2412/2518 31010KT CAVOK"
    },
    {
      "icao": "EDDK",
      "alert": "OK",
      "vis_m": 9999,
      "fzfg": false,
      "metar_trigger": false,
      "taf_trigger": false,
      "metar": "METAR EDDK 241350Z AUTO 31008KT 270V350 CAVOK 27/14 Q1030 NOSIG",
      "taf": "TAF EDDK 241100Z 2412/2518 34008KT CAVOK"
    },
    {
      "icao": "EDDN",
      "alert": "OK",
      "vis_m": 9999,
      "fzfg": false,
      "metar_trigger": false,
      "taf_trigger": false,
      "metar": "METAR EDDN 241350Z AUTO 28008KT 250V320 CAVOK 31/12 Q1028 NOSIG",
      "taf": "TAF EDDN 241100Z 2412/2512 33007KT CAVOK"
    },
    {
      "icao": "EDDS",
      "alert": "OK",
      "vis_m": 9999,
      "fzfg": false,
      "metar_trigger": false,
      "taf_trigger": false,
      "metar": "METAR EDDS 241350Z AUTO VRB05KT CAVOK 29/14 Q1029 NOSIG",
      "taf": "TAF EDDS 241100Z 2412/2512 04005KT CAVOK"
    },
    {
      "icao": "EDFH",
      "alert": "OK",
      "vis_m": 9999,
      "fzfg": false,
      "metar_trigger": false,
      "taf_trigger": false,
      "metar": "METAR EDFH 241350Z 36008KT 330V030 CAVOK 26/15 Q1031",
      "taf": "TAF EDFH 241100Z 2412/2512 01007KT CAVOK"
    },
    {
      "icao": "EDJA",
      "alert": "OK",
      "vis_m": 9999,
      "fzfg": false,
      "metar_trigger": false,
      "taf_trigger": false,
      "metar": "METAR EDJA 241350Z 07007KT 040V120 CAVOK 28/09 Q1030",
      "taf": "TAF EDJA 241100Z 2412/2421 05007KT CAVOK"
    },
    {
      "icao": "EDLW",
      "alert": "OK",
      "vis_m": 9999,
      "fzfg": false,
      "metar_trigger": false,
      "taf_trigger": false,
      "metar": "METAR EDLW 241350Z VRB05KT CAVOK 25/14 Q1031",
      "taf": "TAF EDLW 241100Z 2412/2512 VRB03KT CAVOK"
    },
    {
      "icao": "EDNY",
      "alert": "OK",
      "vis_m": 9999,
      "fzfg": false,
      "metar_trigger": false,
      "taf_trigger": false,
      "metar": "METAR EDNY 241350Z 04010KT CAVOK 30/10 Q1028",
      "taf": "TAF EDNY 241100Z 2412/2421 05009KT CAVOK"
    },
    {
      "icao": "EDSB",
      "alert": "OK",
      "vis_m": 9999,
      "fzfg": false,
      "metar_trigger": false,
      "taf_trigger": false,
      "metar": "METAR EDSB 241350Z 36008KT CAVOK 30/15 Q1028",
      "taf": "TAF EDSB 241100Z 2412/2512 02006KT CAVOK"
    },
    {
      "icao": "EETN",
      "alert": "OK",
      "vis_m": 9999,
      "fzfg": false,
      "metar_trigger": false,
      "taf_trigger": false,
      "metar": "METAR EETN 241350Z 28021KT CAVOK 17/08 Q1016 TEMPO 28022G32KT",
      "taf": "TAF EETN 241130Z 2412/2512 27022KT CAVOK"
    },
    {
      "icao": "EFTU",
      "alert": "OK",
      "vis_m": 9999,
      "fzfg": false,
      "metar_trigger": false,
      "taf_trigger": false,
      "metar": "METAR EFTU 241350Z AUTO 32017G28KT 280V360 9999 SCT048 17/05 Q1016",
      "taf": "TAF EFTU 241126Z 2412/2512 31015KT 9999 FEW040"
    },
    {
      "icao": "EGBB",
      "alert": "OK",
      "vis_m": 9999,
      "fzfg": false,
      "metar_trigger": false,
      "taf_trigger": false,
      "metar": "METAR EGBB 241350Z 28005KT 190V320 CAVOK 27/08 Q1031",
      "taf": "TAF EGBB 241056Z 2412/2512 20005KT CAVOK"
    },
    {
      "icao": "EGGP",
      "alert": "OK",
      "vis_m": 9999,
      "fzfg": false,
      "metar_trigger": false,
      "taf_trigger": false,
      "metar": "METAR EGGP 241350Z 24004KT 180V290 CAVOK 24/10 Q1031",
      "taf": "TAF EGGP 241054Z 2412/2512 24005KT CAVOK"
    },
    {
      "icao": "EGGW",
      "alert": "OK",
      "vis_m": 9999,
      "fzfg": false,
      "metar_trigger": false,
      "taf_trigger": false,
      "metar": "METAR EGGW 241350Z AUTO 20004KT 140V300 9999 NCD 28/12 Q1030",
      "taf": "TAF EGGW 241058Z 2412/2512 14004KT CAVOK"
    },
    {
      "icao": "EGKK",
      "alert": "OK",
      "vis_m": 9999,
      "fzfg": false,
      "metar_trigger": false,
      "taf_trigger": false,
      "metar": "METAR EGKK 241350Z 17003KT 110V230 CAVOK 30/14 Q1030",
      "taf": "TAF EGKK 241054Z 2412/2518 VRB03KT CAVOK"
    },
    {
      "icao": "EGNM",
      "alert": "OK",
      "vis_m": 9999,
      "fzfg": false,
      "metar_trigger": false,
      "taf_trigger": false,
      "metar": "METAR EGNM 241350Z 26009KT CAVOK 23/07 Q1030",
      "taf": "TAF EGNM 241111Z 2412/2512 24006KT CAVOK"
    },
    {
      "icao": "EGPD",
      "alert": "OK",
      "vis_m": 9999,
      "fzfg": false,
      "metar_trigger": false,
      "taf_trigger": false,
      "metar": "METAR EGPD 241350Z COR AUTO 19009KT 140V230 9999 NCD 20/12 Q1027 NOSIG",
      "taf": "TAF EGPD 241100Z 2412/2512 20009KT 9999 FEW040"
    },
    {
      "icao": "EGPF",
      "alert": "OK",
      "vis_m": 9999,
      "fzfg": false,
      "metar_trigger": false,
      "taf_trigger": false,
      "metar": "METAR EGPF 241350Z AUTO 24015KT 200V260 9999 NCD 20/12 Q1029",
      "taf": "TAF EGPF 241056Z 2412/2512 20010KT 9999 SCT030"
    },
    {
      "icao": "EHBK",
      "alert": "OK",
      "vis_m": 9999,
      "fzfg": false,
      "metar_trigger": false,
      "taf_trigger": false,
      "metar": "METAR EHBK 241355Z AUTO 02005KT 300V110 9999 NSC 27/14 Q1030 NOSIG",
      "taf": "TAF EHBK 241038Z 2412/2518 07007KT CAVOK"
    },
    {
      "icao": "EHEH",
      "alert": "OK",
      "vis_m": 9999,
      "fzfg": false,
      "metar_trigger": false,
      "taf_trigger": false,
      "metar": "METAR EHEH 241355Z AUTO 01006KT 330V050 9999 ////// 27/13 Q1031 BLU NOSIG",
      "taf": "TAF EHEH 241057Z 2411/2517 01005KT CAVOK"
    },
    {
      "icao": "EKBI",
      "alert": "OK",
      "vis_m": 9999,
      "fzfg": false,
      "metar_trigger": false,
      "taf_trigger": false,
      "metar": "METAR EKBI 241350Z AUTO 27013KT 9999 NCD 19/08 Q1031",
      "taf": "TAF EKBI 241127Z 2412/2512 29010KT CAVOK"
    },
    {
      "icao": "EKCH",
      "alert": "OK",
      "vis_m": 9999,
      "fzfg": false,
      "metar_trigger": false,
      "taf_trigger": false,
      "metar": "METAR EKCH 241350Z AUTO 30014KT 9999 NCD 19/09 Q1029 NOSIG",
      "taf": "TAF EKCH 241127Z 2412/2512 32012KT CAVOK"
    },
    {
      "icao": "ENAL",
      "alert": "OK",
      "vis_m": 9999,
      "fzfg": false,
      "metar_trigger": false,
      "taf_trigger": false,
      "metar": "METAR ENAL 241350Z 25018KT 9999 BKN057 11/08 Q1022",
      "taf": "TAF ENAL 241100Z 2412/2421 24018KT 9999 -SHRA FEW010 BKN025"
    },
    {
      "icao": "ENBR",
      "alert": "OK",
      "vis_m": 9999,
      "fzfg": false,
      "metar_trigger": false,
      "taf_trigger": false,
      "metar": "METAR ENBR 241350Z 18012KT 9999 FEW018 BKN035 12/09 Q1026 NOSIG RMK WIND 1200FT 19018KT",
      "taf": "TAF ENBR 241100Z 2412/2512 17012KT 9999 FEW015 BKN030"
    },
    {
      "icao": "ENGM",
      "alert": "OK",
      "vis_m": 9999,
      "fzfg": false,
      "metar_trigger": false,
      "taf_trigger": false,
      "metar": "METAR ENGM 241350Z 27006KT 220V310 CAVOK 19/04 Q1022 NOSIG",
      "taf": "TAF ENGM 241100Z 2412/2512 26008KT CAVOK"
    },
    {
      "icao": "ENHD",
      "alert": "OK",
      "vis_m": 9999,
      "fzfg": false,
      "metar_trigger": false,
      "taf_trigger": false,
      "metar": "METAR ENHD 241350Z 20011KT 9999 FEW035 14/10 Q1028",
      "taf": "TAF ENHD 241100Z 2412/2421 20012KT 9999 FEW030 SCT050"
    },
    {
      "icao": "ENTC",
      "alert": "OK",
      "vis_m": 9999,
      "fzfg": false,
      "metar_trigger": false,
      "taf_trigger": false,
      "metar": "METAR ENTC 241350Z 01010KT 9999 BKN019 09/05 Q1008 TEMPO BKN014 RMK WIND 2600FT 17007KT",
      "taf": "TAF ENTC 241100Z 2412/2512 02008KT 9999 -RA SCT015 BKN018"
    },
    {
      "icao": "ENTO",
      "alert": "OK",
      "vis_m": 9999,
      "fzfg": false,
      "metar_trigger": false,
      "taf_trigger": false,
      "metar": "METAR ENTO 241350Z 32013KT CAVOK 20/08 Q1025 NOSIG",
      "taf": "TAF ENTO 241100Z 2412/2512 27008KT CAVOK"
    },
    {
      "icao": "ENVA",
      "alert": "OK",
      "vis_m": 9999,
      "fzfg": false,
      "metar_trigger": false,
      "taf_trigger": false,
      "metar": "METAR ENVA 241350Z 28012KT 9999 -SHRA FEW015 SCT035 BKN055 11/09 Q1021 TEMPO 28018G28KT SHRA RMK WIND 670FT 30012KT",
      "taf": ""
    },
    {
      "icao": "ENZV",
      "alert": "OK",
      "vis_m": 9999,
      "fzfg": false,
      "metar_trigger": false,
      "taf_trigger": false,
      "metar": "METAR ENZV 241350Z 20011KT CAVOK 14/10 Q1028 NOSIG",
      "taf": "TAF ENZV 241100Z 2412/2512 21010KT 9999 FEW050"
    },
    {
      "icao": "EPGD",
      "alert": "OK",
      "vis_m": 9999,
      "fzfg": false,
      "metar_trigger": false,
      "taf_trigger": false,
      "metar": "METAR EPGD 241400Z 30018G30KT CAVOK 22/08 Q1025",
      "taf": "TAF EPGD 241130Z 2412/2512 31012KT CAVOK"
    },
    {
      "icao": "EPKK",
      "alert": "OK",
      "vis_m": 9999,
      "fzfg": false,
      "metar_trigger": false,
      "taf_trigger": false,
      "metar": "METAR EPKK 241400Z 31005KT 280V360 9999 FEW067 27/11 Q1026",
      "taf": "TAF EPKK 241130Z 2412/2512 29010KT CAVOK"
    },
    {
      "icao": "EPKT",
      "alert": "OK",
      "vis_m": 9999,
      "fzfg": false,
      "metar_trigger": false,
      "taf_trigger": false,
      "metar": "METAR EPKT 241400Z 35004KT 300V060 CAVOK 26/10 Q1026",
      "taf": "TAF EPKT 241130Z 2412/2512 26005KT CAVOK"
    },
    {
      "icao": "EPLB",
      "alert": "OK",
      "vis_m": 9999,
      "fzfg": false,
      "metar_trigger": false,
      "taf_trigger": false,
      "metar": "METAR EPLB 241400Z 30010KT CAVOK 27/12 Q1024",
      "taf": "TAF EPLB 241130Z 2412/2512 32010KT CAVOK"
    },
    {
      "icao": "EPMO",
      "alert": "OK",
      "vis_m": 9999,
      "fzfg": false,
      "metar_trigger": false,
      "taf_trigger": false,
      "metar": "METAR EPMO 241400Z 27017KT CAVOK 27/14 Q1023",
      "taf": "TAF EPMO 241130Z 2412/2512 29012KT CAVOK"
    },
    {
      "icao": "EPPO",
      "alert": "OK",
      "vis_m": 9999,
      "fzfg": false,
      "metar_trigger": false,
      "taf_trigger": false,
      "metar": "METAR EPPO 241400Z 29011KT 9999 FEW062TCU 28/13 Q1025",
      "taf": "TAF EPPO 241130Z 2412/2512 28012KT CAVOK"
    },
    {
      "icao": "EPRA",
      "alert": "OK",
      "vis_m": 9999,
      "fzfg": false,
      "metar_trigger": false,
      "taf_trigger": false,
      "metar": "METAR EPRA 241400Z 30006KT 250V340 CAVOK 27/10 Q1024",
      "taf": "TAF EPRA 241130Z 2412/2421 30010KT CAVOK"
    },
    {
      "icao": "EPRZ",
      "alert": "OK",
      "vis_m": 9999,
      "fzfg": false,
      "metar_trigger": false,
      "taf_trigger": false,
      "metar": "METAR EPRZ 241400Z 31009KT CAVOK 26/10 Q1025",
      "taf": "TAF EPRZ 241130Z 2412/2512 30008KT CAVOK"
    },
    {
      "icao": "EPSC",
      "alert": "OK",
      "vis_m": 9999,
      "fzfg": false,
      "metar_trigger": false,
      "taf_trigger": false,
      "metar": "METAR EPSC 241400Z 33013KT 290V350 CAVOK 22/11 Q1028",
      "taf": "TAF EPSC 241130Z 2412/2512 33010KT CAVOK"
    },
    {
      "icao": "EPSY",
      "alert": "OK",
      "vis_m": 9999,
      "fzfg": false,
      "metar_trigger": false,
      "taf_trigger": false,
      "metar": "METAR EPSY 241400Z 33011KT 290V010 9999 FEW042 24/14 Q1023",
      "taf": "TAF EPSY 241130Z 2412/2421 30010KT 9999 SCT040"
    },
    {
      "icao": "EPWA",
      "alert": "OK",
      "vis_m": 9999,
      "fzfg": false,
      "metar_trigger": false,
      "taf_trigger": false,
      "metar": "METAR EPWA 241400Z 29014KT 260V320 CAVOK 27/13 Q1023 NOSIG",
      "taf": "TAF EPWA 241130Z 2412/2512 28011KT CAVOK"
    },
    {
      "icao": "EPWR",
      "alert": "OK",
      "vis_m": 9999,
      "fzfg": false,
      "metar_trigger": false,
      "taf_trigger": false,
      "metar": "METAR EPWR 241400Z 29008KT CAVOK 28/13 Q1025",
      "taf": "TAF EPWR 241130Z 2412/2512 27010KT CAVOK"
    },
    {
      "icao": "ESGG",
      "alert": "OK",
      "vis_m": 9999,
      "fzfg": false,
      "metar_trigger": false,
      "taf_trigger": false,
      "metar": "METAR ESGG 241350Z 26014KT CAVOK 17/07 Q1027",
      "taf": "TAF ESGG 241130Z 2412/2512 26012KT CAVOK"
    },
    {
      "icao": "ESKN",
      "alert": "OK",
      "vis_m": 9999,
      "fzfg": false,
      "metar_trigger": false,
      "taf_trigger": false,
      "metar": "METAR ESKN 241350Z 27014KT CAVOK 21/07 Q1021",
      "taf": "TAF ESKN 241130Z 2412/2512 29012KT CAVOK"
    },
    {
      "icao": "ESMS",
      "alert": "OK",
      "vis_m": 9999,
      "fzfg": false,
      "metar_trigger": false,
      "taf_trigger": false,
      "metar": "METAR ESMS 241350Z 30020KT CAVOK 18/09 Q1028",
      "taf": "TAF ESMS 241127Z 2412/2512 31015KT CAVOK"
    },
    {
      "icao": "ESSA",
      "alert": "OK",
      "vis_m": 9999,
      "fzfg": false,
      "metar_trigger": false,
      "taf_trigger": false,
      "metar": "METAR ESSA 241350Z 28013KT CAVOK 21/05 Q1019 NOSIG",
      "taf": "TAF ESSA 241130Z 2412/2512 27012KT 9999 SCT045"
    },
    {
      "icao": "EYKA",
      "alert": "OK",
      "vis_m": 9999,
      "fzfg": false,
      "metar_trigger": false,
      "taf_trigger": false,
      "metar": "METAR EYKA 241350Z 29016KT CAVOK 23/09 Q1020",
      "taf": "TAF EYKA 241100Z 2412/2512 28011KT 9000 SCT035"
    },
    {
      "icao": "EYPA",
      "alert": "OK",
      "vis_m": 9999,
      "fzfg": false,
      "metar_trigger": false,
      "taf_trigger": false,
      "metar": "METAR EYPA 241350Z 30004KT 240V350 CAVOK 14/11 Q1023",
      "taf": "TAF EYPA 241100Z 2412/2512 VRB03KT 9000 NSC"
    },
    {
      "icao": "EYVI",
      "alert": "OK",
      "vis_m": 9999,
      "fzfg": false,
      "metar_trigger": false,
      "taf_trigger": false,
      "metar": "METAR EYVI 241350Z 30015KT 270V330 9999 SCT043 24/13 Q1019 NOSIG",
      "taf": "TAF EYVI 241100Z 2412/2512 28012KT 9000 SCT045"
    },
    {
      "icao": "GCFV",
      "alert": "OK",
      "vis_m": 9999,
      "fzfg": false,
      "metar_trigger": false,
      "taf_trigger": false,
      "metar": "METAR GCFV 241400Z 05011KT 9999 FEW008 22/17 Q1016",
      "taf": "TAF GCFV 240800Z 2409/2509 05009KT 9999 SCT015 TX32/2414Z TN22/2506Z"
    },
    {
      "icao": "GCLP",
      "alert": "OK",
      "vis_m": 9999,
      "fzfg": false,
      "metar_trigger": false,
      "taf_trigger": false,
      "metar": "METAR GCLP 241400Z 02024KT CAVOK 23/17 Q1016 NOSIG",
      "taf": "TAF GCLP 240800Z 2409/2509 02017KT 9999 FEW030 TX28/2414Z TN22/2506Z"
    },
    {
      "icao": "GCTS",
      "alert": "OK",
      "vis_m": 9999,
      "fzfg": false,
      "metar_trigger": false,
      "taf_trigger": false,
      "metar": "METAR GCTS 241400Z 11014KT 070V140 CAVOK 24/16 Q1017 NOSIG",
      "taf": "TAF GCTS 240800Z 2409/2509 27005KT 9999 FEW020 TX28/2414Z TN21/2506Z"
    },
    {
      "icao": "GMAD",
      "alert": "OK",
      "vis_m": 9999,
      "fzfg": false,
      "metar_trigger": false,
      "taf_trigger": false,
      "metar": "METAR GMAD 241400Z 27008KT 240V300 9999 FEW033TCU 33/16 Q1015 NOSIG",
      "taf": "TAF GMAD 241100Z 2412/2518 32003KT CAVOK"
    },
    {
      "icao": "GMMN",
      "alert": "OK",
      "vis_m": 9999,
      "fzfg": false,
      "metar_trigger": false,
      "taf_trigger": false,
      "metar": "METAR GMMN 241400Z 35012KT 320V030 9999 FEW026 39/16 Q1016 NOSIG",
      "taf": "TAF GMMN 241100Z 2412/2518 09007KT CAVOK"
    },
    {
      "icao": "GMMX",
      "alert": "OK",
      "vis_m": 9999,
      "fzfg": false,
      "metar_trigger": false,
      "taf_trigger": false,
      "metar": "METAR GMMX 241400Z 31006KT 260V030 9999 SCT030 FEW040TCU 40/07 Q1017 NOSIG",
      "taf": "TAF GMMX 241100Z 2412/2518 06006KT 8000 SCT030"
    },
    {
      "icao": "HEGN",
      "alert": "OK",
      "vis_m": 9999,
      "fzfg": false,
      "metar_trigger": false,
      "taf_trigger": false,
      "metar": "METAR HEGN 241410Z 01010KT CAVOK 33/07 Q1012 NOSIG NOSIG",
      "taf": "TAF HEGN 241100Z 2412/2518 02015KT CAVOK"
    },
    {
      "icao": "HEMA",
      "alert": "OK",
      "vis_m": 9999,
      "fzfg": false,
      "metar_trigger": false,
      "taf_trigger": false,
      "metar": "METAR HEMA 241410Z 36016KT CAVOK 29/12 Q1013 NOSIG",
      "taf": "TAF HEMA 241100Z 2412/2518 36018KT CAVOK"
    },
    {
      "icao": "HESH",
      "alert": "OK",
      "vis_m": 9999,
      "fzfg": false,
      "metar_trigger": false,
      "taf_trigger": false,
      "metar": "METAR HESH 241410Z 36009KT CAVOK 32/08 Q1013 NOSIG",
      "taf": "TAF HESH 241100Z 2412/2518 36012KT CAVOK"
    },
    {
      "icao": "HESX",
      "alert": "OK",
      "vis_m": 9999,
      "fzfg": false,
      "metar_trigger": false,
      "taf_trigger": false,
      "metar": "METAR HESX 241410Z 34008KT CAVOK 30/07 Q1016 NOSIG",
      "taf": "TAF HESX 241100Z 2412/2518 35010KT 9999 FEW025"
    },
    {
      "icao": "LATI",
      "alert": "OK",
      "vis_m": 9999,
      "fzfg": false,
      "metar_trigger": false,
      "taf_trigger": false,
      "metar": "METAR LATI 241350Z 33011KT 9999 FEW035CB SCT090 28/12 Q1020 NOSIG",
      "taf": "TAF LATI 241100Z 2412/2512 32012KT 9999 FEW040CB BKN080 TX31/2512Z TN16/2504Z"
    },
    {
      "icao": "LBPD",
      "alert": "OK",
      "vis_m": 9999,
      "fzfg": false,
      "metar_trigger": false,
      "taf_trigger": false,
      "metar": "METAR LBPD 241400Z AUTO 24010KT 9999 NCD 24/13 Q1021 NOSIG",
      "taf": "TAF LBPD 241100Z 2412/2512 30010KT 9999 SCT035 BKN050"
    },
    {
      "icao": "LBSF",
      "alert": "OK",
      "vis_m": 9999,
      "fzfg": false,
      "metar_trigger": false,
      "taf_trigger": false,
      "metar": "METAR LBSF 241400Z 31006KT 270V360 9999 SCT066 BKN079 23/12 Q1023 NOSIG",
      "taf": "TAF LBSF 241100Z 2412/2512 01010KT 9999 SCT040 BKN060"
    },
    {
      "icao": "LBWN",
      "alert": "OK",
      "vis_m": 9999,
      "fzfg": false,
      "metar_trigger": false,
      "taf_trigger": false,
      "metar": "METAR LBWN 241400Z 36012KT 340V040 9999 FEW040 23/13 Q1020 NOSIG",
      "taf": "TAF LBWN 241100Z 2412/2512 01010KT 9999 SCT040"
    },
    {
      "icao": "LCLK",
      "alert": "OK",
      "vis_m": 9999,
      "fzfg": false,
      "metar_trigger": false,
      "taf_trigger": false,
      "metar": "METAR LCLK 241400Z 20009KT 9999 FEW006 FEW035TCU BKN070 21/20 Q1015 NOSIG",
      "taf": "TAF LCLK 241130Z 2412/2512 22020KT 9999 FEW020"
    },
    {
      "icao": "LCPH",
      "alert": "OK",
      "vis_m": 9999,
      "fzfg": false,
      "metar_trigger": false,
      "taf_trigger": false,
      "metar": "METAR LCPH 241400Z 31014KT 9999 SCT017 22/16 Q1016 NOSIG",
      "taf": "TAF LCPH 241130Z 2412/2512 29014KT 9999 SCT015"
    },
    {
      "icao": "LEAL",
      "alert": "OK",
      "vis_m": 9999,
      "fzfg": false,
      "metar_trigger": false,
      "taf_trigger": false,
      "metar": "METAR LEAL 241400Z 08008KT 040V120 CAVOK 27/14 Q1025 NOSIG",
      "taf": "TAF LEAL 241100Z 2412/2512 09010KT CAVOK TX28/2412Z TN15/2505Z"
    },
    {
      "icao": "LEBB",
      "alert": "OK",
      "vis_m": 9999,
      "fzfg": false,
      "metar_trigger": false,
      "taf_trigger": false,
      "metar": "METAR LEBB 241400Z 28009KT CAVOK 27/20 Q1023 NOSIG",
      "taf": ""
    },
    {
      "icao": "LEBL",
      "alert": "OK",
      "vis_m": 9999,
      "fzfg": false,
      "metar_trigger": false,
      "taf_trigger": false,
      "metar": "METAR LEBL 241400Z 20007KT 150V220 CAVOK 26/18 Q1026 NOSIG",
      "taf": "TAF LEBL 241100Z 2412/2512 20008KT CAVOK TX26/2412Z TN18/2505Z"
    },
    {
      "icao": "LECH",
      "alert": "OK",
      "vis_m": 9999,
      "fzfg": false,
      "metar_trigger": false,
      "taf_trigger": false,
      "metar": "METAR LECH 241400Z AUTO 13009KT 090V160 CAVOK 25/08 Q1026",
      "taf": "TAF LECH 241100Z 2412/2512 13009KT CAVOK TX30/2413Z TN13/2505Z"
    },
    {
      "icao": "LEMD",
      "alert": "OK",
      "vis_m": 9999,
      "fzfg": false,
      "metar_trigger": false,
      "taf_trigger": false,
      "metar": "METAR LEMD 241400Z 13005KT CAVOK 32/05 Q1024 NOSIG",
      "taf": "TAF LEMD 241100Z 2412/2518 VRB04KT CAVOK TX33/2416Z TN14/2505Z"
    },
    {
      "icao": "LEMG",
      "alert": "OK",
      "vis_m": 9999,
      "fzfg": false,
      "metar_trigger": false,
      "taf_trigger": false,
      "metar": "METAR LEMG 241400Z 14007KT 100V200 CAVOK 24/10 Q1024 NOSIG",
      "taf": "TAF LEMG 241100Z 2412/2512 14010KT CAVOK TX28/2414Z TN15/2506Z"
    },
    {
      "icao": "LEVC",
      "alert": "OK",
      "vis_m": 9999,
      "fzfg": false,
      "metar_trigger": false,
      "taf_trigger": false,
      "metar": "METAR LEVC 241400Z 10011KT 070V140 CAVOK 29/10 Q1025 NOSIG",
      "taf": "TAF LEVC 241100Z 2412/2512 11010KT CAVOK TX30/2412Z TN16/2505Z"
    },
    {
      "icao": "LEXJ",
      "alert": "OK",
      "vis_m": 9999,
      "fzfg": false,
      "metar_trigger": false,
      "taf_trigger": false,
      "metar": "METAR LEXJ 241400Z VRB04KT CAVOK 22/18 Q1022",
      "taf": "TAF LEXJ 240800Z 2409/2509 04006KT 9999 FEW040 TX29/2416Z TN17/2505Z"
    },
    {
      "icao": "LEZG",
      "alert": "OK",
      "vis_m": 9999,
      "fzfg": false,
      "metar_trigger": false,
      "taf_trigger": false,
      "metar": "METAR LEZG 241400Z 09007KT 030V140 CAVOK 32/12 Q1024 NOSIG",
      "taf": "TAF LEZG 241100Z 2412/2512 11012KT CAVOK TX34/2415Z TN18/2505Z"
    },
    {
      "icao": "LEZL",
      "alert": "OK",
      "vis_m": 9999,
      "fzfg": false,
      "metar_trigger": false,
      "taf_trigger": false,
      "metar": "METAR LEZL 241400Z 15007KT 090V200 CAVOK 34/06 Q1019 NOSIG",
      "taf": "TAF LEZL 240800Z 2409/2509 VRB03KT CAVOK TX37/2415Z TN19/2506Z"
    },
    {
      "icao": "LFBD",
      "alert": "OK",
      "vis_m": 9999,
      "fzfg": false,
      "metar_trigger": false,
      "taf_trigger": false,
      "metar": "METAR LFBD 241400Z AUTO VRB05KT CAVOK 34/13 Q1024 TEMPO SCT070CB",
      "taf": "TAF LFBD 241100Z 2412/2518 10005KT CAVOK TX35/2415Z TN20/2506Z"
    },
    {
      "icao": "LFLL",
      "alert": "OK",
      "vis_m": 9999,
      "fzfg": false,
      "metar_trigger": false,
      "taf_trigger": false,
      "metar": "METAR LFLL 241400Z VRB02KT CAVOK 30/14 Q1027 NOSIG",
      "taf": "TAF LFLL 241100Z 2412/2518 36005KT CAVOK"
    },
    {
      "icao": "LFLS",
      "alert": "OK",
      "vis_m": 9999,
      "fzfg": false,
      "metar_trigger": false,
      "taf_trigger": false,
      "metar": "METAR LFLS 241400Z AUTO 32005KT 270V360 CAVOK 29/18 Q1027 NOSIG",
      "taf": "TAF LFLS 240800Z 2409/2509 VRB02KT CAVOK"
    },
    {
      "icao": "LFMN",
      "alert": "OK",
      "vis_m": 9999,
      "fzfg": false,
      "metar_trigger": false,
      "taf_trigger": false,
      "metar": "METAR LFMN 241400Z 19004KT CAVOK 27/12 Q1026 NOSIG",
      "taf": "TAF LFMN 240800Z 2409/2515 18005KT CAVOK"
    },
    {
      "icao": "LFOB",
      "alert": "OK",
      "vis_m": 9999,
      "fzfg": false,
      "metar_trigger": false,
      "taf_trigger": false,
      "metar": "METAR LFOB 241400Z AUTO 03006KT 360V060 9999 FEW017 29/20 Q1029 NOSIG",
      "taf": "TAF LFOB 241100Z 2412/2512 06005KT CAVOK"
    },
    {
      "icao": "LFPO",
      "alert": "OK",
      "vis_m": 9999,
      "fzfg": false,
      "metar_trigger": false,
      "taf_trigger": false,
      "metar": "METAR LFPO 241400Z 04007KT 340V080 CAVOK 31/16 Q1028 NOSIG",
      "taf": "TAF LFPO 241100Z 2412/2518 06008KT CAVOK"
    },
    {
      "icao": "LFSB",
      "alert": "OK",
      "vis_m": 9999,
      "fzfg": false,
      "metar_trigger": false,
      "taf_trigger": false,
      "metar": "METAR LFSB 241400Z AUTO 03006KT 350V080 CAVOK 31/15 Q1027 NOSIG",
      "taf": "TAF LFSB 241100Z 2412/2512 36007KT CAVOK"
    },
    {
      "icao": "LGAV",
      "alert": "OK",
      "vis_m": 9999,
      "fzfg": false,
      "metar_trigger": false,
      "taf_trigger": false,
      "metar": "METAR LGAV 241350Z 04013KT 9999 FEW020 25/12 Q1020 NOSIG",
      "taf": "TAF LGAV 241100Z 2412/2512 05018KT 9999 FEW020 SCT070"
    },
    {
      "icao": "LGTS",
      "alert": "OK",
      "vis_m": 9999,
      "fzfg": false,
      "metar_trigger": false,
      "taf_trigger": false,
      "metar": "METAR LGTS 241350Z 24008KT 9999 TS FEW018CB BKN025 24/14 Q1021 NOSIG",
      "taf": "TAF LGTS 241100Z 2412/2512 34010KT 9999 SCT030"
    },
    {
      "icao": "LHBP",
      "alert": "OK",
      "vis_m": 9999,
      "fzfg": false,
      "metar_trigger": false,
      "taf_trigger": false,
      "metar": "METAR LHBP 241400Z 32007KT 290V360 CAVOK 28/10 Q1025 NOSIG",
      "taf": "TAF LHBP 241115Z 2412/2512 02009KT CAVOK"
    },
    {
      "icao": "LHDC",
      "alert": "OK",
      "vis_m": 9999,
      "fzfg": false,
      "metar_trigger": false,
      "taf_trigger": false,
      "metar": "METAR LHDC 241345Z AUTO 03008KT 330V110 CAVOK 28/07 Q1024 NOSIG",
      "taf": "TAF LHDC 241115Z 2412/2421 03011KT CAVOK"
    },
    {
      "icao": "LIBD",
      "alert": "OK",
      "vis_m": 9999,
      "fzfg": false,
      "metar_trigger": false,
      "taf_trigger": false,
      "metar": "METAR LIBD 241350Z 34009KT 310V020 CAVOK 25/12 Q1023",
      "taf": "TAF LIBD 241100Z 2412/2512 34012KT 9999 FEW020"
    },
    {
      "icao": "LIBG",
      "alert": "OK",
      "vis_m": 9999,
      "fzfg": false,
      "metar_trigger": false,
      "taf_trigger": false,
      "metar": "METAR LIBG 241350Z AUTO 01013KT 9999 NCD 29/10 Q1021",
      "taf": "TAF LIBG 241100Z 2412/2512 36014KT CAVOK"
    },
    {
      "icao": "LIBP",
      "alert": "OK",
      "vis_m": 9999,
      "fzfg": false,
      "metar_trigger": false,
      "taf_trigger": false,
      "metar": "METAR LIBP 241350Z AUTO 03009KT 9999 NCD 26/12 Q1025",
      "taf": "TAF LIBP 241100Z 2412/2512 01010KT CAVOK"
    },
    {
      "icao": "LIBR",
      "alert": "OK",
      "vis_m": 9999,
      "fzfg": false,
      "metar_trigger": false,
      "taf_trigger": false,
      "metar": "METAR LIBR 241350Z 32016KT CAVOK 22/17 Q1022",
      "taf": "TAF LIBR 241100Z 2412/2512 33016KT CAVOK"
    },
    {
      "icao": "LICA",
      "alert": "OK",
      "vis_m": 9999,
      "fzfg": false,
      "metar_trigger": false,
      "taf_trigger": false,
      "metar": "METAR LICA 241350Z AUTO 24008KT 200V270 9999 FEW083/// 23/18 Q1023",
      "taf": "TAF LICA 241100Z 2412/2512 27012KT 9999 SCT060"
    },
    {
      "icao": "LICC",
      "alert": "OK",
      "vis_m": 9999,
      "fzfg": false,
      "metar_trigger": false,
      "taf_trigger": false,
      "metar": "METAR LICC 241350Z 07013KT 9999 SCT100 26/16 Q1021",
      "taf": "TAF LICC 241100Z 2412/2512 08010KT 9999 FEW070"
    },
    {
      "icao": "LICJ",
      "alert": "OK",
      "vis_m": 9999,
      "fzfg": false,
      "metar_trigger": false,
      "taf_trigger": false,
      "metar": "METAR LICJ 241350Z 03011KT CAVOK 23/18 Q1022",
      "taf": "TAF LICJ 241100Z 2412/2512 05012KT CAVOK"
    },
    {
      "icao": "LIMC",
      "alert": "OK",
      "vis_m": 9999,
      "fzfg": false,
      "metar_trigger": false,
      "taf_trigger": false,
      "metar": "METAR LIMC 241350Z 21005KT 140V290 CAVOK 30/12 Q1026 NOSIG",
      "taf": "TAF LIMC 241100Z 2412/2518 VRB05KT CAVOK"
    },
    {
      "icao": "LIME",
      "alert": "OK",
      "vis_m": 9999,
      "fzfg": false,
      "metar_trigger": false,
      "taf_trigger": false,
      "metar": "METAR LIME 241350Z VRB04KT CAVOK 29/14 Q1026 NOSIG",
      "taf": "TAF LIME 241100Z 2412/2512 VRB05KT CAVOK"
    },
    {
      "icao": "LIMF",
      "alert": "OK",
      "vis_m": 9999,
      "fzfg": false,
      "metar_trigger": false,
      "taf_trigger": false,
      "metar": "METAR LIMF 241350Z 07003KT 020V120 CAVOK 29/15 Q1027",
      "taf": "TAF LIMF 241100Z 2412/2512 VRB04KT CAVOK"
    },
    {
      "icao": "LIMJ",
      "alert": "OK",
      "vis_m": 9999,
      "fzfg": false,
      "metar_trigger": false,
      "taf_trigger": false,
      "metar": "METAR LIMJ 241350Z 25005KT 9999 FEW030 25/19 Q1025",
      "taf": "TAF LIMJ 241100Z 2412/2512 VRB05KT CAVOK"
    },
    {
      "icao": "LIPE",
      "alert": "OK",
      "vis_m": 9999,
      "fzfg": false,
      "metar_trigger": false,
      "taf_trigger": false,
      "metar": "METAR LIPE 241350Z VRB06KT 9999 FEW050 29/12 Q1026",
      "taf": "TAF LIPE 241100Z 2412/2512 VRB05KT CAVOK"
    },
    {
      "icao": "LIPH",
      "alert": "OK",
      "vis_m": 9999,
      "fzfg": false,
      "metar_trigger": false,
      "taf_trigger": false,
      "metar": "METAR LIPH 241350Z 21006KT 170V270 CAVOK 30/13 Q1025",
      "taf": "TAF LIPH 241100Z 2412/2512 VRB05KT CAVOK"
    },
    {
      "icao": "LIPQ",
      "alert": "OK",
      "vis_m": 9999,
      "fzfg": false,
      "metar_trigger": false,
      "taf_trigger": false,
      "metar": "METAR LIPQ 241350Z AUTO 29008KT 260V330 9999 NCD 30/15 Q1024",
      "taf": "TAF LIPQ 241100Z 2412/2512 VRB05KT CAVOK"
    },
    {
      "icao": "LIPR",
      "alert": "OK",
      "vis_m": 9999,
      "fzfg": false,
      "metar_trigger": false,
      "taf_trigger": false,
      "metar": "METAR LIPR 241350Z 03005KT 360V060 CAVOK 26/14 Q1026",
      "taf": "TAF LIPR 241100Z 2412/2512 33012KT CAVOK"
    },
    {
      "icao": "LIPX",
      "alert": "OK",
      "vis_m": 9999,
      "fzfg": false,
      "metar_trigger": false,
      "taf_trigger": false,
      "metar": "METAR LIPX 241350Z VRB03KT CAVOK 31/13 Q1026",
      "taf": "TAF LIPX 241100Z 2412/2512 VRB05KT 9999 FEW050"
    },
    {
      "icao": "LIPY",
      "alert": "OK",
      "vis_m": 9999,
      "fzfg": false,
      "metar_trigger": false,
      "taf_trigger": false,
      "metar": "METAR LIPY 241350Z AUTO 36008KT 9999 NCD 24/17 Q1026",
      "taf": "TAF LIPY 241100Z 2412/2512 35011KT CAVOK"
    },
    {
      "icao": "LIPZ",
      "alert": "OK",
      "vis_m": 9999,
      "fzfg": false,
      "metar_trigger": false,
      "taf_trigger": false,
      "metar": "METAR LIPZ 241350Z 17005KT CAVOK 28/14 Q1025 NOSIG",
      "taf": "TAF LIPZ 241100Z 2412/2518 18010KT CAVOK"
    },
    {
      "icao": "LIRF",
      "alert": "OK",
      "vis_m": 9999,
      "fzfg": false,
      "metar_trigger": false,
      "taf_trigger": false,
      "metar": "METAR LIRF 241350Z 26009KT 230V290 CAVOK 25/16 Q1023 NOSIG",
      "taf": "TAF LIRF 241100Z 2412/2518 27014KT CAVOK"
    },
    {
      "icao": "LIRN",
      "alert": "OK",
      "vis_m": 9999,
      "fzfg": false,
      "metar_trigger": false,
      "taf_trigger": false,
      "metar": "METAR LIRN 241350Z 05007KT 350V090 9999 FEW050 29/10 Q1023 NOSIG",
      "taf": "TAF LIRN 241100Z 2412/2512 06008KT CAVOK"
    },
    {
      "icao": "LIRP",
      "alert": "OK",
      "vis_m": 9999,
      "fzfg": false,
      "metar_trigger": false,
      "taf_trigger": false,
      "metar": "METAR LIRP 241345Z 31011KT 9999 FEW025 29/13 Q1025 NOSIG",
      "taf": "TAF LIRP 241100Z 2412/2512 09008KT CAVOK"
    },
    {
      "icao": "LIRZ",
      "alert": "OK",
      "vis_m": 9999,
      "fzfg": false,
      "metar_trigger": false,
      "taf_trigger": false,
      "metar": "METAR LIRZ 241350Z AUTO 03013KT 9999 NCD 27/12 Q1025",
      "taf": "TAF LIRZ 241100Z 2412/2512 05013KT CAVOK"
    },
    {
      "icao": "LJLJ",
      "alert": "OK",
      "vis_m": 9999,
      "fzfg": false,
      "metar_trigger": false,
      "taf_trigger": false,
      "metar": "METAR LJLJ 241400Z 15007KT 100V240 9999 FEW060 28/12 Q1026 NOSIG",
      "taf": "TAF LJLJ 241100Z 2412/2512 13005KT 9999 FEW050"
    },
    {
      "icao": "LKMT",
      "alert": "OK",
      "vis_m": 9999,
      "fzfg": false,
      "metar_trigger": false,
      "taf_trigger": false,
      "metar": "METAR LKMT 241400Z 03006KT 350V060 CAVOK 26/14 Q1027 NOSIG",
      "taf": "TAF LKMT 241100Z 2412/2512 20003KT CAVOK"
    },
    {
      "icao": "LKPR",
      "alert": "OK",
      "vis_m": 9999,
      "fzfg": false,
      "metar_trigger": false,
      "taf_trigger": false,
      "metar": "METAR LKPR 241400Z 34007KT 9999 FEW060CB 29/12 Q1027 BECMG CAVOK",
      "taf": "TAF LKPR 241100Z 2412/2518 34008KT CAVOK"
    },
    {
      "icao": "LLBG",
      "alert": "OK",
      "vis_m": 9999,
      "fzfg": false,
      "metar_trigger": false,
      "taf_trigger": false,
      "metar": "METAR LLBG 241350Z 32011KT 270V350 CAVOK 25/12 Q1016 NOSIG",
      "taf": "TAF LLBG 241107Z 2412/2512 30010KT 9999 FEW040 TX26/2412Z TN17/2503Z"
    },
    {
      "icao": "LMML",
      "alert": "OK",
      "vis_m": 9999,
      "fzfg": false,
      "metar_trigger": false,
      "taf_trigger": false,
      "metar": "METAR LMML 241345Z 20007KT 160V230 9999 FEW030 26/12 Q1022 NOSIG",
      "taf": "TAF LMML 241100Z 2412/2512 VRB05KT CAVOK"
    },
    {
      "icao": "LOWW",
      "alert": "OK",
      "vis_m": 9999,
      "fzfg": false,
      "metar_trigger": false,
      "taf_trigger": false,
      "metar": "METAR LOWW 241350Z 32010KT 300V360 CAVOK 29/13 Q1026 NOSIG",
      "taf": "TAF LOWW 241115Z 2412/2518 35010KT CAVOK TX29/2414Z TN18/2503Z"
    },
    {
      "icao": "LPFR",
      "alert": "OK",
      "vis_m": 9999,
      "fzfg": false,
      "metar_trigger": false,
      "taf_trigger": false,
      "metar": "METAR LPFR 241400Z 10014KT CAVOK 27/13 Q1020",
      "taf": "TAF LPFR 241100Z 2412/2512 12015KT CAVOK"
    },
    {
      "icao": "LPMA",
      "alert": "OK",
      "vis_m": 9999,
      "fzfg": false,
      "metar_trigger": false,
      "taf_trigger": false,
      "metar": "METAR LPMA 241400Z 02023G35KT 350V060 9999 FEW015 23/15 Q1019",
      "taf": "TAF LPMA 241100Z 2412/2512 03015KT 9999 SCT015"
    },
    {
      "icao": "LPPR",
      "alert": "OK",
      "vis_m": 9999,
      "fzfg": false,
      "metar_trigger": false,
      "taf_trigger": false,
      "metar": "METAR LPPR 241400Z 22005KT 180V260 9999 SCT009 SCT011 20/17 Q1021",
      "taf": "TAF LPPR 241100Z 2412/2512 22008KT 8000 BKN006"
    },
    {
      "icao": "LPPS",
      "alert": "OK",
      "vis_m": 9999,
      "fzfg": false,
      "metar_trigger": false,
      "taf_trigger": false,
      "metar": "METAR LPPS 241400Z 03011G21KT 350V070 9999 SCT014 BKN030 20/15 Q1021",
      "taf": "TAF LPPS 241100Z 2412/2518 05012KT 9999 SCT013 BKN030"
    },
    {
      "icao": "LPPT",
      "alert": "OK",
      "vis_m": 9999,
      "fzfg": false,
      "metar_trigger": false,
      "taf_trigger": false,
      "metar": "METAR LPPT 241400Z 24007KT 210V270 9999 FEW045 26/13 Q1020",
      "taf": "TAF LPPT 241100Z 2412/2518 10005KT CAVOK"
    },
    {
      "icao": "LQBK",
      "alert": "OK",
      "vis_m": 9999,
      "fzfg": false,
      "metar_trigger": false,
      "taf_trigger": false,
      "metar": "METAR LQBK 241400Z 02005KT 350V060 CAVOK 26/12 Q1026 NOSIG",
      "taf": "TAF LQBK 241100Z 2412/2512 35006KT CAVOK TX26/2413Z TN10/2504Z"
    },
    {
      "icao": "LQSA",
      "alert": "OK",
      "vis_m": 9999,
      "fzfg": false,
      "metar_trigger": false,
      "taf_trigger": false,
      "metar": "METAR LQSA 241400Z 35010KT 300V040 9999 SCT060 25/08 Q1025 NOSIG",
      "taf": "TAF LQSA 241100Z 2412/2512 VRB02KT 9999 SCT060 TX27/2512Z TN10/2504Z"
    },
    {
      "icao": "LQTZ",
      "alert": "OK",
      "vis_m": 9999,
      "fzfg": false,
      "metar_trigger": false,
      "taf_trigger": false,
      "metar": "METAR LQTZ 241400Z 35008KT 290V070 9999 FEW060 25/11 Q1026",
      "taf": "TAF LQTZ 241100Z 2412/2512 24005KT 9999 SCT050 TX25/2413Z TN09/2504Z"
    },
    {
      "icao": "LRBC",
      "alert": "OK",
      "vis_m": 9999,
      "fzfg": false,
      "metar_trigger": false,
      "taf_trigger": false,
      "metar": "METAR LRBC 241400Z 02010KT 340V070 9999 FEW066 24/09 Q1023",
      "taf": "TAF LRBC 241100Z 2412/2421 34014KT CAVOK"
    },
    {
      "icao": "LRBS",
      "alert": "OK",
      "vis_m": 9999,
      "fzfg": false,
      "metar_trigger": false,
      "taf_trigger": false,
      "metar": "METAR LRBS 241400Z 03006KT 320V090 CAVOK 24/10 Q1022 NOSIG",
      "taf": "TAF LRBS 241100Z 2412/2512 36007KT CAVOK"
    },
    {
      "icao": "LRBV",
      "alert": "OK",
      "vis_m": 9999,
      "fzfg": false,
      "metar_trigger": false,
      "taf_trigger": false,
      "metar": "METAR LRBV 241400Z 29005KT 260V330 9999 SCT062 23/09 Q1024",
      "taf": "TAF LRBV 241100Z 2412/2421 VRB04KT 9999 SCT060"
    },
    {
      "icao": "LRCL",
      "alert": "OK",
      "vis_m": 9999,
      "fzfg": false,
      "metar_trigger": false,
      "taf_trigger": false,
      "metar": "METAR LRCL 241400Z 34006KT 280V050 CAVOK 26/08 Q1023",
      "taf": "TAF LRCL 241100Z 2412/2421 02008KT 9999 SCT045"
    },
    {
      "icao": "LRCV",
      "alert": "OK",
      "vis_m": 9999,
      "fzfg": false,
      "metar_trigger": false,
      "taf_trigger": false,
      "metar": "METAR LRCV 241400Z 20006KT 9999 SCT045 23/15 Q1022",
      "taf": "TAF LRCV 241100Z 2412/2421 24007KT 9999 SCT035"
    },
    {
      "icao": "LRIA",
      "alert": "OK",
      "vis_m": 9999,
      "fzfg": false,
      "metar_trigger": false,
      "taf_trigger": false,
      "metar": "METAR LRIA 241400Z 31011KT CAVOK 24/08 Q1022",
      "taf": "TAF LRIA 241100Z 2412/2421 33010KT CAVOK"
    },
    {
      "icao": "LROP",
      "alert": "OK",
      "vis_m": 9999,
      "fzfg": false,
      "metar_trigger": false,
      "taf_trigger": false,
      "metar": "METAR LROP 241400Z 07008KT 040V100 CAVOK 24/10 Q1022 NOSIG",
      "taf": "TAF LROP 241100Z 2412/2512 36007KT CAVOK"
    },
    {
      "icao": "LRSB",
      "alert": "OK",
      "vis_m": 9999,
      "fzfg": false,
      "metar_trigger": false,
      "taf_trigger": false,
      "metar": "METAR LRSB 241400Z 01004KT 320V100 9999 FEW055 24/09 Q1023 NOSIG",
      "taf": "TAF LRSB 241100Z 2412/2512 VRB04KT 9999 SCT045"
    },
    {
      "icao": "LRSM",
      "alert": "OK",
      "vis_m": 9999,
      "fzfg": false,
      "metar_trigger": false,
      "taf_trigger": false,
      "metar": "METAR LRSM 241400Z AUTO 33005KT 280V050 9999 NCD 28/08 Q1023",
      "taf": ""
    },
    {
      "icao": "LRSV",
      "alert": "OK",
      "vis_m": 9999,
      "fzfg": false,
      "metar_trigger": false,
      "taf_trigger": false,
      "metar": "METAR LRSV 241400Z 33012KT 310V010 CAVOK 22/09 Q1024",
      "taf": "TAF LRSV 241100Z 2412/2421 32010KT CAVOK"
    },
    {
      "icao": "LRTM",
      "alert": "OK",
      "vis_m": 9999,
      "fzfg": false,
      "metar_trigger": false,
      "taf_trigger": false,
      "metar": "METAR LRTM 241400Z 28006KT 250V030 CAVOK 25/11 Q1023",
      "taf": "TAF LRTM 241100Z 2412/2421 36008KT 9999 SCT040"
    },
    {
      "icao": "LRTR",
      "alert": "OK",
      "vis_m": 9999,
      "fzfg": false,
      "metar_trigger": false,
      "taf_trigger": false,
      "metar": "METAR LRTR 241400Z 03008KT 350V060 CAVOK 28/11 Q1022",
      "taf": "TAF LRTR 241100Z 2412/2512 01007KT 9999 SCT045"
    },
    {
      "icao": "LTAC",
      "alert": "OK",
      "vis_m": 9999,
      "fzfg": false,
      "metar_trigger": false,
      "taf_trigger": false,
      "metar": "METAR LTAC 241350Z 35007KT 320V020 9999 -TSRA FEW025CB BKN030 17/12 Q1016 BECMG NSW",
      "taf": "TAF LTAC 241040Z 2412/2512 VRB02KT 9999 SCT040 SCT100"
    },
    {
      "icao": "LTFM",
      "alert": "OK",
      "vis_m": 9999,
      "fzfg": false,
      "metar_trigger": false,
      "taf_trigger": false,
      "metar": "METAR LTFM 241350Z 36020KT 9999 FEW015 SCT035 20/14 Q1020 NOSIG RMK RWY17L 35014G27KT RWY34L 35020KT RWY16R 35015KT RWY36 35018KT RWY18 35016G27KT",
      "taf": "TAF LTFM 241040Z 2412/2518 35015KT 9999 SCT012 BKN025"
    },
    {
      "icao": "LUKK",
      "alert": "OK",
      "vis_m": 9999,
      "fzfg": false,
      "metar_trigger": false,
      "taf_trigger": false,
      "metar": "METAR LUKK 241400Z 02010KT 340V040 CAVOK 23/08 Q1021 NOSIG",
      "taf": "TAF LUKK 241101Z 2412/2512 34010KT CAVOK"
    },
    {
      "icao": "LWOH",
      "alert": "OK",
      "vis_m": 9999,
      "fzfg": false,
      "metar_trigger": false,
      "taf_trigger": false,
      "metar": "METAR LWOH 241350Z 32004KT 280V040 9999 FEW035TCU SCT050 23/12 Q1023",
      "taf": "TAF LWOH 241130Z 2412/2512 16006KT 9999 SCT040 BKN090"
    },
    {
      "icao": "LWSK",
      "alert": "OK",
      "vis_m": 9999,
      "fzfg": false,
      "metar_trigger": false,
      "taf_trigger": false,
      "metar": "METAR LWSK 241350Z VRB05KT 9999 FEW060 SCT090 22/14 Q1023 RERA NOSIG",
      "taf": "TAF LWSK 241130Z 2412/2512 02015KT 9999 SCT040 BKN090"
    },
    {
      "icao": "LYBE",
      "alert": "OK",
      "vis_m": 9999,
      "fzfg": false,
      "metar_trigger": false,
      "taf_trigger": false,
      "metar": "METAR LYBE 241400Z 34010KT 310V020 CAVOK 26/11 Q1024 NOSIG",
      "taf": "TAF LYBE 241100Z 2412/2512 35012KT CAVOK TX29/2512Z TN13/2504Z"
    },
    {
      "icao": "LYNI",
      "alert": "OK",
      "vis_m": 9999,
      "fzfg": false,
      "metar_trigger": false,
      "taf_trigger": false,
      "metar": "METAR LYNI 241400Z 10007KT 070V130 9999 FEW040 SCT080 23/15 Q1023 NOSIG",
      "taf": "TAF LYNI 241100Z 2412/2512 31008KT 9999 SCT040 TX26/2512Z TN11/2504Z"
    },
    {
      "icao": "LYPG",
      "alert": "OK",
      "vis_m": 9999,
      "fzfg": false,
      "metar_trigger": false,
      "taf_trigger": false,
      "metar": "METAR LYPG 241400Z 03008KT 330V070 9999 FEW050 31/09 Q1020 NOSIG",
      "taf": ""
    },
    {
      "icao": "LZIB",
      "alert": "OK",
      "vis_m": 9999,
      "fzfg": false,
      "metar_trigger": false,
      "taf_trigger": false,
      "metar": "METAR LZIB 241400Z 33011KT CAVOK 29/12 Q1026 NOSIG",
      "taf": "TAF LZIB 241115Z 2412/2512 36009KT CAVOK"
    },
    {
      "icao": "LZKZ",
      "alert": "OK",
      "vis_m": 9999,
      "fzfg": false,
      "metar_trigger": false,
      "taf_trigger": false,
      "metar": "METAR LZKZ 241400Z 01008KT CAVOK 27/11 Q1024 NOSIG",
      "taf": "TAF LZKZ 241115Z 2412/2512 01008KT CAVOK"
    },
    {
      "icao": "LZTT",
      "alert": "OK",
      "vis_m": 9999,
      "fzfg": false,
      "metar_trigger": false,
      "taf_trigger": false,
      "metar": "METAR LZTT 241400Z 04005KT 360V080 9999 FEW056 25/09 Q1026 NOSIG",
      "taf": "TAF LZTT 241115Z 2412/2512 06006KT CAVOK"
    },
    {
      "icao": "OEJN",
      "alert": "OK",
      "vis_m": 9999,
      "fzfg": false,
      "metar_trigger": false,
      "taf_trigger": false,
      "metar": "METAR OEJN 241400Z 32017KT CAVOK 35/17 Q1007 NOSIG",
      "taf": "TAF OEJN 241100Z 2412/2518 33015KT CAVOK"
    },
    {
      "icao": "OEMA",
      "alert": "OK",
      "vis_m": 9999,
      "fzfg": false,
      "metar_trigger": false,
      "taf_trigger": false,
      "metar": "METAR OEMA 241400Z 25008KT 9999 SCT045 42/M01 Q1012 NOSIG",
      "taf": "TAF OEMA 241100Z 2412/2518 29010KT 9999 SCT045"
    },
    {
      "icao": "OJAI",
      "alert": "OK",
      "vis_m": 4000,
      "fzfg": false,
      "metar_trigger": false,
      "taf_trigger": false,
      "metar": "METAR OJAI 241400Z 29012KT 4000 DU NSC 24/07 Q1019 NOSIG",
      "taf": "TAF OJAI 241100Z 2412/2518 29014KT 4000 DU NSC"
    },
    {
      "icao": "OMAA",
      "alert": "OK",
      "vis_m": 9999,
      "fzfg": false,
      "metar_trigger": false,
      "taf_trigger": false,
      "metar": "METAR OMAA 241400Z 32009KT CAVOK 35/24 Q1005 NOSIG",
      "taf": "TAF OMAA 241100Z 2412/2518 30010KT 8000 NSC"
    },
    {
      "icao": "OMDB",
      "alert": "OK",
      "vis_m": 9999,
      "fzfg": false,
      "metar_trigger": false,
      "taf_trigger": false,
      "metar": "METAR OMDB 241400Z 31008KT CAVOK 35/23 Q1005 NOSIG",
      "taf": "TAF OMDB 241100Z 2412/2518 34012KT 8000 NSC"
    },
    {
      "icao": "UAAA",
      "alert": "OK",
      "vis_m": 9999,
      "fzfg": false,
      "metar_trigger": false,
      "taf_trigger": false,
      "metar": "METAR UAAA 241400Z VRB01MPS 9999 FEW050CB SCT100 21/02 Q1018 NOSIG",
      "taf": "TAF UAAA 241102Z 2412/2512 20003MPS 9999 FEW050CB SCT100 TX25/2510Z TN09/2501Z"
    },
    {
      "icao": "UBBB",
      "alert": "OK",
      "vis_m": 9999,
      "fzfg": false,
      "metar_trigger": false,
      "taf_trigger": false,
      "metar": "METAR UBBB 241400Z 15010KT 9999 FEW060CB 21/17 Q1011 NOSIG",
      "taf": "TAF UBBB 241057Z 2412/2512 17012KT 9999 SCT020 TX24/2412Z TN16/2501Z"
    },
    {
      "icao": "UDSG",
      "alert": "OK",
      "vis_m": 9999,
      "fzfg": false,
      "metar_trigger": false,
      "taf_trigger": false,
      "metar": "METAR UDSG 241400Z 25010KT 9999 BKN036CB 12/08 Q1017 NOSIG",
      "taf": "TAF UDSG 241100Z 2412/2512 24006KT 9999 BKN040"
    },
    {
      "icao": "UDYZ",
      "alert": "OK",
      "vis_m": 9999,
      "fzfg": false,
      "metar_trigger": false,
      "taf_trigger": false,
      "metar": "METAR UDYZ 241400Z 27009KT 9999 VCTS BKN043CB 15/10 Q1014 NOSIG",
      "taf": "TAF UDYZ 241100Z 2412/2512 18006KT 9999 BKN040"
    },
    {
      "icao": "UGKO",
      "alert": "OK",
      "vis_m": 9999,
      "fzfg": false,
      "metar_trigger": false,
      "taf_trigger": false,
      "metar": "METAR UGKO 241400Z 25013KT 9999 SCT019CB OVC037 18/15 Q1011 NOSIG",
      "taf": "TAF UGKO 241100Z 2412/2512 27012KT 9999 -RA SCT020 BKN040 TX19/2412Z TN14/2502Z"
    }
  ]
}