{
  "ts_utc": "2026-06-19T20:44:02Z",
  "threshold_m": 150,
  "source": "stations_override.txt (ICAO list) + aviationweather.gov (METAR/TAF raw)",
  "station_count": 159,
  "stations": [
    {
      "icao": "BIKF",
      "alert": "OK",
      "vis_m": 9999,
      "fzfg": false,
      "metar_trigger": false,
      "taf_trigger": false,
      "metar": "METAR BIKF 192030Z 04014KT 9999 -RA BKN049 BKN075 12/07 Q0998",
      "taf": "TAF BIKF 191946Z 1921/2021 03015KT 9999 FEW040 TX13/2015Z TN09/2004Z"
    },
    {
      "icao": "BKPR",
      "alert": "OK",
      "vis_m": 9999,
      "fzfg": false,
      "metar_trigger": false,
      "taf_trigger": false,
      "metar": "METAR BKPR 192030Z 30004KT CAVOK 19/11 Q1022 NOSIG",
      "taf": "TAF BKPR 191730Z 1918/2018 02008KT CAVOK"
    },
    {
      "icao": "EBCI",
      "alert": "OK",
      "vis_m": 9999,
      "fzfg": false,
      "metar_trigger": false,
      "taf_trigger": false,
      "metar": "METAR EBCI 192020Z 35004KT 320V050 CAVOK 24/16 Q1016 NOSIG",
      "taf": "TAF EBCI 191700Z 1918/2024 19005KT CAVOK"
    },
    {
      "icao": "EDDB",
      "alert": "OK",
      "vis_m": 9999,
      "fzfg": false,
      "metar_trigger": false,
      "taf_trigger": false,
      "metar": "METAR EDDB 192020Z AUTO 12005KT 060V150 CAVOK 23/19 Q1017 NOSIG",
      "taf": "TAF EDDB 191700Z 1918/2018 10006KT CAVOK"
    },
    {
      "icao": "EDDH",
      "alert": "OK",
      "vis_m": 9999,
      "fzfg": false,
      "metar_trigger": false,
      "taf_trigger": false,
      "metar": "METAR EDDH 192020Z AUTO 10005KT 050V130 CAVOK 27/20 Q1015 NOSIG",
      "taf": "TAF EDDH 191700Z 1918/2024 14003KT CAVOK"
    },
    {
      "icao": "EDDK",
      "alert": "OK",
      "vis_m": 9999,
      "fzfg": false,
      "metar_trigger": false,
      "taf_trigger": false,
      "metar": "METAR EDDK 192020Z AUTO 08006KT 050V120 9999 -SHRA FEW030 FEW///CB 21/18 Q1017 TEMPO SHRA",
      "taf": "TAF EDDK 191700Z 1918/2024 11004KT CAVOK"
    },
    {
      "icao": "EDDN",
      "alert": "OK",
      "vis_m": 9999,
      "fzfg": false,
      "metar_trigger": false,
      "taf_trigger": false,
      "metar": "METAR EDDN 192020Z AUTO 11004KT CAVOK 28/16 Q1018",
      "taf": "TAF EDDN 191700Z 1918/2018 10004KT CAVOK"
    },
    {
      "icao": "EDDS",
      "alert": "OK",
      "vis_m": 9999,
      "fzfg": false,
      "metar_trigger": false,
      "taf_trigger": false,
      "metar": "METAR EDDS 192020Z AUTO 21010KT 160V280 CAVOK 25/14 Q1019",
      "taf": "TAF EDDS 191700Z 1918/2018 VRB03KT 9999 SCT040"
    },
    {
      "icao": "EDFH",
      "alert": "OK",
      "vis_m": 9999,
      "fzfg": false,
      "metar_trigger": false,
      "taf_trigger": false,
      "metar": "METAR EDFH 192020Z VRB05KT CAVOK 23/14 Q1019",
      "taf": "TAF EDFH 191700Z 1918/2018 16006KT CAVOK"
    },
    {
      "icao": "EDJA",
      "alert": "OK",
      "vis_m": 9999,
      "fzfg": false,
      "metar_trigger": false,
      "taf_trigger": false,
      "metar": "METAR EDJA 192020Z 24013G28KT CAVOK 22/15 Q1022",
      "taf": "TAF EDJA 191700Z 1918/2003 05004KT CAVOK"
    },
    {
      "icao": "EDLW",
      "alert": "OK",
      "vis_m": 9999,
      "fzfg": false,
      "metar_trigger": false,
      "taf_trigger": false,
      "metar": "METAR EDLW 192020Z 10019KT 9999 -SHRA VCTS BKN070CB 22/17 Q1017",
      "taf": "TAF EDLW 191700Z 1918/2018 15006KT CAVOK"
    },
    {
      "icao": "EDNY",
      "alert": "OK",
      "vis_m": 9999,
      "fzfg": false,
      "metar_trigger": false,
      "taf_trigger": false,
      "metar": "METAR EDNY 192020Z AUTO 18007KT 9999 // FEW078/// BKN098/// OVC160/// 20/17 Q1023",
      "taf": "TAF EDNY 191700Z 1918/2003 17006KT CAVOK"
    },
    {
      "icao": "EDSB",
      "alert": "OK",
      "vis_m": 9999,
      "fzfg": false,
      "metar_trigger": false,
      "taf_trigger": false,
      "metar": "METAR EDSB 192020Z 16016G28KT 9999 -TSRA SCT089CB 25/17 Q1017",
      "taf": "TAF EDSB 191727Z 1918/2018 VRB03KT CAVOK"
    },
    {
      "icao": "EETN",
      "alert": "OK",
      "vis_m": 9999,
      "fzfg": false,
      "metar_trigger": false,
      "taf_trigger": false,
      "metar": "METAR EETN 192020Z 25005KT CAVOK 15/09 Q1018 NOSIG",
      "taf": "TAF EETN 191730Z 1918/2018 26006KT CAVOK"
    },
    {
      "icao": "EFTU",
      "alert": "OK",
      "vis_m": 9999,
      "fzfg": false,
      "metar_trigger": false,
      "taf_trigger": false,
      "metar": "METAR EFTU 192020Z AUTO 20004KT CAVOK 17/07 Q1017",
      "taf": "TAF EFTU 192029Z 1921/2021 21006KT CAVOK"
    },
    {
      "icao": "EGBB",
      "alert": "OK",
      "vis_m": 9999,
      "fzfg": false,
      "metar_trigger": false,
      "taf_trigger": false,
      "metar": "METAR EGBB 192020Z 21008KT 170V250 CAVOK 21/16 Q1013",
      "taf": "TAF EGBB 191656Z 1918/2018 20010KT 9999 FEW025"
    },
    {
      "icao": "EGGP",
      "alert": "OK",
      "vis_m": 9999,
      "fzfg": false,
      "metar_trigger": false,
      "taf_trigger": false,
      "metar": "METAR EGGP 192020Z 19005KT 160V220 9999 SCT036 20/14 Q1011",
      "taf": "TAF EGGP 191701Z 1918/2018 21012KT 9999 SCT030"
    },
    {
      "icao": "EGGW",
      "alert": "OK",
      "vis_m": 9999,
      "fzfg": false,
      "metar_trigger": false,
      "taf_trigger": false,
      "metar": "METAR EGGW 192020Z AUTO 25008KT 9999 NCD 21/15 Q1013",
      "taf": "TAF EGGW 191701Z 1918/2018 24009KT 9999 FEW030"
    },
    {
      "icao": "EGKK",
      "alert": "OK",
      "vis_m": 9999,
      "fzfg": false,
      "metar_trigger": false,
      "taf_trigger": false,
      "metar": "METAR EGKK 192020Z 24006KT CAVOK 21/16 Q1014",
      "taf": "TAF EGKK 191658Z 1918/2024 23008KT 9999 FEW045"
    },
    {
      "icao": "EGNM",
      "alert": "OK",
      "vis_m": 9999,
      "fzfg": false,
      "metar_trigger": false,
      "taf_trigger": false,
      "metar": "METAR EGNM 192020Z 22010KT 9999 FEW010 18/15 Q1011",
      "taf": ""
    },
    {
      "icao": "EGPD",
      "alert": "OK",
      "vis_m": 9999,
      "fzfg": false,
      "metar_trigger": false,
      "taf_trigger": false,
      "metar": "METAR EGPD 192020Z AUTO 34007KT 9999 FEW014/// BKN031/// BKN040/// //////CB 14/13 Q1006",
      "taf": "TAF EGPD 191702Z 1918/2018 19010KT 9999 SCT020"
    },
    {
      "icao": "EGPF",
      "alert": "OK",
      "vis_m": 9999,
      "fzfg": false,
      "metar_trigger": false,
      "taf_trigger": false,
      "metar": "METAR EGPF 192020Z AUTO 25003KT 9999 NCD 15/12 Q1008",
      "taf": "TAF EGPF 191656Z 1918/2018 22005KT 9999 SCT030"
    },
    {
      "icao": "EHBK",
      "alert": "OK",
      "vis_m": 9999,
      "fzfg": false,
      "metar_trigger": false,
      "taf_trigger": false,
      "metar": "METAR EHBK 192025Z AUTO 10006KT 9999 NSC 24/17 Q1015 NOSIG",
      "taf": "TAF EHBK 191725Z 1918/2024 13007KT CAVOK"
    },
    {
      "icao": "EHEH",
      "alert": "OK",
      "vis_m": 9999,
      "fzfg": false,
      "metar_trigger": false,
      "taf_trigger": false,
      "metar": "METAR EHEH 192025Z AUTO 28006KT 220V330 9999 FEW130 26/17 Q1015 BLU NOSIG RMK TREND REMOTE BY EHWX",
      "taf": "TAF EHEH 191741Z 1918/2024 20008KT CAVOK"
    },
    {
      "icao": "EKBI",
      "alert": "OK",
      "vis_m": 9999,
      "fzfg": false,
      "metar_trigger": false,
      "taf_trigger": false,
      "metar": "METAR EKBI 192020Z AUTO 13005KT 9999 NCD 22/19 Q1015",
      "taf": "TAF EKBI 192027Z 1921/2021 14006KT 9999 SCT030"
    },
    {
      "icao": "EKCH",
      "alert": "OK",
      "vis_m": 9999,
      "fzfg": false,
      "metar_trigger": false,
      "taf_trigger": false,
      "metar": "METAR EKCH 192020Z AUTO 14007KT 9999 NCD 19/17 Q1017 NOSIG",
      "taf": "TAF EKCH 192027Z 1921/2021 15009KT CAVOK"
    },
    {
      "icao": "ENAL",
      "alert": "OK",
      "vis_m": 9999,
      "fzfg": false,
      "metar_trigger": false,
      "taf_trigger": false,
      "metar": "METAR ENAL 192020Z 25007KT 9999 -RA BKN035 16/15 Q1004",
      "taf": "TAF ENAL 192000Z 1921/2006 24008KT 9999 -RA BKN030"
    },
    {
      "icao": "ENBR",
      "alert": "OK",
      "vis_m": 9999,
      "fzfg": false,
      "metar_trigger": false,
      "taf_trigger": false,
      "metar": "METAR ENBR 192020Z 16016KT 9999 SCT018 BKN022 18/15 Q1008 RMK WIND 1200FT 17028G40KT",
      "taf": "TAF ENBR 191700Z 1918/2018 17018KT 9999 BKN025"
    },
    {
      "icao": "ENGM",
      "alert": "OK",
      "vis_m": 9999,
      "fzfg": false,
      "metar_trigger": false,
      "taf_trigger": false,
      "metar": "METAR ENGM 192020Z 19010KT 9999 BKN017 17/13 Q1014 NOSIG",
      "taf": "TAF ENGM 191700Z 1918/2018 20012KT 9999 BKN025"
    },
    {
      "icao": "ENHD",
      "alert": "OK",
      "vis_m": 9999,
      "fzfg": false,
      "metar_trigger": false,
      "taf_trigger": false,
      "metar": "METAR ENHD 192020Z 16017KT 9999 FEW018 18/15 Q1009",
      "taf": "TAF ENHD 191400Z 1915/1922 17015KT 9999 BKN030"
    },
    {
      "icao": "ENTC",
      "alert": "OK",
      "vis_m": 9999,
      "fzfg": false,
      "metar_trigger": false,
      "taf_trigger": false,
      "metar": "METAR ENTC 192020Z 02004KT 9999 FEW012 BKN020 10/07 Q1012 NOSIG RMK WIND 2600FT 21005KT",
      "taf": "TAF ENTC 191700Z 1918/2018 02006KT 9999 BKN040"
    },
    {
      "icao": "ENTO",
      "alert": "OK",
      "vis_m": 9999,
      "fzfg": false,
      "metar_trigger": false,
      "taf_trigger": false,
      "metar": "METAR ENTO 192020Z 16005KT 9999 FEW021 BKN034 17/17 Q1014 NOSIG",
      "taf": "TAF ENTO 191700Z 1918/2018 19008KT 9999 FEW010 BKN040"
    },
    {
      "icao": "ENVA",
      "alert": "OK",
      "vis_m": 9999,
      "fzfg": false,
      "metar_trigger": false,
      "taf_trigger": false,
      "metar": "METAR ENVA 192020Z 09006KT 050V130 CAVOK 20/14 Q1006 RMK WIND 670FT 15013KT",
      "taf": ""
    },
    {
      "icao": "ENZV",
      "alert": "OK",
      "vis_m": 9999,
      "fzfg": false,
      "metar_trigger": false,
      "taf_trigger": false,
      "metar": "METAR ENZV 192020Z 17015KT 9999 BKN035 20/16 Q1010",
      "taf": "TAF ENZV 191700Z 1918/2018 17015KT 9999 SCT020"
    },
    {
      "icao": "EPGD",
      "alert": "OK",
      "vis_m": 9999,
      "fzfg": false,
      "metar_trigger": false,
      "taf_trigger": false,
      "metar": "METAR EPGD 192030Z 13005KT CAVOK 19/16 Q1020",
      "taf": ""
    },
    {
      "icao": "EPKK",
      "alert": "OK",
      "vis_m": 9999,
      "fzfg": false,
      "metar_trigger": false,
      "taf_trigger": false,
      "metar": "METAR EPKK 192030Z 04004KT 360V060 CAVOK 23/17 Q1020",
      "taf": "TAF EPKK 192030Z 1921/2021 03004KT CAVOK"
    },
    {
      "icao": "EPKT",
      "alert": "OK",
      "vis_m": 9999,
      "fzfg": false,
      "metar_trigger": false,
      "taf_trigger": false,
      "metar": "METAR EPKT 192030Z 06003KT CAVOK 20/17 Q1020",
      "taf": "TAF EPKT 191730Z 1918/2018 VRB02KT CAVOK"
    },
    {
      "icao": "EPLB",
      "alert": "OK",
      "vis_m": 9999,
      "fzfg": false,
      "metar_trigger": false,
      "taf_trigger": false,
      "metar": "METAR EPLB 192030Z 18001KT CAVOK 18/13 Q1021",
      "taf": ""
    },
    {
      "icao": "EPMO",
      "alert": "OK",
      "vis_m": 9999,
      "fzfg": false,
      "metar_trigger": false,
      "taf_trigger": false,
      "metar": "METAR EPMO 192030Z 06003KT CAVOK 20/15 Q1020",
      "taf": "TAF EPMO 191730Z 1918/2018 33005KT CAVOK"
    },
    {
      "icao": "EPPO",
      "alert": "OK",
      "vis_m": 9999,
      "fzfg": false,
      "metar_trigger": false,
      "taf_trigger": false,
      "metar": "METAR EPPO 192030Z 22003KT 160V260 CAVOK 20/18 Q1019",
      "taf": ""
    },
    {
      "icao": "EPRA",
      "alert": "OK",
      "vis_m": 9999,
      "fzfg": false,
      "metar_trigger": false,
      "taf_trigger": false,
      "metar": "METAR EPRA 192030Z 13005KT CAVOK 20/13 Q1021",
      "taf": "TAF EPRA 192030Z 1921/2006 13006KT CAVOK"
    },
    {
      "icao": "EPRZ",
      "alert": "OK",
      "vis_m": 9999,
      "fzfg": false,
      "metar_trigger": false,
      "taf_trigger": false,
      "metar": "METAR EPRZ 192030Z 36003KT CAVOK 20/15 Q1021",
      "taf": "TAF EPRZ 191730Z 1918/2018 36010KT CAVOK"
    },
    {
      "icao": "EPSC",
      "alert": "OK",
      "vis_m": 9999,
      "fzfg": false,
      "metar_trigger": false,
      "taf_trigger": false,
      "metar": "METAR EPSC 192030Z 16005KT CAVOK 21/19 Q1018",
      "taf": "TAF EPSC 191730Z 1918/2018 10010KT CAVOK"
    },
    {
      "icao": "EPSY",
      "alert": "OK",
      "vis_m": 9999,
      "fzfg": false,
      "metar_trigger": false,
      "taf_trigger": false,
      "metar": "METAR EPSY 192030Z VRB01KT CAVOK 16/14 Q1021",
      "taf": "TAF EPSY 192030Z 1921/2006 VRB02KT CAVOK"
    },
    {
      "icao": "EPWA",
      "alert": "OK",
      "vis_m": 9999,
      "fzfg": false,
      "metar_trigger": false,
      "taf_trigger": false,
      "metar": "METAR EPWA 192030Z 09005KT CAVOK 23/13 Q1021 NOSIG",
      "taf": "TAF EPWA 192030Z 1921/2021 VRB03KT CAVOK"
    },
    {
      "icao": "EPWR",
      "alert": "OK",
      "vis_m": 9999,
      "fzfg": false,
      "metar_trigger": false,
      "taf_trigger": false,
      "metar": "METAR EPWR 192030Z 04008KT 010V070 9999 -SHRA BKN040CB 21/18 Q1020 RETS",
      "taf": "TAF EPWR 192030Z 1921/2021 12008KT CAVOK"
    },
    {
      "icao": "ESGG",
      "alert": "OK",
      "vis_m": 9999,
      "fzfg": false,
      "metar_trigger": false,
      "taf_trigger": false,
      "metar": "METAR ESGG 192020Z 15005KT CAVOK 20/17 Q1016",
      "taf": "TAF ESGG 192030Z 1921/2021 19010KT CAVOK"
    },
    {
      "icao": "ESKN",
      "alert": "OK",
      "vis_m": 9999,
      "fzfg": false,
      "metar_trigger": false,
      "taf_trigger": false,
      "metar": "METAR ESKN 192020Z 14005KT CAVOK 19/15 Q1016",
      "taf": "TAF ESKN 192030Z 1921/2021 16006KT CAVOK"
    },
    {
      "icao": "ESMS",
      "alert": "OK",
      "vis_m": 9999,
      "fzfg": false,
      "metar_trigger": false,
      "taf_trigger": false,
      "metar": "METAR ESMS 192020Z 12004KT CAVOK 18/18 Q1017",
      "taf": "TAF ESMS 192027Z 1921/2021 14005KT CAVOK"
    },
    {
      "icao": "ESSA",
      "alert": "OK",
      "vis_m": 9999,
      "fzfg": false,
      "metar_trigger": false,
      "taf_trigger": false,
      "metar": "METAR ESSA 192020Z 18008KT CAVOK 18/11 Q1016 NOSIG",
      "taf": "TAF ESSA 192030Z 1921/2021 20006KT CAVOK"
    },
    {
      "icao": "EYKA",
      "alert": "OK",
      "vis_m": 9999,
      "fzfg": false,
      "metar_trigger": false,
      "taf_trigger": false,
      "metar": "METAR EYKA 192020Z VRB02KT CAVOK 17/13 Q1020",
      "taf": "TAF EYKA 191700Z 1918/2018 VRB03KT 8000 FEW045"
    },
    {
      "icao": "EYPA",
      "alert": "OK",
      "vis_m": 9999,
      "fzfg": false,
      "metar_trigger": false,
      "taf_trigger": false,
      "metar": "METAR EYPA 192020Z 14001KT CAVOK 14/12 Q1020",
      "taf": "TAF EYPA 191700Z 1918/2018 VRB03KT 8000 NSC"
    },
    {
      "icao": "EYVI",
      "alert": "OK",
      "vis_m": 9999,
      "fzfg": false,
      "metar_trigger": false,
      "taf_trigger": false,
      "metar": "METAR EYVI 192020Z VRB01KT CAVOK 13/12 Q1021 NOSIG",
      "taf": "TAF EYVI 191700Z 1918/2018 VRB03KT 8000 FEW045"
    },
    {
      "icao": "GCFV",
      "alert": "OK",
      "vis_m": 9999,
      "fzfg": false,
      "metar_trigger": false,
      "taf_trigger": false,
      "metar": "METAR GCFV 192030Z 35010KT 320V020 9999 FEW020 22/15 Q1017",
      "taf": "TAF GCFV 192000Z 1921/2021 36010KT 9999 SCT020 TX25/2014Z TN20/2006Z"
    },
    {
      "icao": "GCLP",
      "alert": "OK",
      "vis_m": 9999,
      "fzfg": false,
      "metar_trigger": false,
      "taf_trigger": false,
      "metar": "METAR GCLP 192030Z 03017KT 9999 FEW025 21/16 Q1017 NOSIG",
      "taf": "TAF GCLP 192000Z 1921/2021 01017KT 9999 FEW025 TX26/2014Z TN20/2006Z"
    },
    {
      "icao": "GCTS",
      "alert": "OK",
      "vis_m": 9999,
      "fzfg": false,
      "metar_trigger": false,
      "taf_trigger": false,
      "metar": "METAR GCTS 192030Z 08012KT 9999 FEW030 22/16 Q1017 NOSIG",
      "taf": "TAF GCTS 192000Z 1921/2021 06005KT 9999 SCT025 TX26/2014Z TN19/2006Z"
    },
    {
      "icao": "GMAD",
      "alert": "OK",
      "vis_m": 8000,
      "fzfg": false,
      "metar_trigger": false,
      "taf_trigger": false,
      "metar": "METAR GMAD 192030Z 22009KT 8000 SCT010 SCT200 21/18 Q1013 NOSIG",
      "taf": "TAF GMAD 191700Z 1918/2024 24014KT 8000 FEW020"
    },
    {
      "icao": "GMMN",
      "alert": "OK",
      "vis_m": 9999,
      "fzfg": false,
      "metar_trigger": false,
      "taf_trigger": false,
      "metar": "METAR GMMN 192030Z 29010KT 9999 FEW026 21/17 Q1014 NOSIG",
      "taf": "TAF GMMN 191700Z 1918/2024 30010KT CAVOK"
    },
    {
      "icao": "GMMX",
      "alert": "OK",
      "vis_m": 8000,
      "fzfg": false,
      "metar_trigger": false,
      "taf_trigger": false,
      "metar": "METAR GMMX 192030Z 32008KT 290V360 8000 SCT030 25/16 Q1014 NOSIG",
      "taf": "TAF GMMX 191700Z 1918/2024 24004KT 8000 SCT030"
    },
    {
      "icao": "HEGN",
      "alert": "OK",
      "vis_m": 9999,
      "fzfg": false,
      "metar_trigger": false,
      "taf_trigger": false,
      "metar": "METAR HEGN 192000Z 32009KT CAVOK 31/09 Q1007 NOSIG",
      "taf": "TAF HEGN 191700Z 1918/2024 33015KT CAVOK"
    },
    {
      "icao": "HEMA",
      "alert": "OK",
      "vis_m": 9999,
      "fzfg": false,
      "metar_trigger": false,
      "taf_trigger": false,
      "metar": "METAR HEMA 192000Z 33006KT CAVOK 28/11 Q1008 NOSIG",
      "taf": "TAF HEMA 191700Z 1918/2024 33015KT CAVOK"
    },
    {
      "icao": "HESH",
      "alert": "OK",
      "vis_m": 9999,
      "fzfg": false,
      "metar_trigger": false,
      "taf_trigger": false,
      "metar": "METAR HESH 192000Z 27003KT CAVOK 33/09 Q1006 NOSIG",
      "taf": "TAF HESH 191700Z 1918/2024 34012KT CAVOK"
    },
    {
      "icao": "HESX",
      "alert": "OK",
      "vis_m": 9999,
      "fzfg": false,
      "metar_trigger": false,
      "taf_trigger": false,
      "metar": "METAR HESX 192000Z 36010KT CAVOK 25/15 Q1012 NOSIG",
      "taf": "TAF HESX 191700Z 1918/2024 36010KT 9999 SCT020"
    },
    {
      "icao": "LATI",
      "alert": "OK",
      "vis_m": 9999,
      "fzfg": false,
      "metar_trigger": false,
      "taf_trigger": false,
      "metar": "METAR LATI 192020Z VRB02KT CAVOK 23/18 Q1017 NOSIG",
      "taf": "TAF LATI 191700Z 1918/2018 34010KT CAVOK TX35/2011Z TN17/2004Z"
    },
    {
      "icao": "LBPD",
      "alert": "OK",
      "vis_m": 9999,
      "fzfg": false,
      "metar_trigger": false,
      "taf_trigger": false,
      "metar": "METAR LBPD 192030Z AUTO 15005KT 9999 NCD 20/12 Q1020",
      "taf": "TAF LBPD 191700Z 1918/2018 10010KT 9999 SCT060"
    },
    {
      "icao": "LBSF",
      "alert": "OK",
      "vis_m": 9999,
      "fzfg": false,
      "metar_trigger": false,
      "taf_trigger": false,
      "metar": "METAR LBSF 192030Z AUTO VRB02KT 9999 NSC 15/11 Q1022 NOSIG",
      "taf": "TAF LBSF 191700Z 1918/2018 05010KT CAVOK"
    },
    {
      "icao": "LBWN",
      "alert": "OK",
      "vis_m": 9999,
      "fzfg": false,
      "metar_trigger": false,
      "taf_trigger": false,
      "metar": "METAR LBWN 192030Z AUTO 01005KT 9999 2700E NCD 16/13 Q1020 NOSIG",
      "taf": "TAF LBWN 191700Z 1918/2018 10010KT 9999 SCT045"
    },
    {
      "icao": "LCLK",
      "alert": "OK",
      "vis_m": 9999,
      "fzfg": false,
      "metar_trigger": false,
      "taf_trigger": false,
      "metar": "METAR LCLK 192030Z 22006KT 9999 SCT040 25/22 Q1010 NOSIG",
      "taf": "TAF LCLK 191730Z 1918/2018 24007KT 9999 SCT025"
    },
    {
      "icao": "LCPH",
      "alert": "OK",
      "vis_m": 9999,
      "fzfg": false,
      "metar_trigger": false,
      "taf_trigger": false,
      "metar": "METAR LCPH 192030Z 01004KT 350V080 CAVOK 23/19 Q1010 NOSIG",
      "taf": "TAF LCPH 191730Z 1918/2018 02007KT 9999 FEW018"
    },
    {
      "icao": "LEAL",
      "alert": "OK",
      "vis_m": 9999,
      "fzfg": false,
      "metar_trigger": false,
      "taf_trigger": false,
      "metar": "METAR LEAL 192030Z 08009KT CAVOK 26/21 Q1014 NOSIG",
      "taf": "TAF LEAL 191700Z 1918/2018 08012KT CAVOK TX33/2012Z TN23/2005Z"
    },
    {
      "icao": "LEBB",
      "alert": "OK",
      "vis_m": 9999,
      "fzfg": false,
      "metar_trigger": false,
      "taf_trigger": false,
      "metar": "METAR LEBB 192030Z 33004KT 280V360 9999 FEW012 SCT025 22/20 Q1016 NOSIG",
      "taf": ""
    },
    {
      "icao": "LEBL",
      "alert": "OK",
      "vis_m": 9999,
      "fzfg": false,
      "metar_trigger": false,
      "taf_trigger": false,
      "metar": "METAR LEBL 192030Z 06009KT CAVOK 25/21 Q1018 NOSIG",
      "taf": "TAF LEBL 191700Z 1918/2018 07012KT CAVOK TX30/2012Z TN23/2006Z"
    },
    {
      "icao": "LECH",
      "alert": "OK",
      "vis_m": 9999,
      "fzfg": false,
      "metar_trigger": false,
      "taf_trigger": false,
      "metar": "METAR LECH 192030Z AUTO 08005KT CAVOK 23/19 Q1019",
      "taf": "TAF LECH 191700Z 1918/2018 09010KT CAVOK TX35/2012Z TN19/2005Z"
    },
    {
      "icao": "LEMD",
      "alert": "OK",
      "vis_m": 9999,
      "fzfg": false,
      "metar_trigger": false,
      "taf_trigger": false,
      "metar": "METAR LEMD 192030Z 16013KT 9999 VCSH SCT095CB 33/09 Q1015 NOSIG",
      "taf": ""
    },
    {
      "icao": "LEMG",
      "alert": "OK",
      "vis_m": 9999,
      "fzfg": false,
      "metar_trigger": false,
      "taf_trigger": false,
      "metar": "METAR LEMG 192030Z 13009KT 100V170 CAVOK 25/19 Q1014 NOSIG",
      "taf": "TAF LEMG 191700Z 1918/2018 14007KT CAVOK TX31/2014Z TN22/2006Z"
    },
    {
      "icao": "LEVC",
      "alert": "OK",
      "vis_m": 9999,
      "fzfg": false,
      "metar_trigger": false,
      "taf_trigger": false,
      "metar": "METAR LEVC 192030Z 09005KT 050V130 9999 FEW015 25/21 Q1017 NOSIG",
      "taf": "TAF LEVC 191700Z 1918/2018 09010KT 9999 FEW015 TX32/2012Z TN20/2005Z"
    },
    {
      "icao": "LEXJ",
      "alert": "OK",
      "vis_m": 9000,
      "fzfg": false,
      "metar_trigger": false,
      "taf_trigger": false,
      "metar": "METAR LEXJ 192030Z VRB01KT 9000 SCT009 BKN015 20/19 Q1017",
      "taf": "TAF LEXJ 192000Z 1921/2021 06009KT 9999 BKN016 TX26/2015Z TN19/2005Z"
    },
    {
      "icao": "LEZG",
      "alert": "OK",
      "vis_m": 9999,
      "fzfg": false,
      "metar_trigger": false,
      "taf_trigger": false,
      "metar": "METAR LEZG 192030Z 09011KT CAVOK 30/12 Q1016 NOSIG",
      "taf": "TAF LEZG 191700Z 1918/2018 12012KT CAVOK TX39/2015Z TN22/2005Z"
    },
    {
      "icao": "LEZL",
      "alert": "OK",
      "vis_m": 9999,
      "fzfg": false,
      "metar_trigger": false,
      "taf_trigger": false,
      "metar": "METAR LEZL 192030Z 25008KT CAVOK 30/16 Q1012 NOSIG",
      "taf": "TAF LEZL 192000Z 1921/2021 21012KT CAVOK TX38/2015Z TN22/2006Z"
    },
    {
      "icao": "LFBD",
      "alert": "OK",
      "vis_m": 9999,
      "fzfg": false,
      "metar_trigger": false,
      "taf_trigger": false,
      "metar": "METAR LFBD 192030Z AUTO 33006KT 310V010 CAVOK 26/18 Q1015 TEMPO VRB15G35KT 2000 TSRA BKN090CB",
      "taf": ""
    },
    {
      "icao": "LFLL",
      "alert": "OK",
      "vis_m": 9999,
      "fzfg": false,
      "metar_trigger": false,
      "taf_trigger": false,
      "metar": "METAR LFLL 192030Z 19010KT CAVOK 28/10 Q1018 NOSIG",
      "taf": "TAF LFLL 191700Z 1918/2024 19012KT CAVOK"
    },
    {
      "icao": "LFLS",
      "alert": "OK",
      "vis_m": 9999,
      "fzfg": false,
      "metar_trigger": false,
      "taf_trigger": false,
      "metar": "METAR LFLS 192030Z AUTO 29006KT 9999 3100 NSC 25/10 Q1020",
      "taf": "TAF LFLS 191400Z 1915/2015 22010KT CAVOK"
    },
    {
      "icao": "LFMN",
      "alert": "OK",
      "vis_m": 9999,
      "fzfg": false,
      "metar_trigger": false,
      "taf_trigger": false,
      "metar": "METAR LFMN 192030Z 00000KT CAVOK 25/21 Q1018 NOSIG",
      "taf": "TAF LFMN 192000Z 1921/2103 VRB04KT CAVOK"
    },
    {
      "icao": "LFOB",
      "alert": "OK",
      "vis_m": 9999,
      "fzfg": false,
      "metar_trigger": false,
      "taf_trigger": false,
      "metar": "METAR LFOB 192030Z AUTO 30007KT CAVOK 21/18 Q1015 TEMPO VRB15G25KT 3000 TSRA BKN025CB",
      "taf": ""
    },
    {
      "icao": "LFPO",
      "alert": "OK",
      "vis_m": 9999,
      "fzfg": false,
      "metar_trigger": false,
      "taf_trigger": false,
      "metar": "METAR LFPO 192030Z AUTO 02004KT 360V070 CAVOK 26/17 Q1014 TEMPO 3000 -TSRA FEW080CB",
      "taf": "TAF LFPO 191700Z 1918/2024 18008KT CAVOK"
    },
    {
      "icao": "LFSB",
      "alert": "OK",
      "vis_m": 9999,
      "fzfg": false,
      "metar_trigger": false,
      "taf_trigger": false,
      "metar": "METAR LFSB 192030Z AUTO 09011KT 9999 ///TCU 24/16 Q1020 BECMG NSC",
      "taf": ""
    },
    {
      "icao": "LGAV",
      "alert": "OK",
      "vis_m": 9999,
      "fzfg": false,
      "metar_trigger": false,
      "taf_trigger": false,
      "metar": "METAR LGAV 192020Z 01010KT CAVOK 24/08 Q1018 NOSIG",
      "taf": "TAF LGAV 191700Z 1918/2018 02015KT 9999 FEW025"
    },
    {
      "icao": "LGTS",
      "alert": "OK",
      "vis_m": 9999,
      "fzfg": false,
      "metar_trigger": false,
      "taf_trigger": false,
      "metar": "METAR LGTS 192020Z VRB02KT 9999 FEW018TCU SCT030 23/18 Q1019 NOSIG",
      "taf": ""
    },
    {
      "icao": "LHBP",
      "alert": "OK",
      "vis_m": 9999,
      "fzfg": false,
      "metar_trigger": false,
      "taf_trigger": false,
      "metar": "METAR LHBP 192030Z 10004KT CAVOK 23/13 Q1020 NOSIG",
      "taf": "TAF LHBP 191715Z 1918/2018 VRB04KT CAVOK"
    },
    {
      "icao": "LHDC",
      "alert": "OK",
      "vis_m": 9999,
      "fzfg": false,
      "metar_trigger": false,
      "taf_trigger": false,
      "metar": "METAR LHDC 192015Z AUTO 00000KT CAVOK 22/15 Q1020",
      "taf": "TAF LHDC 191415Z 1915/1924 VRB03KT CAVOK"
    },
    {
      "icao": "LIBD",
      "alert": "OK",
      "vis_m": 9999,
      "fzfg": false,
      "metar_trigger": false,
      "taf_trigger": false,
      "metar": "METAR LIBD 192020Z 30003KT CAVOK 23/17 Q1018",
      "taf": "TAF LIBD 191700Z 1918/2018 VRB05KT CAVOK"
    },
    {
      "icao": "LIBG",
      "alert": "OK",
      "vis_m": 9999,
      "fzfg": false,
      "metar_trigger": false,
      "taf_trigger": false,
      "metar": "METAR LIBG 192020Z AUTO 23004KT 9999 NCD 24/13 Q1018",
      "taf": "TAF LIBG 191700Z 1918/2018 VRB05KT 9999 SCT030"
    },
    {
      "icao": "LIBP",
      "alert": "OK",
      "vis_m": 9999,
      "fzfg": false,
      "metar_trigger": false,
      "taf_trigger": false,
      "metar": "METAR LIBP 192020Z AUTO 23004KT 9999 NCD 23/18 Q1019",
      "taf": "TAF LIBP 191700Z 1918/2018 VRB05KT CAVOK"
    },
    {
      "icao": "LIBR",
      "alert": "OK",
      "vis_m": 9999,
      "fzfg": false,
      "metar_trigger": false,
      "taf_trigger": false,
      "metar": "METAR LIBR 192020Z 31005KT CAVOK 23/22 Q1017",
      "taf": "TAF LIBR 191700Z 1918/2018 35012KT CAVOK"
    },
    {
      "icao": "LICA",
      "alert": "OK",
      "vis_m": 9999,
      "fzfg": false,
      "metar_trigger": false,
      "taf_trigger": false,
      "metar": "METAR LICA 192020Z AUTO VRB01KT 9999 NCD 24/22 Q1018",
      "taf": "TAF LICA 191700Z 1918/2018 26010KT 9999 SCT015"
    },
    {
      "icao": "LICC",
      "alert": "OK",
      "vis_m": 9999,
      "fzfg": false,
      "metar_trigger": false,
      "taf_trigger": false,
      "metar": "METAR LICC 192020Z VRB01KT CAVOK 26/16 Q1018",
      "taf": "TAF LICC 191700Z 1918/2018 09012KT 9999 FEW040"
    },
    {
      "icao": "LICJ",
      "alert": "OK",
      "vis_m": 9999,
      "fzfg": false,
      "metar_trigger": false,
      "taf_trigger": false,
      "metar": "METAR LICJ 192020Z 07004KT 030V130 CAVOK 24/21 Q1018",
      "taf": "TAF LICJ 191700Z 1918/2018 04014KT CAVOK"
    },
    {
      "icao": "LIMC",
      "alert": "OK",
      "vis_m": 9999,
      "fzfg": false,
      "metar_trigger": false,
      "taf_trigger": false,
      "metar": "METAR LIMC 192020Z VRB02KT CAVOK 25/18 Q1019 NOSIG",
      "taf": "TAF LIMC 191700Z 1918/2024 VRB05KT 9999 FEW050"
    },
    {
      "icao": "LIME",
      "alert": "OK",
      "vis_m": 9999,
      "fzfg": false,
      "metar_trigger": false,
      "taf_trigger": false,
      "metar": "METAR LIME 192020Z 01004KT CAVOK 27/17 Q1019 NOSIG",
      "taf": "TAF LIME 191700Z 1918/2018 VRB05KT 9999 FEW040"
    },
    {
      "icao": "LIMF",
      "alert": "OK",
      "vis_m": 9999,
      "fzfg": false,
      "metar_trigger": false,
      "taf_trigger": false,
      "metar": "METAR LIMF 192020Z 34005KT CAVOK 28/19 Q1019",
      "taf": "TAF LIMF 191700Z 1918/2018 VRB05KT 9999 FEW050"
    },
    {
      "icao": "LIMJ",
      "alert": "OK",
      "vis_m": 9999,
      "fzfg": false,
      "metar_trigger": false,
      "taf_trigger": false,
      "metar": "METAR LIMJ 192020Z VRB02KT CAVOK 25/20 Q1018",
      "taf": "TAF LIMJ 191700Z 1918/2018 VRB05KT CAVOK"
    },
    {
      "icao": "LIPE",
      "alert": "OK",
      "vis_m": 9999,
      "fzfg": false,
      "metar_trigger": false,
      "taf_trigger": false,
      "metar": "METAR LIPE 192020Z 11007KT CAVOK 27/16 Q1018",
      "taf": "TAF LIPE 191700Z 1918/2018 VRB05KT CAVOK"
    },
    {
      "icao": "LIPH",
      "alert": "OK",
      "vis_m": 9999,
      "fzfg": false,
      "metar_trigger": false,
      "taf_trigger": false,
      "metar": "METAR LIPH 192020Z 05002KT CAVOK 27/18 Q1018",
      "taf": "TAF LIPH 191700Z 1918/2018 VRB05KT 9999 SCT045"
    },
    {
      "icao": "LIPQ",
      "alert": "OK",
      "vis_m": 9999,
      "fzfg": false,
      "metar_trigger": false,
      "taf_trigger": false,
      "metar": "METAR LIPQ 192020Z AUTO 11003KT 080V140 9999 NCD 24/21 Q1019",
      "taf": "TAF LIPQ 191700Z 1918/2018 VRB05KT CAVOK"
    },
    {
      "icao": "LIPR",
      "alert": "OK",
      "vis_m": 9999,
      "fzfg": false,
      "metar_trigger": false,
      "taf_trigger": false,
      "metar": "METAR LIPR 192020Z AUTO VRB01KT 9999 NCD 25/20 Q1018",
      "taf": "TAF LIPR 191700Z 1918/2018 VRB05KT CAVOK"
    },
    {
      "icao": "LIPX",
      "alert": "OK",
      "vis_m": 9999,
      "fzfg": false,
      "metar_trigger": false,
      "taf_trigger": false,
      "metar": "METAR LIPX 192020Z 08004KT CAVOK 29/18 Q1018",
      "taf": "TAF LIPX 191700Z 1918/2018 VRB05KT 9999 FEW040"
    },
    {
      "icao": "LIPY",
      "alert": "OK",
      "vis_m": 9999,
      "fzfg": false,
      "metar_trigger": false,
      "taf_trigger": false,
      "metar": "METAR LIPY 192020Z AUTO 21003KT 9999 NCD 26/16 Q1018",
      "taf": "TAF LIPY 191700Z 1918/2018 VRB05KT CAVOK"
    },
    {
      "icao": "LIPZ",
      "alert": "OK",
      "vis_m": 9999,
      "fzfg": false,
      "metar_trigger": false,
      "taf_trigger": false,
      "metar": "METAR LIPZ 192020Z 15003KT CAVOK 26/22 Q1018 NOSIG",
      "taf": "TAF LIPZ 191700Z 1918/2024 VRB05KT CAVOK"
    },
    {
      "icao": "LIRF",
      "alert": "OK",
      "vis_m": 9999,
      "fzfg": false,
      "metar_trigger": false,
      "taf_trigger": false,
      "metar": "METAR LIRF 192020Z 28003KT 260V340 CAVOK 25/20 Q1018 NOSIG",
      "taf": "TAF LIRF 191700Z 1918/2024 VRB05KT CAVOK"
    },
    {
      "icao": "LIRN",
      "alert": "OK",
      "vis_m": 9999,
      "fzfg": false,
      "metar_trigger": false,
      "taf_trigger": false,
      "metar": "METAR LIRN 192020Z VRB01KT CAVOK 27/16 Q1018 NOSIG",
      "taf": "TAF LIRN 191700Z 1918/2018 VRB05KT CAVOK"
    },
    {
      "icao": "LIRP",
      "alert": "OK",
      "vis_m": 9999,
      "fzfg": false,
      "metar_trigger": false,
      "taf_trigger": false,
      "metar": "METAR LIRP 192015Z 32004KT CAVOK 24/20 Q1018 NOSIG",
      "taf": "TAF LIRP 191700Z 1918/2018 29007KT CAVOK"
    },
    {
      "icao": "LIRZ",
      "alert": "OK",
      "vis_m": 9999,
      "fzfg": false,
      "metar_trigger": false,
      "taf_trigger": false,
      "metar": "METAR LIRZ 192020Z AUTO 35004KT 9999 NCD 27/17 Q1019",
      "taf": "TAF LIRZ 191700Z 1918/2018 VRB05KT 9999 FEW035"
    },
    {
      "icao": "LJLJ",
      "alert": "OK",
      "vis_m": 9999,
      "fzfg": false,
      "metar_trigger": false,
      "taf_trigger": false,
      "metar": "METAR LJLJ 192030Z 05009KT 9999 FEW060 23/19 Q1021 NOSIG",
      "taf": "TAF LJLJ 191700Z 1918/2018 08005KT 9999 FEW060"
    },
    {
      "icao": "LKMT",
      "alert": "OK",
      "vis_m": 9999,
      "fzfg": false,
      "metar_trigger": false,
      "taf_trigger": false,
      "metar": "METAR LKMT 192030Z VRB01KT CAVOK 22/17 Q1020 NOSIG",
      "taf": "TAF LKMT 191700Z 1918/2018 VRB02KT CAVOK"
    },
    {
      "icao": "LKPR",
      "alert": "OK",
      "vis_m": 9999,
      "fzfg": false,
      "metar_trigger": false,
      "taf_trigger": false,
      "metar": "METAR LKPR 192030Z 16005KT CAVOK 24/16 Q1019 NOSIG",
      "taf": "TAF LKPR 192000Z 1921/2103 17006KT CAVOK"
    },
    {
      "icao": "LLBG",
      "alert": "OK",
      "vis_m": 9999,
      "fzfg": false,
      "metar_trigger": false,
      "taf_trigger": false,
      "metar": "METAR LLBG 192020Z VRB02KT CAVOK 24/17 Q1011 NOSIG",
      "taf": "TAF LLBG 191702Z 1918/2018 VRB03KT CAVOK TX30/2011Z TN20/2003Z"
    },
    {
      "icao": "LMML",
      "alert": "OK",
      "vis_m": 9999,
      "fzfg": false,
      "metar_trigger": false,
      "taf_trigger": false,
      "metar": "METAR LMML 192015Z 01004KT CAVOK 25/20 Q1018 NOSIG",
      "taf": "TAF LMML 191700Z 1918/2018 VRB05KT 9999 FEW015"
    },
    {
      "icao": "LOWW",
      "alert": "OK",
      "vis_m": 9999,
      "fzfg": false,
      "metar_trigger": false,
      "taf_trigger": false,
      "metar": "METAR LOWW 192020Z 18004KT CAVOK 24/16 Q1019 NOSIG",
      "taf": "TAF LOWW 192015Z 1921/2103 12005KT CAVOK TX34/2014Z TN20/2003Z"
    },
    {
      "icao": "LPFR",
      "alert": "OK",
      "vis_m": 9999,
      "fzfg": false,
      "metar_trigger": false,
      "taf_trigger": false,
      "metar": "METAR LPFR 192030Z 27007KT CAVOK 25/17 Q1013",
      "taf": "TAF LPFR 191700Z 1918/2018 25008KT CAVOK"
    },
    {
      "icao": "LPMA",
      "alert": "OK",
      "vis_m": 9999,
      "fzfg": false,
      "metar_trigger": false,
      "taf_trigger": false,
      "metar": "METAR LPMA 192030Z 01005KT 9999 BKN015 22/17 Q1018",
      "taf": "TAF LPMA 191700Z 1918/2018 VRB05KT 9999 SCT015"
    },
    {
      "icao": "LPPR",
      "alert": "OK",
      "vis_m": 9999,
      "fzfg": false,
      "metar_trigger": false,
      "taf_trigger": false,
      "metar": "METAR LPPR 192030Z 34006KT 9999 SCT004 BKN005 18/17 Q1016",
      "taf": "TAF LPPR 191700Z 1918/2018 32008KT CAVOK"
    },
    {
      "icao": "LPPS",
      "alert": "OK",
      "vis_m": 9999,
      "fzfg": false,
      "metar_trigger": false,
      "taf_trigger": false,
      "metar": "METAR LPPS 192030Z 32005KT 9999 FEW014 21/17 Q1018",
      "taf": "TAF LPPS 191700Z 1918/2024 VRB05KT 9999 SCT015"
    },
    {
      "icao": "LPPT",
      "alert": "OK",
      "vis_m": 9999,
      "fzfg": false,
      "metar_trigger": false,
      "taf_trigger": false,
      "metar": "METAR LPPT 192030Z 33011KT 290V360 CAVOK 21/14 Q1015",
      "taf": "TAF LPPT 191700Z 1918/2024 31012KT CAVOK"
    },
    {
      "icao": "LQBK",
      "alert": "OK",
      "vis_m": 9999,
      "fzfg": false,
      "metar_trigger": false,
      "taf_trigger": false,
      "metar": "METAR LQBK 192030Z 00000KT CAVOK 20/17 Q1020 NOSIG",
      "taf": "TAF LQBK 191700Z 1918/2018 15005KT CAVOK TX34/2014Z TN18/2003Z"
    },
    {
      "icao": "LQSA",
      "alert": "OK",
      "vis_m": 9999,
      "fzfg": false,
      "metar_trigger": false,
      "taf_trigger": false,
      "metar": "METAR LQSA 192030Z VRB02KT CAVOK 20/15 Q1022 NOSIG",
      "taf": "TAF LQSA 191700Z 1918/2018 VRB02KT 9999 FEW060 TX32/2014Z TN16/2003Z"
    },
    {
      "icao": "LQTZ",
      "alert": "OK",
      "vis_m": 9999,
      "fzfg": false,
      "metar_trigger": false,
      "taf_trigger": false,
      "metar": "METAR LQTZ 192030Z VRB01KT CAVOK 18/17 Q1021",
      "taf": "TAF LQTZ 191700Z 1918/2018 06005KT CAVOK TX32/2014Z TN16/2003Z"
    },
    {
      "icao": "LRBC",
      "alert": "OK",
      "vis_m": 9999,
      "fzfg": false,
      "metar_trigger": false,
      "taf_trigger": false,
      "metar": "METAR LRBC 192030Z 00000KT CAVOK 19/15 Q1020",
      "taf": "TAF LRBC 192000Z 1921/2006 VRB04KT CAVOK"
    },
    {
      "icao": "LRBS",
      "alert": "OK",
      "vis_m": 9999,
      "fzfg": false,
      "metar_trigger": false,
      "taf_trigger": false,
      "metar": "METAR LRBS 192030Z 00000KT CAVOK 21/13 Q1020 NOSIG",
      "taf": "TAF LRBS 191700Z 1918/2018 VRB04KT CAVOK"
    },
    {
      "icao": "LRBV",
      "alert": "OK",
      "vis_m": 9999,
      "fzfg": false,
      "metar_trigger": false,
      "taf_trigger": false,
      "metar": "METAR LRBV 192030Z AUTO 24004KT 9999 FEW090/// 16/14 Q1022",
      "taf": "TAF LRBV 192000Z 1921/2006 VRB04KT CAVOK"
    },
    {
      "icao": "LRCL",
      "alert": "OK",
      "vis_m": 9999,
      "fzfg": false,
      "metar_trigger": false,
      "taf_trigger": false,
      "metar": "METAR LRCL 192030Z 27004KT CAVOK 18/14 Q1021",
      "taf": "TAF LRCL 192000Z 1921/2006 VRB04KT CAVOK"
    },
    {
      "icao": "LRCV",
      "alert": "OK",
      "vis_m": 9999,
      "fzfg": false,
      "metar_trigger": false,
      "taf_trigger": false,
      "metar": "METAR LRCV 192030Z 17004KT CAVOK 21/13 Q1020",
      "taf": "TAF LRCV 192000Z 1921/2006 VRB04KT CAVOK"
    },
    {
      "icao": "LRIA",
      "alert": "OK",
      "vis_m": 9999,
      "fzfg": false,
      "metar_trigger": false,
      "taf_trigger": false,
      "metar": "METAR LRIA 192030Z 00000KT CAVOK 21/14 Q1020",
      "taf": "TAF LRIA 192000Z 1921/2006 VRB04KT CAVOK"
    },
    {
      "icao": "LROP",
      "alert": "OK",
      "vis_m": 9999,
      "fzfg": false,
      "metar_trigger": false,
      "taf_trigger": false,
      "metar": "METAR LROP 192030Z 00000KT CAVOK 21/13 Q1020 NOSIG",
      "taf": "TAF LROP 191700Z 1918/2018 VRB04KT CAVOK"
    },
    {
      "icao": "LRSB",
      "alert": "OK",
      "vis_m": 9999,
      "fzfg": false,
      "metar_trigger": false,
      "taf_trigger": false,
      "metar": "METAR LRSB 192030Z VRB02KT CAVOK 16/13 Q1022",
      "taf": "TAF LRSB 191700Z 1918/2018 VRB04KT CAVOK"
    },
    {
      "icao": "LRSM",
      "alert": "OK",
      "vis_m": 9999,
      "fzfg": false,
      "metar_trigger": false,
      "taf_trigger": false,
      "metar": "METAR LRSM 192030Z AUTO 21003KT 9999 NCD 21/17 Q1020",
      "taf": "TAF LRSM 191400Z 1915/1924 VRB04KT CAVOK"
    },
    {
      "icao": "LRSV",
      "alert": "OK",
      "vis_m": 9999,
      "fzfg": false,
      "metar_trigger": false,
      "taf_trigger": false,
      "metar": "METAR LRSV 192030Z 23006KT CAVOK 20/14 Q1021",
      "taf": "TAF LRSV 192000Z 1921/2006 VRB04KT CAVOK"
    },
    {
      "icao": "LRTM",
      "alert": "OK",
      "vis_m": 9999,
      "fzfg": false,
      "metar_trigger": false,
      "taf_trigger": false,
      "metar": "METAR LRTM 192030Z 34002KT CAVOK 18/16 Q1021",
      "taf": "TAF LRTM 192000Z 1921/2006 VRB04KT CAVOK"
    },
    {
      "icao": "LRTR",
      "alert": "OK",
      "vis_m": 9999,
      "fzfg": false,
      "metar_trigger": false,
      "taf_trigger": false,
      "metar": "METAR LRTR 192030Z 01004KT CAVOK 20/15 Q1020",
      "taf": "TAF LRTR 191700Z 1918/2018 VRB04KT CAVOK"
    },
    {
      "icao": "LTAC",
      "alert": "OK",
      "vis_m": 9999,
      "fzfg": false,
      "metar_trigger": false,
      "taf_trigger": false,
      "metar": "METAR LTAC 192020Z 06009KT 9999 SCT036 BKN100 16/11 Q1018 NOSIG RMK RWY21C 05008KT RWY03L 05008KT RWY21R 05008KT RWY03R 03008KT RWY21L 04008KT",
      "taf": "TAF LTAC 191640Z 1918/2018 03009KT 9999 SCT040 SCT100"
    },
    {
      "icao": "LTFM",
      "alert": "OK",
      "vis_m": 9999,
      "fzfg": false,
      "metar_trigger": false,
      "taf_trigger": false,
      "metar": "METAR LTFM 192020Z 05011KT 9999 BKN013 21/17 Q1018 NOSIG RMK RWY17L 05010KT RWY34L 04010KT RWY16R 06012KT RWY36 06011KT RWY18 06011KT",
      "taf": "TAF LTFM 191640Z 1918/2024 04011KT 9999 BKN012"
    },
    {
      "icao": "LUKK",
      "alert": "OK",
      "vis_m": 9999,
      "fzfg": false,
      "metar_trigger": false,
      "taf_trigger": false,
      "metar": "METAR LUKK 192030Z 28003KT 240V320 CAVOK 21/15 Q1019 NOSIG",
      "taf": "TAF LUKK 191703Z 1918/2018 VRB06KT CAVOK"
    },
    {
      "icao": "LWOH",
      "alert": "OK",
      "vis_m": 9999,
      "fzfg": false,
      "metar_trigger": false,
      "taf_trigger": false,
      "metar": "METAR LWOH 191950Z VRB02KT 9999 FEW035 18/11 Q1021",
      "taf": "TAF LWOH 191730Z 1918/2018 33008KT 9999 FEW040"
    },
    {
      "icao": "LWSK",
      "alert": "OK",
      "vis_m": 9999,
      "fzfg": false,
      "metar_trigger": false,
      "taf_trigger": false,
      "metar": "METAR LWSK 192020Z 10005KT 040V140 9999 FEW050 SCT080 23/14 Q1020 NOSIG",
      "taf": "TAF LWSK 191730Z 1918/2018 03010KT CAVOK"
    },
    {
      "icao": "LYBE",
      "alert": "OK",
      "vis_m": 9999,
      "fzfg": false,
      "metar_trigger": false,
      "taf_trigger": false,
      "metar": "METAR LYBE 192030Z 29003KT CAVOK 23/15 Q1020 NOSIG",
      "taf": "TAF LYBE 191700Z 1918/2018 04005KT CAVOK TX32/2014Z TN18/2003Z"
    },
    {
      "icao": "LYNI",
      "alert": "OK",
      "vis_m": 9999,
      "fzfg": false,
      "metar_trigger": false,
      "taf_trigger": false,
      "metar": "METAR LYNI 192030Z 07003KT 040V120 CAVOK 21/13 Q1020 NOSIG",
      "taf": "TAF LYNI 191700Z 1918/2018 35006KT CAVOK TX32/2014Z TN15/2003Z"
    },
    {
      "icao": "LYPG",
      "alert": "OK",
      "vis_m": 9999,
      "fzfg": false,
      "metar_trigger": false,
      "taf_trigger": false,
      "metar": "METAR LYPG 192030Z 36006KT CAVOK 29/13 Q1017 NOSIG",
      "taf": "TAF LYPG 191700Z 1918/2018 36008KT CAVOK TX34/2014Z TN22/2003Z"
    },
    {
      "icao": "LZIB",
      "alert": "OK",
      "vis_m": 9999,
      "fzfg": false,
      "metar_trigger": false,
      "taf_trigger": false,
      "metar": "METAR LZIB 192030Z 36005KT CAVOK 24/15 Q1019 NOSIG",
      "taf": "TAF LZIB 191715Z 1918/2018 12006KT CAVOK"
    },
    {
      "icao": "LZKZ",
      "alert": "OK",
      "vis_m": 9999,
      "fzfg": false,
      "metar_trigger": false,
      "taf_trigger": false,
      "metar": "METAR LZKZ 192030Z 35005KT CAVOK 23/17 Q1021 NOSIG",
      "taf": "TAF LZKZ 191715Z 1918/2018 VRB02KT CAVOK"
    },
    {
      "icao": "LZTT",
      "alert": "OK",
      "vis_m": 9999,
      "fzfg": false,
      "metar_trigger": false,
      "taf_trigger": false,
      "metar": "METAR LZTT 192030Z 29003KT 9999 FEW056 16/15 Q1023",
      "taf": "TAF LZTT 191715Z 1918/2018 06007KT 9999 SCT050"
    },
    {
      "icao": "OEJN",
      "alert": "OK",
      "vis_m": 9999,
      "fzfg": false,
      "metar_trigger": false,
      "taf_trigger": false,
      "metar": "METAR OEJN 192000Z 33006KT CAVOK 31/18 Q1004 NOSIG",
      "taf": "TAF OEJN 191700Z 1918/2024 36010KT CAVOK"
    },
    {
      "icao": "OEMA",
      "alert": "OK",
      "vis_m": 9999,
      "fzfg": false,
      "metar_trigger": false,
      "taf_trigger": false,
      "metar": "METAR OEMA 192000Z 27008KT CAVOK 38/M02 Q1010 NOSIG",
      "taf": "TAF OEMA 191700Z 1918/2024 29007KT CAVOK"
    },
    {
      "icao": "OJAI",
      "alert": "OK",
      "vis_m": 5000,
      "fzfg": false,
      "metar_trigger": false,
      "taf_trigger": false,
      "metar": "METAR OJAI 192000Z 30004KT 5000 HZ NSC 20/08 Q1015 NOSIG",
      "taf": "TAF OJAI 191655Z 1918/2024 28008KT 5000 HZ NSC"
    },
    {
      "icao": "OMAA",
      "alert": "OK",
      "vis_m": 9999,
      "fzfg": false,
      "metar_trigger": false,
      "taf_trigger": false,
      "metar": "METAR OMAA 192030Z 06003KT 030V130 CAVOK 34/16 Q1002 NOSIG",
      "taf": "TAF OMAA 191700Z 1918/2100 05006KT 8000 NSC"
    },
    {
      "icao": "OMDB",
      "alert": "OK",
      "vis_m": 9999,
      "fzfg": false,
      "metar_trigger": false,
      "taf_trigger": false,
      "metar": "METAR OMDB 192030Z 27003KT 220V300 CAVOK 38/16 Q1002 NOSIG",
      "taf": "TAF OMDB 191700Z 1918/2100 VRB02KT CAVOK"
    },
    {
      "icao": "UAAA",
      "alert": "OK",
      "vis_m": 9999,
      "fzfg": false,
      "metar_trigger": false,
      "taf_trigger": false,
      "metar": "METAR UAAA 192030Z 29004MPS 250V340 9999 SCT050CB OVC100 26/09 Q1011 NOSIG",
      "taf": "TAF UAAA 191701Z 1918/2018 26003G08MPS 9999 SCT050CB BKN100 TX29/2010Z TN21/2001Z"
    },
    {
      "icao": "UBBB",
      "alert": "OK",
      "vis_m": 9999,
      "fzfg": false,
      "metar_trigger": false,
      "taf_trigger": false,
      "metar": "METAR UBBB 192030Z 13006KT CAVOK 25/23 Q1009 NOSIG",
      "taf": "TAF UBBB 191704Z 1918/2018 16005KT CAVOK TX33/2010Z TN22/2000Z"
    },
    {
      "icao": "UDSG",
      "alert": "OK",
      "vis_m": 9999,
      "fzfg": false,
      "metar_trigger": false,
      "taf_trigger": false,
      "metar": "METAR UDSG 192030Z 05014KT 9999 SCT049CB 19/12 Q1019 NOSIG",
      "taf": "TAF UDSG 191658Z 1918/2018 06006KT 9999 SCT050"
    },
    {
      "icao": "UDYZ",
      "alert": "OK",
      "vis_m": 9999,
      "fzfg": false,
      "metar_trigger": false,
      "taf_trigger": false,
      "metar": "METAR UDYZ 192030Z 03014G25KT 9999 FEW043CB 26/15 Q1011 NOSIG",
      "taf": "TAF UDYZ 191700Z 1918/2018 04006KT 9999 FEW040"
    },
    {
      "icao": "UGKO",
      "alert": "OK",
      "vis_m": 9999,
      "fzfg": false,
      "metar_trigger": false,
      "taf_trigger": false,
      "metar": "METAR UGKO 192030Z 19003KT 150V260 9999 BKN055CB 19/18 Q1014 NOSIG",
      "taf": "TAF UGKO 191700Z 1918/2018 25006KT 9999 SCT023 BKN050 TX23/2011Z TN19/2002Z"
    }
  ]
}