{
  "ts_utc": "2026-06-22T19:39:26Z",
  "threshold_m": 150,
  "source": "stations_override.txt (ICAO list) + aviationweather.gov (METAR/TAF raw)",
  "station_count": 159,
  "stations": [
    {
      "icao": "BIKF",
      "alert": "OK",
      "vis_m": 9999,
      "fzfg": false,
      "metar_trigger": false,
      "taf_trigger": false,
      "metar": "METAR BIKF 221930Z 02004KT 350V070 9999 FEW018TCU SCT042 BKN260 10/05 Q1016",
      "taf": "TAF BIKF 221654Z 2218/2318 21006KT 9999 FEW020 BKN035 TX10/2314Z TN08/2303Z"
    },
    {
      "icao": "BKPR",
      "alert": "OK",
      "vis_m": 9999,
      "fzfg": false,
      "metar_trigger": false,
      "taf_trigger": false,
      "metar": "METAR BKPR 221930Z 32006KT CAVOK 21/16 Q1021 NOSIG",
      "taf": "TAF BKPR 221730Z 2218/2318 36007KT 9999 FEW050"
    },
    {
      "icao": "EBCI",
      "alert": "OK",
      "vis_m": 9999,
      "fzfg": false,
      "metar_trigger": false,
      "taf_trigger": false,
      "metar": "METAR EBCI 221920Z 05007KT 010V070 CAVOK 26/19 Q1023 NOSIG",
      "taf": "TAF EBCI 221700Z 2218/2324 03008KT CAVOK"
    },
    {
      "icao": "EDDB",
      "alert": "OK",
      "vis_m": 9999,
      "fzfg": false,
      "metar_trigger": false,
      "taf_trigger": false,
      "metar": "METAR EDDB 221920Z AUTO 07005KT CAVOK 22/13 Q1024 NOSIG",
      "taf": "TAF EDDB 221700Z 2218/2318 02008KT CAVOK"
    },
    {
      "icao": "EDDH",
      "alert": "OK",
      "vis_m": 9999,
      "fzfg": false,
      "metar_trigger": false,
      "taf_trigger": false,
      "metar": "METAR EDDH 221920Z AUTO 04005KT 350V090 CAVOK 21/11 Q1025 NOSIG",
      "taf": "TAF EDDH 221700Z 2218/2324 VRB03KT CAVOK"
    },
    {
      "icao": "EDDK",
      "alert": "OK",
      "vis_m": 9999,
      "fzfg": false,
      "metar_trigger": false,
      "taf_trigger": false,
      "metar": "METAR EDDK 221920Z AUTO 02004KT CAVOK 27/19 Q1023 NOSIG",
      "taf": "TAF EDDK 221700Z 2218/2324 01007KT CAVOK"
    },
    {
      "icao": "EDDN",
      "alert": "OK",
      "vis_m": 9999,
      "fzfg": false,
      "metar_trigger": false,
      "taf_trigger": false,
      "metar": "METAR EDDN 221920Z AUTO VRB01KT CAVOK 25/19 Q1022 NOSIG",
      "taf": "TAF EDDN 221700Z 2218/2318 02005KT CAVOK"
    },
    {
      "icao": "EDDS",
      "alert": "OK",
      "vis_m": 9999,
      "fzfg": false,
      "metar_trigger": false,
      "taf_trigger": false,
      "metar": "METAR EDDS 221920Z AUTO 35004KT CAVOK 30/15 Q1022 NOSIG",
      "taf": "TAF EDDS 221700Z 2218/2318 01007KT CAVOK"
    },
    {
      "icao": "EDFH",
      "alert": "OK",
      "vis_m": 9999,
      "fzfg": false,
      "metar_trigger": false,
      "taf_trigger": false,
      "metar": "METAR EDFH 221920Z 02008KT CAVOK 25/17 Q1024",
      "taf": "TAF EDFH 221700Z 2218/2318 02005KT CAVOK"
    },
    {
      "icao": "EDJA",
      "alert": "OK",
      "vis_m": 9999,
      "fzfg": false,
      "metar_trigger": false,
      "taf_trigger": false,
      "metar": "METAR EDJA 221920Z 04004KT CAVOK 26/17 Q1024",
      "taf": "TAF EDJA 221700Z 2218/2303 06006KT CAVOK"
    },
    {
      "icao": "EDLW",
      "alert": "OK",
      "vis_m": 9999,
      "fzfg": false,
      "metar_trigger": false,
      "taf_trigger": false,
      "metar": "METAR EDLW 221920Z 03004KT CAVOK 25/18 Q1023",
      "taf": "TAF EDLW 221700Z 2218/2318 03006KT CAVOK"
    },
    {
      "icao": "EDNY",
      "alert": "OK",
      "vis_m": 9999,
      "fzfg": false,
      "metar_trigger": false,
      "taf_trigger": false,
      "metar": "METAR EDNY 221920Z 03006KT 350V050 CAVOK 29/17 Q1022",
      "taf": "TAF EDNY 221700Z 2218/2303 VRB03KT CAVOK"
    },
    {
      "icao": "EDSB",
      "alert": "OK",
      "vis_m": 9999,
      "fzfg": false,
      "metar_trigger": false,
      "taf_trigger": false,
      "metar": "METAR EDSB 221920Z 35004KT CAVOK 28/21 Q1020",
      "taf": "TAF EDSB 221700Z 2218/2318 01005KT CAVOK"
    },
    {
      "icao": "EETN",
      "alert": "OK",
      "vis_m": 9999,
      "fzfg": false,
      "metar_trigger": false,
      "taf_trigger": false,
      "metar": "METAR EETN 221920Z 34011KT CAVOK 18/07 Q1020 NOSIG",
      "taf": "TAF EETN 221730Z 2218/2318 30012KT CAVOK"
    },
    {
      "icao": "EFTU",
      "alert": "OK",
      "vis_m": 9999,
      "fzfg": false,
      "metar_trigger": false,
      "taf_trigger": false,
      "metar": "METAR EFTU 221920Z AUTO 33005KT 290V360 CAVOK 15/04 Q1022",
      "taf": "TAF EFTU 221728Z 2218/2318 32010KT CAVOK"
    },
    {
      "icao": "EGBB",
      "alert": "OK",
      "vis_m": 9999,
      "fzfg": false,
      "metar_trigger": false,
      "taf_trigger": false,
      "metar": "METAR EGBB 221920Z 12012KT CAVOK 25/17 Q1024",
      "taf": "TAF EGBB 221659Z 2218/2318 12010KT 9999 FEW040"
    },
    {
      "icao": "EGGP",
      "alert": "OK",
      "vis_m": 9999,
      "fzfg": false,
      "metar_trigger": false,
      "taf_trigger": false,
      "metar": "METAR EGGP 221920Z 13009KT CAVOK 25/16 Q1023",
      "taf": "TAF EGGP 221653Z 2218/2318 11011KT 9999 FEW045"
    },
    {
      "icao": "EGGW",
      "alert": "OK",
      "vis_m": 9999,
      "fzfg": false,
      "metar_trigger": false,
      "taf_trigger": false,
      "metar": "METAR EGGW 221920Z VRB02KT 9999 4500NW -RA VCTS FEW084CB 21/18 Q1026 RETS",
      "taf": "TAF EGGW 221700Z 2218/2318 09010KT 9999 FEW045"
    },
    {
      "icao": "EGKK",
      "alert": "OK",
      "vis_m": 9999,
      "fzfg": false,
      "metar_trigger": false,
      "taf_trigger": false,
      "metar": "METAR EGKK 221920Z 06008KT CAVOK 22/17 Q1024",
      "taf": "TAF EGKK 221658Z 2218/2324 08009KT CAVOK"
    },
    {
      "icao": "EGNM",
      "alert": "OK",
      "vis_m": 9999,
      "fzfg": false,
      "metar_trigger": false,
      "taf_trigger": false,
      "metar": "METAR EGNM 221920Z 11008KT CAVOK 19/09 Q1025",
      "taf": "TAF EGNM 221655Z 2218/2318 12010KT 9999 FEW045"
    },
    {
      "icao": "EGPD",
      "alert": "OK",
      "vis_m": 9999,
      "fzfg": false,
      "metar_trigger": false,
      "taf_trigger": false,
      "metar": "METAR EGPD 221920Z AUTO 15005KT 9999 NCD 17/14 Q1023",
      "taf": "TAF EGPD 221659Z 2218/2318 16010KT 9999 FEW006 SCT040"
    },
    {
      "icao": "EGPF",
      "alert": "OK",
      "vis_m": 9999,
      "fzfg": false,
      "metar_trigger": false,
      "taf_trigger": false,
      "metar": "METAR EGPF 221920Z AUTO 33003KT 9999 NCD 20/17 Q1023",
      "taf": "TAF EGPF 221657Z 2218/2318 VRB02KT 9999 FEW020"
    },
    {
      "icao": "EHBK",
      "alert": "OK",
      "vis_m": 9999,
      "fzfg": false,
      "metar_trigger": false,
      "taf_trigger": false,
      "metar": "METAR EHBK 221925Z AUTO 02009KT 9999 NCD 25/19 Q1023 NOSIG",
      "taf": "TAF EHBK 221712Z 2218/2324 01007KT CAVOK"
    },
    {
      "icao": "EHEH",
      "alert": "OK",
      "vis_m": 9999,
      "fzfg": false,
      "metar_trigger": false,
      "taf_trigger": false,
      "metar": "METAR EHEH 221925Z AUTO 02005KT 290V070 9999 OVC380 25/18 Q1023 BLU NOSIG RMK TREND REMOTE BY EHWX",
      "taf": ""
    },
    {
      "icao": "EKBI",
      "alert": "OK",
      "vis_m": 9999,
      "fzfg": false,
      "metar_trigger": false,
      "taf_trigger": false,
      "metar": "METAR EKBI 221920Z AUTO 30007KT 9999 NCD 15/09 Q1026",
      "taf": "TAF EKBI 221727Z 2218/2318 30009KT CAVOK"
    },
    {
      "icao": "EKCH",
      "alert": "OK",
      "vis_m": 9999,
      "fzfg": false,
      "metar_trigger": false,
      "taf_trigger": false,
      "metar": "METAR EKCH 221920Z AUTO 35006KT 9999 NCD 18/09 Q1025 NOSIG",
      "taf": "TAF EKCH 221727Z 2218/2318 34010KT CAVOK"
    },
    {
      "icao": "ENAL",
      "alert": "OK",
      "vis_m": 9999,
      "fzfg": false,
      "metar_trigger": false,
      "taf_trigger": false,
      "metar": "METAR ENAL 221920Z 26006KT 9999 FEW027 12/08 Q1026",
      "taf": "TAF ENAL 221700Z 2218/2303 24015KT 9999 FEW020 BKN040"
    },
    {
      "icao": "ENBR",
      "alert": "OK",
      "vis_m": 9999,
      "fzfg": false,
      "metar_trigger": false,
      "taf_trigger": false,
      "metar": "METAR ENBR 221920Z 31007KT CAVOK 13/07 Q1027 NOSIG RMK WIND 1200FT 29007KT",
      "taf": "TAF ENBR 221700Z 2218/2318 33006KT 9999 FEW020 BKN035"
    },
    {
      "icao": "ENGM",
      "alert": "OK",
      "vis_m": 9999,
      "fzfg": false,
      "metar_trigger": false,
      "taf_trigger": false,
      "metar": "METAR ENGM 221920Z 18006KT CAVOK 19/05 Q1023 NOSIG",
      "taf": "TAF ENGM 221700Z 2218/2318 19010KT CAVOK"
    },
    {
      "icao": "ENHD",
      "alert": "OK",
      "vis_m": 9999,
      "fzfg": false,
      "metar_trigger": false,
      "taf_trigger": false,
      "metar": "METAR ENHD 221920Z 31007KT 280V340 CAVOK 13/09 Q1027",
      "taf": "TAF ENHD 221400Z 2215/2222 33010KT 9999 SCT015"
    },
    {
      "icao": "ENTC",
      "alert": "OK",
      "vis_m": 9999,
      "fzfg": false,
      "metar_trigger": false,
      "taf_trigger": false,
      "metar": "METAR ENTC 221920Z 25009KT 9999 -SHRA SCT007 SCT016 BKN019 09/08 Q1015 TEMPO SHRA BKN014 FEW030CB RMK WIND 2600FT 25008KT",
      "taf": ""
    },
    {
      "icao": "ENTO",
      "alert": "OK",
      "vis_m": 9999,
      "fzfg": false,
      "metar_trigger": false,
      "taf_trigger": false,
      "metar": "METAR ENTO 221920Z 23008KT CAVOK 16/08 Q1024 NOSIG",
      "taf": "TAF ENTO 221700Z 2218/2318 20010KT CAVOK"
    },
    {
      "icao": "ENVA",
      "alert": "OK",
      "vis_m": 9999,
      "fzfg": false,
      "metar_trigger": false,
      "taf_trigger": false,
      "metar": "METAR ENVA 221920Z 30010KT 9999 FEW044 12/08 Q1026 NOSIG RMK WIND 670FT 30012KT",
      "taf": "TAF ENVA 221700Z 2218/2318 27012KT 9999 -SHRA FEW020 BKN035"
    },
    {
      "icao": "ENZV",
      "alert": "OK",
      "vis_m": 9999,
      "fzfg": false,
      "metar_trigger": false,
      "taf_trigger": false,
      "metar": "METAR ENZV 221920Z 32011KT CAVOK 14/09 Q1027 NOSIG",
      "taf": "TAF ENZV 221700Z 2218/2318 32012KT 9999 FEW010 SCT020"
    },
    {
      "icao": "EPGD",
      "alert": "OK",
      "vis_m": 9999,
      "fzfg": false,
      "metar_trigger": false,
      "taf_trigger": false,
      "metar": "METAR EPGD 221930Z 30005KT CAVOK 16/10 Q1024",
      "taf": "TAF EPGD 221730Z 2218/2318 28010KT CAVOK"
    },
    {
      "icao": "EPKK",
      "alert": "OK",
      "vis_m": 9999,
      "fzfg": false,
      "metar_trigger": false,
      "taf_trigger": false,
      "metar": "METAR EPKK 221930Z 21005KT 9999 FEW056 20/19 Q1022",
      "taf": "TAF EPKK 221730Z 2218/2318 04010KT 9999 SCT045"
    },
    {
      "icao": "EPKT",
      "alert": "OK",
      "vis_m": 9999,
      "fzfg": false,
      "metar_trigger": false,
      "taf_trigger": false,
      "metar": "METAR EPKT 221930Z 33005KT CAVOK 21/14 Q1022",
      "taf": "TAF EPKT 221730Z 2218/2318 01006KT 9999 SCT030"
    },
    {
      "icao": "EPLB",
      "alert": "OK",
      "vis_m": 9999,
      "fzfg": false,
      "metar_trigger": false,
      "taf_trigger": false,
      "metar": "METAR EPLB 221930Z 07002KT 9999 FEW042 22/20 Q1020",
      "taf": "TAF EPLB 221730Z 2218/2318 27010KT CAVOK"
    },
    {
      "icao": "EPMO",
      "alert": "OK",
      "vis_m": 9999,
      "fzfg": false,
      "metar_trigger": false,
      "taf_trigger": false,
      "metar": "METAR EPMO 221930Z 33005KT CAVOK 21/13 Q1022",
      "taf": "TAF EPMO 221730Z 2218/2318 35006KT CAVOK"
    },
    {
      "icao": "EPPO",
      "alert": "OK",
      "vis_m": 9999,
      "fzfg": false,
      "metar_trigger": false,
      "taf_trigger": false,
      "metar": "METAR EPPO 221930Z 35005KT CAVOK 20/10 Q1023",
      "taf": "TAF EPPO 221730Z 2218/2318 35007KT CAVOK"
    },
    {
      "icao": "EPRA",
      "alert": "OK",
      "vis_m": 9999,
      "fzfg": false,
      "metar_trigger": false,
      "taf_trigger": false,
      "metar": "METAR EPRA 221930Z 34003KT CAVOK 24/11 Q1021",
      "taf": "TAF EPRA 221730Z 2218/2303 33008KT CAVOK"
    },
    {
      "icao": "EPRZ",
      "alert": "OK",
      "vis_m": 9999,
      "fzfg": false,
      "metar_trigger": false,
      "taf_trigger": false,
      "metar": "METAR EPRZ 221930Z 24005KT CAVOK 20/19 Q1021",
      "taf": "TAF EPRZ 221730Z 2218/2318 25005KT CAVOK"
    },
    {
      "icao": "EPSC",
      "alert": "OK",
      "vis_m": 9999,
      "fzfg": false,
      "metar_trigger": false,
      "taf_trigger": false,
      "metar": "METAR EPSC 221930Z 35003KT CAVOK 18/10 Q1025",
      "taf": "TAF EPSC 221730Z 2218/2318 34010KT CAVOK"
    },
    {
      "icao": "EPSY",
      "alert": "OK",
      "vis_m": 9999,
      "fzfg": false,
      "metar_trigger": false,
      "taf_trigger": false,
      "metar": "METAR EPSY 221930Z 33010KT 9999 FEW043 19/14 Q1022",
      "taf": "TAF EPSY 221730Z 2218/2303 32010KT CAVOK"
    },
    {
      "icao": "EPWA",
      "alert": "OK",
      "vis_m": 9999,
      "fzfg": false,
      "metar_trigger": false,
      "taf_trigger": false,
      "metar": "METAR EPWA 221930Z 35008KT CAVOK 24/12 Q1021 NOSIG",
      "taf": "TAF EPWA 221730Z 2218/2318 35006KT CAVOK"
    },
    {
      "icao": "EPWR",
      "alert": "OK",
      "vis_m": 9999,
      "fzfg": false,
      "metar_trigger": false,
      "taf_trigger": false,
      "metar": "METAR EPWR 221930Z 01005KT CAVOK 23/14 Q1023",
      "taf": "TAF EPWR 221730Z 2218/2318 02007KT CAVOK"
    },
    {
      "icao": "ESGG",
      "alert": "OK",
      "vis_m": 9999,
      "fzfg": false,
      "metar_trigger": false,
      "taf_trigger": false,
      "metar": "METAR ESGG 221920Z 29004KT CAVOK 15/08 Q1024",
      "taf": "TAF ESGG 221730Z 2218/2318 28005KT CAVOK"
    },
    {
      "icao": "ESKN",
      "alert": "OK",
      "vis_m": 9999,
      "fzfg": false,
      "metar_trigger": false,
      "taf_trigger": false,
      "metar": "METAR ESKN 221920Z 10007KT CAVOK 16/12 Q1023",
      "taf": "TAF ESKN 221730Z 2218/2318 10009KT CAVOK"
    },
    {
      "icao": "ESMS",
      "alert": "OK",
      "vis_m": 9999,
      "fzfg": false,
      "metar_trigger": false,
      "taf_trigger": false,
      "metar": "METAR ESMS 221920Z 30008KT CAVOK 16/09 Q1024",
      "taf": "TAF ESMS 221727Z 2218/2318 32012KT CAVOK"
    },
    {
      "icao": "ESSA",
      "alert": "OK",
      "vis_m": 9999,
      "fzfg": false,
      "metar_trigger": false,
      "taf_trigger": false,
      "metar": "METAR ESSA 221920Z 14005KT CAVOK 16/04 Q1023 NOSIG",
      "taf": "TAF ESSA 221730Z 2218/2318 13007KT CAVOK"
    },
    {
      "icao": "EYKA",
      "alert": "OK",
      "vis_m": 9999,
      "fzfg": false,
      "metar_trigger": false,
      "taf_trigger": false,
      "metar": "METAR EYKA 221920Z 32003KT CAVOK 20/13 Q1020",
      "taf": "TAF EYKA 221700Z 2218/2318 VRB03KT 9000 FEW045"
    },
    {
      "icao": "EYPA",
      "alert": "OK",
      "vis_m": 9999,
      "fzfg": false,
      "metar_trigger": false,
      "taf_trigger": false,
      "metar": "METAR EYPA 221920Z VRB01KT CAVOK 18/15 Q1022",
      "taf": "TAF EYPA 221702Z 2218/2318 VRB03KT 7000 NSC"
    },
    {
      "icao": "EYVI",
      "alert": "OK",
      "vis_m": 9999,
      "fzfg": false,
      "metar_trigger": false,
      "taf_trigger": false,
      "metar": "METAR EYVI 221920Z VRB02KT CAVOK 17/12 Q1020 NOSIG",
      "taf": "TAF EYVI 221715Z 2218/2318 VRB03KT 9000 FEW045"
    },
    {
      "icao": "GCFV",
      "alert": "OK",
      "vis_m": 9999,
      "fzfg": false,
      "metar_trigger": false,
      "taf_trigger": false,
      "metar": "METAR GCFV 221930Z 01014KT 9999 FEW025 23/16 Q1018",
      "taf": "TAF GCFV 221400Z 2215/2315 05012KT 9999 FEW020 TX26/2314Z TN19/2306Z"
    },
    {
      "icao": "GCLP",
      "alert": "OK",
      "vis_m": 9999,
      "fzfg": false,
      "metar_trigger": false,
      "taf_trigger": false,
      "metar": "METAR GCLP 221930Z 02017KT 9999 FEW030 23/18 Q1018 NOSIG",
      "taf": "TAF GCLP 221400Z 2215/2315 02020KT 9999 FEW025 TX27/2314Z TN20/2306Z"
    },
    {
      "icao": "GCTS",
      "alert": "OK",
      "vis_m": 9999,
      "fzfg": false,
      "metar_trigger": false,
      "taf_trigger": false,
      "metar": "METAR GCTS 221930Z 09013KT 9999 FEW025 23/19 Q1019 NOSIG",
      "taf": "TAF GCTS 221400Z 2215/2315 10015KT 9999 FEW025 TX27/2314Z TN19/2306Z"
    },
    {
      "icao": "GMAD",
      "alert": "OK",
      "vis_m": 8000,
      "fzfg": false,
      "metar_trigger": false,
      "taf_trigger": false,
      "metar": "METAR GMAD 221930Z 21009KT 8000 FEW013 22/18 Q1015 NOSIG",
      "taf": "TAF GMAD 221700Z 2218/2324 20008KT 8000 SCT016"
    },
    {
      "icao": "GMMN",
      "alert": "OK",
      "vis_m": 9999,
      "fzfg": false,
      "metar_trigger": false,
      "taf_trigger": false,
      "metar": "METAR GMMN 221930Z 35008KT 9999 FEW016 22/18 Q1017 NOSIG",
      "taf": "TAF GMMN 221700Z 2218/2324 34010KT CAVOK"
    },
    {
      "icao": "GMMX",
      "alert": "OK",
      "vis_m": 9999,
      "fzfg": false,
      "metar_trigger": false,
      "taf_trigger": false,
      "metar": "METAR GMMX 221930Z 32010KT 290V360 CAVOK 31/18 Q1015 NOSIG",
      "taf": "TAF GMMX 221700Z 2218/2324 28006KT 8000 NSC"
    },
    {
      "icao": "HEGN",
      "alert": "OK",
      "vis_m": 9999,
      "fzfg": false,
      "metar_trigger": false,
      "taf_trigger": false,
      "metar": "METAR HEGN 221900Z 34010KT CAVOK 30/14 Q1007 NOSIG",
      "taf": "TAF HEGN 221710Z 2218/2324 33008G20KT CAVOK"
    },
    {
      "icao": "HEMA",
      "alert": "OK",
      "vis_m": 9999,
      "fzfg": false,
      "metar_trigger": false,
      "taf_trigger": false,
      "metar": "METAR HEMA 221900Z 33004KT CAVOK 30/10 Q1008 NOSIG",
      "taf": "TAF HEMA 221710Z 2218/2324 33008G20KT CAVOK"
    },
    {
      "icao": "HESH",
      "alert": "OK",
      "vis_m": 9999,
      "fzfg": false,
      "metar_trigger": false,
      "taf_trigger": false,
      "metar": "METAR HESH 221900Z 36003KT CAVOK 32/16 Q1005 NOSIG",
      "taf": "TAF HESH 221710Z 2218/2324 36013KT CAVOK"
    },
    {
      "icao": "HESX",
      "alert": "OK",
      "vis_m": 9999,
      "fzfg": false,
      "metar_trigger": false,
      "taf_trigger": false,
      "metar": "METAR HESX 221900Z 34014KT CAVOK 25/16 Q1011 NOSIG",
      "taf": "TAF HESX 221710Z 2218/2324 32009KT CAVOK"
    },
    {
      "icao": "LATI",
      "alert": "OK",
      "vis_m": 9999,
      "fzfg": false,
      "metar_trigger": false,
      "taf_trigger": false,
      "metar": "METAR LATI 221920Z 03003KT CAVOK 26/18 Q1016 NOSIG",
      "taf": "TAF LATI 221700Z 2218/2318 VRB03KT CAVOK TX35/2312Z TN18/2304Z"
    },
    {
      "icao": "LBPD",
      "alert": "OK",
      "vis_m": 9999,
      "fzfg": false,
      "metar_trigger": false,
      "taf_trigger": false,
      "metar": "METAR LBPD 221930Z AUTO 21004KT 9999 FEW150/// 22/18 Q1018",
      "taf": "TAF LBPD 221700Z 2218/2318 VRB03KT 9999 SCT070"
    },
    {
      "icao": "LBSF",
      "alert": "OK",
      "vis_m": 9999,
      "fzfg": false,
      "metar_trigger": false,
      "taf_trigger": false,
      "metar": "METAR LBSF 221930Z AUTO VRB02KT 9999 NSC 20/17 Q1021 NOSIG",
      "taf": "TAF LBSF 221700Z 2218/2318 10010KT 9999 SCT060"
    },
    {
      "icao": "LBWN",
      "alert": "OK",
      "vis_m": 9999,
      "fzfg": false,
      "metar_trigger": false,
      "taf_trigger": false,
      "metar": "METAR LBWN 221930Z AUTO VRB02KT 9999 NCD 19/13 Q1018 NOSIG",
      "taf": "TAF LBWN 221700Z 2218/2318 11010KT CAVOK"
    },
    {
      "icao": "LCLK",
      "alert": "OK",
      "vis_m": 9999,
      "fzfg": false,
      "metar_trigger": false,
      "taf_trigger": false,
      "metar": "METAR LCLK 221930Z 20007KT CAVOK 25/24 Q1007 NOSIG",
      "taf": "TAF LCLK 221730Z 2218/2318 22010KT CAVOK"
    },
    {
      "icao": "LCPH",
      "alert": "OK",
      "vis_m": 9999,
      "fzfg": false,
      "metar_trigger": false,
      "taf_trigger": false,
      "metar": "METAR LCPH 221930Z 32005KT CAVOK 25/23 Q1008 NOSIG",
      "taf": "TAF LCPH 221730Z 2218/2318 34008KT CAVOK"
    },
    {
      "icao": "LEAL",
      "alert": "OK",
      "vis_m": 9999,
      "fzfg": false,
      "metar_trigger": false,
      "taf_trigger": false,
      "metar": "METAR LEAL 221930Z 06004KT 020V100 CAVOK 30/15 Q1018 NOSIG",
      "taf": "TAF LEAL 221700Z 2218/2318 07010KT CAVOK TX33/2312Z TN24/2306Z"
    },
    {
      "icao": "LEBB",
      "alert": "OK",
      "vis_m": 9999,
      "fzfg": false,
      "metar_trigger": false,
      "taf_trigger": false,
      "metar": "METAR LEBB 221930Z 28005KT CAVOK 26/23 Q1016 NOSIG",
      "taf": "TAF LEBB 221700Z 2218/2318 08009KT CAVOK TX42/2313Z TN21/2302Z"
    },
    {
      "icao": "LEBL",
      "alert": "OK",
      "vis_m": 9999,
      "fzfg": false,
      "metar_trigger": false,
      "taf_trigger": false,
      "metar": "METAR LEBL 221930Z 21006KT CAVOK 27/23 Q1019 NOSIG",
      "taf": "TAF LEBL 221700Z 2218/2318 19008KT 9999 FEW025 TX31/2312Z TN23/2306Z"
    },
    {
      "icao": "LECH",
      "alert": "OK",
      "vis_m": 9999,
      "fzfg": false,
      "metar_trigger": false,
      "taf_trigger": false,
      "metar": "METAR LECH 221930Z AUTO 19005KT CAVOK 29/10 Q1021",
      "taf": "TAF LECH 221700Z 2218/2318 17008KT CAVOK TX36/2312Z TN20/2306Z"
    },
    {
      "icao": "LEMD",
      "alert": "OK",
      "vis_m": 9999,
      "fzfg": false,
      "metar_trigger": false,
      "taf_trigger": false,
      "metar": "METAR LEMD 221930Z 12008KT 090V150 CAVOK 36/01 Q1018 NOSIG",
      "taf": "TAF LEMD 221700Z 2218/2324 14010KT CAVOK TX40/2316Z TN23/2305Z"
    },
    {
      "icao": "LEMG",
      "alert": "OK",
      "vis_m": 9999,
      "fzfg": false,
      "metar_trigger": false,
      "taf_trigger": false,
      "metar": "METAR LEMG 221930Z 15005KT 120V190 CAVOK 27/17 Q1015 NOSIG",
      "taf": "TAF LEMG 221700Z 2218/2318 15010KT CAVOK TX32/2314Z TN22/2306Z"
    },
    {
      "icao": "LEVC",
      "alert": "OK",
      "vis_m": 9999,
      "fzfg": false,
      "metar_trigger": false,
      "taf_trigger": false,
      "metar": "METAR LEVC 221930Z 13004KT CAVOK 30/15 Q1019 NOSIG",
      "taf": "TAF LEVC 221700Z 2218/2318 11008KT CAVOK TX36/2312Z TN22/2306Z"
    },
    {
      "icao": "LEXJ",
      "alert": "OK",
      "vis_m": 9999,
      "fzfg": false,
      "metar_trigger": false,
      "taf_trigger": false,
      "metar": "METAR LEXJ 221930Z 05002KT CAVOK 24/21 Q1017",
      "taf": "TAF LEXJ 221400Z 2215/2315 05009KT 9999 FEW010 TX32/2314Z TN20/2305Z"
    },
    {
      "icao": "LEZG",
      "alert": "OK",
      "vis_m": 8000,
      "fzfg": false,
      "metar_trigger": false,
      "taf_trigger": false,
      "metar": "METAR LEZG 221930Z 09013G23KT 060V150 8000 NSC 36/08 Q1018 NOSIG",
      "taf": "TAF LEZG 221700Z 2218/2318 09008KT CAVOK TX42/2315Z TN24/2306Z"
    },
    {
      "icao": "LEZL",
      "alert": "OK",
      "vis_m": 9999,
      "fzfg": false,
      "metar_trigger": false,
      "taf_trigger": false,
      "metar": "METAR LEZL 221930Z 22010KT 190V250 CAVOK 31/20 Q1014 NOSIG",
      "taf": "TAF LEZL 221400Z 2215/2315 23009KT CAVOK TX38/2215Z TN23/2306Z"
    },
    {
      "icao": "LFBD",
      "alert": "OK",
      "vis_m": 9999,
      "fzfg": false,
      "metar_trigger": false,
      "taf_trigger": false,
      "metar": "METAR LFBD 221930Z AUTO 11006KT CAVOK 37/14 Q1017 NOSIG",
      "taf": "TAF LFBD 221700Z 2218/2324 12005KT CAVOK TX43/2315Z TN27/2305Z"
    },
    {
      "icao": "LFLL",
      "alert": "OK",
      "vis_m": 9999,
      "fzfg": false,
      "metar_trigger": false,
      "taf_trigger": false,
      "metar": "METAR LFLL 221930Z 35004KT CAVOK 33/14 Q1020 NOSIG",
      "taf": "TAF LFLL 221700Z 2218/2324 36008KT CAVOK"
    },
    {
      "icao": "LFLS",
      "alert": "OK",
      "vis_m": 9999,
      "fzfg": false,
      "metar_trigger": false,
      "taf_trigger": false,
      "metar": "METAR LFLS 221930Z AUTO VRB03KT CAVOK 28/18 Q1021",
      "taf": "TAF LFLS 221400Z 2215/2315 36010KT CAVOK"
    },
    {
      "icao": "LFMN",
      "alert": "OK",
      "vis_m": 9999,
      "fzfg": false,
      "metar_trigger": false,
      "taf_trigger": false,
      "metar": "METAR LFMN 221930Z 33009KT 310V010 CAVOK 28/17 Q1019 NOSIG",
      "taf": ""
    },
    {
      "icao": "LFOB",
      "alert": "OK",
      "vis_m": 9999,
      "fzfg": false,
      "metar_trigger": false,
      "taf_trigger": false,
      "metar": "METAR LFOB 221930Z AUTO 03006KT 360V060 CAVOK 29/21 Q1022 NOSIG",
      "taf": "TAF LFOB 221700Z 2218/2318 08008KT CAVOK"
    },
    {
      "icao": "LFPO",
      "alert": "OK",
      "vis_m": 9999,
      "fzfg": false,
      "metar_trigger": false,
      "taf_trigger": false,
      "metar": "METAR LFPO 221930Z AUTO 06010KT CAVOK 33/19 Q1021 NOSIG",
      "taf": "TAF LFPO 221700Z 2218/2324 05006KT CAVOK"
    },
    {
      "icao": "LFSB",
      "alert": "OK",
      "vis_m": 9999,
      "fzfg": false,
      "metar_trigger": false,
      "taf_trigger": false,
      "metar": "METAR LFSB 221930Z AUTO 31004KT CAVOK 28/17 Q1021 NOSIG",
      "taf": "TAF LFSB 221700Z 2218/2318 36008KT CAVOK"
    },
    {
      "icao": "LGAV",
      "alert": "OK",
      "vis_m": 9999,
      "fzfg": false,
      "metar_trigger": false,
      "taf_trigger": false,
      "metar": "METAR LGAV 221920Z 01005KT 330V030 CAVOK 27/10 Q1016 NOSIG",
      "taf": "TAF LGAV 221700Z 2218/2318 02015KT 9999 FEW025"
    },
    {
      "icao": "LGTS",
      "alert": "OK",
      "vis_m": 9999,
      "fzfg": false,
      "metar_trigger": false,
      "taf_trigger": false,
      "metar": "METAR LGTS 221920Z 15006KT 9999 FEW020 27/17 Q1016 NOSIG",
      "taf": "TAF LGTS 221700Z 2218/2318 VRB03KT 9999 FEW030"
    },
    {
      "icao": "LHBP",
      "alert": "OK",
      "vis_m": 9999,
      "fzfg": false,
      "metar_trigger": false,
      "taf_trigger": false,
      "metar": "METAR LHBP 221930Z 01004KT CAVOK 25/17 Q1020 NOSIG",
      "taf": "TAF LHBP 221715Z 2218/2318 01006KT CAVOK"
    },
    {
      "icao": "LHDC",
      "alert": "OK",
      "vis_m": 9999,
      "fzfg": false,
      "metar_trigger": false,
      "taf_trigger": false,
      "metar": "METAR LHDC 221915Z AUTO 02010KT 340V050 CAVOK 26/16 Q1018",
      "taf": "TAF LHDC 221415Z 2215/2224 01007KT CAVOK"
    },
    {
      "icao": "LIBD",
      "alert": "OK",
      "vis_m": 9999,
      "fzfg": false,
      "metar_trigger": false,
      "taf_trigger": false,
      "metar": "METAR LIBD 221920Z 34003KT 300V030 CAVOK 26/23 Q1018",
      "taf": "TAF LIBD 221700Z 2218/2318 28007KT CAVOK"
    },
    {
      "icao": "LIBG",
      "alert": "OK",
      "vis_m": 9999,
      "fzfg": false,
      "metar_trigger": false,
      "taf_trigger": false,
      "metar": "METAR LIBG 221920Z AUTO 02006KT 9999 NCD 29/17 Q1017",
      "taf": "TAF LIBG 221700Z 2218/2318 VRB05KT 9999 FEW040"
    },
    {
      "icao": "LIBP",
      "alert": "OK",
      "vis_m": 9999,
      "fzfg": false,
      "metar_trigger": false,
      "taf_trigger": false,
      "metar": "METAR LIBP 221920Z AUTO VRB01KT 9999 NCD 26/20 Q1019",
      "taf": "TAF LIBP 221700Z 2218/2318 VRB05KT CAVOK"
    },
    {
      "icao": "LIBR",
      "alert": "OK",
      "vis_m": 9999,
      "fzfg": false,
      "metar_trigger": false,
      "taf_trigger": false,
      "metar": "METAR LIBR 221920Z 31007KT 9999 FEW006 25/25 Q1017",
      "taf": "TAF LIBR 221700Z 2218/2318 33012KT CAVOK"
    },
    {
      "icao": "LICA",
      "alert": "OK",
      "vis_m": 9999,
      "fzfg": false,
      "metar_trigger": false,
      "taf_trigger": false,
      "metar": "METAR LICA 221920Z AUTO 20004KT 170V230 9999 NCD 26/24 Q1018",
      "taf": "TAF LICA 221700Z 2218/2318 VRB05KT 9999 FEW020"
    },
    {
      "icao": "LICC",
      "alert": "OK",
      "vis_m": 9999,
      "fzfg": false,
      "metar_trigger": false,
      "taf_trigger": false,
      "metar": "METAR LICC 221920Z 06006KT CAVOK 28/17 Q1017",
      "taf": "TAF LICC 221700Z 2218/2318 VRB05KT CAVOK"
    },
    {
      "icao": "LICJ",
      "alert": "OK",
      "vis_m": 9999,
      "fzfg": false,
      "metar_trigger": false,
      "taf_trigger": false,
      "metar": "METAR LICJ 221920Z 05009KT CAVOK 27/22 Q1018",
      "taf": "TAF LICJ 221700Z 2218/2318 05012KT CAVOK"
    },
    {
      "icao": "LIMC",
      "alert": "OK",
      "vis_m": 9999,
      "fzfg": false,
      "metar_trigger": false,
      "taf_trigger": false,
      "metar": "METAR LIMC 221920Z 18003KT CAVOK 30/18 Q1020 NOSIG",
      "taf": "TAF LIMC 221700Z 2218/2324 VRB06KT CAVOK"
    },
    {
      "icao": "LIME",
      "alert": "OK",
      "vis_m": 9999,
      "fzfg": false,
      "metar_trigger": false,
      "taf_trigger": false,
      "metar": "METAR LIME 221920Z AUTO 05007KT 020V110 9999 -RA SCT060/// BKN096/// 29/19 Q1020 RETS",
      "taf": "TAF LIME 221700Z 2218/2318 VRB06KT CAVOK"
    },
    {
      "icao": "LIMF",
      "alert": "OK",
      "vis_m": 9999,
      "fzfg": false,
      "metar_trigger": false,
      "taf_trigger": false,
      "metar": "METAR LIMF 221920Z 08004KT CAVOK 30/22 Q1019",
      "taf": "TAF LIMF 221700Z 2218/2318 VRB06KT CAVOK"
    },
    {
      "icao": "LIMJ",
      "alert": "OK",
      "vis_m": 9999,
      "fzfg": false,
      "metar_trigger": false,
      "taf_trigger": false,
      "metar": "METAR LIMJ 221920Z VRB01KT CAVOK 27/26 Q1018",
      "taf": "TAF LIMJ 221700Z 2218/2318 VRB06KT CAVOK"
    },
    {
      "icao": "LIPE",
      "alert": "OK",
      "vis_m": 9999,
      "fzfg": false,
      "metar_trigger": false,
      "taf_trigger": false,
      "metar": "METAR LIPE 221920Z 10006KT CAVOK 31/15 Q1019",
      "taf": "TAF LIPE 221700Z 2218/2318 VRB05KT CAVOK"
    },
    {
      "icao": "LIPH",
      "alert": "OK",
      "vis_m": 9999,
      "fzfg": false,
      "metar_trigger": false,
      "taf_trigger": false,
      "metar": "METAR LIPH 221920Z 06018KT 9999 FEW030CB SCT090 26/19 Q1020",
      "taf": ""
    },
    {
      "icao": "LIPQ",
      "alert": "OK",
      "vis_m": 9999,
      "fzfg": false,
      "metar_trigger": false,
      "taf_trigger": false,
      "metar": "METAR LIPQ 221920Z AUTO 01009KT 9999 BKN120/// 24/19 Q1020",
      "taf": "TAF LIPQ 221700Z 2218/2318 VRB05KT 9999 FEW040"
    },
    {
      "icao": "LIPR",
      "alert": "OK",
      "vis_m": 9999,
      "fzfg": false,
      "metar_trigger": false,
      "taf_trigger": false,
      "metar": "METAR LIPR 221920Z 08002KT CAVOK 27/22 Q1019",
      "taf": "TAF LIPR 221700Z 2218/2318 VRB05KT 9999 FEW030"
    },
    {
      "icao": "LIPX",
      "alert": "OK",
      "vis_m": 9999,
      "fzfg": false,
      "metar_trigger": false,
      "taf_trigger": false,
      "metar": "METAR LIPX 221920Z 34003KT 260V010 CAVOK 30/19 Q1019",
      "taf": "TAF LIPX 221700Z 2218/2318 VRB06KT CAVOK"
    },
    {
      "icao": "LIPY",
      "alert": "OK",
      "vis_m": 9999,
      "fzfg": false,
      "metar_trigger": false,
      "taf_trigger": false,
      "metar": "METAR LIPY 221920Z AUTO VRB01KT 9999 NCD 26/23 Q1018",
      "taf": "TAF LIPY 221700Z 2218/2318 VRB05KT CAVOK"
    },
    {
      "icao": "LIPZ",
      "alert": "OK",
      "vis_m": 9999,
      "fzfg": false,
      "metar_trigger": false,
      "taf_trigger": false,
      "metar": "METAR LIPZ 221920Z 04021KT 9999 SCT070 27/17 Q1021 BECMG 3000 TSRA",
      "taf": ""
    },
    {
      "icao": "LIRF",
      "alert": "OK",
      "vis_m": 9999,
      "fzfg": false,
      "metar_trigger": false,
      "taf_trigger": false,
      "metar": "METAR LIRF 221920Z 04006KT CAVOK 26/17 Q1017 NOSIG",
      "taf": "TAF LIRF 221700Z 2218/2324 VRB05KT 9999 FEW030"
    },
    {
      "icao": "LIRN",
      "alert": "OK",
      "vis_m": 9999,
      "fzfg": false,
      "metar_trigger": false,
      "taf_trigger": false,
      "metar": "METAR LIRN 221920Z 05003KT CAVOK 24/19 Q1018 NOSIG",
      "taf": "TAF LIRN 221700Z 2218/2318 VRB05KT 9999 SCT030"
    },
    {
      "icao": "LIRP",
      "alert": "OK",
      "vis_m": 9999,
      "fzfg": false,
      "metar_trigger": false,
      "taf_trigger": false,
      "metar": "METAR LIRP 221915Z 30006KT CAVOK 30/17 Q1018 NOSIG",
      "taf": "TAF LIRP 221700Z 2218/2318 30007KT CAVOK"
    },
    {
      "icao": "LIRZ",
      "alert": "OK",
      "vis_m": 9999,
      "fzfg": false,
      "metar_trigger": false,
      "taf_trigger": false,
      "metar": "METAR LIRZ 221920Z AUTO 04009KT 9999 NCD 29/15 Q1019",
      "taf": "TAF LIRZ 221700Z 2218/2318 VRB05KT CAVOK"
    },
    {
      "icao": "LJLJ",
      "alert": "OK",
      "vis_m": 9999,
      "fzfg": false,
      "metar_trigger": false,
      "taf_trigger": false,
      "metar": "METAR LJLJ 221930Z 31012KT 9999 FEW060 SCT150 BKN190 22/17 Q1022 NOSIG",
      "taf": "TAF LJLJ 221700Z 2218/2318 08005KT 9999 FEW060"
    },
    {
      "icao": "LKMT",
      "alert": "OK",
      "vis_m": 9999,
      "fzfg": false,
      "metar_trigger": false,
      "taf_trigger": false,
      "metar": "METAR LKMT 221930Z 36006KT CAVOK 22/16 Q1022 NOSIG",
      "taf": "TAF LKMT 221700Z 2218/2318 36008KT CAVOK"
    },
    {
      "icao": "LKPR",
      "alert": "OK",
      "vis_m": 9999,
      "fzfg": false,
      "metar_trigger": false,
      "taf_trigger": false,
      "metar": "METAR LKPR 221930Z 06005KT 030V110 CAVOK 24/16 Q1023 NOSIG",
      "taf": "TAF LKPR 221700Z 2218/2324 35006KT CAVOK"
    },
    {
      "icao": "LLBG",
      "alert": "OK",
      "vis_m": 9999,
      "fzfg": false,
      "metar_trigger": false,
      "taf_trigger": false,
      "metar": "METAR LLBG 221920Z VRB02KT 9999 FEW025 25/19 Q1010 NOSIG",
      "taf": "TAF LLBG 221703Z 2218/2318 30007KT 9999 FEW025 TX29/2311Z TN21/2303Z"
    },
    {
      "icao": "LMML",
      "alert": "OK",
      "vis_m": 9999,
      "fzfg": false,
      "metar_trigger": false,
      "taf_trigger": false,
      "metar": "METAR LMML 221915Z 29004KT CAVOK 27/16 Q1018 NOSIG",
      "taf": "TAF LMML 221700Z 2218/2318 30009KT 9999 FEW015"
    },
    {
      "icao": "LOWW",
      "alert": "OK",
      "vis_m": 9999,
      "fzfg": false,
      "metar_trigger": false,
      "taf_trigger": false,
      "metar": "METAR LOWW 221920Z 34005KT 300V020 9999 FEW050 25/17 Q1021 NOSIG",
      "taf": "TAF LOWW 221715Z 2218/2324 33004KT 9999 FEW050 TX31/2315Z TN20/2303Z"
    },
    {
      "icao": "LPFR",
      "alert": "OK",
      "vis_m": 9999,
      "fzfg": false,
      "metar_trigger": false,
      "taf_trigger": false,
      "metar": "METAR LPFR 221930Z 26005KT 220V280 9999 FEW006 21/20 Q1015",
      "taf": "TAF LPFR 221700Z 2218/2318 26008KT 9999 FEW012"
    },
    {
      "icao": "LPMA",
      "alert": "OK",
      "vis_m": 9999,
      "fzfg": false,
      "metar_trigger": false,
      "taf_trigger": false,
      "metar": "METAR LPMA 221930Z 35014KT 9999 SCT015 23/14 Q1018",
      "taf": "TAF LPMA 221700Z 2218/2318 36012KT 9999 SCT015"
    },
    {
      "icao": "LPPR",
      "alert": "OK",
      "vis_m": 8000,
      "fzfg": false,
      "metar_trigger": false,
      "taf_trigger": false,
      "metar": "METAR LPPR 221930Z 08003KT 040V110 8000 FEW005 SCT007 20/18 Q1016",
      "taf": "TAF LPPR 221700Z 2218/2318 VRB02KT 8000 BKN008"
    },
    {
      "icao": "LPPS",
      "alert": "OK",
      "vis_m": 9999,
      "fzfg": false,
      "metar_trigger": false,
      "taf_trigger": false,
      "metar": "METAR LPPS 221930Z 33010KT 9999 FEW012 22/17 Q1019",
      "taf": "TAF LPPS 221700Z 2218/2324 34012KT 9999 SCT012"
    },
    {
      "icao": "LPPT",
      "alert": "OK",
      "vis_m": 9999,
      "fzfg": false,
      "metar_trigger": false,
      "taf_trigger": false,
      "metar": "METAR LPPT 221930Z 33011KT CAVOK 23/16 Q1015",
      "taf": "TAF LPPT 221700Z 2218/2324 31013KT CAVOK"
    },
    {
      "icao": "LQBK",
      "alert": "OK",
      "vis_m": 9999,
      "fzfg": false,
      "metar_trigger": false,
      "taf_trigger": false,
      "metar": "METAR LQBK 221930Z 29003KT CAVOK 24/18 Q1019 NOSIG",
      "taf": "TAF LQBK 221700Z 2218/2318 28007KT CAVOK TX32/2314Z TN20/2303Z"
    },
    {
      "icao": "LQSA",
      "alert": "OK",
      "vis_m": 9999,
      "fzfg": false,
      "metar_trigger": false,
      "taf_trigger": false,
      "metar": "METAR LQSA 221930Z 12005KT 090V150 CAVOK 20/18 Q1022 NOSIG",
      "taf": "TAF LQSA 221700Z 2218/2318 VRB02KT CAVOK TX28/2311Z TN16/2303Z"
    },
    {
      "icao": "LQTZ",
      "alert": "OK",
      "vis_m": 9999,
      "fzfg": false,
      "metar_trigger": false,
      "taf_trigger": false,
      "metar": "METAR LQTZ 221930Z VRB01KT 9999 VCTS FEW045CB SCT055 22/22 Q1020",
      "taf": "TAF LQTZ 221700Z 2218/2318 28005KT 9999 SCT050 TX27/2314Z TN17/2303Z"
    },
    {
      "icao": "LRBC",
      "alert": "OK",
      "vis_m": 9999,
      "fzfg": false,
      "metar_trigger": false,
      "taf_trigger": false,
      "metar": "METAR LRBC 221930Z 31002KT CAVOK 21/17 Q1019",
      "taf": "TAF LRBC 221700Z 2218/2303 VRB04KT CAVOK"
    },
    {
      "icao": "LRBS",
      "alert": "OK",
      "vis_m": 9999,
      "fzfg": false,
      "metar_trigger": false,
      "taf_trigger": false,
      "metar": "METAR LRBS 221930Z 04002KT CAVOK 24/17 Q1018 NOSIG",
      "taf": "TAF LRBS 221700Z 2218/2318 02005KT CAVOK"
    },
    {
      "icao": "LRBV",
      "alert": "OK",
      "vis_m": 9999,
      "fzfg": false,
      "metar_trigger": false,
      "taf_trigger": false,
      "metar": "METAR LRBV 221930Z 26003KT CAVOK 18/17 Q1021",
      "taf": "TAF LRBV 221700Z 2218/2303 34008KT 9999 SCT060"
    },
    {
      "icao": "LRCL",
      "alert": "OK",
      "vis_m": 9999,
      "fzfg": false,
      "metar_trigger": false,
      "taf_trigger": false,
      "metar": "METAR LRCL 221930Z 06003KT CAVOK 19/17 Q1020",
      "taf": "TAF LRCL 221700Z 2218/2303 16006KT 9999 FEW050"
    },
    {
      "icao": "LRCV",
      "alert": "OK",
      "vis_m": 9999,
      "fzfg": false,
      "metar_trigger": false,
      "taf_trigger": false,
      "metar": "METAR LRCV 221930Z 08004KT CAVOK 20/20 Q1019",
      "taf": "TAF LRCV 221700Z 2218/2303 35008KT 7000 -TSRA BKN040CB"
    },
    {
      "icao": "LRIA",
      "alert": "OK",
      "vis_m": 9999,
      "fzfg": false,
      "metar_trigger": false,
      "taf_trigger": false,
      "metar": "METAR LRIA 221930Z 00000KT CAVOK 23/15 Q1018",
      "taf": "TAF LRIA 221700Z 2218/2303 VRB04KT CAVOK"
    },
    {
      "icao": "LROP",
      "alert": "OK",
      "vis_m": 9999,
      "fzfg": false,
      "metar_trigger": false,
      "taf_trigger": false,
      "metar": "METAR LROP 221930Z 07003KT CAVOK 25/18 Q1018 NOSIG",
      "taf": "TAF LROP 221700Z 2218/2318 02005KT CAVOK"
    },
    {
      "icao": "LRSB",
      "alert": "OK",
      "vis_m": 9999,
      "fzfg": false,
      "metar_trigger": false,
      "taf_trigger": false,
      "metar": "METAR LRSB 221930Z 12003KT CAVOK 20/19 Q1020",
      "taf": "TAF LRSB 221700Z 2218/2318 VRB04KT 9999 SCT045"
    },
    {
      "icao": "LRSM",
      "alert": "OK",
      "vis_m": 9999,
      "fzfg": false,
      "metar_trigger": false,
      "taf_trigger": false,
      "metar": "METAR LRSM 221930Z AUTO 21002KT 9999 SCT130/// BKN150/// 23/18 Q1018",
      "taf": "TAF LRSM 221400Z 2215/2224 VRB04KT 9999 SCT040"
    },
    {
      "icao": "LRSV",
      "alert": "OK",
      "vis_m": 9999,
      "fzfg": false,
      "metar_trigger": false,
      "taf_trigger": false,
      "metar": "METAR LRSV 221930Z 35004KT CAVOK 22/14 Q1020",
      "taf": "TAF LRSV 221700Z 2218/2303 VRB04KT CAVOK"
    },
    {
      "icao": "LRTM",
      "alert": "OK",
      "vis_m": 9999,
      "fzfg": false,
      "metar_trigger": false,
      "taf_trigger": false,
      "metar": "METAR LRTM 221930Z 11004KT CAVOK 20/18 Q1020",
      "taf": "TAF LRTM 221700Z 2218/2303 VRB04KT 9999 SCT045CB"
    },
    {
      "icao": "LRTR",
      "alert": "OK",
      "vis_m": 9999,
      "fzfg": false,
      "metar_trigger": false,
      "taf_trigger": false,
      "metar": "METAR LRTR 221930Z COR 11005KT 9999 FEW050CB 21/21 Q1018",
      "taf": "TAF LRTR 221700Z 2218/2318 VRB04KT 9999 FEW050CB"
    },
    {
      "icao": "LTAC",
      "alert": "OK",
      "vis_m": 9999,
      "fzfg": false,
      "metar_trigger": false,
      "taf_trigger": false,
      "metar": "METAR LTAC 221920Z 07008KT 030V090 CAVOK 18/09 Q1018 NOSIG RMK RWY21C 05010KT 010V080 RWY03L 04008KT RWY21R 04009KT RWY03R 07008KT 030V100 RWY21L 08014KT",
      "taf": "TAF LTAC 221640Z 2218/2318 05012KT CAVOK"
    },
    {
      "icao": "LTFM",
      "alert": "OK",
      "vis_m": 9999,
      "fzfg": false,
      "metar_trigger": false,
      "taf_trigger": false,
      "metar": "METAR LTFM 221920Z 06011KT CAVOK 23/19 Q1017 NOSIG RMK RWY17L 06006KT RWY34L 04007KT RWY16R 06008KT RWY36 06009KT 020V080 RWY18 08008KT",
      "taf": "TAF LTFM 221640Z 2218/2324 04015KT CAVOK"
    },
    {
      "icao": "LUKK",
      "alert": "OK",
      "vis_m": 9999,
      "fzfg": false,
      "metar_trigger": false,
      "taf_trigger": false,
      "metar": "METAR LUKK 221930Z 27004KT CAVOK 22/16 Q1018 NOSIG",
      "taf": "TAF LUKK 221721Z 2218/2318 VRB04KT CAVOK"
    },
    {
      "icao": "LWOH",
      "alert": "OK",
      "vis_m": 9999,
      "fzfg": false,
      "metar_trigger": false,
      "taf_trigger": false,
      "metar": "METAR LWOH 221850Z 36004KT 320V030 CAVOK 18/15 Q1021",
      "taf": "TAF LWOH 221430Z 2215/2315 VRB03KT 9999 SCT060"
    },
    {
      "icao": "LWSK",
      "alert": "OK",
      "vis_m": 9999,
      "fzfg": false,
      "metar_trigger": false,
      "taf_trigger": false,
      "metar": "METAR LWSK 221920Z 36004KT 290V030 CAVOK 26/17 Q1018 NOSIG",
      "taf": "TAF LWSK 221715Z 2218/2318 36010KT CAVOK"
    },
    {
      "icao": "LYBE",
      "alert": "OK",
      "vis_m": 9999,
      "fzfg": false,
      "metar_trigger": false,
      "taf_trigger": false,
      "metar": "METAR LYBE 221930Z 36007KT 9999 FEW040TCU 25/19 Q1018 TEMPO 35017KT 3000 TSRA SCT035CB SCT040",
      "taf": "TAF LYBE 221700Z 2218/2318 30008KT 9999 SCT045 TX30/2314Z TN20/2303Z"
    },
    {
      "icao": "LYNI",
      "alert": "OK",
      "vis_m": 9999,
      "fzfg": false,
      "metar_trigger": false,
      "taf_trigger": false,
      "metar": "METAR LYNI 221930Z 34004KT CAVOK 25/17 Q1018 NOSIG",
      "taf": "TAF LYNI 221700Z 2218/2318 06005KT 9999 SCT055 TX29/2314Z TN17/2303Z"
    },
    {
      "icao": "LYPG",
      "alert": "OK",
      "vis_m": 9999,
      "fzfg": false,
      "metar_trigger": false,
      "taf_trigger": false,
      "metar": "METAR LYPG 221930Z 33006KT CAVOK 26/18 Q1017 NOSIG",
      "taf": "TAF LYPG 221700Z 2218/2318 36008KT 9999 SCT050 TX34/2313Z TN21/2303Z"
    },
    {
      "icao": "LZIB",
      "alert": "OK",
      "vis_m": 9999,
      "fzfg": false,
      "metar_trigger": false,
      "taf_trigger": false,
      "metar": "METAR LZIB 221930Z 34004KT CAVOK 27/16 Q1020 NOSIG",
      "taf": "TAF LZIB 221715Z 2218/2318 35009KT CAVOK"
    },
    {
      "icao": "LZKZ",
      "alert": "OK",
      "vis_m": 9999,
      "fzfg": false,
      "metar_trigger": false,
      "taf_trigger": false,
      "metar": "METAR LZKZ 221930Z 36010KT CAVOK 23/17 Q1020 NOSIG",
      "taf": "TAF LZKZ 221715Z 2218/2318 36010KT CAVOK"
    },
    {
      "icao": "LZTT",
      "alert": "OK",
      "vis_m": 9999,
      "fzfg": false,
      "metar_trigger": false,
      "taf_trigger": false,
      "metar": "METAR LZTT 221930Z 04003KT 360V080 9999 FEW053 17/16 Q1024",
      "taf": "TAF LZTT 221715Z 2218/2318 07006KT 9999 FEW020"
    },
    {
      "icao": "OEJN",
      "alert": "OK",
      "vis_m": 9999,
      "fzfg": false,
      "metar_trigger": false,
      "taf_trigger": false,
      "metar": "METAR OEJN 221900Z 32007KT CAVOK 32/23 Q1004 NOSIG",
      "taf": "TAF OEJN 221700Z 2218/2324 34007KT CAVOK"
    },
    {
      "icao": "OEMA",
      "alert": "OK",
      "vis_m": 9999,
      "fzfg": false,
      "metar_trigger": false,
      "taf_trigger": false,
      "metar": "METAR OEMA 221900Z 29014KT CAVOK 40/M01 Q1009 NOSIG",
      "taf": "TAF OEMA 221700Z 2218/2324 32009KT CAVOK"
    },
    {
      "icao": "OJAI",
      "alert": "OK",
      "vis_m": 5000,
      "fzfg": false,
      "metar_trigger": false,
      "taf_trigger": false,
      "metar": "METAR OJAI 221900Z 27007KT 5000 HZ NSC 21/14 Q1013 NOSIG",
      "taf": "TAF OJAI 221651Z 2218/2324 28010KT 5000 HZ NSC"
    },
    {
      "icao": "OMAA",
      "alert": "OK",
      "vis_m": 9999,
      "fzfg": false,
      "metar_trigger": false,
      "taf_trigger": false,
      "metar": "METAR OMAA 221930Z 13004KT 090V150 CAVOK 33/22 Q0998 NOSIG",
      "taf": "TAF OMAA 221700Z 2218/2400 04006KT 8000 NSC"
    },
    {
      "icao": "OMDB",
      "alert": "OK",
      "vis_m": 9999,
      "fzfg": false,
      "metar_trigger": false,
      "taf_trigger": false,
      "metar": "METAR OMDB 221930Z VRB02KT CAVOK 36/11 Q0998 NOSIG",
      "taf": "TAF OMDB 221700Z 2218/2400 VRB02KT 8000 NSC"
    },
    {
      "icao": "UAAA",
      "alert": "OK",
      "vis_m": 9999,
      "fzfg": false,
      "metar_trigger": false,
      "taf_trigger": false,
      "metar": "METAR UAAA 221930Z 23003MPS 9999 SCT200 20/08 Q1011 NOSIG",
      "taf": "TAF UAAA 221702Z 2218/2318 20003MPS 9999 FEW050CB SCT100 TX35/2310Z TN20/2301Z"
    },
    {
      "icao": "UBBB",
      "alert": "OK",
      "vis_m": 9999,
      "fzfg": false,
      "metar_trigger": false,
      "taf_trigger": false,
      "metar": "METAR UBBB 221930Z 34010KT 9999 FEW060CB 23/16 Q1016 NOSIG",
      "taf": "TAF UBBB 221714Z 2218/2318 34012KT 9999 BKN040 TX28/2310Z TN20/2301Z"
    },
    {
      "icao": "UDSG",
      "alert": "OK",
      "vis_m": 9999,
      "fzfg": false,
      "metar_trigger": false,
      "taf_trigger": false,
      "metar": "METAR UDSG 221930Z 35001KT 9999 NSC 15/11 Q1021 NOSIG",
      "taf": "TAF UDSG 221700Z 2218/2318 03006KT 9999 FEW050"
    },
    {
      "icao": "UDYZ",
      "alert": "OK",
      "vis_m": 9999,
      "fzfg": false,
      "metar_trigger": false,
      "taf_trigger": false,
      "metar": "METAR UDYZ 221930Z 02016KT 9999 FEW043CB 24/11 Q1014 NOSIG",
      "taf": "TAF UDYZ 221700Z 2218/2318 04006KT 9999 FEW040"
    },
    {
      "icao": "UGKO",
      "alert": "OK",
      "vis_m": 9999,
      "fzfg": false,
      "metar_trigger": false,
      "taf_trigger": false,
      "metar": "METAR UGKO 221930Z VRB02KT CAVOK 20/17 Q1017 NOSIG",
      "taf": "TAF UGKO 221700Z 2218/2318 26007KT CAVOK TX30/2311Z TN16/2302Z"
    }
  ]
}