{
  "ts_utc": "2026-01-11T22:46:42Z",
  "threshold_m": 150,
  "source": "stations_override.txt (ICAO list) + aviationweather.gov (METAR/TAF raw)",
  "station_count": 159,
  "stations": [
    {
      "icao": "BIKF",
      "alert": "OK",
      "vis_m": 9999,
      "fzfg": false,
      "metar_trigger": false,
      "taf_trigger": false,
      "metar": "METAR BIKF 112230Z 03022KT CAVOK M01/M06 Q0993",
      "taf": "TAF BIKF 111955Z 1121/1221 02022KT 9999 FEW030 TX00/1203Z TNM03/1218Z"
    },
    {
      "icao": "BKPR",
      "alert": "OK",
      "vis_m": 9999,
      "fzfg": false,
      "metar_trigger": false,
      "taf_trigger": false,
      "metar": "METAR BKPR 112230Z 33004KT CAVOK M09/M11 Q1019 NOSIG",
      "taf": ""
    },
    {
      "icao": "EBCI",
      "alert": "OK",
      "vis_m": 9999,
      "fzfg": false,
      "metar_trigger": false,
      "taf_trigger": false,
      "metar": "METAR EBCI 112220Z 17015KT 9999 -RA SCT045 01/M02 Q1015 TEMPO 18015G25KT",
      "taf": "TAF EBCI 111700Z 1118/1224 17012KT 9999 BKN014"
    },
    {
      "icao": "EDDB",
      "alert": "OK",
      "vis_m": 8000,
      "fzfg": false,
      "metar_trigger": false,
      "taf_trigger": false,
      "metar": "METAR EDDB 112220Z AUTO 23006KT 8000 NCD M10/M11 Q1022 TEMPO 1400 BCFG",
      "taf": "TAF EDDB 111700Z 1118/1218 28009KT CAVOK"
    },
    {
      "icao": "EDDH",
      "alert": "OK",
      "vis_m": 9999,
      "fzfg": false,
      "metar_trigger": false,
      "taf_trigger": false,
      "metar": "METAR EDDH 112220Z AUTO 13006KT CAVOK M07/M09 Q1020 NOSIG",
      "taf": "TAF EDDH 111700Z 1118/1224 VRB03KT 6000 NSC"
    },
    {
      "icao": "EDDK",
      "alert": "OK",
      "vis_m": 9999,
      "fzfg": false,
      "metar_trigger": false,
      "taf_trigger": false,
      "metar": "METAR EDDK 112220Z AUTO 13009KT 9999 OVC018 M00/M03 Q1020 NOSIG",
      "taf": "TAF EDDK 111700Z 1118/1224 14009KT 9999 BKN020"
    },
    {
      "icao": "EDDN",
      "alert": "OK",
      "vis_m": 9999,
      "fzfg": false,
      "metar_trigger": false,
      "taf_trigger": false,
      "metar": "METAR EDDN 112220Z AUTO 10004KT 9999 OVC014 M05/M07 Q1024",
      "taf": ""
    },
    {
      "icao": "EDDS",
      "alert": "OK",
      "vis_m": 9999,
      "fzfg": false,
      "metar_trigger": false,
      "taf_trigger": false,
      "metar": "METAR EDDS 112220Z AUTO 13003KT 090V150 CAVOK M04/M06 Q1021",
      "taf": "TAF EDDS 111700Z 1118/1218 18004KT 9999 BKN020"
    },
    {
      "icao": "EDFH",
      "alert": "OK",
      "vis_m": 9999,
      "fzfg": false,
      "metar_trigger": false,
      "taf_trigger": false,
      "metar": "METAR EDFH 112220Z 18010KT 9999 SCT005 OVC007 M03/M04 Q1019",
      "taf": "TAF EDFH 111700Z 1118/1218 16008KT 8000 BKN005"
    },
    {
      "icao": "EDJA",
      "alert": "OK",
      "vis_m": 9999,
      "fzfg": false,
      "metar_trigger": false,
      "taf_trigger": false,
      "metar": "METAR EDJA 112220Z AUTO 15005KT 9999 // NCD M09/M10 Q1022",
      "taf": "TAF EDJA 111700Z 1118/1203 19004KT CAVOK"
    },
    {
      "icao": "EDLW",
      "alert": "OK",
      "vis_m": 9999,
      "fzfg": false,
      "metar_trigger": false,
      "taf_trigger": false,
      "metar": "METAR EDLW 112220Z AUTO 17011KT 9999 // OVC100/// M01/M04 Q1018",
      "taf": "TAF EDLW 111700Z 1118/1218 17008KT 9999 FEW015"
    },
    {
      "icao": "EDNY",
      "alert": "OK",
      "vis_m": 9999,
      "fzfg": false,
      "metar_trigger": false,
      "taf_trigger": false,
      "metar": "METAR EDNY 112220Z AUTO 05002KT 9999 // FEW230/// M06/M07 Q1023",
      "taf": "TAF EDNY 111700Z 1118/1203 06003KT 9999 BKN020"
    },
    {
      "icao": "EDSB",
      "alert": "OK",
      "vis_m": 3300,
      "fzfg": false,
      "metar_trigger": false,
      "taf_trigger": false,
      "metar": "METAR EDSB 112220Z AUTO VRB01KT 3300 1500 FEW003/// M03/M03 Q1023",
      "taf": "TAF EDSB 111700Z 1118/1218 08004KT 9999 BKN025"
    },
    {
      "icao": "EETN",
      "alert": "OK",
      "vis_m": 9999,
      "fzfg": false,
      "metar_trigger": false,
      "taf_trigger": false,
      "metar": "METAR EETN 112220Z 09007KT 9999 -SN FEW021 BKN029 M05/M07 Q1013",
      "taf": "TAF EETN 111730Z 1118/1218 03012KT 5000 SN SCT015 OVC020"
    },
    {
      "icao": "EFTU",
      "alert": "OK",
      "vis_m": 9999,
      "fzfg": false,
      "metar_trigger": false,
      "taf_trigger": false,
      "metar": "METAR EFTU 112220Z AUTO 04007KT CAVOK M08/M09 Q1017",
      "taf": "TAF EFTU 112032Z 1121/1221 03007KT 9999 -SN SCT025"
    },
    {
      "icao": "EGBB",
      "alert": "OK",
      "vis_m": 9999,
      "fzfg": false,
      "metar_trigger": false,
      "taf_trigger": false,
      "metar": "METAR EGBB 112220Z 19008KT 140V220 9999 BKN010 BKN024 11/09 Q0997 RERA",
      "taf": ""
    },
    {
      "icao": "EGGP",
      "alert": "OK",
      "vis_m": 9999,
      "fzfg": false,
      "metar_trigger": false,
      "taf_trigger": false,
      "metar": "METAR EGGP 112220Z 21009KT 9999 SCT030 BKN039 10/07 Q0994",
      "taf": ""
    },
    {
      "icao": "EGGW",
      "alert": "OK",
      "vis_m": 7000,
      "fzfg": false,
      "metar_trigger": false,
      "taf_trigger": false,
      "metar": "METAR EGGW 112220Z AUTO 18015G28KT 150V210 7000 -RA OVC004/// //////TCU 08/08 Q1000",
      "taf": ""
    },
    {
      "icao": "EGKK",
      "alert": "OK",
      "vis_m": 4500,
      "fzfg": false,
      "metar_trigger": false,
      "taf_trigger": false,
      "metar": "METAR EGKK 112220Z 19016KT 4500 -RA SCT006 BKN008 09/08 Q1003",
      "taf": "TAF EGKK 111657Z 1118/1224 16013KT 9999 BKN010"
    },
    {
      "icao": "EGNM",
      "alert": "OK",
      "vis_m": 9999,
      "fzfg": false,
      "metar_trigger": false,
      "taf_trigger": false,
      "metar": "METAR EGNM 112220Z 20010KT 170V230 9999 -RADZ FEW005 BKN018 09/08 Q0993",
      "taf": "TAF EGNM 111657Z 1118/1218 15015G28KT 9999 BKN006"
    },
    {
      "icao": "EGPD",
      "alert": "OK",
      "vis_m": 5000,
      "fzfg": false,
      "metar_trigger": false,
      "taf_trigger": false,
      "metar": "METAR EGPD 112220Z AUTO 17030KT 5000 -RA OVC007/// //////TCU 07/06 Q0983",
      "taf": "TAF EGPD 111703Z 1118/1218 16020G32KT 9999 BKN010"
    },
    {
      "icao": "EGPF",
      "alert": "OK",
      "vis_m": 9999,
      "fzfg": false,
      "metar_trigger": false,
      "taf_trigger": false,
      "metar": "METAR EGPF 112220Z AUTO 21023KT 9999 FEW027 SCT034 BKN043 11/08 Q0982",
      "taf": "TAF EGPF 111702Z 1118/1218 15015G25KT 9999 FEW015 SCT030"
    },
    {
      "icao": "EHBK",
      "alert": "OK",
      "vis_m": 9999,
      "fzfg": false,
      "metar_trigger": false,
      "taf_trigger": false,
      "metar": "METAR EHBK 112225Z AUTO 18009KT 9999 NSC 01/M02 Q1016 NOSIG",
      "taf": "TAF EHBK 111712Z 1118/1224 18008KT 9999 BKN016"
    },
    {
      "icao": "EHEH",
      "alert": "OK",
      "vis_m": 9999,
      "fzfg": false,
      "metar_trigger": false,
      "taf_trigger": false,
      "metar": "METAR EHEH 112225Z AUTO 16013KT 120V190 9999 FEW052 SCT060 BKN070 01/M02 Q1016 BLU",
      "taf": "TAF EHEH 112114Z 1122/1304 17011KT CAVOK"
    },
    {
      "icao": "EKBI",
      "alert": "OK",
      "vis_m": 9999,
      "fzfg": false,
      "metar_trigger": false,
      "taf_trigger": false,
      "metar": "METAR EKBI 112220Z AUTO 12007KT 090V150 9999 OVC120/// M04/M07 Q1018",
      "taf": "TAF EKBI 112027Z 1121/1221 12008KT CAVOK"
    },
    {
      "icao": "EKCH",
      "alert": "OK",
      "vis_m": 9999,
      "fzfg": false,
      "metar_trigger": false,
      "taf_trigger": false,
      "metar": "METAR EKCH 112220Z AUTO 27003KT 9999 NCD M08/M10 Q1021 NOSIG",
      "taf": "TAF EKCH 112027Z 1121/1221 33010KT CAVOK"
    },
    {
      "icao": "ENAL",
      "alert": "OK",
      "vis_m": 9999,
      "fzfg": false,
      "metar_trigger": false,
      "taf_trigger": false,
      "metar": "METAR ENAL 112220Z 18010KT 150V210 CAVOK 06/M12 Q1004",
      "taf": ""
    },
    {
      "icao": "ENBR",
      "alert": "OK",
      "vis_m": 9999,
      "fzfg": false,
      "metar_trigger": false,
      "taf_trigger": false,
      "metar": "METAR ENBR 112220Z 14024G38KT 9999 -SN SCT020 BKN039 02/M06 Q1006 RMK WIND 1200FT 13055G67KT",
      "taf": "TAF ENBR 111700Z 1118/1218 13022KT 9999 SCT045"
    },
    {
      "icao": "ENGM",
      "alert": "OK",
      "vis_m": 9999,
      "fzfg": false,
      "metar_trigger": false,
      "taf_trigger": false,
      "metar": "METAR ENGM 112220Z 00000KT 9999 OVC003 M18/M20 Q1021",
      "taf": ""
    },
    {
      "icao": "ENHD",
      "alert": "OK",
      "vis_m": 8000,
      "fzfg": false,
      "metar_trigger": false,
      "taf_trigger": false,
      "metar": "METAR ENHD 112220Z AUTO 13032G49KT 8000 RA OVC043/// 02/M07 Q1006 RESN",
      "taf": "TAF ENHD 111400Z 1115/1123 14025KT 9999 BKN040"
    },
    {
      "icao": "ENTC",
      "alert": "OK",
      "vis_m": 9999,
      "fzfg": false,
      "metar_trigger": false,
      "taf_trigger": false,
      "metar": "METAR ENTC 112220Z 12003KT CAVOK M09/M10 Q1019 RMK WIND 2600FT 17028KT",
      "taf": "TAF ENTC 111700Z 1118/1218 20005KT CAVOK"
    },
    {
      "icao": "ENTO",
      "alert": "OK",
      "vis_m": 9999,
      "fzfg": false,
      "metar_trigger": false,
      "taf_trigger": false,
      "metar": "METAR ENTO 112220Z 01007KT 9999 FEW004 M14/M17 Q1021",
      "taf": ""
    },
    {
      "icao": "ENVA",
      "alert": "OK",
      "vis_m": 9999,
      "fzfg": false,
      "metar_trigger": false,
      "taf_trigger": false,
      "metar": "METAR ENVA 112220Z 10010KT CAVOK 00/M12 Q1015 RMK WIND 670FT 11014KT",
      "taf": "TAF ENVA 111700Z 1118/1218 10008KT CAVOK"
    },
    {
      "icao": "ENZV",
      "alert": "OK",
      "vis_m": 9999,
      "fzfg": false,
      "metar_trigger": false,
      "taf_trigger": false,
      "metar": "METAR ENZV 112220Z 13028G39KT CAVOK 01/M09 Q1007",
      "taf": "TAF ENZV 111700Z 1118/1218 14022G35KT 9999 SCT045"
    },
    {
      "icao": "EPGD",
      "alert": "OK",
      "vis_m": 1700,
      "fzfg": false,
      "metar_trigger": false,
      "taf_trigger": false,
      "metar": "METAR EPGD 112230Z 31010KT 1700 SHSN VV011 M02/M03 Q1012",
      "taf": "TAF EPGD 111730Z 1118/1218 33012KT 9999 SCT015"
    },
    {
      "icao": "EPKK",
      "alert": "OK",
      "vis_m": 6000,
      "fzfg": false,
      "metar_trigger": false,
      "taf_trigger": false,
      "metar": "METAR EPKK 112230Z 28016KT 6000 -SN DRSN FEW010 BKN023 M05/M08 Q1015",
      "taf": "TAF EPKK 112030Z 1121/1221 27015KT 6000 -SN BKN020"
    },
    {
      "icao": "EPKT",
      "alert": "OK",
      "vis_m": 9999,
      "fzfg": false,
      "metar_trigger": false,
      "taf_trigger": false,
      "metar": "METAR EPKT 112230Z 28013KT 9999 -SN DRSN BKN010 OVC018 M06/M08 Q1015",
      "taf": ""
    },
    {
      "icao": "EPLB",
      "alert": "OK",
      "vis_m": 9999,
      "fzfg": false,
      "metar_trigger": false,
      "taf_trigger": false,
      "metar": "METAR EPLB 112230Z 29006KT 9999 -SN FEW012 SCT021 M05/M05 Q1009",
      "taf": "TAF EPLB 111730Z 1118/1218 30008KT 8000 -SN BKN020"
    },
    {
      "icao": "EPMO",
      "alert": "OK",
      "vis_m": 9999,
      "fzfg": false,
      "metar_trigger": false,
      "taf_trigger": false,
      "metar": "METAR EPMO 112230Z 29006KT 9999 BKN043 M04/M05 Q1011",
      "taf": "TAF EPMO 111730Z 1118/1218 30006KT 7000 -SN SCT009 BKN015"
    },
    {
      "icao": "EPPO",
      "alert": "OK",
      "vis_m": 9999,
      "fzfg": false,
      "metar_trigger": false,
      "taf_trigger": false,
      "metar": "METAR EPPO 112230Z 29009KT 9999 BKN035 M05/M08 Q1018",
      "taf": "TAF EPPO 111730Z 1118/1218 30012KT 9999 BKN020"
    },
    {
      "icao": "EPRA",
      "alert": "OK",
      "vis_m": 2500,
      "fzfg": false,
      "metar_trigger": false,
      "taf_trigger": false,
      "metar": "METAR EPRA 112230Z 34008KT 2500 SN OVC012 M03/M05 Q1011",
      "taf": "TAF EPRA 112030Z 1121/1206 28010KT 7000 -SN BKN016 OVC027"
    },
    {
      "icao": "EPRZ",
      "alert": "OK",
      "vis_m": 2000,
      "fzfg": false,
      "metar_trigger": false,
      "taf_trigger": false,
      "metar": "METAR EPRZ 112230Z 26016KT 2000 SN BR SCT002 OVC013 M04/M05 Q1011",
      "taf": "TAF EPRZ 111730Z 1118/1218 28012KT 3000 -SN BR BKN014"
    },
    {
      "icao": "EPSC",
      "alert": "OK",
      "vis_m": 9999,
      "fzfg": false,
      "metar_trigger": false,
      "taf_trigger": false,
      "metar": "METAR EPSC 112230Z 27004KT CAVOK M08/M10 Q1019",
      "taf": "TAF EPSC 111730Z 1118/1218 28010KT CAVOK"
    },
    {
      "icao": "EPSY",
      "alert": "OK",
      "vis_m": 9999,
      "fzfg": false,
      "metar_trigger": false,
      "taf_trigger": false,
      "metar": "METAR EPSY 112230Z 36007KT 9999 -SN BKN017 OVC023 M06/M09 Q1011",
      "taf": "TAF EPSY 112030Z 1121/1206 35005KT 9999 BKN014"
    },
    {
      "icao": "EPWA",
      "alert": "OK",
      "vis_m": 9999,
      "fzfg": false,
      "metar_trigger": false,
      "taf_trigger": false,
      "metar": "METAR EPWA 112230Z 32008KT 290V350 9999 SCT013 M04/M05 Q1011 NOSIG",
      "taf": "TAF EPWA 112030Z 1121/1221 31008KT 9999 -SN SCT012 BKN016"
    },
    {
      "icao": "EPWR",
      "alert": "OK",
      "vis_m": 9999,
      "fzfg": false,
      "metar_trigger": false,
      "taf_trigger": false,
      "metar": "METAR EPWR 112230Z 29018KT 9999 SCT029 M06/M08 Q1019",
      "taf": "TAF EPWR 112030Z 1121/1221 28018KT 9999 BKN040"
    },
    {
      "icao": "ESGG",
      "alert": "OK",
      "vis_m": 9999,
      "fzfg": false,
      "metar_trigger": false,
      "taf_trigger": false,
      "metar": "METAR ESGG 112220Z 10003KT CAVOK M11/M12 Q1020",
      "taf": ""
    },
    {
      "icao": "ESKN",
      "alert": "OK",
      "vis_m": 9999,
      "fzfg": false,
      "metar_trigger": false,
      "taf_trigger": false,
      "metar": "METAR ESKN 112220Z 33007KT 300V010 9999 OVC019 M07/M09 Q1018",
      "taf": "TAF ESKN 112030Z 1121/1221 33012KT 9999 BKN025"
    },
    {
      "icao": "ESMS",
      "alert": "OK",
      "vis_m": 9999,
      "fzfg": false,
      "metar_trigger": false,
      "taf_trigger": false,
      "metar": "METAR ESMS 112220Z 00000KT CAVOK M15/M16 Q1020",
      "taf": "TAF ESMS 112027Z 1121/1221 VRB04KT CAVOK"
    },
    {
      "icao": "ESSA",
      "alert": "OK",
      "vis_m": 9999,
      "fzfg": false,
      "metar_trigger": false,
      "taf_trigger": false,
      "metar": "METAR ESSA 112220Z 34006KT 9999 -SN BKN020 M05/M07 Q1018 NOSIG",
      "taf": "TAF ESSA 112030Z 1121/1221 32012KT 9999 -SN BKN017"
    },
    {
      "icao": "EYKA",
      "alert": "OK",
      "vis_m": 7000,
      "fzfg": false,
      "metar_trigger": false,
      "taf_trigger": false,
      "metar": "METAR EYKA 112220Z AUTO VRB02KT 7000 -SN FEW026/// SCT030/// BKN075/// M11/M12 Q1011",
      "taf": "TAF EYKA 111706Z 1118/1218 VRB04KT 5000 BR SCT010 BKN015"
    },
    {
      "icao": "EYPA",
      "alert": "OK",
      "vis_m": 9999,
      "fzfg": false,
      "metar_trigger": false,
      "taf_trigger": false,
      "metar": "METAR EYPA 112220Z 36003KT CAVOK M07/M09 Q1013",
      "taf": "TAF EYPA 111704Z 1118/1218 VRB05KT 5000 BR SCT015"
    },
    {
      "icao": "EYVI",
      "alert": "OK",
      "vis_m": 3500,
      "fzfg": false,
      "metar_trigger": false,
      "taf_trigger": false,
      "metar": "METAR EYVI 112220Z 33003KT 3500 SN FEW006 SCT016 BKN027 M13/M15 Q1008 BECMG 6000 NSW",
      "taf": "TAF EYVI 111707Z 1118/1218 VRB04KT 5000 BR SCT010 BKN015"
    },
    {
      "icao": "GCFV",
      "alert": "OK",
      "vis_m": 9999,
      "fzfg": false,
      "metar_trigger": false,
      "taf_trigger": false,
      "metar": "METAR GCFV 112230Z 03010KT 9999 SCT020 17/12 Q1024",
      "taf": "TAF GCFV 112000Z 1121/1221 03006KT 9999 FEW020 TX21/1214Z TN14/1206Z"
    },
    {
      "icao": "GCLP",
      "alert": "OK",
      "vis_m": 9999,
      "fzfg": false,
      "metar_trigger": false,
      "taf_trigger": false,
      "metar": "METAR GCLP 112230Z 36006KT 9999 SCT027 17/12 Q1024 NOSIG",
      "taf": "TAF GCLP 112000Z 1121/1221 33007KT 9999 SCT025 TX21/1214Z TN15/1206Z"
    },
    {
      "icao": "GCTS",
      "alert": "OK",
      "vis_m": 9999,
      "fzfg": false,
      "metar_trigger": false,
      "taf_trigger": false,
      "metar": "METAR GCTS 112230Z 01006KT 9999 FEW030 16/11 Q1025 NOSIG",
      "taf": "TAF GCTS 112000Z 1121/1221 03008KT 9999 FEW030 TX23/1214Z TN16/1206Z"
    },
    {
      "icao": "GMAD",
      "alert": "OK",
      "vis_m": 9999,
      "fzfg": false,
      "metar_trigger": false,
      "taf_trigger": false,
      "metar": "METAR GMAD 112230Z 05003KT CAVOK 09/08 Q1024 NOSIG",
      "taf": "TAF GMAD 111700Z 1118/1224 20008KT CAVOK"
    },
    {
      "icao": "GMMN",
      "alert": "OK",
      "vis_m": 9999,
      "fzfg": false,
      "metar_trigger": false,
      "taf_trigger": false,
      "metar": "METAR GMMN 112230Z 03004KT CAVOK 09/07 Q1025 NOSIG",
      "taf": "TAF GMMN 111700Z 1118/1224 04008KT CAVOK"
    },
    {
      "icao": "GMMX",
      "alert": "OK",
      "vis_m": 7000,
      "fzfg": false,
      "metar_trigger": false,
      "taf_trigger": false,
      "metar": "METAR GMMX 112230Z VRB02KT 7000 NSC 10/08 Q1024 NOSIG",
      "taf": "TAF GMMX 111700Z 1118/1224 06006KT CAVOK"
    },
    {
      "icao": "HEGN",
      "alert": "OK",
      "vis_m": 9999,
      "fzfg": false,
      "metar_trigger": false,
      "taf_trigger": false,
      "metar": "METAR HEGN 112200Z 30007KT CAVOK 16/09 Q1016 NOSIG",
      "taf": "TAF HEGN 111700Z 1118/1224 03008KT CAVOK"
    },
    {
      "icao": "HEMA",
      "alert": "OK",
      "vis_m": 9999,
      "fzfg": false,
      "metar_trigger": false,
      "taf_trigger": false,
      "metar": "METAR HEMA 112200Z 21002KT CAVOK 17/14 Q1015 NOSIG",
      "taf": "TAF HEMA 111700Z 1118/1224 32008G20KT CAVOK"
    },
    {
      "icao": "HESH",
      "alert": "OK",
      "vis_m": 9999,
      "fzfg": false,
      "metar_trigger": false,
      "taf_trigger": false,
      "metar": "METAR HESH 112200Z 00000KT CAVOK 17/06 Q1016 NOSIG",
      "taf": "TAF HESH 111700Z 1118/1224 01011KT CAVOK"
    },
    {
      "icao": "HESX",
      "alert": "OK",
      "vis_m": 9999,
      "fzfg": false,
      "metar_trigger": false,
      "taf_trigger": false,
      "metar": "METAR HESX 112200Z 20004KT CAVOK 12/04 Q1017 NOSIG",
      "taf": "TAF HESX 111700Z 1118/1224 26008KT CAVOK"
    },
    {
      "icao": "LATI",
      "alert": "OK",
      "vis_m": null,
      "fzfg": false,
      "metar_trigger": false,
      "taf_trigger": false,
      "metar": "",
      "taf": ""
    },
    {
      "icao": "LBPD",
      "alert": "OK",
      "vis_m": 9999,
      "fzfg": false,
      "metar_trigger": false,
      "taf_trigger": false,
      "metar": "METAR LBPD 112230Z AUTO 29016KT 9999 SCT064/// BKN072/// OVC091/// M02/M08 Q1016",
      "taf": "TAF LBPD 111700Z 1118/1218 28020KT 9999 SCT030 BKN050"
    },
    {
      "icao": "LBSF",
      "alert": "OK",
      "vis_m": 9999,
      "fzfg": false,
      "metar_trigger": false,
      "taf_trigger": false,
      "metar": "METAR LBSF 112230Z AUTO 28009KT 9999 NCD M06/M10 Q1017 NOSIG",
      "taf": "TAF LBSF 111700Z 1118/1218 28014KT 9999 BKN025 OVC045"
    },
    {
      "icao": "LBWN",
      "alert": "OK",
      "vis_m": 9999,
      "fzfg": false,
      "metar_trigger": false,
      "taf_trigger": false,
      "metar": "METAR LBWN 112230Z AUTO 29007KT 9999 -SHSN NSC M02/M05 Q1016 NOSIG",
      "taf": "TAF LBWN 111700Z 1118/1218 31010KT 9999 SCT020 OVC040"
    },
    {
      "icao": "LCLK",
      "alert": "OK",
      "vis_m": 8000,
      "fzfg": false,
      "metar_trigger": false,
      "taf_trigger": false,
      "metar": "METAR LCLK 112230Z 24011KT 8000 RA FEW025 FEW030TCU BKN040 14/13 Q1010 BECMG 5000 +RA",
      "taf": "TAF LCLK 111730Z 1118/1218 22023KT 9999 -SHRA FEW025TCU FEW030CB SCT040"
    },
    {
      "icao": "LCPH",
      "alert": "OK",
      "vis_m": 9999,
      "fzfg": false,
      "metar_trigger": false,
      "taf_trigger": false,
      "metar": "METAR LCPH 112230Z 26011KT 250V320 9999 -RA SCT030 BKN050 16/11 Q1010 NOSIG",
      "taf": "TAF LCPH 111730Z 1118/1218 26021KT 9999 -SHRA FEW025TCU FEW030CB SCT040"
    },
    {
      "icao": "LEAL",
      "alert": "OK",
      "vis_m": 9999,
      "fzfg": false,
      "metar_trigger": false,
      "taf_trigger": false,
      "metar": "METAR LEAL 112230Z 26005KT CAVOK 08/06 Q1025 NOSIG",
      "taf": "TAF LEAL 111700Z 1118/1218 28008KT CAVOK TX16/1213Z TN07/1206Z"
    },
    {
      "icao": "LEBB",
      "alert": "OK",
      "vis_m": 9999,
      "fzfg": false,
      "metar_trigger": false,
      "taf_trigger": false,
      "metar": "METAR LEBB 112230Z 19007KT 140V280 CAVOK 16/08 Q1019 NOSIG",
      "taf": "TAF LEBB 111700Z 1118/1218 18008KT 9999 SCT060 TX15/1214Z TN12/1207Z"
    },
    {
      "icao": "LEBL",
      "alert": "OK",
      "vis_m": 9999,
      "fzfg": false,
      "metar_trigger": false,
      "taf_trigger": false,
      "metar": "METAR LEBL 112230Z 32007KT CAVOK 07/04 Q1024 NOSIG",
      "taf": "TAF LEBL 111700Z 1118/1218 VRB04KT 9999 FEW020 TX15/1213Z TN05/1206Z"
    },
    {
      "icao": "LECH",
      "alert": "OK",
      "vis_m": 9999,
      "fzfg": false,
      "metar_trigger": false,
      "taf_trigger": false,
      "metar": "METAR LECH 112230Z AUTO 21005KT CAVOK 07/02 Q1024",
      "taf": ""
    },
    {
      "icao": "LEMD",
      "alert": "OK",
      "vis_m": 9999,
      "fzfg": false,
      "metar_trigger": false,
      "taf_trigger": false,
      "metar": "METAR LEMD 112230Z VRB02KT CAVOK 02/02 Q1025 NOSIG",
      "taf": "TAF LEMD 111700Z 1118/1224 VRB03KT CAVOK TX08/1215Z TN02/1200Z"
    },
    {
      "icao": "LEMG",
      "alert": "OK",
      "vis_m": 9999,
      "fzfg": false,
      "metar_trigger": false,
      "taf_trigger": false,
      "metar": "METAR LEMG 112230Z 29006KT CAVOK 08/06 Q1026 NOSIG",
      "taf": "TAF LEMG 111700Z 1118/1218 27006KT CAVOK TX17/1214Z TN07/1207Z"
    },
    {
      "icao": "LEVC",
      "alert": "OK",
      "vis_m": 9999,
      "fzfg": false,
      "metar_trigger": false,
      "taf_trigger": false,
      "metar": "METAR LEVC 112230Z 25003KT 200V300 CAVOK 07/04 Q1024 NOSIG",
      "taf": "TAF LEVC 111700Z 1118/1218 26008KT CAVOK TX19/1214Z TN05/1206Z"
    },
    {
      "icao": "LEXJ",
      "alert": "OK",
      "vis_m": 9999,
      "fzfg": false,
      "metar_trigger": false,
      "taf_trigger": false,
      "metar": "METAR LEXJ 112230Z AUTO 22011KT 170V260 9999 3600E NSC 16/07 Q1017",
      "taf": "TAF LEXJ 112000Z 1121/1221 22009KT 9999 SCT060 TX15/1213Z TN12/1208Z"
    },
    {
      "icao": "LEZG",
      "alert": "OK",
      "vis_m": 9999,
      "fzfg": false,
      "metar_trigger": false,
      "taf_trigger": false,
      "metar": "METAR LEZG 112230Z 10003KT 080V150 CAVOK 07/04 Q1023 NOSIG",
      "taf": "TAF LEZG 111700Z 1118/1218 24009KT 9999 FEW050 TX14/1215Z TN04/1206Z"
    },
    {
      "icao": "LEZL",
      "alert": "OK",
      "vis_m": 9999,
      "fzfg": false,
      "metar_trigger": false,
      "taf_trigger": false,
      "metar": "METAR LEZL 112230Z 34003KT 300V050 CAVOK 08/08 Q1026 NOSIG",
      "taf": "TAF LEZL 112000Z 1121/1221 06004KT CAVOK TX16/1215Z TN05/1207Z"
    },
    {
      "icao": "LFBD",
      "alert": "OK",
      "vis_m": 9999,
      "fzfg": false,
      "metar_trigger": false,
      "taf_trigger": false,
      "metar": "METAR LFBD 112230Z AUTO 15005KT CAVOK 06/05 Q1019",
      "taf": ""
    },
    {
      "icao": "LFLL",
      "alert": "OK",
      "vis_m": 9999,
      "fzfg": false,
      "metar_trigger": false,
      "taf_trigger": false,
      "metar": "METAR LFLL 112230Z 14008KT CAVOK 01/M01 Q1023 NOSIG",
      "taf": ""
    },
    {
      "icao": "LFLS",
      "alert": "OK",
      "vis_m": 9999,
      "fzfg": false,
      "metar_trigger": false,
      "taf_trigger": false,
      "metar": "METAR LFLS 112230Z AUTO 10005KT CAVOK M01/M02 Q1022",
      "taf": "TAF LFLS 111400Z 1115/1215 09005KT CAVOK"
    },
    {
      "icao": "LFMN",
      "alert": "OK",
      "vis_m": 9999,
      "fzfg": false,
      "metar_trigger": false,
      "taf_trigger": false,
      "metar": "METAR LFMN 112230Z 32012KT CAVOK 06/M04 Q1023 NOSIG",
      "taf": "TAF LFMN 112000Z 1121/1303 33012KT CAVOK"
    },
    {
      "icao": "LFOB",
      "alert": "OK",
      "vis_m": 9999,
      "fzfg": false,
      "metar_trigger": false,
      "taf_trigger": false,
      "metar": "METAR LFOB 112230Z AUTO 16009KT 9999 BKN023 BKN130 OVC150 04/01 Q1013 TEMPO 18015G25KT BECMG 4000 RA OVC004",
      "taf": ""
    },
    {
      "icao": "LFPO",
      "alert": "OK",
      "vis_m": 9999,
      "fzfg": false,
      "metar_trigger": false,
      "taf_trigger": false,
      "metar": "METAR LFPO 112230Z AUTO 18010KT 9999 -RA BKN027/// BKN039/// BKN048/// ///CB 04/M00 Q1015",
      "taf": ""
    },
    {
      "icao": "LFSB",
      "alert": "OK",
      "vis_m": 9999,
      "fzfg": false,
      "metar_trigger": false,
      "taf_trigger": false,
      "metar": "METAR LFSB 112230Z AUTO 13008KT CAVOK M00/M02 Q1022 NOSIG",
      "taf": "TAF LFSB 111700Z 1118/1218 VRB03KT 9999 OVC025"
    },
    {
      "icao": "LGAV",
      "alert": "OK",
      "vis_m": 9999,
      "fzfg": false,
      "metar_trigger": false,
      "taf_trigger": false,
      "metar": "METAR LGAV 112220Z VRB03KT 9999 FEW020 07/01 Q1011 NOSIG",
      "taf": "TAF LGAV 111700Z 1118/1218 VRB05KT 9999 FEW018 SCT025"
    },
    {
      "icao": "LGTS",
      "alert": "OK",
      "vis_m": 9999,
      "fzfg": false,
      "metar_trigger": false,
      "taf_trigger": false,
      "metar": "METAR LGTS 112220Z 34020KT 9999 FEW015 SCT025 01/M07 Q1016 NOSIG",
      "taf": "TAF LGTS 111700Z 1118/1218 34015G30KT 9999 FEW025"
    },
    {
      "icao": "LHBP",
      "alert": "OK",
      "vis_m": 9999,
      "fzfg": false,
      "metar_trigger": false,
      "taf_trigger": false,
      "metar": "METAR LHBP 112230Z 31020KT 9999 DRSN NSC M05/M10 Q1019 NOSIG",
      "taf": "TAF LHBP 111715Z 1118/1218 30020G30KT 9999 DRSN NSC"
    },
    {
      "icao": "LHDC",
      "alert": "OK",
      "vis_m": null,
      "fzfg": false,
      "metar_trigger": false,
      "taf_trigger": false,
      "metar": "",
      "taf": "TAF LHDC 111715Z 1118/1203 20008KT CAVOK"
    },
    {
      "icao": "LIBD",
      "alert": "OK",
      "vis_m": 9999,
      "fzfg": false,
      "metar_trigger": false,
      "taf_trigger": false,
      "metar": "METAR LIBD 112220Z 33013G27KT 290V360 9999 SCT045 05/M05 Q1021",
      "taf": "TAF LIBD 111700Z 1118/1218 34015KT 9999 FEW040"
    },
    {
      "icao": "LIBG",
      "alert": "OK",
      "vis_m": null,
      "fzfg": false,
      "metar_trigger": false,
      "taf_trigger": false,
      "metar": "",
      "taf": "TAF LIBG 111700Z 1118/1203 33015KT 9999 FEW040"
    },
    {
      "icao": "LIBP",
      "alert": "OK",
      "vis_m": 9999,
      "fzfg": false,
      "metar_trigger": false,
      "taf_trigger": false,
      "metar": "METAR LIBP 112220Z AUTO 20003KT 9999 FEW054/// 00/00 Q1025",
      "taf": "TAF LIBP 111700Z 1118/1218 22006KT 9999 SCT040"
    },
    {
      "icao": "LIBR",
      "alert": "OK",
      "vis_m": 9999,
      "fzfg": false,
      "metar_trigger": false,
      "taf_trigger": false,
      "metar": "METAR LIBR 112220Z 35023G36KT 9999 SCT045 06/M05 Q1018",
      "taf": "TAF LIBR 111700Z 1118/1218 35020G35KT 9999 SCT040"
    },
    {
      "icao": "LICA",
      "alert": "OK",
      "vis_m": 9999,
      "fzfg": false,
      "metar_trigger": false,
      "taf_trigger": false,
      "metar": "METAR LICA 112220Z AUTO 03007KT 360V070 9999 NCD 07/M04 Q1020",
      "taf": "TAF LICA 111700Z 1118/1218 VRB05KT CAVOK"
    },
    {
      "icao": "LICC",
      "alert": "OK",
      "vis_m": 9999,
      "fzfg": false,
      "metar_trigger": false,
      "taf_trigger": false,
      "metar": "METAR LICC 112220Z 26010KT 9999 SCT090 07/02 Q1020",
      "taf": "TAF LICC 111700Z 1118/1218 VRB05KT 9999 FEW040"
    },
    {
      "icao": "LICJ",
      "alert": "OK",
      "vis_m": 9999,
      "fzfg": false,
      "metar_trigger": false,
      "taf_trigger": false,
      "metar": "METAR LICJ 112220Z 16006KT 9999 SCT050 09/04 Q1021",
      "taf": "TAF LICJ 111700Z 1118/1218 34010KT 9999 FEW030"
    },
    {
      "icao": "LIMC",
      "alert": "OK",
      "vis_m": 9999,
      "fzfg": false,
      "metar_trigger": false,
      "taf_trigger": false,
      "metar": "METAR LIMC 112220Z 03003KT CAVOK M01/M08 Q1022 NOSIG",
      "taf": "TAF LIMC 111700Z 1118/1224 VRB05KT CAVOK"
    },
    {
      "icao": "LIME",
      "alert": "OK",
      "vis_m": 9999,
      "fzfg": false,
      "metar_trigger": false,
      "taf_trigger": false,
      "metar": "METAR LIME 112220Z AUTO 02005KT 9999 NCD M00/M09 Q1022",
      "taf": "TAF LIME 111700Z 1118/1218 VRB05KT CAVOK"
    },
    {
      "icao": "LIMF",
      "alert": "OK",
      "vis_m": 9999,
      "fzfg": false,
      "metar_trigger": false,
      "taf_trigger": false,
      "metar": "METAR LIMF 112220Z VRB02KT CAVOK 02/M08 Q1022",
      "taf": "TAF LIMF 111700Z 1118/1218 VRB05KT CAVOK"
    },
    {
      "icao": "LIMJ",
      "alert": "OK",
      "vis_m": 9999,
      "fzfg": false,
      "metar_trigger": false,
      "taf_trigger": false,
      "metar": "METAR LIMJ 112220Z 03004KT CAVOK 08/M11 Q1022",
      "taf": "TAF LIMJ 111700Z 1118/1218 VRB05KT CAVOK"
    },
    {
      "icao": "LIPE",
      "alert": "OK",
      "vis_m": 9999,
      "fzfg": false,
      "metar_trigger": false,
      "taf_trigger": false,
      "metar": "METAR LIPE 112220Z 20008KT CAVOK 01/M06 Q1023",
      "taf": "TAF LIPE 111700Z 1118/1218 VRB05KT CAVOK"
    },
    {
      "icao": "LIPH",
      "alert": "OK",
      "vis_m": 9999,
      "fzfg": false,
      "metar_trigger": false,
      "taf_trigger": false,
      "metar": "METAR LIPH 112220Z AUTO 01003KT 9999 NCD M00/M03 Q1023",
      "taf": "TAF LIPH 111700Z 1118/1218 VRB05KT 9999 FEW030"
    },
    {
      "icao": "LIPQ",
      "alert": "OK",
      "vis_m": 9999,
      "fzfg": false,
      "metar_trigger": false,
      "taf_trigger": false,
      "metar": "METAR LIPQ 112220Z AUTO VRB02KT 9999 FEW034/// M02/M05 Q1024",
      "taf": "TAF LIPQ 111700Z 1118/1218 VRB05KT 9999 SCT040"
    },
    {
      "icao": "LIPR",
      "alert": "OK",
      "vis_m": 9999,
      "fzfg": false,
      "metar_trigger": false,
      "taf_trigger": false,
      "metar": "METAR LIPR 112220Z AUTO 21003KT 9999 NCD M01/M02 Q1023",
      "taf": "TAF LIPR 111700Z 1118/1218 21006KT CAVOK"
    },
    {
      "icao": "LIPX",
      "alert": "OK",
      "vis_m": 9999,
      "fzfg": false,
      "metar_trigger": false,
      "taf_trigger": false,
      "metar": "METAR LIPX 112220Z VRB02KT CAVOK M02/M05 Q1023",
      "taf": "TAF LIPX 111700Z 1118/1218 VRB05KT CAVOK"
    },
    {
      "icao": "LIPY",
      "alert": "OK",
      "vis_m": 9999,
      "fzfg": false,
      "metar_trigger": false,
      "taf_trigger": false,
      "metar": "METAR LIPY 112220Z AUTO 18002KT 9999 NCD 00/M02 Q1024",
      "taf": "TAF LIPY 111700Z 1118/1218 21006KT 9999 FEW040"
    },
    {
      "icao": "LIPZ",
      "alert": "OK",
      "vis_m": 9999,
      "fzfg": false,
      "metar_trigger": false,
      "taf_trigger": false,
      "metar": "METAR LIPZ 112220Z 03005KT CAVOK 00/M03 Q1023 NOSIG",
      "taf": "TAF LIPZ 111700Z 1118/1224 VRB05KT 9999 FEW030"
    },
    {
      "icao": "LIRF",
      "alert": "OK",
      "vis_m": 9999,
      "fzfg": false,
      "metar_trigger": false,
      "taf_trigger": false,
      "metar": "METAR LIRF 112220Z 03007KT CAVOK 03/M02 Q1023 NOSIG",
      "taf": "TAF LIRF 111700Z 1118/1224 02010KT CAVOK"
    },
    {
      "icao": "LIRN",
      "alert": "OK",
      "vis_m": 9999,
      "fzfg": false,
      "metar_trigger": false,
      "taf_trigger": false,
      "metar": "METAR LIRN 112220Z 07006KT 340V110 CAVOK 05/M03 Q1022 NOSIG",
      "taf": "TAF LIRN 111700Z 1118/1218 05010KT CAVOK"
    },
    {
      "icao": "LIRP",
      "alert": "OK",
      "vis_m": 9999,
      "fzfg": false,
      "metar_trigger": false,
      "taf_trigger": false,
      "metar": "METAR LIRP 112215Z 12002KT CAVOK 00/M01 Q1023 NOSIG",
      "taf": "TAF LIRP 111700Z 1118/1218 12005KT CAVOK"
    },
    {
      "icao": "LIRZ",
      "alert": "OK",
      "vis_m": 9999,
      "fzfg": false,
      "metar_trigger": false,
      "taf_trigger": false,
      "metar": "METAR LIRZ 112220Z AUTO 03008KT 9999 NCD M01/M02 Q1023",
      "taf": "TAF LIRZ 111700Z 1118/1218 VRB05KT 9999 FEW050"
    },
    {
      "icao": "LJLJ",
      "alert": "OK",
      "vis_m": 9999,
      "fzfg": false,
      "metar_trigger": false,
      "taf_trigger": false,
      "metar": "METAR LJLJ 112230Z VRB02KT 9999 MIFG NSC M13/M15 Q1023 NOSIG",
      "taf": "TAF LJLJ 111700Z 1118/1218 29003KT CAVOK"
    },
    {
      "icao": "LKMT",
      "alert": "OK",
      "vis_m": 9999,
      "fzfg": false,
      "metar_trigger": false,
      "taf_trigger": false,
      "metar": "METAR LKMT 112230Z 22010KT 9999 OVC034 M06/M09 Q1019 NOSIG",
      "taf": "TAF LKMT 111700Z 1118/1218 22008KT 9999 BKN025"
    },
    {
      "icao": "LKPR",
      "alert": "OK",
      "vis_m": 9999,
      "fzfg": false,
      "metar_trigger": false,
      "taf_trigger": false,
      "metar": "METAR LKPR 112230Z 20010KT CAVOK M11/M13 Q1022 NOSIG",
      "taf": "TAF LKPR 112000Z 1121/1303 25010KT CAVOK"
    },
    {
      "icao": "LLBG",
      "alert": "OK",
      "vis_m": 9999,
      "fzfg": false,
      "metar_trigger": false,
      "taf_trigger": false,
      "metar": "METAR LLBG 112220Z 13005KT CAVOK 12/09 Q1016 NOSIG",
      "taf": "TAF LLBG 111703Z 1118/1218 14005KT CAVOK"
    },
    {
      "icao": "LMML",
      "alert": "OK",
      "vis_m": 9999,
      "fzfg": false,
      "metar_trigger": false,
      "taf_trigger": false,
      "metar": "METAR LMML 112245Z 30009KT 9999 FEW025 10/04 Q1021 NOSIG",
      "taf": ""
    },
    {
      "icao": "LOWW",
      "alert": "OK",
      "vis_m": 9999,
      "fzfg": false,
      "metar_trigger": false,
      "taf_trigger": false,
      "metar": "METAR LOWW 112220Z 30013KT CAVOK M04/M12 Q1022 NOSIG",
      "taf": "TAF LOWW 112015Z 1121/1303 30010KT CAVOK TXM03/1303Z TNM08/1207Z"
    },
    {
      "icao": "LPFR",
      "alert": "OK",
      "vis_m": 9999,
      "fzfg": false,
      "metar_trigger": false,
      "taf_trigger": false,
      "metar": "METAR LPFR 112230Z VRB03KT CAVOK 10/09 Q1026",
      "taf": "TAF LPFR 111700Z 1118/1218 VRB02KT 9999 FEW025"
    },
    {
      "icao": "LPMA",
      "alert": "OK",
      "vis_m": 9999,
      "fzfg": false,
      "metar_trigger": false,
      "taf_trigger": false,
      "metar": "METAR LPMA 112230Z 03004KT 330V080 9999 BKN015 15/13 Q1025",
      "taf": "TAF LPMA 111700Z 1118/1218 VRB05KT 9999 SCT015"
    },
    {
      "icao": "LPPR",
      "alert": "OK",
      "vis_m": 6000,
      "fzfg": false,
      "metar_trigger": false,
      "taf_trigger": false,
      "metar": "METAR LPPR 112230Z 18015KT 6000 -DZ OVC005 13/13 Q1022",
      "taf": "TAF LPPR 111700Z 1118/1218 18013KT 9999 SCT006 BKN012"
    },
    {
      "icao": "LPPS",
      "alert": "OK",
      "vis_m": 9999,
      "fzfg": false,
      "metar_trigger": false,
      "taf_trigger": false,
      "metar": "METAR LPPS 112230Z VRB02KT 9999 SCT014 14/12 Q1025",
      "taf": "TAF LPPS 111700Z 1118/1224 17005KT 9999 SCT015 SCT030"
    },
    {
      "icao": "LPPT",
      "alert": "OK",
      "vis_m": 9999,
      "fzfg": false,
      "metar_trigger": false,
      "taf_trigger": false,
      "metar": "METAR LPPT 112230Z 20010KT 9999 FEW008 SCT014 BKN020 13/12 Q1025",
      "taf": "TAF LPPT 111700Z 1118/1224 21008KT 9999 SCT008 BKN015"
    },
    {
      "icao": "LQBK",
      "alert": "OK",
      "vis_m": 9999,
      "fzfg": false,
      "metar_trigger": false,
      "taf_trigger": false,
      "metar": "METAR LQBK 112230Z 21003KT 170V320 CAVOK M12/M14 Q1024 NOSIG",
      "taf": "TAF LQBK 111700Z 1118/1218 16005KT CAVOK TX00/1212Z TNM12/1206Z"
    },
    {
      "icao": "LQSA",
      "alert": "OK",
      "vis_m": 9999,
      "fzfg": false,
      "metar_trigger": false,
      "taf_trigger": false,
      "metar": "METAR LQSA 112230Z VRB02KT 9999 SCT065 M08/M09 Q1021",
      "taf": "TAF LQSA 111700Z 1118/1218 29005KT 9999 SCT045 TXM03/1214Z TNM13/1206Z"
    },
    {
      "icao": "LQTZ",
      "alert": "OK",
      "vis_m": 9999,
      "fzfg": false,
      "metar_trigger": false,
      "taf_trigger": false,
      "metar": "METAR LQTZ 112230Z 29004KT CAVOK M05/M07 Q1023",
      "taf": "TAF LQTZ 111700Z 1118/1218 30005KT 9999 SCT045 TXM01/1213Z TNM13/1206Z"
    },
    {
      "icao": "LRBC",
      "alert": "OK",
      "vis_m": 9999,
      "fzfg": false,
      "metar_trigger": false,
      "taf_trigger": false,
      "metar": "METAR LRBC 112230Z 26016KT CAVOK M03/M12 Q1013",
      "taf": "TAF LRBC 112000Z 1121/1206 28006KT CAVOK"
    },
    {
      "icao": "LRBS",
      "alert": "OK",
      "vis_m": 5000,
      "fzfg": false,
      "metar_trigger": false,
      "taf_trigger": false,
      "metar": "METAR LRBS 112230Z 27006KT 250V310 5000 BR NSC M06/M08 Q1017 NOSIG",
      "taf": "TAF LRBS 111700Z 1118/1218 VRB04KT 5000 BR SCT025"
    },
    {
      "icao": "LRBV",
      "alert": "OK",
      "vis_m": 9999,
      "fzfg": false,
      "metar_trigger": false,
      "taf_trigger": false,
      "metar": "METAR LRBV 112230Z AUTO 31003KT 270V340 9999 OVC055/// M08/M11 Q1014",
      "taf": "TAF LRBV 112000Z 1121/1206 28006KT 9999 BKN050"
    },
    {
      "icao": "LRCL",
      "alert": "OK",
      "vis_m": 9999,
      "fzfg": false,
      "metar_trigger": false,
      "taf_trigger": false,
      "metar": "METAR LRCL 112230Z 00000KT 9999 FEW057 M09/M10 Q1016",
      "taf": "TAF LRCL 112000Z 1121/1206 VRB04KT 9999 BKN055"
    },
    {
      "icao": "LRCV",
      "alert": "OK",
      "vis_m": 9999,
      "fzfg": false,
      "metar_trigger": false,
      "taf_trigger": false,
      "metar": "METAR LRCV 112230Z 30007KT CAVOK M07/M09 Q1017",
      "taf": "TAF LRCV 112000Z 1121/1206 28010KT CAVOK"
    },
    {
      "icao": "LRIA",
      "alert": "OK",
      "vis_m": 9999,
      "fzfg": false,
      "metar_trigger": false,
      "taf_trigger": false,
      "metar": "METAR LRIA 112230Z 28005KT CAVOK M05/M11 Q1013",
      "taf": "TAF LRIA 112000Z 1121/1206 VRB04KT CAVOK"
    },
    {
      "icao": "LROP",
      "alert": "OK",
      "vis_m": 4000,
      "fzfg": false,
      "metar_trigger": false,
      "taf_trigger": false,
      "metar": "METAR LROP 112230Z 25007KT 4000 BR NSC M08/M09 Q1017 NOSIG",
      "taf": "TAF LROP 111700Z 1118/1218 VRB04KT 3000 BR SCT025"
    },
    {
      "icao": "LRSB",
      "alert": "OK",
      "vis_m": 9999,
      "fzfg": false,
      "metar_trigger": false,
      "taf_trigger": false,
      "metar": "METAR LRSB 112230Z VRB02KT 9999 SCT063 M08/M10 Q1015",
      "taf": "TAF LRSB 111700Z 1118/1218 31006KT 9999 BKN045"
    },
    {
      "icao": "LRSM",
      "alert": "OK",
      "vis_m": 9999,
      "fzfg": false,
      "metar_trigger": false,
      "taf_trigger": false,
      "metar": "METAR LRSM 112230Z AUTO 23005KT 200V260 9999 -SHSN BKN022/// BKN026/// OVC037/// M05/M08 Q1017",
      "taf": "TAF LRSM 111400Z 1115/1124 27014KT 9999 BKN040"
    },
    {
      "icao": "LRSV",
      "alert": "OK",
      "vis_m": 9999,
      "fzfg": false,
      "metar_trigger": false,
      "taf_trigger": false,
      "metar": "METAR LRSV 112230Z 26010KT CAVOK M05/M12 Q1010",
      "taf": "TAF LRSV 112000Z 1121/1206 27008KT CAVOK"
    },
    {
      "icao": "LRTM",
      "alert": "OK",
      "vis_m": 9999,
      "fzfg": false,
      "metar_trigger": false,
      "taf_trigger": false,
      "metar": "METAR LRTM 112230Z AUTO 20004KT 9999 FEW031/// BKN070/// M07/M11 Q1016 RESN",
      "taf": "TAF LRTM 111400Z 1115/1124 VRB04KT 9999 OVC045"
    },
    {
      "icao": "LRTR",
      "alert": "OK",
      "vis_m": 9999,
      "fzfg": false,
      "metar_trigger": false,
      "taf_trigger": false,
      "metar": "METAR LRTR 112230Z 14002KT 9999 BKN033 M09/M11 Q1020",
      "taf": "TAF LRTR 111700Z 1118/1218 24006KT 9999 BKN030"
    },
    {
      "icao": "LTAC",
      "alert": "OK",
      "vis_m": 3600,
      "fzfg": false,
      "metar_trigger": false,
      "taf_trigger": false,
      "metar": "METAR LTAC 112220Z 06002KT 3600 -RASN BR SCT010 BKN025 BKN080 01/00 Q1005 NOSIG RMK RWY21C 06002KT RWY03L 05002KT RWY21R VRB01KT RWY03R VRB02KT RWY21L VRB02KT",
      "taf": "TAF LTAC 111640Z 1118/1218 VRB02KT 6000 SCT035 BKN090"
    },
    {
      "icao": "LTFM",
      "alert": "OK",
      "vis_m": 8000,
      "fzfg": false,
      "metar_trigger": false,
      "taf_trigger": false,
      "metar": "METAR LTFM 112220Z 02020KT 8000 -SHSNRA BKN012 BKN020 03/01 Q1013 NOSIG RMK RWY17L 01019KT RWY34L 01022KT RWY16R 36021KT RWY36 01021KT RWY18 02020KT",
      "taf": "TAF LTFM 111640Z 1118/1224 02020G30KT 9999 -SHRA BKN012 BKN020"
    },
    {
      "icao": "LUKK",
      "alert": "OK",
      "vis_m": 9999,
      "fzfg": false,
      "metar_trigger": false,
      "taf_trigger": false,
      "metar": "METAR LUKK 112230Z 26003KT 190V310 CAVOK M08/M12 Q1012 NOSIG",
      "taf": "TAF LUKK 111716Z 1118/1218 26008KT CAVOK"
    },
    {
      "icao": "LWOH",
      "alert": "OK",
      "vis_m": null,
      "fzfg": false,
      "metar_trigger": false,
      "taf_trigger": false,
      "metar": "",
      "taf": "TAF LWOH 112010Z 1121/1221 34012KT 9999 FEW040"
    },
    {
      "icao": "LWSK",
      "alert": "OK",
      "vis_m": 9999,
      "fzfg": false,
      "metar_trigger": false,
      "taf_trigger": false,
      "metar": "METAR LWSK 112220Z 29004KT 240V350 9999 BKN048 M03/M09 Q1021 NOSIG",
      "taf": "TAF LWSK 112010Z 1121/1221 01010KT 9999 SCT050"
    },
    {
      "icao": "LYBE",
      "alert": "OK",
      "vis_m": 9999,
      "fzfg": false,
      "metar_trigger": false,
      "taf_trigger": false,
      "metar": "METAR LYBE 112230Z 27009KT CAVOK M04/M07 Q1022 NOSIG",
      "taf": "TAF LYBE 111700Z 1118/1218 27010KT 9999 SCT035 TXM01/1212Z TNM10/1206Z"
    },
    {
      "icao": "LYNI",
      "alert": "OK",
      "vis_m": 9999,
      "fzfg": false,
      "metar_trigger": false,
      "taf_trigger": false,
      "metar": "METAR LYNI 112230Z 00000KT 9999 -SN SCT015 BKN030 M04/M05 Q1021 NOSIG",
      "taf": "TAF LYNI 111700Z 1118/1218 30005KT 9999 SCT015 BKN025 TXM02/1212Z TNM07/1206Z"
    },
    {
      "icao": "LYPG",
      "alert": "OK",
      "vis_m": 9999,
      "fzfg": false,
      "metar_trigger": false,
      "taf_trigger": false,
      "metar": "METAR LYPG 112230Z 35018KT CAVOK 01/M13 Q1020 NOSIG",
      "taf": "TAF LYPG 111700Z 1118/1218 36015G25KT CAVOK TX05/1212Z TNM02/1205Z"
    },
    {
      "icao": "LZIB",
      "alert": "OK",
      "vis_m": 9999,
      "fzfg": false,
      "metar_trigger": false,
      "taf_trigger": false,
      "metar": "METAR LZIB 112230Z 29009KT CAVOK M04/M13 Q1022 NOSIG",
      "taf": "TAF LZIB 111715Z 1118/1218 29014KT CAVOK"
    },
    {
      "icao": "LZKZ",
      "alert": "OK",
      "vis_m": 7000,
      "fzfg": false,
      "metar_trigger": false,
      "taf_trigger": false,
      "metar": "METAR LZKZ 112230Z 29003KT 7000 NSC M07/M09 Q1015 NOSIG",
      "taf": "TAF LZKZ 111715Z 1118/1218 VRB02KT 9999 FEW045"
    },
    {
      "icao": "LZTT",
      "alert": "OK",
      "vis_m": 8000,
      "fzfg": false,
      "metar_trigger": false,
      "taf_trigger": false,
      "metar": "METAR LZTT 112230Z 27019KT 8000 -SN DRSN OVC033 M07/M11 Q1011",
      "taf": "TAF LZTT 111715Z 1118/1218 25015KT 9999 -SN DRSN FEW013 OVC040"
    },
    {
      "icao": "OEJN",
      "alert": "OK",
      "vis_m": 9999,
      "fzfg": false,
      "metar_trigger": false,
      "taf_trigger": false,
      "metar": "METAR OEJN 112200Z 00000KT CAVOK 24/17 Q1015 NOSIG",
      "taf": "TAF OEJN 111700Z 1118/1224 36005KT CAVOK"
    },
    {
      "icao": "OEMA",
      "alert": "OK",
      "vis_m": 9999,
      "fzfg": false,
      "metar_trigger": false,
      "taf_trigger": false,
      "metar": "METAR OEMA 112200Z 35005KT CAVOK 17/00 Q1019 NOSIG",
      "taf": "TAF OEMA 111700Z 1118/1224 09008KT CAVOK"
    },
    {
      "icao": "OJAI",
      "alert": "OK",
      "vis_m": 5000,
      "fzfg": false,
      "metar_trigger": false,
      "taf_trigger": false,
      "metar": "METAR OJAI 112200Z 29003KT 5000 HZ NSC 07/04 Q1017 NOSIG",
      "taf": "TAF OJAI 111700Z 1118/1224 24014KT 5000 HZ NSC"
    },
    {
      "icao": "OMAA",
      "alert": "OK",
      "vis_m": 8000,
      "fzfg": false,
      "metar_trigger": false,
      "taf_trigger": false,
      "metar": "METAR OMAA 112200Z 07004KT 310V100 8000 NSC 17/13 Q1021 NOSIG",
      "taf": "TAF OMAA 111700Z 1118/1300 32005KT 8000 NSC"
    },
    {
      "icao": "OMDB",
      "alert": "OK",
      "vis_m": 9999,
      "fzfg": false,
      "metar_trigger": false,
      "taf_trigger": false,
      "metar": "METAR OMDB 112230Z VRB03KT CAVOK 20/13 Q1021 NOSIG",
      "taf": "TAF OMDB 111700Z 1118/1300 14005KT 8000 NSC"
    },
    {
      "icao": "UAAA",
      "alert": "OK",
      "vis_m": 4700,
      "fzfg": false,
      "metar_trigger": false,
      "taf_trigger": false,
      "metar": "METAR UAAA 112230Z 14002MPS 4700 BR FU FEW100 SCT200 M00/M05 Q1021 NOSIG",
      "taf": "TAF UAAA 111707Z 1118/1218 22003MPS 1400 BR FU SCT030 BKN100 TX07/1209Z TNM03/1201Z"
    },
    {
      "icao": "UBBB",
      "alert": "OK",
      "vis_m": 9999,
      "fzfg": false,
      "metar_trigger": false,
      "taf_trigger": false,
      "metar": "METAR UBBB 112230Z 18020G30KT CAVOK 10/01 Q1010 NOSIG",
      "taf": "TAF UBBB 111704Z 1118/1218 19024G34KT CAVOK TX14/1209Z TN07/1200Z"
    },
    {
      "icao": "UDSG",
      "alert": "OK",
      "vis_m": 9999,
      "fzfg": false,
      "metar_trigger": false,
      "taf_trigger": false,
      "metar": "METAR UDSG 112230Z 08001KT 9999 BKN049 M04/M05 Q1018 NOSIG",
      "taf": "TAF UDSG 111658Z 1118/1218 VRB04KT 9999 BKN040"
    },
    {
      "icao": "UDYZ",
      "alert": "OK",
      "vis_m": 1000,
      "fzfg": false,
      "metar_trigger": false,
      "taf_trigger": false,
      "metar": "METAR UDYZ 112230Z 19002KT 1000 0900N R08/P2000D BCFG FEW046 M02/M04 Q1019 NOSIG",
      "taf": "TAF UDYZ 111700Z 1118/1218 VRB06KT 2000 BR SCT040"
    },
    {
      "icao": "UGKO",
      "alert": "OK",
      "vis_m": 9999,
      "fzfg": false,
      "metar_trigger": false,
      "taf_trigger": false,
      "metar": "METAR UGKO 112230Z 08019KT CAVOK 13/M02 Q1007 NOSIG",
      "taf": "TAF UGKO 111700Z 1118/1218 08010KT CAVOK TX14/1212Z TN09/1202Z"
    }
  ]
}