{
  "ts_utc": "2026-05-04T04:51:12Z",
  "threshold_m": 150,
  "source": "stations_override.txt (ICAO list) + aviationweather.gov (METAR/TAF raw)",
  "station_count": 159,
  "stations": [
    {
      "icao": "BIKF",
      "alert": "OK",
      "vis_m": 9999,
      "fzfg": false,
      "metar_trigger": false,
      "taf_trigger": false,
      "metar": "METAR BIKF 040430Z 02007KT 9999 FEW045 M01/M07 Q1016",
      "taf": "TAF BIKF 040404Z 0406/0506 01010KT 9999 FEW030 TX05/0414Z TNM00/0406Z"
    },
    {
      "icao": "BKPR",
      "alert": "OK",
      "vis_m": 9999,
      "fzfg": false,
      "metar_trigger": false,
      "taf_trigger": false,
      "metar": "METAR BKPR 040430Z VRB01KT CAVOK 01/M01 Q1021 NOSIG",
      "taf": "TAF BKPR 032330Z 0400/0424 VRB03KT CAVOK"
    },
    {
      "icao": "EBCI",
      "alert": "OK",
      "vis_m": 9999,
      "fzfg": false,
      "metar_trigger": false,
      "taf_trigger": false,
      "metar": "METAR EBCI 040420Z 28003KT 240V320 9999 BKN008 12/11 Q1012 TEMPO BKN010",
      "taf": "TAF EBCI 032311Z 0400/0506 21004KT 9999 SCT018"
    },
    {
      "icao": "EDDB",
      "alert": "OK",
      "vis_m": 9999,
      "fzfg": false,
      "metar_trigger": false,
      "taf_trigger": false,
      "metar": "METAR EDDB 040420Z AUTO 22008KT 9999 -SHRA FEW///TCU 16/10 Q1011 NOSIG",
      "taf": "TAF EDDB 032300Z 0400/0424 24006KT CAVOK"
    },
    {
      "icao": "EDDH",
      "alert": "OK",
      "vis_m": 9999,
      "fzfg": false,
      "metar_trigger": false,
      "taf_trigger": false,
      "metar": "METAR EDDH 040420Z AUTO 29011KT 9999 BKN008 BKN014 OVC023 12/11 Q1011 TEMPO BKN012",
      "taf": ""
    },
    {
      "icao": "EDDK",
      "alert": "OK",
      "vis_m": 9999,
      "fzfg": false,
      "metar_trigger": false,
      "taf_trigger": false,
      "metar": "METAR EDDK 040420Z AUTO VRB02KT 9999 SCT040 BKN049 12/09 Q1012 NOSIG",
      "taf": "TAF EDDK 032300Z 0400/0506 15004KT 9999 SCT030"
    },
    {
      "icao": "EDDN",
      "alert": "OK",
      "vis_m": 9999,
      "fzfg": false,
      "metar_trigger": false,
      "taf_trigger": false,
      "metar": "METAR EDDN 040420Z AUTO 12003KT CAVOK 10/05 Q1015 NOSIG",
      "taf": "TAF EDDN 032300Z 0400/0424 VRB03KT CAVOK"
    },
    {
      "icao": "EDDS",
      "alert": "OK",
      "vis_m": 9999,
      "fzfg": false,
      "metar_trigger": false,
      "taf_trigger": false,
      "metar": "METAR EDDS 040420Z COR AUTO 31003KT CAVOK 11/07 Q1014 NOSIG",
      "taf": "TAF EDDS 032300Z 0400/0424 VRB03KT CAVOK"
    },
    {
      "icao": "EDFH",
      "alert": "OK",
      "vis_m": 9999,
      "fzfg": false,
      "metar_trigger": false,
      "taf_trigger": false,
      "metar": "METAR EDFH 040420Z 15008KT CAVOK 08/05 Q1013",
      "taf": "TAF EDFH 032300Z 0400/0424 17005KT CAVOK"
    },
    {
      "icao": "EDJA",
      "alert": "OK",
      "vis_m": 9999,
      "fzfg": false,
      "metar_trigger": false,
      "taf_trigger": false,
      "metar": "METAR EDJA 040420Z 14004KT CAVOK 08/05 Q1015",
      "taf": "TAF EDJA 040200Z 0403/0412 VRB03KT CAVOK"
    },
    {
      "icao": "EDLW",
      "alert": "OK",
      "vis_m": 9999,
      "fzfg": false,
      "metar_trigger": false,
      "taf_trigger": false,
      "metar": "METAR EDLW 040420Z 16006KT 9999 FEW021 OVC026 13/10 Q1012",
      "taf": "TAF EDLW 040320Z 0404/0424 19004KT 9999 BKN030"
    },
    {
      "icao": "EDNY",
      "alert": "OK",
      "vis_m": 9999,
      "fzfg": false,
      "metar_trigger": false,
      "taf_trigger": false,
      "metar": "METAR EDNY 040420Z 03003KT 360V060 CAVOK 08/07 Q1015",
      "taf": "TAF EDNY 040200Z 0403/0412 03003KT CAVOK"
    },
    {
      "icao": "EDSB",
      "alert": "OK",
      "vis_m": 9999,
      "fzfg": false,
      "metar_trigger": false,
      "taf_trigger": false,
      "metar": "METAR EDSB 040420Z 23001KT CAVOK 10/07 Q1014",
      "taf": "TAF EDSB 032300Z 0400/0424 21003KT CAVOK"
    },
    {
      "icao": "EETN",
      "alert": "OK",
      "vis_m": 9999,
      "fzfg": false,
      "metar_trigger": false,
      "taf_trigger": false,
      "metar": "METAR EETN 040420Z 18004KT CAVOK 08/05 Q1006 NOSIG",
      "taf": "TAF EETN 032330Z 0400/0424 VRB02KT 9999 SCT025"
    },
    {
      "icao": "EFTU",
      "alert": "OK",
      "vis_m": 9999,
      "fzfg": false,
      "metar_trigger": false,
      "taf_trigger": false,
      "metar": "METAR EFTU 040420Z AUTO 00000KT 9999 OVC045 04/M00 Q1005",
      "taf": "TAF EFTU 040227Z 0403/0503 32002KT CAVOK"
    },
    {
      "icao": "EGBB",
      "alert": "OK",
      "vis_m": 9000,
      "fzfg": false,
      "metar_trigger": false,
      "taf_trigger": false,
      "metar": "METAR EGBB 040420Z 06004KT 040V110 9000 OVC009 10/08 Q1013",
      "taf": "TAF EGBB 032254Z 0400/0424 01006KT 9999 BKN012"
    },
    {
      "icao": "EGGP",
      "alert": "OK",
      "vis_m": 9999,
      "fzfg": false,
      "metar_trigger": false,
      "taf_trigger": false,
      "metar": "METAR EGGP 040420Z 04006KT 9999 OVC019 09/06 Q1014",
      "taf": "TAF EGGP 032255Z 0400/0424 04006KT 9999 BKN030"
    },
    {
      "icao": "EGGW",
      "alert": "OK",
      "vis_m": 2200,
      "fzfg": false,
      "metar_trigger": false,
      "taf_trigger": false,
      "metar": "METAR EGGW 040420Z AUTO 03006KT 360V100 2200 BR OVC002 10/10 Q1012",
      "taf": ""
    },
    {
      "icao": "EGKK",
      "alert": "OK",
      "vis_m": 900,
      "fzfg": false,
      "metar_trigger": false,
      "taf_trigger": false,
      "metar": "METAR EGKK 040420Z 24002KT 0900 R26L/1300U FG BKN002 11/11 Q1012",
      "taf": ""
    },
    {
      "icao": "EGNM",
      "alert": "OK",
      "vis_m": 4000,
      "fzfg": false,
      "metar_trigger": false,
      "taf_trigger": false,
      "metar": "METAR EGNM 040420Z 03004KT 4000 -DZ BR SCT003 OVC005 07/06 Q1014",
      "taf": "TAF EGNM 032304Z 0400/0424 02006KT 9999 BKN010"
    },
    {
      "icao": "EGPD",
      "alert": "OK",
      "vis_m": 8000,
      "fzfg": false,
      "metar_trigger": false,
      "taf_trigger": false,
      "metar": "METAR EGPD 040420Z AUTO VRB01KT 8000 BKN039 02/01 Q1013 TEMPO 4000 BR",
      "taf": ""
    },
    {
      "icao": "EGPF",
      "alert": "OK",
      "vis_m": 9999,
      "fzfg": false,
      "metar_trigger": false,
      "taf_trigger": false,
      "metar": "METAR EGPF 040420Z AUTO 24004KT 9999 NCD 07/06 Q1015",
      "taf": "TAF EGPF 032302Z 0400/0424 VRB02KT 9999 SCT020"
    },
    {
      "icao": "EHBK",
      "alert": "OK",
      "vis_m": 9999,
      "fzfg": false,
      "metar_trigger": false,
      "taf_trigger": false,
      "metar": "METAR EHBK 040425Z AUTO 21006KT 9999 NSC 11/09 Q1012 NOSIG",
      "taf": "TAF EHBK 032317Z 0400/0506 19005KT 9999 FEW030"
    },
    {
      "icao": "EHEH",
      "alert": "OK",
      "vis_m": 800,
      "fzfg": false,
      "metar_trigger": false,
      "taf_trigger": false,
      "metar": "METAR EHEH 040425Z AUTO 18001KT 0800 FG BKN013 OVC016 11/11 Q1011 AMB",
      "taf": ""
    },
    {
      "icao": "EKBI",
      "alert": "OK",
      "vis_m": 9999,
      "fzfg": false,
      "metar_trigger": false,
      "taf_trigger": false,
      "metar": "METAR EKBI 040420Z AUTO 28008KT 9999 BKN006/// BKN045/// 07/06 Q1009",
      "taf": "TAF EKBI 040227Z 0403/0503 29008KT 9999 OVC004"
    },
    {
      "icao": "EKCH",
      "alert": "OK",
      "vis_m": 9000,
      "fzfg": false,
      "metar_trigger": false,
      "taf_trigger": false,
      "metar": "METAR EKCH 040420Z 23009KT 9000 BKN010 13/12 Q1007 TEMPO BKN015",
      "taf": "TAF EKCH 040227Z 0403/0503 26012KT 2000 BR BKN005"
    },
    {
      "icao": "ENAL",
      "alert": "OK",
      "vis_m": 9999,
      "fzfg": false,
      "metar_trigger": false,
      "taf_trigger": false,
      "metar": "METAR ENAL 040420Z 27015G26KT 230V310 9999 FEW027 SCT056 04/01 Q1004",
      "taf": "TAF ENAL 040200Z 0403/0412 24018KT 9999 -SHRA FEW006 BKN015"
    },
    {
      "icao": "ENBR",
      "alert": "OK",
      "vis_m": 9999,
      "fzfg": false,
      "metar_trigger": false,
      "taf_trigger": false,
      "metar": "METAR ENBR 040420Z 16008KT 9999 -RA FEW006 BKN013 04/02 Q1008 BECMG 33010KT SCT020 TEMPO 3000 SHRA BR BKN008 SCT012CB RMK WIND 1200FT 30008KT",
      "taf": "TAF ENBR 032300Z 0400/0424 17008KT 9999 FEW030"
    },
    {
      "icao": "ENGM",
      "alert": "OK",
      "vis_m": 9999,
      "fzfg": false,
      "metar_trigger": false,
      "taf_trigger": false,
      "metar": "METAR ENGM 040420Z VRB02KT CAVOK 06/04 Q1003 NOSIG",
      "taf": "TAF ENGM 032300Z 0400/0424 18010KT 9999 BKN015"
    },
    {
      "icao": "ENHD",
      "alert": "OK",
      "vis_m": 9999,
      "fzfg": false,
      "metar_trigger": false,
      "taf_trigger": false,
      "metar": "METAR ENHD 040420Z 13006KT 9999 BKN020 05/01 Q1009",
      "taf": ""
    },
    {
      "icao": "ENTC",
      "alert": "OK",
      "vis_m": 9999,
      "fzfg": false,
      "metar_trigger": false,
      "taf_trigger": false,
      "metar": "METAR ENTC 040420Z 02006KT 9999 VCSH OVC034 00/M01 Q0998 RMK WIND 2600FT 17023KT",
      "taf": ""
    },
    {
      "icao": "ENTO",
      "alert": "OK",
      "vis_m": 9999,
      "fzfg": false,
      "metar_trigger": false,
      "taf_trigger": false,
      "metar": "METAR ENTO 040420Z 26003KT 230V290 9999 BKN011 OVC013 08/07 Q1004 BECMG SCT012",
      "taf": "TAF ENTO 032300Z 0400/0424 18010KT 9999 BKN012"
    },
    {
      "icao": "ENVA",
      "alert": "OK",
      "vis_m": 9999,
      "fzfg": false,
      "metar_trigger": false,
      "taf_trigger": false,
      "metar": "METAR ENVA 040420Z 09006KT 9999 FEW033 SCT040 02/00 Q1001 BECMG 27010KT TEMPO 4000 RASN BKN012 SCT018CB RMK WIND 670FT 24009KT",
      "taf": "TAF ENVA 032300Z 0400/0424 13005KT 9999 FEW040"
    },
    {
      "icao": "ENZV",
      "alert": "OK",
      "vis_m": 9999,
      "fzfg": false,
      "metar_trigger": false,
      "taf_trigger": false,
      "metar": "METAR ENZV 040420Z 04003KT 9999 BKN023 05/00 Q1010 BECMG 33010KT TEMPO 4000 SHRA BKN008 SCT012TCU",
      "taf": "TAF ENZV 032300Z 0400/0424 33008KT 9999 FEW020"
    },
    {
      "icao": "EPGD",
      "alert": "OK",
      "vis_m": 9999,
      "fzfg": false,
      "metar_trigger": false,
      "taf_trigger": false,
      "metar": "METAR EPGD 040430Z 27004KT CAVOK 14/05 Q1009",
      "taf": "TAF EPGD 032330Z 0400/0424 VRB03KT CAVOK"
    },
    {
      "icao": "EPKK",
      "alert": "OK",
      "vis_m": 9999,
      "fzfg": false,
      "metar_trigger": false,
      "taf_trigger": false,
      "metar": "METAR EPKK 040430Z VRB02KT CAVOK 08/03 Q1016",
      "taf": "TAF EPKK 040230Z 0403/0503 24004KT CAVOK"
    },
    {
      "icao": "EPKT",
      "alert": "OK",
      "vis_m": 9999,
      "fzfg": false,
      "metar_trigger": false,
      "taf_trigger": false,
      "metar": "METAR EPKT 040430Z 21008KT CAVOK 14/00 Q1015",
      "taf": "TAF EPKT 032330Z 0400/0424 22008KT CAVOK"
    },
    {
      "icao": "EPLB",
      "alert": "OK",
      "vis_m": 9999,
      "fzfg": false,
      "metar_trigger": false,
      "taf_trigger": false,
      "metar": "METAR EPLB 040430Z 22005KT CAVOK 13/04 Q1015",
      "taf": "TAF EPLB 032330Z 0400/0424 21010KT CAVOK"
    },
    {
      "icao": "EPMO",
      "alert": "OK",
      "vis_m": 9999,
      "fzfg": false,
      "metar_trigger": false,
      "taf_trigger": false,
      "metar": "METAR EPMO 040430Z 19008KT 150V220 CAVOK 14/03 Q1013",
      "taf": "TAF EPMO 032330Z 0400/0424 20010KT CAVOK"
    },
    {
      "icao": "EPPO",
      "alert": "OK",
      "vis_m": 9999,
      "fzfg": false,
      "metar_trigger": false,
      "taf_trigger": false,
      "metar": "METAR EPPO 040430Z 22004KT CAVOK 13/05 Q1011",
      "taf": "TAF EPPO 032330Z 0400/0424 18010KT CAVOK"
    },
    {
      "icao": "EPRA",
      "alert": "OK",
      "vis_m": 9999,
      "fzfg": false,
      "metar_trigger": false,
      "taf_trigger": false,
      "metar": "METAR EPRA 040430Z 19004KT CAVOK 11/03 Q1015",
      "taf": "TAF EPRA 040230Z 0403/0412 23008KT CAVOK"
    },
    {
      "icao": "EPRZ",
      "alert": "OK",
      "vis_m": 9999,
      "fzfg": false,
      "metar_trigger": false,
      "taf_trigger": false,
      "metar": "METAR EPRZ 040430Z 20004KT CAVOK 11/03 Q1016",
      "taf": "TAF EPRZ 032330Z 0400/0424 18008KT CAVOK"
    },
    {
      "icao": "EPSC",
      "alert": "OK",
      "vis_m": 9999,
      "fzfg": false,
      "metar_trigger": false,
      "taf_trigger": false,
      "metar": "METAR EPSC 040430Z 25005KT CAVOK 17/09 Q1010",
      "taf": "TAF EPSC 032330Z 0400/0424 VRB03KT CAVOK"
    },
    {
      "icao": "EPSY",
      "alert": "OK",
      "vis_m": 9999,
      "fzfg": false,
      "metar_trigger": false,
      "taf_trigger": false,
      "metar": "METAR EPSY 040430Z 20003KT CAVOK 10/05 Q1011",
      "taf": "TAF EPSY 040230Z 0403/0412 19002KT CAVOK"
    },
    {
      "icao": "EPWA",
      "alert": "OK",
      "vis_m": 9999,
      "fzfg": false,
      "metar_trigger": false,
      "taf_trigger": false,
      "metar": "METAR EPWA 040430Z 16005KT CAVOK 12/05 Q1013 NOSIG",
      "taf": "TAF EPWA 040230Z 0403/0503 VRB02KT CAVOK"
    },
    {
      "icao": "EPWR",
      "alert": "OK",
      "vis_m": 9999,
      "fzfg": false,
      "metar_trigger": false,
      "taf_trigger": false,
      "metar": "METAR EPWR 040430Z 13006KT CAVOK 11/05 Q1013",
      "taf": "TAF EPWR 040230Z 0403/0503 16010KT CAVOK"
    },
    {
      "icao": "ESGG",
      "alert": "OK",
      "vis_m": 1500,
      "fzfg": false,
      "metar_trigger": false,
      "taf_trigger": false,
      "metar": "METAR ESGG 040420Z 23007KT 1500 BR VV003 09/09 Q1005",
      "taf": ""
    },
    {
      "icao": "ESKN",
      "alert": "OK",
      "vis_m": 9999,
      "fzfg": false,
      "metar_trigger": false,
      "taf_trigger": false,
      "metar": "METAR ESKN 040420Z 14004KT 9999 -RA SCT018 BKN051 06/05 Q1005",
      "taf": "TAF ESKN 040230Z 0403/0503 16006KT CAVOK"
    },
    {
      "icao": "ESMS",
      "alert": "OK",
      "vis_m": 9999,
      "fzfg": false,
      "metar_trigger": false,
      "taf_trigger": false,
      "metar": "METAR ESMS 040420Z 25011KT 9999 FEW008 BKN017 13/12 Q1006",
      "taf": "TAF ESMS 040227Z 0403/0503 27010KT 2000 BR BKN004"
    },
    {
      "icao": "ESSA",
      "alert": "OK",
      "vis_m": 9999,
      "fzfg": false,
      "metar_trigger": false,
      "taf_trigger": false,
      "metar": "METAR ESSA 040420Z 15004KT 9999 -RA BKN013 06/01 Q1005 NOSIG",
      "taf": "TAF ESSA 040230Z 0403/0503 17006KT 9999 BKN010"
    },
    {
      "icao": "EYKA",
      "alert": "OK",
      "vis_m": 9999,
      "fzfg": false,
      "metar_trigger": false,
      "taf_trigger": false,
      "metar": "METAR EYKA 040420Z 22005KT CAVOK 14/04 Q1010",
      "taf": "TAF EYKA 032301Z 0400/0424 VRB04KT 9000 NSC"
    },
    {
      "icao": "EYPA",
      "alert": "OK",
      "vis_m": 9999,
      "fzfg": false,
      "metar_trigger": false,
      "taf_trigger": false,
      "metar": "METAR EYPA 040420Z VRB02KT CAVOK 10/07 Q1007",
      "taf": "TAF EYPA 032306Z 0400/0424 VRB03KT 7000 NSC"
    },
    {
      "icao": "EYVI",
      "alert": "OK",
      "vis_m": 9999,
      "fzfg": false,
      "metar_trigger": false,
      "taf_trigger": false,
      "metar": "METAR EYVI 040420Z 17005KT 160V220 CAVOK 13/04 Q1011 NOSIG",
      "taf": "TAF EYVI 032301Z 0400/0424 VRB04KT 9000 NSC"
    },
    {
      "icao": "GCFV",
      "alert": "OK",
      "vis_m": 9999,
      "fzfg": false,
      "metar_trigger": false,
      "taf_trigger": false,
      "metar": "METAR GCFV 040430Z AUTO 01011KT 9999 BKN017 18/15 Q1016",
      "taf": "TAF GCFV 040200Z 0403/0503 04010KT 9999 FEW020 TX22/0414Z TN18/0406Z"
    },
    {
      "icao": "GCLP",
      "alert": "OK",
      "vis_m": 9999,
      "fzfg": false,
      "metar_trigger": false,
      "taf_trigger": false,
      "metar": "METAR GCLP 040430Z 35009KT 9999 FEW018 18/15 Q1016 NOSIG",
      "taf": "TAF GCLP 040200Z 0403/0503 02013KT 9999 SCT020 TX24/0414Z TN18/0406Z"
    },
    {
      "icao": "GCTS",
      "alert": "OK",
      "vis_m": 9999,
      "fzfg": false,
      "metar_trigger": false,
      "taf_trigger": false,
      "metar": "METAR GCTS 040430Z 04004KT 9999 FEW030 17/13 Q1016 NOSIG",
      "taf": "TAF GCTS 040200Z 0403/0503 04007KT 9999 FEW030 TX25/0414Z TN18/0406Z"
    },
    {
      "icao": "GMAD",
      "alert": "OK",
      "vis_m": 8000,
      "fzfg": false,
      "metar_trigger": false,
      "taf_trigger": false,
      "metar": "METAR GMAD 040430Z 11003KT 8000 NSC 14/13 Q1013 NOSIG",
      "taf": "TAF GMAD 032300Z 0400/0506 20007KT 9999 BKN016"
    },
    {
      "icao": "GMMN",
      "alert": "OK",
      "vis_m": 9999,
      "fzfg": false,
      "metar_trigger": false,
      "taf_trigger": false,
      "metar": "METAR GMMN 040430Z 01005KT 9999 SCT016 15/13 Q1016 NOSIG",
      "taf": "TAF GMMN 032300Z 0400/0506 04006KT 9999 FEW016 SCT100"
    },
    {
      "icao": "GMMX",
      "alert": "OK",
      "vis_m": 9999,
      "fzfg": false,
      "metar_trigger": false,
      "taf_trigger": false,
      "metar": "METAR GMMX 040430Z 26005KT 9999 SCT033 SCT080 14/11 Q1015 NOSIG",
      "taf": "TAF GMMX 032300Z 0400/0506 30006KT 9999 FEW033 SCT080"
    },
    {
      "icao": "HEGN",
      "alert": "OK",
      "vis_m": 9999,
      "fzfg": false,
      "metar_trigger": false,
      "taf_trigger": false,
      "metar": "METAR HEGN 040400Z 30015KT CAVOK 21/12 Q1013 NOSIG",
      "taf": ""
    },
    {
      "icao": "HEMA",
      "alert": "OK",
      "vis_m": 9999,
      "fzfg": false,
      "metar_trigger": false,
      "taf_trigger": false,
      "metar": "METAR HEMA 040400Z 33015KT CAVOK 24/16 Q1012 NOSIG",
      "taf": ""
    },
    {
      "icao": "HESH",
      "alert": "OK",
      "vis_m": 9999,
      "fzfg": false,
      "metar_trigger": false,
      "taf_trigger": false,
      "metar": "METAR HESH 040400Z 34012KT CAVOK 23/15 Q1012 NOSIG",
      "taf": ""
    },
    {
      "icao": "HESX",
      "alert": "OK",
      "vis_m": 9999,
      "fzfg": false,
      "metar_trigger": false,
      "taf_trigger": false,
      "metar": "METAR HESX 040400Z 24008KT CAVOK 13/05 Q1016 NOSIG",
      "taf": ""
    },
    {
      "icao": "LATI",
      "alert": "OK",
      "vis_m": 9999,
      "fzfg": false,
      "metar_trigger": false,
      "taf_trigger": false,
      "metar": "METAR LATI 040450Z 17003KT CAVOK 08/04 Q1019 NOSIG",
      "taf": "TAF LATI 032300Z 0400/0424 VRB03KT CAVOK TX25/0412Z TN06/0404Z"
    },
    {
      "icao": "LBPD",
      "alert": "OK",
      "vis_m": 9999,
      "fzfg": false,
      "metar_trigger": false,
      "taf_trigger": false,
      "metar": "METAR LBPD 040430Z AUTO 14002KT 9999 NCD 07/02 Q1018 NOSIG",
      "taf": "TAF LBPD 032300Z 0400/0424 29010KT 9999 SCT060 BKN080"
    },
    {
      "icao": "LBSF",
      "alert": "OK",
      "vis_m": 9999,
      "fzfg": false,
      "metar_trigger": false,
      "taf_trigger": false,
      "metar": "METAR LBSF 040430Z 00000KT CAVOK 00/M01 Q1020 NOSIG",
      "taf": "TAF LBSF 032300Z 0400/0424 VRB04KT 9999 SCT050"
    },
    {
      "icao": "LBWN",
      "alert": "OK",
      "vis_m": 9999,
      "fzfg": false,
      "metar_trigger": false,
      "taf_trigger": false,
      "metar": "METAR LBWN 040430Z AUTO 32014KT 290V350 9999 NCD 07/01 Q1015 NOSIG",
      "taf": "TAF LBWN 032300Z 0400/0424 34012KT 9999 SCT045"
    },
    {
      "icao": "LCLK",
      "alert": "OK",
      "vis_m": 8000,
      "fzfg": false,
      "metar_trigger": false,
      "taf_trigger": false,
      "metar": "METAR LCLK 040430Z 24020G32KT 8000 -TSRA FEW010 FEW025CB SCT034 BKN050 13/11 Q1006 TEMPO 2000 TSRA",
      "taf": "TAF LCLK 032330Z 0400/0500 24012KT 9999 FEW018 SCT030"
    },
    {
      "icao": "LCPH",
      "alert": "OK",
      "vis_m": 6000,
      "fzfg": false,
      "metar_trigger": false,
      "taf_trigger": false,
      "metar": "METAR LCPH 040430Z 26018KT 6000 R29/1200 R11/0500 -SHRA FEW025CB SCT030TCU BKN035 14/10 Q1006 RERA NOSIG RMK CB TO NW",
      "taf": "TAF LCPH 032330Z 0400/0500 26025KT 9999 SCT020 SCT050"
    },
    {
      "icao": "LEAL",
      "alert": "OK",
      "vis_m": 9999,
      "fzfg": false,
      "metar_trigger": false,
      "taf_trigger": false,
      "metar": "METAR LEAL 040430Z VRB02KT 9999 BKN011 SCT020 18/17 Q1012 NOSIG",
      "taf": ""
    },
    {
      "icao": "LEBB",
      "alert": "OK",
      "vis_m": 4000,
      "fzfg": false,
      "metar_trigger": false,
      "taf_trigger": false,
      "metar": "SPECI LEBB 040442Z 29009KT 260V320 4000 -RA SCT009 BKN013 OVC020 13/12 Q1013 NOSIG",
      "taf": "TAF LEBB 032300Z 0400/0424 29009KT 9999 SCT020 BKN040 TX15/0416Z TN12/0409Z"
    },
    {
      "icao": "LEBL",
      "alert": "OK",
      "vis_m": 9000,
      "fzfg": false,
      "metar_trigger": false,
      "taf_trigger": false,
      "metar": "METAR LEBL 040430Z 33003KT 9000 SCT035 BKN050 16/15 Q1013 NOSIG",
      "taf": "TAF LEBL 032300Z 0400/0424 VRB04KT 9999 SCT020 TX21/0412Z TN14/0406Z"
    },
    {
      "icao": "LECH",
      "alert": "OK",
      "vis_m": 8000,
      "fzfg": false,
      "metar_trigger": false,
      "taf_trigger": false,
      "metar": "METAR LECH 040430Z AUTO 34002KT 8000 BKN042 13/12 Q1013",
      "taf": "TAF LECH 032300Z 0400/0424 VRB04KT 9999 SCT010 TX22/0413Z TN12/0405Z"
    },
    {
      "icao": "LEMD",
      "alert": "OK",
      "vis_m": 9999,
      "fzfg": false,
      "metar_trigger": false,
      "taf_trigger": false,
      "metar": "METAR LEMD 040430Z VRB01KT 9999 FEW074 10/08 Q1012 NOSIG",
      "taf": "TAF LEMD 032300Z 0400/0506 VRB04KT CAVOK TX21/0416Z TN08/0405Z"
    },
    {
      "icao": "LEMG",
      "alert": "OK",
      "vis_m": 9999,
      "fzfg": false,
      "metar_trigger": false,
      "taf_trigger": false,
      "metar": "METAR LEMG 040430Z 27010KT CAVOK 17/11 Q1013 NOSIG",
      "taf": "TAF LEMG 032300Z 0400/0424 29006KT 9999 FEW030 TX26/0414Z TN15/0407Z"
    },
    {
      "icao": "LEVC",
      "alert": "OK",
      "vis_m": 9999,
      "fzfg": false,
      "metar_trigger": false,
      "taf_trigger": false,
      "metar": "METAR LEVC 040430Z 33005KT 9999 BKN017 OVC038 17/15 Q1012 NOSIG",
      "taf": "TAF LEVC 032300Z 0400/0424 VRB04KT 9999 SCT010 TX28/0412Z TN14/0405Z"
    },
    {
      "icao": "LEXJ",
      "alert": "OK",
      "vis_m": 8000,
      "fzfg": false,
      "metar_trigger": false,
      "taf_trigger": false,
      "metar": "METAR LEXJ 040430Z 25004KT 8000 -RA SCT031 OVC043 12/11 Q1013",
      "taf": "TAF LEXJ 040200Z 0403/0503 28009KT 9999 FEW010 BKN040 TX16/0413Z TN12/0409Z"
    },
    {
      "icao": "LEZG",
      "alert": "OK",
      "vis_m": 9999,
      "fzfg": false,
      "metar_trigger": false,
      "taf_trigger": false,
      "metar": "METAR LEZG 040430Z 10007KT 9999 OVC014 14/12 Q1012 NOSIG",
      "taf": ""
    },
    {
      "icao": "LEZL",
      "alert": "OK",
      "vis_m": 9999,
      "fzfg": false,
      "metar_trigger": false,
      "taf_trigger": false,
      "metar": "METAR LEZL 040430Z 15003KT 9999 BKN045 14/13 Q1014 NOSIG",
      "taf": "TAF LEZL 040200Z 0403/0503 VRB02KT 9999 FEW030 TX27/0415Z TN13/0407Z"
    },
    {
      "icao": "LFBD",
      "alert": "OK",
      "vis_m": 9999,
      "fzfg": false,
      "metar_trigger": false,
      "taf_trigger": false,
      "metar": "METAR LFBD 040430Z AUTO 14003KT 9999 SCT004/// BKN056/// BKN068/// ///TCU 14/13 Q1011 TEMPO 2000 SHRA BKN005 SCT020TCU",
      "taf": "TAF LFBD 032300Z 0400/0506 32005KT 9999 BKN040 TX18/0418Z TN12/0405Z"
    },
    {
      "icao": "LFLL",
      "alert": "OK",
      "vis_m": 9999,
      "fzfg": false,
      "metar_trigger": false,
      "taf_trigger": false,
      "metar": "METAR LFLL 040430Z 09004KT CAVOK 13/09 Q1014 NOSIG",
      "taf": "TAF LFLL 032300Z 0400/0506 18008KT CAVOK"
    },
    {
      "icao": "LFLS",
      "alert": "OK",
      "vis_m": 9999,
      "fzfg": false,
      "metar_trigger": false,
      "taf_trigger": false,
      "metar": "METAR LFLS 040430Z AUTO 10006KT 9999 ///TCU 12/08 Q1014 BECMG RA BKN020",
      "taf": "TAF LFLS 040200Z 0403/0503 09005KT CAVOK"
    },
    {
      "icao": "LFMN",
      "alert": "OK",
      "vis_m": 9999,
      "fzfg": false,
      "metar_trigger": false,
      "taf_trigger": false,
      "metar": "METAR LFMN 040430Z 32006KT 9999 FEW020 BKN096 16/10 Q1017 NOSIG",
      "taf": "TAF LFMN 040200Z 0403/0509 34007KT 9999 BKN060"
    },
    {
      "icao": "LFOB",
      "alert": "OK",
      "vis_m": 3200,
      "fzfg": false,
      "metar_trigger": false,
      "taf_trigger": false,
      "metar": "METAR LFOB 040430Z AUTO 32003KT 3200 0550 R30/P5000 R12/0700D BCFG VV/// 09/09 Q1012 TEMPO 0500 FG",
      "taf": "TAF LFOB 032300Z 0400/0424 VRB03KT CAVOK"
    },
    {
      "icao": "LFPO",
      "alert": "OK",
      "vis_m": 9999,
      "fzfg": false,
      "metar_trigger": false,
      "taf_trigger": false,
      "metar": "METAR LFPO 040430Z AUTO VRB02KT 9999 FEW010 SCT033 OVC082 13/13 Q1012 TEMPO 4000 BR BKN003",
      "taf": "TAF LFPO 032300Z 0400/0506 19004KT CAVOK"
    },
    {
      "icao": "LFSB",
      "alert": "OK",
      "vis_m": 9999,
      "fzfg": false,
      "metar_trigger": false,
      "taf_trigger": false,
      "metar": "METAR LFSB 040430Z AUTO 19004KT CAVOK 11/08 Q1015 NOSIG",
      "taf": "TAF LFSB 032300Z 0400/0424 VRB03KT CAVOK"
    },
    {
      "icao": "LGAV",
      "alert": "OK",
      "vis_m": 9999,
      "fzfg": false,
      "metar_trigger": false,
      "taf_trigger": false,
      "metar": "METAR LGAV 040420Z VRB02KT 9999 FEW025 10/03 Q1019 NOSIG",
      "taf": "TAF LGAV 032300Z 0400/0424 33010KT 9999 FEW025"
    },
    {
      "icao": "LGTS",
      "alert": "OK",
      "vis_m": 9999,
      "fzfg": false,
      "metar_trigger": false,
      "taf_trigger": false,
      "metar": "METAR LGTS 040420Z VRB03KT CAVOK 05/02 Q1020 NOSIG",
      "taf": "TAF LGTS 032300Z 0400/0424 33013KT 9999 FEW030"
    },
    {
      "icao": "LHBP",
      "alert": "OK",
      "vis_m": 9999,
      "fzfg": false,
      "metar_trigger": false,
      "taf_trigger": false,
      "metar": "METAR LHBP 040430Z VRB01KT CAVOK 05/02 Q1019 NOSIG",
      "taf": "TAF LHBP 032315Z 0400/0424 VRB03KT CAVOK"
    },
    {
      "icao": "LHDC",
      "alert": "OK",
      "vis_m": 9999,
      "fzfg": false,
      "metar_trigger": false,
      "taf_trigger": false,
      "metar": "METAR LHDC 040415Z AUTO 13002KT CAVOK 06/02 Q1019 NOSIG",
      "taf": "TAF LHDC 040215Z 0403/0412 VRB02KT CAVOK"
    },
    {
      "icao": "LIBD",
      "alert": "OK",
      "vis_m": 9999,
      "fzfg": false,
      "metar_trigger": false,
      "taf_trigger": false,
      "metar": "METAR LIBD 040420Z 20004KT CAVOK 10/07 Q1018",
      "taf": "TAF LIBD 032300Z 0400/0424 VRB05KT CAVOK"
    },
    {
      "icao": "LIBG",
      "alert": "OK",
      "vis_m": null,
      "fzfg": false,
      "metar_trigger": false,
      "taf_trigger": false,
      "metar": "",
      "taf": ""
    },
    {
      "icao": "LIBP",
      "alert": "OK",
      "vis_m": 9999,
      "fzfg": false,
      "metar_trigger": false,
      "taf_trigger": false,
      "metar": "METAR LIBP 040420Z AUTO 24003KT 9999 NCD 08/07 Q1018",
      "taf": "TAF LIBP 032300Z 0400/0424 VRB05KT CAVOK"
    },
    {
      "icao": "LIBR",
      "alert": "OK",
      "vis_m": 9999,
      "fzfg": false,
      "metar_trigger": false,
      "taf_trigger": false,
      "metar": "METAR LIBR 040420Z VRB02KT CAVOK 12/08 Q1018",
      "taf": "TAF LIBR 032300Z 0400/0424 VRB05KT CAVOK"
    },
    {
      "icao": "LICA",
      "alert": "OK",
      "vis_m": 9999,
      "fzfg": false,
      "metar_trigger": false,
      "taf_trigger": false,
      "metar": "METAR LICA 040420Z AUTO VRB02KT 9999 SCT018/// 11/09 Q1020",
      "taf": "TAF LICA 032300Z 0400/0424 VRB05KT CAVOK"
    },
    {
      "icao": "LICC",
      "alert": "OK",
      "vis_m": 9999,
      "fzfg": false,
      "metar_trigger": false,
      "taf_trigger": false,
      "metar": "METAR LICC 040420Z 25008KT CAVOK 12/07 Q1020",
      "taf": "TAF LICC 032300Z 0400/0424 25007KT 9999 FEW040"
    },
    {
      "icao": "LICJ",
      "alert": "OK",
      "vis_m": 9999,
      "fzfg": false,
      "metar_trigger": false,
      "taf_trigger": false,
      "metar": "METAR LICJ 040420Z 17003KT CAVOK 13/08 Q1019",
      "taf": "TAF LICJ 032300Z 0400/0424 19007KT CAVOK"
    },
    {
      "icao": "LIMC",
      "alert": "OK",
      "vis_m": 9999,
      "fzfg": false,
      "metar_trigger": false,
      "taf_trigger": false,
      "metar": "METAR LIMC 040420Z VRB02KT CAVOK 09/07 Q1017 NOSIG",
      "taf": "TAF LIMC 032300Z 0400/0506 VRB04KT CAVOK"
    },
    {
      "icao": "LIME",
      "alert": "OK",
      "vis_m": 9999,
      "fzfg": false,
      "metar_trigger": false,
      "taf_trigger": false,
      "metar": "METAR LIME 040420Z 01006KT CAVOK 13/06 Q1016 NOSIG",
      "taf": "TAF LIME 032300Z 0400/0424 VRB05KT CAVOK"
    },
    {
      "icao": "LIMF",
      "alert": "OK",
      "vis_m": 9999,
      "fzfg": false,
      "metar_trigger": false,
      "taf_trigger": false,
      "metar": "METAR LIMF 040420Z VRB01KT 9999 SCT120 13/10 Q1017",
      "taf": "TAF LIMF 032300Z 0400/0424 VRB05KT 9999 SCT030"
    },
    {
      "icao": "LIMJ",
      "alert": "OK",
      "vis_m": 9999,
      "fzfg": false,
      "metar_trigger": false,
      "taf_trigger": false,
      "metar": "METAR LIMJ 040420Z AUTO 06003KT 9999 OVC160/// 16/08 Q1018",
      "taf": "TAF LIMJ 032300Z 0400/0424 VRB05KT CAVOK"
    },
    {
      "icao": "LIPE",
      "alert": "OK",
      "vis_m": 9999,
      "fzfg": false,
      "metar_trigger": false,
      "taf_trigger": false,
      "metar": "METAR LIPE 040420Z 20005KT 170V230 CAVOK 13/04 Q1016",
      "taf": "TAF LIPE 032300Z 0400/0424 VRB05KT CAVOK"
    },
    {
      "icao": "LIPH",
      "alert": "OK",
      "vis_m": 9999,
      "fzfg": false,
      "metar_trigger": false,
      "taf_trigger": false,
      "metar": "METAR LIPH 040420Z AUTO 03004KT 9999 OVC160/// 13/08 Q1016",
      "taf": "TAF LIPH 032300Z 0400/0424 VRB05KT CAVOK"
    },
    {
      "icao": "LIPQ",
      "alert": "OK",
      "vis_m": 9999,
      "fzfg": false,
      "metar_trigger": false,
      "taf_trigger": false,
      "metar": "METAR LIPQ 040420Z AUTO 05002KT 9999 SCT220/// 08/06 Q1017",
      "taf": "TAF LIPQ 032300Z 0400/0424 VRB05KT CAVOK"
    },
    {
      "icao": "LIPR",
      "alert": "OK",
      "vis_m": 9999,
      "fzfg": false,
      "metar_trigger": false,
      "taf_trigger": false,
      "metar": "METAR LIPR 040420Z AUTO 28003KT 9999 NCD 10/07 Q1017",
      "taf": "TAF LIPR 032300Z 0400/0424 VRB05KT CAVOK"
    },
    {
      "icao": "LIPX",
      "alert": "OK",
      "vis_m": 9999,
      "fzfg": false,
      "metar_trigger": false,
      "taf_trigger": false,
      "metar": "METAR LIPX 040420Z 05003KT CAVOK 12/09 Q1016",
      "taf": "TAF LIPX 032300Z 0400/0424 VRB05KT CAVOK"
    },
    {
      "icao": "LIPY",
      "alert": "OK",
      "vis_m": 9999,
      "fzfg": false,
      "metar_trigger": false,
      "taf_trigger": false,
      "metar": "METAR LIPY 040420Z AUTO 16003KT 140V210 9999 NCD 13/09 Q1017",
      "taf": "TAF LIPY 032300Z 0400/0424 VRB05KT CAVOK"
    },
    {
      "icao": "LIPZ",
      "alert": "OK",
      "vis_m": 9999,
      "fzfg": false,
      "metar_trigger": false,
      "taf_trigger": false,
      "metar": "METAR LIPZ 040420Z 02006KT CAVOK 13/09 Q1016 NOSIG",
      "taf": "TAF LIPZ 032300Z 0400/0506 VRB05KT CAVOK"
    },
    {
      "icao": "LIRF",
      "alert": "OK",
      "vis_m": 9999,
      "fzfg": false,
      "metar_trigger": false,
      "taf_trigger": false,
      "metar": "METAR LIRF 040420Z 07003KT CAVOK 09/08 Q1019 NOSIG",
      "taf": "TAF LIRF 032300Z 0400/0506 VRB05KT 9999 FEW040"
    },
    {
      "icao": "LIRN",
      "alert": "OK",
      "vis_m": 9999,
      "fzfg": false,
      "metar_trigger": false,
      "taf_trigger": false,
      "metar": "METAR LIRN 040420Z 23003KT 160V260 9999 FEW010 14/11 Q1020 NOSIG",
      "taf": "TAF LIRN 032300Z 0400/0424 VRB05KT 9999 FEW050"
    },
    {
      "icao": "LIRP",
      "alert": "OK",
      "vis_m": 9999,
      "fzfg": false,
      "metar_trigger": false,
      "taf_trigger": false,
      "metar": "METAR LIRP 040415Z 13004KT CAVOK 08/07 Q1019 NOSIG",
      "taf": "TAF LIRP 032300Z 0400/0424 VRB03KT CAVOK"
    },
    {
      "icao": "LIRZ",
      "alert": "OK",
      "vis_m": 9999,
      "fzfg": false,
      "metar_trigger": false,
      "taf_trigger": false,
      "metar": "METAR LIRZ 040420Z AUTO VRB02KT 9999 NCD 07/07 Q1019",
      "taf": "TAF LIRZ 032300Z 0400/0424 VRB05KT 9999 SCT060"
    },
    {
      "icao": "LJLJ",
      "alert": "OK",
      "vis_m": 9999,
      "fzfg": false,
      "metar_trigger": false,
      "taf_trigger": false,
      "metar": "METAR LJLJ 040430Z VRB01KT CAVOK 05/04 Q1018 NOSIG",
      "taf": "TAF LJLJ 032300Z 0400/0500 VRB02KT CAVOK"
    },
    {
      "icao": "LKMT",
      "alert": "OK",
      "vis_m": 9999,
      "fzfg": false,
      "metar_trigger": false,
      "taf_trigger": false,
      "metar": "METAR LKMT 040430Z 22009KT CAVOK 14/03 Q1015 NOSIG",
      "taf": "TAF LKMT 032300Z 0400/0424 20007KT CAVOK"
    },
    {
      "icao": "LKPR",
      "alert": "OK",
      "vis_m": 9999,
      "fzfg": false,
      "metar_trigger": false,
      "taf_trigger": false,
      "metar": "METAR LKPR 040430Z 12004KT 9999 FEW025 11/06 Q1013 NOSIG",
      "taf": "TAF LKPR 040200Z 0403/0509 36005KT CAVOK"
    },
    {
      "icao": "LLBG",
      "alert": "OK",
      "vis_m": 9999,
      "fzfg": false,
      "metar_trigger": false,
      "taf_trigger": false,
      "metar": "METAR LLBG 040420Z 18008KT 9999 SCT039 17/09 Q1014 NOSIG",
      "taf": "TAF LLBG 032303Z 0400/0424 22005KT 9999 SCT035 TX20/0411Z TN15/0403Z"
    },
    {
      "icao": "LMML",
      "alert": "OK",
      "vis_m": 9999,
      "fzfg": false,
      "metar_trigger": false,
      "taf_trigger": false,
      "metar": "METAR LMML 040445Z 21004KT CAVOK 13/09 Q1021 NOSIG",
      "taf": "TAF LMML 032300Z 0400/0424 24010KT 9999 FEW025"
    },
    {
      "icao": "LOWW",
      "alert": "OK",
      "vis_m": 9999,
      "fzfg": false,
      "metar_trigger": false,
      "taf_trigger": false,
      "metar": "METAR LOWW 040420Z 16012KT CAVOK 13/06 Q1014 NOSIG",
      "taf": "TAF LOWW 040215Z 0403/0509 15010KT CAVOK TX26/0413Z TN13/0404Z"
    },
    {
      "icao": "LPFR",
      "alert": "OK",
      "vis_m": 9999,
      "fzfg": false,
      "metar_trigger": false,
      "taf_trigger": false,
      "metar": "METAR LPFR 040430Z 29006KT CAVOK 14/11 Q1015",
      "taf": "TAF LPFR 032300Z 0400/0424 31007KT 9999 FEW025"
    },
    {
      "icao": "LPMA",
      "alert": "OK",
      "vis_m": 9999,
      "fzfg": false,
      "metar_trigger": false,
      "taf_trigger": false,
      "metar": "METAR LPMA 040430Z VRB02KT 9999 FEW013 BKN060 17/14 Q1016",
      "taf": "TAF LPMA 032300Z 0400/0424 VRB05KT 9999 SCT013 SCT030"
    },
    {
      "icao": "LPPR",
      "alert": "OK",
      "vis_m": 9999,
      "fzfg": false,
      "metar_trigger": false,
      "taf_trigger": false,
      "metar": "METAR LPPR 040430Z 33003KT 290V010 9999 FEW018 SCT040 13/11 Q1014",
      "taf": "TAF LPPR 032300Z 0400/0424 VRB02KT 9999 SCT015"
    },
    {
      "icao": "LPPS",
      "alert": "OK",
      "vis_m": 9999,
      "fzfg": false,
      "metar_trigger": false,
      "taf_trigger": false,
      "metar": "METAR LPPS 040430Z 19005KT 9999 SCT011 18/16 Q1016",
      "taf": "TAF LPPS 032300Z 0400/0506 VRB05KT 9999 SCT011"
    },
    {
      "icao": "LPPT",
      "alert": "OK",
      "vis_m": 9999,
      "fzfg": false,
      "metar_trigger": false,
      "taf_trigger": false,
      "metar": "METAR LPPT 040430Z 29005KT 9999 FEW020 13/09 Q1015",
      "taf": "TAF LPPT 032300Z 0400/0506 29005KT 9999 SCT020"
    },
    {
      "icao": "LQBK",
      "alert": "OK",
      "vis_m": 9999,
      "fzfg": false,
      "metar_trigger": false,
      "taf_trigger": false,
      "metar": "METAR LQBK 040430Z 14004KT 110V180 CAVOK 05/03 Q1018 NOSIG",
      "taf": "TAF LQBK 032300Z 0400/0424 VRB02KT CAVOK TX25/0414Z TN05/0404Z"
    },
    {
      "icao": "LQSA",
      "alert": "OK",
      "vis_m": 9999,
      "fzfg": false,
      "metar_trigger": false,
      "taf_trigger": false,
      "metar": "METAR LQSA 040430Z 00000KT CAVOK 03/03 Q1021 NOSIG",
      "taf": "TAF LQSA 032300Z 0400/0424 VRB02KT CAVOK TX25/0414Z TN03/0404Z"
    },
    {
      "icao": "LQTZ",
      "alert": "OK",
      "vis_m": 9999,
      "fzfg": false,
      "metar_trigger": false,
      "taf_trigger": false,
      "metar": "METAR LQTZ 040430Z VRB01KT CAVOK 02/02 Q1019",
      "taf": "TAF LQTZ 032300Z 0400/0424 06005KT CAVOK TX24/0413Z TN01/0404Z"
    },
    {
      "icao": "LRBC",
      "alert": "OK",
      "vis_m": 9999,
      "fzfg": false,
      "metar_trigger": false,
      "taf_trigger": false,
      "metar": "METAR LRBC 040430Z 31003KT CAVOK 07/04 Q1016",
      "taf": "TAF LRBC 040200Z 0403/0412 VRB04KT CAVOK"
    },
    {
      "icao": "LRBS",
      "alert": "OK",
      "vis_m": 9999,
      "fzfg": false,
      "metar_trigger": false,
      "taf_trigger": false,
      "metar": "METAR LRBS 040430Z 29004KT 240V340 CAVOK 08/02 Q1017 NOSIG",
      "taf": "TAF LRBS 032300Z 0400/0424 30007KT CAVOK"
    },
    {
      "icao": "LRBV",
      "alert": "OK",
      "vis_m": 9999,
      "fzfg": false,
      "metar_trigger": false,
      "taf_trigger": false,
      "metar": "METAR LRBV 040430Z 34002KT 9999 FEW084 06/03 Q1018",
      "taf": "TAF LRBV 040200Z 0403/0412 VRB04KT CAVOK"
    },
    {
      "icao": "LRCL",
      "alert": "OK",
      "vis_m": 9999,
      "fzfg": false,
      "metar_trigger": false,
      "taf_trigger": false,
      "metar": "METAR LRCL 040430Z 26007KT 230V290 CAVOK 08/02 Q1019",
      "taf": "TAF LRCL 040200Z 0403/0412 28006KT CAVOK"
    },
    {
      "icao": "LRCV",
      "alert": "OK",
      "vis_m": 9999,
      "fzfg": false,
      "metar_trigger": false,
      "taf_trigger": false,
      "metar": "METAR LRCV 040430Z 28005KT CAVOK 05/04 Q1018",
      "taf": "TAF LRCV 040200Z 0403/0412 VRB04KT CAVOK"
    },
    {
      "icao": "LRIA",
      "alert": "OK",
      "vis_m": 9999,
      "fzfg": false,
      "metar_trigger": false,
      "taf_trigger": false,
      "metar": "METAR LRIA 040430Z 19003KT CAVOK 08/03 Q1016",
      "taf": "TAF LRIA 040200Z 0403/0412 VRB04KT CAVOK"
    },
    {
      "icao": "LROP",
      "alert": "OK",
      "vis_m": 9999,
      "fzfg": false,
      "metar_trigger": false,
      "taf_trigger": false,
      "metar": "METAR LROP 040430Z 28004KT 260V320 CAVOK 07/03 Q1017 NOSIG",
      "taf": "TAF LROP 032300Z 0400/0424 30007KT CAVOK"
    },
    {
      "icao": "LRSB",
      "alert": "OK",
      "vis_m": 9999,
      "fzfg": false,
      "metar_trigger": false,
      "taf_trigger": false,
      "metar": "METAR LRSB 040430Z VRB01KT 9999 FEW085 08/03 Q1019",
      "taf": "TAF LRSB 032300Z 0400/0424 VRB04KT CAVOK"
    },
    {
      "icao": "LRSM",
      "alert": "OK",
      "vis_m": 9999,
      "fzfg": false,
      "metar_trigger": false,
      "taf_trigger": false,
      "metar": "METAR LRSM 040430Z 19004KT CAVOK 08/03 Q1019",
      "taf": "TAF LRSM 040200Z 0403/0412 VRB04KT CAVOK"
    },
    {
      "icao": "LRSV",
      "alert": "OK",
      "vis_m": 9999,
      "fzfg": false,
      "metar_trigger": false,
      "taf_trigger": false,
      "metar": "METAR LRSV 040430Z 32011KT CAVOK 15/03 Q1017",
      "taf": "TAF LRSV 040200Z 0403/0412 32010KT CAVOK"
    },
    {
      "icao": "LRTM",
      "alert": "OK",
      "vis_m": 9999,
      "fzfg": false,
      "metar_trigger": false,
      "taf_trigger": false,
      "metar": "METAR LRTM 040430Z VRB01KT CAVOK 04/02 Q1019",
      "taf": "TAF LRTM 040200Z 0403/0412 VRB04KT CAVOK"
    },
    {
      "icao": "LRTR",
      "alert": "OK",
      "vis_m": 9999,
      "fzfg": false,
      "metar_trigger": false,
      "taf_trigger": false,
      "metar": "METAR LRTR 040430Z 10005KT CAVOK 04/02 Q1020",
      "taf": "TAF LRTR 032300Z 0400/0424 VRB04KT CAVOK"
    },
    {
      "icao": "LTAC",
      "alert": "OK",
      "vis_m": 9999,
      "fzfg": false,
      "metar_trigger": false,
      "taf_trigger": false,
      "metar": "METAR LTAC 040420Z 36005KT 9999 -SHRA SCT015 BKN025 BKN080 03/02 Q1005 NOSIG RMK RWY21C 35005KT RWY03L 34004KT RWY21R 34004KT RWY03R 34004KT 300V360 RWY21L 35005KT",
      "taf": "TAF LTAC 032240Z 0400/0424 01009KT 9999 SCT030 BKN080"
    },
    {
      "icao": "LTFM",
      "alert": "OK",
      "vis_m": 9999,
      "fzfg": false,
      "metar_trigger": false,
      "taf_trigger": false,
      "metar": "METAR LTFM 040420Z 36021KT 9999 FEW035 BKN100 11/05 Q1014 NOSIG RMK RWY17L 35019KT RWY34L 35018KT RWY16R 35016KT RWY36 36022KT RWY18 36020KT",
      "taf": "TAF LTFM 032240Z 0400/0506 35020G30KT 9999 SCT035 BKN100"
    },
    {
      "icao": "LUKK",
      "alert": "OK",
      "vis_m": 9999,
      "fzfg": false,
      "metar_trigger": false,
      "taf_trigger": false,
      "metar": "METAR LUKK 040430Z VRB01KT CAVOK 07/03 Q1016 NOSIG",
      "taf": "TAF LUKK 032306Z 0400/0424 VRB05KT CAVOK"
    },
    {
      "icao": "LWOH",
      "alert": "OK",
      "vis_m": null,
      "fzfg": false,
      "metar_trigger": false,
      "taf_trigger": false,
      "metar": "",
      "taf": "TAF LWOH 040220Z 0403/0503 VRB02KT CAVOK"
    },
    {
      "icao": "LWSK",
      "alert": "OK",
      "vis_m": 9999,
      "fzfg": false,
      "metar_trigger": false,
      "taf_trigger": false,
      "metar": "METAR LWSK 040450Z 02003KT 320V070 CAVOK 04/00 Q1022 NOSIG",
      "taf": "TAF LWSK 040220Z 0403/0503 VRB02KT CAVOK"
    },
    {
      "icao": "LYBE",
      "alert": "OK",
      "vis_m": 9999,
      "fzfg": false,
      "metar_trigger": false,
      "taf_trigger": false,
      "metar": "METAR LYBE 040430Z 14003KT 110V170 CAVOK 07/02 Q1020 NOSIG",
      "taf": "TAF LYBE 032300Z 0400/0424 16005KT CAVOK TX25/0413Z TN06/0404Z"
    },
    {
      "icao": "LYNI",
      "alert": "OK",
      "vis_m": 9999,
      "fzfg": false,
      "metar_trigger": false,
      "taf_trigger": false,
      "metar": "METAR LYNI 040430Z 10002KT CAVOK 04/00 Q1021 NOSIG",
      "taf": "TAF LYNI 032300Z 0400/0424 09004KT CAVOK TX23/0413Z TN02/0404Z"
    },
    {
      "icao": "LYPG",
      "alert": "OK",
      "vis_m": 9999,
      "fzfg": false,
      "metar_trigger": false,
      "taf_trigger": false,
      "metar": "METAR LYPG 040430Z VRB02KT CAVOK 10/05 Q1020 NOSIG",
      "taf": "TAF LYPG 032300Z 0400/0424 36005KT CAVOK TX24/0413Z TN09/0404Z"
    },
    {
      "icao": "LZIB",
      "alert": "OK",
      "vis_m": 9999,
      "fzfg": false,
      "metar_trigger": false,
      "taf_trigger": false,
      "metar": "METAR LZIB 040430Z 02007KT CAVOK 09/04 Q1017 BECMG 16012KT",
      "taf": "TAF LZIB 032315Z 0400/0500 14005KT CAVOK"
    },
    {
      "icao": "LZKZ",
      "alert": "OK",
      "vis_m": 9999,
      "fzfg": false,
      "metar_trigger": false,
      "taf_trigger": false,
      "metar": "METAR LZKZ 040430Z 00000KT CAVOK 06/03 Q1019 NOSIG",
      "taf": "TAF LZKZ 032315Z 0400/0500 26004KT CAVOK"
    },
    {
      "icao": "LZTT",
      "alert": "OK",
      "vis_m": 9999,
      "fzfg": false,
      "metar_trigger": false,
      "taf_trigger": false,
      "metar": "METAR LZTT 040430Z VRB03KT CAVOK 07/M02 Q1017",
      "taf": "TAF LZTT 032315Z 0400/0500 25005KT CAVOK"
    },
    {
      "icao": "OEJN",
      "alert": "OK",
      "vis_m": 7000,
      "fzfg": false,
      "metar_trigger": false,
      "taf_trigger": false,
      "metar": "METAR OEJN 040400Z 34005KT 7000 NSC 27/07 Q1009 NOSIG",
      "taf": "TAF OEJN 032300Z 0400/0506 VRB03KT CAVOK"
    },
    {
      "icao": "OEMA",
      "alert": "OK",
      "vis_m": 9999,
      "fzfg": false,
      "metar_trigger": false,
      "taf_trigger": false,
      "metar": "METAR OEMA 040400Z 01004KT CAVOK 27/01 Q1015 NOSIG",
      "taf": "TAF OEMA 032300Z 0400/0506 VRB03KT CAVOK"
    },
    {
      "icao": "OJAI",
      "alert": "OK",
      "vis_m": 4000,
      "fzfg": false,
      "metar_trigger": false,
      "taf_trigger": false,
      "metar": "METAR OJAI 040400Z 25012KT 4000 DU FEW030 12/05 Q1015 NOSIG",
      "taf": "TAF OJAI 032300Z 0400/0506 24018KT 3000 BLDU SCT035"
    },
    {
      "icao": "OMAA",
      "alert": "OK",
      "vis_m": 9999,
      "fzfg": false,
      "metar_trigger": false,
      "taf_trigger": false,
      "metar": "METAR OMAA 040430Z 25004KT 210V320 CAVOK 32/19 Q1007 NOSIG",
      "taf": "TAF OMAA 032300Z 0400/0506 VRB02KT CAVOK"
    },
    {
      "icao": "OMDB",
      "alert": "OK",
      "vis_m": 8000,
      "fzfg": false,
      "metar_trigger": false,
      "taf_trigger": false,
      "metar": "METAR OMDB 040430Z 19006KT 160V230 8000 NSC 31/17 Q1006 NOSIG",
      "taf": "TAF OMDB 032300Z 0400/0506 19005KT CAVOK"
    },
    {
      "icao": "UAAA",
      "alert": "OK",
      "vis_m": 9999,
      "fzfg": false,
      "metar_trigger": false,
      "taf_trigger": false,
      "metar": "METAR UAAA 040430Z 23005MPS 9999 SCT050CB OVC100 17/14 Q1016 NOSIG",
      "taf": "TAF UAAA 032301Z 0400/0424 21003G08MPS 9999 BKN050CB OVC100 TX19/0408Z TN14/0401Z"
    },
    {
      "icao": "UBBB",
      "alert": "OK",
      "vis_m": 9999,
      "fzfg": false,
      "metar_trigger": false,
      "taf_trigger": false,
      "metar": "METAR UBBB 040430Z 17008KT 130V190 9999 SCT013 BKN030 12/09 Q1012 NOSIG",
      "taf": "TAF UBBB 032259Z 0400/0424 35005KT 9999 BKN012 TX17/0410Z TN09/0401Z"
    },
    {
      "icao": "UDSG",
      "alert": "OK",
      "vis_m": 9999,
      "fzfg": false,
      "metar_trigger": false,
      "taf_trigger": false,
      "metar": "METAR UDSG 040430Z 34005KT 9999 SCT040CB 12/10 Q1011 NOSIG",
      "taf": "TAF UDSG 032258Z 0400/0424 24006KT 9999 BKN040"
    },
    {
      "icao": "UDYZ",
      "alert": "OK",
      "vis_m": 9999,
      "fzfg": false,
      "metar_trigger": false,
      "taf_trigger": false,
      "metar": "METAR UDYZ 040430Z VRB01KT 9999 FEW043CB 16/11 Q1008 NOSIG",
      "taf": "TAF UDYZ 032300Z 0400/0424 05008KT 9999 BKN040"
    },
    {
      "icao": "UGKO",
      "alert": "OK",
      "vis_m": 9999,
      "fzfg": false,
      "metar_trigger": false,
      "taf_trigger": false,
      "metar": "METAR UGKO 040430Z 08025G35KT CAVOK 18/11 Q1002 NOSIG",
      "taf": "TAF UGKO 032300Z 0400/0424 26010KT 9999 SCT030 OVC050 TX20/0411Z TN10/0404Z"
    }
  ]
}