{
  "ts_utc": "2026-06-16T07:09:50Z",
  "threshold_m": 150,
  "source": "stations_override.txt (ICAO list) + aviationweather.gov (METAR/TAF raw)",
  "station_count": 159,
  "stations": [
    {
      "icao": "BIKF",
      "alert": "OK",
      "vis_m": 9999,
      "fzfg": false,
      "metar_trigger": false,
      "taf_trigger": false,
      "metar": "METAR BIKF 160700Z 34001KT 9999 OVC015 09/06 Q1013",
      "taf": "TAF BIKF 160431Z 1606/1706 13006KT 9999 BKN020 TX13/1613Z TN08/1606Z"
    },
    {
      "icao": "BKPR",
      "alert": "OK",
      "vis_m": 9999,
      "fzfg": false,
      "metar_trigger": false,
      "taf_trigger": false,
      "metar": "METAR BKPR 160700Z 01009KT CAVOK 19/12 Q1020 NOSIG",
      "taf": "TAF BKPR 160530Z 1606/1706 35010KT 9999 SCT050"
    },
    {
      "icao": "EBCI",
      "alert": "OK",
      "vis_m": 9999,
      "fzfg": false,
      "metar_trigger": false,
      "taf_trigger": false,
      "metar": "METAR EBCI 160650Z VRB02KT CAVOK 19/13 Q1014 NOSIG",
      "taf": "TAF EBCI 160515Z 1606/1712 VRB04KT 9999 FEW035"
    },
    {
      "icao": "EDDB",
      "alert": "OK",
      "vis_m": 9999,
      "fzfg": false,
      "metar_trigger": false,
      "taf_trigger": false,
      "metar": "METAR EDDB 160650Z AUTO 26010KT 230V290 9999 BKN039 14/07 Q1015 NOSIG",
      "taf": "TAF EDDB 160500Z 1606/1706 24009KT 9999 SCT040"
    },
    {
      "icao": "EDDH",
      "alert": "OK",
      "vis_m": 9999,
      "fzfg": false,
      "metar_trigger": false,
      "taf_trigger": false,
      "metar": "METAR EDDH 160650Z AUTO 26007KT 220V310 9999 SCT033 14/06 Q1014 NOSIG",
      "taf": "TAF EDDH 160500Z 1606/1712 25005KT 9999 SCT030"
    },
    {
      "icao": "EDDK",
      "alert": "OK",
      "vis_m": 9999,
      "fzfg": false,
      "metar_trigger": false,
      "taf_trigger": false,
      "metar": "METAR EDDK 160650Z AUTO 11003KT 060V170 CAVOK 17/12 Q1014 NOSIG",
      "taf": "TAF EDDK 160500Z 1606/1712 12004KT 9999 SCT040"
    },
    {
      "icao": "EDDN",
      "alert": "OK",
      "vis_m": 9999,
      "fzfg": false,
      "metar_trigger": false,
      "taf_trigger": false,
      "metar": "METAR EDDN 160650Z AUTO 16003KT 070V190 CAVOK 15/09 Q1017 BECMG 24007KT",
      "taf": "TAF EDDN 160500Z 1606/1706 21007KT CAVOK"
    },
    {
      "icao": "EDDS",
      "alert": "OK",
      "vis_m": 9999,
      "fzfg": false,
      "metar_trigger": false,
      "taf_trigger": false,
      "metar": "METAR EDDS 160650Z AUTO 16003KT 140V270 9999 SHRA FEW///TCU 15/11 Q1017 TEMPO NSW",
      "taf": "TAF EDDS 160500Z 1606/1706 VRB03KT 9999 FEW040"
    },
    {
      "icao": "EDFH",
      "alert": "OK",
      "vis_m": 9999,
      "fzfg": false,
      "metar_trigger": false,
      "taf_trigger": false,
      "metar": "METAR EDFH 160650Z 25008KT 220V280 9999 -RA NSC 17/11 Q1016",
      "taf": "TAF EDFH 160500Z 1606/1706 20005KT 9999 SCT040"
    },
    {
      "icao": "EDJA",
      "alert": "OK",
      "vis_m": 9999,
      "fzfg": false,
      "metar_trigger": false,
      "taf_trigger": false,
      "metar": "METAR EDJA 160650Z 22008KT CAVOK 20/11 Q1019",
      "taf": "TAF EDJA 160500Z 1606/1615 24006KT CAVOK"
    },
    {
      "icao": "EDLW",
      "alert": "OK",
      "vis_m": 9999,
      "fzfg": false,
      "metar_trigger": false,
      "taf_trigger": false,
      "metar": "METAR EDLW 160650Z COR 17003KT 130V230 CAVOK 17/11 Q1013",
      "taf": "TAF EDLW 160500Z 1606/1706 15006KT 9999 SCT035"
    },
    {
      "icao": "EDNY",
      "alert": "OK",
      "vis_m": 9999,
      "fzfg": false,
      "metar_trigger": false,
      "taf_trigger": false,
      "metar": "METAR EDNY 160650Z VRB02KT CAVOK 20/11 Q1019",
      "taf": "TAF EDNY 160500Z 1606/1615 VRB03KT CAVOK"
    },
    {
      "icao": "EDSB",
      "alert": "OK",
      "vis_m": 9999,
      "fzfg": false,
      "metar_trigger": false,
      "taf_trigger": false,
      "metar": "METAR EDSB 160650Z 21007KT 180V250 9999 FEW043 18/12 Q1017",
      "taf": "TAF EDSB 160500Z 1606/1706 20005KT 9999 FEW040"
    },
    {
      "icao": "EETN",
      "alert": "OK",
      "vis_m": 9999,
      "fzfg": false,
      "metar_trigger": false,
      "taf_trigger": false,
      "metar": "METAR EETN 160650Z 07005KT 020V120 9999 SCT017 16/11 Q1001 NOSIG",
      "taf": "TAF EETN 160530Z 1606/1706 VRB02KT 9999 SCT030"
    },
    {
      "icao": "EFTU",
      "alert": "OK",
      "vis_m": 9999,
      "fzfg": false,
      "metar_trigger": false,
      "taf_trigger": false,
      "metar": "METAR EFTU 160650Z AUTO VRB03KT 9999 FEW017 16/11 Q1001",
      "taf": "TAF EFTU 160527Z 1606/1706 07004KT CAVOK"
    },
    {
      "icao": "EGBB",
      "alert": "OK",
      "vis_m": 9999,
      "fzfg": false,
      "metar_trigger": false,
      "taf_trigger": false,
      "metar": "METAR EGBB 160650Z 29007KT 250V320 9999 BKN017 17/13 Q1013",
      "taf": "TAF EGBB 160458Z 1606/1706 24006KT 9999 SCT040"
    },
    {
      "icao": "EGGP",
      "alert": "OK",
      "vis_m": 9999,
      "fzfg": false,
      "metar_trigger": false,
      "taf_trigger": false,
      "metar": "METAR EGGP 160650Z VRB02KT 9999 BKN036 16/14 Q1012",
      "taf": "TAF EGGP 160500Z 1606/1706 VRB04KT 9999 SCT020"
    },
    {
      "icao": "EGGW",
      "alert": "OK",
      "vis_m": 9999,
      "fzfg": false,
      "metar_trigger": false,
      "taf_trigger": false,
      "metar": "METAR EGGW 160650Z AUTO 28007KT 9999 OVC007 15/14 Q1013",
      "taf": "TAF EGGW 160452Z 1606/1706 25010KT 9999 SCT020"
    },
    {
      "icao": "EGKK",
      "alert": "OK",
      "vis_m": 9999,
      "fzfg": false,
      "metar_trigger": false,
      "taf_trigger": false,
      "metar": "METAR EGKK 160650Z 26006KT 9999 BKN014 16/13 Q1014",
      "taf": "TAF EGKK 160501Z 1606/1712 24006KT 9999 BKN007"
    },
    {
      "icao": "EGNM",
      "alert": "OK",
      "vis_m": 1800,
      "fzfg": false,
      "metar_trigger": false,
      "taf_trigger": false,
      "metar": "METAR EGNM 160650Z VRB02KT 1800 BR SCT003 BKN006 11/10 Q1013",
      "taf": "TAF EGNM 160500Z 1606/1706 VRB03KT 9999 BKN005"
    },
    {
      "icao": "EGPD",
      "alert": "OK",
      "vis_m": 9999,
      "fzfg": false,
      "metar_trigger": false,
      "taf_trigger": false,
      "metar": "METAR EGPD 160650Z COR AUTO 15008KT 9999 BKN018 BKN039 10/07 Q1013 NOSIG",
      "taf": "TAF EGPD 160454Z 1606/1706 15010KT 9999 SCT020"
    },
    {
      "icao": "EGPF",
      "alert": "OK",
      "vis_m": 9999,
      "fzfg": false,
      "metar_trigger": false,
      "taf_trigger": false,
      "metar": "METAR EGPF 160650Z AUTO 08005KT 9999 BKN007 OVC011 11/10 Q1012",
      "taf": "TAF EGPF 160457Z 1606/1706 08009KT 9999 BKN012"
    },
    {
      "icao": "EHBK",
      "alert": "OK",
      "vis_m": 9999,
      "fzfg": false,
      "metar_trigger": false,
      "taf_trigger": false,
      "metar": "METAR EHBK 160655Z AUTO 20010KT 170V230 9999 NSC 19/13 Q1013 NOSIG",
      "taf": "TAF EHBK 160510Z 1606/1712 21008KT CAVOK"
    },
    {
      "icao": "EHEH",
      "alert": "OK",
      "vis_m": 9999,
      "fzfg": false,
      "metar_trigger": false,
      "taf_trigger": false,
      "metar": "METAR EHEH 160655Z AUTO 27003KT 200V330 9999 OVC120 18/14 Q1012 BLU TEMPO FEW060CB",
      "taf": "TAF EHEH 160545Z 1606/1712 15003KT CAVOK"
    },
    {
      "icao": "EKBI",
      "alert": "OK",
      "vis_m": 9999,
      "fzfg": false,
      "metar_trigger": false,
      "taf_trigger": false,
      "metar": "METAR EKBI 160650Z AUTO 26011KT 9999 OVC028/// 11/06 Q1012",
      "taf": "TAF EKBI 160527Z 1606/1706 28010KT 9999 BKN025"
    },
    {
      "icao": "EKCH",
      "alert": "OK",
      "vis_m": 9999,
      "fzfg": false,
      "metar_trigger": false,
      "taf_trigger": false,
      "metar": "METAR EKCH 160650Z AUTO 27011KT 9999 OVC032/// 13/07 Q1011 NOSIG",
      "taf": "TAF EKCH 160527Z 1606/1706 28010KT 9999 BKN025"
    },
    {
      "icao": "ENAL",
      "alert": "OK",
      "vis_m": 9999,
      "fzfg": false,
      "metar_trigger": false,
      "taf_trigger": false,
      "metar": "METAR ENAL 160650Z 03007KT 9999 FEW019 SCT055 11/05 Q1012",
      "taf": "TAF ENAL 160500Z 1606/1615 05008KT 9999 SCT018 BKN030"
    },
    {
      "icao": "ENBR",
      "alert": "OK",
      "vis_m": 9999,
      "fzfg": false,
      "metar_trigger": false,
      "taf_trigger": false,
      "metar": "METAR ENBR 160650Z 27003KT 230V340 9999 FEW015 BKN029 10/07 Q1010 NOSIG RMK WIND 1200FT VRB02KT",
      "taf": "TAF ENBR 160500Z 1606/1706 31005KT 9999 SCT015"
    },
    {
      "icao": "ENGM",
      "alert": "OK",
      "vis_m": 9999,
      "fzfg": false,
      "metar_trigger": false,
      "taf_trigger": false,
      "metar": "METAR ENGM 160650Z 01009KT CAVOK 13/05 Q1008 NOSIG",
      "taf": "TAF ENGM 160500Z 1606/1706 01008KT CAVOK"
    },
    {
      "icao": "ENHD",
      "alert": "OK",
      "vis_m": 9999,
      "fzfg": false,
      "metar_trigger": false,
      "taf_trigger": false,
      "metar": "METAR ENHD 160650Z 32012KT 9999 FEW018 SCT024 BKN032 11/07 Q1011",
      "taf": "TAF ENHD 160500Z 1606/1615 33015KT 9999 FEW018 BKN035"
    },
    {
      "icao": "ENTC",
      "alert": "OK",
      "vis_m": 9999,
      "fzfg": false,
      "metar_trigger": false,
      "taf_trigger": false,
      "metar": "METAR ENTC 160650Z 22003KT CAVOK 12/05 Q1008 NOSIG RMK WIND 2600FT 27003KT",
      "taf": "TAF ENTC 160500Z 1606/1706 26003KT CAVOK"
    },
    {
      "icao": "ENTO",
      "alert": "OK",
      "vis_m": 9999,
      "fzfg": false,
      "metar_trigger": false,
      "taf_trigger": false,
      "metar": "METAR ENTO 160650Z 06004KT 340V110 9999 FEW026 14/09 Q1008 NOSIG",
      "taf": "TAF ENTO 160500Z 1606/1706 01008KT 9999 FEW040"
    },
    {
      "icao": "ENVA",
      "alert": "OK",
      "vis_m": 9999,
      "fzfg": false,
      "metar_trigger": false,
      "taf_trigger": false,
      "metar": "METAR ENVA 160650Z 28009KT 9999 FEW038 SCT055 12/07 Q1011 NOSIG RMK WIND 670FT 30009KT",
      "taf": "TAF ENVA 160500Z 1606/1706 30008KT 9999 FEW020 BKN030"
    },
    {
      "icao": "ENZV",
      "alert": "OK",
      "vis_m": 9999,
      "fzfg": false,
      "metar_trigger": false,
      "taf_trigger": false,
      "metar": "METAR ENZV 160650Z 34011KT 9999 BKN032 12/06 Q1011 NOSIG",
      "taf": "TAF ENZV 160500Z 1606/1706 33012KT 9999 FEW018 BKN030"
    },
    {
      "icao": "EPGD",
      "alert": "OK",
      "vis_m": 9999,
      "fzfg": false,
      "metar_trigger": false,
      "taf_trigger": false,
      "metar": "METAR EPGD 160700Z 28017KT 9999 BKN017 15/11 Q1009",
      "taf": "TAF EPGD 160530Z 1606/1706 28012KT 9999 BKN030"
    },
    {
      "icao": "EPKK",
      "alert": "OK",
      "vis_m": 9999,
      "fzfg": false,
      "metar_trigger": false,
      "taf_trigger": false,
      "metar": "METAR EPKK 160700Z 26014KT 9999 SCT033 16/08 Q1016",
      "taf": "TAF EPKK 160530Z 1606/1706 27012KT 9999 BKN060"
    },
    {
      "icao": "EPKT",
      "alert": "OK",
      "vis_m": 9999,
      "fzfg": false,
      "metar_trigger": false,
      "taf_trigger": false,
      "metar": "METAR EPKT 160700Z 27012KT 9999 BKN030 13/07 Q1016",
      "taf": "TAF EPKT 160530Z 1606/1706 27010KT CAVOK"
    },
    {
      "icao": "EPLB",
      "alert": "OK",
      "vis_m": 9999,
      "fzfg": false,
      "metar_trigger": false,
      "taf_trigger": false,
      "metar": "METAR EPLB 160700Z 27015KT 240V300 9999 BKN024 16/10 Q1012",
      "taf": "TAF EPLB 160530Z 1606/1706 25012KT 9999 SCT040"
    },
    {
      "icao": "EPMO",
      "alert": "OK",
      "vis_m": 9999,
      "fzfg": false,
      "metar_trigger": false,
      "taf_trigger": false,
      "metar": "METAR EPMO 160700Z 25016KT 9999 BKN016 OVC021 14/11 Q1012",
      "taf": "TAF EPMO 160530Z 1606/1706 26011KT 9999 SCT040"
    },
    {
      "icao": "EPPO",
      "alert": "OK",
      "vis_m": 9999,
      "fzfg": false,
      "metar_trigger": false,
      "taf_trigger": false,
      "metar": "METAR EPPO 160700Z 27011KT 9999 BKN022 OVC030 12/07 Q1014",
      "taf": "TAF EPPO 160530Z 1606/1706 27010KT 9999 OVC030"
    },
    {
      "icao": "EPRA",
      "alert": "OK",
      "vis_m": 9999,
      "fzfg": false,
      "metar_trigger": false,
      "taf_trigger": false,
      "metar": "METAR EPRA 160700Z 28015KT 250V310 9999 BKN021 14/09 Q1013",
      "taf": "TAF EPRA 160530Z 1606/1615 27012KT 9999 SCT020"
    },
    {
      "icao": "EPRZ",
      "alert": "OK",
      "vis_m": 9999,
      "fzfg": false,
      "metar_trigger": false,
      "taf_trigger": false,
      "metar": "METAR EPRZ 160700Z 26016KT 9999 FEW032 16/08 Q1015",
      "taf": "TAF EPRZ 160530Z 1606/1706 27013KT CAVOK"
    },
    {
      "icao": "EPSC",
      "alert": "OK",
      "vis_m": 9999,
      "fzfg": false,
      "metar_trigger": false,
      "taf_trigger": false,
      "metar": "METAR EPSC 160700Z 25007KT 9999 OVC025 12/08 Q1013",
      "taf": "TAF EPSC 160530Z 1606/1706 27011KT 9999 BKN025"
    },
    {
      "icao": "EPSY",
      "alert": "OK",
      "vis_m": 9999,
      "fzfg": false,
      "metar_trigger": false,
      "taf_trigger": false,
      "metar": "METAR EPSY 160700Z 25008KT 220V310 9999 BKN013 BKN033 14/12 Q1009",
      "taf": "TAF EPSY 160530Z 1606/1615 25010KT 9999 BKN020"
    },
    {
      "icao": "EPWA",
      "alert": "OK",
      "vis_m": 9999,
      "fzfg": false,
      "metar_trigger": false,
      "taf_trigger": false,
      "metar": "METAR EPWA 160700Z 26013KT 9999 BKN017 13/10 Q1012 NOSIG",
      "taf": "TAF EPWA 160530Z 1606/1706 25011KT 9999 SCT040"
    },
    {
      "icao": "EPWR",
      "alert": "OK",
      "vis_m": 9999,
      "fzfg": false,
      "metar_trigger": false,
      "taf_trigger": false,
      "metar": "METAR EPWR 160700Z 27011KT 9999 FEW027 BKN045 15/08 Q1016",
      "taf": "TAF EPWR 160530Z 1606/1706 28010KT 9999 SCT045"
    },
    {
      "icao": "ESGG",
      "alert": "OK",
      "vis_m": 9999,
      "fzfg": false,
      "metar_trigger": false,
      "taf_trigger": false,
      "metar": "METAR ESGG 160650Z 24007KT 9999 OVC012 12/09 Q1009",
      "taf": "TAF ESGG 160530Z 1606/1706 25007KT 9999 BKN012"
    },
    {
      "icao": "ESKN",
      "alert": "OK",
      "vis_m": 9999,
      "fzfg": false,
      "metar_trigger": false,
      "taf_trigger": false,
      "metar": "METAR ESKN 160650Z 32009KT 280V350 9999 -RA SCT009 BKN011 12/12 Q1005",
      "taf": "TAF ESKN 160530Z 1606/1706 32008KT 9999 -RA SCT012 BKN040"
    },
    {
      "icao": "ESMS",
      "alert": "OK",
      "vis_m": 9999,
      "fzfg": false,
      "metar_trigger": false,
      "taf_trigger": false,
      "metar": "METAR ESMS 160650Z 29008KT 9999 SCT020 BKN035 13/09 Q1010",
      "taf": "TAF ESMS 160527Z 1606/1706 29010KT 9999 BKN025"
    },
    {
      "icao": "ESSA",
      "alert": "OK",
      "vis_m": 9999,
      "fzfg": false,
      "metar_trigger": false,
      "taf_trigger": false,
      "metar": "METAR ESSA 160650Z 34010KT 9999 OVC007 10/08 Q1003 NOSIG",
      "taf": "TAF ESSA 160530Z 1606/1706 34012KT 9999 -RA BKN006"
    },
    {
      "icao": "EYKA",
      "alert": "OK",
      "vis_m": 9999,
      "fzfg": false,
      "metar_trigger": false,
      "taf_trigger": false,
      "metar": "METAR EYKA 160650Z 26011KT 9999 SCT013 BKN018 14/12 Q1004",
      "taf": ""
    },
    {
      "icao": "EYPA",
      "alert": "OK",
      "vis_m": 9999,
      "fzfg": false,
      "metar_trigger": false,
      "taf_trigger": false,
      "metar": "METAR EYPA 160650Z 28006G16KT 220V030 9999 -SHRA SCT014 BKN018 BKN026CB 14/13 Q1003",
      "taf": "TAF EYPA 160500Z 1606/1706 27010KT 9000 BKN025"
    },
    {
      "icao": "EYVI",
      "alert": "OK",
      "vis_m": 9999,
      "fzfg": false,
      "metar_trigger": false,
      "taf_trigger": false,
      "metar": "METAR EYVI 160650Z 28009KT 9999 FEW017 SCT028 13/09 Q1005 NOSIG",
      "taf": "TAF EYVI 160500Z 1606/1706 24012KT 9000 SCT015CB BKN020"
    },
    {
      "icao": "GCFV",
      "alert": "OK",
      "vis_m": 9999,
      "fzfg": false,
      "metar_trigger": false,
      "taf_trigger": false,
      "metar": "METAR GCFV 160700Z 03012KT 9999 FEW020 BKN030 21/16 Q1018",
      "taf": "TAF GCFV 160200Z 1603/1703 02014KT 9999 BKN025 TX26/1614Z TN19/1606Z"
    },
    {
      "icao": "GCLP",
      "alert": "OK",
      "vis_m": 9999,
      "fzfg": false,
      "metar_trigger": false,
      "taf_trigger": false,
      "metar": "METAR GCLP 160700Z 01018KT 9999 SCT030 20/15 Q1018 NOSIG",
      "taf": "TAF GCLP 160200Z 1603/1703 01018KT 9999 BKN025 TX25/1614Z TN19/1606Z"
    },
    {
      "icao": "GCTS",
      "alert": "OK",
      "vis_m": 9999,
      "fzfg": false,
      "metar_trigger": false,
      "taf_trigger": false,
      "metar": "METAR GCTS 160700Z 36006KT 9999 FEW020 19/14 Q1019 NOSIG",
      "taf": "TAF GCTS 160200Z 1603/1703 03006KT 9999 SCT025 TX25/1614Z TN18/1606Z"
    },
    {
      "icao": "GMAD",
      "alert": "OK",
      "vis_m": 8000,
      "fzfg": false,
      "metar_trigger": false,
      "taf_trigger": false,
      "metar": "METAR GMAD 160700Z 24004KT 210V300 8000 OVC013 20/15 Q1014 NOSIG",
      "taf": "TAF GMAD 160500Z 1606/1712 11003KT 8000 BKN010"
    },
    {
      "icao": "GMMN",
      "alert": "OK",
      "vis_m": 9999,
      "fzfg": false,
      "metar_trigger": false,
      "taf_trigger": false,
      "metar": "METAR GMMN 160700Z 36006KT 340V040 9999 BKN020 20/16 Q1016 NOSIG",
      "taf": "TAF GMMN 160500Z 1606/1712 04008KT 9999 BKN020"
    },
    {
      "icao": "GMMX",
      "alert": "OK",
      "vis_m": 8000,
      "fzfg": false,
      "metar_trigger": false,
      "taf_trigger": false,
      "metar": "METAR GMMX 160700Z VRB02KT 8000 BKN026 19/16 Q1016 NOSIG",
      "taf": "TAF GMMX 160500Z 1606/1712 06006KT 8000 NSC"
    },
    {
      "icao": "HEGN",
      "alert": "OK",
      "vis_m": 9999,
      "fzfg": false,
      "metar_trigger": false,
      "taf_trigger": false,
      "metar": "METAR HEGN 160600Z 35017KT CAVOK 29/17 Q1012 NOSIG NOSIG",
      "taf": "TAF HEGN 160500Z 1606/1712 34018KT CAVOK"
    },
    {
      "icao": "HEMA",
      "alert": "OK",
      "vis_m": 9999,
      "fzfg": false,
      "metar_trigger": false,
      "taf_trigger": false,
      "metar": "METAR HEMA 160600Z 33020KT CAVOK 31/16 Q1011 NOSIG",
      "taf": "TAF HEMA 160500Z 1606/1712 36018KT CAVOK"
    },
    {
      "icao": "HESH",
      "alert": "OK",
      "vis_m": 9999,
      "fzfg": false,
      "metar_trigger": false,
      "taf_trigger": false,
      "metar": "METAR HESH 160600Z 34014KT CAVOK 30/18 Q1012 NOSIG",
      "taf": "TAF HESH 160500Z 1606/1712 03015KT CAVOK"
    },
    {
      "icao": "HESX",
      "alert": "OK",
      "vis_m": 9999,
      "fzfg": false,
      "metar_trigger": false,
      "taf_trigger": false,
      "metar": "METAR HESX 160600Z 05009KT 9999 SCT025 23/18 Q1015 NOSIG",
      "taf": "TAF HESX 160500Z 1606/1712 36010KT CAVOK"
    },
    {
      "icao": "LATI",
      "alert": "OK",
      "vis_m": 9999,
      "fzfg": false,
      "metar_trigger": false,
      "taf_trigger": false,
      "metar": "METAR LATI 160650Z VRB02KT 9999 SCT160 25/14 Q1016 NOSIG",
      "taf": "TAF LATI 160500Z 1606/1706 VRB03KT CAVOK TX32/1611Z TN17/1704Z"
    },
    {
      "icao": "LBPD",
      "alert": "OK",
      "vis_m": 9999,
      "fzfg": false,
      "metar_trigger": false,
      "taf_trigger": false,
      "metar": "METAR LBPD 160700Z AUTO 30005KT 270V340 9999 BKN150/// 23/14 Q1017 NOSIG",
      "taf": "TAF LBPD 160500Z 1606/1706 VRB03KT 9999 SCT070"
    },
    {
      "icao": "LBSF",
      "alert": "OK",
      "vis_m": 9999,
      "fzfg": false,
      "metar_trigger": false,
      "taf_trigger": false,
      "metar": "METAR LBSF 160700Z 32006KT 240V010 CAVOK 19/11 Q1020 NOSIG",
      "taf": "TAF LBSF 160500Z 1606/1706 30010KT 9999 SCT070"
    },
    {
      "icao": "LBWN",
      "alert": "OK",
      "vis_m": 9999,
      "fzfg": false,
      "metar_trigger": false,
      "taf_trigger": false,
      "metar": "METAR LBWN 160700Z 26008KT 9999 FEW017 SCT040 21/19 Q1017 NOSIG",
      "taf": "TAF LBWN 160500Z 1606/1706 33010KT 9999 SCT040"
    },
    {
      "icao": "LCLK",
      "alert": "OK",
      "vis_m": 9999,
      "fzfg": false,
      "metar_trigger": false,
      "taf_trigger": false,
      "metar": "METAR LCLK 160700Z 17007KT 140V200 9999 FEW010 27/23 Q1014 NOSIG",
      "taf": "TAF LCLK 160530Z 1606/1706 15005KT 9999 FEW025"
    },
    {
      "icao": "LCPH",
      "alert": "OK",
      "vis_m": 9999,
      "fzfg": false,
      "metar_trigger": false,
      "taf_trigger": false,
      "metar": "METAR LCPH 160700Z 27009KT 250V320 9999 FEW020 26/22 Q1015 NOSIG",
      "taf": "TAF LCPH 160530Z 1606/1706 24004KT 9999 FEW020"
    },
    {
      "icao": "LEAL",
      "alert": "OK",
      "vis_m": 9999,
      "fzfg": false,
      "metar_trigger": false,
      "taf_trigger": false,
      "metar": "METAR LEAL 160700Z VRB02KT 9999 FEW015 25/20 Q1017 NOSIG",
      "taf": "TAF LEAL 160500Z 1606/1706 09009KT 9999 FEW020 TX29/1612Z TN20/1705Z"
    },
    {
      "icao": "LEBB",
      "alert": "OK",
      "vis_m": 9999,
      "fzfg": false,
      "metar_trigger": false,
      "taf_trigger": false,
      "metar": "METAR LEBB 160700Z 04003KT 020V080 9999 FEW019 BKN027 20/16 Q1020 NOSIG",
      "taf": "TAF LEBB 160500Z 1606/1706 34009KT 9999 SCT015 BKN025 TX26/1614Z TN17/1704Z"
    },
    {
      "icao": "LEBL",
      "alert": "OK",
      "vis_m": 9999,
      "fzfg": false,
      "metar_trigger": false,
      "taf_trigger": false,
      "metar": "METAR LEBL 160700Z 32007KT 280V360 CAVOK 26/13 Q1017 NOSIG",
      "taf": "TAF LEBL 160500Z 1606/1706 32010KT CAVOK TX30/1612Z TN22/1606Z"
    },
    {
      "icao": "LECH",
      "alert": "OK",
      "vis_m": 9000,
      "fzfg": false,
      "metar_trigger": false,
      "taf_trigger": false,
      "metar": "METAR LECH 160700Z AUTO VRB02KT 9000 NCD 21/11 Q1018",
      "taf": "TAF LECH 160500Z 1606/1706 VRB04KT CAVOK TX33/1613Z TN17/1705Z"
    },
    {
      "icao": "LEMD",
      "alert": "OK",
      "vis_m": 9999,
      "fzfg": false,
      "metar_trigger": false,
      "taf_trigger": false,
      "metar": "METAR LEMD 160700Z 35006KT CAVOK 21/12 Q1019 NOSIG",
      "taf": "TAF LEMD 160500Z 1606/1712 VRB05KT CAVOK TX35/1616Z TN17/1606Z"
    },
    {
      "icao": "LEMG",
      "alert": "OK",
      "vis_m": 9999,
      "fzfg": false,
      "metar_trigger": false,
      "taf_trigger": false,
      "metar": "METAR LEMG 160700Z 15004KT 080V180 9999 FEW010 23/20 Q1015 NOSIG",
      "taf": "TAF LEMG 160500Z 1606/1706 12008KT CAVOK TX30/1613Z TN22/1606Z"
    },
    {
      "icao": "LEVC",
      "alert": "OK",
      "vis_m": 9999,
      "fzfg": false,
      "metar_trigger": false,
      "taf_trigger": false,
      "metar": "METAR LEVC 160700Z 27003KT 200V340 CAVOK 24/13 Q1017 NOSIG",
      "taf": "TAF LEVC 160500Z 1606/1706 VRB04KT CAVOK TX32/1612Z TN19/1705Z"
    },
    {
      "icao": "LEXJ",
      "alert": "OK",
      "vis_m": 9999,
      "fzfg": false,
      "metar_trigger": false,
      "taf_trigger": false,
      "metar": "METAR LEXJ 160700Z VRB02KT 9999 OVC014 18/15 Q1019",
      "taf": "TAF LEXJ 160200Z 1603/1703 27006KT 9000 FEW010 BKN016 TX23/1612Z TN17/1703Z"
    },
    {
      "icao": "LEZG",
      "alert": "OK",
      "vis_m": 9999,
      "fzfg": false,
      "metar_trigger": false,
      "taf_trigger": false,
      "metar": "METAR LEZG 160700Z 30005KT CAVOK 22/13 Q1018 NOSIG",
      "taf": "TAF LEZG 160500Z 1606/1706 30008KT CAVOK TX36/1615Z TN22/1705Z"
    },
    {
      "icao": "LEZL",
      "alert": "OK",
      "vis_m": 9999,
      "fzfg": false,
      "metar_trigger": false,
      "taf_trigger": false,
      "metar": "METAR LEZL 160700Z VRB02KT 9999 FEW010 22/19 Q1015 NOSIG",
      "taf": "TAF LEZL 160200Z 1603/1703 22008KT CAVOK TX37/1615Z TN19/1606Z"
    },
    {
      "icao": "LFBD",
      "alert": "OK",
      "vis_m": 9999,
      "fzfg": false,
      "metar_trigger": false,
      "taf_trigger": false,
      "metar": "METAR LFBD 160700Z AUTO 23007KT 190V260 9999 OVC020 20/16 Q1018 NOSIG",
      "taf": ""
    },
    {
      "icao": "LFLL",
      "alert": "OK",
      "vis_m": 9999,
      "fzfg": false,
      "metar_trigger": false,
      "taf_trigger": false,
      "metar": "METAR LFLL 160700Z 00000KT CAVOK 21/10 Q1018 NOSIG",
      "taf": "TAF LFLL 160500Z 1606/1712 VRB03KT CAVOK"
    },
    {
      "icao": "LFLS",
      "alert": "OK",
      "vis_m": 9999,
      "fzfg": false,
      "metar_trigger": false,
      "taf_trigger": false,
      "metar": "METAR LFLS 160700Z AUTO 07007KT CAVOK 22/11 Q1018 NOSIG",
      "taf": "TAF LFLS 160200Z 1603/1703 09007KT CAVOK"
    },
    {
      "icao": "LFMN",
      "alert": "OK",
      "vis_m": 9999,
      "fzfg": false,
      "metar_trigger": false,
      "taf_trigger": false,
      "metar": "METAR LFMN 160700Z 09004KT CAVOK 23/16 Q1016 NOSIG",
      "taf": "TAF LFMN 160200Z 1603/1709 34005KT CAVOK"
    },
    {
      "icao": "LFOB",
      "alert": "OK",
      "vis_m": 9999,
      "fzfg": false,
      "metar_trigger": false,
      "taf_trigger": false,
      "metar": "METAR LFOB 160700Z AUTO 31010KT CAVOK 19/17 Q1014 TEMPO BKN008",
      "taf": "TAF LFOB 160500Z 1606/1706 31005KT CAVOK"
    },
    {
      "icao": "LFPO",
      "alert": "OK",
      "vis_m": 9999,
      "fzfg": false,
      "metar_trigger": false,
      "taf_trigger": false,
      "metar": "METAR LFPO 160700Z 19005KT CAVOK 22/13 Q1013 NOSIG",
      "taf": "TAF LFPO 160500Z 1606/1712 VRB03KT CAVOK"
    },
    {
      "icao": "LFSB",
      "alert": "OK",
      "vis_m": 9999,
      "fzfg": false,
      "metar_trigger": false,
      "taf_trigger": false,
      "metar": "METAR LFSB 160700Z AUTO 19005KT 160V220 9999 ///TCU 18/12 Q1019 NOSIG",
      "taf": "TAF LFSB 160500Z 1606/1706 16005KT CAVOK"
    },
    {
      "icao": "LGAV",
      "alert": "OK",
      "vis_m": 9999,
      "fzfg": false,
      "metar_trigger": false,
      "taf_trigger": false,
      "metar": "METAR LGAV 160650Z VRB03KT CAVOK 26/17 Q1015 NOSIG",
      "taf": "TAF LGAV 160500Z 1606/1706 VRB05KT 9999 FEW025"
    },
    {
      "icao": "LGTS",
      "alert": "OK",
      "vis_m": 9999,
      "fzfg": false,
      "metar_trigger": false,
      "taf_trigger": false,
      "metar": "METAR LGTS 160650Z 29006KT 9999 FEW025 25/18 Q1015 NOSIG",
      "taf": "TAF LGTS 160500Z 1606/1706 VRB03KT 9999 FEW030"
    },
    {
      "icao": "LHBP",
      "alert": "OK",
      "vis_m": 9999,
      "fzfg": false,
      "metar_trigger": false,
      "taf_trigger": false,
      "metar": "METAR LHBP 160700Z 26004KT 230V310 CAVOK 20/13 Q1018 NOSIG",
      "taf": "TAF LHBP 160515Z 1606/1706 22006KT CAVOK"
    },
    {
      "icao": "LHDC",
      "alert": "OK",
      "vis_m": 9999,
      "fzfg": false,
      "metar_trigger": false,
      "taf_trigger": false,
      "metar": "METAR LHDC 160645Z AUTO 19009KT 160V230 9999 FEW019 19/13 Q1018 NOSIG",
      "taf": "TAF LHDC 160515Z 1606/1615 21006KT CAVOK"
    },
    {
      "icao": "LIBD",
      "alert": "OK",
      "vis_m": 9999,
      "fzfg": false,
      "metar_trigger": false,
      "taf_trigger": false,
      "metar": "METAR LIBD 160650Z 30006KT 260V340 CAVOK 27/11 Q1015",
      "taf": "TAF LIBD 160500Z 1606/1706 VRB05KT CAVOK"
    },
    {
      "icao": "LIBG",
      "alert": "OK",
      "vis_m": 9999,
      "fzfg": false,
      "metar_trigger": false,
      "taf_trigger": false,
      "metar": "METAR LIBG 160650Z AUTO VRB02KT 9999 FEW013/// BKN120/// 25/20 Q1015",
      "taf": "TAF LIBG 160500Z 1606/1706 VRB05KT CAVOK"
    },
    {
      "icao": "LIBP",
      "alert": "OK",
      "vis_m": 9999,
      "fzfg": false,
      "metar_trigger": false,
      "taf_trigger": false,
      "metar": "METAR LIBP 160650Z AUTO VRB01KT 9999 NCD 25/19 Q1016",
      "taf": "TAF LIBP 160500Z 1606/1706 VRB05KT 9999 FEW030"
    },
    {
      "icao": "LIBR",
      "alert": "OK",
      "vis_m": 9999,
      "fzfg": false,
      "metar_trigger": false,
      "taf_trigger": false,
      "metar": "METAR LIBR 160650Z 22005KT 170V270 CAVOK 25/21 Q1015",
      "taf": "TAF LIBR 160500Z 1606/1706 18010KT CAVOK"
    },
    {
      "icao": "LICA",
      "alert": "OK",
      "vis_m": 9999,
      "fzfg": false,
      "metar_trigger": false,
      "taf_trigger": false,
      "metar": "METAR LICA 160650Z AUTO 23007KT 9999 FEW021/// 26/21 Q1015",
      "taf": "TAF LICA 160500Z 1606/1706 VRB05KT CAVOK"
    },
    {
      "icao": "LICC",
      "alert": "OK",
      "vis_m": 9999,
      "fzfg": false,
      "metar_trigger": false,
      "taf_trigger": false,
      "metar": "METAR LICC 160650Z 25008KT 9999 SCT100 26/14 Q1015",
      "taf": "TAF LICC 160500Z 1606/1706 25014KT 9999 FEW040"
    },
    {
      "icao": "LICJ",
      "alert": "OK",
      "vis_m": 9999,
      "fzfg": false,
      "metar_trigger": false,
      "taf_trigger": false,
      "metar": "METAR LICJ 160650Z 23005KT CAVOK 25/19 Q1016",
      "taf": "TAF LICJ 160500Z 1606/1706 VRB05KT 9999 FEW040"
    },
    {
      "icao": "LIMC",
      "alert": "OK",
      "vis_m": 9999,
      "fzfg": false,
      "metar_trigger": false,
      "taf_trigger": false,
      "metar": "METAR LIMC 160650Z 08005KT 030V110 9999 FEW085 23/17 Q1018 NOSIG",
      "taf": "TAF LIMC 160500Z 1606/1712 VRB06KT CAVOK"
    },
    {
      "icao": "LIME",
      "alert": "OK",
      "vis_m": 9999,
      "fzfg": false,
      "metar_trigger": false,
      "taf_trigger": false,
      "metar": "METAR LIME 160650Z 09003KT 040V160 CAVOK 22/15 Q1018 NOSIG",
      "taf": "TAF LIME 160500Z 1606/1706 VRB05KT CAVOK"
    },
    {
      "icao": "LIMF",
      "alert": "OK",
      "vis_m": 9999,
      "fzfg": false,
      "metar_trigger": false,
      "taf_trigger": false,
      "metar": "METAR LIMF 160650Z 05005KT CAVOK 22/17 Q1018",
      "taf": "TAF LIMF 160500Z 1606/1706 VRB06KT CAVOK"
    },
    {
      "icao": "LIMJ",
      "alert": "OK",
      "vis_m": 9999,
      "fzfg": false,
      "metar_trigger": false,
      "taf_trigger": false,
      "metar": "METAR LIMJ 160650Z 29003KT 250V020 CAVOK 23/17 Q1016",
      "taf": "TAF LIMJ 160500Z 1606/1706 VRB05KT CAVOK"
    },
    {
      "icao": "LIPE",
      "alert": "OK",
      "vis_m": 9999,
      "fzfg": false,
      "metar_trigger": false,
      "taf_trigger": false,
      "metar": "METAR LIPE 160650Z VRB01KT 9999 BKN012 BKN025 23/20 Q1016",
      "taf": "TAF LIPE 160500Z 1606/1706 VRB05KT CAVOK"
    },
    {
      "icao": "LIPH",
      "alert": "OK",
      "vis_m": 9999,
      "fzfg": false,
      "metar_trigger": false,
      "taf_trigger": false,
      "metar": "METAR LIPH 160650Z 04005KT 010V070 CAVOK 23/15 Q1017",
      "taf": "TAF LIPH 160500Z 1606/1706 VRB05KT 9999 SCT045"
    },
    {
      "icao": "LIPQ",
      "alert": "OK",
      "vis_m": 9999,
      "fzfg": false,
      "metar_trigger": false,
      "taf_trigger": false,
      "metar": "METAR LIPQ 160650Z 03004KT 350V060 CAVOK 23/14 Q1016",
      "taf": "TAF LIPQ 160500Z 1606/1706 VRB05KT 9999 FEW050"
    },
    {
      "icao": "LIPR",
      "alert": "OK",
      "vis_m": 9999,
      "fzfg": false,
      "metar_trigger": false,
      "taf_trigger": false,
      "metar": "METAR LIPR 160650Z 35005KT 310V030 9999 FEW020 24/20 Q1016",
      "taf": "TAF LIPR 160500Z 1606/1706 VRB05KT CAVOK"
    },
    {
      "icao": "LIPX",
      "alert": "OK",
      "vis_m": 9999,
      "fzfg": false,
      "metar_trigger": false,
      "taf_trigger": false,
      "metar": "METAR LIPX 160650Z VRB02KT CAVOK 25/15 Q1017",
      "taf": "TAF LIPX 160500Z 1606/1706 VRB05KT CAVOK"
    },
    {
      "icao": "LIPY",
      "alert": "OK",
      "vis_m": 9999,
      "fzfg": false,
      "metar_trigger": false,
      "taf_trigger": false,
      "metar": "METAR LIPY 160650Z AUTO 36005KT 9999 NCD 25/18 Q1016",
      "taf": "TAF LIPY 160500Z 1606/1706 VRB06KT CAVOK"
    },
    {
      "icao": "LIPZ",
      "alert": "OK",
      "vis_m": 9999,
      "fzfg": false,
      "metar_trigger": false,
      "taf_trigger": false,
      "metar": "METAR LIPZ 160650Z 05003KT 340V100 CAVOK 23/15 Q1017 NOSIG",
      "taf": "TAF LIPZ 160500Z 1606/1712 03007KT 9999 FEW045"
    },
    {
      "icao": "LIRF",
      "alert": "OK",
      "vis_m": 9999,
      "fzfg": false,
      "metar_trigger": false,
      "taf_trigger": false,
      "metar": "METAR LIRF 160650Z 05005KT 010V070 CAVOK 24/19 Q1015 NOSIG",
      "taf": "TAF LIRF 160500Z 1606/1712 VRB05KT 9999 FEW020"
    },
    {
      "icao": "LIRN",
      "alert": "OK",
      "vis_m": 9999,
      "fzfg": false,
      "metar_trigger": false,
      "taf_trigger": false,
      "metar": "METAR LIRN 160650Z VRB02KT 9999 FEW020 25/19 Q1016 NOSIG",
      "taf": "TAF LIRN 160500Z 1606/1706 VRB05KT CAVOK"
    },
    {
      "icao": "LIRP",
      "alert": "OK",
      "vis_m": 9999,
      "fzfg": false,
      "metar_trigger": false,
      "taf_trigger": false,
      "metar": "METAR LIRP 160645Z 10002KT CAVOK 22/17 Q1016 NOSIG",
      "taf": "TAF LIRP 160500Z 1606/1706 VRB03KT CAVOK"
    },
    {
      "icao": "LIRZ",
      "alert": "OK",
      "vis_m": 9999,
      "fzfg": false,
      "metar_trigger": false,
      "taf_trigger": false,
      "metar": "METAR LIRZ 160650Z AUTO 02003KT 330V080 9999 NCD 22/15 Q1017",
      "taf": "TAF LIRZ 160500Z 1606/1706 23008KT 9999 FEW035"
    },
    {
      "icao": "LJLJ",
      "alert": "OK",
      "vis_m": 9999,
      "fzfg": false,
      "metar_trigger": false,
      "taf_trigger": false,
      "metar": "METAR LJLJ 160700Z 02003KT 320V060 9999 FEW013 18/12 Q1019 NOSIG",
      "taf": "TAF LJLJ 160500Z 1606/1706 32006KT 2000 PRFG BR SCT001"
    },
    {
      "icao": "LKMT",
      "alert": "OK",
      "vis_m": 9999,
      "fzfg": false,
      "metar_trigger": false,
      "taf_trigger": false,
      "metar": "METAR LKMT 160700Z 28011KT 230V300 9999 FEW039 BKN045 16/08 Q1017 NOSIG",
      "taf": "TAF LKMT 160500Z 1606/1706 23010KT CAVOK"
    },
    {
      "icao": "LKPR",
      "alert": "OK",
      "vis_m": 9999,
      "fzfg": false,
      "metar_trigger": false,
      "taf_trigger": false,
      "metar": "METAR LKPR 160700Z 24010KT 9999 FEW027 16/09 Q1017 NOSIG",
      "taf": "TAF LKPR 160500Z 1606/1712 25008KT CAVOK"
    },
    {
      "icao": "LLBG",
      "alert": "OK",
      "vis_m": 9999,
      "fzfg": false,
      "metar_trigger": false,
      "taf_trigger": false,
      "metar": "METAR LLBG 160650Z 27004KT 220V360 9999 SCT030 27/18 Q1015 NOSIG",
      "taf": "TAF LLBG 160511Z 1606/1706 VRB04KT 9999 SCT030 TX30/1611Z TN20/1703Z"
    },
    {
      "icao": "LMML",
      "alert": "OK",
      "vis_m": 9999,
      "fzfg": false,
      "metar_trigger": false,
      "taf_trigger": false,
      "metar": "METAR LMML 160645Z 15005KT 120V180 CAVOK 24/21 Q1015 NOSIG",
      "taf": "TAF LMML 160500Z 1606/1706 VRB06KT 9999 FEW015"
    },
    {
      "icao": "LOWW",
      "alert": "OK",
      "vis_m": 9999,
      "fzfg": false,
      "metar_trigger": false,
      "taf_trigger": false,
      "metar": "METAR LOWW 160650Z VRB02KT CAVOK 19/09 Q1019 NOSIG",
      "taf": "TAF LOWW 160515Z 1606/1712 30004KT 9999 FEW050 TX26/1712Z TN16/1703Z"
    },
    {
      "icao": "LPFR",
      "alert": "OK",
      "vis_m": 9999,
      "fzfg": false,
      "metar_trigger": false,
      "taf_trigger": false,
      "metar": "METAR LPFR 160700Z 07003KT 040V100 CAVOK 23/17 Q1015",
      "taf": "TAF LPFR 160500Z 1606/1706 VRB02KT CAVOK"
    },
    {
      "icao": "LPMA",
      "alert": "OK",
      "vis_m": 9999,
      "fzfg": false,
      "metar_trigger": false,
      "taf_trigger": false,
      "metar": "METAR LPMA 160700Z 03004KT 350V060 9999 -SHRA SCT014 SCT030 19/18 Q1020",
      "taf": "TAF LPMA 160500Z 1606/1706 VRB05KT 9999 SCT015"
    },
    {
      "icao": "LPPR",
      "alert": "OK",
      "vis_m": 5000,
      "fzfg": false,
      "metar_trigger": false,
      "taf_trigger": false,
      "metar": "METAR LPPR 160700Z VRB02KT 5000 BR OVC004 17/15 Q1018",
      "taf": "TAF LPPR 160500Z 1606/1706 VRB02KT 6000 BKN006"
    },
    {
      "icao": "LPPS",
      "alert": "OK",
      "vis_m": 9999,
      "fzfg": false,
      "metar_trigger": false,
      "taf_trigger": false,
      "metar": "METAR LPPS 160700Z 32008KT 9999 FEW005 SCT010 BKN025 20/18 Q1020",
      "taf": "TAF LPPS 160500Z 1606/1712 35008KT 9999 FEW014 BKN030"
    },
    {
      "icao": "LPPT",
      "alert": "OK",
      "vis_m": 9999,
      "fzfg": false,
      "metar_trigger": false,
      "taf_trigger": false,
      "metar": "METAR LPPT 160700Z 31008KT 260V350 9999 FEW012 17/14 Q1016",
      "taf": "TAF LPPT 160500Z 1606/1712 33008KT 9999 FEW012"
    },
    {
      "icao": "LQBK",
      "alert": "OK",
      "vis_m": 9999,
      "fzfg": false,
      "metar_trigger": false,
      "taf_trigger": false,
      "metar": "METAR LQBK 160700Z 10005KT 060V120 9999 SCT007 BKN010 16/13 Q1020 BECMG NSC",
      "taf": "TAF LQBK 160500Z 1606/1706 34005KT CAVOK TX26/1614Z TN14/1703Z"
    },
    {
      "icao": "LQSA",
      "alert": "OK",
      "vis_m": 9999,
      "fzfg": false,
      "metar_trigger": false,
      "taf_trigger": false,
      "metar": "METAR LQSA 160700Z VRB01KT 9999 FEW022 BKN045 17/14 Q1020 NOSIG",
      "taf": "TAF LQSA 160500Z 1606/1706 VRB02KT 9999 SCT050 TX26/1613Z TN15/1704Z"
    },
    {
      "icao": "LQTZ",
      "alert": "OK",
      "vis_m": 9999,
      "fzfg": false,
      "metar_trigger": false,
      "taf_trigger": false,
      "metar": "METAR LQTZ 160700Z VRB02KT CAVOK 19/16 Q1020",
      "taf": "TAF LQTZ 160500Z 1606/1706 03005KT 9999 FEW050 TX26/1613Z TN13/1703Z"
    },
    {
      "icao": "LRBC",
      "alert": "OK",
      "vis_m": 9999,
      "fzfg": false,
      "metar_trigger": false,
      "taf_trigger": false,
      "metar": "METAR LRBC 160700Z 28006KT 250V310 CAVOK 21/09 Q1017",
      "taf": "TAF LRBC 160500Z 1606/1615 VRB04KT CAVOK"
    },
    {
      "icao": "LRBS",
      "alert": "OK",
      "vis_m": 9999,
      "fzfg": false,
      "metar_trigger": false,
      "taf_trigger": false,
      "metar": "METAR LRBS 160700Z 03004KT 330V090 9999 FEW040 22/13 Q1018 NOSIG",
      "taf": "TAF LRBS 160500Z 1606/1706 VRB04KT CAVOK"
    },
    {
      "icao": "LRBV",
      "alert": "OK",
      "vis_m": 9999,
      "fzfg": false,
      "metar_trigger": false,
      "taf_trigger": false,
      "metar": "METAR LRBV 160700Z VRB03KT 9999 FEW038 17/09 Q1020",
      "taf": "TAF LRBV 160500Z 1606/1615 VRB04KT 9999 BKN060"
    },
    {
      "icao": "LRCL",
      "alert": "OK",
      "vis_m": 9999,
      "fzfg": false,
      "metar_trigger": false,
      "taf_trigger": false,
      "metar": "METAR LRCL 160700Z 19004KT 100V260 9999 FEW030 20/09 Q1018",
      "taf": "TAF LRCL 160500Z 1606/1615 VRB04KT CAVOK"
    },
    {
      "icao": "LRCV",
      "alert": "OK",
      "vis_m": 9999,
      "fzfg": false,
      "metar_trigger": false,
      "taf_trigger": false,
      "metar": "METAR LRCV 160700Z 05005KT 010V090 CAVOK 21/12 Q1018",
      "taf": "TAF LRCV 160500Z 1606/1615 28010KT CAVOK"
    },
    {
      "icao": "LRIA",
      "alert": "OK",
      "vis_m": 9999,
      "fzfg": false,
      "metar_trigger": false,
      "taf_trigger": false,
      "metar": "METAR LRIA 160700Z 27005KT 220V310 CAVOK 19/09 Q1016",
      "taf": "TAF LRIA 160500Z 1606/1615 VRB04KT CAVOK"
    },
    {
      "icao": "LROP",
      "alert": "OK",
      "vis_m": 9999,
      "fzfg": false,
      "metar_trigger": false,
      "taf_trigger": false,
      "metar": "METAR LROP 160700Z 07006KT CAVOK 22/12 Q1018 NOSIG",
      "taf": "TAF LROP 160500Z 1606/1706 VRB04KT CAVOK"
    },
    {
      "icao": "LRSB",
      "alert": "OK",
      "vis_m": 9999,
      "fzfg": false,
      "metar_trigger": false,
      "taf_trigger": false,
      "metar": "METAR LRSB 160700Z 31007KT 280V340 9999 FEW045 19/09 Q1019",
      "taf": "TAF LRSB 160500Z 1606/1706 VRB04KT CAVOK"
    },
    {
      "icao": "LRSM",
      "alert": "OK",
      "vis_m": 9999,
      "fzfg": false,
      "metar_trigger": false,
      "taf_trigger": false,
      "metar": "METAR LRSM 160700Z AUTO 25010KT 230V290 9999 BKN075/// 20/13 Q1017",
      "taf": ""
    },
    {
      "icao": "LRSV",
      "alert": "OK",
      "vis_m": 9999,
      "fzfg": false,
      "metar_trigger": false,
      "taf_trigger": false,
      "metar": "METAR LRSV 160700Z 25004KT 190V300 CAVOK 18/08 Q1016",
      "taf": "TAF LRSV 160500Z 1606/1615 30008KT CAVOK"
    },
    {
      "icao": "LRTM",
      "alert": "OK",
      "vis_m": 9999,
      "fzfg": false,
      "metar_trigger": false,
      "taf_trigger": false,
      "metar": "METAR LRTM 160700Z VRB02KT CAVOK 18/13 Q1019",
      "taf": "TAF LRTM 160500Z 1606/1615 VRB04KT CAVOK"
    },
    {
      "icao": "LRTR",
      "alert": "OK",
      "vis_m": 9999,
      "fzfg": false,
      "metar_trigger": false,
      "taf_trigger": false,
      "metar": "METAR LRTR 160700Z 15004KT 110V240 9999 FEW002 17/15 Q1020",
      "taf": "TAF LRTR 160500Z 1606/1706 VRB04KT 5000 BR BKN002"
    },
    {
      "icao": "LTAC",
      "alert": "OK",
      "vis_m": 9999,
      "fzfg": false,
      "metar_trigger": false,
      "taf_trigger": false,
      "metar": "METAR LTAC 160650Z VRB03KT CAVOK 23/08 Q1020 NOSIG RMK RWY21C VRB02KT RWY03L VRB02KT RWY21R VRB02KT RWY03R VRB01KT RWY21L VRB01KT",
      "taf": "TAF LTAC 160440Z 1606/1706 VRB02KT CAVOK"
    },
    {
      "icao": "LTFM",
      "alert": "OK",
      "vis_m": 9999,
      "fzfg": false,
      "metar_trigger": false,
      "taf_trigger": false,
      "metar": "METAR LTFM 160650Z 01014KT 9999 FEW016 22/17 Q1017 NOSIG RMK RWY17L 35012KT RWY34L 35014KT RWY16R 36012KT RWY36 36013KT RWY18 01012KT",
      "taf": "TAF LTFM 160440Z 1606/1712 32014KT 9999 SCT008"
    },
    {
      "icao": "LUKK",
      "alert": "OK",
      "vis_m": 9999,
      "fzfg": false,
      "metar_trigger": false,
      "taf_trigger": false,
      "metar": "METAR LUKK 160700Z 26005KT 210V330 CAVOK 21/11 Q1016 NOSIG",
      "taf": "TAF LUKK 160513Z 1606/1706 31012KT CAVOK"
    },
    {
      "icao": "LWOH",
      "alert": "OK",
      "vis_m": 9999,
      "fzfg": false,
      "metar_trigger": false,
      "taf_trigger": false,
      "metar": "METAR LWOH 160650Z VRB02KT 9999 FEW050 21/13 Q1019",
      "taf": "TAF LWOH 160530Z 1606/1706 VRB02KT CAVOK"
    },
    {
      "icao": "LWSK",
      "alert": "OK",
      "vis_m": 9999,
      "fzfg": false,
      "metar_trigger": false,
      "taf_trigger": false,
      "metar": "METAR LWSK 160650Z VRB02KT CAVOK 23/14 Q1018 NOSIG",
      "taf": "TAF LWSK 160530Z 1606/1706 VRB02KT CAVOK"
    },
    {
      "icao": "LYBE",
      "alert": "OK",
      "vis_m": 9999,
      "fzfg": false,
      "metar_trigger": false,
      "taf_trigger": false,
      "metar": "METAR LYBE 160700Z 15003KT 120V210 CAVOK 20/12 Q1020 NOSIG",
      "taf": "TAF LYBE 160500Z 1606/1706 14005KT CAVOK TX26/1613Z TN14/1704Z"
    },
    {
      "icao": "LYNI",
      "alert": "OK",
      "vis_m": 9999,
      "fzfg": false,
      "metar_trigger": false,
      "taf_trigger": false,
      "metar": "METAR LYNI 160700Z 32008KT 280V350 9999 FEW023 19/14 Q1020 NOSIG",
      "taf": "TAF LYNI 160500Z 1606/1706 33007KT CAVOK TX28/1614Z TN10/1624Z"
    },
    {
      "icao": "LYPG",
      "alert": "OK",
      "vis_m": 9999,
      "fzfg": false,
      "metar_trigger": false,
      "taf_trigger": false,
      "metar": "METAR LYPG 160700Z VRB03KT 9999 FEW040 26/13 Q1016 NOSIG",
      "taf": "TAF LYPG 160500Z 1606/1706 18008KT 9999 FEW040 TX31/1614Z TN18/1703Z"
    },
    {
      "icao": "LZIB",
      "alert": "OK",
      "vis_m": 9999,
      "fzfg": false,
      "metar_trigger": false,
      "taf_trigger": false,
      "metar": "METAR LZIB 160700Z 32006KT 280V010 CAVOK 20/08 Q1018 NOSIG",
      "taf": "TAF LZIB 160515Z 1606/1706 29010KT CAVOK"
    },
    {
      "icao": "LZKZ",
      "alert": "OK",
      "vis_m": 9999,
      "fzfg": false,
      "metar_trigger": false,
      "taf_trigger": false,
      "metar": "METAR LZKZ 160700Z 09004KT 050V150 9999 FEW040 17/10 Q1016 BECMG 22013KT",
      "taf": "TAF LZKZ 160515Z 1606/1706 VRB02KT CAVOK"
    },
    {
      "icao": "LZTT",
      "alert": "OK",
      "vis_m": 9999,
      "fzfg": false,
      "metar_trigger": false,
      "taf_trigger": false,
      "metar": "METAR LZTT 160700Z 27016KT 9999 FEW043 15/06 Q1017 NOSIG",
      "taf": "TAF LZTT 160515Z 1606/1706 27014KT 9999 FEW055"
    },
    {
      "icao": "OEJN",
      "alert": "OK",
      "vis_m": 9999,
      "fzfg": false,
      "metar_trigger": false,
      "taf_trigger": false,
      "metar": "METAR OEJN 160700Z 31007KT CAVOK 34/23 Q1009 NOSIG",
      "taf": "TAF OEJN 160600Z 1606/1712 33015KT CAVOK"
    },
    {
      "icao": "OEMA",
      "alert": "OK",
      "vis_m": 9999,
      "fzfg": false,
      "metar_trigger": false,
      "taf_trigger": false,
      "metar": "METAR OEMA 160700Z 27003KT CAVOK 38/M03 Q1015 NOSIG",
      "taf": "TAF OEMA 160600Z 1606/1712 31012KT CAVOK"
    },
    {
      "icao": "OJAI",
      "alert": "OK",
      "vis_m": 5000,
      "fzfg": false,
      "metar_trigger": false,
      "taf_trigger": false,
      "metar": "METAR OJAI 160700Z 28006KT 5000 HZ NSC 26/09 Q1018 NOSIG",
      "taf": "TAF OJAI 160439Z 1606/1712 30012KT 5000 HZ NSC"
    },
    {
      "icao": "OMAA",
      "alert": "OK",
      "vis_m": 9999,
      "fzfg": false,
      "metar_trigger": false,
      "taf_trigger": false,
      "metar": "METAR OMAA 160700Z 28013KT CAVOK 38/17 Q1003 NOSIG",
      "taf": "TAF OMAA 160500Z 1606/1712 29014KT 8000 NSC"
    },
    {
      "icao": "OMDB",
      "alert": "OK",
      "vis_m": 9999,
      "fzfg": false,
      "metar_trigger": false,
      "taf_trigger": false,
      "metar": "METAR OMDB 160700Z 26008KT 170V290 CAVOK 38/21 Q1002 NOSIG",
      "taf": "TAF OMDB 160500Z 1606/1712 20007KT 8000 NSC"
    },
    {
      "icao": "UAAA",
      "alert": "OK",
      "vis_m": 9999,
      "fzfg": false,
      "metar_trigger": false,
      "taf_trigger": false,
      "metar": "METAR UAAA 160700Z 03005MPS 350V080 9999 SCT050CB BKN100 32/14 Q1010 NOSIG",
      "taf": "TAF UAAA 160504Z 1606/1706 23005G10MPS 9999 SCT050CB BKN100 TX32/1609Z TN19/1700Z"
    },
    {
      "icao": "UBBB",
      "alert": "OK",
      "vis_m": 9999,
      "fzfg": false,
      "metar_trigger": false,
      "taf_trigger": false,
      "metar": "METAR UBBB 160700Z 35010KT 310V010 9999 SCT040 29/16 Q1016 NOSIG",
      "taf": "TAF UBBB 160458Z 1606/1706 01005KT 9999 FEW030 TX31/1610Z TN19/1701Z"
    },
    {
      "icao": "UDSG",
      "alert": "OK",
      "vis_m": 9999,
      "fzfg": false,
      "metar_trigger": false,
      "taf_trigger": false,
      "metar": "METAR UDSG 160700Z 22002KT 9999 FEW049TCU 19/12 Q1023 NOSIG",
      "taf": "TAF UDSG 160458Z 1606/1706 24006KT 9999 FEW050"
    },
    {
      "icao": "UDYZ",
      "alert": "OK",
      "vis_m": 9999,
      "fzfg": false,
      "metar_trigger": false,
      "taf_trigger": false,
      "metar": "METAR UDYZ 160700Z 18005KT 120V230 9999 FEW046 25/12 Q1018 NOSIG",
      "taf": "TAF UDYZ 160500Z 1606/1706 14006KT 9999 FEW040"
    },
    {
      "icao": "UGKO",
      "alert": "OK",
      "vis_m": 9999,
      "fzfg": false,
      "metar_trigger": false,
      "taf_trigger": false,
      "metar": "METAR UGKO 160700Z 11004KT 050V190 CAVOK 25/16 Q1016 NOSIG",
      "taf": "TAF UGKO 160500Z 1606/1706 09006KT CAVOK TX30/1611Z TN16/1702Z"
    }
  ]
}