{
  "ts_utc": "2026-01-10T16:50:30Z",
  "threshold_m": 150,
  "source": "stations_override.txt (ICAO list) + aviationweather.gov (METAR/TAF raw)",
  "station_count": 159,
  "stations": [
    {
      "icao": "BIKF",
      "alert": "OK",
      "vis_m": 9999,
      "fzfg": false,
      "metar_trigger": false,
      "taf_trigger": false,
      "metar": "METAR BIKF 101630Z 02010KT CAVOK M04/M07 Q1008",
      "taf": "TAF BIKF 101623Z 1018/1118 04005KT 9999 FEW030 TXM01/1112Z TNM07/1018Z"
    },
    {
      "icao": "BKPR",
      "alert": "OK",
      "vis_m": 9999,
      "fzfg": false,
      "metar_trigger": false,
      "taf_trigger": false,
      "metar": "METAR BKPR 101630Z 35010KT 9999 -RA FEW010 BKN035 02/01 Q0996 TEMPO 4000 RASN",
      "taf": "TAF BKPR 101130Z 1012/1112 17008KT 8000 SCT015 BKN030"
    },
    {
      "icao": "EBCI",
      "alert": "OK",
      "vis_m": 1800,
      "fzfg": false,
      "metar_trigger": false,
      "taf_trigger": false,
      "metar": "METAR EBCI 101620Z 36006KT 340V040 1800 -SN BKN006 BKN009 M03/M03 Q1015 BECMG 4000 -SN",
      "taf": "TAF EBCI 101100Z 1012/1118 35008KT 8000 BKN006"
    },
    {
      "icao": "EDDB",
      "alert": "OK",
      "vis_m": 9999,
      "fzfg": false,
      "metar_trigger": false,
      "taf_trigger": false,
      "metar": "METAR EDDB 101620Z AUTO 29007KT 9999 FEW023 SCT028 BKN046 M04/M07 Q1013 TEMPO SN",
      "taf": "TAF EDDB 101100Z 1012/1112 34005KT CAVOK"
    },
    {
      "icao": "EDDH",
      "alert": "OK",
      "vis_m": 9999,
      "fzfg": false,
      "metar_trigger": false,
      "taf_trigger": false,
      "metar": "METAR EDDH 101620Z AUTO 03007KT 350V060 9999 BKN039 M01/M04 Q1018 NOSIG",
      "taf": "TAF EDDH 101100Z 1012/1118 03006KT 9999 SCT040"
    },
    {
      "icao": "EDDK",
      "alert": "OK",
      "vis_m": 9000,
      "fzfg": false,
      "metar_trigger": false,
      "taf_trigger": false,
      "metar": "METAR EDDK 101620Z AUTO VRB02KT 9000 FEW019 BKN028 OVC036 M02/M03 Q1014 NOSIG",
      "taf": "TAF EDDK 101100Z 1012/1118 34007KT 8000 OVC012"
    },
    {
      "icao": "EDDN",
      "alert": "OK",
      "vis_m": 4600,
      "fzfg": false,
      "metar_trigger": false,
      "taf_trigger": false,
      "metar": "METAR EDDN 101620Z AUTO 36009KT 4600 -SN BR BKN009 BKN022 M03/M04 Q1009 TEMPO SCT009",
      "taf": ""
    },
    {
      "icao": "EDDS",
      "alert": "OK",
      "vis_m": 9999,
      "fzfg": false,
      "metar_trigger": false,
      "taf_trigger": false,
      "metar": "METAR EDDS 101620Z AUTO 31007KT 9999 -SN FEW010 BKN036 00/M01 Q1008 NOSIG",
      "taf": "TAF EDDS 101100Z 1012/1112 26007KT 9999 SCT014 BKN030"
    },
    {
      "icao": "EDFH",
      "alert": "OK",
      "vis_m": 7000,
      "fzfg": false,
      "metar_trigger": false,
      "taf_trigger": false,
      "metar": "METAR EDFH 101620Z 35006KT 320V030 7000 OVC005 M03/M04 Q1010",
      "taf": "TAF EDFH 101100Z 1012/1112 33008KT 8000 BKN005"
    },
    {
      "icao": "EDJA",
      "alert": "OK",
      "vis_m": 4700,
      "fzfg": false,
      "metar_trigger": false,
      "taf_trigger": false,
      "metar": "METAR EDJA 101620Z 23012KT 4700 -SN FEW009 OVC047 M01/M02 Q1007",
      "taf": "TAF EDJA 101400Z 1015/1024 24015G25KT 6000 OVC010"
    },
    {
      "icao": "EDLW",
      "alert": "OK",
      "vis_m": 9999,
      "fzfg": false,
      "metar_trigger": false,
      "taf_trigger": false,
      "metar": "METAR EDLW 101620Z COR 03007KT CAVOK M04/M08 Q1015",
      "taf": "TAF EDLW 101100Z 1012/1112 05010KT 6000 SCT004 BKN007"
    },
    {
      "icao": "EDNY",
      "alert": "OK",
      "vis_m": 4800,
      "fzfg": false,
      "metar_trigger": false,
      "taf_trigger": false,
      "metar": "METAR EDNY 101620Z 25012KT 4800 -SN BR SCT013 BKN015 OVC023 01/M01 Q1010",
      "taf": "TAF EDNY 101400Z 1015/1024 25012KT 7000 BKN015"
    },
    {
      "icao": "EDSB",
      "alert": "OK",
      "vis_m": 9000,
      "fzfg": false,
      "metar_trigger": false,
      "taf_trigger": false,
      "metar": "METAR EDSB 101620Z 23003KT 9000 -SN FEW005 BKN021 OVC034 00/M00 Q1011",
      "taf": ""
    },
    {
      "icao": "EETN",
      "alert": "OK",
      "vis_m": 1000,
      "fzfg": false,
      "metar_trigger": false,
      "taf_trigger": false,
      "metar": "METAR EETN 101620Z 04014G24KT 1000 R08/P2000N +SN BLSN VV012 M06/M07 Q1006 TEMPO 0600",
      "taf": "TAF EETN 101130Z 1012/1112 04015G25KT 2500 SN BLSN BKN012 OVC020"
    },
    {
      "icao": "EFTU",
      "alert": "OK",
      "vis_m": 9999,
      "fzfg": false,
      "metar_trigger": false,
      "taf_trigger": false,
      "metar": "METAR EFTU 101620Z AUTO 02010KT 340V050 CAVOK M08/M12 Q1012",
      "taf": "TAF EFTU 101433Z 1015/1115 02010KT CAVOK"
    },
    {
      "icao": "EGBB",
      "alert": "OK",
      "vis_m": 9999,
      "fzfg": false,
      "metar_trigger": false,
      "taf_trigger": false,
      "metar": "METAR EGBB 101620Z 18003KT 130V210 CAVOK M01/M03 Q1019",
      "taf": "TAF EGBB 101055Z 1012/1112 32006KT 9999 FEW025"
    },
    {
      "icao": "EGGP",
      "alert": "OK",
      "vis_m": 9999,
      "fzfg": false,
      "metar_trigger": false,
      "taf_trigger": false,
      "metar": "METAR EGGP 101620Z 14005KT 9999 FEW025 02/M01 Q1019",
      "taf": "TAF EGGP 101057Z 1012/1112 15005KT 9999 SCT040"
    },
    {
      "icao": "EGGW",
      "alert": "OK",
      "vis_m": 9999,
      "fzfg": false,
      "metar_trigger": false,
      "taf_trigger": false,
      "metar": "METAR EGGW 101620Z AUTO 01004KT 300V030 9999 OVC015 02/M00 Q1019",
      "taf": "TAF EGGW 101101Z 1012/1112 33009KT 9999 BKN007"
    },
    {
      "icao": "EGKK",
      "alert": "OK",
      "vis_m": 9999,
      "fzfg": false,
      "metar_trigger": false,
      "taf_trigger": false,
      "metar": "METAR EGKK 101620Z 32007KT 9999 BKN020 03/M00 Q1020",
      "taf": ""
    },
    {
      "icao": "EGNM",
      "alert": "OK",
      "vis_m": 9999,
      "fzfg": false,
      "metar_trigger": false,
      "taf_trigger": false,
      "metar": "METAR EGNM 101620Z 19004KT CAVOK 00/M03 Q1018",
      "taf": "TAF EGNM 101057Z 1012/1112 27005KT 9999 FEW040"
    },
    {
      "icao": "EGPD",
      "alert": "OK",
      "vis_m": 9999,
      "fzfg": false,
      "metar_trigger": false,
      "taf_trigger": false,
      "metar": "METAR EGPD 101620Z COR AUTO 18010KT 9999 NCD 03/M00 Q1014 NOSIG",
      "taf": "TAF EGPD 101055Z 1012/1112 17008KT 9999 FEW015 SCT025"
    },
    {
      "icao": "EGPF",
      "alert": "OK",
      "vis_m": 9999,
      "fzfg": false,
      "metar_trigger": false,
      "taf_trigger": false,
      "metar": "METAR EGPF 101620Z AUTO 15004KT 110V190 9999 FEW017 SCT030 04/02 Q1015",
      "taf": "TAF EGPF 101104Z 1012/1112 VRB04KT 9999 FEW015 SCT030"
    },
    {
      "icao": "EHBK",
      "alert": "OK",
      "vis_m": 9999,
      "fzfg": false,
      "metar_trigger": false,
      "taf_trigger": false,
      "metar": "METAR EHBK 101625Z AUTO 01006KT 9999 FEW009/// OVC010/// M03/M05 Q1015 TEMPO BKN009",
      "taf": "TAF EHBK 101119Z 1012/1118 35007KT 9999 BKN012"
    },
    {
      "icao": "EHEH",
      "alert": "OK",
      "vis_m": 9999,
      "fzfg": false,
      "metar_trigger": false,
      "taf_trigger": false,
      "metar": "METAR EHEH 101625Z AUTO 04006KT 9999 OVC021 M02/M06 Q1016 WHT BECMG SCT014 BKN018 RMK TREND REMOTE BY EHWX",
      "taf": ""
    },
    {
      "icao": "EKBI",
      "alert": "OK",
      "vis_m": 9999,
      "fzfg": false,
      "metar_trigger": false,
      "taf_trigger": false,
      "metar": "METAR EKBI 101620Z AUTO 01004KT 340V040 9999 NCD M05/M10 Q1021",
      "taf": "TAF EKBI 101427Z 1015/1115 02006KT CAVOK"
    },
    {
      "icao": "EKCH",
      "alert": "OK",
      "vis_m": 9999,
      "fzfg": false,
      "metar_trigger": false,
      "taf_trigger": false,
      "metar": "METAR EKCH 101620Z AUTO 36016KT 9999 NCD M03/M10 Q1019 NOSIG",
      "taf": "TAF EKCH 101427Z 1015/1115 01015KT CAVOK"
    },
    {
      "icao": "ENAL",
      "alert": "OK",
      "vis_m": 9999,
      "fzfg": false,
      "metar_trigger": false,
      "taf_trigger": false,
      "metar": "METAR ENAL 101620Z 17007KT CAVOK M02/M09 Q1021",
      "taf": "TAF ENAL 101400Z 1015/1024 17008KT CAVOK"
    },
    {
      "icao": "ENBR",
      "alert": "OK",
      "vis_m": 9999,
      "fzfg": false,
      "metar_trigger": false,
      "taf_trigger": false,
      "metar": "METAR ENBR 101620Z 10005KT 060V120 CAVOK M03/M11 Q1022 NOSIG RMK WIND 1200FT 12016KT",
      "taf": ""
    },
    {
      "icao": "ENGM",
      "alert": "OK",
      "vis_m": 9999,
      "fzfg": false,
      "metar_trigger": false,
      "taf_trigger": false,
      "metar": "METAR ENGM 101620Z 34004KT CAVOK M13/M15 Q1023 NOSIG",
      "taf": "TAF ENGM 101100Z 1012/1112 35005KT CAVOK"
    },
    {
      "icao": "ENHD",
      "alert": "OK",
      "vis_m": 9999,
      "fzfg": false,
      "metar_trigger": false,
      "taf_trigger": false,
      "metar": "METAR ENHD 101620Z 10013KT 9999 BKN046 M02/M08 Q1023",
      "taf": "TAF ENHD 101400Z 1015/1023 12012KT 9999 SCT040"
    },
    {
      "icao": "ENTC",
      "alert": "OK",
      "vis_m": 9999,
      "fzfg": false,
      "metar_trigger": false,
      "taf_trigger": false,
      "metar": "METAR ENTC 101620Z 07003KT 040V100 CAVOK M13/M15 Q1018 NOSIG RMK WIND 2600FT 16016KT",
      "taf": "TAF ENTC 101100Z 1012/1112 20005KT CAVOK"
    },
    {
      "icao": "ENTO",
      "alert": "OK",
      "vis_m": 9999,
      "fzfg": false,
      "metar_trigger": false,
      "taf_trigger": false,
      "metar": "METAR ENTO 101620Z 35004KT CAVOK M10/M12 Q1023 NOSIG",
      "taf": "TAF ENTO 101100Z 1012/1112 36005KT CAVOK"
    },
    {
      "icao": "ENVA",
      "alert": "OK",
      "vis_m": 9999,
      "fzfg": false,
      "metar_trigger": false,
      "taf_trigger": false,
      "metar": "METAR ENVA 101620Z 12004KT 090V150 CAVOK M09/M12 Q1022 RMK WIND 670FT 15010KT",
      "taf": "TAF ENVA 101100Z 1012/1112 10006KT CAVOK"
    },
    {
      "icao": "ENZV",
      "alert": "OK",
      "vis_m": 9999,
      "fzfg": false,
      "metar_trigger": false,
      "taf_trigger": false,
      "metar": "METAR ENZV 101620Z 11010KT 9999 BKN046 M02/M10 Q1023 NOSIG",
      "taf": "TAF ENZV 101100Z 1012/1112 10012KT 9999 SCT040"
    },
    {
      "icao": "EPGD",
      "alert": "OK",
      "vis_m": 1300,
      "fzfg": false,
      "metar_trigger": false,
      "taf_trigger": false,
      "metar": "METAR EPGD 101630Z 34015KT 1300 R29/P2000N SHSN DRSN FEW001 SCT009TCU BKN020 M02/M04 Q1005",
      "taf": "TAF EPGD 101130Z 1012/1112 36012KT 9999 -SHSN SCT020TCU"
    },
    {
      "icao": "EPKK",
      "alert": "OK",
      "vis_m": 9999,
      "fzfg": false,
      "metar_trigger": false,
      "taf_trigger": false,
      "metar": "METAR EPKK 101630Z 27006KT 9999 FEW052 M10/M14 Q1007",
      "taf": "TAF EPKK 101430Z 1015/1115 23005KT 9999 SCT025"
    },
    {
      "icao": "EPKT",
      "alert": "OK",
      "vis_m": 9999,
      "fzfg": false,
      "metar_trigger": false,
      "taf_trigger": false,
      "metar": "METAR EPKT 101630Z 26007KT 9999 -SN FEW021 OVC029 M10/M12 Q1007",
      "taf": "TAF EPKT 101130Z 1012/1112 34005KT 9999 SCT030"
    },
    {
      "icao": "EPLB",
      "alert": "OK",
      "vis_m": 6000,
      "fzfg": false,
      "metar_trigger": false,
      "taf_trigger": false,
      "metar": "METAR EPLB 101630Z 28006KT 6000 -SN NSC M10/M11 Q1003",
      "taf": "TAF EPLB 101130Z 1012/1112 27010KT 9999 SCT010 BKN015"
    },
    {
      "icao": "EPMO",
      "alert": "OK",
      "vis_m": 5000,
      "fzfg": false,
      "metar_trigger": false,
      "taf_trigger": false,
      "metar": "METAR EPMO 101630Z 26011KT 5000 -SN BR SCT013 BKN025 M06/M07 Q1003",
      "taf": "TAF EPMO 101130Z 1012/1112 29008KT 5000 -SN BR BKN030"
    },
    {
      "icao": "EPPO",
      "alert": "OK",
      "vis_m": 9999,
      "fzfg": false,
      "metar_trigger": false,
      "taf_trigger": false,
      "metar": "METAR EPPO 101630Z 30006KT 9999 -SN SCT031 OVC049 M04/M07 Q1009",
      "taf": "TAF EPPO 101130Z 1012/1112 33010KT 9999 BKN035"
    },
    {
      "icao": "EPRA",
      "alert": "OK",
      "vis_m": 9999,
      "fzfg": false,
      "metar_trigger": false,
      "taf_trigger": false,
      "metar": "METAR EPRA 101630Z 28010KT 9999 SCT013 BKN024 M09/M11 Q1004",
      "taf": "TAF EPRA 101430Z 1015/1024 30008KT 9999 BKN020"
    },
    {
      "icao": "EPRZ",
      "alert": "OK",
      "vis_m": 9999,
      "fzfg": false,
      "metar_trigger": false,
      "taf_trigger": false,
      "metar": "METAR EPRZ 101630Z 25011KT 9999 -SN FEW015 OVC022 M10/M13 Q1005",
      "taf": "TAF EPRZ 101130Z 1012/1112 27008KT 9999 BKN013"
    },
    {
      "icao": "EPSC",
      "alert": "OK",
      "vis_m": 9999,
      "fzfg": false,
      "metar_trigger": false,
      "taf_trigger": false,
      "metar": "METAR EPSC 101630Z 33009KT 9999 FEW002 SCT016TCU BKN024 M01/M03 Q1012",
      "taf": "TAF EPSC 101130Z 1012/1112 32008KT 9999 BKN040"
    },
    {
      "icao": "EPSY",
      "alert": "OK",
      "vis_m": 8000,
      "fzfg": false,
      "metar_trigger": false,
      "taf_trigger": false,
      "metar": "METAR EPSY 101630Z 30005KT 260V340 8000 -SN SCT008 BKN013 M06/M08 Q1002",
      "taf": "TAF EPSY 101430Z 1015/1024 33008KT 9999 BKN025"
    },
    {
      "icao": "EPWA",
      "alert": "OK",
      "vis_m": 7000,
      "fzfg": false,
      "metar_trigger": false,
      "taf_trigger": false,
      "metar": "METAR EPWA 101630Z 27010KT 7000 -SN SCT030 M07/M08 Q1003 TEMPO 3000 SN",
      "taf": "TAF EPWA 101430Z 1015/1115 28008KT 5000 -SN BKN020"
    },
    {
      "icao": "EPWR",
      "alert": "OK",
      "vis_m": 9999,
      "fzfg": false,
      "metar_trigger": false,
      "taf_trigger": false,
      "metar": "METAR EPWR 101630Z 27011KT 9999 SCT018 BKN020 M06/M10 Q1010",
      "taf": "TAF EPWR 101430Z 1015/1115 31009KT 9999 BKN027"
    },
    {
      "icao": "ESGG",
      "alert": "OK",
      "vis_m": 9999,
      "fzfg": false,
      "metar_trigger": false,
      "taf_trigger": false,
      "metar": "METAR ESGG 101620Z 02006KT CAVOK M08/M09 Q1020",
      "taf": "TAF ESGG 101430Z 1015/1115 02009KT CAVOK"
    },
    {
      "icao": "ESKN",
      "alert": "OK",
      "vis_m": 9999,
      "fzfg": false,
      "metar_trigger": false,
      "taf_trigger": false,
      "metar": "METAR ESKN 101620Z 34013KT 9999 FEW014 M07/M08 Q1017",
      "taf": "TAF ESKN 101430Z 1015/1115 35014G25KT CAVOK"
    },
    {
      "icao": "ESMS",
      "alert": "OK",
      "vis_m": 9999,
      "fzfg": false,
      "metar_trigger": false,
      "taf_trigger": false,
      "metar": "METAR ESMS 101620Z 34012KT CAVOK M08/M13 Q1017",
      "taf": "TAF ESMS 101427Z 1015/1115 34010KT CAVOK"
    },
    {
      "icao": "ESSA",
      "alert": "OK",
      "vis_m": 9999,
      "fzfg": false,
      "metar_trigger": false,
      "taf_trigger": false,
      "metar": "METAR ESSA 101620Z 33013KT 9999 FEW013 M05/M07 Q1016 NOSIG",
      "taf": "TAF ESSA 101430Z 1015/1115 35012G22KT CAVOK"
    },
    {
      "icao": "EYKA",
      "alert": "OK",
      "vis_m": 7000,
      "fzfg": false,
      "metar_trigger": false,
      "taf_trigger": false,
      "metar": "METAR EYKA 101620Z 29002KT 7000 NSC M13/M14 Q1001",
      "taf": "TAF EYKA 101100Z 1012/1112 VRB04KT 5000 SN SCT010 BKN015"
    },
    {
      "icao": "EYPA",
      "alert": "OK",
      "vis_m": 9999,
      "fzfg": false,
      "metar_trigger": false,
      "taf_trigger": false,
      "metar": "METAR EYPA 101620Z 01013KT CAVOK M05/M09 Q1004",
      "taf": "TAF EYPA 101100Z 1012/1112 36008KT 8000 SCT025"
    },
    {
      "icao": "EYVI",
      "alert": "OK",
      "vis_m": 9999,
      "fzfg": false,
      "metar_trigger": false,
      "taf_trigger": false,
      "metar": "METAR EYVI 101620Z 32005KT 9999 -SN SCT010 M11/M13 Q0998 NOSIG",
      "taf": "TAF EYVI 101107Z 1012/1112 35007KT 5000 SN BKN025"
    },
    {
      "icao": "GCFV",
      "alert": "OK",
      "vis_m": 9999,
      "fzfg": false,
      "metar_trigger": false,
      "taf_trigger": false,
      "metar": "METAR GCFV 101630Z 04014KT 9999 FEW030 19/12 Q1025",
      "taf": "TAF GCFV 101400Z 1015/1115 04015KT 9999 SCT025 TX20/1114Z TN14/1106Z"
    },
    {
      "icao": "GCLP",
      "alert": "OK",
      "vis_m": 9999,
      "fzfg": false,
      "metar_trigger": false,
      "taf_trigger": false,
      "metar": "METAR GCLP 101630Z 03017KT 9999 FEW035 SCT050 20/09 Q1026 NOSIG",
      "taf": "TAF GCLP 101400Z 1015/1115 03016KT 9999 SCT025 BKN045 TX21/1114Z TN15/1106Z"
    },
    {
      "icao": "GCTS",
      "alert": "OK",
      "vis_m": 9999,
      "fzfg": false,
      "metar_trigger": false,
      "taf_trigger": false,
      "metar": "METAR GCTS 101630Z 09018KT 9999 SCT045 20/10 Q1026 NOSIG",
      "taf": "TAF GCTS 101400Z 1015/1115 09018KT 9999 SCT045 TX23/1114Z TN16/1106Z"
    },
    {
      "icao": "GMAD",
      "alert": "OK",
      "vis_m": 9999,
      "fzfg": false,
      "metar_trigger": false,
      "taf_trigger": false,
      "metar": "METAR GMAD 101630Z 25008KT CAVOK 17/09 Q1024 NOSIG",
      "taf": "TAF GMAD 101100Z 1012/1118 28008KT CAVOK"
    },
    {
      "icao": "GMMN",
      "alert": "OK",
      "vis_m": 9999,
      "fzfg": false,
      "metar_trigger": false,
      "taf_trigger": false,
      "metar": "METAR GMMN 101630Z 03006KT 360V060 9999 BKN023 14/11 Q1027 NOSIG",
      "taf": "TAF GMMN 101100Z 1012/1118 02010KT 9999 BKN016"
    },
    {
      "icao": "GMMX",
      "alert": "OK",
      "vis_m": 9999,
      "fzfg": false,
      "metar_trigger": false,
      "taf_trigger": false,
      "metar": "METAR GMMX 101630Z 06007KT CAVOK 18/08 Q1025 NOSIG",
      "taf": "TAF GMMX 101100Z 1012/1118 06008KT 8000 NSC"
    },
    {
      "icao": "HEGN",
      "alert": "OK",
      "vis_m": 9999,
      "fzfg": false,
      "metar_trigger": false,
      "taf_trigger": false,
      "metar": "METAR HEGN 101600Z 35009KT CAVOK 18/09 Q1019 NOSIG",
      "taf": "TAF HEGN 101100Z 1012/1118 36010G20KT CAVOK"
    },
    {
      "icao": "HEMA",
      "alert": "OK",
      "vis_m": 9999,
      "fzfg": false,
      "metar_trigger": false,
      "taf_trigger": false,
      "metar": "METAR HEMA 101600Z 34012KT CAVOK 19/11 Q1018 NOSIG",
      "taf": "TAF HEMA 101100Z 1012/1118 35012G26KT 6000 SCT020"
    },
    {
      "icao": "HESH",
      "alert": "OK",
      "vis_m": 9999,
      "fzfg": false,
      "metar_trigger": false,
      "taf_trigger": false,
      "metar": "METAR HESH 101600Z 35008KT CAVOK 21/07 Q1018 NOSIG",
      "taf": "TAF HESH 101100Z 1012/1118 01016KT CAVOK"
    },
    {
      "icao": "HESX",
      "alert": "OK",
      "vis_m": 9999,
      "fzfg": false,
      "metar_trigger": false,
      "taf_trigger": false,
      "metar": "METAR HESX 101600Z 30005KT CAVOK 17/08 Q1019 NOSIG",
      "taf": ""
    },
    {
      "icao": "LATI",
      "alert": "OK",
      "vis_m": null,
      "fzfg": false,
      "metar_trigger": false,
      "taf_trigger": false,
      "metar": "",
      "taf": ""
    },
    {
      "icao": "LBPD",
      "alert": "OK",
      "vis_m": 9999,
      "fzfg": false,
      "metar_trigger": false,
      "taf_trigger": false,
      "metar": "METAR LBPD 101630Z AUTO VRB02KT 9999 FEW022/// SCT025/// OVC110/// 03/03 Q0996 NOSIG",
      "taf": "TAF LBPD 101100Z 1012/1112 VRB03KT 9999 SCT050"
    },
    {
      "icao": "LBSF",
      "alert": "OK",
      "vis_m": 4100,
      "fzfg": false,
      "metar_trigger": false,
      "taf_trigger": false,
      "metar": "METAR LBSF 101630Z AUTO 30010KT 4100 BR BKN003/// BKN034/// OVC042/// 03/02 Q0996 TEMPO 5000 RA BKN005",
      "taf": ""
    },
    {
      "icao": "LBWN",
      "alert": "OK",
      "vis_m": 9999,
      "fzfg": false,
      "metar_trigger": false,
      "taf_trigger": false,
      "metar": "METAR LBWN 101630Z 06004KT 9999 -RA OVC045 07/06 Q0997 NOSIG",
      "taf": "TAF LBWN 101100Z 1012/1112 06008KT 9999 BKN040"
    },
    {
      "icao": "LCLK",
      "alert": "OK",
      "vis_m": 9999,
      "fzfg": false,
      "metar_trigger": false,
      "taf_trigger": false,
      "metar": "METAR LCLK 101630Z 23008KT 9999 FEW017 BKN060 17/15 Q1016 NOSIG",
      "taf": "TAF LCLK 101130Z 1012/1112 22018KT 9999 FEW030"
    },
    {
      "icao": "LCPH",
      "alert": "OK",
      "vis_m": 9999,
      "fzfg": false,
      "metar_trigger": false,
      "taf_trigger": false,
      "metar": "METAR LCPH 101630Z 26010KT 9999 FEW035 SCT050 18/11 Q1016 NOSIG",
      "taf": "TAF LCPH 101130Z 1012/1112 24016KT 9999 SCT030 SCT050"
    },
    {
      "icao": "LEAL",
      "alert": "OK",
      "vis_m": 9999,
      "fzfg": false,
      "metar_trigger": false,
      "taf_trigger": false,
      "metar": "METAR LEAL 101630Z 29010KT 250V320 CAVOK 15/01 Q1023 NOSIG",
      "taf": "TAF LEAL 101100Z 1012/1112 29017KT CAVOK TX16/1014Z TN07/1106Z"
    },
    {
      "icao": "LEBB",
      "alert": "OK",
      "vis_m": 9999,
      "fzfg": false,
      "metar_trigger": false,
      "taf_trigger": false,
      "metar": "METAR LEBB 101630Z 26005KT 220V320 9999 SHRA FEW016 FEW025TCU BKN037 09/08 Q1026 TEMPO NSW",
      "taf": "TAF LEBB 101100Z 1012/1112 27010KT 9999 FEW020 BKN040 TX13/1112Z TN04/1105Z"
    },
    {
      "icao": "LEBL",
      "alert": "OK",
      "vis_m": 9999,
      "fzfg": false,
      "metar_trigger": false,
      "taf_trigger": false,
      "metar": "METAR LEBL 101630Z 28009KT 9999 FEW035 12/03 Q1018 NOSIG",
      "taf": "TAF LEBL 101100Z 1012/1112 30010KT 9999 FEW020 TX15/1013Z TN05/1106Z"
    },
    {
      "icao": "LECH",
      "alert": "OK",
      "vis_m": 9999,
      "fzfg": false,
      "metar_trigger": false,
      "taf_trigger": false,
      "metar": "METAR LECH 101630Z AUTO 31010KT 270V350 9999 SCT070 12/M02 Q1022",
      "taf": ""
    },
    {
      "icao": "LEMD",
      "alert": "OK",
      "vis_m": 9999,
      "fzfg": false,
      "metar_trigger": false,
      "taf_trigger": false,
      "metar": "METAR LEMD 101630Z 08002KT CAVOK 09/00 Q1025 NOSIG",
      "taf": "TAF LEMD 101100Z 1012/1118 VRB03KT CAVOK TX10/1014Z TNM03/1106Z"
    },
    {
      "icao": "LEMG",
      "alert": "OK",
      "vis_m": 9999,
      "fzfg": false,
      "metar_trigger": false,
      "taf_trigger": false,
      "metar": "METAR LEMG 101630Z 30011KT CAVOK 14/05 Q1025 NOSIG",
      "taf": ""
    },
    {
      "icao": "LEVC",
      "alert": "OK",
      "vis_m": 9999,
      "fzfg": false,
      "metar_trigger": false,
      "taf_trigger": false,
      "metar": "METAR LEVC 101630Z 29008KT CAVOK 14/M01 Q1022 NOSIG",
      "taf": "TAF LEVC 101100Z 1012/1112 29008KT CAVOK TX16/1014Z TN04/1106Z"
    },
    {
      "icao": "LEXJ",
      "alert": "OK",
      "vis_m": 9999,
      "fzfg": false,
      "metar_trigger": false,
      "taf_trigger": false,
      "metar": "METAR LEXJ 101630Z 29010KT 260V320 9999 SCT035 BKN055 11/06 Q1026",
      "taf": "TAF LEXJ 101400Z 1015/1115 27012KT 9999 BKN035 TX15/1113Z TN08/1101Z"
    },
    {
      "icao": "LEZG",
      "alert": "OK",
      "vis_m": 9999,
      "fzfg": false,
      "metar_trigger": false,
      "taf_trigger": false,
      "metar": "METAR LEZG 101630Z 31017KT 9999 BKN060 11/01 Q1023 NOSIG",
      "taf": "TAF LEZG 101100Z 1012/1112 28012KT 9999 FEW040 TX12/1015Z TN03/1106Z"
    },
    {
      "icao": "LEZL",
      "alert": "OK",
      "vis_m": 9999,
      "fzfg": false,
      "metar_trigger": false,
      "taf_trigger": false,
      "metar": "METAR LEZL 101630Z 24004KT 210V270 CAVOK 14/07 Q1027 NOSIG",
      "taf": "TAF LEZL 101400Z 1015/1115 22004KT CAVOK TX15/1115Z TN04/1107Z"
    },
    {
      "icao": "LFBD",
      "alert": "OK",
      "vis_m": 9999,
      "fzfg": false,
      "metar_trigger": false,
      "taf_trigger": false,
      "metar": "METAR LFBD 101630Z AUTO 29007KT 9999 FEW049 08/06 Q1023 TEMPO VRB15G30KT 2000 SHRA BKN025CB",
      "taf": "TAF LFBD 101100Z 1012/1118 30005KT 9999 SCT030 TX09/1013Z TN02/1022Z"
    },
    {
      "icao": "LFLL",
      "alert": "OK",
      "vis_m": 9999,
      "fzfg": false,
      "metar_trigger": false,
      "taf_trigger": false,
      "metar": "METAR LFLL 101630Z 28005KT 9999 FEW040 BKN073 BKN150 03/00 Q1016 NOSIG",
      "taf": ""
    },
    {
      "icao": "LFLS",
      "alert": "OK",
      "vis_m": 5000,
      "fzfg": false,
      "metar_trigger": false,
      "taf_trigger": false,
      "metar": "METAR LFLS 101630Z AUTO VRB02KT 5000 -SNRA BR FEW008 BKN022 BKN044 00/00 Q1016 TEMPO 1100 SN BKN008 BKN015TCU",
      "taf": ""
    },
    {
      "icao": "LFMN",
      "alert": "OK",
      "vis_m": 9999,
      "fzfg": false,
      "metar_trigger": false,
      "taf_trigger": false,
      "metar": "METAR LFMN 101630Z 29007KT 260V320 CAVOK 11/M06 Q1005 TEMPO 30015G25KT",
      "taf": "TAF LFMN 101400Z 1015/1121 33013KT CAVOK"
    },
    {
      "icao": "LFOB",
      "alert": "OK",
      "vis_m": 9999,
      "fzfg": false,
      "metar_trigger": false,
      "taf_trigger": false,
      "metar": "METAR LFOB 101630Z AUTO 31013KT 9999 FEW026 SCT033 BKN039 03/M00 Q1017",
      "taf": ""
    },
    {
      "icao": "LFPO",
      "alert": "OK",
      "vis_m": 9999,
      "fzfg": false,
      "metar_trigger": false,
      "taf_trigger": false,
      "metar": "METAR LFPO 101630Z 31011KT 280V350 9999 BKN026 BKN036 04/M02 Q1018 NOSIG",
      "taf": "TAF LFPO 101100Z 1012/1118 31010G25KT 9999 SCT025"
    },
    {
      "icao": "LFSB",
      "alert": "OK",
      "vis_m": 9999,
      "fzfg": false,
      "metar_trigger": false,
      "taf_trigger": false,
      "metar": "METAR LFSB 101630Z AUTO 25012KT 9999 FEW020 BKN049 BKN062 02/M01 Q1012 TEMPO 4000 -SHSN BKN014 SCT015TCU BECMG 32007KT",
      "taf": "TAF LFSB 101100Z 1012/1112 25015KT 9999 SCT025 BKN040"
    },
    {
      "icao": "LGAV",
      "alert": "OK",
      "vis_m": 9999,
      "fzfg": false,
      "metar_trigger": false,
      "taf_trigger": false,
      "metar": "METAR LGAV 101620Z 26012KT 230V300 9999 FEW020 SCT030 BKN060 16/05 Q1002 NOSIG",
      "taf": "TAF LGAV 101100Z 1012/1112 24020KT 9999 SCT025 SCT080"
    },
    {
      "icao": "LGTS",
      "alert": "OK",
      "vis_m": 9999,
      "fzfg": false,
      "metar_trigger": false,
      "taf_trigger": false,
      "metar": "METAR LGTS 101620Z VRB02KT 9999 SCT015 SCT025 08/08 Q0998 NOSIG",
      "taf": "TAF LGTS 101100Z 1012/1112 22010KT 9999 SCT030"
    },
    {
      "icao": "LHBP",
      "alert": "OK",
      "vis_m": 4000,
      "fzfg": false,
      "metar_trigger": false,
      "taf_trigger": false,
      "metar": "METAR LHBP 101630Z 22003KT 4000 BR OVC013 M04/M06 Q1003 NOSIG",
      "taf": "TAF LHBP 101115Z 1012/1112 VRB02KT 6000 SCT008 BKN025"
    },
    {
      "icao": "LHDC",
      "alert": "OK",
      "vis_m": 7000,
      "fzfg": false,
      "metar_trigger": false,
      "taf_trigger": false,
      "metar": "METAR LHDC 101615Z AUTO 02007KT 7000 OVC023 M03/M06 Q1003 NOSIG",
      "taf": "TAF LHDC 101415Z 1015/1024 VRB03KT 7000 BKN025 BKN060"
    },
    {
      "icao": "LIBD",
      "alert": "OK",
      "vis_m": 9999,
      "fzfg": false,
      "metar_trigger": false,
      "taf_trigger": false,
      "metar": "METAR LIBD 101620Z 27016G30KT 9999 SCT020 SCT045 08/04 Q0998",
      "taf": "TAF LIBD 101100Z 1012/1112 28018G30KT 9999 SCT040"
    },
    {
      "icao": "LIBG",
      "alert": "OK",
      "vis_m": 9999,
      "fzfg": false,
      "metar_trigger": false,
      "taf_trigger": false,
      "metar": "METAR LIBG 101550Z 25009KT 230V350 9999 FEW045 10/06 Q0998",
      "taf": "TAF LIBG 101400Z 1015/1024 23013KT 9999 SCT040"
    },
    {
      "icao": "LIBP",
      "alert": "OK",
      "vis_m": 9999,
      "fzfg": false,
      "metar_trigger": false,
      "taf_trigger": false,
      "metar": "METAR LIBP 101620Z AUTO 31007KT 280V350 9999 BKN056/// BKN074/// BKN150/// 09/02 Q1003",
      "taf": "TAF LIBP 101100Z 1012/1112 33012KT 9999 SCT040"
    },
    {
      "icao": "LIBR",
      "alert": "OK",
      "vis_m": 9999,
      "fzfg": false,
      "metar_trigger": false,
      "taf_trigger": false,
      "metar": "METAR LIBR 101620Z 24011KT CAVOK 09/04 Q0998",
      "taf": "TAF LIBR 101100Z 1012/1112 26015KT 9999 SCT040"
    },
    {
      "icao": "LICA",
      "alert": "OK",
      "vis_m": 6000,
      "fzfg": false,
      "metar_trigger": false,
      "taf_trigger": false,
      "metar": "METAR LICA 101620Z 28024KT 6000 SCT020 SCT060 10/05 Q1003 RERA",
      "taf": "TAF LICA 101100Z 1012/1112 25025G37KT 9999 SCT020"
    },
    {
      "icao": "LICC",
      "alert": "OK",
      "vis_m": 9999,
      "fzfg": false,
      "metar_trigger": false,
      "taf_trigger": false,
      "metar": "METAR LICC 101620Z 28015G28KT 9999 -RA FEW020 SCT035 BKN060 10/05 Q1008",
      "taf": "TAF LICC 101100Z 1012/1112 26018G30KT 9999 FEW050"
    },
    {
      "icao": "LICJ",
      "alert": "OK",
      "vis_m": 9999,
      "fzfg": false,
      "metar_trigger": false,
      "taf_trigger": false,
      "metar": "METAR LICJ 101620Z 28030KT 9999 SCT040 13/06 Q1008",
      "taf": "TAF LICJ 101100Z 1012/1112 29030G40KT 9999 SCT030"
    },
    {
      "icao": "LIMC",
      "alert": "OK",
      "vis_m": 8000,
      "fzfg": false,
      "metar_trigger": false,
      "taf_trigger": false,
      "metar": "METAR LIMC 101620Z VRB02KT 8000 NSC 03/01 Q1005 NOSIG",
      "taf": "TAF LIMC 101100Z 1012/1118 VRB04KT 7000 NSC"
    },
    {
      "icao": "LIME",
      "alert": "OK",
      "vis_m": 9999,
      "fzfg": false,
      "metar_trigger": false,
      "taf_trigger": false,
      "metar": "METAR LIME 101620Z 27012KT 9999 SCT100 05/M04 Q1003 NOSIG",
      "taf": "TAF LIME 101100Z 1012/1112 VRB04KT 8000 NSC"
    },
    {
      "icao": "LIMF",
      "alert": "OK",
      "vis_m": 9999,
      "fzfg": false,
      "metar_trigger": false,
      "taf_trigger": false,
      "metar": "METAR LIMF 101620Z 34006KT 310V020 CAVOK 07/M11 Q1005",
      "taf": "TAF LIMF 101100Z 1012/1112 30010KT 8000 NSC"
    },
    {
      "icao": "LIMJ",
      "alert": "OK",
      "vis_m": 9999,
      "fzfg": false,
      "metar_trigger": false,
      "taf_trigger": false,
      "metar": "METAR LIMJ 101620Z 02005KT CAVOK 10/M09 Q1005",
      "taf": "TAF LIMJ 101100Z 1012/1112 04013KT CAVOK"
    },
    {
      "icao": "LIPE",
      "alert": "OK",
      "vis_m": 8000,
      "fzfg": false,
      "metar_trigger": false,
      "taf_trigger": false,
      "metar": "METAR LIPE 101620Z 26003KT 8000 NSC 05/M01 Q1004",
      "taf": "TAF LIPE 101100Z 1012/1112 28006KT 7000 NSC"
    },
    {
      "icao": "LIPH",
      "alert": "OK",
      "vis_m": 9999,
      "fzfg": false,
      "metar_trigger": false,
      "taf_trigger": false,
      "metar": "METAR LIPH 101620Z 20003KT 9999 FEW060 07/02 Q1003",
      "taf": "TAF LIPH 101100Z 1012/1112 VRB05KT 9999 SCT040"
    },
    {
      "icao": "LIPQ",
      "alert": "OK",
      "vis_m": 9999,
      "fzfg": false,
      "metar_trigger": false,
      "taf_trigger": false,
      "metar": "METAR LIPQ 101620Z AUTO 31004KT 9999 BKN220/// 06/01 Q1003",
      "taf": "TAF LIPQ 101100Z 1012/1112 VRB05KT 9999 BKN030"
    },
    {
      "icao": "LIPR",
      "alert": "OK",
      "vis_m": 9999,
      "fzfg": false,
      "metar_trigger": false,
      "taf_trigger": false,
      "metar": "METAR LIPR 101620Z 29003KT CAVOK 05/M01 Q1004",
      "taf": "TAF LIPR 101100Z 1012/1112 30010KT 6000 SCT040"
    },
    {
      "icao": "LIPX",
      "alert": "OK",
      "vis_m": 9000,
      "fzfg": false,
      "metar_trigger": false,
      "taf_trigger": false,
      "metar": "METAR LIPX 101620Z 24005KT 9000 NSC 03/M01 Q1003",
      "taf": "TAF LIPX 101100Z 1012/1112 VRB05KT 8000 NSC"
    },
    {
      "icao": "LIPY",
      "alert": "OK",
      "vis_m": 9999,
      "fzfg": false,
      "metar_trigger": false,
      "taf_trigger": false,
      "metar": "METAR LIPY 101620Z AUTO 27003KT 230V300 9999 NCD 06/01 Q1004",
      "taf": "TAF LIPY 101100Z 1012/1112 30012KT 9999 SCT050"
    },
    {
      "icao": "LIPZ",
      "alert": "OK",
      "vis_m": 9999,
      "fzfg": false,
      "metar_trigger": false,
      "taf_trigger": false,
      "metar": "METAR LIPZ 101620Z 21006KT 9999 FEW060 04/02 Q1003 NOSIG",
      "taf": "TAF LIPZ 101100Z 1012/1118 VRB05KT CAVOK"
    },
    {
      "icao": "LIRF",
      "alert": "OK",
      "vis_m": 9999,
      "fzfg": false,
      "metar_trigger": false,
      "taf_trigger": false,
      "metar": "METAR LIRF 101620Z VRB02KT 9999 SCT020 07/05 Q1003 NOSIG",
      "taf": ""
    },
    {
      "icao": "LIRN",
      "alert": "OK",
      "vis_m": 9999,
      "fzfg": false,
      "metar_trigger": false,
      "taf_trigger": false,
      "metar": "METAR LIRN 101620Z 07003KT 9999 FEW040 08/05 Q1001 NOSIG",
      "taf": "TAF LIRN 101100Z 1012/1112 34016KT 9999 SCT030"
    },
    {
      "icao": "LIRP",
      "alert": "OK",
      "vis_m": 9999,
      "fzfg": false,
      "metar_trigger": false,
      "taf_trigger": false,
      "metar": "METAR LIRP 101615Z 30008KT CAVOK 09/M01 Q1003 NOSIG",
      "taf": "TAF LIRP 101100Z 1012/1112 34005KT CAVOK"
    },
    {
      "icao": "LIRZ",
      "alert": "OK",
      "vis_m": 9999,
      "fzfg": false,
      "metar_trigger": false,
      "taf_trigger": false,
      "metar": "METAR LIRZ 101620Z AUTO 36004KT 9999 NCD 05/02 Q1003",
      "taf": "TAF LIRZ 101100Z 1012/1112 35011KT 9999 BKN040"
    },
    {
      "icao": "LJLJ",
      "alert": "OK",
      "vis_m": 400,
      "fzfg": true,
      "metar_trigger": false,
      "taf_trigger": false,
      "metar": "METAR LJLJ 101630Z 27004KT 0400 R30/0800N FZFG VV001 M01/M01 Q1003 NOSIG",
      "taf": "TAF LJLJ 101100Z 1012/1112 VRB02KT 0200 FG VV001"
    },
    {
      "icao": "LKMT",
      "alert": "OK",
      "vis_m": 8000,
      "fzfg": false,
      "metar_trigger": false,
      "taf_trigger": false,
      "metar": "METAR LKMT 101630Z 01006KT 8000 FEW021 M10/M13 Q1008 NOSIG",
      "taf": "TAF LKMT 101100Z 1012/1112 36012KT 6000 -SN OVC013"
    },
    {
      "icao": "LKPR",
      "alert": "OK",
      "vis_m": 9000,
      "fzfg": false,
      "metar_trigger": false,
      "taf_trigger": false,
      "metar": "METAR LKPR 101630Z 32005KT 9000 SCT021 BKN026 OVC034 M07/M08 Q1009 NOSIG",
      "taf": "TAF LKPR 101400Z 1015/1121 02005KT 5000 -SN BR BKN008 OVC015"
    },
    {
      "icao": "LLBG",
      "alert": "OK",
      "vis_m": 9999,
      "fzfg": false,
      "metar_trigger": false,
      "taf_trigger": false,
      "metar": "METAR LLBG 101620Z 15005KT CAVOK 17/11 Q1020 NOSIG RMK FEW067 BKN092",
      "taf": "TAF LLBG 101102Z 1012/1112 21012KT 9999 SCT030"
    },
    {
      "icao": "LMML",
      "alert": "OK",
      "vis_m": 9999,
      "fzfg": false,
      "metar_trigger": false,
      "taf_trigger": false,
      "metar": "METAR LMML 101645Z 30029G41KT 9999 -RA FEW018 BKN040 11/07 Q1012 NOSIG",
      "taf": "TAF LMML 101100Z 1012/1112 29026G36KT 9999 FEW020 SCT045"
    },
    {
      "icao": "LOWW",
      "alert": "OK",
      "vis_m": 9999,
      "fzfg": false,
      "metar_trigger": false,
      "taf_trigger": false,
      "metar": "METAR LOWW 101620Z 36012KT 9999 FEW032 BKN034 M05/M10 Q1007 TEMPO 4000 -SN BR",
      "taf": "TAF LOWW 101415Z 1015/1121 35012KT 6000 SCT004 BKN050 TXM03/1111Z TNM07/1100Z"
    },
    {
      "icao": "LPFR",
      "alert": "OK",
      "vis_m": 9999,
      "fzfg": false,
      "metar_trigger": false,
      "taf_trigger": false,
      "metar": "METAR LPFR 101630Z 32008KT 290V360 9999 FEW030 SCT038 16/07 Q1028",
      "taf": "TAF LPFR 101100Z 1012/1112 34005KT 9999 FEW025"
    },
    {
      "icao": "LPMA",
      "alert": "OK",
      "vis_m": 9999,
      "fzfg": false,
      "metar_trigger": false,
      "taf_trigger": false,
      "metar": "METAR LPMA 101630Z 04008KT 9999 FEW016 18/12 Q1029",
      "taf": "TAF LPMA 101100Z 1012/1112 01007KT 9999 SCT015"
    },
    {
      "icao": "LPPR",
      "alert": "OK",
      "vis_m": 9999,
      "fzfg": false,
      "metar_trigger": false,
      "taf_trigger": false,
      "metar": "METAR LPPR 101630Z 19005KT 9999 FEW012 BKN040 12/08 Q1028",
      "taf": "TAF LPPR 101100Z 1012/1112 19010KT 9999 FEW020 BKN035"
    },
    {
      "icao": "LPPS",
      "alert": "OK",
      "vis_m": 9999,
      "fzfg": false,
      "metar_trigger": false,
      "taf_trigger": false,
      "metar": "METAR LPPS 101630Z 02007KT 310V060 9999 SCT015 17/13 Q1029",
      "taf": "TAF LPPS 101100Z 1012/1118 02008KT 9999 SCT015 SCT030"
    },
    {
      "icao": "LPPT",
      "alert": "OK",
      "vis_m": 9999,
      "fzfg": false,
      "metar_trigger": false,
      "taf_trigger": false,
      "metar": "METAR LPPT 101630Z 24006KT 220V280 9999 FEW022 SCT035 14/09 Q1028",
      "taf": "TAF LPPT 101100Z 1012/1118 29005KT 9999 FEW020 BKN035"
    },
    {
      "icao": "LQBK",
      "alert": "OK",
      "vis_m": 1500,
      "fzfg": false,
      "metar_trigger": false,
      "taf_trigger": false,
      "metar": "METAR LQBK 101630Z VRB03KT 1500 R16/1200U BR BKN003 OVC008 01/01 Q1004 NOSIG",
      "taf": ""
    },
    {
      "icao": "LQSA",
      "alert": "OK",
      "vis_m": 7000,
      "fzfg": false,
      "metar_trigger": false,
      "taf_trigger": false,
      "metar": "METAR LQSA 101630Z 29009KT 7000 -SN BKN012 OVC018 01/01 Q1000 NOSIG",
      "taf": ""
    },
    {
      "icao": "LQTZ",
      "alert": "OK",
      "vis_m": 3000,
      "fzfg": false,
      "metar_trigger": false,
      "taf_trigger": false,
      "metar": "METAR LQTZ 101630Z 28008KT 3000 -SN BR OVC004 00/00 Q1002",
      "taf": "TAF LQTZ 101100Z 1012/1112 27006KT 3000 BR BKN005 OVC012 TX02/1013Z TNM06/1106Z"
    },
    {
      "icao": "LRBC",
      "alert": "OK",
      "vis_m": 9999,
      "fzfg": false,
      "metar_trigger": false,
      "taf_trigger": false,
      "metar": "METAR LRBC 101630Z 32003KT CAVOK M06/M08 Q1001",
      "taf": "TAF LRBC 101400Z 1015/1024 VRB04KT 9999 SCT050"
    },
    {
      "icao": "LRBS",
      "alert": "OK",
      "vis_m": 9999,
      "fzfg": false,
      "metar_trigger": false,
      "taf_trigger": false,
      "metar": "METAR LRBS 101630Z 05006KT 010V080 9999 BKN015 01/M01 Q1000 TEMPO BKN010",
      "taf": "TAF LRBS 101100Z 1012/1112 VRB04KT 9999 BKN020"
    },
    {
      "icao": "LRBV",
      "alert": "OK",
      "vis_m": 6000,
      "fzfg": false,
      "metar_trigger": false,
      "taf_trigger": false,
      "metar": "METAR LRBV 101630Z VRB01KT 6000 FEW011 OVC019 M02/M04 Q0999",
      "taf": "TAF LRBV 101400Z 1015/1024 VRB04KT 5000 BR OVC025"
    },
    {
      "icao": "LRCL",
      "alert": "OK",
      "vis_m": 9999,
      "fzfg": false,
      "metar_trigger": false,
      "taf_trigger": false,
      "metar": "METAR LRCL 101630Z 00000KT 9999 OVC018 M03/M05 Q1001",
      "taf": "TAF LRCL 101400Z 1015/1024 VRB04KT 9999 OVC025"
    },
    {
      "icao": "LRCV",
      "alert": "OK",
      "vis_m": 4000,
      "fzfg": false,
      "metar_trigger": false,
      "taf_trigger": false,
      "metar": "METAR LRCV 101630Z COR 01006KT 4000 -RA BR BKN040 OVC043 00/00 Q0997",
      "taf": ""
    },
    {
      "icao": "LRIA",
      "alert": "OK",
      "vis_m": 9999,
      "fzfg": false,
      "metar_trigger": false,
      "taf_trigger": false,
      "metar": "METAR LRIA 101630Z 35010KT CAVOK M04/M07 Q1002",
      "taf": "TAF LRIA 101400Z 1015/1024 VRB04KT CAVOK"
    },
    {
      "icao": "LROP",
      "alert": "OK",
      "vis_m": 8000,
      "fzfg": false,
      "metar_trigger": false,
      "taf_trigger": false,
      "metar": "METAR LROP 101630Z 05009KT 8000 OVC012 01/M02 Q0999 NOSIG",
      "taf": "TAF LROP 101100Z 1012/1112 VRB04KT 9999 BKN020"
    },
    {
      "icao": "LRSB",
      "alert": "OK",
      "vis_m": 9999,
      "fzfg": false,
      "metar_trigger": false,
      "taf_trigger": false,
      "metar": "METAR LRSB 101630Z 34006KT 9999 OVC013 M02/M03 Q0999",
      "taf": "TAF LRSB 101100Z 1012/1112 VRB04KT 9999 BKN020"
    },
    {
      "icao": "LRSM",
      "alert": "OK",
      "vis_m": 9999,
      "fzfg": false,
      "metar_trigger": false,
      "taf_trigger": false,
      "metar": "METAR LRSM 101630Z AUTO 02008KT 9999 BKN018/// OVC030/// M03/M05 Q1003",
      "taf": ""
    },
    {
      "icao": "LRSV",
      "alert": "OK",
      "vis_m": 7000,
      "fzfg": false,
      "metar_trigger": false,
      "taf_trigger": false,
      "metar": "METAR LRSV 101630Z 02009KT 7000 SCT021 M10/M11 Q1001",
      "taf": "TAF LRSV 101400Z 1015/1024 03008KT CAVOK"
    },
    {
      "icao": "LRTM",
      "alert": "OK",
      "vis_m": 6000,
      "fzfg": false,
      "metar_trigger": false,
      "taf_trigger": false,
      "metar": "METAR LRTM 101630Z 24003KT 6000 OVC025 M03/M04 Q1001",
      "taf": "TAF LRTM 101400Z 1015/1024 VRB04KT 9999 SCT020 BKN030"
    },
    {
      "icao": "LRTR",
      "alert": "OK",
      "vis_m": 5000,
      "fzfg": false,
      "metar_trigger": false,
      "taf_trigger": false,
      "metar": "METAR LRTR 101630Z 36012KT 5000 BR BKN006 OVC015 M02/M02 Q1001",
      "taf": ""
    },
    {
      "icao": "LTAC",
      "alert": "OK",
      "vis_m": 6000,
      "fzfg": false,
      "metar_trigger": false,
      "taf_trigger": false,
      "metar": "METAR LTAC 101620Z 34003KT 6000 -RASN FEW010 BKN026 BKN080 00/M00 Q1008 NOSIG RMK RWY21C 34004KT RWY03L VRB02KT RWY21R 32002KT RWY03R VRB02KT RWY21L 32004KT",
      "taf": ""
    },
    {
      "icao": "LTFM",
      "alert": "OK",
      "vis_m": 9999,
      "fzfg": false,
      "metar_trigger": false,
      "taf_trigger": false,
      "metar": "METAR LTFM 101620Z 21018KT 9999 FEW023CB SCT032 BKN090 14/09 Q0996 NOSIG RMK RWY17L 21015KT RWY34L 20017KT RWY16R 21014KT RWY36 21016KT RWY18 21020KT",
      "taf": ""
    },
    {
      "icao": "LUKK",
      "alert": "OK",
      "vis_m": 9000,
      "fzfg": false,
      "metar_trigger": false,
      "taf_trigger": false,
      "metar": "METAR LUKK 101630Z 04003KT 9000 NSC M07/M08 Q1001 NOSIG",
      "taf": "TAF LUKK 101105Z 1012/1112 VRB05KT CAVOK"
    },
    {
      "icao": "LWOH",
      "alert": "OK",
      "vis_m": null,
      "fzfg": false,
      "metar_trigger": false,
      "taf_trigger": false,
      "metar": "",
      "taf": "TAF LWOH 101425Z 1015/1115 15012KT 9999 -RA FEW020 BKN040"
    },
    {
      "icao": "LWSK",
      "alert": "OK",
      "vis_m": null,
      "fzfg": false,
      "metar_trigger": false,
      "taf_trigger": false,
      "metar": "",
      "taf": "TAF LWSK 101425Z 1015/1115 VRB02KT 9999 FEW030 SCT060"
    },
    {
      "icao": "LYBE",
      "alert": "OK",
      "vis_m": 6000,
      "fzfg": false,
      "metar_trigger": false,
      "taf_trigger": false,
      "metar": "METAR LYBE 101630Z 34009KT 6000 OVC003 M01/M02 Q1002 NOSIG",
      "taf": "TAF LYBE 101100Z 1012/1112 36007KT 0300 FG VV001 TX01/1013Z TNM04/1106Z"
    },
    {
      "icao": "LYNI",
      "alert": "OK",
      "vis_m": 6000,
      "fzfg": false,
      "metar_trigger": false,
      "taf_trigger": false,
      "metar": "METAR LYNI 101630Z 32007KT 6000 SN SCT005 OVC020 00/00 Q0998 TEMPO 3000",
      "taf": "TAF LYNI 101100Z 1012/1112 07004KT 4000 BR SCT015 BKN030 TX02/1012Z TNM03/1106Z"
    },
    {
      "icao": "LYPG",
      "alert": "OK",
      "vis_m": 5000,
      "fzfg": false,
      "metar_trigger": false,
      "taf_trigger": false,
      "metar": "METAR LYPG 101630Z VRB02KT 5000 RA FEW006 SCT030 BKN040 08/06 Q0995 TEMPO 2000 SHRA FEW006 SCT030TCU BKN040",
      "taf": "TAF LYPG 101100Z 1012/1112 16005KT 7000 RA FEW010 SCT030 OVC070 TX08/1012Z TN04/1105Z"
    },
    {
      "icao": "LZIB",
      "alert": "OK",
      "vis_m": 9999,
      "fzfg": false,
      "metar_trigger": false,
      "taf_trigger": false,
      "metar": "METAR LZIB 101630Z 32009KT 9999 BKN045 M03/M09 Q1005 NOSIG",
      "taf": "TAF LZIB 101115Z 1012/1112 06004KT 9999 SCT010 BKN035"
    },
    {
      "icao": "LZKZ",
      "alert": "OK",
      "vis_m": 9999,
      "fzfg": false,
      "metar_trigger": false,
      "taf_trigger": false,
      "metar": "METAR LZKZ 101630Z 02015KT 9999 OVC036 M08/M12 Q1004 NOSIG",
      "taf": "TAF LZKZ 101115Z 1012/1112 03006KT 9999 SCT010 BKN030"
    },
    {
      "icao": "LZTT",
      "alert": "OK",
      "vis_m": 9999,
      "fzfg": false,
      "metar_trigger": false,
      "taf_trigger": false,
      "metar": "METAR LZTT 101630Z 08010KT 9999 BKN022 M10/M14 Q1001 NOSIG",
      "taf": ""
    },
    {
      "icao": "OEJN",
      "alert": "OK",
      "vis_m": 9999,
      "fzfg": false,
      "metar_trigger": false,
      "taf_trigger": false,
      "metar": "METAR OEJN 101600Z 33011KT CAVOK 26/15 Q1014 NOSIG",
      "taf": "TAF OEJN 101100Z 1012/1118 32010KT 9999 SCT040"
    },
    {
      "icao": "OEMA",
      "alert": "OK",
      "vis_m": 9999,
      "fzfg": false,
      "metar_trigger": false,
      "taf_trigger": false,
      "metar": "METAR OEMA 101600Z 01004KT CAVOK 22/00 Q1020 NOSIG",
      "taf": "TAF OEMA 101100Z 1012/1118 07010KT 7000 NSC"
    },
    {
      "icao": "OJAI",
      "alert": "OK",
      "vis_m": 5000,
      "fzfg": false,
      "metar_trigger": false,
      "taf_trigger": false,
      "metar": "METAR OJAI 101600Z 24012KT 5000 BR NSC 10/08 Q1021 NOSIG",
      "taf": "TAF OJAI 101100Z 1012/1118 26012KT 5000 HZ SCT030"
    },
    {
      "icao": "OMAA",
      "alert": "OK",
      "vis_m": 9999,
      "fzfg": false,
      "metar_trigger": false,
      "taf_trigger": false,
      "metar": "METAR OMAA 101600Z 36006KT CAVOK 21/12 Q1019 NOSIG",
      "taf": "TAF OMAA 101100Z 1012/1118 VRB02KT 8000 FEW045"
    },
    {
      "icao": "OMDB",
      "alert": "OK",
      "vis_m": 9999,
      "fzfg": false,
      "metar_trigger": false,
      "taf_trigger": false,
      "metar": "METAR OMDB 101630Z 33007KT CAVOK 22/10 Q1019 NOSIG",
      "taf": "TAF OMDB 101100Z 1012/1118 31010KT 8000 NSC"
    },
    {
      "icao": "UAAA",
      "alert": "OK",
      "vis_m": 700,
      "fzfg": true,
      "metar_trigger": false,
      "taf_trigger": false,
      "metar": "METAR UAAA 101630Z 16001MPS 0700 R05R/1900N FZFG FEW100 M05/M06 Q1017 NOSIG",
      "taf": "TAF UAAA 101104Z 1012/1112 24003MPS 1600 BR FU SCT011 BKN100 TX05/1109Z TNM05/1101Z"
    },
    {
      "icao": "UBBB",
      "alert": "OK",
      "vis_m": 7000,
      "fzfg": false,
      "metar_trigger": false,
      "taf_trigger": false,
      "metar": "METAR UBBB 101630Z 31012KT 7000 -RA BKN005 OVC017 07/06 Q1016 NOSIG",
      "taf": "TAF UBBB 101055Z 1012/1112 33018KT 9999 SCT017 BKN030 TX09/1012Z TN04/1102Z"
    },
    {
      "icao": "UDSG",
      "alert": "OK",
      "vis_m": 9999,
      "fzfg": false,
      "metar_trigger": false,
      "taf_trigger": false,
      "metar": "METAR UDSG 101630Z 07004KT 9999 FEW049 M11/M12 Q1015 NOSIG",
      "taf": "TAF UDSG 101058Z 1012/1112 VRB06KT 5000 BR SCT030"
    },
    {
      "icao": "UDYZ",
      "alert": "OK",
      "vis_m": 800,
      "fzfg": true,
      "metar_trigger": false,
      "taf_trigger": false,
      "metar": "METAR UDYZ 101630Z 04001KT 0800 0750N R08/1900N FZFG SCT046 M02/M03 Q1016 NOSIG",
      "taf": "TAF UDYZ 101100Z 1012/1112 VRB04KT 1500 BR SCT030"
    },
    {
      "icao": "UGKO",
      "alert": "OK",
      "vis_m": 9999,
      "fzfg": false,
      "metar_trigger": false,
      "taf_trigger": false,
      "metar": "METAR UGKO 101630Z 08010KT CAVOK 03/01 Q1014 NOSIG",
      "taf": "TAF UGKO 101100Z 1012/1112 08010KT CAVOK TX15/1111Z TN03/1022Z"
    }
  ]
}