{
  "ts_utc": "2026-02-06T21:03:14Z",
  "threshold_m": 150,
  "source": "stations_override.txt (ICAO list) + aviationweather.gov (METAR/TAF raw)",
  "station_count": 159,
  "stations": [
    {
      "icao": "BIKF",
      "alert": "OK",
      "vis_m": 9999,
      "fzfg": false,
      "metar_trigger": false,
      "taf_trigger": false,
      "metar": "METAR BIKF 062030Z 11008KT CAVOK 03/M01 Q1008",
      "taf": "TAF BIKF 061948Z 0621/0721 06008KT 9999 SCT030 TX03/0714Z TNM01/0709Z"
    },
    {
      "icao": "BKPR",
      "alert": "OK",
      "vis_m": 9999,
      "fzfg": false,
      "metar_trigger": false,
      "taf_trigger": false,
      "metar": "METAR BKPR 062100Z VRB01KT 9999 FEW015 SCT070 06/06 Q0998 NOSIG",
      "taf": "TAF BKPR 061730Z 0618/0718 19007KT 9999 SCT020 BKN040"
    },
    {
      "icao": "EBCI",
      "alert": "OK",
      "vis_m": 9999,
      "fzfg": false,
      "metar_trigger": false,
      "taf_trigger": false,
      "metar": "METAR EBCI 062050Z 20008KT 9999 FEW018 08/07 Q0995 TEMPO 4500 SHRA",
      "taf": "TAF EBCI 061707Z 0618/0724 19007KT 9999 SCT015 SCT300"
    },
    {
      "icao": "EDDB",
      "alert": "OK",
      "vis_m": 1000,
      "fzfg": false,
      "metar_trigger": false,
      "taf_trigger": false,
      "metar": "METAR EDDB 062050Z AUTO 08004KT 1000 0800 R06L/1800D R06R/1300U BCFG OVC001 01/01 Q0999 TEMPO 0700 FG",
      "taf": "TAF EDDB 061700Z 0618/0718 08003KT 3000 BR OVC003"
    },
    {
      "icao": "EDDH",
      "alert": "OK",
      "vis_m": 4200,
      "fzfg": false,
      "metar_trigger": false,
      "taf_trigger": false,
      "metar": "METAR EDDH 062050Z AUTO 10006KT 4200 BR OVC004 01/00 Q0999 TEMPO 2500",
      "taf": "TAF EDDH 061700Z 0618/0724 08007KT 3500 BR OVC003"
    },
    {
      "icao": "EDDK",
      "alert": "OK",
      "vis_m": 9999,
      "fzfg": false,
      "metar_trigger": false,
      "taf_trigger": false,
      "metar": "METAR EDDK 062050Z AUTO 11004KT 060V140 9999 BKN035 06/04 Q0996 NOSIG",
      "taf": "TAF EDDK 061700Z 0618/0724 13010KT 9999 BKN030"
    },
    {
      "icao": "EDDN",
      "alert": "OK",
      "vis_m": 6000,
      "fzfg": false,
      "metar_trigger": false,
      "taf_trigger": false,
      "metar": "METAR EDDN 062050Z AUTO 10006KT 6000 -SHRA OVC009 FEW///TCU 01/00 Q0999 BECMG OVC010",
      "taf": "TAF EDDN 061700Z 0618/0718 VRB03KT 9000 BKN020"
    },
    {
      "icao": "EDDS",
      "alert": "OK",
      "vis_m": 9999,
      "fzfg": false,
      "metar_trigger": false,
      "taf_trigger": false,
      "metar": "METAR EDDS 062050Z AUTO VRB02KT 9999 VCSH BKN045 FEW///TCU 07/05 Q0998 TEMPO SHRA",
      "taf": "TAF EDDS 061700Z 0618/0718 VRB03KT 9999 BKN030"
    },
    {
      "icao": "EDFH",
      "alert": "OK",
      "vis_m": 9999,
      "fzfg": false,
      "metar_trigger": false,
      "taf_trigger": false,
      "metar": "METAR EDFH 062050Z 16007KT 140V200 9999 0450NE R21/0400D BCFG FEW019 04/03 Q0996",
      "taf": ""
    },
    {
      "icao": "EDJA",
      "alert": "OK",
      "vis_m": 9999,
      "fzfg": false,
      "metar_trigger": false,
      "taf_trigger": false,
      "metar": "METAR EDJA 062050Z 21008KT 9999 FEW041 OVC048 05/03 Q1000",
      "taf": "TAF EDJA 061700Z 0618/0703 24013KT 9999 FEW015 BKN035"
    },
    {
      "icao": "EDLW",
      "alert": "OK",
      "vis_m": 9999,
      "fzfg": false,
      "metar_trigger": false,
      "taf_trigger": false,
      "metar": "METAR EDLW 062050Z COR 15008KT 9999 FEW030 BKN045 07/04 Q0995",
      "taf": "TAF EDLW 061700Z 0618/0718 VRB03KT 9999 BKN020"
    },
    {
      "icao": "EDNY",
      "alert": "OK",
      "vis_m": 9999,
      "fzfg": false,
      "metar_trigger": false,
      "taf_trigger": false,
      "metar": "METAR EDNY 062050Z VRB02KT 9999 FEW047 BKN055 05/04 Q1000",
      "taf": "TAF EDNY 061700Z 0618/0703 VRB03KT 9999 BKN035"
    },
    {
      "icao": "EDSB",
      "alert": "OK",
      "vis_m": 4800,
      "fzfg": false,
      "metar_trigger": false,
      "taf_trigger": false,
      "metar": "METAR EDSB 062050Z 19007KT 4800 RA BR FEW030 OVC034 07/07 Q0999",
      "taf": "TAF EDSB 061700Z 0618/0718 22003KT 8000 FEW001 BKN040"
    },
    {
      "icao": "EETN",
      "alert": "OK",
      "vis_m": 7000,
      "fzfg": false,
      "metar_trigger": false,
      "taf_trigger": false,
      "metar": "METAR EETN 062050Z 07007KT 7000 OVC035 M07/M08 Q1013 NOSIG",
      "taf": "TAF EETN 061730Z 0618/0718 08010KT 8000 OVC007"
    },
    {
      "icao": "EFTU",
      "alert": "OK",
      "vis_m": 9999,
      "fzfg": false,
      "metar_trigger": false,
      "taf_trigger": false,
      "metar": "METAR EFTU 062050Z AUTO 07005KT 040V100 CAVOK M14/M17 Q1014",
      "taf": "TAF EFTU 062029Z 0621/0721 07005KT 9999 FEW040"
    },
    {
      "icao": "EGBB",
      "alert": "OK",
      "vis_m": 2200,
      "fzfg": false,
      "metar_trigger": false,
      "taf_trigger": false,
      "metar": "METAR EGBB 062050Z VRB02KT 2200 RADZ SCT003 BKN006 07/06 Q0989 REDZ",
      "taf": "TAF EGBB 061703Z 0618/0718 07009KT 9999 SCT004 BKN009"
    },
    {
      "icao": "EGGP",
      "alert": "OK",
      "vis_m": 8000,
      "fzfg": false,
      "metar_trigger": false,
      "taf_trigger": false,
      "metar": "METAR EGGP 062050Z 09007KT 8000 -RA BKN009 05/03 Q0989 REDZ",
      "taf": "TAF EGGP 061700Z 0618/0718 08008KT 9999 BKN016"
    },
    {
      "icao": "EGGW",
      "alert": "OK",
      "vis_m": 9999,
      "fzfg": false,
      "metar_trigger": false,
      "taf_trigger": false,
      "metar": "METAR EGGW 062050Z AUTO 22009KT 9999 BKN011 08/07 Q0990",
      "taf": "TAF EGGW 061654Z 0618/0718 22007KT 9999 SCT015"
    },
    {
      "icao": "EGKK",
      "alert": "OK",
      "vis_m": 9999,
      "fzfg": false,
      "metar_trigger": false,
      "taf_trigger": false,
      "metar": "METAR EGKK 062050Z 20004KT 160V250 9999 FEW031 SCT039 BKN047 08/08 Q0991",
      "taf": "TAF EGKK 061701Z 0618/0724 19008KT 9999 SCT010"
    },
    {
      "icao": "EGNM",
      "alert": "OK",
      "vis_m": 400,
      "fzfg": false,
      "metar_trigger": false,
      "taf_trigger": false,
      "metar": "METAR EGNM 062050Z 04005KT 020V080 0400 R32/0550N -RADZ FG OVC002 03/03 Q0990",
      "taf": "TAF EGNM 061702Z 0618/0718 08008KT 2000 -RA BR SCT002 BKN003"
    },
    {
      "icao": "EGPD",
      "alert": "OK",
      "vis_m": 9999,
      "fzfg": false,
      "metar_trigger": false,
      "taf_trigger": false,
      "metar": "METAR EGPD 062050Z AUTO 09011KT 9999 SCT013/// BKN021/// BKN029/// //////CB 04/02 Q0997 TEMPO RA BKN013",
      "taf": "TAF EGPD 061659Z 0618/0718 10012KT 9999 SCT012 BKN020"
    },
    {
      "icao": "EGPF",
      "alert": "OK",
      "vis_m": 9999,
      "fzfg": false,
      "metar_trigger": false,
      "taf_trigger": false,
      "metar": "METAR EGPF 062050Z AUTO 06014KT 9999 -RA OVC010 04/03 Q0993",
      "taf": "TAF EGPF 061655Z 0618/0718 07014KT 9999 SCT018 BKN025"
    },
    {
      "icao": "EHBK",
      "alert": "OK",
      "vis_m": 9999,
      "fzfg": false,
      "metar_trigger": false,
      "taf_trigger": false,
      "metar": "METAR EHBK 062055Z AUTO 20009KT 9999 SCT030/// OVC035/// 09/08 Q0995 NOSIG",
      "taf": "TAF EHBK 061719Z 0618/0724 18007KT CAVOK"
    },
    {
      "icao": "EHEH",
      "alert": "OK",
      "vis_m": 9999,
      "fzfg": false,
      "metar_trigger": false,
      "taf_trigger": false,
      "metar": "METAR EHEH 062055Z AUTO 18006KT 9999 BKN034 OVC043 08/08 Q0994 REDZ BLU NOSIG RMK TREND REMOTE BY EHWX",
      "taf": ""
    },
    {
      "icao": "EKBI",
      "alert": "OK",
      "vis_m": 5000,
      "fzfg": false,
      "metar_trigger": false,
      "taf_trigger": false,
      "metar": "METAR EKBI 062050Z AUTO 09013KT 5000 BR OVC004/// 00/00 Q1001",
      "taf": "TAF EKBI 062027Z 0621/0721 07014KT 9000 OVC004"
    },
    {
      "icao": "EKCH",
      "alert": "OK",
      "vis_m": 9999,
      "fzfg": false,
      "metar_trigger": false,
      "taf_trigger": false,
      "metar": "METAR EKCH 062052Z 08010KT 9999 BKN011 01/M01 Q1003 TEMPO BKN008",
      "taf": "TAF EKCH 062027Z 0621/0721 09012KT 9999 BKN012"
    },
    {
      "icao": "ENAL",
      "alert": "OK",
      "vis_m": 9999,
      "fzfg": false,
      "metar_trigger": false,
      "taf_trigger": false,
      "metar": "METAR ENAL 062050Z 13013KT CAVOK 03/M10 Q1007",
      "taf": "TAF ENAL 062000Z 0621/0706 13009KT CAVOK"
    },
    {
      "icao": "ENBR",
      "alert": "OK",
      "vis_m": 9999,
      "fzfg": false,
      "metar_trigger": false,
      "taf_trigger": false,
      "metar": "METAR ENBR 062050Z 05003KT 9999 BKN049 00/M06 Q1006 RMK WIND 1200FT 09004KT",
      "taf": "TAF ENBR 061700Z 0618/0718 06005KT CAVOK"
    },
    {
      "icao": "ENGM",
      "alert": "OK",
      "vis_m": 9999,
      "fzfg": false,
      "metar_trigger": false,
      "taf_trigger": false,
      "metar": "METAR ENGM 062050Z 02012KT 9999 OVC024 M09/M13 Q1013 NOSIG",
      "taf": "TAF ENGM 061700Z 0618/0718 02012KT 9999 BKN030"
    },
    {
      "icao": "ENHD",
      "alert": "OK",
      "vis_m": 9999,
      "fzfg": false,
      "metar_trigger": false,
      "taf_trigger": false,
      "metar": "METAR ENHD 062050Z AUTO 09002KT 9999 NCD M01/M06 Q1006",
      "taf": "TAF ENHD 061400Z 0615/0623 08008KT 9999 FEW030 BKN040"
    },
    {
      "icao": "ENTC",
      "alert": "OK",
      "vis_m": 9999,
      "fzfg": false,
      "metar_trigger": false,
      "taf_trigger": false,
      "metar": "METAR ENTC 062050Z 03004KT 330V070 9999 FEW042 SCT068 M01/M05 Q1017 NOSIG RMK WIND 2600FT 02016KT",
      "taf": "TAF ENTC 061700Z 0618/0718 04006KT 9999 SCT020 BKN040"
    },
    {
      "icao": "ENTO",
      "alert": "OK",
      "vis_m": 3600,
      "fzfg": false,
      "metar_trigger": false,
      "taf_trigger": false,
      "metar": "METAR ENTO 062050Z 01015KT 3600 -SN OVC033 M07/M08 Q1012 TEMPO 2000 VV014",
      "taf": "TAF ENTO 061700Z 0618/0718 02016KT 9999 -SN BKN018"
    },
    {
      "icao": "ENVA",
      "alert": "OK",
      "vis_m": 9999,
      "fzfg": false,
      "metar_trigger": false,
      "taf_trigger": false,
      "metar": "METAR ENVA 062050Z 11006KT CAVOK M13/M19 Q1015 RMK WIND 670FT 10007KT",
      "taf": "TAF ENVA 061700Z 0618/0718 12008KT CAVOK"
    },
    {
      "icao": "ENZV",
      "alert": "OK",
      "vis_m": 9999,
      "fzfg": false,
      "metar_trigger": false,
      "taf_trigger": false,
      "metar": "METAR ENZV 062050Z 09008KT CAVOK M01/M10 Q1006",
      "taf": "TAF ENZV 061700Z 0618/0718 13007KT CAVOK"
    },
    {
      "icao": "EPGD",
      "alert": "OK",
      "vis_m": 4400,
      "fzfg": false,
      "metar_trigger": false,
      "taf_trigger": false,
      "metar": "METAR EPGD 062030Z 08005KT 4400 BR OVC003 M02/M02 Q1002",
      "taf": "TAF EPGD 061730Z 0618/0718 08006KT 5000 BR OVC005"
    },
    {
      "icao": "EPKK",
      "alert": "OK",
      "vis_m": 1400,
      "fzfg": false,
      "metar_trigger": false,
      "taf_trigger": false,
      "metar": "METAR EPKK 062030Z VRB01KT 1400 R25/1900N BR FEW007 BKN048 02/01 Q0998",
      "taf": "TAF EPKK 062030Z 0621/0721 VRB02KT 1800 BR BKN007"
    },
    {
      "icao": "EPKT",
      "alert": "OK",
      "vis_m": 5000,
      "fzfg": false,
      "metar_trigger": false,
      "taf_trigger": false,
      "metar": "METAR EPKT 062030Z 19002KT 5000 BR SCT039 BKN045 01/00 Q0998",
      "taf": "TAF EPKT 061730Z 0618/0718 06003KT 6000 SCT040"
    },
    {
      "icao": "EPLB",
      "alert": "OK",
      "vis_m": 3300,
      "fzfg": false,
      "metar_trigger": false,
      "taf_trigger": false,
      "metar": "METAR EPLB 062030Z 09006KT 3300 -RA BR OVC003 00/00 Q1000",
      "taf": "TAF EPLB 061730Z 0618/0718 10009KT 6000 -RA OVC005"
    },
    {
      "icao": "EPMO",
      "alert": "OK",
      "vis_m": 600,
      "fzfg": false,
      "metar_trigger": false,
      "taf_trigger": false,
      "metar": "METAR EPMO 062030Z 06008KT 0600 R08/0600N FG VV000 00/00 Q1000",
      "taf": "TAF EPMO 061730Z 0618/0718 09010KT 1500 BR OVC003"
    },
    {
      "icao": "EPPO",
      "alert": "OK",
      "vis_m": 1900,
      "fzfg": false,
      "metar_trigger": false,
      "taf_trigger": false,
      "metar": "METAR EPPO 062030Z 08005KT 1900 BR OVC002 01/M00 Q1000",
      "taf": "TAF EPPO 061730Z 0618/0718 08008KT 1500 BR OVC003"
    },
    {
      "icao": "EPRA",
      "alert": "OK",
      "vis_m": 5000,
      "fzfg": false,
      "metar_trigger": false,
      "taf_trigger": false,
      "metar": "METAR EPRA 062030Z 07005KT 5000 BR OVC003 01/M00 Q0999",
      "taf": "TAF EPRA 062030Z 0621/0706 09006KT 4000 BR OVC003"
    },
    {
      "icao": "EPRZ",
      "alert": "OK",
      "vis_m": 2500,
      "fzfg": false,
      "metar_trigger": false,
      "taf_trigger": false,
      "metar": "METAR EPRZ 062030Z 08010KT 2500 BR OVC002 01/00 Q0998",
      "taf": ""
    },
    {
      "icao": "EPSC",
      "alert": "OK",
      "vis_m": 4400,
      "fzfg": false,
      "metar_trigger": false,
      "taf_trigger": false,
      "metar": "METAR EPSC 062030Z 07003KT 4400 BR OVC006 01/M00 Q1000",
      "taf": "TAF EPSC 061730Z 0618/0718 08004KT 4000 BR OVC005"
    },
    {
      "icao": "EPSY",
      "alert": "OK",
      "vis_m": 1600,
      "fzfg": false,
      "metar_trigger": false,
      "taf_trigger": false,
      "metar": "METAR EPSY 062030Z 09004KT 040V130 1600 BR OVC002 M02/M02 Q1001",
      "taf": "TAF EPSY 062030Z 0621/0706 09006KT 2500 BR OVC004"
    },
    {
      "icao": "EPWA",
      "alert": "OK",
      "vis_m": 6000,
      "fzfg": false,
      "metar_trigger": false,
      "taf_trigger": false,
      "metar": "METAR EPWA 062030Z 09005KT 6000 BKN004 01/00 Q1000 TEMPO 3500 BR",
      "taf": "TAF EPWA 062030Z 0621/0721 08006KT 6000 OVC004"
    },
    {
      "icao": "EPWR",
      "alert": "OK",
      "vis_m": 5000,
      "fzfg": false,
      "metar_trigger": false,
      "taf_trigger": false,
      "metar": "METAR EPWR 062030Z 03003KT 5000 BR FEW033 02/01 Q0998",
      "taf": "TAF EPWR 062030Z 0621/0721 VRB02KT 4000 BR BKN040"
    },
    {
      "icao": "ESGG",
      "alert": "OK",
      "vis_m": 1600,
      "fzfg": false,
      "metar_trigger": false,
      "taf_trigger": false,
      "metar": "METAR ESGG 062050Z 05011KT 1600 -SN VV015 M05/M07 Q1006",
      "taf": "TAF ESGG 062030Z 0621/0721 05012KT 6000 -SN BKN030"
    },
    {
      "icao": "ESKN",
      "alert": "OK",
      "vis_m": 9000,
      "fzfg": false,
      "metar_trigger": false,
      "taf_trigger": false,
      "metar": "METAR ESKN 062050Z 03009KT 350V060 9000 BKN003 M05/M06 Q1011",
      "taf": ""
    },
    {
      "icao": "ESMS",
      "alert": "OK",
      "vis_m": 9999,
      "fzfg": false,
      "metar_trigger": false,
      "taf_trigger": false,
      "metar": "METAR ESMS 062050Z 08020KT 9999 OVC008 01/M00 Q1002",
      "taf": "TAF ESMS 062027Z 0621/0721 09018KT 9000 OVC008"
    },
    {
      "icao": "ESSA",
      "alert": "OK",
      "vis_m": 9999,
      "fzfg": false,
      "metar_trigger": false,
      "taf_trigger": false,
      "metar": "METAR ESSA 062050Z 05009KT 9999 BKN018 M05/M10 Q1013 NOSIG",
      "taf": "TAF ESSA 062030Z 0621/0721 05008KT 9999 BKN020"
    },
    {
      "icao": "EYKA",
      "alert": "OK",
      "vis_m": 9000,
      "fzfg": false,
      "metar_trigger": false,
      "taf_trigger": false,
      "metar": "METAR EYKA 062050Z 06005KT 9000 OVC014 M05/M07 Q1005",
      "taf": "TAF EYKA 061722Z 0618/0718 08006KT 9000 OVC015"
    },
    {
      "icao": "EYPA",
      "alert": "OK",
      "vis_m": 9000,
      "fzfg": false,
      "metar_trigger": false,
      "taf_trigger": false,
      "metar": "METAR EYPA 062050Z 07006KT 040V100 9000 -SN FEW011 OVC046 M05/M07 Q1006",
      "taf": "TAF EYPA 061701Z 0618/0718 08007KT 9000 FEW010 OVC025"
    },
    {
      "icao": "EYVI",
      "alert": "OK",
      "vis_m": 4400,
      "fzfg": false,
      "metar_trigger": false,
      "taf_trigger": false,
      "metar": "METAR EYVI 062050Z 08004KT 050V110 4400 -SN BR OVC022 M05/M06 Q1004 NOSIG",
      "taf": ""
    },
    {
      "icao": "GCFV",
      "alert": "OK",
      "vis_m": 9999,
      "fzfg": false,
      "metar_trigger": false,
      "taf_trigger": false,
      "metar": "METAR GCFV 062030Z 34010KT 9999 FEW020 18/11 Q1023",
      "taf": "TAF GCFV 062000Z 0621/0721 33005KT 9999 FEW025 TX22/0714Z TN16/0706Z"
    },
    {
      "icao": "GCLP",
      "alert": "OK",
      "vis_m": 9999,
      "fzfg": false,
      "metar_trigger": false,
      "taf_trigger": false,
      "metar": "METAR GCLP 062030Z 36012KT 9999 FEW035 18/10 Q1023 NOSIG",
      "taf": "TAF GCLP 062000Z 0621/0721 34009KT CAVOK TX22/0714Z TN16/0706Z"
    },
    {
      "icao": "GCTS",
      "alert": "OK",
      "vis_m": 9999,
      "fzfg": false,
      "metar_trigger": false,
      "taf_trigger": false,
      "metar": "METAR GCTS 062030Z 15003KT 080V200 9999 BKN030 19/12 Q1023 NOSIG",
      "taf": "TAF GCTS 062000Z 0621/0721 05007KT 9999 FEW035 TX24/0714Z TN16/0706Z"
    },
    {
      "icao": "GMAD",
      "alert": "OK",
      "vis_m": 8000,
      "fzfg": false,
      "metar_trigger": false,
      "taf_trigger": false,
      "metar": "METAR GMAD 062030Z 25011KT 8000 FEW020 14/12 Q1020 NOSIG",
      "taf": "TAF GMAD 061700Z 0618/0724 20008KT 8000 SCT020 SCT200"
    },
    {
      "icao": "GMMN",
      "alert": "OK",
      "vis_m": 9999,
      "fzfg": false,
      "metar_trigger": false,
      "taf_trigger": false,
      "metar": "METAR GMMN 062030Z 23009KT 9999 SCT030 12/10 Q1020 NOSIG",
      "taf": "TAF GMMN 061700Z 0618/0724 26014KT 9999 BKN030"
    },
    {
      "icao": "GMMX",
      "alert": "OK",
      "vis_m": 8000,
      "fzfg": false,
      "metar_trigger": false,
      "taf_trigger": false,
      "metar": "METAR GMMX 062030Z 27006KT 8000 BKN026 12/09 Q1021 NOSIG",
      "taf": "TAF GMMX 061700Z 0618/0724 26008KT 8000 SCT026 SCT090"
    },
    {
      "icao": "HEGN",
      "alert": "OK",
      "vis_m": 9999,
      "fzfg": false,
      "metar_trigger": false,
      "taf_trigger": false,
      "metar": "METAR HEGN 062000Z 25005KT CAVOK 19/13 Q1015 NOSIG",
      "taf": "TAF HEGN 061700Z 0618/0724 28008KT CAVOK"
    },
    {
      "icao": "HEMA",
      "alert": "OK",
      "vis_m": 9999,
      "fzfg": false,
      "metar_trigger": false,
      "taf_trigger": false,
      "metar": "METAR HEMA 062000Z 16006KT CAVOK 20/11 Q1014 NOSIG",
      "taf": "TAF HEMA 061700Z 0618/0724 21008KT CAVOK"
    },
    {
      "icao": "HESH",
      "alert": "OK",
      "vis_m": 9999,
      "fzfg": false,
      "metar_trigger": false,
      "taf_trigger": false,
      "metar": "METAR HESH 062000Z 26003KT CAVOK 19/16 Q1015 NOSIG",
      "taf": "TAF HESH 061700Z 0618/0724 29008KT CAVOK"
    },
    {
      "icao": "HESX",
      "alert": "OK",
      "vis_m": 9999,
      "fzfg": false,
      "metar_trigger": false,
      "taf_trigger": false,
      "metar": "METAR HESX 062000Z 22008KT CAVOK 20/05 Q1013 NOSIG",
      "taf": "TAF HESX 061700Z 0618/0724 20009KT CAVOK"
    },
    {
      "icao": "LATI",
      "alert": "OK",
      "vis_m": 9999,
      "fzfg": false,
      "metar_trigger": false,
      "taf_trigger": false,
      "metar": "METAR LATI 062050Z 11006KT 9999 BKN043 OVC064 13/11 Q0999 NOSIG",
      "taf": "TAF LATI 061700Z 0618/0718 22008KT 9999 SCT025 BKN070 TX16/0712Z TN11/0704Z"
    },
    {
      "icao": "LBPD",
      "alert": "OK",
      "vis_m": 4600,
      "fzfg": false,
      "metar_trigger": false,
      "taf_trigger": false,
      "metar": "METAR LBPD 062100Z AUTO 34001KT 4600 BR OVC017/// 07/07 Q0999",
      "taf": "TAF LBPD 061700Z 0618/0718 VRB04KT 9999 SCT015 BKN033"
    },
    {
      "icao": "LBSF",
      "alert": "OK",
      "vis_m": 7000,
      "fzfg": false,
      "metar_trigger": false,
      "taf_trigger": false,
      "metar": "METAR LBSF 062100Z AUTO 10005KT 7000 -RA FEW025/// SCT044/// OVC051/// 05/05 Q0998 TEMPO 3000 RA BR",
      "taf": "TAF LBSF 061700Z 0618/0718 VRB04KT 5000 BR SCT020 OVC040"
    },
    {
      "icao": "LBWN",
      "alert": "OK",
      "vis_m": 2000,
      "fzfg": false,
      "metar_trigger": false,
      "taf_trigger": false,
      "metar": "METAR LBWN 062100Z AUTO VRB02KT 2000 BR SCT001/// BKN004/// BKN031/// 07/07 Q0999 TEMPO 0350 BCFG SCT002 BKN005",
      "taf": "TAF LBWN 061700Z 0618/0718 VRB04KT 7000 BKN015"
    },
    {
      "icao": "LCLK",
      "alert": "OK",
      "vis_m": 6000,
      "fzfg": false,
      "metar_trigger": false,
      "taf_trigger": false,
      "metar": "METAR LCLK 062030Z 34005KT 6000 SCT009 14/14 Q1011 TEMPO BKN009",
      "taf": "TAF LCLK 061730Z 0618/0718 30007KT 8000 BR DU FEW018"
    },
    {
      "icao": "LCPH",
      "alert": "OK",
      "vis_m": 9000,
      "fzfg": false,
      "metar_trigger": false,
      "taf_trigger": false,
      "metar": "METAR LCPH 062030Z 01002KT 9000 FEW012 17/14 Q1011 NOSIG",
      "taf": "TAF LCPH 061730Z 0618/0718 02007KT 7000 BR DU FEW009 SCT012"
    },
    {
      "icao": "LEAL",
      "alert": "OK",
      "vis_m": 9999,
      "fzfg": false,
      "metar_trigger": false,
      "taf_trigger": false,
      "metar": "METAR LEAL 062030Z 24009KT CAVOK 13/06 Q1007 NOSIG",
      "taf": "TAF LEAL 061700Z 0618/0718 25015KT 9999 FEW015 BKN050 TX15/0714Z TN08/0706Z"
    },
    {
      "icao": "LEBB",
      "alert": "OK",
      "vis_m": 9999,
      "fzfg": false,
      "metar_trigger": false,
      "taf_trigger": false,
      "metar": "METAR LEBB 062030Z VRB01KT 9999 FEW066 10/08 Q1000 NOSIG",
      "taf": "TAF LEBB 061700Z 0618/0718 22009KT 9999 FEW040 TX14/0713Z TN09/0707Z"
    },
    {
      "icao": "LEBL",
      "alert": "OK",
      "vis_m": 9999,
      "fzfg": false,
      "metar_trigger": false,
      "taf_trigger": false,
      "metar": "METAR LEBL 062030Z 27003KT 250V310 9999 FEW035 11/08 Q1001 NOSIG",
      "taf": "TAF LEBL 061700Z 0618/0718 25009KT 9999 FEW025 TX15/0713Z TN09/0706Z"
    },
    {
      "icao": "LECH",
      "alert": "OK",
      "vis_m": 9999,
      "fzfg": false,
      "metar_trigger": false,
      "taf_trigger": false,
      "metar": "METAR LECH 062030Z AUTO 24006KT CAVOK 11/03 Q1003",
      "taf": ""
    },
    {
      "icao": "LEMD",
      "alert": "OK",
      "vis_m": 9999,
      "fzfg": false,
      "metar_trigger": false,
      "taf_trigger": false,
      "metar": "METAR LEMD 062030Z 21009KT 170V240 9999 FEW025 07/05 Q1005 NOSIG",
      "taf": ""
    },
    {
      "icao": "LEMG",
      "alert": "OK",
      "vis_m": 9999,
      "fzfg": false,
      "metar_trigger": false,
      "taf_trigger": false,
      "metar": "METAR LEMG 062030Z 03002KT 9999 VCSH FEW038TCU BKN054 11/08 Q1012 NOSIG",
      "taf": ""
    },
    {
      "icao": "LEVC",
      "alert": "OK",
      "vis_m": 9999,
      "fzfg": false,
      "metar_trigger": false,
      "taf_trigger": false,
      "metar": "METAR LEVC 062030Z 26010KT 9999 FEW040 13/05 Q1005 NOSIG",
      "taf": "TAF LEVC 061700Z 0618/0718 24014KT 9999 BKN050 TX16/0714Z TN08/0706Z"
    },
    {
      "icao": "LEXJ",
      "alert": "OK",
      "vis_m": 9999,
      "fzfg": false,
      "metar_trigger": false,
      "taf_trigger": false,
      "metar": "METAR LEXJ 062030Z 00000KT CAVOK 09/07 Q0999",
      "taf": "TAF LEXJ 062000Z 0621/0721 20009KT CAVOK TX14/0712Z TN09/0706Z"
    },
    {
      "icao": "LEZG",
      "alert": "OK",
      "vis_m": 9999,
      "fzfg": false,
      "metar_trigger": false,
      "taf_trigger": false,
      "metar": "METAR LEZG 062030Z 25009KT 9999 FEW070 12/05 Q1003 NOSIG",
      "taf": "TAF LEZG 061700Z 0618/0718 25009KT 9999 SCT060 TX14/0715Z TN07/0706Z"
    },
    {
      "icao": "LEZL",
      "alert": "OK",
      "vis_m": 9999,
      "fzfg": false,
      "metar_trigger": false,
      "taf_trigger": false,
      "metar": "METAR LEZL 062030Z 23006KT CAVOK 11/08 Q1011 NOSIG",
      "taf": "TAF LEZL 062000Z 0621/0721 23008KT 9999 SCT030 SCT040 TX15/0715Z TN12/0707Z"
    },
    {
      "icao": "LFBD",
      "alert": "OK",
      "vis_m": 9999,
      "fzfg": false,
      "metar_trigger": false,
      "taf_trigger": false,
      "metar": "METAR LFBD 062030Z AUTO 17006KT 9999 FEW019 OVC062 11/08 Q0999 TEMPO VRB15G25KT 2000 TSRA BKN035CB",
      "taf": ""
    },
    {
      "icao": "LFLL",
      "alert": "OK",
      "vis_m": 9999,
      "fzfg": false,
      "metar_trigger": false,
      "taf_trigger": false,
      "metar": "METAR LFLL 062030Z 18004KT 9999 FEW051 SCT066 10/06 Q1001 NOSIG",
      "taf": "TAF LFLL 061700Z 0618/0724 19008KT CAVOK"
    },
    {
      "icao": "LFLS",
      "alert": "OK",
      "vis_m": 9999,
      "fzfg": false,
      "metar_trigger": false,
      "taf_trigger": false,
      "metar": "METAR LFLS 062100Z AUTO 09004KT CAVOK 07/06 Q1002",
      "taf": "TAF LFLS 061400Z 0615/0715 08007KT 9999 SCT050"
    },
    {
      "icao": "LFMN",
      "alert": "OK",
      "vis_m": 9999,
      "fzfg": false,
      "metar_trigger": false,
      "taf_trigger": false,
      "metar": "METAR LFMN 062030Z 03005KT 320V060 CAVOK 11/08 Q0999 NOSIG",
      "taf": "TAF LFMN 062000Z 0621/0803 33010KT CAVOK"
    },
    {
      "icao": "LFOB",
      "alert": "OK",
      "vis_m": 9999,
      "fzfg": false,
      "metar_trigger": false,
      "taf_trigger": false,
      "metar": "METAR LFOB 062030Z AUTO 21006KT CAVOK 08/07 Q0995 NOSIG",
      "taf": "TAF LFOB 061700Z 0618/0718 20007KT 9999 BKN020"
    },
    {
      "icao": "LFPO",
      "alert": "OK",
      "vis_m": 9999,
      "fzfg": false,
      "metar_trigger": false,
      "taf_trigger": false,
      "metar": "METAR LFPO 062030Z AUTO 19004KT CAVOK 09/07 Q0997 NOSIG",
      "taf": "TAF LFPO 061700Z 0618/0724 22010KT 9999 SCT030TCU SCT100"
    },
    {
      "icao": "LFSB",
      "alert": "OK",
      "vis_m": 9999,
      "fzfg": false,
      "metar_trigger": false,
      "taf_trigger": false,
      "metar": "METAR LFSB 062030Z AUTO 21005KT 180V240 9999 BKN058/// OVC068/// ///CB 08/05 Q1000 BECMG SCT050",
      "taf": "TAF LFSB 061700Z 0618/0718 16004KT 9999 SCT050"
    },
    {
      "icao": "LGAV",
      "alert": "OK",
      "vis_m": 9999,
      "fzfg": false,
      "metar_trigger": false,
      "taf_trigger": false,
      "metar": "METAR LGAV 062050Z 27009KT 9999 FEW020 16/10 Q1002 NOSIG",
      "taf": "TAF LGAV 061700Z 0618/0718 25012KT 9999 FEW020"
    },
    {
      "icao": "LGTS",
      "alert": "OK",
      "vis_m": 6000,
      "fzfg": false,
      "metar_trigger": false,
      "taf_trigger": false,
      "metar": "METAR LGTS 062050Z 29008KT 6000 3000E BR SCT005 BKN020 10/10 Q1000 NOSIG",
      "taf": "TAF LGTS 061700Z 0618/0718 VRB03KT 8000 FEW008 SCT025"
    },
    {
      "icao": "LHBP",
      "alert": "OK",
      "vis_m": 7000,
      "fzfg": false,
      "metar_trigger": false,
      "taf_trigger": false,
      "metar": "METAR LHBP 062100Z 36004KT 7000 -RA FEW026 OVC060 06/05 Q0999 NOSIG",
      "taf": "TAF LHBP 061715Z 0618/0718 VRB03KT 8000 NSC"
    },
    {
      "icao": "LHDC",
      "alert": "OK",
      "vis_m": 7000,
      "fzfg": false,
      "metar_trigger": false,
      "taf_trigger": false,
      "metar": "METAR LHDC 062015Z AUTO 01002KT 7000 NSC 07/06 Q0998",
      "taf": "TAF LHDC 061415Z 0615/0624 VRB02KT CAVOK"
    },
    {
      "icao": "LIBD",
      "alert": "OK",
      "vis_m": 9999,
      "fzfg": false,
      "metar_trigger": false,
      "taf_trigger": false,
      "metar": "METAR LIBD 062050Z 28005KT 250V310 CAVOK 13/07 Q1000",
      "taf": "TAF LIBD 061700Z 0618/0718 26016KT 9999 FEW030"
    },
    {
      "icao": "LIBG",
      "alert": "OK",
      "vis_m": null,
      "fzfg": false,
      "metar_trigger": false,
      "taf_trigger": false,
      "metar": "",
      "taf": "TAF LIBG 061700Z 0618/0703 25010KT CAVOK"
    },
    {
      "icao": "LIBP",
      "alert": "OK",
      "vis_m": 9999,
      "fzfg": false,
      "metar_trigger": false,
      "taf_trigger": false,
      "metar": "METAR LIBP 062050Z AUTO 08003KT 020V110 9999 NCD 10/08 Q1000",
      "taf": "TAF LIBP 061700Z 0618/0718 VRB05KT 9999 FEW060"
    },
    {
      "icao": "LIBR",
      "alert": "OK",
      "vis_m": 9999,
      "fzfg": false,
      "metar_trigger": false,
      "taf_trigger": false,
      "metar": "METAR LIBR 062050Z 25011KT CAVOK 14/07 Q1000",
      "taf": "TAF LIBR 061700Z 0618/0718 24010KT 9999 FEW040"
    },
    {
      "icao": "LICA",
      "alert": "OK",
      "vis_m": 9999,
      "fzfg": false,
      "metar_trigger": false,
      "taf_trigger": false,
      "metar": "METAR LICA 062050Z AUTO 25017KT 9999 FEW020/// BKN067/// 16/13 Q1005",
      "taf": "TAF LICA 061700Z 0618/0718 26018G30KT 9999 SCT020"
    },
    {
      "icao": "LICC",
      "alert": "OK",
      "vis_m": 9999,
      "fzfg": false,
      "metar_trigger": false,
      "taf_trigger": false,
      "metar": "METAR LICC 062050Z 25013KT 9999 FEW040 13/09 Q1007",
      "taf": "TAF LICC 061700Z 0618/0718 25015KT 9999 FEW040"
    },
    {
      "icao": "LICJ",
      "alert": "OK",
      "vis_m": 9999,
      "fzfg": false,
      "metar_trigger": false,
      "taf_trigger": false,
      "metar": "METAR LICJ 062050Z 22013KT 9999 FEW030 15/12 Q1008",
      "taf": "TAF LICJ 061700Z 0618/0718 25018KT 9999 FEW020"
    },
    {
      "icao": "LIMC",
      "alert": "OK",
      "vis_m": 9999,
      "fzfg": false,
      "metar_trigger": false,
      "taf_trigger": false,
      "metar": "METAR LIMC 062050Z 02005KT CAVOK 03/03 Q0999 NOSIG",
      "taf": "TAF LIMC 061700Z 0618/0724 VRB05KT 8000 SCT040"
    },
    {
      "icao": "LIME",
      "alert": "OK",
      "vis_m": 9999,
      "fzfg": false,
      "metar_trigger": false,
      "taf_trigger": false,
      "metar": "METAR LIME 062050Z 01002KT CAVOK 07/05 Q0998 NOSIG",
      "taf": "TAF LIME 061700Z 0618/0718 VRB05KT 9999 SCT040"
    },
    {
      "icao": "LIMF",
      "alert": "OK",
      "vis_m": 9999,
      "fzfg": false,
      "metar_trigger": false,
      "taf_trigger": false,
      "metar": "METAR LIMF 062050Z 33005KT 300V020 CAVOK 07/03 Q0998",
      "taf": "TAF LIMF 061700Z 0618/0718 VRB05KT CAVOK"
    },
    {
      "icao": "LIMJ",
      "alert": "OK",
      "vis_m": 9999,
      "fzfg": false,
      "metar_trigger": false,
      "taf_trigger": false,
      "metar": "METAR LIMJ 062050Z AUTO 05004KT 9999 ///////// 10/08 Q1000",
      "taf": "TAF LIMJ 061700Z 0618/0718 VRB05KT 9999 SCT040"
    },
    {
      "icao": "LIPE",
      "alert": "OK",
      "vis_m": 9999,
      "fzfg": false,
      "metar_trigger": false,
      "taf_trigger": false,
      "metar": "METAR LIPE 062050Z 21005KT CAVOK 08/07 Q0999",
      "taf": "TAF LIPE 061700Z 0618/0718 VRB05KT 9000 FEW060"
    },
    {
      "icao": "LIPH",
      "alert": "OK",
      "vis_m": 9999,
      "fzfg": false,
      "metar_trigger": false,
      "taf_trigger": false,
      "metar": "METAR LIPH 062050Z 25002KT 9999 SCT090 09/08 Q0999",
      "taf": "TAF LIPH 061700Z 0618/0718 VRB05KT 7000 SCT060"
    },
    {
      "icao": "LIPQ",
      "alert": "OK",
      "vis_m": 9999,
      "fzfg": false,
      "metar_trigger": false,
      "taf_trigger": false,
      "metar": "METAR LIPQ 062050Z AUTO VRB02KT 9999 BKN100/// OVC120/// 09/08 Q0999",
      "taf": "TAF LIPQ 061700Z 0618/0718 VRB04KT 7000 SCT070"
    },
    {
      "icao": "LIPR",
      "alert": "OK",
      "vis_m": 9999,
      "fzfg": false,
      "metar_trigger": false,
      "taf_trigger": false,
      "metar": "METAR LIPR 062050Z 19002KT CAVOK 07/07 Q0999",
      "taf": "TAF LIPR 061700Z 0618/0718 VRB05KT 9999 SCT060"
    },
    {
      "icao": "LIPX",
      "alert": "OK",
      "vis_m": 9999,
      "fzfg": false,
      "metar_trigger": false,
      "taf_trigger": false,
      "metar": "METAR LIPX 062050Z VRB02KT CAVOK 07/07 Q0998",
      "taf": "TAF LIPX 061700Z 0618/0718 VRB05KT 9999 SCT050"
    },
    {
      "icao": "LIPY",
      "alert": "OK",
      "vis_m": 9999,
      "fzfg": false,
      "metar_trigger": false,
      "taf_trigger": false,
      "metar": "METAR LIPY 062050Z AUTO VRB01KT 9999 OVC081/// 10/08 Q0999",
      "taf": "TAF LIPY 061700Z 0618/0718 29010KT 9999 SCT050"
    },
    {
      "icao": "LIPZ",
      "alert": "OK",
      "vis_m": 9999,
      "fzfg": false,
      "metar_trigger": false,
      "taf_trigger": false,
      "metar": "METAR LIPZ 062050Z 23004KT CAVOK 08/08 Q0999 NOSIG",
      "taf": "TAF LIPZ 061700Z 0618/0724 VRB05KT 7000 FEW060"
    },
    {
      "icao": "LIRF",
      "alert": "OK",
      "vis_m": 9999,
      "fzfg": false,
      "metar_trigger": false,
      "taf_trigger": false,
      "metar": "METAR LIRF 062050Z VRB01KT 9999 FEW040 10/09 Q1002 NOSIG",
      "taf": "TAF LIRF 061700Z 0618/0724 VRB05KT 9999 SCT030"
    },
    {
      "icao": "LIRN",
      "alert": "OK",
      "vis_m": 9999,
      "fzfg": false,
      "metar_trigger": false,
      "taf_trigger": false,
      "metar": "METAR LIRN 062050Z VRB02KT 9999 FEW025 14/11 Q1002 NOSIG",
      "taf": "TAF LIRN 061700Z 0618/0718 26012KT 9999 SCT030"
    },
    {
      "icao": "LIRP",
      "alert": "OK",
      "vis_m": 9999,
      "fzfg": false,
      "metar_trigger": false,
      "taf_trigger": false,
      "metar": "METAR LIRP 062045Z 25008KT 9999 SCT015 BKN030 12/11 Q1001 NOSIG",
      "taf": "TAF LIRP 061700Z 0618/0718 VRB03KT CAVOK"
    },
    {
      "icao": "LIRZ",
      "alert": "OK",
      "vis_m": 9999,
      "fzfg": false,
      "metar_trigger": false,
      "taf_trigger": false,
      "metar": "METAR LIRZ 062050Z AUTO VRB02KT 9999 OVC029/// 10/08 Q1001",
      "taf": "TAF LIRZ 061700Z 0618/0718 VRB05KT 9999 SCT030"
    },
    {
      "icao": "LJLJ",
      "alert": "OK",
      "vis_m": 3000,
      "fzfg": false,
      "metar_trigger": false,
      "taf_trigger": false,
      "metar": "METAR LJLJ 062030Z 32002KT 3000 MIFG BR FEW003 BKN085 04/04 Q0999 NOSIG",
      "taf": "TAF LJLJ 061700Z 0618/0718 VRB02KT 9999 FEW007"
    },
    {
      "icao": "LKMT",
      "alert": "OK",
      "vis_m": 2500,
      "fzfg": false,
      "metar_trigger": false,
      "taf_trigger": false,
      "metar": "METAR LKMT 062030Z 23006KT 2500 BR SCT024 OVC028 02/01 Q0998 NOSIG",
      "taf": "TAF LKMT 061700Z 0618/0718 VRB02KT 3000 BR OVC035"
    },
    {
      "icao": "LKPR",
      "alert": "OK",
      "vis_m": 8000,
      "fzfg": false,
      "metar_trigger": false,
      "taf_trigger": false,
      "metar": "METAR LKPR 062030Z 21006KT 8000 -DZ FEW005 OVC012 02/01 Q0998 NOSIG",
      "taf": "TAF LKPR 062000Z 0621/0803 23008KT 8000 OVC012"
    },
    {
      "icao": "LLBG",
      "alert": "OK",
      "vis_m": 9999,
      "fzfg": false,
      "metar_trigger": false,
      "taf_trigger": false,
      "metar": "METAR LLBG 062050Z 14004KT CAVOK 17/06 Q1013 NOSIG",
      "taf": "TAF LLBG 061705Z 0618/0718 15005KT CAVOK"
    },
    {
      "icao": "LMML",
      "alert": "OK",
      "vis_m": 9999,
      "fzfg": false,
      "metar_trigger": false,
      "taf_trigger": false,
      "metar": "METAR LMML 062045Z 32007KT CAVOK 14/11 Q1010 NOSIG",
      "taf": "TAF LMML 061700Z 0618/0718 31015KT 9999 FEW015"
    },
    {
      "icao": "LOWW",
      "alert": "OK",
      "vis_m": 9999,
      "fzfg": false,
      "metar_trigger": false,
      "taf_trigger": false,
      "metar": "METAR LOWW 062050Z 33003KT 9999 FEW044 BKN046 03/01 Q0999 NOSIG",
      "taf": "TAF LOWW 062015Z 0621/0803 31006KT 9999 BKN030 TX06/0714Z TN03/0621Z"
    },
    {
      "icao": "LPFR",
      "alert": "OK",
      "vis_m": 9999,
      "fzfg": false,
      "metar_trigger": false,
      "taf_trigger": false,
      "metar": "METAR LPFR 062030Z 27018KT 9999 -SHRA SCT020 SCT040 13/08 Q1012",
      "taf": "TAF LPFR 061700Z 0618/0718 26017KT 9999 SCT025"
    },
    {
      "icao": "LPMA",
      "alert": "OK",
      "vis_m": 9999,
      "fzfg": false,
      "metar_trigger": false,
      "taf_trigger": false,
      "metar": "METAR LPMA 062030Z 36004KT 300V100 9999 FEW015 16/09 Q1021",
      "taf": "TAF LPMA 061700Z 0618/0718 VRB05KT 9999 SCT015"
    },
    {
      "icao": "LPPR",
      "alert": "OK",
      "vis_m": 9999,
      "fzfg": false,
      "metar_trigger": false,
      "taf_trigger": false,
      "metar": "METAR LPPR 062030Z 24008KT 200V280 9999 FEW018 FEW020CB SCT040 10/06 Q1004 RETSRA",
      "taf": "TAF LPPR 061700Z 0618/0718 25015KT 9999 SCT025"
    },
    {
      "icao": "LPPS",
      "alert": "OK",
      "vis_m": 9999,
      "fzfg": false,
      "metar_trigger": false,
      "taf_trigger": false,
      "metar": "METAR LPPS 062030Z 28011KT 9999 FEW015 16/10 Q1021",
      "taf": "TAF LPPS 061700Z 0618/0724 29015KT 9999 SCT015"
    },
    {
      "icao": "LPPT",
      "alert": "OK",
      "vis_m": 9999,
      "fzfg": false,
      "metar_trigger": false,
      "taf_trigger": false,
      "metar": "METAR LPPT 062030Z 23005KT 9999 FEW015 SCT020CB SCT030 09/07 Q1009",
      "taf": "TAF LPPT 061700Z 0618/0724 26016KT 9999 SCT025"
    },
    {
      "icao": "LQBK",
      "alert": "OK",
      "vis_m": 8000,
      "fzfg": false,
      "metar_trigger": false,
      "taf_trigger": false,
      "metar": "METAR LQBK 062030Z VRB01KT 8000 FEW010 SCT047 07/07 Q0998 NOSIG",
      "taf": "TAF LQBK 061700Z 0618/0718 VRB03KT 3500 BR BKN012 OVC025 TX08/0713Z TN05/0706Z"
    },
    {
      "icao": "LQSA",
      "alert": "OK",
      "vis_m": 9999,
      "fzfg": false,
      "metar_trigger": false,
      "taf_trigger": false,
      "metar": "METAR LQSA 062030Z 00000KT 9999 BKN050 06/06 Q0997 NOSIG",
      "taf": "TAF LQSA 061700Z 0618/0718 VRB02KT 9999 SCT030 BKN050 TX10/0713Z TN03/0705Z"
    },
    {
      "icao": "LQTZ",
      "alert": "OK",
      "vis_m": 6000,
      "fzfg": false,
      "metar_trigger": false,
      "taf_trigger": false,
      "metar": "METAR LQTZ 062030Z 34002KT 6000 BKN044 06/06 Q0997",
      "taf": "TAF LQTZ 061700Z 0618/0718 09005KT 9999 SCT035 BKN050 TX10/0713Z TN03/0705Z"
    },
    {
      "icao": "LRBC",
      "alert": "OK",
      "vis_m": 4500,
      "fzfg": false,
      "metar_trigger": false,
      "taf_trigger": false,
      "metar": "METAR LRBC 062030Z 17005KT 4500 BR BKN002 OVC010 M00/M00 Q1001",
      "taf": "TAF LRBC 062000Z 0621/0706 VRB04KT 3000 BR BKN002 OVC010"
    },
    {
      "icao": "LRBS",
      "alert": "OK",
      "vis_m": 900,
      "fzfg": false,
      "metar_trigger": false,
      "taf_trigger": false,
      "metar": "METAR LRBS 062030Z 03006KT 360V060 0900 R07/1900U FG OVC001 02/01 Q1001 TEMPO 1500 BR",
      "taf": "TAF LRBS 061700Z 0618/0718 09008KT 5000 BR OVC002"
    },
    {
      "icao": "LRBV",
      "alert": "OK",
      "vis_m": 9999,
      "fzfg": false,
      "metar_trigger": false,
      "taf_trigger": false,
      "metar": "METAR LRBV 062030Z VRB02KT CAVOK 01/01 Q0998",
      "taf": "TAF LRBV 062000Z 0621/0706 VRB04KT CAVOK"
    },
    {
      "icao": "LRCL",
      "alert": "OK",
      "vis_m": 9999,
      "fzfg": false,
      "metar_trigger": false,
      "taf_trigger": false,
      "metar": "METAR LRCL 062030Z 24003KT 9999 BKN052 05/03 Q0998",
      "taf": "TAF LRCL 062000Z 0621/0706 VRB04KT 9999 SCT045"
    },
    {
      "icao": "LRCV",
      "alert": "OK",
      "vis_m": 500,
      "fzfg": false,
      "metar_trigger": false,
      "taf_trigger": false,
      "metar": "METAR LRCV 062030Z 15003KT 0500 R26/0900D FG VV002 03/03 Q1000",
      "taf": "TAF LRCV 062000Z 0621/0706 11006KT 1500 BR OVC002"
    },
    {
      "icao": "LRIA",
      "alert": "OK",
      "vis_m": 9999,
      "fzfg": false,
      "metar_trigger": false,
      "taf_trigger": false,
      "metar": "METAR LRIA 062030Z COR 09005KT 9999 OVC002 M02/M03 Q1002",
      "taf": "TAF LRIA 062000Z 0621/0706 VRB04KT 9999 BKN015"
    },
    {
      "icao": "LROP",
      "alert": "OK",
      "vis_m": 4000,
      "fzfg": false,
      "metar_trigger": false,
      "taf_trigger": false,
      "metar": "METAR LROP 062030Z 07006KT 4000 BR OVC002 02/02 Q1001 TEMPO 1500 BR",
      "taf": "TAF LROP 061700Z 0618/0718 09008KT 5000 BR OVC002"
    },
    {
      "icao": "LRSB",
      "alert": "OK",
      "vis_m": 9999,
      "fzfg": false,
      "metar_trigger": false,
      "taf_trigger": false,
      "metar": "METAR LRSB 062030Z VRB01KT 9999 BKN069 04/02 Q0998",
      "taf": "TAF LRSB 061700Z 0618/0718 VRB04KT 9999 SCT050"
    },
    {
      "icao": "LRSM",
      "alert": "OK",
      "vis_m": 5000,
      "fzfg": false,
      "metar_trigger": false,
      "taf_trigger": false,
      "metar": "METAR LRSM 062030Z AUTO 00000KT 5000 -SHRA BKN048/// 08/07 Q0998",
      "taf": "TAF LRSM 061400Z 0615/0624 VRB04KT CAVOK"
    },
    {
      "icao": "LRSV",
      "alert": "OK",
      "vis_m": 300,
      "fzfg": true,
      "metar_trigger": false,
      "taf_trigger": false,
      "metar": "METAR LRSV 062030Z 07005KT 0300 R34/0650D FZFG VV002 M03/M04 Q0999",
      "taf": "TAF LRSV 062000Z 0621/0706 07006KT 0300 FZFG OVC001"
    },
    {
      "icao": "LRTM",
      "alert": "OK",
      "vis_m": 3500,
      "fzfg": false,
      "metar_trigger": false,
      "taf_trigger": false,
      "metar": "METAR LRTM 062030Z AUTO 00000KT 3500 BR NCD 01/00 Q0998",
      "taf": "TAF LRTM 062000Z 0621/0706 VRB04KT 3000 BR BKN005"
    },
    {
      "icao": "LRTR",
      "alert": "OK",
      "vis_m": 9999,
      "fzfg": false,
      "metar_trigger": false,
      "taf_trigger": false,
      "metar": "METAR LRTR 062030Z 11005KT CAVOK 07/06 Q0998",
      "taf": "TAF LRTR 061700Z 0618/0718 VRB04KT 9999 SCT045"
    },
    {
      "icao": "LTAC",
      "alert": "OK",
      "vis_m": 6000,
      "fzfg": false,
      "metar_trigger": false,
      "taf_trigger": false,
      "metar": "METAR LTAC 062050Z VRB01KT 6000 BKN025 BKN080 04/04 Q1005 NOSIG RMK RWY21C 06003KT RWY03L VRB02KT RWY21R 07003KT RWY03R 00000KT RWY21L 00000KT",
      "taf": "TAF LTAC 061640Z 0618/0718 18008KT 9999 BKN035 BKN080"
    },
    {
      "icao": "LTFM",
      "alert": "OK",
      "vis_m": 9999,
      "fzfg": false,
      "metar_trigger": false,
      "taf_trigger": false,
      "metar": "METAR LTFM 062050Z 21013KT 9999 -SHRA SCT032 BKN080 13/09 Q0999 NOSIG RMK RWY17L 21010KT RWY34L 20010KT RWY16R 21007KT RWY36 22011KT RWY18 22013KT",
      "taf": "TAF LTFM 061640Z 0618/0724 22015KT 9999 SCT032 BKN080"
    },
    {
      "icao": "LUKK",
      "alert": "OK",
      "vis_m": 9000,
      "fzfg": false,
      "metar_trigger": false,
      "taf_trigger": false,
      "metar": "METAR LUKK 062030Z 06006KT 9000 -FZDZ OVC005 M02/M02 Q1002 TEMPO 3000 FZDZ",
      "taf": "TAF LUKK 061703Z 0618/0718 07008KT 5000 -FZDZ BR OVC008"
    },
    {
      "icao": "LWOH",
      "alert": "OK",
      "vis_m": 9999,
      "fzfg": false,
      "metar_trigger": false,
      "taf_trigger": false,
      "metar": "METAR LWOH 061950Z 11004KT 080V140 9999 -RA FEW020 BKN040 08/07 Q0999",
      "taf": "TAF LWOH 062015Z 0621/0721 11006KT 9999 FEW020 BKN040"
    },
    {
      "icao": "LWSK",
      "alert": "OK",
      "vis_m": 9999,
      "fzfg": false,
      "metar_trigger": false,
      "taf_trigger": false,
      "metar": "METAR LWSK 062050Z VRB01KT 9999 BKN014 OVC045 08/07 Q0999 NOSIG",
      "taf": "TAF LWSK 062015Z 0621/0721 VRB02KT 9999 SCT015 OVC040"
    },
    {
      "icao": "LYBE",
      "alert": "OK",
      "vis_m": 9999,
      "fzfg": false,
      "metar_trigger": false,
      "taf_trigger": false,
      "metar": "METAR LYBE 062030Z 06004KT CAVOK 07/05 Q0997 NOSIG",
      "taf": "TAF LYBE 061700Z 0618/0718 10005KT CAVOK TX11/0713Z TN04/0706Z"
    },
    {
      "icao": "LYNI",
      "alert": "OK",
      "vis_m": 9999,
      "fzfg": false,
      "metar_trigger": false,
      "taf_trigger": false,
      "metar": "METAR LYNI 062030Z 14003KT 9999 -RA FEW017 BKN027 OVC060 08/08 Q0998 NOSIG",
      "taf": "TAF LYNI 061700Z 0618/0718 07003KT 9999 BKN040 OVC070 TX10/0713Z TN05/0706Z"
    },
    {
      "icao": "LYPG",
      "alert": "OK",
      "vis_m": 3600,
      "fzfg": false,
      "metar_trigger": false,
      "taf_trigger": false,
      "metar": "METAR LYPG 062030Z 34004KT 3600 -RA BR FEW007 SCT030 BKN070 09/09 Q0999 TEMPO 5000",
      "taf": "TAF LYPG 061700Z 0618/0718 36005KT 9999 FEW010 SCT030 BKN070 TX13/0712Z TN07/0705Z"
    },
    {
      "icao": "LZIB",
      "alert": "OK",
      "vis_m": 9999,
      "fzfg": false,
      "metar_trigger": false,
      "taf_trigger": false,
      "metar": "METAR LZIB 062100Z 26003KT 9999 FEW021 05/02 Q0999 NOSIG",
      "taf": "TAF LZIB 061715Z 0618/0718 28006KT 9999 SCT013 BKN020"
    },
    {
      "icao": "LZKZ",
      "alert": "OK",
      "vis_m": 5000,
      "fzfg": false,
      "metar_trigger": false,
      "taf_trigger": false,
      "metar": "METAR LZKZ 062100Z 00000KT 5000 2500SE R01/1000U BR BCFG FEW003 BKN018 04/04 Q0998 NOSIG",
      "taf": ""
    },
    {
      "icao": "LZTT",
      "alert": "OK",
      "vis_m": 3000,
      "fzfg": false,
      "metar_trigger": false,
      "taf_trigger": false,
      "metar": "METAR LZTT 062100Z 28002KT 3000 BR OVC003 02/02 Q0997",
      "taf": ""
    },
    {
      "icao": "OEJN",
      "alert": "OK",
      "vis_m": 9999,
      "fzfg": false,
      "metar_trigger": false,
      "taf_trigger": false,
      "metar": "METAR OEJN 062100Z 36003KT CAVOK 25/17 Q1014 NOSIG",
      "taf": "TAF OEJN 061700Z 0618/0724 36005KT 7000 FEW040"
    },
    {
      "icao": "OEMA",
      "alert": "OK",
      "vis_m": 9999,
      "fzfg": false,
      "metar_trigger": false,
      "taf_trigger": false,
      "metar": "METAR OEMA 062100Z 27005KT CAVOK 22/10 Q1018 NOSIG",
      "taf": "TAF OEMA 061700Z 0618/0724 26006KT CAVOK"
    },
    {
      "icao": "OJAI",
      "alert": "OK",
      "vis_m": 5000,
      "fzfg": false,
      "metar_trigger": false,
      "taf_trigger": false,
      "metar": "METAR OJAI 062000Z 26006KT 5000 HZ NSC 14/02 Q1016 NOSIG",
      "taf": "TAF OJAI 061626Z 0618/0724 25006KT 4000 DU FEW040"
    },
    {
      "icao": "OMAA",
      "alert": "OK",
      "vis_m": 9999,
      "fzfg": false,
      "metar_trigger": false,
      "taf_trigger": false,
      "metar": "METAR OMAA 062100Z 03005KT CAVOK 20/17 Q1019 NOSIG",
      "taf": "TAF OMAA 061700Z 0618/0800 05005KT 8000 NSC"
    },
    {
      "icao": "OMDB",
      "alert": "OK",
      "vis_m": 9000,
      "fzfg": false,
      "metar_trigger": false,
      "taf_trigger": false,
      "metar": "METAR OMDB 062100Z 03003KT 320V100 9000 NSC 22/18 Q1019 NOSIG",
      "taf": "TAF OMDB 061700Z 0618/0800 05005KT 8000 NSC"
    },
    {
      "icao": "UAAA",
      "alert": "OK",
      "vis_m": 9999,
      "fzfg": false,
      "metar_trigger": false,
      "taf_trigger": false,
      "metar": "METAR UAAA 062030Z 06004MPS 9999 BKN020CB OVC100 M01/M02 Q1029 NOSIG",
      "taf": "TAF UAAA 061702Z 0618/0718 04003G08MPS 3100 BR BKN011CB OVC020 TX02/0707Z TNM04/0702Z"
    },
    {
      "icao": "UBBB",
      "alert": "OK",
      "vis_m": 9999,
      "fzfg": false,
      "metar_trigger": false,
      "taf_trigger": false,
      "metar": "METAR UBBB 062100Z 16008KT 9999 OVC037 07/05 Q1019 NOSIG",
      "taf": "TAF UBBB 061702Z 0618/0718 15010KT 9999 BKN010 OVC020 TX08/0710Z TN03/0700Z"
    },
    {
      "icao": "UDSG",
      "alert": "OK",
      "vis_m": 6000,
      "fzfg": false,
      "metar_trigger": false,
      "taf_trigger": false,
      "metar": "METAR UDSG 062030Z 00000KT 6000 OVC043 M03/M05 Q1017 NOSIG",
      "taf": "TAF UDSG 061700Z 0618/0718 VRB06KT 5000 BR BKN030"
    },
    {
      "icao": "UDYZ",
      "alert": "OK",
      "vis_m": 6000,
      "fzfg": false,
      "metar_trigger": false,
      "taf_trigger": false,
      "metar": "METAR UDYZ 062030Z VRB01KT 6000 FEW046 01/M02 Q1018 NOSIG",
      "taf": "TAF UDYZ 061700Z 0618/0718 VRB06KT 6000 SCT040"
    },
    {
      "icao": "UGKO",
      "alert": "OK",
      "vis_m": 9999,
      "fzfg": false,
      "metar_trigger": false,
      "taf_trigger": false,
      "metar": "METAR UGKO 062030Z 09020KT CAVOK 13/M02 Q1009 NOSIG",
      "taf": "TAF UGKO 061700Z 0618/0718 08022G33KT CAVOK TX18/0711Z TN09/0703Z"
    }
  ]
}