{
  "ts_utc": "2026-05-24T15:38:00Z",
  "threshold_m": 150,
  "source": "stations_override.txt (ICAO list) + aviationweather.gov (METAR/TAF raw)",
  "station_count": 159,
  "stations": [
    {
      "icao": "BIKF",
      "alert": "OK",
      "vis_m": 9999,
      "fzfg": false,
      "metar_trigger": false,
      "taf_trigger": false,
      "metar": "METAR BIKF 241530Z 18016KT 9999 FEW022TCU BKN030 09/05 Q1006",
      "taf": "TAF BIKF 241347Z 2415/2515 19014KT 9999 -SHRA SCT015TCU BKN025 TX10/2415Z TN06/2505Z"
    },
    {
      "icao": "BKPR",
      "alert": "OK",
      "vis_m": 9999,
      "fzfg": false,
      "metar_trigger": false,
      "taf_trigger": false,
      "metar": "METAR BKPR 241530Z 03013KT 9999 FEW050 24/10 Q1024 NOSIG",
      "taf": "TAF BKPR 241130Z 2412/2512 02008KT 9999 SCT040"
    },
    {
      "icao": "EBCI",
      "alert": "OK",
      "vis_m": 9999,
      "fzfg": false,
      "metar_trigger": false,
      "taf_trigger": false,
      "metar": "METAR EBCI 241520Z 05006KT 020V090 CAVOK 28/16 Q1030 NOSIG",
      "taf": "TAF EBCI 241110Z 2412/2518 04007KT CAVOK"
    },
    {
      "icao": "EDDB",
      "alert": "OK",
      "vis_m": 9999,
      "fzfg": false,
      "metar_trigger": false,
      "taf_trigger": false,
      "metar": "METAR EDDB 241520Z AUTO 34013KT 310V010 9999 SCT047 26/16 Q1027 NOSIG",
      "taf": "TAF EDDB 241100Z 2412/2512 32012KT CAVOK"
    },
    {
      "icao": "EDDH",
      "alert": "OK",
      "vis_m": 9999,
      "fzfg": false,
      "metar_trigger": false,
      "taf_trigger": false,
      "metar": "METAR EDDH 241520Z AUTO 30010KT 280V350 CAVOK 22/11 Q1031 NOSIG",
      "taf": "TAF EDDH 241100Z 2412/2518 31010KT CAVOK"
    },
    {
      "icao": "EDDK",
      "alert": "OK",
      "vis_m": 9999,
      "fzfg": false,
      "metar_trigger": false,
      "taf_trigger": false,
      "metar": "METAR EDDK 241520Z AUTO 33009KT 300V020 CAVOK 28/11 Q1030 NOSIG",
      "taf": "TAF EDDK 241100Z 2412/2518 34008KT CAVOK"
    },
    {
      "icao": "EDDN",
      "alert": "OK",
      "vis_m": 9999,
      "fzfg": false,
      "metar_trigger": false,
      "taf_trigger": false,
      "metar": "METAR EDDN 241520Z AUTO 32011KT 290V360 CAVOK 30/11 Q1028 NOSIG",
      "taf": "TAF EDDN 241100Z 2412/2512 33007KT CAVOK"
    },
    {
      "icao": "EDDS",
      "alert": "OK",
      "vis_m": 9999,
      "fzfg": false,
      "metar_trigger": false,
      "taf_trigger": false,
      "metar": "METAR EDDS 241520Z AUTO 02007KT 340V060 CAVOK 29/14 Q1029 NOSIG",
      "taf": "TAF EDDS 241100Z 2412/2512 04005KT CAVOK"
    },
    {
      "icao": "EDFH",
      "alert": "OK",
      "vis_m": 9999,
      "fzfg": false,
      "metar_trigger": false,
      "taf_trigger": false,
      "metar": "METAR EDFH 241520Z 36006KT 290V040 CAVOK 26/14 Q1031",
      "taf": "TAF EDFH 241100Z 2412/2512 01007KT CAVOK"
    },
    {
      "icao": "EDJA",
      "alert": "OK",
      "vis_m": 9999,
      "fzfg": false,
      "metar_trigger": false,
      "taf_trigger": false,
      "metar": "METAR EDJA 241520Z 02009KT CAVOK 27/12 Q1030",
      "taf": "TAF EDJA 241400Z 2415/2424 05007KT CAVOK"
    },
    {
      "icao": "EDLW",
      "alert": "OK",
      "vis_m": 9999,
      "fzfg": false,
      "metar_trigger": false,
      "taf_trigger": false,
      "metar": "METAR EDLW 241520Z 02005KT 320V090 CAVOK 25/11 Q1031",
      "taf": "TAF EDLW 241100Z 2412/2512 VRB03KT CAVOK"
    },
    {
      "icao": "EDNY",
      "alert": "OK",
      "vis_m": 9999,
      "fzfg": false,
      "metar_trigger": false,
      "taf_trigger": false,
      "metar": "METAR EDNY 241520Z 05007KT 020V080 CAVOK 30/10 Q1028",
      "taf": "TAF EDNY 241400Z 2415/2424 05009KT CAVOK"
    },
    {
      "icao": "EDSB",
      "alert": "OK",
      "vis_m": 9999,
      "fzfg": false,
      "metar_trigger": false,
      "taf_trigger": false,
      "metar": "METAR EDSB 241520Z 01008KT CAVOK 29/15 Q1028",
      "taf": "TAF EDSB 241100Z 2412/2512 02006KT CAVOK"
    },
    {
      "icao": "EETN",
      "alert": "OK",
      "vis_m": 9999,
      "fzfg": false,
      "metar_trigger": false,
      "taf_trigger": false,
      "metar": "METAR EETN 241520Z 28017KT CAVOK 16/08 Q1016 TEMPO 28020G30KT",
      "taf": "TAF EETN 241130Z 2412/2512 27022KT CAVOK"
    },
    {
      "icao": "EFTU",
      "alert": "OK",
      "vis_m": 9999,
      "fzfg": false,
      "metar_trigger": false,
      "taf_trigger": false,
      "metar": "METAR EFTU 241520Z AUTO 31013G23KT 280V350 CAVOK 18/06 Q1016",
      "taf": "TAF EFTU 241425Z 2415/2515 31015KT 9999 FEW040"
    },
    {
      "icao": "EGBB",
      "alert": "OK",
      "vis_m": 9999,
      "fzfg": false,
      "metar_trigger": false,
      "taf_trigger": false,
      "metar": "METAR EGBB 241520Z VRB02KT CAVOK 27/08 Q1030",
      "taf": "TAF EGBB 241056Z 2412/2512 20005KT CAVOK"
    },
    {
      "icao": "EGGP",
      "alert": "OK",
      "vis_m": 9999,
      "fzfg": false,
      "metar_trigger": false,
      "taf_trigger": false,
      "metar": "METAR EGGP 241520Z 27007KT 230V300 CAVOK 24/11 Q1030",
      "taf": "TAF EGGP 241054Z 2412/2512 24005KT CAVOK"
    },
    {
      "icao": "EGGW",
      "alert": "OK",
      "vis_m": 9999,
      "fzfg": false,
      "metar_trigger": false,
      "taf_trigger": false,
      "metar": "METAR EGGW 241520Z AUTO 23004KT 200V260 9999 NCD 29/12 Q1030",
      "taf": "TAF EGGW 241058Z 2412/2512 14004KT CAVOK"
    },
    {
      "icao": "EGKK",
      "alert": "OK",
      "vis_m": 9999,
      "fzfg": false,
      "metar_trigger": false,
      "taf_trigger": false,
      "metar": "METAR EGKK 241520Z 25003KT 190V310 CAVOK 30/14 Q1029",
      "taf": "TAF EGKK 241054Z 2412/2518 VRB03KT CAVOK"
    },
    {
      "icao": "EGNM",
      "alert": "OK",
      "vis_m": 9999,
      "fzfg": false,
      "metar_trigger": false,
      "taf_trigger": false,
      "metar": "METAR EGNM 241520Z 26007KT 210V300 CAVOK 24/09 Q1030",
      "taf": "TAF EGNM 241111Z 2412/2512 24006KT CAVOK"
    },
    {
      "icao": "EGPD",
      "alert": "OK",
      "vis_m": 9999,
      "fzfg": false,
      "metar_trigger": false,
      "taf_trigger": false,
      "metar": "METAR EGPD 241520Z COR AUTO 18010KT 9999 NCD 20/13 Q1026 NOSIG",
      "taf": "TAF EGPD 241100Z 2412/2512 20009KT 9999 FEW040"
    },
    {
      "icao": "EGPF",
      "alert": "OK",
      "vis_m": 9999,
      "fzfg": false,
      "metar_trigger": false,
      "taf_trigger": false,
      "metar": "METAR EGPF 241520Z AUTO 22015KT 9999 NCD 20/12 Q1029",
      "taf": "TAF EGPF 241056Z 2412/2512 20010KT 9999 SCT030"
    },
    {
      "icao": "EHBK",
      "alert": "OK",
      "vis_m": 9999,
      "fzfg": false,
      "metar_trigger": false,
      "taf_trigger": false,
      "metar": "METAR EHBK 241525Z AUTO 02006KT 320V050 9999 NSC 28/14 Q1030 NOSIG",
      "taf": "TAF EHBK 241038Z 2412/2518 07007KT CAVOK"
    },
    {
      "icao": "EHEH",
      "alert": "OK",
      "vis_m": 9999,
      "fzfg": false,
      "metar_trigger": false,
      "taf_trigger": false,
      "metar": "METAR EHEH 241525Z AUTO 01007KT 330V050 9999 ////// 27/11 Q1030 BLU NOSIG",
      "taf": "TAF EHEH 241057Z 2411/2517 01005KT CAVOK"
    },
    {
      "icao": "EKBI",
      "alert": "OK",
      "vis_m": 9999,
      "fzfg": false,
      "metar_trigger": false,
      "taf_trigger": false,
      "metar": "METAR EKBI 241520Z AUTO 29011KT 270V340 9999 FEW033/// 19/11 Q1031",
      "taf": "TAF EKBI 241427Z 2415/2515 29010KT CAVOK"
    },
    {
      "icao": "EKCH",
      "alert": "OK",
      "vis_m": 9999,
      "fzfg": false,
      "metar_trigger": false,
      "taf_trigger": false,
      "metar": "METAR EKCH 241520Z AUTO 32014KT 290V350 9999 NCD 19/07 Q1029 TEMPO 31015G25KT",
      "taf": "TAF EKCH 241427Z 2415/2515 32015G25KT CAVOK"
    },
    {
      "icao": "ENAL",
      "alert": "OK",
      "vis_m": 9999,
      "fzfg": false,
      "metar_trigger": false,
      "taf_trigger": false,
      "metar": "METAR ENAL 241520Z 25016KT 9999 FEW012 BKN060 11/08 Q1023",
      "taf": "TAF ENAL 241400Z 2415/2424 25018KT 9999 BKN055"
    },
    {
      "icao": "ENBR",
      "alert": "OK",
      "vis_m": 9999,
      "fzfg": false,
      "metar_trigger": false,
      "taf_trigger": false,
      "metar": "METAR ENBR 241520Z 18010KT 9999 FEW020 BKN035 12/09 Q1027 NOSIG RMK WIND 1200FT 22016KT",
      "taf": "TAF ENBR 241100Z 2412/2512 17012KT 9999 FEW015 BKN030"
    },
    {
      "icao": "ENGM",
      "alert": "OK",
      "vis_m": 9999,
      "fzfg": false,
      "metar_trigger": false,
      "taf_trigger": false,
      "metar": "METAR ENGM 241520Z 30009KT 240V350 CAVOK 20/05 Q1022 NOSIG",
      "taf": "TAF ENGM 241100Z 2412/2512 26008KT CAVOK"
    },
    {
      "icao": "ENHD",
      "alert": "OK",
      "vis_m": 9999,
      "fzfg": false,
      "metar_trigger": false,
      "taf_trigger": false,
      "metar": "METAR ENHD 241520Z 18010KT CAVOK 13/09 Q1027",
      "taf": "TAF ENHD 241400Z 2415/2422 20010KT 9999 FEW030 SCT050"
    },
    {
      "icao": "ENTC",
      "alert": "OK",
      "vis_m": 9999,
      "fzfg": false,
      "metar_trigger": false,
      "taf_trigger": false,
      "metar": "METAR ENTC 241520Z 01009KT 9999 -RA SCT006 SCT008 BKN012 08/06 Q1008 TEMPO BKN009 RMK WIND 2600FT 18006KT",
      "taf": "TAF ENTC 241100Z 2412/2512 02008KT 9999 -RA SCT015 BKN018"
    },
    {
      "icao": "ENTO",
      "alert": "OK",
      "vis_m": 9999,
      "fzfg": false,
      "metar_trigger": false,
      "taf_trigger": false,
      "metar": "METAR ENTO 241520Z 27010KT 230V300 CAVOK 20/07 Q1025 NOSIG",
      "taf": "TAF ENTO 241100Z 2412/2512 27008KT CAVOK"
    },
    {
      "icao": "ENVA",
      "alert": "OK",
      "vis_m": 9999,
      "fzfg": false,
      "metar_trigger": false,
      "taf_trigger": false,
      "metar": "METAR ENVA 241532Z 27019KT 9999 BKN053CB 12/08 Q1021 RMK WIND 670FT 27016G27KT",
      "taf": ""
    },
    {
      "icao": "ENZV",
      "alert": "OK",
      "vis_m": 9999,
      "fzfg": false,
      "metar_trigger": false,
      "taf_trigger": false,
      "metar": "METAR ENZV 241520Z 23008KT CAVOK 16/10 Q1028 NOSIG",
      "taf": "TAF ENZV 241100Z 2412/2512 21010KT 9999 FEW050"
    },
    {
      "icao": "EPGD",
      "alert": "OK",
      "vis_m": 9999,
      "fzfg": false,
      "metar_trigger": false,
      "taf_trigger": false,
      "metar": "METAR EPGD 241530Z 30018KT CAVOK 20/06 Q1025",
      "taf": "TAF EPGD 241130Z 2412/2512 31012KT CAVOK"
    },
    {
      "icao": "EPKK",
      "alert": "OK",
      "vis_m": 9999,
      "fzfg": false,
      "metar_trigger": false,
      "taf_trigger": false,
      "metar": "METAR EPKK 241530Z 29005KT CAVOK 25/12 Q1025",
      "taf": "TAF EPKK 241430Z 2415/2515 30010KT CAVOK"
    },
    {
      "icao": "EPKT",
      "alert": "OK",
      "vis_m": 9999,
      "fzfg": false,
      "metar_trigger": false,
      "taf_trigger": false,
      "metar": "METAR EPKT 241530Z 26007KT CAVOK 25/13 Q1026",
      "taf": "TAF EPKT 241130Z 2412/2512 26005KT CAVOK"
    },
    {
      "icao": "EPLB",
      "alert": "OK",
      "vis_m": 9999,
      "fzfg": false,
      "metar_trigger": false,
      "taf_trigger": false,
      "metar": "METAR EPLB 241530Z 30009KT CAVOK 26/12 Q1023",
      "taf": "TAF EPLB 241130Z 2412/2512 32010KT CAVOK"
    },
    {
      "icao": "EPMO",
      "alert": "OK",
      "vis_m": 9999,
      "fzfg": false,
      "metar_trigger": false,
      "taf_trigger": false,
      "metar": "METAR EPMO 241530Z 04007KT 350V080 9999 VCTS SCT055CB 22/15 Q1023 RETSRA",
      "taf": "TAF EPMO 241130Z 2412/2512 29012KT CAVOK"
    },
    {
      "icao": "EPPO",
      "alert": "OK",
      "vis_m": 9999,
      "fzfg": false,
      "metar_trigger": false,
      "taf_trigger": false,
      "metar": "METAR EPPO 241530Z 31016KT CAVOK 28/14 Q1025",
      "taf": "TAF EPPO 241130Z 2412/2512 28012KT CAVOK"
    },
    {
      "icao": "EPRA",
      "alert": "OK",
      "vis_m": 9999,
      "fzfg": false,
      "metar_trigger": false,
      "taf_trigger": false,
      "metar": "METAR EPRA 241530Z 29009KT CAVOK 22/14 Q1024",
      "taf": "TAF EPRA 241430Z 2415/2424 29010KT CAVOK"
    },
    {
      "icao": "EPRZ",
      "alert": "OK",
      "vis_m": 9999,
      "fzfg": false,
      "metar_trigger": false,
      "taf_trigger": false,
      "metar": "METAR EPRZ 241530Z 34009KT 310V010 CAVOK 26/11 Q1024",
      "taf": "TAF EPRZ 241130Z 2412/2512 30008KT CAVOK"
    },
    {
      "icao": "EPSC",
      "alert": "OK",
      "vis_m": 9999,
      "fzfg": false,
      "metar_trigger": false,
      "taf_trigger": false,
      "metar": "METAR EPSC 241530Z 32012KT CAVOK 20/10 Q1028",
      "taf": "TAF EPSC 241130Z 2412/2512 33010KT CAVOK"
    },
    {
      "icao": "EPSY",
      "alert": "OK",
      "vis_m": 9999,
      "fzfg": false,
      "metar_trigger": false,
      "taf_trigger": false,
      "metar": "METAR EPSY 241530Z 34011KT 300V020 9999 FEW040 23/13 Q1023",
      "taf": "TAF EPSY 241430Z 2415/2424 32010KT 9999 SCT040"
    },
    {
      "icao": "EPWA",
      "alert": "OK",
      "vis_m": 9999,
      "fzfg": false,
      "metar_trigger": false,
      "taf_trigger": false,
      "metar": "METAR EPWA 241530Z 28013KT 9999 FEW050CB 27/13 Q1023 NOSIG",
      "taf": "TAF EPWA 241430Z 2415/2515 28012KT CAVOK"
    },
    {
      "icao": "EPWR",
      "alert": "OK",
      "vis_m": 9999,
      "fzfg": false,
      "metar_trigger": false,
      "taf_trigger": false,
      "metar": "METAR EPWR 241530Z 17004KT 130V190 9999 FEW040CB 23/16 Q1025",
      "taf": ""
    },
    {
      "icao": "ESGG",
      "alert": "OK",
      "vis_m": 9999,
      "fzfg": false,
      "metar_trigger": false,
      "taf_trigger": false,
      "metar": "METAR ESGG 241520Z 29013KT CAVOK 17/08 Q1027",
      "taf": "TAF ESGG 241430Z 2415/2515 26012KT CAVOK"
    },
    {
      "icao": "ESKN",
      "alert": "OK",
      "vis_m": 9999,
      "fzfg": false,
      "metar_trigger": false,
      "taf_trigger": false,
      "metar": "METAR ESKN 241520Z 28012KT 250V330 CAVOK 22/08 Q1021",
      "taf": "TAF ESKN 241430Z 2415/2515 28012KT CAVOK"
    },
    {
      "icao": "ESMS",
      "alert": "OK",
      "vis_m": 9999,
      "fzfg": false,
      "metar_trigger": false,
      "taf_trigger": false,
      "metar": "METAR ESMS 241520Z 31020KT CAVOK 18/08 Q1028",
      "taf": "TAF ESMS 241427Z 2415/2515 31022KT CAVOK"
    },
    {
      "icao": "ESSA",
      "alert": "OK",
      "vis_m": 9999,
      "fzfg": false,
      "metar_trigger": false,
      "taf_trigger": false,
      "metar": "METAR ESSA 241520Z 27014KT CAVOK 22/04 Q1019 NOSIG",
      "taf": "TAF ESSA 241430Z 2415/2515 28012KT CAVOK"
    },
    {
      "icao": "EYKA",
      "alert": "OK",
      "vis_m": 9999,
      "fzfg": false,
      "metar_trigger": false,
      "taf_trigger": false,
      "metar": "METAR EYKA 241520Z 29013KT 270V330 CAVOK 22/07 Q1020",
      "taf": "TAF EYKA 241100Z 2412/2512 28011KT 9000 SCT035"
    },
    {
      "icao": "EYPA",
      "alert": "OK",
      "vis_m": 9999,
      "fzfg": false,
      "metar_trigger": false,
      "taf_trigger": false,
      "metar": "METAR EYPA 241520Z VRB03KT CAVOK 14/11 Q1023",
      "taf": "TAF EYPA 241100Z 2412/2512 VRB03KT 9000 NSC"
    },
    {
      "icao": "EYVI",
      "alert": "OK",
      "vis_m": 9999,
      "fzfg": false,
      "metar_trigger": false,
      "taf_trigger": false,
      "metar": "METAR EYVI 241520Z 29013KT CAVOK 22/06 Q1020 NOSIG",
      "taf": "TAF EYVI 241100Z 2412/2512 28012KT 9000 SCT045"
    },
    {
      "icao": "GCFV",
      "alert": "OK",
      "vis_m": 9999,
      "fzfg": false,
      "metar_trigger": false,
      "taf_trigger": false,
      "metar": "METAR GCFV 241530Z 04012KT CAVOK 22/18 Q1015",
      "taf": "TAF GCFV 241400Z 2415/2515 05009KT 9999 SCT010 TX32/2514Z TN22/2506Z"
    },
    {
      "icao": "GCLP",
      "alert": "OK",
      "vis_m": 9999,
      "fzfg": false,
      "metar_trigger": false,
      "taf_trigger": false,
      "metar": "METAR GCLP 241530Z 03024KT 9999 FEW025 24/18 Q1016 NOSIG",
      "taf": "TAF GCLP 241400Z 2415/2515 02017KT 9999 FEW030 TX28/2514Z TN22/2506Z"
    },
    {
      "icao": "GCTS",
      "alert": "OK",
      "vis_m": 9999,
      "fzfg": false,
      "metar_trigger": false,
      "taf_trigger": false,
      "metar": "METAR GCTS 241530Z 10017KT 070V130 CAVOK 25/16 Q1016 NOSIG",
      "taf": "TAF GCTS 241400Z 2415/2515 09012KT 9999 FEW020 TX28/2514Z TN21/2506Z"
    },
    {
      "icao": "GMAD",
      "alert": "OK",
      "vis_m": 9999,
      "fzfg": false,
      "metar_trigger": false,
      "taf_trigger": false,
      "metar": "METAR GMAD 241530Z 27010KT 9999 FEW033TCU 33/15 Q1014 NOSIG",
      "taf": "TAF GMAD 241100Z 2412/2518 32003KT CAVOK"
    },
    {
      "icao": "GMMN",
      "alert": "OK",
      "vis_m": 9999,
      "fzfg": false,
      "metar_trigger": false,
      "taf_trigger": false,
      "metar": "METAR GMMN 241530Z 01013KT 340V040 9999 FEW026 37/16 Q1016 NOSIG",
      "taf": "TAF GMMN 241100Z 2412/2518 09007KT CAVOK"
    },
    {
      "icao": "GMMX",
      "alert": "OK",
      "vis_m": 9999,
      "fzfg": false,
      "metar_trigger": false,
      "taf_trigger": false,
      "metar": "METAR GMMX 241530Z 02007G18KT 320V120 9999 BKN030 FEW040TCU 38/07 Q1016 NOSIG",
      "taf": "TAF GMMX 241100Z 2412/2518 06006KT 8000 SCT030"
    },
    {
      "icao": "HEGN",
      "alert": "OK",
      "vis_m": 9999,
      "fzfg": false,
      "metar_trigger": false,
      "taf_trigger": false,
      "metar": "METAR HEGN 241500Z 01008KT CAVOK 31/11 Q1012 NOSIG",
      "taf": "TAF HEGN 241100Z 2412/2518 02015KT CAVOK"
    },
    {
      "icao": "HEMA",
      "alert": "OK",
      "vis_m": 9999,
      "fzfg": false,
      "metar_trigger": false,
      "taf_trigger": false,
      "metar": "METAR HEMA 241500Z 36011KT CAVOK 30/06 Q1012 NOSIG",
      "taf": "TAF HEMA 241100Z 2412/2518 36018KT CAVOK"
    },
    {
      "icao": "HESH",
      "alert": "OK",
      "vis_m": 9999,
      "fzfg": false,
      "metar_trigger": false,
      "taf_trigger": false,
      "metar": "METAR HESH 241500Z 02004KT CAVOK 32/09 Q1012 NOSIG",
      "taf": "TAF HESH 241100Z 2412/2518 36012KT CAVOK"
    },
    {
      "icao": "HESX",
      "alert": "OK",
      "vis_m": 9999,
      "fzfg": false,
      "metar_trigger": false,
      "taf_trigger": false,
      "metar": "METAR HESX 241500Z 36012KT CAVOK 28/11 Q1016 NOSIG",
      "taf": "TAF HESX 241100Z 2412/2518 35010KT 9999 FEW025"
    },
    {
      "icao": "LATI",
      "alert": "OK",
      "vis_m": 9999,
      "fzfg": false,
      "metar_trigger": false,
      "taf_trigger": false,
      "metar": "METAR LATI 241520Z 33015KT 9999 FEW100 27/14 Q1020 NOSIG",
      "taf": "TAF LATI 241100Z 2412/2512 32012KT 9999 FEW040CB BKN080 TX31/2512Z TN16/2504Z"
    },
    {
      "icao": "LBPD",
      "alert": "OK",
      "vis_m": 9999,
      "fzfg": false,
      "metar_trigger": false,
      "taf_trigger": false,
      "metar": "METAR LBPD 241530Z AUTO VRB02KT 9999 FEW110/// 25/12 Q1021 NOSIG",
      "taf": "TAF LBPD 241100Z 2412/2512 30010KT 9999 SCT035 BKN050"
    },
    {
      "icao": "LBSF",
      "alert": "OK",
      "vis_m": 9999,
      "fzfg": false,
      "metar_trigger": false,
      "taf_trigger": false,
      "metar": "METAR LBSF 241530Z AUTO 30009KT 9999 SCT053/// 22/12 Q1023 NOSIG",
      "taf": ""
    },
    {
      "icao": "LBWN",
      "alert": "OK",
      "vis_m": 9999,
      "fzfg": false,
      "metar_trigger": false,
      "taf_trigger": false,
      "metar": "METAR LBWN 241530Z 01009KT 340V050 9999 FEW035 23/12 Q1020 NOSIG",
      "taf": "TAF LBWN 241100Z 2412/2512 01010KT 9999 SCT040"
    },
    {
      "icao": "LCLK",
      "alert": "OK",
      "vis_m": 9999,
      "fzfg": false,
      "metar_trigger": false,
      "taf_trigger": false,
      "metar": "METAR LCLK 241530Z 20005KT 9999 FEW030 24/20 Q1015 NOSIG",
      "taf": "TAF LCLK 241130Z 2412/2512 22020KT 9999 FEW020"
    },
    {
      "icao": "LCPH",
      "alert": "OK",
      "vis_m": 9999,
      "fzfg": false,
      "metar_trigger": false,
      "taf_trigger": false,
      "metar": "METAR LCPH 241530Z 31012KT 260V320 9999 SCT020 22/17 Q1016 NOSIG",
      "taf": "TAF LCPH 241130Z 2412/2512 29014KT 9999 SCT015"
    },
    {
      "icao": "LEAL",
      "alert": "OK",
      "vis_m": 9999,
      "fzfg": false,
      "metar_trigger": false,
      "taf_trigger": false,
      "metar": "METAR LEAL 241530Z 08011KT CAVOK 26/15 Q1025 NOSIG",
      "taf": "TAF LEAL 241100Z 2412/2512 09010KT CAVOK TX28/2412Z TN15/2505Z"
    },
    {
      "icao": "LEBB",
      "alert": "OK",
      "vis_m": 9999,
      "fzfg": false,
      "metar_trigger": false,
      "taf_trigger": false,
      "metar": "METAR LEBB 241530Z 27005KT 240V320 CAVOK 27/21 Q1022 NOSIG",
      "taf": ""
    },
    {
      "icao": "LEBL",
      "alert": "OK",
      "vis_m": 9999,
      "fzfg": false,
      "metar_trigger": false,
      "taf_trigger": false,
      "metar": "METAR LEBL 241530Z 20007KT 9999 FEW040 25/18 Q1026 NOSIG",
      "taf": "TAF LEBL 241100Z 2412/2512 20008KT CAVOK TX26/2412Z TN18/2505Z"
    },
    {
      "icao": "LECH",
      "alert": "OK",
      "vis_m": 9999,
      "fzfg": false,
      "metar_trigger": false,
      "taf_trigger": false,
      "metar": "METAR LECH 241530Z AUTO 14006KT 100V200 CAVOK 25/09 Q1027",
      "taf": "TAF LECH 241100Z 2412/2512 13009KT CAVOK TX30/2413Z TN13/2505Z"
    },
    {
      "icao": "LEMD",
      "alert": "OK",
      "vis_m": 9999,
      "fzfg": false,
      "metar_trigger": false,
      "taf_trigger": false,
      "metar": "METAR LEMD 241530Z 16007KT 080V210 CAVOK 32/03 Q1023 NOSIG",
      "taf": "TAF LEMD 241100Z 2412/2518 VRB04KT CAVOK TX33/2416Z TN14/2505Z"
    },
    {
      "icao": "LEMG",
      "alert": "OK",
      "vis_m": 9999,
      "fzfg": false,
      "metar_trigger": false,
      "taf_trigger": false,
      "metar": "METAR LEMG 241530Z 13007KT 080V160 CAVOK 23/12 Q1024 NOSIG",
      "taf": "TAF LEMG 241100Z 2412/2512 14010KT CAVOK TX28/2414Z TN15/2506Z"
    },
    {
      "icao": "LEVC",
      "alert": "OK",
      "vis_m": 9999,
      "fzfg": false,
      "metar_trigger": false,
      "taf_trigger": false,
      "metar": "METAR LEVC 241530Z 12009KT 060V170 CAVOK 28/11 Q1025 NOSIG",
      "taf": "TAF LEVC 241100Z 2412/2512 11010KT CAVOK TX30/2412Z TN16/2505Z"
    },
    {
      "icao": "LEXJ",
      "alert": "OK",
      "vis_m": 9999,
      "fzfg": false,
      "metar_trigger": false,
      "taf_trigger": false,
      "metar": "METAR LEXJ 241530Z 05007KT CAVOK 22/17 Q1022",
      "taf": "TAF LEXJ 241400Z 2415/2515 18007KT 9999 FEW040 TX33/2514Z TN17/2505Z"
    },
    {
      "icao": "LEZG",
      "alert": "OK",
      "vis_m": 9999,
      "fzfg": false,
      "metar_trigger": false,
      "taf_trigger": false,
      "metar": "METAR LEZG 241530Z 10010KT 060V150 CAVOK 33/08 Q1023 NOSIG",
      "taf": "TAF LEZG 241100Z 2412/2512 11012KT CAVOK TX34/2415Z TN18/2505Z"
    },
    {
      "icao": "LEZL",
      "alert": "OK",
      "vis_m": 9999,
      "fzfg": false,
      "metar_trigger": false,
      "taf_trigger": false,
      "metar": "METAR LEZL 241530Z 12006KT 060V190 CAVOK 35/05 Q1019 NOSIG",
      "taf": "TAF LEZL 241400Z 2415/2515 VRB03KT CAVOK TX37/2415Z TN19/2506Z"
    },
    {
      "icao": "LFBD",
      "alert": "OK",
      "vis_m": 9999,
      "fzfg": false,
      "metar_trigger": false,
      "taf_trigger": false,
      "metar": "METAR LFBD 241530Z AUTO 12009KT CAVOK 34/12 Q1023 TEMPO SCT070CB",
      "taf": "TAF LFBD 241100Z 2412/2518 10005KT CAVOK TX35/2415Z TN20/2506Z"
    },
    {
      "icao": "LFLL",
      "alert": "OK",
      "vis_m": 9999,
      "fzfg": false,
      "metar_trigger": false,
      "taf_trigger": false,
      "metar": "METAR LFLL 241530Z VRB03KT CAVOK 31/13 Q1026 NOSIG",
      "taf": "TAF LFLL 241100Z 2412/2518 36005KT CAVOK"
    },
    {
      "icao": "LFLS",
      "alert": "OK",
      "vis_m": 9999,
      "fzfg": false,
      "metar_trigger": false,
      "taf_trigger": false,
      "metar": "METAR LFLS 241530Z AUTO VRB02KT CAVOK 31/16 Q1027 NOSIG",
      "taf": "TAF LFLS 241400Z 2415/2515 VRB05KT CAVOK"
    },
    {
      "icao": "LFMN",
      "alert": "OK",
      "vis_m": 9999,
      "fzfg": false,
      "metar_trigger": false,
      "taf_trigger": false,
      "metar": "METAR LFMN 241530Z VRB03KT CAVOK 28/10 Q1026 NOSIG",
      "taf": "TAF LFMN 241400Z 2415/2521 18005KT CAVOK"
    },
    {
      "icao": "LFOB",
      "alert": "OK",
      "vis_m": 9999,
      "fzfg": false,
      "metar_trigger": false,
      "taf_trigger": false,
      "metar": "METAR LFOB 241530Z AUTO 05007KT 360V100 CAVOK 30/20 Q1029 NOSIG",
      "taf": "TAF LFOB 241100Z 2412/2512 06005KT CAVOK"
    },
    {
      "icao": "LFPO",
      "alert": "OK",
      "vis_m": 9999,
      "fzfg": false,
      "metar_trigger": false,
      "taf_trigger": false,
      "metar": "METAR LFPO 241530Z 06010KT 020V090 CAVOK 31/16 Q1028 NOSIG",
      "taf": "TAF LFPO 241100Z 2412/2518 06008KT CAVOK"
    },
    {
      "icao": "LFSB",
      "alert": "OK",
      "vis_m": 9999,
      "fzfg": false,
      "metar_trigger": false,
      "taf_trigger": false,
      "metar": "METAR LFSB 241530Z AUTO 01007KT 340V050 CAVOK 31/16 Q1027 NOSIG",
      "taf": "TAF LFSB 241100Z 2412/2512 36007KT CAVOK"
    },
    {
      "icao": "LGAV",
      "alert": "OK",
      "vis_m": 9999,
      "fzfg": false,
      "metar_trigger": false,
      "taf_trigger": false,
      "metar": "METAR LGAV 241520Z 05013KT 9999 FEW020 25/10 Q1020 NOSIG",
      "taf": "TAF LGAV 241100Z 2412/2512 05018KT 9999 FEW020 SCT070"
    },
    {
      "icao": "LGTS",
      "alert": "OK",
      "vis_m": 9999,
      "fzfg": false,
      "metar_trigger": false,
      "taf_trigger": false,
      "metar": "METAR LGTS 241520Z 10006KT 9999 FEW018CB BKN025 19/19 Q1021 RETS TEMPO 4000 TSRA",
      "taf": "TAF LGTS 241100Z 2412/2512 34010KT 9999 SCT030"
    },
    {
      "icao": "LHBP",
      "alert": "OK",
      "vis_m": 9999,
      "fzfg": false,
      "metar_trigger": false,
      "taf_trigger": false,
      "metar": "METAR LHBP 241530Z 33007KT 280V020 CAVOK 29/10 Q1025 NOSIG",
      "taf": "TAF LHBP 241115Z 2412/2512 02009KT CAVOK"
    },
    {
      "icao": "LHDC",
      "alert": "OK",
      "vis_m": 9999,
      "fzfg": false,
      "metar_trigger": false,
      "taf_trigger": false,
      "metar": "METAR LHDC 241515Z AUTO 02010KT 340V050 CAVOK 28/09 Q1023 NOSIG",
      "taf": "TAF LHDC 241415Z 2415/2424 02007KT CAVOK"
    },
    {
      "icao": "LIBD",
      "alert": "OK",
      "vis_m": 9999,
      "fzfg": false,
      "metar_trigger": false,
      "taf_trigger": false,
      "metar": "METAR LIBD 241520Z 33008KT 290V360 CAVOK 24/12 Q1023",
      "taf": "TAF LIBD 241100Z 2412/2512 34012KT 9999 FEW020"
    },
    {
      "icao": "LIBG",
      "alert": "OK",
      "vis_m": 9999,
      "fzfg": false,
      "metar_trigger": false,
      "taf_trigger": false,
      "metar": "METAR LIBG 241520Z AUTO 36012KT 9999 NCD 28/10 Q1021",
      "taf": "TAF LIBG 241100Z 2412/2512 36014KT CAVOK"
    },
    {
      "icao": "LIBP",
      "alert": "OK",
      "vis_m": 9999,
      "fzfg": false,
      "metar_trigger": false,
      "taf_trigger": false,
      "metar": "METAR LIBP 241520Z AUTO 03008KT 9999 NCD 26/12 Q1025",
      "taf": "TAF LIBP 241100Z 2412/2512 01010KT CAVOK"
    },
    {
      "icao": "LIBR",
      "alert": "OK",
      "vis_m": 9999,
      "fzfg": false,
      "metar_trigger": false,
      "taf_trigger": false,
      "metar": "METAR LIBR 241520Z 33013KT CAVOK 22/17 Q1022",
      "taf": "TAF LIBR 241100Z 2412/2512 33016KT CAVOK"
    },
    {
      "icao": "LICA",
      "alert": "OK",
      "vis_m": 9999,
      "fzfg": false,
      "metar_trigger": false,
      "taf_trigger": false,
      "metar": "METAR LICA 241520Z AUTO 25006KT 9999 BKN074/// 22/18 Q1022",
      "taf": "TAF LICA 241100Z 2412/2512 27012KT 9999 SCT060"
    },
    {
      "icao": "LICC",
      "alert": "OK",
      "vis_m": 9999,
      "fzfg": false,
      "metar_trigger": false,
      "taf_trigger": false,
      "metar": "METAR LICC 241520Z 06011KT 9999 SCT100 26/16 Q1022",
      "taf": "TAF LICC 241100Z 2412/2512 08010KT 9999 FEW070"
    },
    {
      "icao": "LICJ",
      "alert": "OK",
      "vis_m": 9999,
      "fzfg": false,
      "metar_trigger": false,
      "taf_trigger": false,
      "metar": "METAR LICJ 241520Z 04014KT CAVOK 23/19 Q1022",
      "taf": "TAF LICJ 241100Z 2412/2512 05012KT CAVOK"
    },
    {
      "icao": "LIMC",
      "alert": "OK",
      "vis_m": 9999,
      "fzfg": false,
      "metar_trigger": false,
      "taf_trigger": false,
      "metar": "METAR LIMC 241520Z 17005KT 140V210 CAVOK 30/12 Q1026 NOSIG",
      "taf": "TAF LIMC 241100Z 2412/2518 VRB05KT CAVOK"
    },
    {
      "icao": "LIME",
      "alert": "OK",
      "vis_m": 9999,
      "fzfg": false,
      "metar_trigger": false,
      "taf_trigger": false,
      "metar": "METAR LIME 241520Z 20004KT 130V260 CAVOK 29/14 Q1026 NOSIG",
      "taf": "TAF LIME 241100Z 2412/2512 VRB05KT CAVOK"
    },
    {
      "icao": "LIMF",
      "alert": "OK",
      "vis_m": 9999,
      "fzfg": false,
      "metar_trigger": false,
      "taf_trigger": false,
      "metar": "METAR LIMF 241520Z 07004KT 010V110 CAVOK 30/13 Q1026",
      "taf": "TAF LIMF 241100Z 2412/2512 VRB04KT CAVOK"
    },
    {
      "icao": "LIMJ",
      "alert": "OK",
      "vis_m": 9999,
      "fzfg": false,
      "metar_trigger": false,
      "taf_trigger": false,
      "metar": "METAR LIMJ 241520Z 28004KT 9999 FEW030 25/18 Q1025",
      "taf": "TAF LIMJ 241100Z 2412/2512 VRB05KT CAVOK"
    },
    {
      "icao": "LIPE",
      "alert": "OK",
      "vis_m": 9999,
      "fzfg": false,
      "metar_trigger": false,
      "taf_trigger": false,
      "metar": "METAR LIPE 241520Z 07007KT 030V100 CAVOK 30/12 Q1025",
      "taf": "TAF LIPE 241100Z 2412/2512 VRB05KT CAVOK"
    },
    {
      "icao": "LIPH",
      "alert": "OK",
      "vis_m": 9999,
      "fzfg": false,
      "metar_trigger": false,
      "taf_trigger": false,
      "metar": "METAR LIPH 241520Z 23004KT 150V270 CAVOK 31/13 Q1024",
      "taf": "TAF LIPH 241100Z 2412/2512 VRB05KT CAVOK"
    },
    {
      "icao": "LIPQ",
      "alert": "OK",
      "vis_m": 9999,
      "fzfg": false,
      "metar_trigger": false,
      "taf_trigger": false,
      "metar": "METAR LIPQ 241520Z AUTO 29008KT 9999 NCD 30/15 Q1024",
      "taf": "TAF LIPQ 241100Z 2412/2512 VRB05KT CAVOK"
    },
    {
      "icao": "LIPR",
      "alert": "OK",
      "vis_m": 9999,
      "fzfg": false,
      "metar_trigger": false,
      "taf_trigger": false,
      "metar": "METAR LIPR 241520Z 01005KT 320V050 CAVOK 27/11 Q1026",
      "taf": "TAF LIPR 241100Z 2412/2512 33012KT CAVOK"
    },
    {
      "icao": "LIPX",
      "alert": "OK",
      "vis_m": 9999,
      "fzfg": false,
      "metar_trigger": false,
      "taf_trigger": false,
      "metar": "METAR LIPX 241520Z 17005KT 120V230 CAVOK 30/12 Q1025",
      "taf": "TAF LIPX 241100Z 2412/2512 VRB05KT 9999 FEW050"
    },
    {
      "icao": "LIPY",
      "alert": "OK",
      "vis_m": 9999,
      "fzfg": false,
      "metar_trigger": false,
      "taf_trigger": false,
      "metar": "METAR LIPY 241520Z AUTO 35008KT 9999 NCD 24/17 Q1026",
      "taf": "TAF LIPY 241100Z 2412/2512 35011KT CAVOK"
    },
    {
      "icao": "LIPZ",
      "alert": "OK",
      "vis_m": 9999,
      "fzfg": false,
      "metar_trigger": false,
      "taf_trigger": false,
      "metar": "METAR LIPZ 241520Z 18005KT CAVOK 28/16 Q1025 NOSIG",
      "taf": "TAF LIPZ 241100Z 2412/2518 18010KT CAVOK"
    },
    {
      "icao": "LIRF",
      "alert": "OK",
      "vis_m": 9999,
      "fzfg": false,
      "metar_trigger": false,
      "taf_trigger": false,
      "metar": "METAR LIRF 241520Z 27010KT CAVOK 25/14 Q1023 NOSIG",
      "taf": "TAF LIRF 241100Z 2412/2518 27014KT CAVOK"
    },
    {
      "icao": "LIRN",
      "alert": "OK",
      "vis_m": 9999,
      "fzfg": false,
      "metar_trigger": false,
      "taf_trigger": false,
      "metar": "METAR LIRN 241520Z 29011KT 9999 FEW050 28/10 Q1022 NOSIG",
      "taf": "TAF LIRN 241100Z 2412/2512 06008KT CAVOK"
    },
    {
      "icao": "LIRP",
      "alert": "OK",
      "vis_m": 9999,
      "fzfg": false,
      "metar_trigger": false,
      "taf_trigger": false,
      "metar": "METAR LIRP 241515Z 32011KT CAVOK 28/11 Q1025 NOSIG",
      "taf": "TAF LIRP 241100Z 2412/2512 09008KT CAVOK"
    },
    {
      "icao": "LIRZ",
      "alert": "OK",
      "vis_m": 9999,
      "fzfg": false,
      "metar_trigger": false,
      "taf_trigger": false,
      "metar": "METAR LIRZ 241520Z AUTO 03013KT 360V060 9999 NCD 27/12 Q1025",
      "taf": "TAF LIRZ 241100Z 2412/2512 05013KT CAVOK"
    },
    {
      "icao": "LJLJ",
      "alert": "OK",
      "vis_m": 9999,
      "fzfg": false,
      "metar_trigger": false,
      "taf_trigger": false,
      "metar": "METAR LJLJ 241530Z 18007KT 150V220 9999 FEW060 28/12 Q1026 NOSIG",
      "taf": "TAF LJLJ 241100Z 2412/2512 13005KT 9999 FEW050"
    },
    {
      "icao": "LKMT",
      "alert": "OK",
      "vis_m": 9999,
      "fzfg": false,
      "metar_trigger": false,
      "taf_trigger": false,
      "metar": "METAR LKMT 241530Z 04004KT 360V070 CAVOK 26/13 Q1026 NOSIG",
      "taf": "TAF LKMT 241100Z 2412/2512 20003KT CAVOK"
    },
    {
      "icao": "LKPR",
      "alert": "OK",
      "vis_m": 9999,
      "fzfg": false,
      "metar_trigger": false,
      "taf_trigger": false,
      "metar": "METAR LKPR 241530Z 34012KT CAVOK 28/12 Q1027 NOSIG",
      "taf": "TAF LKPR 241400Z 2415/2521 34008KT CAVOK"
    },
    {
      "icao": "LLBG",
      "alert": "OK",
      "vis_m": 9999,
      "fzfg": false,
      "metar_trigger": false,
      "taf_trigger": false,
      "metar": "METAR LLBG 241520Z 34010KT CAVOK 24/14 Q1017 NOSIG",
      "taf": "TAF LLBG 241107Z 2412/2512 30010KT 9999 FEW040 TX26/2412Z TN17/2503Z"
    },
    {
      "icao": "LMML",
      "alert": "OK",
      "vis_m": 9999,
      "fzfg": false,
      "metar_trigger": false,
      "taf_trigger": false,
      "metar": "METAR LMML 241515Z 23010KT CAVOK 26/12 Q1022 NOSIG",
      "taf": "TAF LMML 241100Z 2412/2512 VRB05KT CAVOK"
    },
    {
      "icao": "LOWW",
      "alert": "OK",
      "vis_m": 9999,
      "fzfg": false,
      "metar_trigger": false,
      "taf_trigger": false,
      "metar": "METAR LOWW 241520Z 01007KT 330V050 CAVOK 29/13 Q1026 NOSIG",
      "taf": "TAF LOWW 241415Z 2415/2521 35010KT CAVOK TX29/2514Z TN18/2503Z"
    },
    {
      "icao": "LPFR",
      "alert": "OK",
      "vis_m": 9999,
      "fzfg": false,
      "metar_trigger": false,
      "taf_trigger": false,
      "metar": "METAR LPFR 241530Z 11014KT CAVOK 27/13 Q1020",
      "taf": "TAF LPFR 241100Z 2412/2512 12015KT CAVOK"
    },
    {
      "icao": "LPMA",
      "alert": "OK",
      "vis_m": 9999,
      "fzfg": false,
      "metar_trigger": false,
      "taf_trigger": false,
      "metar": "METAR LPMA 241530Z 03017G30KT 350V050 9999 FEW015 21/16 Q1019",
      "taf": "TAF LPMA 241100Z 2412/2512 03015KT 9999 SCT015"
    },
    {
      "icao": "LPPR",
      "alert": "OK",
      "vis_m": 9999,
      "fzfg": false,
      "metar_trigger": false,
      "taf_trigger": false,
      "metar": "METAR LPPR 241530Z 30004KT 210V350 9999 FEW013 24/16 Q1020",
      "taf": "TAF LPPR 241100Z 2412/2512 22008KT 8000 BKN006"
    },
    {
      "icao": "LPPS",
      "alert": "OK",
      "vis_m": 9999,
      "fzfg": false,
      "metar_trigger": false,
      "taf_trigger": false,
      "metar": "METAR LPPS 241530Z 05009KT 010V090 9999 SCT014 BKN030 19/15 Q1021",
      "taf": "TAF LPPS 241100Z 2412/2518 05012KT 9999 SCT013 BKN030"
    },
    {
      "icao": "LPPT",
      "alert": "OK",
      "vis_m": 9999,
      "fzfg": false,
      "metar_trigger": false,
      "taf_trigger": false,
      "metar": "METAR LPPT 241530Z 23007KT 190V300 CAVOK 27/11 Q1019",
      "taf": "TAF LPPT 241100Z 2412/2518 10005KT CAVOK"
    },
    {
      "icao": "LQBK",
      "alert": "OK",
      "vis_m": 9999,
      "fzfg": false,
      "metar_trigger": false,
      "taf_trigger": false,
      "metar": "METAR LQBK 241530Z 30006KT 260V350 CAVOK 26/13 Q1025 NOSIG",
      "taf": "TAF LQBK 241100Z 2412/2512 35006KT CAVOK TX26/2413Z TN10/2504Z"
    },
    {
      "icao": "LQSA",
      "alert": "OK",
      "vis_m": 9999,
      "fzfg": false,
      "metar_trigger": false,
      "taf_trigger": false,
      "metar": "METAR LQSA 241530Z 36007KT 330V030 9999 SCT060 25/07 Q1025 NOSIG",
      "taf": "TAF LQSA 241100Z 2412/2512 VRB02KT 9999 SCT060 TX27/2512Z TN10/2504Z"
    },
    {
      "icao": "LQTZ",
      "alert": "OK",
      "vis_m": 9999,
      "fzfg": false,
      "metar_trigger": false,
      "taf_trigger": false,
      "metar": "METAR LQTZ 241530Z 36008KT 300V080 9999 FEW060 25/10 Q1026",
      "taf": "TAF LQTZ 241100Z 2412/2512 24005KT 9999 SCT050 TX25/2413Z TN09/2504Z"
    },
    {
      "icao": "LRBC",
      "alert": "OK",
      "vis_m": 9999,
      "fzfg": false,
      "metar_trigger": false,
      "taf_trigger": false,
      "metar": "METAR LRBC 241530Z 36008KT 330V030 CAVOK 24/09 Q1022",
      "taf": "TAF LRBC 241400Z 2415/2424 36010KT CAVOK"
    },
    {
      "icao": "LRBS",
      "alert": "OK",
      "vis_m": 9999,
      "fzfg": false,
      "metar_trigger": false,
      "taf_trigger": false,
      "metar": "METAR LRBS 241530Z 08007KT 030V130 CAVOK 25/12 Q1022 NOSIG",
      "taf": "TAF LRBS 241100Z 2412/2512 36007KT CAVOK"
    },
    {
      "icao": "LRBV",
      "alert": "OK",
      "vis_m": 9999,
      "fzfg": false,
      "metar_trigger": false,
      "taf_trigger": false,
      "metar": "METAR LRBV 241530Z 29008KT 250V320 9999 SCT068 22/09 Q1023",
      "taf": "TAF LRBV 241400Z 2415/2424 VRB04KT 9999 SCT050"
    },
    {
      "icao": "LRCL",
      "alert": "OK",
      "vis_m": 9999,
      "fzfg": false,
      "metar_trigger": false,
      "taf_trigger": false,
      "metar": "METAR LRCL 241530Z 33008KT 300V020 CAVOK 25/08 Q1023",
      "taf": "TAF LRCL 241400Z 2415/2424 34008KT CAVOK"
    },
    {
      "icao": "LRCV",
      "alert": "OK",
      "vis_m": 9999,
      "fzfg": false,
      "metar_trigger": false,
      "taf_trigger": false,
      "metar": "METAR LRCV 241530Z 24009KT 9999 SCT049CB 22/15 Q1022",
      "taf": "TAF LRCV 241400Z 2415/2424 22008KT 9999 SCT045"
    },
    {
      "icao": "LRIA",
      "alert": "OK",
      "vis_m": 9999,
      "fzfg": false,
      "metar_trigger": false,
      "taf_trigger": false,
      "metar": "METAR LRIA 241530Z 34010KT 300V360 CAVOK 24/07 Q1022",
      "taf": "TAF LRIA 241400Z 2415/2424 33010KT CAVOK"
    },
    {
      "icao": "LROP",
      "alert": "OK",
      "vis_m": 9999,
      "fzfg": false,
      "metar_trigger": false,
      "taf_trigger": false,
      "metar": "METAR LROP 241530Z 08007KT CAVOK 25/10 Q1022 NOSIG",
      "taf": "TAF LROP 241100Z 2412/2512 36007KT CAVOK"
    },
    {
      "icao": "LRSB",
      "alert": "OK",
      "vis_m": 9999,
      "fzfg": false,
      "metar_trigger": false,
      "taf_trigger": false,
      "metar": "METAR LRSB 241530Z 33007KT 9999 FEW060 24/09 Q1023 NOSIG",
      "taf": "TAF LRSB 241100Z 2412/2512 VRB04KT 9999 SCT045"
    },
    {
      "icao": "LRSM",
      "alert": "OK",
      "vis_m": 9999,
      "fzfg": false,
      "metar_trigger": false,
      "taf_trigger": false,
      "metar": "METAR LRSM 241530Z AUTO 32006KT 290V350 9999 NCD 28/09 Q1023",
      "taf": ""
    },
    {
      "icao": "LRSV",
      "alert": "OK",
      "vis_m": 9999,
      "fzfg": false,
      "metar_trigger": false,
      "taf_trigger": false,
      "metar": "METAR LRSV 241530Z 31010KT CAVOK 22/08 Q1023",
      "taf": "TAF LRSV 241400Z 2415/2424 33010KT CAVOK"
    },
    {
      "icao": "LRTM",
      "alert": "OK",
      "vis_m": 9999,
      "fzfg": false,
      "metar_trigger": false,
      "taf_trigger": false,
      "metar": "METAR LRTM 241530Z 30006KT 270V340 CAVOK 26/11 Q1022",
      "taf": "TAF LRTM 241400Z 2415/2424 33008KT 9999 FEW045"
    },
    {
      "icao": "LRTR",
      "alert": "OK",
      "vis_m": 9999,
      "fzfg": false,
      "metar_trigger": false,
      "taf_trigger": false,
      "metar": "METAR LRTR 241530Z 36010KT CAVOK 27/08 Q1022",
      "taf": "TAF LRTR 241100Z 2412/2512 01007KT 9999 SCT045"
    },
    {
      "icao": "LTAC",
      "alert": "OK",
      "vis_m": 9999,
      "fzfg": false,
      "metar_trigger": false,
      "taf_trigger": false,
      "metar": "METAR LTAC 241520Z 08005KT 030V110 9999 FEW025CB BKN030 16/11 Q1017 NOSIG RMK RWY21C 08003KT 030V110 RWY03L 08005KT 030V110 RWY21R 05003KT 360V100 RWY03R 05005KT 010V080 RWY21L 10004KT 070V130",
      "taf": "TAF LTAC 241040Z 2412/2512 VRB02KT 9999 SCT040 SCT100"
    },
    {
      "icao": "LTFM",
      "alert": "OK",
      "vis_m": 9999,
      "fzfg": false,
      "metar_trigger": false,
      "taf_trigger": false,
      "metar": "METAR LTFM 241520Z 36015KT 9999 SCT035 19/14 Q1020 NOSIG RMK RWY17L 34012KT RWY34L 35016KT RWY16R 35012KT RWY36 35014KT RWY18 34014KT",
      "taf": "TAF LTFM 241040Z 2412/2518 35015KT 9999 SCT012 BKN025"
    },
    {
      "icao": "LUKK",
      "alert": "OK",
      "vis_m": 9999,
      "fzfg": false,
      "metar_trigger": false,
      "taf_trigger": false,
      "metar": "METAR LUKK 241530Z 35010KT CAVOK 24/08 Q1020 NOSIG",
      "taf": "TAF LUKK 241101Z 2412/2512 34010KT CAVOK"
    },
    {
      "icao": "LWOH",
      "alert": "OK",
      "vis_m": 9999,
      "fzfg": false,
      "metar_trigger": false,
      "taf_trigger": false,
      "metar": "METAR LWOH 241520Z 03005KT 330V120 9999 TS FEW035CB SCT050 BKN090 21/13 Q1023",
      "taf": "TAF LWOH 241430Z 2415/2515 34006KT 9999 FEW050 SCT090"
    },
    {
      "icao": "LWSK",
      "alert": "OK",
      "vis_m": 9999,
      "fzfg": false,
      "metar_trigger": false,
      "taf_trigger": false,
      "metar": "METAR LWSK 241520Z 35012KT 320V030 9999 FEW090 24/14 Q1022 NOSIG",
      "taf": "TAF LWSK 241430Z 2415/2515 02008KT 9999 FEW050 SCT090"
    },
    {
      "icao": "LYBE",
      "alert": "OK",
      "vis_m": 9999,
      "fzfg": false,
      "metar_trigger": false,
      "taf_trigger": false,
      "metar": "METAR LYBE 241530Z 32010KT CAVOK 26/11 Q1023 NOSIG",
      "taf": "TAF LYBE 241100Z 2412/2512 35012KT CAVOK TX29/2512Z TN13/2504Z"
    },
    {
      "icao": "LYNI",
      "alert": "OK",
      "vis_m": 9999,
      "fzfg": false,
      "metar_trigger": false,
      "taf_trigger": false,
      "metar": "METAR LYNI 241530Z 32006KT 290V360 9999 FEW050 24/11 Q1023 NOSIG",
      "taf": "TAF LYNI 241100Z 2412/2512 31008KT 9999 SCT040 TX26/2512Z TN11/2504Z"
    },
    {
      "icao": "LYPG",
      "alert": "OK",
      "vis_m": 9999,
      "fzfg": false,
      "metar_trigger": false,
      "taf_trigger": false,
      "metar": "METAR LYPG 241530Z 15006KT 110V180 9999 FEW050 29/12 Q1020 BECMG 36012KT",
      "taf": ""
    },
    {
      "icao": "LZIB",
      "alert": "OK",
      "vis_m": 9999,
      "fzfg": false,
      "metar_trigger": false,
      "taf_trigger": false,
      "metar": "METAR LZIB 241530Z 32010KT 290V350 CAVOK 29/11 Q1025 NOSIG",
      "taf": "TAF LZIB 241115Z 2412/2512 36009KT CAVOK"
    },
    {
      "icao": "LZKZ",
      "alert": "OK",
      "vis_m": 9999,
      "fzfg": false,
      "metar_trigger": false,
      "taf_trigger": false,
      "metar": "METAR LZKZ 241530Z 02010KT CAVOK 27/10 Q1024 NOSIG",
      "taf": "TAF LZKZ 241115Z 2412/2512 01008KT CAVOK"
    },
    {
      "icao": "LZTT",
      "alert": "OK",
      "vis_m": 9999,
      "fzfg": false,
      "metar_trigger": false,
      "taf_trigger": false,
      "metar": "METAR LZTT 241530Z 34009KT 9999 FEW060 24/03 Q1026 NOSIG",
      "taf": "TAF LZTT 241115Z 2412/2512 06006KT CAVOK"
    },
    {
      "icao": "OEJN",
      "alert": "OK",
      "vis_m": 9999,
      "fzfg": false,
      "metar_trigger": false,
      "taf_trigger": false,
      "metar": "METAR OEJN 241500Z 33016KT CAVOK 33/17 Q1007 NOSIG",
      "taf": "TAF OEJN 241100Z 2412/2518 33015KT CAVOK"
    },
    {
      "icao": "OEMA",
      "alert": "OK",
      "vis_m": 9999,
      "fzfg": false,
      "metar_trigger": false,
      "taf_trigger": false,
      "metar": "METAR OEMA 241500Z 30006KT 9999 FEW045 42/M01 Q1012 NOSIG",
      "taf": "TAF OEMA 241100Z 2412/2518 29010KT 9999 SCT045"
    },
    {
      "icao": "OJAI",
      "alert": "OK",
      "vis_m": 4000,
      "fzfg": false,
      "metar_trigger": false,
      "taf_trigger": false,
      "metar": "METAR OJAI 241500Z 27011KT 4000 DU NSC 24/07 Q1019 NOSIG",
      "taf": "TAF OJAI 241100Z 2412/2518 29014KT 4000 DU NSC"
    },
    {
      "icao": "OMAA",
      "alert": "OK",
      "vis_m": 9999,
      "fzfg": false,
      "metar_trigger": false,
      "taf_trigger": false,
      "metar": "METAR OMAA 241530Z 33009KT CAVOK 32/23 Q1006 NOSIG",
      "taf": "TAF OMAA 241100Z 2412/2518 30010KT 8000 NSC"
    },
    {
      "icao": "OMDB",
      "alert": "OK",
      "vis_m": 9999,
      "fzfg": false,
      "metar_trigger": false,
      "taf_trigger": false,
      "metar": "METAR OMDB 241530Z 05005KT 020V090 CAVOK 33/24 Q1006 NOSIG",
      "taf": "TAF OMDB 241100Z 2412/2518 34012KT 8000 NSC"
    },
    {
      "icao": "UAAA",
      "alert": "OK",
      "vis_m": 9999,
      "fzfg": false,
      "metar_trigger": false,
      "taf_trigger": false,
      "metar": "METAR UAAA 241530Z 18002MPS 9999 FEW050CB SCT100 15/06 Q1019 NOSIG",
      "taf": "TAF UAAA 241102Z 2412/2512 20003MPS 9999 FEW050CB SCT100 TX25/2510Z TN09/2501Z"
    },
    {
      "icao": "UBBB",
      "alert": "OK",
      "vis_m": 9999,
      "fzfg": false,
      "metar_trigger": false,
      "taf_trigger": false,
      "metar": "METAR UBBB 241530Z 16008KT 9999 FEW012 FEW060CB 20/17 Q1009 NOSIG",
      "taf": "TAF UBBB 241057Z 2412/2512 17012KT 9999 SCT020 TX24/2412Z TN16/2501Z"
    },
    {
      "icao": "UDSG",
      "alert": "OK",
      "vis_m": 8000,
      "fzfg": false,
      "metar_trigger": false,
      "taf_trigger": false,
      "metar": "METAR UDSG 241530Z 17009KT 8000 -SHRA BKN026CB 09/08 Q1017 NOSIG",
      "taf": "TAF UDSG 241100Z 2412/2512 24006KT 9999 BKN040"
    },
    {
      "icao": "UDYZ",
      "alert": "OK",
      "vis_m": 9999,
      "fzfg": false,
      "metar_trigger": false,
      "taf_trigger": false,
      "metar": "METAR UDYZ 241530Z 33003KT 290V010 9999 -SHRA OVC043CB 13/11 Q1015 TEMPO -TSRA",
      "taf": "TAF UDYZ 241100Z 2412/2512 18006KT 9999 BKN040"
    },
    {
      "icao": "UGKO",
      "alert": "OK",
      "vis_m": 9999,
      "fzfg": false,
      "metar_trigger": false,
      "taf_trigger": false,
      "metar": "METAR UGKO 241530Z 26013KT 9999 BKN016CB OVC033 17/15 Q1012 NOSIG",
      "taf": "TAF UGKO 241100Z 2412/2512 27012KT 9999 -RA SCT020 BKN040 TX19/2412Z TN14/2502Z"
    }
  ]
}