{
  "ts_utc": "2026-04-02T17:09:18Z",
  "threshold_m": 150,
  "source": "stations_override.txt (ICAO list) + aviationweather.gov (METAR/TAF raw)",
  "station_count": 159,
  "stations": [
    {
      "icao": "BIKF",
      "alert": "OK",
      "vis_m": 7000,
      "fzfg": false,
      "metar_trigger": false,
      "taf_trigger": false,
      "metar": "METAR BIKF 021700Z 19005KT 7000 -RASN SCT006 BKN035 OVC063 M00/M01 Q0994",
      "taf": "TAF BIKF 021651Z 0218/0318 19012KT 9999 -SHSN FEW008CB BKN020 TX03/0316Z TNM05/0223Z"
    },
    {
      "icao": "BKPR",
      "alert": "OK",
      "vis_m": 9999,
      "fzfg": false,
      "metar_trigger": false,
      "taf_trigger": false,
      "metar": "METAR BKPR 021700Z 01010KT 9999 -RA SCT012 BKN020 06/04 Q0998 NOSIG",
      "taf": "TAF BKPR 021130Z 0212/0312 01010KT 9999 SCT015 BKN030"
    },
    {
      "icao": "EBCI",
      "alert": "OK",
      "vis_m": 9999,
      "fzfg": false,
      "metar_trigger": false,
      "taf_trigger": false,
      "metar": "METAR EBCI 021650Z 33005KT 290V010 9999 SCT025 BKN035 08/04 Q1019 NOSIG",
      "taf": "TAF EBCI 021100Z 0212/0318 32010KT 9999 SCT016 BKN030"
    },
    {
      "icao": "EDDB",
      "alert": "OK",
      "vis_m": 9999,
      "fzfg": false,
      "metar_trigger": false,
      "taf_trigger": false,
      "metar": "METAR EDDB 021650Z AUTO 30006KT CAVOK 12/01 Q1013 NOSIG",
      "taf": "TAF EDDB 021100Z 0212/0312 27006KT 9999 SCT040"
    },
    {
      "icao": "EDDH",
      "alert": "OK",
      "vis_m": 9999,
      "fzfg": false,
      "metar_trigger": false,
      "taf_trigger": false,
      "metar": "METAR EDDH 021650Z AUTO 26007KT 220V300 9999 -RA SCT024 BKN030 OVC039 10/05 Q1013 TEMPO 32012KT 4000 -RADZ BKN008",
      "taf": "TAF EDDH 021100Z 0212/0318 23009KT 9999 BKN030"
    },
    {
      "icao": "EDDK",
      "alert": "OK",
      "vis_m": 9999,
      "fzfg": false,
      "metar_trigger": false,
      "taf_trigger": false,
      "metar": "METAR EDDK 021650Z AUTO 24006KT 200V270 9999 -SHRA SCT021 SCT027 OVC034 FEW///TCU 10/06 Q1016 TEMPO 32010KT 4000 SHRA BKN014TCU",
      "taf": "TAF EDDK 021100Z 0212/0318 29008KT 9999 SCT020 BKN045"
    },
    {
      "icao": "EDDN",
      "alert": "OK",
      "vis_m": 9999,
      "fzfg": false,
      "metar_trigger": false,
      "taf_trigger": false,
      "metar": "METAR EDDN 021650Z AUTO 30007KT 260V330 CAVOK 11/M02 Q1014 NOSIG",
      "taf": "TAF EDDN 021100Z 0212/0312 31006KT CAVOK"
    },
    {
      "icao": "EDDS",
      "alert": "OK",
      "vis_m": 9999,
      "fzfg": false,
      "metar_trigger": false,
      "taf_trigger": false,
      "metar": "METAR EDDS 021650Z AUTO 30009KT 270V330 CAVOK 11/M04 Q1015 NOSIG",
      "taf": "TAF EDDS 021100Z 0212/0312 VRB03KT 9999 FEW040"
    },
    {
      "icao": "EDFH",
      "alert": "OK",
      "vis_m": 9999,
      "fzfg": false,
      "metar_trigger": false,
      "taf_trigger": false,
      "metar": "METAR EDFH 021650Z 29007KT 9999 SCT040 09/01 Q1016",
      "taf": "TAF EDFH 021100Z 0212/0312 30005KT 9999 FEW035"
    },
    {
      "icao": "EDJA",
      "alert": "OK",
      "vis_m": 9999,
      "fzfg": false,
      "metar_trigger": false,
      "taf_trigger": false,
      "metar": "METAR EDJA 021650Z VRB02KT CAVOK 07/00 Q1015",
      "taf": "TAF EDJA 021400Z 0215/0224 VRB03KT 9999 SCT040"
    },
    {
      "icao": "EDLW",
      "alert": "OK",
      "vis_m": 8000,
      "fzfg": false,
      "metar_trigger": false,
      "taf_trigger": false,
      "metar": "METAR EDLW 021650Z 24007KT 8000 OVC022 09/07 Q1015",
      "taf": "TAF EDLW 021100Z 0212/0312 24008KT 9999 BKN030"
    },
    {
      "icao": "EDNY",
      "alert": "OK",
      "vis_m": 9999,
      "fzfg": false,
      "metar_trigger": false,
      "taf_trigger": false,
      "metar": "METAR EDNY 021650Z 19005KT 150V220 CAVOK 09/00 Q1016",
      "taf": "TAF EDNY 021400Z 0215/0224 22005KT 9999 SCT050"
    },
    {
      "icao": "EDSB",
      "alert": "OK",
      "vis_m": 9999,
      "fzfg": false,
      "metar_trigger": false,
      "taf_trigger": false,
      "metar": "METAR EDSB 021650Z 17005KT 120V210 CAVOK 14/M00 Q1015",
      "taf": "TAF EDSB 021100Z 0212/0312 35005KT CAVOK"
    },
    {
      "icao": "EETN",
      "alert": "OK",
      "vis_m": 9999,
      "fzfg": false,
      "metar_trigger": false,
      "taf_trigger": false,
      "metar": "METAR EETN 021650Z 21007KT 9999 SCT022 07/03 Q1010 NOSIG",
      "taf": "TAF EETN 021130Z 0212/0312 22010KT 9999 BKN040"
    },
    {
      "icao": "EFTU",
      "alert": "OK",
      "vis_m": 9999,
      "fzfg": false,
      "metar_trigger": false,
      "taf_trigger": false,
      "metar": "METAR EFTU 021650Z AUTO 22005KT 9999 OVC010 06/04 Q1008",
      "taf": "TAF EFTU 021433Z 0215/0315 24008KT 9999 BKN030"
    },
    {
      "icao": "EGBB",
      "alert": "OK",
      "vis_m": 9999,
      "fzfg": false,
      "metar_trigger": false,
      "taf_trigger": false,
      "metar": "METAR EGBB 021650Z 19007KT 9999 FEW039 10/02 Q1018",
      "taf": ""
    },
    {
      "icao": "EGGP",
      "alert": "OK",
      "vis_m": 9999,
      "fzfg": false,
      "metar_trigger": false,
      "taf_trigger": false,
      "metar": "METAR EGGP 021650Z 29011KT 9999 SCT043 09/03 Q1018",
      "taf": ""
    },
    {
      "icao": "EGGW",
      "alert": "OK",
      "vis_m": 9999,
      "fzfg": false,
      "metar_trigger": false,
      "taf_trigger": false,
      "metar": "METAR EGGW 021650Z AUTO 19006KT 140V230 9999 NCD 10/01 Q1019",
      "taf": "TAF EGGW 021059Z 0212/0312 33005KT 9999 SCT030"
    },
    {
      "icao": "EGKK",
      "alert": "OK",
      "vis_m": 9999,
      "fzfg": false,
      "metar_trigger": false,
      "taf_trigger": false,
      "metar": "METAR EGKK 021650Z VRB03KT CAVOK 11/02 Q1020",
      "taf": "TAF EGKK 021058Z 0212/0318 35010KT 9999 FEW030"
    },
    {
      "icao": "EGNM",
      "alert": "OK",
      "vis_m": 9999,
      "fzfg": false,
      "metar_trigger": false,
      "taf_trigger": false,
      "metar": "METAR EGNM 021650Z 22009KT 9999 FEW045 10/M01 Q1017",
      "taf": "TAF EGNM 021102Z 0212/0312 34004KT 9999 FEW015 SCT030"
    },
    {
      "icao": "EGPD",
      "alert": "OK",
      "vis_m": 9999,
      "fzfg": false,
      "metar_trigger": false,
      "taf_trigger": false,
      "metar": "METAR EGPD 021650Z COR AUTO 16017KT 9999 NCD 07/00 Q1013 NOSIG",
      "taf": "TAF EGPD 021055Z 0212/0312 29007KT 9999 FEW040"
    },
    {
      "icao": "EGPF",
      "alert": "OK",
      "vis_m": 9999,
      "fzfg": false,
      "metar_trigger": false,
      "taf_trigger": false,
      "metar": "METAR EGPF 021650Z AUTO 19015KT 9999 BKN036 BKN043 08/01 Q1014",
      "taf": "TAF EGPF 021056Z 0212/0312 VRB02KT 9999 FEW040"
    },
    {
      "icao": "EHBK",
      "alert": "OK",
      "vis_m": 9999,
      "fzfg": false,
      "metar_trigger": false,
      "taf_trigger": false,
      "metar": "METAR EHBK 021655Z AUTO 32007KT 290V350 9999 FEW011 OVC028 09/07 Q1017 NOSIG",
      "taf": "TAF EHBK 021123Z 0212/0318 24010KT 9999 BKN018"
    },
    {
      "icao": "EHEH",
      "alert": "OK",
      "vis_m": 9999,
      "fzfg": false,
      "metar_trigger": false,
      "taf_trigger": false,
      "metar": "METAR EHEH 021655Z AUTO 31006KT 250V010 9999 SCT018 OVC027 09/04 Q1018 BLU NOSIG RMK TREND REMOTE BY EHWX",
      "taf": "TAF EHEH 021151Z 0212/0318 27007KT 9999 BKN016 BKN035"
    },
    {
      "icao": "EKBI",
      "alert": "OK",
      "vis_m": 9999,
      "fzfg": false,
      "metar_trigger": false,
      "taf_trigger": false,
      "metar": "METAR EKBI 021650Z AUTO 29012KT 9999 BKN032/// 06/M00 Q1012",
      "taf": "TAF EKBI 021427Z 0215/0315 30010KT 9999 SCT030"
    },
    {
      "icao": "EKCH",
      "alert": "OK",
      "vis_m": 9999,
      "fzfg": false,
      "metar_trigger": false,
      "taf_trigger": false,
      "metar": "METAR EKCH 021650Z AUTO 23010KT 9999 SCT042/// OVC059/// 08/04 Q1011 TEMPO BKN010",
      "taf": "TAF EKCH 021427Z 0215/0315 19010KT 9999 BKN035"
    },
    {
      "icao": "ENAL",
      "alert": "OK",
      "vis_m": 9999,
      "fzfg": false,
      "metar_trigger": false,
      "taf_trigger": false,
      "metar": "METAR ENAL 021650Z 03011KT 350V050 9999 VCSH SCT011TCU SCT035 03/00 Q1014",
      "taf": "TAF ENAL 021400Z 0215/0224 VRB04KT 9999 FEW018 SCT040"
    },
    {
      "icao": "ENBR",
      "alert": "OK",
      "vis_m": 9999,
      "fzfg": false,
      "metar_trigger": false,
      "taf_trigger": false,
      "metar": "METAR ENBR 021650Z 35012KT CAVOK 06/M06 Q1009 NOSIG RMK WIND 1200FT 35013KT",
      "taf": "TAF ENBR 021100Z 0212/0312 35015KT 9999 SCT040"
    },
    {
      "icao": "ENGM",
      "alert": "OK",
      "vis_m": 2200,
      "fzfg": false,
      "metar_trigger": false,
      "taf_trigger": false,
      "metar": "METAR ENGM 021650Z 02014KT 2200 1200E -SN BR FEW007 BKN024 01/M01 Q1010 TEMPO 3000",
      "taf": "TAF ENGM 021100Z 0212/0312 36012KT 8000 -RASN SCT010 BKN030"
    },
    {
      "icao": "ENHD",
      "alert": "OK",
      "vis_m": 9999,
      "fzfg": false,
      "metar_trigger": false,
      "taf_trigger": false,
      "metar": "METAR ENHD 021650Z AUTO 34020KT 9999 NCD 06/01 Q1009",
      "taf": "TAF ENHD 021400Z 0215/0222 34025KT 9999 FEW040"
    },
    {
      "icao": "ENTC",
      "alert": "OK",
      "vis_m": 2000,
      "fzfg": false,
      "metar_trigger": false,
      "taf_trigger": false,
      "metar": "METAR ENTC 021650Z 24009KT 2000 SHRASN VV011 01/M00 Q0999 TEMPO 5000 -SHRASN BKN008 FEW020CB RMK WIND 2600FT 26018KT",
      "taf": "TAF ENTC 021100Z 0212/0312 21022G35KT 9999 -SHRA SCT015 BKN030"
    },
    {
      "icao": "ENTO",
      "alert": "OK",
      "vis_m": 3600,
      "fzfg": false,
      "metar_trigger": false,
      "taf_trigger": false,
      "metar": "METAR ENTO 021650Z 01014KT 3600 -SN BKN001 00/00 Q1008 TEMPO 01015G25KT 6000 VV006",
      "taf": "TAF ENTO 021100Z 0212/0312 19005KT 1200 RADZ BR OVC001"
    },
    {
      "icao": "ENVA",
      "alert": "OK",
      "vis_m": 9999,
      "fzfg": false,
      "metar_trigger": false,
      "taf_trigger": false,
      "metar": "METAR ENVA 021650Z 27006KT 9999 FEW015CB 03/M01 Q1013 NOSIG RMK WIND 670FT 28008KT",
      "taf": "TAF ENVA 021100Z 0212/0312 25015KT 9999 FEW018 SCT035"
    },
    {
      "icao": "ENZV",
      "alert": "OK",
      "vis_m": 9999,
      "fzfg": false,
      "metar_trigger": false,
      "taf_trigger": false,
      "metar": "METAR ENZV 021650Z 33017KT 9999 BKN039 07/M01 Q1009 NOSIG",
      "taf": "TAF ENZV 021100Z 0212/0312 33015KT 9999 SCT045"
    },
    {
      "icao": "EPGD",
      "alert": "OK",
      "vis_m": 9999,
      "fzfg": false,
      "metar_trigger": false,
      "taf_trigger": false,
      "metar": "METAR EPGD 021700Z 07006KT CAVOK 06/M00 Q1013",
      "taf": ""
    },
    {
      "icao": "EPKK",
      "alert": "OK",
      "vis_m": 9999,
      "fzfg": false,
      "metar_trigger": false,
      "taf_trigger": false,
      "metar": "METAR EPKK 021700Z VRB02KT 9999 BKN045 11/01 Q1011",
      "taf": "TAF EPKK 021430Z 0215/0315 02006KT 9999 BKN040"
    },
    {
      "icao": "EPKT",
      "alert": "OK",
      "vis_m": 9999,
      "fzfg": false,
      "metar_trigger": false,
      "taf_trigger": false,
      "metar": "METAR EPKT 021700Z 02004KT CAVOK 10/M04 Q1011",
      "taf": "TAF EPKT 021130Z 0212/0312 02010KT CAVOK"
    },
    {
      "icao": "EPLB",
      "alert": "OK",
      "vis_m": 9999,
      "fzfg": false,
      "metar_trigger": false,
      "taf_trigger": false,
      "metar": "METAR EPLB 021700Z 34005KT CAVOK 12/02 Q1010",
      "taf": "TAF EPLB 021130Z 0212/0312 02008KT CAVOK"
    },
    {
      "icao": "EPMO",
      "alert": "OK",
      "vis_m": 9999,
      "fzfg": false,
      "metar_trigger": false,
      "taf_trigger": false,
      "metar": "METAR EPMO 021700Z 36002KT CAVOK 12/M04 Q1011",
      "taf": "TAF EPMO 021130Z 0212/0312 01008KT CAVOK"
    },
    {
      "icao": "EPPO",
      "alert": "OK",
      "vis_m": 9999,
      "fzfg": false,
      "metar_trigger": false,
      "taf_trigger": false,
      "metar": "METAR EPPO 021700Z 31003KT CAVOK 12/M03 Q1012",
      "taf": "TAF EPPO 021130Z 0212/0312 VRB02KT CAVOK"
    },
    {
      "icao": "EPRA",
      "alert": "OK",
      "vis_m": 9999,
      "fzfg": false,
      "metar_trigger": false,
      "taf_trigger": false,
      "metar": "METAR EPRA 021700Z 02003KT CAVOK 12/00 Q1011",
      "taf": "TAF EPRA 021430Z 0215/0224 35008KT CAVOK"
    },
    {
      "icao": "EPRZ",
      "alert": "OK",
      "vis_m": 9999,
      "fzfg": false,
      "metar_trigger": false,
      "taf_trigger": false,
      "metar": "METAR EPRZ 021700Z 35008KT CAVOK 13/05 Q1009",
      "taf": "TAF EPRZ 021130Z 0212/0312 36006KT 9999 SCT040"
    },
    {
      "icao": "EPSC",
      "alert": "OK",
      "vis_m": 9999,
      "fzfg": false,
      "metar_trigger": false,
      "taf_trigger": false,
      "metar": "METAR EPSC 021700Z 27003KT CAVOK 09/00 Q1013",
      "taf": "TAF EPSC 021130Z 0212/0312 23008KT 9999 SCT040"
    },
    {
      "icao": "EPSY",
      "alert": "OK",
      "vis_m": 9999,
      "fzfg": false,
      "metar_trigger": false,
      "taf_trigger": false,
      "metar": "METAR EPSY 021700Z 02007KT CAVOK 09/M06 Q1012",
      "taf": "TAF EPSY 021430Z 0215/0224 VRB02KT CAVOK"
    },
    {
      "icao": "EPWA",
      "alert": "OK",
      "vis_m": 9999,
      "fzfg": false,
      "metar_trigger": false,
      "taf_trigger": false,
      "metar": "METAR EPWA 021700Z 33005KT 310V010 CAVOK 13/M06 Q1011 NOSIG",
      "taf": "TAF EPWA 021430Z 0215/0315 36006KT CAVOK"
    },
    {
      "icao": "EPWR",
      "alert": "OK",
      "vis_m": 9999,
      "fzfg": false,
      "metar_trigger": false,
      "taf_trigger": false,
      "metar": "METAR EPWR 021700Z 01005KT CAVOK 12/M02 Q1013",
      "taf": "TAF EPWR 021430Z 0215/0315 36007KT CAVOK"
    },
    {
      "icao": "ESGG",
      "alert": "OK",
      "vis_m": 4500,
      "fzfg": false,
      "metar_trigger": false,
      "taf_trigger": false,
      "metar": "METAR ESGG 021650Z 18009KT 4500 DZ BKN006 OVC011 06/05 Q1008",
      "taf": "TAF ESGG 021430Z 0215/0315 18009KT 9999 BKN008"
    },
    {
      "icao": "ESKN",
      "alert": "OK",
      "vis_m": 9999,
      "fzfg": false,
      "metar_trigger": false,
      "taf_trigger": false,
      "metar": "METAR ESKN 021650Z 21005KT 9999 SCT030 BKN060 09/06 Q1009",
      "taf": "TAF ESKN 021430Z 0215/0315 23004KT 9999 SCT025"
    },
    {
      "icao": "ESMS",
      "alert": "OK",
      "vis_m": 9999,
      "fzfg": false,
      "metar_trigger": false,
      "taf_trigger": false,
      "metar": "METAR ESMS 021650Z 21008KT 9999 BKN040 09/02 Q1011",
      "taf": "TAF ESMS 021427Z 0215/0315 21012KT 9999 SCT040"
    },
    {
      "icao": "ESSA",
      "alert": "OK",
      "vis_m": 9999,
      "fzfg": false,
      "metar_trigger": false,
      "taf_trigger": false,
      "metar": "METAR ESSA 021650Z 03009KT 9999 VCSH SCT010 SCT023 07/05 Q1008 NOSIG",
      "taf": "TAF ESSA 021430Z 0215/0315 25008KT 9999 BKN030"
    },
    {
      "icao": "EYKA",
      "alert": "OK",
      "vis_m": 9999,
      "fzfg": false,
      "metar_trigger": false,
      "taf_trigger": false,
      "metar": "METAR EYKA 021650Z 01003KT CAVOK 11/M04 Q1011",
      "taf": "TAF EYKA 021700Z 0218/0318 VRB03KT 7000 NSC"
    },
    {
      "icao": "EYPA",
      "alert": "OK",
      "vis_m": 500,
      "fzfg": true,
      "metar_trigger": false,
      "taf_trigger": false,
      "metar": "METAR EYPA 021650Z VRB02KT 0500 R19/0550N FG VV002 01/01 Q1013",
      "taf": "TAF EYPA 021700Z 0218/0318 VRB03KT 0600 FZFG VV002"
    },
    {
      "icao": "EYVI",
      "alert": "OK",
      "vis_m": 9999,
      "fzfg": false,
      "metar_trigger": false,
      "taf_trigger": false,
      "metar": "METAR EYVI 021650Z 34007KT CAVOK 11/M03 Q1010 NOSIG",
      "taf": "TAF EYVI 021700Z 0218/0318 VRB03KT 7000 NSC"
    },
    {
      "icao": "GCFV",
      "alert": "OK",
      "vis_m": 9999,
      "fzfg": false,
      "metar_trigger": false,
      "taf_trigger": false,
      "metar": "METAR GCFV 021700Z 03015KT CAVOK 21/14 Q1018",
      "taf": "TAF GCFV 021400Z 0215/0315 04013KT CAVOK TX24/0314Z TN16/0306Z"
    },
    {
      "icao": "GCLP",
      "alert": "OK",
      "vis_m": 9999,
      "fzfg": false,
      "metar_trigger": false,
      "taf_trigger": false,
      "metar": "METAR GCLP 021700Z 03019KT 9999 FEW030 21/15 Q1018 NOSIG",
      "taf": "TAF GCLP 021400Z 0215/0315 02016KT 9999 FEW025 TX23/0314Z TN16/0306Z"
    },
    {
      "icao": "GCTS",
      "alert": "OK",
      "vis_m": 9999,
      "fzfg": false,
      "metar_trigger": false,
      "taf_trigger": false,
      "metar": "METAR GCTS 021700Z 08019KT CAVOK 24/11 Q1018 NOSIG",
      "taf": "TAF GCTS 021400Z 0215/0315 07015KT CAVOK TX24/0314Z TN16/0306Z"
    },
    {
      "icao": "GMAD",
      "alert": "OK",
      "vis_m": 9999,
      "fzfg": false,
      "metar_trigger": false,
      "taf_trigger": false,
      "metar": "METAR GMAD 021700Z 23011KT CAVOK 23/11 Q1013 NOSIG",
      "taf": "TAF GMAD 021100Z 0212/0318 26010KT CAVOK"
    },
    {
      "icao": "GMMN",
      "alert": "OK",
      "vis_m": 9999,
      "fzfg": false,
      "metar_trigger": false,
      "taf_trigger": false,
      "metar": "METAR GMMN 021700Z 01011KT 330V050 CAVOK 20/11 Q1018 NOSIG",
      "taf": "TAF GMMN 021100Z 0212/0318 36012KT CAVOK"
    },
    {
      "icao": "GMMX",
      "alert": "OK",
      "vis_m": 9999,
      "fzfg": false,
      "metar_trigger": false,
      "taf_trigger": false,
      "metar": "METAR GMMX 021700Z 03007KT 350V060 CAVOK 26/05 Q1016 NOSIG",
      "taf": "TAF GMMX 021100Z 0212/0318 06006KT 8000 NSC"
    },
    {
      "icao": "HEGN",
      "alert": "OK",
      "vis_m": 9999,
      "fzfg": false,
      "metar_trigger": false,
      "taf_trigger": false,
      "metar": "METAR HEGN 021600Z 00000KT CAVOK 26/18 Q1007 NOSIG",
      "taf": "TAF HEGN 021700Z 0218/0324 34008G20KT 6000 BKN020"
    },
    {
      "icao": "HEMA",
      "alert": "OK",
      "vis_m": 4000,
      "fzfg": false,
      "metar_trigger": false,
      "taf_trigger": false,
      "metar": "METAR HEMA 021600Z 00000KT 4000 HZ NSC 26/14 Q1008 NOSIG",
      "taf": "TAF HEMA 021700Z 0218/0324 34008G22KT 6000 BKN020"
    },
    {
      "icao": "HESH",
      "alert": "OK",
      "vis_m": 6000,
      "fzfg": false,
      "metar_trigger": false,
      "taf_trigger": false,
      "metar": "METAR HESH 021600Z 18008KT 6000 NSC 30/09 Q1007 NOSIG",
      "taf": "TAF HESH 021700Z 0218/0324 35006G18KT 6000 BKN020"
    },
    {
      "icao": "HESX",
      "alert": "OK",
      "vis_m": 9999,
      "fzfg": false,
      "metar_trigger": false,
      "taf_trigger": false,
      "metar": "METAR HESX 021600Z 29008KT 9999 FEW020 BKN100 19/06 Q1011 NOSIG",
      "taf": "TAF HESX 021700Z 0218/0324 30008KT 6000 NSC"
    },
    {
      "icao": "LATI",
      "alert": "OK",
      "vis_m": 9999,
      "fzfg": false,
      "metar_trigger": false,
      "taf_trigger": false,
      "metar": "METAR LATI 021650Z 36003KT 9999 -RA FEW030 SCT042 OVC075 12/07 Q0996 NOSIG",
      "taf": "TAF LATI 021700Z 0218/0318 VRB05KT 9999 RA SCT030 OVC060 TX17/0312Z TN06/0304Z"
    },
    {
      "icao": "LBPD",
      "alert": "OK",
      "vis_m": 9999,
      "fzfg": false,
      "metar_trigger": false,
      "taf_trigger": false,
      "metar": "METAR LBPD 021700Z AUTO 28006KT 9999 FEW057/// OVC160/// 10/10 Q0995 NOSIG",
      "taf": "TAF LBPD 021100Z 0212/0312 VRB04KT 9999 BKN015 OVC030"
    },
    {
      "icao": "LBSF",
      "alert": "OK",
      "vis_m": 9999,
      "fzfg": false,
      "metar_trigger": false,
      "taf_trigger": false,
      "metar": "METAR LBSF 021700Z AUTO 36007KT 9999 -SHRA FEW026/// OVC042/// 08/04 Q0997 TEMPO 5000 RA",
      "taf": "TAF LBSF 021100Z 0212/0312 09010KT 9999 BKN020 OVC040"
    },
    {
      "icao": "LBWN",
      "alert": "OK",
      "vis_m": 9999,
      "fzfg": false,
      "metar_trigger": false,
      "taf_trigger": false,
      "metar": "METAR LBWN 021700Z AUTO 07005KT 9999 SCT006/// BKN008/// 10/10 Q1001 TEMPO 5000 BR SCT004 OVC006",
      "taf": "TAF LBWN 021100Z 0212/0312 08013KT 9999 SCT012 BKN020 BKN040"
    },
    {
      "icao": "LCLK",
      "alert": "OK",
      "vis_m": 7000,
      "fzfg": false,
      "metar_trigger": false,
      "taf_trigger": false,
      "metar": "METAR LCLK 021700Z 22008KT 7000 SCT020 18/16 Q1009 NOSIG",
      "taf": "TAF LCLK 021130Z 0212/0312 14008KT 7000 SCT018 BKN050"
    },
    {
      "icao": "LCPH",
      "alert": "OK",
      "vis_m": 9000,
      "fzfg": false,
      "metar_trigger": false,
      "taf_trigger": false,
      "metar": "METAR LCPH 021700Z AUTO 02002KT 9000 OVC055 17/13 Q1010 NOSIG",
      "taf": "TAF LCPH 021130Z 0212/0312 29015KT 6000 SCT015 BKN050"
    },
    {
      "icao": "LEAL",
      "alert": "OK",
      "vis_m": 9999,
      "fzfg": false,
      "metar_trigger": false,
      "taf_trigger": false,
      "metar": "METAR LEAL 021700Z 15007KT 100V230 9999 FEW068 18/07 Q1015 NOSIG",
      "taf": "TAF LEAL 021100Z 0212/0312 30005KT CAVOK TX21/0212Z TN09/0305Z"
    },
    {
      "icao": "LEBB",
      "alert": "OK",
      "vis_m": 7000,
      "fzfg": false,
      "metar_trigger": false,
      "taf_trigger": false,
      "metar": "METAR LEBB 021700Z 32009KT 280V350 7000 BKN012 OVC023 12/10 Q1025 NOSIG",
      "taf": "TAF LEBB 021100Z 0212/0312 32009KT 9000 SCT010 BKN025 TX15/0312Z TN07/0306Z"
    },
    {
      "icao": "LEBL",
      "alert": "OK",
      "vis_m": 9999,
      "fzfg": false,
      "metar_trigger": false,
      "taf_trigger": false,
      "metar": "METAR LEBL 021700Z 04009KT 020V090 9999 SCT050 20/00 Q1011 NOSIG",
      "taf": ""
    },
    {
      "icao": "LECH",
      "alert": "OK",
      "vis_m": 9000,
      "fzfg": false,
      "metar_trigger": false,
      "taf_trigger": false,
      "metar": "METAR LECH 021700Z AUTO 33012KT 270V030 9000 NSC 16/01 Q1014",
      "taf": "TAF LECH 021100Z 0212/0312 33020KT CAVOK TX19/0213Z TN09/0305Z"
    },
    {
      "icao": "LEMD",
      "alert": "OK",
      "vis_m": 9999,
      "fzfg": false,
      "metar_trigger": false,
      "taf_trigger": false,
      "metar": "METAR LEMD 021700Z 36012KT CAVOK 17/01 Q1019 NOSIG",
      "taf": ""
    },
    {
      "icao": "LEMG",
      "alert": "OK",
      "vis_m": 9999,
      "fzfg": false,
      "metar_trigger": false,
      "taf_trigger": false,
      "metar": "METAR LEMG 021700Z 31011KT 280V350 CAVOK 25/M02 Q1015 NOSIG",
      "taf": ""
    },
    {
      "icao": "LEVC",
      "alert": "OK",
      "vis_m": 9999,
      "fzfg": false,
      "metar_trigger": false,
      "taf_trigger": false,
      "metar": "METAR LEVC 021700Z 12011KT 100V170 9999 FEW060 18/04 Q1014 WS ALL RWY NOSIG",
      "taf": "TAF LEVC 021100Z 0212/0312 34015KT CAVOK TX23/0214Z TN10/0305Z"
    },
    {
      "icao": "LEXJ",
      "alert": "OK",
      "vis_m": 9999,
      "fzfg": false,
      "metar_trigger": false,
      "taf_trigger": false,
      "metar": "METAR LEXJ 021700Z 34007KT 300V020 9999 BKN018 BKN028 13/09 Q1026",
      "taf": "TAF LEXJ 021400Z 0215/0315 31009KT 9999 SCT020 BKN050 TX17/0313Z TN09/0303Z"
    },
    {
      "icao": "LEZG",
      "alert": "OK",
      "vis_m": 9999,
      "fzfg": false,
      "metar_trigger": false,
      "taf_trigger": false,
      "metar": "METAR LEZG 021700Z 32023KT 290V350 9999 FEW050 14/03 Q1019 NOSIG",
      "taf": "TAF LEZG 021100Z 0212/0312 32020KT 9999 SCT050 TX18/0214Z TN08/0305Z"
    },
    {
      "icao": "LEZL",
      "alert": "OK",
      "vis_m": 9999,
      "fzfg": false,
      "metar_trigger": false,
      "taf_trigger": false,
      "metar": "METAR LEZL 021700Z 27007KT 230V320 CAVOK 27/03 Q1016 NOSIG",
      "taf": "TAF LEZL 021400Z 0215/0315 05008KT CAVOK TX26/0215Z TN10/0307Z"
    },
    {
      "icao": "LFBD",
      "alert": "OK",
      "vis_m": 9999,
      "fzfg": false,
      "metar_trigger": false,
      "taf_trigger": false,
      "metar": "METAR LFBD 021700Z AUTO 31012KT 9999 FEW026 OVC064 14/08 Q1022 NOSIG",
      "taf": "TAF LFBD 021100Z 0212/0318 35010KT CAVOK TX18/0314Z TN07/0305Z"
    },
    {
      "icao": "LFLL",
      "alert": "OK",
      "vis_m": 9999,
      "fzfg": false,
      "metar_trigger": false,
      "taf_trigger": false,
      "metar": "METAR LFLL 021700Z 36021KT CAVOK 13/M00 Q1015 NOSIG",
      "taf": "TAF LFLL 021100Z 0212/0318 35020KT CAVOK"
    },
    {
      "icao": "LFLS",
      "alert": "OK",
      "vis_m": 9999,
      "fzfg": false,
      "metar_trigger": false,
      "taf_trigger": false,
      "metar": "METAR LFLS 021700Z AUTO 34017KT CAVOK 12/00 Q1014 TEMPO 36017G27KT",
      "taf": "TAF LFLS 021400Z 0215/0315 36017G27KT 9999 BKN045"
    },
    {
      "icao": "LFMN",
      "alert": "OK",
      "vis_m": 9999,
      "fzfg": false,
      "metar_trigger": false,
      "taf_trigger": false,
      "metar": "METAR LFMN 021700Z 21007KT CAVOK 15/05 Q1006 NOSIG",
      "taf": "TAF LFMN 021400Z 0215/0321 19007KT CAVOK"
    },
    {
      "icao": "LFOB",
      "alert": "OK",
      "vis_m": 9999,
      "fzfg": false,
      "metar_trigger": false,
      "taf_trigger": false,
      "metar": "METAR LFOB 021700Z AUTO 35007KT 320V020 9999 OVC038 10/07 Q1020 NOSIG",
      "taf": "TAF LFOB 021100Z 0212/0312 VRB04KT 9999 BKN035"
    },
    {
      "icao": "LFPO",
      "alert": "OK",
      "vis_m": 9999,
      "fzfg": false,
      "metar_trigger": false,
      "taf_trigger": false,
      "metar": "METAR LFPO 021700Z 33006KT 300V360 9999 BKN036 BKN073 13/07 Q1019 NOSIG",
      "taf": "TAF LFPO 021100Z 0212/0318 33005KT 9999 BKN020"
    },
    {
      "icao": "LFSB",
      "alert": "OK",
      "vis_m": 9999,
      "fzfg": false,
      "metar_trigger": false,
      "taf_trigger": false,
      "metar": "METAR LFSB 021700Z AUTO 02005KT 9999 FEW017 13/M00 Q1016 NOSIG",
      "taf": "TAF LFSB 021130Z 0212/0312 35006KT 9999 FEW045"
    },
    {
      "icao": "LGAV",
      "alert": "OK",
      "vis_m": 9999,
      "fzfg": false,
      "metar_trigger": false,
      "taf_trigger": false,
      "metar": "METAR LGAV 021650Z 21018KT 9999 SCT017 SCT025 13/09 Q0997 NOSIG",
      "taf": "TAF LGAV 021100Z 0212/0312 22022KT 9999 SCT030 BKN070"
    },
    {
      "icao": "LGTS",
      "alert": "OK",
      "vis_m": 9999,
      "fzfg": false,
      "metar_trigger": false,
      "taf_trigger": false,
      "metar": "METAR LGTS 021650Z VRB02KT 9999 SCT025 11/11 Q0996 NOSIG",
      "taf": "TAF LGTS 021100Z 0212/0312 33015KT 9999 FEW010 BKN025"
    },
    {
      "icao": "LHBP",
      "alert": "OK",
      "vis_m": 9999,
      "fzfg": false,
      "metar_trigger": false,
      "taf_trigger": false,
      "metar": "METAR LHBP 021700Z 01006KT CAVOK 15/07 Q1004 NOSIG",
      "taf": "TAF LHBP 021115Z 0212/0312 04011KT CAVOK"
    },
    {
      "icao": "LHDC",
      "alert": "OK",
      "vis_m": 9999,
      "fzfg": false,
      "metar_trigger": false,
      "taf_trigger": false,
      "metar": "METAR LHDC 021645Z AUTO 02017KT CAVOK 16/06 Q1003 NOSIG",
      "taf": "TAF LHDC 021415Z 0215/0224 03011KT CAVOK"
    },
    {
      "icao": "LIBD",
      "alert": "OK",
      "vis_m": 7000,
      "fzfg": false,
      "metar_trigger": false,
      "taf_trigger": false,
      "metar": "METAR LIBD 021650Z 05004KT 010V070 7000 -RA FEW020 BKN045 11/10 Q0996",
      "taf": "TAF LIBD 021100Z 0212/0312 03012KT 7000 RA BKN030"
    },
    {
      "icao": "LIBG",
      "alert": "OK",
      "vis_m": 9999,
      "fzfg": false,
      "metar_trigger": false,
      "taf_trigger": false,
      "metar": "METAR LIBG 021650Z 04013KT 9999 -RA FEW010 SCT040 11/11 Q0994",
      "taf": "TAF LIBG 021400Z 0215/0224 04012KT 7000 RA BKN030"
    },
    {
      "icao": "LIBP",
      "alert": "OK",
      "vis_m": 9999,
      "fzfg": false,
      "metar_trigger": false,
      "taf_trigger": false,
      "metar": "METAR LIBP 021650Z AUTO 33009KT 9999 -RA OVC030/// 10/08 Q1002",
      "taf": "TAF LIBP 021100Z 0212/0312 32013KT 7000 RA OVC030"
    },
    {
      "icao": "LIBR",
      "alert": "OK",
      "vis_m": 9999,
      "fzfg": false,
      "metar_trigger": false,
      "taf_trigger": false,
      "metar": "METAR LIBR 021650Z 06010KT 9999 SCT010 12/10 Q0995",
      "taf": "TAF LIBR 021100Z 0212/0312 11014KT 6000 RA OVC030"
    },
    {
      "icao": "LICA",
      "alert": "OK",
      "vis_m": 9999,
      "fzfg": false,
      "metar_trigger": false,
      "taf_trigger": false,
      "metar": "METAR LICA 021650Z AUTO 27013KT 9999 -RA OVC064/// 12/10 Q0994",
      "taf": "TAF LICA 021100Z 0212/0312 27012KT 9999 BKN040"
    },
    {
      "icao": "LICC",
      "alert": "OK",
      "vis_m": 9999,
      "fzfg": false,
      "metar_trigger": false,
      "taf_trigger": false,
      "metar": "METAR LICC 021650Z 07007KT 9999 SCT020 SCT060 BKN110 14/11 Q0995",
      "taf": "TAF LICC 021100Z 0212/0312 06010KT 9999 SCT030"
    },
    {
      "icao": "LICJ",
      "alert": "OK",
      "vis_m": 9999,
      "fzfg": false,
      "metar_trigger": false,
      "taf_trigger": false,
      "metar": "METAR LICJ 021650Z 33016KT 9999 -RA FEW010 SCT035 13/09 Q0999",
      "taf": "TAF LICJ 021100Z 0212/0312 34013KT 6000 RA BKN025"
    },
    {
      "icao": "LIMC",
      "alert": "OK",
      "vis_m": 9999,
      "fzfg": false,
      "metar_trigger": false,
      "taf_trigger": false,
      "metar": "METAR LIMC 021650Z 22007KT 160V240 CAVOK 17/M02 Q1005 NOSIG",
      "taf": "TAF LIMC 021100Z 0212/0318 21008KT CAVOK"
    },
    {
      "icao": "LIME",
      "alert": "OK",
      "vis_m": 9999,
      "fzfg": false,
      "metar_trigger": false,
      "taf_trigger": false,
      "metar": "METAR LIME 021650Z 18004KT 160V220 CAVOK 15/M01 Q1005 NOSIG",
      "taf": "TAF LIME 021100Z 0212/0312 23010KT CAVOK"
    },
    {
      "icao": "LIMF",
      "alert": "OK",
      "vis_m": 9999,
      "fzfg": false,
      "metar_trigger": false,
      "taf_trigger": false,
      "metar": "METAR LIMF 021650Z VRB01KT CAVOK 18/M04 Q1006",
      "taf": "TAF LIMF 021100Z 0212/0312 VRB05KT CAVOK"
    },
    {
      "icao": "LIMJ",
      "alert": "OK",
      "vis_m": 9999,
      "fzfg": false,
      "metar_trigger": false,
      "taf_trigger": false,
      "metar": "METAR LIMJ 021650Z 20006KT CAVOK 17/08 Q1004",
      "taf": "TAF LIMJ 021100Z 0212/0312 01012KT CAVOK"
    },
    {
      "icao": "LIPE",
      "alert": "OK",
      "vis_m": 9999,
      "fzfg": false,
      "metar_trigger": false,
      "taf_trigger": false,
      "metar": "METAR LIPE 021650Z 01004KT CAVOK 14/01 Q1005",
      "taf": "TAF LIPE 021100Z 0212/0312 05012KT 9999 SCT060"
    },
    {
      "icao": "LIPH",
      "alert": "OK",
      "vis_m": 9999,
      "fzfg": false,
      "metar_trigger": false,
      "taf_trigger": false,
      "metar": "METAR LIPH 021650Z 22005KT CAVOK 15/05 Q1005",
      "taf": "TAF LIPH 021100Z 0212/0312 VRB05KT 9999 FEW060"
    },
    {
      "icao": "LIPQ",
      "alert": "OK",
      "vis_m": 9999,
      "fzfg": false,
      "metar_trigger": false,
      "taf_trigger": false,
      "metar": "METAR LIPQ 021650Z AUTO 08011KT 9999 FEW170/// BKN210/// 17/00 Q1004",
      "taf": "TAF LIPQ 021100Z 0212/0312 08015KT 9999 FEW060"
    },
    {
      "icao": "LIPR",
      "alert": "OK",
      "vis_m": 9999,
      "fzfg": false,
      "metar_trigger": false,
      "taf_trigger": false,
      "metar": "METAR LIPR 021650Z 29004KT 9999 FEW060 11/05 Q1005",
      "taf": "TAF LIPR 021100Z 0212/0312 02013KT 9999 SCT050"
    },
    {
      "icao": "LIPX",
      "alert": "OK",
      "vis_m": 9999,
      "fzfg": false,
      "metar_trigger": false,
      "taf_trigger": false,
      "metar": "METAR LIPX 021650Z 23004KT CAVOK 16/02 Q1005",
      "taf": "TAF LIPX 021100Z 0212/0312 VRB05KT CAVOK"
    },
    {
      "icao": "LIPY",
      "alert": "OK",
      "vis_m": 9999,
      "fzfg": false,
      "metar_trigger": false,
      "taf_trigger": false,
      "metar": "METAR LIPY 021650Z AUTO 03013KT 9999 FEW096/// BKN190/// 12/07 Q1003",
      "taf": "TAF LIPY 021100Z 0212/0312 02014KT 9999 BKN060"
    },
    {
      "icao": "LIPZ",
      "alert": "OK",
      "vis_m": 9999,
      "fzfg": false,
      "metar_trigger": false,
      "taf_trigger": false,
      "metar": "METAR LIPZ 021650Z 25006KT CAVOK 14/04 Q1005 NOSIG",
      "taf": "TAF LIPZ 021100Z 0212/0318 VRB05KT CAVOK"
    },
    {
      "icao": "LIRF",
      "alert": "OK",
      "vis_m": 9999,
      "fzfg": false,
      "metar_trigger": false,
      "taf_trigger": false,
      "metar": "METAR LIRF 021650Z 01015KT CAVOK 13/05 Q1000 NOSIG",
      "taf": "TAF LIRF 021100Z 0212/0318 02016KT CAVOK"
    },
    {
      "icao": "LIRN",
      "alert": "OK",
      "vis_m": 9999,
      "fzfg": false,
      "metar_trigger": false,
      "taf_trigger": false,
      "metar": "METAR LIRN 021650Z AUTO 02011KT 310V030 9999 OVC071/// 13/05 Q0998",
      "taf": "TAF LIRN 021100Z 0212/0312 03014KT 9999 BKN050"
    },
    {
      "icao": "LIRP",
      "alert": "OK",
      "vis_m": 9999,
      "fzfg": false,
      "metar_trigger": false,
      "taf_trigger": false,
      "metar": "METAR LIRP 021645Z VRB02KT CAVOK 14/04 Q1004 NOSIG",
      "taf": "TAF LIRP 021100Z 0212/0312 06011KT 9999 SCT080"
    },
    {
      "icao": "LIRZ",
      "alert": "OK",
      "vis_m": 9999,
      "fzfg": false,
      "metar_trigger": false,
      "taf_trigger": false,
      "metar": "METAR LIRZ 021650Z AUTO 02012KT 9999 BKN038/// 11/04 Q1003",
      "taf": ""
    },
    {
      "icao": "LJLJ",
      "alert": "OK",
      "vis_m": 9999,
      "fzfg": false,
      "metar_trigger": false,
      "taf_trigger": false,
      "metar": "METAR LJLJ 021700Z 32005KT 9999 FEW055 BKN200 11/01 Q1006 NOSIG",
      "taf": "TAF LJLJ 021700Z 0218/0318 32006KT 9999 FEW055"
    },
    {
      "icao": "LKMT",
      "alert": "OK",
      "vis_m": 9999,
      "fzfg": false,
      "metar_trigger": false,
      "taf_trigger": false,
      "metar": "METAR LKMT 021700Z 01006KT CAVOK 10/M00 Q1011 NOSIG",
      "taf": "TAF LKMT 021100Z 0212/0312 02010KT CAVOK"
    },
    {
      "icao": "LKPR",
      "alert": "OK",
      "vis_m": 9999,
      "fzfg": false,
      "metar_trigger": false,
      "taf_trigger": false,
      "metar": "METAR LKPR 021700Z 35005KT CAVOK 10/M02 Q1013 NOSIG",
      "taf": "TAF LKPR 021400Z 0215/0321 34006KT CAVOK"
    },
    {
      "icao": "LLBG",
      "alert": "OK",
      "vis_m": 4000,
      "fzfg": false,
      "metar_trigger": false,
      "taf_trigger": false,
      "metar": "METAR LLBG 021650Z 27006KT 4000 HZ SCT015 BKN025 19/17 Q1011 TEMPO 3000 BKN013",
      "taf": "TAF LLBG 021102Z 0212/0312 28012KT 8000 SCT040 TX22/0212Z TN16/0303Z"
    },
    {
      "icao": "LMML",
      "alert": "OK",
      "vis_m": 9999,
      "fzfg": false,
      "metar_trigger": false,
      "taf_trigger": false,
      "metar": "METAR LMML 021645Z COR 27022KT 9999 VCSH FEW018 BKN045 13/10 Q0999 NOSIG",
      "taf": "TAF LMML 021700Z 0218/0318 28020G30KT 9999 FEW020 SCT045"
    },
    {
      "icao": "LOWW",
      "alert": "OK",
      "vis_m": 9999,
      "fzfg": false,
      "metar_trigger": false,
      "taf_trigger": false,
      "metar": "METAR LOWW 021650Z 30020KT CAVOK 09/02 Q1010 NOSIG",
      "taf": "TAF LOWW 021415Z 0215/0321 33015G25KT 9999 BKN040 TX15/0313Z TN06/0304Z"
    },
    {
      "icao": "LPFR",
      "alert": "OK",
      "vis_m": 9999,
      "fzfg": false,
      "metar_trigger": false,
      "taf_trigger": false,
      "metar": "METAR LPFR 021700Z 24005KT 190V270 CAVOK 20/15 Q1018",
      "taf": "TAF LPFR 021100Z 0212/0312 22010KT CAVOK"
    },
    {
      "icao": "LPMA",
      "alert": "OK",
      "vis_m": 9999,
      "fzfg": false,
      "metar_trigger": false,
      "taf_trigger": false,
      "metar": "METAR LPMA 021700Z 02014KT 9999 FEW016 21/08 Q1022",
      "taf": "TAF LPMA 021100Z 0212/0312 01015KT 9999 SCT015"
    },
    {
      "icao": "LPPR",
      "alert": "OK",
      "vis_m": 9999,
      "fzfg": false,
      "metar_trigger": false,
      "taf_trigger": false,
      "metar": "METAR LPPR 021700Z 34010KT CAVOK 19/10 Q1021",
      "taf": "TAF LPPR 021100Z 0212/0312 32012KT CAVOK"
    },
    {
      "icao": "LPPS",
      "alert": "OK",
      "vis_m": 9999,
      "fzfg": false,
      "metar_trigger": false,
      "taf_trigger": false,
      "metar": "METAR LPPS 021700Z 02014KT 9999 FEW014 18/14 Q1023",
      "taf": "TAF LPPS 021100Z 0212/0318 03013KT 9999 SCT013"
    },
    {
      "icao": "LPPT",
      "alert": "OK",
      "vis_m": 9999,
      "fzfg": false,
      "metar_trigger": false,
      "taf_trigger": false,
      "metar": "METAR LPPT 021700Z 33015KT CAVOK 19/06 Q1020",
      "taf": "TAF LPPT 021100Z 0212/0318 34007KT CAVOK"
    },
    {
      "icao": "LQBK",
      "alert": "OK",
      "vis_m": 9999,
      "fzfg": false,
      "metar_trigger": false,
      "taf_trigger": false,
      "metar": "METAR LQBK 021700Z 30010KT 9999 BKN040 10/03 Q1004 NOSIG",
      "taf": "TAF LQBK 021700Z 0218/0318 29007KT 9999 SCT030 BKN045 TX12/0313Z TN06/0305Z"
    },
    {
      "icao": "LQSA",
      "alert": "OK",
      "vis_m": 8000,
      "fzfg": false,
      "metar_trigger": false,
      "taf_trigger": false,
      "metar": "METAR LQSA 021700Z 32004KT 8000 -RA BKN013 OVC030 05/04 Q1002 NOSIG",
      "taf": "TAF LQSA 021700Z 0218/0318 30008KT 9999 -RA SCT018 BKN030 TX07/0313Z TN04/0305Z"
    },
    {
      "icao": "LQTZ",
      "alert": "OK",
      "vis_m": 250,
      "fzfg": false,
      "metar_trigger": false,
      "taf_trigger": false,
      "metar": "METAR LQTZ 021700Z 00000KT 0250 R09/0325N FG OVC005 04/04 Q1003",
      "taf": "TAF LQTZ 021700Z 0218/0318 29005KT 3000 RA BR BKN012 OVC020 TX06/0313Z TN03/0305Z"
    },
    {
      "icao": "LRBC",
      "alert": "OK",
      "vis_m": 9000,
      "fzfg": false,
      "metar_trigger": false,
      "taf_trigger": false,
      "metar": "METAR LRBC 021700Z 34007KT 9000 OVC017 10/08 Q1004",
      "taf": "TAF LRBC 021400Z 0215/0224 36008KT 6000 OVC010"
    },
    {
      "icao": "LRBS",
      "alert": "OK",
      "vis_m": 3300,
      "fzfg": false,
      "metar_trigger": false,
      "taf_trigger": false,
      "metar": "METAR LRBS 021700Z 06014KT 3300 -DZ BR BKN004 OVC013 09/08 Q1001 NOSIG",
      "taf": ""
    },
    {
      "icao": "LRBV",
      "alert": "OK",
      "vis_m": 4900,
      "fzfg": false,
      "metar_trigger": false,
      "taf_trigger": false,
      "metar": "METAR LRBV 021700Z 07010KT 4900 -RA BR SCT024 OVC041 07/06 Q1003",
      "taf": "TAF LRBV 021400Z 0215/0224 08010KT 7000 -RA SCT015 BKN045"
    },
    {
      "icao": "LRCL",
      "alert": "OK",
      "vis_m": 9999,
      "fzfg": false,
      "metar_trigger": false,
      "taf_trigger": false,
      "metar": "METAR LRCL 021700Z 06001KT 9999 BKN057 12/06 Q1003",
      "taf": "TAF LRCL 021400Z 0215/0224 VRB04KT 9999 SCT060"
    },
    {
      "icao": "LRCV",
      "alert": "OK",
      "vis_m": 5000,
      "fzfg": false,
      "metar_trigger": false,
      "taf_trigger": false,
      "metar": "METAR LRCV 021700Z 07014KT 5000 -RA BR OVC007 08/08 Q1000",
      "taf": "TAF LRCV 021400Z 0215/0224 09015KT 9999 SCT010 BKN035"
    },
    {
      "icao": "LRIA",
      "alert": "OK",
      "vis_m": 9999,
      "fzfg": false,
      "metar_trigger": false,
      "taf_trigger": false,
      "metar": "METAR LRIA 021700Z 27005KT 230V300 9999 FEW030 BKN040 11/09 Q1004",
      "taf": "TAF LRIA 021400Z 0215/0224 32006KT 9999 SCT010 OVC020"
    },
    {
      "icao": "LROP",
      "alert": "OK",
      "vis_m": 3000,
      "fzfg": false,
      "metar_trigger": false,
      "taf_trigger": false,
      "metar": "METAR LROP 021700Z 07018KT 3000 -DZ BR OVC006 09/09 Q1002 NOSIG",
      "taf": ""
    },
    {
      "icao": "LRSB",
      "alert": "OK",
      "vis_m": 4000,
      "fzfg": false,
      "metar_trigger": false,
      "taf_trigger": false,
      "metar": "METAR LRSB 021700Z 26003KT 220V280 4000 -RADZ BR SCT020 OVC045 08/07 Q1002",
      "taf": "TAF LRSB 021100Z 0212/0312 VRB04KT 9999 BKN020"
    },
    {
      "icao": "LRSM",
      "alert": "OK",
      "vis_m": 9999,
      "fzfg": false,
      "metar_trigger": false,
      "taf_trigger": false,
      "metar": "METAR LRSM 021700Z 05013KT CAVOK 15/05 Q1003",
      "taf": "TAF LRSM 021400Z 0215/0224 06015KT CAVOK"
    },
    {
      "icao": "LRSV",
      "alert": "OK",
      "vis_m": 8000,
      "fzfg": false,
      "metar_trigger": false,
      "taf_trigger": false,
      "metar": "METAR LRSV 021700Z 31011KT 8000 BKN038 10/08 Q1005",
      "taf": "TAF LRSV 021400Z 0215/0224 32012KT 9999 SCT025 BKN045"
    },
    {
      "icao": "LRTM",
      "alert": "OK",
      "vis_m": 9999,
      "fzfg": false,
      "metar_trigger": false,
      "taf_trigger": false,
      "metar": "METAR LRTM 021700Z VRB02KT 9999 BKN044 11/09 Q1002",
      "taf": "TAF LRTM 021400Z 0215/0224 VRB04KT 9999 SCT045"
    },
    {
      "icao": "LRTR",
      "alert": "OK",
      "vis_m": 9999,
      "fzfg": false,
      "metar_trigger": false,
      "taf_trigger": false,
      "metar": "METAR LRTR 021700Z 11007KT CAVOK 13/07 Q1001",
      "taf": "TAF LRTR 021100Z 0212/0312 06010KT CAVOK"
    },
    {
      "icao": "LTAC",
      "alert": "OK",
      "vis_m": 9999,
      "fzfg": false,
      "metar_trigger": false,
      "taf_trigger": false,
      "metar": "METAR LTAC 021650Z 06007KT 9999 SCT040 SCT100 14/10 Q1002 NOSIG RMK RWY21C 07008KT 040V110 RWY03L 05008KT RWY21R 04007KT 010V070 RWY03R 12004KT RWY21L 10009KT",
      "taf": "TAF LTAC 021640Z 0218/0318 VRB02KT 9999 SCT040 SCT100"
    },
    {
      "icao": "LTFM",
      "alert": "OK",
      "vis_m": 3500,
      "fzfg": false,
      "metar_trigger": false,
      "taf_trigger": false,
      "metar": "METAR LTFM 021650Z 31010KT 260V320 3500 1100NW R35R/P1500N R17L/P1500N R34L/P1500N R36/P1500N BCFG FEW002 BKN028 11/09 Q1000 NOSIG RMK RWY17L 30012KT 200V310 RWY34L 30013KT RWY16R 30011KT RWY36 27006KT 230V330 RWY18 30011KT 260V320",
      "taf": "TAF LTFM 021640Z 0218/0324 22008KT 9999 SCT035 BKN100"
    },
    {
      "icao": "LUKK",
      "alert": "OK",
      "vis_m": 9999,
      "fzfg": false,
      "metar_trigger": false,
      "taf_trigger": false,
      "metar": "METAR LUKK 021700Z 14002KT CAVOK 13/11 Q1003 NOSIG",
      "taf": "TAF LUKK 021703Z 0218/0318 VRB04KT 9999 BKN020"
    },
    {
      "icao": "LWOH",
      "alert": "OK",
      "vis_m": 9999,
      "fzfg": false,
      "metar_trigger": false,
      "taf_trigger": false,
      "metar": "METAR LWOH 021650Z 32003KT 9999 -RA FEW020 OVC040 07/05 Q0996",
      "taf": "TAF LWOH 021430Z 0215/0315 30008KT 9999 RA SCT025 OVC035"
    },
    {
      "icao": "LWSK",
      "alert": "OK",
      "vis_m": 9999,
      "fzfg": false,
      "metar_trigger": false,
      "taf_trigger": false,
      "metar": "METAR LWSK 021650Z VRB04KT 9999 -RA BKN035 OVC070 08/07 Q0997 NOSIG",
      "taf": "TAF LWSK 021430Z 0215/0315 33010KT 9999 -RA BKN035 OVC070"
    },
    {
      "icao": "LYBE",
      "alert": "OK",
      "vis_m": 6000,
      "fzfg": false,
      "metar_trigger": false,
      "taf_trigger": false,
      "metar": "METAR LYBE 021700Z 20008KT 6000 -RA FEW005 BKN034 08/07 Q1002 NOSIG",
      "taf": "TAF LYBE 021100Z 0212/0312 28008KT 9999 BKN022 TX11/0312Z TN06/0306Z"
    },
    {
      "icao": "LYNI",
      "alert": "OK",
      "vis_m": 9999,
      "fzfg": false,
      "metar_trigger": false,
      "taf_trigger": false,
      "metar": "METAR LYNI 021700Z 32011KT 9999 -RA FEW013 SCT020 BKN040 08/08 Q0999 NOSIG",
      "taf": "TAF LYNI 021100Z 0212/0312 34008KT 9999 SCT017 BKN043 OVC080 TX11/0312Z TN07/0305Z"
    },
    {
      "icao": "LYPG",
      "alert": "OK",
      "vis_m": 9999,
      "fzfg": false,
      "metar_trigger": false,
      "taf_trigger": false,
      "metar": "METAR LYPG 021700Z 01011KT 9999 FEW034 OVC080 14/02 Q0996 NOSIG",
      "taf": "TAF LYPG 021100Z 0212/0312 36015KT 9999 FEW040 BKN080 TX15/0213Z TN07/0304Z"
    },
    {
      "icao": "LZIB",
      "alert": "OK",
      "vis_m": 9999,
      "fzfg": false,
      "metar_trigger": false,
      "taf_trigger": false,
      "metar": "METAR LZIB 021700Z 32017KT CAVOK 12/02 Q1008 NOSIG",
      "taf": ""
    },
    {
      "icao": "LZKZ",
      "alert": "OK",
      "vis_m": 9999,
      "fzfg": false,
      "metar_trigger": false,
      "taf_trigger": false,
      "metar": "METAR LZKZ 021700Z 36018KT CAVOK 11/04 Q1007 NOSIG",
      "taf": ""
    },
    {
      "icao": "LZTT",
      "alert": "OK",
      "vis_m": 9999,
      "fzfg": false,
      "metar_trigger": false,
      "taf_trigger": false,
      "metar": "METAR LZTT 021700Z 14006KT 9999 FEW020 BKN033 05/04 Q1009 NOSIG",
      "taf": ""
    },
    {
      "icao": "OEJN",
      "alert": "OK",
      "vis_m": 9999,
      "fzfg": false,
      "metar_trigger": false,
      "taf_trigger": false,
      "metar": "METAR OEJN 021700Z 19004KT CAVOK 31/16 Q1007 NOSIG",
      "taf": "TAF OEJN 021700Z 0218/0324 VRB03KT 7000 NSC"
    },
    {
      "icao": "OEMA",
      "alert": "OK",
      "vis_m": 9999,
      "fzfg": false,
      "metar_trigger": false,
      "taf_trigger": false,
      "metar": "METAR OEMA 021700Z 26007KT CAVOK 35/04 Q1012 NOSIG",
      "taf": "TAF OEMA 021700Z 0218/0324 VRB03KT 9999 SCT045"
    },
    {
      "icao": "OJAI",
      "alert": "OK",
      "vis_m": 2500,
      "fzfg": false,
      "metar_trigger": false,
      "taf_trigger": false,
      "metar": "METAR OJAI 021700Z 28003KT 2500 BR NSC 17/16 Q1013 NOSIG",
      "taf": "TAF OJAI 021100Z 0212/0318 20012KT 5000 HZ NSC"
    },
    {
      "icao": "OMAA",
      "alert": "OK",
      "vis_m": null,
      "fzfg": false,
      "metar_trigger": false,
      "taf_trigger": false,
      "metar": "",
      "taf": ""
    },
    {
      "icao": "OMDB",
      "alert": "OK",
      "vis_m": null,
      "fzfg": false,
      "metar_trigger": false,
      "taf_trigger": false,
      "metar": "",
      "taf": ""
    },
    {
      "icao": "UAAA",
      "alert": "OK",
      "vis_m": 5000,
      "fzfg": false,
      "metar_trigger": false,
      "taf_trigger": false,
      "metar": "METAR UAAA 021700Z 18002MPS 5000 FU SCT200 15/04 Q1012 NOSIG",
      "taf": "TAF UAAA 021101Z 0212/0312 20002G07MPS 9999 FEW050 SCT100 TX26/0310Z TN09/0301Z"
    },
    {
      "icao": "UBBB",
      "alert": "OK",
      "vis_m": 9999,
      "fzfg": false,
      "metar_trigger": false,
      "taf_trigger": false,
      "metar": "METAR UBBB 021700Z 17010KT CAVOK 13/11 Q1010 NOSIG",
      "taf": "TAF UBBB 021700Z 0218/0318 15008KT 9999 SCT030 TX17/0310Z TN08/0301Z"
    },
    {
      "icao": "UDSG",
      "alert": "OK",
      "vis_m": 9999,
      "fzfg": false,
      "metar_trigger": false,
      "taf_trigger": false,
      "metar": "METAR UDSG 021700Z 33003KT 9999 -SHRA BKN026CB 05/05 Q1014 NOSIG",
      "taf": "TAF UDSG 021058Z 0212/0312 21006KT 9999 SCT050"
    },
    {
      "icao": "UDYZ",
      "alert": "OK",
      "vis_m": 9999,
      "fzfg": false,
      "metar_trigger": false,
      "taf_trigger": false,
      "metar": "METAR UDYZ 021700Z 34005KT 9999 -SHRA OVC043CB 11/08 Q1013 NOSIG",
      "taf": "TAF UDYZ 021100Z 0212/0312 20006KT 9999 FEW040"
    },
    {
      "icao": "UGKO",
      "alert": "OK",
      "vis_m": 9999,
      "fzfg": false,
      "metar_trigger": false,
      "taf_trigger": false,
      "metar": "METAR UGKO 021700Z 13008KT 100V180 9999 SCT088 21/05 Q1004 NOSIG",
      "taf": "TAF UGKO 021700Z 0218/0318 08010KT CAVOK TX25/0311Z TN13/0303Z"
    }
  ]
}