{
  "ts_utc": "2026-02-12T07:41:36Z",
  "threshold_m": 150,
  "source": "stations_override.txt (ICAO list) + aviationweather.gov (METAR/TAF raw)",
  "station_count": 159,
  "stations": [
    {
      "icao": "BIKF",
      "alert": "OK",
      "vis_m": 9999,
      "fzfg": false,
      "metar_trigger": false,
      "taf_trigger": false,
      "metar": "METAR BIKF 120730Z 02014KT CAVOK M05/M10 Q1006",
      "taf": "TAF BIKF 120459Z 1206/1306 07007KT CAVOK TXM04/1218Z TNM07/1209Z"
    },
    {
      "icao": "BKPR",
      "alert": "OK",
      "vis_m": 9999,
      "fzfg": false,
      "metar_trigger": false,
      "taf_trigger": false,
      "metar": "METAR BKPR 120730Z 16004KT 9999 SCT010 BKN030 06/06 Q0994 NOSIG",
      "taf": "TAF BKPR 120530Z 1206/1306 18010KT 9999 SCT020 BKN050"
    },
    {
      "icao": "EBCI",
      "alert": "OK",
      "vis_m": 4000,
      "fzfg": false,
      "metar_trigger": false,
      "taf_trigger": false,
      "metar": "METAR EBCI 120720Z 31009KT 280V350 4000 BR BKN003 BKN004 07/06 Q0978 BECMG 6000 NSW",
      "taf": "TAF EBCI 120510Z 1206/1312 27009KT 7000 -RA SCT007 BKN012"
    },
    {
      "icao": "EDDB",
      "alert": "OK",
      "vis_m": 1400,
      "fzfg": false,
      "metar_trigger": false,
      "taf_trigger": false,
      "metar": "METAR EDDB 120720Z AUTO 12003KT 1400 0450 R24R/P2000N R24L/P2000N BCFG FEW002 SCT046 05/05 Q0980 BECMG 4000 BR",
      "taf": "TAF EDDB 120500Z 1206/1306 16004KT 0400 FG VV002"
    },
    {
      "icao": "EDDH",
      "alert": "OK",
      "vis_m": 4500,
      "fzfg": false,
      "metar_trigger": false,
      "taf_trigger": false,
      "metar": "METAR EDDH 120720Z AUTO 08007KT 4500 BR OVC003 02/01 Q0978 NOSIG",
      "taf": "TAF EDDH 120500Z 1206/1312 08008KT 4000 BR OVC003"
    },
    {
      "icao": "EDDK",
      "alert": "OK",
      "vis_m": 9999,
      "fzfg": false,
      "metar_trigger": false,
      "taf_trigger": false,
      "metar": "METAR EDDK 120720Z AUTO 19006KT 9999 -SHRA FEW006 BKN026 OVC034 FEW///TCU 09/08 Q0975 RESHRA TEMPO 4000 RA BKN012",
      "taf": "TAF EDDK 120500Z 1206/1312 15009KT 9999 BKN020"
    },
    {
      "icao": "EDDN",
      "alert": "OK",
      "vis_m": 9999,
      "fzfg": false,
      "metar_trigger": false,
      "taf_trigger": false,
      "metar": "METAR EDDN 120720Z AUTO 15007KT 9999 BKN043 06/04 Q0980 NOSIG",
      "taf": "TAF EDDN 120500Z 1206/1306 14009KT 9999 FEW014 BKN020"
    },
    {
      "icao": "EDDS",
      "alert": "OK",
      "vis_m": 9999,
      "fzfg": false,
      "metar_trigger": false,
      "taf_trigger": false,
      "metar": "METAR EDDS 120720Z AUTO 19006KT 9999 BKN035 BKN044 07/05 Q0979 NOSIG",
      "taf": "TAF EDDS 120500Z 1206/1306 18006KT 9999 BKN030"
    },
    {
      "icao": "EDFH",
      "alert": "OK",
      "vis_m": 9999,
      "fzfg": false,
      "metar_trigger": false,
      "taf_trigger": false,
      "metar": "METAR EDFH 120720Z 20016KT 9999 SCT010 BKN026 07/06 Q0976",
      "taf": "TAF EDFH 120500Z 1206/1306 20012KT 9999 BKN015"
    },
    {
      "icao": "EDJA",
      "alert": "OK",
      "vis_m": 9999,
      "fzfg": false,
      "metar_trigger": false,
      "taf_trigger": false,
      "metar": "METAR EDJA 120720Z 20007KT 9999 FEW038 SCT061 04/02 Q0981",
      "taf": "TAF EDJA 120500Z 1206/1215 20006KT 9999 BKN030"
    },
    {
      "icao": "EDLW",
      "alert": "OK",
      "vis_m": 9999,
      "fzfg": false,
      "metar_trigger": false,
      "taf_trigger": false,
      "metar": "METAR EDLW 120720Z 15003KT 110V210 9999 SCT013 OVC016 08/07 Q0973",
      "taf": "TAF EDLW 120500Z 1206/1306 12006KT 9999 BKN020"
    },
    {
      "icao": "EDNY",
      "alert": "OK",
      "vis_m": 9999,
      "fzfg": false,
      "metar_trigger": false,
      "taf_trigger": false,
      "metar": "METAR EDNY 120720Z VRB01KT 9999 SCT048 BKN057 05/04 Q0982",
      "taf": "TAF EDNY 120500Z 1206/1215 VRB02KT 9999 BKN035"
    },
    {
      "icao": "EDSB",
      "alert": "OK",
      "vis_m": 9000,
      "fzfg": false,
      "metar_trigger": false,
      "taf_trigger": false,
      "metar": "METAR EDSB 120720Z COR 22010KT 9000 -SHRA FEW019 OVC028 09/08 Q0979 RESHRA",
      "taf": "TAF EDSB 120500Z 1206/1306 21012KT 9999 BKN035"
    },
    {
      "icao": "EETN",
      "alert": "OK",
      "vis_m": 9999,
      "fzfg": false,
      "metar_trigger": false,
      "taf_trigger": false,
      "metar": "METAR EETN 120720Z 09007KT CAVOK M09/M12 Q0992 NOSIG",
      "taf": "TAF EETN 120530Z 1206/1306 09008KT 9999 BKN045"
    },
    {
      "icao": "EFTU",
      "alert": "OK",
      "vis_m": 9999,
      "fzfg": false,
      "metar_trigger": false,
      "taf_trigger": false,
      "metar": "METAR EFTU 120720Z AUTO 05006KT 010V080 9999 OVC011 M11/M14 Q0993",
      "taf": ""
    },
    {
      "icao": "EGBB",
      "alert": "OK",
      "vis_m": 9999,
      "fzfg": false,
      "metar_trigger": false,
      "taf_trigger": false,
      "metar": "METAR EGBB 120720Z 26005KT 9999 BKN016 05/05 Q0980",
      "taf": "TAF EGBB 120502Z 1206/1306 28006KT 9999 FEW020"
    },
    {
      "icao": "EGGP",
      "alert": "OK",
      "vis_m": 9999,
      "fzfg": false,
      "metar_trigger": false,
      "taf_trigger": false,
      "metar": "METAR EGGP 120720Z 04007KT 9999 SCT026 OVC041 05/04 Q0981",
      "taf": ""
    },
    {
      "icao": "EGGW",
      "alert": "OK",
      "vis_m": 9999,
      "fzfg": false,
      "metar_trigger": false,
      "taf_trigger": false,
      "metar": "METAR EGGW 120720Z AUTO 26010KT 9999 NCD 06/05 Q0980",
      "taf": "TAF EGGW 120453Z 1206/1306 27004KT 9999 SCT020"
    },
    {
      "icao": "EGKK",
      "alert": "OK",
      "vis_m": 9000,
      "fzfg": false,
      "metar_trigger": false,
      "taf_trigger": false,
      "metar": "METAR EGKK 120720Z COR 23004KT 9000 FEW034 07/06 Q0981",
      "taf": "TAF EGKK 120455Z 1206/1312 VRB03KT 9999 SCT030"
    },
    {
      "icao": "EGNM",
      "alert": "OK",
      "vis_m": 8000,
      "fzfg": false,
      "metar_trigger": false,
      "taf_trigger": false,
      "metar": "METAR EGNM 120720Z 01016KT 8000 -DZ OVC003 03/02 Q0981",
      "taf": "TAF EGNM 120454Z 1206/1306 36015KT 9999 FEW004 BKN010"
    },
    {
      "icao": "EGPD",
      "alert": "OK",
      "vis_m": 9999,
      "fzfg": false,
      "metar_trigger": false,
      "taf_trigger": false,
      "metar": "METAR EGPD 120720Z COR AUTO 03007KT 9999 SCT024 OVC030 02/M01 Q0989 NOSIG",
      "taf": ""
    },
    {
      "icao": "EGPF",
      "alert": "OK",
      "vis_m": 9999,
      "fzfg": false,
      "metar_trigger": false,
      "taf_trigger": false,
      "metar": "METAR EGPF 120720Z AUTO 06010KT 9999 BKN018 03/00 Q0987",
      "taf": "TAF EGPF 120458Z 1206/1306 07013KT 9999 BKN025"
    },
    {
      "icao": "EHBK",
      "alert": "OK",
      "vis_m": 5000,
      "fzfg": false,
      "metar_trigger": false,
      "taf_trigger": false,
      "metar": "METAR EHBK 120725Z AUTO 26006KT 220V290 5000 -SHRA BKN001 OVC002 09/09 Q0975 TEMPO 1200",
      "taf": "TAF EHBK 120505Z 1206/1312 21008KT 6000 -RADZ BKN018"
    },
    {
      "icao": "EHEH",
      "alert": "OK",
      "vis_m": 5000,
      "fzfg": false,
      "metar_trigger": false,
      "taf_trigger": false,
      "metar": "METAR EHEH 120725Z AUTO 33009KT 270V020 5000 BR SCT003 OVC004 08/07 Q0975 YLO TEMPO 3000 RADZ SCT002 BKN004 RMK TREND REMOTE BY EHWX",
      "taf": ""
    },
    {
      "icao": "EKBI",
      "alert": "OK",
      "vis_m": 3200,
      "fzfg": false,
      "metar_trigger": false,
      "taf_trigger": false,
      "metar": "METAR EKBI 120720Z 06015KT 3200 -SN DRSN OVC008 M01/M02 Q0984",
      "taf": "TAF EKBI 120527Z 1206/1306 08015KT 1200 SN BKN005"
    },
    {
      "icao": "EKCH",
      "alert": "OK",
      "vis_m": 9999,
      "fzfg": false,
      "metar_trigger": false,
      "taf_trigger": false,
      "metar": "METAR EKCH 120720Z 07014KT 9999 BKN009 00/M01 Q0985 TEMPO BKN011",
      "taf": "TAF EKCH 120527Z 1206/1306 07015KT 8000 BKN015"
    },
    {
      "icao": "ENAL",
      "alert": "OK",
      "vis_m": 9999,
      "fzfg": false,
      "metar_trigger": false,
      "taf_trigger": false,
      "metar": "METAR ENAL 120720Z 15009KT 9999 FEW025 SCT048 M02/M09 Q0991",
      "taf": "TAF ENAL 120500Z 1206/1215 17008KT 9999 FEW020 BKN040"
    },
    {
      "icao": "ENBR",
      "alert": "OK",
      "vis_m": 9999,
      "fzfg": false,
      "metar_trigger": false,
      "taf_trigger": false,
      "metar": "METAR ENBR 120720Z VRB02KT 9999 SCT040 M04/M10 Q0991 NOSIG RMK WIND 1200FT 13004KT",
      "taf": "TAF ENBR 120500Z 1206/1306 VRB03KT 9999 FEW020 BKN040"
    },
    {
      "icao": "ENGM",
      "alert": "OK",
      "vis_m": 9999,
      "fzfg": false,
      "metar_trigger": false,
      "taf_trigger": false,
      "metar": "METAR ENGM 120720Z 35004KT 9999 BKN040 M12/M16 Q0993 NOSIG",
      "taf": "TAF ENGM 120500Z 1206/1306 01006KT 9999 BKN040"
    },
    {
      "icao": "ENHD",
      "alert": "OK",
      "vis_m": 9999,
      "fzfg": false,
      "metar_trigger": false,
      "taf_trigger": false,
      "metar": "METAR ENHD 120720Z 09004KT 060V120 9999 FEW048 M03/M10 Q0991",
      "taf": "TAF ENHD 120500Z 1206/1215 11008KT 9999 FEW025 BKN040"
    },
    {
      "icao": "ENTC",
      "alert": "OK",
      "vis_m": 9999,
      "fzfg": false,
      "metar_trigger": false,
      "taf_trigger": false,
      "metar": "METAR ENTC 120720Z 21010KT 9999 -SHSN SCT017 BKN021 M08/M11 Q0994 NOSIG RMK WIND 2600FT 30012KT",
      "taf": "TAF ENTC 120500Z 1206/1306 21008KT 9999 SCT050"
    },
    {
      "icao": "ENTO",
      "alert": "OK",
      "vis_m": 9999,
      "fzfg": false,
      "metar_trigger": false,
      "taf_trigger": false,
      "metar": "METAR ENTO 120650Z 03005KT 9999 BKN040 M08/M13 Q0993 NOSIG",
      "taf": "TAF ENTO 120500Z 1206/1306 04008KT 9999 FEW015 BKN040"
    },
    {
      "icao": "ENVA",
      "alert": "OK",
      "vis_m": 9999,
      "fzfg": false,
      "metar_trigger": false,
      "taf_trigger": false,
      "metar": "METAR ENVA 120720Z 08008KT CAVOK M11/M17 Q0994 NOSIG RMK WIND 670FT 14017KT",
      "taf": "TAF ENVA 120500Z 1206/1306 12008KT CAVOK"
    },
    {
      "icao": "ENZV",
      "alert": "OK",
      "vis_m": 9999,
      "fzfg": false,
      "metar_trigger": false,
      "taf_trigger": false,
      "metar": "METAR ENZV 120720Z 11004KT CAVOK M04/M10 Q0991 NOSIG",
      "taf": "TAF ENZV 120500Z 1206/1306 10005KT 9999 FEW020 BKN040"
    },
    {
      "icao": "EPGD",
      "alert": "OK",
      "vis_m": 400,
      "fzfg": true,
      "metar_trigger": false,
      "taf_trigger": false,
      "metar": "METAR EPGD 120730Z 07007KT 050V110 0400 R29/0550N -SN FZFG VV000 M00/M00 Q0983",
      "taf": "TAF EPGD 120530Z 1206/1306 07008KT 0800 FG OVC002"
    },
    {
      "icao": "EPKK",
      "alert": "OK",
      "vis_m": 9999,
      "fzfg": false,
      "metar_trigger": false,
      "taf_trigger": false,
      "metar": "METAR EPKK 120730Z 23005KT 9999 BKN049 06/04 Q0985",
      "taf": "TAF EPKK 120530Z 1206/1306 24004KT 9999 BKN025"
    },
    {
      "icao": "EPKT",
      "alert": "OK",
      "vis_m": 9999,
      "fzfg": false,
      "metar_trigger": false,
      "taf_trigger": false,
      "metar": "METAR EPKT 120730Z 21010KT 9999 FEW007 BKN031 06/05 Q0984",
      "taf": "TAF EPKT 120530Z 1206/1306 22012KT 9999 OVC025"
    },
    {
      "icao": "EPLB",
      "alert": "OK",
      "vis_m": 9999,
      "fzfg": false,
      "metar_trigger": false,
      "taf_trigger": false,
      "metar": "METAR EPLB 120730Z 21008KT 9999 -RA OVC018 03/03 Q0985",
      "taf": "TAF EPLB 120530Z 1206/1306 21008KT 9999 -RA OVC018"
    },
    {
      "icao": "EPMO",
      "alert": "OK",
      "vis_m": 1600,
      "fzfg": false,
      "metar_trigger": false,
      "taf_trigger": false,
      "metar": "METAR EPMO 120730Z 14005KT 1600 BR OVC004 02/02 Q0983",
      "taf": "TAF EPMO 120530Z 1206/1306 09003KT 2000 BR OVC005"
    },
    {
      "icao": "EPPO",
      "alert": "OK",
      "vis_m": 550,
      "fzfg": false,
      "metar_trigger": false,
      "taf_trigger": false,
      "metar": "METAR EPPO 120730Z 12005KT 0550 R28/1000D -RA FG VV002 03/02 Q0982",
      "taf": ""
    },
    {
      "icao": "EPRA",
      "alert": "OK",
      "vis_m": 4000,
      "fzfg": false,
      "metar_trigger": false,
      "taf_trigger": false,
      "metar": "METAR EPRA 120730Z 19007KT 4000 BR OVC012 03/02 Q0984",
      "taf": ""
    },
    {
      "icao": "EPRZ",
      "alert": "OK",
      "vis_m": 9999,
      "fzfg": false,
      "metar_trigger": false,
      "taf_trigger": false,
      "metar": "METAR EPRZ 120730Z 20010KT 9999 -RA BKN033 06/04 Q0986",
      "taf": "TAF EPRZ 120530Z 1206/1306 20012KT 9999 BKN035"
    },
    {
      "icao": "EPSC",
      "alert": "OK",
      "vis_m": 1700,
      "fzfg": false,
      "metar_trigger": false,
      "taf_trigger": false,
      "metar": "METAR EPSC 120730Z 06006KT 1700 BR SCT003 SCT009 BKN013 02/02 Q0981",
      "taf": "TAF EPSC 120530Z 1206/1306 07007KT 2300 -RA BR OVC002"
    },
    {
      "icao": "EPSY",
      "alert": "OK",
      "vis_m": 1800,
      "fzfg": false,
      "metar_trigger": false,
      "taf_trigger": false,
      "metar": "METAR EPSY 120730Z VRB01KT 1800 BR BKN019 BKN033 01/01 Q0983",
      "taf": "TAF EPSY 120530Z 1206/1215 VRB02KT 5000 BR BKN030"
    },
    {
      "icao": "EPWA",
      "alert": "OK",
      "vis_m": 1500,
      "fzfg": false,
      "metar_trigger": false,
      "taf_trigger": false,
      "metar": "METAR EPWA 120730Z 17003KT 1500 BR OVC002 02/02 Q0984 TEMPO 1000 BR",
      "taf": "TAF EPWA 120530Z 1206/1306 14005KT 6000 BKN010"
    },
    {
      "icao": "EPWR",
      "alert": "OK",
      "vis_m": 9999,
      "fzfg": false,
      "metar_trigger": false,
      "taf_trigger": false,
      "metar": "METAR EPWR 120730Z 19004KT 9999 SCT029 BKN032 07/05 Q0982",
      "taf": "TAF EPWR 120530Z 1206/1306 18006KT 9999 SCT005 BKN019"
    },
    {
      "icao": "ESGG",
      "alert": "OK",
      "vis_m": 9999,
      "fzfg": false,
      "metar_trigger": false,
      "taf_trigger": false,
      "metar": "METAR ESGG 120720Z 04012KT 9999 BKN009 OVC027 M05/M07 Q0989",
      "taf": "TAF ESGG 120530Z 1206/1306 04011KT 9999 BKN035"
    },
    {
      "icao": "ESKN",
      "alert": "OK",
      "vis_m": 9999,
      "fzfg": false,
      "metar_trigger": false,
      "taf_trigger": false,
      "metar": "METAR ESKN 120720Z 36005KT 330V040 9999 -SN SCT023 BKN037 M07/M09 Q0992 RESG",
      "taf": "TAF ESKN 120530Z 1206/1306 01005KT 9999 -SN BKN020"
    },
    {
      "icao": "ESMS",
      "alert": "OK",
      "vis_m": 9000,
      "fzfg": false,
      "metar_trigger": false,
      "taf_trigger": false,
      "metar": "METAR ESMS 120720Z 07016KT 9000 OVC006 M00/M01 Q0984",
      "taf": "TAF ESMS 120527Z 1206/1306 07015KT 6000 OVC015"
    },
    {
      "icao": "ESSA",
      "alert": "OK",
      "vis_m": 9999,
      "fzfg": false,
      "metar_trigger": false,
      "taf_trigger": false,
      "metar": "METAR ESSA 120720Z 34005KT CAVOK M09/M11 Q0993 NOSIG",
      "taf": "TAF ESSA 120530Z 1206/1306 34005KT CAVOK"
    },
    {
      "icao": "EYKA",
      "alert": "OK",
      "vis_m": 1600,
      "fzfg": false,
      "metar_trigger": false,
      "taf_trigger": false,
      "metar": "METAR EYKA 120720Z 07003KT 1600 R08/1400N -FZDZ BR OVC003 M00/M00 Q0986",
      "taf": "TAF EYKA 120500Z 1206/1306 VRB04KT 3000 SNRA BR OVC005"
    },
    {
      "icao": "EYPA",
      "alert": "OK",
      "vis_m": 4300,
      "fzfg": false,
      "metar_trigger": false,
      "taf_trigger": false,
      "metar": "METAR EYPA 120720Z 06008KT 020V080 4300 BR OVC005 M05/M07 Q0987",
      "taf": ""
    },
    {
      "icao": "EYVI",
      "alert": "OK",
      "vis_m": 3800,
      "fzfg": false,
      "metar_trigger": false,
      "taf_trigger": false,
      "metar": "METAR EYVI 120720Z 16004KT 3800 -SN BR OVC004 M01/M01 Q0985 TEMPO 1500 SN BR",
      "taf": "TAF EYVI 120500Z 1206/1306 VRB04KT 5000 SN BR BKN005"
    },
    {
      "icao": "GCFV",
      "alert": "OK",
      "vis_m": 9999,
      "fzfg": false,
      "metar_trigger": false,
      "taf_trigger": false,
      "metar": "METAR GCFV 120730Z 05010KT 9999 OVC011 18/15 Q1024",
      "taf": "TAF GCFV 120200Z 1203/1303 05012KT 9999 BKN016 TX22/1214Z TN17/1206Z"
    },
    {
      "icao": "GCLP",
      "alert": "OK",
      "vis_m": 9999,
      "fzfg": false,
      "metar_trigger": false,
      "taf_trigger": false,
      "metar": "METAR GCLP 120730Z 02013KT 9999 BKN020 18/15 Q1024 NOSIG",
      "taf": "TAF GCLP 120200Z 1203/1303 02014KT 9999 SCT015 TX23/1214Z TN17/1206Z"
    },
    {
      "icao": "GCTS",
      "alert": "OK",
      "vis_m": 9999,
      "fzfg": false,
      "metar_trigger": false,
      "taf_trigger": false,
      "metar": "METAR GCTS 120730Z VRB03KT 9999 FEW015 17/14 Q1024 NOSIG",
      "taf": "TAF GCTS 120200Z 1203/1303 04009KT 9999 FEW020 TX25/1214Z TN17/1206Z"
    },
    {
      "icao": "GMAD",
      "alert": "OK",
      "vis_m": 2000,
      "fzfg": false,
      "metar_trigger": false,
      "taf_trigger": false,
      "metar": "METAR GMAD 120730Z 08004KT 600 R27/0900N FG OVC001 14/14 Q1022 BECMG 2000 BR OVC010",
      "taf": "TAF GMAD 120500Z 1206/1312 07004KT 3000 BR OVC004"
    },
    {
      "icao": "GMMN",
      "alert": "OK",
      "vis_m": 5000,
      "fzfg": false,
      "metar_trigger": false,
      "taf_trigger": false,
      "metar": "METAR GMMN 120730Z 31003KT 5000 2000N BR FEW010 SCT016 10/09 Q1025 NOSIG",
      "taf": "TAF GMMN 120500Z 1206/1312 18007KT 8000 SCT016"
    },
    {
      "icao": "GMMX",
      "alert": "OK",
      "vis_m": 2000,
      "fzfg": false,
      "metar_trigger": false,
      "taf_trigger": false,
      "metar": "METAR GMMX 120730Z 07005KT 040V110 2000 BR OVC003 14/14 Q1024 TEMPO 0600 FG",
      "taf": "TAF GMMX 120500Z 1206/1312 06006KT 0800 FG OVC004"
    },
    {
      "icao": "HEGN",
      "alert": "OK",
      "vis_m": 9999,
      "fzfg": false,
      "metar_trigger": false,
      "taf_trigger": false,
      "metar": "SPECI HEGN 120735Z 33006KT CAVOK 23/01 Q1018 NOSIG",
      "taf": "TAF HEGN 120500Z 1206/1312 25008KT 6000 NSC"
    },
    {
      "icao": "HEMA",
      "alert": "OK",
      "vis_m": 9999,
      "fzfg": false,
      "metar_trigger": false,
      "taf_trigger": false,
      "metar": "METAR HEMA 120700Z 29010KT CAVOK 21/07 Q1017 NOSIG",
      "taf": "TAF HEMA 120500Z 1206/1312 26008KT CAVOK"
    },
    {
      "icao": "HESH",
      "alert": "OK",
      "vis_m": 9999,
      "fzfg": false,
      "metar_trigger": false,
      "taf_trigger": false,
      "metar": "METAR HESH 120700Z 33006KT CAVOK 22/05 Q1017 NOSIG",
      "taf": "TAF HESH 120500Z 1206/1312 29008KT 6000 NSC"
    },
    {
      "icao": "HESX",
      "alert": "OK",
      "vis_m": 9999,
      "fzfg": false,
      "metar_trigger": false,
      "taf_trigger": false,
      "metar": "METAR HESX 120700Z 18008KT CAVOK 19/02 Q1016 NOSIG",
      "taf": "TAF HESX 120500Z 1206/1312 20010KT 7000 NSC"
    },
    {
      "icao": "LATI",
      "alert": "OK",
      "vis_m": 9999,
      "fzfg": false,
      "metar_trigger": false,
      "taf_trigger": false,
      "metar": "METAR LATI 120720Z 17005KT 9999 FEW070 11/08 Q0994 NOSIG",
      "taf": "TAF LATI 120500Z 1206/1306 VRB05KT 9999 SCT035 BKN070 TX15/1212Z TN09/1304Z"
    },
    {
      "icao": "LBPD",
      "alert": "OK",
      "vis_m": 9999,
      "fzfg": false,
      "metar_trigger": false,
      "taf_trigger": false,
      "metar": "METAR LBPD 120730Z AUTO 29006KT 9999 -RA FEW008/// SCT014/// OVC016/// 03/03 Q0997 NOSIG",
      "taf": "TAF LBPD 120500Z 1206/1306 VRB04KT 9999 BKN010"
    },
    {
      "icao": "LBSF",
      "alert": "OK",
      "vis_m": 8000,
      "fzfg": false,
      "metar_trigger": false,
      "taf_trigger": false,
      "metar": "METAR LBSF 120730Z VRB02KT 8000 NSC 02/M01 Q0995 NOSIG",
      "taf": "TAF LBSF 120500Z 1206/1306 VRB04KT 9999 BKN070"
    },
    {
      "icao": "LBWN",
      "alert": "OK",
      "vis_m": 7000,
      "fzfg": false,
      "metar_trigger": false,
      "taf_trigger": false,
      "metar": "METAR LBWN 120730Z 11006KT 7000 FEW047 09/08 Q0997 NOSIG",
      "taf": "TAF LBWN 120500Z 1206/1306 09008KT 9999 SCT020 BKN050"
    },
    {
      "icao": "LCLK",
      "alert": "OK",
      "vis_m": 9999,
      "fzfg": false,
      "metar_trigger": false,
      "taf_trigger": false,
      "metar": "METAR LCLK 120730Z 22011KT 9999 FEW020 SCT060 18/15 Q1011 NOSIG",
      "taf": "TAF LCLK 120530Z 1206/1306 23010KT 9999 FEW030"
    },
    {
      "icao": "LCPH",
      "alert": "OK",
      "vis_m": 9999,
      "fzfg": false,
      "metar_trigger": false,
      "taf_trigger": false,
      "metar": "METAR LCPH 120730Z 14007KT 090V160 9999 FEW030 BKN050 BKN080 19/14 Q1010 NOSIG",
      "taf": "TAF LCPH 120530Z 1206/1306 23009KT 9999 FEW025 SCT035"
    },
    {
      "icao": "LEAL",
      "alert": "OK",
      "vis_m": 9999,
      "fzfg": false,
      "metar_trigger": false,
      "taf_trigger": false,
      "metar": "METAR LEAL 120730Z 29022KT 260V320 CAVOK 18/03 Q1012 NOSIG",
      "taf": "TAF LEAL 120500Z 1206/1306 27015KT 9999 FEW030 TX23/1213Z TN12/1206Z"
    },
    {
      "icao": "LEBB",
      "alert": "OK",
      "vis_m": 9999,
      "fzfg": false,
      "metar_trigger": false,
      "taf_trigger": false,
      "metar": "METAR LEBB 120730Z 28015G30KT 240V320 9999 FEW055 13/04 Q1009 NOSIG",
      "taf": ""
    },
    {
      "icao": "LEBL",
      "alert": "OK",
      "vis_m": 9999,
      "fzfg": false,
      "metar_trigger": false,
      "taf_trigger": false,
      "metar": "METAR LEBL 120730Z 28033G51KT 250V310 9999 FEW020 16/01 Q0998 NOSIG",
      "taf": ""
    },
    {
      "icao": "LECH",
      "alert": "OK",
      "vis_m": 9000,
      "fzfg": false,
      "metar_trigger": false,
      "taf_trigger": false,
      "metar": "METAR LECH 120730Z AUTO 27018KT 240V300 9000 NCD 13/M01 Q1009",
      "taf": ""
    },
    {
      "icao": "LEMD",
      "alert": "OK",
      "vis_m": 9999,
      "fzfg": false,
      "metar_trigger": false,
      "taf_trigger": false,
      "metar": "METAR LEMD 120730Z 28008KT CAVOK 08/01 Q1015 NOSIG",
      "taf": ""
    },
    {
      "icao": "LEMG",
      "alert": "OK",
      "vis_m": 9999,
      "fzfg": false,
      "metar_trigger": false,
      "taf_trigger": false,
      "metar": "METAR LEMG 120730Z 29006KT 250V320 9999 FEW040 SCT050 16/12 Q1020 NOSIG",
      "taf": "TAF LEMG 120500Z 1206/1306 VRB03KT 9999 SCT050 TX23/1214Z TN11/1207Z"
    },
    {
      "icao": "LEVC",
      "alert": "OK",
      "vis_m": 9999,
      "fzfg": false,
      "metar_trigger": false,
      "taf_trigger": false,
      "metar": "METAR LEVC 120730Z 27019KT CAVOK 15/05 Q1012 NOSIG",
      "taf": "TAF LEVC 120500Z 1206/1306 27015KT 9999 FEW045 TX21/1214Z TN15/1206Z"
    },
    {
      "icao": "LEXJ",
      "alert": "OK",
      "vis_m": 9999,
      "fzfg": false,
      "metar_trigger": false,
      "taf_trigger": false,
      "metar": "METAR LEXJ 120730Z 29018G28KT 260V320 9999 FEW030 BKN060 13/04 Q1009",
      "taf": "TAF LEXJ 120200Z 1203/1303 27015KT 9999 FEW050 TX16/1213Z TN10/1207Z"
    },
    {
      "icao": "LEZG",
      "alert": "OK",
      "vis_m": 9999,
      "fzfg": false,
      "metar_trigger": false,
      "taf_trigger": false,
      "metar": "METAR LEZG 120730Z 30007KT 260V330 CAVOK 10/03 Q1008 NOSIG",
      "taf": "TAF LEZG 120500Z 1206/1306 27015KT 9999 FEW050 TX17/1212Z TN10/1206Z"
    },
    {
      "icao": "LEZL",
      "alert": "OK",
      "vis_m": 9999,
      "fzfg": false,
      "metar_trigger": false,
      "taf_trigger": false,
      "metar": "METAR LEZL 120730Z 23007KT 9999 FEW020 14/14 Q1021 NOSIG",
      "taf": "TAF LEZL 120200Z 1203/1303 26005KT 9999 SCT030 TX20/1215Z TN13/1207Z"
    },
    {
      "icao": "LFBD",
      "alert": "OK",
      "vis_m": 9999,
      "fzfg": false,
      "metar_trigger": false,
      "taf_trigger": false,
      "metar": "METAR LFBD 120730Z AUTO 28023G36KT 9999 BKN036 BKN049 OVC180 12/07 Q1001 TEMPO 27030G50KT 1400 TSRA BKN014 BKN025CB",
      "taf": ""
    },
    {
      "icao": "LFLL",
      "alert": "OK",
      "vis_m": 9999,
      "fzfg": false,
      "metar_trigger": false,
      "taf_trigger": false,
      "metar": "METAR LFLL 120730Z 26007KT 9999 FEW030TCU BKN033 10/07 Q0989 TEMPO 29015G25KT 4000 SHRA BKN035TCU",
      "taf": "TAF LFLL 120500Z 1206/1312 27012KT 9999 BKN040"
    },
    {
      "icao": "LFLS",
      "alert": "OK",
      "vis_m": 9999,
      "fzfg": false,
      "metar_trigger": false,
      "taf_trigger": false,
      "metar": "METAR LFLS 120730Z AUTO 24012KT 9999 -RA BKN033/// BKN049/// BKN056/// ///TCU 09/06 Q0990 TEMPO 26015G25KT RA BECMG FEW025 OVC045",
      "taf": "TAF LFLS 120200Z 1203/1303 20012KT 9999 FEW025 OVC045"
    },
    {
      "icao": "LFMN",
      "alert": "OK",
      "vis_m": 9999,
      "fzfg": false,
      "metar_trigger": false,
      "taf_trigger": false,
      "metar": "METAR LFMN 120730Z 34004KT 280V080 9999 FEW066 BKN230 13/06 Q0985 WS ALL RWY TEMPO 26025KT",
      "taf": ""
    },
    {
      "icao": "LFOB",
      "alert": "OK",
      "vis_m": 9999,
      "fzfg": false,
      "metar_trigger": false,
      "taf_trigger": false,
      "metar": "METAR LFOB 120730Z AUTO 27012KT 9999 SCT012/// BKN018/// BKN023/// ///TCU 09/08 Q0983 TEMPO 28020G35KT 3000 SHRA BKN009",
      "taf": "TAF LFOB 120500Z 1206/1306 28015G25KT 9999 BKN020"
    },
    {
      "icao": "LFPO",
      "alert": "OK",
      "vis_m": 9999,
      "fzfg": false,
      "metar_trigger": false,
      "taf_trigger": false,
      "metar": "METAR LFPO 120730Z 27012KT 9999 BKN016 BKN033 09/07 Q0985 TEMPO 20015G35KT",
      "taf": ""
    },
    {
      "icao": "LFSB",
      "alert": "OK",
      "vis_m": 9999,
      "fzfg": false,
      "metar_trigger": false,
      "taf_trigger": false,
      "metar": "METAR LFSB 120730Z AUTO 10003KT 9999 FEW048/// BKN056/// OVC070/// ///CB 09/06 Q0981 TEMPO SHRA BECMG 24020G30KT",
      "taf": "TAF LFSB 120500Z 1206/1306 22010KT 9999 OVC045"
    },
    {
      "icao": "LGAV",
      "alert": "OK",
      "vis_m": 9999,
      "fzfg": false,
      "metar_trigger": false,
      "taf_trigger": false,
      "metar": "METAR LGAV 120720Z 26008KT 9999 SCT025 14/09 Q0996 NOSIG",
      "taf": "TAF LGAV 120500Z 1206/1306 21015KT 9999 SCT025 SCT070"
    },
    {
      "icao": "LGTS",
      "alert": "OK",
      "vis_m": 9999,
      "fzfg": false,
      "metar_trigger": false,
      "taf_trigger": false,
      "metar": "METAR LGTS 120720Z 30011KT 9999 FEW008 BKN030 BKN050 11/11 Q0994 NOSIG",
      "taf": "TAF LGTS 120500Z 1206/1306 34013KT 9999 FEW010 BKN030"
    },
    {
      "icao": "LHBP",
      "alert": "OK",
      "vis_m": 4000,
      "fzfg": false,
      "metar_trigger": false,
      "taf_trigger": false,
      "metar": "METAR LHBP 120730Z 11004KT 4000 BCFG BR FEW035 BKN043 05/05 Q0989 BECMG 9999 NSW",
      "taf": "TAF LHBP 120515Z 1206/1306 14005KT 9999 BKN030 BKN080"
    },
    {
      "icao": "LHDC",
      "alert": "OK",
      "vis_m": 9999,
      "fzfg": false,
      "metar_trigger": false,
      "taf_trigger": false,
      "metar": "METAR LHDC 120715Z AUTO 18008KT 9999 OVC041 07/05 Q0991 NOSIG",
      "taf": "TAF LHDC 120515Z 1206/1215 18011KT 9999 SCT020 BKN080"
    },
    {
      "icao": "LIBD",
      "alert": "OK",
      "vis_m": 9999,
      "fzfg": false,
      "metar_trigger": false,
      "taf_trigger": false,
      "metar": "METAR LIBD 120720Z 20005KT CAVOK 10/08 Q0992",
      "taf": "TAF LIBD 120500Z 1206/1306 21006KT 9999 FEW040"
    },
    {
      "icao": "LIBG",
      "alert": "OK",
      "vis_m": 9999,
      "fzfg": false,
      "metar_trigger": false,
      "taf_trigger": false,
      "metar": "SPECI LIBG 120651Z 02003KT 360V090 CAVOK 07/07 Q0994",
      "taf": "TAF LIBG 120712Z 1208/1215 VRB04KT CAVOK"
    },
    {
      "icao": "LIBP",
      "alert": "OK",
      "vis_m": 9999,
      "fzfg": false,
      "metar_trigger": false,
      "taf_trigger": false,
      "metar": "METAR LIBP 120720Z AUTO VRB02KT 9999 RA OVC060/// 11/08 Q0989",
      "taf": "TAF LIBP 120500Z 1206/1306 24008KT 9999 FEW060"
    },
    {
      "icao": "LIBR",
      "alert": "OK",
      "vis_m": 9999,
      "fzfg": false,
      "metar_trigger": false,
      "taf_trigger": false,
      "metar": "METAR LIBR 120720Z 20006KT 9999 SCT045 11/08 Q0994",
      "taf": "TAF LIBR 120500Z 1206/1306 23006KT 9999 SCT030"
    },
    {
      "icao": "LICA",
      "alert": "OK",
      "vis_m": 9000,
      "fzfg": false,
      "metar_trigger": false,
      "taf_trigger": false,
      "metar": "METAR LICA 120720Z AUTO 26010KT 9000 -RA FEW036/// BKN067/// 15/13 Q0996",
      "taf": "TAF LICA 120500Z 1206/1306 26016KT 9999 BKN020"
    },
    {
      "icao": "LICC",
      "alert": "OK",
      "vis_m": 7000,
      "fzfg": false,
      "metar_trigger": false,
      "taf_trigger": false,
      "metar": "METAR LICC 120720Z 28009KT 7000 -RA FEW015 BKN045 13/10 Q0998",
      "taf": "TAF LICC 120500Z 1206/1306 26016KT 9999 SCT030"
    },
    {
      "icao": "LICJ",
      "alert": "OK",
      "vis_m": 9999,
      "fzfg": false,
      "metar_trigger": false,
      "taf_trigger": false,
      "metar": "METAR LICJ 120720Z 22017KT 9999 -RA BKN025 16/14 Q0997",
      "taf": "TAF LICJ 120500Z 1206/1306 22018KT 9999 SCT020"
    },
    {
      "icao": "LIMC",
      "alert": "OK",
      "vis_m": 3000,
      "fzfg": false,
      "metar_trigger": false,
      "taf_trigger": false,
      "metar": "METAR LIMC 120720Z 02003KT 3000 BR OVC009 07/06 Q0987 NOSIG",
      "taf": "TAF LIMC 120500Z 1206/1312 VRB04KT 8000 SCT030"
    },
    {
      "icao": "LIME",
      "alert": "OK",
      "vis_m": 1500,
      "fzfg": false,
      "metar_trigger": false,
      "taf_trigger": false,
      "metar": "METAR LIME 120720Z 13004KT 110V170 1500 -DZ BR SCT003 OVC005 07/07 Q0987 NOSIG",
      "taf": ""
    },
    {
      "icao": "LIMF",
      "alert": "OK",
      "vis_m": 3500,
      "fzfg": false,
      "metar_trigger": false,
      "taf_trigger": false,
      "metar": "METAR LIMF 120720Z VRB01KT 3500 BR OVC015 06/05 Q0987",
      "taf": "TAF LIMF 120500Z 1206/1306 VRB05KT 9999 SCT020"
    },
    {
      "icao": "LIMJ",
      "alert": "OK",
      "vis_m": 9999,
      "fzfg": false,
      "metar_trigger": false,
      "taf_trigger": false,
      "metar": "METAR LIMJ 120720Z 04011KT 9999 FEW016 BKN034 11/07 Q0985",
      "taf": "TAF LIMJ 120500Z 1206/1306 03010KT 9999 SCT016"
    },
    {
      "icao": "LIPE",
      "alert": "OK",
      "vis_m": 400,
      "fzfg": false,
      "metar_trigger": false,
      "taf_trigger": false,
      "metar": "METAR LIPE 120720Z 25003KT 0400 R12/0900U R30/1000U -RA FG VV015 07/07 Q0987",
      "taf": "TAF LIPE 120500Z 1206/1306 VRB05KT 0300 FG BKN001"
    },
    {
      "icao": "LIPH",
      "alert": "OK",
      "vis_m": 800,
      "fzfg": false,
      "metar_trigger": false,
      "taf_trigger": false,
      "metar": "METAR LIPH 120720Z 02004KT 0800 R07/1600D -DZ FG SCT001 BKN002 08/08 Q0988",
      "taf": "TAF LIPH 120500Z 1206/1306 04006KT 3000 BR BKN050"
    },
    {
      "icao": "LIPQ",
      "alert": "OK",
      "vis_m": 1500,
      "fzfg": false,
      "metar_trigger": false,
      "taf_trigger": false,
      "metar": "METAR LIPQ 120720Z AUTO 01003KT 1500 -RA BR OVC005/// 09/09 Q0988",
      "taf": "TAF LIPQ 120500Z 1206/1306 VRB04KT 2000 BCFG BKN002"
    },
    {
      "icao": "LIPR",
      "alert": "OK",
      "vis_m": 9999,
      "fzfg": false,
      "metar_trigger": false,
      "taf_trigger": false,
      "metar": "METAR LIPR 120720Z 20010KT 9999 -RA BKN060 13/08 Q0987",
      "taf": "TAF LIPR 120500Z 1206/1306 16006KT 8000 BKN050"
    },
    {
      "icao": "LIPX",
      "alert": "OK",
      "vis_m": 3000,
      "fzfg": false,
      "metar_trigger": false,
      "taf_trigger": false,
      "metar": "METAR LIPX 120720Z 01003KT 3000 -DZ BR BKN025 BKN050 08/08 Q0987",
      "taf": "TAF LIPX 120500Z 1206/1306 07006KT 1500 BR BKN010"
    },
    {
      "icao": "LIPY",
      "alert": "OK",
      "vis_m": 9999,
      "fzfg": false,
      "metar_trigger": false,
      "taf_trigger": false,
      "metar": "METAR LIPY 120720Z AUTO 18005KT 9999 -RA OVC059/// 11/08 Q0988 RERA",
      "taf": "TAF LIPY 120500Z 1206/1306 16006KT 7000 BKN050"
    },
    {
      "icao": "LIPZ",
      "alert": "OK",
      "vis_m": 1500,
      "fzfg": false,
      "metar_trigger": false,
      "taf_trigger": false,
      "metar": "METAR LIPZ 120720Z 03006KT 1500 -RA BR OVC002 08/08 Q0987 NOSIG",
      "taf": "TAF LIPZ 120500Z 1206/1312 06006KT 6000 SCT050"
    },
    {
      "icao": "LIRF",
      "alert": "OK",
      "vis_m": 3000,
      "fzfg": false,
      "metar_trigger": false,
      "taf_trigger": false,
      "metar": "METAR LIRF 120720Z 14008KT 110V180 3000 SHRA SCT005 BKN015 12/12 Q0988 TEMPO TSRA",
      "taf": "TAF LIRF 120500Z 1206/1312 16008KT 9999 FEW020"
    },
    {
      "icao": "LIRN",
      "alert": "OK",
      "vis_m": 8000,
      "fzfg": false,
      "metar_trigger": false,
      "taf_trigger": false,
      "metar": "METAR LIRN 120720Z 20009KT 8000 -DZ FEW020 SCT050 13/10 Q0992 NOSIG",
      "taf": "TAF LIRN 120500Z 1206/1306 25012KT 9999 SCT020"
    },
    {
      "icao": "LIRP",
      "alert": "OK",
      "vis_m": 9999,
      "fzfg": false,
      "metar_trigger": false,
      "taf_trigger": false,
      "metar": "METAR LIRP 120715Z 24013KT 9999 FEW023 BKN040 13/12 Q0985 NOSIG",
      "taf": "TAF LIRP 120500Z 1206/1306 10005KT 9999 SCT030 BKN040"
    },
    {
      "icao": "LIRZ",
      "alert": "OK",
      "vis_m": 8000,
      "fzfg": false,
      "metar_trigger": false,
      "taf_trigger": false,
      "metar": "METAR LIRZ 120720Z AUTO 15007KT 8000 -RA OVC013/// 10/09 Q0989 RERA",
      "taf": "TAF LIRZ 120500Z 1206/1306 19008KT 9999 BKN030"
    },
    {
      "icao": "LJLJ",
      "alert": "OK",
      "vis_m": 2000,
      "fzfg": false,
      "metar_trigger": false,
      "taf_trigger": false,
      "metar": "METAR LJLJ 120730Z 23002KT 2000 BR SCT003 BKN033 05/05 Q0987 NOSIG",
      "taf": "TAF LJLJ 120500Z 1206/1306 VRB02KT 0300 FG VV002"
    },
    {
      "icao": "LKMT",
      "alert": "OK",
      "vis_m": 9999,
      "fzfg": false,
      "metar_trigger": false,
      "taf_trigger": false,
      "metar": "METAR LKMT 120730Z 23009KT 9999 BKN029 OVC038 07/05 Q0985 NOSIG",
      "taf": "TAF LKMT 120500Z 1206/1306 22010KT 9999 BKN022"
    },
    {
      "icao": "LKPR",
      "alert": "OK",
      "vis_m": 9999,
      "fzfg": false,
      "metar_trigger": false,
      "taf_trigger": false,
      "metar": "METAR LKPR 120730Z 17009KT CAVOK 05/04 Q0982 NOSIG",
      "taf": "TAF LKPR 120500Z 1206/1312 19008KT 9999 SCT030"
    },
    {
      "icao": "LLBG",
      "alert": "OK",
      "vis_m": 9999,
      "fzfg": false,
      "metar_trigger": false,
      "taf_trigger": false,
      "metar": "METAR LLBG 120720Z 18010KT CAVOK 20/07 Q1016 NOSIG",
      "taf": "TAF LLBG 120504Z 1206/1306 16007KT CAVOK"
    },
    {
      "icao": "LMML",
      "alert": "OK",
      "vis_m": 9999,
      "fzfg": false,
      "metar_trigger": false,
      "taf_trigger": false,
      "metar": "METAR LMML 120715Z 24016KT 9999 -RA BKN049 16/14 Q1002 TEMPO 9000 RA",
      "taf": "TAF LMML 120500Z 1206/1306 25015KT 9999 FEW020"
    },
    {
      "icao": "LOWW",
      "alert": "OK",
      "vis_m": 1800,
      "fzfg": false,
      "metar_trigger": false,
      "taf_trigger": false,
      "metar": "METAR LOWW 120720Z 14009KT 1800 1000N R11/P1500U R16/P1500D BR BKN001 04/04 Q0985 TEMPO 0900 BCFG BKN002",
      "taf": "TAF LOWW 120515Z 1206/1312 14010KT 7000 FEW005 TX11/1312Z TN03/1206Z"
    },
    {
      "icao": "LPFR",
      "alert": "OK",
      "vis_m": 4500,
      "fzfg": false,
      "metar_trigger": false,
      "taf_trigger": false,
      "metar": "METAR LPFR 120730Z 26007KT 4500 BR SCT003 BKN012 15/14 Q1022",
      "taf": "TAF LPFR 120500Z 1206/1306 28007KT 9999 SCT025"
    },
    {
      "icao": "LPMA",
      "alert": "OK",
      "vis_m": 9999,
      "fzfg": false,
      "metar_trigger": false,
      "taf_trigger": false,
      "metar": "METAR LPMA 120730Z 23007KT 9999 BKN014 17/11 Q1025",
      "taf": "TAF LPMA 120500Z 1206/1306 22008KT 9999 SCT015"
    },
    {
      "icao": "LPPR",
      "alert": "OK",
      "vis_m": 7000,
      "fzfg": false,
      "metar_trigger": false,
      "taf_trigger": false,
      "metar": "METAR LPPR 120730Z 24004KT 7000 FEW020 11/09 Q1018",
      "taf": "TAF LPPR 120500Z 1206/1306 26005KT 9999 SCT015 SCT035"
    },
    {
      "icao": "LPPS",
      "alert": "OK",
      "vis_m": 9999,
      "fzfg": false,
      "metar_trigger": false,
      "taf_trigger": false,
      "metar": "METAR LPPS 120730Z 26004KT 9999 FEW014 BKN030 14/11 Q1025",
      "taf": "TAF LPPS 120500Z 1206/1312 VRB05KT 9999 SCT015"
    },
    {
      "icao": "LPPT",
      "alert": "OK",
      "vis_m": 8000,
      "fzfg": false,
      "metar_trigger": false,
      "taf_trigger": false,
      "metar": "METAR LPPT 120730Z 25010KT 8000 FEW012 13/12 Q1020",
      "taf": "TAF LPPT 120500Z 1206/1312 25008KT 9999 SCT025"
    },
    {
      "icao": "LQBK",
      "alert": "OK",
      "vis_m": 9999,
      "fzfg": false,
      "metar_trigger": false,
      "taf_trigger": false,
      "metar": "METAR LQBK 120730Z 13005KT CAVOK 07/05 Q0989 NOSIG",
      "taf": "TAF LQBK 120500Z 1206/1306 15005KT 9999 SCT045 TX13/1213Z TN03/1206Z"
    },
    {
      "icao": "LQSA",
      "alert": "OK",
      "vis_m": 9999,
      "fzfg": false,
      "metar_trigger": false,
      "taf_trigger": false,
      "metar": "METAR LQSA 120730Z 11003KT 060V150 9999 FEW050 05/04 Q0991 NOSIG",
      "taf": "TAF LQSA 120500Z 1206/1306 11005KT 9999 SCT050 TX13/1213Z TN02/1206Z"
    },
    {
      "icao": "LQTZ",
      "alert": "OK",
      "vis_m": 9999,
      "fzfg": false,
      "metar_trigger": false,
      "taf_trigger": false,
      "metar": "METAR LQTZ 120730Z VRB02KT CAVOK 06/05 Q0990",
      "taf": "TAF LQTZ 120500Z 1206/1306 31005KT 9999 SCT060 TX17/1213Z TN00/1206Z"
    },
    {
      "icao": "LRBC",
      "alert": "CRITICAL",
      "vis_m": 100,
      "fzfg": true,
      "metar_trigger": true,
      "taf_trigger": false,
      "metar": "METAR LRBC 120730Z 17011KT 0100 R16/0450N FZFG VV002 M01/M01 Q0994",
      "taf": "TAF LRBC 120500Z 1206/1215 17010KT 0600 FZFG OVC001"
    },
    {
      "icao": "LRBS",
      "alert": "OK",
      "vis_m": 7000,
      "fzfg": false,
      "metar_trigger": false,
      "taf_trigger": false,
      "metar": "METAR LRBS 120730Z 24005KT 210V270 7000 NSC 02/01 Q0997 NOSIG",
      "taf": "TAF LRBS 120500Z 1206/1306 VRB04KT 3000 BR NSC"
    },
    {
      "icao": "LRBV",
      "alert": "OK",
      "vis_m": 9999,
      "fzfg": false,
      "metar_trigger": false,
      "taf_trigger": false,
      "metar": "METAR LRBV 120730Z VRB03KT CAVOK 00/M01 Q0993",
      "taf": "TAF LRBV 120500Z 1206/1215 VRB04KT CAVOK"
    },
    {
      "icao": "LRCL",
      "alert": "OK",
      "vis_m": 9999,
      "fzfg": false,
      "metar_trigger": false,
      "taf_trigger": false,
      "metar": "METAR LRCL 120730Z 02004KT 350V050 CAVOK 06/02 Q0992",
      "taf": "TAF LRCL 120500Z 1206/1215 VRB04KT CAVOK"
    },
    {
      "icao": "LRCV",
      "alert": "OK",
      "vis_m": 250,
      "fzfg": true,
      "metar_trigger": false,
      "taf_trigger": false,
      "metar": "METAR LRCV 120730Z 22003KT 0250 R26/0300N FZFG VV002 M01/M01 Q0996",
      "taf": "TAF LRCV 120500Z 1206/1215 VRB04KT 0150 FZFG VV001"
    },
    {
      "icao": "LRIA",
      "alert": "OK",
      "vis_m": 200,
      "fzfg": true,
      "metar_trigger": false,
      "taf_trigger": false,
      "metar": "METAR LRIA 120730Z 10011KT 0200 R14/0500D FG BKN001 01/00 Q0994",
      "taf": "TAF LRIA 120500Z 1206/1215 10008KT 0300 FZFG OVC001"
    },
    {
      "icao": "LROP",
      "alert": "OK",
      "vis_m": 4000,
      "fzfg": false,
      "metar_trigger": false,
      "taf_trigger": false,
      "metar": "METAR LROP 120730Z 24004KT 200V260 4000 BR NSC 02/02 Q0996 NOSIG",
      "taf": "TAF LROP 120500Z 1206/1306 VRB04KT 3000 BR NSC"
    },
    {
      "icao": "LRSB",
      "alert": "OK",
      "vis_m": 9999,
      "fzfg": false,
      "metar_trigger": false,
      "taf_trigger": false,
      "metar": "METAR LRSB 120730Z VRB02KT 9999 BKN080 06/02 Q0992 NOSIG",
      "taf": "TAF LRSB 120500Z 1206/1306 VRB04KT CAVOK"
    },
    {
      "icao": "LRSM",
      "alert": "OK",
      "vis_m": 9999,
      "fzfg": false,
      "metar_trigger": false,
      "taf_trigger": false,
      "metar": "METAR LRSM 120730Z 13003KT 9999 BKN040 08/05 Q0991",
      "taf": "TAF LRSM 120500Z 1206/1215 13008KT 9999 BKN030"
    },
    {
      "icao": "LRSV",
      "alert": "OK",
      "vis_m": 9999,
      "fzfg": false,
      "metar_trigger": false,
      "taf_trigger": false,
      "metar": "METAR LRSV 120730Z 22010KT CAVOK 03/01 Q0991",
      "taf": "TAF LRSV 120500Z 1206/1215 21006KT CAVOK"
    },
    {
      "icao": "LRTM",
      "alert": "OK",
      "vis_m": 9999,
      "fzfg": false,
      "metar_trigger": false,
      "taf_trigger": false,
      "metar": "METAR LRTM 120730Z 06004KT 9999 SCT039 FEW044CB 05/03 Q0993",
      "taf": "TAF LRTM 120500Z 1206/1215 VRB04KT CAVOK"
    },
    {
      "icao": "LRTR",
      "alert": "OK",
      "vis_m": 9999,
      "fzfg": false,
      "metar_trigger": false,
      "taf_trigger": false,
      "metar": "METAR LRTR 120730Z 10008KT CAVOK 07/05 Q0992",
      "taf": "TAF LRTR 120500Z 1206/1306 08006KT CAVOK"
    },
    {
      "icao": "LTAC",
      "alert": "OK",
      "vis_m": 6000,
      "fzfg": false,
      "metar_trigger": false,
      "taf_trigger": false,
      "metar": "METAR LTAC 120720Z VRB02KT 6000 SCT040 BKN100 03/02 Q1005 NOSIG RMK RWY21C VRB02KT RWY03L VRB02KT RWY21R 00000KT RWY03R VRB01KT RWY21L VRB01KT",
      "taf": "TAF LTAC 120440Z 1206/1306 VRB02KT 9999 SCT040 BKN100"
    },
    {
      "icao": "LTFM",
      "alert": "OK",
      "vis_m": 9999,
      "fzfg": false,
      "metar_trigger": false,
      "taf_trigger": false,
      "metar": "METAR LTFM 120720Z 15007KT 9999 SCT035 BKN090 11/05 Q0997 NOSIG RMK RWY17L 17010KT 130V200 RWY34L 16006KT RWY16R 15010KT RWY36 18007KT RWY18 17010KT",
      "taf": "TAF LTFM 120440Z 1206/1312 15012KT 9999 -SHRA BKN035 BKN080"
    },
    {
      "icao": "LUKK",
      "alert": "OK",
      "vis_m": 9999,
      "fzfg": false,
      "metar_trigger": false,
      "taf_trigger": false,
      "metar": "METAR LUKK 120730Z 17009KT 9999 OVC004 01/01 Q0996 NOSIG",
      "taf": "TAF LUKK 120510Z 1206/1306 17009KT 9999 OVC008"
    },
    {
      "icao": "LWOH",
      "alert": "OK",
      "vis_m": 9999,
      "fzfg": false,
      "metar_trigger": false,
      "taf_trigger": false,
      "metar": "METAR LWOH 120720Z VRB02KT 9999 SCT015 BKN033 06/05 Q0995",
      "taf": "TAF LWOH 120530Z 1206/1306 18008KT 9999 SCT020 BKN040"
    },
    {
      "icao": "LWSK",
      "alert": "OK",
      "vis_m": 4000,
      "fzfg": false,
      "metar_trigger": false,
      "taf_trigger": false,
      "metar": "METAR LWSK 120720Z VRB02KT 4000 BR SCT007 OVC026 08/07 Q0995 NOSIG",
      "taf": ""
    },
    {
      "icao": "LYBE",
      "alert": "OK",
      "vis_m": 9999,
      "fzfg": false,
      "metar_trigger": false,
      "taf_trigger": false,
      "metar": "METAR LYBE 120730Z 13006KT CAVOK 10/05 Q0991 NOSIG",
      "taf": "TAF LYBE 120500Z 1206/1306 12010KT CAVOK TX17/1213Z TN04/1306Z"
    },
    {
      "icao": "LYNI",
      "alert": "OK",
      "vis_m": 9999,
      "fzfg": false,
      "metar_trigger": false,
      "taf_trigger": false,
      "metar": "METAR LYNI 120730Z 10013KT 9999 FEW040 07/02 Q0994 NOSIG",
      "taf": "TAF LYNI 120500Z 1206/1306 12010KT 9999 SCT060 TX15/1212Z TN04/1206Z"
    },
    {
      "icao": "LYPG",
      "alert": "OK",
      "vis_m": 8000,
      "fzfg": false,
      "metar_trigger": false,
      "taf_trigger": false,
      "metar": "METAR LYPG 120730Z VRB01KT 8000 FEW003 SCT020 BKN050 10/10 Q0994 NOSIG",
      "taf": ""
    },
    {
      "icao": "LZIB",
      "alert": "OK",
      "vis_m": 450,
      "fzfg": false,
      "metar_trigger": false,
      "taf_trigger": false,
      "metar": "METAR LZIB 120730Z 04008KT 0450 R31/0900U R22/0800U FG VV002 04/04 Q0986 BECMG 2500 BR BKN006",
      "taf": "TAF LZIB 120515Z 1206/1306 03003KT 0800 FG BKN003"
    },
    {
      "icao": "LZKZ",
      "alert": "OK",
      "vis_m": 200,
      "fzfg": false,
      "metar_trigger": false,
      "taf_trigger": false,
      "metar": "METAR LZKZ 120730Z VRB03KT 0200 R01/0550N FG VV002 04/04 Q0989 NOSIG",
      "taf": ""
    },
    {
      "icao": "LZTT",
      "alert": "OK",
      "vis_m": 9999,
      "fzfg": false,
      "metar_trigger": false,
      "taf_trigger": false,
      "metar": "METAR LZTT 120730Z 26011KT 9999 SCT050 05/02 Q0987 NOSIG",
      "taf": "TAF LZTT 120515Z 1206/1306 24011KT 9999 BKN030"
    },
    {
      "icao": "OEJN",
      "alert": "OK",
      "vis_m": 9999,
      "fzfg": false,
      "metar_trigger": false,
      "taf_trigger": false,
      "metar": "METAR OEJN 120700Z 33006KT 9999 FEW040 27/19 Q1015 NOSIG",
      "taf": "TAF OEJN 120500Z 1206/1312 30010KT 9999 FEW040"
    },
    {
      "icao": "OEMA",
      "alert": "OK",
      "vis_m": 9999,
      "fzfg": false,
      "metar_trigger": false,
      "taf_trigger": false,
      "metar": "METAR OEMA 120700Z VRB03KT CAVOK 24/09 Q1019 NOSIG",
      "taf": "TAF OEMA 120500Z 1206/1312 VRB03KT CAVOK"
    },
    {
      "icao": "OJAI",
      "alert": "OK",
      "vis_m": 4000,
      "fzfg": false,
      "metar_trigger": false,
      "taf_trigger": false,
      "metar": "METAR OJAI 120700Z 14006KT 4000 HZ NSC 12/06 Q1019 NOSIG",
      "taf": "TAF OJAI 120500Z 1206/1312 25012KT 5000 HZ FEW035"
    },
    {
      "icao": "OMAA",
      "alert": "OK",
      "vis_m": 8000,
      "fzfg": false,
      "metar_trigger": false,
      "taf_trigger": false,
      "metar": "METAR OMAA 120730Z 17009KT 140V200 8000 NSC 27/15 Q1019 NOSIG",
      "taf": "TAF OMAA 120500Z 1206/1312 17010KT 8000 NSC"
    },
    {
      "icao": "OMDB",
      "alert": "OK",
      "vis_m": 9999,
      "fzfg": false,
      "metar_trigger": false,
      "taf_trigger": false,
      "metar": "METAR OMDB 120730Z 18009KT 150V210 CAVOK 29/13 Q1019 NOSIG",
      "taf": "TAF OMDB 120500Z 1206/1312 16008KT 8000 NSC"
    },
    {
      "icao": "UAAA",
      "alert": "OK",
      "vis_m": 5000,
      "fzfg": false,
      "metar_trigger": false,
      "taf_trigger": false,
      "metar": "METAR UAAA 120730Z 36003MPS 5000 BR SCT004 BKN021CB OVC100 M01/M03 Q1021 NOSIG RMK QBB140",
      "taf": "TAF UAAA 120507Z 1206/1306 35003MPS 6000 BKN011CB OVC020 TX00/1209Z TNM05/1303Z"
    },
    {
      "icao": "UBBB",
      "alert": "OK",
      "vis_m": 9999,
      "fzfg": false,
      "metar_trigger": false,
      "taf_trigger": false,
      "metar": "METAR UBBB 120730Z 24004KT 220V280 9999 SCT015 06/01 Q1015 NOSIG",
      "taf": "TAF UBBB 120504Z 1206/1306 16010KT 9999 SCT025 TX08/1210Z TN01/1301Z"
    },
    {
      "icao": "UDSG",
      "alert": "OK",
      "vis_m": 1100,
      "fzfg": false,
      "metar_trigger": false,
      "taf_trigger": false,
      "metar": "METAR UDSG 120730Z 21001KT 1100 R02/1200D SN BR OVC004 M01/M01 Q1014 NOSIG",
      "taf": "TAF UDSG 120458Z 1206/1306 VRB06KT 3000 BR OVC020"
    },
    {
      "icao": "UDYZ",
      "alert": "OK",
      "vis_m": 4200,
      "fzfg": false,
      "metar_trigger": false,
      "taf_trigger": false,
      "metar": "METAR UDYZ 120730Z 26004KT 4200 -SHRA BR FEW005 OVC030CB 03/02 Q1015 NOSIG",
      "taf": "TAF UDYZ 120500Z 1206/1306 VRB06KT 2300 BR OVC020"
    },
    {
      "icao": "UGKO",
      "alert": "OK",
      "vis_m": 9999,
      "fzfg": false,
      "metar_trigger": false,
      "taf_trigger": false,
      "metar": "METAR UGKO 120730Z 11012KT 9999 BKN049 09/01 Q1011 NOSIG",
      "taf": "TAF UGKO 120500Z 1206/1306 08015KT CAVOK TX17/1211Z TN09/1206Z"
    }
  ]
}