{
  "ts_utc": "2026-07-13T22:36:38Z",
  "threshold_m": 150,
  "source": "stations_override.txt (ICAO list) + aviationweather.gov (METAR/TAF raw)",
  "station_count": 159,
  "stations": [
    {
      "icao": "BIKF",
      "alert": "OK",
      "vis_m": 9999,
      "fzfg": false,
      "metar_trigger": false,
      "taf_trigger": false,
      "metar": "METAR BIKF 132230Z 17017KT 9999 OVC005 11/10 Q1019",
      "taf": "TAF BIKF 131936Z 1321/1421 17018KT 4000 RADZ BKN005 OVC010 TX11/1415Z TN10/1404Z"
    },
    {
      "icao": "BKPR",
      "alert": "OK",
      "vis_m": 9999,
      "fzfg": false,
      "metar_trigger": false,
      "taf_trigger": false,
      "metar": "METAR BKPR 132230Z 09003KT 040V110 9999 FEW080 18/13 Q1020 NOSIG",
      "taf": "TAF BKPR 131730Z 1318/1418 32008KT 9999 FEW060"
    },
    {
      "icao": "EBCI",
      "alert": "OK",
      "vis_m": 9999,
      "fzfg": false,
      "metar_trigger": false,
      "taf_trigger": false,
      "metar": "METAR EBCI 132220Z 01008KT CAVOK 22/16 Q1018 NOSIG",
      "taf": "TAF EBCI 131715Z 1318/1424 03010KT CAVOK"
    },
    {
      "icao": "EDDB",
      "alert": "OK",
      "vis_m": 9999,
      "fzfg": false,
      "metar_trigger": false,
      "taf_trigger": false,
      "metar": "METAR EDDB 132220Z AUTO 03006KT CAVOK 20/16 Q1020 NOSIG",
      "taf": "TAF EDDB 131700Z 1318/1418 04008KT CAVOK"
    },
    {
      "icao": "EDDH",
      "alert": "OK",
      "vis_m": 9999,
      "fzfg": false,
      "metar_trigger": false,
      "taf_trigger": false,
      "metar": "METAR EDDH 132220Z AUTO 07004KT CAVOK 19/15 Q1021 NOSIG",
      "taf": "TAF EDDH 131700Z 1318/1424 06007KT CAVOK"
    },
    {
      "icao": "EDDK",
      "alert": "OK",
      "vis_m": 9999,
      "fzfg": false,
      "metar_trigger": false,
      "taf_trigger": false,
      "metar": "METAR EDDK 132220Z AUTO 07007KT CAVOK 24/15 Q1016 NOSIG",
      "taf": "TAF EDDK 131700Z 1318/1424 03007KT CAVOK"
    },
    {
      "icao": "EDDN",
      "alert": "OK",
      "vis_m": 9999,
      "fzfg": false,
      "metar_trigger": false,
      "taf_trigger": false,
      "metar": "METAR EDDN 132220Z AUTO 07006KT CAVOK 24/14 Q1017",
      "taf": "TAF EDDN 131700Z 1318/1418 06004KT CAVOK"
    },
    {
      "icao": "EDDS",
      "alert": "OK",
      "vis_m": 9999,
      "fzfg": false,
      "metar_trigger": false,
      "taf_trigger": false,
      "metar": "METAR EDDS 132220Z AUTO 32003KT CAVOK 22/12 Q1015",
      "taf": "TAF EDDS 131700Z 1318/1418 07005KT CAVOK"
    },
    {
      "icao": "EDFH",
      "alert": "OK",
      "vis_m": 9999,
      "fzfg": false,
      "metar_trigger": false,
      "taf_trigger": false,
      "metar": "METAR EDFH 132220Z 08003KT 040V120 CAVOK 23/09 Q1018",
      "taf": "TAF EDFH 131700Z 1318/1418 08007KT CAVOK"
    },
    {
      "icao": "EDJA",
      "alert": "OK",
      "vis_m": 9999,
      "fzfg": false,
      "metar_trigger": false,
      "taf_trigger": false,
      "metar": "METAR EDJA 132220Z AUTO VRB02KT 9999 // NCD 18/13 Q1018",
      "taf": "TAF EDJA 131700Z 1318/1403 07005KT CAVOK"
    },
    {
      "icao": "EDLW",
      "alert": "OK",
      "vis_m": 9999,
      "fzfg": false,
      "metar_trigger": false,
      "taf_trigger": false,
      "metar": "METAR EDLW 132220Z AUTO 07010KT 9999 // SCT088/// SCT120/// 22/15 Q1018",
      "taf": "TAF EDLW 131700Z 1318/1418 05007KT CAVOK"
    },
    {
      "icao": "EDNY",
      "alert": "OK",
      "vis_m": 9999,
      "fzfg": false,
      "metar_trigger": false,
      "taf_trigger": false,
      "metar": "METAR EDNY 132220Z AUTO VRB01KT 9999 // SCT170/// 20/15 Q1016",
      "taf": "TAF EDNY 131700Z 1318/1403 VRB03KT CAVOK"
    },
    {
      "icao": "EDSB",
      "alert": "OK",
      "vis_m": 9999,
      "fzfg": false,
      "metar_trigger": false,
      "taf_trigger": false,
      "metar": "METAR EDSB 132220Z AUTO 02006KT 9999 NCD 24/13 Q1014",
      "taf": "TAF EDSB 131700Z 1318/1418 02007KT CAVOK"
    },
    {
      "icao": "EETN",
      "alert": "OK",
      "vis_m": 9999,
      "fzfg": false,
      "metar_trigger": false,
      "taf_trigger": false,
      "metar": "METAR EETN 132220Z 36005KT 9999 FEW024 BKN033 18/15 Q1018",
      "taf": ""
    },
    {
      "icao": "EFTU",
      "alert": "OK",
      "vis_m": 9999,
      "fzfg": false,
      "metar_trigger": false,
      "taf_trigger": false,
      "metar": "METAR EFTU 132220Z AUTO 35003KT 320V030 9999 BKN039 16/12 Q1020",
      "taf": "TAF EFTU 132027Z 1321/1421 34004KT CAVOK"
    },
    {
      "icao": "EGBB",
      "alert": "OK",
      "vis_m": 9999,
      "fzfg": false,
      "metar_trigger": false,
      "taf_trigger": false,
      "metar": "METAR EGBB 132220Z 04007KT 9999 BKN018 17/12 Q1024",
      "taf": "TAF EGBB 131655Z 1318/1418 05010KT 9999 FEW040"
    },
    {
      "icao": "EGGP",
      "alert": "OK",
      "vis_m": 9999,
      "fzfg": false,
      "metar_trigger": false,
      "taf_trigger": false,
      "metar": "METAR EGGP 132220Z 08008KT 9999 7000SE NSC 17/10 Q1025",
      "taf": "TAF EGGP 131654Z 1318/1418 07009KT CAVOK"
    },
    {
      "icao": "EGGW",
      "alert": "OK",
      "vis_m": 9999,
      "fzfg": false,
      "metar_trigger": false,
      "taf_trigger": false,
      "metar": "METAR EGGW 132220Z AUTO 03013KT 9999 BKN008 16/14 Q1023",
      "taf": "TAF EGGW 131656Z 1318/1418 06012KT 9999 FEW045"
    },
    {
      "icao": "EGKK",
      "alert": "OK",
      "vis_m": 9999,
      "fzfg": false,
      "metar_trigger": false,
      "taf_trigger": false,
      "metar": "METAR EGKK 132220Z 04012KT CAVOK 19/15 Q1021",
      "taf": "TAF EGKK 131656Z 1318/1424 05013KT CAVOK"
    },
    {
      "icao": "EGNM",
      "alert": "OK",
      "vis_m": 9999,
      "fzfg": false,
      "metar_trigger": false,
      "taf_trigger": false,
      "metar": "METAR EGNM 132220Z 02010KT 9999 FEW020 12/11 Q1026",
      "taf": "TAF EGNM 131655Z 1318/1418 06010KT CAVOK"
    },
    {
      "icao": "EGPD",
      "alert": "OK",
      "vis_m": 9999,
      "fzfg": false,
      "metar_trigger": false,
      "taf_trigger": false,
      "metar": "METAR EGPD 132220Z AUTO 03003KT 9999 OVC010 12/10 Q1029",
      "taf": ""
    },
    {
      "icao": "EGPF",
      "alert": "OK",
      "vis_m": 9999,
      "fzfg": false,
      "metar_trigger": false,
      "taf_trigger": false,
      "metar": "METAR EGPF 132220Z AUTO 06008KT 9999 NCD 13/09 Q1029",
      "taf": "TAF EGPF 131650Z 1318/1418 06012KT CAVOK"
    },
    {
      "icao": "EHBK",
      "alert": "OK",
      "vis_m": 9999,
      "fzfg": false,
      "metar_trigger": false,
      "taf_trigger": false,
      "metar": "METAR EHBK 132225Z AUTO 36008KT 330V040 9999 NSC 24/15 Q1017",
      "taf": "TAF EHBK 131710Z 1318/1424 05010KT CAVOK"
    },
    {
      "icao": "EHEH",
      "alert": "OK",
      "vis_m": 9999,
      "fzfg": false,
      "metar_trigger": false,
      "taf_trigger": false,
      "metar": "METAR EHEH 132225Z AUTO 36004KT 310V040 9999 NCD 21/16 Q1017 BLU",
      "taf": "TAF EHEH 131724Z 1318/1424 05009KT CAVOK"
    },
    {
      "icao": "EKBI",
      "alert": "OK",
      "vis_m": 9999,
      "fzfg": false,
      "metar_trigger": false,
      "taf_trigger": false,
      "metar": "METAR EKBI 132220Z AUTO 07005KT 9999 NCD 15/12 Q1024",
      "taf": "TAF EKBI 132027Z 1321/1421 VRB04KT 9999 SCT025"
    },
    {
      "icao": "EKCH",
      "alert": "OK",
      "vis_m": 9999,
      "fzfg": false,
      "metar_trigger": false,
      "taf_trigger": false,
      "metar": "METAR EKCH 132220Z AUTO 04001KT 9999 BKN140/// 17/16 Q1024 NOSIG",
      "taf": "TAF EKCH 132027Z 1321/1421 35008KT 9999 FEW030"
    },
    {
      "icao": "ENAL",
      "alert": "OK",
      "vis_m": 9999,
      "fzfg": false,
      "metar_trigger": false,
      "taf_trigger": false,
      "metar": "METAR ENAL 132220Z 03005KT 350V070 9999 BKN009 12/10 Q1029",
      "taf": ""
    },
    {
      "icao": "ENBR",
      "alert": "OK",
      "vis_m": 9999,
      "fzfg": false,
      "metar_trigger": false,
      "taf_trigger": false,
      "metar": "METAR ENBR 132220Z 33010KT 9999 FEW009 12/11 Q1026 RMK WIND 1200FT 36011KT",
      "taf": "TAF ENBR 131700Z 1318/1418 33010KT CAVOK"
    },
    {
      "icao": "ENGM",
      "alert": "OK",
      "vis_m": 9999,
      "fzfg": false,
      "metar_trigger": false,
      "taf_trigger": false,
      "metar": "METAR ENGM 132220Z 35005KT CAVOK 17/11 Q1024",
      "taf": "TAF ENGM 131700Z 1318/1418 VRB03KT CAVOK"
    },
    {
      "icao": "ENHD",
      "alert": "OK",
      "vis_m": 5000,
      "fzfg": false,
      "metar_trigger": false,
      "taf_trigger": false,
      "metar": "METAR ENHD 132220Z AUTO 35016KT 5000 BR SCT001/// SCT003/// 12/11 Q1026",
      "taf": "TAF ENHD 131400Z 1315/1322 34009KT CAVOK"
    },
    {
      "icao": "ENTC",
      "alert": "OK",
      "vis_m": 9999,
      "fzfg": false,
      "metar_trigger": false,
      "taf_trigger": false,
      "metar": "METAR ENTC 132220Z AUTO 22023KT 9999 OVC038/// 13/08 Q1017 RMK WIND 2600FT 23017KT",
      "taf": "TAF ENTC 131700Z 1318/1418 20025KT 9999 FEW030 BKN060"
    },
    {
      "icao": "ENTO",
      "alert": "OK",
      "vis_m": 9999,
      "fzfg": false,
      "metar_trigger": false,
      "taf_trigger": false,
      "metar": "METAR ENTO 132220Z AUTO 29003KT 9999 // NCD 18/07 Q1024",
      "taf": "TAF ENTO 131700Z 1318/1418 24010KT CAVOK"
    },
    {
      "icao": "ENVA",
      "alert": "OK",
      "vis_m": 9999,
      "fzfg": false,
      "metar_trigger": false,
      "taf_trigger": false,
      "metar": "METAR ENVA 132220Z 26012KT 9999 BKN018 14/11 Q1028 RMK WIND 670FT 28009KT",
      "taf": "TAF ENVA 131700Z 1318/1418 27009KT CAVOK"
    },
    {
      "icao": "ENZV",
      "alert": "OK",
      "vis_m": 9999,
      "fzfg": false,
      "metar_trigger": false,
      "taf_trigger": false,
      "metar": "METAR ENZV 132220Z 29003KT CAVOK 13/12 Q1025",
      "taf": "TAF ENZV 131700Z 1318/1418 30006KT CAVOK"
    },
    {
      "icao": "EPGD",
      "alert": "OK",
      "vis_m": 9999,
      "fzfg": false,
      "metar_trigger": false,
      "taf_trigger": false,
      "metar": "METAR EPGD 132230Z 33004KT CAVOK 13/11 Q1022",
      "taf": "TAF EPGD 131730Z 1318/1418 36010KT CAVOK"
    },
    {
      "icao": "EPKK",
      "alert": "OK",
      "vis_m": 5000,
      "fzfg": false,
      "metar_trigger": false,
      "taf_trigger": false,
      "metar": "METAR EPKK 132230Z 24001KT 5000 BR FEW038 BKN056 18/18 Q1019",
      "taf": "TAF EPKK 132030Z 1321/1421 VRB02KT 4500 BR FEW040"
    },
    {
      "icao": "EPKT",
      "alert": "OK",
      "vis_m": 9999,
      "fzfg": false,
      "metar_trigger": false,
      "taf_trigger": false,
      "metar": "METAR EPKT 132230Z 30001KT CAVOK 16/16 Q1019",
      "taf": "TAF EPKT 131730Z 1318/1418 02006KT CAVOK"
    },
    {
      "icao": "EPLB",
      "alert": "OK",
      "vis_m": 9999,
      "fzfg": false,
      "metar_trigger": false,
      "taf_trigger": false,
      "metar": "METAR EPLB 132230Z 04002KT CAVOK 18/17 Q1017",
      "taf": "TAF EPLB 131730Z 1318/1418 30008KT CAVOK"
    },
    {
      "icao": "EPMO",
      "alert": "OK",
      "vis_m": 9999,
      "fzfg": false,
      "metar_trigger": false,
      "taf_trigger": false,
      "metar": "METAR EPMO 132230Z 34010KT 9999 OVC008 18/17 Q1019",
      "taf": "TAF EPMO 131730Z 1318/1418 33006KT 9999 SCT030"
    },
    {
      "icao": "EPPO",
      "alert": "OK",
      "vis_m": 9999,
      "fzfg": false,
      "metar_trigger": false,
      "taf_trigger": false,
      "metar": "METAR EPPO 132230Z 05007KT CAVOK 20/17 Q1020",
      "taf": "TAF EPPO 131730Z 1318/1418 02008KT CAVOK"
    },
    {
      "icao": "EPRA",
      "alert": "OK",
      "vis_m": 9999,
      "fzfg": false,
      "metar_trigger": false,
      "taf_trigger": false,
      "metar": "METAR EPRA 132230Z 33006KT CAVOK 21/19 Q1018",
      "taf": "TAF EPRA 132030Z 1321/1406 28008KT 9999 SCT040"
    },
    {
      "icao": "EPRZ",
      "alert": "OK",
      "vis_m": 9999,
      "fzfg": false,
      "metar_trigger": false,
      "taf_trigger": false,
      "metar": "METAR EPRZ 132230Z 25007KT 9999 BKN017 18/18 Q1018",
      "taf": "TAF EPRZ 131730Z 1318/1418 32008KT CAVOK"
    },
    {
      "icao": "EPSC",
      "alert": "OK",
      "vis_m": 9999,
      "fzfg": false,
      "metar_trigger": false,
      "taf_trigger": false,
      "metar": "METAR EPSC 132230Z 03005KT 360V070 CAVOK 16/14 Q1021",
      "taf": "TAF EPSC 131730Z 1318/1418 03010KT CAVOK"
    },
    {
      "icao": "EPSY",
      "alert": "OK",
      "vis_m": 9999,
      "fzfg": false,
      "metar_trigger": false,
      "taf_trigger": false,
      "metar": "METAR EPSY 132230Z 32005KT 270V360 9999 BKN007 16/14 Q1019",
      "taf": "TAF EPSY 132030Z 1321/1406 32008KT 9999 BKN010"
    },
    {
      "icao": "EPWA",
      "alert": "OK",
      "vis_m": 9999,
      "fzfg": false,
      "metar_trigger": false,
      "taf_trigger": false,
      "metar": "METAR EPWA 132230Z 33008KT CAVOK 19/18 Q1018 BECMG BKN007",
      "taf": "TAF EPWA 132030Z 1321/1421 33007KT CAVOK"
    },
    {
      "icao": "EPWR",
      "alert": "OK",
      "vis_m": 9999,
      "fzfg": false,
      "metar_trigger": false,
      "taf_trigger": false,
      "metar": "METAR EPWR 132230Z 30003KT CAVOK 19/16 Q1019",
      "taf": "TAF EPWR 132030Z 1321/1421 VRB02KT CAVOK"
    },
    {
      "icao": "ESGG",
      "alert": "OK",
      "vis_m": 9999,
      "fzfg": false,
      "metar_trigger": false,
      "taf_trigger": false,
      "metar": "METAR ESGG 132220Z 33005KT CAVOK 18/10 Q1024",
      "taf": "TAF ESGG 132030Z 1321/1421 03005KT CAVOK"
    },
    {
      "icao": "ESKN",
      "alert": "OK",
      "vis_m": 9999,
      "fzfg": false,
      "metar_trigger": false,
      "taf_trigger": false,
      "metar": "METAR ESKN 132220Z VRB02KT CAVOK 13/13 Q1023",
      "taf": "TAF ESKN 132030Z 1321/1421 VRB03KT CAVOK"
    },
    {
      "icao": "ESMS",
      "alert": "OK",
      "vis_m": 9999,
      "fzfg": false,
      "metar_trigger": false,
      "taf_trigger": false,
      "metar": "METAR ESMS 132220Z AUTO 00000KT 9999 NCD 14/13 Q1024",
      "taf": "TAF ESMS 132027Z 1321/1421 VRB04KT 9999 FEW035"
    },
    {
      "icao": "ESSA",
      "alert": "OK",
      "vis_m": 9999,
      "fzfg": false,
      "metar_trigger": false,
      "taf_trigger": false,
      "metar": "METAR ESSA 132220Z 34004KT CAVOK 10/05 Q1023 NOSIG",
      "taf": "TAF ESSA 132030Z 1321/1421 35006KT CAVOK"
    },
    {
      "icao": "EYKA",
      "alert": "OK",
      "vis_m": 9999,
      "fzfg": false,
      "metar_trigger": false,
      "taf_trigger": false,
      "metar": "METAR EYKA 132220Z AUTO 34003KT 280V050 9999 NCD 19/17 Q1017",
      "taf": "TAF EYKA 131700Z 1318/1418 VRB03KT 9000 NSC"
    },
    {
      "icao": "EYPA",
      "alert": "OK",
      "vis_m": 9999,
      "fzfg": false,
      "metar_trigger": false,
      "taf_trigger": false,
      "metar": "METAR EYPA 132220Z AUTO 01006KT 9999 NCD 14/13 Q1019",
      "taf": "TAF EYPA 131700Z 1318/1418 VRB04KT 9000 NSC"
    },
    {
      "icao": "EYVI",
      "alert": "OK",
      "vis_m": 9999,
      "fzfg": false,
      "metar_trigger": false,
      "taf_trigger": false,
      "metar": "METAR EYVI 132220Z 32005KT CAVOK 20/18 Q1016 NOSIG",
      "taf": "TAF EYVI 131700Z 1318/1418 33008KT 9000 SCT045"
    },
    {
      "icao": "GCFV",
      "alert": "OK",
      "vis_m": 9999,
      "fzfg": false,
      "metar_trigger": false,
      "taf_trigger": false,
      "metar": "METAR GCFV 132230Z AUTO 05011KT 9999 FEW015 SCT026 BKN031 23/20 Q1017",
      "taf": "TAF GCFV 132000Z 1321/1421 04009KT 9999 SCT025 TX26/1414Z TN21/1406Z"
    },
    {
      "icao": "GCLP",
      "alert": "OK",
      "vis_m": 9999,
      "fzfg": false,
      "metar_trigger": false,
      "taf_trigger": false,
      "metar": "METAR GCLP 132230Z 36011KT 9999 FEW025 23/18 Q1018 NOSIG",
      "taf": "TAF GCLP 132000Z 1321/1421 36007KT 9999 SCT030 TX27/1414Z TN21/1406Z"
    },
    {
      "icao": "GCTS",
      "alert": "OK",
      "vis_m": 9999,
      "fzfg": false,
      "metar_trigger": false,
      "taf_trigger": false,
      "metar": "METAR GCTS 132230Z 06007KT 9999 SCT030 23/18 Q1018 NOSIG",
      "taf": "TAF GCTS 132000Z 1321/1421 05006KT 9999 SCT030 TX27/1414Z TN19/1406Z"
    },
    {
      "icao": "GMAD",
      "alert": "OK",
      "vis_m": 9999,
      "fzfg": false,
      "metar_trigger": false,
      "taf_trigger": false,
      "metar": "METAR GMAD 132230Z 17005KT CAVOK 22/19 Q1016 NOSIG",
      "taf": "TAF GMAD 131700Z 1318/1424 27014KT CAVOK"
    },
    {
      "icao": "GMMN",
      "alert": "OK",
      "vis_m": 9999,
      "fzfg": false,
      "metar_trigger": false,
      "taf_trigger": false,
      "metar": "METAR GMMN 132230Z 04008KT 9999 FEW020 21/18 Q1017 NOSIG",
      "taf": "TAF GMMN 131700Z 1318/1424 36012KT CAVOK"
    },
    {
      "icao": "GMMX",
      "alert": "OK",
      "vis_m": 9999,
      "fzfg": false,
      "metar_trigger": false,
      "taf_trigger": false,
      "metar": "METAR GMMX 132230Z 01006KT 330V040 CAVOK 27/17 Q1016 NOSIG",
      "taf": "TAF GMMX 131700Z 1318/1424 32008KT CAVOK"
    },
    {
      "icao": "HEGN",
      "alert": "OK",
      "vis_m": null,
      "fzfg": false,
      "metar_trigger": false,
      "taf_trigger": false,
      "metar": "",
      "taf": "TAF HEGN 131700Z 1318/1424 34015KT CAVOK"
    },
    {
      "icao": "HEMA",
      "alert": "OK",
      "vis_m": null,
      "fzfg": false,
      "metar_trigger": false,
      "taf_trigger": false,
      "metar": "",
      "taf": "TAF HEMA 131700Z 1318/1424 34015KT CAVOK"
    },
    {
      "icao": "HESH",
      "alert": "OK",
      "vis_m": null,
      "fzfg": false,
      "metar_trigger": false,
      "taf_trigger": false,
      "metar": "",
      "taf": "TAF HESH 131700Z 1318/1424 33012KT CAVOK"
    },
    {
      "icao": "HESX",
      "alert": "OK",
      "vis_m": null,
      "fzfg": false,
      "metar_trigger": false,
      "taf_trigger": false,
      "metar": "",
      "taf": "TAF HESX 131700Z 1318/1424 32012KT CAVOK"
    },
    {
      "icao": "LATI",
      "alert": "OK",
      "vis_m": 9999,
      "fzfg": false,
      "metar_trigger": false,
      "taf_trigger": false,
      "metar": "METAR LATI 132220Z VRB02KT CAVOK 21/16 Q1015 NOSIG",
      "taf": "TAF LATI 131700Z 1318/1418 34010KT CAVOK TX35/1411Z TN18/1404Z"
    },
    {
      "icao": "LBPD",
      "alert": "OK",
      "vis_m": 9999,
      "fzfg": false,
      "metar_trigger": false,
      "taf_trigger": false,
      "metar": "METAR LBPD 132230Z AUTO 26005KT 240V300 9999 OVC100/// 21/13 Q1016",
      "taf": "TAF LBPD 131700Z 1318/1418 27012KT 9999 SCT070"
    },
    {
      "icao": "LBSF",
      "alert": "OK",
      "vis_m": 9999,
      "fzfg": false,
      "metar_trigger": false,
      "taf_trigger": false,
      "metar": "METAR LBSF 132230Z AUTO 34004KT 310V020 9999 NCD 17/12 Q1019 NOSIG",
      "taf": "TAF LBSF 131700Z 1318/1418 32010KT 9999 SCT050"
    },
    {
      "icao": "LBWN",
      "alert": "OK",
      "vis_m": 9999,
      "fzfg": false,
      "metar_trigger": false,
      "taf_trigger": false,
      "metar": "METAR LBWN 132230Z AUTO 28005KT 240V350 9999 NSC 18/16 Q1015 NOSIG",
      "taf": "TAF LBWN 131700Z 1318/1418 VRB04KT 9999 SCT030 SCT045"
    },
    {
      "icao": "LCLK",
      "alert": "OK",
      "vis_m": 9999,
      "fzfg": false,
      "metar_trigger": false,
      "taf_trigger": false,
      "metar": "METAR LCLK 132230Z 10003KT CAVOK 27/23 Q1005 NOSIG",
      "taf": "TAF LCLK 131730Z 1318/1418 24007KT 9999 FEW025"
    },
    {
      "icao": "LCPH",
      "alert": "OK",
      "vis_m": 9999,
      "fzfg": false,
      "metar_trigger": false,
      "taf_trigger": false,
      "metar": "METAR LCPH 132230Z AUTO 02006KT 350V080 9999 NCD 24/18 Q1005 NOSIG",
      "taf": "TAF LCPH 131730Z 1318/1418 35007KT 9999 FEW020"
    },
    {
      "icao": "LEAL",
      "alert": "OK",
      "vis_m": 9999,
      "fzfg": false,
      "metar_trigger": false,
      "taf_trigger": false,
      "metar": "METAR LEAL 132230Z 18003KT 140V210 CAVOK 26/24 Q1014 NOSIG",
      "taf": "TAF LEAL 131700Z 1318/1418 11009KT 9999 FEW010 TX33/1412Z TN23/1406Z"
    },
    {
      "icao": "LEBB",
      "alert": "OK",
      "vis_m": 9999,
      "fzfg": false,
      "metar_trigger": false,
      "taf_trigger": false,
      "metar": "METAR LEBB 132230Z AUTO 31003KT 9999 SCT019 BKN050 23/21 Q1016",
      "taf": "TAF LEBB 131700Z 1318/1418 28009KT 9999 SCT030 TX31/1412Z TN21/1405Z"
    },
    {
      "icao": "LEBL",
      "alert": "OK",
      "vis_m": 9999,
      "fzfg": false,
      "metar_trigger": false,
      "taf_trigger": false,
      "metar": "METAR LEBL 132230Z 10003KT 9999 FEW010 27/26 Q1014 NOSIG",
      "taf": "TAF LEBL 131700Z 1318/1418 05012KT 9999 FEW020 TX31/1412Z TN24/1406Z"
    },
    {
      "icao": "LECH",
      "alert": "OK",
      "vis_m": 9999,
      "fzfg": false,
      "metar_trigger": false,
      "taf_trigger": false,
      "metar": "METAR LECH 132230Z AUTO VRB02KT CAVOK 24/22 Q1015",
      "taf": "TAF LECH 131700Z 1318/1418 13008KT 9999 FEW010 TX35/1412Z TN21/1406Z"
    },
    {
      "icao": "LEMD",
      "alert": "OK",
      "vis_m": 9999,
      "fzfg": false,
      "metar_trigger": false,
      "taf_trigger": false,
      "metar": "METAR LEMD 132230Z VRB02KT CAVOK 26/05 Q1016 NOSIG",
      "taf": "TAF LEMD 131700Z 1318/1424 VRB04KT CAVOK TX37/1416Z TN19/1405Z"
    },
    {
      "icao": "LEMG",
      "alert": "OK",
      "vis_m": 9999,
      "fzfg": false,
      "metar_trigger": false,
      "taf_trigger": false,
      "metar": "METAR LEMG 132230Z 27003KT 190V300 CAVOK 24/16 Q1013 NOSIG",
      "taf": "TAF LEMG 131700Z 1318/1418 08008KT CAVOK TX35/1414Z TN24/1405Z"
    },
    {
      "icao": "LEVC",
      "alert": "OK",
      "vis_m": 9999,
      "fzfg": false,
      "metar_trigger": false,
      "taf_trigger": false,
      "metar": "METAR LEVC 132230Z 01005KT 340V040 CAVOK 27/24 Q1014 NOSIG",
      "taf": "TAF LEVC 131700Z 1318/1418 11009KT 9999 FEW015 TX33/1414Z TN24/1406Z"
    },
    {
      "icao": "LEXJ",
      "alert": "OK",
      "vis_m": 9000,
      "fzfg": false,
      "metar_trigger": false,
      "taf_trigger": false,
      "metar": "METAR LEXJ 132230Z AUTO VRB02KT 9000 NCD 21/20 Q1016",
      "taf": "TAF LEXJ 132000Z 1321/1421 VRB03KT 9999 SCT020 TX27/1412Z TN19/1405Z"
    },
    {
      "icao": "LEZG",
      "alert": "OK",
      "vis_m": 9999,
      "fzfg": false,
      "metar_trigger": false,
      "taf_trigger": false,
      "metar": "METAR LEZG 132230Z 27007KT 250V310 9999 FEW080 29/18 Q1013 NOSIG",
      "taf": "TAF LEZG 131700Z 1318/1418 08008KT CAVOK TX37/1415Z TN24/1406Z"
    },
    {
      "icao": "LEZL",
      "alert": "OK",
      "vis_m": 9999,
      "fzfg": false,
      "metar_trigger": false,
      "taf_trigger": false,
      "metar": "METAR LEZL 132230Z 22008KT CAVOK 24/16 Q1015 NOSIG",
      "taf": "TAF LEZL 132000Z 1321/1421 23010KT CAVOK TX34/1415Z TN20/1405Z"
    },
    {
      "icao": "LFBD",
      "alert": "OK",
      "vis_m": 9999,
      "fzfg": false,
      "metar_trigger": false,
      "taf_trigger": false,
      "metar": "METAR LFBD 132230Z AUTO VRB01KT CAVOK 23/19 Q1015 NOSIG",
      "taf": ""
    },
    {
      "icao": "LFLL",
      "alert": "OK",
      "vis_m": 9999,
      "fzfg": false,
      "metar_trigger": false,
      "taf_trigger": false,
      "metar": "METAR LFLL 132230Z 20007KT CAVOK 29/13 Q1015 NOSIG",
      "taf": "TAF LFLL 131700Z 1318/1424 18010KT CAVOK"
    },
    {
      "icao": "LFLS",
      "alert": "OK",
      "vis_m": 9999,
      "fzfg": false,
      "metar_trigger": false,
      "taf_trigger": false,
      "metar": "METAR LFLS 132230Z AUTO 17004KT 140V200 CAVOK 26/16 Q1017",
      "taf": "TAF LFLS 131400Z 1315/1415 21008KT CAVOK"
    },
    {
      "icao": "LFMN",
      "alert": "OK",
      "vis_m": 9999,
      "fzfg": false,
      "metar_trigger": false,
      "taf_trigger": false,
      "metar": "METAR LFMN 132230Z 02006KT CAVOK 27/18 Q1016 NOSIG",
      "taf": "TAF LFMN 132000Z 1321/1503 VRB03KT CAVOK"
    },
    {
      "icao": "LFOB",
      "alert": "OK",
      "vis_m": 9999,
      "fzfg": false,
      "metar_trigger": false,
      "taf_trigger": false,
      "metar": "METAR LFOB 132230Z AUTO 01013KT 330V030 9999 ///CB 22/17 Q1017 BECMG NSC",
      "taf": "TAF LFOB 131700Z 1318/1418 04015G25KT CAVOK"
    },
    {
      "icao": "LFPO",
      "alert": "OK",
      "vis_m": 9999,
      "fzfg": false,
      "metar_trigger": false,
      "taf_trigger": false,
      "metar": "METAR LFPO 132230Z AUTO 02013KT 9999 ///CB 27/16 Q1015 BECMG NSC",
      "taf": "TAF LFPO 131700Z 1318/1424 04015KT CAVOK"
    },
    {
      "icao": "LFSB",
      "alert": "OK",
      "vis_m": 9999,
      "fzfg": false,
      "metar_trigger": false,
      "taf_trigger": false,
      "metar": "METAR LFSB 132230Z AUTO 19002KT CAVOK 22/14 Q1015 TEMPO VRB20G35KT 2000 TSRA SCT090CB",
      "taf": "TAF LFSB 131700Z 1318/1418 01005KT CAVOK"
    },
    {
      "icao": "LGAV",
      "alert": "OK",
      "vis_m": 9999,
      "fzfg": false,
      "metar_trigger": false,
      "taf_trigger": false,
      "metar": "METAR LGAV 132220Z 27003KT 9999 FEW025 24/15 Q1014 NOSIG",
      "taf": "TAF LGAV 131700Z 1318/1418 03010KT 9999 FEW025"
    },
    {
      "icao": "LGTS",
      "alert": "OK",
      "vis_m": 9999,
      "fzfg": false,
      "metar_trigger": false,
      "taf_trigger": false,
      "metar": "METAR LGTS 132150Z 31009KT 9999 FEW025 25/12 Q1014 NOSIG",
      "taf": "TAF LGTS 131700Z 1318/1418 33015KT 9999 FEW030"
    },
    {
      "icao": "LHBP",
      "alert": "OK",
      "vis_m": 9999,
      "fzfg": false,
      "metar_trigger": false,
      "taf_trigger": false,
      "metar": "METAR LHBP 132230Z 13003KT CAVOK 19/12 Q1018 NOSIG",
      "taf": "TAF LHBP 131715Z 1318/1418 VRB03KT CAVOK"
    },
    {
      "icao": "LHDC",
      "alert": "OK",
      "vis_m": 9999,
      "fzfg": false,
      "metar_trigger": false,
      "taf_trigger": false,
      "metar": "METAR LHDC 132215Z AUTO VRB02KT CAVOK 19/14 Q1017",
      "taf": "TAF LHDC 131415Z 1315/1324 02009KT CAVOK"
    },
    {
      "icao": "LIBD",
      "alert": "OK",
      "vis_m": 9999,
      "fzfg": false,
      "metar_trigger": false,
      "taf_trigger": false,
      "metar": "METAR LIBD 132220Z 27004KT CAVOK 24/13 Q1017",
      "taf": "TAF LIBD 131700Z 1318/1418 33010KT CAVOK"
    },
    {
      "icao": "LIBG",
      "alert": "OK",
      "vis_m": 9999,
      "fzfg": false,
      "metar_trigger": false,
      "taf_trigger": false,
      "metar": "METAR LIBG 132220Z AUTO 33003KT 9999 NCD 24/14 Q1016",
      "taf": "TAF LIBG 131700Z 1318/1418 35010KT CAVOK"
    },
    {
      "icao": "LIBP",
      "alert": "OK",
      "vis_m": 9999,
      "fzfg": false,
      "metar_trigger": false,
      "taf_trigger": false,
      "metar": "METAR LIBP 132220Z AUTO 24005KT 9999 NCD 23/16 Q1017",
      "taf": "TAF LIBP 131700Z 1318/1418 VRB04KT CAVOK"
    },
    {
      "icao": "LIBR",
      "alert": "OK",
      "vis_m": 9999,
      "fzfg": false,
      "metar_trigger": false,
      "taf_trigger": false,
      "metar": "METAR LIBR 132220Z 32012KT CAVOK 26/21 Q1016",
      "taf": "TAF LIBR 131700Z 1318/1418 34012KT CAVOK"
    },
    {
      "icao": "LICA",
      "alert": "OK",
      "vis_m": 9999,
      "fzfg": false,
      "metar_trigger": false,
      "taf_trigger": false,
      "metar": "METAR LICA 132220Z AUTO 18004KT 9999 FEW023/// 25/22 Q1017",
      "taf": "TAF LICA 131700Z 1318/1418 26010KT CAVOK"
    },
    {
      "icao": "LICC",
      "alert": "OK",
      "vis_m": 9999,
      "fzfg": false,
      "metar_trigger": false,
      "taf_trigger": false,
      "metar": "METAR LICC 132220Z 28004KT 230V300 CAVOK 26/18 Q1018",
      "taf": "TAF LICC 131700Z 1318/1418 11010KT CAVOK"
    },
    {
      "icao": "LICJ",
      "alert": "OK",
      "vis_m": 9999,
      "fzfg": false,
      "metar_trigger": false,
      "taf_trigger": false,
      "metar": "METAR LICJ 132220Z 25004KT CAVOK 27/24 Q1018",
      "taf": "TAF LICJ 131700Z 1318/1418 05010KT CAVOK"
    },
    {
      "icao": "LIMC",
      "alert": "OK",
      "vis_m": 9999,
      "fzfg": false,
      "metar_trigger": false,
      "taf_trigger": false,
      "metar": "METAR LIMC 132220Z VRB02KT CAVOK 26/18 Q1017 NOSIG",
      "taf": "TAF LIMC 131700Z 1318/1424 VRB05KT 9999 SCT050"
    },
    {
      "icao": "LIME",
      "alert": "OK",
      "vis_m": 9999,
      "fzfg": false,
      "metar_trigger": false,
      "taf_trigger": false,
      "metar": "METAR LIME 132220Z 02003KT CAVOK 27/20 Q1017 NOSIG",
      "taf": "TAF LIME 131700Z 1318/1418 VRB05KT 9999 FEW070"
    },
    {
      "icao": "LIMF",
      "alert": "OK",
      "vis_m": 9999,
      "fzfg": false,
      "metar_trigger": false,
      "taf_trigger": false,
      "metar": "METAR LIMF 132220Z 33005KT CAVOK 27/20 Q1018",
      "taf": "TAF LIMF 131700Z 1318/1418 VRB05KT 9999 FEW050"
    },
    {
      "icao": "LIMJ",
      "alert": "OK",
      "vis_m": 9999,
      "fzfg": false,
      "metar_trigger": false,
      "taf_trigger": false,
      "metar": "METAR LIMJ 132220Z 04003KT CAVOK 28/19 Q1016",
      "taf": "TAF LIMJ 131700Z 1318/1418 VRB05KT CAVOK"
    },
    {
      "icao": "LIPE",
      "alert": "OK",
      "vis_m": 9999,
      "fzfg": false,
      "metar_trigger": false,
      "taf_trigger": false,
      "metar": "METAR LIPE 132220Z 08004KT 040V110 CAVOK 27/18 Q1016",
      "taf": "TAF LIPE 131700Z 1318/1418 VRB04KT CAVOK"
    },
    {
      "icao": "LIPH",
      "alert": "OK",
      "vis_m": 9999,
      "fzfg": false,
      "metar_trigger": false,
      "taf_trigger": false,
      "metar": "METAR LIPH 132220Z AUTO 25003KT 230V310 9999 FEW180/// BKN210/// 26/21 Q1017",
      "taf": "TAF LIPH 131700Z 1318/1418 VRB05KT CAVOK"
    },
    {
      "icao": "LIPQ",
      "alert": "OK",
      "vis_m": 9999,
      "fzfg": false,
      "metar_trigger": false,
      "taf_trigger": false,
      "metar": "METAR LIPQ 132220Z AUTO 36006KT 9999 FEW068/// BKN120/// 24/20 Q1018",
      "taf": "TAF LIPQ 131700Z 1318/1418 VRB05KT CAVOK"
    },
    {
      "icao": "LIPR",
      "alert": "OK",
      "vis_m": 9999,
      "fzfg": false,
      "metar_trigger": false,
      "taf_trigger": false,
      "metar": "METAR LIPR 132220Z AUTO VRB02KT 9999 NCD 25/18 Q1016",
      "taf": "TAF LIPR 131700Z 1318/1418 12010KT CAVOK"
    },
    {
      "icao": "LIPX",
      "alert": "OK",
      "vis_m": 9999,
      "fzfg": false,
      "metar_trigger": false,
      "taf_trigger": false,
      "metar": "METAR LIPX 132220Z 08005KT CAVOK 27/20 Q1017",
      "taf": "TAF LIPX 131700Z 1318/1418 VRB06KT CAVOK"
    },
    {
      "icao": "LIPY",
      "alert": "OK",
      "vis_m": 9999,
      "fzfg": false,
      "metar_trigger": false,
      "taf_trigger": false,
      "metar": "METAR LIPY 132220Z AUTO VRB02KT 9999 SCT200/// 25/14 Q1017",
      "taf": "TAF LIPY 131700Z 1318/1418 VRB05KT CAVOK"
    },
    {
      "icao": "LIPZ",
      "alert": "OK",
      "vis_m": 9999,
      "fzfg": false,
      "metar_trigger": false,
      "taf_trigger": false,
      "metar": "METAR LIPZ 132220Z 29004KT 260V330 CAVOK 26/21 Q1017 NOSIG",
      "taf": "TAF LIPZ 131700Z 1318/1424 16010KT CAVOK"
    },
    {
      "icao": "LIRF",
      "alert": "OK",
      "vis_m": 9999,
      "fzfg": false,
      "metar_trigger": false,
      "taf_trigger": false,
      "metar": "METAR LIRF 132220Z VRB01KT CAVOK 25/24 Q1017 NOSIG",
      "taf": "TAF LIRF 131700Z 1318/1424 27010KT CAVOK"
    },
    {
      "icao": "LIRN",
      "alert": "OK",
      "vis_m": 9999,
      "fzfg": false,
      "metar_trigger": false,
      "taf_trigger": false,
      "metar": "METAR LIRN 132220Z VRB02KT CAVOK 28/17 Q1018 NOSIG",
      "taf": "TAF LIRN 131700Z 1318/1418 VRB05KT CAVOK"
    },
    {
      "icao": "LIRP",
      "alert": "OK",
      "vis_m": 9999,
      "fzfg": false,
      "metar_trigger": false,
      "taf_trigger": false,
      "metar": "METAR LIRP 132145Z 01003KT CAVOK 27/21 Q1017 NOSIG",
      "taf": "TAF LIRP 131700Z 1318/1418 28008KT CAVOK"
    },
    {
      "icao": "LIRZ",
      "alert": "OK",
      "vis_m": 9999,
      "fzfg": false,
      "metar_trigger": false,
      "taf_trigger": false,
      "metar": "METAR LIRZ 132220Z AUTO VRB02KT 9999 NCD 26/17 Q1018",
      "taf": "TAF LIRZ 131700Z 1318/1418 VRB05KT CAVOK"
    },
    {
      "icao": "LJLJ",
      "alert": "OK",
      "vis_m": 9999,
      "fzfg": false,
      "metar_trigger": false,
      "taf_trigger": false,
      "metar": "METAR LJLJ 132230Z VRB02KT CAVOK 21/18 Q1019 NOSIG",
      "taf": "TAF LJLJ 131700Z 1318/1418 23005KT 9999 FEW065"
    },
    {
      "icao": "LKMT",
      "alert": "OK",
      "vis_m": 9999,
      "fzfg": false,
      "metar_trigger": false,
      "taf_trigger": false,
      "metar": "METAR LKMT 132230Z 29002KT CAVOK 18/16 Q1019 NOSIG",
      "taf": "TAF LKMT 131700Z 1318/1418 03008KT CAVOK"
    },
    {
      "icao": "LKPR",
      "alert": "OK",
      "vis_m": 9999,
      "fzfg": false,
      "metar_trigger": false,
      "taf_trigger": false,
      "metar": "METAR LKPR 132230Z 06007KT 010V120 CAVOK 21/15 Q1019 NOSIG",
      "taf": "TAF LKPR 132000Z 1321/1503 07005KT CAVOK"
    },
    {
      "icao": "LLBG",
      "alert": "OK",
      "vis_m": 9999,
      "fzfg": false,
      "metar_trigger": false,
      "taf_trigger": false,
      "metar": "METAR LLBG 132220Z 17005KT 9999 FEW018 26/22 Q1007 NOSIG",
      "taf": "TAF LLBG 131702Z 1318/1418 VRB04KT 9999 FEW020 TX31/1412Z TN23/1403Z"
    },
    {
      "icao": "LMML",
      "alert": "OK",
      "vis_m": 9999,
      "fzfg": false,
      "metar_trigger": false,
      "taf_trigger": false,
      "metar": "METAR LMML 132215Z 06004KT 040V110 CAVOK 26/24 Q1018 NOSIG",
      "taf": "TAF LMML 131700Z 1318/1418 07010KT 9999 FEW015"
    },
    {
      "icao": "LOWW",
      "alert": "OK",
      "vis_m": 9999,
      "fzfg": false,
      "metar_trigger": false,
      "taf_trigger": false,
      "metar": "METAR LOWW 132220Z 15002KT CAVOK 20/13 Q1019 NOSIG",
      "taf": ""
    },
    {
      "icao": "LPFR",
      "alert": "OK",
      "vis_m": 9999,
      "fzfg": false,
      "metar_trigger": false,
      "taf_trigger": false,
      "metar": "METAR LPFR 132230Z 31008KT CAVOK 23/16 Q1015",
      "taf": "TAF LPFR 131700Z 1318/1418 23012KT CAVOK"
    },
    {
      "icao": "LPMA",
      "alert": "OK",
      "vis_m": 9999,
      "fzfg": false,
      "metar_trigger": false,
      "taf_trigger": false,
      "metar": "METAR LPMA 132230Z 00000KT 9999 FEW015 21/17 Q1018",
      "taf": "TAF LPMA 131700Z 1318/1418 VRB05KT 9999 SCT015"
    },
    {
      "icao": "LPPR",
      "alert": "OK",
      "vis_m": 9999,
      "fzfg": false,
      "metar_trigger": false,
      "taf_trigger": false,
      "metar": "METAR LPPR 132230Z 00000KT 9999 FEW047 18/17 Q1017",
      "taf": "TAF LPPR 131700Z 1318/1418 23010KT 9999 SCT020"
    },
    {
      "icao": "LPPS",
      "alert": "OK",
      "vis_m": 9999,
      "fzfg": false,
      "metar_trigger": false,
      "taf_trigger": false,
      "metar": "METAR LPPS 132230Z 30004KT 9999 FEW014 22/18 Q1018",
      "taf": "TAF LPPS 131700Z 1318/1424 27010KT 9999 SCT015 SCT030"
    },
    {
      "icao": "LPPT",
      "alert": "OK",
      "vis_m": 9999,
      "fzfg": false,
      "metar_trigger": false,
      "taf_trigger": false,
      "metar": "METAR LPPT 132230Z 32008KT CAVOK 20/15 Q1016 NOSIG",
      "taf": "TAF LPPT 131700Z 1318/1424 31010KT 9999 FEW025"
    },
    {
      "icao": "LQBK",
      "alert": "OK",
      "vis_m": 9999,
      "fzfg": false,
      "metar_trigger": false,
      "taf_trigger": false,
      "metar": "METAR LQBK 132230Z 00000KT CAVOK 18/14 Q1018 NOSIG",
      "taf": "TAF LQBK 131700Z 1318/1418 16005KT CAVOK TX33/1414Z TN16/1404Z"
    },
    {
      "icao": "LQSA",
      "alert": "OK",
      "vis_m": 9999,
      "fzfg": false,
      "metar_trigger": false,
      "taf_trigger": false,
      "metar": "METAR LQSA 132230Z 13003KT CAVOK 17/14 Q1020",
      "taf": "TAF LQSA 131700Z 1318/1418 VRB02KT CAVOK TX31/1413Z TN14/1403Z"
    },
    {
      "icao": "LQTZ",
      "alert": "OK",
      "vis_m": 9999,
      "fzfg": false,
      "metar_trigger": false,
      "taf_trigger": false,
      "metar": "METAR LQTZ 132230Z 00000KT CAVOK 15/15 Q1019",
      "taf": "TAF LQTZ 131700Z 1318/1418 27006KT 9999 SCT050 TX33/1414Z TN13/1403Z"
    },
    {
      "icao": "LRBC",
      "alert": "OK",
      "vis_m": 9999,
      "fzfg": false,
      "metar_trigger": false,
      "taf_trigger": false,
      "metar": "METAR LRBC 132230Z 00000KT CAVOK 15/14 Q1016",
      "taf": "TAF LRBC 132000Z 1321/1406 VRB04KT CAVOK"
    },
    {
      "icao": "LRBS",
      "alert": "OK",
      "vis_m": 9999,
      "fzfg": false,
      "metar_trigger": false,
      "taf_trigger": false,
      "metar": "METAR LRBS 132230Z 25003KT CAVOK 17/15 Q1016 NOSIG",
      "taf": "TAF LRBS 131700Z 1318/1418 VRB04KT CAVOK"
    },
    {
      "icao": "LRBV",
      "alert": "OK",
      "vis_m": 9999,
      "fzfg": false,
      "metar_trigger": false,
      "taf_trigger": false,
      "metar": "METAR LRBV 132230Z AUTO 20005KT 170V230 9999 SCT096/// BKN110/// 14/12 Q1018",
      "taf": "TAF LRBV 131700Z 1318/1403 VRB04KT 9999 SCT040 SCT060"
    },
    {
      "icao": "LRCL",
      "alert": "OK",
      "vis_m": 9999,
      "fzfg": false,
      "metar_trigger": false,
      "taf_trigger": false,
      "metar": "METAR LRCL 132230Z 27005KT 240V300 CAVOK 19/12 Q1017",
      "taf": "TAF LRCL 132000Z 1321/1406 28006KT CAVOK"
    },
    {
      "icao": "LRCV",
      "alert": "OK",
      "vis_m": 9999,
      "fzfg": false,
      "metar_trigger": false,
      "taf_trigger": false,
      "metar": "METAR LRCV 132230Z 05003KT 030V090 CAVOK 16/15 Q1017",
      "taf": "TAF LRCV 132000Z 1321/1406 VRB04KT CAVOK"
    },
    {
      "icao": "LRIA",
      "alert": "OK",
      "vis_m": 9999,
      "fzfg": false,
      "metar_trigger": false,
      "taf_trigger": false,
      "metar": "METAR LRIA 132230Z 32006KT CAVOK 18/13 Q1015",
      "taf": "TAF LRIA 132000Z 1321/1406 30006KT CAVOK"
    },
    {
      "icao": "LROP",
      "alert": "OK",
      "vis_m": 9999,
      "fzfg": false,
      "metar_trigger": false,
      "taf_trigger": false,
      "metar": "METAR LROP 132230Z 01003KT 330V120 CAVOK 17/15 Q1016 NOSIG",
      "taf": "TAF LROP 131700Z 1318/1418 VRB04KT CAVOK"
    },
    {
      "icao": "LRSB",
      "alert": "OK",
      "vis_m": 9999,
      "fzfg": false,
      "metar_trigger": false,
      "taf_trigger": false,
      "metar": "METAR LRSB 132230Z 29003KT 240V320 CAVOK 18/12 Q1017",
      "taf": "TAF LRSB 131700Z 1318/1418 VRB04KT 9999 SCT050"
    },
    {
      "icao": "LRSM",
      "alert": "OK",
      "vis_m": 9999,
      "fzfg": false,
      "metar_trigger": false,
      "taf_trigger": false,
      "metar": "METAR LRSM 132230Z AUTO 28005KT 9999 FEW090/// BKN120/// 18/15 Q1017",
      "taf": "TAF LRSM 131400Z 1315/1324 30007KT CAVOK"
    },
    {
      "icao": "LRSV",
      "alert": "OK",
      "vis_m": 9999,
      "fzfg": false,
      "metar_trigger": false,
      "taf_trigger": false,
      "metar": "METAR LRSV 132230Z 27009KT 9999 BKN012 17/15 Q1016",
      "taf": "TAF LRSV 132000Z 1321/1406 32010KT CAVOK"
    },
    {
      "icao": "LRTM",
      "alert": "OK",
      "vis_m": 9999,
      "fzfg": false,
      "metar_trigger": false,
      "taf_trigger": false,
      "metar": "METAR LRTM 132230Z 23005KT CAVOK 18/15 Q1017",
      "taf": "TAF LRTM 132000Z 1321/1406 VRB04KT CAVOK"
    },
    {
      "icao": "LRTR",
      "alert": "OK",
      "vis_m": 9999,
      "fzfg": false,
      "metar_trigger": false,
      "taf_trigger": false,
      "metar": "METAR LRTR 132230Z 35002KT CAVOK 17/12 Q1017 NOSIG",
      "taf": "TAF LRTR 131700Z 1318/1418 35008KT CAVOK"
    },
    {
      "icao": "LTAC",
      "alert": "OK",
      "vis_m": 9999,
      "fzfg": false,
      "metar_trigger": false,
      "taf_trigger": false,
      "metar": "METAR LTAC 132220Z 05004KT CAVOK 19/13 Q1013 NOSIG RMK RWY21C 09003KT 060V120 RWY03L 05003KT RWY21R 06003KT 020V100 RWY03R 00000KT RWY21L 05006KT",
      "taf": "TAF LTAC 131640Z 1318/1418 VRB02KT CAVOK"
    },
    {
      "icao": "LTFM",
      "alert": "OK",
      "vis_m": 9999,
      "fzfg": false,
      "metar_trigger": false,
      "taf_trigger": false,
      "metar": "METAR LTFM 132220Z VRB05KT 9999 VCTS SCT013 FEW018CB BKN025 22/19 Q1013 NOSIG RMK RWY17L 32008KT 270V350 RWY34L 27006KT 240V300 RWY16R 26006KT RWY36 22004KT 170V250 RWY18 35010KT",
      "taf": ""
    },
    {
      "icao": "LUKK",
      "alert": "OK",
      "vis_m": 9999,
      "fzfg": false,
      "metar_trigger": false,
      "taf_trigger": false,
      "metar": "METAR LUKK 132230Z 31003KT CAVOK 16/13 Q1014 NOSIG",
      "taf": "TAF LUKK 131717Z 1318/1418 33006KT CAVOK"
    },
    {
      "icao": "LWOH",
      "alert": "OK",
      "vis_m": null,
      "fzfg": false,
      "metar_trigger": false,
      "taf_trigger": false,
      "metar": "",
      "taf": "TAF LWOH 132055Z 1321/1421 35006KT CAVOK"
    },
    {
      "icao": "LWSK",
      "alert": "OK",
      "vis_m": 9999,
      "fzfg": false,
      "metar_trigger": false,
      "taf_trigger": false,
      "metar": "METAR LWSK 132220Z 01003KT 9999 FEW080 19/13 Q1018 NOSIG",
      "taf": "TAF LWSK 132055Z 1321/1421 01005KT CAVOK"
    },
    {
      "icao": "LYBE",
      "alert": "OK",
      "vis_m": 9999,
      "fzfg": false,
      "metar_trigger": false,
      "taf_trigger": false,
      "metar": "METAR LYBE 132230Z 14003KT CAVOK 19/14 Q1018 NOSIG",
      "taf": "TAF LYBE 131700Z 1318/1418 03006KT CAVOK TX31/1414Z TN16/1403Z"
    },
    {
      "icao": "LYNI",
      "alert": "OK",
      "vis_m": 9999,
      "fzfg": false,
      "metar_trigger": false,
      "taf_trigger": false,
      "metar": "METAR LYNI 132230Z 09003KT 040V110 CAVOK 18/13 Q1018 NOSIG",
      "taf": "TAF LYNI 131700Z 1318/1418 35007KT CAVOK TX30/1414Z TN14/1403Z"
    },
    {
      "icao": "LYPG",
      "alert": "OK",
      "vis_m": 9999,
      "fzfg": false,
      "metar_trigger": false,
      "taf_trigger": false,
      "metar": "METAR LYPG 132230Z 31007KT CAVOK 25/11 Q1016 NOSIG",
      "taf": "TAF LYPG 131700Z 1318/1418 36012KT CAVOK TX36/1415Z TN24/1403Z"
    },
    {
      "icao": "LZIB",
      "alert": "OK",
      "vis_m": 9999,
      "fzfg": false,
      "metar_trigger": false,
      "taf_trigger": false,
      "metar": "METAR LZIB 132230Z 05005KT CAVOK 20/14 Q1018 NOSIG",
      "taf": ""
    },
    {
      "icao": "LZKZ",
      "alert": "OK",
      "vis_m": 9999,
      "fzfg": false,
      "metar_trigger": false,
      "taf_trigger": false,
      "metar": "METAR LZKZ 132230Z VRB03KT CAVOK 18/15 Q1018 NOSIG",
      "taf": ""
    },
    {
      "icao": "LZTT",
      "alert": "OK",
      "vis_m": 9999,
      "fzfg": false,
      "metar_trigger": false,
      "taf_trigger": false,
      "metar": "METAR LZTT 132230Z VRB01KT CAVOK 12/12 Q1021",
      "taf": "TAF LZTT 131715Z 1318/1418 VRB02KT 9999 FEW030"
    },
    {
      "icao": "OEJN",
      "alert": "OK",
      "vis_m": 9999,
      "fzfg": false,
      "metar_trigger": false,
      "taf_trigger": false,
      "metar": "METAR OEJN 132200Z 35004KT CAVOK 30/22 Q1002 NOSIG",
      "taf": "TAF OEJN 131700Z 1318/1424 36005KT CAVOK"
    },
    {
      "icao": "OEMA",
      "alert": "OK",
      "vis_m": 9999,
      "fzfg": false,
      "metar_trigger": false,
      "taf_trigger": false,
      "metar": "METAR OEMA 132200Z 01004KT CAVOK 37/09 Q1008 NOSIG",
      "taf": "TAF OEMA 131700Z 1318/1424 28010KT CAVOK"
    },
    {
      "icao": "OJAI",
      "alert": "OK",
      "vis_m": 5000,
      "fzfg": false,
      "metar_trigger": false,
      "taf_trigger": false,
      "metar": "METAR OJAI 132200Z 27004KT 5000 HZ NSC 20/12 Q1011 NOSIG",
      "taf": "TAF OJAI 131647Z 1318/1424 27010KT 5000 HZ NSC"
    },
    {
      "icao": "OMAA",
      "alert": "OK",
      "vis_m": 9999,
      "fzfg": false,
      "metar_trigger": false,
      "taf_trigger": false,
      "metar": "METAR OMAA 132230Z 19003KT CAVOK 32/25 Q0996 NOSIG",
      "taf": "TAF OMAA 131700Z 1318/1500 VRB02KT 8000 NSC"
    },
    {
      "icao": "OMDB",
      "alert": "OK",
      "vis_m": 9999,
      "fzfg": false,
      "metar_trigger": false,
      "taf_trigger": false,
      "metar": "METAR OMDB 132230Z 19004KT 150V220 CAVOK 34/24 Q0996 NOSIG",
      "taf": "TAF OMDB 131700Z 1318/1500 VRB02KT 8000 NSC"
    },
    {
      "icao": "UAAA",
      "alert": "OK",
      "vis_m": 9999,
      "fzfg": false,
      "metar_trigger": false,
      "taf_trigger": false,
      "metar": "METAR UAAA 132230Z 14002MPS 9999 FEW050CB BKN100 23/14 Q1008 NOSIG",
      "taf": "TAF UAAA 131701Z 1318/1418 16003MPS 9999 SCT050CB BKN100 TX33/1410Z TN21/1401Z"
    },
    {
      "icao": "UBBB",
      "alert": "OK",
      "vis_m": 9999,
      "fzfg": false,
      "metar_trigger": false,
      "taf_trigger": false,
      "metar": "METAR UBBB 132230Z 33006KT CAVOK 24/20 Q1007 NOSIG",
      "taf": "TAF UBBB 131700Z 1318/1418 32008KT CAVOK TX34/1410Z TN23/1401Z"
    },
    {
      "icao": "UDSG",
      "alert": "OK",
      "vis_m": 9999,
      "fzfg": false,
      "metar_trigger": false,
      "taf_trigger": false,
      "metar": "METAR UDSG 132230Z 08004KT 9999 FEW049 19/15 Q1015 NOSIG",
      "taf": "TAF UDSG 131658Z 1318/1418 VRB06KT 9999 FEW050"
    },
    {
      "icao": "UDYZ",
      "alert": "OK",
      "vis_m": 9999,
      "fzfg": false,
      "metar_trigger": false,
      "taf_trigger": false,
      "metar": "METAR UDYZ 132230Z 34008KT 9999 NSC 26/16 Q1009 NOSIG",
      "taf": "TAF UDYZ 131700Z 1318/1418 02006KT 9999 FEW040"
    },
    {
      "icao": "UGKO",
      "alert": "OK",
      "vis_m": 9999,
      "fzfg": false,
      "metar_trigger": false,
      "taf_trigger": false,
      "metar": "METAR UGKO 132230Z 23003KT 9999 SCT019 BKN021 21/20 Q1009 NOSIG",
      "taf": "TAF UGKO 131700Z 1318/1418 26007KT 9999 SCT025 OVC040 TX26/1411Z TN20/1402Z"
    }
  ]
}