{
  "ts_utc": "2026-05-01T16:13:16Z",
  "threshold_m": 150,
  "source": "stations_override.txt (ICAO list) + aviationweather.gov (METAR/TAF raw)",
  "station_count": 159,
  "stations": [
    {
      "icao": "BIKF",
      "alert": "OK",
      "vis_m": 9999,
      "fzfg": false,
      "metar_trigger": false,
      "taf_trigger": false,
      "metar": "METAR BIKF 011600Z 32011KT 290V360 9999 BKN036 03/M06 Q1018",
      "taf": "TAF BIKF 011330Z 0115/0215 32015KT 9999 SCT030 TX06/0215Z TNM01/0204Z"
    },
    {
      "icao": "BKPR",
      "alert": "OK",
      "vis_m": 9999,
      "fzfg": false,
      "metar_trigger": false,
      "taf_trigger": false,
      "metar": "METAR BKPR 011600Z 01011KT 9999 BKN060 09/M00 Q1022 NOSIG",
      "taf": "TAF BKPR 011130Z 0112/0212 01010KT 9999 SCT050"
    },
    {
      "icao": "EBCI",
      "alert": "OK",
      "vis_m": 9999,
      "fzfg": false,
      "metar_trigger": false,
      "taf_trigger": false,
      "metar": "METAR EBCI 011550Z 20006KT 170V250 CAVOK 23/M04 Q1021 NOSIG",
      "taf": "TAF EBCI 011110Z 0112/0218 15006KT CAVOK"
    },
    {
      "icao": "EDDB",
      "alert": "OK",
      "vis_m": 9999,
      "fzfg": false,
      "metar_trigger": false,
      "taf_trigger": false,
      "metar": "METAR EDDB 011550Z AUTO VRB02KT CAVOK 24/04 Q1026 NOSIG",
      "taf": "TAF EDDB 011100Z 0112/0212 33004KT CAVOK"
    },
    {
      "icao": "EDDH",
      "alert": "OK",
      "vis_m": 9999,
      "fzfg": false,
      "metar_trigger": false,
      "taf_trigger": false,
      "metar": "METAR EDDH 011550Z AUTO 13013KT CAVOK 23/05 Q1025 NOSIG",
      "taf": "TAF EDDH 011100Z 0112/0218 14007KT CAVOK"
    },
    {
      "icao": "EDDK",
      "alert": "OK",
      "vis_m": 9999,
      "fzfg": false,
      "metar_trigger": false,
      "taf_trigger": false,
      "metar": "METAR EDDK 011550Z AUTO 12012KT 090V160 CAVOK 23/02 Q1022 NOSIG",
      "taf": "TAF EDDK 011100Z 0112/0218 13013KT CAVOK"
    },
    {
      "icao": "EDDN",
      "alert": "OK",
      "vis_m": 9999,
      "fzfg": false,
      "metar_trigger": false,
      "taf_trigger": false,
      "metar": "METAR EDDN 011550Z AUTO 13005KT 080V220 CAVOK 22/04 Q1025 NOSIG",
      "taf": "TAF EDDN 011100Z 0112/0212 11009KT CAVOK"
    },
    {
      "icao": "EDDS",
      "alert": "OK",
      "vis_m": 9999,
      "fzfg": false,
      "metar_trigger": false,
      "taf_trigger": false,
      "metar": "METAR EDDS 011550Z AUTO 09009KT 050V150 CAVOK 23/01 Q1023 NOSIG",
      "taf": "TAF EDDS 011100Z 0112/0212 12008KT CAVOK"
    },
    {
      "icao": "EDFH",
      "alert": "OK",
      "vis_m": 9999,
      "fzfg": false,
      "metar_trigger": false,
      "taf_trigger": false,
      "metar": "METAR EDFH 011550Z 13012KT 080V150 CAVOK 19/M01 Q1024",
      "taf": "TAF EDFH 011100Z 0112/0212 13013KT CAVOK"
    },
    {
      "icao": "EDJA",
      "alert": "OK",
      "vis_m": 9999,
      "fzfg": false,
      "metar_trigger": false,
      "taf_trigger": false,
      "metar": "METAR EDJA 011550Z 06010KT 030V110 CAVOK 20/01 Q1024",
      "taf": "TAF EDJA 011400Z 0115/0124 07010KT CAVOK"
    },
    {
      "icao": "EDLW",
      "alert": "OK",
      "vis_m": 9999,
      "fzfg": false,
      "metar_trigger": false,
      "taf_trigger": false,
      "metar": "METAR EDLW 011550Z 12011KT 090V160 CAVOK 23/02 Q1022",
      "taf": "TAF EDLW 011100Z 0112/0212 13011KT CAVOK"
    },
    {
      "icao": "EDNY",
      "alert": "OK",
      "vis_m": 9999,
      "fzfg": false,
      "metar_trigger": false,
      "taf_trigger": false,
      "metar": "METAR EDNY 011550Z 24005KT CAVOK 22/03 Q1023",
      "taf": "TAF EDNY 011400Z 0115/0124 21006KT CAVOK"
    },
    {
      "icao": "EDSB",
      "alert": "OK",
      "vis_m": 9999,
      "fzfg": false,
      "metar_trigger": false,
      "taf_trigger": false,
      "metar": "METAR EDSB 011550Z 35008KT CAVOK 24/02 Q1021",
      "taf": "TAF EDSB 011100Z 0112/0212 VRB03KT CAVOK"
    },
    {
      "icao": "EETN",
      "alert": "OK",
      "vis_m": 9999,
      "fzfg": false,
      "metar_trigger": false,
      "taf_trigger": false,
      "metar": "METAR EETN 011550Z 27014KT CAVOK 16/03 Q1018 NOSIG",
      "taf": "TAF EETN 011130Z 0112/0212 29012KT CAVOK"
    },
    {
      "icao": "EFTU",
      "alert": "OK",
      "vis_m": 9999,
      "fzfg": false,
      "metar_trigger": false,
      "taf_trigger": false,
      "metar": "METAR EFTU 011550Z AUTO 22008KT 190V260 CAVOK 17/03 Q1016",
      "taf": "TAF EFTU 011427Z 0115/0215 25010KT CAVOK"
    },
    {
      "icao": "EGBB",
      "alert": "OK",
      "vis_m": 9999,
      "fzfg": false,
      "metar_trigger": false,
      "taf_trigger": false,
      "metar": "METAR EGBB 011550Z 23009KT 9999 SCT048 22/12 Q1018",
      "taf": "TAF EGBB 011056Z 0112/0212 18010KT 9999 FEW040"
    },
    {
      "icao": "EGGP",
      "alert": "OK",
      "vis_m": 9999,
      "fzfg": false,
      "metar_trigger": false,
      "taf_trigger": false,
      "metar": "METAR EGGP 011550Z 29006KT 9999 -RA BKN037 14/09 Q1019",
      "taf": "TAF EGGP 011057Z 0112/0212 17006KT CAVOK"
    },
    {
      "icao": "EGGW",
      "alert": "OK",
      "vis_m": 9999,
      "fzfg": false,
      "metar_trigger": false,
      "taf_trigger": false,
      "metar": "METAR EGGW 011550Z AUTO 19008KT 150V230 9999 NCD 23/10 Q1018",
      "taf": "TAF EGGW 011053Z 0112/0212 16008KT CAVOK"
    },
    {
      "icao": "EGKK",
      "alert": "OK",
      "vis_m": 9999,
      "fzfg": false,
      "metar_trigger": false,
      "taf_trigger": false,
      "metar": "METAR EGKK 011550Z 22009KT 180V260 9999 FEW027 21/13 Q1019",
      "taf": "TAF EGKK 011054Z 0112/0218 14005KT CAVOK"
    },
    {
      "icao": "EGNM",
      "alert": "OK",
      "vis_m": 9999,
      "fzfg": false,
      "metar_trigger": false,
      "taf_trigger": false,
      "metar": "METAR EGNM 011550Z 31006KT CAVOK 20/10 Q1017",
      "taf": "TAF EGNM 011057Z 0112/0212 15008KT 9999 SCT045"
    },
    {
      "icao": "EGPD",
      "alert": "OK",
      "vis_m": 9999,
      "fzfg": false,
      "metar_trigger": false,
      "taf_trigger": false,
      "metar": "METAR EGPD 011550Z COR AUTO 22011KT 9999 NCD 19/07 Q1015 NOSIG",
      "taf": "TAF EGPD 011100Z 0112/0212 15006KT CAVOK"
    },
    {
      "icao": "EGPF",
      "alert": "OK",
      "vis_m": 9999,
      "fzfg": false,
      "metar_trigger": false,
      "taf_trigger": false,
      "metar": "METAR EGPF 011550Z AUTO 20006KT 9999 OVC039 17/09 Q1017",
      "taf": "TAF EGPF 011055Z 0112/0212 20005KT 9999 BKN045"
    },
    {
      "icao": "EHBK",
      "alert": "OK",
      "vis_m": 9999,
      "fzfg": false,
      "metar_trigger": false,
      "taf_trigger": false,
      "metar": "METAR EHBK 011555Z AUTO 18008KT 140V220 9999 NCD 24/M00 Q1021 NOSIG",
      "taf": "TAF EHBK 011112Z 0112/0218 13010KT CAVOK"
    },
    {
      "icao": "EHEH",
      "alert": "OK",
      "vis_m": 9999,
      "fzfg": false,
      "metar_trigger": false,
      "taf_trigger": false,
      "metar": "METAR EHEH 011555Z AUTO 13007KT 050V220 9999 NCD 25/01 Q1021 BLU NOSIG",
      "taf": "TAF EHEH 011143Z 0112/0218 13012G22KT CAVOK"
    },
    {
      "icao": "EKBI",
      "alert": "OK",
      "vis_m": 9999,
      "fzfg": false,
      "metar_trigger": false,
      "taf_trigger": false,
      "metar": "METAR EKBI 011550Z AUTO 22009KT 190V250 9999 NCD 21/05 Q1025",
      "taf": "TAF EKBI 011427Z 0115/0215 21010KT CAVOK"
    },
    {
      "icao": "EKCH",
      "alert": "OK",
      "vis_m": 9999,
      "fzfg": false,
      "metar_trigger": false,
      "taf_trigger": false,
      "metar": "METAR EKCH 011550Z AUTO 07002KT 9999 NCD 18/03 Q1026 NOSIG",
      "taf": "TAF EKCH 011427Z 0115/0215 VRB04KT CAVOK"
    },
    {
      "icao": "ENAL",
      "alert": "OK",
      "vis_m": 9999,
      "fzfg": false,
      "metar_trigger": false,
      "taf_trigger": false,
      "metar": "METAR ENAL 011550Z 26016KT CAVOK 10/05 Q1014",
      "taf": "TAF ENAL 011400Z 0115/0124 22018KT CAVOK"
    },
    {
      "icao": "ENBR",
      "alert": "OK",
      "vis_m": 9999,
      "fzfg": false,
      "metar_trigger": false,
      "taf_trigger": false,
      "metar": "METAR ENBR 011550Z 18016KT CAVOK 13/05 Q1019 NOSIG RMK WIND 1200FT 18023KT",
      "taf": "TAF ENBR 011100Z 0112/0212 16018KT CAVOK"
    },
    {
      "icao": "ENGM",
      "alert": "OK",
      "vis_m": 9999,
      "fzfg": false,
      "metar_trigger": false,
      "taf_trigger": false,
      "metar": "METAR ENGM 011550Z 20015KT CAVOK 21/03 Q1018 NOSIG",
      "taf": "TAF ENGM 011100Z 0112/0212 22012KT CAVOK"
    },
    {
      "icao": "ENHD",
      "alert": "OK",
      "vis_m": 9999,
      "fzfg": false,
      "metar_trigger": false,
      "taf_trigger": false,
      "metar": "METAR ENHD 011550Z 18015KT CAVOK 13/05 Q1020",
      "taf": "TAF ENHD 011400Z 0115/0122 17015KT CAVOK"
    },
    {
      "icao": "ENTC",
      "alert": "OK",
      "vis_m": 9999,
      "fzfg": false,
      "metar_trigger": false,
      "taf_trigger": false,
      "metar": "METAR ENTC 011550Z 20013KT CAVOK 07/01 Q1005 NOSIG RMK WIND 2600FT 22014KT",
      "taf": ""
    },
    {
      "icao": "ENTO",
      "alert": "OK",
      "vis_m": 9999,
      "fzfg": false,
      "metar_trigger": false,
      "taf_trigger": false,
      "metar": "METAR ENTO 011550Z 20015KT CAVOK 17/04 Q1020 NOSIG",
      "taf": "TAF ENTO 011100Z 0112/0212 20012KT CAVOK"
    },
    {
      "icao": "ENVA",
      "alert": "OK",
      "vis_m": 9999,
      "fzfg": false,
      "metar_trigger": false,
      "taf_trigger": false,
      "metar": "METAR ENVA 011550Z 24011KT CAVOK 14/05 Q1014 NOSIG RMK WIND 670FT 30013KT",
      "taf": "TAF ENVA 011100Z 0112/0212 26010KT CAVOK"
    },
    {
      "icao": "ENZV",
      "alert": "OK",
      "vis_m": 9999,
      "fzfg": false,
      "metar_trigger": false,
      "taf_trigger": false,
      "metar": "METAR ENZV 011550Z 18015KT CAVOK 17/05 Q1020 NOSIG",
      "taf": "TAF ENZV 011100Z 0112/0212 18018KT CAVOK"
    },
    {
      "icao": "EPGD",
      "alert": "OK",
      "vis_m": 9999,
      "fzfg": false,
      "metar_trigger": false,
      "taf_trigger": false,
      "metar": "METAR EPGD 011600Z 12005KT CAVOK 19/06 Q1024",
      "taf": "TAF EPGD 011130Z 0112/0212 06010KT CAVOK"
    },
    {
      "icao": "EPKK",
      "alert": "OK",
      "vis_m": 9999,
      "fzfg": false,
      "metar_trigger": false,
      "taf_trigger": false,
      "metar": "METAR EPKK 011600Z 01008KT CAVOK 19/04 Q1023",
      "taf": "TAF EPKK 011430Z 0115/0215 02006KT 9999 BKN060"
    },
    {
      "icao": "EPKT",
      "alert": "OK",
      "vis_m": 9999,
      "fzfg": false,
      "metar_trigger": false,
      "taf_trigger": false,
      "metar": "METAR EPKT 011600Z 36010KT CAVOK 18/03 Q1024",
      "taf": "TAF EPKT 011130Z 0112/0212 32012KT CAVOK"
    },
    {
      "icao": "EPLB",
      "alert": "OK",
      "vis_m": 9999,
      "fzfg": false,
      "metar_trigger": false,
      "taf_trigger": false,
      "metar": "METAR EPLB 011600Z 04008KT CAVOK 16/05 Q1024",
      "taf": "TAF EPLB 011130Z 0112/0212 35010KT 9999 SCT046"
    },
    {
      "icao": "EPMO",
      "alert": "OK",
      "vis_m": 9999,
      "fzfg": false,
      "metar_trigger": false,
      "taf_trigger": false,
      "metar": "METAR EPMO 011600Z 36007KT 320V030 CAVOK 20/03 Q1024",
      "taf": "TAF EPMO 011130Z 0112/0212 36010KT 9999 SCT048"
    },
    {
      "icao": "EPPO",
      "alert": "OK",
      "vis_m": 9999,
      "fzfg": false,
      "metar_trigger": false,
      "taf_trigger": false,
      "metar": "METAR EPPO 011600Z 08003KT CAVOK 23/03 Q1025",
      "taf": "TAF EPPO 011130Z 0112/0212 32006KT CAVOK"
    },
    {
      "icao": "EPRA",
      "alert": "OK",
      "vis_m": 9999,
      "fzfg": false,
      "metar_trigger": false,
      "taf_trigger": false,
      "metar": "METAR EPRA 011600Z 03009KT 360V060 CAVOK 19/01 Q1023",
      "taf": "TAF EPRA 011430Z 0115/0124 01010KT CAVOK"
    },
    {
      "icao": "EPRZ",
      "alert": "OK",
      "vis_m": 9999,
      "fzfg": false,
      "metar_trigger": false,
      "taf_trigger": false,
      "metar": "METAR EPRZ 011600Z 32009KT CAVOK 18/02 Q1023",
      "taf": "TAF EPRZ 011130Z 0112/0212 31011KT CAVOK"
    },
    {
      "icao": "EPSC",
      "alert": "OK",
      "vis_m": 9999,
      "fzfg": false,
      "metar_trigger": false,
      "taf_trigger": false,
      "metar": "METAR EPSC 011600Z 34007KT 310V020 CAVOK 22/02 Q1026",
      "taf": ""
    },
    {
      "icao": "EPSY",
      "alert": "OK",
      "vis_m": 9999,
      "fzfg": false,
      "metar_trigger": false,
      "taf_trigger": false,
      "metar": "METAR EPSY 011600Z 35010KT 300V010 CAVOK 19/04 Q1024",
      "taf": "TAF EPSY 011430Z 0115/0124 01010KT CAVOK"
    },
    {
      "icao": "EPWA",
      "alert": "OK",
      "vis_m": 9999,
      "fzfg": false,
      "metar_trigger": false,
      "taf_trigger": false,
      "metar": "METAR EPWA 011600Z 34008KT 310V020 CAVOK 20/03 Q1024 NOSIG",
      "taf": "TAF EPWA 011430Z 0115/0215 35010KT CAVOK"
    },
    {
      "icao": "EPWR",
      "alert": "OK",
      "vis_m": 9999,
      "fzfg": false,
      "metar_trigger": false,
      "taf_trigger": false,
      "metar": "METAR EPWR 011600Z 35009KT 320V020 CAVOK 22/02 Q1025",
      "taf": "TAF EPWR 011430Z 0115/0215 33010KT CAVOK"
    },
    {
      "icao": "ESGG",
      "alert": "OK",
      "vis_m": 9999,
      "fzfg": false,
      "metar_trigger": false,
      "taf_trigger": false,
      "metar": "METAR ESGG 011550Z 27007KT 240V300 CAVOK 18/02 Q1024",
      "taf": "TAF ESGG 011430Z 0115/0215 27012KT CAVOK"
    },
    {
      "icao": "ESKN",
      "alert": "OK",
      "vis_m": 9999,
      "fzfg": false,
      "metar_trigger": false,
      "taf_trigger": false,
      "metar": "METAR ESKN 011550Z 26016KT CAVOK 24/00 Q1019",
      "taf": "TAF ESKN 011430Z 0115/0215 28015KT CAVOK"
    },
    {
      "icao": "ESMS",
      "alert": "OK",
      "vis_m": 9999,
      "fzfg": false,
      "metar_trigger": false,
      "taf_trigger": false,
      "metar": "METAR ESMS 011550Z 30010KT CAVOK 20/03 Q1026",
      "taf": "TAF ESMS 011427Z 0115/0215 31010KT CAVOK"
    },
    {
      "icao": "ESSA",
      "alert": "OK",
      "vis_m": 9999,
      "fzfg": false,
      "metar_trigger": false,
      "taf_trigger": false,
      "metar": "METAR ESSA 011550Z 24020KT CAVOK 23/M00 Q1016 NOSIG",
      "taf": "TAF ESSA 011430Z 0115/0215 24015KT CAVOK"
    },
    {
      "icao": "EYKA",
      "alert": "OK",
      "vis_m": 9999,
      "fzfg": false,
      "metar_trigger": false,
      "taf_trigger": false,
      "metar": "METAR EYKA 011550Z VRB02KT CAVOK 18/05 Q1022",
      "taf": "TAF EYKA 011100Z 0112/0212 30006KT 9000 FEW040"
    },
    {
      "icao": "EYPA",
      "alert": "OK",
      "vis_m": 9999,
      "fzfg": false,
      "metar_trigger": false,
      "taf_trigger": false,
      "metar": "METAR EYPA 011550Z 22005KT 190V260 CAVOK 10/04 Q1023",
      "taf": "TAF EYPA 011100Z 0112/0212 23005KT 9000 NSC"
    },
    {
      "icao": "EYVI",
      "alert": "OK",
      "vis_m": 9999,
      "fzfg": false,
      "metar_trigger": false,
      "taf_trigger": false,
      "metar": "METAR EYVI 011550Z VRB02KT CAVOK 16/04 Q1023 NOSIG",
      "taf": "TAF EYVI 011100Z 0112/0212 VRB05KT 9000 SCT040"
    },
    {
      "icao": "GCFV",
      "alert": "OK",
      "vis_m": 9999,
      "fzfg": false,
      "metar_trigger": false,
      "taf_trigger": false,
      "metar": "METAR GCFV 011600Z 05008KT 020V080 CAVOK 21/15 Q1018",
      "taf": "TAF GCFV 011400Z 0115/0215 05008KT 9999 FEW025 TX22/0214Z TN16/0206Z"
    },
    {
      "icao": "GCLP",
      "alert": "OK",
      "vis_m": 9999,
      "fzfg": false,
      "metar_trigger": false,
      "taf_trigger": false,
      "metar": "METAR GCLP 011600Z 06006KT 020V120 9999 FEW030 22/14 Q1019 NOSIG",
      "taf": "TAF GCLP 011400Z 0115/0215 08005KT 9999 FEW025 TX23/0214Z TN16/0206Z"
    },
    {
      "icao": "GCTS",
      "alert": "OK",
      "vis_m": 9999,
      "fzfg": false,
      "metar_trigger": false,
      "taf_trigger": false,
      "metar": "METAR GCTS 011600Z 22008KT 190V250 9999 FEW030 22/16 Q1019 NOSIG",
      "taf": "TAF GCTS 011400Z 0115/0215 22010KT 9999 SCT030 TX24/0214Z TN17/0206Z"
    },
    {
      "icao": "GMAD",
      "alert": "OK",
      "vis_m": 9999,
      "fzfg": false,
      "metar_trigger": false,
      "taf_trigger": false,
      "metar": "METAR GMAD 011600Z 25016KT CAVOK 24/13 Q1015 NOSIG",
      "taf": "TAF GMAD 011100Z 0112/0218 27010KT 8000 SCT030"
    },
    {
      "icao": "GMMN",
      "alert": "OK",
      "vis_m": 9999,
      "fzfg": false,
      "metar_trigger": false,
      "taf_trigger": false,
      "metar": "METAR GMMN 011600Z 36013KT 320V030 CAVOK 22/15 Q1017 NOSIG",
      "taf": "TAF GMMN 011100Z 0112/0218 36012KT CAVOK"
    },
    {
      "icao": "GMMX",
      "alert": "OK",
      "vis_m": 9999,
      "fzfg": false,
      "metar_trigger": false,
      "taf_trigger": false,
      "metar": "METAR GMMX 011530Z VRB04KT 9999 FEW026 SCT200 29/14 Q1015 NOSIG",
      "taf": "TAF GMMX 011100Z 0112/0218 34006KT 8000 SCT026"
    },
    {
      "icao": "HEGN",
      "alert": "OK",
      "vis_m": 9999,
      "fzfg": false,
      "metar_trigger": false,
      "taf_trigger": false,
      "metar": "METAR HEGN 011600Z 33015KT CAVOK 30/03 Q1009 NOSIG",
      "taf": "TAF HEGN 011100Z 0112/0218 36013KT CAVOK"
    },
    {
      "icao": "HEMA",
      "alert": "OK",
      "vis_m": 9999,
      "fzfg": false,
      "metar_trigger": false,
      "taf_trigger": false,
      "metar": "METAR HEMA 011600Z 04006KT CAVOK 26/11 Q1010 NOSIG",
      "taf": "TAF HEMA 011100Z 0112/0218 35014KT CAVOK"
    },
    {
      "icao": "HESH",
      "alert": "OK",
      "vis_m": 9999,
      "fzfg": false,
      "metar_trigger": false,
      "taf_trigger": false,
      "metar": "METAR HESH 011600Z 03008KT CAVOK 29/08 Q1008 NOSIG",
      "taf": "TAF HESH 011100Z 0112/0218 02015KT CAVOK"
    },
    {
      "icao": "HESX",
      "alert": "OK",
      "vis_m": 9999,
      "fzfg": false,
      "metar_trigger": false,
      "taf_trigger": false,
      "metar": "METAR HESX 011600Z 02008KT CAVOK 26/07 Q1011 NOSIG",
      "taf": "TAF HESX 011100Z 0112/0218 31008KT CAVOK"
    },
    {
      "icao": "LATI",
      "alert": "OK",
      "vis_m": 9999,
      "fzfg": false,
      "metar_trigger": false,
      "taf_trigger": false,
      "metar": "METAR LATI 011550Z 03013KT 010V070 CAVOK 18/M01 Q1018 NOSIG",
      "taf": "TAF LATI 011100Z 0112/0212 03012KT CAVOK TX22/0212Z TN04/0204Z"
    },
    {
      "icao": "LBPD",
      "alert": "OK",
      "vis_m": 9999,
      "fzfg": false,
      "metar_trigger": false,
      "taf_trigger": false,
      "metar": "METAR LBPD 011600Z AUTO 28004KT 9999 FEW065/// OVC075/// 09/03 Q1023 NOSIG",
      "taf": "TAF LBPD 011100Z 0112/0212 VRB03KT 9999 SCT030 OVC060"
    },
    {
      "icao": "LBSF",
      "alert": "OK",
      "vis_m": 9999,
      "fzfg": false,
      "metar_trigger": false,
      "taf_trigger": false,
      "metar": "METAR LBSF 011600Z AUTO 06007KT 9999 OVC079/// 08/M01 Q1023 NOSIG",
      "taf": "TAF LBSF 011100Z 0112/0212 05012KT 9999 SCT020 BKN045"
    },
    {
      "icao": "LBWN",
      "alert": "OK",
      "vis_m": 9999,
      "fzfg": false,
      "metar_trigger": false,
      "taf_trigger": false,
      "metar": "METAR LBWN 011600Z AUTO 15004KT 110V250 9999 NSC 10/01 Q1023 NOSIG",
      "taf": "TAF LBWN 011100Z 0112/0212 03012KT 9999 SCT030 BKN045"
    },
    {
      "icao": "LCLK",
      "alert": "OK",
      "vis_m": 9999,
      "fzfg": false,
      "metar_trigger": false,
      "taf_trigger": false,
      "metar": "METAR LCLK 011600Z 22012KT CAVOK 22/17 Q1010 NOSIG",
      "taf": "TAF LCLK 011130Z 0112/0212 21016KT 9999 FEW020"
    },
    {
      "icao": "LCPH",
      "alert": "OK",
      "vis_m": 9999,
      "fzfg": false,
      "metar_trigger": false,
      "taf_trigger": false,
      "metar": "METAR LCPH 011600Z 32010KT 9999 FEW025 20/15 Q1011 NOSIG",
      "taf": "TAF LCPH 011130Z 0112/0212 28014KT 9999 FEW020"
    },
    {
      "icao": "LEAL",
      "alert": "OK",
      "vis_m": 9999,
      "fzfg": false,
      "metar_trigger": false,
      "taf_trigger": false,
      "metar": "METAR LEAL 011600Z 10011KT 070V130 9999 FEW010 22/16 Q1020 NOSIG",
      "taf": "TAF LEAL 011100Z 0112/0212 VRB04KT 9999 SCT025 SCT060 TX23/0113Z TN16/0206Z"
    },
    {
      "icao": "LEBB",
      "alert": "OK",
      "vis_m": 9999,
      "fzfg": false,
      "metar_trigger": false,
      "taf_trigger": false,
      "metar": "METAR LEBB 011600Z 07010KT 040V110 9999 FEW056 27/17 Q1016 TEMPO 3000 TSRA SCT035CB",
      "taf": ""
    },
    {
      "icao": "LEBL",
      "alert": "OK",
      "vis_m": 9000,
      "fzfg": false,
      "metar_trigger": false,
      "taf_trigger": false,
      "metar": "METAR LEBL 011600Z 07014KT 9000 FEW030 19/15 Q1022 NOSIG",
      "taf": "TAF LEBL 011100Z 0112/0212 07018KT 9999 FEW015 TX22/0112Z TN16/0206Z"
    },
    {
      "icao": "LECH",
      "alert": "OK",
      "vis_m": 9000,
      "fzfg": false,
      "metar_trigger": false,
      "taf_trigger": false,
      "metar": "METAR LECH 011600Z AUTO 01006KT 320V060 9000 SCT033 17/14 Q1022",
      "taf": "TAF LECH 011100Z 0112/0212 05007KT 9999 SCT020 SCT050 TX21/0112Z TN12/0206Z"
    },
    {
      "icao": "LEMD",
      "alert": "OK",
      "vis_m": 9999,
      "fzfg": false,
      "metar_trigger": false,
      "taf_trigger": false,
      "metar": "METAR LEMD 011600Z 23009KT 170V300 9999 SCT080 25/05 Q1017 NOSIG",
      "taf": ""
    },
    {
      "icao": "LEMG",
      "alert": "OK",
      "vis_m": 9999,
      "fzfg": false,
      "metar_trigger": false,
      "taf_trigger": false,
      "metar": "METAR LEMG 011600Z 11010KT 9999 FEW012 20/15 Q1019 NOSIG",
      "taf": "TAF LEMG 011100Z 0112/0212 13010KT CAVOK TX23/0114Z TN14/0206Z"
    },
    {
      "icao": "LEVC",
      "alert": "OK",
      "vis_m": 9999,
      "fzfg": false,
      "metar_trigger": false,
      "taf_trigger": false,
      "metar": "METAR LEVC 011600Z 08009KT 050V120 9999 FEW016 BKN020 19/15 Q1021 NOSIG",
      "taf": "TAF LEVC 011100Z 0112/0212 07008KT 9999 SCT020 SCT030 TX21/0113Z TN16/0206Z"
    },
    {
      "icao": "LEXJ",
      "alert": "OK",
      "vis_m": 9999,
      "fzfg": false,
      "metar_trigger": false,
      "taf_trigger": false,
      "metar": "SPECI LEXJ 011611Z 05004KT 9999 VCTS FEW026 FEW028CB 18/16 Q1017",
      "taf": "TAF LEXJ 011400Z 0115/0215 VRB03KT 9999 SCT020 TX18/0213Z TN15/0206Z"
    },
    {
      "icao": "LEZG",
      "alert": "OK",
      "vis_m": 9999,
      "fzfg": false,
      "metar_trigger": false,
      "taf_trigger": false,
      "metar": "METAR LEZG 011600Z 13014KT 100V160 9999 VCTS FEW050CB 23/13 Q1019 TEMPO 4000 TSRA FEW050CB",
      "taf": "TAF LEZG 011100Z 0112/0212 12010KT 9999 FEW030 SCT060 TX23/0114Z TN14/0206Z"
    },
    {
      "icao": "LEZL",
      "alert": "OK",
      "vis_m": 9999,
      "fzfg": false,
      "metar_trigger": false,
      "taf_trigger": false,
      "metar": "METAR LEZL 011600Z 23010KT 190V290 CAVOK 27/12 Q1017 NOSIG",
      "taf": "TAF LEZL 011400Z 0115/0215 22010KT CAVOK TX28/0115Z TN13/0206Z"
    },
    {
      "icao": "LFBD",
      "alert": "OK",
      "vis_m": 9999,
      "fzfg": false,
      "metar_trigger": false,
      "taf_trigger": false,
      "metar": "METAR LFBD 011600Z AUTO 13011KT 9999 SCT039 BKN100 23/14 Q1019 NOSIG",
      "taf": "TAF LFBD 011100Z 0112/0218 11010KT 9999 SCT035 TX24/0114Z TN14/0205Z"
    },
    {
      "icao": "LFLL",
      "alert": "OK",
      "vis_m": 9999,
      "fzfg": false,
      "metar_trigger": false,
      "taf_trigger": false,
      "metar": "METAR LFLL 011600Z 17005KT 130V200 CAVOK 24/10 Q1021 NOSIG",
      "taf": "TAF LFLL 011100Z 0112/0218 19010KT CAVOK"
    },
    {
      "icao": "LFLS",
      "alert": "OK",
      "vis_m": 9999,
      "fzfg": false,
      "metar_trigger": false,
      "taf_trigger": false,
      "metar": "METAR LFLS 011600Z AUTO 23008KT 200V260 CAVOK 22/11 Q1022 TEMPO FEW055TCU",
      "taf": "TAF LFLS 011400Z 0115/0215 22005KT CAVOK"
    },
    {
      "icao": "LFMN",
      "alert": "OK",
      "vis_m": 9999,
      "fzfg": false,
      "metar_trigger": false,
      "taf_trigger": false,
      "metar": "METAR LFMN 011600Z 19004KT CAVOK 18/09 Q1024 NOSIG",
      "taf": "TAF LFMN 011400Z 0115/0221 17004KT CAVOK"
    },
    {
      "icao": "LFOB",
      "alert": "OK",
      "vis_m": 9999,
      "fzfg": false,
      "metar_trigger": false,
      "taf_trigger": false,
      "metar": "METAR LFOB 011600Z AUTO 13005KT 9999 ///TCU 24/13 Q1020 TEMPO VRB15G30KT 2000 -TSRA BKN014 BKN025CB BKN035",
      "taf": "TAF LFOB 011100Z 0112/0212 VRB04KT CAVOK"
    },
    {
      "icao": "LFPO",
      "alert": "OK",
      "vis_m": 9999,
      "fzfg": false,
      "metar_trigger": false,
      "taf_trigger": false,
      "metar": "METAR LFPO 011600Z 16007G25KT 090V220 9999 R06/1200D TS SHRA FEW040CB SCT050 BKN110 23/13 Q1020 TEMPO 4000 TSRA BKN050CB",
      "taf": "TAF LFPO 011100Z 0112/0218 21004KT CAVOK"
    },
    {
      "icao": "LFSB",
      "alert": "OK",
      "vis_m": 9999,
      "fzfg": false,
      "metar_trigger": false,
      "taf_trigger": false,
      "metar": "METAR LFSB 011600Z AUTO 04004KT 340V140 CAVOK 25/04 Q1022 NOSIG",
      "taf": "TAF LFSB 011100Z 0112/0212 07005KT CAVOK"
    },
    {
      "icao": "LGAV",
      "alert": "OK",
      "vis_m": 9999,
      "fzfg": false,
      "metar_trigger": false,
      "taf_trigger": false,
      "metar": "METAR LGAV 011550Z 01017KT 9999 SCT020 BKN030 12/07 Q1018 NOSIG",
      "taf": "TAF LGAV 011100Z 0112/0212 02017KT 9999 SCT020 BKN060"
    },
    {
      "icao": "LGTS",
      "alert": "OK",
      "vis_m": 9999,
      "fzfg": false,
      "metar_trigger": false,
      "taf_trigger": false,
      "metar": "METAR LGTS 011550Z 17003KT 9999 -DZ FEW010 BKN030 11/09 Q1022 NOSIG",
      "taf": "TAF LGTS 011100Z 0112/0212 VRB03KT 9999 BKN035"
    },
    {
      "icao": "LHBP",
      "alert": "OK",
      "vis_m": 9999,
      "fzfg": false,
      "metar_trigger": false,
      "taf_trigger": false,
      "metar": "METAR LHBP 011600Z 03004KT 340V080 CAVOK 18/M01 Q1024 NOSIG",
      "taf": "TAF LHBP 011115Z 0112/0212 02007KT CAVOK"
    },
    {
      "icao": "LHDC",
      "alert": "OK",
      "vis_m": 9999,
      "fzfg": false,
      "metar_trigger": false,
      "taf_trigger": false,
      "metar": "METAR LHDC 011545Z AUTO 02010KT 330V070 CAVOK 17/M01 Q1024 NOSIG",
      "taf": "TAF LHDC 011415Z 0115/0124 36009KT CAVOK"
    },
    {
      "icao": "LIBD",
      "alert": "OK",
      "vis_m": 9999,
      "fzfg": false,
      "metar_trigger": false,
      "taf_trigger": false,
      "metar": "METAR LIBD 011550Z 33012KT CAVOK 16/02 Q1021",
      "taf": "TAF LIBD 011100Z 0112/0212 36016KT 9999 SCT030"
    },
    {
      "icao": "LIBG",
      "alert": "OK",
      "vis_m": 9999,
      "fzfg": false,
      "metar_trigger": false,
      "taf_trigger": false,
      "metar": "METAR LIBG 011550Z 35014KT CAVOK 16/01 Q1019",
      "taf": "TAF LIBG 011400Z 0115/0124 03015KT CAVOK"
    },
    {
      "icao": "LIBP",
      "alert": "OK",
      "vis_m": 9999,
      "fzfg": false,
      "metar_trigger": false,
      "taf_trigger": false,
      "metar": "METAR LIBP 011550Z AUTO 01009KT 330V040 9999 NCD 16/01 Q1024",
      "taf": "TAF LIBP 011100Z 0112/0212 36014KT 9999 FEW050"
    },
    {
      "icao": "LIBR",
      "alert": "OK",
      "vis_m": 9999,
      "fzfg": false,
      "metar_trigger": false,
      "taf_trigger": false,
      "metar": "METAR LIBR 011550Z 36016KT CAVOK 16/03 Q1019",
      "taf": "TAF LIBR 011100Z 0112/0212 02016G28KT CAVOK"
    },
    {
      "icao": "LICA",
      "alert": "OK",
      "vis_m": 9999,
      "fzfg": false,
      "metar_trigger": false,
      "taf_trigger": false,
      "metar": "METAR LICA 011550Z AUTO 22010KT 9999 FEW080/// 18/07 Q1017",
      "taf": "TAF LICA 011100Z 0112/0212 28015KT CAVOK"
    },
    {
      "icao": "LICC",
      "alert": "OK",
      "vis_m": 9999,
      "fzfg": false,
      "metar_trigger": false,
      "taf_trigger": false,
      "metar": "METAR LICC 011550Z 11007KT 070V140 9999 FEW025 BKN035 17/13 Q1018",
      "taf": "TAF LICC 011100Z 0112/0212 10012KT 9999 BKN030"
    },
    {
      "icao": "LICJ",
      "alert": "OK",
      "vis_m": 9999,
      "fzfg": false,
      "metar_trigger": false,
      "taf_trigger": false,
      "metar": "METAR LICJ 011550Z 04015KT 9999 FEW020 19/11 Q1019",
      "taf": "TAF LICJ 011100Z 0112/0212 06016KT 9999 FEW020"
    },
    {
      "icao": "LIMC",
      "alert": "OK",
      "vis_m": 9999,
      "fzfg": false,
      "metar_trigger": false,
      "taf_trigger": false,
      "metar": "METAR LIMC 011550Z 20004KT 150V260 CAVOK 20/04 Q1025 NOSIG",
      "taf": "TAF LIMC 011100Z 0112/0218 VRB05KT 9999 SCT050"
    },
    {
      "icao": "LIME",
      "alert": "OK",
      "vis_m": 9999,
      "fzfg": false,
      "metar_trigger": false,
      "taf_trigger": false,
      "metar": "METAR LIME 011550Z VRB04KT CAVOK 20/03 Q1025 NOSIG",
      "taf": "TAF LIME 011100Z 0112/0212 VRB05KT CAVOK"
    },
    {
      "icao": "LIMF",
      "alert": "OK",
      "vis_m": 9999,
      "fzfg": false,
      "metar_trigger": false,
      "taf_trigger": false,
      "metar": "METAR LIMF 011550Z 13003KT 090V250 CAVOK 19/06 Q1025",
      "taf": "TAF LIMF 011100Z 0112/0212 VRB05KT 9999 SCT040"
    },
    {
      "icao": "LIMJ",
      "alert": "OK",
      "vis_m": 9999,
      "fzfg": false,
      "metar_trigger": false,
      "taf_trigger": false,
      "metar": "METAR LIMJ 011550Z 36012KT 330V030 CAVOK 23/02 Q1023 WS R28",
      "taf": "TAF LIMJ 011100Z 0112/0212 04012KT CAVOK"
    },
    {
      "icao": "LIPE",
      "alert": "OK",
      "vis_m": 9999,
      "fzfg": false,
      "metar_trigger": false,
      "taf_trigger": false,
      "metar": "METAR LIPE 011550Z 09006KT 040V140 CAVOK 19/00 Q1025",
      "taf": "TAF LIPE 011100Z 0112/0212 08010KT CAVOK"
    },
    {
      "icao": "LIPH",
      "alert": "OK",
      "vis_m": 9999,
      "fzfg": false,
      "metar_trigger": false,
      "taf_trigger": false,
      "metar": "METAR LIPH 011550Z 22009KT CAVOK 21/M01 Q1024",
      "taf": "TAF LIPH 011100Z 0112/0212 VRB06KT CAVOK"
    },
    {
      "icao": "LIPQ",
      "alert": "OK",
      "vis_m": 9999,
      "fzfg": false,
      "metar_trigger": false,
      "taf_trigger": false,
      "metar": "METAR LIPQ 011550Z AUTO 31006KT 280V350 9999 NCD 22/00 Q1023",
      "taf": "TAF LIPQ 011100Z 0112/0212 VRB05KT CAVOK"
    },
    {
      "icao": "LIPR",
      "alert": "OK",
      "vis_m": 9999,
      "fzfg": false,
      "metar_trigger": false,
      "taf_trigger": false,
      "metar": "METAR LIPR 011550Z 01005KT 330V040 CAVOK 16/02 Q1025",
      "taf": "TAF LIPR 011100Z 0112/0212 06012KT CAVOK"
    },
    {
      "icao": "LIPX",
      "alert": "OK",
      "vis_m": 9999,
      "fzfg": false,
      "metar_trigger": false,
      "taf_trigger": false,
      "metar": "METAR LIPX 011550Z 24003KT 180V330 CAVOK 21/M00 Q1025",
      "taf": "TAF LIPX 011100Z 0112/0212 10008KT CAVOK"
    },
    {
      "icao": "LIPY",
      "alert": "OK",
      "vis_m": 9999,
      "fzfg": false,
      "metar_trigger": false,
      "taf_trigger": false,
      "metar": "METAR LIPY 011550Z AUTO 34004KT 310V030 9999 NCD 16/01 Q1025",
      "taf": "TAF LIPY 011100Z 0112/0212 05011KT CAVOK"
    },
    {
      "icao": "LIPZ",
      "alert": "OK",
      "vis_m": 9999,
      "fzfg": false,
      "metar_trigger": false,
      "taf_trigger": false,
      "metar": "METAR LIPZ 011550Z 22008KT CAVOK 19/01 Q1025 NOSIG",
      "taf": "TAF LIPZ 011100Z 0112/0218 15010KT CAVOK"
    },
    {
      "icao": "LIRF",
      "alert": "OK",
      "vis_m": 9999,
      "fzfg": false,
      "metar_trigger": false,
      "taf_trigger": false,
      "metar": "METAR LIRF 011550Z 35009KT 330V030 CAVOK 22/03 Q1019 NOSIG",
      "taf": "TAF LIRF 011100Z 0112/0218 02010KT CAVOK"
    },
    {
      "icao": "LIRN",
      "alert": "OK",
      "vis_m": 9999,
      "fzfg": false,
      "metar_trigger": false,
      "taf_trigger": false,
      "metar": "METAR LIRN 011550Z 06017KT CAVOK 17/M02 Q1020 NOSIG",
      "taf": "TAF LIRN 011100Z 0112/0212 03020G32KT CAVOK"
    },
    {
      "icao": "LIRP",
      "alert": "OK",
      "vis_m": 9999,
      "fzfg": false,
      "metar_trigger": false,
      "taf_trigger": false,
      "metar": "METAR LIRP 011545Z 29009KT CAVOK 21/07 Q1023 NOSIG",
      "taf": "TAF LIRP 011100Z 0112/0212 09012KT CAVOK"
    },
    {
      "icao": "LIRZ",
      "alert": "OK",
      "vis_m": 9999,
      "fzfg": false,
      "metar_trigger": false,
      "taf_trigger": false,
      "metar": "METAR LIRZ 011550Z AUTO 03013KT 9999 NCD 17/M01 Q1023",
      "taf": "TAF LIRZ 011100Z 0112/0212 04017KT 9999 FEW060"
    },
    {
      "icao": "LJLJ",
      "alert": "OK",
      "vis_m": 9999,
      "fzfg": false,
      "metar_trigger": false,
      "taf_trigger": false,
      "metar": "METAR LJLJ 011600Z 16006KT 140V210 9999 FEW070 19/01 Q1024 NOSIG",
      "taf": "TAF LJLJ 011100Z 0112/0212 12005KT 9999 FEW060"
    },
    {
      "icao": "LKMT",
      "alert": "OK",
      "vis_m": 9999,
      "fzfg": false,
      "metar_trigger": false,
      "taf_trigger": false,
      "metar": "METAR LKMT 011600Z 35008KT CAVOK 20/04 Q1024 NOSIG",
      "taf": "TAF LKMT 011100Z 0112/0212 01006KT CAVOK"
    },
    {
      "icao": "LKPR",
      "alert": "OK",
      "vis_m": 9999,
      "fzfg": false,
      "metar_trigger": false,
      "taf_trigger": false,
      "metar": "METAR LKPR 011600Z 27004KT 210V300 CAVOK 20/03 Q1026 NOSIG",
      "taf": "TAF LKPR 011400Z 0115/0221 VRB02KT CAVOK"
    },
    {
      "icao": "LLBG",
      "alert": "OK",
      "vis_m": 9999,
      "fzfg": false,
      "metar_trigger": false,
      "taf_trigger": false,
      "metar": "METAR LLBG 011550Z 30007KT CAVOK 21/11 Q1012 NOSIG",
      "taf": "TAF LLBG 011104Z 0112/0212 30012KT CAVOK TX23/0112Z TN12/0203Z"
    },
    {
      "icao": "LMML",
      "alert": "OK",
      "vis_m": 9999,
      "fzfg": false,
      "metar_trigger": false,
      "taf_trigger": false,
      "metar": "METAR LMML 011545Z 06013KT 9999 FEW025 BKN040 19/11 Q1017 NOSIG",
      "taf": ""
    },
    {
      "icao": "LOWW",
      "alert": "OK",
      "vis_m": 9999,
      "fzfg": false,
      "metar_trigger": false,
      "taf_trigger": false,
      "metar": "METAR LOWW 011550Z 33007KT CAVOK 19/05 Q1025 NOSIG",
      "taf": "TAF LOWW 011415Z 0115/0221 35010KT CAVOK TX24/0214Z TN07/0204Z"
    },
    {
      "icao": "LPFR",
      "alert": "OK",
      "vis_m": 9999,
      "fzfg": false,
      "metar_trigger": false,
      "taf_trigger": false,
      "metar": "METAR LPFR 011600Z 26012KT CAVOK 20/13 Q1018",
      "taf": "TAF LPFR 011100Z 0112/0212 23010KT CAVOK"
    },
    {
      "icao": "LPMA",
      "alert": "OK",
      "vis_m": 9999,
      "fzfg": false,
      "metar_trigger": false,
      "taf_trigger": false,
      "metar": "METAR LPMA 011600Z 06005KT 330V130 9999 SCT013 19/13 Q1018",
      "taf": ""
    },
    {
      "icao": "LPPR",
      "alert": "OK",
      "vis_m": 9999,
      "fzfg": false,
      "metar_trigger": false,
      "taf_trigger": false,
      "metar": "METAR LPPR 011600Z 29006KT 270V330 9999 FEW032 19/09 Q1018",
      "taf": "TAF LPPR 011100Z 0112/0212 26007KT 9999 FEW020 SCT035"
    },
    {
      "icao": "LPPS",
      "alert": "OK",
      "vis_m": 9999,
      "fzfg": false,
      "metar_trigger": false,
      "taf_trigger": false,
      "metar": "METAR LPPS 011600Z 27008KT 240V310 9999 FEW015 20/12 Q1018",
      "taf": "TAF LPPS 011100Z 0112/0218 28007KT 9999 SCT015"
    },
    {
      "icao": "LPPT",
      "alert": "OK",
      "vis_m": 9999,
      "fzfg": false,
      "metar_trigger": false,
      "taf_trigger": false,
      "metar": "METAR LPPT 011600Z 21009KT 190V260 9999 FEW042 20/09 Q1018",
      "taf": "TAF LPPT 011100Z 0112/0218 VRB02KT 9999 FEW035"
    },
    {
      "icao": "LQBK",
      "alert": "OK",
      "vis_m": 9999,
      "fzfg": false,
      "metar_trigger": false,
      "taf_trigger": false,
      "metar": "METAR LQBK 011600Z 04007KT 010V080 9999 FEW047 17/M02 Q1024 NOSIG",
      "taf": "TAF LQBK 011100Z 0112/0212 VRB03KT CAVOK TX17/0114Z TN02/0200Z"
    },
    {
      "icao": "LQSA",
      "alert": "OK",
      "vis_m": 9999,
      "fzfg": false,
      "metar_trigger": false,
      "taf_trigger": false,
      "metar": "METAR LQSA 011600Z 02007KT 330V120 CAVOK 13/M04 Q1023 NOSIG",
      "taf": "TAF LQSA 011100Z 0112/0212 31005KT CAVOK TX15/0114Z TN01/0204Z"
    },
    {
      "icao": "LQTZ",
      "alert": "OK",
      "vis_m": 9999,
      "fzfg": false,
      "metar_trigger": false,
      "taf_trigger": false,
      "metar": "METAR LQTZ 011600Z 06008KT 010V080 CAVOK 15/M04 Q1024",
      "taf": "TAF LQTZ 011100Z 0112/0212 VRB02KT CAVOK TX16/0113Z TNM00/0202Z"
    },
    {
      "icao": "LRBC",
      "alert": "OK",
      "vis_m": 9999,
      "fzfg": false,
      "metar_trigger": false,
      "taf_trigger": false,
      "metar": "METAR LRBC 011600Z 35008KT 330V040 CAVOK 12/M04 Q1024",
      "taf": "TAF LRBC 011400Z 0115/0124 36009KT 9999 SCT065"
    },
    {
      "icao": "LRBS",
      "alert": "OK",
      "vis_m": 9999,
      "fzfg": false,
      "metar_trigger": false,
      "taf_trigger": false,
      "metar": "METAR LRBS 011600Z VRB04KT CAVOK 13/M02 Q1024 NOSIG",
      "taf": "TAF LRBS 011100Z 0112/0212 VRB04KT CAVOK"
    },
    {
      "icao": "LRBV",
      "alert": "OK",
      "vis_m": 9999,
      "fzfg": false,
      "metar_trigger": false,
      "taf_trigger": false,
      "metar": "METAR LRBV 011600Z AUTO 29007KT 9999 OVC072/// 10/M04 Q1022",
      "taf": "TAF LRBV 011400Z 0115/0124 VRB04KT 9999 SCT050"
    },
    {
      "icao": "LRCL",
      "alert": "OK",
      "vis_m": 9999,
      "fzfg": false,
      "metar_trigger": false,
      "taf_trigger": false,
      "metar": "METAR LRCL 011600Z 32008KT 290V350 CAVOK 14/M04 Q1023",
      "taf": "TAF LRCL 011400Z 0115/0124 VRB04KT CAVOK"
    },
    {
      "icao": "LRCV",
      "alert": "OK",
      "vis_m": 9999,
      "fzfg": false,
      "metar_trigger": false,
      "taf_trigger": false,
      "metar": "METAR LRCV 011600Z 25008KT CAVOK 11/03 Q1024",
      "taf": "TAF LRCV 011400Z 0115/0124 VRB04KT 9999 SCT040"
    },
    {
      "icao": "LRIA",
      "alert": "OK",
      "vis_m": 9999,
      "fzfg": false,
      "metar_trigger": false,
      "taf_trigger": false,
      "metar": "METAR LRIA 011600Z 30009KT 270V350 CAVOK 12/M04 Q1023",
      "taf": "TAF LRIA 011400Z 0115/0124 34007KT CAVOK"
    },
    {
      "icao": "LROP",
      "alert": "OK",
      "vis_m": 9999,
      "fzfg": false,
      "metar_trigger": false,
      "taf_trigger": false,
      "metar": "METAR LROP 011600Z 12006KT 080V150 CAVOK 12/M02 Q1024 NOSIG",
      "taf": "TAF LROP 011100Z 0112/0212 VRB04KT CAVOK"
    },
    {
      "icao": "LRSB",
      "alert": "OK",
      "vis_m": 9999,
      "fzfg": false,
      "metar_trigger": false,
      "taf_trigger": false,
      "metar": "METAR LRSB 011600Z 33004KT 290V020 9999 FEW075 12/M03 Q1023 NOSIG",
      "taf": "TAF LRSB 011100Z 0112/0212 VRB04KT CAVOK"
    },
    {
      "icao": "LRSM",
      "alert": "OK",
      "vis_m": 9999,
      "fzfg": false,
      "metar_trigger": false,
      "taf_trigger": false,
      "metar": "METAR LRSM 011600Z 28006KT CAVOK 15/M02 Q1023",
      "taf": "TAF LRSM 011400Z 0115/0124 34012KT CAVOK"
    },
    {
      "icao": "LRSV",
      "alert": "OK",
      "vis_m": 9999,
      "fzfg": false,
      "metar_trigger": false,
      "taf_trigger": false,
      "metar": "METAR LRSV 011600Z 33006KT CAVOK 10/M02 Q1022",
      "taf": "TAF LRSV 011400Z 0115/0124 34008KT CAVOK"
    },
    {
      "icao": "LRTM",
      "alert": "OK",
      "vis_m": 9999,
      "fzfg": false,
      "metar_trigger": false,
      "taf_trigger": false,
      "metar": "METAR LRTM 011600Z 27006KT CAVOK 14/M04 Q1022",
      "taf": "TAF LRTM 011400Z 0115/0124 VRB04KT CAVOK"
    },
    {
      "icao": "LRTR",
      "alert": "OK",
      "vis_m": 9999,
      "fzfg": false,
      "metar_trigger": false,
      "taf_trigger": false,
      "metar": "METAR LRTR 011600Z 02008KT 350V050 CAVOK 16/M02 Q1023",
      "taf": "TAF LRTR 011100Z 0112/0212 01008KT CAVOK"
    },
    {
      "icao": "LTAC",
      "alert": "OK",
      "vis_m": 9999,
      "fzfg": false,
      "metar_trigger": false,
      "taf_trigger": false,
      "metar": "METAR LTAC 011550Z 01008KT 320V050 9999 BKN030 BKN080 08/05 Q1014 NOSIG RMK RWY21C 36009KT RWY03L 35006KT 310V060 RWY21R 36008KT RWY03R 33007KT 290V010 RWY21L 36009KT",
      "taf": "TAF LTAC 011040Z 0112/0212 VRB02KT 9999 SCT035 BKN090"
    },
    {
      "icao": "LTFM",
      "alert": "OK",
      "vis_m": 9999,
      "fzfg": false,
      "metar_trigger": false,
      "taf_trigger": false,
      "metar": "METAR LTFM 011550Z 05018KT 9999 SCT028 BKN090 10/04 Q1021 NOSIG RMK RWY17L 04016KT RWY34L 04016KT RWY16R 04016KT RWY36 04018KT RWY18 05015KT",
      "taf": "TAF LTFM 011040Z 0112/0218 03022G32KT 9999 -SHRA SCT014 BKN025"
    },
    {
      "icao": "LUKK",
      "alert": "OK",
      "vis_m": 9999,
      "fzfg": false,
      "metar_trigger": false,
      "taf_trigger": false,
      "metar": "METAR LUKK 011600Z 01005KT 340V060 CAVOK 12/M05 Q1023 NOSIG",
      "taf": "TAF LUKK 011101Z 0112/0212 01010KT 9999 SCT045"
    },
    {
      "icao": "LWOH",
      "alert": "OK",
      "vis_m": 9999,
      "fzfg": false,
      "metar_trigger": false,
      "taf_trigger": false,
      "metar": "METAR LWOH 011550Z 01011KT 330V060 9999 BKN050 10/M02 Q1020",
      "taf": "TAF LWOH 011425Z 0115/0215 02012KT 9999 SCT050 BKN100"
    },
    {
      "icao": "LWSK",
      "alert": "OK",
      "vis_m": 9999,
      "fzfg": false,
      "metar_trigger": false,
      "taf_trigger": false,
      "metar": "METAR LWSK 011550Z 01009KT 340V050 9999 BKN080 13/M01 Q1022 NOSIG",
      "taf": "TAF LWSK 011425Z 0115/0215 36012KT 9999 SCT060 BKN100"
    },
    {
      "icao": "LYBE",
      "alert": "OK",
      "vis_m": 9999,
      "fzfg": false,
      "metar_trigger": false,
      "taf_trigger": false,
      "metar": "METAR LYBE 011600Z 36006KT 330V040 CAVOK 17/M02 Q1023 NOSIG",
      "taf": "TAF LYBE 011100Z 0112/0212 01008KT 9999 SCT045 TX17/0113Z TN03/0204Z"
    },
    {
      "icao": "LYNI",
      "alert": "OK",
      "vis_m": 9999,
      "fzfg": false,
      "metar_trigger": false,
      "taf_trigger": false,
      "metar": "METAR LYNI 011600Z 04008KT 010V070 9999 FEW050 SCT087 13/M04 Q1023 NOSIG",
      "taf": "TAF LYNI 011100Z 0112/0212 34006KT 9999 SCT050 TX16/0212Z TN02/0204Z"
    },
    {
      "icao": "LYPG",
      "alert": "OK",
      "vis_m": 9999,
      "fzfg": false,
      "metar_trigger": false,
      "taf_trigger": false,
      "metar": "METAR LYPG 011600Z 01014G24KT 9999 FEW090 19/M05 Q1019 NOSIG",
      "taf": "TAF LYPG 011100Z 0112/0212 36012KT CAVOK TX20/0113Z TN11/0204Z"
    },
    {
      "icao": "LZIB",
      "alert": "OK",
      "vis_m": 9999,
      "fzfg": false,
      "metar_trigger": false,
      "taf_trigger": false,
      "metar": "METAR LZIB 011600Z 34007KT 300V010 CAVOK 20/02 Q1024 NOSIG",
      "taf": "TAF LZIB 011115Z 0112/0212 36004KT CAVOK"
    },
    {
      "icao": "LZKZ",
      "alert": "OK",
      "vis_m": 9999,
      "fzfg": false,
      "metar_trigger": false,
      "taf_trigger": false,
      "metar": "METAR LZKZ 011600Z 02008KT CAVOK 16/01 Q1024 NOSIG",
      "taf": "TAF LZKZ 011115Z 0112/0212 04007KT CAVOK"
    },
    {
      "icao": "LZTT",
      "alert": "OK",
      "vis_m": 9999,
      "fzfg": false,
      "metar_trigger": false,
      "taf_trigger": false,
      "metar": "METAR LZTT 011600Z 03007KT 360V070 9999 BKN060 14/01 Q1024 NOSIG",
      "taf": "TAF LZTT 011115Z 0112/0212 VRB04KT 9999 FEW045 BKN063"
    },
    {
      "icao": "OEJN",
      "alert": "OK",
      "vis_m": 9999,
      "fzfg": false,
      "metar_trigger": false,
      "taf_trigger": false,
      "metar": "METAR OEJN 011600Z 34010KT CAVOK 32/05 Q1008 NOSIG",
      "taf": ""
    },
    {
      "icao": "OEMA",
      "alert": "OK",
      "vis_m": 9999,
      "fzfg": false,
      "metar_trigger": false,
      "taf_trigger": false,
      "metar": "METAR OEMA 011600Z 26007KT CAVOK 33/M03 Q1011 NOSIG",
      "taf": ""
    },
    {
      "icao": "OJAI",
      "alert": "OK",
      "vis_m": 5000,
      "fzfg": false,
      "metar_trigger": false,
      "taf_trigger": false,
      "metar": "METAR OJAI 011500Z 29013KT 5000 HZ NSC 23/07 Q1013 NOSIG",
      "taf": "TAF OJAI 011053Z 0112/0218 30012KT 5000 HZ NSC"
    },
    {
      "icao": "OMAA",
      "alert": "OK",
      "vis_m": 9999,
      "fzfg": false,
      "metar_trigger": false,
      "taf_trigger": false,
      "metar": "METAR OMAA 011600Z 33007KT CAVOK 32/19 Q1007 NOSIG",
      "taf": "TAF OMAA 011100Z 0112/0218 34010KT CAVOK"
    },
    {
      "icao": "OMDB",
      "alert": "OK",
      "vis_m": 9999,
      "fzfg": false,
      "metar_trigger": false,
      "taf_trigger": false,
      "metar": "METAR OMDB 011600Z 26006KT CAVOK 34/13 Q1006 NOSIG",
      "taf": "TAF OMDB 011100Z 0112/0218 30010KT CAVOK"
    },
    {
      "icao": "UAAA",
      "alert": "OK",
      "vis_m": 5000,
      "fzfg": false,
      "metar_trigger": false,
      "taf_trigger": false,
      "metar": "METAR UAAA 011600Z 12002MPS 5000 FU SCT100 BKN200 18/09 Q1014 NOSIG",
      "taf": ""
    },
    {
      "icao": "UBBB",
      "alert": "OK",
      "vis_m": 9999,
      "fzfg": false,
      "metar_trigger": false,
      "taf_trigger": false,
      "metar": "METAR UBBB 011600Z 18018KT 9999 FEW015 13/11 Q1014 NOSIG",
      "taf": "TAF UBBB 011052Z 0112/0212 16020KT 9999 SCT025 TX17/0112Z TN11/0201Z"
    },
    {
      "icao": "UDSG",
      "alert": "OK",
      "vis_m": 9999,
      "fzfg": false,
      "metar_trigger": false,
      "taf_trigger": false,
      "metar": "METAR UDSG 011600Z 18011KT 9999 VCTS SCT043CB 14/03 Q1014 NOSIG",
      "taf": "TAF UDSG 011100Z 0112/0212 21006KT 9999 SCT040"
    },
    {
      "icao": "UDYZ",
      "alert": "OK",
      "vis_m": 9999,
      "fzfg": false,
      "metar_trigger": false,
      "taf_trigger": false,
      "metar": "METAR UDYZ 011600Z 13010KT 9999 SCT043CB 20/04 Q1011 NOSIG",
      "taf": ""
    },
    {
      "icao": "UGKO",
      "alert": "OK",
      "vis_m": 9999,
      "fzfg": false,
      "metar_trigger": false,
      "taf_trigger": false,
      "metar": "METAR UGKO 011600Z 20006KT 9999 SCT046 BKN097 14/10 Q1012 NOSIG",
      "taf": "TAF UGKO 011100Z 0112/0212 09012KT CAVOK TX25/0112Z TN10/0202Z"
    }
  ]
}