{
  "ts_utc": "2026-05-13T19:23:33Z",
  "threshold_m": 150,
  "source": "stations_override.txt (ICAO list) + aviationweather.gov (METAR/TAF raw)",
  "station_count": 159,
  "stations": [
    {
      "icao": "BIKF",
      "alert": "OK",
      "vis_m": 9999,
      "fzfg": false,
      "metar_trigger": false,
      "taf_trigger": false,
      "metar": "METAR BIKF 131900Z 24007KT 9999 FEW017 SCT055 BKN080 07/02 Q1014",
      "taf": "TAF BIKF 131631Z 1318/1418 27005KT 9999 BKN028 TX09/1413Z TN02/1403Z"
    },
    {
      "icao": "BKPR",
      "alert": "OK",
      "vis_m": null,
      "fzfg": false,
      "metar_trigger": false,
      "taf_trigger": false,
      "metar": "",
      "taf": "TAF BKPR 131730Z 1318/1418 VRB03KT 9999 BKN050"
    },
    {
      "icao": "EBCI",
      "alert": "OK",
      "vis_m": 9999,
      "fzfg": false,
      "metar_trigger": false,
      "taf_trigger": false,
      "metar": "METAR EBCI 131850Z 25006KT 220V280 9999 FEW025CB 07/05 Q1000 NOSIG",
      "taf": "TAF EBCI 131702Z 1318/1424 25009KT SCT025"
    },
    {
      "icao": "EDDB",
      "alert": "OK",
      "vis_m": 9999,
      "fzfg": false,
      "metar_trigger": false,
      "taf_trigger": false,
      "metar": "METAR EDDB 131850Z AUTO 21009KT CAVOK 09/06 Q0999 NOSIG",
      "taf": "TAF EDDB 131700Z 1318/1418 19007KT 9999 SCT020"
    },
    {
      "icao": "EDDH",
      "alert": "OK",
      "vis_m": 9999,
      "fzfg": false,
      "metar_trigger": false,
      "taf_trigger": false,
      "metar": "METAR EDDH 131850Z AUTO 17007KT 9999 -SHRA BKN035 FEW///TCU 10/05 Q0997 TEMPO SHRA BKN040CB",
      "taf": "TAF EDDH 131700Z 1318/1424 30006KT 9999 SCT035"
    },
    {
      "icao": "EDDK",
      "alert": "OK",
      "vis_m": 9999,
      "fzfg": false,
      "metar_trigger": false,
      "taf_trigger": false,
      "metar": "METAR EDDK 131850Z AUTO 23015KT 9999 -SHRA FEW024 SCT035 BKN044 FEW///CB 09/06 Q1000 TEMPO SHRA",
      "taf": "TAF EDDK 131700Z 1318/1424 22007KT 9999 SCT040"
    },
    {
      "icao": "EDDN",
      "alert": "OK",
      "vis_m": 9999,
      "fzfg": false,
      "metar_trigger": false,
      "taf_trigger": false,
      "metar": "METAR EDDN 131850Z AUTO 29016KT 9999 -SHRA FEW030 SCT040 FEW///TCU 08/05 Q1004 NOSIG",
      "taf": "TAF EDDN 131700Z 1318/1418 26012KT CAVOK"
    },
    {
      "icao": "EDDS",
      "alert": "OK",
      "vis_m": 9999,
      "fzfg": false,
      "metar_trigger": false,
      "taf_trigger": false,
      "metar": "METAR EDDS 131850Z AUTO 26006KT 9999 SCT042 09/06 Q1004 RESHRA NOSIG",
      "taf": "TAF EDDS 131700Z 1318/1418 22008KT 9999 SCT045"
    },
    {
      "icao": "EDFH",
      "alert": "OK",
      "vis_m": 9999,
      "fzfg": false,
      "metar_trigger": false,
      "taf_trigger": false,
      "metar": "METAR EDFH 131850Z 24007KT 9999 -RA SCT012 BKN016 07/06 Q1001",
      "taf": "TAF EDFH 131700Z 1318/1418 25012KT 9999 BKN025"
    },
    {
      "icao": "EDJA",
      "alert": "OK",
      "vis_m": 9999,
      "fzfg": false,
      "metar_trigger": false,
      "taf_trigger": false,
      "metar": "METAR EDJA 131850Z COR 24008KT CAVOK 10/02 Q1004",
      "taf": "TAF EDJA 131700Z 1318/1403 24014KT 9999 SCT050"
    },
    {
      "icao": "EDLW",
      "alert": "OK",
      "vis_m": 9999,
      "fzfg": false,
      "metar_trigger": false,
      "taf_trigger": false,
      "metar": "METAR EDLW 131850Z 24010KT 9999 FEW022 08/05 Q0998",
      "taf": "TAF EDLW 131700Z 1318/1418 22007KT 9999 SCT040"
    },
    {
      "icao": "EDNY",
      "alert": "OK",
      "vis_m": 9999,
      "fzfg": false,
      "metar_trigger": false,
      "taf_trigger": false,
      "metar": "METAR EDNY 131850Z 24008KT CAVOK 13/03 Q1005",
      "taf": "TAF EDNY 131700Z 1318/1403 24009KT 9999 SCT050"
    },
    {
      "icao": "EDSB",
      "alert": "OK",
      "vis_m": 9999,
      "fzfg": false,
      "metar_trigger": false,
      "taf_trigger": false,
      "metar": "METAR EDSB 131850Z 20012KT 9999 -RA BKN047 10/07 Q1004",
      "taf": "TAF EDSB 131700Z 1318/1418 20012KT 9999 SCT045"
    },
    {
      "icao": "EETN",
      "alert": "OK",
      "vis_m": 9999,
      "fzfg": false,
      "metar_trigger": false,
      "taf_trigger": false,
      "metar": "METAR EETN 131920Z 26014KT 9999 OVC006 08/07 Q0993 TEMPO BKN004",
      "taf": "TAF EETN 131730Z 1318/1418 24010KT 9999 SCT025 BKN045"
    },
    {
      "icao": "EFTU",
      "alert": "OK",
      "vis_m": 9000,
      "fzfg": false,
      "metar_trigger": false,
      "taf_trigger": false,
      "metar": "METAR EFTU 131920Z AUTO 24012KT 9000 SHRA OVC002 //////CB 10/10 Q0991",
      "taf": ""
    },
    {
      "icao": "EGBB",
      "alert": "OK",
      "vis_m": 9999,
      "fzfg": false,
      "metar_trigger": false,
      "taf_trigger": false,
      "metar": "METAR EGBB 131850Z 01008KT 9999 VCSH BKN030CB 09/05 Q1002",
      "taf": "TAF EGBB 131652Z 1318/1418 31010KT 9999 FEW045"
    },
    {
      "icao": "EGGP",
      "alert": "OK",
      "vis_m": 9999,
      "fzfg": false,
      "metar_trigger": false,
      "taf_trigger": false,
      "metar": "METAR EGGP 131850Z 31018KT 9999 SCT038 10/04 Q1002",
      "taf": "TAF EGGP 131701Z 1318/1418 31018G28KT 9999 FEW025 SCT030"
    },
    {
      "icao": "EGGW",
      "alert": "OK",
      "vis_m": 9999,
      "fzfg": false,
      "metar_trigger": false,
      "taf_trigger": false,
      "metar": "METAR EGGW 131850Z AUTO 32011KT 9999 NCD 08/04 Q1001",
      "taf": "TAF EGGW 131654Z 1318/1418 34009KT 9999 SCT030"
    },
    {
      "icao": "EGKK",
      "alert": "OK",
      "vis_m": 8000,
      "fzfg": false,
      "metar_trigger": false,
      "taf_trigger": false,
      "metar": "METAR EGKK 131850Z 32012KT 8000 SHRA FEW020CB SCT038 09/06 Q1002 RESHRA",
      "taf": "TAF EGKK 131656Z 1318/1424 29012KT 9999 SCT035"
    },
    {
      "icao": "EGNM",
      "alert": "OK",
      "vis_m": 9999,
      "fzfg": false,
      "metar_trigger": false,
      "taf_trigger": false,
      "metar": "METAR EGNM 131850Z 31005KT 9999 VCSH SCT031 07/05 Q1001",
      "taf": "TAF EGNM 131702Z 1318/1418 34007KT 9999 FEW015 SCT030"
    },
    {
      "icao": "EGPD",
      "alert": "OK",
      "vis_m": 9999,
      "fzfg": false,
      "metar_trigger": false,
      "taf_trigger": false,
      "metar": "METAR EGPD 131850Z AUTO 35006KT 320V020 9999 FEW025/// SCT035/// //////TCU 09/04 Q1003 NOSIG",
      "taf": "TAF EGPD 131658Z 1318/1418 03007KT 9999 SCT030"
    },
    {
      "icao": "EGPF",
      "alert": "OK",
      "vis_m": 9999,
      "fzfg": false,
      "metar_trigger": false,
      "taf_trigger": false,
      "metar": "METAR EGPF 131850Z AUTO 02005KT 330V040 9999 //////TCU 09/05 Q1004",
      "taf": "TAF EGPF 131658Z 1318/1418 32007KT 9999 SCT020"
    },
    {
      "icao": "EHBK",
      "alert": "OK",
      "vis_m": 9999,
      "fzfg": false,
      "metar_trigger": false,
      "taf_trigger": false,
      "metar": "METAR EHBK 131855Z AUTO 19009KT 9999 FEW004/// 07/06 Q1000 NOSIG",
      "taf": "TAF EHBK 131659Z 1318/1424 23009KT 9999 SCT025 BKN040"
    },
    {
      "icao": "EHEH",
      "alert": "OK",
      "vis_m": 9999,
      "fzfg": false,
      "metar_trigger": false,
      "taf_trigger": false,
      "metar": "METAR EHEH 131855Z AUTO 23005KT 190V260 9999 FEW015CB SCT037 OVC110 08/06 Q0998 BLU TEMPO 24010KT 4000 SHRA SCT010 SCT020CB",
      "taf": "TAF EHEH 131753Z 1318/1424 23008KT 9999 FEW020 SCT030"
    },
    {
      "icao": "EKBI",
      "alert": "OK",
      "vis_m": 9999,
      "fzfg": false,
      "metar_trigger": false,
      "taf_trigger": false,
      "metar": "METAR EKBI 131850Z AUTO 29004KT 9999 SCT026/// BKN029/// BKN053/// 07/03 Q0997",
      "taf": "TAF EKBI 131727Z 1318/1418 35005KT 9999 BKN020"
    },
    {
      "icao": "EKCH",
      "alert": "OK",
      "vis_m": 9999,
      "fzfg": false,
      "metar_trigger": false,
      "taf_trigger": false,
      "metar": "METAR EKCH 131850Z AUTO 24004KT 9999 FEW031/// OVC052/// 08/05 Q0996 NOSIG",
      "taf": "TAF EKCH 131727Z 1318/1418 12006KT 9999 BKN025"
    },
    {
      "icao": "ENAL",
      "alert": "OK",
      "vis_m": 9999,
      "fzfg": false,
      "metar_trigger": false,
      "taf_trigger": false,
      "metar": "METAR ENAL 131850Z VRB02KT CAVOK 09/06 Q1000",
      "taf": "TAF ENAL 131700Z 1318/1403 03008KT 9999 FEW020"
    },
    {
      "icao": "ENBR",
      "alert": "OK",
      "vis_m": 9999,
      "fzfg": false,
      "metar_trigger": false,
      "taf_trigger": false,
      "metar": "METAR ENBR 131850Z 31009KT 9999 FEW030 09/03 Q0998 NOSIG RMK WIND 1200FT 34020KT",
      "taf": "TAF ENBR 131700Z 1318/1418 32008KT 9999 FEW030"
    },
    {
      "icao": "ENGM",
      "alert": "OK",
      "vis_m": 9999,
      "fzfg": false,
      "metar_trigger": false,
      "taf_trigger": false,
      "metar": "METAR ENGM 131850Z 04009KT 010V070 9999 -RA SCT019 BKN029 06/03 Q0996 NOSIG",
      "taf": "TAF ENGM 131700Z 1318/1418 02010KT 9999 -RA BKN040"
    },
    {
      "icao": "ENHD",
      "alert": "OK",
      "vis_m": 9999,
      "fzfg": false,
      "metar_trigger": false,
      "taf_trigger": false,
      "metar": "METAR ENHD 131850Z 34017KT CAVOK 08/05 Q0998",
      "taf": ""
    },
    {
      "icao": "ENTC",
      "alert": "OK",
      "vis_m": 9999,
      "fzfg": false,
      "metar_trigger": false,
      "taf_trigger": false,
      "metar": "METAR ENTC 131850Z 04006KT 9999 SCT025 07/03 Q1008 NOSIG RMK WIND 2600FT 34003KT",
      "taf": "TAF ENTC 131700Z 1318/1418 02008KT 9999 FEW025 BKN045"
    },
    {
      "icao": "ENTO",
      "alert": "OK",
      "vis_m": 9999,
      "fzfg": false,
      "metar_trigger": false,
      "taf_trigger": false,
      "metar": "METAR ENTO 131850Z 19004KT 9999 -SHRA FEW020 BKN038 08/04 Q0995 NOSIG",
      "taf": "TAF ENTO 131700Z 1318/1418 02010KT 9999 -RA BKN040"
    },
    {
      "icao": "ENVA",
      "alert": "OK",
      "vis_m": 9999,
      "fzfg": false,
      "metar_trigger": false,
      "taf_trigger": false,
      "metar": "METAR ENVA 131850Z 03005KT 360V060 CAVOK 14/M07 Q0998 NOSIG RMK WIND 670FT 03012KT",
      "taf": ""
    },
    {
      "icao": "ENZV",
      "alert": "OK",
      "vis_m": 9999,
      "fzfg": false,
      "metar_trigger": false,
      "taf_trigger": false,
      "metar": "METAR ENZV 131850Z 32010KT CAVOK 09/05 Q0998 NOSIG",
      "taf": "TAF ENZV 131700Z 1318/1418 32010KT 9999 FEW025"
    },
    {
      "icao": "EPGD",
      "alert": "OK",
      "vis_m": 9999,
      "fzfg": false,
      "metar_trigger": false,
      "taf_trigger": false,
      "metar": "METAR EPGD 131900Z 20005KT CAVOK 08/04 Q0999",
      "taf": "TAF EPGD 131730Z 1318/1418 22003KT 9999 BKN040"
    },
    {
      "icao": "EPKK",
      "alert": "OK",
      "vis_m": 9999,
      "fzfg": false,
      "metar_trigger": false,
      "taf_trigger": false,
      "metar": "METAR EPKK 131900Z VRB01KT CAVOK 10/03 Q1005",
      "taf": "TAF EPKK 131730Z 1318/1418 24010KT CAVOK"
    },
    {
      "icao": "EPKT",
      "alert": "OK",
      "vis_m": 9999,
      "fzfg": false,
      "metar_trigger": false,
      "taf_trigger": false,
      "metar": "METAR EPKT 131900Z 17006KT CAVOK 09/03 Q1004",
      "taf": ""
    },
    {
      "icao": "EPLB",
      "alert": "OK",
      "vis_m": 9999,
      "fzfg": false,
      "metar_trigger": false,
      "taf_trigger": false,
      "metar": "METAR EPLB 131900Z VRB02KT CAVOK 06/03 Q1005",
      "taf": "TAF EPLB 131730Z 1318/1418 25010KT 9999 SCT045"
    },
    {
      "icao": "EPMO",
      "alert": "OK",
      "vis_m": 9999,
      "fzfg": false,
      "metar_trigger": false,
      "taf_trigger": false,
      "metar": "METAR EPMO 131900Z 16004KT 9999 BKN047 09/05 Q1002",
      "taf": "TAF EPMO 131730Z 1318/1418 23010KT CAVOK"
    },
    {
      "icao": "EPPO",
      "alert": "OK",
      "vis_m": 9999,
      "fzfg": false,
      "metar_trigger": false,
      "taf_trigger": false,
      "metar": "METAR EPPO 131900Z 23003KT 9999 FEW050CB 09/06 Q1001",
      "taf": "TAF EPPO 131730Z 1318/1418 24010KT 9999 SCT040"
    },
    {
      "icao": "EPRA",
      "alert": "OK",
      "vis_m": 9999,
      "fzfg": false,
      "metar_trigger": false,
      "taf_trigger": false,
      "metar": "METAR EPRA 131900Z 17005KT CAVOK 08/03 Q1004",
      "taf": "TAF EPRA 131730Z 1318/1403 20008KT CAVOK"
    },
    {
      "icao": "EPRZ",
      "alert": "OK",
      "vis_m": 9999,
      "fzfg": false,
      "metar_trigger": false,
      "taf_trigger": false,
      "metar": "METAR EPRZ 131900Z 20003KT CAVOK 10/03 Q1006",
      "taf": "TAF EPRZ 131730Z 1318/1418 25010KT CAVOK"
    },
    {
      "icao": "EPSC",
      "alert": "OK",
      "vis_m": 9999,
      "fzfg": false,
      "metar_trigger": false,
      "taf_trigger": false,
      "metar": "METAR EPSC 131900Z 16008KT 9999 FEW043 08/06 Q0999",
      "taf": "TAF EPSC 131730Z 1318/1418 17003KT CAVOK"
    },
    {
      "icao": "EPSY",
      "alert": "OK",
      "vis_m": 9999,
      "fzfg": false,
      "metar_trigger": false,
      "taf_trigger": false,
      "metar": "METAR EPSY 131900Z 18006KT CAVOK 09/04 Q1001",
      "taf": "TAF EPSY 131730Z 1318/1403 19006KT 9999 SCT040"
    },
    {
      "icao": "EPWA",
      "alert": "OK",
      "vis_m": 9999,
      "fzfg": false,
      "metar_trigger": false,
      "taf_trigger": false,
      "metar": "METAR EPWA 131900Z 17004KT CAVOK 10/04 Q1003 NOSIG",
      "taf": "TAF EPWA 131730Z 1318/1418 23010KT CAVOK"
    },
    {
      "icao": "EPWR",
      "alert": "OK",
      "vis_m": 9999,
      "fzfg": false,
      "metar_trigger": false,
      "taf_trigger": false,
      "metar": "METAR EPWR 131900Z 27005KT 9999 -SHRA FEW030CB SCT047 11/08 Q1003",
      "taf": "TAF EPWR 131730Z 1318/1418 27010KT 9999 SCT040"
    },
    {
      "icao": "ESGG",
      "alert": "OK",
      "vis_m": 9999,
      "fzfg": false,
      "metar_trigger": false,
      "taf_trigger": false,
      "metar": "METAR ESGG 131850Z VRB03KT 9999 DZ FEW005 SCT008 BKN015 06/05 Q0994",
      "taf": "TAF ESGG 131730Z 1318/1418 VRB03KT 9999 SCT010 BKN030"
    },
    {
      "icao": "ESKN",
      "alert": "OK",
      "vis_m": 3500,
      "fzfg": false,
      "metar_trigger": false,
      "taf_trigger": false,
      "metar": "METAR ESKN 131850Z 19005KT 3500 DZ BKN003 OVC007 07/07 Q0991",
      "taf": "TAF ESKN 131730Z 1318/1418 16005KT 9000 -RA SCT009 BKN015"
    },
    {
      "icao": "ESMS",
      "alert": "OK",
      "vis_m": 9999,
      "fzfg": false,
      "metar_trigger": false,
      "taf_trigger": false,
      "metar": "METAR ESMS 131850Z 28003KT 9999 FEW015 SCT034 BKN049 07/06 Q0996",
      "taf": "TAF ESMS 131727Z 1318/1418 20006KT 9999 FEW012 BKN025"
    },
    {
      "icao": "ESSA",
      "alert": "OK",
      "vis_m": 3300,
      "fzfg": false,
      "metar_trigger": false,
      "taf_trigger": false,
      "metar": "METAR ESSA 131850Z 36003KT 3300 DZ VV003 07/07 Q0991 TEMPO 4000 BR BKN005",
      "taf": "TAF ESSA 131730Z 1318/1418 36008KT 9999 OVC005"
    },
    {
      "icao": "EYKA",
      "alert": "OK",
      "vis_m": 9999,
      "fzfg": false,
      "metar_trigger": false,
      "taf_trigger": false,
      "metar": "METAR EYKA 131920Z 25003KT 200V270 9999 -SHRA FEW016 SCT039CB 07/06 Q1001",
      "taf": "TAF EYKA 131700Z 1318/1418 VRB03KT 9000 BKN045"
    },
    {
      "icao": "EYPA",
      "alert": "OK",
      "vis_m": 9999,
      "fzfg": false,
      "metar_trigger": false,
      "taf_trigger": false,
      "metar": "METAR EYPA 131920Z 21006KT 180V250 9999 SCT009 06/05 Q0999",
      "taf": "TAF EYPA 131700Z 1318/1418 24010KT 9000 BKN010 OVC020"
    },
    {
      "icao": "EYVI",
      "alert": "OK",
      "vis_m": 9999,
      "fzfg": false,
      "metar_trigger": false,
      "taf_trigger": false,
      "metar": "METAR EYVI 131920Z 21006KT CAVOK 06/05 Q1001 NOSIG",
      "taf": "TAF EYVI 131700Z 1318/1418 VRB03KT 9000 BKN045"
    },
    {
      "icao": "GCFV",
      "alert": "OK",
      "vis_m": 9999,
      "fzfg": false,
      "metar_trigger": false,
      "taf_trigger": false,
      "metar": "METAR GCFV 131900Z 03014KT 9999 FEW037 21/14 Q1018",
      "taf": "TAF GCFV 131400Z 1315/1415 06013KT 9999 FEW030 TX24/1414Z TN18/1406Z"
    },
    {
      "icao": "GCLP",
      "alert": "OK",
      "vis_m": 9999,
      "fzfg": false,
      "metar_trigger": false,
      "taf_trigger": false,
      "metar": "METAR GCLP 131900Z 01018KT 9999 FEW035 SCT042 20/14 Q1018 NOSIG",
      "taf": "TAF GCLP 131400Z 1315/1415 03020KT 9999 FEW030 TX23/1414Z TN17/1406Z"
    },
    {
      "icao": "GCTS",
      "alert": "OK",
      "vis_m": 9999,
      "fzfg": false,
      "metar_trigger": false,
      "taf_trigger": false,
      "metar": "METAR GCTS 131900Z 08012KT 9999 BKN038 20/12 Q1019 NOSIG",
      "taf": "TAF GCTS 131400Z 1315/1415 10020KT 9999 SCT035 TX23/1414Z TN16/1406Z"
    },
    {
      "icao": "GMAD",
      "alert": "OK",
      "vis_m": 9999,
      "fzfg": false,
      "metar_trigger": false,
      "taf_trigger": false,
      "metar": "METAR GMAD 131900Z 18009KT 9999 FEW040 BKN133 23/12 Q1014 NOSIG",
      "taf": "TAF GMAD 131700Z 1318/1424 18006KT 8000 SCT023"
    },
    {
      "icao": "GMMN",
      "alert": "OK",
      "vis_m": 9999,
      "fzfg": false,
      "metar_trigger": false,
      "taf_trigger": false,
      "metar": "METAR GMMN 131900Z 02011KT 9999 FEW020 18/13 Q1018 NOSIG",
      "taf": "TAF GMMN 131700Z 1318/1424 02010KT CAVOK"
    },
    {
      "icao": "GMMX",
      "alert": "OK",
      "vis_m": 9999,
      "fzfg": false,
      "metar_trigger": false,
      "taf_trigger": false,
      "metar": "METAR GMMX 131900Z 30004KT 260V340 9999 FEW040 SCT200 27/09 Q1014 NOSIG",
      "taf": "TAF GMMX 131700Z 1318/1424 28006KT 8000 FEW040 SCT200"
    },
    {
      "icao": "HEGN",
      "alert": "OK",
      "vis_m": 9999,
      "fzfg": false,
      "metar_trigger": false,
      "taf_trigger": false,
      "metar": "METAR HEGN 131900Z 29003KT CAVOK 28/07 Q1009 NOSIG",
      "taf": "TAF HEGN 131700Z 1318/1424 32014KT CAVOK"
    },
    {
      "icao": "HEMA",
      "alert": "OK",
      "vis_m": 9999,
      "fzfg": false,
      "metar_trigger": false,
      "taf_trigger": false,
      "metar": "METAR HEMA 131900Z 31010KT CAVOK 31/07 Q1008 NOSIG",
      "taf": "TAF HEMA 131700Z 1318/1424 31014KT CAVOK"
    },
    {
      "icao": "HESH",
      "alert": "OK",
      "vis_m": 9999,
      "fzfg": false,
      "metar_trigger": false,
      "taf_trigger": false,
      "metar": "METAR HESH 131900Z 35010KT CAVOK 32/07 Q1007 NOSIG",
      "taf": "TAF HESH 131700Z 1318/1424 35014KT CAVOK"
    },
    {
      "icao": "HESX",
      "alert": "OK",
      "vis_m": 9999,
      "fzfg": false,
      "metar_trigger": false,
      "taf_trigger": false,
      "metar": "METAR HESX 131900Z 03008KT CAVOK 26/08 Q1012 NOSIG",
      "taf": "TAF HESX 131700Z 1318/1424 34008KT CAVOK"
    },
    {
      "icao": "LATI",
      "alert": "OK",
      "vis_m": 9999,
      "fzfg": false,
      "metar_trigger": false,
      "taf_trigger": false,
      "metar": "METAR LATI 131920Z 16005KT 9999 SCT019 BKN045 BKN070 16/10 Q1007 NOSIG",
      "taf": "TAF LATI 131700Z 1318/1418 22010KT 9999 SCT050 BKN080 TX22/1413Z TN12/1405Z"
    },
    {
      "icao": "LBPD",
      "alert": "OK",
      "vis_m": 9999,
      "fzfg": false,
      "metar_trigger": false,
      "taf_trigger": false,
      "metar": "METAR LBPD 131900Z AUTO 24006KT 9999 BKN082/// 13/06 Q1006 NOSIG",
      "taf": "TAF LBPD 131700Z 1318/1418 28010KT 9999 SCT060"
    },
    {
      "icao": "LBSF",
      "alert": "OK",
      "vis_m": 9999,
      "fzfg": false,
      "metar_trigger": false,
      "taf_trigger": false,
      "metar": "METAR LBSF 131900Z AUTO 31008KT 9999 NCD 10/00 Q1007 NOSIG",
      "taf": "TAF LBSF 131700Z 1318/1418 30010KT 9999 BKN050"
    },
    {
      "icao": "LBWN",
      "alert": "OK",
      "vis_m": 9999,
      "fzfg": false,
      "metar_trigger": false,
      "taf_trigger": false,
      "metar": "METAR LBWN 131900Z AUTO 27005KT 9999 NSC 11/03 Q1006 NOSIG",
      "taf": "TAF LBWN 131700Z 1318/1418 28014KT 9999 SCT040"
    },
    {
      "icao": "LCLK",
      "alert": "OK",
      "vis_m": 9999,
      "fzfg": false,
      "metar_trigger": false,
      "taf_trigger": false,
      "metar": "METAR LCLK 131900Z 23008KT CAVOK 21/19 Q1008 NOSIG",
      "taf": "TAF LCLK 131730Z 1318/1418 24009KT CAVOK"
    },
    {
      "icao": "LCPH",
      "alert": "OK",
      "vis_m": 9999,
      "fzfg": false,
      "metar_trigger": false,
      "taf_trigger": false,
      "metar": "METAR LCPH 131900Z 01001KT 9999 FEW010 19/17 Q1009 NOSIG",
      "taf": ""
    },
    {
      "icao": "LEAL",
      "alert": "OK",
      "vis_m": 9999,
      "fzfg": false,
      "metar_trigger": false,
      "taf_trigger": false,
      "metar": "METAR LEAL 131900Z 20006KT 160V230 9999 FEW069 23/10 Q1013 NOSIG",
      "taf": "TAF LEAL 131700Z 1318/1418 18010KT 9999 FEW020 TX27/1412Z TN16/1406Z"
    },
    {
      "icao": "LEBB",
      "alert": "OK",
      "vis_m": 9999,
      "fzfg": false,
      "metar_trigger": false,
      "taf_trigger": false,
      "metar": "METAR LEBB 131900Z 31008KT 280V340 9999 SCT025 SCT038 BKN055 15/11 Q1018 NOSIG",
      "taf": "TAF LEBB 131700Z 1318/1418 30009KT 9999 FEW030 SCT040 TX15/1413Z TN11/1409Z"
    },
    {
      "icao": "LEBL",
      "alert": "OK",
      "vis_m": 9999,
      "fzfg": false,
      "metar_trigger": false,
      "taf_trigger": false,
      "metar": "METAR LEBL 131900Z 06011KT 9999 FEW027 18/12 Q1012 NOSIG",
      "taf": "TAF LEBL 131700Z 1318/1418 VRB04KT 9999 FEW060 TX24/1412Z TN13/1405Z"
    },
    {
      "icao": "LECH",
      "alert": "OK",
      "vis_m": 9999,
      "fzfg": false,
      "metar_trigger": false,
      "taf_trigger": false,
      "metar": "METAR LECH 131900Z AUTO VRB02KT CAVOK 17/12 Q1014",
      "taf": "TAF LECH 131700Z 1318/1418 VRB03KT CAVOK TX21/1414Z TN10/1406Z"
    },
    {
      "icao": "LEMD",
      "alert": "OK",
      "vis_m": 9999,
      "fzfg": false,
      "metar_trigger": false,
      "taf_trigger": false,
      "metar": "METAR LEMD 131900Z 24013KT 9999 FEW060TCU 18/07 Q1015 NOSIG",
      "taf": "TAF LEMD 131700Z 1318/1424 25010KT 9999 FEW060 TX22/1416Z TN07/1405Z"
    },
    {
      "icao": "LEMG",
      "alert": "OK",
      "vis_m": 9999,
      "fzfg": false,
      "metar_trigger": false,
      "taf_trigger": false,
      "metar": "METAR LEMG 131900Z 33009KT 300V360 9999 FEW080 24/08 Q1015 NOSIG",
      "taf": "TAF LEMG 131700Z 1318/1418 30010KT 9999 FEW080 TX28/1414Z TN15/1406Z"
    },
    {
      "icao": "LEVC",
      "alert": "OK",
      "vis_m": 9999,
      "fzfg": false,
      "metar_trigger": false,
      "taf_trigger": false,
      "metar": "METAR LEVC 131900Z 06010KT CAVOK 20/14 Q1013 WS R12 NOSIG",
      "taf": "TAF LEVC 131700Z 1318/1418 28009KT 9999 FEW060 TX28/1412Z TN15/1406Z"
    },
    {
      "icao": "LEXJ",
      "alert": "OK",
      "vis_m": 9999,
      "fzfg": false,
      "metar_trigger": false,
      "taf_trigger": false,
      "metar": "METAR LEXJ 131900Z 30010KT 270V330 9999 BKN025 BKN050 15/10 Q1018",
      "taf": "TAF LEXJ 131400Z 1315/1415 28009KT 9999 FEW020 BKN040 TX16/1315Z TN12/1406Z"
    },
    {
      "icao": "LEZG",
      "alert": "OK",
      "vis_m": 9999,
      "fzfg": false,
      "metar_trigger": false,
      "taf_trigger": false,
      "metar": "METAR LEZG 131900Z 30010KT 280V340 CAVOK 16/06 Q1015 NOSIG",
      "taf": "TAF LEZG 131700Z 1318/1418 30012KT 9999 FEW040 TX20/1418Z TN11/1405Z"
    },
    {
      "icao": "LEZL",
      "alert": "OK",
      "vis_m": 9999,
      "fzfg": false,
      "metar_trigger": false,
      "taf_trigger": false,
      "metar": "METAR LEZL 131900Z 23011KT 210V280 CAVOK 22/12 Q1016 NOSIG",
      "taf": "TAF LEZL 131400Z 1315/1415 24010KT CAVOK TX26/1315Z TN12/1406Z"
    },
    {
      "icao": "LFBD",
      "alert": "OK",
      "vis_m": 9999,
      "fzfg": false,
      "metar_trigger": false,
      "taf_trigger": false,
      "metar": "METAR LFBD 131900Z AUTO 26011KT 9999 FEW036 BKN058 BKN210 14/07 Q1015 TEMPO 29015G25KT",
      "taf": "TAF LFBD 131700Z 1318/1424 29010KT 9999 BKN040 TX16/1318Z TN11/1404Z"
    },
    {
      "icao": "LFLL",
      "alert": "OK",
      "vis_m": 9999,
      "fzfg": false,
      "metar_trigger": false,
      "taf_trigger": false,
      "metar": "METAR LFLL 131900Z 18009KT 9999 FEW058TCU BKN063 16/06 Q1008 NOSIG",
      "taf": "TAF LFLL 131700Z 1318/1424 22008KT CAVOK"
    },
    {
      "icao": "LFLS",
      "alert": "OK",
      "vis_m": 9999,
      "fzfg": false,
      "metar_trigger": false,
      "taf_trigger": false,
      "metar": "METAR LFLS 131900Z AUTO 15004KT 9999 ///TCU 13/05 Q1009 TEMPO OVC040",
      "taf": "TAF LFLS 131400Z 1315/1415 VRB05KT 9999 BKN060"
    },
    {
      "icao": "LFMN",
      "alert": "OK",
      "vis_m": 9999,
      "fzfg": false,
      "metar_trigger": false,
      "taf_trigger": false,
      "metar": "METAR LFMN 131900Z 13004KT CAVOK 17/12 Q1005 NOSIG",
      "taf": "TAF LFMN 131400Z 1315/1421 18015KT 9999 BKN100"
    },
    {
      "icao": "LFOB",
      "alert": "OK",
      "vis_m": 9999,
      "fzfg": false,
      "metar_trigger": false,
      "taf_trigger": false,
      "metar": "METAR LFOB 131900Z AUTO 30009KT 9999 SCT033 SCT043 BKN049 08/04 Q1003 TEMPO 27015G25KT 4000 SHRA BKN020TCU BKN025",
      "taf": "TAF LFOB 131700Z 1318/1418 26010KT 9999 SCT020 BKN040"
    },
    {
      "icao": "LFPO",
      "alert": "OK",
      "vis_m": 9999,
      "fzfg": false,
      "metar_trigger": false,
      "taf_trigger": false,
      "metar": "METAR LFPO 131900Z AUTO 26008KT CAVOK 09/06 Q1005 TEMPO 4500 -SHRA BKN030CB",
      "taf": "TAF LFPO 131700Z 1318/1424 27010KT 9999 SCT030"
    },
    {
      "icao": "LFSB",
      "alert": "OK",
      "vis_m": 9999,
      "fzfg": false,
      "metar_trigger": false,
      "taf_trigger": false,
      "metar": "METAR LFSB 131900Z AUTO 29017KT 260V320 9999 -RA FEW032/// BKN054/// OVC072/// ///CB 11/07 Q1006 TEMPO 25015G25KT 4000 SHRA",
      "taf": "TAF LFSB 131700Z 1318/1418 24012KT 9999 SCT040 BKN060"
    },
    {
      "icao": "LGAV",
      "alert": "OK",
      "vis_m": 9999,
      "fzfg": false,
      "metar_trigger": false,
      "taf_trigger": false,
      "metar": "METAR LGAV 131850Z VRB04KT 9999 FEW020 20/11 Q1004 NOSIG",
      "taf": "TAF LGAV 131700Z 1318/1418 26008KT 9999 FEW020"
    },
    {
      "icao": "LGTS",
      "alert": "OK",
      "vis_m": 9999,
      "fzfg": false,
      "metar_trigger": false,
      "taf_trigger": false,
      "metar": "METAR LGTS 131850Z VRB03KT 9999 FEW018TCU SCT025 18/15 Q1004 NOSIG",
      "taf": "TAF LGTS 131700Z 1318/1418 33013KT 9999 FEW030"
    },
    {
      "icao": "LHBP",
      "alert": "OK",
      "vis_m": 9999,
      "fzfg": false,
      "metar_trigger": false,
      "taf_trigger": false,
      "metar": "METAR LHBP 131900Z 20005KT 130V220 CAVOK 13/00 Q1007 NOSIG",
      "taf": "TAF LHBP 131715Z 1318/1418 27006KT CAVOK"
    },
    {
      "icao": "LHDC",
      "alert": "OK",
      "vis_m": 9999,
      "fzfg": false,
      "metar_trigger": false,
      "taf_trigger": false,
      "metar": "METAR LHDC 131845Z AUTO 23002KT CAVOK 12/03 Q1007",
      "taf": "TAF LHDC 131415Z 1315/1324 VRB03KT CAVOK"
    },
    {
      "icao": "LIBD",
      "alert": "OK",
      "vis_m": 9999,
      "fzfg": false,
      "metar_trigger": false,
      "taf_trigger": false,
      "metar": "METAR LIBD 131920Z 21004KT 9999 -RA BKN045 15/14 Q1006",
      "taf": "TAF LIBD 131700Z 1318/1418 25006KT 9999 SCT020"
    },
    {
      "icao": "LIBG",
      "alert": "OK",
      "vis_m": null,
      "fzfg": false,
      "metar_trigger": false,
      "taf_trigger": false,
      "metar": "",
      "taf": "TAF LIBG 131400Z 1315/1324 VRB05KT 9999 SCT040"
    },
    {
      "icao": "LIBP",
      "alert": "OK",
      "vis_m": 9999,
      "fzfg": false,
      "metar_trigger": false,
      "taf_trigger": false,
      "metar": "METAR LIBP 131920Z AUTO 09003KT 9999 FEW090/// 15/08 Q1007",
      "taf": "TAF LIBP 131700Z 1318/1418 VRB05KT 9999 SCT070"
    },
    {
      "icao": "LIBR",
      "alert": "OK",
      "vis_m": 8000,
      "fzfg": false,
      "metar_trigger": false,
      "taf_trigger": false,
      "metar": "METAR LIBR 131920Z 25009KT 8000 -RA NSC 15/13 Q1007",
      "taf": "TAF LIBR 131700Z 1318/1418 VRB06KT 9999 SCT040"
    },
    {
      "icao": "LICA",
      "alert": "OK",
      "vis_m": 9999,
      "fzfg": false,
      "metar_trigger": false,
      "taf_trigger": false,
      "metar": "METAR LICA 131920Z AUTO 25011KT 9999 -RA FEW017/// BKN084/// 19/16 Q1008",
      "taf": "TAF LICA 131700Z 1318/1418 27013KT 9999 SCT013"
    },
    {
      "icao": "LICC",
      "alert": "OK",
      "vis_m": 9999,
      "fzfg": false,
      "metar_trigger": false,
      "taf_trigger": false,
      "metar": "METAR LICC 131920Z 20005KT 9999 FEW070 20/14 Q1008",
      "taf": "TAF LICC 131700Z 1318/1418 06010KT CAVOK"
    },
    {
      "icao": "LICJ",
      "alert": "OK",
      "vis_m": 9999,
      "fzfg": false,
      "metar_trigger": false,
      "taf_trigger": false,
      "metar": "METAR LICJ 131920Z 26021KT 9999 FEW020 19/15 Q1010",
      "taf": "TAF LICJ 131700Z 1318/1418 26016KT CAVOK"
    },
    {
      "icao": "LIMC",
      "alert": "OK",
      "vis_m": 9999,
      "fzfg": false,
      "metar_trigger": false,
      "taf_trigger": false,
      "metar": "METAR LIMC 131850Z 21005KT 180V240 CAVOK 17/05 Q1005 NOSIG",
      "taf": "TAF LIMC 131700Z 1318/1424 VRB05KT 9999 SCT070"
    },
    {
      "icao": "LIME",
      "alert": "OK",
      "vis_m": 9999,
      "fzfg": false,
      "metar_trigger": false,
      "taf_trigger": false,
      "metar": "METAR LIME 131850Z 17003KT 150V210 9999 FEW055 17/05 Q1005 NOSIG",
      "taf": "TAF LIME 131700Z 1318/1418 VRB05KT 9999 FEW070"
    },
    {
      "icao": "LIMF",
      "alert": "OK",
      "vis_m": 9999,
      "fzfg": false,
      "metar_trigger": false,
      "taf_trigger": false,
      "metar": "METAR LIMF 131850Z 03002KT 9999 FEW050 15/08 Q1005",
      "taf": "TAF LIMF 131700Z 1318/1418 VRB05KT 9999 BKN060"
    },
    {
      "icao": "LIMJ",
      "alert": "OK",
      "vis_m": 9999,
      "fzfg": false,
      "metar_trigger": false,
      "taf_trigger": false,
      "metar": "METAR LIMJ 131850Z AUTO 22005KT 9999 FEW067/// 19/10 Q1006",
      "taf": "TAF LIMJ 131700Z 1318/1418 18010KT CAVOK"
    },
    {
      "icao": "LIPE",
      "alert": "OK",
      "vis_m": 9999,
      "fzfg": false,
      "metar_trigger": false,
      "taf_trigger": false,
      "metar": "METAR LIPE 131850Z 10008KT CAVOK 16/09 Q1005",
      "taf": "TAF LIPE 131700Z 1318/1418 10010KT 9999 SCT060"
    },
    {
      "icao": "LIPH",
      "alert": "OK",
      "vis_m": 9999,
      "fzfg": false,
      "metar_trigger": false,
      "taf_trigger": false,
      "metar": "METAR LIPH 131920Z 15004KT CAVOK 14/04 Q1006",
      "taf": "TAF LIPH 131700Z 1318/1418 VRB05KT 9999 SCT040"
    },
    {
      "icao": "LIPQ",
      "alert": "OK",
      "vis_m": 9999,
      "fzfg": false,
      "metar_trigger": false,
      "taf_trigger": false,
      "metar": "METAR LIPQ 131920Z AUTO 29001KT 9999 NCD 13/06 Q1006",
      "taf": "TAF LIPQ 131700Z 1318/1418 07006KT 9999 SCT060"
    },
    {
      "icao": "LIPR",
      "alert": "OK",
      "vis_m": 9999,
      "fzfg": false,
      "metar_trigger": false,
      "taf_trigger": false,
      "metar": "METAR LIPR 131920Z 13002KT CAVOK 14/07 Q1006",
      "taf": "TAF LIPR 131700Z 1318/1418 VRB05KT 9999 FEW060"
    },
    {
      "icao": "LIPX",
      "alert": "OK",
      "vis_m": 9999,
      "fzfg": false,
      "metar_trigger": false,
      "taf_trigger": false,
      "metar": "METAR LIPX 131920Z 14003KT 9999 FEW050 14/10 Q1006",
      "taf": "TAF LIPX 131700Z 1318/1418 VRB05KT CAVOK"
    },
    {
      "icao": "LIPY",
      "alert": "OK",
      "vis_m": 9999,
      "fzfg": false,
      "metar_trigger": false,
      "taf_trigger": false,
      "metar": "METAR LIPY 131920Z AUTO VRB02KT 9999 SCT090/// 15/06 Q1006",
      "taf": "TAF LIPY 131700Z 1318/1418 VRB05KT 9999 FEW060"
    },
    {
      "icao": "LIPZ",
      "alert": "OK",
      "vis_m": 9999,
      "fzfg": false,
      "metar_trigger": false,
      "taf_trigger": false,
      "metar": "METAR LIPZ 131850Z 17005KT CAVOK 15/05 Q1006 NOSIG",
      "taf": "TAF LIPZ 131700Z 1318/1424 VRB05KT 9999 SCT060"
    },
    {
      "icao": "LIRF",
      "alert": "OK",
      "vis_m": 9999,
      "fzfg": false,
      "metar_trigger": false,
      "taf_trigger": false,
      "metar": "METAR LIRF 131850Z 25005KT CAVOK 16/12 Q1006 NOSIG",
      "taf": "TAF LIRF 131700Z 1318/1424 VRB05KT 9999 FEW030"
    },
    {
      "icao": "LIRN",
      "alert": "OK",
      "vis_m": 9999,
      "fzfg": false,
      "metar_trigger": false,
      "taf_trigger": false,
      "metar": "METAR LIRN 131850Z 29005KT 250V320 9999 SCT050 17/11 Q1007 NOSIG",
      "taf": "TAF LIRN 131700Z 1318/1418 VRB05KT 9999 SCT025"
    },
    {
      "icao": "LIRP",
      "alert": "OK",
      "vis_m": 9999,
      "fzfg": false,
      "metar_trigger": false,
      "taf_trigger": false,
      "metar": "METAR LIRP 131845Z 20004KT CAVOK 15/11 Q1006 NOSIG",
      "taf": "TAF LIRP 131700Z 1318/1418 VRB03KT 9999 FEW020"
    },
    {
      "icao": "LIRZ",
      "alert": "OK",
      "vis_m": 9999,
      "fzfg": false,
      "metar_trigger": false,
      "taf_trigger": false,
      "metar": "METAR LIRZ 131920Z AUTO 08004KT 9999 -DZRA BKN064/// 13/12 Q1007",
      "taf": "TAF LIRZ 131700Z 1318/1418 VRB05KT 9999 SCT030"
    },
    {
      "icao": "LJLJ",
      "alert": "OK",
      "vis_m": 9999,
      "fzfg": false,
      "metar_trigger": false,
      "taf_trigger": false,
      "metar": "METAR LJLJ 131900Z 22004KT 170V290 9999 FEW055 12/05 Q1006 NOSIG",
      "taf": "TAF LJLJ 131700Z 1318/1418 10005KT 9999 FEW045"
    },
    {
      "icao": "LKMT",
      "alert": "OK",
      "vis_m": 9999,
      "fzfg": false,
      "metar_trigger": false,
      "taf_trigger": false,
      "metar": "METAR LKMT 131900Z 16004KT CAVOK 12/02 Q1004 NOSIG",
      "taf": "TAF LKMT 131700Z 1318/1418 20008KT CAVOK"
    },
    {
      "icao": "LKPR",
      "alert": "OK",
      "vis_m": 9999,
      "fzfg": false,
      "metar_trigger": false,
      "taf_trigger": false,
      "metar": "METAR LKPR 131900Z 24005KT CAVOK 10/05 Q1003 NOSIG",
      "taf": "TAF LKPR 131700Z 1318/1424 23010KT CAVOK"
    },
    {
      "icao": "LLBG",
      "alert": "OK",
      "vis_m": 9999,
      "fzfg": false,
      "metar_trigger": false,
      "taf_trigger": false,
      "metar": "METAR LLBG 131920Z VRB02KT CAVOK 23/12 Q1012 NOSIG",
      "taf": "TAF LLBG 131704Z 1318/1418 VRB04KT CAVOK TX34/1411Z TN18/1403Z"
    },
    {
      "icao": "LMML",
      "alert": "OK",
      "vis_m": 9999,
      "fzfg": false,
      "metar_trigger": false,
      "taf_trigger": false,
      "metar": "METAR LMML 131915Z 30019KT 9999 FEW014 18/14 Q1012 NOSIG",
      "taf": "TAF LMML 131700Z 1318/1418 30018G30KT 9999 FEW015"
    },
    {
      "icao": "LOWW",
      "alert": "OK",
      "vis_m": 9999,
      "fzfg": false,
      "metar_trigger": false,
      "taf_trigger": false,
      "metar": "METAR LOWW 131850Z 18007KT CAVOK 13/03 Q1005 NOSIG",
      "taf": ""
    },
    {
      "icao": "LPFR",
      "alert": "OK",
      "vis_m": 9999,
      "fzfg": false,
      "metar_trigger": false,
      "taf_trigger": false,
      "metar": "METAR LPFR 131900Z 26013KT 9999 FEW020 18/14 Q1017",
      "taf": "TAF LPFR 131700Z 1318/1418 24015KT 9999 FEW020"
    },
    {
      "icao": "LPMA",
      "alert": "OK",
      "vis_m": 9999,
      "fzfg": false,
      "metar_trigger": false,
      "taf_trigger": false,
      "metar": "METAR LPMA 131900Z VRB01KT 9999 -SHRA FEW012 BKN015 FEW016TCU 16/13 Q1021",
      "taf": "TAF LPMA 131700Z 1318/1418 VRB05KT 9999 SCT015"
    },
    {
      "icao": "LPPR",
      "alert": "OK",
      "vis_m": 9999,
      "fzfg": false,
      "metar_trigger": false,
      "taf_trigger": false,
      "metar": "METAR LPPR 131900Z 33010KT 9999 FEW018 16/10 Q1018",
      "taf": "TAF LPPR 131700Z 1318/1418 32008KT 9999 FEW015"
    },
    {
      "icao": "LPPS",
      "alert": "OK",
      "vis_m": 9999,
      "fzfg": false,
      "metar_trigger": false,
      "taf_trigger": false,
      "metar": "METAR LPPS 131900Z 01009KT 9999 SCT015 17/12 Q1021",
      "taf": "TAF LPPS 131700Z 1318/1424 34010KT 9999 SCT015"
    },
    {
      "icao": "LPPT",
      "alert": "OK",
      "vis_m": 9999,
      "fzfg": false,
      "metar_trigger": false,
      "taf_trigger": false,
      "metar": "METAR LPPT 131900Z 30007KT 260V330 9999 FEW025 18/12 Q1018",
      "taf": "TAF LPPT 131700Z 1318/1424 30008KT 9999 FEW020"
    },
    {
      "icao": "LQBK",
      "alert": "OK",
      "vis_m": 9999,
      "fzfg": false,
      "metar_trigger": false,
      "taf_trigger": false,
      "metar": "METAR LQBK 131900Z 29003KT CAVOK 09/04 Q1007 NOSIG",
      "taf": ""
    },
    {
      "icao": "LQSA",
      "alert": "OK",
      "vis_m": 9999,
      "fzfg": false,
      "metar_trigger": false,
      "taf_trigger": false,
      "metar": "METAR LQSA 131900Z 12006KT CAVOK 09/02 Q1006 NOSIG",
      "taf": "TAF LQSA 131700Z 1318/1418 VRB02KT CAVOK TX22/1413Z TN03/1404Z"
    },
    {
      "icao": "LQTZ",
      "alert": "OK",
      "vis_m": 9999,
      "fzfg": false,
      "metar_trigger": false,
      "taf_trigger": false,
      "metar": "METAR LQTZ 131900Z 11004KT CAVOK 09/05 Q1007",
      "taf": "TAF LQTZ 131700Z 1318/1418 VRB02KT CAVOK TX21/1413Z TN02/1404Z"
    },
    {
      "icao": "LRBC",
      "alert": "OK",
      "vis_m": 9999,
      "fzfg": false,
      "metar_trigger": false,
      "taf_trigger": false,
      "metar": "METAR LRBC 131900Z 30007KT 9999 BKN065 10/08 Q1006",
      "taf": "TAF LRBC 131700Z 1318/1403 31008KT 9999 SCT035CB BKN050"
    },
    {
      "icao": "LRBS",
      "alert": "OK",
      "vis_m": 9999,
      "fzfg": false,
      "metar_trigger": false,
      "taf_trigger": false,
      "metar": "METAR LRBS 131900Z 04005KT CAVOK 12/08 Q1006 NOSIG",
      "taf": "TAF LRBS 131700Z 1318/1418 04005KT 9999 SCT045"
    },
    {
      "icao": "LRBV",
      "alert": "OK",
      "vis_m": 9999,
      "fzfg": false,
      "metar_trigger": false,
      "taf_trigger": false,
      "metar": "METAR LRBV 131900Z 28003KT 250V320 9999 FEW015 OVC031 07/05 Q1008",
      "taf": ""
    },
    {
      "icao": "LRCL",
      "alert": "OK",
      "vis_m": 9999,
      "fzfg": false,
      "metar_trigger": false,
      "taf_trigger": false,
      "metar": "METAR LRCL 131900Z 00000KT 9999 SCT066 09/04 Q1008",
      "taf": "TAF LRCL 131700Z 1318/1403 VRB04KT 9999 SCT060"
    },
    {
      "icao": "LRCV",
      "alert": "OK",
      "vis_m": 9999,
      "fzfg": false,
      "metar_trigger": false,
      "taf_trigger": false,
      "metar": "METAR LRCV 131900Z 29008KT CAVOK 10/04 Q1006",
      "taf": "TAF LRCV 131700Z 1318/1403 29010KT CAVOK"
    },
    {
      "icao": "LRIA",
      "alert": "OK",
      "vis_m": 9999,
      "fzfg": false,
      "metar_trigger": false,
      "taf_trigger": false,
      "metar": "METAR LRIA 131900Z 30008KT 280V340 CAVOK 11/04 Q1005",
      "taf": "TAF LRIA 131700Z 1318/1403 31010KT CAVOK"
    },
    {
      "icao": "LROP",
      "alert": "OK",
      "vis_m": 9999,
      "fzfg": false,
      "metar_trigger": false,
      "taf_trigger": false,
      "metar": "METAR LROP 131900Z COR 06007KT CAVOK 13/07 Q1006 NOSIG",
      "taf": "TAF LROP 131700Z 1318/1418 04005KT 9999 SCT045"
    },
    {
      "icao": "LRSB",
      "alert": "OK",
      "vis_m": 9999,
      "fzfg": false,
      "metar_trigger": false,
      "taf_trigger": false,
      "metar": "METAR LRSB 131900Z 06003KT 9999 SCT048 BKN060 BKN075 09/05 Q1008",
      "taf": "TAF LRSB 131700Z 1318/1418 VRB04KT 9999 BKN050"
    },
    {
      "icao": "LRSM",
      "alert": "OK",
      "vis_m": 9999,
      "fzfg": false,
      "metar_trigger": false,
      "taf_trigger": false,
      "metar": "METAR LRSM 131900Z AUTO 18003KT 9999 NCD 09/06 Q1007",
      "taf": "TAF LRSM 131400Z 1315/1324 25010KT CAVOK"
    },
    {
      "icao": "LRSV",
      "alert": "OK",
      "vis_m": 9999,
      "fzfg": false,
      "metar_trigger": false,
      "taf_trigger": false,
      "metar": "METAR LRSV 131900Z 27006KT CAVOK 07/04 Q1006",
      "taf": "TAF LRSV 131700Z 1318/1403 31008KT CAVOK"
    },
    {
      "icao": "LRTM",
      "alert": "OK",
      "vis_m": 9999,
      "fzfg": false,
      "metar_trigger": false,
      "taf_trigger": false,
      "metar": "METAR LRTM 131900Z 24002KT 9999 FEW038 08/07 Q1008",
      "taf": "TAF LRTM 131700Z 1318/1403 31005KT 9999 SCT030"
    },
    {
      "icao": "LRTR",
      "alert": "OK",
      "vis_m": 9999,
      "fzfg": false,
      "metar_trigger": false,
      "taf_trigger": false,
      "metar": "METAR LRTR 131900Z 18003KT CAVOK 12/04 Q1008",
      "taf": "TAF LRTR 131700Z 1318/1418 VRB04KT CAVOK"
    },
    {
      "icao": "LTAC",
      "alert": "OK",
      "vis_m": 9999,
      "fzfg": false,
      "metar_trigger": false,
      "taf_trigger": false,
      "metar": "METAR LTAC 131850Z 04006KT 9999 FEW040 SCT100 14/10 Q1007 NOSIG RMK RWY21C 02006KT RWY03L 02005KT RWY21R 01007KT RWY03R 06004KT 020V080 RWY21L 01006KT",
      "taf": "TAF LTAC 131640Z 1318/1418 VRB02KT 9999 SCT040 SCT100"
    },
    {
      "icao": "LTFM",
      "alert": "OK",
      "vis_m": 9999,
      "fzfg": false,
      "metar_trigger": false,
      "taf_trigger": false,
      "metar": "METAR LTFM 131850Z 04014KT 9999 FEW025CB SCT035 BKN090 15/11 Q1006 NOSIG RMK RWY17L 05014KT RWY34L 03012KT RWY16R 05014KT RWY36 04013KT RWY18 05012KT",
      "taf": "TAF LTFM 131640Z 1318/1424 07012KT 9999 SCT035 BKN090"
    },
    {
      "icao": "LUKK",
      "alert": "OK",
      "vis_m": 9999,
      "fzfg": false,
      "metar_trigger": false,
      "taf_trigger": false,
      "metar": "METAR LUKK 131900Z 35009KT 320V020 CAVOK 12/08 Q1003 NOSIG",
      "taf": "TAF LUKK 131701Z 1318/1418 33010KT 9999 BKN030"
    },
    {
      "icao": "LWOH",
      "alert": "OK",
      "vis_m": 9999,
      "fzfg": false,
      "metar_trigger": false,
      "taf_trigger": false,
      "metar": "METAR LWOH 131850Z 14012KT 9999 -DZ OVC045 12/09 Q1008",
      "taf": "TAF LWOH 131430Z 1315/1415 17010KT 9999 BKN035"
    },
    {
      "icao": "LWSK",
      "alert": "OK",
      "vis_m": 9999,
      "fzfg": false,
      "metar_trigger": false,
      "taf_trigger": false,
      "metar": "METAR LWSK 131920Z 02006KT 9999 BKN082 13/05 Q1007 NOSIG",
      "taf": "TAF LWSK 131730Z 1318/1418 02010KT 9999 SCT080"
    },
    {
      "icao": "LYBE",
      "alert": "OK",
      "vis_m": 9999,
      "fzfg": false,
      "metar_trigger": false,
      "taf_trigger": false,
      "metar": "METAR LYBE 131900Z 02002KT CAVOK 09/05 Q1008 NOSIG",
      "taf": "TAF LYBE 131700Z 1318/1418 07004KT CAVOK TX21/1413Z TN05/1404Z"
    },
    {
      "icao": "LYNI",
      "alert": "OK",
      "vis_m": 9999,
      "fzfg": false,
      "metar_trigger": false,
      "taf_trigger": false,
      "metar": "METAR LYNI 131900Z VRB01KT CAVOK 10/04 Q1008 NOSIG",
      "taf": "TAF LYNI 131700Z 1318/1418 06004KT CAVOK TX21/1413Z TN03/1404Z"
    },
    {
      "icao": "LYPG",
      "alert": "OK",
      "vis_m": 9999,
      "fzfg": false,
      "metar_trigger": false,
      "taf_trigger": false,
      "metar": "METAR LYPG 131900Z VRB02KT 9999 FEW060 16/07 Q1006 NOSIG",
      "taf": "TAF LYPG 131700Z 1318/1418 36005KT 9999 SCT060 TX22/1413Z TN12/1404Z"
    },
    {
      "icao": "LZIB",
      "alert": "OK",
      "vis_m": 9999,
      "fzfg": false,
      "metar_trigger": false,
      "taf_trigger": false,
      "metar": "METAR LZIB 131900Z 19007KT CAVOK 15/02 Q1005 NOSIG",
      "taf": "TAF LZIB 131715Z 1318/1418 21005KT CAVOK"
    },
    {
      "icao": "LZKZ",
      "alert": "OK",
      "vis_m": 9999,
      "fzfg": false,
      "metar_trigger": false,
      "taf_trigger": false,
      "metar": "METAR LZKZ 131900Z 33003KT CAVOK 12/05 Q1006 NOSIG",
      "taf": "TAF LZKZ 131715Z 1318/1418 VRB02KT CAVOK"
    },
    {
      "icao": "LZTT",
      "alert": "OK",
      "vis_m": 9999,
      "fzfg": false,
      "metar_trigger": false,
      "taf_trigger": false,
      "metar": "METAR LZTT 131900Z 26008KT 9999 FEW060 SCT073 07/01 Q1006",
      "taf": "TAF LZTT 131715Z 1318/1418 27014KT 9999 SCT035"
    },
    {
      "icao": "OEJN",
      "alert": "OK",
      "vis_m": 9999,
      "fzfg": false,
      "metar_trigger": false,
      "taf_trigger": false,
      "metar": "METAR OEJN 131900Z 33006KT CAVOK 30/19 Q1006 NOSIG",
      "taf": "TAF OEJN 131700Z 1318/1424 36006KT CAVOK"
    },
    {
      "icao": "OEMA",
      "alert": "OK",
      "vis_m": 9999,
      "fzfg": false,
      "metar_trigger": false,
      "taf_trigger": false,
      "metar": "METAR OEMA 131900Z 26007KT CAVOK 36/M02 Q1011 NOSIG",
      "taf": "TAF OEMA 131700Z 1318/1424 28006KT CAVOK"
    },
    {
      "icao": "OJAI",
      "alert": "OK",
      "vis_m": 4000,
      "fzfg": false,
      "metar_trigger": false,
      "taf_trigger": false,
      "metar": "METAR OJAI 131900Z 30004KT 4000 HZ NSC 21/10 Q1014 NOSIG",
      "taf": "TAF OJAI 131700Z 1318/1424 28012KT 5000 HZ NSC"
    },
    {
      "icao": "OMAA",
      "alert": "OK",
      "vis_m": 9999,
      "fzfg": false,
      "metar_trigger": false,
      "taf_trigger": false,
      "metar": "METAR OMAA 131900Z 21002KT CAVOK 30/18 Q1003 NOSIG",
      "taf": "TAF OMAA 131700Z 1318/1500 27005KT 8000 NSC"
    },
    {
      "icao": "OMDB",
      "alert": "OK",
      "vis_m": 9999,
      "fzfg": false,
      "metar_trigger": false,
      "taf_trigger": false,
      "metar": "METAR OMDB 131900Z 16006KT CAVOK 31/19 Q1003 NOSIG",
      "taf": "TAF OMDB 131700Z 1318/1500 19006KT CAVOK"
    },
    {
      "icao": "UAAA",
      "alert": "OK",
      "vis_m": 9999,
      "fzfg": false,
      "metar_trigger": false,
      "taf_trigger": false,
      "metar": "METAR UAAA 131900Z 19001MPS 9999 FEW200 10/06 Q1018 NOSIG",
      "taf": "TAF UAAA 131701Z 1318/1418 20003MPS 9999 FEW050 SCT100 TX21/1406Z TN08/1401Z"
    },
    {
      "icao": "UBBB",
      "alert": "OK",
      "vis_m": 9999,
      "fzfg": false,
      "metar_trigger": false,
      "taf_trigger": false,
      "metar": "METAR UBBB 131900Z 26008KT 9999 SCT060CB 20/14 Q1002 TEMPO TS",
      "taf": "TAF UBBB 131707Z 1318/1418 28005KT 9999 FEW050CB TX23/1410Z TN14/1401Z"
    },
    {
      "icao": "UDSG",
      "alert": "OK",
      "vis_m": 9999,
      "fzfg": false,
      "metar_trigger": false,
      "taf_trigger": false,
      "metar": "METAR UDSG 131900Z 36001KT 9999 SCT046CB 09/08 Q1013 NOSIG",
      "taf": "TAF UDSG 131700Z 1318/1418 36006KT 9999 BKN040"
    },
    {
      "icao": "UDYZ",
      "alert": "OK",
      "vis_m": 9999,
      "fzfg": false,
      "metar_trigger": false,
      "taf_trigger": false,
      "metar": "METAR UDYZ 131900Z VRB02KT 9999 SCT043CB 13/10 Q1009 NOSIG",
      "taf": "TAF UDYZ 131700Z 1318/1418 14006KT 9999 SCT040"
    },
    {
      "icao": "UGKO",
      "alert": "OK",
      "vis_m": 9999,
      "fzfg": false,
      "metar_trigger": false,
      "taf_trigger": false,
      "metar": "METAR UGKO 131900Z 06005KT CAVOK 15/14 Q1007 NOSIG",
      "taf": "TAF UGKO 131700Z 1318/1418 09007KT CAVOK TX29/1411Z TN12/1402Z"
    }
  ]
}