{
  "ts_utc": "2026-02-20T13:39:47Z",
  "threshold_m": 150,
  "source": "stations_override.txt (ICAO list) + aviationweather.gov (METAR/TAF raw)",
  "station_count": 159,
  "stations": [
    {
      "icao": "BIKF",
      "alert": "OK",
      "vis_m": 9999,
      "fzfg": false,
      "metar_trigger": false,
      "taf_trigger": false,
      "metar": "METAR BIKF 201330Z 05005KT 020V080 CAVOK 01/M07 Q1008",
      "taf": "TAF BIKF 201337Z 2015/2115 05008KT CAVOK TX02/2015Z TNM06/2106Z"
    },
    {
      "icao": "BKPR",
      "alert": "OK",
      "vis_m": 9999,
      "fzfg": false,
      "metar_trigger": false,
      "taf_trigger": false,
      "metar": "METAR BKPR 201330Z 22006KT 190V250 9999 FEW040 SCT070 09/06 Q1010 NOSIG",
      "taf": "TAF BKPR 201130Z 2012/2112 18008KT 9999 FEW015 BKN030"
    },
    {
      "icao": "EBCI",
      "alert": "OK",
      "vis_m": 9999,
      "fzfg": false,
      "metar_trigger": false,
      "taf_trigger": false,
      "metar": "METAR EBCI 201320Z 21012KT 9999 FEW010 SCT015 BKN018 07/04 Q1021 NOSIG",
      "taf": "TAF EBCI 201120Z 2012/2118 23008KT 9999 SCT018 SCT040"
    },
    {
      "icao": "EDDB",
      "alert": "OK",
      "vis_m": 9999,
      "fzfg": false,
      "metar_trigger": false,
      "taf_trigger": false,
      "metar": "METAR EDDB 201320Z AUTO 14014KT CAVOK 00/M06 Q1024 NOSIG",
      "taf": "TAF EDDB 201100Z 2012/2112 15008KT CAVOK"
    },
    {
      "icao": "EDDH",
      "alert": "OK",
      "vis_m": 9999,
      "fzfg": false,
      "metar_trigger": false,
      "taf_trigger": false,
      "metar": "METAR EDDH 201320Z AUTO 14016KT 110V170 CAVOK 01/M07 Q1019 TEMPO 15015G25KT",
      "taf": "TAF EDDH 201100Z 2012/2118 15015KT CAVOK"
    },
    {
      "icao": "EDDK",
      "alert": "OK",
      "vis_m": 9999,
      "fzfg": false,
      "metar_trigger": false,
      "taf_trigger": false,
      "metar": "METAR EDDK 201320Z AUTO VRB02KT 9999 BKN019 05/02 Q1021 NOSIG",
      "taf": "TAF EDDK 201100Z 2012/2118 15007KT 9999 FEW014 BKN025"
    },
    {
      "icao": "EDDN",
      "alert": "OK",
      "vis_m": 9999,
      "fzfg": false,
      "metar_trigger": false,
      "taf_trigger": false,
      "metar": "METAR EDDN 201320Z AUTO 20006KT 9999 BKN012 02/M01 Q1023 NOSIG",
      "taf": "TAF EDDN 201100Z 2012/2112 15005KT 9999 SCT015"
    },
    {
      "icao": "EDDS",
      "alert": "OK",
      "vis_m": 9999,
      "fzfg": false,
      "metar_trigger": false,
      "taf_trigger": false,
      "metar": "METAR EDDS 201320Z AUTO 28006KT 220V330 9999 BKN016 05/01 Q1021 NOSIG",
      "taf": "TAF EDDS 201100Z 2012/2112 21005KT 9999 BKN020"
    },
    {
      "icao": "EDFH",
      "alert": "OK",
      "vis_m": 3500,
      "fzfg": false,
      "metar_trigger": false,
      "taf_trigger": false,
      "metar": "METAR EDFH 201320Z COR 22007KT 180V240 3500 -DZ BR OVC003 02/01 Q1020 REDZ",
      "taf": "TAF EDFH 201100Z 2012/2112 20007KT 8000 SCT003 BKN010"
    },
    {
      "icao": "EDJA",
      "alert": "OK",
      "vis_m": 9999,
      "fzfg": false,
      "metar_trigger": false,
      "taf_trigger": false,
      "metar": "METAR EDJA 201320Z 23006KT 9999 BKN006 BKN021 OVC040 02/M00 Q1022",
      "taf": "TAF EDJA 201100Z 2012/2021 VRB03KT 9999 BKN008 OVC025"
    },
    {
      "icao": "EDLW",
      "alert": "OK",
      "vis_m": 9999,
      "fzfg": false,
      "metar_trigger": false,
      "taf_trigger": false,
      "metar": "METAR EDLW 201320Z 20011KT 9999 SCT010 BKN012 OVC025 04/01 Q1020",
      "taf": "TAF EDLW 201100Z 2012/2112 17009KT 9999 SCT014 BKN020"
    },
    {
      "icao": "EDNY",
      "alert": "OK",
      "vis_m": 8000,
      "fzfg": false,
      "metar_trigger": false,
      "taf_trigger": false,
      "metar": "METAR EDNY 201320Z 17003KT 130V210 8000 FEW010 BKN014 OVC017 04/02 Q1023",
      "taf": "TAF EDNY 201100Z 2012/2021 VRB03KT 8000 SCT008 OVC015"
    },
    {
      "icao": "EDSB",
      "alert": "OK",
      "vis_m": 9999,
      "fzfg": false,
      "metar_trigger": false,
      "taf_trigger": false,
      "metar": "METAR EDSB 201320Z 21008KT 9999 OVC014 06/03 Q1023",
      "taf": "TAF EDSB 201100Z 2012/2112 22007KT 9999 SCT012 BKN015"
    },
    {
      "icao": "EETN",
      "alert": "OK",
      "vis_m": 9999,
      "fzfg": false,
      "metar_trigger": false,
      "taf_trigger": false,
      "metar": "METAR EETN 201320Z 23008KT 9999 BKN017 M02/M06 Q1015 NOSIG",
      "taf": "TAF EETN 201130Z 2012/2112 25010KT 9999 SCT020"
    },
    {
      "icao": "EFTU",
      "alert": "OK",
      "vis_m": 9999,
      "fzfg": false,
      "metar_trigger": false,
      "taf_trigger": false,
      "metar": "METAR EFTU 201320Z AUTO 24008KT CAVOK M04/M09 Q1013",
      "taf": "TAF EFTU 201137Z 2012/2112 22008KT CAVOK"
    },
    {
      "icao": "EGBB",
      "alert": "OK",
      "vis_m": 3400,
      "fzfg": false,
      "metar_trigger": false,
      "taf_trigger": false,
      "metar": "METAR EGBB 201320Z 21011G21KT 180V240 3400 RADZ OVC010 10/08 Q1010",
      "taf": ""
    },
    {
      "icao": "EGGP",
      "alert": "OK",
      "vis_m": 7000,
      "fzfg": false,
      "metar_trigger": false,
      "taf_trigger": false,
      "metar": "METAR EGGP 201320Z 20006KT 180V290 7000 -RA BKN008 BKN018 BKN030 08/07 Q1006",
      "taf": ""
    },
    {
      "icao": "EGGW",
      "alert": "OK",
      "vis_m": 5000,
      "fzfg": false,
      "metar_trigger": false,
      "taf_trigger": false,
      "metar": "METAR EGGW 201320Z AUTO 20014KT 5000 -RA SCT012/// BKN017/// //////TCU 09/07 Q1013",
      "taf": "TAF EGGW 201059Z 2012/2112 22016G26KT 9999 SCT018"
    },
    {
      "icao": "EGKK",
      "alert": "OK",
      "vis_m": 6000,
      "fzfg": false,
      "metar_trigger": false,
      "taf_trigger": false,
      "metar": "METAR EGKK 201320Z 21010KT 6000 -RA BKN010 BKN017 10/08 Q1016",
      "taf": "TAF EGKK 201058Z 2012/2118 22012KT 9999 FEW020"
    },
    {
      "icao": "EGNM",
      "alert": "OK",
      "vis_m": 9999,
      "fzfg": false,
      "metar_trigger": false,
      "taf_trigger": false,
      "metar": "METAR EGNM 201320Z 22014KT 9999 SCT012 BKN016 08/07 Q1005",
      "taf": "TAF EGNM 201055Z 2012/2112 22012KT 9999 BKN016"
    },
    {
      "icao": "EGPD",
      "alert": "OK",
      "vis_m": 9999,
      "fzfg": false,
      "metar_trigger": false,
      "taf_trigger": false,
      "metar": "METAR EGPD 201320Z COR AUTO 18006KT 9999 SCT013 BKN017 07/05 Q0997 NOSIG",
      "taf": "TAF EGPD 201100Z 2012/2112 18010KT 9999 FEW035"
    },
    {
      "icao": "EGPF",
      "alert": "OK",
      "vis_m": 9000,
      "fzfg": false,
      "metar_trigger": false,
      "taf_trigger": false,
      "metar": "METAR EGPF 201320Z 22014KT 9000 -RA OVC035 07/05 Q1001",
      "taf": "TAF EGPF 201056Z 2012/2112 23012KT 9999 FEW012 SCT025"
    },
    {
      "icao": "EHBK",
      "alert": "OK",
      "vis_m": 9999,
      "fzfg": false,
      "metar_trigger": false,
      "taf_trigger": false,
      "metar": "METAR EHBK 201325Z AUTO 23012KT 9999 SCT016 SCT023 OVC031 07/04 Q1020 NOSIG",
      "taf": "TAF EHBK 201118Z 2012/2118 22010KT 9999 BKN015"
    },
    {
      "icao": "EHEH",
      "alert": "OK",
      "vis_m": 9999,
      "fzfg": false,
      "metar_trigger": false,
      "taf_trigger": false,
      "metar": "METAR EHEH 201325Z AUTO 21011KT 9999 SCT032 BKN037 OVC041 07/04 Q1019 BLU TEMPO SCT015",
      "taf": "TAF EHEH 201116Z 2012/2118 22010KT 9999 FEW012 BKN025"
    },
    {
      "icao": "EKBI",
      "alert": "OK",
      "vis_m": 9000,
      "fzfg": false,
      "metar_trigger": false,
      "taf_trigger": false,
      "metar": "METAR EKBI 201320Z 17011KT 140V200 9000 -SN BKN020 M01/M07 Q1015",
      "taf": "TAF EKBI 201127Z 2012/2112 16015KT CAVOK"
    },
    {
      "icao": "EKCH",
      "alert": "OK",
      "vis_m": 9999,
      "fzfg": false,
      "metar_trigger": false,
      "taf_trigger": false,
      "metar": "METAR EKCH 201320Z AUTO 15020KT 9999 BKN140/// M01/M05 Q1021 NOSIG",
      "taf": "TAF EKCH 201127Z 2012/2112 18018KT CAVOK"
    },
    {
      "icao": "ENAL",
      "alert": "OK",
      "vis_m": 9999,
      "fzfg": false,
      "metar_trigger": false,
      "taf_trigger": false,
      "metar": "METAR ENAL 201320Z 19017KT 9999 FEW051 BKN060 04/M04 Q0997",
      "taf": "TAF ENAL 201100Z 2012/2021 20018KT 9999 BKN040"
    },
    {
      "icao": "ENBR",
      "alert": "OK",
      "vis_m": 9999,
      "fzfg": false,
      "metar_trigger": false,
      "taf_trigger": false,
      "metar": "METAR ENBR 201320Z 14017KT 9999 -DZ BKN016 02/M02 Q1002 TEMPO 17018G28KT 3000 -RASN BKN012 RMK WIND 1200FT 14034KT",
      "taf": "TAF ENBR 201100Z 2012/2112 16015KT 9999 BKN025"
    },
    {
      "icao": "ENGM",
      "alert": "OK",
      "vis_m": 9999,
      "fzfg": false,
      "metar_trigger": false,
      "taf_trigger": false,
      "metar": "METAR ENGM 201320Z 20015KT 9999 FEW023 M02/M06 Q1010 NOSIG",
      "taf": "TAF ENGM 201100Z 2012/2112 19012KT 9999 BKN015"
    },
    {
      "icao": "ENHD",
      "alert": "OK",
      "vis_m": 4000,
      "fzfg": false,
      "metar_trigger": false,
      "taf_trigger": false,
      "metar": "METAR ENHD 201320Z 14017KT 4000 -SNRA FEW002 SCT004 OVC005 01/00 Q1004",
      "taf": "TAF ENHD 201100Z 2012/2021 15020G30KT 7000 -RA SCT005 BKN010"
    },
    {
      "icao": "ENTC",
      "alert": "OK",
      "vis_m": 9999,
      "fzfg": false,
      "metar_trigger": false,
      "taf_trigger": false,
      "metar": "METAR ENTC 201320Z 19016KT CAVOK M05/M12 Q1001 NOSIG RMK WIND 2600FT 17024KT",
      "taf": "TAF ENTC 201100Z 2012/2112 18012KT CAVOK"
    },
    {
      "icao": "ENTO",
      "alert": "OK",
      "vis_m": 9999,
      "fzfg": false,
      "metar_trigger": false,
      "taf_trigger": false,
      "metar": "METAR ENTO 201320Z 19017KT 9999 BKN011 M01/M04 Q1012 TEMPO 19017G27KT BKN008",
      "taf": "TAF ENTO 201100Z 2012/2112 18015KT CAVOK"
    },
    {
      "icao": "ENVA",
      "alert": "OK",
      "vis_m": 9999,
      "fzfg": false,
      "metar_trigger": false,
      "taf_trigger": false,
      "metar": "METAR ENVA 201320Z 17019G30KT CAVOK 02/M11 Q0999 NOSIG RMK WIND 670FT 18022G36KT",
      "taf": "TAF ENVA 201100Z 2012/2112 17010KT 9999 FEW025 BKN040"
    },
    {
      "icao": "ENZV",
      "alert": "OK",
      "vis_m": 6000,
      "fzfg": false,
      "metar_trigger": false,
      "taf_trigger": false,
      "metar": "METAR ENZV 201320Z 14015KT 6000 -RASN FEW005 BKN008 OVC010 01/00 Q1005 REDZRA TEMPO 3000 RADZ",
      "taf": ""
    },
    {
      "icao": "EPGD",
      "alert": "OK",
      "vis_m": 9999,
      "fzfg": false,
      "metar_trigger": false,
      "taf_trigger": false,
      "metar": "METAR EPGD 201330Z 19004KT 150V210 CAVOK M01/M07 Q1025",
      "taf": "TAF EPGD 201130Z 2012/2112 28005KT 9999 BKN025"
    },
    {
      "icao": "EPKK",
      "alert": "OK",
      "vis_m": 9999,
      "fzfg": false,
      "metar_trigger": false,
      "taf_trigger": false,
      "metar": "METAR EPKK 201330Z 06011KT CAVOK M02/M09 Q1024",
      "taf": "TAF EPKK 201130Z 2012/2112 06010KT CAVOK"
    },
    {
      "icao": "EPKT",
      "alert": "OK",
      "vis_m": 9999,
      "fzfg": false,
      "metar_trigger": false,
      "taf_trigger": false,
      "metar": "METAR EPKT 201330Z 11007KT 040V140 CAVOK M00/M08 Q1024",
      "taf": "TAF EPKT 201130Z 2012/2112 08014KT CAVOK"
    },
    {
      "icao": "EPLB",
      "alert": "OK",
      "vis_m": 9999,
      "fzfg": false,
      "metar_trigger": false,
      "taf_trigger": false,
      "metar": "METAR EPLB 201330Z 10003KT CAVOK M02/M08 Q1027",
      "taf": "TAF EPLB 201130Z 2012/2112 08010KT CAVOK"
    },
    {
      "icao": "EPMO",
      "alert": "OK",
      "vis_m": 9999,
      "fzfg": false,
      "metar_trigger": false,
      "taf_trigger": false,
      "metar": "METAR EPMO 201330Z 05006KT 010V070 CAVOK M01/M07 Q1027",
      "taf": "TAF EPMO 201130Z 2012/2112 04010KT CAVOK"
    },
    {
      "icao": "EPPO",
      "alert": "OK",
      "vis_m": 9999,
      "fzfg": false,
      "metar_trigger": false,
      "taf_trigger": false,
      "metar": "METAR EPPO 201330Z 17009KT CAVOK 00/M09 Q1027",
      "taf": "TAF EPPO 201130Z 2012/2112 10010KT CAVOK"
    },
    {
      "icao": "EPRA",
      "alert": "OK",
      "vis_m": 9999,
      "fzfg": false,
      "metar_trigger": false,
      "taf_trigger": false,
      "metar": "METAR EPRA 201330Z 15006KT 120V190 CAVOK M01/M09 Q1027",
      "taf": "TAF EPRA 201130Z 2012/2021 08008KT 9999 SCT020"
    },
    {
      "icao": "EPRZ",
      "alert": "OK",
      "vis_m": 9999,
      "fzfg": false,
      "metar_trigger": false,
      "taf_trigger": false,
      "metar": "METAR EPRZ 201330Z 07009KT CAVOK M01/M09 Q1026",
      "taf": "TAF EPRZ 201130Z 2012/2112 08010KT CAVOK"
    },
    {
      "icao": "EPSC",
      "alert": "OK",
      "vis_m": 9999,
      "fzfg": false,
      "metar_trigger": false,
      "taf_trigger": false,
      "metar": "METAR EPSC 201330Z 16011KT CAVOK M01/M08 Q1025",
      "taf": "TAF EPSC 201130Z 2012/2112 15012KT CAVOK"
    },
    {
      "icao": "EPSY",
      "alert": "OK",
      "vis_m": 9999,
      "fzfg": false,
      "metar_trigger": false,
      "taf_trigger": false,
      "metar": "METAR EPSY 201330Z 03003KT 9999 SCT027 M02/M08 Q1027",
      "taf": "TAF EPSY 201130Z 2012/2021 30004KT 9999 BKN030"
    },
    {
      "icao": "EPWA",
      "alert": "OK",
      "vis_m": 9999,
      "fzfg": false,
      "metar_trigger": false,
      "taf_trigger": false,
      "metar": "METAR EPWA 201330Z 05006KT 030V100 CAVOK M00/M08 Q1027 NOSIG",
      "taf": "TAF EPWA 201130Z 2012/2112 04010KT CAVOK"
    },
    {
      "icao": "EPWR",
      "alert": "OK",
      "vis_m": 9999,
      "fzfg": false,
      "metar_trigger": false,
      "taf_trigger": false,
      "metar": "METAR EPWR 201330Z 14006KT 110V170 9999 FEW023 M01/M08 Q1027",
      "taf": "TAF EPWR 201130Z 2012/2112 13010KT CAVOK"
    },
    {
      "icao": "ESGG",
      "alert": "OK",
      "vis_m": 9999,
      "fzfg": false,
      "metar_trigger": false,
      "taf_trigger": false,
      "metar": "METAR ESGG 201320Z 18018KT CAVOK M01/M08 Q1016",
      "taf": "TAF ESGG 201130Z 2012/2112 18015G25KT CAVOK"
    },
    {
      "icao": "ESKN",
      "alert": "OK",
      "vis_m": 9999,
      "fzfg": false,
      "metar_trigger": false,
      "taf_trigger": false,
      "metar": "METAR ESKN 201320Z 25010KT CAVOK 00/M09 Q1018",
      "taf": "TAF ESKN 201130Z 2012/2112 26008KT CAVOK"
    },
    {
      "icao": "ESMS",
      "alert": "OK",
      "vis_m": 9999,
      "fzfg": false,
      "metar_trigger": false,
      "taf_trigger": false,
      "metar": "METAR ESMS 201320Z 17014KT CAVOK M02/M07 Q1022",
      "taf": "TAF ESMS 201127Z 2012/2112 18018KT CAVOK"
    },
    {
      "icao": "ESSA",
      "alert": "OK",
      "vis_m": 9999,
      "fzfg": false,
      "metar_trigger": false,
      "taf_trigger": false,
      "metar": "METAR ESSA 201320Z 24013KT CAVOK M02/M11 Q1016 NOSIG",
      "taf": "TAF ESSA 201130Z 2012/2112 24011KT CAVOK"
    },
    {
      "icao": "EYKA",
      "alert": "OK",
      "vis_m": 9999,
      "fzfg": false,
      "metar_trigger": false,
      "taf_trigger": false,
      "metar": "METAR EYKA 201320Z 27014KT CAVOK M02/M08 Q1025",
      "taf": "TAF EYKA 201104Z 2012/2112 27010KT 9000 BKN025"
    },
    {
      "icao": "EYPA",
      "alert": "OK",
      "vis_m": 9999,
      "fzfg": false,
      "metar_trigger": false,
      "taf_trigger": false,
      "metar": "METAR EYPA 201320Z 27004KT 210V320 CAVOK 01/M04 Q1025",
      "taf": "TAF EYPA 201104Z 2012/2112 VRB04KT 9000 BKN020"
    },
    {
      "icao": "EYVI",
      "alert": "OK",
      "vis_m": 9999,
      "fzfg": false,
      "metar_trigger": false,
      "taf_trigger": false,
      "metar": "METAR EYVI 201320Z 30008KT 9999 BKN026 M04/M09 Q1024 NOSIG",
      "taf": "TAF EYVI 201100Z 2012/2112 26010KT 8000 BKN020"
    },
    {
      "icao": "GCFV",
      "alert": "OK",
      "vis_m": 9999,
      "fzfg": false,
      "metar_trigger": false,
      "taf_trigger": false,
      "metar": "METAR GCFV 201330Z 04011KT 9999 FEW020 20/13 Q1023",
      "taf": "TAF GCFV 200800Z 2009/2109 04013KT 9999 SCT020 TX21/2014Z TN14/2106Z"
    },
    {
      "icao": "GCLP",
      "alert": "OK",
      "vis_m": 9999,
      "fzfg": false,
      "metar_trigger": false,
      "taf_trigger": false,
      "metar": "METAR GCLP 201330Z 03017KT 9999 FEW030 20/13 Q1023 NOSIG",
      "taf": "TAF GCLP 200800Z 2009/2109 02018KT 9999 SCT025 TX20/2014Z TN16/2106Z"
    },
    {
      "icao": "GCTS",
      "alert": "OK",
      "vis_m": 9999,
      "fzfg": false,
      "metar_trigger": false,
      "taf_trigger": false,
      "metar": "METAR GCTS 201330Z 09020KT CAVOK 22/13 Q1022 NOSIG",
      "taf": "TAF GCTS 200800Z 2009/2109 05009KT 9999 FEW020 TX23/2014Z TN16/2106Z"
    },
    {
      "icao": "GMAD",
      "alert": "OK",
      "vis_m": 5000,
      "fzfg": false,
      "metar_trigger": false,
      "taf_trigger": false,
      "metar": "METAR GMAD 201330Z 27005KT 230V320 5000 SCT016 21/15 Q1021 NOSIG",
      "taf": "TAF GMAD 201100Z 2012/2118 27010KT 6000 BKN010"
    },
    {
      "icao": "GMMN",
      "alert": "OK",
      "vis_m": 9999,
      "fzfg": false,
      "metar_trigger": false,
      "taf_trigger": false,
      "metar": "METAR GMMN 201330Z 03014KT CAVOK 17/11 Q1024 NOSIG",
      "taf": "TAF GMMN 201100Z 2012/2118 02010KT CAVOK"
    },
    {
      "icao": "GMMX",
      "alert": "OK",
      "vis_m": 9999,
      "fzfg": false,
      "metar_trigger": false,
      "taf_trigger": false,
      "metar": "METAR GMMX 201330Z 02003KT 300V110 CAVOK 23/10 Q1022 NOSIG",
      "taf": "TAF GMMX 201100Z 2012/2118 06006KT 8000 NSC"
    },
    {
      "icao": "HEGN",
      "alert": "OK",
      "vis_m": 9999,
      "fzfg": false,
      "metar_trigger": false,
      "taf_trigger": false,
      "metar": "METAR HEGN 201300Z 35010KT CAVOK 24/12 Q1016 NOSIG",
      "taf": "TAF HEGN 201100Z 2012/2118 35014KT CAVOK"
    },
    {
      "icao": "HEMA",
      "alert": "OK",
      "vis_m": 9999,
      "fzfg": false,
      "metar_trigger": false,
      "taf_trigger": false,
      "metar": "METAR HEMA 201300Z 36017KT CAVOK 24/14 Q1015 NOSIG",
      "taf": "TAF HEMA 201100Z 2012/2118 34015KT CAVOK"
    },
    {
      "icao": "HESH",
      "alert": "OK",
      "vis_m": 9999,
      "fzfg": false,
      "metar_trigger": false,
      "taf_trigger": false,
      "metar": "METAR HESH 201300Z 02008KT CAVOK 27/11 Q1016 NOSIG",
      "taf": "TAF HESH 201100Z 2012/2118 02014KT CAVOK"
    },
    {
      "icao": "HESX",
      "alert": "OK",
      "vis_m": 9999,
      "fzfg": false,
      "metar_trigger": false,
      "taf_trigger": false,
      "metar": "METAR HESX 201300Z 06007KT CAVOK 19/06 Q1019 NOSIG",
      "taf": "TAF HESX 201100Z 2012/2118 04010KT 9999 SCT025"
    },
    {
      "icao": "LATI",
      "alert": "OK",
      "vis_m": 9999,
      "fzfg": false,
      "metar_trigger": false,
      "taf_trigger": false,
      "metar": "METAR LATI 201320Z 12008KT 090V150 9999 FEW025CB SCT040 BKN070 14/07 Q1011 NOSIG",
      "taf": "TAF LATI 201100Z 2012/2112 14014KT 9999 SCT030 BKN060 TX14/2014Z TN05/2105Z"
    },
    {
      "icao": "LBPD",
      "alert": "OK",
      "vis_m": 9999,
      "fzfg": false,
      "metar_trigger": false,
      "taf_trigger": false,
      "metar": "METAR LBPD 201330Z AUTO 29008KT 9999 FEW047/// 10/06 Q1012 NOSIG",
      "taf": "TAF LBPD 201100Z 2012/2112 08010KT 9999 SCT040 BKN060"
    },
    {
      "icao": "LBSF",
      "alert": "OK",
      "vis_m": 9999,
      "fzfg": false,
      "metar_trigger": false,
      "taf_trigger": false,
      "metar": "METAR LBSF 201330Z 11009KT 9999 SCT066 BKN078 11/03 Q1011 NOSIG",
      "taf": "TAF LBSF 201100Z 2012/2112 11012KT 9999 SCT050 BKN070"
    },
    {
      "icao": "LBWN",
      "alert": "OK",
      "vis_m": 9999,
      "fzfg": false,
      "metar_trigger": false,
      "taf_trigger": false,
      "metar": "METAR LBWN 201330Z 10010KT 9999 FEW039 SCT045 12/07 Q1015 NOSIG",
      "taf": "TAF LBWN 201100Z 2012/2112 10010KT 9999 SCT050"
    },
    {
      "icao": "LCLK",
      "alert": "OK",
      "vis_m": 9999,
      "fzfg": false,
      "metar_trigger": false,
      "taf_trigger": false,
      "metar": "METAR LCLK 201330Z 06011KT 9999 FEW025 19/11 Q1022 NOSIG",
      "taf": "TAF LCLK 201130Z 2012/2112 08010KT 9999 FEW025 SCT045"
    },
    {
      "icao": "LCPH",
      "alert": "OK",
      "vis_m": 9999,
      "fzfg": false,
      "metar_trigger": false,
      "taf_trigger": false,
      "metar": "METAR LCPH 201330Z 16012KT 9999 FEW025 BKN050 18/11 Q1021 NOSIG",
      "taf": "TAF LCPH 201130Z 2012/2112 15014KT 9999 FEW025 SCT045"
    },
    {
      "icao": "LEAL",
      "alert": "OK",
      "vis_m": 9999,
      "fzfg": false,
      "metar_trigger": false,
      "taf_trigger": false,
      "metar": "METAR LEAL 201330Z 09010KT CAVOK 19/00 Q1025 NOSIG",
      "taf": "TAF LEAL 201100Z 2012/2112 VRB04KT CAVOK TX19/2013Z TN07/2106Z"
    },
    {
      "icao": "LEBB",
      "alert": "OK",
      "vis_m": 9999,
      "fzfg": false,
      "metar_trigger": false,
      "taf_trigger": false,
      "metar": "METAR LEBB 201330Z VRB02KT 9999 FEW035 BKN054 14/06 Q1031 NOSIG",
      "taf": "TAF LEBB 201100Z 2012/2112 12005KT 9999 SCT040 TX15/2112Z TN03/2107Z"
    },
    {
      "icao": "LEBL",
      "alert": "OK",
      "vis_m": 9999,
      "fzfg": false,
      "metar_trigger": false,
      "taf_trigger": false,
      "metar": "METAR LEBL 201330Z 33010KT 300V010 9999 FEW020 SCT055 16/04 Q1024 NOSIG",
      "taf": ""
    },
    {
      "icao": "LECH",
      "alert": "OK",
      "vis_m": 9999,
      "fzfg": false,
      "metar_trigger": false,
      "taf_trigger": false,
      "metar": "METAR LECH 201330Z AUTO 10004KT CAVOK 17/M01 Q1025",
      "taf": ""
    },
    {
      "icao": "LEMD",
      "alert": "OK",
      "vis_m": 9999,
      "fzfg": false,
      "metar_trigger": false,
      "taf_trigger": false,
      "metar": "METAR LEMD 201330Z 22002KT CAVOK 13/00 Q1028 NOSIG",
      "taf": "TAF LEMD 201100Z 2012/2118 VRB03KT CAVOK TX14/2015Z TNM00/2106Z"
    },
    {
      "icao": "LEMG",
      "alert": "OK",
      "vis_m": 9999,
      "fzfg": false,
      "metar_trigger": false,
      "taf_trigger": false,
      "metar": "METAR LEMG 201330Z 14008KT 110V170 CAVOK 16/03 Q1026 NOSIG",
      "taf": "TAF LEMG 201100Z 2012/2112 13010KT CAVOK TX18/2014Z TN11/2107Z"
    },
    {
      "icao": "LEVC",
      "alert": "OK",
      "vis_m": 9999,
      "fzfg": false,
      "metar_trigger": false,
      "taf_trigger": false,
      "metar": "METAR LEVC 201330Z 29005KT CAVOK 20/M03 Q1025 NOSIG",
      "taf": "TAF LEVC 201100Z 2012/2112 VRB03KT CAVOK TX20/2014Z TN06/2106Z"
    },
    {
      "icao": "LEXJ",
      "alert": "OK",
      "vis_m": 9999,
      "fzfg": false,
      "metar_trigger": false,
      "taf_trigger": false,
      "metar": "METAR LEXJ 201330Z 32010KT 290V020 CAVOK 14/04 Q1031",
      "taf": "TAF LEXJ 200800Z 2009/2109 22009KT 9999 SCT040 TX15/2014Z TN07/2107Z"
    },
    {
      "icao": "LEZG",
      "alert": "OK",
      "vis_m": 9999,
      "fzfg": false,
      "metar_trigger": false,
      "taf_trigger": false,
      "metar": "METAR LEZG 201330Z 29023KT 9999 BKN035 13/04 Q1028 NOSIG",
      "taf": "TAF LEZG 201100Z 2012/2112 30015KT CAVOK TX13/2014Z TN05/2106Z"
    },
    {
      "icao": "LEZL",
      "alert": "OK",
      "vis_m": 9999,
      "fzfg": false,
      "metar_trigger": false,
      "taf_trigger": false,
      "metar": "METAR LEZL 201330Z 07008KT 040V110 CAVOK 18/07 Q1027 NOSIG",
      "taf": "TAF LEZL 200800Z 2009/2109 06010KT CAVOK TX19/2015Z TN05/2107Z"
    },
    {
      "icao": "LFBD",
      "alert": "OK",
      "vis_m": 9999,
      "fzfg": false,
      "metar_trigger": false,
      "taf_trigger": false,
      "metar": "METAR LFBD 201330Z AUTO 28013KT 9999 FEW032 BKN048 OVC054 14/07 Q1029 TEMPO 4500 -SHRA BKN025TCU",
      "taf": "TAF LFBD 201100Z 2012/2118 27005KT 9999 BKN030 TX14/2113Z TN07/2103Z"
    },
    {
      "icao": "LFLL",
      "alert": "OK",
      "vis_m": 9999,
      "fzfg": false,
      "metar_trigger": false,
      "taf_trigger": false,
      "metar": "METAR LFLL 201330Z 34012KT 9999 OVC026 08/03 Q1025 NOSIG",
      "taf": ""
    },
    {
      "icao": "LFLS",
      "alert": "OK",
      "vis_m": 9999,
      "fzfg": false,
      "metar_trigger": false,
      "taf_trigger": false,
      "metar": "METAR LFLS 201330Z AUTO 36008KT 330V030 9999 OVC029 08/03 Q1024 NOSIG",
      "taf": "TAF LFLS 200800Z 2009/2109 35009KT 9999 BKN030"
    },
    {
      "icao": "LFMN",
      "alert": "OK",
      "vis_m": 9999,
      "fzfg": false,
      "metar_trigger": false,
      "taf_trigger": false,
      "metar": "METAR LFMN 201330Z 10007KT CAVOK 17/10 Q1011 NOSIG",
      "taf": "TAF LFMN 200800Z 2009/2115 VRB04KT CAVOK"
    },
    {
      "icao": "LFOB",
      "alert": "OK",
      "vis_m": 9999,
      "fzfg": false,
      "metar_trigger": false,
      "taf_trigger": false,
      "metar": "METAR LFOB 201330Z AUTO 22010KT 9999 BKN028 BKN035 BKN160 10/06 Q1022 TEMPO BKN012",
      "taf": "TAF LFOB 201100Z 2012/2112 24011KT 9999 OVC025"
    },
    {
      "icao": "LFPO",
      "alert": "OK",
      "vis_m": 9999,
      "fzfg": false,
      "metar_trigger": false,
      "taf_trigger": false,
      "metar": "METAR LFPO 201330Z 24011KT 210V270 9999 SCT030 BKN040 11/05 Q1023 NOSIG",
      "taf": "TAF LFPO 201100Z 2012/2118 25010KT 9999 BKN025"
    },
    {
      "icao": "LFSB",
      "alert": "OK",
      "vis_m": 9999,
      "fzfg": false,
      "metar_trigger": false,
      "taf_trigger": false,
      "metar": "METAR LFSB 201330Z AUTO 12004KT 090V150 9999 BKN018/// BKN025/// OVC039/// ///TCU 07/05 Q1023 BECMG 26010KT BKN020",
      "taf": "TAF LFSB 201100Z 2012/2112 VRB03KT 8000 OVC007"
    },
    {
      "icao": "LGAV",
      "alert": "OK",
      "vis_m": 9999,
      "fzfg": false,
      "metar_trigger": false,
      "taf_trigger": false,
      "metar": "METAR LGAV 201320Z 20025KT 9999 FEW020 17/08 Q1014 NOSIG",
      "taf": "TAF LGAV 201100Z 2012/2112 21020KT 9999 FEW018 SCT020"
    },
    {
      "icao": "LGTS",
      "alert": "OK",
      "vis_m": 9999,
      "fzfg": false,
      "metar_trigger": false,
      "taf_trigger": false,
      "metar": "METAR LGTS 201320Z 18010KT 9999 FEW008 SCT020 15/10 Q1012 NOSIG",
      "taf": "TAF LGTS 201100Z 2012/2112 VRB03KT 9999 BKN030"
    },
    {
      "icao": "LHBP",
      "alert": "OK",
      "vis_m": 9999,
      "fzfg": false,
      "metar_trigger": false,
      "taf_trigger": false,
      "metar": "METAR LHBP 201330Z 35008KT CAVOK 05/M06 Q1016 NOSIG",
      "taf": "TAF LHBP 201115Z 2012/2112 35008KT CAVOK"
    },
    {
      "icao": "LHDC",
      "alert": "OK",
      "vis_m": 9999,
      "fzfg": false,
      "metar_trigger": false,
      "taf_trigger": false,
      "metar": "METAR LHDC 201315Z AUTO 03022G32KT 360V060 CAVOK 04/M01 Q1015 NOSIG",
      "taf": "TAF LHDC 201115Z 2012/2021 03020G33KT CAVOK"
    },
    {
      "icao": "LIBD",
      "alert": "OK",
      "vis_m": 9999,
      "fzfg": false,
      "metar_trigger": false,
      "taf_trigger": false,
      "metar": "METAR LIBD 201320Z 36005KT 330V050 CAVOK 15/07 Q1009",
      "taf": "TAF LIBD 201100Z 2012/2112 VRB06KT CAVOK"
    },
    {
      "icao": "LIBG",
      "alert": "OK",
      "vis_m": 9999,
      "fzfg": false,
      "metar_trigger": false,
      "taf_trigger": false,
      "metar": "METAR LIBG 201250Z 23006KT 200V260 CAVOK 15/06 Q1009",
      "taf": "TAF LIBG 201100Z 2012/2021 23012KT 9999 SCT020"
    },
    {
      "icao": "LIBP",
      "alert": "OK",
      "vis_m": 9999,
      "fzfg": false,
      "metar_trigger": false,
      "taf_trigger": false,
      "metar": "METAR LIBP 201320Z AUTO 36007KT 330V040 9999 OVC056/// 13/06 Q1011",
      "taf": "TAF LIBP 201100Z 2012/2112 02010KT 9999 BKN080"
    },
    {
      "icao": "LIBR",
      "alert": "OK",
      "vis_m": 9999,
      "fzfg": false,
      "metar_trigger": false,
      "taf_trigger": false,
      "metar": "METAR LIBR 201320Z 22007KT CAVOK 15/06 Q1009",
      "taf": "TAF LIBR 201100Z 2012/2112 24012KT CAVOK"
    },
    {
      "icao": "LICA",
      "alert": "OK",
      "vis_m": 5000,
      "fzfg": false,
      "metar_trigger": false,
      "taf_trigger": false,
      "metar": "METAR LICA 201320Z AUTO VRB01KT 5000 -RA OVC048/// 11/10 Q1013",
      "taf": "TAF LICA 201100Z 2012/2112 26012KT 9999 SCT030 BKN050"
    },
    {
      "icao": "LICC",
      "alert": "OK",
      "vis_m": 8000,
      "fzfg": false,
      "metar_trigger": false,
      "taf_trigger": false,
      "metar": "METAR LICC 201320Z 28021KT 8000 R08/1300N RA SCT020 BKN040 11/07 Q1013 RETS",
      "taf": ""
    },
    {
      "icao": "LICJ",
      "alert": "OK",
      "vis_m": 9999,
      "fzfg": false,
      "metar_trigger": false,
      "taf_trigger": false,
      "metar": "METAR LICJ 201320Z 27021KT 9999 SCT040 BKN060 15/10 Q1012",
      "taf": "TAF LICJ 201100Z 2012/2112 27016G26KT 9999 SCT035"
    },
    {
      "icao": "LIMC",
      "alert": "OK",
      "vis_m": 9999,
      "fzfg": false,
      "metar_trigger": false,
      "taf_trigger": false,
      "metar": "METAR LIMC 201320Z 01009KT 340V040 CAVOK 20/M04 Q1012 NOSIG",
      "taf": "TAF LIMC 201100Z 2012/2118 34010KT 9999 BKN025"
    },
    {
      "icao": "LIME",
      "alert": "OK",
      "vis_m": 9999,
      "fzfg": false,
      "metar_trigger": false,
      "taf_trigger": false,
      "metar": "METAR LIME 201320Z 17003KT 140V230 CAVOK 13/06 Q1012 NOSIG",
      "taf": "TAF LIME 201100Z 2012/2112 VRB05KT 8000 FEW020"
    },
    {
      "icao": "LIMF",
      "alert": "OK",
      "vis_m": null,
      "fzfg": false,
      "metar_trigger": false,
      "taf_trigger": false,
      "metar": "METAR LIMF 201320Z AUTO 12005KT 080V150 //// // NCD 19/M02 Q1012",
      "taf": "TAF LIMF 201100Z 2012/2112 VRB05KT 9999 FEW040"
    },
    {
      "icao": "LIMJ",
      "alert": "OK",
      "vis_m": 9999,
      "fzfg": false,
      "metar_trigger": false,
      "taf_trigger": false,
      "metar": "METAR LIMJ 201320Z 01010KT 320V060 CAVOK 20/M04 Q1011",
      "taf": "TAF LIMJ 201100Z 2012/2112 03008KT 9999 SCT030"
    },
    {
      "icao": "LIPE",
      "alert": "OK",
      "vis_m": 9999,
      "fzfg": false,
      "metar_trigger": false,
      "taf_trigger": false,
      "metar": "METAR LIPE 201320Z 09003KT 030V140 CAVOK 12/05 Q1013",
      "taf": "TAF LIPE 201100Z 2012/2112 10005KT CAVOK"
    },
    {
      "icao": "LIPH",
      "alert": "OK",
      "vis_m": 9999,
      "fzfg": false,
      "metar_trigger": false,
      "taf_trigger": false,
      "metar": "METAR LIPH 201320Z 15006KT 9999 FEW015 11/07 Q1013",
      "taf": "TAF LIPH 201100Z 2012/2112 VRB06KT CAVOK"
    },
    {
      "icao": "LIPQ",
      "alert": "OK",
      "vis_m": 9999,
      "fzfg": false,
      "metar_trigger": false,
      "taf_trigger": false,
      "metar": "METAR LIPQ 201320Z AUTO 11008KT 9999 BKN100/// 10/04 Q1013",
      "taf": "TAF LIPQ 201100Z 2012/2112 VRB06KT 9999 OVC060"
    },
    {
      "icao": "LIPR",
      "alert": "OK",
      "vis_m": 7000,
      "fzfg": false,
      "metar_trigger": false,
      "taf_trigger": false,
      "metar": "METAR LIPR 201320Z 33006KT 310V040 7000 RA BKN025 BKN040 09/06 Q1013",
      "taf": "TAF LIPR 201100Z 2012/2112 33012KT 9999 BKN070"
    },
    {
      "icao": "LIPX",
      "alert": "OK",
      "vis_m": 9999,
      "fzfg": false,
      "metar_trigger": false,
      "taf_trigger": false,
      "metar": "METAR LIPX 201320Z 12006KT 090V160 CAVOK 13/06 Q1013",
      "taf": "TAF LIPX 201100Z 2012/2112 VRB06KT 9999 FEW040"
    },
    {
      "icao": "LIPY",
      "alert": "OK",
      "vis_m": 9999,
      "fzfg": false,
      "metar_trigger": false,
      "taf_trigger": false,
      "metar": "METAR LIPY 201320Z AUTO 32015KT 9999 SCT018/// BKN060/// BKN091/// 10/06 Q1012",
      "taf": "TAF LIPY 201100Z 2012/2112 35015KT 9999 FEW010"
    },
    {
      "icao": "LIPZ",
      "alert": "OK",
      "vis_m": 9999,
      "fzfg": false,
      "metar_trigger": false,
      "taf_trigger": false,
      "metar": "METAR LIPZ 201320Z 13006KT CAVOK 10/06 Q1014 NOSIG",
      "taf": "TAF LIPZ 201100Z 2012/2118 VRB05KT CAVOK"
    },
    {
      "icao": "LIRF",
      "alert": "OK",
      "vis_m": 9999,
      "fzfg": false,
      "metar_trigger": false,
      "taf_trigger": false,
      "metar": "METAR LIRF 201320Z 27007KT 250V310 9999 -RA FEW010TCU SCT055 15/10 Q1011 TEMPO SHRA",
      "taf": ""
    },
    {
      "icao": "LIRN",
      "alert": "OK",
      "vis_m": 9999,
      "fzfg": false,
      "metar_trigger": false,
      "taf_trigger": false,
      "metar": "METAR LIRN 201320Z 20004KT 160V240 9999 FEW030 14/07 Q1010 NOSIG",
      "taf": "TAF LIRN 201100Z 2012/2112 24008KT 9999 SCT020"
    },
    {
      "icao": "LIRP",
      "alert": "OK",
      "vis_m": 9999,
      "fzfg": false,
      "metar_trigger": false,
      "taf_trigger": false,
      "metar": "METAR LIRP 201315Z 23006KT 9999 SCT060 16/07 Q1011 NOSIG",
      "taf": "TAF LIRP 200500Z 2006/2106 11005KT 9999 FEW020 SCT060"
    },
    {
      "icao": "LIRZ",
      "alert": "OK",
      "vis_m": 9999,
      "fzfg": false,
      "metar_trigger": false,
      "taf_trigger": false,
      "metar": "METAR LIRZ 201320Z AUTO 03012KT 9999 BKN083/// BKN140/// 12/04 Q1011",
      "taf": ""
    },
    {
      "icao": "LJLJ",
      "alert": "OK",
      "vis_m": 9999,
      "fzfg": false,
      "metar_trigger": false,
      "taf_trigger": false,
      "metar": "METAR LJLJ 201330Z 16005KT 9999 -RA FEW005 SCT033 BKN047 04/03 Q1015 NOSIG",
      "taf": "TAF LJLJ 201100Z 2012/2112 VRB02KT 9000 FEW003 SCT017 BKN025"
    },
    {
      "icao": "LKMT",
      "alert": "OK",
      "vis_m": 9999,
      "fzfg": false,
      "metar_trigger": false,
      "taf_trigger": false,
      "metar": "METAR LKMT 201330Z 04018KT CAVOK M02/M07 Q1023 NOSIG",
      "taf": "TAF LKMT 201100Z 2012/2112 03018KT CAVOK"
    },
    {
      "icao": "LKPR",
      "alert": "OK",
      "vis_m": 9999,
      "fzfg": false,
      "metar_trigger": false,
      "taf_trigger": false,
      "metar": "METAR LKPR 201330Z VRB02KT CAVOK 01/M08 Q1023 NOSIG",
      "taf": "TAF LKPR 201100Z 2012/2118 04006KT CAVOK"
    },
    {
      "icao": "LLBG",
      "alert": "OK",
      "vis_m": 9999,
      "fzfg": false,
      "metar_trigger": false,
      "taf_trigger": false,
      "metar": "METAR LLBG 201320Z 29011KT CAVOK 22/10 Q1018 NOSIG RMK REP AT 1313Z 3000FT-WIND 120/10KT",
      "taf": ""
    },
    {
      "icao": "LMML",
      "alert": "OK",
      "vis_m": 9999,
      "fzfg": false,
      "metar_trigger": false,
      "taf_trigger": false,
      "metar": "METAR LMML 201315Z 26024KT 9999 FEW029 16/09 Q1017 NOSIG",
      "taf": "TAF LMML 201100Z 2012/2112 29024G38KT 9999 SCT018"
    },
    {
      "icao": "LOWW",
      "alert": "OK",
      "vis_m": 9999,
      "fzfg": false,
      "metar_trigger": false,
      "taf_trigger": false,
      "metar": "METAR LOWW 201320Z 32016KT 9999 FEW036 BKN038 M01/M05 Q1022 NOSIG",
      "taf": "TAF LOWW 201115Z 2012/2118 34013KT 9000 SCT005 BKN020 TX04/2118Z TNM05/2102Z"
    },
    {
      "icao": "LPFR",
      "alert": "OK",
      "vis_m": 9999,
      "fzfg": false,
      "metar_trigger": false,
      "taf_trigger": false,
      "metar": "METAR LPFR 201330Z 13004KT 100V160 CAVOK 17/05 Q1027",
      "taf": "TAF LPFR 201100Z 2012/2112 14007KT CAVOK"
    },
    {
      "icao": "LPMA",
      "alert": "OK",
      "vis_m": 9999,
      "fzfg": false,
      "metar_trigger": false,
      "taf_trigger": false,
      "metar": "METAR LPMA 201330Z 04013KT 9999 FEW016 BKN025 18/10 Q1027",
      "taf": "TAF LPMA 201100Z 2012/2112 03013KT 9999 SCT015"
    },
    {
      "icao": "LPPR",
      "alert": "OK",
      "vis_m": 9999,
      "fzfg": false,
      "metar_trigger": false,
      "taf_trigger": false,
      "metar": "METAR LPPR 201330Z 31010KT 280V340 9999 FEW022 SCT035 13/06 Q1031",
      "taf": "TAF LPPR 201100Z 2012/2112 07007KT CAVOK"
    },
    {
      "icao": "LPPS",
      "alert": "OK",
      "vis_m": 9999,
      "fzfg": false,
      "metar_trigger": false,
      "taf_trigger": false,
      "metar": "METAR LPPS 201330Z 09013KT 030V120 9999 FEW015 BKN030 17/10 Q1027",
      "taf": "TAF LPPS 201100Z 2012/2118 07012KT 9999 FEW015 BKN030"
    },
    {
      "icao": "LPPT",
      "alert": "OK",
      "vis_m": 9999,
      "fzfg": false,
      "metar_trigger": false,
      "taf_trigger": false,
      "metar": "METAR LPPT 201330Z VRB06G24KT CAVOK 15/07 Q1029",
      "taf": "TAF LPPT 201100Z 2012/2118 03008KT CAVOK"
    },
    {
      "icao": "LQBK",
      "alert": "OK",
      "vis_m": 9999,
      "fzfg": false,
      "metar_trigger": false,
      "taf_trigger": false,
      "metar": "METAR LQBK 201330Z 29013KT 9999 BKN010 OVC020 04/02 Q1014 NOSIG",
      "taf": ""
    },
    {
      "icao": "LQSA",
      "alert": "OK",
      "vis_m": 9999,
      "fzfg": false,
      "metar_trigger": false,
      "taf_trigger": false,
      "metar": "METAR LQSA 201330Z 35007KT 330V030 9999 BKN055 11/04 Q1008 TEMPO VRB12KT TSRA FEW030CB BKN050",
      "taf": "TAF LQSA 201100Z 2012/2112 VRB02KT 9999 BKN045 TX11/2013Z TN00/2105Z"
    },
    {
      "icao": "LQTZ",
      "alert": "OK",
      "vis_m": 9999,
      "fzfg": false,
      "metar_trigger": false,
      "taf_trigger": false,
      "metar": "METAR LQTZ 201330Z 30010KT 9999 -RA BKN015 OVC025 06/04 Q1012",
      "taf": "TAF LQTZ 201100Z 2012/2112 27007KT 9999 BKN030 TX07/2012Z TNM01/2106Z"
    },
    {
      "icao": "LRBC",
      "alert": "OK",
      "vis_m": 9999,
      "fzfg": false,
      "metar_trigger": false,
      "taf_trigger": false,
      "metar": "METAR LRBC 201330Z 36014KT 9999 FEW015 BKN021 OVC046 01/M03 Q1023",
      "taf": "TAF LRBC 201100Z 2012/2021 34016KT 9999 OVC010"
    },
    {
      "icao": "LRBS",
      "alert": "OK",
      "vis_m": 9999,
      "fzfg": false,
      "metar_trigger": false,
      "taf_trigger": false,
      "metar": "METAR LRBS 201330Z 06019KT CAVOK 03/M01 Q1017 NOSIG",
      "taf": "TAF LRBS 201100Z 2012/2112 07020KT CAVOK"
    },
    {
      "icao": "LRBV",
      "alert": "OK",
      "vis_m": 9999,
      "fzfg": false,
      "metar_trigger": false,
      "taf_trigger": false,
      "metar": "METAR LRBV 201330Z 09009KT 060V140 9999 FEW075 03/M01 Q1015",
      "taf": "TAF LRBV 201100Z 2012/2021 10012KT CAVOK"
    },
    {
      "icao": "LRCL",
      "alert": "OK",
      "vis_m": 9999,
      "fzfg": false,
      "metar_trigger": false,
      "taf_trigger": false,
      "metar": "METAR LRCL 201330Z VRB01KT CAVOK 10/02 Q1014",
      "taf": "TAF LRCL 201100Z 2012/2021 06005KT 9999 BKN050"
    },
    {
      "icao": "LRCV",
      "alert": "OK",
      "vis_m": 9999,
      "fzfg": false,
      "metar_trigger": false,
      "taf_trigger": false,
      "metar": "METAR LRCV 201330Z 09014KT 9999 -RA OVC049 05/02 Q1014",
      "taf": "TAF LRCV 201100Z 2012/2021 08010KT CAVOK"
    },
    {
      "icao": "LRIA",
      "alert": "OK",
      "vis_m": 9999,
      "fzfg": false,
      "metar_trigger": false,
      "taf_trigger": false,
      "metar": "METAR LRIA 201330Z 34015KT 9999 FEW016 00/M03 Q1024",
      "taf": "TAF LRIA 201100Z 2012/2021 31010KT 9999 BKN010"
    },
    {
      "icao": "LROP",
      "alert": "OK",
      "vis_m": 9999,
      "fzfg": false,
      "metar_trigger": false,
      "taf_trigger": false,
      "metar": "METAR LROP 201330Z 09019KT CAVOK 03/M03 Q1017 NOSIG",
      "taf": "TAF LROP 201100Z 2012/2112 07020KT CAVOK"
    },
    {
      "icao": "LRSB",
      "alert": "OK",
      "vis_m": 9999,
      "fzfg": false,
      "metar_trigger": false,
      "taf_trigger": false,
      "metar": "METAR LRSB 201330Z 13005KT 090V160 9999 FEW082 09/02 Q1013",
      "taf": "TAF LRSB 201100Z 2012/2112 12010KT 9999 BKN060"
    },
    {
      "icao": "LRSM",
      "alert": "OK",
      "vis_m": 9999,
      "fzfg": false,
      "metar_trigger": false,
      "taf_trigger": false,
      "metar": "METAR LRSM 201330Z 05015KT CAVOK 09/01 Q1015",
      "taf": "TAF LRSM 201100Z 2012/2021 03014KT CAVOK"
    },
    {
      "icao": "LRSV",
      "alert": "OK",
      "vis_m": 9999,
      "fzfg": false,
      "metar_trigger": false,
      "taf_trigger": false,
      "metar": "METAR LRSV 201330Z COR 33010KT 9999 FEW018 OVC034 M02/M05 Q1023",
      "taf": "TAF LRSV 201100Z 2012/2021 34011KT 9999 BKN045"
    },
    {
      "icao": "LRTM",
      "alert": "OK",
      "vis_m": 9999,
      "fzfg": false,
      "metar_trigger": false,
      "taf_trigger": false,
      "metar": "METAR LRTM 201330Z 05006KT CAVOK 12/04 Q1013",
      "taf": "TAF LRTM 201100Z 2012/2021 06005KT 9999 BKN050"
    },
    {
      "icao": "LRTR",
      "alert": "OK",
      "vis_m": 9999,
      "fzfg": false,
      "metar_trigger": false,
      "taf_trigger": false,
      "metar": "METAR LRTR 201330Z 33005KT 300V360 9999 -RA FEW043 07/07 Q1012 NOSIG",
      "taf": "TAF LRTR 201100Z 2012/2112 08010KT 9999 BKN035"
    },
    {
      "icao": "LTAC",
      "alert": "OK",
      "vis_m": 9999,
      "fzfg": false,
      "metar_trigger": false,
      "taf_trigger": false,
      "metar": "METAR LTAC 201320Z 04004KT 340V080 CAVOK 10/M01 Q1021 NOSIG RMK RWY21C 08004KT 360V130 RWY03L VRB02KT RWY21R 09004KT 030V130 RWY03R VRB02KT RWY21L 07004KT 010V110",
      "taf": "TAF LTAC 201040Z 2012/2112 VRB02KT CAVOK"
    },
    {
      "icao": "LTFM",
      "alert": "OK",
      "vis_m": 9999,
      "fzfg": false,
      "metar_trigger": false,
      "taf_trigger": false,
      "metar": "METAR LTFM 201320Z 21020KT CAVOK 17/05 Q1016 NOSIG RMK RWY17L 21022G33KT 180V240 RWY34L 20020KT RWY16R 22020KT RWY36 22019KT RWY18 22022KT",
      "taf": "TAF LTFM 201040Z 2012/2118 21019G30KT CAVOK"
    },
    {
      "icao": "LUKK",
      "alert": "OK",
      "vis_m": 9999,
      "fzfg": false,
      "metar_trigger": false,
      "taf_trigger": false,
      "metar": "METAR LUKK 201330Z 01016KT CAVOK 01/M03 Q1021 NOSIG",
      "taf": "TAF LUKK 201115Z 2012/2112 01012KT CAVOK"
    },
    {
      "icao": "LWOH",
      "alert": "OK",
      "vis_m": 9999,
      "fzfg": false,
      "metar_trigger": false,
      "taf_trigger": false,
      "metar": "METAR LWOH 201320Z 14008KT 100V170 9999 FEW020 SCT035 10/05 Q1011",
      "taf": "TAF LWOH 201140Z 2012/2112 14008KT 9999 SCT015 BKN035"
    },
    {
      "icao": "LWSK",
      "alert": "OK",
      "vis_m": 9999,
      "fzfg": false,
      "metar_trigger": false,
      "taf_trigger": false,
      "metar": "METAR LWSK 201320Z 29003KT 230V360 9999 BKN035 12/07 Q1011 NOSIG",
      "taf": "TAF LWSK 201140Z 2012/2112 30008KT 9999 FEW040 SCT070"
    },
    {
      "icao": "LYBE",
      "alert": "OK",
      "vis_m": 9999,
      "fzfg": false,
      "metar_trigger": false,
      "taf_trigger": false,
      "metar": "METAR LYBE 201330Z 08007KT 9999 -RA SCT040 10/02 Q1010 NOSIG",
      "taf": "TAF LYBE 201100Z 2012/2112 13012KT 9999 BKN040 TX08/2012Z TN01/2106Z"
    },
    {
      "icao": "LYNI",
      "alert": "OK",
      "vis_m": 9999,
      "fzfg": false,
      "metar_trigger": false,
      "taf_trigger": false,
      "metar": "METAR LYNI 201330Z VRB02KT 9999 -RA BKN040 OVC083 10/09 Q1011 NOSIG",
      "taf": "TAF LYNI 201100Z 2012/2112 08008KT 9999 BKN040 BKN080 TX09/2012Z TN01/2106Z"
    },
    {
      "icao": "LYPG",
      "alert": "OK",
      "vis_m": 9999,
      "fzfg": false,
      "metar_trigger": false,
      "taf_trigger": false,
      "metar": "METAR LYPG 201330Z 19006KT 150V230 9999 -RA FEW015 SCT033 BKN080 11/06 Q1012 NOSIG",
      "taf": "TAF LYPG 201100Z 2012/2112 15008KT 9000 FEW010 SCT040 BKN080 TX14/2112Z TN05/2024Z"
    },
    {
      "icao": "LZIB",
      "alert": "OK",
      "vis_m": 9999,
      "fzfg": false,
      "metar_trigger": false,
      "taf_trigger": false,
      "metar": "METAR LZIB 201330Z 31011KT CAVOK 00/M05 Q1020 NOSIG",
      "taf": "TAF LZIB 201115Z 2012/2112 30010KT 9999 FEW015 SCT040"
    },
    {
      "icao": "LZKZ",
      "alert": "OK",
      "vis_m": 9999,
      "fzfg": false,
      "metar_trigger": false,
      "taf_trigger": false,
      "metar": "METAR LZKZ 201330Z 36027G38KT CAVOK 00/M09 Q1018 NOSIG",
      "taf": "TAF LZKZ 201115Z 2012/2112 01020KT CAVOK"
    },
    {
      "icao": "LZTT",
      "alert": "OK",
      "vis_m": 9999,
      "fzfg": false,
      "metar_trigger": false,
      "taf_trigger": false,
      "metar": "METAR LZTT 201330Z 08012KT CAVOK M02/M09 Q1019 NOSIG",
      "taf": "TAF LZTT 201115Z 2012/2112 07012KT 9999 FEW010 SCT030"
    },
    {
      "icao": "OEJN",
      "alert": "OK",
      "vis_m": 9999,
      "fzfg": false,
      "metar_trigger": false,
      "taf_trigger": false,
      "metar": "METAR OEJN 201300Z 27006KT CAVOK 29/20 Q1012 NOSIG",
      "taf": "TAF OEJN 201100Z 2012/2118 27008KT CAVOK"
    },
    {
      "icao": "OEMA",
      "alert": "OK",
      "vis_m": 9999,
      "fzfg": false,
      "metar_trigger": false,
      "taf_trigger": false,
      "metar": "METAR OEMA 201300Z 12010KT CAVOK 31/M07 Q1018 NOSIG",
      "taf": "TAF OEMA 201100Z 2012/2118 10012KT 7000 NSC"
    },
    {
      "icao": "OJAI",
      "alert": "OK",
      "vis_m": 5000,
      "fzfg": false,
      "metar_trigger": false,
      "taf_trigger": false,
      "metar": "METAR OJAI 201300Z 12013KT 5000 HZ NSC 21/03 Q1021 NOSIG",
      "taf": "TAF OJAI 201037Z 2012/2118 12012KT 5000 HZ NSC"
    },
    {
      "icao": "OMAA",
      "alert": "OK",
      "vis_m": 9999,
      "fzfg": false,
      "metar_trigger": false,
      "taf_trigger": false,
      "metar": "METAR OMAA 201330Z 35013KT CAVOK 28/08 Q1016 NOSIG",
      "taf": "TAF OMAA 201100Z 2012/2118 13005KT 8000 NSC"
    },
    {
      "icao": "OMDB",
      "alert": "OK",
      "vis_m": 9999,
      "fzfg": false,
      "metar_trigger": false,
      "taf_trigger": false,
      "metar": "METAR OMDB 201330Z 33010KT 300V010 CAVOK 27/14 Q1017 NOSIG",
      "taf": "TAF OMDB 201100Z 2012/2118 34012KT 8000 NSC"
    },
    {
      "icao": "UAAA",
      "alert": "OK",
      "vis_m": 9999,
      "fzfg": false,
      "metar_trigger": false,
      "taf_trigger": false,
      "metar": "METAR UAAA 201330Z 33004MPS 9999 OVC017 06/05 Q1021 NOSIG",
      "taf": "TAF UAAA 201107Z 2012/2112 22003MPS 1200 BR FU BKN011CB OVC100 TX07/2109Z TN01/2103Z"
    },
    {
      "icao": "UBBB",
      "alert": "OK",
      "vis_m": 9999,
      "fzfg": false,
      "metar_trigger": false,
      "taf_trigger": false,
      "metar": "METAR UBBB 201330Z 10008KT CAVOK 09/00 Q1030 NOSIG",
      "taf": "TAF UBBB 201056Z 2012/2112 13010KT 9999 SCT020 TX10/2012Z TN06/2100Z"
    },
    {
      "icao": "UDSG",
      "alert": "OK",
      "vis_m": 9999,
      "fzfg": false,
      "metar_trigger": false,
      "taf_trigger": false,
      "metar": "METAR UDSG 201330Z 28004KT 9999 NSC 03/M05 Q1029 NOSIG",
      "taf": "TAF UDSG 201058Z 2012/2112 VRB06KT 9999 FEW040"
    },
    {
      "icao": "UDYZ",
      "alert": "OK",
      "vis_m": 9999,
      "fzfg": false,
      "metar_trigger": false,
      "taf_trigger": false,
      "metar": "METAR UDYZ 201330Z 23002KT 9999 NSC 12/M05 Q1027 NOSIG",
      "taf": "TAF UDYZ 201100Z 2012/2112 VRB06KT 9999 FEW050"
    },
    {
      "icao": "UGKO",
      "alert": "OK",
      "vis_m": 9999,
      "fzfg": false,
      "metar_trigger": false,
      "taf_trigger": false,
      "metar": "METAR UGKO 201330Z 10018KT CAVOK 15/M01 Q1023 NOSIG",
      "taf": "TAF UGKO 201100Z 2012/2112 08017KT CAVOK TX22/2111Z TN08/2102Z"
    }
  ]
}