{
  "ts_utc": "2025-12-22T17:47:54Z",
  "threshold_m": 150,
  "source": "stations_override.txt (ICAO list) + aviationweather.gov (METAR/TAF raw)",
  "station_count": 159,
  "stations": [
    {
      "icao": "BIKF",
      "alert": "OK",
      "vis_m": 9999,
      "fzfg": false,
      "metar_trigger": false,
      "taf_trigger": false,
      "metar": "METAR BIKF 221730Z 13021KT 9999 FEW015 BKN035 BKN100 08/06 Q0996",
      "taf": "TAF BIKF 221606Z 2218/2318 13023G33KT 7000 RA BKN010 OVC020 TX07/2218Z TN02/2306Z"
    },
    {
      "icao": "BKPR",
      "alert": "OK",
      "vis_m": 9999,
      "fzfg": false,
      "metar_trigger": false,
      "taf_trigger": false,
      "metar": "METAR BKPR 221730Z 29006KT 9999 BKN008 02/02 Q1018 NOSIG",
      "taf": "TAF BKPR 221730Z 2218/2318 VRB05KT 9999 BKN010"
    },
    {
      "icao": "EBCI",
      "alert": "OK",
      "vis_m": 9999,
      "fzfg": false,
      "metar_trigger": false,
      "taf_trigger": false,
      "metar": "METAR EBCI 221720Z 02005KT 360V060 CAVOK 04/03 Q1010 NOSIG",
      "taf": "TAF EBCI 221709Z 2218/2324 06006KT CAVOK"
    },
    {
      "icao": "EDDB",
      "alert": "OK",
      "vis_m": 5000,
      "fzfg": false,
      "metar_trigger": false,
      "taf_trigger": false,
      "metar": "METAR EDDB 221720Z AUTO 08009KT 5000 BR OVC005 01/01 Q1019 TEMPO 4000 BR OVC005",
      "taf": "TAF EDDB 221700Z 2218/2318 08010KT 6000 OVC004"
    },
    {
      "icao": "EDDH",
      "alert": "OK",
      "vis_m": 5000,
      "fzfg": false,
      "metar_trigger": false,
      "taf_trigger": false,
      "metar": "METAR EDDH 221720Z AUTO 09011KT 5000 BR OVC003 02/02 Q1018 TEMPO 3500 -DZRA",
      "taf": "TAF EDDH 221700Z 2218/2324 09011KT 7000 OVC004"
    },
    {
      "icao": "EDDK",
      "alert": "OK",
      "vis_m": 9999,
      "fzfg": false,
      "metar_trigger": false,
      "taf_trigger": false,
      "metar": "METAR EDDK 221720Z AUTO 13008KT 100V160 9999 OVC018 05/01 Q1012 NOSIG",
      "taf": "TAF EDDK 221700Z 2218/2324 10007KT 9999 OVC015"
    },
    {
      "icao": "EDDN",
      "alert": "OK",
      "vis_m": 9999,
      "fzfg": false,
      "metar_trigger": false,
      "taf_trigger": false,
      "metar": "METAR EDDN 221720Z AUTO 09007KT 070V130 9999 OVC013 03/M00 Q1012 NOSIG",
      "taf": "TAF EDDN 221700Z 2218/2318 08006KT 9000 BKN012"
    },
    {
      "icao": "EDDS",
      "alert": "OK",
      "vis_m": 9999,
      "fzfg": false,
      "metar_trigger": false,
      "taf_trigger": false,
      "metar": "METAR EDDS 221720Z AUTO 05005KT 9999 OVC008 01/M00 Q1010 NOSIG",
      "taf": "TAF EDDS 221700Z 2218/2318 07005KT 9999 BKN008"
    },
    {
      "icao": "EDFH",
      "alert": "OK",
      "vis_m": 9000,
      "fzfg": false,
      "metar_trigger": false,
      "taf_trigger": false,
      "metar": "METAR EDFH 221720Z 11008KT 9000 OVC004 01/M00 Q1010",
      "taf": "TAF EDFH 221700Z 2218/2318 11010KT 9000 SCT002 OVC004"
    },
    {
      "icao": "EDJA",
      "alert": "OK",
      "vis_m": 2000,
      "fzfg": false,
      "metar_trigger": false,
      "taf_trigger": false,
      "metar": "METAR EDJA 221720Z 06007KT 2000 BR OVC002 M02/M03 Q1009",
      "taf": "TAF EDJA 221700Z 2218/2303 05008KT 3000 BR OVC002"
    },
    {
      "icao": "EDLW",
      "alert": "OK",
      "vis_m": 9999,
      "fzfg": false,
      "metar_trigger": false,
      "taf_trigger": false,
      "metar": "METAR EDLW 221720Z 05008KT CAVOK 03/01 Q1012",
      "taf": "TAF EDLW 221700Z 2218/2318 07008KT 9999 SCT020"
    },
    {
      "icao": "EDNY",
      "alert": "OK",
      "vis_m": 9999,
      "fzfg": false,
      "metar_trigger": false,
      "taf_trigger": false,
      "metar": "METAR EDNY 221720Z 01005KT 9999 FEW011 M00/M01 Q1009",
      "taf": "TAF EDNY 221700Z 2218/2303 02005KT 9999 SCT012"
    },
    {
      "icao": "EDSB",
      "alert": "OK",
      "vis_m": 9999,
      "fzfg": false,
      "metar_trigger": false,
      "taf_trigger": false,
      "metar": "METAR EDSB 221720Z 04007KT 9999 BKN015 03/00 Q1011",
      "taf": "TAF EDSB 221700Z 2218/2318 03007KT 9000 OVC015"
    },
    {
      "icao": "EETN",
      "alert": "OK",
      "vis_m": 9999,
      "fzfg": false,
      "metar_trigger": false,
      "taf_trigger": false,
      "metar": "METAR EETN 221720Z 08010KT 9999 FEW008 FEW015CB OVC019 M02/M03 Q1026 NOSIG",
      "taf": "TAF EETN 221730Z 2218/2318 08012KT 9999 SCT010 BKN020"
    },
    {
      "icao": "EFTU",
      "alert": "OK",
      "vis_m": 9999,
      "fzfg": false,
      "metar_trigger": false,
      "taf_trigger": false,
      "metar": "METAR EFTU 221720Z AUTO 07011KT 9999 -SHSN OVC011 M01/M03 Q1028",
      "taf": "TAF EFTU 221731Z 2218/2318 07010KT 9999 -SN FEW014 BKN020"
    },
    {
      "icao": "EGBB",
      "alert": "OK",
      "vis_m": 4000,
      "fzfg": false,
      "metar_trigger": false,
      "taf_trigger": false,
      "metar": "METAR EGBB 221720Z 09006KT 060V120 4000 HZ OVC003 08/07 Q1010",
      "taf": "TAF EGBB 221703Z 2218/2318 07007KT 5000 BR BKN005"
    },
    {
      "icao": "EGGP",
      "alert": "OK",
      "vis_m": 9000,
      "fzfg": false,
      "metar_trigger": false,
      "taf_trigger": false,
      "metar": "METAR EGGP 221720Z 09002KT 9000 OVC012 08/06 Q1010",
      "taf": "TAF EGGP 221656Z 2218/2318 11006KT 9999 SCT012"
    },
    {
      "icao": "EGGW",
      "alert": "OK",
      "vis_m": 3100,
      "fzfg": false,
      "metar_trigger": false,
      "taf_trigger": false,
      "metar": "METAR EGGW 221720Z AUTO 07004KT 3100 BR FEW004 07/07 Q1009",
      "taf": ""
    },
    {
      "icao": "EGKK",
      "alert": "OK",
      "vis_m": 9000,
      "fzfg": false,
      "metar_trigger": false,
      "taf_trigger": false,
      "metar": "METAR EGKK 221720Z 08006KT 9000 BKN009 10/09 Q1009",
      "taf": "TAF EGKK 221702Z 2218/2324 10006KT 9999 SCT025"
    },
    {
      "icao": "EGNM",
      "alert": "OK",
      "vis_m": 2000,
      "fzfg": false,
      "metar_trigger": false,
      "taf_trigger": false,
      "metar": "METAR EGNM 221720Z 06006KT 2000 BR BKN003 07/07 Q1011",
      "taf": "TAF EGNM 221659Z 2218/2318 07005KT 6000 SCT003 BKN006"
    },
    {
      "icao": "EGPD",
      "alert": "OK",
      "vis_m": 9999,
      "fzfg": false,
      "metar_trigger": false,
      "taf_trigger": false,
      "metar": "METAR EGPD 221720Z AUTO 14009KT 9999 SCT011 BKN016 BKN022 09/07 Q1014 TEMPO BKN014",
      "taf": "TAF EGPD 221658Z 2218/2318 15012KT 9999 BKN012"
    },
    {
      "icao": "EGPF",
      "alert": "OK",
      "vis_m": 9999,
      "fzfg": false,
      "metar_trigger": false,
      "taf_trigger": false,
      "metar": "METAR EGPF 221720Z AUTO 05008KT 9999 OVC045 09/07 Q1012",
      "taf": "TAF EGPF 221704Z 2218/2318 07008KT 9999 FEW012 SCT025"
    },
    {
      "icao": "EHBK",
      "alert": "OK",
      "vis_m": 9999,
      "fzfg": false,
      "metar_trigger": false,
      "taf_trigger": false,
      "metar": "METAR EHBK 221725Z AUTO 08011KT 050V110 9999 NSC 04/01 Q1010 NOSIG",
      "taf": "TAF EHBK 221716Z 2218/2324 07009KT CAVOK"
    },
    {
      "icao": "EHEH",
      "alert": "OK",
      "vis_m": 9999,
      "fzfg": false,
      "metar_trigger": false,
      "taf_trigger": false,
      "metar": "METAR EHEH 221725Z AUTO 07006KT 040V110 9999 OVC160 05/03 Q1011 BLU NOSIG",
      "taf": "TAF EHEH 221105Z 2212/2318 08007KT CAVOK"
    },
    {
      "icao": "EKBI",
      "alert": "OK",
      "vis_m": 9999,
      "fzfg": false,
      "metar_trigger": false,
      "taf_trigger": false,
      "metar": "METAR EKBI 221720Z AUTO 09011KT 9999 OVC016/// 05/02 Q1021",
      "taf": "TAF EKBI 221727Z 2218/2318 09012KT 9999 OVC015"
    },
    {
      "icao": "EKCH",
      "alert": "OK",
      "vis_m": 9999,
      "fzfg": false,
      "metar_trigger": false,
      "taf_trigger": false,
      "metar": "METAR EKCH 221720Z AUTO 10012KT 9999 OVC026/// 06/01 Q1023 NOSIG",
      "taf": "TAF EKCH 221727Z 2218/2318 10012KT 9999 OVC025"
    },
    {
      "icao": "ENAL",
      "alert": "OK",
      "vis_m": 9999,
      "fzfg": false,
      "metar_trigger": false,
      "taf_trigger": false,
      "metar": "METAR ENAL 221720Z 15008KT CAVOK 01/M04 Q1024",
      "taf": "TAF ENAL 221700Z 2218/2303 14007KT CAVOK"
    },
    {
      "icao": "ENBR",
      "alert": "OK",
      "vis_m": 9999,
      "fzfg": false,
      "metar_trigger": false,
      "taf_trigger": false,
      "metar": "METAR ENBR 221720Z 00000KT CAVOK M01/M02 Q1023 NOSIG RMK WIND 1200FT 10008KT",
      "taf": "TAF ENBR 221700Z 2218/2318 12005KT CAVOK"
    },
    {
      "icao": "ENGM",
      "alert": "OK",
      "vis_m": 9999,
      "fzfg": false,
      "metar_trigger": false,
      "taf_trigger": false,
      "metar": "METAR ENGM 221720Z 03006KT CAVOK M05/M06 Q1028 NOSIG",
      "taf": "TAF ENGM 221700Z 2218/2318 02007KT 9999 FEW008"
    },
    {
      "icao": "ENHD",
      "alert": "OK",
      "vis_m": 9999,
      "fzfg": false,
      "metar_trigger": false,
      "taf_trigger": false,
      "metar": "METAR ENHD 221720Z 10007KT CAVOK 03/01 Q1022",
      "taf": "TAF ENHD 221400Z 2215/2223 09007KT CAVOK"
    },
    {
      "icao": "ENTC",
      "alert": "OK",
      "vis_m": 9999,
      "fzfg": false,
      "metar_trigger": false,
      "taf_trigger": false,
      "metar": "METAR ENTC 221720Z 22019KT 9999 FEW027 BKN034 02/M00 Q1027 NOSIG RMK WIND 2600FT 22014KT",
      "taf": "TAF ENTC 221700Z 2218/2318 22014KT 9999 FEW008 BKN025"
    },
    {
      "icao": "ENTO",
      "alert": "OK",
      "vis_m": 9999,
      "fzfg": false,
      "metar_trigger": false,
      "taf_trigger": false,
      "metar": "METAR ENTO 221720Z 36007KT CAVOK M03/M04 Q1027 NOSIG",
      "taf": "TAF ENTO 221700Z 2218/2318 02008KT CAVOK"
    },
    {
      "icao": "ENVA",
      "alert": "OK",
      "vis_m": 9999,
      "fzfg": false,
      "metar_trigger": false,
      "taf_trigger": false,
      "metar": "METAR ENVA 221720Z 12006KT CAVOK M02/M03 Q1027 NOSIG RMK WIND 670FT 10009KT",
      "taf": "TAF ENVA 221700Z 2218/2318 11007KT CAVOK"
    },
    {
      "icao": "ENZV",
      "alert": "OK",
      "vis_m": 9999,
      "fzfg": false,
      "metar_trigger": false,
      "taf_trigger": false,
      "metar": "METAR ENZV 221720Z VRB02KT CAVOK 02/M00 Q1022 NOSIG",
      "taf": "TAF ENZV 221700Z 2218/2318 12005KT CAVOK"
    },
    {
      "icao": "EPGD",
      "alert": "OK",
      "vis_m": 9999,
      "fzfg": false,
      "metar_trigger": false,
      "taf_trigger": false,
      "metar": "METAR EPGD 221730Z 09002KT 9999 BKN028 02/M01 Q1023",
      "taf": "TAF EPGD 221730Z 2218/2318 VRB02KT 9999 OVC029"
    },
    {
      "icao": "EPKK",
      "alert": "OK",
      "vis_m": 3900,
      "fzfg": false,
      "metar_trigger": false,
      "taf_trigger": false,
      "metar": "METAR EPKK 221730Z 07011KT 3900 -DZ BR SCT003 OVC004 02/02 Q1019",
      "taf": "TAF EPKK 221730Z 2218/2318 06010KT 4000 BR OVC004"
    },
    {
      "icao": "EPKT",
      "alert": "OK",
      "vis_m": 3000,
      "fzfg": false,
      "metar_trigger": false,
      "taf_trigger": false,
      "metar": "METAR EPKT 221730Z 08006KT 3000 -DZ BR OVC003 02/02 Q1019",
      "taf": "TAF EPKT 221730Z 2218/2318 08006KT 2500 BR OVC002"
    },
    {
      "icao": "EPLB",
      "alert": "OK",
      "vis_m": 9999,
      "fzfg": false,
      "metar_trigger": false,
      "taf_trigger": false,
      "metar": "METAR EPLB 221730Z 11003KT 9999 OVC020 02/M00 Q1022",
      "taf": "TAF EPLB 221730Z 2218/2318 10005KT 9999 OVC020"
    },
    {
      "icao": "EPMO",
      "alert": "OK",
      "vis_m": 9999,
      "fzfg": false,
      "metar_trigger": false,
      "taf_trigger": false,
      "metar": "METAR EPMO 221730Z 12006KT 090V160 9999 BKN022 02/M01 Q1023",
      "taf": "TAF EPMO 221730Z 2218/2318 08005KT 9999 BKN025"
    },
    {
      "icao": "EPPO",
      "alert": "OK",
      "vis_m": 9999,
      "fzfg": false,
      "metar_trigger": false,
      "taf_trigger": false,
      "metar": "METAR EPPO 221730Z 10012KT 9999 OVC012 01/M01 Q1021",
      "taf": "TAF EPPO 221730Z 2218/2318 09010KT 9999 OVC011"
    },
    {
      "icao": "EPRA",
      "alert": "OK",
      "vis_m": 9999,
      "fzfg": false,
      "metar_trigger": false,
      "taf_trigger": false,
      "metar": "METAR EPRA 221730Z 11005KT 9999 OVC018 01/M02 Q1022",
      "taf": "TAF EPRA 221730Z 2218/2303 12006KT 9999 OVC018"
    },
    {
      "icao": "EPRZ",
      "alert": "OK",
      "vis_m": 9999,
      "fzfg": false,
      "metar_trigger": false,
      "taf_trigger": false,
      "metar": "METAR EPRZ 221730Z 08010KT 9999 BKN017 01/M01 Q1021",
      "taf": "TAF EPRZ 221730Z 2218/2318 08010KT 9999 BKN020"
    },
    {
      "icao": "EPSC",
      "alert": "OK",
      "vis_m": 9999,
      "fzfg": false,
      "metar_trigger": false,
      "taf_trigger": false,
      "metar": "METAR EPSC 221730Z 09007KT 060V120 9999 BKN016 02/M01 Q1021",
      "taf": "TAF EPSC 221730Z 2218/2318 10010KT 9999 OVC015"
    },
    {
      "icao": "EPSY",
      "alert": "OK",
      "vis_m": 9999,
      "fzfg": false,
      "metar_trigger": false,
      "taf_trigger": false,
      "metar": "METAR EPSY 221730Z 04004KT 9999 BKN025 03/00 Q1023",
      "taf": "TAF EPSY 221730Z 2218/2303 VRB02KT 9999 BKN020"
    },
    {
      "icao": "EPWA",
      "alert": "OK",
      "vis_m": 9999,
      "fzfg": false,
      "metar_trigger": false,
      "taf_trigger": false,
      "metar": "METAR EPWA 221730Z 11007KT 090V170 9999 BKN020 03/M01 Q1022 NOSIG",
      "taf": "TAF EPWA 221730Z 2218/2318 09006KT 9999 BKN020"
    },
    {
      "icao": "EPWR",
      "alert": "OK",
      "vis_m": 5000,
      "fzfg": false,
      "metar_trigger": false,
      "taf_trigger": false,
      "metar": "METAR EPWR 221730Z 10009KT 5000 BR OVC005 04/03 Q1019",
      "taf": "TAF EPWR 221730Z 2218/2318 09009KT 6000 OVC006"
    },
    {
      "icao": "ESGG",
      "alert": "OK",
      "vis_m": 9999,
      "fzfg": false,
      "metar_trigger": false,
      "taf_trigger": false,
      "metar": "METAR ESGG 221720Z 06005KT CAVOK M03/M03 Q1025",
      "taf": "TAF ESGG 221730Z 2218/2318 07005KT 7000 BKN002"
    },
    {
      "icao": "ESKN",
      "alert": "OK",
      "vis_m": 9999,
      "fzfg": false,
      "metar_trigger": false,
      "taf_trigger": false,
      "metar": "METAR ESKN 221720Z 03003KT 350V060 9999 BKN013 01/00 Q1027",
      "taf": "TAF ESKN 221730Z 2218/2318 32003KT 9999 BKN015"
    },
    {
      "icao": "ESMS",
      "alert": "OK",
      "vis_m": 9999,
      "fzfg": false,
      "metar_trigger": false,
      "taf_trigger": false,
      "metar": "METAR ESMS 221720Z 09007KT 9999 OVC026 05/02 Q1023",
      "taf": "TAF ESMS 221727Z 2218/2318 10010KT 9999 OVC025"
    },
    {
      "icao": "ESSA",
      "alert": "OK",
      "vis_m": 9999,
      "fzfg": false,
      "metar_trigger": false,
      "taf_trigger": false,
      "metar": "METAR ESSA 221720Z 35006KT 9999 BKN003 M01/M01 Q1027 BECMG BKN020",
      "taf": "TAF ESSA 221730Z 2218/2318 01005KT 9999 BKN020"
    },
    {
      "icao": "EYKA",
      "alert": "OK",
      "vis_m": 9999,
      "fzfg": false,
      "metar_trigger": false,
      "taf_trigger": false,
      "metar": "METAR EYKA 221720Z 28003KT 250V330 9999 -RA FEW017 OVC037 02/01 Q1023",
      "taf": "TAF EYKA 221708Z 2218/2318 VRB04KT 6000 BKN015"
    },
    {
      "icao": "EYPA",
      "alert": "OK",
      "vis_m": 9999,
      "fzfg": false,
      "metar_trigger": false,
      "taf_trigger": false,
      "metar": "METAR EYPA 221720Z 36004KT 320V020 9999 -SHRA FEW020CB BKN041 02/02 Q1024",
      "taf": "TAF EYPA 221700Z 2218/2318 VRB04KT 6000 BKN020"
    },
    {
      "icao": "EYVI",
      "alert": "OK",
      "vis_m": 9999,
      "fzfg": false,
      "metar_trigger": false,
      "taf_trigger": false,
      "metar": "METAR EYVI 221720Z 31004KT 280V340 9999 BKN020 01/00 Q1022 NOSIG",
      "taf": "TAF EYVI 221714Z 2218/2318 VRB04KT 8000 SCT005 OVC015"
    },
    {
      "icao": "GCFV",
      "alert": "OK",
      "vis_m": 9999,
      "fzfg": false,
      "metar_trigger": false,
      "taf_trigger": false,
      "metar": "METAR GCFV 221730Z 01016KT 9999 FEW035 19/12 Q1019",
      "taf": "TAF GCFV 221400Z 2215/2315 02015KT 9999 SCT025 TX21/2314Z TN15/2306Z"
    },
    {
      "icao": "GCLP",
      "alert": "OK",
      "vis_m": 9999,
      "fzfg": false,
      "metar_trigger": false,
      "taf_trigger": false,
      "metar": "METAR GCLP 221730Z 02016KT 9999 BKN030 19/13 Q1020 NOSIG",
      "taf": "TAF GCLP 221400Z 2215/2315 02017KT 9999 BKN020 TX21/2314Z TN16/2306Z"
    },
    {
      "icao": "GCTS",
      "alert": "OK",
      "vis_m": 9999,
      "fzfg": false,
      "metar_trigger": false,
      "taf_trigger": false,
      "metar": "METAR GCTS 221730Z 07017KT 9999 SCT040 20/12 Q1020 NOSIG",
      "taf": "TAF GCTS 221400Z 2215/2315 08018KT 9999 BKN030 TX24/2314Z TN15/2306Z"
    },
    {
      "icao": "GMAD",
      "alert": "OK",
      "vis_m": 9999,
      "fzfg": false,
      "metar_trigger": false,
      "taf_trigger": false,
      "metar": "METAR GMAD 221730Z 27015KT 9999 FEW026 19/07 Q1014 NOSIG",
      "taf": "TAF GMAD 221700Z 2218/2324 20008KT 8000 SCT020"
    },
    {
      "icao": "GMMN",
      "alert": "OK",
      "vis_m": 9999,
      "fzfg": false,
      "metar_trigger": false,
      "taf_trigger": false,
      "metar": "METAR GMMN 221730Z 23003KT 9999 BKN030 12/09 Q1019 NOSIG",
      "taf": "TAF GMMN 221700Z 2218/2324 22003KT 9999 BKN030"
    },
    {
      "icao": "GMMX",
      "alert": "OK",
      "vis_m": 9999,
      "fzfg": false,
      "metar_trigger": false,
      "taf_trigger": false,
      "metar": "METAR GMMX 221730Z VRB02KT 9999 SCT023 14/08 Q1019 NOSIG",
      "taf": "TAF GMMX 221700Z 2218/2324 12006KT 8000 SCT023"
    },
    {
      "icao": "HEGN",
      "alert": "OK",
      "vis_m": 9999,
      "fzfg": false,
      "metar_trigger": false,
      "taf_trigger": false,
      "metar": "METAR HEGN 221700Z 00000KT CAVOK 21/13 Q1014 NOSIG",
      "taf": "TAF HEGN 221700Z 2218/2324 21008KT CAVOK"
    },
    {
      "icao": "HEMA",
      "alert": "OK",
      "vis_m": 9999,
      "fzfg": false,
      "metar_trigger": false,
      "taf_trigger": false,
      "metar": "METAR HEMA 221700Z 04002KT CAVOK 22/14 Q1014 NOSIG",
      "taf": "TAF HEMA 221700Z 2218/2324 21008KT CAVOK"
    },
    {
      "icao": "HESH",
      "alert": "OK",
      "vis_m": 9999,
      "fzfg": false,
      "metar_trigger": false,
      "taf_trigger": false,
      "metar": "METAR HESH 221700Z 15007KT CAVOK 22/14 Q1013 NOSIG",
      "taf": "TAF HESH 221700Z 2218/2324 28010KT CAVOK"
    },
    {
      "icao": "HESX",
      "alert": "OK",
      "vis_m": 9999,
      "fzfg": false,
      "metar_trigger": false,
      "taf_trigger": false,
      "metar": "METAR HESX 221700Z 20007KT CAVOK 16/02 Q1014 NOSIG",
      "taf": "TAF HESX 221700Z 2218/2324 23009KT CAVOK"
    },
    {
      "icao": "LATI",
      "alert": "OK",
      "vis_m": 9999,
      "fzfg": false,
      "metar_trigger": false,
      "taf_trigger": false,
      "metar": "METAR LATI 221720Z 15004KT CAVOK 08/03 Q1015 NOSIG",
      "taf": "TAF LATI 221700Z 2218/2318 VRB03KT CAVOK TX17/2312Z TN02/2305Z"
    },
    {
      "icao": "LBPD",
      "alert": "OK",
      "vis_m": 8000,
      "fzfg": false,
      "metar_trigger": false,
      "taf_trigger": false,
      "metar": "METAR LBPD 221730Z AUTO 10004KT 8000 FEW011/// BKN017/// OVC027/// 08/08 Q1020 NOSIG",
      "taf": "TAF LBPD 221700Z 2218/2318 VRB03KT 5000 BR SCT006 BKN012 OVC020"
    },
    {
      "icao": "LBSF",
      "alert": "OK",
      "vis_m": 9000,
      "fzfg": false,
      "metar_trigger": false,
      "taf_trigger": false,
      "metar": "METAR LBSF 221730Z AUTO VRB03KT 9000 FEW032/// OVC036/// 06/02 Q1019 NOSIG",
      "taf": "TAF LBSF 221700Z 2218/2318 VRB03KT 6000 FEW015 BKN040"
    },
    {
      "icao": "LBWN",
      "alert": "OK",
      "vis_m": 9999,
      "fzfg": false,
      "metar_trigger": false,
      "taf_trigger": false,
      "metar": "METAR LBWN 221730Z AUTO 01008KT 9999 OVC009/// 03/03 Q1022 NOSIG",
      "taf": "TAF LBWN 221700Z 2218/2318 35010KT 7000 SCT005 OVC007"
    },
    {
      "icao": "LCLK",
      "alert": "OK",
      "vis_m": 9999,
      "fzfg": false,
      "metar_trigger": false,
      "taf_trigger": false,
      "metar": "METAR LCLK 221730Z 07014KT 9999 FEW030 SCT050 18/15 Q1014 NOSIG",
      "taf": "TAF LCLK 221730Z 2218/2318 02009KT 9999 FEW022 SCT030"
    },
    {
      "icao": "LCPH",
      "alert": "OK",
      "vis_m": 9999,
      "fzfg": false,
      "metar_trigger": false,
      "taf_trigger": false,
      "metar": "METAR LCPH 221730Z 09008KT 9999 FEW025 FEW030CB 16/12 Q1013 NOSIG",
      "taf": "TAF LCPH 221730Z 2218/2318 08009KT 9999 FEW022 SCT030"
    },
    {
      "icao": "LEAL",
      "alert": "OK",
      "vis_m": 9999,
      "fzfg": false,
      "metar_trigger": false,
      "taf_trigger": false,
      "metar": "METAR LEAL 221730Z 29013KT 260V320 9999 FEW060 11/02 Q1010 NOSIG",
      "taf": "TAF LEAL 221700Z 2218/2318 30010KT 9999 FEW040 TX15/2313Z TN08/2307Z"
    },
    {
      "icao": "LEBB",
      "alert": "OK",
      "vis_m": 9999,
      "fzfg": false,
      "metar_trigger": false,
      "taf_trigger": false,
      "metar": "METAR LEBB 221730Z VRB02KT 9999 -RA SCT047 BKN059 BKN070 09/06 Q1008 TEMPO 3000 SHRA SCT040TCU",
      "taf": "TAF LEBB 221700Z 2218/2318 22008KT 9999 SCT035 BKN050 TX11/2312Z TN06/2307Z"
    },
    {
      "icao": "LEBL",
      "alert": "OK",
      "vis_m": 9999,
      "fzfg": false,
      "metar_trigger": false,
      "taf_trigger": false,
      "metar": "METAR LEBL 221730Z 32004KT 260V060 9999 FEW025 09/04 Q1006 NOSIG",
      "taf": "TAF LEBL 221700Z 2218/2318 33004KT 9999 FEW020 TX10/2313Z TN06/2306Z"
    },
    {
      "icao": "LECH",
      "alert": "OK",
      "vis_m": 9999,
      "fzfg": false,
      "metar_trigger": false,
      "taf_trigger": false,
      "metar": "METAR LECH 221730Z AUTO 28007KT CAVOK 07/M02 Q1007",
      "taf": ""
    },
    {
      "icao": "LEMD",
      "alert": "OK",
      "vis_m": 9999,
      "fzfg": false,
      "metar_trigger": false,
      "taf_trigger": false,
      "metar": "METAR LEMD 221730Z 24008KT 210V280 9999 SCT050 04/01 Q1010 NOSIG",
      "taf": "TAF LEMD 221700Z 2218/2324 VRB04KT 9999 SCT030 TX08/2315Z TNM01/2306Z"
    },
    {
      "icao": "LEMG",
      "alert": "OK",
      "vis_m": 9999,
      "fzfg": false,
      "metar_trigger": false,
      "taf_trigger": false,
      "metar": "METAR LEMG 221730Z 30005KT 9999 FEW040 SCT050 09/04 Q1014 NOSIG",
      "taf": "TAF LEMG 221700Z 2218/2318 32006KT 9999 FEW040 SCT050 TX15/2314Z TN07/2307Z"
    },
    {
      "icao": "LEVC",
      "alert": "OK",
      "vis_m": 9999,
      "fzfg": false,
      "metar_trigger": false,
      "taf_trigger": false,
      "metar": "METAR LEVC 221730Z 28008KT 9999 FEW040 09/00 Q1009 NOSIG",
      "taf": "TAF LEVC 221700Z 2218/2318 27010KT 9999 FEW040 TX14/2313Z TN07/2307Z"
    },
    {
      "icao": "LEXJ",
      "alert": "OK",
      "vis_m": 9999,
      "fzfg": false,
      "metar_trigger": false,
      "taf_trigger": false,
      "metar": "METAR LEXJ 221730Z 22005KT 9999 SCT045 BKN070 10/05 Q1007",
      "taf": "TAF LEXJ 221400Z 2215/2315 25009KT 9999 SCT040 TX13/2313Z TN07/2307Z"
    },
    {
      "icao": "LEZG",
      "alert": "OK",
      "vis_m": 9999,
      "fzfg": false,
      "metar_trigger": false,
      "taf_trigger": false,
      "metar": "METAR LEZG 221730Z 25006KT 9999 SCT085 07/03 Q1008 NOSIG",
      "taf": "TAF LEZG 221700Z 2218/2318 27006KT 9999 FEW040 TX11/2314Z TN03/2306Z"
    },
    {
      "icao": "LEZL",
      "alert": "OK",
      "vis_m": 9999,
      "fzfg": false,
      "metar_trigger": false,
      "taf_trigger": false,
      "metar": "METAR LEZL 221730Z 21004KT CAVOK 11/08 Q1014 NOSIG",
      "taf": ""
    },
    {
      "icao": "LFBD",
      "alert": "OK",
      "vis_m": 9999,
      "fzfg": false,
      "metar_trigger": false,
      "taf_trigger": false,
      "metar": "METAR LFBD 221730Z AUTO 14006KT CAVOK 07/05 Q1007 NOSIG",
      "taf": "TAF LFBD 221100Z 2212/2318 18010KT 9999 BKN040 TX10/2214Z TN04/2302Z"
    },
    {
      "icao": "LFLL",
      "alert": "OK",
      "vis_m": 7000,
      "fzfg": false,
      "metar_trigger": false,
      "taf_trigger": false,
      "metar": "METAR LFLL 221730Z 13004KT 100V160 7000 BKN008 BKN060 09/08 Q1007 NOSIG",
      "taf": "TAF LFLL 221700Z 2218/2324 36004KT 5000 BR BKN008"
    },
    {
      "icao": "LFLS",
      "alert": "OK",
      "vis_m": 4900,
      "fzfg": false,
      "metar_trigger": false,
      "taf_trigger": false,
      "metar": "METAR LFLS 221730Z AUTO VRB02KT 4900 BR FEW060/// SCT076/// BKN096/// ///TCU 07/07 Q1006 BECMG BKN045",
      "taf": ""
    },
    {
      "icao": "LFMN",
      "alert": "OK",
      "vis_m": 9999,
      "fzfg": false,
      "metar_trigger": false,
      "taf_trigger": false,
      "metar": "METAR LFMN 221730Z 03017KT 9999 BKN054 14/06 Q1007 NOSIG",
      "taf": "TAF LFMN 221400Z 2215/2321 06015KT 9999 BKN048"
    },
    {
      "icao": "LFOB",
      "alert": "OK",
      "vis_m": 9999,
      "fzfg": false,
      "metar_trigger": false,
      "taf_trigger": false,
      "metar": "METAR LFOB 221730Z AUTO VRB02KT CAVOK 07/06 Q1009 TEMPO 4000 BR",
      "taf": "TAF LFOB 221700Z 2218/2318 06006KT CAVOK"
    },
    {
      "icao": "LFPO",
      "alert": "OK",
      "vis_m": 9999,
      "fzfg": false,
      "metar_trigger": false,
      "taf_trigger": false,
      "metar": "METAR LFPO 221730Z 07004KT CAVOK 09/07 Q1008 NOSIG",
      "taf": "TAF LFPO 221700Z 2218/2324 09008KT CAVOK"
    },
    {
      "icao": "LFSB",
      "alert": "OK",
      "vis_m": 2200,
      "fzfg": false,
      "metar_trigger": false,
      "taf_trigger": false,
      "metar": "METAR LFSB 221730Z AUTO 35008KT 320V020 2200 BR VV/// 02/02 Q1010 TEMPO 0500 FG",
      "taf": "TAF LFSB 221700Z 2218/2318 35006KT 3000 BR OVC003"
    },
    {
      "icao": "LGAV",
      "alert": "OK",
      "vis_m": 9999,
      "fzfg": false,
      "metar_trigger": false,
      "taf_trigger": false,
      "metar": "METAR LGAV 221720Z 36008KT 9999 FEW020 SCT035 BKN070 14/08 Q1016 NOSIG",
      "taf": "TAF LGAV 221700Z 2218/2318 36012KT 9999 SCT025 BKN070"
    },
    {
      "icao": "LGTS",
      "alert": "OK",
      "vis_m": 9999,
      "fzfg": false,
      "metar_trigger": false,
      "taf_trigger": false,
      "metar": "METAR LGTS 221720Z 12005KT 9999 FEW018 10/07 Q1019 NOSIG",
      "taf": "TAF LGTS 221700Z 2218/2318 VRB03KT 9999 FEW010 SCT025"
    },
    {
      "icao": "LHBP",
      "alert": "OK",
      "vis_m": 8000,
      "fzfg": false,
      "metar_trigger": false,
      "taf_trigger": false,
      "metar": "METAR LHBP 221730Z 14006KT 8000 -DZ BKN008 OVC011 04/03 Q1020 NOSIG",
      "taf": "TAF LHBP 221715Z 2218/2318 13005KT 8000 SCT006 OVC015"
    },
    {
      "icao": "LHDC",
      "alert": "OK",
      "vis_m": 9999,
      "fzfg": false,
      "metar_trigger": false,
      "taf_trigger": false,
      "metar": "METAR LHDC 221715Z AUTO 20004KT 9999 OVC009 05/04 Q1020 TEMPO OVC012",
      "taf": "TAF LHDC 221715Z 2218/2303 VRB03KT 8000 OVC012"
    },
    {
      "icao": "LIBD",
      "alert": "OK",
      "vis_m": 9999,
      "fzfg": false,
      "metar_trigger": false,
      "taf_trigger": false,
      "metar": "METAR LIBD 221720Z 13006KT CAVOK 12/11 Q1013",
      "taf": "TAF LIBD 221700Z 2218/2318 11007KT 9999 FEW040"
    },
    {
      "icao": "LIBG",
      "alert": "OK",
      "vis_m": 9999,
      "fzfg": false,
      "metar_trigger": false,
      "taf_trigger": false,
      "metar": "METAR LIBG 221650Z 08003KT CAVOK 12/12 Q1014",
      "taf": "TAF LIBG 221700Z 2218/2303 10007KT 9999 FEW040"
    },
    {
      "icao": "LIBP",
      "alert": "OK",
      "vis_m": 9999,
      "fzfg": false,
      "metar_trigger": false,
      "taf_trigger": false,
      "metar": "METAR LIBP 221720Z AUTO VRB01KT 9999 BKN022/// OVC037/// 12/10 Q1014",
      "taf": "TAF LIBP 221700Z 2218/2318 VRB04KT 9999 FEW010 BKN030"
    },
    {
      "icao": "LIBR",
      "alert": "OK",
      "vis_m": 9999,
      "fzfg": false,
      "metar_trigger": false,
      "taf_trigger": false,
      "metar": "METAR LIBR 221720Z 14003KT CAVOK 14/12 Q1014",
      "taf": "TAF LIBR 221700Z 2218/2318 11010KT 9999 SCT020"
    },
    {
      "icao": "LICA",
      "alert": "OK",
      "vis_m": 9999,
      "fzfg": false,
      "metar_trigger": false,
      "taf_trigger": false,
      "metar": "METAR LICA 221720Z AUTO 07012KT 9999 NCD 14/12 Q1012",
      "taf": "TAF LICA 221700Z 2218/2318 07015KT 9999 SCT040"
    },
    {
      "icao": "LICC",
      "alert": "OK",
      "vis_m": 9999,
      "fzfg": false,
      "metar_trigger": false,
      "taf_trigger": false,
      "metar": "METAR LICC 221720Z 06006KT 9999 FEW020 SCT070 15/14 Q1012",
      "taf": "TAF LICC 221700Z 2218/2318 VRB05KT 9999 SCT040"
    },
    {
      "icao": "LICJ",
      "alert": "OK",
      "vis_m": 9999,
      "fzfg": false,
      "metar_trigger": false,
      "taf_trigger": false,
      "metar": "METAR LICJ 221720Z 21005KT 140V240 9999 SCT050 15/10 Q1010",
      "taf": "TAF LICJ 221700Z 2218/2318 19012KT 9999 SCT040"
    },
    {
      "icao": "LIMC",
      "alert": "OK",
      "vis_m": 9999,
      "fzfg": false,
      "metar_trigger": false,
      "taf_trigger": false,
      "metar": "METAR LIMC 221720Z VRB02KT 9999 SCT060 08/05 Q1014 NOSIG",
      "taf": "TAF LIMC 221700Z 2218/2324 VRB04KT 9000 FEW030 BKN050"
    },
    {
      "icao": "LIME",
      "alert": "OK",
      "vis_m": 9999,
      "fzfg": false,
      "metar_trigger": false,
      "taf_trigger": false,
      "metar": "METAR LIME 221720Z 01001KT 9999 SCT070 07/05 Q1014 NOSIG",
      "taf": "TAF LIME 221700Z 2218/2318 VRB04KT 9000 SCT050"
    },
    {
      "icao": "LIMF",
      "alert": "OK",
      "vis_m": 7000,
      "fzfg": false,
      "metar_trigger": false,
      "taf_trigger": false,
      "metar": "METAR LIMF 221720Z VRB01KT 7000 BKN025 OVC060 08/06 Q1014",
      "taf": "TAF LIMF 221700Z 2218/2318 VRB04KT 7000 BKN015 OVC040"
    },
    {
      "icao": "LIMJ",
      "alert": "OK",
      "vis_m": 9999,
      "fzfg": false,
      "metar_trigger": false,
      "taf_trigger": false,
      "metar": "METAR LIMJ 221720Z 36008KT 330V040 9999 -RA BKN070 12/06 Q1011",
      "taf": "TAF LIMJ 221700Z 2218/2318 03015KT 7000 RA BKN040"
    },
    {
      "icao": "LIPE",
      "alert": "OK",
      "vis_m": 5000,
      "fzfg": false,
      "metar_trigger": false,
      "taf_trigger": false,
      "metar": "METAR LIPE 221720Z VRB02KT 5000 -DZ BR OVC020 07/07 Q1014",
      "taf": "TAF LIPE 221700Z 2218/2318 VRB04KT 5000 BR BKN015"
    },
    {
      "icao": "LIPH",
      "alert": "OK",
      "vis_m": 9999,
      "fzfg": false,
      "metar_trigger": false,
      "taf_trigger": false,
      "metar": "METAR LIPH 221720Z VRB02KT 9999 -RA BKN060 08/05 Q1015",
      "taf": "TAF LIPH 221700Z 2218/2318 05005KT 9999 FEW050"
    },
    {
      "icao": "LIPQ",
      "alert": "OK",
      "vis_m": 9999,
      "fzfg": false,
      "metar_trigger": false,
      "taf_trigger": false,
      "metar": "METAR LIPQ 221720Z AUTO 09004KT 9999 BKN089/// 09/03 Q1015",
      "taf": "TAF LIPQ 221700Z 2218/2318 07006KT 9999 FEW060"
    },
    {
      "icao": "LIPR",
      "alert": "OK",
      "vis_m": 6000,
      "fzfg": false,
      "metar_trigger": false,
      "taf_trigger": false,
      "metar": "METAR LIPR 221720Z 29005KT 6000 SCT040 BKN070 09/09 Q1013",
      "taf": "TAF LIPR 221700Z 2218/2318 30007KT 3000 BR BKN013"
    },
    {
      "icao": "LIPX",
      "alert": "OK",
      "vis_m": 9999,
      "fzfg": false,
      "metar_trigger": false,
      "taf_trigger": false,
      "metar": "METAR LIPX 221720Z 26004KT 9999 OVC070 08/06 Q1015",
      "taf": "TAF LIPX 221700Z 2218/2318 VRB05KT 9999 BKN040"
    },
    {
      "icao": "LIPY",
      "alert": "OK",
      "vis_m": 5000,
      "fzfg": false,
      "metar_trigger": false,
      "taf_trigger": false,
      "metar": "METAR LIPY 221720Z AUTO 34003KT 5000 BR OVC037/// 11/10 Q1013",
      "taf": "TAF LIPY 221700Z 2218/2318 VRB05KT 6000 BKN040"
    },
    {
      "icao": "LIPZ",
      "alert": "OK",
      "vis_m": 9999,
      "fzfg": false,
      "metar_trigger": false,
      "taf_trigger": false,
      "metar": "METAR LIPZ 221720Z 01006KT 9999 SCT055 09/05 Q1014 NOSIG",
      "taf": "TAF LIPZ 221700Z 2218/2324 03007KT 9999 SCT050"
    },
    {
      "icao": "LIRF",
      "alert": "OK",
      "vis_m": 9999,
      "fzfg": false,
      "metar_trigger": false,
      "taf_trigger": false,
      "metar": "METAR LIRF 221720Z AUTO 11009KT 080V140 9999 BKN046/// 16/07 Q1010",
      "taf": "TAF LIRF 221700Z 2218/2324 12015KT 9999 SCT040"
    },
    {
      "icao": "LIRN",
      "alert": "OK",
      "vis_m": 9999,
      "fzfg": false,
      "metar_trigger": false,
      "taf_trigger": false,
      "metar": "METAR LIRN 221720Z 01004KT 9999 SCT060 15/09 Q1011 NOSIG",
      "taf": "TAF LIRN 221700Z 2218/2318 05005KT 9999 SCT040"
    },
    {
      "icao": "LIRP",
      "alert": "OK",
      "vis_m": 9999,
      "fzfg": false,
      "metar_trigger": false,
      "taf_trigger": false,
      "metar": "METAR LIRP 221715Z 12010KT 9999 -RA SCT040 BKN050 12/07 Q1010 NOSIG",
      "taf": "TAF LIRP 221700Z 2218/2318 13006KT 9999 SCT040 BKN050"
    },
    {
      "icao": "LIRZ",
      "alert": "OK",
      "vis_m": 9999,
      "fzfg": false,
      "metar_trigger": false,
      "taf_trigger": false,
      "metar": "METAR LIRZ 221720Z AUTO 11004KT 9999 OVC066/// 09/08 Q1011",
      "taf": "TAF LIRZ 221700Z 2218/2318 VRB05KT 9999 SCT040"
    },
    {
      "icao": "LJLJ",
      "alert": "OK",
      "vis_m": 9999,
      "fzfg": false,
      "metar_trigger": false,
      "taf_trigger": false,
      "metar": "METAR LJLJ 221730Z VRB01KT 9999 OVC010 02/01 Q1017 NOSIG",
      "taf": "TAF LJLJ 221700Z 2218/2318 VRB02KT 9999 OVC010"
    },
    {
      "icao": "LKMT",
      "alert": "OK",
      "vis_m": 4500,
      "fzfg": false,
      "metar_trigger": false,
      "taf_trigger": false,
      "metar": "METAR LKMT 221730Z 09006KT 4500 BR OVC004 02/02 Q1019 TEMPO OVC002",
      "taf": "TAF LKMT 221700Z 2218/2318 13006KT 4000 BR OVC005"
    },
    {
      "icao": "LKPR",
      "alert": "OK",
      "vis_m": 9999,
      "fzfg": false,
      "metar_trigger": false,
      "taf_trigger": false,
      "metar": "METAR LKPR 221730Z 09007KT 9999 -DZ SCT006 BKN011 OVC015 02/02 Q1014 NOSIG",
      "taf": "TAF LKPR 221700Z 2218/2324 08006KT 9999 SCT006 OVC012"
    },
    {
      "icao": "LLBG",
      "alert": "OK",
      "vis_m": 9999,
      "fzfg": false,
      "metar_trigger": false,
      "taf_trigger": false,
      "metar": "METAR LLBG 221720Z 13004KT CAVOK 16/09 Q1014 NOSIG",
      "taf": "TAF LLBG 221710Z 2218/2318 VRB04KT CAVOK"
    },
    {
      "icao": "LMML",
      "alert": "OK",
      "vis_m": 9999,
      "fzfg": false,
      "metar_trigger": false,
      "taf_trigger": false,
      "metar": "METAR LMML 221745Z 13003KT 9999 FEW018 14/12 Q1012 NOSIG",
      "taf": "TAF LMML 221700Z 2218/2318 VRB05KT 9999 FEW020"
    },
    {
      "icao": "LOWW",
      "alert": "OK",
      "vis_m": 9999,
      "fzfg": false,
      "metar_trigger": false,
      "taf_trigger": false,
      "metar": "METAR LOWW 221720Z 15017KT 9999 -DZ FEW009 BKN010 04/02 Q1016 TEMPO BKN007",
      "taf": "TAF LOWW 221715Z 2218/2324 14013KT 8000 BKN007 TX04/2221Z TN02/2324Z"
    },
    {
      "icao": "LPFR",
      "alert": "OK",
      "vis_m": 9999,
      "fzfg": false,
      "metar_trigger": false,
      "taf_trigger": false,
      "metar": "METAR LPFR 221730Z 30007KT 9999 FEW020 13/07 Q1015",
      "taf": "TAF LPFR 221700Z 2218/2318 31008KT 9999 FEW020"
    },
    {
      "icao": "LPMA",
      "alert": "OK",
      "vis_m": 9999,
      "fzfg": false,
      "metar_trigger": false,
      "taf_trigger": false,
      "metar": "METAR LPMA 221730Z 34004KT 270V020 9999 FEW015 17/09 Q1023",
      "taf": "TAF LPMA 221700Z 2218/2318 36010KT 9999 SCT015"
    },
    {
      "icao": "LPPR",
      "alert": "OK",
      "vis_m": 9000,
      "fzfg": false,
      "metar_trigger": false,
      "taf_trigger": false,
      "metar": "METAR LPPR 221730Z 21007KT 180V240 9000 -RA SCT016 SCT045 10/08 Q1012",
      "taf": "TAF LPPR 221700Z 2218/2318 18008KT 9999 FEW015 SCT030"
    },
    {
      "icao": "LPPS",
      "alert": "OK",
      "vis_m": 9999,
      "fzfg": false,
      "metar_trigger": false,
      "taf_trigger": false,
      "metar": "METAR LPPS 221730Z 32009KT 9999 SCT015 17/10 Q1023",
      "taf": "TAF LPPS 221700Z 2218/2324 34012KT 9999 SCT015"
    },
    {
      "icao": "LPPT",
      "alert": "OK",
      "vis_m": 6000,
      "fzfg": false,
      "metar_trigger": false,
      "taf_trigger": false,
      "metar": "METAR LPPT 221730Z 24004KT 220V300 6000 -RADZ FEW013 BKN020 11/10 Q1015 RERA",
      "taf": "TAF LPPT 221700Z 2218/2324 26005KT 9999 SCT030"
    },
    {
      "icao": "LQBK",
      "alert": "OK",
      "vis_m": 7000,
      "fzfg": false,
      "metar_trigger": false,
      "taf_trigger": false,
      "metar": "METAR LQBK 221730Z VRB02KT 7000 OVC015 05/03 Q1019 NOSIG",
      "taf": ""
    },
    {
      "icao": "LQSA",
      "alert": "OK",
      "vis_m": 9999,
      "fzfg": false,
      "metar_trigger": false,
      "taf_trigger": false,
      "metar": "METAR LQSA 221730Z 15002KT 9999 OVC011 02/01 Q1018 NOSIG",
      "taf": "TAF LQSA 221700Z 2218/2318 VRB02KT 9999 BKN011 TX05/2313Z TNM02/2305Z"
    },
    {
      "icao": "LQTZ",
      "alert": "OK",
      "vis_m": 9999,
      "fzfg": false,
      "metar_trigger": false,
      "taf_trigger": false,
      "metar": "METAR LQTZ 221730Z VRB01KT 9999 OVC016 05/03 Q1018",
      "taf": "TAF LQTZ 221700Z 2218/2318 VRB02KT 9999 SCT015 BKN035 TX05/2313Z TNM01/2305Z"
    },
    {
      "icao": "LRBC",
      "alert": "OK",
      "vis_m": 3000,
      "fzfg": false,
      "metar_trigger": false,
      "taf_trigger": false,
      "metar": "METAR LRBC 221730Z 16002KT 3000 BR OVC004 04/03 Q1023",
      "taf": "TAF LRBC 221700Z 2218/2303 VRB04KT 5000 BR OVC005"
    },
    {
      "icao": "LRBS",
      "alert": "OK",
      "vis_m": 9999,
      "fzfg": false,
      "metar_trigger": false,
      "taf_trigger": false,
      "metar": "METAR LRBS 221730Z 07007KT 030V090 9999 OVC005 03/02 Q1023 NOSIG",
      "taf": "TAF LRBS 221700Z 2218/2318 06006KT 7000 OVC005"
    },
    {
      "icao": "LRBV",
      "alert": "OK",
      "vis_m": 150,
      "fzfg": true,
      "metar_trigger": false,
      "taf_trigger": false,
      "metar": "METAR LRBV 221730Z VRB03KT 0150 R21/0375N FZFG VV001 M00/M00 Q1020",
      "taf": "TAF LRBV 221700Z 2218/2303 VRB04KT 0150 FZFG VV001"
    },
    {
      "icao": "LRCL",
      "alert": "OK",
      "vis_m": 8000,
      "fzfg": false,
      "metar_trigger": false,
      "taf_trigger": false,
      "metar": "METAR LRCL 221730Z 08005KT 8000 OVC005 02/01 Q1021",
      "taf": "TAF LRCL 221700Z 2218/2303 VRB04KT 9999 OVC005"
    },
    {
      "icao": "LRCV",
      "alert": "OK",
      "vis_m": 600,
      "fzfg": false,
      "metar_trigger": false,
      "taf_trigger": false,
      "metar": "METAR LRCV 221730Z 11007KT 0600 R26/1300D FG VV002 04/04 Q1022",
      "taf": "TAF LRCV 221700Z 2218/2303 10007KT 0800 FG VV002"
    },
    {
      "icao": "LRIA",
      "alert": "OK",
      "vis_m": 9999,
      "fzfg": false,
      "metar_trigger": false,
      "taf_trigger": false,
      "metar": "METAR LRIA 221730Z 06006KT 9999 OVC021 03/M00 Q1023",
      "taf": "TAF LRIA 221700Z 2218/2303 VRB04KT 9999 BKN020"
    },
    {
      "icao": "LROP",
      "alert": "OK",
      "vis_m": 6000,
      "fzfg": false,
      "metar_trigger": false,
      "taf_trigger": false,
      "metar": "METAR LROP 221730Z 09006KT 6000 OVC005 03/03 Q1023 NOSIG",
      "taf": "TAF LROP 221700Z 2218/2318 07007KT 7000 OVC005"
    },
    {
      "icao": "LRSB",
      "alert": "OK",
      "vis_m": 400,
      "fzfg": true,
      "metar_trigger": false,
      "taf_trigger": false,
      "metar": "METAR LRSB 221730Z 25003KT 0400 R27/1000N FZFG VV002 M01/M01 Q1020",
      "taf": "TAF LRSB 221700Z 2218/2318 VRB04KT 0350 FZFG VV001"
    },
    {
      "icao": "LRSM",
      "alert": "OK",
      "vis_m": 4000,
      "fzfg": false,
      "metar_trigger": false,
      "taf_trigger": false,
      "metar": "METAR LRSM 221730Z AUTO 23002KT 4000 BR SCT002/// OVC026/// 05/04 Q1020",
      "taf": "TAF LRSM 221400Z 2215/2224 VRB04KT 5000 BR OVC030"
    },
    {
      "icao": "LRSV",
      "alert": "OK",
      "vis_m": 300,
      "fzfg": false,
      "metar_trigger": false,
      "taf_trigger": false,
      "metar": "METAR LRSV 221730Z 08006KT 0300 R34/0800D -DZ FG OVC001 01/01 Q1021",
      "taf": ""
    },
    {
      "icao": "LRTM",
      "alert": "OK",
      "vis_m": 5000,
      "fzfg": false,
      "metar_trigger": false,
      "taf_trigger": false,
      "metar": "METAR LRTM 221730Z AUTO 17003KT 5000 -DZ FEW001/// BKN003/// 01/01 Q1021",
      "taf": "TAF LRTM 221400Z 2215/2224 VRB04KT 3000 BR BKN002 OVC005"
    },
    {
      "icao": "LRTR",
      "alert": "OK",
      "vis_m": 9999,
      "fzfg": false,
      "metar_trigger": false,
      "taf_trigger": false,
      "metar": "METAR LRTR 221730Z 09005KT 9999 OVC008 04/04 Q1020",
      "taf": "TAF LRTR 221700Z 2218/2318 VRB04KT 9999 OVC010"
    },
    {
      "icao": "LTAC",
      "alert": "OK",
      "vis_m": 8000,
      "fzfg": false,
      "metar_trigger": false,
      "taf_trigger": false,
      "metar": "METAR LTAC 221720Z 02004KT 8000 -RA BKN029 BKN080 05/03 Q1017 NOSIG RMK RWY21C 36003KT RWY03L 01002KT RWY21R 01004KT RWY03R 34004KT RWY21L VRB02KT",
      "taf": "TAF LTAC 221640Z 2218/2318 04007KT 8000 -RA BKN035 BKN080"
    },
    {
      "icao": "LTFM",
      "alert": "OK",
      "vis_m": 9999,
      "fzfg": false,
      "metar_trigger": false,
      "taf_trigger": false,
      "metar": "METAR LTFM 221720Z 04018KT 9999 -SHRA SCT014 BKN022 11/08 Q1019 NOSIG RMK RWY17L 04016KT RWY34L 03014KT RWY16R 04016KT RWY36 04018KT RWY18 05015KT",
      "taf": "TAF LTFM 221640Z 2218/2324 03018G28KT 9999 SCT014 BKN022"
    },
    {
      "icao": "LUKK",
      "alert": "OK",
      "vis_m": 9999,
      "fzfg": false,
      "metar_trigger": false,
      "taf_trigger": false,
      "metar": "METAR LUKK 221730Z 04005KT 9999 FEW018 BKN022 OVC028 02/M01 Q1023 NOSIG",
      "taf": "TAF LUKK 221713Z 2218/2318 VRB05KT 9999 BKN015"
    },
    {
      "icao": "LWOH",
      "alert": "OK",
      "vis_m": null,
      "fzfg": false,
      "metar_trigger": false,
      "taf_trigger": false,
      "metar": "",
      "taf": "TAF LWOH 221740Z 2218/2318 VRB02KT 9999 BKN040"
    },
    {
      "icao": "LWSK",
      "alert": "OK",
      "vis_m": null,
      "fzfg": false,
      "metar_trigger": false,
      "taf_trigger": false,
      "metar": "",
      "taf": "TAF LWSK 221740Z 2218/2318 VRB02KT 7000 BKN007"
    },
    {
      "icao": "LYBE",
      "alert": "OK",
      "vis_m": 9999,
      "fzfg": false,
      "metar_trigger": false,
      "taf_trigger": false,
      "metar": "METAR LYBE 221730Z 09004KT 9999 BKN024 06/02 Q1019 NOSIG",
      "taf": "TAF LYBE 221700Z 2218/2318 10005KT 9999 BKN025 TX09/2313Z TN02/2306Z"
    },
    {
      "icao": "LYNI",
      "alert": "OK",
      "vis_m": 9999,
      "fzfg": false,
      "metar_trigger": false,
      "taf_trigger": false,
      "metar": "METAR LYNI 221730Z 05003KT 9999 BKN013 BKN023 05/02 Q1020 NOSIG",
      "taf": "TAF LYNI 221700Z 2218/2318 07005KT 9999 BKN013 BKN023 TX09/2312Z TNM01/2306Z"
    },
    {
      "icao": "LYPG",
      "alert": "OK",
      "vis_m": 9999,
      "fzfg": false,
      "metar_trigger": false,
      "taf_trigger": false,
      "metar": "METAR LYPG 221730Z 00000KT CAVOK 04/03 Q1016 NOSIG",
      "taf": "TAF LYPG 221700Z 2218/2318 VRB02KT 9999 SCT040 TX11/2313Z TN03/2301Z"
    },
    {
      "icao": "LZIB",
      "alert": "OK",
      "vis_m": 9999,
      "fzfg": false,
      "metar_trigger": false,
      "taf_trigger": false,
      "metar": "METAR LZIB 221730Z 11012KT 9999 FEW007 OVC018 04/03 Q1018 NOSIG",
      "taf": "TAF LZIB 221715Z 2218/2318 12011KT 9999 SCT007 OVC015"
    },
    {
      "icao": "LZKZ",
      "alert": "OK",
      "vis_m": 9999,
      "fzfg": false,
      "metar_trigger": false,
      "taf_trigger": false,
      "metar": "METAR LZKZ 221730Z 24003KT 9999 OVC019 06/04 Q1019 NOSIG",
      "taf": "TAF LZKZ 221715Z 2218/2318 VRB02KT 8000 OVC016"
    },
    {
      "icao": "LZTT",
      "alert": "OK",
      "vis_m": 400,
      "fzfg": false,
      "metar_trigger": false,
      "taf_trigger": false,
      "metar": "METAR LZTT 221730Z VRB01KT 0400 R27/1800N FG OVC002 01/01 Q1018 NOSIG",
      "taf": "TAF LZTT 221715Z 2218/2318 VRB02KT 3000 BR FEW002 BKN005"
    },
    {
      "icao": "OEJN",
      "alert": "OK",
      "vis_m": 9999,
      "fzfg": false,
      "metar_trigger": false,
      "taf_trigger": false,
      "metar": "METAR OEJN 221700Z 25002KT CAVOK 27/22 Q1012 NOSIG",
      "taf": "TAF OEJN 221700Z 2218/2324 VRB03KT 7000 NSC"
    },
    {
      "icao": "OEMA",
      "alert": "OK",
      "vis_m": 9999,
      "fzfg": false,
      "metar_trigger": false,
      "taf_trigger": false,
      "metar": "METAR OEMA 221700Z 35004KT CAVOK 21/03 Q1017 NOSIG",
      "taf": "TAF OEMA 221700Z 2218/2324 VRB03KT CAVOK"
    },
    {
      "icao": "OJAI",
      "alert": "OK",
      "vis_m": 5000,
      "fzfg": false,
      "metar_trigger": false,
      "taf_trigger": false,
      "metar": "METAR OJAI 221700Z 05004KT 5000 HZ NSC 10/02 Q1017 NOSIG",
      "taf": "TAF OJAI 221650Z 2218/2324 VRB01KT 5000 HZ NSC"
    },
    {
      "icao": "OMAA",
      "alert": "OK",
      "vis_m": 9999,
      "fzfg": false,
      "metar_trigger": false,
      "taf_trigger": false,
      "metar": "METAR OMAA 221700Z 36008KT CAVOK 20/11 Q1020 NOSIG",
      "taf": "TAF OMAA 221700Z 2218/2400 05008KT 8000 NSC"
    },
    {
      "icao": "OMDB",
      "alert": "OK",
      "vis_m": 9999,
      "fzfg": false,
      "metar_trigger": false,
      "taf_trigger": false,
      "metar": "METAR OMDB 221730Z 05005KT 010V090 CAVOK 21/10 Q1020 NOSIG",
      "taf": "TAF OMDB 221700Z 2218/2400 07005KT CAVOK"
    },
    {
      "icao": "UAAA",
      "alert": "OK",
      "vis_m": 2000,
      "fzfg": true,
      "metar_trigger": false,
      "taf_trigger": false,
      "metar": "METAR UAAA 221730Z 01002MPS 2000 R05R/P2000D BR OVC005 M04/M04 Q1028 TEMPO 0500 FZFG VV003 RMK QBB150",
      "taf": "TAF UAAA 221705Z 2218/2318 24002MPS 1200 BR FU BKN011 OVC030 TXM01/2308Z TNM06/2301Z"
    },
    {
      "icao": "UBBB",
      "alert": "OK",
      "vis_m": 9999,
      "fzfg": false,
      "metar_trigger": false,
      "taf_trigger": false,
      "metar": "METAR UBBB 221730Z 36004KT CAVOK 03/01 Q1019 NOSIG",
      "taf": "TAF UBBB 221659Z 2218/2318 VRB04KT CAVOK TX11/2310Z TN04/2302Z"
    },
    {
      "icao": "UDSG",
      "alert": "OK",
      "vis_m": 5000,
      "fzfg": false,
      "metar_trigger": false,
      "taf_trigger": false,
      "metar": "METAR UDSG 221730Z 05004KT 5000 BR NSC M06/M08 Q1021 NOSIG",
      "taf": "TAF UDSG 221658Z 2218/2318 VRB06KT 5000 BR SCT050"
    },
    {
      "icao": "UDYZ",
      "alert": "OK",
      "vis_m": 2600,
      "fzfg": false,
      "metar_trigger": false,
      "taf_trigger": false,
      "metar": "METAR UDYZ 221730Z 02002KT 2600 1300E BR NSC M02/M05 Q1022 NOSIG",
      "taf": "TAF UDYZ 221700Z 2218/2318 VRB04KT 2300 BR NSC"
    },
    {
      "icao": "UGKO",
      "alert": "OK",
      "vis_m": 9999,
      "fzfg": false,
      "metar_trigger": false,
      "taf_trigger": false,
      "metar": "METAR UGKO 221730Z VRB02KT 9999 BKN088 07/02 Q1018 NOSIG",
      "taf": "TAF UGKO 221700Z 2218/2318 08007KT 9999 BKN080 TX15/2312Z TN03/2303Z"
    }
  ]
}