{
  "ts_utc": "2026-03-08T11:24:22Z",
  "threshold_m": 150,
  "source": "stations_override.txt (ICAO list) + aviationweather.gov (METAR/TAF raw)",
  "station_count": 159,
  "stations": [
    {
      "icao": "BIKF",
      "alert": "OK",
      "vis_m": 9999,
      "fzfg": false,
      "metar_trigger": false,
      "taf_trigger": false,
      "metar": "METAR BIKF 081100Z 16006KT 9999 FEW014 SCT022 BKN046 00/M01 Q0999",
      "taf": "TAF BIKF 081057Z 0812/0912 20010KT 9999 SCT015 BKN035 TX03/0816Z TNM01/0823Z"
    },
    {
      "icao": "BKPR",
      "alert": "OK",
      "vis_m": 9999,
      "fzfg": false,
      "metar_trigger": false,
      "taf_trigger": false,
      "metar": "METAR BKPR 081100Z 14003KT 070V180 9999 FEW040 14/05 Q1026 NOSIG",
      "taf": "TAF BKPR 080530Z 0806/0906 VRB05KT 9999 BKN080"
    },
    {
      "icao": "EBCI",
      "alert": "OK",
      "vis_m": 9999,
      "fzfg": false,
      "metar_trigger": false,
      "taf_trigger": false,
      "metar": "METAR EBCI 081050Z 04003KT 360V070 CAVOK 14/06 Q1024 NOSIG",
      "taf": "TAF EBCI 080506Z 0806/0912 16004KT 2000 MIFG BR"
    },
    {
      "icao": "EDDB",
      "alert": "OK",
      "vis_m": 9999,
      "fzfg": false,
      "metar_trigger": false,
      "taf_trigger": false,
      "metar": "METAR EDDB 081050Z AUTO 11005KT CAVOK 12/04 Q1028 NOSIG",
      "taf": "TAF EDDB 080500Z 0806/0906 10006KT CAVOK"
    },
    {
      "icao": "EDDH",
      "alert": "OK",
      "vis_m": 9999,
      "fzfg": false,
      "metar_trigger": false,
      "taf_trigger": false,
      "metar": "METAR EDDH 081050Z AUTO 12006KT 090V160 CAVOK 15/06 Q1027 NOSIG",
      "taf": "TAF EDDH 080500Z 0806/0912 VRB03KT CAVOK"
    },
    {
      "icao": "EDDK",
      "alert": "OK",
      "vis_m": 9999,
      "fzfg": false,
      "metar_trigger": false,
      "taf_trigger": false,
      "metar": "METAR EDDK 081050Z AUTO 15003KT 060V220 CAVOK 16/04 Q1024 NOSIG",
      "taf": "TAF EDDK 080500Z 0806/0912 13004KT CAVOK"
    },
    {
      "icao": "EDDN",
      "alert": "OK",
      "vis_m": 9999,
      "fzfg": false,
      "metar_trigger": false,
      "taf_trigger": false,
      "metar": "METAR EDDN 081050Z AUTO VRB02KT CAVOK 14/05 Q1025 NOSIG",
      "taf": "TAF EDDN 080500Z 0806/0906 VRB03KT CAVOK"
    },
    {
      "icao": "EDDS",
      "alert": "OK",
      "vis_m": 9999,
      "fzfg": false,
      "metar_trigger": false,
      "taf_trigger": false,
      "metar": "METAR EDDS 081050Z AUTO VRB02KT CAVOK 13/04 Q1024 NOSIG",
      "taf": "TAF EDDS 080500Z 0806/0906 VRB03KT CAVOK"
    },
    {
      "icao": "EDFH",
      "alert": "OK",
      "vis_m": 9999,
      "fzfg": false,
      "metar_trigger": false,
      "taf_trigger": false,
      "metar": "METAR EDFH 081050Z 13007KT 080V180 CAVOK 13/03 Q1024",
      "taf": "TAF EDFH 080500Z 0806/0906 13006KT CAVOK"
    },
    {
      "icao": "EDJA",
      "alert": "OK",
      "vis_m": 9999,
      "fzfg": false,
      "metar_trigger": false,
      "taf_trigger": false,
      "metar": "METAR EDJA 081050Z VRB04KT CAVOK 12/05 Q1024",
      "taf": "TAF EDJA 080800Z 0809/0818 VRB02KT CAVOK"
    },
    {
      "icao": "EDLW",
      "alert": "OK",
      "vis_m": 9999,
      "fzfg": false,
      "metar_trigger": false,
      "taf_trigger": false,
      "metar": "METAR EDLW 081050Z VRB02KT CAVOK 14/05 Q1024",
      "taf": "TAF EDLW 080500Z 0806/0906 09004KT CAVOK"
    },
    {
      "icao": "EDNY",
      "alert": "OK",
      "vis_m": 9999,
      "fzfg": false,
      "metar_trigger": false,
      "taf_trigger": false,
      "metar": "METAR EDNY 081050Z VRB03KT CAVOK 12/05 Q1025",
      "taf": "TAF EDNY 080800Z 0809/0818 VRB02KT CAVOK"
    },
    {
      "icao": "EDSB",
      "alert": "OK",
      "vis_m": 9999,
      "fzfg": false,
      "metar_trigger": false,
      "taf_trigger": false,
      "metar": "METAR EDSB 081050Z VRB02KT CAVOK 13/06 Q1024",
      "taf": "TAF EDSB 080500Z 0806/0906 VRB03KT CAVOK"
    },
    {
      "icao": "EETN",
      "alert": "OK",
      "vis_m": 9999,
      "fzfg": false,
      "metar_trigger": false,
      "taf_trigger": false,
      "metar": "METAR EETN 081120Z 25009KT CAVOK 08/M01 Q1031 NOSIG",
      "taf": "TAF EETN 080530Z 0806/0906 25006KT CAVOK"
    },
    {
      "icao": "EFTU",
      "alert": "OK",
      "vis_m": 9999,
      "fzfg": false,
      "metar_trigger": false,
      "taf_trigger": false,
      "metar": "METAR EFTU 081050Z AUTO 25011KT CAVOK 07/02 Q1029",
      "taf": "TAF EFTU 080827Z 0809/0909 24007KT CAVOK"
    },
    {
      "icao": "EGBB",
      "alert": "OK",
      "vis_m": 2500,
      "fzfg": false,
      "metar_trigger": false,
      "taf_trigger": false,
      "metar": "METAR EGBB 081050Z 12006KT 100V160 2500 BR OVC002 08/08 Q1023",
      "taf": "TAF EGBB 081102Z 0812/0912 13006KT 3000 BR BKN003"
    },
    {
      "icao": "EGGP",
      "alert": "OK",
      "vis_m": 5000,
      "fzfg": false,
      "metar_trigger": false,
      "taf_trigger": false,
      "metar": "METAR EGGP 081050Z 14005KT 110V180 5000 -RA BKN007 OVC010 08/07 Q1023",
      "taf": "TAF EGGP 081104Z 0812/0912 16006KT 7000 SCT012 BKN025"
    },
    {
      "icao": "EGGW",
      "alert": "OK",
      "vis_m": 450,
      "fzfg": false,
      "metar_trigger": false,
      "taf_trigger": false,
      "metar": "METAR EGGW 081050Z AUTO 12007KT 0450 R07/0500D FG OVC001 07/07 Q1023",
      "taf": "TAF EGGW 081055Z 0812/0912 12005KT 0300 FG OVC001"
    },
    {
      "icao": "EGKK",
      "alert": "OK",
      "vis_m": 2300,
      "fzfg": false,
      "metar_trigger": false,
      "taf_trigger": false,
      "metar": "METAR EGKK 081050Z 06006KT 020V080 2300 BR OVC002 08/08 Q1024",
      "taf": "TAF EGKK 081101Z 0812/0918 12005KT 3000 BR BKN003"
    },
    {
      "icao": "EGNM",
      "alert": "OK",
      "vis_m": 900,
      "fzfg": false,
      "metar_trigger": false,
      "taf_trigger": false,
      "metar": "METAR EGNM 081050Z 15006KT 110V180 0900 R14/P1500N FG OVC002 07/07 Q1023",
      "taf": "TAF EGNM 081104Z 0812/0912 14004KT 7000 SCT007 BKN012"
    },
    {
      "icao": "EGPD",
      "alert": "OK",
      "vis_m": 9999,
      "fzfg": false,
      "metar_trigger": false,
      "taf_trigger": false,
      "metar": "METAR EGPD 081050Z COR AUTO 18014KT 9999 NCD 08/02 Q1020 NOSIG",
      "taf": "TAF EGPD 081052Z 0812/0912 19009KT 9999 FEW030"
    },
    {
      "icao": "EGPF",
      "alert": "OK",
      "vis_m": 9999,
      "fzfg": false,
      "metar_trigger": false,
      "taf_trigger": false,
      "metar": "METAR EGPF 081050Z AUTO VRB02KT 9999 BKN023 08/04 Q1022",
      "taf": "TAF EGPF 081059Z 0812/0912 23010KT 9999 BKN040"
    },
    {
      "icao": "EHBK",
      "alert": "OK",
      "vis_m": 9999,
      "fzfg": false,
      "metar_trigger": false,
      "taf_trigger": false,
      "metar": "METAR EHBK 081055Z AUTO 33003KT 270V020 4300 BR NCD 09/09 Q1024 BECMG CAVOK",
      "taf": "TAF EHBK 080524Z 0806/0912 02002KT 0300 FG VV001"
    },
    {
      "icao": "EHEH",
      "alert": "OK",
      "vis_m": 3100,
      "fzfg": false,
      "metar_trigger": false,
      "taf_trigger": false,
      "metar": "METAR EHEH 081055Z AUTO VRB02KT 3100 R03/P3000U BR SCT005 BKN006 09/08 Q1024 YLO BECMG 4000 RMK TREND REMOTE BY EHWX",
      "taf": "TAF EHEH 080533Z 0806/0912 05004KT 0400 FG OVC001"
    },
    {
      "icao": "EKBI",
      "alert": "OK",
      "vis_m": 2000,
      "fzfg": false,
      "metar_trigger": false,
      "taf_trigger": false,
      "metar": "METAR EKBI 081051Z 30004KT 2000 R09/1100N R27/1200N BR OVC002 06/06 Q1028",
      "taf": "TAF EKBI 080827Z 0809/0909 13003KT 0200 FG VV002"
    },
    {
      "icao": "EKCH",
      "alert": "OK",
      "vis_m": 9999,
      "fzfg": false,
      "metar_trigger": false,
      "taf_trigger": false,
      "metar": "METAR EKCH 081050Z AUTO 14005KT 110V170 9999 BKN094/// 08/02 Q1029 NOSIG",
      "taf": "TAF EKCH 080827Z 0809/0909 11005KT CAVOK"
    },
    {
      "icao": "ENAL",
      "alert": "OK",
      "vis_m": 9999,
      "fzfg": false,
      "metar_trigger": false,
      "taf_trigger": false,
      "metar": "METAR ENAL 081050Z 08008KT 9999 FEW049 06/03 Q1023",
      "taf": "TAF ENAL 080800Z 0809/0818 16008KT CAVOK"
    },
    {
      "icao": "ENBR",
      "alert": "OK",
      "vis_m": 7000,
      "fzfg": false,
      "metar_trigger": false,
      "taf_trigger": false,
      "metar": "METAR ENBR 081050Z VRB02KT 7000 SCT008 BKN018 05/05 Q1024 TEMPO 4000 BR BKN009 RMK WIND 1200FT 19004KT",
      "taf": ""
    },
    {
      "icao": "ENGM",
      "alert": "OK",
      "vis_m": 8000,
      "fzfg": false,
      "metar_trigger": false,
      "taf_trigger": false,
      "metar": "METAR ENGM 081050Z 34003KT 310V010 8000 BKN004 03/02 Q1027 TEMPO SCT004 BKN009",
      "taf": ""
    },
    {
      "icao": "ENHD",
      "alert": "OK",
      "vis_m": 1500,
      "fzfg": false,
      "metar_trigger": false,
      "taf_trigger": false,
      "metar": "METAR ENHD 081050Z 00000KT 1500 BR VV005 06/05 Q1024",
      "taf": "TAF ENHD 080800Z 0809/0818 VRB05KT 2000 BR OVC010"
    },
    {
      "icao": "ENTC",
      "alert": "OK",
      "vis_m": 9999,
      "fzfg": false,
      "metar_trigger": false,
      "taf_trigger": false,
      "metar": "METAR ENTC 081050Z 19012KT 9999 SCT029 BKN041 04/01 Q1016 NOSIG RMK WIND 2600FT 19008KT",
      "taf": ""
    },
    {
      "icao": "ENTO",
      "alert": "OK",
      "vis_m": 9999,
      "fzfg": false,
      "metar_trigger": false,
      "taf_trigger": false,
      "metar": "METAR ENTO 081050Z 02005KT CAVOK 04/04 Q1027 TEMPO BKN009",
      "taf": ""
    },
    {
      "icao": "ENVA",
      "alert": "OK",
      "vis_m": 9999,
      "fzfg": false,
      "metar_trigger": false,
      "taf_trigger": false,
      "metar": "METAR ENVA 081050Z 22003KT CAVOK 04/M02 Q1025 NOSIG RMK WIND 670FT 00000KT",
      "taf": "TAF ENVA 080500Z 0806/0906 09005KT CAVOK"
    },
    {
      "icao": "ENZV",
      "alert": "OK",
      "vis_m": 1800,
      "fzfg": false,
      "metar_trigger": false,
      "taf_trigger": false,
      "metar": "METAR ENZV 081050Z 21005KT 1800 R18/P2000N R36/P2000N R10/1400U DZ VV004 06/05 Q1025 NOSIG",
      "taf": ""
    },
    {
      "icao": "EPGD",
      "alert": "OK",
      "vis_m": 9999,
      "fzfg": false,
      "metar_trigger": false,
      "taf_trigger": false,
      "metar": "METAR EPGD 081100Z 19006KT 160V230 CAVOK 14/M05 Q1031",
      "taf": "TAF EPGD 080530Z 0806/0906 20005KT CAVOK"
    },
    {
      "icao": "EPKK",
      "alert": "OK",
      "vis_m": 9999,
      "fzfg": false,
      "metar_trigger": false,
      "taf_trigger": false,
      "metar": "METAR EPKK 081100Z 07009KT CAVOK 10/M02 Q1030",
      "taf": "TAF EPKK 080830Z 0809/0909 06008KT CAVOK"
    },
    {
      "icao": "EPKT",
      "alert": "OK",
      "vis_m": 9999,
      "fzfg": false,
      "metar_trigger": false,
      "taf_trigger": false,
      "metar": "METAR EPKT 081100Z 09012KT CAVOK 14/M04 Q1030",
      "taf": "TAF EPKT 080530Z 0806/0906 08004KT CAVOK"
    },
    {
      "icao": "EPLB",
      "alert": "OK",
      "vis_m": 9999,
      "fzfg": false,
      "metar_trigger": false,
      "taf_trigger": false,
      "metar": "METAR EPLB 081100Z 12004KT 080V160 CAVOK 12/01 Q1032",
      "taf": "TAF EPLB 080530Z 0806/0906 12004KT CAVOK"
    },
    {
      "icao": "EPMO",
      "alert": "OK",
      "vis_m": 9999,
      "fzfg": false,
      "metar_trigger": false,
      "taf_trigger": false,
      "metar": "METAR EPMO 081100Z 12005KT 100V170 CAVOK 12/M02 Q1032",
      "taf": "TAF EPMO 080530Z 0806/0906 08003KT CAVOK"
    },
    {
      "icao": "EPPO",
      "alert": "OK",
      "vis_m": 9999,
      "fzfg": false,
      "metar_trigger": false,
      "taf_trigger": false,
      "metar": "METAR EPPO 081100Z 13009KT CAVOK 15/M03 Q1030",
      "taf": "TAF EPPO 080530Z 0806/0906 10006KT CAVOK"
    },
    {
      "icao": "EPRA",
      "alert": "OK",
      "vis_m": 9999,
      "fzfg": false,
      "metar_trigger": false,
      "taf_trigger": false,
      "metar": "METAR EPRA 081100Z 13006KT 100V170 CAVOK 11/M03 Q1032",
      "taf": "TAF EPRA 080830Z 0809/0818 VRB02KT CAVOK"
    },
    {
      "icao": "EPRZ",
      "alert": "OK",
      "vis_m": 9999,
      "fzfg": false,
      "metar_trigger": false,
      "taf_trigger": false,
      "metar": "METAR EPRZ 081100Z 07007KT CAVOK 08/00 Q1031",
      "taf": "TAF EPRZ 080530Z 0806/0906 05002KT CAVOK"
    },
    {
      "icao": "EPSC",
      "alert": "OK",
      "vis_m": 9999,
      "fzfg": false,
      "metar_trigger": false,
      "taf_trigger": false,
      "metar": "METAR EPSC 081100Z 12010KT CAVOK 13/M01 Q1030",
      "taf": "TAF EPSC 080530Z 0806/0906 10005KT CAVOK"
    },
    {
      "icao": "EPSY",
      "alert": "OK",
      "vis_m": 9999,
      "fzfg": false,
      "metar_trigger": false,
      "taf_trigger": false,
      "metar": "METAR EPSY 081100Z VRB06KT CAVOK 13/M05 Q1032",
      "taf": "TAF EPSY 080830Z 0809/0818 VRB02KT CAVOK"
    },
    {
      "icao": "EPWA",
      "alert": "OK",
      "vis_m": 9999,
      "fzfg": false,
      "metar_trigger": false,
      "taf_trigger": false,
      "metar": "METAR EPWA 081100Z 15007KT 100V170 CAVOK 12/M02 Q1033 NOSIG",
      "taf": "TAF EPWA 080830Z 0809/0909 12005KT CAVOK"
    },
    {
      "icao": "EPWR",
      "alert": "OK",
      "vis_m": 9999,
      "fzfg": false,
      "metar_trigger": false,
      "taf_trigger": false,
      "metar": "METAR EPWR 081100Z 13009KT CAVOK 12/M01 Q1030",
      "taf": "TAF EPWR 080830Z 0809/0909 14006KT CAVOK"
    },
    {
      "icao": "ESGG",
      "alert": "OK",
      "vis_m": 9999,
      "fzfg": false,
      "metar_trigger": false,
      "taf_trigger": false,
      "metar": "METAR ESGG 081050Z 15006KT CAVOK 08/02 Q1027",
      "taf": "TAF ESGG 080830Z 0809/0909 15005KT CAVOK"
    },
    {
      "icao": "ESKN",
      "alert": "OK",
      "vis_m": 9999,
      "fzfg": false,
      "metar_trigger": false,
      "taf_trigger": false,
      "metar": "METAR ESKN 081050Z 14004KT 090V170 CAVOK 08/04 Q1030",
      "taf": ""
    },
    {
      "icao": "ESMS",
      "alert": "OK",
      "vis_m": 8000,
      "fzfg": false,
      "metar_trigger": false,
      "taf_trigger": false,
      "metar": "METAR ESMS 081050Z 13008KT 8000 NSC 11/03 Q1029",
      "taf": "TAF ESMS 080827Z 0809/0909 12008KT CAVOK"
    },
    {
      "icao": "ESSA",
      "alert": "OK",
      "vis_m": 9999,
      "fzfg": false,
      "metar_trigger": false,
      "taf_trigger": false,
      "metar": "METAR ESSA 081050Z 22005KT CAVOK 07/03 Q1030 NOSIG",
      "taf": "TAF ESSA 080830Z 0809/0909 22005KT CAVOK"
    },
    {
      "icao": "EYKA",
      "alert": "OK",
      "vis_m": 9999,
      "fzfg": false,
      "metar_trigger": false,
      "taf_trigger": false,
      "metar": "METAR EYKA 081120Z 20005KT 160V240 CAVOK 11/M02 Q1033",
      "taf": "TAF EYKA 081100Z 0812/0912 VRB04KT 8000 NSC"
    },
    {
      "icao": "EYPA",
      "alert": "OK",
      "vis_m": 9999,
      "fzfg": false,
      "metar_trigger": false,
      "taf_trigger": false,
      "metar": "METAR EYPA 081120Z 19005KT CAVOK 11/00 Q1032",
      "taf": "TAF EYPA 081100Z 0812/0912 VRB05KT 8000 NSC"
    },
    {
      "icao": "EYVI",
      "alert": "OK",
      "vis_m": 9999,
      "fzfg": false,
      "metar_trigger": false,
      "taf_trigger": false,
      "metar": "METAR EYVI 081050Z 18003KT 150V210 CAVOK 10/00 Q1033 NOSIG",
      "taf": "TAF EYVI 081100Z 0812/0912 VRB05KT 9000 NSC"
    },
    {
      "icao": "GCFV",
      "alert": "OK",
      "vis_m": 9999,
      "fzfg": false,
      "metar_trigger": false,
      "taf_trigger": false,
      "metar": "METAR GCFV 081100Z 01016KT 9999 SCT035 BKN040 19/06 Q1022",
      "taf": "TAF GCFV 080800Z 0809/0909 02018KT 9999 BKN040 TX20/0814Z TN15/0906Z"
    },
    {
      "icao": "GCLP",
      "alert": "OK",
      "vis_m": 9999,
      "fzfg": false,
      "metar_trigger": false,
      "taf_trigger": false,
      "metar": "METAR GCLP 081100Z 36018KT 9999 BKN045 18/07 Q1023 NOSIG",
      "taf": "TAF GCLP 080800Z 0809/0909 02024KT 9999 BKN040 TX20/0814Z TN15/0906Z"
    },
    {
      "icao": "GCTS",
      "alert": "OK",
      "vis_m": 9999,
      "fzfg": false,
      "metar_trigger": false,
      "taf_trigger": false,
      "metar": "METAR GCTS 081100Z 08021G31KT 050V110 9999 SCT045 19/07 Q1023 NOSIG",
      "taf": "TAF GCTS 080800Z 0809/0909 08022KT 9999 SCT040 TX22/0814Z TN14/0906Z"
    },
    {
      "icao": "GMAD",
      "alert": "OK",
      "vis_m": 9999,
      "fzfg": false,
      "metar_trigger": false,
      "taf_trigger": false,
      "metar": "METAR GMAD 081100Z 00000KT CAVOK 18/12 Q1018 NOSIG",
      "taf": "TAF GMAD 081100Z 0812/0918 26012KT CAVOK"
    },
    {
      "icao": "GMMN",
      "alert": "OK",
      "vis_m": 9999,
      "fzfg": false,
      "metar_trigger": false,
      "taf_trigger": false,
      "metar": "METAR GMMN 081100Z VRB03KT 9999 BKN015 18/14 Q1021 NOSIG",
      "taf": "TAF GMMN 080500Z 0806/0912 16004KT 3000 BR BKN020"
    },
    {
      "icao": "GMMX",
      "alert": "OK",
      "vis_m": 8000,
      "fzfg": false,
      "metar_trigger": false,
      "taf_trigger": false,
      "metar": "METAR GMMX 081100Z VRB03KT 8000 FEW020 BKN040 15/06 Q1020 NOSIG",
      "taf": "TAF GMMX 080500Z 0806/0912 06006KT 8000 SCT020 BKN040"
    },
    {
      "icao": "HEGN",
      "alert": "OK",
      "vis_m": 9999,
      "fzfg": false,
      "metar_trigger": false,
      "taf_trigger": false,
      "metar": "METAR HEGN 081000Z 36018KT CAVOK 22/04 Q1017 NOSIG",
      "taf": "TAF HEGN 081100Z 0812/0918 35010G24KT CAVOK"
    },
    {
      "icao": "HEMA",
      "alert": "OK",
      "vis_m": 9999,
      "fzfg": false,
      "metar_trigger": false,
      "taf_trigger": false,
      "metar": "METAR HEMA 081000Z 35018KT CAVOK 23/09 Q1016 NOSIG",
      "taf": "TAF HEMA 081100Z 0812/0918 36010G24KT CAVOK"
    },
    {
      "icao": "HESH",
      "alert": "OK",
      "vis_m": 9999,
      "fzfg": false,
      "metar_trigger": false,
      "taf_trigger": false,
      "metar": "METAR HESH 081000Z 03016KT CAVOK 22/08 Q1017 NOSIG",
      "taf": "TAF HESH 081100Z 0812/0918 01010G22KT CAVOK"
    },
    {
      "icao": "HESX",
      "alert": "OK",
      "vis_m": 9999,
      "fzfg": false,
      "metar_trigger": false,
      "taf_trigger": false,
      "metar": "METAR HESX 081000Z 05007KT 9999 BKN020 19/07 Q1020 NOSIG",
      "taf": "TAF HESX 081100Z 0812/0918 35009KT CAVOK"
    },
    {
      "icao": "LATI",
      "alert": "OK",
      "vis_m": 9999,
      "fzfg": false,
      "metar_trigger": false,
      "taf_trigger": false,
      "metar": "METAR LATI 081120Z 33007KT 290V010 9999 SCT120 18/03 Q1025 NOSIG",
      "taf": "TAF LATI 081100Z 0812/0912 33008KT 9999 SCT120 TX21/0813Z TN08/0904Z"
    },
    {
      "icao": "LBPD",
      "alert": "OK",
      "vis_m": 9999,
      "fzfg": false,
      "metar_trigger": false,
      "taf_trigger": false,
      "metar": "METAR LBPD 081100Z AUTO VRB03KT 9999 NCD 10/03 Q1028 NOSIG",
      "taf": "TAF LBPD 081100Z 0812/0912 11010KT CAVOK"
    },
    {
      "icao": "LBSF",
      "alert": "OK",
      "vis_m": 9999,
      "fzfg": false,
      "metar_trigger": false,
      "taf_trigger": false,
      "metar": "METAR LBSF 081100Z VRB02KT CAVOK 12/00 Q1026 NOSIG",
      "taf": "TAF LBSF 081100Z 0812/0912 05010KT CAVOK"
    },
    {
      "icao": "LBWN",
      "alert": "OK",
      "vis_m": 9999,
      "fzfg": false,
      "metar_trigger": false,
      "taf_trigger": false,
      "metar": "METAR LBWN 081100Z 14010KT 100V170 CAVOK 09/01 Q1031 NOSIG",
      "taf": "TAF LBWN 081100Z 0812/0912 12010KT 9999 SCT030"
    },
    {
      "icao": "LCLK",
      "alert": "OK",
      "vis_m": 9999,
      "fzfg": false,
      "metar_trigger": false,
      "taf_trigger": false,
      "metar": "METAR LCLK 081100Z 32011KT 280V030 9999 FEW030 18/00 Q1019 NOSIG",
      "taf": ""
    },
    {
      "icao": "LCPH",
      "alert": "OK",
      "vis_m": 9999,
      "fzfg": false,
      "metar_trigger": false,
      "taf_trigger": false,
      "metar": "METAR LCPH 081100Z 28012KT 250V320 9999 FEW040 18/05 Q1019 NOSIG",
      "taf": "TAF LCPH 080530Z 0806/0906 04009KT 9999 FEW020"
    },
    {
      "icao": "LEAL",
      "alert": "OK",
      "vis_m": 9999,
      "fzfg": false,
      "metar_trigger": false,
      "taf_trigger": false,
      "metar": "METAR LEAL 081100Z 09003KT 030V140 9999 FEW020 SCT032 15/09 Q1022 NOSIG",
      "taf": "TAF LEAL 080500Z 0806/0906 VRB04KT CAVOK TX17/0813Z TN07/0806Z"
    },
    {
      "icao": "LEBB",
      "alert": "OK",
      "vis_m": 9999,
      "fzfg": false,
      "metar_trigger": false,
      "taf_trigger": false,
      "metar": "METAR LEBB 081100Z VRB02KT 9999 FEW025 SCT065 14/10 Q1022 NOSIG",
      "taf": ""
    },
    {
      "icao": "LEBL",
      "alert": "OK",
      "vis_m": 9999,
      "fzfg": false,
      "metar_trigger": false,
      "taf_trigger": false,
      "metar": "METAR LEBL 081100Z 35004KT 280V060 9999 -SHRA FEW025TCU BKN045 13/11 Q1022 TEMPO 4000 SHRA",
      "taf": ""
    },
    {
      "icao": "LECH",
      "alert": "OK",
      "vis_m": 9999,
      "fzfg": false,
      "metar_trigger": false,
      "taf_trigger": false,
      "metar": "METAR LECH 081100Z AUTO 10006KT 060V140 9999 SCT024 BKN045 12/07 Q1022",
      "taf": ""
    },
    {
      "icao": "LEMD",
      "alert": "OK",
      "vis_m": 9999,
      "fzfg": false,
      "metar_trigger": false,
      "taf_trigger": false,
      "metar": "METAR LEMD 081100Z VRB02KT 9999 SCT015 BKN020 09/06 Q1021 NOSIG",
      "taf": "TAF LEMD 080500Z 0806/0912 VRB04KT 9999 SCT030 TX13/0815Z TN02/0904Z"
    },
    {
      "icao": "LEMG",
      "alert": "OK",
      "vis_m": 9999,
      "fzfg": false,
      "metar_trigger": false,
      "taf_trigger": false,
      "metar": "METAR LEMG 081100Z 13006KT 070V170 9999 FEW025 16/11 Q1021 NOSIG",
      "taf": "TAF LEMG 080500Z 0806/0906 30007KT 9999 SCT040 TX16/0814Z TN08/0807Z"
    },
    {
      "icao": "LEVC",
      "alert": "OK",
      "vis_m": 9999,
      "fzfg": false,
      "metar_trigger": false,
      "taf_trigger": false,
      "metar": "METAR LEVC 081100Z 22003KT 140V300 9999 FEW023 SCT045 BKN069 14/07 Q1022 NOSIG",
      "taf": "TAF LEVC 080500Z 0806/0906 VRB04KT 9999 SCT020 TX16/0813Z TN09/0806Z"
    },
    {
      "icao": "LEXJ",
      "alert": "OK",
      "vis_m": 9999,
      "fzfg": false,
      "metar_trigger": false,
      "taf_trigger": false,
      "metar": "METAR LEXJ 081100Z 35001KT 9999 SCT040 13/07 Q1022",
      "taf": "TAF LEXJ 080800Z 0809/0909 22005KT 9999 FEW030 TX14/0812Z TN08/0906Z"
    },
    {
      "icao": "LEZG",
      "alert": "OK",
      "vis_m": 9999,
      "fzfg": false,
      "metar_trigger": false,
      "taf_trigger": false,
      "metar": "METAR LEZG 081100Z VRB02KT 9999 FEW020 SCT065 13/08 Q1022 NOSIG",
      "taf": "TAF LEZG 080500Z 0806/0906 VRB04KT 9999 SCT020 TX14/0814Z TN05/0806Z"
    },
    {
      "icao": "LEZL",
      "alert": "OK",
      "vis_m": 9999,
      "fzfg": false,
      "metar_trigger": false,
      "taf_trigger": false,
      "metar": "METAR LEZL 081100Z VRB02KT 9999 SCT010 SCT049 15/13 Q1021 NOSIG",
      "taf": "TAF LEZL 080800Z 0809/0909 VRB03KT 9999 FEW020 TX19/0815Z TN12/0907Z"
    },
    {
      "icao": "LFBD",
      "alert": "OK",
      "vis_m": 9999,
      "fzfg": false,
      "metar_trigger": false,
      "taf_trigger": false,
      "metar": "METAR LFBD 081100Z AUTO VRB03KT 9999 SCT026 15/09 Q1021 TEMPO 4000 -SHRA BKN020TCU",
      "taf": ""
    },
    {
      "icao": "LFLL",
      "alert": "OK",
      "vis_m": 9999,
      "fzfg": false,
      "metar_trigger": false,
      "taf_trigger": false,
      "metar": "METAR LFLL 081100Z VRB03KT CAVOK 17/07 Q1024 NOSIG",
      "taf": "TAF LFLL 081100Z 0812/0918 19005KT CAVOK"
    },
    {
      "icao": "LFLS",
      "alert": "OK",
      "vis_m": 9999,
      "fzfg": false,
      "metar_trigger": false,
      "taf_trigger": false,
      "metar": "METAR LFLS 081100Z AUTO VRB02KT CAVOK 16/07 Q1024 NOSIG",
      "taf": "TAF LFLS 080800Z 0809/0909 09007KT CAVOK"
    },
    {
      "icao": "LFMN",
      "alert": "OK",
      "vis_m": 9999,
      "fzfg": false,
      "metar_trigger": false,
      "taf_trigger": false,
      "metar": "METAR LFMN 081100Z 12002KT 9999 FEW076 BKN093 16/08 Q1026 NOSIG",
      "taf": "TAF LFMN 080800Z 0809/0915 34005KT 9999 FEW060 SCT100"
    },
    {
      "icao": "LFOB",
      "alert": "OK",
      "vis_m": 500,
      "fzfg": false,
      "metar_trigger": false,
      "taf_trigger": false,
      "metar": "METAR LFOB 081100Z AUTO 11004KT 0500 R30/0900U R12/0700N FG VV/// 08/08 Q1023 BECMG 8000 NSW NSC",
      "taf": "TAF LFOB 080500Z 0806/0906 VRB03KT 2000 BR OVC004"
    },
    {
      "icao": "LFPO",
      "alert": "OK",
      "vis_m": 3000,
      "fzfg": false,
      "metar_trigger": false,
      "taf_trigger": false,
      "metar": "METAR LFPO 081100Z VRB03KT 3000 BR OVC005 09/09 Q1023 BECMG 4000 BR",
      "taf": "TAF LFPO 081100Z 0812/0918 VRB02KT CAVOK"
    },
    {
      "icao": "LFSB",
      "alert": "OK",
      "vis_m": 9999,
      "fzfg": false,
      "metar_trigger": false,
      "taf_trigger": false,
      "metar": "METAR LFSB 081100Z AUTO 11003KT 060V150 CAVOK 15/07 Q1024 NOSIG",
      "taf": "TAF LFSB 081100Z 0812/0912 16004KT CAVOK"
    },
    {
      "icao": "LGAV",
      "alert": "OK",
      "vis_m": 9999,
      "fzfg": false,
      "metar_trigger": false,
      "taf_trigger": false,
      "metar": "METAR LGAV 081050Z 04014KT 9999 FEW025 SCT030 14/05 Q1026 NOSIG",
      "taf": "TAF LGAV 081100Z 0812/0912 02015KT 9999 FEW025"
    },
    {
      "icao": "LGTS",
      "alert": "OK",
      "vis_m": 9999,
      "fzfg": false,
      "metar_trigger": false,
      "taf_trigger": false,
      "metar": "METAR LGTS 081050Z 29004KT 9999 SCT025 12/08 Q1028 NOSIG",
      "taf": "TAF LGTS 081100Z 0812/0912 14013KT 9999 SCT020"
    },
    {
      "icao": "LHBP",
      "alert": "OK",
      "vis_m": 9999,
      "fzfg": false,
      "metar_trigger": false,
      "taf_trigger": false,
      "metar": "METAR LHBP 081100Z VRB04KT CAVOK 16/M01 Q1028 NOSIG",
      "taf": "TAF LHBP 080515Z 0806/0906 VRB02KT CAVOK"
    },
    {
      "icao": "LHDC",
      "alert": "OK",
      "vis_m": 9999,
      "fzfg": false,
      "metar_trigger": false,
      "taf_trigger": false,
      "metar": "METAR LHDC 081045Z AUTO VRB02KT CAVOK 16/00 Q1028 NOSIG",
      "taf": "TAF LHDC 080815Z 0809/0818 07006KT CAVOK"
    },
    {
      "icao": "LIBD",
      "alert": "OK",
      "vis_m": 9999,
      "fzfg": false,
      "metar_trigger": false,
      "taf_trigger": false,
      "metar": "METAR LIBD 081050Z AUTO 04004KT 350V090 9999 FEW013/// BKN076/// 15/10 Q1026",
      "taf": "TAF LIBD 081100Z 0812/0912 VRB05KT 9999 BKN040"
    },
    {
      "icao": "LIBG",
      "alert": "OK",
      "vis_m": 9999,
      "fzfg": false,
      "metar_trigger": false,
      "taf_trigger": false,
      "metar": "METAR LIBG 081050Z 10003KT 030V140 9999 SCT020 17/12 Q1025",
      "taf": "TAF LIBG 081100Z 0812/0821 VRB05KT 9999 SCT030"
    },
    {
      "icao": "LIBP",
      "alert": "OK",
      "vis_m": 9999,
      "fzfg": false,
      "metar_trigger": false,
      "taf_trigger": false,
      "metar": "METAR LIBP 081050Z AUTO 04007KT 9999 BKN024/// 15/11 Q1027",
      "taf": "TAF LIBP 081100Z 0812/0912 VRB04KT 9999 BKN025"
    },
    {
      "icao": "LIBR",
      "alert": "OK",
      "vis_m": 9999,
      "fzfg": false,
      "metar_trigger": false,
      "taf_trigger": false,
      "metar": "METAR LIBR 081050Z 10008KT 9999 SCT015 14/12 Q1025",
      "taf": "TAF LIBR 081100Z 0812/0912 VRB04KT 8000 BKN020"
    },
    {
      "icao": "LICA",
      "alert": "OK",
      "vis_m": 9999,
      "fzfg": false,
      "metar_trigger": false,
      "taf_trigger": false,
      "metar": "METAR LICA 081050Z AUTO 27006KT 9999 FEW087/// 19/11 Q1024",
      "taf": "TAF LICA 081100Z 0812/0912 25010KT 9999 SCT040"
    },
    {
      "icao": "LICC",
      "alert": "OK",
      "vis_m": 9999,
      "fzfg": false,
      "metar_trigger": false,
      "taf_trigger": false,
      "metar": "METAR LICC 081050Z 08008KT 9999 FEW020 SCT100 18/16 Q1025",
      "taf": "TAF LICC 081100Z 0812/0912 09012KT 9999 SCT015"
    },
    {
      "icao": "LICJ",
      "alert": "OK",
      "vis_m": 9999,
      "fzfg": false,
      "metar_trigger": false,
      "taf_trigger": false,
      "metar": "METAR LICJ 081050Z 04008KT CAVOK 16/13 Q1024",
      "taf": "TAF LICJ 081100Z 0812/0912 05013KT 9999 FEW030"
    },
    {
      "icao": "LIMC",
      "alert": "OK",
      "vis_m": 9000,
      "fzfg": false,
      "metar_trigger": false,
      "taf_trigger": false,
      "metar": "METAR LIMC 081050Z 27003KT 230V330 9000 NSC 15/04 Q1027 NOSIG",
      "taf": "TAF LIMC 081100Z 0812/0918 VRB05KT CAVOK"
    },
    {
      "icao": "LIME",
      "alert": "OK",
      "vis_m": 9000,
      "fzfg": false,
      "metar_trigger": false,
      "taf_trigger": false,
      "metar": "METAR LIME 081050Z 18004KT 130V260 9000 NSC 14/05 Q1027 NOSIG",
      "taf": "TAF LIME 081100Z 0812/0912 VRB05KT 9999 FEW030"
    },
    {
      "icao": "LIMF",
      "alert": "OK",
      "vis_m": 9999,
      "fzfg": false,
      "metar_trigger": false,
      "taf_trigger": false,
      "metar": "METAR LIMF 081050Z 12004KT 030V190 CAVOK 14/04 Q1027",
      "taf": "TAF LIMF 081100Z 0812/0912 VRB04KT CAVOK"
    },
    {
      "icao": "LIMJ",
      "alert": "OK",
      "vis_m": 9999,
      "fzfg": false,
      "metar_trigger": false,
      "taf_trigger": false,
      "metar": "METAR LIMJ 081050Z 25005KT 9999 FEW028 16/08 Q1026",
      "taf": "TAF LIMJ 081100Z 0812/0912 VRB05KT 9999 SCT030"
    },
    {
      "icao": "LIPE",
      "alert": "OK",
      "vis_m": 6000,
      "fzfg": false,
      "metar_trigger": false,
      "taf_trigger": false,
      "metar": "METAR LIPE 081050Z 30003KT 240V020 6000 NSC 12/09 Q1027",
      "taf": "TAF LIPE 081100Z 0812/0912 VRB04KT 8000 SCT050"
    },
    {
      "icao": "LIPH",
      "alert": "OK",
      "vis_m": 8000,
      "fzfg": false,
      "metar_trigger": false,
      "taf_trigger": false,
      "metar": "METAR LIPH 081050Z VRB01KT 8000 NSC 16/08 Q1027",
      "taf": "TAF LIPH 081100Z 0812/0912 VRB03KT CAVOK"
    },
    {
      "icao": "LIPQ",
      "alert": "OK",
      "vis_m": 9999,
      "fzfg": false,
      "metar_trigger": false,
      "taf_trigger": false,
      "metar": "METAR LIPQ 081050Z AUTO 32004KT 280V350 9999 NCD 16/06 Q1027",
      "taf": "TAF LIPQ 081100Z 0812/0912 VRB04KT CAVOK"
    },
    {
      "icao": "LIPR",
      "alert": "OK",
      "vis_m": 6000,
      "fzfg": false,
      "metar_trigger": false,
      "taf_trigger": false,
      "metar": "METAR LIPR 081050Z 04004KT 360V070 6000 NSC 12/09 Q1027",
      "taf": "TAF LIPR 081100Z 0812/0912 VRB06KT 8000 NSC"
    },
    {
      "icao": "LIPX",
      "alert": "OK",
      "vis_m": 9999,
      "fzfg": false,
      "metar_trigger": false,
      "taf_trigger": false,
      "metar": "METAR LIPX 081050Z 17004KT 120V230 CAVOK 13/07 Q1027",
      "taf": "TAF LIPX 081100Z 0812/0912 VRB05KT CAVOK"
    },
    {
      "icao": "LIPY",
      "alert": "OK",
      "vis_m": 9999,
      "fzfg": false,
      "metar_trigger": false,
      "taf_trigger": false,
      "metar": "METAR LIPY 081050Z AUTO 05006KT 9999 FEW004/// 13/11 Q1027",
      "taf": "TAF LIPY 081100Z 0812/0912 VRB04KT 8000 BR SCT020"
    },
    {
      "icao": "LIPZ",
      "alert": "OK",
      "vis_m": 2500,
      "fzfg": false,
      "metar_trigger": false,
      "taf_trigger": false,
      "metar": "METAR LIPZ 081050Z 19003KT 150V250 2500 VCFG NSC 11/08 Q1028 NOSIG",
      "taf": "TAF LIPZ 081100Z 0812/0918 VRB04KT 6000 NSC"
    },
    {
      "icao": "LIRF",
      "alert": "OK",
      "vis_m": 9999,
      "fzfg": false,
      "metar_trigger": false,
      "taf_trigger": false,
      "metar": "METAR LIRF 081050Z 06006KT CAVOK 18/09 Q1025 NOSIG",
      "taf": "TAF LIRF 081100Z 0812/0918 27010KT 9999 SCT040"
    },
    {
      "icao": "LIRN",
      "alert": "OK",
      "vis_m": 9999,
      "fzfg": false,
      "metar_trigger": false,
      "taf_trigger": false,
      "metar": "METAR LIRN 081050Z VRB01KT 9999 FEW040 18/07 Q1025 NOSIG",
      "taf": "TAF LIRN 081100Z 0812/0912 VRB05KT 9999 SCT040"
    },
    {
      "icao": "LIRP",
      "alert": "OK",
      "vis_m": 9999,
      "fzfg": false,
      "metar_trigger": false,
      "taf_trigger": false,
      "metar": "METAR LIRP 081045Z 10007KT 9999 FEW040 SCT070 16/12 Q1026 NOSIG",
      "taf": "TAF LIRP 081100Z 0812/0912 17007KT 9999 SCT040 SCT060"
    },
    {
      "icao": "LIRZ",
      "alert": "OK",
      "vis_m": 9999,
      "fzfg": false,
      "metar_trigger": false,
      "taf_trigger": false,
      "metar": "METAR LIRZ 081050Z AUTO 22003KT 190V260 9999 NCD 15/09 Q1026",
      "taf": "TAF LIRZ 081100Z 0812/0912 VRB05KT 9999 SCT030"
    },
    {
      "icao": "LJLJ",
      "alert": "OK",
      "vis_m": 9999,
      "fzfg": false,
      "metar_trigger": false,
      "taf_trigger": false,
      "metar": "METAR LJLJ 081100Z 10003KT 030V180 9999 FEW070 14/03 Q1027 NOSIG",
      "taf": "TAF LJLJ 081100Z 0812/0912 10004KT 9999 FEW070"
    },
    {
      "icao": "LKMT",
      "alert": "OK",
      "vis_m": 9000,
      "fzfg": false,
      "metar_trigger": false,
      "taf_trigger": false,
      "metar": "METAR LKMT 081100Z 02006KT 350V050 9000 NSC 11/01 Q1029 NOSIG",
      "taf": "TAF LKMT 081100Z 0812/0912 04002KT CAVOK"
    },
    {
      "icao": "LKPR",
      "alert": "OK",
      "vis_m": 9999,
      "fzfg": false,
      "metar_trigger": false,
      "taf_trigger": false,
      "metar": "METAR LKPR 081100Z 11006KT 050V150 CAVOK 12/M01 Q1027 NOSIG",
      "taf": "TAF LKPR 081100Z 0812/0918 11006KT CAVOK"
    },
    {
      "icao": "LLBG",
      "alert": "OK",
      "vis_m": 9999,
      "fzfg": false,
      "metar_trigger": false,
      "taf_trigger": false,
      "metar": "METAR LLBG 081050Z 31011KT 280V340 9999 FEW050 17/00 Q1019 NOSIG",
      "taf": "TAF LLBG 081103Z 0812/0912 33015KT 9999 FEW045 TX19/0812Z TN08/0904Z"
    },
    {
      "icao": "LMML",
      "alert": "OK",
      "vis_m": 9999,
      "fzfg": false,
      "metar_trigger": false,
      "taf_trigger": false,
      "metar": "METAR LMML 081115Z 06016KT 9999 BKN011 17/14 Q1023 NOSIG",
      "taf": "TAF LMML 081100Z 0812/0912 09015KT 9999 SCT013"
    },
    {
      "icao": "LOWW",
      "alert": "OK",
      "vis_m": 9999,
      "fzfg": false,
      "metar_trigger": false,
      "taf_trigger": false,
      "metar": "METAR LOWW 081050Z 12008KT 040V150 CAVOK 15/M00 Q1028 NOSIG",
      "taf": "TAF LOWW 081115Z 0812/0918 13007KT CAVOK TX16/0814Z TN05/0905Z"
    },
    {
      "icao": "LPFR",
      "alert": "OK",
      "vis_m": 9999,
      "fzfg": false,
      "metar_trigger": false,
      "taf_trigger": false,
      "metar": "METAR LPFR 081100Z 23005KT 190V270 9999 FEW020 15/10 Q1021",
      "taf": "TAF LPFR 081100Z 0812/0912 20007KT 9999 SCT035"
    },
    {
      "icao": "LPMA",
      "alert": "OK",
      "vis_m": 9999,
      "fzfg": false,
      "metar_trigger": false,
      "taf_trigger": false,
      "metar": "METAR LPMA 081100Z 02008KT 340V060 9999 SCT013 FEW018TCU BKN030 16/07 Q1026",
      "taf": "TAF LPMA 081100Z 0812/0912 01012KT 9999 SCT015 SCT030"
    },
    {
      "icao": "LPPR",
      "alert": "OK",
      "vis_m": 9999,
      "fzfg": false,
      "metar_trigger": false,
      "taf_trigger": false,
      "metar": "METAR LPPR 081100Z 23005KT 190V360 9999 FEW011 13/09 Q1022",
      "taf": "TAF LPPR 081100Z 0812/0912 26005KT 9999 SCT018"
    },
    {
      "icao": "LPPS",
      "alert": "OK",
      "vis_m": 9999,
      "fzfg": false,
      "metar_trigger": false,
      "taf_trigger": false,
      "metar": "METAR LPPS 081100Z 05010KT 020V090 9999 SCT014 15/09 Q1027",
      "taf": "TAF LPPS 081100Z 0812/0918 05010KT 9999 FEW013 BKN030"
    },
    {
      "icao": "LPPT",
      "alert": "OK",
      "vis_m": 9999,
      "fzfg": false,
      "metar_trigger": false,
      "taf_trigger": false,
      "metar": "METAR LPPT 081100Z 32007KT 280V360 9999 FEW028 15/09 Q1022",
      "taf": "TAF LPPT 081100Z 0812/0918 33012KT 9999 FEW028"
    },
    {
      "icao": "LQBK",
      "alert": "OK",
      "vis_m": 9999,
      "fzfg": false,
      "metar_trigger": false,
      "taf_trigger": false,
      "metar": "METAR LQBK 081100Z 02004KT 330V070 CAVOK 16/02 Q1027 NOSIG",
      "taf": ""
    },
    {
      "icao": "LQSA",
      "alert": "OK",
      "vis_m": 9999,
      "fzfg": false,
      "metar_trigger": false,
      "taf_trigger": false,
      "metar": "METAR LQSA 081100Z VRB02KT 9999 FEW060 14/02 Q1026 NOSIG",
      "taf": "TAF LQSA 081100Z 0812/0912 VRB02KT 9999 SCT055 TX17/0814Z TN01/0905Z"
    },
    {
      "icao": "LQTZ",
      "alert": "OK",
      "vis_m": 9999,
      "fzfg": false,
      "metar_trigger": false,
      "taf_trigger": false,
      "metar": "METAR LQTZ 081100Z 26003KT 190V350 9999 FEW055 17/03 Q1026",
      "taf": "TAF LQTZ 081100Z 0812/0912 VRB02KT CAVOK TX18/0813Z TNM02/0905Z"
    },
    {
      "icao": "LRBC",
      "alert": "OK",
      "vis_m": 9999,
      "fzfg": false,
      "metar_trigger": false,
      "taf_trigger": false,
      "metar": "METAR LRBC 081100Z 36008KT 320V030 CAVOK 12/M01 Q1031",
      "taf": "TAF LRBC 080800Z 0809/0818 VRB04KT CAVOK"
    },
    {
      "icao": "LRBS",
      "alert": "OK",
      "vis_m": 9999,
      "fzfg": false,
      "metar_trigger": false,
      "taf_trigger": false,
      "metar": "METAR LRBS 081100Z 08010KT 040V150 CAVOK 12/01 Q1031 NOSIG",
      "taf": "TAF LRBS 080500Z 0806/0906 05006KT CAVOK"
    },
    {
      "icao": "LRBV",
      "alert": "OK",
      "vis_m": 9999,
      "fzfg": false,
      "metar_trigger": false,
      "taf_trigger": false,
      "metar": "METAR LRBV 081100Z 07005KT 360V150 9999 FEW055 12/M03 Q1028",
      "taf": "TAF LRBV 080800Z 0809/0818 VRB04KT CAVOK"
    },
    {
      "icao": "LRCL",
      "alert": "OK",
      "vis_m": 9999,
      "fzfg": false,
      "metar_trigger": false,
      "taf_trigger": false,
      "metar": "METAR LRCL 081100Z 10003KT 350V140 CAVOK 12/M01 Q1028",
      "taf": "TAF LRCL 080800Z 0809/0818 VRB04KT CAVOK"
    },
    {
      "icao": "LRCV",
      "alert": "OK",
      "vis_m": 9999,
      "fzfg": false,
      "metar_trigger": false,
      "taf_trigger": false,
      "metar": "METAR LRCV 081100Z 09010KT CAVOK 12/03 Q1030",
      "taf": "TAF LRCV 080800Z 0809/0818 05007KT CAVOK"
    },
    {
      "icao": "LRIA",
      "alert": "OK",
      "vis_m": 9999,
      "fzfg": false,
      "metar_trigger": false,
      "taf_trigger": false,
      "metar": "METAR LRIA 081100Z 01006KT 320V090 CAVOK 11/M01 Q1032",
      "taf": "TAF LRIA 080800Z 0809/0818 VRB04KT CAVOK"
    },
    {
      "icao": "LROP",
      "alert": "OK",
      "vis_m": 9999,
      "fzfg": false,
      "metar_trigger": false,
      "taf_trigger": false,
      "metar": "METAR LROP 081100Z 09009KT 060V120 CAVOK 12/M02 Q1031 NOSIG",
      "taf": "TAF LROP 080500Z 0806/0906 05006KT CAVOK"
    },
    {
      "icao": "LRSB",
      "alert": "OK",
      "vis_m": 9999,
      "fzfg": false,
      "metar_trigger": false,
      "taf_trigger": false,
      "metar": "METAR LRSB 081100Z 10006KT 080V140 CAVOK 13/M00 Q1027",
      "taf": "TAF LRSB 080500Z 0806/0906 10008KT CAVOK"
    },
    {
      "icao": "LRSM",
      "alert": "OK",
      "vis_m": 9999,
      "fzfg": false,
      "metar_trigger": false,
      "taf_trigger": false,
      "metar": "METAR LRSM 081100Z VRB03KT CAVOK 16/M01 Q1028",
      "taf": "TAF LRSM 080800Z 0809/0818 VRB04KT CAVOK"
    },
    {
      "icao": "LRSV",
      "alert": "OK",
      "vis_m": 9999,
      "fzfg": false,
      "metar_trigger": false,
      "taf_trigger": false,
      "metar": "METAR LRSV 081100Z 04004KT 320V100 CAVOK 09/M02 Q1031",
      "taf": "TAF LRSV 080800Z 0809/0818 VRB04KT CAVOK"
    },
    {
      "icao": "LRTM",
      "alert": "OK",
      "vis_m": 9999,
      "fzfg": false,
      "metar_trigger": false,
      "taf_trigger": false,
      "metar": "METAR LRTM 081100Z VRB03KT CAVOK 15/00 Q1028",
      "taf": "TAF LRTM 080800Z 0809/0818 09008KT CAVOK"
    },
    {
      "icao": "LRTR",
      "alert": "OK",
      "vis_m": 9999,
      "fzfg": false,
      "metar_trigger": false,
      "taf_trigger": false,
      "metar": "METAR LRTR 081100Z 33008KT 280V350 CAVOK 16/03 Q1027",
      "taf": "TAF LRTR 080500Z 0806/0906 VRB04KT CAVOK"
    },
    {
      "icao": "LTAC",
      "alert": "OK",
      "vis_m": 9999,
      "fzfg": false,
      "metar_trigger": false,
      "taf_trigger": false,
      "metar": "METAR LTAC 081050Z 03003KT 9999 FEW040 06/M06 Q1024 NOSIG RMK RWY21C VRB05KT RWY03L VRB03KT RWY21R 02005KT 320V040 RWY03R 36004KT 310V110 RWY21L 12004KT 060V150",
      "taf": "TAF LTAC 081040Z 0812/0912 03008KT 9999 SCT040"
    },
    {
      "icao": "LTFM",
      "alert": "OK",
      "vis_m": 9999,
      "fzfg": false,
      "metar_trigger": false,
      "taf_trigger": false,
      "metar": "METAR LTFM 081050Z 05018KT 9999 BKN028 08/00 Q1029 NOSIG RMK RWY17L 06016KT RWY34L 05015KT RWY16R 07017KT RWY36 06018KT RWY18 06015KT",
      "taf": "TAF LTFM 081040Z 0812/0918 05015KT 9999 BKN028"
    },
    {
      "icao": "LUKK",
      "alert": "OK",
      "vis_m": 9999,
      "fzfg": false,
      "metar_trigger": false,
      "taf_trigger": false,
      "metar": "METAR LUKK 081100Z 02005KT 340V070 CAVOK 11/01 Q1031 NOSIG",
      "taf": "TAF LUKK 081116Z 0812/0912 VRB05KT CAVOK"
    },
    {
      "icao": "LWOH",
      "alert": "OK",
      "vis_m": 9999,
      "fzfg": false,
      "metar_trigger": false,
      "taf_trigger": false,
      "metar": "METAR LWOH 081120Z 16004KT 130V190 9999 FEW040 12/06 Q1025",
      "taf": "TAF LWOH 081115Z 0812/0912 16006KT 9999 FEW040"
    },
    {
      "icao": "LWSK",
      "alert": "OK",
      "vis_m": 9999,
      "fzfg": false,
      "metar_trigger": false,
      "taf_trigger": false,
      "metar": "METAR LWSK 081120Z 29004KT 230V350 CAVOK 15/07 Q1026 NOSIG",
      "taf": "TAF LWSK 081115Z 0812/0912 VRB02KT CAVOK"
    },
    {
      "icao": "LYBE",
      "alert": "OK",
      "vis_m": 9999,
      "fzfg": false,
      "metar_trigger": false,
      "taf_trigger": false,
      "metar": "METAR LYBE 081100Z 18004KT 090V210 CAVOK 16/03 Q1027 NOSIG",
      "taf": "TAF LYBE 081100Z 0812/0912 10008KT CAVOK TX19/0813Z TN06/0905Z"
    },
    {
      "icao": "LYNI",
      "alert": "OK",
      "vis_m": 9999,
      "fzfg": false,
      "metar_trigger": false,
      "taf_trigger": false,
      "metar": "METAR LYNI 081100Z VRB02KT CAVOK 15/03 Q1026 NOSIG",
      "taf": "TAF LYNI 081100Z 0812/0912 05008KT CAVOK TX18/0813Z TN04/0905Z"
    },
    {
      "icao": "LYPG",
      "alert": "OK",
      "vis_m": 9999,
      "fzfg": false,
      "metar_trigger": false,
      "taf_trigger": false,
      "metar": "METAR LYPG 081100Z 17004KT 140V210 9999 FEW046 18/05 Q1025 NOSIG",
      "taf": "TAF LYPG 081100Z 0812/0912 17007KT 9999 SCT050 TX18/0813Z TN07/0905Z"
    },
    {
      "icao": "LZIB",
      "alert": "OK",
      "vis_m": 9999,
      "fzfg": false,
      "metar_trigger": false,
      "taf_trigger": false,
      "metar": "METAR LZIB 081100Z 08004KT 030V130 CAVOK 14/00 Q1028 NOSIG",
      "taf": "TAF LZIB 081115Z 0812/0912 07008KT CAVOK"
    },
    {
      "icao": "LZKZ",
      "alert": "OK",
      "vis_m": 9999,
      "fzfg": false,
      "metar_trigger": false,
      "taf_trigger": false,
      "metar": "METAR LZKZ 081100Z 02008KT 350V050 CAVOK 14/M05 Q1029 NOSIG",
      "taf": "TAF LZKZ 081115Z 0812/0912 01010KT CAVOK"
    },
    {
      "icao": "LZTT",
      "alert": "OK",
      "vis_m": 9999,
      "fzfg": false,
      "metar_trigger": false,
      "taf_trigger": false,
      "metar": "METAR LZTT 081100Z 09008KT CAVOK 10/M04 Q1029 NOSIG",
      "taf": "TAF LZTT 081115Z 0812/0912 10008KT CAVOK"
    },
    {
      "icao": "OEJN",
      "alert": "OK",
      "vis_m": 9999,
      "fzfg": false,
      "metar_trigger": false,
      "taf_trigger": false,
      "metar": "METAR OEJN 081100Z 32017KT CAVOK 29/14 Q1012 NOSIG",
      "taf": "TAF OEJN 081100Z 0812/0918 30012KT CAVOK"
    },
    {
      "icao": "OEMA",
      "alert": "OK",
      "vis_m": 9999,
      "fzfg": false,
      "metar_trigger": false,
      "taf_trigger": false,
      "metar": "METAR OEMA 081100Z 28011KT CAVOK 27/M09 Q1014 NOSIG",
      "taf": "TAF OEMA 081100Z 0812/0918 27008KT CAVOK"
    },
    {
      "icao": "OJAI",
      "alert": "OK",
      "vis_m": 5000,
      "fzfg": false,
      "metar_trigger": false,
      "taf_trigger": false,
      "metar": "METAR OJAI 081100Z 26012KT 5000 HZ NSC 12/M02 Q1018 NOSIG",
      "taf": "TAF OJAI 081035Z 0812/0918 30010KT 5000 HZ FEW030"
    },
    {
      "icao": "OMAA",
      "alert": "OK",
      "vis_m": null,
      "fzfg": false,
      "metar_trigger": false,
      "taf_trigger": false,
      "metar": "",
      "taf": ""
    },
    {
      "icao": "OMDB",
      "alert": "OK",
      "vis_m": null,
      "fzfg": false,
      "metar_trigger": false,
      "taf_trigger": false,
      "metar": "",
      "taf": ""
    },
    {
      "icao": "UAAA",
      "alert": "OK",
      "vis_m": 9999,
      "fzfg": false,
      "metar_trigger": false,
      "taf_trigger": false,
      "metar": "METAR UAAA 081100Z 31003MPS 290V350 9999 SCT100 OVC200 14/03 Q1021 NOSIG",
      "taf": "TAF UAAA 081101Z 0812/0912 17003MPS 3100 BR FU SCT050 BKN100 TX15/0909Z TN02/0902Z"
    },
    {
      "icao": "UBBB",
      "alert": "OK",
      "vis_m": 9999,
      "fzfg": false,
      "metar_trigger": false,
      "taf_trigger": false,
      "metar": "METAR UBBB 081100Z 04012KT 9999 BKN020 07/03 Q1024 NOSIG",
      "taf": "TAF UBBB 081055Z 0812/0912 04010KT 9999 BKN020 TX07/0812Z TN04/0901Z"
    },
    {
      "icao": "UDSG",
      "alert": "OK",
      "vis_m": 9999,
      "fzfg": false,
      "metar_trigger": false,
      "taf_trigger": false,
      "metar": "METAR UDSG 081100Z 07012KT 9999 BKN046 M00/M07 Q1019 NOSIG",
      "taf": "TAF UDSG 081058Z 0812/0912 VRB06KT 9999 BKN040"
    },
    {
      "icao": "UDYZ",
      "alert": "OK",
      "vis_m": 9999,
      "fzfg": false,
      "metar_trigger": false,
      "taf_trigger": false,
      "metar": "METAR UDYZ 081100Z 21004KT 180V260 9999 BKN031 05/M02 Q1019 NOSIG",
      "taf": "TAF UDYZ 081100Z 0812/0912 22006KT 9999 BKN030"
    },
    {
      "icao": "UGKO",
      "alert": "OK",
      "vis_m": 9999,
      "fzfg": false,
      "metar_trigger": false,
      "taf_trigger": false,
      "metar": "METAR UGKO 081100Z 25010KT 220V310 9999 SCT026 BKN033 08/02 Q1027 NOSIG",
      "taf": "TAF UGKO 081100Z 0812/0912 25010KT 9999 SCT024 BKN050 TX08/0812Z TN02/0903Z"
    }
  ]
}