{
  "ts_utc": "2026-02-11T17:44:04Z",
  "threshold_m": 150,
  "source": "stations_override.txt (ICAO list) + aviationweather.gov (METAR/TAF raw)",
  "station_count": 159,
  "stations": [
    {
      "icao": "BIKF",
      "alert": "OK",
      "vis_m": 9999,
      "fzfg": false,
      "metar_trigger": false,
      "taf_trigger": false,
      "metar": "METAR BIKF 111730Z 05008KT CAVOK M02/M10 Q1006",
      "taf": "TAF BIKF 111643Z 1118/1218 06012KT CAVOK TXM02/1118Z TNM10/1212Z"
    },
    {
      "icao": "BKPR",
      "alert": "OK",
      "vis_m": 9999,
      "fzfg": false,
      "metar_trigger": false,
      "taf_trigger": false,
      "metar": "METAR BKPR 111730Z 15010KT 9999 FEW070 07/05 Q1000 NOSIG",
      "taf": "TAF BKPR 111730Z 1118/1218 16010KT 9999 SCT030 BKN080"
    },
    {
      "icao": "EBCI",
      "alert": "OK",
      "vis_m": 3500,
      "fzfg": false,
      "metar_trigger": false,
      "taf_trigger": false,
      "metar": "METAR EBCI 111720Z 23010KT 3500 SHRA SCT009 BKN016 09/08 Q0985 TEMPO 2800 SHRA BKN012",
      "taf": "TAF EBCI 111715Z 1118/1224 21010KT 9999 SCT012 BKN016"
    },
    {
      "icao": "EDDB",
      "alert": "OK",
      "vis_m": 9999,
      "fzfg": false,
      "metar_trigger": false,
      "taf_trigger": false,
      "metar": "METAR EDDB 111720Z AUTO 13004KT 9999 -SHRA OVC017 FEW///TCU 05/04 Q0984 TEMPO OVC014",
      "taf": "TAF EDDB 111700Z 1118/1218 14005KT 9999 BKN020"
    },
    {
      "icao": "EDDH",
      "alert": "OK",
      "vis_m": 3800,
      "fzfg": false,
      "metar_trigger": false,
      "taf_trigger": false,
      "metar": "METAR EDDH 111720Z AUTO 06007KT 3800 DZ BR OVC002 01/01 Q0984 TEMPO 2500 NSW",
      "taf": "TAF EDDH 111700Z 1118/1224 08007KT 3500 BR OVC003"
    },
    {
      "icao": "EDDK",
      "alert": "OK",
      "vis_m": 9999,
      "fzfg": false,
      "metar_trigger": false,
      "taf_trigger": false,
      "metar": "METAR EDDK 111720Z AUTO 24012KT 9999 VCSH SCT018 BKN031 FEW///TCU 11/08 Q0985 RESHRA NOSIG",
      "taf": "TAF EDDK 111700Z 1118/1224 21007KT 9999 BKN020"
    },
    {
      "icao": "EDDN",
      "alert": "OK",
      "vis_m": 9999,
      "fzfg": false,
      "metar_trigger": false,
      "taf_trigger": false,
      "metar": "METAR EDDN 111720Z AUTO 24011KT 9999 -SHRA BKN017 BKN022 FEW///TCU 09/07 Q0988 NOSIG",
      "taf": "TAF EDDN 111700Z 1118/1218 22007KT 9999 SCT020 BKN040"
    },
    {
      "icao": "EDDS",
      "alert": "OK",
      "vis_m": 9999,
      "fzfg": false,
      "metar_trigger": false,
      "taf_trigger": false,
      "metar": "METAR EDDS 111720Z AUTO 23008KT 150V310 9999 VCSH BKN039 FEW///TCU 09/06 Q0990 NOSIG",
      "taf": "TAF EDDS 111700Z 1118/1218 19006KT 9999 BKN030"
    },
    {
      "icao": "EDFH",
      "alert": "OK",
      "vis_m": 9999,
      "fzfg": false,
      "metar_trigger": false,
      "taf_trigger": false,
      "metar": "METAR EDFH 111720Z 25013KT 210V270 9999 -RA FEW003 BKN007 BKN010 08/07 Q0987",
      "taf": "TAF EDFH 111700Z 1118/1218 19013KT 9999 BKN006"
    },
    {
      "icao": "EDJA",
      "alert": "OK",
      "vis_m": 9999,
      "fzfg": false,
      "metar_trigger": false,
      "taf_trigger": false,
      "metar": "METAR EDJA 111720Z 24021G31KT 9999 -SHRA BKN017TCU 07/05 Q0992",
      "taf": "TAF EDJA 111700Z 1118/1203 23015G30KT 9999 FEW020 BKN045"
    },
    {
      "icao": "EDLW",
      "alert": "OK",
      "vis_m": 9999,
      "fzfg": false,
      "metar_trigger": false,
      "taf_trigger": false,
      "metar": "METAR EDLW 111720Z 22011KT 9999 -RA FEW009 BKN043 10/09 Q0983",
      "taf": "TAF EDLW 111700Z 1118/1218 21009KT 9999 FEW010 OVC030"
    },
    {
      "icao": "EDNY",
      "alert": "OK",
      "vis_m": 9999,
      "fzfg": false,
      "metar_trigger": false,
      "taf_trigger": false,
      "metar": "METAR EDNY 111720Z 23009KT 9999 -RA SCT033 BKN042 OVC048 08/06 Q0994",
      "taf": "TAF EDNY 111700Z 1118/1203 24010KT 9999 SCT040"
    },
    {
      "icao": "EDSB",
      "alert": "OK",
      "vis_m": 9999,
      "fzfg": false,
      "metar_trigger": false,
      "taf_trigger": false,
      "metar": "METAR EDSB 111720Z 22010KT 9999 -RA SCT021 BKN027 OVC044 11/08 Q0991 RERA",
      "taf": "TAF EDSB 111700Z 1118/1218 20014KT 9999 BKN030"
    },
    {
      "icao": "EETN",
      "alert": "OK",
      "vis_m": 9999,
      "fzfg": false,
      "metar_trigger": false,
      "taf_trigger": false,
      "metar": "METAR EETN 111720Z 15005KT 9999 -SN OVC038 M07/M09 Q0994 TEMPO 4000 SN",
      "taf": "TAF EETN 111730Z 1118/1218 16008KT 9999 BKN040"
    },
    {
      "icao": "EFTU",
      "alert": "OK",
      "vis_m": 9999,
      "fzfg": false,
      "metar_trigger": false,
      "taf_trigger": false,
      "metar": "METAR EFTU 111720Z AUTO 06007KT 030V090 9999 -SN OVC016 M05/M07 Q0992",
      "taf": "TAF EFTU 111737Z 1118/1218 04006KT 9999 -SN FEW012 BKN020"
    },
    {
      "icao": "EGBB",
      "alert": "OK",
      "vis_m": 9999,
      "fzfg": false,
      "metar_trigger": false,
      "taf_trigger": false,
      "metar": "METAR EGBB 111720Z 17003KT 9999 BKN043 09/06 Q0977",
      "taf": "TAF EGBB 111700Z 1118/1218 19004KT 9999 SCT035"
    },
    {
      "icao": "EGGP",
      "alert": "OK",
      "vis_m": 9999,
      "fzfg": false,
      "metar_trigger": false,
      "taf_trigger": false,
      "metar": "METAR EGGP 111720Z 34004KT 9999 BKN019 BKN024 09/08 Q0976",
      "taf": "TAF EGGP 111703Z 1118/1218 25010KT 9999 SCT018 BKN025"
    },
    {
      "icao": "EGGW",
      "alert": "OK",
      "vis_m": 9999,
      "fzfg": false,
      "metar_trigger": false,
      "taf_trigger": false,
      "metar": "METAR EGGW 111720Z AUTO 19003KT 150V220 9999 FEW020 09/06 Q0978",
      "taf": "TAF EGGW 111700Z 1118/1218 18004KT 9999 SCT020"
    },
    {
      "icao": "EGKK",
      "alert": "OK",
      "vis_m": 4000,
      "fzfg": false,
      "metar_trigger": false,
      "taf_trigger": false,
      "metar": "METAR EGKK 111720Z 19007KT 150V220 4000 -RA BKN009 BKN018 09/09 Q0979",
      "taf": "TAF EGKK 111658Z 1118/1224 18010KT 9999 SCT012 BKN020"
    },
    {
      "icao": "EGNM",
      "alert": "OK",
      "vis_m": 9999,
      "fzfg": false,
      "metar_trigger": false,
      "taf_trigger": false,
      "metar": "METAR EGNM 111720Z VRB02KT 9999 -RA SCT005 BKN010 06/06 Q0976",
      "taf": "TAF EGNM 111702Z 1118/1218 02008KT 9999 SCT005"
    },
    {
      "icao": "EGPD",
      "alert": "OK",
      "vis_m": 6000,
      "fzfg": false,
      "metar_trigger": false,
      "taf_trigger": false,
      "metar": "METAR EGPD 111720Z AUTO 09014G24KT 6000 -RA BKN013 BKN020 OVC028 03/01 Q0986 TEMPO BKN008",
      "taf": "TAF EGPD 111655Z 1118/1218 09012KT 9999 SCT012 BKN025"
    },
    {
      "icao": "EGPF",
      "alert": "OK",
      "vis_m": 9999,
      "fzfg": false,
      "metar_trigger": false,
      "taf_trigger": false,
      "metar": "METAR EGPF 111720Z AUTO 06013KT 9999 -RA BKN011 OVC032 05/03 Q0981",
      "taf": "TAF EGPF 111701Z 1118/1218 07009KT 9999 BKN016"
    },
    {
      "icao": "EHBK",
      "alert": "OK",
      "vis_m": 9999,
      "fzfg": false,
      "metar_trigger": false,
      "taf_trigger": false,
      "metar": "METAR EHBK 111725Z AUTO 23010KT 210V270 9999 FEW019 OVC027 10/08 Q0985 NOSIG",
      "taf": "TAF EHBK 111715Z 1118/1224 24007KT 9999 SCT025"
    },
    {
      "icao": "EHEH",
      "alert": "OK",
      "vis_m": 9999,
      "fzfg": false,
      "metar_trigger": false,
      "taf_trigger": false,
      "metar": "METAR EHEH 111725Z AUTO 23012KT 190V270 9999 FEW014 BKN016 BKN021 10/09 Q0983 REDZ WHT TEMPO 4000 DZRA SCT010 BKN015",
      "taf": "TAF EHEH 111120Z 1112/1218 23010KT 4000 BR SCT005 BKN007 OVC018"
    },
    {
      "icao": "EKBI",
      "alert": "OK",
      "vis_m": 8000,
      "fzfg": false,
      "metar_trigger": false,
      "taf_trigger": false,
      "metar": "METAR EKBI 111720Z AUTO 06010KT 8000 OVC005/// M00/M01 Q0988",
      "taf": "TAF EKBI 111727Z 1118/1218 07011KT 9000 BKN007"
    },
    {
      "icao": "EKCH",
      "alert": "OK",
      "vis_m": 9999,
      "fzfg": false,
      "metar_trigger": false,
      "taf_trigger": false,
      "metar": "METAR EKCH 111720Z 06007KT 9999 BKN012 01/M01 Q0989 TEMPO BKN015",
      "taf": "TAF EKCH 111727Z 1118/1218 05012KT 8000 BKN009"
    },
    {
      "icao": "ENAL",
      "alert": "OK",
      "vis_m": 9999,
      "fzfg": false,
      "metar_trigger": false,
      "taf_trigger": false,
      "metar": "METAR ENAL 111720Z 14005KT CAVOK M04/M08 Q0993",
      "taf": "TAF ENAL 111700Z 1118/1203 10005KT CAVOK"
    },
    {
      "icao": "ENBR",
      "alert": "OK",
      "vis_m": 9999,
      "fzfg": false,
      "metar_trigger": false,
      "taf_trigger": false,
      "metar": "METAR ENBR 111720Z 09003KT 9999 FEW021 BKN038 M00/M03 Q0992 NOSIG RMK WIND 1200FT 18003KT",
      "taf": "TAF ENBR 111700Z 1118/1218 VRB03KT 9999 BKN035"
    },
    {
      "icao": "ENGM",
      "alert": "OK",
      "vis_m": 9999,
      "fzfg": false,
      "metar_trigger": false,
      "taf_trigger": false,
      "metar": "METAR ENGM 111720Z 36005KT 9999 BKN023 M06/M10 Q0994 NOSIG",
      "taf": "TAF ENGM 111700Z 1118/1218 01008KT 9999 BKN025"
    },
    {
      "icao": "ENHD",
      "alert": "OK",
      "vis_m": 9999,
      "fzfg": false,
      "metar_trigger": false,
      "taf_trigger": false,
      "metar": "METAR ENHD 111720Z 33004KT CAVOK M03/M08 Q0992",
      "taf": "TAF ENHD 111400Z 1115/1123 09005KT CAVOK"
    },
    {
      "icao": "ENTC",
      "alert": "OK",
      "vis_m": 9999,
      "fzfg": false,
      "metar_trigger": false,
      "taf_trigger": false,
      "metar": "METAR ENTC 111720Z 05002KT CAVOK M11/M14 Q0997 NOSIG RMK WIND 2600FT 12007KT",
      "taf": "TAF ENTC 111700Z 1118/1218 VRB03KT CAVOK"
    },
    {
      "icao": "ENTO",
      "alert": "OK",
      "vis_m": 9999,
      "fzfg": false,
      "metar_trigger": false,
      "taf_trigger": false,
      "metar": "METAR ENTO 111720Z 02009KT 9999 BKN018 M03/M07 Q0993 NOSIG",
      "taf": "TAF ENTO 111700Z 1118/1218 02008KT 9999 FEW015 BKN030"
    },
    {
      "icao": "ENVA",
      "alert": "OK",
      "vis_m": 9999,
      "fzfg": false,
      "metar_trigger": false,
      "taf_trigger": false,
      "metar": "METAR ENVA 111720Z 10007KT CAVOK M09/M13 Q0995 NOSIG RMK WIND 670FT 10009KT",
      "taf": "TAF ENVA 111700Z 1118/1218 10005KT CAVOK"
    },
    {
      "icao": "ENZV",
      "alert": "OK",
      "vis_m": 9999,
      "fzfg": false,
      "metar_trigger": false,
      "taf_trigger": false,
      "metar": "METAR ENZV 111720Z VRB02KT 9999 BKN042 01/M07 Q0992 NOSIG",
      "taf": "TAF ENZV 111700Z 1118/1218 10005KT 9999 BKN040"
    },
    {
      "icao": "EPGD",
      "alert": "OK",
      "vis_m": 500,
      "fzfg": true,
      "metar_trigger": false,
      "taf_trigger": false,
      "metar": "METAR EPGD 111730Z 11001KT 0500 R29/1300N FZFG VV001 M00/M00 Q0986",
      "taf": "TAF EPGD 111730Z 1118/1218 VRB02KT 2000 BR OVC005"
    },
    {
      "icao": "EPKK",
      "alert": "OK",
      "vis_m": 9999,
      "fzfg": false,
      "metar_trigger": false,
      "taf_trigger": false,
      "metar": "METAR EPKK 111730Z 23004KT 9999 -RA SCT032 BKN036 04/01 Q0989",
      "taf": "TAF EPKK 111730Z 1118/1218 24010KT 9999 BKN035"
    },
    {
      "icao": "EPKT",
      "alert": "OK",
      "vis_m": 9999,
      "fzfg": false,
      "metar_trigger": false,
      "taf_trigger": false,
      "metar": "METAR EPKT 111730Z 19009KT 9999 OVC024 05/01 Q0988",
      "taf": "TAF EPKT 111730Z 1118/1218 22007KT 9999 BKN025"
    },
    {
      "icao": "EPLB",
      "alert": "OK",
      "vis_m": 9999,
      "fzfg": false,
      "metar_trigger": false,
      "taf_trigger": false,
      "metar": "METAR EPLB 111730Z 19008KT CAVOK 03/01 Q0990",
      "taf": "TAF EPLB 111730Z 1118/1218 18008KT CAVOK"
    },
    {
      "icao": "EPMO",
      "alert": "OK",
      "vis_m": 9999,
      "fzfg": false,
      "metar_trigger": false,
      "taf_trigger": false,
      "metar": "METAR EPMO 111730Z 15005KT 120V190 CAVOK 03/00 Q0988",
      "taf": "TAF EPMO 111730Z 1118/1218 15006KT CAVOK"
    },
    {
      "icao": "EPPO",
      "alert": "OK",
      "vis_m": 9999,
      "fzfg": false,
      "metar_trigger": false,
      "taf_trigger": false,
      "metar": "METAR EPPO 111730Z 14003KT 9999 BKN037 02/00 Q0986",
      "taf": "TAF EPPO 111730Z 1118/1218 12005KT 9999 SCT035"
    },
    {
      "icao": "EPRA",
      "alert": "OK",
      "vis_m": 9999,
      "fzfg": false,
      "metar_trigger": false,
      "taf_trigger": false,
      "metar": "METAR EPRA 111730Z 17007KT CAVOK 03/M00 Q0989",
      "taf": "TAF EPRA 111730Z 1118/1203 17008KT CAVOK"
    },
    {
      "icao": "EPRZ",
      "alert": "OK",
      "vis_m": 9999,
      "fzfg": false,
      "metar_trigger": false,
      "taf_trigger": false,
      "metar": "METAR EPRZ 111730Z 19012KT CAVOK 04/00 Q0990",
      "taf": "TAF EPRZ 111730Z 1118/1218 19012KT 9999 BKN040"
    },
    {
      "icao": "EPSC",
      "alert": "OK",
      "vis_m": 750,
      "fzfg": false,
      "metar_trigger": false,
      "taf_trigger": false,
      "metar": "METAR EPSC 111730Z 04002KT 0750 R31/1500U -RA FG FEW001 OVC003 02/02 Q0986",
      "taf": "TAF EPSC 111730Z 1118/1218 VRB02KT 2500 BR OVC005"
    },
    {
      "icao": "EPSY",
      "alert": "OK",
      "vis_m": 8000,
      "fzfg": false,
      "metar_trigger": false,
      "taf_trigger": false,
      "metar": "METAR EPSY 111730Z 19004KT 8000 BKN024 01/M00 Q0987",
      "taf": "TAF EPSY 111730Z 1118/1203 18004KT 8000 BKN030"
    },
    {
      "icao": "EPWA",
      "alert": "OK",
      "vis_m": 9999,
      "fzfg": false,
      "metar_trigger": false,
      "taf_trigger": false,
      "metar": "METAR EPWA 111730Z 14005KT CAVOK 03/00 Q0988 NOSIG",
      "taf": "TAF EPWA 111730Z 1118/1218 17008KT CAVOK"
    },
    {
      "icao": "EPWR",
      "alert": "OK",
      "vis_m": 9999,
      "fzfg": false,
      "metar_trigger": false,
      "taf_trigger": false,
      "metar": "METAR EPWR 111730Z 16006KT 9999 BKN044 05/02 Q0986",
      "taf": "TAF EPWR 111730Z 1118/1218 16008KT 9999 BKN045"
    },
    {
      "icao": "ESGG",
      "alert": "OK",
      "vis_m": 9999,
      "fzfg": false,
      "metar_trigger": false,
      "taf_trigger": false,
      "metar": "METAR ESGG 111720Z 04007KT 9999 BKN009 M03/M04 Q0990",
      "taf": "TAF ESGG 111730Z 1118/1218 04007KT 9999 SCT006 BKN020"
    },
    {
      "icao": "ESKN",
      "alert": "OK",
      "vis_m": 9999,
      "fzfg": false,
      "metar_trigger": false,
      "taf_trigger": false,
      "metar": "METAR ESKN 111720Z 02006KT 340V050 9999 BKN007 M05/M06 Q0993",
      "taf": "TAF ESKN 111730Z 1118/1218 02006KT 9999 BKN007"
    },
    {
      "icao": "ESMS",
      "alert": "OK",
      "vis_m": 8000,
      "fzfg": false,
      "metar_trigger": false,
      "taf_trigger": false,
      "metar": "METAR ESMS 111720Z 07013KT 8000 OVC006 00/M00 Q0988",
      "taf": "TAF ESMS 111727Z 1118/1218 07012KT 6000 OVC006"
    },
    {
      "icao": "ESSA",
      "alert": "OK",
      "vis_m": 9999,
      "fzfg": false,
      "metar_trigger": false,
      "taf_trigger": false,
      "metar": "METAR ESSA 111720Z 35008KT 9999 OVC009 M06/M07 Q0993 RESN TEMPO BKN011",
      "taf": "TAF ESSA 111730Z 1118/1218 35009KT 9999 -SN OVC009"
    },
    {
      "icao": "EYKA",
      "alert": "OK",
      "vis_m": 2700,
      "fzfg": false,
      "metar_trigger": false,
      "taf_trigger": false,
      "metar": "METAR EYKA 111720Z 13003KT 060V200 2700 -SN BR OVC010 M02/M02 Q0990",
      "taf": "TAF EYKA 111700Z 1118/1218 VRB04KT 5000 SN BR BKN010 OVC015"
    },
    {
      "icao": "EYPA",
      "alert": "OK",
      "vis_m": 6000,
      "fzfg": false,
      "metar_trigger": false,
      "taf_trigger": false,
      "metar": "METAR EYPA 111720Z 08008KT 6000 FEW023 OVC039 M05/M07 Q0989",
      "taf": "TAF EYPA 111700Z 1118/1218 VRB05KT 5000 BR BKN015"
    },
    {
      "icao": "EYVI",
      "alert": "OK",
      "vis_m": 9999,
      "fzfg": false,
      "metar_trigger": false,
      "taf_trigger": false,
      "metar": "METAR EYVI 111720Z 16012KT 9999 -SN BKN037 M01/M03 Q0990 TEMPO 3000 SN BR",
      "taf": "TAF EYVI 111705Z 1118/1218 17008KT 5000 SN BR SCT010 OVC015"
    },
    {
      "icao": "GCFV",
      "alert": "OK",
      "vis_m": 9999,
      "fzfg": false,
      "metar_trigger": false,
      "taf_trigger": false,
      "metar": "METAR GCFV 111730Z 02010KT 9999 BKN010 20/17 Q1024",
      "taf": "TAF GCFV 111400Z 1115/1215 05012KT 9999 SCT015 TX22/1214Z TN17/1206Z"
    },
    {
      "icao": "GCLP",
      "alert": "OK",
      "vis_m": 9999,
      "fzfg": false,
      "metar_trigger": false,
      "taf_trigger": false,
      "metar": "METAR GCLP 111730Z 03021KT 9999 FEW020 20/16 Q1023 NOSIG",
      "taf": "TAF GCLP 111400Z 1115/1215 02018KT 9999 SCT020 TX23/1214Z TN17/1206Z"
    },
    {
      "icao": "GCTS",
      "alert": "OK",
      "vis_m": 9999,
      "fzfg": false,
      "metar_trigger": false,
      "taf_trigger": false,
      "metar": "METAR GCTS 111730Z 09015KT 9999 FEW030 22/16 Q1023 NOSIG",
      "taf": "TAF GCTS 111400Z 1115/1215 08015KT 9999 FEW020 TX25/1214Z TN17/1206Z"
    },
    {
      "icao": "GMAD",
      "alert": "OK",
      "vis_m": 800,
      "fzfg": false,
      "metar_trigger": false,
      "taf_trigger": false,
      "metar": "SPECI GMAD 111739Z 23008KT 0800 R27/1900V2000U FG OVC002 16/16 Q1023 TEMPO 2000 BR",
      "taf": ""
    },
    {
      "icao": "GMMN",
      "alert": "OK",
      "vis_m": 9999,
      "fzfg": false,
      "metar_trigger": false,
      "taf_trigger": false,
      "metar": "METAR GMMN 111730Z 31009KT 9999 SCT008 17/15 Q1025 NOSIG",
      "taf": "TAF GMMN 111700Z 1118/1224 32006KT 8000 SCT008"
    },
    {
      "icao": "GMMX",
      "alert": "OK",
      "vis_m": 9999,
      "fzfg": false,
      "metar_trigger": false,
      "taf_trigger": false,
      "metar": "METAR GMMX 111730Z 27004KT 250V310 CAVOK 25/14 Q1024 NOSIG",
      "taf": "TAF GMMX 111700Z 1118/1224 28006KT CAVOK"
    },
    {
      "icao": "HEGN",
      "alert": "OK",
      "vis_m": 9999,
      "fzfg": false,
      "metar_trigger": false,
      "taf_trigger": false,
      "metar": "METAR HEGN 111700Z 35008KT CAVOK 23/09 Q1015 NOSIG",
      "taf": "TAF HEGN 111700Z 1118/1224 32010KT CAVOK"
    },
    {
      "icao": "HEMA",
      "alert": "OK",
      "vis_m": 9999,
      "fzfg": false,
      "metar_trigger": false,
      "taf_trigger": false,
      "metar": "METAR HEMA 111700Z 36003KT CAVOK 23/14 Q1015 NOSIG",
      "taf": "TAF HEMA 111700Z 1118/1224 29010KT CAVOK"
    },
    {
      "icao": "HESH",
      "alert": "OK",
      "vis_m": 9999,
      "fzfg": false,
      "metar_trigger": false,
      "taf_trigger": false,
      "metar": "METAR HESH 111700Z 34006KT CAVOK 23/14 Q1013 NOSIG",
      "taf": "TAF HESH 111700Z 1118/1224 34010KT CAVOK"
    },
    {
      "icao": "HESX",
      "alert": "OK",
      "vis_m": 9999,
      "fzfg": false,
      "metar_trigger": false,
      "taf_trigger": false,
      "metar": "METAR HESX 111700Z 27015KT CAVOK 19/04 Q1015 NOSIG",
      "taf": "TAF HESX 111700Z 1118/1224 27010KT CAVOK"
    },
    {
      "icao": "LATI",
      "alert": "OK",
      "vis_m": 9999,
      "fzfg": false,
      "metar_trigger": false,
      "taf_trigger": false,
      "metar": "METAR LATI 111720Z 30003KT 9999 -RA OVC050 12/08 Q0998 NOSIG",
      "taf": "TAF LATI 111700Z 1118/1218 VRB05KT 9999 RA SCT040 OVC060 TX16/1212Z TN08/1205Z"
    },
    {
      "icao": "LBPD",
      "alert": "OK",
      "vis_m": 9999,
      "fzfg": false,
      "metar_trigger": false,
      "taf_trigger": false,
      "metar": "METAR LBPD 111730Z AUTO VRB02KT 9999 OVC010/// 03/02 Q1006 NOSIG",
      "taf": "TAF LBPD 111700Z 1118/1218 VRB04KT 9999 BKN010"
    },
    {
      "icao": "LBSF",
      "alert": "OK",
      "vis_m": 9999,
      "fzfg": false,
      "metar_trigger": false,
      "taf_trigger": false,
      "metar": "METAR LBSF 111730Z AUTO 09013KT 9999 NSC 01/M01 Q1002 NOSIG",
      "taf": "TAF LBSF 111700Z 1118/1218 11012KT 9999 SCT030 BKN050"
    },
    {
      "icao": "LBWN",
      "alert": "OK",
      "vis_m": 9999,
      "fzfg": false,
      "metar_trigger": false,
      "taf_trigger": false,
      "metar": "METAR LBWN 111730Z AUTO 07003KT 9999 NCD 04/02 Q1004 NOSIG",
      "taf": "TAF LBWN 111700Z 1118/1218 19010KT 9999 BKN023"
    },
    {
      "icao": "LCLK",
      "alert": "OK",
      "vis_m": 9999,
      "fzfg": false,
      "metar_trigger": false,
      "taf_trigger": false,
      "metar": "METAR LCLK 111730Z 23008KT 9999 FEW025 15/13 Q1012 NOSIG",
      "taf": "TAF LCLK 111730Z 1118/1218 24009KT 9999 FEW030"
    },
    {
      "icao": "LCPH",
      "alert": "OK",
      "vis_m": 9999,
      "fzfg": false,
      "metar_trigger": false,
      "taf_trigger": false,
      "metar": "METAR LCPH 111730Z 26009KT 9999 FEW020 BKN060 16/12 Q1012 NOSIG",
      "taf": "TAF LCPH 111730Z 1118/1218 28015KT 9999 FEW025 SCT035"
    },
    {
      "icao": "LEAL",
      "alert": "OK",
      "vis_m": 9999,
      "fzfg": false,
      "metar_trigger": false,
      "taf_trigger": false,
      "metar": "METAR LEAL 111730Z 24009KT 210V280 CAVOK 23/15 Q1008 NOSIG",
      "taf": "TAF LEAL 111700Z 1118/1218 27015KT 9999 FEW030 TX23/1213Z TN12/1206Z"
    },
    {
      "icao": "LEBB",
      "alert": "OK",
      "vis_m": 1800,
      "fzfg": false,
      "metar_trigger": false,
      "taf_trigger": false,
      "metar": "METAR LEBB 111730Z COR 33005KT 240V360 1800 +SHRA FEW017 SCT050TCU BKN066 16/14 Q0997 NOSIG",
      "taf": "TAF LEBB 111700Z 1118/1218 22009KT 9999 FEW035 BKN050 TX19/1118Z TN09/1208Z"
    },
    {
      "icao": "LEBL",
      "alert": "OK",
      "vis_m": 9999,
      "fzfg": false,
      "metar_trigger": false,
      "taf_trigger": false,
      "metar": "METAR LEBL 111730Z 22006KT 9999 FEW040 SCT064 19/10 Q1002 NOSIG",
      "taf": "TAF LEBL 111700Z 1118/1218 25012KT 9999 FEW040 TX20/1212Z TN13/1206Z"
    },
    {
      "icao": "LECH",
      "alert": "OK",
      "vis_m": 8000,
      "fzfg": false,
      "metar_trigger": false,
      "taf_trigger": false,
      "metar": "METAR LECH 111730Z AUTO 24015KT 8000 FEW066 21/10 Q1003",
      "taf": ""
    },
    {
      "icao": "LEMD",
      "alert": "OK",
      "vis_m": 9999,
      "fzfg": false,
      "metar_trigger": false,
      "taf_trigger": false,
      "metar": "METAR LEMD 111730Z 23024KT 9999 BKN017 BKN060 14/14 Q1008 NOSIG",
      "taf": "TAF LEMD 111700Z 1118/1224 24010KT 9999 FEW015 TX13/1215Z TN07/1207Z"
    },
    {
      "icao": "LEMG",
      "alert": "OK",
      "vis_m": 9999,
      "fzfg": false,
      "metar_trigger": false,
      "taf_trigger": false,
      "metar": "METAR LEMG 111730Z 19005KT 150V240 9999 FEW026 19/14 Q1018 NOSIG",
      "taf": "TAF LEMG 111700Z 1118/1218 VRB03KT 9999 FEW050 TX23/1214Z TN11/1207Z"
    },
    {
      "icao": "LEVC",
      "alert": "OK",
      "vis_m": 9999,
      "fzfg": false,
      "metar_trigger": false,
      "taf_trigger": false,
      "metar": "METAR LEVC 111730Z 26016KT 240V300 9999 FEW044 21/13 Q1006 NOSIG",
      "taf": "TAF LEVC 111700Z 1118/1218 27015KT 9999 FEW045 TX21/1214Z TN15/1206Z"
    },
    {
      "icao": "LEXJ",
      "alert": "OK",
      "vis_m": 9999,
      "fzfg": false,
      "metar_trigger": false,
      "taf_trigger": false,
      "metar": "METAR LEXJ 111730Z 26015KT 9999 FEW078 17/12 Q0996",
      "taf": "TAF LEXJ 111400Z 1115/1215 21009KT 9999 BKN040 TX18/1115Z TN10/1207Z"
    },
    {
      "icao": "LEZG",
      "alert": "OK",
      "vis_m": 9999,
      "fzfg": false,
      "metar_trigger": false,
      "taf_trigger": false,
      "metar": "METAR LEZG 111730Z 07005KT 040V100 9999 BKN045 14/13 Q1001 NOSIG",
      "taf": "TAF LEZG 111700Z 1118/1218 27015KT 9999 FEW050 TX17/1212Z TN10/1206Z"
    },
    {
      "icao": "LEZL",
      "alert": "OK",
      "vis_m": 9999,
      "fzfg": false,
      "metar_trigger": false,
      "taf_trigger": false,
      "metar": "METAR LEZL 111730Z 23014KT 190V260 9999 OVC015 17/15 Q1019 NOSIG",
      "taf": ""
    },
    {
      "icao": "LFBD",
      "alert": "OK",
      "vis_m": 7000,
      "fzfg": false,
      "metar_trigger": false,
      "taf_trigger": false,
      "metar": "METAR LFBD 111730Z AUTO 23010KT 190V250 7000 2800 +RA FEW011/// SCT036/// BKN049/// ///CB 12/12 Q0994 TEMPO 26020G45KT 2000 SHRA",
      "taf": "TAF LFBD 111700Z 1118/1224 20010KT CAVOK TX13/1118Z TN10/1205Z"
    },
    {
      "icao": "LFLL",
      "alert": "OK",
      "vis_m": 9999,
      "fzfg": false,
      "metar_trigger": false,
      "taf_trigger": false,
      "metar": "METAR LFLL 111730Z 15008KT CAVOK 13/05 Q0996 NOSIG",
      "taf": "TAF LFLL 111700Z 1118/1224 18010KT 9999 BKN050"
    },
    {
      "icao": "LFLS",
      "alert": "OK",
      "vis_m": 9999,
      "fzfg": false,
      "metar_trigger": false,
      "taf_trigger": false,
      "metar": "METAR LFLS 111730Z AUTO 15005KT 120V190 CAVOK 12/05 Q0997 TEMPO 19015G30KT 3000 RA",
      "taf": "TAF LFLS 111400Z 1115/1215 22008KT 9999 BKN040"
    },
    {
      "icao": "LFMN",
      "alert": "OK",
      "vis_m": 9999,
      "fzfg": false,
      "metar_trigger": false,
      "taf_trigger": false,
      "metar": "METAR LFMN 111730Z 12008KT CAVOK 13/10 Q0996 NOSIG",
      "taf": "TAF LFMN 111400Z 1115/1221 09016KT 9999 FEW033"
    },
    {
      "icao": "LFOB",
      "alert": "OK",
      "vis_m": 7000,
      "fzfg": false,
      "metar_trigger": false,
      "taf_trigger": false,
      "metar": "METAR LFOB 111730Z AUTO 18011KT 7000 RA BKN017/// BKN049/// OVC074/// ///CB 10/08 Q0984 BECMG 25012KT NSW BKN020",
      "taf": "TAF LFOB 111100Z 1112/1212 25012KT 9999 BKN020"
    },
    {
      "icao": "LFPO",
      "alert": "OK",
      "vis_m": 4000,
      "fzfg": false,
      "metar_trigger": false,
      "taf_trigger": false,
      "metar": "METAR LFPO 111730Z 17007KT 4000 RA FEW007 BKN013 BKN026 10/10 Q0986 TEMPO BKN008",
      "taf": "TAF LFPO 111700Z 1118/1224 17010KT 6000 SCT033 BKN073"
    },
    {
      "icao": "LFSB",
      "alert": "OK",
      "vis_m": 9999,
      "fzfg": false,
      "metar_trigger": false,
      "taf_trigger": false,
      "metar": "METAR LFSB 111730Z AUTO 22008KT 9999 FEW015 OVC220 10/05 Q0994 NOSIG",
      "taf": "TAF LFSB 111700Z 1118/1218 17006KT 9999 SCT025 BKN050"
    },
    {
      "icao": "LGAV",
      "alert": "OK",
      "vis_m": 9999,
      "fzfg": false,
      "metar_trigger": false,
      "taf_trigger": false,
      "metar": "METAR LGAV 111720Z 20013KT 9999 FEW018 SCT030 15/09 Q1004 NOSIG",
      "taf": "TAF LGAV 111700Z 1118/1218 18010KT 9999 SCT020 BKN070"
    },
    {
      "icao": "LGTS",
      "alert": "OK",
      "vis_m": 9999,
      "fzfg": false,
      "metar_trigger": false,
      "taf_trigger": false,
      "metar": "METAR LGTS 111720Z 31006KT 9999 FEW020 BKN030 12/10 Q1003 NOSIG",
      "taf": "TAF LGTS 111700Z 1118/1218 14010KT 9999 FEW010 BKN030"
    },
    {
      "icao": "LHBP",
      "alert": "OK",
      "vis_m": 9999,
      "fzfg": false,
      "metar_trigger": false,
      "taf_trigger": false,
      "metar": "METAR LHBP 111730Z 17003KT 9999 FEW025 BKN060 07/06 Q0994 NOSIG",
      "taf": "TAF LHBP 111715Z 1118/1218 18006KT CAVOK"
    },
    {
      "icao": "LHDC",
      "alert": "OK",
      "vis_m": 9999,
      "fzfg": false,
      "metar_trigger": false,
      "taf_trigger": false,
      "metar": "METAR LHDC 111715Z AUTO 18010KT 9999 -SHRA OVC049 08/05 Q0996 NOSIG",
      "taf": "TAF LHDC 111415Z 1115/1124 19012KT 9999 BKN040 BKN060"
    },
    {
      "icao": "LIBD",
      "alert": "OK",
      "vis_m": 9999,
      "fzfg": false,
      "metar_trigger": false,
      "taf_trigger": false,
      "metar": "METAR LIBD 111720Z 31004KT 9999 SCT040 11/10 Q0997",
      "taf": "TAF LIBD 111700Z 1118/1218 26006KT 9999 FEW040"
    },
    {
      "icao": "LIBG",
      "alert": "OK",
      "vis_m": 8000,
      "fzfg": false,
      "metar_trigger": false,
      "taf_trigger": false,
      "metar": "METAR LIBG 111650Z 02003KT 8000 RA SCT010 SCT020 12/11 Q0996",
      "taf": "TAF LIBG 111700Z 1118/1203 VRB04KT 9999 FEW040"
    },
    {
      "icao": "LIBP",
      "alert": "OK",
      "vis_m": 9999,
      "fzfg": false,
      "metar_trigger": false,
      "taf_trigger": false,
      "metar": "METAR LIBP 111720Z AUTO 05003KT 9999 FEW100/// 11/08 Q0997",
      "taf": "TAF LIBP 111700Z 1118/1218 VRB05KT 9999 FEW060"
    },
    {
      "icao": "LIBR",
      "alert": "OK",
      "vis_m": 6000,
      "fzfg": false,
      "metar_trigger": false,
      "taf_trigger": false,
      "metar": "METAR LIBR 111720Z 07002KT 6000 -RA SCT012 OVC040 12/11 Q0997",
      "taf": "TAF LIBR 111700Z 1118/1218 VRB05KT 9999 SCT030"
    },
    {
      "icao": "LICA",
      "alert": "OK",
      "vis_m": 9999,
      "fzfg": false,
      "metar_trigger": false,
      "taf_trigger": false,
      "metar": "METAR LICA 111720Z AUTO 26026KT 9999 BKN036/// OVC057/// 16/12 Q0999",
      "taf": "TAF LICA 111700Z 1118/1218 25022G33KT 9999 BKN020"
    },
    {
      "icao": "LICC",
      "alert": "OK",
      "vis_m": 9999,
      "fzfg": false,
      "metar_trigger": false,
      "taf_trigger": false,
      "metar": "METAR LICC 111720Z 26009KT 9999 FEW030 16/12 Q1003 WS R26",
      "taf": "TAF LICC 111700Z 1118/1218 26018G30KT 9999 SCT030"
    },
    {
      "icao": "LICJ",
      "alert": "OK",
      "vis_m": 9999,
      "fzfg": false,
      "metar_trigger": false,
      "taf_trigger": false,
      "metar": "METAR LICJ 111720Z 23014KT CAVOK 16/11 Q1005",
      "taf": "TAF LICJ 111700Z 1118/1218 26022G35KT 9999 SCT020"
    },
    {
      "icao": "LIMC",
      "alert": "OK",
      "vis_m": 9999,
      "fzfg": false,
      "metar_trigger": false,
      "taf_trigger": false,
      "metar": "METAR LIMC 111720Z 17004KT 140V200 CAVOK 09/05 Q0995 NOSIG",
      "taf": "TAF LIMC 111700Z 1118/1224 VRB04KT 8000 FEW030"
    },
    {
      "icao": "LIME",
      "alert": "OK",
      "vis_m": 9999,
      "fzfg": false,
      "metar_trigger": false,
      "taf_trigger": false,
      "metar": "METAR LIME 111720Z 22005KT 9999 FEW030 BKN040 10/07 Q0996 NOSIG",
      "taf": "TAF LIME 111100Z 1112/1212 VRB05KT 8000 SCT030"
    },
    {
      "icao": "LIMF",
      "alert": "OK",
      "vis_m": 9999,
      "fzfg": false,
      "metar_trigger": false,
      "taf_trigger": false,
      "metar": "METAR LIMF 111720Z 21005KT CAVOK 10/05 Q0995",
      "taf": "TAF LIMF 111100Z 1112/1212 VRB03KT 9999 FEW025"
    },
    {
      "icao": "LIMJ",
      "alert": "OK",
      "vis_m": 9999,
      "fzfg": false,
      "metar_trigger": false,
      "taf_trigger": false,
      "metar": "METAR LIMJ 111720Z VRB03KT CAVOK 13/05 Q0995",
      "taf": "TAF LIMJ 111100Z 1112/1212 02010KT 9999 FEW015"
    },
    {
      "icao": "LIPE",
      "alert": "OK",
      "vis_m": 9999,
      "fzfg": false,
      "metar_trigger": false,
      "taf_trigger": false,
      "metar": "METAR LIPE 111720Z VRB02KT CAVOK 08/08 Q0996",
      "taf": "TAF LIPE 111700Z 1118/1218 VRB05KT 8000 SCT020"
    },
    {
      "icao": "LIPH",
      "alert": "OK",
      "vis_m": 9999,
      "fzfg": false,
      "metar_trigger": false,
      "taf_trigger": false,
      "metar": "METAR LIPH 111720Z 24001KT 9999 BKN015 10/09 Q0996",
      "taf": "TAF LIPH 111700Z 1118/1218 VRB05KT 7000 BKN010"
    },
    {
      "icao": "LIPQ",
      "alert": "OK",
      "vis_m": 3000,
      "fzfg": false,
      "metar_trigger": false,
      "taf_trigger": false,
      "metar": "METAR LIPQ 111720Z AUTO 20002KT 3000 -RA BR OVC003/// 10/10 Q0996",
      "taf": "TAF LIPQ 111700Z 1118/1218 VRB04KT 2000 BR BKN005"
    },
    {
      "icao": "LIPR",
      "alert": "OK",
      "vis_m": 9999,
      "fzfg": false,
      "metar_trigger": false,
      "taf_trigger": false,
      "metar": "METAR LIPR 111720Z 30008KT 9999 BKN030 10/09 Q0997",
      "taf": "TAF LIPR 111700Z 1118/1218 VRB05KT 4000 BR SCT020"
    },
    {
      "icao": "LIPX",
      "alert": "OK",
      "vis_m": 9999,
      "fzfg": false,
      "metar_trigger": false,
      "taf_trigger": false,
      "metar": "METAR LIPX 111720Z 23005KT 9999 FEW020 BKN050 10/08 Q0996",
      "taf": "TAF LIPX 111100Z 1112/1212 VRB05KT 8000 BKN014"
    },
    {
      "icao": "LIPY",
      "alert": "OK",
      "vis_m": 6000,
      "fzfg": false,
      "metar_trigger": false,
      "taf_trigger": false,
      "metar": "METAR LIPY 111720Z AUTO VRB03KT 6000 FEW014/// OVC051/// 10/10 Q0997",
      "taf": "TAF LIPY 111700Z 1118/1218 VRB05KT 4000 BR SCT040"
    },
    {
      "icao": "LIPZ",
      "alert": "OK",
      "vis_m": 9999,
      "fzfg": false,
      "metar_trigger": false,
      "taf_trigger": false,
      "metar": "METAR LIPZ 111720Z 34002KT 9999 BKN007 10/09 Q0996 NOSIG",
      "taf": "TAF LIPZ 111700Z 1118/1224 VRB05KT 7000 BKN010"
    },
    {
      "icao": "LIRF",
      "alert": "OK",
      "vis_m": 9000,
      "fzfg": false,
      "metar_trigger": false,
      "taf_trigger": false,
      "metar": "METAR LIRF 111720Z VRB01KT 9000 SCT050 14/13 Q0999 NOSIG",
      "taf": "TAF LIRF 111700Z 1118/1224 VRB05KT 9999 SCT020"
    },
    {
      "icao": "LIRN",
      "alert": "OK",
      "vis_m": 9999,
      "fzfg": false,
      "metar_trigger": false,
      "taf_trigger": false,
      "metar": "METAR LIRN 111720Z 23005KT 200V290 9999 FEW015 BKN035 13/11 Q0999 NOSIG",
      "taf": "TAF LIRN 111700Z 1118/1218 VRB05KT 9999 SCT020"
    },
    {
      "icao": "LIRP",
      "alert": "OK",
      "vis_m": 9999,
      "fzfg": false,
      "metar_trigger": false,
      "taf_trigger": false,
      "metar": "METAR LIRP 111715Z 13003KT 9999 FEW015 BKN030 13/10 Q0997 NOSIG",
      "taf": "TAF LIRP 111700Z 1118/1218 VRB03KT 9999 FEW020"
    },
    {
      "icao": "LIRZ",
      "alert": "OK",
      "vis_m": 9999,
      "fzfg": false,
      "metar_trigger": false,
      "taf_trigger": false,
      "metar": "METAR LIRZ 111720Z AUTO 18003KT 150V220 9999 BKN025/// 12/10 Q0998",
      "taf": "TAF LIRZ 111700Z 1118/1218 19008KT 9999 BKN030"
    },
    {
      "icao": "LJLJ",
      "alert": "OK",
      "vis_m": 9999,
      "fzfg": false,
      "metar_trigger": false,
      "taf_trigger": false,
      "metar": "METAR LJLJ 111730Z 03001KT 9999 MIFG FEW010 BKN035 BKN050 08/07 Q0995 NOSIG",
      "taf": "TAF LJLJ 111700Z 1118/1218 VRB02KT 9999 FEW003 SCT030 BKN045"
    },
    {
      "icao": "LKMT",
      "alert": "OK",
      "vis_m": 9999,
      "fzfg": false,
      "metar_trigger": false,
      "taf_trigger": false,
      "metar": "METAR LKMT 111730Z 22011KT 9999 BKN037 04/03 Q0989 NOSIG",
      "taf": "TAF LKMT 111700Z 1118/1218 22012KT 9999 BKN022"
    },
    {
      "icao": "LKPR",
      "alert": "OK",
      "vis_m": 9999,
      "fzfg": false,
      "metar_trigger": false,
      "taf_trigger": false,
      "metar": "METAR LKPR 111730Z 21016KT 9999 -RA FEW007 SCT046 07/05 Q0986 NOSIG",
      "taf": "TAF LKPR 111700Z 1118/1224 22014KT 9000 SCT010 BKN025"
    },
    {
      "icao": "LLBG",
      "alert": "OK",
      "vis_m": 9999,
      "fzfg": false,
      "metar_trigger": false,
      "taf_trigger": false,
      "metar": "METAR LLBG 111720Z 19005KT CAVOK 17/12 Q1016 NOSIG",
      "taf": "TAF LLBG 111702Z 1118/1218 VRB04KT CAVOK"
    },
    {
      "icao": "LMML",
      "alert": "OK",
      "vis_m": 9999,
      "fzfg": false,
      "metar_trigger": false,
      "taf_trigger": false,
      "metar": "METAR LMML 111715Z 28025KT 9999 FEW025 16/12 Q1007 NOSIG",
      "taf": "TAF LMML 111700Z 1118/1218 23025G35KT 9999 FEW020"
    },
    {
      "icao": "LOWW",
      "alert": "OK",
      "vis_m": 9000,
      "fzfg": false,
      "metar_trigger": false,
      "taf_trigger": false,
      "metar": "METAR LOWW 111720Z 17009KT 9000 FEW050 06/05 Q0992 TEMPO FM1745 23007KT",
      "taf": "TAF LOWW 111715Z 1118/1224 VRB03KT 9999 SCT010 BKN040 TX08/1213Z TN03/1205Z"
    },
    {
      "icao": "LPFR",
      "alert": "OK",
      "vis_m": 9000,
      "fzfg": false,
      "metar_trigger": false,
      "taf_trigger": false,
      "metar": "METAR LPFR 111730Z 24012KT 9000 SCT009 BKN015 15/15 Q1020",
      "taf": "TAF LPFR 111700Z 1118/1218 25012KT 8000 SCT008 BKN015"
    },
    {
      "icao": "LPMA",
      "alert": "OK",
      "vis_m": 9999,
      "fzfg": false,
      "metar_trigger": false,
      "taf_trigger": false,
      "metar": "METAR LPMA 111730Z 04008KT 9999 SCT015 18/12 Q1025",
      "taf": "TAF LPMA 111700Z 1118/1218 04010KT 9999 FEW015 SCT030"
    },
    {
      "icao": "LPPR",
      "alert": "OK",
      "vis_m": 7000,
      "fzfg": false,
      "metar_trigger": false,
      "taf_trigger": false,
      "metar": "METAR LPPR 111730Z 24010KT 200V280 7000 FEW008 BKN012 16/14 Q1011",
      "taf": "TAF LPPR 111700Z 1118/1218 26012KT 9999 BKN020"
    },
    {
      "icao": "LPPS",
      "alert": "OK",
      "vis_m": 9999,
      "fzfg": false,
      "metar_trigger": false,
      "taf_trigger": false,
      "metar": "METAR LPPS 111730Z 30010KT 9999 FEW015 BKN030 18/12 Q1026",
      "taf": "TAF LPPS 111700Z 1118/1224 27007KT 9999 FEW015 BKN030"
    },
    {
      "icao": "LPPT",
      "alert": "OK",
      "vis_m": 5000,
      "fzfg": false,
      "metar_trigger": false,
      "taf_trigger": false,
      "metar": "METAR LPPT 111730Z 24015G25KT 5000 -DZ BR FEW002 SCT004 BKN006 15/15 Q1016",
      "taf": "TAF LPPT 111700Z 1118/1224 24015KT 5000 BR SCT003 BKN006"
    },
    {
      "icao": "LQBK",
      "alert": "OK",
      "vis_m": 7000,
      "fzfg": false,
      "metar_trigger": false,
      "taf_trigger": false,
      "metar": "METAR LQBK 111730Z VRB02KT 7000 FEW047 08/08 Q0995 NOSIG",
      "taf": "TAF LQBK 111700Z 1118/1218 16005KT 7000 SCT045 TX13/1213Z TN06/1205Z"
    },
    {
      "icao": "LQSA",
      "alert": "OK",
      "vis_m": 9999,
      "fzfg": false,
      "metar_trigger": false,
      "taf_trigger": false,
      "metar": "METAR LQSA 111730Z VRB02KT CAVOK 07/04 Q0996 NOSIG",
      "taf": "TAF LQSA 111700Z 1118/1218 11005KT 9999 BKN050 TX13/1213Z TN04/1205Z"
    },
    {
      "icao": "LQTZ",
      "alert": "OK",
      "vis_m": 9999,
      "fzfg": false,
      "metar_trigger": false,
      "taf_trigger": false,
      "metar": "METAR LQTZ 111730Z 19003KT 160V230 CAVOK 13/03 Q0996",
      "taf": "TAF LQTZ 111700Z 1118/1218 VRB02KT 9999 SCT060 TX15/1213Z TN04/1205Z"
    },
    {
      "icao": "LRBC",
      "alert": "OK",
      "vis_m": 9999,
      "fzfg": false,
      "metar_trigger": false,
      "taf_trigger": false,
      "metar": "METAR LRBC 111730Z 16007KT 9999 OVC008 03/02 Q1000",
      "taf": "TAF LRBC 111700Z 1118/1203 17010KT 9999 OVC010"
    },
    {
      "icao": "LRBS",
      "alert": "OK",
      "vis_m": 9000,
      "fzfg": false,
      "metar_trigger": false,
      "taf_trigger": false,
      "metar": "METAR LRBS 111730Z VRB02KT 9000 NSC 02/00 Q1003 NOSIG",
      "taf": "TAF LRBS 111700Z 1118/1218 VRB04KT CAVOK"
    },
    {
      "icao": "LRBV",
      "alert": "OK",
      "vis_m": 9999,
      "fzfg": false,
      "metar_trigger": false,
      "taf_trigger": false,
      "metar": "METAR LRBV 111730Z 19006KT 9999 BKN082 04/M01 Q0999",
      "taf": "TAF LRBV 111700Z 1118/1203 21007KT CAVOK"
    },
    {
      "icao": "LRCL",
      "alert": "OK",
      "vis_m": 9999,
      "fzfg": false,
      "metar_trigger": false,
      "taf_trigger": false,
      "metar": "METAR LRCL 111730Z 09004KT 060V140 CAVOK 07/01 Q0997",
      "taf": "TAF LRCL 111700Z 1118/1203 10006KT CAVOK"
    },
    {
      "icao": "LRCV",
      "alert": "OK",
      "vis_m": 6000,
      "fzfg": false,
      "metar_trigger": false,
      "taf_trigger": false,
      "metar": "METAR LRCV 111730Z 24004KT 6000 SCT015 M00/M01 Q1003",
      "taf": "TAF LRCV 111700Z 1118/1203 VRB04KT 7000 SCT015"
    },
    {
      "icao": "LRIA",
      "alert": "OK",
      "vis_m": 9999,
      "fzfg": false,
      "metar_trigger": false,
      "taf_trigger": false,
      "metar": "METAR LRIA 111730Z 17007KT 9999 BKN012 04/01 Q1000",
      "taf": "TAF LRIA 111700Z 1118/1203 16010KT 9999 BKN015"
    },
    {
      "icao": "LROP",
      "alert": "OK",
      "vis_m": 9999,
      "fzfg": false,
      "metar_trigger": false,
      "taf_trigger": false,
      "metar": "METAR LROP 111730Z 27004KT CAVOK 01/M00 Q1003 NOSIG",
      "taf": "TAF LROP 111700Z 1118/1218 VRB04KT CAVOK"
    },
    {
      "icao": "LRSB",
      "alert": "OK",
      "vis_m": 9999,
      "fzfg": false,
      "metar_trigger": false,
      "taf_trigger": false,
      "metar": "METAR LRSB 111730Z 09004KT CAVOK 05/M00 Q0997",
      "taf": "TAF LRSB 111700Z 1118/1218 VRB04KT CAVOK"
    },
    {
      "icao": "LRSM",
      "alert": "OK",
      "vis_m": 9999,
      "fzfg": false,
      "metar_trigger": false,
      "taf_trigger": false,
      "metar": "METAR LRSM 111730Z AUTO 17003KT 150V250 9999 SCT050/// BKN065/// OVC090/// 06/02 Q0996",
      "taf": "TAF LRSM 111400Z 1115/1124 14007KT CAVOK"
    },
    {
      "icao": "LRSV",
      "alert": "OK",
      "vis_m": 9999,
      "fzfg": false,
      "metar_trigger": false,
      "taf_trigger": false,
      "metar": "METAR LRSV 111730Z 21009KT CAVOK 01/M00 Q0996",
      "taf": "TAF LRSV 111700Z 1118/1203 19008KT CAVOK"
    },
    {
      "icao": "LRTM",
      "alert": "OK",
      "vis_m": 9999,
      "fzfg": false,
      "metar_trigger": false,
      "taf_trigger": false,
      "metar": "METAR LRTM 111730Z AUTO 07003KT 9999 NCD 06/02 Q0998",
      "taf": "TAF LRTM 111700Z 1118/1203 VRB04KT CAVOK"
    },
    {
      "icao": "LRTR",
      "alert": "OK",
      "vis_m": 9999,
      "fzfg": false,
      "metar_trigger": false,
      "taf_trigger": false,
      "metar": "METAR LRTR 111730Z 14008KT CAVOK 07/03 Q0997",
      "taf": "TAF LRTR 111700Z 1118/1218 12006KT CAVOK"
    },
    {
      "icao": "LTAC",
      "alert": "OK",
      "vis_m": 9999,
      "fzfg": false,
      "metar_trigger": false,
      "taf_trigger": false,
      "metar": "METAR LTAC 111720Z 23003KT 170V270 9999 SCT033 BKN090 07/02 Q1009 NOSIG RMK RWY21C VRB02KT RWY03L 21002KT RWY21R 00000KT RWY03R 00000KT RWY21L 20003KT",
      "taf": "TAF LTAC 111640Z 1118/1218 VRB02KT 9999 SCT040 SCT100"
    },
    {
      "icao": "LTFM",
      "alert": "OK",
      "vis_m": 9999,
      "fzfg": false,
      "metar_trigger": false,
      "taf_trigger": false,
      "metar": "METAR LTFM 111720Z 16004KT CAVOK 08/05 Q1007 NOSIG RMK RWY17L 17006KT RWY34L 17004KT RWY16R 18006KT RWY36 15006KT RWY18 17006KT",
      "taf": ""
    },
    {
      "icao": "LUKK",
      "alert": "OK",
      "vis_m": 9999,
      "fzfg": false,
      "metar_trigger": false,
      "taf_trigger": false,
      "metar": "METAR LUKK 111730Z 17012KT 9999 OVC019 03/01 Q1002 NOSIG",
      "taf": "TAF LUKK 111700Z 1118/1218 16009KT 9999 OVC018"
    },
    {
      "icao": "LWOH",
      "alert": "OK",
      "vis_m": 9999,
      "fzfg": false,
      "metar_trigger": false,
      "taf_trigger": false,
      "metar": "METAR LWOH 111720Z VRB02KT 9999 -RA OVC040 08/06 Q1000",
      "taf": "TAF LWOH 111735Z 1118/1218 VRB02KT 9999 BKN045"
    },
    {
      "icao": "LWSK",
      "alert": "OK",
      "vis_m": 9999,
      "fzfg": false,
      "metar_trigger": false,
      "taf_trigger": false,
      "metar": "METAR LWSK 111720Z COR VRB01KT 9999 FEW023 SCT070 09/05 Q1001 NOSIG",
      "taf": "TAF LWSK 111735Z 1118/1218 14008KT 9999 FEW025 SCT040 BKN070"
    },
    {
      "icao": "LYBE",
      "alert": "OK",
      "vis_m": 9999,
      "fzfg": false,
      "metar_trigger": false,
      "taf_trigger": false,
      "metar": "METAR LYBE 111730Z 14009KT CAVOK 11/05 Q0996 NOSIG",
      "taf": "TAF LYBE 111700Z 1118/1218 13008KT CAVOK TX18/1212Z TN04/1206Z"
    },
    {
      "icao": "LYNI",
      "alert": "OK",
      "vis_m": 9999,
      "fzfg": false,
      "metar_trigger": false,
      "taf_trigger": false,
      "metar": "METAR LYNI 111730Z 14005KT 9999 SCT050 10/04 Q1000 NOSIG",
      "taf": "TAF LYNI 111700Z 1118/1218 12005KT 9999 SCT050 TX14/1212Z TN03/1206Z"
    },
    {
      "icao": "LYPG",
      "alert": "OK",
      "vis_m": 9999,
      "fzfg": false,
      "metar_trigger": false,
      "taf_trigger": false,
      "metar": "METAR LYPG 111730Z 31004KT 9999 -RA FEW010 BKN050 OVC080 09/09 Q0999 NOSIG",
      "taf": "TAF LYPG 111700Z 1118/1218 36005KT 8000 FEW007 BKN040 OVC070 TX11/1213Z TN08/1205Z"
    },
    {
      "icao": "LZIB",
      "alert": "OK",
      "vis_m": 5000,
      "fzfg": false,
      "metar_trigger": false,
      "taf_trigger": false,
      "metar": "METAR LZIB 111730Z 03005KT 5000 -RA BR FEW003 BKN004 OVC005 04/03 Q0993 NOSIG",
      "taf": "TAF LZIB 111715Z 1118/1218 03006KT 7000 SCT004 BKN025"
    },
    {
      "icao": "LZKZ",
      "alert": "OK",
      "vis_m": 900,
      "fzfg": false,
      "metar_trigger": false,
      "taf_trigger": false,
      "metar": "METAR LZKZ 111730Z 14003KT 0900 R01/1800U -DZ FG OVC003 00/00 Q0994 NOSIG",
      "taf": "TAF LZKZ 111715Z 1118/1218 21005KT 3500 BR BKN006 OVC010"
    },
    {
      "icao": "LZTT",
      "alert": "OK",
      "vis_m": 9999,
      "fzfg": false,
      "metar_trigger": false,
      "taf_trigger": false,
      "metar": "METAR LZTT 111730Z 25013KT 9999 -RA FEW023 SCT036 03/M01 Q0990 NOSIG",
      "taf": "TAF LZTT 111715Z 1118/1218 22007KT 9999 BKN022"
    },
    {
      "icao": "OEJN",
      "alert": "OK",
      "vis_m": 9999,
      "fzfg": false,
      "metar_trigger": false,
      "taf_trigger": false,
      "metar": "METAR OEJN 111700Z 34007KT CAVOK 27/16 Q1014 NOSIG",
      "taf": "TAF OEJN 111700Z 1118/1224 36006KT 7000 NSC"
    },
    {
      "icao": "OEMA",
      "alert": "OK",
      "vis_m": 9999,
      "fzfg": false,
      "metar_trigger": false,
      "taf_trigger": false,
      "metar": "METAR OEMA 111700Z 21011KT CAVOK 28/08 Q1017 NOSIG",
      "taf": "TAF OEMA 111700Z 1118/1224 VRB03KT CAVOK"
    },
    {
      "icao": "OJAI",
      "alert": "OK",
      "vis_m": 5000,
      "fzfg": false,
      "metar_trigger": false,
      "taf_trigger": false,
      "metar": "METAR OJAI 111700Z 24008KT 5000 HZ NSC 13/05 Q1017 NOSIG",
      "taf": "TAF OJAI 111700Z 1118/1224 25012KT 5000 HZ FEW035"
    },
    {
      "icao": "OMAA",
      "alert": "OK",
      "vis_m": 9999,
      "fzfg": false,
      "metar_trigger": false,
      "taf_trigger": false,
      "metar": "METAR OMAA 111730Z 02007KT CAVOK 23/18 Q1018 NOSIG",
      "taf": "TAF OMAA 111700Z 1118/1300 01006KT 8000 NSC"
    },
    {
      "icao": "OMDB",
      "alert": "OK",
      "vis_m": 9999,
      "fzfg": false,
      "metar_trigger": false,
      "taf_trigger": false,
      "metar": "METAR OMDB 111730Z 07010KT CAVOK 25/14 Q1018 NOSIG",
      "taf": "TAF OMDB 111700Z 1118/1300 09007KT 8000 NSC"
    },
    {
      "icao": "UAAA",
      "alert": "OK",
      "vis_m": 1600,
      "fzfg": false,
      "metar_trigger": false,
      "taf_trigger": false,
      "metar": "METAR UAAA 111730Z 02003MPS 1600 R23L/P2000U -SHSN BR BKN003 BKN016CB OVC100 M01/M01 Q1023 NOSIG RMK QBB090",
      "taf": "TAF UAAA 111702Z 1118/1218 02003G08MPS 1500 -SN BR BKN011 OVC020 TX00/1209Z TNM03/1203Z"
    },
    {
      "icao": "UBBB",
      "alert": "OK",
      "vis_m": 9999,
      "fzfg": false,
      "metar_trigger": false,
      "taf_trigger": false,
      "metar": "METAR UBBB 111730Z 17004KT 9999 BKN013 OVC038 04/03 Q1017 NOSIG",
      "taf": "TAF UBBB 111702Z 1118/1218 16005KT 9999 SCT012 BKN030 TX07/1210Z TN00/1201Z"
    },
    {
      "icao": "UDSG",
      "alert": "OK",
      "vis_m": 4400,
      "fzfg": false,
      "metar_trigger": false,
      "taf_trigger": false,
      "metar": "METAR UDSG 111730Z 17002KT 4400 BR OVC016 M01/M01 Q1013 NOSIG",
      "taf": "TAF UDSG 111658Z 1118/1218 VRB06KT 3000 BR OVC020"
    },
    {
      "icao": "UDYZ",
      "alert": "OK",
      "vis_m": 8000,
      "fzfg": false,
      "metar_trigger": false,
      "taf_trigger": false,
      "metar": "METAR UDYZ 111730Z VRB01KT 8000 -RA BKN016 03/02 Q1014 NOSIG",
      "taf": "TAF UDYZ 111700Z 1118/1218 VRB04KT 6000 BKN020"
    },
    {
      "icao": "UGKO",
      "alert": "OK",
      "vis_m": 9999,
      "fzfg": false,
      "metar_trigger": false,
      "taf_trigger": false,
      "metar": "METAR UGKO 111730Z 09015KT 9999 -RA BKN059 05/01 Q1013 NOSIG",
      "taf": "TAF UGKO 111700Z 1118/1218 08015KT 9999 BKN050 TX17/1211Z TN04/1202Z"
    }
  ]
}