{
  "ts_utc": "2026-01-22T19:13:43Z",
  "threshold_m": 150,
  "source": "stations_override.txt (ICAO list) + aviationweather.gov (METAR/TAF raw)",
  "station_count": 159,
  "stations": [
    {
      "icao": "BIKF",
      "alert": "OK",
      "vis_m": 9999,
      "fzfg": false,
      "metar_trigger": false,
      "taf_trigger": false,
      "metar": "METAR BIKF 221900Z 09025KT 9999 SCT025 BKN043 08/05 Q0985",
      "taf": "TAF BIKF 221659Z 2218/2318 07020KT 9999 SCT020 BKN030 TX08/2220Z TN03/2318Z"
    },
    {
      "icao": "BKPR",
      "alert": "OK",
      "vis_m": 9999,
      "fzfg": false,
      "metar_trigger": false,
      "taf_trigger": false,
      "metar": "METAR BKPR 221900Z 29002KT CAVOK 01/M01 Q1002 NOSIG",
      "taf": "TAF BKPR 221730Z 2218/2318 VRB03KT 9999 BKN040"
    },
    {
      "icao": "EBCI",
      "alert": "OK",
      "vis_m": 9999,
      "fzfg": false,
      "metar_trigger": false,
      "taf_trigger": false,
      "metar": "METAR EBCI 221850Z 16010KT 9999 BKN045 07/04 Q0993 NOSIG",
      "taf": "TAF EBCI 221720Z 2218/2324 16007KT 9999 BKN030"
    },
    {
      "icao": "EDDB",
      "alert": "OK",
      "vis_m": 7000,
      "fzfg": false,
      "metar_trigger": false,
      "taf_trigger": false,
      "metar": "METAR EDDB 221850Z AUTO 08003KT 7000 NCD M05/M07 Q1003 NOSIG",
      "taf": "TAF EDDB 221700Z 2218/2318 08006KT CAVOK"
    },
    {
      "icao": "EDDH",
      "alert": "OK",
      "vis_m": 9999,
      "fzfg": false,
      "metar_trigger": false,
      "taf_trigger": false,
      "metar": "METAR EDDH 221850Z AUTO 08008KT CAVOK M03/M05 Q1002 NOSIG",
      "taf": "TAF EDDH 221700Z 2218/2324 09010KT CAVOK"
    },
    {
      "icao": "EDDK",
      "alert": "OK",
      "vis_m": 9999,
      "fzfg": false,
      "metar_trigger": false,
      "taf_trigger": false,
      "metar": "METAR EDDK 221850Z AUTO 12009KT 9999 -SHRA OVC048 FEW///TCU 04/M03 Q0997 NOSIG",
      "taf": "TAF EDDK 221700Z 2218/2324 12009KT 9999 BKN030"
    },
    {
      "icao": "EDDN",
      "alert": "OK",
      "vis_m": 8000,
      "fzfg": false,
      "metar_trigger": false,
      "taf_trigger": false,
      "metar": "METAR EDDN 221850Z AUTO 12008KT 8000 OVC011 M07/M10 Q1001 NOSIG",
      "taf": "TAF EDDN 221700Z 2218/2318 13007KT 9999 OVC012"
    },
    {
      "icao": "EDDS",
      "alert": "OK",
      "vis_m": 7000,
      "fzfg": false,
      "metar_trigger": false,
      "taf_trigger": false,
      "metar": "METAR EDDS 221850Z AUTO 10003KT 070V150 7000 NSC M01/M04 Q0997 NOSIG",
      "taf": "TAF EDDS 221700Z 2218/2318 VRB03KT CAVOK"
    },
    {
      "icao": "EDFH",
      "alert": "OK",
      "vis_m": 5000,
      "fzfg": false,
      "metar_trigger": false,
      "taf_trigger": false,
      "metar": "METAR EDFH 221850Z COR 14014KT 5000 BR FEW009 OVC019 M01/M02 Q0996 REFZRA",
      "taf": "TAF EDFH 221700Z 2218/2318 14014KT 9999 BKN014"
    },
    {
      "icao": "EDJA",
      "alert": "OK",
      "vis_m": 350,
      "fzfg": true,
      "metar_trigger": false,
      "taf_trigger": false,
      "metar": "METAR EDJA 221850Z VRB02KT 0350 R06/0450N FZFG VV/// M03/M04 Q0998",
      "taf": "TAF EDJA 221700Z 2218/2303 VRB03KT 0300 FZFG VV001"
    },
    {
      "icao": "EDLW",
      "alert": "OK",
      "vis_m": 9999,
      "fzfg": false,
      "metar_trigger": false,
      "taf_trigger": false,
      "metar": "METAR EDLW 221850Z 01003KT 280V040 CAVOK M00/M04 Q0996",
      "taf": "TAF EDLW 221700Z 2218/2318 11006KT 9999 SCT040"
    },
    {
      "icao": "EDNY",
      "alert": "OK",
      "vis_m": 5000,
      "fzfg": false,
      "metar_trigger": false,
      "taf_trigger": false,
      "metar": "METAR EDNY 221850Z 09003KT 060V140 5000 BR OVC004 M01/M01 Q0999",
      "taf": "TAF EDNY 221700Z 2218/2303 VRB03KT 5000 BR OVC005"
    },
    {
      "icao": "EDSB",
      "alert": "OK",
      "vis_m": 2500,
      "fzfg": false,
      "metar_trigger": false,
      "taf_trigger": false,
      "metar": "METAR EDSB 221850Z VRB02KT 2500 BR OVC002 M01/M01 Q0999",
      "taf": "TAF EDSB 221700Z 2218/2318 VRB02KT 3000 BR OVC005"
    },
    {
      "icao": "EETN",
      "alert": "OK",
      "vis_m": 9999,
      "fzfg": false,
      "metar_trigger": false,
      "taf_trigger": false,
      "metar": "METAR EETN 221850Z 09008KT 9999 OVC018 M09/M11 Q1024 NOSIG",
      "taf": "TAF EETN 221730Z 2218/2318 09010KT 9999 BKN012 OVC020"
    },
    {
      "icao": "EFTU",
      "alert": "OK",
      "vis_m": 9999,
      "fzfg": false,
      "metar_trigger": false,
      "taf_trigger": false,
      "metar": "METAR EFTU 221850Z AUTO 07007KT 9999 OVC020 M07/M10 Q1025",
      "taf": "TAF EFTU 221728Z 2218/2318 10012KT 9999 OVC015"
    },
    {
      "icao": "EGBB",
      "alert": "OK",
      "vis_m": 9999,
      "fzfg": false,
      "metar_trigger": false,
      "taf_trigger": false,
      "metar": "METAR EGBB 221850Z COR 10009KT 9999 -DZ BKN009 08/06 Q0984",
      "taf": "TAF EGBB 221655Z 2218/2318 12012KT 9999 BKN010"
    },
    {
      "icao": "EGGP",
      "alert": "OK",
      "vis_m": 9999,
      "fzfg": false,
      "metar_trigger": false,
      "taf_trigger": false,
      "metar": "METAR EGGP 221850Z 10012KT 9999 OVC011 07/05 Q0984",
      "taf": "TAF EGGP 221656Z 2218/2318 12012KT 9999 BKN016"
    },
    {
      "icao": "EGGW",
      "alert": "OK",
      "vis_m": 9999,
      "fzfg": false,
      "metar_trigger": false,
      "taf_trigger": false,
      "metar": "METAR EGGW 221850Z AUTO 15008KT 9999 BKN005 OVC008 07/07 Q0984",
      "taf": "TAF EGGW 221657Z 2218/2318 12010KT 9999 SCT020"
    },
    {
      "icao": "EGKK",
      "alert": "OK",
      "vis_m": 9999,
      "fzfg": false,
      "metar_trigger": false,
      "taf_trigger": false,
      "metar": "METAR EGKK 221850Z 19010KT 150V210 9999 BKN011 09/08 Q0985",
      "taf": "TAF EGKK 221654Z 2218/2324 13008KT 9999 SCT015"
    },
    {
      "icao": "EGNM",
      "alert": "OK",
      "vis_m": 1400,
      "fzfg": false,
      "metar_trigger": false,
      "taf_trigger": false,
      "metar": "METAR EGNM 221850Z 08012KT 1400 R14/P1500N -RA BR OVC002 04/04 Q0987",
      "taf": "TAF EGNM 221657Z 2218/2318 12012KT 6000 BKN008"
    },
    {
      "icao": "EGPD",
      "alert": "OK",
      "vis_m": 9999,
      "fzfg": false,
      "metar_trigger": false,
      "taf_trigger": false,
      "metar": "METAR EGPD 221850Z AUTO 12018G30KT 9999 OVC015 05/02 Q0996 TEMPO BKN012",
      "taf": "TAF EGPD 221656Z 2218/2318 13019G33KT 9999 BKN016"
    },
    {
      "icao": "EGPF",
      "alert": "OK",
      "vis_m": 8000,
      "fzfg": false,
      "metar_trigger": false,
      "taf_trigger": false,
      "metar": "METAR EGPF 221850Z AUTO 08017KT 8000 -RA OVC013/// //////TCU 05/04 Q0988",
      "taf": "TAF EGPF 221700Z 2218/2318 08011KT 9999 FEW012 BKN025"
    },
    {
      "icao": "EHBK",
      "alert": "OK",
      "vis_m": 9999,
      "fzfg": false,
      "metar_trigger": false,
      "taf_trigger": false,
      "metar": "METAR EHBK 221855Z AUTO 15008KT 9999 OVC034/// 06/03 Q0995 NOSIG",
      "taf": "TAF EHBK 221719Z 2218/2324 16005KT 9999 BKN045"
    },
    {
      "icao": "EHEH",
      "alert": "OK",
      "vis_m": 9999,
      "fzfg": false,
      "metar_trigger": false,
      "taf_trigger": false,
      "metar": "METAR EHEH 221855Z AUTO 12006KT 080V190 9999 SCT028 OVC036 05/M01 Q0994 BLU NOSIG",
      "taf": "TAF EHEH 221716Z 2218/2324 11005KT 9999 SCT030"
    },
    {
      "icao": "EKBI",
      "alert": "OK",
      "vis_m": 9000,
      "fzfg": false,
      "metar_trigger": false,
      "taf_trigger": false,
      "metar": "METAR EKBI 221850Z 08017KT 9000 -SN BKN014 M00/M03 Q1005",
      "taf": "TAF EKBI 221727Z 2218/2318 08015KT 9999 OVC020"
    },
    {
      "icao": "EKCH",
      "alert": "OK",
      "vis_m": 9999,
      "fzfg": false,
      "metar_trigger": false,
      "taf_trigger": false,
      "metar": "METAR EKCH 221850Z AUTO 08017KT 9999 OVC018/// 01/M03 Q1008 NOSIG",
      "taf": "TAF EKCH 221727Z 2218/2318 09020G30KT 9999 BKN020"
    },
    {
      "icao": "ENAL",
      "alert": "OK",
      "vis_m": 9999,
      "fzfg": false,
      "metar_trigger": false,
      "taf_trigger": false,
      "metar": "METAR ENAL 221850Z 12012KT CAVOK 04/M10 Q1012",
      "taf": "TAF ENAL 221700Z 2218/2303 12012KT CAVOK"
    },
    {
      "icao": "ENBR",
      "alert": "OK",
      "vis_m": 9999,
      "fzfg": false,
      "metar_trigger": false,
      "taf_trigger": false,
      "metar": "METAR ENBR 221850Z 07002KT CAVOK M04/M08 Q1010 NOSIG RMK WIND 1200FT 10007KT",
      "taf": "TAF ENBR 221700Z 2218/2318 07005KT CAVOK"
    },
    {
      "icao": "ENGM",
      "alert": "OK",
      "vis_m": 9999,
      "fzfg": false,
      "metar_trigger": false,
      "taf_trigger": false,
      "metar": "METAR ENGM 221850Z 09007KT 050V120 9999 -SN SCT024 OVC030 M04/M09 Q1020 NOSIG",
      "taf": ""
    },
    {
      "icao": "ENHD",
      "alert": "OK",
      "vis_m": 9999,
      "fzfg": false,
      "metar_trigger": false,
      "taf_trigger": false,
      "metar": "METAR ENHD 221850Z 09008KT CAVOK 01/M09 Q1010",
      "taf": "TAF ENHD 221400Z 2215/2223 10012KT CAVOK"
    },
    {
      "icao": "ENTC",
      "alert": "OK",
      "vis_m": 9999,
      "fzfg": false,
      "metar_trigger": false,
      "taf_trigger": false,
      "metar": "METAR ENTC 221850Z 08003KT 060V160 CAVOK M10/M11 Q1024 NOSIG RMK WIND 2600FT 14003KT",
      "taf": "TAF ENTC 221700Z 2218/2318 VRB02KT 9999 FEW005"
    },
    {
      "icao": "ENTO",
      "alert": "OK",
      "vis_m": 9999,
      "fzfg": false,
      "metar_trigger": false,
      "taf_trigger": false,
      "metar": "METAR ENTO 221850Z 04012KT 9999 OVC026 M02/M06 Q1018 NOSIG",
      "taf": "TAF ENTO 221700Z 2218/2318 04012KT 9999 BKN020"
    },
    {
      "icao": "ENVA",
      "alert": "OK",
      "vis_m": 9999,
      "fzfg": false,
      "metar_trigger": false,
      "taf_trigger": false,
      "metar": "METAR ENVA 221850Z 11010KT CAVOK M03/M09 Q1020 NOSIG RMK WIND 670FT 12016KT",
      "taf": "TAF ENVA 221700Z 2218/2318 11010KT CAVOK"
    },
    {
      "icao": "ENZV",
      "alert": "OK",
      "vis_m": 9999,
      "fzfg": false,
      "metar_trigger": false,
      "taf_trigger": false,
      "metar": "METAR ENZV 221850Z 10019KT CAVOK 00/M09 Q1010 TEMPO 10019G29KT",
      "taf": ""
    },
    {
      "icao": "EPGD",
      "alert": "OK",
      "vis_m": 6000,
      "fzfg": false,
      "metar_trigger": false,
      "taf_trigger": false,
      "metar": "METAR EPGD 221900Z 10006KT 6000 NSC M12/M14 Q1009",
      "taf": "TAF EPGD 221730Z 2218/2318 09010KT 6000 NSC"
    },
    {
      "icao": "EPKK",
      "alert": "OK",
      "vis_m": 5000,
      "fzfg": false,
      "metar_trigger": false,
      "taf_trigger": false,
      "metar": "METAR EPKK 221900Z 06005KT 5000 HZ SCT056 M03/M08 Q1003",
      "taf": "TAF EPKK 221730Z 2218/2318 07004KT 5000 BR OVC055"
    },
    {
      "icao": "EPKT",
      "alert": "OK",
      "vis_m": 5000,
      "fzfg": false,
      "metar_trigger": false,
      "taf_trigger": false,
      "metar": "METAR EPKT 221900Z 08005KT 5000 HZ FEW046 M02/M07 Q1002",
      "taf": "TAF EPKT 221730Z 2218/2318 09004KT 7000 NSC"
    },
    {
      "icao": "EPLB",
      "alert": "OK",
      "vis_m": 3800,
      "fzfg": false,
      "metar_trigger": false,
      "taf_trigger": false,
      "metar": "METAR EPLB 221900Z 07009KT 3800 BR OVC003 M11/M11 Q1008",
      "taf": "TAF EPLB 221730Z 2218/2318 08008KT 2000 BR BKN002"
    },
    {
      "icao": "EPMO",
      "alert": "OK",
      "vis_m": 6000,
      "fzfg": false,
      "metar_trigger": false,
      "taf_trigger": false,
      "metar": "METAR EPMO 221900Z 08014KT 6000 OVC008 M11/M12 Q1009",
      "taf": "TAF EPMO 221730Z 2218/2318 08012KT 6000 NSC"
    },
    {
      "icao": "EPPO",
      "alert": "OK",
      "vis_m": 6000,
      "fzfg": false,
      "metar_trigger": false,
      "taf_trigger": false,
      "metar": "METAR EPPO 221900Z 09011KT 6000 NSC M06/M10 Q1004",
      "taf": "TAF EPPO 221730Z 2218/2318 09007KT CAVOK"
    },
    {
      "icao": "EPRA",
      "alert": "OK",
      "vis_m": 6000,
      "fzfg": false,
      "metar_trigger": false,
      "taf_trigger": false,
      "metar": "METAR EPRA 221900Z 07008KT 6000 OVC004 M11/M13 Q1007",
      "taf": "TAF EPRA 221730Z 2218/2303 09010KT 7000 OVC007"
    },
    {
      "icao": "EPRZ",
      "alert": "OK",
      "vis_m": 5000,
      "fzfg": false,
      "metar_trigger": false,
      "taf_trigger": false,
      "metar": "METAR EPRZ 221900Z 08011KT 5000 BR NSC M09/M13 Q1005",
      "taf": "TAF EPRZ 221730Z 2218/2318 09009KT 5000 BR NSC"
    },
    {
      "icao": "EPSC",
      "alert": "OK",
      "vis_m": 8000,
      "fzfg": false,
      "metar_trigger": false,
      "taf_trigger": false,
      "metar": "METAR EPSC 221900Z 07005KT 8000 NSC M04/M08 Q1005",
      "taf": "TAF EPSC 221730Z 2218/2318 04004KT 5000 BR NSC"
    },
    {
      "icao": "EPSY",
      "alert": "OK",
      "vis_m": 5000,
      "fzfg": false,
      "metar_trigger": false,
      "taf_trigger": false,
      "metar": "METAR EPSY 221900Z 10008KT 050V140 5000 -SN BR BKN005 OVC009 M13/M15 Q1011",
      "taf": "TAF EPSY 221730Z 2218/2303 09008KT 6000 SCT014"
    },
    {
      "icao": "EPWA",
      "alert": "OK",
      "vis_m": 8000,
      "fzfg": false,
      "metar_trigger": false,
      "taf_trigger": false,
      "metar": "METAR EPWA 221900Z 08010KT 8000 OVC007 M11/M12 Q1009 BECMG 4500 BR",
      "taf": "TAF EPWA 221730Z 2218/2318 08010KT 7000 SCT012"
    },
    {
      "icao": "EPWR",
      "alert": "OK",
      "vis_m": 9999,
      "fzfg": false,
      "metar_trigger": false,
      "taf_trigger": false,
      "metar": "METAR EPWR 221900Z 09003KT CAVOK M04/M07 Q1002",
      "taf": "TAF EPWR 221730Z 2218/2318 10005KT CAVOK"
    },
    {
      "icao": "ESGG",
      "alert": "OK",
      "vis_m": 9999,
      "fzfg": false,
      "metar_trigger": false,
      "taf_trigger": false,
      "metar": "METAR ESGG 221850Z 07016KT 9999 OVC022 M01/M05 Q1011",
      "taf": "TAF ESGG 221730Z 2218/2318 07015G25KT 9999 BKN020"
    },
    {
      "icao": "ESKN",
      "alert": "OK",
      "vis_m": 5000,
      "fzfg": false,
      "metar_trigger": false,
      "taf_trigger": false,
      "metar": "METAR ESKN 221850Z 07010KT 5000 -SN BLSN SCT006 BKN013 M03/M04 Q1019",
      "taf": "TAF ESKN 221730Z 2218/2318 07012KT 9000 -SN SCT009 OVC020"
    },
    {
      "icao": "ESMS",
      "alert": "OK",
      "vis_m": 9000,
      "fzfg": false,
      "metar_trigger": false,
      "taf_trigger": false,
      "metar": "METAR ESMS 221850Z 08022KT 9000 OVC016 00/M03 Q1007",
      "taf": "TAF ESMS 221727Z 2218/2318 08015KT 9000 BKN020"
    },
    {
      "icao": "ESSA",
      "alert": "OK",
      "vis_m": 9999,
      "fzfg": false,
      "metar_trigger": false,
      "taf_trigger": false,
      "metar": "METAR ESSA 221850Z 08011KT 9999 -SN BKN019 M03/M06 Q1021 NOSIG",
      "taf": "TAF ESSA 221730Z 2218/2318 08012KT 9999 OVC015"
    },
    {
      "icao": "EYKA",
      "alert": "OK",
      "vis_m": 9999,
      "fzfg": false,
      "metar_trigger": false,
      "taf_trigger": false,
      "metar": "METAR EYKA 221850Z 09012KT 9999 OVC013 M07/M10 Q1016",
      "taf": "TAF EYKA 221700Z 2218/2318 10012KT 9000 BKN015"
    },
    {
      "icao": "EYPA",
      "alert": "OK",
      "vis_m": 9999,
      "fzfg": false,
      "metar_trigger": false,
      "taf_trigger": false,
      "metar": "METAR EYPA 221850Z 10011KT 070V130 9999 OVC016 M05/M08 Q1015",
      "taf": "TAF EYPA 221700Z 2218/2318 10012KT 9000 OVC015"
    },
    {
      "icao": "EYVI",
      "alert": "OK",
      "vis_m": 9999,
      "fzfg": false,
      "metar_trigger": false,
      "taf_trigger": false,
      "metar": "METAR EYVI 221850Z 10012KT 080V140 9999 -SN OVC011 M09/M11 Q1016 NOSIG",
      "taf": "TAF EYVI 221700Z 2218/2318 10012KT 9000 BKN010"
    },
    {
      "icao": "GCFV",
      "alert": "OK",
      "vis_m": 9999,
      "fzfg": false,
      "metar_trigger": false,
      "taf_trigger": false,
      "metar": "METAR GCFV 221900Z 31007KT 180V340 9999 FEW015 SCT025 BKN040 19/16 Q1019",
      "taf": "TAF GCFV 221400Z 2215/2315 31008KT 9999 SCT025 TX22/2314Z TN16/2306Z"
    },
    {
      "icao": "GCLP",
      "alert": "OK",
      "vis_m": 9999,
      "fzfg": false,
      "metar_trigger": false,
      "taf_trigger": false,
      "metar": "METAR GCLP 221900Z VRB02KT 9999 FEW025 SCT035 19/15 Q1019 NOSIG",
      "taf": "TAF GCLP 221400Z 2215/2315 36010KT 9999 FEW025 TX23/2314Z TN15/2306Z"
    },
    {
      "icao": "GCTS",
      "alert": "OK",
      "vis_m": 9999,
      "fzfg": false,
      "metar_trigger": false,
      "taf_trigger": false,
      "metar": "METAR GCTS 221900Z 07008KT 9999 FEW025 19/14 Q1019 WS R07 NOSIG",
      "taf": "TAF GCTS 221400Z 2215/2315 16008KT 9999 SCT025 TX23/2314Z TN15/2306Z"
    },
    {
      "icao": "GMAD",
      "alert": "OK",
      "vis_m": 8000,
      "fzfg": false,
      "metar_trigger": false,
      "taf_trigger": false,
      "metar": "METAR GMAD 221900Z COR 24008KT 8000 SCT009 SCT016 15/15 Q1017 NOSIG",
      "taf": "TAF GMAD 221700Z 2218/2324 24008KT 8000 SCT008 BKN016"
    },
    {
      "icao": "GMMN",
      "alert": "OK",
      "vis_m": 9999,
      "fzfg": false,
      "metar_trigger": false,
      "taf_trigger": false,
      "metar": "METAR GMMN 221900Z 23006KT 9999 FEW020 13/11 Q1015 NOSIG",
      "taf": "TAF GMMN 221700Z 2218/2324 27010KT 8000 BKN020"
    },
    {
      "icao": "GMMX",
      "alert": "OK",
      "vis_m": 9999,
      "fzfg": false,
      "metar_trigger": false,
      "taf_trigger": false,
      "metar": "METAR GMMX 221900Z 28009KT 9999 BKN026 15/12 Q1016 NOSIG",
      "taf": "TAF GMMX 221700Z 2218/2324 24014KT 8000 SCT020 SCT080"
    },
    {
      "icao": "HEGN",
      "alert": "OK",
      "vis_m": 9999,
      "fzfg": false,
      "metar_trigger": false,
      "taf_trigger": false,
      "metar": "METAR HEGN 221800Z 30008KT CAVOK 22/17 Q1013 NOSIG",
      "taf": "TAF HEGN 221700Z 2218/2324 12012KT CAVOK"
    },
    {
      "icao": "HEMA",
      "alert": "OK",
      "vis_m": 9999,
      "fzfg": false,
      "metar_trigger": false,
      "taf_trigger": false,
      "metar": "METAR HEMA 221800Z 17006KT CAVOK 22/18 Q1011 NOSIG",
      "taf": "TAF HEMA 221700Z 2218/2324 15012KT CAVOK"
    },
    {
      "icao": "HESH",
      "alert": "OK",
      "vis_m": 9999,
      "fzfg": false,
      "metar_trigger": false,
      "taf_trigger": false,
      "metar": "METAR HESH 221800Z 35009KT CAVOK 22/13 Q1013 NOSIG",
      "taf": "TAF HESH 221700Z 2218/2324 35012KT CAVOK"
    },
    {
      "icao": "HESX",
      "alert": "OK",
      "vis_m": 9999,
      "fzfg": false,
      "metar_trigger": false,
      "taf_trigger": false,
      "metar": "METAR HESX 221800Z 31012KT CAVOK 18/03 Q1010 NOSIG",
      "taf": "TAF HESX 221700Z 2218/2324 22008KT 6000 SCT025 OVC070"
    },
    {
      "icao": "LATI",
      "alert": "OK",
      "vis_m": 9999,
      "fzfg": false,
      "metar_trigger": false,
      "taf_trigger": false,
      "metar": "METAR LATI 221850Z 15003KT 110V170 9999 BKN060 09/07 Q1001 NOSIG",
      "taf": "TAF LATI 221700Z 2218/2318 VRB05KT 9999 SCT040 BKN070 TX14/2312Z TN05/2305Z"
    },
    {
      "icao": "LBPD",
      "alert": "OK",
      "vis_m": 7000,
      "fzfg": false,
      "metar_trigger": false,
      "taf_trigger": false,
      "metar": "METAR LBPD 221900Z AUTO 20003KT 7000 NCD M01/M01 Q1004 TEMPO 4000 BR SCT015",
      "taf": "TAF LBPD 221700Z 2218/2318 VRB03KT 3000 BR SCT050"
    },
    {
      "icao": "LBSF",
      "alert": "OK",
      "vis_m": 9000,
      "fzfg": false,
      "metar_trigger": false,
      "taf_trigger": false,
      "metar": "METAR LBSF 221900Z AUTO VRB02KT 9000 SCT017/// OVC020/// 01/M00 Q1003 TEMPO 5000 BR",
      "taf": "TAF LBSF 221700Z 2218/2318 VRB03KT 6000 SCT010 BKN015 OVC020"
    },
    {
      "icao": "LBWN",
      "alert": "OK",
      "vis_m": 5000,
      "fzfg": false,
      "metar_trigger": false,
      "taf_trigger": false,
      "metar": "METAR LBWN 221900Z AUTO 33002KT 5000 BR BKN020/// 03/03 Q1003 TEMPO 3000 BR",
      "taf": "TAF LBWN 221700Z 2218/2318 VRB04KT 8000 SCT015 BKN040"
    },
    {
      "icao": "LCLK",
      "alert": "OK",
      "vis_m": 6000,
      "fzfg": false,
      "metar_trigger": false,
      "taf_trigger": false,
      "metar": "METAR LCLK 221900Z 03011KT 350V050 6000 -RA FEW002 SCT014 BKN022 13/11 Q1012 NOSIG",
      "taf": "TAF LCLK 221730Z 2218/2318 04015KT 9999 SCT020"
    },
    {
      "icao": "LCPH",
      "alert": "OK",
      "vis_m": 9999,
      "fzfg": false,
      "metar_trigger": false,
      "taf_trigger": false,
      "metar": "METAR LCPH 221900Z 15022KT 090V160 9999 -RA FEW030 SCT060 15/11 Q1008 NOSIG",
      "taf": "TAF LCPH 221730Z 2218/2318 13015KT 9999 SCT020"
    },
    {
      "icao": "LEAL",
      "alert": "OK",
      "vis_m": 9999,
      "fzfg": false,
      "metar_trigger": false,
      "taf_trigger": false,
      "metar": "METAR LEAL 221900Z 22007KT 190V250 CAVOK 13/03 Q1006 NOSIG",
      "taf": "TAF LEAL 221700Z 2218/2318 29015KT 9999 SCT040 TX19/2313Z TN09/2306Z"
    },
    {
      "icao": "LEBB",
      "alert": "OK",
      "vis_m": 9999,
      "fzfg": false,
      "metar_trigger": false,
      "taf_trigger": false,
      "metar": "METAR LEBB 221900Z 17009G19KT 110V250 9999 FEW040 13/02 Q0995 NOSIG",
      "taf": "TAF LEBB 221700Z 2218/2318 20009KT 9999 FEW040 TX12/2218Z TN08/2307Z"
    },
    {
      "icao": "LEBL",
      "alert": "OK",
      "vis_m": 9999,
      "fzfg": false,
      "metar_trigger": false,
      "taf_trigger": false,
      "metar": "METAR LEBL 221900Z 32005KT 270V350 9999 FEW048 11/07 Q1001 NOSIG",
      "taf": "TAF LEBL 221700Z 2218/2318 34006KT 9999 FEW030 TX15/2313Z TN05/2303Z"
    },
    {
      "icao": "LECH",
      "alert": "OK",
      "vis_m": 9999,
      "fzfg": false,
      "metar_trigger": false,
      "taf_trigger": false,
      "metar": "METAR LECH 221900Z AUTO 29006KT CAVOK 10/M00 Q1002",
      "taf": ""
    },
    {
      "icao": "LEMD",
      "alert": "OK",
      "vis_m": 9999,
      "fzfg": false,
      "metar_trigger": false,
      "taf_trigger": false,
      "metar": "METAR LEMD 221900Z 22013KT 190V250 9999 DZ SCT037 BKN045 OVC066 06/04 Q1004 NOSIG",
      "taf": ""
    },
    {
      "icao": "LEMG",
      "alert": "OK",
      "vis_m": 9999,
      "fzfg": false,
      "metar_trigger": false,
      "taf_trigger": false,
      "metar": "METAR LEMG 221900Z 31003KT 280V350 9999 FEW040 SCT055 13/07 Q1010 NOSIG",
      "taf": "TAF LEMG 221700Z 2218/2318 VRB03KT 9999 SCT040 TX17/2314Z TN10/2307Z"
    },
    {
      "icao": "LEVC",
      "alert": "OK",
      "vis_m": 9999,
      "fzfg": false,
      "metar_trigger": false,
      "taf_trigger": false,
      "metar": "METAR LEVC 221900Z 26014KT 9999 FEW025 12/04 Q1004 NOSIG",
      "taf": "TAF LEVC 221700Z 2218/2318 27010KT 9999 SCT040 TX16/2313Z TN07/2305Z"
    },
    {
      "icao": "LEXJ",
      "alert": "OK",
      "vis_m": 9999,
      "fzfg": false,
      "metar_trigger": false,
      "taf_trigger": false,
      "metar": "METAR LEXJ 221900Z 20021G33KT 140V250 9999 SCT084 13/03 Q0992",
      "taf": "TAF LEXJ 221400Z 2215/2315 24009KT 9999 SCT040 TX13/2215Z TN08/2306Z"
    },
    {
      "icao": "LEZG",
      "alert": "OK",
      "vis_m": 9999,
      "fzfg": false,
      "metar_trigger": false,
      "taf_trigger": false,
      "metar": "METAR LEZG 221900Z 21006KT 9999 FEW070 08/03 Q1001 NOSIG",
      "taf": "TAF LEZG 221700Z 2218/2318 28008KT 9999 FEW040 TX13/2315Z TN05/2306Z"
    },
    {
      "icao": "LEZL",
      "alert": "OK",
      "vis_m": 9000,
      "fzfg": false,
      "metar_trigger": false,
      "taf_trigger": false,
      "metar": "METAR LEZL 221900Z 22007KT 200V260 9000 -RA SCT015 BKN020 OVC040 13/13 Q1009 NOSIG",
      "taf": "TAF LEZL 221400Z 2215/2315 22010KT 9999 SCT030 TX15/2215Z TN08/2307Z"
    },
    {
      "icao": "LFBD",
      "alert": "OK",
      "vis_m": 9999,
      "fzfg": false,
      "metar_trigger": false,
      "taf_trigger": false,
      "metar": "METAR LFBD 221900Z AUTO 17008KT CAVOK 08/07 Q0996 TEMPO 25015G25KT 3000 SHRA FEW020CB BKN035TCU",
      "taf": "TAF LFBD 221700Z 2218/2324 19005KT CAVOK TX10/2314Z TN06/2223Z"
    },
    {
      "icao": "LFLL",
      "alert": "OK",
      "vis_m": 9999,
      "fzfg": false,
      "metar_trigger": false,
      "taf_trigger": false,
      "metar": "METAR LFLL 221900Z 16006KT CAVOK 07/04 Q0998 NOSIG",
      "taf": "TAF LFLL 221700Z 2218/2324 16005KT CAVOK"
    },
    {
      "icao": "LFLS",
      "alert": "OK",
      "vis_m": 6000,
      "fzfg": false,
      "metar_trigger": false,
      "taf_trigger": false,
      "metar": "METAR LFLS 221900Z AUTO 07005KT 6000 NSC 02/02 Q0998 TEMPO 3000 BR",
      "taf": "TAF LFLS 221400Z 2215/2315 09004KT CAVOK"
    },
    {
      "icao": "LFMN",
      "alert": "OK",
      "vis_m": 9999,
      "fzfg": false,
      "metar_trigger": false,
      "taf_trigger": false,
      "metar": "METAR LFMN 221900Z 33007KT 9999 OVC050 08/05 Q1000 NOSIG",
      "taf": "TAF LFMN 221400Z 2215/2321 34010KT 9999 FEW040 BKN050"
    },
    {
      "icao": "LFOB",
      "alert": "OK",
      "vis_m": 9999,
      "fzfg": false,
      "metar_trigger": false,
      "taf_trigger": false,
      "metar": "METAR LFOB 221900Z AUTO 13005KT 9999 SCT032 BKN052 05/04 Q0992 NOSIG",
      "taf": "TAF LFOB 221700Z 2218/2318 15010KT 9999 SCT025"
    },
    {
      "icao": "LFPO",
      "alert": "OK",
      "vis_m": 9999,
      "fzfg": false,
      "metar_trigger": false,
      "taf_trigger": false,
      "metar": "METAR LFPO 221900Z 19007KT 9999 -SHRA SCT040 BKN100 08/07 Q0993 NOSIG",
      "taf": ""
    },
    {
      "icao": "LFSB",
      "alert": "OK",
      "vis_m": 9999,
      "fzfg": false,
      "metar_trigger": false,
      "taf_trigger": false,
      "metar": "METAR LFSB 221900Z AUTO 18004KT CAVOK 02/M00 Q0998 NOSIG",
      "taf": "TAF LFSB 221700Z 2218/2318 16005KT CAVOK"
    },
    {
      "icao": "LGAV",
      "alert": "OK",
      "vis_m": 8000,
      "fzfg": false,
      "metar_trigger": false,
      "taf_trigger": false,
      "metar": "METAR LGAV 221850Z VRB03KT 8000 -RA FEW020TCU BKN030 OVC070 11/08 Q1003 NOSIG",
      "taf": "TAF LGAV 221700Z 2218/2318 20010KT 9999 FEW015 SCT025 BKN070"
    },
    {
      "icao": "LGTS",
      "alert": "OK",
      "vis_m": 9999,
      "fzfg": false,
      "metar_trigger": false,
      "taf_trigger": false,
      "metar": "METAR LGTS 221850Z 00000KT 9999 SCT010 BKN025 08/08 Q1004 NOSIG",
      "taf": "TAF LGTS 221700Z 2218/2318 VRB03KT 8000 FEW010 BKN030"
    },
    {
      "icao": "LHBP",
      "alert": "OK",
      "vis_m": 9000,
      "fzfg": false,
      "metar_trigger": false,
      "taf_trigger": false,
      "metar": "METAR LHBP 221900Z 05002KT 9000 SCT008 OVC031 M00/M02 Q1004 TEMPO 4500 -SN BKN008 OVC030",
      "taf": "TAF LHBP 221715Z 2218/2318 09006KT 8000 NSC"
    },
    {
      "icao": "LHDC",
      "alert": "OK",
      "vis_m": 7000,
      "fzfg": false,
      "metar_trigger": false,
      "taf_trigger": false,
      "metar": "METAR LHDC 221845Z AUTO 02004KT 7000 NSC 01/M03 Q1004 TEMPO 4000 -SN -PL",
      "taf": "TAF LHDC 221415Z 2215/2224 03006KT 8000 OVC045"
    },
    {
      "icao": "LIBD",
      "alert": "OK",
      "vis_m": 9999,
      "fzfg": false,
      "metar_trigger": false,
      "taf_trigger": false,
      "metar": "METAR LIBD 221850Z VRB03KT 9999 SCT035 10/09 Q1000",
      "taf": "TAF LIBD 221700Z 2218/2318 VRB05KT 9999 SCT030"
    },
    {
      "icao": "LIBG",
      "alert": "OK",
      "vis_m": 9999,
      "fzfg": false,
      "metar_trigger": false,
      "taf_trigger": false,
      "metar": "METAR LIBG 221850Z 12002KT CAVOK 10/08 Q1001",
      "taf": "TAF LIBG 221700Z 2218/2303 VRB05KT 9999 SCT020"
    },
    {
      "icao": "LIBP",
      "alert": "OK",
      "vis_m": 9999,
      "fzfg": false,
      "metar_trigger": false,
      "taf_trigger": false,
      "metar": "METAR LIBP 221850Z AUTO VRB01KT 9999 OVC025/// 09/07 Q1001",
      "taf": "TAF LIBP 221700Z 2218/2318 VRB05KT 9999 BKN020"
    },
    {
      "icao": "LIBR",
      "alert": "OK",
      "vis_m": 9999,
      "fzfg": false,
      "metar_trigger": false,
      "taf_trigger": false,
      "metar": "METAR LIBR 221850Z 30004KT 9999 BKN025 10/09 Q1001",
      "taf": "TAF LIBR 221700Z 2218/2318 VRB05KT 9999 FEW020"
    },
    {
      "icao": "LICA",
      "alert": "OK",
      "vis_m": 9999,
      "fzfg": false,
      "metar_trigger": false,
      "taf_trigger": false,
      "metar": "METAR LICA 221850Z AUTO 26003KT 9999 SCT044/// BKN067/// 12/11 Q1002",
      "taf": "TAF LICA 221700Z 2218/2318 VRB05KT 9999 BKN020"
    },
    {
      "icao": "LICC",
      "alert": "OK",
      "vis_m": 9999,
      "fzfg": false,
      "metar_trigger": false,
      "taf_trigger": false,
      "metar": "METAR LICC 221850Z 26005KT 9999 FEW040 SCT060 12/10 Q1002",
      "taf": "TAF LICC 221700Z 2218/2318 26008KT 7000 SCT030"
    },
    {
      "icao": "LICJ",
      "alert": "OK",
      "vis_m": 9999,
      "fzfg": false,
      "metar_trigger": false,
      "taf_trigger": false,
      "metar": "METAR LICJ 221850Z 17004KT CAVOK 12/07 Q1001",
      "taf": "TAF LICJ 221700Z 2218/2318 16008KT 9999 FEW030"
    },
    {
      "icao": "LIMC",
      "alert": "OK",
      "vis_m": 100,
      "fzfg": false,
      "metar_trigger": false,
      "taf_trigger": false,
      "metar": "METAR LIMC 221850Z 24003KT 210V300 0100 R35R/0325N R17L/0375N R35L/0300N FG OVC001 01/01 Q1001 NOSIG",
      "taf": ""
    },
    {
      "icao": "LIME",
      "alert": "OK",
      "vis_m": 5000,
      "fzfg": false,
      "metar_trigger": false,
      "taf_trigger": false,
      "metar": "METAR LIME 221850Z VRB01KT 5000 BR VCFG NSC 00/M00 Q1001 NOSIG",
      "taf": "TAF LIME 221700Z 2218/2318 VRB04KT 2000 BR SCT020"
    },
    {
      "icao": "LIMF",
      "alert": "OK",
      "vis_m": 5000,
      "fzfg": false,
      "metar_trigger": false,
      "taf_trigger": false,
      "metar": "METAR LIMF 221850Z 14001KT 5000 BR NSC 02/M00 Q1001",
      "taf": "TAF LIMF 221700Z 2218/2318 VRB04KT 4000 BR NSC"
    },
    {
      "icao": "LIMJ",
      "alert": "OK",
      "vis_m": 9999,
      "fzfg": false,
      "metar_trigger": false,
      "taf_trigger": false,
      "metar": "METAR LIMJ 221850Z 04009KT 330V060 9999 BKN080 08/M00 Q1000",
      "taf": "TAF LIMJ 221700Z 2218/2318 03014KT 9999 FEW040"
    },
    {
      "icao": "LIPE",
      "alert": "OK",
      "vis_m": 7000,
      "fzfg": false,
      "metar_trigger": false,
      "taf_trigger": false,
      "metar": "METAR LIPE 221850Z VRB01KT 7000 NSC 02/00 Q1001",
      "taf": "TAF LIPE 221700Z 2218/2318 VRB05KT 7000 BKN030"
    },
    {
      "icao": "LIPH",
      "alert": "OK",
      "vis_m": 9999,
      "fzfg": false,
      "metar_trigger": false,
      "taf_trigger": false,
      "metar": "METAR LIPH 221850Z VRB01KT CAVOK 02/M02 Q1001",
      "taf": "TAF LIPH 221700Z 2218/2318 VRB05KT 9999 SCT060"
    },
    {
      "icao": "LIPQ",
      "alert": "OK",
      "vis_m": 9999,
      "fzfg": false,
      "metar_trigger": false,
      "taf_trigger": false,
      "metar": "METAR LIPQ 221850Z AUTO 26003KT 9999 SCT056/// 01/M04 Q1001",
      "taf": "TAF LIPQ 221700Z 2218/2318 VRB05KT 9999 BKN050"
    },
    {
      "icao": "LIPR",
      "alert": "OK",
      "vis_m": 8000,
      "fzfg": false,
      "metar_trigger": false,
      "taf_trigger": false,
      "metar": "METAR LIPR 221850Z 22002KT 8000 BKN020 05/02 Q1002",
      "taf": "TAF LIPR 221700Z 2218/2318 VRB05KT 9999 BKN020"
    },
    {
      "icao": "LIPX",
      "alert": "OK",
      "vis_m": 9999,
      "fzfg": false,
      "metar_trigger": false,
      "taf_trigger": false,
      "metar": "METAR LIPX 221850Z VRB02KT CAVOK 01/M01 Q1001",
      "taf": "TAF LIPX 221700Z 2218/2318 VRB04KT 6000 SCT050"
    },
    {
      "icao": "LIPY",
      "alert": "OK",
      "vis_m": 9999,
      "fzfg": false,
      "metar_trigger": false,
      "taf_trigger": false,
      "metar": "METAR LIPY 221850Z AUTO 24002KT 9999 OVC024/// 07/03 Q1002",
      "taf": "TAF LIPY 221700Z 2218/2318 28006KT 9999 SCT030"
    },
    {
      "icao": "LIPZ",
      "alert": "OK",
      "vis_m": 9999,
      "fzfg": false,
      "metar_trigger": false,
      "taf_trigger": false,
      "metar": "METAR LIPZ 221850Z 23003KT 9999 SCT045 04/02 Q1002 NOSIG",
      "taf": "TAF LIPZ 221700Z 2218/2324 VRB05KT 9999 SCT050"
    },
    {
      "icao": "LIRF",
      "alert": "OK",
      "vis_m": 9999,
      "fzfg": false,
      "metar_trigger": false,
      "taf_trigger": false,
      "metar": "METAR LIRF 221850Z 09004KT CAVOK 08/05 Q1000 NOSIG",
      "taf": "TAF LIRF 221700Z 2218/2324 VRB05KT 9999 FEW040"
    },
    {
      "icao": "LIRN",
      "alert": "OK",
      "vis_m": 9999,
      "fzfg": false,
      "metar_trigger": false,
      "taf_trigger": false,
      "metar": "METAR LIRN 221850Z VRB02KT 9999 SCT060 11/06 Q1000 NOSIG",
      "taf": "TAF LIRN 221700Z 2218/2318 VRB05KT 9999 SCT050"
    },
    {
      "icao": "LIRP",
      "alert": "OK",
      "vis_m": 9999,
      "fzfg": false,
      "metar_trigger": false,
      "taf_trigger": false,
      "metar": "METAR LIRP 221845Z VRB01KT CAVOK 06/04 Q1000 NOSIG",
      "taf": "TAF LIRP 221700Z 2218/2318 VRB03KT CAVOK"
    },
    {
      "icao": "LIRZ",
      "alert": "OK",
      "vis_m": 9999,
      "fzfg": false,
      "metar_trigger": false,
      "taf_trigger": false,
      "metar": "METAR LIRZ 221850Z AUTO VRB01KT 9999 BKN048/// 08/04 Q1000",
      "taf": "TAF LIRZ 221700Z 2218/2318 VRB05KT 9999 BKN045"
    },
    {
      "icao": "LJLJ",
      "alert": "OK",
      "vis_m": 9999,
      "fzfg": false,
      "metar_trigger": false,
      "taf_trigger": false,
      "metar": "METAR LJLJ 221900Z 30002KT 9999 FEW050 M04/M06 Q1001 NOSIG",
      "taf": "TAF LJLJ 221700Z 2218/2318 12003KT 9999 FEW050"
    },
    {
      "icao": "LKMT",
      "alert": "OK",
      "vis_m": 9000,
      "fzfg": false,
      "metar_trigger": false,
      "taf_trigger": false,
      "metar": "METAR LKMT 221900Z 22005KT 9000 NSC M02/M05 Q1002 NOSIG",
      "taf": "TAF LKMT 221700Z 2218/2318 VRB02KT 9999 SCT025 OVC035"
    },
    {
      "icao": "LKPR",
      "alert": "OK",
      "vis_m": 9999,
      "fzfg": false,
      "metar_trigger": false,
      "taf_trigger": false,
      "metar": "METAR LKPR 221900Z 15005KT 110V170 9999 OVC016 M06/M08 Q1001 NOSIG",
      "taf": "TAF LKPR 221700Z 2218/2324 14006KT 9999 BKN016"
    },
    {
      "icao": "LLBG",
      "alert": "OK",
      "vis_m": 9999,
      "fzfg": false,
      "metar_trigger": false,
      "taf_trigger": false,
      "metar": "METAR LLBG 221850Z 32012KT CAVOK 20/04 Q1009 NOSIG RMK FEW120",
      "taf": "TAF LLBG 221706Z 2218/2318 13010KT CAVOK"
    },
    {
      "icao": "LMML",
      "alert": "OK",
      "vis_m": 9999,
      "fzfg": false,
      "metar_trigger": false,
      "taf_trigger": false,
      "metar": "METAR LMML 221845Z 21006KT 9999 FEW027 13/09 Q1003 NOSIG",
      "taf": "TAF LMML 221700Z 2218/2318 24015KT 9999 FEW025"
    },
    {
      "icao": "LOWW",
      "alert": "OK",
      "vis_m": 6000,
      "fzfg": false,
      "metar_trigger": false,
      "taf_trigger": false,
      "metar": "METAR LOWW 221850Z 15006KT 6000 FEW009 BKN010 M04/M06 Q1003 NOSIG",
      "taf": ""
    },
    {
      "icao": "LPFR",
      "alert": "OK",
      "vis_m": 6000,
      "fzfg": false,
      "metar_trigger": false,
      "taf_trigger": false,
      "metar": "METAR LPFR 221900Z 24018KT 6000 -RADZ BKN005 BKN012 14/13 Q1008",
      "taf": ""
    },
    {
      "icao": "LPMA",
      "alert": "OK",
      "vis_m": 9999,
      "fzfg": false,
      "metar_trigger": false,
      "taf_trigger": false,
      "metar": "METAR LPMA 221900Z VRB05KT 9999 SCT015 18/10 Q1017",
      "taf": "TAF LPMA 221700Z 2218/2318 VRB05KT 9999 SCT015"
    },
    {
      "icao": "LPPR",
      "alert": "OK",
      "vis_m": 7000,
      "fzfg": false,
      "metar_trigger": false,
      "taf_trigger": false,
      "metar": "METAR LPPR 221900Z 25008KT 210V300 7000 FEW004 SCT009 BKN017 14/13 Q0997",
      "taf": "TAF LPPR 221700Z 2218/2318 17018KT 2000 RADZ BR SCT002 BKN004"
    },
    {
      "icao": "LPPS",
      "alert": "OK",
      "vis_m": 9999,
      "fzfg": false,
      "metar_trigger": false,
      "taf_trigger": false,
      "metar": "METAR LPPS 221900Z 29014KT 9999 FEW014 17/14 Q1017",
      "taf": "TAF LPPS 221700Z 2218/2324 30015KT 9999 SCT015 SCT030"
    },
    {
      "icao": "LPPT",
      "alert": "OK",
      "vis_m": 2000,
      "fzfg": false,
      "metar_trigger": false,
      "taf_trigger": false,
      "metar": "METAR LPPT 221900Z 24017KT 2000 -RADZ BR FEW002 BKN004 15/15 Q1003",
      "taf": "TAF LPPT 221700Z 2218/2324 22015KT 5000 -RADZ BR SCT006 BKN012"
    },
    {
      "icao": "LQBK",
      "alert": "OK",
      "vis_m": 7000,
      "fzfg": false,
      "metar_trigger": false,
      "taf_trigger": false,
      "metar": "METAR LQBK 221900Z 30002KT 7000 NSC M01/M03 Q1003 NOSIG",
      "taf": "TAF LQBK 221700Z 2218/2318 VRB02KT 7000 SCT045 TX03/2313Z TNM02/2224Z"
    },
    {
      "icao": "LQSA",
      "alert": "OK",
      "vis_m": 3000,
      "fzfg": false,
      "metar_trigger": false,
      "taf_trigger": false,
      "metar": "METAR LQSA 221900Z 00000KT 3000 BR SCT055 M00/M00 Q1001 NOSIG",
      "taf": "TAF LQSA 221700Z 2218/2318 VRB02KT 4000 BR FEW010 SCT045 TX04/2314Z TNM02/2305Z"
    },
    {
      "icao": "LQTZ",
      "alert": "OK",
      "vis_m": 2500,
      "fzfg": false,
      "metar_trigger": false,
      "taf_trigger": false,
      "metar": "METAR LQTZ 221900Z 29002KT 2500 BR SCT055 BKN071 M01/M01 Q1002",
      "taf": "TAF LQTZ 221700Z 2218/2318 VRB02KT 6000 FEW005 BKN040 TX05/2313Z TNM03/2303Z"
    },
    {
      "icao": "LRBC",
      "alert": "OK",
      "vis_m": 1100,
      "fzfg": false,
      "metar_trigger": false,
      "taf_trigger": false,
      "metar": "METAR LRBC 221900Z 16005KT 1100 R16/1300N -DZ BR VV002 02/01 Q1005",
      "taf": "TAF LRBC 221700Z 2218/2303 18006KT 5000 -RADZ BR OVC010"
    },
    {
      "icao": "LRBS",
      "alert": "OK",
      "vis_m": 600,
      "fzfg": false,
      "metar_trigger": false,
      "taf_trigger": false,
      "metar": "METAR LRBS 221900Z 00000KT 0600 R07/0700N -RA FG VV001 01/01 Q1005 NOSIG",
      "taf": "TAF LRBS 221700Z 2218/2318 VRB04KT 0800 FG OVC002"
    },
    {
      "icao": "LRBV",
      "alert": "OK",
      "vis_m": 5000,
      "fzfg": false,
      "metar_trigger": false,
      "taf_trigger": false,
      "metar": "METAR LRBV 221900Z VRB02KT 5000 -SN BR SCT004 BKN009 BKN047 00/M00 Q1002",
      "taf": "TAF LRBV 221700Z 2218/2303 VRB04KT 9999 BKN025 OVC035"
    },
    {
      "icao": "LRCL",
      "alert": "OK",
      "vis_m": 2000,
      "fzfg": false,
      "metar_trigger": false,
      "taf_trigger": false,
      "metar": "METAR LRCL 221900Z 00000KT 2000 BR SCT014 BKN061 M01/M02 Q1004",
      "taf": "TAF LRCL 221700Z 2218/2303 VRB04KT 5000 -SN BR BKN010 OVC030"
    },
    {
      "icao": "LRCV",
      "alert": "OK",
      "vis_m": 1000,
      "fzfg": false,
      "metar_trigger": false,
      "taf_trigger": false,
      "metar": "METAR LRCV 221900Z 00000KT 1000 R26/1400N BR OVC002 00/00 Q1005",
      "taf": "TAF LRCV 221700Z 2218/2303 VRB04KT 1500 BR OVC002"
    },
    {
      "icao": "LRIA",
      "alert": "OK",
      "vis_m": 9999,
      "fzfg": false,
      "metar_trigger": false,
      "taf_trigger": false,
      "metar": "METAR LRIA 221900Z 11011KT 9999 -RA BKN006 BKN009 01/M00 Q1006",
      "taf": "TAF LRIA 221700Z 2218/2303 11014KT 9999 BKN005 OVC015"
    },
    {
      "icao": "LROP",
      "alert": "OK",
      "vis_m": 550,
      "fzfg": false,
      "metar_trigger": false,
      "taf_trigger": false,
      "metar": "METAR LROP 221900Z 00000KT 0550 R08R/0650N R08L/0900D -RA FG BKN001 OVC002 01/01 Q1005 NOSIG",
      "taf": "TAF LROP 221700Z 2218/2318 VRB04KT 0800 FG OVC002"
    },
    {
      "icao": "LRSB",
      "alert": "OK",
      "vis_m": 9000,
      "fzfg": false,
      "metar_trigger": false,
      "taf_trigger": false,
      "metar": "METAR LRSB 221900Z VRB02KT 9000 BKN050 BKN080 M01/M03 Q1003",
      "taf": "TAF LRSB 221700Z 2218/2318 VRB04KT 9999 BKN070"
    },
    {
      "icao": "LRSM",
      "alert": "OK",
      "vis_m": 7000,
      "fzfg": false,
      "metar_trigger": false,
      "taf_trigger": false,
      "metar": "METAR LRSM 221900Z AUTO 00000KT 7000 OVC047/// 00/M03 Q1004",
      "taf": "TAF LRSM 221400Z 2215/2224 VRB04KT CAVOK"
    },
    {
      "icao": "LRSV",
      "alert": "OK",
      "vis_m": 1500,
      "fzfg": false,
      "metar_trigger": false,
      "taf_trigger": false,
      "metar": "METAR LRSV 221900Z 13009KT 1500 -RASN BR BKN003 01/00 Q1003",
      "taf": ""
    },
    {
      "icao": "LRTM",
      "alert": "OK",
      "vis_m": 1900,
      "fzfg": false,
      "metar_trigger": false,
      "taf_trigger": false,
      "metar": "METAR LRTM 221900Z AUTO 23004KT 1900 -SN BR VV012 M02/M03 Q1004",
      "taf": "TAF LRTM 221400Z 2215/2224 VRB04KT 3000 -SN BR BKN040"
    },
    {
      "icao": "LRTR",
      "alert": "OK",
      "vis_m": 7000,
      "fzfg": false,
      "metar_trigger": false,
      "taf_trigger": false,
      "metar": "METAR LRTR 221900Z 08003KT 7000 OVC040 01/M01 Q1003 TEMPO 5000 BR",
      "taf": "TAF LRTR 221700Z 2218/2318 VRB04KT 9999 OVC045"
    },
    {
      "icao": "LTAC",
      "alert": "OK",
      "vis_m": 9999,
      "fzfg": false,
      "metar_trigger": false,
      "taf_trigger": false,
      "metar": "METAR LTAC 221850Z 02005KT 330V030 9999 FEW013 BKN020 BKN080 M01/M02 Q1009 NOSIG RMK RWY21C 35004KT 320V020 RWY03L 36003KT 320V020 RWY21R 33003KT 300V360 RWY03R VRB01KT RWY21L VRB01KT",
      "taf": "TAF LTAC 221640Z 2218/2318 VRB02KT 9999 SCT035 BKN090"
    },
    {
      "icao": "LTFM",
      "alert": "OK",
      "vis_m": 9999,
      "fzfg": false,
      "metar_trigger": false,
      "taf_trigger": false,
      "metar": "METAR LTFM 221850Z 19010KT 9999 -SHRA BKN032 BKN080 08/07 Q1004 NOSIG RMK RWY17L 19012KT RWY34L 19010KT RWY16R 19012KT RWY36 18011KT RWY18 19014KT",
      "taf": "TAF LTFM 221640Z 2218/2324 20010KT 9999 SCT040 BKN100"
    },
    {
      "icao": "LUKK",
      "alert": "OK",
      "vis_m": 9999,
      "fzfg": false,
      "metar_trigger": false,
      "taf_trigger": false,
      "metar": "METAR LUKK 221900Z 10007KT 9999 OVC009 M00/M01 Q1008 TEMPO BKN008",
      "taf": "TAF LUKK 221721Z 2218/2318 09008KT 9999 BKN008 OVC015"
    },
    {
      "icao": "LWOH",
      "alert": "OK",
      "vis_m": 9999,
      "fzfg": false,
      "metar_trigger": false,
      "taf_trigger": false,
      "metar": "METAR LWOH 221850Z VRB01KT 9999 SCT040 M00/M01 Q1002",
      "taf": "TAF LWOH 221735Z 2218/2318 VRB03KT 9999 BKN040"
    },
    {
      "icao": "LWSK",
      "alert": "OK",
      "vis_m": 6000,
      "fzfg": false,
      "metar_trigger": false,
      "taf_trigger": false,
      "metar": "METAR LWSK 221850Z VRB01KT 6000 SCT013 M00/M01 Q1004 NOSIG",
      "taf": "TAF LWSK 221735Z 2218/2318 VRB02KT 6000 FEW015"
    },
    {
      "icao": "LYBE",
      "alert": "OK",
      "vis_m": 5000,
      "fzfg": false,
      "metar_trigger": false,
      "taf_trigger": false,
      "metar": "METAR LYBE 221900Z 25003KT 5000 BR NSC M03/M04 Q1004 NOSIG",
      "taf": ""
    },
    {
      "icao": "LYNI",
      "alert": "OK",
      "vis_m": 9999,
      "fzfg": false,
      "metar_trigger": false,
      "taf_trigger": false,
      "metar": "METAR LYNI 221900Z 11008KT CAVOK 02/M01 Q1003 NOSIG",
      "taf": "TAF LYNI 221700Z 2218/2318 09007KT 9999 SCT050 BKN090 TX10/2313Z TNM01/2305Z"
    },
    {
      "icao": "LYPG",
      "alert": "OK",
      "vis_m": 9999,
      "fzfg": false,
      "metar_trigger": false,
      "taf_trigger": false,
      "metar": "METAR LYPG 221900Z 09002KT 9999 FEW014 BKN040 OVC070 07/06 Q1002 NOSIG",
      "taf": "TAF LYPG 221700Z 2218/2318 16006KT 9999 FEW013 BKN040 OVC080 TX12/2313Z TN05/2305Z"
    },
    {
      "icao": "LZIB",
      "alert": "OK",
      "vis_m": 5000,
      "fzfg": false,
      "metar_trigger": false,
      "taf_trigger": false,
      "metar": "METAR LZIB 221900Z 09003KT 5000 BR FEW009 BKN013 M05/M06 Q1004 NOSIG",
      "taf": ""
    },
    {
      "icao": "LZKZ",
      "alert": "OK",
      "vis_m": 8000,
      "fzfg": false,
      "metar_trigger": false,
      "taf_trigger": false,
      "metar": "METAR LZKZ 221900Z 03001KT 8000 -SN FEW044 M01/M03 Q1004 NOSIG",
      "taf": "TAF LZKZ 221715Z 2218/2318 VRB02KT 9999 SCT045"
    },
    {
      "icao": "LZTT",
      "alert": "OK",
      "vis_m": 2500,
      "fzfg": false,
      "metar_trigger": false,
      "taf_trigger": false,
      "metar": "METAR LZTT 221900Z 09001KT 2500 -SN BR SCT010 OVC036 M02/M03 Q1001",
      "taf": "TAF LZTT 221715Z 2218/2318 VRB02KT 6000 SCT009 BKN030"
    },
    {
      "icao": "OEJN",
      "alert": "OK",
      "vis_m": 9999,
      "fzfg": false,
      "metar_trigger": false,
      "taf_trigger": false,
      "metar": "METAR OEJN 221900Z 17004KT CAVOK 27/20 Q1013 NOSIG",
      "taf": "TAF OEJN 221700Z 2218/2324 13004KT 7000 FEW030"
    },
    {
      "icao": "OEMA",
      "alert": "OK",
      "vis_m": 9999,
      "fzfg": false,
      "metar_trigger": false,
      "taf_trigger": false,
      "metar": "METAR OEMA 221900Z 08015KT CAVOK 21/M03 Q1019 NOSIG",
      "taf": "TAF OEMA 221700Z 2218/2324 09014KT 7000 NSC"
    },
    {
      "icao": "OJAI",
      "alert": "OK",
      "vis_m": 2700,
      "fzfg": false,
      "metar_trigger": false,
      "taf_trigger": false,
      "metar": "METAR OJAI 221900Z 12009KT 2700 HZ NSC 10/M03 Q1015 NOSIG",
      "taf": "TAF OJAI 221700Z 2218/2324 18012KT 3000 HZ SCT035"
    },
    {
      "icao": "OMAA",
      "alert": "OK",
      "vis_m": 9999,
      "fzfg": false,
      "metar_trigger": false,
      "taf_trigger": false,
      "metar": "METAR OMAA 221900Z 36007KT CAVOK 17/02 Q1023 NOSIG",
      "taf": "TAF OMAA 221700Z 2218/2400 04006KT 8000 NSC"
    },
    {
      "icao": "OMDB",
      "alert": "OK",
      "vis_m": 9999,
      "fzfg": false,
      "metar_trigger": false,
      "taf_trigger": false,
      "metar": "METAR OMDB 221900Z 08004KT 030V110 CAVOK 18/01 Q1023 NOSIG",
      "taf": "TAF OMDB 221700Z 2218/2400 06006KT 8000 NSC"
    },
    {
      "icao": "UAAA",
      "alert": "OK",
      "vis_m": 2800,
      "fzfg": false,
      "metar_trigger": false,
      "taf_trigger": false,
      "metar": "METAR UAAA 221900Z 00000MPS 2800 BR FU BKN033CB OVC100 M07/M10 Q1018 NOSIG",
      "taf": "TAF UAAA 221701Z 2218/2318 32003MPS 3100 -SHSN BR BKN011CB OVC050 TXM04/2308Z TNM10/2302Z"
    },
    {
      "icao": "UBBB",
      "alert": "OK",
      "vis_m": 9999,
      "fzfg": false,
      "metar_trigger": false,
      "taf_trigger": false,
      "metar": "METAR UBBB 221900Z 34004KT CAVOK 05/M03 Q1015 NOSIG",
      "taf": "TAF UBBB 221702Z 2218/2318 16006KT CAVOK TX07/2310Z TNM01/2300Z"
    },
    {
      "icao": "UDSG",
      "alert": "OK",
      "vis_m": 9000,
      "fzfg": false,
      "metar_trigger": false,
      "taf_trigger": false,
      "metar": "METAR UDSG 221900Z 16001KT 9000 SCT046 M11/M14 Q1017 NOSIG",
      "taf": "TAF UDSG 221658Z 2218/2318 VRB06KT 9999 BKN040"
    },
    {
      "icao": "UDYZ",
      "alert": "OK",
      "vis_m": 8000,
      "fzfg": false,
      "metar_trigger": false,
      "taf_trigger": false,
      "metar": "METAR UDYZ 221900Z VRB01KT 8000 NSC M05/M09 Q1021 NOSIG",
      "taf": "TAF UDYZ 221700Z 2218/2318 VRB04KT 9999 FEW040"
    },
    {
      "icao": "UGKO",
      "alert": "OK",
      "vis_m": 9999,
      "fzfg": false,
      "metar_trigger": false,
      "taf_trigger": false,
      "metar": "METAR UGKO 221900Z 11016KT CAVOK 07/M07 Q1011 NOSIG",
      "taf": "TAF UGKO 221700Z 2218/2318 08017KT CAVOK TX09/2311Z TN05/2303Z"
    }
  ]
}