{
  "ts_utc": "2026-04-13T14:27:22Z",
  "threshold_m": 150,
  "source": "stations_override.txt (ICAO list) + aviationweather.gov (METAR/TAF raw)",
  "station_count": 159,
  "stations": [
    {
      "icao": "BIKF",
      "alert": "OK",
      "vis_m": 9999,
      "fzfg": false,
      "metar_trigger": false,
      "taf_trigger": false,
      "metar": "METAR BIKF 131400Z 03010KT 9999 -RA BKN006 BKN018 OVC035 03/03 Q0996",
      "taf": "TAF BIKF 131331Z 1315/1415 03010KT 9999 -SHRA SCT018 BKN028 TX07/1412Z TN03/1322Z"
    },
    {
      "icao": "BKPR",
      "alert": "OK",
      "vis_m": null,
      "fzfg": false,
      "metar_trigger": false,
      "taf_trigger": false,
      "metar": "",
      "taf": "TAF BKPR 131130Z 1312/1412 15008KT 9999 FEW040"
    },
    {
      "icao": "EBCI",
      "alert": "OK",
      "vis_m": 9999,
      "fzfg": false,
      "metar_trigger": false,
      "taf_trigger": false,
      "metar": "METAR EBCI 131420Z 35006KT 300V020 9999 FEW045 13/02 Q1012 NOSIG",
      "taf": "TAF EBCI 131115Z 1312/1418 32006KT 9999 SCT035"
    },
    {
      "icao": "EDDB",
      "alert": "OK",
      "vis_m": 9999,
      "fzfg": false,
      "metar_trigger": false,
      "taf_trigger": false,
      "metar": "METAR EDDB 131420Z AUTO 11014KT CAVOK 14/02 Q1013 TEMPO 09015G25KT",
      "taf": "TAF EDDB 131100Z 1312/1412 09014KT CAVOK"
    },
    {
      "icao": "EDDH",
      "alert": "OK",
      "vis_m": 9999,
      "fzfg": false,
      "metar_trigger": false,
      "taf_trigger": false,
      "metar": "METAR EDDH 131420Z AUTO 07008KT 040V100 9999 -RA SCT020 11/06 Q1014 NOSIG",
      "taf": "TAF EDDH 131100Z 1312/1418 08007KT 9999 BKN025"
    },
    {
      "icao": "EDDK",
      "alert": "OK",
      "vis_m": 9999,
      "fzfg": false,
      "metar_trigger": false,
      "taf_trigger": false,
      "metar": "METAR EDDK 131420Z AUTO 32007KT 9999 -RADZ SCT016 BKN031 OVC040 10/07 Q1012 TEMPO BKN012",
      "taf": "TAF EDDK 131100Z 1312/1418 VRB03KT 9999 BKN030"
    },
    {
      "icao": "EDDN",
      "alert": "OK",
      "vis_m": 9999,
      "fzfg": false,
      "metar_trigger": false,
      "taf_trigger": false,
      "metar": "METAR EDDN 131420Z AUTO VRB03KT 9999 SCT028 14/07 Q1009 BECMG 30007KT",
      "taf": "TAF EDDN 131100Z 1312/1412 06005KT CAVOK"
    },
    {
      "icao": "EDDS",
      "alert": "OK",
      "vis_m": 9999,
      "fzfg": false,
      "metar_trigger": false,
      "taf_trigger": false,
      "metar": "METAR EDDS 131420Z AUTO 02004KT 350V060 9999 BKN007 09/07 Q1009 NOSIG",
      "taf": "TAF EDDS 131100Z 1312/1412 36004KT 9000 SCT005 OVC015"
    },
    {
      "icao": "EDFH",
      "alert": "OK",
      "vis_m": 9999,
      "fzfg": false,
      "metar_trigger": false,
      "taf_trigger": false,
      "metar": "METAR EDFH 131420Z 33004KT 9999 -RA FEW002 BKN006 OVC009 07/06 Q1011",
      "taf": "TAF EDFH 131100Z 1312/1412 01005KT 9999 SCT004 BKN015"
    },
    {
      "icao": "EDJA",
      "alert": "OK",
      "vis_m": 8000,
      "fzfg": false,
      "metar_trigger": false,
      "taf_trigger": false,
      "metar": "METAR EDJA 131420Z 32003KT 240V010 8000 OVC007 09/07 Q1009",
      "taf": "TAF EDJA 131400Z 1315/1324 28006KT 9999 SCT004 OVC007"
    },
    {
      "icao": "EDLW",
      "alert": "OK",
      "vis_m": 9999,
      "fzfg": false,
      "metar_trigger": false,
      "taf_trigger": false,
      "metar": "METAR EDLW 131420Z 02005KT 320V080 9999 BKN044 10/05 Q1012",
      "taf": "TAF EDLW 131100Z 1312/1412 04005KT 9999 BKN035"
    },
    {
      "icao": "EDNY",
      "alert": "OK",
      "vis_m": 8000,
      "fzfg": false,
      "metar_trigger": false,
      "taf_trigger": false,
      "metar": "METAR EDNY 131420Z 20004KT 170V230 8000 OVC013 10/08 Q1009",
      "taf": "TAF EDNY 131400Z 1315/1324 24005KT 9999 SCT008 OVC015"
    },
    {
      "icao": "EDSB",
      "alert": "OK",
      "vis_m": 9999,
      "fzfg": false,
      "metar_trigger": false,
      "taf_trigger": false,
      "metar": "METAR EDSB 131420Z 25003KT 190V310 9999 VCSH FEW009 OVC012 10/08 Q1011",
      "taf": ""
    },
    {
      "icao": "EETN",
      "alert": "OK",
      "vis_m": 9999,
      "fzfg": false,
      "metar_trigger": false,
      "taf_trigger": false,
      "metar": "METAR EETN 131420Z 10010KT CAVOK 10/02 Q1030 TEMPO FEW035CB",
      "taf": "TAF EETN 131130Z 1312/1412 04010KT CAVOK"
    },
    {
      "icao": "EFTU",
      "alert": "OK",
      "vis_m": 9999,
      "fzfg": false,
      "metar_trigger": false,
      "taf_trigger": false,
      "metar": "METAR EFTU 131420Z AUTO 22006KT CAVOK 12/M02 Q1030",
      "taf": "TAF EFTU 131126Z 1312/1412 21005KT CAVOK"
    },
    {
      "icao": "EGBB",
      "alert": "OK",
      "vis_m": 9999,
      "fzfg": false,
      "metar_trigger": false,
      "taf_trigger": false,
      "metar": "METAR EGBB 131420Z 15006KT 120V180 9999 BKN041 12/00 Q1012",
      "taf": "TAF EGBB 131056Z 1312/1412 18007KT 9999 SCT030"
    },
    {
      "icao": "EGGP",
      "alert": "OK",
      "vis_m": 9999,
      "fzfg": false,
      "metar_trigger": false,
      "taf_trigger": false,
      "metar": "METAR EGGP 131420Z 16009KT 110V200 9999 FEW047 13/01 Q1011",
      "taf": "TAF EGGP 131058Z 1312/1412 17007KT 9999 FEW035"
    },
    {
      "icao": "EGGW",
      "alert": "OK",
      "vis_m": 9999,
      "fzfg": false,
      "metar_trigger": false,
      "taf_trigger": false,
      "metar": "METAR EGGW 131420Z AUTO 21008KT 170V230 9999 //////CB 10/02 Q1013",
      "taf": "TAF EGGW 131055Z 1312/1412 23004KT 9999 SCT035"
    },
    {
      "icao": "EGKK",
      "alert": "OK",
      "vis_m": 9999,
      "fzfg": false,
      "metar_trigger": false,
      "taf_trigger": false,
      "metar": "METAR EGKK 131420Z VRB01KT 9999 FEW035 SCT041 12/04 Q1013",
      "taf": "TAF EGKK 131053Z 1312/1418 VRB04KT 9999 SCT030"
    },
    {
      "icao": "EGNM",
      "alert": "OK",
      "vis_m": 9999,
      "fzfg": false,
      "metar_trigger": false,
      "taf_trigger": false,
      "metar": "METAR EGNM 131420Z 29005KT 230V340 9999 FEW048 SCT059TCU 11/M01 Q1012",
      "taf": "TAF EGNM 131059Z 1312/1412 VRB03KT 9999 FEW040"
    },
    {
      "icao": "EGPD",
      "alert": "OK",
      "vis_m": 9999,
      "fzfg": false,
      "metar_trigger": false,
      "taf_trigger": false,
      "metar": "METAR EGPD 131420Z COR AUTO 16016KT 9999 NCD 11/02 Q1012 NOSIG",
      "taf": "TAF EGPD 131056Z 1312/1412 19010KT 9999 FEW040"
    },
    {
      "icao": "EGPF",
      "alert": "OK",
      "vis_m": 8000,
      "fzfg": false,
      "metar_trigger": false,
      "taf_trigger": false,
      "metar": "METAR EGPF 131420Z AUTO 24005KT 8000 -RA BKN030/// BKN040/// //////CB 07/05 Q1011",
      "taf": "TAF EGPF 131055Z 1312/1412 19008KT 9999 FEW020"
    },
    {
      "icao": "EHBK",
      "alert": "OK",
      "vis_m": 9999,
      "fzfg": false,
      "metar_trigger": false,
      "taf_trigger": false,
      "metar": "METAR EHBK 131355Z AUTO 07004KT 010V140 9999 BKN035 BKN043 10/05 Q1013 NOSIG",
      "taf": "TAF EHBK 131112Z 1312/1418 34003KT CAVOK"
    },
    {
      "icao": "EHEH",
      "alert": "OK",
      "vis_m": 9999,
      "fzfg": false,
      "metar_trigger": false,
      "taf_trigger": false,
      "metar": "METAR EHEH 131355Z AUTO 14009KT 100V170 9999 DZ SCT042 OVC048 12/04 Q1012 BLU BECMG VRB02KT",
      "taf": "TAF EHEH 130527Z 1306/1412 VRB02KT CAVOK"
    },
    {
      "icao": "EKBI",
      "alert": "OK",
      "vis_m": 9999,
      "fzfg": false,
      "metar_trigger": false,
      "taf_trigger": false,
      "metar": "METAR EKBI 131420Z AUTO 07008KT 9999 OVC040/// 08/04 Q1017",
      "taf": "TAF EKBI 131127Z 1312/1412 10008KT 9999 BKN035"
    },
    {
      "icao": "EKCH",
      "alert": "OK",
      "vis_m": 9999,
      "fzfg": false,
      "metar_trigger": false,
      "taf_trigger": false,
      "metar": "METAR EKCH 131420Z AUTO 08013KT 9999 BKN092/// 10/02 Q1019 NOSIG",
      "taf": "TAF EKCH 131127Z 1312/1412 12014KT 9999 BKN045"
    },
    {
      "icao": "ENAL",
      "alert": "OK",
      "vis_m": 9999,
      "fzfg": false,
      "metar_trigger": false,
      "taf_trigger": false,
      "metar": "METAR ENAL 131420Z 15011KT 090V170 CAVOK 14/M02 Q1018",
      "taf": "TAF ENAL 131100Z 1312/1321 13007KT CAVOK"
    },
    {
      "icao": "ENBR",
      "alert": "OK",
      "vis_m": 9999,
      "fzfg": false,
      "metar_trigger": false,
      "taf_trigger": false,
      "metar": "METAR ENBR 131420Z 12015KT 090V150 9999 SCT046 10/01 Q1018 NOSIG RMK WIND 1200FT 13024KT",
      "taf": "TAF ENBR 131100Z 1312/1412 14015KT 9999 BKN045"
    },
    {
      "icao": "ENGM",
      "alert": "OK",
      "vis_m": 9999,
      "fzfg": false,
      "metar_trigger": false,
      "taf_trigger": false,
      "metar": "METAR ENGM 131420Z 12008KT 090V170 CAVOK 10/M00 Q1024 NOSIG",
      "taf": "TAF ENGM 131100Z 1312/1412 10005KT CAVOK"
    },
    {
      "icao": "ENHD",
      "alert": "OK",
      "vis_m": 9999,
      "fzfg": false,
      "metar_trigger": false,
      "taf_trigger": false,
      "metar": "METAR ENHD 131420Z 13011KT 9999 -RA FEW024 SCT047 10/03 Q1018",
      "taf": "TAF ENHD 131100Z 1312/1321 14020KT 9999 SCT030"
    },
    {
      "icao": "ENTC",
      "alert": "OK",
      "vis_m": 9999,
      "fzfg": false,
      "metar_trigger": false,
      "taf_trigger": false,
      "metar": "METAR ENTC 131420Z 21003KT 170V240 CAVOK 11/M05 Q1026 NOSIG RMK WIND 2600FT 21012KT",
      "taf": "TAF ENTC 131100Z 1312/1412 02004KT CAVOK"
    },
    {
      "icao": "ENTO",
      "alert": "OK",
      "vis_m": 9999,
      "fzfg": false,
      "metar_trigger": false,
      "taf_trigger": false,
      "metar": "METAR ENTO 131420Z 03005KT CAVOK 08/02 Q1023 NOSIG",
      "taf": "TAF ENTO 131100Z 1312/1412 02005KT CAVOK"
    },
    {
      "icao": "ENVA",
      "alert": "OK",
      "vis_m": 9999,
      "fzfg": false,
      "metar_trigger": false,
      "taf_trigger": false,
      "metar": "METAR ENVA 131420Z 16016G26KT 120V200 CAVOK 13/M01 Q1022 NOSIG RMK WIND 670FT 17032G42KT",
      "taf": ""
    },
    {
      "icao": "ENZV",
      "alert": "OK",
      "vis_m": 9999,
      "fzfg": false,
      "metar_trigger": false,
      "taf_trigger": false,
      "metar": "METAR ENZV 131420Z 14016KT CAVOK 11/02 Q1018 NOSIG",
      "taf": "TAF ENZV 131100Z 1312/1412 14015KT 9999 SCT030"
    },
    {
      "icao": "EPGD",
      "alert": "OK",
      "vis_m": 9999,
      "fzfg": false,
      "metar_trigger": false,
      "taf_trigger": false,
      "metar": "METAR EPGD 131400Z 07008KT 040V110 CAVOK 12/M02 Q1022",
      "taf": "TAF EPGD 131130Z 1312/1412 11015KT CAVOK"
    },
    {
      "icao": "EPKK",
      "alert": "OK",
      "vis_m": 9999,
      "fzfg": false,
      "metar_trigger": false,
      "taf_trigger": false,
      "metar": "METAR EPKK 131400Z 08016KT CAVOK 12/M01 Q1017",
      "taf": "TAF EPKK 131130Z 1312/1412 07014KT CAVOK"
    },
    {
      "icao": "EPKT",
      "alert": "OK",
      "vis_m": 9999,
      "fzfg": false,
      "metar_trigger": false,
      "taf_trigger": false,
      "metar": "METAR EPKT 131400Z 09018KT CAVOK 11/M01 Q1017",
      "taf": "TAF EPKT 131130Z 1312/1412 09016KT CAVOK"
    },
    {
      "icao": "EPLB",
      "alert": "OK",
      "vis_m": 9999,
      "fzfg": false,
      "metar_trigger": false,
      "taf_trigger": false,
      "metar": "METAR EPLB 131400Z 11014KT CAVOK 12/M02 Q1022",
      "taf": "TAF EPLB 131130Z 1312/1412 10015KT CAVOK"
    },
    {
      "icao": "EPMO",
      "alert": "OK",
      "vis_m": 9999,
      "fzfg": false,
      "metar_trigger": false,
      "taf_trigger": false,
      "metar": "METAR EPMO 131400Z 12012KT 080V160 CAVOK 14/M01 Q1021",
      "taf": "TAF EPMO 131130Z 1312/1412 11016KT CAVOK"
    },
    {
      "icao": "EPPO",
      "alert": "OK",
      "vis_m": 9999,
      "fzfg": false,
      "metar_trigger": false,
      "taf_trigger": false,
      "metar": "METAR EPPO 131400Z 12016KT CAVOK 14/M02 Q1017",
      "taf": "TAF EPPO 131130Z 1312/1412 11018KT CAVOK"
    },
    {
      "icao": "EPRA",
      "alert": "OK",
      "vis_m": 9999,
      "fzfg": false,
      "metar_trigger": false,
      "taf_trigger": false,
      "metar": "METAR EPRA 131400Z 12013KT 080V160 CAVOK 12/M02 Q1021",
      "taf": "TAF EPRA 131130Z 1312/1321 11014KT CAVOK"
    },
    {
      "icao": "EPRZ",
      "alert": "OK",
      "vis_m": 9999,
      "fzfg": false,
      "metar_trigger": false,
      "taf_trigger": false,
      "metar": "METAR EPRZ 131400Z 11018KT CAVOK 13/M02 Q1020",
      "taf": "TAF EPRZ 131130Z 1312/1412 11014KT CAVOK"
    },
    {
      "icao": "EPSC",
      "alert": "OK",
      "vis_m": 9999,
      "fzfg": false,
      "metar_trigger": false,
      "taf_trigger": false,
      "metar": "METAR EPSC 131400Z 11016KT CAVOK 13/M01 Q1017",
      "taf": "TAF EPSC 131130Z 1312/1412 11014KT CAVOK"
    },
    {
      "icao": "EPSY",
      "alert": "OK",
      "vis_m": 9999,
      "fzfg": false,
      "metar_trigger": false,
      "taf_trigger": false,
      "metar": "METAR EPSY 131400Z 10009KT 040V160 CAVOK 12/M02 Q1023",
      "taf": "TAF EPSY 131130Z 1312/1321 11010KT CAVOK"
    },
    {
      "icao": "EPWA",
      "alert": "OK",
      "vis_m": 9999,
      "fzfg": false,
      "metar_trigger": false,
      "taf_trigger": false,
      "metar": "METAR EPWA 131400Z 12015KT CAVOK 13/M01 Q1021 NOSIG",
      "taf": "TAF EPWA 131130Z 1312/1412 11015KT CAVOK"
    },
    {
      "icao": "EPWR",
      "alert": "OK",
      "vis_m": 9999,
      "fzfg": false,
      "metar_trigger": false,
      "taf_trigger": false,
      "metar": "METAR EPWR 131400Z 10018KT CAVOK 15/M01 Q1015",
      "taf": "TAF EPWR 131130Z 1312/1412 11019KT CAVOK"
    },
    {
      "icao": "ESGG",
      "alert": "OK",
      "vis_m": 9999,
      "fzfg": false,
      "metar_trigger": false,
      "taf_trigger": false,
      "metar": "METAR ESGG 131420Z 12010KT CAVOK 13/M03 Q1021",
      "taf": "TAF ESGG 131130Z 1312/1412 12011KT CAVOK"
    },
    {
      "icao": "ESKN",
      "alert": "OK",
      "vis_m": 9999,
      "fzfg": false,
      "metar_trigger": false,
      "taf_trigger": false,
      "metar": "METAR ESKN 131420Z 11010KT CAVOK 09/00 Q1028",
      "taf": "TAF ESKN 131130Z 1312/1412 15011KT CAVOK"
    },
    {
      "icao": "ESMS",
      "alert": "OK",
      "vis_m": 9999,
      "fzfg": false,
      "metar_trigger": false,
      "taf_trigger": false,
      "metar": "METAR ESMS 131420Z 07016KT CAVOK 09/02 Q1019",
      "taf": "TAF ESMS 131127Z 1312/1412 11014KT 9999 BKN045"
    },
    {
      "icao": "ESSA",
      "alert": "OK",
      "vis_m": 9999,
      "fzfg": false,
      "metar_trigger": false,
      "taf_trigger": false,
      "metar": "METAR ESSA 131420Z 15011KT CAVOK 12/M02 Q1028 NOSIG",
      "taf": "TAF ESSA 131130Z 1312/1412 15011KT CAVOK"
    },
    {
      "icao": "EYKA",
      "alert": "OK",
      "vis_m": 9999,
      "fzfg": false,
      "metar_trigger": false,
      "taf_trigger": false,
      "metar": "METAR EYKA 131420Z 14009KT CAVOK 12/M00 Q1027",
      "taf": "TAF EYKA 131100Z 1312/1412 12011KT 9000 SCT045"
    },
    {
      "icao": "EYPA",
      "alert": "OK",
      "vis_m": 9999,
      "fzfg": false,
      "metar_trigger": false,
      "taf_trigger": false,
      "metar": "METAR EYPA 131420Z 13008KT 100V170 CAVOK 13/M02 Q1026",
      "taf": "TAF EYPA 131100Z 1312/1412 12009KT 9000 NSC"
    },
    {
      "icao": "EYVI",
      "alert": "OK",
      "vis_m": 9999,
      "fzfg": false,
      "metar_trigger": false,
      "taf_trigger": false,
      "metar": "METAR EYVI 131420Z 14006KT 100V160 CAVOK 11/M01 Q1027 NOSIG",
      "taf": "TAF EYVI 131100Z 1312/1412 11010KT 9000 SCT045"
    },
    {
      "icao": "GCFV",
      "alert": "OK",
      "vis_m": 9999,
      "fzfg": false,
      "metar_trigger": false,
      "taf_trigger": false,
      "metar": "METAR GCFV 131400Z 02021KT 9999 FEW030 21/11 Q1020",
      "taf": "TAF GCFV 131400Z 1315/1415 03020KT 9999 FEW030 TX22/1414Z TN16/1406Z"
    },
    {
      "icao": "GCLP",
      "alert": "OK",
      "vis_m": 9999,
      "fzfg": false,
      "metar_trigger": false,
      "taf_trigger": false,
      "metar": "METAR GCLP 131400Z 02026KT 9999 SCT030 21/12 Q1022 NOSIG",
      "taf": "TAF GCLP 131400Z 1315/1415 02024KT 9999 SCT030 TX22/1414Z TN16/1406Z"
    },
    {
      "icao": "GCTS",
      "alert": "OK",
      "vis_m": 9999,
      "fzfg": false,
      "metar_trigger": false,
      "taf_trigger": false,
      "metar": "METAR GCTS 131400Z 09026KT 9999 FEW035 22/09 Q1021 WS R07 NOSIG",
      "taf": "TAF GCTS 131400Z 1315/1415 08028KT 9999 FEW035 TX23/1414Z TN15/1406Z"
    },
    {
      "icao": "GMAD",
      "alert": "OK",
      "vis_m": 9999,
      "fzfg": false,
      "metar_trigger": false,
      "taf_trigger": false,
      "metar": "METAR GMAD 131400Z 23008KT 200V260 CAVOK 24/11 Q1014 NOSIG",
      "taf": "TAF GMAD 131100Z 1312/1418 28008KT 8000 NSC"
    },
    {
      "icao": "GMMN",
      "alert": "OK",
      "vis_m": 9999,
      "fzfg": false,
      "metar_trigger": false,
      "taf_trigger": false,
      "metar": "METAR GMMN 131400Z 36011KT 320V030 9999 BKN030 18/11 Q1022 NOSIG",
      "taf": "TAF GMMN 131100Z 1312/1418 36012KT 9999 BKN030"
    },
    {
      "icao": "GMMX",
      "alert": "OK",
      "vis_m": 9999,
      "fzfg": false,
      "metar_trigger": false,
      "taf_trigger": false,
      "metar": "METAR GMMX 131400Z 02012KT 330V060 CAVOK 20/09 Q1019 NOSIG",
      "taf": "TAF GMMX 131100Z 1312/1418 08006KT CAVOK"
    },
    {
      "icao": "HEGN",
      "alert": "OK",
      "vis_m": 9999,
      "fzfg": false,
      "metar_trigger": false,
      "taf_trigger": false,
      "metar": "METAR HEGN 131300Z 03007KT CAVOK 28/06 Q1014 NOSIG",
      "taf": "TAF HEGN 131100Z 1312/1418 01014KT CAVOK"
    },
    {
      "icao": "HEMA",
      "alert": "OK",
      "vis_m": 9999,
      "fzfg": false,
      "metar_trigger": false,
      "taf_trigger": false,
      "metar": "METAR HEMA 131300Z 34017KT CAVOK 28/04 Q1013 NOSIG",
      "taf": "TAF HEMA 131100Z 1312/1418 35010G22KT CAVOK"
    },
    {
      "icao": "HESH",
      "alert": "OK",
      "vis_m": 9999,
      "fzfg": false,
      "metar_trigger": false,
      "taf_trigger": false,
      "metar": "METAR HESH 131300Z 02008KT CAVOK 29/07 Q1014 NOSIG",
      "taf": "TAF HESH 131100Z 1312/1418 08011KT CAVOK"
    },
    {
      "icao": "HESX",
      "alert": "OK",
      "vis_m": 9999,
      "fzfg": false,
      "metar_trigger": false,
      "taf_trigger": false,
      "metar": "METAR HESX 131300Z 02010KT CAVOK 26/09 Q1017 NOSIG",
      "taf": "TAF HESX 131100Z 1312/1418 04009KT CAVOK"
    },
    {
      "icao": "LATI",
      "alert": "OK",
      "vis_m": 9999,
      "fzfg": false,
      "metar_trigger": false,
      "taf_trigger": false,
      "metar": "METAR LATI 131420Z 29008KT 260V320 9999 SCT160 24/07 Q1010 NOSIG",
      "taf": "TAF LATI 131100Z 1312/1412 VRB05KT 9999 SCT100 TX27/1312Z TN12/1404Z"
    },
    {
      "icao": "LBPD",
      "alert": "OK",
      "vis_m": 9999,
      "fzfg": false,
      "metar_trigger": false,
      "taf_trigger": false,
      "metar": "METAR LBPD 131400Z AUTO VRB03KT 9999 NCD 16/07 Q1018 NOSIG",
      "taf": "TAF LBPD 131100Z 1312/1412 08010KT 9999 SCT060"
    },
    {
      "icao": "LBSF",
      "alert": "OK",
      "vis_m": 9999,
      "fzfg": false,
      "metar_trigger": false,
      "taf_trigger": false,
      "metar": "METAR LBSF 131400Z 11016KT CAVOK 16/05 Q1017 NOSIG",
      "taf": "TAF LBSF 131100Z 1312/1412 10014KT 9999 SCT050"
    },
    {
      "icao": "LBWN",
      "alert": "OK",
      "vis_m": 9999,
      "fzfg": false,
      "metar_trigger": false,
      "taf_trigger": false,
      "metar": "METAR LBWN 131400Z AUTO 11013KT 9999 NCD 11/05 Q1022 NOSIG",
      "taf": "TAF LBWN 131100Z 1312/1412 12010KT 9999 SCT040"
    },
    {
      "icao": "LCLK",
      "alert": "OK",
      "vis_m": 9999,
      "fzfg": false,
      "metar_trigger": false,
      "taf_trigger": false,
      "metar": "METAR LCLK 131400Z 18010KT 150V210 9999 FEW040 20/10 Q1019 NOSIG",
      "taf": "TAF LCLK 131130Z 1312/1412 17012KT 9999 FEW035"
    },
    {
      "icao": "LCPH",
      "alert": "OK",
      "vis_m": 9999,
      "fzfg": false,
      "metar_trigger": false,
      "taf_trigger": false,
      "metar": "METAR LCPH 131400Z 17006KT 150V240 9999 FEW040 20/13 Q1019 NOSIG",
      "taf": "TAF LCPH 131130Z 1312/1412 16012KT 9999 FEW035"
    },
    {
      "icao": "LEAL",
      "alert": "OK",
      "vis_m": 9999,
      "fzfg": false,
      "metar_trigger": false,
      "taf_trigger": false,
      "metar": "METAR LEAL 131400Z 11011KT 070V150 9999 FEW035 BKN060 18/06 Q1011 NOSIG",
      "taf": "TAF LEAL 131100Z 1312/1412 33009KT 9999 FEW040 TX20/1313Z TN10/1406Z"
    },
    {
      "icao": "LEBB",
      "alert": "OK",
      "vis_m": 9999,
      "fzfg": false,
      "metar_trigger": false,
      "taf_trigger": false,
      "metar": "METAR LEBB 131400Z 31011KT 260V340 9999 SCT028 BKN055 14/08 Q1018 NOSIG",
      "taf": "TAF LEBB 131100Z 1312/1412 31009KT 9999 FEW030 BKN045 TX14/1314Z TN06/1400Z"
    },
    {
      "icao": "LEBL",
      "alert": "OK",
      "vis_m": 9999,
      "fzfg": false,
      "metar_trigger": false,
      "taf_trigger": false,
      "metar": "METAR LEBL 131400Z 21012KT 180V240 9999 FEW030 15/10 Q1009 NOSIG",
      "taf": ""
    },
    {
      "icao": "LECH",
      "alert": "OK",
      "vis_m": 9999,
      "fzfg": false,
      "metar_trigger": false,
      "taf_trigger": false,
      "metar": "METAR LECH 131400Z AUTO 34011KT 290V040 CAVOK 17/01 Q1011",
      "taf": "TAF LECH 131100Z 1312/1412 33019KT 9999 FEW030 TX20/1314Z TN07/1406Z"
    },
    {
      "icao": "LEMD",
      "alert": "OK",
      "vis_m": 9999,
      "fzfg": false,
      "metar_trigger": false,
      "taf_trigger": false,
      "metar": "METAR LEMD 131400Z 32012KT 9999 SCT070 15/M01 Q1016 NOSIG",
      "taf": ""
    },
    {
      "icao": "LEMG",
      "alert": "OK",
      "vis_m": 9999,
      "fzfg": false,
      "metar_trigger": false,
      "taf_trigger": false,
      "metar": "METAR LEMG 131400Z 30014G25KT 260V350 9999 FEW070 19/03 Q1017 NOSIG",
      "taf": "TAF LEMG 131100Z 1312/1412 31014KT CAVOK TX21/1314Z TN13/1407Z"
    },
    {
      "icao": "LEVC",
      "alert": "OK",
      "vis_m": 9999,
      "fzfg": false,
      "metar_trigger": false,
      "taf_trigger": false,
      "metar": "METAR LEVC 131400Z 12011KT 090V150 9999 FEW065 18/05 Q1010 WS ALL RWY NOSIG",
      "taf": "TAF LEVC 131100Z 1312/1412 33009KT 9999 FEW060 TX22/1313Z TN09/1406Z"
    },
    {
      "icao": "LEXJ",
      "alert": "OK",
      "vis_m": 9999,
      "fzfg": false,
      "metar_trigger": false,
      "taf_trigger": false,
      "metar": "METAR LEXJ 131400Z 32010KT 290V010 9999 SCT030 14/07 Q1019",
      "taf": "TAF LEXJ 131400Z 1315/1415 24009KT 9999 FEW030 BKN060 TX17/1412Z TN08/1321Z"
    },
    {
      "icao": "LEZG",
      "alert": "OK",
      "vis_m": 9999,
      "fzfg": false,
      "metar_trigger": false,
      "taf_trigger": false,
      "metar": "METAR LEZG 131400Z 31027G37KT 280V340 9999 FEW050 16/03 Q1013 NOSIG",
      "taf": "TAF LEZG 131100Z 1312/1412 31022KT 9999 FEW040 TX17/1313Z TN07/1406Z"
    },
    {
      "icao": "LEZL",
      "alert": "OK",
      "vis_m": 9999,
      "fzfg": false,
      "metar_trigger": false,
      "taf_trigger": false,
      "metar": "METAR LEZL 131400Z 32012G27KT 280V010 CAVOK 20/05 Q1019 NOSIG",
      "taf": "TAF LEZL 131400Z 1315/1415 33012KT CAVOK TX25/1415Z TN10/1407Z"
    },
    {
      "icao": "LFBD",
      "alert": "OK",
      "vis_m": 9999,
      "fzfg": false,
      "metar_trigger": false,
      "taf_trigger": false,
      "metar": "METAR LFBD 131400Z AUTO 30013KT 260V340 9999 FEW046 SCT062 16/04 Q1016 NOSIG",
      "taf": "TAF LFBD 131100Z 1312/1418 01005KT 9999 BKN040 TX19/1414Z TN03/1406Z"
    },
    {
      "icao": "LFLL",
      "alert": "OK",
      "vis_m": 9999,
      "fzfg": false,
      "metar_trigger": false,
      "taf_trigger": false,
      "metar": "METAR LFLL 131400Z 35008KT 9999 -RA SCT011 BKN025 08/06 Q1013 TEMPO BKN012",
      "taf": "TAF LFLL 131100Z 1312/1418 34012KT 9999 -RA BKN018"
    },
    {
      "icao": "LFLS",
      "alert": "OK",
      "vis_m": 9999,
      "fzfg": false,
      "metar_trigger": false,
      "taf_trigger": false,
      "metar": "METAR LFLS 131400Z AUTO 29003KT 260V330 9999 -RA FEW008 BKN014 OVC021 06/05 Q1013 TEMPO 4500 RA",
      "taf": "TAF LFLS 130800Z 1309/1409 33010KT 9000 -RA OVC012"
    },
    {
      "icao": "LFMN",
      "alert": "OK",
      "vis_m": 9999,
      "fzfg": false,
      "metar_trigger": false,
      "taf_trigger": false,
      "metar": "METAR LFMN 131400Z 03010KT 9999 -RA BKN083 21/07 Q1002 NOSIG",
      "taf": "TAF LFMN 131400Z 1315/1421 06010KT 9999 BKN090"
    },
    {
      "icao": "LFOB",
      "alert": "OK",
      "vis_m": 9999,
      "fzfg": false,
      "metar_trigger": false,
      "taf_trigger": false,
      "metar": "METAR LFOB 131400Z AUTO 25010KT 9999 BKN029/// BKN045/// BKN084/// ///CB 12/07 Q1013 TEMPO 1500 -TSRAGS SCT009 BKN014CB",
      "taf": "TAF LFOB 131100Z 1312/1412 VRB05KT 9999 SCT030TCU OVC050"
    },
    {
      "icao": "LFPO",
      "alert": "OK",
      "vis_m": 9999,
      "fzfg": false,
      "metar_trigger": false,
      "taf_trigger": false,
      "metar": "METAR LFPO 131400Z 23007KT 9999 FEW043TCU BKN063 BKN073 13/04 Q1013 NOSIG",
      "taf": ""
    },
    {
      "icao": "LFSB",
      "alert": "OK",
      "vis_m": 9999,
      "fzfg": false,
      "metar_trigger": false,
      "taf_trigger": false,
      "metar": "METAR LFSB 131400Z AUTO 27005KT 9999 BKN014 OVC023 09/07 Q1011 NOSIG",
      "taf": "TAF LFSB 131100Z 1312/1412 28007KT 9999 FEW010 BKN020"
    },
    {
      "icao": "LGAV",
      "alert": "OK",
      "vis_m": 9999,
      "fzfg": false,
      "metar_trigger": false,
      "taf_trigger": false,
      "metar": "METAR LGAV 131420Z 09007KT 060V130 9999 FEW025 19/09 Q1019 NOSIG",
      "taf": "TAF LGAV 131100Z 1312/1412 VRB05KT 9999 FEW020"
    },
    {
      "icao": "LGTS",
      "alert": "OK",
      "vis_m": 9999,
      "fzfg": false,
      "metar_trigger": false,
      "taf_trigger": false,
      "metar": "METAR LGTS 131420Z 16008KT 9999 SCT025 18/07 Q1019 NOSIG",
      "taf": "TAF LGTS 131100Z 1312/1412 12010KT 9999 FEW025"
    },
    {
      "icao": "LHBP",
      "alert": "OK",
      "vis_m": 9999,
      "fzfg": false,
      "metar_trigger": false,
      "taf_trigger": false,
      "metar": "METAR LHBP 131400Z 08010KT CAVOK 16/02 Q1016 NOSIG",
      "taf": "TAF LHBP 131115Z 1312/1412 09012KT CAVOK"
    },
    {
      "icao": "LHDC",
      "alert": "OK",
      "vis_m": 9999,
      "fzfg": false,
      "metar_trigger": false,
      "taf_trigger": false,
      "metar": "METAR LHDC 131345Z AUTO 08011KT 040V110 CAVOK 17/M02 Q1016 NOSIG",
      "taf": "TAF LHDC 131415Z 1315/1324 08012KT CAVOK"
    },
    {
      "icao": "LIBD",
      "alert": "OK",
      "vis_m": 9999,
      "fzfg": false,
      "metar_trigger": false,
      "taf_trigger": false,
      "metar": "METAR LIBD 131420Z 18016G32KT 9999 BKN025 19/13 Q1005",
      "taf": "TAF LIBD 131100Z 1312/1412 15025G40KT 9999 FEW030"
    },
    {
      "icao": "LIBG",
      "alert": "OK",
      "vis_m": 9000,
      "fzfg": false,
      "metar_trigger": false,
      "taf_trigger": false,
      "metar": "METAR LIBG 131350Z 15019G31KT 9000 SCT015 BKN020 18/14 Q1007",
      "taf": "TAF LIBG 131400Z 1315/1324 16020G30KT 9999 BKN015"
    },
    {
      "icao": "LIBP",
      "alert": "OK",
      "vis_m": 9999,
      "fzfg": false,
      "metar_trigger": false,
      "taf_trigger": false,
      "metar": "METAR LIBP 131420Z AUTO 11008KT 080V140 9999 BKN041/// 20/14 Q1003",
      "taf": "TAF LIBP 131100Z 1312/1412 11012KT 9999 OVC012"
    },
    {
      "icao": "LIBR",
      "alert": "OK",
      "vis_m": 9999,
      "fzfg": false,
      "metar_trigger": false,
      "taf_trigger": false,
      "metar": "METAR LIBR 131420Z 17021KT 9999 FEW040 21/12 Q1008",
      "taf": "TAF LIBR 131100Z 1312/1412 16020G35KT CAVOK"
    },
    {
      "icao": "LICA",
      "alert": "OK",
      "vis_m": 9999,
      "fzfg": false,
      "metar_trigger": false,
      "taf_trigger": false,
      "metar": "METAR LICA 131420Z AUTO 07021KT 9999 NCD 20/15 Q1006",
      "taf": "TAF LICA 131100Z 1312/1412 08020G30KT CAVOK"
    },
    {
      "icao": "LICC",
      "alert": "OK",
      "vis_m": 4000,
      "fzfg": false,
      "metar_trigger": false,
      "taf_trigger": false,
      "metar": "METAR LICC 131420Z 07016KT 4000 HZ SCT020 19/15 Q1005",
      "taf": "TAF LICC 131100Z 1312/1412 07013KT 7000 FEW020"
    },
    {
      "icao": "LICJ",
      "alert": "OK",
      "vis_m": 9999,
      "fzfg": false,
      "metar_trigger": false,
      "taf_trigger": false,
      "metar": "METAR LICJ 131420Z 26014KT 9999 FEW030 19/14 Q1003",
      "taf": "TAF LICJ 131100Z 1312/1412 22014KT 7000 SCT030"
    },
    {
      "icao": "LIMC",
      "alert": "OK",
      "vis_m": 9999,
      "fzfg": false,
      "metar_trigger": false,
      "taf_trigger": false,
      "metar": "METAR LIMC 131420Z 34009KT 9999 BKN045 13/10 Q1007 BECMG RA",
      "taf": "TAF LIMC 131100Z 1312/1418 35009KT 9999 BKN040"
    },
    {
      "icao": "LIME",
      "alert": "OK",
      "vis_m": 9999,
      "fzfg": false,
      "metar_trigger": false,
      "taf_trigger": false,
      "metar": "METAR LIME 131420Z 31005KT 9999 SCT040 17/11 Q1006 NOSIG",
      "taf": "TAF LIME 131100Z 1312/1412 VRB05KT 9999 BKN040"
    },
    {
      "icao": "LIMF",
      "alert": "OK",
      "vis_m": 3500,
      "fzfg": false,
      "metar_trigger": false,
      "taf_trigger": false,
      "metar": "METAR LIMF 131420Z 33010KT 3500 +RA BR OVC025 12/09 Q1007",
      "taf": "TAF LIMF 131100Z 1312/1412 36009KT 7000 OVC020"
    },
    {
      "icao": "LIMJ",
      "alert": "OK",
      "vis_m": 9999,
      "fzfg": false,
      "metar_trigger": false,
      "taf_trigger": false,
      "metar": "METAR LIMJ 131420Z AUTO 32008KT 290V010 9999 OVC065/// 19/11 Q1003",
      "taf": "TAF LIMJ 131100Z 1312/1412 02013KT 9999 SCT060"
    },
    {
      "icao": "LIPE",
      "alert": "OK",
      "vis_m": 8000,
      "fzfg": false,
      "metar_trigger": false,
      "taf_trigger": false,
      "metar": "METAR LIPE 131420Z 07006KT 8000 SCT015 BKN040 15/15 Q1005",
      "taf": "TAF LIPE 131100Z 1312/1412 07012KT 7000 BKN014"
    },
    {
      "icao": "LIPH",
      "alert": "OK",
      "vis_m": 9999,
      "fzfg": false,
      "metar_trigger": false,
      "taf_trigger": false,
      "metar": "METAR LIPH 131420Z 13012KT 090V160 9999 SCT060 20/10 Q1007",
      "taf": "TAF LIPH 131100Z 1312/1412 10012KT 9999 BKN060"
    },
    {
      "icao": "LIPQ",
      "alert": "OK",
      "vis_m": 9999,
      "fzfg": false,
      "metar_trigger": false,
      "taf_trigger": false,
      "metar": "METAR LIPQ 131420Z AUTO 10011KT 9999 FEW150/// BKN180/// 21/07 Q1007",
      "taf": "TAF LIPQ 131100Z 1312/1412 10012KT 9999 FEW060"
    },
    {
      "icao": "LIPR",
      "alert": "OK",
      "vis_m": 7000,
      "fzfg": false,
      "metar_trigger": false,
      "taf_trigger": false,
      "metar": "METAR LIPR 131420Z 11011KT 080V140 7000 SCT030 BKN045 15/13 Q1004",
      "taf": "TAF LIPR 131100Z 1312/1412 10012KT 8000 SCT012 BKN030"
    },
    {
      "icao": "LIPX",
      "alert": "OK",
      "vis_m": 9999,
      "fzfg": false,
      "metar_trigger": false,
      "taf_trigger": false,
      "metar": "METAR LIPX 131420Z 09016G28KT 9999 BKN055 19/08 Q1006",
      "taf": "TAF LIPX 131100Z 1312/1412 09010KT 9999 SCT040"
    },
    {
      "icao": "LIPY",
      "alert": "OK",
      "vis_m": 9999,
      "fzfg": false,
      "metar_trigger": false,
      "taf_trigger": false,
      "metar": "METAR LIPY 131420Z AUTO 12008KT 080V170 9999 FEW016/// BKN024/// 18/14 Q1004",
      "taf": "TAF LIPY 131100Z 1312/1412 13012KT 8000 SCT012 BKN030"
    },
    {
      "icao": "LIPZ",
      "alert": "OK",
      "vis_m": 9999,
      "fzfg": false,
      "metar_trigger": false,
      "taf_trigger": false,
      "metar": "METAR LIPZ 131420Z 11013KT 9999 SCT065 19/11 Q1007 NOSIG",
      "taf": "TAF LIPZ 131100Z 1312/1418 10012KT 9999 BKN050"
    },
    {
      "icao": "LIRF",
      "alert": "OK",
      "vis_m": 7000,
      "fzfg": false,
      "metar_trigger": false,
      "taf_trigger": false,
      "metar": "METAR LIRF 131420Z 15017KT 7000 SCT020 19/14 Q1001 NOSIG",
      "taf": "TAF LIRF 131100Z 1312/1418 14018G28KT 9999 SCT020"
    },
    {
      "icao": "LIRN",
      "alert": "OK",
      "vis_m": 8000,
      "fzfg": false,
      "metar_trigger": false,
      "taf_trigger": false,
      "metar": "METAR LIRN 131420Z VRB09KT 8000 FEW030 SCT045 19/13 Q1004 NOSIG",
      "taf": "TAF LIRN 131100Z 1312/1412 17012KT 9999 SCT050"
    },
    {
      "icao": "LIRP",
      "alert": "OK",
      "vis_m": 9999,
      "fzfg": false,
      "metar_trigger": false,
      "taf_trigger": false,
      "metar": "METAR LIRP 131415Z 12007KT 9999 SCT050 BKN070 17/14 Q1003 NOSIG",
      "taf": "TAF LIRP 131100Z 1312/1412 09010KT 9999 RA BKN080"
    },
    {
      "icao": "LIRZ",
      "alert": "OK",
      "vis_m": 9999,
      "fzfg": false,
      "metar_trigger": false,
      "taf_trigger": false,
      "metar": "METAR LIRZ 131420Z AUTO 25007KT 9999 -RA BKN046/// 18/12 Q1002",
      "taf": "TAF LIRZ 131100Z 1312/1412 02011KT 9999 SCT040"
    },
    {
      "icao": "LJLJ",
      "alert": "OK",
      "vis_m": 9999,
      "fzfg": false,
      "metar_trigger": false,
      "taf_trigger": false,
      "metar": "METAR LJLJ 131400Z 14009KT 110V170 9999 FEW070 BKN120 BKN200 16/05 Q1010 NOSIG",
      "taf": ""
    },
    {
      "icao": "LKMT",
      "alert": "OK",
      "vis_m": 9999,
      "fzfg": false,
      "metar_trigger": false,
      "taf_trigger": false,
      "metar": "METAR LKMT 131400Z 04010KT CAVOK 15/02 Q1015 NOSIG",
      "taf": "TAF LKMT 131100Z 1312/1412 05012KT CAVOK"
    },
    {
      "icao": "LKPR",
      "alert": "OK",
      "vis_m": 9999,
      "fzfg": false,
      "metar_trigger": false,
      "taf_trigger": false,
      "metar": "METAR LKPR 131400Z 13016KT CAVOK 15/01 Q1011 NOSIG",
      "taf": "TAF LKPR 131400Z 1315/1421 11012KT CAVOK"
    },
    {
      "icao": "LLBG",
      "alert": "OK",
      "vis_m": 9999,
      "fzfg": false,
      "metar_trigger": false,
      "taf_trigger": false,
      "metar": "METAR LLBG 131420Z 34012KT 9999 FEW030 21/11 Q1018 NOSIG",
      "taf": "TAF LLBG 131105Z 1312/1412 30010KT CAVOK TX21/1312Z TN10/1403Z"
    },
    {
      "icao": "LMML",
      "alert": "OK",
      "vis_m": 4000,
      "fzfg": false,
      "metar_trigger": false,
      "taf_trigger": false,
      "metar": "METAR LMML 131415Z 21009KT 180V250 4000 DU NSC 22/15 Q1005 NOSIG",
      "taf": "TAF LMML 131100Z 1312/1412 21011KT 5000 DU NSC"
    },
    {
      "icao": "LOWW",
      "alert": "OK",
      "vis_m": 9999,
      "fzfg": false,
      "metar_trigger": false,
      "taf_trigger": false,
      "metar": "METAR LOWW 131420Z 14012KT 9999 FEW050 15/01 Q1013 NOSIG",
      "taf": "TAF LOWW 131415Z 1315/1421 14012KT 9999 SCT050 TX17/1413Z TN09/1404Z"
    },
    {
      "icao": "LPFR",
      "alert": "OK",
      "vis_m": 9999,
      "fzfg": false,
      "metar_trigger": false,
      "taf_trigger": false,
      "metar": "METAR LPFR 131400Z 31013KT 280V340 9999 SCT030 18/07 Q1021",
      "taf": "TAF LPFR 131100Z 1312/1412 32015KT 9999 SCT030"
    },
    {
      "icao": "LPMA",
      "alert": "OK",
      "vis_m": 9999,
      "fzfg": false,
      "metar_trigger": false,
      "taf_trigger": false,
      "metar": "METAR LPMA 131400Z 04013KT 9999 SCT015 18/08 Q1026",
      "taf": "TAF LPMA 131100Z 1312/1412 02012KT 9999 SCT015 SCT030"
    },
    {
      "icao": "LPPR",
      "alert": "OK",
      "vis_m": 9999,
      "fzfg": false,
      "metar_trigger": false,
      "taf_trigger": false,
      "metar": "METAR LPPR 131400Z 24007KT 210V270 9999 VCSH SCT017 BKN040 14/10 Q1021",
      "taf": "TAF LPPR 131100Z 1312/1412 21008KT 9999 SCT008 BKN016"
    },
    {
      "icao": "LPPS",
      "alert": "OK",
      "vis_m": 9999,
      "fzfg": false,
      "metar_trigger": false,
      "taf_trigger": false,
      "metar": "METAR LPPS 131400Z 02010KT 350V060 9999 FEW015 SCT030 17/09 Q1026",
      "taf": "TAF LPPS 131100Z 1312/1418 05010KT 9999 SCT015 BKN030"
    },
    {
      "icao": "LPPT",
      "alert": "OK",
      "vis_m": 9999,
      "fzfg": false,
      "metar_trigger": false,
      "taf_trigger": false,
      "metar": "METAR LPPT 131400Z 30011KT 260V330 9999 FEW032 SCT038 17/08 Q1022",
      "taf": "TAF LPPT 131100Z 1312/1418 32010KT 9999 SCT030"
    },
    {
      "icao": "LQBK",
      "alert": "OK",
      "vis_m": 9999,
      "fzfg": false,
      "metar_trigger": false,
      "taf_trigger": false,
      "metar": "METAR LQBK 131400Z 03006KT 360V070 CAVOK 19/06 Q1010 NOSIG",
      "taf": ""
    },
    {
      "icao": "LQSA",
      "alert": "OK",
      "vis_m": 9999,
      "fzfg": false,
      "metar_trigger": false,
      "taf_trigger": false,
      "metar": "METAR LQSA 131400Z 16013KT 140V200 9999 FEW050 23/00 Q1009 NOSIG",
      "taf": "TAF LQSA 131100Z 1312/1412 11007KT CAVOK TX25/1313Z TN06/1404Z"
    },
    {
      "icao": "LQTZ",
      "alert": "OK",
      "vis_m": 9999,
      "fzfg": false,
      "metar_trigger": false,
      "taf_trigger": false,
      "metar": "METAR LQTZ 131400Z 14007KT 110V170 9999 FEW050 22/09 Q1009",
      "taf": "TAF LQTZ 131100Z 1312/1412 17006KT CAVOK TX23/1313Z TN08/1404Z"
    },
    {
      "icao": "LRBC",
      "alert": "OK",
      "vis_m": 9999,
      "fzfg": false,
      "metar_trigger": false,
      "taf_trigger": false,
      "metar": "METAR LRBC 131400Z 16009KT 9999 OVC052 12/01 Q1022",
      "taf": "TAF LRBC 131100Z 1312/1321 15010KT CAVOK"
    },
    {
      "icao": "LRBS",
      "alert": "OK",
      "vis_m": 9999,
      "fzfg": false,
      "metar_trigger": false,
      "taf_trigger": false,
      "metar": "METAR LRBS 131400Z 08010KT 050V110 CAVOK 16/02 Q1020 NOSIG",
      "taf": "TAF LRBS 131100Z 1312/1412 08012KT CAVOK"
    },
    {
      "icao": "LRBV",
      "alert": "OK",
      "vis_m": 9999,
      "fzfg": false,
      "metar_trigger": false,
      "taf_trigger": false,
      "metar": "METAR LRBV 131400Z 07012KT 9999 SCT062 14/01 Q1018",
      "taf": "TAF LRBV 131100Z 1312/1321 09010KT CAVOK"
    },
    {
      "icao": "LRCL",
      "alert": "OK",
      "vis_m": 9999,
      "fzfg": false,
      "metar_trigger": false,
      "taf_trigger": false,
      "metar": "METAR LRCL 131400Z 10007KT CAVOK 14/M01 Q1018",
      "taf": "TAF LRCL 131100Z 1312/1321 12008KT CAVOK"
    },
    {
      "icao": "LRCV",
      "alert": "OK",
      "vis_m": 9999,
      "fzfg": false,
      "metar_trigger": false,
      "taf_trigger": false,
      "metar": "METAR LRCV 131400Z 10013KT CAVOK 16/04 Q1018",
      "taf": "TAF LRCV 131100Z 1312/1321 10012KT CAVOK"
    },
    {
      "icao": "LRIA",
      "alert": "OK",
      "vis_m": 9999,
      "fzfg": false,
      "metar_trigger": false,
      "taf_trigger": false,
      "metar": "METAR LRIA 131400Z 34005KT 300V030 CAVOK 14/M03 Q1022",
      "taf": "TAF LRIA 131100Z 1312/1321 11006KT CAVOK"
    },
    {
      "icao": "LROP",
      "alert": "OK",
      "vis_m": 9999,
      "fzfg": false,
      "metar_trigger": false,
      "taf_trigger": false,
      "metar": "METAR LROP 131400Z 09010KT CAVOK 16/M02 Q1020 NOSIG",
      "taf": "TAF LROP 131100Z 1312/1412 08012KT CAVOK"
    },
    {
      "icao": "LRSB",
      "alert": "OK",
      "vis_m": 9999,
      "fzfg": false,
      "metar_trigger": false,
      "taf_trigger": false,
      "metar": "METAR LRSB 131400Z 13014KT CAVOK 16/00 Q1017",
      "taf": "TAF LRSB 131100Z 1312/1412 12014KT CAVOK"
    },
    {
      "icao": "LRSM",
      "alert": "OK",
      "vis_m": 9999,
      "fzfg": false,
      "metar_trigger": false,
      "taf_trigger": false,
      "metar": "METAR LRSM 131400Z 12009KT CAVOK 16/M03 Q1017",
      "taf": "TAF LRSM 131100Z 1312/1321 13006KT CAVOK"
    },
    {
      "icao": "LRSV",
      "alert": "OK",
      "vis_m": 9999,
      "fzfg": false,
      "metar_trigger": false,
      "taf_trigger": false,
      "metar": "METAR LRSV 131400Z 10005KT 060V160 CAVOK 12/M01 Q1021",
      "taf": "TAF LRSV 131100Z 1312/1321 08006KT CAVOK"
    },
    {
      "icao": "LRTM",
      "alert": "OK",
      "vis_m": 9999,
      "fzfg": false,
      "metar_trigger": false,
      "taf_trigger": false,
      "metar": "METAR LRTM 131400Z 09005KT 030V130 9999 FEW040 16/M01 Q1018",
      "taf": "TAF LRTM 131100Z 1312/1321 10008KT CAVOK"
    },
    {
      "icao": "LRTR",
      "alert": "OK",
      "vis_m": 9999,
      "fzfg": false,
      "metar_trigger": false,
      "taf_trigger": false,
      "metar": "METAR LRTR 131400Z 09010KT CAVOK 18/02 Q1014",
      "taf": "TAF LRTR 131100Z 1312/1412 10010KT CAVOK"
    },
    {
      "icao": "LTAC",
      "alert": "OK",
      "vis_m": 9999,
      "fzfg": false,
      "metar_trigger": false,
      "taf_trigger": false,
      "metar": "METAR LTAC 131420Z 27011KT 9999 FEW040 SCT180 12/M06 Q1018 NOSIG RMK RWY21C 26010KT 220V280 RWY03L 26009KT RWY21R 25010KT RWY03R 26010KT 220V280 RWY21L 26010KT",
      "taf": "TAF LTAC 131040Z 1312/1412 VRB02KT 9999 FEW040 SCT200"
    },
    {
      "icao": "LTFM",
      "alert": "OK",
      "vis_m": 9999,
      "fzfg": false,
      "metar_trigger": false,
      "taf_trigger": false,
      "metar": "METAR LTFM 131420Z 07013KT CAVOK 11/04 Q1022 NOSIG RMK RWY17L 08015KT RWY34L 06013KT RWY16R 08014KT RWY36 08014KT 030V090 RWY18 09014KT",
      "taf": "TAF LTFM 131040Z 1312/1418 07014KT CAVOK"
    },
    {
      "icao": "LUKK",
      "alert": "OK",
      "vis_m": 9999,
      "fzfg": false,
      "metar_trigger": false,
      "taf_trigger": false,
      "metar": "METAR LUKK 131400Z 03010KT 330V080 9999 -SHRA FEW027 SCT033CB OVC044 09/02 Q1023 TEMPO SCT045CB",
      "taf": "TAF LUKK 131119Z 1312/1412 VRB05KT CAVOK"
    },
    {
      "icao": "LWOH",
      "alert": "OK",
      "vis_m": 9999,
      "fzfg": false,
      "metar_trigger": false,
      "taf_trigger": false,
      "metar": "METAR LWOH 131420Z 17009KT 140V200 9999 FEW035 SCT090 16/09 Q1015",
      "taf": "TAF LWOH 131140Z 1312/1412 18010KT 9999 SCT040"
    },
    {
      "icao": "LWSK",
      "alert": "OK",
      "vis_m": 9999,
      "fzfg": false,
      "metar_trigger": false,
      "taf_trigger": false,
      "metar": "METAR LWSK 131420Z 11014KT 9999 FEW044 18/09 Q1016 NOSIG",
      "taf": ""
    },
    {
      "icao": "LYBE",
      "alert": "OK",
      "vis_m": 9999,
      "fzfg": false,
      "metar_trigger": false,
      "taf_trigger": false,
      "metar": "METAR LYBE 131400Z 09017KT CAVOK 19/05 Q1012 NOSIG",
      "taf": "TAF LYBE 131100Z 1312/1412 11018KT CAVOK TX20/1313Z TN08/1404Z"
    },
    {
      "icao": "LYNI",
      "alert": "OK",
      "vis_m": 9999,
      "fzfg": false,
      "metar_trigger": false,
      "taf_trigger": false,
      "metar": "METAR LYNI 131400Z 09008KT 060V120 CAVOK 22/07 Q1013 NOSIG",
      "taf": "TAF LYNI 131100Z 1312/1412 11007KT CAVOK TX22/1313Z TN08/1404Z"
    },
    {
      "icao": "LYPG",
      "alert": "OK",
      "vis_m": 9999,
      "fzfg": false,
      "metar_trigger": false,
      "taf_trigger": false,
      "metar": "METAR LYPG 131400Z 21004KT 160V270 CAVOK 25/06 Q1009 NOSIG",
      "taf": "TAF LYPG 131100Z 1312/1412 16005KT CAVOK TX22/1313Z TN10/1404Z"
    },
    {
      "icao": "LZIB",
      "alert": "OK",
      "vis_m": 9999,
      "fzfg": false,
      "metar_trigger": false,
      "taf_trigger": false,
      "metar": "METAR LZIB 131400Z 11015KT CAVOK 16/00 Q1014 NOSIG",
      "taf": "TAF LZIB 131115Z 1312/1412 12011KT CAVOK"
    },
    {
      "icao": "LZKZ",
      "alert": "OK",
      "vis_m": 9999,
      "fzfg": false,
      "metar_trigger": false,
      "taf_trigger": false,
      "metar": "METAR LZKZ 131400Z 09007KT CAVOK 15/M01 Q1018 NOSIG",
      "taf": "TAF LZKZ 131115Z 1312/1412 08007KT CAVOK"
    },
    {
      "icao": "LZTT",
      "alert": "OK",
      "vis_m": 9999,
      "fzfg": false,
      "metar_trigger": false,
      "taf_trigger": false,
      "metar": "METAR LZTT 131400Z 10008KT 9999 FEW063 12/M04 Q1017 NOSIG",
      "taf": "TAF LZTT 131115Z 1312/1412 10007KT 9999 SCT055"
    },
    {
      "icao": "OEJN",
      "alert": "OK",
      "vis_m": 9999,
      "fzfg": false,
      "metar_trigger": false,
      "taf_trigger": false,
      "metar": "METAR OEJN 131400Z 30011KT CAVOK 29/14 Q1009 NOSIG",
      "taf": "TAF OEJN 131100Z 1312/1418 30012KT 9999 FEW040"
    },
    {
      "icao": "OEMA",
      "alert": "OK",
      "vis_m": 9999,
      "fzfg": false,
      "metar_trigger": false,
      "taf_trigger": false,
      "metar": "METAR OEMA 131400Z 20006KT CAVOK 32/M15 Q1013 NOSIG",
      "taf": "TAF OEMA 131100Z 1312/1418 30010KT CAVOK"
    },
    {
      "icao": "OJAI",
      "alert": "OK",
      "vis_m": 5000,
      "fzfg": false,
      "metar_trigger": false,
      "taf_trigger": false,
      "metar": "METAR OJAI 131300Z 27008KT 5000 HZ NSC 19/06 Q1019 NOSIG",
      "taf": "TAF OJAI 131100Z 1312/1418 30010KT 5000 HZ SCT035"
    },
    {
      "icao": "OMAA",
      "alert": "OK",
      "vis_m": null,
      "fzfg": false,
      "metar_trigger": false,
      "taf_trigger": false,
      "metar": "",
      "taf": ""
    },
    {
      "icao": "OMDB",
      "alert": "OK",
      "vis_m": null,
      "fzfg": false,
      "metar_trigger": false,
      "taf_trigger": false,
      "metar": "",
      "taf": ""
    },
    {
      "icao": "UAAA",
      "alert": "OK",
      "vis_m": 9999,
      "fzfg": false,
      "metar_trigger": false,
      "taf_trigger": false,
      "metar": "METAR UAAA 131400Z 18002MPS 9999 SCT050CB BKN100 17/04 Q1017 NOSIG",
      "taf": "TAF UAAA 131104Z 1312/1412 19002G07MPS 9999 FEW050CB SCT100 TX22/1409Z TN07/1401Z"
    },
    {
      "icao": "UBBB",
      "alert": "OK",
      "vis_m": 9999,
      "fzfg": false,
      "metar_trigger": false,
      "taf_trigger": false,
      "metar": "METAR UBBB 131400Z 33010KT 9999 FEW012 FEW035CB OVC035 10/08 Q1015 NOSIG",
      "taf": "TAF UBBB 131051Z 1312/1412 36010KT 9999 SCT012 BKN020 TX12/1312Z TN08/1401Z"
    },
    {
      "icao": "UDSG",
      "alert": "OK",
      "vis_m": 9999,
      "fzfg": false,
      "metar_trigger": false,
      "taf_trigger": false,
      "metar": "METAR UDSG 131400Z 36007KT 9999 SCT036CB BKN046 03/M04 Q1015 NOSIG",
      "taf": "TAF UDSG 131058Z 1312/1412 36010KT 9999 BKN050"
    },
    {
      "icao": "UDYZ",
      "alert": "OK",
      "vis_m": 9999,
      "fzfg": false,
      "metar_trigger": false,
      "taf_trigger": false,
      "metar": "METAR UDYZ 131400Z 25008KT 9999 BKN043CB 10/02 Q1013 NOSIG",
      "taf": "TAF UDYZ 131100Z 1312/1412 12006KT 9999 BKN030"
    },
    {
      "icao": "UGKO",
      "alert": "OK",
      "vis_m": 9999,
      "fzfg": false,
      "metar_trigger": false,
      "taf_trigger": false,
      "metar": "METAR UGKO 131400Z 24019KT 9999 BKN026CB OVC036 09/05 Q1020 NOSIG",
      "taf": "TAF UGKO 131100Z 1312/1412 25007KT 9999 SCT023 OVC045 TX13/1411Z TN05/1403Z"
    }
  ]
}