{
  "ts_utc": "2026-05-17T14:13:28Z",
  "threshold_m": 150,
  "source": "stations_override.txt (ICAO list) + aviationweather.gov (METAR/TAF raw)",
  "station_count": 159,
  "stations": [
    {
      "icao": "BIKF",
      "alert": "OK",
      "vis_m": 9999,
      "fzfg": false,
      "metar_trigger": false,
      "taf_trigger": false,
      "metar": "METAR BIKF 171400Z 14015KT 9999 BKN031 BKN062 09/02 Q1008",
      "taf": "TAF BIKF 171317Z 1715/1815 13013KT 9999 SCT050 TX11/1815Z TN02/1805Z"
    },
    {
      "icao": "BKPR",
      "alert": "OK",
      "vis_m": 9999,
      "fzfg": false,
      "metar_trigger": false,
      "taf_trigger": false,
      "metar": "METAR BKPR 171400Z 34010KT 9999 BKN045 14/07 Q1010 NOSIG",
      "taf": "TAF BKPR 171130Z 1712/1812 32008KT 9999 SCT030 BKN050"
    },
    {
      "icao": "EBCI",
      "alert": "OK",
      "vis_m": 9999,
      "fzfg": false,
      "metar_trigger": false,
      "taf_trigger": false,
      "metar": "METAR EBCI 171350Z 20008KT 160V230 9999 SCT025 BKN045 14/09 Q1012 TEMPO 3500 SHRA",
      "taf": "TAF EBCI 171100Z 1712/1818 20008KT 9999 FEW020TCU SCT030"
    },
    {
      "icao": "EDDB",
      "alert": "OK",
      "vis_m": 9999,
      "fzfg": false,
      "metar_trigger": false,
      "taf_trigger": false,
      "metar": "METAR EDDB 171350Z AUTO VRB04KT CAVOK 18/03 Q1014 NOSIG",
      "taf": ""
    },
    {
      "icao": "EDDH",
      "alert": "OK",
      "vis_m": 9999,
      "fzfg": false,
      "metar_trigger": false,
      "taf_trigger": false,
      "metar": "METAR EDDH 171350Z AUTO 22012KT CAVOK 15/05 Q1013 NOSIG",
      "taf": "TAF EDDH 171100Z 1712/1818 20010KT 9999 SCT045"
    },
    {
      "icao": "EDDK",
      "alert": "OK",
      "vis_m": 9999,
      "fzfg": false,
      "metar_trigger": false,
      "taf_trigger": false,
      "metar": "METAR EDDK 171350Z AUTO 19007KT 9999 -RA FEW036 15/09 Q1013 NOSIG",
      "taf": "TAF EDDK 171100Z 1712/1818 16009KT 9999 BKN030"
    },
    {
      "icao": "EDDN",
      "alert": "OK",
      "vis_m": 9999,
      "fzfg": false,
      "metar_trigger": false,
      "taf_trigger": false,
      "metar": "METAR EDDN 171350Z AUTO 20005KT 140V270 CAVOK 15/03 Q1015 NOSIG",
      "taf": "TAF EDDN 171100Z 1712/1812 28005KT CAVOK"
    },
    {
      "icao": "EDDS",
      "alert": "OK",
      "vis_m": 9999,
      "fzfg": false,
      "metar_trigger": false,
      "taf_trigger": false,
      "metar": "METAR EDDS 171350Z AUTO 32007KT CAVOK 14/03 Q1015 NOSIG",
      "taf": ""
    },
    {
      "icao": "EDFH",
      "alert": "OK",
      "vis_m": 9999,
      "fzfg": false,
      "metar_trigger": false,
      "taf_trigger": false,
      "metar": "METAR EDFH 171350Z 25008KT 210V280 9999 FEW034 SCT043 13/06 Q1014",
      "taf": "TAF EDFH 171100Z 1712/1812 23008KT 9999 SCT020 BKN030"
    },
    {
      "icao": "EDJA",
      "alert": "OK",
      "vis_m": 9999,
      "fzfg": false,
      "metar_trigger": false,
      "taf_trigger": false,
      "metar": "METAR EDJA 171350Z 01003KT 320V100 9999 SCT059 13/01 Q1015",
      "taf": "TAF EDJA 171100Z 1712/1721 24005KT 9999 SCT045"
    },
    {
      "icao": "EDLW",
      "alert": "OK",
      "vis_m": 9999,
      "fzfg": false,
      "metar_trigger": false,
      "taf_trigger": false,
      "metar": "METAR EDLW 171350Z 20011KT 170V230 9999 SCT035 15/08 Q1013",
      "taf": "TAF EDLW 171100Z 1712/1812 20010KT 9999 BKN040"
    },
    {
      "icao": "EDNY",
      "alert": "OK",
      "vis_m": 9999,
      "fzfg": false,
      "metar_trigger": false,
      "taf_trigger": false,
      "metar": "METAR EDNY 171350Z 23006KT 190V300 CAVOK 16/01 Q1015",
      "taf": "TAF EDNY 171100Z 1712/1721 22005KT CAVOK"
    },
    {
      "icao": "EDSB",
      "alert": "OK",
      "vis_m": 9999,
      "fzfg": false,
      "metar_trigger": false,
      "taf_trigger": false,
      "metar": "METAR EDSB 171350Z VRB03KT CAVOK 17/03 Q1015",
      "taf": "TAF EDSB 171100Z 1712/1812 23005KT 9999 FEW045"
    },
    {
      "icao": "EETN",
      "alert": "OK",
      "vis_m": 9999,
      "fzfg": false,
      "metar_trigger": false,
      "taf_trigger": false,
      "metar": "METAR EETN 171350Z 32006KT 290V020 CAVOK 11/06 Q1017 NOSIG",
      "taf": "TAF EETN 171130Z 1712/1812 33010KT CAVOK"
    },
    {
      "icao": "EFTU",
      "alert": "OK",
      "vis_m": 9999,
      "fzfg": false,
      "metar_trigger": false,
      "taf_trigger": false,
      "metar": "METAR EFTU 171350Z AUTO 19010KT 150V220 9999 SCT020 11/05 Q1015",
      "taf": "TAF EFTU 171124Z 1712/1812 19010KT 9999 BKN013"
    },
    {
      "icao": "EGBB",
      "alert": "OK",
      "vis_m": 9999,
      "fzfg": false,
      "metar_trigger": false,
      "taf_trigger": false,
      "metar": "METAR EGBB 171350Z VRB03KT 9999 BKN039CB 12/06 Q1009",
      "taf": ""
    },
    {
      "icao": "EGGP",
      "alert": "OK",
      "vis_m": 9999,
      "fzfg": false,
      "metar_trigger": false,
      "taf_trigger": false,
      "metar": "METAR EGGP 171350Z 29013KT 9999 SCT038 13/04 Q1008",
      "taf": "TAF EGGP 171102Z 1712/1812 26012KT 9999 SCT020"
    },
    {
      "icao": "EGGW",
      "alert": "OK",
      "vis_m": 9999,
      "fzfg": false,
      "metar_trigger": false,
      "taf_trigger": false,
      "metar": "METAR EGGW 171350Z AUTO 26013KT 210V290 9999 FEW048 15/03 Q1010",
      "taf": "TAF EGGW 171104Z 1712/1812 27012KT 9999 SCT030"
    },
    {
      "icao": "EGKK",
      "alert": "OK",
      "vis_m": 9999,
      "fzfg": false,
      "metar_trigger": false,
      "taf_trigger": false,
      "metar": "METAR EGKK 171350Z 23009KT 9999 FEW048 15/05 Q1010",
      "taf": "TAF EGKK 171055Z 1712/1818 24008KT 9999 SCT035"
    },
    {
      "icao": "EGNM",
      "alert": "OK",
      "vis_m": 9999,
      "fzfg": false,
      "metar_trigger": false,
      "taf_trigger": false,
      "metar": "METAR EGNM 171350Z 26014KT 9999 FEW032 SCT043 12/01 Q1007",
      "taf": "TAF EGNM 171101Z 1712/1812 26012KT 9999 SCT035"
    },
    {
      "icao": "EGPD",
      "alert": "OK",
      "vis_m": 9999,
      "fzfg": false,
      "metar_trigger": false,
      "taf_trigger": false,
      "metar": "METAR EGPD 171350Z 28012KT 9999 VCSH SCT043CB 13/04 Q1002",
      "taf": ""
    },
    {
      "icao": "EGPF",
      "alert": "OK",
      "vis_m": 8000,
      "fzfg": false,
      "metar_trigger": false,
      "taf_trigger": false,
      "metar": "METAR EGPF 171350Z 29011KT 8000 -SHRA BKN021TCU BKN025 OVC040 09/06 Q1005",
      "taf": ""
    },
    {
      "icao": "EHBK",
      "alert": "OK",
      "vis_m": 9999,
      "fzfg": false,
      "metar_trigger": false,
      "taf_trigger": false,
      "metar": "METAR EHBK 171355Z AUTO 20011KT 170V240 9999 OVC035 14/09 Q1012 NOSIG",
      "taf": "TAF EHBK 171119Z 1712/1818 21010KT 9999 BKN025"
    },
    {
      "icao": "EHEH",
      "alert": "OK",
      "vis_m": 9999,
      "fzfg": false,
      "metar_trigger": false,
      "taf_trigger": false,
      "metar": "METAR EHEH 171355Z AUTO 18009KT 130V240 9999 SCT027 BKN031 BKN036 16/09 Q1011 BLU BECMG SCT020 BKN025",
      "taf": "TAF EHEH 171129Z 1712/1818 21010KT 9999 SCT022 BKN030"
    },
    {
      "icao": "EKBI",
      "alert": "OK",
      "vis_m": 9999,
      "fzfg": false,
      "metar_trigger": false,
      "taf_trigger": false,
      "metar": "METAR EKBI 171350Z AUTO 17010KT 130V200 9999 BKN037/// OVC062/// 13/06 Q1012",
      "taf": "TAF EKBI 171133Z 1712/1812 17010KT 9999 BKN030"
    },
    {
      "icao": "EKCH",
      "alert": "OK",
      "vis_m": 9999,
      "fzfg": false,
      "metar_trigger": false,
      "taf_trigger": false,
      "metar": "METAR EKCH 171350Z AUTO 15013KT 9999 SCT079/// 13/04 Q1015 NOSIG",
      "taf": "TAF EKCH 171127Z 1712/1812 15014KT 9999 FEW030"
    },
    {
      "icao": "ENAL",
      "alert": "OK",
      "vis_m": 9999,
      "fzfg": false,
      "metar_trigger": false,
      "taf_trigger": false,
      "metar": "METAR ENAL 171350Z 26017KT 9999 FEW025TCU 12/07 Q1006",
      "taf": "TAF ENAL 171100Z 1712/1721 25015KT CAVOK"
    },
    {
      "icao": "ENBR",
      "alert": "OK",
      "vis_m": 9999,
      "fzfg": false,
      "metar_trigger": false,
      "taf_trigger": false,
      "metar": "METAR ENBR 171350Z 19013KT 9999 FEW020CB SCT035 11/02 Q1008 NOSIG RMK WIND 1200FT 20015KT",
      "taf": ""
    },
    {
      "icao": "ENGM",
      "alert": "OK",
      "vis_m": 9999,
      "fzfg": false,
      "metar_trigger": false,
      "taf_trigger": false,
      "metar": "METAR ENGM 171350Z 22010KT 180V250 9999 -SHRA FEW017 BKN035 11/05 Q1009 NOSIG",
      "taf": ""
    },
    {
      "icao": "ENHD",
      "alert": "OK",
      "vis_m": 9999,
      "fzfg": false,
      "metar_trigger": false,
      "taf_trigger": false,
      "metar": "METAR ENHD 171350Z 19013KT 9999 FEW040 12/01 Q1008",
      "taf": "TAF ENHD 171100Z 1712/1721 17012KT 9999 SCT040"
    },
    {
      "icao": "ENTC",
      "alert": "OK",
      "vis_m": 9999,
      "fzfg": false,
      "metar_trigger": false,
      "taf_trigger": false,
      "metar": "METAR ENTC 171350Z 02016KT 9999 FEW025 09/03 Q1009 NOSIG RMK WIND 2600FT 09009KT",
      "taf": "TAF ENTC 171100Z 1712/1812 02014KT 9999 SCT020"
    },
    {
      "icao": "ENTO",
      "alert": "OK",
      "vis_m": 9999,
      "fzfg": false,
      "metar_trigger": false,
      "taf_trigger": false,
      "metar": "METAR ENTO 171350Z 21017KT 9999 SCT023TCU 12/05 Q1011 NOSIG",
      "taf": "TAF ENTO 171100Z 1712/1812 20012KT 9999 FEW020"
    },
    {
      "icao": "ENVA",
      "alert": "OK",
      "vis_m": 9999,
      "fzfg": false,
      "metar_trigger": false,
      "taf_trigger": false,
      "metar": "METAR ENVA 171350Z 26009KT 9999 SCT050TCU 14/05 Q1006 NOSIG RMK WIND 670FT 29011KT",
      "taf": "TAF ENVA 171100Z 1712/1812 27010KT CAVOK"
    },
    {
      "icao": "ENZV",
      "alert": "OK",
      "vis_m": 9999,
      "fzfg": false,
      "metar_trigger": false,
      "taf_trigger": false,
      "metar": "METAR ENZV 171350Z 17017KT 9999 FEW038 13/03 Q1008 NOSIG",
      "taf": "TAF ENZV 171100Z 1712/1812 16012KT 9999 FEW020 SCT040"
    },
    {
      "icao": "EPGD",
      "alert": "OK",
      "vis_m": 9999,
      "fzfg": false,
      "metar_trigger": false,
      "taf_trigger": false,
      "metar": "METAR EPGD 171400Z 05011KT CAVOK 12/04 Q1017",
      "taf": "TAF EPGD 171130Z 1712/1812 04010KT 9999 SCT048"
    },
    {
      "icao": "EPKK",
      "alert": "OK",
      "vis_m": 3500,
      "fzfg": false,
      "metar_trigger": false,
      "taf_trigger": false,
      "metar": "METAR EPKK 171400Z 27006KT 3500 -RA BR SCT006 SCT010 OVC020 09/08 Q1014",
      "taf": ""
    },
    {
      "icao": "EPKT",
      "alert": "OK",
      "vis_m": 9999,
      "fzfg": false,
      "metar_trigger": false,
      "taf_trigger": false,
      "metar": "METAR EPKT 171400Z 30010KT 9999 -RA FEW003 BKN033 09/08 Q1015",
      "taf": "TAF EPKT 171130Z 1712/1812 32007KT 9999 -RA BKN045"
    },
    {
      "icao": "EPLB",
      "alert": "OK",
      "vis_m": 9999,
      "fzfg": false,
      "metar_trigger": false,
      "taf_trigger": false,
      "metar": "METAR EPLB 171400Z 31010KT 9999 FEW012 SCT020 18/14 Q1010",
      "taf": "TAF EPLB 171130Z 1712/1812 35010KT 9999 OVC008"
    },
    {
      "icao": "EPMO",
      "alert": "OK",
      "vis_m": 9999,
      "fzfg": false,
      "metar_trigger": false,
      "taf_trigger": false,
      "metar": "METAR EPMO 171400Z 01012KT 9999 BKN031 13/05 Q1014",
      "taf": "TAF EPMO 171130Z 1712/1812 36010KT 9999 BKN025"
    },
    {
      "icao": "EPPO",
      "alert": "OK",
      "vis_m": 9999,
      "fzfg": false,
      "metar_trigger": false,
      "taf_trigger": false,
      "metar": "METAR EPPO 171400Z 29005KT 250V350 CAVOK 18/02 Q1015",
      "taf": "TAF EPPO 171130Z 1712/1812 30006KT CAVOK"
    },
    {
      "icao": "EPRA",
      "alert": "OK",
      "vis_m": 9999,
      "fzfg": false,
      "metar_trigger": false,
      "taf_trigger": false,
      "metar": "METAR EPRA 171400Z 34008KT 9999 BKN009 OVC015 12/10 Q1013",
      "taf": "TAF EPRA 171130Z 1712/1721 35010KT 9999 BKN010 OVC020"
    },
    {
      "icao": "EPRZ",
      "alert": "OK",
      "vis_m": 9999,
      "fzfg": false,
      "metar_trigger": false,
      "taf_trigger": false,
      "metar": "METAR EPRZ 171400Z 31007KT 9999 OVC006 13/12 Q1011",
      "taf": "TAF EPRZ 171130Z 1712/1812 32008KT 7000 OVC004"
    },
    {
      "icao": "EPSC",
      "alert": "OK",
      "vis_m": 9999,
      "fzfg": false,
      "metar_trigger": false,
      "taf_trigger": false,
      "metar": "METAR EPSC 171400Z 17006KT CAVOK 16/03 Q1015",
      "taf": "TAF EPSC 171130Z 1712/1812 VRB03KT CAVOK"
    },
    {
      "icao": "EPSY",
      "alert": "OK",
      "vis_m": 9999,
      "fzfg": false,
      "metar_trigger": false,
      "taf_trigger": false,
      "metar": "METAR EPSY 171400Z 04012KT 9999 BKN044 13/04 Q1015",
      "taf": "TAF EPSY 171130Z 1712/1721 02013KT 9999 BKN040"
    },
    {
      "icao": "EPWA",
      "alert": "OK",
      "vis_m": 9999,
      "fzfg": false,
      "metar_trigger": false,
      "taf_trigger": false,
      "metar": "METAR EPWA 171400Z 01010KT 340V060 9999 BKN023 13/07 Q1014 NOSIG",
      "taf": "TAF EPWA 171130Z 1712/1812 36012KT 9999 BKN025"
    },
    {
      "icao": "EPWR",
      "alert": "OK",
      "vis_m": 9999,
      "fzfg": false,
      "metar_trigger": false,
      "taf_trigger": false,
      "metar": "METAR EPWR 171400Z 08004KT CAVOK 15/04 Q1016",
      "taf": "TAF EPWR 171130Z 1712/1812 32008KT 9999 FEW040"
    },
    {
      "icao": "ESGG",
      "alert": "OK",
      "vis_m": 9999,
      "fzfg": false,
      "metar_trigger": false,
      "taf_trigger": false,
      "metar": "METAR ESGG 171350Z 21014KT 9999 SCT035 11/04 Q1013",
      "taf": "TAF ESGG 171130Z 1712/1812 22012KT 9999 BKN030"
    },
    {
      "icao": "ESKN",
      "alert": "OK",
      "vis_m": 9999,
      "fzfg": false,
      "metar_trigger": false,
      "taf_trigger": false,
      "metar": "METAR ESKN 171350Z 24008KT 210V270 9999 SCT049 15/04 Q1013",
      "taf": "TAF ESKN 171130Z 1712/1812 22010KT 9999 SCT045"
    },
    {
      "icao": "ESMS",
      "alert": "OK",
      "vis_m": 9999,
      "fzfg": false,
      "metar_trigger": false,
      "taf_trigger": false,
      "metar": "METAR ESMS 171350Z 15009KT 9999 FEW036 13/04 Q1015",
      "taf": "TAF ESMS 171127Z 1712/1812 18012KT 9999 FEW035"
    },
    {
      "icao": "ESSA",
      "alert": "OK",
      "vis_m": 9999,
      "fzfg": false,
      "metar_trigger": false,
      "taf_trigger": false,
      "metar": "METAR ESSA 171350Z 21013KT CAVOK 14/02 Q1013 NOSIG",
      "taf": "TAF ESSA 171130Z 1712/1812 24014KT 9999 SCT030"
    },
    {
      "icao": "EYKA",
      "alert": "OK",
      "vis_m": 9999,
      "fzfg": false,
      "metar_trigger": false,
      "taf_trigger": false,
      "metar": "METAR EYKA 171350Z 36008KT 330V030 9999 OVC025 15/11 Q1015",
      "taf": "TAF EYKA 171100Z 1712/1812 36010KT 9000 BKN025"
    },
    {
      "icao": "EYPA",
      "alert": "OK",
      "vis_m": 9999,
      "fzfg": false,
      "metar_trigger": false,
      "taf_trigger": false,
      "metar": "METAR EYPA 171350Z 33005KT 260V030 CAVOK 13/04 Q1017",
      "taf": "TAF EYPA 171100Z 1712/1812 VRB03KT 9000 NSC"
    },
    {
      "icao": "EYVI",
      "alert": "OK",
      "vis_m": 9999,
      "fzfg": false,
      "metar_trigger": false,
      "taf_trigger": false,
      "metar": "METAR EYVI 171350Z 34011KT CAVOK 21/14 Q1012 NOSIG",
      "taf": "TAF EYVI 171100Z 1712/1812 36008KT 9000 BKN030"
    },
    {
      "icao": "GCFV",
      "alert": "OK",
      "vis_m": 9999,
      "fzfg": false,
      "metar_trigger": false,
      "taf_trigger": false,
      "metar": "METAR GCFV 171400Z 04017KT 9999 FEW035 BKN045 22/12 Q1020",
      "taf": "TAF GCFV 170800Z 1709/1809 02015KT 9999 SCT035 TX23/1714Z TN17/1806Z"
    },
    {
      "icao": "GCLP",
      "alert": "OK",
      "vis_m": 9999,
      "fzfg": false,
      "metar_trigger": false,
      "taf_trigger": false,
      "metar": "METAR GCLP 171400Z 02025KT 9999 FEW040 22/11 Q1021 NOSIG",
      "taf": "TAF GCLP 170800Z 1709/1809 01021KT 9999 FEW030 TX23/1714Z TN17/1806Z"
    },
    {
      "icao": "GCTS",
      "alert": "OK",
      "vis_m": 9999,
      "fzfg": false,
      "metar_trigger": false,
      "taf_trigger": false,
      "metar": "METAR GCTS 171400Z 10022KT 9999 SCT040 23/11 Q1021 NOSIG",
      "taf": "TAF GCTS 170800Z 1709/1809 09017KT 9999 BKN035 TX24/1714Z TN16/1806Z"
    },
    {
      "icao": "GMAD",
      "alert": "OK",
      "vis_m": 9999,
      "fzfg": false,
      "metar_trigger": false,
      "taf_trigger": false,
      "metar": "METAR GMAD 171400Z 24014KT 210V280 9999 FEW030 24/12 Q1015 NOSIG",
      "taf": "TAF GMAD 171100Z 1712/1818 27010KT CAVOK"
    },
    {
      "icao": "GMMN",
      "alert": "OK",
      "vis_m": 9999,
      "fzfg": false,
      "metar_trigger": false,
      "taf_trigger": false,
      "metar": "METAR GMMN 171400Z 34016KT 310V010 9999 BKN026 21/14 Q1019 NOSIG",
      "taf": "TAF GMMN 171100Z 1712/1818 34011KT 9999 SCT020 SCT040"
    },
    {
      "icao": "GMMX",
      "alert": "OK",
      "vis_m": 9999,
      "fzfg": false,
      "metar_trigger": false,
      "taf_trigger": false,
      "metar": "METAR GMMX 171400Z VRB05KT 9999 SCT020 BKN080 23/11 Q1017 NOSIG",
      "taf": "TAF GMMX 171100Z 1712/1818 06006KT 8000 SCT026 SCT080"
    },
    {
      "icao": "HEGN",
      "alert": "OK",
      "vis_m": 9999,
      "fzfg": false,
      "metar_trigger": false,
      "taf_trigger": false,
      "metar": "METAR HEGN 171300Z 12006KT CAVOK 32/13 Q1009 NOSIG",
      "taf": "TAF HEGN 171100Z 1712/1818 03014KT CAVOK"
    },
    {
      "icao": "HEMA",
      "alert": "OK",
      "vis_m": 9999,
      "fzfg": false,
      "metar_trigger": false,
      "taf_trigger": false,
      "metar": "METAR HEMA 171300Z 36010KT CAVOK 32/08 Q1009 NOSIG",
      "taf": "TAF HEMA 171100Z 1712/1818 01012G22KT CAVOK"
    },
    {
      "icao": "HESH",
      "alert": "OK",
      "vis_m": 9999,
      "fzfg": false,
      "metar_trigger": false,
      "taf_trigger": false,
      "metar": "METAR HESH 171300Z 16007KT CAVOK 33/11 Q1009 NOSIG",
      "taf": "TAF HESH 171100Z 1712/1818 02014KT CAVOK"
    },
    {
      "icao": "HESX",
      "alert": "OK",
      "vis_m": 9999,
      "fzfg": false,
      "metar_trigger": false,
      "taf_trigger": false,
      "metar": "METAR HESX 171300Z 23018KT CAVOK 39/08 Q1007 NOSIG",
      "taf": ""
    },
    {
      "icao": "LATI",
      "alert": "OK",
      "vis_m": 9999,
      "fzfg": false,
      "metar_trigger": false,
      "taf_trigger": false,
      "metar": "METAR LATI 171350Z 26008KT 220V310 9999 FEW043 20/10 Q1011 NOSIG",
      "taf": "TAF LATI 171100Z 1712/1812 28010KT 9999 FEW040 TX27/1812Z TN10/1804Z"
    },
    {
      "icao": "LBPD",
      "alert": "OK",
      "vis_m": 9999,
      "fzfg": false,
      "metar_trigger": false,
      "taf_trigger": false,
      "metar": "METAR LBPD 171400Z AUTO 28019KT 9999 FEW073/// BKN130/// OVC150/// 17/08 Q1006 TEMPO 29020G30KT",
      "taf": "TAF LBPD 171100Z 1712/1812 29020KT 9999 SCT050"
    },
    {
      "icao": "LBSF",
      "alert": "OK",
      "vis_m": 9999,
      "fzfg": false,
      "metar_trigger": false,
      "taf_trigger": false,
      "metar": "METAR LBSF 171400Z 29011KT 9999 BKN036 OVC057 12/07 Q1008 NOSIG",
      "taf": "TAF LBSF 171100Z 1712/1812 29012KT 9999 SCT015 BKN025 OVC040"
    },
    {
      "icao": "LBWN",
      "alert": "OK",
      "vis_m": 9999,
      "fzfg": false,
      "metar_trigger": false,
      "taf_trigger": false,
      "metar": "METAR LBWN 171400Z AUTO 30011KT 9999 NSC 19/11 Q1003 NOSIG",
      "taf": "TAF LBWN 171100Z 1712/1812 33013KT 9999 SCT020 BKN045"
    },
    {
      "icao": "LCLK",
      "alert": "OK",
      "vis_m": 9999,
      "fzfg": false,
      "metar_trigger": false,
      "taf_trigger": false,
      "metar": "METAR LCLK 171400Z 21016KT 9999 FEW012 26/11 Q1005 NOSIG",
      "taf": "TAF LCLK 171130Z 1712/1812 20020KT 9999 FEW015"
    },
    {
      "icao": "LCPH",
      "alert": "OK",
      "vis_m": 9999,
      "fzfg": false,
      "metar_trigger": false,
      "taf_trigger": false,
      "metar": "METAR LCPH 171400Z 15010KT CAVOK 24/14 Q1006 NOSIG",
      "taf": "TAF LCPH 171130Z 1712/1812 13015KT 9999 FEW012"
    },
    {
      "icao": "LEAL",
      "alert": "OK",
      "vis_m": 9999,
      "fzfg": false,
      "metar_trigger": false,
      "taf_trigger": false,
      "metar": "METAR LEAL 171400Z 17010KT 130V210 9999 FEW028 23/10 Q1016 NOSIG",
      "taf": "TAF LEAL 171100Z 1712/1812 17012KT 9999 FEW030 TX23/1812Z TN14/1805Z"
    },
    {
      "icao": "LEBB",
      "alert": "OK",
      "vis_m": 9999,
      "fzfg": false,
      "metar_trigger": false,
      "taf_trigger": false,
      "metar": "METAR LEBB 171400Z 27005KT 220V330 9999 SCT025 BKN052 16/11 Q1019 NOSIG",
      "taf": "TAF LEBB 171100Z 1712/1812 31009KT 9999 SCT040 TX17/1712Z TN10/1805Z"
    },
    {
      "icao": "LEBL",
      "alert": "OK",
      "vis_m": 9999,
      "fzfg": false,
      "metar_trigger": false,
      "taf_trigger": false,
      "metar": "METAR LEBL 171400Z 16007KT 130V230 9999 FEW030 20/13 Q1016 NOSIG",
      "taf": "TAF LEBL 171100Z 1712/1812 12007KT 9999 FEW020 TX21/1712Z TN15/1806Z"
    },
    {
      "icao": "LECH",
      "alert": "OK",
      "vis_m": 9999,
      "fzfg": false,
      "metar_trigger": false,
      "taf_trigger": false,
      "metar": "METAR LECH 171400Z AUTO 14009KT 110V170 9999 FEW023 18/11 Q1016",
      "taf": "TAF LECH 171100Z 1712/1812 14008KT 9999 FEW040 TX18/1812Z TN04/1805Z"
    },
    {
      "icao": "LEMD",
      "alert": "OK",
      "vis_m": 9999,
      "fzfg": false,
      "metar_trigger": false,
      "taf_trigger": false,
      "metar": "METAR LEMD 171400Z 21005KT 9999 SCT070 22/05 Q1014 NOSIG",
      "taf": "TAF LEMD 171100Z 1712/1818 VRB04KT CAVOK TX23/1715Z TN07/1805Z"
    },
    {
      "icao": "LEMG",
      "alert": "OK",
      "vis_m": 9999,
      "fzfg": false,
      "metar_trigger": false,
      "taf_trigger": false,
      "metar": "METAR LEMG 171400Z 12013KT 9999 FEW075 20/14 Q1016 NOSIG",
      "taf": "TAF LEMG 171100Z 1712/1812 13011KT 9999 FEW050 TX22/1714Z TN12/1806Z"
    },
    {
      "icao": "LEVC",
      "alert": "OK",
      "vis_m": 9999,
      "fzfg": false,
      "metar_trigger": false,
      "taf_trigger": false,
      "metar": "METAR LEVC 171400Z 14010KT 100V180 9999 FEW060 21/10 Q1015 NOSIG",
      "taf": "TAF LEVC 171100Z 1712/1812 10010KT 9999 FEW060 TX24/1712Z TN13/1805Z"
    },
    {
      "icao": "LEXJ",
      "alert": "OK",
      "vis_m": 9999,
      "fzfg": false,
      "metar_trigger": false,
      "taf_trigger": false,
      "metar": "METAR LEXJ 171400Z 33005KT 280V030 9999 SCT024 BKN048 16/10 Q1019",
      "taf": "TAF LEXJ 170800Z 1709/1809 23005KT 9999 FEW020 SCT035 TX18/1712Z TN10/1805Z"
    },
    {
      "icao": "LEZG",
      "alert": "OK",
      "vis_m": 9999,
      "fzfg": false,
      "metar_trigger": false,
      "taf_trigger": false,
      "metar": "METAR LEZG 171400Z 21001KT 9999 FEW060 22/08 Q1015 NOSIG",
      "taf": "TAF LEZG 171100Z 1712/1812 28010KT 9999 FEW060 TX25/1715Z TN10/1805Z"
    },
    {
      "icao": "LEZL",
      "alert": "OK",
      "vis_m": 9999,
      "fzfg": false,
      "metar_trigger": false,
      "taf_trigger": false,
      "metar": "METAR LEZL 171400Z 25009KT 210V300 CAVOK 26/05 Q1015 NOSIG",
      "taf": "TAF LEZL 170800Z 1709/1809 VRB03KT CAVOK TX29/1715Z TN13/1806Z"
    },
    {
      "icao": "LFBD",
      "alert": "OK",
      "vis_m": 9999,
      "fzfg": false,
      "metar_trigger": false,
      "taf_trigger": false,
      "metar": "METAR LFBD 171400Z AUTO 30011KT 270V330 9999 SCT041 BKN048 18/08 Q1016 NOSIG",
      "taf": "TAF LFBD 171100Z 1712/1818 30010KT 9999 BKN030 TX18/1713Z TN09/1806Z"
    },
    {
      "icao": "LFLL",
      "alert": "OK",
      "vis_m": 9999,
      "fzfg": false,
      "metar_trigger": false,
      "taf_trigger": false,
      "metar": "METAR LFLL 171400Z VRB02KT 9999 FEW048 19/04 Q1015 NOSIG",
      "taf": "TAF LFLL 171100Z 1712/1818 VRB05KT CAVOK"
    },
    {
      "icao": "LFLS",
      "alert": "OK",
      "vis_m": 9999,
      "fzfg": false,
      "metar_trigger": false,
      "taf_trigger": false,
      "metar": "METAR LFLS 171400Z AUTO VRB03KT CAVOK 18/04 Q1015 NOSIG",
      "taf": "TAF LFLS 170800Z 1709/1809 10007KT 9999 FEW060 BKN200"
    },
    {
      "icao": "LFMN",
      "alert": "OK",
      "vis_m": 9999,
      "fzfg": false,
      "metar_trigger": false,
      "taf_trigger": false,
      "metar": "METAR LFMN 171400Z 13005KT CAVOK 19/11 Q1014 NOSIG",
      "taf": "TAF LFMN 170800Z 1709/1815 11010KT CAVOK"
    },
    {
      "icao": "LFOB",
      "alert": "OK",
      "vis_m": 9999,
      "fzfg": false,
      "metar_trigger": false,
      "taf_trigger": false,
      "metar": "METAR LFOB 171400Z AUTO 24007KT 190V310 9999 2700 RA FEW014/// BKN022/// BKN027/// ///CB 13/11 Q1012 TEMPO 2000 -TSRA BKN014 BKN020CB",
      "taf": "TAF LFOB 171100Z 1712/1812 22007KT 9999 BKN018 BKN030"
    },
    {
      "icao": "LFPO",
      "alert": "OK",
      "vis_m": 9999,
      "fzfg": false,
      "metar_trigger": false,
      "taf_trigger": false,
      "metar": "METAR LFPO 171400Z AUTO 30005KT 9999 4200 -RA FEW017/// SCT027/// BKN033/// ///CB 13/10 Q1013 TEMPO 23010G20KT 2500 -TSRA",
      "taf": "TAF LFPO 171100Z 1712/1818 23008KT 9999 BKN030"
    },
    {
      "icao": "LFSB",
      "alert": "OK",
      "vis_m": 9999,
      "fzfg": false,
      "metar_trigger": false,
      "taf_trigger": false,
      "metar": "METAR LFSB 171400Z AUTO VRB05KT 9999 FEW058 SCT074 18/04 Q1015 NOSIG",
      "taf": "TAF LFSB 171104Z 1712/1812 26005KT 9999 FEW050 BKN150"
    },
    {
      "icao": "LGAV",
      "alert": "OK",
      "vis_m": 9999,
      "fzfg": false,
      "metar_trigger": false,
      "taf_trigger": false,
      "metar": "METAR LGAV 171350Z 28011KT 240V320 9999 FEW030 25/03 Q1006 NOSIG",
      "taf": "TAF LGAV 171100Z 1712/1812 06010KT 9999 FEW030"
    },
    {
      "icao": "LGTS",
      "alert": "OK",
      "vis_m": 9999,
      "fzfg": false,
      "metar_trigger": false,
      "taf_trigger": false,
      "metar": "METAR LGTS 171350Z VRB03KT 9999 SCT025 25/06 Q1005 NOSIG",
      "taf": "TAF LGTS 171100Z 1712/1812 33015KT 9999 FEW030"
    },
    {
      "icao": "LHBP",
      "alert": "OK",
      "vis_m": 9999,
      "fzfg": false,
      "metar_trigger": false,
      "taf_trigger": false,
      "metar": "METAR LHBP 171400Z 31015KT 9999 FEW014 BKN050 BKN078 13/10 Q1010 NOSIG",
      "taf": "TAF LHBP 171115Z 1712/1812 32013KT 9999 FEW012 BKN045"
    },
    {
      "icao": "LHDC",
      "alert": "OK",
      "vis_m": 9999,
      "fzfg": false,
      "metar_trigger": false,
      "taf_trigger": false,
      "metar": "METAR LHDC 171345Z AUTO 02008KT 340V050 CAVOK 22/11 Q1005 NOSIG",
      "taf": "TAF LHDC 171115Z 1712/1721 36012KT 9999 SCT035"
    },
    {
      "icao": "LIBD",
      "alert": "OK",
      "vis_m": 9999,
      "fzfg": false,
      "metar_trigger": false,
      "taf_trigger": false,
      "metar": "METAR LIBD 171350Z 34010KT 300V010 CAVOK 19/09 Q1013",
      "taf": "TAF LIBD 171100Z 1712/1812 34013KT 9999 SCT040"
    },
    {
      "icao": "LIBG",
      "alert": "OK",
      "vis_m": 9999,
      "fzfg": false,
      "metar_trigger": false,
      "taf_trigger": false,
      "metar": "METAR LIBG 171350Z 32010KT 300V010 CAVOK 22/09 Q1012",
      "taf": "TAF LIBG 171100Z 1712/1721 33012KT CAVOK"
    },
    {
      "icao": "LIBP",
      "alert": "OK",
      "vis_m": 9999,
      "fzfg": false,
      "metar_trigger": false,
      "taf_trigger": false,
      "metar": "METAR LIBP 171350Z AUTO 08009KT 050V110 9999 NCD 20/03 Q1014",
      "taf": "TAF LIBP 171100Z 1712/1812 07010KT CAVOK"
    },
    {
      "icao": "LIBR",
      "alert": "OK",
      "vis_m": 9999,
      "fzfg": false,
      "metar_trigger": false,
      "taf_trigger": false,
      "metar": "METAR LIBR 171350Z 33016KT CAVOK 19/09 Q1012",
      "taf": "TAF LIBR 171100Z 1712/1812 33016KT 9999 FEW030"
    },
    {
      "icao": "LICA",
      "alert": "OK",
      "vis_m": 9999,
      "fzfg": false,
      "metar_trigger": false,
      "taf_trigger": false,
      "metar": "METAR LICA 171350Z AUTO 26013KT 9999 NCD 21/10 Q1014",
      "taf": "TAF LICA 171100Z 1712/1812 27015KT 9999 SCT040"
    },
    {
      "icao": "LICC",
      "alert": "OK",
      "vis_m": 9999,
      "fzfg": false,
      "metar_trigger": false,
      "taf_trigger": false,
      "metar": "METAR LICC 171350Z 10011KT 9999 SCT070 20/11 Q1013",
      "taf": "TAF LICC 171100Z 1712/1812 08013KT 9999 SCT040"
    },
    {
      "icao": "LICJ",
      "alert": "OK",
      "vis_m": 9999,
      "fzfg": false,
      "metar_trigger": false,
      "taf_trigger": false,
      "metar": "METAR LICJ 171350Z 35006KT 9999 FEW030 20/11 Q1015",
      "taf": "TAF LICJ 171100Z 1712/1812 33014KT 9999 FEW040"
    },
    {
      "icao": "LIMC",
      "alert": "OK",
      "vis_m": 9999,
      "fzfg": false,
      "metar_trigger": false,
      "taf_trigger": false,
      "metar": "METAR LIMC 171350Z VRB04KT CAVOK 20/01 Q1013 NOSIG",
      "taf": "TAF LIMC 171100Z 1712/1818 VRB05KT CAVOK"
    },
    {
      "icao": "LIME",
      "alert": "OK",
      "vis_m": 9999,
      "fzfg": false,
      "metar_trigger": false,
      "taf_trigger": false,
      "metar": "METAR LIME 171350Z VRB05KT 9999 SCT050 20/00 Q1013 NOSIG",
      "taf": "TAF LIME 171100Z 1712/1812 VRB05KT 9999 FEW090"
    },
    {
      "icao": "LIMF",
      "alert": "OK",
      "vis_m": 9999,
      "fzfg": false,
      "metar_trigger": false,
      "taf_trigger": false,
      "metar": "METAR LIMF 171350Z 07005KT 030V120 CAVOK 20/00 Q1013 REP MOD TURB ON FNL RWY36 FROM SFC TO 2500FT",
      "taf": "TAF LIMF 171100Z 1712/1812 VRB05KT CAVOK"
    },
    {
      "icao": "LIMJ",
      "alert": "OK",
      "vis_m": 9999,
      "fzfg": false,
      "metar_trigger": false,
      "taf_trigger": false,
      "metar": "METAR LIMJ 171350Z 16007KT 9999 FEW025 18/13 Q1014",
      "taf": "TAF LIMJ 171100Z 1712/1812 19010KT 9999 FEW020"
    },
    {
      "icao": "LIPE",
      "alert": "OK",
      "vis_m": 9999,
      "fzfg": false,
      "metar_trigger": false,
      "taf_trigger": false,
      "metar": "METAR LIPE 171350Z VRB04KT CAVOK 22/06 Q1012",
      "taf": "TAF LIPE 171100Z 1712/1812 VRB05KT 9999 FEW050"
    },
    {
      "icao": "LIPH",
      "alert": "OK",
      "vis_m": 9999,
      "fzfg": false,
      "metar_trigger": false,
      "taf_trigger": false,
      "metar": "METAR LIPH 171350Z 16006KT 130V200 9999 FEW030 20/07 Q1013",
      "taf": "TAF LIPH 171100Z 1712/1812 13007KT 9999 SCT040"
    },
    {
      "icao": "LIPQ",
      "alert": "OK",
      "vis_m": 9999,
      "fzfg": false,
      "metar_trigger": false,
      "taf_trigger": false,
      "metar": "METAR LIPQ 171350Z AUTO 23009KT 200V260 9999 NCD 20/04 Q1013",
      "taf": "TAF LIPQ 171100Z 1712/1812 20010KT 9999 FEW050"
    },
    {
      "icao": "LIPR",
      "alert": "OK",
      "vis_m": 9999,
      "fzfg": false,
      "metar_trigger": false,
      "taf_trigger": false,
      "metar": "METAR LIPR 171350Z AUTO 10008KT 070V140 9999 BKN100/// 20/11 Q1013",
      "taf": "TAF LIPR 171100Z 1712/1812 09010KT 9999 FEW040"
    },
    {
      "icao": "LIPX",
      "alert": "OK",
      "vis_m": 9999,
      "fzfg": false,
      "metar_trigger": false,
      "taf_trigger": false,
      "metar": "METAR LIPX 171350Z VRB05KT CAVOK 22/04 Q1012",
      "taf": "TAF LIPX 171100Z 1712/1812 VRB05KT CAVOK"
    },
    {
      "icao": "LIPY",
      "alert": "OK",
      "vis_m": 9999,
      "fzfg": false,
      "metar_trigger": false,
      "taf_trigger": false,
      "metar": "METAR LIPY 171350Z AUTO 07008KT 040V100 9999 BKN096/// 20/10 Q1013",
      "taf": "TAF LIPY 171100Z 1712/1812 07010KT CAVOK"
    },
    {
      "icao": "LIPZ",
      "alert": "OK",
      "vis_m": 9999,
      "fzfg": false,
      "metar_trigger": false,
      "taf_trigger": false,
      "metar": "METAR LIPZ 171350Z 14008KT CAVOK 19/08 Q1013 NOSIG",
      "taf": "TAF LIPZ 171100Z 1712/1818 14010KT CAVOK"
    },
    {
      "icao": "LIRF",
      "alert": "OK",
      "vis_m": 9999,
      "fzfg": false,
      "metar_trigger": false,
      "taf_trigger": false,
      "metar": "METAR LIRF 171350Z 24007KT 180V290 CAVOK 20/09 Q1014 NOSIG",
      "taf": "TAF LIRF 171100Z 1712/1818 26012KT CAVOK"
    },
    {
      "icao": "LIRN",
      "alert": "OK",
      "vis_m": 9999,
      "fzfg": false,
      "metar_trigger": false,
      "taf_trigger": false,
      "metar": "METAR LIRN 171350Z VRB07KT 9999 SCT050 21/08 Q1013 NOSIG",
      "taf": "TAF LIRN 171100Z 1712/1812 22012KT CAVOK"
    },
    {
      "icao": "LIRP",
      "alert": "OK",
      "vis_m": 9999,
      "fzfg": false,
      "metar_trigger": false,
      "taf_trigger": false,
      "metar": "METAR LIRP 171345Z 28010KT 9999 FEW030 20/09 Q1014 NOSIG",
      "taf": "TAF LIRP 171100Z 1712/1812 VRB03KT 9999 FEW030"
    },
    {
      "icao": "LIRZ",
      "alert": "OK",
      "vis_m": 9999,
      "fzfg": false,
      "metar_trigger": false,
      "taf_trigger": false,
      "metar": "METAR LIRZ 171350Z AUTO VRB04KT 9999 NCD 22/06 Q1013",
      "taf": "TAF LIRZ 171100Z 1712/1812 VRB05KT 9999 SCT040"
    },
    {
      "icao": "LJLJ",
      "alert": "OK",
      "vis_m": 9999,
      "fzfg": false,
      "metar_trigger": false,
      "taf_trigger": false,
      "metar": "METAR LJLJ 171400Z VRB03KT 9999 FEW075 BKN100 19/00 Q1013 NOSIG",
      "taf": "TAF LJLJ 171100Z 1712/1812 VRB02KT 9999 FEW065"
    },
    {
      "icao": "LKMT",
      "alert": "OK",
      "vis_m": 9000,
      "fzfg": false,
      "metar_trigger": false,
      "taf_trigger": false,
      "metar": "METAR LKMT 171400Z 36006KT 310V030 9000 -RA SCT020 BKN031 08/07 Q1016 NOSIG",
      "taf": "TAF LKMT 171100Z 1712/1812 36008KT 9999 -RA OVC035"
    },
    {
      "icao": "LKPR",
      "alert": "OK",
      "vis_m": 9999,
      "fzfg": false,
      "metar_trigger": false,
      "taf_trigger": false,
      "metar": "METAR LKPR 171400Z 34006KT 300V060 CAVOK 17/M00 Q1015 NOSIG",
      "taf": "TAF LKPR 171400Z 1715/1821 27005KT CAVOK"
    },
    {
      "icao": "LLBG",
      "alert": "OK",
      "vis_m": 9999,
      "fzfg": false,
      "metar_trigger": false,
      "taf_trigger": false,
      "metar": "METAR LLBG 171350Z 27005KT 180V330 CAVOK 34/08 Q1007 NOSIG",
      "taf": "TAF LLBG 171100Z 1712/1812 31010KT CAVOK TX36/1712Z TN22/1803Z"
    },
    {
      "icao": "LMML",
      "alert": "OK",
      "vis_m": 9999,
      "fzfg": false,
      "metar_trigger": false,
      "taf_trigger": false,
      "metar": "METAR LMML 171345Z 31006KT 230V350 9999 FEW018 21/08 Q1015 NOSIG",
      "taf": "TAF LMML 171100Z 1712/1812 34008KT 9999 FEW018"
    },
    {
      "icao": "LOWW",
      "alert": "OK",
      "vis_m": 9999,
      "fzfg": false,
      "metar_trigger": false,
      "taf_trigger": false,
      "metar": "METAR LOWW 171350Z 31016KT 9999 FEW045 15/05 Q1015 NOSIG",
      "taf": "TAF LOWW 171115Z 1712/1818 32012KT 9999 FEW020 BKN050 TX19/1814Z TN06/1803Z"
    },
    {
      "icao": "LPFR",
      "alert": "OK",
      "vis_m": 9999,
      "fzfg": false,
      "metar_trigger": false,
      "taf_trigger": false,
      "metar": "METAR LPFR 171400Z 24014KT 9999 FEW040 19/13 Q1017",
      "taf": "TAF LPFR 171100Z 1712/1812 32010KT CAVOK"
    },
    {
      "icao": "LPMA",
      "alert": "OK",
      "vis_m": 9999,
      "fzfg": false,
      "metar_trigger": false,
      "taf_trigger": false,
      "metar": "METAR LPMA 171400Z 04011KT 010V080 9999 FEW016 SCT030 20/11 Q1024",
      "taf": "TAF LPMA 171100Z 1712/1812 01010KT 9999 SCT015"
    },
    {
      "icao": "LPPR",
      "alert": "OK",
      "vis_m": 9999,
      "fzfg": false,
      "metar_trigger": false,
      "taf_trigger": false,
      "metar": "METAR LPPR 171400Z 33017KT 9999 FEW020 17/11 Q1018",
      "taf": "TAF LPPR 171100Z 1712/1812 30008KT 9999 SCT025"
    },
    {
      "icao": "LPPS",
      "alert": "OK",
      "vis_m": 9999,
      "fzfg": false,
      "metar_trigger": false,
      "taf_trigger": false,
      "metar": "METAR LPPS 171400Z 01012KT 9999 FEW015 BKN030 19/12 Q1025",
      "taf": "TAF LPPS 171100Z 1712/1818 01013KT 9999 FEW015 BKN030"
    },
    {
      "icao": "LPPT",
      "alert": "OK",
      "vis_m": 9999,
      "fzfg": false,
      "metar_trigger": false,
      "taf_trigger": false,
      "metar": "METAR LPPT 171400Z 32011KT 280V350 9999 SCT032 20/11 Q1018",
      "taf": "TAF LPPT 171100Z 1712/1818 31010KT 9999 SCT025"
    },
    {
      "icao": "LQBK",
      "alert": "OK",
      "vis_m": 9999,
      "fzfg": false,
      "metar_trigger": false,
      "taf_trigger": false,
      "metar": "METAR LQBK 171400Z 31008KT 290V350 CAVOK 18/06 Q1013 NOSIG",
      "taf": "TAF LQBK 171100Z 1712/1812 28007KT CAVOK TX18/1812Z TN05/1804Z"
    },
    {
      "icao": "LQSA",
      "alert": "OK",
      "vis_m": 9999,
      "fzfg": false,
      "metar_trigger": false,
      "taf_trigger": false,
      "metar": "METAR LQSA 171400Z VRB01KT 9999 BKN032 11/07 Q1013 NOSIG",
      "taf": "TAF LQSA 171100Z 1712/1812 32005KT 9999 BKN030 TX20/1812Z TN03/1804Z"
    },
    {
      "icao": "LQTZ",
      "alert": "OK",
      "vis_m": 9999,
      "fzfg": false,
      "metar_trigger": false,
      "taf_trigger": false,
      "metar": "METAR LQTZ 171400Z 29005KT 9999 BKN035 OVC050 12/11 Q1013",
      "taf": "TAF LQTZ 171100Z 1712/1812 27008KT 9999 SCT020 BKN035 TX16/1812Z TN03/1804Z"
    },
    {
      "icao": "LRBC",
      "alert": "OK",
      "vis_m": 9999,
      "fzfg": false,
      "metar_trigger": false,
      "taf_trigger": false,
      "metar": "METAR LRBC 171400Z 25003KT 9999 FEW060 20/06 Q1006",
      "taf": "TAF LRBC 171100Z 1712/1721 VRB04KT 9999 SCT040"
    },
    {
      "icao": "LRBS",
      "alert": "OK",
      "vis_m": 9999,
      "fzfg": false,
      "metar_trigger": false,
      "taf_trigger": false,
      "metar": "METAR LRBS 171400Z 30003KT 250V360 CAVOK 15/11 Q1006 NOSIG",
      "taf": "TAF LRBS 171100Z 1712/1812 06012KT 9999 BKN010 BKN045"
    },
    {
      "icao": "LRBV",
      "alert": "OK",
      "vis_m": 9999,
      "fzfg": false,
      "metar_trigger": false,
      "taf_trigger": false,
      "metar": "METAR LRBV 171400Z 06010KT 9999 FEW045 17/06 Q1007",
      "taf": "TAF LRBV 171100Z 1712/1721 08010KT 9999 SCT035 BKN065"
    },
    {
      "icao": "LRCL",
      "alert": "OK",
      "vis_m": 9999,
      "fzfg": false,
      "metar_trigger": false,
      "taf_trigger": false,
      "metar": "METAR LRCL 171400Z 19007KT 130V220 9999 FEW068 22/07 Q1006",
      "taf": "TAF LRCL 171100Z 1712/1721 12012KT 9999 BKN055"
    },
    {
      "icao": "LRCV",
      "alert": "OK",
      "vis_m": 9999,
      "fzfg": false,
      "metar_trigger": false,
      "taf_trigger": false,
      "metar": "METAR LRCV 171400Z 31004KT 260V030 9999 -RA FEW002 SCT010 OVC019 15/14 Q1007",
      "taf": "TAF LRCV 171100Z 1712/1721 27012KT 9999 BKN015 OVC025"
    },
    {
      "icao": "LRIA",
      "alert": "OK",
      "vis_m": 9999,
      "fzfg": false,
      "metar_trigger": false,
      "taf_trigger": false,
      "metar": "METAR LRIA 171400Z 35006KT 320V050 CAVOK 22/06 Q1006",
      "taf": "TAF LRIA 171100Z 1712/1721 09006KT CAVOK"
    },
    {
      "icao": "LROP",
      "alert": "OK",
      "vis_m": 9999,
      "fzfg": false,
      "metar_trigger": false,
      "taf_trigger": false,
      "metar": "METAR LROP 171400Z 31004KT 280V350 CAVOK 15/13 Q1006 NOSIG",
      "taf": "TAF LROP 171100Z 1712/1812 08014KT 9999 BKN010 BKN045"
    },
    {
      "icao": "LRSB",
      "alert": "OK",
      "vis_m": 9999,
      "fzfg": false,
      "metar_trigger": false,
      "taf_trigger": false,
      "metar": "METAR LRSB 171400Z 11009KT 9999 FEW045CB SCT050 18/10 Q1007",
      "taf": "TAF LRSB 171100Z 1712/1812 VRB04KT 9999 BKN045"
    },
    {
      "icao": "LRSM",
      "alert": "OK",
      "vis_m": 9999,
      "fzfg": false,
      "metar_trigger": false,
      "taf_trigger": false,
      "metar": "METAR LRSM 171400Z AUTO 34014KT 9999 SCT070/// BKN100/// 24/12 Q1005",
      "taf": ""
    },
    {
      "icao": "LRSV",
      "alert": "OK",
      "vis_m": 9999,
      "fzfg": false,
      "metar_trigger": false,
      "taf_trigger": false,
      "metar": "METAR LRSV 171400Z 10005KT 360V160 CAVOK 19/07 Q1008",
      "taf": "TAF LRSV 171100Z 1712/1721 01007KT 9999 SCT040"
    },
    {
      "icao": "LRTM",
      "alert": "OK",
      "vis_m": 9999,
      "fzfg": false,
      "metar_trigger": false,
      "taf_trigger": false,
      "metar": "METAR LRTM 171400Z 15010KT CAVOK 21/10 Q1006",
      "taf": "TAF LRTM 171100Z 1712/1721 09016KT 9999 SCT045"
    },
    {
      "icao": "LRTR",
      "alert": "OK",
      "vis_m": 9999,
      "fzfg": false,
      "metar_trigger": false,
      "taf_trigger": false,
      "metar": "METAR LRTR 171400Z 28010KT 9999 FEW011 BKN020 17/15 Q1007",
      "taf": ""
    },
    {
      "icao": "LTAC",
      "alert": "OK",
      "vis_m": 9999,
      "fzfg": false,
      "metar_trigger": false,
      "taf_trigger": false,
      "metar": "METAR LTAC 171350Z 30006KT 270V350 9999 FEW025CB BKN030 14/11 Q1005 RETSRA NOSIG RMK RWY21C VRB02KT RWY03L 29006KT 250V330 RWY21R VRB01KT RWY03R 30007KT 260V330 RWY21L 30004KT 260V340",
      "taf": "TAF LTAC 171040Z 1712/1812 VRB02KT 9999 SCT040 SCT100"
    },
    {
      "icao": "LTFM",
      "alert": "OK",
      "vis_m": 9999,
      "fzfg": false,
      "metar_trigger": false,
      "taf_trigger": false,
      "metar": "METAR LTFM 171350Z 03004KT 310V070 9999 FEW018TCU SCT035 18/11 Q1005 NOSIG RMK RWY17L 06004KT 030V090 RWY34L 35004KT 290V020 RWY16R 01004KT RWY36 04006KT 350V080 RWY18 34005KT 280V070",
      "taf": "TAF LTFM 171040Z 1712/1818 35015KT 9999 SCT028"
    },
    {
      "icao": "LUKK",
      "alert": "OK",
      "vis_m": 9999,
      "fzfg": false,
      "metar_trigger": false,
      "taf_trigger": false,
      "metar": "METAR LUKK 171400Z 01006KT 340V040 CAVOK 21/08 Q1005 TEMPO SCT045CB",
      "taf": "TAF LUKK 171102Z 1712/1812 02009KT CAVOK"
    },
    {
      "icao": "LWOH",
      "alert": "OK",
      "vis_m": 9999,
      "fzfg": false,
      "metar_trigger": false,
      "taf_trigger": false,
      "metar": "METAR LWOH 171320Z VRB05KT 9999 BKN045 14/08 Q1010",
      "taf": "TAF LWOH 171410Z 1715/1815 22010KT 9999 BKN045"
    },
    {
      "icao": "LWSK",
      "alert": "OK",
      "vis_m": 9999,
      "fzfg": false,
      "metar_trigger": false,
      "taf_trigger": false,
      "metar": "METAR LWSK 171350Z 01014KT 9999 BKN060 18/08 Q1008 NOSIG",
      "taf": "TAF LWSK 171410Z 1715/1815 36010KT 9999 BKN070"
    },
    {
      "icao": "LYBE",
      "alert": "OK",
      "vis_m": 9999,
      "fzfg": false,
      "metar_trigger": false,
      "taf_trigger": false,
      "metar": "METAR LYBE 171400Z 28015KT 9999 BKN012 12/11 Q1010 NOSIG",
      "taf": "TAF LYBE 171100Z 1712/1812 28016KT 9999 BKN010 BKN025 TX20/1812Z TN07/1804Z"
    },
    {
      "icao": "LYNI",
      "alert": "OK",
      "vis_m": 9999,
      "fzfg": false,
      "metar_trigger": false,
      "taf_trigger": false,
      "metar": "METAR LYNI 171400Z 31008KT 9999 SCT015 OVC027 11/11 Q1010 NOSIG",
      "taf": "TAF LYNI 171100Z 1712/1812 33012KT 9999 SCT015 BKN027 TX21/1812Z TN09/1804Z"
    },
    {
      "icao": "LYPG",
      "alert": "OK",
      "vis_m": 9999,
      "fzfg": false,
      "metar_trigger": false,
      "taf_trigger": false,
      "metar": "METAR LYPG 171400Z 11007KT 080V140 9999 FEW030 BKN070 19/09 Q1010 NOSIG",
      "taf": "TAF LYPG 171100Z 1712/1812 18008KT 9999 FEW030 SCT040 TX22/1713Z TN13/1804Z"
    },
    {
      "icao": "LZIB",
      "alert": "OK",
      "vis_m": 9999,
      "fzfg": false,
      "metar_trigger": false,
      "taf_trigger": false,
      "metar": "METAR LZIB 171400Z 35014KT 9999 -RA FEW033 14/07 Q1014 NOSIG",
      "taf": "TAF LZIB 171115Z 1712/1812 35014KT 9999 FEW045"
    },
    {
      "icao": "LZKZ",
      "alert": "OK",
      "vis_m": 9999,
      "fzfg": false,
      "metar_trigger": false,
      "taf_trigger": false,
      "metar": "METAR LZKZ 171400Z 36021KT CAVOK 16/09 Q1009 NOSIG",
      "taf": "TAF LZKZ 171115Z 1712/1812 36018KT 9999 FEW045"
    },
    {
      "icao": "LZTT",
      "alert": "OK",
      "vis_m": 9999,
      "fzfg": false,
      "metar_trigger": false,
      "taf_trigger": false,
      "metar": "METAR LZTT 171400Z 26009KT 9999 FEW016 OVC033 10/05 Q1012 NOSIG",
      "taf": "TAF LZTT 171115Z 1712/1812 06009KT 9999 FEW010 BKN040"
    },
    {
      "icao": "OEJN",
      "alert": "OK",
      "vis_m": 9999,
      "fzfg": false,
      "metar_trigger": false,
      "taf_trigger": false,
      "metar": "METAR OEJN 171400Z 33018KT CAVOK 34/17 Q1004 NOSIG",
      "taf": "TAF OEJN 171100Z 1712/1818 30014KT CAVOK"
    },
    {
      "icao": "OEMA",
      "alert": "OK",
      "vis_m": 9999,
      "fzfg": false,
      "metar_trigger": false,
      "taf_trigger": false,
      "metar": "METAR OEMA 171400Z 30011KT CAVOK 40/M04 Q1010 NOSIG",
      "taf": "TAF OEMA 171100Z 1712/1818 02012KT CAVOK"
    },
    {
      "icao": "OJAI",
      "alert": "OK",
      "vis_m": 4000,
      "fzfg": false,
      "metar_trigger": false,
      "taf_trigger": false,
      "metar": "METAR OJAI 171400Z 23015KT 4000 BLDU NSC 30/06 Q1013 NOSIG",
      "taf": "TAF OJAI 171100Z 1712/1818 25012KT 4000 DU NSC"
    },
    {
      "icao": "OMAA",
      "alert": "OK",
      "vis_m": 9999,
      "fzfg": false,
      "metar_trigger": false,
      "taf_trigger": false,
      "metar": "METAR OMAA 171400Z 34011KT CAVOK 36/12 Q1002 NOSIG",
      "taf": "TAF OMAA 171100Z 1712/1818 32015KT 8000 NSC"
    },
    {
      "icao": "OMDB",
      "alert": "OK",
      "vis_m": 9999,
      "fzfg": false,
      "metar_trigger": false,
      "taf_trigger": false,
      "metar": "METAR OMDB 171400Z 31007KT CAVOK 35/20 Q1002 NOSIG",
      "taf": "TAF OMDB 171100Z 1712/1818 34012KT 8000 NSC"
    },
    {
      "icao": "UAAA",
      "alert": "OK",
      "vis_m": 9999,
      "fzfg": false,
      "metar_trigger": false,
      "taf_trigger": false,
      "metar": "METAR UAAA 171400Z 13002MPS 9999 SCT050CB BKN100 22/03 Q1011 NOSIG",
      "taf": "TAF UAAA 171106Z 1712/1812 21003MPS 9999 FEW050 SCT100 TX26/1810Z TN08/1801Z"
    },
    {
      "icao": "UBBB",
      "alert": "OK",
      "vis_m": 9999,
      "fzfg": false,
      "metar_trigger": false,
      "taf_trigger": false,
      "metar": "METAR UBBB 171400Z 32012KT 9999 -SHRA SCT009 SCT042CB OVC042 15/14 Q1002 NOSIG",
      "taf": "TAF UBBB 171050Z 1712/1812 31016G26KT 8000 SCT010 SCT030CB BKN030 TX17/1710Z TN15/1801Z"
    },
    {
      "icao": "UDSG",
      "alert": "OK",
      "vis_m": 9999,
      "fzfg": false,
      "metar_trigger": false,
      "taf_trigger": false,
      "metar": "METAR UDSG 171400Z 26009KT 9999 VCTS BKN040CB 17/03 Q1006 TEMPO -TSRA",
      "taf": "TAF UDSG 171100Z 1712/1812 24006KT 9999 SCT040"
    },
    {
      "icao": "UDYZ",
      "alert": "OK",
      "vis_m": 9999,
      "fzfg": false,
      "metar_trigger": false,
      "taf_trigger": false,
      "metar": "METAR UDYZ 171400Z 18005KT 9999 VCTS SCT043CB 23/05 Q1002 NOSIG",
      "taf": ""
    },
    {
      "icao": "UGKO",
      "alert": "OK",
      "vis_m": 9999,
      "fzfg": false,
      "metar_trigger": false,
      "taf_trigger": false,
      "metar": "METAR UGKO 171400Z 28008KT CAVOK 24/07 Q1003 NOSIG",
      "taf": "TAF UGKO 171100Z 1712/1812 26007KT CAVOK TX24/1712Z TN10/1802Z"
    }
  ]
}