{
  "ts_utc": "2026-01-13T14:56:19Z",
  "threshold_m": 150,
  "source": "stations_override.txt (ICAO list) + aviationweather.gov (METAR/TAF raw)",
  "station_count": 159,
  "stations": [
    {
      "icao": "BIKF",
      "alert": "OK",
      "vis_m": 9999,
      "fzfg": false,
      "metar_trigger": false,
      "taf_trigger": false,
      "metar": "METAR BIKF 131430Z 35014KT 9999 FEW030 M02/M10 Q0998",
      "taf": "TAF BIKF 131347Z 1315/1415 35015G25KT 9999 FEW030 TX00/1415Z TNM04/1404Z"
    },
    {
      "icao": "BKPR",
      "alert": "OK",
      "vis_m": null,
      "fzfg": false,
      "metar_trigger": false,
      "taf_trigger": false,
      "metar": "",
      "taf": "TAF BKPR 131130Z 1312/1412 VRB03KT 9999 BKN060"
    },
    {
      "icao": "EBCI",
      "alert": "OK",
      "vis_m": 9999,
      "fzfg": false,
      "metar_trigger": false,
      "taf_trigger": false,
      "metar": "METAR EBCI 131450Z 18011KT CAVOK 10/05 Q1008 NOSIG",
      "taf": "TAF EBCI 131100Z 1312/1418 19010KT 9999 SCT020"
    },
    {
      "icao": "EDDB",
      "alert": "OK",
      "vis_m": 700,
      "fzfg": false,
      "metar_trigger": false,
      "taf_trigger": false,
      "metar": "METAR EDDB 131450Z AUTO 14006KT 0700 0450 R24R/1300D R24L/1100N FG BKN001 02/02 Q1013 BECMG 1500 BR",
      "taf": "TAF EDDB 131100Z 1312/1412 17005KT 0800 FG BKN002"
    },
    {
      "icao": "EDDH",
      "alert": "OK",
      "vis_m": 650,
      "fzfg": false,
      "metar_trigger": false,
      "taf_trigger": false,
      "metar": "METAR EDDH 131450Z AUTO 15006KT 0650 0300 R23/P2000N R15/0500N FG SCT002 BKN009 OVC034 05/05 Q1009 TEMPO 3500 BR SCT004 OVC035",
      "taf": "TAF EDDH 131100Z 1312/1418 16004KT 0300 FG OVC001"
    },
    {
      "icao": "EDDK",
      "alert": "OK",
      "vis_m": 9999,
      "fzfg": false,
      "metar_trigger": false,
      "taf_trigger": false,
      "metar": "METAR EDDK 131450Z AUTO 14009KT CAVOK 09/06 Q1010 NOSIG",
      "taf": "TAF EDDK 131100Z 1312/1418 15007KT 9999 BKN025"
    },
    {
      "icao": "EDDN",
      "alert": "OK",
      "vis_m": 9999,
      "fzfg": false,
      "metar_trigger": false,
      "taf_trigger": false,
      "metar": "METAR EDDN 131450Z AUTO 13007KT 9999 FEW011 06/05 Q1014 NOSIG",
      "taf": "TAF EDDN 131100Z 1312/1412 14005KT 9000 SCT010 BKN015"
    },
    {
      "icao": "EDDS",
      "alert": "OK",
      "vis_m": 9999,
      "fzfg": false,
      "metar_trigger": false,
      "taf_trigger": false,
      "metar": "METAR EDDS 131450Z AUTO 17002KT CAVOK 11/06 Q1012 NOSIG",
      "taf": "TAF EDDS 131100Z 1312/1412 17004KT 9999 FEW040"
    },
    {
      "icao": "EDFH",
      "alert": "OK",
      "vis_m": 9999,
      "fzfg": false,
      "metar_trigger": false,
      "taf_trigger": false,
      "metar": "METAR EDFH 131420Z 15008KT CAVOK 08/05 Q1010",
      "taf": "TAF EDFH 131100Z 1312/1412 18008KT 9999 SCT020 BKN045"
    },
    {
      "icao": "EDJA",
      "alert": "OK",
      "vis_m": 9999,
      "fzfg": false,
      "metar_trigger": false,
      "taf_trigger": false,
      "metar": "METAR EDJA 131420Z 18004KT CAVOK 07/03 Q1014",
      "taf": "TAF EDJA 131400Z 1315/1324 18004KT CAVOK"
    },
    {
      "icao": "EDLW",
      "alert": "OK",
      "vis_m": 9999,
      "fzfg": false,
      "metar_trigger": false,
      "taf_trigger": false,
      "metar": "METAR EDLW 131450Z 19011KT CAVOK 10/07 Q1009",
      "taf": "TAF EDLW 131100Z 1312/1412 20011KT 9999 BKN020"
    },
    {
      "icao": "EDNY",
      "alert": "OK",
      "vis_m": 9999,
      "fzfg": false,
      "metar_trigger": false,
      "taf_trigger": false,
      "metar": "METAR EDNY 131450Z 24004KT CAVOK 06/04 Q1015",
      "taf": "TAF EDNY 131400Z 1315/1324 VRB03KT CAVOK"
    },
    {
      "icao": "EDSB",
      "alert": "OK",
      "vis_m": 9999,
      "fzfg": false,
      "metar_trigger": false,
      "taf_trigger": false,
      "metar": "METAR EDSB 131420Z 23005KT 200V280 9999 13/06 Q1012",
      "taf": "TAF EDSB 131100Z 1312/1412 21004KT CAVOK"
    },
    {
      "icao": "EETN",
      "alert": "OK",
      "vis_m": 9999,
      "fzfg": false,
      "metar_trigger": false,
      "taf_trigger": false,
      "metar": "METAR EETN 131450Z 14003KT 9999 OVC011 M10/M12 Q1021 NOSIG",
      "taf": "TAF EETN 131130Z 1312/1412 11007KT 9999 FEW009 BKN014"
    },
    {
      "icao": "EFTU",
      "alert": "OK",
      "vis_m": 9999,
      "fzfg": false,
      "metar_trigger": false,
      "taf_trigger": false,
      "metar": "METAR EFTU 131450Z AUTO 10008KT 9999 OVC015 M06/M09 Q1021",
      "taf": "TAF EFTU 131426Z 1315/1415 10008KT 9999 OVC012"
    },
    {
      "icao": "EGBB",
      "alert": "OK",
      "vis_m": 9999,
      "fzfg": false,
      "metar_trigger": false,
      "taf_trigger": false,
      "metar": "METAR EGBB 131450Z 32012KT 9999 SCT010 BKN017 08/05 Q1003",
      "taf": "TAF EGBB 131055Z 1312/1412 17010KT 9999 BKN007"
    },
    {
      "icao": "EGGP",
      "alert": "OK",
      "vis_m": 9999,
      "fzfg": false,
      "metar_trigger": false,
      "taf_trigger": false,
      "metar": "METAR EGGP 131450Z 29008KT 9999 FEW014 06/03 Q1003",
      "taf": "TAF EGGP 131057Z 1312/1412 28010KT 9999 SCT030"
    },
    {
      "icao": "EGGW",
      "alert": "OK",
      "vis_m": 9999,
      "fzfg": false,
      "metar_trigger": false,
      "taf_trigger": false,
      "metar": "METAR EGGW 131450Z AUTO 21006KT 9999 -RA SCT035/// BKN046/// //////CB 09/08 Q1002",
      "taf": ""
    },
    {
      "icao": "EGKK",
      "alert": "OK",
      "vis_m": 9999,
      "fzfg": false,
      "metar_trigger": false,
      "taf_trigger": false,
      "metar": "METAR EGKK 131450Z 22007KT 9999 -RA BKN007 10/10 Q1004",
      "taf": ""
    },
    {
      "icao": "EGNM",
      "alert": "OK",
      "vis_m": 9999,
      "fzfg": false,
      "metar_trigger": false,
      "taf_trigger": false,
      "metar": "METAR EGNM 131450Z 29013KT 9999 FEW014 06/03 Q1001",
      "taf": "TAF EGNM 131057Z 1312/1412 20007KT 9999 SCT025"
    },
    {
      "icao": "EGPD",
      "alert": "OK",
      "vis_m": 9999,
      "fzfg": false,
      "metar_trigger": false,
      "taf_trigger": false,
      "metar": "METAR EGPD 131450Z COR AUTO 31008KT 9999 NCD 04/02 Q0996 NOSIG",
      "taf": "TAF EGPD 131055Z 1312/1412 30005KT 9999 FEW005 SCT025"
    },
    {
      "icao": "EGPF",
      "alert": "OK",
      "vis_m": 9999,
      "fzfg": false,
      "metar_trigger": false,
      "taf_trigger": false,
      "metar": "METAR EGPF 131450Z AUTO 28010KT 9999 -RA SCT019 BKN024 BKN028 05/03 Q1000",
      "taf": "TAF EGPF 131057Z 1312/1412 25009KT 9999 FEW015 SCT025"
    },
    {
      "icao": "EHBK",
      "alert": "OK",
      "vis_m": 9999,
      "fzfg": false,
      "metar_trigger": false,
      "taf_trigger": false,
      "metar": "METAR EHBK 131425Z AUTO 19008KT 9999 SCT047 11/07 Q1008 NOSIG",
      "taf": "TAF EHBK 131124Z 1312/1418 20013KT 9999 BKN018"
    },
    {
      "icao": "EHEH",
      "alert": "OK",
      "vis_m": 9999,
      "fzfg": false,
      "metar_trigger": false,
      "taf_trigger": false,
      "metar": "METAR EHEH 131425Z AUTO 17008KT 140V230 9999 FEW016 SCT064 BKN070 10/08 Q1007 BLU NOSIG",
      "taf": "TAF EHEH 131140Z 1312/1418 18009KT 9999 BKN018"
    },
    {
      "icao": "EKBI",
      "alert": "OK",
      "vis_m": 500,
      "fzfg": false,
      "metar_trigger": false,
      "taf_trigger": false,
      "metar": "METAR EKBI 131450Z AUTO 15004KT 0500 R09/0900N R27/0800N FG OVC002/// 04/04 Q1007",
      "taf": "TAF EKBI 131427Z 1315/1415 15007KT 0200 FG VV002"
    },
    {
      "icao": "EKCH",
      "alert": "OK",
      "vis_m": 1400,
      "fzfg": false,
      "metar_trigger": false,
      "taf_trigger": false,
      "metar": "METAR EKCH 131450Z 15010KT 1400 R22L/P1500N R04L/P1500N R12/P1500N BR VV002 02/02 Q1011 TEMPO 2000",
      "taf": "TAF EKCH 131427Z 1315/1415 15012KT 4000 BR OVC002"
    },
    {
      "icao": "ENAL",
      "alert": "OK",
      "vis_m": 9999,
      "fzfg": false,
      "metar_trigger": false,
      "taf_trigger": false,
      "metar": "METAR ENAL 131420Z 12016KT 9999 BKN053 05/M04 Q1000",
      "taf": "TAF ENAL 131400Z 1315/1324 14015KT 9999 BKN045"
    },
    {
      "icao": "ENBR",
      "alert": "OK",
      "vis_m": 9999,
      "fzfg": false,
      "metar_trigger": false,
      "taf_trigger": false,
      "metar": "METAR ENBR 131420Z 12011KT 9999 BKN028 03/00 Q1000 NOSIG RMK WIND 1200FT 13024KT",
      "taf": "TAF ENBR 131100Z 1312/1412 13015KT 9999 -RA BKN035"
    },
    {
      "icao": "ENGM",
      "alert": "OK",
      "vis_m": 2700,
      "fzfg": false,
      "metar_trigger": false,
      "taf_trigger": false,
      "metar": "METAR ENGM 131420Z 03004KT 2700 -SN BR SCT007 BKN019 M04/M05 Q1011 TEMPO 0800 SN BKN008",
      "taf": ""
    },
    {
      "icao": "ENHD",
      "alert": "OK",
      "vis_m": 9999,
      "fzfg": false,
      "metar_trigger": false,
      "taf_trigger": false,
      "metar": "METAR ENHD 131420Z 11020KT 9999 SCT023 BKN036 03/M00 Q1000 RERA",
      "taf": "TAF ENHD 131400Z 1315/1323 11022KT 9999 BKN025"
    },
    {
      "icao": "ENTC",
      "alert": "OK",
      "vis_m": 9999,
      "fzfg": false,
      "metar_trigger": false,
      "taf_trigger": false,
      "metar": "METAR ENTC 131420Z 18012KT CAVOK M05/M12 Q1010 NOSIG RMK WIND 2600FT 18017KT",
      "taf": "TAF ENTC 131100Z 1312/1412 19010KT CAVOK"
    },
    {
      "icao": "ENTO",
      "alert": "OK",
      "vis_m": 1900,
      "fzfg": false,
      "metar_trigger": false,
      "taf_trigger": false,
      "metar": "METAR ENTO 131420Z 36006KT 1900 -SN VV005 M03/M03 Q1009 NOSIG",
      "taf": ""
    },
    {
      "icao": "ENVA",
      "alert": "OK",
      "vis_m": 9999,
      "fzfg": false,
      "metar_trigger": false,
      "taf_trigger": false,
      "metar": "METAR ENVA 131420Z 11010KT 070V150 CAVOK 00/M08 Q1006 TEMPO 15018G30KT RMK WIND 670FT 16021KT",
      "taf": "TAF ENVA 131100Z 1312/1412 11009KT CAVOK"
    },
    {
      "icao": "ENZV",
      "alert": "OK",
      "vis_m": 9999,
      "fzfg": false,
      "metar_trigger": false,
      "taf_trigger": false,
      "metar": "METAR ENZV 131420Z 12015KT CAVOK 05/M01 Q1000 NOSIG",
      "taf": ""
    },
    {
      "icao": "EPGD",
      "alert": "OK",
      "vis_m": 8000,
      "fzfg": false,
      "metar_trigger": false,
      "taf_trigger": false,
      "metar": "METAR EPGD 131430Z 14006KT 8000 BKN037 M04/M06 Q1016",
      "taf": "TAF EPGD 131130Z 1312/1412 17010KT 9999 BKN030"
    },
    {
      "icao": "EPKK",
      "alert": "OK",
      "vis_m": 1400,
      "fzfg": false,
      "metar_trigger": false,
      "taf_trigger": false,
      "metar": "METAR EPKK 131430Z 06003KT 1400 R25/1700U -FZDZ BR SCT003 OVC007 M04/M05 Q1016",
      "taf": "TAF EPKK 131430Z 1315/1415 VRB02KT 2000 -RASN BR OVC008"
    },
    {
      "icao": "EPKT",
      "alert": "OK",
      "vis_m": 1600,
      "fzfg": false,
      "metar_trigger": false,
      "taf_trigger": false,
      "metar": "METAR EPKT 131430Z 08004KT 1600 -FZDZ BR SCT002 OVC003 M02/M03 Q1015",
      "taf": ""
    },
    {
      "icao": "EPLB",
      "alert": "OK",
      "vis_m": 9000,
      "fzfg": false,
      "metar_trigger": false,
      "taf_trigger": false,
      "metar": "METAR EPLB 131430Z 02001KT 9000 NSC M08/M10 Q1017",
      "taf": "TAF EPLB 131130Z 1312/1412 VRB04KT 7000 NSC"
    },
    {
      "icao": "EPMO",
      "alert": "OK",
      "vis_m": 6000,
      "fzfg": false,
      "metar_trigger": false,
      "taf_trigger": false,
      "metar": "METAR EPMO 131430Z 07006KT 6000 NSC M04/M06 Q1017",
      "taf": "TAF EPMO 131130Z 1312/1412 12007KT 3500 BR NSC"
    },
    {
      "icao": "EPPO",
      "alert": "OK",
      "vis_m": 5000,
      "fzfg": false,
      "metar_trigger": false,
      "taf_trigger": false,
      "metar": "METAR EPPO 131430Z 12005KT 5000 BR OVC030 M02/M05 Q1016 REFZRA",
      "taf": "TAF EPPO 131130Z 1312/1412 13005KT 6000 BKN017"
    },
    {
      "icao": "EPRA",
      "alert": "OK",
      "vis_m": 9999,
      "fzfg": false,
      "metar_trigger": false,
      "taf_trigger": false,
      "metar": "METAR EPRA 131430Z 08002KT CAVOK M08/M10 Q1017",
      "taf": "TAF EPRA 131430Z 1315/1324 12004KT 8000 NSC"
    },
    {
      "icao": "EPRZ",
      "alert": "OK",
      "vis_m": 9999,
      "fzfg": false,
      "metar_trigger": false,
      "taf_trigger": false,
      "metar": "METAR EPRZ 131430Z 21005KT CAVOK M05/M09 Q1017",
      "taf": ""
    },
    {
      "icao": "EPSC",
      "alert": "OK",
      "vis_m": 1500,
      "fzfg": false,
      "metar_trigger": false,
      "taf_trigger": false,
      "metar": "METAR EPSC 131430Z 14009KT 1500 BR OVC002 M01/M01 Q1014",
      "taf": "TAF EPSC 131130Z 1312/1412 14010KT 3000 BR OVC003"
    },
    {
      "icao": "EPSY",
      "alert": "OK",
      "vis_m": 3700,
      "fzfg": false,
      "metar_trigger": false,
      "taf_trigger": false,
      "metar": "METAR EPSY 131430Z VRB02KT 3700 BR NSC M06/M07 Q1017",
      "taf": "TAF EPSY 131430Z 1315/1324 VRB02KT 4000 BR NSC"
    },
    {
      "icao": "EPWA",
      "alert": "OK",
      "vis_m": 9999,
      "fzfg": false,
      "metar_trigger": false,
      "taf_trigger": false,
      "metar": "METAR EPWA 131430Z 12005KT 080V150 CAVOK M03/M07 Q1017 NOSIG",
      "taf": "TAF EPWA 131430Z 1315/1415 12008KT 7000 NSC"
    },
    {
      "icao": "EPWR",
      "alert": "OK",
      "vis_m": 6000,
      "fzfg": false,
      "metar_trigger": false,
      "taf_trigger": false,
      "metar": "METAR EPWR 131430Z VRB01KT 6000 OVC007 01/M00 Q1016",
      "taf": "TAF EPWR 131430Z 1315/1415 VRB02KT 6000 SCT007 BKN012"
    },
    {
      "icao": "ESGG",
      "alert": "OK",
      "vis_m": 3500,
      "fzfg": false,
      "metar_trigger": false,
      "taf_trigger": false,
      "metar": "METAR ESGG 131450Z 15010KT 3500 -FZDZ OVC004 M00/M01 Q1008",
      "taf": "TAF ESGG 131430Z 1315/1415 13009KT 8000 -SN OVC002"
    },
    {
      "icao": "ESKN",
      "alert": "OK",
      "vis_m": 9999,
      "fzfg": false,
      "metar_trigger": false,
      "taf_trigger": false,
      "metar": "METAR ESKN 131450Z 10005KT 9999 SCT006 BKN035 M01/M01 Q1015",
      "taf": "TAF ESKN 131430Z 1315/1415 11007KT 9999 BKN018"
    },
    {
      "icao": "ESMS",
      "alert": "OK",
      "vis_m": 500,
      "fzfg": false,
      "metar_trigger": false,
      "taf_trigger": false,
      "metar": "METAR ESMS 131450Z 15008KT 0500 R17/1500D R35/1100D FG OVC002 01/01 Q1011",
      "taf": "TAF ESMS 131427Z 1315/1415 13010KT 4000 -RADZ BR OVC006"
    },
    {
      "icao": "ESSA",
      "alert": "OK",
      "vis_m": 9999,
      "fzfg": false,
      "metar_trigger": false,
      "taf_trigger": false,
      "metar": "METAR ESSA 131450Z 08007KT 9999 -SN BKN026 M02/M03 Q1016 TEMPO BKN012",
      "taf": "TAF ESSA 131430Z 1315/1415 09006KT 9999 -SN BKN015"
    },
    {
      "icao": "EYKA",
      "alert": "OK",
      "vis_m": 6000,
      "fzfg": false,
      "metar_trigger": false,
      "taf_trigger": false,
      "metar": "METAR EYKA 131450Z 07001KT 6000 -SN NSC M10/M12 Q1019",
      "taf": "TAF EYKA 131100Z 1312/1412 VRB04KT 5000 BR SCT010 BKN015"
    },
    {
      "icao": "EYPA",
      "alert": "OK",
      "vis_m": 9999,
      "fzfg": false,
      "metar_trigger": false,
      "taf_trigger": false,
      "metar": "METAR EYPA 131450Z 09003KT CAVOK M11/M13 Q1020",
      "taf": "TAF EYPA 131100Z 1312/1412 VRB04KT 5000 BR FEW005"
    },
    {
      "icao": "EYVI",
      "alert": "OK",
      "vis_m": 3300,
      "fzfg": false,
      "metar_trigger": false,
      "taf_trigger": false,
      "metar": "METAR EYVI 131450Z VRB01KT 3300 BR NSC M11/M12 Q1018 TEMPO 3000 BR",
      "taf": "TAF EYVI 131100Z 1312/1412 VRB04KT 5000 BR SCT005 BKN020"
    },
    {
      "icao": "GCFV",
      "alert": "OK",
      "vis_m": 9999,
      "fzfg": false,
      "metar_trigger": false,
      "taf_trigger": false,
      "metar": "METAR GCFV 131430Z 29014KT 260V320 9999 FEW015 SCT049 20/13 Q1017",
      "taf": "TAF GCFV 131400Z 1315/1415 33016KT 9999 SCT020 TX19/1414Z TN12/1406Z"
    },
    {
      "icao": "GCLP",
      "alert": "OK",
      "vis_m": 9999,
      "fzfg": false,
      "metar_trigger": false,
      "taf_trigger": false,
      "metar": "METAR GCLP 131430Z 01023KT 9999 SCT020 20/14 Q1018 TEMPO 4500 RA",
      "taf": "TAF GCLP 131400Z 1315/1415 36017KT 9999 FEW025 TX20/1414Z TN16/1406Z"
    },
    {
      "icao": "GCTS",
      "alert": "OK",
      "vis_m": 9999,
      "fzfg": false,
      "metar_trigger": false,
      "taf_trigger": false,
      "metar": "METAR GCTS 131430Z 11009KT 080V160 9999 BKN050 21/13 Q1018 NOSIG",
      "taf": "TAF GCTS 131400Z 1315/1415 09010KT 9999 SCT040 TX22/1414Z TN13/1406Z"
    },
    {
      "icao": "GMAD",
      "alert": "OK",
      "vis_m": 9999,
      "fzfg": false,
      "metar_trigger": false,
      "taf_trigger": false,
      "metar": "METAR GMAD 131430Z 00000KT CAVOK 22/05 Q1015 NOSIG",
      "taf": "TAF GMAD 131100Z 1312/1418 24014KT 8000 SCT016 BKN080"
    },
    {
      "icao": "GMMN",
      "alert": "OK",
      "vis_m": 9999,
      "fzfg": false,
      "metar_trigger": false,
      "taf_trigger": false,
      "metar": "METAR GMMN 131430Z 30010KT 9999 SCT016 BKN100 16/12 Q1016 NOSIG",
      "taf": "TAF GMMN 131100Z 1312/1418 22010KT 9999 SCT016 BKN100"
    },
    {
      "icao": "GMMX",
      "alert": "OK",
      "vis_m": 9999,
      "fzfg": false,
      "metar_trigger": false,
      "taf_trigger": false,
      "metar": "METAR GMMX 131430Z 35010KT 310V030 9999 BKN080 19/06 Q1015 NOSIG",
      "taf": "TAF GMMX 131100Z 1312/1418 12006KT 8000 NSC"
    },
    {
      "icao": "HEGN",
      "alert": "OK",
      "vis_m": 9999,
      "fzfg": false,
      "metar_trigger": false,
      "taf_trigger": false,
      "metar": "METAR HEGN 131400Z 36011KT CAVOK 19/04 Q1020 NOSIG",
      "taf": "TAF HEGN 131100Z 1312/1418 33015G25KT 6000 FEW025"
    },
    {
      "icao": "HEMA",
      "alert": "OK",
      "vis_m": 9999,
      "fzfg": false,
      "metar_trigger": false,
      "taf_trigger": false,
      "metar": "METAR HEMA 131400Z 30007KT CAVOK 19/04 Q1019 NOSIG",
      "taf": "TAF HEMA 131100Z 1312/1418 32010G20KT 9999 FEW025"
    },
    {
      "icao": "HESH",
      "alert": "OK",
      "vis_m": 9999,
      "fzfg": false,
      "metar_trigger": false,
      "taf_trigger": false,
      "metar": "METAR HESH 131400Z 06007KT CAVOK 19/05 Q1018 NOSIG",
      "taf": "TAF HESH 131100Z 1312/1418 01010G20KT 9999 FEW025"
    },
    {
      "icao": "HESX",
      "alert": "OK",
      "vis_m": 9999,
      "fzfg": false,
      "metar_trigger": false,
      "taf_trigger": false,
      "metar": "METAR HESX 131400Z 29012KT 9999 SCT020 SCT100 13/05 Q1020 NOSIG",
      "taf": "TAF HESX 131100Z 1312/1418 26013G25KT 6000 SCT020 BKN100"
    },
    {
      "icao": "LATI",
      "alert": "OK",
      "vis_m": 9999,
      "fzfg": false,
      "metar_trigger": false,
      "taf_trigger": false,
      "metar": "METAR LATI 131450Z 11004KT 080V140 9999 SCT037 BKN059 09/00 Q1026 NOSIG",
      "taf": "TAF LATI 131100Z 1312/1412 VRB05KT 9999 SCT040 BKN070 TX10/1312Z TN03/1405Z"
    },
    {
      "icao": "LBPD",
      "alert": "OK",
      "vis_m": 9999,
      "fzfg": false,
      "metar_trigger": false,
      "taf_trigger": false,
      "metar": "METAR LBPD 131430Z AUTO 07003KT 9999 OVC061/// 02/M09 Q1021 NOSIG",
      "taf": "TAF LBPD 131100Z 1312/1412 VRB03KT 9999 SCT050 BKN070"
    },
    {
      "icao": "LBSF",
      "alert": "OK",
      "vis_m": 9999,
      "fzfg": false,
      "metar_trigger": false,
      "taf_trigger": false,
      "metar": "METAR LBSF 131430Z VRB02KT 9999 OVC042 00/M07 Q1020 NOSIG",
      "taf": "TAF LBSF 131100Z 1312/1412 VRB03KT 9999 SCT050 BKN070"
    },
    {
      "icao": "LBWN",
      "alert": "OK",
      "vis_m": 9999,
      "fzfg": false,
      "metar_trigger": false,
      "taf_trigger": false,
      "metar": "METAR LBWN 131430Z 13004KT CAVOK 02/M08 Q1021 NOSIG",
      "taf": "TAF LBWN 131100Z 1312/1412 VRB04KT 9999 SCT050"
    },
    {
      "icao": "LCLK",
      "alert": "OK",
      "vis_m": 9999,
      "fzfg": false,
      "metar_trigger": false,
      "taf_trigger": false,
      "metar": "METAR LCLK 131430Z 35004KT 9999 FEW020 BKN030 12/07 Q1012 NOSIG",
      "taf": "TAF LCLK 131130Z 1312/1412 30018KT 9999 FEW020CB SCT040"
    },
    {
      "icao": "LCPH",
      "alert": "OK",
      "vis_m": 9999,
      "fzfg": false,
      "metar_trigger": false,
      "taf_trigger": false,
      "metar": "METAR LCPH 131430Z 33020KT 9999 FEW025 SCT045 12/02 Q1013 TEMPO 5000 SHRA",
      "taf": "TAF LCPH 131130Z 1312/1412 30023G33KT 9999 FEW025CB SCT040"
    },
    {
      "icao": "LEAL",
      "alert": "OK",
      "vis_m": 4500,
      "fzfg": false,
      "metar_trigger": false,
      "taf_trigger": false,
      "metar": "METAR LEAL 131430Z 19005KT 110V240 4500 BR FEW025 15/11 Q1016 NOSIG",
      "taf": ""
    },
    {
      "icao": "LEBB",
      "alert": "OK",
      "vis_m": 9999,
      "fzfg": false,
      "metar_trigger": false,
      "taf_trigger": false,
      "metar": "METAR LEBB 131430Z 15019KT 120V180 CAVOK 18/04 Q1008 NOSIG",
      "taf": "TAF LEBB 131100Z 1312/1412 15009KT CAVOK TX16/1316Z TN09/1408Z"
    },
    {
      "icao": "LEBL",
      "alert": "OK",
      "vis_m": 9999,
      "fzfg": false,
      "metar_trigger": false,
      "taf_trigger": false,
      "metar": "METAR LEBL 131430Z 22010KT 9999 FEW018 16/11 Q1016 NOSIG",
      "taf": "TAF LEBL 131100Z 1312/1412 23008KT 9999 SCT020 TX16/1312Z TN07/1406Z"
    },
    {
      "icao": "LECH",
      "alert": "OK",
      "vis_m": 9000,
      "fzfg": false,
      "metar_trigger": false,
      "taf_trigger": false,
      "metar": "METAR LECH 131430Z AUTO 10006KT 060V120 9000 NCD 13/10 Q1015",
      "taf": ""
    },
    {
      "icao": "LEMD",
      "alert": "OK",
      "vis_m": 9999,
      "fzfg": false,
      "metar_trigger": false,
      "taf_trigger": false,
      "metar": "METAR LEMD 131430Z 16009KT 130V220 9999 BKN048 11/00 Q1012 NOSIG",
      "taf": "TAF LEMD 131100Z 1312/1418 VRB03KT 9999 SCT030 TX12/1314Z TN00/1407Z"
    },
    {
      "icao": "LEMG",
      "alert": "OK",
      "vis_m": 9999,
      "fzfg": false,
      "metar_trigger": false,
      "taf_trigger": false,
      "metar": "METAR LEMG 131430Z 15004KT 110V190 9999 FEW010 13/10 Q1016 NOSIG",
      "taf": "TAF LEMG 131100Z 1312/1412 13009KT 9999 FEW020 TX16/1314Z TN10/1407Z"
    },
    {
      "icao": "LEVC",
      "alert": "OK",
      "vis_m": 9999,
      "fzfg": false,
      "metar_trigger": false,
      "taf_trigger": false,
      "metar": "METAR LEVC 131430Z 13004KT 090V170 CAVOK 15/08 Q1015 NOSIG",
      "taf": "TAF LEVC 131100Z 1312/1412 VRB04KT CAVOK TX16/1314Z TN04/1406Z"
    },
    {
      "icao": "LEXJ",
      "alert": "OK",
      "vis_m": 9999,
      "fzfg": false,
      "metar_trigger": false,
      "taf_trigger": false,
      "metar": "METAR LEXJ 131430Z 21011G23KT 150V280 CAVOK 18/05 Q1006",
      "taf": "TAF LEXJ 131400Z 1315/1415 19009KT CAVOK TX17/1316Z TN11/1408Z"
    },
    {
      "icao": "LEZG",
      "alert": "OK",
      "vis_m": 6000,
      "fzfg": false,
      "metar_trigger": false,
      "taf_trigger": false,
      "metar": "METAR LEZG 131430Z 07006KT 6000 FEW008 09/08 Q1014 NOSIG",
      "taf": ""
    },
    {
      "icao": "LEZL",
      "alert": "OK",
      "vis_m": 9999,
      "fzfg": false,
      "metar_trigger": false,
      "taf_trigger": false,
      "metar": "METAR LEZL 131430Z 23017KT 200V260 9999 FEW020TCU BKN025 16/14 Q1013 RERA NOSIG",
      "taf": "TAF LEZL 131400Z 1315/1415 22010KT 9999 SCT030 TX18/1315Z TN08/1407Z"
    },
    {
      "icao": "LFBD",
      "alert": "OK",
      "vis_m": 9999,
      "fzfg": false,
      "metar_trigger": false,
      "taf_trigger": false,
      "metar": "METAR LFBD 131430Z AUTO 14008KT CAVOK 12/08 Q1009 NOSIG",
      "taf": "TAF LFBD 131100Z 1312/1418 15010KT CAVOK TX14/1314Z TN06/1407Z"
    },
    {
      "icao": "LFLL",
      "alert": "OK",
      "vis_m": 9999,
      "fzfg": false,
      "metar_trigger": false,
      "taf_trigger": false,
      "metar": "METAR LFLL 131430Z 18012KT 9999 FEW036 BKN260 14/07 Q1014 NOSIG",
      "taf": "TAF LFLL 131100Z 1312/1418 17015KT 9999 FEW035"
    },
    {
      "icao": "LFLS",
      "alert": "OK",
      "vis_m": 9999,
      "fzfg": false,
      "metar_trigger": false,
      "taf_trigger": false,
      "metar": "METAR LFLS 131430Z AUTO 22009KT CAVOK 13/06 Q1015 NOSIG",
      "taf": "TAF LFLS 131400Z 1315/1415 24008KT 9999 FEW052"
    },
    {
      "icao": "LFMN",
      "alert": "OK",
      "vis_m": 9999,
      "fzfg": false,
      "metar_trigger": false,
      "taf_trigger": false,
      "metar": "METAR LFMN 131430Z 21008KT 9999 FEW040 BKN260 15/09 Q1020 NOSIG",
      "taf": "TAF LFMN 131400Z 1315/1421 25008KT 9999 SCT030 BKN040"
    },
    {
      "icao": "LFOB",
      "alert": "OK",
      "vis_m": 9999,
      "fzfg": false,
      "metar_trigger": false,
      "taf_trigger": false,
      "metar": "METAR LFOB 131430Z AUTO 19009KT CAVOK 12/06 Q1008 NOSIG",
      "taf": "TAF LFOB 131100Z 1312/1412 18008KT CAVOK"
    },
    {
      "icao": "LFPO",
      "alert": "OK",
      "vis_m": 9999,
      "fzfg": false,
      "metar_trigger": false,
      "taf_trigger": false,
      "metar": "METAR LFPO 131430Z 19005KT 150V230 CAVOK 12/06 Q1009 NOSIG",
      "taf": "TAF LFPO 131100Z 1312/1418 19008KT CAVOK"
    },
    {
      "icao": "LFSB",
      "alert": "OK",
      "vis_m": 9999,
      "fzfg": false,
      "metar_trigger": false,
      "taf_trigger": false,
      "metar": "METAR LFSB 131430Z AUTO 10005KT 060V130 CAVOK 11/04 Q1013 NOSIG",
      "taf": "TAF LFSB 131100Z 1312/1412 17005KT CAVOK"
    },
    {
      "icao": "LGAV",
      "alert": "OK",
      "vis_m": 9999,
      "fzfg": false,
      "metar_trigger": false,
      "taf_trigger": false,
      "metar": "METAR LGAV 131450Z 25004KT 190V290 9999 FEW025 10/M02 Q1024 NOSIG",
      "taf": "TAF LGAV 131100Z 1312/1412 VRB05KT 9999 FEW025"
    },
    {
      "icao": "LGTS",
      "alert": "OK",
      "vis_m": 9999,
      "fzfg": false,
      "metar_trigger": false,
      "taf_trigger": false,
      "metar": "METAR LGTS 131420Z VRB02KT 9999 FEW025 07/M09 Q1023 NOSIG",
      "taf": "TAF LGTS 131100Z 1312/1412 VRB03KT 9999 FEW025"
    },
    {
      "icao": "LHBP",
      "alert": "OK",
      "vis_m": 7000,
      "fzfg": false,
      "metar_trigger": false,
      "taf_trigger": false,
      "metar": "METAR LHBP 131430Z 08003KT 020V130 7000 OVC013 M05/M07 Q1018 TEMPO OVC009",
      "taf": ""
    },
    {
      "icao": "LHDC",
      "alert": "OK",
      "vis_m": 7000,
      "fzfg": false,
      "metar_trigger": false,
      "taf_trigger": false,
      "metar": "METAR LHDC 131415Z AUTO 07006KT 7000 -SHSN OVC013 M04/M06 Q1018 NOSIG",
      "taf": "TAF LHDC 131415Z 1315/1324 06005KT 8000 BKN010 OVC025"
    },
    {
      "icao": "LIBD",
      "alert": "OK",
      "vis_m": 9999,
      "fzfg": false,
      "metar_trigger": false,
      "taf_trigger": false,
      "metar": "METAR LIBD 131450Z 10004KT CAVOK 14/06 Q1023",
      "taf": "TAF LIBD 131100Z 1312/1412 23007KT CAVOK"
    },
    {
      "icao": "LIBG",
      "alert": "OK",
      "vis_m": 9999,
      "fzfg": false,
      "metar_trigger": false,
      "taf_trigger": false,
      "metar": "METAR LIBG 131350Z 26004KT 220V300 CAVOK 14/04 Q1024",
      "taf": "TAF LIBG 131400Z 1315/1324 VRB05KT 9999 FEW040"
    },
    {
      "icao": "LIBP",
      "alert": "OK",
      "vis_m": 9999,
      "fzfg": false,
      "metar_trigger": false,
      "taf_trigger": false,
      "metar": "METAR LIBP 131450Z AUTO 05005KT 9999 NCD 12/06 Q1022",
      "taf": "TAF LIBP 131100Z 1312/1412 VRB06KT CAVOK"
    },
    {
      "icao": "LIBR",
      "alert": "OK",
      "vis_m": 9999,
      "fzfg": false,
      "metar_trigger": false,
      "taf_trigger": false,
      "metar": "METAR LIBR 131450Z 11004KT CAVOK 12/04 Q1024",
      "taf": "TAF LIBR 131100Z 1312/1412 22008KT CAVOK"
    },
    {
      "icao": "LICA",
      "alert": "OK",
      "vis_m": 9999,
      "fzfg": false,
      "metar_trigger": false,
      "taf_trigger": false,
      "metar": "METAR LICA 131450Z AUTO 24007KT 9999 NCD 13/07 Q1026",
      "taf": "TAF LICA 131100Z 1312/1412 26010KT 9999 SCT030"
    },
    {
      "icao": "LICC",
      "alert": "OK",
      "vis_m": 9999,
      "fzfg": false,
      "metar_trigger": false,
      "taf_trigger": false,
      "metar": "METAR LICC 131450Z 25009KT 9999 FEW050 17/11 Q1025",
      "taf": "TAF LICC 131100Z 1312/1412 26010KT CAVOK"
    },
    {
      "icao": "LICJ",
      "alert": "OK",
      "vis_m": 9999,
      "fzfg": false,
      "metar_trigger": false,
      "taf_trigger": false,
      "metar": "METAR LICJ 131450Z 18007KT 140V210 CAVOK 16/06 Q1024",
      "taf": "TAF LICJ 131100Z 1312/1412 18010KT 9999 FEW030"
    },
    {
      "icao": "LIMC",
      "alert": "OK",
      "vis_m": 9999,
      "fzfg": false,
      "metar_trigger": false,
      "taf_trigger": false,
      "metar": "METAR LIMC 131450Z 15002KT 9999 BKN040 07/M02 Q1021 NOSIG",
      "taf": "TAF LIMC 131100Z 1312/1418 VRB05KT 9999 BKN040"
    },
    {
      "icao": "LIME",
      "alert": "OK",
      "vis_m": 9000,
      "fzfg": false,
      "metar_trigger": false,
      "taf_trigger": false,
      "metar": "METAR LIME 131450Z VRB02KT 9000 BKN040 05/00 Q1021 NOSIG",
      "taf": "TAF LIME 131100Z 1312/1412 VRB04KT 9999 SCT035"
    },
    {
      "icao": "LIMF",
      "alert": "OK",
      "vis_m": 9999,
      "fzfg": false,
      "metar_trigger": false,
      "taf_trigger": false,
      "metar": "METAR LIMF 131450Z VRB02KT CAVOK 09/M05 Q1021",
      "taf": "TAF LIMF 131100Z 1312/1412 VRB03KT CAVOK"
    },
    {
      "icao": "LIMJ",
      "alert": "OK",
      "vis_m": 9999,
      "fzfg": false,
      "metar_trigger": false,
      "taf_trigger": false,
      "metar": "METAR LIMJ 131450Z 32003KT 9999 SCT016 BKN038 12/11 Q1021",
      "taf": "TAF LIMJ 131100Z 1312/1412 VRB05KT 9999 BKN020"
    },
    {
      "icao": "LIPE",
      "alert": "OK",
      "vis_m": 9999,
      "fzfg": false,
      "metar_trigger": false,
      "taf_trigger": false,
      "metar": "METAR LIPE 131450Z 33003KT 9999 BKN060 06/01 Q1022",
      "taf": "TAF LIPE 131100Z 1312/1412 VRB04KT 9999 SCT040"
    },
    {
      "icao": "LIPH",
      "alert": "OK",
      "vis_m": 9999,
      "fzfg": false,
      "metar_trigger": false,
      "taf_trigger": false,
      "metar": "METAR LIPH 131450Z VRB01KT 9999 FEW040 07/01 Q1022",
      "taf": "TAF LIPH 131100Z 1312/1412 VRB04KT 9999 SCT040"
    },
    {
      "icao": "LIPQ",
      "alert": "OK",
      "vis_m": 9999,
      "fzfg": false,
      "metar_trigger": false,
      "taf_trigger": false,
      "metar": "METAR LIPQ 131450Z AUTO 21002KT 9999 OVC040/// 08/03 Q1022",
      "taf": "TAF LIPQ 131100Z 1312/1412 VRB04KT 9999 SCT040"
    },
    {
      "icao": "LIPR",
      "alert": "OK",
      "vis_m": 8000,
      "fzfg": false,
      "metar_trigger": false,
      "taf_trigger": false,
      "metar": "METAR LIPR 131450Z 31006KT 8000 BKN050 07/04 Q1022",
      "taf": "TAF LIPR 131100Z 1312/1412 VRB05KT 9999 FEW040"
    },
    {
      "icao": "LIPX",
      "alert": "OK",
      "vis_m": 9999,
      "fzfg": false,
      "metar_trigger": false,
      "taf_trigger": false,
      "metar": "METAR LIPX 131450Z 18003KT 150V220 9999 OVC040 05/M00 Q1022",
      "taf": "TAF LIPX 131100Z 1312/1412 VRB04KT 9999 BKN040"
    },
    {
      "icao": "LIPY",
      "alert": "OK",
      "vis_m": 9999,
      "fzfg": false,
      "metar_trigger": false,
      "taf_trigger": false,
      "metar": "METAR LIPY 131450Z AUTO VRB02KT 9999 BKN210/// 13/07 Q1022",
      "taf": "TAF LIPY 131100Z 1312/1412 19007KT 9999 FEW050"
    },
    {
      "icao": "LIPZ",
      "alert": "OK",
      "vis_m": 9999,
      "fzfg": false,
      "metar_trigger": false,
      "taf_trigger": false,
      "metar": "METAR LIPZ 131450Z 16002KT 9999 BKN040 06/01 Q1022 NOSIG",
      "taf": "TAF LIPZ 131100Z 1312/1418 VRB05KT 9999 SCT040"
    },
    {
      "icao": "LIRF",
      "alert": "OK",
      "vis_m": 9999,
      "fzfg": false,
      "metar_trigger": false,
      "taf_trigger": false,
      "metar": "METAR LIRF 131450Z 16007KT 140V200 9999 FEW030 SCT045 14/08 Q1024 NOSIG",
      "taf": "TAF LIRF 131100Z 1312/1418 16010KT 9999 SCT030"
    },
    {
      "icao": "LIRN",
      "alert": "OK",
      "vis_m": 9999,
      "fzfg": false,
      "metar_trigger": false,
      "taf_trigger": false,
      "metar": "METAR LIRN 131450Z 21007KT 9999 SCT040 13/06 Q1025 NOSIG",
      "taf": "TAF LIRN 131100Z 1312/1412 VRB05KT 9999 BKN030"
    },
    {
      "icao": "LIRP",
      "alert": "OK",
      "vis_m": 9999,
      "fzfg": false,
      "metar_trigger": false,
      "taf_trigger": false,
      "metar": "METAR LIRP 131445Z 10002KT 9999 SCT028 BKN060 11/11 Q1022 NOSIG",
      "taf": "TAF LIRP 131100Z 1312/1412 VRB03KT 9999 SCT030 BKN060"
    },
    {
      "icao": "LIRZ",
      "alert": "OK",
      "vis_m": 9999,
      "fzfg": false,
      "metar_trigger": false,
      "taf_trigger": false,
      "metar": "METAR LIRZ 131450Z AUTO 22005KT 9999 OVC053/// 12/08 Q1023",
      "taf": "TAF LIRZ 131100Z 1312/1412 VRB04KT 9999 SCT040"
    },
    {
      "icao": "LJLJ",
      "alert": "OK",
      "vis_m": 9999,
      "fzfg": false,
      "metar_trigger": false,
      "taf_trigger": false,
      "metar": "METAR LJLJ 131430Z 30003KT 9999 FEW035 BKN180 01/M00 Q1020 NOSIG",
      "taf": "TAF LJLJ 131100Z 1312/1412 30007KT 9999 SCT025"
    },
    {
      "icao": "LKMT",
      "alert": "OK",
      "vis_m": 6000,
      "fzfg": false,
      "metar_trigger": false,
      "taf_trigger": false,
      "metar": "METAR LKMT 131430Z 22011KT 6000 SCT006 OVC016 M01/M02 Q1017 NOSIG",
      "taf": "TAF LKMT 131100Z 1312/1412 23010KT 9999 BKN012 OVC025"
    },
    {
      "icao": "LKPR",
      "alert": "OK",
      "vis_m": 9999,
      "fzfg": false,
      "metar_trigger": false,
      "taf_trigger": false,
      "metar": "METAR LKPR 131430Z 17006KT 9999 SCT020 BKN037 04/03 Q1015 NOSIG",
      "taf": "TAF LKPR 131400Z 1315/1421 21004KT 7000 SCT008 BKN017"
    },
    {
      "icao": "LLBG",
      "alert": "OK",
      "vis_m": 9999,
      "fzfg": false,
      "metar_trigger": false,
      "taf_trigger": false,
      "metar": "METAR LLBG 131450Z 27020KT 9999 -RA BKN029 13/08 Q1016 TEMPO 27025G35KT 7000 RA FEW020TCU",
      "taf": "TAF LLBG 131110Z 1312/1412 27018G28KT 9999 SCT040"
    },
    {
      "icao": "LMML",
      "alert": "OK",
      "vis_m": 9999,
      "fzfg": false,
      "metar_trigger": false,
      "taf_trigger": false,
      "metar": "METAR LMML 131445Z 21006KT 150V250 9999 FEW032 15/09 Q1026 NOSIG",
      "taf": "TAF LMML 131100Z 1312/1412 24008KT 9999 SCT028"
    },
    {
      "icao": "LOWW",
      "alert": "OK",
      "vis_m": 3900,
      "fzfg": false,
      "metar_trigger": false,
      "taf_trigger": false,
      "metar": "METAR LOWW 131450Z 18006KT 3900 BR FEW030 SCT032 BKN036 M00/M01 Q1018 TEMPO 5000 BR",
      "taf": "TAF LOWW 131415Z 1315/1421 14005KT 6000 FEW020 BKN040 TXM00/1315Z TNM02/1418Z"
    },
    {
      "icao": "LPFR",
      "alert": "OK",
      "vis_m": 8000,
      "fzfg": false,
      "metar_trigger": false,
      "taf_trigger": false,
      "metar": "METAR LPFR 131430Z 24017KT 8000 -SHRA FEW015 FEW018CB SCT025 14/12 Q1013",
      "taf": "TAF LPFR 131100Z 1312/1412 21017KT 9999 SCT020"
    },
    {
      "icao": "LPMA",
      "alert": "OK",
      "vis_m": 9999,
      "fzfg": false,
      "metar_trigger": false,
      "taf_trigger": false,
      "metar": "METAR LPMA 131430Z VRB07G19KT 9999 BKN015 FEW018CB 16/09 Q1018",
      "taf": "TAF LPMA 131100Z 1312/1412 34010KT 9999 SCT015"
    },
    {
      "icao": "LPPR",
      "alert": "OK",
      "vis_m": 9999,
      "fzfg": false,
      "metar_trigger": false,
      "taf_trigger": false,
      "metar": "METAR LPPR 131430Z 21011KT 9999 VCSH BKN019 FEW023TCU 14/11 Q1008",
      "taf": "TAF LPPR 131100Z 1312/1412 18012KT 9999 SCT015 BKN030"
    },
    {
      "icao": "LPPS",
      "alert": "OK",
      "vis_m": 9999,
      "fzfg": false,
      "metar_trigger": false,
      "taf_trigger": false,
      "metar": "METAR LPPS 131430Z 33016KT 9999 -SHRA SCT014 FEW018TCU 16/11 Q1018",
      "taf": "TAF LPPS 131100Z 1312/1418 34015KT 9999 SCT015"
    },
    {
      "icao": "LPPT",
      "alert": "OK",
      "vis_m": 9999,
      "fzfg": false,
      "metar_trigger": false,
      "taf_trigger": false,
      "metar": "METAR LPPT 131430Z 27011KT 230V300 9999 SCT020 15/10 Q1010",
      "taf": "TAF LPPT 131100Z 1312/1418 25010KT 9999 SCT020 BKN045"
    },
    {
      "icao": "LQBK",
      "alert": "OK",
      "vis_m": 9999,
      "fzfg": false,
      "metar_trigger": false,
      "taf_trigger": false,
      "metar": "METAR LQBK 131430Z 22007KT CAVOK 10/02 Q1019 NOSIG",
      "taf": "TAF LQBK 131100Z 1312/1412 15007KT CAVOK TX14/1313Z TN00/1406Z"
    },
    {
      "icao": "LQSA",
      "alert": "OK",
      "vis_m": 9999,
      "fzfg": false,
      "metar_trigger": false,
      "taf_trigger": false,
      "metar": "METAR LQSA 131430Z VRB05KT CAVOK 09/01 Q1020 NOSIG",
      "taf": "TAF LQSA 131100Z 1312/1412 VRB02KT 8000 NSC TX04/1314Z TNM03/1406Z"
    },
    {
      "icao": "LQTZ",
      "alert": "OK",
      "vis_m": 9999,
      "fzfg": false,
      "metar_trigger": false,
      "taf_trigger": false,
      "metar": "METAR LQTZ 131430Z 34005KT CAVOK 10/03 Q1018",
      "taf": "TAF LQTZ 131100Z 1312/1412 VRB02KT CAVOK TX04/1313Z TNM02/1405Z"
    },
    {
      "icao": "LRBC",
      "alert": "OK",
      "vis_m": 9999,
      "fzfg": false,
      "metar_trigger": false,
      "taf_trigger": false,
      "metar": "METAR LRBC 131430Z COR 00000KT CAVOK 00/M06 Q1017",
      "taf": "TAF LRBC 131400Z 1315/1324 15010KT CAVOK"
    },
    {
      "icao": "LRBS",
      "alert": "OK",
      "vis_m": 9999,
      "fzfg": false,
      "metar_trigger": false,
      "taf_trigger": false,
      "metar": "METAR LRBS 131430Z 24006KT CAVOK M04/M09 Q1021 NOSIG",
      "taf": "TAF LRBS 131100Z 1312/1412 25006KT CAVOK"
    },
    {
      "icao": "LRBV",
      "alert": "OK",
      "vis_m": 1600,
      "fzfg": false,
      "metar_trigger": false,
      "taf_trigger": false,
      "metar": "METAR LRBV 131430Z VRB02KT 1600 -SN BR FEW005 SCT015 BKN023 M06/M08 Q1016",
      "taf": "TAF LRBV 131400Z 1315/1324 VRB04KT 5000 -SN BR BKN015 OVC045"
    },
    {
      "icao": "LRCL",
      "alert": "OK",
      "vis_m": 8000,
      "fzfg": false,
      "metar_trigger": false,
      "taf_trigger": false,
      "metar": "METAR LRCL 131430Z 07006KT 8000 -SN BKN040 OVC050 M08/M10 Q1018",
      "taf": "TAF LRCL 131400Z 1315/1324 08007KT 5000 -SN BR SCT010 BKN045"
    },
    {
      "icao": "LRCV",
      "alert": "OK",
      "vis_m": 2500,
      "fzfg": false,
      "metar_trigger": false,
      "taf_trigger": false,
      "metar": "METAR LRCV 131430Z 05002KT 2500 SN BR SCT015 BKN021 OVC040 M04/M05 Q1020",
      "taf": "TAF LRCV 131400Z 1315/1324 VRB04KT 5000 -SN BR BKN035"
    },
    {
      "icao": "LRIA",
      "alert": "OK",
      "vis_m": 9999,
      "fzfg": false,
      "metar_trigger": false,
      "taf_trigger": false,
      "metar": "METAR LRIA 131430Z 09007KT CAVOK M04/M06 Q1018",
      "taf": "TAF LRIA 131400Z 1315/1324 10006KT CAVOK"
    },
    {
      "icao": "LROP",
      "alert": "OK",
      "vis_m": 9999,
      "fzfg": false,
      "metar_trigger": false,
      "taf_trigger": false,
      "metar": "METAR LROP 131430Z 22006KT CAVOK M04/M10 Q1021 NOSIG",
      "taf": "TAF LROP 131100Z 1312/1412 25006KT CAVOK"
    },
    {
      "icao": "LRSB",
      "alert": "OK",
      "vis_m": 2000,
      "fzfg": false,
      "metar_trigger": false,
      "taf_trigger": false,
      "metar": "METAR LRSB 131430Z COR 11003KT 2000 -SN OVC012 M06/M06 Q1016",
      "taf": "TAF LRSB 131100Z 1312/1412 VRB04KT 9999 -SN OVC035"
    },
    {
      "icao": "LRSM",
      "alert": "OK",
      "vis_m": 9999,
      "fzfg": false,
      "metar_trigger": false,
      "taf_trigger": false,
      "metar": "METAR LRSM 131430Z 13006KT 9999 OVC030 M05/M08 Q1019",
      "taf": "TAF LRSM 131400Z 1315/1324 12007KT 9999 OVC030"
    },
    {
      "icao": "LRSV",
      "alert": "OK",
      "vis_m": 9999,
      "fzfg": false,
      "metar_trigger": false,
      "taf_trigger": false,
      "metar": "METAR LRSV 131430Z 07004KT CAVOK M05/M07 Q1015",
      "taf": "TAF LRSV 131400Z 1315/1324 VRB04KT CAVOK"
    },
    {
      "icao": "LRTM",
      "alert": "OK",
      "vis_m": 1100,
      "fzfg": false,
      "metar_trigger": false,
      "taf_trigger": false,
      "metar": "METAR LRTM 131430Z 07003KT 1100 R07/1600U SN BR SCT009 BKN012 BKN017 M07/M09 Q1018",
      "taf": "TAF LRTM 131400Z 1315/1324 VRB02KT 1000 -SN BR BKN010 OVC025"
    },
    {
      "icao": "LRTR",
      "alert": "OK",
      "vis_m": 7000,
      "fzfg": false,
      "metar_trigger": false,
      "taf_trigger": false,
      "metar": "METAR LRTR 131430Z 10007KT 7000 -FZRA BKN004 OVC024 M02/M02 Q1018 BECMG 5000 -FZRA BR",
      "taf": "TAF LRTR 131100Z 1312/1412 11010KT 3000 SN BKN005 OVC030"
    },
    {
      "icao": "LTAC",
      "alert": "OK",
      "vis_m": 9999,
      "fzfg": false,
      "metar_trigger": false,
      "taf_trigger": false,
      "metar": "METAR LTAC 131450Z 01004KT 9999 SCT040 M02/M06 Q1017 NOSIG",
      "taf": "TAF LTAC 131040Z 1312/1412 VRB02KT 9999 SCT035 BKN100"
    },
    {
      "icao": "LTFM",
      "alert": "OK",
      "vis_m": 9999,
      "fzfg": false,
      "metar_trigger": false,
      "taf_trigger": false,
      "metar": "METAR LTFM 131450Z 22008KT 9999 FEW040 02/M04 Q1023 NOSIG",
      "taf": "TAF LTFM 131040Z 1312/1418 30010KT 9999 BKN028"
    },
    {
      "icao": "LUKK",
      "alert": "OK",
      "vis_m": 9999,
      "fzfg": false,
      "metar_trigger": false,
      "taf_trigger": false,
      "metar": "METAR LUKK 131430Z 18006KT CAVOK M05/M08 Q1019 NOSIG",
      "taf": "TAF LUKK 131115Z 1312/1412 VRB05KT CAVOK"
    },
    {
      "icao": "LWOH",
      "alert": "OK",
      "vis_m": 9999,
      "fzfg": false,
      "metar_trigger": false,
      "taf_trigger": false,
      "metar": "METAR LWOH 131450Z 08004KT 050V120 9999 BKN035 04/01 Q1023",
      "taf": "TAF LWOH 131440Z 1315/1415 VRB03KT 9999 FEW040"
    },
    {
      "icao": "LWSK",
      "alert": "OK",
      "vis_m": 9999,
      "fzfg": false,
      "metar_trigger": false,
      "taf_trigger": false,
      "metar": "METAR LWSK 131450Z 31003KT 260V350 9999 FEW050 BKN090 04/M06 Q1023 NOSIG",
      "taf": "TAF LWSK 131440Z 1315/1415 VRB02KT 9999 FEW070"
    },
    {
      "icao": "LYBE",
      "alert": "OK",
      "vis_m": 9999,
      "fzfg": false,
      "metar_trigger": false,
      "taf_trigger": false,
      "metar": "METAR LYBE 131430Z 12004KT 9999 SCT043 02/M01 Q1019 NOSIG",
      "taf": "TAF LYBE 131100Z 1312/1412 VRB02KT 9999 SCT040 TX05/1412Z TN00/1405Z"
    },
    {
      "icao": "LYNI",
      "alert": "OK",
      "vis_m": 9999,
      "fzfg": false,
      "metar_trigger": false,
      "taf_trigger": false,
      "metar": "METAR LYNI 131430Z 11004KT 9999 SCT060 BKN083 00/M03 Q1021 NOSIG",
      "taf": "TAF LYNI 131100Z 1312/1412 24004KT 9999 SCT043 BKN070 TX03/1412Z TNM01/1315Z"
    },
    {
      "icao": "LYPG",
      "alert": "OK",
      "vis_m": 9999,
      "fzfg": false,
      "metar_trigger": false,
      "taf_trigger": false,
      "metar": "METAR LYPG 131430Z VRB01KT 9999 FEW030 BKN040 OVC070 04/M04 Q1027 NOSIG",
      "taf": "TAF LYPG 131100Z 1312/1412 16006KT 9999 FEW027 BKN040 BKN080 TX09/1412Z TN01/1406Z"
    },
    {
      "icao": "LZIB",
      "alert": "OK",
      "vis_m": 6000,
      "fzfg": false,
      "metar_trigger": false,
      "taf_trigger": false,
      "metar": "METAR LZIB 131430Z 05004KT 6000 FEW004 BKN005 OVC010 M03/M03 Q1018 NOSIG",
      "taf": ""
    },
    {
      "icao": "LZKZ",
      "alert": "OK",
      "vis_m": 9999,
      "fzfg": false,
      "metar_trigger": false,
      "taf_trigger": false,
      "metar": "METAR LZKZ 131430Z 03002KT 9999 FEW038 BKN047 M06/M09 Q1018 NOSIG",
      "taf": "TAF LZKZ 131115Z 1312/1412 VRB02KT 6000 -SN OVC017"
    },
    {
      "icao": "LZTT",
      "alert": "OK",
      "vis_m": 9999,
      "fzfg": false,
      "metar_trigger": false,
      "taf_trigger": false,
      "metar": "METAR LZTT 131430Z VRB02KT 9999 SCT016 BKN046 M07/M09 Q1013 NOSIG",
      "taf": "TAF LZTT 131115Z 1312/1412 VRB02KT 6000 -SN SCT012 BKN020"
    },
    {
      "icao": "OEJN",
      "alert": "OK",
      "vis_m": 9999,
      "fzfg": false,
      "metar_trigger": false,
      "taf_trigger": false,
      "metar": "METAR OEJN 131400Z 33013KT 9999 FEW040 28/17 Q1015 NOSIG",
      "taf": "TAF OEJN 131100Z 1312/1418 35010KT 7000 SCT040"
    },
    {
      "icao": "OEMA",
      "alert": "OK",
      "vis_m": 9999,
      "fzfg": false,
      "metar_trigger": false,
      "taf_trigger": false,
      "metar": "METAR OEMA 131400Z 22011KT CAVOK 27/07 Q1017 NOSIG",
      "taf": "TAF OEMA 131100Z 1312/1418 33010KT 7000 FEW040"
    },
    {
      "icao": "OJAI",
      "alert": "OK",
      "vis_m": 3000,
      "fzfg": false,
      "metar_trigger": false,
      "taf_trigger": false,
      "metar": "METAR OJAI 131400Z 24020KT 3000 BR SCT025 BKN030 08/06 Q1015 NOSIG",
      "taf": "TAF OJAI 131051Z 1312/1418 24020KT 1500 RA BR FEW025TCU SCT035"
    },
    {
      "icao": "OMAA",
      "alert": "OK",
      "vis_m": 9999,
      "fzfg": false,
      "metar_trigger": false,
      "taf_trigger": false,
      "metar": "METAR OMAA 131400Z 34009KT CAVOK 22/12 Q1019 NOSIG",
      "taf": "TAF OMAA 131100Z 1312/1418 34010KT 8000 NSC"
    },
    {
      "icao": "OMDB",
      "alert": "OK",
      "vis_m": 9999,
      "fzfg": false,
      "metar_trigger": false,
      "taf_trigger": false,
      "metar": "METAR OMDB 131430Z 31006KT 290V360 CAVOK 22/15 Q1020 NOSIG",
      "taf": "TAF OMDB 131100Z 1312/1418 32010KT 8000 NSC"
    },
    {
      "icao": "UAAA",
      "alert": "CRITICAL",
      "vis_m": 100,
      "fzfg": true,
      "metar_trigger": true,
      "taf_trigger": false,
      "metar": "METAR UAAA 131430Z VRB01MPS 0100 R23L/0400N FZFG VV001 M00/M01 Q1022 NOSIG RMK QBB050",
      "taf": ""
    },
    {
      "icao": "UBBB",
      "alert": "OK",
      "vis_m": 9999,
      "fzfg": false,
      "metar_trigger": false,
      "taf_trigger": false,
      "metar": "METAR UBBB 131430Z 01012KT 9999 -RA OVC019 08/05 Q1010 NOSIG",
      "taf": "TAF UBBB 131057Z 1312/1412 35014KT 9999 BKN020 TX08/1312Z TN03/1401Z"
    },
    {
      "icao": "UDSG",
      "alert": "OK",
      "vis_m": 7000,
      "fzfg": false,
      "metar_trigger": false,
      "taf_trigger": false,
      "metar": "METAR UDSG 131430Z 31004KT 7000 OVC036 00/00 Q1005 NOSIG",
      "taf": "TAF UDSG 131100Z 1312/1412 VRB06KT 5000 BR BKN030"
    },
    {
      "icao": "UDYZ",
      "alert": "OK",
      "vis_m": 8000,
      "fzfg": false,
      "metar_trigger": false,
      "taf_trigger": false,
      "metar": "METAR UDYZ 131430Z 09004KT 8000 SCT046 04/00 Q1004 NOSIG",
      "taf": "TAF UDYZ 131100Z 1312/1412 23006KT 9999 SCT040"
    },
    {
      "icao": "UGKO",
      "alert": "OK",
      "vis_m": 9999,
      "fzfg": false,
      "metar_trigger": false,
      "taf_trigger": false,
      "metar": "METAR UGKO 131430Z 26010KT 9999 FEW011 SCT014 BKN019 03/02 Q1017 NOSIG",
      "taf": "TAF UGKO 131100Z 1312/1412 25007KT 9999 OVC045 TX06/1411Z TN01/1403Z"
    }
  ]
}