{
  "ts_utc": "2026-01-03T18:46:48Z",
  "threshold_m": 150,
  "source": "stations_override.txt (ICAO list) + aviationweather.gov (METAR/TAF raw)",
  "station_count": 159,
  "stations": [
    {
      "icao": "BIKF",
      "alert": "OK",
      "vis_m": 9999,
      "fzfg": false,
      "metar_trigger": false,
      "taf_trigger": false,
      "metar": "METAR BIKF 031830Z 03007KT CAVOK M04/M11 Q1029",
      "taf": "TAF BIKF 031630Z 0318/0418 01008KT CAVOK TXM01/0415Z TNM07/0318Z"
    },
    {
      "icao": "BKPR",
      "alert": "OK",
      "vis_m": 9999,
      "fzfg": false,
      "metar_trigger": false,
      "taf_trigger": false,
      "metar": "METAR BKPR 031830Z 34012KT 9999 -RA FEW015 BKN040 01/01 Q1008 NOSIG",
      "taf": "TAF BKPR 031730Z 0318/0418 35010KT 9999 FEW020 BKN040"
    },
    {
      "icao": "EBCI",
      "alert": "OK",
      "vis_m": 7000,
      "fzfg": false,
      "metar_trigger": false,
      "taf_trigger": false,
      "metar": "METAR EBCI 031820Z COR 25010KT 7000 -SHSN FEW003 BKN004 M01/M02 Q1008 TEMPO 0500 +SHSN",
      "taf": "TAF EBCI 031720Z 0318/0424 27008KT 9999 SCT015"
    },
    {
      "icao": "EDDB",
      "alert": "OK",
      "vis_m": 9999,
      "fzfg": false,
      "metar_trigger": false,
      "taf_trigger": false,
      "metar": "METAR EDDB 031820Z AUTO 23018KT 9999 -SN FEW012 BKN019 BKN026 M00/M02 Q0996 TEMPO BKN009",
      "taf": ""
    },
    {
      "icao": "EDDH",
      "alert": "OK",
      "vis_m": 9999,
      "fzfg": false,
      "metar_trigger": false,
      "taf_trigger": false,
      "metar": "METAR EDDH 031820Z AUTO 23008KT 200V270 9999 VCSH BKN009 BKN031 BKN044 FEW///TCU M01/M02 Q0993 RESHGS TEMPO 2000 SN BKN004",
      "taf": "TAF EDDH 031700Z 0318/0424 24010KT 9999 BKN015"
    },
    {
      "icao": "EDDK",
      "alert": "OK",
      "vis_m": 9999,
      "fzfg": false,
      "metar_trigger": false,
      "taf_trigger": false,
      "metar": "METAR EDDK 031820Z AUTO 28010KT 9999 BKN012 01/M02 Q1005 NOSIG",
      "taf": "TAF EDDK 031700Z 0318/0424 27012KT 9999 BKN020"
    },
    {
      "icao": "EDDN",
      "alert": "OK",
      "vis_m": 9999,
      "fzfg": false,
      "metar_trigger": false,
      "taf_trigger": false,
      "metar": "METAR EDDN 031820Z AUTO 25011KT 9999 BKN020 BKN049 M02/M05 Q1005 NOSIG",
      "taf": "TAF EDDN 031700Z 0318/0418 24009KT 9999 BKN015"
    },
    {
      "icao": "EDDS",
      "alert": "OK",
      "vis_m": 9999,
      "fzfg": false,
      "metar_trigger": false,
      "taf_trigger": false,
      "metar": "METAR EDDS 031820Z AUTO 24006KT 190V270 9999 OVC035 M01/M05 Q1007 NOSIG",
      "taf": "TAF EDDS 031700Z 0318/0418 22006KT 9999 FEW020 BKN040"
    },
    {
      "icao": "EDFH",
      "alert": "OK",
      "vis_m": 9999,
      "fzfg": false,
      "metar_trigger": false,
      "taf_trigger": false,
      "metar": "METAR EDFH 031820Z 27015KT 9999 FEW022 SCT025 BKN035 M03/M07 Q1004",
      "taf": "TAF EDFH 031700Z 0318/0418 27011KT 9999 BKN030"
    },
    {
      "icao": "EDJA",
      "alert": "OK",
      "vis_m": 9999,
      "fzfg": false,
      "metar_trigger": false,
      "taf_trigger": false,
      "metar": "METAR EDJA 031820Z 23011KT 210V020 9999 BKN038 OVC046 M03/M08 Q1006",
      "taf": "TAF EDJA 031700Z 0318/0403 24010KT 9999 BKN040"
    },
    {
      "icao": "EDLW",
      "alert": "OK",
      "vis_m": 9999,
      "fzfg": false,
      "metar_trigger": false,
      "taf_trigger": false,
      "metar": "METAR EDLW 031820Z 23012KT 9999 FEW008 BKN010 BKN012 00/M01 Q1002",
      "taf": "TAF EDLW 031700Z 0318/0418 25009KT 9999 SCT010 BKN015"
    },
    {
      "icao": "EDNY",
      "alert": "OK",
      "vis_m": 9999,
      "fzfg": false,
      "metar_trigger": false,
      "taf_trigger": false,
      "metar": "METAR EDNY 031820Z 23007KT 9999 FEW032 OVC048 M01/M06 Q1008",
      "taf": "TAF EDNY 031700Z 0318/0403 25005KT 9999 BKN030"
    },
    {
      "icao": "EDSB",
      "alert": "OK",
      "vis_m": 9999,
      "fzfg": false,
      "metar_trigger": false,
      "taf_trigger": false,
      "metar": "METAR EDSB 031820Z 21008KT 9999 -SN FEW029 BKN044 M02/M03 Q1009",
      "taf": "TAF EDSB 031700Z 0318/0418 21008KT 9999 FEW020 BKN030"
    },
    {
      "icao": "EETN",
      "alert": "OK",
      "vis_m": 6000,
      "fzfg": false,
      "metar_trigger": false,
      "taf_trigger": false,
      "metar": "METAR EETN 031820Z 08008KT 6000 SN OVC020 M02/M03 Q0991 TEMPO 2000",
      "taf": "TAF EETN 031730Z 0318/0418 08012KT 3000 SN SCT008 OVC015"
    },
    {
      "icao": "EFTU",
      "alert": "OK",
      "vis_m": 9999,
      "fzfg": false,
      "metar_trigger": false,
      "taf_trigger": false,
      "metar": "METAR EFTU 031820Z AUTO 07010KT 9999 -SHSN FEW012 OVC027 M09/M11 Q0993",
      "taf": "TAF EFTU 031726Z 0318/0418 07010KT 9999 BKN015"
    },
    {
      "icao": "EGBB",
      "alert": "OK",
      "vis_m": 9999,
      "fzfg": false,
      "metar_trigger": false,
      "taf_trigger": false,
      "metar": "METAR EGBB 031820Z 30009KT CAVOK M00/M05 Q1013",
      "taf": "TAF EGBB 031659Z 0318/0418 32009KT CAVOK"
    },
    {
      "icao": "EGGP",
      "alert": "OK",
      "vis_m": 9999,
      "fzfg": false,
      "metar_trigger": false,
      "taf_trigger": false,
      "metar": "METAR EGGP 031820Z 35005KT 310V010 9999 FEW038 00/M07 Q1014",
      "taf": "TAF EGGP 031658Z 0318/0418 31009KT 9999 SCT035"
    },
    {
      "icao": "EGGW",
      "alert": "OK",
      "vis_m": 9999,
      "fzfg": false,
      "metar_trigger": false,
      "taf_trigger": false,
      "metar": "METAR EGGW 031820Z AUTO 31010KT 9999 NCD M01/M05 Q1011",
      "taf": "TAF EGGW 031659Z 0318/0418 30012KT 9999 FEW025"
    },
    {
      "icao": "EGKK",
      "alert": "OK",
      "vis_m": 9999,
      "fzfg": false,
      "metar_trigger": false,
      "taf_trigger": false,
      "metar": "METAR EGKK 031820Z 29005KT CAVOK M00/M05 Q1012",
      "taf": "TAF EGKK 031655Z 0318/0424 30010KT CAVOK"
    },
    {
      "icao": "EGNM",
      "alert": "OK",
      "vis_m": 9999,
      "fzfg": false,
      "metar_trigger": false,
      "taf_trigger": false,
      "metar": "METAR EGNM 031820Z 29013KT CAVOK M02/M07 Q1011",
      "taf": "TAF EGNM 031657Z 0318/0418 30015KT 9999 FEW045"
    },
    {
      "icao": "EGPD",
      "alert": "OK",
      "vis_m": 9999,
      "fzfg": false,
      "metar_trigger": false,
      "taf_trigger": false,
      "metar": "METAR EGPD 031820Z AUTO 31018KT 9999 -SN FEW013 SCT018 M01/M04 Q1009 TEMPO 1800 SHSN",
      "taf": "TAF EGPD 031658Z 0318/0418 31012KT 9999 FEW012"
    },
    {
      "icao": "EGPF",
      "alert": "OK",
      "vis_m": 9999,
      "fzfg": false,
      "metar_trigger": false,
      "taf_trigger": false,
      "metar": "METAR EGPF 031820Z AUTO 19004KT 9999 NCD M02/M05 Q1015",
      "taf": "TAF EGPF 031704Z 0318/0418 30007KT 9999 FEW030"
    },
    {
      "icao": "EHBK",
      "alert": "OK",
      "vis_m": 9999,
      "fzfg": false,
      "metar_trigger": false,
      "taf_trigger": false,
      "metar": "METAR EHBK 031825Z AUTO 24008KT 200V280 9999 BKN006 OVC008 00/M00 Q1006 TEMPO 2000 SHSN BKN015CB",
      "taf": "TAF EHBK 031710Z 0318/0424 24011KT 9999 BKN006"
    },
    {
      "icao": "EHEH",
      "alert": "OK",
      "vis_m": 7000,
      "fzfg": false,
      "metar_trigger": false,
      "taf_trigger": false,
      "metar": "METAR EHEH 031755Z AUTO 23008KT 7000 BR FEW015CB BKN100 OVC160 M01/M01 Q1005 WHT NOSIG RMK TREND REMOTE BY EHWX",
      "taf": ""
    },
    {
      "icao": "EKBI",
      "alert": "OK",
      "vis_m": 9999,
      "fzfg": false,
      "metar_trigger": false,
      "taf_trigger": false,
      "metar": "METAR EKBI 031820Z AUTO 32006KT 9999 NCD M06/M07 Q0995",
      "taf": "TAF EKBI 031727Z 0318/0418 26005KT 9999 FEW030"
    },
    {
      "icao": "EKCH",
      "alert": "OK",
      "vis_m": 9999,
      "fzfg": false,
      "metar_trigger": false,
      "taf_trigger": false,
      "metar": "METAR EKCH 031820Z 27008KT 9999 -SHSN BKN024 M03/M06 Q0993 TEMPO 2000 SHRA BKN012",
      "taf": "TAF EKCH 031727Z 0318/0418 28010KT 9999 -SHSN BKN040"
    },
    {
      "icao": "ENAL",
      "alert": "OK",
      "vis_m": 9999,
      "fzfg": false,
      "metar_trigger": false,
      "taf_trigger": false,
      "metar": "METAR ENAL 031820Z 13008KT CAVOK M06/M10 Q1002",
      "taf": "TAF ENAL 031700Z 0318/0403 14009KT CAVOK"
    },
    {
      "icao": "ENBR",
      "alert": "OK",
      "vis_m": 9999,
      "fzfg": false,
      "metar_trigger": false,
      "taf_trigger": false,
      "metar": "METAR ENBR 031820Z 06002KT CAVOK M09/M12 Q1000 NOSIG RMK WIND 1200FT 36005KT",
      "taf": "TAF ENBR 031700Z 0318/0418 08005KT CAVOK"
    },
    {
      "icao": "ENGM",
      "alert": "OK",
      "vis_m": 9999,
      "fzfg": false,
      "metar_trigger": false,
      "taf_trigger": false,
      "metar": "METAR ENGM 031820Z 01015KT 9999 -SHSN BKN041 M09/M12 Q0996 NOSIG",
      "taf": "TAF ENGM 031700Z 0318/0418 36015KT 9000 -SN BKN040"
    },
    {
      "icao": "ENHD",
      "alert": "OK",
      "vis_m": 9999,
      "fzfg": false,
      "metar_trigger": false,
      "taf_trigger": false,
      "metar": "METAR ENHD 031820Z 08005KT CAVOK M07/M13 Q1000",
      "taf": "TAF ENHD 031400Z 0315/0323 06009KT CAVOK"
    },
    {
      "icao": "ENTC",
      "alert": "OK",
      "vis_m": 9999,
      "fzfg": false,
      "metar_trigger": false,
      "taf_trigger": false,
      "metar": "METAR ENTC 031820Z 17007KT CAVOK M05/M10 Q1004 NOSIG RMK WIND 2600FT 18009KT",
      "taf": "TAF ENTC 031700Z 0318/0418 19009KT 9999 FEW040"
    },
    {
      "icao": "ENTO",
      "alert": "OK",
      "vis_m": 9999,
      "fzfg": false,
      "metar_trigger": false,
      "taf_trigger": false,
      "metar": "METAR ENTO 031820Z 36011KT 9999 -SN OVC030 M07/M11 Q0996 NOSIG",
      "taf": "TAF ENTO 031700Z 0318/0418 01012KT 8000 -SN BKN025"
    },
    {
      "icao": "ENVA",
      "alert": "OK",
      "vis_m": 9999,
      "fzfg": false,
      "metar_trigger": false,
      "taf_trigger": false,
      "metar": "METAR ENVA 031820Z 12008KT CAVOK M15/M17 Q1005 RMK WIND 670FT 16009KT",
      "taf": "TAF ENVA 031700Z 0318/0418 12009KT CAVOK"
    },
    {
      "icao": "ENZV",
      "alert": "OK",
      "vis_m": 9999,
      "fzfg": false,
      "metar_trigger": false,
      "taf_trigger": false,
      "metar": "METAR ENZV 031820Z 03006KT CAVOK M05/M13 Q0999 NOSIG",
      "taf": "TAF ENZV 031700Z 0318/0418 07005KT CAVOK"
    },
    {
      "icao": "EPGD",
      "alert": "OK",
      "vis_m": 9999,
      "fzfg": false,
      "metar_trigger": false,
      "taf_trigger": false,
      "metar": "METAR EPGD 031830Z 24012KT CAVOK M04/M09 Q0992",
      "taf": "TAF EPGD 031730Z 0318/0418 23010KT CAVOK"
    },
    {
      "icao": "EPKK",
      "alert": "OK",
      "vis_m": 9999,
      "fzfg": false,
      "metar_trigger": false,
      "taf_trigger": false,
      "metar": "METAR EPKK 031830Z 23005KT CAVOK M02/M08 Q1003",
      "taf": "TAF EPKK 031730Z 0318/0418 24010KT CAVOK"
    },
    {
      "icao": "EPKT",
      "alert": "OK",
      "vis_m": 9999,
      "fzfg": false,
      "metar_trigger": false,
      "taf_trigger": false,
      "metar": "METAR EPKT 031830Z 22017KT 9999 BKN044 M00/M07 Q1001",
      "taf": ""
    },
    {
      "icao": "EPLB",
      "alert": "OK",
      "vis_m": 9999,
      "fzfg": false,
      "metar_trigger": false,
      "taf_trigger": false,
      "metar": "METAR EPLB 031830Z 24019KT 9999 DRSN SCT041 M00/M05 Q1001",
      "taf": "TAF EPLB 031730Z 0318/0418 21013KT CAVOK"
    },
    {
      "icao": "EPMO",
      "alert": "OK",
      "vis_m": 9999,
      "fzfg": false,
      "metar_trigger": false,
      "taf_trigger": false,
      "metar": "METAR EPMO 031830Z 21010KT 9999 BKN038 M00/M02 Q0998",
      "taf": "TAF EPMO 031730Z 0318/0418 21012KT 9999 BKN030"
    },
    {
      "icao": "EPPO",
      "alert": "OK",
      "vis_m": 2500,
      "fzfg": false,
      "metar_trigger": false,
      "taf_trigger": false,
      "metar": "METAR EPPO 031830Z 23012KT 2500 -SN BR FEW009 OVC025 M01/M02 Q0997",
      "taf": "TAF EPPO 031730Z 0318/0418 23014KT 9999 FEW017"
    },
    {
      "icao": "EPRA",
      "alert": "OK",
      "vis_m": 9999,
      "fzfg": false,
      "metar_trigger": false,
      "taf_trigger": false,
      "metar": "METAR EPRA 031830Z 24014KT 9999 SCT044 00/M05 Q1000",
      "taf": "TAF EPRA 031730Z 0318/0403 24010KT 9999 SCT040"
    },
    {
      "icao": "EPRZ",
      "alert": "OK",
      "vis_m": 9999,
      "fzfg": false,
      "metar_trigger": false,
      "taf_trigger": false,
      "metar": "METAR EPRZ 031830Z 21009KT CAVOK M01/M10 Q1004",
      "taf": "TAF EPRZ 031730Z 0318/0418 20011KT CAVOK"
    },
    {
      "icao": "EPSC",
      "alert": "OK",
      "vis_m": 9999,
      "fzfg": false,
      "metar_trigger": false,
      "taf_trigger": false,
      "metar": "METAR EPSC 031830Z 20002KT CAVOK M06/M08 Q0995",
      "taf": "TAF EPSC 031730Z 0318/0418 20003KT CAVOK"
    },
    {
      "icao": "EPSY",
      "alert": "OK",
      "vis_m": 9999,
      "fzfg": false,
      "metar_trigger": false,
      "taf_trigger": false,
      "metar": "METAR EPSY 031830Z 19007KT 9999 -SN SCT010 BKN017 M02/M03 Q0995",
      "taf": "TAF EPSY 031730Z 0318/0403 21010KT 9999 SCT040"
    },
    {
      "icao": "EPWA",
      "alert": "OK",
      "vis_m": 9999,
      "fzfg": false,
      "metar_trigger": false,
      "taf_trigger": false,
      "metar": "METAR EPWA 031830Z 22008KT 9999 SCT048 00/M03 Q0998 NOSIG",
      "taf": "TAF EPWA 031730Z 0318/0418 22011KT 9999 BKN035"
    },
    {
      "icao": "EPWR",
      "alert": "OK",
      "vis_m": 9999,
      "fzfg": false,
      "metar_trigger": false,
      "taf_trigger": false,
      "metar": "METAR EPWR 031830Z 22011KT CAVOK 00/M07 Q1000",
      "taf": "TAF EPWR 031730Z 0318/0418 24009KT CAVOK"
    },
    {
      "icao": "ESGG",
      "alert": "OK",
      "vis_m": 6000,
      "fzfg": false,
      "metar_trigger": false,
      "taf_trigger": false,
      "metar": "METAR ESGG 031820Z 33008KT 6000 -SN SCT012 BKN029 M08/M09 Q0991",
      "taf": "TAF ESGG 031730Z 0318/0418 35009KT 6000 -SN SCT012 BKN020"
    },
    {
      "icao": "ESKN",
      "alert": "OK",
      "vis_m": 8000,
      "fzfg": false,
      "metar_trigger": false,
      "taf_trigger": false,
      "metar": "METAR ESKN 031820Z 02009KT 340V050 8000 -SN DRSN BKN008 M02/M03 Q0988",
      "taf": "TAF ESKN 031730Z 0318/0418 01008KT 7000 -SN SCT008 BKN020"
    },
    {
      "icao": "ESMS",
      "alert": "OK",
      "vis_m": 3000,
      "fzfg": false,
      "metar_trigger": false,
      "taf_trigger": false,
      "metar": "METAR ESMS 031820Z 27010KT 3000 -SN VV016 M03/M05 Q0991",
      "taf": "TAF ESMS 031727Z 0318/0418 30010KT 9999 -SN BKN016"
    },
    {
      "icao": "ESSA",
      "alert": "OK",
      "vis_m": 9999,
      "fzfg": false,
      "metar_trigger": false,
      "taf_trigger": false,
      "metar": "METAR ESSA 031820Z 02014KT 9999 -SN OVC007 M03/M04 Q0990 TEMPO 2000 SN VV015",
      "taf": "TAF ESSA 031730Z 0318/0418 02015KT 9000 -SN BKN007"
    },
    {
      "icao": "EYKA",
      "alert": "OK",
      "vis_m": 9999,
      "fzfg": false,
      "metar_trigger": false,
      "taf_trigger": false,
      "metar": "METAR EYKA 031820Z 22008KT 9999 FEW017 SCT023 M02/M05 Q0993",
      "taf": "TAF EYKA 031700Z 0318/0418 22010KT 8000 SCT010 BKN020"
    },
    {
      "icao": "EYPA",
      "alert": "OK",
      "vis_m": 9999,
      "fzfg": false,
      "metar_trigger": false,
      "taf_trigger": false,
      "metar": "METAR EYPA 031820Z 22007KT 180V300 9999 SCT019CB 00/M03 Q0988",
      "taf": "TAF EYPA 031700Z 0318/0418 23010KT 8000 BKN020"
    },
    {
      "icao": "EYVI",
      "alert": "OK",
      "vis_m": 3700,
      "fzfg": false,
      "metar_trigger": false,
      "taf_trigger": false,
      "metar": "METAR EYVI 031820Z 23011KT 3700 SHSN BKN009CB M02/M04 Q0994 NOSIG",
      "taf": "TAF EYVI 031700Z 0318/0418 21010KT 8000 SCT010 BKN020"
    },
    {
      "icao": "GCFV",
      "alert": "OK",
      "vis_m": 9999,
      "fzfg": false,
      "metar_trigger": false,
      "taf_trigger": false,
      "metar": "METAR GCFV 031830Z 26018KT 180V290 9999 SCT025 BKN035 19/13 Q1007",
      "taf": "TAF GCFV 031400Z 0315/0415 27020KT 9999 SCT025 TX23/0414Z TN17/0406Z"
    },
    {
      "icao": "GCLP",
      "alert": "OK",
      "vis_m": 9999,
      "fzfg": false,
      "metar_trigger": false,
      "taf_trigger": false,
      "metar": "METAR GCLP 031830Z 12004KT 070V160 9999 FEW020 SCT040 20/14 Q1008 NOSIG",
      "taf": "TAF GCLP 031400Z 0315/0415 VRB08KT 9999 SCT030 TX22/0414Z TN16/0406Z"
    },
    {
      "icao": "GCTS",
      "alert": "OK",
      "vis_m": 9999,
      "fzfg": false,
      "metar_trigger": false,
      "taf_trigger": false,
      "metar": "METAR GCTS 031830Z 29015KT 9999 SCT030 20/13 Q1008 NOSIG",
      "taf": ""
    },
    {
      "icao": "GMAD",
      "alert": "OK",
      "vis_m": 6000,
      "fzfg": false,
      "metar_trigger": false,
      "taf_trigger": false,
      "metar": "METAR GMAD 031830Z 21016KT 6000 SCT016 SCT026TCU FEW030CB BKN080 17/15 Q1004 TEMPO 4000 RA",
      "taf": "TAF GMAD 031700Z 0318/0424 20016KT 6000 SCT030TCU SCT080"
    },
    {
      "icao": "GMMN",
      "alert": "OK",
      "vis_m": 9999,
      "fzfg": false,
      "metar_trigger": false,
      "taf_trigger": false,
      "metar": "METAR GMMN 031830Z 20019KT 9999 SCT005 BKN025TCU 15/13 Q0999 RERA NOSIG",
      "taf": "TAF GMMN 031700Z 0318/0424 22018KT 9999 SCT016 BKN030"
    },
    {
      "icao": "GMMX",
      "alert": "OK",
      "vis_m": 9999,
      "fzfg": false,
      "metar_trigger": false,
      "taf_trigger": false,
      "metar": "METAR GMMX 031830Z 27011KT 9999 SCT016 BKN080 16/11 Q1001 NOSIG",
      "taf": "TAF GMMX 031700Z 0318/0424 12006KT 8000 SCT016 BKN023"
    },
    {
      "icao": "HEGN",
      "alert": "OK",
      "vis_m": 9999,
      "fzfg": false,
      "metar_trigger": false,
      "taf_trigger": false,
      "metar": "METAR HEGN 031800Z 33007KT CAVOK 17/08 Q1022 NOSIG",
      "taf": "TAF HEGN 031700Z 0318/0424 30010KT CAVOK"
    },
    {
      "icao": "HEMA",
      "alert": "OK",
      "vis_m": 9999,
      "fzfg": false,
      "metar_trigger": false,
      "taf_trigger": false,
      "metar": "METAR HEMA 031800Z 30014KT CAVOK 18/12 Q1021 NOSIG",
      "taf": "TAF HEMA 031700Z 0318/0424 34018KT CAVOK"
    },
    {
      "icao": "HESH",
      "alert": "OK",
      "vis_m": 9999,
      "fzfg": false,
      "metar_trigger": false,
      "taf_trigger": false,
      "metar": "METAR HESH 031800Z 35010KT CAVOK 20/12 Q1022 NOSIG",
      "taf": "TAF HESH 031700Z 0318/0424 33010KT CAVOK"
    },
    {
      "icao": "HESX",
      "alert": "OK",
      "vis_m": 9999,
      "fzfg": false,
      "metar_trigger": false,
      "taf_trigger": false,
      "metar": "METAR HESX 031800Z 05013KT CAVOK 12/06 Q1024 NOSIG",
      "taf": "TAF HESX 031700Z 0318/0424 04012KT CAVOK"
    },
    {
      "icao": "LATI",
      "alert": "OK",
      "vis_m": null,
      "fzfg": false,
      "metar_trigger": false,
      "taf_trigger": false,
      "metar": "",
      "taf": "TAF LATI 031700Z 0318/0418 15010KT 9999 SCT020 OVC070 TX16/0412Z TN09/0403Z"
    },
    {
      "icao": "LBPD",
      "alert": "OK",
      "vis_m": 9999,
      "fzfg": false,
      "metar_trigger": false,
      "taf_trigger": false,
      "metar": "METAR LBPD 031830Z AUTO VRB02KT 9999 SCT090/// OVC110/// 09/02 Q1008 NOSIG",
      "taf": "TAF LBPD 031700Z 0318/0418 VRB03KT 9999 SCT020 BKN080"
    },
    {
      "icao": "LBSF",
      "alert": "OK",
      "vis_m": 9999,
      "fzfg": false,
      "metar_trigger": false,
      "taf_trigger": false,
      "metar": "METAR LBSF 031830Z AUTO 28006KT 250V310 9999 OVC040/// 04/01 Q1009 NOSIG",
      "taf": "TAF LBSF 031700Z 0318/0418 30012KT 9999 SCT025 BKN050"
    },
    {
      "icao": "LBWN",
      "alert": "OK",
      "vis_m": 9999,
      "fzfg": false,
      "metar_trigger": false,
      "taf_trigger": false,
      "metar": "METAR LBWN 031830Z AUTO 28010KT 9999 OVC047/// 09/04 Q1011 TEMPO RA",
      "taf": "TAF LBWN 031700Z 0318/0418 32010KT 9999 SCT045"
    },
    {
      "icao": "LCLK",
      "alert": "OK",
      "vis_m": 9999,
      "fzfg": false,
      "metar_trigger": false,
      "taf_trigger": false,
      "metar": "METAR LCLK 031830Z 32004KT 9999 FEW035 SCT050 11/08 Q1028 NOSIG",
      "taf": "TAF LCLK 031730Z 0318/0418 35007KT 9999 SCT050"
    },
    {
      "icao": "LCPH",
      "alert": "OK",
      "vis_m": 9999,
      "fzfg": false,
      "metar_trigger": false,
      "taf_trigger": false,
      "metar": "METAR LCPH 031830Z 07007KT 9999 BKN040 BKN050 13/07 Q1027 NOSIG",
      "taf": "TAF LCPH 031730Z 0318/0418 06008KT 9999 SCT050"
    },
    {
      "icao": "LEAL",
      "alert": "OK",
      "vis_m": 9999,
      "fzfg": false,
      "metar_trigger": false,
      "taf_trigger": false,
      "metar": "METAR LEAL 031830Z 33005KT 290V010 CAVOK 15/11 Q1002 NOSIG",
      "taf": "TAF LEAL 031700Z 0318/0418 30003KT 9999 SCT020 TX15/0414Z TN11/0406Z"
    },
    {
      "icao": "LEBB",
      "alert": "OK",
      "vis_m": 9999,
      "fzfg": false,
      "metar_trigger": false,
      "taf_trigger": false,
      "metar": "METAR LEBB 031830Z VRB03KT 9999 -RA BKN021 BKN033 06/05 Q1012 NOSIG",
      "taf": "TAF LEBB 031700Z 0318/0418 VRB03KT 9000 SCT015 BKN030 TX07/0318Z TNM00/0406Z"
    },
    {
      "icao": "LEBL",
      "alert": "OK",
      "vis_m": 9999,
      "fzfg": false,
      "metar_trigger": false,
      "taf_trigger": false,
      "metar": "METAR LEBL 031830Z 08009KT 9999 SCT020 BKN035 11/07 Q1006 NOSIG",
      "taf": "TAF LEBL 031700Z 0318/0418 07010KT 9999 SCT025 BKN055 TX11/0412Z TN08/0406Z"
    },
    {
      "icao": "LECH",
      "alert": "OK",
      "vis_m": 8000,
      "fzfg": false,
      "metar_trigger": false,
      "taf_trigger": false,
      "metar": "METAR LECH 031830Z AUTO 03008KT 010V070 8000 OVC010 10/09 Q1005",
      "taf": ""
    },
    {
      "icao": "LEMD",
      "alert": "OK",
      "vis_m": 9999,
      "fzfg": false,
      "metar_trigger": false,
      "taf_trigger": false,
      "metar": "METAR LEMD 031830Z 35002KT CAVOK 09/06 Q1003 NOSIG",
      "taf": "TAF LEMD 031700Z 0318/0424 VRB04KT 9999 FEW045 TX09/0414Z TN03/0407Z"
    },
    {
      "icao": "LEMG",
      "alert": "OK",
      "vis_m": 9999,
      "fzfg": false,
      "metar_trigger": false,
      "taf_trigger": false,
      "metar": "METAR LEMG 031830Z 11006KT 9999 SCT014 BKN055 15/14 Q1001 NOSIG",
      "taf": "TAF LEMG 031700Z 0318/0418 11009KT 9999 SCT020 TX18/0414Z TN11/0407Z"
    },
    {
      "icao": "LEVC",
      "alert": "OK",
      "vis_m": 9999,
      "fzfg": false,
      "metar_trigger": false,
      "taf_trigger": false,
      "metar": "METAR LEVC 031830Z 04006KT 360V110 9999 SCT012 BKN022 13/11 Q1005 NOSIG",
      "taf": "TAF LEVC 031700Z 0318/0418 03010KT 9999 SCT020 TX12/0414Z TN08/0406Z"
    },
    {
      "icao": "LEXJ",
      "alert": "OK",
      "vis_m": 9000,
      "fzfg": false,
      "metar_trigger": false,
      "taf_trigger": false,
      "metar": "METAR LEXJ 031830Z 10007KT 070V130 9000 -RA BKN024 OVC030 06/04 Q1012",
      "taf": "TAF LEXJ 031400Z 0315/0415 08009KT 9000 SCT010 BKN020 TX08/0315Z TN03/0408Z"
    },
    {
      "icao": "LEZG",
      "alert": "OK",
      "vis_m": 7000,
      "fzfg": false,
      "metar_trigger": false,
      "taf_trigger": false,
      "metar": "METAR LEZG 031830Z 25005KT 7000 OVC010 08/07 Q1006 NOSIG",
      "taf": "TAF LEZG 031700Z 0318/0418 VRB04KT 9999 BKN050 TX06/0415Z TN02/0406Z"
    },
    {
      "icao": "LEZL",
      "alert": "OK",
      "vis_m": 9000,
      "fzfg": false,
      "metar_trigger": false,
      "taf_trigger": false,
      "metar": "METAR LEZL 031830Z 11005KT 9000 -DZ FEW030 SCT046 14/13 Q1000 RERA NOSIG",
      "taf": "TAF LEZL 031400Z 0315/0415 08011KT 9999 SCT030 TX19/0315Z TN09/0407Z"
    },
    {
      "icao": "LFBD",
      "alert": "OK",
      "vis_m": 9999,
      "fzfg": false,
      "metar_trigger": false,
      "taf_trigger": false,
      "metar": "METAR LFBD 031830Z AUTO 03004KT CAVOK M01/M03 Q1013 NOSIG",
      "taf": "TAF LFBD 031700Z 0318/0424 01004KT CAVOK TX03/0414Z TNM04/0407Z"
    },
    {
      "icao": "LFLL",
      "alert": "OK",
      "vis_m": 9999,
      "fzfg": false,
      "metar_trigger": false,
      "taf_trigger": false,
      "metar": "METAR LFLL 031830Z 01008KT CAVOK M01/M05 Q1011 NOSIG",
      "taf": "TAF LFLL 031700Z 0318/0424 35007KT CAVOK"
    },
    {
      "icao": "LFLS",
      "alert": "OK",
      "vis_m": 9999,
      "fzfg": false,
      "metar_trigger": false,
      "taf_trigger": false,
      "metar": "METAR LFLS 031830Z AUTO 01005KT CAVOK M02/M06 Q1010 NOSIG",
      "taf": "TAF LFLS 031400Z 0315/0415 35009KT CAVOK"
    },
    {
      "icao": "LFMN",
      "alert": "OK",
      "vis_m": 9999,
      "fzfg": false,
      "metar_trigger": false,
      "taf_trigger": false,
      "metar": "METAR LFMN 031830Z 32007KT 9999 FEW033 BKN200 06/04 Q1002 NOSIG",
      "taf": "TAF LFMN 031400Z 0315/0421 VRB02KT 9999 FEW033"
    },
    {
      "icao": "LFOB",
      "alert": "OK",
      "vis_m": 9999,
      "fzfg": false,
      "metar_trigger": false,
      "taf_trigger": false,
      "metar": "METAR LFOB 031830Z AUTO 28002KT 9999 SCT029 OVC042 00/M03 Q1011 NOSIG",
      "taf": "TAF LFOB 031700Z 0318/0418 28004KT CAVOK"
    },
    {
      "icao": "LFPO",
      "alert": "OK",
      "vis_m": 9999,
      "fzfg": false,
      "metar_trigger": false,
      "taf_trigger": false,
      "metar": "METAR LFPO 031830Z AUTO 24004KT 9999 FEW038 M00/M05 Q1012",
      "taf": ""
    },
    {
      "icao": "LFSB",
      "alert": "OK",
      "vis_m": 9999,
      "fzfg": false,
      "metar_trigger": false,
      "taf_trigger": false,
      "metar": "METAR LFSB 031830Z AUTO 24006KT 210V270 9999 FEW029 BKN045 OVC052 00/M03 Q1010 NOSIG",
      "taf": ""
    },
    {
      "icao": "LGAV",
      "alert": "OK",
      "vis_m": 9999,
      "fzfg": false,
      "metar_trigger": false,
      "taf_trigger": false,
      "metar": "METAR LGAV 031820Z 23016KT 9999 FEW025 SCT060 16/09 Q1016 NOSIG",
      "taf": "TAF LGAV 031700Z 0318/0418 21019KT 9999 FEW025 SCT060"
    },
    {
      "icao": "LGTS",
      "alert": "OK",
      "vis_m": 9999,
      "fzfg": false,
      "metar_trigger": false,
      "taf_trigger": false,
      "metar": "METAR LGTS 031820Z VRB02KT 9999 FEW025 06/05 Q1011 NOSIG",
      "taf": "TAF LGTS 031700Z 0318/0418 VRB03KT 9999 FEW025"
    },
    {
      "icao": "LHBP",
      "alert": "OK",
      "vis_m": 9999,
      "fzfg": false,
      "metar_trigger": false,
      "taf_trigger": false,
      "metar": "METAR LHBP 031830Z 19002KT CAVOK M04/M07 Q1008 NOSIG",
      "taf": "TAF LHBP 031715Z 0318/0418 VRB03KT CAVOK"
    },
    {
      "icao": "LHDC",
      "alert": "OK",
      "vis_m": 9999,
      "fzfg": false,
      "metar_trigger": false,
      "taf_trigger": false,
      "metar": "METAR LHDC 031815Z AUTO 18007KT CAVOK M01/M03 Q1010 NOSIG",
      "taf": "TAF LHDC 031415Z 0315/0324 25010KT CAVOK"
    },
    {
      "icao": "LIBD",
      "alert": "OK",
      "vis_m": 9999,
      "fzfg": false,
      "metar_trigger": false,
      "taf_trigger": false,
      "metar": "METAR LIBD 031820Z 20009KT CAVOK 15/09 Q1006",
      "taf": "TAF LIBD 031700Z 0318/0418 19010KT 9999 FEW040"
    },
    {
      "icao": "LIBG",
      "alert": "OK",
      "vis_m": 9999,
      "fzfg": false,
      "metar_trigger": false,
      "taf_trigger": false,
      "metar": "METAR LIBG 031750Z 21007KT 180V250 CAVOK 16/12 Q1008",
      "taf": "TAF LIBG 031700Z 0318/0403 21006KT 9999 FEW040"
    },
    {
      "icao": "LIBP",
      "alert": "OK",
      "vis_m": 5000,
      "fzfg": false,
      "metar_trigger": false,
      "taf_trigger": false,
      "metar": "METAR LIBP 031820Z AUTO VRB02KT 5000 BR BKN120/// 10/10 Q1003",
      "taf": "TAF LIBP 031700Z 0318/0418 VRB05KT 9999 BKN070"
    },
    {
      "icao": "LIBR",
      "alert": "OK",
      "vis_m": 9999,
      "fzfg": false,
      "metar_trigger": false,
      "taf_trigger": false,
      "metar": "METAR LIBR 031820Z 20011KT CAVOK 15/12 Q1008",
      "taf": "TAF LIBR 031700Z 0318/0418 19012KT 9999 FEW030"
    },
    {
      "icao": "LICA",
      "alert": "OK",
      "vis_m": 9999,
      "fzfg": false,
      "metar_trigger": false,
      "taf_trigger": false,
      "metar": "METAR LICA 031820Z AUTO 06004KT 9999 NCD 10/09 Q1010",
      "taf": "TAF LICA 031700Z 0318/0418 07010KT 9999 SCT040"
    },
    {
      "icao": "LICC",
      "alert": "OK",
      "vis_m": 9999,
      "fzfg": false,
      "metar_trigger": false,
      "taf_trigger": false,
      "metar": "METAR LICC 031820Z 25008KT 9999 FEW030 14/10 Q1012",
      "taf": ""
    },
    {
      "icao": "LICJ",
      "alert": "OK",
      "vis_m": 9999,
      "fzfg": false,
      "metar_trigger": false,
      "taf_trigger": false,
      "metar": "METAR LICJ 031820Z AUTO 21012KT 9999 NCD 16/08 Q1009",
      "taf": ""
    },
    {
      "icao": "LIMC",
      "alert": "OK",
      "vis_m": 200,
      "fzfg": true,
      "metar_trigger": false,
      "taf_trigger": false,
      "metar": "METAR LIMC 031820Z 04003KT 0200 R35R/0375N R17L/0350N R35L/0325N FZFG OVC001 M01/M01 Q1004 NOSIG",
      "taf": "TAF LIMC 031700Z 0318/0424 VRB04KT 6000 BKN014"
    },
    {
      "icao": "LIME",
      "alert": "CRITICAL",
      "vis_m": 100,
      "fzfg": true,
      "metar_trigger": true,
      "taf_trigger": false,
      "metar": "METAR LIME 031820Z VRB02KT 0100 R28/0450N FZFG VV001 M01/M01 Q1004 NOSIG",
      "taf": "TAF LIME 031700Z 0318/0418 VRB04KT 3000 BR BKN015"
    },
    {
      "icao": "LIMF",
      "alert": "OK",
      "vis_m": 9999,
      "fzfg": false,
      "metar_trigger": false,
      "taf_trigger": false,
      "metar": "METAR LIMF 031820Z 36003KT CAVOK 03/M02 Q1003",
      "taf": "TAF LIMF 031700Z 0318/0418 VRB04KT CAVOK"
    },
    {
      "icao": "LIMJ",
      "alert": "OK",
      "vis_m": 9999,
      "fzfg": false,
      "metar_trigger": false,
      "taf_trigger": false,
      "metar": "METAR LIMJ 031820Z 03008KT 350V050 9999 SCT050 09/M03 Q1002",
      "taf": "TAF LIMJ 031700Z 0318/0418 03015KT 9999 FEW030"
    },
    {
      "icao": "LIPE",
      "alert": "OK",
      "vis_m": 3000,
      "fzfg": false,
      "metar_trigger": false,
      "taf_trigger": false,
      "metar": "METAR LIPE 031820Z 23004KT 210V270 3000 BR SCT003 BKN005 02/02 Q1004",
      "taf": "TAF LIPE 031700Z 0318/0418 VRB05KT 2000 BR OVC008"
    },
    {
      "icao": "LIPH",
      "alert": "OK",
      "vis_m": 9999,
      "fzfg": false,
      "metar_trigger": false,
      "taf_trigger": false,
      "metar": "METAR LIPH 031750Z VRB02KT CAVOK 05/M00 Q1004",
      "taf": "TAF LIPH 031700Z 0318/0418 VRB05KT 9000 SCT030"
    },
    {
      "icao": "LIPQ",
      "alert": "OK",
      "vis_m": 9999,
      "fzfg": false,
      "metar_trigger": false,
      "taf_trigger": false,
      "metar": "METAR LIPQ 031820Z AUTO 09004KT 9999 OVC027/// 06/03 Q1004 RERA",
      "taf": "TAF LIPQ 031700Z 0318/0418 VRB05KT 9999 SCT050"
    },
    {
      "icao": "LIPR",
      "alert": "OK",
      "vis_m": 300,
      "fzfg": false,
      "metar_trigger": false,
      "taf_trigger": false,
      "metar": "METAR LIPR 031820Z VRB01KT 0300 R30/0750N FG VV002 03/03 Q1004",
      "taf": "TAF LIPR 031700Z 0318/0418 VRB05KT 1500 BR OVC006"
    },
    {
      "icao": "LIPX",
      "alert": "OK",
      "vis_m": 1600,
      "fzfg": false,
      "metar_trigger": false,
      "taf_trigger": false,
      "metar": "METAR LIPX 031820Z 28003KT 1600 BR BKN004 02/01 Q1004",
      "taf": "TAF LIPX 031700Z 0318/0418 VRB04KT 2000 BR SCT008"
    },
    {
      "icao": "LIPY",
      "alert": "OK",
      "vis_m": 1900,
      "fzfg": false,
      "metar_trigger": false,
      "taf_trigger": false,
      "metar": "METAR LIPY 031820Z AUTO VRB01KT 1900 BR FEW006/// BKN051/// 06/06 Q1003",
      "taf": "TAF LIPY 031700Z 0318/0418 VRB05KT 2000 BR FEW008 SCT040"
    },
    {
      "icao": "LIPZ",
      "alert": "OK",
      "vis_m": 5000,
      "fzfg": false,
      "metar_trigger": false,
      "taf_trigger": false,
      "metar": "METAR LIPZ 031820Z 29006KT 5000 BR NSC 01/00 Q1004 NOSIG",
      "taf": "TAF LIPZ 031700Z 0318/0424 VRB05KT 8000 SCT030"
    },
    {
      "icao": "LIRF",
      "alert": "OK",
      "vis_m": 8000,
      "fzfg": false,
      "metar_trigger": false,
      "taf_trigger": false,
      "metar": "METAR LIRF 031820Z 23009KT 8000 -RA SCT015 BKN025 14/13 Q1005 RERA NOSIG",
      "taf": "TAF LIRF 031700Z 0318/0424 24015KT 9999 SCT030"
    },
    {
      "icao": "LIRN",
      "alert": "OK",
      "vis_m": 9999,
      "fzfg": false,
      "metar_trigger": false,
      "taf_trigger": false,
      "metar": "METAR LIRN 031820Z 21009KT 9999 SCT030 15/12 Q1007 NOSIG",
      "taf": "TAF LIRN 031700Z 0318/0418 22014KT 9999 SCT030"
    },
    {
      "icao": "LIRP",
      "alert": "OK",
      "vis_m": 9999,
      "fzfg": false,
      "metar_trigger": false,
      "taf_trigger": false,
      "metar": "METAR LIRP 031815Z 26007KT 9999 FEW040 10/05 Q1003 NOSIG",
      "taf": "TAF LIRP 031700Z 0318/0418 22012KT 9999 FEW020 SCT040"
    },
    {
      "icao": "LIRZ",
      "alert": "OK",
      "vis_m": 9999,
      "fzfg": false,
      "metar_trigger": false,
      "taf_trigger": false,
      "metar": "METAR LIRZ 031820Z AUTO 16003KT 9999 BKN027/// BKN060/// 11/09 Q1004",
      "taf": "TAF LIRZ 031700Z 0318/0418 19013KT 9999 SCT030"
    },
    {
      "icao": "LJLJ",
      "alert": "OK",
      "vis_m": 9999,
      "fzfg": false,
      "metar_trigger": false,
      "taf_trigger": false,
      "metar": "METAR LJLJ 031830Z 13005KT 9999 -SN OVC033 02/M01 Q1005 NOSIG",
      "taf": "TAF LJLJ 031700Z 0318/0418 VRB02KT 9999 FEW025 BKN040"
    },
    {
      "icao": "LKMT",
      "alert": "OK",
      "vis_m": 9999,
      "fzfg": false,
      "metar_trigger": false,
      "taf_trigger": false,
      "metar": "METAR LKMT 031830Z 21012KT CAVOK M01/M06 Q1004 NOSIG",
      "taf": "TAF LKMT 031700Z 0318/0418 21012KT CAVOK"
    },
    {
      "icao": "LKPR",
      "alert": "OK",
      "vis_m": 9999,
      "fzfg": false,
      "metar_trigger": false,
      "taf_trigger": false,
      "metar": "METAR LKPR 031830Z 21019KT 9999 FEW030 M02/M07 Q1001 NOSIG",
      "taf": "TAF LKPR 031700Z 0318/0424 22016KT 9999 BKN030"
    },
    {
      "icao": "LLBG",
      "alert": "OK",
      "vis_m": 9999,
      "fzfg": false,
      "metar_trigger": false,
      "taf_trigger": false,
      "metar": "METAR LLBG 031820Z 02007KT CAVOK 12/07 Q1026 NOSIG",
      "taf": "TAF LLBG 031705Z 0318/0418 05005KT CAVOK"
    },
    {
      "icao": "LMML",
      "alert": "OK",
      "vis_m": 9999,
      "fzfg": false,
      "metar_trigger": false,
      "taf_trigger": false,
      "metar": "METAR LMML 031845Z 20009KT 160V230 CAVOK 15/11 Q1014 NOSIG",
      "taf": "TAF LMML 031700Z 0318/0418 21015KT 9999 FEW020"
    },
    {
      "icao": "LOWW",
      "alert": "OK",
      "vis_m": 9999,
      "fzfg": false,
      "metar_trigger": false,
      "taf_trigger": false,
      "metar": "METAR LOWW 031820Z 20009KT CAVOK M00/M03 Q1006 BECMG FM1900 27010KT",
      "taf": "TAF LOWW 031715Z 0318/0424 18008KT 9999 FEW050 TX02/0413Z TNM05/0424Z"
    },
    {
      "icao": "LPFR",
      "alert": "OK",
      "vis_m": 9999,
      "fzfg": false,
      "metar_trigger": false,
      "taf_trigger": false,
      "metar": "METAR LPFR 031830Z 08010KT 9999 -RA SCT012 FEW018TCU BKN020 15/14 Q0996",
      "taf": "TAF LPFR 031700Z 0318/0418 10010KT 9999 SCT015 SCT030"
    },
    {
      "icao": "LPMA",
      "alert": "OK",
      "vis_m": 9999,
      "fzfg": false,
      "metar_trigger": false,
      "taf_trigger": false,
      "metar": "METAR LPMA 031830Z 31007KT 250V030 9999 FEW015 19/08 Q1001",
      "taf": "TAF LPMA 031700Z 0318/0418 34010KT 9999 SCT015"
    },
    {
      "icao": "LPPR",
      "alert": "OK",
      "vis_m": 9999,
      "fzfg": false,
      "metar_trigger": false,
      "taf_trigger": false,
      "metar": "METAR LPPR 031830Z 05006KT CAVOK 15/09 Q1001",
      "taf": "TAF LPPR 031700Z 0318/0418 08007KT 9999 SCT045"
    },
    {
      "icao": "LPPS",
      "alert": "OK",
      "vis_m": 9999,
      "fzfg": false,
      "metar_trigger": false,
      "taf_trigger": false,
      "metar": "METAR LPPS 031830Z 30023KT 9999 SCT014 BKN030 18/13 Q1002",
      "taf": "TAF LPPS 031700Z 0318/0424 31020KT 9999 SCT015"
    },
    {
      "icao": "LPPT",
      "alert": "OK",
      "vis_m": 9999,
      "fzfg": false,
      "metar_trigger": false,
      "taf_trigger": false,
      "metar": "METAR LPPT 031830Z 10007KT 030V140 9999 SCT004 BKN006 FEW018CB 14/14 Q0998",
      "taf": "TAF LPPT 031700Z 0318/0424 10010KT 9999 SCT012 SCT018"
    },
    {
      "icao": "LQBK",
      "alert": "OK",
      "vis_m": 7000,
      "fzfg": false,
      "metar_trigger": false,
      "taf_trigger": false,
      "metar": "METAR LQBK 031830Z 32004KT 7000 SCT007 OVC045 01/00 Q1007 NOSIG",
      "taf": "TAF LQBK 031700Z 0318/0418 06005KT 9999 SCT015 BKN040 TX01/0411Z TNM01/0418Z"
    },
    {
      "icao": "LQSA",
      "alert": "OK",
      "vis_m": 4000,
      "fzfg": false,
      "metar_trigger": false,
      "taf_trigger": false,
      "metar": "METAR LQSA 031830Z VRB01KT 4000 BR SCT007 00/00 Q1006 NOSIG",
      "taf": ""
    },
    {
      "icao": "LQTZ",
      "alert": "OK",
      "vis_m": 9999,
      "fzfg": false,
      "metar_trigger": false,
      "taf_trigger": false,
      "metar": "METAR LQTZ 031830Z 12010KT 9999 SCT045 02/01 Q1007",
      "taf": "TAF LQTZ 031700Z 0318/0418 27005KT 8000 SCT015 BKN045 TX02/0318Z TNM01/0418Z"
    },
    {
      "icao": "LRBC",
      "alert": "OK",
      "vis_m": 9999,
      "fzfg": false,
      "metar_trigger": false,
      "taf_trigger": false,
      "metar": "METAR LRBC 031830Z 27015KT CAVOK 03/M06 Q1008",
      "taf": "TAF LRBC 031700Z 0318/0403 VRB04KT CAVOK"
    },
    {
      "icao": "LRBS",
      "alert": "OK",
      "vis_m": 9999,
      "fzfg": false,
      "metar_trigger": false,
      "taf_trigger": false,
      "metar": "METAR LRBS 031830Z 22005KT CAVOK 03/03 Q1011 NOSIG",
      "taf": "TAF LRBS 031700Z 0318/0418 VRB04KT 9999 BKN045"
    },
    {
      "icao": "LRBV",
      "alert": "OK",
      "vis_m": 9999,
      "fzfg": false,
      "metar_trigger": false,
      "taf_trigger": false,
      "metar": "METAR LRBV 031830Z 17003KT 100V250 9999 FEW013 SCT017 M04/M05 Q1009",
      "taf": "TAF LRBV 031700Z 0318/0403 VRB04KT 9999 BKN020"
    },
    {
      "icao": "LRCL",
      "alert": "OK",
      "vis_m": 3000,
      "fzfg": false,
      "metar_trigger": false,
      "taf_trigger": false,
      "metar": "METAR LRCL 031830Z 12001KT 3000 BR NSC M08/M09 Q1010",
      "taf": "TAF LRCL 031700Z 0318/0403 VRB04KT 5000 BR NSC"
    },
    {
      "icao": "LRCV",
      "alert": "OK",
      "vis_m": 9999,
      "fzfg": false,
      "metar_trigger": false,
      "taf_trigger": false,
      "metar": "METAR LRCV 031830Z 20002KT CAVOK 02/01 Q1010",
      "taf": "TAF LRCV 031700Z 0318/0403 VRB04KT 9999 SCT040"
    },
    {
      "icao": "LRIA",
      "alert": "OK",
      "vis_m": 9999,
      "fzfg": false,
      "metar_trigger": false,
      "taf_trigger": false,
      "metar": "METAR LRIA 031830Z 27007KT 230V330 CAVOK 03/M05 Q1008",
      "taf": "TAF LRIA 031700Z 0318/0403 26006KT CAVOK"
    },
    {
      "icao": "LROP",
      "alert": "OK",
      "vis_m": 9999,
      "fzfg": false,
      "metar_trigger": false,
      "taf_trigger": false,
      "metar": "METAR LROP 031830Z 20005KT CAVOK 02/02 Q1011 NOSIG",
      "taf": "TAF LROP 031700Z 0318/0418 VRB04KT 9999 BKN045"
    },
    {
      "icao": "LRSB",
      "alert": "OK",
      "vis_m": 6000,
      "fzfg": false,
      "metar_trigger": false,
      "taf_trigger": false,
      "metar": "METAR LRSB 031830Z 23006KT 6000 1500E BCFG BR NSC M03/M03 Q1009",
      "taf": ""
    },
    {
      "icao": "LRSM",
      "alert": "OK",
      "vis_m": 9999,
      "fzfg": false,
      "metar_trigger": false,
      "taf_trigger": false,
      "metar": "METAR LRSM 031830Z AUTO 18006KT 9999 NCD M02/M04 Q1010",
      "taf": ""
    },
    {
      "icao": "LRSV",
      "alert": "OK",
      "vis_m": 9999,
      "fzfg": false,
      "metar_trigger": false,
      "taf_trigger": false,
      "metar": "METAR LRSV 031830Z 28009KT CAVOK M01/M09 Q1007",
      "taf": "TAF LRSV 031700Z 0318/0403 27010KT CAVOK"
    },
    {
      "icao": "LRTM",
      "alert": "OK",
      "vis_m": 9000,
      "fzfg": false,
      "metar_trigger": false,
      "taf_trigger": false,
      "metar": "METAR LRTM 031830Z AUTO 09001KT 9000 FEW013/// SCT018/// BKN120/// M02/M03 Q1010",
      "taf": "TAF LRTM 031400Z 0315/0324 VRB04KT 9999 SCT010 BKN025"
    },
    {
      "icao": "LRTR",
      "alert": "OK",
      "vis_m": 3000,
      "fzfg": false,
      "metar_trigger": false,
      "taf_trigger": false,
      "metar": "METAR LRTR 031830Z 11004KT 3000 BR NSC M02/M02 Q1010",
      "taf": "TAF LRTR 031700Z 0318/0418 VRB04KT 5000 BR NSC"
    },
    {
      "icao": "LTAC",
      "alert": "OK",
      "vis_m": 7000,
      "fzfg": false,
      "metar_trigger": false,
      "taf_trigger": false,
      "metar": "METAR LTAC 031820Z 00000KT 7000 BKN035 BKN080 M01/M05 Q1022 NOSIG RMK RWY21C 00000KT RWY03L 00000KT RWY21R 00000KT RWY03R 00000KT RWY21L 00000KT",
      "taf": "TAF LTAC 031640Z 0318/0418 VRB02KT 8000 SCT035 BKN100"
    },
    {
      "icao": "LTFM",
      "alert": "OK",
      "vis_m": 9999,
      "fzfg": false,
      "metar_trigger": false,
      "taf_trigger": false,
      "metar": "METAR LTFM 031820Z 21029KT 9999 -SHRA SCT035 BKN080 13/08 Q1013 NOSIG RMK RWY17L 21027G37KT RWY34L 20027G38KT RWY16R 21025G37KT RWY36 21030KT RWY18 22030KT",
      "taf": "TAF LTFM 031640Z 0318/0424 21025G37KT 9999 -SHRA SCT035 BKN080"
    },
    {
      "icao": "LUKK",
      "alert": "OK",
      "vis_m": 8000,
      "fzfg": false,
      "metar_trigger": false,
      "taf_trigger": false,
      "metar": "METAR LUKK 031830Z 26008KT 8000 NSC M02/M03 Q1008 NOSIG",
      "taf": "TAF LUKK 031717Z 0318/0418 VRB06KT CAVOK"
    },
    {
      "icao": "LWOH",
      "alert": "OK",
      "vis_m": null,
      "fzfg": false,
      "metar_trigger": false,
      "taf_trigger": false,
      "metar": "",
      "taf": "TAF LWOH 031125Z 0312/0412 14012KT 9999 SCT020 OVC035"
    },
    {
      "icao": "LWSK",
      "alert": "OK",
      "vis_m": null,
      "fzfg": false,
      "metar_trigger": false,
      "taf_trigger": false,
      "metar": "",
      "taf": "TAF LWSK 031740Z 0318/0418 16010KT 9999 FEW040 BKN060"
    },
    {
      "icao": "LYBE",
      "alert": "OK",
      "vis_m": 9999,
      "fzfg": false,
      "metar_trigger": false,
      "taf_trigger": false,
      "metar": "METAR LYBE 031830Z 13006KT 9999 -RASN SCT027 01/00 Q1010 NOSIG",
      "taf": "TAF LYBE 031700Z 0318/0418 14008KT 9999 SCT040 TX02/0405Z TNM01/0418Z"
    },
    {
      "icao": "LYNI",
      "alert": "OK",
      "vis_m": 8000,
      "fzfg": false,
      "metar_trigger": false,
      "taf_trigger": false,
      "metar": "METAR LYNI 031830Z 09003KT 8000 SCT007 BKN015 BKN035 02/01 Q1011 NOSIG",
      "taf": "TAF LYNI 031700Z 0318/0418 02006KT 9999 SCT017 BKN035 OVC070 TX13/0411Z TN00/0418Z"
    },
    {
      "icao": "LYPG",
      "alert": "OK",
      "vis_m": 9999,
      "fzfg": false,
      "metar_trigger": false,
      "taf_trigger": false,
      "metar": "METAR LYPG 031830Z 06003KT 9999 -RA FEW023 SCT034 OVC070 11/11 Q1007 TEMPO 4000 RA",
      "taf": "TAF LYPG 031700Z 0318/0418 15007KT 9999 FEW020 BKN040 OVC070 TX11/0413Z TN08/0406Z"
    },
    {
      "icao": "LZIB",
      "alert": "OK",
      "vis_m": 9999,
      "fzfg": false,
      "metar_trigger": false,
      "taf_trigger": false,
      "metar": "METAR LZIB 031830Z 19010KT 9999 FEW030 01/M01 Q1007 NOSIG",
      "taf": "TAF LZIB 031715Z 0318/0418 19009KT 9999 FEW045"
    },
    {
      "icao": "LZKZ",
      "alert": "OK",
      "vis_m": 9999,
      "fzfg": false,
      "metar_trigger": false,
      "taf_trigger": false,
      "metar": "METAR LZKZ 031830Z 22009KT CAVOK M02/M08 Q1007 NOSIG",
      "taf": "TAF LZKZ 031715Z 0318/0418 22007KT CAVOK"
    },
    {
      "icao": "LZTT",
      "alert": "OK",
      "vis_m": 9999,
      "fzfg": false,
      "metar_trigger": false,
      "taf_trigger": false,
      "metar": "METAR LZTT 031830Z 26017KT CAVOK M04/M11 Q1003",
      "taf": "TAF LZTT 031715Z 0318/0418 26011KT CAVOK"
    },
    {
      "icao": "OEJN",
      "alert": "OK",
      "vis_m": 9999,
      "fzfg": false,
      "metar_trigger": false,
      "taf_trigger": false,
      "metar": "METAR OEJN 031800Z 36005KT CAVOK 25/16 Q1016 NOSIG",
      "taf": "TAF OEJN 031700Z 0318/0424 02005KT CAVOK"
    },
    {
      "icao": "OEMA",
      "alert": "OK",
      "vis_m": 9999,
      "fzfg": false,
      "metar_trigger": false,
      "taf_trigger": false,
      "metar": "METAR OEMA 031800Z 05011KT CAVOK 24/00 Q1022 NOSIG",
      "taf": "TAF OEMA 031700Z 0318/0424 05020KT 7000 NSC"
    },
    {
      "icao": "OJAI",
      "alert": "OK",
      "vis_m": 5000,
      "fzfg": false,
      "metar_trigger": false,
      "taf_trigger": false,
      "metar": "METAR OJAI 031800Z 06010KT 5000 HZ NSC 07/02 Q1028 NOSIG",
      "taf": "TAF OJAI 031700Z 0318/0424 12006KT 6000 NSC"
    },
    {
      "icao": "OMAA",
      "alert": "OK",
      "vis_m": 9999,
      "fzfg": false,
      "metar_trigger": false,
      "taf_trigger": false,
      "metar": "METAR OMAA 031800Z 28006KT CAVOK 21/16 Q1020 NOSIG",
      "taf": "TAF OMAA 031700Z 0318/0500 25005KT 8000 NSC"
    },
    {
      "icao": "OMDB",
      "alert": "OK",
      "vis_m": 9999,
      "fzfg": false,
      "metar_trigger": false,
      "taf_trigger": false,
      "metar": "METAR OMDB 031830Z 20004KT 140V270 9999 FEW025 22/17 Q1019 NOSIG",
      "taf": "TAF OMDB 031700Z 0318/0500 18005KT 8000 NSC"
    },
    {
      "icao": "UAAA",
      "alert": "OK",
      "vis_m": 150,
      "fzfg": true,
      "metar_trigger": false,
      "taf_trigger": false,
      "metar": "SPECI UAAA 031840Z 19001MPS 0150 R23L/0500 FZFG VV003 M02/M02 Q1023 NOSIG RMK QBB100",
      "taf": "TAF UAAA 031702Z 0318/0418 16003MPS 0200 FZFG VV001 TX05/0409Z TNM03/0402Z"
    },
    {
      "icao": "UBBB",
      "alert": "OK",
      "vis_m": 9999,
      "fzfg": false,
      "metar_trigger": false,
      "taf_trigger": false,
      "metar": "METAR UBBB 031830Z 19019KT CAVOK 04/M01 Q1023 NOSIG",
      "taf": "TAF UBBB 031705Z 0318/0418 18018G28KT CAVOK TX07/0409Z TN01/0401Z"
    },
    {
      "icao": "UDSG",
      "alert": "OK",
      "vis_m": 4900,
      "fzfg": false,
      "metar_trigger": false,
      "taf_trigger": false,
      "metar": "METAR UDSG 031830Z 10002KT 4900 BR NSC M25/M28 Q1028 NOSIG",
      "taf": "TAF UDSG 031658Z 0318/0418 VRB06KT 5000 BR FEW040"
    },
    {
      "icao": "UDYZ",
      "alert": "OK",
      "vis_m": 9999,
      "fzfg": false,
      "metar_trigger": false,
      "taf_trigger": false,
      "metar": "METAR UDYZ 031830Z 04003KT 9999 NSC M11/M15 Q1031 NOSIG",
      "taf": "TAF UDYZ 031700Z 0318/0418 VRB04KT 6000 NSC"
    },
    {
      "icao": "UGKO",
      "alert": "OK",
      "vis_m": 9999,
      "fzfg": false,
      "metar_trigger": false,
      "taf_trigger": false,
      "metar": "METAR UGKO 031830Z 07007KT CAVOK 01/M08 Q1022 NOSIG",
      "taf": "TAF UGKO 031700Z 0318/0418 08008KT CAVOK TX08/0412Z TNM02/0402Z"
    }
  ]
}