{
  "ts_utc": "2025-12-29T11:16:34Z",
  "threshold_m": 150,
  "source": "stations_override.txt (ICAO list) + aviationweather.gov (METAR/TAF raw)",
  "station_count": 159,
  "stations": [
    {
      "icao": "BIKF",
      "alert": "OK",
      "vis_m": 200,
      "fzfg": false,
      "metar_trigger": false,
      "taf_trigger": false,
      "metar": "METAR BIKF 291100Z 21005KT 0200 R19/0550D FG BKN001 02/02 Q1039",
      "taf": ""
    },
    {
      "icao": "BKPR",
      "alert": "OK",
      "vis_m": 9999,
      "fzfg": false,
      "metar_trigger": false,
      "taf_trigger": false,
      "metar": "METAR BKPR 291100Z 11003KT 060V160 CAVOK 04/M05 Q1020 NOSIG",
      "taf": "TAF BKPR 290530Z 2906/3006 26006KT CAVOK"
    },
    {
      "icao": "EBCI",
      "alert": "OK",
      "vis_m": 7000,
      "fzfg": false,
      "metar_trigger": false,
      "taf_trigger": false,
      "metar": "METAR EBCI 291050Z 03003KT 010V080 7000 BKN015 00/00 Q1026 NOSIG",
      "taf": ""
    },
    {
      "icao": "EDDB",
      "alert": "OK",
      "vis_m": 9999,
      "fzfg": false,
      "metar_trigger": false,
      "taf_trigger": false,
      "metar": "METAR EDDB 291050Z AUTO 29011KT 9999 BKN010 BKN022 03/02 Q1017 TEMPO BKN008",
      "taf": ""
    },
    {
      "icao": "EDDH",
      "alert": "OK",
      "vis_m": 9999,
      "fzfg": false,
      "metar_trigger": false,
      "taf_trigger": false,
      "metar": "METAR EDDH 291050Z AUTO 29010KT 260V320 9999 OVC031 07/04 Q1019 NOSIG",
      "taf": "TAF EDDH 290500Z 2906/3012 30010KT 9999 BKN020"
    },
    {
      "icao": "EDDK",
      "alert": "OK",
      "vis_m": 9999,
      "fzfg": false,
      "metar_trigger": false,
      "taf_trigger": false,
      "metar": "METAR EDDK 291050Z AUTO VRB01KT 9999 OVC018 M02/M03 Q1026 NOSIG",
      "taf": "TAF EDDK 290500Z 2906/3012 30004KT 9999 SCT004 BKN015"
    },
    {
      "icao": "EDDN",
      "alert": "OK",
      "vis_m": 9999,
      "fzfg": false,
      "metar_trigger": false,
      "taf_trigger": false,
      "metar": "METAR EDDN 291050Z AUTO 32005KT 290V360 9999 FEW008 M03/M06 Q1022 NOSIG",
      "taf": "TAF EDDN 290500Z 2906/3006 11004KT CAVOK"
    },
    {
      "icao": "EDDS",
      "alert": "OK",
      "vis_m": 9999,
      "fzfg": false,
      "metar_trigger": false,
      "taf_trigger": false,
      "metar": "METAR EDDS 291050Z AUTO 12005KT CAVOK M02/M04 Q1021 NOSIG",
      "taf": "TAF EDDS 290500Z 2906/3006 VRB03KT CAVOK"
    },
    {
      "icao": "EDFH",
      "alert": "OK",
      "vis_m": 4600,
      "fzfg": false,
      "metar_trigger": false,
      "taf_trigger": false,
      "metar": "METAR EDFH 291050Z 02007KT 340V040 4600 BR OVC001 M03/M03 Q1023",
      "taf": ""
    },
    {
      "icao": "EDJA",
      "alert": "OK",
      "vis_m": 2600,
      "fzfg": false,
      "metar_trigger": false,
      "taf_trigger": false,
      "metar": "METAR EDJA 291050Z 23006KT 200V260 2600 BR OVC002 M04/M05 Q1021",
      "taf": ""
    },
    {
      "icao": "EDLW",
      "alert": "OK",
      "vis_m": 6000,
      "fzfg": false,
      "metar_trigger": false,
      "taf_trigger": false,
      "metar": "METAR EDLW 291050Z 25004KT 220V340 6000 FEW015 OVC019 01/00 Q1025",
      "taf": "TAF EDLW 290500Z 2906/3006 16005KT 9999 OVC020"
    },
    {
      "icao": "EDNY",
      "alert": "OK",
      "vis_m": 9999,
      "fzfg": false,
      "metar_trigger": false,
      "taf_trigger": false,
      "metar": "METAR EDNY 291050Z 31003KT 9999 OVC008 M01/M03 Q1022",
      "taf": "TAF EDNY 290800Z 2909/2918 VRB02KT 8000 OVC008"
    },
    {
      "icao": "EDSB",
      "alert": "OK",
      "vis_m": 800,
      "fzfg": true,
      "metar_trigger": false,
      "taf_trigger": false,
      "metar": "METAR EDSB 291050Z VRB01KT 0800 R21/1000N FZFG VV/// M04/M04 Q1025",
      "taf": "TAF EDSB 290500Z 2906/3006 VRB03KT CAVOK"
    },
    {
      "icao": "EETN",
      "alert": "OK",
      "vis_m": 9999,
      "fzfg": false,
      "metar_trigger": false,
      "taf_trigger": false,
      "metar": "METAR EETN 291050Z 33015G26KT 9999 FEW025CB BKN031 M00/M05 Q0993 NOSIG",
      "taf": "TAF EETN 290530Z 2906/3006 32015G25KT 9999 SCT030"
    },
    {
      "icao": "EFTU",
      "alert": "OK",
      "vis_m": 2100,
      "fzfg": false,
      "metar_trigger": false,
      "taf_trigger": false,
      "metar": "METAR EFTU 291050Z AUTO 33009KT 290V360 2100 -SN OVC015 M04/M05 Q0997",
      "taf": "TAF EFTU 290831Z 2909/3009 33012KT 9999 BKN025"
    },
    {
      "icao": "EGBB",
      "alert": "OK",
      "vis_m": 9999,
      "fzfg": false,
      "metar_trigger": false,
      "taf_trigger": false,
      "metar": "METAR EGBB 291050Z 07007KT 020V190 9999 OVC019 05/01 Q1031",
      "taf": "TAF EGBB 291105Z 2912/3012 06006KT 9999 BKN020"
    },
    {
      "icao": "EGGP",
      "alert": "OK",
      "vis_m": 9999,
      "fzfg": false,
      "metar_trigger": false,
      "taf_trigger": false,
      "metar": "METAR EGGP 291050Z 07007KT 9999 BKN022 05/00 Q1032",
      "taf": "TAF EGGP 291058Z 2912/3012 07006KT 9999 BKN020"
    },
    {
      "icao": "EGGW",
      "alert": "OK",
      "vis_m": 9999,
      "fzfg": false,
      "metar_trigger": false,
      "taf_trigger": false,
      "metar": "METAR EGGW 291050Z AUTO 06008KT 020V080 9999 OVC017 04/01 Q1029",
      "taf": "TAF EGGW 291059Z 2912/3012 05008KT 9999 OVC020"
    },
    {
      "icao": "EGKK",
      "alert": "OK",
      "vis_m": 9999,
      "fzfg": false,
      "metar_trigger": false,
      "taf_trigger": false,
      "metar": "METAR EGKK 291050Z 04008KT 360V090 9999 BKN020 06/03 Q1028",
      "taf": "TAF EGKK 291050Z 2912/3018 04009KT 9999 BKN025"
    },
    {
      "icao": "EGNM",
      "alert": "OK",
      "vis_m": 9999,
      "fzfg": false,
      "metar_trigger": false,
      "taf_trigger": false,
      "metar": "METAR EGNM 291050Z 02006KT 350V050 9999 BKN020 04/01 Q1031",
      "taf": "TAF EGNM 291058Z 2912/3012 03006KT 9999 BKN018"
    },
    {
      "icao": "EGPD",
      "alert": "OK",
      "vis_m": 9999,
      "fzfg": false,
      "metar_trigger": false,
      "taf_trigger": false,
      "metar": "METAR EGPD 291050Z AUTO 31009KT 9999 SCT015 SCT021 BKN028 05/04 Q1033 REDZ",
      "taf": "TAF EGPD 291056Z 2912/3012 32007KT 9999 SCT018"
    },
    {
      "icao": "EGPF",
      "alert": "OK",
      "vis_m": 9999,
      "fzfg": false,
      "metar_trigger": false,
      "taf_trigger": false,
      "metar": "METAR EGPF 291050Z AUTO 26002KT 9999 OVC028 03/01 Q1034",
      "taf": "TAF EGPF 291056Z 2912/3012 05004KT 9999 BKN030"
    },
    {
      "icao": "EHBK",
      "alert": "OK",
      "vis_m": 5000,
      "fzfg": false,
      "metar_trigger": false,
      "taf_trigger": false,
      "metar": "METAR EHBK 291055Z AUTO VRB02KT 5000 BR SCT014/// OVC016/// M00/M00 Q1026 TEMPO 4000",
      "taf": ""
    },
    {
      "icao": "EHEH",
      "alert": "OK",
      "vis_m": 8000,
      "fzfg": false,
      "metar_trigger": false,
      "taf_trigger": false,
      "metar": "SPECI EHEH 291105Z AUTO VRB01KT 8000 BR OVC019 02/01 Q1027 WHT NOSIG RMK TREND REMOTE BY EHWX",
      "taf": "TAF EHEH 291109Z 2912/3018 28002KT 8000 FEW018 BKN022"
    },
    {
      "icao": "EKBI",
      "alert": "OK",
      "vis_m": 9999,
      "fzfg": false,
      "metar_trigger": false,
      "taf_trigger": false,
      "metar": "METAR EKBI 291050Z AUTO 32009KT 9999 NCD 05/02 Q1019",
      "taf": "TAF EKBI 290829Z 2909/3009 31010KT 9999 SCT025"
    },
    {
      "icao": "EKCH",
      "alert": "OK",
      "vis_m": 9999,
      "fzfg": false,
      "metar_trigger": false,
      "taf_trigger": false,
      "metar": "METAR EKCH 291050Z AUTO 35008KT 320V030 9999 BKN063/// 05/03 Q1016 NOSIG",
      "taf": "TAF EKCH 290827Z 2909/3009 29010KT CAVOK"
    },
    {
      "icao": "ENAL",
      "alert": "OK",
      "vis_m": 9999,
      "fzfg": false,
      "metar_trigger": false,
      "taf_trigger": false,
      "metar": "METAR ENAL 291050Z 34014G26KT 300V010 9999 VCSH FEW037 SCT063 02/M04 Q1025",
      "taf": "TAF ENAL 290800Z 2909/2918 35015KT 9999 FEW020CB BKN035"
    },
    {
      "icao": "ENBR",
      "alert": "OK",
      "vis_m": 9999,
      "fzfg": false,
      "metar_trigger": false,
      "taf_trigger": false,
      "metar": "METAR ENBR 291050Z 33014KT 9999 FEW033 01/M02 Q1025 TEMPO 33018G28KT RMK WIND 1200FT 34026KT",
      "taf": ""
    },
    {
      "icao": "ENGM",
      "alert": "OK",
      "vis_m": 9999,
      "fzfg": false,
      "metar_trigger": false,
      "taf_trigger": false,
      "metar": "METAR ENGM 291050Z 33007KT 280V010 CAVOK M00/M10 Q1017 NOSIG",
      "taf": "TAF ENGM 290500Z 2906/3006 34008KT CAVOK"
    },
    {
      "icao": "ENHD",
      "alert": "OK",
      "vis_m": 9999,
      "fzfg": false,
      "metar_trigger": false,
      "taf_trigger": false,
      "metar": "METAR ENHD 291020Z 35029KT 9999 SCT049 04/M02 Q1025",
      "taf": "TAF ENHD 290800Z 2909/2918 35025KT 9999 -SHRA FEW015 SCT030"
    },
    {
      "icao": "ENTC",
      "alert": "OK",
      "vis_m": 9999,
      "fzfg": false,
      "metar_trigger": false,
      "taf_trigger": false,
      "metar": "METAR ENTC 291050Z 36015KT 9999 FEW012 BKN026 M02/M07 Q1006 TEMPO 0700 SHSN VV006 RMK WIND 2600FT 35039KT",
      "taf": "TAF ENTC 290500Z 2906/3006 36012KT 9999 -SHSN SCT020CB BKN030"
    },
    {
      "icao": "ENTO",
      "alert": "OK",
      "vis_m": 9999,
      "fzfg": false,
      "metar_trigger": false,
      "taf_trigger": false,
      "metar": "METAR ENTO 291050Z 04002KT CAVOK 02/M07 Q1019 NOSIG",
      "taf": "TAF ENTO 290500Z 2906/3006 28005KT CAVOK"
    },
    {
      "icao": "ENVA",
      "alert": "OK",
      "vis_m": 700,
      "fzfg": false,
      "metar_trigger": false,
      "taf_trigger": false,
      "metar": "METAR ENVA 291050Z 31025KT 0700 R09/1700D R27/1900D SHSN VV011 M00/M01 Q1015 TEMPO 31030G40KT 0400 SHSN VV004 RMK WIND 670FT 31044G60KT",
      "taf": "TAF ENVA 290500Z 2906/3006 29018KT 9999 FEW015 BKN025"
    },
    {
      "icao": "ENZV",
      "alert": "OK",
      "vis_m": 9999,
      "fzfg": false,
      "metar_trigger": false,
      "taf_trigger": false,
      "metar": "METAR ENZV 291050Z 34019KT CAVOK 04/M03 Q1024 TEMPO 35020G30KT",
      "taf": ""
    },
    {
      "icao": "EPGD",
      "alert": "OK",
      "vis_m": 9999,
      "fzfg": false,
      "metar_trigger": false,
      "taf_trigger": false,
      "metar": "METAR EPGD 291100Z 30013KT 9999 FEW025 BKN030 04/M00 Q1008",
      "taf": "TAF EPGD 290530Z 2906/3006 29012KT 9999 BKN020"
    },
    {
      "icao": "EPKK",
      "alert": "OK",
      "vis_m": 9999,
      "fzfg": false,
      "metar_trigger": false,
      "taf_trigger": false,
      "metar": "METAR EPKK 291100Z 26014KT 9999 BKN018 BKN033 M01/M04 Q1014",
      "taf": "TAF EPKK 290830Z 2909/3009 25012KT 9999 BKN016"
    },
    {
      "icao": "EPKT",
      "alert": "OK",
      "vis_m": 9999,
      "fzfg": false,
      "metar_trigger": false,
      "taf_trigger": false,
      "metar": "METAR EPKT 291100Z 27014KT 9999 BKN008 M01/M02 Q1014",
      "taf": "TAF EPKT 290530Z 2906/3006 26012KT 9999 BKN009"
    },
    {
      "icao": "EPLB",
      "alert": "OK",
      "vis_m": 9999,
      "fzfg": false,
      "metar_trigger": false,
      "taf_trigger": false,
      "metar": "METAR EPLB 291100Z 27013KT 9999 OVC008 M01/M02 Q1009",
      "taf": "TAF EPLB 290530Z 2906/3006 29014KT 9999 BKN030"
    },
    {
      "icao": "EPMO",
      "alert": "OK",
      "vis_m": 9999,
      "fzfg": false,
      "metar_trigger": false,
      "taf_trigger": false,
      "metar": "METAR EPMO 291100Z 25014KT 9999 BKN010 BKN014 01/00 Q1009",
      "taf": "TAF EPMO 290530Z 2906/3006 27012KT 9999 OVC007"
    },
    {
      "icao": "EPPO",
      "alert": "OK",
      "vis_m": 9999,
      "fzfg": false,
      "metar_trigger": false,
      "taf_trigger": false,
      "metar": "METAR EPPO 291100Z 27012KT 9999 BKN018 02/M00 Q1013",
      "taf": ""
    },
    {
      "icao": "EPRA",
      "alert": "OK",
      "vis_m": 9999,
      "fzfg": false,
      "metar_trigger": false,
      "taf_trigger": false,
      "metar": "METAR EPRA 291100Z 28013KT 9999 OVC008 M00/M02 Q1010",
      "taf": "TAF EPRA 290830Z 2909/2918 28012KT 9999 OVC010"
    },
    {
      "icao": "EPRZ",
      "alert": "OK",
      "vis_m": 9999,
      "fzfg": false,
      "metar_trigger": false,
      "taf_trigger": false,
      "metar": "METAR EPRZ 291100Z 27018KT 9999 OVC012 M01/M04 Q1012",
      "taf": "TAF EPRZ 290530Z 2906/3006 27014KT 9999 BKN015"
    },
    {
      "icao": "EPSC",
      "alert": "OK",
      "vis_m": 9999,
      "fzfg": false,
      "metar_trigger": false,
      "taf_trigger": false,
      "metar": "METAR EPSC 291100Z 29011KT 9999 SCT009 03/01 Q1014",
      "taf": "TAF EPSC 290530Z 2906/3006 29010KT 9999 SCT012 BKN018"
    },
    {
      "icao": "EPSY",
      "alert": "OK",
      "vis_m": 9999,
      "fzfg": false,
      "metar_trigger": false,
      "taf_trigger": false,
      "metar": "METAR EPSY 291100Z 28008KT 240V310 9999 SCT010 BKN017 02/00 Q1006",
      "taf": "TAF EPSY 290830Z 2909/2918 27010KT 9999 SCT009 BKN017"
    },
    {
      "icao": "EPWA",
      "alert": "OK",
      "vis_m": 9999,
      "fzfg": false,
      "metar_trigger": false,
      "taf_trigger": false,
      "metar": "METAR EPWA 291100Z 26014KT 9999 BKN007 BKN013 01/M01 Q1009 TEMPO BKN010",
      "taf": "TAF EPWA 290830Z 2909/3009 28011KT 9999 OVC008"
    },
    {
      "icao": "EPWR",
      "alert": "OK",
      "vis_m": 9999,
      "fzfg": false,
      "metar_trigger": false,
      "taf_trigger": false,
      "metar": "METAR EPWR 291100Z 27013KT 9999 -SN FEW011 BKN020 01/M00 Q1016",
      "taf": "TAF EPWR 290830Z 2909/3009 29012KT 9999 BKN012"
    },
    {
      "icao": "ESGG",
      "alert": "OK",
      "vis_m": 9999,
      "fzfg": false,
      "metar_trigger": false,
      "taf_trigger": false,
      "metar": "METAR ESGG 291050Z 02016KT CAVOK 01/M06 Q1016",
      "taf": "TAF ESGG 290830Z 2909/3009 35009KT CAVOK"
    },
    {
      "icao": "ESKN",
      "alert": "OK",
      "vis_m": 9999,
      "fzfg": false,
      "metar_trigger": false,
      "taf_trigger": false,
      "metar": "METAR ESKN 291050Z 31018G29KT 280V340 CAVOK 00/M10 Q1009",
      "taf": "TAF ESKN 290830Z 2909/3009 32016G26KT CAVOK"
    },
    {
      "icao": "ESMS",
      "alert": "OK",
      "vis_m": 9999,
      "fzfg": false,
      "metar_trigger": false,
      "taf_trigger": false,
      "metar": "METAR ESMS 291050Z 35007KT CAVOK 03/01 Q1015",
      "taf": "TAF ESMS 290827Z 2909/3009 31010KT CAVOK"
    },
    {
      "icao": "ESSA",
      "alert": "OK",
      "vis_m": 9999,
      "fzfg": false,
      "metar_trigger": false,
      "taf_trigger": false,
      "metar": "METAR ESSA 291050Z 31017KT CAVOK M01/M12 Q1006 NOSIG",
      "taf": "TAF ESSA 290830Z 2909/3009 32015G25KT 9999 SCT040"
    },
    {
      "icao": "EYKA",
      "alert": "OK",
      "vis_m": 9999,
      "fzfg": false,
      "metar_trigger": false,
      "taf_trigger": false,
      "metar": "METAR EYKA 291050Z 29008KT 240V330 9999 SCT045 02/M00 Q1000",
      "taf": "TAF EYKA 291103Z 2912/3012 30010KT 9000 SCT025"
    },
    {
      "icao": "EYPA",
      "alert": "OK",
      "vis_m": 9999,
      "fzfg": false,
      "metar_trigger": false,
      "taf_trigger": false,
      "metar": "METAR EYPA 291050Z 33011G25KT 270V020 9999 -SHSNRA FEW042CB 03/M03 Q1003",
      "taf": "TAF EYPA 291105Z 2912/3012 33010KT 9000 SCT030"
    },
    {
      "icao": "EYVI",
      "alert": "OK",
      "vis_m": 9999,
      "fzfg": false,
      "metar_trigger": false,
      "taf_trigger": false,
      "metar": "METAR EYVI 291050Z 28012KT 250V320 9999 -SNRA OVC008 01/M00 Q0998 TEMPO 1500 SNRA",
      "taf": "TAF EYVI 291100Z 2912/3012 28012KT 9000 OVC010"
    },
    {
      "icao": "GCFV",
      "alert": "OK",
      "vis_m": 9999,
      "fzfg": false,
      "metar_trigger": false,
      "taf_trigger": false,
      "metar": "METAR GCFV 291100Z VRB02KT 9999 FEW045 20/12 Q1022",
      "taf": "TAF GCFV 290800Z 2909/3009 12005KT 9999 SCT030 TX21/2914Z TN14/3006Z"
    },
    {
      "icao": "GCLP",
      "alert": "OK",
      "vis_m": 9999,
      "fzfg": false,
      "metar_trigger": false,
      "taf_trigger": false,
      "metar": "METAR GCLP 291100Z 13003KT 070V170 9999 FEW040 20/13 Q1022 NOSIG",
      "taf": "TAF GCLP 290800Z 2909/3009 16006KT 9999 BKN030 TX21/2914Z TN14/3006Z"
    },
    {
      "icao": "GCTS",
      "alert": "OK",
      "vis_m": 9999,
      "fzfg": false,
      "metar_trigger": false,
      "taf_trigger": false,
      "metar": "METAR GCTS 291100Z 12005KT 050V170 9999 FEW040 20/12 Q1022 NOSIG",
      "taf": "TAF GCTS 290800Z 2909/3009 16005KT 9999 SCT035 TX23/2914Z TN16/3006Z"
    },
    {
      "icao": "GMAD",
      "alert": "OK",
      "vis_m": 9999,
      "fzfg": false,
      "metar_trigger": false,
      "taf_trigger": false,
      "metar": "METAR GMAD 291100Z 03005KT 350V070 9999 FEW020 SCT200 15/13 Q1021 NOSIG",
      "taf": "TAF GMAD 291100Z 2912/3018 26010KT 8000 SCT020 SCT080"
    },
    {
      "icao": "GMMN",
      "alert": "OK",
      "vis_m": 9999,
      "fzfg": false,
      "metar_trigger": false,
      "taf_trigger": false,
      "metar": "METAR GMMN 291100Z 23011KT 9999 SCT026 14/12 Q1021 NOSIG",
      "taf": "TAF GMMN 290500Z 2906/3012 22008KT 9999 SCT004 BKN023"
    },
    {
      "icao": "GMMX",
      "alert": "OK",
      "vis_m": 9999,
      "fzfg": false,
      "metar_trigger": false,
      "taf_trigger": false,
      "metar": "METAR GMMX 291100Z 10003KT 360V170 9999 FEW030 BKN200 14/09 Q1021 NOSIG",
      "taf": "TAF GMMX 290500Z 2906/3012 20006KT 8000 SCT026 SCT090"
    },
    {
      "icao": "HEGN",
      "alert": "OK",
      "vis_m": 9999,
      "fzfg": false,
      "metar_trigger": false,
      "taf_trigger": false,
      "metar": "METAR HEGN 291100Z 36010KT CAVOK 21/09 Q1016 NOSIG",
      "taf": "TAF HEGN 291100Z 2912/3018 35014KT CAVOK"
    },
    {
      "icao": "HEMA",
      "alert": "OK",
      "vis_m": 9999,
      "fzfg": false,
      "metar_trigger": false,
      "taf_trigger": false,
      "metar": "METAR HEMA 291100Z 02010KT CAVOK 23/11 Q1016 NOSIG",
      "taf": "TAF HEMA 291100Z 2912/3018 36015KT CAVOK"
    },
    {
      "icao": "HESH",
      "alert": "OK",
      "vis_m": 9999,
      "fzfg": false,
      "metar_trigger": false,
      "taf_trigger": false,
      "metar": "METAR HESH 291100Z 03006KT CAVOK 24/09 Q1016 NOSIG",
      "taf": "TAF HESH 291100Z 2912/3018 02010KT CAVOK"
    },
    {
      "icao": "HESX",
      "alert": "OK",
      "vis_m": 9999,
      "fzfg": false,
      "metar_trigger": false,
      "taf_trigger": false,
      "metar": "METAR HESX 291100Z 28015KT 9999 SCT030 19/08 Q1016 NOSIG",
      "taf": "TAF HESX 291100Z 2912/3018 30015KT 9999 FEW030"
    },
    {
      "icao": "LATI",
      "alert": "OK",
      "vis_m": 9999,
      "fzfg": false,
      "metar_trigger": false,
      "taf_trigger": false,
      "metar": "METAR LATI 291050Z VRB03KT CAVOK 11/M01 Q1019 NOSIG",
      "taf": "TAF LATI 291100Z 2912/3012 VRB05KT CAVOK TX13/2912Z TNM02/3005Z"
    },
    {
      "icao": "LBPD",
      "alert": "OK",
      "vis_m": 9999,
      "fzfg": false,
      "metar_trigger": false,
      "taf_trigger": false,
      "metar": "METAR LBPD 291100Z AUTO 29022KT 9999 NCD 10/M07 Q1014 NOSIG",
      "taf": "TAF LBPD 291100Z 2912/3012 28016KT CAVOK"
    },
    {
      "icao": "LBSF",
      "alert": "OK",
      "vis_m": 9999,
      "fzfg": false,
      "metar_trigger": false,
      "taf_trigger": false,
      "metar": "METAR LBSF 291100Z 30012KT CAVOK 03/M07 Q1017 NOSIG",
      "taf": "TAF LBSF 291100Z 2912/3012 29012KT CAVOK"
    },
    {
      "icao": "LBWN",
      "alert": "OK",
      "vis_m": 9999,
      "fzfg": false,
      "metar_trigger": false,
      "taf_trigger": false,
      "metar": "METAR LBWN 291100Z 25016KT 9999 FEW032 05/M02 Q1014 NOSIG",
      "taf": "TAF LBWN 291100Z 2912/3012 27018KT CAVOK"
    },
    {
      "icao": "LCLK",
      "alert": "OK",
      "vis_m": 9999,
      "fzfg": false,
      "metar_trigger": false,
      "taf_trigger": false,
      "metar": "METAR LCLK 291100Z 03012KT 9999 FEW025 16/05 Q1009 NOSIG",
      "taf": "TAF LCLK 290530Z 2906/3006 36012KT 9999 FEW030"
    },
    {
      "icao": "LCPH",
      "alert": "OK",
      "vis_m": 9999,
      "fzfg": false,
      "metar_trigger": false,
      "taf_trigger": false,
      "metar": "METAR LCPH 291100Z 33015KT 9999 FEW025 17/04 Q1010 NOSIG",
      "taf": "TAF LCPH 290530Z 2906/3006 33017KT 9999 FEW030"
    },
    {
      "icao": "LEAL",
      "alert": "OK",
      "vis_m": 9999,
      "fzfg": false,
      "metar_trigger": false,
      "taf_trigger": false,
      "metar": "METAR LEAL 291100Z VRB03KT 9999 SCT036 17/08 Q1019 NOSIG",
      "taf": ""
    },
    {
      "icao": "LEBB",
      "alert": "OK",
      "vis_m": 9999,
      "fzfg": false,
      "metar_trigger": false,
      "taf_trigger": false,
      "metar": "METAR LEBB 291100Z VRB01KT CAVOK 14/09 Q1020 NOSIG",
      "taf": "TAF LEBB 290500Z 2906/3006 11008KT 9999 FEW040 TX15/2914Z TN04/2908Z"
    },
    {
      "icao": "LEBL",
      "alert": "OK",
      "vis_m": 9999,
      "fzfg": false,
      "metar_trigger": false,
      "taf_trigger": false,
      "metar": "METAR LEBL 291100Z 02006KT 9999 SCT017 SCT035 BKN055 12/10 Q1020 NOSIG",
      "taf": "TAF LEBL 290500Z 2906/3006 34006KT 9999 SCT025 TX15/2912Z TN08/2907Z"
    },
    {
      "icao": "LECH",
      "alert": "OK",
      "vis_m": 9000,
      "fzfg": false,
      "metar_trigger": false,
      "taf_trigger": false,
      "metar": "METAR LECH 291100Z AUTO VRB01KT 9000 SCT042 BKN060 09/08 Q1020",
      "taf": ""
    },
    {
      "icao": "LEMD",
      "alert": "OK",
      "vis_m": 9999,
      "fzfg": false,
      "metar_trigger": false,
      "taf_trigger": false,
      "metar": "METAR LEMD 291100Z 04002KT 9999 BKN050 08/04 Q1020 NOSIG",
      "taf": "TAF LEMD 290500Z 2906/3012 VRB04KT 9999 SCT040 TX11/2915Z TNM01/3007Z"
    },
    {
      "icao": "LEMG",
      "alert": "OK",
      "vis_m": 9999,
      "fzfg": false,
      "metar_trigger": false,
      "taf_trigger": false,
      "metar": "METAR LEMG 291100Z 30005KT 9999 FEW030 14/11 Q1019 NOSIG",
      "taf": "TAF LEMG 290500Z 2906/3006 29006KT CAVOK TX16/2914Z TN09/2906Z"
    },
    {
      "icao": "LEVC",
      "alert": "OK",
      "vis_m": 9999,
      "fzfg": false,
      "metar_trigger": false,
      "taf_trigger": false,
      "metar": "METAR LEVC 291100Z VRB02KT 9999 FEW028 SCT035 11/07 Q1020 NOSIG",
      "taf": "TAF LEVC 290500Z 2906/3006 31006KT 9999 SCT050 TX15/2913Z TN06/2906Z"
    },
    {
      "icao": "LEXJ",
      "alert": "OK",
      "vis_m": 9999,
      "fzfg": false,
      "metar_trigger": false,
      "taf_trigger": false,
      "metar": "METAR LEXJ 291100Z VRB02KT CAVOK 11/07 Q1020",
      "taf": ""
    },
    {
      "icao": "LEZG",
      "alert": "OK",
      "vis_m": 600,
      "fzfg": false,
      "metar_trigger": false,
      "taf_trigger": false,
      "metar": "METAR LEZG 291100Z 29004KT 240V350 0600 R30R/0700N R12R/0550N R30L/0650N R12L/0550N FG VV002 07/07 Q1021 BECMG 2000 BR BKN005",
      "taf": ""
    },
    {
      "icao": "LEZL",
      "alert": "OK",
      "vis_m": 9999,
      "fzfg": false,
      "metar_trigger": false,
      "taf_trigger": false,
      "metar": "METAR LEZL 291100Z 06005KT 030V100 CAVOK 13/09 Q1020 NOSIG",
      "taf": "TAF LEZL 290800Z 2909/3009 03005KT CAVOK TX16/2915Z TN06/3006Z"
    },
    {
      "icao": "LFBD",
      "alert": "OK",
      "vis_m": 9999,
      "fzfg": false,
      "metar_trigger": false,
      "taf_trigger": false,
      "metar": "METAR LFBD 291100Z AUTO VRB03KT CAVOK 06/02 Q1021 NOSIG",
      "taf": "TAF LFBD 290500Z 2906/3012 06005KT CAVOK TX11/2913Z TN00/2906Z"
    },
    {
      "icao": "LFLL",
      "alert": "OK",
      "vis_m": 6000,
      "fzfg": false,
      "metar_trigger": false,
      "taf_trigger": false,
      "metar": "METAR LFLL 291100Z VRB03KT 6000 OVC006 00/M01 Q1022 NOSIG",
      "taf": "TAF LFLL 290500Z 2906/3012 VRB03KT 7000 OVC008"
    },
    {
      "icao": "LFLS",
      "alert": "OK",
      "vis_m": 9999,
      "fzfg": false,
      "metar_trigger": false,
      "taf_trigger": false,
      "metar": "METAR LFLS 291100Z AUTO 10004KT 070V140 CAVOK 01/M01 Q1021",
      "taf": ""
    },
    {
      "icao": "LFMN",
      "alert": "OK",
      "vis_m": 9999,
      "fzfg": false,
      "metar_trigger": false,
      "taf_trigger": false,
      "metar": "METAR LFMN 291100Z 33009KT CAVOK 12/M02 Q1020 NOSIG",
      "taf": "TAF LFMN 290800Z 2909/3015 34012KT CAVOK"
    },
    {
      "icao": "LFOB",
      "alert": "OK",
      "vis_m": 7000,
      "fzfg": false,
      "metar_trigger": false,
      "taf_trigger": false,
      "metar": "METAR LFOB 291100Z AUTO 04011KT 7000 FEW008 M01/M02 Q1026",
      "taf": ""
    },
    {
      "icao": "LFPO",
      "alert": "OK",
      "vis_m": 9999,
      "fzfg": false,
      "metar_trigger": false,
      "taf_trigger": false,
      "metar": "METAR LFPO 291100Z 05008KT 020V080 CAVOK 01/M04 Q1025 NOSIG",
      "taf": "TAF LFPO 290500Z 2906/3012 01005KT CAVOK"
    },
    {
      "icao": "LFSB",
      "alert": "OK",
      "vis_m": 8000,
      "fzfg": false,
      "metar_trigger": false,
      "taf_trigger": false,
      "metar": "METAR LFSB 291100Z AUTO VRB02KT 8000 FEW015 M01/M01 Q1022 NOSIG",
      "taf": ""
    },
    {
      "icao": "LGAV",
      "alert": "OK",
      "vis_m": 9999,
      "fzfg": false,
      "metar_trigger": false,
      "taf_trigger": false,
      "metar": "METAR LGAV 291050Z VRB02KT 9999 FEW025 13/02 Q1018 NOSIG",
      "taf": "TAF LGAV 291100Z 2912/3012 VRB05KT 9999 FEW020"
    },
    {
      "icao": "LGTS",
      "alert": "OK",
      "vis_m": 9999,
      "fzfg": false,
      "metar_trigger": false,
      "taf_trigger": false,
      "metar": "METAR LGTS 291050Z 32017KT CAVOK 10/M04 Q1018 NOSIG",
      "taf": "TAF LGTS 291100Z 2912/3012 33015KT CAVOK"
    },
    {
      "icao": "LHBP",
      "alert": "OK",
      "vis_m": 9999,
      "fzfg": false,
      "metar_trigger": false,
      "taf_trigger": false,
      "metar": "METAR LHBP 291100Z 29015KT CAVOK 04/M08 Q1016 NOSIG",
      "taf": "TAF LHBP 290515Z 2906/3006 28009KT CAVOK"
    },
    {
      "icao": "LHDC",
      "alert": "OK",
      "vis_m": 9999,
      "fzfg": false,
      "metar_trigger": false,
      "taf_trigger": false,
      "metar": "METAR LHDC 291045Z AUTO 19013KT 9999 SCT012 00/M03 Q1015 NOSIG",
      "taf": "TAF LHDC 290815Z 2909/2918 18010KT CAVOK"
    },
    {
      "icao": "LIBD",
      "alert": "OK",
      "vis_m": 9999,
      "fzfg": false,
      "metar_trigger": false,
      "taf_trigger": false,
      "metar": "METAR LIBD 291050Z 28005KT 250V320 CAVOK 13/05 Q1020",
      "taf": "TAF LIBD 290500Z 2906/3006 28012KT CAVOK"
    },
    {
      "icao": "LIBG",
      "alert": "OK",
      "vis_m": 9999,
      "fzfg": false,
      "metar_trigger": false,
      "taf_trigger": false,
      "metar": "METAR LIBG 290950Z 26005KT 220V310 CAVOK 12/09 Q1020",
      "taf": "TAF LIBG 290800Z 2909/2918 33010KT CAVOK"
    },
    {
      "icao": "LIBP",
      "alert": "OK",
      "vis_m": 9999,
      "fzfg": false,
      "metar_trigger": false,
      "taf_trigger": false,
      "metar": "METAR LIBP 291050Z AUTO VRB02KT 9999 NCD 12/03 Q1020",
      "taf": "TAF LIBP 290500Z 2906/3006 VRB05KT CAVOK"
    },
    {
      "icao": "LIBR",
      "alert": "OK",
      "vis_m": 9999,
      "fzfg": false,
      "metar_trigger": false,
      "taf_trigger": false,
      "metar": "METAR LIBR 291050Z 34011KT 9999 FEW015 13/09 Q1019",
      "taf": "TAF LIBR 290500Z 2906/3006 33015KT CAVOK"
    },
    {
      "icao": "LICA",
      "alert": "OK",
      "vis_m": 9999,
      "fzfg": false,
      "metar_trigger": false,
      "taf_trigger": false,
      "metar": "METAR LICA 291050Z AUTO 29004KT 260V320 9999 NCD 16/09 Q1020",
      "taf": "TAF LICA 290500Z 2906/3006 07006KT 9999 FEW030"
    },
    {
      "icao": "LICC",
      "alert": "OK",
      "vis_m": 9999,
      "fzfg": false,
      "metar_trigger": false,
      "taf_trigger": false,
      "metar": "METAR LICC 291050Z 23007KT 9999 SCT100 12/09 Q1020",
      "taf": "TAF LICC 290500Z 2906/3006 VRB05KT 9999 FEW040"
    },
    {
      "icao": "LICJ",
      "alert": "OK",
      "vis_m": 9999,
      "fzfg": false,
      "metar_trigger": false,
      "taf_trigger": false,
      "metar": "METAR LICJ 291050Z 20003KT 160V230 CAVOK 14/08 Q1020",
      "taf": "TAF LICJ 290500Z 2906/3006 VRB05KT CAVOK"
    },
    {
      "icao": "LIMC",
      "alert": "OK",
      "vis_m": 9999,
      "fzfg": false,
      "metar_trigger": false,
      "taf_trigger": false,
      "metar": "METAR LIMC 291050Z 28005KT 240V310 CAVOK 08/03 Q1020 NOSIG",
      "taf": "TAF LIMC 290500Z 2906/3012 VRB04KT CAVOK"
    },
    {
      "icao": "LIME",
      "alert": "OK",
      "vis_m": 9999,
      "fzfg": false,
      "metar_trigger": false,
      "taf_trigger": false,
      "metar": "METAR LIME 291050Z 24003KT 210V270 CAVOK 08/M00 Q1019 NOSIG",
      "taf": "TAF LIME 290500Z 2906/3006 VRB05KT CAVOK"
    },
    {
      "icao": "LIMF",
      "alert": "OK",
      "vis_m": 9999,
      "fzfg": false,
      "metar_trigger": false,
      "taf_trigger": false,
      "metar": "METAR LIMF 291050Z VRB02KT CAVOK 08/M01 Q1020",
      "taf": "TAF LIMF 290500Z 2906/3006 VRB05KT CAVOK"
    },
    {
      "icao": "LIMJ",
      "alert": "OK",
      "vis_m": 9999,
      "fzfg": false,
      "metar_trigger": false,
      "taf_trigger": false,
      "metar": "METAR LIMJ 291050Z 36005KT 320V030 CAVOK 15/M02 Q1020",
      "taf": "TAF LIMJ 290500Z 2906/3006 01015KT CAVOK"
    },
    {
      "icao": "LIPE",
      "alert": "OK",
      "vis_m": 9999,
      "fzfg": false,
      "metar_trigger": false,
      "taf_trigger": false,
      "metar": "METAR LIPE 291050Z 27006KT CAVOK 07/04 Q1020",
      "taf": "TAF LIPE 290500Z 2906/3006 VRB06KT 6000 NSC"
    },
    {
      "icao": "LIPH",
      "alert": "OK",
      "vis_m": 8000,
      "fzfg": false,
      "metar_trigger": false,
      "taf_trigger": false,
      "metar": "METAR LIPH 291050Z 19003KT 8000 NSC 05/02 Q1020",
      "taf": ""
    },
    {
      "icao": "LIPQ",
      "alert": "OK",
      "vis_m": 9999,
      "fzfg": false,
      "metar_trigger": false,
      "taf_trigger": false,
      "metar": "METAR LIPQ 291050Z AUTO VRB01KT 9999 NCD 11/02 Q1019",
      "taf": "TAF LIPQ 290500Z 2906/3006 VRB05KT CAVOK"
    },
    {
      "icao": "LIPR",
      "alert": "OK",
      "vis_m": 9999,
      "fzfg": false,
      "metar_trigger": false,
      "taf_trigger": false,
      "metar": "METAR LIPR 291050Z 32005KT 290V360 CAVOK 08/03 Q1020",
      "taf": "TAF LIPR 290500Z 2906/3006 VRB05KT CAVOK"
    },
    {
      "icao": "LIPX",
      "alert": "OK",
      "vis_m": 200,
      "fzfg": true,
      "metar_trigger": false,
      "taf_trigger": false,
      "metar": "METAR LIPX 291050Z 11003KT 070V140 0200 R04/0400N FZFG VV002 M00/M00 Q1020",
      "taf": ""
    },
    {
      "icao": "LIPY",
      "alert": "OK",
      "vis_m": 9999,
      "fzfg": false,
      "metar_trigger": false,
      "taf_trigger": false,
      "metar": "METAR LIPY 291050Z AUTO 35006KT 9999 NCD 08/04 Q1020",
      "taf": "TAF LIPY 290500Z 2906/3006 VRB05KT CAVOK"
    },
    {
      "icao": "LIPZ",
      "alert": "OK",
      "vis_m": 8000,
      "fzfg": false,
      "metar_trigger": false,
      "taf_trigger": false,
      "metar": "METAR LIPZ 291050Z 22006KT 8000 0700S PRFG FEW001 02/02 Q1020 BECMG 0800 FG",
      "taf": "TAF LIPZ 290500Z 2906/3012 VRB05KT CAVOK"
    },
    {
      "icao": "LIRF",
      "alert": "OK",
      "vis_m": 9999,
      "fzfg": false,
      "metar_trigger": false,
      "taf_trigger": false,
      "metar": "METAR LIRF 291050Z 08005KT 050V110 CAVOK 11/04 Q1020 NOSIG",
      "taf": "TAF LIRF 290500Z 2906/3012 07006KT CAVOK"
    },
    {
      "icao": "LIRN",
      "alert": "OK",
      "vis_m": 9999,
      "fzfg": false,
      "metar_trigger": false,
      "taf_trigger": false,
      "metar": "METAR LIRN 291050Z 07003KT 360V120 CAVOK 13/04 Q1020 NOSIG",
      "taf": "TAF LIRN 290500Z 2906/3006 VRB05KT CAVOK"
    },
    {
      "icao": "LIRP",
      "alert": "OK",
      "vis_m": 9999,
      "fzfg": false,
      "metar_trigger": false,
      "taf_trigger": false,
      "metar": "METAR LIRP 291045Z 14004KT CAVOK 09/03 Q1020 NOSIG",
      "taf": "TAF LIRP 290500Z 2906/3006 12005KT CAVOK"
    },
    {
      "icao": "LIRZ",
      "alert": "OK",
      "vis_m": 9999,
      "fzfg": false,
      "metar_trigger": false,
      "taf_trigger": false,
      "metar": "METAR LIRZ 291050Z AUTO VRB02KT 9999 NCD 05/01 Q1020",
      "taf": "TAF LIRZ 290500Z 2906/3006 VRB05KT 8000 NSC"
    },
    {
      "icao": "LJLJ",
      "alert": "OK",
      "vis_m": 8000,
      "fzfg": false,
      "metar_trigger": false,
      "taf_trigger": false,
      "metar": "METAR LJLJ 291100Z 03001KT 8000 OVC003 M01/M02 Q1018 BECMG FEW003 SCT008",
      "taf": "TAF LJLJ 291100Z 2912/3012 VRB02KT 9999 SCT010"
    },
    {
      "icao": "LKMT",
      "alert": "OK",
      "vis_m": 9999,
      "fzfg": false,
      "metar_trigger": false,
      "taf_trigger": false,
      "metar": "METAR LKMT 291100Z 25006KT 9999 SCT022 BKN027 M02/M03 Q1017 NOSIG",
      "taf": "TAF LKMT 290500Z 2906/3006 23008KT CAVOK"
    },
    {
      "icao": "LKPR",
      "alert": "OK",
      "vis_m": 9999,
      "fzfg": false,
      "metar_trigger": false,
      "taf_trigger": false,
      "metar": "METAR LKPR 291100Z 23008KT 9999 BKN022 01/M03 Q1018 NOSIG",
      "taf": "TAF LKPR 290800Z 2909/3015 24008KT 9999 SCT015"
    },
    {
      "icao": "LLBG",
      "alert": "OK",
      "vis_m": 9999,
      "fzfg": false,
      "metar_trigger": false,
      "taf_trigger": false,
      "metar": "METAR LLBG 291050Z 27006KT 200V310 9999 FEW010 FEW015TCU SCT020 BKN035 16/14 Q1010 RETS RESHRA TEMPO 27015G25KT 7000 RA FEW025TCU BKN030",
      "taf": "TAF LLBG 290505Z 2906/3006 21012KT 9999 SCT030 BKN040"
    },
    {
      "icao": "LMML",
      "alert": "OK",
      "vis_m": 9999,
      "fzfg": false,
      "metar_trigger": false,
      "taf_trigger": false,
      "metar": "METAR LMML 291045Z 16005KT 130V210 9999 FEW018TCU 16/12 Q1020 NOSIG",
      "taf": "TAF LMML 291100Z 2912/3012 VRB05KT 9999 SCT018"
    },
    {
      "icao": "LOWW",
      "alert": "OK",
      "vis_m": 9999,
      "fzfg": false,
      "metar_trigger": false,
      "taf_trigger": false,
      "metar": "METAR LOWW 291050Z 03006KT 350V080 CAVOK 01/M04 Q1017 BECMG FM1145 32010KT",
      "taf": "TAF LOWW 290815Z 2909/3015 30010KT CAVOK TX04/2913Z TNM01/2909Z"
    },
    {
      "icao": "LPFR",
      "alert": "OK",
      "vis_m": 9999,
      "fzfg": false,
      "metar_trigger": false,
      "taf_trigger": false,
      "metar": "METAR LPFR 291100Z 15003KT CAVOK 13/09 Q1020",
      "taf": "TAF LPFR 291100Z 2912/3012 16005KT CAVOK"
    },
    {
      "icao": "LPMA",
      "alert": "OK",
      "vis_m": 9999,
      "fzfg": false,
      "metar_trigger": false,
      "taf_trigger": false,
      "metar": "METAR LPMA 291100Z 22014KT 9999 SCT016 18/11 Q1020",
      "taf": "TAF LPMA 291100Z 2912/3012 21015KT 9999 SCT015 BKN030"
    },
    {
      "icao": "LPPR",
      "alert": "OK",
      "vis_m": 9999,
      "fzfg": false,
      "metar_trigger": false,
      "taf_trigger": false,
      "metar": "METAR LPPR 291100Z VRB02KT CAVOK 12/07 Q1021",
      "taf": "TAF LPPR 291100Z 2912/3012 08005KT CAVOK"
    },
    {
      "icao": "LPPS",
      "alert": "OK",
      "vis_m": 9999,
      "fzfg": false,
      "metar_trigger": false,
      "taf_trigger": false,
      "metar": "METAR LPPS 291100Z 17013KT 9999 FEW014 18/12 Q1020",
      "taf": "TAF LPPS 291100Z 2912/3018 17012KT 9999 SCT015"
    },
    {
      "icao": "LPPT",
      "alert": "OK",
      "vis_m": 9999,
      "fzfg": false,
      "metar_trigger": false,
      "taf_trigger": false,
      "metar": "METAR LPPT 291100Z 06007KT 350V090 CAVOK 10/07 Q1020",
      "taf": "TAF LPPT 291100Z 2912/3018 06007KT CAVOK"
    },
    {
      "icao": "LQBK",
      "alert": "OK",
      "vis_m": 5000,
      "fzfg": false,
      "metar_trigger": false,
      "taf_trigger": false,
      "metar": "METAR LQBK 291100Z VRB01KT 5000 BR FEW002 M02/M03 Q1019 NOSIG",
      "taf": "TAF LQBK 291100Z 2912/3012 20004KT 7000 FEW003 TX04/2913Z TNM04/3006Z"
    },
    {
      "icao": "LQSA",
      "alert": "OK",
      "vis_m": 9999,
      "fzfg": false,
      "metar_trigger": false,
      "taf_trigger": false,
      "metar": "METAR LQSA 291100Z VRB02KT CAVOK M00/M05 Q1020 NOSIG",
      "taf": "TAF LQSA 291100Z 2912/3012 VRB02KT CAVOK TX04/2913Z TNM05/3006Z"
    },
    {
      "icao": "LQTZ",
      "alert": "OK",
      "vis_m": 9999,
      "fzfg": false,
      "metar_trigger": false,
      "taf_trigger": false,
      "metar": "METAR LQTZ 291100Z VRB02KT CAVOK 03/M02 Q1019",
      "taf": "TAF LQTZ 291100Z 2912/3012 VRB02KT CAVOK TX05/2913Z TNM05/3005Z"
    },
    {
      "icao": "LRBC",
      "alert": "OK",
      "vis_m": 9999,
      "fzfg": false,
      "metar_trigger": false,
      "taf_trigger": false,
      "metar": "METAR LRBC 291100Z 31012KT 9999 SCT058 06/M07 Q1010",
      "taf": "TAF LRBC 290800Z 2909/2918 27007KT 9999 BKN055"
    },
    {
      "icao": "LRBS",
      "alert": "OK",
      "vis_m": 9999,
      "fzfg": false,
      "metar_trigger": false,
      "taf_trigger": false,
      "metar": "METAR LRBS 291100Z 27010KT 240V320 CAVOK 05/M04 Q1013 NOSIG",
      "taf": "TAF LRBS 290500Z 2906/3006 26012KT CAVOK"
    },
    {
      "icao": "LRBV",
      "alert": "OK",
      "vis_m": 9999,
      "fzfg": false,
      "metar_trigger": false,
      "taf_trigger": false,
      "metar": "METAR LRBV 291100Z 30017KT 9999 FEW045 01/M07 Q1011",
      "taf": "TAF LRBV 290800Z 2909/2918 29016KT 9999 SCT035"
    },
    {
      "icao": "LRCL",
      "alert": "OK",
      "vis_m": 9999,
      "fzfg": false,
      "metar_trigger": false,
      "taf_trigger": false,
      "metar": "METAR LRCL 291100Z VRB02KT CAVOK 02/M06 Q1013",
      "taf": "TAF LRCL 290800Z 2909/2918 26006KT CAVOK"
    },
    {
      "icao": "LRCV",
      "alert": "OK",
      "vis_m": 9999,
      "fzfg": false,
      "metar_trigger": false,
      "taf_trigger": false,
      "metar": "METAR LRCV 291100Z 28024KT CAVOK 02/M03 Q1014",
      "taf": "TAF LRCV 290800Z 2909/2918 28018KT CAVOK"
    },
    {
      "icao": "LRIA",
      "alert": "OK",
      "vis_m": 9999,
      "fzfg": false,
      "metar_trigger": false,
      "taf_trigger": false,
      "metar": "METAR LRIA 291100Z 31017KT 280V340 9999 FEW032 BKN042 03/M04 Q1009",
      "taf": "TAF LRIA 290800Z 2909/2918 31012KT CAVOK"
    },
    {
      "icao": "LROP",
      "alert": "OK",
      "vis_m": 9999,
      "fzfg": false,
      "metar_trigger": false,
      "taf_trigger": false,
      "metar": "METAR LROP 291100Z 25011KT CAVOK 05/M07 Q1013 NOSIG",
      "taf": "TAF LROP 290500Z 2906/3006 25012KT CAVOK"
    },
    {
      "icao": "LRSB",
      "alert": "OK",
      "vis_m": 9999,
      "fzfg": false,
      "metar_trigger": false,
      "taf_trigger": false,
      "metar": "METAR LRSB 291100Z 31011KT CAVOK 01/M06 Q1013",
      "taf": "TAF LRSB 290500Z 2906/3006 31012KT 9999 SCT050"
    },
    {
      "icao": "LRSM",
      "alert": "OK",
      "vis_m": 9999,
      "fzfg": false,
      "metar_trigger": false,
      "taf_trigger": false,
      "metar": "METAR LRSM 291100Z 26016KT 9999 BKN017 00/M04 Q1015",
      "taf": "TAF LRSM 290800Z 2909/2918 25012KT CAVOK"
    },
    {
      "icao": "LRSV",
      "alert": "OK",
      "vis_m": 9999,
      "fzfg": false,
      "metar_trigger": false,
      "taf_trigger": false,
      "metar": "METAR LRSV 291100Z 30007KT CAVOK 01/M06 Q1008",
      "taf": "TAF LRSV 290800Z 2909/2918 31013KT 9999 BKN030"
    },
    {
      "icao": "LRTM",
      "alert": "OK",
      "vis_m": 9999,
      "fzfg": false,
      "metar_trigger": false,
      "taf_trigger": false,
      "metar": "METAR LRTM 291100Z 22011KT 9999 FEW025 02/M06 Q1014",
      "taf": "TAF LRTM 290800Z 2909/2918 24012KT CAVOK"
    },
    {
      "icao": "LRTR",
      "alert": "OK",
      "vis_m": 9999,
      "fzfg": false,
      "metar_trigger": false,
      "taf_trigger": false,
      "metar": "METAR LRTR 291100Z 20008KT 9999 FEW022 02/M03 Q1018",
      "taf": "TAF LRTR 290500Z 2906/3006 VRB04KT CAVOK"
    },
    {
      "icao": "LTAC",
      "alert": "OK",
      "vis_m": 9999,
      "fzfg": false,
      "metar_trigger": false,
      "taf_trigger": false,
      "metar": "METAR LTAC 291050Z 26017KT 9999 SCT025 BKN100 00/M07 Q1008 NOSIG RMK RWY21C 26015KT RWY03L 25016KT RWY21R 25015KT RWY03R 24018KT RWY21L 25016KT",
      "taf": "TAF LTAC 291040Z 2912/3012 23012KT 9999 SCT035 SCT090"
    },
    {
      "icao": "LTFM",
      "alert": "OK",
      "vis_m": 9999,
      "fzfg": false,
      "metar_trigger": false,
      "taf_trigger": false,
      "metar": "METAR LTFM 291050Z 31012KT 9999 FEW030 06/M06 Q1016 NOSIG RMK RWY17L 29014KT RWY34L 31010G25KT RWY16R 30011KT RWY36 31012KT RWY18 31012KT",
      "taf": "TAF LTFM 291040Z 2912/3018 29014KT 9999 SCT030"
    },
    {
      "icao": "LUKK",
      "alert": "OK",
      "vis_m": 9999,
      "fzfg": false,
      "metar_trigger": false,
      "taf_trigger": false,
      "metar": "METAR LUKK 291100Z 33018G35KT 290V360 9999 FEW035 02/M04 Q1007 TEMPO 33022G36KT",
      "taf": "TAF LUKK 291113Z 2912/3012 29012KT 9999 SCT035"
    },
    {
      "icao": "LWOH",
      "alert": "OK",
      "vis_m": null,
      "fzfg": false,
      "metar_trigger": false,
      "taf_trigger": false,
      "metar": "",
      "taf": "TAF LWOH 290830Z 2909/3009 33005KT CAVOK"
    },
    {
      "icao": "LWSK",
      "alert": "OK",
      "vis_m": 9999,
      "fzfg": false,
      "metar_trigger": false,
      "taf_trigger": false,
      "metar": "METAR LWSK 291050Z VRB02KT CAVOK 06/M05 Q1021 NOSIG",
      "taf": "TAF LWSK 290830Z 2909/3009 35008KT CAVOK"
    },
    {
      "icao": "LYBE",
      "alert": "OK",
      "vis_m": 9999,
      "fzfg": false,
      "metar_trigger": false,
      "taf_trigger": false,
      "metar": "METAR LYBE 291100Z 24006KT CAVOK 05/M04 Q1019 NOSIG",
      "taf": "TAF LYBE 290500Z 2906/3006 24007KT CAVOK TX06/2912Z TNM04/3006Z"
    },
    {
      "icao": "LYNI",
      "alert": "OK",
      "vis_m": 9999,
      "fzfg": false,
      "metar_trigger": false,
      "taf_trigger": false,
      "metar": "METAR LYNI 291100Z VRB05KT CAVOK 04/M05 Q1020 NOSIG",
      "taf": "TAF LYNI 290500Z 2906/3006 20004KT CAVOK TX06/2912Z TNM05/3006Z"
    },
    {
      "icao": "LYPG",
      "alert": "OK",
      "vis_m": 9999,
      "fzfg": false,
      "metar_trigger": false,
      "taf_trigger": false,
      "metar": "METAR LYPG 291100Z VRB01KT CAVOK 09/M09 Q1019 NOSIG",
      "taf": "TAF LYPG 290500Z 2906/3006 16005KT CAVOK TX12/2913Z TNM01/3005Z"
    },
    {
      "icao": "LZIB",
      "alert": "OK",
      "vis_m": 9999,
      "fzfg": false,
      "metar_trigger": false,
      "taf_trigger": false,
      "metar": "METAR LZIB 291100Z 30017KT CAVOK 05/M11 Q1017 NOSIG",
      "taf": "TAF LZIB 291115Z 2912/3012 30009KT CAVOK"
    },
    {
      "icao": "LZKZ",
      "alert": "OK",
      "vis_m": 9999,
      "fzfg": false,
      "metar_trigger": false,
      "taf_trigger": false,
      "metar": "METAR LZKZ 291100Z VRB03KT CAVOK 00/M06 Q1013 NOSIG",
      "taf": "TAF LZKZ 291115Z 2912/3012 VRB02KT CAVOK"
    },
    {
      "icao": "LZTT",
      "alert": "OK",
      "vis_m": 9999,
      "fzfg": false,
      "metar_trigger": false,
      "taf_trigger": false,
      "metar": "METAR LZTT 291100Z 25014KT CAVOK 01/M12 Q1010 TEMPO 14005KT",
      "taf": "TAF LZTT 291115Z 2912/3012 23008KT CAVOK"
    },
    {
      "icao": "OEJN",
      "alert": "OK",
      "vis_m": 9999,
      "fzfg": false,
      "metar_trigger": false,
      "taf_trigger": false,
      "metar": "METAR OEJN 291100Z 28007KT CAVOK 28/17 Q1013 NOSIG",
      "taf": "TAF OEJN 290500Z 2906/3012 30012KT CAVOK"
    },
    {
      "icao": "OEMA",
      "alert": "OK",
      "vis_m": 9999,
      "fzfg": false,
      "metar_trigger": false,
      "taf_trigger": false,
      "metar": "METAR OEMA 291100Z 18006KT CAVOK 23/M01 Q1016 NOSIG",
      "taf": "TAF OEMA 290500Z 2906/3012 28018KT 7000 NSC"
    },
    {
      "icao": "OJAI",
      "alert": "OK",
      "vis_m": 2500,
      "fzfg": false,
      "metar_trigger": false,
      "taf_trigger": false,
      "metar": "METAR OJAI 291100Z 23026KT 2500 RA SCT025 SCT030 10/08 Q1011 NOSIG",
      "taf": "TAF OJAI 291036Z 2912/3018 26025G35KT 3000 RA BR FEW008 SCT020TCU BKN030"
    },
    {
      "icao": "OMAA",
      "alert": "OK",
      "vis_m": 9999,
      "fzfg": false,
      "metar_trigger": false,
      "taf_trigger": false,
      "metar": "METAR OMAA 291100Z 29012KT 9999 FEW045 28/15 Q1010 NOSIG",
      "taf": "TAF OMAA 291100Z 2912/3018 32011KT 8000 NSC"
    },
    {
      "icao": "OMDB",
      "alert": "OK",
      "vis_m": 9999,
      "fzfg": false,
      "metar_trigger": false,
      "taf_trigger": false,
      "metar": "METAR OMDB 291100Z 27012KT 180V290 CAVOK 27/17 Q1010 NOSIG",
      "taf": "TAF OMDB 291100Z 2912/3018 29013KT 8000 NSC"
    },
    {
      "icao": "UAAA",
      "alert": "OK",
      "vis_m": 4100,
      "fzfg": false,
      "metar_trigger": false,
      "taf_trigger": false,
      "metar": "METAR UAAA 291100Z VRB01MPS 4100 FU SCT100 05/M01 Q1012 NOSIG",
      "taf": "TAF UAAA 290501Z 2906/3006 05003MPS 3100 BR FU SCT050 BKN100 TX04/2909Z TNM03/3001Z"
    },
    {
      "icao": "UBBB",
      "alert": "OK",
      "vis_m": 9999,
      "fzfg": false,
      "metar_trigger": false,
      "taf_trigger": false,
      "metar": "METAR UBBB 291100Z 33010KT 9999 FEW020 08/02 Q1001 NOSIG",
      "taf": "TAF UBBB 291058Z 2912/3012 32010KT CAVOK TX08/2912Z TN02/3002Z"
    },
    {
      "icao": "UDSG",
      "alert": "OK",
      "vis_m": 9999,
      "fzfg": false,
      "metar_trigger": false,
      "taf_trigger": false,
      "metar": "METAR UDSG 291100Z 28003KT 9999 OVC030 M06/M08 Q1001 NOSIG",
      "taf": "TAF UDSG 290458Z 2906/3006 VRB06KT 5000 BR BKN030"
    },
    {
      "icao": "UDYZ",
      "alert": "OK",
      "vis_m": 9999,
      "fzfg": false,
      "metar_trigger": false,
      "taf_trigger": false,
      "metar": "METAR UDYZ 291100Z 26003KT 9999 BKN043 M02/M05 Q1003 NOSIG",
      "taf": "TAF UDYZ 290500Z 2906/3006 20006KT 9999 SCT040"
    },
    {
      "icao": "UGKO",
      "alert": "OK",
      "vis_m": 4100,
      "fzfg": false,
      "metar_trigger": false,
      "taf_trigger": false,
      "metar": "METAR UGKO 291100Z 14007KT 4100 -SHSN SCT009 BKN029CB OVC052 M00/M00 Q1004 NOSIG",
      "taf": "TAF UGKO 291100Z 2912/3012 08007KT 8000 -SN SCT015 OVC045 TX02/2923Z TNM01/2915Z"
    }
  ]
}