{
  "ts_utc": "2026-03-04T16:27:02Z",
  "threshold_m": 150,
  "source": "stations_override.txt (ICAO list) + aviationweather.gov (METAR/TAF raw)",
  "station_count": 159,
  "stations": [
    {
      "icao": "BIKF",
      "alert": "OK",
      "vis_m": 600,
      "fzfg": false,
      "metar_trigger": false,
      "taf_trigger": false,
      "metar": "METAR BIKF 041600Z 20007KT 0600 R19/0600D SHSN BKN003CB OVC014 M01/M01 Q0997 RESHSN",
      "taf": "TAF BIKF 041611Z 0418/0518 22012KT 9999 -SHSN FEW014CB BKN025 TX03/0515Z TNM03/0502Z"
    },
    {
      "icao": "BKPR",
      "alert": "OK",
      "vis_m": null,
      "fzfg": false,
      "metar_trigger": false,
      "taf_trigger": false,
      "metar": "",
      "taf": "TAF BKPR 041130Z 0412/0512 18007KT 9999 BKN050"
    },
    {
      "icao": "EBCI",
      "alert": "OK",
      "vis_m": 9999,
      "fzfg": false,
      "metar_trigger": false,
      "taf_trigger": false,
      "metar": "METAR EBCI 041620Z 05008KT CAVOK 15/06 Q1023 NOSIG",
      "taf": "TAF EBCI 041101Z 0412/0518 07006KT CAVOK"
    },
    {
      "icao": "EDDB",
      "alert": "OK",
      "vis_m": 9999,
      "fzfg": false,
      "metar_trigger": false,
      "taf_trigger": false,
      "metar": "METAR EDDB 041620Z AUTO 03005KT CAVOK 11/M04 Q1027 NOSIG",
      "taf": "TAF EDDB 041100Z 0412/0512 35005KT CAVOK"
    },
    {
      "icao": "EDDH",
      "alert": "OK",
      "vis_m": 9999,
      "fzfg": false,
      "metar_trigger": false,
      "taf_trigger": false,
      "metar": "METAR EDDH 041620Z AUTO 08005KT CAVOK 10/M01 Q1028 NOSIG",
      "taf": ""
    },
    {
      "icao": "EDDK",
      "alert": "OK",
      "vis_m": 9999,
      "fzfg": false,
      "metar_trigger": false,
      "taf_trigger": false,
      "metar": "METAR EDDK 041620Z AUTO 09004KT CAVOK 17/04 Q1024 NOSIG",
      "taf": "TAF EDDK 041100Z 0412/0518 12004KT CAVOK"
    },
    {
      "icao": "EDDN",
      "alert": "OK",
      "vis_m": 9999,
      "fzfg": false,
      "metar_trigger": false,
      "taf_trigger": false,
      "metar": "METAR EDDN 041620Z AUTO 30002KT CAVOK 14/04 Q1025 NOSIG",
      "taf": "TAF EDDN 041100Z 0412/0512 10004KT CAVOK"
    },
    {
      "icao": "EDDS",
      "alert": "OK",
      "vis_m": 9999,
      "fzfg": false,
      "metar_trigger": false,
      "taf_trigger": false,
      "metar": "METAR EDDS 041620Z AUTO 11004KT 080V140 CAVOK 14/05 Q1024 NOSIG",
      "taf": "TAF EDDS 041100Z 0412/0512 VRB03KT CAVOK"
    },
    {
      "icao": "EDFH",
      "alert": "OK",
      "vis_m": 9999,
      "fzfg": false,
      "metar_trigger": false,
      "taf_trigger": false,
      "metar": "METAR EDFH 041620Z 11008KT CAVOK 13/03 Q1025",
      "taf": "TAF EDFH 041100Z 0412/0512 14011KT CAVOK"
    },
    {
      "icao": "EDJA",
      "alert": "OK",
      "vis_m": 9999,
      "fzfg": false,
      "metar_trigger": false,
      "taf_trigger": false,
      "metar": "METAR EDJA 041620Z 06007KT CAVOK 09/03 Q1025",
      "taf": "TAF EDJA 041400Z 0415/0424 06006KT CAVOK"
    },
    {
      "icao": "EDLW",
      "alert": "OK",
      "vis_m": 9999,
      "fzfg": false,
      "metar_trigger": false,
      "taf_trigger": false,
      "metar": "METAR EDLW 041620Z 04004KT CAVOK 15/07 Q1025",
      "taf": "TAF EDLW 041100Z 0412/0512 VRB03KT CAVOK"
    },
    {
      "icao": "EDNY",
      "alert": "OK",
      "vis_m": 9999,
      "fzfg": false,
      "metar_trigger": false,
      "taf_trigger": false,
      "metar": "METAR EDNY 041620Z COR 00000KT CAVOK 11/05 Q1024",
      "taf": "TAF EDNY 041400Z 0415/0424 23005KT CAVOK"
    },
    {
      "icao": "EDSB",
      "alert": "OK",
      "vis_m": 9999,
      "fzfg": false,
      "metar_trigger": false,
      "taf_trigger": false,
      "metar": "METAR EDSB 041620Z 10005KT CAVOK 16/04 Q1024",
      "taf": "TAF EDSB 041100Z 0412/0512 VRB02KT CAVOK"
    },
    {
      "icao": "EETN",
      "alert": "OK",
      "vis_m": 9999,
      "fzfg": false,
      "metar_trigger": false,
      "taf_trigger": false,
      "metar": "METAR EETN 041620Z 26016KT 9999 BKN045 02/M01 Q1009 NOSIG",
      "taf": "TAF EETN 041130Z 0412/0512 27015KT CAVOK"
    },
    {
      "icao": "EFTU",
      "alert": "OK",
      "vis_m": 9999,
      "fzfg": false,
      "metar_trigger": false,
      "taf_trigger": false,
      "metar": "METAR EFTU 041620Z AUTO 31012G23KT 280V350 CAVOK 05/M02 Q1009",
      "taf": "TAF EFTU 041435Z 0415/0515 30015G25KT 9999 SCT045"
    },
    {
      "icao": "EGBB",
      "alert": "OK",
      "vis_m": 9999,
      "fzfg": false,
      "metar_trigger": false,
      "taf_trigger": false,
      "metar": "METAR EGBB 041620Z 14007KT CAVOK 11/08 Q1021",
      "taf": "TAF EGBB 041052Z 0412/0512 10006KT 6000 BKN008"
    },
    {
      "icao": "EGGP",
      "alert": "OK",
      "vis_m": 9999,
      "fzfg": false,
      "metar_trigger": false,
      "taf_trigger": false,
      "metar": "METAR EGGP 041620Z 14010KT CAVOK 12/07 Q1020",
      "taf": "TAF EGGP 041102Z 0412/0512 14012KT 9999 SCT030"
    },
    {
      "icao": "EGGW",
      "alert": "OK",
      "vis_m": 6000,
      "fzfg": false,
      "metar_trigger": false,
      "taf_trigger": false,
      "metar": "METAR EGGW 041620Z AUTO 10006KT 070V130 6000 NCD 10/08 Q1022",
      "taf": ""
    },
    {
      "icao": "EGKK",
      "alert": "OK",
      "vis_m": 9999,
      "fzfg": false,
      "metar_trigger": false,
      "taf_trigger": false,
      "metar": "METAR EGKK 041620Z 13007KT CAVOK 16/06 Q1021",
      "taf": ""
    },
    {
      "icao": "EGNM",
      "alert": "OK",
      "vis_m": 9999,
      "fzfg": false,
      "metar_trigger": false,
      "taf_trigger": false,
      "metar": "METAR EGNM 041620Z 12009KT CAVOK 10/06 Q1021",
      "taf": "TAF EGNM 041102Z 0412/0512 14007KT 9999 SCT030"
    },
    {
      "icao": "EGPD",
      "alert": "OK",
      "vis_m": 9999,
      "fzfg": false,
      "metar_trigger": false,
      "taf_trigger": false,
      "metar": "METAR EGPD 041620Z COR AUTO 16010KT 9999 FEW008 08/05 Q1019 NOSIG",
      "taf": "TAF EGPD 041058Z 0412/0512 17008KT 9999 FEW030"
    },
    {
      "icao": "EGPF",
      "alert": "OK",
      "vis_m": 9999,
      "fzfg": false,
      "metar_trigger": false,
      "taf_trigger": false,
      "metar": "METAR EGPF 041620Z AUTO 18006KT 140V200 9999 FEW044 12/08 Q1017",
      "taf": ""
    },
    {
      "icao": "EHBK",
      "alert": "OK",
      "vis_m": 9999,
      "fzfg": false,
      "metar_trigger": false,
      "taf_trigger": false,
      "metar": "METAR EHBK 041555Z AUTO 06007KT 9999 R03/1300D NSC 16/08 Q1024 NOSIG",
      "taf": "TAF EHBK 041059Z 0412/0518 06003KT CAVOK"
    },
    {
      "icao": "EHEH",
      "alert": "OK",
      "vis_m": 9999,
      "fzfg": false,
      "metar_trigger": false,
      "taf_trigger": false,
      "metar": "METAR EHEH 041555Z AUTO 07006KT 050V150 9999 OVC240 16/07 Q1024 BLU NOSIG",
      "taf": "TAF EHEH 041103Z 0412/0518 07003KT CAVOK"
    },
    {
      "icao": "EKBI",
      "alert": "OK",
      "vis_m": 9999,
      "fzfg": false,
      "metar_trigger": false,
      "taf_trigger": false,
      "metar": "METAR EKBI 041620Z AUTO 31007KT 9999 NCD 08/01 Q1028",
      "taf": "TAF EKBI 041427Z 0415/0515 26005KT 9999 FEW020"
    },
    {
      "icao": "EKCH",
      "alert": "OK",
      "vis_m": 9999,
      "fzfg": false,
      "metar_trigger": false,
      "taf_trigger": false,
      "metar": "METAR EKCH 041620Z AUTO 30009KT 280V350 9999 NCD 08/03 Q1027 NOSIG",
      "taf": "TAF EKCH 041427Z 0415/0515 32010KT CAVOK"
    },
    {
      "icao": "ENAL",
      "alert": "OK",
      "vis_m": 9999,
      "fzfg": false,
      "metar_trigger": false,
      "taf_trigger": false,
      "metar": "METAR ENAL 041620Z 23013KT CAVOK 07/02 Q1019",
      "taf": "TAF ENAL 041400Z 0415/0424 22017KT 9999 SCT030"
    },
    {
      "icao": "ENBR",
      "alert": "OK",
      "vis_m": 9999,
      "fzfg": false,
      "metar_trigger": false,
      "taf_trigger": false,
      "metar": "METAR ENBR 041620Z 17015KT CAVOK 05/00 Q1024 NOSIG RMK WIND 1200FT 17018KT",
      "taf": "TAF ENBR 041100Z 0412/0512 16012KT 9999 SCT040"
    },
    {
      "icao": "ENGM",
      "alert": "OK",
      "vis_m": 9999,
      "fzfg": false,
      "metar_trigger": false,
      "taf_trigger": false,
      "metar": "METAR ENGM 041620Z 20010KT CAVOK 04/M02 Q1021 NOSIG",
      "taf": "TAF ENGM 041100Z 0412/0512 19010KT CAVOK"
    },
    {
      "icao": "ENHD",
      "alert": "OK",
      "vis_m": 9999,
      "fzfg": false,
      "metar_trigger": false,
      "taf_trigger": false,
      "metar": "METAR ENHD 041620Z 18010KT CAVOK 06/00 Q1025",
      "taf": "TAF ENHD 041400Z 0415/0423 16010KT 9999 FEW030"
    },
    {
      "icao": "ENTC",
      "alert": "OK",
      "vis_m": 9999,
      "fzfg": false,
      "metar_trigger": false,
      "taf_trigger": false,
      "metar": "METAR ENTC 041620Z 19013KT 9999 -SHRA VV017 02/M00 Q1002 TEMPO 4000 SHRA BKN014 RMK WIND 2600FT 26016KT",
      "taf": "TAF ENTC 041100Z 0412/0512 21012KT 9999 -SHRASN BKN030"
    },
    {
      "icao": "ENTO",
      "alert": "OK",
      "vis_m": 9999,
      "fzfg": false,
      "metar_trigger": false,
      "taf_trigger": false,
      "metar": "METAR ENTO 041620Z 27006KT 230V290 CAVOK 08/M01 Q1023 NOSIG",
      "taf": "TAF ENTO 041100Z 0412/0512 22010KT CAVOK"
    },
    {
      "icao": "ENVA",
      "alert": "OK",
      "vis_m": 9999,
      "fzfg": false,
      "metar_trigger": false,
      "taf_trigger": false,
      "metar": "METAR ENVA 041620Z 27011KT 9999 VCSH FEW018 SCT037 BKN055 06/03 Q1019 NOSIG RMK WIND 670FT 26014KT",
      "taf": "TAF ENVA 041100Z 0412/0512 28008KT 9999 FEW020 BKN040"
    },
    {
      "icao": "ENZV",
      "alert": "OK",
      "vis_m": 9999,
      "fzfg": false,
      "metar_trigger": false,
      "taf_trigger": false,
      "metar": "METAR ENZV 041620Z 19007KT CAVOK 07/00 Q1026 NOSIG",
      "taf": "TAF ENZV 041100Z 0412/0512 21006KT 9999 FEW030"
    },
    {
      "icao": "EPGD",
      "alert": "OK",
      "vis_m": 9999,
      "fzfg": false,
      "metar_trigger": false,
      "taf_trigger": false,
      "metar": "METAR EPGD 041600Z 29012KT CAVOK 05/M00 Q1024",
      "taf": "TAF EPGD 041130Z 0412/0512 29015KT CAVOK"
    },
    {
      "icao": "EPKK",
      "alert": "OK",
      "vis_m": 9999,
      "fzfg": false,
      "metar_trigger": false,
      "taf_trigger": false,
      "metar": "METAR EPKK 041600Z 26006KT 230V290 CAVOK 12/04 Q1024",
      "taf": "TAF EPKK 041430Z 0415/0515 24012KT CAVOK"
    },
    {
      "icao": "EPKT",
      "alert": "OK",
      "vis_m": 9999,
      "fzfg": false,
      "metar_trigger": false,
      "taf_trigger": false,
      "metar": "METAR EPKT 041600Z 33009KT CAVOK 12/02 Q1024",
      "taf": "TAF EPKT 041130Z 0412/0512 26010KT CAVOK"
    },
    {
      "icao": "EPLB",
      "alert": "OK",
      "vis_m": 9999,
      "fzfg": false,
      "metar_trigger": false,
      "taf_trigger": false,
      "metar": "METAR EPLB 041600Z 30009KT CAVOK 10/01 Q1022",
      "taf": "TAF EPLB 041130Z 0412/0512 29012KT CAVOK"
    },
    {
      "icao": "EPMO",
      "alert": "OK",
      "vis_m": 9999,
      "fzfg": false,
      "metar_trigger": false,
      "taf_trigger": false,
      "metar": "METAR EPMO 041600Z 30009KT CAVOK 07/01 Q1024",
      "taf": "TAF EPMO 041130Z 0412/0512 29012KT CAVOK"
    },
    {
      "icao": "EPPO",
      "alert": "OK",
      "vis_m": 9999,
      "fzfg": false,
      "metar_trigger": false,
      "taf_trigger": false,
      "metar": "METAR EPPO 041600Z 31008KT CAVOK 09/M02 Q1026",
      "taf": "TAF EPPO 041130Z 0412/0512 32010KT CAVOK"
    },
    {
      "icao": "EPRA",
      "alert": "OK",
      "vis_m": 9999,
      "fzfg": false,
      "metar_trigger": false,
      "taf_trigger": false,
      "metar": "METAR EPRA 041600Z 32010KT CAVOK 10/M07 Q1023",
      "taf": "TAF EPRA 041430Z 0415/0424 30010KT CAVOK"
    },
    {
      "icao": "EPRZ",
      "alert": "OK",
      "vis_m": 9999,
      "fzfg": false,
      "metar_trigger": false,
      "taf_trigger": false,
      "metar": "METAR EPRZ 041600Z 26010KT CAVOK 12/02 Q1022",
      "taf": "TAF EPRZ 041130Z 0412/0512 26012KT CAVOK"
    },
    {
      "icao": "EPSC",
      "alert": "OK",
      "vis_m": 9999,
      "fzfg": false,
      "metar_trigger": false,
      "taf_trigger": false,
      "metar": "METAR EPSC 041600Z 31006KT CAVOK 08/M01 Q1027",
      "taf": "TAF EPSC 041130Z 0412/0512 31010KT CAVOK"
    },
    {
      "icao": "EPSY",
      "alert": "OK",
      "vis_m": 9999,
      "fzfg": false,
      "metar_trigger": false,
      "taf_trigger": false,
      "metar": "METAR EPSY 041600Z VRB02KT CAVOK 06/M02 Q1023",
      "taf": "TAF EPSY 041430Z 0415/0424 31010KT CAVOK"
    },
    {
      "icao": "EPWA",
      "alert": "OK",
      "vis_m": 9999,
      "fzfg": false,
      "metar_trigger": false,
      "taf_trigger": false,
      "metar": "METAR EPWA 041600Z 30014KT CAVOK 08/M02 Q1024 NOSIG",
      "taf": "TAF EPWA 041430Z 0415/0515 29010KT CAVOK"
    },
    {
      "icao": "EPWR",
      "alert": "OK",
      "vis_m": 9999,
      "fzfg": false,
      "metar_trigger": false,
      "taf_trigger": false,
      "metar": "METAR EPWR 041600Z 31009KT CAVOK 11/04 Q1026",
      "taf": "TAF EPWR 041430Z 0415/0515 33010KT CAVOK"
    },
    {
      "icao": "ESGG",
      "alert": "OK",
      "vis_m": 9999,
      "fzfg": false,
      "metar_trigger": false,
      "taf_trigger": false,
      "metar": "METAR ESGG 041620Z 28008KT CAVOK 05/01 Q1024",
      "taf": "TAF ESGG 041430Z 0415/0515 28011KT CAVOK"
    },
    {
      "icao": "ESKN",
      "alert": "OK",
      "vis_m": 9999,
      "fzfg": false,
      "metar_trigger": false,
      "taf_trigger": false,
      "metar": "METAR ESKN 041620Z 28014KT CAVOK 07/M01 Q1019",
      "taf": "TAF ESKN 041430Z 0415/0515 28015G25KT CAVOK"
    },
    {
      "icao": "ESMS",
      "alert": "OK",
      "vis_m": 9999,
      "fzfg": false,
      "metar_trigger": false,
      "taf_trigger": false,
      "metar": "METAR ESMS 041620Z 30009KT CAVOK 06/04 Q1026",
      "taf": "TAF ESMS 041427Z 0415/0515 31012KT 9999 SCT010"
    },
    {
      "icao": "ESSA",
      "alert": "OK",
      "vis_m": 9999,
      "fzfg": false,
      "metar_trigger": false,
      "taf_trigger": false,
      "metar": "METAR ESSA 041620Z 28009KT CAVOK 07/M05 Q1016 NOSIG",
      "taf": "TAF ESSA 041430Z 0415/0515 29012KT CAVOK"
    },
    {
      "icao": "EYKA",
      "alert": "OK",
      "vis_m": 9999,
      "fzfg": false,
      "metar_trigger": false,
      "taf_trigger": false,
      "metar": "METAR EYKA 041620Z 26010KT CAVOK 02/M01 Q1019",
      "taf": "TAF EYKA 041100Z 0412/0512 26014KT 9000 NSC"
    },
    {
      "icao": "EYPA",
      "alert": "OK",
      "vis_m": 9999,
      "fzfg": false,
      "metar_trigger": false,
      "taf_trigger": false,
      "metar": "METAR EYPA 041620Z 28003KT 210V340 CAVOK 01/M00 Q1020",
      "taf": "TAF EYPA 041100Z 0412/0512 VRB05KT 9000 NSC"
    },
    {
      "icao": "EYVI",
      "alert": "OK",
      "vis_m": 9999,
      "fzfg": false,
      "metar_trigger": false,
      "taf_trigger": false,
      "metar": "METAR EYVI 041620Z 27008KT 240V300 CAVOK 02/M01 Q1018 NOSIG",
      "taf": "TAF EYVI 041105Z 0412/0512 28012KT 9000 NSC"
    },
    {
      "icao": "GCFV",
      "alert": "OK",
      "vis_m": 9999,
      "fzfg": false,
      "metar_trigger": false,
      "taf_trigger": false,
      "metar": "METAR GCFV 041600Z 34020KT 9999 FEW030 BKN040 20/12 Q1017",
      "taf": "TAF GCFV 041400Z 0415/0515 33015KT 9999 FEW030 TX20/0514Z TN15/0506Z"
    },
    {
      "icao": "GCLP",
      "alert": "OK",
      "vis_m": 9999,
      "fzfg": false,
      "metar_trigger": false,
      "taf_trigger": false,
      "metar": "METAR GCLP 041600Z 36017KT 320V030 9999 FEW030 SCT040 21/12 Q1018 NOSIG",
      "taf": "TAF GCLP 041400Z 0415/0515 36020KT 9999 SCT025 TX21/0514Z TN15/0506Z"
    },
    {
      "icao": "GCTS",
      "alert": "OK",
      "vis_m": 9999,
      "fzfg": false,
      "metar_trigger": false,
      "taf_trigger": false,
      "metar": "METAR GCTS 041600Z 20006KT 160V260 9999 FEW035 20/11 Q1019 NOSIG",
      "taf": "TAF GCTS 041400Z 0415/0515 21009KT 9999 SCT025 TX22/0514Z TN15/0506Z"
    },
    {
      "icao": "GMAD",
      "alert": "OK",
      "vis_m": 9999,
      "fzfg": false,
      "metar_trigger": false,
      "taf_trigger": false,
      "metar": "METAR GMAD 041600Z 26015KT 9999 SCT023 SCT100 16/09 Q1013 NOSIG",
      "taf": "TAF GMAD 041100Z 0412/0518 28012KT 8000 SCT026"
    },
    {
      "icao": "GMMN",
      "alert": "OK",
      "vis_m": 9999,
      "fzfg": false,
      "metar_trigger": false,
      "taf_trigger": false,
      "metar": "METAR GMMN 041600Z 17015KT 9999 SCT016 BKN030 10/08 Q1011 NOSIG",
      "taf": "TAF GMMN 041100Z 0412/0518 20010KT 9999 RA BKN030"
    },
    {
      "icao": "GMMX",
      "alert": "OK",
      "vis_m": 9999,
      "fzfg": false,
      "metar_trigger": false,
      "taf_trigger": false,
      "metar": "METAR GMMX 041600Z 27010KT 230V300 9999 FEW020 SCT030 BKN090 11/07 Q1012 NOSIG",
      "taf": "TAF GMMX 041100Z 0412/0518 28006KT 9999 SCT030 BKN090"
    },
    {
      "icao": "HEGN",
      "alert": "OK",
      "vis_m": 9999,
      "fzfg": false,
      "metar_trigger": false,
      "taf_trigger": false,
      "metar": "METAR HEGN 041600Z 01007KT CAVOK 21/05 Q1019 NOSIG",
      "taf": "TAF HEGN 041100Z 0412/0518 35016KT CAVOK"
    },
    {
      "icao": "HEMA",
      "alert": "OK",
      "vis_m": 6000,
      "fzfg": false,
      "metar_trigger": false,
      "taf_trigger": false,
      "metar": "METAR HEMA 041600Z 35015KT 6000 NSC 21/13 Q1019 NOSIG",
      "taf": "TAF HEMA 041100Z 0412/0518 35008G20KT CAVOK"
    },
    {
      "icao": "HESH",
      "alert": "OK",
      "vis_m": 9999,
      "fzfg": false,
      "metar_trigger": false,
      "taf_trigger": false,
      "metar": "METAR HESH 041600Z 03006KT CAVOK 22/08 Q1018 NOSIG",
      "taf": "TAF HESH 041100Z 0412/0518 01014KT CAVOK"
    },
    {
      "icao": "HESX",
      "alert": "OK",
      "vis_m": 9999,
      "fzfg": false,
      "metar_trigger": false,
      "taf_trigger": false,
      "metar": "METAR HESX 041600Z 35007KT CAVOK 17/06 Q1022 NOSIG",
      "taf": "TAF HESX 041100Z 0412/0518 36010KT 9999 SCT020"
    },
    {
      "icao": "LATI",
      "alert": "OK",
      "vis_m": 9999,
      "fzfg": false,
      "metar_trigger": false,
      "taf_trigger": false,
      "metar": "METAR LATI 041620Z 34004KT CAVOK 13/08 Q1026 NOSIG",
      "taf": "TAF LATI 041100Z 0412/0512 VRB05KT CAVOK TX18/0412Z TN06/0505Z"
    },
    {
      "icao": "LBPD",
      "alert": "OK",
      "vis_m": 9999,
      "fzfg": false,
      "metar_trigger": false,
      "taf_trigger": false,
      "metar": "METAR LBPD 041600Z AUTO 10006KT 9999 NCD 13/05 Q1025 NOSIG",
      "taf": "TAF LBPD 041100Z 0412/0512 VRB03KT CAVOK"
    },
    {
      "icao": "LBSF",
      "alert": "OK",
      "vis_m": 9999,
      "fzfg": false,
      "metar_trigger": false,
      "taf_trigger": false,
      "metar": "METAR LBSF 041600Z AUTO 15003KT 9999 BKN075/// 14/03 Q1025 NOSIG",
      "taf": "TAF LBSF 041100Z 0412/0512 VRB03KT 9999 SCT060"
    },
    {
      "icao": "LBWN",
      "alert": "OK",
      "vis_m": 8000,
      "fzfg": false,
      "metar_trigger": false,
      "taf_trigger": false,
      "metar": "METAR LBWN 041600Z 10008KT 8000 NSC 07/04 Q1026 NOSIG",
      "taf": "TAF LBWN 041100Z 0412/0512 11010KT CAVOK"
    },
    {
      "icao": "LCLK",
      "alert": "OK",
      "vis_m": 9999,
      "fzfg": false,
      "metar_trigger": false,
      "taf_trigger": false,
      "metar": "METAR LCLK 041600Z 02007KT 9999 FEW030 SCT060 17/04 Q1021 NOSIG",
      "taf": "TAF LCLK 041130Z 0412/0512 18010KT 9999 FEW025 SCT030"
    },
    {
      "icao": "LCPH",
      "alert": "OK",
      "vis_m": 9999,
      "fzfg": false,
      "metar_trigger": false,
      "taf_trigger": false,
      "metar": "METAR LCPH 041600Z 34007KT 9999 FEW025 16/09 Q1021 NOSIG",
      "taf": "TAF LCPH 041130Z 0412/0512 31015KT 9999 FEW025 SCT030"
    },
    {
      "icao": "LEAL",
      "alert": "OK",
      "vis_m": 9999,
      "fzfg": false,
      "metar_trigger": false,
      "taf_trigger": false,
      "metar": "METAR LEAL 041600Z 05009KT 020V080 9999 BKN038 21/09 Q1012 NOSIG",
      "taf": "TAF LEAL 041100Z 0412/0512 05009KT 9999 FEW020 TX21/0412Z TN10/0507Z"
    },
    {
      "icao": "LEBB",
      "alert": "OK",
      "vis_m": 9999,
      "fzfg": false,
      "metar_trigger": false,
      "taf_trigger": false,
      "metar": "METAR LEBB 041600Z 16008KT 080V230 CAVOK 21/08 Q1015 NOSIG",
      "taf": "TAF LEBB 041100Z 0412/0512 13009KT CAVOK TX21/0415Z TN10/0507Z"
    },
    {
      "icao": "LEBL",
      "alert": "OK",
      "vis_m": 9000,
      "fzfg": false,
      "metar_trigger": false,
      "taf_trigger": false,
      "metar": "METAR LEBL 041600Z 07019KT 9000 SCT025 16/12 Q1018 NOSIG",
      "taf": "TAF LEBL 041100Z 0412/0512 06015KT 9999 SCT020 TX17/0412Z TN13/0506Z"
    },
    {
      "icao": "LECH",
      "alert": "OK",
      "vis_m": 4200,
      "fzfg": false,
      "metar_trigger": false,
      "taf_trigger": false,
      "metar": "METAR LECH 041600Z AUTO 05015KT 020V100 4200 BR OVC004 12/11 Q1017",
      "taf": ""
    },
    {
      "icao": "LEMD",
      "alert": "OK",
      "vis_m": 9999,
      "fzfg": false,
      "metar_trigger": false,
      "taf_trigger": false,
      "metar": "METAR LEMD 041600Z 16007KT 130V190 9999 FEW060 16/05 Q1014 NOSIG",
      "taf": ""
    },
    {
      "icao": "LEMG",
      "alert": "OK",
      "vis_m": 9999,
      "fzfg": false,
      "metar_trigger": false,
      "taf_trigger": false,
      "metar": "METAR LEMG 041600Z 32007KT 9999 -SHRA FEW010 SCT020CB BKN065 08/07 Q1014 RESHRA NOSIG",
      "taf": "TAF LEMG 041100Z 0412/0512 30008KT 9999 FEW020 SCT030 TX17/0414Z TN09/0507Z"
    },
    {
      "icao": "LEVC",
      "alert": "OK",
      "vis_m": 9999,
      "fzfg": false,
      "metar_trigger": false,
      "taf_trigger": false,
      "metar": "METAR LEVC 041600Z 04013KT 010V080 9999 SCT016 OVC020 16/12 Q1016 NOSIG",
      "taf": "TAF LEVC 041100Z 0412/0512 05013KT 9999 BKN020 TX16/0412Z TN11/0507Z"
    },
    {
      "icao": "LEXJ",
      "alert": "OK",
      "vis_m": 9999,
      "fzfg": false,
      "metar_trigger": false,
      "taf_trigger": false,
      "metar": "METAR LEXJ 041600Z 11012KT 080V140 CAVOK 19/07 Q1013",
      "taf": "TAF LEXJ 041400Z 0415/0515 03009KT CAVOK TX15/0503Z TN10/0507Z"
    },
    {
      "icao": "LEZG",
      "alert": "OK",
      "vis_m": 9999,
      "fzfg": false,
      "metar_trigger": false,
      "taf_trigger": false,
      "metar": "METAR LEZG 041600Z 10005KT 9999 BKN040 OVC045 15/09 Q1018 NOSIG",
      "taf": ""
    },
    {
      "icao": "LEZL",
      "alert": "OK",
      "vis_m": 9999,
      "fzfg": false,
      "metar_trigger": false,
      "taf_trigger": false,
      "metar": "METAR LEZL 041600Z 17007KT 140V200 9999 SCT049 13/10 Q1013 NOSIG",
      "taf": "TAF LEZL 041400Z 0415/0515 22005KT 9999 FEW015 SCT040 TX18/0515Z TN09/0507Z"
    },
    {
      "icao": "LFBD",
      "alert": "OK",
      "vis_m": 9999,
      "fzfg": false,
      "metar_trigger": false,
      "taf_trigger": false,
      "metar": "METAR LFBD 041600Z AUTO 12011KT 9999 4900 NSC 19/10 Q1017 NOSIG",
      "taf": "TAF LFBD 041100Z 0412/0518 11010KT CAVOK TX20/0514Z TN08/0506Z"
    },
    {
      "icao": "LFLL",
      "alert": "OK",
      "vis_m": 9999,
      "fzfg": false,
      "metar_trigger": false,
      "taf_trigger": false,
      "metar": "METAR LFLL 041600Z 00000KT CAVOK 18/05 Q1021 NOSIG",
      "taf": "TAF LFLL 041100Z 0412/0518 13005KT CAVOK"
    },
    {
      "icao": "LFLS",
      "alert": "OK",
      "vis_m": 9999,
      "fzfg": false,
      "metar_trigger": false,
      "taf_trigger": false,
      "metar": "METAR LFLS 041600Z AUTO 29003KT 260V320 CAVOK 16/06 Q1022 NOSIG",
      "taf": "TAF LFLS 041400Z 0415/0515 VRB03KT CAVOK"
    },
    {
      "icao": "LFMN",
      "alert": "OK",
      "vis_m": 9999,
      "fzfg": false,
      "metar_trigger": false,
      "taf_trigger": false,
      "metar": "METAR LFMN 041600Z 09015KT CAVOK 16/10 Q1023 NOSIG",
      "taf": "TAF LFMN 041400Z 0415/0521 09015KT CAVOK"
    },
    {
      "icao": "LFOB",
      "alert": "OK",
      "vis_m": 9999,
      "fzfg": false,
      "metar_trigger": false,
      "taf_trigger": false,
      "metar": "METAR LFOB 041600Z AUTO 14010KT CAVOK 17/05 Q1022 NOSIG",
      "taf": "TAF LFOB 041100Z 0412/0512 12007KT CAVOK"
    },
    {
      "icao": "LFPO",
      "alert": "OK",
      "vis_m": 9999,
      "fzfg": false,
      "metar_trigger": false,
      "taf_trigger": false,
      "metar": "METAR LFPO 041600Z AUTO 10011KT CAVOK 18/04 Q1021 NOSIG",
      "taf": "TAF LFPO 041100Z 0412/0518 11010KT CAVOK"
    },
    {
      "icao": "LFSB",
      "alert": "OK",
      "vis_m": 9999,
      "fzfg": false,
      "metar_trigger": false,
      "taf_trigger": false,
      "metar": "METAR LFSB 041600Z AUTO 04005KT 010V070 CAVOK 16/05 Q1023 NOSIG",
      "taf": "TAF LFSB 041100Z 0412/0512 07005KT CAVOK"
    },
    {
      "icao": "LGAV",
      "alert": "OK",
      "vis_m": 9999,
      "fzfg": false,
      "metar_trigger": false,
      "taf_trigger": false,
      "metar": "METAR LGAV 041620Z 04005KT 360V060 9999 FEW025 14/05 Q1027 NOSIG",
      "taf": "TAF LGAV 041100Z 0412/0512 04015KT 9999 FEW020"
    },
    {
      "icao": "LGTS",
      "alert": "OK",
      "vis_m": 9999,
      "fzfg": false,
      "metar_trigger": false,
      "taf_trigger": false,
      "metar": "METAR LGTS 041620Z VRB03KT 9999 FEW020 13/07 Q1027 NOSIG",
      "taf": "TAF LGTS 041100Z 0412/0512 VRB03KT 9999 SCT030"
    },
    {
      "icao": "LHBP",
      "alert": "OK",
      "vis_m": 9999,
      "fzfg": false,
      "metar_trigger": false,
      "taf_trigger": false,
      "metar": "METAR LHBP 041600Z 23005KT CAVOK 14/04 Q1025 NOSIG",
      "taf": "TAF LHBP 041115Z 0412/0512 21005KT CAVOK"
    },
    {
      "icao": "LHDC",
      "alert": "OK",
      "vis_m": 9999,
      "fzfg": false,
      "metar_trigger": false,
      "taf_trigger": false,
      "metar": "METAR LHDC 041545Z AUTO VRB02KT CAVOK 14/05 Q1025 NOSIG",
      "taf": "TAF LHDC 041415Z 0415/0424 VRB03KT CAVOK"
    },
    {
      "icao": "LIBD",
      "alert": "OK",
      "vis_m": 8000,
      "fzfg": false,
      "metar_trigger": false,
      "taf_trigger": false,
      "metar": "METAR LIBD 041620Z 04004KT 010V070 8000 SCT010 13/12 Q1026",
      "taf": "TAF LIBD 041100Z 0412/0512 VRB05KT 3000 BR SCT015"
    },
    {
      "icao": "LIBG",
      "alert": "OK",
      "vis_m": 9999,
      "fzfg": false,
      "metar_trigger": false,
      "taf_trigger": false,
      "metar": "METAR LIBG 041550Z 11005KT 070V130 9999 FEW035 17/11 Q1025",
      "taf": "TAF LIBG 041400Z 0415/0424 VRB06KT 9999 FEW020"
    },
    {
      "icao": "LIBP",
      "alert": "OK",
      "vis_m": 9999,
      "fzfg": false,
      "metar_trigger": false,
      "taf_trigger": false,
      "metar": "METAR LIBP 041620Z AUTO 08003KT 9999 FEW010/// BKN099/// 13/11 Q1027",
      "taf": "TAF LIBP 041100Z 0412/0512 VRB05KT 6000 BKN025"
    },
    {
      "icao": "LIBR",
      "alert": "OK",
      "vis_m": 9999,
      "fzfg": false,
      "metar_trigger": false,
      "taf_trigger": false,
      "metar": "METAR LIBR 041620Z 07003KT CAVOK 14/11 Q1026",
      "taf": "TAF LIBR 041100Z 0412/0512 VRB05KT 8000 SCT020"
    },
    {
      "icao": "LICA",
      "alert": "OK",
      "vis_m": 9999,
      "fzfg": false,
      "metar_trigger": false,
      "taf_trigger": false,
      "metar": "METAR LICA 041620Z AUTO 07013KT 9999 NCD 16/11 Q1025",
      "taf": "TAF LICA 041100Z 0412/0512 07016KT CAVOK"
    },
    {
      "icao": "LICC",
      "alert": "OK",
      "vis_m": 9999,
      "fzfg": false,
      "metar_trigger": false,
      "taf_trigger": false,
      "metar": "METAR LICC 041620Z 10007KT 9999 FEW020 16/13 Q1025",
      "taf": "TAF LICC 041100Z 0412/0512 08012KT 9999 SCT040"
    },
    {
      "icao": "LICJ",
      "alert": "OK",
      "vis_m": 9999,
      "fzfg": false,
      "metar_trigger": false,
      "taf_trigger": false,
      "metar": "METAR LICJ 041620Z 07008KT CAVOK 17/12 Q1023",
      "taf": "TAF LICJ 041100Z 0412/0512 04012KT 9999 SCT030"
    },
    {
      "icao": "LIMC",
      "alert": "OK",
      "vis_m": 9999,
      "fzfg": false,
      "metar_trigger": false,
      "taf_trigger": false,
      "metar": "METAR LIMC 041620Z 21003KT 170V250 9999 FEW030 15/07 Q1025 NOSIG",
      "taf": "TAF LIMC 041100Z 0412/0518 VRB05KT 8000 SCT030"
    },
    {
      "icao": "LIME",
      "alert": "OK",
      "vis_m": 6000,
      "fzfg": false,
      "metar_trigger": false,
      "taf_trigger": false,
      "metar": "METAR LIME 041620Z 17004KT 6000 SCT025 13/08 Q1025 NOSIG",
      "taf": "TAF LIME 041100Z 0412/0512 VRB05KT 8000 SCT040"
    },
    {
      "icao": "LIMF",
      "alert": "OK",
      "vis_m": 7000,
      "fzfg": false,
      "metar_trigger": false,
      "taf_trigger": false,
      "metar": "METAR LIMF 041620Z 11003KT 7000 SCT050 14/07 Q1025",
      "taf": "TAF LIMF 041100Z 0412/0512 VRB04KT 7000 BKN030"
    },
    {
      "icao": "LIMJ",
      "alert": "OK",
      "vis_m": 9999,
      "fzfg": false,
      "metar_trigger": false,
      "taf_trigger": false,
      "metar": "METAR LIMJ 041620Z 12005KT CAVOK 15/10 Q1024",
      "taf": "TAF LIMJ 041100Z 0412/0512 03012KT 9999 FEW040"
    },
    {
      "icao": "LIPE",
      "alert": "OK",
      "vis_m": 7000,
      "fzfg": false,
      "metar_trigger": false,
      "taf_trigger": false,
      "metar": "METAR LIPE 041620Z 04005KT 7000 NSC 11/08 Q1026",
      "taf": "TAF LIPE 041100Z 0412/0512 VRB04KT 6000 SCT015"
    },
    {
      "icao": "LIPH",
      "alert": "OK",
      "vis_m": 8000,
      "fzfg": false,
      "metar_trigger": false,
      "taf_trigger": false,
      "metar": "METAR LIPH 041620Z 23005KT 8000 SCT015 12/08 Q1026",
      "taf": "TAF LIPH 041100Z 0412/0512 VRB04KT 2000 BR SCT015"
    },
    {
      "icao": "LIPQ",
      "alert": "OK",
      "vis_m": 6000,
      "fzfg": false,
      "metar_trigger": false,
      "taf_trigger": false,
      "metar": "METAR LIPQ 041620Z AUTO 14006KT 6000 FEW010/// 09/08 Q1026",
      "taf": "TAF LIPQ 041100Z 0412/0512 VRB05KT 6000 NSC"
    },
    {
      "icao": "LIPR",
      "alert": "OK",
      "vis_m": 6000,
      "fzfg": false,
      "metar_trigger": false,
      "taf_trigger": false,
      "metar": "METAR LIPR 041620Z VRB01KT 6000 BKN020 11/09 Q1027",
      "taf": "TAF LIPR 041100Z 0412/0512 VRB05KT 6000 BKN015"
    },
    {
      "icao": "LIPX",
      "alert": "OK",
      "vis_m": 6000,
      "fzfg": false,
      "metar_trigger": false,
      "taf_trigger": false,
      "metar": "METAR LIPX 041620Z 11004KT 080V140 6000 FEW020 12/09 Q1026",
      "taf": ""
    },
    {
      "icao": "LIPY",
      "alert": "OK",
      "vis_m": 9999,
      "fzfg": false,
      "metar_trigger": false,
      "taf_trigger": false,
      "metar": "METAR LIPY 041620Z AUTO 04004KT 9999 OVC019/// 12/10 Q1027",
      "taf": "TAF LIPY 041100Z 0412/0512 VRB05KT 7000 SCT015"
    },
    {
      "icao": "LIPZ",
      "alert": "OK",
      "vis_m": 9999,
      "fzfg": false,
      "metar_trigger": false,
      "taf_trigger": false,
      "metar": "METAR LIPZ 041620Z 22005KT 9999 SCT020 11/08 Q1027 NOSIG",
      "taf": "TAF LIPZ 041100Z 0412/0518 VRB04KT 6000 SCT015"
    },
    {
      "icao": "LIRF",
      "alert": "OK",
      "vis_m": 9000,
      "fzfg": false,
      "metar_trigger": false,
      "taf_trigger": false,
      "metar": "METAR LIRF 041620Z 20005KT 9000 NSC 15/11 Q1025 NOSIG",
      "taf": "TAF LIRF 041100Z 0412/0518 13013KT 8000 SCT040"
    },
    {
      "icao": "LIRN",
      "alert": "OK",
      "vis_m": 7000,
      "fzfg": false,
      "metar_trigger": false,
      "taf_trigger": false,
      "metar": "METAR LIRN 041620Z 18003KT 7000 NSC 16/11 Q1025 NOSIG",
      "taf": "TAF LIRN 041100Z 0412/0512 VRB05KT 7000 FEW040"
    },
    {
      "icao": "LIRP",
      "alert": "OK",
      "vis_m": 9999,
      "fzfg": false,
      "metar_trigger": false,
      "taf_trigger": false,
      "metar": "METAR LIRP 041615Z 16002KT CAVOK 17/09 Q1024 NOSIG",
      "taf": "TAF LIRP 041100Z 0412/0512 VRB04KT 9999 SCT040"
    },
    {
      "icao": "LIRZ",
      "alert": "OK",
      "vis_m": 9999,
      "fzfg": false,
      "metar_trigger": false,
      "taf_trigger": false,
      "metar": "METAR LIRZ 041620Z AUTO VRB01KT 9999 BKN130/// 14/09 Q1025",
      "taf": "TAF LIRZ 041100Z 0412/0512 VRB05KT 9999 SCT040"
    },
    {
      "icao": "LJLJ",
      "alert": "OK",
      "vis_m": 9999,
      "fzfg": false,
      "metar_trigger": false,
      "taf_trigger": false,
      "metar": "METAR LJLJ 041600Z 23006KT 190V260 9999 FEW050 15/02 Q1024 NOSIG",
      "taf": "TAF LJLJ 041100Z 0412/0512 VRB02KT 9999 FEW055"
    },
    {
      "icao": "LKMT",
      "alert": "OK",
      "vis_m": 9999,
      "fzfg": false,
      "metar_trigger": false,
      "taf_trigger": false,
      "metar": "METAR LKMT 041600Z 01004KT CAVOK 11/06 Q1025 NOSIG",
      "taf": "TAF LKMT 041100Z 0412/0512 23008KT CAVOK"
    },
    {
      "icao": "LKPR",
      "alert": "OK",
      "vis_m": 9999,
      "fzfg": false,
      "metar_trigger": false,
      "taf_trigger": false,
      "metar": "METAR LKPR 041600Z VRB02KT CAVOK 11/02 Q1026 NOSIG",
      "taf": "TAF LKPR 041400Z 0415/0521 VRB02KT CAVOK"
    },
    {
      "icao": "LLBG",
      "alert": "OK",
      "vis_m": 9999,
      "fzfg": false,
      "metar_trigger": false,
      "taf_trigger": false,
      "metar": "METAR LLBG 041620Z 29005KT 9999 FEW035 16/08 Q1021 NOSIG",
      "taf": "TAF LLBG 041101Z 0412/0512 29010KT 9999 FEW035 TX19/0412Z TN09/0503Z"
    },
    {
      "icao": "LMML",
      "alert": "OK",
      "vis_m": 9999,
      "fzfg": false,
      "metar_trigger": false,
      "taf_trigger": false,
      "metar": "METAR LMML 041615Z 12014KT 9999 FEW015 16/12 Q1024 NOSIG",
      "taf": "TAF LMML 041100Z 0412/0512 12012KT 9999 FEW015"
    },
    {
      "icao": "LOWW",
      "alert": "OK",
      "vis_m": 9999,
      "fzfg": false,
      "metar_trigger": false,
      "taf_trigger": false,
      "metar": "METAR LOWW 041620Z 31003KT CAVOK 11/05 Q1025 NOSIG",
      "taf": "TAF LOWW 041415Z 0415/0521 03004KT CAVOK TX14/0514Z TN03/0505Z"
    },
    {
      "icao": "LPFR",
      "alert": "OK",
      "vis_m": 9999,
      "fzfg": false,
      "metar_trigger": false,
      "taf_trigger": false,
      "metar": "METAR LPFR 041600Z 12009KT 9999 FEW015 15/10 Q1013",
      "taf": "TAF LPFR 041100Z 0412/0512 09005KT 9999 SCT020"
    },
    {
      "icao": "LPMA",
      "alert": "OK",
      "vis_m": 9999,
      "fzfg": false,
      "metar_trigger": false,
      "taf_trigger": false,
      "metar": "METAR LPMA 041600Z 35009KT 260V030 9999 VCSH BKN015 FEW016CB 16/11 Q1021",
      "taf": "TAF LPMA 041100Z 0412/0512 36015KT 9999 SCT015"
    },
    {
      "icao": "LPPR",
      "alert": "OK",
      "vis_m": 9999,
      "fzfg": false,
      "metar_trigger": false,
      "taf_trigger": false,
      "metar": "METAR LPPR 041600Z 31009KT CAVOK 15/12 Q1013",
      "taf": "TAF LPPR 041100Z 0412/0512 32007KT CAVOK"
    },
    {
      "icao": "LPPS",
      "alert": "OK",
      "vis_m": 9999,
      "fzfg": false,
      "metar_trigger": false,
      "taf_trigger": false,
      "metar": "METAR LPPS 041600Z 35018KT 9999 SCT014 17/12 Q1021",
      "taf": "TAF LPPS 041100Z 0412/0518 36018KT 9999 SCT015"
    },
    {
      "icao": "LPPT",
      "alert": "OK",
      "vis_m": 9999,
      "fzfg": false,
      "metar_trigger": false,
      "taf_trigger": false,
      "metar": "METAR LPPT 041600Z 05007KT 010V110 9999 FEW035 18/11 Q1012",
      "taf": "TAF LPPT 041100Z 0412/0518 04013KT CAVOK"
    },
    {
      "icao": "LQBK",
      "alert": "OK",
      "vis_m": 9999,
      "fzfg": false,
      "metar_trigger": false,
      "taf_trigger": false,
      "metar": "METAR LQBK 041600Z 00000KT CAVOK 15/05 Q1024 NOSIG",
      "taf": "TAF LQBK 041100Z 0412/0512 34004KT CAVOK TX17/0414Z TN04/0506Z"
    },
    {
      "icao": "LQSA",
      "alert": "OK",
      "vis_m": 9999,
      "fzfg": false,
      "metar_trigger": false,
      "taf_trigger": false,
      "metar": "METAR LQSA 041600Z 36003KT 330V060 9999 BKN050 12/04 Q1025 NOSIG",
      "taf": "TAF LQSA 041100Z 0412/0512 30006KT CAVOK TX15/0414Z TN04/0505Z"
    },
    {
      "icao": "LQTZ",
      "alert": "OK",
      "vis_m": 9999,
      "fzfg": false,
      "metar_trigger": false,
      "taf_trigger": false,
      "metar": "METAR LQTZ 041600Z VRB02KT CAVOK 15/04 Q1025",
      "taf": ""
    },
    {
      "icao": "LRBC",
      "alert": "OK",
      "vis_m": 9999,
      "fzfg": false,
      "metar_trigger": false,
      "taf_trigger": false,
      "metar": "METAR LRBC 041600Z 16007KT CAVOK 10/04 Q1023",
      "taf": "TAF LRBC 041400Z 0415/0424 VRB04KT CAVOK"
    },
    {
      "icao": "LRBS",
      "alert": "OK",
      "vis_m": 9999,
      "fzfg": false,
      "metar_trigger": false,
      "taf_trigger": false,
      "metar": "METAR LRBS 041600Z 25004KT CAVOK 12/04 Q1025 NOSIG",
      "taf": "TAF LRBS 041100Z 0412/0512 VRB04KT CAVOK"
    },
    {
      "icao": "LRBV",
      "alert": "OK",
      "vis_m": 9999,
      "fzfg": false,
      "metar_trigger": false,
      "taf_trigger": false,
      "metar": "METAR LRBV 041600Z 26004KT CAVOK 11/01 Q1024",
      "taf": "TAF LRBV 041400Z 0415/0424 29010KT CAVOK"
    },
    {
      "icao": "LRCL",
      "alert": "OK",
      "vis_m": 9999,
      "fzfg": false,
      "metar_trigger": false,
      "taf_trigger": false,
      "metar": "METAR LRCL 041600Z 00000KT CAVOK 12/00 Q1024",
      "taf": "TAF LRCL 041400Z 0415/0424 VRB04KT CAVOK"
    },
    {
      "icao": "LRCV",
      "alert": "OK",
      "vis_m": 9999,
      "fzfg": false,
      "metar_trigger": false,
      "taf_trigger": false,
      "metar": "METAR LRCV 041600Z 18004KT CAVOK 11/06 Q1025",
      "taf": "TAF LRCV 041400Z 0415/0424 VRB04KT CAVOK"
    },
    {
      "icao": "LRIA",
      "alert": "OK",
      "vis_m": 9999,
      "fzfg": false,
      "metar_trigger": false,
      "taf_trigger": false,
      "metar": "METAR LRIA 041600Z VRB01KT CAVOK 12/01 Q1023",
      "taf": "TAF LRIA 041400Z 0415/0424 VRB04KT CAVOK"
    },
    {
      "icao": "LROP",
      "alert": "OK",
      "vis_m": 9999,
      "fzfg": false,
      "metar_trigger": false,
      "taf_trigger": false,
      "metar": "METAR LROP 041600Z 23005KT CAVOK 10/02 Q1025 NOSIG",
      "taf": "TAF LROP 041100Z 0412/0512 VRB04KT CAVOK"
    },
    {
      "icao": "LRSB",
      "alert": "OK",
      "vis_m": 9999,
      "fzfg": false,
      "metar_trigger": false,
      "taf_trigger": false,
      "metar": "METAR LRSB 041600Z VRB01KT CAVOK 12/M00 Q1024",
      "taf": "TAF LRSB 041100Z 0412/0512 VRB04KT CAVOK"
    },
    {
      "icao": "LRSM",
      "alert": "OK",
      "vis_m": 9999,
      "fzfg": false,
      "metar_trigger": false,
      "taf_trigger": false,
      "metar": "METAR LRSM 041600Z 20003KT CAVOK 13/05 Q1025",
      "taf": "TAF LRSM 041400Z 0415/0424 VRB04KT CAVOK"
    },
    {
      "icao": "LRSV",
      "alert": "OK",
      "vis_m": 9999,
      "fzfg": false,
      "metar_trigger": false,
      "taf_trigger": false,
      "metar": "METAR LRSV 041600Z 06002KT CAVOK 10/02 Q1022",
      "taf": "TAF LRSV 041400Z 0415/0424 VRB04KT CAVOK"
    },
    {
      "icao": "LRTM",
      "alert": "OK",
      "vis_m": 9999,
      "fzfg": false,
      "metar_trigger": false,
      "taf_trigger": false,
      "metar": "METAR LRTM 041600Z 32004KT CAVOK 12/01 Q1024",
      "taf": "TAF LRTM 041400Z 0415/0424 VRB04KT CAVOK"
    },
    {
      "icao": "LRTR",
      "alert": "OK",
      "vis_m": 9999,
      "fzfg": false,
      "metar_trigger": false,
      "taf_trigger": false,
      "metar": "METAR LRTR 041600Z 32003KT CAVOK 13/03 Q1025",
      "taf": "TAF LRTR 041100Z 0412/0512 VRB04KT CAVOK"
    },
    {
      "icao": "LTAC",
      "alert": "OK",
      "vis_m": 9999,
      "fzfg": false,
      "metar_trigger": false,
      "taf_trigger": false,
      "metar": "METAR LTAC 041620Z 08011KT CAVOK 06/M08 Q1025 NOSIG",
      "taf": "TAF LTAC 041040Z 0412/0512 35012KT 9999 SCT040"
    },
    {
      "icao": "LTFM",
      "alert": "OK",
      "vis_m": 9999,
      "fzfg": false,
      "metar_trigger": false,
      "taf_trigger": false,
      "metar": "METAR LTFM 041620Z VRB02KT 9999 FEW040 09/02 Q1028 NOSIG",
      "taf": "TAF LTFM 041040Z 0412/0518 03008KT CAVOK"
    },
    {
      "icao": "LUKK",
      "alert": "OK",
      "vis_m": 9999,
      "fzfg": false,
      "metar_trigger": false,
      "taf_trigger": false,
      "metar": "METAR LUKK 041600Z 28006KT CAVOK 10/02 Q1023 NOSIG",
      "taf": "TAF LUKK 041116Z 0412/0512 26009KT CAVOK"
    },
    {
      "icao": "LWOH",
      "alert": "OK",
      "vis_m": 9999,
      "fzfg": false,
      "metar_trigger": false,
      "taf_trigger": false,
      "metar": "METAR LWOH 041620Z 13007KT CAVOK 11/04 Q1025",
      "taf": "TAF LWOH 041500Z 0415/0515 18005KT 9999 FEW040"
    },
    {
      "icao": "LWSK",
      "alert": "OK",
      "vis_m": 9999,
      "fzfg": false,
      "metar_trigger": false,
      "taf_trigger": false,
      "metar": "METAR LWSK 041620Z VRB01KT CAVOK 14/06 Q1025 NOSIG",
      "taf": "TAF LWSK 041500Z 0415/0515 18005KT CAVOK"
    },
    {
      "icao": "LYBE",
      "alert": "OK",
      "vis_m": 9999,
      "fzfg": false,
      "metar_trigger": false,
      "taf_trigger": false,
      "metar": "METAR LYBE 041600Z 08004KT CAVOK 14/05 Q1025 NOSIG",
      "taf": "TAF LYBE 041100Z 0412/0512 06005KT CAVOK TX17/0413Z TN07/0506Z"
    },
    {
      "icao": "LYNI",
      "alert": "OK",
      "vis_m": 9999,
      "fzfg": false,
      "metar_trigger": false,
      "taf_trigger": false,
      "metar": "METAR LYNI 041600Z 32002KT CAVOK 15/05 Q1025 NOSIG",
      "taf": "TAF LYNI 041100Z 0412/0512 17004KT 9999 SCT050 TX18/0414Z TN07/0506Z"
    },
    {
      "icao": "LYPG",
      "alert": "OK",
      "vis_m": 9999,
      "fzfg": false,
      "metar_trigger": false,
      "taf_trigger": false,
      "metar": "METAR LYPG 041600Z 18003KT CAVOK 15/08 Q1026 NOSIG",
      "taf": "TAF LYPG 041100Z 0412/0512 18006KT 9999 SCT090 TX18/0512Z TN08/0506Z"
    },
    {
      "icao": "LZIB",
      "alert": "OK",
      "vis_m": 9999,
      "fzfg": false,
      "metar_trigger": false,
      "taf_trigger": false,
      "metar": "METAR LZIB 041600Z 18005KT CAVOK 13/06 Q1025 NOSIG",
      "taf": "TAF LZIB 041115Z 0412/0512 10005KT CAVOK"
    },
    {
      "icao": "LZKZ",
      "alert": "OK",
      "vis_m": 9999,
      "fzfg": false,
      "metar_trigger": false,
      "taf_trigger": false,
      "metar": "METAR LZKZ 041600Z 17007KT CAVOK 13/05 Q1024 NOSIG",
      "taf": "TAF LZKZ 041115Z 0412/0512 VRB02KT CAVOK"
    },
    {
      "icao": "LZTT",
      "alert": "OK",
      "vis_m": 9999,
      "fzfg": false,
      "metar_trigger": false,
      "taf_trigger": false,
      "metar": "METAR LZTT 041600Z 28010KT 9999 FEW046 SCT056 09/00 Q1023 NOSIG",
      "taf": "TAF LZTT 041115Z 0412/0512 08007KT 9999 FEW048"
    },
    {
      "icao": "OEJN",
      "alert": "OK",
      "vis_m": 8000,
      "fzfg": false,
      "metar_trigger": false,
      "taf_trigger": false,
      "metar": "METAR OEJN 041600Z 33020KT 8000 NSC 25/06 Q1013 NOSIG",
      "taf": ""
    },
    {
      "icao": "OEMA",
      "alert": "OK",
      "vis_m": 9999,
      "fzfg": false,
      "metar_trigger": false,
      "taf_trigger": false,
      "metar": "METAR OEMA 041600Z 09006KT CAVOK 23/M12 Q1020 NOSIG",
      "taf": "TAF OEMA 041100Z 0412/0518 09010KT CAVOK"
    },
    {
      "icao": "OJAI",
      "alert": "OK",
      "vis_m": 5000,
      "fzfg": false,
      "metar_trigger": false,
      "taf_trigger": false,
      "metar": "METAR OJAI 041600Z 28012KT 5000 HZ SCT030 11/05 Q1022 NOSIG",
      "taf": "TAF OJAI 041044Z 0412/0518 29010KT 5000 HZ NSC"
    },
    {
      "icao": "OMAA",
      "alert": "OK",
      "vis_m": null,
      "fzfg": false,
      "metar_trigger": false,
      "taf_trigger": false,
      "metar": "",
      "taf": "TAF OMAA 040500Z 0406/0512 VRB02KT 8000 NSC"
    },
    {
      "icao": "OMDB",
      "alert": "OK",
      "vis_m": null,
      "fzfg": false,
      "metar_trigger": false,
      "taf_trigger": false,
      "metar": "",
      "taf": "TAF OMDB 041100Z 0412/0518 30013KT 8000 NSC"
    },
    {
      "icao": "UAAA",
      "alert": "OK",
      "vis_m": 5000,
      "fzfg": false,
      "metar_trigger": false,
      "taf_trigger": false,
      "metar": "METAR UAAA 041600Z 14002MPS 120V180 5000 -SHRA BR BKN050CB OVC100 05/03 Q1024 NOSIG",
      "taf": "TAF UAAA 041107Z 0412/0512 17003MPS 3100 -SHRA BR BKN015CB OVC030 TX05/0511Z TNM02/0501Z"
    },
    {
      "icao": "UBBB",
      "alert": "OK",
      "vis_m": 9999,
      "fzfg": false,
      "metar_trigger": false,
      "taf_trigger": false,
      "metar": "METAR UBBB 041600Z 33014KT 9999 BKN007 OVC022 07/05 Q1023 NOSIG",
      "taf": "TAF UBBB 041052Z 0412/0512 32014KT 9999 SCT012 BKN020 TX09/0412Z TN04/0501Z"
    },
    {
      "icao": "UDSG",
      "alert": "OK",
      "vis_m": 9999,
      "fzfg": false,
      "metar_trigger": false,
      "taf_trigger": false,
      "metar": "METAR UDSG 041600Z 36008KT 9999 OVC040 M01/M07 Q1020 NOSIG",
      "taf": ""
    },
    {
      "icao": "UDYZ",
      "alert": "OK",
      "vis_m": 9999,
      "fzfg": false,
      "metar_trigger": false,
      "taf_trigger": false,
      "metar": "METAR UDYZ 041600Z 08004KT 040V110 9999 SCT033 04/M01 Q1019 NOSIG",
      "taf": "TAF UDYZ 041100Z 0412/0512 VRB06KT 9999 SCT040"
    },
    {
      "icao": "UGKO",
      "alert": "OK",
      "vis_m": 9999,
      "fzfg": false,
      "metar_trigger": false,
      "taf_trigger": false,
      "metar": "METAR UGKO 041600Z 25010KT 9999 SCT025 BKN055 05/03 Q1026 NOSIG",
      "taf": "TAF UGKO 041100Z 0412/0512 25007KT 9999 SCT030 OVC050 TX10/0511Z TN01/0503Z"
    }
  ]
}