{
  "ts_utc": "2026-01-12T03:28:25Z",
  "threshold_m": 150,
  "source": "stations_override.txt (ICAO list) + aviationweather.gov (METAR/TAF raw)",
  "station_count": 159,
  "stations": [
    {
      "icao": "BIKF",
      "alert": "OK",
      "vis_m": 9999,
      "fzfg": false,
      "metar_trigger": false,
      "taf_trigger": false,
      "metar": "METAR BIKF 120300Z 02020G30KT 9999 FEW030 M01/M07 Q0994",
      "taf": "TAF BIKF 120113Z 1203/1303 02022KT 9999 FEW030 TX00/1203Z TNM03/1300Z"
    },
    {
      "icao": "BKPR",
      "alert": "OK",
      "vis_m": 9999,
      "fzfg": false,
      "metar_trigger": false,
      "taf_trigger": false,
      "metar": "METAR BKPR 120300Z 329003KT 9999 SCT045 M07/M08 Q1019 NOSIG",
      "taf": "TAF BKPR 112330Z 1200/1224 33007KT 9999 SCT030"
    },
    {
      "icao": "EBCI",
      "alert": "OK",
      "vis_m": 9999,
      "fzfg": false,
      "metar_trigger": false,
      "taf_trigger": false,
      "metar": "METAR EBCI 120320Z 18016KT 9999 BKN009 02/M00 Q1010 NOSIG",
      "taf": "TAF EBCI 112300Z 1200/1306 17015KT 9999 FEW014 BKN030"
    },
    {
      "icao": "EDDB",
      "alert": "OK",
      "vis_m": 9999,
      "fzfg": false,
      "metar_trigger": false,
      "taf_trigger": false,
      "metar": "METAR EDDB 120320Z AUTO 18003KT CAVOK M13/M14 Q1020 NOSIG",
      "taf": "TAF EDDB 112300Z 1200/1224 20004KT CAVOK"
    },
    {
      "icao": "EDDH",
      "alert": "OK",
      "vis_m": 9999,
      "fzfg": false,
      "metar_trigger": false,
      "taf_trigger": false,
      "metar": "METAR EDDH 120320Z AUTO 14009KT CAVOK M05/M08 Q1016 NOSIG",
      "taf": "TAF EDDH 112300Z 1200/1306 14006KT CAVOK"
    },
    {
      "icao": "EDDK",
      "alert": "OK",
      "vis_m": 8000,
      "fzfg": false,
      "metar_trigger": false,
      "taf_trigger": false,
      "metar": "METAR EDDK 120320Z AUTO 12010KT 8000 3800 SHRA BR BKN041 FEW///TCU 00/M01 Q1014 TEMPO 4000 -FZRA",
      "taf": "TAF EDDK 112300Z 1200/1306 14009KT 9999 BKN020"
    },
    {
      "icao": "EDDN",
      "alert": "OK",
      "vis_m": 9999,
      "fzfg": false,
      "metar_trigger": false,
      "taf_trigger": false,
      "metar": "METAR EDDN 120320Z AUTO 13008KT CAVOK M05/M07 Q1020",
      "taf": "TAF EDDN 112300Z 1200/1224 11005KT 9999 BKN015"
    },
    {
      "icao": "EDDS",
      "alert": "OK",
      "vis_m": 9999,
      "fzfg": false,
      "metar_trigger": false,
      "taf_trigger": false,
      "metar": "METAR EDDS 120320Z AUTO 17001KT CAVOK M01/M05 Q1017",
      "taf": "TAF EDDS 112300Z 1200/1224 VRB02KT CAVOK"
    },
    {
      "icao": "EDFH",
      "alert": "OK",
      "vis_m": 9999,
      "fzfg": false,
      "metar_trigger": false,
      "taf_trigger": false,
      "metar": "METAR EDFH 120320Z 15012KT 9999 -SN FEW018 BKN038 M01/M02 Q1015",
      "taf": "TAF EDFH 112300Z 1200/1224 18010KT 7000 BKN005"
    },
    {
      "icao": "EDJA",
      "alert": "OK",
      "vis_m": 9999,
      "fzfg": false,
      "metar_trigger": false,
      "taf_trigger": false,
      "metar": "METAR EDJA 120320Z AUTO 21006KT 9999 // BKN110/// OVC150/// M06/M09 Q1019",
      "taf": "TAF EDJA 120200Z 1203/1212 18004KT CAVOK"
    },
    {
      "icao": "EDLW",
      "alert": "OK",
      "vis_m": 9999,
      "fzfg": false,
      "metar_trigger": false,
      "taf_trigger": false,
      "metar": "METAR EDLW 120320Z AUTO 16012KT 9999 // FEW042/// BKN048/// OVC054/// 01/M02 Q1012",
      "taf": "TAF EDLW 111700Z 1118/1218 17008KT 9999 FEW015"
    },
    {
      "icao": "EDNY",
      "alert": "OK",
      "vis_m": 9999,
      "fzfg": false,
      "metar_trigger": false,
      "taf_trigger": false,
      "metar": "METAR EDNY 120320Z AUTO VRB01KT 9999 // SCT011/// BKN088/// OVC110/// M04/M05 Q1021",
      "taf": "TAF EDNY 120200Z 1203/1212 VRB03KT 9999 SCT008 BKN050"
    },
    {
      "icao": "EDSB",
      "alert": "OK",
      "vis_m": 9999,
      "fzfg": false,
      "metar_trigger": false,
      "taf_trigger": false,
      "metar": "METAR EDSB 120320Z AUTO 16004KT 9999 OVC050/// M01/M02 Q1019",
      "taf": "TAF EDSB 112300Z 1200/1224 VRB02KT CAVOK"
    },
    {
      "icao": "EETN",
      "alert": "OK",
      "vis_m": 9999,
      "fzfg": false,
      "metar_trigger": false,
      "taf_trigger": false,
      "metar": "METAR EETN 120320Z 11006KT 9999 -SN OVC015 M06/M07 Q1015",
      "taf": "TAF EETN 112330Z 1200/1224 08010KT 9999 SCT015 BKN030"
    },
    {
      "icao": "EFTU",
      "alert": "OK",
      "vis_m": 9999,
      "fzfg": false,
      "metar_trigger": false,
      "taf_trigger": false,
      "metar": "METAR EFTU 120320Z AUTO 05006KT CAVOK M09/M11 Q1018",
      "taf": "TAF EFTU 120234Z 1203/1303 06007KT 9999 FEW020"
    },
    {
      "icao": "EGBB",
      "alert": "OK",
      "vis_m": 9999,
      "fzfg": false,
      "metar_trigger": false,
      "taf_trigger": false,
      "metar": "METAR EGBB 120320Z 18008KT 9999 FEW011 SCT032 BKN046 09/07 Q0998",
      "taf": "TAF EGBB 112257Z 1200/1224 20012KT 9999 SCT025"
    },
    {
      "icao": "EGGP",
      "alert": "OK",
      "vis_m": 9999,
      "fzfg": false,
      "metar_trigger": false,
      "taf_trigger": false,
      "metar": "METAR EGGP 120320Z AUTO 21009KT 9999 BKN031/// OVC039/// 09/05 Q0995",
      "taf": "TAF EGGP 112257Z 1200/1224 20012KT 9999 SCT030"
    },
    {
      "icao": "EGGW",
      "alert": "OK",
      "vis_m": 9999,
      "fzfg": false,
      "metar_trigger": false,
      "taf_trigger": false,
      "metar": "METAR EGGW 120320Z AUTO 21011KT 170V230 9999 BKN014 BKN034 09/08 Q1001",
      "taf": ""
    },
    {
      "icao": "EGKK",
      "alert": "OK",
      "vis_m": 9999,
      "fzfg": false,
      "metar_trigger": false,
      "taf_trigger": false,
      "metar": "METAR EGKK 120320Z 21008KT 9999 FEW011 BKN021 10/10 Q1003",
      "taf": "TAF EGKK 112300Z 1200/1306 21012KT 9999 BKN010"
    },
    {
      "icao": "EGNM",
      "alert": "OK",
      "vis_m": null,
      "fzfg": false,
      "metar_trigger": false,
      "taf_trigger": false,
      "metar": "",
      "taf": "TAF EGNM 112255Z 1200/1224 20012KT 9999 BKN017"
    },
    {
      "icao": "EGPD",
      "alert": "OK",
      "vis_m": 9999,
      "fzfg": false,
      "metar_trigger": false,
      "taf_trigger": false,
      "metar": "METAR EGPD 120320Z COR AUTO 19024KT 9999 BKN020 08/05 Q0981 NOSIG",
      "taf": "TAF EGPD 112258Z 1200/1224 17025G35KT 5000 RA BKN006"
    },
    {
      "icao": "EGPF",
      "alert": "OK",
      "vis_m": 9999,
      "fzfg": false,
      "metar_trigger": false,
      "taf_trigger": false,
      "metar": "METAR EGPF 120320Z AUTO 21026G36KT 9999 -RA FEW018/// SCT023/// BKN030/// //////TCU 09/07 Q0984",
      "taf": "TAF EGPF 112256Z 1200/1224 21020G38KT 9999 SCT025"
    },
    {
      "icao": "EHBK",
      "alert": "OK",
      "vis_m": 9999,
      "fzfg": false,
      "metar_trigger": false,
      "taf_trigger": false,
      "metar": "METAR EHBK 120325Z AUTO 20014KT 170V230 9999 OVC021/// 02/M01 Q1011 REDZ NOSIG",
      "taf": "TAF EHBK 112315Z 1200/1306 19011KT 9999 -FZRA NSC"
    },
    {
      "icao": "EHEH",
      "alert": "OK",
      "vis_m": 9999,
      "fzfg": false,
      "metar_trigger": false,
      "taf_trigger": false,
      "metar": "METAR EHEH 120255Z AUTO 16012KT 130V200 9999 SCT016 OVC019 01/M00 Q1010 WHT",
      "taf": "TAF EHEH 112307Z 1200/1306 17011KT 9999 BKN040"
    },
    {
      "icao": "EKBI",
      "alert": "OK",
      "vis_m": 9999,
      "fzfg": false,
      "metar_trigger": false,
      "taf_trigger": false,
      "metar": "METAR EKBI 120320Z AUTO 13011KT 9999 OVC090/// M02/M07 Q1013",
      "taf": "TAF EKBI 120227Z 1203/1303 12008KT CAVOK"
    },
    {
      "icao": "EKCH",
      "alert": "OK",
      "vis_m": 9999,
      "fzfg": false,
      "metar_trigger": false,
      "taf_trigger": false,
      "metar": "METAR EKCH 120320Z AUTO 08007KT 9999 BKN150/// M05/M09 Q1018 NOSIG",
      "taf": "TAF EKCH 120227Z 1203/1303 07005KT CAVOK"
    },
    {
      "icao": "ENAL",
      "alert": "OK",
      "vis_m": 9999,
      "fzfg": false,
      "metar_trigger": false,
      "taf_trigger": false,
      "metar": "METAR ENAL 120320Z AUTO 14015KT 9999 FEW047/// OVC060/// 06/M06 Q0999",
      "taf": "TAF ENAL 120200Z 1203/1212 15018KT 9999 BKN050"
    },
    {
      "icao": "ENBR",
      "alert": "OK",
      "vis_m": 9999,
      "fzfg": false,
      "metar_trigger": false,
      "taf_trigger": false,
      "metar": "METAR ENBR 120320Z 15028G40KT 9999 -SHRA BKN047 03/M05 Q1000 RMK WIND 1200FT 14060G78KT",
      "taf": "TAF ENBR 112300Z 1200/1224 13025G35KT 9999 SCT045"
    },
    {
      "icao": "ENGM",
      "alert": "OK",
      "vis_m": 9999,
      "fzfg": false,
      "metar_trigger": false,
      "taf_trigger": false,
      "metar": "METAR ENGM 120320Z 35002KT 9999 OVC033 M15/M17 Q1019",
      "taf": "TAF ENGM 112300Z 1200/1224 02003KT 9999 SCT004"
    },
    {
      "icao": "ENHD",
      "alert": "OK",
      "vis_m": 9999,
      "fzfg": false,
      "metar_trigger": false,
      "taf_trigger": false,
      "metar": "METAR ENHD 120320Z AUTO 13034G50KT 9999 -RA SCT028/// 02/M06 Q1001 REFZRA",
      "taf": "TAF ENHD 120200Z 1203/1212 13032G48KT 9999 FEW030 BKN040"
    },
    {
      "icao": "ENTC",
      "alert": "OK",
      "vis_m": 9999,
      "fzfg": false,
      "metar_trigger": false,
      "taf_trigger": false,
      "metar": "METAR ENTC 120320Z 27007KT 240V300 CAVOK M05/M08 Q1018 RMK WIND 2600FT 18022KT",
      "taf": "TAF ENTC 112300Z 1200/1224 20009KT CAVOK"
    },
    {
      "icao": "ENTO",
      "alert": "OK",
      "vis_m": 9999,
      "fzfg": false,
      "metar_trigger": false,
      "taf_trigger": false,
      "metar": "METAR ENTO 120320Z AUTO 36007KT 9999 R18/P2000N R36///// NCD M12/M14 Q1018",
      "taf": "TAF ENTO 112300Z 1200/1224 02007KT 9999 BKN004"
    },
    {
      "icao": "ENVA",
      "alert": "OK",
      "vis_m": 9999,
      "fzfg": false,
      "metar_trigger": false,
      "taf_trigger": false,
      "metar": "METAR ENVA 120320Z AUTO 12016KT 9999 NCD M01/M08 Q1013 RMK WIND 670FT 10017KT",
      "taf": "TAF ENVA 112300Z 1200/1224 09010KT CAVOK"
    },
    {
      "icao": "ENZV",
      "alert": "OK",
      "vis_m": 9999,
      "fzfg": false,
      "metar_trigger": false,
      "taf_trigger": false,
      "metar": "METAR ENZV 120250Z AUTO 14035G49KT 9999 -RA SQ NCD 01/M06 Q1002",
      "taf": "TAF ENZV 112300Z 1200/1224 13030G42KT 9999 SCT045"
    },
    {
      "icao": "EPGD",
      "alert": "OK",
      "vis_m": 3500,
      "fzfg": false,
      "metar_trigger": false,
      "taf_trigger": false,
      "metar": "METAR EPGD 120300Z 30009KT 3500 SHSN BKN010TCU M02/M03 Q1013",
      "taf": "TAF EPGD 112330Z 1200/1224 33010KT 9999 -SHSN SCT016CB"
    },
    {
      "icao": "EPKK",
      "alert": "OK",
      "vis_m": 8000,
      "fzfg": false,
      "metar_trigger": false,
      "taf_trigger": false,
      "metar": "METAR EPKK 120300Z 27015KT 8000 -SN DRSN BKN015 M05/M07 Q1016",
      "taf": "TAF EPKK 120230Z 1203/1303 27015KT 6000 -SN BKN020"
    },
    {
      "icao": "EPKT",
      "alert": "OK",
      "vis_m": 9999,
      "fzfg": false,
      "metar_trigger": false,
      "taf_trigger": false,
      "metar": "METAR EPKT 120300Z 27012KT 9999 -SN DRSN OVC008 M06/M08 Q1016",
      "taf": "TAF EPKT 112330Z 1200/1224 28015KT 6000 -SN DRSN BKN014"
    },
    {
      "icao": "EPLB",
      "alert": "OK",
      "vis_m": 4400,
      "fzfg": false,
      "metar_trigger": false,
      "taf_trigger": false,
      "metar": "METAR EPLB 120300Z 34009KT 4400 -SN BR FEW006 BKN038 OVC048 M06/M08 Q1011",
      "taf": "TAF EPLB 112330Z 1200/1224 30008KT 8000 -SN BKN020"
    },
    {
      "icao": "EPMO",
      "alert": "OK",
      "vis_m": 9999,
      "fzfg": false,
      "metar_trigger": false,
      "taf_trigger": false,
      "metar": "METAR EPMO 120300Z 34006KT 310V010 9999 -SN FEW008 BKN018 M05/M06 Q1013",
      "taf": "TAF EPMO 112330Z 1200/1224 30010KT 9999 BKN030"
    },
    {
      "icao": "EPPO",
      "alert": "OK",
      "vis_m": 9999,
      "fzfg": false,
      "metar_trigger": false,
      "taf_trigger": false,
      "metar": "METAR EPPO 120300Z 29011KT 9999 SCT026 M07/M10 Q1018",
      "taf": "TAF EPPO 112330Z 1200/1224 29010KT 9999 BKN032"
    },
    {
      "icao": "EPRA",
      "alert": "OK",
      "vis_m": 3500,
      "fzfg": false,
      "metar_trigger": false,
      "taf_trigger": false,
      "metar": "METAR EPRA 120300Z 33008KT 300V360 3500 SN BKN006 OVC017 M04/M05 Q1012",
      "taf": "TAF EPRA 120230Z 1203/1212 30010KT 8000 -SN BKN016 OVC025"
    },
    {
      "icao": "EPRZ",
      "alert": "OK",
      "vis_m": 4000,
      "fzfg": false,
      "metar_trigger": false,
      "taf_trigger": false,
      "metar": "METAR EPRZ 120300Z 26015KT 4000 -SN DRSN BR SCT003 OVC013 M04/M05 Q1013",
      "taf": "TAF EPRZ 112330Z 1200/1224 28012KT 3000 -SN BR BKN014"
    },
    {
      "icao": "EPSC",
      "alert": "OK",
      "vis_m": 9999,
      "fzfg": false,
      "metar_trigger": false,
      "taf_trigger": false,
      "metar": "METAR EPSC 120300Z 13002KT CAVOK M12/M13 Q1019",
      "taf": "TAF EPSC 112330Z 1200/1224 27004KT CAVOK"
    },
    {
      "icao": "EPSY",
      "alert": "OK",
      "vis_m": 9999,
      "fzfg": false,
      "metar_trigger": false,
      "taf_trigger": false,
      "metar": "METAR EPSY 120300Z 00000KT CAVOK M09/M10 Q1013",
      "taf": "TAF EPSY 120230Z 1203/1212 35005KT CAVOK"
    },
    {
      "icao": "EPWA",
      "alert": "OK",
      "vis_m": 7000,
      "fzfg": false,
      "metar_trigger": false,
      "taf_trigger": false,
      "metar": "METAR EPWA 120300Z 34009KT 7000 -SN SCT008 BKN016 M04/M05 Q1013 TEMPO 3000 SN",
      "taf": "TAF EPWA 120230Z 1203/1303 30010KT 9999 BKN020"
    },
    {
      "icao": "EPWR",
      "alert": "OK",
      "vis_m": 9999,
      "fzfg": false,
      "metar_trigger": false,
      "taf_trigger": false,
      "metar": "METAR EPWR 120300Z 28016KT CAVOK M07/M09 Q1020",
      "taf": "TAF EPWR 120230Z 1203/1303 28016KT CAVOK"
    },
    {
      "icao": "ESGG",
      "alert": "OK",
      "vis_m": 9999,
      "fzfg": false,
      "metar_trigger": false,
      "taf_trigger": false,
      "metar": "METAR ESGG 120320Z 11007KT CAVOK M10/M13 Q1017",
      "taf": "TAF ESGG 120230Z 1203/1303 12006KT CAVOK"
    },
    {
      "icao": "ESKN",
      "alert": "OK",
      "vis_m": 9999,
      "fzfg": false,
      "metar_trigger": false,
      "taf_trigger": false,
      "metar": "METAR ESKN 120320Z 32006KT 9999 -SN OVC021 M06/M08 Q1018",
      "taf": "TAF ESKN 120230Z 1203/1303 32007KT 9999 OVC020"
    },
    {
      "icao": "ESMS",
      "alert": "OK",
      "vis_m": 9999,
      "fzfg": false,
      "metar_trigger": false,
      "taf_trigger": false,
      "metar": "METAR ESMS 120320Z 00000KT CAVOK M15/M16 Q1017",
      "taf": "TAF ESMS 120227Z 1203/1303 VRB04KT CAVOK"
    },
    {
      "icao": "ESSA",
      "alert": "OK",
      "vis_m": 2000,
      "fzfg": false,
      "metar_trigger": false,
      "taf_trigger": false,
      "metar": "METAR ESSA 120320Z 35004KT 2000 -SN SCT006 BKN012 OVC022 M05/M06 Q1017 NOSIG",
      "taf": "TAF ESSA 120230Z 1203/1303 34006KT 9999 -SN FEW010 BKN017"
    },
    {
      "icao": "EYKA",
      "alert": "OK",
      "vis_m": 2500,
      "fzfg": false,
      "metar_trigger": false,
      "taf_trigger": false,
      "metar": "METAR EYKA 120320Z 00000KT 2500 SN BR FEW028 OVC035 M11/M12 Q1012",
      "taf": "TAF EYKA 112300Z 1200/1224 VRB04KT 5000 BR SCT005 BKN015"
    },
    {
      "icao": "EYPA",
      "alert": "OK",
      "vis_m": 9999,
      "fzfg": false,
      "metar_trigger": false,
      "taf_trigger": false,
      "metar": "METAR EYPA 120320Z 19002KT 9999 FEW036 M10/M11 Q1014",
      "taf": "TAF EYPA 112300Z 1200/1224 VRB04KT 5000 BR SCT005 SCT015"
    },
    {
      "icao": "EYVI",
      "alert": "OK",
      "vis_m": 6000,
      "fzfg": false,
      "metar_trigger": false,
      "taf_trigger": false,
      "metar": "METAR EYVI 120320Z 31004KT 6000 -SN OVC004 M12/M14 Q1010 TEMPO 1500 SN",
      "taf": ""
    },
    {
      "icao": "GCFV",
      "alert": "OK",
      "vis_m": 9999,
      "fzfg": false,
      "metar_trigger": false,
      "taf_trigger": false,
      "metar": "METAR GCFV 120300Z AUTO 03008KT 9999 BKN019 17/12 Q1023",
      "taf": "TAF GCFV 120200Z 1203/1303 06005KT 9999 SCT015 TX21/1214Z TN14/1206Z"
    },
    {
      "icao": "GCLP",
      "alert": "OK",
      "vis_m": 9999,
      "fzfg": false,
      "metar_trigger": false,
      "taf_trigger": false,
      "metar": "METAR GCLP 120300Z 33006KT 9999 FEW025 15/12 Q1023 NOSIG",
      "taf": "TAF GCLP 120200Z 1203/1303 33007KT 9999 SCT025 TX21/1214Z TN15/1206Z"
    },
    {
      "icao": "GCTS",
      "alert": "OK",
      "vis_m": 9999,
      "fzfg": false,
      "metar_trigger": false,
      "taf_trigger": false,
      "metar": "METAR GCTS 120300Z 04008KT 9999 FEW030 16/10 Q1023 NOSIG",
      "taf": "TAF GCTS 120200Z 1203/1303 01005KT 9999 FEW030 TX23/1214Z TN16/1206Z"
    },
    {
      "icao": "GMAD",
      "alert": "OK",
      "vis_m": 9999,
      "fzfg": false,
      "metar_trigger": false,
      "taf_trigger": false,
      "metar": "METAR GMAD 120300Z 05005KT CAVOK 07/06 Q1023 NOSIG",
      "taf": "TAF GMAD 112300Z 1200/1306 20008KT CAVOK"
    },
    {
      "icao": "GMMN",
      "alert": "OK",
      "vis_m": 4000,
      "fzfg": false,
      "metar_trigger": false,
      "taf_trigger": false,
      "metar": "METAR GMMN 120300Z 16004KT 4000 BR NCD 05/04 Q1023 NOSIG",
      "taf": "TAF GMMN 112300Z 1200/1306 17004KT 9999 FEW020"
    },
    {
      "icao": "GMMX",
      "alert": "OK",
      "vis_m": 6000,
      "fzfg": false,
      "metar_trigger": false,
      "taf_trigger": false,
      "metar": "METAR GMMX 120300Z 08004KT 6000 NSC 07/06 Q1023 NOSIG",
      "taf": "TAF GMMX 112300Z 1200/1306 06006KT 7000 NSC"
    },
    {
      "icao": "HEGN",
      "alert": "OK",
      "vis_m": 9999,
      "fzfg": false,
      "metar_trigger": false,
      "taf_trigger": false,
      "metar": "METAR HEGN 120300Z 29008KT CAVOK 14/06 Q1016 NOSIG",
      "taf": "TAF HEGN 112300Z 1200/1306 28008KT CAVOK"
    },
    {
      "icao": "HEMA",
      "alert": "OK",
      "vis_m": 9999,
      "fzfg": false,
      "metar_trigger": false,
      "taf_trigger": false,
      "metar": "METAR HEMA 120300Z 26006KT CAVOK 17/11 Q1015 NOSIG",
      "taf": "TAF HEMA 112300Z 1200/1306 28008G20KT CAVOK"
    },
    {
      "icao": "HESH",
      "alert": "OK",
      "vis_m": 9999,
      "fzfg": false,
      "metar_trigger": false,
      "taf_trigger": false,
      "metar": "METAR HESH 120300Z 34004KT CAVOK 17/09 Q1015 NOSIG",
      "taf": "TAF HESH 112300Z 1200/1306 31006G18KT CAVOK"
    },
    {
      "icao": "HESX",
      "alert": "OK",
      "vis_m": 9999,
      "fzfg": false,
      "metar_trigger": false,
      "taf_trigger": false,
      "metar": "METAR HESX 120300Z 23010KT CAVOK 10/01 Q1016 NOSIG",
      "taf": "TAF HESX 112300Z 1200/1306 21008KT CAVOK"
    },
    {
      "icao": "LATI",
      "alert": "OK",
      "vis_m": 9999,
      "fzfg": false,
      "metar_trigger": false,
      "taf_trigger": false,
      "metar": "METAR LATI 120320Z 29006KT CAVOK 00/M12 Q1019 NOSIG",
      "taf": "TAF LATI 112300Z 1200/1224 VRB05KT CAVOK TX06/1212Z TNM04/1205Z"
    },
    {
      "icao": "LBPD",
      "alert": "OK",
      "vis_m": 9999,
      "fzfg": false,
      "metar_trigger": false,
      "taf_trigger": false,
      "metar": "METAR LBPD 120300Z AUTO 28016KT 9999 OVC096/// M02/M10 Q1017",
      "taf": "TAF LBPD 112300Z 1200/1224 28020KT 9999 BKN040"
    },
    {
      "icao": "LBSF",
      "alert": "OK",
      "vis_m": 9999,
      "fzfg": false,
      "metar_trigger": false,
      "taf_trigger": false,
      "metar": "METAR LBSF 120300Z AUTO 29013KT 9999 SCT036/// M06/M11 Q1017 NOSIG",
      "taf": "TAF LBSF 112300Z 1200/1224 28012KT 9999 BKN040"
    },
    {
      "icao": "LBWN",
      "alert": "OK",
      "vis_m": 9999,
      "fzfg": false,
      "metar_trigger": false,
      "taf_trigger": false,
      "metar": "METAR LBWN 120300Z AUTO 29012KT 9999 -SN FEW050/// M03/M06 Q1017 TEMPO 5000 -SN",
      "taf": "TAF LBWN 112300Z 1200/1224 31010KT 9999 SCT020 BKN040"
    },
    {
      "icao": "LCLK",
      "alert": "OK",
      "vis_m": 9999,
      "fzfg": false,
      "metar_trigger": false,
      "taf_trigger": false,
      "metar": "METAR LCLK 120300Z 21011KT 9999 FEW025 BKN060 12/11 Q1009 NOSIG",
      "taf": "TAF LCLK 112330Z 1200/1300 23015KT 9999 FEW025 BKN060"
    },
    {
      "icao": "LCPH",
      "alert": "OK",
      "vis_m": 4600,
      "fzfg": false,
      "metar_trigger": false,
      "taf_trigger": false,
      "metar": "METAR LCPH 120300Z AUTO 29016KT 250V320 4600 SCT042 17/08 Q1009 NOSIG",
      "taf": "TAF LCPH 112330Z 1200/1300 27015KT 9999 FEW030 SCT050"
    },
    {
      "icao": "LEAL",
      "alert": "OK",
      "vis_m": 9999,
      "fzfg": false,
      "metar_trigger": false,
      "taf_trigger": false,
      "metar": "METAR LEAL 120300Z 22005KT CAVOK 07/05 Q1024 NOSIG",
      "taf": "TAF LEAL 112300Z 1200/1224 29007KT CAVOK TX16/1213Z TN07/1206Z"
    },
    {
      "icao": "LEBB",
      "alert": "OK",
      "vis_m": 9999,
      "fzfg": false,
      "metar_trigger": false,
      "taf_trigger": false,
      "metar": "METAR LEBB 120300Z AUTO 21012G25KT 160V280 CAVOK 16/07 Q1018",
      "taf": "TAF LEBB 112300Z 1200/1224 18008KT 9999 SCT060 TX15/1214Z TN12/1207Z"
    },
    {
      "icao": "LEBL",
      "alert": "OK",
      "vis_m": 9999,
      "fzfg": false,
      "metar_trigger": false,
      "taf_trigger": false,
      "metar": "METAR LEBL 120300Z 33009KT CAVOK 06/03 Q1023 NOSIG",
      "taf": "TAF LEBL 112300Z 1200/1224 33006KT 9999 FEW020 TX15/1213Z TN05/1206Z"
    },
    {
      "icao": "LECH",
      "alert": "OK",
      "vis_m": 9000,
      "fzfg": false,
      "metar_trigger": false,
      "taf_trigger": false,
      "metar": "METAR LECH 120300Z AUTO 33001KT 9000 NCD 04/02 Q1023",
      "taf": ""
    },
    {
      "icao": "LEMD",
      "alert": "OK",
      "vis_m": 9999,
      "fzfg": false,
      "metar_trigger": false,
      "taf_trigger": false,
      "metar": "METAR LEMD 120300Z 34001KT 9999 FEW012 BKN020 02/01 Q1025 NOSIG",
      "taf": "TAF LEMD 112300Z 1200/1306 VRB03KT CAVOK TX08/1215Z TN01/1306Z"
    },
    {
      "icao": "LEMG",
      "alert": "OK",
      "vis_m": 9999,
      "fzfg": false,
      "metar_trigger": false,
      "taf_trigger": false,
      "metar": "METAR LEMG 120300Z 30007KT CAVOK 05/04 Q1025 NOSIG",
      "taf": "TAF LEMG 112300Z 1200/1224 27006KT CAVOK TX17/1214Z TN07/1207Z"
    },
    {
      "icao": "LEVC",
      "alert": "OK",
      "vis_m": 9999,
      "fzfg": false,
      "metar_trigger": false,
      "taf_trigger": false,
      "metar": "METAR LEVC 120300Z VRB01KT CAVOK 05/03 Q1023 NOSIG",
      "taf": "TAF LEVC 112300Z 1200/1224 27005KT CAVOK TX19/1214Z TN05/1206Z"
    },
    {
      "icao": "LEXJ",
      "alert": "OK",
      "vis_m": 9999,
      "fzfg": false,
      "metar_trigger": false,
      "taf_trigger": false,
      "metar": "METAR LEXJ 120300Z AUTO 21016KT 150V260 9999 3700E NCD 16/06 Q1016",
      "taf": "TAF LEXJ 120200Z 1203/1303 22009KT 9999 SCT060 TX15/1213Z TN12/1208Z"
    },
    {
      "icao": "LEZG",
      "alert": "OK",
      "vis_m": 9999,
      "fzfg": false,
      "metar_trigger": false,
      "taf_trigger": false,
      "metar": "METAR LEZG 120300Z 11004KT 080V150 CAVOK 05/04 Q1023 NOSIG",
      "taf": "TAF LEZG 112300Z 1200/1224 VRB04KT CAVOK TX14/1215Z TN04/1206Z"
    },
    {
      "icao": "LEZL",
      "alert": "OK",
      "vis_m": 7000,
      "fzfg": false,
      "metar_trigger": false,
      "taf_trigger": false,
      "metar": "METAR LEZL 120300Z AUTO 02003KT 7000 NCD 06/06 Q1025",
      "taf": "TAF LEZL 120200Z 1203/1303 03004KT CAVOK TX16/1215Z TN05/1207Z"
    },
    {
      "icao": "LFBD",
      "alert": "OK",
      "vis_m": 9999,
      "fzfg": false,
      "metar_trigger": false,
      "taf_trigger": false,
      "metar": "METAR LFBD 120300Z AUTO 14004KT CAVOK 05/04 Q1018",
      "taf": ""
    },
    {
      "icao": "LFLL",
      "alert": "OK",
      "vis_m": 9999,
      "fzfg": false,
      "metar_trigger": false,
      "taf_trigger": false,
      "metar": "METAR LFLL 120300Z 14006KT CAVOK 02/M01 Q1022 NOSIG",
      "taf": "TAF LFLL 112300Z 1200/1306 18007KT CAVOK"
    },
    {
      "icao": "LFLS",
      "alert": "OK",
      "vis_m": 9999,
      "fzfg": false,
      "metar_trigger": false,
      "taf_trigger": false,
      "metar": "METAR LFLS 120300Z AUTO 07010KT CAVOK 01/M02 Q1022 NOSIG",
      "taf": "TAF LFLS 120200Z 1203/1303 09005KT 9999 BKN060"
    },
    {
      "icao": "LFMN",
      "alert": "OK",
      "vis_m": 9999,
      "fzfg": false,
      "metar_trigger": false,
      "taf_trigger": false,
      "metar": "METAR LFMN 120300Z 33013KT CAVOK 06/M06 Q1023 NOSIG",
      "taf": "TAF LFMN 120200Z 1203/1309 33010KT CAVOK"
    },
    {
      "icao": "LFOB",
      "alert": "OK",
      "vis_m": 8000,
      "fzfg": false,
      "metar_trigger": false,
      "taf_trigger": false,
      "metar": "METAR LFOB 120300Z AUTO 18009KT 8000 -DZ OVC006 05/05 Q1010 TEMPO 2000 DZ OVC002",
      "taf": "TAF LFOB 112300Z 1200/1224 18015G25KT 9999 OVC020"
    },
    {
      "icao": "LFPO",
      "alert": "OK",
      "vis_m": 9999,
      "fzfg": false,
      "metar_trigger": false,
      "taf_trigger": false,
      "metar": "METAR LFPO 120300Z AUTO 19008KT 160V220 9999 OVC008/// ///TCU 05/04 Q1012",
      "taf": ""
    },
    {
      "icao": "LFSB",
      "alert": "OK",
      "vis_m": 9999,
      "fzfg": false,
      "metar_trigger": false,
      "taf_trigger": false,
      "metar": "METAR LFSB 120300Z AUTO 15006KT CAVOK 00/M01 Q1020 NOSIG",
      "taf": "TAF LFSB 112300Z 1200/1224 12006KT CAVOK"
    },
    {
      "icao": "LGAV",
      "alert": "OK",
      "vis_m": 9999,
      "fzfg": false,
      "metar_trigger": false,
      "taf_trigger": false,
      "metar": "METAR LGAV 120320Z 30011KT 9999 FEW020 SCT040 06/M01 Q1012 NOSIG",
      "taf": "TAF LGAV 112300Z 1200/1224 34012KT 9999 FEW018 SCT025"
    },
    {
      "icao": "LGTS",
      "alert": "OK",
      "vis_m": 9999,
      "fzfg": false,
      "metar_trigger": false,
      "taf_trigger": false,
      "metar": "METAR LGTS 120320Z 34015G25KT 9999 SCT025 00/M07 Q1018 NOSIG",
      "taf": "TAF LGTS 112300Z 1200/1224 34015G30KT 9999 FEW025"
    },
    {
      "icao": "LHBP",
      "alert": "OK",
      "vis_m": 9999,
      "fzfg": false,
      "metar_trigger": false,
      "taf_trigger": false,
      "metar": "METAR LHBP 120300Z 30016KT 9999 DRSN NSC M06/M11 Q1020 NOSIG",
      "taf": "TAF LHBP 112315Z 1200/1224 30010KT CAVOK"
    },
    {
      "icao": "LHDC",
      "alert": "OK",
      "vis_m": 9999,
      "fzfg": false,
      "metar_trigger": false,
      "taf_trigger": false,
      "metar": "METAR LHDC 120245Z AUTO 16006KT CAVOK M10/M12 Q1018 NOSIG",
      "taf": "TAF LHDC 120215Z 1203/1212 18007KT CAVOK"
    },
    {
      "icao": "LIBD",
      "alert": "OK",
      "vis_m": 9999,
      "fzfg": false,
      "metar_trigger": false,
      "taf_trigger": false,
      "metar": "METAR LIBD 120320Z 35013KT 310V020 CAVOK 06/M07 Q1023",
      "taf": "TAF LIBD 112300Z 1200/1224 34016KT 9999 FEW040"
    },
    {
      "icao": "LIBG",
      "alert": "OK",
      "vis_m": null,
      "fzfg": false,
      "metar_trigger": false,
      "taf_trigger": false,
      "metar": "",
      "taf": "TAF LIBG 111700Z 1118/1203 33015KT 9999 FEW040"
    },
    {
      "icao": "LIBP",
      "alert": "OK",
      "vis_m": 9999,
      "fzfg": false,
      "metar_trigger": false,
      "taf_trigger": false,
      "metar": "METAR LIBP 120320Z AUTO 22005KT 9999 NCD M02/M02 Q1025",
      "taf": "TAF LIBP 112300Z 1200/1224 22006KT CAVOK"
    },
    {
      "icao": "LIBR",
      "alert": "OK",
      "vis_m": 9999,
      "fzfg": false,
      "metar_trigger": false,
      "taf_trigger": false,
      "metar": "METAR LIBR 120320Z 36024G35KT 9999 BKN048 05/M05 Q1020",
      "taf": "TAF LIBR 112300Z 1200/1224 35020G35KT 9999 SCT040"
    },
    {
      "icao": "LICA",
      "alert": "OK",
      "vis_m": 9999,
      "fzfg": false,
      "metar_trigger": false,
      "taf_trigger": false,
      "metar": "METAR LICA 120320Z AUTO 05008KT 9999 NCD 04/M12 Q1022",
      "taf": "TAF LICA 112300Z 1200/1224 04007KT CAVOK"
    },
    {
      "icao": "LICC",
      "alert": "OK",
      "vis_m": 9999,
      "fzfg": false,
      "metar_trigger": false,
      "taf_trigger": false,
      "metar": "METAR LICC 120320Z 25007KT CAVOK 05/01 Q1022",
      "taf": "TAF LICC 112300Z 1200/1224 26008KT 9999 FEW040"
    },
    {
      "icao": "LICJ",
      "alert": "OK",
      "vis_m": 9999,
      "fzfg": false,
      "metar_trigger": false,
      "taf_trigger": false,
      "metar": "METAR LICJ 120320Z 09010KT 9999 SCT050 10/05 Q1023",
      "taf": "TAF LICJ 112300Z 1200/1224 04010KT 9999 FEW030"
    },
    {
      "icao": "LIMC",
      "alert": "OK",
      "vis_m": 9999,
      "fzfg": false,
      "metar_trigger": false,
      "taf_trigger": false,
      "metar": "METAR LIMC 120320Z 03006KT CAVOK M04/M07 Q1022 NOSIG",
      "taf": "TAF LIMC 112300Z 1200/1306 VRB05KT CAVOK"
    },
    {
      "icao": "LIME",
      "alert": "OK",
      "vis_m": 9999,
      "fzfg": false,
      "metar_trigger": false,
      "taf_trigger": false,
      "metar": "METAR LIME 120320Z AUTO 02004KT 9999 NCD M02/M10 Q1022",
      "taf": "TAF LIME 112300Z 1200/1224 VRB05KT CAVOK"
    },
    {
      "icao": "LIMF",
      "alert": "OK",
      "vis_m": 9999,
      "fzfg": false,
      "metar_trigger": false,
      "taf_trigger": false,
      "metar": "METAR LIMF 120320Z VRB02KT CAVOK M01/M08 Q1022",
      "taf": "TAF LIMF 112300Z 1200/1224 VRB05KT CAVOK"
    },
    {
      "icao": "LIMJ",
      "alert": "OK",
      "vis_m": 9999,
      "fzfg": false,
      "metar_trigger": false,
      "taf_trigger": false,
      "metar": "METAR LIMJ 120320Z 08009KT 9999 SCT050 06/M03 Q1022",
      "taf": "TAF LIMJ 112300Z 1200/1224 VRB05KT CAVOK"
    },
    {
      "icao": "LIPE",
      "alert": "OK",
      "vis_m": 9999,
      "fzfg": false,
      "metar_trigger": false,
      "taf_trigger": false,
      "metar": "METAR LIPE 120250Z 20006KT CAVOK 00/M07 Q1023",
      "taf": "TAF LIPE 112300Z 1200/1224 VRB05KT CAVOK"
    },
    {
      "icao": "LIPH",
      "alert": "OK",
      "vis_m": 9999,
      "fzfg": false,
      "metar_trigger": false,
      "taf_trigger": false,
      "metar": "METAR LIPH 120320Z AUTO 02002KT 9999 NCD M01/M03 Q1023",
      "taf": "TAF LIPH 112300Z 1200/1224 VRB05KT 9999 FEW030"
    },
    {
      "icao": "LIPQ",
      "alert": "OK",
      "vis_m": 9999,
      "fzfg": false,
      "metar_trigger": false,
      "taf_trigger": false,
      "metar": "METAR LIPQ 120320Z AUTO VRB02KT 9999 SCT037/// M02/M06 Q1023",
      "taf": "TAF LIPQ 112300Z 1200/1224 VRB05KT 9999 SCT040"
    },
    {
      "icao": "LIPR",
      "alert": "OK",
      "vis_m": 9999,
      "fzfg": false,
      "metar_trigger": false,
      "taf_trigger": false,
      "metar": "METAR LIPR 120320Z AUTO 24003KT 9999 NCD M03/M05 Q1023",
      "taf": "TAF LIPR 112300Z 1200/1224 VRB05KT CAVOK"
    },
    {
      "icao": "LIPX",
      "alert": "OK",
      "vis_m": 9999,
      "fzfg": false,
      "metar_trigger": false,
      "taf_trigger": false,
      "metar": "METAR LIPX 120320Z 12004KT CAVOK M04/M06 Q1023",
      "taf": "TAF LIPX 112300Z 1200/1224 VRB05KT CAVOK"
    },
    {
      "icao": "LIPY",
      "alert": "OK",
      "vis_m": 9999,
      "fzfg": false,
      "metar_trigger": false,
      "taf_trigger": false,
      "metar": "METAR LIPY 120320Z AUTO 19005KT 9999 NCD 01/M03 Q1024",
      "taf": "TAF LIPY 112300Z 1200/1224 22007KT 9999 FEW040"
    },
    {
      "icao": "LIPZ",
      "alert": "OK",
      "vis_m": 9999,
      "fzfg": false,
      "metar_trigger": false,
      "taf_trigger": false,
      "metar": "METAR LIPZ 120320Z 02006KT CAVOK M02/M05 Q1023 NOSIG",
      "taf": "TAF LIPZ 112300Z 1200/1306 VRB05KT CAVOK"
    },
    {
      "icao": "LIRF",
      "alert": "OK",
      "vis_m": 9999,
      "fzfg": false,
      "metar_trigger": false,
      "taf_trigger": false,
      "metar": "METAR LIRF 120320Z 03005KT CAVOK 01/M02 Q1025 NOSIG",
      "taf": "TAF LIRF 112300Z 1200/1306 02010KT CAVOK"
    },
    {
      "icao": "LIRN",
      "alert": "OK",
      "vis_m": 9999,
      "fzfg": false,
      "metar_trigger": false,
      "taf_trigger": false,
      "metar": "METAR LIRN 120320Z 04007KT CAVOK 03/M08 Q1024 NOSIG",
      "taf": "TAF LIRN 112300Z 1200/1224 05007KT CAVOK"
    },
    {
      "icao": "LIRP",
      "alert": "OK",
      "vis_m": 9999,
      "fzfg": false,
      "metar_trigger": false,
      "taf_trigger": false,
      "metar": "METAR LIRP 120245Z 13005KT CAVOK M02/M03 Q1024 NOSIG",
      "taf": "TAF LIRP 112300Z 1200/1224 12005KT CAVOK"
    },
    {
      "icao": "LIRZ",
      "alert": "OK",
      "vis_m": 9999,
      "fzfg": false,
      "metar_trigger": false,
      "taf_trigger": false,
      "metar": "METAR LIRZ 120320Z AUTO 35003KT 9999 NCD M03/M03 Q1024",
      "taf": "TAF LIRZ 112300Z 1200/1224 VRB05KT 9999 FEW050"
    },
    {
      "icao": "LJLJ",
      "alert": "OK",
      "vis_m": 9999,
      "fzfg": false,
      "metar_trigger": false,
      "taf_trigger": false,
      "metar": "METAR LJLJ 120300Z VRB01KT 9999 0800SE R30/P2000N PRFG MIFG FEW001 M14/M15 Q1023 NOSIG",
      "taf": "TAF LJLJ 112300Z 1200/1300 VRB02KT CAVOK"
    },
    {
      "icao": "LKMT",
      "alert": "OK",
      "vis_m": 9999,
      "fzfg": false,
      "metar_trigger": false,
      "taf_trigger": false,
      "metar": "METAR LKMT 120300Z 23009KT 9999 BKN038 M08/M11 Q1019 NOSIG",
      "taf": "TAF LKMT 112300Z 1200/1224 23009KT 9999 BKN033"
    },
    {
      "icao": "LKPR",
      "alert": "OK",
      "vis_m": 9999,
      "fzfg": false,
      "metar_trigger": false,
      "taf_trigger": false,
      "metar": "METAR LKPR 120300Z 21009KT CAVOK M09/M11 Q1020 NOSIG",
      "taf": "TAF LKPR 120200Z 1203/1309 25010KT CAVOK"
    },
    {
      "icao": "LLBG",
      "alert": "OK",
      "vis_m": 9999,
      "fzfg": false,
      "metar_trigger": false,
      "taf_trigger": false,
      "metar": "METAR LLBG 120320Z 17005KT CAVOK 12/07 Q1015 NOSIG",
      "taf": "TAF LLBG 112318Z 1200/1224 14005KT CAVOK"
    },
    {
      "icao": "LMML",
      "alert": "OK",
      "vis_m": 9999,
      "fzfg": false,
      "metar_trigger": false,
      "taf_trigger": false,
      "metar": "METAR LMML 120315Z 31012KT 9999 FEW025 10/05 Q1022 NOSIG",
      "taf": "TAF LMML 112300Z 1200/1224 31009KT 9999 FEW028"
    },
    {
      "icao": "LOWW",
      "alert": "OK",
      "vis_m": 9999,
      "fzfg": false,
      "metar_trigger": false,
      "taf_trigger": false,
      "metar": "METAR LOWW 120320Z 31011KT CAVOK M05/M10 Q1022 NOSIG",
      "taf": "TAF LOWW 120215Z 1203/1309 30010KT CAVOK TXM02/1309Z TNM07/1206Z"
    },
    {
      "icao": "LPFR",
      "alert": "OK",
      "vis_m": 9999,
      "fzfg": false,
      "metar_trigger": false,
      "taf_trigger": false,
      "metar": "METAR LPFR 120300Z 03007KT CAVOK 09/08 Q1024",
      "taf": "TAF LPFR 112300Z 1200/1224 03005KT 9999 FEW025"
    },
    {
      "icao": "LPMA",
      "alert": "OK",
      "vis_m": 9999,
      "fzfg": false,
      "metar_trigger": false,
      "taf_trigger": false,
      "metar": "METAR LPMA 120300Z 24003KT 9999 BKN015 15/13 Q1023",
      "taf": "TAF LPMA 112300Z 1200/1224 VRB05KT 9999 SCT015"
    },
    {
      "icao": "LPPR",
      "alert": "OK",
      "vis_m": 9999,
      "fzfg": false,
      "metar_trigger": false,
      "taf_trigger": false,
      "metar": "METAR LPPR 120300Z 18017KT 9999 -RADZ BKN005 BKN012 13/12 Q1020",
      "taf": "TAF LPPR 112300Z 1200/1224 18015KT 9999 SCT006 BKN012"
    },
    {
      "icao": "LPPS",
      "alert": "OK",
      "vis_m": 9999,
      "fzfg": false,
      "metar_trigger": false,
      "taf_trigger": false,
      "metar": "METAR LPPS 120300Z 20005KT 9999 SCT014 SCT030 15/14 Q1023",
      "taf": "TAF LPPS 112300Z 1200/1306 VRB05KT 9999 SCT015 SCT030"
    },
    {
      "icao": "LPPT",
      "alert": "OK",
      "vis_m": 6000,
      "fzfg": false,
      "metar_trigger": false,
      "taf_trigger": false,
      "metar": "METAR LPPT 120300Z 19010KT 6000 -DZ FEW002 BKN004 12/12 Q1023",
      "taf": "TAF LPPT 112300Z 1200/1306 21008KT 9999 SCT008 BKN020"
    },
    {
      "icao": "LQBK",
      "alert": "OK",
      "vis_m": 9999,
      "fzfg": false,
      "metar_trigger": false,
      "taf_trigger": false,
      "metar": "METAR LQBK 120300Z VRB02KT CAVOK M12/M12 Q1024 NOSIG",
      "taf": "TAF LQBK 112300Z 1200/1224 16005KT CAVOK TX00/1212Z TNM13/1206Z"
    },
    {
      "icao": "LQSA",
      "alert": "OK",
      "vis_m": 9999,
      "fzfg": false,
      "metar_trigger": false,
      "taf_trigger": false,
      "metar": "METAR LQSA 120300Z 00000KT 9999 FEW065 M10/M10 Q1022",
      "taf": "TAF LQSA 112300Z 1200/1224 15005KT CAVOK TXM03/1214Z TNM13/1206Z"
    },
    {
      "icao": "LQTZ",
      "alert": "OK",
      "vis_m": 9999,
      "fzfg": false,
      "metar_trigger": false,
      "taf_trigger": false,
      "metar": "METAR LQTZ 120300Z 33004KT CAVOK M07/M08 Q1023",
      "taf": "TAF LQTZ 112300Z 1200/1224 28005KT CAVOK TXM01/1213Z TNM10/1206Z"
    },
    {
      "icao": "LRBC",
      "alert": "OK",
      "vis_m": 9999,
      "fzfg": false,
      "metar_trigger": false,
      "taf_trigger": false,
      "metar": "METAR LRBC 120300Z 23006KT 190V250 CAVOK M03/M13 Q1014",
      "taf": "TAF LRBC 120200Z 1203/1212 28008KT CAVOK"
    },
    {
      "icao": "LRBS",
      "alert": "OK",
      "vis_m": 4500,
      "fzfg": false,
      "metar_trigger": false,
      "taf_trigger": false,
      "metar": "METAR LRBS 120300Z 26007KT 4500 BR FEW005 M06/M07 Q1017 BECMG BKN005",
      "taf": "TAF LRBS 112300Z 1200/1224 27006KT 5000 BR NSC"
    },
    {
      "icao": "LRBV",
      "alert": "OK",
      "vis_m": 9999,
      "fzfg": false,
      "metar_trigger": false,
      "taf_trigger": false,
      "metar": "METAR LRBV 120300Z AUTO 00000KT 9999 SG OVC016/// M07/M11 Q1015",
      "taf": "TAF LRBV 120200Z 1203/1212 VRB04KT 9999 BKN020"
    },
    {
      "icao": "LRCL",
      "alert": "OK",
      "vis_m": 9999,
      "fzfg": false,
      "metar_trigger": false,
      "taf_trigger": false,
      "metar": "METAR LRCL 120300Z 00000KT 9999 OVC048 M09/M10 Q1017",
      "taf": "TAF LRCL 120200Z 1203/1212 VRB04KT 9999 BKN045"
    },
    {
      "icao": "LRCV",
      "alert": "OK",
      "vis_m": 9999,
      "fzfg": false,
      "metar_trigger": false,
      "taf_trigger": false,
      "metar": "METAR LRCV 120300Z 29008KT CAVOK M07/M09 Q1018",
      "taf": "TAF LRCV 120200Z 1203/1212 29008KT CAVOK"
    },
    {
      "icao": "LRIA",
      "alert": "OK",
      "vis_m": 9999,
      "fzfg": false,
      "metar_trigger": false,
      "taf_trigger": false,
      "metar": "METAR LRIA 120300Z 25004KT CAVOK M05/M11 Q1013",
      "taf": "TAF LRIA 120200Z 1203/1212 VRB04KT CAVOK"
    },
    {
      "icao": "LROP",
      "alert": "OK",
      "vis_m": 4500,
      "fzfg": false,
      "metar_trigger": false,
      "taf_trigger": false,
      "metar": "METAR LROP 120300Z 27007KT 4500 BR BKN010 M07/M07 Q1017 TEMPO 3000 BR BKN005",
      "taf": "TAF LROP 112300Z 1200/1224 27007KT 3000 BR NSC"
    },
    {
      "icao": "LRSB",
      "alert": "OK",
      "vis_m": 9999,
      "fzfg": false,
      "metar_trigger": false,
      "taf_trigger": false,
      "metar": "METAR LRSB 120300Z VRB02KT 9999 FEW033 M12/M13 Q1016",
      "taf": "TAF LRSB 112300Z 1200/1224 VRB04KT 9999 BKN060"
    },
    {
      "icao": "LRSM",
      "alert": "OK",
      "vis_m": 4600,
      "fzfg": false,
      "metar_trigger": false,
      "taf_trigger": false,
      "metar": "METAR LRSM 120300Z AUTO 26013KT 4600 -SN FEW022/// BKN026/// OVC038/// M05/M08 Q1017",
      "taf": "TAF LRSM 120200Z 1203/1212 23012KT 5000 -SN BKN025"
    },
    {
      "icao": "LRSV",
      "alert": "OK",
      "vis_m": 9999,
      "fzfg": false,
      "metar_trigger": false,
      "taf_trigger": false,
      "metar": "METAR LRSV 120300Z 26009KT CAVOK M05/M12 Q1010",
      "taf": "TAF LRSV 120200Z 1203/1212 26008KT CAVOK"
    },
    {
      "icao": "LRTM",
      "alert": "OK",
      "vis_m": 9999,
      "fzfg": false,
      "metar_trigger": false,
      "taf_trigger": false,
      "metar": "METAR LRTM 120300Z AUTO 03001KT 9999 FEW039/// SCT070/// OVC085/// M10/M12 Q1017",
      "taf": "TAF LRTM 120200Z 1203/1212 VRB04KT CAVOK"
    },
    {
      "icao": "LRTR",
      "alert": "OK",
      "vis_m": 9999,
      "fzfg": false,
      "metar_trigger": false,
      "taf_trigger": false,
      "metar": "METAR LRTR 120300Z 17002KT 9999 SCT030 M11/M13 Q1021",
      "taf": "TAF LRTR 112300Z 1200/1224 VRB04KT 9999 BKN035"
    },
    {
      "icao": "LTAC",
      "alert": "OK",
      "vis_m": 2500,
      "fzfg": false,
      "metar_trigger": false,
      "taf_trigger": false,
      "metar": "METAR LTAC 120320Z VRB02KT 2500 BR SCT002 BKN020 BKN080 00/00 Q1005 NOSIG RMK RWY21C VRB01KT RWY03L 00000KT RWY21R 00000KT RWY03R VRB01KT RWY21L VRB01KT",
      "taf": "TAF LTAC 112240Z 1200/1224 VRB02KT 6000 SCT035 BKN090"
    },
    {
      "icao": "LTFM",
      "alert": "OK",
      "vis_m": 9999,
      "fzfg": false,
      "metar_trigger": false,
      "taf_trigger": false,
      "metar": "METAR LTFM 120320Z 04021KT 9999 -SHSN BKN011 BKN020 02/M00 Q1014 NOSIG RMK RWY17L 03019KT RWY34L 02019KT RWY16R 04019KT RWY36 04021KT RWY18 05020KT",
      "taf": "TAF LTFM 112240Z 1200/1306 02018KT 9999 -SHSN BKN012 BKN020"
    },
    {
      "icao": "LUKK",
      "alert": "OK",
      "vis_m": 9999,
      "fzfg": false,
      "metar_trigger": false,
      "taf_trigger": false,
      "metar": "METAR LUKK 120300Z 35004KT 240V030 CAVOK M09/M13 Q1013 NOSIG",
      "taf": "TAF LUKK 112314Z 1200/1224 27008KT CAVOK"
    },
    {
      "icao": "LWOH",
      "alert": "OK",
      "vis_m": null,
      "fzfg": false,
      "metar_trigger": false,
      "taf_trigger": false,
      "metar": "",
      "taf": "TAF LWOH 120205Z 1203/1303 35008KT 9999 FEW040"
    },
    {
      "icao": "LWSK",
      "alert": "OK",
      "vis_m": 9999,
      "fzfg": false,
      "metar_trigger": false,
      "taf_trigger": false,
      "metar": "METAR LWSK 120320Z 34003KT 300V050 9999 FEW047 M06/M10 Q1021 NOSIG",
      "taf": "TAF LWSK 120205Z 1203/1303 33008KT 9999 FEW050"
    },
    {
      "icao": "LYBE",
      "alert": "OK",
      "vis_m": 9999,
      "fzfg": false,
      "metar_trigger": false,
      "taf_trigger": false,
      "metar": "METAR LYBE 120300Z 27011KT CAVOK M06/M11 Q1023 NOSIG",
      "taf": "TAF LYBE 112300Z 1200/1224 27008KT CAVOK TXM01/1212Z TNM10/1206Z"
    },
    {
      "icao": "LYNI",
      "alert": "OK",
      "vis_m": 9999,
      "fzfg": false,
      "metar_trigger": false,
      "taf_trigger": false,
      "metar": "METAR LYNI 120300Z 00000KT 9999 FEW015 BKN030 OVC070 M04/M07 Q1022 NOSIG",
      "taf": "TAF LYNI 112300Z 1200/1224 30005KT 9999 SCT015 BKN030 TXM02/1212Z TNM07/1206Z"
    },
    {
      "icao": "LYPG",
      "alert": "OK",
      "vis_m": 9999,
      "fzfg": false,
      "metar_trigger": false,
      "taf_trigger": false,
      "metar": "METAR LYPG 120300Z 33012KT CAVOK 00/M12 Q1022 NOSIG",
      "taf": "TAF LYPG 112300Z 1200/1224 36015G25KT CAVOK TX05/1212Z TNM04/1223Z"
    },
    {
      "icao": "LZIB",
      "alert": "OK",
      "vis_m": 9999,
      "fzfg": false,
      "metar_trigger": false,
      "taf_trigger": false,
      "metar": "METAR LZIB 120300Z 30013KT CAVOK M06/M13 Q1022 NOSIG",
      "taf": "TAF LZIB 112315Z 1200/1300 29010KT CAVOK"
    },
    {
      "icao": "LZKZ",
      "alert": "OK",
      "vis_m": 7000,
      "fzfg": false,
      "metar_trigger": false,
      "taf_trigger": false,
      "metar": "METAR LZKZ 120300Z 29002KT 7000 NSC M08/M10 Q1016 NOSIG",
      "taf": "TAF LZKZ 112315Z 1200/1300 VRB02KT 9999 SCT025"
    },
    {
      "icao": "LZTT",
      "alert": "OK",
      "vis_m": 9999,
      "fzfg": false,
      "metar_trigger": false,
      "taf_trigger": false,
      "metar": "METAR LZTT 120300Z 29015KT 9999 -SN DRSN BKN047 M08/M11 Q1012",
      "taf": "TAF LZTT 112315Z 1200/1300 28017KT 5000 -SN DRSN SCT015 OVC025"
    },
    {
      "icao": "OEJN",
      "alert": "OK",
      "vis_m": 9999,
      "fzfg": false,
      "metar_trigger": false,
      "taf_trigger": false,
      "metar": "METAR OEJN 120300Z 00000KT CAVOK 23/16 Q1014 NOSIG",
      "taf": "TAF OEJN 112300Z 1200/1306 VRB03KT 7000 NSC"
    },
    {
      "icao": "OEMA",
      "alert": "OK",
      "vis_m": 8000,
      "fzfg": false,
      "metar_trigger": false,
      "taf_trigger": false,
      "metar": "METAR OEMA 120300Z VRB02KT 8000 NSC 16/M02 Q1019 NOSIG",
      "taf": "TAF OEMA 112300Z 1200/1306 VRB03KT 9999 FEW040"
    },
    {
      "icao": "OJAI",
      "alert": "OK",
      "vis_m": 5000,
      "fzfg": false,
      "metar_trigger": false,
      "taf_trigger": false,
      "metar": "METAR OJAI 120300Z 00000KT 5000 BR NSC 03/01 Q1016 NOSIG",
      "taf": "TAF OJAI 112300Z 1200/1306 24014KT 5000 HZ NSC"
    },
    {
      "icao": "OMAA",
      "alert": "OK",
      "vis_m": 4500,
      "fzfg": false,
      "metar_trigger": false,
      "taf_trigger": false,
      "metar": "METAR OMAA 120300Z 20002KT 4500 HZ NSC 15/12 Q1021 TEMPO 4000",
      "taf": "TAF OMAA 112300Z 1200/1306 VRB02KT 8000 NSC"
    },
    {
      "icao": "OMDB",
      "alert": "OK",
      "vis_m": 7000,
      "fzfg": false,
      "metar_trigger": false,
      "taf_trigger": false,
      "metar": "METAR OMDB 120300Z 17004KT 7000 NSC 18/12 Q1021 TEMPO 4000 HZ",
      "taf": "TAF OMDB 112300Z 1200/1306 14005KT 8000 NSC"
    },
    {
      "icao": "UAAA",
      "alert": "OK",
      "vis_m": 5000,
      "fzfg": false,
      "metar_trigger": false,
      "taf_trigger": false,
      "metar": "METAR UAAA 120300Z VRB01MPS 5000 BR SCT200 M03/M06 Q1022 NOSIG",
      "taf": "TAF UAAA 112301Z 1200/1224 26003G08MPS 6000 SCT050 BKN100 TX07/1209Z TNM03/1201Z"
    },
    {
      "icao": "UBBB",
      "alert": "OK",
      "vis_m": 9999,
      "fzfg": false,
      "metar_trigger": false,
      "taf_trigger": false,
      "metar": "METAR UBBB 120300Z 20018KT CAVOK 10/01 Q1009 NOSIG",
      "taf": "TAF UBBB 112301Z 1200/1224 19020G30KT CAVOK TX14/1209Z TN08/1202Z"
    },
    {
      "icao": "UDSG",
      "alert": "OK",
      "vis_m": 9999,
      "fzfg": false,
      "metar_trigger": false,
      "taf_trigger": false,
      "metar": "METAR UDSG 120300Z 03002KT 9999 BKN049 M04/M06 Q1016 NOSIG",
      "taf": "TAF UDSG 112258Z 1200/1224 VRB04KT 9999 BKN040"
    },
    {
      "icao": "UDYZ",
      "alert": "OK",
      "vis_m": 1300,
      "fzfg": true,
      "metar_trigger": false,
      "taf_trigger": false,
      "metar": "METAR UDYZ 120300Z VRB01KT 1300 R08/P2000N BR FEW026 M06/M06 Q1018 NOSIG",
      "taf": "TAF UDYZ 112300Z 1200/1224 VRB04KT 0800 FZFG FEW030"
    },
    {
      "icao": "UGKO",
      "alert": "OK",
      "vis_m": 9999,
      "fzfg": false,
      "metar_trigger": false,
      "taf_trigger": false,
      "metar": "METAR UGKO 120300Z 07015KT CAVOK 13/M01 Q1007 NOSIG",
      "taf": "TAF UGKO 112300Z 1200/1224 08010KT CAVOK TX15/1212Z TN10/1200Z"
    }
  ]
}