{
  "ts_utc": "2026-05-09T21:23:28Z",
  "threshold_m": 150,
  "source": "stations_override.txt (ICAO list) + aviationweather.gov (METAR/TAF raw)",
  "station_count": 159,
  "stations": [
    {
      "icao": "BIKF",
      "alert": "OK",
      "vis_m": 9999,
      "fzfg": false,
      "metar_trigger": false,
      "taf_trigger": false,
      "metar": "METAR BIKF 092100Z 28007KT 240V300 9999 SCT006 BKN015 OVC035 07/06 Q1023",
      "taf": "TAF BIKF 091951Z 0921/1021 27007KT 4500 -RADZ BKN008 OVC014 TX08/1012Z TN06/1006Z"
    },
    {
      "icao": "BKPR",
      "alert": "OK",
      "vis_m": null,
      "fzfg": false,
      "metar_trigger": false,
      "taf_trigger": false,
      "metar": "",
      "taf": "TAF BKPR 091730Z 0918/1018 VRB05KT 9999 BKN050"
    },
    {
      "icao": "EBCI",
      "alert": "OK",
      "vis_m": 9999,
      "fzfg": false,
      "metar_trigger": false,
      "taf_trigger": false,
      "metar": "METAR EBCI 092050Z 04008KT CAVOK 15/07 Q1015 NOSIG",
      "taf": "TAF EBCI 091714Z 0918/1024 05007KT CAVOK"
    },
    {
      "icao": "EDDB",
      "alert": "OK",
      "vis_m": 9999,
      "fzfg": false,
      "metar_trigger": false,
      "taf_trigger": false,
      "metar": "METAR EDDB 092050Z AUTO 09002KT CAVOK 09/07 Q1019 NOSIG",
      "taf": "TAF EDDB 091700Z 0918/1018 10004KT CAVOK"
    },
    {
      "icao": "EDDH",
      "alert": "OK",
      "vis_m": 9999,
      "fzfg": false,
      "metar_trigger": false,
      "taf_trigger": false,
      "metar": "METAR EDDH 092050Z AUTO 10003KT 070V140 CAVOK 14/05 Q1018 NOSIG",
      "taf": "TAF EDDH 091700Z 0918/1024 12007KT 9999 SCT045"
    },
    {
      "icao": "EDDK",
      "alert": "OK",
      "vis_m": 9999,
      "fzfg": false,
      "metar_trigger": false,
      "taf_trigger": false,
      "metar": "METAR EDDK 092050Z AUTO VRB01KT CAVOK 13/07 Q1015 NOSIG",
      "taf": "TAF EDDK 091700Z 0918/1024 10003KT CAVOK"
    },
    {
      "icao": "EDDN",
      "alert": "OK",
      "vis_m": 9999,
      "fzfg": false,
      "metar_trigger": false,
      "taf_trigger": false,
      "metar": "METAR EDDN 092050Z AUTO 09004KT CAVOK 15/08 Q1015",
      "taf": "TAF EDDN 091700Z 0918/1018 07003KT CAVOK"
    },
    {
      "icao": "EDDS",
      "alert": "OK",
      "vis_m": 9999,
      "fzfg": false,
      "metar_trigger": false,
      "taf_trigger": false,
      "metar": "METAR EDDS 092050Z AUTO 04003KT CAVOK 16/09 Q1014",
      "taf": "TAF EDDS 091700Z 0918/1018 03005KT CAVOK"
    },
    {
      "icao": "EDFH",
      "alert": "OK",
      "vis_m": 9999,
      "fzfg": false,
      "metar_trigger": false,
      "taf_trigger": false,
      "metar": "METAR EDFH 092050Z COR 11007KT CAVOK 14/07 Q1015",
      "taf": "TAF EDFH 091700Z 0918/1018 10005KT CAVOK"
    },
    {
      "icao": "EDJA",
      "alert": "OK",
      "vis_m": 9999,
      "fzfg": false,
      "metar_trigger": false,
      "taf_trigger": false,
      "metar": "METAR EDJA 092050Z 06005KT CAVOK 13/06 Q1014",
      "taf": "TAF EDJA 091700Z 0918/1003 06005KT CAVOK"
    },
    {
      "icao": "EDLW",
      "alert": "OK",
      "vis_m": 9999,
      "fzfg": false,
      "metar_trigger": false,
      "taf_trigger": false,
      "metar": "METAR EDLW 092050Z 31002KT CAVOK 12/08 Q1015",
      "taf": "TAF EDLW 091700Z 0918/1018 07004KT CAVOK"
    },
    {
      "icao": "EDNY",
      "alert": "OK",
      "vis_m": 9999,
      "fzfg": false,
      "metar_trigger": false,
      "taf_trigger": false,
      "metar": "METAR EDNY 092050Z AUTO 03005KT 9999 // NCD 17/07 Q1013",
      "taf": "TAF EDNY 091700Z 0918/1003 03004KT CAVOK"
    },
    {
      "icao": "EDSB",
      "alert": "OK",
      "vis_m": 9999,
      "fzfg": false,
      "metar_trigger": false,
      "taf_trigger": false,
      "metar": "METAR EDSB 092050Z 02007KT CAVOK 15/10 Q1013",
      "taf": "TAF EDSB 091700Z 0918/1018 02006KT CAVOK"
    },
    {
      "icao": "EETN",
      "alert": "OK",
      "vis_m": 9999,
      "fzfg": false,
      "metar_trigger": false,
      "taf_trigger": false,
      "metar": "METAR EETN 092120Z 10006KT CAVOK 05/M03 Q1022 NOSIG",
      "taf": "TAF EETN 091730Z 0918/1018 06012KT CAVOK"
    },
    {
      "icao": "EFTU",
      "alert": "OK",
      "vis_m": 9999,
      "fzfg": false,
      "metar_trigger": false,
      "taf_trigger": false,
      "metar": "METAR EFTU 092120Z AUTO 10002KT CAVOK 02/M07 Q1022",
      "taf": "TAF EFTU 092031Z 0921/1021 13005KT CAVOK"
    },
    {
      "icao": "EGBB",
      "alert": "OK",
      "vis_m": 9999,
      "fzfg": false,
      "metar_trigger": false,
      "taf_trigger": false,
      "metar": "METAR EGBB 092050Z 03012KT 9999 BKN013 11/08 Q1020",
      "taf": ""
    },
    {
      "icao": "EGGP",
      "alert": "OK",
      "vis_m": 9999,
      "fzfg": false,
      "metar_trigger": false,
      "taf_trigger": false,
      "metar": "METAR EGGP 092050Z 04012KT 9999 BKN018 08/05 Q1022",
      "taf": "TAF EGGP 091704Z 0918/1018 05011KT 9999 FEW045"
    },
    {
      "icao": "EGGW",
      "alert": "OK",
      "vis_m": 9999,
      "fzfg": false,
      "metar_trigger": false,
      "taf_trigger": false,
      "metar": "METAR EGGW 092050Z AUTO 08005KT 9999 NCD 11/03 Q1018",
      "taf": "TAF EGGW 091658Z 0918/1018 08006KT 9999 FEW045"
    },
    {
      "icao": "EGKK",
      "alert": "OK",
      "vis_m": 9999,
      "fzfg": false,
      "metar_trigger": false,
      "taf_trigger": false,
      "metar": "METAR EGKK 092050Z 05009KT 020V080 CAVOK 13/02 Q1017",
      "taf": "TAF EGKK 091700Z 0918/1024 05009KT CAVOK"
    },
    {
      "icao": "EGNM",
      "alert": "OK",
      "vis_m": 9999,
      "fzfg": false,
      "metar_trigger": false,
      "taf_trigger": false,
      "metar": "METAR EGNM 092050Z 02013KT 9999 SCT010 BKN020 06/04 Q1022",
      "taf": "TAF EGNM 091707Z 0918/1018 04013KT 9999 SCT040"
    },
    {
      "icao": "EGPD",
      "alert": "OK",
      "vis_m": 9999,
      "fzfg": false,
      "metar_trigger": false,
      "taf_trigger": false,
      "metar": "METAR EGPD 092050Z COR AUTO 32003KT 9999 BKN048 06/M01 Q1025 NOSIG",
      "taf": "TAF EGPD 091654Z 0918/1018 36010KT 9999 SCT045"
    },
    {
      "icao": "EGPF",
      "alert": "OK",
      "vis_m": 9999,
      "fzfg": false,
      "metar_trigger": false,
      "taf_trigger": false,
      "metar": "METAR EGPF 092050Z AUTO 01008KT 350V050 9999 -RA OVC035 08/04 Q1026",
      "taf": "TAF EGPF 091659Z 0918/1018 06004KT 9999 SCT030"
    },
    {
      "icao": "EHBK",
      "alert": "OK",
      "vis_m": 9999,
      "fzfg": false,
      "metar_trigger": false,
      "taf_trigger": false,
      "metar": "METAR EHBK 092055Z COR AUTO 04006KT 9999 NSC 13/07 Q1015",
      "taf": "TAF EHBK 091701Z 0918/1024 04005KT CAVOK"
    },
    {
      "icao": "EHEH",
      "alert": "OK",
      "vis_m": 9999,
      "fzfg": false,
      "metar_trigger": false,
      "taf_trigger": false,
      "metar": "METAR EHEH 092055Z AUTO 02004KT 9999 NCD 13/07 Q1016 BLU NOSIG RMK TREND REMOTE BY EHWX",
      "taf": "TAF EHEH 091720Z 0918/1024 03007KT CAVOK"
    },
    {
      "icao": "EKBI",
      "alert": "OK",
      "vis_m": 9999,
      "fzfg": false,
      "metar_trigger": false,
      "taf_trigger": false,
      "metar": "METAR EKBI 092050Z AUTO 09003KT 9999 NCD 05/02 Q1019",
      "taf": "TAF EKBI 092027Z 0921/1021 11006KT CAVOK"
    },
    {
      "icao": "EKCH",
      "alert": "OK",
      "vis_m": 9999,
      "fzfg": false,
      "metar_trigger": false,
      "taf_trigger": false,
      "metar": "METAR EKCH 092050Z AUTO 15007KT 9999 NCD 09/04 Q1020 NOSIG",
      "taf": "TAF EKCH 092027Z 0921/1021 16006KT CAVOK"
    },
    {
      "icao": "ENAL",
      "alert": "OK",
      "vis_m": 9999,
      "fzfg": false,
      "metar_trigger": false,
      "taf_trigger": false,
      "metar": "METAR ENAL 092050Z 23018KT 9999 VCSH FEW010TCU SCT020 BKN027 06/03 Q1017",
      "taf": "TAF ENAL 092000Z 0921/1006 23018KT 9999 FEW012 SCT020"
    },
    {
      "icao": "ENBR",
      "alert": "OK",
      "vis_m": 9999,
      "fzfg": false,
      "metar_trigger": false,
      "taf_trigger": false,
      "metar": "METAR ENBR 092050Z VRB02KT 9999 FEW023 BKN032 04/03 Q1021 RMK WIND 1200FT 29008KT",
      "taf": "TAF ENBR 091700Z 0918/1018 26005KT 9999 -SHRA FEW018 BKN035"
    },
    {
      "icao": "ENGM",
      "alert": "OK",
      "vis_m": 9999,
      "fzfg": false,
      "metar_trigger": false,
      "taf_trigger": false,
      "metar": "METAR ENGM 092050Z VRB01KT CAVOK 07/M02 Q1017 NOSIG",
      "taf": "TAF ENGM 091700Z 0918/1018 20015KT CAVOK"
    },
    {
      "icao": "ENHD",
      "alert": "OK",
      "vis_m": 9999,
      "fzfg": false,
      "metar_trigger": false,
      "taf_trigger": false,
      "metar": "METAR ENHD 092050Z AUTO 31004KT 280V340 9999 FEW028/// 06/02 Q1021",
      "taf": "TAF ENHD 091400Z 0915/0922 33005KT 9999 -RA FEW008 BKN020"
    },
    {
      "icao": "ENTC",
      "alert": "OK",
      "vis_m": 9999,
      "fzfg": false,
      "metar_trigger": false,
      "taf_trigger": false,
      "metar": "METAR ENTC 092050Z AUTO VRB02KT 9999 NCD 07/M00 Q1013 RMK WIND 2600FT 16005KT",
      "taf": "TAF ENTC 091700Z 0918/1018 02006KT 9999 SCT060"
    },
    {
      "icao": "ENTO",
      "alert": "OK",
      "vis_m": 9999,
      "fzfg": false,
      "metar_trigger": false,
      "taf_trigger": false,
      "metar": "METAR ENTO 092050Z 22008KT CAVOK 08/02 Q1018 NOSIG",
      "taf": "TAF ENTO 091700Z 0918/1018 20010KT CAVOK"
    },
    {
      "icao": "ENVA",
      "alert": "OK",
      "vis_m": 9999,
      "fzfg": false,
      "metar_trigger": false,
      "taf_trigger": false,
      "metar": "METAR ENVA 092050Z VRB01KT 9999 FEW015 SCT065 06/06 Q1015 RMK WIND 670FT 09003KT",
      "taf": "TAF ENVA 091700Z 0918/1018 13005KT 9999 -RA SCT020 BKN035"
    },
    {
      "icao": "ENZV",
      "alert": "OK",
      "vis_m": 9999,
      "fzfg": false,
      "metar_trigger": false,
      "taf_trigger": false,
      "metar": "METAR ENZV 092050Z 35005KT 9999 FEW011 SCT025 06/04 Q1021",
      "taf": "TAF ENZV 091700Z 0918/1018 34005KT 9999 FEW010 BKN025"
    },
    {
      "icao": "EPGD",
      "alert": "OK",
      "vis_m": 9999,
      "fzfg": false,
      "metar_trigger": false,
      "taf_trigger": false,
      "metar": "METAR EPGD 092100Z 25002KT CAVOK 05/M01 Q1020",
      "taf": "TAF EPGD 091730Z 0918/1018 04010KT CAVOK"
    },
    {
      "icao": "EPKK",
      "alert": "OK",
      "vis_m": 9999,
      "fzfg": false,
      "metar_trigger": false,
      "taf_trigger": false,
      "metar": "METAR EPKK 092100Z 02005KT 9999 SCT051 09/07 Q1020",
      "taf": "TAF EPKK 092030Z 0921/1021 04005KT 9999 BKN050"
    },
    {
      "icao": "EPKT",
      "alert": "OK",
      "vis_m": 5000,
      "fzfg": false,
      "metar_trigger": false,
      "taf_trigger": false,
      "metar": "METAR EPKT 092100Z 06001KT 5000 0100N BCFG BR NSC 03/03 Q1020",
      "taf": ""
    },
    {
      "icao": "EPLB",
      "alert": "OK",
      "vis_m": 9999,
      "fzfg": false,
      "metar_trigger": false,
      "taf_trigger": false,
      "metar": "METAR EPLB 092100Z 30003KT CAVOK 07/05 Q1019",
      "taf": "TAF EPLB 091730Z 0918/1018 33005KT 9999 BKN040"
    },
    {
      "icao": "EPMO",
      "alert": "OK",
      "vis_m": 9999,
      "fzfg": false,
      "metar_trigger": false,
      "taf_trigger": false,
      "metar": "METAR EPMO 092100Z 09002KT CAVOK 07/04 Q1020",
      "taf": "TAF EPMO 091730Z 0918/1018 06010KT CAVOK"
    },
    {
      "icao": "EPPO",
      "alert": "OK",
      "vis_m": 9999,
      "fzfg": false,
      "metar_trigger": false,
      "taf_trigger": false,
      "metar": "METAR EPPO 092100Z 23003KT CAVOK 07/04 Q1019",
      "taf": "TAF EPPO 091730Z 0918/1018 VRB02KT CAVOK"
    },
    {
      "icao": "EPRA",
      "alert": "OK",
      "vis_m": 9999,
      "fzfg": false,
      "metar_trigger": false,
      "taf_trigger": false,
      "metar": "METAR EPRA 092100Z VRB02KT CAVOK 06/03 Q1020",
      "taf": "TAF EPRA 092030Z 0921/1006 VRB02KT CAVOK"
    },
    {
      "icao": "EPRZ",
      "alert": "OK",
      "vis_m": 9999,
      "fzfg": false,
      "metar_trigger": false,
      "taf_trigger": false,
      "metar": "METAR EPRZ 092100Z 30003KT CAVOK 09/07 Q1020",
      "taf": "TAF EPRZ 091730Z 0918/1018 34007KT 9999 BKN047"
    },
    {
      "icao": "EPSC",
      "alert": "OK",
      "vis_m": 9999,
      "fzfg": false,
      "metar_trigger": false,
      "taf_trigger": false,
      "metar": "METAR EPSC 092100Z 05006KT CAVOK 11/01 Q1019",
      "taf": "TAF EPSC 091730Z 0918/1018 03007KT CAVOK"
    },
    {
      "icao": "EPSY",
      "alert": "OK",
      "vis_m": 9999,
      "fzfg": false,
      "metar_trigger": false,
      "taf_trigger": false,
      "metar": "METAR EPSY 092100Z 23002KT CAVOK 02/01 Q1020",
      "taf": "TAF EPSY 092030Z 0921/1006 VRB02KT CAVOK"
    },
    {
      "icao": "EPWA",
      "alert": "OK",
      "vis_m": 9999,
      "fzfg": false,
      "metar_trigger": false,
      "taf_trigger": false,
      "metar": "METAR EPWA 092100Z 13003KT CAVOK 06/04 Q1020 NOSIG",
      "taf": "TAF EPWA 092030Z 0921/1021 VRB02KT CAVOK"
    },
    {
      "icao": "EPWR",
      "alert": "OK",
      "vis_m": 9999,
      "fzfg": false,
      "metar_trigger": false,
      "taf_trigger": false,
      "metar": "METAR EPWR 092100Z VRB02KT CAVOK 09/07 Q1020",
      "taf": "TAF EPWR 092030Z 0921/1021 13004KT CAVOK"
    },
    {
      "icao": "ESGG",
      "alert": "OK",
      "vis_m": 9999,
      "fzfg": false,
      "metar_trigger": false,
      "taf_trigger": false,
      "metar": "METAR ESGG 092050Z 15004KT CAVOK 07/M00 Q1019",
      "taf": "TAF ESGG 092030Z 0921/1021 16003KT CAVOK"
    },
    {
      "icao": "ESKN",
      "alert": "OK",
      "vis_m": 9999,
      "fzfg": false,
      "metar_trigger": false,
      "taf_trigger": false,
      "metar": "METAR ESKN 092050Z 09004KT CAVOK 03/01 Q1021",
      "taf": "TAF ESKN 092030Z 0921/1021 11003KT CAVOK"
    },
    {
      "icao": "ESMS",
      "alert": "OK",
      "vis_m": 9999,
      "fzfg": false,
      "metar_trigger": false,
      "taf_trigger": false,
      "metar": "METAR ESMS 092050Z VRB02KT CAVOK 05/01 Q1020",
      "taf": "TAF ESMS 092027Z 0921/1021 14010KT CAVOK"
    },
    {
      "icao": "ESSA",
      "alert": "OK",
      "vis_m": 9999,
      "fzfg": false,
      "metar_trigger": false,
      "taf_trigger": false,
      "metar": "METAR ESSA 092050Z 14005KT CAVOK 06/M01 Q1021 NOSIG",
      "taf": "TAF ESSA 092030Z 0921/1021 14007KT CAVOK"
    },
    {
      "icao": "EYKA",
      "alert": "OK",
      "vis_m": 7000,
      "fzfg": false,
      "metar_trigger": false,
      "taf_trigger": false,
      "metar": "METAR EYKA 092120Z 35006KT 7000 -DZ OVC004 06/05 Q1018",
      "taf": ""
    },
    {
      "icao": "EYPA",
      "alert": "OK",
      "vis_m": 9999,
      "fzfg": false,
      "metar_trigger": false,
      "taf_trigger": false,
      "metar": "METAR EYPA 092120Z VRB01KT CAVOK 06/01 Q1020",
      "taf": "TAF EYPA 091700Z 0918/1018 10010KT 9000 NSC"
    },
    {
      "icao": "EYVI",
      "alert": "OK",
      "vis_m": 4900,
      "fzfg": false,
      "metar_trigger": false,
      "taf_trigger": false,
      "metar": "METAR EYVI 092120Z 32005KT 4900 BR OVC003 06/05 Q1016 NOSIG",
      "taf": "TAF EYVI 091700Z 0918/1018 36010KT 5000 BR OVC005"
    },
    {
      "icao": "GCFV",
      "alert": "OK",
      "vis_m": 9999,
      "fzfg": false,
      "metar_trigger": false,
      "taf_trigger": false,
      "metar": "METAR GCFV 092100Z 32005KT 290V360 9999 FEW040 21/14 Q1017",
      "taf": "TAF GCFV 092000Z 0921/1021 30005KT 9999 SCT040 TX24/1014Z TN17/1006Z"
    },
    {
      "icao": "GCLP",
      "alert": "OK",
      "vis_m": 9999,
      "fzfg": false,
      "metar_trigger": false,
      "taf_trigger": false,
      "metar": "METAR GCLP 092100Z 34005KT 320V020 9999 SCT025 BKN034 20/14 Q1017 NOSIG",
      "taf": "TAF GCLP 092000Z 0921/1021 36007KT 9999 SCT020 BKN035 TX23/1014Z TN17/1006Z"
    },
    {
      "icao": "GCTS",
      "alert": "OK",
      "vis_m": 9999,
      "fzfg": false,
      "metar_trigger": false,
      "taf_trigger": false,
      "metar": "METAR GCTS 092100Z 08006KT 9999 FEW030 BKN045 20/13 Q1017 NOSIG",
      "taf": "TAF GCTS 092000Z 0921/1021 04006KT 9999 SCT040 TX25/1014Z TN18/1006Z"
    },
    {
      "icao": "GMAD",
      "alert": "OK",
      "vis_m": 9999,
      "fzfg": false,
      "metar_trigger": false,
      "taf_trigger": false,
      "metar": "METAR GMAD 092100Z 23005KT 9999 FEW033 18/13 Q1017 NOSIG",
      "taf": "TAF GMAD 091700Z 0918/1024 26010KT 8000 SCT026"
    },
    {
      "icao": "GMMN",
      "alert": "OK",
      "vis_m": 9999,
      "fzfg": false,
      "metar_trigger": false,
      "taf_trigger": false,
      "metar": "METAR GMMN 092100Z 25003KT 180V290 9999 SCT020 16/12 Q1017 NOSIG",
      "taf": "TAF GMMN 091700Z 0918/1024 26012KT 9999 BKN030"
    },
    {
      "icao": "GMMX",
      "alert": "OK",
      "vis_m": 9999,
      "fzfg": false,
      "metar_trigger": false,
      "taf_trigger": false,
      "metar": "METAR GMMX 092100Z 28009KT 9999 SCT026 18/10 Q1017 NOSIG",
      "taf": "TAF GMMX 091700Z 0918/1024 32015KT 9999 BKN026"
    },
    {
      "icao": "HEGN",
      "alert": "OK",
      "vis_m": 9999,
      "fzfg": false,
      "metar_trigger": false,
      "taf_trigger": false,
      "metar": "METAR HEGN 092100Z 29014KT CAVOK 27/03 Q1011 NOSIG",
      "taf": "TAF HEGN 091700Z 0918/1024 33015KT CAVOK"
    },
    {
      "icao": "HEMA",
      "alert": "OK",
      "vis_m": 9999,
      "fzfg": false,
      "metar_trigger": false,
      "taf_trigger": false,
      "metar": "METAR HEMA 092100Z 32009KT CAVOK 25/11 Q1011 NOSIG",
      "taf": "TAF HEMA 091700Z 0918/1024 34015KT CAVOK"
    },
    {
      "icao": "HESH",
      "alert": "OK",
      "vis_m": 9999,
      "fzfg": false,
      "metar_trigger": false,
      "taf_trigger": false,
      "metar": "METAR HESH 092000Z 34014KT CAVOK 28/15 Q1010 NOSIG",
      "taf": "TAF HESH 091700Z 0918/1024 01015KT CAVOK"
    },
    {
      "icao": "HESX",
      "alert": "OK",
      "vis_m": 9999,
      "fzfg": false,
      "metar_trigger": false,
      "taf_trigger": false,
      "metar": "METAR HESX 092100Z 03007KT CAVOK 20/10 Q1016 NOSIG",
      "taf": "TAF HESX 091700Z 0918/1024 06014KT CAVOK"
    },
    {
      "icao": "LATI",
      "alert": "OK",
      "vis_m": 5000,
      "fzfg": false,
      "metar_trigger": false,
      "taf_trigger": false,
      "metar": "METAR LATI 092120Z 15003KT 5000 1100S R17/P2000N R35/P2000D BCFG NSC 14/12 Q1018 NOSIG",
      "taf": "TAF LATI 091700Z 0918/1018 VRB04KT CAVOK TX24/1012Z TN11/1004Z"
    },
    {
      "icao": "LBPD",
      "alert": "OK",
      "vis_m": 9999,
      "fzfg": false,
      "metar_trigger": false,
      "taf_trigger": false,
      "metar": "METAR LBPD 092100Z AUTO VRB01KT 9999 OVC100/// 15/15 Q1015",
      "taf": "TAF LBPD 091700Z 0918/1018 29010KT 9999 BKN070"
    },
    {
      "icao": "LBSF",
      "alert": "OK",
      "vis_m": 9999,
      "fzfg": false,
      "metar_trigger": false,
      "taf_trigger": false,
      "metar": "METAR LBSF 092100Z AUTO 36002KT 9999 SCT051/// SCT074/// 13/11 Q1017 NOSIG",
      "taf": "TAF LBSF 091700Z 0918/1018 VRB04KT 9999 BKN050"
    },
    {
      "icao": "LBWN",
      "alert": "OK",
      "vis_m": 4300,
      "fzfg": false,
      "metar_trigger": false,
      "taf_trigger": false,
      "metar": "METAR LBWN 092100Z AUTO 30002KT 4300 -SHRA BR SCT019/// 14/14 Q1014 TEMPO 3000 BR",
      "taf": "TAF LBWN 091700Z 0918/1018 VRB03KT 9999 SCT030 BKN045"
    },
    {
      "icao": "LCLK",
      "alert": "OK",
      "vis_m": 9999,
      "fzfg": false,
      "metar_trigger": false,
      "taf_trigger": false,
      "metar": "METAR LCLK 092100Z 33005KT 290V360 CAVOK 21/09 Q1015 NOSIG",
      "taf": "TAF LCLK 091730Z 0918/1018 33006KT CAVOK"
    },
    {
      "icao": "LCPH",
      "alert": "OK",
      "vis_m": 9999,
      "fzfg": false,
      "metar_trigger": false,
      "taf_trigger": false,
      "metar": "METAR LCPH 092100Z 34006KT CAVOK 19/06 Q1016 NOSIG",
      "taf": "TAF LCPH 091730Z 0918/1018 35009KT CAVOK"
    },
    {
      "icao": "LEAL",
      "alert": "OK",
      "vis_m": 9999,
      "fzfg": false,
      "metar_trigger": false,
      "taf_trigger": false,
      "metar": "METAR LEAL 092100Z 10003KT 060V120 CAVOK 18/15 Q1014 NOSIG",
      "taf": "TAF LEAL 091700Z 0918/1018 22010KT 9999 FEW035 TX26/1012Z TN13/1005Z"
    },
    {
      "icao": "LEBB",
      "alert": "OK",
      "vis_m": 9999,
      "fzfg": false,
      "metar_trigger": false,
      "taf_trigger": false,
      "metar": "METAR LEBB 092100Z 27003KT 230V300 CAVOK 15/15 Q1008 NOSIG",
      "taf": ""
    },
    {
      "icao": "LEBL",
      "alert": "OK",
      "vis_m": 6000,
      "fzfg": false,
      "metar_trigger": false,
      "taf_trigger": false,
      "metar": "METAR LEBL 092100Z 29004KT 6000 FEW050 SCT055 15/15 Q1013 NOSIG",
      "taf": "TAF LEBL 091700Z 0918/1018 03010KT 9999 FEW020 TX21/1013Z TN13/1005Z"
    },
    {
      "icao": "LECH",
      "alert": "OK",
      "vis_m": 8000,
      "fzfg": false,
      "metar_trigger": false,
      "taf_trigger": false,
      "metar": "METAR LECH 092100Z AUTO 00000KT 8000 SCT003 BKN057 13/13 Q1014",
      "taf": "TAF LECH 091700Z 0918/1018 04010KT 9999 FEW020 TX23/1014Z TN10/1005Z"
    },
    {
      "icao": "LEMD",
      "alert": "OK",
      "vis_m": 7000,
      "fzfg": false,
      "metar_trigger": false,
      "taf_trigger": false,
      "metar": "SPECI LEMD 092115Z 25010KT 220V290 7000 -SHRA SCT030 FEW040TCU BKN050 11/11 Q1012 RERA NOSIG",
      "taf": ""
    },
    {
      "icao": "LEMG",
      "alert": "OK",
      "vis_m": 9999,
      "fzfg": false,
      "metar_trigger": false,
      "taf_trigger": false,
      "metar": "METAR LEMG 092100Z 16003KT 9999 FEW017 16/14 Q1015 NOSIG",
      "taf": "TAF LEMG 091700Z 0918/1018 16006KT 9999 FEW015 SCT030 TX22/1014Z TN15/1007Z"
    },
    {
      "icao": "LEVC",
      "alert": "OK",
      "vis_m": 9999,
      "fzfg": false,
      "metar_trigger": false,
      "taf_trigger": false,
      "metar": "METAR LEVC 092100Z 11003KT 080V140 9999 FEW043 16/14 Q1014 NOSIG",
      "taf": "TAF LEVC 091700Z 0918/1018 VRB04KT 9999 BKN020 TX24/1012Z TN13/1005Z"
    },
    {
      "icao": "LEXJ",
      "alert": "OK",
      "vis_m": 9999,
      "fzfg": false,
      "metar_trigger": false,
      "taf_trigger": false,
      "metar": "METAR LEXJ 092100Z 23005KT 160V280 9999 SCT065 BKN080 18/12 Q1008",
      "taf": "TAF LEXJ 092000Z 0921/1021 20009KT 9999 FEW050 TX21/1015Z TN13/1005Z"
    },
    {
      "icao": "LEZG",
      "alert": "OK",
      "vis_m": 9999,
      "fzfg": false,
      "metar_trigger": false,
      "taf_trigger": false,
      "metar": "METAR LEZG 092100Z 11010KT 9999 FEW070 SCT080 16/13 Q1012 NOSIG",
      "taf": "TAF LEZG 091700Z 0918/1018 12010KT 9999 FEW020 TX23/1014Z TN11/1005Z"
    },
    {
      "icao": "LEZL",
      "alert": "OK",
      "vis_m": 9999,
      "fzfg": false,
      "metar_trigger": false,
      "taf_trigger": false,
      "metar": "METAR LEZL 092100Z 21004KT 150V250 9999 FEW020 17/15 Q1014 NOSIG",
      "taf": "TAF LEZL 092000Z 0921/1021 20008KT 9999 SCT030 TX22/1015Z TN12/1007Z"
    },
    {
      "icao": "LFBD",
      "alert": "OK",
      "vis_m": 9999,
      "fzfg": false,
      "metar_trigger": false,
      "taf_trigger": false,
      "metar": "METAR LFBD 092100Z AUTO 13004KT CAVOK 18/14 Q1009 TEMPO VRB20G35KT 4000 SHRA BKN040TCU",
      "taf": ""
    },
    {
      "icao": "LFLL",
      "alert": "OK",
      "vis_m": 9999,
      "fzfg": false,
      "metar_trigger": false,
      "taf_trigger": false,
      "metar": "METAR LFLL 092100Z 17005KT CAVOK 20/09 Q1012 NOSIG",
      "taf": "TAF LFLL 091700Z 0918/1024 18007KT CAVOK"
    },
    {
      "icao": "LFLS",
      "alert": "OK",
      "vis_m": 9999,
      "fzfg": false,
      "metar_trigger": false,
      "taf_trigger": false,
      "metar": "METAR LFLS 092100Z AUTO VRB02KT CAVOK 15/12 Q1013",
      "taf": "TAF LFLS 091400Z 0915/1015 30005KT CAVOK"
    },
    {
      "icao": "LFMN",
      "alert": "OK",
      "vis_m": 9999,
      "fzfg": false,
      "metar_trigger": false,
      "taf_trigger": false,
      "metar": "METAR LFMN 092100Z 09016KT CAVOK 19/14 Q1012 NOSIG",
      "taf": "TAF LFMN 092000Z 0921/1103 09020KT 9999 BKN080"
    },
    {
      "icao": "LFOB",
      "alert": "OK",
      "vis_m": 9999,
      "fzfg": false,
      "metar_trigger": false,
      "taf_trigger": false,
      "metar": "METAR LFOB 092100Z AUTO 03008KT 360V060 CAVOK 15/10 Q1013 NOSIG",
      "taf": "TAF LFOB 091700Z 0918/1018 06008KT CAVOK"
    },
    {
      "icao": "LFPO",
      "alert": "OK",
      "vis_m": 9999,
      "fzfg": false,
      "metar_trigger": false,
      "taf_trigger": false,
      "metar": "METAR LFPO 092100Z AUTO 04008KT CAVOK 19/10 Q1012 NOSIG",
      "taf": "TAF LFPO 091700Z 0918/1024 07005KT CAVOK"
    },
    {
      "icao": "LFSB",
      "alert": "OK",
      "vis_m": 9999,
      "fzfg": false,
      "metar_trigger": false,
      "taf_trigger": false,
      "metar": "METAR LFSB 092100Z AUTO 32004KT CAVOK 15/09 Q1013 NOSIG",
      "taf": "TAF LFSB 091700Z 0918/1018 36006KT CAVOK"
    },
    {
      "icao": "LGAV",
      "alert": "OK",
      "vis_m": 9999,
      "fzfg": false,
      "metar_trigger": false,
      "taf_trigger": false,
      "metar": "METAR LGAV 092050Z 32004KT 9999 FEW030 14/11 Q1015 NOSIG",
      "taf": "TAF LGAV 091700Z 0918/1018 VRB05KT 9999 FEW025"
    },
    {
      "icao": "LGTS",
      "alert": "OK",
      "vis_m": 9999,
      "fzfg": false,
      "metar_trigger": false,
      "taf_trigger": false,
      "metar": "METAR LGTS 092050Z VRB01KT 9999 FEW020 16/16 Q1015 NOSIG",
      "taf": "TAF LGTS 091700Z 0918/1018 VRB03KT 9999 FEW025"
    },
    {
      "icao": "LHBP",
      "alert": "OK",
      "vis_m": 9999,
      "fzfg": false,
      "metar_trigger": false,
      "taf_trigger": false,
      "metar": "METAR LHBP 092100Z 05005KT 020V090 CAVOK 15/06 Q1017 NOSIG",
      "taf": "TAF LHBP 091715Z 0918/1018 32007KT CAVOK"
    },
    {
      "icao": "LHDC",
      "alert": "OK",
      "vis_m": 9999,
      "fzfg": false,
      "metar_trigger": false,
      "taf_trigger": false,
      "metar": "METAR LHDC 092045Z AUTO 03012KT CAVOK 14/07 Q1017",
      "taf": "TAF LHDC 091415Z 0915/0924 02007KT CAVOK"
    },
    {
      "icao": "LIBD",
      "alert": "OK",
      "vis_m": 9999,
      "fzfg": false,
      "metar_trigger": false,
      "taf_trigger": false,
      "metar": "METAR LIBD 092050Z 20006KT CAVOK 14/12 Q1017",
      "taf": "TAF LIBD 091700Z 0918/1018 22005KT CAVOK"
    },
    {
      "icao": "LIBG",
      "alert": "OK",
      "vis_m": null,
      "fzfg": false,
      "metar_trigger": false,
      "taf_trigger": false,
      "metar": "",
      "taf": "TAF LIBG 091400Z 0915/0924 VRB05KT 9999 FEW040"
    },
    {
      "icao": "LIBP",
      "alert": "OK",
      "vis_m": 9999,
      "fzfg": false,
      "metar_trigger": false,
      "taf_trigger": false,
      "metar": "METAR LIBP 092050Z AUTO 21003KT 9999 BKN220/// 15/15 Q1016",
      "taf": "TAF LIBP 091700Z 0918/1018 VRB05KT 9999 FEW080"
    },
    {
      "icao": "LIBR",
      "alert": "OK",
      "vis_m": 9999,
      "fzfg": false,
      "metar_trigger": false,
      "taf_trigger": false,
      "metar": "METAR LIBR 092050Z 27008KT CAVOK 16/14 Q1017",
      "taf": "TAF LIBR 091700Z 0918/1018 23005KT CAVOK"
    },
    {
      "icao": "LICA",
      "alert": "OK",
      "vis_m": 9999,
      "fzfg": false,
      "metar_trigger": false,
      "taf_trigger": false,
      "metar": "METAR LICA 092050Z AUTO 06014KT 9999 NCD 19/14 Q1015",
      "taf": "TAF LICA 091700Z 0918/1018 08015KT 9999 FEW080"
    },
    {
      "icao": "LICC",
      "alert": "OK",
      "vis_m": 9999,
      "fzfg": false,
      "metar_trigger": false,
      "taf_trigger": false,
      "metar": "METAR LICC 092050Z 07009KT CAVOK 19/16 Q1017",
      "taf": "TAF LICC 091700Z 0918/1018 09010KT 9999 SCT020"
    },
    {
      "icao": "LICJ",
      "alert": "OK",
      "vis_m": 9999,
      "fzfg": false,
      "metar_trigger": false,
      "taf_trigger": false,
      "metar": "METAR LICJ 092050Z 22003KT CAVOK 19/17 Q1012",
      "taf": "TAF LICJ 091700Z 0918/1018 08010KT CAVOK"
    },
    {
      "icao": "LIMC",
      "alert": "OK",
      "vis_m": 9999,
      "fzfg": false,
      "metar_trigger": false,
      "taf_trigger": false,
      "metar": "METAR LIMC 092050Z 03003KT CAVOK 16/10 Q1015 NOSIG",
      "taf": "TAF LIMC 091700Z 0918/1024 VRB05KT 9999 FEW030"
    },
    {
      "icao": "LIME",
      "alert": "OK",
      "vis_m": 9999,
      "fzfg": false,
      "metar_trigger": false,
      "taf_trigger": false,
      "metar": "METAR LIME 092050Z 02002KT CAVOK 17/10 Q1015 NOSIG",
      "taf": "TAF LIME 091700Z 0918/1018 VRB05KT 9999 SCT040"
    },
    {
      "icao": "LIMF",
      "alert": "OK",
      "vis_m": 9999,
      "fzfg": false,
      "metar_trigger": false,
      "taf_trigger": false,
      "metar": "METAR LIMF 092050Z 33006KT CAVOK 17/11 Q1015",
      "taf": "TAF LIMF 091700Z 0918/1018 VRB05KT 9999 SCT030"
    },
    {
      "icao": "LIMJ",
      "alert": "OK",
      "vis_m": 9999,
      "fzfg": false,
      "metar_trigger": false,
      "taf_trigger": false,
      "metar": "METAR LIMJ 092050Z VRB03KT 9999 SCT070 19/14 Q1014",
      "taf": "TAF LIMJ 091700Z 0918/1018 19010KT 9999 SCT020"
    },
    {
      "icao": "LIPE",
      "alert": "OK",
      "vis_m": 9999,
      "fzfg": false,
      "metar_trigger": false,
      "taf_trigger": false,
      "metar": "METAR LIPE 092050Z 07003KT CAVOK 18/10 Q1015",
      "taf": "TAF LIPE 091700Z 0918/1018 10010KT 9999 FEW060"
    },
    {
      "icao": "LIPH",
      "alert": "OK",
      "vis_m": 9999,
      "fzfg": false,
      "metar_trigger": false,
      "taf_trigger": false,
      "metar": "METAR LIPH 092050Z 07005KT CAVOK 17/12 Q1015",
      "taf": "TAF LIPH 091700Z 0918/1018 12006KT 9999 FEW050"
    },
    {
      "icao": "LIPQ",
      "alert": "OK",
      "vis_m": 9999,
      "fzfg": false,
      "metar_trigger": false,
      "taf_trigger": false,
      "metar": "METAR LIPQ 092050Z AUTO 12006KT 9999 NCD 14/12 Q1016",
      "taf": "TAF LIPQ 091700Z 0918/1018 VRB05KT 9999 FEW040"
    },
    {
      "icao": "LIPR",
      "alert": "OK",
      "vis_m": 9999,
      "fzfg": false,
      "metar_trigger": false,
      "taf_trigger": false,
      "metar": "METAR LIPR 092050Z 00000KT CAVOK 17/11 Q1015",
      "taf": "TAF LIPR 091700Z 0918/1018 VRB05KT 9999 FEW060"
    },
    {
      "icao": "LIPX",
      "alert": "OK",
      "vis_m": 9999,
      "fzfg": false,
      "metar_trigger": false,
      "taf_trigger": false,
      "metar": "METAR LIPX 092120Z 08004KT 050V110 CAVOK 18/11 Q1015",
      "taf": "TAF LIPX 091700Z 0918/1018 VRB05KT 9999 SCT040"
    },
    {
      "icao": "LIPY",
      "alert": "OK",
      "vis_m": 9999,
      "fzfg": false,
      "metar_trigger": false,
      "taf_trigger": false,
      "metar": "METAR LIPY 092050Z AUTO 18003KT 130V280 9999 NCD 15/12 Q1016",
      "taf": "TAF LIPY 091700Z 0918/1018 VRB05KT 9999 FEW060"
    },
    {
      "icao": "LIPZ",
      "alert": "OK",
      "vis_m": 9999,
      "fzfg": false,
      "metar_trigger": false,
      "taf_trigger": false,
      "metar": "METAR LIPZ 092050Z 13004KT CAVOK 18/14 Q1015 NOSIG",
      "taf": "TAF LIPZ 091700Z 0918/1024 VRB05KT 9999 FEW060"
    },
    {
      "icao": "LIRF",
      "alert": "OK",
      "vis_m": 9999,
      "fzfg": false,
      "metar_trigger": false,
      "taf_trigger": false,
      "metar": "METAR LIRF 092050Z 05003KT CAVOK 17/15 Q1014 NOSIG",
      "taf": "TAF LIRF 091700Z 0918/1024 VRB05KT 9999 FEW050"
    },
    {
      "icao": "LIRN",
      "alert": "OK",
      "vis_m": 9999,
      "fzfg": false,
      "metar_trigger": false,
      "taf_trigger": false,
      "metar": "METAR LIRN 092050Z 03008KT 350V050 9999 SCT060 19/13 Q1014 NOSIG",
      "taf": "TAF LIRN 091700Z 0918/1018 VRB05KT 9999 FEW080"
    },
    {
      "icao": "LIRP",
      "alert": "OK",
      "vis_m": 9999,
      "fzfg": false,
      "metar_trigger": false,
      "taf_trigger": false,
      "metar": "METAR LIRP 092045Z 03003KT CAVOK 17/13 Q1014 NOSIG",
      "taf": "TAF LIRP 091700Z 0918/1018 25009KT 9999 SCT060"
    },
    {
      "icao": "LIRZ",
      "alert": "OK",
      "vis_m": 9999,
      "fzfg": false,
      "metar_trigger": false,
      "taf_trigger": false,
      "metar": "METAR LIRZ 092050Z AUTO 31003KT 260V340 9999 BKN063/// BKN085/// 17/14 Q1015",
      "taf": "TAF LIRZ 091700Z 0918/1018 VRB05KT 9999 FEW060"
    },
    {
      "icao": "LJLJ",
      "alert": "OK",
      "vis_m": 9999,
      "fzfg": false,
      "metar_trigger": false,
      "taf_trigger": false,
      "metar": "METAR LJLJ 092100Z 13010KT 9999 FEW050 BKN065 15/09 Q1017 NOSIG",
      "taf": "TAF LJLJ 091700Z 0918/1018 12005KT 9999 FEW065"
    },
    {
      "icao": "LKMT",
      "alert": "OK",
      "vis_m": 9999,
      "fzfg": false,
      "metar_trigger": false,
      "taf_trigger": false,
      "metar": "METAR LKMT 092100Z 05003KT CAVOK 08/06 Q1019 NOSIG",
      "taf": "TAF LKMT 091700Z 0918/1018 02007KT CAVOK"
    },
    {
      "icao": "LKPR",
      "alert": "OK",
      "vis_m": 9999,
      "fzfg": false,
      "metar_trigger": false,
      "taf_trigger": false,
      "metar": "METAR LKPR 092100Z 12005KT CAVOK 09/06 Q1019 NOSIG",
      "taf": "TAF LKPR 092000Z 0921/1103 09006KT CAVOK"
    },
    {
      "icao": "LLBG",
      "alert": "OK",
      "vis_m": 9999,
      "fzfg": false,
      "metar_trigger": false,
      "taf_trigger": false,
      "metar": "METAR LLBG 092120Z VRB03KT CAVOK 19/14 Q1015 NOSIG",
      "taf": "TAF LLBG 091702Z 0918/1018 34006KT CAVOK TX28/1012Z TN15/1003Z"
    },
    {
      "icao": "LMML",
      "alert": "OK",
      "vis_m": 8000,
      "fzfg": false,
      "metar_trigger": false,
      "taf_trigger": false,
      "metar": "METAR LMML 092115Z 09015KT 8000 FEW005 18/17 Q1015 NOSIG",
      "taf": "TAF LMML 091700Z 0918/1018 10015KT 9999 FEW015"
    },
    {
      "icao": "LOWW",
      "alert": "OK",
      "vis_m": 9999,
      "fzfg": false,
      "metar_trigger": false,
      "taf_trigger": false,
      "metar": "METAR LOWW 092050Z 03005KT CAVOK 12/05 Q1018 NOSIG",
      "taf": "TAF LOWW 092015Z 0921/1103 07003KT CAVOK TX24/1014Z TN09/1003Z"
    },
    {
      "icao": "LPFR",
      "alert": "OK",
      "vis_m": 9999,
      "fzfg": false,
      "metar_trigger": false,
      "taf_trigger": false,
      "metar": "METAR LPFR 092100Z 21009KT 9999 FEW018 17/14 Q1012",
      "taf": "TAF LPFR 091700Z 0918/1018 23015KT 9999 SCT020"
    },
    {
      "icao": "LPMA",
      "alert": "OK",
      "vis_m": 9999,
      "fzfg": false,
      "metar_trigger": false,
      "taf_trigger": false,
      "metar": "METAR LPMA 092100Z 33003KT 240V040 9999 FEW015 17/11 Q1014",
      "taf": "TAF LPMA 091700Z 0918/1018 03008KT 9999 SCT015"
    },
    {
      "icao": "LPPR",
      "alert": "OK",
      "vis_m": 9999,
      "fzfg": false,
      "metar_trigger": false,
      "taf_trigger": false,
      "metar": "METAR LPPR 092100Z 15012KT 9999 FEW018 FEW025CB 14/10 Q1007",
      "taf": "TAF LPPR 091700Z 0918/1018 16012KT 9999 SCT020"
    },
    {
      "icao": "LPPS",
      "alert": "OK",
      "vis_m": 9999,
      "fzfg": false,
      "metar_trigger": false,
      "taf_trigger": false,
      "metar": "METAR LPPS 092100Z 28012KT 9999 SCT015 17/11 Q1014",
      "taf": "TAF LPPS 091700Z 0918/1024 27015KT 9999 SCT015 SCT030"
    },
    {
      "icao": "LPPT",
      "alert": "OK",
      "vis_m": 9999,
      "fzfg": false,
      "metar_trigger": false,
      "taf_trigger": false,
      "metar": "METAR LPPT 092100Z 21014KT 9999 FEW010 BKN016 FEW022CB 14/13 Q1009 RETS RESHRA",
      "taf": "TAF LPPT 091700Z 0918/1024 22015KT 9999 SCT020"
    },
    {
      "icao": "LQBK",
      "alert": "OK",
      "vis_m": 9999,
      "fzfg": false,
      "metar_trigger": false,
      "taf_trigger": false,
      "metar": "METAR LQBK 092100Z 00000KT CAVOK 12/08 Q1016 NOSIG",
      "taf": "TAF LQBK 091700Z 0918/1018 16005KT CAVOK TX25/1013Z TN10/1004Z"
    },
    {
      "icao": "LQSA",
      "alert": "OK",
      "vis_m": 9999,
      "fzfg": false,
      "metar_trigger": false,
      "taf_trigger": false,
      "metar": "METAR LQSA 092100Z VRB01KT CAVOK 11/10 Q1018 NOSIG",
      "taf": "TAF LQSA 091700Z 0918/1018 VRB02KT 9999 FEW050 TX23/1014Z TN08/1004Z"
    },
    {
      "icao": "LQTZ",
      "alert": "OK",
      "vis_m": 9999,
      "fzfg": false,
      "metar_trigger": false,
      "taf_trigger": false,
      "metar": "METAR LQTZ 092100Z VRB02KT CAVOK 11/11 Q1017",
      "taf": "TAF LQTZ 091700Z 0918/1018 VRB02KT CAVOK TX25/1013Z TN08/1004Z"
    },
    {
      "icao": "LRBC",
      "alert": "OK",
      "vis_m": 9999,
      "fzfg": false,
      "metar_trigger": false,
      "taf_trigger": false,
      "metar": "METAR LRBC 092100Z 32004KT 290V350 9999 RA OVC005 14/13 Q1016",
      "taf": "TAF LRBC 092000Z 0921/1006 VRB04KT 5000 -RA BR BKN010 OVC030"
    },
    {
      "icao": "LRBS",
      "alert": "OK",
      "vis_m": 6000,
      "fzfg": false,
      "metar_trigger": false,
      "taf_trigger": false,
      "metar": "METAR LRBS 092100Z 36003KT 310V060 6000 BKN010 15/14 Q1015 BECMG SCT010",
      "taf": ""
    },
    {
      "icao": "LRBV",
      "alert": "OK",
      "vis_m": 9999,
      "fzfg": false,
      "metar_trigger": false,
      "taf_trigger": false,
      "metar": "METAR LRBV 092100Z AUTO 29008KT 260V320 9999 -RA FEW007/// OVC015/// 12/11 Q1016 REDZ",
      "taf": "TAF LRBV 091700Z 0918/1003 VRB04KT 5000 -RA BR SCT015 BKN030"
    },
    {
      "icao": "LRCL",
      "alert": "OK",
      "vis_m": 9999,
      "fzfg": false,
      "metar_trigger": false,
      "taf_trigger": false,
      "metar": "METAR LRCL 092100Z 00000KT 9999 FEW046 11/10 Q1017",
      "taf": "TAF LRCL 092000Z 0921/1006 VRB04KT 9999 SCT045"
    },
    {
      "icao": "LRCV",
      "alert": "OK",
      "vis_m": 6000,
      "fzfg": false,
      "metar_trigger": false,
      "taf_trigger": false,
      "metar": "METAR LRCV 092100Z 30001KT 6000 BKN020 15/15 Q1016",
      "taf": "TAF LRCV 092000Z 0921/1006 VRB04KT 7000 SCT015 OVC040"
    },
    {
      "icao": "LRIA",
      "alert": "OK",
      "vis_m": 9999,
      "fzfg": false,
      "metar_trigger": false,
      "taf_trigger": false,
      "metar": "METAR LRIA 092100Z 33008KT 9999 -RA FEW004 BKN014 14/13 Q1016",
      "taf": "TAF LRIA 092000Z 0921/1006 VRB04KT 5000 -RA BR BKN010 OVC030"
    },
    {
      "icao": "LROP",
      "alert": "OK",
      "vis_m": 7000,
      "fzfg": false,
      "metar_trigger": false,
      "taf_trigger": false,
      "metar": "METAR LROP 092100Z 01005KT 7000 NSC 15/14 Q1015 NOSIG",
      "taf": "TAF LROP 091700Z 0918/1018 04008KT 9999 BKN040"
    },
    {
      "icao": "LRSB",
      "alert": "OK",
      "vis_m": 9999,
      "fzfg": false,
      "metar_trigger": false,
      "taf_trigger": false,
      "metar": "METAR LRSB 092100Z VRB01KT 9999 FEW070 12/12 Q1017",
      "taf": "TAF LRSB 091700Z 0918/1018 VRB04KT 9999 SCT040 BKN070"
    },
    {
      "icao": "LRSM",
      "alert": "OK",
      "vis_m": 9999,
      "fzfg": false,
      "metar_trigger": false,
      "taf_trigger": false,
      "metar": "METAR LRSM 092100Z AUTO 31005KT 9999 NCD 11/08 Q1016",
      "taf": "TAF LRSM 091400Z 0915/0924 34006KT CAVOK"
    },
    {
      "icao": "LRSV",
      "alert": "OK",
      "vis_m": 9999,
      "fzfg": false,
      "metar_trigger": false,
      "taf_trigger": false,
      "metar": "METAR LRSV 092100Z 34004KT 9999 -RA BKN040 12/12 Q1017",
      "taf": "TAF LRSV 092000Z 0921/1006 35008KT 5000 -RA BR SCT015 BKN040"
    },
    {
      "icao": "LRTM",
      "alert": "OK",
      "vis_m": 9000,
      "fzfg": false,
      "metar_trigger": false,
      "taf_trigger": false,
      "metar": "METAR LRTM 092100Z 23005KT 9000 NSC 13/13 Q1016",
      "taf": "TAF LRTM 092000Z 0921/1006 VRB04KT 9999 SCT040"
    },
    {
      "icao": "LRTR",
      "alert": "OK",
      "vis_m": 9999,
      "fzfg": false,
      "metar_trigger": false,
      "taf_trigger": false,
      "metar": "METAR LRTR 092100Z 10006KT CAVOK 11/10 Q1016",
      "taf": "TAF LRTR 091700Z 0918/1018 VRB04KT 9999 SCT045"
    },
    {
      "icao": "LTAC",
      "alert": "OK",
      "vis_m": 9999,
      "fzfg": false,
      "metar_trigger": false,
      "taf_trigger": false,
      "metar": "METAR LTAC 092050Z 18004KT 9999 -TSRA FEW025CB SCT040 BKN100 13/12 Q1019 NOSIG RMK RWY21C 19004KT RWY03L 18003KT RWY21R 18004KT 150V220 RWY03R 16004KT RWY21L 18006KT",
      "taf": "TAF LTAC 091640Z 0918/1018 VRB02KT 9999 SCT040 SCT100"
    },
    {
      "icao": "LTFM",
      "alert": "OK",
      "vis_m": 9999,
      "fzfg": false,
      "metar_trigger": false,
      "taf_trigger": false,
      "metar": "METAR LTFM 092050Z 19006KT 9999 -SHRA FEW022TCU SCT040 BKN100 17/14 Q1015 NOSIG RMK RWY17L 19009KT RWY34L 20007KT RWY16R 20005KT 170V230 RWY36 20008KT RWY18 21010KT",
      "taf": ""
    },
    {
      "icao": "LUKK",
      "alert": "OK",
      "vis_m": 9999,
      "fzfg": false,
      "metar_trigger": false,
      "taf_trigger": false,
      "metar": "METAR LUKK 092100Z 23004KT CAVOK 15/13 Q1016 NOSIG",
      "taf": "TAF LUKK 091704Z 0918/1018 VRB06KT 9999 SCT040"
    },
    {
      "icao": "LWOH",
      "alert": "OK",
      "vis_m": null,
      "fzfg": false,
      "metar_trigger": false,
      "taf_trigger": false,
      "metar": "",
      "taf": "TAF LWOH 092040Z 0921/1021 34005KT 9999 SCT040"
    },
    {
      "icao": "LWSK",
      "alert": "OK",
      "vis_m": 9999,
      "fzfg": false,
      "metar_trigger": false,
      "taf_trigger": false,
      "metar": "METAR LWSK 092120Z VRB02KT 9999 SCT080 13/11 Q1017 NOSIG",
      "taf": "TAF LWSK 092040Z 0921/1021 VRB02KT 9999 FEW050 SCT100"
    },
    {
      "icao": "LYBE",
      "alert": "OK",
      "vis_m": 9999,
      "fzfg": false,
      "metar_trigger": false,
      "taf_trigger": false,
      "metar": "METAR LYBE 092100Z 20006KT 150V210 CAVOK 15/13 Q1016 NOSIG",
      "taf": "TAF LYBE 091700Z 0918/1018 23005KT CAVOK TX25/1013Z TN11/1003Z"
    },
    {
      "icao": "LYNI",
      "alert": "OK",
      "vis_m": 9999,
      "fzfg": false,
      "metar_trigger": false,
      "taf_trigger": false,
      "metar": "METAR LYNI 092100Z VRB03KT CAVOK 15/13 Q1017 NOSIG",
      "taf": "TAF LYNI 091700Z 0918/1018 11005KT 9999 BKN040 TX24/1013Z TN09/1003Z"
    },
    {
      "icao": "LYPG",
      "alert": "OK",
      "vis_m": 9999,
      "fzfg": false,
      "metar_trigger": false,
      "taf_trigger": false,
      "metar": "METAR LYPG 092100Z 04003KT CAVOK 16/14 Q1017 NOSIG",
      "taf": "TAF LYPG 091700Z 0918/1018 VRB02KT 9999 FEW030 TX23/1014Z TN13/1005Z"
    },
    {
      "icao": "LZIB",
      "alert": "OK",
      "vis_m": 9999,
      "fzfg": false,
      "metar_trigger": false,
      "taf_trigger": false,
      "metar": "METAR LZIB 092100Z VRB01KT CAVOK 13/05 Q1018 NOSIG",
      "taf": "TAF LZIB 091715Z 0918/1018 33009KT CAVOK"
    },
    {
      "icao": "LZKZ",
      "alert": "OK",
      "vis_m": 9999,
      "fzfg": false,
      "metar_trigger": false,
      "taf_trigger": false,
      "metar": "METAR LZKZ 092100Z 01012KT CAVOK 12/06 Q1018 NOSIG",
      "taf": "TAF LZKZ 091715Z 0918/1018 02012KT CAVOK"
    },
    {
      "icao": "LZTT",
      "alert": "OK",
      "vis_m": 9999,
      "fzfg": false,
      "metar_trigger": false,
      "taf_trigger": false,
      "metar": "METAR LZTT 092100Z 07007KT 9999 FEW013 OVC023 08/05 Q1019",
      "taf": ""
    },
    {
      "icao": "OEJN",
      "alert": "OK",
      "vis_m": 9999,
      "fzfg": false,
      "metar_trigger": false,
      "taf_trigger": false,
      "metar": "METAR OEJN 092100Z 32010KT CAVOK 29/20 Q1007 NOSIG",
      "taf": "TAF OEJN 091700Z 0918/1024 02006KT 7000 NSC"
    },
    {
      "icao": "OEMA",
      "alert": "OK",
      "vis_m": 9999,
      "fzfg": false,
      "metar_trigger": false,
      "taf_trigger": false,
      "metar": "METAR OEMA 092100Z VRB01KT CAVOK 32/02 Q1013 NOSIG",
      "taf": "TAF OEMA 091700Z 0918/1024 VRB03KT CAVOK"
    },
    {
      "icao": "OJAI",
      "alert": "OK",
      "vis_m": 4000,
      "fzfg": false,
      "metar_trigger": false,
      "taf_trigger": false,
      "metar": "METAR OJAI 092100Z 28010KT 4000 HZ NSC 18/09 Q1019 NOSIG",
      "taf": "TAF OJAI 091700Z 0918/1024 30014KT 5000 HZ NSC"
    },
    {
      "icao": "OMAA",
      "alert": "OK",
      "vis_m": 9999,
      "fzfg": false,
      "metar_trigger": false,
      "taf_trigger": false,
      "metar": "METAR OMAA 092100Z 28003KT CAVOK 30/19 Q1008 NOSIG",
      "taf": "TAF OMAA 091700Z 0918/1100 30010KT 8000 NSC"
    },
    {
      "icao": "OMDB",
      "alert": "OK",
      "vis_m": 9999,
      "fzfg": false,
      "metar_trigger": false,
      "taf_trigger": false,
      "metar": "METAR OMDB 092100Z 20006KT 150V220 CAVOK 32/20 Q1007 NOSIG",
      "taf": "TAF OMDB 091700Z 0918/1100 20007KT CAVOK"
    },
    {
      "icao": "UAAA",
      "alert": "OK",
      "vis_m": 9999,
      "fzfg": false,
      "metar_trigger": false,
      "taf_trigger": false,
      "metar": "METAR UAAA 092100Z 16003MPS 9999 SCT050CB BKN100 19/13 Q1010 NOSIG",
      "taf": "TAF UAAA 091700Z 0918/1018 22003G08MPS 9999 SCT050CB BKN100 TX22/1010Z TN17/1000Z"
    },
    {
      "icao": "UBBB",
      "alert": "OK",
      "vis_m": 9999,
      "fzfg": false,
      "metar_trigger": false,
      "taf_trigger": false,
      "metar": "METAR UBBB 092100Z 23010KT 9999 -SHRA SCT060CB 19/12 Q1017 NOSIG",
      "taf": "TAF UBBB 091705Z 0918/1018 19006KT CAVOK TX21/0912Z TN13/1001Z"
    },
    {
      "icao": "UDSG",
      "alert": "OK",
      "vis_m": 9999,
      "fzfg": false,
      "metar_trigger": false,
      "taf_trigger": false,
      "metar": "METAR UDSG 092100Z 10002KT 9999 NSC 07/03 Q1023 NOSIG",
      "taf": "TAF UDSG 091700Z 0918/1018 06006KT 9999 SCT050"
    },
    {
      "icao": "UDYZ",
      "alert": "OK",
      "vis_m": 9999,
      "fzfg": false,
      "metar_trigger": false,
      "taf_trigger": false,
      "metar": "METAR UDYZ 092100Z 04008KT 9999 NSC 15/04 Q1019 NOSIG",
      "taf": "TAF UDYZ 091700Z 0918/1018 24006KT 9999 FEW040"
    },
    {
      "icao": "UGKO",
      "alert": "OK",
      "vis_m": 9999,
      "fzfg": false,
      "metar_trigger": false,
      "taf_trigger": false,
      "metar": "METAR UGKO 092100Z 12004KT 090V150 CAVOK 13/09 Q1016 NOSIG",
      "taf": "TAF UGKO 091700Z 0918/1018 25007KT CAVOK TX29/1011Z TN12/0920Z"
    }
  ]
}