{
  "ts_utc": "2026-04-27T03:33:43Z",
  "threshold_m": 150,
  "source": "stations_override.txt (ICAO list) + aviationweather.gov (METAR/TAF raw)",
  "station_count": 159,
  "stations": [
    {
      "icao": "BIKF",
      "alert": "OK",
      "vis_m": 9999,
      "fzfg": false,
      "metar_trigger": false,
      "taf_trigger": false,
      "metar": "METAR BIKF 270300Z 16020KT 9999 -RA OVC005 08/07 Q1008",
      "taf": "TAF BIKF 270108Z 2703/2803 16018G28KT 3500 RADZ BR BKN006 OVC013 TX08/2706Z TN07/2703Z"
    },
    {
      "icao": "BKPR",
      "alert": "OK",
      "vis_m": 9999,
      "fzfg": false,
      "metar_trigger": false,
      "taf_trigger": false,
      "metar": "METAR BKPR 270330Z 29004KT CAVOK 04/00 Q1022 NOSIG",
      "taf": "TAF BKPR 262330Z 2700/2724 36007KT CAVOK"
    },
    {
      "icao": "EBCI",
      "alert": "OK",
      "vis_m": 9999,
      "fzfg": false,
      "metar_trigger": false,
      "taf_trigger": false,
      "metar": "METAR EBCI 270320Z 05004KT CAVOK 06/01 Q1023 NOSIG",
      "taf": "TAF EBCI 262310Z 2700/2806 05004KT CAVOK"
    },
    {
      "icao": "EDDB",
      "alert": "OK",
      "vis_m": 9999,
      "fzfg": false,
      "metar_trigger": false,
      "taf_trigger": false,
      "metar": "METAR EDDB 270320Z AUTO 10002KT CAVOK 01/M02 Q1024 NOSIG",
      "taf": "TAF EDDB 262300Z 2700/2724 VRB02KT CAVOK"
    },
    {
      "icao": "EDDH",
      "alert": "OK",
      "vis_m": 9999,
      "fzfg": false,
      "metar_trigger": false,
      "taf_trigger": false,
      "metar": "METAR EDDH 270320Z AUTO 33004KT CAVOK M01/M02 Q1025 NOSIG",
      "taf": "TAF EDDH 262300Z 2700/2806 VRB03KT CAVOK"
    },
    {
      "icao": "EDDK",
      "alert": "OK",
      "vis_m": 9999,
      "fzfg": false,
      "metar_trigger": false,
      "taf_trigger": false,
      "metar": "METAR EDDK 270320Z AUTO VRB01KT CAVOK 01/00 Q1023 NOSIG",
      "taf": "TAF EDDK 262300Z 2700/2806 VRB02KT CAVOK"
    },
    {
      "icao": "EDDN",
      "alert": "OK",
      "vis_m": 9999,
      "fzfg": false,
      "metar_trigger": false,
      "taf_trigger": false,
      "metar": "METAR EDDN 270320Z AUTO 02002KT CAVOK M01/M02 Q1023",
      "taf": "TAF EDDN 262300Z 2700/2724 VRB03KT CAVOK"
    },
    {
      "icao": "EDDS",
      "alert": "OK",
      "vis_m": 9999,
      "fzfg": false,
      "metar_trigger": false,
      "taf_trigger": false,
      "metar": "METAR EDDS 270320Z AUTO VRB01KT CAVOK 04/01 Q1021",
      "taf": "TAF EDDS 262300Z 2700/2724 VRB02KT CAVOK"
    },
    {
      "icao": "EDFH",
      "alert": "OK",
      "vis_m": 9999,
      "fzfg": false,
      "metar_trigger": false,
      "taf_trigger": false,
      "metar": "METAR EDFH 270320Z 10005KT CAVOK 07/M02 Q1022",
      "taf": "TAF EDFH 262300Z 2700/2724 08005KT CAVOK"
    },
    {
      "icao": "EDJA",
      "alert": "OK",
      "vis_m": 9999,
      "fzfg": false,
      "metar_trigger": false,
      "taf_trigger": false,
      "metar": "METAR EDJA 270320Z AUTO 00000KT 9999 // FEW140/// 01/M01 Q1021",
      "taf": "TAF EDJA 270200Z 2703/2712 VRB02KT CAVOK"
    },
    {
      "icao": "EDLW",
      "alert": "OK",
      "vis_m": 9999,
      "fzfg": false,
      "metar_trigger": false,
      "taf_trigger": false,
      "metar": "METAR EDLW 270320Z 00000KT CAVOK 02/M00 Q1024",
      "taf": "TAF EDLW 270320Z 2704/2724 12004KT CAVOK"
    },
    {
      "icao": "EDNY",
      "alert": "OK",
      "vis_m": 9999,
      "fzfg": false,
      "metar_trigger": false,
      "taf_trigger": false,
      "metar": "METAR EDNY 270320Z AUTO 06005KT 9999 // NCD 06/02 Q1021",
      "taf": "TAF EDNY 270200Z 2703/2712 VRB03KT CAVOK"
    },
    {
      "icao": "EDSB",
      "alert": "OK",
      "vis_m": 9999,
      "fzfg": false,
      "metar_trigger": false,
      "taf_trigger": false,
      "metar": "METAR EDSB 270320Z 04003KT CAVOK 06/02 Q1021",
      "taf": "TAF EDSB 262300Z 2700/2724 02004KT CAVOK"
    },
    {
      "icao": "EETN",
      "alert": "OK",
      "vis_m": 9999,
      "fzfg": false,
      "metar_trigger": false,
      "taf_trigger": false,
      "metar": "METAR EETN 270320Z 33013KT CAVOK 02/M03 Q1011",
      "taf": "TAF EETN 262330Z 2700/2724 33012KT 9999 FEW040"
    },
    {
      "icao": "EFTU",
      "alert": "OK",
      "vis_m": 9999,
      "fzfg": false,
      "metar_trigger": false,
      "taf_trigger": false,
      "metar": "METAR EFTU 270320Z AUTO 31005KT CAVOK M01/M03 Q1015",
      "taf": "TAF EFTU 270226Z 2703/2803 32006KT CAVOK"
    },
    {
      "icao": "EGBB",
      "alert": "OK",
      "vis_m": 9999,
      "fzfg": false,
      "metar_trigger": false,
      "taf_trigger": false,
      "metar": "METAR EGBB 270320Z 29002KT CAVOK 09/07 Q1024",
      "taf": "TAF EGBB 262257Z 2700/2724 14006KT 9999 FEW045"
    },
    {
      "icao": "EGGP",
      "alert": "OK",
      "vis_m": 9000,
      "fzfg": false,
      "metar_trigger": false,
      "taf_trigger": false,
      "metar": "METAR EGGP 270320Z AUTO 28006KT 260V320 9000 OVC003/// 09/07 Q1025",
      "taf": ""
    },
    {
      "icao": "EGGW",
      "alert": "OK",
      "vis_m": 8000,
      "fzfg": false,
      "metar_trigger": false,
      "taf_trigger": false,
      "metar": "METAR EGGW 270320Z AUTO 15002KT 8000 NCD 06/05 Q1024",
      "taf": "TAF EGGW 262257Z 2700/2724 15005KT CAVOK"
    },
    {
      "icao": "EGKK",
      "alert": "OK",
      "vis_m": 9999,
      "fzfg": false,
      "metar_trigger": false,
      "taf_trigger": false,
      "metar": "METAR EGKK 270320Z 01002KT CAVOK 06/06 Q1024",
      "taf": "TAF EGKK 262255Z 2700/2806 05007KT 9999 FEW045"
    },
    {
      "icao": "EGNM",
      "alert": "OK",
      "vis_m": 9999,
      "fzfg": false,
      "metar_trigger": false,
      "taf_trigger": false,
      "metar": "METAR EGNM 270320Z 27009KT CAVOK 10/06 Q1024",
      "taf": ""
    },
    {
      "icao": "EGPD",
      "alert": "OK",
      "vis_m": 9999,
      "fzfg": false,
      "metar_trigger": false,
      "taf_trigger": false,
      "metar": "METAR EGPD 270320Z COR AUTO 30006KT 9999 NCD 10/07 Q1023 NOSIG",
      "taf": "TAF EGPD 262257Z 2700/2724 VRB03KT 9999 FEW045"
    },
    {
      "icao": "EGPF",
      "alert": "OK",
      "vis_m": 9999,
      "fzfg": false,
      "metar_trigger": false,
      "taf_trigger": false,
      "metar": "METAR EGPF 270320Z AUTO 24004KT 9999 NCD 06/05 Q1025",
      "taf": "TAF EGPF 262302Z 2700/2724 24004KT 9999 FEW030"
    },
    {
      "icao": "EHBK",
      "alert": "OK",
      "vis_m": 9999,
      "fzfg": false,
      "metar_trigger": false,
      "taf_trigger": false,
      "metar": "METAR EHBK 270325Z AUTO 04005KT 9999 NSC 04/00 Q1023",
      "taf": "TAF EHBK 262305Z 2700/2806 05006KT CAVOK"
    },
    {
      "icao": "EHEH",
      "alert": "OK",
      "vis_m": 9999,
      "fzfg": false,
      "metar_trigger": false,
      "taf_trigger": false,
      "metar": "METAR EHEH 270325Z AUTO 03003KT 9999 OVC180 03/02 Q1024 BLU",
      "taf": "TAF EHEH 262319Z 2700/2806 04006KT CAVOK"
    },
    {
      "icao": "EKBI",
      "alert": "OK",
      "vis_m": 9999,
      "fzfg": false,
      "metar_trigger": false,
      "taf_trigger": false,
      "metar": "METAR EKBI 270320Z AUTO 00000KT 9999 BKN023/// M00/M01 Q1025",
      "taf": "TAF EKBI 270227Z 2703/2803 VRB03KT 9999 SCT025"
    },
    {
      "icao": "EKCH",
      "alert": "OK",
      "vis_m": 9999,
      "fzfg": false,
      "metar_trigger": false,
      "taf_trigger": false,
      "metar": "METAR EKCH 270320Z AUTO 02006KT 9999 NCD 04/M00 Q1024 NOSIG",
      "taf": "TAF EKCH 270227Z 2703/2803 05006KT CAVOK"
    },
    {
      "icao": "ENAL",
      "alert": "OK",
      "vis_m": 9999,
      "fzfg": false,
      "metar_trigger": false,
      "taf_trigger": false,
      "metar": "METAR ENAL 270320Z AUTO 08012KT 9999 NCD 03/00 Q1026",
      "taf": "TAF ENAL 270200Z 2703/2712 09007KT 9999 SCT050"
    },
    {
      "icao": "ENBR",
      "alert": "OK",
      "vis_m": 9999,
      "fzfg": false,
      "metar_trigger": false,
      "taf_trigger": false,
      "metar": "METAR ENBR 270320Z 00000KT CAVOK M00/M01 Q1025 RMK WIND 1200FT 10003KT",
      "taf": "TAF ENBR 262300Z 2700/2724 VRB03KT CAVOK"
    },
    {
      "icao": "ENGM",
      "alert": "OK",
      "vis_m": 9999,
      "fzfg": false,
      "metar_trigger": false,
      "taf_trigger": false,
      "metar": "METAR ENGM 270320Z 26003KT 190V300 CAVOK 00/M07 Q1025",
      "taf": "TAF ENGM 262300Z 2700/2724 01006KT CAVOK"
    },
    {
      "icao": "ENHD",
      "alert": "OK",
      "vis_m": 9999,
      "fzfg": false,
      "metar_trigger": false,
      "taf_trigger": false,
      "metar": "METAR ENHD 270320Z AUTO 08005KT 9999 NCD 02/M00 Q1025",
      "taf": "TAF ENHD 270200Z 2703/2712 35005KT CAVOK"
    },
    {
      "icao": "ENTC",
      "alert": "OK",
      "vis_m": 9999,
      "fzfg": false,
      "metar_trigger": false,
      "taf_trigger": false,
      "metar": "METAR ENTC 270320Z VRB02KT 9999 R36/P2000D R18/P2000N -SHSN VV010 M01/M02 Q1019 RMK WIND 2600FT 35015KT",
      "taf": ""
    },
    {
      "icao": "ENTO",
      "alert": "OK",
      "vis_m": 9999,
      "fzfg": false,
      "metar_trigger": false,
      "taf_trigger": false,
      "metar": "METAR ENTO 270320Z AUTO 01005KT 9999 NCD 00/M05 Q1026",
      "taf": "TAF ENTO 262300Z 2700/2724 01005KT CAVOK"
    },
    {
      "icao": "ENVA",
      "alert": "OK",
      "vis_m": 9999,
      "fzfg": false,
      "metar_trigger": false,
      "taf_trigger": false,
      "metar": "METAR ENVA 270320Z 25011KT 9999 SCT013 BKN022 02/01 Q1027 RMK WIND 670FT 27012KT",
      "taf": "TAF ENVA 262300Z 2700/2724 28012KT 9999 FEW025TCU BKN040"
    },
    {
      "icao": "ENZV",
      "alert": "OK",
      "vis_m": 9999,
      "fzfg": false,
      "metar_trigger": false,
      "taf_trigger": false,
      "metar": "METAR ENZV 270250Z AUTO VRB02KT 9999 NCD 01/M01 Q1025",
      "taf": "TAF ENZV 262300Z 2700/2724 36005KT CAVOK"
    },
    {
      "icao": "EPGD",
      "alert": "OK",
      "vis_m": 9999,
      "fzfg": false,
      "metar_trigger": false,
      "taf_trigger": false,
      "metar": "METAR EPGD 270330Z 29010KT CAVOK 01/M02 Q1021",
      "taf": "TAF EPGD 262330Z 2700/2724 27008KT CAVOK"
    },
    {
      "icao": "EPKK",
      "alert": "OK",
      "vis_m": 9999,
      "fzfg": false,
      "metar_trigger": false,
      "taf_trigger": false,
      "metar": "METAR EPKK 270330Z 24002KT CAVOK 00/M05 Q1023",
      "taf": "TAF EPKK 270230Z 2703/2803 VRB02KT CAVOK"
    },
    {
      "icao": "EPKT",
      "alert": "OK",
      "vis_m": 9999,
      "fzfg": false,
      "metar_trigger": false,
      "taf_trigger": false,
      "metar": "METAR EPKT 270330Z 05001KT CAVOK M05/M07 Q1023",
      "taf": "TAF EPKT 262330Z 2700/2724 VRB02KT CAVOK"
    },
    {
      "icao": "EPLB",
      "alert": "OK",
      "vis_m": 9999,
      "fzfg": false,
      "metar_trigger": false,
      "taf_trigger": false,
      "metar": "METAR EPLB 270330Z 28007KT CAVOK M00/M06 Q1022",
      "taf": "TAF EPLB 262330Z 2700/2724 24005KT CAVOK"
    },
    {
      "icao": "EPMO",
      "alert": "OK",
      "vis_m": 9999,
      "fzfg": false,
      "metar_trigger": false,
      "taf_trigger": false,
      "metar": "METAR EPMO 270330Z 23006KT CAVOK 02/M06 Q1022",
      "taf": "TAF EPMO 262330Z 2700/2724 24005KT CAVOK"
    },
    {
      "icao": "EPPO",
      "alert": "OK",
      "vis_m": 9999,
      "fzfg": false,
      "metar_trigger": false,
      "taf_trigger": false,
      "metar": "METAR EPPO 270330Z 00000KT CAVOK M02/M04 Q1024",
      "taf": "TAF EPPO 262330Z 2700/2724 26002KT CAVOK"
    },
    {
      "icao": "EPRA",
      "alert": "OK",
      "vis_m": 9999,
      "fzfg": false,
      "metar_trigger": false,
      "taf_trigger": false,
      "metar": "METAR EPRA 270330Z 24005KT CAVOK 01/M07 Q1022",
      "taf": "TAF EPRA 270230Z 2703/2712 24006KT CAVOK"
    },
    {
      "icao": "EPRZ",
      "alert": "OK",
      "vis_m": 9999,
      "fzfg": false,
      "metar_trigger": false,
      "taf_trigger": false,
      "metar": "METAR EPRZ 270330Z 22002KT CAVOK M01/M04 Q1023",
      "taf": "TAF EPRZ 262330Z 2700/2724 VRB02KT CAVOK"
    },
    {
      "icao": "EPSC",
      "alert": "OK",
      "vis_m": 9999,
      "fzfg": false,
      "metar_trigger": false,
      "taf_trigger": false,
      "metar": "METAR EPSC 270330Z 12003KT CAVOK M02/M06 Q1023",
      "taf": "TAF EPSC 262330Z 2700/2724 VRB03KT CAVOK"
    },
    {
      "icao": "EPSY",
      "alert": "OK",
      "vis_m": 9999,
      "fzfg": false,
      "metar_trigger": false,
      "taf_trigger": false,
      "metar": "METAR EPSY 270330Z 23005KT CAVOK M02/M08 Q1020",
      "taf": "TAF EPSY 270230Z 2703/2712 26006KT CAVOK"
    },
    {
      "icao": "EPWA",
      "alert": "OK",
      "vis_m": 9999,
      "fzfg": false,
      "metar_trigger": false,
      "taf_trigger": false,
      "metar": "METAR EPWA 270330Z VRB01KT CAVOK 02/M08 Q1022 NOSIG",
      "taf": "TAF EPWA 270230Z 2703/2803 VRB02KT CAVOK"
    },
    {
      "icao": "EPWR",
      "alert": "OK",
      "vis_m": 9999,
      "fzfg": false,
      "metar_trigger": false,
      "taf_trigger": false,
      "metar": "METAR EPWR 270330Z 35003KT 300V040 CAVOK 01/M04 Q1024",
      "taf": "TAF EPWR 270230Z 2703/2803 28003KT CAVOK"
    },
    {
      "icao": "ESGG",
      "alert": "OK",
      "vis_m": 9999,
      "fzfg": false,
      "metar_trigger": false,
      "taf_trigger": false,
      "metar": "METAR ESGG 270320Z 03007KT CAVOK M00/M03 Q1023",
      "taf": "TAF ESGG 270230Z 2703/2803 36005KT CAVOK"
    },
    {
      "icao": "ESKN",
      "alert": "OK",
      "vis_m": 9999,
      "fzfg": false,
      "metar_trigger": false,
      "taf_trigger": false,
      "metar": "METAR ESKN 270320Z 32006KT CAVOK 01/M06 Q1021",
      "taf": "TAF ESKN 270230Z 2703/2803 34009KT CAVOK"
    },
    {
      "icao": "ESMS",
      "alert": "OK",
      "vis_m": 9999,
      "fzfg": false,
      "metar_trigger": false,
      "taf_trigger": false,
      "metar": "METAR ESMS 270320Z 01003KT CAVOK M01/M03 Q1023",
      "taf": "TAF ESMS 270227Z 2703/2803 VRB03KT CAVOK"
    },
    {
      "icao": "ESSA",
      "alert": "OK",
      "vis_m": 9999,
      "fzfg": false,
      "metar_trigger": false,
      "taf_trigger": false,
      "metar": "METAR ESSA 270320Z 32008KT CAVOK M00/M07 Q1020 NOSIG",
      "taf": "TAF ESSA 270230Z 2703/2803 33008KT CAVOK"
    },
    {
      "icao": "EYKA",
      "alert": "OK",
      "vis_m": 9999,
      "fzfg": false,
      "metar_trigger": false,
      "taf_trigger": false,
      "metar": "METAR EYKA 270320Z 29008KT CAVOK 01/M01 Q1015",
      "taf": "TAF EYKA 262300Z 2700/2724 29010KT 9000 NSC"
    },
    {
      "icao": "EYPA",
      "alert": "OK",
      "vis_m": 9999,
      "fzfg": false,
      "metar_trigger": false,
      "taf_trigger": false,
      "metar": "METAR EYPA 270320Z VRB02KT CAVOK 04/03 Q1017",
      "taf": "TAF EYPA 262300Z 2700/2724 VRB03KT 9000 NSC"
    },
    {
      "icao": "EYVI",
      "alert": "OK",
      "vis_m": 9999,
      "fzfg": false,
      "metar_trigger": false,
      "taf_trigger": false,
      "metar": "METAR EYVI 270320Z 28008KT 240V310 CAVOK 01/M04 Q1014 NOSIG",
      "taf": "TAF EYVI 262300Z 2700/2724 30012KT 9000 NSC"
    },
    {
      "icao": "GCFV",
      "alert": "OK",
      "vis_m": 9999,
      "fzfg": false,
      "metar_trigger": false,
      "taf_trigger": false,
      "metar": "METAR GCFV 270300Z AUTO 35010KT 9999 3200N FEW025 OVC035 19/14 Q1014",
      "taf": "TAF GCFV 270200Z 2703/2803 35009KT 9999 FEW025 BKN035 TX23/2714Z TN18/2706Z"
    },
    {
      "icao": "GCLP",
      "alert": "OK",
      "vis_m": 9999,
      "fzfg": false,
      "metar_trigger": false,
      "taf_trigger": false,
      "metar": "METAR GCLP 270300Z 36009KT 9999 FEW020 18/15 Q1014 NOSIG",
      "taf": "TAF GCLP 270200Z 2703/2803 35011KT 9999 FEW027 TX24/2714Z TN17/2706Z"
    },
    {
      "icao": "GCTS",
      "alert": "OK",
      "vis_m": 9999,
      "fzfg": false,
      "metar_trigger": false,
      "taf_trigger": false,
      "metar": "METAR GCTS 270300Z 30004KT 260V330 9999 FEW035 17/11 Q1015 NOSIG",
      "taf": "TAF GCTS 270200Z 2703/2803 VRB05KT 9999 FEW035 BKN040 TX23/2714Z TN16/2706Z"
    },
    {
      "icao": "GMAD",
      "alert": "OK",
      "vis_m": 8000,
      "fzfg": false,
      "metar_trigger": false,
      "taf_trigger": false,
      "metar": "METAR GMAD 270330Z 21004KT 8000 BKN016 18/15 Q1009 NOSIG",
      "taf": ""
    },
    {
      "icao": "GMMN",
      "alert": "OK",
      "vis_m": 3000,
      "fzfg": false,
      "metar_trigger": false,
      "taf_trigger": false,
      "metar": "METAR GMMN 270330Z 30003KT 280V350 3000 BR BKN003 17/15 Q1009 NOSIG",
      "taf": "TAF GMMN 262300Z 2700/2806 01003KT CAVOK"
    },
    {
      "icao": "GMMX",
      "alert": "OK",
      "vis_m": 9999,
      "fzfg": false,
      "metar_trigger": false,
      "taf_trigger": false,
      "metar": "METAR GMMX 270330Z 24004KT 220V280 CAVOK 17/14 Q1009 NOSIG",
      "taf": "TAF GMMX 262300Z 2700/2806 06006KT 8000 SCT026"
    },
    {
      "icao": "HEGN",
      "alert": "OK",
      "vis_m": null,
      "fzfg": false,
      "metar_trigger": false,
      "taf_trigger": false,
      "metar": "",
      "taf": "TAF HEGN 262300Z 2700/2806 34015G25KT CAVOK"
    },
    {
      "icao": "HEMA",
      "alert": "OK",
      "vis_m": null,
      "fzfg": false,
      "metar_trigger": false,
      "taf_trigger": false,
      "metar": "",
      "taf": "TAF HEMA 262300Z 2700/2806 30015G25KT CAVOK"
    },
    {
      "icao": "HESH",
      "alert": "OK",
      "vis_m": null,
      "fzfg": false,
      "metar_trigger": false,
      "taf_trigger": false,
      "metar": "",
      "taf": "TAF HESH 262300Z 2700/2806 29012KT CAVOK"
    },
    {
      "icao": "HESX",
      "alert": "OK",
      "vis_m": null,
      "fzfg": false,
      "metar_trigger": false,
      "taf_trigger": false,
      "metar": "",
      "taf": "TAF HESX 262300Z 2700/2806 30006KT CAVOK"
    },
    {
      "icao": "LATI",
      "alert": "OK",
      "vis_m": 9999,
      "fzfg": false,
      "metar_trigger": false,
      "taf_trigger": false,
      "metar": "METAR LATI 270320Z 14002KT CAVOK 10/08 Q1018 NOSIG",
      "taf": "TAF LATI 262300Z 2700/2724 VRB05KT CAVOK TX29/2712Z TN09/2704Z"
    },
    {
      "icao": "LBPD",
      "alert": "OK",
      "vis_m": 9999,
      "fzfg": false,
      "metar_trigger": false,
      "taf_trigger": false,
      "metar": "METAR LBPD 270330Z AUTO 11006KT 9999 NCD 08/05 Q1023 NOSIG",
      "taf": "TAF LBPD 262300Z 2700/2724 29010KT CAVOK"
    },
    {
      "icao": "LBSF",
      "alert": "OK",
      "vis_m": 9999,
      "fzfg": false,
      "metar_trigger": false,
      "taf_trigger": false,
      "metar": "METAR LBSF 270330Z 10006KT CAVOK 03/M03 Q1022 NOSIG",
      "taf": "TAF LBSF 262300Z 2700/2724 VRB04KT CAVOK"
    },
    {
      "icao": "LBWN",
      "alert": "OK",
      "vis_m": 9999,
      "fzfg": false,
      "metar_trigger": false,
      "taf_trigger": false,
      "metar": "METAR LBWN 270330Z AUTO 03011KT 9999 NCD 07/M03 Q1024 NOSIG",
      "taf": "TAF LBWN 262300Z 2700/2724 05010KT 9999 SCT045"
    },
    {
      "icao": "LCLK",
      "alert": "OK",
      "vis_m": 7000,
      "fzfg": false,
      "metar_trigger": false,
      "taf_trigger": false,
      "metar": "METAR LCLK 270330Z 19006KT 7000 FEW020 SCT030 16/16 Q1011 NOSIG",
      "taf": "TAF LCLK 262330Z 2700/2800 25007KT 9999 FEW009"
    },
    {
      "icao": "LCPH",
      "alert": "OK",
      "vis_m": 9999,
      "fzfg": false,
      "metar_trigger": false,
      "taf_trigger": false,
      "metar": "METAR LCPH 270330Z 07005KT 9999 FEW020 15/13 Q1011 NOSIG",
      "taf": "TAF LCPH 262330Z 2700/2800 32008KT 9999 FEW010 SCT015"
    },
    {
      "icao": "LEAL",
      "alert": "OK",
      "vis_m": 9999,
      "fzfg": false,
      "metar_trigger": false,
      "taf_trigger": false,
      "metar": "METAR LEAL 270300Z 35004KT CAVOK 14/12 Q1018 NOSIG",
      "taf": "TAF LEAL 262300Z 2700/2724 VRB04KT CAVOK TX22/2712Z TN10/2706Z"
    },
    {
      "icao": "LEBB",
      "alert": "OK",
      "vis_m": 9999,
      "fzfg": false,
      "metar_trigger": false,
      "taf_trigger": false,
      "metar": "METAR LEBB 270300Z VRB02KT 9999 BKN018 16/13 Q1020 NOSIG",
      "taf": "TAF LEBB 262300Z 2700/2724 VRB03KT 9999 SCT020 TX19/2715Z TN13/2706Z"
    },
    {
      "icao": "LEBL",
      "alert": "OK",
      "vis_m": 9999,
      "fzfg": false,
      "metar_trigger": false,
      "taf_trigger": false,
      "metar": "METAR LEBL 270300Z 34001KT CAVOK 17/09 Q1018 NOSIG",
      "taf": "TAF LEBL 262300Z 2700/2724 VRB04KT CAVOK TX22/2712Z TN14/2705Z"
    },
    {
      "icao": "LECH",
      "alert": "OK",
      "vis_m": 8000,
      "fzfg": false,
      "metar_trigger": false,
      "taf_trigger": false,
      "metar": "METAR LECH 270300Z AUTO 18003KT 8000 NCD 11/09 Q1019",
      "taf": "TAF LECH 262300Z 2700/2724 VRB03KT CAVOK TX24/2713Z TN10/2706Z"
    },
    {
      "icao": "LEMD",
      "alert": "OK",
      "vis_m": 9999,
      "fzfg": false,
      "metar_trigger": false,
      "taf_trigger": false,
      "metar": "METAR LEMD 270300Z 00000KT CAVOK 14/10 Q1018 NOSIG",
      "taf": "TAF LEMD 262300Z 2700/2806 VRB04KT CAVOK TX28/2715Z TN11/2706Z"
    },
    {
      "icao": "LEMG",
      "alert": "OK",
      "vis_m": 9999,
      "fzfg": false,
      "metar_trigger": false,
      "taf_trigger": false,
      "metar": "METAR LEMG 270300Z 14004KT 110V170 9999 FEW014 BKN020 16/14 Q1016 NOSIG",
      "taf": "TAF LEMG 262300Z 2700/2724 13005KT 9999 SCT025 TX23/2715Z TN14/2706Z"
    },
    {
      "icao": "LEVC",
      "alert": "OK",
      "vis_m": 9999,
      "fzfg": false,
      "metar_trigger": false,
      "taf_trigger": false,
      "metar": "METAR LEVC 270300Z 28003KT CAVOK 10/08 Q1019 NOSIG",
      "taf": "TAF LEVC 262300Z 2700/2724 VRB03KT CAVOK TX24/2712Z TN10/2706Z"
    },
    {
      "icao": "LEXJ",
      "alert": "OK",
      "vis_m": 9999,
      "fzfg": false,
      "metar_trigger": false,
      "taf_trigger": false,
      "metar": "METAR LEXJ 270300Z AUTO VRB02KT 9999 OVC015 14/12 Q1020",
      "taf": "TAF LEXJ 270200Z 2703/2803 VRB03KT 9999 SCT010 BKN016 TX16/2713Z TN13/2707Z"
    },
    {
      "icao": "LEZG",
      "alert": "OK",
      "vis_m": 9999,
      "fzfg": false,
      "metar_trigger": false,
      "taf_trigger": false,
      "metar": "METAR LEZG 270300Z VRB02KT CAVOK 14/08 Q1018 NOSIG",
      "taf": "TAF LEZG 262300Z 2700/2724 VRB04KT CAVOK TX29/2715Z TN14/2706Z"
    },
    {
      "icao": "LEZL",
      "alert": "OK",
      "vis_m": 9999,
      "fzfg": false,
      "metar_trigger": false,
      "taf_trigger": false,
      "metar": "METAR LEZL 270300Z AUTO 06008KT CAVOK 17/12 Q1014",
      "taf": "TAF LEZL 270200Z 2703/2803 VRB03KT CAVOK TX28/2715Z TN16/2706Z"
    },
    {
      "icao": "LFBD",
      "alert": "OK",
      "vis_m": 2300,
      "fzfg": false,
      "metar_trigger": false,
      "taf_trigger": false,
      "metar": "METAR LFBD 270330Z AUTO 26003KT 2300 0400 R23/0600D R05/0450D R29/P2300 BCFG NSC 12/11 Q1019 TEMPO 3000 BR BKN005",
      "taf": ""
    },
    {
      "icao": "LFLL",
      "alert": "OK",
      "vis_m": 9999,
      "fzfg": false,
      "metar_trigger": false,
      "taf_trigger": false,
      "metar": "METAR LFLL 270330Z VRB02KT CAVOK 10/05 Q1019 NOSIG",
      "taf": "TAF LFLL 262300Z 2700/2806 35004KT CAVOK"
    },
    {
      "icao": "LFLS",
      "alert": "OK",
      "vis_m": 9999,
      "fzfg": false,
      "metar_trigger": false,
      "taf_trigger": false,
      "metar": "METAR LFLS 270330Z AUTO 12006KT CAVOK 04/03 Q1019 NOSIG",
      "taf": "TAF LFLS 270200Z 2703/2803 09005KT CAVOK"
    },
    {
      "icao": "LFMN",
      "alert": "OK",
      "vis_m": 9999,
      "fzfg": false,
      "metar_trigger": false,
      "taf_trigger": false,
      "metar": "METAR LFMN 270330Z 32003KT 9999 FEW026 14/12 Q1019 NOSIG",
      "taf": "TAF LFMN 270200Z 2703/2809 33005KT 9999 BKN025"
    },
    {
      "icao": "LFOB",
      "alert": "OK",
      "vis_m": 7000,
      "fzfg": false,
      "metar_trigger": false,
      "taf_trigger": false,
      "metar": "METAR LFOB 270330Z AUTO 30006KT 7000 NSC 04/03 Q1022 NOSIG",
      "taf": "TAF LFOB 262300Z 2700/2724 03006KT CAVOK"
    },
    {
      "icao": "LFPO",
      "alert": "OK",
      "vis_m": 9999,
      "fzfg": false,
      "metar_trigger": false,
      "taf_trigger": false,
      "metar": "METAR LFPO 270330Z 01005KT CAVOK 10/04 Q1021 NOSIG",
      "taf": "TAF LFPO 262300Z 2700/2806 03005KT CAVOK"
    },
    {
      "icao": "LFSB",
      "alert": "OK",
      "vis_m": 9999,
      "fzfg": false,
      "metar_trigger": false,
      "taf_trigger": false,
      "metar": "METAR LFSB 270330Z AUTO 00000KT CAVOK 04/02 Q1021 NOSIG",
      "taf": "TAF LFSB 262300Z 2700/2724 VRB03KT CAVOK"
    },
    {
      "icao": "LGAV",
      "alert": "OK",
      "vis_m": 9999,
      "fzfg": false,
      "metar_trigger": false,
      "taf_trigger": false,
      "metar": "METAR LGAV 270320Z 28003KT CAVOK 11/05 Q1016 NOSIG",
      "taf": "TAF LGAV 262300Z 2700/2724 VRB03KT 9999 FEW030"
    },
    {
      "icao": "LGTS",
      "alert": "OK",
      "vis_m": 9999,
      "fzfg": false,
      "metar_trigger": false,
      "taf_trigger": false,
      "metar": "METAR LGTS 270320Z VRB03KT CAVOK 11/07 Q1018 NOSIG",
      "taf": "TAF LGTS 262300Z 2700/2724 34015KT 9999 FEW030"
    },
    {
      "icao": "LHBP",
      "alert": "OK",
      "vis_m": 9999,
      "fzfg": false,
      "metar_trigger": false,
      "taf_trigger": false,
      "metar": "METAR LHBP 270330Z 02003KT CAVOK 00/M04 Q1024 NOSIG",
      "taf": "TAF LHBP 262315Z 2700/2724 04004KT CAVOK"
    },
    {
      "icao": "LHDC",
      "alert": "OK",
      "vis_m": 9999,
      "fzfg": false,
      "metar_trigger": false,
      "taf_trigger": false,
      "metar": "METAR LHDC 270315Z AUTO 02002KT CAVOK 02/M03 Q1024 NOSIG",
      "taf": "TAF LHDC 270215Z 2703/2712 VRB03KT CAVOK"
    },
    {
      "icao": "LIBD",
      "alert": "OK",
      "vis_m": 9999,
      "fzfg": false,
      "metar_trigger": false,
      "taf_trigger": false,
      "metar": "METAR LIBD 270320Z 22005KT CAVOK 09/05 Q1017",
      "taf": "TAF LIBD 262300Z 2700/2724 23005KT CAVOK"
    },
    {
      "icao": "LIBG",
      "alert": "OK",
      "vis_m": null,
      "fzfg": false,
      "metar_trigger": false,
      "taf_trigger": false,
      "metar": "",
      "taf": ""
    },
    {
      "icao": "LIBP",
      "alert": "OK",
      "vis_m": 9999,
      "fzfg": false,
      "metar_trigger": false,
      "taf_trigger": false,
      "metar": "METAR LIBP 270320Z AUTO 21004KT 9999 NCD 08/07 Q1018",
      "taf": "TAF LIBP 262300Z 2700/2724 23005KT CAVOK"
    },
    {
      "icao": "LIBR",
      "alert": "OK",
      "vis_m": 9999,
      "fzfg": false,
      "metar_trigger": false,
      "taf_trigger": false,
      "metar": "METAR LIBR 270320Z 28005KT CAVOK 13/06 Q1017",
      "taf": "TAF LIBR 262300Z 2700/2724 27005KT CAVOK"
    },
    {
      "icao": "LICA",
      "alert": "OK",
      "vis_m": 9999,
      "fzfg": false,
      "metar_trigger": false,
      "taf_trigger": false,
      "metar": "METAR LICA 270320Z AUTO 08005KT 9999 NCD 09/08 Q1019",
      "taf": "TAF LICA 262300Z 2700/2724 VRB05KT 9999 FEW020"
    },
    {
      "icao": "LICC",
      "alert": "OK",
      "vis_m": 9999,
      "fzfg": false,
      "metar_trigger": false,
      "taf_trigger": false,
      "metar": "METAR LICC 270320Z 26006KT CAVOK 12/08 Q1018",
      "taf": "TAF LICC 262300Z 2700/2724 25007KT CAVOK"
    },
    {
      "icao": "LICJ",
      "alert": "OK",
      "vis_m": 9999,
      "fzfg": false,
      "metar_trigger": false,
      "taf_trigger": false,
      "metar": "METAR LICJ 270320Z 08007KT CAVOK 12/07 Q1018",
      "taf": "TAF LICJ 262300Z 2700/2724 VRB05KT CAVOK"
    },
    {
      "icao": "LIMC",
      "alert": "OK",
      "vis_m": 9999,
      "fzfg": false,
      "metar_trigger": false,
      "taf_trigger": false,
      "metar": "METAR LIMC 270320Z VRB02KT CAVOK 10/10 Q1018 NOSIG",
      "taf": "TAF LIMC 262300Z 2700/2806 VRB05KT CAVOK"
    },
    {
      "icao": "LIME",
      "alert": "OK",
      "vis_m": 9999,
      "fzfg": false,
      "metar_trigger": false,
      "taf_trigger": false,
      "metar": "METAR LIME 270320Z 01005KT CAVOK 14/08 Q1018 NOSIG",
      "taf": "TAF LIME 262300Z 2700/2724 VRB05KT CAVOK"
    },
    {
      "icao": "LIMF",
      "alert": "OK",
      "vis_m": 9999,
      "fzfg": false,
      "metar_trigger": false,
      "taf_trigger": false,
      "metar": "METAR LIMF 270320Z 29002KT CAVOK 14/09 Q1018",
      "taf": "TAF LIMF 262300Z 2700/2724 VRB04KT CAVOK"
    },
    {
      "icao": "LIMJ",
      "alert": "OK",
      "vis_m": 9999,
      "fzfg": false,
      "metar_trigger": false,
      "taf_trigger": false,
      "metar": "METAR LIMJ 270320Z VRB01KT CAVOK 13/12 Q1019",
      "taf": "TAF LIMJ 262300Z 2700/2724 03005KT 9999 FEW015"
    },
    {
      "icao": "LIPE",
      "alert": "OK",
      "vis_m": 9999,
      "fzfg": false,
      "metar_trigger": false,
      "taf_trigger": false,
      "metar": "METAR LIPE 270320Z AUTO VRB02KT 9999 NCD 15/07 Q1018",
      "taf": "TAF LIPE 262300Z 2700/2724 VRB05KT CAVOK"
    },
    {
      "icao": "LIPH",
      "alert": "OK",
      "vis_m": 9999,
      "fzfg": false,
      "metar_trigger": false,
      "taf_trigger": false,
      "metar": "METAR LIPH 270320Z AUTO 03005KT 9999 NCD 14/08 Q1018",
      "taf": "TAF LIPH 262300Z 2700/2724 VRB06KT CAVOK"
    },
    {
      "icao": "LIPQ",
      "alert": "OK",
      "vis_m": 9999,
      "fzfg": false,
      "metar_trigger": false,
      "taf_trigger": false,
      "metar": "METAR LIPQ 270320Z AUTO 07007KT 040V100 9999 NCD 16/01 Q1018",
      "taf": "TAF LIPQ 262300Z 2700/2724 08012KT CAVOK"
    },
    {
      "icao": "LIPR",
      "alert": "OK",
      "vis_m": 9999,
      "fzfg": false,
      "metar_trigger": false,
      "taf_trigger": false,
      "metar": "METAR LIPR 270320Z AUTO VRB02KT 9999 NCD 13/10 Q1017",
      "taf": "TAF LIPR 262300Z 2700/2724 VRB05KT CAVOK"
    },
    {
      "icao": "LIPX",
      "alert": "OK",
      "vis_m": 9999,
      "fzfg": false,
      "metar_trigger": false,
      "taf_trigger": false,
      "metar": "METAR LIPX 270320Z 33003KT CAVOK 12/09 Q1018",
      "taf": "TAF LIPX 262300Z 2700/2724 VRB05KT CAVOK"
    },
    {
      "icao": "LIPY",
      "alert": "OK",
      "vis_m": 9999,
      "fzfg": false,
      "metar_trigger": false,
      "taf_trigger": false,
      "metar": "METAR LIPY 270320Z AUTO 20004KT 9999 BKN240/// 12/09 Q1017",
      "taf": "TAF LIPY 262300Z 2700/2724 VRB05KT CAVOK"
    },
    {
      "icao": "LIPZ",
      "alert": "OK",
      "vis_m": 9999,
      "fzfg": false,
      "metar_trigger": false,
      "taf_trigger": false,
      "metar": "METAR LIPZ 270320Z 03007KT CAVOK 13/10 Q1018 NOSIG",
      "taf": "TAF LIPZ 262300Z 2700/2806 05010KT CAVOK"
    },
    {
      "icao": "LIRF",
      "alert": "OK",
      "vis_m": 9999,
      "fzfg": false,
      "metar_trigger": false,
      "taf_trigger": false,
      "metar": "METAR LIRF 270320Z 02003KT 9999 R16L/0700N R16R/P2000N R25/P2000N R34R/0550D MIFG FEW004 09/09 Q1019 NOSIG",
      "taf": "TAF LIRF 262300Z 2700/2806 VRB05KT CAVOK"
    },
    {
      "icao": "LIRN",
      "alert": "OK",
      "vis_m": 9999,
      "fzfg": false,
      "metar_trigger": false,
      "taf_trigger": false,
      "metar": "METAR LIRN 270320Z VRB01KT CAVOK 11/09 Q1019 NOSIG",
      "taf": "TAF LIRN 262300Z 2700/2724 VRB05KT CAVOK"
    },
    {
      "icao": "LIRP",
      "alert": "OK",
      "vis_m": 9999,
      "fzfg": false,
      "metar_trigger": false,
      "taf_trigger": false,
      "metar": "METAR LIRP 270315Z 12003KT CAVOK 08/06 Q1019 NOSIG",
      "taf": "TAF LIRP 262300Z 2700/2724 30003KT CAVOK"
    },
    {
      "icao": "LIRZ",
      "alert": "OK",
      "vis_m": 9999,
      "fzfg": false,
      "metar_trigger": false,
      "taf_trigger": false,
      "metar": "METAR LIRZ 270320Z AUTO VRB02KT 9999 NCD 07/06 Q1019",
      "taf": "TAF LIRZ 262300Z 2700/2724 VRB05KT CAVOK"
    },
    {
      "icao": "LJLJ",
      "alert": "OK",
      "vis_m": 9999,
      "fzfg": false,
      "metar_trigger": false,
      "taf_trigger": false,
      "metar": "METAR LJLJ 270300Z 29001KT CAVOK 06/02 Q1023 NOSIG",
      "taf": "TAF LJLJ 262300Z 2700/2800 12004KT 9999 FEW080"
    },
    {
      "icao": "LKMT",
      "alert": "OK",
      "vis_m": 9999,
      "fzfg": false,
      "metar_trigger": false,
      "taf_trigger": false,
      "metar": "METAR LKMT 270330Z 20004KT CAVOK M00/M04 Q1024 NOSIG",
      "taf": "TAF LKMT 262300Z 2700/2724 VRB02KT CAVOK"
    },
    {
      "icao": "LKPR",
      "alert": "OK",
      "vis_m": 9999,
      "fzfg": false,
      "metar_trigger": false,
      "taf_trigger": false,
      "metar": "METAR LKPR 270330Z VRB01KT CAVOK 02/M03 Q1023 NOSIG",
      "taf": "TAF LKPR 270200Z 2703/2809 VRB02KT CAVOK"
    },
    {
      "icao": "LLBG",
      "alert": "OK",
      "vis_m": 9999,
      "fzfg": false,
      "metar_trigger": false,
      "taf_trigger": false,
      "metar": "METAR LLBG 270320Z VRB02KT CAVOK 15/10 Q1011 NOSIG",
      "taf": "TAF LLBG 262303Z 2700/2724 VRB04KT 7000 FEW015 TX22/2711Z TN15/2703Z"
    },
    {
      "icao": "LMML",
      "alert": "OK",
      "vis_m": 9999,
      "fzfg": false,
      "metar_trigger": false,
      "taf_trigger": false,
      "metar": "METAR LMML 270315Z 27003KT CAVOK 11/10 Q1018 NOSIG",
      "taf": "TAF LMML 262300Z 2700/2724 VRB05KT CAVOK"
    },
    {
      "icao": "LOWW",
      "alert": "OK",
      "vis_m": 9999,
      "fzfg": false,
      "metar_trigger": false,
      "taf_trigger": false,
      "metar": "METAR LOWW 270320Z 15003KT CAVOK 05/M00 Q1023 NOSIG",
      "taf": "TAF LOWW 270215Z 2703/2809 VRB04KT CAVOK TX19/2714Z TN06/2704Z"
    },
    {
      "icao": "LPFR",
      "alert": "OK",
      "vis_m": 9999,
      "fzfg": false,
      "metar_trigger": false,
      "taf_trigger": false,
      "metar": "METAR LPFR 270300Z 03007KT CAVOK 17/12 Q1013",
      "taf": "TAF LPFR 262300Z 2700/2724 VRB02KT CAVOK"
    },
    {
      "icao": "LPMA",
      "alert": "OK",
      "vis_m": 9999,
      "fzfg": false,
      "metar_trigger": false,
      "taf_trigger": false,
      "metar": "METAR LPMA 270300Z VRB07KT 9999 SCT015 16/10 Q1017",
      "taf": "TAF LPMA 262300Z 2700/2724 01013KT 9999 SCT015"
    },
    {
      "icao": "LPPR",
      "alert": "OK",
      "vis_m": 9999,
      "fzfg": false,
      "metar_trigger": false,
      "taf_trigger": false,
      "metar": "METAR LPPR 270300Z 00000KT CAVOK 13/12 Q1015",
      "taf": "TAF LPPR 262300Z 2700/2724 VRB02KT CAVOK"
    },
    {
      "icao": "LPPS",
      "alert": "OK",
      "vis_m": 9999,
      "fzfg": false,
      "metar_trigger": false,
      "taf_trigger": false,
      "metar": "METAR LPPS 270300Z 35015KT 9999 SCT015 BKN030 16/12 Q1017",
      "taf": "TAF LPPS 262300Z 2700/2806 01013KT 9999 FEW015 BKN030"
    },
    {
      "icao": "LPPT",
      "alert": "OK",
      "vis_m": 9999,
      "fzfg": false,
      "metar_trigger": false,
      "taf_trigger": false,
      "metar": "METAR LPPT 270300Z 32006KT CAVOK 17/13 Q1014",
      "taf": "TAF LPPT 262300Z 2700/2806 33012KT CAVOK"
    },
    {
      "icao": "LQBK",
      "alert": "OK",
      "vis_m": 9999,
      "fzfg": false,
      "metar_trigger": false,
      "taf_trigger": false,
      "metar": "METAR LQBK 270300Z 29004KT CAVOK 04/00 Q1022 NOSIG",
      "taf": "TAF LQBK 262300Z 2700/2724 03005KT CAVOK TX24/2714Z TN06/2704Z"
    },
    {
      "icao": "LQSA",
      "alert": "OK",
      "vis_m": 9999,
      "fzfg": false,
      "metar_trigger": false,
      "taf_trigger": false,
      "metar": "METAR LQSA 270300Z 12003KT CAVOK 05/03 Q1022",
      "taf": "TAF LQSA 262300Z 2700/2724 VRB02KT CAVOK TX23/2714Z TN04/2704Z"
    },
    {
      "icao": "LQTZ",
      "alert": "OK",
      "vis_m": 9999,
      "fzfg": false,
      "metar_trigger": false,
      "taf_trigger": false,
      "metar": "METAR LQTZ 270300Z VRB02KT CAVOK 02/02 Q1022",
      "taf": "TAF LQTZ 262300Z 2700/2724 10005KT CAVOK TX22/2713Z TN02/2704Z"
    },
    {
      "icao": "LRBC",
      "alert": "OK",
      "vis_m": 9999,
      "fzfg": false,
      "metar_trigger": false,
      "taf_trigger": false,
      "metar": "METAR LRBC 270300Z 31001KT CAVOK 00/M03 Q1024",
      "taf": "TAF LRBC 270200Z 2703/2712 35008KT CAVOK"
    },
    {
      "icao": "LRBS",
      "alert": "OK",
      "vis_m": 9999,
      "fzfg": false,
      "metar_trigger": false,
      "taf_trigger": false,
      "metar": "METAR LRBS 270300Z 09010KT CAVOK 06/M04 Q1024 NOSIG",
      "taf": "TAF LRBS 262300Z 2700/2724 08012KT CAVOK"
    },
    {
      "icao": "LRBV",
      "alert": "OK",
      "vis_m": 9999,
      "fzfg": false,
      "metar_trigger": false,
      "taf_trigger": false,
      "metar": "METAR LRBV 270300Z AUTO 34004KT 9999 NCD 01/M05 Q1023",
      "taf": "TAF LRBV 270200Z 2703/2712 VRB04KT CAVOK"
    },
    {
      "icao": "LRCL",
      "alert": "OK",
      "vis_m": 9999,
      "fzfg": false,
      "metar_trigger": false,
      "taf_trigger": false,
      "metar": "METAR LRCL 270300Z 26004KT 230V290 CAVOK 01/M05 Q1024",
      "taf": "TAF LRCL 270200Z 2703/2712 VRB04KT CAVOK"
    },
    {
      "icao": "LRCV",
      "alert": "OK",
      "vis_m": 9999,
      "fzfg": false,
      "metar_trigger": false,
      "taf_trigger": false,
      "metar": "METAR LRCV 270300Z 10009KT CAVOK 05/M02 Q1023",
      "taf": "TAF LRCV 270200Z 2703/2712 07012KT CAVOK"
    },
    {
      "icao": "LRIA",
      "alert": "OK",
      "vis_m": 9999,
      "fzfg": false,
      "metar_trigger": false,
      "taf_trigger": false,
      "metar": "METAR LRIA 270300Z COR 31009KT CAVOK 02/M04 Q1023",
      "taf": "TAF LRIA 270200Z 2703/2712 30010KT CAVOK"
    },
    {
      "icao": "LROP",
      "alert": "OK",
      "vis_m": 9999,
      "fzfg": false,
      "metar_trigger": false,
      "taf_trigger": false,
      "metar": "METAR LROP 270300Z 09008KT CAVOK 04/M04 Q1024 NOSIG",
      "taf": "TAF LROP 262300Z 2700/2724 10012KT CAVOK"
    },
    {
      "icao": "LRSB",
      "alert": "OK",
      "vis_m": 9999,
      "fzfg": false,
      "metar_trigger": false,
      "taf_trigger": false,
      "metar": "METAR LRSB 270300Z VRB02KT CAVOK 01/M03 Q1023",
      "taf": "TAF LRSB 262300Z 2700/2724 27010KT CAVOK"
    },
    {
      "icao": "LRSM",
      "alert": "OK",
      "vis_m": null,
      "fzfg": false,
      "metar_trigger": false,
      "taf_trigger": false,
      "metar": "",
      "taf": "TAF LRSM 270200Z 2703/2712 VRB04KT CAVOK"
    },
    {
      "icao": "LRSV",
      "alert": "OK",
      "vis_m": 9999,
      "fzfg": false,
      "metar_trigger": false,
      "taf_trigger": false,
      "metar": "METAR LRSV 270300Z 29005KT CAVOK 00/M04 Q1022",
      "taf": "TAF LRSV 270200Z 2703/2712 33008KT CAVOK"
    },
    {
      "icao": "LRTM",
      "alert": "OK",
      "vis_m": 9999,
      "fzfg": false,
      "metar_trigger": false,
      "taf_trigger": false,
      "metar": "METAR LRTM 270300Z 25001KT CAVOK M00/M04 Q1023",
      "taf": "TAF LRTM 270200Z 2703/2712 25006KT CAVOK"
    },
    {
      "icao": "LRTR",
      "alert": "OK",
      "vis_m": 9999,
      "fzfg": false,
      "metar_trigger": false,
      "taf_trigger": false,
      "metar": "METAR LRTR 270300Z 03005KT CAVOK 02/M02 Q1023",
      "taf": "TAF LRTR 262300Z 2700/2724 04008KT CAVOK"
    },
    {
      "icao": "LTAC",
      "alert": "OK",
      "vis_m": 9999,
      "fzfg": false,
      "metar_trigger": false,
      "taf_trigger": false,
      "metar": "METAR LTAC 270320Z VRB02KT CAVOK 05/01 Q1017 NOSIG RMK RWY21C 36003KT 340V050 RWY03L VRB01KT RWY21R VRB02KT RWY03R 04003KT 330V060 RWY21L VRB02KT",
      "taf": "TAF LTAC 262240Z 2700/2724 VRB02KT CAVOK"
    },
    {
      "icao": "LTFM",
      "alert": "OK",
      "vis_m": 9999,
      "fzfg": false,
      "metar_trigger": false,
      "taf_trigger": false,
      "metar": "METAR LTFM 270320Z 05020KT 9999 FEW035 12/05 Q1021 NOSIG RMK RWY17L 05019KT RWY34L 04017KT RWY16R 05020KT RWY36 05019KT RWY18 06018KT",
      "taf": "TAF LTFM 262240Z 2700/2806 05018G28KT 9999 FEW012 SCT025"
    },
    {
      "icao": "LUKK",
      "alert": "OK",
      "vis_m": 9999,
      "fzfg": false,
      "metar_trigger": false,
      "taf_trigger": false,
      "metar": "METAR LUKK 270300Z 31008KT 280V360 CAVOK 02/M04 Q1022 NOSIG",
      "taf": "TAF LUKK 262319Z 2700/2724 33014KT CAVOK"
    },
    {
      "icao": "LWOH",
      "alert": "OK",
      "vis_m": null,
      "fzfg": false,
      "metar_trigger": false,
      "taf_trigger": false,
      "metar": "",
      "taf": "TAF LWOH 270255Z 2703/2803 VRB02KT 9999 FEW045"
    },
    {
      "icao": "LWSK",
      "alert": "OK",
      "vis_m": 9999,
      "fzfg": false,
      "metar_trigger": false,
      "taf_trigger": false,
      "metar": "METAR LWSK 270320Z 04008KT CAVOK 09/M01 Q1021 NOSIG",
      "taf": "TAF LWSK 270255Z 2703/2803 01010KT CAVOK"
    },
    {
      "icao": "LYBE",
      "alert": "OK",
      "vis_m": 9999,
      "fzfg": false,
      "metar_trigger": false,
      "taf_trigger": false,
      "metar": "METAR LYBE 270300Z VRB02KT CAVOK 03/M01 Q1023 NOSIG",
      "taf": "TAF LYBE 262300Z 2700/2724 35005KT CAVOK TX20/2713Z TN05/2704Z"
    },
    {
      "icao": "LYNI",
      "alert": "OK",
      "vis_m": 9999,
      "fzfg": false,
      "metar_trigger": false,
      "taf_trigger": false,
      "metar": "METAR LYNI 270300Z 11004KT CAVOK 05/M01 Q1022 NOSIG",
      "taf": "TAF LYNI 262300Z 2700/2724 04004KT CAVOK TX22/2713Z TN04/2704Z"
    },
    {
      "icao": "LYPG",
      "alert": "OK",
      "vis_m": 9999,
      "fzfg": false,
      "metar_trigger": false,
      "taf_trigger": false,
      "metar": "METAR LYPG 270300Z 00000KT CAVOK 11/10 Q1018 NOSIG",
      "taf": "TAF LYPG 262300Z 2700/2724 36005KT CAVOK TX27/2713Z TN12/2704Z"
    },
    {
      "icao": "LZIB",
      "alert": "OK",
      "vis_m": 9999,
      "fzfg": false,
      "metar_trigger": false,
      "taf_trigger": false,
      "metar": "METAR LZIB 270330Z VRB01KT CAVOK 05/M01 Q1024 NOSIG",
      "taf": "TAF LZIB 262315Z 2700/2800 03004KT CAVOK"
    },
    {
      "icao": "LZKZ",
      "alert": "OK",
      "vis_m": 9999,
      "fzfg": false,
      "metar_trigger": false,
      "taf_trigger": false,
      "metar": "METAR LZKZ 270330Z VRB01KT CAVOK 01/M04 Q1024 NOSIG",
      "taf": "TAF LZKZ 262315Z 2700/2800 34004KT CAVOK"
    },
    {
      "icao": "LZTT",
      "alert": "OK",
      "vis_m": 9999,
      "fzfg": false,
      "metar_trigger": false,
      "taf_trigger": false,
      "metar": "METAR LZTT 270330Z 30003KT CAVOK M01/M06 Q1023",
      "taf": "TAF LZTT 262315Z 2700/2800 VRB02KT CAVOK"
    },
    {
      "icao": "OEJN",
      "alert": "OK",
      "vis_m": 9999,
      "fzfg": false,
      "metar_trigger": false,
      "taf_trigger": false,
      "metar": "METAR OEJN 270300Z 34004KT 9999 SCT040 28/13 Q1006 NOSIG",
      "taf": "TAF OEJN 262300Z 2700/2806 VRB03KT 9999 FEW040"
    },
    {
      "icao": "OEMA",
      "alert": "OK",
      "vis_m": 9999,
      "fzfg": false,
      "metar_trigger": false,
      "taf_trigger": false,
      "metar": "METAR OEMA 270300Z VRB02KT CAVOK 23/M02 Q1012 NOSIG",
      "taf": "TAF OEMA 262300Z 2700/2806 VRB03KT CAVOK"
    },
    {
      "icao": "OJAI",
      "alert": "OK",
      "vis_m": 4000,
      "fzfg": false,
      "metar_trigger": false,
      "taf_trigger": false,
      "metar": "METAR OJAI 270300Z 29004KT 4000 BR NSC 10/07 Q1013 NOSIG",
      "taf": "TAF OJAI 262300Z 2700/2806 28012KT 5000 HZ FEW030"
    },
    {
      "icao": "OMAA",
      "alert": "OK",
      "vis_m": 9999,
      "fzfg": false,
      "metar_trigger": false,
      "taf_trigger": false,
      "metar": "METAR OMAA 270330Z 33007KT CAVOK 29/19 Q1008 NOSIG",
      "taf": "TAF OMAA 262300Z 2700/2806 28004KT 8000 NSC"
    },
    {
      "icao": "OMDB",
      "alert": "OK",
      "vis_m": 9999,
      "fzfg": false,
      "metar_trigger": false,
      "taf_trigger": false,
      "metar": "METAR OMDB 270330Z 25007KT 230V290 CAVOK 30/19 Q1007 NOSIG",
      "taf": "TAF OMDB 262300Z 2700/2806 21005KT CAVOK"
    },
    {
      "icao": "UAAA",
      "alert": "OK",
      "vis_m": 9999,
      "fzfg": false,
      "metar_trigger": false,
      "taf_trigger": false,
      "metar": "METAR UAAA 270300Z 25002MPS 200V290 9999 BKN200 18/09 Q1020 NOSIG",
      "taf": "TAF UAAA 262304Z 2700/2724 04005MPS 9999 SCT050CB BKN100 TX22/2709Z TN14/2701Z"
    },
    {
      "icao": "UBBB",
      "alert": "OK",
      "vis_m": 9999,
      "fzfg": false,
      "metar_trigger": false,
      "taf_trigger": false,
      "metar": "METAR UBBB 270330Z 19018KT 9999 BKN005 14/13 Q1009 NOSIG",
      "taf": "TAF UBBB 262303Z 2700/2724 17014KT 9999 SCT012 TX18/2708Z TN10/2701Z"
    },
    {
      "icao": "UDSG",
      "alert": "OK",
      "vis_m": 9999,
      "fzfg": false,
      "metar_trigger": false,
      "taf_trigger": false,
      "metar": "METAR UDSG 270300Z 09001KT 9999 FEW049 05/04 Q1016 NOSIG",
      "taf": "TAF UDSG 262300Z 2700/2724 VRB06KT 9999 SCT040"
    },
    {
      "icao": "UDYZ",
      "alert": "OK",
      "vis_m": 9999,
      "fzfg": false,
      "metar_trigger": false,
      "taf_trigger": false,
      "metar": "METAR UDYZ 270300Z 26001KT 9999 FEW043CB 12/09 Q1013 NOSIG",
      "taf": "TAF UDYZ 262300Z 2700/2724 18006KT 9999 BKN040"
    },
    {
      "icao": "UGKO",
      "alert": "OK",
      "vis_m": 9999,
      "fzfg": false,
      "metar_trigger": false,
      "taf_trigger": false,
      "metar": "METAR UGKO 270300Z 26005KT 240V300 9999 SCT088 12/08 Q1014 NOSIG",
      "taf": "TAF UGKO 262300Z 2700/2724 26007KT 9999 BKN095 TX19/2711Z TN12/2702Z"
    }
  ]
}