{
  "ts_utc": "2026-01-02T21:59:52Z",
  "threshold_m": 150,
  "source": "stations_override.txt (ICAO list) + aviationweather.gov (METAR/TAF raw)",
  "station_count": 159,
  "stations": [
    {
      "icao": "BIKF",
      "alert": "OK",
      "vis_m": 9999,
      "fzfg": false,
      "metar_trigger": false,
      "taf_trigger": false,
      "metar": "METAR BIKF 022130Z 03004KT CAVOK M05/M10 Q1028",
      "taf": "TAF BIKF 021952Z 0221/0321 07006KT CAVOK TXM00/0318Z TNM08/0309Z"
    },
    {
      "icao": "BKPR",
      "alert": "OK",
      "vis_m": null,
      "fzfg": false,
      "metar_trigger": false,
      "taf_trigger": false,
      "metar": "",
      "taf": "TAF BKPR 021730Z 0218/0318 19008KT 9999 BKN030"
    },
    {
      "icao": "EBCI",
      "alert": "OK",
      "vis_m": 9999,
      "fzfg": false,
      "metar_trigger": false,
      "taf_trigger": false,
      "metar": "METAR EBCI 022150Z 25009KT 9999 FEW049 M00/M03 Q1006 NOSIG",
      "taf": "TAF EBCI 021720Z 0218/0324 27010KT 9999 FEW020 BKN040"
    },
    {
      "icao": "EDDB",
      "alert": "OK",
      "vis_m": 5000,
      "fzfg": false,
      "metar_trigger": false,
      "taf_trigger": false,
      "metar": "METAR EDDB 022150Z AUTO 25019KT 5000 -SHSN BR SCT016 BKN021 BKN030 FEW///TCU 01/M01 Q0990 RESHSN TEMPO 26020G30KT 4000 -SHSN BKN009 BKN015TCU",
      "taf": "TAF EDDB 021700Z 0218/0318 25015G25KT 9999 SCT020 BKN040"
    },
    {
      "icao": "EDDH",
      "alert": "OK",
      "vis_m": 9999,
      "fzfg": false,
      "metar_trigger": false,
      "taf_trigger": false,
      "metar": "METAR EDDH 022150Z AUTO 29007KT CAVOK M01/M04 Q0993 NOSIG",
      "taf": "TAF EDDH 021700Z 0218/0324 29010KT 8000 BKN020"
    },
    {
      "icao": "EDDK",
      "alert": "OK",
      "vis_m": 9999,
      "fzfg": false,
      "metar_trigger": false,
      "taf_trigger": false,
      "metar": "METAR EDDK 022150Z AUTO 26009KT 210V290 9999 BKN017 01/M01 Q1003 NOSIG",
      "taf": "TAF EDDK 021700Z 0218/0324 26011KT 9999 BKN003"
    },
    {
      "icao": "EDDN",
      "alert": "OK",
      "vis_m": 9999,
      "fzfg": false,
      "metar_trigger": false,
      "taf_trigger": false,
      "metar": "METAR EDDN 022150Z AUTO 27009KT 240V300 9999 OVC020 M01/M04 Q1001",
      "taf": "TAF EDDN 021700Z 0218/0318 26012KT 7000 SCT007 BKN015"
    },
    {
      "icao": "EDDS",
      "alert": "OK",
      "vis_m": 9999,
      "fzfg": false,
      "metar_trigger": false,
      "taf_trigger": false,
      "metar": "METAR EDDS 022150Z AUTO 27010KT CAVOK M02/M05 Q1004",
      "taf": "TAF EDDS 021700Z 0218/0318 23008KT 8000 BKN020"
    },
    {
      "icao": "EDFH",
      "alert": "OK",
      "vis_m": 9999,
      "fzfg": false,
      "metar_trigger": false,
      "taf_trigger": false,
      "metar": "METAR EDFH 022150Z 26012KT 9999 BKN010 OVC020 M02/M04 Q1002",
      "taf": "TAF EDFH 021700Z 0218/0318 28012KT 9999 SCT013"
    },
    {
      "icao": "EDJA",
      "alert": "OK",
      "vis_m": 7000,
      "fzfg": false,
      "metar_trigger": false,
      "taf_trigger": false,
      "metar": "METAR EDJA 022150Z 29017G29KT 7000 -SN BKN007 BKN041 OVC050 M01/M04 Q1002 RESN ATIS",
      "taf": ""
    },
    {
      "icao": "EDLW",
      "alert": "OK",
      "vis_m": 9999,
      "fzfg": false,
      "metar_trigger": false,
      "taf_trigger": false,
      "metar": "METAR EDLW 022150Z AUTO 25012KT 220V280 9999 // SCT014/// BKN016/// BKN100/// 01/M01 Q1000",
      "taf": "TAF EDLW 021700Z 0218/0318 24012KT 9999 SCT010 BKN035"
    },
    {
      "icao": "EDNY",
      "alert": "OK",
      "vis_m": 4200,
      "fzfg": false,
      "metar_trigger": false,
      "taf_trigger": false,
      "metar": "METAR EDNY 022150Z AUTO 25007KT 4200 // BKN004/// OVC009/// 00/M00 Q1005",
      "taf": "TAF EDNY 021400Z 0215/0224 25008KT 9999 BKN030"
    },
    {
      "icao": "EDSB",
      "alert": "OK",
      "vis_m": 9999,
      "fzfg": false,
      "metar_trigger": false,
      "taf_trigger": false,
      "metar": "METAR EDSB 022150Z 22006KT CAVOK 00/M02 Q1007",
      "taf": "TAF EDSB 021700Z 0218/0318 22007KT 8000 BKN010"
    },
    {
      "icao": "EETN",
      "alert": "OK",
      "vis_m": 9999,
      "fzfg": false,
      "metar_trigger": false,
      "taf_trigger": false,
      "metar": "METAR EETN 022150Z 12009KT 9999 OVC009 M05/M06 Q0985 NOSIG",
      "taf": ""
    },
    {
      "icao": "EFTU",
      "alert": "OK",
      "vis_m": 9999,
      "fzfg": false,
      "metar_trigger": false,
      "taf_trigger": false,
      "metar": "METAR EFTU 022150Z AUTO 08012KT 9999 OVC011 M07/M10 Q0985",
      "taf": "TAF EFTU 022029Z 0221/0321 07014KT 8000 -SN OVC013"
    },
    {
      "icao": "EGBB",
      "alert": "OK",
      "vis_m": 9999,
      "fzfg": false,
      "metar_trigger": false,
      "taf_trigger": false,
      "metar": "METAR EGBB 022150Z 28005KT CAVOK 01/M01 Q1008",
      "taf": "TAF EGBB 021657Z 0218/0318 30009KT CAVOK"
    },
    {
      "icao": "EGGP",
      "alert": "OK",
      "vis_m": 9999,
      "fzfg": false,
      "metar_trigger": false,
      "taf_trigger": false,
      "metar": "METAR EGGP 022150Z 32007KT 9999 FEW036 SCT045 02/M03 Q1008",
      "taf": "TAF EGGP 021656Z 0218/0318 32009KT 9999 SCT030"
    },
    {
      "icao": "EGGW",
      "alert": "OK",
      "vis_m": 9999,
      "fzfg": false,
      "metar_trigger": false,
      "taf_trigger": false,
      "metar": "METAR EGGW 022150Z AUTO 29012KT 9999 NCD M01/M03 Q1007",
      "taf": "TAF EGGW 021655Z 0218/0318 30012KT 9999 FEW025"
    },
    {
      "icao": "EGKK",
      "alert": "OK",
      "vis_m": 9999,
      "fzfg": false,
      "metar_trigger": false,
      "taf_trigger": false,
      "metar": "METAR EGKK 022150Z 28006KT CAVOK M00/M03 Q1009",
      "taf": "TAF EGKK 021656Z 0218/0324 30010KT 9999 FEW025"
    },
    {
      "icao": "EGNM",
      "alert": "OK",
      "vis_m": 9999,
      "fzfg": false,
      "metar_trigger": false,
      "taf_trigger": false,
      "metar": "METAR EGNM 022150Z 27008KT CAVOK M01/M04 Q1006",
      "taf": "TAF EGNM 021656Z 0218/0318 30009KT 9999 FEW030"
    },
    {
      "icao": "EGPD",
      "alert": "OK",
      "vis_m": 9999,
      "fzfg": false,
      "metar_trigger": false,
      "taf_trigger": false,
      "metar": "METAR EGPD 022150Z AUTO 31018KT 9999 -SN FEW004 SCT011 M01/M03 Q1005 RESN TEMPO 1800 SHSN BKN009",
      "taf": "TAF EGPD 021657Z 0218/0318 31012KT 9999 SCT012"
    },
    {
      "icao": "EGPF",
      "alert": "OK",
      "vis_m": 9999,
      "fzfg": false,
      "metar_trigger": false,
      "taf_trigger": false,
      "metar": "METAR EGPF 022150Z AUTO 29008KT 9999 NCD 00/M03 Q1010",
      "taf": "TAF EGPF 021701Z 0218/0318 29009KT 9999 FEW035"
    },
    {
      "icao": "EHBK",
      "alert": "OK",
      "vis_m": 9999,
      "fzfg": false,
      "metar_trigger": false,
      "taf_trigger": false,
      "metar": "METAR EHBK 022155Z AUTO 23008KT 210V270 9999 FEW021/// M00/M01 Q1004 NOSIG",
      "taf": "TAF EHBK 021720Z 0218/0324 26009KT 9999 SCT040"
    },
    {
      "icao": "EHEH",
      "alert": "OK",
      "vis_m": 9999,
      "fzfg": false,
      "metar_trigger": false,
      "taf_trigger": false,
      "metar": "METAR EHEH 022125Z AUTO 25009KT 210V280 9999 NCD 01/M00 Q1003 BLU NOSIG RMK TREND REMOTE BY EHWX",
      "taf": ""
    },
    {
      "icao": "EKBI",
      "alert": "OK",
      "vis_m": 9999,
      "fzfg": false,
      "metar_trigger": false,
      "taf_trigger": false,
      "metar": "METAR EKBI 022150Z AUTO 30007KT 9999 NCD M03/M07 Q0991",
      "taf": "TAF EKBI 022027Z 0221/0321 30010KT 9999 FEW020"
    },
    {
      "icao": "EKCH",
      "alert": "OK",
      "vis_m": 3000,
      "fzfg": false,
      "metar_trigger": false,
      "taf_trigger": false,
      "metar": "METAR EKCH 022157Z 31017KT 280V340 3000 -SN BKN010 BKN018 M02/M03 Q0985 TEMPO 8000 BKN020",
      "taf": "TAF EKCH 022027Z 0221/0321 30012KT 9999 BKN020"
    },
    {
      "icao": "ENAL",
      "alert": "OK",
      "vis_m": 9999,
      "fzfg": false,
      "metar_trigger": false,
      "taf_trigger": false,
      "metar": "METAR ENAL 022150Z 07019KT 9999 SCT029 M04/M10 Q0998",
      "taf": "TAF ENAL 022000Z 0221/0306 06022KT 9999 FEW010 SCT030"
    },
    {
      "icao": "ENBR",
      "alert": "OK",
      "vis_m": 9999,
      "fzfg": false,
      "metar_trigger": false,
      "taf_trigger": false,
      "metar": "METAR ENBR 022150Z 03002KT CAVOK M07/M09 Q0994 RMK WIND 1200FT 01010KT",
      "taf": "TAF ENBR 021700Z 0218/0318 08005KT CAVOK"
    },
    {
      "icao": "ENGM",
      "alert": "OK",
      "vis_m": 9999,
      "fzfg": false,
      "metar_trigger": false,
      "taf_trigger": false,
      "metar": "METAR ENGM 022150Z 01016KT 9999 -SHSN FEW030 M08/M13 Q0991 NOSIG",
      "taf": "TAF ENGM 021700Z 0218/0318 36018KT 8000 -SN FEW030 BKN045"
    },
    {
      "icao": "ENHD",
      "alert": "OK",
      "vis_m": 9999,
      "fzfg": false,
      "metar_trigger": false,
      "taf_trigger": false,
      "metar": "METAR ENHD 022150Z AUTO 03010KT 9999 NCD M04/M10 Q0994",
      "taf": "TAF ENHD 021400Z 0215/0223 01015KT CAVOK"
    },
    {
      "icao": "ENTC",
      "alert": "OK",
      "vis_m": 9999,
      "fzfg": false,
      "metar_trigger": false,
      "taf_trigger": false,
      "metar": "METAR ENTC 022150Z 08004KT 310V110 9999 -SHSN SCT023 BKN033 M04/M06 Q1000 TEMPO 2000 -SHSN BKN009 FEW015CB RMK WIND 2600FT 35021KT",
      "taf": ""
    },
    {
      "icao": "ENTO",
      "alert": "OK",
      "vis_m": 9999,
      "fzfg": false,
      "metar_trigger": false,
      "taf_trigger": false,
      "metar": "METAR ENTO 022150Z AUTO 36016KT 9999 OVC020/// M07/M12 Q0991",
      "taf": "TAF ENTO 021700Z 0218/0318 36015KT 9999 SCT035"
    },
    {
      "icao": "ENVA",
      "alert": "OK",
      "vis_m": 9999,
      "fzfg": false,
      "metar_trigger": false,
      "taf_trigger": false,
      "metar": "METAR ENVA 022150Z 13004KT CAVOK M10/M11 Q1001 RMK WIND 670FT 09007KT",
      "taf": "TAF ENVA 021700Z 0218/0318 07007KT 9999 FEW035 BKN055"
    },
    {
      "icao": "ENZV",
      "alert": "OK",
      "vis_m": 9999,
      "fzfg": false,
      "metar_trigger": false,
      "taf_trigger": false,
      "metar": "METAR ENZV 022150Z 05004KT CAVOK M03/M09 Q0993",
      "taf": "TAF ENZV 021700Z 0218/0318 36012KT CAVOK"
    },
    {
      "icao": "EPGD",
      "alert": "OK",
      "vis_m": 9999,
      "fzfg": false,
      "metar_trigger": false,
      "taf_trigger": false,
      "metar": "METAR EPGD 022130Z 22008KT 9999 BKN011 00/M01 Q0984",
      "taf": "TAF EPGD 021730Z 0218/0318 24014KT 9999 SCT012 BKN025"
    },
    {
      "icao": "EPKK",
      "alert": "OK",
      "vis_m": 9999,
      "fzfg": false,
      "metar_trigger": false,
      "taf_trigger": false,
      "metar": "METAR EPKK 022130Z 24012KT 9999 SCT050 01/M07 Q0996",
      "taf": "TAF EPKK 022030Z 0221/0321 23015KT 9999 BKN030"
    },
    {
      "icao": "EPKT",
      "alert": "OK",
      "vis_m": 9999,
      "fzfg": false,
      "metar_trigger": false,
      "taf_trigger": false,
      "metar": "METAR EPKT 022130Z 22014KT 9999 BKN039 00/M06 Q0995",
      "taf": ""
    },
    {
      "icao": "EPLB",
      "alert": "OK",
      "vis_m": 9999,
      "fzfg": false,
      "metar_trigger": false,
      "taf_trigger": false,
      "metar": "METAR EPLB 022130Z 22014KT 9999 -SN SCT046 M00/M02 Q0993",
      "taf": "TAF EPLB 021730Z 0218/0318 22014KT 9999 BKN030"
    },
    {
      "icao": "EPMO",
      "alert": "OK",
      "vis_m": 3800,
      "fzfg": false,
      "metar_trigger": false,
      "taf_trigger": false,
      "metar": "METAR EPMO 022130Z 22011KT 3800 -SN BR BKN006 00/00 Q0990",
      "taf": "TAF EPMO 021730Z 0218/0318 23012KT 7000 -SN BKN016"
    },
    {
      "icao": "EPPO",
      "alert": "OK",
      "vis_m": 9999,
      "fzfg": false,
      "metar_trigger": false,
      "taf_trigger": false,
      "metar": "METAR EPPO 022130Z 25013G23KT 9999 SCT020 BKN041 00/M02 Q0989",
      "taf": "TAF EPPO 021730Z 0218/0318 24015KT 9999 BKN025"
    },
    {
      "icao": "EPRA",
      "alert": "OK",
      "vis_m": 4000,
      "fzfg": false,
      "metar_trigger": false,
      "taf_trigger": false,
      "metar": "METAR EPRA 022130Z 25016KT 4000 SN SCT007 BKN012 OVC019 M00/M01 Q0992",
      "taf": "TAF EPRA 022030Z 0221/0306 24012KT 8000 -SN BKN030"
    },
    {
      "icao": "EPRZ",
      "alert": "OK",
      "vis_m": 9999,
      "fzfg": false,
      "metar_trigger": false,
      "taf_trigger": false,
      "metar": "METAR EPRZ 022130Z 19006KT CAVOK M01/M04 Q0996",
      "taf": "TAF EPRZ 021730Z 0218/0318 20010KT 9999 SCT040"
    },
    {
      "icao": "EPSC",
      "alert": "OK",
      "vis_m": 9999,
      "fzfg": false,
      "metar_trigger": false,
      "taf_trigger": false,
      "metar": "METAR EPSC 022130Z 23007KT 180V260 9999 FEW017 SCT044 01/M02 Q0986",
      "taf": "TAF EPSC 021730Z 0218/0318 24012KT 9999 BKN020"
    },
    {
      "icao": "EPSY",
      "alert": "OK",
      "vis_m": 9999,
      "fzfg": false,
      "metar_trigger": false,
      "taf_trigger": false,
      "metar": "METAR EPSY 022130Z 21009KT 9999 BKN017 00/M01 Q0987",
      "taf": "TAF EPSY 022030Z 0221/0306 21010KT 9999 BKN020"
    },
    {
      "icao": "EPWA",
      "alert": "OK",
      "vis_m": 8000,
      "fzfg": false,
      "metar_trigger": false,
      "taf_trigger": false,
      "metar": "METAR EPWA 022130Z 24010KT 8000 -SN BKN009 OVC015 01/M00 Q0990 TEMPO BKN010",
      "taf": "TAF EPWA 022030Z 0221/0321 23012KT 9999 BKN020"
    },
    {
      "icao": "EPWR",
      "alert": "OK",
      "vis_m": 9999,
      "fzfg": false,
      "metar_trigger": false,
      "taf_trigger": false,
      "metar": "METAR EPWR 022130Z 23012KT 9999 SCT045 00/M05 Q0993",
      "taf": "TAF EPWR 022030Z 0221/0321 24013KT 9999 OVC045"
    },
    {
      "icao": "ESGG",
      "alert": "OK",
      "vis_m": 9999,
      "fzfg": false,
      "metar_trigger": false,
      "taf_trigger": false,
      "metar": "METAR ESGG 022150Z 35014KT 9999 BKN008 M06/M08 Q0985",
      "taf": "TAF ESGG 022030Z 0221/0321 36014G24KT 5000 -SN SCT009 BKN016"
    },
    {
      "icao": "ESKN",
      "alert": "OK",
      "vis_m": 9999,
      "fzfg": false,
      "metar_trigger": false,
      "taf_trigger": false,
      "metar": "METAR ESKN 022150Z 36008KT 320V030 9999 -SN OVC008 M03/M04 Q0980",
      "taf": "TAF ESKN 022030Z 0221/0321 01010KT 9000 -SN BKN008"
    },
    {
      "icao": "ESMS",
      "alert": "OK",
      "vis_m": 7000,
      "fzfg": false,
      "metar_trigger": false,
      "taf_trigger": false,
      "metar": "METAR ESMS 022150Z 32015KT 7000 -SN SCT012 BKN039 M02/M03 Q0982",
      "taf": "TAF ESMS 022027Z 0221/0321 31010KT 9999 BKN020"
    },
    {
      "icao": "ESSA",
      "alert": "OK",
      "vis_m": 7000,
      "fzfg": false,
      "metar_trigger": false,
      "taf_trigger": false,
      "metar": "METAR ESSA 022150Z 02012KT 7000 -SN OVC007 M04/M05 Q0982 TEMPO 1000 SN VV015",
      "taf": "TAF ESSA 022030Z 0221/0321 02015G25KT 8000 -SN BKN006"
    },
    {
      "icao": "EYKA",
      "alert": "OK",
      "vis_m": 9999,
      "fzfg": false,
      "metar_trigger": false,
      "taf_trigger": false,
      "metar": "METAR EYKA 022150Z 20006KT 150V240 9999 OVC008 00/M00 Q0986",
      "taf": "TAF EYKA 021714Z 0218/0318 VRB04KT 6000 SCT005 OVC015"
    },
    {
      "icao": "EYPA",
      "alert": "OK",
      "vis_m": 9999,
      "fzfg": false,
      "metar_trigger": false,
      "taf_trigger": false,
      "metar": "METAR EYPA 022150Z 27006KT 230V310 9999 FEW039 SCT046 03/M03 Q0982",
      "taf": "TAF EYPA 021713Z 0218/0318 22010KT 9000 BKN010 BKN020"
    },
    {
      "icao": "EYVI",
      "alert": "OK",
      "vis_m": 5000,
      "fzfg": false,
      "metar_trigger": false,
      "taf_trigger": false,
      "metar": "METAR EYVI 022150Z 20009KT 5000 SN OVC005 M00/M01 Q0987 TEMPO 0800 +SN",
      "taf": "TAF EYVI 021715Z 0218/0318 18012KT 1500 SN OVC005"
    },
    {
      "icao": "GCFV",
      "alert": "OK",
      "vis_m": 9999,
      "fzfg": false,
      "metar_trigger": false,
      "taf_trigger": false,
      "metar": "METAR GCFV 022130Z 17005KT 140V230 9999 FEW030 18/14 Q1006",
      "taf": "TAF GCFV 022000Z 0221/0321 27008KT 9999 SCT030 TX22/0314Z TN17/0306Z"
    },
    {
      "icao": "GCLP",
      "alert": "OK",
      "vis_m": 9999,
      "fzfg": false,
      "metar_trigger": false,
      "taf_trigger": false,
      "metar": "METAR GCLP 022130Z 09004KT 050V130 9999 FEW020 SCT035 19/15 Q1006 NOSIG",
      "taf": "TAF GCLP 022000Z 0221/0321 23010KT 9999 SCT035 TX23/0314Z TN17/0306Z"
    },
    {
      "icao": "GCTS",
      "alert": "OK",
      "vis_m": 9999,
      "fzfg": false,
      "metar_trigger": false,
      "taf_trigger": false,
      "metar": "METAR GCTS 022130Z 29011G21KT 260V320 9999 SCT060 19/10 Q1007 NOSIG",
      "taf": "TAF GCTS 022000Z 0221/0321 28015KT 9999 FEW030 TX24/0314Z TN18/0306Z"
    },
    {
      "icao": "GMAD",
      "alert": "OK",
      "vis_m": 6000,
      "fzfg": false,
      "metar_trigger": false,
      "taf_trigger": false,
      "metar": "METAR GMAD 022130Z 19005KT 150V220 6000 SCT020TCU BKN100 19/14 Q1007 BECMG SHRA BKN020 SCT030CB BKN080",
      "taf": "TAF GMAD 021700Z 0218/0324 18008KT 8000 SCT020 BKN080"
    },
    {
      "icao": "GMMN",
      "alert": "OK",
      "vis_m": 9999,
      "fzfg": false,
      "metar_trigger": false,
      "taf_trigger": false,
      "metar": "METAR GMMN 022130Z 25012KT 9999 SCT030 SCT100 16/12 Q1005 TEMPO 2000 RA",
      "taf": "TAF GMMN 021700Z 0218/0324 22006KT FEW030 BKN200"
    },
    {
      "icao": "GMMX",
      "alert": "OK",
      "vis_m": 8000,
      "fzfg": false,
      "metar_trigger": false,
      "taf_trigger": false,
      "metar": "METAR GMMX 022130Z 20019G32KT 170V230 8000 FEW020 BKN090 22/02 Q1002 NOSIG",
      "taf": "TAF GMMX 021700Z 0218/0324 20022G42KT 8000 SCT020 SCT100"
    },
    {
      "icao": "HEGN",
      "alert": "OK",
      "vis_m": 9999,
      "fzfg": false,
      "metar_trigger": false,
      "taf_trigger": false,
      "metar": "METAR HEGN 022100Z 29013KT CAVOK 15/08 Q1022 NOSIG",
      "taf": "TAF HEGN 021700Z 0218/0324 34018KT CAVOK"
    },
    {
      "icao": "HEMA",
      "alert": "OK",
      "vis_m": 9999,
      "fzfg": false,
      "metar_trigger": false,
      "taf_trigger": false,
      "metar": "METAR HEMA 022100Z 31012KT CAVOK 19/11 Q1020 NOSIG",
      "taf": "TAF HEMA 021700Z 0218/0324 33015KT CAVOK"
    },
    {
      "icao": "HESH",
      "alert": "OK",
      "vis_m": 9999,
      "fzfg": false,
      "metar_trigger": false,
      "taf_trigger": false,
      "metar": "METAR HESH 022100Z 35015KT CAVOK 18/06 Q1021 NOSIG",
      "taf": "TAF HESH 021700Z 0218/0324 30010KT CAVOK"
    },
    {
      "icao": "HESX",
      "alert": "OK",
      "vis_m": 9999,
      "fzfg": false,
      "metar_trigger": false,
      "taf_trigger": false,
      "metar": "METAR HESX 022100Z 04003KT CAVOK 08/04 Q1025 NOSIG",
      "taf": "TAF HESX 021700Z 0218/0324 01010KT 9999 SCT025"
    },
    {
      "icao": "LATI",
      "alert": "OK",
      "vis_m": 9999,
      "fzfg": false,
      "metar_trigger": false,
      "taf_trigger": false,
      "metar": "METAR LATI 022150Z 12009KT 9999 FEW026 BKN084 11/05 Q1010 NOSIG",
      "taf": "TAF LATI 021700Z 0218/0318 16012KT 9999 RA FEW025 BKN040 OVC060 TX10/0310Z TN04/0305Z"
    },
    {
      "icao": "LBPD",
      "alert": "OK",
      "vis_m": 9999,
      "fzfg": false,
      "metar_trigger": false,
      "taf_trigger": false,
      "metar": "METAR LBPD 022130Z AUTO VRB02KT 9999 FEW160/// M04/M08 Q1012",
      "taf": "TAF LBPD 021700Z 0218/0318 VRB03KT 9999 SCT060"
    },
    {
      "icao": "LBSF",
      "alert": "OK",
      "vis_m": 9999,
      "fzfg": false,
      "metar_trigger": false,
      "taf_trigger": false,
      "metar": "METAR LBSF 022130Z AUTO 06006KT 360V160 9999 FEW064/// 06/M03 Q1008 NOSIG",
      "taf": ""
    },
    {
      "icao": "LBWN",
      "alert": "OK",
      "vis_m": 9999,
      "fzfg": false,
      "metar_trigger": false,
      "taf_trigger": false,
      "metar": "METAR LBWN 022130Z AUTO VRB03KT 9999 NSC 06/M01 Q1009 NOSIG",
      "taf": "TAF LBWN 021700Z 0218/0318 29010KT CAVOK"
    },
    {
      "icao": "LCLK",
      "alert": "OK",
      "vis_m": 9999,
      "fzfg": false,
      "metar_trigger": false,
      "taf_trigger": false,
      "metar": "METAR LCLK 022130Z 33005KT 9999 SCT050 08/05 Q1025 NOSIG",
      "taf": "TAF LCLK 021730Z 0218/0318 33007KT 9999 FEW030"
    },
    {
      "icao": "LCPH",
      "alert": "OK",
      "vis_m": 9999,
      "fzfg": false,
      "metar_trigger": false,
      "taf_trigger": false,
      "metar": "METAR LCPH 022130Z AUTO 07010KT 010V080 9999 SCT049 08/02 Q1025 NOSIG",
      "taf": "TAF LCPH 021730Z 0218/0318 04009KT 9999 FEW030"
    },
    {
      "icao": "LEAL",
      "alert": "OK",
      "vis_m": 9999,
      "fzfg": false,
      "metar_trigger": false,
      "taf_trigger": false,
      "metar": "METAR LEAL 022130Z 26004KT CAVOK 10/10 Q1009 NOSIG",
      "taf": "TAF LEAL 021700Z 0218/0318 VRB05KT CAVOK TX17/0314Z TN09/0306Z"
    },
    {
      "icao": "LEBB",
      "alert": "OK",
      "vis_m": 9999,
      "fzfg": false,
      "metar_trigger": false,
      "taf_trigger": false,
      "metar": "METAR LEBB 022130Z COR 12005KT 070V150 9999 -RA OVC057 09/07 Q1009 NOSIG",
      "taf": "TAF LEBB 021700Z 0218/0318 VRB03KT 9999 SCT070 TX09/0314Z TN06/0308Z"
    },
    {
      "icao": "LEBL",
      "alert": "OK",
      "vis_m": 9999,
      "fzfg": false,
      "metar_trigger": false,
      "taf_trigger": false,
      "metar": "METAR LEBL 022130Z 33010KT 310V010 9999 FEW020 08/04 Q1008 NOSIG",
      "taf": "TAF LEBL 021700Z 0218/0318 34009KT 9999 FEW015 TX15/0312Z TN05/0306Z"
    },
    {
      "icao": "LECH",
      "alert": "OK",
      "vis_m": 6000,
      "fzfg": false,
      "metar_trigger": false,
      "taf_trigger": false,
      "metar": "METAR LECH 022130Z AUTO VRB01KT 6000 NSC 09/08 Q1008",
      "taf": ""
    },
    {
      "icao": "LEMD",
      "alert": "OK",
      "vis_m": 7000,
      "fzfg": false,
      "metar_trigger": false,
      "taf_trigger": false,
      "metar": "METAR LEMD 022130Z 33001KT 7000 FEW080 07/07 Q1008 NOSIG",
      "taf": "TAF LEMD 021700Z 0218/0324 VRB04KT CAVOK TX13/0314Z TN05/0307Z"
    },
    {
      "icao": "LEMG",
      "alert": "OK",
      "vis_m": 9999,
      "fzfg": false,
      "metar_trigger": false,
      "taf_trigger": false,
      "metar": "METAR LEMG 022130Z 30006KT 9999 FEW015 10/09 Q1006 NOSIG",
      "taf": "TAF LEMG 021700Z 0218/0318 13010KT 9999 FEW015 TX18/0314Z TN10/0307Z"
    },
    {
      "icao": "LEVC",
      "alert": "OK",
      "vis_m": 9999,
      "fzfg": false,
      "metar_trigger": false,
      "taf_trigger": false,
      "metar": "METAR LEVC 022130Z VRB01KT CAVOK 09/09 Q1008 NOSIG",
      "taf": "TAF LEVC 021700Z 0218/0318 VRB05KT CAVOK TX16/0314Z TN09/0306Z"
    },
    {
      "icao": "LEXJ",
      "alert": "OK",
      "vis_m": 3500,
      "fzfg": false,
      "metar_trigger": false,
      "taf_trigger": false,
      "metar": "METAR LEXJ 022130Z 08006KT 030V120 3500 RA BR BKN014 OVC019 10/08 Q1009",
      "taf": ""
    },
    {
      "icao": "LEZG",
      "alert": "OK",
      "vis_m": 6000,
      "fzfg": false,
      "metar_trigger": false,
      "taf_trigger": false,
      "metar": "METAR LEZG 022130Z 09004KT 6000 SCT075 05/05 Q1009 NOSIG",
      "taf": "TAF LEZG 021700Z 0218/0318 VRB04KT CAVOK TX11/0315Z TN05/0306Z"
    },
    {
      "icao": "LEZL",
      "alert": "OK",
      "vis_m": 9999,
      "fzfg": false,
      "metar_trigger": false,
      "taf_trigger": false,
      "metar": "METAR LEZL 022130Z 25003KT CAVOK 13/11 Q1003 NOSIG",
      "taf": "TAF LEZL 022000Z 0221/0321 08008KT 9999 FEW030 TX19/0315Z TN12/0307Z"
    },
    {
      "icao": "LFBD",
      "alert": "OK",
      "vis_m": 450,
      "fzfg": true,
      "metar_trigger": false,
      "taf_trigger": false,
      "metar": "METAR LFBD 022130Z AUTO 15003KT 0450 R23/0500N R05/0650N R29/0550N FZFG VV/// M02/M02 Q1012 NOSIG",
      "taf": ""
    },
    {
      "icao": "LFLL",
      "alert": "OK",
      "vis_m": 9999,
      "fzfg": false,
      "metar_trigger": false,
      "taf_trigger": false,
      "metar": "METAR LFLL 022130Z 13007KT CAVOK 01/M03 Q1009 NOSIG",
      "taf": "TAF LFLL 021700Z 0218/0324 VRB03KT 9999 BKN040"
    },
    {
      "icao": "LFLS",
      "alert": "OK",
      "vis_m": 9999,
      "fzfg": false,
      "metar_trigger": false,
      "taf_trigger": false,
      "metar": "METAR LFLS 022130Z AUTO 12005KT 9999 OVC045 M01/M03 Q1009",
      "taf": "TAF LFLS 021400Z 0215/0315 VRB03KT CAVOK"
    },
    {
      "icao": "LFMN",
      "alert": "OK",
      "vis_m": 9999,
      "fzfg": false,
      "metar_trigger": false,
      "taf_trigger": false,
      "metar": "METAR LFMN 022130Z 33006KT CAVOK 08/M03 Q0999 WS R04R WS R04L TEMPO 25015KT",
      "taf": "TAF LFMN 022000Z 0221/0403 33010KT CAVOK"
    },
    {
      "icao": "LFOB",
      "alert": "OK",
      "vis_m": 9999,
      "fzfg": false,
      "metar_trigger": false,
      "taf_trigger": false,
      "metar": "METAR LFOB 022130Z AUTO 00000KT CAVOK M03/M04 Q1009",
      "taf": ""
    },
    {
      "icao": "LFPO",
      "alert": "OK",
      "vis_m": 9999,
      "fzfg": false,
      "metar_trigger": false,
      "taf_trigger": false,
      "metar": "METAR LFPO 022130Z AUTO 29005KT CAVOK M00/M02 Q1009",
      "taf": "TAF LFPO 021700Z 0218/0324 28005KT CAVOK"
    },
    {
      "icao": "LFSB",
      "alert": "OK",
      "vis_m": 9999,
      "fzfg": false,
      "metar_trigger": false,
      "taf_trigger": false,
      "metar": "METAR LFSB 022130Z AUTO 26012KT 9999 -RA FEW014 SCT037 BKN043 01/M00 Q1007 TEMPO 3000 -SHSN BKN009 FEW020TCU",
      "taf": ""
    },
    {
      "icao": "LGAV",
      "alert": "OK",
      "vis_m": 9999,
      "fzfg": false,
      "metar_trigger": false,
      "taf_trigger": false,
      "metar": "METAR LGAV 022150Z 23007KT CAVOK 11/04 Q1018 NOSIG",
      "taf": "TAF LGAV 021700Z 0218/0318 23013KT 9999 FEW025"
    },
    {
      "icao": "LGTS",
      "alert": "OK",
      "vis_m": 9999,
      "fzfg": false,
      "metar_trigger": false,
      "taf_trigger": false,
      "metar": "METAR LGTS 022150Z VRB02KT 9999 FEW025 02/M00 Q1015 NOSIG",
      "taf": "TAF LGTS 021700Z 0218/0318 VRB03KT 9999 FEW030"
    },
    {
      "icao": "LHBP",
      "alert": "OK",
      "vis_m": 9999,
      "fzfg": false,
      "metar_trigger": false,
      "taf_trigger": false,
      "metar": "METAR LHBP 022130Z 22004KT CAVOK 03/M05 Q1001 NOSIG",
      "taf": "TAF LHBP 021715Z 0218/0318 27005KT CAVOK"
    },
    {
      "icao": "LHDC",
      "alert": "OK",
      "vis_m": 9999,
      "fzfg": false,
      "metar_trigger": false,
      "taf_trigger": false,
      "metar": "METAR LHDC 022115Z AUTO 20006KT 180V250 9999 FEW003 00/00 Q1002",
      "taf": "TAF LHDC 021415Z 0215/0224 19013KT 9999 SCT040 BKN080"
    },
    {
      "icao": "LIBD",
      "alert": "OK",
      "vis_m": 9999,
      "fzfg": false,
      "metar_trigger": false,
      "taf_trigger": false,
      "metar": "METAR LIBD 022150Z 15005KT CAVOK 10/05 Q1007",
      "taf": "TAF LIBD 021700Z 0218/0318 23011KT 9999 SCT040"
    },
    {
      "icao": "LIBG",
      "alert": "OK",
      "vis_m": null,
      "fzfg": false,
      "metar_trigger": false,
      "taf_trigger": false,
      "metar": "",
      "taf": "TAF LIBG 021700Z 0218/0303 22012KT CAVOK"
    },
    {
      "icao": "LIBP",
      "alert": "OK",
      "vis_m": 9999,
      "fzfg": false,
      "metar_trigger": false,
      "taf_trigger": false,
      "metar": "METAR LIBP 022150Z AUTO 23015KT 9999 NCD 14/04 Q1002",
      "taf": "TAF LIBP 021700Z 0218/0318 23018G30KT 9999 FEW040"
    },
    {
      "icao": "LIBR",
      "alert": "OK",
      "vis_m": 9999,
      "fzfg": false,
      "metar_trigger": false,
      "taf_trigger": false,
      "metar": "METAR LIBR 022150Z 17006KT CAVOK 12/09 Q1009",
      "taf": "TAF LIBR 021700Z 0218/0318 21015KT 9999 FEW040"
    },
    {
      "icao": "LICA",
      "alert": "OK",
      "vis_m": 9999,
      "fzfg": false,
      "metar_trigger": false,
      "taf_trigger": false,
      "metar": "METAR LICA 022150Z AUTO 18005KT 9999 BKN040/// 12/08 Q1012",
      "taf": "TAF LICA 021700Z 0218/0318 08006KT 9999 SCT040"
    },
    {
      "icao": "LICC",
      "alert": "OK",
      "vis_m": 9999,
      "fzfg": false,
      "metar_trigger": false,
      "taf_trigger": false,
      "metar": "METAR LICC 022150Z 26010KT 9999 SCT030 BKN050 13/10 Q1014",
      "taf": "TAF LICC 021700Z 0218/0318 25014KT 9999 SCT050"
    },
    {
      "icao": "LICJ",
      "alert": "OK",
      "vis_m": 9999,
      "fzfg": false,
      "metar_trigger": false,
      "taf_trigger": false,
      "metar": "METAR LICJ 022150Z AUTO 19021KT 9999 NCD 16/08 Q1010",
      "taf": "TAF LICJ 021700Z 0218/0318 20020G40KT 9999 FEW040"
    },
    {
      "icao": "LIMC",
      "alert": "OK",
      "vis_m": 9999,
      "fzfg": false,
      "metar_trigger": false,
      "taf_trigger": false,
      "metar": "METAR LIMC 022150Z 02005KT CAVOK M00/M01 Q1001 NOSIG",
      "taf": "TAF LIMC 021700Z 0218/0324 VRB04KT 7000 FEW050"
    },
    {
      "icao": "LIME",
      "alert": "OK",
      "vis_m": 300,
      "fzfg": true,
      "metar_trigger": false,
      "taf_trigger": false,
      "metar": "METAR LIME 022150Z VRB01KT 0300 R28/P2000N FZFG VV002 M00/M00 Q1001 NOSIG",
      "taf": "TAF LIME 021700Z 0218/0318 VRB04KT 5000 BR NSC"
    },
    {
      "icao": "LIMF",
      "alert": "OK",
      "vis_m": 9999,
      "fzfg": false,
      "metar_trigger": false,
      "taf_trigger": false,
      "metar": "METAR LIMF 022150Z VRB02KT CAVOK M00/M04 Q1000",
      "taf": "TAF LIMF 021700Z 0218/0318 VRB04KT CAVOK"
    },
    {
      "icao": "LIMJ",
      "alert": "OK",
      "vis_m": 9999,
      "fzfg": false,
      "metar_trigger": false,
      "taf_trigger": false,
      "metar": "METAR LIMJ 022150Z 11014KT 9999 FEW030 13/06 Q0999",
      "taf": "TAF LIMJ 021700Z 0218/0318 14016KT 9999 SCT030"
    },
    {
      "icao": "LIPE",
      "alert": "OK",
      "vis_m": 100,
      "fzfg": false,
      "metar_trigger": false,
      "taf_trigger": false,
      "metar": "METAR LIPE 022150Z 25004KT 220V280 0100 R12/0275N R30/0275N FG VV001 02/02 Q1001",
      "taf": ""
    },
    {
      "icao": "LIPH",
      "alert": "OK",
      "vis_m": 8000,
      "fzfg": false,
      "metar_trigger": false,
      "taf_trigger": false,
      "metar": "METAR LIPH 022150Z VRB02KT 8000 BKN050 01/M01 Q1001",
      "taf": "TAF LIPH 021700Z 0218/0318 VRB04KT 9999 SCT040"
    },
    {
      "icao": "LIPQ",
      "alert": "OK",
      "vis_m": 9999,
      "fzfg": false,
      "metar_trigger": false,
      "taf_trigger": false,
      "metar": "METAR LIPQ 022150Z AUTO 35004KT 9999 SCT020/// OVC051/// 04/02 Q1000",
      "taf": "TAF LIPQ 021700Z 0218/0318 VRB05KT 9999 BKN040"
    },
    {
      "icao": "LIPR",
      "alert": "OK",
      "vis_m": 9999,
      "fzfg": false,
      "metar_trigger": false,
      "taf_trigger": false,
      "metar": "METAR LIPR 022150Z AUTO 21007KT 9999 NCD 06/03 Q1000",
      "taf": ""
    },
    {
      "icao": "LIPX",
      "alert": "OK",
      "vis_m": 5000,
      "fzfg": false,
      "metar_trigger": false,
      "taf_trigger": false,
      "metar": "METAR LIPX 022150Z VRB02KT 5000 BR FEW020 SCT040 M01/M01 Q1001",
      "taf": "TAF LIPX 021700Z 0218/0318 VRB04KT 2000 BR BKN003"
    },
    {
      "icao": "LIPY",
      "alert": "OK",
      "vis_m": 9999,
      "fzfg": false,
      "metar_trigger": false,
      "taf_trigger": false,
      "metar": "METAR LIPY 022150Z AUTO VRB02KT 9999 SCT059/// 10/04 Q1001",
      "taf": "TAF LIPY 021700Z 0218/0318 22010KT 9999 SCT040"
    },
    {
      "icao": "LIPZ",
      "alert": "OK",
      "vis_m": 8000,
      "fzfg": false,
      "metar_trigger": false,
      "taf_trigger": false,
      "metar": "METAR LIPZ 022150Z 04003KT 8000 SCT070 02/M01 Q1001 NOSIG",
      "taf": "TAF LIPZ 021700Z 0218/0324 VRB05KT 9999 BKN050"
    },
    {
      "icao": "LIRF",
      "alert": "OK",
      "vis_m": 9999,
      "fzfg": false,
      "metar_trigger": false,
      "taf_trigger": false,
      "metar": "METAR LIRF 022150Z 23014KT 9999 FEW035 14/09 Q1006 NOSIG",
      "taf": "TAF LIRF 021700Z 0218/0324 23015KT 9999 RA SCT040"
    },
    {
      "icao": "LIRN",
      "alert": "OK",
      "vis_m": 9999,
      "fzfg": false,
      "metar_trigger": false,
      "taf_trigger": false,
      "metar": "METAR LIRN 022150Z 22011KT 9999 FEW035 14/09 Q1008 NOSIG",
      "taf": "TAF LIRN 021700Z 0218/0318 23013KT 9999 FEW030 SCT050"
    },
    {
      "icao": "LIRP",
      "alert": "OK",
      "vis_m": 9999,
      "fzfg": false,
      "metar_trigger": false,
      "taf_trigger": false,
      "metar": "METAR LIRP 022145Z 23015KT 9999 BKN050 12/07 Q1002 NOSIG",
      "taf": "TAF LIRP 021700Z 0218/0318 23012KT 9999 BKN030"
    },
    {
      "icao": "LIRZ",
      "alert": "OK",
      "vis_m": 9999,
      "fzfg": false,
      "metar_trigger": false,
      "taf_trigger": false,
      "metar": "METAR LIRZ 022150Z AUTO 18006KT 9999 FEW025/// 10/07 Q1003",
      "taf": "TAF LIRZ 021700Z 0218/0318 20013KT 9999 FEW020 SCT040"
    },
    {
      "icao": "LJLJ",
      "alert": "OK",
      "vis_m": 9999,
      "fzfg": false,
      "metar_trigger": false,
      "taf_trigger": false,
      "metar": "METAR LJLJ 022130Z 28004KT 9999 FEW013 BKN030 OVC045 01/01 Q0999 NOSIG",
      "taf": "TAF LJLJ 021700Z 0218/0318 30004KT 9999 BKN035"
    },
    {
      "icao": "LKMT",
      "alert": "OK",
      "vis_m": 9999,
      "fzfg": false,
      "metar_trigger": false,
      "taf_trigger": false,
      "metar": "METAR LKMT 022130Z 22016KT CAVOK M00/M05 Q0996 NOSIG",
      "taf": "TAF LKMT 021700Z 0218/0318 22016KT 9999 SCT030"
    },
    {
      "icao": "LKPR",
      "alert": "OK",
      "vis_m": 9999,
      "fzfg": false,
      "metar_trigger": false,
      "taf_trigger": false,
      "metar": "METAR LKPR 022130Z 22019KT CAVOK M02/M05 Q0995 NOSIG",
      "taf": "TAF LKPR 022000Z 0221/0403 23017KT 9999 SCT035"
    },
    {
      "icao": "LLBG",
      "alert": "OK",
      "vis_m": 9999,
      "fzfg": false,
      "metar_trigger": false,
      "taf_trigger": false,
      "metar": "METAR LLBG 022150Z 16006KT 9999 SCT035 SCT045 13/07 Q1024 NOSIG",
      "taf": "TAF LLBG 021703Z 0218/0318 14006KT 9999 SCT040"
    },
    {
      "icao": "LMML",
      "alert": "OK",
      "vis_m": 9999,
      "fzfg": false,
      "metar_trigger": false,
      "taf_trigger": false,
      "metar": "METAR LMML 022145Z 22016KT 9999 FEW035 15/09 Q1016 NOSIG",
      "taf": "TAF LMML 021700Z 0218/0318 22020KT 9999 FEW020"
    },
    {
      "icao": "LOWW",
      "alert": "OK",
      "vis_m": 9999,
      "fzfg": false,
      "metar_trigger": false,
      "taf_trigger": false,
      "metar": "METAR LOWW 022150Z 25007KT CAVOK 02/M05 Q1000 NOSIG",
      "taf": ""
    },
    {
      "icao": "LPFR",
      "alert": "OK",
      "vis_m": 8000,
      "fzfg": false,
      "metar_trigger": false,
      "taf_trigger": false,
      "metar": "METAR LPFR 022130Z 15020KT 8000 -RA SCT012 SCT020 14/12 Q1002 RETS",
      "taf": "TAF LPFR 021700Z 0218/0318 15018KT 9999 FEW020 SCT040"
    },
    {
      "icao": "LPMA",
      "alert": "OK",
      "vis_m": 9999,
      "fzfg": false,
      "metar_trigger": false,
      "taf_trigger": false,
      "metar": "METAR LPMA 022130Z 33004KT 300V360 9999 FEW014 FEW016CB 15/11 Q0998",
      "taf": "TAF LPMA 021700Z 0218/0318 VRB05KT 9999 SCT015"
    },
    {
      "icao": "LPPR",
      "alert": "OK",
      "vis_m": 9999,
      "fzfg": false,
      "metar_trigger": false,
      "taf_trigger": false,
      "metar": "METAR LPPR 022130Z 11010KT 9999 -RA FEW045 15/10 Q1002",
      "taf": "TAF LPPR 021700Z 0218/0318 11012KT 9999 FEW020 BKN035"
    },
    {
      "icao": "LPPS",
      "alert": "OK",
      "vis_m": 9999,
      "fzfg": false,
      "metar_trigger": false,
      "taf_trigger": false,
      "metar": "METAR LPPS 022130Z 27018G30KT 9999 SCT014 FEW018CB 16/12 Q0998",
      "taf": "TAF LPPS 021700Z 0218/0324 27020KT 9999 SCT015 SCT030"
    },
    {
      "icao": "LPPT",
      "alert": "OK",
      "vis_m": 9999,
      "fzfg": false,
      "metar_trigger": false,
      "taf_trigger": false,
      "metar": "METAR LPPT 022130Z 12011KT 9999 FEW015 BKN024 13/12 Q0998",
      "taf": "TAF LPPT 021700Z 0218/0324 13012KT 9999 SCT012 BKN025"
    },
    {
      "icao": "LQBK",
      "alert": "OK",
      "vis_m": 9999,
      "fzfg": false,
      "metar_trigger": false,
      "taf_trigger": false,
      "metar": "METAR LQBK 022130Z 21006KT 9999 SCT040 10/04 Q1001 NOSIG",
      "taf": "TAF LQBK 021700Z 0218/0318 16005KT CAVOK TX08/0218Z TNM00/0318Z"
    },
    {
      "icao": "LQSA",
      "alert": "OK",
      "vis_m": 9999,
      "fzfg": false,
      "metar_trigger": false,
      "taf_trigger": false,
      "metar": "METAR LQSA 022130Z 09006KT 050V120 9999 FEW015 BKN045 06/06 Q1003 NOSIG",
      "taf": "TAF LQSA 021700Z 0218/0318 20005KT 9999 FEW030 BKN050 TX10/0313Z TN01/0304Z"
    },
    {
      "icao": "LQTZ",
      "alert": "OK",
      "vis_m": 9999,
      "fzfg": false,
      "metar_trigger": false,
      "taf_trigger": false,
      "metar": "METAR LQTZ 022130Z VRB02KT CAVOK 05/02 Q1001",
      "taf": "TAF LQTZ 021700Z 0218/0318 27005KT 9999 SCT040 TX10/0218Z TN00/0305Z"
    },
    {
      "icao": "LRBC",
      "alert": "OK",
      "vis_m": 9999,
      "fzfg": false,
      "metar_trigger": false,
      "taf_trigger": false,
      "metar": "METAR LRBC 022130Z 15006KT CAVOK 01/M05 Q1000",
      "taf": "TAF LRBC 022000Z 0221/0306 VRB04KT CAVOK"
    },
    {
      "icao": "LRBS",
      "alert": "OK",
      "vis_m": 9999,
      "fzfg": false,
      "metar_trigger": false,
      "taf_trigger": false,
      "metar": "METAR LRBS 022130Z 00000KT CAVOK 01/M05 Q1006 NOSIG",
      "taf": ""
    },
    {
      "icao": "LRBV",
      "alert": "OK",
      "vis_m": 9999,
      "fzfg": false,
      "metar_trigger": false,
      "taf_trigger": false,
      "metar": "METAR LRBV 022130Z AUTO 21027KT 9999 BKN086/// 04/M00 Q1000",
      "taf": ""
    },
    {
      "icao": "LRCL",
      "alert": "OK",
      "vis_m": 1300,
      "fzfg": false,
      "metar_trigger": false,
      "taf_trigger": false,
      "metar": "METAR LRCL 022130Z 21001KT 1300 R25/1600D SN BR OVC011 00/M00 Q1003",
      "taf": ""
    },
    {
      "icao": "LRCV",
      "alert": "OK",
      "vis_m": 9999,
      "fzfg": false,
      "metar_trigger": false,
      "taf_trigger": false,
      "metar": "METAR LRCV 022130Z 09003KT CAVOK 00/M02 Q1006",
      "taf": ""
    },
    {
      "icao": "LRIA",
      "alert": "OK",
      "vis_m": 9999,
      "fzfg": false,
      "metar_trigger": false,
      "taf_trigger": false,
      "metar": "METAR LRIA 022130Z 08006KT CAVOK 02/M04 Q1001",
      "taf": "TAF LRIA 022000Z 0221/0306 VRB04KT CAVOK"
    },
    {
      "icao": "LROP",
      "alert": "OK",
      "vis_m": 9999,
      "fzfg": false,
      "metar_trigger": false,
      "taf_trigger": false,
      "metar": "METAR LROP 022130Z 17003KT CAVOK 00/M06 Q1006 NOSIG",
      "taf": ""
    },
    {
      "icao": "LRSB",
      "alert": "OK",
      "vis_m": 9999,
      "fzfg": false,
      "metar_trigger": false,
      "taf_trigger": false,
      "metar": "METAR LRSB 022130Z 30011KT 9999 SCT003 BKN070 02/01 Q1002",
      "taf": ""
    },
    {
      "icao": "LRSM",
      "alert": "OK",
      "vis_m": 9999,
      "fzfg": false,
      "metar_trigger": false,
      "taf_trigger": false,
      "metar": "METAR LRSM 022130Z AUTO 20008KT 9999 BKN120/// BKN130/// 01/M00 Q1001",
      "taf": "TAF LRSM 021100Z 0212/0221 22012KT 9999 SCT015 BKN030"
    },
    {
      "icao": "LRSV",
      "alert": "OK",
      "vis_m": 9999,
      "fzfg": false,
      "metar_trigger": false,
      "taf_trigger": false,
      "metar": "METAR LRSV 022130Z 23007KT CAVOK 03/M03 Q0999",
      "taf": "TAF LRSV 022000Z 0221/0306 23006KT 9999 SCT045"
    },
    {
      "icao": "LRTM",
      "alert": "OK",
      "vis_m": 1700,
      "fzfg": false,
      "metar_trigger": false,
      "taf_trigger": false,
      "metar": "METAR LRTM 022130Z AUTO VRB01KT 1700 R25////// SN SCT007/// BKN010/// 00/M00 Q1003",
      "taf": "TAF LRTM 021400Z 0215/0224 20007KT 9999 BKN040"
    },
    {
      "icao": "LRTR",
      "alert": "OK",
      "vis_m": 5000,
      "fzfg": false,
      "metar_trigger": false,
      "taf_trigger": false,
      "metar": "METAR LRTR 022130Z 06002KT 5000 -RA BR FEW010 OVC025 02/02 Q1003",
      "taf": "TAF LRTR 021700Z 0218/0318 19010KT 9999 -RA BKN045"
    },
    {
      "icao": "LTAC",
      "alert": "OK",
      "vis_m": 9999,
      "fzfg": false,
      "metar_trigger": false,
      "taf_trigger": false,
      "metar": "METAR LTAC 022150Z 25002KT CAVOK M12/M14 Q1021 NOSIG",
      "taf": "TAF LTAC 021640Z 0218/0318 VRB02KT CAVOK"
    },
    {
      "icao": "LTFM",
      "alert": "OK",
      "vis_m": 9999,
      "fzfg": false,
      "metar_trigger": false,
      "taf_trigger": false,
      "metar": "METAR LTFM 022150Z 20024KT CAVOK 07/M00 Q1015 NOSIG",
      "taf": "TAF LTFM 021640Z 0218/0324 21023G35KT CAVOK"
    },
    {
      "icao": "LUKK",
      "alert": "OK",
      "vis_m": 9999,
      "fzfg": false,
      "metar_trigger": false,
      "taf_trigger": false,
      "metar": "METAR LUKK 022130Z 29009KT 250V310 CAVOK 04/M03 Q1001 NOSIG",
      "taf": "TAF LUKK 021711Z 0218/0318 22012KT CAVOK"
    },
    {
      "icao": "LWOH",
      "alert": "OK",
      "vis_m": null,
      "fzfg": false,
      "metar_trigger": false,
      "taf_trigger": false,
      "metar": "",
      "taf": "TAF LWOH 022035Z 0221/0321 16010KT 9999 SCT015 OVC035"
    },
    {
      "icao": "LWSK",
      "alert": "OK",
      "vis_m": 9999,
      "fzfg": false,
      "metar_trigger": false,
      "taf_trigger": false,
      "metar": "METAR LWSK 022120Z VRB03KT 9999 SCT068 M01/M06 Q1011 NOSIG",
      "taf": "TAF LWSK 022035Z 0221/0321 VRB02KT 9999 SCT050 BKN070"
    },
    {
      "icao": "LYBE",
      "alert": "OK",
      "vis_m": 9999,
      "fzfg": false,
      "metar_trigger": false,
      "taf_trigger": false,
      "metar": "METAR LYBE 022130Z 04009KT CAVOK 04/02 Q1003 NOSIG",
      "taf": ""
    },
    {
      "icao": "LYNI",
      "alert": "OK",
      "vis_m": 9999,
      "fzfg": false,
      "metar_trigger": false,
      "taf_trigger": false,
      "metar": "METAR LYNI 022130Z 10004KT 030V180 9999 BKN040 06/M03 Q1008 NOSIG",
      "taf": "TAF LYNI 021700Z 0218/0318 16009KT 9999 BKN040 TX08/0309Z TN01/0318Z"
    },
    {
      "icao": "LYPG",
      "alert": "OK",
      "vis_m": 9999,
      "fzfg": false,
      "metar_trigger": false,
      "taf_trigger": false,
      "metar": "METAR LYPG 022130Z 33005KT 300V070 9999 -RA FEW030 SCT040 BKN080 05/05 Q1008 NOSIG",
      "taf": "TAF LYPG 021700Z 0218/0318 36006KT 9999 FEW030 BKN040 OVC080 TX09/0313Z TN03/0218Z"
    },
    {
      "icao": "LZIB",
      "alert": "OK",
      "vis_m": 9999,
      "fzfg": false,
      "metar_trigger": false,
      "taf_trigger": false,
      "metar": "METAR LZIB 022130Z 21008KT CAVOK 00/M03 Q1000 NOSIG",
      "taf": "TAF LZIB 021715Z 0218/0318 26014KT CAVOK"
    },
    {
      "icao": "LZKZ",
      "alert": "OK",
      "vis_m": 9999,
      "fzfg": false,
      "metar_trigger": false,
      "taf_trigger": false,
      "metar": "METAR LZKZ 022130Z VRB02KT CAVOK M02/M05 Q0999 NOSIG",
      "taf": ""
    },
    {
      "icao": "LZTT",
      "alert": "OK",
      "vis_m": 9999,
      "fzfg": false,
      "metar_trigger": false,
      "taf_trigger": false,
      "metar": "METAR LZTT 022130Z 26016KT 9999 FEW050 M03/M09 Q0996",
      "taf": "TAF LZTT 021715Z 0218/0318 26015KT 9999 BKN030"
    },
    {
      "icao": "OEJN",
      "alert": "OK",
      "vis_m": 9999,
      "fzfg": false,
      "metar_trigger": false,
      "taf_trigger": false,
      "metar": "METAR OEJN 022100Z 00000KT CAVOK 24/16 Q1015 NOSIG",
      "taf": "TAF OEJN 021700Z 0218/0324 02008KT CAVOK"
    },
    {
      "icao": "OEMA",
      "alert": "OK",
      "vis_m": 9999,
      "fzfg": false,
      "metar_trigger": false,
      "taf_trigger": false,
      "metar": "METAR OEMA 022100Z 34002KT CAVOK 17/M04 Q1020 NOSIG",
      "taf": "TAF OEMA 021700Z 0218/0324 VRB03KT 9999 FEW040"
    },
    {
      "icao": "OJAI",
      "alert": "OK",
      "vis_m": 4000,
      "fzfg": false,
      "metar_trigger": false,
      "taf_trigger": false,
      "metar": "METAR OJAI 022100Z 33002KT 4000 BR NSC 05/03 Q1025 NOSIG",
      "taf": "TAF OJAI 021648Z 0218/0324 26008KT 4000 BR FEW040"
    },
    {
      "icao": "OMAA",
      "alert": "OK",
      "vis_m": 9999,
      "fzfg": false,
      "metar_trigger": false,
      "taf_trigger": false,
      "metar": "METAR OMAA 022100Z 27002KT CAVOK 17/15 Q1019 NOSIG",
      "taf": "TAF OMAA 021700Z 0218/0400 VRB02KT 8000 NSC"
    },
    {
      "icao": "OMDB",
      "alert": "OK",
      "vis_m": 9999,
      "fzfg": false,
      "metar_trigger": false,
      "taf_trigger": false,
      "metar": "METAR OMDB 022130Z 17004KT CAVOK 19/15 Q1019 NOSIG",
      "taf": "TAF OMDB 021700Z 0218/0400 19005KT 8000 NSC"
    },
    {
      "icao": "UAAA",
      "alert": "OK",
      "vis_m": 150,
      "fzfg": true,
      "metar_trigger": false,
      "taf_trigger": false,
      "metar": "SPECI UAAA 022136Z 21002MPS 150V300 0150 R23L/0500 FZFG VV001 M02/M02 Q1021 NOSIG RMK QBB050",
      "taf": ""
    },
    {
      "icao": "UBBB",
      "alert": "OK",
      "vis_m": 9999,
      "fzfg": false,
      "metar_trigger": false,
      "taf_trigger": false,
      "metar": "METAR UBBB 022130Z 28004KT 9999 SCT042 01/00 Q1030 NOSIG",
      "taf": "TAF UBBB 021659Z 0218/0318 34008KT 9999 SCT012 FEW030CB BKN030 TX07/0310Z TN00/0302Z"
    },
    {
      "icao": "UDSG",
      "alert": "OK",
      "vis_m": 9999,
      "fzfg": false,
      "metar_trigger": false,
      "taf_trigger": false,
      "metar": "METAR UDSG 022130Z 04004KT 9999 NSC M25/M27 Q1025 NOSIG",
      "taf": "TAF UDSG 021658Z 0218/0318 VRB06KT 9999 FEW040"
    },
    {
      "icao": "UDYZ",
      "alert": "OK",
      "vis_m": 9999,
      "fzfg": false,
      "metar_trigger": false,
      "taf_trigger": false,
      "metar": "METAR UDYZ 022130Z VRB02KT 9999 NSC M12/M17 Q1027 NOSIG",
      "taf": ""
    },
    {
      "icao": "UGKO",
      "alert": "OK",
      "vis_m": 9999,
      "fzfg": false,
      "metar_trigger": false,
      "taf_trigger": false,
      "metar": "METAR UGKO 022130Z 08020KT CAVOK 00/M08 Q1024 NOSIG",
      "taf": "TAF UGKO 021700Z 0218/0318 08017KT CAVOK TX05/0311Z TNM04/0303Z"
    }
  ]
}