{
  "ts_utc": "2026-02-12T08:27:18Z",
  "threshold_m": 150,
  "source": "stations_override.txt (ICAO list) + aviationweather.gov (METAR/TAF raw)",
  "station_count": 159,
  "stations": [
    {
      "icao": "BIKF",
      "alert": "OK",
      "vis_m": 9999,
      "fzfg": false,
      "metar_trigger": false,
      "taf_trigger": false,
      "metar": "METAR BIKF 120800Z 04011KT CAVOK M04/M11 Q1006",
      "taf": "TAF BIKF 120741Z 1209/1309 02017KT CAVOK TXM03/1215Z TNM06/1309Z"
    },
    {
      "icao": "BKPR",
      "alert": "OK",
      "vis_m": null,
      "fzfg": false,
      "metar_trigger": false,
      "taf_trigger": false,
      "metar": "",
      "taf": "TAF BKPR 120530Z 1206/1306 18010KT 9999 SCT020 BKN050"
    },
    {
      "icao": "EBCI",
      "alert": "OK",
      "vis_m": 9000,
      "fzfg": false,
      "metar_trigger": false,
      "taf_trigger": false,
      "metar": "METAR EBCI 120820Z 28008KT 260V330 9000 SCT006 BKN009 07/06 Q0980 TEMPO 4000 -RA",
      "taf": "TAF EBCI 120510Z 1206/1312 27009KT 7000 -RA SCT007 BKN012"
    },
    {
      "icao": "EDDB",
      "alert": "OK",
      "vis_m": 5000,
      "fzfg": false,
      "metar_trigger": false,
      "taf_trigger": false,
      "metar": "METAR EDDB 120820Z AUTO 15004KT 120V180 5000 BR NSC 06/06 Q0979 BECMG 5000 BR",
      "taf": "TAF EDDB 120500Z 1206/1306 16004KT 0400 FG VV002"
    },
    {
      "icao": "EDDH",
      "alert": "OK",
      "vis_m": 2300,
      "fzfg": false,
      "metar_trigger": false,
      "taf_trigger": false,
      "metar": "METAR EDDH 120820Z AUTO 08008KT 2300 BR OVC003 02/01 Q0978 TEMPO 3000",
      "taf": "TAF EDDH 120500Z 1206/1312 08008KT 4000 BR OVC003"
    },
    {
      "icao": "EDDK",
      "alert": "OK",
      "vis_m": 4000,
      "fzfg": false,
      "metar_trigger": false,
      "taf_trigger": false,
      "metar": "METAR EDDK 120820Z AUTO 19005KT 4000 -RA BR FEW005 BKN023 OVC028 09/09 Q0975 RESHRA TEMPO RA BKN012",
      "taf": "TAF EDDK 120500Z 1206/1312 15009KT 9999 BKN020"
    },
    {
      "icao": "EDDN",
      "alert": "OK",
      "vis_m": 9999,
      "fzfg": false,
      "metar_trigger": false,
      "taf_trigger": false,
      "metar": "METAR EDDN 120820Z AUTO 14008KT 9999 FEW039 SCT046 07/05 Q0980 NOSIG",
      "taf": "TAF EDDN 120500Z 1206/1306 14009KT 9999 FEW014 BKN020"
    },
    {
      "icao": "EDDS",
      "alert": "OK",
      "vis_m": 9999,
      "fzfg": false,
      "metar_trigger": false,
      "taf_trigger": false,
      "metar": "METAR EDDS 120820Z AUTO 21007KT 160V250 9999 -SHRA FEW034 FEW///TCU 08/06 Q0979 TEMPO RA",
      "taf": "TAF EDDS 120500Z 1206/1306 18006KT 9999 BKN030"
    },
    {
      "icao": "EDFH",
      "alert": "OK",
      "vis_m": 9999,
      "fzfg": false,
      "metar_trigger": false,
      "taf_trigger": false,
      "metar": "METAR EDFH 120820Z 21016KT 9999 SCT009 BKN017 08/06 Q0976",
      "taf": "TAF EDFH 120500Z 1206/1306 20012KT 9999 BKN015"
    },
    {
      "icao": "EDJA",
      "alert": "OK",
      "vis_m": 9999,
      "fzfg": false,
      "metar_trigger": false,
      "taf_trigger": false,
      "metar": "METAR EDJA 120820Z 21007KT CAVOK 05/03 Q0981",
      "taf": "TAF EDJA 120500Z 1206/1215 20006KT 9999 BKN030"
    },
    {
      "icao": "EDLW",
      "alert": "OK",
      "vis_m": 5000,
      "fzfg": false,
      "metar_trigger": false,
      "taf_trigger": false,
      "metar": "METAR EDLW 120820Z 24003KT 200V290 5000 BKN006 BKN008 OVC030 09/08 Q0974",
      "taf": "TAF EDLW 120500Z 1206/1306 12006KT 9999 BKN020"
    },
    {
      "icao": "EDNY",
      "alert": "OK",
      "vis_m": 700,
      "fzfg": false,
      "metar_trigger": false,
      "taf_trigger": false,
      "metar": "METAR EDNY 120820Z 34003KT 300V040 0700 R24/0600N FG SCT001 05/05 Q0982",
      "taf": "TAF EDNY 120500Z 1206/1215 VRB02KT 9999 BKN035"
    },
    {
      "icao": "EDSB",
      "alert": "OK",
      "vis_m": 9999,
      "fzfg": false,
      "metar_trigger": false,
      "taf_trigger": false,
      "metar": "METAR EDSB 120820Z 20013KT 9999 -RA FEW010 BKN025 OVC048 09/08 Q0979",
      "taf": "TAF EDSB 120500Z 1206/1306 21012KT 9999 BKN035"
    },
    {
      "icao": "EETN",
      "alert": "OK",
      "vis_m": 9999,
      "fzfg": false,
      "metar_trigger": false,
      "taf_trigger": false,
      "metar": "METAR EETN 120820Z 08006KT CAVOK M09/M12 Q0992 NOSIG",
      "taf": "TAF EETN 120530Z 1206/1306 09008KT 9999 BKN045"
    },
    {
      "icao": "EFTU",
      "alert": "OK",
      "vis_m": 9999,
      "fzfg": false,
      "metar_trigger": false,
      "taf_trigger": false,
      "metar": "METAR EFTU 120820Z AUTO 04006KT 9999 OVC009 M12/M14 Q0994",
      "taf": ""
    },
    {
      "icao": "EGBB",
      "alert": "OK",
      "vis_m": 9999,
      "fzfg": false,
      "metar_trigger": false,
      "taf_trigger": false,
      "metar": "METAR EGBB 120820Z 25005KT 9999 6000NE VCSH SCT009 BKN014 07/06 Q0981",
      "taf": "TAF EGBB 120502Z 1206/1306 28006KT 9999 FEW020"
    },
    {
      "icao": "EGGP",
      "alert": "OK",
      "vis_m": 9999,
      "fzfg": false,
      "metar_trigger": false,
      "taf_trigger": false,
      "metar": "METAR EGGP 120820Z 04009KT 9999 SCT015 OVC039 05/03 Q0982",
      "taf": ""
    },
    {
      "icao": "EGGW",
      "alert": "OK",
      "vis_m": 9999,
      "fzfg": false,
      "metar_trigger": false,
      "taf_trigger": false,
      "metar": "METAR EGGW 120820Z AUTO 27010KT 9999 FEW020 SCT033 06/05 Q0981",
      "taf": "TAF EGGW 120453Z 1206/1306 27004KT 9999 SCT020"
    },
    {
      "icao": "EGKK",
      "alert": "OK",
      "vis_m": 9999,
      "fzfg": false,
      "metar_trigger": false,
      "taf_trigger": false,
      "metar": "METAR EGKK 120820Z 23007KT 9999 FEW010 SCT031 07/07 Q0982",
      "taf": "TAF EGKK 120455Z 1206/1312 VRB03KT 9999 SCT030"
    },
    {
      "icao": "EGNM",
      "alert": "OK",
      "vis_m": 9999,
      "fzfg": false,
      "metar_trigger": false,
      "taf_trigger": false,
      "metar": "METAR EGNM 120820Z 02014KT 9999 -DZ BKN005 03/03 Q0982",
      "taf": ""
    },
    {
      "icao": "EGPD",
      "alert": "OK",
      "vis_m": 9999,
      "fzfg": false,
      "metar_trigger": false,
      "taf_trigger": false,
      "metar": "METAR EGPD 120820Z COR AUTO 04007KT 010V090 9999 OVC032 03/M01 Q0990 NOSIG",
      "taf": ""
    },
    {
      "icao": "EGPF",
      "alert": "OK",
      "vis_m": 9999,
      "fzfg": false,
      "metar_trigger": false,
      "taf_trigger": false,
      "metar": "METAR EGPF 120820Z AUTO 06013KT 9999 BKN021 BKN035 03/00 Q0987",
      "taf": "TAF EGPF 120458Z 1206/1306 07013KT 9999 BKN025"
    },
    {
      "icao": "EHBK",
      "alert": "OK",
      "vis_m": 9999,
      "fzfg": false,
      "metar_trigger": false,
      "taf_trigger": false,
      "metar": "METAR EHBK 120755Z AUTO 30008KT 260V350 9999 -RA FEW003 SCT005 BKN006 BKN015CB 09/09 Q0975 TEMPO 1200",
      "taf": "TAF EHBK 120505Z 1206/1312 21008KT 6000 -RADZ BKN018"
    },
    {
      "icao": "EHEH",
      "alert": "OK",
      "vis_m": 3300,
      "fzfg": false,
      "metar_trigger": false,
      "taf_trigger": false,
      "metar": "METAR EHEH 120755Z AUTO 32009KT 250V010 3300 R03/P3000D -RADZ FEW004 BKN005 BKN007 08/07 Q0976 YLO TEMPO 3000 RADZ SCT002 BKN004",
      "taf": ""
    },
    {
      "icao": "EKBI",
      "alert": "OK",
      "vis_m": 2800,
      "fzfg": false,
      "metar_trigger": false,
      "taf_trigger": false,
      "metar": "METAR EKBI 120820Z 06015KT 2800 -SN DRSN OVC008 M01/M02 Q0984",
      "taf": "TAF EKBI 120527Z 1206/1306 08015KT 1200 SN BKN005"
    },
    {
      "icao": "EKCH",
      "alert": "OK",
      "vis_m": 9999,
      "fzfg": false,
      "metar_trigger": false,
      "taf_trigger": false,
      "metar": "METAR EKCH 120820Z 07014KT 9999 BKN009 00/M01 Q0985 TEMPO BKN011",
      "taf": "TAF EKCH 120527Z 1206/1306 07015KT 8000 BKN015"
    },
    {
      "icao": "ENAL",
      "alert": "OK",
      "vis_m": 9999,
      "fzfg": false,
      "metar_trigger": false,
      "taf_trigger": false,
      "metar": "METAR ENAL 120820Z 17005KT 140V200 9999 VCSH FEW010 SCT035 M01/M07 Q0991",
      "taf": "TAF ENAL 120500Z 1206/1215 17008KT 9999 FEW020 BKN040"
    },
    {
      "icao": "ENBR",
      "alert": "OK",
      "vis_m": 9999,
      "fzfg": false,
      "metar_trigger": false,
      "taf_trigger": false,
      "metar": "METAR ENBR 120820Z VRB02KT 9999 SCT035 M04/M11 Q0991 NOSIG RMK WIND 1200FT 12005KT",
      "taf": "TAF ENBR 120500Z 1206/1306 VRB03KT 9999 FEW020 BKN040"
    },
    {
      "icao": "ENGM",
      "alert": "OK",
      "vis_m": 9999,
      "fzfg": false,
      "metar_trigger": false,
      "taf_trigger": false,
      "metar": "METAR ENGM 120820Z 02007KT 9999 BKN036 M10/M14 Q0994 NOSIG",
      "taf": "TAF ENGM 120500Z 1206/1306 01006KT 9999 BKN040"
    },
    {
      "icao": "ENHD",
      "alert": "OK",
      "vis_m": 9999,
      "fzfg": false,
      "metar_trigger": false,
      "taf_trigger": false,
      "metar": "METAR ENHD 120820Z 08006KT CAVOK M03/M10 Q0992",
      "taf": "TAF ENHD 120500Z 1206/1215 11008KT 9999 FEW025 BKN040"
    },
    {
      "icao": "ENTC",
      "alert": "OK",
      "vis_m": 9999,
      "fzfg": false,
      "metar_trigger": false,
      "taf_trigger": false,
      "metar": "METAR ENTC 120820Z 22012KT 9999 FEW016 SCT030 M08/M11 Q0994 RESN RESG NOSIG RMK WIND 2600FT 29008KT",
      "taf": "TAF ENTC 120500Z 1206/1306 21008KT 9999 SCT050"
    },
    {
      "icao": "ENTO",
      "alert": "OK",
      "vis_m": 9999,
      "fzfg": false,
      "metar_trigger": false,
      "taf_trigger": false,
      "metar": "METAR ENTO 120820Z 04008KT 9999 NSC M08/M14 Q0994 NOSIG",
      "taf": "TAF ENTO 120500Z 1206/1306 04008KT 9999 FEW015 BKN040"
    },
    {
      "icao": "ENVA",
      "alert": "OK",
      "vis_m": 9999,
      "fzfg": false,
      "metar_trigger": false,
      "taf_trigger": false,
      "metar": "METAR ENVA 120820Z 08007KT CAVOK M10/M17 Q0994 NOSIG RMK WIND 670FT 13016KT",
      "taf": "TAF ENVA 120500Z 1206/1306 12008KT CAVOK"
    },
    {
      "icao": "ENZV",
      "alert": "OK",
      "vis_m": 9999,
      "fzfg": false,
      "metar_trigger": false,
      "taf_trigger": false,
      "metar": "METAR ENZV 120820Z VRB01KT CAVOK M05/M10 Q0992 NOSIG",
      "taf": "TAF ENZV 120500Z 1206/1306 10005KT 9999 FEW020 BKN040"
    },
    {
      "icao": "EPGD",
      "alert": "OK",
      "vis_m": 600,
      "fzfg": true,
      "metar_trigger": false,
      "taf_trigger": false,
      "metar": "METAR EPGD 120800Z 06005KT 030V090 0600 R29/0500N FZFG VV001 M00/M00 Q0984",
      "taf": "TAF EPGD 120530Z 1206/1306 07008KT 0800 FG OVC002"
    },
    {
      "icao": "EPKK",
      "alert": "OK",
      "vis_m": 9999,
      "fzfg": false,
      "metar_trigger": false,
      "taf_trigger": false,
      "metar": "METAR EPKK 120800Z 24002KT 9999 FEW048 08/04 Q0985",
      "taf": "TAF EPKK 120530Z 1206/1306 24004KT 9999 BKN025"
    },
    {
      "icao": "EPKT",
      "alert": "OK",
      "vis_m": 9999,
      "fzfg": false,
      "metar_trigger": false,
      "taf_trigger": false,
      "metar": "METAR EPKT 120800Z 20010KT 9999 SCT007 BKN020 07/05 Q0984",
      "taf": "TAF EPKT 120530Z 1206/1306 22012KT 9999 OVC025"
    },
    {
      "icao": "EPLB",
      "alert": "OK",
      "vis_m": 9999,
      "fzfg": false,
      "metar_trigger": false,
      "taf_trigger": false,
      "metar": "METAR EPLB 120800Z 21008KT 9999 OVC018 04/03 Q0985",
      "taf": "TAF EPLB 120530Z 1206/1306 21008KT 9999 -RA OVC018"
    },
    {
      "icao": "EPMO",
      "alert": "OK",
      "vis_m": 1300,
      "fzfg": false,
      "metar_trigger": false,
      "taf_trigger": false,
      "metar": "METAR EPMO 120800Z 16003KT 130V190 1300 R08/1400N BR OVC003 02/02 Q0983",
      "taf": "TAF EPMO 120530Z 1206/1306 09003KT 2000 BR OVC005"
    },
    {
      "icao": "EPPO",
      "alert": "OK",
      "vis_m": 300,
      "fzfg": false,
      "metar_trigger": false,
      "taf_trigger": false,
      "metar": "METAR EPPO 120800Z 12006KT 0300 R28/0600N -RA FG VV002 03/03 Q0982",
      "taf": ""
    },
    {
      "icao": "EPRA",
      "alert": "OK",
      "vis_m": 4000,
      "fzfg": false,
      "metar_trigger": false,
      "taf_trigger": false,
      "metar": "METAR EPRA 120800Z 19006KT 4000 -DZ BR SCT008 OVC013 03/03 Q0984",
      "taf": ""
    },
    {
      "icao": "EPRZ",
      "alert": "OK",
      "vis_m": 9999,
      "fzfg": false,
      "metar_trigger": false,
      "taf_trigger": false,
      "metar": "METAR EPRZ 120800Z 20012KT 9999 BKN033 06/04 Q0986",
      "taf": "TAF EPRZ 120530Z 1206/1306 20012KT 9999 BKN035"
    },
    {
      "icao": "EPSC",
      "alert": "OK",
      "vis_m": 2100,
      "fzfg": false,
      "metar_trigger": false,
      "taf_trigger": false,
      "metar": "METAR EPSC 120800Z 07008KT 2100 -RA BR BKN003 OVC008 02/02 Q0981",
      "taf": "TAF EPSC 120530Z 1206/1306 07007KT 2300 -RA BR OVC002"
    },
    {
      "icao": "EPSY",
      "alert": "OK",
      "vis_m": 2000,
      "fzfg": false,
      "metar_trigger": false,
      "taf_trigger": false,
      "metar": "METAR EPSY 120800Z 00000KT 2000 BR BKN019 BKN034 01/01 Q0984",
      "taf": "TAF EPSY 120530Z 1206/1215 VRB02KT 5000 BR BKN030"
    },
    {
      "icao": "EPWA",
      "alert": "OK",
      "vis_m": 900,
      "fzfg": false,
      "metar_trigger": false,
      "taf_trigger": false,
      "metar": "METAR EPWA 120800Z 16003KT 0900 0750NW R11/1200N FG OVC002 02/02 Q0984 NOSIG",
      "taf": "TAF EPWA 120530Z 1206/1306 14005KT 6000 BKN010"
    },
    {
      "icao": "EPWR",
      "alert": "OK",
      "vis_m": 9999,
      "fzfg": false,
      "metar_trigger": false,
      "taf_trigger": false,
      "metar": "METAR EPWR 120800Z 16004KT 9999 FEW030 BKN043 07/06 Q0982",
      "taf": "TAF EPWR 120530Z 1206/1306 18006KT 9999 SCT005 BKN019"
    },
    {
      "icao": "ESGG",
      "alert": "OK",
      "vis_m": 9999,
      "fzfg": false,
      "metar_trigger": false,
      "taf_trigger": false,
      "metar": "METAR ESGG 120820Z 04012KT 9999 FEW010 BKN026 OVC032 M05/M07 Q0989",
      "taf": "TAF ESGG 120530Z 1206/1306 04011KT 9999 BKN035"
    },
    {
      "icao": "ESKN",
      "alert": "OK",
      "vis_m": 9999,
      "fzfg": false,
      "metar_trigger": false,
      "taf_trigger": false,
      "metar": "METAR ESKN 120820Z 36006KT 320V050 9999 BKN045 M07/M09 Q0992",
      "taf": "TAF ESKN 120530Z 1206/1306 01005KT 9999 -SN BKN020"
    },
    {
      "icao": "ESMS",
      "alert": "OK",
      "vis_m": 9000,
      "fzfg": false,
      "metar_trigger": false,
      "taf_trigger": false,
      "metar": "METAR ESMS 120820Z 07016KT 9000 BKN006 00/M00 Q0984",
      "taf": "TAF ESMS 120527Z 1206/1306 07015KT 6000 OVC015"
    },
    {
      "icao": "ESSA",
      "alert": "OK",
      "vis_m": 9999,
      "fzfg": false,
      "metar_trigger": false,
      "taf_trigger": false,
      "metar": "METAR ESSA 120820Z 35007KT CAVOK M08/M10 Q0993 NOSIG",
      "taf": "TAF ESSA 120530Z 1206/1306 34005KT CAVOK"
    },
    {
      "icao": "EYKA",
      "alert": "OK",
      "vis_m": 2300,
      "fzfg": false,
      "metar_trigger": false,
      "taf_trigger": false,
      "metar": "METAR EYKA 120820Z VRB02KT 2300 BR OVC002 00/00 Q0986",
      "taf": "TAF EYKA 120500Z 1206/1306 VRB04KT 3000 SNRA BR OVC005"
    },
    {
      "icao": "EYPA",
      "alert": "OK",
      "vis_m": 5000,
      "fzfg": false,
      "metar_trigger": false,
      "taf_trigger": false,
      "metar": "METAR EYPA 120820Z 05009KT 5000 BR OVC005 M05/M07 Q0987",
      "taf": ""
    },
    {
      "icao": "EYVI",
      "alert": "OK",
      "vis_m": 4200,
      "fzfg": false,
      "metar_trigger": false,
      "taf_trigger": false,
      "metar": "METAR EYVI 120820Z 15003KT 4200 -SN BR OVC004 M00/M01 Q0986 TEMPO 3000 SN BR",
      "taf": "TAF EYVI 120500Z 1206/1306 VRB04KT 5000 SN BR BKN005"
    },
    {
      "icao": "GCFV",
      "alert": "OK",
      "vis_m": 9999,
      "fzfg": false,
      "metar_trigger": false,
      "taf_trigger": false,
      "metar": "METAR GCFV 120800Z 03010KT 360V060 9999 OVC011 18/15 Q1025",
      "taf": "TAF GCFV 120800Z 1209/1309 05009KT 9999 FEW015 TX22/1214Z TN16/1306Z"
    },
    {
      "icao": "GCLP",
      "alert": "OK",
      "vis_m": 9999,
      "fzfg": false,
      "metar_trigger": false,
      "taf_trigger": false,
      "metar": "METAR GCLP 120800Z 01013KT 9999 BKN018 18/15 Q1024 NOSIG",
      "taf": "TAF GCLP 120800Z 1209/1309 03011KT 9999 SCT020 TX23/1214Z TN17/1306Z"
    },
    {
      "icao": "GCTS",
      "alert": "OK",
      "vis_m": 9999,
      "fzfg": false,
      "metar_trigger": false,
      "taf_trigger": false,
      "metar": "METAR GCTS 120800Z 02006KT 9999 FEW015 16/14 Q1024 NOSIG",
      "taf": "TAF GCTS 120800Z 1209/1309 09010KT 9999 FEW020 TX25/1214Z TN16/1306Z"
    },
    {
      "icao": "GMAD",
      "alert": "OK",
      "vis_m": 2000,
      "fzfg": false,
      "metar_trigger": false,
      "taf_trigger": false,
      "metar": "METAR GMAD 120800Z 00000KT 600 R27/0800V1100U FG OVC001 14/14 Q1022 BECMG 2000 BR OVC010",
      "taf": "TAF GMAD 120500Z 1206/1312 07004KT 3000 BR OVC004"
    },
    {
      "icao": "GMMN",
      "alert": "OK",
      "vis_m": 5000,
      "fzfg": false,
      "metar_trigger": false,
      "taf_trigger": false,
      "metar": "METAR GMMN 120800Z 17003KT 5000 2000N BR FEW010 SCT016 09/08 Q1025 NOSIG",
      "taf": "TAF GMMN 120500Z 1206/1312 18007KT 8000 SCT016"
    },
    {
      "icao": "GMMX",
      "alert": "OK",
      "vis_m": 2000,
      "fzfg": false,
      "metar_trigger": false,
      "taf_trigger": false,
      "metar": "METAR GMMX 120800Z 11005KT 070V160 2000 BR OVC003 14/14 Q1024 TEMPO 0600 FG",
      "taf": "TAF GMMX 120500Z 1206/1312 06006KT 0800 FG OVC004"
    },
    {
      "icao": "HEGN",
      "alert": "OK",
      "vis_m": 9999,
      "fzfg": false,
      "metar_trigger": false,
      "taf_trigger": false,
      "metar": "METAR HEGN 120800Z 33005KT CAVOK 24/01 Q1018 NOSIG",
      "taf": "TAF HEGN 120500Z 1206/1312 25008KT 6000 NSC"
    },
    {
      "icao": "HEMA",
      "alert": "OK",
      "vis_m": 9999,
      "fzfg": false,
      "metar_trigger": false,
      "taf_trigger": false,
      "metar": "METAR HEMA 120800Z 27009KT CAVOK 21/07 Q1017 NOSIG",
      "taf": "TAF HEMA 120500Z 1206/1312 26008KT CAVOK"
    },
    {
      "icao": "HESH",
      "alert": "OK",
      "vis_m": 9999,
      "fzfg": false,
      "metar_trigger": false,
      "taf_trigger": false,
      "metar": "METAR HESH 120800Z 32006KT CAVOK 22/04 Q1016 NOSIG",
      "taf": "TAF HESH 120500Z 1206/1312 29008KT 6000 NSC"
    },
    {
      "icao": "HESX",
      "alert": "OK",
      "vis_m": 9999,
      "fzfg": false,
      "metar_trigger": false,
      "taf_trigger": false,
      "metar": "METAR HESX 120800Z 20007KT CAVOK 21/03 Q1016 NOSIG",
      "taf": "TAF HESX 120500Z 1206/1312 20010KT 7000 NSC"
    },
    {
      "icao": "LATI",
      "alert": "OK",
      "vis_m": 9999,
      "fzfg": false,
      "metar_trigger": false,
      "taf_trigger": false,
      "metar": "METAR LATI 120820Z 17009KT 9999 SCT032 BKN070 12/08 Q0995 NOSIG",
      "taf": "TAF LATI 120500Z 1206/1306 VRB05KT 9999 SCT035 BKN070 TX15/1212Z TN09/1304Z"
    },
    {
      "icao": "LBPD",
      "alert": "OK",
      "vis_m": 9999,
      "fzfg": false,
      "metar_trigger": false,
      "taf_trigger": false,
      "metar": "METAR LBPD 120800Z AUTO 30005KT 9999 -RA SCT015/// BKN025/// OVC037/// 03/03 Q0996 NOSIG",
      "taf": "TAF LBPD 120500Z 1206/1306 VRB04KT 9999 BKN010"
    },
    {
      "icao": "LBSF",
      "alert": "OK",
      "vis_m": 9999,
      "fzfg": false,
      "metar_trigger": false,
      "taf_trigger": false,
      "metar": "METAR LBSF 120800Z VRB02KT 9999 FEW082 02/M00 Q0995 NOSIG",
      "taf": "TAF LBSF 120500Z 1206/1306 VRB04KT 9999 BKN070"
    },
    {
      "icao": "LBWN",
      "alert": "OK",
      "vis_m": 7000,
      "fzfg": false,
      "metar_trigger": false,
      "taf_trigger": false,
      "metar": "METAR LBWN 120800Z 12008KT 7000 FEW012 08/07 Q0997 NOSIG",
      "taf": "TAF LBWN 120500Z 1206/1306 09008KT 9999 SCT020 BKN050"
    },
    {
      "icao": "LCLK",
      "alert": "OK",
      "vis_m": 9999,
      "fzfg": false,
      "metar_trigger": false,
      "taf_trigger": false,
      "metar": "METAR LCLK 120800Z 19011KT 9999 FEW020 SCT060 18/16 Q1011 NOSIG",
      "taf": "TAF LCLK 120530Z 1206/1306 23010KT 9999 FEW030"
    },
    {
      "icao": "LCPH",
      "alert": "OK",
      "vis_m": 9999,
      "fzfg": false,
      "metar_trigger": false,
      "taf_trigger": false,
      "metar": "METAR LCPH 120800Z 16009KT 9999 FEW030 BKN050 BKN080 19/15 Q1011 NOSIG",
      "taf": "TAF LCPH 120530Z 1206/1306 23009KT 9999 FEW025 SCT035"
    },
    {
      "icao": "LEAL",
      "alert": "OK",
      "vis_m": 9999,
      "fzfg": false,
      "metar_trigger": false,
      "taf_trigger": false,
      "metar": "METAR LEAL 120800Z 28026G38KT 260V320 CAVOK 18/02 Q1013 NOSIG",
      "taf": "TAF LEAL 120500Z 1206/1306 27015KT 9999 FEW030 TX23/1213Z TN12/1206Z"
    },
    {
      "icao": "LEBB",
      "alert": "OK",
      "vis_m": 9999,
      "fzfg": false,
      "metar_trigger": false,
      "taf_trigger": false,
      "metar": "METAR LEBB 120800Z 28015KT 9999 FEW055 13/04 Q1009 NOSIG",
      "taf": ""
    },
    {
      "icao": "LEBL",
      "alert": "OK",
      "vis_m": 9999,
      "fzfg": false,
      "metar_trigger": false,
      "taf_trigger": false,
      "metar": "METAR LEBL 120800Z 28031G47KT 250V320 9999 FEW020 16/01 Q0999 NOSIG",
      "taf": ""
    },
    {
      "icao": "LECH",
      "alert": "OK",
      "vis_m": 9999,
      "fzfg": false,
      "metar_trigger": false,
      "taf_trigger": false,
      "metar": "METAR LECH 120800Z AUTO 28020KT 240V310 CAVOK 14/M01 Q1009",
      "taf": ""
    },
    {
      "icao": "LEMD",
      "alert": "OK",
      "vis_m": 9999,
      "fzfg": false,
      "metar_trigger": false,
      "taf_trigger": false,
      "metar": "METAR LEMD 120800Z 26010G20KT CAVOK 09/02 Q1015 NOSIG",
      "taf": ""
    },
    {
      "icao": "LEMG",
      "alert": "OK",
      "vis_m": 9999,
      "fzfg": false,
      "metar_trigger": false,
      "taf_trigger": false,
      "metar": "METAR LEMG 120800Z 31008KT 9999 SCT050 16/12 Q1020 NOSIG",
      "taf": "TAF LEMG 120500Z 1206/1306 VRB03KT 9999 SCT050 TX23/1214Z TN11/1207Z"
    },
    {
      "icao": "LEVC",
      "alert": "OK",
      "vis_m": 9999,
      "fzfg": false,
      "metar_trigger": false,
      "taf_trigger": false,
      "metar": "METAR LEVC 120800Z 27018KT CAVOK 15/05 Q1012 NOSIG",
      "taf": "TAF LEVC 120500Z 1206/1306 27015KT 9999 FEW045 TX21/1214Z TN15/1206Z"
    },
    {
      "icao": "LEXJ",
      "alert": "OK",
      "vis_m": 9999,
      "fzfg": false,
      "metar_trigger": false,
      "taf_trigger": false,
      "metar": "METAR LEXJ 120800Z 28018KT 260V320 9999 FEW030 BKN060 13/04 Q1010",
      "taf": "TAF LEXJ 120800Z 1209/1309 28015KT 9999 FEW060 TX17/1213Z TN09/1309Z"
    },
    {
      "icao": "LEZG",
      "alert": "OK",
      "vis_m": 9999,
      "fzfg": false,
      "metar_trigger": false,
      "taf_trigger": false,
      "metar": "METAR LEZG 120800Z 31008KT CAVOK 11/03 Q1009 NOSIG",
      "taf": "TAF LEZG 120500Z 1206/1306 27015KT 9999 FEW050 TX17/1212Z TN10/1206Z"
    },
    {
      "icao": "LEZL",
      "alert": "OK",
      "vis_m": 9999,
      "fzfg": false,
      "metar_trigger": false,
      "taf_trigger": false,
      "metar": "METAR LEZL 120800Z 22004KT CAVOK 14/14 Q1022 NOSIG",
      "taf": "TAF LEZL 120800Z 1209/1309 27010KT 9999 FEW030 TX20/1215Z TN12/1307Z"
    },
    {
      "icao": "LFBD",
      "alert": "OK",
      "vis_m": 9999,
      "fzfg": false,
      "metar_trigger": false,
      "taf_trigger": false,
      "metar": "METAR LFBD 120800Z AUTO 28024G35KT 9999 -RA SCT027/// BKN032/// BKN039/// ///CB 12/08 Q1001 TEMPO 27020G45KT 1400 TSRA BKN014 BKN025CB",
      "taf": ""
    },
    {
      "icao": "LFLL",
      "alert": "OK",
      "vis_m": 9999,
      "fzfg": false,
      "metar_trigger": false,
      "taf_trigger": false,
      "metar": "METAR LFLL 120800Z 22006G17KT 160V290 9999 FEW030TCU BKN033 BKN150 11/06 Q0990 TEMPO 29015G25KT 4000 SHRA BKN035TCU",
      "taf": "TAF LFLL 120500Z 1206/1312 27012KT 9999 BKN040"
    },
    {
      "icao": "LFLS",
      "alert": "OK",
      "vis_m": 9999,
      "fzfg": false,
      "metar_trigger": false,
      "taf_trigger": false,
      "metar": "METAR LFLS 120800Z AUTO 25010KT 9999 SCT032 BKN039 BKN048 09/06 Q0991 TEMPO 26015G25KT RA SCT035TCU",
      "taf": "TAF LFLS 120800Z 1209/1309 20012KT 9999 BKN040"
    },
    {
      "icao": "LFMN",
      "alert": "OK",
      "vis_m": 9999,
      "fzfg": false,
      "metar_trigger": false,
      "taf_trigger": false,
      "metar": "METAR LFMN 120800Z VRB05KT 9999 FEW066 BKN230 13/06 Q0986 WS ALL RWY TEMPO 26025KT",
      "taf": "TAF LFMN 120800Z 1209/1315 26012KT CAVOK"
    },
    {
      "icao": "LFOB",
      "alert": "OK",
      "vis_m": 9999,
      "fzfg": false,
      "metar_trigger": false,
      "taf_trigger": false,
      "metar": "METAR LFOB 120800Z AUTO 27012KT 9999 BKN018 BKN026 BKN031 09/08 Q0983 TEMPO 28020G35KT 3000 SHRA BKN014TCU",
      "taf": "TAF LFOB 120500Z 1206/1306 28015G25KT 9999 BKN020"
    },
    {
      "icao": "LFPO",
      "alert": "OK",
      "vis_m": 9999,
      "fzfg": false,
      "metar_trigger": false,
      "taf_trigger": false,
      "metar": "METAR LFPO 120800Z 28015KT 9999 BKN020 10/07 Q0985 TEMPO 20015G35KT",
      "taf": ""
    },
    {
      "icao": "LFSB",
      "alert": "OK",
      "vis_m": 9999,
      "fzfg": false,
      "metar_trigger": false,
      "taf_trigger": false,
      "metar": "METAR LFSB 120800Z AUTO VRB02KT 9999 -RA FEW015/// BKN047/// BKN056/// ///CB 09/07 Q0981 TEMPO SHRA BECMG 24020G30KT",
      "taf": "TAF LFSB 120500Z 1206/1306 22010KT 9999 OVC045"
    },
    {
      "icao": "LGAV",
      "alert": "OK",
      "vis_m": 9999,
      "fzfg": false,
      "metar_trigger": false,
      "taf_trigger": false,
      "metar": "METAR LGAV 120820Z 26008KT 9999 FEW025 16/08 Q0996 NOSIG",
      "taf": "TAF LGAV 120500Z 1206/1306 21015KT 9999 SCT025 SCT070"
    },
    {
      "icao": "LGTS",
      "alert": "OK",
      "vis_m": 9999,
      "fzfg": false,
      "metar_trigger": false,
      "taf_trigger": false,
      "metar": "METAR LGTS 120820Z 30010KT 9999 FEW015 11/11 Q0994 NOSIG",
      "taf": "TAF LGTS 120500Z 1206/1306 34013KT 9999 FEW010 BKN030"
    },
    {
      "icao": "LHBP",
      "alert": "OK",
      "vis_m": 9000,
      "fzfg": false,
      "metar_trigger": false,
      "taf_trigger": false,
      "metar": "METAR LHBP 120800Z 14006KT 9000 FEW011 SCT049 07/06 Q0988 NOSIG",
      "taf": "TAF LHBP 120515Z 1206/1306 14005KT 9999 BKN030 BKN080"
    },
    {
      "icao": "LHDC",
      "alert": "OK",
      "vis_m": 9999,
      "fzfg": false,
      "metar_trigger": false,
      "taf_trigger": false,
      "metar": "METAR LHDC 120745Z AUTO 18010KT 150V210 9999 BKN046 BKN066 08/05 Q0991 NOSIG",
      "taf": "TAF LHDC 120815Z 1209/1218 18009KT 9999 SCT045"
    },
    {
      "icao": "LIBD",
      "alert": "OK",
      "vis_m": 9999,
      "fzfg": false,
      "metar_trigger": false,
      "taf_trigger": false,
      "metar": "METAR LIBD 120820Z 17004KT CAVOK 11/08 Q0992",
      "taf": "TAF LIBD 120500Z 1206/1306 21006KT 9999 FEW040"
    },
    {
      "icao": "LIBG",
      "alert": "OK",
      "vis_m": 9999,
      "fzfg": false,
      "metar_trigger": false,
      "taf_trigger": false,
      "metar": "METAR LIBG 120750Z VRB02KT CAVOK 09/09 Q0994",
      "taf": "TAF LIBG 120800Z 1209/1218 VRB04KT CAVOK"
    },
    {
      "icao": "LIBP",
      "alert": "OK",
      "vis_m": 9999,
      "fzfg": false,
      "metar_trigger": false,
      "taf_trigger": false,
      "metar": "METAR LIBP 120820Z AUTO 01003KT 340V060 9999 -RA OVC067/// 11/10 Q0988",
      "taf": "TAF LIBP 120500Z 1206/1306 24008KT 9999 FEW060"
    },
    {
      "icao": "LIBR",
      "alert": "OK",
      "vis_m": 9999,
      "fzfg": false,
      "metar_trigger": false,
      "taf_trigger": false,
      "metar": "METAR LIBR 120820Z 18007KT 9999 FEW045 11/09 Q0993",
      "taf": "TAF LIBR 120500Z 1206/1306 23006KT 9999 SCT030"
    },
    {
      "icao": "LICA",
      "alert": "OK",
      "vis_m": 9999,
      "fzfg": false,
      "metar_trigger": false,
      "taf_trigger": false,
      "metar": "METAR LICA 120820Z AUTO 22008KT 9999 -RA SCT011/// BKN037/// BKN052/// 14/13 Q0995",
      "taf": "TAF LICA 120500Z 1206/1306 26016KT 9999 BKN020"
    },
    {
      "icao": "LICC",
      "alert": "OK",
      "vis_m": 9000,
      "fzfg": false,
      "metar_trigger": false,
      "taf_trigger": false,
      "metar": "METAR LICC 120820Z 28010KT 9000 FEW020 BKN040 14/11 Q0997",
      "taf": "TAF LICC 120500Z 1206/1306 26016KT 9999 SCT030"
    },
    {
      "icao": "LICJ",
      "alert": "OK",
      "vis_m": 9999,
      "fzfg": false,
      "metar_trigger": false,
      "taf_trigger": false,
      "metar": "METAR LICJ 120820Z 25026KT 9999 -RA BKN025 17/14 Q0996",
      "taf": "TAF LICJ 120500Z 1206/1306 22018KT 9999 SCT020"
    },
    {
      "icao": "LIMC",
      "alert": "OK",
      "vis_m": 3000,
      "fzfg": false,
      "metar_trigger": false,
      "taf_trigger": false,
      "metar": "METAR LIMC 120820Z 01003KT 340V040 3000 BR OVC006 07/07 Q0987 NOSIG",
      "taf": "TAF LIMC 120500Z 1206/1312 VRB04KT 8000 SCT030"
    },
    {
      "icao": "LIME",
      "alert": "OK",
      "vis_m": 1200,
      "fzfg": false,
      "metar_trigger": false,
      "taf_trigger": false,
      "metar": "METAR LIME 120820Z 13003KT 100V190 1200 R28/P2000N -RA BR BKN003 07/07 Q0987 NOSIG",
      "taf": ""
    },
    {
      "icao": "LIMF",
      "alert": "OK",
      "vis_m": 6000,
      "fzfg": false,
      "metar_trigger": false,
      "taf_trigger": false,
      "metar": "METAR LIMF 120820Z VRB01KT 6000 BKN022 07/05 Q0987",
      "taf": "TAF LIMF 120500Z 1206/1306 VRB05KT 9999 SCT020"
    },
    {
      "icao": "LIMJ",
      "alert": "OK",
      "vis_m": 9999,
      "fzfg": false,
      "metar_trigger": false,
      "taf_trigger": false,
      "metar": "METAR LIMJ 120820Z 04011KT 9999 FEW016 SCT037 11/07 Q0985",
      "taf": "TAF LIMJ 120500Z 1206/1306 03010KT 9999 SCT016"
    },
    {
      "icao": "LIPE",
      "alert": "OK",
      "vis_m": 2000,
      "fzfg": false,
      "metar_trigger": false,
      "taf_trigger": false,
      "metar": "METAR LIPE 120820Z VRB01KT 2000 -RA BR BKN006 07/07 Q0986",
      "taf": "TAF LIPE 120500Z 1206/1306 VRB05KT 0300 FG BKN001"
    },
    {
      "icao": "LIPH",
      "alert": "OK",
      "vis_m": 1000,
      "fzfg": false,
      "metar_trigger": false,
      "taf_trigger": false,
      "metar": "METAR LIPH 120820Z 01005KT 1000 R07/1900U BR BKN002 08/08 Q0987",
      "taf": "TAF LIPH 120500Z 1206/1306 04006KT 3000 BR BKN050"
    },
    {
      "icao": "LIPQ",
      "alert": "OK",
      "vis_m": 2500,
      "fzfg": false,
      "metar_trigger": false,
      "taf_trigger": false,
      "metar": "METAR LIPQ 120820Z AUTO 03003KT 2500 -RA OVC008/// 09/09 Q0987",
      "taf": "TAF LIPQ 120500Z 1206/1306 VRB04KT 2000 BCFG BKN002"
    },
    {
      "icao": "LIPR",
      "alert": "OK",
      "vis_m": 9999,
      "fzfg": false,
      "metar_trigger": false,
      "taf_trigger": false,
      "metar": "METAR LIPR 120820Z 18005KT 9999 BKN060 13/08 Q0986",
      "taf": "TAF LIPR 120500Z 1206/1306 16006KT 8000 BKN050"
    },
    {
      "icao": "LIPX",
      "alert": "OK",
      "vis_m": 5000,
      "fzfg": false,
      "metar_trigger": false,
      "taf_trigger": false,
      "metar": "METAR LIPX 120820Z 36003KT 5000 BR BKN025 BKN060 08/07 Q0987",
      "taf": "TAF LIPX 120500Z 1206/1306 07006KT 1500 BR BKN010"
    },
    {
      "icao": "LIPY",
      "alert": "OK",
      "vis_m": 9999,
      "fzfg": false,
      "metar_trigger": false,
      "taf_trigger": false,
      "metar": "METAR LIPY 120820Z AUTO 18007KT 9999 RA OVC062/// 11/09 Q0988",
      "taf": "TAF LIPY 120500Z 1206/1306 16006KT 7000 BKN050"
    },
    {
      "icao": "LIPZ",
      "alert": "OK",
      "vis_m": 1500,
      "fzfg": false,
      "metar_trigger": false,
      "taf_trigger": false,
      "metar": "METAR LIPZ 120820Z 04007KT 1500 -RA BR OVC002 08/08 Q0987 NOSIG",
      "taf": "TAF LIPZ 120500Z 1206/1312 06006KT 6000 SCT050"
    },
    {
      "icao": "LIRF",
      "alert": "OK",
      "vis_m": 4000,
      "fzfg": false,
      "metar_trigger": false,
      "taf_trigger": false,
      "metar": "METAR LIRF 120820Z 35013KT 320V020 4000 RA FEW008 SCT020 11/10 Q0987 RESHRA NOSIG",
      "taf": "TAF LIRF 120500Z 1206/1312 16008KT 9999 FEW020"
    },
    {
      "icao": "LIRN",
      "alert": "OK",
      "vis_m": 5000,
      "fzfg": false,
      "metar_trigger": false,
      "taf_trigger": false,
      "metar": "METAR LIRN 120820Z 20012KT 170V230 5000 -DZ BR FEW020 BKN050 14/12 Q0990 NOSIG",
      "taf": "TAF LIRN 120500Z 1206/1306 25012KT 9999 SCT020"
    },
    {
      "icao": "LIRP",
      "alert": "OK",
      "vis_m": 9999,
      "fzfg": false,
      "metar_trigger": false,
      "taf_trigger": false,
      "metar": "METAR LIRP 120815Z 25011KT 9999 FEW027 BKN060 13/11 Q0985 NOSIG",
      "taf": "TAF LIRP 120500Z 1206/1306 10005KT 9999 SCT030 BKN040"
    },
    {
      "icao": "LIRZ",
      "alert": "OK",
      "vis_m": 9999,
      "fzfg": false,
      "metar_trigger": false,
      "taf_trigger": false,
      "metar": "METAR LIRZ 120820Z AUTO 14007KT 9999 -RA FEW016/// BKN054/// 10/09 Q0987",
      "taf": "TAF LIRZ 120500Z 1206/1306 19008KT 9999 BKN030"
    },
    {
      "icao": "LJLJ",
      "alert": "OK",
      "vis_m": 4000,
      "fzfg": false,
      "metar_trigger": false,
      "taf_trigger": false,
      "metar": "METAR LJLJ 120800Z 00000KT 4000 BR SCT003 BKN033 06/06 Q0987 NOSIG",
      "taf": "TAF LJLJ 120500Z 1206/1306 VRB02KT 0300 FG VV002"
    },
    {
      "icao": "LKMT",
      "alert": "OK",
      "vis_m": 9999,
      "fzfg": false,
      "metar_trigger": false,
      "taf_trigger": false,
      "metar": "METAR LKMT 120800Z 21009KT 9999 BKN031 BKN041 09/06 Q0985 NOSIG",
      "taf": "TAF LKMT 120500Z 1206/1306 22010KT 9999 BKN022"
    },
    {
      "icao": "LKPR",
      "alert": "OK",
      "vis_m": 9999,
      "fzfg": false,
      "metar_trigger": false,
      "taf_trigger": false,
      "metar": "METAR LKPR 120800Z 16007KT CAVOK 06/04 Q0982 NOSIG",
      "taf": "TAF LKPR 120800Z 1209/1315 19010KT 9999 SCT030"
    },
    {
      "icao": "LLBG",
      "alert": "OK",
      "vis_m": 9999,
      "fzfg": false,
      "metar_trigger": false,
      "taf_trigger": false,
      "metar": "METAR LLBG 120820Z 19012KT CAVOK 22/06 Q1016 NOSIG",
      "taf": "TAF LLBG 120504Z 1206/1306 16007KT CAVOK"
    },
    {
      "icao": "LMML",
      "alert": "OK",
      "vis_m": 9999,
      "fzfg": false,
      "metar_trigger": false,
      "taf_trigger": false,
      "metar": "METAR LMML 120815Z 25017KT 9999 BKN049 17/14 Q1002 TEMPO 9000 RA",
      "taf": "TAF LMML 120500Z 1206/1306 25015KT 9999 FEW020"
    },
    {
      "icao": "LOWW",
      "alert": "OK",
      "vis_m": 7000,
      "fzfg": false,
      "metar_trigger": false,
      "taf_trigger": false,
      "metar": "METAR LOWW 120820Z 13011KT 7000 FEW001 SCT002 BKN003 05/05 Q0984 TEMPO BKN005",
      "taf": "TAF LOWW 120815Z 1209/1315 14010KT 9999 FEW005 TX11/1312Z TN05/1209Z"
    },
    {
      "icao": "LPFR",
      "alert": "OK",
      "vis_m": 6000,
      "fzfg": false,
      "metar_trigger": false,
      "taf_trigger": false,
      "metar": "METAR LPFR 120800Z 27007KT 6000 SCT003 SCT012 15/14 Q1022",
      "taf": "TAF LPFR 120500Z 1206/1306 28007KT 9999 SCT025"
    },
    {
      "icao": "LPMA",
      "alert": "OK",
      "vis_m": 9999,
      "fzfg": false,
      "metar_trigger": false,
      "taf_trigger": false,
      "metar": "METAR LPMA 120800Z 24005KT 9999 SCT015 BKN030 17/11 Q1025",
      "taf": "TAF LPMA 120500Z 1206/1306 22008KT 9999 SCT015"
    },
    {
      "icao": "LPPR",
      "alert": "OK",
      "vis_m": 5000,
      "fzfg": false,
      "metar_trigger": false,
      "taf_trigger": false,
      "metar": "METAR LPPR 120800Z VRB02KT 5000 BR FEW020 11/09 Q1018",
      "taf": "TAF LPPR 120500Z 1206/1306 26005KT 9999 SCT015 SCT035"
    },
    {
      "icao": "LPPS",
      "alert": "OK",
      "vis_m": 9999,
      "fzfg": false,
      "metar_trigger": false,
      "taf_trigger": false,
      "metar": "METAR LPPS 120800Z 25004KT 9999 FEW014 BKN030 15/12 Q1025",
      "taf": "TAF LPPS 120500Z 1206/1312 VRB05KT 9999 SCT015"
    },
    {
      "icao": "LPPT",
      "alert": "OK",
      "vis_m": 8000,
      "fzfg": false,
      "metar_trigger": false,
      "taf_trigger": false,
      "metar": "METAR LPPT 120800Z 27006KT 8000 FEW012 13/12 Q1020",
      "taf": "TAF LPPT 120500Z 1206/1312 25008KT 9999 SCT025"
    },
    {
      "icao": "LQBK",
      "alert": "OK",
      "vis_m": 9999,
      "fzfg": false,
      "metar_trigger": false,
      "taf_trigger": false,
      "metar": "METAR LQBK 120800Z VRB02KT CAVOK 09/06 Q0989 NOSIG",
      "taf": "TAF LQBK 120500Z 1206/1306 15005KT 9999 SCT045 TX13/1213Z TN03/1206Z"
    },
    {
      "icao": "LQSA",
      "alert": "OK",
      "vis_m": 9999,
      "fzfg": false,
      "metar_trigger": false,
      "taf_trigger": false,
      "metar": "METAR LQSA 120800Z 16004KT 130V220 9999 FEW055 06/04 Q0991 NOSIG",
      "taf": "TAF LQSA 120500Z 1206/1306 11005KT 9999 SCT050 TX13/1213Z TN02/1206Z"
    },
    {
      "icao": "LQTZ",
      "alert": "OK",
      "vis_m": 9999,
      "fzfg": false,
      "metar_trigger": false,
      "taf_trigger": false,
      "metar": "METAR LQTZ 120800Z VRB02KT CAVOK 07/05 Q0990",
      "taf": "TAF LQTZ 120500Z 1206/1306 31005KT 9999 SCT060 TX17/1213Z TN00/1206Z"
    },
    {
      "icao": "LRBC",
      "alert": "CRITICAL",
      "vis_m": 100,
      "fzfg": true,
      "metar_trigger": true,
      "taf_trigger": false,
      "metar": "METAR LRBC 120800Z 18012KT 0100 R16/0450N FZFG VV002 M00/M00 Q0994",
      "taf": ""
    },
    {
      "icao": "LRBS",
      "alert": "OK",
      "vis_m": 9999,
      "fzfg": false,
      "metar_trigger": false,
      "taf_trigger": false,
      "metar": "METAR LRBS 120800Z 23005KT 200V270 CAVOK 04/01 Q0996 NOSIG",
      "taf": "TAF LRBS 120500Z 1206/1306 VRB04KT 3000 BR NSC"
    },
    {
      "icao": "LRBV",
      "alert": "OK",
      "vis_m": 9999,
      "fzfg": false,
      "metar_trigger": false,
      "taf_trigger": false,
      "metar": "METAR LRBV 120800Z 00000KT CAVOK 01/M01 Q0993",
      "taf": "TAF LRBV 120500Z 1206/1215 VRB04KT CAVOK"
    },
    {
      "icao": "LRCL",
      "alert": "OK",
      "vis_m": 9999,
      "fzfg": false,
      "metar_trigger": false,
      "taf_trigger": false,
      "metar": "METAR LRCL 120800Z 06006KT CAVOK 07/03 Q0991",
      "taf": "TAF LRCL 120500Z 1206/1215 VRB04KT CAVOK"
    },
    {
      "icao": "LRCV",
      "alert": "OK",
      "vis_m": 200,
      "fzfg": true,
      "metar_trigger": false,
      "taf_trigger": false,
      "metar": "METAR LRCV 120800Z 22003KT 180V240 0200 R26/0225N FZFG VV002 M00/M00 Q0995",
      "taf": "TAF LRCV 120500Z 1206/1215 VRB04KT 0150 FZFG VV001"
    },
    {
      "icao": "LRIA",
      "alert": "OK",
      "vis_m": 3500,
      "fzfg": true,
      "metar_trigger": false,
      "taf_trigger": false,
      "metar": "METAR LRIA 120800Z 09011KT 3500 1000NW R14/1500U PRFG BR BKN001 01/01 Q0994",
      "taf": "TAF LRIA 120500Z 1206/1215 10008KT 0300 FZFG OVC001"
    },
    {
      "icao": "LROP",
      "alert": "OK",
      "vis_m": 7000,
      "fzfg": false,
      "metar_trigger": false,
      "taf_trigger": false,
      "metar": "METAR LROP 120800Z 25005KT 7000 NSC 04/01 Q0996 NOSIG",
      "taf": "TAF LROP 120500Z 1206/1306 VRB04KT 3000 BR NSC"
    },
    {
      "icao": "LRSB",
      "alert": "OK",
      "vis_m": 9999,
      "fzfg": false,
      "metar_trigger": false,
      "taf_trigger": false,
      "metar": "METAR LRSB 120800Z VRB01KT 9999 SCT080 07/02 Q0992 NOSIG",
      "taf": "TAF LRSB 120500Z 1206/1306 VRB04KT CAVOK"
    },
    {
      "icao": "LRSM",
      "alert": "OK",
      "vis_m": 9999,
      "fzfg": false,
      "metar_trigger": false,
      "taf_trigger": false,
      "metar": "METAR LRSM 120800Z 17003KT 9999 BKN040 08/05 Q0991",
      "taf": "TAF LRSM 120500Z 1206/1215 13008KT 9999 BKN030"
    },
    {
      "icao": "LRSV",
      "alert": "OK",
      "vis_m": 9999,
      "fzfg": false,
      "metar_trigger": false,
      "taf_trigger": false,
      "metar": "METAR LRSV 120800Z 22008KT CAVOK 04/01 Q0991",
      "taf": "TAF LRSV 120500Z 1206/1215 21006KT CAVOK"
    },
    {
      "icao": "LRTM",
      "alert": "OK",
      "vis_m": 9999,
      "fzfg": false,
      "metar_trigger": false,
      "taf_trigger": false,
      "metar": "METAR LRTM 120800Z 07004KT 9999 SCT039 FEW045CB 06/02 Q0993",
      "taf": "TAF LRTM 120500Z 1206/1215 VRB04KT CAVOK"
    },
    {
      "icao": "LRTR",
      "alert": "OK",
      "vis_m": 9999,
      "fzfg": false,
      "metar_trigger": false,
      "taf_trigger": false,
      "metar": "METAR LRTR 120800Z 10007KT CAVOK 09/06 Q0991",
      "taf": "TAF LRTR 120500Z 1206/1306 08006KT CAVOK"
    },
    {
      "icao": "LTAC",
      "alert": "OK",
      "vis_m": 9000,
      "fzfg": false,
      "metar_trigger": false,
      "taf_trigger": false,
      "metar": "METAR LTAC 120820Z 32003KT 280V340 9000 SCT040 BKN100 05/02 Q1005 NOSIG",
      "taf": "TAF LTAC 120440Z 1206/1306 VRB02KT 9999 SCT040 BKN100"
    },
    {
      "icao": "LTFM",
      "alert": "OK",
      "vis_m": 9999,
      "fzfg": false,
      "metar_trigger": false,
      "taf_trigger": false,
      "metar": "METAR LTFM 120820Z 17008KT 9999 -SHRA SCT035 BKN090 11/06 Q0996 NOSIG",
      "taf": "TAF LTFM 120440Z 1206/1312 15012KT 9999 -SHRA BKN035 BKN080"
    },
    {
      "icao": "LUKK",
      "alert": "OK",
      "vis_m": 9999,
      "fzfg": false,
      "metar_trigger": false,
      "taf_trigger": false,
      "metar": "METAR LUKK 120800Z 17007KT 9999 OVC004 02/01 Q0996 NOSIG",
      "taf": "TAF LUKK 120510Z 1206/1306 17009KT 9999 OVC008"
    },
    {
      "icao": "LWOH",
      "alert": "OK",
      "vis_m": 9999,
      "fzfg": false,
      "metar_trigger": false,
      "taf_trigger": false,
      "metar": "METAR LWOH 120820Z VRB02KT 9999 SCT010 BKN020 07/05 Q0994",
      "taf": "TAF LWOH 120530Z 1206/1306 18008KT 9999 SCT020 BKN040"
    },
    {
      "icao": "LWSK",
      "alert": "OK",
      "vis_m": 4000,
      "fzfg": false,
      "metar_trigger": false,
      "taf_trigger": false,
      "metar": "METAR LWSK 120820Z COR VRB01KT 4000 BR SCT004 BKN023 08/06 Q0995 NOSIG",
      "taf": "TAF LWSK 120800Z 1209/1309 VRB03KT 9999 SCT025 SCT050"
    },
    {
      "icao": "LYBE",
      "alert": "OK",
      "vis_m": 9999,
      "fzfg": false,
      "metar_trigger": false,
      "taf_trigger": false,
      "metar": "METAR LYBE 120800Z 14006KT CAVOK 11/05 Q0991 NOSIG",
      "taf": "TAF LYBE 120500Z 1206/1306 12010KT CAVOK TX17/1213Z TN04/1306Z"
    },
    {
      "icao": "LYNI",
      "alert": "OK",
      "vis_m": 9999,
      "fzfg": false,
      "metar_trigger": false,
      "taf_trigger": false,
      "metar": "METAR LYNI 120800Z 11010KT 080V140 9999 FEW040 07/03 Q0994 NOSIG",
      "taf": "TAF LYNI 120500Z 1206/1306 12010KT 9999 SCT060 TX15/1212Z TN04/1206Z"
    },
    {
      "icao": "LYPG",
      "alert": "OK",
      "vis_m": 6000,
      "fzfg": false,
      "metar_trigger": false,
      "taf_trigger": false,
      "metar": "METAR LYPG 120800Z 27003KT 240V320 6000 FEW003 SCT020 BKN050 10/10 Q0994 NOSIG",
      "taf": ""
    },
    {
      "icao": "LZIB",
      "alert": "OK",
      "vis_m": 650,
      "fzfg": false,
      "metar_trigger": false,
      "taf_trigger": false,
      "metar": "METAR LZIB 120800Z 07008KT 0650 R31/0650D R22/1200D FG VV002 04/04 Q0986 BECMG 2500 BR BKN006",
      "taf": "TAF LZIB 120515Z 1206/1306 03003KT 0800 FG BKN003"
    },
    {
      "icao": "LZKZ",
      "alert": "OK",
      "vis_m": 200,
      "fzfg": false,
      "metar_trigger": false,
      "taf_trigger": false,
      "metar": "METAR LZKZ 120800Z 22005KT 0200 R01/0550N FG VV002 04/04 Q0989 NOSIG",
      "taf": ""
    },
    {
      "icao": "LZTT",
      "alert": "OK",
      "vis_m": 9999,
      "fzfg": false,
      "metar_trigger": false,
      "taf_trigger": false,
      "metar": "METAR LZTT 120800Z 23009KT 9999 SCT033 06/02 Q0986 NOSIG",
      "taf": "TAF LZTT 120515Z 1206/1306 24011KT 9999 BKN030"
    },
    {
      "icao": "OEJN",
      "alert": "OK",
      "vis_m": 9999,
      "fzfg": false,
      "metar_trigger": false,
      "taf_trigger": false,
      "metar": "METAR OEJN 120800Z 33006KT 9999 FEW035 28/19 Q1015 NOSIG",
      "taf": "TAF OEJN 120500Z 1206/1312 30010KT 9999 FEW040"
    },
    {
      "icao": "OEMA",
      "alert": "OK",
      "vis_m": 9999,
      "fzfg": false,
      "metar_trigger": false,
      "taf_trigger": false,
      "metar": "METAR OEMA 120800Z 04003KT CAVOK 26/07 Q1019 NOSIG",
      "taf": "TAF OEMA 120500Z 1206/1312 VRB03KT CAVOK"
    },
    {
      "icao": "OJAI",
      "alert": "OK",
      "vis_m": 5000,
      "fzfg": false,
      "metar_trigger": false,
      "taf_trigger": false,
      "metar": "METAR OJAI 120800Z 18008KT 5000 HZ NSC 14/03 Q1019 NOSIG",
      "taf": "TAF OJAI 120500Z 1206/1312 25012KT 5000 HZ FEW035"
    },
    {
      "icao": "OMAA",
      "alert": "OK",
      "vis_m": 9999,
      "fzfg": false,
      "metar_trigger": false,
      "taf_trigger": false,
      "metar": "METAR OMAA 120800Z 16008KT 080V240 CAVOK 28/15 Q1019 NOSIG",
      "taf": "TAF OMAA 120500Z 1206/1312 17010KT 8000 NSC"
    },
    {
      "icao": "OMDB",
      "alert": "OK",
      "vis_m": 9999,
      "fzfg": false,
      "metar_trigger": false,
      "taf_trigger": false,
      "metar": "METAR OMDB 120800Z 15006KT 110V200 CAVOK 30/12 Q1019 NOSIG",
      "taf": "TAF OMDB 120500Z 1206/1312 16008KT 8000 NSC"
    },
    {
      "icao": "UAAA",
      "alert": "OK",
      "vis_m": 9999,
      "fzfg": false,
      "metar_trigger": false,
      "taf_trigger": false,
      "metar": "METAR UAAA 120800Z 01003MPS 9999 SCT005 BKN019CB OVC100 M01/M03 Q1021 NOSIG RMK QBB160",
      "taf": "TAF UAAA 120507Z 1206/1306 35003MPS 6000 BKN011CB OVC020 TX00/1209Z TNM05/1303Z"
    },
    {
      "icao": "UBBB",
      "alert": "OK",
      "vis_m": 9999,
      "fzfg": false,
      "metar_trigger": false,
      "taf_trigger": false,
      "metar": "METAR UBBB 120800Z 25004KT 210V300 CAVOK 06/01 Q1015 NOSIG",
      "taf": "TAF UBBB 120504Z 1206/1306 16010KT 9999 SCT025 TX08/1210Z TN01/1301Z"
    },
    {
      "icao": "UDSG",
      "alert": "OK",
      "vis_m": 1900,
      "fzfg": false,
      "metar_trigger": false,
      "taf_trigger": false,
      "metar": "METAR UDSG 120800Z 22001KT 1900 SN BR OVC004 M01/M01 Q1014 NOSIG",
      "taf": "TAF UDSG 120458Z 1206/1306 VRB06KT 3000 BR OVC020"
    },
    {
      "icao": "UDYZ",
      "alert": "OK",
      "vis_m": 4200,
      "fzfg": false,
      "metar_trigger": false,
      "taf_trigger": false,
      "metar": "METAR UDYZ 120800Z 23004KT 4200 -SHRA BR SCT005 OVC030CB 03/02 Q1015 NOSIG",
      "taf": "TAF UDYZ 120500Z 1206/1306 VRB06KT 2300 BR OVC020"
    },
    {
      "icao": "UGKO",
      "alert": "OK",
      "vis_m": 9999,
      "fzfg": false,
      "metar_trigger": false,
      "taf_trigger": false,
      "metar": "METAR UGKO 120800Z 09017KT 9999 BKN029 10/02 Q1010 NOSIG",
      "taf": "TAF UGKO 120500Z 1206/1306 08015KT CAVOK TX17/1211Z TN09/1206Z"
    }
  ]
}