{
  "ts_utc": "2026-04-11T14:04:14Z",
  "threshold_m": 150,
  "source": "stations_override.txt (ICAO list) + aviationweather.gov (METAR/TAF raw)",
  "station_count": 159,
  "stations": [
    {
      "icao": "BIKF",
      "alert": "OK",
      "vis_m": 9999,
      "fzfg": false,
      "metar_trigger": false,
      "taf_trigger": false,
      "metar": "METAR BIKF 111400Z 02019KT 9999 FEW024 03/M03 Q1004",
      "taf": "TAF BIKF 111335Z 1115/1215 02025G37KT 9999 FEW017 SCT024 TX04/1213Z TN01/1203Z"
    },
    {
      "icao": "BKPR",
      "alert": "OK",
      "vis_m": 9999,
      "fzfg": false,
      "metar_trigger": false,
      "taf_trigger": false,
      "metar": "METAR BKPR 111400Z 32011KT 260V320 9999 BKN050 16/04 Q1016 NOSIG",
      "taf": "TAF BKPR 111130Z 1112/1212 01007KT 9999 SCT040"
    },
    {
      "icao": "EBCI",
      "alert": "OK",
      "vis_m": 6000,
      "fzfg": false,
      "metar_trigger": false,
      "taf_trigger": false,
      "metar": "METAR EBCI 111350Z 21009KT 6000 -SHRA SCT035 15/12 Q1008 TEMPO 21017G28KT 3500 MODSHRA SCT014TCU",
      "taf": "TAF EBCI 111106Z 1112/1218 17012KT 9999 FEW040"
    },
    {
      "icao": "EDDB",
      "alert": "OK",
      "vis_m": 9999,
      "fzfg": false,
      "metar_trigger": false,
      "taf_trigger": false,
      "metar": "METAR EDDB 111350Z AUTO 14008KT 110V170 CAVOK 14/M02 Q1017 NOSIG",
      "taf": "TAF EDDB 111100Z 1112/1212 12008KT CAVOK"
    },
    {
      "icao": "EDDH",
      "alert": "OK",
      "vis_m": 9999,
      "fzfg": false,
      "metar_trigger": false,
      "taf_trigger": false,
      "metar": "METAR EDDH 111350Z AUTO 14016KT 100V170 CAVOK 15/02 Q1014 TEMPO 16015G25KT",
      "taf": "TAF EDDH 111100Z 1112/1218 12012KT 9999 FEW040"
    },
    {
      "icao": "EDDK",
      "alert": "OK",
      "vis_m": 9999,
      "fzfg": false,
      "metar_trigger": false,
      "taf_trigger": false,
      "metar": "METAR EDDK 111350Z AUTO 13017KT 100V160 CAVOK 19/06 Q1008 TEMPO 14015G25KT",
      "taf": "TAF EDDK 111100Z 1112/1218 14013KT 9999 SCT020 BKN040"
    },
    {
      "icao": "EDDN",
      "alert": "OK",
      "vis_m": 9999,
      "fzfg": false,
      "metar_trigger": false,
      "taf_trigger": false,
      "metar": "METAR EDDN 111350Z AUTO 12009KT 080V160 CAVOK 16/03 Q1013 NOSIG",
      "taf": "TAF EDDN 111100Z 1112/1212 12009KT CAVOK"
    },
    {
      "icao": "EDDS",
      "alert": "OK",
      "vis_m": 9999,
      "fzfg": false,
      "metar_trigger": false,
      "taf_trigger": false,
      "metar": "METAR EDDS 111350Z AUTO VRB03KT CAVOK 20/07 Q1011 NOSIG",
      "taf": "TAF EDDS 111100Z 1112/1212 10005KT 9999 FEW040"
    },
    {
      "icao": "EDFH",
      "alert": "OK",
      "vis_m": 9999,
      "fzfg": false,
      "metar_trigger": false,
      "taf_trigger": false,
      "metar": "METAR EDFH 111350Z 13014KT CAVOK 16/07 Q1010",
      "taf": "TAF EDFH 111100Z 1112/1212 14010KT 9999 FEW040"
    },
    {
      "icao": "EDJA",
      "alert": "OK",
      "vis_m": 9999,
      "fzfg": false,
      "metar_trigger": false,
      "taf_trigger": false,
      "metar": "METAR EDJA 111350Z VRB02KT CAVOK 19/09 Q1012",
      "taf": "TAF EDJA 111100Z 1112/1121 VRB03KT CAVOK"
    },
    {
      "icao": "EDLW",
      "alert": "OK",
      "vis_m": 9999,
      "fzfg": false,
      "metar_trigger": false,
      "taf_trigger": false,
      "metar": "METAR EDLW 111350Z 15012KT 120V180 CAVOK 19/04 Q1008",
      "taf": "TAF EDLW 111100Z 1112/1212 15012KT 9999 SCT020 BKN040"
    },
    {
      "icao": "EDNY",
      "alert": "OK",
      "vis_m": 9999,
      "fzfg": false,
      "metar_trigger": false,
      "taf_trigger": false,
      "metar": "METAR EDNY 111350Z 23004KT 200V260 CAVOK 20/12 Q1012",
      "taf": "TAF EDNY 111100Z 1112/1121 25005KT CAVOK"
    },
    {
      "icao": "EDSB",
      "alert": "OK",
      "vis_m": 9999,
      "fzfg": false,
      "metar_trigger": false,
      "taf_trigger": false,
      "metar": "METAR EDSB 111350Z 36005KT 320V040 CAVOK 21/09 Q1010",
      "taf": "TAF EDSB 111100Z 1112/1212 34005KT 9999 FEW045"
    },
    {
      "icao": "EETN",
      "alert": "OK",
      "vis_m": 9999,
      "fzfg": false,
      "metar_trigger": false,
      "taf_trigger": false,
      "metar": "METAR EETN 111350Z 05011KT CAVOK 09/M07 Q1024 NOSIG",
      "taf": "TAF EETN 111130Z 1112/1212 05010KT CAVOK"
    },
    {
      "icao": "EFTU",
      "alert": "OK",
      "vis_m": 9999,
      "fzfg": false,
      "metar_trigger": false,
      "taf_trigger": false,
      "metar": "METAR EFTU 111350Z AUTO 09006KT 060V160 CAVOK 13/M11 Q1024",
      "taf": "TAF EFTU 111123Z 1112/1212 14007KT CAVOK"
    },
    {
      "icao": "EGBB",
      "alert": "OK",
      "vis_m": 9999,
      "fzfg": false,
      "metar_trigger": false,
      "taf_trigger": false,
      "metar": "METAR EGBB 111350Z 26011KT 210V280 9999 SCT041 10/00 Q1004",
      "taf": "TAF EGBB 111102Z 1112/1212 23013KT 9999 FEW045"
    },
    {
      "icao": "EGGP",
      "alert": "OK",
      "vis_m": 9999,
      "fzfg": false,
      "metar_trigger": false,
      "taf_trigger": false,
      "metar": "METAR EGGP 111350Z 18010KT 9999 VCSH FEW037 BKN044 08/04 Q1000",
      "taf": "TAF EGGP 111101Z 1112/1212 22015KT 9999 SCT030"
    },
    {
      "icao": "EGGW",
      "alert": "OK",
      "vis_m": 9999,
      "fzfg": false,
      "metar_trigger": false,
      "taf_trigger": false,
      "metar": "METAR EGGW 111350Z AUTO 24021G32KT 9999 NCD 12/M03 Q1005",
      "taf": "TAF EGGW 111054Z 1112/1212 28012KT 9999 SCT040"
    },
    {
      "icao": "EGKK",
      "alert": "OK",
      "vis_m": 9999,
      "fzfg": false,
      "metar_trigger": false,
      "taf_trigger": false,
      "metar": "METAR EGKK 111350Z 23016KT CAVOK 12/M00 Q1007",
      "taf": "TAF EGKK 111055Z 1112/1218 28013KT 9999 SCT030"
    },
    {
      "icao": "EGNM",
      "alert": "OK",
      "vis_m": 9999,
      "fzfg": false,
      "metar_trigger": false,
      "taf_trigger": false,
      "metar": "METAR EGNM 111350Z 20014KT 9999 VCSH SCT036 08/01 Q1000",
      "taf": ""
    },
    {
      "icao": "EGPD",
      "alert": "OK",
      "vis_m": 9999,
      "fzfg": false,
      "metar_trigger": false,
      "taf_trigger": false,
      "metar": "METAR EGPD 111350Z COR 16020KT 9999 FEW022 09/04 Q0994 NOSIG",
      "taf": "TAF EGPD 111058Z 1112/1212 16012KT 9999 SCT020"
    },
    {
      "icao": "EGPF",
      "alert": "OK",
      "vis_m": 9999,
      "fzfg": false,
      "metar_trigger": false,
      "taf_trigger": false,
      "metar": "METAR EGPF 111350Z AUTO 19018KT 160V220 9999 BKN036 OVC044 10/03 Q0993",
      "taf": "TAF EGPF 111053Z 1112/1212 18015G25KT 9999 SCT030"
    },
    {
      "icao": "EHBK",
      "alert": "OK",
      "vis_m": 9999,
      "fzfg": false,
      "metar_trigger": false,
      "taf_trigger": false,
      "metar": "METAR EHBK 111355Z AUTO 18012KT 150V210 9999 FEW047 21/08 Q1006 BECMG 22014KT TEMPO 6000 SHRA FEW040CB",
      "taf": "TAF EHBK 111101Z 1112/1218 17012KT CAVOK"
    },
    {
      "icao": "EHEH",
      "alert": "OK",
      "vis_m": 9999,
      "fzfg": false,
      "metar_trigger": false,
      "taf_trigger": false,
      "metar": "METAR EHEH 111355Z AUTO 15011KT 120V200 9999 -RA FEW064 BKN078 OVC086 21/06 Q1005 BLU TEMPO 23015G25KT 4000 SHRA SCT040CB RMK TREND REMOTE BY EHWX",
      "taf": "TAF EHEH 111120Z 1112/1218 13011KT CAVOK"
    },
    {
      "icao": "EKBI",
      "alert": "OK",
      "vis_m": 9999,
      "fzfg": false,
      "metar_trigger": false,
      "taf_trigger": false,
      "metar": "METAR EKBI 111350Z AUTO 13015KT 100V170 9999 NCD 11/M02 Q1015",
      "taf": "TAF EKBI 111127Z 1112/1212 13012KT 9999 FEW025"
    },
    {
      "icao": "EKCH",
      "alert": "OK",
      "vis_m": 9999,
      "fzfg": false,
      "metar_trigger": false,
      "taf_trigger": false,
      "metar": "METAR EKCH 111350Z AUTO 15012KT 9999 NCD 07/02 Q1020 NOSIG",
      "taf": "TAF EKCH 111127Z 1112/1212 12015KT 9999 SCT030"
    },
    {
      "icao": "ENAL",
      "alert": "OK",
      "vis_m": 9999,
      "fzfg": false,
      "metar_trigger": false,
      "taf_trigger": false,
      "metar": "METAR ENAL 111350Z 15006KT CAVOK 13/M03 Q1013",
      "taf": "TAF ENAL 111100Z 1112/1121 14008KT CAVOK"
    },
    {
      "icao": "ENBR",
      "alert": "OK",
      "vis_m": 9999,
      "fzfg": false,
      "metar_trigger": false,
      "taf_trigger": false,
      "metar": "METAR ENBR 111350Z 13016KT CAVOK 11/M05 Q1011 NOSIG RMK WIND 1200FT 13028KT",
      "taf": "TAF ENBR 111100Z 1112/1212 14015KT CAVOK"
    },
    {
      "icao": "ENGM",
      "alert": "OK",
      "vis_m": 9999,
      "fzfg": false,
      "metar_trigger": false,
      "taf_trigger": false,
      "metar": "METAR ENGM 111350Z 13007KT 090V160 CAVOK 10/M04 Q1020 NOSIG",
      "taf": "TAF ENGM 111100Z 1112/1212 16012KT 9999 SCT045"
    },
    {
      "icao": "ENHD",
      "alert": "OK",
      "vis_m": 9999,
      "fzfg": false,
      "metar_trigger": false,
      "taf_trigger": false,
      "metar": "METAR ENHD 111350Z 13024KT CAVOK 10/M00 Q1010",
      "taf": "TAF ENHD 111100Z 1112/1121 14022KT CAVOK"
    },
    {
      "icao": "ENTC",
      "alert": "OK",
      "vis_m": 9999,
      "fzfg": false,
      "metar_trigger": false,
      "taf_trigger": false,
      "metar": "METAR ENTC 111350Z 30003KT 260V340 CAVOK 10/M04 Q1022 NOSIG RMK WIND 2600FT VRB02KT",
      "taf": "TAF ENTC 111100Z 1112/1212 02006KT CAVOK"
    },
    {
      "icao": "ENTO",
      "alert": "OK",
      "vis_m": 9999,
      "fzfg": false,
      "metar_trigger": false,
      "taf_trigger": false,
      "metar": "METAR ENTO 111350Z 17007KT 9999 FEW027 SCT035 BKN046 07/01 Q1020 NOSIG",
      "taf": "TAF ENTO 111100Z 1112/1212 15005KT 9999 BKN020"
    },
    {
      "icao": "ENVA",
      "alert": "OK",
      "vis_m": 9999,
      "fzfg": false,
      "metar_trigger": false,
      "taf_trigger": false,
      "metar": "METAR ENVA 111350Z 14018KT 120V180 CAVOK 11/M03 Q1018 RMK WIND 670FT 15025G39KT",
      "taf": "TAF ENVA 111100Z 1112/1212 14015KT CAVOK"
    },
    {
      "icao": "ENZV",
      "alert": "OK",
      "vis_m": 9999,
      "fzfg": false,
      "metar_trigger": false,
      "taf_trigger": false,
      "metar": "METAR ENZV 111350Z 13021KT 9999 FEW036 09/M01 Q1011 NOSIG",
      "taf": "TAF ENZV 111100Z 1112/1212 14020KT 9999 SCT030"
    },
    {
      "icao": "EPGD",
      "alert": "OK",
      "vis_m": 9999,
      "fzfg": false,
      "metar_trigger": false,
      "taf_trigger": false,
      "metar": "METAR EPGD 111400Z 06010KT 030V090 9999 FEW040 08/M02 Q1020",
      "taf": "TAF EPGD 111130Z 1112/1212 07009KT CAVOK"
    },
    {
      "icao": "EPKK",
      "alert": "OK",
      "vis_m": 9999,
      "fzfg": false,
      "metar_trigger": false,
      "taf_trigger": false,
      "metar": "METAR EPKK 111400Z 10004KT 090V150 9999 BKN057 09/M06 Q1019",
      "taf": "TAF EPKK 111130Z 1112/1212 VRB02KT 9999 BKN055"
    },
    {
      "icao": "EPKT",
      "alert": "OK",
      "vis_m": 9999,
      "fzfg": false,
      "metar_trigger": false,
      "taf_trigger": false,
      "metar": "METAR EPKT 111400Z VRB04KT CAVOK 09/M07 Q1018",
      "taf": "TAF EPKT 111130Z 1112/1212 35005KT CAVOK"
    },
    {
      "icao": "EPLB",
      "alert": "OK",
      "vis_m": 9999,
      "fzfg": false,
      "metar_trigger": false,
      "taf_trigger": false,
      "metar": "METAR EPLB 111400Z 31007KT CAVOK 10/M03 Q1017",
      "taf": "TAF EPLB 111130Z 1112/1212 33005KT CAVOK"
    },
    {
      "icao": "EPMO",
      "alert": "OK",
      "vis_m": 9999,
      "fzfg": false,
      "metar_trigger": false,
      "taf_trigger": false,
      "metar": "METAR EPMO 111400Z VRB04KT CAVOK 12/M03 Q1018",
      "taf": "TAF EPMO 111130Z 1112/1212 34005KT CAVOK"
    },
    {
      "icao": "EPPO",
      "alert": "OK",
      "vis_m": 9999,
      "fzfg": false,
      "metar_trigger": false,
      "taf_trigger": false,
      "metar": "METAR EPPO 111400Z 17008KT 080V200 CAVOK 13/M05 Q1019",
      "taf": "TAF EPPO 111130Z 1112/1212 VRB04KT CAVOK"
    },
    {
      "icao": "EPRA",
      "alert": "OK",
      "vis_m": 9999,
      "fzfg": false,
      "metar_trigger": false,
      "taf_trigger": false,
      "metar": "METAR EPRA 111400Z 33006KT 290V030 CAVOK 09/M03 Q1018",
      "taf": "TAF EPRA 111130Z 1112/1121 35006KT CAVOK"
    },
    {
      "icao": "EPRZ",
      "alert": "OK",
      "vis_m": 9999,
      "fzfg": false,
      "metar_trigger": false,
      "taf_trigger": false,
      "metar": "METAR EPRZ 111400Z 28009KT CAVOK 09/M04 Q1018",
      "taf": "TAF EPRZ 111130Z 1112/1212 32010KT CAVOK"
    },
    {
      "icao": "EPSC",
      "alert": "OK",
      "vis_m": 9999,
      "fzfg": false,
      "metar_trigger": false,
      "taf_trigger": false,
      "metar": "METAR EPSC 111400Z VRB05KT CAVOK 13/M04 Q1018",
      "taf": "TAF EPSC 111130Z 1112/1212 14007KT CAVOK"
    },
    {
      "icao": "EPSY",
      "alert": "OK",
      "vis_m": 9999,
      "fzfg": false,
      "metar_trigger": false,
      "taf_trigger": false,
      "metar": "METAR EPSY 111400Z 03009KT 340V070 CAVOK 12/M05 Q1018",
      "taf": "TAF EPSY 111130Z 1112/1121 02008KT CAVOK"
    },
    {
      "icao": "EPWA",
      "alert": "OK",
      "vis_m": 9999,
      "fzfg": false,
      "metar_trigger": false,
      "taf_trigger": false,
      "metar": "METAR EPWA 111400Z 32007KT 290V030 CAVOK 11/M03 Q1018 NOSIG",
      "taf": "TAF EPWA 111130Z 1112/1212 34005KT CAVOK"
    },
    {
      "icao": "EPWR",
      "alert": "OK",
      "vis_m": 9999,
      "fzfg": false,
      "metar_trigger": false,
      "taf_trigger": false,
      "metar": "METAR EPWR 111400Z 06004KT 020V110 CAVOK 12/M06 Q1018",
      "taf": "TAF EPWR 111130Z 1112/1212 VRB04KT CAVOK"
    },
    {
      "icao": "ESGG",
      "alert": "OK",
      "vis_m": 9999,
      "fzfg": false,
      "metar_trigger": false,
      "taf_trigger": false,
      "metar": "METAR ESGG 111350Z 12005KT 070V180 9999 SCT044 09/M01 Q1019",
      "taf": "TAF ESGG 111130Z 1112/1212 13006KT 9999 BKN030"
    },
    {
      "icao": "ESKN",
      "alert": "OK",
      "vis_m": 9999,
      "fzfg": false,
      "metar_trigger": false,
      "taf_trigger": false,
      "metar": "METAR ESKN 111350Z 12009KT CAVOK 08/M04 Q1023",
      "taf": "TAF ESKN 111130Z 1112/1212 15009KT CAVOK"
    },
    {
      "icao": "ESMS",
      "alert": "OK",
      "vis_m": 9999,
      "fzfg": false,
      "metar_trigger": false,
      "taf_trigger": false,
      "metar": "METAR ESMS 111350Z 12012KT 090V150 CAVOK 09/M02 Q1020",
      "taf": "TAF ESMS 111127Z 1112/1212 14010KT 9999 SCT030"
    },
    {
      "icao": "ESSA",
      "alert": "OK",
      "vis_m": 9999,
      "fzfg": false,
      "metar_trigger": false,
      "taf_trigger": false,
      "metar": "METAR ESSA 111350Z 13008KT 090V170 CAVOK 10/M07 Q1023 NOSIG",
      "taf": "TAF ESSA 111130Z 1112/1212 14008KT CAVOK"
    },
    {
      "icao": "EYKA",
      "alert": "OK",
      "vis_m": 9999,
      "fzfg": false,
      "metar_trigger": false,
      "taf_trigger": false,
      "metar": "METAR EYKA 111350Z 36009KT 330V040 9999 SCT049 11/M01 Q1018",
      "taf": "TAF EYKA 111105Z 1112/1212 03014KT 9000 BKN035"
    },
    {
      "icao": "EYPA",
      "alert": "OK",
      "vis_m": 9999,
      "fzfg": false,
      "metar_trigger": false,
      "taf_trigger": false,
      "metar": "METAR EYPA 111350Z 36007KT 310V030 CAVOK 09/M06 Q1020",
      "taf": "TAF EYPA 111105Z 1112/1212 VRB04KT 9000 NSC"
    },
    {
      "icao": "EYVI",
      "alert": "OK",
      "vis_m": 9999,
      "fzfg": false,
      "metar_trigger": false,
      "taf_trigger": false,
      "metar": "METAR EYVI 111350Z 05010KT 9999 FEW042 08/M01 Q1018 NOSIG",
      "taf": "TAF EYVI 111110Z 1112/1212 04010KT 9000 BKN035"
    },
    {
      "icao": "GCFV",
      "alert": "OK",
      "vis_m": 9999,
      "fzfg": false,
      "metar_trigger": false,
      "taf_trigger": false,
      "metar": "METAR GCFV 111330Z 34017KT 9999 FEW020 SCT035 BKN045 21/13 Q1020",
      "taf": "TAF GCFV 110800Z 1109/1209 35014KT 9999 BKN025 TX21/1114Z TN17/1206Z"
    },
    {
      "icao": "GCLP",
      "alert": "OK",
      "vis_m": 9999,
      "fzfg": false,
      "metar_trigger": false,
      "taf_trigger": false,
      "metar": "METAR GCLP 111330Z 36023KT 9999 FEW030 SCT038 22/11 Q1021 NOSIG",
      "taf": "TAF GCLP 110800Z 1109/1209 35022KT 9999 BKN030 TX22/1114Z TN16/1206Z"
    },
    {
      "icao": "GCTS",
      "alert": "OK",
      "vis_m": 9999,
      "fzfg": false,
      "metar_trigger": false,
      "taf_trigger": false,
      "metar": "METAR GCTS 111330Z 24013KT 200V260 9999 BKN030 21/14 Q1021 NOSIG",
      "taf": "TAF GCTS 110800Z 1109/1209 VRB08KT 9999 SCT030 TX22/1114Z TN15/1206Z"
    },
    {
      "icao": "GMAD",
      "alert": "OK",
      "vis_m": 8000,
      "fzfg": false,
      "metar_trigger": false,
      "taf_trigger": false,
      "metar": "METAR GMAD 111400Z 25019KT 8000 FEW020 22/11 Q1014 NOSIG",
      "taf": "TAF GMAD 111100Z 1112/1218 27012KT 8000 SCT020"
    },
    {
      "icao": "GMMN",
      "alert": "OK",
      "vis_m": 9999,
      "fzfg": false,
      "metar_trigger": false,
      "taf_trigger": false,
      "metar": "METAR GMMN 111400Z 30015KT 270V330 9999 BKN030 19/12 Q1015 NOSIG",
      "taf": "TAF GMMN 111100Z 1112/1218 28010KT 9999 BKN020"
    },
    {
      "icao": "GMMX",
      "alert": "OK",
      "vis_m": 9999,
      "fzfg": false,
      "metar_trigger": false,
      "taf_trigger": false,
      "metar": "METAR GMMX 111400Z 29004KT 190V350 9999 SCT026 SCT080 17/11 Q1016 NOSIG",
      "taf": "TAF GMMX 111100Z 1112/1218 06008KT 8000 SCT026 SCT080"
    },
    {
      "icao": "HEGN",
      "alert": "OK",
      "vis_m": 9999,
      "fzfg": false,
      "metar_trigger": false,
      "taf_trigger": false,
      "metar": "METAR HEGN 111300Z 01012KT CAVOK 27/06 Q1014 NOSIG",
      "taf": "TAF HEGN 111100Z 1112/1218 01015KT CAVOK"
    },
    {
      "icao": "HEMA",
      "alert": "OK",
      "vis_m": 9999,
      "fzfg": false,
      "metar_trigger": false,
      "taf_trigger": false,
      "metar": "METAR HEMA 111300Z 34018KT CAVOK 26/07 Q1014 NOSIG",
      "taf": "TAF HEMA 111100Z 1112/1218 01010G20KT CAVOK"
    },
    {
      "icao": "HESH",
      "alert": "OK",
      "vis_m": 9999,
      "fzfg": false,
      "metar_trigger": false,
      "taf_trigger": false,
      "metar": "METAR HESH 111300Z 07005KT CAVOK 28/05 Q1014 NOSIG",
      "taf": "TAF HESH 111100Z 1112/1218 11010KT CAVOK"
    },
    {
      "icao": "HESX",
      "alert": "OK",
      "vis_m": 9999,
      "fzfg": false,
      "metar_trigger": false,
      "taf_trigger": false,
      "metar": "METAR HESX 111300Z 33002KT CAVOK 24/08 Q1017 NOSIG",
      "taf": "TAF HESX 111100Z 1112/1218 30009KT CAVOK"
    },
    {
      "icao": "LATI",
      "alert": "OK",
      "vis_m": 9999,
      "fzfg": false,
      "metar_trigger": false,
      "taf_trigger": false,
      "metar": "METAR LATI 111350Z 28008KT 260V320 CAVOK 20/M00 Q1015 NOSIG",
      "taf": "TAF LATI 111100Z 1112/1212 29010KT CAVOK TX25/1212Z TN07/1204Z"
    },
    {
      "icao": "LBPD",
      "alert": "OK",
      "vis_m": 9999,
      "fzfg": false,
      "metar_trigger": false,
      "taf_trigger": false,
      "metar": "METAR LBPD 111400Z AUTO VRB02KT 9999 FEW041/// OVC056/// 09/04 Q1018 NOSIG",
      "taf": "TAF LBPD 111100Z 1112/1212 VRB04KT 9999 BKN060"
    },
    {
      "icao": "LBSF",
      "alert": "OK",
      "vis_m": 9999,
      "fzfg": false,
      "metar_trigger": false,
      "taf_trigger": false,
      "metar": "METAR LBSF 111400Z VRB03KT 9999 SCT028 OVC078 09/04 Q1017 NOSIG",
      "taf": "TAF LBSF 111100Z 1112/1212 29012KT 9999 BKN025"
    },
    {
      "icao": "LBWN",
      "alert": "OK",
      "vis_m": 9999,
      "fzfg": false,
      "metar_trigger": false,
      "taf_trigger": false,
      "metar": "METAR LBWN 111400Z 14011KT 9999 SCT026 10/03 Q1018 TEMPO 5000 RA",
      "taf": "TAF LBWN 111100Z 1112/1212 11012KT 9999 SCT030 SCT045"
    },
    {
      "icao": "LCLK",
      "alert": "OK",
      "vis_m": 9999,
      "fzfg": false,
      "metar_trigger": false,
      "taf_trigger": false,
      "metar": "METAR LCLK 111400Z 22011KT 9999 FEW040 SCT050 19/13 Q1013 NOSIG",
      "taf": "TAF LCLK 111130Z 1112/1212 22018KT 9999 FEW030"
    },
    {
      "icao": "LCPH",
      "alert": "OK",
      "vis_m": 9999,
      "fzfg": false,
      "metar_trigger": false,
      "taf_trigger": false,
      "metar": "METAR LCPH 111400Z 31014KT 250V320 9999 FEW025 19/10 Q1015 NOSIG",
      "taf": "TAF LCPH 111130Z 1112/1212 29015KT 9999 FEW025"
    },
    {
      "icao": "LEAL",
      "alert": "OK",
      "vis_m": 9999,
      "fzfg": false,
      "metar_trigger": false,
      "taf_trigger": false,
      "metar": "METAR LEAL 111330Z 18005KT 100V210 CAVOK 22/09 Q1008 NOSIG",
      "taf": "TAF LEAL 111100Z 1112/1212 VRB05KT CAVOK TX24/1113Z TN12/1206Z"
    },
    {
      "icao": "LEBB",
      "alert": "OK",
      "vis_m": 9000,
      "fzfg": false,
      "metar_trigger": false,
      "taf_trigger": false,
      "metar": "METAR LEBB 111330Z 31007KT 280V350 9000 -RA BKN022 BKN029 OVC038 11/09 Q1020 TEMPO 3000 RA BKN010",
      "taf": "TAF LEBB 111100Z 1112/1212 30009KT 9999 BKN020 TX13/1112Z TN09/1206Z"
    },
    {
      "icao": "LEBL",
      "alert": "OK",
      "vis_m": 9999,
      "fzfg": false,
      "metar_trigger": false,
      "taf_trigger": false,
      "metar": "METAR LEBL 111330Z 15007KT 130V190 CAVOK 22/09 Q1010 NOSIG",
      "taf": "TAF LEBL 111100Z 1112/1212 16008KT CAVOK TX23/1112Z TN11/1206Z"
    },
    {
      "icao": "LECH",
      "alert": "OK",
      "vis_m": 9999,
      "fzfg": false,
      "metar_trigger": false,
      "taf_trigger": false,
      "metar": "METAR LECH 111330Z AUTO 10005KT 030V160 CAVOK 23/M01 Q1011",
      "taf": "TAF LECH 111100Z 1112/1212 VRB04KT CAVOK TX26/1114Z TN08/1206Z"
    },
    {
      "icao": "LEMD",
      "alert": "OK",
      "vis_m": 9999,
      "fzfg": false,
      "metar_trigger": false,
      "taf_trigger": false,
      "metar": "METAR LEMD 111330Z 00000KT 9999 FEW080 22/06 Q1011 NOSIG",
      "taf": "TAF LEMD 111100Z 1112/1218 VRB04KT CAVOK TX25/1115Z TN05/1206Z"
    },
    {
      "icao": "LEMG",
      "alert": "OK",
      "vis_m": 9999,
      "fzfg": false,
      "metar_trigger": false,
      "taf_trigger": false,
      "metar": "METAR LEMG 111330Z 11007KT 050V140 9999 SCT040 21/14 Q1009 NOSIG",
      "taf": "TAF LEMG 111100Z 1112/1212 30009KT 9999 FEW040 TX22/1114Z TN14/1206Z"
    },
    {
      "icao": "LEVC",
      "alert": "OK",
      "vis_m": 9999,
      "fzfg": false,
      "metar_trigger": false,
      "taf_trigger": false,
      "metar": "METAR LEVC 111330Z 08008KT 030V140 CAVOK 23/04 Q1010 NOSIG",
      "taf": "TAF LEVC 111100Z 1112/1212 08009KT CAVOK TX23/1113Z TN11/1206Z"
    },
    {
      "icao": "LEXJ",
      "alert": "OK",
      "vis_m": 9999,
      "fzfg": false,
      "metar_trigger": false,
      "taf_trigger": false,
      "metar": "METAR LEXJ 111330Z 29006KT 270V340 9999 BKN035 OVC042 11/07 Q1020",
      "taf": ""
    },
    {
      "icao": "LEZG",
      "alert": "OK",
      "vis_m": 9999,
      "fzfg": false,
      "metar_trigger": false,
      "taf_trigger": false,
      "metar": "METAR LEZG 111330Z 31018KT 280V340 CAVOK 21/10 Q1012 NOSIG",
      "taf": "TAF LEZG 111100Z 1112/1212 11007KT CAVOK TX27/1113Z TN07/1206Z"
    },
    {
      "icao": "LEZL",
      "alert": "OK",
      "vis_m": 9999,
      "fzfg": false,
      "metar_trigger": false,
      "taf_trigger": false,
      "metar": "METAR LEZL 111330Z 21004KT 130V280 9999 FEW026 21/15 Q1011 NOSIG",
      "taf": "TAF LEZL 110800Z 1109/1209 24008KT 9999 FEW030 TX25/1114Z TN12/1206Z"
    },
    {
      "icao": "LFBD",
      "alert": "OK",
      "vis_m": 9999,
      "fzfg": false,
      "metar_trigger": false,
      "taf_trigger": false,
      "metar": "METAR LFBD 111400Z AUTO 34013KT 9999 -RA BKN012/// BKN021/// BKN036/// ///CB 11/09 Q1017 TEMPO 4000 RA BKN008 BKN040TCU",
      "taf": ""
    },
    {
      "icao": "LFLL",
      "alert": "OK",
      "vis_m": 9999,
      "fzfg": false,
      "metar_trigger": false,
      "taf_trigger": false,
      "metar": "METAR LFLL 111400Z 21004KT 9999 VCSH FEW100TCU BKN110 24/10 Q1011 TEMPO VRB15G30KT -SHRA SCT090TCU",
      "taf": "TAF LFLL 111100Z 1112/1218 18010KT CAVOK"
    },
    {
      "icao": "LFLS",
      "alert": "OK",
      "vis_m": 9999,
      "fzfg": false,
      "metar_trigger": false,
      "taf_trigger": false,
      "metar": "METAR LFLS 111400Z AUTO 24006KT 200V280 CAVOK 23/08 Q1012 TEMPO VRB15G35KT 4000 TSRAGS BKN040 BKN080CB",
      "taf": "TAF LFLS 110800Z 1109/1209 20006KT CAVOK"
    },
    {
      "icao": "LFMN",
      "alert": "OK",
      "vis_m": 9999,
      "fzfg": false,
      "metar_trigger": false,
      "taf_trigger": false,
      "metar": "METAR LFMN 111400Z 12005KT CAVOK 19/14 Q1014 NOSIG",
      "taf": "TAF LFMN 110800Z 1109/1215 VRB05KT 9999 BKN020"
    },
    {
      "icao": "LFOB",
      "alert": "OK",
      "vis_m": 9999,
      "fzfg": false,
      "metar_trigger": false,
      "taf_trigger": false,
      "metar": "METAR LFOB 111400Z AUTO 30012KT 9999 FEW010 SCT017 OVC034 09/07 Q1011 TEMPO 4000 -SHRA BECMG 26015G25KT",
      "taf": ""
    },
    {
      "icao": "LFPO",
      "alert": "OK",
      "vis_m": 9999,
      "fzfg": false,
      "metar_trigger": false,
      "taf_trigger": false,
      "metar": "METAR LFPO 111400Z 30016KT 9999 BKN023 OVC093 15/09 Q1010 TEMPO -RA BKN015",
      "taf": "TAF LFPO 111100Z 1112/1218 24012KT 9999 SCT025"
    },
    {
      "icao": "LFSB",
      "alert": "OK",
      "vis_m": 9999,
      "fzfg": false,
      "metar_trigger": false,
      "taf_trigger": false,
      "metar": "METAR LFSB 111400Z AUTO 36004KT 320V060 CAVOK 25/09 Q1010 TEMPO 29015G25KT SHRA SCT060CB",
      "taf": "TAF LFSB 111100Z 1112/1212 26005KT CAVOK"
    },
    {
      "icao": "LGAV",
      "alert": "OK",
      "vis_m": 9999,
      "fzfg": false,
      "metar_trigger": false,
      "taf_trigger": false,
      "metar": "METAR LGAV 111350Z 08005KT 9999 BKN030 15/09 Q1017 NOSIG",
      "taf": "TAF LGAV 111100Z 1112/1212 10010KT 9999 SCT025 SCT070"
    },
    {
      "icao": "LGTS",
      "alert": "OK",
      "vis_m": 9999,
      "fzfg": false,
      "metar_trigger": false,
      "taf_trigger": false,
      "metar": "METAR LGTS 111350Z 30004KT 9999 FEW020 BKN035 14/08 Q1018 NOSIG",
      "taf": "TAF LGTS 111100Z 1112/1212 15013KT 9999 SCT025"
    },
    {
      "icao": "LHBP",
      "alert": "OK",
      "vis_m": 9999,
      "fzfg": false,
      "metar_trigger": false,
      "taf_trigger": false,
      "metar": "METAR LHBP 111400Z 34004KT 260V040 CAVOK 13/M04 Q1016 NOSIG",
      "taf": "TAF LHBP 111115Z 1112/1212 VRB03KT CAVOK"
    },
    {
      "icao": "LHDC",
      "alert": "OK",
      "vis_m": 9999,
      "fzfg": false,
      "metar_trigger": false,
      "taf_trigger": false,
      "metar": "METAR LHDC 111345Z AUTO 31005KT 230V360 CAVOK 13/M04 Q1017 NOSIG",
      "taf": "TAF LHDC 111115Z 1112/1121 VRB05KT CAVOK"
    },
    {
      "icao": "LIBD",
      "alert": "OK",
      "vis_m": 9999,
      "fzfg": false,
      "metar_trigger": false,
      "taf_trigger": false,
      "metar": "METAR LIBD 111350Z 07006KT 010V110 CAVOK 18/12 Q1014",
      "taf": "TAF LIBD 111100Z 1112/1212 07010KT 9999 FEW040"
    },
    {
      "icao": "LIBG",
      "alert": "OK",
      "vis_m": 9999,
      "fzfg": false,
      "metar_trigger": false,
      "taf_trigger": false,
      "metar": "METAR LIBG 111250Z 12004KT 040V210 CAVOK 23/14 Q1014",
      "taf": "TAF LIBG 111100Z 1112/1121 20008KT CAVOK"
    },
    {
      "icao": "LIBP",
      "alert": "OK",
      "vis_m": 9999,
      "fzfg": false,
      "metar_trigger": false,
      "taf_trigger": false,
      "metar": "METAR LIBP 111350Z AUTO 06010KT 9999 NCD 19/14 Q1013",
      "taf": "TAF LIBP 111100Z 1112/1212 09010KT 9999 FEW030"
    },
    {
      "icao": "LIBR",
      "alert": "OK",
      "vis_m": 9999,
      "fzfg": false,
      "metar_trigger": false,
      "taf_trigger": false,
      "metar": "METAR LIBR 111350Z 11008KT 9999 FEW030 19/15 Q1014",
      "taf": "TAF LIBR 111100Z 1112/1212 08010KT 8000 FEW030"
    },
    {
      "icao": "LICA",
      "alert": "OK",
      "vis_m": 9999,
      "fzfg": false,
      "metar_trigger": false,
      "taf_trigger": false,
      "metar": "METAR LICA 111350Z AUTO 24010KT 9999 NCD 21/09 Q1014",
      "taf": "TAF LICA 111100Z 1112/1212 28012KT CAVOK"
    },
    {
      "icao": "LICC",
      "alert": "OK",
      "vis_m": 9999,
      "fzfg": false,
      "metar_trigger": false,
      "taf_trigger": false,
      "metar": "METAR LICC 111350Z 09007KT 070V130 CAVOK 24/16 Q1013",
      "taf": "TAF LICC 111100Z 1112/1212 10012KT CAVOK"
    },
    {
      "icao": "LICJ",
      "alert": "OK",
      "vis_m": 9999,
      "fzfg": false,
      "metar_trigger": false,
      "taf_trigger": false,
      "metar": "METAR LICJ 111350Z 31004KT 250V050 CAVOK 20/12 Q1013",
      "taf": "TAF LICJ 111100Z 1112/1212 28010KT CAVOK"
    },
    {
      "icao": "LIMC",
      "alert": "OK",
      "vis_m": 9999,
      "fzfg": false,
      "metar_trigger": false,
      "taf_trigger": false,
      "metar": "METAR LIMC 111350Z 21004KT 130V240 CAVOK 21/04 Q1014 NOSIG",
      "taf": "TAF LIMC 111100Z 1112/1218 VRB05KT 9999 SCT045"
    },
    {
      "icao": "LIME",
      "alert": "OK",
      "vis_m": 9999,
      "fzfg": false,
      "metar_trigger": false,
      "taf_trigger": false,
      "metar": "METAR LIME 111350Z 19004KT 130V230 CAVOK 20/05 Q1014 NOSIG",
      "taf": "TAF LIME 111100Z 1112/1212 VRB05KT 9999 SCT040"
    },
    {
      "icao": "LIMF",
      "alert": "OK",
      "vis_m": 9999,
      "fzfg": false,
      "metar_trigger": false,
      "taf_trigger": false,
      "metar": "METAR LIMF 111350Z VRB03KT CAVOK 20/08 Q1014",
      "taf": "TAF LIMF 111100Z 1112/1212 VRB05KT 9999 SCT025"
    },
    {
      "icao": "LIMJ",
      "alert": "OK",
      "vis_m": 9999,
      "fzfg": false,
      "metar_trigger": false,
      "taf_trigger": false,
      "metar": "METAR LIMJ 111350Z 16004KT CAVOK 17/14 Q1014",
      "taf": "TAF LIMJ 111100Z 1112/1212 VRB05KT 9999 FEW030"
    },
    {
      "icao": "LIPE",
      "alert": "OK",
      "vis_m": 9999,
      "fzfg": false,
      "metar_trigger": false,
      "taf_trigger": false,
      "metar": "METAR LIPE 111350Z 01003KT 290V090 9999 SCT030 19/12 Q1014",
      "taf": "TAF LIPE 111100Z 1112/1212 VRB04KT 7000 SCT020"
    },
    {
      "icao": "LIPH",
      "alert": "OK",
      "vis_m": 9999,
      "fzfg": false,
      "metar_trigger": false,
      "taf_trigger": false,
      "metar": "METAR LIPH 111350Z VRB03KT CAVOK 21/06 Q1014",
      "taf": "TAF LIPH 111100Z 1112/1212 VRB05KT 9999 FEW060"
    },
    {
      "icao": "LIPQ",
      "alert": "OK",
      "vis_m": 9999,
      "fzfg": false,
      "metar_trigger": false,
      "taf_trigger": false,
      "metar": "METAR LIPQ 111350Z AUTO 24008KT 210V270 9999 NCD 21/03 Q1015",
      "taf": "TAF LIPQ 111100Z 1112/1212 22010KT 9999 FEW060"
    },
    {
      "icao": "LIPR",
      "alert": "OK",
      "vis_m": 9999,
      "fzfg": false,
      "metar_trigger": false,
      "taf_trigger": false,
      "metar": "METAR LIPR 111350Z 05005KT 360V080 9999 FEW010 16/13 Q1014",
      "taf": "TAF LIPR 111100Z 1112/1212 05010KT 8000 SCT014"
    },
    {
      "icao": "LIPX",
      "alert": "OK",
      "vis_m": 9999,
      "fzfg": false,
      "metar_trigger": false,
      "taf_trigger": false,
      "metar": "METAR LIPX 111350Z VRB03KT CAVOK 21/05 Q1014",
      "taf": "TAF LIPX 111100Z 1112/1212 11010KT CAVOK"
    },
    {
      "icao": "LIPY",
      "alert": "OK",
      "vis_m": 9999,
      "fzfg": false,
      "metar_trigger": false,
      "taf_trigger": false,
      "metar": "METAR LIPY 111350Z AUTO 07008KT 040V110 9999 NCD 19/14 Q1013",
      "taf": "TAF LIPY 111100Z 1112/1212 10012KT 9999 FEW030"
    },
    {
      "icao": "LIPZ",
      "alert": "OK",
      "vis_m": 9999,
      "fzfg": false,
      "metar_trigger": false,
      "taf_trigger": false,
      "metar": "METAR LIPZ 111350Z 15009KT CAVOK 18/07 Q1015 NOSIG",
      "taf": "TAF LIPZ 111100Z 1112/1218 15010KT CAVOK"
    },
    {
      "icao": "LIRF",
      "alert": "OK",
      "vis_m": 9999,
      "fzfg": false,
      "metar_trigger": false,
      "taf_trigger": false,
      "metar": "METAR LIRF 111350Z 24010KT CAVOK 19/15 Q1014 NOSIG",
      "taf": "TAF LIRF 111100Z 1112/1218 23010KT CAVOK"
    },
    {
      "icao": "LIRN",
      "alert": "OK",
      "vis_m": 9999,
      "fzfg": false,
      "metar_trigger": false,
      "taf_trigger": false,
      "metar": "METAR LIRN 111350Z AUTO 19007KT 150V230 9999 NCD 21/10 Q1014",
      "taf": "TAF LIRN 111100Z 1112/1212 23010KT CAVOK"
    },
    {
      "icao": "LIRP",
      "alert": "OK",
      "vis_m": 9999,
      "fzfg": false,
      "metar_trigger": false,
      "taf_trigger": false,
      "metar": "METAR LIRP 111345Z 26007KT 9999 FEW030 20/13 Q1014 NOSIG",
      "taf": "TAF LIRP 111100Z 1112/1212 27005KT 9999 SCT030"
    },
    {
      "icao": "LIRZ",
      "alert": "OK",
      "vis_m": 9999,
      "fzfg": false,
      "metar_trigger": false,
      "taf_trigger": false,
      "metar": "METAR LIRZ 111350Z AUTO 24007KT 210V270 9999 NCD 24/10 Q1012",
      "taf": "TAF LIRZ 111100Z 1112/1212 VRB05KT CAVOK"
    },
    {
      "icao": "LJLJ",
      "alert": "OK",
      "vis_m": 9999,
      "fzfg": false,
      "metar_trigger": false,
      "taf_trigger": false,
      "metar": "METAR LJLJ 111330Z 07004KT 030V110 9999 FEW040 SCT250 16/04 Q1015 NOSIG",
      "taf": "TAF LJLJ 111100Z 1112/1212 10004KT 9999 FEW040"
    },
    {
      "icao": "LKMT",
      "alert": "OK",
      "vis_m": 9999,
      "fzfg": false,
      "metar_trigger": false,
      "taf_trigger": false,
      "metar": "METAR LKMT 111400Z 01008KT 340V060 CAVOK 10/M04 Q1018 NOSIG",
      "taf": "TAF LKMT 111100Z 1112/1212 04006KT CAVOK"
    },
    {
      "icao": "LKPR",
      "alert": "OK",
      "vis_m": 9999,
      "fzfg": false,
      "metar_trigger": false,
      "taf_trigger": false,
      "metar": "METAR LKPR 111400Z 07005KT 030V140 CAVOK 11/M01 Q1017 NOSIG",
      "taf": "TAF LKPR 111100Z 1112/1218 08006KT CAVOK"
    },
    {
      "icao": "LLBG",
      "alert": "OK",
      "vis_m": 9999,
      "fzfg": false,
      "metar_trigger": false,
      "taf_trigger": false,
      "metar": "METAR LLBG 111350Z 29014KT 9999 SCT030 20/11 Q1016 NOSIG",
      "taf": "TAF LLBG 111106Z 1112/1212 28012KT 9999 FEW030 TX21/1112Z TN11/1203Z"
    },
    {
      "icao": "LMML",
      "alert": "OK",
      "vis_m": 9999,
      "fzfg": false,
      "metar_trigger": false,
      "taf_trigger": false,
      "metar": "METAR LMML 111345Z 19007KT 160V230 CAVOK 25/03 Q1014 NOSIG",
      "taf": "TAF LMML 111100Z 1112/1212 12008KT CAVOK"
    },
    {
      "icao": "LOWW",
      "alert": "OK",
      "vis_m": 9999,
      "fzfg": false,
      "metar_trigger": false,
      "taf_trigger": false,
      "metar": "METAR LOWW 111350Z 03005KT 310V100 9999 FEW048 13/00 Q1017 NOSIG",
      "taf": "TAF LOWW 111115Z 1112/1218 05005KT 9999 SCT040 TX16/1215Z TN04/1204Z"
    },
    {
      "icao": "LPFR",
      "alert": "OK",
      "vis_m": 9999,
      "fzfg": false,
      "metar_trigger": false,
      "taf_trigger": false,
      "metar": "METAR LPFR 111330Z 19008KT 9999 FEW030 20/15 Q1011",
      "taf": "TAF LPFR 111100Z 1112/1212 24010KT 9999 FEW025"
    },
    {
      "icao": "LPMA",
      "alert": "OK",
      "vis_m": 9999,
      "fzfg": false,
      "metar_trigger": false,
      "taf_trigger": false,
      "metar": "METAR LPMA 111330Z 35017G31KT 310V020 9999 FEW015 20/11 Q1023",
      "taf": "TAF LPMA 111100Z 1112/1212 36015KT 9999 SCT015"
    },
    {
      "icao": "LPPR",
      "alert": "OK",
      "vis_m": 9999,
      "fzfg": false,
      "metar_trigger": false,
      "taf_trigger": false,
      "metar": "METAR LPPR 111330Z 32017G27KT 9999 SCT040 15/07 Q1016",
      "taf": "TAF LPPR 111100Z 1112/1212 34018KT 9999 FEW025"
    },
    {
      "icao": "LPPS",
      "alert": "OK",
      "vis_m": 9999,
      "fzfg": false,
      "metar_trigger": false,
      "taf_trigger": false,
      "metar": "METAR LPPS 111330Z 35013KT 9999 -DZ SCT014 BKN030 18/13 Q1023",
      "taf": "TAF LPPS 111100Z 1112/1218 01018KT 9999 SCT015 BKN030"
    },
    {
      "icao": "LPPT",
      "alert": "OK",
      "vis_m": 9999,
      "fzfg": false,
      "metar_trigger": false,
      "taf_trigger": false,
      "metar": "METAR LPPT 111330Z 34020G31KT 9999 SCT022 15/10 Q1015 WS R02",
      "taf": "TAF LPPT 111100Z 1112/1218 34018KT 9999 SCT020"
    },
    {
      "icao": "LQBK",
      "alert": "OK",
      "vis_m": 9999,
      "fzfg": false,
      "metar_trigger": false,
      "taf_trigger": false,
      "metar": "METAR LQBK 111400Z VRB04KT CAVOK 17/05 Q1016",
      "taf": "TAF LQBK 111100Z 1112/1212 06005KT CAVOK TX18/1212Z TN05/1204Z"
    },
    {
      "icao": "LQSA",
      "alert": "OK",
      "vis_m": 9999,
      "fzfg": false,
      "metar_trigger": false,
      "taf_trigger": false,
      "metar": "METAR LQSA 111400Z 36005KT 260V060 CAVOK 18/M00 Q1014 NOSIG",
      "taf": ""
    },
    {
      "icao": "LQTZ",
      "alert": "OK",
      "vis_m": 9999,
      "fzfg": false,
      "metar_trigger": false,
      "taf_trigger": false,
      "metar": "METAR LQTZ 111400Z VRB04KT 9999 FEW055 17/05 Q1016",
      "taf": "TAF LQTZ 111100Z 1112/1212 03007KT 9999 SCT050 TX19/1212Z TN06/1204Z"
    },
    {
      "icao": "LRBC",
      "alert": "OK",
      "vis_m": 9999,
      "fzfg": false,
      "metar_trigger": false,
      "taf_trigger": false,
      "metar": "METAR LRBC 111330Z 28003KT 240V320 9999 OVC067 10/M03 Q1017",
      "taf": "TAF LRBC 111100Z 1112/1121 VRB04KT CAVOK"
    },
    {
      "icao": "LRBS",
      "alert": "OK",
      "vis_m": 9999,
      "fzfg": false,
      "metar_trigger": false,
      "taf_trigger": false,
      "metar": "METAR LRBS 111330Z 26009KT 220V290 9999 FEW034 12/03 Q1017 NOSIG",
      "taf": "TAF LRBS 111100Z 1112/1212 VRB04KT CAVOK"
    },
    {
      "icao": "LRBV",
      "alert": "OK",
      "vis_m": 9999,
      "fzfg": false,
      "metar_trigger": false,
      "taf_trigger": false,
      "metar": "METAR LRBV 111330Z VRB02KT 9999 FEW051 SCT062 BKN084 09/M02 Q1016",
      "taf": "TAF LRBV 111100Z 1112/1121 VRB04KT 9999 BKN050"
    },
    {
      "icao": "LRCL",
      "alert": "OK",
      "vis_m": 9999,
      "fzfg": false,
      "metar_trigger": false,
      "taf_trigger": false,
      "metar": "METAR LRCL 111330Z 27007KT 210V340 CAVOK 12/M07 Q1016",
      "taf": "TAF LRCL 111100Z 1112/1121 33006KT 9999 BKN060"
    },
    {
      "icao": "LRCV",
      "alert": "OK",
      "vis_m": 9999,
      "fzfg": false,
      "metar_trigger": false,
      "taf_trigger": false,
      "metar": "METAR LRCV 111330Z VRB03KT 9999 SCT038 FEW045CB 10/04 Q1017",
      "taf": "TAF LRCV 111100Z 1112/1121 VRB04KT 9999 BKN040"
    },
    {
      "icao": "LRIA",
      "alert": "OK",
      "vis_m": 9999,
      "fzfg": false,
      "metar_trigger": false,
      "taf_trigger": false,
      "metar": "METAR LRIA 111330Z 35005KT 310V030 CAVOK 11/M01 Q1017",
      "taf": "TAF LRIA 111100Z 1112/1121 VRB04KT CAVOK"
    },
    {
      "icao": "LROP",
      "alert": "OK",
      "vis_m": 9999,
      "fzfg": false,
      "metar_trigger": false,
      "taf_trigger": false,
      "metar": "METAR LROP 111330Z 24010KT 210V270 CAVOK 12/M01 Q1017 NOSIG",
      "taf": "TAF LROP 111100Z 1112/1212 VRB04KT CAVOK"
    },
    {
      "icao": "LRSB",
      "alert": "OK",
      "vis_m": 9999,
      "fzfg": false,
      "metar_trigger": false,
      "taf_trigger": false,
      "metar": "METAR LRSB 111330Z 31008KT 9999 SCT065 12/M05 Q1016 NOSIG",
      "taf": "TAF LRSB 111100Z 1112/1212 VRB04KT 9999 SCT060"
    },
    {
      "icao": "LRSM",
      "alert": "OK",
      "vis_m": 9999,
      "fzfg": false,
      "metar_trigger": false,
      "taf_trigger": false,
      "metar": "METAR LRSM 111330Z VRB04KT CAVOK 13/M06 Q1017",
      "taf": "TAF LRSM 111100Z 1112/1121 34008KT CAVOK"
    },
    {
      "icao": "LRSV",
      "alert": "OK",
      "vis_m": 9999,
      "fzfg": false,
      "metar_trigger": false,
      "taf_trigger": false,
      "metar": "METAR LRSV 111330Z 04005KT 350V090 9999 BKN047 08/M02 Q1016",
      "taf": "TAF LRSV 111100Z 1112/1121 VRB04KT 9999 BKN045"
    },
    {
      "icao": "LRTM",
      "alert": "OK",
      "vis_m": 9999,
      "fzfg": false,
      "metar_trigger": false,
      "taf_trigger": false,
      "metar": "METAR LRTM 111330Z 30005KT 250V350 CAVOK 11/M05 Q1016",
      "taf": "TAF LRTM 111100Z 1112/1121 VRB04KT CAVOK"
    },
    {
      "icao": "LRTR",
      "alert": "OK",
      "vis_m": 9999,
      "fzfg": false,
      "metar_trigger": false,
      "taf_trigger": false,
      "metar": "METAR LRTR 111330Z VRB03KT CAVOK 13/M00 Q1017 NOSIG",
      "taf": "TAF LRTR 111100Z 1112/1212 VRB04KT CAVOK"
    },
    {
      "icao": "LTAC",
      "alert": "OK",
      "vis_m": 9999,
      "fzfg": false,
      "metar_trigger": false,
      "taf_trigger": false,
      "metar": "METAR LTAC 111350Z 29007KT 260V340 9999 BKN040 08/M05 Q1015 NOSIG RMK RWY21C 31006KT 270V020 RWY03L 28006KT 240V320 RWY21R 29006KT 240V320 RWY03R 30006KT RWY21L VRB05KT",
      "taf": "TAF LTAC 111040Z 1112/1212 VRB02KT 9999 SCT040"
    },
    {
      "icao": "LTFM",
      "alert": "OK",
      "vis_m": 9999,
      "fzfg": false,
      "metar_trigger": false,
      "taf_trigger": false,
      "metar": "METAR LTFM 111350Z 08011KT 030V100 CAVOK 11/M00 Q1018 NOSIG RMK RWY17L 09013KT RWY34L 07011KT RWY16R 09012KT RWY36 07012KT 020V080 RWY18 10012KT",
      "taf": "TAF LTFM 111040Z 1112/1218 07012KT 9999 FEW035 BKN100"
    },
    {
      "icao": "LUKK",
      "alert": "OK",
      "vis_m": 9999,
      "fzfg": false,
      "metar_trigger": false,
      "taf_trigger": false,
      "metar": "METAR LUKK 111400Z 22007KT 190V250 9999 FEW045 11/M02 Q1017 TEMPO 24015G25KT SCT040CB",
      "taf": "TAF LUKK 111101Z 1112/1212 26008KT 9999 SCT040"
    },
    {
      "icao": "LWOH",
      "alert": "OK",
      "vis_m": 9999,
      "fzfg": false,
      "metar_trigger": false,
      "taf_trigger": false,
      "metar": "METAR LWOH 111350Z 17003KT 120V230 9999 FEW040 SCT090 16/05 Q1015",
      "taf": "TAF LWOH 111111Z 1112/1212 16005KT 9999 SCT050 SCT080"
    },
    {
      "icao": "LWSK",
      "alert": "OK",
      "vis_m": 9999,
      "fzfg": false,
      "metar_trigger": false,
      "taf_trigger": false,
      "metar": "METAR LWSK 111350Z 30003KT 260V070 9999 SCT080 18/06 Q1016 NOSIG",
      "taf": "TAF LWSK 111111Z 1112/1212 VRB03KT 9999 FEW050 SCT080"
    },
    {
      "icao": "LYBE",
      "alert": "OK",
      "vis_m": 9999,
      "fzfg": false,
      "metar_trigger": false,
      "taf_trigger": false,
      "metar": "METAR LYBE 111400Z 33008KT CAVOK 14/03 Q1017 NOSIG",
      "taf": "TAF LYBE 111100Z 1112/1212 35010KT 9999 BKN040 TX17/1212Z TN03/1204Z"
    },
    {
      "icao": "LYNI",
      "alert": "OK",
      "vis_m": 9999,
      "fzfg": false,
      "metar_trigger": false,
      "taf_trigger": false,
      "metar": "METAR LYNI 111400Z 34014G24KT 9999 FEW033 SCT085 13/04 Q1017 NOSIG",
      "taf": "TAF LYNI 111100Z 1112/1212 34012KT 9999 BKN050 TX16/1212Z TN03/1205Z"
    },
    {
      "icao": "LYPG",
      "alert": "OK",
      "vis_m": 9999,
      "fzfg": false,
      "metar_trigger": false,
      "taf_trigger": false,
      "metar": "METAR LYPG 111400Z 19006KT 140V260 9999 FEW050 22/04 Q1014 NOSIG",
      "taf": "TAF LYPG 111100Z 1112/1212 18007KT 9999 FEW050 TX23/1212Z TN10/1204Z"
    },
    {
      "icao": "LZIB",
      "alert": "OK",
      "vis_m": 9999,
      "fzfg": false,
      "metar_trigger": false,
      "taf_trigger": false,
      "metar": "METAR LZIB 111400Z VRB03KT CAVOK 15/M01 Q1016 NOSIG",
      "taf": "TAF LZIB 111115Z 1112/1212 04006KT 9999 FEW035"
    },
    {
      "icao": "LZKZ",
      "alert": "OK",
      "vis_m": 9999,
      "fzfg": false,
      "metar_trigger": false,
      "taf_trigger": false,
      "metar": "METAR LZKZ 111400Z 08003KT 020V120 CAVOK 10/M05 Q1017 NOSIG",
      "taf": "TAF LZKZ 111115Z 1112/1212 01008KT CAVOK"
    },
    {
      "icao": "LZTT",
      "alert": "OK",
      "vis_m": 9999,
      "fzfg": false,
      "metar_trigger": false,
      "taf_trigger": false,
      "metar": "METAR LZTT 111400Z 08010KT 030V120 9999 SCT060 08/M06 Q1016 NOSIG",
      "taf": "TAF LZTT 111115Z 1112/1212 06007KT 9999 FEW050"
    },
    {
      "icao": "OEJN",
      "alert": "OK",
      "vis_m": 9999,
      "fzfg": false,
      "metar_trigger": false,
      "taf_trigger": false,
      "metar": "METAR OEJN 111400Z 32014KT CAVOK 29/11 Q1011 NOSIG",
      "taf": "TAF OEJN 111100Z 1112/1218 32016KT 7000 NSC"
    },
    {
      "icao": "OEMA",
      "alert": "OK",
      "vis_m": 9999,
      "fzfg": false,
      "metar_trigger": false,
      "taf_trigger": false,
      "metar": "METAR OEMA 111400Z 27010KT CAVOK 32/M16 Q1012 NOSIG",
      "taf": "TAF OEMA 111100Z 1112/1218 27014KT CAVOK"
    },
    {
      "icao": "OJAI",
      "alert": "OK",
      "vis_m": 5000,
      "fzfg": false,
      "metar_trigger": false,
      "taf_trigger": false,
      "metar": "METAR OJAI 111300Z 25012KT 5000 HZ SCT030 18/04 Q1016 NOSIG",
      "taf": "TAF OJAI 111100Z 1112/1218 26012KT 5000 HZ SCT030"
    },
    {
      "icao": "OMAA",
      "alert": "OK",
      "vis_m": null,
      "fzfg": false,
      "metar_trigger": false,
      "taf_trigger": false,
      "metar": "",
      "taf": ""
    },
    {
      "icao": "OMDB",
      "alert": "OK",
      "vis_m": null,
      "fzfg": false,
      "metar_trigger": false,
      "taf_trigger": false,
      "metar": "",
      "taf": ""
    },
    {
      "icao": "UAAA",
      "alert": "OK",
      "vis_m": 9999,
      "fzfg": false,
      "metar_trigger": false,
      "taf_trigger": false,
      "metar": "METAR UAAA 111330Z 13003MPS 9999 SCT050CB BKN100 13/06 Q1022 NOSIG",
      "taf": "TAF UAAA 111102Z 1112/1212 18002G07MPS 9999 SCT050CB BKN100 TX19/1208Z TN08/1201Z"
    },
    {
      "icao": "UBBB",
      "alert": "OK",
      "vis_m": 9999,
      "fzfg": false,
      "metar_trigger": false,
      "taf_trigger": false,
      "metar": "METAR UBBB 111400Z 36014KT CAVOK 12/08 Q1016 NOSIG",
      "taf": "TAF UBBB 111048Z 1112/1212 34014G24KT CAVOK TX14/1110Z TN07/1201Z"
    },
    {
      "icao": "UDSG",
      "alert": "OK",
      "vis_m": 9999,
      "fzfg": false,
      "metar_trigger": false,
      "taf_trigger": false,
      "metar": "METAR UDSG 111330Z 04009KT 9999 BKN040CB 07/05 Q1013 NOSIG",
      "taf": "TAF UDSG 111100Z 1112/1212 36006KT 9999 BKN030"
    },
    {
      "icao": "UDYZ",
      "alert": "OK",
      "vis_m": 9999,
      "fzfg": false,
      "metar_trigger": false,
      "taf_trigger": false,
      "metar": "METAR UDYZ 111330Z 29007KT 9999 VCTS BKN043CB 17/05 Q1010 NOSIG",
      "taf": "TAF UDYZ 111100Z 1112/1212 24006KT 9999 SCT040"
    },
    {
      "icao": "UGKO",
      "alert": "OK",
      "vis_m": 9999,
      "fzfg": false,
      "metar_trigger": false,
      "taf_trigger": false,
      "metar": "METAR UGKO 111330Z 22010KT 9999 -SHRA SCT020CB BKN043 09/08 Q1017 NOSIG",
      "taf": "TAF UGKO 111100Z 1112/1212 26007KT 9999 SCT020 BKN045 TX12/1211Z TN06/1203Z"
    }
  ]
}