{
  "ts_utc": "2026-04-01T20:25:49Z",
  "threshold_m": 150,
  "source": "stations_override.txt (ICAO list) + aviationweather.gov (METAR/TAF raw)",
  "station_count": 159,
  "stations": [
    {
      "icao": "BIKF",
      "alert": "OK",
      "vis_m": 9999,
      "fzfg": false,
      "metar_trigger": false,
      "taf_trigger": false,
      "metar": "METAR BIKF 012000Z 13023G34KT 9999 FEW030 BKN048 OVC130 04/M01 Q1009",
      "taf": "TAF BIKF 011958Z 0121/0221 13032G42KT 9999 SCT010 BKN020 TX04/0122Z TNM01/0221Z"
    },
    {
      "icao": "BKPR",
      "alert": "OK",
      "vis_m": null,
      "fzfg": false,
      "metar_trigger": false,
      "taf_trigger": false,
      "metar": "",
      "taf": "TAF BKPR 011730Z 0118/0218 02018KT 9999 SCT015 BKN030"
    },
    {
      "icao": "EBCI",
      "alert": "OK",
      "vis_m": 9999,
      "fzfg": false,
      "metar_trigger": false,
      "taf_trigger": false,
      "metar": "METAR EBCI 011950Z VRB02KT CAVOK 09/03 Q1021 NOSIG",
      "taf": "TAF EBCI 011720Z 0118/0224 VRB03KT 9999 FEW030"
    },
    {
      "icao": "EDDB",
      "alert": "OK",
      "vis_m": 9999,
      "fzfg": false,
      "metar_trigger": false,
      "taf_trigger": false,
      "metar": "METAR EDDB 012020Z AUTO 30004KT CAVOK 05/02 Q1022 NOSIG",
      "taf": "TAF EDDB 011700Z 0118/0218 21004KT CAVOK"
    },
    {
      "icao": "EDDH",
      "alert": "OK",
      "vis_m": 9999,
      "fzfg": false,
      "metar_trigger": false,
      "taf_trigger": false,
      "metar": "METAR EDDH 012020Z AUTO 00000KT CAVOK 05/02 Q1021 NOSIG",
      "taf": "TAF EDDH 011700Z 0118/0224 20004KT CAVOK"
    },
    {
      "icao": "EDDK",
      "alert": "OK",
      "vis_m": 9999,
      "fzfg": false,
      "metar_trigger": false,
      "taf_trigger": false,
      "metar": "METAR EDDK 012020Z AUTO 11005KT CAVOK 07/M01 Q1021 NOSIG",
      "taf": "TAF EDDK 011700Z 0118/0224 13004KT CAVOK"
    },
    {
      "icao": "EDDN",
      "alert": "OK",
      "vis_m": 9999,
      "fzfg": false,
      "metar_trigger": false,
      "taf_trigger": false,
      "metar": "METAR EDDN 012020Z AUTO 01004KT CAVOK 02/M01 Q1021",
      "taf": "TAF EDDN 011700Z 0118/0218 VRB02KT 9999 FEW040"
    },
    {
      "icao": "EDDS",
      "alert": "OK",
      "vis_m": 9999,
      "fzfg": false,
      "metar_trigger": false,
      "taf_trigger": false,
      "metar": "METAR EDDS 012020Z AUTO 01004KT 340V050 CAVOK 05/M01 Q1020",
      "taf": "TAF EDDS 011700Z 0118/0218 04005KT 9999 FEW045"
    },
    {
      "icao": "EDFH",
      "alert": "OK",
      "vis_m": 9999,
      "fzfg": false,
      "metar_trigger": false,
      "taf_trigger": false,
      "metar": "METAR EDFH 011950Z 14004KT CAVOK 05/M03 Q1021",
      "taf": "TAF EDFH 011700Z 0118/0218 13005KT CAVOK"
    },
    {
      "icao": "EDJA",
      "alert": "OK",
      "vis_m": 9999,
      "fzfg": false,
      "metar_trigger": false,
      "taf_trigger": false,
      "metar": "METAR EDJA 011950Z 04005KT 9999 SCT058 02/M00 Q1019",
      "taf": "TAF EDJA 011700Z 0118/0203 08003KT 9999 BKN045"
    },
    {
      "icao": "EDLW",
      "alert": "OK",
      "vis_m": 9999,
      "fzfg": false,
      "metar_trigger": false,
      "taf_trigger": false,
      "metar": "METAR EDLW 011950Z 19004KT CAVOK 09/M01 Q1021",
      "taf": "TAF EDLW 011700Z 0118/0218 07004KT CAVOK"
    },
    {
      "icao": "EDNY",
      "alert": "OK",
      "vis_m": 9999,
      "fzfg": false,
      "metar_trigger": false,
      "taf_trigger": false,
      "metar": "METAR EDNY 011950Z 04008KT CAVOK 05/00 Q1019",
      "taf": "TAF EDNY 011700Z 0118/0203 03006KT 9999 SCT050"
    },
    {
      "icao": "EDSB",
      "alert": "OK",
      "vis_m": 9999,
      "fzfg": false,
      "metar_trigger": false,
      "taf_trigger": false,
      "metar": "METAR EDSB 011950Z 05006KT CAVOK 06/00 Q1021",
      "taf": "TAF EDSB 011700Z 0118/0218 04008KT CAVOK"
    },
    {
      "icao": "EETN",
      "alert": "OK",
      "vis_m": 9999,
      "fzfg": false,
      "metar_trigger": false,
      "taf_trigger": false,
      "metar": "METAR EETN 012020Z 23006KT CAVOK 01/M01 Q1018 NOSIG",
      "taf": "TAF EETN 011730Z 0118/0218 26004KT CAVOK"
    },
    {
      "icao": "EFTU",
      "alert": "OK",
      "vis_m": 9999,
      "fzfg": false,
      "metar_trigger": false,
      "taf_trigger": false,
      "metar": "METAR EFTU 012020Z AUTO 19006KT 160V220 CAVOK 02/01 Q1015",
      "taf": "TAF EFTU 011731Z 0118/0218 20010KT CAVOK"
    },
    {
      "icao": "EGBB",
      "alert": "OK",
      "vis_m": 9000,
      "fzfg": false,
      "metar_trigger": false,
      "taf_trigger": false,
      "metar": "METAR EGBB 012020Z 24005KT 190V280 9000 -RA FEW020 BKN030 11/05 Q1020",
      "taf": "TAF EGBB 011655Z 0118/0218 25005KT 9999 BKN034"
    },
    {
      "icao": "EGGP",
      "alert": "OK",
      "vis_m": 9999,
      "fzfg": false,
      "metar_trigger": false,
      "taf_trigger": false,
      "metar": "METAR EGGP 012020Z 32012KT 9999 FEW025 BKN049 08/05 Q1021",
      "taf": ""
    },
    {
      "icao": "EGGW",
      "alert": "OK",
      "vis_m": 9999,
      "fzfg": false,
      "metar_trigger": false,
      "taf_trigger": false,
      "metar": "METAR EGGW 012020Z AUTO 24005KT 9999 OVC040 09/05 Q1020",
      "taf": "TAF EGGW 011658Z 0118/0218 30007KT 9999 SCT030"
    },
    {
      "icao": "EGKK",
      "alert": "OK",
      "vis_m": 9999,
      "fzfg": false,
      "metar_trigger": false,
      "taf_trigger": false,
      "metar": "METAR EGKK 012020Z 29005KT 9999 SCT049 11/06 Q1021",
      "taf": ""
    },
    {
      "icao": "EGNM",
      "alert": "OK",
      "vis_m": 9999,
      "fzfg": false,
      "metar_trigger": false,
      "taf_trigger": false,
      "metar": "METAR EGNM 012020Z 28017KT 9999 VCSH SCT009 BKN014 07/06 Q1018",
      "taf": "TAF EGNM 011701Z 0118/0218 27014KT 9999 FEW015 SCT030"
    },
    {
      "icao": "EGPD",
      "alert": "OK",
      "vis_m": 9999,
      "fzfg": false,
      "metar_trigger": false,
      "taf_trigger": false,
      "metar": "METAR EGPD 012020Z COR AUTO 32009KT 9999 FEW014 03/01 Q1020 TEMPO SHRA BKN014",
      "taf": "TAF EGPD 011655Z 0118/0218 33012KT 9999 SCT030"
    },
    {
      "icao": "EGPF",
      "alert": "OK",
      "vis_m": 9999,
      "fzfg": false,
      "metar_trigger": false,
      "taf_trigger": false,
      "metar": "METAR EGPF 012020Z AUTO VRB02KT 9999 FEW031 04/01 Q1022",
      "taf": "TAF EGPF 011657Z 0118/0218 30012KT 9999 SCT040"
    },
    {
      "icao": "EHBK",
      "alert": "OK",
      "vis_m": 9999,
      "fzfg": false,
      "metar_trigger": false,
      "taf_trigger": false,
      "metar": "METAR EHBK 011955Z AUTO 08004KT 9999 NCD 07/00 Q1020 NOSIG",
      "taf": "TAF EHBK 011709Z 0118/0224 06005KT CAVOK"
    },
    {
      "icao": "EHEH",
      "alert": "OK",
      "vis_m": 9999,
      "fzfg": false,
      "metar_trigger": false,
      "taf_trigger": false,
      "metar": "METAR EHEH 011955Z AUTO VRB02KT 9999 NCD 06/00 Q1021 BLU NOSIG RMK TREND REMOTE BY EHWX",
      "taf": "TAF EHEH 011753Z 0118/0224 15005KT CAVOK"
    },
    {
      "icao": "EKBI",
      "alert": "OK",
      "vis_m": 9999,
      "fzfg": false,
      "metar_trigger": false,
      "taf_trigger": false,
      "metar": "METAR EKBI 012020Z AUTO 19004KT 9999 BKN064/// 05/04 Q1020",
      "taf": "TAF EKBI 011727Z 0118/0218 22008KT 9999 SCT030"
    },
    {
      "icao": "EKCH",
      "alert": "OK",
      "vis_m": 9999,
      "fzfg": false,
      "metar_trigger": false,
      "taf_trigger": false,
      "metar": "METAR EKCH 012020Z AUTO 22006KT 9999 NCD 04/01 Q1021 NOSIG",
      "taf": "TAF EKCH 011727Z 0118/0218 22008KT CAVOK"
    },
    {
      "icao": "ENAL",
      "alert": "OK",
      "vis_m": 9999,
      "fzfg": false,
      "metar_trigger": false,
      "taf_trigger": false,
      "metar": "METAR ENAL 011950Z 19004KT 9999 FEW007 BKN048 01/00 Q1014",
      "taf": "TAF ENAL 011700Z 0118/0203 32007KT 9000 -SN SCT007 BKN015"
    },
    {
      "icao": "ENBR",
      "alert": "OK",
      "vis_m": 9999,
      "fzfg": false,
      "metar_trigger": false,
      "taf_trigger": false,
      "metar": "METAR ENBR 011950Z 35013KT 9999 -RASN BKN007 01/01 Q1013 RMK WIND 1200FT 35022KT",
      "taf": ""
    },
    {
      "icao": "ENGM",
      "alert": "OK",
      "vis_m": 9999,
      "fzfg": false,
      "metar_trigger": false,
      "taf_trigger": false,
      "metar": "METAR ENGM 011950Z 20010KT CAVOK 08/03 Q1011 NOSIG",
      "taf": "TAF ENGM 011700Z 0118/0218 20008KT CAVOK"
    },
    {
      "icao": "ENHD",
      "alert": "OK",
      "vis_m": 3000,
      "fzfg": false,
      "metar_trigger": false,
      "taf_trigger": false,
      "metar": "METAR ENHD 011950Z 19010KT 3000 RADZ BR SCT003 BKN005 07/06 Q1012",
      "taf": "TAF ENHD 011100Z 0112/0121 18015KT 9000 SCT006 BKN015"
    },
    {
      "icao": "ENTC",
      "alert": "OK",
      "vis_m": 7000,
      "fzfg": false,
      "metar_trigger": false,
      "taf_trigger": false,
      "metar": "METAR ENTC 011950Z 22033KT 7000 -SHRA SCT005 BKN015 02/M00 Q0992 BECMG 21023KT RMK WIND 2600FT 22039G49KT",
      "taf": ""
    },
    {
      "icao": "ENTO",
      "alert": "OK",
      "vis_m": 9999,
      "fzfg": false,
      "metar_trigger": false,
      "taf_trigger": false,
      "metar": "METAR ENTO 011950Z 20011KT 9999 FEW005 06/06 Q1014 TEMPO BKN004",
      "taf": ""
    },
    {
      "icao": "ENVA",
      "alert": "OK",
      "vis_m": 9999,
      "fzfg": false,
      "metar_trigger": false,
      "taf_trigger": false,
      "metar": "METAR ENVA 011950Z 24008KT 9999 -RA SCT011 BKN015 03/02 Q1013 RMK WIND 670FT 27009KT",
      "taf": "TAF ENVA 011700Z 0118/0218 26015KT 8000 -RA SCT007 BKN015"
    },
    {
      "icao": "ENZV",
      "alert": "OK",
      "vis_m": 9999,
      "fzfg": false,
      "metar_trigger": false,
      "taf_trigger": false,
      "metar": "METAR ENZV 011950Z 19012KT 9999 FEW010 BKN045 08/06 Q1013",
      "taf": "TAF ENZV 011700Z 0118/0218 18015KT 9999 FEW012 BKN030"
    },
    {
      "icao": "EPGD",
      "alert": "OK",
      "vis_m": 9999,
      "fzfg": false,
      "metar_trigger": false,
      "taf_trigger": false,
      "metar": "METAR EPGD 012000Z VRB01KT CAVOK 01/M00 Q1021",
      "taf": "TAF EPGD 011730Z 0118/0218 VRB04KT CAVOK"
    },
    {
      "icao": "EPKK",
      "alert": "OK",
      "vis_m": 9999,
      "fzfg": false,
      "metar_trigger": false,
      "taf_trigger": false,
      "metar": "METAR EPKK 012000Z 21003KT 180V240 9999 OVC050 05/03 Q1018",
      "taf": "TAF EPKK 011730Z 0118/0218 22005KT 9999 BKN045"
    },
    {
      "icao": "EPKT",
      "alert": "OK",
      "vis_m": 9999,
      "fzfg": false,
      "metar_trigger": false,
      "taf_trigger": false,
      "metar": "METAR EPKT 012000Z 36004KT CAVOK 06/M03 Q1019",
      "taf": "TAF EPKT 011730Z 0118/0218 34006KT CAVOK"
    },
    {
      "icao": "EPLB",
      "alert": "OK",
      "vis_m": 9999,
      "fzfg": false,
      "metar_trigger": false,
      "taf_trigger": false,
      "metar": "METAR EPLB 012000Z 35006KT 330V030 CAVOK 09/M01 Q1017",
      "taf": "TAF EPLB 011730Z 0118/0218 35010KT CAVOK"
    },
    {
      "icao": "EPMO",
      "alert": "OK",
      "vis_m": 9999,
      "fzfg": false,
      "metar_trigger": false,
      "taf_trigger": false,
      "metar": "METAR EPMO 012000Z 36005KT CAVOK 07/M03 Q1020",
      "taf": "TAF EPMO 011730Z 0118/0218 01012KT CAVOK"
    },
    {
      "icao": "EPPO",
      "alert": "OK",
      "vis_m": 9999,
      "fzfg": false,
      "metar_trigger": false,
      "taf_trigger": false,
      "metar": "METAR EPPO 012000Z 36003KT CAVOK 05/M01 Q1021",
      "taf": "TAF EPPO 011730Z 0118/0218 33003KT CAVOK"
    },
    {
      "icao": "EPRA",
      "alert": "OK",
      "vis_m": 9999,
      "fzfg": false,
      "metar_trigger": false,
      "taf_trigger": false,
      "metar": "METAR EPRA 012000Z 36005KT CAVOK 09/M03 Q1018",
      "taf": "TAF EPRA 011730Z 0118/0203 35006KT CAVOK"
    },
    {
      "icao": "EPRZ",
      "alert": "OK",
      "vis_m": 8000,
      "fzfg": false,
      "metar_trigger": false,
      "taf_trigger": false,
      "metar": "METAR EPRZ 012000Z 25006KT 8000 SCT036 05/04 Q1017",
      "taf": "TAF EPRZ 011730Z 0118/0218 24008KT 9999 BKN006"
    },
    {
      "icao": "EPSC",
      "alert": "OK",
      "vis_m": 9999,
      "fzfg": false,
      "metar_trigger": false,
      "taf_trigger": false,
      "metar": "METAR EPSC 012000Z 36002KT CAVOK 03/00 Q1022",
      "taf": "TAF EPSC 011730Z 0118/0218 VRB04KT CAVOK"
    },
    {
      "icao": "EPSY",
      "alert": "OK",
      "vis_m": 9999,
      "fzfg": false,
      "metar_trigger": false,
      "taf_trigger": false,
      "metar": "METAR EPSY 012000Z 34006KT CAVOK 02/M04 Q1020",
      "taf": "TAF EPSY 011730Z 0118/0203 36006KT CAVOK"
    },
    {
      "icao": "EPWA",
      "alert": "OK",
      "vis_m": 9999,
      "fzfg": false,
      "metar_trigger": false,
      "taf_trigger": false,
      "metar": "METAR EPWA 012000Z 02009KT 350V050 CAVOK 10/M03 Q1019 NOSIG",
      "taf": "TAF EPWA 011730Z 0118/0218 01008KT CAVOK"
    },
    {
      "icao": "EPWR",
      "alert": "OK",
      "vis_m": 9999,
      "fzfg": false,
      "metar_trigger": false,
      "taf_trigger": false,
      "metar": "METAR EPWR 012000Z 28006KT CAVOK 05/01 Q1021",
      "taf": "TAF EPWR 011730Z 0118/0218 01005KT CAVOK"
    },
    {
      "icao": "ESGG",
      "alert": "OK",
      "vis_m": 9999,
      "fzfg": false,
      "metar_trigger": false,
      "taf_trigger": false,
      "metar": "METAR ESGG 012020Z 19008KT 9999 BKN012 06/04 Q1017",
      "taf": "TAF ESGG 011730Z 0118/0218 20009KT 6000 BKN004"
    },
    {
      "icao": "ESKN",
      "alert": "OK",
      "vis_m": 9999,
      "fzfg": false,
      "metar_trigger": false,
      "taf_trigger": false,
      "metar": "METAR ESKN 012020Z 24005KT 9999 BKN047 09/04 Q1016",
      "taf": "TAF ESKN 011730Z 0118/0218 23011KT CAVOK"
    },
    {
      "icao": "ESMS",
      "alert": "OK",
      "vis_m": 9999,
      "fzfg": false,
      "metar_trigger": false,
      "taf_trigger": false,
      "metar": "METAR ESMS 012020Z 24006KT CAVOK 05/M00 Q1020",
      "taf": "TAF ESMS 011727Z 0118/0218 23010KT CAVOK"
    },
    {
      "icao": "ESSA",
      "alert": "OK",
      "vis_m": 9999,
      "fzfg": false,
      "metar_trigger": false,
      "taf_trigger": false,
      "metar": "METAR ESSA 012020Z 22009KT CAVOK 07/01 Q1014 NOSIG",
      "taf": "TAF ESSA 011730Z 0118/0218 20012KT CAVOK"
    },
    {
      "icao": "EYKA",
      "alert": "OK",
      "vis_m": 9999,
      "fzfg": false,
      "metar_trigger": false,
      "taf_trigger": false,
      "metar": "METAR EYKA 012020Z 35004KT CAVOK 06/M02 Q1019",
      "taf": "TAF EYKA 011701Z 0118/0218 VRB04KT 9000 NSC"
    },
    {
      "icao": "EYPA",
      "alert": "OK",
      "vis_m": 550,
      "fzfg": true,
      "metar_trigger": false,
      "taf_trigger": false,
      "metar": "METAR EYPA 012020Z VRB01KT 0550 R19/0700U FZFG VV002 M01/M01 Q1021",
      "taf": "TAF EYPA 011701Z 0118/0218 VRB04KT 0350 FG VV002"
    },
    {
      "icao": "EYVI",
      "alert": "OK",
      "vis_m": 9999,
      "fzfg": false,
      "metar_trigger": false,
      "taf_trigger": false,
      "metar": "METAR EYVI 012020Z 36009KT CAVOK 06/M01 Q1018 NOSIG",
      "taf": "TAF EYVI 011100Z 0112/0212 36010KT 9000 NSC"
    },
    {
      "icao": "GCFV",
      "alert": "OK",
      "vis_m": 9999,
      "fzfg": false,
      "metar_trigger": false,
      "taf_trigger": false,
      "metar": "METAR GCFV 012000Z 01009KT CAVOK 18/14 Q1018",
      "taf": ""
    },
    {
      "icao": "GCLP",
      "alert": "OK",
      "vis_m": 9999,
      "fzfg": false,
      "metar_trigger": false,
      "taf_trigger": false,
      "metar": "METAR GCLP 012000Z 01014KT CAVOK 19/16 Q1019 NOSIG",
      "taf": ""
    },
    {
      "icao": "GCTS",
      "alert": "OK",
      "vis_m": 9999,
      "fzfg": false,
      "metar_trigger": false,
      "taf_trigger": false,
      "metar": "METAR GCTS 012000Z 08020KT CAVOK 20/13 Q1018 NOSIG",
      "taf": ""
    },
    {
      "icao": "GMAD",
      "alert": "OK",
      "vis_m": 8000,
      "fzfg": false,
      "metar_trigger": false,
      "taf_trigger": false,
      "metar": "METAR GMAD 012000Z 18004KT 150V210 8000 SCT020 16/13 Q1015 NOSIG",
      "taf": "TAF GMAD 011700Z 0118/0224 24008KT 8000 BKN013"
    },
    {
      "icao": "GMMN",
      "alert": "OK",
      "vis_m": 9999,
      "fzfg": false,
      "metar_trigger": false,
      "taf_trigger": false,
      "metar": "METAR GMMN 012000Z 01006KT CAVOK 12/10 Q1019 NOSIG",
      "taf": "TAF GMMN 011700Z 0118/0224 33010KT CAVOK"
    },
    {
      "icao": "GMMX",
      "alert": "OK",
      "vis_m": 9999,
      "fzfg": false,
      "metar_trigger": false,
      "taf_trigger": false,
      "metar": "METAR GMMX 012000Z 01010KT 330V040 CAVOK 20/10 Q1017 NOSIG",
      "taf": "TAF GMMX 011700Z 0118/0224 06006KT CAVOK"
    },
    {
      "icao": "HEGN",
      "alert": "OK",
      "vis_m": 9999,
      "fzfg": false,
      "metar_trigger": false,
      "taf_trigger": false,
      "metar": "METAR HEGN 012000Z 14007KT 9999 SCT020 BKN025 24/12 Q1007 NOSIG",
      "taf": "TAF HEGN 011712Z 0118/0224 17006G16KT 9999 SCT020"
    },
    {
      "icao": "HEMA",
      "alert": "OK",
      "vis_m": 9999,
      "fzfg": false,
      "metar_trigger": false,
      "taf_trigger": false,
      "metar": "METAR HEMA 012000Z 12005KT CAVOK 23/18 Q1008 NOSIG",
      "taf": "TAF HEMA 011711Z 0118/0224 32008KT 9999 SCT020"
    },
    {
      "icao": "HESH",
      "alert": "OK",
      "vis_m": 9999,
      "fzfg": false,
      "metar_trigger": false,
      "taf_trigger": false,
      "metar": "METAR HESH 012000Z 34006KT CAVOK 26/08 Q1008 NOSIG",
      "taf": "TAF HESH 011712Z 0118/0224 33008KT 9999 SCT020"
    },
    {
      "icao": "HESX",
      "alert": "OK",
      "vis_m": 9999,
      "fzfg": false,
      "metar_trigger": false,
      "taf_trigger": false,
      "metar": "METAR HESX 012000Z 06019KT CAVOK 18/15 Q1005 NOSIG",
      "taf": "TAF HESX 011711Z 0118/0224 15015KT 9999 SCT025 BKN070"
    },
    {
      "icao": "LATI",
      "alert": "OK",
      "vis_m": 9999,
      "fzfg": false,
      "metar_trigger": false,
      "taf_trigger": false,
      "metar": "METAR LATI 012020Z VRB02KT 9999 SCT100 15/02 Q0997 NOSIG",
      "taf": "TAF LATI 011700Z 0118/0218 VRB05KT 9999 SCT040 BKN080 TX18/0210Z TN11/0204Z"
    },
    {
      "icao": "LBPD",
      "alert": "OK",
      "vis_m": 9999,
      "fzfg": false,
      "metar_trigger": false,
      "taf_trigger": false,
      "metar": "METAR LBPD 012000Z AUTO 13008KT 9999 -RA FEW015/// OVC032/// 09/09 Q1007",
      "taf": "TAF LBPD 011700Z 0118/0218 11010KT 6000 SCT010 BKN015 OVC030"
    },
    {
      "icao": "LBSF",
      "alert": "OK",
      "vis_m": 9999,
      "fzfg": false,
      "metar_trigger": false,
      "taf_trigger": false,
      "metar": "METAR LBSF 012000Z AUTO 14004KT 100V170 9999 OVC033/// 07/06 Q1007 NOSIG",
      "taf": "TAF LBSF 011700Z 0118/0218 09010KT 7000 SCT012 BKN020 BKN040"
    },
    {
      "icao": "LBWN",
      "alert": "OK",
      "vis_m": 9999,
      "fzfg": false,
      "metar_trigger": false,
      "taf_trigger": false,
      "metar": "METAR LBWN 012000Z AUTO 10005KT 060V130 9999 NSC 10/06 Q1010 NOSIG",
      "taf": "TAF LBWN 011700Z 0118/0218 04014KT 9999 SCT025 BKN045"
    },
    {
      "icao": "LCLK",
      "alert": "OK",
      "vis_m": 9000,
      "fzfg": false,
      "metar_trigger": false,
      "taf_trigger": false,
      "metar": "METAR LCLK 012000Z 13005KT 9000 -RA FEW013 SCT031 16/15 Q1011 NOSIG",
      "taf": "TAF LCLK 011730Z 0118/0218 04009KT 9999 SCT035"
    },
    {
      "icao": "LCPH",
      "alert": "OK",
      "vis_m": 9999,
      "fzfg": false,
      "metar_trigger": false,
      "taf_trigger": false,
      "metar": "METAR LCPH 012000Z 14019G30KT 090V160 9999 FEW025 SCT080 17/14 Q1008 TEMPO 3000 RA",
      "taf": "TAF LCPH 011730Z 0118/0218 11018KT 9999 SCT040"
    },
    {
      "icao": "LEAL",
      "alert": "OK",
      "vis_m": 9999,
      "fzfg": false,
      "metar_trigger": false,
      "taf_trigger": false,
      "metar": "METAR LEAL 012000Z 01005KT 350V060 CAVOK 14/11 Q1016 NOSIG",
      "taf": "TAF LEAL 011700Z 0118/0218 18008KT 9999 FEW030 SCT050 TX21/0212Z TN10/0205Z"
    },
    {
      "icao": "LEBB",
      "alert": "OK",
      "vis_m": 9999,
      "fzfg": false,
      "metar_trigger": false,
      "taf_trigger": false,
      "metar": "METAR LEBB 012000Z 29007KT 9999 SCT008 SCT014 BKN026 12/11 Q1026 NOSIG",
      "taf": "TAF LEBB 011700Z 0118/0218 32009KT 9999 FEW020 BKN030 TX13/0214Z TN09/0206Z"
    },
    {
      "icao": "LEBL",
      "alert": "OK",
      "vis_m": 9999,
      "fzfg": false,
      "metar_trigger": false,
      "taf_trigger": false,
      "metar": "METAR LEBL 012000Z 22011KT 9999 SCT018 SCT045 14/11 Q1014 NOSIG",
      "taf": "TAF LEBL 011700Z 0118/0218 20009KT 9999 SCT020 SCT030 TX21/0213Z TN09/0206Z"
    },
    {
      "icao": "LECH",
      "alert": "OK",
      "vis_m": 9000,
      "fzfg": false,
      "metar_trigger": false,
      "taf_trigger": false,
      "metar": "METAR LECH 012000Z AUTO 33022G39KT 290V020 9000 NCD 14/01 Q1015",
      "taf": "TAF LECH 011700Z 0118/0218 33015KT 9999 FEW050 TX19/0213Z TN11/0205Z"
    },
    {
      "icao": "LEMD",
      "alert": "OK",
      "vis_m": 9999,
      "fzfg": false,
      "metar_trigger": false,
      "taf_trigger": false,
      "metar": "METAR LEMD 012000Z 34010KT CAVOK 13/00 Q1021 NOSIG",
      "taf": "TAF LEMD 011700Z 0118/0224 01010KT CAVOK TX18/0215Z TN04/0206Z"
    },
    {
      "icao": "LEMG",
      "alert": "OK",
      "vis_m": 9999,
      "fzfg": false,
      "metar_trigger": false,
      "taf_trigger": false,
      "metar": "METAR LEMG 012000Z 29004KT 260V330 CAVOK 13/08 Q1019 NOSIG",
      "taf": "TAF LEMG 011700Z 0118/0218 14010KT CAVOK TX24/0213Z TN11/0207Z"
    },
    {
      "icao": "LEVC",
      "alert": "OK",
      "vis_m": 9999,
      "fzfg": false,
      "metar_trigger": false,
      "taf_trigger": false,
      "metar": "METAR LEVC 012000Z 33019G29KT 290V360 CAVOK 18/02 Q1016 NOSIG",
      "taf": ""
    },
    {
      "icao": "LEXJ",
      "alert": "OK",
      "vis_m": 3500,
      "fzfg": false,
      "metar_trigger": false,
      "taf_trigger": false,
      "metar": "METAR LEXJ 012000Z 29007KT 260V320 3500 -DZ BR FEW007 BKN015 11/10 Q1028",
      "taf": "TAF LEXJ 012000Z 0121/0221 32009KT 9999 SCT010 BKN020 TX14/0215Z TN10/0204Z"
    },
    {
      "icao": "LEZG",
      "alert": "OK",
      "vis_m": 9999,
      "fzfg": false,
      "metar_trigger": false,
      "taf_trigger": false,
      "metar": "METAR LEZG 012000Z 30017KT CAVOK 12/04 Q1021 NOSIG",
      "taf": ""
    },
    {
      "icao": "LEZL",
      "alert": "OK",
      "vis_m": 9999,
      "fzfg": false,
      "metar_trigger": false,
      "taf_trigger": false,
      "metar": "METAR LEZL 012000Z 01005KT CAVOK 19/07 Q1019 NOSIG",
      "taf": "TAF LEZL 012000Z 0121/0221 VRB03KT CAVOK TX26/0215Z TN09/0207Z"
    },
    {
      "icao": "LFBD",
      "alert": "OK",
      "vis_m": 9999,
      "fzfg": false,
      "metar_trigger": false,
      "taf_trigger": false,
      "metar": "METAR LFBD 012000Z AUTO 36010KT 9999 OVC045 12/06 Q1023 TEMPO 4000 -SHRA BKN010 BKN020TCU",
      "taf": "TAF LFBD 011700Z 0118/0224 33010KT 9999 BKN030 TX16/0214Z TN09/0205Z"
    },
    {
      "icao": "LFLL",
      "alert": "OK",
      "vis_m": 9999,
      "fzfg": false,
      "metar_trigger": false,
      "taf_trigger": false,
      "metar": "METAR LFLL 012000Z 36008KT CAVOK 08/M03 Q1017 NOSIG",
      "taf": "TAF LFLL 011700Z 0118/0224 35008KT CAVOK"
    },
    {
      "icao": "LFLS",
      "alert": "OK",
      "vis_m": 9999,
      "fzfg": false,
      "metar_trigger": false,
      "taf_trigger": false,
      "metar": "METAR LFLS 012000Z AUTO 02005KT CAVOK 03/M03 Q1016",
      "taf": ""
    },
    {
      "icao": "LFMN",
      "alert": "OK",
      "vis_m": 9999,
      "fzfg": false,
      "metar_trigger": false,
      "taf_trigger": false,
      "metar": "METAR LFMN 012000Z 29006KT 9999 FEW110 12/M02 Q1010 NOSIG",
      "taf": "TAF LFMN 012000Z 0121/0303 33010KT CAVOK"
    },
    {
      "icao": "LFOB",
      "alert": "OK",
      "vis_m": 6000,
      "fzfg": false,
      "metar_trigger": false,
      "taf_trigger": false,
      "metar": "METAR LFOB 012000Z AUTO 12003KT 6000 BKN023 BKN031 OVC047 09/09 Q1021 TEMPO 4000 -RA BKN007",
      "taf": "TAF LFOB 011700Z 0118/0218 VRB04KT 8000 SCT012"
    },
    {
      "icao": "LFPO",
      "alert": "OK",
      "vis_m": 8000,
      "fzfg": false,
      "metar_trigger": false,
      "taf_trigger": false,
      "metar": "METAR LFPO 012000Z VRB02KT 8000 BKN031 09/08 Q1021 TEMPO -RADZ BKN012",
      "taf": "TAF LFPO 011700Z 0118/0224 VRB02KT 8000 BKN025"
    },
    {
      "icao": "LFSB",
      "alert": "OK",
      "vis_m": 9999,
      "fzfg": false,
      "metar_trigger": false,
      "taf_trigger": false,
      "metar": "METAR LFSB 012000Z AUTO 03004KT 010V080 9999 FEW052 OVC070 08/M01 Q1020 NOSIG",
      "taf": "TAF LFSB 011700Z 0118/0218 VRB03KT CAVOK"
    },
    {
      "icao": "LGAV",
      "alert": "OK",
      "vis_m": 6000,
      "fzfg": false,
      "metar_trigger": false,
      "taf_trigger": false,
      "metar": "METAR LGAV 012020Z 02028G38KT 6000 RA SCT012TCU BKN020 OVC070 13/12 Q0990 NOSIG",
      "taf": ""
    },
    {
      "icao": "LGTS",
      "alert": "OK",
      "vis_m": 9999,
      "fzfg": false,
      "metar_trigger": false,
      "taf_trigger": false,
      "metar": "METAR LGTS 012020Z 04008KT 9999 -DZ FEW010 SCT025 14/09 Q1001 NOSIG",
      "taf": "TAF LGTS 011700Z 0118/0218 07015KT 9999 FEW010 BKN025"
    },
    {
      "icao": "LHBP",
      "alert": "OK",
      "vis_m": 9999,
      "fzfg": false,
      "metar_trigger": false,
      "taf_trigger": false,
      "metar": "METAR LHBP 012000Z 04004KT 360V090 CAVOK 07/03 Q1015 NOSIG",
      "taf": "TAF LHBP 011715Z 0118/0218 04008KT CAVOK"
    },
    {
      "icao": "LHDC",
      "alert": "OK",
      "vis_m": 9999,
      "fzfg": false,
      "metar_trigger": false,
      "taf_trigger": false,
      "metar": "METAR LHDC 011945Z AUTO 02012KT 340V050 CAVOK 05/02 Q1014",
      "taf": "TAF LHDC 011115Z 0112/0121 02015G25KT 9999 BKN035"
    },
    {
      "icao": "LIBD",
      "alert": "OK",
      "vis_m": 9999,
      "fzfg": false,
      "metar_trigger": false,
      "taf_trigger": false,
      "metar": "METAR LIBD 011950Z 29003KT 260V330 9999 -RA FEW010 BKN035 09/09 Q0999",
      "taf": "TAF LIBD 011700Z 0118/0218 04012KT 7000 RA BKN040"
    },
    {
      "icao": "LIBG",
      "alert": "OK",
      "vis_m": null,
      "fzfg": false,
      "metar_trigger": false,
      "taf_trigger": false,
      "metar": "",
      "taf": "TAF LIBG 011100Z 0112/0121 10012KT 9999 BKN030"
    },
    {
      "icao": "LIBP",
      "alert": "OK",
      "vis_m": 9000,
      "fzfg": false,
      "metar_trigger": false,
      "taf_trigger": false,
      "metar": "METAR LIBP 011950Z AUTO 02012KT 9000 RA OVC017/// 10/09 Q1004",
      "taf": "TAF LIBP 011700Z 0118/0218 VRB05KT 7000 RA BKN010 OVC030"
    },
    {
      "icao": "LIBR",
      "alert": "OK",
      "vis_m": 9000,
      "fzfg": false,
      "metar_trigger": false,
      "taf_trigger": false,
      "metar": "METAR LIBR 011950Z 33009KT 9000 -RA BKN025 12/11 Q0997",
      "taf": "TAF LIBR 011700Z 0118/0218 05014KT 7000 RA OVC040"
    },
    {
      "icao": "LICA",
      "alert": "OK",
      "vis_m": 9999,
      "fzfg": false,
      "metar_trigger": false,
      "taf_trigger": false,
      "metar": "METAR LICA 011950Z AUTO 09008KT 9999 -RA OVC059/// 11/10 Q0996",
      "taf": "TAF LICA 011700Z 0118/0218 08016KT 9999 BKN040"
    },
    {
      "icao": "LICC",
      "alert": "OK",
      "vis_m": 9999,
      "fzfg": false,
      "metar_trigger": false,
      "taf_trigger": false,
      "metar": "METAR LICC 011950Z 20004KT 160V260 9999 SCT020 BKN050 12/09 Q0993",
      "taf": "TAF LICC 011700Z 0118/0218 08012KT 9999 SCT020 BKN050"
    },
    {
      "icao": "LICJ",
      "alert": "OK",
      "vis_m": 9999,
      "fzfg": false,
      "metar_trigger": false,
      "taf_trigger": false,
      "metar": "METAR LICJ 011950Z 01014KT 9999 FEW020 13/09 Q0996",
      "taf": "TAF LICJ 011700Z 0118/0218 02014KT 9999 SCT020"
    },
    {
      "icao": "LIMC",
      "alert": "OK",
      "vis_m": 9999,
      "fzfg": false,
      "metar_trigger": false,
      "taf_trigger": false,
      "metar": "METAR LIMC 011950Z VRB02KT CAVOK 06/M04 Q1012 NOSIG",
      "taf": "TAF LIMC 011700Z 0118/0224 01007KT 9999 SCT090"
    },
    {
      "icao": "LIME",
      "alert": "OK",
      "vis_m": 9999,
      "fzfg": false,
      "metar_trigger": false,
      "taf_trigger": false,
      "metar": "METAR LIME 011950Z AUTO 02004KT 9999 FEW100/// 09/M02 Q1012",
      "taf": "TAF LIME 011700Z 0118/0218 VRB05KT 9999 FEW090"
    },
    {
      "icao": "LIMF",
      "alert": "OK",
      "vis_m": 9999,
      "fzfg": false,
      "metar_trigger": false,
      "taf_trigger": false,
      "metar": "METAR LIMF 011950Z VRB02KT 9999 BKN090 10/M05 Q1012",
      "taf": "TAF LIMF 011700Z 0118/0218 VRB05KT 9999 SCT100"
    },
    {
      "icao": "LIMJ",
      "alert": "OK",
      "vis_m": 9999,
      "fzfg": false,
      "metar_trigger": false,
      "taf_trigger": false,
      "metar": "METAR LIMJ 011950Z 02017G27KT 350V050 CAVOK 15/M05 Q1010",
      "taf": "TAF LIMJ 011700Z 0118/0218 02012KT CAVOK"
    },
    {
      "icao": "LIPE",
      "alert": "OK",
      "vis_m": 9999,
      "fzfg": false,
      "metar_trigger": false,
      "taf_trigger": false,
      "metar": "METAR LIPE 011950Z 33003KT CAVOK 09/M04 Q1011",
      "taf": "TAF LIPE 011700Z 0118/0218 06012KT 9999 SCT060"
    },
    {
      "icao": "LIPH",
      "alert": "OK",
      "vis_m": 9999,
      "fzfg": false,
      "metar_trigger": false,
      "taf_trigger": false,
      "metar": "METAR LIPH 011950Z 07004KT CAVOK 11/00 Q1011",
      "taf": "TAF LIPH 011700Z 0118/0218 08012KT 9999 SCT060"
    },
    {
      "icao": "LIPQ",
      "alert": "OK",
      "vis_m": 9999,
      "fzfg": false,
      "metar_trigger": false,
      "taf_trigger": false,
      "metar": "METAR LIPQ 011950Z AUTO 07007KT 9999 BKN230/// 12/M01 Q1011",
      "taf": "TAF LIPQ 011700Z 0118/0218 06013KT CAVOK"
    },
    {
      "icao": "LIPR",
      "alert": "OK",
      "vis_m": 9999,
      "fzfg": false,
      "metar_trigger": false,
      "taf_trigger": false,
      "metar": "METAR LIPR 011950Z 08014G25KT 040V100 9999 -DZ BKN065 12/05 Q1009",
      "taf": "TAF LIPR 011700Z 0118/0218 03016KT 9999 SCT050"
    },
    {
      "icao": "LIPX",
      "alert": "OK",
      "vis_m": 9999,
      "fzfg": false,
      "metar_trigger": false,
      "taf_trigger": false,
      "metar": "METAR LIPX 011950Z 31003KT 9999 BKN090 10/02 Q1012",
      "taf": "TAF LIPX 011700Z 0118/0218 VRB05KT 9999 BKN080"
    },
    {
      "icao": "LIPY",
      "alert": "OK",
      "vis_m": 9999,
      "fzfg": false,
      "metar_trigger": false,
      "taf_trigger": false,
      "metar": "METAR LIPY 011950Z AUTO 05012KT 9999 -RA OVC034/// 11/07 Q1008",
      "taf": "TAF LIPY 011700Z 0118/0218 03015KT 9999 BKN050"
    },
    {
      "icao": "LIPZ",
      "alert": "OK",
      "vis_m": 9999,
      "fzfg": false,
      "metar_trigger": false,
      "taf_trigger": false,
      "metar": "METAR LIPZ 011950Z 09007KT CAVOK 12/05 Q1011 NOSIG",
      "taf": "TAF LIPZ 011700Z 0118/0224 10013KT CAVOK"
    },
    {
      "icao": "LIRF",
      "alert": "OK",
      "vis_m": 9999,
      "fzfg": false,
      "metar_trigger": false,
      "taf_trigger": false,
      "metar": "METAR LIRF 011950Z 36015KT CAVOK 11/03 Q1000 NOSIG",
      "taf": "TAF LIRF 011700Z 0118/0224 02020G30KT CAVOK"
    },
    {
      "icao": "LIRN",
      "alert": "OK",
      "vis_m": 9999,
      "fzfg": false,
      "metar_trigger": false,
      "taf_trigger": false,
      "metar": "METAR LIRN 011950Z 02010KT 340V040 9999 FEW060 11/05 Q0998 NOSIG",
      "taf": "TAF LIRN 011700Z 0118/0218 03018KT 9999 SCT040"
    },
    {
      "icao": "LIRP",
      "alert": "OK",
      "vis_m": 9999,
      "fzfg": false,
      "metar_trigger": false,
      "taf_trigger": false,
      "metar": "METAR LIRP 011945Z 08008KT 9999 FEW050 12/00 Q1008 NOSIG",
      "taf": "TAF LIRP 011700Z 0118/0218 05010KT 9999 SCT060"
    },
    {
      "icao": "LIRZ",
      "alert": "OK",
      "vis_m": 9999,
      "fzfg": false,
      "metar_trigger": false,
      "taf_trigger": false,
      "metar": "METAR LIRZ 011950Z AUTO 04021KT 9999 -DZRA BKN031/// 08/04 Q1005",
      "taf": "TAF LIRZ 011700Z 0118/0218 03016KT 9999 BKN040"
    },
    {
      "icao": "LJLJ",
      "alert": "OK",
      "vis_m": 9999,
      "fzfg": false,
      "metar_trigger": false,
      "taf_trigger": false,
      "metar": "METAR LJLJ 012000Z VRB04KT 9999 FEW060 BKN240 07/M02 Q1013 NOSIG",
      "taf": "TAF LJLJ 011700Z 0118/0218 08008KT 9999 FEW060"
    },
    {
      "icao": "LKMT",
      "alert": "OK",
      "vis_m": 9999,
      "fzfg": false,
      "metar_trigger": false,
      "taf_trigger": false,
      "metar": "METAR LKMT 012000Z 03008KT CAVOK 08/02 Q1019 NOSIG",
      "taf": "TAF LKMT 011700Z 0118/0218 04008KT 9999 SCT025 BKN040"
    },
    {
      "icao": "LKPR",
      "alert": "OK",
      "vis_m": 9999,
      "fzfg": false,
      "metar_trigger": false,
      "taf_trigger": false,
      "metar": "METAR LKPR 012000Z 34005KT CAVOK 03/M02 Q1021 NOSIG",
      "taf": "TAF LKPR 012000Z 0121/0303 34006KT CAVOK"
    },
    {
      "icao": "LLBG",
      "alert": "OK",
      "vis_m": 9999,
      "fzfg": false,
      "metar_trigger": false,
      "taf_trigger": false,
      "metar": "METAR LLBG 012020Z 02007KT CAVOK 20/15 Q1010 NOSIG RMK BKN110",
      "taf": "TAF LLBG 011705Z 0118/0218 09007KT CAVOK TX24/0209Z TN18/0202Z"
    },
    {
      "icao": "LMML",
      "alert": "OK",
      "vis_m": 9999,
      "fzfg": false,
      "metar_trigger": false,
      "taf_trigger": false,
      "metar": "METAR LMML 012015Z 29017G29KT 9999 FEW020 12/09 Q0995 NOSIG",
      "taf": "TAF LMML 011700Z 0118/0218 29017G27KT 9999 SCT015"
    },
    {
      "icao": "LOWW",
      "alert": "OK",
      "vis_m": 9999,
      "fzfg": false,
      "metar_trigger": false,
      "taf_trigger": false,
      "metar": "METAR LOWW 011950Z 35015KT 9999 SCT038 08/01 Q1018 NOSIG",
      "taf": "TAF LOWW 012016Z 0121/0303 34013KT 9999 SCT030 BKN050 TX11/0214Z TN06/0122Z"
    },
    {
      "icao": "LPFR",
      "alert": "OK",
      "vis_m": 9999,
      "fzfg": false,
      "metar_trigger": false,
      "taf_trigger": false,
      "metar": "METAR LPFR 012000Z VRB02KT CAVOK 17/12 Q1020",
      "taf": "TAF LPFR 011700Z 0118/0218 23007KT CAVOK"
    },
    {
      "icao": "LPMA",
      "alert": "OK",
      "vis_m": 9999,
      "fzfg": false,
      "metar_trigger": false,
      "taf_trigger": false,
      "metar": "METAR LPMA 012000Z 02014KT 330V030 9999 FEW015 21/02 Q1021",
      "taf": "TAF LPMA 011700Z 0118/0218 03013KT 9999 SCT015"
    },
    {
      "icao": "LPPR",
      "alert": "OK",
      "vis_m": 9999,
      "fzfg": false,
      "metar_trigger": false,
      "taf_trigger": false,
      "metar": "METAR LPPR 012000Z 34002KT CAVOK 13/11 Q1022",
      "taf": "TAF LPPR 011700Z 0118/0218 33010KT CAVOK"
    },
    {
      "icao": "LPPS",
      "alert": "OK",
      "vis_m": 9999,
      "fzfg": false,
      "metar_trigger": false,
      "taf_trigger": false,
      "metar": "METAR LPPS 012000Z 01010KT 9999 SCT012 16/13 Q1023",
      "taf": "TAF LPPS 011700Z 0118/0224 03012KT 9999 SCT015"
    },
    {
      "icao": "LPPT",
      "alert": "OK",
      "vis_m": 9999,
      "fzfg": false,
      "metar_trigger": false,
      "taf_trigger": false,
      "metar": "METAR LPPT 012000Z 33016KT CAVOK 17/06 Q1021",
      "taf": "TAF LPPT 011700Z 0118/0224 33013KT CAVOK"
    },
    {
      "icao": "LQBK",
      "alert": "OK",
      "vis_m": 9999,
      "fzfg": false,
      "metar_trigger": false,
      "taf_trigger": false,
      "metar": "METAR LQBK 012000Z 14003KT 9999 OVC040 06/04 Q1013 NOSIG",
      "taf": "TAF LQBK 011700Z 0118/0218 01005KT 9999 BKN040 TX10/0213Z TN05/0205Z"
    },
    {
      "icao": "LQSA",
      "alert": "OK",
      "vis_m": 9999,
      "fzfg": false,
      "metar_trigger": false,
      "taf_trigger": false,
      "metar": "METAR LQSA 012000Z 26005KT 9999 RA SCT020 BKN030 05/04 Q1009 NOSIG",
      "taf": "TAF LQSA 011700Z 0118/0218 28006KT 9999 -RA SCT018 BKN035 TX06/0213Z TN03/0205Z"
    },
    {
      "icao": "LQTZ",
      "alert": "OK",
      "vis_m": 200,
      "fzfg": false,
      "metar_trigger": false,
      "taf_trigger": false,
      "metar": "METAR LQTZ 012000Z VRB02KT 0200 R09/0250N FG VV004 02/02 Q1011",
      "taf": ""
    },
    {
      "icao": "LRBC",
      "alert": "OK",
      "vis_m": 9999,
      "fzfg": false,
      "metar_trigger": false,
      "taf_trigger": false,
      "metar": "METAR LRBC 012000Z AUTO 33011KT 9999 NCD 06/04 Q1013",
      "taf": "TAF LRBC 011700Z 0118/0203 35010KT 9999 BKN045"
    },
    {
      "icao": "LRBS",
      "alert": "OK",
      "vis_m": 9999,
      "fzfg": false,
      "metar_trigger": false,
      "taf_trigger": false,
      "metar": "METAR LRBS 012000Z 07010KT CAVOK 10/08 Q1011 NOSIG",
      "taf": "TAF LRBS 011700Z 0118/0218 06006KT 9999 SCT030"
    },
    {
      "icao": "LRBV",
      "alert": "OK",
      "vis_m": 9999,
      "fzfg": false,
      "metar_trigger": false,
      "taf_trigger": false,
      "metar": "METAR LRBV 012000Z VRB03KT 9999 FEW043 03/03 Q1011",
      "taf": "TAF LRBV 011700Z 0118/0203 VRB04KT CAVOK"
    },
    {
      "icao": "LRCL",
      "alert": "OK",
      "vis_m": 9999,
      "fzfg": false,
      "metar_trigger": false,
      "taf_trigger": false,
      "metar": "METAR LRCL 012000Z 28002KT CAVOK 05/03 Q1012",
      "taf": "TAF LRCL 011700Z 0118/0203 VRB04KT 9999 BKN055"
    },
    {
      "icao": "LRCV",
      "alert": "OK",
      "vis_m": 9999,
      "fzfg": false,
      "metar_trigger": false,
      "taf_trigger": false,
      "metar": "METAR LRCV 012000Z 08006KT CAVOK 08/07 Q1010",
      "taf": "TAF LRCV 011700Z 0118/0203 09008KT CAVOK"
    },
    {
      "icao": "LRIA",
      "alert": "OK",
      "vis_m": 9999,
      "fzfg": false,
      "metar_trigger": false,
      "taf_trigger": false,
      "metar": "METAR LRIA 012000Z 32011KT 9999 FEW012 07/04 Q1013",
      "taf": "TAF LRIA 011700Z 0118/0203 30010KT 9999 OVC015"
    },
    {
      "icao": "LROP",
      "alert": "OK",
      "vis_m": 9999,
      "fzfg": false,
      "metar_trigger": false,
      "taf_trigger": false,
      "metar": "METAR LROP 012000Z 07010KT CAVOK 10/07 Q1011 NOSIG",
      "taf": "TAF LROP 011700Z 0118/0218 07012KT 9999 SCT030"
    },
    {
      "icao": "LRSB",
      "alert": "OK",
      "vis_m": 9999,
      "fzfg": false,
      "metar_trigger": false,
      "taf_trigger": false,
      "metar": "METAR LRSB 012000Z VRB02KT 9999 FEW028 BKN035 06/05 Q1012",
      "taf": "TAF LRSB 011700Z 0118/0218 VRB04KT 9999 BKN030"
    },
    {
      "icao": "LRSM",
      "alert": "OK",
      "vis_m": 9999,
      "fzfg": false,
      "metar_trigger": false,
      "taf_trigger": false,
      "metar": "METAR LRSM 012000Z AUTO 24004KT 160V310 9999 NCD 05/02 Q1013",
      "taf": "TAF LRSM 011100Z 0112/0121 01010KT CAVOK"
    },
    {
      "icao": "LRSV",
      "alert": "OK",
      "vis_m": 9999,
      "fzfg": false,
      "metar_trigger": false,
      "taf_trigger": false,
      "metar": "METAR LRSV 012000Z 32015KT CAVOK 04/02 Q1013",
      "taf": "TAF LRSV 011700Z 0118/0203 32012KT 9999 BKN035"
    },
    {
      "icao": "LRTM",
      "alert": "OK",
      "vis_m": 9999,
      "fzfg": false,
      "metar_trigger": false,
      "taf_trigger": false,
      "metar": "METAR LRTM 012000Z 25003KT 230V290 CAVOK 04/03 Q1012",
      "taf": "TAF LRTM 011700Z 0118/0203 VRB04KT CAVOK"
    },
    {
      "icao": "LRTR",
      "alert": "OK",
      "vis_m": 9999,
      "fzfg": false,
      "metar_trigger": false,
      "taf_trigger": false,
      "metar": "METAR LRTR 012000Z 01014KT CAVOK 08/04 Q1011",
      "taf": "TAF LRTR 011700Z 0118/0218 01010KT CAVOK"
    },
    {
      "icao": "LTAC",
      "alert": "OK",
      "vis_m": 9999,
      "fzfg": false,
      "metar_trigger": false,
      "taf_trigger": false,
      "metar": "METAR LTAC 012020Z 05004KT 9999 SCT040 BKN080 11/05 Q1007 NOSIG",
      "taf": "TAF LTAC 011640Z 0118/0218 14008KT 9999 SCT040 BKN100"
    },
    {
      "icao": "LTFM",
      "alert": "OK",
      "vis_m": 4800,
      "fzfg": false,
      "metar_trigger": false,
      "taf_trigger": false,
      "metar": "METAR LTFM 012020Z 06016KT 4800 -RA BR BKN004 BKN032 10/09 Q1006 NOSIG",
      "taf": "TAF LTFM 011640Z 0118/0224 06017G27KT 6000 -RA SCT006 SCT032 BKN090"
    },
    {
      "icao": "LUKK",
      "alert": "OK",
      "vis_m": 9999,
      "fzfg": false,
      "metar_trigger": false,
      "taf_trigger": false,
      "metar": "METAR LUKK 012000Z 35009KT 9999 OVC010 09/07 Q1012 NOSIG",
      "taf": "TAF LUKK 011712Z 0118/0218 35006KT 9999 BKN015"
    },
    {
      "icao": "LWOH",
      "alert": "OK",
      "vis_m": null,
      "fzfg": false,
      "metar_trigger": false,
      "taf_trigger": false,
      "metar": "",
      "taf": "TAF LWOH 011720Z 0118/0218 34010KT 9999 RA SCT020 OVC040"
    },
    {
      "icao": "LWSK",
      "alert": "OK",
      "vis_m": 4000,
      "fzfg": false,
      "metar_trigger": false,
      "taf_trigger": false,
      "metar": "METAR LWSK 012020Z VRB02KT 4000 -RA SCT003 BKN015 OVC058 08/07 Q1004 NOSIG",
      "taf": "TAF LWSK 011720Z 0118/0218 VRB02KT 3000 RA SCT004 BKN020 OVC040"
    },
    {
      "icao": "LYBE",
      "alert": "OK",
      "vis_m": 9999,
      "fzfg": false,
      "metar_trigger": false,
      "taf_trigger": false,
      "metar": "METAR LYBE 012000Z 02009KT CAVOK 10/05 Q1010 NOSIG",
      "taf": "TAF LYBE 011700Z 0118/0218 01008KT CAVOK TX11/0213Z TN06/0206Z"
    },
    {
      "icao": "LYNI",
      "alert": "OK",
      "vis_m": 9999,
      "fzfg": false,
      "metar_trigger": false,
      "taf_trigger": false,
      "metar": "METAR LYNI 012000Z 34010KT 9999 FEW050 SCT085 09/07 Q1007 NOSIG",
      "taf": "TAF LYNI 011700Z 0118/0218 34012KT 9999 SCT050 BKN090 TX10/0213Z TN06/0206Z"
    },
    {
      "icao": "LYPG",
      "alert": "OK",
      "vis_m": 9999,
      "fzfg": false,
      "metar_trigger": false,
      "taf_trigger": false,
      "metar": "METAR LYPG 012000Z 36015KT 330V030 9999 FEW050 OVC080 14/01 Q1000 TEMPO 02030KT",
      "taf": "TAF LYPG 011700Z 0118/0218 02015KT 9999 FEW040 BKN080 TX16/0212Z TN10/0204Z"
    },
    {
      "icao": "LZIB",
      "alert": "OK",
      "vis_m": 9999,
      "fzfg": false,
      "metar_trigger": false,
      "taf_trigger": false,
      "metar": "METAR LZIB 012000Z 35009KT CAVOK 08/01 Q1017 NOSIG",
      "taf": "TAF LZIB 011715Z 0118/0218 35014KT CAVOK"
    },
    {
      "icao": "LZKZ",
      "alert": "OK",
      "vis_m": 9999,
      "fzfg": false,
      "metar_trigger": false,
      "taf_trigger": false,
      "metar": "METAR LZKZ 012000Z 01019KT 9999 SCT040 07/03 Q1015 NOSIG",
      "taf": "TAF LZKZ 011715Z 0118/0218 01012KT 9999 SCT030"
    },
    {
      "icao": "LZTT",
      "alert": "OK",
      "vis_m": 9999,
      "fzfg": false,
      "metar_trigger": false,
      "taf_trigger": false,
      "metar": "METAR LZTT 012000Z VRB03KT 9999 -RA FEW005 BKN020 OVC040 01/01 Q1016",
      "taf": "TAF LZTT 011715Z 0118/0218 23006KT 9999 FEW030 BKN060"
    },
    {
      "icao": "OEJN",
      "alert": "OK",
      "vis_m": 9999,
      "fzfg": false,
      "metar_trigger": false,
      "taf_trigger": false,
      "metar": "METAR OEJN 012000Z 00000KT CAVOK 29/16 Q1008 NOSIG",
      "taf": "TAF OEJN 011700Z 0118/0224 VRB03KT 7000 NSC"
    },
    {
      "icao": "OEMA",
      "alert": "OK",
      "vis_m": 9999,
      "fzfg": false,
      "metar_trigger": false,
      "taf_trigger": false,
      "metar": "METAR OEMA 012000Z 09009KT CAVOK 30/M01 Q1015 NOSIG",
      "taf": "TAF OEMA 011700Z 0118/0224 VRB03KT 9999 SCT045"
    },
    {
      "icao": "OJAI",
      "alert": "OK",
      "vis_m": 4000,
      "fzfg": false,
      "metar_trigger": false,
      "taf_trigger": false,
      "metar": "METAR OJAI 012000Z 05012KT 4000 -DZ NSC 13/09 Q1015 NOSIG",
      "taf": "TAF OJAI 011700Z 0118/0224 12014KT 4000 BR FEW025TCU SCT030"
    },
    {
      "icao": "OMAA",
      "alert": "OK",
      "vis_m": null,
      "fzfg": false,
      "metar_trigger": false,
      "taf_trigger": false,
      "metar": "",
      "taf": ""
    },
    {
      "icao": "OMDB",
      "alert": "OK",
      "vis_m": null,
      "fzfg": false,
      "metar_trigger": false,
      "taf_trigger": false,
      "metar": "",
      "taf": ""
    },
    {
      "icao": "UAAA",
      "alert": "OK",
      "vis_m": 9999,
      "fzfg": false,
      "metar_trigger": false,
      "taf_trigger": false,
      "metar": "METAR UAAA 012000Z VRB01MPS 9999 FEW200 10/02 Q1013 NOSIG",
      "taf": "TAF UAAA 011704Z 0118/0218 17003MPS 9999 SCT100 TX26/0210Z TN09/0201Z"
    },
    {
      "icao": "UBBB",
      "alert": "OK",
      "vis_m": 9999,
      "fzfg": false,
      "metar_trigger": false,
      "taf_trigger": false,
      "metar": "METAR UBBB 012000Z 28006KT CAVOK 11/10 Q1015 NOSIG",
      "taf": "TAF UBBB 011703Z 0118/0218 VRB04KT 9999 SCT030 TX19/0210Z TN08/0201Z"
    },
    {
      "icao": "UDSG",
      "alert": "OK",
      "vis_m": 9999,
      "fzfg": false,
      "metar_trigger": false,
      "taf_trigger": false,
      "metar": "METAR UDSG 012000Z 04005KT 9999 SCT049 05/M00 Q1017 NOSIG",
      "taf": "TAF UDSG 011658Z 0118/0218 24006KT 9999 SCT050"
    },
    {
      "icao": "UDYZ",
      "alert": "OK",
      "vis_m": 9999,
      "fzfg": false,
      "metar_trigger": false,
      "taf_trigger": false,
      "metar": "METAR UDYZ 012000Z 01004KT 9999 NSC 08/02 Q1015 NOSIG",
      "taf": "TAF UDYZ 011700Z 0118/0218 20006KT 9999 FEW040"
    },
    {
      "icao": "UGKO",
      "alert": "OK",
      "vis_m": 9999,
      "fzfg": false,
      "metar_trigger": false,
      "taf_trigger": false,
      "metar": "METAR UGKO 012000Z VRB02KT 9999 -RA SCT035 BKN077 13/09 Q1013 NOSIG",
      "taf": ""
    }
  ]
}