{
  "ts_utc": "2026-03-19T09:43:41Z",
  "threshold_m": 150,
  "source": "stations_override.txt (ICAO list) + aviationweather.gov (METAR/TAF raw)",
  "station_count": 159,
  "stations": [
    {
      "icao": "BIKF",
      "alert": "OK",
      "vis_m": 5000,
      "fzfg": false,
      "metar_trigger": false,
      "taf_trigger": false,
      "metar": "METAR BIKF 190930Z 19035G47KT 5000 RA BR OVC007 07/06 Q0993",
      "taf": "TAF BIKF 190752Z 1909/2009 18032G42KT 7000 RA BKN010 OVC020 TX07/1912Z TNM01/2003Z"
    },
    {
      "icao": "BKPR",
      "alert": "OK",
      "vis_m": 9999,
      "fzfg": false,
      "metar_trigger": false,
      "taf_trigger": false,
      "metar": "METAR BKPR 190930Z 04013KT 9999 FEW045 SCT080 10/M03 Q1015 NOSIG",
      "taf": "TAF BKPR 190530Z 1906/2006 03008KT 9999 BKN040"
    },
    {
      "icao": "EBCI",
      "alert": "OK",
      "vis_m": 9999,
      "fzfg": false,
      "metar_trigger": false,
      "taf_trigger": false,
      "metar": "METAR EBCI 190920Z 06007KT CAVOK 11/04 Q1026 NOSIG",
      "taf": "TAF EBCI 190515Z 1906/2012 06006KT CAVOK"
    },
    {
      "icao": "EDDB",
      "alert": "OK",
      "vis_m": 9999,
      "fzfg": false,
      "metar_trigger": false,
      "taf_trigger": false,
      "metar": "METAR EDDB 190920Z AUTO 36003KT 310V070 CAVOK 13/03 Q1028 NOSIG",
      "taf": "TAF EDDB 190500Z 1906/2006 05004KT CAVOK"
    },
    {
      "icao": "EDDH",
      "alert": "OK",
      "vis_m": 9999,
      "fzfg": false,
      "metar_trigger": false,
      "taf_trigger": false,
      "metar": "METAR EDDH 190920Z AUTO 07002KT CAVOK 13/04 Q1028 NOSIG",
      "taf": "TAF EDDH 190500Z 1906/2012 VRB02KT CAVOK"
    },
    {
      "icao": "EDDK",
      "alert": "OK",
      "vis_m": 9999,
      "fzfg": false,
      "metar_trigger": false,
      "taf_trigger": false,
      "metar": "METAR EDDK 190920Z AUTO VRB02KT CAVOK 12/04 Q1027 NOSIG",
      "taf": "TAF EDDK 190500Z 1906/2012 VRB03KT CAVOK"
    },
    {
      "icao": "EDDN",
      "alert": "OK",
      "vis_m": 9999,
      "fzfg": false,
      "metar_trigger": false,
      "taf_trigger": false,
      "metar": "METAR EDDN 190920Z AUTO 06005KT 340V130 CAVOK 11/M00 Q1025 NOSIG",
      "taf": "TAF EDDN 190500Z 1906/2006 VRB03KT CAVOK"
    },
    {
      "icao": "EDDS",
      "alert": "OK",
      "vis_m": 9999,
      "fzfg": false,
      "metar_trigger": false,
      "taf_trigger": false,
      "metar": "METAR EDDS 190920Z AUTO 08006KT 050V120 CAVOK 10/01 Q1022 NOSIG",
      "taf": "TAF EDDS 190500Z 1906/2006 05007KT CAVOK"
    },
    {
      "icao": "EDFH",
      "alert": "OK",
      "vis_m": 9999,
      "fzfg": false,
      "metar_trigger": false,
      "taf_trigger": false,
      "metar": "METAR EDFH 190920Z 06007KT 010V100 CAVOK 09/01 Q1025",
      "taf": "TAF EDFH 190500Z 1906/2006 08007KT CAVOK"
    },
    {
      "icao": "EDJA",
      "alert": "OK",
      "vis_m": 9999,
      "fzfg": false,
      "metar_trigger": false,
      "taf_trigger": false,
      "metar": "METAR EDJA 190920Z 06008KT CAVOK 05/01 Q1022",
      "taf": "TAF EDJA 190800Z 1909/1918 05005KT 4000 BR BKN006"
    },
    {
      "icao": "EDLW",
      "alert": "OK",
      "vis_m": 9999,
      "fzfg": false,
      "metar_trigger": false,
      "taf_trigger": false,
      "metar": "METAR EDLW 190920Z 02004KT 350V070 CAVOK 10/04 Q1027",
      "taf": "TAF EDLW 190500Z 1906/2006 VRB03KT CAVOK"
    },
    {
      "icao": "EDNY",
      "alert": "OK",
      "vis_m": 9999,
      "fzfg": false,
      "metar_trigger": false,
      "taf_trigger": false,
      "metar": "METAR EDNY 190920Z 02006KT 330V070 CAVOK 07/02 Q1022",
      "taf": "TAF EDNY 190800Z 1909/1918 03009KT CAVOK"
    },
    {
      "icao": "EDSB",
      "alert": "OK",
      "vis_m": 9999,
      "fzfg": false,
      "metar_trigger": false,
      "taf_trigger": false,
      "metar": "METAR EDSB 190920Z 01012KT CAVOK 10/02 Q1023",
      "taf": "TAF EDSB 190500Z 1906/2006 03011KT CAVOK"
    },
    {
      "icao": "EETN",
      "alert": "OK",
      "vis_m": 6000,
      "fzfg": false,
      "metar_trigger": false,
      "taf_trigger": false,
      "metar": "METAR EETN 190920Z 22008KT 6000 OVC007 02/01 Q1020 NOSIG",
      "taf": "TAF EETN 190530Z 1906/2006 21010KT 9999 SCT006 BKN030"
    },
    {
      "icao": "EFTU",
      "alert": "OK",
      "vis_m": 9999,
      "fzfg": false,
      "metar_trigger": false,
      "taf_trigger": false,
      "metar": "METAR EFTU 190920Z AUTO 28005KT 240V320 9999 FEW012 07/04 Q1018",
      "taf": "TAF EFTU 190821Z 1909/2009 25007KT 9999 BKN009"
    },
    {
      "icao": "EGBB",
      "alert": "OK",
      "vis_m": 9999,
      "fzfg": false,
      "metar_trigger": false,
      "taf_trigger": false,
      "metar": "METAR EGBB 190920Z 06005KT 330V140 CAVOK 10/03 Q1028",
      "taf": "TAF EGBB 190459Z 1906/2006 06004KT CAVOK"
    },
    {
      "icao": "EGGP",
      "alert": "OK",
      "vis_m": 8000,
      "fzfg": false,
      "metar_trigger": false,
      "taf_trigger": false,
      "metar": "METAR EGGP 190920Z 12005KT 8000 NSC 10/05 Q1028",
      "taf": ""
    },
    {
      "icao": "EGGW",
      "alert": "OK",
      "vis_m": 9999,
      "fzfg": false,
      "metar_trigger": false,
      "taf_trigger": false,
      "metar": "METAR EGGW 190920Z AUTO 05006KT 030V090 9999 NCD 11/05 Q1027",
      "taf": "TAF EGGW 190501Z 1906/2006 06005KT CAVOK"
    },
    {
      "icao": "EGKK",
      "alert": "OK",
      "vis_m": 9999,
      "fzfg": false,
      "metar_trigger": false,
      "taf_trigger": false,
      "metar": "METAR EGKK 190920Z 07007KT CAVOK 11/05 Q1027",
      "taf": "TAF EGKK 190500Z 1906/2012 08006KT CAVOK"
    },
    {
      "icao": "EGNM",
      "alert": "OK",
      "vis_m": 9999,
      "fzfg": false,
      "metar_trigger": false,
      "taf_trigger": false,
      "metar": "METAR EGNM 190920Z 02008KT 9999 FEW012 09/07 Q1029",
      "taf": "TAF EGNM 190502Z 1906/2006 07005KT 9999 FEW030"
    },
    {
      "icao": "EGPD",
      "alert": "OK",
      "vis_m": 9999,
      "fzfg": false,
      "metar_trigger": false,
      "taf_trigger": false,
      "metar": "METAR EGPD 190920Z COR AUTO 32006KT 280V350 9999 NCD 09/04 Q1030 NOSIG",
      "taf": "TAF EGPD 190453Z 1906/2006 29004KT 9999 FEW040"
    },
    {
      "icao": "EGPF",
      "alert": "OK",
      "vis_m": 9999,
      "fzfg": false,
      "metar_trigger": false,
      "taf_trigger": false,
      "metar": "METAR EGPF 190920Z AUTO VRB02KT 9999 NCD 10/06 Q1031",
      "taf": "TAF EGPF 190501Z 1906/2006 VRB03KT 9999 SCT040"
    },
    {
      "icao": "EHBK",
      "alert": "OK",
      "vis_m": 9999,
      "fzfg": false,
      "metar_trigger": false,
      "taf_trigger": false,
      "metar": "METAR EHBK 190925Z AUTO 06006KT 030V090 9999 NSC 11/04 Q1026 NOSIG",
      "taf": "TAF EHBK 190508Z 1906/2012 06006KT CAVOK"
    },
    {
      "icao": "EHEH",
      "alert": "OK",
      "vis_m": 9999,
      "fzfg": false,
      "metar_trigger": false,
      "taf_trigger": false,
      "metar": "METAR EHEH 190925Z AUTO 05004KT 340V150 9999 OVC330 12/04 Q1027 BLU NOSIG RMK TREND REMOTE BY EHWX",
      "taf": "TAF EHEH 190550Z 1906/2012 04003KT 7000 NSC"
    },
    {
      "icao": "EKBI",
      "alert": "OK",
      "vis_m": 9999,
      "fzfg": false,
      "metar_trigger": false,
      "taf_trigger": false,
      "metar": "METAR EKBI 190920Z AUTO 27007KT 9999 NCD 11/03 Q1027",
      "taf": "TAF EKBI 190827Z 1909/2009 24005KT 9999 BKN045"
    },
    {
      "icao": "EKCH",
      "alert": "OK",
      "vis_m": 9999,
      "fzfg": false,
      "metar_trigger": false,
      "taf_trigger": false,
      "metar": "METAR EKCH 190920Z AUTO 27005KT 9999 BKN056/// BKN073/// 11/02 Q1027 NOSIG",
      "taf": "TAF EKCH 190827Z 1909/2009 23004KT 9999 FEW040"
    },
    {
      "icao": "ENAL",
      "alert": "OK",
      "vis_m": 9999,
      "fzfg": false,
      "metar_trigger": false,
      "taf_trigger": false,
      "metar": "METAR ENAL 190920Z 22008KT 9999 VCSH FEW008 BKN037 07/05 Q1024",
      "taf": "TAF ENAL 190800Z 1909/1918 24008KT 9999 FEW020 BKN040"
    },
    {
      "icao": "ENBR",
      "alert": "OK",
      "vis_m": 9999,
      "fzfg": false,
      "metar_trigger": false,
      "taf_trigger": false,
      "metar": "METAR ENBR 190920Z 19004KT 160V230 9999 FEW005 BKN010 06/05 Q1027 NOSIG RMK WIND 1200FT 26007KT",
      "taf": ""
    },
    {
      "icao": "ENGM",
      "alert": "OK",
      "vis_m": 9999,
      "fzfg": false,
      "metar_trigger": false,
      "taf_trigger": false,
      "metar": "METAR ENGM 190920Z 15003KT 100V200 9999 VCFG FEW001 05/02 Q1022 NOSIG",
      "taf": ""
    },
    {
      "icao": "ENHD",
      "alert": "OK",
      "vis_m": 9999,
      "fzfg": false,
      "metar_trigger": false,
      "taf_trigger": false,
      "metar": "METAR ENHD 190920Z VRB01KT 9999 FEW003 BKN008 07/07 Q1028",
      "taf": ""
    },
    {
      "icao": "ENTC",
      "alert": "OK",
      "vis_m": 5000,
      "fzfg": false,
      "metar_trigger": false,
      "taf_trigger": false,
      "metar": "METAR ENTC 190920Z 28022KT 5000 -SHRASN BKN021CB 04/01 Q0995 TEMPO 27030G40KT 4500 SHRASNGS BKN014 RMK WIND 2600FT 30049G72KT",
      "taf": ""
    },
    {
      "icao": "ENTO",
      "alert": "OK",
      "vis_m": 9999,
      "fzfg": false,
      "metar_trigger": false,
      "taf_trigger": false,
      "metar": "METAR ENTO 190920Z 33005KT 9999 VCFG NSC 09/02 Q1024 NOSIG",
      "taf": ""
    },
    {
      "icao": "ENVA",
      "alert": "OK",
      "vis_m": 9999,
      "fzfg": false,
      "metar_trigger": false,
      "taf_trigger": false,
      "metar": "METAR ENVA 190920Z 26017KT 9999 FEW018 BKN023 06/03 Q1022 NOSIG RMK WIND 670FT 27013G26KT",
      "taf": "TAF ENVA 190500Z 1906/2006 28018KT 9999 -SHRA BKN025"
    },
    {
      "icao": "ENZV",
      "alert": "OK",
      "vis_m": 5000,
      "fzfg": false,
      "metar_trigger": false,
      "taf_trigger": false,
      "metar": "METAR ENZV 190920Z 00000KT 5000 BR SCT002 BKN003 07/06 Q1028 BECMG 9999 NSW FEW002",
      "taf": ""
    },
    {
      "icao": "EPGD",
      "alert": "OK",
      "vis_m": 9999,
      "fzfg": false,
      "metar_trigger": false,
      "taf_trigger": false,
      "metar": "METAR EPGD 190930Z 29006KT 260V320 9999 FEW047 09/M00 Q1026",
      "taf": "TAF EPGD 190530Z 1906/2006 28007KT CAVOK"
    },
    {
      "icao": "EPKK",
      "alert": "OK",
      "vis_m": 9999,
      "fzfg": false,
      "metar_trigger": false,
      "taf_trigger": false,
      "metar": "METAR EPKK 190930Z VRB02KT 9999 FEW068 10/M00 Q1025",
      "taf": "TAF EPKK 190830Z 1909/2009 VRB02KT 9999 SCT050"
    },
    {
      "icao": "EPKT",
      "alert": "OK",
      "vis_m": 9999,
      "fzfg": false,
      "metar_trigger": false,
      "taf_trigger": false,
      "metar": "METAR EPKT 190930Z 06006KT 010V100 9999 FEW048TCU 11/01 Q1025",
      "taf": "TAF EPKT 190530Z 1906/2006 06005KT CAVOK"
    },
    {
      "icao": "EPLB",
      "alert": "OK",
      "vis_m": 9999,
      "fzfg": false,
      "metar_trigger": false,
      "taf_trigger": false,
      "metar": "METAR EPLB 190930Z 09006KT 9999 FEW040 10/01 Q1025",
      "taf": "TAF EPLB 190530Z 1906/2006 03003KT CAVOK"
    },
    {
      "icao": "EPMO",
      "alert": "OK",
      "vis_m": 9999,
      "fzfg": false,
      "metar_trigger": false,
      "taf_trigger": false,
      "metar": "METAR EPMO 190930Z 36005KT 310V040 CAVOK 10/04 Q1026",
      "taf": "TAF EPMO 190530Z 1906/2006 02003KT CAVOK"
    },
    {
      "icao": "EPPO",
      "alert": "OK",
      "vis_m": 9999,
      "fzfg": false,
      "metar_trigger": false,
      "taf_trigger": false,
      "metar": "METAR EPPO 190930Z 02005KT CAVOK 10/01 Q1027",
      "taf": "TAF EPPO 190530Z 1906/2006 32004KT 3000 BR NSC"
    },
    {
      "icao": "EPRA",
      "alert": "OK",
      "vis_m": 9999,
      "fzfg": false,
      "metar_trigger": false,
      "taf_trigger": false,
      "metar": "METAR EPRA 190930Z 34004KT CAVOK 09/02 Q1025",
      "taf": "TAF EPRA 190830Z 1909/1918 34006KT CAVOK"
    },
    {
      "icao": "EPRZ",
      "alert": "OK",
      "vis_m": 9999,
      "fzfg": false,
      "metar_trigger": false,
      "taf_trigger": false,
      "metar": "METAR EPRZ 190930Z 01005KT 320V040 9999 FEW035 10/M00 Q1024",
      "taf": "TAF EPRZ 190530Z 1906/2006 VRB02KT CAVOK"
    },
    {
      "icao": "EPSC",
      "alert": "OK",
      "vis_m": 9999,
      "fzfg": false,
      "metar_trigger": false,
      "taf_trigger": false,
      "metar": "METAR EPSC 190930Z 28004KT 260V320 CAVOK 11/01 Q1027",
      "taf": "TAF EPSC 190530Z 1906/2006 VRB02KT CAVOK"
    },
    {
      "icao": "EPSY",
      "alert": "OK",
      "vis_m": 9999,
      "fzfg": false,
      "metar_trigger": false,
      "taf_trigger": false,
      "metar": "METAR EPSY 190930Z VRB02KT CAVOK 08/M00 Q1026",
      "taf": "TAF EPSY 190830Z 1909/1918 34006KT CAVOK"
    },
    {
      "icao": "EPWA",
      "alert": "OK",
      "vis_m": 9999,
      "fzfg": false,
      "metar_trigger": false,
      "taf_trigger": false,
      "metar": "METAR EPWA 190930Z 34005KT 310V040 CAVOK 11/03 Q1026 NOSIG",
      "taf": "TAF EPWA 190830Z 1909/2009 VRB03KT CAVOK"
    },
    {
      "icao": "EPWR",
      "alert": "OK",
      "vis_m": 9999,
      "fzfg": false,
      "metar_trigger": false,
      "taf_trigger": false,
      "metar": "METAR EPWR 190930Z 28003KT 240V360 CAVOK 11/04 Q1026",
      "taf": "TAF EPWR 190830Z 1909/2009 02005KT CAVOK"
    },
    {
      "icao": "ESGG",
      "alert": "OK",
      "vis_m": 6000,
      "fzfg": false,
      "metar_trigger": false,
      "taf_trigger": false,
      "metar": "METAR ESGG 190920Z 28005KT 240V320 6000 OVC004 06/05 Q1024",
      "taf": "TAF ESGG 190830Z 1909/2009 24010KT 5000 BR OVC004"
    },
    {
      "icao": "ESKN",
      "alert": "OK",
      "vis_m": 9999,
      "fzfg": false,
      "metar_trigger": false,
      "taf_trigger": false,
      "metar": "METAR ESKN 190920Z 30011KT 9999 BKN013 07/04 Q1021",
      "taf": ""
    },
    {
      "icao": "ESMS",
      "alert": "OK",
      "vis_m": 9999,
      "fzfg": false,
      "metar_trigger": false,
      "taf_trigger": false,
      "metar": "METAR ESMS 190920Z 30006KT 270V330 CAVOK 11/01 Q1026",
      "taf": "TAF ESMS 190827Z 1909/2009 25005KT CAVOK"
    },
    {
      "icao": "ESSA",
      "alert": "OK",
      "vis_m": 9999,
      "fzfg": false,
      "metar_trigger": false,
      "taf_trigger": false,
      "metar": "METAR ESSA 190920Z 28007KT CAVOK 08/04 Q1020 NOSIG",
      "taf": "TAF ESSA 190830Z 1909/2009 30009KT 9999 FEW012"
    },
    {
      "icao": "EYKA",
      "alert": "OK",
      "vis_m": 9999,
      "fzfg": false,
      "metar_trigger": false,
      "taf_trigger": false,
      "metar": "METAR EYKA 190920Z VRB04KT CAVOK 07/01 Q1026",
      "taf": "TAF EYKA 190505Z 1906/2006 VRB04KT 5000 BR NSC"
    },
    {
      "icao": "EYPA",
      "alert": "OK",
      "vis_m": 9999,
      "fzfg": false,
      "metar_trigger": false,
      "taf_trigger": false,
      "metar": "METAR EYPA 190920Z 21007KT 170V280 9999 FEW044 06/01 Q1025",
      "taf": "TAF EYPA 190519Z 1906/2006 VRB05KT 5000 BR SCT002 BKN030"
    },
    {
      "icao": "EYVI",
      "alert": "OK",
      "vis_m": 9999,
      "fzfg": false,
      "metar_trigger": false,
      "taf_trigger": false,
      "metar": "METAR EYVI 190920Z 31006KT 280V340 CAVOK 07/02 Q1025 NOSIG",
      "taf": "TAF EYVI 190508Z 1906/2006 VRB03KT 9000 SCT040"
    },
    {
      "icao": "GCFV",
      "alert": "OK",
      "vis_m": 9999,
      "fzfg": false,
      "metar_trigger": false,
      "taf_trigger": false,
      "metar": "METAR GCFV 190930Z 20013KT 180V240 9999 BKN028 18/11 Q1003",
      "taf": "TAF GCFV 190800Z 1909/2009 21020KT 9999 SCT030 TX22/1914Z TN16/2006Z"
    },
    {
      "icao": "GCLP",
      "alert": "OK",
      "vis_m": 9999,
      "fzfg": false,
      "metar_trigger": false,
      "taf_trigger": false,
      "metar": "METAR GCLP 190930Z 21020KT 9999 FEW035 19/10 Q1002 NOSIG",
      "taf": "TAF GCLP 190800Z 1909/2009 22015KT 9999 SCT035 TX22/1914Z TN16/2006Z"
    },
    {
      "icao": "GCTS",
      "alert": "OK",
      "vis_m": 9999,
      "fzfg": false,
      "metar_trigger": false,
      "taf_trigger": false,
      "metar": "METAR GCTS 190930Z 31015KT 9999 -RA BKN030 15/11 Q1003 NOSIG",
      "taf": "TAF GCTS 190800Z 1909/2009 28018KT 9999 SCT030 BKN100 TX23/1914Z TN16/2006Z"
    },
    {
      "icao": "GMAD",
      "alert": "OK",
      "vis_m": 6000,
      "fzfg": false,
      "metar_trigger": false,
      "taf_trigger": false,
      "metar": "METAR GMAD 190930Z 00000KT 6000 SCT020 SCT083 20/15 Q1005 NOSIG",
      "taf": "TAF GMAD 190500Z 1906/2012 12004KT 8000 SCT020 SCT080"
    },
    {
      "icao": "GMMN",
      "alert": "OK",
      "vis_m": 9999,
      "fzfg": false,
      "metar_trigger": false,
      "taf_trigger": false,
      "metar": "METAR GMMN 190930Z 02004KT 350V100 9999 BKN023 16/14 Q1006 NOSIG",
      "taf": "TAF GMMN 190500Z 1906/2012 20005KT 8000 BKN023"
    },
    {
      "icao": "GMMX",
      "alert": "OK",
      "vis_m": 8000,
      "fzfg": false,
      "metar_trigger": false,
      "taf_trigger": false,
      "metar": "METAR GMMX 190930Z 07007KT 020V110 8000 SCT023 15/11 Q1004 NOSIG",
      "taf": "TAF GMMX 190500Z 1906/2012 04006KT 8000 SCT080"
    },
    {
      "icao": "HEGN",
      "alert": "OK",
      "vis_m": 1000,
      "fzfg": false,
      "metar_trigger": false,
      "taf_trigger": false,
      "metar": "METAR HEGN 190900Z 29023KT 1000 R34/1000 R16/1000 SA NSC 24/01 Q1006 NOSIG",
      "taf": ""
    },
    {
      "icao": "HEMA",
      "alert": "OK",
      "vis_m": 1500,
      "fzfg": false,
      "metar_trigger": false,
      "taf_trigger": false,
      "metar": "METAR HEMA 190900Z 25016KT 1500 SA NSC 27/M02 Q1006 NOSIG",
      "taf": ""
    },
    {
      "icao": "HESH",
      "alert": "OK",
      "vis_m": 6000,
      "fzfg": false,
      "metar_trigger": false,
      "taf_trigger": false,
      "metar": "METAR HESH 190900Z 25012KT 6000 NSC 25/04 Q1005 NOSIG",
      "taf": ""
    },
    {
      "icao": "HESX",
      "alert": "OK",
      "vis_m": 9999,
      "fzfg": false,
      "metar_trigger": false,
      "taf_trigger": false,
      "metar": "METAR HESX 190900Z 26014KT 9999 FEW020 SCT025 17/09 Q1005 NOSIG",
      "taf": "TAF HESX 190500Z 1906/2012 21011KT 9999 SCT025 BKN070"
    },
    {
      "icao": "LATI",
      "alert": "OK",
      "vis_m": 9999,
      "fzfg": false,
      "metar_trigger": false,
      "taf_trigger": false,
      "metar": "METAR LATI 190920Z VRB01KT 9999 SCT098 15/02 Q1009 NOSIG",
      "taf": "TAF LATI 190500Z 1906/2006 VRB05KT CAVOK TX17/1912Z TN05/2004Z"
    },
    {
      "icao": "LBPD",
      "alert": "OK",
      "vis_m": 9999,
      "fzfg": false,
      "metar_trigger": false,
      "taf_trigger": false,
      "metar": "METAR LBPD 190930Z AUTO VRB02KT 9999 OVC060/// 08/M00 Q1017 NOSIG",
      "taf": ""
    },
    {
      "icao": "LBSF",
      "alert": "OK",
      "vis_m": 9999,
      "fzfg": false,
      "metar_trigger": false,
      "taf_trigger": false,
      "metar": "METAR LBSF 190930Z 09010KT 9999 OVC040 05/M03 Q1017 NOSIG",
      "taf": "TAF LBSF 190500Z 1906/2006 12010KT 9999 SCT030 OVC050"
    },
    {
      "icao": "LBWN",
      "alert": "OK",
      "vis_m": 9999,
      "fzfg": false,
      "metar_trigger": false,
      "taf_trigger": false,
      "metar": "METAR LBWN 190930Z 03013KT 360V090 9999 SCT034 09/01 Q1017 NOSIG",
      "taf": "TAF LBWN 190500Z 1906/2006 02014KT CAVOK"
    },
    {
      "icao": "LCLK",
      "alert": "OK",
      "vis_m": 9999,
      "fzfg": false,
      "metar_trigger": false,
      "taf_trigger": false,
      "metar": "METAR LCLK 190930Z 07012KT 9999 FEW009 FEW030CB SCT050 16/15 Q0999 TEMPO 3000 SCT025CB",
      "taf": "TAF LCLK 190530Z 1906/2006 36009KT 9999 FEW030 SCT050"
    },
    {
      "icao": "LCPH",
      "alert": "OK",
      "vis_m": 9999,
      "fzfg": false,
      "metar_trigger": false,
      "taf_trigger": false,
      "metar": "METAR LCPH 190930Z 25007KT 9999 FEW025CB SCT040 20/15 Q1000 TEMPO 3000 TSRA SCT025CB",
      "taf": "TAF LCPH 190530Z 1906/2006 07009KT 9999 FEW030 SCT050"
    },
    {
      "icao": "LEAL",
      "alert": "OK",
      "vis_m": 9999,
      "fzfg": false,
      "metar_trigger": false,
      "taf_trigger": false,
      "metar": "METAR LEAL 190930Z 07016KT CAVOK 17/11 Q1014 NOSIG",
      "taf": "TAF LEAL 190500Z 1906/2006 01005KT 9999 FEW020 TX19/1912Z TN11/1907Z"
    },
    {
      "icao": "LEBB",
      "alert": "OK",
      "vis_m": 9999,
      "fzfg": false,
      "metar_trigger": false,
      "taf_trigger": false,
      "metar": "METAR LEBB 190930Z 16007KT 110V250 CAVOK 18/08 Q1012 NOSIG",
      "taf": "TAF LEBB 190500Z 1906/2006 14009KT CAVOK TX20/1914Z TN08/1906Z"
    },
    {
      "icao": "LEBL",
      "alert": "OK",
      "vis_m": 9999,
      "fzfg": false,
      "metar_trigger": false,
      "taf_trigger": false,
      "metar": "METAR LEBL 190930Z 05012KT 9999 SCT024 BKN033 14/08 Q1018 NOSIG",
      "taf": "TAF LEBL 190500Z 1906/2006 07012KT 9999 FEW020 TX16/1912Z TN06/2006Z"
    },
    {
      "icao": "LECH",
      "alert": "OK",
      "vis_m": 9000,
      "fzfg": false,
      "metar_trigger": false,
      "taf_trigger": false,
      "metar": "METAR LECH 190930Z AUTO 05008KT 020V090 9000 FEW019 BKN050 12/07 Q1017",
      "taf": "TAF LECH 190500Z 1906/2006 04009KT 9999 SCT020 TX16/1912Z TN07/1907Z"
    },
    {
      "icao": "LEMD",
      "alert": "OK",
      "vis_m": 9999,
      "fzfg": false,
      "metar_trigger": false,
      "taf_trigger": false,
      "metar": "METAR LEMD 190930Z 03002KT CAVOK 12/04 Q1014 NOSIG",
      "taf": "TAF LEMD 190500Z 1906/2012 VRB04KT CAVOK TX21/1915Z TN06/1907Z"
    },
    {
      "icao": "LEMG",
      "alert": "OK",
      "vis_m": 9999,
      "fzfg": false,
      "metar_trigger": false,
      "taf_trigger": false,
      "metar": "METAR LEMG 190930Z 29004KT 260V320 9999 FEW020 15/11 Q1010 BECMG 13012KT",
      "taf": "TAF LEMG 190500Z 1906/2006 29006KT CAVOK TX20/1913Z TN09/1906Z"
    },
    {
      "icao": "LEVC",
      "alert": "OK",
      "vis_m": 9999,
      "fzfg": false,
      "metar_trigger": false,
      "taf_trigger": false,
      "metar": "METAR LEVC 190930Z 07011KT 9999 SCT021 SCT065 14/09 Q1016 NOSIG",
      "taf": "TAF LEVC 190500Z 1906/2006 02006KT 9999 SCT020 TX17/1912Z TN10/1907Z"
    },
    {
      "icao": "LEXJ",
      "alert": "OK",
      "vis_m": 9999,
      "fzfg": false,
      "metar_trigger": false,
      "taf_trigger": false,
      "metar": "METAR LEXJ 190930Z VRB02KT CAVOK 13/08 Q1010",
      "taf": "TAF LEXJ 190800Z 1909/2009 VRB03KT CAVOK TX21/1913Z TN07/2007Z"
    },
    {
      "icao": "LEZG",
      "alert": "OK",
      "vis_m": 9999,
      "fzfg": false,
      "metar_trigger": false,
      "taf_trigger": false,
      "metar": "METAR LEZG 190930Z 13015KT 9999 FEW025 13/07 Q1016 NOSIG",
      "taf": "TAF LEZG 190500Z 1906/2006 10012KT 9999 BKN020 TX16/1914Z TN08/1907Z"
    },
    {
      "icao": "LEZL",
      "alert": "OK",
      "vis_m": 9999,
      "fzfg": false,
      "metar_trigger": false,
      "taf_trigger": false,
      "metar": "METAR LEZL 190930Z VRB02KT CAVOK 19/10 Q1008 NOSIG",
      "taf": "TAF LEZL 190800Z 1909/2009 08007KT 9999 FEW035 TX24/1915Z TN13/2007Z"
    },
    {
      "icao": "LFBD",
      "alert": "OK",
      "vis_m": 9999,
      "fzfg": false,
      "metar_trigger": false,
      "taf_trigger": false,
      "metar": "METAR LFBD 190930Z AUTO 12015KT 090V150 CAVOK 15/05 Q1016 NOSIG",
      "taf": "TAF LFBD 190500Z 1906/2012 11012KT CAVOK TX18/1915Z TN04/2006Z"
    },
    {
      "icao": "LFLL",
      "alert": "OK",
      "vis_m": 9999,
      "fzfg": false,
      "metar_trigger": false,
      "taf_trigger": false,
      "metar": "METAR LFLL 190930Z 21003KT 140V260 CAVOK 10/04 Q1020 NOSIG",
      "taf": "TAF LFLL 190500Z 1906/2012 VRB03KT CAVOK"
    },
    {
      "icao": "LFLS",
      "alert": "OK",
      "vis_m": 9999,
      "fzfg": false,
      "metar_trigger": false,
      "taf_trigger": false,
      "metar": "METAR LFLS 190930Z AUTO 10003KT 050V160 CAVOK 11/04 Q1020 NOSIG",
      "taf": "TAF LFLS 190800Z 1909/2009 09007KT CAVOK"
    },
    {
      "icao": "LFMN",
      "alert": "OK",
      "vis_m": 9999,
      "fzfg": false,
      "metar_trigger": false,
      "taf_trigger": false,
      "metar": "METAR LFMN 190930Z VRB05KT CAVOK 17/02 Q1017 NOSIG",
      "taf": "TAF LFMN 190800Z 1909/2015 34010KT CAVOK"
    },
    {
      "icao": "LFOB",
      "alert": "OK",
      "vis_m": 9999,
      "fzfg": false,
      "metar_trigger": false,
      "taf_trigger": false,
      "metar": "METAR LFOB 190930Z AUTO 09013KT CAVOK 12/04 Q1024 NOSIG",
      "taf": "TAF LFOB 190500Z 1906/2006 VRB03KT CAVOK"
    },
    {
      "icao": "LFPO",
      "alert": "OK",
      "vis_m": 9999,
      "fzfg": false,
      "metar_trigger": false,
      "taf_trigger": false,
      "metar": "METAR LFPO 190930Z 08009KT CAVOK 12/04 Q1023 NOSIG",
      "taf": "TAF LFPO 190500Z 1906/2012 03005KT CAVOK"
    },
    {
      "icao": "LFSB",
      "alert": "OK",
      "vis_m": 9999,
      "fzfg": false,
      "metar_trigger": false,
      "taf_trigger": false,
      "metar": "METAR LFSB 190930Z AUTO VRB02KT CAVOK 11/03 Q1022 NOSIG",
      "taf": "TAF LFSB 190500Z 1906/2006 VRB03KT CAVOK"
    },
    {
      "icao": "LGAV",
      "alert": "OK",
      "vis_m": 9999,
      "fzfg": false,
      "metar_trigger": false,
      "taf_trigger": false,
      "metar": "METAR LGAV 190920Z 01016KT 340V040 9999 FEW018 BKN025 11/04 Q1011 NOSIG",
      "taf": "TAF LGAV 190500Z 1906/2006 36016KT 9999 FEW018 SCT025 BKN070"
    },
    {
      "icao": "LGTS",
      "alert": "OK",
      "vis_m": 9999,
      "fzfg": false,
      "metar_trigger": false,
      "taf_trigger": false,
      "metar": "METAR LGTS 190920Z VRB02KT 9999 SCT030 13/01 Q1015 NOSIG",
      "taf": "TAF LGTS 190500Z 1906/2006 VRB03KT 9999 SCT030"
    },
    {
      "icao": "LHBP",
      "alert": "OK",
      "vis_m": 9999,
      "fzfg": false,
      "metar_trigger": false,
      "taf_trigger": false,
      "metar": "METAR LHBP 190930Z 09015KT CAVOK 12/M02 Q1022 NOSIG",
      "taf": "TAF LHBP 190515Z 1906/2006 01006KT CAVOK"
    },
    {
      "icao": "LHDC",
      "alert": "OK",
      "vis_m": 9999,
      "fzfg": false,
      "metar_trigger": false,
      "taf_trigger": false,
      "metar": "METAR LHDC 190915Z AUTO 04008KT 360V080 CAVOK 11/M00 Q1022 NOSIG",
      "taf": "TAF LHDC 190815Z 1909/1918 04009KT CAVOK"
    },
    {
      "icao": "LIBD",
      "alert": "OK",
      "vis_m": 9999,
      "fzfg": false,
      "metar_trigger": false,
      "taf_trigger": false,
      "metar": "METAR LIBD 190920Z 07009KT 9999 -RA BKN025 11/07 Q1011 RERA",
      "taf": "TAF LIBD 190500Z 1906/2006 VRB06KT 9999 SCT030"
    },
    {
      "icao": "LIBG",
      "alert": "OK",
      "vis_m": 9999,
      "fzfg": false,
      "metar_trigger": false,
      "taf_trigger": false,
      "metar": "METAR LIBG 190850Z 06009KT 9999 -RA BKN020 11/09 Q1009",
      "taf": "TAF LIBG 190800Z 1909/1918 04012KT 9999 SCT025"
    },
    {
      "icao": "LIBP",
      "alert": "OK",
      "vis_m": 9999,
      "fzfg": false,
      "metar_trigger": false,
      "taf_trigger": false,
      "metar": "METAR LIBP 190920Z AUTO 32008KT 280V340 9999 FEW050/// OVC065/// 12/04 Q1015",
      "taf": "TAF LIBP 190500Z 1906/2006 VRB05KT 9999 BKN020"
    },
    {
      "icao": "LIBR",
      "alert": "OK",
      "vis_m": 9999,
      "fzfg": false,
      "metar_trigger": false,
      "taf_trigger": false,
      "metar": "METAR LIBR 190920Z 05008KT 9999 -RA OVC040 11/08 Q1009",
      "taf": "TAF LIBR 190500Z 1906/2006 VRB05KT 9999 BKN020"
    },
    {
      "icao": "LICA",
      "alert": "OK",
      "vis_m": 9999,
      "fzfg": false,
      "metar_trigger": false,
      "taf_trigger": false,
      "metar": "METAR LICA 190920Z AUTO 24010KT 9999 NCD 13/07 Q1009",
      "taf": "TAF LICA 190500Z 1906/2006 08006KT 8000 SCT050"
    },
    {
      "icao": "LICC",
      "alert": "OK",
      "vis_m": 9999,
      "fzfg": false,
      "metar_trigger": false,
      "taf_trigger": false,
      "metar": "METAR LICC 190920Z 28005KT 250V320 9999 FEW040 SCT110 13/12 Q1010",
      "taf": "TAF LICC 190500Z 1906/2006 25006KT 9999 SCT035"
    },
    {
      "icao": "LICJ",
      "alert": "OK",
      "vis_m": 9999,
      "fzfg": false,
      "metar_trigger": false,
      "taf_trigger": false,
      "metar": "METAR LICJ 190920Z 03006KT 360V060 9999 FEW030 13/07 Q1011",
      "taf": "TAF LICJ 190500Z 1906/2006 VRB05KT 9999 SCT030"
    },
    {
      "icao": "LIMC",
      "alert": "OK",
      "vis_m": 9999,
      "fzfg": false,
      "metar_trigger": false,
      "taf_trigger": false,
      "metar": "METAR LIMC 190920Z 31005KT 280V360 CAVOK 14/01 Q1020 NOSIG",
      "taf": "TAF LIMC 190500Z 1906/2012 35010KT 9999 FEW050"
    },
    {
      "icao": "LIME",
      "alert": "OK",
      "vis_m": 9999,
      "fzfg": false,
      "metar_trigger": false,
      "taf_trigger": false,
      "metar": "METAR LIME 190920Z 21004KT 160V250 CAVOK 14/02 Q1020 NOSIG",
      "taf": "TAF LIME 190500Z 1906/2006 01006KT 9999 FEW050"
    },
    {
      "icao": "LIMF",
      "alert": "OK",
      "vis_m": 9999,
      "fzfg": false,
      "metar_trigger": false,
      "taf_trigger": false,
      "metar": "METAR LIMF 190920Z 14004KT 100V160 CAVOK 12/02 Q1020",
      "taf": "TAF LIMF 190500Z 1906/2006 32010KT 9999 BKN060"
    },
    {
      "icao": "LIMJ",
      "alert": "OK",
      "vis_m": 9999,
      "fzfg": false,
      "metar_trigger": false,
      "taf_trigger": false,
      "metar": "METAR LIMJ 190920Z 03012KT 360V060 CAVOK 16/M02 Q1018",
      "taf": "TAF LIMJ 190500Z 1906/2006 02016KT 9999 SCT060"
    },
    {
      "icao": "LIPE",
      "alert": "OK",
      "vis_m": 9999,
      "fzfg": false,
      "metar_trigger": false,
      "taf_trigger": false,
      "metar": "METAR LIPE 190920Z 01005KT 300V090 CAVOK 13/02 Q1020",
      "taf": "TAF LIPE 190500Z 1906/2006 VRB05KT 9999 SCT050"
    },
    {
      "icao": "LIPH",
      "alert": "OK",
      "vis_m": 9999,
      "fzfg": false,
      "metar_trigger": false,
      "taf_trigger": false,
      "metar": "METAR LIPH 190920Z 09006KT 050V120 CAVOK 15/02 Q1020",
      "taf": "TAF LIPH 190500Z 1906/2006 08010KT 9999 SCT060"
    },
    {
      "icao": "LIPQ",
      "alert": "OK",
      "vis_m": 9999,
      "fzfg": false,
      "metar_trigger": false,
      "taf_trigger": false,
      "metar": "METAR LIPQ 190920Z AUTO 13009KT 100V160 9999 NCD 15/M01 Q1019",
      "taf": "TAF LIPQ 190500Z 1906/2006 07012KT 9999 FEW060 SCT090"
    },
    {
      "icao": "LIPR",
      "alert": "OK",
      "vis_m": 9999,
      "fzfg": false,
      "metar_trigger": false,
      "taf_trigger": false,
      "metar": "METAR LIPR 190920Z 04010KT CAVOK 14/06 Q1018",
      "taf": "TAF LIPR 190500Z 1906/2006 04013KT 9999 BKN050"
    },
    {
      "icao": "LIPX",
      "alert": "OK",
      "vis_m": 9999,
      "fzfg": false,
      "metar_trigger": false,
      "taf_trigger": false,
      "metar": "METAR LIPX 190920Z VRB04KT CAVOK 16/M02 Q1020",
      "taf": "TAF LIPX 190500Z 1906/2006 VRB05KT CAVOK"
    },
    {
      "icao": "LIPY",
      "alert": "OK",
      "vis_m": 9999,
      "fzfg": false,
      "metar_trigger": false,
      "taf_trigger": false,
      "metar": "METAR LIPY 190920Z AUTO 36011KT 9999 NCD 14/06 Q1017",
      "taf": "TAF LIPY 190500Z 1906/2006 03013KT 9999 BKN040"
    },
    {
      "icao": "LIPZ",
      "alert": "OK",
      "vis_m": 9999,
      "fzfg": false,
      "metar_trigger": false,
      "taf_trigger": false,
      "metar": "METAR LIPZ 190920Z 09008KT CAVOK 15/04 Q1020 NOSIG",
      "taf": "TAF LIPZ 190500Z 1906/2012 02007KT 9999 SCT060"
    },
    {
      "icao": "LIRF",
      "alert": "OK",
      "vis_m": 9999,
      "fzfg": false,
      "metar_trigger": false,
      "taf_trigger": false,
      "metar": "METAR LIRF 190920Z 04013KT CAVOK 15/03 Q1012 NOSIG",
      "taf": "TAF LIRF 190500Z 1906/2012 02010KT 9999 FEW050"
    },
    {
      "icao": "LIRN",
      "alert": "OK",
      "vis_m": 9999,
      "fzfg": false,
      "metar_trigger": false,
      "taf_trigger": false,
      "metar": "METAR LIRN 190920Z 34004KT 260V030 9999 BKN040 11/05 Q1012 NOSIG",
      "taf": "TAF LIRN 190500Z 1906/2006 03008KT 9999 SCT035"
    },
    {
      "icao": "LIRP",
      "alert": "OK",
      "vis_m": 9999,
      "fzfg": false,
      "metar_trigger": false,
      "taf_trigger": false,
      "metar": "METAR LIRP 190915Z 06015KT CAVOK 15/M01 Q1016 NOSIG",
      "taf": "TAF LIRP 190500Z 1906/2006 05006KT CAVOK"
    },
    {
      "icao": "LIRZ",
      "alert": "OK",
      "vis_m": 9999,
      "fzfg": false,
      "metar_trigger": false,
      "taf_trigger": false,
      "metar": "METAR LIRZ 190920Z AUTO 04016KT 010V080 9999 SCT055/// 14/01 Q1015",
      "taf": "TAF LIRZ 190500Z 1906/2006 02012KT 9999 SCT030"
    },
    {
      "icao": "LJLJ",
      "alert": "OK",
      "vis_m": 9999,
      "fzfg": false,
      "metar_trigger": false,
      "taf_trigger": false,
      "metar": "METAR LJLJ 190930Z 08007KT 050V110 9999 FEW060 11/M02 Q1020 NOSIG",
      "taf": "TAF LJLJ 190500Z 1906/2006 09008KT 9999 FEW075"
    },
    {
      "icao": "LKMT",
      "alert": "OK",
      "vis_m": 9999,
      "fzfg": false,
      "metar_trigger": false,
      "taf_trigger": false,
      "metar": "METAR LKMT 190930Z 03007KT 360V070 CAVOK 09/01 Q1025 NOSIG",
      "taf": "TAF LKMT 190500Z 1906/2006 03006KT CAVOK"
    },
    {
      "icao": "LKPR",
      "alert": "OK",
      "vis_m": 9999,
      "fzfg": false,
      "metar_trigger": false,
      "taf_trigger": false,
      "metar": "METAR LKPR 190930Z 06006KT 020V110 9999 FEW040 10/00 Q1025 NOSIG",
      "taf": "TAF LKPR 190800Z 1909/2015 04004KT CAVOK"
    },
    {
      "icao": "LLBG",
      "alert": "OK",
      "vis_m": 9999,
      "fzfg": false,
      "metar_trigger": false,
      "taf_trigger": false,
      "metar": "METAR LLBG 190920Z 24019KT CAVOK 21/11 Q1002 NOSIG",
      "taf": "TAF LLBG 190501Z 1906/2006 20005KT CAVOK TX21/1910Z TN13/2004Z"
    },
    {
      "icao": "LMML",
      "alert": "OK",
      "vis_m": 9999,
      "fzfg": false,
      "metar_trigger": false,
      "taf_trigger": false,
      "metar": "METAR LMML 190915Z 32015KT 9999 FEW035 15/08 Q1011 NOSIG",
      "taf": "TAF LMML 190500Z 1906/2006 33015KT 9999 FEW020"
    },
    {
      "icao": "LOWW",
      "alert": "OK",
      "vis_m": 9999,
      "fzfg": false,
      "metar_trigger": false,
      "taf_trigger": false,
      "metar": "METAR LOWW 190920Z 04004KT 360V100 CAVOK 11/M01 Q1024 NOSIG",
      "taf": "TAF LOWW 190815Z 1909/2015 34006KT CAVOK TX14/1914Z TN02/2004Z"
    },
    {
      "icao": "LPFR",
      "alert": "OK",
      "vis_m": 9999,
      "fzfg": false,
      "metar_trigger": false,
      "taf_trigger": false,
      "metar": "METAR LPFR 190930Z 09011KT 9999 SCT008 16/14 Q1006",
      "taf": "TAF LPFR 190500Z 1906/2006 13012KT 9999 SCT020"
    },
    {
      "icao": "LPMA",
      "alert": "OK",
      "vis_m": 9999,
      "fzfg": false,
      "metar_trigger": false,
      "taf_trigger": false,
      "metar": "METAR LPMA 190930Z 24014KT 9999 BKN013 FEW018CB 11/06 Q0995",
      "taf": "TAF LPMA 190500Z 1906/2006 22013KT 9999 SCT015"
    },
    {
      "icao": "LPPR",
      "alert": "OK",
      "vis_m": 9999,
      "fzfg": false,
      "metar_trigger": false,
      "taf_trigger": false,
      "metar": "METAR LPPR 190930Z 11009KT 080V140 CAVOK 18/07 Q1007",
      "taf": "TAF LPPR 190500Z 1906/2006 10010KT 9999 SCT030"
    },
    {
      "icao": "LPPS",
      "alert": "OK",
      "vis_m": 9999,
      "fzfg": false,
      "metar_trigger": false,
      "taf_trigger": false,
      "metar": "METAR LPPS 190930Z 20019KT 9999 FEW015 FEW018CB 13/07 Q0995",
      "taf": "TAF LPPS 190500Z 1906/2012 20015KT 9999 SCT015 SCT030"
    },
    {
      "icao": "LPPT",
      "alert": "OK",
      "vis_m": 9999,
      "fzfg": false,
      "metar_trigger": false,
      "taf_trigger": false,
      "metar": "METAR LPPT 190930Z 11009KT 090V150 9999 FEW002 BKN006 13/13 Q1005",
      "taf": "TAF LPPT 190500Z 1906/2012 11013KT 9999 SCT030"
    },
    {
      "icao": "LQBK",
      "alert": "OK",
      "vis_m": 9999,
      "fzfg": false,
      "metar_trigger": false,
      "taf_trigger": false,
      "metar": "METAR LQBK 190930Z 33006KT CAVOK 10/01 Q1020 NOSIG",
      "taf": "TAF LQBK 190500Z 1906/2006 34005KT CAVOK TX13/1913Z TN00/2005Z"
    },
    {
      "icao": "LQSA",
      "alert": "OK",
      "vis_m": 9999,
      "fzfg": false,
      "metar_trigger": false,
      "taf_trigger": false,
      "metar": "METAR LQSA 190930Z VRB02KT 9999 BKN055 08/M02 Q1016 NOSIG",
      "taf": "TAF LQSA 190500Z 1906/2006 VRB02KT 9999 SCT045 TX08/1914Z TN01/2005Z"
    },
    {
      "icao": "LQTZ",
      "alert": "OK",
      "vis_m": 9999,
      "fzfg": false,
      "metar_trigger": false,
      "taf_trigger": false,
      "metar": "METAR LQTZ 190930Z 08003KT 030V130 9999 FEW060 SCT070 09/00 Q1019",
      "taf": "TAF LQTZ 190500Z 1906/2006 11005KT CAVOK TX12/1913Z TNM01/2005Z"
    },
    {
      "icao": "LRBC",
      "alert": "OK",
      "vis_m": 9999,
      "fzfg": false,
      "metar_trigger": false,
      "taf_trigger": false,
      "metar": "METAR LRBC 190930Z 01006KT 340V050 9999 BKN013 BKN028 05/02 Q1022",
      "taf": "TAF LRBC 190800Z 1909/1918 34010KT 9999 BKN010 OVC025"
    },
    {
      "icao": "LRBS",
      "alert": "OK",
      "vis_m": 9999,
      "fzfg": false,
      "metar_trigger": false,
      "taf_trigger": false,
      "metar": "METAR LRBS 190930Z 06015KT 040V100 9999 FEW014 SCT026 07/02 Q1021 NOSIG",
      "taf": "TAF LRBS 190500Z 1906/2006 06010KT 9999 BKN035"
    },
    {
      "icao": "LRBV",
      "alert": "OK",
      "vis_m": 9999,
      "fzfg": false,
      "metar_trigger": false,
      "taf_trigger": false,
      "metar": "METAR LRBV 190930Z 15003KT 110V190 9999 FEW034 BKN052 04/M04 Q1020",
      "taf": "TAF LRBV 190800Z 1909/1918 08008KT 9999 BKN040"
    },
    {
      "icao": "LRCL",
      "alert": "OK",
      "vis_m": 9999,
      "fzfg": false,
      "metar_trigger": false,
      "taf_trigger": false,
      "metar": "METAR LRCL 190930Z 02004KT 330V070 9999 BKN067 08/M03 Q1021",
      "taf": "TAF LRCL 190800Z 1909/1918 VRB04KT 9999 BKN060"
    },
    {
      "icao": "LRCV",
      "alert": "OK",
      "vis_m": 9999,
      "fzfg": false,
      "metar_trigger": false,
      "taf_trigger": false,
      "metar": "METAR LRCV 190930Z 08011KT 9999 FEW029 08/02 Q1020",
      "taf": "TAF LRCV 190800Z 1909/1918 08010KT CAVOK"
    },
    {
      "icao": "LRIA",
      "alert": "OK",
      "vis_m": 9999,
      "fzfg": false,
      "metar_trigger": false,
      "taf_trigger": false,
      "metar": "METAR LRIA 190930Z 35006KT 300V010 9999 BKN013 OVC025 06/02 Q1022",
      "taf": "TAF LRIA 190800Z 1909/1918 VRB04KT 9999 BKN010 OVC025"
    },
    {
      "icao": "LROP",
      "alert": "OK",
      "vis_m": 9999,
      "fzfg": false,
      "metar_trigger": false,
      "taf_trigger": false,
      "metar": "METAR LROP 190930Z 08018KT 9999 FEW030 08/M02 Q1021 NOSIG",
      "taf": "TAF LROP 190500Z 1906/2006 07012KT 9999 BKN035"
    },
    {
      "icao": "LRSB",
      "alert": "OK",
      "vis_m": 9999,
      "fzfg": false,
      "metar_trigger": false,
      "taf_trigger": false,
      "metar": "METAR LRSB 190930Z 08006KT 9999 SCT045 BKN065 08/M03 Q1019",
      "taf": "TAF LRSB 190500Z 1906/2006 VRB04KT 9999 BKN045"
    },
    {
      "icao": "LRSM",
      "alert": "OK",
      "vis_m": 9999,
      "fzfg": false,
      "metar_trigger": false,
      "taf_trigger": false,
      "metar": "METAR LRSM 190930Z 04009KT 010V070 CAVOK 12/M01 Q1021",
      "taf": "TAF LRSM 190800Z 1909/1918 VRB04KT CAVOK"
    },
    {
      "icao": "LRSV",
      "alert": "OK",
      "vis_m": 9999,
      "fzfg": false,
      "metar_trigger": false,
      "taf_trigger": false,
      "metar": "METAR LRSV 190930Z 33009KT 9999 BKN006 BKN020 03/02 Q1021",
      "taf": "TAF LRSV 190800Z 1909/1918 35010KT 5000 -RA BR BKN010 OVC025"
    },
    {
      "icao": "LRTM",
      "alert": "OK",
      "vis_m": 9999,
      "fzfg": false,
      "metar_trigger": false,
      "taf_trigger": false,
      "metar": "METAR LRTM 190930Z 02006KT 340V060 9999 FEW036 08/M02 Q1020",
      "taf": "TAF LRTM 190800Z 1909/1918 VRB04KT CAVOK"
    },
    {
      "icao": "LRTR",
      "alert": "OK",
      "vis_m": 9999,
      "fzfg": false,
      "metar_trigger": false,
      "taf_trigger": false,
      "metar": "METAR LRTR 190930Z 08010KT CAVOK 11/M03 Q1020 NOSIG",
      "taf": "TAF LRTR 190500Z 1906/2006 VRB04KT CAVOK"
    },
    {
      "icao": "LTAC",
      "alert": "OK",
      "vis_m": 9999,
      "fzfg": false,
      "metar_trigger": false,
      "taf_trigger": false,
      "metar": "METAR LTAC 190920Z 09015KT 9999 SCT019 SCT030 BKN080 09/03 Q1005 BECMG 03008KT RMK RWY21C 09014KT RWY03L 09015KT RWY21R 08016KT RWY03R 07012KT RWY21L 09015KT",
      "taf": "TAF LTAC 190440Z 1906/2006 03008KT 9999 -SHRA BKN030 BKN080"
    },
    {
      "icao": "LTFM",
      "alert": "OK",
      "vis_m": 9999,
      "fzfg": false,
      "metar_trigger": false,
      "taf_trigger": false,
      "metar": "METAR LTFM 190920Z 04026KT 9999 FEW014 SCT032 BKN090 10/03 Q1013 NOSIG RMK RWY17L 04022KT RWY34L 03020KT RWY16R 04022KT RWY36 04026KT RWY18 04022KT",
      "taf": "TAF LTFM 190440Z 1906/2012 04018G28KT 9999 SCT014 BKN032"
    },
    {
      "icao": "LUKK",
      "alert": "OK",
      "vis_m": 9999,
      "fzfg": false,
      "metar_trigger": false,
      "taf_trigger": false,
      "metar": "METAR LUKK 190930Z 35008KT 310V040 9999 SCT021 BKN028 OVC048 06/01 Q1021 TEMPO BKN012",
      "taf": "TAF LUKK 190520Z 1906/2006 01010KT 9999 BKN025"
    },
    {
      "icao": "LWOH",
      "alert": "OK",
      "vis_m": 9999,
      "fzfg": false,
      "metar_trigger": false,
      "taf_trigger": false,
      "metar": "METAR LWOH 190920Z 34008KT 300V010 9999 SCT015 OVC033 07/01 Q1012",
      "taf": "TAF LWOH 190825Z 1909/2009 36008KT 9999 SCT020 BKN040"
    },
    {
      "icao": "LWSK",
      "alert": "OK",
      "vis_m": 9999,
      "fzfg": false,
      "metar_trigger": false,
      "taf_trigger": false,
      "metar": "METAR LWSK 190920Z 02011KT 9999 BKN050 BKN090 10/01 Q1015 NOSIG",
      "taf": "TAF LWSK 190825Z 1909/2009 02008KT 9999 SCT050 BKN090"
    },
    {
      "icao": "LYBE",
      "alert": "OK",
      "vis_m": 9999,
      "fzfg": false,
      "metar_trigger": false,
      "taf_trigger": false,
      "metar": "METAR LYBE 190930Z 08009KT CAVOK 11/01 Q1020 NOSIG",
      "taf": "TAF LYBE 190500Z 1906/2006 06012KT CAVOK TX13/1913Z TN03/2005Z"
    },
    {
      "icao": "LYNI",
      "alert": "OK",
      "vis_m": 9999,
      "fzfg": false,
      "metar_trigger": false,
      "taf_trigger": false,
      "metar": "METAR LYNI 190930Z 10006KT 020V160 9999 FEW050 12/M02 Q1017 TEMPO 04013KT",
      "taf": "TAF LYNI 190500Z 1906/2006 05012KT CAVOK TX14/1913Z TN01/2005Z"
    },
    {
      "icao": "LYPG",
      "alert": "OK",
      "vis_m": 9999,
      "fzfg": false,
      "metar_trigger": false,
      "taf_trigger": false,
      "metar": "METAR LYPG 190930Z 36014KT 330V030 9999 SCT090 16/M00 Q1011 NOSIG",
      "taf": "TAF LYPG 190500Z 1906/2006 36010KT 9999 BKN090 TX16/1913Z TN08/2005Z"
    },
    {
      "icao": "LZIB",
      "alert": "OK",
      "vis_m": 9999,
      "fzfg": false,
      "metar_trigger": false,
      "taf_trigger": false,
      "metar": "METAR LZIB 190930Z 07008KT 010V120 9999 FEW042 12/M03 Q1023 NOSIG",
      "taf": "TAF LZIB 190515Z 1906/2006 VRB02KT CAVOK"
    },
    {
      "icao": "LZKZ",
      "alert": "OK",
      "vis_m": 9999,
      "fzfg": false,
      "metar_trigger": false,
      "taf_trigger": false,
      "metar": "METAR LZKZ 190930Z 03013KT CAVOK 11/M01 Q1023 NOSIG",
      "taf": "TAF LZKZ 190515Z 1906/2006 01013KT CAVOK"
    },
    {
      "icao": "LZTT",
      "alert": "OK",
      "vis_m": 9999,
      "fzfg": false,
      "metar_trigger": false,
      "taf_trigger": false,
      "metar": "METAR LZTT 190930Z 06012KT 030V090 9999 BKN060 08/M05 Q1023 NOSIG",
      "taf": "TAF LZTT 190515Z 1906/2006 08006KT 9999 SCT045"
    },
    {
      "icao": "OEJN",
      "alert": "OK",
      "vis_m": 9999,
      "fzfg": false,
      "metar_trigger": false,
      "taf_trigger": false,
      "metar": "METAR OEJN 190900Z 15016KT 9999 BKN040 32/16 Q1006 NOSIG",
      "taf": "TAF OEJN 190500Z 1906/2012 22015KT 7000 SCT040"
    },
    {
      "icao": "OEMA",
      "alert": "OK",
      "vis_m": 6000,
      "fzfg": false,
      "metar_trigger": false,
      "taf_trigger": false,
      "metar": "METAR OEMA 190900Z 21025KT 6000 FEW035CB SCT040 29/13 Q1007 NOSIG",
      "taf": "TAF OEMA 190500Z 1906/2012 24015KT 7000 SCT040"
    },
    {
      "icao": "OJAI",
      "alert": "OK",
      "vis_m": 4000,
      "fzfg": false,
      "metar_trigger": false,
      "taf_trigger": false,
      "metar": "METAR OJAI 190900Z 24014KT 4000 HZ BKN030 17/07 Q1004 NOSIG",
      "taf": "TAF OJAI 190500Z 1906/2012 26018KT 4000 RA BR SCT025TCU SCT030"
    },
    {
      "icao": "OMAA",
      "alert": "OK",
      "vis_m": null,
      "fzfg": false,
      "metar_trigger": false,
      "taf_trigger": false,
      "metar": "",
      "taf": ""
    },
    {
      "icao": "OMDB",
      "alert": "OK",
      "vis_m": null,
      "fzfg": false,
      "metar_trigger": false,
      "taf_trigger": false,
      "metar": "",
      "taf": ""
    },
    {
      "icao": "UAAA",
      "alert": "OK",
      "vis_m": 9999,
      "fzfg": false,
      "metar_trigger": false,
      "taf_trigger": false,
      "metar": "METAR UAAA 190930Z 33002MPS 9999 SCT200 14/M04 Q1017 NOSIG",
      "taf": "TAF UAAA 190501Z 1906/2006 35003G09MPS 9999 FEW100 TX15/1910Z TN00/2000Z"
    },
    {
      "icao": "UBBB",
      "alert": "OK",
      "vis_m": 9999,
      "fzfg": false,
      "metar_trigger": false,
      "taf_trigger": false,
      "metar": "METAR UBBB 190930Z 17016KT 140V200 9999 BKN022 13/07 Q1018 NOSIG",
      "taf": "TAF UBBB 190500Z 1906/2006 18010KT 9999 SCT035 TX14/1910Z TN07/2000Z"
    },
    {
      "icao": "UDSG",
      "alert": "OK",
      "vis_m": 9999,
      "fzfg": false,
      "metar_trigger": false,
      "taf_trigger": false,
      "metar": "METAR UDSG 190930Z 31003KT 9999 NSC 10/M02 Q1015 NOSIG",
      "taf": "TAF UDSG 190458Z 1906/2006 VRB06KT 9999 FEW050"
    },
    {
      "icao": "UDYZ",
      "alert": "OK",
      "vis_m": 9999,
      "fzfg": false,
      "metar_trigger": false,
      "taf_trigger": false,
      "metar": "METAR UDYZ 190930Z 21003KT 150V280 9999 NSC 14/00 Q1014 NOSIG",
      "taf": "TAF UDYZ 190500Z 1906/2006 20006KT 9999 FEW040"
    },
    {
      "icao": "UGKO",
      "alert": "OK",
      "vis_m": 9999,
      "fzfg": false,
      "metar_trigger": false,
      "taf_trigger": false,
      "metar": "METAR UGKO 190930Z 07036G47KT CAVOK 19/03 Q1006 NOSIG",
      "taf": "TAF UGKO 190500Z 1906/2006 08027G39KT CAVOK TX21/1911Z TN13/2003Z"
    }
  ]
}