{
  "ts_utc": "2026-06-12T06:19:19Z",
  "threshold_m": 150,
  "source": "stations_override.txt (ICAO list) + aviationweather.gov (METAR/TAF raw)",
  "station_count": 159,
  "stations": [
    {
      "icao": "BIKF",
      "alert": "OK",
      "vis_m": 9999,
      "fzfg": false,
      "metar_trigger": false,
      "taf_trigger": false,
      "metar": "METAR BIKF 120600Z 36005KT 320V020 CAVOK 11/09 Q1002",
      "taf": "TAF BIKF 120432Z 1206/1306 04006KT 9999 SCT035 BKN050 TX16/1215Z TN08/1304Z"
    },
    {
      "icao": "BKPR",
      "alert": "OK",
      "vis_m": 9999,
      "fzfg": false,
      "metar_trigger": false,
      "taf_trigger": false,
      "metar": "METAR BKPR 120600Z 01009KT 9999 BKN010 BKN025 12/12 Q1021 NOSIG",
      "taf": ""
    },
    {
      "icao": "EBCI",
      "alert": "OK",
      "vis_m": 3500,
      "fzfg": false,
      "metar_trigger": false,
      "taf_trigger": false,
      "metar": "METAR EBCI 120550Z 25010KT 3500 -RADZ SCT004 BKN005 14/13 Q1020 TEMPO BKN004",
      "taf": "TAF EBCI 120510Z 1206/1312 25012G22KT 6000 -DZ SCT003 BKN006"
    },
    {
      "icao": "EDDB",
      "alert": "OK",
      "vis_m": 9999,
      "fzfg": false,
      "metar_trigger": false,
      "taf_trigger": false,
      "metar": "METAR EDDB 120550Z AUTO 19006KT CAVOK 13/09 Q1018 NOSIG",
      "taf": "TAF EDDB 120500Z 1206/1306 19006KT CAVOK"
    },
    {
      "icao": "EDDH",
      "alert": "OK",
      "vis_m": 9999,
      "fzfg": false,
      "metar_trigger": false,
      "taf_trigger": false,
      "metar": "METAR EDDH 120550Z AUTO 17007KT 9999 SCT017 OVC023 13/10 Q1015 TEMPO 3000 DZRA BKN009",
      "taf": "TAF EDDH 120500Z 1206/1312 16008KT 9999 BKN012"
    },
    {
      "icao": "EDDK",
      "alert": "OK",
      "vis_m": 9999,
      "fzfg": false,
      "metar_trigger": false,
      "taf_trigger": false,
      "metar": "METAR EDDK 120550Z AUTO 19006KT 9999 SCT007 OVC011 14/13 Q1018 RERA BECMG 26008KT BKN007",
      "taf": "TAF EDDK 120500Z 1206/1312 18006KT 9999 SCT015 BKN020"
    },
    {
      "icao": "EDDN",
      "alert": "OK",
      "vis_m": 9999,
      "fzfg": false,
      "metar_trigger": false,
      "taf_trigger": false,
      "metar": "METAR EDDN 120550Z AUTO 19006KT 160V220 9999 BKN016 OVC021 12/10 Q1021 BECMG BKN010",
      "taf": "TAF EDDN 120500Z 1206/1306 20006KT 9999 BKN015"
    },
    {
      "icao": "EDDS",
      "alert": "OK",
      "vis_m": 9999,
      "fzfg": false,
      "metar_trigger": false,
      "taf_trigger": false,
      "metar": "METAR EDDS 120550Z AUTO VRB06KT 9999 -RADZ OVC036 12/10 Q1021 TEMPO RA",
      "taf": "TAF EDDS 120500Z 1206/1306 25005KT 9999 BKN045"
    },
    {
      "icao": "EDFH",
      "alert": "OK",
      "vis_m": 3500,
      "fzfg": false,
      "metar_trigger": false,
      "taf_trigger": false,
      "metar": "METAR EDFH 120550Z 26013KT 3500 BR OVC001 12/12 Q1020 RERA",
      "taf": "TAF EDFH 120500Z 1206/1306 25013KT 9999 OVC005"
    },
    {
      "icao": "EDJA",
      "alert": "OK",
      "vis_m": 9999,
      "fzfg": false,
      "metar_trigger": false,
      "taf_trigger": false,
      "metar": "METAR EDJA 120550Z COR 22013KT 9999 -RA OVC029 11/09 Q1024",
      "taf": "TAF EDJA 120500Z 1206/1215 23011KT 9999 OVC035"
    },
    {
      "icao": "EDLW",
      "alert": "OK",
      "vis_m": 9999,
      "fzfg": false,
      "metar_trigger": false,
      "taf_trigger": false,
      "metar": "METAR EDLW 120550Z 22011KT 9999 OVC007 14/13 Q1016",
      "taf": "TAF EDLW 120500Z 1206/1306 24012KT 9999 SCT007 BKN010"
    },
    {
      "icao": "EDNY",
      "alert": "OK",
      "vis_m": 9999,
      "fzfg": false,
      "metar_trigger": false,
      "taf_trigger": false,
      "metar": "METAR EDNY 120550Z 19006KT 160V220 9999 -RA OVC042 13/10 Q1025",
      "taf": "TAF EDNY 120500Z 1206/1215 23007KT 9999 OVC040"
    },
    {
      "icao": "EDSB",
      "alert": "OK",
      "vis_m": 7000,
      "fzfg": false,
      "metar_trigger": false,
      "taf_trigger": false,
      "metar": "METAR EDSB 120550Z 19013KT 7000 -RA OVC025 13/12 Q1022 RERA",
      "taf": "TAF EDSB 120500Z 1206/1306 20012KT 9999 BKN025"
    },
    {
      "icao": "EETN",
      "alert": "OK",
      "vis_m": 9999,
      "fzfg": false,
      "metar_trigger": false,
      "taf_trigger": false,
      "metar": "METAR EETN 120550Z 26015KT 9999 OVC009 12/11 Q1010 NOSIG",
      "taf": "TAF EETN 120530Z 1206/1306 25014KT 9999 OVC006"
    },
    {
      "icao": "EFTU",
      "alert": "OK",
      "vis_m": 9999,
      "fzfg": false,
      "metar_trigger": false,
      "taf_trigger": false,
      "metar": "METAR EFTU 120550Z AUTO 29009KT 9999 OVC005 12/11 Q1009",
      "taf": "TAF EFTU 120530Z 1206/1306 29009KT 4500 -DZRA BKN003 SCT020CB"
    },
    {
      "icao": "EGBB",
      "alert": "OK",
      "vis_m": 9999,
      "fzfg": false,
      "metar_trigger": false,
      "taf_trigger": false,
      "metar": "METAR EGBB 120550Z 22005KT 190V250 9999 -RA BKN009 15/14 Q1018",
      "taf": "TAF EGBB 120500Z 1206/1306 26010KT 9999 FEW014 BKN020"
    },
    {
      "icao": "EGGP",
      "alert": "OK",
      "vis_m": 9999,
      "fzfg": false,
      "metar_trigger": false,
      "taf_trigger": false,
      "metar": "METAR EGGP 120550Z 24005KT 200V260 9999 SCT028 BKN035 15/12 Q1016",
      "taf": "TAF EGGP 120455Z 1206/1306 27009KT 9999 SCT035"
    },
    {
      "icao": "EGGW",
      "alert": "OK",
      "vis_m": 9999,
      "fzfg": false,
      "metar_trigger": false,
      "taf_trigger": false,
      "metar": "METAR EGGW 120550Z AUTO 25012KT 9999 OVC010 14/13 Q1018",
      "taf": "TAF EGGW 120455Z 1206/1306 26012KT 9999 BKN012"
    },
    {
      "icao": "EGKK",
      "alert": "OK",
      "vis_m": 9999,
      "fzfg": false,
      "metar_trigger": false,
      "taf_trigger": false,
      "metar": "METAR EGKK 120550Z 27012KT 9999 BKN013 16/14 Q1020",
      "taf": "TAF EGKK 120455Z 1206/1312 25012KT 9999 BKN016"
    },
    {
      "icao": "EGNM",
      "alert": "OK",
      "vis_m": 9999,
      "fzfg": false,
      "metar_trigger": false,
      "taf_trigger": false,
      "metar": "METAR EGNM 120550Z 26014KT 9999 FEW015 SCT032 13/11 Q1015",
      "taf": "TAF EGNM 120454Z 1206/1306 27015KT 9999 SCT025"
    },
    {
      "icao": "EGPD",
      "alert": "OK",
      "vis_m": 9999,
      "fzfg": false,
      "metar_trigger": false,
      "taf_trigger": false,
      "metar": "METAR EGPD 120550Z COR 26006KT 210V310 9999 BKN043 13/07 Q1008 NOSIG",
      "taf": "TAF EGPD 120458Z 1206/1306 25009KT 9999 FEW040"
    },
    {
      "icao": "EGPF",
      "alert": "OK",
      "vis_m": 9999,
      "fzfg": false,
      "metar_trigger": false,
      "taf_trigger": false,
      "metar": "METAR EGPF 120550Z AUTO 23003KT 120V300 9999 -RA BKN013 OVC030 12/09 Q1012",
      "taf": "TAF EGPF 120456Z 1206/1306 25007KT 9999 BKN020"
    },
    {
      "icao": "EHBK",
      "alert": "OK",
      "vis_m": 6000,
      "fzfg": false,
      "metar_trigger": false,
      "taf_trigger": false,
      "metar": "METAR EHBK 120555Z AUTO 24010KT 200V270 6000 DZ SCT002 BKN003 OVC006 15/14 Q1018 TEMPO 3000 BKN002",
      "taf": "TAF EHBK 120456Z 1206/1312 24012KT 8000 -DZRA BKN004"
    },
    {
      "icao": "EHEH",
      "alert": "OK",
      "vis_m": 2700,
      "fzfg": false,
      "metar_trigger": false,
      "taf_trigger": false,
      "metar": "METAR EHEH 120555Z AUTO 24006KT 180V280 2700 R21/2400D DZ FEW003 BKN005 OVC006 16/15 Q1017 YLO NOSIG",
      "taf": "TAF EHEH 120530Z 1206/1312 23009KT 5000 -DZ SCT003 BKN005"
    },
    {
      "icao": "EKBI",
      "alert": "OK",
      "vis_m": 9999,
      "fzfg": false,
      "metar_trigger": false,
      "taf_trigger": false,
      "metar": "METAR EKBI 120550Z AUTO 15007KT 120V180 9999 -RA OVC041/// 12/10 Q1013",
      "taf": "TAF EKBI 120527Z 1206/1306 16008KT 9999 FEW030"
    },
    {
      "icao": "EKCH",
      "alert": "OK",
      "vis_m": 9999,
      "fzfg": false,
      "metar_trigger": false,
      "taf_trigger": false,
      "metar": "METAR EKCH 120550Z AUTO 18007KT 9999 FEW035/// 15/10 Q1016 NOSIG",
      "taf": "TAF EKCH 120527Z 1206/1306 19005KT 9999 FEW040"
    },
    {
      "icao": "ENAL",
      "alert": "OK",
      "vis_m": 9999,
      "fzfg": false,
      "metar_trigger": false,
      "taf_trigger": false,
      "metar": "METAR ENAL 120550Z 09003KT 060V120 CAVOK 13/07 Q1008",
      "taf": "TAF ENAL 120500Z 1206/1215 16005KT 9999 SCT060"
    },
    {
      "icao": "ENBR",
      "alert": "OK",
      "vis_m": 9999,
      "fzfg": false,
      "metar_trigger": false,
      "taf_trigger": false,
      "metar": "METAR ENBR 120550Z 13008KT 9999 -SHRA FEW033CB SCT042 09/07 Q1009 TEMPO SHRA BKN025CB RMK WIND 1200FT 14015KT",
      "taf": "TAF ENBR 120500Z 1206/1306 15008KT 9999 -SHRA SCT030 BKN050"
    },
    {
      "icao": "ENGM",
      "alert": "OK",
      "vis_m": 9999,
      "fzfg": false,
      "metar_trigger": false,
      "taf_trigger": false,
      "metar": "METAR ENGM 120550Z 21004KT 160V230 9999 SCT009 BKN013 10/07 Q1011 BECMG SCT015",
      "taf": "TAF ENGM 120500Z 1206/1306 19002KT 9999 BKN008"
    },
    {
      "icao": "ENHD",
      "alert": "OK",
      "vis_m": 9999,
      "fzfg": false,
      "metar_trigger": false,
      "taf_trigger": false,
      "metar": "METAR ENHD 120550Z 13012KT 9999 -SHRA FEW019 SCT038 11/08 Q1008",
      "taf": "TAF ENHD 120500Z 1206/1215 13012KT 9999 -SHRA FEW012 BKN020"
    },
    {
      "icao": "ENTC",
      "alert": "OK",
      "vis_m": 9999,
      "fzfg": false,
      "metar_trigger": false,
      "taf_trigger": false,
      "metar": "METAR ENTC 120550Z VRB02KT CAVOK 12/06 Q1015 NOSIG RMK WIND 2600FT 18013KT",
      "taf": "TAF ENTC 120500Z 1206/1306 23004KT CAVOK"
    },
    {
      "icao": "ENTO",
      "alert": "OK",
      "vis_m": 9999,
      "fzfg": false,
      "metar_trigger": false,
      "taf_trigger": false,
      "metar": "METAR ENTO 120550Z 20008KT 9999 FEW025TCU 12/08 Q1012 NOSIG",
      "taf": "TAF ENTO 120500Z 1206/1306 23008KT 9999 FEW025"
    },
    {
      "icao": "ENVA",
      "alert": "OK",
      "vis_m": 9999,
      "fzfg": false,
      "metar_trigger": false,
      "taf_trigger": false,
      "metar": "METAR ENVA 120550Z 10006KT CAVOK 12/08 Q1010 NOSIG RMK WIND 670FT 10007KT",
      "taf": "TAF ENVA 120500Z 1206/1306 12005KT CAVOK"
    },
    {
      "icao": "ENZV",
      "alert": "OK",
      "vis_m": 9999,
      "fzfg": false,
      "metar_trigger": false,
      "taf_trigger": false,
      "metar": "METAR ENZV 120550Z 14010KT 9999 -RA FEW023 SCT040 BKN048 11/09 Q1009 TEMPO 4000 SHRA BKN012 SCT025CB",
      "taf": "TAF ENZV 120500Z 1206/1306 16008KT 9999 -SHRA FEW008 SCT020"
    },
    {
      "icao": "EPGD",
      "alert": "OK",
      "vis_m": 9999,
      "fzfg": false,
      "metar_trigger": false,
      "taf_trigger": false,
      "metar": "METAR EPGD 120600Z 25008KT 9999 FEW014 14/10 Q1018",
      "taf": "TAF EPGD 120530Z 1206/1306 25004KT 9999 SCT030"
    },
    {
      "icao": "EPKK",
      "alert": "OK",
      "vis_m": 9999,
      "fzfg": false,
      "metar_trigger": false,
      "taf_trigger": false,
      "metar": "METAR EPKK 120600Z 25007KT 9999 FEW018 14/09 Q1021",
      "taf": "TAF EPKK 120530Z 1206/1306 24005KT 9999 SCT060"
    },
    {
      "icao": "EPKT",
      "alert": "OK",
      "vis_m": 9999,
      "fzfg": false,
      "metar_trigger": false,
      "taf_trigger": false,
      "metar": "METAR EPKT 120600Z 27005KT 240V300 CAVOK 13/09 Q1021",
      "taf": "TAF EPKT 120530Z 1206/1306 26005KT CAVOK"
    },
    {
      "icao": "EPLB",
      "alert": "OK",
      "vis_m": 8000,
      "fzfg": false,
      "metar_trigger": false,
      "taf_trigger": false,
      "metar": "METAR EPLB 120600Z VRB01KT 8000 -RA BKN030 12/11 Q1020",
      "taf": "TAF EPLB 120530Z 1206/1306 32004KT 9999 SCT035"
    },
    {
      "icao": "EPMO",
      "alert": "OK",
      "vis_m": 9999,
      "fzfg": false,
      "metar_trigger": false,
      "taf_trigger": false,
      "metar": "METAR EPMO 120600Z 26003KT 210V310 9999 SCT008 12/11 Q1019",
      "taf": "TAF EPMO 120530Z 1206/1306 26004KT 9999 SCT035"
    },
    {
      "icao": "EPPO",
      "alert": "OK",
      "vis_m": 9999,
      "fzfg": false,
      "metar_trigger": false,
      "taf_trigger": false,
      "metar": "METAR EPPO 120600Z 21003KT CAVOK 13/10 Q1019",
      "taf": "TAF EPPO 120530Z 1206/1306 VRB02KT CAVOK"
    },
    {
      "icao": "EPRA",
      "alert": "OK",
      "vis_m": 9999,
      "fzfg": false,
      "metar_trigger": false,
      "taf_trigger": false,
      "metar": "METAR EPRA 120600Z 32006KT 9999 FEW010 12/09 Q1020",
      "taf": "TAF EPRA 120530Z 1206/1215 28006KT CAVOK"
    },
    {
      "icao": "EPRZ",
      "alert": "OK",
      "vis_m": 9999,
      "fzfg": false,
      "metar_trigger": false,
      "taf_trigger": false,
      "metar": "METAR EPRZ 120600Z 27005KT 9999 -SHRA FEW005 SCT026CB 12/11 Q1020",
      "taf": "TAF EPRZ 120530Z 1206/1306 28005KT 9999 BKN030"
    },
    {
      "icao": "EPSC",
      "alert": "OK",
      "vis_m": 9999,
      "fzfg": false,
      "metar_trigger": false,
      "taf_trigger": false,
      "metar": "METAR EPSC 120600Z 16005KT CAVOK 13/10 Q1018",
      "taf": "TAF EPSC 120530Z 1206/1306 13005KT 9999 SCT030"
    },
    {
      "icao": "EPSY",
      "alert": "OK",
      "vis_m": 3000,
      "fzfg": false,
      "metar_trigger": false,
      "taf_trigger": false,
      "metar": "METAR EPSY 120600Z VRB03KT 3000 BR OVC002 10/10 Q1019",
      "taf": "TAF EPSY 120530Z 1206/1215 24005KT 2500 BR OVC003"
    },
    {
      "icao": "EPWA",
      "alert": "OK",
      "vis_m": 9999,
      "fzfg": false,
      "metar_trigger": false,
      "taf_trigger": false,
      "metar": "METAR EPWA 120600Z 28003KT 230V310 9999 FEW009 13/11 Q1019 NOSIG",
      "taf": "TAF EPWA 120530Z 1206/1306 28005KT CAVOK"
    },
    {
      "icao": "EPWR",
      "alert": "OK",
      "vis_m": 9999,
      "fzfg": false,
      "metar_trigger": false,
      "taf_trigger": false,
      "metar": "METAR EPWR 120600Z 25008KT CAVOK 15/10 Q1020",
      "taf": "TAF EPWR 120530Z 1206/1306 23006KT CAVOK"
    },
    {
      "icao": "ESGG",
      "alert": "OK",
      "vis_m": 9999,
      "fzfg": false,
      "metar_trigger": false,
      "taf_trigger": false,
      "metar": "METAR ESGG 120550Z 17008KT 9999 SCT022CB 11/08 Q1014",
      "taf": "TAF ESGG 120530Z 1206/1306 15006KT CAVOK"
    },
    {
      "icao": "ESKN",
      "alert": "OK",
      "vis_m": 9999,
      "fzfg": false,
      "metar_trigger": false,
      "taf_trigger": false,
      "metar": "METAR ESKN 120550Z 29008KT CAVOK 14/09 Q1013",
      "taf": "TAF ESKN 120530Z 1206/1306 27008KT CAVOK"
    },
    {
      "icao": "ESMS",
      "alert": "OK",
      "vis_m": 9999,
      "fzfg": false,
      "metar_trigger": false,
      "taf_trigger": false,
      "metar": "METAR ESMS 120550Z 18004KT 160V230 CAVOK 15/11 Q1016",
      "taf": "TAF ESMS 120527Z 1206/1306 17002KT 9999 FEW040"
    },
    {
      "icao": "ESSA",
      "alert": "OK",
      "vis_m": 9999,
      "fzfg": false,
      "metar_trigger": false,
      "taf_trigger": false,
      "metar": "METAR ESSA 120550Z 26007KT CAVOK 13/06 Q1012 NOSIG",
      "taf": "TAF ESSA 120530Z 1206/1306 25010KT CAVOK"
    },
    {
      "icao": "EYKA",
      "alert": "OK",
      "vis_m": 9999,
      "fzfg": false,
      "metar_trigger": false,
      "taf_trigger": false,
      "metar": "METAR EYKA 120550Z 31005KT 270V010 9999 SCT018 12/09 Q1018",
      "taf": "TAF EYKA 120500Z 1206/1306 28007KT 9000 BKN015"
    },
    {
      "icao": "EYPA",
      "alert": "OK",
      "vis_m": 9999,
      "fzfg": false,
      "metar_trigger": false,
      "taf_trigger": false,
      "metar": "METAR EYPA 120550Z 23005KT 180V340 9999 SCT013 14/12 Q1016",
      "taf": "TAF EYPA 120500Z 1206/1306 VRB03KT 9000 SCT015"
    },
    {
      "icao": "EYVI",
      "alert": "OK",
      "vis_m": 9999,
      "fzfg": false,
      "metar_trigger": false,
      "taf_trigger": false,
      "metar": "METAR EYVI 120550Z 31008KT 9999 SCT015 BKN021 BKN028 12/09 Q1017 NOSIG",
      "taf": "TAF EYVI 120509Z 1206/1306 31013KT 9000 BKN025"
    },
    {
      "icao": "GCFV",
      "alert": "OK",
      "vis_m": 9999,
      "fzfg": false,
      "metar_trigger": false,
      "taf_trigger": false,
      "metar": "METAR GCFV 120600Z 03009KT 360V060 9999 BKN015 19/16 Q1017",
      "taf": "TAF GCFV 120200Z 1203/1303 04012KT 9999 FEW015 TX26/1214Z TN18/1206Z"
    },
    {
      "icao": "GCLP",
      "alert": "OK",
      "vis_m": 9999,
      "fzfg": false,
      "metar_trigger": false,
      "taf_trigger": false,
      "metar": "METAR GCLP 120600Z 36013KT 9999 BKN020 19/15 Q1017 NOSIG",
      "taf": "TAF GCLP 120200Z 1203/1303 01015KT 9999 SCT015 TX26/1214Z TN19/1206Z"
    },
    {
      "icao": "GCTS",
      "alert": "OK",
      "vis_m": 9999,
      "fzfg": false,
      "metar_trigger": false,
      "taf_trigger": false,
      "metar": "METAR GCTS 120600Z 04007KT 9999 FEW014 18/15 Q1018 NOSIG",
      "taf": "TAF GCTS 120200Z 1203/1303 05010KT 9999 FEW020 TX27/1214Z TN18/1206Z"
    },
    {
      "icao": "GMAD",
      "alert": "OK",
      "vis_m": 8000,
      "fzfg": false,
      "metar_trigger": false,
      "taf_trigger": false,
      "metar": "METAR GMAD 120600Z 00000KT 8000 OVC006 18/17 Q1016 NOSIG",
      "taf": "TAF GMAD 120500Z 1206/1312 22004KT 6000 OVC006"
    },
    {
      "icao": "GMMN",
      "alert": "OK",
      "vis_m": 4000,
      "fzfg": false,
      "metar_trigger": false,
      "taf_trigger": false,
      "metar": "METAR GMMN 120600Z COR 25007KT 4000 BR SCT004 19/17 Q1016 NOSIG",
      "taf": "TAF GMMN 120500Z 1206/1312 22003KT 2000 BR SCT002"
    },
    {
      "icao": "GMMX",
      "alert": "OK",
      "vis_m": 8000,
      "fzfg": false,
      "metar_trigger": false,
      "taf_trigger": false,
      "metar": "METAR GMMX 120600Z 26003KT 8000 SCT026 21/15 Q1016 NOSIG",
      "taf": "TAF GMMX 120500Z 1206/1312 06006KT 8000 SCT023"
    },
    {
      "icao": "HEGN",
      "alert": "OK",
      "vis_m": 9999,
      "fzfg": false,
      "metar_trigger": false,
      "taf_trigger": false,
      "metar": "METAR HEGN 120500Z 34012KT CAVOK 31/13 Q1011 NOSIG",
      "taf": "TAF HEGN 120500Z 1206/1312 34010G20KT CAVOK"
    },
    {
      "icao": "HEMA",
      "alert": "OK",
      "vis_m": 9999,
      "fzfg": false,
      "metar_trigger": false,
      "taf_trigger": false,
      "metar": "METAR HEMA 120500Z 33017KT CAVOK 31/08 Q1010 NOSIG",
      "taf": "TAF HEMA 120500Z 1206/1312 35012G22KT CAVOK"
    },
    {
      "icao": "HESH",
      "alert": "OK",
      "vis_m": 9999,
      "fzfg": false,
      "metar_trigger": false,
      "taf_trigger": false,
      "metar": "METAR HESH 120500Z 35010KT CAVOK 32/14 Q1010 NOSIG",
      "taf": "TAF HESH 120500Z 1206/1312 02014KT CAVOK"
    },
    {
      "icao": "HESX",
      "alert": "OK",
      "vis_m": 9999,
      "fzfg": false,
      "metar_trigger": false,
      "taf_trigger": false,
      "metar": "METAR HESX 120500Z 03006KT CAVOK 23/14 Q1013 NOSIG",
      "taf": "TAF HESX 120500Z 1206/1312 03008KT CAVOK"
    },
    {
      "icao": "LATI",
      "alert": "OK",
      "vis_m": null,
      "fzfg": false,
      "metar_trigger": false,
      "taf_trigger": false,
      "metar": "",
      "taf": "TAF LATI 120500Z 1206/1306 VRB05KT 9999 BKN090 TX29/1212Z TN16/1304Z"
    },
    {
      "icao": "LBPD",
      "alert": "OK",
      "vis_m": 9999,
      "fzfg": false,
      "metar_trigger": false,
      "taf_trigger": false,
      "metar": "METAR LBPD 120600Z AUTO 29020KT 9999 SCT062/// BKN170/// 22/15 Q1014 TEMPO 28020G30KT",
      "taf": "TAF LBPD 120500Z 1206/1306 27018KT 9999 SCT040 SCT070"
    },
    {
      "icao": "LBSF",
      "alert": "OK",
      "vis_m": 9999,
      "fzfg": false,
      "metar_trigger": false,
      "taf_trigger": false,
      "metar": "METAR LBSF 120600Z 28014KT 9999 OVC014 14/11 Q1019 NOSIG",
      "taf": "TAF LBSF 120500Z 1206/1306 29012KT 9999 SCT030 BKN050"
    },
    {
      "icao": "LBWN",
      "alert": "OK",
      "vis_m": 9999,
      "fzfg": false,
      "metar_trigger": false,
      "taf_trigger": false,
      "metar": "METAR LBWN 120600Z 27008KT 9999 SCT019 22/19 Q1014 NOSIG",
      "taf": "TAF LBWN 120500Z 1206/1306 27014KT 9999 SCT040 BKN070"
    },
    {
      "icao": "LCLK",
      "alert": "OK",
      "vis_m": 9000,
      "fzfg": false,
      "metar_trigger": false,
      "taf_trigger": false,
      "metar": "METAR LCLK 120600Z 11004KT 070V150 9000 FEW010 26/22 Q1012 NOSIG",
      "taf": "TAF LCLK 120530Z 1206/1306 16007KT 9999 FEW025"
    },
    {
      "icao": "LCPH",
      "alert": "OK",
      "vis_m": 9999,
      "fzfg": false,
      "metar_trigger": false,
      "taf_trigger": false,
      "metar": "METAR LCPH 120600Z 25005KT 230V310 9999 BKN018 26/20 Q1012 NOSIG",
      "taf": "TAF LCPH 120530Z 1206/1306 35008KT 9999 FEW016"
    },
    {
      "icao": "LEAL",
      "alert": "OK",
      "vis_m": 9999,
      "fzfg": false,
      "metar_trigger": false,
      "taf_trigger": false,
      "metar": "METAR LEAL 120600Z 01004KT 330V050 CAVOK 23/16 Q1025 NOSIG",
      "taf": "TAF LEAL 120500Z 1206/1306 08010KT 9999 SCT020 TX27/1212Z TN20/1206Z"
    },
    {
      "icao": "LEBB",
      "alert": "OK",
      "vis_m": 9999,
      "fzfg": false,
      "metar_trigger": false,
      "taf_trigger": false,
      "metar": "METAR LEBB 120600Z VRB02KT CAVOK 13/11 Q1029 NOSIG",
      "taf": "TAF LEBB 120500Z 1206/1306 05009KT CAVOK TX25/1213Z TN13/1206Z"
    },
    {
      "icao": "LEBL",
      "alert": "OK",
      "vis_m": 9999,
      "fzfg": false,
      "metar_trigger": false,
      "taf_trigger": false,
      "metar": "METAR LEBL 120600Z 32007G17KT 270V010 9999 FEW015 19/15 Q1025 NOSIG",
      "taf": "TAF LEBL 120500Z 1206/1306 VRB04KT 9999 FEW015 TX26/1213Z TN19/1206Z"
    },
    {
      "icao": "LECH",
      "alert": "OK",
      "vis_m": 9999,
      "fzfg": false,
      "metar_trigger": false,
      "taf_trigger": false,
      "metar": "METAR LECH 120600Z AUTO 00000KT CAVOK 17/12 Q1026",
      "taf": "TAF LECH 120500Z 1206/1306 VRB04KT 9999 FEW040 TX30/1213Z TN14/1206Z"
    },
    {
      "icao": "LEMD",
      "alert": "OK",
      "vis_m": 9999,
      "fzfg": false,
      "metar_trigger": false,
      "taf_trigger": false,
      "metar": "METAR LEMD 120600Z 35003KT 320V020 CAVOK 19/04 Q1026 NOSIG",
      "taf": "TAF LEMD 120500Z 1206/1312 VRB04KT CAVOK TX35/1216Z TN17/1206Z"
    },
    {
      "icao": "LEMG",
      "alert": "OK",
      "vis_m": 9999,
      "fzfg": false,
      "metar_trigger": false,
      "taf_trigger": false,
      "metar": "METAR LEMG 120600Z 18004KT 120V240 9999 FEW018 22/18 Q1022 NOSIG",
      "taf": "TAF LEMG 120500Z 1206/1306 29006KT 9999 SCT030 TX26/1214Z TN19/1206Z"
    },
    {
      "icao": "LEVC",
      "alert": "OK",
      "vis_m": 9999,
      "fzfg": false,
      "metar_trigger": false,
      "taf_trigger": false,
      "metar": "METAR LEVC 120600Z 31004KT CAVOK 19/15 Q1025 NOSIG",
      "taf": "TAF LEVC 120500Z 1206/1306 VRB04KT 9999 SCT020 TX29/1212Z TN17/1206Z"
    },
    {
      "icao": "LEXJ",
      "alert": "OK",
      "vis_m": 9999,
      "fzfg": false,
      "metar_trigger": false,
      "taf_trigger": false,
      "metar": "METAR LEXJ 120600Z 00000KT CAVOK 14/12 Q1028",
      "taf": "TAF LEXJ 120200Z 1203/1303 07009KT CAVOK TX24/1213Z TN12/1205Z"
    },
    {
      "icao": "LEZG",
      "alert": "OK",
      "vis_m": 9999,
      "fzfg": false,
      "metar_trigger": false,
      "taf_trigger": false,
      "metar": "METAR LEZG 120600Z 27010KT CAVOK 17/08 Q1027 NOSIG",
      "taf": "TAF LEZG 120500Z 1206/1306 29009KT CAVOK TX34/1215Z TN15/1206Z"
    },
    {
      "icao": "LEZL",
      "alert": "OK",
      "vis_m": 9999,
      "fzfg": false,
      "metar_trigger": false,
      "taf_trigger": false,
      "metar": "METAR LEZL 120600Z 07010KT 030V110 CAVOK 24/17 Q1018 NOSIG",
      "taf": "TAF LEZL 120200Z 1203/1303 06010KT CAVOK TX37/1215Z TN23/1206Z"
    },
    {
      "icao": "LFBD",
      "alert": "OK",
      "vis_m": 9999,
      "fzfg": false,
      "metar_trigger": false,
      "taf_trigger": false,
      "metar": "METAR LFBD 120600Z AUTO 00000KT CAVOK 14/12 Q1030 NOSIG",
      "taf": "TAF LFBD 120500Z 1206/1312 VRB03KT CAVOK TX33/1312Z TN12/1206Z"
    },
    {
      "icao": "LFLL",
      "alert": "OK",
      "vis_m": 9999,
      "fzfg": false,
      "metar_trigger": false,
      "taf_trigger": false,
      "metar": "METAR LFLL 120600Z 00000KT CAVOK 16/10 Q1027 NOSIG",
      "taf": "TAF LFLL 120500Z 1206/1312 VRB02KT CAVOK"
    },
    {
      "icao": "LFLS",
      "alert": "OK",
      "vis_m": 9999,
      "fzfg": false,
      "metar_trigger": false,
      "taf_trigger": false,
      "metar": "METAR LFLS 120600Z AUTO 00000KT CAVOK 15/09 Q1027 NOSIG",
      "taf": "TAF LFLS 120200Z 1203/1303 09007KT CAVOK"
    },
    {
      "icao": "LFMN",
      "alert": "OK",
      "vis_m": 9999,
      "fzfg": false,
      "metar_trigger": false,
      "taf_trigger": false,
      "metar": "METAR LFMN 120600Z 34007KT 310V060 CAVOK 22/07 Q1021 NOSIG",
      "taf": "TAF LFMN 120200Z 1203/1309 34005KT CAVOK"
    },
    {
      "icao": "LFOB",
      "alert": "OK",
      "vis_m": 9999,
      "fzfg": false,
      "metar_trigger": false,
      "taf_trigger": false,
      "metar": "METAR LFOB 120600Z AUTO 26009KT 9999 OVC009 16/15 Q1023 TEMPO 2500 DZRA BKN004 OVC007",
      "taf": "TAF LFOB 120500Z 1206/1306 26012KT 9999 BKN007 OVC012"
    },
    {
      "icao": "LFPO",
      "alert": "OK",
      "vis_m": 9999,
      "fzfg": false,
      "metar_trigger": false,
      "taf_trigger": false,
      "metar": "METAR LFPO 120600Z 27009KT 250V310 9999 FEW019 SCT027 BKN080 17/13 Q1024 NOSIG",
      "taf": "TAF LFPO 120500Z 1206/1312 25008KT 9999 BKN020"
    },
    {
      "icao": "LFSB",
      "alert": "OK",
      "vis_m": 9999,
      "fzfg": false,
      "metar_trigger": false,
      "taf_trigger": false,
      "metar": "METAR LFSB 120600Z AUTO 28007KT 230V320 9999 BKN041/// OVC060/// ///TCU 17/09 Q1025 BECMG BKN045",
      "taf": "TAF LFSB 120500Z 1206/1306 26008KT 9999 BKN045"
    },
    {
      "icao": "LGAV",
      "alert": "OK",
      "vis_m": 9999,
      "fzfg": false,
      "metar_trigger": false,
      "taf_trigger": false,
      "metar": "METAR LGAV 120550Z VRB02KT CAVOK 27/10 Q1013 NOSIG",
      "taf": "TAF LGAV 120500Z 1206/1306 08012KT 9999 SCT025"
    },
    {
      "icao": "LGTS",
      "alert": "OK",
      "vis_m": 9999,
      "fzfg": false,
      "metar_trigger": false,
      "taf_trigger": false,
      "metar": "METAR LGTS 120550Z 34006KT 9999 FEW025 24/15 Q1014 NOSIG",
      "taf": "TAF LGTS 120500Z 1206/1306 34015KT 9999 SCT030"
    },
    {
      "icao": "LHBP",
      "alert": "OK",
      "vis_m": 9999,
      "fzfg": false,
      "metar_trigger": false,
      "taf_trigger": false,
      "metar": "METAR LHBP 120600Z 32008KT CAVOK 16/09 Q1021 NOSIG",
      "taf": "TAF LHBP 120515Z 1206/1306 31009KT CAVOK"
    },
    {
      "icao": "LHDC",
      "alert": "OK",
      "vis_m": 9999,
      "fzfg": false,
      "metar_trigger": false,
      "taf_trigger": false,
      "metar": "METAR LHDC 120545Z AUTO 35008KT 320V030 CAVOK 16/11 Q1020 NOSIG",
      "taf": "TAF LHDC 120515Z 1206/1215 01009KT CAVOK"
    },
    {
      "icao": "LIBD",
      "alert": "OK",
      "vis_m": 9999,
      "fzfg": false,
      "metar_trigger": false,
      "taf_trigger": false,
      "metar": "METAR LIBD 120550Z 28008KT 250V310 9999 SCT035 21/15 Q1017",
      "taf": "TAF LIBD 120500Z 1206/1306 30011KT 9999 FEW025"
    },
    {
      "icao": "LIBG",
      "alert": "OK",
      "vis_m": 9999,
      "fzfg": false,
      "metar_trigger": false,
      "taf_trigger": false,
      "metar": "METAR LIBG 120550Z AUTO 31009KT 260V020 9999 FEW080/// 21/15 Q1016",
      "taf": ""
    },
    {
      "icao": "LIBP",
      "alert": "OK",
      "vis_m": 9999,
      "fzfg": false,
      "metar_trigger": false,
      "taf_trigger": false,
      "metar": "METAR LIBP 120550Z AUTO 23005KT 190V260 9999 NCD 20/13 Q1022",
      "taf": "TAF LIBP 120500Z 1206/1306 30006KT 9999 FEW030"
    },
    {
      "icao": "LIBR",
      "alert": "OK",
      "vis_m": 9999,
      "fzfg": false,
      "metar_trigger": false,
      "taf_trigger": false,
      "metar": "METAR LIBR 120550Z 33016KT CAVOK 22/16 Q1015",
      "taf": "TAF LIBR 120500Z 1206/1306 34013KT 9999 FEW020"
    },
    {
      "icao": "LICA",
      "alert": "OK",
      "vis_m": 9999,
      "fzfg": false,
      "metar_trigger": false,
      "taf_trigger": false,
      "metar": "METAR LICA 120550Z AUTO 25009KT 220V280 9999 FEW098/// 23/18 Q1016",
      "taf": "TAF LICA 120500Z 1206/1306 26012KT 9999 FEW030"
    },
    {
      "icao": "LICC",
      "alert": "OK",
      "vis_m": 9999,
      "fzfg": false,
      "metar_trigger": false,
      "taf_trigger": false,
      "metar": "METAR LICC 120550Z 27004KT 230V300 CAVOK 24/17 Q1015",
      "taf": "TAF LICC 120500Z 1206/1306 VRB05KT CAVOK"
    },
    {
      "icao": "LICJ",
      "alert": "OK",
      "vis_m": 9999,
      "fzfg": false,
      "metar_trigger": false,
      "taf_trigger": false,
      "metar": "METAR LICJ 120550Z 32011KT 9999 SCT030 SCT060 23/17 Q1018",
      "taf": "TAF LICJ 120500Z 1206/1306 32010KT 9999 FEW020"
    },
    {
      "icao": "LIMC",
      "alert": "OK",
      "vis_m": 9999,
      "fzfg": false,
      "metar_trigger": false,
      "taf_trigger": false,
      "metar": "METAR LIMC 120550Z 36007KT CAVOK 18/08 Q1023 NOSIG",
      "taf": "TAF LIMC 120500Z 1206/1312 VRB05KT CAVOK"
    },
    {
      "icao": "LIME",
      "alert": "OK",
      "vis_m": 9999,
      "fzfg": false,
      "metar_trigger": false,
      "taf_trigger": false,
      "metar": "METAR LIME 120550Z 01003KT CAVOK 18/10 Q1023 NOSIG",
      "taf": "TAF LIME 120500Z 1206/1306 VRB05KT CAVOK"
    },
    {
      "icao": "LIMF",
      "alert": "OK",
      "vis_m": 9999,
      "fzfg": false,
      "metar_trigger": false,
      "taf_trigger": false,
      "metar": "METAR LIMF 120550Z 01005KT CAVOK 19/07 Q1023",
      "taf": "TAF LIMF 120500Z 1206/1306 VRB05KT CAVOK"
    },
    {
      "icao": "LIMJ",
      "alert": "OK",
      "vis_m": 9999,
      "fzfg": false,
      "metar_trigger": false,
      "taf_trigger": false,
      "metar": "METAR LIMJ 120550Z VRB02KT CAVOK 22/08 Q1021",
      "taf": "TAF LIMJ 120500Z 1206/1306 04008KT CAVOK"
    },
    {
      "icao": "LIPE",
      "alert": "OK",
      "vis_m": 9999,
      "fzfg": false,
      "metar_trigger": false,
      "taf_trigger": false,
      "metar": "METAR LIPE 120550Z 22003KT 190V250 CAVOK 18/12 Q1022",
      "taf": "TAF LIPE 120500Z 1206/1306 VRB05KT CAVOK"
    },
    {
      "icao": "LIPH",
      "alert": "OK",
      "vis_m": 9999,
      "fzfg": false,
      "metar_trigger": false,
      "taf_trigger": false,
      "metar": "METAR LIPH 120550Z 01003KT 330V040 CAVOK 20/11 Q1023",
      "taf": "TAF LIPH 120500Z 1206/1306 VRB04KT 9999 FEW040"
    },
    {
      "icao": "LIPQ",
      "alert": "OK",
      "vis_m": 9999,
      "fzfg": false,
      "metar_trigger": false,
      "taf_trigger": false,
      "metar": "METAR LIPQ 120550Z VRB01KT 9999 FEW070 17/11 Q1023",
      "taf": "TAF LIPQ 120500Z 1206/1306 VRB05KT 9999 FEW050"
    },
    {
      "icao": "LIPR",
      "alert": "OK",
      "vis_m": 9999,
      "fzfg": false,
      "metar_trigger": false,
      "taf_trigger": false,
      "metar": "METAR LIPR 120550Z VRB02KT CAVOK 20/14 Q1022",
      "taf": "TAF LIPR 120500Z 1206/1306 VRB05KT CAVOK"
    },
    {
      "icao": "LIPX",
      "alert": "OK",
      "vis_m": 9999,
      "fzfg": false,
      "metar_trigger": false,
      "taf_trigger": false,
      "metar": "METAR LIPX 120550Z 07004KT 030V110 CAVOK 20/10 Q1022",
      "taf": "TAF LIPX 120500Z 1206/1306 VRB05KT CAVOK"
    },
    {
      "icao": "LIPY",
      "alert": "OK",
      "vis_m": 9999,
      "fzfg": false,
      "metar_trigger": false,
      "taf_trigger": false,
      "metar": "METAR LIPY 120550Z AUTO 23004KT 9999 NCD 19/14 Q1022",
      "taf": "TAF LIPY 120500Z 1206/1306 VRB05KT 9999 FEW030"
    },
    {
      "icao": "LIPZ",
      "alert": "OK",
      "vis_m": 9999,
      "fzfg": false,
      "metar_trigger": false,
      "taf_trigger": false,
      "metar": "METAR LIPZ 120550Z 02007KT CAVOK 19/11 Q1022 NOSIG",
      "taf": "TAF LIPZ 120500Z 1206/1312 03005KT 9999 FEW050"
    },
    {
      "icao": "LIRF",
      "alert": "OK",
      "vis_m": 9999,
      "fzfg": false,
      "metar_trigger": false,
      "taf_trigger": false,
      "metar": "METAR LIRF 120550Z 02010KT CAVOK 21/10 Q1018 NOSIG",
      "taf": "TAF LIRF 120500Z 1206/1312 03010KT CAVOK"
    },
    {
      "icao": "LIRN",
      "alert": "OK",
      "vis_m": 9999,
      "fzfg": false,
      "metar_trigger": false,
      "taf_trigger": false,
      "metar": "METAR LIRN 120550Z 03007KT CAVOK 23/11 Q1018 NOSIG",
      "taf": "TAF LIRN 120500Z 1206/1306 04013KT CAVOK"
    },
    {
      "icao": "LIRP",
      "alert": "OK",
      "vis_m": 9999,
      "fzfg": false,
      "metar_trigger": false,
      "taf_trigger": false,
      "metar": "METAR LIRP 120545Z 04003KT CAVOK 18/12 Q1021 NOSIG",
      "taf": "TAF LIRP 120500Z 1206/1306 10005KT CAVOK"
    },
    {
      "icao": "LIRZ",
      "alert": "OK",
      "vis_m": 9999,
      "fzfg": false,
      "metar_trigger": false,
      "taf_trigger": false,
      "metar": "METAR LIRZ 120550Z AUTO 02010KT 9999 NCD 19/10 Q1021",
      "taf": "TAF LIRZ 120500Z 1206/1306 03014KT CAVOK"
    },
    {
      "icao": "LJLJ",
      "alert": "OK",
      "vis_m": 9999,
      "fzfg": false,
      "metar_trigger": false,
      "taf_trigger": false,
      "metar": "METAR LJLJ 120600Z 02005KT 330V040 9999 FEW005 SCT130 10/09 Q1024 NOSIG",
      "taf": "TAF LJLJ 120500Z 1206/1306 VRB02KT 9999 FEW070"
    },
    {
      "icao": "LKMT",
      "alert": "OK",
      "vis_m": 9999,
      "fzfg": false,
      "metar_trigger": false,
      "taf_trigger": false,
      "metar": "METAR LKMT 120600Z 23007KT 9999 FEW008 13/11 Q1022 NOSIG",
      "taf": "TAF LKMT 120500Z 1206/1306 22008KT CAVOK"
    },
    {
      "icao": "LKPR",
      "alert": "OK",
      "vis_m": 9999,
      "fzfg": false,
      "metar_trigger": false,
      "taf_trigger": false,
      "metar": "METAR LKPR 120600Z 22009KT 9999 -RA NSC 12/08 Q1021 NOSIG",
      "taf": "TAF LKPR 120500Z 1206/1312 24010KT CAVOK"
    },
    {
      "icao": "LLBG",
      "alert": "OK",
      "vis_m": 9999,
      "fzfg": false,
      "metar_trigger": false,
      "taf_trigger": false,
      "metar": "METAR LLBG 120550Z 23007KT 190V260 9999 SCT025 26/18 Q1013 NOSIG",
      "taf": "TAF LLBG 120502Z 1206/1306 16004KT 9999 FEW025 TX29/1210Z TN21/1303Z"
    },
    {
      "icao": "LMML",
      "alert": "OK",
      "vis_m": 9999,
      "fzfg": false,
      "metar_trigger": false,
      "taf_trigger": false,
      "metar": "METAR LMML 120615Z 31018KT 9999 FEW015 24/18 Q1017 NOSIG",
      "taf": "TAF LMML 120500Z 1206/1306 33014KT 9999 FEW015"
    },
    {
      "icao": "LOWW",
      "alert": "OK",
      "vis_m": 9999,
      "fzfg": false,
      "metar_trigger": false,
      "taf_trigger": false,
      "metar": "METAR LOWW 120550Z 29012KT CAVOK 16/07 Q1023 NOSIG",
      "taf": "TAF LOWW 120515Z 1206/1312 30012KT CAVOK TX22/1312Z TN15/1206Z"
    },
    {
      "icao": "LPFR",
      "alert": "OK",
      "vis_m": 9999,
      "fzfg": false,
      "metar_trigger": false,
      "taf_trigger": false,
      "metar": "METAR LPFR 120600Z 07008KT CAVOK 23/16 Q1017",
      "taf": "TAF LPFR 120500Z 1206/1306 09010KT CAVOK"
    },
    {
      "icao": "LPMA",
      "alert": "OK",
      "vis_m": 9999,
      "fzfg": false,
      "metar_trigger": false,
      "taf_trigger": false,
      "metar": "METAR LPMA 120600Z 01010KT 350V050 9999 FEW015 17/13 Q1018",
      "taf": "TAF LPMA 120500Z 1206/1306 36010KT 9999 SCT015"
    },
    {
      "icao": "LPPR",
      "alert": "OK",
      "vis_m": 9999,
      "fzfg": false,
      "metar_trigger": false,
      "taf_trigger": false,
      "metar": "METAR LPPR 120600Z 10015KT CAVOK 26/05 Q1019",
      "taf": "TAF LPPR 120500Z 1206/1306 09013KT CAVOK"
    },
    {
      "icao": "LPPS",
      "alert": "OK",
      "vis_m": 9999,
      "fzfg": false,
      "metar_trigger": false,
      "taf_trigger": false,
      "metar": "METAR LPPS 120600Z 34007KT 9999 BKN015 19/15 Q1019",
      "taf": "TAF LPPS 120500Z 1206/1312 01008KT 9999 BKN015"
    },
    {
      "icao": "LPPT",
      "alert": "OK",
      "vis_m": 9999,
      "fzfg": false,
      "metar_trigger": false,
      "taf_trigger": false,
      "metar": "METAR LPPT 120600Z 21002KT CAVOK 20/14 Q1018",
      "taf": "TAF LPPT 120500Z 1206/1312 22005KT CAVOK"
    },
    {
      "icao": "LQBK",
      "alert": "OK",
      "vis_m": 9999,
      "fzfg": false,
      "metar_trigger": false,
      "taf_trigger": false,
      "metar": "METAR LQBK 120600Z 17005KT 9999 FEW007 15/11 Q1024 NOSIG",
      "taf": "TAF LQBK 120500Z 1206/1306 15005KT CAVOK TX24/1214Z TN08/1303Z"
    },
    {
      "icao": "LQSA",
      "alert": "OK",
      "vis_m": 9999,
      "fzfg": false,
      "metar_trigger": false,
      "taf_trigger": false,
      "metar": "METAR LQSA 120600Z 29006KT 9999 FEW018 BKN040 12/10 Q1024 NOSIG",
      "taf": "TAF LQSA 120500Z 1206/1306 28005KT 9999 BKN050 TX20/1214Z TN09/1304Z"
    },
    {
      "icao": "LQTZ",
      "alert": "OK",
      "vis_m": 9999,
      "fzfg": false,
      "metar_trigger": false,
      "taf_trigger": false,
      "metar": "METAR LQTZ 120600Z 30006KT 260V330 9999 FEW017 14/12 Q1024",
      "taf": "TAF LQTZ 120500Z 1206/1306 28005KT 9999 SCT030 TX22/1214Z TN08/1303Z"
    },
    {
      "icao": "LRBC",
      "alert": "OK",
      "vis_m": 9999,
      "fzfg": false,
      "metar_trigger": false,
      "taf_trigger": false,
      "metar": "METAR LRBC 120600Z 35013KT 9999 BKN007 OVC013 14/13 Q1015",
      "taf": "TAF LRBC 120500Z 1206/1215 34010KT 9999 OVC025"
    },
    {
      "icao": "LRBS",
      "alert": "OK",
      "vis_m": 9999,
      "fzfg": false,
      "metar_trigger": false,
      "taf_trigger": false,
      "metar": "METAR LRBS 120600Z 07006KT 040V100 9999 FEW010 SCT040 19/18 Q1014 NOSIG",
      "taf": "TAF LRBS 120500Z 1206/1306 07006KT 9999 SCT015 BKN040"
    },
    {
      "icao": "LRBV",
      "alert": "OK",
      "vis_m": 8000,
      "fzfg": false,
      "metar_trigger": false,
      "taf_trigger": false,
      "metar": "METAR LRBV 120600Z 29009KT 260V320 8000 -RADZ SCT007 SCT016 BKN027 13/12 Q1017",
      "taf": "TAF LRBV 120500Z 1206/1215 31010KT 9999 SCT015 BKN050"
    },
    {
      "icao": "LRCL",
      "alert": "OK",
      "vis_m": 9999,
      "fzfg": false,
      "metar_trigger": false,
      "taf_trigger": false,
      "metar": "METAR LRCL 120600Z 28007KT 260V320 9999 FEW015 BKN055 14/11 Q1018 RERA",
      "taf": "TAF LRCL 120500Z 1206/1215 30008KT 9999 OVC050"
    },
    {
      "icao": "LRCV",
      "alert": "OK",
      "vis_m": 9999,
      "fzfg": false,
      "metar_trigger": false,
      "taf_trigger": false,
      "metar": "METAR LRCV 120600Z 28014KT 9999 FEW015 17/14 Q1015",
      "taf": "TAF LRCV 120500Z 1206/1215 28012KT 9999 SCT025"
    },
    {
      "icao": "LRIA",
      "alert": "OK",
      "vis_m": 8000,
      "fzfg": false,
      "metar_trigger": false,
      "taf_trigger": false,
      "metar": "METAR LRIA 120600Z 28012KT 250V310 8000 DZ OVC009 15/13 Q1015",
      "taf": "TAF LRIA 120500Z 1206/1215 30010KT 9999 BKN015"
    },
    {
      "icao": "LROP",
      "alert": "OK",
      "vis_m": 9999,
      "fzfg": false,
      "metar_trigger": false,
      "taf_trigger": false,
      "metar": "METAR LROP 120600Z 08007KT 9999 -RA SCT003 SCT042 19/19 Q1014 RERA NOSIG",
      "taf": "TAF LROP 120500Z 1206/1306 07006KT 9999 SCT015 BKN040"
    },
    {
      "icao": "LRSB",
      "alert": "OK",
      "vis_m": 9999,
      "fzfg": false,
      "metar_trigger": false,
      "taf_trigger": false,
      "metar": "METAR LRSB 120600Z 30007KT 9999 -RA FEW010 SCT020 OVC027 14/13 Q1018",
      "taf": "TAF LRSB 120500Z 1206/1306 31006KT 9999 SCT015 BKN045"
    },
    {
      "icao": "LRSM",
      "alert": "OK",
      "vis_m": 9999,
      "fzfg": false,
      "metar_trigger": false,
      "taf_trigger": false,
      "metar": "METAR LRSM 120600Z 34009KT 9999 FEW007 15/13 Q1019",
      "taf": "TAF LRSM 120500Z 1206/1215 34010KT 9999 BKN010 BKN040"
    },
    {
      "icao": "LRSV",
      "alert": "OK",
      "vis_m": 9000,
      "fzfg": false,
      "metar_trigger": false,
      "taf_trigger": false,
      "metar": "METAR LRSV 120600Z 33018KT 9000 RA FEW006 OVC041 11/11 Q1016",
      "taf": "TAF LRSV 120500Z 1206/1215 30014KT 9999 BKN030"
    },
    {
      "icao": "LRTM",
      "alert": "OK",
      "vis_m": 9999,
      "fzfg": false,
      "metar_trigger": false,
      "taf_trigger": false,
      "metar": "METAR LRTM 120600Z /////KT 9999 -RA SCT014 OVC040 14/13 Q1017",
      "taf": "TAF LRTM 120500Z 1206/1215 29008KT 9999 SCT015 BKN040"
    },
    {
      "icao": "LRTR",
      "alert": "OK",
      "vis_m": 9999,
      "fzfg": false,
      "metar_trigger": false,
      "taf_trigger": false,
      "metar": "METAR LRTR 120600Z 32008KT 9999 FEW007 SCT010 16/14 Q1020",
      "taf": "TAF LRTR 120500Z 1206/1306 31010KT 9999 SCT025"
    },
    {
      "icao": "LTAC",
      "alert": "OK",
      "vis_m": 9999,
      "fzfg": false,
      "metar_trigger": false,
      "taf_trigger": false,
      "metar": "METAR LTAC 120550Z VRB02KT CAVOK 20/11 Q1015 NOSIG RMK RWY21C VRB02KT RWY03L VRB02KT RWY21R VRB01KT RWY03R VRB01KT RWY21L VRB01KT",
      "taf": "TAF LTAC 120440Z 1206/1306 VRB02KT CAVOK"
    },
    {
      "icao": "LTFM",
      "alert": "OK",
      "vis_m": 9999,
      "fzfg": false,
      "metar_trigger": false,
      "taf_trigger": false,
      "metar": "METAR LTFM 120550Z 08008KT 9999 SCT009 22/17 Q1013 NOSIG RMK RWY17L 08008KT RWY34L 08009KT 040V100 RWY16R 08008KT RWY36 07009KT 020V100 RWY18 09008KT",
      "taf": "TAF LTFM 120440Z 1206/1312 11005KT 9999 SCT006"
    },
    {
      "icao": "LUKK",
      "alert": "OK",
      "vis_m": 9999,
      "fzfg": false,
      "metar_trigger": false,
      "taf_trigger": false,
      "metar": "METAR LUKK 120600Z 01004KT 320V060 9999 FEW016 21/18 Q1012 TEMPO SCT045CB",
      "taf": "TAF LUKK 120510Z 1206/1306 29009KT 9999 SCT030"
    },
    {
      "icao": "LWOH",
      "alert": "OK",
      "vis_m": 9999,
      "fzfg": false,
      "metar_trigger": false,
      "taf_trigger": false,
      "metar": "METAR LWOH 120550Z 33009KT 290V360 9999 FEW015 SCT040 19/15 Q1017",
      "taf": "TAF LWOH 120530Z 1206/1306 03010KT 9999 FEW015 SCT050"
    },
    {
      "icao": "LWSK",
      "alert": "OK",
      "vis_m": null,
      "fzfg": false,
      "metar_trigger": false,
      "taf_trigger": false,
      "metar": "",
      "taf": "TAF LWSK 120530Z 1206/1306 02010KT 9999 FEW030 SCT080"
    },
    {
      "icao": "LYBE",
      "alert": "OK",
      "vis_m": 9999,
      "fzfg": false,
      "metar_trigger": false,
      "taf_trigger": false,
      "metar": "METAR LYBE 120600Z 28009KT 9999 FEW012 15/12 Q1022 NOSIG",
      "taf": "TAF LYBE 120500Z 1206/1306 31012KT 9999 SCT030 TX22/1213Z TN11/1304Z"
    },
    {
      "icao": "LYNI",
      "alert": "OK",
      "vis_m": 9999,
      "fzfg": false,
      "metar_trigger": false,
      "taf_trigger": false,
      "metar": "METAR LYNI 120600Z 29006KT 240V350 9999 SCT013 BKN020 BKN087 14/13 Q1020 NOSIG",
      "taf": "TAF LYNI 120500Z 1206/1306 32015KT 9999 BKN040 TX21/1213Z TN08/1306Z"
    },
    {
      "icao": "LYPG",
      "alert": "OK",
      "vis_m": 9999,
      "fzfg": false,
      "metar_trigger": false,
      "taf_trigger": false,
      "metar": "METAR LYPG 120600Z 35017KT 320V020 9999 FEW040 SCT080 22/10 Q1016 NOSIG",
      "taf": "TAF LYPG 120500Z 1206/1306 34012KT 9999 FEW030 SCT090 TX26/1214Z TN19/1303Z"
    },
    {
      "icao": "LZIB",
      "alert": "OK",
      "vis_m": 9999,
      "fzfg": false,
      "metar_trigger": false,
      "taf_trigger": false,
      "metar": "METAR LZIB 120600Z 30012KT CAVOK 15/07 Q1022 NOSIG",
      "taf": "TAF LZIB 120515Z 1206/1306 29011KT 9999 FEW045"
    },
    {
      "icao": "LZKZ",
      "alert": "OK",
      "vis_m": 9999,
      "fzfg": false,
      "metar_trigger": false,
      "taf_trigger": false,
      "metar": "METAR LZKZ 120600Z 03003KT 360V070 9999 FEW030 SCT035 15/09 Q1020 NOSIG",
      "taf": "TAF LZKZ 120515Z 1206/1306 02009KT 9999 SCT040"
    },
    {
      "icao": "LZTT",
      "alert": "OK",
      "vis_m": 9999,
      "fzfg": false,
      "metar_trigger": false,
      "taf_trigger": false,
      "metar": "METAR LZTT 120600Z VRB02KT 9999 FEW020 13/08 Q1021 NOSIG",
      "taf": "TAF LZTT 120515Z 1206/1306 28007KT 9999 FEW025 SCT045"
    },
    {
      "icao": "OEJN",
      "alert": "OK",
      "vis_m": 9999,
      "fzfg": false,
      "metar_trigger": false,
      "taf_trigger": false,
      "metar": "METAR OEJN 120600Z 22003KT CAVOK 33/22 Q1008 NOSIG",
      "taf": "TAF OEJN 120500Z 1206/1312 26012KT CAVOK"
    },
    {
      "icao": "OEMA",
      "alert": "OK",
      "vis_m": 9999,
      "fzfg": false,
      "metar_trigger": false,
      "taf_trigger": false,
      "metar": "METAR OEMA 120600Z 36004KT CAVOK 38/M02 Q1014 NOSIG",
      "taf": "TAF OEMA 120500Z 1206/1312 29010KT CAVOK"
    },
    {
      "icao": "OJAI",
      "alert": "OK",
      "vis_m": 5000,
      "fzfg": false,
      "metar_trigger": false,
      "taf_trigger": false,
      "metar": "METAR OJAI 120600Z 28011KT 5000 HZ NSC 24/07 Q1016 NOSIG",
      "taf": "TAF OJAI 120500Z 1206/1312 28011KT 5000 HZ NSC"
    },
    {
      "icao": "OMAA",
      "alert": "OK",
      "vis_m": 9999,
      "fzfg": false,
      "metar_trigger": false,
      "taf_trigger": false,
      "metar": "METAR OMAA 120600Z 26006KT 220V300 CAVOK 38/16 Q1002 NOSIG",
      "taf": "TAF OMAA 120500Z 1206/1312 30012KT 8000 NSC"
    },
    {
      "icao": "OMDB",
      "alert": "OK",
      "vis_m": 9999,
      "fzfg": false,
      "metar_trigger": false,
      "taf_trigger": false,
      "metar": "METAR OMDB 120600Z 23006KT CAVOK 36/18 Q1002 NOSIG",
      "taf": "TAF OMDB 120500Z 1206/1312 19008KT CAVOK"
    },
    {
      "icao": "UAAA",
      "alert": "OK",
      "vis_m": 9999,
      "fzfg": false,
      "metar_trigger": false,
      "taf_trigger": false,
      "metar": "METAR UAAA 120600Z 36003MPS 9999 FEW050CB BKN100 28/12 Q1013 NOSIG",
      "taf": "TAF UAAA 120510Z 1206/1306 34005MPS 9999 SCT050CB BKN100 TX30/1210Z TN17/1302Z"
    },
    {
      "icao": "UBBB",
      "alert": "OK",
      "vis_m": 9999,
      "fzfg": false,
      "metar_trigger": false,
      "taf_trigger": false,
      "metar": "METAR UBBB 120600Z 33012KT CAVOK 26/12 Q1009 NOSIG",
      "taf": "TAF UBBB 120459Z 1206/1306 32012KT 9999 SCT040 TX29/1210Z TN19/1301Z"
    },
    {
      "icao": "UDSG",
      "alert": "OK",
      "vis_m": 9999,
      "fzfg": false,
      "metar_trigger": false,
      "taf_trigger": false,
      "metar": "METAR UDSG 120600Z 08003KT 9999 SCT046CB 20/09 Q1017 NOSIG",
      "taf": "TAF UDSG 120458Z 1206/1306 24006KT 9999 SCT040"
    },
    {
      "icao": "UDYZ",
      "alert": "OK",
      "vis_m": 9999,
      "fzfg": false,
      "metar_trigger": false,
      "taf_trigger": false,
      "metar": "METAR UDYZ 120600Z 13003KT 9999 NSC 23/12 Q1012 NOSIG",
      "taf": "TAF UDYZ 120500Z 1206/1306 16006KT 9999 FEW040"
    },
    {
      "icao": "UGKO",
      "alert": "OK",
      "vis_m": 4500,
      "fzfg": false,
      "metar_trigger": false,
      "taf_trigger": false,
      "metar": "METAR UGKO 120600Z 15004KT 110V220 4500 TSRA SCT005 BKN011CB OVC033 17/17 Q1012 NOSIG",
      "taf": "TAF UGKO 120500Z 1206/1306 25006KT 9999 SCT030 BKN050 TX24/1211Z TN16/1302Z"
    }
  ]
}