{
  "ts_utc": "2026-04-16T04:25:16Z",
  "threshold_m": 150,
  "source": "stations_override.txt (ICAO list) + aviationweather.gov (METAR/TAF raw)",
  "station_count": 159,
  "stations": [
    {
      "icao": "BIKF",
      "alert": "OK",
      "vis_m": 9999,
      "fzfg": false,
      "metar_trigger": false,
      "taf_trigger": false,
      "metar": "METAR BIKF 160400Z 12009KT 9999 VCSH BKN013 BKN019 06/05 Q0994",
      "taf": "TAF BIKF 160414Z 1606/1706 14007KT 9999 SCT018 BKN028 TX09/1613Z TN02/1704Z"
    },
    {
      "icao": "BKPR",
      "alert": "OK",
      "vis_m": null,
      "fzfg": false,
      "metar_trigger": false,
      "taf_trigger": false,
      "metar": "",
      "taf": "TAF BKPR 152330Z 1600/1624 05007KT 9999 SCT050 BKN090"
    },
    {
      "icao": "EBCI",
      "alert": "OK",
      "vis_m": 9999,
      "fzfg": false,
      "metar_trigger": false,
      "taf_trigger": false,
      "metar": "METAR EBCI 160350Z 23003KT 9999 FEW034 11/10 Q1020 NOSIG",
      "taf": "TAF EBCI 152314Z 1600/1706 24006KT 9999 FEW030 SCT040"
    },
    {
      "icao": "EDDB",
      "alert": "OK",
      "vis_m": 9999,
      "fzfg": false,
      "metar_trigger": false,
      "taf_trigger": false,
      "metar": "METAR EDDB 160420Z AUTO 07003KT CAVOK 06/03 Q1020 NOSIG",
      "taf": "TAF EDDB 152300Z 1600/1624 13003KT CAVOK"
    },
    {
      "icao": "EDDH",
      "alert": "OK",
      "vis_m": 9999,
      "fzfg": false,
      "metar_trigger": false,
      "taf_trigger": false,
      "metar": "METAR EDDH 160420Z AUTO 16006KT CAVOK 11/05 Q1018 NOSIG",
      "taf": "TAF EDDH 152300Z 1600/1706 07004KT CAVOK"
    },
    {
      "icao": "EDDK",
      "alert": "OK",
      "vis_m": 9999,
      "fzfg": false,
      "metar_trigger": false,
      "taf_trigger": false,
      "metar": "METAR EDDK 160420Z AUTO VRB02KT 9999 FEW035 OVC045 11/08 Q1020 NOSIG",
      "taf": "TAF EDDK 152300Z 1600/1706 VRB03KT CAVOK"
    },
    {
      "icao": "EDDN",
      "alert": "OK",
      "vis_m": 7000,
      "fzfg": false,
      "metar_trigger": false,
      "taf_trigger": false,
      "metar": "METAR EDDN 160420Z AUTO 15003KT 7000 SCT027 SCT039 10/09 Q1021 NOSIG",
      "taf": "TAF EDDN 152300Z 1600/1624 VRB03KT 9999 SCT035"
    },
    {
      "icao": "EDDS",
      "alert": "OK",
      "vis_m": 9999,
      "fzfg": false,
      "metar_trigger": false,
      "taf_trigger": false,
      "metar": "METAR EDDS 160420Z AUTO VRB01KT CAVOK 08/06 Q1021",
      "taf": "TAF EDDS 152300Z 1600/1624 VRB03KT 9999 BKN040"
    },
    {
      "icao": "EDFH",
      "alert": "OK",
      "vis_m": 9999,
      "fzfg": false,
      "metar_trigger": false,
      "taf_trigger": false,
      "metar": "METAR EDFH 160350Z 24004KT CAVOK 11/04 Q1020",
      "taf": "TAF EDFH 152300Z 1600/1624 21005KT CAVOK"
    },
    {
      "icao": "EDJA",
      "alert": "OK",
      "vis_m": 9999,
      "fzfg": false,
      "metar_trigger": false,
      "taf_trigger": false,
      "metar": "METAR EDJA 160350Z 23006KT 9999 OVC034 08/07 Q1022",
      "taf": "TAF EDJA 160200Z 1603/1612 23006KT 9999 OVC030"
    },
    {
      "icao": "EDLW",
      "alert": "OK",
      "vis_m": 9999,
      "fzfg": false,
      "metar_trigger": false,
      "taf_trigger": false,
      "metar": "METAR EDLW 160350Z 18007KT CAVOK 11/06 Q1019",
      "taf": "TAF EDLW 160320Z 1604/1624 19007KT 9999 SCT040"
    },
    {
      "icao": "EDNY",
      "alert": "OK",
      "vis_m": 700,
      "fzfg": false,
      "metar_trigger": false,
      "taf_trigger": false,
      "metar": "METAR EDNY 160350Z 07002KT 0700 R24/0650N FG FEW003 07/06 Q1023",
      "taf": ""
    },
    {
      "icao": "EDSB",
      "alert": "OK",
      "vis_m": 9999,
      "fzfg": false,
      "metar_trigger": false,
      "taf_trigger": false,
      "metar": "METAR EDSB 160350Z 22005KT CAVOK 08/06 Q1022",
      "taf": "TAF EDSB 152300Z 1600/1624 21004KT CAVOK"
    },
    {
      "icao": "EETN",
      "alert": "OK",
      "vis_m": 9999,
      "fzfg": false,
      "metar_trigger": false,
      "taf_trigger": false,
      "metar": "METAR EETN 160420Z 03006KT CAVOK 05/02 Q1020 TEMPO 5000 RA",
      "taf": "TAF EETN 152330Z 1600/1624 03006KT CAVOK"
    },
    {
      "icao": "EFTU",
      "alert": "OK",
      "vis_m": 9999,
      "fzfg": false,
      "metar_trigger": false,
      "taf_trigger": false,
      "metar": "METAR EFTU 160420Z AUTO 02004KT CAVOK 01/M02 Q1022",
      "taf": "TAF EFTU 160223Z 1603/1703 VRB02KT CAVOK"
    },
    {
      "icao": "EGBB",
      "alert": "OK",
      "vis_m": 9999,
      "fzfg": false,
      "metar_trigger": false,
      "taf_trigger": false,
      "metar": "METAR EGBB 160420Z 21004KT 160V260 9999 -RA FEW013 BKN020 09/08 Q1014 RESHRA",
      "taf": "TAF EGBB 152307Z 1600/1624 19010KT 9999 SCT030"
    },
    {
      "icao": "EGGP",
      "alert": "OK",
      "vis_m": 9999,
      "fzfg": false,
      "metar_trigger": false,
      "taf_trigger": false,
      "metar": "METAR EGGP 160420Z 21009KT 9999 BKN034 OVC047 10/06 Q1012",
      "taf": "TAF EGGP 152303Z 1600/1624 21010KT 9999 SCT020"
    },
    {
      "icao": "EGGW",
      "alert": "OK",
      "vis_m": 9999,
      "fzfg": false,
      "metar_trigger": false,
      "taf_trigger": false,
      "metar": "METAR EGGW 160420Z AUTO 21009KT 9999 BKN012 BKN029 OVC042 09/08 Q1016",
      "taf": ""
    },
    {
      "icao": "EGKK",
      "alert": "OK",
      "vis_m": 9999,
      "fzfg": false,
      "metar_trigger": false,
      "taf_trigger": false,
      "metar": "METAR EGKK 160420Z 20007KT 160V230 9999 SCT013 SCT020 11/09 Q1018",
      "taf": ""
    },
    {
      "icao": "EGNM",
      "alert": "OK",
      "vis_m": 9999,
      "fzfg": false,
      "metar_trigger": false,
      "taf_trigger": false,
      "metar": "METAR EGNM 160420Z 22010KT 9999 FEW025 08/06 Q1010",
      "taf": "TAF EGNM 151701Z 1518/1618 22010KT 9999 SCT020"
    },
    {
      "icao": "EGPD",
      "alert": "OK",
      "vis_m": 7000,
      "fzfg": false,
      "metar_trigger": false,
      "taf_trigger": false,
      "metar": "METAR EGPD 160420Z COR AUTO 19008KT 7000 -RA SCT028 BKN041 08/07 Q1002 TEMPO RA",
      "taf": ""
    },
    {
      "icao": "EGPF",
      "alert": "OK",
      "vis_m": 9999,
      "fzfg": false,
      "metar_trigger": false,
      "taf_trigger": false,
      "metar": "METAR EGPF 160420Z AUTO 23014KT 9999 -RA BKN014 BKN021 OVC033 08/07 Q1004",
      "taf": "TAF EGPF 152256Z 1600/1624 15008KT 9999 FEW014 SCT025"
    },
    {
      "icao": "EHBK",
      "alert": "OK",
      "vis_m": 9000,
      "fzfg": false,
      "metar_trigger": false,
      "taf_trigger": false,
      "metar": "METAR EHBK 160355Z AUTO 22006KT 9000 -RA FEW004 FEW015CB SCT046 11/10 Q1020 REDZRA NOSIG",
      "taf": "TAF EHBK 152302Z 1600/1706 21005KT CAVOK"
    },
    {
      "icao": "EHEH",
      "alert": "OK",
      "vis_m": 9999,
      "fzfg": false,
      "metar_trigger": false,
      "taf_trigger": false,
      "metar": "METAR EHEH 160355Z AUTO 23002KT 9999 OVC066 11/09 Q1019 BLU",
      "taf": "TAF EHEH 152317Z 1600/1706 20005KT CAVOK"
    },
    {
      "icao": "EKBI",
      "alert": "OK",
      "vis_m": 9999,
      "fzfg": false,
      "metar_trigger": false,
      "taf_trigger": false,
      "metar": "METAR EKBI 160420Z AUTO 10008KT 9999 OVC049/// 07/05 Q1018",
      "taf": "TAF EKBI 160227Z 1603/1703 12005KT 9999 FEW030"
    },
    {
      "icao": "EKCH",
      "alert": "OK",
      "vis_m": 9999,
      "fzfg": false,
      "metar_trigger": false,
      "taf_trigger": false,
      "metar": "METAR EKCH 160420Z 03006KT 9999 NSC 03/02 Q1021 TEMPO 4000 BR",
      "taf": "TAF EKCH 160227Z 1603/1703 18005KT 9999 SCT020"
    },
    {
      "icao": "ENAL",
      "alert": "OK",
      "vis_m": 9999,
      "fzfg": false,
      "metar_trigger": false,
      "taf_trigger": false,
      "metar": "METAR ENAL 160350Z 14005KT CAVOK 07/M01 Q1015",
      "taf": "TAF ENAL 160200Z 1603/1612 13008KT CAVOK"
    },
    {
      "icao": "ENBR",
      "alert": "OK",
      "vis_m": 9999,
      "fzfg": false,
      "metar_trigger": false,
      "taf_trigger": false,
      "metar": "METAR ENBR 160350Z 13007KT CAVOK 09/M00 Q1014 RMK WIND 1200FT 13019KT",
      "taf": "TAF ENBR 152300Z 1600/1624 14008KT 9999 BKN040"
    },
    {
      "icao": "ENGM",
      "alert": "OK",
      "vis_m": 9999,
      "fzfg": false,
      "metar_trigger": false,
      "taf_trigger": false,
      "metar": "METAR ENGM 160350Z 02003KT 9999 1000NW BCFG NSC 00/M01 Q1022 NOSIG",
      "taf": "TAF ENGM 152300Z 1600/1624 01005KT 9999 SCT040"
    },
    {
      "icao": "ENHD",
      "alert": "OK",
      "vis_m": 9999,
      "fzfg": false,
      "metar_trigger": false,
      "taf_trigger": false,
      "metar": "METAR ENHD 160350Z AUTO 13016KT 9999 -RA OVC044/// 07/05 Q1015",
      "taf": "TAF ENHD 160200Z 1603/1612 14018KT 9999 -RA BKN030"
    },
    {
      "icao": "ENTC",
      "alert": "OK",
      "vis_m": 9999,
      "fzfg": false,
      "metar_trigger": false,
      "taf_trigger": false,
      "metar": "METAR ENTC 160350Z VRB02KT 9999 -RA SCT022 BKN035 05/02 Q1025 RMK WIND 2600FT 31021KT",
      "taf": "TAF ENTC 152300Z 1600/1624 21006KT 9999 FEW020 BKN035"
    },
    {
      "icao": "ENTO",
      "alert": "OK",
      "vis_m": 9999,
      "fzfg": false,
      "metar_trigger": false,
      "taf_trigger": false,
      "metar": "METAR ENTO 160350Z 36003KT CAVOK 03/03 Q1022",
      "taf": "TAF ENTO 152300Z 1600/1624 02005KT 9999 FEW040"
    },
    {
      "icao": "ENVA",
      "alert": "OK",
      "vis_m": 9999,
      "fzfg": false,
      "metar_trigger": false,
      "taf_trigger": false,
      "metar": "METAR ENVA 160350Z 12014KT CAVOK 09/00 Q1020 RMK WIND 670FT 14022KT",
      "taf": ""
    },
    {
      "icao": "ENZV",
      "alert": "OK",
      "vis_m": 9999,
      "fzfg": false,
      "metar_trigger": false,
      "taf_trigger": false,
      "metar": "METAR ENZV 160350Z 12017G30KT 9999 -SHRA FEW041 08/03 Q1015",
      "taf": ""
    },
    {
      "icao": "EPGD",
      "alert": "OK",
      "vis_m": 6000,
      "fzfg": false,
      "metar_trigger": false,
      "taf_trigger": false,
      "metar": "METAR EPGD 160400Z VRB01KT 6000 NSC M01/M01 Q1020",
      "taf": ""
    },
    {
      "icao": "EPKK",
      "alert": "OK",
      "vis_m": 3500,
      "fzfg": false,
      "metar_trigger": false,
      "taf_trigger": false,
      "metar": "METAR EPKK 160400Z VRB01KT 3500 BR BKN038 BKN045 10/08 Q1020",
      "taf": "TAF EPKK 160230Z 1603/1703 25004KT 9999 BKN050"
    },
    {
      "icao": "EPKT",
      "alert": "OK",
      "vis_m": 2000,
      "fzfg": false,
      "metar_trigger": false,
      "taf_trigger": false,
      "metar": "METAR EPKT 160400Z VRB01KT 2000 0300N R26/1200N BCFG BR NSC 03/03 Q1020",
      "taf": "TAF EPKT 152330Z 1600/1624 VRB02KT 3000 BR SCT030"
    },
    {
      "icao": "EPLB",
      "alert": "OK",
      "vis_m": 6000,
      "fzfg": false,
      "metar_trigger": false,
      "taf_trigger": false,
      "metar": "METAR EPLB 160400Z 30006KT 6000 NSC 07/06 Q1019",
      "taf": "TAF EPLB 152330Z 1600/1624 30005KT CAVOK"
    },
    {
      "icao": "EPMO",
      "alert": "OK",
      "vis_m": 2400,
      "fzfg": false,
      "metar_trigger": false,
      "taf_trigger": false,
      "metar": "METAR EPMO 160400Z VRB01KT 2400 BR BKN031 05/05 Q1020",
      "taf": "TAF EPMO 152330Z 1600/1624 VRB03KT 3000 BR NSC"
    },
    {
      "icao": "EPPO",
      "alert": "OK",
      "vis_m": 9999,
      "fzfg": false,
      "metar_trigger": false,
      "taf_trigger": false,
      "metar": "METAR EPPO 160400Z 08003KT CAVOK 06/03 Q1020",
      "taf": "TAF EPPO 152330Z 1600/1624 VRB02KT CAVOK"
    },
    {
      "icao": "EPRA",
      "alert": "OK",
      "vis_m": 5000,
      "fzfg": false,
      "metar_trigger": false,
      "taf_trigger": false,
      "metar": "METAR EPRA 160400Z 29003KT 5000 MIFG NSC 05/04 Q1020",
      "taf": "TAF EPRA 160230Z 1603/1612 29005KT 8000 NSC"
    },
    {
      "icao": "EPRZ",
      "alert": "OK",
      "vis_m": 7000,
      "fzfg": false,
      "metar_trigger": false,
      "taf_trigger": false,
      "metar": "METAR EPRZ 160400Z 25006KT 7000 OVC038 10/08 Q1019",
      "taf": "TAF EPRZ 152330Z 1600/1624 30005KT 9999 BKN018"
    },
    {
      "icao": "EPSC",
      "alert": "OK",
      "vis_m": 9999,
      "fzfg": false,
      "metar_trigger": false,
      "taf_trigger": false,
      "metar": "METAR EPSC 160400Z 13004KT 9999 FEW026 07/03 Q1020",
      "taf": "TAF EPSC 152330Z 1600/1624 VRB04KT CAVOK"
    },
    {
      "icao": "EPSY",
      "alert": "OK",
      "vis_m": 7000,
      "fzfg": false,
      "metar_trigger": false,
      "taf_trigger": false,
      "metar": "METAR EPSY 160400Z VRB02KT 7000 MIFG NSC M01/M01 Q1020",
      "taf": "TAF EPSY 160230Z 1603/1612 33006KT 9999 SCT040"
    },
    {
      "icao": "EPWA",
      "alert": "OK",
      "vis_m": 5000,
      "fzfg": false,
      "metar_trigger": false,
      "taf_trigger": false,
      "metar": "METAR EPWA 160400Z 28003KT 250V330 5000 BR NSC 05/04 Q1020 NOSIG",
      "taf": "TAF EPWA 160230Z 1603/1703 VRB02KT CAVOK"
    },
    {
      "icao": "EPWR",
      "alert": "OK",
      "vis_m": 800,
      "fzfg": false,
      "metar_trigger": false,
      "taf_trigger": false,
      "metar": "METAR EPWR 160400Z 08001KT 0800 R29/P2000N FG NSC 03/03 Q1020",
      "taf": "TAF EPWR 160230Z 1603/1703 VRB02KT 3000 BR NSC"
    },
    {
      "icao": "ESGG",
      "alert": "OK",
      "vis_m": 9999,
      "fzfg": false,
      "metar_trigger": false,
      "taf_trigger": false,
      "metar": "METAR ESGG 160420Z 07005KT CAVOK 03/02 Q1020",
      "taf": "TAF ESGG 160230Z 1603/1703 06005KT 9999 BKN035"
    },
    {
      "icao": "ESKN",
      "alert": "OK",
      "vis_m": 9999,
      "fzfg": false,
      "metar_trigger": false,
      "taf_trigger": false,
      "metar": "METAR ESKN 160420Z 35006KT CAVOK 04/M00 Q1021",
      "taf": "TAF ESKN 160230Z 1603/1703 01003KT CAVOK"
    },
    {
      "icao": "ESMS",
      "alert": "OK",
      "vis_m": 9999,
      "fzfg": false,
      "metar_trigger": false,
      "taf_trigger": false,
      "metar": "METAR ESMS 160420Z 08003KT 9999 BCFG NSC M02/M02 Q1020",
      "taf": "TAF ESMS 160227Z 1603/1703 VRB02KT 9999 SCT020"
    },
    {
      "icao": "ESSA",
      "alert": "OK",
      "vis_m": 9999,
      "fzfg": false,
      "metar_trigger": false,
      "taf_trigger": false,
      "metar": "METAR ESSA 160420Z 01005KT CAVOK M00/M02 Q1022 NOSIG",
      "taf": "TAF ESSA 160230Z 1603/1703 02005KT CAVOK"
    },
    {
      "icao": "EYKA",
      "alert": "OK",
      "vis_m": 6000,
      "fzfg": false,
      "metar_trigger": false,
      "taf_trigger": false,
      "metar": "METAR EYKA 160420Z 31008KT 270V330 6000 -RA OVC006 07/06 Q1017",
      "taf": "TAF EYKA 152306Z 1600/1624 VRB04KT 9000 NSC"
    },
    {
      "icao": "EYPA",
      "alert": "OK",
      "vis_m": 600,
      "fzfg": false,
      "metar_trigger": false,
      "taf_trigger": false,
      "metar": "METAR EYPA 160420Z 30003KT 250V360 0600 R19/0700N FG VV002 05/04 Q1019",
      "taf": ""
    },
    {
      "icao": "EYVI",
      "alert": "OK",
      "vis_m": 9999,
      "fzfg": false,
      "metar_trigger": false,
      "taf_trigger": false,
      "metar": "METAR EYVI 160420Z 29009KT CAVOK 07/05 Q1016 NOSIG",
      "taf": "TAF EYVI 152306Z 1600/1624 VRB04KT 9000 NSC"
    },
    {
      "icao": "GCFV",
      "alert": "OK",
      "vis_m": 9999,
      "fzfg": false,
      "metar_trigger": false,
      "taf_trigger": false,
      "metar": "METAR GCFV 160400Z AUTO 32006KT 290V360 9999 OVC015 17/13 Q1016",
      "taf": "TAF GCFV 160200Z 1603/1703 34007KT 9999 SCT020 TX25/1614Z TN15/1606Z"
    },
    {
      "icao": "GCLP",
      "alert": "OK",
      "vis_m": 9999,
      "fzfg": false,
      "metar_trigger": false,
      "taf_trigger": false,
      "metar": "METAR GCLP 160400Z 35013KT 9999 FEW025 17/12 Q1016 NOSIG",
      "taf": "TAF GCLP 160200Z 1603/1703 36015KT 9999 SCT025 TX24/1614Z TN17/1606Z"
    },
    {
      "icao": "GCTS",
      "alert": "OK",
      "vis_m": 9999,
      "fzfg": false,
      "metar_trigger": false,
      "taf_trigger": false,
      "metar": "METAR GCTS 160400Z 04007KT 9999 FEW025 17/12 Q1016 NOSIG",
      "taf": "TAF GCTS 160200Z 1603/1703 04006KT 9999 SCT025 TX25/1614Z TN17/1606Z"
    },
    {
      "icao": "GMAD",
      "alert": "OK",
      "vis_m": 8000,
      "fzfg": false,
      "metar_trigger": false,
      "taf_trigger": false,
      "metar": "METAR GMAD 160400Z 11005KT 8000 NSC 16/09 Q1014 NOSIG",
      "taf": "TAF GMAD 152300Z 1600/1706 06005KT 8000 NSC"
    },
    {
      "icao": "GMMN",
      "alert": "OK",
      "vis_m": 400,
      "fzfg": false,
      "metar_trigger": false,
      "taf_trigger": false,
      "metar": "METAR GMMN 160400Z 08003KT 0400 R35L/0750N FG BKN002 12/11 Q1018 NOSIG",
      "taf": "TAF GMMN 152300Z 1600/1706 03009KT 8000 NSC"
    },
    {
      "icao": "GMMX",
      "alert": "OK",
      "vis_m": 9999,
      "fzfg": false,
      "metar_trigger": false,
      "taf_trigger": false,
      "metar": "METAR GMMX 160400Z VRB02KT CAVOK 14/10 Q1017 NOSIG",
      "taf": "TAF GMMX 152300Z 1600/1706 06006KT CAVOK"
    },
    {
      "icao": "HEGN",
      "alert": "OK",
      "vis_m": 9999,
      "fzfg": false,
      "metar_trigger": false,
      "taf_trigger": false,
      "metar": "METAR HEGN 160400Z 00000KT CAVOK 23/11 Q1005 NOSIG",
      "taf": ""
    },
    {
      "icao": "HEMA",
      "alert": "OK",
      "vis_m": 9999,
      "fzfg": false,
      "metar_trigger": false,
      "taf_trigger": false,
      "metar": "METAR HEMA 160400Z 26008KT CAVOK 22/13 Q1005 NOSIG",
      "taf": ""
    },
    {
      "icao": "HESH",
      "alert": "OK",
      "vis_m": 9999,
      "fzfg": false,
      "metar_trigger": false,
      "taf_trigger": false,
      "metar": "METAR HESH 160400Z 34005KT CAVOK 27/09 Q1005 NOSIG",
      "taf": ""
    },
    {
      "icao": "HESX",
      "alert": "OK",
      "vis_m": 3000,
      "fzfg": false,
      "metar_trigger": false,
      "taf_trigger": false,
      "metar": "METAR HESX 160400Z 27004KT 3000 BR NSC 14/12 Q1004 NOSIG",
      "taf": ""
    },
    {
      "icao": "LATI",
      "alert": "OK",
      "vis_m": 9999,
      "fzfg": false,
      "metar_trigger": false,
      "taf_trigger": false,
      "metar": "METAR LATI 160420Z VRB03KT 9999 BKN098 15/12 Q1014 NOSIG",
      "taf": "TAF LATI 152300Z 1600/1624 VRB03KT 9999 SCT060 BKN090 TX27/1612Z TN13/1603Z"
    },
    {
      "icao": "LBPD",
      "alert": "OK",
      "vis_m": 9999,
      "fzfg": false,
      "metar_trigger": false,
      "taf_trigger": false,
      "metar": "METAR LBPD 160400Z AUTO 08005KT 9999 -SHRA FEW089/// OVC110/// 09/08 Q1020 NOSIG",
      "taf": "TAF LBPD 152300Z 1600/1624 VRB03KT 9999 SCT070"
    },
    {
      "icao": "LBSF",
      "alert": "OK",
      "vis_m": 9999,
      "fzfg": false,
      "metar_trigger": false,
      "taf_trigger": false,
      "metar": "METAR LBSF 160400Z 00000KT 9999 BKN083 09/06 Q1019 NOSIG",
      "taf": "TAF LBSF 152300Z 1600/1624 11010KT 9999 SCT050 BKN070"
    },
    {
      "icao": "LBWN",
      "alert": "OK",
      "vis_m": 9999,
      "fzfg": false,
      "metar_trigger": false,
      "taf_trigger": false,
      "metar": "METAR LBWN 160400Z AUTO 01002KT 9999 NCD 05/05 Q1020 NOSIG",
      "taf": "TAF LBWN 152300Z 1600/1624 VRB03KT 9999 SCT015"
    },
    {
      "icao": "LCLK",
      "alert": "OK",
      "vis_m": 9999,
      "fzfg": false,
      "metar_trigger": false,
      "taf_trigger": false,
      "metar": "METAR LCLK 160400Z 01011KT 9999 FEW025 20/11 Q1010 NOSIG",
      "taf": "TAF LCLK 152330Z 1600/1700 35009KT CAVOK"
    },
    {
      "icao": "LCPH",
      "alert": "OK",
      "vis_m": 9999,
      "fzfg": false,
      "metar_trigger": false,
      "taf_trigger": false,
      "metar": "METAR LCPH 160400Z 09006KT 080V160 CAVOK 17/07 Q1008 NOSIG",
      "taf": "TAF LCPH 152330Z 1600/1700 09009KT CAVOK"
    },
    {
      "icao": "LEAL",
      "alert": "OK",
      "vis_m": 9999,
      "fzfg": false,
      "metar_trigger": false,
      "taf_trigger": false,
      "metar": "METAR LEAL 160400Z 30003KT CAVOK 12/11 Q1020 NOSIG",
      "taf": "TAF LEAL 152300Z 1600/1624 VRB04KT 9999 FEW030 TX22/1613Z TN12/1606Z"
    },
    {
      "icao": "LEBB",
      "alert": "OK",
      "vis_m": 9999,
      "fzfg": false,
      "metar_trigger": false,
      "taf_trigger": false,
      "metar": "METAR LEBB 160400Z 08001KT 9999 BKN041 12/11 Q1023 NOSIG",
      "taf": "TAF LEBB 152300Z 1600/1624 VRB03KT 9999 FEW025 TX22/1615Z TN08/1606Z"
    },
    {
      "icao": "LEBL",
      "alert": "OK",
      "vis_m": 9999,
      "fzfg": false,
      "metar_trigger": false,
      "taf_trigger": false,
      "metar": "METAR LEBL 160400Z 31007KT CAVOK 13/10 Q1020 NOSIG",
      "taf": "TAF LEBL 152300Z 1600/1624 VRB04KT CAVOK TX20/1613Z TN11/1606Z"
    },
    {
      "icao": "LECH",
      "alert": "OK",
      "vis_m": 9000,
      "fzfg": false,
      "metar_trigger": false,
      "taf_trigger": false,
      "metar": "METAR LECH 160400Z AUTO 20004KT 9000 NCD 11/07 Q1021",
      "taf": "TAF LECH 152300Z 1600/1624 VRB03KT 9999 FEW030 TX23/1613Z TN08/1606Z"
    },
    {
      "icao": "LEMD",
      "alert": "OK",
      "vis_m": 9999,
      "fzfg": false,
      "metar_trigger": false,
      "taf_trigger": false,
      "metar": "METAR LEMD 160400Z 36003KT 330V040 CAVOK 08/04 Q1022 NOSIG",
      "taf": "TAF LEMD 152300Z 1600/1706 VRB04KT CAVOK TX26/1616Z TN08/1606Z"
    },
    {
      "icao": "LEMG",
      "alert": "OK",
      "vis_m": 9999,
      "fzfg": false,
      "metar_trigger": false,
      "taf_trigger": false,
      "metar": "METAR LEMG 160400Z 29007KT CAVOK 12/09 Q1020 NOSIG",
      "taf": "TAF LEMG 152300Z 1600/1624 29004KT CAVOK TX25/1614Z TN15/1607Z"
    },
    {
      "icao": "LEVC",
      "alert": "OK",
      "vis_m": 9999,
      "fzfg": false,
      "metar_trigger": false,
      "taf_trigger": false,
      "metar": "METAR LEVC 160400Z 26004KT CAVOK 11/09 Q1021 NOSIG",
      "taf": "TAF LEVC 152300Z 1600/1624 VRB04KT 9999 FEW030 TX24/1613Z TN10/1606Z"
    },
    {
      "icao": "LEXJ",
      "alert": "OK",
      "vis_m": 6000,
      "fzfg": false,
      "metar_trigger": false,
      "taf_trigger": false,
      "metar": "METAR LEXJ 160400Z 00000KT 6000 SCT070 10/10 Q1022",
      "taf": "TAF LEXJ 160200Z 1603/1703 VRB03KT 9999 FEW030 TX20/1611Z TN10/1606Z"
    },
    {
      "icao": "LEZG",
      "alert": "OK",
      "vis_m": 9999,
      "fzfg": false,
      "metar_trigger": false,
      "taf_trigger": false,
      "metar": "METAR LEZG 160400Z 28009KT CAVOK 13/09 Q1021 NOSIG",
      "taf": "TAF LEZG 152300Z 1600/1624 27010KT 9999 FEW040 TX27/1613Z TN11/1606Z"
    },
    {
      "icao": "LEZL",
      "alert": "OK",
      "vis_m": 9999,
      "fzfg": false,
      "metar_trigger": false,
      "taf_trigger": false,
      "metar": "METAR LEZL 160400Z VRB02KT CAVOK 14/10 Q1020 NOSIG",
      "taf": "TAF LEZL 160200Z 1603/1703 05005KT CAVOK TX31/1615Z TN13/1607Z"
    },
    {
      "icao": "LFBD",
      "alert": "OK",
      "vis_m": 7000,
      "fzfg": false,
      "metar_trigger": false,
      "taf_trigger": false,
      "metar": "METAR LFBD 160400Z AUTO 11004KT 7000 1100 R23/P2300 R05/1800D R29/1700D VV/// 09/08 Q1023 TEMPO 0400 FG",
      "taf": ""
    },
    {
      "icao": "LFLL",
      "alert": "OK",
      "vis_m": 9999,
      "fzfg": false,
      "metar_trigger": false,
      "taf_trigger": false,
      "metar": "METAR LFLL 160400Z 10003KT CAVOK 07/05 Q1022 NOSIG",
      "taf": "TAF LFLL 152300Z 1600/1706 VRB03KT CAVOK"
    },
    {
      "icao": "LFLS",
      "alert": "OK",
      "vis_m": 9999,
      "fzfg": false,
      "metar_trigger": false,
      "taf_trigger": false,
      "metar": "METAR LFLS 160400Z AUTO 11005KT CAVOK 03/03 Q1022 NOSIG",
      "taf": "TAF LFLS 160200Z 1603/1703 09004KT 9999 FEW040"
    },
    {
      "icao": "LFMN",
      "alert": "OK",
      "vis_m": 9999,
      "fzfg": false,
      "metar_trigger": false,
      "taf_trigger": false,
      "metar": "METAR LFMN 160400Z 33009KT CAVOK 16/10 Q1017 NOSIG",
      "taf": "TAF LFMN 160200Z 1603/1709 33010KT CAVOK"
    },
    {
      "icao": "LFOB",
      "alert": "OK",
      "vis_m": 9999,
      "fzfg": false,
      "metar_trigger": false,
      "taf_trigger": false,
      "metar": "METAR LFOB 160400Z AUTO 24006KT 210V280 9999 OVC012 11/10 Q1021 TEMPO 3000 BR BKN003",
      "taf": "TAF LFOB 152300Z 1600/1624 24004KT 9999 SCT025"
    },
    {
      "icao": "LFPO",
      "alert": "OK",
      "vis_m": 9999,
      "fzfg": false,
      "metar_trigger": false,
      "taf_trigger": false,
      "metar": "METAR LFPO 160400Z 23006KT CAVOK 10/08 Q1022 NOSIG",
      "taf": "TAF LFPO 152300Z 1600/1706 25006KT CAVOK"
    },
    {
      "icao": "LFSB",
      "alert": "OK",
      "vis_m": 9999,
      "fzfg": false,
      "metar_trigger": false,
      "taf_trigger": false,
      "metar": "METAR LFSB 160400Z AUTO 17006KT CAVOK 06/06 Q1023 NOSIG",
      "taf": "TAF LFSB 152300Z 1600/1624 14004KT 9999 BKN050"
    },
    {
      "icao": "LGAV",
      "alert": "OK",
      "vis_m": 9999,
      "fzfg": false,
      "metar_trigger": false,
      "taf_trigger": false,
      "metar": "METAR LGAV 160420Z 04012KT 9999 FEW025 SCT070 16/07 Q1014 NOSIG",
      "taf": "TAF LGAV 152300Z 1600/1624 35010KT 9999 FEW020 SCT070"
    },
    {
      "icao": "LGTS",
      "alert": "OK",
      "vis_m": 8000,
      "fzfg": false,
      "metar_trigger": false,
      "taf_trigger": false,
      "metar": "METAR LGTS 160350Z COR VRB03KT 8000 SCT025 12/12 Q1017 NOSIG",
      "taf": "TAF LGTS 152300Z 1600/1624 VRB03KT 9999 SCT025"
    },
    {
      "icao": "LHBP",
      "alert": "OK",
      "vis_m": 9999,
      "fzfg": false,
      "metar_trigger": false,
      "taf_trigger": false,
      "metar": "METAR LHBP 160400Z 34003KT 310V100 CAVOK 11/08 Q1019 NOSIG",
      "taf": "TAF LHBP 152315Z 1600/1624 VRB03KT CAVOK"
    },
    {
      "icao": "LHDC",
      "alert": "OK",
      "vis_m": 9999,
      "fzfg": false,
      "metar_trigger": false,
      "taf_trigger": false,
      "metar": "METAR LHDC 160345Z AUTO 00000KT CAVOK 07/05 Q1019 NOSIG",
      "taf": "TAF LHDC 160215Z 1603/1612 02005KT CAVOK"
    },
    {
      "icao": "LIBD",
      "alert": "OK",
      "vis_m": 8000,
      "fzfg": false,
      "metar_trigger": false,
      "taf_trigger": false,
      "metar": "METAR LIBD 160350Z 34003KT 8000 NSC 14/14 Q1016",
      "taf": "TAF LIBD 152300Z 1600/1624 VRB05KT 7000 SCT030"
    },
    {
      "icao": "LIBG",
      "alert": "OK",
      "vis_m": null,
      "fzfg": false,
      "metar_trigger": false,
      "taf_trigger": false,
      "metar": "",
      "taf": ""
    },
    {
      "icao": "LIBP",
      "alert": "OK",
      "vis_m": 9999,
      "fzfg": false,
      "metar_trigger": false,
      "taf_trigger": false,
      "metar": "METAR LIBP 160350Z AUTO 25001KT 9999 OVC010/// 15/15 Q1017",
      "taf": "TAF LIBP 152300Z 1600/1624 VRB05KT 8000 BKN040"
    },
    {
      "icao": "LIBR",
      "alert": "OK",
      "vis_m": 9000,
      "fzfg": false,
      "metar_trigger": false,
      "taf_trigger": false,
      "metar": "METAR LIBR 160350Z 32008KT 9000 NSC 15/14 Q1014",
      "taf": "TAF LIBR 152300Z 1600/1624 VRB05KT 9999 BKN030"
    },
    {
      "icao": "LICA",
      "alert": "OK",
      "vis_m": 9999,
      "fzfg": false,
      "metar_trigger": false,
      "taf_trigger": false,
      "metar": "METAR LICA 160350Z AUTO 07007KT 9999 FEW038/// BKN073/// 16/12 Q1013",
      "taf": "TAF LICA 152300Z 1600/1624 07012KT 9999 SCT035"
    },
    {
      "icao": "LICC",
      "alert": "OK",
      "vis_m": 8000,
      "fzfg": false,
      "metar_trigger": false,
      "taf_trigger": false,
      "metar": "METAR LICC 160350Z 06012KT 8000 FEW010 SCT020 BKN080 17/15 Q1011",
      "taf": "TAF LICC 152300Z 1600/1624 10015KT 6000 FEW005 SCT020"
    },
    {
      "icao": "LICJ",
      "alert": "OK",
      "vis_m": 9999,
      "fzfg": false,
      "metar_trigger": false,
      "taf_trigger": false,
      "metar": "METAR LICJ 160350Z AUTO 05008KT 9999 BKN013/// 16/14 Q1012",
      "taf": "TAF LICJ 152300Z 1600/1624 VRB06KT 9999 FEW020"
    },
    {
      "icao": "LIMC",
      "alert": "OK",
      "vis_m": 7000,
      "fzfg": false,
      "metar_trigger": false,
      "taf_trigger": false,
      "metar": "METAR LIMC 160350Z 35003KT 7000 BCFG NSC 10/10 Q1019 NOSIG",
      "taf": "TAF LIMC 152300Z 1600/1706 VRB05KT 9999 FEW040"
    },
    {
      "icao": "LIME",
      "alert": "OK",
      "vis_m": 9999,
      "fzfg": false,
      "metar_trigger": false,
      "taf_trigger": false,
      "metar": "METAR LIME 160350Z 03003KT 350V060 CAVOK 12/11 Q1019 NOSIG",
      "taf": "TAF LIME 152300Z 1600/1624 VRB05KT 7000 SCT050"
    },
    {
      "icao": "LIMF",
      "alert": "OK",
      "vis_m": 9999,
      "fzfg": false,
      "metar_trigger": false,
      "taf_trigger": false,
      "metar": "METAR LIMF 160350Z 32004KT CAVOK 12/10 Q1019",
      "taf": "TAF LIMF 152300Z 1600/1624 VRB05KT 8000 FEW040"
    },
    {
      "icao": "LIMJ",
      "alert": "OK",
      "vis_m": 9999,
      "fzfg": false,
      "metar_trigger": false,
      "taf_trigger": false,
      "metar": "METAR LIMJ 160350Z 06012KT CAVOK 17/10 Q1017",
      "taf": "TAF LIMJ 152300Z 1600/1624 02014KT CAVOK"
    },
    {
      "icao": "LIPE",
      "alert": "OK",
      "vis_m": 9999,
      "fzfg": false,
      "metar_trigger": false,
      "taf_trigger": false,
      "metar": "METAR LIPE 160350Z 22002KT 9999 FEW045 SCT070 13/13 Q1019",
      "taf": "TAF LIPE 152300Z 1600/1624 VRB05KT 9999 BKN030"
    },
    {
      "icao": "LIPH",
      "alert": "OK",
      "vis_m": null,
      "fzfg": false,
      "metar_trigger": false,
      "taf_trigger": false,
      "metar": "",
      "taf": "TAF LIPH 152300Z 1600/1624 VRB05KT 9999 FEW030"
    },
    {
      "icao": "LIPQ",
      "alert": "OK",
      "vis_m": 8000,
      "fzfg": false,
      "metar_trigger": false,
      "taf_trigger": false,
      "metar": "METAR LIPQ 160350Z AUTO VRB01KT 8000 NCD 09/08 Q1018",
      "taf": "TAF LIPQ 152300Z 1600/1624 VRB05KT 9999 FEW070"
    },
    {
      "icao": "LIPR",
      "alert": "OK",
      "vis_m": 9999,
      "fzfg": false,
      "metar_trigger": false,
      "taf_trigger": false,
      "metar": "METAR LIPR 160350Z AUTO 26004KT 9999 NCD 12/11 Q1018",
      "taf": "TAF LIPR 152300Z 1600/1624 VRB05KT 8000 BKN030"
    },
    {
      "icao": "LIPX",
      "alert": "OK",
      "vis_m": 9999,
      "fzfg": false,
      "metar_trigger": false,
      "taf_trigger": false,
      "metar": "METAR LIPX 160350Z 32003KT CAVOK 11/10 Q1018",
      "taf": "TAF LIPX 152300Z 1600/1624 VRB05KT 7000 FEW050"
    },
    {
      "icao": "LIPY",
      "alert": "OK",
      "vis_m": 9999,
      "fzfg": false,
      "metar_trigger": false,
      "taf_trigger": false,
      "metar": "METAR LIPY 160350Z AUTO 16003KT 9999 FEW079/// SCT095/// 12/12 Q1018",
      "taf": "TAF LIPY 152300Z 1600/1624 VRB05KT 6000 SCT010 BKN040"
    },
    {
      "icao": "LIPZ",
      "alert": "OK",
      "vis_m": 9999,
      "fzfg": false,
      "metar_trigger": false,
      "taf_trigger": false,
      "metar": "METAR LIPZ 160350Z 33004KT CAVOK 12/10 Q1018 NOSIG",
      "taf": "TAF LIPZ 152300Z 1600/1706 VRB05KT 9999 FEW040"
    },
    {
      "icao": "LIRF",
      "alert": "OK",
      "vis_m": 9999,
      "fzfg": false,
      "metar_trigger": false,
      "taf_trigger": false,
      "metar": "METAR LIRF 160350Z 07003KT CAVOK 11/11 Q1015 NOSIG",
      "taf": "TAF LIRF 152300Z 1600/1706 04007KT 9999 SCT030"
    },
    {
      "icao": "LIRN",
      "alert": "OK",
      "vis_m": 9999,
      "fzfg": false,
      "metar_trigger": false,
      "taf_trigger": false,
      "metar": "METAR LIRN 160350Z 04007KT 9999 SCT070 16/10 Q1014 NOSIG",
      "taf": "TAF LIRN 152300Z 1600/1624 VRB05KT 9999 BKN060"
    },
    {
      "icao": "LIRP",
      "alert": "OK",
      "vis_m": 9999,
      "fzfg": false,
      "metar_trigger": false,
      "taf_trigger": false,
      "metar": "METAR LIRP 160345Z VRB02KT CAVOK 13/11 Q1017 NOSIG",
      "taf": "TAF LIRP 152300Z 1600/1624 10007KT 9999 FEW040"
    },
    {
      "icao": "LIRZ",
      "alert": "OK",
      "vis_m": 9999,
      "fzfg": false,
      "metar_trigger": false,
      "taf_trigger": false,
      "metar": "METAR LIRZ 160350Z AUTO 35009KT 9999 FEW100/// 14/11 Q1017",
      "taf": "TAF LIRZ 152300Z 1600/1624 04012KT 9999 SCT030"
    },
    {
      "icao": "LJLJ",
      "alert": "OK",
      "vis_m": 6000,
      "fzfg": false,
      "metar_trigger": false,
      "taf_trigger": false,
      "metar": "METAR LJLJ 160400Z 30003KT 6000 MIFG FEW002 BKN043 08/08 Q1020 NOSIG",
      "taf": "TAF LJLJ 152300Z 1600/1700 VRB02KT 9999 FEW045"
    },
    {
      "icao": "LKMT",
      "alert": "OK",
      "vis_m": 4500,
      "fzfg": false,
      "metar_trigger": false,
      "taf_trigger": false,
      "metar": "METAR LKMT 160400Z VRB01KT 4500 BR NSC 07/07 Q1020 NOSIG",
      "taf": "TAF LKMT 152300Z 1600/1624 VRB02KT 9999 OVC025"
    },
    {
      "icao": "LKPR",
      "alert": "OK",
      "vis_m": 9999,
      "fzfg": false,
      "metar_trigger": false,
      "taf_trigger": false,
      "metar": "METAR LKPR 160400Z 22007KT CAVOK 09/07 Q1020 NOSIG",
      "taf": "TAF LKPR 160200Z 1603/1709 22005KT 9999 BKN040"
    },
    {
      "icao": "LLBG",
      "alert": "OK",
      "vis_m": 9999,
      "fzfg": false,
      "metar_trigger": false,
      "taf_trigger": false,
      "metar": "METAR LLBG 160420Z 28005KT CAVOK 24/10 Q1005 NOSIG RMK OBS 150FT-WIND 020/35KT",
      "taf": "TAF LLBG 152316Z 1600/1624 03005KT CAVOK TX35/1613Z TN24/1603Z"
    },
    {
      "icao": "LMML",
      "alert": "OK",
      "vis_m": 9999,
      "fzfg": false,
      "metar_trigger": false,
      "taf_trigger": false,
      "metar": "METAR LMML 160415Z VRB02KT 9999 FEW011 13/12 Q1011 NOSIG",
      "taf": "TAF LMML 152300Z 1600/1624 29005KT 9999 SCT018"
    },
    {
      "icao": "LOWW",
      "alert": "OK",
      "vis_m": 9999,
      "fzfg": false,
      "metar_trigger": false,
      "taf_trigger": false,
      "metar": "METAR LOWW 160350Z VRB01KT 9999 BKN046 10/08 Q1020 NOSIG",
      "taf": "TAF LOWW 160215Z 1603/1709 34007KT 9999 BKN040 TX19/1614Z TN09/1604Z"
    },
    {
      "icao": "LPFR",
      "alert": "OK",
      "vis_m": 9999,
      "fzfg": false,
      "metar_trigger": false,
      "taf_trigger": false,
      "metar": "METAR LPFR 160400Z 25002KT CAVOK 15/11 Q1019",
      "taf": "TAF LPFR 152300Z 1600/1624 02005KT CAVOK"
    },
    {
      "icao": "LPMA",
      "alert": "OK",
      "vis_m": 9999,
      "fzfg": false,
      "metar_trigger": false,
      "taf_trigger": false,
      "metar": "METAR LPMA 160400Z 01012KT 9999 BKN015 15/10 Q1021",
      "taf": "TAF LPMA 152300Z 1600/1624 02015KT 9999 SCT015"
    },
    {
      "icao": "LPPR",
      "alert": "OK",
      "vis_m": 9999,
      "fzfg": false,
      "metar_trigger": false,
      "taf_trigger": false,
      "metar": "METAR LPPR 160400Z 15003KT 9999 SCT012 BKN024 14/13 Q1022",
      "taf": "TAF LPPR 152300Z 1600/1624 VRB02KT 9999 SCT008"
    },
    {
      "icao": "LPPS",
      "alert": "OK",
      "vis_m": 9999,
      "fzfg": false,
      "metar_trigger": false,
      "taf_trigger": false,
      "metar": "METAR LPPS 160400Z 06011KT 9999 SCT015 BKN030 15/11 Q1021",
      "taf": "TAF LPPS 152300Z 1600/1706 04008KT 9999 FEW015 BKN030"
    },
    {
      "icao": "LPPT",
      "alert": "OK",
      "vis_m": 9999,
      "fzfg": false,
      "metar_trigger": false,
      "taf_trigger": false,
      "metar": "METAR LPPT 160400Z 34005KT 310V010 9999 SCT010 13/12 Q1022",
      "taf": "TAF LPPT 152300Z 1600/1706 33008KT 9999 FEW012"
    },
    {
      "icao": "LQBK",
      "alert": "OK",
      "vis_m": 9999,
      "fzfg": false,
      "metar_trigger": false,
      "taf_trigger": false,
      "metar": "METAR LQBK 160400Z 14001KT 9999 BKN047 12/10 Q1019 NOSIG",
      "taf": "TAF LQBK 152300Z 1600/1624 VRB02KT 9999 FEW025 BKN040 TX21/1613Z TN10/1604Z"
    },
    {
      "icao": "LQSA",
      "alert": "OK",
      "vis_m": 8000,
      "fzfg": false,
      "metar_trigger": false,
      "taf_trigger": false,
      "metar": "METAR LQSA 160400Z 21001KT 8000 SCT015 BKN040 BKN060 12/11 Q1019 NOSIG",
      "taf": "TAF LQSA 152300Z 1600/1624 VRB02KT 9999 BKN040 TX22/1614Z TN11/1604Z"
    },
    {
      "icao": "LQTZ",
      "alert": "OK",
      "vis_m": 800,
      "fzfg": false,
      "metar_trigger": false,
      "taf_trigger": false,
      "metar": "METAR LQTZ 160400Z 19002KT 0800 R09/0500D FG FEW001 09/09 Q1020",
      "taf": "TAF LQTZ 152300Z 1600/1624 27005KT 9999 SCT035 TX21/1613Z TN08/1604Z"
    },
    {
      "icao": "LRBC",
      "alert": "OK",
      "vis_m": 9999,
      "fzfg": false,
      "metar_trigger": false,
      "taf_trigger": false,
      "metar": "METAR LRBC 160400Z 16009KT 9999 FEW043 07/05 Q1020",
      "taf": "TAF LRBC 160200Z 1603/1612 17008KT 9999 SCT045"
    },
    {
      "icao": "LRBS",
      "alert": "OK",
      "vis_m": 9999,
      "fzfg": false,
      "metar_trigger": false,
      "taf_trigger": false,
      "metar": "METAR LRBS 160400Z 02003KT CAVOK 05/03 Q1020 NOSIG",
      "taf": "TAF LRBS 152300Z 1600/1624 VRB04KT CAVOK"
    },
    {
      "icao": "LRBV",
      "alert": "OK",
      "vis_m": 9999,
      "fzfg": false,
      "metar_trigger": false,
      "taf_trigger": false,
      "metar": "METAR LRBV 160400Z 08002KT 9999 FEW074 BKN087 08/05 Q1019",
      "taf": "TAF LRBV 160200Z 1603/1612 VRB04KT CAVOK"
    },
    {
      "icao": "LRCL",
      "alert": "OK",
      "vis_m": 9999,
      "fzfg": false,
      "metar_trigger": false,
      "taf_trigger": false,
      "metar": "METAR LRCL 160400Z 00000KT 9999 FEW065 11/06 Q1018",
      "taf": "TAF LRCL 160200Z 1603/1612 VRB04KT CAVOK"
    },
    {
      "icao": "LRCV",
      "alert": "OK",
      "vis_m": 9999,
      "fzfg": false,
      "metar_trigger": false,
      "taf_trigger": false,
      "metar": "METAR LRCV 160400Z 08003KT CAVOK 06/05 Q1019",
      "taf": "TAF LRCV 160200Z 1603/1612 05006KT CAVOK"
    },
    {
      "icao": "LRIA",
      "alert": "OK",
      "vis_m": 9999,
      "fzfg": false,
      "metar_trigger": false,
      "taf_trigger": false,
      "metar": "METAR LRIA 160400Z 10006KT CAVOK 08/06 Q1020",
      "taf": "TAF LRIA 160200Z 1603/1612 10007KT 9999 SCT045"
    },
    {
      "icao": "LROP",
      "alert": "OK",
      "vis_m": 9999,
      "fzfg": false,
      "metar_trigger": false,
      "taf_trigger": false,
      "metar": "METAR LROP 160400Z 03004KT 360V080 CAVOK 05/03 Q1020 NOSIG",
      "taf": "TAF LROP 152300Z 1600/1624 VRB04KT CAVOK"
    },
    {
      "icao": "LRSB",
      "alert": "OK",
      "vis_m": 9999,
      "fzfg": false,
      "metar_trigger": false,
      "taf_trigger": false,
      "metar": "METAR LRSB 160400Z 17002KT 9999 FEW070 SCT085 09/06 Q1019",
      "taf": "TAF LRSB 152300Z 1600/1624 VRB04KT CAVOK"
    },
    {
      "icao": "LRSM",
      "alert": "OK",
      "vis_m": 9999,
      "fzfg": false,
      "metar_trigger": false,
      "taf_trigger": false,
      "metar": "METAR LRSM 160400Z AUTO 21005KT 9999 BKN085/// 10/06 Q1019",
      "taf": "TAF LRSM 160200Z 1603/1612 24005KT CAVOK"
    },
    {
      "icao": "LRSV",
      "alert": "OK",
      "vis_m": 9999,
      "fzfg": false,
      "metar_trigger": false,
      "taf_trigger": false,
      "metar": "METAR LRSV 160400Z VRB02KT 9999 -RA NSC 09/07 Q1019",
      "taf": "TAF LRSV 160200Z 1603/1612 VRB04KT 9999 SCT045"
    },
    {
      "icao": "LRTM",
      "alert": "OK",
      "vis_m": 9999,
      "fzfg": false,
      "metar_trigger": false,
      "taf_trigger": false,
      "metar": "METAR LRTM 160400Z 35001KT CAVOK 11/08 Q1019",
      "taf": "TAF LRTM 160200Z 1603/1612 VRB04KT CAVOK"
    },
    {
      "icao": "LRTR",
      "alert": "OK",
      "vis_m": 9999,
      "fzfg": false,
      "metar_trigger": false,
      "taf_trigger": false,
      "metar": "METAR LRTR 160400Z 04005KT CAVOK 05/05 Q1019",
      "taf": "TAF LRTR 152300Z 1600/1624 VRB04KT CAVOK"
    },
    {
      "icao": "LTAC",
      "alert": "OK",
      "vis_m": 9999,
      "fzfg": false,
      "metar_trigger": false,
      "taf_trigger": false,
      "metar": "METAR LTAC 160350Z 00000KT CAVOK 06/03 Q1018 NOSIG RMK RWY21C 00000KT RWY03L 00000KT RWY21R 00000KT RWY03R VRB02KT RWY21L 00000KT",
      "taf": "TAF LTAC 152240Z 1600/1624 VRB02KT CAVOK"
    },
    {
      "icao": "LTFM",
      "alert": "OK",
      "vis_m": 9999,
      "fzfg": false,
      "metar_trigger": false,
      "taf_trigger": false,
      "metar": "METAR LTFM 160350Z 03010KT 9999 BKN010 10/07 Q1019 NOSIG RMK RWY17L 04010KT RWY34L 03010KT RWY16R 04009KT RWY36 04010KT RWY18 05010KT",
      "taf": "TAF LTFM 152240Z 1600/1706 03012KT 9999 BKN010"
    },
    {
      "icao": "LUKK",
      "alert": "OK",
      "vis_m": 9999,
      "fzfg": false,
      "metar_trigger": false,
      "taf_trigger": false,
      "metar": "METAR LUKK 160400Z 16004KT CAVOK 07/06 Q1021 NOSIG",
      "taf": "TAF LUKK 152314Z 1600/1624 20006KT 9999 SCT040"
    },
    {
      "icao": "LWOH",
      "alert": "OK",
      "vis_m": null,
      "fzfg": false,
      "metar_trigger": false,
      "taf_trigger": false,
      "metar": "",
      "taf": "TAF LWOH 160305Z 1603/1703 VRB02KT 9999 FEW020 SCT040 BKN080"
    },
    {
      "icao": "LWSK",
      "alert": "OK",
      "vis_m": 9999,
      "fzfg": false,
      "metar_trigger": false,
      "taf_trigger": false,
      "metar": "METAR LWSK 160420Z 10002KT 9999 -DZ FEW025 SCT055 OVC080 11/10 Q1019 NOSIG",
      "taf": "TAF LWSK 160305Z 1603/1703 VRB02KT 9999 SCT050 BKN085"
    },
    {
      "icao": "LYBE",
      "alert": "OK",
      "vis_m": 8000,
      "fzfg": false,
      "metar_trigger": false,
      "taf_trigger": false,
      "metar": "METAR LYBE 160400Z 18004KT 8000 NSC 10/08 Q1019 NOSIG",
      "taf": "TAF LYBE 152300Z 1600/1624 30004KT CAVOK TX23/1613Z TN11/1604Z"
    },
    {
      "icao": "LYNI",
      "alert": "OK",
      "vis_m": 9999,
      "fzfg": false,
      "metar_trigger": false,
      "taf_trigger": false,
      "metar": "METAR LYNI 160400Z 00000KT CAVOK 08/08 Q1018 NOSIG",
      "taf": "TAF LYNI 152300Z 1600/1624 08004KT CAVOK TX23/1613Z TN10/1604Z"
    },
    {
      "icao": "LYPG",
      "alert": "OK",
      "vis_m": 9999,
      "fzfg": false,
      "metar_trigger": false,
      "taf_trigger": false,
      "metar": "METAR LYPG 160400Z 35005KT 9999 BKN083 13/11 Q1016 NOSIG",
      "taf": ""
    },
    {
      "icao": "LZIB",
      "alert": "OK",
      "vis_m": 9999,
      "fzfg": false,
      "metar_trigger": false,
      "taf_trigger": false,
      "metar": "METAR LZIB 160400Z 29007KT 9999 BKN048 12/08 Q1020 NOSIG",
      "taf": "TAF LZIB 152315Z 1600/1700 31008KT CAVOK"
    },
    {
      "icao": "LZKZ",
      "alert": "OK",
      "vis_m": 9999,
      "fzfg": false,
      "metar_trigger": false,
      "taf_trigger": false,
      "metar": "METAR LZKZ 160400Z 36007KT CAVOK 12/08 Q1019 NOSIG",
      "taf": "TAF LZKZ 152315Z 1600/1700 01008KT CAVOK"
    },
    {
      "icao": "LZTT",
      "alert": "OK",
      "vis_m": 9999,
      "fzfg": false,
      "metar_trigger": false,
      "taf_trigger": false,
      "metar": "METAR LZTT 160400Z 29003KT 9999 BKN021 BKN054 07/06 Q1019",
      "taf": "TAF LZTT 152315Z 1600/1700 24005KT 9999 BKN040"
    },
    {
      "icao": "OEJN",
      "alert": "OK",
      "vis_m": 9999,
      "fzfg": false,
      "metar_trigger": false,
      "taf_trigger": false,
      "metar": "METAR OEJN 160400Z 00000KT 9999 FEW040 28/21 Q1005 NOSIG",
      "taf": "TAF OEJN 152300Z 1600/1706 VRB03KT 7000 NSC"
    },
    {
      "icao": "OEMA",
      "alert": "OK",
      "vis_m": 9999,
      "fzfg": false,
      "metar_trigger": false,
      "taf_trigger": false,
      "metar": "METAR OEMA 160400Z 03008KT CAVOK 22/18 Q1013 NOSIG",
      "taf": "TAF OEMA 152300Z 1600/1706 10005KT 7000 FEW045"
    },
    {
      "icao": "OJAI",
      "alert": "OK",
      "vis_m": null,
      "fzfg": false,
      "metar_trigger": false,
      "taf_trigger": false,
      "metar": "",
      "taf": "TAF OJAI 152300Z 1600/1706 13010KT 4000 DU NSC"
    },
    {
      "icao": "OMAA",
      "alert": "OK",
      "vis_m": null,
      "fzfg": false,
      "metar_trigger": false,
      "taf_trigger": false,
      "metar": "",
      "taf": ""
    },
    {
      "icao": "OMDB",
      "alert": "OK",
      "vis_m": null,
      "fzfg": false,
      "metar_trigger": false,
      "taf_trigger": false,
      "metar": "",
      "taf": ""
    },
    {
      "icao": "UAAA",
      "alert": "OK",
      "vis_m": 9999,
      "fzfg": false,
      "metar_trigger": false,
      "taf_trigger": false,
      "metar": "METAR UAAA 160400Z 33003MPS 310V010 9999 BKN015CB OVC100 14/11 Q1012 NOSIG",
      "taf": "TAF UAAA 152302Z 1600/1624 28003G08MPS 9999 BKN050CB OVC100 TX18/1609Z TN10/1601Z"
    },
    {
      "icao": "UBBB",
      "alert": "OK",
      "vis_m": 9999,
      "fzfg": false,
      "metar_trigger": false,
      "taf_trigger": false,
      "metar": "METAR UBBB 160400Z 29006KT 260V320 CAVOK 14/05 Q1021 NOSIG",
      "taf": "TAF UBBB 152308Z 1600/1624 VRB04KT 9999 SCT030 TX15/1610Z TN07/1601Z"
    },
    {
      "icao": "UDSG",
      "alert": "OK",
      "vis_m": 9999,
      "fzfg": false,
      "metar_trigger": false,
      "taf_trigger": false,
      "metar": "METAR UDSG 160400Z 04001KT 9999 NSC M03/M07 Q1021 NOSIG",
      "taf": "TAF UDSG 152300Z 1600/1624 VRB06KT 9999 FEW050"
    },
    {
      "icao": "UDYZ",
      "alert": "OK",
      "vis_m": 9999,
      "fzfg": false,
      "metar_trigger": false,
      "taf_trigger": false,
      "metar": "METAR UDYZ 160400Z 24001KT 9999 NSC 02/M01 Q1021 NOSIG",
      "taf": "TAF UDYZ 152300Z 1600/1624 14006KT 9999 FEW040"
    },
    {
      "icao": "UGKO",
      "alert": "OK",
      "vis_m": 9999,
      "fzfg": false,
      "metar_trigger": false,
      "taf_trigger": false,
      "metar": "METAR UGKO 160400Z 10006KT CAVOK 06/02 Q1021 NOSIG",
      "taf": "TAF UGKO 152300Z 1600/1624 08007KT CAVOK TX19/1611Z TN02/1602Z"
    }
  ]
}