{
  "ts_utc": "2026-01-04T07:35:13Z",
  "threshold_m": 150,
  "source": "stations_override.txt (ICAO list) + aviationweather.gov (METAR/TAF raw)",
  "station_count": 159,
  "stations": [
    {
      "icao": "BIKF",
      "alert": "OK",
      "vis_m": 9999,
      "fzfg": false,
      "metar_trigger": false,
      "taf_trigger": false,
      "metar": "METAR BIKF 040730Z 35008KT CAVOK M04/M06 Q1028",
      "taf": "TAF BIKF 040444Z 0406/0506 01008KT CAVOK TX02/0506Z TNM04/0406Z"
    },
    {
      "icao": "BKPR",
      "alert": "OK",
      "vis_m": 9999,
      "fzfg": false,
      "metar_trigger": false,
      "taf_trigger": false,
      "metar": "METAR BKPR 040730Z COR 21009KT 9999 BKN045 13/05 Q1006 NOSIG",
      "taf": "TAF BKPR 040530Z 0406/0506 18008KT 9999 FEW012 BKN040"
    },
    {
      "icao": "EBCI",
      "alert": "OK",
      "vis_m": 9999,
      "fzfg": false,
      "metar_trigger": false,
      "taf_trigger": false,
      "metar": "METAR EBCI 040720Z 23010KT CAVOK M04/M05 Q1011 NOSIG",
      "taf": "TAF EBCI 040514Z 0406/0512 26008KT 9999 FEW015 SCT035"
    },
    {
      "icao": "EDDB",
      "alert": "OK",
      "vis_m": 9999,
      "fzfg": false,
      "metar_trigger": false,
      "taf_trigger": false,
      "metar": "METAR EDDB 040720Z AUTO 24009KT CAVOK M06/M07 Q1004 NOSIG",
      "taf": "TAF EDDB 040500Z 0406/0506 24009KT 9999 SCT020"
    },
    {
      "icao": "EDDH",
      "alert": "OK",
      "vis_m": 9999,
      "fzfg": false,
      "metar_trigger": false,
      "taf_trigger": false,
      "metar": "METAR EDDH 040720Z AUTO 24003KT 210V270 9999 -SHSN OVC005 FEW///CB M03/M04 Q1002 TEMPO 2000 SHSN OVC004",
      "taf": "TAF EDDH 040500Z 0406/0512 21004KT 9999 FEW035"
    },
    {
      "icao": "EDDK",
      "alert": "OK",
      "vis_m": 9999,
      "fzfg": false,
      "metar_trigger": false,
      "taf_trigger": false,
      "metar": "METAR EDDK 040720Z COR AUTO 24012KT 9999 SCT019 BKN031 BKN046 00/M03 Q1009 NOSIG",
      "taf": "TAF EDDK 040500Z 0406/0512 26013KT 9999 SCT010 BKN020"
    },
    {
      "icao": "EDDN",
      "alert": "OK",
      "vis_m": 9999,
      "fzfg": false,
      "metar_trigger": false,
      "taf_trigger": false,
      "metar": "METAR EDDN 040720Z AUTO 24010KT 9999 BKN020 OVC044 M02/M06 Q1010 NOSIG",
      "taf": "TAF EDDN 040500Z 0406/0506 24010KT 9999 BKN015"
    },
    {
      "icao": "EDDS",
      "alert": "OK",
      "vis_m": 9999,
      "fzfg": false,
      "metar_trigger": false,
      "taf_trigger": false,
      "metar": "METAR EDDS 040720Z AUTO 22005KT 170V280 9999 OVC039 M02/M08 Q1011 NOSIG",
      "taf": "TAF EDDS 040500Z 0406/0506 21005KT 9999 OVC030"
    },
    {
      "icao": "EDFH",
      "alert": "OK",
      "vis_m": 9999,
      "fzfg": false,
      "metar_trigger": false,
      "taf_trigger": false,
      "metar": "METAR EDFH 040720Z 26013KT 9999 FEW007 SCT010 BKN023 M03/M04 Q1008",
      "taf": "TAF EDFH 040500Z 0406/0506 25013KT 9999 BKN007"
    },
    {
      "icao": "EDJA",
      "alert": "OK",
      "vis_m": 9999,
      "fzfg": false,
      "metar_trigger": false,
      "taf_trigger": false,
      "metar": "METAR EDJA 040720Z 19007KT CAVOK M10/M11 Q1011",
      "taf": "TAF EDJA 040500Z 0406/0415 23007KT CAVOK"
    },
    {
      "icao": "EDLW",
      "alert": "OK",
      "vis_m": 9999,
      "fzfg": false,
      "metar_trigger": false,
      "taf_trigger": false,
      "metar": "METAR EDLW 040720Z 24011KT 9999 BKN010 BKN012 BKN020 00/M01 Q1006",
      "taf": "TAF EDLW 040500Z 0406/0506 24013KT 9999 SCT008 BKN012"
    },
    {
      "icao": "EDNY",
      "alert": "OK",
      "vis_m": 9999,
      "fzfg": false,
      "metar_trigger": false,
      "taf_trigger": false,
      "metar": "METAR EDNY 040720Z VRB01KT 9999 FEW015 M11/M12 Q1013",
      "taf": ""
    },
    {
      "icao": "EDSB",
      "alert": "OK",
      "vis_m": 9999,
      "fzfg": false,
      "metar_trigger": false,
      "taf_trigger": false,
      "metar": "METAR EDSB 040720Z 21007KT 9999 -SN SCT020 OVC023 M01/M04 Q1013",
      "taf": "TAF EDSB 040500Z 0406/0506 20009KT 9999 OVC025"
    },
    {
      "icao": "EETN",
      "alert": "OK",
      "vis_m": 9999,
      "fzfg": false,
      "metar_trigger": false,
      "taf_trigger": false,
      "metar": "METAR EETN 040720Z 07010KT 9999 -SN OVC008 M03/M04 Q0995 TEMPO 3000 SN -FZDZ",
      "taf": "TAF EETN 040530Z 0406/0506 07012KT 8000 OVC010"
    },
    {
      "icao": "EFTU",
      "alert": "OK",
      "vis_m": 9999,
      "fzfg": false,
      "metar_trigger": false,
      "taf_trigger": false,
      "metar": "METAR EFTU 040720Z AUTO 05007KT 010V080 CAVOK M15/M17 Q0998",
      "taf": "TAF EFTU 040523Z 0406/0506 05009KT CAVOK"
    },
    {
      "icao": "EGBB",
      "alert": "OK",
      "vis_m": 9999,
      "fzfg": false,
      "metar_trigger": false,
      "taf_trigger": false,
      "metar": "METAR EGBB 040720Z 27006KT 9999 FEW037 M03/M05 Q1013",
      "taf": "TAF EGBB 040456Z 0406/0506 29008KT 9999 FEW035"
    },
    {
      "icao": "EGGP",
      "alert": "OK",
      "vis_m": 9999,
      "fzfg": false,
      "metar_trigger": false,
      "taf_trigger": false,
      "metar": "METAR EGGP 040720Z 28003KT 9999 FEW038 M01/M05 Q1013",
      "taf": "TAF EGGP 040456Z 0406/0506 31005KT 9999 FEW035"
    },
    {
      "icao": "EGGW",
      "alert": "OK",
      "vis_m": 9999,
      "fzfg": false,
      "metar_trigger": false,
      "taf_trigger": false,
      "metar": "METAR EGGW 040720Z AUTO 29013KT 9999 NCD M03/M06 Q1012",
      "taf": "TAF EGGW 040454Z 0406/0506 29009KT CAVOK"
    },
    {
      "icao": "EGKK",
      "alert": "OK",
      "vis_m": 9999,
      "fzfg": false,
      "metar_trigger": false,
      "taf_trigger": false,
      "metar": "METAR EGKK 040720Z 23004KT CAVOK M04/M06 Q1014",
      "taf": "TAF EGKK 040454Z 0406/0512 28009KT CAVOK"
    },
    {
      "icao": "EGNM",
      "alert": "OK",
      "vis_m": 9999,
      "fzfg": false,
      "metar_trigger": false,
      "taf_trigger": false,
      "metar": "METAR EGNM 040720Z 29015KT CAVOK M03/M08 Q1011",
      "taf": "TAF EGNM 040528Z 0406/0506 30015KT 9999 FEW045"
    },
    {
      "icao": "EGPD",
      "alert": "OK",
      "vis_m": 600,
      "fzfg": false,
      "metar_trigger": false,
      "taf_trigger": false,
      "metar": "METAR EGPD 040720Z 29011KT 0600 R34/0800 +SHSN SCT009 SCT016 BKN026 M01/M04 Q1008 RESHSN",
      "taf": "TAF EGPD 040456Z 0406/0506 30012KT 9999 FEW012"
    },
    {
      "icao": "EGPF",
      "alert": "OK",
      "vis_m": 9999,
      "fzfg": false,
      "metar_trigger": false,
      "taf_trigger": false,
      "metar": "METAR EGPF 040720Z AUTO 25005KT 9999 NCD M05/M07 Q1012",
      "taf": "TAF EGPF 040456Z 0406/0506 27007KT 9999 FEW040"
    },
    {
      "icao": "EHBK",
      "alert": "OK",
      "vis_m": 9999,
      "fzfg": false,
      "metar_trigger": false,
      "taf_trigger": false,
      "metar": "METAR EHBK 040725Z AUTO 23013KT 200V260 9999 OVC012/// M01/M03 Q1009 BECMG BKN015",
      "taf": "TAF EHBK 040511Z 0406/0512 24012KT 9999 SCT022"
    },
    {
      "icao": "EHEH",
      "alert": "OK",
      "vis_m": 8000,
      "fzfg": false,
      "metar_trigger": false,
      "taf_trigger": false,
      "metar": "METAR EHEH 040725Z AUTO 24011KT 210V270 8000 R21/2800U -SN FEW000 SCT006 BKN010 FEW015CB M00/M01 Q1008 GRN TEMPO 1200 SHSN SCT006 BKN008 SCT015CB",
      "taf": "TAF EHEH 040524Z 0406/0512 24008KT 9999 SCT020 BKN030"
    },
    {
      "icao": "EKBI",
      "alert": "OK",
      "vis_m": 9999,
      "fzfg": false,
      "metar_trigger": false,
      "taf_trigger": false,
      "metar": "METAR EKBI 040720Z AUTO 00000KT 9999 BKN038/// BKN120/// M09/M10 Q1000",
      "taf": "TAF EKBI 040527Z 0406/0506 26005KT 9999 FEW030"
    },
    {
      "icao": "EKCH",
      "alert": "OK",
      "vis_m": 9999,
      "fzfg": false,
      "metar_trigger": false,
      "taf_trigger": false,
      "metar": "METAR EKCH 040720Z 27012KT 9999 FEW009 BKN034 M02/M04 Q0997 TEMPO 3000 SHSN BKN014",
      "taf": "TAF EKCH 040527Z 0406/0506 28010KT 9999 -SHSN BKN040"
    },
    {
      "icao": "ENAL",
      "alert": "OK",
      "vis_m": 9999,
      "fzfg": false,
      "metar_trigger": false,
      "taf_trigger": false,
      "metar": "METAR ENAL 040720Z 15007KT 050V170 CAVOK M06/M13 Q1001",
      "taf": "TAF ENAL 040500Z 0406/0415 15009KT CAVOK"
    },
    {
      "icao": "ENBR",
      "alert": "OK",
      "vis_m": 9999,
      "fzfg": false,
      "metar_trigger": false,
      "taf_trigger": false,
      "metar": "METAR ENBR 040720Z 08003KT CAVOK M09/M16 Q1000 NOSIG RMK WIND 1200FT 13010KT",
      "taf": "TAF ENBR 040500Z 0406/0506 08005KT CAVOK"
    },
    {
      "icao": "ENGM",
      "alert": "OK",
      "vis_m": 3400,
      "fzfg": false,
      "metar_trigger": false,
      "taf_trigger": false,
      "metar": "METAR ENGM 040720Z 02014KT 3400 -SN BR FEW026 BKN031 M08/M11 Q1000 TEMPO 2500 -SN VV014",
      "taf": "TAF ENGM 040500Z 0406/0506 01012KT 7000 -SN FEW020 BKN035"
    },
    {
      "icao": "ENHD",
      "alert": "OK",
      "vis_m": 9999,
      "fzfg": false,
      "metar_trigger": false,
      "taf_trigger": false,
      "metar": "METAR ENHD 040720Z AUTO 10008KT 9999 NCD M07/M12 Q1000",
      "taf": "TAF ENHD 040500Z 0406/0415 09009KT CAVOK"
    },
    {
      "icao": "ENTC",
      "alert": "OK",
      "vis_m": 9999,
      "fzfg": false,
      "metar_trigger": false,
      "taf_trigger": false,
      "metar": "METAR ENTC 040720Z 22011KT 9999 SCT007 M07/M08 Q1007 RMK WIND 2600FT 33014KT",
      "taf": ""
    },
    {
      "icao": "ENTO",
      "alert": "OK",
      "vis_m": 7000,
      "fzfg": false,
      "metar_trigger": false,
      "taf_trigger": false,
      "metar": "METAR ENTO 040720Z 36010KT 7000 -SN SCT022 BKN027 M07/M09 Q1000 TEMPO 3000 -SN VV014",
      "taf": "TAF ENTO 040500Z 0406/0506 36012KT 7000 -SN BKN020"
    },
    {
      "icao": "ENVA",
      "alert": "OK",
      "vis_m": 9999,
      "fzfg": false,
      "metar_trigger": false,
      "taf_trigger": false,
      "metar": "METAR ENVA 040720Z 12007KT CAVOK M11/M14 Q1007 NOSIG RMK WIND 670FT 09009KT",
      "taf": "TAF ENVA 040500Z 0406/0506 12009KT CAVOK"
    },
    {
      "icao": "ENZV",
      "alert": "OK",
      "vis_m": 9999,
      "fzfg": false,
      "metar_trigger": false,
      "taf_trigger": false,
      "metar": "METAR ENZV 040720Z 00000KT CAVOK M09/M14 Q1000 NOSIG",
      "taf": "TAF ENZV 040500Z 0406/0506 13008KT CAVOK"
    },
    {
      "icao": "EPGD",
      "alert": "OK",
      "vis_m": 9999,
      "fzfg": false,
      "metar_trigger": false,
      "taf_trigger": false,
      "metar": "METAR EPGD 040730Z 25008KT 9999 -SHSN SCT008 FEW011TCU BKN038 M05/M06 Q0995",
      "taf": "TAF EPGD 040530Z 0406/0506 22004KT CAVOK"
    },
    {
      "icao": "EPKK",
      "alert": "OK",
      "vis_m": 9999,
      "fzfg": false,
      "metar_trigger": false,
      "taf_trigger": false,
      "metar": "METAR EPKK 040730Z 23007KT CAVOK M02/M08 Q1006",
      "taf": "TAF EPKK 040530Z 0406/0506 20007KT CAVOK"
    },
    {
      "icao": "EPKT",
      "alert": "OK",
      "vis_m": 9999,
      "fzfg": false,
      "metar_trigger": false,
      "taf_trigger": false,
      "metar": "METAR EPKT 040730Z 21012KT 9999 FEW041 M04/M08 Q1005",
      "taf": "TAF EPKT 040530Z 0406/0506 22012KT CAVOK"
    },
    {
      "icao": "EPLB",
      "alert": "OK",
      "vis_m": 9999,
      "fzfg": false,
      "metar_trigger": false,
      "taf_trigger": false,
      "metar": "METAR EPLB 040730Z 22015KT CAVOK M03/M08 Q1005",
      "taf": "TAF EPLB 040530Z 0406/0506 24014KT CAVOK"
    },
    {
      "icao": "EPMO",
      "alert": "OK",
      "vis_m": 9999,
      "fzfg": false,
      "metar_trigger": false,
      "taf_trigger": false,
      "metar": "METAR EPMO 040730Z 23017G27KT 9999 DRSN BKN027 M01/M05 Q1000",
      "taf": "TAF EPMO 040530Z 0406/0506 20012KT 9999 BKN030"
    },
    {
      "icao": "EPPO",
      "alert": "OK",
      "vis_m": 9999,
      "fzfg": false,
      "metar_trigger": false,
      "taf_trigger": false,
      "metar": "METAR EPPO 040730Z 24012KT 9999 DRSN SCT020 M03/M07 Q1002",
      "taf": "TAF EPPO 040530Z 0406/0506 25015KT 9999 BKN030"
    },
    {
      "icao": "EPRA",
      "alert": "OK",
      "vis_m": 9999,
      "fzfg": false,
      "metar_trigger": false,
      "taf_trigger": false,
      "metar": "METAR EPRA 040730Z 23013KT 9999 SCT035 M03/M08 Q1003",
      "taf": "TAF EPRA 040530Z 0406/0415 23010KT 9999 BKN030"
    },
    {
      "icao": "EPRZ",
      "alert": "OK",
      "vis_m": 9999,
      "fzfg": false,
      "metar_trigger": false,
      "taf_trigger": false,
      "metar": "METAR EPRZ 040730Z 20009KT CAVOK M03/M07 Q1007",
      "taf": "TAF EPRZ 040530Z 0406/0506 21010KT CAVOK"
    },
    {
      "icao": "EPSC",
      "alert": "OK",
      "vis_m": 9999,
      "fzfg": false,
      "metar_trigger": false,
      "taf_trigger": false,
      "metar": "METAR EPSC 040730Z 25011KT 210V270 9999 FEW047 M04/M08 Q1000",
      "taf": "TAF EPSC 040530Z 0406/0506 26015KT 9999 SCT020"
    },
    {
      "icao": "EPSY",
      "alert": "OK",
      "vis_m": 750,
      "fzfg": false,
      "metar_trigger": false,
      "taf_trigger": false,
      "metar": "METAR EPSY 040730Z 19012KT 0750 R01/1100D +SHSN BKN013CB OVC018 M02/M03 Q0997",
      "taf": "TAF EPSY 040530Z 0406/0415 22010KT 9999 BKN030"
    },
    {
      "icao": "EPWA",
      "alert": "OK",
      "vis_m": 9999,
      "fzfg": false,
      "metar_trigger": false,
      "taf_trigger": false,
      "metar": "METAR EPWA 040730Z 23012KT 9999 FEW033 M02/M06 Q1001 TEMPO 4000 -SN",
      "taf": "TAF EPWA 040530Z 0406/0506 20010KT 9999 BKN030"
    },
    {
      "icao": "EPWR",
      "alert": "OK",
      "vis_m": 2000,
      "fzfg": false,
      "metar_trigger": false,
      "taf_trigger": false,
      "metar": "METAR EPWR 040730Z 25012KT 210V270 2000 SHSN SCT005 BKN010CB M02/M03 Q1005",
      "taf": "TAF EPWR 040530Z 0406/0506 23014KT 9999 BKN030"
    },
    {
      "icao": "ESGG",
      "alert": "OK",
      "vis_m": 9999,
      "fzfg": false,
      "metar_trigger": false,
      "taf_trigger": false,
      "metar": "METAR ESGG 040720Z 35009KT 9999 -SN OVC004 M06/M07 Q0995",
      "taf": ""
    },
    {
      "icao": "ESKN",
      "alert": "OK",
      "vis_m": 9999,
      "fzfg": false,
      "metar_trigger": false,
      "taf_trigger": false,
      "metar": "METAR ESKN 040720Z 02011KT 340V060 9999 OVC011 M03/M05 Q0995",
      "taf": "TAF ESKN 040530Z 0406/0506 01015G25KT 9999 BKN015"
    },
    {
      "icao": "ESMS",
      "alert": "OK",
      "vis_m": 7000,
      "fzfg": false,
      "metar_trigger": false,
      "taf_trigger": false,
      "metar": "METAR ESMS 040720Z 31007KT 7000 SN FEW003 SCT012 OVC016 M03/M04 Q0996",
      "taf": "TAF ESMS 040527Z 0406/0506 30010KT 9999 -SHSN BKN016"
    },
    {
      "icao": "ESSA",
      "alert": "OK",
      "vis_m": 9999,
      "fzfg": false,
      "metar_trigger": false,
      "taf_trigger": false,
      "metar": "METAR ESSA 040720Z 03015KT 9999 BKN013 M04/M06 Q0997 NOSIG",
      "taf": ""
    },
    {
      "icao": "EYKA",
      "alert": "OK",
      "vis_m": 9999,
      "fzfg": false,
      "metar_trigger": false,
      "taf_trigger": false,
      "metar": "METAR EYKA 040720Z COR 17004KT 120V220 9999 -SN BKN012 OVC016 M02/M03 Q0998",
      "taf": "TAF EYKA 040520Z 0406/0506 VRB04KT 9000 BKN020"
    },
    {
      "icao": "EYPA",
      "alert": "OK",
      "vis_m": 3000,
      "fzfg": false,
      "metar_trigger": false,
      "taf_trigger": false,
      "metar": "METAR EYPA 040720Z 21006KT 170V260 3000 SHSN FEW010 SCT015CB BKN022 M00/M03 Q0993",
      "taf": "TAF EYPA 040520Z 0406/0506 21010KT 9000 BKN030"
    },
    {
      "icao": "EYVI",
      "alert": "OK",
      "vis_m": 7000,
      "fzfg": false,
      "metar_trigger": false,
      "taf_trigger": false,
      "metar": "METAR EYVI 040720Z 20010KT 7000 -SN OVC006 M03/M04 Q0998 TEMPO 1500 SN",
      "taf": "TAF EYVI 040513Z 0406/0506 19013KT 5000 SN BKN010 BKN025"
    },
    {
      "icao": "GCFV",
      "alert": "OK",
      "vis_m": 9999,
      "fzfg": false,
      "metar_trigger": false,
      "taf_trigger": false,
      "metar": "METAR GCFV 040730Z 27016KT 9999 FEW025 SCT040 18/14 Q1009",
      "taf": "TAF GCFV 040200Z 0403/0503 29015KT 9999 FEW020 SCT035 TX22/0414Z TN17/0406Z"
    },
    {
      "icao": "GCLP",
      "alert": "OK",
      "vis_m": 9999,
      "fzfg": false,
      "metar_trigger": false,
      "taf_trigger": false,
      "metar": "METAR GCLP 040730Z 33004KT 290V040 9999 SCT030 17/13 Q1010 NOSIG",
      "taf": "TAF GCLP 040200Z 0403/0503 33005KT 9999 FEW020 SCT035 TX21/0414Z TN16/0406Z"
    },
    {
      "icao": "GCTS",
      "alert": "OK",
      "vis_m": 9999,
      "fzfg": false,
      "metar_trigger": false,
      "taf_trigger": false,
      "metar": "METAR GCTS 040730Z 01008KT 9999 FEW050 16/12 Q1010 NOSIG",
      "taf": "TAF GCTS 040200Z 0403/0503 30007KT 9999 SCT030 TX25/0414Z TN17/0406Z"
    },
    {
      "icao": "GMAD",
      "alert": "OK",
      "vis_m": 6000,
      "fzfg": false,
      "metar_trigger": false,
      "taf_trigger": false,
      "metar": "METAR GMAD 040730Z 22015KT 6000 FEW010 BKN016 SCT026TCU 16/16 Q1005 RESHRA TEMPO 3000 SHRA",
      "taf": "TAF GMAD 040500Z 0406/0512 22014KT 6000 SCT010 BKN020TCU BKN080"
    },
    {
      "icao": "GMMN",
      "alert": "OK",
      "vis_m": 9999,
      "fzfg": false,
      "metar_trigger": false,
      "taf_trigger": false,
      "metar": "METAR GMMN 040730Z 22015KT 190V260 9999 -RA BKN015 SCT027TCU 14/13 Q0999 NOSIG",
      "taf": "TAF GMMN 040500Z 0406/0512 20016KT 9999 BKN012 SCT020"
    },
    {
      "icao": "GMMX",
      "alert": "OK",
      "vis_m": 8000,
      "fzfg": false,
      "metar_trigger": false,
      "taf_trigger": false,
      "metar": "METAR GMMX 040730Z 22008KT 8000 SCT016 BKN080 14/11 Q1003 NOSIG",
      "taf": "TAF GMMX 040500Z 0406/0512 24008KT 9999 SCT016 BKN080"
    },
    {
      "icao": "HEGN",
      "alert": "OK",
      "vis_m": 9999,
      "fzfg": false,
      "metar_trigger": false,
      "taf_trigger": false,
      "metar": "METAR HEGN 040700Z 30011KT CAVOK 18/06 Q1022 NOSIG",
      "taf": "TAF HEGN 040500Z 0406/0512 34015KT CAVOK"
    },
    {
      "icao": "HEMA",
      "alert": "OK",
      "vis_m": 9999,
      "fzfg": false,
      "metar_trigger": false,
      "taf_trigger": false,
      "metar": "METAR HEMA 040700Z 31021KT CAVOK 21/14 Q1020 NOSIG",
      "taf": "TAF HEMA 040500Z 0406/0512 36015KT CAVOK"
    },
    {
      "icao": "HESH",
      "alert": "OK",
      "vis_m": null,
      "fzfg": false,
      "metar_trigger": false,
      "taf_trigger": false,
      "metar": "",
      "taf": "TAF HESH 040500Z 0406/0512 02012KT CAVOK"
    },
    {
      "icao": "HESX",
      "alert": "OK",
      "vis_m": 3000,
      "fzfg": false,
      "metar_trigger": false,
      "taf_trigger": false,
      "metar": "METAR HESX 040700Z 05004KT 3000 BR NSC 09/07 Q1022 NOSIG",
      "taf": "TAF HESX 040500Z 0406/0512 04010KT CAVOK"
    },
    {
      "icao": "LATI",
      "alert": "OK",
      "vis_m": 9999,
      "fzfg": false,
      "metar_trigger": false,
      "taf_trigger": false,
      "metar": "METAR LATI 040720Z 13007KT 9999 BKN028 OVC043 15/09 Q1010 NOSIG",
      "taf": ""
    },
    {
      "icao": "LBPD",
      "alert": "OK",
      "vis_m": 9999,
      "fzfg": false,
      "metar_trigger": false,
      "taf_trigger": false,
      "metar": "METAR LBPD 040730Z AUTO VRB05KT 9999 FEW200/// 05/05 Q1008 NOSIG",
      "taf": "TAF LBPD 040500Z 0406/0506 VRB03KT 9999 SCT020 BKN080"
    },
    {
      "icao": "LBSF",
      "alert": "OK",
      "vis_m": 9999,
      "fzfg": false,
      "metar_trigger": false,
      "taf_trigger": false,
      "metar": "METAR LBSF 040730Z 19021G40KT 9999 SCT053 15/04 Q1006 TEMPO 21025G35KT",
      "taf": "TAF LBSF 040500Z 0406/0506 17014KT 9999 SCT030 BKN050"
    },
    {
      "icao": "LBWN",
      "alert": "OK",
      "vis_m": 9999,
      "fzfg": false,
      "metar_trigger": false,
      "taf_trigger": false,
      "metar": "METAR LBWN 040730Z 11007KT 9999 FEW006 SCT008 BKN028 10/10 Q1008 NOSIG",
      "taf": ""
    },
    {
      "icao": "LCLK",
      "alert": "OK",
      "vis_m": 9999,
      "fzfg": false,
      "metar_trigger": false,
      "taf_trigger": false,
      "metar": "METAR LCLK 040730Z 34005KT 310V010 9999 FEW030 16/09 Q1028 NOSIG",
      "taf": "TAF LCLK 040530Z 0406/0506 32007KT 9999 FEW030"
    },
    {
      "icao": "LCPH",
      "alert": "OK",
      "vis_m": 9999,
      "fzfg": false,
      "metar_trigger": false,
      "taf_trigger": false,
      "metar": "METAR LCPH 040730Z 11006KT 090V160 9999 FEW050 17/06 Q1027 NOSIG",
      "taf": "TAF LCPH 040530Z 0406/0506 06008KT 9999 FEW025 SCT040"
    },
    {
      "icao": "LEAL",
      "alert": "OK",
      "vis_m": 9999,
      "fzfg": false,
      "metar_trigger": false,
      "taf_trigger": false,
      "metar": "METAR LEAL 040730Z 03003KT 340V070 9999 SCT020 BKN043 12/11 Q1002 NOSIG",
      "taf": "TAF LEAL 040500Z 0406/0506 30003KT 9999 FEW020 TX15/0414Z TN08/0506Z"
    },
    {
      "icao": "LEBB",
      "alert": "OK",
      "vis_m": 9999,
      "fzfg": false,
      "metar_trigger": false,
      "taf_trigger": false,
      "metar": "METAR LEBB 040700Z VRB01KT 9999 FEW040 02/02 Q1013 NOSIG",
      "taf": "TAF LEBB 040500Z 0406/0506 VRB03KT 8000 FEW020 SCT030 TX07/0413Z TN00/0406Z"
    },
    {
      "icao": "LEBL",
      "alert": "OK",
      "vis_m": 9999,
      "fzfg": false,
      "metar_trigger": false,
      "taf_trigger": false,
      "metar": "METAR LEBL 040730Z 34004KT 310V010 9999 FEW015 BKN040 07/05 Q1006 NOSIG",
      "taf": ""
    },
    {
      "icao": "LECH",
      "alert": "OK",
      "vis_m": 4200,
      "fzfg": false,
      "metar_trigger": false,
      "taf_trigger": false,
      "metar": "METAR LECH 040700Z AUTO 04008KT 010V080 4200 BR OVC003 08/07 Q1005",
      "taf": ""
    },
    {
      "icao": "LEMD",
      "alert": "OK",
      "vis_m": 9999,
      "fzfg": false,
      "metar_trigger": false,
      "taf_trigger": false,
      "metar": "METAR LEMD 040730Z VRB02KT 9999 FEW036 BKN050 06/06 Q1003 NOSIG",
      "taf": "TAF LEMD 040500Z 0406/0512 VRB03KT 9999 SCT030 TX09/0414Z TNM01/0506Z"
    },
    {
      "icao": "LEMG",
      "alert": "OK",
      "vis_m": 6000,
      "fzfg": false,
      "metar_trigger": false,
      "taf_trigger": false,
      "metar": "METAR LEMG 040730Z 10018KT 6000 RA SCT019 BKN044 14/13 Q0998 NOSIG",
      "taf": "TAF LEMG 040500Z 0406/0506 10018KT 9999 SCT015 BKN025 TX18/0414Z TN11/0407Z"
    },
    {
      "icao": "LEVC",
      "alert": "OK",
      "vis_m": 4000,
      "fzfg": false,
      "metar_trigger": false,
      "taf_trigger": false,
      "metar": "METAR LEVC 040730Z 04010KT 360V060 4000 -DZ SCT006 BKN009 11/10 Q1005 NOSIG",
      "taf": "TAF LEVC 040500Z 0406/0506 03009KT 9999 SCT020 TX12/0414Z TN04/0506Z"
    },
    {
      "icao": "LEXJ",
      "alert": "OK",
      "vis_m": 9999,
      "fzfg": false,
      "metar_trigger": false,
      "taf_trigger": false,
      "metar": "METAR LEXJ 040700Z 18003KT 9999 BKN052 03/01 Q1013",
      "taf": "TAF LEXJ 040200Z 0403/0503 12009KT 9000 SCT025 BKN035 TX08/0415Z TN02/0408Z"
    },
    {
      "icao": "LEZG",
      "alert": "OK",
      "vis_m": 7000,
      "fzfg": false,
      "metar_trigger": false,
      "taf_trigger": false,
      "metar": "METAR LEZG 040730Z 29015KT 260V330 7000 FEW050 BKN060 05/01 Q1007 NOSIG",
      "taf": "TAF LEZG 040500Z 0406/0506 31012KT 9999 BKN050 TX06/0415Z TNM00/0506Z"
    },
    {
      "icao": "LEZL",
      "alert": "OK",
      "vis_m": 8000,
      "fzfg": false,
      "metar_trigger": false,
      "taf_trigger": false,
      "metar": "METAR LEZL 040730Z 07012KT 8000 -RA NSC 13/12 Q0998 NOSIG",
      "taf": "TAF LEZL 040200Z 0403/0503 08010KT 9999 SCT030 TX16/0415Z TN09/0407Z"
    },
    {
      "icao": "LFBD",
      "alert": "OK",
      "vis_m": 9999,
      "fzfg": false,
      "metar_trigger": false,
      "taf_trigger": false,
      "metar": "METAR LFBD 040730Z AUTO 03007KT CAVOK M03/M04 Q1015 NOSIG",
      "taf": "TAF LFBD 040500Z 0406/0512 03005KT CAVOK TX03/0414Z TNM05/0507Z"
    },
    {
      "icao": "LFLL",
      "alert": "OK",
      "vis_m": 9999,
      "fzfg": false,
      "metar_trigger": false,
      "taf_trigger": false,
      "metar": "METAR LFLL 040730Z 35010KT CAVOK M04/M05 Q1012 NOSIG",
      "taf": "TAF LFLL 040500Z 0406/0512 35010KT CAVOK"
    },
    {
      "icao": "LFLS",
      "alert": "OK",
      "vis_m": 9999,
      "fzfg": false,
      "metar_trigger": false,
      "taf_trigger": false,
      "metar": "METAR LFLS 040730Z AUTO 36010KT CAVOK M04/M06 Q1010 TEMPO BKN008",
      "taf": "TAF LFLS 040200Z 0403/0503 02004KT 9999 SCT008"
    },
    {
      "icao": "LFMN",
      "alert": "OK",
      "vis_m": 9999,
      "fzfg": false,
      "metar_trigger": false,
      "taf_trigger": false,
      "metar": "METAR LFMN 040730Z 33014KT 9999 SCT040 05/M03 Q1004 NOSIG",
      "taf": "TAF LFMN 040200Z 0403/0509 33010KT 9999 FEW030 BKN200"
    },
    {
      "icao": "LFOB",
      "alert": "OK",
      "vis_m": 9999,
      "fzfg": false,
      "metar_trigger": false,
      "taf_trigger": false,
      "metar": "METAR LFOB 040730Z AUTO 28003KT CAVOK M05/M05 Q1014 NOSIG",
      "taf": "TAF LFOB 040500Z 0406/0506 26005KT CAVOK"
    },
    {
      "icao": "LFPO",
      "alert": "OK",
      "vis_m": 9999,
      "fzfg": false,
      "metar_trigger": false,
      "taf_trigger": false,
      "metar": "METAR LFPO 040730Z AUTO 27007KT 9999 FEW034 M04/M05 Q1014 NOSIG",
      "taf": "TAF LFPO 040500Z 0406/0512 26003KT 9999 SCT020"
    },
    {
      "icao": "LFSB",
      "alert": "OK",
      "vis_m": 9999,
      "fzfg": false,
      "metar_trigger": false,
      "taf_trigger": false,
      "metar": "METAR LFSB 040730Z AUTO 10004KT 9999 OVC037 M03/M06 Q1014 TEMPO BKN013",
      "taf": "TAF LFSB 040500Z 0406/0506 VRB04KT 9999 SCT035"
    },
    {
      "icao": "LGAV",
      "alert": "OK",
      "vis_m": 9999,
      "fzfg": false,
      "metar_trigger": false,
      "taf_trigger": false,
      "metar": "METAR LGAV 040720Z 22016KT 9999 FEW025 SCT070 17/10 Q1019 NOSIG",
      "taf": "TAF LGAV 040500Z 0406/0506 20015KT 9999 FEW025 SCT060"
    },
    {
      "icao": "LGTS",
      "alert": "OK",
      "vis_m": 9999,
      "fzfg": false,
      "metar_trigger": false,
      "taf_trigger": false,
      "metar": "METAR LGTS 040720Z 14011KT 9999 FEW025 14/09 Q1012 NOSIG",
      "taf": "TAF LGTS 040500Z 0406/0506 15011KT 9999 SCT030"
    },
    {
      "icao": "LHBP",
      "alert": "OK",
      "vis_m": 9999,
      "fzfg": false,
      "metar_trigger": false,
      "taf_trigger": false,
      "metar": "METAR LHBP 040730Z 32005KT CAVOK M01/M02 Q1011 NOSIG",
      "taf": "TAF LHBP 040515Z 0406/0506 30004KT CAVOK"
    },
    {
      "icao": "LHDC",
      "alert": "OK",
      "vis_m": 9999,
      "fzfg": false,
      "metar_trigger": false,
      "taf_trigger": false,
      "metar": "METAR LHDC 040715Z AUTO 08004KT 050V110 CAVOK M02/M03 Q1009 NOSIG",
      "taf": "TAF LHDC 040515Z 0406/0415 36007KT 6000 -SN SCT040 BKN080"
    },
    {
      "icao": "LIBD",
      "alert": "OK",
      "vis_m": 9999,
      "fzfg": false,
      "metar_trigger": false,
      "taf_trigger": false,
      "metar": "METAR LIBD 040720Z 19007KT CAVOK 14/09 Q1007",
      "taf": "TAF LIBD 040500Z 0406/0506 19010KT 9999 FEW040"
    },
    {
      "icao": "LIBG",
      "alert": "OK",
      "vis_m": 9000,
      "fzfg": false,
      "metar_trigger": false,
      "taf_trigger": false,
      "metar": "SPECI LIBG 040656Z VRB02KT 9000 FEW040 12/12 Q1008",
      "taf": "TAF LIBG 040708Z 0408/0415 VRB05KT 9999 FEW040"
    },
    {
      "icao": "LIBP",
      "alert": "OK",
      "vis_m": 3100,
      "fzfg": false,
      "metar_trigger": false,
      "taf_trigger": false,
      "metar": "METAR LIBP 040720Z AUTO VRB02KT 3100 -RA BR OVC007/// 10/10 Q1005",
      "taf": "TAF LIBP 040500Z 0406/0506 VRB05KT 9999 SCT070"
    },
    {
      "icao": "LIBR",
      "alert": "OK",
      "vis_m": 9999,
      "fzfg": false,
      "metar_trigger": false,
      "taf_trigger": false,
      "metar": "METAR LIBR 040720Z 19013KT CAVOK 14/13 Q1008",
      "taf": "TAF LIBR 040500Z 0406/0506 19012KT 9999 FEW030"
    },
    {
      "icao": "LICA",
      "alert": "OK",
      "vis_m": 9999,
      "fzfg": false,
      "metar_trigger": false,
      "taf_trigger": false,
      "metar": "METAR LICA 040720Z AUTO 08008KT 9999 NCD 10/08 Q1009",
      "taf": "TAF LICA 040500Z 0406/0506 08010KT 9999 FEW050"
    },
    {
      "icao": "LICC",
      "alert": "OK",
      "vis_m": 9999,
      "fzfg": false,
      "metar_trigger": false,
      "taf_trigger": false,
      "metar": "METAR LICC 040720Z 22005KT CAVOK 11/08 Q1010",
      "taf": "TAF LICC 040500Z 0406/0506 26008KT 9999 SCT030"
    },
    {
      "icao": "LICJ",
      "alert": "OK",
      "vis_m": 9999,
      "fzfg": false,
      "metar_trigger": false,
      "taf_trigger": false,
      "metar": "METAR LICJ 040720Z AUTO 19020G32KT 9999 NCD 17/07 Q1006",
      "taf": "TAF LICJ 040500Z 0406/0506 19020G40KT CAVOK"
    },
    {
      "icao": "LIMC",
      "alert": "OK",
      "vis_m": 200,
      "fzfg": true,
      "metar_trigger": false,
      "taf_trigger": false,
      "metar": "METAR LIMC 040720Z VRB02KT 0200 R35R/1500D R17L/0400N R35L/0375N FZFG OVC001 M04/M05 Q1008 NOSIG",
      "taf": "TAF LIMC 040500Z 0406/0512 VRB04KT 4000 BR BKN001"
    },
    {
      "icao": "LIME",
      "alert": "OK",
      "vis_m": 9999,
      "fzfg": false,
      "metar_trigger": false,
      "taf_trigger": false,
      "metar": "METAR LIME 040720Z VRB01KT CAVOK M02/M04 Q1007 NOSIG",
      "taf": "TAF LIME 040500Z 0406/0506 VRB04KT 4000 BR BKN003"
    },
    {
      "icao": "LIMF",
      "alert": "OK",
      "vis_m": 9999,
      "fzfg": false,
      "metar_trigger": false,
      "taf_trigger": false,
      "metar": "METAR LIMF 040720Z 19003KT CAVOK M04/M07 Q1007",
      "taf": "TAF LIMF 040500Z 0406/0506 VRB04KT 4000 BR BKN003"
    },
    {
      "icao": "LIMJ",
      "alert": "OK",
      "vis_m": 9999,
      "fzfg": false,
      "metar_trigger": false,
      "taf_trigger": false,
      "metar": "METAR LIMJ 040720Z 03015KT 9999 BKN055 04/M02 Q1005",
      "taf": "TAF LIMJ 040500Z 0406/0506 03015KT 9999 FEW030"
    },
    {
      "icao": "LIPE",
      "alert": "OK",
      "vis_m": 1800,
      "fzfg": false,
      "metar_trigger": false,
      "taf_trigger": false,
      "metar": "METAR LIPE 040720Z 26006KT 1800 BR BKN004 01/01 Q1008",
      "taf": "TAF LIPE 040500Z 0406/0506 28005KT 1500 BR BKN005"
    },
    {
      "icao": "LIPH",
      "alert": "OK",
      "vis_m": 9999,
      "fzfg": false,
      "metar_trigger": false,
      "taf_trigger": false,
      "metar": "METAR LIPH 040720Z 35005KT CAVOK 01/M04 Q1008",
      "taf": "TAF LIPH 040500Z 0406/0506 VRB05KT 9999 FEW040"
    },
    {
      "icao": "LIPQ",
      "alert": "OK",
      "vis_m": 9999,
      "fzfg": false,
      "metar_trigger": false,
      "taf_trigger": false,
      "metar": "METAR LIPQ 040720Z AUTO 08005KT 020V110 9999 FEW065/// SCT093/// 05/M03 Q1008",
      "taf": "TAF LIPQ 040500Z 0406/0506 VRB05KT 9999 SCT030"
    },
    {
      "icao": "LIPR",
      "alert": "OK",
      "vis_m": 800,
      "fzfg": false,
      "metar_trigger": false,
      "taf_trigger": false,
      "metar": "METAR LIPR 040720Z 30010KT 0800 R30/1500U FG BKN002 01/01 Q1007",
      "taf": "TAF LIPR 040500Z 0406/0506 30010KT 2000 BR BKN002"
    },
    {
      "icao": "LIPX",
      "alert": "CRITICAL",
      "vis_m": 100,
      "fzfg": true,
      "metar_trigger": true,
      "taf_trigger": false,
      "metar": "METAR LIPX 040720Z VRB02KT 0100 R04/0275N FZFG VV001 M01/M01 Q1008",
      "taf": "TAF LIPX 040500Z 0406/0506 VRB04KT 4000 BR BKN003"
    },
    {
      "icao": "LIPY",
      "alert": "OK",
      "vis_m": 5000,
      "fzfg": false,
      "metar_trigger": false,
      "taf_trigger": false,
      "metar": "METAR LIPY 040720Z AUTO 33012KT 5000 RA BKN004/// BKN027/// BKN055/// 05/04 Q1006",
      "taf": "TAF LIPY 040500Z 0406/0506 30010KT 4000 RA BKN010"
    },
    {
      "icao": "LIPZ",
      "alert": "OK",
      "vis_m": 9999,
      "fzfg": false,
      "metar_trigger": false,
      "taf_trigger": false,
      "metar": "METAR LIPZ 040720Z 01007KT CAVOK 02/M03 Q1007 NOSIG",
      "taf": "TAF LIPZ 040500Z 0406/0512 VRB05KT 9999 SCT060"
    },
    {
      "icao": "LIRF",
      "alert": "OK",
      "vis_m": 2000,
      "fzfg": false,
      "metar_trigger": false,
      "taf_trigger": false,
      "metar": "METAR LIRF 040720Z VRB02KT 2000 DZ BR BKN015 12/12 Q1004 NOSIG",
      "taf": "TAF LIRF 040500Z 0406/0512 VRB05KT 9999 SCT020 SCT030"
    },
    {
      "icao": "LIRN",
      "alert": "OK",
      "vis_m": 9999,
      "fzfg": false,
      "metar_trigger": false,
      "taf_trigger": false,
      "metar": "METAR LIRN 040720Z 18007KT 140V230 9999 BKN020 16/13 Q1006 NOSIG",
      "taf": "TAF LIRN 040500Z 0406/0506 19014KT 9999 SCT030"
    },
    {
      "icao": "LIRP",
      "alert": "OK",
      "vis_m": 9999,
      "fzfg": false,
      "metar_trigger": false,
      "taf_trigger": false,
      "metar": "METAR LIRP 040715Z 15003KT 9999 SCT030 05/05 Q1003 NOSIG",
      "taf": "TAF LIRP 040500Z 0406/0506 11005KT 9999 FEW020 SCT040"
    },
    {
      "icao": "LIRZ",
      "alert": "OK",
      "vis_m": 5000,
      "fzfg": false,
      "metar_trigger": false,
      "taf_trigger": false,
      "metar": "METAR LIRZ 040720Z AUTO 33005KT 300V360 5000 RA OVC012/// 08/08 Q1004",
      "taf": "TAF LIRZ 040500Z 0406/0506 19008KT 6000 RA BKN020"
    },
    {
      "icao": "LJLJ",
      "alert": "OK",
      "vis_m": 6000,
      "fzfg": false,
      "metar_trigger": false,
      "taf_trigger": false,
      "metar": "METAR LJLJ 040730Z VRB01KT 6000 -SN SCT010 OVC065 M01/M01 Q1010 NOSIG",
      "taf": "TAF LJLJ 040500Z 0406/0506 VRB02KT 7000 FEW005 SCT020 OVC050"
    },
    {
      "icao": "LKMT",
      "alert": "OK",
      "vis_m": 9999,
      "fzfg": false,
      "metar_trigger": false,
      "taf_trigger": false,
      "metar": "METAR LKMT 040730Z 20009KT 9999 FEW034 M03/M08 Q1008 NOSIG",
      "taf": "TAF LKMT 040500Z 0406/0506 21010KT CAVOK"
    },
    {
      "icao": "LKPR",
      "alert": "OK",
      "vis_m": 9999,
      "fzfg": false,
      "metar_trigger": false,
      "taf_trigger": false,
      "metar": "METAR LKPR 040730Z 21019KT 9999 FEW028 SCT048 M03/M06 Q1006 NOSIG",
      "taf": "TAF LKPR 040500Z 0406/0512 22016KT 9999 SCT025"
    },
    {
      "icao": "LLBG",
      "alert": "OK",
      "vis_m": 9999,
      "fzfg": false,
      "metar_trigger": false,
      "taf_trigger": false,
      "metar": "METAR LLBG 040720Z 08005KT 050V120 CAVOK 17/05 Q1025 NOSIG RMK FCST 1000FT-WIND 120/25KT",
      "taf": "TAF LLBG 040503Z 0406/0506 04006KT CAVOK"
    },
    {
      "icao": "LMML",
      "alert": "OK",
      "vis_m": 9999,
      "fzfg": false,
      "metar_trigger": false,
      "taf_trigger": false,
      "metar": "METAR LMML 040715Z 18011KT CAVOK 17/14 Q1011 NOSIG",
      "taf": "TAF LMML 040500Z 0406/0506 19013KT 9999 FEW015"
    },
    {
      "icao": "LOWW",
      "alert": "OK",
      "vis_m": 9999,
      "fzfg": false,
      "metar_trigger": false,
      "taf_trigger": false,
      "metar": "METAR LOWW 040720Z 28009KT 250V320 CAVOK M01/M08 Q1011 NOSIG",
      "taf": "TAF LOWW 040515Z 0406/0512 30012KT CAVOK TX01/0412Z TNM07/0506Z"
    },
    {
      "icao": "LPFR",
      "alert": "OK",
      "vis_m": 9999,
      "fzfg": false,
      "metar_trigger": false,
      "taf_trigger": false,
      "metar": "METAR LPFR 040730Z 03014KT 9999 FEW012 BKN016 14/12 Q0996",
      "taf": "TAF LPFR 040500Z 0406/0506 04015KT 9999 SCT012 BKN025"
    },
    {
      "icao": "LPMA",
      "alert": "OK",
      "vis_m": 9999,
      "fzfg": false,
      "metar_trigger": false,
      "taf_trigger": false,
      "metar": "METAR LPMA 040730Z 30005KT 250V350 9999 -SHRA BKN015 17/12 Q1006",
      "taf": "TAF LPMA 040500Z 0406/0506 31010KT 9999 SCT015"
    },
    {
      "icao": "LPPR",
      "alert": "OK",
      "vis_m": 9999,
      "fzfg": false,
      "metar_trigger": false,
      "taf_trigger": false,
      "metar": "METAR LPPR 040730Z 07003KT CAVOK 12/09 Q1002",
      "taf": "TAF LPPR 040500Z 0406/0506 08007KT CAVOK"
    },
    {
      "icao": "LPPS",
      "alert": "OK",
      "vis_m": 9999,
      "fzfg": false,
      "metar_trigger": false,
      "taf_trigger": false,
      "metar": "METAR LPPS 040730Z 32013KT 9999 FEW012 FEW015TCU 16/14 Q1006",
      "taf": "TAF LPPS 040500Z 0406/0512 32015KT 9999 SCT015"
    },
    {
      "icao": "LPPT",
      "alert": "OK",
      "vis_m": 9999,
      "fzfg": false,
      "metar_trigger": false,
      "taf_trigger": false,
      "metar": "METAR LPPT 040730Z 36007KT 9999 FEW044 12/10 Q1000",
      "taf": "TAF LPPT 040500Z 0406/0512 04012KT 9999 SCT015 BKN030"
    },
    {
      "icao": "LQBK",
      "alert": "OK",
      "vis_m": 1300,
      "fzfg": false,
      "metar_trigger": false,
      "taf_trigger": false,
      "metar": "METAR LQBK 040730Z 30005KT 1300 R16/1400D SN BR BKN005 OVC015 00/00 Q1011 NOSIG",
      "taf": "TAF LQBK 040500Z 0406/0506 34005KT 8000 -SN BKN010 OVC020 TX01/0412Z TNM01/0505Z"
    },
    {
      "icao": "LQSA",
      "alert": "OK",
      "vis_m": 2500,
      "fzfg": false,
      "metar_trigger": false,
      "taf_trigger": false,
      "metar": "METAR LQSA 040730Z VRB03KT 2500 RA BR FEW004 SCT010 BKN030 02/02 Q1006 NOSIG",
      "taf": "TAF LQSA 040500Z 0406/0506 30008KT 3000 RA BR SCT008 BKN030 TX02/0408Z TNM02/0501Z"
    },
    {
      "icao": "LQTZ",
      "alert": "OK",
      "vis_m": 500,
      "fzfg": false,
      "metar_trigger": false,
      "taf_trigger": false,
      "metar": "METAR LQTZ 040730Z 28007KT 0500 R09/0650N +SN BKN002 OVC006 00/00 Q1010",
      "taf": "TAF LQTZ 040500Z 0406/0506 27006KT 6000 SN BKN007 OVC017 TX00/0413Z TNM02/0505Z"
    },
    {
      "icao": "LRBC",
      "alert": "OK",
      "vis_m": 5000,
      "fzfg": false,
      "metar_trigger": false,
      "taf_trigger": false,
      "metar": "METAR LRBC 040730Z 15015KT 5000 -SN BR BKN003 OVC019 00/M01 Q1009",
      "taf": "TAF LRBC 040500Z 0406/0415 16016KT 9999 SCT035"
    },
    {
      "icao": "LRBS",
      "alert": "OK",
      "vis_m": 6000,
      "fzfg": false,
      "metar_trigger": false,
      "taf_trigger": false,
      "metar": "METAR LRBS 040730Z 03009KT 6000 -RA OVC004 01/01 Q1009 NOSIG",
      "taf": "TAF LRBS 040500Z 0406/0506 VRB04KT 3000 -RA BR OVC002"
    },
    {
      "icao": "LRBV",
      "alert": "OK",
      "vis_m": 9999,
      "fzfg": false,
      "metar_trigger": false,
      "taf_trigger": false,
      "metar": "METAR LRBV 040730Z VRB01KT 9999 SCT062 BKN076 M00/M02 Q1006",
      "taf": "TAF LRBV 040500Z 0406/0415 10006KT 9999 BKN030"
    },
    {
      "icao": "LRCL",
      "alert": "OK",
      "vis_m": 2000,
      "fzfg": false,
      "metar_trigger": false,
      "taf_trigger": false,
      "metar": "METAR LRCL 040730Z 12002KT 2000 -SN BR OVC025 M05/M06 Q1008",
      "taf": "TAF LRCL 040500Z 0406/0415 VRB04KT 9999 SCT005 BKN025"
    },
    {
      "icao": "LRCV",
      "alert": "OK",
      "vis_m": 4000,
      "fzfg": false,
      "metar_trigger": false,
      "taf_trigger": false,
      "metar": "METAR LRCV 040730Z 07007KT 4000 -RA BR FEW004 BKN020 OVC032 01/01 Q1009",
      "taf": "TAF LRCV 040500Z 0406/0415 06008KT 5000 -RA BR BKN005 OVC025"
    },
    {
      "icao": "LRIA",
      "alert": "OK",
      "vis_m": 9999,
      "fzfg": false,
      "metar_trigger": false,
      "taf_trigger": false,
      "metar": "METAR LRIA 040730Z 16009KT 120V190 9999 BKN041 OVC046 02/M03 Q1010",
      "taf": "TAF LRIA 040500Z 0406/0415 16010KT CAVOK"
    },
    {
      "icao": "LROP",
      "alert": "OK",
      "vis_m": 8000,
      "fzfg": false,
      "metar_trigger": false,
      "taf_trigger": false,
      "metar": "METAR LROP 040730Z 04011KT 8000 -RA OVC004 01/01 Q1009 NOSIG",
      "taf": "TAF LROP 040500Z 0406/0506 VRB04KT 3000 -RA BR OVC002"
    },
    {
      "icao": "LRSB",
      "alert": "OK",
      "vis_m": 9000,
      "fzfg": false,
      "metar_trigger": false,
      "taf_trigger": false,
      "metar": "METAR LRSB 040730Z 31005KT 9000 -SN FEW043 BKN050 M02/M03 Q1006",
      "taf": "TAF LRSB 040500Z 0406/0506 VRB03KT 9999 SCT045"
    },
    {
      "icao": "LRSM",
      "alert": "OK",
      "vis_m": 9999,
      "fzfg": false,
      "metar_trigger": false,
      "taf_trigger": false,
      "metar": "METAR LRSM 040730Z 17002KT CAVOK M02/M04 Q1008",
      "taf": "TAF LRSM 040500Z 0406/0415 VRB04KT CAVOK"
    },
    {
      "icao": "LRSV",
      "alert": "OK",
      "vis_m": 9999,
      "fzfg": false,
      "metar_trigger": false,
      "taf_trigger": false,
      "metar": "METAR LRSV 040730Z 18014KT CAVOK M01/M04 Q1006",
      "taf": "TAF LRSV 040500Z 0406/0415 16006KT CAVOK"
    },
    {
      "icao": "LRTM",
      "alert": "OK",
      "vis_m": 9999,
      "fzfg": false,
      "metar_trigger": false,
      "taf_trigger": false,
      "metar": "METAR LRTM 040730Z 30003KT 260V320 9999 -SN FEW014 SCT030 OVC038 M04/M06 Q1008",
      "taf": "TAF LRTM 040500Z 0406/0415 VRB04KT 9999 BKN040"
    },
    {
      "icao": "LRTR",
      "alert": "OK",
      "vis_m": 9999,
      "fzfg": false,
      "metar_trigger": false,
      "taf_trigger": false,
      "metar": "METAR LRTR 040730Z 02006KT 9999 -SN OVC024 M00/M02 Q1008",
      "taf": "TAF LRTR 040500Z 0406/0506 36011KT 5000 -SN BR OVC025"
    },
    {
      "icao": "LTAC",
      "alert": "OK",
      "vis_m": 4200,
      "fzfg": false,
      "metar_trigger": false,
      "taf_trigger": false,
      "metar": "METAR LTAC 040720Z VRB01KT 4200 BR SCT033 BKN100 01/M03 Q1024 BECMG 6000 RMK RWY21C 11003KT 060V140 RWY03L VRB02KT RWY21R 09003KT 050V120 RWY03R VRB01KT RWY21L 08004KT 040V110",
      "taf": "TAF LTAC 040440Z 0406/0506 VRB02KT 9999 SCT035 SCT100"
    },
    {
      "icao": "LTFM",
      "alert": "OK",
      "vis_m": 9999,
      "fzfg": false,
      "metar_trigger": false,
      "taf_trigger": false,
      "metar": "METAR LTFM 040720Z 21025G36KT CAVOK 15/09 Q1014 NOSIG RMK RWY17L 21028KT RWY34L 20025G35KT RWY16R 21026G36KT RWY36 21027KT RWY18 22031KT",
      "taf": "TAF LTFM 040440Z 0406/0512 21030G45KT CAVOK"
    },
    {
      "icao": "LUKK",
      "alert": "OK",
      "vis_m": 9999,
      "fzfg": false,
      "metar_trigger": false,
      "taf_trigger": false,
      "metar": "METAR LUKK 040730Z 12005KT CAVOK M01/M02 Q1011 TEMPO 5000 SNRA BKN006",
      "taf": "TAF LUKK 040523Z 0406/0506 VRB06KT CAVOK"
    },
    {
      "icao": "LWOH",
      "alert": "OK",
      "vis_m": 9999,
      "fzfg": false,
      "metar_trigger": false,
      "taf_trigger": false,
      "metar": "METAR LWOH 040720Z 16006KT 9999 BKN037 11/07 Q1010",
      "taf": "TAF LWOH 040530Z 0406/0506 15010KT 9999 BKN040 BKN070"
    },
    {
      "icao": "LWSK",
      "alert": "OK",
      "vis_m": 9999,
      "fzfg": false,
      "metar_trigger": false,
      "taf_trigger": false,
      "metar": "METAR LWSK 040720Z 09004KT 040V170 9999 FEW055 BKN075 13/07 Q1008 REDZ NOSIG",
      "taf": "TAF LWSK 040530Z 0406/0506 VRB02KT 9999 SCT040 BKN070"
    },
    {
      "icao": "LYBE",
      "alert": "OK",
      "vis_m": 4000,
      "fzfg": false,
      "metar_trigger": false,
      "taf_trigger": false,
      "metar": "METAR LYBE 040730Z COR 32009KT 4000 SNRA BR BKN003 01/00 Q1008 BECMG 1000 SN BKN001",
      "taf": "TAF LYBE 040500Z 0406/0506 34010KT 6000 BKN005 BKN025 TX02/0406Z TNM01/0423Z"
    },
    {
      "icao": "LYNI",
      "alert": "OK",
      "vis_m": 9999,
      "fzfg": false,
      "metar_trigger": false,
      "taf_trigger": false,
      "metar": "METAR LYNI 040730Z 00000KT 9999 FEW033 BKN050 03/02 Q1007 NOSIG",
      "taf": "TAF LYNI 040500Z 0406/0506 23005KT 8000 SCT050 BKN070 TX13/0411Z TNM01/0423Z"
    },
    {
      "icao": "LYPG",
      "alert": "OK",
      "vis_m": 8000,
      "fzfg": false,
      "metar_trigger": false,
      "taf_trigger": false,
      "metar": "METAR LYPG 040730Z 17010KT 140V210 8000 -RA FEW016 BKN040 OVC070 13/11 Q1008 NOSIG",
      "taf": "TAF LYPG 040500Z 0406/0506 14008KT 6000 RA FEW020 SCT040 OVC070 TX15/0413Z TN12/0506Z"
    },
    {
      "icao": "LZIB",
      "alert": "OK",
      "vis_m": 9999,
      "fzfg": false,
      "metar_trigger": false,
      "taf_trigger": false,
      "metar": "METAR LZIB 040730Z 23005KT 180V260 9999 FEW028 M01/M08 Q1011 NOSIG",
      "taf": "TAF LZIB 040515Z 0406/0506 28012KT CAVOK"
    },
    {
      "icao": "LZKZ",
      "alert": "OK",
      "vis_m": 9999,
      "fzfg": false,
      "metar_trigger": false,
      "taf_trigger": false,
      "metar": "METAR LZKZ 040730Z 24005KT 9999 BKN024 M02/M04 Q1008 NOSIG",
      "taf": "TAF LZKZ 040515Z 0406/0506 24005KT 9999 FEW020"
    },
    {
      "icao": "LZTT",
      "alert": "OK",
      "vis_m": 9999,
      "fzfg": false,
      "metar_trigger": false,
      "taf_trigger": false,
      "metar": "METAR LZTT 040730Z 30007KT 270V330 9999 FEW050 M05/M10 Q1005 NOSIG",
      "taf": "TAF LZTT 040515Z 0406/0506 26012KT CAVOK"
    },
    {
      "icao": "OEJN",
      "alert": "OK",
      "vis_m": 8000,
      "fzfg": false,
      "metar_trigger": false,
      "taf_trigger": false,
      "metar": "METAR OEJN 040700Z 07005KT 8000 NSC 28/01 Q1016 NOSIG",
      "taf": "TAF OEJN 040500Z 0406/0512 27010KT 7000 NSC"
    },
    {
      "icao": "OEMA",
      "alert": "OK",
      "vis_m": 9999,
      "fzfg": false,
      "metar_trigger": false,
      "taf_trigger": false,
      "metar": "METAR OEMA 040700Z 05012KT CAVOK 17/02 Q1027 NOSIG",
      "taf": "TAF OEMA 040500Z 0406/0512 09018KT 7000 NSC"
    },
    {
      "icao": "OJAI",
      "alert": "OK",
      "vis_m": 5000,
      "fzfg": false,
      "metar_trigger": false,
      "taf_trigger": false,
      "metar": "METAR OJAI 040700Z 09010KT 5000 HZ NSC 06/02 Q1029 NOSIG",
      "taf": "TAF OJAI 040500Z 0406/0512 13012KT 4000 BR NSC"
    },
    {
      "icao": "OMAA",
      "alert": "OK",
      "vis_m": 9999,
      "fzfg": false,
      "metar_trigger": false,
      "taf_trigger": false,
      "metar": "METAR OMAA 040700Z 24005KT 210V280 9999 FEW025 23/18 Q1020 NOSIG",
      "taf": "TAF OMAA 040500Z 0406/0512 31012KT 8000 NSC"
    },
    {
      "icao": "OMDB",
      "alert": "OK",
      "vis_m": 9999,
      "fzfg": false,
      "metar_trigger": false,
      "taf_trigger": false,
      "metar": "METAR OMDB 040730Z 18007KT 070V220 CAVOK 24/18 Q1020 BECMG 28010KT",
      "taf": "TAF OMDB 040500Z 0406/0512 23005KT 7000 NSC"
    },
    {
      "icao": "UAAA",
      "alert": "OK",
      "vis_m": 9999,
      "fzfg": false,
      "metar_trigger": false,
      "taf_trigger": false,
      "metar": "METAR UAAA 040700Z 32004MPS 280V340 9999 FEW200 06/M01 Q1028 NOSIG",
      "taf": "TAF UAAA 040501Z 0406/0506 26003G08MPS 9999 SCT050 BKN100 TX07/0409Z TNM03/0502Z"
    },
    {
      "icao": "UBBB",
      "alert": "OK",
      "vis_m": 9999,
      "fzfg": false,
      "metar_trigger": false,
      "taf_trigger": false,
      "metar": "METAR UBBB 040730Z 19012KT CAVOK 07/M03 Q1022 NOSIG",
      "taf": "TAF UBBB 040502Z 0406/0506 19018G28KT CAVOK TX08/0409Z TN03/0501Z"
    },
    {
      "icao": "UDSG",
      "alert": "OK",
      "vis_m": 9000,
      "fzfg": false,
      "metar_trigger": false,
      "taf_trigger": false,
      "metar": "METAR UDSG 040700Z 06001KT 9000 NSC M17/M19 Q1031 NOSIG",
      "taf": "TAF UDSG 040458Z 0406/0506 VRB06KT 9999 FEW040"
    },
    {
      "icao": "UDYZ",
      "alert": "OK",
      "vis_m": 7000,
      "fzfg": false,
      "metar_trigger": false,
      "taf_trigger": false,
      "metar": "METAR UDYZ 040700Z 26001KT 7000 NSC M10/M14 Q1035 NOSIG",
      "taf": "TAF UDYZ 040500Z 0406/0506 VRB06KT 9999 FEW040"
    },
    {
      "icao": "UGKO",
      "alert": "OK",
      "vis_m": 9999,
      "fzfg": false,
      "metar_trigger": false,
      "taf_trigger": false,
      "metar": "METAR UGKO 040700Z 09010KT 9999 SCT083 05/M05 Q1026 NOSIG",
      "taf": "TAF UGKO 040500Z 0406/0506 09010KT CAVOK TX08/0412Z TN03/0502Z"
    }
  ]
}