{
  "ts_utc": "2026-02-12T13:39:05Z",
  "threshold_m": 150,
  "source": "stations_override.txt (ICAO list) + aviationweather.gov (METAR/TAF raw)",
  "station_count": 159,
  "stations": [
    {
      "icao": "BIKF",
      "alert": "OK",
      "vis_m": 9999,
      "fzfg": false,
      "metar_trigger": false,
      "taf_trigger": false,
      "metar": "METAR BIKF 121330Z 01013KT CAVOK M03/M11 Q1006",
      "taf": "TAF BIKF 121333Z 1215/1315 02010KT CAVOK TXM03/1215Z TNM07/1309Z"
    },
    {
      "icao": "BKPR",
      "alert": "OK",
      "vis_m": 9999,
      "fzfg": false,
      "metar_trigger": false,
      "taf_trigger": false,
      "metar": "METAR BKPR 121330Z 22010KT 9999 FEW035 11/05 Q0990 NOSIG",
      "taf": "TAF BKPR 121130Z 1212/1312 18008KT 9999 BKN030"
    },
    {
      "icao": "EBCI",
      "alert": "OK",
      "vis_m": 8000,
      "fzfg": false,
      "metar_trigger": false,
      "taf_trigger": false,
      "metar": "METAR EBCI 121320Z 27010KT 240V310 8000 -SHRA SCT014 BKN022 07/05 Q0984 NOSIG",
      "taf": "TAF EBCI 121115Z 1212/1318 28009KT 9999 SCT012 BKN016"
    },
    {
      "icao": "EDDB",
      "alert": "OK",
      "vis_m": 9999,
      "fzfg": false,
      "metar_trigger": false,
      "taf_trigger": false,
      "metar": "METAR EDDB 121320Z AUTO 14005KT 9999 -RA BKN023 09/07 Q0978 NOSIG",
      "taf": "TAF EDDB 121100Z 1212/1312 15007KT 9999 BKN030"
    },
    {
      "icao": "EDDH",
      "alert": "OK",
      "vis_m": 9999,
      "fzfg": false,
      "metar_trigger": false,
      "taf_trigger": false,
      "metar": "METAR EDDH 121320Z AUTO 04008KT 010V070 9999 -RA OVC005 02/01 Q0979 TEMPO 4500 RA OVC004",
      "taf": "TAF EDDH 121100Z 1212/1318 07008KT 7000 OVC004"
    },
    {
      "icao": "EDDK",
      "alert": "OK",
      "vis_m": 9999,
      "fzfg": false,
      "metar_trigger": false,
      "taf_trigger": false,
      "metar": "METAR EDDK 121320Z AUTO 29013KT 9999 BKN016 BKN028 OVC048 09/07 Q0982 RESHRA TEMPO 4000 SHRA BKN013TCU",
      "taf": "TAF EDDK 121100Z 1212/1318 28008KT 9999 BKN015"
    },
    {
      "icao": "EDDN",
      "alert": "OK",
      "vis_m": 9999,
      "fzfg": false,
      "metar_trigger": false,
      "taf_trigger": false,
      "metar": "METAR EDDN 121320Z AUTO 19011KT 9999 FEW011 BKN019 OVC036 09/07 Q0980 BECMG 23020G35KT RA",
      "taf": "TAF EDDN 121100Z 1212/1312 21010KT 9999 BKN025"
    },
    {
      "icao": "EDDS",
      "alert": "OK",
      "vis_m": 9999,
      "fzfg": false,
      "metar_trigger": false,
      "taf_trigger": false,
      "metar": "METAR EDDS 121320Z AUTO 26020G32KT 230V290 9999 -SHRA BKN022 BKN028 SCT///TCU 08/05 Q0983 RESHRA TEMPO SHRA",
      "taf": "TAF EDDS 121100Z 1212/1312 22012KT 9999 SCT035"
    },
    {
      "icao": "EDFH",
      "alert": "OK",
      "vis_m": 9999,
      "fzfg": false,
      "metar_trigger": false,
      "taf_trigger": false,
      "metar": "METAR EDFH 121320Z 29017KT 9999 -RA SCT004 BKN010 OVC015 06/05 Q0982",
      "taf": "TAF EDFH 121100Z 1212/1312 28015KT 9999 BKN015"
    },
    {
      "icao": "EDJA",
      "alert": "OK",
      "vis_m": 9999,
      "fzfg": false,
      "metar_trigger": false,
      "taf_trigger": false,
      "metar": "METAR EDJA 121320Z 23025G36KT 9999 -RA BKN012 OVC020 05/03 Q0985",
      "taf": ""
    },
    {
      "icao": "EDLW",
      "alert": "OK",
      "vis_m": 5000,
      "fzfg": false,
      "metar_trigger": false,
      "taf_trigger": false,
      "metar": "METAR EDLW 121320Z 28010KT 250V310 5000 BKN005 BKN008 OVC018 08/07 Q0979",
      "taf": "TAF EDLW 121100Z 1212/1312 27006KT 6000 BKN010"
    },
    {
      "icao": "EDNY",
      "alert": "OK",
      "vis_m": 9999,
      "fzfg": false,
      "metar_trigger": false,
      "taf_trigger": false,
      "metar": "METAR EDNY 121320Z 24019KT 9999 -RA BKN021 BKN029 OVC033 07/05 Q0988",
      "taf": "TAF EDNY 121100Z 1212/1221 23020G30KT 9999 OVC020"
    },
    {
      "icao": "EDSB",
      "alert": "OK",
      "vis_m": 9999,
      "fzfg": false,
      "metar_trigger": false,
      "taf_trigger": false,
      "metar": "METAR EDSB 121320Z 23013KT 9999 BKN028 OVC041 10/07 Q0986",
      "taf": "TAF EDSB 121100Z 1212/1312 21015KT 9999 BKN035"
    },
    {
      "icao": "EETN",
      "alert": "OK",
      "vis_m": 9999,
      "fzfg": false,
      "metar_trigger": false,
      "taf_trigger": false,
      "metar": "METAR EETN 121320Z 07007KT CAVOK M06/M10 Q0993 NOSIG",
      "taf": "TAF EETN 121130Z 1212/1312 07006KT CAVOK"
    },
    {
      "icao": "EFTU",
      "alert": "OK",
      "vis_m": 9999,
      "fzfg": false,
      "metar_trigger": false,
      "taf_trigger": false,
      "metar": "METAR EFTU 121320Z AUTO 06007KT 030V090 9999 OVC008 M11/M14 Q0995",
      "taf": "TAF EFTU 121127Z 1212/1312 05006KT 9999 BKN007"
    },
    {
      "icao": "EGBB",
      "alert": "OK",
      "vis_m": 9999,
      "fzfg": false,
      "metar_trigger": false,
      "taf_trigger": false,
      "metar": "METAR EGBB 121320Z 03006KT 9999 -RA BKN009 06/05 Q0985",
      "taf": ""
    },
    {
      "icao": "EGGP",
      "alert": "OK",
      "vis_m": 9999,
      "fzfg": false,
      "metar_trigger": false,
      "taf_trigger": false,
      "metar": "METAR EGGP 121250Z 06010KT 9999 BKN019 BKN034 06/03 Q0986",
      "taf": "TAF EGGP 121056Z 1212/1312 05006KT 9999 SCT014 BKN030"
    },
    {
      "icao": "EGGW",
      "alert": "OK",
      "vis_m": 4700,
      "fzfg": false,
      "metar_trigger": false,
      "taf_trigger": false,
      "metar": "METAR EGGW 121320Z AUTO 34007KT 300V010 4700 -RADZ SCT005 OVC012 08/07 Q0984",
      "taf": "TAF EGGW 121055Z 1212/1312 32010KT 9999 SCT020"
    },
    {
      "icao": "EGKK",
      "alert": "OK",
      "vis_m": 8000,
      "fzfg": false,
      "metar_trigger": false,
      "taf_trigger": false,
      "metar": "METAR EGKK 121320Z 25012KT 8000 -RA SCT011 SCT017 10/09 Q0985",
      "taf": "TAF EGKK 121059Z 1212/1318 26010KT 9999 SCT010 BKN020"
    },
    {
      "icao": "EGNM",
      "alert": "OK",
      "vis_m": 9999,
      "fzfg": false,
      "metar_trigger": false,
      "taf_trigger": false,
      "metar": "METAR EGNM 121320Z 03010KT 9999 SCT008 BKN013 04/02 Q0986",
      "taf": "TAF EGNM 121059Z 1212/1312 05011KT 9999 SCT007 BKN012"
    },
    {
      "icao": "EGPD",
      "alert": "OK",
      "vis_m": 9999,
      "fzfg": false,
      "metar_trigger": false,
      "taf_trigger": false,
      "metar": "METAR EGPD 121320Z COR AUTO 07010KT 050V110 9999 FEW021 03/00 Q0992 NOSIG",
      "taf": "TAF EGPD 121057Z 1212/1312 05010KT 9999 SCT012 BKN025"
    },
    {
      "icao": "EGPF",
      "alert": "OK",
      "vis_m": 9999,
      "fzfg": false,
      "metar_trigger": false,
      "taf_trigger": false,
      "metar": "METAR EGPF 121320Z AUTO 06015KT 9999 BKN020 05/01 Q0990",
      "taf": "TAF EGPF 121053Z 1212/1312 07012KT 9999 BKN020"
    },
    {
      "icao": "EHBK",
      "alert": "OK",
      "vis_m": 9999,
      "fzfg": false,
      "metar_trigger": false,
      "taf_trigger": false,
      "metar": "METAR EHBK 121325Z AUTO 26008KT 210V320 9999 FEW008 SCT009 BKN011 09/08 Q0983 TEMPO BKN013",
      "taf": "TAF EHBK 121121Z 1212/1318 27010KT 9999 BKN009"
    },
    {
      "icao": "EHEH",
      "alert": "OK",
      "vis_m": 9999,
      "fzfg": false,
      "metar_trigger": false,
      "taf_trigger": false,
      "metar": "METAR EHEH 121325Z AUTO 26011KT 230V310 9999 FEW008 SCT009 BKN011 09/08 Q0982 GRN TEMPO 4500 -RADZ BKN005 OVC010",
      "taf": "TAF EHEH 121123Z 1212/1318 27008KT 9999 FEW007 BKN012"
    },
    {
      "icao": "EKBI",
      "alert": "OK",
      "vis_m": 4200,
      "fzfg": false,
      "metar_trigger": false,
      "taf_trigger": false,
      "metar": "METAR EKBI 121320Z AUTO 05015KT 4200 -SN OVC010/// M01/M02 Q0985",
      "taf": ""
    },
    {
      "icao": "EKCH",
      "alert": "OK",
      "vis_m": 2500,
      "fzfg": false,
      "metar_trigger": false,
      "taf_trigger": false,
      "metar": "METAR EKCH 121320Z 05015KT 2500 -SN BKN008 00/M01 Q0985 TEMPO 5000 BKN010",
      "taf": "TAF EKCH 121127Z 1212/1312 06015KT 9000 -SN BKN009"
    },
    {
      "icao": "ENAL",
      "alert": "OK",
      "vis_m": 9999,
      "fzfg": false,
      "metar_trigger": false,
      "taf_trigger": false,
      "metar": "METAR ENAL 121320Z 17005KT 140V200 9999 VCSH SCT038CB SCT044 00/M06 Q0991",
      "taf": "TAF ENAL 121100Z 1212/1221 20008KT 9999 FEW012 BKN030"
    },
    {
      "icao": "ENBR",
      "alert": "OK",
      "vis_m": 9999,
      "fzfg": false,
      "metar_trigger": false,
      "taf_trigger": false,
      "metar": "METAR ENBR 121320Z 16003KT 130V210 9999 SCT034 00/M09 Q0992 NOSIG RMK WIND 1200FT 15005KT",
      "taf": "TAF ENBR 121100Z 1212/1312 VRB03KT 9999 FEW020 BKN035"
    },
    {
      "icao": "ENGM",
      "alert": "OK",
      "vis_m": 9999,
      "fzfg": false,
      "metar_trigger": false,
      "taf_trigger": false,
      "metar": "METAR ENGM 121320Z 03010KT 9999 -SN BKN025 M07/M12 Q0994 NOSIG",
      "taf": ""
    },
    {
      "icao": "ENHD",
      "alert": "OK",
      "vis_m": 9999,
      "fzfg": false,
      "metar_trigger": false,
      "taf_trigger": false,
      "metar": "METAR ENHD 121320Z 11003KT 9999 FEW041 01/M11 Q0993",
      "taf": "TAF ENHD 121100Z 1212/1221 11006KT 9999 SCT040"
    },
    {
      "icao": "ENTC",
      "alert": "OK",
      "vis_m": 9999,
      "fzfg": false,
      "metar_trigger": false,
      "taf_trigger": false,
      "metar": "METAR ENTC 121320Z 19012KT 9999 -SN SCT015 BKN035 M07/M11 Q0994 TEMPO 2500 -SHSN VV010 RMK WIND 2600FT 23012KT",
      "taf": "TAF ENTC 121100Z 1212/1312 21012KT 9999 FEW020 BKN035"
    },
    {
      "icao": "ENTO",
      "alert": "OK",
      "vis_m": 9999,
      "fzfg": false,
      "metar_trigger": false,
      "taf_trigger": false,
      "metar": "METAR ENTO 121320Z 03009KT 360V060 9999 OVC040 M06/M11 Q0994 NOSIG",
      "taf": ""
    },
    {
      "icao": "ENVA",
      "alert": "OK",
      "vis_m": 9999,
      "fzfg": false,
      "metar_trigger": false,
      "taf_trigger": false,
      "metar": "METAR ENVA 121320Z 12007KT CAVOK M04/M14 Q0994 NOSIG RMK WIND 670FT 14011KT",
      "taf": "TAF ENVA 121100Z 1212/1312 10008KT CAVOK"
    },
    {
      "icao": "ENZV",
      "alert": "OK",
      "vis_m": 9999,
      "fzfg": false,
      "metar_trigger": false,
      "taf_trigger": false,
      "metar": "METAR ENZV 121320Z VRB02KT 9999 SCT043 00/M10 Q0993 NOSIG",
      "taf": "TAF ENZV 121100Z 1212/1312 10005KT 9999 FEW020 BKN040"
    },
    {
      "icao": "EPGD",
      "alert": "OK",
      "vis_m": 2200,
      "fzfg": false,
      "metar_trigger": false,
      "taf_trigger": false,
      "metar": "METAR EPGD 121330Z 05005KT 020V080 2200 -SNRA BR OVC002 M00/M00 Q0983",
      "taf": "TAF EPGD 121130Z 1212/1312 06008KT 3500 -SNRA BR OVC002"
    },
    {
      "icao": "EPKK",
      "alert": "OK",
      "vis_m": 9999,
      "fzfg": false,
      "metar_trigger": false,
      "taf_trigger": false,
      "metar": "METAR EPKK 121330Z 26002KT CAVOK 12/05 Q0984",
      "taf": "TAF EPKK 121130Z 1212/1312 25006KT CAVOK"
    },
    {
      "icao": "EPKT",
      "alert": "OK",
      "vis_m": 9999,
      "fzfg": false,
      "metar_trigger": false,
      "taf_trigger": false,
      "metar": "METAR EPKT 121330Z 19004KT 160V220 CAVOK 10/05 Q0983",
      "taf": "TAF EPKT 121130Z 1212/1312 22011KT CAVOK"
    },
    {
      "icao": "EPLB",
      "alert": "OK",
      "vis_m": 9999,
      "fzfg": false,
      "metar_trigger": false,
      "taf_trigger": false,
      "metar": "METAR EPLB 121330Z 21005KT 9999 BKN021 BKN030 05/03 Q0985",
      "taf": "TAF EPLB 121130Z 1212/1312 20010KT 9999 BKN028"
    },
    {
      "icao": "EPMO",
      "alert": "OK",
      "vis_m": 150,
      "fzfg": false,
      "metar_trigger": false,
      "taf_trigger": false,
      "metar": "METAR EPMO 121330Z 11003KT 0150 R08/0150N FG VV000 04/04 Q0984",
      "taf": "TAF EPMO 121130Z 1212/1312 12005KT 0800 FG OVC002"
    },
    {
      "icao": "EPPO",
      "alert": "OK",
      "vis_m": 7000,
      "fzfg": false,
      "metar_trigger": false,
      "taf_trigger": false,
      "metar": "METAR EPPO 121330Z 14006KT 7000 FEW004 BKN045 07/07 Q0981",
      "taf": "TAF EPPO 121130Z 1212/1312 13005KT 3000 BR BKN001"
    },
    {
      "icao": "EPRA",
      "alert": "OK",
      "vis_m": 9999,
      "fzfg": false,
      "metar_trigger": false,
      "taf_trigger": false,
      "metar": "METAR EPRA 121330Z 16003KT 9999 BKN040 07/05 Q0984",
      "taf": "TAF EPRA 121130Z 1212/1221 20006KT 9999 BKN040"
    },
    {
      "icao": "EPRZ",
      "alert": "OK",
      "vis_m": 9999,
      "fzfg": false,
      "metar_trigger": false,
      "taf_trigger": false,
      "metar": "METAR EPRZ 121330Z 18010KT CAVOK 10/04 Q0985",
      "taf": "TAF EPRZ 121130Z 1212/1312 20012KT CAVOK"
    },
    {
      "icao": "EPSC",
      "alert": "OK",
      "vis_m": 1700,
      "fzfg": false,
      "metar_trigger": false,
      "taf_trigger": false,
      "metar": "METAR EPSC 121330Z 07006KT 1700 BR OVC002 03/03 Q0980",
      "taf": "TAF EPSC 121130Z 1212/1312 07006KT 2500 -RA BR OVC003"
    },
    {
      "icao": "EPSY",
      "alert": "OK",
      "vis_m": 5000,
      "fzfg": false,
      "metar_trigger": false,
      "taf_trigger": false,
      "metar": "METAR EPSY 121330Z 14003KT 5000 BR BKN008 OVC012 04/02 Q0984",
      "taf": "TAF EPSY 121130Z 1212/1221 VRB02KT 4000 BR BKN015"
    },
    {
      "icao": "EPWA",
      "alert": "OK",
      "vis_m": 400,
      "fzfg": false,
      "metar_trigger": false,
      "taf_trigger": false,
      "metar": "METAR EPWA 121330Z 15004KT 0400 0300W R11/0500D FG BKN002 BKN009 04/04 Q0984 NOSIG",
      "taf": "TAF EPWA 121130Z 1212/1312 15005KT 0800 FG OVC002"
    },
    {
      "icao": "EPWR",
      "alert": "OK",
      "vis_m": 9999,
      "fzfg": false,
      "metar_trigger": false,
      "taf_trigger": false,
      "metar": "METAR EPWR 121330Z 16007KT CAVOK 10/06 Q0981",
      "taf": "TAF EPWR 121130Z 1212/1312 18010KT 9999 FEW025"
    },
    {
      "icao": "ESGG",
      "alert": "OK",
      "vis_m": 9999,
      "fzfg": false,
      "metar_trigger": false,
      "taf_trigger": false,
      "metar": "METAR ESGG 121320Z 03010KT 9999 OVC015 M04/M07 Q0990",
      "taf": "TAF ESGG 121130Z 1212/1312 04011KT 9999 BKN014"
    },
    {
      "icao": "ESKN",
      "alert": "OK",
      "vis_m": 9999,
      "fzfg": false,
      "metar_trigger": false,
      "taf_trigger": false,
      "metar": "METAR ESKN 121320Z 02009KT 340V050 CAVOK M04/M09 Q0993",
      "taf": "TAF ESKN 121130Z 1212/1312 02010KT 9999 SCT045"
    },
    {
      "icao": "ESMS",
      "alert": "OK",
      "vis_m": 3700,
      "fzfg": false,
      "metar_trigger": false,
      "taf_trigger": false,
      "metar": "METAR ESMS 121320Z 07017KT 3700 SG OVC006 00/M00 Q0984",
      "taf": "TAF ESMS 121127Z 1212/1312 07015KT 8000 -SN BKN007"
    },
    {
      "icao": "ESSA",
      "alert": "OK",
      "vis_m": 9999,
      "fzfg": false,
      "metar_trigger": false,
      "taf_trigger": false,
      "metar": "METAR ESSA 121320Z 05011KT 020V080 9999 FEW024 M04/M11 Q0994 NOSIG",
      "taf": ""
    },
    {
      "icao": "EYKA",
      "alert": "OK",
      "vis_m": 1500,
      "fzfg": false,
      "metar_trigger": false,
      "taf_trigger": false,
      "metar": "METAR EYKA 121320Z VRB02KT 1500 0900W R26/1400U SNRA BCFG BR OVC005 00/M00 Q0986",
      "taf": "TAF EYKA 121100Z 1212/1312 VRB04KT 3000 BR OVC002"
    },
    {
      "icao": "EYPA",
      "alert": "OK",
      "vis_m": 9999,
      "fzfg": false,
      "metar_trigger": false,
      "taf_trigger": false,
      "metar": "METAR EYPA 121320Z 06010KT 9999 OVC021 M03/M06 Q0987",
      "taf": "TAF EYPA 121100Z 1212/1312 06010KT 9000 SCT010 OVC015"
    },
    {
      "icao": "EYVI",
      "alert": "OK",
      "vis_m": 6000,
      "fzfg": false,
      "metar_trigger": false,
      "taf_trigger": false,
      "metar": "METAR EYVI 121320Z 09003KT 050V110 6000 -RA OVC007 01/M00 Q0985 TEMPO 1500 SNRA BR",
      "taf": "TAF EYVI 121100Z 1212/1312 VRB04KT 5000 SN BR OVC005"
    },
    {
      "icao": "GCFV",
      "alert": "OK",
      "vis_m": 9999,
      "fzfg": false,
      "metar_trigger": false,
      "taf_trigger": false,
      "metar": "METAR GCFV 121330Z 04004KT 340V080 9999 SCT015 19/14 Q1024",
      "taf": ""
    },
    {
      "icao": "GCLP",
      "alert": "OK",
      "vis_m": 9999,
      "fzfg": false,
      "metar_trigger": false,
      "taf_trigger": false,
      "metar": "METAR GCLP 121330Z 06008KT 030V110 9999 FEW020 20/15 Q1024 NOSIG",
      "taf": "TAF GCLP 120800Z 1209/1309 03011KT 9999 SCT020 TX23/1214Z TN17/1306Z"
    },
    {
      "icao": "GCTS",
      "alert": "OK",
      "vis_m": 9999,
      "fzfg": false,
      "metar_trigger": false,
      "taf_trigger": false,
      "metar": "METAR GCTS 121330Z 13009KT 9999 FEW020 23/15 Q1024 NOSIG",
      "taf": "TAF GCTS 120800Z 1209/1309 09010KT 9999 FEW020 TX25/1214Z TN16/1306Z"
    },
    {
      "icao": "GMAD",
      "alert": "OK",
      "vis_m": 4000,
      "fzfg": false,
      "metar_trigger": false,
      "taf_trigger": false,
      "metar": "METAR GMAD 121330Z 25006KT 230V290 4000 BR SCT006 BKN016 18/18 Q1022 NOSIG",
      "taf": "TAF GMAD 121100Z 1212/1318 26008KT 6000 SCT010 BKN016"
    },
    {
      "icao": "GMMN",
      "alert": "OK",
      "vis_m": 9999,
      "fzfg": false,
      "metar_trigger": false,
      "taf_trigger": false,
      "metar": "METAR GMMN 121330Z 09004KT 020V170 CAVOK 19/15 Q1023 NOSIG",
      "taf": "TAF GMMN 121100Z 1212/1318 14004KT 9999 BKN010"
    },
    {
      "icao": "GMMX",
      "alert": "OK",
      "vis_m": 9999,
      "fzfg": false,
      "metar_trigger": false,
      "taf_trigger": false,
      "metar": "METAR GMMX 121330Z 01004KT 310V080 CAVOK 23/16 Q1022 NOSIG",
      "taf": "TAF GMMX 121100Z 1212/1318 06006KT CAVOK"
    },
    {
      "icao": "HEGN",
      "alert": "OK",
      "vis_m": 9999,
      "fzfg": false,
      "metar_trigger": false,
      "taf_trigger": false,
      "metar": "METAR HEGN 121300Z 03006KT CAVOK 25/06 Q1014 NOSIG",
      "taf": "TAF HEGN 121100Z 1212/1318 36010KT CAVOK"
    },
    {
      "icao": "HEMA",
      "alert": "OK",
      "vis_m": 9999,
      "fzfg": false,
      "metar_trigger": false,
      "taf_trigger": false,
      "metar": "METAR HEMA 121300Z 05008KT CAVOK 23/12 Q1014 NOSIG",
      "taf": "TAF HEMA 121100Z 1212/1318 35010KT CAVOK"
    },
    {
      "icao": "HESH",
      "alert": "OK",
      "vis_m": 9999,
      "fzfg": false,
      "metar_trigger": false,
      "taf_trigger": false,
      "metar": "METAR HESH 121300Z 14008KT CAVOK 24/11 Q1014 NOSIG",
      "taf": "TAF HESH 121100Z 1212/1318 07010KT CAVOK"
    },
    {
      "icao": "HESX",
      "alert": "OK",
      "vis_m": 9999,
      "fzfg": false,
      "metar_trigger": false,
      "taf_trigger": false,
      "metar": "METAR HESX 121300Z 21016KT CAVOK 23/02 Q1013 NOSIG",
      "taf": "TAF HESX 121150Z 1212/1318 20015KT 7000 NSC"
    },
    {
      "icao": "LATI",
      "alert": "OK",
      "vis_m": 9999,
      "fzfg": false,
      "metar_trigger": false,
      "taf_trigger": false,
      "metar": "METAR LATI 121320Z 13009KT 9999 BKN060 16/07 Q0990 NOSIG",
      "taf": "TAF LATI 121100Z 1212/1312 16012KT 9999 SCT040 BKN070 TX15/1212Z TN07/1305Z"
    },
    {
      "icao": "LBPD",
      "alert": "OK",
      "vis_m": 9999,
      "fzfg": false,
      "metar_trigger": false,
      "taf_trigger": false,
      "metar": "METAR LBPD 121330Z AUTO 30004KT 9999 SCT018/// OVC024/// 06/04 Q0992 NOSIG",
      "taf": "TAF LBPD 121100Z 1212/1312 VRB04KT 9999 BKN015"
    },
    {
      "icao": "LBSF",
      "alert": "OK",
      "vis_m": 9999,
      "fzfg": false,
      "metar_trigger": false,
      "taf_trigger": false,
      "metar": "METAR LBSF 121330Z 10010KT 9999 OVC063 08/04 Q0991 NOSIG",
      "taf": "TAF LBSF 121100Z 1212/1312 VRB04KT 9999 BKN060"
    },
    {
      "icao": "LBWN",
      "alert": "OK",
      "vis_m": 8000,
      "fzfg": false,
      "metar_trigger": false,
      "taf_trigger": false,
      "metar": "METAR LBWN 121330Z 10005KT 8000 -RA SCT016 OVC033 10/09 Q0992 TEMPO 5000 RA",
      "taf": "TAF LBWN 121100Z 1212/1312 11010KT 9999 SCT045"
    },
    {
      "icao": "LCLK",
      "alert": "OK",
      "vis_m": 8000,
      "fzfg": false,
      "metar_trigger": false,
      "taf_trigger": false,
      "metar": "METAR LCLK 121330Z 22011KT 8000 -SHRA SCT025 SCT060 19/16 Q1008 NOSIG",
      "taf": "TAF LCLK 121130Z 1212/1312 20019KT 9999 FEW025 SCT045"
    },
    {
      "icao": "LCPH",
      "alert": "OK",
      "vis_m": 9999,
      "fzfg": false,
      "metar_trigger": false,
      "taf_trigger": false,
      "metar": "METAR LCPH 121330Z 22006KT 170V250 9999 BKN070 18/16 Q1008 NOSIG",
      "taf": "TAF LCPH 121130Z 1212/1312 21015KT 8000 -RA FEW025 SCT045"
    },
    {
      "icao": "LEAL",
      "alert": "OK",
      "vis_m": 9999,
      "fzfg": false,
      "metar_trigger": false,
      "taf_trigger": false,
      "metar": "METAR LEAL 121330Z 29021KT 260V320 CAVOK 23/01 Q1013 NOSIG",
      "taf": "TAF LEAL 121100Z 1212/1312 28015KT 9999 FEW030 TX23/1213Z TN09/1306Z"
    },
    {
      "icao": "LEBB",
      "alert": "OK",
      "vis_m": 9999,
      "fzfg": false,
      "metar_trigger": false,
      "taf_trigger": false,
      "metar": "METAR LEBB 121330Z 30017KT 9999 FEW070 17/06 Q1010 NOSIG",
      "taf": "TAF LEBB 121100Z 1212/1312 28013KT 9999 FEW060 TX17/1214Z TN09/1309Z"
    },
    {
      "icao": "LEBL",
      "alert": "OK",
      "vis_m": 9999,
      "fzfg": false,
      "metar_trigger": false,
      "taf_trigger": false,
      "metar": "METAR LEBL 121330Z 29031G45KT 9999 FEW020 19/02 Q1004 NOSIG",
      "taf": "TAF LEBL 121100Z 1212/1312 29025KT 9999 FEW020 TX20/1212Z TN10/1306Z"
    },
    {
      "icao": "LECH",
      "alert": "OK",
      "vis_m": 9999,
      "fzfg": false,
      "metar_trigger": false,
      "taf_trigger": false,
      "metar": "METAR LECH 121330Z AUTO 29017KT 250V350 CAVOK 18/M02 Q1010",
      "taf": ""
    },
    {
      "icao": "LEMD",
      "alert": "OK",
      "vis_m": 9999,
      "fzfg": false,
      "metar_trigger": false,
      "taf_trigger": false,
      "metar": "METAR LEMD 121330Z 23011KT 190V270 9999 SCT050 14/03 Q1015 NOSIG",
      "taf": "TAF LEMD 121100Z 1212/1318 26012KT 9999 FEW030 TX13/1215Z TN08/1307Z"
    },
    {
      "icao": "LEMG",
      "alert": "OK",
      "vis_m": 9999,
      "fzfg": false,
      "metar_trigger": false,
      "taf_trigger": false,
      "metar": "METAR LEMG 121330Z 31009KT 280V340 9999 FEW050 20/09 Q1019 NOSIG",
      "taf": "TAF LEMG 121100Z 1212/1312 30012KT 9999 FEW030 TX23/1214Z TN14/1307Z"
    },
    {
      "icao": "LEVC",
      "alert": "OK",
      "vis_m": 9999,
      "fzfg": false,
      "metar_trigger": false,
      "taf_trigger": false,
      "metar": "METAR LEVC 121330Z 27023G33KT CAVOK 20/03 Q1012 NOSIG",
      "taf": "TAF LEVC 121100Z 1212/1312 29015KT 9999 FEW045 TX21/1214Z TN12/1306Z"
    },
    {
      "icao": "LEXJ",
      "alert": "OK",
      "vis_m": 9999,
      "fzfg": false,
      "metar_trigger": false,
      "taf_trigger": false,
      "metar": "METAR LEXJ 121330Z 30018KT 280V340 CAVOK 16/06 Q1009",
      "taf": "TAF LEXJ 120800Z 1209/1309 28015KT 9999 FEW060 TX17/1213Z TN09/1309Z"
    },
    {
      "icao": "LEZG",
      "alert": "OK",
      "vis_m": 9999,
      "fzfg": false,
      "metar_trigger": false,
      "taf_trigger": false,
      "metar": "METAR LEZG 121330Z 31012G22KT 270V360 9999 BKN070 17/04 Q1010 NOSIG",
      "taf": "TAF LEZG 121100Z 1212/1312 28015KT 9999 FEW050 TX18/1212Z TN08/1306Z"
    },
    {
      "icao": "LEZL",
      "alert": "OK",
      "vis_m": 9999,
      "fzfg": false,
      "metar_trigger": false,
      "taf_trigger": false,
      "metar": "METAR LEZL 121330Z 26010KT 220V300 9999 FEW038 19/11 Q1020 NOSIG",
      "taf": "TAF LEZL 120800Z 1209/1309 27010KT 9999 FEW030 TX20/1215Z TN12/1307Z"
    },
    {
      "icao": "LFBD",
      "alert": "OK",
      "vis_m": 9999,
      "fzfg": false,
      "metar_trigger": false,
      "taf_trigger": false,
      "metar": "METAR LFBD 121330Z AUTO 28022G34KT 9999 4200 BKN025/// BKN034/// OVC045/// ///CB 13/09 Q1004 TEMPO 1200 TSRA BKN014 BKN020CB",
      "taf": "TAF LFBD 121100Z 1212/1318 28015G30KT 9999 BKN030 TX13/1214Z TN08/1307Z"
    },
    {
      "icao": "LFLL",
      "alert": "OK",
      "vis_m": 7000,
      "fzfg": false,
      "metar_trigger": false,
      "taf_trigger": false,
      "metar": "METAR LFLL 121330Z 23012KT 7000 -SHRA SCT030TCU SCT040 BKN060 10/07 Q0997 TEMPO 29015G25KT 4000 SHRA BKN035TCU",
      "taf": "TAF LFLL 121100Z 1212/1318 27012KT 9999 BKN040"
    },
    {
      "icao": "LFLS",
      "alert": "OK",
      "vis_m": 9000,
      "fzfg": false,
      "metar_trigger": false,
      "taf_trigger": false,
      "metar": "METAR LFLS 121330Z AUTO 26012KT 9000 RA FEW025/// SCT031/// BKN039/// ///TCU 09/06 Q0997 TEMPO 30020G30KT 2000 +SHRA SCT025CB BKN030",
      "taf": "TAF LFLS 120800Z 1209/1309 20012KT 9999 BKN040"
    },
    {
      "icao": "LFMN",
      "alert": "OK",
      "vis_m": 9999,
      "fzfg": false,
      "metar_trigger": false,
      "taf_trigger": false,
      "metar": "METAR LFMN 121330Z 10017KT 9999 FEW050 BKN230 15/10 Q0987 NOSIG",
      "taf": ""
    },
    {
      "icao": "LFOB",
      "alert": "OK",
      "vis_m": 9999,
      "fzfg": false,
      "metar_trigger": false,
      "taf_trigger": false,
      "metar": "METAR LFOB 121330Z AUTO 27014KT 9999 -RA BKN012/// OVC018/// ///CB 10/09 Q0987 TEMPO 28020G30KT 3000 SHRA",
      "taf": "TAF LFOB 121100Z 1212/1312 28010G20KT 9999 BKN020"
    },
    {
      "icao": "LFPO",
      "alert": "OK",
      "vis_m": 9999,
      "fzfg": false,
      "metar_trigger": false,
      "taf_trigger": false,
      "metar": "METAR LFPO 121330Z 27020KT 9999 FEW030TCU BKN030 BKN050 13/06 Q0989 TEMPO 26020G35KT 4000 -SHRA",
      "taf": "TAF LFPO 121100Z 1212/1318 26015G30KT 9999 BKN020"
    },
    {
      "icao": "LFSB",
      "alert": "OK",
      "vis_m": 9999,
      "fzfg": false,
      "metar_trigger": false,
      "taf_trigger": false,
      "metar": "METAR LFSB 121330Z AUTO 26018KT 9999 FEW023/// BKN030/// BKN039/// ///TCU 10/07 Q0990 TEMPO 26020G35KT 4000 SHRA SCT025CB",
      "taf": "TAF LFSB 121100Z 1212/1312 25015G25KT 9999 SCT030 BKN050"
    },
    {
      "icao": "LGAV",
      "alert": "OK",
      "vis_m": 9999,
      "fzfg": false,
      "metar_trigger": false,
      "taf_trigger": false,
      "metar": "METAR LGAV 121320Z 21010KT 9999 SCT025 16/09 Q0994 NOSIG",
      "taf": "TAF LGAV 121100Z 1212/1312 25013KT 9999 SCT025 SCT070"
    },
    {
      "icao": "LGTS",
      "alert": "OK",
      "vis_m": 9999,
      "fzfg": false,
      "metar_trigger": false,
      "taf_trigger": false,
      "metar": "METAR LGTS 121320Z 21003KT 9999 FEW020 15/09 Q0991 NOSIG",
      "taf": "TAF LGTS 121100Z 1212/1312 14013KT 9999 SCT030"
    },
    {
      "icao": "LHBP",
      "alert": "OK",
      "vis_m": 9999,
      "fzfg": false,
      "metar_trigger": false,
      "taf_trigger": false,
      "metar": "METAR LHBP 121330Z 10008KT CAVOK 12/08 Q0986 NOSIG",
      "taf": "TAF LHBP 121115Z 1212/1312 14006KT 9999 SCT040 BKN070"
    },
    {
      "icao": "LHDC",
      "alert": "OK",
      "vis_m": 9999,
      "fzfg": false,
      "metar_trigger": false,
      "taf_trigger": false,
      "metar": "METAR LHDC 121315Z AUTO 19007KT 160V230 CAVOK 14/07 Q0988 NOSIG",
      "taf": "TAF LHDC 121115Z 1212/1221 19012KT CAVOK"
    },
    {
      "icao": "LIBD",
      "alert": "OK",
      "vis_m": 8000,
      "fzfg": false,
      "metar_trigger": false,
      "taf_trigger": false,
      "metar": "METAR LIBD 121320Z 08005KT 8000 FEW040 13/12 Q0986",
      "taf": "TAF LIBD 121100Z 1212/1312 20008KT 9999 SCT040"
    },
    {
      "icao": "LIBG",
      "alert": "OK",
      "vis_m": 2500,
      "fzfg": false,
      "metar_trigger": false,
      "taf_trigger": false,
      "metar": "SPECI LIBG 121320Z 20008KT 160V230 2500 RA BKN015 13/12 Q0987",
      "taf": "TAF LIBG 121100Z 1212/1221 17010KT 9999 SCT050"
    },
    {
      "icao": "LIBP",
      "alert": "OK",
      "vis_m": 9999,
      "fzfg": false,
      "metar_trigger": false,
      "taf_trigger": false,
      "metar": "METAR LIBP 121320Z AUTO 23006KT 9999 -RA OVC073/// 10/09 Q0986",
      "taf": "TAF LIBP 121100Z 1212/1312 VRB05KT 9999 BKN050"
    },
    {
      "icao": "LIBR",
      "alert": "OK",
      "vis_m": 9999,
      "fzfg": false,
      "metar_trigger": false,
      "taf_trigger": false,
      "metar": "METAR LIBR 121320Z 18009KT 9999 SCT020 15/11 Q0987",
      "taf": "TAF LIBR 121100Z 1212/1312 18013KT 9999 SCT050"
    },
    {
      "icao": "LICA",
      "alert": "OK",
      "vis_m": 9999,
      "fzfg": false,
      "metar_trigger": false,
      "taf_trigger": false,
      "metar": "METAR LICA 121320Z AUTO 27030G40KT 9999 BKN018/// BKN048/// 15/12 Q0990 RETS RERA REDZ",
      "taf": "TAF LICA 121100Z 1212/1312 26025G40KT 9999 BKN020"
    },
    {
      "icao": "LICC",
      "alert": "OK",
      "vis_m": 9999,
      "fzfg": false,
      "metar_trigger": false,
      "taf_trigger": false,
      "metar": "METAR LICC 121320Z 27020KT 9999 -SHRA SCT020 SCT060 18/15 Q0992",
      "taf": "TAF LICC 121100Z 1212/1312 27022G35KT 9999 SCT030"
    },
    {
      "icao": "LICJ",
      "alert": "OK",
      "vis_m": 9999,
      "fzfg": false,
      "metar_trigger": false,
      "taf_trigger": false,
      "metar": "METAR LICJ 121320Z 26025KT 9999 FEW040 16/09 Q0995",
      "taf": "TAF LICJ 121100Z 1212/1312 25025G40KT 9999 SCT020"
    },
    {
      "icao": "LIMC",
      "alert": "OK",
      "vis_m": 9999,
      "fzfg": false,
      "metar_trigger": false,
      "taf_trigger": false,
      "metar": "METAR LIMC 121320Z VRB02KT 9999 SCT020 SCT100 11/06 Q0987 NOSIG",
      "taf": "TAF LIMC 121100Z 1212/1318 VRB05KT 7000 SCT030"
    },
    {
      "icao": "LIME",
      "alert": "OK",
      "vis_m": 9999,
      "fzfg": false,
      "metar_trigger": false,
      "taf_trigger": false,
      "metar": "METAR LIME 121320Z 26009KT 9999 SCT017 BKN035 11/07 Q0987 NOSIG",
      "taf": "TAF LIME 121100Z 1212/1312 28012KT 7000 SCT020"
    },
    {
      "icao": "LIMF",
      "alert": "OK",
      "vis_m": 8000,
      "fzfg": false,
      "metar_trigger": false,
      "taf_trigger": false,
      "metar": "METAR LIMF 121320Z VRB03KT 8000 SCT025 12/05 Q0987",
      "taf": "TAF LIMF 121100Z 1212/1312 VRB05KT 7000 SCT020"
    },
    {
      "icao": "LIMJ",
      "alert": "OK",
      "vis_m": 9999,
      "fzfg": false,
      "metar_trigger": false,
      "taf_trigger": false,
      "metar": "METAR LIMJ 121320Z 03011KT 9999 FEW020 12/06 Q0987",
      "taf": "TAF LIMJ 121100Z 1212/1312 03010KT 9999 SCT016"
    },
    {
      "icao": "LIPE",
      "alert": "OK",
      "vis_m": 1800,
      "fzfg": false,
      "metar_trigger": false,
      "taf_trigger": false,
      "metar": "METAR LIPE 121320Z 28008KT 1800 BR BKN003 09/09 Q0987",
      "taf": "TAF LIPE 121100Z 1212/1312 28010KT 0100 FG BKN001"
    },
    {
      "icao": "LIPH",
      "alert": "OK",
      "vis_m": 7000,
      "fzfg": false,
      "metar_trigger": false,
      "taf_trigger": false,
      "metar": "METAR LIPH 121320Z VRB02KT 7000 BKN010 BKN050 11/09 Q0986",
      "taf": "TAF LIPH 121100Z 1212/1312 VRB05KT 4000 BR BKN020"
    },
    {
      "icao": "LIPQ",
      "alert": "OK",
      "vis_m": 9999,
      "fzfg": false,
      "metar_trigger": false,
      "taf_trigger": false,
      "metar": "METAR LIPQ 121320Z AUTO 13008KT 9999 -RA OVC003/// 11/11 Q0986",
      "taf": "TAF LIPQ 121100Z 1212/1312 VRB05KT 8000 BKN012"
    },
    {
      "icao": "LIPR",
      "alert": "OK",
      "vis_m": 8000,
      "fzfg": false,
      "metar_trigger": false,
      "taf_trigger": false,
      "metar": "METAR LIPR 121320Z 31011KT 8000 -RA SCT010 BKN040 12/11 Q0985",
      "taf": "TAF LIPR 121100Z 1212/1312 12006KT 9999 BKN040"
    },
    {
      "icao": "LIPX",
      "alert": "OK",
      "vis_m": 9999,
      "fzfg": false,
      "metar_trigger": false,
      "taf_trigger": false,
      "metar": "METAR LIPX 121320Z 27009KT 9999 SCT035 BKN050 11/08 Q0987",
      "taf": "TAF LIPX 121100Z 1212/1312 26010KT 9999 SCT030"
    },
    {
      "icao": "LIPY",
      "alert": "OK",
      "vis_m": 9999,
      "fzfg": false,
      "metar_trigger": false,
      "taf_trigger": false,
      "metar": "METAR LIPY 121320Z AUTO 17006KT 9999 -RA OVC054/// 12/09 Q0985",
      "taf": "TAF LIPY 121100Z 1212/1312 17007KT 9999 BKN060"
    },
    {
      "icao": "LIPZ",
      "alert": "OK",
      "vis_m": 9999,
      "fzfg": false,
      "metar_trigger": false,
      "taf_trigger": false,
      "metar": "METAR LIPZ 121320Z 02007KT 9999 SCT004 BKN030 10/09 Q0986 NOSIG",
      "taf": "TAF LIPZ 121100Z 1212/1318 VRB05KT 6000 BKN015"
    },
    {
      "icao": "LIRF",
      "alert": "OK",
      "vis_m": 9999,
      "fzfg": false,
      "metar_trigger": false,
      "taf_trigger": false,
      "metar": "METAR LIRF 121320Z 06005KT 300V110 9999 SCT020 15/11 Q0986 NOSIG",
      "taf": "TAF LIRF 121100Z 1212/1318 VRB06KT 9999 FEW020"
    },
    {
      "icao": "LIRN",
      "alert": "OK",
      "vis_m": 9999,
      "fzfg": false,
      "metar_trigger": false,
      "taf_trigger": false,
      "metar": "METAR LIRN 121320Z 27013KT 240V300 9999 -DZ FEW030 BKN050 14/10 Q0986 NOSIG",
      "taf": "TAF LIRN 121100Z 1212/1312 26016KT 9999 SCT020"
    },
    {
      "icao": "LIRP",
      "alert": "OK",
      "vis_m": 9999,
      "fzfg": false,
      "metar_trigger": false,
      "taf_trigger": false,
      "metar": "METAR LIRP 121315Z 27009KT 9999 SCT015 15/11 Q0984 NOSIG",
      "taf": "TAF LIRP 121100Z 1212/1312 27010KT 9999 SCT020 SCT030"
    },
    {
      "icao": "LIRZ",
      "alert": "OK",
      "vis_m": 9999,
      "fzfg": false,
      "metar_trigger": false,
      "taf_trigger": false,
      "metar": "METAR LIRZ 121320Z AUTO 14007KT 9999 -RA BKN018/// 12/10 Q0986",
      "taf": "TAF LIRZ 121100Z 1212/1312 25010KT 9999 BKN030"
    },
    {
      "icao": "LJLJ",
      "alert": "OK",
      "vis_m": 6000,
      "fzfg": false,
      "metar_trigger": false,
      "taf_trigger": false,
      "metar": "METAR LJLJ 121330Z 18002KT 6000 -RA BKN003 BKN033 08/07 Q0986 NOSIG",
      "taf": "TAF LJLJ 121100Z 1212/1312 VRB02KT 9999 SCT003 BKN033"
    },
    {
      "icao": "LKMT",
      "alert": "OK",
      "vis_m": 9999,
      "fzfg": false,
      "metar_trigger": false,
      "taf_trigger": false,
      "metar": "METAR LKMT 121330Z 20010KT 160V220 9999 BKN034 11/05 Q0983 NOSIG",
      "taf": "TAF LKMT 121100Z 1212/1312 22012KT 9999 SCT025"
    },
    {
      "icao": "LKPR",
      "alert": "OK",
      "vis_m": 9999,
      "fzfg": false,
      "metar_trigger": false,
      "taf_trigger": false,
      "metar": "METAR LKPR 121330Z 21011KT 150V220 9999 FEW027 BKN035 11/05 Q0980 NOSIG",
      "taf": "TAF LKPR 121100Z 1212/1318 18010KT 9999 SCT030"
    },
    {
      "icao": "LLBG",
      "alert": "OK",
      "vis_m": 9999,
      "fzfg": false,
      "metar_trigger": false,
      "taf_trigger": false,
      "metar": "METAR LLBG 121320Z 24007KT CAVOK 23/06 Q1012 NOSIG",
      "taf": "TAF LLBG 121100Z 1212/1312 23010KT CAVOK"
    },
    {
      "icao": "LMML",
      "alert": "OK",
      "vis_m": 9999,
      "fzfg": false,
      "metar_trigger": false,
      "taf_trigger": false,
      "metar": "METAR LMML 121315Z 28026KT CAVOK 16/11 Q0999 NOSIG",
      "taf": ""
    },
    {
      "icao": "LOWW",
      "alert": "OK",
      "vis_m": 9999,
      "fzfg": false,
      "metar_trigger": false,
      "taf_trigger": false,
      "metar": "METAR LOWW 121320Z 01004KT 340V050 CAVOK 10/07 Q0983 NOSIG",
      "taf": "TAF LOWW 121116Z 1212/1318 VRB05KT 9999 FEW010 TX12/1314Z TN07/1218Z"
    },
    {
      "icao": "LPFR",
      "alert": "OK",
      "vis_m": 9000,
      "fzfg": false,
      "metar_trigger": false,
      "taf_trigger": false,
      "metar": "METAR LPFR 121330Z 23008KT 9000 FEW005 SCT015 16/15 Q1021",
      "taf": "TAF LPFR 121100Z 1212/1312 27007KT 9999 FEW008 SCT020"
    },
    {
      "icao": "LPMA",
      "alert": "OK",
      "vis_m": 9999,
      "fzfg": false,
      "metar_trigger": false,
      "taf_trigger": false,
      "metar": "METAR LPMA 121330Z 21016KT 9999 SCT018 19/12 Q1024",
      "taf": "TAF LPMA 121100Z 1212/1312 VRB05KT 9999 SCT015 SCT030"
    },
    {
      "icao": "LPPR",
      "alert": "OK",
      "vis_m": 7000,
      "fzfg": false,
      "metar_trigger": false,
      "taf_trigger": false,
      "metar": "METAR LPPR 121330Z 20011KT 7000 SCT015 BKN022 14/11 Q1017",
      "taf": "TAF LPPR 121100Z 1212/1312 22010KT 9999 SCT015 SCT025"
    },
    {
      "icao": "LPPS",
      "alert": "OK",
      "vis_m": 9999,
      "fzfg": false,
      "metar_trigger": false,
      "taf_trigger": false,
      "metar": "METAR LPPS 121330Z 25008KT 9999 FEW014 BKN030 18/11 Q1024",
      "taf": "TAF LPPS 121100Z 1212/1318 20008KT 9999 SCT015 SCT030"
    },
    {
      "icao": "LPPT",
      "alert": "OK",
      "vis_m": 9999,
      "fzfg": false,
      "metar_trigger": false,
      "taf_trigger": false,
      "metar": "METAR LPPT 121330Z 22012KT 9999 FEW018 SCT025 16/12 Q1019",
      "taf": "TAF LPPT 121100Z 1212/1318 25008KT 9999 SCT020"
    },
    {
      "icao": "LQBK",
      "alert": "OK",
      "vis_m": 9999,
      "fzfg": false,
      "metar_trigger": false,
      "taf_trigger": false,
      "metar": "METAR LQBK 121330Z 17007KT CAVOK 16/05 Q0985 NOSIG",
      "taf": "TAF LQBK 121100Z 1212/1312 29008KT 9999 SCT045 TX18/1213Z TN05/1306Z"
    },
    {
      "icao": "LQSA",
      "alert": "OK",
      "vis_m": 9999,
      "fzfg": false,
      "metar_trigger": false,
      "taf_trigger": false,
      "metar": "METAR LQSA 121330Z 15009KT 110V190 9999 BKN050 13/04 Q0987 NOSIG",
      "taf": "TAF LQSA 121100Z 1212/1312 11005KT 9999 SCT050 TX13/1213Z TN02/1304Z"
    },
    {
      "icao": "LQTZ",
      "alert": "OK",
      "vis_m": 9999,
      "fzfg": false,
      "metar_trigger": false,
      "taf_trigger": false,
      "metar": "METAR LQTZ 121330Z 27005KT 240V040 9999 SCT058 16/03 Q0986",
      "taf": "TAF LQTZ 121100Z 1212/1312 10005KT 9999 SCT055 TX18/1213Z TN06/1306Z"
    },
    {
      "icao": "LRBC",
      "alert": "OK",
      "vis_m": 5000,
      "fzfg": false,
      "metar_trigger": false,
      "taf_trigger": false,
      "metar": "METAR LRBC 121330Z 18011KT 5000 BR NSC 05/04 Q0991",
      "taf": ""
    },
    {
      "icao": "LRBS",
      "alert": "OK",
      "vis_m": 9999,
      "fzfg": false,
      "metar_trigger": false,
      "taf_trigger": false,
      "metar": "METAR LRBS 121330Z 09003KT 050V120 9999 -RA NSC 08/04 Q0993 NOSIG",
      "taf": "TAF LRBS 121100Z 1212/1312 VRB04KT CAVOK"
    },
    {
      "icao": "LRBV",
      "alert": "OK",
      "vis_m": 9999,
      "fzfg": false,
      "metar_trigger": false,
      "taf_trigger": false,
      "metar": "METAR LRBV 121330Z 21016KT 9999 FEW060 11/03 Q0990",
      "taf": ""
    },
    {
      "icao": "LRCL",
      "alert": "OK",
      "vis_m": 9999,
      "fzfg": false,
      "metar_trigger": false,
      "taf_trigger": false,
      "metar": "METAR LRCL 121330Z 16011KT CAVOK 12/04 Q0989",
      "taf": "TAF LRCL 121100Z 1212/1221 10008KT CAVOK"
    },
    {
      "icao": "LRCV",
      "alert": "OK",
      "vis_m": 4000,
      "fzfg": false,
      "metar_trigger": false,
      "taf_trigger": false,
      "metar": "METAR LRCV 121330Z 15003KT 4000 BR SCT004 03/02 Q0992",
      "taf": "TAF LRCV 121100Z 1212/1221 VRB04KT 0600 FG OVC002"
    },
    {
      "icao": "LRIA",
      "alert": "OK",
      "vis_m": 9999,
      "fzfg": false,
      "metar_trigger": false,
      "taf_trigger": false,
      "metar": "METAR LRIA 121330Z 11009KT CAVOK 07/04 Q0991",
      "taf": "TAF LRIA 121100Z 1212/1221 10010KT CAVOK"
    },
    {
      "icao": "LROP",
      "alert": "OK",
      "vis_m": 9000,
      "fzfg": false,
      "metar_trigger": false,
      "taf_trigger": false,
      "metar": "METAR LROP 121330Z 09003KT 040V140 9000 -RA FEW035 08/02 Q0993 NOSIG",
      "taf": "TAF LROP 121100Z 1212/1312 VRB04KT CAVOK"
    },
    {
      "icao": "LRSB",
      "alert": "OK",
      "vis_m": 9999,
      "fzfg": false,
      "metar_trigger": false,
      "taf_trigger": false,
      "metar": "METAR LRSB 121330Z 23004KT 200V260 9999 SCT070 13/05 Q0989 NOSIG",
      "taf": "TAF LRSB 121100Z 1212/1312 VRB04KT CAVOK"
    },
    {
      "icao": "LRSM",
      "alert": "OK",
      "vis_m": 9999,
      "fzfg": false,
      "metar_trigger": false,
      "taf_trigger": false,
      "metar": "METAR LRSM 121330Z 11005KT CAVOK 13/05 Q0989",
      "taf": "TAF LRSM 121100Z 1212/1221 15006KT 9999 SCT040"
    },
    {
      "icao": "LRSV",
      "alert": "OK",
      "vis_m": 9999,
      "fzfg": false,
      "metar_trigger": false,
      "taf_trigger": false,
      "metar": "METAR LRSV 121330Z 15005KT CAVOK 08/04 Q0989",
      "taf": "TAF LRSV 121100Z 1212/1221 19006KT CAVOK"
    },
    {
      "icao": "LRTM",
      "alert": "OK",
      "vis_m": 9999,
      "fzfg": false,
      "metar_trigger": false,
      "taf_trigger": false,
      "metar": "METAR LRTM 121330Z 11005KT 060V150 CAVOK 14/02 Q0989",
      "taf": "TAF LRTM 121100Z 1212/1221 VRB04KT CAVOK"
    },
    {
      "icao": "LRTR",
      "alert": "OK",
      "vis_m": 9999,
      "fzfg": false,
      "metar_trigger": false,
      "taf_trigger": false,
      "metar": "METAR LRTR 121330Z 18014KT 9999 FEW045 15/05 Q0988",
      "taf": "TAF LRTR 121100Z 1212/1312 18012KT CAVOK"
    },
    {
      "icao": "LTAC",
      "alert": "OK",
      "vis_m": 9999,
      "fzfg": false,
      "metar_trigger": false,
      "taf_trigger": false,
      "metar": "METAR LTAC 121320Z 18009KT 9999 BKN025 BKN080 09/05 Q1000 NOSIG RMK RWY21C 17014KT RWY03L 17008KT RWY21R 16013KT RWY03R 17009KT RWY21L 17013KT",
      "taf": "TAF LTAC 121040Z 1212/1312 VRB02KT 9999 SCT040 BKN100"
    },
    {
      "icao": "LTFM",
      "alert": "OK",
      "vis_m": 9999,
      "fzfg": false,
      "metar_trigger": false,
      "taf_trigger": false,
      "metar": "METAR LTFM 121320Z 20016KT 9999 -SHRA BKN029 BKN090 12/09 Q0992 NOSIG RMK RWY17L 20014KT RWY34L 19017KT RWY16R 20016KT 170V230 RWY36 20018KT RWY18 21016KT",
      "taf": "TAF LTFM 121040Z 1212/1318 18014KT 9999 -SHRA BKN028 BKN080"
    },
    {
      "icao": "LUKK",
      "alert": "OK",
      "vis_m": 9999,
      "fzfg": false,
      "metar_trigger": false,
      "taf_trigger": false,
      "metar": "METAR LUKK 121330Z 17009KT 9999 OVC012 06/05 Q0993 NOSIG",
      "taf": "TAF LUKK 121117Z 1212/1312 15008KT 9999 BKN015"
    },
    {
      "icao": "LWOH",
      "alert": "OK",
      "vis_m": 9999,
      "fzfg": false,
      "metar_trigger": false,
      "taf_trigger": false,
      "metar": "METAR LWOH 121320Z 14005KT 9999 SCT015 BKN035 10/06 Q0991",
      "taf": "TAF LWOH 121100Z 1212/1312 15010KT 9999 RA SCT010 OVC040"
    },
    {
      "icao": "LWSK",
      "alert": "OK",
      "vis_m": 9999,
      "fzfg": false,
      "metar_trigger": false,
      "taf_trigger": false,
      "metar": "METAR LWSK 121320Z 10003KT 010V180 9999 FEW032 14/06 Q0990 NOSIG",
      "taf": "TAF LWSK 121100Z 1212/1312 VRB02KT 9999 SCT020 SCT040"
    },
    {
      "icao": "LYBE",
      "alert": "OK",
      "vis_m": 9999,
      "fzfg": false,
      "metar_trigger": false,
      "taf_trigger": false,
      "metar": "METAR LYBE 121330Z 14005KT 100V190 CAVOK 17/04 Q0987 NOSIG",
      "taf": "TAF LYBE 121100Z 1212/1312 13010KT CAVOK TX17/1213Z TN05/1306Z"
    },
    {
      "icao": "LYNI",
      "alert": "OK",
      "vis_m": 9999,
      "fzfg": false,
      "metar_trigger": false,
      "taf_trigger": false,
      "metar": "METAR LYNI 121330Z 16007KT 120V220 9999 BKN070 14/06 Q0989 NOSIG",
      "taf": "TAF LYNI 121100Z 1212/1312 12010KT 9999 SCT040 TX15/1212Z TN05/1306Z"
    },
    {
      "icao": "LYPG",
      "alert": "OK",
      "vis_m": 9999,
      "fzfg": false,
      "metar_trigger": false,
      "taf_trigger": false,
      "metar": "METAR LYPG 121330Z 13009KT 110V170 9999 FEW010 SCT030 BKN040 12/10 Q0990 TEMPO 5000 RA",
      "taf": "TAF LYPG 121100Z 1212/1312 16005KT 6000 RA FEW010 BKN030 OVC060 TX14/1312Z TN07/1305Z"
    },
    {
      "icao": "LZIB",
      "alert": "OK",
      "vis_m": 9999,
      "fzfg": false,
      "metar_trigger": false,
      "taf_trigger": false,
      "metar": "METAR LZIB 121330Z 36006KT 9999 FEW008 SCT032 09/08 Q0984 NOSIG",
      "taf": "TAF LZIB 121115Z 1212/1312 10006KT 9999 SCT020"
    },
    {
      "icao": "LZKZ",
      "alert": "OK",
      "vis_m": 5000,
      "fzfg": false,
      "metar_trigger": false,
      "taf_trigger": false,
      "metar": "METAR LZKZ 121330Z VRB01KT 5000 BR BKN009 OVC012 07/06 Q0988 NOSIG",
      "taf": "TAF LZKZ 121115Z 1212/1312 21005KT 2500 BR FEW003 OVC006"
    },
    {
      "icao": "LZTT",
      "alert": "OK",
      "vis_m": 9999,
      "fzfg": false,
      "metar_trigger": false,
      "taf_trigger": false,
      "metar": "METAR LZTT 121330Z 24008KT 9999 FEW020 BKN030 09/03 Q0985 NOSIG",
      "taf": "TAF LZTT 121115Z 1212/1312 25012KT 9999 SCT025"
    },
    {
      "icao": "OEJN",
      "alert": "OK",
      "vis_m": 9999,
      "fzfg": false,
      "metar_trigger": false,
      "taf_trigger": false,
      "metar": "METAR OEJN 121300Z 27006KT CAVOK 28/18 Q1012 NOSIG",
      "taf": "TAF OEJN 121100Z 1212/1318 28012KT CAVOK"
    },
    {
      "icao": "OEMA",
      "alert": "OK",
      "vis_m": 9999,
      "fzfg": false,
      "metar_trigger": false,
      "taf_trigger": false,
      "metar": "METAR OEMA 121300Z 17004KT CAVOK 30/05 Q1015 NOSIG",
      "taf": "TAF OEMA 121100Z 1212/1318 27008KT CAVOK"
    },
    {
      "icao": "OJAI",
      "alert": "OK",
      "vis_m": 5000,
      "fzfg": false,
      "metar_trigger": false,
      "taf_trigger": false,
      "metar": "METAR OJAI 121300Z 20007KT 5000 HZ NSC 18/04 Q1015 NOSIG",
      "taf": "TAF OJAI 121100Z 1212/1318 24014KT 4000 HZ FEW035"
    },
    {
      "icao": "OMAA",
      "alert": "OK",
      "vis_m": 9999,
      "fzfg": false,
      "metar_trigger": false,
      "taf_trigger": false,
      "metar": "METAR OMAA 121330Z 31008KT CAVOK 30/10 Q1015 NOSIG",
      "taf": "TAF OMAA 121100Z 1212/1318 16010KT 8000 NSC"
    },
    {
      "icao": "OMDB",
      "alert": "OK",
      "vis_m": 9999,
      "fzfg": false,
      "metar_trigger": false,
      "taf_trigger": false,
      "metar": "METAR OMDB 121330Z 03011KT 360V060 CAVOK 26/17 Q1016 NOSIG",
      "taf": "TAF OMDB 121100Z 1212/1318 32012KT 8000 NSC"
    },
    {
      "icao": "UAAA",
      "alert": "OK",
      "vis_m": 500,
      "fzfg": true,
      "metar_trigger": false,
      "taf_trigger": false,
      "metar": "METAR UAAA 121330Z 24005MPS 0500 R23L/1400D SN FZFG BKN007 OVC020 M03/M04 Q1021 NOSIG",
      "taf": "TAF UAAA 121107Z 1212/1312 32003MPS 2000 -SHSN BR BKN005 OVC011CB TX00/1309Z TNM05/1303Z"
    },
    {
      "icao": "UBBB",
      "alert": "OK",
      "vis_m": 9999,
      "fzfg": false,
      "metar_trigger": false,
      "taf_trigger": false,
      "metar": "METAR UBBB 121330Z 16010KT CAVOK 06/02 Q1013 NOSIG",
      "taf": "TAF UBBB 121055Z 1212/1312 17010KT 9999 SCT025 TX07/1212Z TN04/1301Z"
    },
    {
      "icao": "UDSG",
      "alert": "OK",
      "vis_m": 7000,
      "fzfg": false,
      "metar_trigger": false,
      "taf_trigger": false,
      "metar": "METAR UDSG 121330Z 25002KT 7000 OVC020 M01/M01 Q1014 NOSIG",
      "taf": "TAF UDSG 121058Z 1212/1312 VRB06KT 1500 BR OVC010"
    },
    {
      "icao": "UDYZ",
      "alert": "OK",
      "vis_m": 9999,
      "fzfg": false,
      "metar_trigger": false,
      "taf_trigger": false,
      "metar": "METAR UDYZ 121330Z 04001KT 9999 OVC012 04/03 Q1015 NOSIG",
      "taf": "TAF UDYZ 121100Z 1212/1312 VRB06KT 3500 BR OVC020"
    },
    {
      "icao": "UGKO",
      "alert": "OK",
      "vis_m": 9999,
      "fzfg": false,
      "metar_trigger": false,
      "taf_trigger": false,
      "metar": "METAR UGKO 121330Z 08018KT CAVOK 16/03 Q1007 NOSIG",
      "taf": "TAF UGKO 121100Z 1212/1312 08017KT CAVOK TX19/1311Z TN10/1302Z"
    }
  ]
}