{
  "ts_utc": "2026-07-03T11:10:05Z",
  "threshold_m": 150,
  "source": "stations_override.txt (ICAO list) + aviationweather.gov (METAR/TAF raw)",
  "station_count": 159,
  "stations": [
    {
      "icao": "BIKF",
      "alert": "OK",
      "vis_m": 9999,
      "fzfg": false,
      "metar_trigger": false,
      "taf_trigger": false,
      "metar": "METAR BIKF 031100Z 22006KT 170V250 9999 SCT034 BKN230 11/03 Q1004",
      "taf": "TAF BIKF 031052Z 0312/0412 26007KT 9999 BKN035 TX12/0315Z TN05/0404Z"
    },
    {
      "icao": "BKPR",
      "alert": "OK",
      "vis_m": 9999,
      "fzfg": false,
      "metar_trigger": false,
      "taf_trigger": false,
      "metar": "METAR BKPR 031100Z 33010KT 9999 FEW030 SCT065 23/16 Q1018 NOSIG",
      "taf": ""
    },
    {
      "icao": "EBCI",
      "alert": "OK",
      "vis_m": 9999,
      "fzfg": false,
      "metar_trigger": false,
      "taf_trigger": false,
      "metar": "METAR EBCI 031050Z VRB02KT 9999 FEW046 23/10 Q1028 NOSIG",
      "taf": "TAF EBCI 030500Z 0306/0412 24003KT 9999 FEW030"
    },
    {
      "icao": "EDDB",
      "alert": "OK",
      "vis_m": 9999,
      "fzfg": false,
      "metar_trigger": false,
      "taf_trigger": false,
      "metar": "METAR EDDB 031050Z AUTO 28020KT 250V320 9999 FEW046 21/09 Q1021 TEMPO 30020G30KT",
      "taf": "TAF EDDB 030500Z 0306/0406 27014KT 9999 SCT040"
    },
    {
      "icao": "EDDH",
      "alert": "OK",
      "vis_m": 9999,
      "fzfg": false,
      "metar_trigger": false,
      "taf_trigger": false,
      "metar": "METAR EDDH 031050Z AUTO 29020G30KT 260V320 9999 FEW030 BKN043 18/10 Q1022 NOSIG",
      "taf": "TAF EDDH 030500Z 0306/0412 28012KT 9999 SCT030"
    },
    {
      "icao": "EDDK",
      "alert": "OK",
      "vis_m": 9999,
      "fzfg": false,
      "metar_trigger": false,
      "taf_trigger": false,
      "metar": "METAR EDDK 031050Z AUTO 31008KT 270V350 CAVOK 22/09 Q1027 NOSIG",
      "taf": "TAF EDDK 030500Z 0306/0412 VRB03KT CAVOK"
    },
    {
      "icao": "EDDN",
      "alert": "OK",
      "vis_m": 9999,
      "fzfg": false,
      "metar_trigger": false,
      "taf_trigger": false,
      "metar": "METAR EDDN 031050Z AUTO 31009KT 280V010 CAVOK 21/09 Q1026 NOSIG",
      "taf": "TAF EDDN 030500Z 0306/0406 31008KT 9999 SCT030"
    },
    {
      "icao": "EDDS",
      "alert": "OK",
      "vis_m": 9999,
      "fzfg": false,
      "metar_trigger": false,
      "taf_trigger": false,
      "metar": "METAR EDDS 031050Z AUTO VRB07KT CAVOK 24/07 Q1027 NOSIG",
      "taf": "TAF EDDS 030500Z 0306/0406 34007KT 9999 FEW040"
    },
    {
      "icao": "EDFH",
      "alert": "OK",
      "vis_m": 9999,
      "fzfg": false,
      "metar_trigger": false,
      "taf_trigger": false,
      "metar": "METAR EDFH 031050Z VRB05KT CAVOK 20/07 Q1028",
      "taf": "TAF EDFH 030500Z 0306/0406 30004KT CAVOK"
    },
    {
      "icao": "EDJA",
      "alert": "OK",
      "vis_m": 9999,
      "fzfg": false,
      "metar_trigger": false,
      "taf_trigger": false,
      "metar": "METAR EDJA 031050Z COR 33004KT 290V060 9999 FEW044 SCT052 21/10 Q1027",
      "taf": "TAF EDJA 030800Z 0309/0318 35006KT 9999 SCT030"
    },
    {
      "icao": "EDLW",
      "alert": "OK",
      "vis_m": 9999,
      "fzfg": false,
      "metar_trigger": false,
      "taf_trigger": false,
      "metar": "METAR EDLW 031050Z 26008KT 230V300 9999 BKN045 20/09 Q1027",
      "taf": "TAF EDLW 030500Z 0306/0406 23007KT CAVOK"
    },
    {
      "icao": "EDNY",
      "alert": "OK",
      "vis_m": 9999,
      "fzfg": false,
      "metar_trigger": false,
      "taf_trigger": false,
      "metar": "METAR EDNY 031050Z 22004KT 180V250 9999 SCT038 BKN044 23/13 Q1026",
      "taf": "TAF EDNY 030800Z 0309/0318 03006KT 9999 SCT050"
    },
    {
      "icao": "EDSB",
      "alert": "OK",
      "vis_m": 9999,
      "fzfg": false,
      "metar_trigger": false,
      "taf_trigger": false,
      "metar": "METAR EDSB 031050Z VRB04KT CAVOK 22/09 Q1027",
      "taf": "TAF EDSB 030500Z 0306/0406 03007KT CAVOK"
    },
    {
      "icao": "EETN",
      "alert": "OK",
      "vis_m": 9999,
      "fzfg": false,
      "metar_trigger": false,
      "taf_trigger": false,
      "metar": "METAR EETN 031050Z 17011KT 9999 SCT013 BKN018 19/15 Q1003 TEMPO FEW030CB",
      "taf": "TAF EETN 030530Z 0306/0406 17009KT 9999 SCT015 FEW025CB"
    },
    {
      "icao": "EFTU",
      "alert": "OK",
      "vis_m": 9999,
      "fzfg": false,
      "metar_trigger": false,
      "taf_trigger": false,
      "metar": "METAR EFTU 031050Z AUTO 10011KT 9999 BKN007 BKN031 //////CB 18/16 Q1001",
      "taf": ""
    },
    {
      "icao": "EGBB",
      "alert": "OK",
      "vis_m": 9999,
      "fzfg": false,
      "metar_trigger": false,
      "taf_trigger": false,
      "metar": "METAR EGBB 031050Z 24007KT 170V310 9999 SCT033 21/11 Q1029",
      "taf": "TAF EGBB 030456Z 0306/0406 26008KT 9999 FEW040"
    },
    {
      "icao": "EGGP",
      "alert": "OK",
      "vis_m": 9999,
      "fzfg": false,
      "metar_trigger": false,
      "taf_trigger": false,
      "metar": "METAR EGGP 031050Z 27008KT 9999 FEW045 20/12 Q1028",
      "taf": "TAF EGGP 030504Z 0306/0406 23007KT 9999 FEW025"
    },
    {
      "icao": "EGGW",
      "alert": "OK",
      "vis_m": 9999,
      "fzfg": false,
      "metar_trigger": false,
      "taf_trigger": false,
      "metar": "METAR EGGW 031050Z AUTO 30006KT 250V350 9999 NCD 20/10 Q1029",
      "taf": "TAF EGGW 030502Z 0306/0406 29008KT 9999 FEW040"
    },
    {
      "icao": "EGKK",
      "alert": "OK",
      "vis_m": 9999,
      "fzfg": false,
      "metar_trigger": false,
      "taf_trigger": false,
      "metar": "METAR EGKK 031050Z 30006KT 250V010 CAVOK 21/09 Q1029",
      "taf": "TAF EGKK 030453Z 0306/0412 32005KT 9999 FEW045"
    },
    {
      "icao": "EGNM",
      "alert": "OK",
      "vis_m": 9999,
      "fzfg": false,
      "metar_trigger": false,
      "taf_trigger": false,
      "metar": "METAR EGNM 031050Z 26012KT 9999 SCT022 SCT028 17/11 Q1027",
      "taf": "TAF EGNM 030504Z 0306/0406 21006KT 9999 FEW030"
    },
    {
      "icao": "EGPD",
      "alert": "OK",
      "vis_m": 9999,
      "fzfg": false,
      "metar_trigger": false,
      "taf_trigger": false,
      "metar": "METAR EGPD 031050Z AUTO 25005KT 190V320 9999 NCD 19/09 Q1021",
      "taf": ""
    },
    {
      "icao": "EGPF",
      "alert": "OK",
      "vis_m": 9999,
      "fzfg": false,
      "metar_trigger": false,
      "taf_trigger": false,
      "metar": "METAR EGPF 031050Z AUTO 22011KT 9999 -RA BKN011 OVC026 14/12 Q1025",
      "taf": ""
    },
    {
      "icao": "EHBK",
      "alert": "OK",
      "vis_m": 9999,
      "fzfg": false,
      "metar_trigger": false,
      "taf_trigger": false,
      "metar": "METAR EHBK 031055Z AUTO 28005KT 200V360 9999 NSC 21/09 Q1027 NOSIG",
      "taf": "TAF EHBK 030443Z 0306/0412 VRB02KT CAVOK"
    },
    {
      "icao": "EHEH",
      "alert": "OK",
      "vis_m": 9999,
      "fzfg": false,
      "metar_trigger": false,
      "taf_trigger": false,
      "metar": "METAR EHEH 031055Z AUTO 25006KT 190V320 9999 BKN045 BKN052 BKN060 21/10 Q1027 BLU NOSIG RMK TREND REMOTE BY EHWX",
      "taf": "TAF EHEH 030503Z 0306/0412 27005KT CAVOK"
    },
    {
      "icao": "EKBI",
      "alert": "OK",
      "vis_m": 9999,
      "fzfg": false,
      "metar_trigger": false,
      "taf_trigger": false,
      "metar": "METAR EKBI 031050Z AUTO 28024G36KT 9999 OVC027/// 15/09 Q1018",
      "taf": "TAF EKBI 030827Z 0309/0409 28018KT 9999 BKN020"
    },
    {
      "icao": "EKCH",
      "alert": "OK",
      "vis_m": 9999,
      "fzfg": false,
      "metar_trigger": false,
      "taf_trigger": false,
      "metar": "METAR EKCH 031050Z AUTO 28022G32KT 9999 OVC022/// 15/11 Q1013 TEMPO 28022G35KT",
      "taf": "TAF EKCH 030827Z 0309/0409 27020KT 4000 RA BKN012"
    },
    {
      "icao": "ENAL",
      "alert": "OK",
      "vis_m": 8000,
      "fzfg": false,
      "metar_trigger": false,
      "taf_trigger": false,
      "metar": "METAR ENAL 031050Z 28008KT 250V320 8000 -DZRA FEW006 SCT013 BKN022 12/10 Q1014",
      "taf": "TAF ENAL 030800Z 0309/0318 28008KT 9999 SCT009 BKN020"
    },
    {
      "icao": "ENBR",
      "alert": "OK",
      "vis_m": 9999,
      "fzfg": false,
      "metar_trigger": false,
      "taf_trigger": false,
      "metar": "METAR ENBR 031050Z 32011KT 9999 SCT030 13/08 Q1017 NOSIG RMK WIND 1200FT 31021KT",
      "taf": ""
    },
    {
      "icao": "ENGM",
      "alert": "OK",
      "vis_m": 9999,
      "fzfg": false,
      "metar_trigger": false,
      "taf_trigger": false,
      "metar": "METAR ENGM 031050Z 36010KT 9999 FEW026 18/11 Q1008 NOSIG",
      "taf": "TAF ENGM 030500Z 0306/0406 32008KT 9999 FEW015 BKN030"
    },
    {
      "icao": "ENHD",
      "alert": "OK",
      "vis_m": 9999,
      "fzfg": false,
      "metar_trigger": false,
      "taf_trigger": false,
      "metar": "METAR ENHD 031050Z 31015KT 9999 SCT023 15/09 Q1018",
      "taf": "TAF ENHD 030800Z 0309/0318 30025KT 9999 FEW012 BKN018"
    },
    {
      "icao": "ENTC",
      "alert": "OK",
      "vis_m": 9999,
      "fzfg": false,
      "metar_trigger": false,
      "taf_trigger": false,
      "metar": "METAR ENTC 031050Z 03012KT 9999 SCT061 14/08 Q1008 NOSIG RMK WIND 2600FT VRB03KT",
      "taf": "TAF ENTC 030500Z 0306/0406 02009KT CAVOK"
    },
    {
      "icao": "ENTO",
      "alert": "OK",
      "vis_m": 9999,
      "fzfg": false,
      "metar_trigger": false,
      "taf_trigger": false,
      "metar": "METAR ENTO 031050Z 34017KT 9999 VCSH FEW040CB 20/11 Q1008 TEMPO 34015G25KT",
      "taf": "TAF ENTO 030500Z 0306/0406 32009KT 9999 FEW010 BKN030"
    },
    {
      "icao": "ENVA",
      "alert": "OK",
      "vis_m": 9999,
      "fzfg": false,
      "metar_trigger": false,
      "taf_trigger": false,
      "metar": "METAR ENVA 031050Z 28020KT 9999 -RA SCT014CB BKN019 14/12 Q1010 NOSIG RMK WIND 670FT 28021KT",
      "taf": ""
    },
    {
      "icao": "ENZV",
      "alert": "OK",
      "vis_m": 9999,
      "fzfg": false,
      "metar_trigger": false,
      "taf_trigger": false,
      "metar": "METAR ENZV 031050Z 32019KT 9999 BKN030 14/08 Q1018 NOSIG",
      "taf": "TAF ENZV 030500Z 0306/0406 28020KT 9999 -RA FEW008 BKN018"
    },
    {
      "icao": "EPGD",
      "alert": "OK",
      "vis_m": 7000,
      "fzfg": false,
      "metar_trigger": false,
      "taf_trigger": false,
      "metar": "METAR EPGD 031100Z 24012KT 200V260 7000 -SHRA BKN006 SCT015TCU 14/13 Q1013",
      "taf": ""
    },
    {
      "icao": "EPKK",
      "alert": "OK",
      "vis_m": 9999,
      "fzfg": false,
      "metar_trigger": false,
      "taf_trigger": false,
      "metar": "METAR EPKK 031100Z 29015KT 9999 BKN051 21/10 Q1019",
      "taf": "TAF EPKK 030830Z 0309/0409 30012KT 9999 BKN045"
    },
    {
      "icao": "EPKT",
      "alert": "OK",
      "vis_m": 9999,
      "fzfg": false,
      "metar_trigger": false,
      "taf_trigger": false,
      "metar": "METAR EPKT 031100Z 30012KT 9999 SCT049 21/09 Q1019",
      "taf": "TAF EPKT 030530Z 0306/0406 30014KT CAVOK"
    },
    {
      "icao": "EPLB",
      "alert": "OK",
      "vis_m": 9999,
      "fzfg": false,
      "metar_trigger": false,
      "taf_trigger": false,
      "metar": "METAR EPLB 031100Z 28012KT 9999 FEW012 SCT024 BKN047 20/16 Q1015",
      "taf": ""
    },
    {
      "icao": "EPMO",
      "alert": "OK",
      "vis_m": 9999,
      "fzfg": false,
      "metar_trigger": false,
      "taf_trigger": false,
      "metar": "METAR EPMO 031100Z 27016KT 9999 FEW044 23/11 Q1016",
      "taf": "TAF EPMO 030530Z 0306/0406 30012KT 9999 SCT030"
    },
    {
      "icao": "EPPO",
      "alert": "OK",
      "vis_m": 9999,
      "fzfg": false,
      "metar_trigger": false,
      "taf_trigger": false,
      "metar": "METAR EPPO 031100Z 28019KT 9999 SCT048 20/08 Q1019",
      "taf": "TAF EPPO 030530Z 0306/0406 29016KT 9999 SCT040"
    },
    {
      "icao": "EPRA",
      "alert": "OK",
      "vis_m": 9999,
      "fzfg": false,
      "metar_trigger": false,
      "taf_trigger": false,
      "metar": "METAR EPRA 031100Z 30011KT 250V330 9999 SCT045 22/09 Q1016",
      "taf": "TAF EPRA 030830Z 0309/0318 29012KT 9999 SCT040"
    },
    {
      "icao": "EPRZ",
      "alert": "OK",
      "vis_m": 9999,
      "fzfg": false,
      "metar_trigger": false,
      "taf_trigger": false,
      "metar": "METAR EPRZ 031100Z 29011KT 9999 BKN023 BKN043 21/14 Q1017",
      "taf": "TAF EPRZ 030530Z 0306/0406 25005KT CAVOK"
    },
    {
      "icao": "EPSC",
      "alert": "OK",
      "vis_m": 9999,
      "fzfg": false,
      "metar_trigger": false,
      "taf_trigger": false,
      "metar": "METAR EPSC 031100Z 27016G26KT CAVOK 19/07 Q1017",
      "taf": "TAF EPSC 030530Z 0306/0406 26013KT 9999 SCT020"
    },
    {
      "icao": "EPSY",
      "alert": "OK",
      "vis_m": 9999,
      "fzfg": false,
      "metar_trigger": false,
      "taf_trigger": false,
      "metar": "METAR EPSY 031100Z 24014KT 210V270 9999 SCT045 20/10 Q1014",
      "taf": "TAF EPSY 030830Z 0309/0318 27013KT 9999 BKN035"
    },
    {
      "icao": "EPWA",
      "alert": "OK",
      "vis_m": 9999,
      "fzfg": false,
      "metar_trigger": false,
      "taf_trigger": false,
      "metar": "METAR EPWA 031100Z 26017KT 240V300 CAVOK 22/11 Q1015 NOSIG",
      "taf": "TAF EPWA 030830Z 0309/0409 30012KT 9999 SCT030"
    },
    {
      "icao": "EPWR",
      "alert": "OK",
      "vis_m": 9999,
      "fzfg": false,
      "metar_trigger": false,
      "taf_trigger": false,
      "metar": "METAR EPWR 031100Z 30017KT 9999 SCT048 20/07 Q1021",
      "taf": "TAF EPWR 030830Z 0309/0409 30017KT 9999 SCT030"
    },
    {
      "icao": "ESGG",
      "alert": "OK",
      "vis_m": 9999,
      "fzfg": false,
      "metar_trigger": false,
      "taf_trigger": false,
      "metar": "METAR ESGG 031050Z 29012KT 260V330 9999 VCSH FEW024CB SCT030 18/12 Q1007",
      "taf": "TAF ESGG 030830Z 0309/0409 29012G22KT 9999 SCT014 BKN030"
    },
    {
      "icao": "ESKN",
      "alert": "OK",
      "vis_m": 9999,
      "fzfg": false,
      "metar_trigger": false,
      "taf_trigger": false,
      "metar": "METAR ESKN 031050Z 30005KT 9999 SCT024CB BKN075 16/15 Q1000",
      "taf": ""
    },
    {
      "icao": "ESMS",
      "alert": "OK",
      "vis_m": 9999,
      "fzfg": false,
      "metar_trigger": false,
      "taf_trigger": false,
      "metar": "METAR ESMS 031050Z 28018KT 250V310 9999 BKN021 15/12 Q1012",
      "taf": "TAF ESMS 030827Z 0309/0409 27018KT 9999 BKN025"
    },
    {
      "icao": "ESSA",
      "alert": "OK",
      "vis_m": 9999,
      "fzfg": false,
      "metar_trigger": false,
      "taf_trigger": false,
      "metar": "METAR ESSA 031050Z 34012KT 9999 -RA BKN010CB BKN090 14/13 Q1000 TEMPO 4000 TSRA BKN015",
      "taf": ""
    },
    {
      "icao": "EYKA",
      "alert": "OK",
      "vis_m": 9999,
      "fzfg": false,
      "metar_trigger": false,
      "taf_trigger": false,
      "metar": "METAR EYKA 031050Z 29014KT 270V330 9999 FEW039 SCT048 21/11 Q1010",
      "taf": "TAF EYKA 031100Z 0312/0412 27010KT 9000 SCT045"
    },
    {
      "icao": "EYPA",
      "alert": "OK",
      "vis_m": 9999,
      "fzfg": false,
      "metar_trigger": false,
      "taf_trigger": false,
      "metar": "METAR EYPA 031050Z 24008G18KT 180V310 9999 SCT023 SCT030 18/14 Q1008",
      "taf": "TAF EYPA 031100Z 0312/0412 27015G25KT 9000 BKN025"
    },
    {
      "icao": "EYVI",
      "alert": "OK",
      "vis_m": 9999,
      "fzfg": false,
      "metar_trigger": false,
      "taf_trigger": false,
      "metar": "METAR EYVI 031050Z 22006KT 190V250 9999 FEW056CB 18/16 Q1011 NOSIG",
      "taf": "TAF EYVI 031100Z 0312/0412 26012KT 9000 SCT040"
    },
    {
      "icao": "GCFV",
      "alert": "OK",
      "vis_m": 9999,
      "fzfg": false,
      "metar_trigger": false,
      "taf_trigger": false,
      "metar": "METAR GCFV 031100Z 06006KT 010V080 9999 FEW020 25/19 Q1015",
      "taf": "TAF GCFV 030800Z 0309/0409 13009KT 9999 FEW015 TX28/0314Z TN20/0406Z"
    },
    {
      "icao": "GCLP",
      "alert": "OK",
      "vis_m": 9999,
      "fzfg": false,
      "metar_trigger": false,
      "taf_trigger": false,
      "metar": "METAR GCLP 031100Z 04012KT 010V080 9999 FEW025 26/19 Q1016 NOSIG",
      "taf": "TAF GCLP 030800Z 0309/0409 09006KT 9999 SCT015 TX26/0314Z TN21/0406Z"
    },
    {
      "icao": "GCTS",
      "alert": "OK",
      "vis_m": 9999,
      "fzfg": false,
      "metar_trigger": false,
      "taf_trigger": false,
      "metar": "METAR GCTS 031100Z 16009KT 130V190 9999 BKN033 25/18 Q1017 NOSIG",
      "taf": "TAF GCTS 030800Z 0309/0409 VRB05KT 9999 SCT015 TX28/0314Z TN20/0406Z"
    },
    {
      "icao": "GMAD",
      "alert": "OK",
      "vis_m": 6000,
      "fzfg": false,
      "metar_trigger": false,
      "taf_trigger": false,
      "metar": "METAR GMAD 031100Z 23008KT 200V270 6000 FEW006 BKN200 27/19 Q1014 NOSIG",
      "taf": "TAF GMAD 030500Z 0306/0412 07004KT 8000 SCT013 SCT080"
    },
    {
      "icao": "GMMN",
      "alert": "OK",
      "vis_m": 9999,
      "fzfg": false,
      "metar_trigger": false,
      "taf_trigger": false,
      "metar": "METAR GMMN 031100Z 33005KT 270V030 CAVOK 39/16 Q1015 NOSIG",
      "taf": "TAF GMMN 030500Z 0306/0412 16004KT CAVOK"
    },
    {
      "icao": "GMMX",
      "alert": "OK",
      "vis_m": 9999,
      "fzfg": false,
      "metar_trigger": false,
      "taf_trigger": false,
      "metar": "METAR GMMX 031100Z 05004KT 340V140 CAVOK 41/12 Q1016 NOSIG",
      "taf": "TAF GMMX 030500Z 0306/0412 06006KT 8000 NSC"
    },
    {
      "icao": "HEGN",
      "alert": "OK",
      "vis_m": 9999,
      "fzfg": false,
      "metar_trigger": false,
      "taf_trigger": false,
      "metar": "METAR HEGN 031100Z 01015KT CAVOK 35/13 Q1006 NOSIG",
      "taf": "TAF HEGN 031100Z 0312/0418 01010G20KT CAVOK"
    },
    {
      "icao": "HEMA",
      "alert": "OK",
      "vis_m": 9999,
      "fzfg": false,
      "metar_trigger": false,
      "taf_trigger": false,
      "metar": "METAR HEMA 031100Z 35022KT CAVOK 35/10 Q1007 NOSIG",
      "taf": "TAF HEMA 031100Z 0312/0418 36012G22KT 6000 NSC"
    },
    {
      "icao": "HESH",
      "alert": "OK",
      "vis_m": 9999,
      "fzfg": false,
      "metar_trigger": false,
      "taf_trigger": false,
      "metar": "METAR HESH 031100Z 01015KT CAVOK 37/14 Q1006 NOSIG",
      "taf": "TAF HESH 031100Z 0312/0418 02010G20KT CAVOK"
    },
    {
      "icao": "HESX",
      "alert": "OK",
      "vis_m": 9999,
      "fzfg": false,
      "metar_trigger": false,
      "taf_trigger": false,
      "metar": "METAR HESX 031100Z 33005KT CAVOK 34/14 Q1010 NOSIG",
      "taf": "TAF HESX 031100Z 0312/0418 33010KT CAVOK"
    },
    {
      "icao": "LATI",
      "alert": "OK",
      "vis_m": 9999,
      "fzfg": false,
      "metar_trigger": false,
      "taf_trigger": false,
      "metar": "METAR LATI 031050Z 30008KT 260V330 9999 FEW060 33/18 Q1011 NOSIG",
      "taf": "TAF LATI 031100Z 0312/0412 31012KT 9999 FEW040CB SCT080 TX35/0412Z TN20/0404Z"
    },
    {
      "icao": "LBPD",
      "alert": "OK",
      "vis_m": 9999,
      "fzfg": false,
      "metar_trigger": false,
      "taf_trigger": false,
      "metar": "METAR LBPD 031100Z AUTO 31014KT 9999 FEW059/// SCT099/// BKN130/// 30/18 Q1011 NOSIG",
      "taf": "TAF LBPD 030500Z 0306/0406 VRB04KT 9999 SCT050 BKN070"
    },
    {
      "icao": "LBSF",
      "alert": "OK",
      "vis_m": 9999,
      "fzfg": false,
      "metar_trigger": false,
      "taf_trigger": false,
      "metar": "METAR LBSF 031100Z 29014KT 9999 SCT035 26/17 Q1015 NOSIG",
      "taf": "TAF LBSF 030500Z 0306/0406 31010KT 9999 SCT015 SCT050"
    },
    {
      "icao": "LBWN",
      "alert": "OK",
      "vis_m": 9999,
      "fzfg": false,
      "metar_trigger": false,
      "taf_trigger": false,
      "metar": "METAR LBWN 031100Z 28013KT 9999 BKN042 29/20 Q1009 NOSIG",
      "taf": "TAF LBWN 030500Z 0306/0406 28010KT 9999 SCT020 SCT045"
    },
    {
      "icao": "LCLK",
      "alert": "OK",
      "vis_m": 9999,
      "fzfg": false,
      "metar_trigger": false,
      "taf_trigger": false,
      "metar": "METAR LCLK 031100Z 22018KT 9999 FEW030 32/24 Q1006 NOSIG",
      "taf": "TAF LCLK 030530Z 0306/0406 16007KT 9999 FEW025"
    },
    {
      "icao": "LCPH",
      "alert": "OK",
      "vis_m": 9999,
      "fzfg": false,
      "metar_trigger": false,
      "taf_trigger": false,
      "metar": "METAR LCPH 031100Z 28010KT 250V320 9999 FEW015 29/23 Q1007 NOSIG",
      "taf": "TAF LCPH 030530Z 0306/0406 28003KT 9999 SCT018"
    },
    {
      "icao": "LEAL",
      "alert": "OK",
      "vis_m": 9999,
      "fzfg": false,
      "metar_trigger": false,
      "taf_trigger": false,
      "metar": "METAR LEAL 031100Z VRB04KT CAVOK 34/11 Q1023 NOSIG",
      "taf": "TAF LEAL 030500Z 0306/0406 VRB03KT CAVOK TX33/0312Z TN21/0306Z"
    },
    {
      "icao": "LEBB",
      "alert": "OK",
      "vis_m": 9999,
      "fzfg": false,
      "metar_trigger": false,
      "taf_trigger": false,
      "metar": "METAR LEBB 031100Z 01003KT 270V080 9999 FEW013 BKN022 24/19 Q1028 NOSIG",
      "taf": "TAF LEBB 030500Z 0306/0406 33005KT 9999 FEW010 BKN020 TX23/0312Z TN17/0323Z"
    },
    {
      "icao": "LEBL",
      "alert": "OK",
      "vis_m": 9999,
      "fzfg": false,
      "metar_trigger": false,
      "taf_trigger": false,
      "metar": "METAR LEBL 031100Z 21013KT 170V240 CAVOK 28/22 Q1022 NOSIG",
      "taf": ""
    },
    {
      "icao": "LECH",
      "alert": "OK",
      "vis_m": 9999,
      "fzfg": false,
      "metar_trigger": false,
      "taf_trigger": false,
      "metar": "METAR LECH 031100Z AUTO 12013KT 100V160 CAVOK 29/16 Q1024",
      "taf": "TAF LECH 030500Z 0306/0406 VRB03KT CAVOK TX34/0312Z TN18/0306Z"
    },
    {
      "icao": "LEMD",
      "alert": "OK",
      "vis_m": 9999,
      "fzfg": false,
      "metar_trigger": false,
      "taf_trigger": false,
      "metar": "METAR LEMD 031100Z 11004KT CAVOK 32/08 Q1025 NOSIG",
      "taf": ""
    },
    {
      "icao": "LEMG",
      "alert": "OK",
      "vis_m": 9999,
      "fzfg": false,
      "metar_trigger": false,
      "taf_trigger": false,
      "metar": "METAR LEMG 031100Z 13008KT 100V170 9999 FEW035 28/21 Q1022 NOSIG",
      "taf": "TAF LEMG 030500Z 0306/0406 28005KT CAVOK TX28/0314Z TN21/0405Z"
    },
    {
      "icao": "LEVC",
      "alert": "OK",
      "vis_m": 9999,
      "fzfg": false,
      "metar_trigger": false,
      "taf_trigger": false,
      "metar": "METAR LEVC 031100Z 14007KT 080V200 CAVOK 33/14 Q1022 NOSIG",
      "taf": "TAF LEVC 030500Z 0306/0406 30006KT CAVOK TX32/0312Z TN22/0306Z"
    },
    {
      "icao": "LEXJ",
      "alert": "OK",
      "vis_m": 9999,
      "fzfg": false,
      "metar_trigger": false,
      "taf_trigger": false,
      "metar": "METAR LEXJ 031100Z 04004KT 330V120 9999 FEW025 24/17 Q1028",
      "taf": "TAF LEXJ 030800Z 0309/0409 22005KT 9999 SCT030 TX25/0312Z TN18/0405Z"
    },
    {
      "icao": "LEZG",
      "alert": "OK",
      "vis_m": 9999,
      "fzfg": false,
      "metar_trigger": false,
      "taf_trigger": false,
      "metar": "METAR LEZG 031100Z 29014KT 260V330 CAVOK 28/14 Q1024 NOSIG",
      "taf": "TAF LEZG 030500Z 0306/0406 30015KT CAVOK TX35/0314Z TN18/0306Z"
    },
    {
      "icao": "LEZL",
      "alert": "OK",
      "vis_m": 9999,
      "fzfg": false,
      "metar_trigger": false,
      "taf_trigger": false,
      "metar": "METAR LEZL 031100Z 06004KT CAVOK 36/18 Q1018 NOSIG",
      "taf": "TAF LEZL 030800Z 0309/0409 07009KT CAVOK TX41/0315Z TN25/0405Z"
    },
    {
      "icao": "LFBD",
      "alert": "OK",
      "vis_m": 9999,
      "fzfg": false,
      "metar_trigger": false,
      "taf_trigger": false,
      "metar": "METAR LFBD 031100Z AUTO VRB03KT 9999 FEW030 BKN037 26/17 Q1027 NOSIG",
      "taf": "TAF LFBD 030500Z 0306/0412 VRB03KT 9999 BKN020 TX32/0412Z TN17/0405Z"
    },
    {
      "icao": "LFLL",
      "alert": "OK",
      "vis_m": 9999,
      "fzfg": false,
      "metar_trigger": false,
      "taf_trigger": false,
      "metar": "METAR LFLL 031100Z 35017KT CAVOK 27/13 Q1024 NOSIG",
      "taf": "TAF LFLL 030500Z 0306/0412 35015KT CAVOK"
    },
    {
      "icao": "LFLS",
      "alert": "OK",
      "vis_m": 9999,
      "fzfg": false,
      "metar_trigger": false,
      "taf_trigger": false,
      "metar": "METAR LFLS 031100Z AUTO 36014KT 330V030 CAVOK 28/12 Q1024 TEMPO 35018G28KT",
      "taf": "TAF LFLS 030800Z 0309/0409 35015KT CAVOK"
    },
    {
      "icao": "LFMN",
      "alert": "OK",
      "vis_m": 9999,
      "fzfg": false,
      "metar_trigger": false,
      "taf_trigger": false,
      "metar": "METAR LFMN 031100Z 18005KT CAVOK 29/18 Q1018 NOSIG",
      "taf": "TAF LFMN 030800Z 0309/0415 13006KT CAVOK"
    },
    {
      "icao": "LFOB",
      "alert": "OK",
      "vis_m": 9999,
      "fzfg": false,
      "metar_trigger": false,
      "taf_trigger": false,
      "metar": "METAR LFOB 031100Z AUTO 30006KT 260V340 CAVOK 24/13 Q1028 NOSIG",
      "taf": "TAF LFOB 030500Z 0306/0406 VRB04KT CAVOK"
    },
    {
      "icao": "LFPO",
      "alert": "OK",
      "vis_m": 9999,
      "fzfg": false,
      "metar_trigger": false,
      "taf_trigger": false,
      "metar": "METAR LFPO 031100Z VRB05KT CAVOK 26/11 Q1028 NOSIG",
      "taf": "TAF LFPO 030500Z 0306/0412 34005KT CAVOK"
    },
    {
      "icao": "LFSB",
      "alert": "OK",
      "vis_m": 9999,
      "fzfg": false,
      "metar_trigger": false,
      "taf_trigger": false,
      "metar": "METAR LFSB 031100Z AUTO 01009KT 320V060 9999 FEW050 26/12 Q1026 NOSIG",
      "taf": "TAF LFSB 030500Z 0306/0406 35008KT 9999 SCT055"
    },
    {
      "icao": "LGAV",
      "alert": "OK",
      "vis_m": 9999,
      "fzfg": false,
      "metar_trigger": false,
      "taf_trigger": false,
      "metar": "METAR LGAV 031050Z 08014KT 9999 FEW025 32/16 Q1011 NOSIG",
      "taf": "TAF LGAV 030500Z 0306/0406 VRB03KT 9999 SCT025"
    },
    {
      "icao": "LGTS",
      "alert": "OK",
      "vis_m": 9999,
      "fzfg": false,
      "metar_trigger": false,
      "taf_trigger": false,
      "metar": "METAR LGTS 031050Z 29012KT 9999 FEW025 33/18 Q1011 NOSIG",
      "taf": "TAF LGTS 030500Z 0306/0406 33013KT 9999 FEW030"
    },
    {
      "icao": "LHBP",
      "alert": "OK",
      "vis_m": 9999,
      "fzfg": false,
      "metar_trigger": false,
      "taf_trigger": false,
      "metar": "METAR LHBP 031100Z 31016KT CAVOK 29/11 Q1017 NOSIG",
      "taf": "TAF LHBP 030515Z 0306/0406 31004KT CAVOK"
    },
    {
      "icao": "LHDC",
      "alert": "OK",
      "vis_m": 9999,
      "fzfg": false,
      "metar_trigger": false,
      "taf_trigger": false,
      "metar": "METAR LHDC 031045Z AUTO 35010KT 290V030 CAVOK 30/10 Q1015 NOSIG",
      "taf": "TAF LHDC 030815Z 0309/0318 35013KT CAVOK"
    },
    {
      "icao": "LIBD",
      "alert": "OK",
      "vis_m": 9999,
      "fzfg": false,
      "metar_trigger": false,
      "taf_trigger": false,
      "metar": "METAR LIBD 031050Z 34012KT 310V020 9999 FEW040 29/22 Q1014",
      "taf": "TAF LIBD 030500Z 0306/0406 28008KT CAVOK"
    },
    {
      "icao": "LIBG",
      "alert": "OK",
      "vis_m": 9999,
      "fzfg": false,
      "metar_trigger": false,
      "taf_trigger": false,
      "metar": "METAR LIBG 031050Z AUTO 36013KT 300V030 9999 SCT056/// 32/17 Q1013",
      "taf": "TAF LIBG 030500Z 0306/0406 35012KT 9999 FEW020"
    },
    {
      "icao": "LIBP",
      "alert": "OK",
      "vis_m": 9999,
      "fzfg": false,
      "metar_trigger": false,
      "taf_trigger": false,
      "metar": "METAR LIBP 031050Z AUTO 03009KT 350V060 9999 FEW089/// 31/15 Q1017",
      "taf": "TAF LIBP 030500Z 0306/0406 24006KT CAVOK"
    },
    {
      "icao": "LIBR",
      "alert": "OK",
      "vis_m": 9999,
      "fzfg": false,
      "metar_trigger": false,
      "taf_trigger": false,
      "metar": "METAR LIBR 031050Z 35015KT CAVOK 29/22 Q1013",
      "taf": "TAF LIBR 030500Z 0306/0406 35014KT 9999 FEW020"
    },
    {
      "icao": "LICA",
      "alert": "OK",
      "vis_m": 9999,
      "fzfg": false,
      "metar_trigger": false,
      "taf_trigger": false,
      "metar": "METAR LICA 031050Z AUTO 26011KT 9999 TS FEW018/// SCT041/// 28/23 Q1013",
      "taf": "TAF LICA 030500Z 0306/0406 VRB06KT 9999 SCT030"
    },
    {
      "icao": "LICC",
      "alert": "OK",
      "vis_m": 9999,
      "fzfg": false,
      "metar_trigger": false,
      "taf_trigger": false,
      "metar": "METAR LICC 031050Z 08011KT 9999 SCT020CB 27/20 Q1013",
      "taf": "TAF LICC 030500Z 0306/0406 VRB05KT 9999 SCT040"
    },
    {
      "icao": "LICJ",
      "alert": "OK",
      "vis_m": 9999,
      "fzfg": false,
      "metar_trigger": false,
      "taf_trigger": false,
      "metar": "METAR LICJ 031050Z 36009KT 9999 FEW025 27/21 Q1014",
      "taf": "TAF LICJ 030500Z 0306/0406 20007KT 9999 SCT030"
    },
    {
      "icao": "LIMC",
      "alert": "OK",
      "vis_m": 9999,
      "fzfg": false,
      "metar_trigger": false,
      "taf_trigger": false,
      "metar": "METAR LIMC 031050Z VRB05KT 9999 FEW080 32/10 Q1019 NOSIG",
      "taf": "TAF LIMC 030500Z 0306/0412 VRB05KT CAVOK"
    },
    {
      "icao": "LIME",
      "alert": "OK",
      "vis_m": 9999,
      "fzfg": false,
      "metar_trigger": false,
      "taf_trigger": false,
      "metar": "METAR LIME 031050Z 17004KT 120V210 CAVOK 29/14 Q1019 NOSIG",
      "taf": "TAF LIME 030500Z 0306/0406 VRB05KT CAVOK"
    },
    {
      "icao": "LIMF",
      "alert": "OK",
      "vis_m": 9999,
      "fzfg": false,
      "metar_trigger": false,
      "taf_trigger": false,
      "metar": "METAR LIMF 031050Z 14004KT 060V200 CAVOK 31/09 Q1020",
      "taf": "TAF LIMF 030500Z 0306/0406 VRB05KT CAVOK"
    },
    {
      "icao": "LIMJ",
      "alert": "OK",
      "vis_m": 9999,
      "fzfg": false,
      "metar_trigger": false,
      "taf_trigger": false,
      "metar": "METAR LIMJ 031050Z 23010KT CAVOK 27/20 Q1017",
      "taf": "TAF LIMJ 030500Z 0306/0406 03010KT CAVOK"
    },
    {
      "icao": "LIPE",
      "alert": "OK",
      "vis_m": 9999,
      "fzfg": false,
      "metar_trigger": false,
      "taf_trigger": false,
      "metar": "METAR LIPE 031050Z 07008KT 040V100 CAVOK 30/15 Q1018",
      "taf": "TAF LIPE 030500Z 0306/0406 VRB05KT CAVOK"
    },
    {
      "icao": "LIPH",
      "alert": "OK",
      "vis_m": 9999,
      "fzfg": false,
      "metar_trigger": false,
      "taf_trigger": false,
      "metar": "METAR LIPH 031050Z 16004KT 110V210 CAVOK 31/14 Q1018",
      "taf": "TAF LIPH 030500Z 0306/0406 VRB05KT CAVOK"
    },
    {
      "icao": "LIPQ",
      "alert": "OK",
      "vis_m": 9999,
      "fzfg": false,
      "metar_trigger": false,
      "taf_trigger": false,
      "metar": "METAR LIPQ 031050Z AUTO 31006KT 260V360 9999 NCD 31/15 Q1018",
      "taf": "TAF LIPQ 030500Z 0306/0406 VRB05KT CAVOK"
    },
    {
      "icao": "LIPR",
      "alert": "OK",
      "vis_m": 9999,
      "fzfg": false,
      "metar_trigger": false,
      "taf_trigger": false,
      "metar": "METAR LIPR 031050Z 05006KT 360V150 CAVOK 29/16 Q1018",
      "taf": "TAF LIPR 030500Z 0306/0406 VRB05KT CAVOK"
    },
    {
      "icao": "LIPX",
      "alert": "OK",
      "vis_m": 9999,
      "fzfg": false,
      "metar_trigger": false,
      "taf_trigger": false,
      "metar": "METAR LIPX 031050Z 18004KT 140V250 CAVOK 31/17 Q1019",
      "taf": "TAF LIPX 030500Z 0306/0406 VRB05KT CAVOK"
    },
    {
      "icao": "LIPY",
      "alert": "OK",
      "vis_m": 9999,
      "fzfg": false,
      "metar_trigger": false,
      "taf_trigger": false,
      "metar": "METAR LIPY 031050Z AUTO 04007KT 360V070 9999 NCD 29/18 Q1018",
      "taf": "TAF LIPY 030500Z 0306/0406 VRB05KT CAVOK"
    },
    {
      "icao": "LIPZ",
      "alert": "OK",
      "vis_m": 9999,
      "fzfg": false,
      "metar_trigger": false,
      "taf_trigger": false,
      "metar": "METAR LIPZ 031050Z 15003KT 100V200 CAVOK 30/15 Q1019 NOSIG",
      "taf": "TAF LIPZ 030500Z 0306/0412 03006KT CAVOK"
    },
    {
      "icao": "LIRF",
      "alert": "OK",
      "vis_m": 9999,
      "fzfg": false,
      "metar_trigger": false,
      "taf_trigger": false,
      "metar": "METAR LIRF 031050Z 27009KT 240V310 CAVOK 32/16 Q1015 NOSIG",
      "taf": "TAF LIRF 030500Z 0306/0412 06010KT 9999 FEW030"
    },
    {
      "icao": "LIRN",
      "alert": "OK",
      "vis_m": 9999,
      "fzfg": false,
      "metar_trigger": false,
      "taf_trigger": false,
      "metar": "METAR LIRN 031050Z 04008KT 280V090 CAVOK 32/16 Q1015 NOSIG",
      "taf": "TAF LIRN 030500Z 0306/0406 04007KT 9999 SCT030"
    },
    {
      "icao": "LIRP",
      "alert": "OK",
      "vis_m": 9999,
      "fzfg": false,
      "metar_trigger": false,
      "taf_trigger": false,
      "metar": "METAR LIRP 031045Z 07008KT CAVOK 32/14 Q1017 NOSIG",
      "taf": "TAF LIRP 030500Z 0306/0406 10004KT CAVOK"
    },
    {
      "icao": "LIRZ",
      "alert": "OK",
      "vis_m": 9999,
      "fzfg": false,
      "metar_trigger": false,
      "taf_trigger": false,
      "metar": "METAR LIRZ 031050Z AUTO 03017KT 9999 FEW062/// 30/15 Q1017",
      "taf": "TAF LIRZ 030500Z 0306/0406 02013KT CAVOK"
    },
    {
      "icao": "LJLJ",
      "alert": "OK",
      "vis_m": 9999,
      "fzfg": false,
      "metar_trigger": false,
      "taf_trigger": false,
      "metar": "METAR LJLJ 031100Z 05006KT 030V110 9999 FEW075 BKN085 26/11 Q1020 NOSIG",
      "taf": "TAF LJLJ 031100Z 0312/0412 09006KT 9999 FEW070 BKN085"
    },
    {
      "icao": "LKMT",
      "alert": "OK",
      "vis_m": 9999,
      "fzfg": false,
      "metar_trigger": false,
      "taf_trigger": false,
      "metar": "METAR LKMT 031100Z 03008KT 9999 BKN046 22/11 Q1020 NOSIG",
      "taf": "TAF LKMT 030500Z 0306/0406 35010KT CAVOK"
    },
    {
      "icao": "LKPR",
      "alert": "OK",
      "vis_m": 9999,
      "fzfg": false,
      "metar_trigger": false,
      "taf_trigger": false,
      "metar": "METAR LKPR 031100Z 30014KT CAVOK 20/06 Q1024 NOSIG",
      "taf": "TAF LKPR 030800Z 0309/0415 32014KT 9999 BKN035"
    },
    {
      "icao": "LLBG",
      "alert": "OK",
      "vis_m": 9999,
      "fzfg": false,
      "metar_trigger": false,
      "taf_trigger": false,
      "metar": "METAR LLBG 031050Z 26011KT 230V300 9999 FEW035 31/21 Q1008 NOSIG",
      "taf": "TAF LLBG 031103Z 0312/0412 28012KT 9999 FEW035 TX31/0312Z TN24/0403Z"
    },
    {
      "icao": "LMML",
      "alert": "OK",
      "vis_m": 9999,
      "fzfg": false,
      "metar_trigger": false,
      "taf_trigger": false,
      "metar": "METAR LMML 031045Z 27012KT 230V300 9999 FEW027 29/19 Q1015 NOSIG",
      "taf": "TAF LMML 031100Z 0312/0412 30013KT 9999 FEW020"
    },
    {
      "icao": "LOWW",
      "alert": "OK",
      "vis_m": 9999,
      "fzfg": false,
      "metar_trigger": false,
      "taf_trigger": false,
      "metar": "METAR LOWW 031050Z 32017G27KT 290V350 9999 SCT050 26/11 Q1021 NOSIG",
      "taf": "TAF LOWW 030815Z 0309/0415 33015KT CAVOK TX27/0315Z TN15/0403Z"
    },
    {
      "icao": "LPFR",
      "alert": "OK",
      "vis_m": 9999,
      "fzfg": false,
      "metar_trigger": false,
      "taf_trigger": false,
      "metar": "METAR LPFR 031100Z 09013KT CAVOK 30/18 Q1018",
      "taf": "TAF LPFR 030500Z 0306/0406 09012KT CAVOK"
    },
    {
      "icao": "LPMA",
      "alert": "OK",
      "vis_m": 9999,
      "fzfg": false,
      "metar_trigger": false,
      "taf_trigger": false,
      "metar": "METAR LPMA 031100Z 18006KT 140V230 CAVOK 24/20 Q1016",
      "taf": "TAF LPMA 030500Z 0306/0406 VRB05KT 9999 SCT013"
    },
    {
      "icao": "LPPR",
      "alert": "OK",
      "vis_m": 9999,
      "fzfg": false,
      "metar_trigger": false,
      "taf_trigger": false,
      "metar": "METAR LPPR 031100Z 08010KT CAVOK 34/12 Q1020",
      "taf": "TAF LPPR 030500Z 0306/0406 08008KT CAVOK"
    },
    {
      "icao": "LPPS",
      "alert": "OK",
      "vis_m": 9999,
      "fzfg": false,
      "metar_trigger": false,
      "taf_trigger": false,
      "metar": "METAR LPPS 031100Z 35021KT 9999 FEW008 23/19 Q1017",
      "taf": "TAF LPPS 030500Z 0306/0412 01012KT 9999 SCT012"
    },
    {
      "icao": "LPPT",
      "alert": "OK",
      "vis_m": 9999,
      "fzfg": false,
      "metar_trigger": false,
      "taf_trigger": false,
      "metar": "METAR LPPT 031100Z VRB06G21KT CAVOK 34/12 Q1019 NOSIG",
      "taf": "TAF LPPT 030500Z 0306/0412 04010KT CAVOK"
    },
    {
      "icao": "LQBK",
      "alert": "OK",
      "vis_m": 9999,
      "fzfg": false,
      "metar_trigger": false,
      "taf_trigger": false,
      "metar": "METAR LQBK 031100Z 31007KT 260V010 CAVOK 29/12 Q1018 NOSIG",
      "taf": "TAF LQBK 031100Z 0312/0412 22005KT CAVOK TX29/0313Z TN14/0403Z"
    },
    {
      "icao": "LQSA",
      "alert": "OK",
      "vis_m": 9999,
      "fzfg": false,
      "metar_trigger": false,
      "taf_trigger": false,
      "metar": "METAR LQSA 031100Z 32006KT 260V060 9999 FEW065 23/12 Q1020 NOSIG",
      "taf": "TAF LQSA 031100Z 0312/0412 33005KT 9999 SCT055 TX26/0313Z TN03/0403Z"
    },
    {
      "icao": "LQTZ",
      "alert": "OK",
      "vis_m": 9999,
      "fzfg": false,
      "metar_trigger": false,
      "taf_trigger": false,
      "metar": "METAR LQTZ 031100Z 31006KT 260V340 CAVOK 25/16 Q1019",
      "taf": "TAF LQTZ 031100Z 0312/0412 27005KT 9999 SCT040 TX27/0314Z TN13/0403Z"
    },
    {
      "icao": "LRBC",
      "alert": "OK",
      "vis_m": 9999,
      "fzfg": false,
      "metar_trigger": false,
      "taf_trigger": false,
      "metar": "METAR LRBC 031100Z 36012KT 9999 FEW033 27/20 Q1012",
      "taf": "TAF LRBC 030800Z 0309/0318 34012KT 9999 SCT025 BKN040"
    },
    {
      "icao": "LRBS",
      "alert": "OK",
      "vis_m": 9999,
      "fzfg": false,
      "metar_trigger": false,
      "taf_trigger": false,
      "metar": "METAR LRBS 031100Z VRB04KT 9999 BKN048 30/19 Q1010 NOSIG",
      "taf": ""
    },
    {
      "icao": "LRBV",
      "alert": "OK",
      "vis_m": 9999,
      "fzfg": false,
      "metar_trigger": false,
      "taf_trigger": false,
      "metar": "METAR LRBV 031100Z 31008KT 260V340 9999 SCT028 26/18 Q1014",
      "taf": "TAF LRBV 030800Z 0309/0318 30008KT 9999 SCT020 BKN035"
    },
    {
      "icao": "LRCL",
      "alert": "OK",
      "vis_m": 9999,
      "fzfg": false,
      "metar_trigger": false,
      "taf_trigger": false,
      "metar": "METAR LRCL 031100Z 31008KT 250V010 9999 FEW025 SCT038 FEW042CB 25/17 Q1014",
      "taf": "TAF LRCL 030800Z 0309/0318 VRB04KT 9999 SCT020 BKN030"
    },
    {
      "icao": "LRCV",
      "alert": "OK",
      "vis_m": 9999,
      "fzfg": false,
      "metar_trigger": false,
      "taf_trigger": false,
      "metar": "METAR LRCV 031100Z 27005KT 230V310 9999 SCT045 30/18 Q1012",
      "taf": "TAF LRCV 030800Z 0309/0318 28006KT CAVOK"
    },
    {
      "icao": "LRIA",
      "alert": "OK",
      "vis_m": 9999,
      "fzfg": false,
      "metar_trigger": false,
      "taf_trigger": false,
      "metar": "METAR LRIA 031100Z 31013KT 9999 BKN027 25/18 Q1012",
      "taf": "TAF LRIA 030800Z 0309/0318 31012KT 9999 SCT030"
    },
    {
      "icao": "LROP",
      "alert": "OK",
      "vis_m": 9999,
      "fzfg": false,
      "metar_trigger": false,
      "taf_trigger": false,
      "metar": "METAR LROP 031100Z 27007KT 240V300 9999 SCT048 31/19 Q1011 NOSIG",
      "taf": ""
    },
    {
      "icao": "LRSB",
      "alert": "OK",
      "vis_m": 9999,
      "fzfg": false,
      "metar_trigger": false,
      "taf_trigger": false,
      "metar": "METAR LRSB 031100Z 34007KT 9999 FEW030 FEW035TCU FEW040CB 26/19 Q1014",
      "taf": ""
    },
    {
      "icao": "LRSM",
      "alert": "OK",
      "vis_m": 9999,
      "fzfg": false,
      "metar_trigger": false,
      "taf_trigger": false,
      "metar": "METAR LRSM 031100Z 35009KT 310V010 CAVOK 27/13 Q1014",
      "taf": "TAF LRSM 030800Z 0309/0318 33005KT CAVOK"
    },
    {
      "icao": "LRSV",
      "alert": "OK",
      "vis_m": 9999,
      "fzfg": false,
      "metar_trigger": false,
      "taf_trigger": false,
      "metar": "METAR LRSV 031100Z 31015KT CAVOK 21/17 Q1014",
      "taf": "TAF LRSV 030800Z 0309/0318 30015KT 9999 SCT030"
    },
    {
      "icao": "LRTM",
      "alert": "OK",
      "vis_m": 9999,
      "fzfg": false,
      "metar_trigger": false,
      "taf_trigger": false,
      "metar": "METAR LRTM 031100Z VRB03KT 9999 VCSH SCT022 SCT036CB 24/20 Q1014",
      "taf": "TAF LRTM 030800Z 0309/0318 28008KT 9999 SCT015 BKN035"
    },
    {
      "icao": "LRTR",
      "alert": "OK",
      "vis_m": 9999,
      "fzfg": false,
      "metar_trigger": false,
      "taf_trigger": false,
      "metar": "METAR LRTR 031100Z 33011KT 300V010 9999 FEW040 29/13 Q1015",
      "taf": "TAF LRTR 030500Z 0306/0406 34010KT CAVOK"
    },
    {
      "icao": "LTAC",
      "alert": "OK",
      "vis_m": 9999,
      "fzfg": false,
      "metar_trigger": false,
      "taf_trigger": false,
      "metar": "METAR LTAC 031050Z 26010KT 200V320 9999 FEW040 31/07 Q1011 NOSIG",
      "taf": "TAF LTAC 031040Z 0312/0412 32012KT 9999 SCT040"
    },
    {
      "icao": "LTFM",
      "alert": "OK",
      "vis_m": 9999,
      "fzfg": false,
      "metar_trigger": false,
      "taf_trigger": false,
      "metar": "METAR LTFM 031050Z 02009KT 330V080 9999 FEW033 28/18 Q1011 NOSIG",
      "taf": "TAF LTFM 031040Z 0312/0418 02012KT 9999 FEW033"
    },
    {
      "icao": "LUKK",
      "alert": "OK",
      "vis_m": 9999,
      "fzfg": false,
      "metar_trigger": false,
      "taf_trigger": false,
      "metar": "METAR LUKK 031100Z 32013KT 290V350 CAVOK 29/19 Q1009 NOSIG",
      "taf": "TAF LUKK 031101Z 0312/0412 33012KT 9999 SCT030"
    },
    {
      "icao": "LWOH",
      "alert": "OK",
      "vis_m": 9999,
      "fzfg": false,
      "metar_trigger": false,
      "taf_trigger": false,
      "metar": "METAR LWOH 031050Z 16008KT 9999 FEW040TCU SCT050 25/19 Q1016",
      "taf": "TAF LWOH 030830Z 0309/0409 34008KT 9999 SCT045"
    },
    {
      "icao": "LWSK",
      "alert": "OK",
      "vis_m": 9999,
      "fzfg": false,
      "metar_trigger": false,
      "taf_trigger": false,
      "metar": "METAR LWSK 031050Z 33012KT 290V360 9999 FEW033TCU BKN040 26/18 Q1015 NOSIG",
      "taf": "TAF LWSK 030830Z 0309/0409 33005KT 9999 BKN050"
    },
    {
      "icao": "LYBE",
      "alert": "OK",
      "vis_m": 9999,
      "fzfg": false,
      "metar_trigger": false,
      "taf_trigger": false,
      "metar": "METAR LYBE 031100Z 34008KT 280V020 CAVOK 27/14 Q1017 NOSIG",
      "taf": "TAF LYBE 030500Z 0306/0406 31010KT CAVOK TX28/0314Z TN18/0403Z"
    },
    {
      "icao": "LYNI",
      "alert": "OK",
      "vis_m": 9999,
      "fzfg": false,
      "metar_trigger": false,
      "taf_trigger": false,
      "metar": "METAR LYNI 031100Z 31010KT 280V340 9999 SCT022 BKN030 22/18 Q1016 TEMPO 32020KT",
      "taf": "TAF LYNI 030500Z 0306/0406 32008KT 9999 SCT009 BKN025 TX25/0314Z TN18/0403Z"
    },
    {
      "icao": "LYPG",
      "alert": "OK",
      "vis_m": 9999,
      "fzfg": false,
      "metar_trigger": false,
      "taf_trigger": false,
      "metar": "METAR LYPG 031100Z 36016KT 320V020 9999 FEW034 33/14 Q1013 NOSIG",
      "taf": "TAF LYPG 030500Z 0306/0406 36012KT 9999 FEW080 TX33/0313Z TN21/0403Z"
    },
    {
      "icao": "LZIB",
      "alert": "OK",
      "vis_m": 9999,
      "fzfg": false,
      "metar_trigger": false,
      "taf_trigger": false,
      "metar": "METAR LZIB 031100Z 31018G29KT CAVOK 25/09 Q1020 NOSIG",
      "taf": ""
    },
    {
      "icao": "LZKZ",
      "alert": "OK",
      "vis_m": 9999,
      "fzfg": false,
      "metar_trigger": false,
      "taf_trigger": false,
      "metar": "METAR LZKZ 031100Z 36017KT 9999 -SHRA FEW040 24/14 Q1016 NOSIG",
      "taf": ""
    },
    {
      "icao": "LZTT",
      "alert": "OK",
      "vis_m": 9999,
      "fzfg": false,
      "metar_trigger": false,
      "taf_trigger": false,
      "metar": "METAR LZTT 031100Z 11005KT 060V220 9999 FEW026 BKN050 19/14 Q1019 NOSIG",
      "taf": ""
    },
    {
      "icao": "OEJN",
      "alert": "OK",
      "vis_m": 9999,
      "fzfg": false,
      "metar_trigger": false,
      "taf_trigger": false,
      "metar": "METAR OEJN 031100Z 28009KT CAVOK 35/24 Q1004 NOSIG",
      "taf": "TAF OEJN 030500Z 0306/0412 32014KT CAVOK"
    },
    {
      "icao": "OEMA",
      "alert": "OK",
      "vis_m": 9999,
      "fzfg": false,
      "metar_trigger": false,
      "taf_trigger": false,
      "metar": "METAR OEMA 031100Z 31009KT CAVOK 44/M03 Q1009 NOSIG",
      "taf": "TAF OEMA 030500Z 0306/0412 28012KT CAVOK"
    },
    {
      "icao": "OJAI",
      "alert": "OK",
      "vis_m": 4000,
      "fzfg": false,
      "metar_trigger": false,
      "taf_trigger": false,
      "metar": "METAR OJAI 031100Z 28018KT 4000 BLDU NSC 29/15 Q1012 NOSIG",
      "taf": "TAF OJAI 030500Z 0306/0412 29008KT 5000 HZ NSC"
    },
    {
      "icao": "OMAA",
      "alert": "OK",
      "vis_m": 9999,
      "fzfg": false,
      "metar_trigger": false,
      "taf_trigger": false,
      "metar": "METAR OMAA 031100Z 31011KT 290V350 CAVOK 39/22 Q0999 NOSIG",
      "taf": "TAF OMAA 031100Z 0312/0418 32013KT 8000 NSC"
    },
    {
      "icao": "OMDB",
      "alert": "OK",
      "vis_m": 6000,
      "fzfg": false,
      "metar_trigger": false,
      "taf_trigger": false,
      "metar": "METAR OMDB 031100Z 01015KT 6000 NSC 39/28 Q0998 NOSIG",
      "taf": "TAF OMDB 031100Z 0312/0418 34014KT 7000 NSC"
    },
    {
      "icao": "UAAA",
      "alert": "OK",
      "vis_m": 9999,
      "fzfg": false,
      "metar_trigger": false,
      "taf_trigger": false,
      "metar": "METAR UAAA 031100Z VRB01MPS 9999 SCT010 BKN050CB OVC100 18/16 Q1014 NOSIG",
      "taf": "TAF UAAA 030503Z 0306/0406 02003G08MPS 6000 -SHRA BKN040CB OVC100 TX20/0310Z TN13/0401Z"
    },
    {
      "icao": "UBBB",
      "alert": "OK",
      "vis_m": 9999,
      "fzfg": false,
      "metar_trigger": false,
      "taf_trigger": false,
      "metar": "METAR UBBB 031100Z 16014KT CAVOK 29/16 Q1008 NOSIG",
      "taf": "TAF UBBB 031056Z 0312/0412 16012KT CAVOK TX30/0312Z TN22/0401Z"
    },
    {
      "icao": "UDSG",
      "alert": "OK",
      "vis_m": 9999,
      "fzfg": false,
      "metar_trigger": false,
      "taf_trigger": false,
      "metar": "METAR UDSG 031100Z 08010KT 9999 SCT049CB 27/11 Q1014 NOSIG",
      "taf": "TAF UDSG 030500Z 0306/0406 24006KT 9999 SCT050"
    },
    {
      "icao": "UDYZ",
      "alert": "OK",
      "vis_m": 9999,
      "fzfg": false,
      "metar_trigger": false,
      "taf_trigger": false,
      "metar": "METAR UDYZ 031100Z 13002KT 9999 FEW043CB 35/10 Q1007 NOSIG",
      "taf": "TAF UDYZ 030500Z 0306/0406 20004KT 9999 FEW040"
    },
    {
      "icao": "UGKO",
      "alert": "OK",
      "vis_m": 9999,
      "fzfg": false,
      "metar_trigger": false,
      "taf_trigger": false,
      "metar": "METAR UGKO 031100Z VRB02KT 9999 SCT032 28/21 Q1007 NOSIG",
      "taf": "TAF UGKO 031100Z 0312/0412 26007KT 9999 SCT030 BKN050 TX28/0312Z TN20/0402Z"
    }
  ]
}