{
  "ts_utc": "2026-02-28T09:57:40Z",
  "threshold_m": 150,
  "source": "stations_override.txt (ICAO list) + aviationweather.gov (METAR/TAF raw)",
  "station_count": 159,
  "stations": [
    {
      "icao": "BIKF",
      "alert": "OK",
      "vis_m": 9999,
      "fzfg": false,
      "metar_trigger": false,
      "taf_trigger": false,
      "metar": "METAR BIKF 280930Z 18008KT 9999 SCT025 BKN070 M02/M04 Q1001",
      "taf": "TAF BIKF 280751Z 2809/0109 19008KT 9999 FEW020 BKN040 TX02/2814Z TNM03/2809Z"
    },
    {
      "icao": "BKPR",
      "alert": "OK",
      "vis_m": null,
      "fzfg": false,
      "metar_trigger": false,
      "taf_trigger": false,
      "metar": "",
      "taf": "TAF BKPR 280530Z 2806/0106 VRB05KT CAVOK"
    },
    {
      "icao": "EBCI",
      "alert": "OK",
      "vis_m": 9999,
      "fzfg": false,
      "metar_trigger": false,
      "taf_trigger": false,
      "metar": "METAR EBCI 280950Z 21019KT 9999 SCT024 BKN030 09/04 Q1017 TEMPO 21015G25KT",
      "taf": "TAF EBCI 280515Z 2806/0112 21012KT 9999 SCT016 BKN025"
    },
    {
      "icao": "EDDB",
      "alert": "OK",
      "vis_m": 9999,
      "fzfg": false,
      "metar_trigger": false,
      "taf_trigger": false,
      "metar": "METAR EDDB 280950Z AUTO 19009KT CAVOK 15/07 Q1018 NOSIG",
      "taf": "TAF EDDB 280500Z 2806/0106 17005KT CAVOK"
    },
    {
      "icao": "EDDH",
      "alert": "OK",
      "vis_m": 9999,
      "fzfg": false,
      "metar_trigger": false,
      "taf_trigger": false,
      "metar": "METAR EDDH 280950Z AUTO 22013KT 190V250 9999 BKN015 BKN021 12/10 Q1014 NOSIG",
      "taf": "TAF EDDH 280500Z 2806/0112 20006KT 9999 BKN020"
    },
    {
      "icao": "EDDK",
      "alert": "OK",
      "vis_m": 9999,
      "fzfg": false,
      "metar_trigger": false,
      "taf_trigger": false,
      "metar": "METAR EDDK 280950Z AUTO 20009KT 160V230 9999 OVC045 13/04 Q1018 BECMG 23014KT",
      "taf": "TAF EDDK 280500Z 2806/0112 17007KT 9999 FEW045"
    },
    {
      "icao": "EDDN",
      "alert": "OK",
      "vis_m": 9999,
      "fzfg": false,
      "metar_trigger": false,
      "taf_trigger": false,
      "metar": "METAR EDDN 280950Z AUTO VRB02KT CAVOK 13/06 Q1021 NOSIG",
      "taf": "TAF EDDN 280500Z 2806/0106 13006KT CAVOK"
    },
    {
      "icao": "EDDS",
      "alert": "OK",
      "vis_m": 9999,
      "fzfg": false,
      "metar_trigger": false,
      "taf_trigger": false,
      "metar": "METAR EDDS 280950Z AUTO 13004KT 080V190 CAVOK 13/06 Q1021 NOSIG",
      "taf": "TAF EDDS 280500Z 2806/0106 VRB03KT CAVOK"
    },
    {
      "icao": "EDFH",
      "alert": "OK",
      "vis_m": 9999,
      "fzfg": false,
      "metar_trigger": false,
      "taf_trigger": false,
      "metar": "METAR EDFH 280950Z 24018KT 190V280 9999 SCT022 BKN028 09/04 Q1019",
      "taf": "TAF EDFH 280500Z 2806/0106 22009KT 9999 SCT015"
    },
    {
      "icao": "EDJA",
      "alert": "OK",
      "vis_m": 9999,
      "fzfg": false,
      "metar_trigger": false,
      "taf_trigger": false,
      "metar": "METAR EDJA 280950Z 23009KT CAVOK 11/05 Q1022",
      "taf": "TAF EDJA 280800Z 2809/2818 23009KT 9999 FEW030"
    },
    {
      "icao": "EDLW",
      "alert": "OK",
      "vis_m": 9999,
      "fzfg": false,
      "metar_trigger": false,
      "taf_trigger": false,
      "metar": "METAR EDLW 280950Z 21013KT 9999 SCT039 12/04 Q1016",
      "taf": "TAF EDLW 280500Z 2806/0106 19010KT 9999 BKN035"
    },
    {
      "icao": "EDNY",
      "alert": "OK",
      "vis_m": 9999,
      "fzfg": false,
      "metar_trigger": false,
      "taf_trigger": false,
      "metar": "METAR EDNY 280950Z VRB02KT 9999 BKN053 11/05 Q1023",
      "taf": "TAF EDNY 280800Z 2809/2818 VRB02KT CAVOK"
    },
    {
      "icao": "EDSB",
      "alert": "OK",
      "vis_m": 9999,
      "fzfg": false,
      "metar_trigger": false,
      "taf_trigger": false,
      "metar": "METAR EDSB 280950Z 22011KT CAVOK 14/08 Q1022",
      "taf": "TAF EDSB 280500Z 2806/0106 22005KT 9999 SCT030"
    },
    {
      "icao": "EETN",
      "alert": "OK",
      "vis_m": 1700,
      "fzfg": false,
      "metar_trigger": false,
      "taf_trigger": false,
      "metar": "METAR EETN 280950Z 24006KT 1700 BR BKN002 OVC005 03/03 Q1015 TEMPO 1000",
      "taf": ""
    },
    {
      "icao": "EFTU",
      "alert": "OK",
      "vis_m": 9999,
      "fzfg": false,
      "metar_trigger": false,
      "taf_trigger": false,
      "metar": "METAR EFTU 280950Z AUTO 26009KT 9999 OVC004 02/02 Q1013",
      "taf": "TAF EFTU 280828Z 2809/0109 26006KT 9000 OVC003"
    },
    {
      "icao": "EGBB",
      "alert": "OK",
      "vis_m": 9999,
      "fzfg": false,
      "metar_trigger": false,
      "taf_trigger": false,
      "metar": "METAR EGBB 280950Z 30010KT 9999 FEW011 BKN025 07/05 Q1015",
      "taf": ""
    },
    {
      "icao": "EGGP",
      "alert": "OK",
      "vis_m": 9999,
      "fzfg": false,
      "metar_trigger": false,
      "taf_trigger": false,
      "metar": "METAR EGGP 280950Z 28012KT 9999 0700NW R27/2000 -RA FEW009 BKN015 BKN031 06/05 Q1016",
      "taf": "TAF EGGP 280457Z 2806/0106 29003KT 9999 FEW020"
    },
    {
      "icao": "EGGW",
      "alert": "OK",
      "vis_m": 9999,
      "fzfg": false,
      "metar_trigger": false,
      "taf_trigger": false,
      "metar": "METAR EGGW 280950Z AUTO 29018KT 9999 -RA SCT009 BKN015 BKN020 06/05 Q1013",
      "taf": ""
    },
    {
      "icao": "EGKK",
      "alert": "OK",
      "vis_m": 9999,
      "fzfg": false,
      "metar_trigger": false,
      "taf_trigger": false,
      "metar": "METAR EGKK 280950Z 27013KT 9999 SCT016 SCT025 08/06 Q1015",
      "taf": "TAF EGKK 280459Z 2806/0112 29012KT 9999 SCT007 BKN020"
    },
    {
      "icao": "EGNM",
      "alert": "OK",
      "vis_m": 9999,
      "fzfg": false,
      "metar_trigger": false,
      "taf_trigger": false,
      "metar": "METAR EGNM 280950Z 36009KT 320V030 9999 SCT010 SCT021 06/03 Q1014",
      "taf": "TAF EGNM 280526Z 2806/0106 02012KT 9999 FEW008 SCT012"
    },
    {
      "icao": "EGPD",
      "alert": "OK",
      "vis_m": 9999,
      "fzfg": false,
      "metar_trigger": false,
      "taf_trigger": false,
      "metar": "METAR EGPD 280950Z COR AUTO VRB02KT 9999 NCD 02/M01 Q1015 NOSIG",
      "taf": "TAF EGPD 280458Z 2806/0106 VRB03KT 9999 FEW040"
    },
    {
      "icao": "EGPF",
      "alert": "OK",
      "vis_m": 9999,
      "fzfg": false,
      "metar_trigger": false,
      "taf_trigger": false,
      "metar": "METAR EGPF 280950Z AUTO 04004KT 9999 BKN032 OVC047 05/02 Q1016",
      "taf": "TAF EGPF 280456Z 2806/0106 30005KT 9999 FEW020 SCT035"
    },
    {
      "icao": "EHBK",
      "alert": "OK",
      "vis_m": 9999,
      "fzfg": false,
      "metar_trigger": false,
      "taf_trigger": false,
      "metar": "METAR EHBK 280925Z AUTO 21022G34KT 180V240 9999 FEW027/// BKN031/// BKN035/// 11/05 Q1016 TEMPO 21022G32KT 7000 -SHRA FEW018TCU",
      "taf": "TAF EHBK 280459Z 2806/0112 21012KT CAVOK"
    },
    {
      "icao": "EHEH",
      "alert": "OK",
      "vis_m": 9999,
      "fzfg": false,
      "metar_trigger": false,
      "taf_trigger": false,
      "metar": "METAR EHEH 280925Z AUTO 20020KT 170V230 9999 FEW029 OVC039 11/06 Q1015 BLU TEMPO 22010G25KT RMK TREND REMOTE BY EHWX",
      "taf": "TAF EHEH 280535Z 2806/0112 20011KT 9999 SCT045"
    },
    {
      "icao": "EKBI",
      "alert": "OK",
      "vis_m": 7000,
      "fzfg": false,
      "metar_trigger": false,
      "taf_trigger": false,
      "metar": "METAR EKBI 280950Z AUTO 17006KT 130V190 7000 -RA OVC003/// 09/09 Q1011",
      "taf": ""
    },
    {
      "icao": "EKCH",
      "alert": "OK",
      "vis_m": 900,
      "fzfg": false,
      "metar_trigger": false,
      "taf_trigger": false,
      "metar": "METAR EKCH 280950Z 19003KT 0900 R22L/1200D R04L/0900N R12/P1500N FG -RA OVC002 06/06 Q1014 NOSIG",
      "taf": ""
    },
    {
      "icao": "ENAL",
      "alert": "OK",
      "vis_m": 9999,
      "fzfg": false,
      "metar_trigger": false,
      "taf_trigger": false,
      "metar": "METAR ENAL 280950Z 19012KT 9999 FEW020TCU 05/01 Q1013",
      "taf": "TAF ENAL 280800Z 2809/2818 21012KT 9999 SCT030"
    },
    {
      "icao": "ENBR",
      "alert": "OK",
      "vis_m": 9999,
      "fzfg": false,
      "metar_trigger": false,
      "taf_trigger": false,
      "metar": "METAR ENBR 280950Z 29001KT CAVOK 03/02 Q1014 NOSIG RMK WIND 1200FT 08003KT",
      "taf": "TAF ENBR 280500Z 2806/0106 VRB03KT 9999 FEW025"
    },
    {
      "icao": "ENGM",
      "alert": "OK",
      "vis_m": 250,
      "fzfg": true,
      "metar_trigger": false,
      "taf_trigger": false,
      "metar": "METAR ENGM 280950Z VRB01KT 0250 R19R/0450N R01R/0300N R19L/0325N R01L/0325N FZFG VV002 M02/M03 Q1014 TEMPO 1200 BCFG",
      "taf": "TAF ENGM 280500Z 2806/0106 VRB03KT 0300 FZFG VV002"
    },
    {
      "icao": "ENHD",
      "alert": "OK",
      "vis_m": 9999,
      "fzfg": false,
      "metar_trigger": false,
      "taf_trigger": false,
      "metar": "METAR ENHD 280950Z 36003KT 9999 FEW030 04/03 Q1014",
      "taf": "TAF ENHD 280800Z 2809/2818 09005KT CAVOK"
    },
    {
      "icao": "ENTC",
      "alert": "OK",
      "vis_m": 9999,
      "fzfg": false,
      "metar_trigger": false,
      "taf_trigger": false,
      "metar": "METAR ENTC 280950Z 19014KT CAVOK 03/M04 Q1001 NOSIG RMK WIND 2600FT 18024KT",
      "taf": "TAF ENTC 280500Z 2806/0106 18014KT 9999 SCT025 BKN035"
    },
    {
      "icao": "ENTO",
      "alert": "WARNING",
      "vis_m": 200,
      "fzfg": true,
      "metar_trigger": false,
      "taf_trigger": true,
      "metar": "METAR ENTO 280950Z 02007KT 0200 R18/0400N R36/0500N FZFG VV002 M01/M01 Q1014 TEMPO 1200 BCFG",
      "taf": "TAF ENTO 280500Z 2806/0106 02005KT 0100 FZFG VV001"
    },
    {
      "icao": "ENVA",
      "alert": "OK",
      "vis_m": 9999,
      "fzfg": false,
      "metar_trigger": false,
      "taf_trigger": false,
      "metar": "METAR ENVA 280950Z VRB02KT 9999 BKN053 03/M03 Q1013 NOSIG RMK WIND 670FT 30004KT",
      "taf": "TAF ENVA 280500Z 2806/0106 24008KT 9999 SCT040"
    },
    {
      "icao": "ENZV",
      "alert": "OK",
      "vis_m": 9000,
      "fzfg": false,
      "metar_trigger": false,
      "taf_trigger": false,
      "metar": "METAR ENZV 280950Z 05005KT 9000 BKN002 02/02 Q1013 BECMG SCT004",
      "taf": "TAF ENZV 280500Z 2806/0106 VRB03KT 0400 FG VV002"
    },
    {
      "icao": "EPGD",
      "alert": "OK",
      "vis_m": 9999,
      "fzfg": false,
      "metar_trigger": false,
      "taf_trigger": false,
      "metar": "METAR EPGD 280930Z 22005KT CAVOK 09/05 Q1017",
      "taf": "TAF EPGD 280530Z 2806/0106 22006KT CAVOK"
    },
    {
      "icao": "EPKK",
      "alert": "OK",
      "vis_m": 9999,
      "fzfg": false,
      "metar_trigger": false,
      "taf_trigger": false,
      "metar": "METAR EPKK 280930Z VRB02KT CAVOK 11/02 Q1023",
      "taf": "TAF EPKK 280830Z 2809/0109 VRB02KT CAVOK"
    },
    {
      "icao": "EPKT",
      "alert": "OK",
      "vis_m": 9999,
      "fzfg": false,
      "metar_trigger": false,
      "taf_trigger": false,
      "metar": "METAR EPKT 280930Z 19010KT CAVOK 10/02 Q1023",
      "taf": "TAF EPKT 280530Z 2806/0106 18004KT CAVOK"
    },
    {
      "icao": "EPLB",
      "alert": "OK",
      "vis_m": 9999,
      "fzfg": false,
      "metar_trigger": false,
      "taf_trigger": false,
      "metar": "METAR EPLB 280930Z 22009KT 200V260 CAVOK 08/01 Q1024",
      "taf": "TAF EPLB 280530Z 2806/0106 20010KT CAVOK"
    },
    {
      "icao": "EPMO",
      "alert": "OK",
      "vis_m": 9999,
      "fzfg": false,
      "metar_trigger": false,
      "taf_trigger": false,
      "metar": "METAR EPMO 280930Z 19007KT CAVOK 10/04 Q1021",
      "taf": "TAF EPMO 280530Z 2806/0106 15004KT CAVOK"
    },
    {
      "icao": "EPPO",
      "alert": "OK",
      "vis_m": 9999,
      "fzfg": false,
      "metar_trigger": false,
      "taf_trigger": false,
      "metar": "METAR EPPO 280930Z 21008KT CAVOK 12/05 Q1019",
      "taf": "TAF EPPO 280530Z 2806/0106 16003KT 5000 BR NSC"
    },
    {
      "icao": "EPRA",
      "alert": "OK",
      "vis_m": 9999,
      "fzfg": false,
      "metar_trigger": false,
      "taf_trigger": false,
      "metar": "METAR EPRA 280930Z 20007KT 170V270 CAVOK 11/03 Q1023",
      "taf": "TAF EPRA 280830Z 2809/2818 19008KT CAVOK"
    },
    {
      "icao": "EPRZ",
      "alert": "OK",
      "vis_m": 9999,
      "fzfg": false,
      "metar_trigger": false,
      "taf_trigger": false,
      "metar": "METAR EPRZ 280930Z 17008KT 140V200 CAVOK 10/M01 Q1024",
      "taf": "TAF EPRZ 280530Z 2806/0106 VRB02KT CAVOK"
    },
    {
      "icao": "EPSC",
      "alert": "OK",
      "vis_m": 9999,
      "fzfg": false,
      "metar_trigger": false,
      "taf_trigger": false,
      "metar": "METAR EPSC 280930Z 16005KT CAVOK 12/06 Q1017",
      "taf": "TAF EPSC 280530Z 2806/0106 16007KT CAVOK"
    },
    {
      "icao": "EPSY",
      "alert": "OK",
      "vis_m": 9999,
      "fzfg": false,
      "metar_trigger": false,
      "taf_trigger": false,
      "metar": "METAR EPSY 280930Z 19007KT CAVOK 07/03 Q1020",
      "taf": "TAF EPSY 280830Z 2809/2818 19006KT CAVOK"
    },
    {
      "icao": "EPWA",
      "alert": "OK",
      "vis_m": 9999,
      "fzfg": false,
      "metar_trigger": false,
      "taf_trigger": false,
      "metar": "METAR EPWA 280930Z 18006KT 140V230 CAVOK 11/03 Q1022 NOSIG",
      "taf": "TAF EPWA 280830Z 2809/0109 17007KT CAVOK"
    },
    {
      "icao": "EPWR",
      "alert": "OK",
      "vis_m": 9999,
      "fzfg": false,
      "metar_trigger": false,
      "taf_trigger": false,
      "metar": "METAR EPWR 280930Z 16005KT 130V220 CAVOK 14/05 Q1020",
      "taf": "TAF EPWR 280830Z 2809/0109 16006KT CAVOK"
    },
    {
      "icao": "ESGG",
      "alert": "OK",
      "vis_m": 600,
      "fzfg": false,
      "metar_trigger": false,
      "taf_trigger": false,
      "metar": "METAR ESGG 280950Z 10004KT 0600 R03/1600D R21/1200N FG VV001 06/05 Q1012",
      "taf": "TAF ESGG 280830Z 2809/0109 15004KT 0400 FG VV002"
    },
    {
      "icao": "ESKN",
      "alert": "OK",
      "vis_m": 9999,
      "fzfg": false,
      "metar_trigger": false,
      "taf_trigger": false,
      "metar": "METAR ESKN 280950Z 31004KT 280V340 9999 BKN007 05/04 Q1014",
      "taf": "TAF ESKN 280830Z 2809/0109 25007KT 9999 BKN007"
    },
    {
      "icao": "ESMS",
      "alert": "OK",
      "vis_m": 2500,
      "fzfg": false,
      "metar_trigger": false,
      "taf_trigger": false,
      "metar": "METAR ESMS 280950Z 19005KT 2500 -DZ BR VV004 07/07 Q1013",
      "taf": "TAF ESMS 280827Z 2809/0109 16005KT 3000 -RADZ BKN030"
    },
    {
      "icao": "ESSA",
      "alert": "OK",
      "vis_m": 7000,
      "fzfg": false,
      "metar_trigger": false,
      "taf_trigger": false,
      "metar": "METAR ESSA 280950Z 24007KT 7000 OVC003 01/01 Q1014 NOSIG",
      "taf": "TAF ESSA 280830Z 2809/0109 26007KT 9999 BKN004"
    },
    {
      "icao": "EYKA",
      "alert": "OK",
      "vis_m": 9999,
      "fzfg": false,
      "metar_trigger": false,
      "taf_trigger": false,
      "metar": "METAR EYKA 280950Z 18004KT 130V240 CAVOK 06/01 Q1019",
      "taf": "TAF EYKA 280502Z 2806/0106 VRB04KT 8000 NSC"
    },
    {
      "icao": "EYPA",
      "alert": "OK",
      "vis_m": 8000,
      "fzfg": false,
      "metar_trigger": false,
      "taf_trigger": false,
      "metar": "METAR EYPA 280950Z 19009KT 8000 NSC 05/03 Q1017",
      "taf": "TAF EYPA 280506Z 2806/0106 VRB04KT 5000 BR SCT005 SCT025"
    },
    {
      "icao": "EYVI",
      "alert": "OK",
      "vis_m": 9999,
      "fzfg": false,
      "metar_trigger": false,
      "taf_trigger": false,
      "metar": "METAR EYVI 280950Z 18008KT CAVOK 05/00 Q1020 NOSIG",
      "taf": "TAF EYVI 280500Z 2806/0106 VRB04KT 8000 NSC"
    },
    {
      "icao": "GCFV",
      "alert": "OK",
      "vis_m": 9999,
      "fzfg": false,
      "metar_trigger": false,
      "taf_trigger": false,
      "metar": "METAR GCFV 280930Z 01024KT 9999 FEW022 19/13 Q1020",
      "taf": "TAF GCFV 280800Z 2809/0109 02022KT 9999 FEW025 TX22/2814Z TN15/0106Z"
    },
    {
      "icao": "GCLP",
      "alert": "OK",
      "vis_m": 9999,
      "fzfg": false,
      "metar_trigger": false,
      "taf_trigger": false,
      "metar": "METAR GCLP 280930Z 35026KT 9999 FEW025 19/13 Q1022 NOSIG",
      "taf": "TAF GCLP 280800Z 2809/0109 01025KT 9999 SCT020 TX21/2814Z TN16/0106Z"
    },
    {
      "icao": "GCTS",
      "alert": "OK",
      "vis_m": 9999,
      "fzfg": false,
      "metar_trigger": false,
      "taf_trigger": false,
      "metar": "METAR GCTS 280930Z VRB02KT CAVOK 21/11 Q1022 BECMG 08025G37KT",
      "taf": "TAF GCTS 280800Z 2809/0109 08025G37KT CAVOK TX24/2814Z TN17/0106Z"
    },
    {
      "icao": "GMAD",
      "alert": "OK",
      "vis_m": 6000,
      "fzfg": false,
      "metar_trigger": false,
      "taf_trigger": false,
      "metar": "METAR GMAD 280930Z 13003KT 110V170 6000 NSC 15/13 Q1015 NOSIG",
      "taf": "TAF GMAD 280500Z 2806/0112 03004KT 6000 NSC"
    },
    {
      "icao": "GMMN",
      "alert": "OK",
      "vis_m": 4000,
      "fzfg": false,
      "metar_trigger": false,
      "taf_trigger": false,
      "metar": "METAR GMMN 280930Z 11005KT 4000 BR BKN003 14/13 Q1022 BECMG 8000 BKN010",
      "taf": "TAF GMMN 280500Z 2806/0112 14003KT 0300 FG BKN001 SCT016"
    },
    {
      "icao": "GMMX",
      "alert": "OK",
      "vis_m": 6000,
      "fzfg": false,
      "metar_trigger": false,
      "taf_trigger": false,
      "metar": "METAR GMMX 280930Z 05004KT 360V080 6000 BKN006 13/10 Q1021 NOSIG",
      "taf": "TAF GMMX 280500Z 2806/0112 02006KT 8000 BKN013"
    },
    {
      "icao": "HEGN",
      "alert": "OK",
      "vis_m": null,
      "fzfg": false,
      "metar_trigger": false,
      "taf_trigger": false,
      "metar": "",
      "taf": "TAF HEGN 280500Z 2806/0112 34018G28KT CAVOK"
    },
    {
      "icao": "HEMA",
      "alert": "OK",
      "vis_m": null,
      "fzfg": false,
      "metar_trigger": false,
      "taf_trigger": false,
      "metar": "",
      "taf": "TAF HEMA 280500Z 2806/0112 36018KT CAVOK"
    },
    {
      "icao": "HESH",
      "alert": "OK",
      "vis_m": null,
      "fzfg": false,
      "metar_trigger": false,
      "taf_trigger": false,
      "metar": "",
      "taf": "TAF HESH 280500Z 2806/0112 03015KT CAVOK"
    },
    {
      "icao": "HESX",
      "alert": "OK",
      "vis_m": null,
      "fzfg": false,
      "metar_trigger": false,
      "taf_trigger": false,
      "metar": "",
      "taf": "TAF HESX 280500Z 2806/0112 VRB04KT CAVOK"
    },
    {
      "icao": "LATI",
      "alert": "OK",
      "vis_m": 9999,
      "fzfg": false,
      "metar_trigger": false,
      "taf_trigger": false,
      "metar": "METAR LATI 280950Z VRB01KT CAVOK 15/07 Q1025 NOSIG",
      "taf": "TAF LATI 280500Z 2806/0106 VRB03KT CAVOK TX18/2812Z TN06/0104Z"
    },
    {
      "icao": "LBPD",
      "alert": "OK",
      "vis_m": 7000,
      "fzfg": false,
      "metar_trigger": false,
      "taf_trigger": false,
      "metar": "METAR LBPD 280930Z AUTO 06004KT 350V090 7000 OVC007/// 01/01 Q1031 NOSIG",
      "taf": "TAF LBPD 280500Z 2806/0106 VRB04KT 3000 BR BKN007"
    },
    {
      "icao": "LBSF",
      "alert": "OK",
      "vis_m": 9999,
      "fzfg": false,
      "metar_trigger": false,
      "taf_trigger": false,
      "metar": "METAR LBSF 280930Z VRB03KT CAVOK 06/M01 Q1027 NOSIG",
      "taf": "TAF LBSF 280500Z 2806/0106 VRB04KT CAVOK"
    },
    {
      "icao": "LBWN",
      "alert": "OK",
      "vis_m": 9999,
      "fzfg": false,
      "metar_trigger": false,
      "taf_trigger": false,
      "metar": "METAR LBWN 280930Z 25005KT 210V270 9999 OVC018 03/M02 Q1030 NOSIG",
      "taf": "TAF LBWN 280500Z 2806/0106 VRB04KT 9999 OVC012"
    },
    {
      "icao": "LCLK",
      "alert": "OK",
      "vis_m": 9999,
      "fzfg": false,
      "metar_trigger": false,
      "taf_trigger": false,
      "metar": "METAR LCLK 280930Z 36007KT 310V040 9999 FEW025 SCT050 16/02 Q1018 NOSIG",
      "taf": "TAF LCLK 280530Z 2806/0106 33009KT 9999 FEW030"
    },
    {
      "icao": "LCPH",
      "alert": "OK",
      "vis_m": 9999,
      "fzfg": false,
      "metar_trigger": false,
      "taf_trigger": false,
      "metar": "METAR LCPH 280930Z 29009KT 250V320 9999 FEW025 16/02 Q1018 NOSIG",
      "taf": "TAF LCPH 280530Z 2806/0106 05009KT 9999 FEW040"
    },
    {
      "icao": "LEAL",
      "alert": "OK",
      "vis_m": 9999,
      "fzfg": false,
      "metar_trigger": false,
      "taf_trigger": false,
      "metar": "METAR LEAL 280930Z 27006KT 240V310 9999 FEW022 16/10 Q1023 NOSIG",
      "taf": ""
    },
    {
      "icao": "LEBB",
      "alert": "OK",
      "vis_m": 9999,
      "fzfg": false,
      "metar_trigger": false,
      "taf_trigger": false,
      "metar": "METAR LEBB 280930Z VRB02KT 9999 SCT025 SCT050 12/08 Q1028 NOSIG",
      "taf": "TAF LEBB 280500Z 2806/0106 31009KT 9999 SCT015 BKN030 TX13/2814Z TN04/0106Z"
    },
    {
      "icao": "LEBL",
      "alert": "OK",
      "vis_m": 9999,
      "fzfg": false,
      "metar_trigger": false,
      "taf_trigger": false,
      "metar": "METAR LEBL 280930Z 05007KT 9999 FEW017 SCT025 BKN029 14/10 Q1025 NOSIG",
      "taf": ""
    },
    {
      "icao": "LECH",
      "alert": "OK",
      "vis_m": 9000,
      "fzfg": false,
      "metar_trigger": false,
      "taf_trigger": false,
      "metar": "METAR LECH 280930Z AUTO 05007KT 020V110 9000 SCT011 12/08 Q1025",
      "taf": ""
    },
    {
      "icao": "LEMD",
      "alert": "OK",
      "vis_m": 9999,
      "fzfg": false,
      "metar_trigger": false,
      "taf_trigger": false,
      "metar": "METAR LEMD 280930Z 04007KT 330V100 CAVOK 12/05 Q1023 NOSIG",
      "taf": "TAF LEMD 280500Z 2806/0112 02006KT CAVOK TX18/2815Z TN03/0107Z"
    },
    {
      "icao": "LEMG",
      "alert": "OK",
      "vis_m": 6000,
      "fzfg": false,
      "metar_trigger": false,
      "taf_trigger": false,
      "metar": "METAR LEMG 280930Z 28004KT 250V320 6000 BKN018 13/10 Q1022 NOSIG",
      "taf": "TAF LEMG 280500Z 2806/0106 29005KT 9999 SCT025 TX19/2814Z TN07/2807Z"
    },
    {
      "icao": "LEVC",
      "alert": "OK",
      "vis_m": 8000,
      "fzfg": false,
      "metar_trigger": false,
      "taf_trigger": false,
      "metar": "METAR LEVC 280930Z 04007KT 340V080 8000 SCT025 BKN035 14/08 Q1025 NOSIG",
      "taf": ""
    },
    {
      "icao": "LEXJ",
      "alert": "OK",
      "vis_m": 9999,
      "fzfg": false,
      "metar_trigger": false,
      "taf_trigger": false,
      "metar": "METAR LEXJ 280930Z 24005KT 200V260 9999 FEW028 SCT050 10/04 Q1029",
      "taf": "TAF LEXJ 280800Z 2809/0109 24009KT 9999 SCT030 TX13/2815Z TN06/0106Z"
    },
    {
      "icao": "LEZG",
      "alert": "OK",
      "vis_m": 9999,
      "fzfg": false,
      "metar_trigger": false,
      "taf_trigger": false,
      "metar": "METAR LEZG 280930Z 31013G24KT 280V340 9999 BKN070 12/06 Q1026 NOSIG",
      "taf": "TAF LEZG 280500Z 2806/0106 31014KT CAVOK TX17/2815Z TN06/2806Z"
    },
    {
      "icao": "LEZL",
      "alert": "OK",
      "vis_m": 9999,
      "fzfg": false,
      "metar_trigger": false,
      "taf_trigger": false,
      "metar": "METAR LEZL 280930Z 03006KT 350V060 CAVOK 15/10 Q1022 NOSIG",
      "taf": "TAF LEZL 280800Z 2809/0109 03005KT CAVOK TX22/2815Z TN09/0107Z"
    },
    {
      "icao": "LFBD",
      "alert": "OK",
      "vis_m": 9999,
      "fzfg": false,
      "metar_trigger": false,
      "taf_trigger": false,
      "metar": "METAR LFBD 280930Z AUTO 27006KT 240V300 CAVOK 12/08 Q1027 TEMPO 4000 -SHRA BKN030TCU",
      "taf": "TAF LFBD 280500Z 2806/0112 24005KT 9999 SCT035 TX15/2814Z TN02/0106Z"
    },
    {
      "icao": "LFLL",
      "alert": "OK",
      "vis_m": 9999,
      "fzfg": false,
      "metar_trigger": false,
      "taf_trigger": false,
      "metar": "METAR LFLL 280930Z 33003KT 290V020 9999 SCT018 OVC038 10/08 Q1025 NOSIG",
      "taf": "TAF LFLL 280500Z 2806/0112 VRB05KT 9999 BKN045"
    },
    {
      "icao": "LFLS",
      "alert": "OK",
      "vis_m": 9999,
      "fzfg": false,
      "metar_trigger": false,
      "taf_trigger": false,
      "metar": "METAR LFLS 280930Z AUTO VRB02KT 9999 FEW019 BKN076 11/07 Q1024 NOSIG",
      "taf": "TAF LFLS 280800Z 2809/0109 VRB03KT 9999 FEW025 BKN045"
    },
    {
      "icao": "LFMN",
      "alert": "OK",
      "vis_m": 9999,
      "fzfg": false,
      "metar_trigger": false,
      "taf_trigger": false,
      "metar": "METAR LFMN 280930Z VRB02KT 9999 FEW020 SCT040 BKN230 15/08 Q1025 NOSIG",
      "taf": "TAF LFMN 280800Z 2809/0115 33005KT 9999 FEW020 BKN040"
    },
    {
      "icao": "LFOB",
      "alert": "OK",
      "vis_m": 9999,
      "fzfg": false,
      "metar_trigger": false,
      "taf_trigger": false,
      "metar": "METAR LFOB 280930Z AUTO 22015KT 190V250 9999 BKN026 OVC032 09/05 Q1018 TEMPO 25017G30KT 3000 SHRA BKN013TCU",
      "taf": "TAF LFOB 280500Z 2806/0106 20013KT 9999 SCT017 BKN030 OVC040"
    },
    {
      "icao": "LFPO",
      "alert": "OK",
      "vis_m": 9999,
      "fzfg": false,
      "metar_trigger": false,
      "taf_trigger": false,
      "metar": "METAR LFPO 280930Z 24013KT 210V270 9999 BKN026 11/06 Q1021 NOSIG",
      "taf": "TAF LFPO 280500Z 2806/0112 22010KT 9999 BKN025"
    },
    {
      "icao": "LFSB",
      "alert": "OK",
      "vis_m": 9999,
      "fzfg": false,
      "metar_trigger": false,
      "taf_trigger": false,
      "metar": "METAR LFSB 280930Z AUTO VRB02KT 9999 BKN031 OVC044 11/07 Q1023 NOSIG",
      "taf": "TAF LFSB 280500Z 2806/0106 VRB03KT CAVOK"
    },
    {
      "icao": "LGAV",
      "alert": "OK",
      "vis_m": 9999,
      "fzfg": false,
      "metar_trigger": false,
      "taf_trigger": false,
      "metar": "METAR LGAV 280950Z 04018KT 9999 BKN035 12/02 Q1026 NOSIG",
      "taf": "TAF LGAV 280500Z 2806/0106 01013KT 9999 SCT020"
    },
    {
      "icao": "LGTS",
      "alert": "OK",
      "vis_m": 9999,
      "fzfg": false,
      "metar_trigger": false,
      "taf_trigger": false,
      "metar": "METAR LGTS 280950Z 31005KT 9999 SCT030 SCT050 12/05 Q1028 NOSIG",
      "taf": "TAF LGTS 280500Z 2806/0106 VRB03KT 9999 BKN030"
    },
    {
      "icao": "LHBP",
      "alert": "OK",
      "vis_m": 9999,
      "fzfg": false,
      "metar_trigger": false,
      "taf_trigger": false,
      "metar": "METAR LHBP 280930Z 13006KT 100V160 CAVOK 09/M01 Q1027 NOSIG",
      "taf": "TAF LHBP 280515Z 2806/0106 08006KT CAVOK"
    },
    {
      "icao": "LHDC",
      "alert": "OK",
      "vis_m": 9999,
      "fzfg": false,
      "metar_trigger": false,
      "taf_trigger": false,
      "metar": "METAR LHDC 280915Z AUTO VRB02KT CAVOK 07/01 Q1027 NOSIG",
      "taf": "TAF LHDC 280815Z 2809/2818 VRB03KT CAVOK"
    },
    {
      "icao": "LIBD",
      "alert": "OK",
      "vis_m": 8000,
      "fzfg": false,
      "metar_trigger": false,
      "taf_trigger": false,
      "metar": "METAR LIBD 280950Z 09003KT 040V130 8000 BKN015 14/10 Q1025",
      "taf": "TAF LIBD 280500Z 2806/0106 VRB05KT 4000 BR NSC"
    },
    {
      "icao": "LIBG",
      "alert": "OK",
      "vis_m": 9999,
      "fzfg": false,
      "metar_trigger": false,
      "taf_trigger": false,
      "metar": "METAR LIBG 280850Z VRB02KT 9999 SCT030 15/11 Q1024",
      "taf": "TAF LIBG 280800Z 2809/2818 VRB05KT CAVOK"
    },
    {
      "icao": "LIBP",
      "alert": "OK",
      "vis_m": 4000,
      "fzfg": false,
      "metar_trigger": false,
      "taf_trigger": false,
      "metar": "METAR LIBP 280950Z VRB01KT 4000 BR BKN012 11/11 Q1025",
      "taf": "TAF LIBP 280500Z 2806/0106 VRB05KT 0600 FG OVC010"
    },
    {
      "icao": "LIBR",
      "alert": "OK",
      "vis_m": 9999,
      "fzfg": false,
      "metar_trigger": false,
      "taf_trigger": false,
      "metar": "METAR LIBR 280950Z 35003KT 320V040 9999 BKN020 14/11 Q1025",
      "taf": "TAF LIBR 280500Z 2806/0106 VRB05KT CAVOK"
    },
    {
      "icao": "LICA",
      "alert": "OK",
      "vis_m": 9999,
      "fzfg": false,
      "metar_trigger": false,
      "taf_trigger": false,
      "metar": "METAR LICA 280950Z 26005KT 210V290 9999 FEW020 16/10 Q1025",
      "taf": "TAF LICA 280500Z 2806/0106 VRB05KT 9999 SCT020"
    },
    {
      "icao": "LICC",
      "alert": "OK",
      "vis_m": 8000,
      "fzfg": false,
      "metar_trigger": false,
      "taf_trigger": false,
      "metar": "METAR LICC 280950Z 27006KT 8000 BKN020 15/13 Q1025",
      "taf": "TAF LICC 280500Z 2806/0106 VRB05KT 6000 SCT030"
    },
    {
      "icao": "LICJ",
      "alert": "OK",
      "vis_m": 9999,
      "fzfg": false,
      "metar_trigger": false,
      "taf_trigger": false,
      "metar": "METAR LICJ 280950Z 27004KT CAVOK 14/09 Q1024",
      "taf": "TAF LICJ 280500Z 2806/0106 VRB05KT 9999 SCT015"
    },
    {
      "icao": "LIMC",
      "alert": "OK",
      "vis_m": 3000,
      "fzfg": false,
      "metar_trigger": false,
      "taf_trigger": false,
      "metar": "METAR LIMC 280950Z 36003KT 3000 BR OVC035 11/08 Q1025 NOSIG",
      "taf": ""
    },
    {
      "icao": "LIME",
      "alert": "OK",
      "vis_m": 6000,
      "fzfg": false,
      "metar_trigger": false,
      "taf_trigger": false,
      "metar": "METAR LIME 280950Z VRB01KT 6000 BKN045 13/08 Q1025 NOSIG",
      "taf": "TAF LIME 280500Z 2806/0106 VRB05KT 9000 SCT030"
    },
    {
      "icao": "LIMF",
      "alert": "OK",
      "vis_m": 6000,
      "fzfg": false,
      "metar_trigger": false,
      "taf_trigger": false,
      "metar": "METAR LIMF 280950Z 02002KT 6000 BKN040 10/07 Q1025",
      "taf": "TAF LIMF 280500Z 2806/0106 VRB04KT CAVOK"
    },
    {
      "icao": "LIMJ",
      "alert": "OK",
      "vis_m": 9999,
      "fzfg": false,
      "metar_trigger": false,
      "taf_trigger": false,
      "metar": "METAR LIMJ 280950Z 12003KT 9999 FEW020 BKN040 14/07 Q1025",
      "taf": "TAF LIMJ 280500Z 2806/0106 VRB05KT 9999 FEW010 BKN030"
    },
    {
      "icao": "LIPE",
      "alert": "OK",
      "vis_m": 9999,
      "fzfg": false,
      "metar_trigger": false,
      "taf_trigger": false,
      "metar": "METAR LIPE 280950Z 28003KT 230V020 9999 BKN043 13/08 Q1025",
      "taf": "TAF LIPE 280500Z 2806/0106 VRB04KT 7000 FEW020"
    },
    {
      "icao": "LIPH",
      "alert": "OK",
      "vis_m": 1000,
      "fzfg": false,
      "metar_trigger": false,
      "taf_trigger": false,
      "metar": "METAR LIPH 280950Z 10003KT 020V130 1000 R07/P2000N BR BKN004 08/08 Q1025",
      "taf": ""
    },
    {
      "icao": "LIPQ",
      "alert": "OK",
      "vis_m": 3500,
      "fzfg": false,
      "metar_trigger": false,
      "taf_trigger": false,
      "metar": "METAR LIPQ 280950Z 26004KT 230V290 3500 BR SCT004 BKN010 07/07 Q1025",
      "taf": "TAF LIPQ 280500Z 2806/0106 VRB04KT 0200 FG OVC002"
    },
    {
      "icao": "LIPR",
      "alert": "OK",
      "vis_m": 2500,
      "fzfg": false,
      "metar_trigger": false,
      "taf_trigger": false,
      "metar": "METAR LIPR 280950Z 08005KT 2500 BR FEW003 BKN050 11/10 Q1025",
      "taf": "TAF LIPR 280500Z 2806/0106 VRB04KT 2000 BR SCT010"
    },
    {
      "icao": "LIPX",
      "alert": "OK",
      "vis_m": 4000,
      "fzfg": false,
      "metar_trigger": false,
      "taf_trigger": false,
      "metar": "METAR LIPX 280950Z 15004KT 120V190 4000 BR NSC 12/09 Q1025",
      "taf": "TAF LIPX 280500Z 2806/0106 VRB05KT 2000 BR NSC"
    },
    {
      "icao": "LIPY",
      "alert": "OK",
      "vis_m": 3000,
      "fzfg": false,
      "metar_trigger": false,
      "taf_trigger": false,
      "metar": "METAR LIPY 280950Z 02004KT 350V060 3000 BR BKN005 BKN050 11/10 Q1025",
      "taf": "TAF LIPY 280500Z 2806/0106 VRB04KT 2500 BCFG OVC003"
    },
    {
      "icao": "LIPZ",
      "alert": "OK",
      "vis_m": 600,
      "fzfg": false,
      "metar_trigger": false,
      "taf_trigger": false,
      "metar": "METAR LIPZ 280950Z VRB02KT 0600 R04R/1600N FG OVC001 08/08 Q1025 NOSIG",
      "taf": "TAF LIPZ 280500Z 2806/0112 VRB04KT 0100 FG OVC001"
    },
    {
      "icao": "LIRF",
      "alert": "OK",
      "vis_m": 9999,
      "fzfg": false,
      "metar_trigger": false,
      "taf_trigger": false,
      "metar": "METAR LIRF 280950Z VRB02KT 9999 SCT045 15/07 Q1025 NOSIG",
      "taf": "TAF LIRF 280500Z 2806/0112 VRB05KT 8000 SCT030"
    },
    {
      "icao": "LIRN",
      "alert": "OK",
      "vis_m": 7000,
      "fzfg": false,
      "metar_trigger": false,
      "taf_trigger": false,
      "metar": "METAR LIRN 280950Z 02004KT 330V070 7000 FEW030 BKN070 14/08 Q1025 NOSIG",
      "taf": "TAF LIRN 280500Z 2806/0106 VRB05KT 7000 BKN025"
    },
    {
      "icao": "LIRP",
      "alert": "OK",
      "vis_m": 9999,
      "fzfg": false,
      "metar_trigger": false,
      "taf_trigger": false,
      "metar": "METAR LIRP 280945Z 13004KT 9999 SCT040 BKN050 12/11 Q1026 NOSIG",
      "taf": "TAF LIRP 280500Z 2806/0106 10004KT 9999 SCT040"
    },
    {
      "icao": "LIRZ",
      "alert": "OK",
      "vis_m": 9999,
      "fzfg": false,
      "metar_trigger": false,
      "taf_trigger": false,
      "metar": "METAR LIRZ 280950Z 27003KT 240V320 9999 BKN040 14/09 Q1025",
      "taf": ""
    },
    {
      "icao": "LJLJ",
      "alert": "OK",
      "vis_m": 9999,
      "fzfg": false,
      "metar_trigger": false,
      "taf_trigger": false,
      "metar": "METAR LJLJ 280930Z VRB02KT CAVOK 09/04 Q1024 NOSIG",
      "taf": "TAF LJLJ 280500Z 2806/0106 VRB02KT CAVOK"
    },
    {
      "icao": "LKMT",
      "alert": "OK",
      "vis_m": 9999,
      "fzfg": false,
      "metar_trigger": false,
      "taf_trigger": false,
      "metar": "METAR LKMT 280930Z 25013KT CAVOK 10/03 Q1023 NOSIG",
      "taf": "TAF LKMT 280500Z 2806/0106 24013KT CAVOK"
    },
    {
      "icao": "LKPR",
      "alert": "OK",
      "vis_m": 3200,
      "fzfg": false,
      "metar_trigger": false,
      "taf_trigger": false,
      "metar": "METAR LKPR 280930Z 33005KT 280V050 3200 0900NW R24/P2000N R30/P2000N BR BCFG FEW001 BKN003 05/05 Q1022 BECMG 6000 NSC",
      "taf": "TAF LKPR 280800Z 2809/0115 33003KT 0250 FG VV002"
    },
    {
      "icao": "LLBG",
      "alert": "OK",
      "vis_m": 9999,
      "fzfg": false,
      "metar_trigger": false,
      "taf_trigger": false,
      "metar": "METAR LLBG 280950Z VRB03KT CAVOK 16/01 Q1017 NOSIG RMK SCT090",
      "taf": "TAF LLBG 280504Z 2806/0106 VRB04KT 9999 FEW050 TX16/2811Z TN07/0104Z"
    },
    {
      "icao": "LMML",
      "alert": "OK",
      "vis_m": 9999,
      "fzfg": false,
      "metar_trigger": false,
      "taf_trigger": false,
      "metar": "METAR LMML 280945Z 17006KT 140V220 9999 FEW017 17/12 Q1025 NOSIG",
      "taf": "TAF LMML 280500Z 2806/0106 24006KT 9999 FEW018"
    },
    {
      "icao": "LOWW",
      "alert": "OK",
      "vis_m": 9999,
      "fzfg": false,
      "metar_trigger": false,
      "taf_trigger": false,
      "metar": "METAR LOWW 280950Z 14015KT CAVOK 09/02 Q1023 NOSIG",
      "taf": "TAF LOWW 280815Z 2809/0115 13012KT CAVOK TX13/2814Z TN02/0105Z"
    },
    {
      "icao": "LPFR",
      "alert": "OK",
      "vis_m": 9999,
      "fzfg": false,
      "metar_trigger": false,
      "taf_trigger": false,
      "metar": "METAR LPFR 280930Z VRB03KT CAVOK 13/07 Q1023",
      "taf": "TAF LPFR 280500Z 2806/0106 35007KT CAVOK"
    },
    {
      "icao": "LPMA",
      "alert": "OK",
      "vis_m": 9999,
      "fzfg": false,
      "metar_trigger": false,
      "taf_trigger": false,
      "metar": "METAR LPMA 280930Z 01013G23KT 320V050 9999 BKN015 15/08 Q1028",
      "taf": "TAF LPMA 280500Z 2806/0106 01015KT 9999 SCT015"
    },
    {
      "icao": "LPPR",
      "alert": "OK",
      "vis_m": 9999,
      "fzfg": false,
      "metar_trigger": false,
      "taf_trigger": false,
      "metar": "METAR LPPR 280930Z 05006KT 350V090 CAVOK 09/05 Q1028",
      "taf": "TAF LPPR 280500Z 2806/0106 02005KT CAVOK"
    },
    {
      "icao": "LPPS",
      "alert": "OK",
      "vis_m": 9999,
      "fzfg": false,
      "metar_trigger": false,
      "taf_trigger": false,
      "metar": "METAR LPPS 280930Z 02012KT 350V050 9999 FEW015 BKN030 14/08 Q1028",
      "taf": "TAF LPPS 280500Z 2806/0112 02015KT 9999 SCT012 BKN030"
    },
    {
      "icao": "LPPT",
      "alert": "OK",
      "vis_m": 9999,
      "fzfg": false,
      "metar_trigger": false,
      "taf_trigger": false,
      "metar": "METAR LPPT 280930Z 34014KT 9999 FEW022 12/07 Q1026",
      "taf": "TAF LPPT 280500Z 2806/0112 35015KT CAVOK"
    },
    {
      "icao": "LQBK",
      "alert": "OK",
      "vis_m": 9999,
      "fzfg": false,
      "metar_trigger": false,
      "taf_trigger": false,
      "metar": "METAR LQBK 280930Z VRB02KT CAVOK 11/04 Q1025 NOSIG",
      "taf": ""
    },
    {
      "icao": "LQSA",
      "alert": "OK",
      "vis_m": 9999,
      "fzfg": false,
      "metar_trigger": false,
      "taf_trigger": false,
      "metar": "METAR LQSA 280930Z VRB02KT CAVOK 09/00 Q1025 NOSIG",
      "taf": ""
    },
    {
      "icao": "LQTZ",
      "alert": "OK",
      "vis_m": 9999,
      "fzfg": false,
      "metar_trigger": false,
      "taf_trigger": false,
      "metar": "METAR LQTZ 280930Z VRB02KT CAVOK 11/02 Q1025",
      "taf": ""
    },
    {
      "icao": "LRBC",
      "alert": "OK",
      "vis_m": 3000,
      "fzfg": false,
      "metar_trigger": false,
      "taf_trigger": false,
      "metar": "METAR LRBC 280930Z 15009KT 3000 BR OVC003 M01/M02 Q1030",
      "taf": "TAF LRBC 280800Z 2809/2818 17010KT 1500 BR OVC002"
    },
    {
      "icao": "LRBS",
      "alert": "OK",
      "vis_m": 2800,
      "fzfg": false,
      "metar_trigger": false,
      "taf_trigger": false,
      "metar": "METAR LRBS 280930Z 00000KT 2800 BR OVC003 M01/M02 Q1032 BECMG 5000 BKN005",
      "taf": "TAF LRBS 280500Z 2806/0106 VRB04KT 1500 BR OVC002"
    },
    {
      "icao": "LRBV",
      "alert": "OK",
      "vis_m": 9999,
      "fzfg": false,
      "metar_trigger": false,
      "taf_trigger": false,
      "metar": "METAR LRBV 280930Z 25003KT CAVOK 03/M03 Q1027",
      "taf": "TAF LRBV 280800Z 2809/2818 VRB04KT CAVOK"
    },
    {
      "icao": "LRCL",
      "alert": "OK",
      "vis_m": 9999,
      "fzfg": false,
      "metar_trigger": false,
      "taf_trigger": false,
      "metar": "METAR LRCL 280930Z 06004KT 020V120 CAVOK 05/M01 Q1027",
      "taf": "TAF LRCL 280800Z 2809/2818 VRB04KT CAVOK"
    },
    {
      "icao": "LRCV",
      "alert": "OK",
      "vis_m": 300,
      "fzfg": true,
      "metar_trigger": false,
      "taf_trigger": false,
      "metar": "METAR LRCV 280930Z 11004KT 360V150 0300 R26/0275N FZFG VV002 M01/M01 Q1031",
      "taf": "TAF LRCV 280800Z 2809/2818 09006KT 0200 FZFG OVC001"
    },
    {
      "icao": "LRIA",
      "alert": "OK",
      "vis_m": 9999,
      "fzfg": false,
      "metar_trigger": false,
      "taf_trigger": false,
      "metar": "METAR LRIA 280930Z 11005KT 070V140 9999 BKN006 M01/M03 Q1031",
      "taf": "TAF LRIA 280800Z 2809/2818 11005KT 9999 OVC005"
    },
    {
      "icao": "LROP",
      "alert": "OK",
      "vis_m": 1800,
      "fzfg": true,
      "metar_trigger": false,
      "taf_trigger": false,
      "metar": "METAR LROP 280930Z 00000KT 1800 BR OVC002 M01/M01 Q1032 BECMG 3000 BKN005",
      "taf": "TAF LROP 280500Z 2806/0106 VRB04KT 0600 FZFG OVC001"
    },
    {
      "icao": "LRSB",
      "alert": "OK",
      "vis_m": 9999,
      "fzfg": false,
      "metar_trigger": false,
      "taf_trigger": false,
      "metar": "METAR LRSB 280930Z 15003KT 070V210 CAVOK 07/M03 Q1027 NOSIG",
      "taf": "TAF LRSB 280500Z 2806/0106 VRB04KT CAVOK"
    },
    {
      "icao": "LRSM",
      "alert": "OK",
      "vis_m": 9999,
      "fzfg": false,
      "metar_trigger": false,
      "taf_trigger": false,
      "metar": "METAR LRSM 280930Z AUTO 26003KT 220V290 9999 NCD 09/01 Q1027",
      "taf": ""
    },
    {
      "icao": "LRSV",
      "alert": "CRITICAL",
      "vis_m": 100,
      "fzfg": true,
      "metar_trigger": true,
      "taf_trigger": true,
      "metar": "METAR LRSV 280930Z 14005KT 110V170 0100 R34/0250N FZFG VV001 M02/M03 Q1027",
      "taf": "TAF LRSV 280800Z 2809/2818 14007KT 0100 FZFG VV001"
    },
    {
      "icao": "LRTM",
      "alert": "OK",
      "vis_m": 9999,
      "fzfg": false,
      "metar_trigger": false,
      "taf_trigger": false,
      "metar": "METAR LRTM 280930Z VRB02KT CAVOK 06/M01 Q1028",
      "taf": "TAF LRTM 280800Z 2809/2818 VRB04KT CAVOK"
    },
    {
      "icao": "LRTR",
      "alert": "OK",
      "vis_m": 9999,
      "fzfg": false,
      "metar_trigger": false,
      "taf_trigger": false,
      "metar": "METAR LRTR 280930Z 10005KT 060V150 CAVOK 08/02 Q1027",
      "taf": "TAF LRTR 280500Z 2806/0106 10007KT CAVOK"
    },
    {
      "icao": "LTAC",
      "alert": "OK",
      "vis_m": 9999,
      "fzfg": false,
      "metar_trigger": false,
      "taf_trigger": false,
      "metar": "METAR LTAC 280950Z 06004KT 360V170 9999 FEW040 SCT100 05/M05 Q1020 NOSIG RMK RWY21C VRB03KT RWY03L 08006KT 050V130 RWY21R VRB03KT RWY03R 36004KT 290V080 RWY21L VRB04KT",
      "taf": "TAF LTAC 280440Z 2806/0106 VRB02KT 9999 SCT040 SCT100"
    },
    {
      "icao": "LTFM",
      "alert": "OK",
      "vis_m": 9999,
      "fzfg": false,
      "metar_trigger": false,
      "taf_trigger": false,
      "metar": "METAR LTFM 280950Z 35016KT 9999 FEW019 BKN026 06/02 Q1028 NOSIG RMK RWY17L 34016KT RWY34L 34015KT RWY16R 33013KT RWY36 35014KT RWY18 35014KT",
      "taf": "TAF LTFM 280440Z 2806/0112 01013KT 9999 SCT016 BKN025"
    },
    {
      "icao": "LUKK",
      "alert": "OK",
      "vis_m": 5000,
      "fzfg": true,
      "metar_trigger": false,
      "taf_trigger": false,
      "metar": "METAR LUKK 280930Z VRB03KT 5000 BR OVC003 M02/M02 Q1031 NOSIG",
      "taf": "TAF LUKK 280516Z 2806/0106 VRB04KT 0600 FZFG VV002"
    },
    {
      "icao": "LWOH",
      "alert": "OK",
      "vis_m": 9999,
      "fzfg": false,
      "metar_trigger": false,
      "taf_trigger": false,
      "metar": "METAR LWOH 280950Z 15005KT 130V190 CAVOK 08/04 Q1025",
      "taf": "TAF LWOH 280820Z 2809/0109 16008KT CAVOK"
    },
    {
      "icao": "LWSK",
      "alert": "OK",
      "vis_m": 9999,
      "fzfg": false,
      "metar_trigger": false,
      "taf_trigger": false,
      "metar": "METAR LWSK 280950Z VRB02KT 9999 BKN021 08/04 Q1028 NOSIG",
      "taf": "TAF LWSK 280820Z 2809/0109 VRB02KT 9999 BKN020"
    },
    {
      "icao": "LYBE",
      "alert": "OK",
      "vis_m": 9999,
      "fzfg": false,
      "metar_trigger": false,
      "taf_trigger": false,
      "metar": "METAR LYBE 280930Z 12008KT 090V150 CAVOK 10/00 Q1026 NOSIG",
      "taf": "TAF LYBE 280500Z 2806/0106 06004KT CAVOK TX15/2813Z TN01/0106Z"
    },
    {
      "icao": "LYNI",
      "alert": "OK",
      "vis_m": 9999,
      "fzfg": false,
      "metar_trigger": false,
      "taf_trigger": false,
      "metar": "METAR LYNI 280930Z VRB03KT CAVOK 07/01 Q1027 NOSIG",
      "taf": "TAF LYNI 280500Z 2806/0106 06008KT CAVOK TX15/2813Z TNM02/2806Z"
    },
    {
      "icao": "LYPG",
      "alert": "OK",
      "vis_m": 9999,
      "fzfg": false,
      "metar_trigger": false,
      "taf_trigger": false,
      "metar": "METAR LYPG 280930Z VRB02KT CAVOK 14/04 Q1025 NOSIG",
      "taf": "TAF LYPG 280500Z 2806/0106 18005KT CAVOK TX19/2812Z TN04/0105Z"
    },
    {
      "icao": "LZIB",
      "alert": "OK",
      "vis_m": 9999,
      "fzfg": false,
      "metar_trigger": false,
      "taf_trigger": false,
      "metar": "METAR LZIB 280930Z 08008KT CAVOK 08/01 Q1025 NOSIG",
      "taf": "TAF LZIB 280515Z 2806/0106 05009KT CAVOK"
    },
    {
      "icao": "LZKZ",
      "alert": "OK",
      "vis_m": 9999,
      "fzfg": false,
      "metar_trigger": false,
      "taf_trigger": false,
      "metar": "METAR LZKZ 280930Z 14004KT 110V180 CAVOK 07/01 Q1027 NOSIG",
      "taf": "TAF LZKZ 280515Z 2806/0106 VRB02KT CAVOK"
    },
    {
      "icao": "LZTT",
      "alert": "OK",
      "vis_m": 9999,
      "fzfg": false,
      "metar_trigger": false,
      "taf_trigger": false,
      "metar": "METAR LZTT 280930Z VRB03KT CAVOK 05/M00 Q1024 NOSIG",
      "taf": "TAF LZTT 280515Z 2806/0106 28005KT CAVOK"
    },
    {
      "icao": "OEJN",
      "alert": "OK",
      "vis_m": 9999,
      "fzfg": false,
      "metar_trigger": false,
      "taf_trigger": false,
      "metar": "METAR OEJN 280900Z 33012KT CAVOK 27/09 Q1011 NOSIG",
      "taf": "TAF OEJN 280500Z 2806/0112 30012KT 9999 FEW040"
    },
    {
      "icao": "OEMA",
      "alert": "OK",
      "vis_m": 9999,
      "fzfg": false,
      "metar_trigger": false,
      "taf_trigger": false,
      "metar": "METAR OEMA 280900Z VRB03KT CAVOK 23/00 Q1013 NOSIG",
      "taf": "TAF OEMA 280500Z 2806/0112 28012KT CAVOK"
    },
    {
      "icao": "OJAI",
      "alert": "OK",
      "vis_m": 4000,
      "fzfg": false,
      "metar_trigger": false,
      "taf_trigger": false,
      "metar": "METAR OJAI 280900Z 10004KT 4000 HZ NSC 09/M05 Q1018 NOSIG",
      "taf": "TAF OJAI 280439Z 2806/0112 VRB02KT 4000 BR FEW040"
    },
    {
      "icao": "OMAA",
      "alert": "OK",
      "vis_m": 9999,
      "fzfg": false,
      "metar_trigger": false,
      "taf_trigger": false,
      "metar": "METAR OMAA 280930Z COR 30004KT 240V360 CAVOK 29/05 Q1009 NOSIG",
      "taf": "TAF OMAA 280500Z 2806/0112 VRB02KT 8000 NSC"
    },
    {
      "icao": "OMDB",
      "alert": "OK",
      "vis_m": 9999,
      "fzfg": false,
      "metar_trigger": false,
      "taf_trigger": false,
      "metar": "METAR OMDB 280930Z 32006KT 280V020 CAVOK 27/12 Q1010 NOSIG",
      "taf": "TAF OMDB 280500Z 2806/0112 18005KT 8000 NSC"
    },
    {
      "icao": "UAAA",
      "alert": "OK",
      "vis_m": 4400,
      "fzfg": false,
      "metar_trigger": false,
      "taf_trigger": false,
      "metar": "METAR UAAA 280930Z 03003MPS 4400 BR BKN021 BKN100 M09/M11 Q1025 NOSIG",
      "taf": "TAF UAAA 280505Z 2806/0106 32003MPS 5000 -SN BR BKN020 OVC050 TXM06/2808Z TNM14/0102Z"
    },
    {
      "icao": "UBBB",
      "alert": "OK",
      "vis_m": 9999,
      "fzfg": false,
      "metar_trigger": false,
      "taf_trigger": false,
      "metar": "METAR UBBB 280930Z 34016KT 9999 SCT015 BKN025 05/02 Q1018 NOSIG",
      "taf": "TAF UBBB 280458Z 2806/0106 35018G28KT 9999 BKN012 OVC020 TX06/2810Z TN03/0102Z"
    },
    {
      "icao": "UDSG",
      "alert": "OK",
      "vis_m": 9999,
      "fzfg": false,
      "metar_trigger": false,
      "taf_trigger": false,
      "metar": "METAR UDSG 280930Z 21001KT 9999 BKN036 M01/M05 Q1014 NOSIG",
      "taf": "TAF UDSG 280458Z 2806/0106 18006KT 3000 BR BKN030"
    },
    {
      "icao": "UDYZ",
      "alert": "OK",
      "vis_m": 9999,
      "fzfg": false,
      "metar_trigger": false,
      "taf_trigger": false,
      "metar": "METAR UDYZ 280930Z COR 23008KT 9999 -SHRA BKN023CB 05/M01 Q1014 NOSIG",
      "taf": "TAF UDYZ 280500Z 2806/0106 22006KT 6000 SCT040"
    },
    {
      "icao": "UGKO",
      "alert": "OK",
      "vis_m": 9999,
      "fzfg": false,
      "metar_trigger": false,
      "taf_trigger": false,
      "metar": "METAR UGKO 280930Z 11007KT 9999 SCT010 OVC025 05/03 Q1019 NOSIG",
      "taf": "TAF UGKO 280500Z 2806/0106 09006KT 8000 SCT020 OVC030 TX06/2811Z TN03/2806Z"
    }
  ]
}