{
  "ts_utc": "2026-01-09T09:45:26Z",
  "threshold_m": 150,
  "source": "stations_override.txt (ICAO list) + aviationweather.gov (METAR/TAF raw)",
  "station_count": 159,
  "stations": [
    {
      "icao": "BIKF",
      "alert": "OK",
      "vis_m": 9999,
      "fzfg": false,
      "metar_trigger": false,
      "taf_trigger": false,
      "metar": "METAR BIKF 090930Z 04005KT 9999 FEW035 SCT170 M02/M07 Q1008",
      "taf": "TAF BIKF 090751Z 0909/1009 03010KT CAVOK TXM00/0916Z TNM05/1006Z"
    },
    {
      "icao": "BKPR",
      "alert": "OK",
      "vis_m": 9999,
      "fzfg": false,
      "metar_trigger": false,
      "taf_trigger": false,
      "metar": "METAR BKPR 090930Z 06004KT 030V110 9999 -SN FEW015 BKN050 M04/M07 Q1011 NOSIG",
      "taf": ""
    },
    {
      "icao": "EBCI",
      "alert": "OK",
      "vis_m": 9999,
      "fzfg": false,
      "metar_trigger": false,
      "taf_trigger": false,
      "metar": "METAR EBCI 090920Z 22024KT 9999 -RA FEW008 BKN009 03/01 Q0982 WS R24 TEMPO 22020G40KT 4000 MODRASN",
      "taf": "TAF EBCI 090500Z 0906/1012 21020G35KT 6000 -RA SCT003 BKN005"
    },
    {
      "icao": "EDDB",
      "alert": "OK",
      "vis_m": 9999,
      "fzfg": false,
      "metar_trigger": false,
      "taf_trigger": false,
      "metar": "METAR EDDB 090920Z AUTO 09014KT 9999 FEW038 SCT048 M06/M09 Q1002 TEMPO 09015G25KT",
      "taf": "TAF EDDB 090500Z 0906/1006 09013KT 9999 FEW025"
    },
    {
      "icao": "EDDH",
      "alert": "OK",
      "vis_m": 900,
      "fzfg": false,
      "metar_trigger": false,
      "taf_trigger": false,
      "metar": "METAR EDDH 090920Z AUTO 09020G32KT 0900 0700 R05/1400D R15/1500D +SN BKN004 M04/M06 Q0997 TEMPO 0900 -SN BLSN BKN001",
      "taf": "TAF EDDH 090500Z 0906/1012 09015G25KT 9999 BKN015"
    },
    {
      "icao": "EDDK",
      "alert": "OK",
      "vis_m": 9999,
      "fzfg": false,
      "metar_trigger": false,
      "taf_trigger": false,
      "metar": "METAR EDDK 090920Z AUTO 17014KT 9999 BKN031 BKN038 07/02 Q0986 TEMPO 14015G25KT",
      "taf": "TAF EDDK 090500Z 0906/1012 16013KT 9999 OVC030"
    },
    {
      "icao": "EDDN",
      "alert": "OK",
      "vis_m": 9999,
      "fzfg": false,
      "metar_trigger": false,
      "taf_trigger": false,
      "metar": "METAR EDDN 090920Z AUTO 14007KT 9999 SCT030 BKN043 04/02 Q0995 NOSIG",
      "taf": "TAF EDDN 090500Z 0906/1006 13010KT 9999 FEW015 BKN025"
    },
    {
      "icao": "EDDS",
      "alert": "OK",
      "vis_m": 9999,
      "fzfg": false,
      "metar_trigger": false,
      "taf_trigger": false,
      "metar": "METAR EDDS 090920Z AUTO 23011G27KT 170V270 9999 SCT039 08/01 Q0994 NOSIG",
      "taf": "TAF EDDS 090500Z 0906/1006 20010KT 9999 SCT030"
    },
    {
      "icao": "EDFH",
      "alert": "OK",
      "vis_m": 9999,
      "fzfg": false,
      "metar_trigger": false,
      "taf_trigger": false,
      "metar": "METAR EDFH 090920Z 21023G34KT 9999 -RA SCT010 BKN013 03/02 Q0986",
      "taf": "TAF EDFH 090500Z 0906/1006 22020G35KT 9999 SCT010 BKN030"
    },
    {
      "icao": "EDJA",
      "alert": "OK",
      "vis_m": 9999,
      "fzfg": false,
      "metar_trigger": false,
      "taf_trigger": false,
      "metar": "METAR EDJA 090920Z 24025KT CAVOK 05/01 Q0997",
      "taf": "TAF EDJA 090800Z 0909/0918 24020G35KT 9999 SCT020"
    },
    {
      "icao": "EDLW",
      "alert": "OK",
      "vis_m": 9999,
      "fzfg": false,
      "metar_trigger": false,
      "taf_trigger": false,
      "metar": "METAR EDLW 090920Z 15013KT CAVOK 06/02 Q0984",
      "taf": "TAF EDLW 090500Z 0906/1006 15012KT 9999 SCT040"
    },
    {
      "icao": "EDNY",
      "alert": "OK",
      "vis_m": 9999,
      "fzfg": false,
      "metar_trigger": false,
      "taf_trigger": false,
      "metar": "METAR EDNY 090920Z 25014KT 9999 FEW056 06/02 Q0998",
      "taf": "TAF EDNY 090800Z 0909/0918 24015G25KT 9999 SCT020"
    },
    {
      "icao": "EDSB",
      "alert": "OK",
      "vis_m": 9999,
      "fzfg": false,
      "metar_trigger": false,
      "taf_trigger": false,
      "metar": "METAR EDSB 090920Z 20024G34KT 9999 BKN045 08/03 Q0994",
      "taf": "TAF EDSB 090500Z 0906/1006 20020G30KT 9999 SCT030"
    },
    {
      "icao": "EETN",
      "alert": "OK",
      "vis_m": 9999,
      "fzfg": false,
      "metar_trigger": false,
      "taf_trigger": false,
      "metar": "METAR EETN 090920Z 06017KT 9999 DRSN BKN023 M05/M09 Q1019 TEMPO 06018G30KT",
      "taf": "TAF EETN 090530Z 0906/1006 07014KT 9999 DRSN SCT020"
    },
    {
      "icao": "EFTU",
      "alert": "OK",
      "vis_m": 9999,
      "fzfg": false,
      "metar_trigger": false,
      "taf_trigger": false,
      "metar": "METAR EFTU 090920Z AUTO 08007KT CAVOK M15/M17 Q1024",
      "taf": "TAF EFTU 090826Z 0909/1009 08007KT CAVOK"
    },
    {
      "icao": "EGBB",
      "alert": "OK",
      "vis_m": 9999,
      "fzfg": false,
      "metar_trigger": false,
      "taf_trigger": false,
      "metar": "METAR EGBB 090920Z 32014KT 9999 BKN025 02/01 Q0995",
      "taf": ""
    },
    {
      "icao": "EGGP",
      "alert": "OK",
      "vis_m": 9999,
      "fzfg": false,
      "metar_trigger": false,
      "taf_trigger": false,
      "metar": "METAR EGGP 090920Z 32009KT 9999 SCT028 SCT037 04/01 Q0998",
      "taf": "TAF EGGP 090453Z 0906/1006 34012KT 9999 SCT016"
    },
    {
      "icao": "EGGW",
      "alert": "OK",
      "vis_m": 9999,
      "fzfg": false,
      "metar_trigger": false,
      "taf_trigger": false,
      "metar": "METAR EGGW 090920Z AUTO 33020KT 9999 -RA OVC007/// //////TCU 02/01 Q0990",
      "taf": "TAF EGGW 090458Z 0906/1006 31020G30KT 9999 BKN005"
    },
    {
      "icao": "EGKK",
      "alert": "OK",
      "vis_m": 8000,
      "fzfg": false,
      "metar_trigger": false,
      "taf_trigger": false,
      "metar": "METAR EGKK 090920Z 31019G31KT 8000 -RA BKN009 03/02 Q0990",
      "taf": "TAF EGKK 090453Z 0906/1012 31016G26KT 9999 SCT010 BKN020"
    },
    {
      "icao": "EGNM",
      "alert": "OK",
      "vis_m": 9999,
      "fzfg": false,
      "metar_trigger": false,
      "taf_trigger": false,
      "metar": "METAR EGNM 090920Z 35011KT 9999 VCSH SCT008 SCT020 02/01 Q0995",
      "taf": "TAF EGNM 090455Z 0906/1006 01012KT 9999 BKN018"
    },
    {
      "icao": "EGPD",
      "alert": "OK",
      "vis_m": 9999,
      "fzfg": false,
      "metar_trigger": false,
      "taf_trigger": false,
      "metar": "METAR EGPD 090920Z COR AUTO 34004KT 9999 OVC046 M03/M04 Q1001 NOSIG",
      "taf": "TAF EGPD 090455Z 0906/1006 VRB03KT 9999 FEW009"
    },
    {
      "icao": "EGPF",
      "alert": "OK",
      "vis_m": 9999,
      "fzfg": false,
      "metar_trigger": false,
      "taf_trigger": false,
      "metar": "METAR EGPF 090920Z AUTO 24004KT 9999 OVC030 M01/M01 Q1001",
      "taf": "TAF EGPF 090504Z 0906/1006 VRB03KT 9999 SCT025"
    },
    {
      "icao": "EHBK",
      "alert": "OK",
      "vis_m": 8000,
      "fzfg": false,
      "metar_trigger": false,
      "taf_trigger": false,
      "metar": "METAR EHBK 090925Z AUTO 20024G39KT 170V230 8000 -RA FEW012/// BKN014/// BKN017/// 04/02 Q0981 TEMPO 9999 BKN016",
      "taf": "TAF EHBK 090516Z 0906/1012 19018G28KT 9999 -RADZ BKN035"
    },
    {
      "icao": "EHEH",
      "alert": "OK",
      "vis_m": 7000,
      "fzfg": false,
      "metar_trigger": false,
      "taf_trigger": false,
      "metar": "METAR EHEH 090925Z AUTO 15013G26KT 110V210 7000 RA FEW010 BKN012 OVC015 04/02 Q0978 GRN TEMPO 17012G25KT 4000 -RA SCT015 BKN020 RMK TREND REMOTE BY EHWX",
      "taf": "TAF EHEH 090549Z 0906/1012 16010KT 9999 SCT018 BKN030"
    },
    {
      "icao": "EKBI",
      "alert": "OK",
      "vis_m": 9999,
      "fzfg": false,
      "metar_trigger": false,
      "taf_trigger": false,
      "metar": "METAR EKBI 090920Z 09019KT 9999 DRSN BKN024 M01/M05 Q1004",
      "taf": "TAF EKBI 090827Z 0909/1009 10018KT 9000 SCT020"
    },
    {
      "icao": "EKCH",
      "alert": "OK",
      "vis_m": 9999,
      "fzfg": false,
      "metar_trigger": false,
      "taf_trigger": false,
      "metar": "METAR EKCH 090920Z AUTO 09019KT 9999 BKN042/// 00/M05 Q1008 TEMPO 12020G30KT",
      "taf": "TAF EKCH 090827Z 0909/1009 09015KT 9999 BKN030"
    },
    {
      "icao": "ENAL",
      "alert": "OK",
      "vis_m": 9999,
      "fzfg": false,
      "metar_trigger": false,
      "taf_trigger": false,
      "metar": "METAR ENAL 090920Z 13015KT CAVOK M00/M09 Q1009",
      "taf": "TAF ENAL 090800Z 0909/0918 14012KT 9999 BKN060"
    },
    {
      "icao": "ENBR",
      "alert": "OK",
      "vis_m": 9999,
      "fzfg": false,
      "metar_trigger": false,
      "taf_trigger": false,
      "metar": "METAR ENBR 090920Z 00000KT CAVOK M05/M11 Q1009 NOSIG RMK WIND 1200FT 13011KT",
      "taf": "TAF ENBR 090500Z 0906/1006 06005KT CAVOK"
    },
    {
      "icao": "ENGM",
      "alert": "OK",
      "vis_m": 9999,
      "fzfg": false,
      "metar_trigger": false,
      "taf_trigger": false,
      "metar": "METAR ENGM 090920Z 02004KT 9999 -SN OVC042 M07/M09 Q1017 NOSIG",
      "taf": ""
    },
    {
      "icao": "ENHD",
      "alert": "OK",
      "vis_m": 9999,
      "fzfg": false,
      "metar_trigger": false,
      "taf_trigger": false,
      "metar": "METAR ENHD 090920Z 09008KT CAVOK M00/M08 Q1009",
      "taf": "TAF ENHD 090800Z 0909/0918 11012KT CAVOK"
    },
    {
      "icao": "ENTC",
      "alert": "OK",
      "vis_m": 9999,
      "fzfg": false,
      "metar_trigger": false,
      "taf_trigger": false,
      "metar": "METAR ENTC 090920Z 12001KT CAVOK M11/M15 Q1024 NOSIG RMK WIND 2600FT 18025KT",
      "taf": "TAF ENTC 090500Z 0906/1006 20005KT CAVOK"
    },
    {
      "icao": "ENTO",
      "alert": "OK",
      "vis_m": 9999,
      "fzfg": false,
      "metar_trigger": false,
      "taf_trigger": false,
      "metar": "METAR ENTO 090920Z 01008KT 9999 FEW032 OVC041 M07/M08 Q1016 NOSIG",
      "taf": "TAF ENTO 090500Z 0906/1006 03010KT 9999 -SN SCT012 BKN020"
    },
    {
      "icao": "ENVA",
      "alert": "OK",
      "vis_m": 9999,
      "fzfg": false,
      "metar_trigger": false,
      "taf_trigger": false,
      "metar": "METAR ENVA 090920Z 09005G15KT 020V170 CAVOK M03/M10 Q1013 TEMPO 15015G25KT RMK WIND 670FT 14003G19KT",
      "taf": "TAF ENVA 090500Z 0906/1006 10008KT CAVOK"
    },
    {
      "icao": "ENZV",
      "alert": "OK",
      "vis_m": 9999,
      "fzfg": false,
      "metar_trigger": false,
      "taf_trigger": false,
      "metar": "METAR ENZV 090920Z 11006KT 070V130 CAVOK 00/M09 Q1009 NOSIG",
      "taf": "TAF ENZV 090500Z 0906/1006 12008KT CAVOK"
    },
    {
      "icao": "EPGD",
      "alert": "OK",
      "vis_m": 6000,
      "fzfg": false,
      "metar_trigger": false,
      "taf_trigger": false,
      "metar": "METAR EPGD 090930Z VRB02KT 6000 BKN021 M08/M09 Q1007",
      "taf": "TAF EPGD 090530Z 0906/1006 06006KT 9999 SCT015"
    },
    {
      "icao": "EPKK",
      "alert": "OK",
      "vis_m": 9999,
      "fzfg": false,
      "metar_trigger": false,
      "taf_trigger": false,
      "metar": "METAR EPKK 090930Z 24004KT CAVOK M07/M10 Q1004",
      "taf": "TAF EPKK 090830Z 0909/1009 25006KT 9999 BKN010"
    },
    {
      "icao": "EPKT",
      "alert": "OK",
      "vis_m": 5000,
      "fzfg": false,
      "metar_trigger": false,
      "taf_trigger": false,
      "metar": "METAR EPKT 090930Z VRB01KT 5000 BR NSC M06/M07 Q1004",
      "taf": ""
    },
    {
      "icao": "EPLB",
      "alert": "OK",
      "vis_m": 6000,
      "fzfg": false,
      "metar_trigger": false,
      "taf_trigger": false,
      "metar": "METAR EPLB 090930Z 29009KT 6000 -SN DRSN BKN012 M08/M10 Q1001",
      "taf": "TAF EPLB 090530Z 0906/1006 30012KT 8000 -SN BKN013 BKN030"
    },
    {
      "icao": "EPMO",
      "alert": "OK",
      "vis_m": 9000,
      "fzfg": false,
      "metar_trigger": false,
      "taf_trigger": false,
      "metar": "METAR EPMO 090930Z 29009KT 9000 NSC M11/M12 Q1003",
      "taf": "TAF EPMO 090530Z 0906/1006 31008KT 8000 NSC"
    },
    {
      "icao": "EPPO",
      "alert": "OK",
      "vis_m": 7000,
      "fzfg": false,
      "metar_trigger": false,
      "taf_trigger": false,
      "metar": "METAR EPPO 090930Z 11003KT 7000 SCT005 M09/M11 Q1006",
      "taf": ""
    },
    {
      "icao": "EPRA",
      "alert": "OK",
      "vis_m": 9000,
      "fzfg": false,
      "metar_trigger": false,
      "taf_trigger": false,
      "metar": "METAR EPRA 090930Z 29007KT 270V330 9000 SCT008 OVC033 M10/M12 Q1003",
      "taf": "TAF EPRA 090830Z 0909/0918 30010KT 8000 BKN010 BKN030"
    },
    {
      "icao": "EPRZ",
      "alert": "OK",
      "vis_m": 9999,
      "fzfg": false,
      "metar_trigger": false,
      "taf_trigger": false,
      "metar": "METAR EPRZ 090930Z 26018KT 9999 BKN030 M07/M10 Q1003",
      "taf": "TAF EPRZ 090530Z 0906/1006 31015KT 9999 -SN OVC013"
    },
    {
      "icao": "EPSC",
      "alert": "OK",
      "vis_m": 9999,
      "fzfg": false,
      "metar_trigger": false,
      "taf_trigger": false,
      "metar": "METAR EPSC 090930Z 09010KT CAVOK M08/M11 Q1006",
      "taf": "TAF EPSC 090530Z 0906/1006 10008KT CAVOK"
    },
    {
      "icao": "EPSY",
      "alert": "OK",
      "vis_m": 9999,
      "fzfg": false,
      "metar_trigger": false,
      "taf_trigger": false,
      "metar": "METAR EPSY 090930Z 34009KT CAVOK M10/M12 Q1004",
      "taf": "TAF EPSY 090830Z 0909/0918 36010KT CAVOK"
    },
    {
      "icao": "EPWA",
      "alert": "OK",
      "vis_m": 9999,
      "fzfg": false,
      "metar_trigger": false,
      "taf_trigger": false,
      "metar": "METAR EPWA 090930Z 29009KT 9999 FEW007 M11/M12 Q1003 NOSIG",
      "taf": "TAF EPWA 090830Z 0909/1009 30010KT 9999 SCT030"
    },
    {
      "icao": "EPWR",
      "alert": "OK",
      "vis_m": 4500,
      "fzfg": false,
      "metar_trigger": false,
      "taf_trigger": false,
      "metar": "METAR EPWR 090930Z 10004KT 060V120 4500 BR NSC M09/M11 Q1005",
      "taf": "TAF EPWR 090830Z 0909/1009 10006KT 3500 BR FEW002"
    },
    {
      "icao": "ESGG",
      "alert": "OK",
      "vis_m": 9999,
      "fzfg": false,
      "metar_trigger": false,
      "taf_trigger": false,
      "metar": "METAR ESGG 090920Z 08010KT 9999 BKN025 M04/M07 Q1012",
      "taf": "TAF ESGG 090830Z 0909/1009 08010KT 9999 SCT030"
    },
    {
      "icao": "ESKN",
      "alert": "OK",
      "vis_m": 9999,
      "fzfg": false,
      "metar_trigger": false,
      "taf_trigger": false,
      "metar": "METAR ESKN 090920Z 05005KT 9999 BKN029 M03/M05 Q1018",
      "taf": "TAF ESKN 090830Z 0909/1009 07010KT 9999 BKN030"
    },
    {
      "icao": "ESMS",
      "alert": "OK",
      "vis_m": 9999,
      "fzfg": false,
      "metar_trigger": false,
      "taf_trigger": false,
      "metar": "METAR ESMS 090920Z 08018KT 9999 BKN040 M00/M06 Q1008",
      "taf": "TAF ESMS 090827Z 0909/1009 09012KT 9999 BKN040"
    },
    {
      "icao": "ESSA",
      "alert": "OK",
      "vis_m": 9999,
      "fzfg": false,
      "metar_trigger": false,
      "taf_trigger": false,
      "metar": "METAR ESSA 090920Z 06012KT 9999 -SN FEW026 BKN033 M04/M07 Q1020 NOSIG",
      "taf": "TAF ESSA 090830Z 0909/1009 10012KT 9999 SCT035"
    },
    {
      "icao": "EYKA",
      "alert": "OK",
      "vis_m": 2800,
      "fzfg": false,
      "metar_trigger": false,
      "taf_trigger": false,
      "metar": "METAR EYKA 090920Z 36013KT 340V050 2800 SN BLSN BKN035 OVC048 M10/M13 Q1004",
      "taf": "TAF EYKA 090505Z 0906/1006 01015G28KT 3000 SN BKN015 OVC030"
    },
    {
      "icao": "EYPA",
      "alert": "OK",
      "vis_m": 9999,
      "fzfg": false,
      "metar_trigger": false,
      "taf_trigger": false,
      "metar": "METAR EYPA 090920Z 05014KT CAVOK M08/M11 Q1010",
      "taf": ""
    },
    {
      "icao": "EYVI",
      "alert": "OK",
      "vis_m": 800,
      "fzfg": false,
      "metar_trigger": false,
      "taf_trigger": false,
      "metar": "METAR EYVI 090920Z 01017KT 0800 R01/0900N +SN BLSN OVC012 M11/M14 Q0999 NOSIG",
      "taf": "TAF EYVI 090500Z 0906/1006 02015KT 1500 SN BLSN SCT010 OVC015"
    },
    {
      "icao": "GCFV",
      "alert": "OK",
      "vis_m": 9999,
      "fzfg": false,
      "metar_trigger": false,
      "taf_trigger": false,
      "metar": "METAR GCFV 090930Z 04009KT 9999 FEW030 18/10 Q1031",
      "taf": "TAF GCFV 090800Z 0909/1009 05013KT 9999 FEW025 TX20/0914Z TN15/1006Z"
    },
    {
      "icao": "GCLP",
      "alert": "OK",
      "vis_m": 9999,
      "fzfg": false,
      "metar_trigger": false,
      "taf_trigger": false,
      "metar": "METAR GCLP 090930Z 34006KT 9999 FEW030 17/11 Q1031 NOSIG",
      "taf": "TAF GCLP 090800Z 0909/1009 03012KT 9999 FEW030 TX20/0914Z TN15/1006Z"
    },
    {
      "icao": "GCTS",
      "alert": "OK",
      "vis_m": 9999,
      "fzfg": false,
      "metar_trigger": false,
      "taf_trigger": false,
      "metar": "METAR GCTS 090930Z 06012KT CAVOK 18/09 Q1031 NOSIG",
      "taf": "TAF GCTS 090800Z 0909/1009 03010KT 9999 FEW030 TX22/0914Z TN15/1006Z"
    },
    {
      "icao": "GMAD",
      "alert": "OK",
      "vis_m": 9999,
      "fzfg": false,
      "metar_trigger": false,
      "taf_trigger": false,
      "metar": "METAR GMAD 090930Z 06007KT CAVOK 09/06 Q1030 NOSIG",
      "taf": "TAF GMAD 090500Z 0906/1012 05005KT CAVOK"
    },
    {
      "icao": "GMMN",
      "alert": "OK",
      "vis_m": 9999,
      "fzfg": false,
      "metar_trigger": false,
      "taf_trigger": false,
      "metar": "METAR GMMN 090930Z 18004KT 9999 SCT030 10/09 Q1031 NOSIG",
      "taf": "TAF GMMN 090500Z 0906/1012 15004KT 9999 SCT030"
    },
    {
      "icao": "GMMX",
      "alert": "OK",
      "vis_m": 8000,
      "fzfg": false,
      "metar_trigger": false,
      "taf_trigger": false,
      "metar": "METAR GMMX 090930Z VRB02KT 8000 NSC 09/06 Q1031 NOSIG",
      "taf": "TAF GMMX 090500Z 0906/1012 24004KT 8000 NSC"
    },
    {
      "icao": "HEGN",
      "alert": "OK",
      "vis_m": 3000,
      "fzfg": false,
      "metar_trigger": false,
      "taf_trigger": false,
      "metar": "METAR HEGN 090900Z 33022KT 3000 SA NSC 24/09 Q1015 NOSIG",
      "taf": "TAF HEGN 090500Z 0906/1012 32015G30KT 6000 NSC"
    },
    {
      "icao": "HEMA",
      "alert": "OK",
      "vis_m": 9999,
      "fzfg": false,
      "metar_trigger": false,
      "taf_trigger": false,
      "metar": "METAR HEMA 090900Z 11006KT CAVOK 27/16 Q1014 NOSIG",
      "taf": "TAF HEMA 090500Z 0906/1012 32008G20KT 6000 NSC"
    },
    {
      "icao": "HESH",
      "alert": "OK",
      "vis_m": 8000,
      "fzfg": false,
      "metar_trigger": false,
      "taf_trigger": false,
      "metar": "METAR HESH 090900Z 31010KT 8000 NSC 24/17 Q1013 NOSIG",
      "taf": "TAF HESH 090500Z 0906/1012 34010G22KT 6000 NSC"
    },
    {
      "icao": "HESX",
      "alert": "OK",
      "vis_m": 9999,
      "fzfg": false,
      "metar_trigger": false,
      "taf_trigger": false,
      "metar": "METAR HESX 090900Z 28017KT CAVOK 17/04 Q1019 NOSIG",
      "taf": "TAF HESX 090500Z 0906/1012 27015KT 6000 SCT025"
    },
    {
      "icao": "LATI",
      "alert": "OK",
      "vis_m": 9999,
      "fzfg": false,
      "metar_trigger": false,
      "taf_trigger": false,
      "metar": "METAR LATI 090920Z 17006KT 9999 -RA BKN035 OVC060 06/M00 Q1014 NOSIG",
      "taf": "TAF LATI 090500Z 0906/1006 VRB05KT CAVOK TX14/0921Z TN01/0906Z"
    },
    {
      "icao": "LBPD",
      "alert": "OK",
      "vis_m": 9999,
      "fzfg": false,
      "metar_trigger": false,
      "taf_trigger": false,
      "metar": "METAR LBPD 090930Z AUTO 31011KT 9999 NCD 05/M09 Q1009 NOSIG",
      "taf": "TAF LBPD 090500Z 0906/1006 29010KT 9999 SCT050"
    },
    {
      "icao": "LBSF",
      "alert": "OK",
      "vis_m": 9999,
      "fzfg": false,
      "metar_trigger": false,
      "taf_trigger": false,
      "metar": "METAR LBSF 090930Z 33006KT 270V010 CAVOK M00/M08 Q1010 NOSIG",
      "taf": "TAF LBSF 090500Z 0906/1006 VRB04KT 9999 SCT030"
    },
    {
      "icao": "LBWN",
      "alert": "OK",
      "vis_m": 9999,
      "fzfg": false,
      "metar_trigger": false,
      "taf_trigger": false,
      "metar": "METAR LBWN 090930Z 28017KT CAVOK M00/M06 Q1007 NOSIG",
      "taf": "TAF LBWN 090500Z 0906/1006 28018G28KT CAVOK"
    },
    {
      "icao": "LCLK",
      "alert": "OK",
      "vis_m": 9999,
      "fzfg": false,
      "metar_trigger": false,
      "taf_trigger": false,
      "metar": "METAR LCLK 090930Z 23012KT 9999 FEW020 FEW035CB 16/11 Q1007 NOSIG RMK CB TO E SW N",
      "taf": "TAF LCLK 090530Z 0906/1006 24014KT 9999 FEW020 SCT040"
    },
    {
      "icao": "LCPH",
      "alert": "OK",
      "vis_m": 9999,
      "fzfg": false,
      "metar_trigger": false,
      "taf_trigger": false,
      "metar": "METAR LCPH 090930Z 32021KT 9999 FEW025 FEW030CB SCT050 BKN060 16/09 Q1009 TEMPO 5000 TSRA BKN005",
      "taf": "TAF LCPH 090530Z 0906/1006 30025G35KT 9999 FEW025 SCT040"
    },
    {
      "icao": "LEAL",
      "alert": "OK",
      "vis_m": 9999,
      "fzfg": false,
      "metar_trigger": false,
      "taf_trigger": false,
      "metar": "METAR LEAL 090930Z 21004KT 160V240 CAVOK 15/06 Q1023 NOSIG",
      "taf": "TAF LEAL 090500Z 0906/1006 23008KT CAVOK TX18/0914Z TN10/0906Z"
    },
    {
      "icao": "LEBB",
      "alert": "OK",
      "vis_m": 9999,
      "fzfg": false,
      "metar_trigger": false,
      "taf_trigger": false,
      "metar": "METAR LEBB 090930Z 23006KT 200V270 9999 SCT040 BKN052 11/07 Q1017 BECMG 29018G29KT",
      "taf": "TAF LEBB 090500Z 0906/1006 29009KT 9999 FEW020 SCT040 TX12/0914Z TN07/0923Z"
    },
    {
      "icao": "LEBL",
      "alert": "OK",
      "vis_m": 9999,
      "fzfg": false,
      "metar_trigger": false,
      "taf_trigger": false,
      "metar": "METAR LEBL 090930Z 25010KT 9999 FEW025 15/06 Q1014 NOSIG",
      "taf": ""
    },
    {
      "icao": "LECH",
      "alert": "OK",
      "vis_m": 8000,
      "fzfg": false,
      "metar_trigger": false,
      "taf_trigger": false,
      "metar": "METAR LECH 090930Z AUTO 24007KT 210V280 8000 NCD 13/04 Q1017",
      "taf": ""
    },
    {
      "icao": "LEMD",
      "alert": "OK",
      "vis_m": 9999,
      "fzfg": false,
      "metar_trigger": false,
      "taf_trigger": false,
      "metar": "METAR LEMD 090930Z VRB08KT 9999 FEW048 10/01 Q1023 NOSIG",
      "taf": "TAF LEMD 090500Z 0906/1012 23010KT 9999 SCT030 TX11/0912Z TN01/1006Z"
    },
    {
      "icao": "LEMG",
      "alert": "OK",
      "vis_m": 9999,
      "fzfg": false,
      "metar_trigger": false,
      "taf_trigger": false,
      "metar": "METAR LEMG 090930Z 29011KT 240V330 9999 FEW025 13/08 Q1028 NOSIG",
      "taf": "TAF LEMG 090500Z 0906/1006 29013KT CAVOK TX18/0914Z TN08/0906Z"
    },
    {
      "icao": "LEVC",
      "alert": "OK",
      "vis_m": 9999,
      "fzfg": false,
      "metar_trigger": false,
      "taf_trigger": false,
      "metar": "METAR LEVC 090930Z 22013KT 9999 FEW035 14/07 Q1020 NOSIG",
      "taf": "TAF LEVC 090500Z 0906/1006 27015KT 9999 FEW020 TX18/0914Z TN09/0906Z"
    },
    {
      "icao": "LEXJ",
      "alert": "OK",
      "vis_m": 9999,
      "fzfg": false,
      "metar_trigger": false,
      "taf_trigger": false,
      "metar": "METAR LEXJ 090930Z 30030G45KT 9999 SCT050 13/03 Q1017",
      "taf": "TAF LEXJ 090800Z 0909/1009 29015KT 9999 SCT025 TX12/0913Z TN07/0921Z"
    },
    {
      "icao": "LEZG",
      "alert": "OK",
      "vis_m": 9999,
      "fzfg": false,
      "metar_trigger": false,
      "taf_trigger": false,
      "metar": "METAR LEZG 090930Z 29013KT CAVOK 13/03 Q1017 NOSIG",
      "taf": ""
    },
    {
      "icao": "LEZL",
      "alert": "OK",
      "vis_m": 9000,
      "fzfg": false,
      "metar_trigger": false,
      "taf_trigger": false,
      "metar": "METAR LEZL 090930Z 24003KT 210V290 9000 OVC012 11/09 Q1030 NOSIG",
      "taf": "TAF LEZL 090800Z 0909/1009 VRB03KT 9999 BKN020 TX16/0915Z TN06/1007Z"
    },
    {
      "icao": "LFBD",
      "alert": "OK",
      "vis_m": 9999,
      "fzfg": false,
      "metar_trigger": false,
      "taf_trigger": false,
      "metar": "METAR LFBD 090930Z AUTO 27020G31KT 240V300 9999 FEW040 OVC092 10/03 Q1010",
      "taf": "TAF LFBD 090500Z 0906/1012 26015G25KT 9999 BKN030 TX11/0914Z TN09/0906Z"
    },
    {
      "icao": "LFLL",
      "alert": "OK",
      "vis_m": 9999,
      "fzfg": false,
      "metar_trigger": false,
      "taf_trigger": false,
      "metar": "METAR LFLL 090930Z 23017KT 9999 FEW050 SCT053 BKN130 08/01 Q1006 NOSIG",
      "taf": "TAF LFLL 090500Z 0906/1012 22012KT 9999 BKN045"
    },
    {
      "icao": "LFLS",
      "alert": "OK",
      "vis_m": 9999,
      "fzfg": false,
      "metar_trigger": false,
      "taf_trigger": false,
      "metar": "METAR LFLS 090930Z AUTO 21010KT 9999 FEW048 BKN060 BKN076 07/01 Q1007 NOSIG",
      "taf": "TAF LFLS 090800Z 0909/1009 20014KT 9999 SCT045 SCT100"
    },
    {
      "icao": "LFMN",
      "alert": "OK",
      "vis_m": 9999,
      "fzfg": false,
      "metar_trigger": false,
      "taf_trigger": false,
      "metar": "METAR LFMN 090930Z 25023KT CAVOK 14/02 Q1005 NOSIG",
      "taf": "TAF LFMN 090800Z 0909/1015 25020G30KT CAVOK"
    },
    {
      "icao": "LFOB",
      "alert": "OK",
      "vis_m": 9999,
      "fzfg": false,
      "metar_trigger": false,
      "taf_trigger": false,
      "metar": "METAR LFOB 090930Z AUTO 26018KT 9999 -RA BKN014 OVC020 05/03 Q0990 TEMPO 4000 SHRA BKN012TCU BECMG 25025G40KT",
      "taf": "TAF LFOB 090500Z 0906/1006 25025G40KT 9999 OVC020"
    },
    {
      "icao": "LFPO",
      "alert": "OK",
      "vis_m": 9999,
      "fzfg": false,
      "metar_trigger": false,
      "taf_trigger": false,
      "metar": "METAR LFPO 090930Z 25022KT 9999 FEW023 BKN030 06/02 Q0994 NOSIG",
      "taf": "TAF LFPO 090500Z 0906/1012 24025G40KT 9999 BKN030"
    },
    {
      "icao": "LFSB",
      "alert": "OK",
      "vis_m": 9999,
      "fzfg": false,
      "metar_trigger": false,
      "taf_trigger": false,
      "metar": "METAR LFSB 090930Z AUTO 25018G32KT 9999 SCT039 SCT047 BKN130 07/02 Q0999 NOSIG",
      "taf": ""
    },
    {
      "icao": "LGAV",
      "alert": "OK",
      "vis_m": 9999,
      "fzfg": false,
      "metar_trigger": false,
      "taf_trigger": false,
      "metar": "METAR LGAV 090920Z 31005KT 230V360 9999 FEW025 13/M01 Q1016 NOSIG",
      "taf": "TAF LGAV 090500Z 0906/1006 25012KT 9999 FEW025"
    },
    {
      "icao": "LGTS",
      "alert": "OK",
      "vis_m": 9999,
      "fzfg": false,
      "metar_trigger": false,
      "taf_trigger": false,
      "metar": "METAR LGTS 090920Z 10004KT CAVOK 08/M06 Q1013 NOSIG",
      "taf": "TAF LGTS 090500Z 0906/1006 31015KT 9999 FEW025"
    },
    {
      "icao": "LHBP",
      "alert": "OK",
      "vis_m": 8000,
      "fzfg": false,
      "metar_trigger": false,
      "taf_trigger": false,
      "metar": "METAR LHBP 090930Z VRB02KT 8000 NSC M06/M09 Q1006 TEMPO 3500 SN SCT030 BKN050",
      "taf": "TAF LHBP 090515Z 0906/1006 VRB03KT CAVOK"
    },
    {
      "icao": "LHDC",
      "alert": "OK",
      "vis_m": 5000,
      "fzfg": false,
      "metar_trigger": false,
      "taf_trigger": false,
      "metar": "METAR LHDC 090915Z AUTO 21006KT 170V230 5000 BR NCD M11/M13 Q1008 NOSIG",
      "taf": "TAF LHDC 090815Z 0909/0918 19008KT 7000 NSC"
    },
    {
      "icao": "LIBD",
      "alert": "OK",
      "vis_m": 9999,
      "fzfg": false,
      "metar_trigger": false,
      "taf_trigger": false,
      "metar": "METAR LIBD 090920Z 15005KT CAVOK 13/08 Q1010",
      "taf": "TAF LIBD 090500Z 0906/1006 17008KT 9999 FEW020"
    },
    {
      "icao": "LIBG",
      "alert": "OK",
      "vis_m": 9999,
      "fzfg": false,
      "metar_trigger": false,
      "taf_trigger": false,
      "metar": "METAR LIBG 090850Z VRB02KT 9999 FEW010 11/11 Q1012",
      "taf": "TAF LIBG 090800Z 0909/0918 21008KT 9999 SCT040"
    },
    {
      "icao": "LIBP",
      "alert": "OK",
      "vis_m": 9999,
      "fzfg": false,
      "metar_trigger": false,
      "taf_trigger": false,
      "metar": "METAR LIBP 090920Z AUTO 22016KT 9999 FEW170/// 17/07 Q1005",
      "taf": "TAF LIBP 090500Z 0906/1006 VRB06KT 9999 SCT025"
    },
    {
      "icao": "LIBR",
      "alert": "OK",
      "vis_m": 9999,
      "fzfg": false,
      "metar_trigger": false,
      "taf_trigger": false,
      "metar": "METAR LIBR 090920Z 17007KT CAVOK 10/07 Q1012",
      "taf": "TAF LIBR 090500Z 0906/1006 17010KT 9999 FEW040"
    },
    {
      "icao": "LICA",
      "alert": "OK",
      "vis_m": 9999,
      "fzfg": false,
      "metar_trigger": false,
      "taf_trigger": false,
      "metar": "METAR LICA 090920Z AUTO 25023KT 9999 FEW020/// BKN045/// 16/13 Q1015",
      "taf": "TAF LICA 090500Z 0906/1006 27026G38KT 9999 BKN016"
    },
    {
      "icao": "LICC",
      "alert": "OK",
      "vis_m": 9999,
      "fzfg": false,
      "metar_trigger": false,
      "taf_trigger": false,
      "metar": "METAR LICC 090920Z 25017KT 9999 FEW060 17/12 Q1018",
      "taf": "TAF LICC 090500Z 0906/1006 26013KT 9999 FEW050"
    },
    {
      "icao": "LICJ",
      "alert": "OK",
      "vis_m": 9999,
      "fzfg": false,
      "metar_trigger": false,
      "taf_trigger": false,
      "metar": "METAR LICJ 090920Z 22022KT 9999 BKN035 15/11 Q1018 RERA",
      "taf": "TAF LICJ 090500Z 0906/1006 23020G35KT 9999 SCT020"
    },
    {
      "icao": "LIMC",
      "alert": "OK",
      "vis_m": 6000,
      "fzfg": false,
      "metar_trigger": false,
      "taf_trigger": false,
      "metar": "METAR LIMC 090920Z VRB01KT 6000 BKN010 01/M02 Q1006 NOSIG",
      "taf": "TAF LIMC 090500Z 0906/1012 VRB04KT 9999 BKN025"
    },
    {
      "icao": "LIME",
      "alert": "OK",
      "vis_m": 9999,
      "fzfg": false,
      "metar_trigger": false,
      "taf_trigger": false,
      "metar": "METAR LIME 090920Z 26005KT 9999 SCT025 BKN035 01/M05 Q1005 NOSIG",
      "taf": "TAF LIME 090500Z 0906/1006 VRB04KT 9999 SCT050"
    },
    {
      "icao": "LIMF",
      "alert": "OK",
      "vis_m": 7000,
      "fzfg": false,
      "metar_trigger": false,
      "taf_trigger": false,
      "metar": "METAR LIMF 090920Z 03003KT 350V070 7000 FEW030 00/M04 Q1005",
      "taf": "TAF LIMF 090500Z 0906/1006 VRB03KT 9999 BKN030"
    },
    {
      "icao": "LIMJ",
      "alert": "OK",
      "vis_m": 9999,
      "fzfg": false,
      "metar_trigger": false,
      "taf_trigger": false,
      "metar": "METAR LIMJ 090920Z 04016KT 9999 SCT030 06/M02 Q1003",
      "taf": "TAF LIMJ 090500Z 0906/1006 03012KT 9999 SCT020 BKN030"
    },
    {
      "icao": "LIPE",
      "alert": "OK",
      "vis_m": 9999,
      "fzfg": false,
      "metar_trigger": false,
      "taf_trigger": false,
      "metar": "METAR LIPE 090920Z 23005KT 200V260 9999 BKN020 M00/M02 Q1006",
      "taf": "TAF LIPE 090500Z 0906/1006 VRB05KT 9999 BKN020"
    },
    {
      "icao": "LIPH",
      "alert": "OK",
      "vis_m": 9999,
      "fzfg": false,
      "metar_trigger": false,
      "taf_trigger": false,
      "metar": "METAR LIPH 090920Z 26003KT 9999 -RASN SCT030 BKN040 02/M02 Q1005",
      "taf": "TAF LIPH 090500Z 0906/1006 VRB05KT 9999 BKN030"
    },
    {
      "icao": "LIPQ",
      "alert": "OK",
      "vis_m": 4100,
      "fzfg": false,
      "metar_trigger": false,
      "taf_trigger": false,
      "metar": "METAR LIPQ 090920Z AUTO 06003KT 4100 -RA BR OVC014/// 02/02 Q1004",
      "taf": "TAF LIPQ 090500Z 0906/1006 VRB05KT 9999 BKN030"
    },
    {
      "icao": "LIPR",
      "alert": "OK",
      "vis_m": 9999,
      "fzfg": false,
      "metar_trigger": false,
      "taf_trigger": false,
      "metar": "METAR LIPR 090920Z VRB02KT 9999 FEW060 03/M02 Q1005",
      "taf": "TAF LIPR 090500Z 0906/1006 VRB05KT 9999 BKN040"
    },
    {
      "icao": "LIPX",
      "alert": "OK",
      "vis_m": 9999,
      "fzfg": false,
      "metar_trigger": false,
      "taf_trigger": false,
      "metar": "METAR LIPX 090920Z 34003KT 9999 BKN025 01/M05 Q1006",
      "taf": "TAF LIPX 090500Z 0906/1006 VRB05KT 7000 FEW020"
    },
    {
      "icao": "LIPY",
      "alert": "OK",
      "vis_m": 9999,
      "fzfg": false,
      "metar_trigger": false,
      "taf_trigger": false,
      "metar": "METAR LIPY 090920Z AUTO 01005KT 320V050 9999 SCT048/// BKN150/// 07/04 Q1004",
      "taf": "TAF LIPY 090500Z 0906/1006 VRB05KT 9999 SCT035"
    },
    {
      "icao": "LIPZ",
      "alert": "OK",
      "vis_m": 9000,
      "fzfg": false,
      "metar_trigger": false,
      "taf_trigger": false,
      "metar": "METAR LIPZ 090920Z 34006KT 9000 -DZ BKN020 01/M02 Q1005 NOSIG",
      "taf": "TAF LIPZ 090500Z 0906/1012 VRB06KT 9999 BKN020"
    },
    {
      "icao": "LIRF",
      "alert": "OK",
      "vis_m": 9000,
      "fzfg": false,
      "metar_trigger": false,
      "taf_trigger": false,
      "metar": "METAR LIRF 090920Z 24016KT 9000 SCT028 15/10 Q1009 NOSIG",
      "taf": "TAF LIRF 090500Z 0906/1012 25016G26KT 9999 SCT020"
    },
    {
      "icao": "LIRN",
      "alert": "OK",
      "vis_m": 9999,
      "fzfg": false,
      "metar_trigger": false,
      "taf_trigger": false,
      "metar": "METAR LIRN 090920Z 22008KT 9999 FEW020 SCT040 15/11 Q1012 NOSIG",
      "taf": "TAF LIRN 090500Z 0906/1006 VRB05KT 9999 BKN025"
    },
    {
      "icao": "LIRP",
      "alert": "OK",
      "vis_m": 9999,
      "fzfg": false,
      "metar_trigger": false,
      "taf_trigger": false,
      "metar": "METAR LIRP 090915Z 24015KT 9999 FEW015 FEW020TCU BKN025 13/11 Q1005 TEMPO 24017G30KT",
      "taf": "TAF LIRP 090500Z 0906/1006 12003KT 9999 SCT020 SCT030"
    },
    {
      "icao": "LIRZ",
      "alert": "OK",
      "vis_m": 9999,
      "fzfg": false,
      "metar_trigger": false,
      "taf_trigger": false,
      "metar": "METAR LIRZ 090920Z AUTO 24004KT 170V270 9999 OVC015/// 09/08 Q1007",
      "taf": "TAF LIRZ 090500Z 0906/1006 VRB05KT 9999 BKN040"
    },
    {
      "icao": "LJLJ",
      "alert": "OK",
      "vis_m": 9999,
      "fzfg": false,
      "metar_trigger": false,
      "taf_trigger": false,
      "metar": "METAR LJLJ 090930Z VRB01KT 9999 -SN BKN027 OVC037 M03/M04 Q1003 NOSIG",
      "taf": "TAF LJLJ 090500Z 0906/1006 29006KT 9999 BKN030"
    },
    {
      "icao": "LKMT",
      "alert": "OK",
      "vis_m": 9999,
      "fzfg": false,
      "metar_trigger": false,
      "taf_trigger": false,
      "metar": "METAR LKMT 090930Z VRB01KT CAVOK M08/M10 Q1004 NOSIG",
      "taf": "TAF LKMT 090500Z 0906/1006 VRB02KT 5000 BR NSC"
    },
    {
      "icao": "LKPR",
      "alert": "OK",
      "vis_m": 6000,
      "fzfg": false,
      "metar_trigger": false,
      "taf_trigger": false,
      "metar": "METAR LKPR 090930Z 13009KT 6000 FEW005 BKN008 OVC034 M04/M05 Q0999 NOSIG",
      "taf": "TAF LKPR 090800Z 0909/1015 09007KT 6000 -SN SCT010 OVC015"
    },
    {
      "icao": "LLBG",
      "alert": "OK",
      "vis_m": 9999,
      "fzfg": false,
      "metar_trigger": false,
      "taf_trigger": false,
      "metar": "METAR LLBG 090920Z 28017KT 9999 SCT045 19/09 Q1013 TEMPO 28020G30KT 5000 TSRA FEW025CB BKN030",
      "taf": "TAF LLBG 090502Z 0906/1006 24014KT 9999 SCT025 BKN035"
    },
    {
      "icao": "LMML",
      "alert": "OK",
      "vis_m": 9999,
      "fzfg": false,
      "metar_trigger": false,
      "taf_trigger": false,
      "metar": "METAR LMML 090915Z 24015KT 210V270 9999 FEW023 16/11 Q1022 NOSIG",
      "taf": "TAF LMML 090500Z 0906/1006 27017KT 9999 FEW025"
    },
    {
      "icao": "LOWW",
      "alert": "OK",
      "vis_m": 1800,
      "fzfg": false,
      "metar_trigger": false,
      "taf_trigger": false,
      "metar": "METAR LOWW 090920Z 12008KT 1800 1200SW R11/P1500U SN FEW011 SCT015 BKN018 M06/M08 Q1003 TEMPO 4000 -SN",
      "taf": "TAF LOWW 090815Z 0909/1015 12008KT 8000 BKN020 TX00/1013Z TNM06/0911Z"
    },
    {
      "icao": "LPFR",
      "alert": "OK",
      "vis_m": 9999,
      "fzfg": false,
      "metar_trigger": false,
      "taf_trigger": false,
      "metar": "METAR LPFR 090930Z 29004KT 9999 FEW035 SCT045 12/12 Q1030",
      "taf": "TAF LPFR 090500Z 0906/1006 31005KT 9999 SCT012 BKN020"
    },
    {
      "icao": "LPMA",
      "alert": "OK",
      "vis_m": 9999,
      "fzfg": false,
      "metar_trigger": false,
      "taf_trigger": false,
      "metar": "METAR LPMA 090930Z 01007KT 9999 SCT015 16/11 Q1034",
      "taf": "TAF LPMA 090500Z 0906/1006 01010KT 9999 SCT015"
    },
    {
      "icao": "LPPR",
      "alert": "OK",
      "vis_m": 9999,
      "fzfg": false,
      "metar_trigger": false,
      "taf_trigger": false,
      "metar": "METAR LPPR 090930Z 30008KT 270V330 9999 FEW018 SCT026 BKN031 13/08 Q1027",
      "taf": "TAF LPPR 090500Z 0906/1006 30010KT 9999 FEW020"
    },
    {
      "icao": "LPPS",
      "alert": "OK",
      "vis_m": 9999,
      "fzfg": false,
      "metar_trigger": false,
      "taf_trigger": false,
      "metar": "METAR LPPS 090930Z 36005KT 9999 3000N SCT005 SCT030 14/13 Q1034",
      "taf": "TAF LPPS 090500Z 0906/1012 05008KT 9999 FEW015 SCT030"
    },
    {
      "icao": "LPPT",
      "alert": "OK",
      "vis_m": 9999,
      "fzfg": false,
      "metar_trigger": false,
      "taf_trigger": false,
      "metar": "METAR LPPT 090930Z 29003KT 250V330 9999 FEW012 13/12 Q1029",
      "taf": ""
    },
    {
      "icao": "LQBK",
      "alert": "OK",
      "vis_m": 9999,
      "fzfg": false,
      "metar_trigger": false,
      "taf_trigger": false,
      "metar": "METAR LQBK 090930Z 00000KT CAVOK M06/M07 Q1005 NOSIG",
      "taf": "TAF LQBK 090500Z 0906/1006 15005KT 9999 SCT040 TX01/0913Z TNM10/0906Z"
    },
    {
      "icao": "LQSA",
      "alert": "OK",
      "vis_m": 4000,
      "fzfg": false,
      "metar_trigger": false,
      "taf_trigger": false,
      "metar": "METAR LQSA 090930Z VRB01KT 4000 BR FEW060 M08/M08 Q1008 NOSIG",
      "taf": "TAF LQSA 090500Z 0906/1006 10006KT 6000 SCT050 TX02/0913Z TNM12/0906Z"
    },
    {
      "icao": "LQTZ",
      "alert": "OK",
      "vis_m": 3000,
      "fzfg": false,
      "metar_trigger": false,
      "taf_trigger": false,
      "metar": "METAR LQTZ 090930Z VRB01KT 3000 BR SCT005 BKN045 M08/M08 Q1006",
      "taf": ""
    },
    {
      "icao": "LRBC",
      "alert": "OK",
      "vis_m": 9999,
      "fzfg": false,
      "metar_trigger": false,
      "taf_trigger": false,
      "metar": "METAR LRBC 090930Z 26018KT CAVOK M01/M11 Q1002",
      "taf": "TAF LRBC 090800Z 0909/0918 26016KT CAVOK"
    },
    {
      "icao": "LRBS",
      "alert": "OK",
      "vis_m": 9999,
      "fzfg": false,
      "metar_trigger": false,
      "taf_trigger": false,
      "metar": "METAR LRBS 090930Z 26011KT 240V310 CAVOK M01/M06 Q1007 NOSIG",
      "taf": "TAF LRBS 090500Z 0906/1006 25012KT CAVOK"
    },
    {
      "icao": "LRBV",
      "alert": "OK",
      "vis_m": 9999,
      "fzfg": false,
      "metar_trigger": false,
      "taf_trigger": false,
      "metar": "METAR LRBV 090930Z 30006KT 260V320 9999 FEW023 SCT031 M05/M10 Q1005",
      "taf": "TAF LRBV 090800Z 0909/0918 VRB04KT 9999 -SN SCT015 OVC030"
    },
    {
      "icao": "LRCL",
      "alert": "OK",
      "vis_m": 9999,
      "fzfg": false,
      "metar_trigger": false,
      "taf_trigger": false,
      "metar": "METAR LRCL 090930Z 00000KT CAVOK M04/M10 Q1006",
      "taf": "TAF LRCL 090800Z 0909/0918 VRB04KT CAVOK"
    },
    {
      "icao": "LRCV",
      "alert": "OK",
      "vis_m": 9999,
      "fzfg": false,
      "metar_trigger": false,
      "taf_trigger": false,
      "metar": "METAR LRCV 090930Z 30008KT CAVOK M01/M05 Q1008",
      "taf": "TAF LRCV 090800Z 0909/0918 29008KT CAVOK"
    },
    {
      "icao": "LRIA",
      "alert": "OK",
      "vis_m": 9999,
      "fzfg": false,
      "metar_trigger": false,
      "taf_trigger": false,
      "metar": "METAR LRIA 090930Z 25010KT 200V280 CAVOK M01/M08 Q1001",
      "taf": "TAF LRIA 090800Z 0909/0918 24010KT CAVOK"
    },
    {
      "icao": "LROP",
      "alert": "OK",
      "vis_m": 9999,
      "fzfg": false,
      "metar_trigger": false,
      "taf_trigger": false,
      "metar": "METAR LROP 090930Z 25011KT CAVOK M00/M05 Q1007 NOSIG",
      "taf": "TAF LROP 090500Z 0906/1006 25012KT CAVOK"
    },
    {
      "icao": "LRSB",
      "alert": "OK",
      "vis_m": 9999,
      "fzfg": false,
      "metar_trigger": false,
      "taf_trigger": false,
      "metar": "METAR LRSB 090930Z 12003KT CAVOK M04/M10 Q1005",
      "taf": "TAF LRSB 090500Z 0906/1006 29012KT 9999 OVC050"
    },
    {
      "icao": "LRSM",
      "alert": "OK",
      "vis_m": 9999,
      "fzfg": false,
      "metar_trigger": false,
      "taf_trigger": false,
      "metar": "METAR LRSM 090930Z 21004KT CAVOK M09/M12 Q1008",
      "taf": "TAF LRSM 090800Z 0909/0918 VRB04KT CAVOK"
    },
    {
      "icao": "LRSV",
      "alert": "OK",
      "vis_m": 9999,
      "fzfg": false,
      "metar_trigger": false,
      "taf_trigger": false,
      "metar": "METAR LRSV 090930Z 26012KT 9999 BKN048 M03/M10 Q0998",
      "taf": "TAF LRSV 090800Z 0909/0918 25008KT 9999 BKN045"
    },
    {
      "icao": "LRTM",
      "alert": "OK",
      "vis_m": 9999,
      "fzfg": false,
      "metar_trigger": false,
      "taf_trigger": false,
      "metar": "METAR LRTM 090930Z 25003KT 9999 FEW042 M06/M10 Q1006",
      "taf": "TAF LRTM 090800Z 0909/0918 24007KT 9999 SCT040"
    },
    {
      "icao": "LRTR",
      "alert": "OK",
      "vis_m": 7000,
      "fzfg": false,
      "metar_trigger": false,
      "taf_trigger": false,
      "metar": "METAR LRTR 090930Z 10009KT 7000 FEW045 M09/M10 Q1008 NOSIG",
      "taf": ""
    },
    {
      "icao": "LTAC",
      "alert": "OK",
      "vis_m": 9999,
      "fzfg": false,
      "metar_trigger": false,
      "taf_trigger": false,
      "metar": "METAR LTAC 090920Z 26016KT 9999 SCT040 SCT080 02/M03 Q1005 NOSIG RMK RWY21C 25016KT RWY03L 26014KT RWY21R 24015KT RWY03R 24015KT RWY21L 25015KT",
      "taf": "TAF LTAC 090440Z 0906/1006 24012KT 8000 SCT040 BKN100"
    },
    {
      "icao": "LTFM",
      "alert": "OK",
      "vis_m": 9999,
      "fzfg": false,
      "metar_trigger": false,
      "taf_trigger": false,
      "metar": "METAR LTFM 090920Z 24013KT 9999 FEW040 03/M07 Q1011 NOSIG RMK RWY17L 23013KT RWY34L 23011KT RWY16R 23010KT RWY36 25013KT RWY18 25014KT",
      "taf": "TAF LTFM 090440Z 0906/1012 26008KT 9999 FEW040"
    },
    {
      "icao": "LUKK",
      "alert": "OK",
      "vis_m": 9999,
      "fzfg": false,
      "metar_trigger": false,
      "taf_trigger": false,
      "metar": "METAR LUKK 090930Z 28011KT 9999 SCT049 M01/M08 Q1001 NOSIG",
      "taf": "TAF LUKK 090516Z 0906/1006 27010KT 9999 SCT030"
    },
    {
      "icao": "LWOH",
      "alert": "OK",
      "vis_m": 9999,
      "fzfg": false,
      "metar_trigger": false,
      "taf_trigger": false,
      "metar": "METAR LWOH 090920Z VRB02KT 9999 FEW020 BKN040 00/M04 Q1013",
      "taf": ""
    },
    {
      "icao": "LWSK",
      "alert": "OK",
      "vis_m": 9999,
      "fzfg": false,
      "metar_trigger": false,
      "taf_trigger": false,
      "metar": "METAR LWSK 090920Z VRB02KT 9999 BKN095 M02/M06 Q1014 NOSIG",
      "taf": "TAF LWSK 090810Z 0909/1009 VRB02KT CAVOK"
    },
    {
      "icao": "LYBE",
      "alert": "OK",
      "vis_m": 3500,
      "fzfg": false,
      "metar_trigger": false,
      "taf_trigger": false,
      "metar": "METAR LYBE 090930Z 15003KT 3500 BR NSC M04/M06 Q1008 BECMG 6000 NSW",
      "taf": "TAF LYBE 090500Z 0906/1006 10005KT CAVOK TX01/0919Z TNM12/0906Z"
    },
    {
      "icao": "LYNI",
      "alert": "OK",
      "vis_m": 9999,
      "fzfg": false,
      "metar_trigger": false,
      "taf_trigger": false,
      "metar": "METAR LYNI 090930Z VRB01KT CAVOK M03/M06 Q1012 NOSIG",
      "taf": "TAF LYNI 090500Z 0906/1006 19004KT CAVOK TX02/0914Z TNM10/0906Z"
    },
    {
      "icao": "LYPG",
      "alert": "OK",
      "vis_m": 9999,
      "fzfg": false,
      "metar_trigger": false,
      "taf_trigger": false,
      "metar": "METAR LYPG 090930Z 34005KT 9999 -SN FEW030 SCT040 OVC090 02/M02 Q1016 NOSIG",
      "taf": "TAF LYPG 090500Z 0906/1006 02008KT 9999 BKN034 BKN070 TX07/0923Z TN00/0906Z"
    },
    {
      "icao": "LZIB",
      "alert": "OK",
      "vis_m": 6000,
      "fzfg": false,
      "metar_trigger": false,
      "taf_trigger": false,
      "metar": "METAR LZIB 090930Z 06007KT 6000 -SN SCT045 M06/M09 Q1005 TEMPO 2000 SN BKN012",
      "taf": ""
    },
    {
      "icao": "LZKZ",
      "alert": "OK",
      "vis_m": 9999,
      "fzfg": false,
      "metar_trigger": false,
      "taf_trigger": false,
      "metar": "METAR LZKZ 090930Z VRB01KT CAVOK M08/M13 Q1005 NOSIG",
      "taf": "TAF LZKZ 090515Z 0906/1006 VRB02KT CAVOK"
    },
    {
      "icao": "LZTT",
      "alert": "OK",
      "vis_m": 9999,
      "fzfg": false,
      "metar_trigger": false,
      "taf_trigger": false,
      "metar": "METAR LZTT 090930Z VRB03KT CAVOK M14/M17 Q1001 NOSIG",
      "taf": "TAF LZTT 090515Z 0906/1006 VRB02KT 9999 FEW015"
    },
    {
      "icao": "OEJN",
      "alert": "OK",
      "vis_m": 8000,
      "fzfg": false,
      "metar_trigger": false,
      "taf_trigger": false,
      "metar": "METAR OEJN 090900Z 16006KT 8000 SCT040 29/17 Q1014 NOSIG",
      "taf": "TAF OEJN 090500Z 0906/1012 23010KT 7000 FEW040"
    },
    {
      "icao": "OEMA",
      "alert": "OK",
      "vis_m": 9999,
      "fzfg": false,
      "metar_trigger": false,
      "taf_trigger": false,
      "metar": "METAR OEMA 090900Z 17006KT CAVOK 23/M05 Q1018 NOSIG",
      "taf": "TAF OEMA 090500Z 0906/1012 25018KT 7000 FEW045"
    },
    {
      "icao": "OJAI",
      "alert": "OK",
      "vis_m": 2500,
      "fzfg": false,
      "metar_trigger": false,
      "taf_trigger": false,
      "metar": "METAR OJAI 090900Z 26018KT 2500 RA FEW015 BKN025 11/10 Q1014 NOSIG",
      "taf": ""
    },
    {
      "icao": "OMAA",
      "alert": "OK",
      "vis_m": 9999,
      "fzfg": false,
      "metar_trigger": false,
      "taf_trigger": false,
      "metar": "METAR OMAA 090900Z 32006KT 290V350 9999 FEW035 22/13 Q1018 NOSIG",
      "taf": "TAF OMAA 090500Z 0906/1012 VRB02KT CAVOK"
    },
    {
      "icao": "OMDB",
      "alert": "OK",
      "vis_m": 9999,
      "fzfg": false,
      "metar_trigger": false,
      "taf_trigger": false,
      "metar": "METAR OMDB 090930Z VRB03KT 9999 FEW045 23/11 Q1018 NOSIG",
      "taf": "TAF OMDB 090500Z 0906/1012 06005KT 8000 NSC"
    },
    {
      "icao": "UAAA",
      "alert": "OK",
      "vis_m": 4100,
      "fzfg": false,
      "metar_trigger": false,
      "taf_trigger": false,
      "metar": "METAR UAAA 090930Z 01003MPS 340V050 4100 BR FU SCT011 BKN050 M03/M06 Q1023 NOSIG",
      "taf": "TAF UAAA 090505Z 0906/1006 06003G08MPS 4000 BR FU BKN011 OVC020 TXM02/0909Z TNM07/1001Z"
    },
    {
      "icao": "UBBB",
      "alert": "OK",
      "vis_m": 9999,
      "fzfg": false,
      "metar_trigger": false,
      "taf_trigger": false,
      "metar": "METAR UBBB 090930Z 21012KT CAVOK 13/04 Q1001 NOSIG",
      "taf": "TAF UBBB 090504Z 0906/1006 18024G34KT 8000 SCT012 TX12/0910Z TN08/1000Z"
    },
    {
      "icao": "UDSG",
      "alert": "OK",
      "vis_m": 5000,
      "fzfg": false,
      "metar_trigger": false,
      "taf_trigger": false,
      "metar": "METAR UDSG 090930Z 10003KT 070V140 5000 BR OVC036 M01/M04 Q1007 NOSIG",
      "taf": "TAF UDSG 090500Z 0906/1006 VRB06KT 1200 BR OVC020"
    },
    {
      "icao": "UDYZ",
      "alert": "OK",
      "vis_m": 2800,
      "fzfg": false,
      "metar_trigger": false,
      "taf_trigger": false,
      "metar": "METAR UDYZ 090930Z VRB01KT 2800 BR SCT046 M00/M06 Q1009 NOSIG",
      "taf": "TAF UDYZ 090500Z 0906/1006 23006KT 2300 BR BKN030"
    },
    {
      "icao": "UGKO",
      "alert": "OK",
      "vis_m": 9999,
      "fzfg": false,
      "metar_trigger": false,
      "taf_trigger": false,
      "metar": "METAR UGKO 090930Z 25020G30KT 9999 BKN016CB OVC050 10/07 Q1004 NOSIG",
      "taf": "TAF UGKO 090500Z 0906/1006 08010KT 9999 BKN050 TX12/0906Z TN04/1003Z"
    }
  ]
}