{
  "ts_utc": "2026-03-08T23:00:14Z",
  "threshold_m": 150,
  "source": "stations_override.txt (ICAO list) + aviationweather.gov (METAR/TAF raw)",
  "station_count": 159,
  "stations": [
    {
      "icao": "BIKF",
      "alert": "OK",
      "vis_m": 9999,
      "fzfg": false,
      "metar_trigger": false,
      "taf_trigger": false,
      "metar": "METAR BIKF 082230Z 16011KT 9999 VCSH FEW003CB SCT040 M00/M01 Q0996",
      "taf": "TAF BIKF 082234Z 0900/1000 18010KT 9999 SCT015 BKN035 TX05/0916Z TNM01/0901Z"
    },
    {
      "icao": "BKPR",
      "alert": "OK",
      "vis_m": null,
      "fzfg": false,
      "metar_trigger": false,
      "taf_trigger": false,
      "metar": "",
      "taf": "TAF BKPR 081730Z 0818/0918 05007KT 9999 SCT050"
    },
    {
      "icao": "EBCI",
      "alert": "OK",
      "vis_m": 8000,
      "fzfg": false,
      "metar_trigger": false,
      "taf_trigger": false,
      "metar": "METAR EBCI 082250Z 21003KT 8000 NSC 08/07 Q1022 NOSIG",
      "taf": "TAF EBCI 081700Z 0818/0924 VRB03KT CAVOK"
    },
    {
      "icao": "EDDB",
      "alert": "OK",
      "vis_m": 9999,
      "fzfg": false,
      "metar_trigger": false,
      "taf_trigger": false,
      "metar": "METAR EDDB 082250Z AUTO 09007KT CAVOK 05/M01 Q1026 NOSIG",
      "taf": "TAF EDDB 081700Z 0818/0918 12007KT CAVOK"
    },
    {
      "icao": "EDDH",
      "alert": "OK",
      "vis_m": 9999,
      "fzfg": false,
      "metar_trigger": false,
      "taf_trigger": false,
      "metar": "METAR EDDH 082250Z AUTO 10005KT CAVOK 08/02 Q1024 NOSIG",
      "taf": "TAF EDDH 081700Z 0818/0924 12006KT CAVOK"
    },
    {
      "icao": "EDDK",
      "alert": "OK",
      "vis_m": 9999,
      "fzfg": false,
      "metar_trigger": false,
      "taf_trigger": false,
      "metar": "METAR EDDK 082250Z AUTO VRB01KT CAVOK 08/03 Q1022 NOSIG",
      "taf": "TAF EDDK 081700Z 0818/0924 13004KT CAVOK"
    },
    {
      "icao": "EDDN",
      "alert": "OK",
      "vis_m": 9999,
      "fzfg": false,
      "metar_trigger": false,
      "taf_trigger": false,
      "metar": "METAR EDDN 082250Z AUTO VRB01KT CAVOK 05/02 Q1023 NOSIG",
      "taf": "TAF EDDN 081700Z 0818/0918 10004KT CAVOK"
    },
    {
      "icao": "EDDS",
      "alert": "OK",
      "vis_m": 9999,
      "fzfg": false,
      "metar_trigger": false,
      "taf_trigger": false,
      "metar": "METAR EDDS 082250Z AUTO 26002KT CAVOK 04/01 Q1022",
      "taf": "TAF EDDS 081700Z 0818/0918 VRB03KT CAVOK"
    },
    {
      "icao": "EDFH",
      "alert": "OK",
      "vis_m": 9999,
      "fzfg": false,
      "metar_trigger": false,
      "taf_trigger": false,
      "metar": "METAR EDFH 082250Z 13008KT CAVOK 08/03 Q1022",
      "taf": "TAF EDFH 081700Z 0818/0918 15006KT CAVOK"
    },
    {
      "icao": "EDJA",
      "alert": "OK",
      "vis_m": 9999,
      "fzfg": false,
      "metar_trigger": false,
      "taf_trigger": false,
      "metar": "METAR EDJA 082250Z AUTO 15004KT 9999 // FEW140/// 04/02 Q1023",
      "taf": "TAF EDJA 081700Z 0818/0903 VRB03KT CAVOK"
    },
    {
      "icao": "EDLW",
      "alert": "OK",
      "vis_m": 9999,
      "fzfg": false,
      "metar_trigger": false,
      "taf_trigger": false,
      "metar": "METAR EDLW 082250Z AUTO 14006KT 9999 // NCD 11/03 Q1022",
      "taf": "TAF EDLW 081700Z 0818/0918 05004KT CAVOK"
    },
    {
      "icao": "EDNY",
      "alert": "OK",
      "vis_m": 8000,
      "fzfg": false,
      "metar_trigger": false,
      "taf_trigger": false,
      "metar": "METAR EDNY 082250Z AUTO 00000KT 8000 // NCD 04/03 Q1023",
      "taf": "TAF EDNY 081700Z 0818/0903 VRB03KT CAVOK"
    },
    {
      "icao": "EDSB",
      "alert": "OK",
      "vis_m": 9999,
      "fzfg": false,
      "metar_trigger": false,
      "taf_trigger": false,
      "metar": "METAR EDSB 082250Z 00000KT CAVOK 06/05 Q1022",
      "taf": "TAF EDSB 081700Z 0818/0918 VRB03KT CAVOK"
    },
    {
      "icao": "EETN",
      "alert": "OK",
      "vis_m": 9999,
      "fzfg": false,
      "metar_trigger": false,
      "taf_trigger": false,
      "metar": "METAR EETN 082250Z 24005KT CAVOK 01/M02 Q1027",
      "taf": "TAF EETN 081730Z 0818/0918 24010KT CAVOK"
    },
    {
      "icao": "EFTU",
      "alert": "OK",
      "vis_m": 9999,
      "fzfg": false,
      "metar_trigger": false,
      "taf_trigger": false,
      "metar": "METAR EFTU 082250Z AUTO 20005KT CAVOK 01/M01 Q1025",
      "taf": "TAF EFTU 082024Z 0821/0921 22003KT CAVOK"
    },
    {
      "icao": "EGBB",
      "alert": "OK",
      "vis_m": 2500,
      "fzfg": false,
      "metar_trigger": false,
      "taf_trigger": false,
      "metar": "METAR EGBB 082250Z 15005KT 2500 BR OVC004 08/07 Q1020",
      "taf": "TAF EGBB 081708Z 0818/0918 14006KT 6000 BKN008"
    },
    {
      "icao": "EGGP",
      "alert": "OK",
      "vis_m": 6000,
      "fzfg": false,
      "metar_trigger": false,
      "taf_trigger": false,
      "metar": "METAR EGGP 082250Z 16006KT 120V200 6000 SCT007 BKN011 09/08 Q1020",
      "taf": "TAF EGGP 081704Z 0818/0918 16007KT 7000 SCT012 BKN025"
    },
    {
      "icao": "EGGW",
      "alert": "OK",
      "vis_m": 750,
      "fzfg": false,
      "metar_trigger": false,
      "taf_trigger": false,
      "metar": "METAR EGGW 082250Z AUTO 17004KT 130V210 0750 R25/1500N FG OVC002 06/06 Q1021",
      "taf": ""
    },
    {
      "icao": "EGKK",
      "alert": "OK",
      "vis_m": 3500,
      "fzfg": false,
      "metar_trigger": false,
      "taf_trigger": false,
      "metar": "METAR EGKK 082250Z 12003KT 3500 BR OVC005 08/07 Q1021",
      "taf": ""
    },
    {
      "icao": "EGNM",
      "alert": "OK",
      "vis_m": 3000,
      "fzfg": false,
      "metar_trigger": false,
      "taf_trigger": false,
      "metar": "METAR EGNM 082250Z 14005KT 3000 BR SCT003 OVC004 08/07 Q1020",
      "taf": ""
    },
    {
      "icao": "EGPD",
      "alert": "OK",
      "vis_m": 9999,
      "fzfg": false,
      "metar_trigger": false,
      "taf_trigger": false,
      "metar": "METAR EGPD 082250Z COR AUTO 18004KT 9999 NCD 02/00 Q1018 NOSIG",
      "taf": ""
    },
    {
      "icao": "EGPF",
      "alert": "OK",
      "vis_m": 9999,
      "fzfg": false,
      "metar_trigger": false,
      "taf_trigger": false,
      "metar": "METAR EGPF 082250Z AUTO 09003KT 060V140 9999 NCD 06/03 Q1018",
      "taf": "TAF EGPF 081652Z 0818/0918 18008KT 9999 FEW035"
    },
    {
      "icao": "EHBK",
      "alert": "OK",
      "vis_m": 9999,
      "fzfg": false,
      "metar_trigger": false,
      "taf_trigger": false,
      "metar": "METAR EHBK 082255Z AUTO 19005KT 9999 NCD 09/05 Q1021",
      "taf": "TAF EHBK 081709Z 0818/0924 VRB02KT CAVOK"
    },
    {
      "icao": "EHEH",
      "alert": "OK",
      "vis_m": 3900,
      "fzfg": false,
      "metar_trigger": false,
      "taf_trigger": false,
      "metar": "METAR EHEH 082225Z AUTO 32001KT 3900 BR OVC350 04/04 Q1021 GRN",
      "taf": ""
    },
    {
      "icao": "EKBI",
      "alert": "OK",
      "vis_m": 2600,
      "fzfg": false,
      "metar_trigger": false,
      "taf_trigger": false,
      "metar": "METAR EKBI 082250Z AUTO 11006KT 2600 BR SCT100/// BKN130/// BKN180/// 06/05 Q1024",
      "taf": "TAF EKBI 082028Z 0821/0921 13003KT 0400 FG SCT005"
    },
    {
      "icao": "EKCH",
      "alert": "OK",
      "vis_m": 6000,
      "fzfg": false,
      "metar_trigger": false,
      "taf_trigger": false,
      "metar": "METAR EKCH 082250Z AUTO 14003KT 6000 NCD 04/01 Q1027 NOSIG",
      "taf": "TAF EKCH 082028Z 0821/0921 13006KT CAVOK"
    },
    {
      "icao": "ENAL",
      "alert": "OK",
      "vis_m": 9999,
      "fzfg": false,
      "metar_trigger": false,
      "taf_trigger": false,
      "metar": "METAR ENAL 082250Z 17005KT 9999 SCT016 BKN021 05/04 Q1019",
      "taf": "TAF ENAL 082000Z 0821/0906 03008KT 9999 FEW030 BKN060"
    },
    {
      "icao": "ENBR",
      "alert": "OK",
      "vis_m": 9999,
      "fzfg": false,
      "metar_trigger": false,
      "taf_trigger": false,
      "metar": "METAR ENBR 082250Z 15011KT 9999 OVC008 04/03 Q1023 RMK WIND 1200FT 16017KT",
      "taf": ""
    },
    {
      "icao": "ENGM",
      "alert": "OK",
      "vis_m": 2000,
      "fzfg": false,
      "metar_trigger": false,
      "taf_trigger": false,
      "metar": "METAR ENGM 082250Z 18006KT 2000 1000W R19R/1100U R01R/P2000N R19L/P2000N R01L/1200U -RA BCFG OVC002 01/01 Q1021",
      "taf": ""
    },
    {
      "icao": "ENHD",
      "alert": "OK",
      "vis_m": 9999,
      "fzfg": false,
      "metar_trigger": false,
      "taf_trigger": false,
      "metar": "METAR ENHD 082250Z AUTO 17010KT 9999 OVC004/// 05/04 Q1023",
      "taf": ""
    },
    {
      "icao": "ENTC",
      "alert": "OK",
      "vis_m": 9999,
      "fzfg": false,
      "metar_trigger": false,
      "taf_trigger": false,
      "metar": "METAR ENTC 082250Z 20010KT 9999 FEW011 02/00 Q1015 RMK WIND 2600FT 23008KT",
      "taf": "TAF ENTC 081700Z 0818/0918 21005KT 9999 FEW015 BKN020"
    },
    {
      "icao": "ENTO",
      "alert": "OK",
      "vis_m": 150,
      "fzfg": false,
      "metar_trigger": false,
      "taf_trigger": false,
      "metar": "METAR ENTO 082250Z AUTO 21008KT 0150 R18/P2000N R36/0600N FG VV000 01/01 Q1023",
      "taf": ""
    },
    {
      "icao": "ENVA",
      "alert": "OK",
      "vis_m": 9999,
      "fzfg": false,
      "metar_trigger": false,
      "taf_trigger": false,
      "metar": "METAR ENVA 082250Z 12008KT 9999 SCT052 M01/M03 Q1020 RMK WIND 670FT 15008KT",
      "taf": "TAF ENVA 081700Z 0818/0918 27008KT CAVOK"
    },
    {
      "icao": "ENZV",
      "alert": "OK",
      "vis_m": 9999,
      "fzfg": false,
      "metar_trigger": false,
      "taf_trigger": false,
      "metar": "METAR ENZV 082250Z 16008KT 9999 FEW010 SCT012 BKN015 05/03 Q1024",
      "taf": ""
    },
    {
      "icao": "EPGD",
      "alert": "OK",
      "vis_m": 9999,
      "fzfg": false,
      "metar_trigger": false,
      "taf_trigger": false,
      "metar": "METAR EPGD 082230Z 18003KT 160V220 CAVOK 05/M03 Q1030",
      "taf": "TAF EPGD 081730Z 0818/0918 15006KT CAVOK"
    },
    {
      "icao": "EPKK",
      "alert": "OK",
      "vis_m": 9999,
      "fzfg": false,
      "metar_trigger": false,
      "taf_trigger": false,
      "metar": "METAR EPKK 082230Z 04005KT CAVOK 03/M02 Q1029",
      "taf": "TAF EPKK 082030Z 0821/0921 05005KT CAVOK"
    },
    {
      "icao": "EPKT",
      "alert": "OK",
      "vis_m": 9999,
      "fzfg": false,
      "metar_trigger": false,
      "taf_trigger": false,
      "metar": "METAR EPKT 082230Z 05003KT 010V080 CAVOK 04/M02 Q1029",
      "taf": "TAF EPKT 081730Z 0818/0918 08008KT CAVOK"
    },
    {
      "icao": "EPLB",
      "alert": "OK",
      "vis_m": 9000,
      "fzfg": false,
      "metar_trigger": false,
      "taf_trigger": false,
      "metar": "METAR EPLB 082230Z 05001KT 9000 NSC 01/M00 Q1032",
      "taf": "TAF EPLB 081730Z 0818/0918 08002KT CAVOK"
    },
    {
      "icao": "EPMO",
      "alert": "OK",
      "vis_m": 9999,
      "fzfg": false,
      "metar_trigger": false,
      "taf_trigger": false,
      "metar": "METAR EPMO 082230Z 10005KT CAVOK 02/M03 Q1032",
      "taf": "TAF EPMO 081730Z 0818/0918 11004KT CAVOK"
    },
    {
      "icao": "EPPO",
      "alert": "OK",
      "vis_m": 9999,
      "fzfg": false,
      "metar_trigger": false,
      "taf_trigger": false,
      "metar": "METAR EPPO 082230Z 13008KT CAVOK 05/M02 Q1029",
      "taf": "TAF EPPO 081730Z 0818/0918 09005KT CAVOK"
    },
    {
      "icao": "EPRA",
      "alert": "OK",
      "vis_m": 9999,
      "fzfg": false,
      "metar_trigger": false,
      "taf_trigger": false,
      "metar": "METAR EPRA 082230Z 12006KT CAVOK 05/M01 Q1031",
      "taf": "TAF EPRA 082030Z 0821/0906 13006KT CAVOK"
    },
    {
      "icao": "EPRZ",
      "alert": "OK",
      "vis_m": 9999,
      "fzfg": false,
      "metar_trigger": false,
      "taf_trigger": false,
      "metar": "METAR EPRZ 082230Z 06010KT CAVOK 04/M01 Q1031",
      "taf": "TAF EPRZ 081730Z 0818/0918 06007KT CAVOK"
    },
    {
      "icao": "EPSC",
      "alert": "OK",
      "vis_m": 9999,
      "fzfg": false,
      "metar_trigger": false,
      "taf_trigger": false,
      "metar": "METAR EPSC 082230Z 13013KT CAVOK 08/M02 Q1028",
      "taf": "TAF EPSC 081730Z 0818/0918 12005KT CAVOK"
    },
    {
      "icao": "EPSY",
      "alert": "OK",
      "vis_m": 9999,
      "fzfg": false,
      "metar_trigger": false,
      "taf_trigger": false,
      "metar": "METAR EPSY 082230Z 00000KT CAVOK M02/M04 Q1032",
      "taf": "TAF EPSY 082030Z 0821/0906 VRB02KT CAVOK"
    },
    {
      "icao": "EPWA",
      "alert": "OK",
      "vis_m": 9999,
      "fzfg": false,
      "metar_trigger": false,
      "taf_trigger": false,
      "metar": "METAR EPWA 082230Z 13005KT CAVOK 05/M01 Q1031 NOSIG",
      "taf": "TAF EPWA 082030Z 0821/0921 11004KT CAVOK"
    },
    {
      "icao": "EPWR",
      "alert": "OK",
      "vis_m": 9999,
      "fzfg": false,
      "metar_trigger": false,
      "taf_trigger": false,
      "metar": "METAR EPWR 082230Z 11006KT CAVOK 05/M02 Q1028",
      "taf": "TAF EPWR 082030Z 0821/0921 10006KT CAVOK"
    },
    {
      "icao": "ESGG",
      "alert": "OK",
      "vis_m": 5000,
      "fzfg": false,
      "metar_trigger": false,
      "taf_trigger": false,
      "metar": "METAR ESGG 082250Z 19008KT 5000 BR OVC062 05/04 Q1025",
      "taf": "TAF ESGG 082030Z 0821/0921 16005KT 9999 SCT007"
    },
    {
      "icao": "ESKN",
      "alert": "OK",
      "vis_m": 9999,
      "fzfg": false,
      "metar_trigger": false,
      "taf_trigger": false,
      "metar": "METAR ESKN 082250Z 23005KT CAVOK 04/01 Q1025",
      "taf": "TAF ESKN 082030Z 0821/0921 13004KT CAVOK"
    },
    {
      "icao": "ESMS",
      "alert": "OK",
      "vis_m": 9999,
      "fzfg": false,
      "metar_trigger": false,
      "taf_trigger": false,
      "metar": "METAR ESMS 082250Z 13005KT CAVOK 04/00 Q1027",
      "taf": "TAF ESMS 082028Z 0821/0921 13008KT CAVOK"
    },
    {
      "icao": "ESSA",
      "alert": "OK",
      "vis_m": 9999,
      "fzfg": false,
      "metar_trigger": false,
      "taf_trigger": false,
      "metar": "METAR ESSA 082250Z 21008KT CAVOK 02/M00 Q1024 NOSIG",
      "taf": "TAF ESSA 082030Z 0821/0921 18008KT CAVOK"
    },
    {
      "icao": "EYKA",
      "alert": "OK",
      "vis_m": 9999,
      "fzfg": false,
      "metar_trigger": false,
      "taf_trigger": false,
      "metar": "METAR EYKA 082250Z AUTO 19001KT 9999 NCD 00/M03 Q1031",
      "taf": "TAF EYKA 081700Z 0818/0918 VRB02KT 9000 NSC"
    },
    {
      "icao": "EYPA",
      "alert": "OK",
      "vis_m": 9999,
      "fzfg": false,
      "metar_trigger": false,
      "taf_trigger": false,
      "metar": "METAR EYPA 082250Z 17005KT CAVOK 02/M02 Q1030",
      "taf": "TAF EYPA 081700Z 0818/0918 VRB02KT 9000 NSC"
    },
    {
      "icao": "EYVI",
      "alert": "OK",
      "vis_m": 6000,
      "fzfg": false,
      "metar_trigger": false,
      "taf_trigger": false,
      "metar": "METAR EYVI 082250Z 17002KT 6000 NSC 01/M05 Q1032 NOSIG",
      "taf": "TAF EYVI 081700Z 0818/0918 VRB03KT 9000 NSC"
    },
    {
      "icao": "GCFV",
      "alert": "OK",
      "vis_m": 9999,
      "fzfg": false,
      "metar_trigger": false,
      "taf_trigger": false,
      "metar": "METAR GCFV 082230Z 01017KT 9999 SCT035 BKN045 16/11 Q1023",
      "taf": "TAF GCFV 082000Z 0821/0921 02016KT 9999 BKN045 TX20/0914Z TN15/0906Z"
    },
    {
      "icao": "GCLP",
      "alert": "OK",
      "vis_m": 9999,
      "fzfg": false,
      "metar_trigger": false,
      "taf_trigger": false,
      "metar": "METAR GCLP 082230Z 01020KT 9999 BKN040 17/11 Q1023 NOSIG",
      "taf": "TAF GCLP 082000Z 0821/0921 36020KT 9999 BKN045 TX20/0914Z TN15/0906Z"
    },
    {
      "icao": "GCTS",
      "alert": "OK",
      "vis_m": 9999,
      "fzfg": false,
      "metar_trigger": false,
      "taf_trigger": false,
      "metar": "METAR GCTS 082230Z 05015KT 9999 FEW045 16/06 Q1023 NOSIG",
      "taf": "TAF GCTS 082000Z 0821/0921 06015KT 9999 SCT045 TX21/0914Z TN14/0906Z"
    },
    {
      "icao": "GMAD",
      "alert": "OK",
      "vis_m": 8000,
      "fzfg": false,
      "metar_trigger": false,
      "taf_trigger": false,
      "metar": "METAR GMAD 082230Z 00000KT 8000 NSC 12/11 Q1018 NOSIG",
      "taf": "TAF GMAD 081700Z 0818/0924 22010KT CAVOK"
    },
    {
      "icao": "GMMN",
      "alert": "OK",
      "vis_m": 9999,
      "fzfg": false,
      "metar_trigger": false,
      "taf_trigger": false,
      "metar": "METAR GMMN 082230Z VRB02KT 9999 SCT016 09/08 Q1023 NOSIG",
      "taf": "TAF GMMN 081700Z 0818/0924 34010KT 9999 SCT030"
    },
    {
      "icao": "GMMX",
      "alert": "OK",
      "vis_m": 9999,
      "fzfg": false,
      "metar_trigger": false,
      "taf_trigger": false,
      "metar": "METAR GMMX 082230Z 05006KT 020V080 9999 BKN023 12/08 Q1022 NOSIG",
      "taf": "TAF GMMX 081700Z 0818/0924 06006KT 9999 BKN023"
    },
    {
      "icao": "HEGN",
      "alert": "OK",
      "vis_m": 9999,
      "fzfg": false,
      "metar_trigger": false,
      "taf_trigger": false,
      "metar": "METAR HEGN 082200Z 28010KT CAVOK 16/04 Q1017 NOSIG",
      "taf": "TAF HEGN 082300Z 0900/1006 29008G20KT CAVOK"
    },
    {
      "icao": "HEMA",
      "alert": "OK",
      "vis_m": 9999,
      "fzfg": false,
      "metar_trigger": false,
      "taf_trigger": false,
      "metar": "METAR HEMA 082200Z 31011KT CAVOK 17/08 Q1016 NOSIG",
      "taf": "TAF HEMA 082300Z 0900/1006 31008G20KT CAVOK"
    },
    {
      "icao": "HESH",
      "alert": "OK",
      "vis_m": 9999,
      "fzfg": false,
      "metar_trigger": false,
      "taf_trigger": false,
      "metar": "METAR HESH 082200Z 35012KT CAVOK 18/03 Q1016 NOSIG",
      "taf": "TAF HESH 082300Z 0900/1006 32013KT CAVOK"
    },
    {
      "icao": "HESX",
      "alert": "OK",
      "vis_m": 9999,
      "fzfg": false,
      "metar_trigger": false,
      "taf_trigger": false,
      "metar": "METAR HESX 082200Z 03006KT CAVOK 11/07 Q1020 NOSIG",
      "taf": "TAF HESX 082300Z 0900/1006 04007KT CAVOK"
    },
    {
      "icao": "LATI",
      "alert": "OK",
      "vis_m": 9999,
      "fzfg": false,
      "metar_trigger": false,
      "taf_trigger": false,
      "metar": "METAR LATI 082250Z 17003KT 9999 -RA FEW038 OVC068 12/08 Q1025 NOSIG",
      "taf": "TAF LATI 081700Z 0818/0918 VRB04KT 9999 SCT080 TX17/0912Z TN08/0905Z"
    },
    {
      "icao": "LBPD",
      "alert": "OK",
      "vis_m": 9999,
      "fzfg": false,
      "metar_trigger": false,
      "taf_trigger": false,
      "metar": "METAR LBPD 082230Z AUTO 14006KT 9999 OVC180/// 03/01 Q1032",
      "taf": "TAF LBPD 081700Z 0818/0918 11010KT CAVOK"
    },
    {
      "icao": "LBSF",
      "alert": "OK",
      "vis_m": 9999,
      "fzfg": false,
      "metar_trigger": false,
      "taf_trigger": false,
      "metar": "METAR LBSF 082230Z AUTO 10012KT 9999 NCD 03/M01 Q1029 NOSIG",
      "taf": "TAF LBSF 081700Z 0818/0918 10012KT CAVOK"
    },
    {
      "icao": "LBWN",
      "alert": "OK",
      "vis_m": 9999,
      "fzfg": false,
      "metar_trigger": false,
      "taf_trigger": false,
      "metar": "METAR LBWN 082230Z AUTO 01003KT 9999 NSC 00/00 Q1032 NOSIG",
      "taf": "TAF LBWN 081700Z 0818/0918 10010KT CAVOK"
    },
    {
      "icao": "LCLK",
      "alert": "OK",
      "vis_m": 9999,
      "fzfg": false,
      "metar_trigger": false,
      "taf_trigger": false,
      "metar": "METAR LCLK 082230Z 30006KT 9999 FEW020 08/04 Q1020 NOSIG",
      "taf": "TAF LCLK 081730Z 0818/0918 34007KT 9999 FEW025"
    },
    {
      "icao": "LCPH",
      "alert": "OK",
      "vis_m": 9999,
      "fzfg": false,
      "metar_trigger": false,
      "taf_trigger": false,
      "metar": "METAR LCPH 082230Z 07007KT 010V080 CAVOK 09/01 Q1020 NOSIG",
      "taf": "TAF LCPH 081730Z 0818/0918 02007KT 9999 FEW020"
    },
    {
      "icao": "LEAL",
      "alert": "OK",
      "vis_m": 9999,
      "fzfg": false,
      "metar_trigger": false,
      "taf_trigger": false,
      "metar": "METAR LEAL 082230Z 00000KT 9999 FEW021 13/12 Q1022 NOSIG",
      "taf": "TAF LEAL 081700Z 0818/0918 VRB04KT 9999 SCT025 TX17/0913Z TN07/0906Z"
    },
    {
      "icao": "LEBB",
      "alert": "OK",
      "vis_m": 9999,
      "fzfg": false,
      "metar_trigger": false,
      "taf_trigger": false,
      "metar": "METAR LEBB 082230Z 10003KT 080V140 CAVOK 10/09 Q1021 NOSIG",
      "taf": "TAF LEBB 081700Z 0818/0918 14006KT 9999 FEW040 TX15/0911Z TN06/0907Z"
    },
    {
      "icao": "LEBL",
      "alert": "OK",
      "vis_m": 9999,
      "fzfg": false,
      "metar_trigger": false,
      "taf_trigger": false,
      "metar": "METAR LEBL 082230Z 33006KT 9999 FEW031 11/10 Q1022 NOSIG",
      "taf": "TAF LEBL 081700Z 0818/0918 11008KT 9999 FEW015 SCT025 TX15/0912Z TN09/0906Z"
    },
    {
      "icao": "LECH",
      "alert": "OK",
      "vis_m": 8000,
      "fzfg": false,
      "metar_trigger": false,
      "taf_trigger": false,
      "metar": "METAR LECH 082230Z AUTO 00000KT 8000 NSC 08/07 Q1022",
      "taf": ""
    },
    {
      "icao": "LEMD",
      "alert": "OK",
      "vis_m": 9999,
      "fzfg": false,
      "metar_trigger": false,
      "taf_trigger": false,
      "metar": "METAR LEMD 082230Z 15002KT 9999 FEW042 07/07 Q1021 NOSIG",
      "taf": "TAF LEMD 081700Z 0818/0924 02006KT 9999 SCT040 TX13/0915Z TN02/0904Z"
    },
    {
      "icao": "LEMG",
      "alert": "OK",
      "vis_m": 9999,
      "fzfg": false,
      "metar_trigger": false,
      "taf_trigger": false,
      "metar": "METAR LEMG 082230Z 30002KT 9999 BKN060 12/10 Q1023 NOSIG",
      "taf": "TAF LEMG 081700Z 0818/0918 29004KT 9999 FEW030 TX16/0914Z TN08/0907Z"
    },
    {
      "icao": "LEVC",
      "alert": "OK",
      "vis_m": 9999,
      "fzfg": false,
      "metar_trigger": false,
      "taf_trigger": false,
      "metar": "METAR LEVC 082230Z 31003KT 9999 FEW040 BKN060 12/10 Q1022 NOSIG",
      "taf": "TAF LEVC 081700Z 0818/0918 VRB04KT 9999 SCT025 TX18/0913Z TN06/0906Z"
    },
    {
      "icao": "LEXJ",
      "alert": "OK",
      "vis_m": 9999,
      "fzfg": false,
      "metar_trigger": false,
      "taf_trigger": false,
      "metar": "METAR LEXJ 082230Z AUTO 00000KT 9999 3500E NCD 07/06 Q1021",
      "taf": "TAF LEXJ 082000Z 0821/0921 22005KT 9999 FEW020 TX13/0914Z TN07/0904Z"
    },
    {
      "icao": "LEZG",
      "alert": "OK",
      "vis_m": 9999,
      "fzfg": false,
      "metar_trigger": false,
      "taf_trigger": false,
      "metar": "METAR LEZG 082230Z VRB01KT 9999 FEW030 BKN050 10/10 Q1022 NOSIG",
      "taf": "TAF LEZG 081700Z 0818/0918 VRB04KT 9999 SCT025 SCT040 TX15/0914Z TN06/0906Z"
    },
    {
      "icao": "LEZL",
      "alert": "OK",
      "vis_m": 9999,
      "fzfg": false,
      "metar_trigger": false,
      "taf_trigger": false,
      "metar": "METAR LEZL 082230Z 23004KT 9999 FEW049 14/12 Q1023 NOSIG",
      "taf": "TAF LEZL 082000Z 0821/0921 VRB03KT 9999 FEW030 TX19/0915Z TN12/0907Z"
    },
    {
      "icao": "LFBD",
      "alert": "OK",
      "vis_m": 9999,
      "fzfg": false,
      "metar_trigger": false,
      "taf_trigger": false,
      "metar": "METAR LFBD 082230Z AUTO 20006KT 9999 BKN004 BKN054 OVC064 11/10 Q1021 TEMPO 3000 BR BKN005",
      "taf": "TAF LFBD 081700Z 0818/0924 VRB03KT 9999 BKN040 TX16/0914Z TN05/0905Z"
    },
    {
      "icao": "LFLL",
      "alert": "OK",
      "vis_m": 9999,
      "fzfg": false,
      "metar_trigger": false,
      "taf_trigger": false,
      "metar": "METAR LFLL 082230Z 17005KT 130V210 CAVOK 12/06 Q1023 NOSIG",
      "taf": "TAF LFLL 081700Z 0818/0924 17005KT CAVOK"
    },
    {
      "icao": "LFLS",
      "alert": "OK",
      "vis_m": 9999,
      "fzfg": false,
      "metar_trigger": false,
      "taf_trigger": false,
      "metar": "METAR LFLS 082230Z AUTO 07003KT CAVOK 04/03 Q1024",
      "taf": "TAF LFLS 081400Z 0815/0915 VRB04KT CAVOK"
    },
    {
      "icao": "LFMN",
      "alert": "OK",
      "vis_m": 9999,
      "fzfg": false,
      "metar_trigger": false,
      "taf_trigger": false,
      "metar": "METAR LFMN 082230Z 33007KT 9999 FEW017 11/08 Q1025 NOSIG",
      "taf": "TAF LFMN 082000Z 0821/1003 34008KT CAVOK"
    },
    {
      "icao": "LFOB",
      "alert": "OK",
      "vis_m": 1900,
      "fzfg": false,
      "metar_trigger": false,
      "taf_trigger": false,
      "metar": "METAR LFOB 082230Z AUTO VRB01KT 1900 BR FEW005 05/05 Q1021 TEMPO 0600 FG VV///",
      "taf": ""
    },
    {
      "icao": "LFPO",
      "alert": "OK",
      "vis_m": 8000,
      "fzfg": false,
      "metar_trigger": false,
      "taf_trigger": false,
      "metar": "METAR LFPO 082230Z 28001KT 8000 NSC 10/08 Q1021 NOSIG",
      "taf": ""
    },
    {
      "icao": "LFSB",
      "alert": "OK",
      "vis_m": 9999,
      "fzfg": false,
      "metar_trigger": false,
      "taf_trigger": false,
      "metar": "METAR LFSB 082230Z AUTO 12001KT CAVOK 07/05 Q1023 TEMPO 4000 BR",
      "taf": "TAF LFSB 081700Z 0818/0918 VRB03KT CAVOK"
    },
    {
      "icao": "LGAV",
      "alert": "OK",
      "vis_m": 9999,
      "fzfg": false,
      "metar_trigger": false,
      "taf_trigger": false,
      "metar": "METAR LGAV 082250Z 36012KT 9999 FEW030 10/03 Q1025 NOSIG",
      "taf": "TAF LGAV 081700Z 0818/0918 02015KT 9999 FEW025"
    },
    {
      "icao": "LGTS",
      "alert": "OK",
      "vis_m": 9999,
      "fzfg": false,
      "metar_trigger": false,
      "taf_trigger": false,
      "metar": "METAR LGTS 082250Z 10006KT 9999 SCT020 07/07 Q1029 NOSIG",
      "taf": "TAF LGTS 081700Z 0818/0918 14013KT 9999 SCT025"
    },
    {
      "icao": "LHBP",
      "alert": "OK",
      "vis_m": 9999,
      "fzfg": false,
      "metar_trigger": false,
      "taf_trigger": false,
      "metar": "METAR LHBP 082230Z 36002KT CAVOK 05/M02 Q1028 NOSIG",
      "taf": "TAF LHBP 081715Z 0818/0918 07006KT CAVOK"
    },
    {
      "icao": "LHDC",
      "alert": "OK",
      "vis_m": 9999,
      "fzfg": false,
      "metar_trigger": false,
      "taf_trigger": false,
      "metar": "METAR LHDC 082215Z AUTO 07006KT CAVOK 07/M02 Q1029",
      "taf": "TAF LHDC 081715Z 0818/0903 04005KT CAVOK"
    },
    {
      "icao": "LIBD",
      "alert": "OK",
      "vis_m": 9999,
      "fzfg": false,
      "metar_trigger": false,
      "taf_trigger": false,
      "metar": "METAR LIBD 082250Z AUTO 32003KT 9999 -RA FEW016/// SCT058/// BKN095/// 12/11 Q1025",
      "taf": "TAF LIBD 081700Z 0818/0918 VRB05KT 8000 SCT020"
    },
    {
      "icao": "LIBG",
      "alert": "OK",
      "vis_m": null,
      "fzfg": false,
      "metar_trigger": false,
      "taf_trigger": false,
      "metar": "",
      "taf": "TAF LIBG 081700Z 0818/0903 VRB03KT 7000 SCT015"
    },
    {
      "icao": "LIBP",
      "alert": "OK",
      "vis_m": 5000,
      "fzfg": false,
      "metar_trigger": false,
      "taf_trigger": false,
      "metar": "METAR LIBP 082250Z AUTO 23003KT 5000 -DZ OVC009/// 11/11 Q1026",
      "taf": "TAF LIBP 081700Z 0818/0918 VRB04KT 8000 SCT030"
    },
    {
      "icao": "LIBR",
      "alert": "OK",
      "vis_m": 7000,
      "fzfg": false,
      "metar_trigger": false,
      "taf_trigger": false,
      "metar": "METAR LIBR 082250Z 12004KT 100V160 7000 -RA BKN025 12/11 Q1025 RERA",
      "taf": "TAF LIBR 081700Z 0818/0918 VRB06KT 8000 SCT018"
    },
    {
      "icao": "LICA",
      "alert": "OK",
      "vis_m": 9999,
      "fzfg": false,
      "metar_trigger": false,
      "taf_trigger": false,
      "metar": "METAR LICA 082250Z AUTO 05009KT 9999 NCD 12/11 Q1024",
      "taf": "TAF LICA 081700Z 0818/0918 VRB06KT 9999 FEW030"
    },
    {
      "icao": "LICC",
      "alert": "OK",
      "vis_m": 7000,
      "fzfg": false,
      "metar_trigger": false,
      "taf_trigger": false,
      "metar": "METAR LICC 082250Z VRB01KT 7000 SCT100 13/11 Q1024",
      "taf": "TAF LICC 081700Z 0818/0918 VRB05KT 9999 SCT015"
    },
    {
      "icao": "LICJ",
      "alert": "OK",
      "vis_m": 9999,
      "fzfg": false,
      "metar_trigger": false,
      "taf_trigger": false,
      "metar": "METAR LICJ 082250Z 16002KT CAVOK 13/11 Q1023",
      "taf": "TAF LICJ 081700Z 0818/0918 05012KT 9999 FEW030"
    },
    {
      "icao": "LIMC",
      "alert": "OK",
      "vis_m": 9999,
      "fzfg": false,
      "metar_trigger": false,
      "taf_trigger": false,
      "metar": "METAR LIMC 082250Z 02004KT CAVOK 06/03 Q1026 NOSIG",
      "taf": "TAF LIMC 081700Z 0818/0924 VRB05KT CAVOK"
    },
    {
      "icao": "LIME",
      "alert": "OK",
      "vis_m": 9999,
      "fzfg": false,
      "metar_trigger": false,
      "taf_trigger": false,
      "metar": "METAR LIME 082250Z 33003KT 230V010 9999 BKN095 09/05 Q1026 NOSIG",
      "taf": "TAF LIME 081700Z 0818/0918 VRB05KT 9999 FEW030"
    },
    {
      "icao": "LIMF",
      "alert": "OK",
      "vis_m": 9999,
      "fzfg": false,
      "metar_trigger": false,
      "taf_trigger": false,
      "metar": "METAR LIMF 082250Z 13001KT CAVOK 07/03 Q1026",
      "taf": "TAF LIMF 081700Z 0818/0918 VRB04KT CAVOK"
    },
    {
      "icao": "LIMJ",
      "alert": "OK",
      "vis_m": 9999,
      "fzfg": false,
      "metar_trigger": false,
      "taf_trigger": false,
      "metar": "METAR LIMJ 082250Z AUTO 03006KT 350V050 9999 OVC094/// 15/07 Q1025",
      "taf": "TAF LIMJ 081700Z 0818/0918 VRB05KT 9999 SCT030"
    },
    {
      "icao": "LIPE",
      "alert": "OK",
      "vis_m": 6000,
      "fzfg": false,
      "metar_trigger": false,
      "taf_trigger": false,
      "metar": "METAR LIPE 082250Z 19004KT 6000 NSC 07/06 Q1026",
      "taf": "TAF LIPE 081700Z 0818/0918 VRB04KT 8000 FEW050"
    },
    {
      "icao": "LIPH",
      "alert": "OK",
      "vis_m": 9999,
      "fzfg": false,
      "metar_trigger": false,
      "taf_trigger": false,
      "metar": "METAR LIPH 082250Z AUTO 26002KT 9999 NCD 07/05 Q1026",
      "taf": "TAF LIPH 081700Z 0818/0918 VRB04KT 8000 FEW050"
    },
    {
      "icao": "LIPQ",
      "alert": "OK",
      "vis_m": 4600,
      "fzfg": false,
      "metar_trigger": false,
      "taf_trigger": false,
      "metar": "METAR LIPQ 082250Z AUTO 04003KT 4600 BR FEW087/// OVC100/// 08/07 Q1026",
      "taf": ""
    },
    {
      "icao": "LIPR",
      "alert": "OK",
      "vis_m": 2500,
      "fzfg": false,
      "metar_trigger": false,
      "taf_trigger": false,
      "metar": "METAR LIPR 082250Z AUTO 21003KT 2500 BR NCD 05/05 Q1026",
      "taf": ""
    },
    {
      "icao": "LIPX",
      "alert": "OK",
      "vis_m": 8000,
      "fzfg": false,
      "metar_trigger": false,
      "taf_trigger": false,
      "metar": "METAR LIPX 082250Z 35004KT 8000 NSC 07/06 Q1026",
      "taf": "TAF LIPX 081700Z 0818/0918 VRB05KT CAVOK"
    },
    {
      "icao": "LIPY",
      "alert": "OK",
      "vis_m": 150,
      "fzfg": false,
      "metar_trigger": false,
      "taf_trigger": false,
      "metar": "METAR LIPY 082250Z AUTO 21004KT 170V240 0150 R22/0550N -RA FG VV002 10/10 Q1026",
      "taf": ""
    },
    {
      "icao": "LIPZ",
      "alert": "OK",
      "vis_m": 9999,
      "fzfg": false,
      "metar_trigger": false,
      "taf_trigger": false,
      "metar": "METAR LIPZ 082250Z 28005KT 230V300 CAVOK 11/08 Q1026 NOSIG",
      "taf": "TAF LIPZ 081700Z 0818/0924 VRB04KT 8000 FEW050"
    },
    {
      "icao": "LIRF",
      "alert": "OK",
      "vis_m": 6000,
      "fzfg": false,
      "metar_trigger": false,
      "taf_trigger": false,
      "metar": "METAR LIRF 082250Z 02004KT 6000 NSC 09/09 Q1024 NOSIG",
      "taf": "TAF LIRF 081700Z 0818/0924 VRB06KT 9999 FEW030"
    },
    {
      "icao": "LIRN",
      "alert": "OK",
      "vis_m": 9999,
      "fzfg": false,
      "metar_trigger": false,
      "taf_trigger": false,
      "metar": "METAR LIRN 082250Z 32004KT CAVOK 11/09 Q1024 NOSIG",
      "taf": "TAF LIRN 081700Z 0818/0918 VRB05KT 9999 SCT040"
    },
    {
      "icao": "LIRP",
      "alert": "OK",
      "vis_m": 4000,
      "fzfg": false,
      "metar_trigger": false,
      "taf_trigger": false,
      "metar": "METAR LIRP 082245Z VRB02KT 4000 1500 R04R/1000 MIFG BR FEW005 08/08 Q1025 TEMPO 1200 BCFG",
      "taf": "TAF LIRP 081700Z 0818/0918 28006KT 9999 SCT030 SCT060"
    },
    {
      "icao": "LIRZ",
      "alert": "OK",
      "vis_m": 9999,
      "fzfg": false,
      "metar_trigger": false,
      "taf_trigger": false,
      "metar": "METAR LIRZ 082250Z AUTO 35007KT 9999 NCD 08/07 Q1025",
      "taf": "TAF LIRZ 081700Z 0818/0918 VRB05KT 9999 SCT030"
    },
    {
      "icao": "LJLJ",
      "alert": "OK",
      "vis_m": 9999,
      "fzfg": false,
      "metar_trigger": false,
      "taf_trigger": false,
      "metar": "METAR LJLJ 082230Z VRB02KT 9999 FEW063 03/01 Q1027 NOSIG",
      "taf": "TAF LJLJ 081700Z 0818/0918 10004KT 9999 FEW060"
    },
    {
      "icao": "LKMT",
      "alert": "OK",
      "vis_m": 9999,
      "fzfg": false,
      "metar_trigger": false,
      "taf_trigger": false,
      "metar": "METAR LKMT 082230Z 22004KT CAVOK 03/M01 Q1028 NOSIG",
      "taf": "TAF LKMT 081700Z 0818/0918 03005KT CAVOK"
    },
    {
      "icao": "LKPR",
      "alert": "OK",
      "vis_m": 9999,
      "fzfg": false,
      "metar_trigger": false,
      "taf_trigger": false,
      "metar": "METAR LKPR 082230Z 13003KT CAVOK 07/00 Q1025 NOSIG",
      "taf": "TAF LKPR 082000Z 0821/1003 11006KT CAVOK"
    },
    {
      "icao": "LLBG",
      "alert": "OK",
      "vis_m": 9999,
      "fzfg": false,
      "metar_trigger": false,
      "taf_trigger": false,
      "metar": "METAR LLBG 082250Z VRB03KT CAVOK 10/04 Q1020 NOSIG RMK BKN060",
      "taf": "TAF LLBG 081700Z 0818/0918 VRB04KT 9999 FEW035 TX19/0911Z TN06/0903Z"
    },
    {
      "icao": "LMML",
      "alert": "OK",
      "vis_m": 9999,
      "fzfg": false,
      "metar_trigger": false,
      "taf_trigger": false,
      "metar": "METAR LMML 082245Z 08013KT 9999 FEW013 15/13 Q1022 NOSIG",
      "taf": "TAF LMML 081700Z 0818/0918 09015KT 9999 SCT013"
    },
    {
      "icao": "LOWW",
      "alert": "OK",
      "vis_m": 9999,
      "fzfg": false,
      "metar_trigger": false,
      "taf_trigger": false,
      "metar": "METAR LOWW 082250Z 15004KT CAVOK 07/01 Q1027 NOSIG",
      "taf": "TAF LOWW 082015Z 0821/1003 13005KT CAVOK TX15/0913Z TN05/0904Z"
    },
    {
      "icao": "LPFR",
      "alert": "OK",
      "vis_m": 9999,
      "fzfg": false,
      "metar_trigger": false,
      "taf_trigger": false,
      "metar": "METAR LPFR 082230Z 33007KT CAVOK 12/09 Q1023",
      "taf": "TAF LPFR 081700Z 0818/0918 25012KT 9999 SCT035"
    },
    {
      "icao": "LPMA",
      "alert": "OK",
      "vis_m": 9999,
      "fzfg": false,
      "metar_trigger": false,
      "taf_trigger": false,
      "metar": "METAR LPMA 082230Z 01011KT 330V060 9999 BKN015 SCT030 15/04 Q1028",
      "taf": "TAF LPMA 081700Z 0818/0918 01012KT 9999 SCT015 SCT030"
    },
    {
      "icao": "LPPR",
      "alert": "OK",
      "vis_m": 9999,
      "fzfg": false,
      "metar_trigger": false,
      "taf_trigger": false,
      "metar": "METAR LPPR 082230Z 20002KT 9999 SCT018 BKN030 10/08 Q1023",
      "taf": "TAF LPPR 081700Z 0818/0918 30010KT 9999 SCT018"
    },
    {
      "icao": "LPPS",
      "alert": "OK",
      "vis_m": 9999,
      "fzfg": false,
      "metar_trigger": false,
      "taf_trigger": false,
      "metar": "METAR LPPS 082230Z 05007KT 010V080 9999 SCT014 SCT030 14/05 Q1028",
      "taf": "TAF LPPS 081700Z 0818/0924 02013KT 9999 FEW013 BKN030"
    },
    {
      "icao": "LPPT",
      "alert": "OK",
      "vis_m": 9999,
      "fzfg": false,
      "metar_trigger": false,
      "taf_trigger": false,
      "metar": "METAR LPPT 082230Z 31008KT 9999 FEW015 BKN042 11/09 Q1023",
      "taf": "TAF LPPT 081700Z 0818/0924 33012KT 9999 SCT030"
    },
    {
      "icao": "LQBK",
      "alert": "OK",
      "vis_m": 9999,
      "fzfg": false,
      "metar_trigger": false,
      "taf_trigger": false,
      "metar": "METAR LQBK 082230Z VRB01KT CAVOK 03/M00 Q1026 NOSIG",
      "taf": "TAF LQBK 081700Z 0818/0918 14005KT CAVOK TX17/0914Z TN00/0905Z"
    },
    {
      "icao": "LQSA",
      "alert": "OK",
      "vis_m": 9999,
      "fzfg": false,
      "metar_trigger": false,
      "taf_trigger": false,
      "metar": "METAR LQSA 082230Z VRB03KT CAVOK 05/03 Q1026",
      "taf": "TAF LQSA 081700Z 0818/0918 VRB02KT 9999 SCT055 TX17/0914Z TN01/0905Z"
    },
    {
      "icao": "LQTZ",
      "alert": "OK",
      "vis_m": 9999,
      "fzfg": false,
      "metar_trigger": false,
      "taf_trigger": false,
      "metar": "METAR LQTZ 082230Z VRB01KT CAVOK 02/01 Q1026",
      "taf": "TAF LQTZ 081700Z 0818/0918 VRB02KT CAVOK TX17/0914Z TNM01/0905Z"
    },
    {
      "icao": "LRBC",
      "alert": "OK",
      "vis_m": 9999,
      "fzfg": false,
      "metar_trigger": false,
      "taf_trigger": false,
      "metar": "METAR LRBC 082230Z 28003KT CAVOK 01/M02 Q1034",
      "taf": "TAF LRBC 082000Z 0821/0906 VRB04KT CAVOK"
    },
    {
      "icao": "LRBS",
      "alert": "OK",
      "vis_m": 9999,
      "fzfg": false,
      "metar_trigger": false,
      "taf_trigger": false,
      "metar": "METAR LRBS 082230Z 00000KT CAVOK 02/M00 Q1033 NOSIG",
      "taf": "TAF LRBS 081700Z 0818/0918 VRB04KT CAVOK"
    },
    {
      "icao": "LRBV",
      "alert": "OK",
      "vis_m": 9999,
      "fzfg": false,
      "metar_trigger": false,
      "taf_trigger": false,
      "metar": "METAR LRBV 082230Z AUTO 20004KT 160V240 9999 NCD M02/M03 Q1031",
      "taf": "TAF LRBV 082000Z 0821/0906 07008KT CAVOK"
    },
    {
      "icao": "LRCL",
      "alert": "OK",
      "vis_m": 9999,
      "fzfg": false,
      "metar_trigger": false,
      "taf_trigger": false,
      "metar": "METAR LRCL 082230Z 03005KT CAVOK 06/M03 Q1031",
      "taf": "TAF LRCL 082000Z 0821/0906 VRB04KT CAVOK"
    },
    {
      "icao": "LRCV",
      "alert": "OK",
      "vis_m": 9999,
      "fzfg": false,
      "metar_trigger": false,
      "taf_trigger": false,
      "metar": "METAR LRCV 082230Z 05006KT CAVOK 03/01 Q1032",
      "taf": "TAF LRCV 082000Z 0821/0906 07008KT CAVOK"
    },
    {
      "icao": "LRIA",
      "alert": "OK",
      "vis_m": 9999,
      "fzfg": false,
      "metar_trigger": false,
      "taf_trigger": false,
      "metar": "METAR LRIA 082230Z 26003KT CAVOK 02/M02 Q1033",
      "taf": "TAF LRIA 082000Z 0821/0906 VRB04KT CAVOK"
    },
    {
      "icao": "LROP",
      "alert": "OK",
      "vis_m": 9999,
      "fzfg": false,
      "metar_trigger": false,
      "taf_trigger": false,
      "metar": "METAR LROP 082230Z 01003KT CAVOK 03/M01 Q1033 NOSIG",
      "taf": "TAF LROP 081700Z 0818/0918 VRB04KT CAVOK"
    },
    {
      "icao": "LRSB",
      "alert": "OK",
      "vis_m": 9999,
      "fzfg": false,
      "metar_trigger": false,
      "taf_trigger": false,
      "metar": "METAR LRSB 082230Z 13003KT CAVOK 06/01 Q1030",
      "taf": "TAF LRSB 081700Z 0818/0918 VRB04KT CAVOK"
    },
    {
      "icao": "LRSM",
      "alert": "OK",
      "vis_m": 9999,
      "fzfg": false,
      "metar_trigger": false,
      "taf_trigger": false,
      "metar": "METAR LRSM 082230Z AUTO 11004KT 9999 NCD 05/M02 Q1030",
      "taf": "TAF LRSM 081400Z 0815/0824 VRB04KT CAVOK"
    },
    {
      "icao": "LRSV",
      "alert": "OK",
      "vis_m": 9999,
      "fzfg": false,
      "metar_trigger": false,
      "taf_trigger": false,
      "metar": "METAR LRSV 082230Z 24005KT CAVOK 02/M01 Q1032",
      "taf": "TAF LRSV 082000Z 0821/0906 VRB04KT CAVOK"
    },
    {
      "icao": "LRTM",
      "alert": "OK",
      "vis_m": 9999,
      "fzfg": false,
      "metar_trigger": false,
      "taf_trigger": false,
      "metar": "METAR LRTM 082230Z AUTO 08006KT 9999 NCD 02/M04 Q1031",
      "taf": "TAF LRTM 081400Z 0815/0824 VRB04KT CAVOK"
    },
    {
      "icao": "LRTR",
      "alert": "OK",
      "vis_m": 9999,
      "fzfg": false,
      "metar_trigger": false,
      "taf_trigger": false,
      "metar": "METAR LRTR 082230Z VRB01KT CAVOK 06/01 Q1029",
      "taf": "TAF LRTR 081700Z 0818/0918 VRB04KT CAVOK"
    },
    {
      "icao": "LTAC",
      "alert": "OK",
      "vis_m": 9999,
      "fzfg": false,
      "metar_trigger": false,
      "taf_trigger": false,
      "metar": "METAR LTAC 082250Z 05010KT CAVOK M03/M07 Q1026 NOSIG RMK RWY21C 02008KT RWY03L 05007KT RWY21R 02009KT RWY03R 13003KT 070V150 RWY21L 01005KT",
      "taf": "TAF LTAC 081640Z 0818/0918 03008KT CAVOK"
    },
    {
      "icao": "LTFM",
      "alert": "OK",
      "vis_m": 9999,
      "fzfg": false,
      "metar_trigger": false,
      "taf_trigger": false,
      "metar": "METAR LTFM 082250Z 06014KT 9999 SCT028 07/02 Q1030 NOSIG RMK RWY17L 07014KT RWY34L 06012KT RWY16R 07014KT RWY36 07014KT RWY18 07014KT",
      "taf": "TAF LTFM 081640Z 0818/0924 05014KT 9999 BKN028"
    },
    {
      "icao": "LUKK",
      "alert": "OK",
      "vis_m": 9999,
      "fzfg": false,
      "metar_trigger": false,
      "taf_trigger": false,
      "metar": "METAR LUKK 082230Z VRB01KT CAVOK 03/01 Q1033 NOSIG",
      "taf": "TAF LUKK 081716Z 0818/0918 VRB04KT CAVOK"
    },
    {
      "icao": "LWOH",
      "alert": "OK",
      "vis_m": null,
      "fzfg": false,
      "metar_trigger": false,
      "taf_trigger": false,
      "metar": "",
      "taf": "TAF LWOH 082030Z 0821/0921 VRB02KT 9999 SCT040 BKN090"
    },
    {
      "icao": "LWSK",
      "alert": "OK",
      "vis_m": 9999,
      "fzfg": false,
      "metar_trigger": false,
      "taf_trigger": false,
      "metar": "METAR LWSK 082250Z 13006KT 100V160 9999 FEW050 BKN090 10/06 Q1027 NOSIG",
      "taf": "TAF LWSK 082030Z 0821/0921 VRB02KT 9999 SCT050 BKN080"
    },
    {
      "icao": "LYBE",
      "alert": "OK",
      "vis_m": 9999,
      "fzfg": false,
      "metar_trigger": false,
      "taf_trigger": false,
      "metar": "METAR LYBE 082230Z 12011KT CAVOK 09/00 Q1028 NOSIG",
      "taf": "TAF LYBE 081700Z 0818/0918 10008KT CAVOK TX16/0913Z TN06/0905Z"
    },
    {
      "icao": "LYNI",
      "alert": "OK",
      "vis_m": 9999,
      "fzfg": false,
      "metar_trigger": false,
      "taf_trigger": false,
      "metar": "METAR LYNI 082230Z 08005KT 050V110 CAVOK 08/M01 Q1028 NOSIG",
      "taf": "TAF LYNI 081700Z 0818/0918 06011KT CAVOK TX16/0913Z TN05/0905Z"
    },
    {
      "icao": "LYPG",
      "alert": "OK",
      "vis_m": 9999,
      "fzfg": false,
      "metar_trigger": false,
      "taf_trigger": false,
      "metar": "METAR LYPG 082230Z 22004KT 9999 SCT090 12/08 Q1025 NOSIG",
      "taf": "TAF LYPG 081700Z 0818/0918 35008KT CAVOK TX18/0913Z TN07/0905Z"
    },
    {
      "icao": "LZIB",
      "alert": "OK",
      "vis_m": 9999,
      "fzfg": false,
      "metar_trigger": false,
      "taf_trigger": false,
      "metar": "METAR LZIB 082230Z 02005KT CAVOK 07/M01 Q1028 NOSIG",
      "taf": "TAF LZIB 081715Z 0818/0918 10005KT CAVOK"
    },
    {
      "icao": "LZKZ",
      "alert": "OK",
      "vis_m": 9999,
      "fzfg": false,
      "metar_trigger": false,
      "taf_trigger": false,
      "metar": "METAR LZKZ 082230Z 02005KT CAVOK 07/M03 Q1029 NOSIG",
      "taf": "TAF LZKZ 081715Z 0818/0918 35006KT CAVOK"
    },
    {
      "icao": "LZTT",
      "alert": "OK",
      "vis_m": 9999,
      "fzfg": false,
      "metar_trigger": false,
      "taf_trigger": false,
      "metar": "METAR LZTT 082230Z 28004KT CAVOK M01/M06 Q1029",
      "taf": "TAF LZTT 081715Z 0818/0918 VRB02KT CAVOK"
    },
    {
      "icao": "OEJN",
      "alert": "OK",
      "vis_m": 9999,
      "fzfg": false,
      "metar_trigger": false,
      "taf_trigger": false,
      "metar": "METAR OEJN 082200Z 02006KT CAVOK 22/14 Q1013 NOSIG",
      "taf": "TAF OEJN 081700Z 0818/0924 35006KT CAVOK"
    },
    {
      "icao": "OEMA",
      "alert": "OK",
      "vis_m": 9999,
      "fzfg": false,
      "metar_trigger": false,
      "taf_trigger": false,
      "metar": "METAR OEMA 082200Z 03011KT CAVOK 20/00 Q1016 NOSIG",
      "taf": "TAF OEMA 081700Z 0818/0924 VRB03KT CAVOK"
    },
    {
      "icao": "OJAI",
      "alert": "OK",
      "vis_m": 5000,
      "fzfg": false,
      "metar_trigger": false,
      "taf_trigger": false,
      "metar": "METAR OJAI 082200Z 28004KT 5000 HZ NSC 04/M01 Q1020 NOSIG",
      "taf": "TAF OJAI 081700Z 0818/0924 30010KT 5000 HZ FEW030"
    },
    {
      "icao": "OMAA",
      "alert": "OK",
      "vis_m": null,
      "fzfg": false,
      "metar_trigger": false,
      "taf_trigger": false,
      "metar": "",
      "taf": ""
    },
    {
      "icao": "OMDB",
      "alert": "OK",
      "vis_m": null,
      "fzfg": false,
      "metar_trigger": false,
      "taf_trigger": false,
      "metar": "",
      "taf": ""
    },
    {
      "icao": "UAAA",
      "alert": "OK",
      "vis_m": 5000,
      "fzfg": false,
      "metar_trigger": false,
      "taf_trigger": false,
      "metar": "METAR UAAA 082230Z 00000MPS 5000 BR FU SCT100 BKN200 03/00 Q1015 NOSIG",
      "taf": "TAF UAAA 081704Z 0818/0918 17003MPS 3100 BR FU SCT050 BKN100 TX16/0909Z TN02/0902Z"
    },
    {
      "icao": "UBBB",
      "alert": "OK",
      "vis_m": 9999,
      "fzfg": false,
      "metar_trigger": false,
      "taf_trigger": false,
      "metar": "METAR UBBB 082230Z 35004KT 9999 -RA BKN020 04/03 Q1025 NOSIG",
      "taf": "TAF UBBB 081702Z 0818/0918 02006KT 9999 BKN035 TX08/0910Z TN04/0901Z"
    },
    {
      "icao": "UDSG",
      "alert": "OK",
      "vis_m": 9999,
      "fzfg": false,
      "metar_trigger": false,
      "taf_trigger": false,
      "metar": "METAR UDSG 082230Z 35011KT 9999 BKN049 M04/M10 Q1020 NOSIG",
      "taf": "TAF UDSG 081658Z 0818/0918 VRB06KT 9999 BKN040"
    },
    {
      "icao": "UDYZ",
      "alert": "OK",
      "vis_m": 9999,
      "fzfg": false,
      "metar_trigger": false,
      "taf_trigger": false,
      "metar": "METAR UDYZ 082230Z 13002KT 9999 SCT046 01/M04 Q1020 NOSIG",
      "taf": ""
    },
    {
      "icao": "UGKO",
      "alert": "OK",
      "vis_m": 9999,
      "fzfg": false,
      "metar_trigger": false,
      "taf_trigger": false,
      "metar": "METAR UGKO 082230Z COR 23007KT 9999 SCT017 OVC029 03/02 Q1029 NOSIG",
      "taf": "TAF UGKO 081700Z 0818/0918 25010KT 9999 SCT024 BKN050 TX08/0911Z TN02/0903Z"
    }
  ]
}