{
  "ts_utc": "2026-04-21T14:25:23Z",
  "threshold_m": 150,
  "source": "stations_override.txt (ICAO list) + aviationweather.gov (METAR/TAF raw)",
  "station_count": 159,
  "stations": [
    {
      "icao": "BIKF",
      "alert": "OK",
      "vis_m": 9999,
      "fzfg": false,
      "metar_trigger": false,
      "taf_trigger": false,
      "metar": "METAR BIKF 211400Z 02005KT 340V060 9999 VCFG FEW005 09/06 Q1040",
      "taf": "TAF BIKF 211348Z 2115/2215 31005KT 9999 BKN008 TX10/2115Z TN04/2206Z"
    },
    {
      "icao": "BKPR",
      "alert": "OK",
      "vis_m": null,
      "fzfg": false,
      "metar_trigger": false,
      "taf_trigger": false,
      "metar": "",
      "taf": "TAF BKPR 211130Z 2112/2212 01009KT 9999 SCT020 BKN040"
    },
    {
      "icao": "EBCI",
      "alert": "OK",
      "vis_m": 9999,
      "fzfg": false,
      "metar_trigger": false,
      "taf_trigger": false,
      "metar": "METAR EBCI 211350Z 06015KT 9999 FEW045 15/03 Q1022 NOSIG",
      "taf": "TAF EBCI 211100Z 2112/2218 05010KT 9999 SCT035"
    },
    {
      "icao": "EDDB",
      "alert": "OK",
      "vis_m": 9999,
      "fzfg": false,
      "metar_trigger": false,
      "taf_trigger": false,
      "metar": "METAR EDDB 211420Z AUTO 01008KT 320V060 CAVOK 14/M01 Q1023 NOSIG",
      "taf": "TAF EDDB 211100Z 2112/2212 03010KT 9999 FEW045"
    },
    {
      "icao": "EDDH",
      "alert": "OK",
      "vis_m": 9999,
      "fzfg": false,
      "metar_trigger": false,
      "taf_trigger": false,
      "metar": "METAR EDDH 211420Z AUTO 06012KT 020V080 CAVOK 12/M02 Q1026 NOSIG",
      "taf": "TAF EDDH 211100Z 2112/2218 04010KT CAVOK"
    },
    {
      "icao": "EDDK",
      "alert": "OK",
      "vis_m": 9999,
      "fzfg": false,
      "metar_trigger": false,
      "taf_trigger": false,
      "metar": "METAR EDDK 211420Z AUTO 05006KT 010V090 CAVOK 14/03 Q1022 NOSIG",
      "taf": "TAF EDDK 211100Z 2112/2218 03009KT 9999 SCT040"
    },
    {
      "icao": "EDDN",
      "alert": "OK",
      "vis_m": 9999,
      "fzfg": false,
      "metar_trigger": false,
      "taf_trigger": false,
      "metar": "METAR EDDN 211420Z AUTO 03006KT 9999 -RA SCT045 10/02 Q1020 RESHRA NOSIG",
      "taf": "TAF EDDN 211100Z 2112/2212 04008KT 9999 BKN030"
    },
    {
      "icao": "EDDS",
      "alert": "OK",
      "vis_m": 9999,
      "fzfg": false,
      "metar_trigger": false,
      "taf_trigger": false,
      "metar": "METAR EDDS 211420Z AUTO 06005KT 030V090 9999 -SHRA FEW020 FEW///TCU 09/03 Q1019 NOSIG",
      "taf": "TAF EDDS 211100Z 2112/2212 04007KT 9999 BKN040"
    },
    {
      "icao": "EDFH",
      "alert": "OK",
      "vis_m": 9999,
      "fzfg": false,
      "metar_trigger": false,
      "taf_trigger": false,
      "metar": "METAR EDFH 211320Z 05009KT 010V090 9999 FEW043 10/01 Q1021",
      "taf": "TAF EDFH 211100Z 2112/2212 07009KT 9999 SCT040"
    },
    {
      "icao": "EDJA",
      "alert": "OK",
      "vis_m": 9999,
      "fzfg": false,
      "metar_trigger": false,
      "taf_trigger": false,
      "metar": "METAR EDJA 211350Z COR 03012KT 350V050 9999 FEW008 SCT042 11/02 Q1017",
      "taf": "TAF EDJA 211100Z 2112/2121 03010KT 9999 SCT045"
    },
    {
      "icao": "EDLW",
      "alert": "OK",
      "vis_m": 9999,
      "fzfg": false,
      "metar_trigger": false,
      "taf_trigger": false,
      "metar": "METAR EDLW 211350Z 05009KT 360V090 9999 FEW040 13/04 Q1023",
      "taf": "TAF EDLW 211100Z 2112/2212 05010KT 9999 SCT040"
    },
    {
      "icao": "EDNY",
      "alert": "OK",
      "vis_m": 9999,
      "fzfg": false,
      "metar_trigger": false,
      "taf_trigger": false,
      "metar": "METAR EDNY 211350Z 03011KT 9999 FEW058 13/00 Q1017",
      "taf": "TAF EDNY 211100Z 2112/2121 05011KT 9999 FEW050"
    },
    {
      "icao": "EDSB",
      "alert": "OK",
      "vis_m": 9999,
      "fzfg": false,
      "metar_trigger": false,
      "taf_trigger": false,
      "metar": "METAR EDSB 211320Z 05014KT 9999 FEW044 12/03 Q1020",
      "taf": "TAF EDSB 211100Z 2112/2212 04013KT CAVOK"
    },
    {
      "icao": "EETN",
      "alert": "OK",
      "vis_m": 9999,
      "fzfg": false,
      "metar_trigger": false,
      "taf_trigger": false,
      "metar": "METAR EETN 211420Z 30009KT CAVOK 13/M06 Q1019 NOSIG",
      "taf": "TAF EETN 211130Z 2112/2212 32010KT CAVOK"
    },
    {
      "icao": "EFTU",
      "alert": "OK",
      "vis_m": 9999,
      "fzfg": false,
      "metar_trigger": false,
      "taf_trigger": false,
      "metar": "METAR EFTU 211420Z AUTO 33010KT 280V350 CAVOK 14/M03 Q1019",
      "taf": "TAF EFTU 211129Z 2112/2212 34006KT CAVOK"
    },
    {
      "icao": "EGBB",
      "alert": "OK",
      "vis_m": 9999,
      "fzfg": false,
      "metar_trigger": false,
      "taf_trigger": false,
      "metar": "METAR EGBB 211420Z 08014KT 9999 FEW043 13/02 Q1026",
      "taf": "TAF EGBB 211059Z 2112/2212 05012KT 9999 SCT035"
    },
    {
      "icao": "EGGP",
      "alert": "OK",
      "vis_m": 9999,
      "fzfg": false,
      "metar_trigger": false,
      "taf_trigger": false,
      "metar": "METAR EGGP 211420Z 09019KT CAVOK 14/M01 Q1027",
      "taf": "TAF EGGP 211101Z 2112/2212 07014KT 9999 FEW040"
    },
    {
      "icao": "EGGW",
      "alert": "OK",
      "vis_m": 9999,
      "fzfg": false,
      "metar_trigger": false,
      "taf_trigger": false,
      "metar": "METAR EGGW 211420Z AUTO 08015KT 9999 BKN040 BKN046 13/04 Q1025",
      "taf": "TAF EGGW 211056Z 2112/2212 06014KT 9999 SCT035"
    },
    {
      "icao": "EGKK",
      "alert": "OK",
      "vis_m": 9999,
      "fzfg": false,
      "metar_trigger": false,
      "taf_trigger": false,
      "metar": "METAR EGKK 211420Z 06015G25KT 9999 FEW025 SCT030 12/06 Q1024",
      "taf": "TAF EGKK 211105Z 2112/2218 05012KT 9999 SCT035"
    },
    {
      "icao": "EGNM",
      "alert": "OK",
      "vis_m": 9999,
      "fzfg": false,
      "metar_trigger": false,
      "taf_trigger": false,
      "metar": "METAR EGNM 211420Z 08013G23KT 030V110 9999 FEW049 12/M00 Q1029",
      "taf": "TAF EGNM 211103Z 2112/2212 07010KT 9999 FEW030"
    },
    {
      "icao": "EGPD",
      "alert": "OK",
      "vis_m": 9999,
      "fzfg": false,
      "metar_trigger": false,
      "taf_trigger": false,
      "metar": "METAR EGPD 211420Z AUTO 07011KT 040V100 9999 BKN018 BKN024 10/05 Q1035",
      "taf": "TAF EGPD 211055Z 2112/2212 07010KT 9999 SCT020"
    },
    {
      "icao": "EGPF",
      "alert": "OK",
      "vis_m": 9999,
      "fzfg": false,
      "metar_trigger": false,
      "taf_trigger": false,
      "metar": "METAR EGPF 211420Z AUTO 07016KT 9999 SCT046 12/02 Q1032",
      "taf": "TAF EGPF 211102Z 2112/2212 07014KT 9999 SCT020"
    },
    {
      "icao": "EHBK",
      "alert": "OK",
      "vis_m": 9999,
      "fzfg": false,
      "metar_trigger": false,
      "taf_trigger": false,
      "metar": "METAR EHBK 211355Z AUTO 04009KT 360V090 9999 FEW046 13/04 Q1022 NOSIG",
      "taf": "TAF EHBK 211037Z 2112/2218 05009KT CAVOK"
    },
    {
      "icao": "EHEH",
      "alert": "OK",
      "vis_m": 9999,
      "fzfg": false,
      "metar_trigger": false,
      "taf_trigger": false,
      "metar": "METAR EHEH 211355Z AUTO 04010KT 010V100 9999 SCT050 14/03 Q1023 BLU NOSIG",
      "taf": "TAF EHEH 211134Z 2112/2218 05011KT CAVOK"
    },
    {
      "icao": "EKBI",
      "alert": "OK",
      "vis_m": 9999,
      "fzfg": false,
      "metar_trigger": false,
      "taf_trigger": false,
      "metar": "METAR EKBI 211420Z AUTO 08010KT 050V140 9999 NCD 14/M02 Q1028",
      "taf": "TAF EKBI 211127Z 2112/2212 07010KT CAVOK"
    },
    {
      "icao": "EKCH",
      "alert": "OK",
      "vis_m": 9999,
      "fzfg": false,
      "metar_trigger": false,
      "taf_trigger": false,
      "metar": "METAR EKCH 211420Z AUTO 01004KT 330V070 9999 NCD 14/M04 Q1027 NOSIG",
      "taf": "TAF EKCH 211127Z 2112/2212 35010KT CAVOK"
    },
    {
      "icao": "ENAL",
      "alert": "OK",
      "vis_m": 9999,
      "fzfg": false,
      "metar_trigger": false,
      "taf_trigger": false,
      "metar": "METAR ENAL 211350Z 07007KT 9999 BKN025 09/03 Q1034",
      "taf": "TAF ENAL 211100Z 2112/2121 02009KT 9999 BKN018"
    },
    {
      "icao": "ENBR",
      "alert": "OK",
      "vis_m": 9999,
      "fzfg": false,
      "metar_trigger": false,
      "taf_trigger": false,
      "metar": "METAR ENBR 211350Z 33010KT CAVOK 12/04 Q1032 NOSIG RMK WIND 1200FT 30010KT",
      "taf": "TAF ENBR 211100Z 2112/2212 31008KT CAVOK"
    },
    {
      "icao": "ENGM",
      "alert": "OK",
      "vis_m": 9999,
      "fzfg": false,
      "metar_trigger": false,
      "taf_trigger": false,
      "metar": "METAR ENGM 211350Z 01011KT 340V040 CAVOK 16/M01 Q1028 NOSIG",
      "taf": "TAF ENGM 211100Z 2112/2212 36008KT CAVOK"
    },
    {
      "icao": "ENHD",
      "alert": "OK",
      "vis_m": 9999,
      "fzfg": false,
      "metar_trigger": false,
      "taf_trigger": false,
      "metar": "METAR ENHD 211350Z 33010KT CAVOK 10/05 Q1032",
      "taf": "TAF ENHD 211100Z 2112/2121 32009KT CAVOK"
    },
    {
      "icao": "ENTC",
      "alert": "OK",
      "vis_m": 9999,
      "fzfg": false,
      "metar_trigger": false,
      "taf_trigger": false,
      "metar": "METAR ENTC 211350Z 21015KT 9999 BKN028 08/03 Q1017 TEMPO 27020G30KT RMK WIND 2600FT 25036G48KT",
      "taf": "TAF ENTC 211100Z 2112/2212 22018KT 9999 FEW010 BKN020"
    },
    {
      "icao": "ENTO",
      "alert": "OK",
      "vis_m": 9999,
      "fzfg": false,
      "metar_trigger": false,
      "taf_trigger": false,
      "metar": "METAR ENTO 211350Z 03007KT 330V070 CAVOK 16/M04 Q1029 NOSIG",
      "taf": "TAF ENTO 211100Z 2112/2212 36008KT CAVOK"
    },
    {
      "icao": "ENVA",
      "alert": "OK",
      "vis_m": 9999,
      "fzfg": false,
      "metar_trigger": false,
      "taf_trigger": false,
      "metar": "METAR ENVA 211350Z 27014KT 9999 FEW019 SCT023 BKN032 08/05 Q1033 NOSIG RMK WIND 670FT 28016KT",
      "taf": "TAF ENVA 211100Z 2112/2212 26005KT 9999 FEW008 BKN018"
    },
    {
      "icao": "ENZV",
      "alert": "OK",
      "vis_m": 9999,
      "fzfg": false,
      "metar_trigger": false,
      "taf_trigger": false,
      "metar": "METAR ENZV 211350Z 32010KT CAVOK 12/04 Q1032 NOSIG",
      "taf": "TAF ENZV 211100Z 2112/2212 31008KT CAVOK"
    },
    {
      "icao": "EPGD",
      "alert": "OK",
      "vis_m": 9999,
      "fzfg": false,
      "metar_trigger": false,
      "taf_trigger": false,
      "metar": "METAR EPGD 211400Z 03015KT CAVOK 10/M05 Q1023",
      "taf": "TAF EPGD 211130Z 2112/2212 01010KT CAVOK"
    },
    {
      "icao": "EPKK",
      "alert": "OK",
      "vis_m": 9999,
      "fzfg": false,
      "metar_trigger": false,
      "taf_trigger": false,
      "metar": "METAR EPKK 211400Z 02008KT 9999 FEW062 11/M04 Q1018",
      "taf": "TAF EPKK 211130Z 2112/2212 05011KT 9999 FEW030 OVC050"
    },
    {
      "icao": "EPKT",
      "alert": "OK",
      "vis_m": 9999,
      "fzfg": false,
      "metar_trigger": false,
      "taf_trigger": false,
      "metar": "METAR EPKT 211400Z 02011KT 350V050 CAVOK 11/M06 Q1018",
      "taf": "TAF EPKT 211130Z 2112/2212 05008KT CAVOK"
    },
    {
      "icao": "EPLB",
      "alert": "OK",
      "vis_m": 9999,
      "fzfg": false,
      "metar_trigger": false,
      "taf_trigger": false,
      "metar": "METAR EPLB 211400Z 34008KT 300V020 CAVOK 13/M06 Q1016",
      "taf": "TAF EPLB 211130Z 2112/2212 02012KT CAVOK"
    },
    {
      "icao": "EPMO",
      "alert": "OK",
      "vis_m": 9999,
      "fzfg": false,
      "metar_trigger": false,
      "taf_trigger": false,
      "metar": "METAR EPMO 211400Z 02011KT 340V040 CAVOK 14/M04 Q1018",
      "taf": "TAF EPMO 211130Z 2112/2212 01014KT CAVOK"
    },
    {
      "icao": "EPPO",
      "alert": "OK",
      "vis_m": 9999,
      "fzfg": false,
      "metar_trigger": false,
      "taf_trigger": false,
      "metar": "METAR EPPO 211400Z 07010KT 350V080 CAVOK 15/M06 Q1021",
      "taf": "TAF EPPO 211130Z 2112/2212 04010KT CAVOK"
    },
    {
      "icao": "EPRA",
      "alert": "OK",
      "vis_m": 9999,
      "fzfg": false,
      "metar_trigger": false,
      "taf_trigger": false,
      "metar": "METAR EPRA 211400Z 32009KT 290V350 CAVOK 13/M09 Q1017",
      "taf": "TAF EPRA 211130Z 2112/2121 01010KT CAVOK"
    },
    {
      "icao": "EPRZ",
      "alert": "OK",
      "vis_m": 9999,
      "fzfg": false,
      "metar_trigger": false,
      "taf_trigger": false,
      "metar": "METAR EPRZ 211400Z 34008KT CAVOK 12/M06 Q1016",
      "taf": "TAF EPRZ 211130Z 2112/2212 04010KT CAVOK"
    },
    {
      "icao": "EPSC",
      "alert": "OK",
      "vis_m": 9999,
      "fzfg": false,
      "metar_trigger": false,
      "taf_trigger": false,
      "metar": "METAR EPSC 211400Z 01011KT 350V060 CAVOK 12/M03 Q1024",
      "taf": "TAF EPSC 211130Z 2112/2212 01010KT CAVOK"
    },
    {
      "icao": "EPSY",
      "alert": "OK",
      "vis_m": 9999,
      "fzfg": false,
      "metar_trigger": false,
      "taf_trigger": false,
      "metar": "METAR EPSY 211400Z 36016KT CAVOK 12/M07 Q1019",
      "taf": "TAF EPSY 211130Z 2112/2121 02010KT CAVOK"
    },
    {
      "icao": "EPWA",
      "alert": "OK",
      "vis_m": 9999,
      "fzfg": false,
      "metar_trigger": false,
      "taf_trigger": false,
      "metar": "METAR EPWA 211400Z 01010KT 340V050 CAVOK 14/M07 Q1018 NOSIG",
      "taf": "TAF EPWA 211130Z 2112/2212 01014KT CAVOK"
    },
    {
      "icao": "EPWR",
      "alert": "OK",
      "vis_m": 9999,
      "fzfg": false,
      "metar_trigger": false,
      "taf_trigger": false,
      "metar": "METAR EPWR 211400Z 35011KT 310V020 CAVOK 13/M06 Q1020",
      "taf": "TAF EPWR 211130Z 2112/2212 03009KT CAVOK"
    },
    {
      "icao": "ESGG",
      "alert": "OK",
      "vis_m": 9999,
      "fzfg": false,
      "metar_trigger": false,
      "taf_trigger": false,
      "metar": "METAR ESGG 211420Z 35010KT 310V020 CAVOK 16/M03 Q1026",
      "taf": "TAF ESGG 211130Z 2112/2212 01010KT CAVOK"
    },
    {
      "icao": "ESKN",
      "alert": "OK",
      "vis_m": 9999,
      "fzfg": false,
      "metar_trigger": false,
      "taf_trigger": false,
      "metar": "METAR ESKN 211420Z 02006KT 340V090 CAVOK 17/M02 Q1024",
      "taf": "TAF ESKN 211130Z 2112/2212 34008KT CAVOK"
    },
    {
      "icao": "ESMS",
      "alert": "OK",
      "vis_m": 9999,
      "fzfg": false,
      "metar_trigger": false,
      "taf_trigger": false,
      "metar": "METAR ESMS 211420Z 19009KT CAVOK 12/M01 Q1026",
      "taf": ""
    },
    {
      "icao": "ESSA",
      "alert": "OK",
      "vis_m": 9999,
      "fzfg": false,
      "metar_trigger": false,
      "taf_trigger": false,
      "metar": "METAR ESSA 211420Z 34013KT CAVOK 15/M05 Q1023 NOSIG",
      "taf": "TAF ESSA 211130Z 2112/2212 36010KT CAVOK"
    },
    {
      "icao": "EYKA",
      "alert": "OK",
      "vis_m": 9999,
      "fzfg": false,
      "metar_trigger": false,
      "taf_trigger": false,
      "metar": "METAR EYKA 211420Z 34008KT CAVOK 13/M08 Q1018",
      "taf": "TAF EYKA 211100Z 2112/2212 36010KT 9000 NSC"
    },
    {
      "icao": "EYPA",
      "alert": "OK",
      "vis_m": 9999,
      "fzfg": false,
      "metar_trigger": false,
      "taf_trigger": false,
      "metar": "METAR EYPA 211420Z 36008KT 290V030 CAVOK 08/02 Q1021",
      "taf": "TAF EYPA 211100Z 2112/2212 35009KT 9000 NSC"
    },
    {
      "icao": "EYVI",
      "alert": "OK",
      "vis_m": 9999,
      "fzfg": false,
      "metar_trigger": false,
      "taf_trigger": false,
      "metar": "METAR EYVI 211420Z 01012KT CAVOK 12/M07 Q1017 NOSIG",
      "taf": "TAF EYVI 211100Z 2112/2212 01012KT 9000 NSC"
    },
    {
      "icao": "GCFV",
      "alert": "OK",
      "vis_m": 9999,
      "fzfg": false,
      "metar_trigger": false,
      "taf_trigger": false,
      "metar": "METAR GCFV 211400Z 10009KT 070V140 9999 FEW035 22/15 Q1011",
      "taf": "TAF GCFV 210800Z 2109/2209 31007KT 9999 SCT030 TX27/2114Z TN17/2206Z"
    },
    {
      "icao": "GCLP",
      "alert": "OK",
      "vis_m": 9999,
      "fzfg": false,
      "metar_trigger": false,
      "taf_trigger": false,
      "metar": "METAR GCLP 211400Z 01015KT 340V040 9999 FEW025 BKN040 22/13 Q1011 NOSIG",
      "taf": "TAF GCLP 210800Z 2109/2209 04010KT 9999 BKN035 TX23/2114Z TN17/2206Z"
    },
    {
      "icao": "GCTS",
      "alert": "OK",
      "vis_m": 9999,
      "fzfg": false,
      "metar_trigger": false,
      "taf_trigger": false,
      "metar": "METAR GCTS 211400Z 15006KT 120V190 9999 SCT045 21/15 Q1012 NOSIG",
      "taf": "TAF GCTS 210800Z 2109/2209 14008KT 9999 BKN035 TX26/2114Z TN16/2206Z"
    },
    {
      "icao": "GMAD",
      "alert": "OK",
      "vis_m": 8000,
      "fzfg": false,
      "metar_trigger": false,
      "taf_trigger": false,
      "metar": "METAR GMAD 211400Z 25017KT 8000 SCT020 23/13 Q1009 NOSIG",
      "taf": "TAF GMAD 211100Z 2112/2218 26006KT 8000 BKN020"
    },
    {
      "icao": "GMMN",
      "alert": "OK",
      "vis_m": 9999,
      "fzfg": false,
      "metar_trigger": false,
      "taf_trigger": false,
      "metar": "METAR GMMN 211400Z 28011KT 240V350 9999 SCT020 23/16 Q1009 NOSIG",
      "taf": "TAF GMMN 211100Z 2112/2218 26012KT 9999 BKN020"
    },
    {
      "icao": "GMMX",
      "alert": "OK",
      "vis_m": 9999,
      "fzfg": false,
      "metar_trigger": false,
      "taf_trigger": false,
      "metar": "METAR GMMX 211400Z 28009KT 250V320 9999 SCT040 SCT120 24/14 Q1009 NOSIG",
      "taf": "TAF GMMX 211100Z 2112/2218 12008KT 8000 SCT030"
    },
    {
      "icao": "HEGN",
      "alert": "OK",
      "vis_m": 9999,
      "fzfg": false,
      "metar_trigger": false,
      "taf_trigger": false,
      "metar": "METAR HEGN 211400Z 36015KT CAVOK 26/01 Q1010 NOSIG",
      "taf": "TAF HEGN 211100Z 2112/2218 34018KT CAVOK"
    },
    {
      "icao": "HEMA",
      "alert": "OK",
      "vis_m": 9999,
      "fzfg": false,
      "metar_trigger": false,
      "taf_trigger": false,
      "metar": "METAR HEMA 211400Z 02018KT CAVOK 24/12 Q1009 NOSIG",
      "taf": "TAF HEMA 211100Z 2112/2218 02018G28KT CAVOK"
    },
    {
      "icao": "HESH",
      "alert": "OK",
      "vis_m": 9999,
      "fzfg": false,
      "metar_trigger": false,
      "taf_trigger": false,
      "metar": "METAR HESH 211400Z 36009KT CAVOK 28/09 Q1010 NOSIG",
      "taf": "TAF HESH 211100Z 2112/2218 03012KT CAVOK"
    },
    {
      "icao": "HESX",
      "alert": "OK",
      "vis_m": 9999,
      "fzfg": false,
      "metar_trigger": false,
      "taf_trigger": false,
      "metar": "METAR HESX 211400Z 36010KT CAVOK 25/06 Q1014 NOSIG",
      "taf": "TAF HESX 211100Z 2112/2218 35008KT CAVOK"
    },
    {
      "icao": "LATI",
      "alert": "OK",
      "vis_m": 9999,
      "fzfg": false,
      "metar_trigger": false,
      "taf_trigger": false,
      "metar": "METAR LATI 211420Z VRB03KT 9999 FEW025 SCT046 BKN080 18/12 Q1011 NOSIG",
      "taf": "TAF LATI 211100Z 2112/2212 24012KT 9999 FEW030TCU BKN070 TX21/2112Z TN13/2204Z"
    },
    {
      "icao": "LBPD",
      "alert": "OK",
      "vis_m": 9999,
      "fzfg": false,
      "metar_trigger": false,
      "taf_trigger": false,
      "metar": "METAR LBPD 211400Z AUTO 28010KT 9999 BKN045/// OVC052/// 14/09 Q1011 NOSIG",
      "taf": "TAF LBPD 211100Z 2112/2212 30010KT 9999 RA BKN015 OVC040"
    },
    {
      "icao": "LBSF",
      "alert": "OK",
      "vis_m": 8000,
      "fzfg": false,
      "metar_trigger": false,
      "taf_trigger": false,
      "metar": "METAR LBSF 211400Z 26008KT 8000 -RA FEW033 BKN044 OVC053 08/06 Q1013 NOSIG",
      "taf": "TAF LBSF 211100Z 2112/2212 32010KT 9999 RA BKN015 BKN040"
    },
    {
      "icao": "LBWN",
      "alert": "OK",
      "vis_m": 9999,
      "fzfg": false,
      "metar_trigger": false,
      "taf_trigger": false,
      "metar": "METAR LBWN 211400Z AUTO 12011KT 9999 -RA BKN009/// BKN019/// OVC023/// 10/10 Q1013 NOSIG",
      "taf": "TAF LBWN 211100Z 2112/2212 11012KT 7000 -RA SCT015 BKN040"
    },
    {
      "icao": "LCLK",
      "alert": "OK",
      "vis_m": 9999,
      "fzfg": false,
      "metar_trigger": false,
      "taf_trigger": false,
      "metar": "METAR LCLK 211400Z 22018KT 9999 FEW020 21/13 Q1012 NOSIG",
      "taf": "TAF LCLK 211130Z 2112/2212 22015KT 9999 FEW025"
    },
    {
      "icao": "LCPH",
      "alert": "OK",
      "vis_m": 9999,
      "fzfg": false,
      "metar_trigger": false,
      "taf_trigger": false,
      "metar": "METAR LCPH 211400Z COR 26007KT 230V320 9999 FEW025 20/12 Q1014 NOSIG",
      "taf": "TAF LCPH 211130Z 2112/2212 26010KT 9999 FEW025"
    },
    {
      "icao": "LEAL",
      "alert": "OK",
      "vis_m": 9999,
      "fzfg": false,
      "metar_trigger": false,
      "taf_trigger": false,
      "metar": "METAR LEAL 211400Z 10006KT 060V150 CAVOK 22/16 Q1010 NOSIG",
      "taf": "TAF LEAL 211100Z 2112/2212 09009KT CAVOK TX24/2112Z TN13/2206Z"
    },
    {
      "icao": "LEBB",
      "alert": "OK",
      "vis_m": 9999,
      "fzfg": false,
      "metar_trigger": false,
      "taf_trigger": false,
      "metar": "METAR LEBB 211400Z VRB04KT 9999 FEW050 32/14 Q1004 NOSIG",
      "taf": "TAF LEBB 211100Z 2112/2212 10009KT 9999 FEW040 TX29/2113Z TN14/2206Z"
    },
    {
      "icao": "LEBL",
      "alert": "OK",
      "vis_m": 9999,
      "fzfg": false,
      "metar_trigger": false,
      "taf_trigger": false,
      "metar": "METAR LEBL 211400Z 17007KT 130V210 CAVOK 20/17 Q1011 NOSIG",
      "taf": "TAF LEBL 211100Z 2112/2212 VRB04KT 9999 FEW030 TX21/2112Z TN13/2206Z"
    },
    {
      "icao": "LECH",
      "alert": "OK",
      "vis_m": 9999,
      "fzfg": false,
      "metar_trigger": false,
      "taf_trigger": false,
      "metar": "METAR LECH 211400Z AUTO 12010KT 090V160 CAVOK 22/11 Q1011",
      "taf": "TAF LECH 211100Z 2112/2212 12007KT CAVOK TX26/2113Z TN12/2206Z"
    },
    {
      "icao": "LEMD",
      "alert": "OK",
      "vis_m": 9999,
      "fzfg": false,
      "metar_trigger": false,
      "taf_trigger": false,
      "metar": "METAR LEMD 211400Z 23008KT 160V260 CAVOK 26/07 Q1009 NOSIG",
      "taf": "TAF LEMD 211100Z 2112/2218 VRB04KT CAVOK TX29/2116Z TN11/2206Z"
    },
    {
      "icao": "LEMG",
      "alert": "OK",
      "vis_m": 9999,
      "fzfg": false,
      "metar_trigger": false,
      "taf_trigger": false,
      "metar": "METAR LEMG 211400Z 15005KT 080V210 9999 FEW015 19/13 Q1009 NOSIG",
      "taf": "TAF LEMG 211100Z 2112/2212 13007KT CAVOK TX24/2114Z TN12/2206Z"
    },
    {
      "icao": "LEVC",
      "alert": "OK",
      "vis_m": 9999,
      "fzfg": false,
      "metar_trigger": false,
      "taf_trigger": false,
      "metar": "METAR LEVC 211400Z 08010KT 050V140 CAVOK 23/13 Q1010 NOSIG",
      "taf": "TAF LEVC 211100Z 2112/2212 09009KT CAVOK TX26/2112Z TN12/2206Z"
    },
    {
      "icao": "LEXJ",
      "alert": "OK",
      "vis_m": 9999,
      "fzfg": false,
      "metar_trigger": false,
      "taf_trigger": false,
      "metar": "METAR LEXJ 211400Z 03007KT 330V080 9999 FEW010 20/16 Q1004",
      "taf": "TAF LEXJ 211400Z 2115/2215 08009KT 9000 SCT040 TX26/2213Z TN15/2206Z"
    },
    {
      "icao": "LEZG",
      "alert": "OK",
      "vis_m": 9999,
      "fzfg": false,
      "metar_trigger": false,
      "taf_trigger": false,
      "metar": "METAR LEZG 211400Z 10011KT 070V140 CAVOK 29/10 Q1007 NOSIG",
      "taf": "TAF LEZG 211100Z 2112/2212 10009KT CAVOK TX31/2115Z TN15/2206Z"
    },
    {
      "icao": "LEZL",
      "alert": "OK",
      "vis_m": 9999,
      "fzfg": false,
      "metar_trigger": false,
      "taf_trigger": false,
      "metar": "METAR LEZL 211400Z 22005KT 140V260 CAVOK 28/10 Q1006 NOSIG",
      "taf": "TAF LEZL 211400Z 2115/2215 21015KT CAVOK TX32/2115Z TN16/2206Z"
    },
    {
      "icao": "LFBD",
      "alert": "OK",
      "vis_m": 9999,
      "fzfg": false,
      "metar_trigger": false,
      "taf_trigger": false,
      "metar": "METAR LFBD 211400Z AUTO 07010KT 040V120 CAVOK 26/11 Q1009 NOSIG",
      "taf": "TAF LFBD 211100Z 2112/2218 06010KT CAVOK TX28/2115Z TN14/2206Z"
    },
    {
      "icao": "LFLL",
      "alert": "OK",
      "vis_m": 9999,
      "fzfg": false,
      "metar_trigger": false,
      "taf_trigger": false,
      "metar": "METAR LFLL 211400Z 36010KT 330V030 CAVOK 18/04 Q1013 NOSIG",
      "taf": "TAF LFLL 211100Z 2112/2218 35007KT CAVOK"
    },
    {
      "icao": "LFLS",
      "alert": "OK",
      "vis_m": 9999,
      "fzfg": false,
      "metar_trigger": false,
      "taf_trigger": false,
      "metar": "METAR LFLS 211400Z AUTO 34010KT 300V010 CAVOK 18/08 Q1013 NOSIG",
      "taf": "TAF LFLS 210800Z 2109/2209 36005KT CAVOK"
    },
    {
      "icao": "LFMN",
      "alert": "OK",
      "vis_m": 9999,
      "fzfg": false,
      "metar_trigger": false,
      "taf_trigger": false,
      "metar": "METAR LFMN 211400Z 12004KT 9999 FEW016 SCT056 19/15 Q1011 NOSIG",
      "taf": "TAF LFMN 211400Z 2115/2221 13005KT 9999 FEW020 SCT050"
    },
    {
      "icao": "LFOB",
      "alert": "OK",
      "vis_m": 9999,
      "fzfg": false,
      "metar_trigger": false,
      "taf_trigger": false,
      "metar": "METAR LFOB 211400Z AUTO 05014KT 9999 FEW041 SCT049 OVC056 14/06 Q1020 TEMPO SCT040TCU",
      "taf": "TAF LFOB 211100Z 2112/2212 04008KT CAVOK"
    },
    {
      "icao": "LFPO",
      "alert": "OK",
      "vis_m": 9999,
      "fzfg": false,
      "metar_trigger": false,
      "taf_trigger": false,
      "metar": "METAR LFPO 211400Z 05017KT CAVOK 14/02 Q1019 NOSIG",
      "taf": "TAF LFPO 211100Z 2112/2218 05015KT 9999 FEW046"
    },
    {
      "icao": "LFSB",
      "alert": "OK",
      "vis_m": 9999,
      "fzfg": false,
      "metar_trigger": false,
      "taf_trigger": false,
      "metar": "METAR LFSB 211400Z AUTO 36011KT 330V030 9999 SCT056 16/04 Q1016 NOSIG",
      "taf": "TAF LFSB 211100Z 2112/2212 36010KT 9999 SCT045"
    },
    {
      "icao": "LGAV",
      "alert": "OK",
      "vis_m": 9999,
      "fzfg": false,
      "metar_trigger": false,
      "taf_trigger": false,
      "metar": "METAR LGAV 211420Z 22014KT 9999 FEW025 22/07 Q1011 NOSIG",
      "taf": "TAF LGAV 211100Z 2112/2212 20013KT 9999 FEW025"
    },
    {
      "icao": "LGTS",
      "alert": "OK",
      "vis_m": 9999,
      "fzfg": false,
      "metar_trigger": false,
      "taf_trigger": false,
      "metar": "METAR LGTS 211350Z 26008KT 220V300 9999 SCT025 21/13 Q1009 NOSIG",
      "taf": "TAF LGTS 211100Z 2112/2212 17010KT 9999 SCT030"
    },
    {
      "icao": "LHBP",
      "alert": "OK",
      "vis_m": 7000,
      "fzfg": false,
      "metar_trigger": false,
      "taf_trigger": false,
      "metar": "SPECI LHBP 211417Z 08010KT 040V190 7000 SHRA FEW040CB BKN050 10/04 Q1015 BECMG NSW",
      "taf": "TAF LHBP 211115Z 2112/2212 36007KT CAVOK"
    },
    {
      "icao": "LHDC",
      "alert": "OK",
      "vis_m": 9999,
      "fzfg": false,
      "metar_trigger": false,
      "taf_trigger": false,
      "metar": "METAR LHDC 211345Z AUTO 02008KT 330V080 9999 BKN045 12/02 Q1015 NOSIG",
      "taf": "TAF LHDC 211415Z 2115/2124 03010KT 9999 SCT030 BKN050"
    },
    {
      "icao": "LIBD",
      "alert": "OK",
      "vis_m": 9999,
      "fzfg": false,
      "metar_trigger": false,
      "taf_trigger": false,
      "metar": "METAR LIBD 211350Z 08010KT 040V110 CAVOK 19/14 Q1010",
      "taf": "TAF LIBD 211100Z 2112/2212 05015KT 9999 SCT040"
    },
    {
      "icao": "LIBG",
      "alert": "OK",
      "vis_m": 9999,
      "fzfg": false,
      "metar_trigger": false,
      "taf_trigger": false,
      "metar": "METAR LIBG 211350Z 17006KT 9999 FEW040 22/15 Q1010",
      "taf": "TAF LIBG 211100Z 2112/2121 18010KT 9999 SCT030"
    },
    {
      "icao": "LIBP",
      "alert": "OK",
      "vis_m": 9999,
      "fzfg": false,
      "metar_trigger": false,
      "taf_trigger": false,
      "metar": "METAR LIBP 211350Z AUTO 08008KT 030V110 9999 BKN011/// BKN045/// 18/15 Q1011",
      "taf": "TAF LIBP 211100Z 2112/2212 04012KT 9999 SCT030"
    },
    {
      "icao": "LIBR",
      "alert": "OK",
      "vis_m": 9999,
      "fzfg": false,
      "metar_trigger": false,
      "taf_trigger": false,
      "metar": "METAR LIBR 211350Z 13005KT 9999 DZ FEW030 18/16 Q1010",
      "taf": "TAF LIBR 211100Z 2112/2212 VRB06KT 9999 SCT040"
    },
    {
      "icao": "LICA",
      "alert": "OK",
      "vis_m": 9999,
      "fzfg": false,
      "metar_trigger": false,
      "taf_trigger": false,
      "metar": "METAR LICA 211350Z AUTO 20011KT 9999 NCD 21/14 Q1010",
      "taf": "TAF LICA 211100Z 2112/2212 26012KT CAVOK"
    },
    {
      "icao": "LICC",
      "alert": "OK",
      "vis_m": 9999,
      "fzfg": false,
      "metar_trigger": false,
      "taf_trigger": false,
      "metar": "METAR LICC 211350Z 25012KT CAVOK 28/21 Q1010",
      "taf": "TAF LICC 211100Z 2112/2212 24012KT CAVOK"
    },
    {
      "icao": "LICJ",
      "alert": "OK",
      "vis_m": 9999,
      "fzfg": false,
      "metar_trigger": false,
      "taf_trigger": false,
      "metar": "METAR LICJ 211350Z 03009KT CAVOK 20/16 Q1011",
      "taf": "TAF LICJ 211100Z 2112/2212 03010KT CAVOK"
    },
    {
      "icao": "LIMC",
      "alert": "OK",
      "vis_m": 9999,
      "fzfg": false,
      "metar_trigger": false,
      "taf_trigger": false,
      "metar": "METAR LIMC 211350Z 13007KT 090V190 9999 SCT040 19/10 Q1011 NOSIG",
      "taf": "TAF LIMC 211100Z 2112/2218 VRB05KT 9999 SCT015"
    },
    {
      "icao": "LIME",
      "alert": "OK",
      "vis_m": 9999,
      "fzfg": false,
      "metar_trigger": false,
      "taf_trigger": false,
      "metar": "METAR LIME 211350Z 15008KT 100V200 9999 SCT035 19/10 Q1012 NOSIG",
      "taf": ""
    },
    {
      "icao": "LIMF",
      "alert": "OK",
      "vis_m": 9999,
      "fzfg": false,
      "metar_trigger": false,
      "taf_trigger": false,
      "metar": "METAR LIMF 211350Z 06007KT 010V090 9999 SCT025 19/11 Q1011",
      "taf": "TAF LIMF 211100Z 2112/2212 VRB05KT CAVOK"
    },
    {
      "icao": "LIMJ",
      "alert": "OK",
      "vis_m": 9999,
      "fzfg": false,
      "metar_trigger": false,
      "taf_trigger": false,
      "metar": "METAR LIMJ 211350Z 16005KT 9999 FEW028 18/15 Q1010",
      "taf": "TAF LIMJ 211100Z 2112/2212 VRB06KT 9999 BKN030"
    },
    {
      "icao": "LIPE",
      "alert": "OK",
      "vis_m": 9999,
      "fzfg": false,
      "metar_trigger": false,
      "taf_trigger": false,
      "metar": "METAR LIPE 211350Z 10008KT 070V130 9999 BKN050 16/13 Q1012",
      "taf": "TAF LIPE 211100Z 2112/2212 08010KT 9999 BKN020"
    },
    {
      "icao": "LIPH",
      "alert": "OK",
      "vis_m": 9999,
      "fzfg": false,
      "metar_trigger": false,
      "taf_trigger": false,
      "metar": "METAR LIPH 211350Z 14009KT 100V160 CAVOK 20/01 Q1012",
      "taf": "TAF LIPH 211100Z 2112/2212 12010KT 9999 SCT030"
    },
    {
      "icao": "LIPQ",
      "alert": "OK",
      "vis_m": 9999,
      "fzfg": false,
      "metar_trigger": false,
      "taf_trigger": false,
      "metar": "METAR LIPQ 211350Z AUTO 03012KT 9999 RA BKN072/// 15/07 Q1013",
      "taf": "TAF LIPQ 211100Z 2112/2212 07012KT 9999 SCT050"
    },
    {
      "icao": "LIPR",
      "alert": "OK",
      "vis_m": 9999,
      "fzfg": false,
      "metar_trigger": false,
      "taf_trigger": false,
      "metar": "METAR LIPR 211350Z 03003KT 350V090 9999 SCT020 BKN070 15/12 Q1013",
      "taf": "TAF LIPR 211100Z 2112/2212 08012KT 9999 BKN030"
    },
    {
      "icao": "LIPX",
      "alert": "OK",
      "vis_m": 9999,
      "fzfg": false,
      "metar_trigger": false,
      "taf_trigger": false,
      "metar": "METAR LIPX 211350Z 16007KT 130V190 9999 SCT035 19/10 Q1012",
      "taf": "TAF LIPX 211100Z 2112/2212 10010KT 9999 FEW040"
    },
    {
      "icao": "LIPY",
      "alert": "OK",
      "vis_m": 9999,
      "fzfg": false,
      "metar_trigger": false,
      "taf_trigger": false,
      "metar": "METAR LIPY 211350Z AUTO 23004KT 200V260 9999 -RA OVC082/// 15/13 Q1013",
      "taf": "TAF LIPY 211100Z 2112/2212 VRB05KT 9999 BKN040"
    },
    {
      "icao": "LIPZ",
      "alert": "OK",
      "vis_m": 9999,
      "fzfg": false,
      "metar_trigger": false,
      "taf_trigger": false,
      "metar": "METAR LIPZ 211350Z 15006KT CAVOK 18/07 Q1013 NOSIG",
      "taf": "TAF LIPZ 211100Z 2112/2218 14010KT 9999 SCT030"
    },
    {
      "icao": "LIRF",
      "alert": "OK",
      "vis_m": 9999,
      "fzfg": false,
      "metar_trigger": false,
      "taf_trigger": false,
      "metar": "METAR LIRF 211350Z 20010KT 170V240 9999 SCT020 20/15 Q1011 NOSIG",
      "taf": "TAF LIRF 211100Z 2112/2218 20011KT 9999 FEW020"
    },
    {
      "icao": "LIRN",
      "alert": "OK",
      "vis_m": 9999,
      "fzfg": false,
      "metar_trigger": false,
      "taf_trigger": false,
      "metar": "METAR LIRN 211350Z 23008KT 160V270 CAVOK 22/07 Q1011 NOSIG",
      "taf": "TAF LIRN 211100Z 2112/2212 20010KT 9999 FEW040"
    },
    {
      "icao": "LIRP",
      "alert": "OK",
      "vis_m": 9999,
      "fzfg": false,
      "metar_trigger": false,
      "taf_trigger": false,
      "metar": "METAR LIRP 211345Z 12007KT CAVOK 21/11 Q1010 NOSIG",
      "taf": "TAF LIRP 211100Z 2112/2212 VRB04KT 9999 SCT030"
    },
    {
      "icao": "LIRZ",
      "alert": "OK",
      "vis_m": 9999,
      "fzfg": false,
      "metar_trigger": false,
      "taf_trigger": false,
      "metar": "METAR LIRZ 211350Z AUTO 04015KT 9999 NCD 17/10 Q1011",
      "taf": "TAF LIRZ 211100Z 2112/2212 VRB05KT 9999 BKN030"
    },
    {
      "icao": "LJLJ",
      "alert": "OK",
      "vis_m": 9999,
      "fzfg": false,
      "metar_trigger": false,
      "taf_trigger": false,
      "metar": "METAR LJLJ 211400Z 11012KT 9999 FEW033TCU FEW050 BKN100 13/04 Q1014 NOSIG",
      "taf": "TAF LJLJ 211100Z 2112/2212 19003KT 9999 FEW025 BKN035"
    },
    {
      "icao": "LKMT",
      "alert": "OK",
      "vis_m": 9999,
      "fzfg": false,
      "metar_trigger": false,
      "taf_trigger": false,
      "metar": "METAR LKMT 211400Z 05008KT 010V070 CAVOK 10/M02 Q1018 NOSIG",
      "taf": "TAF LKMT 211100Z 2112/2212 03012KT 9999 SCT045"
    },
    {
      "icao": "LKPR",
      "alert": "OK",
      "vis_m": 9999,
      "fzfg": false,
      "metar_trigger": false,
      "taf_trigger": false,
      "metar": "METAR LKPR 211400Z 02008KT 350V070 9999 -SHRA SCT043 10/M00 Q1020 NOSIG",
      "taf": "TAF LKPR 211400Z 2115/2221 05010KT 9999 SCT035"
    },
    {
      "icao": "LLBG",
      "alert": "OK",
      "vis_m": 9999,
      "fzfg": false,
      "metar_trigger": false,
      "taf_trigger": false,
      "metar": "METAR LLBG 211420Z 31008KT 9999 FEW045 20/08 Q1014 NOSIG",
      "taf": "TAF LLBG 211103Z 2112/2212 29012KT 9999 FEW040 TX22/2112Z TN12/2203Z"
    },
    {
      "icao": "LMML",
      "alert": "OK",
      "vis_m": 9999,
      "fzfg": false,
      "metar_trigger": false,
      "taf_trigger": false,
      "metar": "METAR LMML 211415Z 16010KT 140V210 CAVOK 22/17 Q1011 NOSIG",
      "taf": "TAF LMML 211100Z 2112/2212 18007KT CAVOK"
    },
    {
      "icao": "LOWW",
      "alert": "OK",
      "vis_m": 9999,
      "fzfg": false,
      "metar_trigger": false,
      "taf_trigger": false,
      "metar": "METAR LOWW 211350Z 34009KT 310V020 9999 FEW044 OVC048 11/03 Q1017 NOSIG",
      "taf": "TAF LOWW 211415Z 2115/2221 34010KT CAVOK TX15/2213Z TN03/2204Z"
    },
    {
      "icao": "LPFR",
      "alert": "OK",
      "vis_m": 9999,
      "fzfg": false,
      "metar_trigger": false,
      "taf_trigger": false,
      "metar": "METAR LPFR 211400Z 16006KT 120V200 9999 FEW025 21/16 Q1006",
      "taf": "TAF LPFR 211100Z 2112/2212 12013KT CAVOK"
    },
    {
      "icao": "LPMA",
      "alert": "OK",
      "vis_m": 9999,
      "fzfg": false,
      "metar_trigger": false,
      "taf_trigger": false,
      "metar": "METAR LPMA 211400Z 34014KT 300V010 9999 SCT015 SCT028 17/10 Q1011",
      "taf": "TAF LPMA 211100Z 2112/2212 35015KT 9999 SCT015 SCT030"
    },
    {
      "icao": "LPPR",
      "alert": "OK",
      "vis_m": 9999,
      "fzfg": false,
      "metar_trigger": false,
      "taf_trigger": false,
      "metar": "METAR LPPR 211400Z 20011KT 170V260 9999 FEW040 18/14 Q1004",
      "taf": "TAF LPPR 211100Z 2112/2212 20015KT 9999 FEW020"
    },
    {
      "icao": "LPPS",
      "alert": "OK",
      "vis_m": 9999,
      "fzfg": false,
      "metar_trigger": false,
      "taf_trigger": false,
      "metar": "METAR LPPS 211400Z 32016KT 9999 SCT015 18/09 Q1012",
      "taf": "TAF LPPS 211100Z 2112/2218 33017KT 9999 SCT015 SCT030"
    },
    {
      "icao": "LPPT",
      "alert": "OK",
      "vis_m": 9999,
      "fzfg": false,
      "metar_trigger": false,
      "taf_trigger": false,
      "metar": "METAR LPPT 211400Z 21014KT 9999 FEW020 20/14 Q1005",
      "taf": "TAF LPPT 211100Z 2112/2218 22013KT 9999 SCT025"
    },
    {
      "icao": "LQBK",
      "alert": "OK",
      "vis_m": 9999,
      "fzfg": false,
      "metar_trigger": false,
      "taf_trigger": false,
      "metar": "METAR LQBK 211400Z 36009KT 9999 -SHRA FEW027TCU BKN040 11/07 Q1015 TEMPO 5000 SHRA",
      "taf": "TAF LQBK 211100Z 2112/2212 33005KT 9999 SCT020 BKN045 TX16/2114Z TN05/2204Z"
    },
    {
      "icao": "LQSA",
      "alert": "OK",
      "vis_m": 9999,
      "fzfg": false,
      "metar_trigger": false,
      "taf_trigger": false,
      "metar": "METAR LQSA 211400Z VRB02KT 9999 FEW033 SCT045 BKN055 12/04 Q1013 NOSIG",
      "taf": "TAF LQSA 211100Z 2112/2212 30006KT 9999 FEW025 BKN040 TX14/2114Z TN04/2205Z"
    },
    {
      "icao": "LQTZ",
      "alert": "OK",
      "vis_m": 9999,
      "fzfg": false,
      "metar_trigger": false,
      "taf_trigger": false,
      "metar": "METAR LQTZ 211400Z VRB05KT 9999 SCT030 BKN060 13/07 Q1014",
      "taf": "TAF LQTZ 211100Z 2112/2212 03005KT 9999 FEW025 BKN040 TX15/2113Z TN04/2202Z"
    },
    {
      "icao": "LRBC",
      "alert": "OK",
      "vis_m": 9999,
      "fzfg": false,
      "metar_trigger": false,
      "taf_trigger": false,
      "metar": "METAR LRBC 211400Z 31007KT 9999 BKN037 OVC055 09/02 Q1015",
      "taf": "TAF LRBC 211100Z 2112/2121 34008KT 9999 BKN045"
    },
    {
      "icao": "LRBS",
      "alert": "OK",
      "vis_m": 9999,
      "fzfg": false,
      "metar_trigger": false,
      "taf_trigger": false,
      "metar": "METAR LRBS 211400Z 04011KT 360V060 9999 OVC025 09/03 Q1015 NOSIG",
      "taf": "TAF LRBS 211100Z 2112/2212 08012KT 9999 BKN025"
    },
    {
      "icao": "LRBV",
      "alert": "OK",
      "vis_m": 9999,
      "fzfg": false,
      "metar_trigger": false,
      "taf_trigger": false,
      "metar": "METAR LRBV 211400Z 07006KT 9999 -RA SCT010 BKN022 OVC030 05/04 Q1014",
      "taf": ""
    },
    {
      "icao": "LRCL",
      "alert": "OK",
      "vis_m": 9999,
      "fzfg": false,
      "metar_trigger": false,
      "taf_trigger": false,
      "metar": "METAR LRCL 211400Z 31007KT 280V340 9999 SCT041TCU BKN042 11/03 Q1012",
      "taf": "TAF LRCL 211100Z 2112/2121 31012KT 9999 BKN035"
    },
    {
      "icao": "LRCV",
      "alert": "OK",
      "vis_m": 9999,
      "fzfg": false,
      "metar_trigger": false,
      "taf_trigger": false,
      "metar": "METAR LRCV 211400Z 09011KT 9999 VCSH SCT041CB 14/09 Q1011",
      "taf": "TAF LRCV 211100Z 2112/2121 10006KT 9999 SCT040"
    },
    {
      "icao": "LRIA",
      "alert": "OK",
      "vis_m": 9999,
      "fzfg": false,
      "metar_trigger": false,
      "taf_trigger": false,
      "metar": "METAR LRIA 211400Z 35010KT 320V020 CAVOK 10/M01 Q1014",
      "taf": "TAF LRIA 211100Z 2112/2121 36010KT CAVOK"
    },
    {
      "icao": "LROP",
      "alert": "OK",
      "vis_m": 9999,
      "fzfg": false,
      "metar_trigger": false,
      "taf_trigger": false,
      "metar": "METAR LROP 211400Z 05009KT 020V090 9999 SCT028 OVC037 09/01 Q1015 NOSIG",
      "taf": "TAF LROP 211100Z 2112/2212 08012KT 9999 BKN025"
    },
    {
      "icao": "LRSB",
      "alert": "OK",
      "vis_m": 9999,
      "fzfg": false,
      "metar_trigger": false,
      "taf_trigger": false,
      "metar": "METAR LRSB 211400Z 02008KT 9999 FEW046TCU BKN060 12/03 Q1012",
      "taf": "TAF LRSB 211100Z 2112/2212 36014KT 9999 SCT040CB"
    },
    {
      "icao": "LRSM",
      "alert": "OK",
      "vis_m": 9999,
      "fzfg": false,
      "metar_trigger": false,
      "taf_trigger": false,
      "metar": "METAR LRSM 211400Z 06007KT 9999 -SHRA FEW030CB BKN042 10/05 Q1014",
      "taf": "TAF LRSM 211100Z 2112/2121 03009KT 9999 BKN030"
    },
    {
      "icao": "LRSV",
      "alert": "OK",
      "vis_m": 9999,
      "fzfg": false,
      "metar_trigger": false,
      "taf_trigger": false,
      "metar": "METAR LRSV 211400Z 33009KT 9999 BKN041 07/M00 Q1014",
      "taf": "TAF LRSV 211100Z 2112/2121 33008KT 9999 BKN045"
    },
    {
      "icao": "LRTM",
      "alert": "OK",
      "vis_m": 9999,
      "fzfg": false,
      "metar_trigger": false,
      "taf_trigger": false,
      "metar": "METAR LRTM 211400Z 23004KT 170V290 9999 VCSH FEW046 SCT048CB 12/04 Q1012",
      "taf": "TAF LRTM 211100Z 2112/2121 29010KT 9999 BKN020 SCT035CB"
    },
    {
      "icao": "LRTR",
      "alert": "OK",
      "vis_m": 9999,
      "fzfg": false,
      "metar_trigger": false,
      "taf_trigger": false,
      "metar": "METAR LRTR 211400Z 36011KT 320V030 9999 FEW050CB 15/04 Q1014",
      "taf": "TAF LRTR 211100Z 2112/2212 VRB04KT CAVOK"
    },
    {
      "icao": "LTAC",
      "alert": "OK",
      "vis_m": 9999,
      "fzfg": false,
      "metar_trigger": false,
      "taf_trigger": false,
      "metar": "METAR LTAC 211350Z 27010KT 9999 SCT040 BKN100 17/03 Q1011 NOSIG RMK RWY21C 28012KT 230V290 RWY03L 27008KT RWY21R 26010KT 220V280 RWY03R 24011KT 200V260 RWY21L 26010KT",
      "taf": "TAF LTAC 211040Z 2112/2212 27012KT 9999 SCT040 BKN100"
    },
    {
      "icao": "LTFM",
      "alert": "OK",
      "vis_m": 9999,
      "fzfg": false,
      "metar_trigger": false,
      "taf_trigger": false,
      "metar": "METAR LTFM 211350Z 05016KT 9999 FEW012 SCT022 BKN090 13/10 Q1012 NOSIG RMK RWY17L 06015KT RWY34L 04014KT RWY16R 06016KT RWY36 06016KT RWY18 06015KT",
      "taf": "TAF LTFM 211040Z 2112/2218 05015G25KT 9999 FEW040 BKN090"
    },
    {
      "icao": "LUKK",
      "alert": "OK",
      "vis_m": 9999,
      "fzfg": false,
      "metar_trigger": false,
      "taf_trigger": false,
      "metar": "METAR LUKK 211400Z 02009KT 340V060 CAVOK 11/M02 Q1013 NOSIG",
      "taf": "TAF LUKK 211105Z 2112/2212 01012KT CAVOK"
    },
    {
      "icao": "LWOH",
      "alert": "OK",
      "vis_m": 9999,
      "fzfg": false,
      "metar_trigger": false,
      "taf_trigger": false,
      "metar": "METAR LWOH 211420Z 12007KT 9999 FEW010 BKN040 12/10 Q1012",
      "taf": "TAF LWOH 211155Z 2112/2212 VRB02KT 9999 SCT030 BKN050"
    },
    {
      "icao": "LWSK",
      "alert": "OK",
      "vis_m": 9999,
      "fzfg": false,
      "metar_trigger": false,
      "taf_trigger": false,
      "metar": "METAR LWSK 211420Z 33006KT 300V360 9999 SCT025 OVC040 12/06 Q1014 NOSIG",
      "taf": "TAF LWSK 211155Z 2112/2212 36010KT 9999 SCT025 BKN045"
    },
    {
      "icao": "LYBE",
      "alert": "OK",
      "vis_m": 9999,
      "fzfg": false,
      "metar_trigger": false,
      "taf_trigger": false,
      "metar": "METAR LYBE 211400Z 12003KT 070V150 CAVOK 14/06 Q1014 NOSIG",
      "taf": "TAF LYBE 211100Z 2112/2212 30010KT 9999 BKN033 TX16/2113Z TN04/2204Z"
    },
    {
      "icao": "LYNI",
      "alert": "OK",
      "vis_m": 9999,
      "fzfg": false,
      "metar_trigger": false,
      "taf_trigger": false,
      "metar": "METAR LYNI 211400Z VRB02KT 9999 BKN037 BKN080 13/07 Q1014 NOSIG",
      "taf": "TAF LYNI 211100Z 2112/2212 30006KT 9999 SCT030 BKN080 TX15/2212Z TN07/2204Z"
    },
    {
      "icao": "LYPG",
      "alert": "OK",
      "vis_m": 9999,
      "fzfg": false,
      "metar_trigger": false,
      "taf_trigger": false,
      "metar": "METAR LYPG 211400Z 35004KT 320V020 9999 FEW010 SCT040 14/12 Q1011 NOSIG",
      "taf": "TAF LYPG 211100Z 2112/2212 16005KT 9999 FEW030 SCT040 BKN080 TX19/2212Z TN11/2204Z"
    },
    {
      "icao": "LZIB",
      "alert": "OK",
      "vis_m": 9999,
      "fzfg": false,
      "metar_trigger": false,
      "taf_trigger": false,
      "metar": "METAR LZIB 211400Z 33013KT 9999 FEW048 13/01 Q1016 NOSIG",
      "taf": ""
    },
    {
      "icao": "LZKZ",
      "alert": "OK",
      "vis_m": 9999,
      "fzfg": false,
      "metar_trigger": false,
      "taf_trigger": false,
      "metar": "METAR LZKZ 211400Z 02013KT 340V050 CAVOK 12/M03 Q1016 NOSIG",
      "taf": "TAF LZKZ 211115Z 2112/2212 02015KT 9999 FEW045"
    },
    {
      "icao": "LZTT",
      "alert": "OK",
      "vis_m": 9999,
      "fzfg": false,
      "metar_trigger": false,
      "taf_trigger": false,
      "metar": "METAR LZTT 211400Z 03015KT 9999 FEW040 BKN060 07/M05 Q1016 NOSIG",
      "taf": "TAF LZTT 211115Z 2112/2212 03010KT 9999 FEW040 SCT060"
    },
    {
      "icao": "OEJN",
      "alert": "OK",
      "vis_m": 9999,
      "fzfg": false,
      "metar_trigger": false,
      "taf_trigger": false,
      "metar": "METAR OEJN 211400Z 33019KT CAVOK 32/06 Q1006 NOSIG",
      "taf": "TAF OEJN 211100Z 2112/2218 34013KT 7000 NSC"
    },
    {
      "icao": "OEMA",
      "alert": "OK",
      "vis_m": 9999,
      "fzfg": false,
      "metar_trigger": false,
      "taf_trigger": false,
      "metar": "METAR OEMA 211400Z 32011KT CAVOK 34/M13 Q1009 NOSIG",
      "taf": "TAF OEMA 211100Z 2112/2218 31012KT CAVOK"
    },
    {
      "icao": "OJAI",
      "alert": "OK",
      "vis_m": 5000,
      "fzfg": false,
      "metar_trigger": false,
      "taf_trigger": false,
      "metar": "METAR OJAI 211400Z 28013KT 5000 HZ NSC 19/06 Q1015 NOSIG",
      "taf": "TAF OJAI 211100Z 2112/2218 30010KT 5000 HZ NSC"
    },
    {
      "icao": "OMAA",
      "alert": "OK",
      "vis_m": null,
      "fzfg": false,
      "metar_trigger": false,
      "taf_trigger": false,
      "metar": "",
      "taf": ""
    },
    {
      "icao": "OMDB",
      "alert": "OK",
      "vis_m": null,
      "fzfg": false,
      "metar_trigger": false,
      "taf_trigger": false,
      "metar": "",
      "taf": ""
    },
    {
      "icao": "UAAA",
      "alert": "OK",
      "vis_m": 9999,
      "fzfg": false,
      "metar_trigger": false,
      "taf_trigger": false,
      "metar": "METAR UAAA 211400Z VRB01MPS 9999 SCT050CB BKN100 18/06 Q1012 NOSIG",
      "taf": "TAF UAAA 211102Z 2112/2212 17003MPS 9999 SCT050CB BKN100 TX24/2209Z TN08/2201Z"
    },
    {
      "icao": "UBBB",
      "alert": "OK",
      "vis_m": 9999,
      "fzfg": false,
      "metar_trigger": false,
      "taf_trigger": false,
      "metar": "METAR UBBB 211400Z 35010KT CAVOK 11/07 Q1012 NOSIG",
      "taf": "TAF UBBB 211052Z 2112/2212 33005KT 9999 FEW040CB BKN040 TX10/2112Z TN07/2200Z"
    },
    {
      "icao": "UDSG",
      "alert": "OK",
      "vis_m": 9999,
      "fzfg": false,
      "metar_trigger": false,
      "taf_trigger": false,
      "metar": "METAR UDSG 211400Z 25010KT 9999 BKN040CB 08/04 Q1012 NOSIG",
      "taf": "TAF UDSG 211058Z 2112/2212 24006KT 9999 BKN040"
    },
    {
      "icao": "UDYZ",
      "alert": "OK",
      "vis_m": 9999,
      "fzfg": false,
      "metar_trigger": false,
      "taf_trigger": false,
      "metar": "METAR UDYZ 211400Z 31005KT 9999 VCTS -SHRA BKN040CB 12/08 Q1009 NOSIG",
      "taf": "TAF UDYZ 211100Z 2112/2212 04006KT 9999 BKN040"
    },
    {
      "icao": "UGKO",
      "alert": "OK",
      "vis_m": 9999,
      "fzfg": false,
      "metar_trigger": false,
      "taf_trigger": false,
      "metar": "METAR UGKO 211400Z 30003KT CAVOK 17/06 Q1012 NOSIG",
      "taf": "TAF UGKO 211100Z 2112/2212 25007KT CAVOK TX22/2211Z TN07/2203Z"
    }
  ]
}