{
  "ts_utc": "2025-12-23T21:45:53Z",
  "threshold_m": 150,
  "source": "stations_override.txt (ICAO list) + aviationweather.gov (METAR/TAF raw)",
  "station_count": 159,
  "stations": [
    {
      "icao": "BIKF",
      "alert": "OK",
      "vis_m": 8000,
      "fzfg": false,
      "metar_trigger": false,
      "taf_trigger": false,
      "metar": "METAR BIKF 232130Z 19031KT 8000 -RA OVC014 08/06 Q1010",
      "taf": "TAF BIKF 231938Z 2321/2421 18032G43KT 7000 -RADZ SCT010 BKN016 TX09/2418Z TN07/2321Z"
    },
    {
      "icao": "BKPR",
      "alert": "OK",
      "vis_m": 9999,
      "fzfg": false,
      "metar_trigger": false,
      "taf_trigger": false,
      "metar": "METAR BKPR 232130Z VRB02KT 9999 BKN004 02/02 Q1016 NOSIG",
      "taf": ""
    },
    {
      "icao": "EBCI",
      "alert": "OK",
      "vis_m": 9999,
      "fzfg": false,
      "metar_trigger": false,
      "taf_trigger": false,
      "metar": "METAR EBCI 232120Z 06014KT 9999 BKN022 04/M00 Q1020 NOSIG",
      "taf": "TAF EBCI 231700Z 2318/2424 06013KT 9999 BKN020"
    },
    {
      "icao": "EDDB",
      "alert": "OK",
      "vis_m": 9999,
      "fzfg": false,
      "metar_trigger": false,
      "taf_trigger": false,
      "metar": "METAR EDDB 232120Z AUTO 06011KT 9999 FEW042 02/M01 Q1029 NOSIG",
      "taf": "TAF EDDB 231700Z 2318/2418 06011KT 9999 BKN025"
    },
    {
      "icao": "EDDH",
      "alert": "OK",
      "vis_m": 9999,
      "fzfg": false,
      "metar_trigger": false,
      "taf_trigger": false,
      "metar": "METAR EDDH 232120Z AUTO 06006KT CAVOK 01/M00 Q1032 NOSIG",
      "taf": "TAF EDDH 231700Z 2318/2424 07009KT 9999 FEW025"
    },
    {
      "icao": "EDDK",
      "alert": "OK",
      "vis_m": 9999,
      "fzfg": false,
      "metar_trigger": false,
      "taf_trigger": false,
      "metar": "METAR EDDK 232120Z AUTO 07006KT 9999 BKN029 OVC034 05/M00 Q1023 NOSIG",
      "taf": "TAF EDDK 231700Z 2318/2424 08008KT 9999 OVC020"
    },
    {
      "icao": "EDDN",
      "alert": "OK",
      "vis_m": 9999,
      "fzfg": false,
      "metar_trigger": false,
      "taf_trigger": false,
      "metar": "METAR EDDN 232120Z AUTO 06007KT 020V100 9999 OVC018 04/00 Q1019",
      "taf": "TAF EDDN 231700Z 2318/2418 06007KT 9999 OVC020"
    },
    {
      "icao": "EDDS",
      "alert": "OK",
      "vis_m": 9999,
      "fzfg": false,
      "metar_trigger": false,
      "taf_trigger": false,
      "metar": "METAR EDDS 232120Z AUTO 06008KT 9999 OVC026 03/M01 Q1016",
      "taf": "TAF EDDS 231700Z 2318/2418 09008KT 9999 OVC015"
    },
    {
      "icao": "EDFH",
      "alert": "OK",
      "vis_m": 9999,
      "fzfg": false,
      "metar_trigger": false,
      "taf_trigger": false,
      "metar": "METAR EDFH 232120Z 08011KT 040V110 9999 SCT011 BKN014 02/M01 Q1019",
      "taf": "TAF EDFH 231700Z 2318/2418 07012KT 9999 OVC020"
    },
    {
      "icao": "EDJA",
      "alert": "OK",
      "vis_m": 9999,
      "fzfg": false,
      "metar_trigger": false,
      "taf_trigger": false,
      "metar": "METAR EDJA 232120Z 07009KT 040V100 9999 -SN BKN008 OVC010 M01/M01 Q1015",
      "taf": "TAF EDJA 231700Z 2318/2403 06012KT 5000 BR OVC003"
    },
    {
      "icao": "EDLW",
      "alert": "OK",
      "vis_m": 9999,
      "fzfg": false,
      "metar_trigger": false,
      "taf_trigger": false,
      "metar": "METAR EDLW 232120Z 03012KT 9999 BKN015 BKN017 OVC020 02/M01 Q1025",
      "taf": "TAF EDLW 231700Z 2318/2418 06011KT 9999 OVC020"
    },
    {
      "icao": "EDNY",
      "alert": "OK",
      "vis_m": 9999,
      "fzfg": false,
      "metar_trigger": false,
      "taf_trigger": false,
      "metar": "METAR EDNY 232120Z AUTO 05011KT 9999 // OVC013/// 01/M01 Q1015",
      "taf": "TAF EDNY 231700Z 2318/2403 05010KT 9999 OVC012"
    },
    {
      "icao": "EDSB",
      "alert": "OK",
      "vis_m": 9999,
      "fzfg": false,
      "metar_trigger": false,
      "taf_trigger": false,
      "metar": "METAR EDSB 232120Z 06013KT 9999 OVC029 05/M00 Q1017",
      "taf": "TAF EDSB 231700Z 2318/2418 04012KT 9999 OVC020"
    },
    {
      "icao": "EETN",
      "alert": "OK",
      "vis_m": 9999,
      "fzfg": false,
      "metar_trigger": false,
      "taf_trigger": false,
      "metar": "METAR EETN 232120Z 30003KT 9999 BKN024 M02/M07 Q1034 NOSIG",
      "taf": "TAF EETN 231730Z 2318/2418 25005KT 9999 BKN035"
    },
    {
      "icao": "EFTU",
      "alert": "OK",
      "vis_m": 9999,
      "fzfg": false,
      "metar_trigger": false,
      "taf_trigger": false,
      "metar": "METAR EFTU 232120Z AUTO 27005KT 9999 OVC019 M03/M05 Q1033",
      "taf": "TAF EFTU 232024Z 2321/2421 25007KT 9999 BKN020"
    },
    {
      "icao": "EGBB",
      "alert": "OK",
      "vis_m": 9999,
      "fzfg": false,
      "metar_trigger": false,
      "taf_trigger": false,
      "metar": "METAR EGBB 232120Z 06013KT 9999 OVC013 06/03 Q1027",
      "taf": ""
    },
    {
      "icao": "EGGP",
      "alert": "OK",
      "vis_m": 9999,
      "fzfg": false,
      "metar_trigger": false,
      "taf_trigger": false,
      "metar": "METAR EGGP 232120Z 09014KT 9999 OVC021 07/03 Q1028",
      "taf": "TAF EGGP 231655Z 2318/2418 08009KT 9999 BKN025"
    },
    {
      "icao": "EGGW",
      "alert": "OK",
      "vis_m": 9999,
      "fzfg": false,
      "metar_trigger": false,
      "taf_trigger": false,
      "metar": "METAR EGGW 232120Z AUTO 06014KT 9999 OVC012 04/03 Q1024",
      "taf": "TAF EGGW 231655Z 2318/2418 06013KT 9999 BKN016"
    },
    {
      "icao": "EGKK",
      "alert": "OK",
      "vis_m": 9999,
      "fzfg": false,
      "metar_trigger": false,
      "taf_trigger": false,
      "metar": "METAR EGKK 232120Z 05017KT 9999 BKN017 06/03 Q1023",
      "taf": "TAF EGKK 231654Z 2318/2424 05010KT 9999 BKN017"
    },
    {
      "icao": "EGNM",
      "alert": "OK",
      "vis_m": 9999,
      "fzfg": false,
      "metar_trigger": false,
      "taf_trigger": false,
      "metar": "METAR EGNM 232120Z 07010KT 9999 BKN020 05/03 Q1029",
      "taf": "TAF EGNM 231655Z 2318/2418 07008KT 9999 BKN025"
    },
    {
      "icao": "EGPD",
      "alert": "OK",
      "vis_m": 9999,
      "fzfg": false,
      "metar_trigger": false,
      "taf_trigger": false,
      "metar": "METAR EGPD 232120Z COR AUTO 18003KT 9999 OVC024 07/04 Q1033 NOSIG",
      "taf": "TAF EGPD 231655Z 2318/2418 16008KT 9999 SCT018 BKN025"
    },
    {
      "icao": "EGPF",
      "alert": "OK",
      "vis_m": 9999,
      "fzfg": false,
      "metar_trigger": false,
      "taf_trigger": false,
      "metar": "METAR EGPF 232120Z AUTO 06009KT 9999 OVC025 08/05 Q1032",
      "taf": "TAF EGPF 231702Z 2318/2418 06006KT 9999 FEW015 BKN025"
    },
    {
      "icao": "EHBK",
      "alert": "OK",
      "vis_m": 9999,
      "fzfg": false,
      "metar_trigger": false,
      "taf_trigger": false,
      "metar": "METAR EHBK 232125Z AUTO 07016KT 040V110 9999 OVC025/// 05/M00 Q1022",
      "taf": "TAF EHBK 231709Z 2318/2424 07012KT 9999 BKN020"
    },
    {
      "icao": "EHEH",
      "alert": "OK",
      "vis_m": 9999,
      "fzfg": false,
      "metar_trigger": false,
      "taf_trigger": false,
      "metar": "METAR EHEH 232125Z AUTO 06012KT 030V100 9999 FEW018 OVC028 04/00 Q1024 BLU",
      "taf": "TAF EHEH 231752Z 2318/2424 07012KT 9999 BKN025"
    },
    {
      "icao": "EKBI",
      "alert": "OK",
      "vis_m": 9999,
      "fzfg": false,
      "metar_trigger": false,
      "taf_trigger": false,
      "metar": "METAR EKBI 232120Z AUTO 08011KT 9999 BKN024/// 03/M01 Q1036",
      "taf": "TAF EKBI 232027Z 2321/2421 07013KT 9999 BKN020"
    },
    {
      "icao": "EKCH",
      "alert": "OK",
      "vis_m": 9999,
      "fzfg": false,
      "metar_trigger": false,
      "taf_trigger": false,
      "metar": "METAR EKCH 232120Z AUTO 06011KT 030V090 9999 FEW024/// 00/M05 Q1036 NOSIG",
      "taf": "TAF EKCH 232027Z 2321/2421 06013KT 9999 FEW020"
    },
    {
      "icao": "ENAL",
      "alert": "OK",
      "vis_m": 9999,
      "fzfg": false,
      "metar_trigger": false,
      "taf_trigger": false,
      "metar": "METAR ENAL 232120Z AUTO 16009KT 9999 FEW039/// 03/M02 Q1036",
      "taf": "TAF ENAL 232000Z 2321/2406 15009KT CAVOK"
    },
    {
      "icao": "ENBR",
      "alert": "OK",
      "vis_m": 9999,
      "fzfg": false,
      "metar_trigger": false,
      "taf_trigger": false,
      "metar": "METAR ENBR 232120Z 13003KT 9999 BKN032 03/00 Q1038 RMK WIND 1200FT 23010KT",
      "taf": "TAF ENBR 231700Z 2318/2418 VRB03KT 9999 SCT030"
    },
    {
      "icao": "ENGM",
      "alert": "OK",
      "vis_m": 9999,
      "fzfg": false,
      "metar_trigger": false,
      "taf_trigger": false,
      "metar": "METAR ENGM 232120Z 27003KT 230V310 9999 OVC011 M03/M05 Q1038 NOSIG",
      "taf": "TAF ENGM 231700Z 2318/2418 VRB03KT 9999 BKN012"
    },
    {
      "icao": "ENHD",
      "alert": "OK",
      "vis_m": 9999,
      "fzfg": false,
      "metar_trigger": false,
      "taf_trigger": false,
      "metar": "METAR ENHD 232120Z AUTO 17007KT 9999 FEW030/// 02/M02 Q1039",
      "taf": "TAF ENHD 231400Z 2315/2323 18008KT CAVOK"
    },
    {
      "icao": "ENTC",
      "alert": "OK",
      "vis_m": 9999,
      "fzfg": false,
      "metar_trigger": false,
      "taf_trigger": false,
      "metar": "METAR ENTC 232120Z 20015KT CAVOK 02/M01 Q1026 NOSIG RMK WIND 2600FT 20017KT",
      "taf": ""
    },
    {
      "icao": "ENTO",
      "alert": "OK",
      "vis_m": 9999,
      "fzfg": false,
      "metar_trigger": false,
      "taf_trigger": false,
      "metar": "METAR ENTO 232120Z 00000KT 9999 OVC016 M01/M03 Q1039 NOSIG",
      "taf": "TAF ENTO 231700Z 2318/2418 34005KT 9999 FEW012 BKN018"
    },
    {
      "icao": "ENVA",
      "alert": "OK",
      "vis_m": 9999,
      "fzfg": false,
      "metar_trigger": false,
      "taf_trigger": false,
      "metar": "METAR ENVA 232120Z 11006KT 9999 SCT026 BKN037 M04/M06 Q1037 RMK WIND 670FT 16006KT",
      "taf": "TAF ENVA 231700Z 2318/2418 10008KT CAVOK"
    },
    {
      "icao": "ENZV",
      "alert": "OK",
      "vis_m": 9999,
      "fzfg": false,
      "metar_trigger": false,
      "taf_trigger": false,
      "metar": "METAR ENZV 232120Z 13003KT CAVOK M02/M05 Q1039",
      "taf": "TAF ENZV 231700Z 2318/2418 16003KT CAVOK"
    },
    {
      "icao": "EPGD",
      "alert": "OK",
      "vis_m": 9999,
      "fzfg": false,
      "metar_trigger": false,
      "taf_trigger": false,
      "metar": "METAR EPGD 232130Z 07011KT 040V110 9999 BKN018 M03/M06 Q1033",
      "taf": "TAF EPGD 231730Z 2318/2418 07010KT 9999 BKN018"
    },
    {
      "icao": "EPKK",
      "alert": "OK",
      "vis_m": 9999,
      "fzfg": false,
      "metar_trigger": false,
      "taf_trigger": false,
      "metar": "METAR EPKK 232130Z 05010KT 9999 OVC042 00/M02 Q1023",
      "taf": "TAF EPKK 232030Z 2321/2421 06010KT 9999 BKN030"
    },
    {
      "icao": "EPKT",
      "alert": "OK",
      "vis_m": 9999,
      "fzfg": false,
      "metar_trigger": false,
      "taf_trigger": false,
      "metar": "METAR EPKT 232130Z 05009KT 9999 OVC036 M00/M03 Q1024",
      "taf": "TAF EPKT 231730Z 2318/2418 06010KT 9999 BKN020"
    },
    {
      "icao": "EPLB",
      "alert": "OK",
      "vis_m": 9999,
      "fzfg": false,
      "metar_trigger": false,
      "taf_trigger": false,
      "metar": "METAR EPLB 232130Z 06008KT 9999 FEW035 M01/M04 Q1027",
      "taf": ""
    },
    {
      "icao": "EPMO",
      "alert": "OK",
      "vis_m": 9999,
      "fzfg": false,
      "metar_trigger": false,
      "taf_trigger": false,
      "metar": "METAR EPMO 232130Z 04013KT 9999 BKN016 M02/M05 Q1030",
      "taf": "TAF EPMO 231730Z 2318/2418 06010KT 9999 BKN033"
    },
    {
      "icao": "EPPO",
      "alert": "OK",
      "vis_m": 9999,
      "fzfg": false,
      "metar_trigger": false,
      "taf_trigger": false,
      "metar": "METAR EPPO 232130Z 06009KT 9999 FEW018 BKN042 01/M02 Q1029",
      "taf": "TAF EPPO 231730Z 2318/2418 07008KT CAVOK"
    },
    {
      "icao": "EPRA",
      "alert": "OK",
      "vis_m": 9999,
      "fzfg": false,
      "metar_trigger": false,
      "taf_trigger": false,
      "metar": "METAR EPRA 232130Z 06009KT 9999 SCT025 M00/M04 Q1027",
      "taf": "TAF EPRA 232030Z 2321/2406 06010KT 9999 BKN025"
    },
    {
      "icao": "EPRZ",
      "alert": "OK",
      "vis_m": 9999,
      "fzfg": false,
      "metar_trigger": false,
      "taf_trigger": false,
      "metar": "METAR EPRZ 232130Z 05006KT 9999 OVC044 00/M02 Q1024",
      "taf": "TAF EPRZ 231730Z 2318/2418 06010KT 9999 BKN030"
    },
    {
      "icao": "EPSC",
      "alert": "OK",
      "vis_m": 9999,
      "fzfg": false,
      "metar_trigger": false,
      "taf_trigger": false,
      "metar": "METAR EPSC 232130Z 03004KT 350V060 9999 BKN044 M00/M01 Q1032",
      "taf": "TAF EPSC 231730Z 2318/2418 04007KT CAVOK"
    },
    {
      "icao": "EPSY",
      "alert": "OK",
      "vis_m": 9999,
      "fzfg": false,
      "metar_trigger": false,
      "taf_trigger": false,
      "metar": "METAR EPSY 232130Z 05010KT 9999 FEW020 M05/M08 Q1031",
      "taf": "TAF EPSY 232030Z 2321/2406 07008KT CAVOK"
    },
    {
      "icao": "EPWA",
      "alert": "OK",
      "vis_m": 9999,
      "fzfg": false,
      "metar_trigger": false,
      "taf_trigger": false,
      "metar": "METAR EPWA 232130Z 03010KT 9999 FEW020 M02/M04 Q1029 NOSIG",
      "taf": "TAF EPWA 232030Z 2321/2421 05008KT 9999 BKN022"
    },
    {
      "icao": "EPWR",
      "alert": "OK",
      "vis_m": 9999,
      "fzfg": false,
      "metar_trigger": false,
      "taf_trigger": false,
      "metar": "METAR EPWR 232130Z 04007KT 020V080 CAVOK 02/M01 Q1026",
      "taf": "TAF EPWR 232030Z 2321/2421 05005KT 9999 OVC040"
    },
    {
      "icao": "ESGG",
      "alert": "OK",
      "vis_m": 9999,
      "fzfg": false,
      "metar_trigger": false,
      "taf_trigger": false,
      "metar": "METAR ESGG 232120Z 06004KT 030V090 9999 OVC007 M01/M03 Q1038",
      "taf": "TAF ESGG 232030Z 2321/2421 06006KT 9999 SCT007"
    },
    {
      "icao": "ESKN",
      "alert": "OK",
      "vis_m": 9999,
      "fzfg": false,
      "metar_trigger": false,
      "taf_trigger": false,
      "metar": "METAR ESKN 232120Z 27003KT CAVOK M08/M09 Q1037",
      "taf": "TAF ESKN 232030Z 2321/2421 27003KT 9999 FEW025"
    },
    {
      "icao": "ESMS",
      "alert": "OK",
      "vis_m": 9999,
      "fzfg": false,
      "metar_trigger": false,
      "taf_trigger": false,
      "metar": "METAR ESMS 232120Z 07010KT 9999 OVC027 M00/M05 Q1035",
      "taf": "TAF ESMS 232027Z 2321/2421 07013KT 9999 SCT020"
    },
    {
      "icao": "ESSA",
      "alert": "OK",
      "vis_m": 9999,
      "fzfg": false,
      "metar_trigger": false,
      "taf_trigger": false,
      "metar": "METAR ESSA 232120Z 23003KT 9999 OVC022 M04/M05 Q1036 NOSIG",
      "taf": "TAF ESSA 232030Z 2321/2421 25003KT 9999 SCT020"
    },
    {
      "icao": "EYKA",
      "alert": "OK",
      "vis_m": 9999,
      "fzfg": false,
      "metar_trigger": false,
      "taf_trigger": false,
      "metar": "METAR EYKA 232120Z 01005KT 340V050 CAVOK M07/M10 Q1034",
      "taf": ""
    },
    {
      "icao": "EYPA",
      "alert": "OK",
      "vis_m": 9999,
      "fzfg": false,
      "metar_trigger": false,
      "taf_trigger": false,
      "metar": "METAR EYPA 232120Z AUTO 03004KT 9999 NCD M09/M10 Q1037",
      "taf": "TAF EYPA 231708Z 2318/2418 06005KT 9000 NSC"
    },
    {
      "icao": "EYVI",
      "alert": "OK",
      "vis_m": 9999,
      "fzfg": false,
      "metar_trigger": false,
      "taf_trigger": false,
      "metar": "METAR EYVI 232120Z 05009KT 9999 -SN OVC020 M07/M11 Q1032 NOSIG",
      "taf": "TAF EYVI 231711Z 2318/2418 04007KT 7000 BKN017"
    },
    {
      "icao": "GCFV",
      "alert": "OK",
      "vis_m": 9999,
      "fzfg": false,
      "metar_trigger": false,
      "taf_trigger": false,
      "metar": "METAR GCFV 232130Z 32008KT 9999 FEW045 17/12 Q1019",
      "taf": "TAF GCFV 232000Z 2321/2421 32005KT 9999 SCT035 TX21/2414Z TN15/2406Z"
    },
    {
      "icao": "GCLP",
      "alert": "OK",
      "vis_m": 9999,
      "fzfg": false,
      "metar_trigger": false,
      "taf_trigger": false,
      "metar": "METAR GCLP 232130Z 35010KT 320V020 9999 FEW035 18/11 Q1020 NOSIG",
      "taf": "TAF GCLP 232000Z 2321/2421 36012KT 9999 SCT035 TX22/2414Z TN15/2406Z"
    },
    {
      "icao": "GCTS",
      "alert": "OK",
      "vis_m": 9999,
      "fzfg": false,
      "metar_trigger": false,
      "taf_trigger": false,
      "metar": "METAR GCTS 232130Z 21011KT 180V240 9999 FEW040 19/12 Q1020 NOSIG",
      "taf": "TAF GCTS 232000Z 2321/2421 VRB05KT 9999 SCT035 TX24/2414Z TN15/2406Z"
    },
    {
      "icao": "GMAD",
      "alert": "OK",
      "vis_m": 9999,
      "fzfg": false,
      "metar_trigger": false,
      "taf_trigger": false,
      "metar": "METAR GMAD 232130Z 17004KT CAVOK 12/09 Q1016 NOSIG",
      "taf": "TAF GMAD 231700Z 2318/2424 24008KT CAVOK"
    },
    {
      "icao": "GMMN",
      "alert": "OK",
      "vis_m": 8000,
      "fzfg": false,
      "metar_trigger": false,
      "taf_trigger": false,
      "metar": "METAR GMMN 232130Z 22016KT 8000 RA SCT005 BKN020 13/11 Q1013 NOSIG",
      "taf": "TAF GMMN 231700Z 2318/2424 24013KT 9999 BKN030 SCT120"
    },
    {
      "icao": "GMMX",
      "alert": "OK",
      "vis_m": 9999,
      "fzfg": false,
      "metar_trigger": false,
      "taf_trigger": false,
      "metar": "METAR GMMX 232130Z 22007KT 9999 FEW020 11/08 Q1016 NOSIG",
      "taf": "TAF GMMX 231700Z 2318/2424 32006KT 8000 NSC"
    },
    {
      "icao": "HEGN",
      "alert": "OK",
      "vis_m": 9999,
      "fzfg": false,
      "metar_trigger": false,
      "taf_trigger": false,
      "metar": "METAR HEGN 232100Z 29008KT CAVOK 17/04 Q1017 NOSIG",
      "taf": "TAF HEGN 231700Z 2318/2424 31012KT CAVOK"
    },
    {
      "icao": "HEMA",
      "alert": "OK",
      "vis_m": 9999,
      "fzfg": false,
      "metar_trigger": false,
      "taf_trigger": false,
      "metar": "METAR HEMA 232100Z 29009KT 9999 SCT025 BKN200 19/08 Q1016 NOSIG",
      "taf": "TAF HEMA 231700Z 2318/2424 30012KT 9999 SCT25"
    },
    {
      "icao": "HESH",
      "alert": "OK",
      "vis_m": 9999,
      "fzfg": false,
      "metar_trigger": false,
      "taf_trigger": false,
      "metar": "METAR HESH 232100Z 33008KT CAVOK 20/07 Q1017 NOSIG",
      "taf": "TAF HESH 231700Z 2318/2424 33010KT CAVOK"
    },
    {
      "icao": "HESX",
      "alert": "OK",
      "vis_m": 9999,
      "fzfg": false,
      "metar_trigger": false,
      "taf_trigger": false,
      "metar": "METAR HESX 232100Z 19003KT CAVOK 12/02 Q1019 NOSIG",
      "taf": "TAF HESX 231700Z 2318/2424 25007KT CAVOK"
    },
    {
      "icao": "LATI",
      "alert": "OK",
      "vis_m": 2400,
      "fzfg": false,
      "metar_trigger": false,
      "taf_trigger": false,
      "metar": "METAR LATI 232120Z VRB02KT 2400 -RA BR OVC060 10/08 Q1013 NOSIG",
      "taf": "TAF LATI 231700Z 2318/2418 VRB05KT 9999 FEW025 OVC060 TX11/2412Z TN06/2405Z"
    },
    {
      "icao": "LBPD",
      "alert": "OK",
      "vis_m": 9999,
      "fzfg": false,
      "metar_trigger": false,
      "taf_trigger": false,
      "metar": "METAR LBPD 232130Z AUTO 07002KT 9999 OVC022/// 05/05 Q1020",
      "taf": "TAF LBPD 231700Z 2318/2418 VRB04KT 8000 SCT012 BKN020"
    },
    {
      "icao": "LBSF",
      "alert": "OK",
      "vis_m": 9999,
      "fzfg": false,
      "metar_trigger": false,
      "taf_trigger": false,
      "metar": "METAR LBSF 232130Z AUTO 10010KT 9999 SCT011/// BKN014/// 03/02 Q1017 NOSIG",
      "taf": "TAF LBSF 231700Z 2318/2418 10010KT 9999 SCT020 BKN060"
    },
    {
      "icao": "LBWN",
      "alert": "OK",
      "vis_m": 4300,
      "fzfg": false,
      "metar_trigger": false,
      "taf_trigger": false,
      "metar": "METAR LBWN 232130Z AUTO 28002KT 4300 BR SCT001/// OVC003/// 04/04 Q1020 TEMPO 1500 BR BKN002",
      "taf": "TAF LBWN 231700Z 2318/2418 VRB04KT 5000 BR OVC010"
    },
    {
      "icao": "LCLK",
      "alert": "OK",
      "vis_m": 9999,
      "fzfg": false,
      "metar_trigger": false,
      "taf_trigger": false,
      "metar": "METAR LCLK 232130Z 02009KT 350V050 9999 -SHRA SCT025 SCT045 15/14 Q1018 NOSIG",
      "taf": "TAF LCLK 231730Z 2318/2418 35009KT 9999 FEW025CB SCT040"
    },
    {
      "icao": "LCPH",
      "alert": "OK",
      "vis_m": 9999,
      "fzfg": false,
      "metar_trigger": false,
      "taf_trigger": false,
      "metar": "METAR LCPH 232130Z 05005KT 010V080 9999 FEW040 13/11 Q1017 NOSIG",
      "taf": "TAF LCPH 231730Z 2318/2418 04008KT 9999 FEW025"
    },
    {
      "icao": "LEAL",
      "alert": "OK",
      "vis_m": 9999,
      "fzfg": false,
      "metar_trigger": false,
      "taf_trigger": false,
      "metar": "METAR LEAL 232130Z 28003KT 230V010 CAVOK 11/04 Q1007 NOSIG",
      "taf": ""
    },
    {
      "icao": "LEBB",
      "alert": "OK",
      "vis_m": 9000,
      "fzfg": false,
      "metar_trigger": false,
      "taf_trigger": false,
      "metar": "METAR LEBB 232130Z 00000KT 9000 FEW034 BKN063 08/08 Q1011 NOSIG",
      "taf": "TAF LEBB 231700Z 2318/2418 VRB03KT 9999 SCT020 TX10/2413Z TN07/2322Z"
    },
    {
      "icao": "LEBL",
      "alert": "OK",
      "vis_m": 9999,
      "fzfg": false,
      "metar_trigger": false,
      "taf_trigger": false,
      "metar": "METAR LEBL 232130Z 05015KT 020V080 9999 FEW029 SCT033 11/07 Q1006 NOSIG",
      "taf": "TAF LEBL 231700Z 2318/2418 34012KT 9999 SCT030 TX14/2413Z TN08/2406Z"
    },
    {
      "icao": "LECH",
      "alert": "OK",
      "vis_m": 9999,
      "fzfg": false,
      "metar_trigger": false,
      "taf_trigger": false,
      "metar": "METAR LECH 232130Z AUTO 04004KT 340V080 9999 FEW050 09/04 Q1006",
      "taf": ""
    },
    {
      "icao": "LEMD",
      "alert": "OK",
      "vis_m": 8000,
      "fzfg": false,
      "metar_trigger": false,
      "taf_trigger": false,
      "metar": "METAR LEMD 232130Z VRB01KT 8000 NSC 01/01 Q1009 NOSIG",
      "taf": "TAF LEMD 231700Z 2318/2424 VRB03KT 9999 SCT025 TX11/2415Z TNM00/2403Z"
    },
    {
      "icao": "LEMG",
      "alert": "OK",
      "vis_m": 9999,
      "fzfg": false,
      "metar_trigger": false,
      "taf_trigger": false,
      "metar": "METAR LEMG 232130Z 30006KT 9999 FEW025 09/08 Q1008 NOSIG",
      "taf": "TAF LEMG 231700Z 2318/2418 32006KT 9999 SCT050 TX14/2414Z TN07/2406Z"
    },
    {
      "icao": "LEVC",
      "alert": "OK",
      "vis_m": 9999,
      "fzfg": false,
      "metar_trigger": false,
      "taf_trigger": false,
      "metar": "METAR LEVC 232130Z 26005KT CAVOK 07/02 Q1006 NOSIG",
      "taf": "TAF LEVC 231700Z 2318/2418 27010KT 9999 FEW020 TX13/2412Z TN05/2406Z"
    },
    {
      "icao": "LEXJ",
      "alert": "OK",
      "vis_m": 9999,
      "fzfg": false,
      "metar_trigger": false,
      "taf_trigger": false,
      "metar": "METAR LEXJ 232130Z 22004KT 9999 SCT009 BKN015 09/08 Q1012",
      "taf": "TAF LEXJ 232000Z 2321/2421 22009KT 9999 SCT020 TX11/2415Z TN08/2323Z"
    },
    {
      "icao": "LEZG",
      "alert": "OK",
      "vis_m": 9999,
      "fzfg": false,
      "metar_trigger": false,
      "taf_trigger": false,
      "metar": "METAR LEZG 232130Z 27012KT 9999 FEW085 09/04 Q1007 NOSIG",
      "taf": "TAF LEZG 231700Z 2318/2418 30012KT 9999 FEW030 TX11/2414Z TN03/2406Z"
    },
    {
      "icao": "LEZL",
      "alert": "OK",
      "vis_m": 900,
      "fzfg": false,
      "metar_trigger": false,
      "taf_trigger": false,
      "metar": "SPECI LEZL 232137Z 03006KT 0900 0400E R27/1100U R09/1100U FG RA VV002 11/11 Q1008 NOSIG",
      "taf": "TAF LEZL 232000Z 2321/2421 VRB03KT 9999 FEW040 TX14/2415Z TN08/2407Z"
    },
    {
      "icao": "LFBD",
      "alert": "OK",
      "vis_m": 9999,
      "fzfg": false,
      "metar_trigger": false,
      "taf_trigger": false,
      "metar": "METAR LFBD 232130Z AUTO 04007KT CAVOK 06/05 Q1011 TEMPO 1500 BKN005",
      "taf": "TAF LFBD 231700Z 2318/2424 02005KT CAVOK TX07/2318Z TNM00/2500Z"
    },
    {
      "icao": "LFLL",
      "alert": "OK",
      "vis_m": 8000,
      "fzfg": false,
      "metar_trigger": false,
      "taf_trigger": false,
      "metar": "METAR LFLL 232130Z 35008KT 8000 BKN008 OVC016 03/02 Q1012 NOSIG",
      "taf": ""
    },
    {
      "icao": "LFLS",
      "alert": "OK",
      "vis_m": 9999,
      "fzfg": false,
      "metar_trigger": false,
      "taf_trigger": false,
      "metar": "METAR LFLS 232130Z AUTO 01005KT 340V050 9999 FEW008 OVC021 04/02 Q1011",
      "taf": ""
    },
    {
      "icao": "LFMN",
      "alert": "OK",
      "vis_m": 9999,
      "fzfg": false,
      "metar_trigger": false,
      "taf_trigger": false,
      "metar": "METAR LFMN 232130Z 33004KT 9999 BKN063 11/10 Q1007",
      "taf": "TAF LFMN 232000Z 2321/2503 33012KT 9999 BKN050"
    },
    {
      "icao": "LFOB",
      "alert": "OK",
      "vis_m": 9999,
      "fzfg": false,
      "metar_trigger": false,
      "taf_trigger": false,
      "metar": "METAR LFOB 232130Z AUTO 06011KT 9999 OVC019 04/01 Q1019 NOSIG",
      "taf": "TAF LFOB 231700Z 2318/2418 05010G20KT 9999 OVC011"
    },
    {
      "icao": "LFPO",
      "alert": "OK",
      "vis_m": 9999,
      "fzfg": false,
      "metar_trigger": false,
      "taf_trigger": false,
      "metar": "METAR LFPO 232130Z AUTO 07012KT 9999 OVC021 05/01 Q1018",
      "taf": "TAF LFPO 231700Z 2318/2424 04010KT 9999 BKN018"
    },
    {
      "icao": "LFSB",
      "alert": "OK",
      "vis_m": 9999,
      "fzfg": false,
      "metar_trigger": false,
      "taf_trigger": false,
      "metar": "METAR LFSB 232130Z AUTO 35003KT 320V030 9999 OVC022 02/00 Q1016 TEMPO OVC004",
      "taf": "TAF LFSB 231700Z 2318/2418 36005KT 9999 FEW008 OVC015"
    },
    {
      "icao": "LGAV",
      "alert": "OK",
      "vis_m": 9999,
      "fzfg": false,
      "metar_trigger": false,
      "taf_trigger": false,
      "metar": "METAR LGAV 232120Z VRB01KT 9999 FEW020 07/06 Q1018 NOSIG",
      "taf": "TAF LGAV 231700Z 2318/2418 05010KT 9999 FEW020 SCT030"
    },
    {
      "icao": "LGTS",
      "alert": "OK",
      "vis_m": 8000,
      "fzfg": false,
      "metar_trigger": false,
      "taf_trigger": false,
      "metar": "METAR LGTS 232120Z VRB02KT 8000 4000SE BR SCT006 BKN020 OVC035 11/11 Q1018 NOSIG",
      "taf": "TAF LGTS 231700Z 2318/2418 VRB03KT 9000 FEW012 BKN025"
    },
    {
      "icao": "LHBP",
      "alert": "OK",
      "vis_m": 9999,
      "fzfg": false,
      "metar_trigger": false,
      "taf_trigger": false,
      "metar": "METAR LHBP 232130Z 06003KT 9999 -RA FEW013 BKN045 04/02 Q1018 NOSIG",
      "taf": "TAF LHBP 231715Z 2318/2418 06005KT 9999 SCT008 OVC030"
    },
    {
      "icao": "LHDC",
      "alert": "OK",
      "vis_m": 9999,
      "fzfg": false,
      "metar_trigger": false,
      "taf_trigger": false,
      "metar": "METAR LHDC 232115Z AUTO 05010KT CAVOK 04/03 Q1018",
      "taf": "TAF LHDC 231415Z 2315/2324 05007KT 9999 FEW015 BKN050"
    },
    {
      "icao": "LIBD",
      "alert": "OK",
      "vis_m": 9999,
      "fzfg": false,
      "metar_trigger": false,
      "taf_trigger": false,
      "metar": "METAR LIBD 232120Z 13007KT 9999 FEW020 13/11 Q1007",
      "taf": "TAF LIBD 231700Z 2318/2418 14012KT 9999 BKN040"
    },
    {
      "icao": "LIBG",
      "alert": "OK",
      "vis_m": null,
      "fzfg": false,
      "metar_trigger": false,
      "taf_trigger": false,
      "metar": "",
      "taf": "TAF LIBG 231700Z 2318/2403 14013KT 9999 BKN010"
    },
    {
      "icao": "LIBP",
      "alert": "OK",
      "vis_m": 3500,
      "fzfg": false,
      "metar_trigger": false,
      "taf_trigger": false,
      "metar": "METAR LIBP 232120Z AUTO 22006KT 190V270 3500 -RA BR OVC008/// 11/11 Q1006",
      "taf": "TAF LIBP 231700Z 2318/2418 VRB05KT 9999 BKN020"
    },
    {
      "icao": "LIBR",
      "alert": "OK",
      "vis_m": 7000,
      "fzfg": false,
      "metar_trigger": false,
      "taf_trigger": false,
      "metar": "METAR LIBR 232120Z 24008KT 140V270 7000 RA BKN007 13/11 Q1010",
      "taf": "TAF LIBR 231700Z 2318/2418 15013KT 9999 BKN040"
    },
    {
      "icao": "LICA",
      "alert": "OK",
      "vis_m": 9999,
      "fzfg": false,
      "metar_trigger": false,
      "taf_trigger": false,
      "metar": "METAR LICA 232120Z AUTO 23006KT 170V250 9999 SCT039/// BKN052/// 12/08 Q1009",
      "taf": "TAF LICA 231700Z 2318/2418 07015KT 9999 SCT040"
    },
    {
      "icao": "LICC",
      "alert": "OK",
      "vis_m": 9999,
      "fzfg": false,
      "metar_trigger": false,
      "taf_trigger": false,
      "metar": "METAR LICC 232120Z 27008KT CAVOK 09/08 Q1010",
      "taf": "TAF LICC 231700Z 2318/2418 25012KT 9999 SCT030"
    },
    {
      "icao": "LICJ",
      "alert": "OK",
      "vis_m": 9999,
      "fzfg": false,
      "metar_trigger": false,
      "taf_trigger": false,
      "metar": "METAR LICJ 232120Z 19016KT 160V220 9999 FEW030 12/06 Q1008",
      "taf": "TAF LICJ 231700Z 2318/2418 21018G28KT 9999 SCT040"
    },
    {
      "icao": "LIMC",
      "alert": "OK",
      "vis_m": 8000,
      "fzfg": false,
      "metar_trigger": false,
      "taf_trigger": false,
      "metar": "METAR LIMC 232120Z VRB01KT 8000 BKN040 09/07 Q1010 NOSIG",
      "taf": "TAF LIMC 231700Z 2318/2424 VRB05KT 6000 BKN040"
    },
    {
      "icao": "LIME",
      "alert": "OK",
      "vis_m": 9999,
      "fzfg": false,
      "metar_trigger": false,
      "taf_trigger": false,
      "metar": "METAR LIME 232120Z 34004KT 9999 BKN045 09/07 Q1010 NOSIG",
      "taf": "TAF LIME 231700Z 2318/2418 VRB05KT 8000 BKN040"
    },
    {
      "icao": "LIMF",
      "alert": "OK",
      "vis_m": 9999,
      "fzfg": false,
      "metar_trigger": false,
      "taf_trigger": false,
      "metar": "METAR LIMF 232120Z VRB01KT 9999 OVC050 07/06 Q1010",
      "taf": "TAF LIMF 231700Z 2318/2418 VRB05KT 3000 BR SCT020 BKN030"
    },
    {
      "icao": "LIMJ",
      "alert": "OK",
      "vis_m": 9999,
      "fzfg": false,
      "metar_trigger": false,
      "taf_trigger": false,
      "metar": "METAR LIMJ 232120Z 04016KT 9999 FEW080 11/06 Q1007",
      "taf": "TAF LIMJ 231700Z 2318/2418 03018KT 9999 BKN040"
    },
    {
      "icao": "LIPE",
      "alert": "OK",
      "vis_m": 2500,
      "fzfg": false,
      "metar_trigger": false,
      "taf_trigger": false,
      "metar": "METAR LIPE 232120Z 27008KT 2500 -RA BR BKN003 BKN005 08/08 Q1009 RERA",
      "taf": "TAF LIPE 231700Z 2318/2418 VRB05KT 2000 BR BKN001"
    },
    {
      "icao": "LIPH",
      "alert": "OK",
      "vis_m": 9999,
      "fzfg": false,
      "metar_trigger": false,
      "taf_trigger": false,
      "metar": "METAR LIPH 232120Z 03005KT 9999 BKN030 10/07 Q1010",
      "taf": "TAF LIPH 231700Z 2318/2418 05010KT 9999 SCT050"
    },
    {
      "icao": "LIPQ",
      "alert": "OK",
      "vis_m": 9999,
      "fzfg": false,
      "metar_trigger": false,
      "taf_trigger": false,
      "metar": "METAR LIPQ 232120Z AUTO VRB02KT 9999 FEW048/// OVC071/// 09/05 Q1011",
      "taf": "TAF LIPQ 231700Z 2318/2418 06010KT 9999 BKN050"
    },
    {
      "icao": "LIPR",
      "alert": "OK",
      "vis_m": 4000,
      "fzfg": false,
      "metar_trigger": false,
      "taf_trigger": false,
      "metar": "METAR LIPR 232120Z 30010KT 4000 -RA BR BKN003 BKN010 09/09 Q1007",
      "taf": "TAF LIPR 231700Z 2318/2418 VRB05KT 4000 BR BKN016"
    },
    {
      "icao": "LIPX",
      "alert": "OK",
      "vis_m": 9999,
      "fzfg": false,
      "metar_trigger": false,
      "taf_trigger": false,
      "metar": "METAR LIPX 232120Z 32004KT 9999 SCT050 07/03 Q1010",
      "taf": "TAF LIPX 231700Z 2318/2418 VRB05KT 8000 BKN040"
    },
    {
      "icao": "LIPY",
      "alert": "OK",
      "vis_m": 2600,
      "fzfg": false,
      "metar_trigger": false,
      "taf_trigger": false,
      "metar": "METAR LIPY 232120Z AUTO 33008KT 2600 -RA BR BKN002/// BKN071/// 11/11 Q1006",
      "taf": ""
    },
    {
      "icao": "LIPZ",
      "alert": "OK",
      "vis_m": 9999,
      "fzfg": false,
      "metar_trigger": false,
      "taf_trigger": false,
      "metar": "METAR LIPZ 232120Z 05009KT 9999 BKN025 10/07 Q1010 NOSIG",
      "taf": "TAF LIPZ 231700Z 2318/2424 03008KT 9999 SCT050"
    },
    {
      "icao": "LIRF",
      "alert": "OK",
      "vis_m": 8000,
      "fzfg": false,
      "metar_trigger": false,
      "taf_trigger": false,
      "metar": "METAR LIRF 232120Z 10006KT 070V130 8000 -RA FEW025 11/10 Q1005 RERA NOSIG",
      "taf": "TAF LIRF 231700Z 2318/2424 07010KT 9999 BKN030"
    },
    {
      "icao": "LIRN",
      "alert": "OK",
      "vis_m": 5000,
      "fzfg": false,
      "metar_trigger": false,
      "taf_trigger": false,
      "metar": "METAR LIRN 232120Z 15005KT 090V210 5000 -RA SCT040 11/09 Q1006 NOSIG",
      "taf": "TAF LIRN 231700Z 2318/2418 05005KT 9999 SCT040"
    },
    {
      "icao": "LIRP",
      "alert": "OK",
      "vis_m": 9999,
      "fzfg": false,
      "metar_trigger": false,
      "taf_trigger": false,
      "metar": "METAR LIRP 232115Z 31005KT 9999 FEW030 SCT080 10/10 Q1006 NOSIG",
      "taf": "TAF LIRP 231700Z 2318/2418 VRB03KT 9999 FEW020 SCT040 BKN060"
    },
    {
      "icao": "LIRZ",
      "alert": "OK",
      "vis_m": 9999,
      "fzfg": false,
      "metar_trigger": false,
      "taf_trigger": false,
      "metar": "METAR LIRZ 232120Z AUTO 01011KT 340V040 9999 BKN067/// 12/09 Q1004",
      "taf": "TAF LIRZ 231700Z 2318/2418 VRB05KT 9999 BKN050"
    },
    {
      "icao": "LJLJ",
      "alert": "OK",
      "vis_m": 4000,
      "fzfg": false,
      "metar_trigger": false,
      "taf_trigger": false,
      "metar": "METAR LJLJ 232130Z VRB01KT 4000 -RA BR SCT003 OVC012 03/02 Q1015 NOSIG",
      "taf": "TAF LJLJ 231700Z 2318/2418 VRB02KT 7000 BKN010 OVC015"
    },
    {
      "icao": "LKMT",
      "alert": "OK",
      "vis_m": 9999,
      "fzfg": false,
      "metar_trigger": false,
      "taf_trigger": false,
      "metar": "METAR LKMT 232130Z 03014KT 9999 OVC019 01/M02 Q1022 NOSIG",
      "taf": "TAF LKMT 231700Z 2318/2418 03008KT 6000 OVC020"
    },
    {
      "icao": "LKPR",
      "alert": "OK",
      "vis_m": 9999,
      "fzfg": false,
      "metar_trigger": false,
      "taf_trigger": false,
      "metar": "METAR LKPR 232130Z 06011KT 9999 FEW016 BKN025 OVC035 00/M02 Q1022 NOSIG",
      "taf": "TAF LKPR 232000Z 2321/2503 04010KT 9999 BKN015 OVC022"
    },
    {
      "icao": "LLBG",
      "alert": "OK",
      "vis_m": 9999,
      "fzfg": false,
      "metar_trigger": false,
      "taf_trigger": false,
      "metar": "METAR LLBG 232120Z 15006KT 9999 SCT035 16/12 Q1018 TEMPO 8000 RA FEW030TCU BKN035",
      "taf": "TAF LLBG 231708Z 2318/2418 16007KT 9999 SCT035"
    },
    {
      "icao": "LMML",
      "alert": "OK",
      "vis_m": 9999,
      "fzfg": false,
      "metar_trigger": false,
      "taf_trigger": false,
      "metar": "METAR LMML 232115Z 23008KT 9999 FEW035 13/07 Q1012 NOSIG",
      "taf": "TAF LMML 231700Z 2318/2418 24017KT 9999 FEW025"
    },
    {
      "icao": "LOWW",
      "alert": "OK",
      "vis_m": 6000,
      "fzfg": false,
      "metar_trigger": false,
      "taf_trigger": false,
      "metar": "METAR LOWW 232120Z 04006KT 6000 -RADZ FEW002 BKN003 03/02 Q1019 REDZ TEMPO 4500 RADZ",
      "taf": "TAF LOWW 232015Z 2321/2503 02006KT 7000 -DZ BKN007 OVC025 TX03/2321Z TNM02/2501Z"
    },
    {
      "icao": "LPFR",
      "alert": "OK",
      "vis_m": 9999,
      "fzfg": false,
      "metar_trigger": false,
      "taf_trigger": false,
      "metar": "METAR LPFR 232130Z 29006KT 9999 FEW018 FEW020TCU SCT045 13/10 Q1009",
      "taf": "TAF LPFR 231700Z 2318/2418 27012KT 9999 FEW020"
    },
    {
      "icao": "LPMA",
      "alert": "OK",
      "vis_m": 9999,
      "fzfg": false,
      "metar_trigger": false,
      "taf_trigger": false,
      "metar": "METAR LPMA 232130Z 28006KT 190V310 9999 FEW015 17/11 Q1019",
      "taf": "TAF LPMA 231700Z 2318/2418 VRB05KT 9999 SCT015"
    },
    {
      "icao": "LPPR",
      "alert": "OK",
      "vis_m": 9999,
      "fzfg": false,
      "metar_trigger": false,
      "taf_trigger": false,
      "metar": "METAR LPPR 232130Z 11005KT 070V160 CAVOK 09/06 Q1010",
      "taf": "TAF LPPR 231700Z 2318/2418 34010KT 9999 FEW030"
    },
    {
      "icao": "LPPS",
      "alert": "OK",
      "vis_m": 9999,
      "fzfg": false,
      "metar_trigger": false,
      "taf_trigger": false,
      "metar": "METAR LPPS 232130Z 29017KT 9999 SCT014 BKN030 18/13 Q1018",
      "taf": "TAF LPPS 231700Z 2318/2424 31015KT 9999 SCT015 SCT030"
    },
    {
      "icao": "LPPT",
      "alert": "OK",
      "vis_m": 9999,
      "fzfg": false,
      "metar_trigger": false,
      "taf_trigger": false,
      "metar": "METAR LPPT 232130Z 31004KT 9999 FEW025 10/08 Q1010",
      "taf": "TAF LPPT 231700Z 2318/2424 34010KT 9999 FEW020"
    },
    {
      "icao": "LQBK",
      "alert": "OK",
      "vis_m": 6000,
      "fzfg": false,
      "metar_trigger": false,
      "taf_trigger": false,
      "metar": "METAR LQBK 232130Z 34002KT 6000 OVC011 04/03 Q1016 NOSIG",
      "taf": ""
    },
    {
      "icao": "LQSA",
      "alert": "OK",
      "vis_m": 6000,
      "fzfg": false,
      "metar_trigger": false,
      "taf_trigger": false,
      "metar": "METAR LQSA 232130Z 30002KT 6000 -RA FEW006 SCT045 01/01 Q1013 NOSIG",
      "taf": ""
    },
    {
      "icao": "LQTZ",
      "alert": "OK",
      "vis_m": 4000,
      "fzfg": false,
      "metar_trigger": false,
      "taf_trigger": false,
      "metar": "METAR LQTZ 232130Z 31001KT 4000 BR BKN010 01/01 Q1015",
      "taf": "TAF LQTZ 231700Z 2318/2418 10005KT 9999 SCT040 TX04/2413Z TN01/2406Z"
    },
    {
      "icao": "LRBC",
      "alert": "OK",
      "vis_m": 8000,
      "fzfg": false,
      "metar_trigger": false,
      "taf_trigger": false,
      "metar": "METAR LRBC 232130Z 14001KT 8000 OVC027 02/02 Q1021",
      "taf": "TAF LRBC 232000Z 2321/2406 VRB04KT 5000 BR OVC025"
    },
    {
      "icao": "LRBS",
      "alert": "OK",
      "vis_m": 300,
      "fzfg": false,
      "metar_trigger": false,
      "taf_trigger": false,
      "metar": "METAR LRBS 232130Z 06008KT 0300 R07/1300D FG OVC001 03/03 Q1021 NOSIG",
      "taf": ""
    },
    {
      "icao": "LRBV",
      "alert": "OK",
      "vis_m": 600,
      "fzfg": true,
      "metar_trigger": false,
      "taf_trigger": false,
      "metar": "METAR LRBV 232130Z AUTO 11005KT 0600 0550 R03/1200U FZFG VV002 M02/M02 Q1018",
      "taf": "TAF LRBV 232000Z 2321/2406 VRB04KT 0800 FZFG OVC002"
    },
    {
      "icao": "LRCL",
      "alert": "OK",
      "vis_m": 5000,
      "fzfg": false,
      "metar_trigger": false,
      "taf_trigger": false,
      "metar": "METAR LRCL 232130Z 11006KT 5000 BR SCT002 OVC003 M00/M01 Q1018",
      "taf": "TAF LRCL 232000Z 2321/2406 VRB04KT 5000 BR OVC002"
    },
    {
      "icao": "LRCV",
      "alert": "OK",
      "vis_m": 8000,
      "fzfg": false,
      "metar_trigger": false,
      "taf_trigger": false,
      "metar": "METAR LRCV 232130Z 10007KT 8000 OVC005 02/02 Q1019",
      "taf": "TAF LRCV 232000Z 2321/2406 09010KT 9999 OVC005"
    },
    {
      "icao": "LRIA",
      "alert": "OK",
      "vis_m": 9999,
      "fzfg": false,
      "metar_trigger": false,
      "taf_trigger": false,
      "metar": "METAR LRIA 232130Z 11009KT 9999 OVC014 02/01 Q1022",
      "taf": "TAF LRIA 232000Z 2321/2406 10008KT 9999 OVC010"
    },
    {
      "icao": "LROP",
      "alert": "OK",
      "vis_m": 700,
      "fzfg": false,
      "metar_trigger": false,
      "taf_trigger": false,
      "metar": "METAR LROP 232130Z 06008KT 0700 R08R/1300N R08L/1400U FG OVC001 03/03 Q1021 NOSIG",
      "taf": ""
    },
    {
      "icao": "LRSB",
      "alert": "OK",
      "vis_m": 1500,
      "fzfg": false,
      "metar_trigger": false,
      "taf_trigger": false,
      "metar": "METAR LRSB 232130Z 12003KT 090V150 1500 BR SCT001 BKN003 OVC005 M00/M00 Q1018",
      "taf": "TAF LRSB 231700Z 2318/2418 VRB04KT 1500 BR OVC002"
    },
    {
      "icao": "LRSM",
      "alert": "OK",
      "vis_m": 6000,
      "fzfg": false,
      "metar_trigger": false,
      "taf_trigger": false,
      "metar": "METAR LRSM 232130Z AUTO 06004KT 6000 OVC060/// 04/02 Q1018",
      "taf": "TAF LRSM 231400Z 2315/2324 VRB04KT 9999 BKN045"
    },
    {
      "icao": "LRSV",
      "alert": "OK",
      "vis_m": 800,
      "fzfg": true,
      "metar_trigger": false,
      "taf_trigger": false,
      "metar": "METAR LRSV 232130Z 04008KT 0800 R34/P2000 SN FZFG VV002 M01/M01 Q1021",
      "taf": "TAF LRSV 232000Z 2321/2406 05008KT 0600 -SN FZFG OVC001"
    },
    {
      "icao": "LRTM",
      "alert": "OK",
      "vis_m": 5000,
      "fzfg": false,
      "metar_trigger": false,
      "taf_trigger": false,
      "metar": "METAR LRTM 232130Z AUTO 09001KT 5000 BR BKN003/// OVC005/// M00/M01 Q1019",
      "taf": "TAF LRTM 231400Z 2315/2324 VRB04KT 9999 OVC005"
    },
    {
      "icao": "LRTR",
      "alert": "OK",
      "vis_m": 9999,
      "fzfg": false,
      "metar_trigger": false,
      "taf_trigger": false,
      "metar": "METAR LRTR 232130Z 08001KT 9999 OVC038 02/02 Q1017",
      "taf": "TAF LRTR 231700Z 2318/2418 08006KT 9999 SCT045"
    },
    {
      "icao": "LTAC",
      "alert": "OK",
      "vis_m": 4500,
      "fzfg": false,
      "metar_trigger": false,
      "taf_trigger": false,
      "metar": "METAR LTAC 232120Z VRB02KT 4500 1600N BR BKN020 BKN080 04/04 Q1018 BECMG 2000 BR RMK RWY21C 00000KT RWY03L 27002KT RWY21R 00000KT RWY03R 19001KT RWY21L 00000KT",
      "taf": "TAF LTAC 231640Z 2318/2418 VRB02KT 4000 BR FEW010 SCT030 BKN080"
    },
    {
      "icao": "LTFM",
      "alert": "OK",
      "vis_m": 9999,
      "fzfg": false,
      "metar_trigger": false,
      "taf_trigger": false,
      "metar": "METAR LTFM 232120Z 36008KT 9999 BKN009 BKN020 10/09 Q1019 RERA NOSIG RMK RWY17L 36007KT RWY34L 33007KT RWY16R 36006KT RWY36 36009KT RWY18 36008KT",
      "taf": "TAF LTFM 231640Z 2318/2424 34012KT 9999 BKN009 BKN020"
    },
    {
      "icao": "LUKK",
      "alert": "OK",
      "vis_m": 9999,
      "fzfg": false,
      "metar_trigger": false,
      "taf_trigger": false,
      "metar": "METAR LUKK 232130Z 10003KT 9999 OVC032 01/M01 Q1023 NOSIG",
      "taf": "TAF LUKK 231720Z 2318/2418 VRB05KT 9999 OVC015"
    },
    {
      "icao": "LWOH",
      "alert": "OK",
      "vis_m": null,
      "fzfg": false,
      "metar_trigger": false,
      "taf_trigger": false,
      "metar": "",
      "taf": "TAF LWOH 232030Z 2321/2421 VRB02KT 9999 FEW020 OVC040"
    },
    {
      "icao": "LWSK",
      "alert": "OK",
      "vis_m": 3500,
      "fzfg": false,
      "metar_trigger": false,
      "taf_trigger": false,
      "metar": "METAR LWSK 232120Z VRB01KT 3500 -DZ BR BKN013 OVC033 04/03 Q1018 NOSIG",
      "taf": "TAF LWSK 232030Z 2321/2421 VRB02KT 5000 BR OVC013"
    },
    {
      "icao": "LYBE",
      "alert": "OK",
      "vis_m": 9999,
      "fzfg": false,
      "metar_trigger": false,
      "taf_trigger": false,
      "metar": "METAR LYBE 232130Z 07006KT CAVOK 04/02 Q1016 NOSIG",
      "taf": "TAF LYBE 231700Z 2318/2418 10007KT CAVOK TX06/2413Z TN03/2405Z"
    },
    {
      "icao": "LYNI",
      "alert": "OK",
      "vis_m": 5000,
      "fzfg": false,
      "metar_trigger": false,
      "taf_trigger": false,
      "metar": "METAR LYNI 232130Z 00000KT 5000 BR SCT040 02/02 Q1016 NOSIG",
      "taf": "TAF LYNI 231700Z 2318/2418 07005KT 9999 SCT033 BKN080 TX08/2412Z TN02/2318Z"
    },
    {
      "icao": "LYPG",
      "alert": "OK",
      "vis_m": 2000,
      "fzfg": false,
      "metar_trigger": false,
      "taf_trigger": false,
      "metar": "METAR LYPG 232130Z 08002KT 2000 -RA BR SCT043 OVC070 06/06 Q1014 NOSIG",
      "taf": "TAF LYPG 231700Z 2318/2418 16005KT 9999 SCT040 OVC070 TX11/2413Z TN06/2405Z"
    },
    {
      "icao": "LZIB",
      "alert": "OK",
      "vis_m": 8000,
      "fzfg": false,
      "metar_trigger": false,
      "taf_trigger": false,
      "metar": "METAR LZIB 232130Z 02006KT 8000 -RA FEW008 BKN014 OVC018 04/03 Q1019 NOSIG",
      "taf": "TAF LZIB 231715Z 2318/2418 04008KT 4000 -RA BR FEW003 BKN006 OVC012"
    },
    {
      "icao": "LZKZ",
      "alert": "OK",
      "vis_m": 9999,
      "fzfg": false,
      "metar_trigger": false,
      "taf_trigger": false,
      "metar": "METAR LZKZ 232130Z 36017KT 9999 BKN041 03/M00 Q1019 NOSIG",
      "taf": "TAF LZKZ 231715Z 2318/2418 02018KT 9999 BKN035"
    },
    {
      "icao": "LZTT",
      "alert": "OK",
      "vis_m": 7000,
      "fzfg": false,
      "metar_trigger": false,
      "taf_trigger": false,
      "metar": "METAR LZTT 232130Z 07011KT 7000 -SN BKN010 M01/M02 Q1018",
      "taf": ""
    },
    {
      "icao": "OEJN",
      "alert": "OK",
      "vis_m": 9999,
      "fzfg": false,
      "metar_trigger": false,
      "taf_trigger": false,
      "metar": "METAR OEJN 232100Z 01002KT 9999 SCT040 26/24 Q1014 NOSIG",
      "taf": "TAF OEJN 231700Z 2318/2424 02005KT 7000 FEW030"
    },
    {
      "icao": "OEMA",
      "alert": "OK",
      "vis_m": 9999,
      "fzfg": false,
      "metar_trigger": false,
      "taf_trigger": false,
      "metar": "METAR OEMA 232100Z VRB03KT CAVOK 22/14 Q1017 NOSIG",
      "taf": "TAF OEMA 231700Z 2318/2424 27005KT 7000 FEW045"
    },
    {
      "icao": "OJAI",
      "alert": "OK",
      "vis_m": 5000,
      "fzfg": false,
      "metar_trigger": false,
      "taf_trigger": false,
      "metar": "METAR OJAI 232100Z 00000KT 5000 HZ NSC 09/05 Q1020 NOSIG",
      "taf": "TAF OJAI 231643Z 2318/2424 25010KT 5000 HZ NSC"
    },
    {
      "icao": "OMAA",
      "alert": "OK",
      "vis_m": 9999,
      "fzfg": false,
      "metar_trigger": false,
      "taf_trigger": false,
      "metar": "METAR OMAA 232100Z 31004KT CAVOK 19/11 Q1017 NOSIG",
      "taf": "TAF OMAA 231700Z 2318/2500 04006KT 8000 NSC"
    },
    {
      "icao": "OMDB",
      "alert": "OK",
      "vis_m": 9999,
      "fzfg": false,
      "metar_trigger": false,
      "taf_trigger": false,
      "metar": "METAR OMDB 232130Z 10005KT CAVOK 18/11 Q1017 NOSIG",
      "taf": "TAF OMDB 231700Z 2318/2500 07005KT 8000 NSC"
    },
    {
      "icao": "UAAA",
      "alert": "OK",
      "vis_m": 2400,
      "fzfg": false,
      "metar_trigger": false,
      "taf_trigger": false,
      "metar": "METAR UAAA 232130Z 02002MPS 2400 BR OVC006 M04/M05 Q1026 NOSIG RMK QBB180",
      "taf": "TAF UAAA 231711Z 2318/2418 04003MPS 1200 BR BKN007 OVC015 TX02/2408Z TNM06/2401Z"
    },
    {
      "icao": "UBBB",
      "alert": "OK",
      "vis_m": 8000,
      "fzfg": false,
      "metar_trigger": false,
      "taf_trigger": false,
      "metar": "METAR UBBB 232130Z 29004KT 8000 BKN040 05/05 Q1021 NOSIG",
      "taf": "TAF UBBB 231704Z 2318/2418 VRB04KT 5000 BR SCT025 TX10/2410Z TN02/2400Z"
    },
    {
      "icao": "UDSG",
      "alert": "OK",
      "vis_m": 7000,
      "fzfg": false,
      "metar_trigger": false,
      "taf_trigger": false,
      "metar": "METAR UDSG 232130Z 07002KT 7000 NSC M07/M08 Q1021 NOSIG",
      "taf": "TAF UDSG 231700Z 2318/2418 VRB06KT 9999 FEW050"
    },
    {
      "icao": "UDYZ",
      "alert": "OK",
      "vis_m": 3100,
      "fzfg": false,
      "metar_trigger": false,
      "taf_trigger": false,
      "metar": "METAR UDYZ 232130Z VRB01KT 3100 BR NSC M01/M04 Q1021 NOSIG",
      "taf": "TAF UDYZ 231700Z 2318/2418 VRB04KT 3500 BR FEW040"
    },
    {
      "icao": "UGKO",
      "alert": "OK",
      "vis_m": 9999,
      "fzfg": false,
      "metar_trigger": false,
      "taf_trigger": false,
      "metar": "METAR UGKO 232130Z 02003KT 330V070 CAVOK 05/01 Q1017 NOSIG",
      "taf": "TAF UGKO 231700Z 2318/2418 09007KT 9999 SCT022 BKN050 TX11/2411Z TN05/2403Z"
    }
  ]
}