{
  "ts_utc": "2026-02-06T15:10:48Z",
  "threshold_m": 150,
  "source": "stations_override.txt (ICAO list) + aviationweather.gov (METAR/TAF raw)",
  "station_count": 159,
  "stations": [
    {
      "icao": "BIKF",
      "alert": "OK",
      "vis_m": 6000,
      "fzfg": false,
      "metar_trigger": false,
      "taf_trigger": false,
      "metar": "METAR BIKF 061500Z 03007KT 6000 -RASN BR BKN004 OVC015 02/01 Q1007",
      "taf": "TAF BIKF 061331Z 0615/0715 02007KT 5000 -RASN OVC010 TX04/0618Z TNM02/0710Z"
    },
    {
      "icao": "BKPR",
      "alert": "OK",
      "vis_m": 8000,
      "fzfg": false,
      "metar_trigger": false,
      "taf_trigger": false,
      "metar": "METAR BKPR 061500Z 15008KT 130V190 8000 -RA SCT015 BKN040 06/06 Q0996 NOSIG",
      "taf": ""
    },
    {
      "icao": "EBCI",
      "alert": "OK",
      "vis_m": 9999,
      "fzfg": false,
      "metar_trigger": false,
      "taf_trigger": false,
      "metar": "METAR EBCI 061450Z 19007KT 9999 SCT012 BKN025 10/08 Q0990 TEMPO 4500 SHRA",
      "taf": "TAF EBCI 061109Z 0612/0718 15006KT 6000 -RA BKN007"
    },
    {
      "icao": "EDDB",
      "alert": "OK",
      "vis_m": 1500,
      "fzfg": false,
      "metar_trigger": false,
      "taf_trigger": false,
      "metar": "METAR EDDB 061450Z AUTO 07006KT 1500 1400 R06L/P2000N R06R/P2000N BR OVC002 01/01 Q0996 TEMPO 1200 BR",
      "taf": "TAF EDDB 061100Z 0612/0712 09004KT 3000 BR BKN003"
    },
    {
      "icao": "EDDH",
      "alert": "OK",
      "vis_m": 3100,
      "fzfg": false,
      "metar_trigger": false,
      "taf_trigger": false,
      "metar": "METAR EDDH 061450Z AUTO 09008KT 3100 BR OVC004 01/00 Q0996 TEMPO 2500",
      "taf": "TAF EDDH 061100Z 0612/0718 09007KT 4000 BR OVC004"
    },
    {
      "icao": "EDDK",
      "alert": "OK",
      "vis_m": 9999,
      "fzfg": false,
      "metar_trigger": false,
      "taf_trigger": false,
      "metar": "METAR EDDK 061450Z AUTO 13010KT 9999 -SHRA SCT029 SCT035 BKN043 FEW///TCU 05/03 Q0993 RESHRA NOSIG",
      "taf": "TAF EDDK 061100Z 0612/0718 12007KT 9999 BKN040"
    },
    {
      "icao": "EDDN",
      "alert": "OK",
      "vis_m": 9999,
      "fzfg": false,
      "metar_trigger": false,
      "taf_trigger": false,
      "metar": "METAR EDDN 061450Z AUTO VRB02KT 9999 OVC013 03/M00 Q0995 NOSIG",
      "taf": ""
    },
    {
      "icao": "EDDS",
      "alert": "OK",
      "vis_m": 9999,
      "fzfg": false,
      "metar_trigger": false,
      "taf_trigger": false,
      "metar": "METAR EDDS 061450Z AUTO 22004KT 150V290 9999 SCT021 BKN032 10/06 Q0994 NOSIG",
      "taf": "TAF EDDS 061100Z 0612/0712 19004KT 9999 BKN030"
    },
    {
      "icao": "EDFH",
      "alert": "OK",
      "vis_m": 4000,
      "fzfg": false,
      "metar_trigger": false,
      "taf_trigger": false,
      "metar": "METAR EDFH 061450Z 14011KT 4000 BR BKN001 OVC006 02/02 Q0992",
      "taf": ""
    },
    {
      "icao": "EDJA",
      "alert": "OK",
      "vis_m": 9999,
      "fzfg": false,
      "metar_trigger": false,
      "taf_trigger": false,
      "metar": "METAR EDJA 061450Z 23014KT 9999 -RA FEW009 BKN011 05/04 Q0995",
      "taf": "TAF EDJA 061400Z 0615/0624 23015G25KT 9999 SCT010 BKN020"
    },
    {
      "icao": "EDLW",
      "alert": "OK",
      "vis_m": 9999,
      "fzfg": false,
      "metar_trigger": false,
      "taf_trigger": false,
      "metar": "METAR EDLW 061450Z 03003KT 9999 FEW037 SCT044 06/03 Q0992",
      "taf": "TAF EDLW 061100Z 0612/0712 08004KT 8000 NSC"
    },
    {
      "icao": "EDNY",
      "alert": "OK",
      "vis_m": 9999,
      "fzfg": false,
      "metar_trigger": false,
      "taf_trigger": false,
      "metar": "METAR EDNY 061450Z VRB02KT 9999 BKN030 OVC034 07/05 Q0996",
      "taf": "TAF EDNY 061400Z 0615/0624 VRB02KT 7000 BKN020"
    },
    {
      "icao": "EDSB",
      "alert": "OK",
      "vis_m": 3900,
      "fzfg": false,
      "metar_trigger": false,
      "taf_trigger": false,
      "metar": "METAR EDSB 061450Z VRB02KT 3900 BR SCT004 OVC039 05/04 Q0995",
      "taf": ""
    },
    {
      "icao": "EETN",
      "alert": "OK",
      "vis_m": 9000,
      "fzfg": false,
      "metar_trigger": false,
      "taf_trigger": false,
      "metar": "METAR EETN 061450Z 07009KT 9000 OVC007 M07/M08 Q1012 TEMPO 4000 BR BKN005",
      "taf": ""
    },
    {
      "icao": "EFTU",
      "alert": "OK",
      "vis_m": 9999,
      "fzfg": false,
      "metar_trigger": false,
      "taf_trigger": false,
      "metar": "METAR EFTU 061450Z AUTO 06006KT 9999 BKN039 M12/M14 Q1014",
      "taf": "TAF EFTU 061428Z 0615/0715 05007KT 9999 BKN040"
    },
    {
      "icao": "EGBB",
      "alert": "OK",
      "vis_m": 2800,
      "fzfg": false,
      "metar_trigger": false,
      "taf_trigger": false,
      "metar": "METAR EGBB 061450Z 07005KT 050V110 2800 -DZRA OVC004 07/06 Q0985 RERA",
      "taf": "TAF EGBB 061102Z 0612/0712 07009KT 9999 SCT004 BKN009"
    },
    {
      "icao": "EGGP",
      "alert": "OK",
      "vis_m": 9000,
      "fzfg": false,
      "metar_trigger": false,
      "taf_trigger": false,
      "metar": "METAR EGGP 061450Z 07012KT 9000 -RA BKN017 OVC026 05/04 Q0986",
      "taf": "TAF EGGP 061059Z 0612/0712 08012KT 9999 FEW012 BKN040"
    },
    {
      "icao": "EGGW",
      "alert": "OK",
      "vis_m": 9999,
      "fzfg": false,
      "metar_trigger": false,
      "taf_trigger": false,
      "metar": "METAR EGGW 061450Z AUTO 11003KT 9999 FEW003/// BKN009/// BKN019/// //////CB 09/08 Q0985",
      "taf": ""
    },
    {
      "icao": "EGKK",
      "alert": "OK",
      "vis_m": 9999,
      "fzfg": false,
      "metar_trigger": false,
      "taf_trigger": false,
      "metar": "METAR EGKK 061450Z 21007KT 190V250 9999 -RA BKN007 BKN048 10/10 Q0986",
      "taf": "TAF EGKK 061057Z 0612/0718 19008KT 9999 SCT010"
    },
    {
      "icao": "EGNM",
      "alert": "OK",
      "vis_m": 1800,
      "fzfg": false,
      "metar_trigger": false,
      "taf_trigger": false,
      "metar": "METAR EGNM 061450Z 07008KT 030V100 1800 -RA BR OVC002 04/04 Q0988",
      "taf": "TAF EGNM 061100Z 0612/0712 07009KT 2000 -RA BR SCT002 BKN003"
    },
    {
      "icao": "EGPD",
      "alert": "OK",
      "vis_m": 9999,
      "fzfg": false,
      "metar_trigger": false,
      "taf_trigger": false,
      "metar": "METAR EGPD 061450Z 09011KT 9999 -RA SCT011 BKN018 03/02 Q0996 RERA TEMPO 4000 SHRA BKN011",
      "taf": "TAF EGPD 061058Z 0612/0712 10012KT 9999 SCT012 BKN020"
    },
    {
      "icao": "EGPF",
      "alert": "OK",
      "vis_m": 9999,
      "fzfg": false,
      "metar_trigger": false,
      "taf_trigger": false,
      "metar": "METAR EGPF 061450Z AUTO 07016KT 9999 -RA BKN017 OVC026 05/02 Q0992",
      "taf": "TAF EGPF 061103Z 0612/0712 07012KT 9999 SCT015 BKN025"
    },
    {
      "icao": "EHBK",
      "alert": "OK",
      "vis_m": 9999,
      "fzfg": false,
      "metar_trigger": false,
      "taf_trigger": false,
      "metar": "METAR EHBK 061455Z AUTO 19008KT 160V220 9999 OVC030 10/07 Q0991 NOSIG",
      "taf": "TAF EHBK 061120Z 0612/0718 16006KT 9999 OVC020"
    },
    {
      "icao": "EHEH",
      "alert": "OK",
      "vis_m": 2500,
      "fzfg": false,
      "metar_trigger": false,
      "taf_trigger": false,
      "metar": "METAR EHEH 061455Z AUTO 13005KT 100V180 2500 R21/2600D +DZ SCT003 SCT004 BKN005 07/06 Q0991 YLO TEMPO 2000 DZRA FEW004 BKN005 BKN008",
      "taf": ""
    },
    {
      "icao": "EKBI",
      "alert": "OK",
      "vis_m": 6000,
      "fzfg": false,
      "metar_trigger": false,
      "taf_trigger": false,
      "metar": "METAR EKBI 061450Z AUTO 07014KT 6000 -SN OVC004/// M00/M01 Q0999",
      "taf": "TAF EKBI 061427Z 0615/0715 07015KT 8000 BKN010"
    },
    {
      "icao": "EKCH",
      "alert": "OK",
      "vis_m": 9999,
      "fzfg": false,
      "metar_trigger": false,
      "taf_trigger": false,
      "metar": "METAR EKCH 061450Z 09010KT 9999 BKN011 01/M00 Q1000 TEMPO BKN008",
      "taf": "TAF EKCH 061427Z 0615/0715 09015KT 9000 BKN012"
    },
    {
      "icao": "ENAL",
      "alert": "OK",
      "vis_m": 9999,
      "fzfg": false,
      "metar_trigger": false,
      "taf_trigger": false,
      "metar": "METAR ENAL 061450Z 11009KT CAVOK 04/M14 Q1006",
      "taf": "TAF ENAL 061400Z 0615/0624 06005KT CAVOK"
    },
    {
      "icao": "ENBR",
      "alert": "OK",
      "vis_m": 9999,
      "fzfg": false,
      "metar_trigger": false,
      "taf_trigger": false,
      "metar": "METAR ENBR 061450Z VRB02KT 9999 FEW043 01/M07 Q1004 NOSIG RMK WIND 1200FT 10008KT",
      "taf": "TAF ENBR 061100Z 0612/0712 03005KT CAVOK"
    },
    {
      "icao": "ENGM",
      "alert": "OK",
      "vis_m": 9999,
      "fzfg": false,
      "metar_trigger": false,
      "taf_trigger": false,
      "metar": "METAR ENGM 061450Z 02011KT CAVOK M10/M14 Q1012 NOSIG",
      "taf": "TAF ENGM 061100Z 0612/0712 02012KT 9999 FEW010 SCT040"
    },
    {
      "icao": "ENHD",
      "alert": "OK",
      "vis_m": 9999,
      "fzfg": false,
      "metar_trigger": false,
      "taf_trigger": false,
      "metar": "METAR ENHD 061450Z 06014KT 9999 VCSH FEW025 BKN032 01/M05 Q1004",
      "taf": "TAF ENHD 061400Z 0615/0623 08008KT 9999 FEW030 BKN040"
    },
    {
      "icao": "ENTC",
      "alert": "OK",
      "vis_m": 9999,
      "fzfg": false,
      "metar_trigger": false,
      "taf_trigger": false,
      "metar": "METAR ENTC 061450Z 03011KT 9999 VCSH FEW015 SCT018 BKN026 01/M02 Q1013 NOSIG RMK WIND 2600FT 01020KT",
      "taf": ""
    },
    {
      "icao": "ENTO",
      "alert": "OK",
      "vis_m": 1700,
      "fzfg": false,
      "metar_trigger": false,
      "taf_trigger": false,
      "metar": "METAR ENTO 061450Z 02015KT 1700 -SN BR VV015 M08/M09 Q1010 TEMPO 3000 VV014",
      "taf": ""
    },
    {
      "icao": "ENVA",
      "alert": "OK",
      "vis_m": 9999,
      "fzfg": false,
      "metar_trigger": false,
      "taf_trigger": false,
      "metar": "METAR ENVA 061450Z 12009KT CAVOK M08/M18 Q1014 NOSIG RMK WIND 670FT 09008KT",
      "taf": "TAF ENVA 061100Z 0612/0712 12008KT CAVOK"
    },
    {
      "icao": "ENZV",
      "alert": "OK",
      "vis_m": 9999,
      "fzfg": false,
      "metar_trigger": false,
      "taf_trigger": false,
      "metar": "METAR ENZV 061450Z 13008KT CAVOK 00/M08 Q1004 NOSIG",
      "taf": "TAF ENZV 061100Z 0612/0712 VRB03KT 9999 BKN030"
    },
    {
      "icao": "EPGD",
      "alert": "OK",
      "vis_m": 9999,
      "fzfg": false,
      "metar_trigger": false,
      "taf_trigger": false,
      "metar": "METAR EPGD 061500Z 09007KT 9999 OVC005 M01/M02 Q1000",
      "taf": "TAF EPGD 061130Z 0612/0712 09010KT 9999 OVC005"
    },
    {
      "icao": "EPKK",
      "alert": "OK",
      "vis_m": 5000,
      "fzfg": false,
      "metar_trigger": false,
      "taf_trigger": false,
      "metar": "METAR EPKK 061500Z VRB02KT 5000 BR OVC003 03/02 Q0996",
      "taf": "TAF EPKK 061430Z 0615/0715 06003KT 6000 OVC004"
    },
    {
      "icao": "EPKT",
      "alert": "OK",
      "vis_m": 9999,
      "fzfg": false,
      "metar_trigger": false,
      "taf_trigger": false,
      "metar": "METAR EPKT 061500Z 09004KT CAVOK 06/02 Q0995",
      "taf": "TAF EPKT 061130Z 0612/0712 08003KT 9999 SCT040"
    },
    {
      "icao": "EPLB",
      "alert": "OK",
      "vis_m": 4500,
      "fzfg": false,
      "metar_trigger": false,
      "taf_trigger": false,
      "metar": "METAR EPLB 061500Z 10008KT 4500 BR OVC003 00/00 Q0998",
      "taf": "TAF EPLB 061130Z 0612/0712 10009KT 6000 BKN003 OVC005"
    },
    {
      "icao": "EPMO",
      "alert": "OK",
      "vis_m": 1600,
      "fzfg": false,
      "metar_trigger": false,
      "taf_trigger": false,
      "metar": "METAR EPMO 061500Z 07008KT 1600 BR OVC004 00/00 Q0998",
      "taf": ""
    },
    {
      "icao": "EPPO",
      "alert": "OK",
      "vis_m": 4100,
      "fzfg": false,
      "metar_trigger": false,
      "taf_trigger": false,
      "metar": "METAR EPPO 061500Z 08008KT 4100 BR OVC004 01/M00 Q0997",
      "taf": "TAF EPPO 061130Z 0612/0712 10008KT 6000 OVC006"
    },
    {
      "icao": "EPRA",
      "alert": "OK",
      "vis_m": 9999,
      "fzfg": false,
      "metar_trigger": false,
      "taf_trigger": false,
      "metar": "METAR EPRA 061500Z 09007KT 9999 OVC007 02/00 Q0997",
      "taf": "TAF EPRA 061430Z 0615/0624 09008KT 8000 OVC007"
    },
    {
      "icao": "EPRZ",
      "alert": "OK",
      "vis_m": 8000,
      "fzfg": false,
      "metar_trigger": false,
      "taf_trigger": false,
      "metar": "METAR EPRZ 061500Z 07010KT 8000 NSC 02/01 Q0997",
      "taf": "TAF EPRZ 061130Z 0612/0712 07009KT 8000 SCT023"
    },
    {
      "icao": "EPSC",
      "alert": "OK",
      "vis_m": 5000,
      "fzfg": false,
      "metar_trigger": false,
      "taf_trigger": false,
      "metar": "METAR EPSC 061500Z 07004KT 5000 BR OVC006 01/M00 Q0998",
      "taf": "TAF EPSC 061130Z 0612/0712 07005KT 6000 OVC006"
    },
    {
      "icao": "EPSY",
      "alert": "OK",
      "vis_m": 1600,
      "fzfg": false,
      "metar_trigger": false,
      "taf_trigger": false,
      "metar": "METAR EPSY 061500Z 09005KT 040V150 1600 BR OVC001 M02/M02 Q1000",
      "taf": "TAF EPSY 061430Z 0615/0624 10006KT 4000 BR OVC004"
    },
    {
      "icao": "EPWA",
      "alert": "OK",
      "vis_m": 7000,
      "fzfg": false,
      "metar_trigger": false,
      "taf_trigger": false,
      "metar": "METAR EPWA 061500Z 10009KT 7000 BKN005 01/00 Q0998 NOSIG",
      "taf": "TAF EPWA 061430Z 0615/0715 10010KT 4000 BR OVC003"
    },
    {
      "icao": "EPWR",
      "alert": "OK",
      "vis_m": 9000,
      "fzfg": false,
      "metar_trigger": false,
      "taf_trigger": false,
      "metar": "METAR EPWR 061500Z 05005KT 010V070 9000 NSC 04/02 Q0995",
      "taf": "TAF EPWR 061430Z 0615/0715 10010KT 6000 FEW009 BKN040"
    },
    {
      "icao": "ESGG",
      "alert": "OK",
      "vis_m": 3500,
      "fzfg": false,
      "metar_trigger": false,
      "taf_trigger": false,
      "metar": "METAR ESGG 061450Z 05013KT 3500 -SN VV016 M04/M06 Q1003",
      "taf": "TAF ESGG 061430Z 0615/0715 05015G25KT 6000 -SN OVC015"
    },
    {
      "icao": "ESKN",
      "alert": "OK",
      "vis_m": 9999,
      "fzfg": false,
      "metar_trigger": false,
      "taf_trigger": false,
      "metar": "METAR ESKN 061450Z 04008KT 010V070 9999 BKN009 M08/M09 Q1010",
      "taf": "TAF ESKN 061430Z 0615/0715 03010KT 9999 OVC007"
    },
    {
      "icao": "ESMS",
      "alert": "OK",
      "vis_m": 9999,
      "fzfg": false,
      "metar_trigger": false,
      "taf_trigger": false,
      "metar": "METAR ESMS 061450Z 09019KT 9999 OVC007 01/00 Q1000",
      "taf": "TAF ESMS 061427Z 0615/0715 09018KT 9000 BKN006"
    },
    {
      "icao": "ESSA",
      "alert": "OK",
      "vis_m": 9999,
      "fzfg": false,
      "metar_trigger": false,
      "taf_trigger": false,
      "metar": "METAR ESSA 061450Z 03010KT 9999 BKN017 M06/M11 Q1012 TEMPO BKN012",
      "taf": "TAF ESSA 061430Z 0615/0715 04010KT 9999 SCT009 BKN015"
    },
    {
      "icao": "EYKA",
      "alert": "OK",
      "vis_m": 9000,
      "fzfg": false,
      "metar_trigger": false,
      "taf_trigger": false,
      "metar": "METAR EYKA 061450Z 09008KT 9000 OVC011 M04/M06 Q1004",
      "taf": "TAF EYKA 061105Z 0612/0712 09010KT 9000 OVC010"
    },
    {
      "icao": "EYPA",
      "alert": "OK",
      "vis_m": 9999,
      "fzfg": false,
      "metar_trigger": false,
      "taf_trigger": false,
      "metar": "METAR EYPA 061450Z 09008KT 050V120 9999 OVC014 M04/M07 Q1005",
      "taf": "TAF EYPA 061105Z 0612/0712 08010KT 9000 OVC015"
    },
    {
      "icao": "EYVI",
      "alert": "OK",
      "vis_m": 9000,
      "fzfg": false,
      "metar_trigger": false,
      "taf_trigger": false,
      "metar": "METAR EYVI 061450Z 09007KT 9000 OVC012 M05/M07 Q1004 NOSIG",
      "taf": "TAF EYVI 061112Z 0612/0712 12012KT 9000 BKN005 OVC010"
    },
    {
      "icao": "GCFV",
      "alert": "OK",
      "vis_m": 9999,
      "fzfg": false,
      "metar_trigger": false,
      "taf_trigger": false,
      "metar": "METAR GCFV 061500Z 33022KT 300V360 9999 FEW035 22/07 Q1020",
      "taf": "TAF GCFV 061400Z 0615/0715 34015KT 9999 FEW035 TX22/0714Z TN16/0706Z"
    },
    {
      "icao": "GCLP",
      "alert": "OK",
      "vis_m": 9999,
      "fzfg": false,
      "metar_trigger": false,
      "taf_trigger": false,
      "metar": "METAR GCLP 061500Z 01020G32KT 9999 FEW040 23/11 Q1020 NOSIG",
      "taf": "TAF GCLP 061400Z 0615/0715 36018KT 9999 FEW040 TX22/0714Z TN16/0706Z"
    },
    {
      "icao": "GCTS",
      "alert": "OK",
      "vis_m": 9999,
      "fzfg": false,
      "metar_trigger": false,
      "taf_trigger": false,
      "metar": "METAR GCTS 061500Z 16008KT 140V200 9999 FEW035 22/13 Q1021 NOSIG",
      "taf": "TAF GCTS 061400Z 0615/0715 13008KT 9999 FEW040 TX24/0714Z TN16/0706Z"
    },
    {
      "icao": "GMAD",
      "alert": "OK",
      "vis_m": 8000,
      "fzfg": false,
      "metar_trigger": false,
      "taf_trigger": false,
      "metar": "METAR GMAD 061500Z 26016KT 8000 SCT010 SCT023 20/16 Q1017 NOSIG",
      "taf": "TAF GMAD 061100Z 0612/0718 28012KT 8000 SCT020"
    },
    {
      "icao": "GMMN",
      "alert": "OK",
      "vis_m": 9999,
      "fzfg": false,
      "metar_trigger": false,
      "taf_trigger": false,
      "metar": "METAR GMMN 061500Z 27021KT 9999 BKN020 17/11 Q1016 NOSIG",
      "taf": "TAF GMMN 061100Z 0612/0718 24014KT 9999 BKN026"
    },
    {
      "icao": "GMMX",
      "alert": "OK",
      "vis_m": 8000,
      "fzfg": false,
      "metar_trigger": false,
      "taf_trigger": false,
      "metar": "METAR GMMX 061500Z 27015KT 240V300 8000 SCT016 BKN023 18/12 Q1018 NOSIG",
      "taf": "TAF GMMX 061100Z 0612/0718 18006KT 8000 SCT026"
    },
    {
      "icao": "HEGN",
      "alert": "OK",
      "vis_m": 9999,
      "fzfg": false,
      "metar_trigger": false,
      "taf_trigger": false,
      "metar": "METAR HEGN 061400Z 13007KT CAVOK 25/16 Q1012 NOSIG",
      "taf": "TAF HEGN 061110Z 0612/0718 12008KT CAVOK"
    },
    {
      "icao": "HEMA",
      "alert": "OK",
      "vis_m": 9999,
      "fzfg": false,
      "metar_trigger": false,
      "taf_trigger": false,
      "metar": "METAR HEMA 061400Z 09008KT CAVOK 25/11 Q1012 NOSIG",
      "taf": "TAF HEMA 061110Z 0612/0718 12008KT CAVOK"
    },
    {
      "icao": "HESH",
      "alert": "OK",
      "vis_m": 9999,
      "fzfg": false,
      "metar_trigger": false,
      "taf_trigger": false,
      "metar": "METAR HESH 061400Z 12008KT CAVOK 23/16 Q1012 NOSIG",
      "taf": "TAF HESH 061110Z 0612/0718 19008KT CAVOK"
    },
    {
      "icao": "HESX",
      "alert": "OK",
      "vis_m": 9999,
      "fzfg": false,
      "metar_trigger": false,
      "taf_trigger": false,
      "metar": "METAR HESX 061400Z 30010KT CAVOK 26/04 Q1011 NOSIG",
      "taf": "TAF HESX 061110Z 0612/0718 22009KT 9999 FEW025"
    },
    {
      "icao": "LATI",
      "alert": "OK",
      "vis_m": 9999,
      "fzfg": false,
      "metar_trigger": false,
      "taf_trigger": false,
      "metar": "METAR LATI 061450Z 13007KT 9999 FEW024 SCT031 BKN068 15/10 Q0995 NOSIG",
      "taf": "TAF LATI 061100Z 0612/0712 16016KT 9999 RA SCT020CB BKN030 OVC045 TX14/0711Z TN09/0705Z"
    },
    {
      "icao": "LBPD",
      "alert": "OK",
      "vis_m": 9999,
      "fzfg": false,
      "metar_trigger": false,
      "taf_trigger": false,
      "metar": "METAR LBPD 061500Z AUTO 10006KT 9999 SCT014/// OVC016/// 09/09 Q0998 NOSIG",
      "taf": "TAF LBPD 061100Z 0612/0712 VRB04KT 9999 SCT015 BKN033"
    },
    {
      "icao": "LBSF",
      "alert": "OK",
      "vis_m": 6000,
      "fzfg": false,
      "metar_trigger": false,
      "taf_trigger": false,
      "metar": "METAR LBSF 061500Z 21004KT 6000 RA BKN035 OVC046 07/06 Q0997 TEMPO 4000 RA",
      "taf": "TAF LBSF 061100Z 0612/0712 10008KT 9999 SCT020 OVC040"
    },
    {
      "icao": "LBWN",
      "alert": "OK",
      "vis_m": 7000,
      "fzfg": false,
      "metar_trigger": false,
      "taf_trigger": false,
      "metar": "METAR LBWN 061500Z AUTO 11008KT 7000 NCD 08/08 Q0999 TEMPO 5000 BR",
      "taf": "TAF LBWN 061100Z 0612/0712 25008KT 7000 BKN015"
    },
    {
      "icao": "LCLK",
      "alert": "OK",
      "vis_m": 9999,
      "fzfg": false,
      "metar_trigger": false,
      "taf_trigger": false,
      "metar": "METAR LCLK 061500Z 20005KT 9999 FEW020 19/16 Q1009 NOSIG",
      "taf": "TAF LCLK 061130Z 0612/0712 16010KT 9999 FEW020"
    },
    {
      "icao": "LCPH",
      "alert": "OK",
      "vis_m": 6000,
      "fzfg": false,
      "metar_trigger": false,
      "taf_trigger": false,
      "metar": "METAR LCPH 061500Z 26008KT 250V320 6000 SCT012 BKN018 18/15 Q1009 NOSIG",
      "taf": "TAF LCPH 061130Z 0612/0712 14012KT 9999 FEW020"
    },
    {
      "icao": "LEAL",
      "alert": "OK",
      "vis_m": 9999,
      "fzfg": false,
      "metar_trigger": false,
      "taf_trigger": false,
      "metar": "METAR LEAL 061500Z 26007KT 230V290 9999 FEW016 BKN050 18/10 Q1004 NOSIG",
      "taf": "TAF LEAL 061100Z 0612/0712 24010KT 9999 FEW020 TX20/0614Z TN08/0706Z"
    },
    {
      "icao": "LEBB",
      "alert": "OK",
      "vis_m": 9999,
      "fzfg": false,
      "metar_trigger": false,
      "taf_trigger": false,
      "metar": "METAR LEBB 061500Z 17006KT 130V260 9999 FEW060 16/04 Q0997 NOSIG",
      "taf": "TAF LEBB 061100Z 0612/0712 22009KT 9999 FEW040 TX16/0613Z TN09/0707Z"
    },
    {
      "icao": "LEBL",
      "alert": "OK",
      "vis_m": 9999,
      "fzfg": false,
      "metar_trigger": false,
      "taf_trigger": false,
      "metar": "METAR LEBL 061500Z 23016KT 9999 FEW030 17/07 Q1001 NOSIG",
      "taf": "TAF LEBL 061100Z 0612/0712 24012KT 9999 FEW025 TX17/0613Z TN08/0706Z"
    },
    {
      "icao": "LECH",
      "alert": "OK",
      "vis_m": 9000,
      "fzfg": false,
      "metar_trigger": false,
      "taf_trigger": false,
      "metar": "METAR LECH 061500Z AUTO 18009KT 140V210 9000 NSC 16/03 Q1000",
      "taf": ""
    },
    {
      "icao": "LEMD",
      "alert": "OK",
      "vis_m": 9999,
      "fzfg": false,
      "metar_trigger": false,
      "taf_trigger": false,
      "metar": "METAR LEMD 061500Z 21010G24KT 170V250 9999 BKN025 BKN070 08/05 Q1002 NOSIG",
      "taf": ""
    },
    {
      "icao": "LEMG",
      "alert": "OK",
      "vis_m": 9999,
      "fzfg": false,
      "metar_trigger": false,
      "taf_trigger": false,
      "metar": "METAR LEMG 061500Z 31007KT 280V340 9999 FEW052 17/09 Q1008 NOSIG",
      "taf": "TAF LEMG 061100Z 0612/0712 VRB03KT 9999 FEW030 TX20/0614Z TN10/0707Z"
    },
    {
      "icao": "LEVC",
      "alert": "OK",
      "vis_m": 9999,
      "fzfg": false,
      "metar_trigger": false,
      "taf_trigger": false,
      "metar": "METAR LEVC 061500Z 25016KT 210V280 9999 FEW050 18/05 Q1002 NOSIG",
      "taf": "TAF LEVC 061100Z 0612/0712 26015KT 9999 FEW030 TX20/0614Z TN08/0706Z"
    },
    {
      "icao": "LEXJ",
      "alert": "OK",
      "vis_m": 9999,
      "fzfg": false,
      "metar_trigger": false,
      "taf_trigger": false,
      "metar": "METAR LEXJ 061500Z 22010G22KT 160V260 9999 FEW070 16/03 Q0995",
      "taf": "TAF LEXJ 061400Z 0615/0715 20009KT 9999 FEW060 TX14/0712Z TN09/0703Z"
    },
    {
      "icao": "LEZG",
      "alert": "OK",
      "vis_m": 9999,
      "fzfg": false,
      "metar_trigger": false,
      "taf_trigger": false,
      "metar": "METAR LEZG 061500Z 24008KT 9999 FEW055 14/04 Q1000 NOSIG",
      "taf": "TAF LEZG 061100Z 0612/0712 25010KT 9999 FEW040 TX16/0615Z TN07/0706Z"
    },
    {
      "icao": "LEZL",
      "alert": "OK",
      "vis_m": 9999,
      "fzfg": false,
      "metar_trigger": false,
      "taf_trigger": false,
      "metar": "METAR LEZL 061500Z 25016KT 220V280 9999 VCTS FEW032TCU SCT042CB 16/07 Q1008 NOSIG",
      "taf": "TAF LEZL 061400Z 0615/0715 24012KT 9999 SCT030 TX18/0615Z TN12/0707Z"
    },
    {
      "icao": "LFBD",
      "alert": "OK",
      "vis_m": 9999,
      "fzfg": false,
      "metar_trigger": false,
      "taf_trigger": false,
      "metar": "METAR LFBD 061500Z AUTO 26011KT 9999 FEW041 SCT056 15/06 Q0998 BECMG 15005KT",
      "taf": "TAF LFBD 061100Z 0612/0718 24010KT 9999 BKN030 TX15/0614Z TN06/0704Z"
    },
    {
      "icao": "LFLL",
      "alert": "OK",
      "vis_m": 9999,
      "fzfg": false,
      "metar_trigger": false,
      "taf_trigger": false,
      "metar": "METAR LFLL 061500Z 19009KT 9999 FEW046 SCT066 BKN160 13/06 Q0997 NOSIG",
      "taf": "TAF LFLL 061100Z 0612/0718 19008KT CAVOK"
    },
    {
      "icao": "LFLS",
      "alert": "OK",
      "vis_m": 9999,
      "fzfg": false,
      "metar_trigger": false,
      "taf_trigger": false,
      "metar": "METAR LFLS 061500Z AUTO 17006KT 9999 BKN054 BKN150 12/05 Q0998 TEMPO 4000 SHRA SCT040TCU BKN050",
      "taf": "TAF LFLS 061400Z 0615/0715 08007KT 9999 SCT050"
    },
    {
      "icao": "LFMN",
      "alert": "OK",
      "vis_m": 9999,
      "fzfg": false,
      "metar_trigger": false,
      "taf_trigger": false,
      "metar": "METAR LFMN 061500Z 18003KT CAVOK 15/09 Q0995 NOSIG",
      "taf": "TAF LFMN 061400Z 0615/0721 15004KT CAVOK"
    },
    {
      "icao": "LFOB",
      "alert": "OK",
      "vis_m": 9999,
      "fzfg": false,
      "metar_trigger": false,
      "taf_trigger": false,
      "metar": "METAR LFOB 061500Z AUTO 21009KT 9999 FEW027/// SCT043/// ///TCU 13/08 Q0990 TEMPO 2500 SHRA SCT020CB",
      "taf": "TAF LFOB 061100Z 0612/0712 22007KT 9999 BKN020"
    },
    {
      "icao": "LFPO",
      "alert": "OK",
      "vis_m": 9999,
      "fzfg": false,
      "metar_trigger": false,
      "taf_trigger": false,
      "metar": "METAR LFPO 061500Z 23011KT 9999 FEW021TCU SCT070 12/09 Q0992 TEMPO 4000 -SHRA BKN020TCU",
      "taf": "TAF LFPO 061100Z 0612/0718 22012KT 9999 BKN020"
    },
    {
      "icao": "LFSB",
      "alert": "OK",
      "vis_m": 9999,
      "fzfg": false,
      "metar_trigger": false,
      "taf_trigger": false,
      "metar": "METAR LFSB 061500Z AUTO 23008KT 200V260 9999 FEW033 OVC052 12/07 Q0996 TEMPO SCT025TCU",
      "taf": "TAF LFSB 061100Z 0612/0712 24010KT 9999 SCT020 BKN040"
    },
    {
      "icao": "LGAV",
      "alert": "OK",
      "vis_m": 9999,
      "fzfg": false,
      "metar_trigger": false,
      "taf_trigger": false,
      "metar": "METAR LGAV 061450Z 20009KT 9999 FEW020 SCT060 17/12 Q1000 NOSIG",
      "taf": "TAF LGAV 061100Z 0612/0712 22012KT 9999 FEW025"
    },
    {
      "icao": "LGTS",
      "alert": "OK",
      "vis_m": 5000,
      "fzfg": false,
      "metar_trigger": false,
      "taf_trigger": false,
      "metar": "METAR LGTS 061450Z 26005KT 5000 2500E -RA SCT004 BKN020 11/11 Q0999 NOSIG",
      "taf": "TAF LGTS 061100Z 0612/0712 VRB03KT 9999 FEW010 SCT025"
    },
    {
      "icao": "LHBP",
      "alert": "OK",
      "vis_m": 9000,
      "fzfg": false,
      "metar_trigger": false,
      "taf_trigger": false,
      "metar": "METAR LHBP 061500Z 07006KT 9000 FEW009 BKN100 08/06 Q0996 NOSIG",
      "taf": "TAF LHBP 061115Z 0612/0712 09008KT 8000 BKN015"
    },
    {
      "icao": "LHDC",
      "alert": "OK",
      "vis_m": 9999,
      "fzfg": false,
      "metar_trigger": false,
      "taf_trigger": false,
      "metar": "METAR LHDC 061445Z AUTO VRB02KT 9999 FEW041 11/06 Q0996 NOSIG",
      "taf": "TAF LHDC 061415Z 0615/0624 VRB02KT CAVOK"
    },
    {
      "icao": "LIBD",
      "alert": "OK",
      "vis_m": 9999,
      "fzfg": false,
      "metar_trigger": false,
      "taf_trigger": false,
      "metar": "METAR LIBD 061450Z 27015KT 250V310 9999 FEW030 19/07 Q0994",
      "taf": "TAF LIBD 061100Z 0612/0712 22018G28KT CAVOK"
    },
    {
      "icao": "LIBG",
      "alert": "OK",
      "vis_m": 9999,
      "fzfg": false,
      "metar_trigger": false,
      "taf_trigger": false,
      "metar": "METAR LIBG 061450Z 25010KT 220V280 CAVOK 19/10 Q0995",
      "taf": "TAF LIBG 061400Z 0615/0624 20009KT 9999 SCT030"
    },
    {
      "icao": "LIBP",
      "alert": "OK",
      "vis_m": 9999,
      "fzfg": false,
      "metar_trigger": false,
      "taf_trigger": false,
      "metar": "METAR LIBP 061450Z AUTO VRB05KT 9999 BKN066/// BKN100/// 17/07 Q0993",
      "taf": "TAF LIBP 061100Z 0612/0712 25013KT 9999 BKN030"
    },
    {
      "icao": "LIBR",
      "alert": "OK",
      "vis_m": 9999,
      "fzfg": false,
      "metar_trigger": false,
      "taf_trigger": false,
      "metar": "METAR LIBR 061450Z 25014KT CAVOK 20/09 Q0994",
      "taf": "TAF LIBR 061100Z 0612/0712 22018KT CAVOK"
    },
    {
      "icao": "LICA",
      "alert": "OK",
      "vis_m": 9000,
      "fzfg": false,
      "metar_trigger": false,
      "taf_trigger": false,
      "metar": "METAR LICA 061450Z AUTO 25018G29KT 9000 NCD 17/13 Q1001",
      "taf": "TAF LICA 061100Z 0612/0712 27020G30KT 9999 BKN020"
    },
    {
      "icao": "LICC",
      "alert": "OK",
      "vis_m": 9999,
      "fzfg": false,
      "metar_trigger": false,
      "taf_trigger": false,
      "metar": "METAR LICC 061450Z 27016KT 9999 FEW060 22/18 Q1003",
      "taf": "TAF LICC 061100Z 0612/0712 25015KT 9999 FEW040"
    },
    {
      "icao": "LICJ",
      "alert": "OK",
      "vis_m": 9999,
      "fzfg": false,
      "metar_trigger": false,
      "taf_trigger": false,
      "metar": "METAR LICJ 061450Z 24021KT 9999 FEW030 16/12 Q1004",
      "taf": "TAF LICJ 061100Z 0612/0712 26022KT 9999 FEW020"
    },
    {
      "icao": "LIMC",
      "alert": "OK",
      "vis_m": 9999,
      "fzfg": false,
      "metar_trigger": false,
      "taf_trigger": false,
      "metar": "METAR LIMC 061450Z 26006KT 230V290 CAVOK 13/06 Q0995 NOSIG",
      "taf": "TAF LIMC 061100Z 0612/0718 VRB05KT 9999 SCT030"
    },
    {
      "icao": "LIME",
      "alert": "OK",
      "vis_m": 9999,
      "fzfg": false,
      "metar_trigger": false,
      "taf_trigger": false,
      "metar": "METAR LIME 061450Z 25006KT 220V290 9999 FEW035 13/06 Q0994 NOSIG",
      "taf": "TAF LIME 061100Z 0612/0712 26010KT 9999 SCT070"
    },
    {
      "icao": "LIMF",
      "alert": "OK",
      "vis_m": 9999,
      "fzfg": false,
      "metar_trigger": false,
      "taf_trigger": false,
      "metar": "METAR LIMF 061450Z 17003KT 110V230 CAVOK 13/03 Q0995",
      "taf": "TAF LIMF 061100Z 0612/0712 VRB05KT CAVOK"
    },
    {
      "icao": "LIMJ",
      "alert": "OK",
      "vis_m": 9999,
      "fzfg": false,
      "metar_trigger": false,
      "taf_trigger": false,
      "metar": "METAR LIMJ 061450Z 27004KT CAVOK 14/08 Q0995",
      "taf": "TAF LIMJ 061100Z 0612/0712 02012KT 9999 SCT040"
    },
    {
      "icao": "LIPE",
      "alert": "OK",
      "vis_m": 9999,
      "fzfg": false,
      "metar_trigger": false,
      "taf_trigger": false,
      "metar": "METAR LIPE 061450Z 25005KT CAVOK 11/08 Q0995",
      "taf": "TAF LIPE 061100Z 0612/0712 VRB05KT 7000 BKN012"
    },
    {
      "icao": "LIPH",
      "alert": "OK",
      "vis_m": 9999,
      "fzfg": false,
      "metar_trigger": false,
      "taf_trigger": false,
      "metar": "METAR LIPH 061450Z 25005KT 9999 SCT060 11/08 Q0994",
      "taf": "TAF LIPH 061100Z 0612/0712 VRB05KT 8000 BKN040"
    },
    {
      "icao": "LIPQ",
      "alert": "OK",
      "vis_m": 9999,
      "fzfg": false,
      "metar_trigger": false,
      "taf_trigger": false,
      "metar": "METAR LIPQ 061450Z AUTO 31004KT 9999 BKN094/// 13/09 Q0993",
      "taf": "TAF LIPQ 061100Z 0612/0712 03005KT 9999 BKN040"
    },
    {
      "icao": "LIPR",
      "alert": "OK",
      "vis_m": 7000,
      "fzfg": false,
      "metar_trigger": false,
      "taf_trigger": false,
      "metar": "METAR LIPR 061450Z 29017KT 7000 -RA BKN007 SCT020 09/09 Q0995",
      "taf": "TAF LIPR 061100Z 0612/0712 33010KT 9999 BKN040"
    },
    {
      "icao": "LIPX",
      "alert": "OK",
      "vis_m": 9999,
      "fzfg": false,
      "metar_trigger": false,
      "taf_trigger": false,
      "metar": "METAR LIPX 061450Z 26008KT 220V280 9999 SCT090 11/08 Q0994",
      "taf": "TAF LIPX 061100Z 0612/0712 26010KT 9999 SCT070"
    },
    {
      "icao": "LIPY",
      "alert": "OK",
      "vis_m": 9999,
      "fzfg": false,
      "metar_trigger": false,
      "taf_trigger": false,
      "metar": "METAR LIPY 061450Z AUTO 30013KT 270V330 9999 OVC041/// 12/08 Q0994",
      "taf": "TAF LIPY 061100Z 0612/0712 28012KT 9999 BKN020"
    },
    {
      "icao": "LIPZ",
      "alert": "OK",
      "vis_m": 9999,
      "fzfg": false,
      "metar_trigger": false,
      "taf_trigger": false,
      "metar": "METAR LIPZ 061450Z 27005KT 230V310 9999 -RA SCT070 10/09 Q0994 NOSIG",
      "taf": "TAF LIPZ 061100Z 0612/0718 VRB05KT 9999 BKN020"
    },
    {
      "icao": "LIRF",
      "alert": "OK",
      "vis_m": 9999,
      "fzfg": false,
      "metar_trigger": false,
      "taf_trigger": false,
      "metar": "METAR LIRF 061450Z 29006KT CAVOK 16/10 Q0997 NOSIG",
      "taf": "TAF LIRF 061100Z 0612/0718 28010KT 9999 SCT030"
    },
    {
      "icao": "LIRN",
      "alert": "OK",
      "vis_m": 9999,
      "fzfg": false,
      "metar_trigger": false,
      "taf_trigger": false,
      "metar": "METAR LIRN 061450Z 27010KT 220V310 9999 SCT030 16/11 Q0997 NOSIG",
      "taf": "TAF LIRN 061100Z 0612/0712 26016KT 9999 SCT030"
    },
    {
      "icao": "LIRP",
      "alert": "OK",
      "vis_m": 9999,
      "fzfg": false,
      "metar_trigger": false,
      "taf_trigger": false,
      "metar": "METAR LIRP 061445Z 23007KT CAVOK 15/08 Q0995 NOSIG",
      "taf": "TAF LIRP 061100Z 0612/0712 27005KT CAVOK"
    },
    {
      "icao": "LIRZ",
      "alert": "OK",
      "vis_m": 9999,
      "fzfg": false,
      "metar_trigger": false,
      "taf_trigger": false,
      "metar": "METAR LIRZ 061450Z AUTO 25009KT 9999 BKN026/// 12/09 Q0996",
      "taf": "TAF LIRZ 061100Z 0612/0712 24012KT 9999 BKN040"
    },
    {
      "icao": "LJLJ",
      "alert": "OK",
      "vis_m": 9999,
      "fzfg": false,
      "metar_trigger": false,
      "taf_trigger": false,
      "metar": "METAR LJLJ 061500Z VRB02KT 9999 FEW008 SCT035 BKN120 07/05 Q0994 NOSIG",
      "taf": "TAF LJLJ 061100Z 0612/0712 VRB02KT 9999 FEW004 BKN045"
    },
    {
      "icao": "LKMT",
      "alert": "OK",
      "vis_m": 3500,
      "fzfg": false,
      "metar_trigger": false,
      "taf_trigger": false,
      "metar": "METAR LKMT 061500Z VRB02KT 3500 BR BKN033 04/02 Q0995 NOSIG",
      "taf": "TAF LKMT 061100Z 0612/0712 VRB02KT 4500 BR OVC035"
    },
    {
      "icao": "LKPR",
      "alert": "OK",
      "vis_m": 800,
      "fzfg": false,
      "metar_trigger": false,
      "taf_trigger": false,
      "metar": "METAR LKPR 061500Z 26003KT 0800 R24/1100U R30/P2000N FG FEW001 BKN002 OVC016 03/03 Q0994 NOSIG",
      "taf": "TAF LKPR 061400Z 0615/0721 25004KT 0600 FG SCT001 BKN002"
    },
    {
      "icao": "LLBG",
      "alert": "OK",
      "vis_m": 9999,
      "fzfg": false,
      "metar_trigger": false,
      "taf_trigger": false,
      "metar": "METAR LLBG 061450Z 24005KT CAVOK 21/05 Q1012 NOSIG RMK BKN100",
      "taf": "TAF LLBG 061104Z 0612/0712 22010KT CAVOK"
    },
    {
      "icao": "LMML",
      "alert": "OK",
      "vis_m": 9999,
      "fzfg": false,
      "metar_trigger": false,
      "taf_trigger": false,
      "metar": "METAR LMML 061445Z 29019KT CAVOK 19/11 Q1006 NOSIG",
      "taf": "TAF LMML 061100Z 0612/0712 28016KT 9999 FEW018"
    },
    {
      "icao": "LOWW",
      "alert": "OK",
      "vis_m": 9999,
      "fzfg": false,
      "metar_trigger": false,
      "taf_trigger": false,
      "metar": "METAR LOWW 061450Z 31007KT 260V020 9999 FEW017 BKN019 06/02 Q0995 NOSIG",
      "taf": "TAF LOWW 061415Z 0615/0721 31010KT 9999 BKN025 TX06/0714Z TN03/0623Z"
    },
    {
      "icao": "LPFR",
      "alert": "OK",
      "vis_m": 9999,
      "fzfg": false,
      "metar_trigger": false,
      "taf_trigger": false,
      "metar": "METAR LPFR 061500Z 27015KT 9999 VCSH FEW018 FEW022CB SCT035 14/10 Q1009",
      "taf": "TAF LPFR 061100Z 0612/0712 26017KT 9999 SCT025"
    },
    {
      "icao": "LPMA",
      "alert": "OK",
      "vis_m": 9999,
      "fzfg": false,
      "metar_trigger": false,
      "taf_trigger": false,
      "metar": "METAR LPMA 061500Z VRB06KT 9999 FEW015 20/08 Q1018",
      "taf": "TAF LPMA 061100Z 0612/0712 VRB05KT 9999 SCT015"
    },
    {
      "icao": "LPPR",
      "alert": "OK",
      "vis_m": 9999,
      "fzfg": false,
      "metar_trigger": false,
      "taf_trigger": false,
      "metar": "METAR LPPR 061500Z 24014KT 210V270 9999 FEW020CB BKN030 13/07 Q1001",
      "taf": "TAF LPPR 061100Z 0612/0712 25015KT 9999 SCT025"
    },
    {
      "icao": "LPPS",
      "alert": "OK",
      "vis_m": 9999,
      "fzfg": false,
      "metar_trigger": false,
      "taf_trigger": false,
      "metar": "METAR LPPS 061500Z 29018KT 9999 SCT015 18/09 Q1019",
      "taf": "TAF LPPS 061100Z 0612/0718 29018KT 9999 SCT015"
    },
    {
      "icao": "LPPT",
      "alert": "OK",
      "vis_m": 6000,
      "fzfg": false,
      "metar_trigger": false,
      "taf_trigger": false,
      "metar": "METAR LPPT 061500Z COR 28013G23KT 240V320 6000 -SHRA FEW025 SCT030CB SCT032 11/08 Q1006",
      "taf": "TAF LPPT 061100Z 0612/0718 26015KT 9999 SCT025"
    },
    {
      "icao": "LQBK",
      "alert": "OK",
      "vis_m": 6000,
      "fzfg": false,
      "metar_trigger": false,
      "taf_trigger": false,
      "metar": "METAR LQBK 061500Z VRB02KT 6000 -RA FEW004 SCT030 BKN047 08/07 Q0994 NOSIG",
      "taf": ""
    },
    {
      "icao": "LQSA",
      "alert": "OK",
      "vis_m": 9999,
      "fzfg": false,
      "metar_trigger": false,
      "taf_trigger": false,
      "metar": "METAR LQSA 061500Z VRB03KT 9999 -RA FEW035 SCT040 BKN050 09/07 Q0993 NOSIG",
      "taf": ""
    },
    {
      "icao": "LQTZ",
      "alert": "OK",
      "vis_m": 9999,
      "fzfg": false,
      "metar_trigger": false,
      "taf_trigger": false,
      "metar": "METAR LQTZ 061500Z 12005KT 9999 FEW030 BKN058 09/08 Q0994",
      "taf": "TAF LQTZ 061100Z 0612/0712 VRB02KT 7000 SCT035 BKN050 TX08/0613Z TN03/0705Z"
    },
    {
      "icao": "LRBC",
      "alert": "OK",
      "vis_m": 9999,
      "fzfg": false,
      "metar_trigger": false,
      "taf_trigger": false,
      "metar": "METAR LRBC 061500Z 15006KT 9999 OVC007 01/01 Q1000",
      "taf": "TAF LRBC 061400Z 0615/0624 VRB04KT 9999 BKN010"
    },
    {
      "icao": "LRBS",
      "alert": "OK",
      "vis_m": 9999,
      "fzfg": false,
      "metar_trigger": false,
      "taf_trigger": false,
      "metar": "METAR LRBS 061500Z 07007KT 9999 OVC005 04/03 Q1000 NOSIG",
      "taf": "TAF LRBS 061100Z 0612/0712 08012KT 9999 OVC005"
    },
    {
      "icao": "LRBV",
      "alert": "OK",
      "vis_m": 9999,
      "fzfg": false,
      "metar_trigger": false,
      "taf_trigger": false,
      "metar": "METAR LRBV 061500Z 08005KT 9999 FEW045 08/03 Q0996",
      "taf": "TAF LRBV 061400Z 0615/0624 VRB04KT 9999 SCT045"
    },
    {
      "icao": "LRCL",
      "alert": "OK",
      "vis_m": 9999,
      "fzfg": false,
      "metar_trigger": false,
      "taf_trigger": false,
      "metar": "METAR LRCL 061500Z 06003KT CAVOK 10/05 Q0996",
      "taf": "TAF LRCL 061400Z 0615/0624 VRB04KT CAVOK"
    },
    {
      "icao": "LRCV",
      "alert": "OK",
      "vis_m": 5000,
      "fzfg": false,
      "metar_trigger": false,
      "taf_trigger": false,
      "metar": "METAR LRCV 061500Z 11009KT 5000 BR BKN003 OVC006 05/05 Q0998",
      "taf": "TAF LRCV 061400Z 0615/0624 11006KT 9999 BKN005 OVC010"
    },
    {
      "icao": "LRIA",
      "alert": "OK",
      "vis_m": 9999,
      "fzfg": false,
      "metar_trigger": false,
      "taf_trigger": false,
      "metar": "METAR LRIA 061500Z 10009KT 9999 BKN005 OVC015 M01/M03 Q1001",
      "taf": "TAF LRIA 061400Z 0615/0624 09008KT 9999 BKN005 OVC020"
    },
    {
      "icao": "LROP",
      "alert": "OK",
      "vis_m": 9999,
      "fzfg": false,
      "metar_trigger": false,
      "taf_trigger": false,
      "metar": "METAR LROP 061500Z 09007KT 9999 OVC005 04/04 Q1000 NOSIG",
      "taf": "TAF LROP 061100Z 0612/0712 08012KT 9999 OVC005"
    },
    {
      "icao": "LRSB",
      "alert": "OK",
      "vis_m": 9999,
      "fzfg": false,
      "metar_trigger": false,
      "taf_trigger": false,
      "metar": "METAR LRSB 061500Z 10005KT 9999 SCT070 09/03 Q0995 NOSIG",
      "taf": "TAF LRSB 061100Z 0612/0712 VRB04KT 9999 SCT050"
    },
    {
      "icao": "LRSM",
      "alert": "OK",
      "vis_m": 9999,
      "fzfg": false,
      "metar_trigger": false,
      "taf_trigger": false,
      "metar": "METAR LRSM 061500Z 32005KT CAVOK 10/07 Q0996",
      "taf": "TAF LRSM 061400Z 0615/0624 VRB04KT CAVOK"
    },
    {
      "icao": "LRSV",
      "alert": "CRITICAL",
      "vis_m": 50,
      "fzfg": true,
      "metar_trigger": true,
      "taf_trigger": false,
      "metar": "METAR LRSV 061500Z 09009KT 0050 R34/0250N FZFG VV001 M02/M02 Q0999",
      "taf": "TAF LRSV 061400Z 0615/0624 09010KT 0300 FZFG OVC001"
    },
    {
      "icao": "LRTM",
      "alert": "OK",
      "vis_m": 9999,
      "fzfg": false,
      "metar_trigger": false,
      "taf_trigger": false,
      "metar": "METAR LRTM 061500Z 34003KT 300V360 CAVOK 12/04 Q0996",
      "taf": "TAF LRTM 061400Z 0615/0624 VRB04KT CAVOK"
    },
    {
      "icao": "LRTR",
      "alert": "OK",
      "vis_m": 9999,
      "fzfg": false,
      "metar_trigger": false,
      "taf_trigger": false,
      "metar": "METAR LRTR 061500Z 22005KT CAVOK 12/06 Q0995",
      "taf": "TAF LRTR 061100Z 0612/0712 VRB04KT CAVOK"
    },
    {
      "icao": "LTAC",
      "alert": "OK",
      "vis_m": 9999,
      "fzfg": false,
      "metar_trigger": false,
      "taf_trigger": false,
      "metar": "METAR LTAC 061450Z 19010KT 9999 -SHRA BKN023 BKN080 07/05 Q1006 NOSIG RMK RWY21C 18009KT RWY03L 19008KT RWY21R 18009KT RWY03R 18010KT RWY21L 18010KT",
      "taf": "TAF LTAC 061040Z 0612/0712 18010KT 9999 BKN035 BKN080"
    },
    {
      "icao": "LTFM",
      "alert": "OK",
      "vis_m": 9999,
      "fzfg": false,
      "metar_trigger": false,
      "taf_trigger": false,
      "metar": "METAR LTFM 061450Z 21012KT 9999 FEW032 SCT180 14/08 Q1000 NOSIG RMK RWY17L 22010G26KT RWY34L 21010KT RWY16R 21011KT RWY36 21012KT RWY18 22015KT",
      "taf": "TAF LTFM 061040Z 0612/0718 22015KT 9999 FEW028 SCT080"
    },
    {
      "icao": "LUKK",
      "alert": "OK",
      "vis_m": 9999,
      "fzfg": false,
      "metar_trigger": false,
      "taf_trigger": false,
      "metar": "METAR LUKK 061500Z 07009KT 9999 -FZRA OVC006 M03/M03 Q1002 TEMPO 3000 FZRA BKN004",
      "taf": "TAF LUKK 061101Z 0612/0712 07010KT 9999 BKN008"
    },
    {
      "icao": "LWOH",
      "alert": "OK",
      "vis_m": 9999,
      "fzfg": false,
      "metar_trigger": false,
      "taf_trigger": false,
      "metar": "METAR LWOH 061450Z 27004KT 220V330 9999 VCTS FEW015 SCT035CB OVC045 06/06 Q0996",
      "taf": "TAF LWOH 061430Z 0615/0715 19010KT 7000 RA SCT015 OVC035"
    },
    {
      "icao": "LWSK",
      "alert": "OK",
      "vis_m": 9999,
      "fzfg": false,
      "metar_trigger": false,
      "taf_trigger": false,
      "metar": "METAR LWSK 061450Z VRB01KT 9999 SCT014 BKN040 BKN071 10/08 Q0997 NOSIG",
      "taf": "TAF LWSK 061430Z 0615/0715 VRB02KT 9999 SCT015 BKN040 BKN070"
    },
    {
      "icao": "LYBE",
      "alert": "OK",
      "vis_m": 9999,
      "fzfg": false,
      "metar_trigger": false,
      "taf_trigger": false,
      "metar": "METAR LYBE 061500Z 14010KT CAVOK 12/05 Q0995 NOSIG",
      "taf": "TAF LYBE 061100Z 0612/0712 12008KT CAVOK TX14/0613Z TN04/0706Z"
    },
    {
      "icao": "LYNI",
      "alert": "OK",
      "vis_m": 9999,
      "fzfg": false,
      "metar_trigger": false,
      "taf_trigger": false,
      "metar": "METAR LYNI 061500Z 09007KT 9999 RA FEW017 OVC040 09/08 Q0996 NOSIG",
      "taf": "TAF LYNI 061100Z 0612/0712 08007KT 9999 BKN040 OVC070 TX12/0612Z TN05/0706Z"
    },
    {
      "icao": "LYPG",
      "alert": "OK",
      "vis_m": 8000,
      "fzfg": false,
      "metar_trigger": false,
      "taf_trigger": false,
      "metar": "METAR LYPG 061500Z 35006KT 320V030 8000 -SHRA FEW007 FEW024TCU BKN030 10/10 Q0994 RESHRA NOSIG",
      "taf": "TAF LYPG 061100Z 0612/0712 16005KT 6000 FEW007 BKN030 OVC070 TX13/0712Z TN08/0705Z"
    },
    {
      "icao": "LZIB",
      "alert": "OK",
      "vis_m": 9999,
      "fzfg": false,
      "metar_trigger": false,
      "taf_trigger": false,
      "metar": "METAR LZIB 061500Z VRB02KT 9999 BKN015 BKN023 08/06 Q0995 NOSIG",
      "taf": "TAF LZIB 061115Z 0612/0712 12007KT 9999 SCT013 BKN020"
    },
    {
      "icao": "LZKZ",
      "alert": "OK",
      "vis_m": 9999,
      "fzfg": false,
      "metar_trigger": false,
      "taf_trigger": false,
      "metar": "METAR LZKZ 061500Z 36002KT 9999 SCT033 BKN044 07/05 Q0996 NOSIG",
      "taf": "TAF LZKZ 061115Z 0612/0712 VRB02KT 9999 SCT020 BKN030"
    },
    {
      "icao": "LZTT",
      "alert": "OK",
      "vis_m": 9999,
      "fzfg": false,
      "metar_trigger": false,
      "taf_trigger": false,
      "metar": "METAR LZTT 061500Z 00000KT 9999 FEW006 BKN009 04/03 Q0995 TEMPO BKN005",
      "taf": ""
    },
    {
      "icao": "OEJN",
      "alert": "OK",
      "vis_m": 9999,
      "fzfg": false,
      "metar_trigger": false,
      "taf_trigger": false,
      "metar": "METAR OEJN 061500Z 28005KT 9999 FEW040 27/17 Q1012 NOSIG",
      "taf": "TAF OEJN 061100Z 0612/0718 25010KT 7000 SCT040"
    },
    {
      "icao": "OEMA",
      "alert": "OK",
      "vis_m": 9999,
      "fzfg": false,
      "metar_trigger": false,
      "taf_trigger": false,
      "metar": "METAR OEMA 061500Z 23009KT 9999 SCT040 27/08 Q1015 NOSIG",
      "taf": "TAF OEMA 061100Z 0612/0718 24012KT 7000 SCT040"
    },
    {
      "icao": "OJAI",
      "alert": "OK",
      "vis_m": 5000,
      "fzfg": false,
      "metar_trigger": false,
      "taf_trigger": false,
      "metar": "METAR OJAI 061500Z 24008KT 5000 HZ NSC 18/00 Q1014 NOSIG",
      "taf": "TAF OJAI 061044Z 0612/0718 25010KT 4000 DU FEW040"
    },
    {
      "icao": "OMAA",
      "alert": "OK",
      "vis_m": 9999,
      "fzfg": false,
      "metar_trigger": false,
      "taf_trigger": false,
      "metar": "METAR OMAA 061500Z 01008KT CAVOK 22/14 Q1019 NOSIG",
      "taf": "TAF OMAA 061100Z 0612/0718 33010KT 8000 NSC"
    },
    {
      "icao": "OMDB",
      "alert": "OK",
      "vis_m": 9999,
      "fzfg": false,
      "metar_trigger": false,
      "taf_trigger": false,
      "metar": "METAR OMDB 061500Z 02005KT 340V080 CAVOK 23/17 Q1019 NOSIG",
      "taf": "TAF OMDB 061100Z 0612/0718 33010KT 8000 NSC"
    },
    {
      "icao": "UAAA",
      "alert": "OK",
      "vis_m": 2100,
      "fzfg": false,
      "metar_trigger": false,
      "taf_trigger": false,
      "metar": "METAR UAAA 061500Z 20003MPS 170V240 2100 -SHSN BR BKN007 BKN015CB OVC100 00/M00 Q1029 NOSIG",
      "taf": "TAF UAAA 061102Z 0612/0712 01003G08MPS 1200 -SHSNRA BR BKN011CB OVC020 TX02/0707Z TNM04/0702Z"
    },
    {
      "icao": "UBBB",
      "alert": "OK",
      "vis_m": 9999,
      "fzfg": false,
      "metar_trigger": false,
      "taf_trigger": false,
      "metar": "METAR UBBB 061500Z 16008KT 9999 -DZ OVC013 06/03 Q1020 NOSIG",
      "taf": "TAF UBBB 061044Z 0612/0712 15014KT 9999 BKN020 TX06/0612Z TN03/0700Z"
    },
    {
      "icao": "UDSG",
      "alert": "OK",
      "vis_m": 9999,
      "fzfg": false,
      "metar_trigger": false,
      "taf_trigger": false,
      "metar": "METAR UDSG 061500Z 13002KT 9999 SCT049 M03/M06 Q1019 NOSIG",
      "taf": "TAF UDSG 061100Z 0612/0712 VRB06KT 9999 SCT040"
    },
    {
      "icao": "UDYZ",
      "alert": "OK",
      "vis_m": 9999,
      "fzfg": false,
      "metar_trigger": false,
      "taf_trigger": false,
      "metar": "METAR UDYZ 061500Z VRB01KT 9999 FEW046 04/M02 Q1020 NOSIG",
      "taf": "TAF UDYZ 061100Z 0612/0712 VRB06KT 9999 FEW040"
    },
    {
      "icao": "UGKO",
      "alert": "OK",
      "vis_m": 9999,
      "fzfg": false,
      "metar_trigger": false,
      "taf_trigger": false,
      "metar": "METAR UGKO 061500Z 09017KT CAVOK 13/M03 Q1010 NOSIG",
      "taf": "TAF UGKO 061100Z 0612/0712 08022G33KT CAVOK TX18/0711Z TN09/0703Z"
    }
  ]
}