{
  "ts_utc": "2026-01-07T10:54:16Z",
  "threshold_m": 150,
  "source": "stations_override.txt (ICAO list) + aviationweather.gov (METAR/TAF raw)",
  "station_count": 159,
  "stations": [
    {
      "icao": "BIKF",
      "alert": "OK",
      "vis_m": 9999,
      "fzfg": false,
      "metar_trigger": false,
      "taf_trigger": false,
      "metar": "METAR BIKF 071030Z 08019KT 9999 FEW047 BKN250 M02/M07 Q1007",
      "taf": "TAF BIKF 071030Z 0712/0812 08020KT 9999 FEW035 SCT045 TX02/0812Z TNM04/0720Z"
    },
    {
      "icao": "BKPR",
      "alert": "OK",
      "vis_m": null,
      "fzfg": false,
      "metar_trigger": false,
      "taf_trigger": false,
      "metar": "",
      "taf": ""
    },
    {
      "icao": "EBCI",
      "alert": "OK",
      "vis_m": 2000,
      "fzfg": false,
      "metar_trigger": false,
      "taf_trigger": false,
      "metar": "METAR EBCI 071020Z 19015KT 2000 -SN SCT005 BKN007 M02/M03 Q1007 BECMG 7000 NSW",
      "taf": "TAF EBCI 070500Z 0706/0812 19017G30KT 9999 SCT007 BKN010"
    },
    {
      "icao": "EDDB",
      "alert": "OK",
      "vis_m": 9999,
      "fzfg": false,
      "metar_trigger": false,
      "taf_trigger": false,
      "metar": "METAR EDDB 071050Z AUTO 17006KT CAVOK M05/M07 Q1015 NOSIG",
      "taf": "TAF EDDB 070500Z 0706/0806 18007KT CAVOK"
    },
    {
      "icao": "EDDH",
      "alert": "OK",
      "vis_m": 9999,
      "fzfg": false,
      "metar_trigger": false,
      "taf_trigger": false,
      "metar": "METAR EDDH 071050Z AUTO 16015KT 9999 BKN032 M02/M05 Q1008 NOSIG",
      "taf": "TAF EDDH 070500Z 0706/0812 18011KT CAVOK"
    },
    {
      "icao": "EDDK",
      "alert": "OK",
      "vis_m": 9999,
      "fzfg": false,
      "metar_trigger": false,
      "taf_trigger": false,
      "metar": "METAR EDDK 071050Z AUTO 17014KT CAVOK M00/M05 Q1010 NOSIG",
      "taf": "TAF EDDK 070500Z 0706/0812 14007KT 9999 BKN020"
    },
    {
      "icao": "EDDN",
      "alert": "OK",
      "vis_m": 9999,
      "fzfg": false,
      "metar_trigger": false,
      "taf_trigger": false,
      "metar": "METAR EDDN 071050Z AUTO 17004KT 140V200 9999 FEW012 M04/M08 Q1015 NOSIG",
      "taf": ""
    },
    {
      "icao": "EDDS",
      "alert": "OK",
      "vis_m": 9999,
      "fzfg": false,
      "metar_trigger": false,
      "taf_trigger": false,
      "metar": "METAR EDDS 071050Z AUTO 12004KT CAVOK M04/M08 Q1013 NOSIG",
      "taf": "TAF EDDS 070500Z 0706/0806 VRB03KT 9999 SCT030"
    },
    {
      "icao": "EDFH",
      "alert": "OK",
      "vis_m": 9999,
      "fzfg": false,
      "metar_trigger": false,
      "taf_trigger": false,
      "metar": "METAR EDFH 071020Z 19012KT 9999 SCT011 M05/M08 Q1010",
      "taf": "TAF EDFH 070500Z 0706/0806 21011KT 8000 BKN010"
    },
    {
      "icao": "EDJA",
      "alert": "OK",
      "vis_m": 9999,
      "fzfg": false,
      "metar_trigger": false,
      "taf_trigger": false,
      "metar": "METAR EDJA 071020Z 18003KT 9999 FEW021 OVC037 M06/M08 Q1013",
      "taf": "TAF EDJA 070800Z 0709/0718 21004KT 9999 SCT012 BKN040"
    },
    {
      "icao": "EDLW",
      "alert": "OK",
      "vis_m": 9999,
      "fzfg": false,
      "metar_trigger": false,
      "taf_trigger": false,
      "metar": "METAR EDLW 071020Z 17018KT CAVOK M01/M05 Q1008",
      "taf": "TAF EDLW 070500Z 0706/0806 18015G25KT 9999 BKN020"
    },
    {
      "icao": "EDNY",
      "alert": "OK",
      "vis_m": 9999,
      "fzfg": false,
      "metar_trigger": false,
      "taf_trigger": false,
      "metar": "METAR EDNY 071020Z 00000KT 9999 -SN FEW012 SCT014 OVC021 M04/M06 Q1015",
      "taf": "TAF EDNY 070800Z 0709/0718 04002KT 9999 BKN020"
    },
    {
      "icao": "EDSB",
      "alert": "OK",
      "vis_m": 9999,
      "fzfg": false,
      "metar_trigger": false,
      "taf_trigger": false,
      "metar": "METAR EDSB 071020Z 23006KT CAVOK M04/M07 Q1016",
      "taf": "TAF EDSB 070500Z 0706/0806 20005KT 9999 BKN040"
    },
    {
      "icao": "EETN",
      "alert": "OK",
      "vis_m": 9999,
      "fzfg": false,
      "metar_trigger": false,
      "taf_trigger": false,
      "metar": "METAR EETN 071050Z 00000KT 9999 BKN020 M08/M09 Q1015 NOSIG",
      "taf": "TAF EETN 070530Z 0706/0806 VRB02KT 8000 SCT008 BKN025"
    },
    {
      "icao": "EFTU",
      "alert": "OK",
      "vis_m": 9999,
      "fzfg": false,
      "metar_trigger": false,
      "taf_trigger": false,
      "metar": "METAR EFTU 071050Z AUTO 08008KT 9999 BKN027 M06/M07 Q1015",
      "taf": "TAF EFTU 070826Z 0709/0809 09007KT 9999 BKN025"
    },
    {
      "icao": "EGBB",
      "alert": "OK",
      "vis_m": 9999,
      "fzfg": false,
      "metar_trigger": false,
      "taf_trigger": false,
      "metar": "METAR EGBB 071020Z 29010KT 9999 BKN027 05/M00 Q1004",
      "taf": "TAF EGBB 070459Z 0706/0806 28010KT 9999 SCT040"
    },
    {
      "icao": "EGGP",
      "alert": "OK",
      "vis_m": 9999,
      "fzfg": false,
      "metar_trigger": false,
      "taf_trigger": false,
      "metar": "METAR EGGP 071020Z 29020KT 9999 FEW023 SCT029 05/01 Q1004",
      "taf": "TAF EGGP 070503Z 0706/0806 29015KT 9999 FEW015 SCT025"
    },
    {
      "icao": "EGGW",
      "alert": "OK",
      "vis_m": 9999,
      "fzfg": false,
      "metar_trigger": false,
      "taf_trigger": false,
      "metar": "METAR EGGW 071020Z AUTO 27013KT 9999 SCT029 BKN035 BKN043 03/01 Q1003",
      "taf": "TAF EGGW 070455Z 0706/0806 28012KT 9999 SCT030"
    },
    {
      "icao": "EGKK",
      "alert": "OK",
      "vis_m": 9999,
      "fzfg": false,
      "metar_trigger": false,
      "taf_trigger": false,
      "metar": "METAR EGKK 071020Z 25008KT CAVOK 03/01 Q1006",
      "taf": "TAF EGKK 070454Z 0706/0812 27009KT 9999 FEW045"
    },
    {
      "icao": "EGNM",
      "alert": "OK",
      "vis_m": 9999,
      "fzfg": false,
      "metar_trigger": false,
      "taf_trigger": false,
      "metar": "METAR EGNM 071020Z 28019KT 9999 FEW014 03/00 Q0999",
      "taf": "TAF EGNM 070502Z 0706/0806 28010KT 9999 FEW015 SCT025"
    },
    {
      "icao": "EGPD",
      "alert": "OK",
      "vis_m": 9999,
      "fzfg": false,
      "metar_trigger": false,
      "taf_trigger": false,
      "metar": "METAR EGPD 071020Z AUTO 07009KT 9999 BKN020/// OVC038/// //////TCU 04/00 Q1001",
      "taf": "TAF EGPD 070459Z 0706/0806 03012KT 9999 BKN015"
    },
    {
      "icao": "EGPF",
      "alert": "OK",
      "vis_m": 9999,
      "fzfg": false,
      "metar_trigger": false,
      "taf_trigger": false,
      "metar": "METAR EGPF 071020Z AUTO 31014KT 9999 NCD 04/M00 Q1002",
      "taf": "TAF EGPF 070454Z 0706/0806 29010KT 9999 SCT025"
    },
    {
      "icao": "EHBK",
      "alert": "OK",
      "vis_m": 900,
      "fzfg": false,
      "metar_trigger": false,
      "taf_trigger": false,
      "metar": "METAR EHBK 071025Z AUTO 19018KT 150V220 0900 R21/1000D SN FEW005/// BKN006/// OVC008/// M02/M03 Q1007 BECMG 3000 -SN",
      "taf": "TAF EHBK 070521Z 0706/0812 19016G26KT CAVOK"
    },
    {
      "icao": "EHEH",
      "alert": "OK",
      "vis_m": 1600,
      "fzfg": false,
      "metar_trigger": false,
      "taf_trigger": false,
      "metar": "SPECI EHEH 071015Z AUTO 19015KT 1600 R21/1400N -SN FEW005 SCT008 BKN009 M01/M02 Q1006 YLO TTEMPO 0400 SN BLSN SCT001 BKN003 OVC005 RMK TREND REMOTE BY EHWX LVP B",
      "taf": ""
    },
    {
      "icao": "EKBI",
      "alert": "OK",
      "vis_m": 3300,
      "fzfg": false,
      "metar_trigger": false,
      "taf_trigger": false,
      "metar": "METAR EKBI 071050Z AUTO 14012KT 3300 -SN OVC006/// M02/M02 Q1004",
      "taf": "TAF EKBI 070827Z 0709/0809 17010KT 9999 BKN008"
    },
    {
      "icao": "EKCH",
      "alert": "OK",
      "vis_m": 9999,
      "fzfg": false,
      "metar_trigger": false,
      "taf_trigger": false,
      "metar": "METAR EKCH 071050Z AUTO 18017KT 9999 BKN018/// 00/M04 Q1010 NOSIG",
      "taf": "TAF EKCH 070827Z 0709/0809 17012KT 9999 BKN018"
    },
    {
      "icao": "ENAL",
      "alert": "OK",
      "vis_m": 9999,
      "fzfg": false,
      "metar_trigger": false,
      "taf_trigger": false,
      "metar": "METAR ENAL 071020Z 14006G18KT 100V210 CAVOK M04/M10 Q1009",
      "taf": "TAF ENAL 070800Z 0709/0718 14009KT CAVOK"
    },
    {
      "icao": "ENBR",
      "alert": "OK",
      "vis_m": 9999,
      "fzfg": false,
      "metar_trigger": false,
      "taf_trigger": false,
      "metar": "METAR ENBR 071020Z 00000KT CAVOK M07/M14 Q1007 NOSIG RMK WIND 1200FT 11005KT",
      "taf": "TAF ENBR 070500Z 0706/0806 06005KT CAVOK"
    },
    {
      "icao": "ENGM",
      "alert": "OK",
      "vis_m": 9999,
      "fzfg": false,
      "metar_trigger": false,
      "taf_trigger": false,
      "metar": "METAR ENGM 071020Z 03002KT 9999 -SN OVC020 M09/M11 Q1009 NOSIG",
      "taf": "TAF ENGM 070500Z 0706/0806 34003KT 9999 FEW015 BKN020"
    },
    {
      "icao": "ENHD",
      "alert": "OK",
      "vis_m": 9999,
      "fzfg": false,
      "metar_trigger": false,
      "taf_trigger": false,
      "metar": "METAR ENHD 071020Z 09010KT CAVOK M04/M11 Q1006",
      "taf": "TAF ENHD 070800Z 0709/0718 08009KT CAVOK"
    },
    {
      "icao": "ENTC",
      "alert": "OK",
      "vis_m": 9999,
      "fzfg": false,
      "metar_trigger": false,
      "taf_trigger": false,
      "metar": "METAR ENTC 071020Z 05003KT 010V080 CAVOK M12/M14 Q1024 NOSIG RMK WIND 2600FT 17015KT",
      "taf": "TAF ENTC 070500Z 0706/0806 VRB03KT CAVOK"
    },
    {
      "icao": "ENTO",
      "alert": "OK",
      "vis_m": 9999,
      "fzfg": false,
      "metar_trigger": false,
      "taf_trigger": false,
      "metar": "METAR ENTO 071020Z 36011KT 9999 BKN013 M10/M12 Q1009 NOSIG",
      "taf": ""
    },
    {
      "icao": "ENVA",
      "alert": "OK",
      "vis_m": 9999,
      "fzfg": false,
      "metar_trigger": false,
      "taf_trigger": false,
      "metar": "METAR ENVA 071020Z 10003KT 020V150 9999 FEW025 M13/M16 Q1015 NOSIG RMK WIND 670FT 08011KT",
      "taf": "TAF ENVA 070500Z 0706/0806 11008KT CAVOK"
    },
    {
      "icao": "ENZV",
      "alert": "OK",
      "vis_m": 9999,
      "fzfg": false,
      "metar_trigger": false,
      "taf_trigger": false,
      "metar": "METAR ENZV 071020Z 04003KT 360V090 CAVOK M03/M10 Q1005 NOSIG",
      "taf": "TAF ENZV 070500Z 0706/0806 08006KT CAVOK"
    },
    {
      "icao": "EPGD",
      "alert": "OK",
      "vis_m": 9000,
      "fzfg": false,
      "metar_trigger": false,
      "taf_trigger": false,
      "metar": "METAR EPGD 071030Z 24005KT 9000 SCT004 M06/M07 Q1015",
      "taf": ""
    },
    {
      "icao": "EPKK",
      "alert": "OK",
      "vis_m": 9999,
      "fzfg": false,
      "metar_trigger": false,
      "taf_trigger": false,
      "metar": "METAR EPKK 071030Z VRB02KT 9999 SCT014 BKN040 M04/M08 Q1015",
      "taf": "TAF EPKK 070830Z 0709/0809 30002KT 9999 BKN025"
    },
    {
      "icao": "EPKT",
      "alert": "OK",
      "vis_m": 9999,
      "fzfg": false,
      "metar_trigger": false,
      "taf_trigger": false,
      "metar": "METAR EPKT 071030Z 01006KT 9999 BKN015 M05/M08 Q1015",
      "taf": "TAF EPKT 070530Z 0706/0806 03006KT 6000 BKN018"
    },
    {
      "icao": "EPLB",
      "alert": "OK",
      "vis_m": 1800,
      "fzfg": false,
      "metar_trigger": false,
      "taf_trigger": false,
      "metar": "METAR EPLB 071030Z 02003KT 310V030 1800 -SN BR SCT038 BKN046 M05/M06 Q1015",
      "taf": ""
    },
    {
      "icao": "EPMO",
      "alert": "OK",
      "vis_m": 700,
      "fzfg": true,
      "metar_trigger": false,
      "taf_trigger": false,
      "metar": "METAR EPMO 071030Z 27005KT 0700 R08/0750U FZFG BKN001 M10/M11 Q1017",
      "taf": ""
    },
    {
      "icao": "EPPO",
      "alert": "OK",
      "vis_m": 8000,
      "fzfg": false,
      "metar_trigger": false,
      "taf_trigger": false,
      "metar": "METAR EPPO 071030Z 18005KT 8000 BKN034 M03/M05 Q1017",
      "taf": ""
    },
    {
      "icao": "EPRA",
      "alert": "OK",
      "vis_m": 4800,
      "fzfg": false,
      "metar_trigger": false,
      "taf_trigger": false,
      "metar": "METAR EPRA 071030Z 32004KT 4800 BR NSC M08/M10 Q1016",
      "taf": "TAF EPRA 070830Z 0709/0718 34005KT 5000 BR NSC"
    },
    {
      "icao": "EPRZ",
      "alert": "OK",
      "vis_m": 2500,
      "fzfg": false,
      "metar_trigger": false,
      "taf_trigger": false,
      "metar": "METAR EPRZ 071030Z 36007KT 2500 -SN BR OVC026 M04/M06 Q1014 RESN",
      "taf": ""
    },
    {
      "icao": "EPSC",
      "alert": "OK",
      "vis_m": 9000,
      "fzfg": false,
      "metar_trigger": false,
      "taf_trigger": false,
      "metar": "METAR EPSC 071030Z 15009KT 9000 NSC M05/M07 Q1015",
      "taf": "TAF EPSC 070530Z 0706/0806 15008KT 4000 BR OVC010"
    },
    {
      "icao": "EPSY",
      "alert": "OK",
      "vis_m": 3300,
      "fzfg": false,
      "metar_trigger": false,
      "taf_trigger": false,
      "metar": "METAR EPSY 071030Z 19002KT 3300 BR NSC M13/M14 Q1017",
      "taf": "TAF EPSY 070830Z 0709/0718 VRB02KT 4000 BR NSC"
    },
    {
      "icao": "EPWA",
      "alert": "OK",
      "vis_m": 1600,
      "fzfg": false,
      "metar_trigger": false,
      "taf_trigger": false,
      "metar": "METAR EPWA 071030Z 29005KT 270V330 1600 1000E R33/1300N BR BKN002 M10/M11 Q1017 TEMPO 1000 BR",
      "taf": "TAF EPWA 070830Z 0709/0809 32003KT 2000 BR OVC003"
    },
    {
      "icao": "EPWR",
      "alert": "OK",
      "vis_m": 9999,
      "fzfg": false,
      "metar_trigger": false,
      "taf_trigger": false,
      "metar": "METAR EPWR 071030Z VRB01KT 9999 -SN FEW016 BKN030 M02/M06 Q1017",
      "taf": "TAF EPWR 070830Z 0709/0809 VRB02KT 9999 BKN030"
    },
    {
      "icao": "ESGG",
      "alert": "OK",
      "vis_m": 4700,
      "fzfg": false,
      "metar_trigger": false,
      "taf_trigger": false,
      "metar": "METAR ESGG 071020Z 14005KT 120V180 4700 -SN SCT005 BKN009 M03/M03 Q1006",
      "taf": ""
    },
    {
      "icao": "ESKN",
      "alert": "OK",
      "vis_m": 4000,
      "fzfg": false,
      "metar_trigger": false,
      "taf_trigger": false,
      "metar": "METAR ESKN 071020Z VRB03KT 4000 BR OVC002 M08/M09 Q1013",
      "taf": ""
    },
    {
      "icao": "ESMS",
      "alert": "OK",
      "vis_m": 9999,
      "fzfg": false,
      "metar_trigger": false,
      "taf_trigger": false,
      "metar": "METAR ESMS 071020Z 19011KT 9999 OVC015 M00/M01 Q1011",
      "taf": "TAF ESMS 070827Z 0709/0809 21008KT 9999 BKN012"
    },
    {
      "icao": "ESSA",
      "alert": "OK",
      "vis_m": 9999,
      "fzfg": false,
      "metar_trigger": false,
      "taf_trigger": false,
      "metar": "METAR ESSA 071020Z 18004KT 150V220 9999 OVC004 M06/M07 Q1012 TEMPO BKN008",
      "taf": "TAF ESSA 070830Z 0709/0809 20006KT 9999 BKN008"
    },
    {
      "icao": "EYKA",
      "alert": "OK",
      "vis_m": 2000,
      "fzfg": false,
      "metar_trigger": false,
      "taf_trigger": false,
      "metar": "METAR EYKA 071050Z VRB02KT 2000 BR OVC002 M06/M06 Q1016",
      "taf": ""
    },
    {
      "icao": "EYPA",
      "alert": "OK",
      "vis_m": 6000,
      "fzfg": false,
      "metar_trigger": false,
      "taf_trigger": false,
      "metar": "METAR EYPA 071050Z 16004KT 6000 NSC M05/M07 Q1015",
      "taf": ""
    },
    {
      "icao": "EYVI",
      "alert": "OK",
      "vis_m": 6000,
      "fzfg": false,
      "metar_trigger": false,
      "taf_trigger": false,
      "metar": "METAR EYVI 071050Z VRB02KT 6000 OVC004 M05/M06 Q1015 NOSIG",
      "taf": ""
    },
    {
      "icao": "GCFV",
      "alert": "OK",
      "vis_m": 9999,
      "fzfg": false,
      "metar_trigger": false,
      "taf_trigger": false,
      "metar": "METAR GCFV 071030Z 02021KT 9999 FEW035 18/09 Q1028",
      "taf": "TAF GCFV 070800Z 0709/0809 04024KT 9999 SCT035 TX20/0714Z TN14/0806Z"
    },
    {
      "icao": "GCLP",
      "alert": "OK",
      "vis_m": 9999,
      "fzfg": false,
      "metar_trigger": false,
      "taf_trigger": false,
      "metar": "METAR GCLP 071030Z 03021KT 360V060 9999 FEW025 BKN035 18/11 Q1028 NOSIG",
      "taf": "TAF GCLP 070800Z 0709/0809 02025KT 9999 SCT040 TX18/0714Z TN14/0806Z"
    },
    {
      "icao": "GCTS",
      "alert": "OK",
      "vis_m": 9999,
      "fzfg": false,
      "metar_trigger": false,
      "taf_trigger": false,
      "metar": "METAR GCTS 071030Z 07022KT 030V100 9999 FEW050 19/04 Q1028 NOSIG",
      "taf": "TAF GCTS 070800Z 0709/0809 08025KT 9999 SCT035 TX22/0714Z TN16/0806Z"
    },
    {
      "icao": "GMAD",
      "alert": "OK",
      "vis_m": 9999,
      "fzfg": false,
      "metar_trigger": false,
      "taf_trigger": false,
      "metar": "METAR GMAD 071030Z 09003KT 060V120 CAVOK 12/08 Q1026 NOSIG",
      "taf": "TAF GMAD 070500Z 0706/0812 22006KT 6000 SCT020"
    },
    {
      "icao": "GMMN",
      "alert": "OK",
      "vis_m": 9999,
      "fzfg": false,
      "metar_trigger": false,
      "taf_trigger": false,
      "metar": "METAR GMMN 071030Z 20011KT 9999 SCT040 10/06 Q1030 NOSIG",
      "taf": "TAF GMMN 070500Z 0706/0812 20006KT CAVOK"
    },
    {
      "icao": "GMMX",
      "alert": "OK",
      "vis_m": 9999,
      "fzfg": false,
      "metar_trigger": false,
      "taf_trigger": false,
      "metar": "METAR GMMX 071030Z VRB04KT CAVOK 10/05 Q1029 NOSIG",
      "taf": "TAF GMMX 070500Z 0706/0812 06006KT 8000 NSC"
    },
    {
      "icao": "HEGN",
      "alert": "OK",
      "vis_m": 9999,
      "fzfg": false,
      "metar_trigger": false,
      "taf_trigger": false,
      "metar": "METAR HEGN 071000Z 35008KT CAVOK 24/07 Q1020 NOSIG",
      "taf": "TAF HEGN 070500Z 0706/0812 33013KT CAVOK"
    },
    {
      "icao": "HEMA",
      "alert": "OK",
      "vis_m": 6000,
      "fzfg": false,
      "metar_trigger": false,
      "taf_trigger": false,
      "metar": "METAR HEMA 071000Z 35011KT 6000 NSC 26/11 Q1019 NOSIG",
      "taf": "TAF HEMA 070500Z 0706/0812 33015KT 6000 NSC"
    },
    {
      "icao": "HESH",
      "alert": "OK",
      "vis_m": 9999,
      "fzfg": false,
      "metar_trigger": false,
      "taf_trigger": false,
      "metar": "METAR HESH 071000Z 35010KT CAVOK 25/10 Q1020 NOSIG",
      "taf": "TAF HESH 070500Z 0706/0812 35011KT CAVOK"
    },
    {
      "icao": "HESX",
      "alert": "OK",
      "vis_m": 9999,
      "fzfg": false,
      "metar_trigger": false,
      "taf_trigger": false,
      "metar": "METAR HESX 071000Z 00000KT CAVOK 22/06 Q1021 NOSIG",
      "taf": "TAF HESX 070500Z 0706/0812 14009KT CAVOK"
    },
    {
      "icao": "LATI",
      "alert": "OK",
      "vis_m": 9999,
      "fzfg": false,
      "metar_trigger": false,
      "taf_trigger": false,
      "metar": "METAR LATI 071050Z 14010KT 9999 SCT047 BKN072 15/10 Q1005 NOSIG",
      "taf": "TAF LATI 070500Z 0706/0806 VRB05KT 9999 RA SCT030 OVC060 TX16/0712Z TN09/0805Z"
    },
    {
      "icao": "LBPD",
      "alert": "OK",
      "vis_m": 1000,
      "fzfg": false,
      "metar_trigger": false,
      "taf_trigger": false,
      "metar": "METAR LBPD 071030Z AUTO 33005KT 1000 R30/1200U BR SCT002/// OVC004/// 10/10 Q1008 TEMPO 3000 BR OVC003",
      "taf": "TAF LBPD 070500Z 0706/0806 VRB03KT 3000 BR SCT015"
    },
    {
      "icao": "LBSF",
      "alert": "OK",
      "vis_m": 9999,
      "fzfg": false,
      "metar_trigger": false,
      "taf_trigger": false,
      "metar": "METAR LBSF 071030Z VRB02KT 9999 SCT048 BKN062 BKN075 10/08 Q1008 TEMPO RA",
      "taf": "TAF LBSF 070500Z 0706/0806 10010KT 9999 SCT040 BKN060"
    },
    {
      "icao": "LBWN",
      "alert": "OK",
      "vis_m": 9999,
      "fzfg": false,
      "metar_trigger": false,
      "taf_trigger": false,
      "metar": "METAR LBWN 071030Z 20014KT 9999 BKN033 18/11 Q1007 NOSIG",
      "taf": "TAF LBWN 070500Z 0706/0806 13012KT 9999 SCT020 BKN040"
    },
    {
      "icao": "LCLK",
      "alert": "OK",
      "vis_m": 9999,
      "fzfg": false,
      "metar_trigger": false,
      "taf_trigger": false,
      "metar": "METAR LCLK 071030Z 07004KT 040V110 CAVOK 20/13 Q1022 NOSIG",
      "taf": "TAF LCLK 070530Z 0706/0806 34006KT 9999 FEW035"
    },
    {
      "icao": "LCPH",
      "alert": "OK",
      "vis_m": 9999,
      "fzfg": false,
      "metar_trigger": false,
      "taf_trigger": false,
      "metar": "METAR LCPH 071030Z 15015KT 100V160 9999 FEW040 20/13 Q1021 NOSIG",
      "taf": "TAF LCPH 070530Z 0706/0806 07008KT 9999 FEW030"
    },
    {
      "icao": "LEAL",
      "alert": "OK",
      "vis_m": 9999,
      "fzfg": false,
      "metar_trigger": false,
      "taf_trigger": false,
      "metar": "METAR LEAL 071030Z 30010KT 250V330 9999 FEW020 09/M04 Q1023 NOSIG",
      "taf": "TAF LEAL 070500Z 0706/0806 30012KT 9999 FEW030 TX13/0714Z TN03/0706Z"
    },
    {
      "icao": "LEBB",
      "alert": "OK",
      "vis_m": 9999,
      "fzfg": false,
      "metar_trigger": false,
      "taf_trigger": false,
      "metar": "METAR LEBB 071030Z 18005KT 080V240 9999 FEW016 BKN029 07/03 Q1020 TEMPO 3000 RA",
      "taf": "TAF LEBB 070500Z 0706/0806 15008KT 9999 SCT020 BKN040 TX11/0714Z TN04/0706Z"
    },
    {
      "icao": "LEBL",
      "alert": "OK",
      "vis_m": 9999,
      "fzfg": false,
      "metar_trigger": false,
      "taf_trigger": false,
      "metar": "METAR LEBL 071030Z 32013G25KT 290V350 CAVOK 04/M04 Q1019 NOSIG",
      "taf": "TAF LEBL 070500Z 0706/0806 34013KT CAVOK TX10/0713Z TN00/0706Z"
    },
    {
      "icao": "LECH",
      "alert": "OK",
      "vis_m": 9999,
      "fzfg": false,
      "metar_trigger": false,
      "taf_trigger": false,
      "metar": "METAR LECH 071030Z AUTO 23004KT 190V270 CAVOK 07/M07 Q1019",
      "taf": ""
    },
    {
      "icao": "LEMD",
      "alert": "OK",
      "vis_m": 9999,
      "fzfg": false,
      "metar_trigger": false,
      "taf_trigger": false,
      "metar": "METAR LEMD 071030Z 08002KT CAVOK 02/M05 Q1022 NOSIG",
      "taf": "TAF LEMD 070500Z 0706/0812 VRB04KT CAVOK TX08/0715Z TNM00/0800Z"
    },
    {
      "icao": "LEMG",
      "alert": "OK",
      "vis_m": 9999,
      "fzfg": false,
      "metar_trigger": false,
      "taf_trigger": false,
      "metar": "METAR LEMG 071030Z 29014KT CAVOK 09/M03 Q1026 NOSIG",
      "taf": "TAF LEMG 070500Z 0706/0806 29012KT 9999 FEW040 TX13/0714Z TN04/0706Z"
    },
    {
      "icao": "LEVC",
      "alert": "OK",
      "vis_m": 9999,
      "fzfg": false,
      "metar_trigger": false,
      "taf_trigger": false,
      "metar": "METAR LEVC 071030Z 31008KT 280V350 CAVOK 09/M03 Q1021 NOSIG",
      "taf": "TAF LEVC 070500Z 0706/0806 27007KT CAVOK TX13/0714Z TNM01/0706Z"
    },
    {
      "icao": "LEXJ",
      "alert": "OK",
      "vis_m": 9999,
      "fzfg": false,
      "metar_trigger": false,
      "taf_trigger": false,
      "metar": "METAR LEXJ 071030Z 24010KT 200V280 9999 FEW030 BKN038 OVC050 08/04 Q1019",
      "taf": "TAF LEXJ 070800Z 0709/0809 24009KT 9999 BKN050 TX12/0713Z TN08/0802Z"
    },
    {
      "icao": "LEZG",
      "alert": "OK",
      "vis_m": 9999,
      "fzfg": false,
      "metar_trigger": false,
      "taf_trigger": false,
      "metar": "METAR LEZG 071030Z 28011KT CAVOK 06/M03 Q1020 NOSIG",
      "taf": "TAF LEZG 070500Z 0706/0806 25009KT 9999 FEW030 TX09/0715Z TNM01/0706Z"
    },
    {
      "icao": "LEZL",
      "alert": "OK",
      "vis_m": 9999,
      "fzfg": false,
      "metar_trigger": false,
      "taf_trigger": false,
      "metar": "METAR LEZL 071030Z 00000KT CAVOK 06/01 Q1028 NOSIG",
      "taf": "TAF LEZL 070800Z 0709/0809 19004KT 9999 FEW030 TX12/0715Z TN03/0807Z"
    },
    {
      "icao": "LFBD",
      "alert": "OK",
      "vis_m": 9999,
      "fzfg": false,
      "metar_trigger": false,
      "taf_trigger": false,
      "metar": "METAR LFBD 071030Z AUTO 21011KT 9999 BKN033 BKN040 OVC048 04/M02 Q1017",
      "taf": "TAF LFBD 070500Z 0706/0812 19005KT CAVOK TX10/0800Z TNM01/0706Z"
    },
    {
      "icao": "LFLL",
      "alert": "OK",
      "vis_m": 9999,
      "fzfg": false,
      "metar_trigger": false,
      "taf_trigger": false,
      "metar": "METAR LFLL 071030Z VRB01KT CAVOK M01/M07 Q1017 NOSIG",
      "taf": "TAF LFLL 070500Z 0706/0812 VRB02KT 9999 FEW030"
    },
    {
      "icao": "LFLS",
      "alert": "OK",
      "vis_m": 9999,
      "fzfg": false,
      "metar_trigger": false,
      "taf_trigger": false,
      "metar": "METAR LFLS 071030Z AUTO VRB03KT CAVOK M02/M07 Q1016 NOSIG",
      "taf": "TAF LFLS 070800Z 0709/0809 VRB05KT CAVOK"
    },
    {
      "icao": "LFMN",
      "alert": "OK",
      "vis_m": 9999,
      "fzfg": false,
      "metar_trigger": false,
      "taf_trigger": false,
      "metar": "METAR LFMN 071030Z 31005KT 270V330 9999 FEW093 08/M05 Q1010 NOSIG",
      "taf": "TAF LFMN 070800Z 0709/0815 34012KT CAVOK"
    },
    {
      "icao": "LFOB",
      "alert": "OK",
      "vis_m": 6000,
      "fzfg": false,
      "metar_trigger": false,
      "taf_trigger": false,
      "metar": "METAR LFOB 071030Z AUTO 22010KT 6000 BKN009 BKN015 OVC023 M00/M00 Q1009 BECMG NSC",
      "taf": "TAF LFOB 070500Z 0706/0806 19015G25KT 9999 OVC014"
    },
    {
      "icao": "LFPO",
      "alert": "OK",
      "vis_m": 3500,
      "fzfg": false,
      "metar_trigger": false,
      "taf_trigger": false,
      "metar": "METAR LFPO 071030Z AUTO 20010KT 3500 -SN BR BKN007 BKN011 OVC022 M01/M02 Q1010 BECMG 9999 NSW",
      "taf": "TAF LFPO 070500Z 0706/0812 20012KT 4000 -SN BKN007"
    },
    {
      "icao": "LFSB",
      "alert": "OK",
      "vis_m": 9999,
      "fzfg": false,
      "metar_trigger": false,
      "taf_trigger": false,
      "metar": "METAR LFSB 071030Z AUTO 14007KT CAVOK M03/M07 Q1015 NOSIG",
      "taf": "TAF LFSB 070530Z 0706/0806 18004KT 9000 FEW009 BKN020"
    },
    {
      "icao": "LGAV",
      "alert": "OK",
      "vis_m": 9999,
      "fzfg": false,
      "metar_trigger": false,
      "taf_trigger": false,
      "metar": "METAR LGAV 071020Z 19014KT 9999 SCT025 20/12 Q1012 NOSIG",
      "taf": "TAF LGAV 070500Z 0706/0806 16010KT 9999 FEW020 SCT030"
    },
    {
      "icao": "LGTS",
      "alert": "OK",
      "vis_m": 9000,
      "fzfg": false,
      "metar_trigger": false,
      "taf_trigger": false,
      "metar": "METAR LGTS 071020Z 14008KT 9000 FEW006 SCT020 18/13 Q1009 NOSIG",
      "taf": ""
    },
    {
      "icao": "LHBP",
      "alert": "OK",
      "vis_m": 9999,
      "fzfg": false,
      "metar_trigger": false,
      "taf_trigger": false,
      "metar": "METAR LHBP 071030Z 33004KT 9999 OVC032 M02/M04 Q1013 NOSIG",
      "taf": ""
    },
    {
      "icao": "LHDC",
      "alert": "OK",
      "vis_m": 9999,
      "fzfg": false,
      "metar_trigger": false,
      "taf_trigger": false,
      "metar": "METAR LHDC 071015Z AUTO 35004KT 320V050 9999 OVC021 M01/M06 Q1012 NOSIG",
      "taf": "TAF LHDC 070815Z 0709/0718 02007KT 9999 SCT004 BKN040"
    },
    {
      "icao": "LIBD",
      "alert": "OK",
      "vis_m": 5000,
      "fzfg": false,
      "metar_trigger": false,
      "taf_trigger": false,
      "metar": "METAR LIBD 071020Z 26005KT 5000 RA BR SCT020 BKN030 07/07 Q1007",
      "taf": "TAF LIBD 070500Z 0706/0806 28012KT 9999 BKN010"
    },
    {
      "icao": "LIBG",
      "alert": "OK",
      "vis_m": 4000,
      "fzfg": false,
      "metar_trigger": false,
      "taf_trigger": false,
      "metar": "METAR LIBG 070950Z 30007KT 260V330 4000 RA BKN020 10/10 Q1006",
      "taf": "TAF LIBG 070800Z 0709/0718 03008KT 9999 SCT015"
    },
    {
      "icao": "LIBP",
      "alert": "OK",
      "vis_m": 9999,
      "fzfg": false,
      "metar_trigger": false,
      "taf_trigger": false,
      "metar": "METAR LIBP 071020Z AUTO 30003KT 190V350 9999 OVC047/// 06/01 Q1009",
      "taf": "TAF LIBP 070500Z 0706/0806 30009KT 9999 BKN030"
    },
    {
      "icao": "LIBR",
      "alert": "OK",
      "vis_m": 9999,
      "fzfg": false,
      "metar_trigger": false,
      "taf_trigger": false,
      "metar": "METAR LIBR 071020Z 31011KT 9999 SCT010 BKN018 12/10 Q1006",
      "taf": "TAF LIBR 070500Z 0706/0806 33008KT 6000 BKN010"
    },
    {
      "icao": "LICA",
      "alert": "OK",
      "vis_m": 9999,
      "fzfg": false,
      "metar_trigger": false,
      "taf_trigger": false,
      "metar": "METAR LICA 071020Z AUTO 27009KT 9999 -RA BKN030/// OVC054/// 14/11 Q1006 REDZ RERA",
      "taf": "TAF LICA 070500Z 0706/0806 27013KT 9999 SCT050"
    },
    {
      "icao": "LICC",
      "alert": "OK",
      "vis_m": 9999,
      "fzfg": false,
      "metar_trigger": false,
      "taf_trigger": false,
      "metar": "METAR LICC 071020Z 27007KT 9999 BKN075 14/12 Q1006",
      "taf": "TAF LICC 070500Z 0706/0806 26013KT 7000 FEW060"
    },
    {
      "icao": "LICJ",
      "alert": "OK",
      "vis_m": 6000,
      "fzfg": false,
      "metar_trigger": false,
      "taf_trigger": false,
      "metar": "METAR LICJ 071020Z 21013G24KT 180V260 6000 +RA SCT020 BKN030 12/09 Q1008",
      "taf": "TAF LICJ 070500Z 0706/0806 22014KT 9999 SCT030"
    },
    {
      "icao": "LIMC",
      "alert": "OK",
      "vis_m": 9999,
      "fzfg": false,
      "metar_trigger": false,
      "taf_trigger": false,
      "metar": "METAR LIMC 071020Z 23004KT 200V260 CAVOK 01/M03 Q1012 NOSIG",
      "taf": "TAF LIMC 070500Z 0706/0812 VRB04KT CAVOK"
    },
    {
      "icao": "LIME",
      "alert": "OK",
      "vis_m": 9999,
      "fzfg": false,
      "metar_trigger": false,
      "taf_trigger": false,
      "metar": "METAR LIME 071020Z 24003KT 200V270 CAVOK 02/M06 Q1012 NOSIG",
      "taf": "TAF LIME 070500Z 0706/0806 VRB04KT 9999 FEW025"
    },
    {
      "icao": "LIMF",
      "alert": "OK",
      "vis_m": 9999,
      "fzfg": false,
      "metar_trigger": false,
      "taf_trigger": false,
      "metar": "METAR LIMF 071020Z 23005KT 200V260 CAVOK 00/M07 Q1012",
      "taf": "TAF LIMF 070500Z 0706/0806 VRB03KT CAVOK"
    },
    {
      "icao": "LIMJ",
      "alert": "OK",
      "vis_m": 9999,
      "fzfg": false,
      "metar_trigger": false,
      "taf_trigger": false,
      "metar": "METAR LIMJ 071020Z 05016KT CAVOK 04/M04 Q1011",
      "taf": "TAF LIMJ 070500Z 0706/0806 04015KT CAVOK"
    },
    {
      "icao": "LIPE",
      "alert": "OK",
      "vis_m": 9999,
      "fzfg": false,
      "metar_trigger": false,
      "taf_trigger": false,
      "metar": "METAR LIPE 071020Z 26008KT 9999 BKN045 01/M02 Q1013",
      "taf": "TAF LIPE 070500Z 0706/0806 26007KT 9999 BKN030"
    },
    {
      "icao": "LIPH",
      "alert": "OK",
      "vis_m": 9999,
      "fzfg": false,
      "metar_trigger": false,
      "taf_trigger": false,
      "metar": "METAR LIPH 071020Z 31004KT 270V360 CAVOK 04/M05 Q1012",
      "taf": "TAF LIPH 070500Z 0706/0806 VRB05KT CAVOK"
    },
    {
      "icao": "LIPQ",
      "alert": "OK",
      "vis_m": 9999,
      "fzfg": false,
      "metar_trigger": false,
      "taf_trigger": false,
      "metar": "METAR LIPQ 071020Z AUTO VRB01KT 9999 OVC085/// 04/M06 Q1012",
      "taf": "TAF LIPQ 070500Z 0706/0806 08006KT 9999 SCT070"
    },
    {
      "icao": "LIPR",
      "alert": "OK",
      "vis_m": 9999,
      "fzfg": false,
      "metar_trigger": false,
      "taf_trigger": false,
      "metar": "METAR LIPR 071020Z 30014KT 9999 -SN BKN035 01/M02 Q1011",
      "taf": "TAF LIPR 070500Z 0706/0806 29012KT 9999 BKN030"
    },
    {
      "icao": "LIPX",
      "alert": "OK",
      "vis_m": 9999,
      "fzfg": false,
      "metar_trigger": false,
      "taf_trigger": false,
      "metar": "METAR LIPX 071020Z VRB01KT CAVOK 01/M06 Q1012",
      "taf": "TAF LIPX 070500Z 0706/0806 VRB05KT 9999 FEW030"
    },
    {
      "icao": "LIPY",
      "alert": "OK",
      "vis_m": 9999,
      "fzfg": false,
      "metar_trigger": false,
      "taf_trigger": false,
      "metar": "METAR LIPY 071020Z AUTO 30009KT 9999 OVC034/// 03/M01 Q1010",
      "taf": "TAF LIPY 070500Z 0706/0806 33013KT 9999 BKN020"
    },
    {
      "icao": "LIPZ",
      "alert": "OK",
      "vis_m": 9999,
      "fzfg": false,
      "metar_trigger": false,
      "taf_trigger": false,
      "metar": "METAR LIPZ 071020Z VRB05KT CAVOK 05/M07 Q1012 NOSIG",
      "taf": "TAF LIPZ 070500Z 0706/0812 34006KT CAVOK"
    },
    {
      "icao": "LIRF",
      "alert": "OK",
      "vis_m": 9999,
      "fzfg": false,
      "metar_trigger": false,
      "taf_trigger": false,
      "metar": "METAR LIRF 071020Z 03008KT 010V070 CAVOK 07/04 Q1007 NOSIG",
      "taf": "TAF LIRF 070500Z 0706/0812 04010KT 9999 SCT020"
    },
    {
      "icao": "LIRN",
      "alert": "OK",
      "vis_m": 9999,
      "fzfg": false,
      "metar_trigger": false,
      "taf_trigger": false,
      "metar": "METAR LIRN 071020Z 06003KT 9999 -RA FEW025 BKN060 10/08 Q1006 NOSIG",
      "taf": "TAF LIRN 070500Z 0706/0806 VRB06KT 9999 SCT030"
    },
    {
      "icao": "LIRP",
      "alert": "OK",
      "vis_m": 9999,
      "fzfg": false,
      "metar_trigger": false,
      "taf_trigger": false,
      "metar": "METAR LIRP 071015Z 12006KT CAVOK 05/M05 Q1010 NOSIG",
      "taf": "TAF LIRP 070500Z 0706/0806 12007KT 9999 SCT080"
    },
    {
      "icao": "LIRZ",
      "alert": "OK",
      "vis_m": 9999,
      "fzfg": false,
      "metar_trigger": false,
      "taf_trigger": false,
      "metar": "METAR LIRZ 071020Z AUTO 36011KT 9999 OVC051/// 04/M01 Q1008",
      "taf": "TAF LIRZ 070500Z 0706/0806 01013KT 9999 BKN020"
    },
    {
      "icao": "LJLJ",
      "alert": "OK",
      "vis_m": 9999,
      "fzfg": false,
      "metar_trigger": false,
      "taf_trigger": false,
      "metar": "METAR LJLJ 071030Z 31001KT 9999 -SN FEW017 BKN055 M05/M06 Q1012 NOSIG",
      "taf": "TAF LJLJ 070500Z 0706/0806 VRB02KT 9999 FEW005 BKN080"
    },
    {
      "icao": "LKMT",
      "alert": "OK",
      "vis_m": 7000,
      "fzfg": false,
      "metar_trigger": false,
      "taf_trigger": false,
      "metar": "METAR LKMT 071030Z 02006KT 7000 SCT012 BKN029 M04/M06 Q1016 TEMPO BKN013",
      "taf": "TAF LKMT 070500Z 0706/0806 03008KT 9999 BKN025"
    },
    {
      "icao": "LKPR",
      "alert": "OK",
      "vis_m": 9999,
      "fzfg": false,
      "metar_trigger": false,
      "taf_trigger": false,
      "metar": "METAR LKPR 071030Z 22007KT 9999 BKN034 M05/M08 Q1015 NOSIG",
      "taf": "TAF LKPR 070800Z 0709/0815 21006KT 9999 BKN030"
    },
    {
      "icao": "LLBG",
      "alert": "OK",
      "vis_m": 9999,
      "fzfg": false,
      "metar_trigger": false,
      "taf_trigger": false,
      "metar": "METAR LLBG 071050Z VRB02KT CAVOK 24/07 Q1021 NOSIG",
      "taf": "TAF LLBG 070501Z 0706/0806 VRB03KT CAVOK"
    },
    {
      "icao": "LMML",
      "alert": "OK",
      "vis_m": 9999,
      "fzfg": false,
      "metar_trigger": false,
      "taf_trigger": false,
      "metar": "METAR LMML 071045Z 22012KT 190V250 9999 FEW014 BKN017 16/13 Q1008 NOSIG",
      "taf": "TAF LMML 070500Z 0706/0806 20008KT 9999 FEW015"
    },
    {
      "icao": "LOWW",
      "alert": "OK",
      "vis_m": 9999,
      "fzfg": false,
      "metar_trigger": false,
      "taf_trigger": false,
      "metar": "METAR LOWW 071020Z 33012KT 9999 FEW040 M02/M09 Q1016 NOSIG",
      "taf": "TAF LOWW 070815Z 0709/0815 32012KT 9999 FEW040 TXM01/0813Z TNM06/0806Z"
    },
    {
      "icao": "LPFR",
      "alert": "OK",
      "vis_m": 9999,
      "fzfg": false,
      "metar_trigger": false,
      "taf_trigger": false,
      "metar": "METAR LPFR 071030Z 05004KT 360V070 9999 FEW016 BKN035 08/05 Q1027",
      "taf": "TAF LPFR 070500Z 0706/0806 VRB05KT 9999 FEW015 SCT035"
    },
    {
      "icao": "LPMA",
      "alert": "OK",
      "vis_m": 9999,
      "fzfg": false,
      "metar_trigger": false,
      "taf_trigger": false,
      "metar": "METAR LPMA 071030Z 02013KT 9999 SCT015 15/08 Q1033",
      "taf": "TAF LPMA 070500Z 0706/0806 02012KT 9999 SCT016"
    },
    {
      "icao": "LPPR",
      "alert": "OK",
      "vis_m": 9999,
      "fzfg": false,
      "metar_trigger": false,
      "taf_trigger": false,
      "metar": "METAR LPPR 071030Z 03003KT 330V090 9999 FEW004 09/07 Q1025",
      "taf": "TAF LPPR 070500Z 0706/0806 14007KT 6000 -RA SCT008 BKN015"
    },
    {
      "icao": "LPPS",
      "alert": "OK",
      "vis_m": 9999,
      "fzfg": false,
      "metar_trigger": false,
      "taf_trigger": false,
      "metar": "METAR LPPS 071030Z 02013KT 350V060 9999 FEW015 16/09 Q1033",
      "taf": "TAF LPPS 070500Z 0706/0812 04010KT 9999 SCT015"
    },
    {
      "icao": "LPPT",
      "alert": "OK",
      "vis_m": 9999,
      "fzfg": false,
      "metar_trigger": false,
      "taf_trigger": false,
      "metar": "METAR LPPT 071030Z 33013KT 9999 5000NW FEW012 SCT018 13/11 Q1025",
      "taf": ""
    },
    {
      "icao": "LQBK",
      "alert": "OK",
      "vis_m": 3000,
      "fzfg": false,
      "metar_trigger": false,
      "taf_trigger": false,
      "metar": "METAR LQBK 071030Z 29004KT 240V330 3000 SN BR SCT010 OVC027 M03/M04 Q1013 BECMG 5000 -SN",
      "taf": "TAF LQBK 070500Z 0706/0806 35006KT 8000 -SN SCT010 OVC020 TXM01/0713Z TNM07/0805Z"
    },
    {
      "icao": "LQSA",
      "alert": "OK",
      "vis_m": 7000,
      "fzfg": false,
      "metar_trigger": false,
      "taf_trigger": false,
      "metar": "METAR LQSA 071030Z 28003KT 240V300 7000 -SN FEW010 SCT028 OVC040 M04/M05 Q1010 NOSIG",
      "taf": "TAF LQSA 070500Z 0706/0806 29005KT 6000 -SN SCT012 OVC030 TXM02/0713Z TNM06/0806Z"
    },
    {
      "icao": "LQTZ",
      "alert": "OK",
      "vis_m": 9999,
      "fzfg": false,
      "metar_trigger": false,
      "taf_trigger": false,
      "metar": "METAR LQTZ 071030Z 29004KT 9999 SCT009 BKN018 OVC040 M03/M05 Q1012",
      "taf": "TAF LQTZ 070500Z 0706/0806 35005KT 6000 -SN SCT010 BKN015 OVC025 TXM01/0713Z TNM06/0805Z"
    },
    {
      "icao": "LRBC",
      "alert": "OK",
      "vis_m": 3000,
      "fzfg": false,
      "metar_trigger": false,
      "taf_trigger": false,
      "metar": "METAR LRBC 071030Z 36007KT 3000 BR OVC004 01/01 Q1010",
      "taf": "TAF LRBC 070800Z 0709/0718 35007KT 1500 BR OVC002"
    },
    {
      "icao": "LRBS",
      "alert": "OK",
      "vis_m": 500,
      "fzfg": false,
      "metar_trigger": false,
      "taf_trigger": false,
      "metar": "METAR LRBS 071030Z VRB01KT 0500 R07/0800N FG VV001 04/04 Q1009 NOSIG",
      "taf": ""
    },
    {
      "icao": "LRBV",
      "alert": "OK",
      "vis_m": 9999,
      "fzfg": false,
      "metar_trigger": false,
      "taf_trigger": false,
      "metar": "METAR LRBV 071030Z 32012KT 9999 FEW003 SCT062 BKN083 03/02 Q1007",
      "taf": "TAF LRBV 070800Z 0709/0718 VRB04KT 9999 BKN035"
    },
    {
      "icao": "LRCL",
      "alert": "OK",
      "vis_m": 9999,
      "fzfg": false,
      "metar_trigger": false,
      "taf_trigger": false,
      "metar": "METAR LRCL 071030Z 34007KT 9999 BKN012 OVC030 01/M01 Q1009",
      "taf": "TAF LRCL 070800Z 0709/0718 VRB04KT 9999 BKN015 BKN045"
    },
    {
      "icao": "LRCV",
      "alert": "OK",
      "vis_m": 800,
      "fzfg": false,
      "metar_trigger": false,
      "taf_trigger": false,
      "metar": "METAR LRCV 071030Z 28005KT 0800 R26/1400U -RA FG OVC001 03/03 Q1009",
      "taf": "TAF LRCV 070800Z 0709/0718 VRB04KT 0300 FG VV001"
    },
    {
      "icao": "LRIA",
      "alert": "OK",
      "vis_m": 2200,
      "fzfg": false,
      "metar_trigger": false,
      "taf_trigger": false,
      "metar": "METAR LRIA 071030Z 31007KT 2200 BR OVC001 00/00 Q1010",
      "taf": "TAF LRIA 070800Z 0709/0718 30006KT 0800 FG VV001"
    },
    {
      "icao": "LROP",
      "alert": "OK",
      "vis_m": 400,
      "fzfg": false,
      "metar_trigger": false,
      "taf_trigger": false,
      "metar": "METAR LROP 071030Z 02003KT 340V050 0400 R08R/0800N R08L/0800U FG OVC001 04/04 Q1009 NOSIG",
      "taf": ""
    },
    {
      "icao": "LRSB",
      "alert": "OK",
      "vis_m": 9999,
      "fzfg": false,
      "metar_trigger": false,
      "taf_trigger": false,
      "metar": "METAR LRSB 071030Z 04002KT 9999 FEW015 OVC024 01/00 Q1009",
      "taf": "TAF LRSB 070500Z 0706/0806 29010KT 3000 BR OVC005"
    },
    {
      "icao": "LRSM",
      "alert": "OK",
      "vis_m": 9999,
      "fzfg": false,
      "metar_trigger": false,
      "taf_trigger": false,
      "metar": "METAR LRSM 071030Z 26005KT 9999 OVC005 M02/M03 Q1011",
      "taf": ""
    },
    {
      "icao": "LRSV",
      "alert": "OK",
      "vis_m": 3000,
      "fzfg": false,
      "metar_trigger": false,
      "taf_trigger": false,
      "metar": "METAR LRSV 071030Z 33009KT 3000 -FZRA BR BKN006 BKN023 M02/M02 Q1009",
      "taf": "TAF LRSV 070800Z 0709/0718 34008KT 3000 BR BKN002 OVC010"
    },
    {
      "icao": "LRTM",
      "alert": "OK",
      "vis_m": 8000,
      "fzfg": false,
      "metar_trigger": false,
      "taf_trigger": false,
      "metar": "METAR LRTM 071030Z 22006KT 8000 -RA FEW005 SCT008 BKN015 01/01 Q1009",
      "taf": "TAF LRTM 070800Z 0709/0718 VRB04KT 5000 -RA BR BKN010 BKN045"
    },
    {
      "icao": "LRTR",
      "alert": "OK",
      "vis_m": 4000,
      "fzfg": false,
      "metar_trigger": false,
      "taf_trigger": false,
      "metar": "METAR LRTR 071030Z 18004KT 4000 BR FEW003 BKN005 OVC007 M02/M02 Q1012",
      "taf": ""
    },
    {
      "icao": "LTAC",
      "alert": "OK",
      "vis_m": 9999,
      "fzfg": false,
      "metar_trigger": false,
      "taf_trigger": false,
      "metar": "METAR LTAC 071020Z 35003KT 260V050 9999 FEW040 SCT100 09/02 Q1019 NOSIG RMK RWY21C VRB01KT RWY03L 03003KT 320V060 RWY21R VRB02KT RWY03R VRB02KT RWY21L VRB02KT",
      "taf": "TAF LTAC 070440Z 0706/0806 VRB02KT 4000 BR SCT040 SCT100"
    },
    {
      "icao": "LTFM",
      "alert": "OK",
      "vis_m": 9999,
      "fzfg": false,
      "metar_trigger": false,
      "taf_trigger": false,
      "metar": "METAR LTFM 071020Z 21017KT 9999 FEW040 BKN080 16/09 Q1012 NOSIG RMK RWY17L 21016KT RWY34L 20014KT RWY16R 21015KT RWY36 22017KT RWY18 22016KT",
      "taf": "TAF LTFM 070440Z 0706/0812 19017G27KT 9999 SCT040 BKN080"
    },
    {
      "icao": "LUKK",
      "alert": "OK",
      "vis_m": 900,
      "fzfg": false,
      "metar_trigger": false,
      "taf_trigger": false,
      "metar": "METAR LUKK 071030Z 34005KT 300V010 0900 0650SE R08/1600D FG VV002 02/02 Q1009 NOSIG",
      "taf": ""
    },
    {
      "icao": "LWOH",
      "alert": "OK",
      "vis_m": 9999,
      "fzfg": false,
      "metar_trigger": false,
      "taf_trigger": false,
      "metar": "METAR LWOH 071050Z VRB02KT 9999 SCT010 BKN040 10/07 Q1007",
      "taf": "TAF LWOH 070830Z 0709/0809 VRB02KT 9999 RA SCT010 OVC040"
    },
    {
      "icao": "LWSK",
      "alert": "OK",
      "vis_m": 5000,
      "fzfg": false,
      "metar_trigger": false,
      "taf_trigger": false,
      "metar": "METAR LWSK 071050Z 34003KT 270V050 5000 -RA SCT015 BKN040 OVC070 09/08 Q1008 NOSIG",
      "taf": "TAF LWSK 070830Z 0709/0809 VRB02KT 5000 RA SCT020 OVC040"
    },
    {
      "icao": "LYBE",
      "alert": "OK",
      "vis_m": 9999,
      "fzfg": false,
      "metar_trigger": false,
      "taf_trigger": false,
      "metar": "METAR LYBE 071030Z 28008KT 9999 BKN007 BKN040 M03/M04 Q1013 NOSIG",
      "taf": "TAF LYBE 070500Z 0706/0806 27010KT 7000 -SN BKN007 BKN035 TXM01/0713Z TNM04/0806Z"
    },
    {
      "icao": "LYNI",
      "alert": "OK",
      "vis_m": 9999,
      "fzfg": false,
      "metar_trigger": false,
      "taf_trigger": false,
      "metar": "METAR LYNI 071030Z 33013KT 9999 SCT008 OVC013 M02/M04 Q1011 NOSIG",
      "taf": "TAF LYNI 070500Z 0706/0806 32014KT 9999 SCT004 BKN012 BKN030 TXM00/0706Z TNM04/0806Z"
    },
    {
      "icao": "LYPG",
      "alert": "OK",
      "vis_m": 9999,
      "fzfg": false,
      "metar_trigger": false,
      "taf_trigger": false,
      "metar": "METAR LYPG 071030Z 17006KT 9999 -RA FEW010 SCT030 OVC070 13/12 Q1005 NOSIG",
      "taf": "TAF LYPG 070500Z 0706/0806 15009KT 9999 FEW020 BKN034 BKN070 TX14/0712Z TN03/0806Z"
    },
    {
      "icao": "LZIB",
      "alert": "OK",
      "vis_m": 9999,
      "fzfg": false,
      "metar_trigger": false,
      "taf_trigger": false,
      "metar": "METAR LZIB 071030Z 34010KT 9999 FEW030 M01/M08 Q1015 NOSIG",
      "taf": "TAF LZIB 070515Z 0706/0806 35009KT 9999 FEW022"
    },
    {
      "icao": "LZKZ",
      "alert": "OK",
      "vis_m": 9999,
      "fzfg": false,
      "metar_trigger": false,
      "taf_trigger": false,
      "metar": "METAR LZKZ 071030Z 36023KT 9999 BLSN NSC M02/M07 Q1011 NOSIG",
      "taf": "TAF LZKZ 070515Z 0706/0806 36020KT 9999 FEW035"
    },
    {
      "icao": "LZTT",
      "alert": "OK",
      "vis_m": 9999,
      "fzfg": false,
      "metar_trigger": false,
      "taf_trigger": false,
      "metar": "METAR LZTT 071030Z VRB02KT 9999 FEW020 M08/M11 Q1010 NOSIG",
      "taf": "TAF LZTT 070515Z 0706/0806 09007KT 9999 FEW020 BKN060"
    },
    {
      "icao": "OEJN",
      "alert": "OK",
      "vis_m": 7000,
      "fzfg": false,
      "metar_trigger": false,
      "taf_trigger": false,
      "metar": "METAR OEJN 071000Z 26007KT 7000 NSC 30/13 Q1016 NOSIG",
      "taf": "TAF OEJN 070500Z 0706/0812 19006KT 7000 NSC"
    },
    {
      "icao": "OEMA",
      "alert": "OK",
      "vis_m": 9999,
      "fzfg": false,
      "metar_trigger": false,
      "taf_trigger": false,
      "metar": "METAR OEMA 071000Z 13004KT CAVOK 25/M01 Q1023 NOSIG",
      "taf": "TAF OEMA 070500Z 0706/0812 09010KT CAVOK"
    },
    {
      "icao": "OJAI",
      "alert": "OK",
      "vis_m": 5000,
      "fzfg": false,
      "metar_trigger": false,
      "taf_trigger": false,
      "metar": "METAR OJAI 071000Z 07005KT 5000 HZ NSC 16/03 Q1024 NOSIG",
      "taf": "TAF OJAI 070447Z 0706/0812 VRB02KT 5000 HZ NSC"
    },
    {
      "icao": "OMAA",
      "alert": "OK",
      "vis_m": 9999,
      "fzfg": false,
      "metar_trigger": false,
      "taf_trigger": false,
      "metar": "METAR OMAA 071000Z 29010KT 9999 FEW045 24/09 Q1020 NOSIG",
      "taf": "TAF OMAA 070500Z 0706/0812 VRB02KT 8000 NSC"
    },
    {
      "icao": "OMDB",
      "alert": "OK",
      "vis_m": 9999,
      "fzfg": false,
      "metar_trigger": false,
      "taf_trigger": false,
      "metar": "METAR OMDB 071030Z 33011KT 9999 FEW045 24/11 Q1019 NOSIG",
      "taf": "TAF OMDB 070500Z 0706/0812 07005KT 8000 NSC"
    },
    {
      "icao": "UAAA",
      "alert": "OK",
      "vis_m": 800,
      "fzfg": true,
      "metar_trigger": false,
      "taf_trigger": false,
      "metar": "SPECI UAAA 071050Z VRB01MPS 0800 R23L/0800 FZFG VV002 M04/M05 Q1032 NOSIG RMK QBB080",
      "taf": "TAF UAAA 070503Z 0706/0806 04003MPS 0800 FZFG VV003 TX02/0709Z TNM05/0801Z"
    },
    {
      "icao": "UBBB",
      "alert": "OK",
      "vis_m": 7000,
      "fzfg": false,
      "metar_trigger": false,
      "taf_trigger": false,
      "metar": "METAR UBBB 071030Z 13006KT 7000 NSC 11/08 Q1021 NOSIG",
      "taf": "TAF UBBB 070502Z 0706/0806 16005KT 0400 FG VV002 TX12/0710Z TN04/0803Z"
    },
    {
      "icao": "UDSG",
      "alert": "OK",
      "vis_m": 8000,
      "fzfg": false,
      "metar_trigger": false,
      "taf_trigger": false,
      "metar": "METAR UDSG 071030Z 21001KT 8000 NSC M05/M11 Q1026 NOSIG",
      "taf": "TAF UDSG 070458Z 0706/0806 VRB06KT 9999 FEW040"
    },
    {
      "icao": "UDYZ",
      "alert": "OK",
      "vis_m": 3100,
      "fzfg": false,
      "metar_trigger": false,
      "taf_trigger": false,
      "metar": "METAR UDYZ 071030Z 27002KT 3100 BR NSC M02/M08 Q1028 NOSIG",
      "taf": "TAF UDYZ 070500Z 0706/0806 VRB04KT 3500 BR FEW040"
    },
    {
      "icao": "UGKO",
      "alert": "OK",
      "vis_m": 9999,
      "fzfg": false,
      "metar_trigger": false,
      "taf_trigger": false,
      "metar": "METAR UGKO 071030Z 09008KT CAVOK 16/M03 Q1018 NOSIG",
      "taf": "TAF UGKO 070500Z 0706/0806 09007KT CAVOK TX16/0712Z TN02/0706Z"
    }
  ]
}