{
  "ts_utc": "2026-04-09T23:49:30Z",
  "threshold_m": 150,
  "source": "stations_override.txt (ICAO list) + aviationweather.gov (METAR/TAF raw)",
  "station_count": 159,
  "stations": [
    {
      "icao": "BIKF",
      "alert": "OK",
      "vis_m": 9999,
      "fzfg": false,
      "metar_trigger": false,
      "taf_trigger": false,
      "metar": "METAR BIKF 092330Z 23023KT 9999 FEW037 BKN140 03/M05 Q0990",
      "taf": "TAF BIKF 092245Z 1000/1100 21020G30KT 9999 BKN020 TX04/1015Z TNM00/1006Z"
    },
    {
      "icao": "BKPR",
      "alert": "OK",
      "vis_m": 9999,
      "fzfg": false,
      "metar_trigger": false,
      "taf_trigger": false,
      "metar": "METAR BKPR 092330Z 32003KT CAVOK 02/M02 Q1018 NOSIG",
      "taf": "TAF BKPR 092330Z 1000/1024 01007KT 9999 SCT050"
    },
    {
      "icao": "EBCI",
      "alert": "OK",
      "vis_m": 9999,
      "fzfg": false,
      "metar_trigger": false,
      "taf_trigger": false,
      "metar": "METAR EBCI 092320Z 30009KT 270V340 9999 FEW024 12/07 Q1018 NOSIG",
      "taf": "TAF EBCI 092313Z 1000/1106 32010KT 9999 SCT020"
    },
    {
      "icao": "EDDB",
      "alert": "OK",
      "vis_m": 9999,
      "fzfg": false,
      "metar_trigger": false,
      "taf_trigger": false,
      "metar": "METAR EDDB 092320Z AUTO 13005KT CAVOK 02/M03 Q1019 NOSIG",
      "taf": "TAF EDDB 092300Z 1000/1024 09005KT CAVOK"
    },
    {
      "icao": "EDDH",
      "alert": "OK",
      "vis_m": 9999,
      "fzfg": false,
      "metar_trigger": false,
      "taf_trigger": false,
      "metar": "METAR EDDH 092320Z AUTO 13015KT 090V170 CAVOK 07/M03 Q1016 TEMPO 12015G25KT",
      "taf": "TAF EDDH 092300Z 1000/1106 13011KT 9999 BKN045"
    },
    {
      "icao": "EDDK",
      "alert": "OK",
      "vis_m": 9999,
      "fzfg": false,
      "metar_trigger": false,
      "taf_trigger": false,
      "metar": "METAR EDDK 092320Z AUTO 15007KT 9999 FEW042 13/08 Q1014 RESHRA TEMPO 23015G25KT TSRA BKN030CB",
      "taf": "TAF EDDK 092300Z 1000/1106 20006KT CAVOK"
    },
    {
      "icao": "EDDN",
      "alert": "OK",
      "vis_m": 9999,
      "fzfg": false,
      "metar_trigger": false,
      "taf_trigger": false,
      "metar": "METAR EDDN 092320Z AUTO 14004KT 100V160 9999 -RA FEW049 08/02 Q1016",
      "taf": "TAF EDDN 092300Z 1000/1024 10005KT 9999 FEW045"
    },
    {
      "icao": "EDDS",
      "alert": "OK",
      "vis_m": 9999,
      "fzfg": false,
      "metar_trigger": false,
      "taf_trigger": false,
      "metar": "METAR EDDS 092320Z AUTO VRB01KT CAVOK 08/01 Q1015",
      "taf": "TAF EDDS 092300Z 1000/1024 28004KT CAVOK"
    },
    {
      "icao": "EDFH",
      "alert": "OK",
      "vis_m": 9999,
      "fzfg": false,
      "metar_trigger": false,
      "taf_trigger": false,
      "metar": "METAR EDFH 092320Z 28005KT 250V310 9999 -SHRA FEW018 BKN041CB 15/05 Q1015",
      "taf": "TAF EDFH 092300Z 1000/1024 20007KT 9999 SCT030"
    },
    {
      "icao": "EDJA",
      "alert": "OK",
      "vis_m": 9999,
      "fzfg": false,
      "metar_trigger": false,
      "taf_trigger": false,
      "metar": "METAR EDJA 092320Z AUTO VRB02KT 9999 // OVC110/// 08/05 Q1016",
      "taf": ""
    },
    {
      "icao": "EDLW",
      "alert": "OK",
      "vis_m": 9999,
      "fzfg": false,
      "metar_trigger": false,
      "taf_trigger": false,
      "metar": "METAR EDLW 092320Z AUTO 19009KT 9999 // BKN073/// 15/06 Q1012",
      "taf": "TAF EDLW 091700Z 0918/1018 09007KT CAVOK"
    },
    {
      "icao": "EDNY",
      "alert": "OK",
      "vis_m": 9999,
      "fzfg": false,
      "metar_trigger": false,
      "taf_trigger": false,
      "metar": "METAR EDNY 092320Z AUTO 30003KT 9999 BKN150/// 10/05 Q1017",
      "taf": "TAF EDNY 091700Z 0918/1003 VRB03KT CAVOK"
    },
    {
      "icao": "EDSB",
      "alert": "OK",
      "vis_m": 9999,
      "fzfg": false,
      "metar_trigger": false,
      "taf_trigger": false,
      "metar": "METAR EDSB 092320Z AUTO 20003KT 9999 // FEW220/// 09/04 Q1015",
      "taf": "TAF EDSB 092300Z 1000/1024 20003KT CAVOK"
    },
    {
      "icao": "EETN",
      "alert": "OK",
      "vis_m": 9999,
      "fzfg": false,
      "metar_trigger": false,
      "taf_trigger": false,
      "metar": "METAR EETN 092320Z 08003KT CAVOK M01/M03 Q1027",
      "taf": "TAF EETN 092330Z 1000/1024 07010KT CAVOK"
    },
    {
      "icao": "EFTU",
      "alert": "OK",
      "vis_m": 9999,
      "fzfg": false,
      "metar_trigger": false,
      "taf_trigger": false,
      "metar": "METAR EFTU 092320Z AUTO VRB01KT CAVOK M04/M07 Q1028",
      "taf": "TAF EFTU 092327Z 1000/1024 VRB02KT CAVOK"
    },
    {
      "icao": "EGBB",
      "alert": "OK",
      "vis_m": 9999,
      "fzfg": false,
      "metar_trigger": false,
      "taf_trigger": false,
      "metar": "METAR EGBB 092320Z 25006KT 210V280 CAVOK 05/M00 Q1021",
      "taf": "TAF EGBB 092255Z 1000/1024 28006KT 9999 FEW045"
    },
    {
      "icao": "EGGP",
      "alert": "OK",
      "vis_m": 9999,
      "fzfg": false,
      "metar_trigger": false,
      "taf_trigger": false,
      "metar": "METAR EGGP 092320Z 29016KT 9999 BKN032 06/02 Q1020",
      "taf": "TAF EGGP 092255Z 1000/1024 28013KT 9999 FEW030"
    },
    {
      "icao": "EGGW",
      "alert": "OK",
      "vis_m": 9999,
      "fzfg": false,
      "metar_trigger": false,
      "taf_trigger": false,
      "metar": "METAR EGGW 092320Z AUTO 25011KT 9999 NCD 05/M00 Q1021",
      "taf": "TAF EGGW 092257Z 1000/1024 27010KT 9999 SCT040"
    },
    {
      "icao": "EGKK",
      "alert": "OK",
      "vis_m": 9999,
      "fzfg": false,
      "metar_trigger": false,
      "taf_trigger": false,
      "metar": "METAR EGKK 092320Z 29011KT CAVOK 08/M01 Q1022",
      "taf": "TAF EGKK 092254Z 1000/1106 32012KT CAVOK"
    },
    {
      "icao": "EGNM",
      "alert": "OK",
      "vis_m": 9999,
      "fzfg": false,
      "metar_trigger": false,
      "taf_trigger": false,
      "metar": "METAR EGNM 092320Z 26016G28KT 9999 FEW030 04/01 Q1015",
      "taf": "TAF EGNM 092256Z 1000/1024 27012KT 9999 FEW025"
    },
    {
      "icao": "EGPD",
      "alert": "OK",
      "vis_m": 9999,
      "fzfg": false,
      "metar_trigger": false,
      "taf_trigger": false,
      "metar": "METAR EGPD 092320Z COR AUTO 26005KT 9999 NCD 04/M01 Q1009 NOSIG",
      "taf": "TAF EGPD 092255Z 1000/1024 27009KT 9999 FEW040"
    },
    {
      "icao": "EGPF",
      "alert": "OK",
      "vis_m": 9999,
      "fzfg": false,
      "metar_trigger": false,
      "taf_trigger": false,
      "metar": "METAR EGPF 092320Z AUTO 26016KT 9999 -RA SCT019/// BKN027/// BKN033/// //////TCU 05/03 Q1015",
      "taf": "TAF EGPF 092255Z 1000/1024 26010KT 9999 FEW030"
    },
    {
      "icao": "EHBK",
      "alert": "OK",
      "vis_m": 9999,
      "fzfg": false,
      "metar_trigger": false,
      "taf_trigger": false,
      "metar": "METAR EHBK 092325Z AUTO 31011KT 260V350 9999 FEW026/// OVC031/// 14/08 Q1016",
      "taf": "TAF EHBK 092304Z 1000/1106 30010KT 9999 SCT030"
    },
    {
      "icao": "EHEH",
      "alert": "OK",
      "vis_m": 9999,
      "fzfg": false,
      "metar_trigger": false,
      "taf_trigger": false,
      "metar": "METAR EHEH 092325Z AUTO 31011G24KT 250V030 9999 SCT025 BKN028 BKN037 12/06 Q1016 BLU",
      "taf": ""
    },
    {
      "icao": "EKBI",
      "alert": "OK",
      "vis_m": 9999,
      "fzfg": false,
      "metar_trigger": false,
      "taf_trigger": false,
      "metar": "METAR EKBI 092320Z AUTO 12015G26KT 090V150 9999 BKN140/// 03/M05 Q1015",
      "taf": "TAF EKBI 092327Z 1000/1024 13015KT 9999 BKN045"
    },
    {
      "icao": "EKCH",
      "alert": "OK",
      "vis_m": 9999,
      "fzfg": false,
      "metar_trigger": false,
      "taf_trigger": false,
      "metar": "METAR EKCH 092320Z AUTO 12014KT 9999 NCD 02/M02 Q1022 NOSIG",
      "taf": "TAF EKCH 092327Z 1000/1024 13015KT CAVOK"
    },
    {
      "icao": "ENAL",
      "alert": "OK",
      "vis_m": 9999,
      "fzfg": false,
      "metar_trigger": false,
      "taf_trigger": false,
      "metar": "METAR ENAL 092320Z AUTO 36003KT 320V030 9999 -RA SCT019/// BKN045/// 06/04 Q1010",
      "taf": "TAF ENAL 092300Z 1000/1009 35005KT 9999 -RA BKN050"
    },
    {
      "icao": "ENBR",
      "alert": "OK",
      "vis_m": 9999,
      "fzfg": false,
      "metar_trigger": false,
      "taf_trigger": false,
      "metar": "METAR ENBR 092320Z 13021KT 9999 -SHRA FEW042 BKN051 07/M02 Q1009 RMK WIND 1200FT 13039KT",
      "taf": "TAF ENBR 092300Z 1000/1024 15020KT 9999 -RA FEW040 SCT050"
    },
    {
      "icao": "ENGM",
      "alert": "OK",
      "vis_m": 9999,
      "fzfg": false,
      "metar_trigger": false,
      "taf_trigger": false,
      "metar": "METAR ENGM 092320Z VRB02KT CAVOK M01/M06 Q1020",
      "taf": "TAF ENGM 092300Z 1000/1024 VRB03KT CAVOK"
    },
    {
      "icao": "ENHD",
      "alert": "OK",
      "vis_m": 9999,
      "fzfg": false,
      "metar_trigger": false,
      "taf_trigger": false,
      "metar": "METAR ENHD 092320Z AUTO 15024G37KT 9999 SQ OVC041/// 08/M01 Q1009 RERA",
      "taf": "TAF ENHD 091400Z 0915/0922 14018KT 9999 -RA SCT050"
    },
    {
      "icao": "ENTC",
      "alert": "OK",
      "vis_m": 9999,
      "fzfg": false,
      "metar_trigger": false,
      "taf_trigger": false,
      "metar": "METAR ENTC 092320Z AUTO VRB01KT 9999 NCD 06/M01 Q1016 RMK WIND 2600FT 17011KT",
      "taf": "TAF ENTC 092300Z 1000/1024 20005KT CAVOK"
    },
    {
      "icao": "ENTO",
      "alert": "OK",
      "vis_m": 9999,
      "fzfg": false,
      "metar_trigger": false,
      "taf_trigger": false,
      "metar": "METAR ENTO 092320Z AUTO VRB02KT 9999 NCD 03/03 Q1019",
      "taf": "TAF ENTO 092300Z 1000/1024 15008KT CAVOK"
    },
    {
      "icao": "ENVA",
      "alert": "OK",
      "vis_m": 9999,
      "fzfg": false,
      "metar_trigger": false,
      "taf_trigger": false,
      "metar": "METAR ENVA 092320Z AUTO 14016G27KT 110V170 9999 NCD 11/M01 Q1014 RMK WIND 670FT 16023G42KT",
      "taf": "TAF ENVA 092300Z 1000/1024 14015KT CAVOK"
    },
    {
      "icao": "ENZV",
      "alert": "OK",
      "vis_m": 9999,
      "fzfg": false,
      "metar_trigger": false,
      "taf_trigger": false,
      "metar": "METAR ENZV 092320Z AUTO 15032G46KT 9999 SQ NCD 07/M02 Q1009",
      "taf": ""
    },
    {
      "icao": "EPGD",
      "alert": "OK",
      "vis_m": 9999,
      "fzfg": false,
      "metar_trigger": false,
      "taf_trigger": false,
      "metar": "METAR EPGD 092330Z VRB01KT CAVOK M02/M02 Q1023",
      "taf": "TAF EPGD 092330Z 1000/1024 VRB02KT CAVOK"
    },
    {
      "icao": "EPKK",
      "alert": "OK",
      "vis_m": 7000,
      "fzfg": false,
      "metar_trigger": false,
      "taf_trigger": false,
      "metar": "METAR EPKK 092330Z 25003KT 7000 BKN032 BKN040 M00/M02 Q1020",
      "taf": "TAF EPKK 092330Z 1000/1024 24002KT 7000 BKN030"
    },
    {
      "icao": "EPKT",
      "alert": "OK",
      "vis_m": 6000,
      "fzfg": false,
      "metar_trigger": false,
      "taf_trigger": false,
      "metar": "METAR EPKT 092330Z 04001KT 6000 NSC M03/M04 Q1020",
      "taf": "TAF EPKT 092330Z 1000/1024 VRB02KT 6000 NSC"
    },
    {
      "icao": "EPLB",
      "alert": "OK",
      "vis_m": 9999,
      "fzfg": false,
      "metar_trigger": false,
      "taf_trigger": false,
      "metar": "METAR EPLB 092330Z 03004KT CAVOK 01/M01 Q1021",
      "taf": "TAF EPLB 092330Z 1000/1024 VRB05KT CAVOK"
    },
    {
      "icao": "EPMO",
      "alert": "OK",
      "vis_m": 9999,
      "fzfg": false,
      "metar_trigger": false,
      "taf_trigger": false,
      "metar": "METAR EPMO 092330Z 03004KT 9999 BKN047 M01/M04 Q1022",
      "taf": "TAF EPMO 092330Z 1000/1024 06004KT CAVOK"
    },
    {
      "icao": "EPPO",
      "alert": "OK",
      "vis_m": 9999,
      "fzfg": false,
      "metar_trigger": false,
      "taf_trigger": false,
      "metar": "METAR EPPO 092330Z 07005KT CAVOK M01/M05 Q1021",
      "taf": "TAF EPPO 092330Z 1000/1024 06006KT CAVOK"
    },
    {
      "icao": "EPRA",
      "alert": "OK",
      "vis_m": 9999,
      "fzfg": false,
      "metar_trigger": false,
      "taf_trigger": false,
      "metar": "METAR EPRA 092330Z 02002KT CAVOK 01/M02 Q1021",
      "taf": "TAF EPRA 092330Z 1000/1009 07005KT 9999 SCT040"
    },
    {
      "icao": "EPRZ",
      "alert": "OK",
      "vis_m": 3500,
      "fzfg": false,
      "metar_trigger": false,
      "taf_trigger": false,
      "metar": "METAR EPRZ 092330Z 27002KT 3500 BR NSC 01/00 Q1020",
      "taf": "TAF EPRZ 092330Z 1000/1024 VRB02KT 5000 BR NSC"
    },
    {
      "icao": "EPSC",
      "alert": "OK",
      "vis_m": 9999,
      "fzfg": false,
      "metar_trigger": false,
      "taf_trigger": false,
      "metar": "METAR EPSC 092330Z 07006KT CAVOK 00/M04 Q1021",
      "taf": "TAF EPSC 092330Z 1000/1024 06006KT CAVOK"
    },
    {
      "icao": "EPSY",
      "alert": "OK",
      "vis_m": 9999,
      "fzfg": false,
      "metar_trigger": false,
      "taf_trigger": false,
      "metar": "METAR EPSY 092330Z VRB03KT CAVOK 01/M04 Q1022",
      "taf": "TAF EPSY 092330Z 1000/1009 03005KT CAVOK"
    },
    {
      "icao": "EPWA",
      "alert": "OK",
      "vis_m": 9999,
      "fzfg": false,
      "metar_trigger": false,
      "taf_trigger": false,
      "metar": "METAR EPWA 092330Z 08006KT CAVOK 02/M03 Q1022 NOSIG",
      "taf": "TAF EPWA 092330Z 1000/1024 07006KT CAVOK"
    },
    {
      "icao": "EPWR",
      "alert": "OK",
      "vis_m": 9999,
      "fzfg": false,
      "metar_trigger": false,
      "taf_trigger": false,
      "metar": "METAR EPWR 092330Z VRB01KT CAVOK M02/M05 Q1020",
      "taf": "TAF EPWR 092330Z 1000/1024 VRB02KT CAVOK"
    },
    {
      "icao": "ESGG",
      "alert": "OK",
      "vis_m": 9999,
      "fzfg": false,
      "metar_trigger": false,
      "taf_trigger": false,
      "metar": "METAR ESGG 092320Z 13010KT CAVOK 01/M04 Q1021",
      "taf": "TAF ESGG 092330Z 1000/1024 14009KT CAVOK"
    },
    {
      "icao": "ESKN",
      "alert": "OK",
      "vis_m": 9999,
      "fzfg": false,
      "metar_trigger": false,
      "taf_trigger": false,
      "metar": "METAR ESKN 092320Z 07004KT CAVOK M02/M02 Q1026",
      "taf": "TAF ESKN 092330Z 1000/1024 07004KT CAVOK"
    },
    {
      "icao": "ESMS",
      "alert": "OK",
      "vis_m": 9999,
      "fzfg": false,
      "metar_trigger": false,
      "taf_trigger": false,
      "metar": "METAR ESMS 092320Z 11009KT CAVOK 00/M03 Q1021",
      "taf": "TAF ESMS 092327Z 1000/1024 11010KT CAVOK"
    },
    {
      "icao": "ESSA",
      "alert": "OK",
      "vis_m": 9999,
      "fzfg": false,
      "metar_trigger": false,
      "taf_trigger": false,
      "metar": "METAR ESSA 092320Z 08005KT CAVOK M05/M06 Q1026 NOSIG",
      "taf": "TAF ESSA 092330Z 1000/1024 10004KT CAVOK"
    },
    {
      "icao": "EYKA",
      "alert": "OK",
      "vis_m": 9999,
      "fzfg": false,
      "metar_trigger": false,
      "taf_trigger": false,
      "metar": "METAR EYKA 092320Z VRB02KT 9999 OVC042 00/M04 Q1023",
      "taf": "TAF EYKA 092302Z 1000/1024 VRB04KT 9000 BKN040"
    },
    {
      "icao": "EYPA",
      "alert": "OK",
      "vis_m": 9999,
      "fzfg": false,
      "metar_trigger": false,
      "taf_trigger": false,
      "metar": "METAR EYPA 092320Z AUTO 09004KT 9999 NCD M01/M05 Q1025",
      "taf": "TAF EYPA 092302Z 1000/1024 VRB04KT 9000 NSC"
    },
    {
      "icao": "EYVI",
      "alert": "OK",
      "vis_m": 9999,
      "fzfg": false,
      "metar_trigger": false,
      "taf_trigger": false,
      "metar": "METAR EYVI 092320Z 33004KT 9999 OVC036 01/M04 Q1022 NOSIG",
      "taf": "TAF EYVI 092302Z 1000/1024 VRB04KT 9000 BKN035"
    },
    {
      "icao": "GCFV",
      "alert": "OK",
      "vis_m": 9999,
      "fzfg": false,
      "metar_trigger": false,
      "taf_trigger": false,
      "metar": "METAR GCFV 092330Z AUTO 33015KT CAVOK 17/10 Q1017",
      "taf": ""
    },
    {
      "icao": "GCLP",
      "alert": "OK",
      "vis_m": 9999,
      "fzfg": false,
      "metar_trigger": false,
      "taf_trigger": false,
      "metar": "METAR GCLP 092330Z 33015KT 9999 SCT040 16/12 Q1019 NOSIG",
      "taf": ""
    },
    {
      "icao": "GCTS",
      "alert": "OK",
      "vis_m": 9999,
      "fzfg": false,
      "metar_trigger": false,
      "taf_trigger": false,
      "metar": "METAR GCTS 092330Z 36005KT 9999 FEW030 17/11 Q1019 NOSIG",
      "taf": "TAF GCTS 092000Z 0921/1021 VRB09KT 9999 SCT030 TX23/1014Z TN15/1006Z"
    },
    {
      "icao": "GMAD",
      "alert": "OK",
      "vis_m": 9999,
      "fzfg": false,
      "metar_trigger": false,
      "taf_trigger": false,
      "metar": "METAR GMAD 092330Z 13006KT 9999 SCT016 FEW026TCU SCT080 15/12 Q1013 NOSIG",
      "taf": "TAF GMAD 092300Z 1000/1106 18006KT 6000 SCT020 SCT080"
    },
    {
      "icao": "GMMN",
      "alert": "OK",
      "vis_m": 9999,
      "fzfg": false,
      "metar_trigger": false,
      "taf_trigger": false,
      "metar": "METAR GMMN 092330Z 05004KT 020V080 9999 FEW026 SCT100 12/09 Q1014 NOSIG",
      "taf": "TAF GMMN 092300Z 1000/1106 06006KT 9999 FEW026 SCT100"
    },
    {
      "icao": "GMMX",
      "alert": "OK",
      "vis_m": 8000,
      "fzfg": false,
      "metar_trigger": false,
      "taf_trigger": false,
      "metar": "METAR GMMX 092330Z VRB02KT 8000 BKN026 11/10 Q1013 NOSIG",
      "taf": "TAF GMMX 092300Z 1000/1106 26008KT 8000 SCT013 BKN023"
    },
    {
      "icao": "HEGN",
      "alert": "OK",
      "vis_m": 9999,
      "fzfg": false,
      "metar_trigger": false,
      "taf_trigger": false,
      "metar": "METAR HEGN 092300Z 00000KT CAVOK 20/01 Q1015 NOSIG",
      "taf": "TAF HEGN 092300Z 1000/1106 26010KT CAVOK"
    },
    {
      "icao": "HEMA",
      "alert": "OK",
      "vis_m": 9999,
      "fzfg": false,
      "metar_trigger": false,
      "taf_trigger": false,
      "metar": "METAR HEMA 092300Z 27005KT CAVOK 18/08 Q1014 NOSIG",
      "taf": "TAF HEMA 092300Z 1000/1106 27010KT CAVOK"
    },
    {
      "icao": "HESH",
      "alert": "OK",
      "vis_m": 9999,
      "fzfg": false,
      "metar_trigger": false,
      "taf_trigger": false,
      "metar": "METAR HESH 092300Z 00000KT CAVOK 20/13 Q1014 NOSIG",
      "taf": "TAF HESH 092300Z 1000/1106 33010KT CAVOK"
    },
    {
      "icao": "HESX",
      "alert": "OK",
      "vis_m": 9999,
      "fzfg": false,
      "metar_trigger": false,
      "taf_trigger": false,
      "metar": "METAR HESX 092300Z 30003KT CAVOK 16/09 Q1017 NOSIG",
      "taf": "TAF HESX 092300Z 1000/1106 VRB03KT CAVOK"
    },
    {
      "icao": "LATI",
      "alert": "OK",
      "vis_m": null,
      "fzfg": false,
      "metar_trigger": false,
      "taf_trigger": false,
      "metar": "",
      "taf": "TAF LATI 092300Z 1000/1024 VRB05KT CAVOK TX21/1012Z TN04/1004Z"
    },
    {
      "icao": "LBPD",
      "alert": "OK",
      "vis_m": 9999,
      "fzfg": false,
      "metar_trigger": false,
      "taf_trigger": false,
      "metar": "METAR LBPD 092330Z AUTO 14006KT 9999 FEW088/// 04/01 Q1016",
      "taf": "TAF LBPD 092300Z 1000/1024 29010KT 9999 SCT060"
    },
    {
      "icao": "LBSF",
      "alert": "OK",
      "vis_m": 9999,
      "fzfg": false,
      "metar_trigger": false,
      "taf_trigger": false,
      "metar": "METAR LBSF 092330Z AUTO 29005KT 9999 FEW057/// 04/M04 Q1016 NOSIG",
      "taf": "TAF LBSF 092300Z 1000/1024 VRB03KT 9999 SCT060"
    },
    {
      "icao": "LBWN",
      "alert": "OK",
      "vis_m": 9999,
      "fzfg": false,
      "metar_trigger": false,
      "taf_trigger": false,
      "metar": "METAR LBWN 092330Z AUTO 00000KT 9999 FEW039/// 05/05 Q1016 TEMPO 5000 RA",
      "taf": "TAF LBWN 092300Z 1000/1024 02010KT 9999 SCT025 BKN040"
    },
    {
      "icao": "LCLK",
      "alert": "OK",
      "vis_m": 9999,
      "fzfg": false,
      "metar_trigger": false,
      "taf_trigger": false,
      "metar": "METAR LCLK 092330Z 27006KT 240V320 9999 FEW025 15/13 Q1011 NOSIG",
      "taf": "TAF LCLK 092330Z 1000/1100 25009KT 9999 FEW020 SCT050"
    },
    {
      "icao": "LCPH",
      "alert": "OK",
      "vis_m": 9999,
      "fzfg": false,
      "metar_trigger": false,
      "taf_trigger": false,
      "metar": "METAR LCPH 092330Z 28008KT 250V320 9999 SCT013 BKN040 17/14 Q1011 NOSIG",
      "taf": "TAF LCPH 092330Z 1000/1100 26007KT 9999 SCT018"
    },
    {
      "icao": "LEAL",
      "alert": "OK",
      "vis_m": 9999,
      "fzfg": false,
      "metar_trigger": false,
      "taf_trigger": false,
      "metar": "METAR LEAL 092330Z 36004KT 330V030 CAVOK 18/05 Q1018 NOSIG",
      "taf": "TAF LEAL 092300Z 1000/1024 36004KT CAVOK TX26/1013Z TN14/1006Z"
    },
    {
      "icao": "LEBB",
      "alert": "OK",
      "vis_m": 9999,
      "fzfg": false,
      "metar_trigger": false,
      "taf_trigger": false,
      "metar": "METAR LEBB 092330Z AUTO VRB02KT 9999 SCT012 BKN017 14/12 Q1023",
      "taf": "TAF LEBB 092300Z 1000/1024 31006KT 9999 FEW010 TX31/1014Z TN11/1006Z"
    },
    {
      "icao": "LEBL",
      "alert": "OK",
      "vis_m": 9000,
      "fzfg": false,
      "metar_trigger": false,
      "taf_trigger": false,
      "metar": "METAR LEBL 092330Z 27003KT 230V290 9000 FEW005 14/13 Q1018 NOSIG",
      "taf": "TAF LEBL 092300Z 1000/1024 20005KT 9999 FEW005 TX23/1012Z TN12/1006Z"
    },
    {
      "icao": "LECH",
      "alert": "OK",
      "vis_m": 8000,
      "fzfg": false,
      "metar_trigger": false,
      "taf_trigger": false,
      "metar": "METAR LECH 092330Z AUTO 19006KT 8000 NCD 14/03 Q1019",
      "taf": "TAF LECH 092300Z 1000/1024 VRB04KT CAVOK TX26/1014Z TN09/1006Z"
    },
    {
      "icao": "LEMD",
      "alert": "OK",
      "vis_m": 9999,
      "fzfg": false,
      "metar_trigger": false,
      "taf_trigger": false,
      "metar": "METAR LEMD 092330Z 33007KT CAVOK 16/04 Q1020 NOSIG",
      "taf": "TAF LEMD 092300Z 1000/1106 VRB04KT CAVOK TX29/1015Z TN09/1006Z"
    },
    {
      "icao": "LEMG",
      "alert": "OK",
      "vis_m": 9999,
      "fzfg": false,
      "metar_trigger": false,
      "taf_trigger": false,
      "metar": "METAR LEMG 092330Z 29007KT CAVOK 15/12 Q1014 NOSIG",
      "taf": "TAF LEMG 092300Z 1000/1024 29005KT 9999 FEW020 SCT040 TX24/1014Z TN14/1007Z"
    },
    {
      "icao": "LEVC",
      "alert": "OK",
      "vis_m": 9999,
      "fzfg": false,
      "metar_trigger": false,
      "taf_trigger": false,
      "metar": "METAR LEVC 092330Z 26005KT CAVOK 13/06 Q1019 NOSIG",
      "taf": "TAF LEVC 092300Z 1000/1024 29004KT 9999 FEW010 TX26/1013Z TN13/1006Z"
    },
    {
      "icao": "LEXJ",
      "alert": "OK",
      "vis_m": 8000,
      "fzfg": false,
      "metar_trigger": false,
      "taf_trigger": false,
      "metar": "METAR LEXJ 092330Z AUTO VRB02KT 8000 SCT018 12/10 Q1023",
      "taf": "TAF LEXJ 092000Z 0921/1021 28007KT 9000 SCT010 TX24/1014Z TN12/1007Z"
    },
    {
      "icao": "LEZG",
      "alert": "OK",
      "vis_m": 9999,
      "fzfg": false,
      "metar_trigger": false,
      "taf_trigger": false,
      "metar": "METAR LEZG 092330Z 27010KT CAVOK 18/07 Q1019 NOSIG",
      "taf": "TAF LEZG 092300Z 1000/1024 29010KT CAVOK TX30/1015Z TN12/1006Z"
    },
    {
      "icao": "LEZL",
      "alert": "OK",
      "vis_m": 9999,
      "fzfg": false,
      "metar_trigger": false,
      "taf_trigger": false,
      "metar": "METAR LEZL 092330Z 22004KT 160V250 CAVOK 17/12 Q1014 NOSIG",
      "taf": "TAF LEZL 092000Z 0921/1021 21006KT CAVOK TX26/1015Z TN11/1007Z"
    },
    {
      "icao": "LFBD",
      "alert": "OK",
      "vis_m": 1400,
      "fzfg": false,
      "metar_trigger": false,
      "taf_trigger": false,
      "metar": "METAR LFBD 092330Z AUTO 26008KT 1400 1000 R23/1900D R05/1500U R29/1400U BR VV/// 13/13 Q1020 TEMPO 0400 FG",
      "taf": "TAF LFBD 092300Z 1000/1106 24008KT 3000 BR BKN002 TX27/1015Z TN12/1005Z"
    },
    {
      "icao": "LFLL",
      "alert": "OK",
      "vis_m": 9999,
      "fzfg": false,
      "metar_trigger": false,
      "taf_trigger": false,
      "metar": "METAR LFLL 092300Z VRB02KT CAVOK 16/09 Q1017 NOSIG",
      "taf": "TAF LFLL 092300Z 1000/1106 VRB02KT CAVOK"
    },
    {
      "icao": "LFLS",
      "alert": "OK",
      "vis_m": 9999,
      "fzfg": false,
      "metar_trigger": false,
      "taf_trigger": false,
      "metar": "METAR LFLS 092330Z AUTO 10005KT CAVOK 08/06 Q1018",
      "taf": "TAF LFLS 091400Z 0915/1015 09005KT CAVOK"
    },
    {
      "icao": "LFMN",
      "alert": "OK",
      "vis_m": 9999,
      "fzfg": false,
      "metar_trigger": false,
      "taf_trigger": false,
      "metar": "METAR LFMN 092330Z 05003KT 010V080 9999 BKN014 16/12 Q1015 NOSIG",
      "taf": "TAF LFMN 092000Z 0921/1103 VRB03KT 9999 FEW012"
    },
    {
      "icao": "LFOB",
      "alert": "OK",
      "vis_m": 9999,
      "fzfg": false,
      "metar_trigger": false,
      "taf_trigger": false,
      "metar": "METAR LFOB 092330Z AUTO 28006KT CAVOK 08/07 Q1020 NOSIG",
      "taf": "TAF LFOB 092300Z 1000/1024 33010KT CAVOK"
    },
    {
      "icao": "LFPO",
      "alert": "OK",
      "vis_m": 9999,
      "fzfg": false,
      "metar_trigger": false,
      "taf_trigger": false,
      "metar": "METAR LFPO 092330Z 33012KT CAVOK 12/05 Q1020 NOSIG",
      "taf": "TAF LFPO 092300Z 1000/1106 33010KT CAVOK"
    },
    {
      "icao": "LFSB",
      "alert": "OK",
      "vis_m": 9999,
      "fzfg": false,
      "metar_trigger": false,
      "taf_trigger": false,
      "metar": "METAR LFSB 092330Z AUTO 11001KT CAVOK 09/06 Q1017 TEMPO SCT080TCU",
      "taf": "TAF LFSB 092300Z 1000/1024 VRB03KT CAVOK"
    },
    {
      "icao": "LGAV",
      "alert": "OK",
      "vis_m": 9999,
      "fzfg": false,
      "metar_trigger": false,
      "taf_trigger": false,
      "metar": "METAR LGAV 092320Z VRB01KT 9999 FEW030 10/08 Q1015 NOSIG",
      "taf": "TAF LGAV 092300Z 1000/1024 VRB03KT 9999 SCT030"
    },
    {
      "icao": "LGTS",
      "alert": "OK",
      "vis_m": 9999,
      "fzfg": false,
      "metar_trigger": false,
      "taf_trigger": false,
      "metar": "METAR LGTS 092320Z 10006KT 9999 FEW020 08/06 Q1015 NOSIG",
      "taf": "TAF LGTS 092300Z 1000/1024 34015KT 9999 FEW025"
    },
    {
      "icao": "LHBP",
      "alert": "OK",
      "vis_m": 9999,
      "fzfg": false,
      "metar_trigger": false,
      "taf_trigger": false,
      "metar": "METAR LHBP 092330Z 08006KT 040V110 CAVOK 02/M01 Q1019 NOSIG",
      "taf": "TAF LHBP 092315Z 1000/1024 07007KT CAVOK"
    },
    {
      "icao": "LHDC",
      "alert": "OK",
      "vis_m": 9999,
      "fzfg": false,
      "metar_trigger": false,
      "taf_trigger": false,
      "metar": "METAR LHDC 092315Z AUTO 01006KT CAVOK 05/M03 Q1019",
      "taf": "TAF LHDC 091415Z 0915/0924 03008KT CAVOK"
    },
    {
      "icao": "LIBD",
      "alert": "OK",
      "vis_m": 9999,
      "fzfg": false,
      "metar_trigger": false,
      "taf_trigger": false,
      "metar": "METAR LIBD 092320Z 22005KT CAVOK 11/05 Q1015",
      "taf": "TAF LIBD 092300Z 1000/1024 22006KT CAVOK"
    },
    {
      "icao": "LIBG",
      "alert": "OK",
      "vis_m": null,
      "fzfg": false,
      "metar_trigger": false,
      "taf_trigger": false,
      "metar": "",
      "taf": "TAF LIBG 091400Z 0915/0924 01012KT CAVOK"
    },
    {
      "icao": "LIBP",
      "alert": "OK",
      "vis_m": 9999,
      "fzfg": false,
      "metar_trigger": false,
      "taf_trigger": false,
      "metar": "METAR LIBP 092320Z AUTO 23003KT 9999 FEW200/// 09/08 Q1015",
      "taf": "TAF LIBP 092300Z 1000/1024 VRB05KT CAVOK"
    },
    {
      "icao": "LIBR",
      "alert": "OK",
      "vis_m": 9999,
      "fzfg": false,
      "metar_trigger": false,
      "taf_trigger": false,
      "metar": "METAR LIBR 092320Z 23004KT CAVOK 10/03 Q1015",
      "taf": "TAF LIBR 092300Z 1000/1024 VRB05KT CAVOK"
    },
    {
      "icao": "LICA",
      "alert": "OK",
      "vis_m": 9999,
      "fzfg": false,
      "metar_trigger": false,
      "taf_trigger": false,
      "metar": "METAR LICA 092320Z AUTO VRB01KT 9999 NCD 10/08 Q1017",
      "taf": "TAF LICA 092300Z 1000/1024 26005KT CAVOK"
    },
    {
      "icao": "LICC",
      "alert": "OK",
      "vis_m": 9999,
      "fzfg": false,
      "metar_trigger": false,
      "taf_trigger": false,
      "metar": "METAR LICC 092320Z 24007KT CAVOK 10/05 Q1017",
      "taf": "TAF LICC 092300Z 1000/1024 VRB05KT CAVOK"
    },
    {
      "icao": "LICJ",
      "alert": "OK",
      "vis_m": 9999,
      "fzfg": false,
      "metar_trigger": false,
      "taf_trigger": false,
      "metar": "METAR LICJ 092320Z VRB01KT CAVOK 15/04 Q1017",
      "taf": "TAF LICJ 092300Z 1000/1024 VRB05KT CAVOK"
    },
    {
      "icao": "LIMC",
      "alert": "OK",
      "vis_m": 9999,
      "fzfg": false,
      "metar_trigger": false,
      "taf_trigger": false,
      "metar": "METAR LIMC 092320Z 05003KT 010V080 CAVOK 14/09 Q1015 NOSIG",
      "taf": "TAF LIMC 092300Z 1000/1106 VRB05KT CAVOK"
    },
    {
      "icao": "LIME",
      "alert": "OK",
      "vis_m": 9999,
      "fzfg": false,
      "metar_trigger": false,
      "taf_trigger": false,
      "metar": "METAR LIME 092320Z 08002KT CAVOK 11/07 Q1016 NOSIG",
      "taf": "TAF LIME 092300Z 1000/1024 VRB05KT CAVOK"
    },
    {
      "icao": "LIMF",
      "alert": "OK",
      "vis_m": 9999,
      "fzfg": false,
      "metar_trigger": false,
      "taf_trigger": false,
      "metar": "METAR LIMF 092320Z 31004KT CAVOK 15/09 Q1015",
      "taf": "TAF LIMF 092300Z 1000/1024 VRB05KT CAVOK"
    },
    {
      "icao": "LIMJ",
      "alert": "OK",
      "vis_m": 9999,
      "fzfg": false,
      "metar_trigger": false,
      "taf_trigger": false,
      "metar": "METAR LIMJ 092320Z 03003KT CAVOK 14/11 Q1015",
      "taf": "TAF LIMJ 092300Z 1000/1024 VRB05KT 9000 FEW014"
    },
    {
      "icao": "LIPE",
      "alert": "OK",
      "vis_m": 9999,
      "fzfg": false,
      "metar_trigger": false,
      "taf_trigger": false,
      "metar": "METAR LIPE 092320Z 08002KT CAVOK 11/M02 Q1015",
      "taf": "TAF LIPE 092300Z 1000/1024 VRB05KT CAVOK"
    },
    {
      "icao": "LIPH",
      "alert": "OK",
      "vis_m": null,
      "fzfg": false,
      "metar_trigger": false,
      "taf_trigger": false,
      "metar": "",
      "taf": "TAF LIPH 092300Z 1000/1024 VRB05KT CAVOK"
    },
    {
      "icao": "LIPQ",
      "alert": "OK",
      "vis_m": 9999,
      "fzfg": false,
      "metar_trigger": false,
      "taf_trigger": false,
      "metar": "METAR LIPQ 092320Z AUTO VRB01KT 9999 NCD 06/05 Q1016",
      "taf": "TAF LIPQ 092300Z 1000/1024 VRB05KT CAVOK"
    },
    {
      "icao": "LIPR",
      "alert": "OK",
      "vis_m": 9999,
      "fzfg": false,
      "metar_trigger": false,
      "taf_trigger": false,
      "metar": "METAR LIPR 092320Z AUTO 22004KT 9999 FEW063/// 10/08 Q1015",
      "taf": "TAF LIPR 092300Z 1000/1024 VRB05KT CAVOK"
    },
    {
      "icao": "LIPX",
      "alert": "OK",
      "vis_m": 9999,
      "fzfg": false,
      "metar_trigger": false,
      "taf_trigger": false,
      "metar": "METAR LIPX 092320Z VRB01KT CAVOK 10/07 Q1016",
      "taf": "TAF LIPX 092300Z 1000/1024 VRB05KT 9999 FEW040"
    },
    {
      "icao": "LIPY",
      "alert": "OK",
      "vis_m": 9999,
      "fzfg": false,
      "metar_trigger": false,
      "taf_trigger": false,
      "metar": "METAR LIPY 092320Z AUTO VRB01KT 9999 FEW075/// 10/07 Q1015",
      "taf": "TAF LIPY 092300Z 1000/1024 VRB05KT CAVOK"
    },
    {
      "icao": "LIPZ",
      "alert": "OK",
      "vis_m": 9999,
      "fzfg": false,
      "metar_trigger": false,
      "taf_trigger": false,
      "metar": "METAR LIPZ 092320Z 02003KT 350V050 CAVOK 10/07 Q1016 NOSIG",
      "taf": "TAF LIPZ 092300Z 1000/1106 VRB05KT CAVOK"
    },
    {
      "icao": "LIRF",
      "alert": "OK",
      "vis_m": 6000,
      "fzfg": false,
      "metar_trigger": false,
      "taf_trigger": false,
      "metar": "METAR LIRF 092320Z 14004KT 6000 NSC 11/11 Q1016 NOSIG",
      "taf": "TAF LIRF 092300Z 1000/1106 VRB05KT CAVOK"
    },
    {
      "icao": "LIRN",
      "alert": "OK",
      "vis_m": 9999,
      "fzfg": false,
      "metar_trigger": false,
      "taf_trigger": false,
      "metar": "METAR LIRN 092320Z AUTO VRB01KT 9999 NCD 13/12 Q1017",
      "taf": "TAF LIRN 092300Z 1000/1024 VRB05KT 9999 SCT015"
    },
    {
      "icao": "LIRP",
      "alert": "OK",
      "vis_m": 9999,
      "fzfg": false,
      "metar_trigger": false,
      "taf_trigger": false,
      "metar": "METAR LIRP 092315Z 15003KT 9999 MIFG NSC 09/09 Q1016 TEMPO 5000",
      "taf": "TAF LIRP 092300Z 1000/1024 12004KT 5000 BR FEW010"
    },
    {
      "icao": "LIRZ",
      "alert": "OK",
      "vis_m": 9999,
      "fzfg": false,
      "metar_trigger": false,
      "taf_trigger": false,
      "metar": "METAR LIRZ 092320Z AUTO VRB02KT 9999 NCD 10/05 Q1016",
      "taf": "TAF LIRZ 092300Z 1000/1024 VRB05KT CAVOK"
    },
    {
      "icao": "LJLJ",
      "alert": "OK",
      "vis_m": 9999,
      "fzfg": false,
      "metar_trigger": false,
      "taf_trigger": false,
      "metar": "METAR LJLJ 092330Z 28005KT CAVOK 02/M02 Q1017 NOSIG",
      "taf": "TAF LJLJ 092300Z 1000/1100 VRB02KT CAVOK"
    },
    {
      "icao": "LKMT",
      "alert": "OK",
      "vis_m": 9999,
      "fzfg": false,
      "metar_trigger": false,
      "taf_trigger": false,
      "metar": "METAR LKMT 092330Z 03004KT CAVOK M02/M04 Q1020 NOSIG",
      "taf": "TAF LKMT 092300Z 1000/1024 VRB02KT CAVOK"
    },
    {
      "icao": "LKPR",
      "alert": "OK",
      "vis_m": 9999,
      "fzfg": false,
      "metar_trigger": false,
      "taf_trigger": false,
      "metar": "METAR LKPR 092330Z 08005KT CAVOK M01/M05 Q1018 NOSIG",
      "taf": "TAF LKPR 092300Z 1000/1106 10006KT CAVOK"
    },
    {
      "icao": "LLBG",
      "alert": "OK",
      "vis_m": 9999,
      "fzfg": false,
      "metar_trigger": false,
      "taf_trigger": false,
      "metar": "METAR LLBG 092320Z VRB02KT 9999 FEW027 14/10 Q1015 NOSIG",
      "taf": "TAF LLBG 092314Z 1000/1024 VRB04KT 9999 SCT025 TX22/1011Z TN13/1003Z"
    },
    {
      "icao": "LMML",
      "alert": "OK",
      "vis_m": 9999,
      "fzfg": false,
      "metar_trigger": false,
      "taf_trigger": false,
      "metar": "METAR LMML 092345Z 24007KT CAVOK 16/04 Q1018 NOSIG",
      "taf": "TAF LMML 092300Z 1000/1024 28008KT CAVOK ."
    },
    {
      "icao": "LOWW",
      "alert": "OK",
      "vis_m": 9999,
      "fzfg": false,
      "metar_trigger": false,
      "taf_trigger": false,
      "metar": "METAR LOWW 092320Z 01004KT CAVOK 00/M05 Q1019 NOSIG",
      "taf": "TAF LOWW 092315Z 1000/1106 36008KT CAVOK TX06/1011Z TN01/1004Z"
    },
    {
      "icao": "LPFR",
      "alert": "OK",
      "vis_m": 9999,
      "fzfg": false,
      "metar_trigger": false,
      "taf_trigger": false,
      "metar": "METAR LPFR 092330Z 24004KT CAVOK 16/13 Q1014",
      "taf": "TAF LPFR 092300Z 1000/1024 03008KT 9999 SCT030"
    },
    {
      "icao": "LPMA",
      "alert": "OK",
      "vis_m": 9999,
      "fzfg": false,
      "metar_trigger": false,
      "taf_trigger": false,
      "metar": "METAR LPMA 092330Z 01013KT 9999 -SHRA BKN015 FEW016TCU 15/12 Q1019 RESHRA",
      "taf": "TAF LPMA 092300Z 1000/1024 36015KT 9999 SCT015"
    },
    {
      "icao": "LPPR",
      "alert": "OK",
      "vis_m": 9999,
      "fzfg": false,
      "metar_trigger": false,
      "taf_trigger": false,
      "metar": "METAR LPPR 092330Z 01004KT CAVOK 17/13 Q1016",
      "taf": "TAF LPPR 092300Z 1000/1024 VRB02KT CAVOK"
    },
    {
      "icao": "LPPS",
      "alert": "OK",
      "vis_m": 9000,
      "fzfg": false,
      "metar_trigger": false,
      "taf_trigger": false,
      "metar": "METAR LPPS 092330Z 01008KT 9000 -SHRA SCT012 BKN030 13/12 Q1020",
      "taf": "TAF LPPS 092300Z 1000/1106 34015KT 9999 SCT012 SCT030"
    },
    {
      "icao": "LPPT",
      "alert": "OK",
      "vis_m": 9999,
      "fzfg": false,
      "metar_trigger": false,
      "taf_trigger": false,
      "metar": "METAR LPPT 092330Z 26007KT CAVOK 18/13 Q1014",
      "taf": "TAF LPPT 092300Z 1000/1106 23007KT 9999 SCT030"
    },
    {
      "icao": "LQBK",
      "alert": "OK",
      "vis_m": 9999,
      "fzfg": false,
      "metar_trigger": false,
      "taf_trigger": false,
      "metar": "METAR LQBK 092330Z 14007KT CAVOK 03/M01 Q1018 NOSIG",
      "taf": "TAF LQBK 092300Z 1000/1024 17005KT CAVOK TX16/1013Z TNM00/1004Z"
    },
    {
      "icao": "LQSA",
      "alert": "OK",
      "vis_m": 9999,
      "fzfg": false,
      "metar_trigger": false,
      "taf_trigger": false,
      "metar": "METAR LQSA 092330Z VRB02KT CAVOK 01/M04 Q1018",
      "taf": "TAF LQSA 092300Z 1000/1024 32006KT 9999 SCT060 TX17/1014Z TNM02/1005Z"
    },
    {
      "icao": "LQTZ",
      "alert": "OK",
      "vis_m": 9999,
      "fzfg": false,
      "metar_trigger": false,
      "taf_trigger": false,
      "metar": "METAR LQTZ 092330Z 00000KT CAVOK M01/M01 Q1018",
      "taf": "TAF LQTZ 092300Z 1000/1024 VRB02KT CAVOK TX15/1013Z TNM02/1004Z"
    },
    {
      "icao": "LRBC",
      "alert": "OK",
      "vis_m": 9999,
      "fzfg": false,
      "metar_trigger": false,
      "taf_trigger": false,
      "metar": "METAR LRBC 092330Z 32010KT 9999 FEW038 02/M02 Q1018",
      "taf": "TAF LRBC 092300Z 1000/1009 34012KT 9999 SCT035"
    },
    {
      "icao": "LRBS",
      "alert": "OK",
      "vis_m": 9999,
      "fzfg": false,
      "metar_trigger": false,
      "taf_trigger": false,
      "metar": "METAR LRBS 092330Z 08005KT 9999 FEW029 05/02 Q1017 NOSIG",
      "taf": "TAF LRBS 092300Z 1000/1024 VRB04KT CAVOK"
    },
    {
      "icao": "LRBV",
      "alert": "OK",
      "vis_m": 9999,
      "fzfg": false,
      "metar_trigger": false,
      "taf_trigger": false,
      "metar": "METAR LRBV 092330Z AUTO 09006KT 9999 UP OVC017/// 00/M01 Q1016",
      "taf": "TAF LRBV 092000Z 0921/1006 29006KT 9999 SCT020 BKN040"
    },
    {
      "icao": "LRCL",
      "alert": "OK",
      "vis_m": 9999,
      "fzfg": false,
      "metar_trigger": false,
      "taf_trigger": false,
      "metar": "METAR LRCL 092330Z 26004KT 240V320 9999 BKN061 01/M03 Q1017",
      "taf": "TAF LRCL 092300Z 1000/1009 VRB04KT CAVOK"
    },
    {
      "icao": "LRCV",
      "alert": "OK",
      "vis_m": 9999,
      "fzfg": false,
      "metar_trigger": false,
      "taf_trigger": false,
      "metar": "METAR LRCV 092330Z 35003KT CAVOK 05/02 Q1016",
      "taf": "TAF LRCV 092300Z 1000/1009 VRB04KT CAVOK"
    },
    {
      "icao": "LRIA",
      "alert": "OK",
      "vis_m": 9999,
      "fzfg": false,
      "metar_trigger": false,
      "taf_trigger": false,
      "metar": "METAR LRIA 092330Z 31009KT 9999 -RA OVC005 02/01 Q1017",
      "taf": "TAF LRIA 092300Z 1000/1009 31011KT 9999 OVC010"
    },
    {
      "icao": "LROP",
      "alert": "OK",
      "vis_m": 9999,
      "fzfg": false,
      "metar_trigger": false,
      "taf_trigger": false,
      "metar": "METAR LROP 092330Z 10006KT 9999 SCT042 06/M00 Q1017 NOSIG",
      "taf": "TAF LROP 092300Z 1000/1024 VRB04KT CAVOK"
    },
    {
      "icao": "LRSB",
      "alert": "OK",
      "vis_m": 9999,
      "fzfg": false,
      "metar_trigger": false,
      "taf_trigger": false,
      "metar": "METAR LRSB 092330Z 28006KT 9999 FEW065 01/M00 Q1016",
      "taf": "TAF LRSB 092300Z 1000/1024 VRB04KT 9999 SCT045"
    },
    {
      "icao": "LRSM",
      "alert": "OK",
      "vis_m": 9999,
      "fzfg": false,
      "metar_trigger": false,
      "taf_trigger": false,
      "metar": "METAR LRSM 092330Z AUTO 05001KT 9999 SCT090/// BKN110/// M00/M04 Q1019",
      "taf": "TAF LRSM 092000Z 0921/1006 35006KT CAVOK"
    },
    {
      "icao": "LRSV",
      "alert": "OK",
      "vis_m": 9999,
      "fzfg": false,
      "metar_trigger": false,
      "taf_trigger": false,
      "metar": "METAR LRSV 092330Z 31009KT 9999 -SN SCT026 00/M02 Q1017",
      "taf": "TAF LRSV 092300Z 1000/1009 32010KT 9999 SCT025"
    },
    {
      "icao": "LRTM",
      "alert": "OK",
      "vis_m": 9999,
      "fzfg": false,
      "metar_trigger": false,
      "taf_trigger": false,
      "metar": "METAR LRTM 092330Z VRB02KT 9999 FEW043 M00/M01 Q1017",
      "taf": "TAF LRTM 092300Z 1000/1009 VRB04KT CAVOK"
    },
    {
      "icao": "LRTR",
      "alert": "OK",
      "vis_m": 9999,
      "fzfg": false,
      "metar_trigger": false,
      "taf_trigger": false,
      "metar": "METAR LRTR 092330Z VRB02KT CAVOK 03/01 Q1018 NOSIG",
      "taf": "TAF LRTR 092300Z 1000/1024 VRB04KT CAVOK"
    },
    {
      "icao": "LTAC",
      "alert": "OK",
      "vis_m": 9999,
      "fzfg": false,
      "metar_trigger": false,
      "taf_trigger": false,
      "metar": "METAR LTAC 092320Z 22003KT 9999 SCT040 BKN080 02/M02 Q1012 NOSIG RMK RWY21C VRB01KT RWY03L 20004KT RWY21R 00000KT RWY03R 28002KT RWY21L 22003KT",
      "taf": "TAF LTAC 092240Z 1000/1024 VRB02KT 9999 SCT040 BKN100"
    },
    {
      "icao": "LTFM",
      "alert": "OK",
      "vis_m": 9999,
      "fzfg": false,
      "metar_trigger": false,
      "taf_trigger": false,
      "metar": "METAR LTFM 092320Z 35005KT 9999 SCT035 BKN090 07/02 Q1016 NOSIG RMK RWY17L 33007KT 280V020 RWY34L 31005KT RWY16R 31002KT RWY36 36005KT RWY18 34007KT 290V020",
      "taf": "TAF LTFM 092240Z 1000/1106 VRB02KT 9999 SCT035 BKN090"
    },
    {
      "icao": "LUKK",
      "alert": "OK",
      "vis_m": 9999,
      "fzfg": false,
      "metar_trigger": false,
      "taf_trigger": false,
      "metar": "METAR LUKK 092330Z 33007KT 9999 -RA SCT008 BKN024 02/02 Q1016 TEMPO BKN008",
      "taf": "TAF LUKK 092325Z 1000/1024 32008KT 9999 BKN015"
    },
    {
      "icao": "LWOH",
      "alert": "OK",
      "vis_m": null,
      "fzfg": false,
      "metar_trigger": false,
      "taf_trigger": false,
      "metar": "",
      "taf": "TAF LWOH 092310Z 1000/1024 34005KT CAVOK"
    },
    {
      "icao": "LWSK",
      "alert": "OK",
      "vis_m": null,
      "fzfg": false,
      "metar_trigger": false,
      "taf_trigger": false,
      "metar": "",
      "taf": "TAF LWSK 092310Z 1000/1024 35008KT CAVOK"
    },
    {
      "icao": "LYBE",
      "alert": "OK",
      "vis_m": 9999,
      "fzfg": false,
      "metar_trigger": false,
      "taf_trigger": false,
      "metar": "METAR LYBE 092330Z 18006KT CAVOK 04/01 Q1018 NOSIG",
      "taf": "TAF LYBE 092300Z 1000/1024 23005KT CAVOK TX13/1013Z TN01/1004Z"
    },
    {
      "icao": "LYNI",
      "alert": "OK",
      "vis_m": 9999,
      "fzfg": false,
      "metar_trigger": false,
      "taf_trigger": false,
      "metar": "METAR LYNI 092330Z 14002KT 9999 BKN080 04/M01 Q1018 NOSIG",
      "taf": "TAF LYNI 092300Z 1000/1024 02005KT 9999 SCT060 TX15/1012Z TN00/1004Z"
    },
    {
      "icao": "LYPG",
      "alert": "OK",
      "vis_m": 9999,
      "fzfg": false,
      "metar_trigger": false,
      "taf_trigger": false,
      "metar": "METAR LYPG 092330Z 35005KT CAVOK 09/02 Q1015 NOSIG",
      "taf": "TAF LYPG 092300Z 1000/1024 36005KT CAVOK TX22/1013Z TN06/1004Z"
    },
    {
      "icao": "LZIB",
      "alert": "OK",
      "vis_m": 9999,
      "fzfg": false,
      "metar_trigger": false,
      "taf_trigger": false,
      "metar": "METAR LZIB 092330Z VRB02KT CAVOK 02/M05 Q1019 NOSIG",
      "taf": "TAF LZIB 092315Z 1000/1100 04007KT CAVOK"
    },
    {
      "icao": "LZKZ",
      "alert": "OK",
      "vis_m": 9999,
      "fzfg": false,
      "metar_trigger": false,
      "taf_trigger": false,
      "metar": "METAR LZKZ 092330Z 36007KT CAVOK 01/M06 Q1019 NOSIG",
      "taf": "TAF LZKZ 092315Z 1000/1100 01009KT CAVOK"
    },
    {
      "icao": "LZTT",
      "alert": "OK",
      "vis_m": 9999,
      "fzfg": false,
      "metar_trigger": false,
      "taf_trigger": false,
      "metar": "METAR LZTT 092330Z 01002KT 9999 FEW016 SCT046 M03/M06 Q1018",
      "taf": "TAF LZTT 092315Z 1000/1100 07007KT 9999 BKN045"
    },
    {
      "icao": "OEJN",
      "alert": "OK",
      "vis_m": 9999,
      "fzfg": false,
      "metar_trigger": false,
      "taf_trigger": false,
      "metar": "METAR OEJN 092300Z 35005KT CAVOK 22/12 Q1012 NOSIG",
      "taf": "TAF OEJN 092300Z 1000/1106 VRB03KT CAVOK"
    },
    {
      "icao": "OEMA",
      "alert": "OK",
      "vis_m": 9999,
      "fzfg": false,
      "metar_trigger": false,
      "taf_trigger": false,
      "metar": "METAR OEMA 092300Z 35003KT CAVOK 19/M11 Q1016 NOSIG",
      "taf": "TAF OEMA 092300Z 1000/1106 06005KT CAVOK"
    },
    {
      "icao": "OJAI",
      "alert": "OK",
      "vis_m": 4500,
      "fzfg": false,
      "metar_trigger": false,
      "taf_trigger": false,
      "metar": "METAR OJAI 092300Z 20005KT 4500 HZ NSC 08/06 Q1017 NOSIG",
      "taf": "TAF OJAI 092300Z 1000/1106 25012KT 5000 HZ NSC"
    },
    {
      "icao": "OMAA",
      "alert": "OK",
      "vis_m": null,
      "fzfg": false,
      "metar_trigger": false,
      "taf_trigger": false,
      "metar": "",
      "taf": ""
    },
    {
      "icao": "OMDB",
      "alert": "OK",
      "vis_m": null,
      "fzfg": false,
      "metar_trigger": false,
      "taf_trigger": false,
      "metar": "",
      "taf": ""
    },
    {
      "icao": "UAAA",
      "alert": "OK",
      "vis_m": 9999,
      "fzfg": false,
      "metar_trigger": false,
      "taf_trigger": false,
      "metar": "METAR UAAA 092330Z 11002MPS 9999 BKN050CB OVC100 10/08 Q1019 NOSIG",
      "taf": "TAF UAAA 092302Z 1000/1024 16003G08MPS 9999 BKN050CB OVC100 TX18/1008Z TN08/1001Z"
    },
    {
      "icao": "UBBB",
      "alert": "OK",
      "vis_m": 9999,
      "fzfg": false,
      "metar_trigger": false,
      "taf_trigger": false,
      "metar": "METAR UBBB 092330Z 33004KT CAVOK 07/06 Q1016 NOSIG",
      "taf": "TAF UBBB 092301Z 1000/1024 34006KT CAVOK TX15/1010Z TN07/1001Z"
    },
    {
      "icao": "UDSG",
      "alert": "OK",
      "vis_m": 2000,
      "fzfg": false,
      "metar_trigger": false,
      "taf_trigger": false,
      "metar": "METAR UDSG 092330Z 02004KT 2000 SHSN BR BKN020CB 00/00 Q1012 NOSIG",
      "taf": ""
    },
    {
      "icao": "UDYZ",
      "alert": "OK",
      "vis_m": 9999,
      "fzfg": false,
      "metar_trigger": false,
      "taf_trigger": false,
      "metar": "METAR UDYZ 092330Z 01005KT 9999 BKN043CB 08/05 Q1012 NOSIG",
      "taf": "TAF UDYZ 092300Z 1000/1024 03006KT 9999 OVC040"
    },
    {
      "icao": "UGKO",
      "alert": "OK",
      "vis_m": 9999,
      "fzfg": false,
      "metar_trigger": false,
      "taf_trigger": false,
      "metar": "METAR UGKO 092330Z 06010KT CAVOK 06/02 Q1012 NOSIG",
      "taf": "TAF UGKO 092300Z 1000/1024 08010KT 9999 SCT020 OVC050 TX12/1011Z TN05/1003Z"
    }
  ]
}