{
  "ts_utc": "2026-07-03T21:57:28Z",
  "threshold_m": 150,
  "source": "stations_override.txt (ICAO list) + aviationweather.gov (METAR/TAF raw)",
  "station_count": 159,
  "stations": [
    {
      "icao": "BIKF",
      "alert": "OK",
      "vis_m": 9999,
      "fzfg": false,
      "metar_trigger": false,
      "taf_trigger": false,
      "metar": "METAR BIKF 032130Z 32010KT 9999 FEW023 10/05 Q1007",
      "taf": "TAF BIKF 031952Z 0321/0421 33012KT 9999 SCT040 TX12/0415Z TN05/0404Z"
    },
    {
      "icao": "BKPR",
      "alert": "OK",
      "vis_m": null,
      "fzfg": false,
      "metar_trigger": false,
      "taf_trigger": false,
      "metar": "",
      "taf": "TAF BKPR 031730Z 0318/0418 33008KT 9999 FEW050"
    },
    {
      "icao": "EBCI",
      "alert": "OK",
      "vis_m": 9999,
      "fzfg": false,
      "metar_trigger": false,
      "taf_trigger": false,
      "metar": "METAR EBCI 032150Z 36003KT 330V030 CAVOK 15/09 Q1029 NOSIG",
      "taf": "TAF EBCI 031701Z 0318/0424 34007KT CAVOK"
    },
    {
      "icao": "EDDB",
      "alert": "OK",
      "vis_m": 9999,
      "fzfg": false,
      "metar_trigger": false,
      "taf_trigger": false,
      "metar": "METAR EDDB 032150Z AUTO 30013KT CAVOK 17/09 Q1022 NOSIG",
      "taf": "TAF EDDB 031700Z 0318/0418 30015G25KT CAVOK"
    },
    {
      "icao": "EDDH",
      "alert": "OK",
      "vis_m": 9999,
      "fzfg": false,
      "metar_trigger": false,
      "taf_trigger": false,
      "metar": "METAR EDDH 032150Z AUTO 29007KT 9999 FEW020 BKN034 BKN043 15/11 Q1024 NOSIG",
      "taf": "TAF EDDH 031700Z 0318/0424 30015G25KT 9999 SCT030"
    },
    {
      "icao": "EDDK",
      "alert": "OK",
      "vis_m": 9999,
      "fzfg": false,
      "metar_trigger": false,
      "taf_trigger": false,
      "metar": "METAR EDDK 032150Z AUTO 36003KT 320V030 CAVOK 16/10 Q1027 NOSIG",
      "taf": "TAF EDDK 031700Z 0318/0424 32009KT CAVOK"
    },
    {
      "icao": "EDDN",
      "alert": "OK",
      "vis_m": 9999,
      "fzfg": false,
      "metar_trigger": false,
      "taf_trigger": false,
      "metar": "METAR EDDN 032150Z AUTO 35001KT CAVOK 15/10 Q1025",
      "taf": "TAF EDDN 031700Z 0318/0418 32008KT CAVOK"
    },
    {
      "icao": "EDDS",
      "alert": "OK",
      "vis_m": 9999,
      "fzfg": false,
      "metar_trigger": false,
      "taf_trigger": false,
      "metar": "METAR EDDS 032150Z AUTO 27004KT CAVOK 17/06 Q1026",
      "taf": "TAF EDDS 031700Z 0318/0418 33007KT CAVOK"
    },
    {
      "icao": "EDFH",
      "alert": "OK",
      "vis_m": 9999,
      "fzfg": false,
      "metar_trigger": false,
      "taf_trigger": false,
      "metar": "METAR EDFH 032120Z 36004KT CAVOK 15/07 Q1027",
      "taf": "TAF EDFH 031700Z 0318/0418 32006KT CAVOK"
    },
    {
      "icao": "EDJA",
      "alert": "OK",
      "vis_m": 9999,
      "fzfg": false,
      "metar_trigger": false,
      "taf_trigger": false,
      "metar": "METAR EDJA 032050Z 09002KT CAVOK 14/09 Q1027",
      "taf": "TAF EDJA 031700Z 0318/0403 35004KT CAVOK"
    },
    {
      "icao": "EDLW",
      "alert": "OK",
      "vis_m": 9999,
      "fzfg": false,
      "metar_trigger": false,
      "taf_trigger": false,
      "metar": "METAR EDLW 032150Z AUTO VRB02KT 9999 // NCD 13/09 Q1026",
      "taf": "TAF EDLW 031700Z 0318/0418 30007KT CAVOK"
    },
    {
      "icao": "EDNY",
      "alert": "OK",
      "vis_m": 9999,
      "fzfg": false,
      "metar_trigger": false,
      "taf_trigger": false,
      "metar": "METAR EDNY 032150Z AUTO 04003KT 9999 // NCD 18/07 Q1026",
      "taf": "TAF EDNY 031700Z 0318/0403 VRB03KT CAVOK"
    },
    {
      "icao": "EDSB",
      "alert": "OK",
      "vis_m": 9999,
      "fzfg": false,
      "metar_trigger": false,
      "taf_trigger": false,
      "metar": "METAR EDSB 032150Z AUTO 18003KT 150V210 9999 // NCD 18/09 Q1025",
      "taf": "TAF EDSB 031700Z 0318/0418 02004KT CAVOK"
    },
    {
      "icao": "EETN",
      "alert": "OK",
      "vis_m": 9999,
      "fzfg": false,
      "metar_trigger": false,
      "taf_trigger": false,
      "metar": "METAR EETN 032150Z VRB02KT CAVOK 14/13 Q1003 NOSIG",
      "taf": "TAF EETN 031730Z 0318/0418 15005KT 9999 SCT030"
    },
    {
      "icao": "EFTU",
      "alert": "OK",
      "vis_m": 9999,
      "fzfg": false,
      "metar_trigger": false,
      "taf_trigger": false,
      "metar": "METAR EFTU 032150Z AUTO VRB01KT CAVOK 12/12 Q1003",
      "taf": "TAF EFTU 032032Z 0321/0421 VRB02KT 9999 FEW025"
    },
    {
      "icao": "EGBB",
      "alert": "OK",
      "vis_m": 9999,
      "fzfg": false,
      "metar_trigger": false,
      "taf_trigger": false,
      "metar": "METAR EGBB 032150Z 26006KT 230V290 CAVOK 19/10 Q1027",
      "taf": "TAF EGBB 031659Z 0318/0418 26010KT 9999 FEW045"
    },
    {
      "icao": "EGGP",
      "alert": "OK",
      "vis_m": 9999,
      "fzfg": false,
      "metar_trigger": false,
      "taf_trigger": false,
      "metar": "METAR EGGP 032150Z 21004KT 180V250 9999 SCT047 17/11 Q1026",
      "taf": ""
    },
    {
      "icao": "EGGW",
      "alert": "OK",
      "vis_m": 9999,
      "fzfg": false,
      "metar_trigger": false,
      "taf_trigger": false,
      "metar": "METAR EGGW 032150Z AUTO 26012KT 9999 NCD 19/10 Q1027",
      "taf": "TAF EGGW 031653Z 0318/0418 29008KT 9999 FEW040"
    },
    {
      "icao": "EGKK",
      "alert": "OK",
      "vis_m": 9999,
      "fzfg": false,
      "metar_trigger": false,
      "taf_trigger": false,
      "metar": "METAR EGKK 032150Z 22005KT CAVOK 19/10 Q1028",
      "taf": "TAF EGKK 031652Z 0318/0424 25009KT 9999 FEW030"
    },
    {
      "icao": "EGNM",
      "alert": "OK",
      "vis_m": 9999,
      "fzfg": false,
      "metar_trigger": false,
      "taf_trigger": false,
      "metar": "METAR EGNM 032150Z 26009KT 9999 SCT030 16/11 Q1025",
      "taf": "TAF EGNM 031655Z 0318/0418 25012KT 9999 SCT030"
    },
    {
      "icao": "EGPD",
      "alert": "OK",
      "vis_m": 9999,
      "fzfg": false,
      "metar_trigger": false,
      "taf_trigger": false,
      "metar": "METAR EGPD 032150Z AUTO VRB05KT 9999 NCD 16/10 Q1020",
      "taf": ""
    },
    {
      "icao": "EGPF",
      "alert": "OK",
      "vis_m": 8000,
      "fzfg": false,
      "metar_trigger": false,
      "taf_trigger": false,
      "metar": "METAR EGPF 032150Z AUTO 02001KT 8000 BKN005 OVC044 13/13 Q1021",
      "taf": ""
    },
    {
      "icao": "EHBK",
      "alert": "OK",
      "vis_m": 9999,
      "fzfg": false,
      "metar_trigger": false,
      "taf_trigger": false,
      "metar": "METAR EHBK 032125Z AUTO VRB02KT 9999 NSC 16/09 Q1028",
      "taf": "TAF EHBK 031713Z 0318/0424 32010KT CAVOK"
    },
    {
      "icao": "EHEH",
      "alert": "OK",
      "vis_m": 9999,
      "fzfg": false,
      "metar_trigger": false,
      "taf_trigger": false,
      "metar": "METAR EHEH 032125Z AUTO 29002KT 9999 OVC290 13/09 Q1027 BLU NOSIG RMK TREND REMOTE BY EHWX",
      "taf": "TAF EHEH 031717Z 0318/0424 32008KT CAVOK"
    },
    {
      "icao": "EKBI",
      "alert": "OK",
      "vis_m": 9999,
      "fzfg": false,
      "metar_trigger": false,
      "taf_trigger": false,
      "metar": "METAR EKBI 032150Z AUTO 28011KT 9999 OVC025/// 13/09 Q1021",
      "taf": "TAF EKBI 032027Z 0321/0421 28022KT 9999 SCT025"
    },
    {
      "icao": "EKCH",
      "alert": "OK",
      "vis_m": 9999,
      "fzfg": false,
      "metar_trigger": false,
      "taf_trigger": false,
      "metar": "METAR EKCH 032150Z AUTO 28020G31KT 9999 NCD 14/09 Q1017 TEMPO 28022G30KT",
      "taf": "TAF EKCH 032027Z 0321/0421 28020KT 9999 BKN025"
    },
    {
      "icao": "ENAL",
      "alert": "OK",
      "vis_m": 9999,
      "fzfg": false,
      "metar_trigger": false,
      "taf_trigger": false,
      "metar": "METAR ENAL 032150Z 22012KT 9999 -DZ BKN031 14/08 Q1014 RERA",
      "taf": "TAF ENAL 032000Z 0321/0406 22008KT 9999 SCT009 BKN020"
    },
    {
      "icao": "ENBR",
      "alert": "OK",
      "vis_m": 9999,
      "fzfg": false,
      "metar_trigger": false,
      "taf_trigger": false,
      "metar": "METAR ENBR 032120Z 17006KT 9999 VCSH FEW010 BKN017 12/10 Q1019 RMK WIND 1200FT 23008KT",
      "taf": "TAF ENBR 031700Z 0318/0418 24007KT 9999 FEW010 BKN025"
    },
    {
      "icao": "ENGM",
      "alert": "OK",
      "vis_m": 9999,
      "fzfg": false,
      "metar_trigger": false,
      "taf_trigger": false,
      "metar": "METAR ENGM 032150Z VRB02KT CAVOK 15/09 Q1013",
      "taf": "TAF ENGM 031700Z 0318/0418 32006KT 9999 FEW030"
    },
    {
      "icao": "ENHD",
      "alert": "OK",
      "vis_m": 9999,
      "fzfg": false,
      "metar_trigger": false,
      "taf_trigger": false,
      "metar": "METAR ENHD 032150Z 27006KT 9999 FEW007 SCT014 BKN020 13/10 Q1020",
      "taf": "TAF ENHD 031400Z 0315/0322 32015KT 9999 SCT022 BKN035"
    },
    {
      "icao": "ENTC",
      "alert": "OK",
      "vis_m": 9999,
      "fzfg": false,
      "metar_trigger": false,
      "taf_trigger": false,
      "metar": "METAR ENTC 032150Z 05006KT CAVOK 11/08 Q1008 RMK WIND 2600FT 19011KT",
      "taf": "TAF ENTC 031700Z 0318/0418 02010KT 9999 FEW060"
    },
    {
      "icao": "ENTO",
      "alert": "OK",
      "vis_m": 9999,
      "fzfg": false,
      "metar_trigger": false,
      "taf_trigger": false,
      "metar": "METAR ENTO 032150Z AUTO 32005KT 9999 NCD 15/06 Q1014",
      "taf": "TAF ENTO 031700Z 0318/0418 32012KT 9999 FEW040"
    },
    {
      "icao": "ENVA",
      "alert": "OK",
      "vis_m": 9999,
      "fzfg": false,
      "metar_trigger": false,
      "taf_trigger": false,
      "metar": "METAR ENVA 032150Z 32005KT 240V040 9999 FEW032 12/07 Q1015 RMK WIND 670FT 23004KT",
      "taf": "TAF ENVA 031700Z 0318/0418 26020KT 9999 SCT015 BKN018"
    },
    {
      "icao": "ENZV",
      "alert": "OK",
      "vis_m": 9999,
      "fzfg": false,
      "metar_trigger": false,
      "taf_trigger": false,
      "metar": "METAR ENZV 032150Z 31005KT 9999 FEW015 BKN025 13/10 Q1020",
      "taf": "TAF ENZV 031700Z 0318/0418 31012KT 9999 FEW015 BKN035"
    },
    {
      "icao": "EPGD",
      "alert": "OK",
      "vis_m": 9999,
      "fzfg": false,
      "metar_trigger": false,
      "taf_trigger": false,
      "metar": "METAR EPGD 032130Z 26014KT 9999 -SHRA BKN010 FEW014TCU 13/12 Q1014",
      "taf": "TAF EPGD 031730Z 0318/0418 25015KT 9999 SCT015"
    },
    {
      "icao": "EPKK",
      "alert": "OK",
      "vis_m": 9999,
      "fzfg": false,
      "metar_trigger": false,
      "taf_trigger": false,
      "metar": "METAR EPKK 032130Z 26004KT 9999 FEW061 14/07 Q1021",
      "taf": "TAF EPKK 032030Z 0321/0421 25003KT CAVOK"
    },
    {
      "icao": "EPKT",
      "alert": "OK",
      "vis_m": 9999,
      "fzfg": false,
      "metar_trigger": false,
      "taf_trigger": false,
      "metar": "METAR EPKT 032130Z 25005KT CAVOK 12/08 Q1021",
      "taf": "TAF EPKT 031730Z 0318/0418 30015KT CAVOK"
    },
    {
      "icao": "EPLB",
      "alert": "OK",
      "vis_m": 9999,
      "fzfg": false,
      "metar_trigger": false,
      "taf_trigger": false,
      "metar": "METAR EPLB 032130Z 29004KT CAVOK 16/08 Q1017",
      "taf": "TAF EPLB 031730Z 0318/0418 29014KT CAVOK"
    },
    {
      "icao": "EPMO",
      "alert": "OK",
      "vis_m": 9999,
      "fzfg": false,
      "metar_trigger": false,
      "taf_trigger": false,
      "metar": "METAR EPMO 032130Z 27007KT 250V310 CAVOK 17/08 Q1017",
      "taf": "TAF EPMO 031730Z 0318/0418 29012KT CAVOK"
    },
    {
      "icao": "EPPO",
      "alert": "OK",
      "vis_m": 9999,
      "fzfg": false,
      "metar_trigger": false,
      "taf_trigger": false,
      "metar": "METAR EPPO 032130Z 28011KT CAVOK 15/07 Q1019",
      "taf": "TAF EPPO 031730Z 0318/0418 29016KT CAVOK"
    },
    {
      "icao": "EPRA",
      "alert": "OK",
      "vis_m": 9999,
      "fzfg": false,
      "metar_trigger": false,
      "taf_trigger": false,
      "metar": "METAR EPRA 032130Z 26008KT CAVOK 17/09 Q1017",
      "taf": "TAF EPRA 032030Z 0321/0406 27008KT CAVOK"
    },
    {
      "icao": "EPRZ",
      "alert": "OK",
      "vis_m": 9999,
      "fzfg": false,
      "metar_trigger": false,
      "taf_trigger": false,
      "metar": "METAR EPRZ 032130Z 24006KT CAVOK 14/07 Q1019",
      "taf": "TAF EPRZ 031730Z 0318/0418 30012KT CAVOK"
    },
    {
      "icao": "EPSC",
      "alert": "OK",
      "vis_m": 9999,
      "fzfg": false,
      "metar_trigger": false,
      "taf_trigger": false,
      "metar": "METAR EPSC 032130Z 28017KT 9999 BKN034 16/08 Q1019",
      "taf": "TAF EPSC 031730Z 0318/0418 28015KT 9999 SCT040"
    },
    {
      "icao": "EPSY",
      "alert": "OK",
      "vis_m": 9999,
      "fzfg": false,
      "metar_trigger": false,
      "taf_trigger": false,
      "metar": "METAR EPSY 032130Z 26009KT 210V300 9999 BKN032 BKN049 16/09 Q1015",
      "taf": "TAF EPSY 032030Z 0321/0406 27012KT 9999 SCT040"
    },
    {
      "icao": "EPWA",
      "alert": "OK",
      "vis_m": 9999,
      "fzfg": false,
      "metar_trigger": false,
      "taf_trigger": false,
      "metar": "METAR EPWA 032130Z 30005KT CAVOK 18/09 Q1017 NOSIG",
      "taf": "TAF EPWA 032030Z 0321/0421 28010KT 9999 BKN040"
    },
    {
      "icao": "EPWR",
      "alert": "OK",
      "vis_m": 9999,
      "fzfg": false,
      "metar_trigger": false,
      "taf_trigger": false,
      "metar": "METAR EPWR 032130Z 28009KT CAVOK 17/09 Q1021",
      "taf": "TAF EPWR 032030Z 0321/0421 28008KT CAVOK"
    },
    {
      "icao": "ESGG",
      "alert": "OK",
      "vis_m": 9999,
      "fzfg": false,
      "metar_trigger": false,
      "taf_trigger": false,
      "metar": "METAR ESGG 032150Z 26006KT CAVOK 15/13 Q1013",
      "taf": "TAF ESGG 032030Z 0321/0421 28007KT CAVOK"
    },
    {
      "icao": "ESKN",
      "alert": "OK",
      "vis_m": 9999,
      "fzfg": false,
      "metar_trigger": false,
      "taf_trigger": false,
      "metar": "METAR ESKN 032150Z 29008KT 270V330 CAVOK 15/14 Q1007",
      "taf": "TAF ESKN 032030Z 0321/0421 30010KT 9999 SCT015 BKN040"
    },
    {
      "icao": "ESMS",
      "alert": "OK",
      "vis_m": 9999,
      "fzfg": false,
      "metar_trigger": false,
      "taf_trigger": false,
      "metar": "METAR ESMS 032150Z 28016KT 9999 BKN041 14/10 Q1017",
      "taf": "TAF ESMS 032027Z 0321/0421 28020KT 9999 BKN025"
    },
    {
      "icao": "ESSA",
      "alert": "OK",
      "vis_m": 9999,
      "fzfg": false,
      "metar_trigger": false,
      "taf_trigger": false,
      "metar": "METAR ESSA 032150Z 35010KT 9999 -RA SCT012 BKN037 13/11 Q1006 TEMPO SCT050CB",
      "taf": "TAF ESSA 032030Z 0321/0421 33012KT 9999 BKN030"
    },
    {
      "icao": "EYKA",
      "alert": "OK",
      "vis_m": 9999,
      "fzfg": false,
      "metar_trigger": false,
      "taf_trigger": false,
      "metar": "METAR EYKA 032150Z AUTO 25013KT 9999 OVC014/// 14/13 Q1010",
      "taf": "TAF EYKA 031706Z 0318/0418 25010KT 8000 SCT015 BKN030"
    },
    {
      "icao": "EYPA",
      "alert": "OK",
      "vis_m": 5000,
      "fzfg": false,
      "metar_trigger": false,
      "taf_trigger": false,
      "metar": "METAR EYPA 032150Z 28008G18KT 220V340 5000 -SHRA BKN012CB BKN018 BKN026 17/15 Q1006",
      "taf": "TAF EYPA 031700Z 0318/0418 28008G18KT 8000 BKN010 BKN020"
    },
    {
      "icao": "EYVI",
      "alert": "OK",
      "vis_m": 9999,
      "fzfg": false,
      "metar_trigger": false,
      "taf_trigger": false,
      "metar": "METAR EYVI 032150Z 25012KT 9999 BKN021 15/11 Q1011 NOSIG",
      "taf": "TAF EYVI 031708Z 0318/0418 24010KT 8000 SCT035"
    },
    {
      "icao": "GCFV",
      "alert": "OK",
      "vis_m": 9999,
      "fzfg": false,
      "metar_trigger": false,
      "taf_trigger": false,
      "metar": "METAR GCFV 032130Z 30006KT 9999 FEW017 24/17 Q1016",
      "taf": "TAF GCFV 032000Z 0321/0421 VRB04KT 9999 FEW020 TX28/0414Z TN21/0406Z"
    },
    {
      "icao": "GCLP",
      "alert": "OK",
      "vis_m": 9999,
      "fzfg": false,
      "metar_trigger": false,
      "taf_trigger": false,
      "metar": "METAR GCLP 032130Z VRB03KT 9999 BKN022 24/19 Q1016 NOSIG",
      "taf": "TAF GCLP 032000Z 0321/0421 35005KT 9999 SCT018 TX27/0414Z TN21/0406Z"
    },
    {
      "icao": "GCTS",
      "alert": "OK",
      "vis_m": 9999,
      "fzfg": false,
      "metar_trigger": false,
      "taf_trigger": false,
      "metar": "METAR GCTS 032130Z 11006KT 080V150 9999 FEW025 23/19 Q1016 NOSIG",
      "taf": "TAF GCTS 032000Z 0321/0421 06006KT 9999 SCT020 TX28/0414Z TN22/0406Z"
    },
    {
      "icao": "GMAD",
      "alert": "OK",
      "vis_m": 6000,
      "fzfg": false,
      "metar_trigger": false,
      "taf_trigger": false,
      "metar": "METAR GMAD 032130Z 36007KT 6000 SCT020 SCT026TCU SCT030CB 32/16 Q1013 NOSIG",
      "taf": "TAF GMAD 031700Z 0318/0424 22008KT 6000 SCT020 SCT100"
    },
    {
      "icao": "GMMN",
      "alert": "OK",
      "vis_m": 9999,
      "fzfg": false,
      "metar_trigger": false,
      "taf_trigger": false,
      "metar": "METAR GMMN 032130Z VRB01KT CAVOK 29/18 Q1016 NOSIG",
      "taf": "TAF GMMN 031700Z 0318/0424 35008KT CAVOK"
    },
    {
      "icao": "GMMX",
      "alert": "OK",
      "vis_m": 8000,
      "fzfg": false,
      "metar_trigger": false,
      "taf_trigger": false,
      "metar": "METAR GMMX 032130Z 30004KT 250V330 8000 FEW033 33/12 Q1017 NOSIG",
      "taf": "TAF GMMX 031700Z 0318/0424 24006KT 8000 SCT033 SCT080"
    },
    {
      "icao": "HEGN",
      "alert": "OK",
      "vis_m": 9999,
      "fzfg": false,
      "metar_trigger": false,
      "taf_trigger": false,
      "metar": "METAR HEGN 032100Z 29008KT CAVOK 31/07 Q1007 NOSIG",
      "taf": "TAF HEGN 031700Z 0318/0424 33015KT CAVOK"
    },
    {
      "icao": "HEMA",
      "alert": "OK",
      "vis_m": 9999,
      "fzfg": false,
      "metar_trigger": false,
      "taf_trigger": false,
      "metar": "METAR HEMA 032100Z 30010KT CAVOK 31/08 Q1009 NOSIG",
      "taf": "TAF HEMA 031700Z 0318/0424 32012KT CAVOK"
    },
    {
      "icao": "HESH",
      "alert": "OK",
      "vis_m": 9999,
      "fzfg": false,
      "metar_trigger": false,
      "taf_trigger": false,
      "metar": "METAR HESH 032100Z 34013KT CAVOK 34/13 Q1006 NOSIG",
      "taf": "TAF HESH 031700Z 0318/0424 36015KT CAVOK"
    },
    {
      "icao": "HESX",
      "alert": "OK",
      "vis_m": 9999,
      "fzfg": false,
      "metar_trigger": false,
      "taf_trigger": false,
      "metar": "METAR HESX 032100Z 33004KT CAVOK 25/19 Q1011 NOSIG",
      "taf": "TAF HESX 031700Z 0318/0424 35010KT CAVOK"
    },
    {
      "icao": "LATI",
      "alert": "OK",
      "vis_m": 9999,
      "fzfg": false,
      "metar_trigger": false,
      "taf_trigger": false,
      "metar": "METAR LATI 032150Z VRB02KT CAVOK 25/16 Q1013 NOSIG",
      "taf": "TAF LATI 031700Z 0318/0418 VRB05KT CAVOK TX36/0412Z TN21/0404Z"
    },
    {
      "icao": "LBPD",
      "alert": "OK",
      "vis_m": 9999,
      "fzfg": false,
      "metar_trigger": false,
      "taf_trigger": false,
      "metar": "METAR LBPD 032130Z AUTO 25005KT 9999 FEW079/// OVC096/// 23/21 Q1014",
      "taf": ""
    },
    {
      "icao": "LBSF",
      "alert": "OK",
      "vis_m": 9999,
      "fzfg": false,
      "metar_trigger": false,
      "taf_trigger": false,
      "metar": "METAR LBSF 032130Z AUTO 28008KT 9999 NSC 21/15 Q1017 NOSIG",
      "taf": "TAF LBSF 031700Z 0318/0418 30012KT 9999 SCT050"
    },
    {
      "icao": "LBWN",
      "alert": "OK",
      "vis_m": 9999,
      "fzfg": false,
      "metar_trigger": false,
      "taf_trigger": false,
      "metar": "METAR LBWN 032130Z AUTO 31006KT 240V350 9999 NSC 23/17 Q1011 NOSIG",
      "taf": "TAF LBWN 031700Z 0318/0418 34010KT 9999 SCT030 SCT045"
    },
    {
      "icao": "LCLK",
      "alert": "OK",
      "vis_m": 9999,
      "fzfg": false,
      "metar_trigger": false,
      "taf_trigger": false,
      "metar": "METAR LCLK 032130Z 22005KT CAVOK 26/24 Q1006 NOSIG",
      "taf": "TAF LCLK 031730Z 0318/0418 22006KT CAVOK"
    },
    {
      "icao": "LCPH",
      "alert": "OK",
      "vis_m": 9999,
      "fzfg": false,
      "metar_trigger": false,
      "taf_trigger": false,
      "metar": "METAR LCPH 032130Z 33002KT 9999 SCT014 SCT019 25/23 Q1007 TEMPO BKN014",
      "taf": "TAF LCPH 031730Z 0318/0418 34007KT 9999 SCT016"
    },
    {
      "icao": "LEAL",
      "alert": "OK",
      "vis_m": 9999,
      "fzfg": false,
      "metar_trigger": false,
      "taf_trigger": false,
      "metar": "METAR LEAL 032130Z 26004KT CAVOK 26/15 Q1023 NOSIG",
      "taf": "TAF LEAL 031700Z 0318/0418 15009KT CAVOK TX33/0412Z TN21/0406Z"
    },
    {
      "icao": "LEBB",
      "alert": "OK",
      "vis_m": 9999,
      "fzfg": false,
      "metar_trigger": false,
      "taf_trigger": false,
      "metar": "METAR LEBB 032130Z VRB01KT 9999 FEW018 BKN028 22/19 Q1029 NOSIG",
      "taf": "TAF LEBB 031700Z 0318/0418 VRB03KT 9999 SCT025 BKN030 TX29/0412Z TN18/0401Z"
    },
    {
      "icao": "LEBL",
      "alert": "OK",
      "vis_m": 9999,
      "fzfg": false,
      "metar_trigger": false,
      "taf_trigger": false,
      "metar": "METAR LEBL 032130Z 25007KT CAVOK 25/21 Q1023 NOSIG",
      "taf": "TAF LEBL 031700Z 0318/0418 20009KT CAVOK TX30/0413Z TN24/0406Z"
    },
    {
      "icao": "LECH",
      "alert": "OK",
      "vis_m": 9999,
      "fzfg": false,
      "metar_trigger": false,
      "taf_trigger": false,
      "metar": "METAR LECH 032130Z AUTO 18003KT 150V220 CAVOK 25/15 Q1024",
      "taf": "TAF LECH 031700Z 0318/0418 22008KT CAVOK TX33/0412Z TN19/0406Z"
    },
    {
      "icao": "LEMD",
      "alert": "OK",
      "vis_m": 9999,
      "fzfg": false,
      "metar_trigger": false,
      "taf_trigger": false,
      "metar": "METAR LEMD 032130Z 36002KT CAVOK 28/05 Q1023 NOSIG",
      "taf": "TAF LEMD 031700Z 0318/0424 VRB04KT CAVOK TX39/0416Z TN20/0405Z"
    },
    {
      "icao": "LEMG",
      "alert": "OK",
      "vis_m": 9999,
      "fzfg": false,
      "metar_trigger": false,
      "taf_trigger": false,
      "metar": "METAR LEMG 032130Z 20001KT CAVOK 25/14 Q1023 NOSIG",
      "taf": "TAF LEMG 031700Z 0318/0418 12011KT 9999 FEW035 TX31/0414Z TN21/0405Z"
    },
    {
      "icao": "LEVC",
      "alert": "OK",
      "vis_m": 9999,
      "fzfg": false,
      "metar_trigger": false,
      "taf_trigger": false,
      "metar": "METAR LEVC 032130Z 05004KT CAVOK 28/18 Q1022 NOSIG",
      "taf": "TAF LEVC 031700Z 0318/0418 13009KT CAVOK TX34/0412Z TN22/0406Z"
    },
    {
      "icao": "LEXJ",
      "alert": "OK",
      "vis_m": 9999,
      "fzfg": false,
      "metar_trigger": false,
      "taf_trigger": false,
      "metar": "METAR LEXJ 032130Z AUTO 11004KT 070V140 9999 SCT023 OVC028 21/18 Q1028",
      "taf": "TAF LEXJ 032000Z 0321/0421 VRB03KT 9999 FEW015 SCT020 TX26/0412Z TN16/0405Z"
    },
    {
      "icao": "LEZG",
      "alert": "OK",
      "vis_m": 9999,
      "fzfg": false,
      "metar_trigger": false,
      "taf_trigger": false,
      "metar": "METAR LEZG 032130Z 29021KT 260V330 CAVOK 23/15 Q1024 NOSIG",
      "taf": "TAF LEZG 031700Z 0318/0418 30015KT CAVOK TX36/0414Z TN19/0406Z"
    },
    {
      "icao": "LEZL",
      "alert": "OK",
      "vis_m": 9999,
      "fzfg": false,
      "metar_trigger": false,
      "taf_trigger": false,
      "metar": "METAR LEZL 032130Z 14004KT CAVOK 30/12 Q1019 NOSIG",
      "taf": "TAF LEZL 032000Z 0321/0421 21010KT CAVOK TX42/0415Z TN25/0405Z"
    },
    {
      "icao": "LFBD",
      "alert": "OK",
      "vis_m": 9999,
      "fzfg": false,
      "metar_trigger": false,
      "taf_trigger": false,
      "metar": "METAR LFBD 032130Z AUTO 31005KT CAVOK 21/16 Q1027 NOSIG",
      "taf": "TAF LFBD 031700Z 0318/0424 30010KT CAVOK TX35/0415Z TN17/0405Z"
    },
    {
      "icao": "LFLL",
      "alert": "OK",
      "vis_m": 9999,
      "fzfg": false,
      "metar_trigger": false,
      "taf_trigger": false,
      "metar": "METAR LFLL 032130Z 35006KT CAVOK 24/10 Q1025 NOSIG",
      "taf": "TAF LFLL 031700Z 0318/0424 35012KT CAVOK"
    },
    {
      "icao": "LFLS",
      "alert": "OK",
      "vis_m": 9999,
      "fzfg": false,
      "metar_trigger": false,
      "taf_trigger": false,
      "metar": "METAR LFLS 032130Z AUTO 36013KT CAVOK 24/09 Q1024",
      "taf": "TAF LFLS 031400Z 0315/0415 35015KT CAVOK"
    },
    {
      "icao": "LFMN",
      "alert": "OK",
      "vis_m": 9999,
      "fzfg": false,
      "metar_trigger": false,
      "taf_trigger": false,
      "metar": "METAR LFMN 032130Z COR 31006KT CAVOK 27/14 Q1019 NOSIG",
      "taf": "TAF LFMN 032000Z 0321/0503 VRB05KT CAVOK"
    },
    {
      "icao": "LFOB",
      "alert": "OK",
      "vis_m": 9999,
      "fzfg": false,
      "metar_trigger": false,
      "taf_trigger": false,
      "metar": "METAR LFOB 032130Z AUTO 32006KT CAVOK 13/08 Q1029 NOSIG",
      "taf": "TAF LFOB 031700Z 0318/0418 33010KT CAVOK"
    },
    {
      "icao": "LFPO",
      "alert": "OK",
      "vis_m": 9999,
      "fzfg": false,
      "metar_trigger": false,
      "taf_trigger": false,
      "metar": "METAR LFPO 032130Z AUTO 34005KT CAVOK 22/06 Q1028 NOSIG",
      "taf": "TAF LFPO 031700Z 0318/0424 33008KT CAVOK"
    },
    {
      "icao": "LFSB",
      "alert": "OK",
      "vis_m": 9999,
      "fzfg": false,
      "metar_trigger": false,
      "taf_trigger": false,
      "metar": "METAR LFSB 032130Z AUTO 30005KT CAVOK 17/09 Q1026 NOSIG",
      "taf": "TAF LFSB 031700Z 0318/0418 35008KT CAVOK"
    },
    {
      "icao": "LGAV",
      "alert": "OK",
      "vis_m": 9999,
      "fzfg": false,
      "metar_trigger": false,
      "taf_trigger": false,
      "metar": "METAR LGAV 032150Z VRB02KT 9999 FEW025 26/17 Q1012 NOSIG",
      "taf": "TAF LGAV 031700Z 0318/0418 06010KT 9999 FEW025"
    },
    {
      "icao": "LGTS",
      "alert": "OK",
      "vis_m": 9999,
      "fzfg": false,
      "metar_trigger": false,
      "taf_trigger": false,
      "metar": "METAR LGTS 032150Z 32016KT 9999 FEW025 27/16 Q1012 NOSIG",
      "taf": "TAF LGTS 031700Z 0318/0418 33013KT 9999 FEW030"
    },
    {
      "icao": "LHBP",
      "alert": "OK",
      "vis_m": 9999,
      "fzfg": false,
      "metar_trigger": false,
      "taf_trigger": false,
      "metar": "METAR LHBP 032130Z 33010KT CAVOK 21/06 Q1020 NOSIG",
      "taf": "TAF LHBP 031715Z 0318/0418 31014G26KT CAVOK"
    },
    {
      "icao": "LHDC",
      "alert": "OK",
      "vis_m": 9999,
      "fzfg": false,
      "metar_trigger": false,
      "taf_trigger": false,
      "metar": "METAR LHDC 032115Z AUTO 02012KT 350V050 CAVOK 21/08 Q1018",
      "taf": "TAF LHDC 031415Z 0315/0324 35012G22KT CAVOK"
    },
    {
      "icao": "LIBD",
      "alert": "OK",
      "vis_m": 9999,
      "fzfg": false,
      "metar_trigger": false,
      "taf_trigger": false,
      "metar": "METAR LIBD 032150Z 28005KT CAVOK 25/17 Q1015",
      "taf": "TAF LIBD 031700Z 0318/0418 35010KT 9999 FEW030"
    },
    {
      "icao": "LIBG",
      "alert": "OK",
      "vis_m": 9999,
      "fzfg": false,
      "metar_trigger": false,
      "taf_trigger": false,
      "metar": "METAR LIBG 032150Z AUTO 33008KT 300V360 9999 NCD 26/18 Q1015",
      "taf": "TAF LIBG 031700Z 0318/0418 35015KT 9999 FEW030"
    },
    {
      "icao": "LIBP",
      "alert": "OK",
      "vis_m": 9999,
      "fzfg": false,
      "metar_trigger": false,
      "taf_trigger": false,
      "metar": "METAR LIBP 032150Z AUTO 24006KT 9999 NCD 22/16 Q1019",
      "taf": "TAF LIBP 031700Z 0318/0418 01010KT 9999 FEW040"
    },
    {
      "icao": "LIBR",
      "alert": "OK",
      "vis_m": 9999,
      "fzfg": false,
      "metar_trigger": false,
      "taf_trigger": false,
      "metar": "METAR LIBR 032150Z 34011KT CAVOK 27/22 Q1014",
      "taf": "TAF LIBR 031700Z 0318/0418 33013KT 9999 FEW030"
    },
    {
      "icao": "LICA",
      "alert": "OK",
      "vis_m": 9999,
      "fzfg": false,
      "metar_trigger": false,
      "taf_trigger": false,
      "metar": "METAR LICA 032150Z AUTO VRB02KT 9999 SCT019/// SCT028/// 24/23 Q1016",
      "taf": "TAF LICA 031700Z 0318/0418 25010KT 9999 FEW030"
    },
    {
      "icao": "LICC",
      "alert": "OK",
      "vis_m": 9999,
      "fzfg": false,
      "metar_trigger": false,
      "taf_trigger": false,
      "metar": "METAR LICC 032150Z 26003KT CAVOK 23/18 Q1015",
      "taf": "TAF LICC 031700Z 0318/0418 VRB05KT 9999 FEW040"
    },
    {
      "icao": "LICJ",
      "alert": "OK",
      "vis_m": 9999,
      "fzfg": false,
      "metar_trigger": false,
      "taf_trigger": false,
      "metar": "METAR LICJ 032150Z 02010KT 9999 SCT030 27/22 Q1017",
      "taf": "TAF LICJ 031700Z 0318/0418 01010KT 9999 FEW030"
    },
    {
      "icao": "LIMC",
      "alert": "OK",
      "vis_m": 9999,
      "fzfg": false,
      "metar_trigger": false,
      "taf_trigger": false,
      "metar": "METAR LIMC 032150Z 04006KT CAVOK 23/16 Q1020 NOSIG",
      "taf": "TAF LIMC 031700Z 0318/0424 VRB05KT 9999 FEW070"
    },
    {
      "icao": "LIME",
      "alert": "OK",
      "vis_m": 9999,
      "fzfg": false,
      "metar_trigger": false,
      "taf_trigger": false,
      "metar": "METAR LIME 032150Z 01005KT CAVOK 24/16 Q1020 NOSIG",
      "taf": "TAF LIME 031700Z 0318/0418 VRB05KT 9999 FEW070"
    },
    {
      "icao": "LIMF",
      "alert": "OK",
      "vis_m": 9999,
      "fzfg": false,
      "metar_trigger": false,
      "taf_trigger": false,
      "metar": "METAR LIMF 032150Z 33006KT CAVOK 27/12 Q1020",
      "taf": "TAF LIMF 031700Z 0318/0418 VRB05KT 9999 FEW090"
    },
    {
      "icao": "LIMJ",
      "alert": "OK",
      "vis_m": 9999,
      "fzfg": false,
      "metar_trigger": false,
      "taf_trigger": false,
      "metar": "METAR LIMJ 032150Z 06005KT 020V080 CAVOK 28/16 Q1018",
      "taf": "TAF LIMJ 031700Z 0318/0418 VRB05KT CAVOK"
    },
    {
      "icao": "LIPE",
      "alert": "OK",
      "vis_m": 9999,
      "fzfg": false,
      "metar_trigger": false,
      "taf_trigger": false,
      "metar": "METAR LIPE 032150Z 19006KT CAVOK 24/15 Q1019",
      "taf": "TAF LIPE 031700Z 0318/0418 VRB05KT CAVOK"
    },
    {
      "icao": "LIPH",
      "alert": "OK",
      "vis_m": 9999,
      "fzfg": false,
      "metar_trigger": false,
      "taf_trigger": false,
      "metar": "METAR LIPH 032150Z AUTO 35002KT 9999 BKN090/// 25/18 Q1019",
      "taf": "TAF LIPH 031700Z 0318/0418 VRB05KT 9999 FEW030"
    },
    {
      "icao": "LIPQ",
      "alert": "OK",
      "vis_m": 9999,
      "fzfg": false,
      "metar_trigger": false,
      "taf_trigger": false,
      "metar": "METAR LIPQ 032150Z AUTO 10002KT 9999 BKN076/// 25/16 Q1019",
      "taf": "TAF LIPQ 031700Z 0318/0418 VRB05KT CAVOK"
    },
    {
      "icao": "LIPR",
      "alert": "OK",
      "vis_m": 9999,
      "fzfg": false,
      "metar_trigger": false,
      "taf_trigger": false,
      "metar": "METAR LIPR 032150Z AUTO 22004KT 9999 NCD 23/14 Q1019",
      "taf": "TAF LIPR 031700Z 0318/0418 VRB05KT CAVOK"
    },
    {
      "icao": "LIPX",
      "alert": "OK",
      "vis_m": 9999,
      "fzfg": false,
      "metar_trigger": false,
      "taf_trigger": false,
      "metar": "METAR LIPX 032150Z 01003KT 330V030 CAVOK 26/18 Q1019",
      "taf": "TAF LIPX 031700Z 0318/0418 VRB05KT 9999 FEW080"
    },
    {
      "icao": "LIPY",
      "alert": "OK",
      "vis_m": 9999,
      "fzfg": false,
      "metar_trigger": false,
      "taf_trigger": false,
      "metar": "METAR LIPY 032150Z AUTO VRB01KT 9999 NCD 24/18 Q1019",
      "taf": "TAF LIPY 031700Z 0318/0418 35010KT CAVOK"
    },
    {
      "icao": "LIPZ",
      "alert": "OK",
      "vis_m": 9999,
      "fzfg": false,
      "metar_trigger": false,
      "taf_trigger": false,
      "metar": "METAR LIPZ 032150Z 20004KT CAVOK 27/18 Q1019 NOSIG",
      "taf": "TAF LIPZ 031700Z 0318/0424 VRB05KT CAVOK"
    },
    {
      "icao": "LIRF",
      "alert": "OK",
      "vis_m": 9999,
      "fzfg": false,
      "metar_trigger": false,
      "taf_trigger": false,
      "metar": "METAR LIRF 032150Z 03003KT CAVOK 25/15 Q1016 NOSIG",
      "taf": "TAF LIRF 031700Z 0318/0424 30014KT CAVOK"
    },
    {
      "icao": "LIRN",
      "alert": "OK",
      "vis_m": 9999,
      "fzfg": false,
      "metar_trigger": false,
      "taf_trigger": false,
      "metar": "METAR LIRN 032150Z 34005KT 320V030 CAVOK 27/11 Q1017 NOSIG",
      "taf": "TAF LIRN 031700Z 0318/0418 VRB05KT 9999 FEW030"
    },
    {
      "icao": "LIRP",
      "alert": "OK",
      "vis_m": 9999,
      "fzfg": false,
      "metar_trigger": false,
      "taf_trigger": false,
      "metar": "METAR LIRP 032145Z 26002KT CAVOK 23/16 Q1019 NOSIG",
      "taf": "TAF LIRP 031700Z 0318/0418 32012KT 9999 FEW035"
    },
    {
      "icao": "LIRZ",
      "alert": "OK",
      "vis_m": 9999,
      "fzfg": false,
      "metar_trigger": false,
      "taf_trigger": false,
      "metar": "METAR LIRZ 032150Z AUTO 02007KT 9999 NCD 23/13 Q1019",
      "taf": "TAF LIRZ 031700Z 0318/0418 02013KT CAVOK"
    },
    {
      "icao": "LJLJ",
      "alert": "OK",
      "vis_m": 9999,
      "fzfg": false,
      "metar_trigger": false,
      "taf_trigger": false,
      "metar": "METAR LJLJ 032130Z 32004KT 290V080 CAVOK 17/14 Q1022 NOSIG",
      "taf": "TAF LJLJ 031700Z 0318/0418 07006KT 9999 FEW070"
    },
    {
      "icao": "LKMT",
      "alert": "OK",
      "vis_m": 9999,
      "fzfg": false,
      "metar_trigger": false,
      "taf_trigger": false,
      "metar": "METAR LKMT 032130Z 24006KT CAVOK 13/08 Q1022 NOSIG",
      "taf": "TAF LKMT 031700Z 0318/0418 32008KT CAVOK"
    },
    {
      "icao": "LKPR",
      "alert": "OK",
      "vis_m": 9999,
      "fzfg": false,
      "metar_trigger": false,
      "taf_trigger": false,
      "metar": "METAR LKPR 032130Z 26006KT CAVOK 13/09 Q1024 NOSIG",
      "taf": "TAF LKPR 032000Z 0321/0503 31010KT CAVOK"
    },
    {
      "icao": "LLBG",
      "alert": "OK",
      "vis_m": 9999,
      "fzfg": false,
      "metar_trigger": false,
      "taf_trigger": false,
      "metar": "METAR LLBG 032150Z 18006KT 9999 SCT020 26/22 Q1009 NOSIG",
      "taf": "TAF LLBG 031702Z 0318/0418 VRB04KT 9999 SCT022 TX30/0412Z TN24/0403Z"
    },
    {
      "icao": "LMML",
      "alert": "OK",
      "vis_m": 9999,
      "fzfg": false,
      "metar_trigger": false,
      "taf_trigger": false,
      "metar": "METAR LMML 032145Z 29006KT 9999 FEW020 24/20 Q1016 NOSIG",
      "taf": "TAF LMML 031700Z 0318/0418 30011KT 9999 FEW020"
    },
    {
      "icao": "LOWW",
      "alert": "OK",
      "vis_m": 9999,
      "fzfg": false,
      "metar_trigger": false,
      "taf_trigger": false,
      "metar": "METAR LOWW 032150Z 34007KT CAVOK 18/07 Q1023 NOSIG",
      "taf": "TAF LOWW 032015Z 0321/0503 36007KT CAVOK TX26/0414Z TN15/0403Z"
    },
    {
      "icao": "LPFR",
      "alert": "OK",
      "vis_m": 9999,
      "fzfg": false,
      "metar_trigger": false,
      "taf_trigger": false,
      "metar": "METAR LPFR 032130Z 06008KT 020V090 CAVOK 30/14 Q1019",
      "taf": "TAF LPFR 031700Z 0318/0418 09010KT CAVOK"
    },
    {
      "icao": "LPMA",
      "alert": "OK",
      "vis_m": 9999,
      "fzfg": false,
      "metar_trigger": false,
      "taf_trigger": false,
      "metar": "METAR LPMA 032130Z 00000KT 9999 FEW010 22/20 Q1016",
      "taf": "TAF LPMA 031700Z 0318/0418 VRB05KT 9999 FEW015"
    },
    {
      "icao": "LPPR",
      "alert": "OK",
      "vis_m": 9999,
      "fzfg": false,
      "metar_trigger": false,
      "taf_trigger": false,
      "metar": "METAR LPPR 032130Z 02005KT 340V070 CAVOK 27/15 Q1019",
      "taf": "TAF LPPR 031700Z 0318/0418 33010KT CAVOK"
    },
    {
      "icao": "LPPS",
      "alert": "OK",
      "vis_m": 9000,
      "fzfg": false,
      "metar_trigger": false,
      "taf_trigger": false,
      "metar": "METAR LPPS 032130Z 36011KT 9000 FEW005 22/20 Q1016",
      "taf": "TAF LPPS 031700Z 0318/0424 35013KT 9999 SCT008 SCT015"
    },
    {
      "icao": "LPPT",
      "alert": "OK",
      "vis_m": 9999,
      "fzfg": false,
      "metar_trigger": false,
      "taf_trigger": false,
      "metar": "METAR LPPT 032130Z 32011KT CAVOK 28/14 Q1019 NOSIG",
      "taf": "TAF LPPT 031700Z 0318/0424 32010KT CAVOK"
    },
    {
      "icao": "LQBK",
      "alert": "OK",
      "vis_m": 9999,
      "fzfg": false,
      "metar_trigger": false,
      "taf_trigger": false,
      "metar": "METAR LQBK 032130Z 13001KT CAVOK 19/15 Q1021 NOSIG",
      "taf": "TAF LQBK 031700Z 0318/0418 29005KT CAVOK TX28/0413Z TN14/0403Z"
    },
    {
      "icao": "LQSA",
      "alert": "OK",
      "vis_m": 9999,
      "fzfg": false,
      "metar_trigger": false,
      "taf_trigger": false,
      "metar": "METAR LQSA 032130Z 32004KT 9999 FEW065 20/15 Q1021",
      "taf": "TAF LQSA 031700Z 0318/0418 29005KT 9999 SCT055 TX27/0413Z TN13/0403Z"
    },
    {
      "icao": "LQTZ",
      "alert": "OK",
      "vis_m": 9999,
      "fzfg": false,
      "metar_trigger": false,
      "taf_trigger": false,
      "metar": "METAR LQTZ 032130Z VRB02KT CAVOK 20/15 Q1021",
      "taf": "TAF LQTZ 031700Z 0318/0418 27005KT CAVOK TX26/0413Z TN14/0403Z"
    },
    {
      "icao": "LRBC",
      "alert": "OK",
      "vis_m": 9999,
      "fzfg": false,
      "metar_trigger": false,
      "taf_trigger": false,
      "metar": "METAR LRBC 032130Z 32009KT 9999 OVC063 19/15 Q1015",
      "taf": "TAF LRBC 032000Z 0321/0406 35014KT 9999 SCT040"
    },
    {
      "icao": "LRBS",
      "alert": "OK",
      "vis_m": 9999,
      "fzfg": false,
      "metar_trigger": false,
      "taf_trigger": false,
      "metar": "METAR LRBS 032130Z 09006KT CAVOK 23/19 Q1012 NOSIG",
      "taf": "TAF LRBS 031700Z 0318/0418 VRB04KT 9999 SCT045"
    },
    {
      "icao": "LRBV",
      "alert": "OK",
      "vis_m": 9999,
      "fzfg": false,
      "metar_trigger": false,
      "taf_trigger": false,
      "metar": "METAR LRBV 032130Z AUTO 34004KT 310V020 9999 SCT069/// BKN088/// OVC100/// 17/16 Q1016",
      "taf": "TAF LRBV 032000Z 0321/0406 30009KT 9999 BKN050"
    },
    {
      "icao": "LRCL",
      "alert": "OK",
      "vis_m": 9999,
      "fzfg": false,
      "metar_trigger": false,
      "taf_trigger": false,
      "metar": "METAR LRCL 032130Z 29007KT 260V320 9999 SCT069 20/13 Q1017",
      "taf": "TAF LRCL 032000Z 0321/0406 31010KT 9999 SCT045"
    },
    {
      "icao": "LRCV",
      "alert": "OK",
      "vis_m": 9999,
      "fzfg": false,
      "metar_trigger": false,
      "taf_trigger": false,
      "metar": "METAR LRCV 032130Z 33004KT CAVOK 22/18 Q1014",
      "taf": "TAF LRCV 032000Z 0321/0406 32007KT 9999 SCT045"
    },
    {
      "icao": "LRIA",
      "alert": "OK",
      "vis_m": 9999,
      "fzfg": false,
      "metar_trigger": false,
      "taf_trigger": false,
      "metar": "METAR LRIA 032130Z 29008KT CAVOK 18/16 Q1014",
      "taf": "TAF LRIA 032000Z 0321/0406 31016KT 9999 SCT045"
    },
    {
      "icao": "LROP",
      "alert": "OK",
      "vis_m": 9999,
      "fzfg": false,
      "metar_trigger": false,
      "taf_trigger": false,
      "metar": "METAR LROP 032130Z 10005KT CAVOK 23/20 Q1012 NOSIG",
      "taf": "TAF LROP 031700Z 0318/0418 VRB04KT 9999 SCT045"
    },
    {
      "icao": "LRSB",
      "alert": "OK",
      "vis_m": 9999,
      "fzfg": false,
      "metar_trigger": false,
      "taf_trigger": false,
      "metar": "METAR LRSB 032130Z 28003KT CAVOK 16/16 Q1017",
      "taf": "TAF LRSB 031700Z 0318/0418 27007KT 9999 FEW040CB"
    },
    {
      "icao": "LRSM",
      "alert": "OK",
      "vis_m": 9999,
      "fzfg": false,
      "metar_trigger": false,
      "taf_trigger": false,
      "metar": "METAR LRSM 032130Z AUTO 35009KT 9999 SCT085/// 19/11 Q1017",
      "taf": "TAF LRSM 031400Z 0315/0324 34015KT CAVOK"
    },
    {
      "icao": "LRSV",
      "alert": "OK",
      "vis_m": 9999,
      "fzfg": false,
      "metar_trigger": false,
      "taf_trigger": false,
      "metar": "METAR LRSV 032130Z 31011KT 9999 BKN046 17/15 Q1016",
      "taf": "TAF LRSV 032000Z 0321/0406 27015KT 9999 SCT035"
    },
    {
      "icao": "LRTM",
      "alert": "OK",
      "vis_m": 9999,
      "fzfg": false,
      "metar_trigger": false,
      "taf_trigger": false,
      "metar": "METAR LRTM 032130Z 26003KT CAVOK 19/18 Q1016",
      "taf": "TAF LRTM 032000Z 0321/0406 VRB04KT 9999 SCT040"
    },
    {
      "icao": "LRTR",
      "alert": "OK",
      "vis_m": 9999,
      "fzfg": false,
      "metar_trigger": false,
      "taf_trigger": false,
      "metar": "METAR LRTR 032130Z 33011KT CAVOK 23/14 Q1016",
      "taf": "TAF LRTR 031700Z 0318/0418 35008KT CAVOK"
    },
    {
      "icao": "LTAC",
      "alert": "OK",
      "vis_m": 9999,
      "fzfg": false,
      "metar_trigger": false,
      "taf_trigger": false,
      "metar": "METAR LTAC 032150Z 01005KT CAVOK 18/09 Q1013 NOSIG",
      "taf": "TAF LTAC 031640Z 0318/0418 VRB02KT CAVOK"
    },
    {
      "icao": "LTFM",
      "alert": "OK",
      "vis_m": 9999,
      "fzfg": false,
      "metar_trigger": false,
      "taf_trigger": false,
      "metar": "METAR LTFM 032150Z 34004KT 290V350 CAVOK 25/19 Q1011 NOSIG",
      "taf": "TAF LTFM 031640Z 0318/0424 VRB02KT CAVOK"
    },
    {
      "icao": "LUKK",
      "alert": "OK",
      "vis_m": 9999,
      "fzfg": false,
      "metar_trigger": false,
      "taf_trigger": false,
      "metar": "METAR LUKK 032130Z 34016KT CAVOK 23/12 Q1011 NOSIG",
      "taf": "TAF LUKK 031704Z 0318/0418 33012KT 9999 SCT030"
    },
    {
      "icao": "LWOH",
      "alert": "OK",
      "vis_m": 9999,
      "fzfg": false,
      "metar_trigger": false,
      "taf_trigger": false,
      "metar": "METAR LWOH 032150Z 34008KT 310V010 9999 FEW035 SCT070 20/14 Q1019",
      "taf": "TAF LWOH 032020Z 0321/0421 34010KT 9999 FEW035 SCT070"
    },
    {
      "icao": "LWSK",
      "alert": "OK",
      "vis_m": 9999,
      "fzfg": false,
      "metar_trigger": false,
      "taf_trigger": false,
      "metar": "METAR LWSK 032150Z 01003KT 330V040 9999 FEW090 22/15 Q1017 NOSIG",
      "taf": "TAF LWSK 032020Z 0321/0421 02008KT 9999 SCT070"
    },
    {
      "icao": "LYBE",
      "alert": "OK",
      "vis_m": 9999,
      "fzfg": false,
      "metar_trigger": false,
      "taf_trigger": false,
      "metar": "METAR LYBE 032130Z 33011KT CAVOK 23/10 Q1018 NOSIG",
      "taf": "TAF LYBE 031700Z 0318/0418 32008KT CAVOK TX28/0318Z TN16/0403Z"
    },
    {
      "icao": "LYNI",
      "alert": "OK",
      "vis_m": 9999,
      "fzfg": false,
      "metar_trigger": false,
      "taf_trigger": false,
      "metar": "METAR LYNI 032130Z 09005KT CAVOK 20/17 Q1017 NOSIG",
      "taf": "TAF LYNI 031700Z 0318/0418 30008KT 9999 SCT030 BKN050 TX26/0413Z TN18/0403Z"
    },
    {
      "icao": "LYPG",
      "alert": "OK",
      "vis_m": 9999,
      "fzfg": false,
      "metar_trigger": false,
      "taf_trigger": false,
      "metar": "METAR LYPG 032130Z 36010KT CAVOK 28/11 Q1015 NOSIG",
      "taf": "TAF LYPG 031700Z 0318/0418 36017KT CAVOK TX33/0413Z TN25/0403Z"
    },
    {
      "icao": "LZIB",
      "alert": "OK",
      "vis_m": 9999,
      "fzfg": false,
      "metar_trigger": false,
      "taf_trigger": false,
      "metar": "METAR LZIB 032130Z 32004KT CAVOK 20/07 Q1022 NOSIG",
      "taf": "TAF LZIB 031715Z 0318/0418 33010KT CAVOK"
    },
    {
      "icao": "LZKZ",
      "alert": "OK",
      "vis_m": 9999,
      "fzfg": false,
      "metar_trigger": false,
      "taf_trigger": false,
      "metar": "METAR LZKZ 032130Z 35013KT CAVOK 19/06 Q1020 NOSIG",
      "taf": "TAF LZKZ 031715Z 0318/0418 02014KT CAVOK"
    },
    {
      "icao": "LZTT",
      "alert": "OK",
      "vis_m": 9999,
      "fzfg": false,
      "metar_trigger": false,
      "taf_trigger": false,
      "metar": "METAR LZTT 032130Z VRB03KT 9999 FEW056 12/05 Q1021",
      "taf": "TAF LZTT 031715Z 0318/0418 27007KT 9999 FEW060"
    },
    {
      "icao": "OEJN",
      "alert": "OK",
      "vis_m": 9999,
      "fzfg": false,
      "metar_trigger": false,
      "taf_trigger": false,
      "metar": "METAR OEJN 032100Z 34005KT CAVOK 31/19 Q1004 NOSIG",
      "taf": "TAF OEJN 031700Z 0318/0424 36005KT 7000 NSC"
    },
    {
      "icao": "OEMA",
      "alert": "OK",
      "vis_m": 9999,
      "fzfg": false,
      "metar_trigger": false,
      "taf_trigger": false,
      "metar": "METAR OEMA 032100Z 29006KT CAVOK 38/02 Q1010 NOSIG",
      "taf": "TAF OEMA 031700Z 0318/0424 29006KT CAVOK"
    },
    {
      "icao": "OJAI",
      "alert": "OK",
      "vis_m": 4000,
      "fzfg": false,
      "metar_trigger": false,
      "taf_trigger": false,
      "metar": "METAR OJAI 032100Z 31006KT 4000 DU NSC 20/14 Q1013 NOSIG",
      "taf": "TAF OJAI 031648Z 0318/0424 29012KT 4000 DU NSC"
    },
    {
      "icao": "OMAA",
      "alert": "OK",
      "vis_m": 8000,
      "fzfg": false,
      "metar_trigger": false,
      "taf_trigger": false,
      "metar": "METAR OMAA 032130Z 32002KT 8000 NSC 32/28 Q0999 NOSIG",
      "taf": "TAF OMAA 031700Z 0318/0500 VRB02KT 7000 NSC"
    },
    {
      "icao": "OMDB",
      "alert": "OK",
      "vis_m": 9999,
      "fzfg": false,
      "metar_trigger": false,
      "taf_trigger": false,
      "metar": "METAR OMDB 032130Z 03003KT 350V090 CAVOK 37/24 Q0998 NOSIG",
      "taf": "TAF OMDB 031700Z 0318/0500 04005KT 8000 NSC"
    },
    {
      "icao": "UAAA",
      "alert": "OK",
      "vis_m": 3800,
      "fzfg": false,
      "metar_trigger": false,
      "taf_trigger": false,
      "metar": "METAR UAAA 032130Z VRB01MPS 3800 BR SCT016 BKN200 13/13 Q1010 NOSIG",
      "taf": ""
    },
    {
      "icao": "UBBB",
      "alert": "OK",
      "vis_m": 9999,
      "fzfg": false,
      "metar_trigger": false,
      "taf_trigger": false,
      "metar": "METAR UBBB 032130Z 00000KT CAVOK 23/20 Q1007 NOSIG",
      "taf": "TAF UBBB 031658Z 0318/0418 16005KT 9999 SCT040 TX31/0410Z TN20/0401Z"
    },
    {
      "icao": "UDSG",
      "alert": "OK",
      "vis_m": 9999,
      "fzfg": false,
      "metar_trigger": false,
      "taf_trigger": false,
      "metar": "METAR UDSG 032130Z 09017KT 9999 BKN043CB 14/12 Q1015 NOSIG",
      "taf": "TAF UDSG 031700Z 0318/0418 03006KT 9999 SCT040"
    },
    {
      "icao": "UDYZ",
      "alert": "OK",
      "vis_m": 9999,
      "fzfg": false,
      "metar_trigger": false,
      "taf_trigger": false,
      "metar": "METAR UDYZ 032130Z VRB02KT 9999 -TSRA OVC043CB 20/14 Q1012 NOSIG",
      "taf": "TAF UDYZ 031700Z 0318/0418 04006KT 9999 SCT040"
    },
    {
      "icao": "UGKO",
      "alert": "OK",
      "vis_m": 9999,
      "fzfg": false,
      "metar_trigger": false,
      "taf_trigger": false,
      "metar": "METAR UGKO 032130Z VRB02KT 9999 BKN075 22/20 Q1008 NOSIG",
      "taf": "TAF UGKO 031700Z 0318/0418 26007KT 9999 SCT030 BKN050 TX28/0412Z TN20/0402Z"
    }
  ]
}