{
  "ts_utc": "2026-06-30T01:33:05Z",
  "threshold_m": 150,
  "source": "stations_override.txt (ICAO list) + aviationweather.gov (METAR/TAF raw)",
  "station_count": 159,
  "stations": [
    {
      "icao": "BIKF",
      "alert": "OK",
      "vis_m": 9999,
      "fzfg": false,
      "metar_trigger": false,
      "taf_trigger": false,
      "metar": "METAR BIKF 300100Z 23010KT 9999 FEW017 BKN042 08/05 Q1007",
      "taf": "TAF BIKF 300113Z 3003/0103 22012KT 9999 SCT015 BKN030 TX11/3013Z TN08/3004Z"
    },
    {
      "icao": "BKPR",
      "alert": "OK",
      "vis_m": 9999,
      "fzfg": false,
      "metar_trigger": false,
      "taf_trigger": false,
      "metar": "METAR BKPR 300130Z VRB02KT CAVOK 18/14 Q1020 NOSIG",
      "taf": "TAF BKPR 292330Z 3000/3024 35008KT CAVOK"
    },
    {
      "icao": "EBCI",
      "alert": "OK",
      "vis_m": 9999,
      "fzfg": false,
      "metar_trigger": false,
      "taf_trigger": false,
      "metar": "METAR EBCI 300120Z 02003KT 350V050 CAVOK 15/12 Q1025 NOSIG",
      "taf": "TAF EBCI 292310Z 3000/0106 VRB03KT CAVOK"
    },
    {
      "icao": "EDDB",
      "alert": "OK",
      "vis_m": 9999,
      "fzfg": false,
      "metar_trigger": false,
      "taf_trigger": false,
      "metar": "METAR EDDB 300120Z AUTO VRB02KT CAVOK 18/17 Q1024 NOSIG",
      "taf": "TAF EDDB 292300Z 3000/3024 36005KT CAVOK"
    },
    {
      "icao": "EDDH",
      "alert": "OK",
      "vis_m": 9999,
      "fzfg": false,
      "metar_trigger": false,
      "taf_trigger": false,
      "metar": "METAR EDDH 300120Z AUTO VRB02KT CAVOK 14/13 Q1025 NOSIG",
      "taf": "TAF EDDH 292300Z 3000/0106 VRB03KT CAVOK"
    },
    {
      "icao": "EDDK",
      "alert": "OK",
      "vis_m": 9999,
      "fzfg": false,
      "metar_trigger": false,
      "taf_trigger": false,
      "metar": "METAR EDDK 300120Z AUTO VRB02KT CAVOK 16/14 Q1024 NOSIG",
      "taf": "TAF EDDK 292300Z 3000/0106 VRB03KT CAVOK"
    },
    {
      "icao": "EDDN",
      "alert": "OK",
      "vis_m": 9999,
      "fzfg": false,
      "metar_trigger": false,
      "taf_trigger": false,
      "metar": "METAR EDDN 300120Z AUTO 02006KT 9999 BKN023 20/17 Q1023",
      "taf": "TAF EDDN 292300Z 3000/3024 VRB03KT 9999 FEW045"
    },
    {
      "icao": "EDDS",
      "alert": "OK",
      "vis_m": 9999,
      "fzfg": false,
      "metar_trigger": false,
      "taf_trigger": false,
      "metar": "METAR EDDS 300120Z AUTO VRB01KT CAVOK 20/17 Q1023",
      "taf": "TAF EDDS 292300Z 3000/3024 VRB02KT CAVOK"
    },
    {
      "icao": "EDFH",
      "alert": "OK",
      "vis_m": 9999,
      "fzfg": false,
      "metar_trigger": false,
      "taf_trigger": false,
      "metar": "METAR EDFH 300120Z 06003KT 030V110 CAVOK 17/11 Q1024",
      "taf": "TAF EDFH 292300Z 3000/3024 04004KT CAVOK"
    },
    {
      "icao": "EDJA",
      "alert": "OK",
      "vis_m": 9999,
      "fzfg": false,
      "metar_trigger": false,
      "taf_trigger": false,
      "metar": "METAR EDJA 300120Z AUTO 18003KT 9999 // NCD 16/15 Q1024",
      "taf": "TAF EDJA 291700Z 2918/3003 34005KT 9999 BKN035"
    },
    {
      "icao": "EDLW",
      "alert": "OK",
      "vis_m": 9999,
      "fzfg": false,
      "metar_trigger": false,
      "taf_trigger": false,
      "metar": "METAR EDLW 300120Z AUTO 23003KT 9999 // NCD 14/13 Q1024",
      "taf": "TAF EDLW 291700Z 2918/3018 VRB03KT CAVOK"
    },
    {
      "icao": "EDNY",
      "alert": "OK",
      "vis_m": 9999,
      "fzfg": false,
      "metar_trigger": false,
      "taf_trigger": false,
      "metar": "METAR EDNY 300120Z AUTO 05004KT 020V080 9999 // NCD 20/16 Q1023",
      "taf": "TAF EDNY 291700Z 2918/3003 06004KT 9999 FEW035"
    },
    {
      "icao": "EDSB",
      "alert": "OK",
      "vis_m": 9999,
      "fzfg": false,
      "metar_trigger": false,
      "taf_trigger": false,
      "metar": "METAR EDSB 300120Z AUTO 02004KT 9999 NCD 21/17 Q1022",
      "taf": "TAF EDSB 292300Z 3000/3024 VRB03KT CAVOK"
    },
    {
      "icao": "EETN",
      "alert": "OK",
      "vis_m": 9999,
      "fzfg": false,
      "metar_trigger": false,
      "taf_trigger": false,
      "metar": "METAR EETN 300120Z 25007KT CAVOK 19/16 Q1015",
      "taf": "TAF EETN 292330Z 3000/3024 24007KT CAVOK"
    },
    {
      "icao": "EFTU",
      "alert": "OK",
      "vis_m": 9999,
      "fzfg": false,
      "metar_trigger": false,
      "taf_trigger": false,
      "metar": "METAR EFTU 300120Z AUTO 27007KT CAVOK 16/13 Q1013",
      "taf": "TAF EFTU 292323Z 3000/3024 24006KT CAVOK"
    },
    {
      "icao": "EGBB",
      "alert": "OK",
      "vis_m": 9999,
      "fzfg": false,
      "metar_trigger": false,
      "taf_trigger": false,
      "metar": "METAR EGBB 300120Z 17003KT CAVOK 14/10 Q1024",
      "taf": "TAF EGBB 292302Z 3000/3024 VRB03KT 9999 SCT035"
    },
    {
      "icao": "EGGP",
      "alert": "OK",
      "vis_m": 9999,
      "fzfg": false,
      "metar_trigger": false,
      "taf_trigger": false,
      "metar": "METAR EGGP 300120Z 17005KT 140V200 CAVOK 15/11 Q1023",
      "taf": "TAF EGGP 292304Z 3000/3024 VRB03KT 9999 SCT035"
    },
    {
      "icao": "EGGW",
      "alert": "OK",
      "vis_m": 9999,
      "fzfg": false,
      "metar_trigger": false,
      "taf_trigger": false,
      "metar": "METAR EGGW 300120Z AUTO 26005KT 9999 NCD 16/09 Q1024",
      "taf": "TAF EGGW 292255Z 3000/3024 26005KT 9999 SCT045"
    },
    {
      "icao": "EGKK",
      "alert": "OK",
      "vis_m": 9999,
      "fzfg": false,
      "metar_trigger": false,
      "taf_trigger": false,
      "metar": "METAR EGKK 300120Z 22003KT CAVOK 16/12 Q1025",
      "taf": "TAF EGKK 292253Z 3000/0106 23005KT 9999 FEW045"
    },
    {
      "icao": "EGNM",
      "alert": "OK",
      "vis_m": 9999,
      "fzfg": false,
      "metar_trigger": false,
      "taf_trigger": false,
      "metar": "METAR EGNM 300120Z 16005KT CAVOK 13/09 Q1024",
      "taf": "TAF EGNM 292303Z 3000/3024 VRB03KT 9999 FEW030"
    },
    {
      "icao": "EGPD",
      "alert": "OK",
      "vis_m": 9999,
      "fzfg": false,
      "metar_trigger": false,
      "taf_trigger": false,
      "metar": "METAR EGPD 300120Z AUTO 15003KT 9999 NCD 14/10 Q1021",
      "taf": "TAF EGPD 292256Z 3000/3024 VRB03KT 9999 FEW030"
    },
    {
      "icao": "EGPF",
      "alert": "OK",
      "vis_m": 9999,
      "fzfg": false,
      "metar_trigger": false,
      "taf_trigger": false,
      "metar": "METAR EGPF 300120Z AUTO 14005KT 9999 -RA NCD 14/13 Q1021",
      "taf": "TAF EGPF 292259Z 3000/3024 18010KT 9999 BKN025"
    },
    {
      "icao": "EHBK",
      "alert": "OK",
      "vis_m": 9999,
      "fzfg": false,
      "metar_trigger": false,
      "taf_trigger": false,
      "metar": "METAR EHBK 300125Z AUTO 06005KT 9999 NCD 16/13 Q1024",
      "taf": "TAF EHBK 292313Z 3000/0106 VRB02KT CAVOK"
    },
    {
      "icao": "EHEH",
      "alert": "OK",
      "vis_m": 9999,
      "fzfg": false,
      "metar_trigger": false,
      "taf_trigger": false,
      "metar": "METAR EHEH 300125Z AUTO VRB02KT 9999 NCD 13/12 Q1024 BLU",
      "taf": "TAF EHEH 292330Z 3000/0106 VRB02KT CAVOK"
    },
    {
      "icao": "EKBI",
      "alert": "OK",
      "vis_m": 9999,
      "fzfg": false,
      "metar_trigger": false,
      "taf_trigger": false,
      "metar": "METAR EKBI 300120Z AUTO 11001KT 9999 SCT023/// BKN170/// BKN230/// 11/11 Q1025",
      "taf": "TAF EKBI 292327Z 3000/3024 25004KT 9999 FEW030"
    },
    {
      "icao": "EKCH",
      "alert": "OK",
      "vis_m": 9999,
      "fzfg": false,
      "metar_trigger": false,
      "taf_trigger": false,
      "metar": "METAR EKCH 300120Z AUTO 26002KT 9999 NCD 13/10 Q1025 NOSIG",
      "taf": "TAF EKCH 292327Z 3000/3024 33006KT CAVOK"
    },
    {
      "icao": "ENAL",
      "alert": "OK",
      "vis_m": 9999,
      "fzfg": false,
      "metar_trigger": false,
      "taf_trigger": false,
      "metar": "METAR ENAL 300120Z AUTO 22011KT 9999 BKN023/// OVC036/// 13/10 Q1020",
      "taf": "TAF ENAL 292300Z 3000/3009 23015KT 9999 FEW020TCU BKN030"
    },
    {
      "icao": "ENBR",
      "alert": "OK",
      "vis_m": 9999,
      "fzfg": false,
      "metar_trigger": false,
      "taf_trigger": false,
      "metar": "METAR ENBR 300120Z 14004KT 100V170 CAVOK 13/10 Q1023 RMK WIND 1200FT 17008KT",
      "taf": "TAF ENBR 292300Z 3000/3024 19008KT 9999 FEW015 SCT045"
    },
    {
      "icao": "ENGM",
      "alert": "OK",
      "vis_m": 9999,
      "fzfg": false,
      "metar_trigger": false,
      "taf_trigger": false,
      "metar": "METAR ENGM 300120Z VRB02KT CAVOK 12/04 Q1019",
      "taf": "TAF ENGM 292300Z 3000/3024 31003KT CAVOK"
    },
    {
      "icao": "ENHD",
      "alert": "OK",
      "vis_m": 9999,
      "fzfg": false,
      "metar_trigger": false,
      "taf_trigger": false,
      "metar": "METAR ENHD 300120Z AUTO 18003KT 9999 NCD 11/09 Q1023",
      "taf": "TAF ENHD 291400Z 2915/2922 21015KT 9999 SCT020"
    },
    {
      "icao": "ENTC",
      "alert": "OK",
      "vis_m": 9999,
      "fzfg": false,
      "metar_trigger": false,
      "taf_trigger": false,
      "metar": "METAR ENTC 300120Z AUTO 23003KT 9999 -RA FEW010/// SCT018/// BKN047/// 10/08 Q1010 RMK WIND 2600FT 27011KT",
      "taf": "TAF ENTC 292300Z 3000/3024 28015KT 9999 -RA FEW015 BKN020"
    },
    {
      "icao": "ENTO",
      "alert": "OK",
      "vis_m": 2800,
      "fzfg": false,
      "metar_trigger": false,
      "taf_trigger": false,
      "metar": "METAR ENTO 300120Z AUTO 29004KT 2800 // NCD 13/05 Q1020",
      "taf": "TAF ENTO 291700Z 2918/3018 28010KT CAVOK"
    },
    {
      "icao": "ENVA",
      "alert": "OK",
      "vis_m": 9999,
      "fzfg": false,
      "metar_trigger": false,
      "taf_trigger": false,
      "metar": "METAR ENVA 300120Z AUTO 09004KT 9999 SCT028/// 12/12 Q1019 RMK WIND 670FT 22008KT",
      "taf": "TAF ENVA 292300Z 3000/3024 23006KT 9999 FEW010 SCT018TCU BKN025"
    },
    {
      "icao": "ENZV",
      "alert": "OK",
      "vis_m": 9999,
      "fzfg": false,
      "metar_trigger": false,
      "taf_trigger": false,
      "metar": "METAR ENZV 300120Z 20003KT CAVOK 12/09 Q1024",
      "taf": "TAF ENZV 292300Z 3000/3024 16005KT 9999 FEW020"
    },
    {
      "icao": "EPGD",
      "alert": "OK",
      "vis_m": 9999,
      "fzfg": false,
      "metar_trigger": false,
      "taf_trigger": false,
      "metar": "METAR EPGD 300100Z 30008KT CAVOK 19/17 Q1023",
      "taf": "TAF EPGD 292330Z 3000/3024 30005KT CAVOK"
    },
    {
      "icao": "EPKK",
      "alert": "OK",
      "vis_m": 9999,
      "fzfg": false,
      "metar_trigger": false,
      "taf_trigger": false,
      "metar": "METAR EPKK 300100Z 20004KT CAVOK 21/18 Q1021",
      "taf": "TAF EPKK 292330Z 3000/3024 22004KT CAVOK"
    },
    {
      "icao": "EPKT",
      "alert": "OK",
      "vis_m": 9999,
      "fzfg": false,
      "metar_trigger": false,
      "taf_trigger": false,
      "metar": "METAR EPKT 300100Z VRB02KT CAVOK 18/17 Q1021",
      "taf": "TAF EPKT 292330Z 3000/3024 VRB02KT CAVOK"
    },
    {
      "icao": "EPLB",
      "alert": "OK",
      "vis_m": 9999,
      "fzfg": false,
      "metar_trigger": false,
      "taf_trigger": false,
      "metar": "METAR EPLB 300100Z 01005KT 9999 -SHRA BKN075CB 25/18 Q1019",
      "taf": "TAF EPLB 292330Z 3000/3024 01007KT CAVOK"
    },
    {
      "icao": "EPMO",
      "alert": "OK",
      "vis_m": 9999,
      "fzfg": false,
      "metar_trigger": false,
      "taf_trigger": false,
      "metar": "METAR EPMO 300100Z 02004KT 340V050 CAVOK 22/19 Q1022",
      "taf": "TAF EPMO 292330Z 3000/3024 02007KT CAVOK"
    },
    {
      "icao": "EPPO",
      "alert": "OK",
      "vis_m": 9999,
      "fzfg": false,
      "metar_trigger": false,
      "taf_trigger": false,
      "metar": "METAR EPPO 300100Z 34007KT 9999 -SHRA SCT035CB SCT036 20/16 Q1024",
      "taf": "TAF EPPO 292330Z 3000/3024 35008KT CAVOK"
    },
    {
      "icao": "EPRA",
      "alert": "OK",
      "vis_m": 9999,
      "fzfg": false,
      "metar_trigger": false,
      "taf_trigger": false,
      "metar": "METAR EPRA 300100Z 33005KT CAVOK 25/17 Q1021",
      "taf": "TAF EPRA 292330Z 3000/3009 02006KT CAVOK"
    },
    {
      "icao": "EPRZ",
      "alert": "OK",
      "vis_m": 9999,
      "fzfg": false,
      "metar_trigger": false,
      "taf_trigger": false,
      "metar": "METAR EPRZ 300100Z 31005KT CAVOK 26/18 Q1019",
      "taf": "TAF EPRZ 292330Z 3000/3024 26007KT CAVOK"
    },
    {
      "icao": "EPSC",
      "alert": "OK",
      "vis_m": 1000,
      "fzfg": false,
      "metar_trigger": false,
      "taf_trigger": false,
      "metar": "METAR EPSC 300100Z 29002KT 1000 R31/1500U MIFG BR FEW000 17/17 Q1024",
      "taf": "TAF EPSC 292330Z 3000/3024 VRB02KT CAVOK"
    },
    {
      "icao": "EPSY",
      "alert": "OK",
      "vis_m": 9999,
      "fzfg": false,
      "metar_trigger": false,
      "taf_trigger": false,
      "metar": "METAR EPSY 300100Z 33006KT CAVOK 20/17 Q1022",
      "taf": "TAF EPSY 292330Z 3000/3009 34006KT CAVOK"
    },
    {
      "icao": "EPWA",
      "alert": "OK",
      "vis_m": 9999,
      "fzfg": false,
      "metar_trigger": false,
      "taf_trigger": false,
      "metar": "METAR EPWA 300100Z 36008KT CAVOK 24/19 Q1021 NOSIG",
      "taf": "TAF EPWA 292330Z 3000/3024 02008KT CAVOK"
    },
    {
      "icao": "EPWR",
      "alert": "OK",
      "vis_m": 9999,
      "fzfg": false,
      "metar_trigger": false,
      "taf_trigger": false,
      "metar": "METAR EPWR 300100Z 31008KT 9999 BKN020 22/21 Q1023",
      "taf": "TAF EPWR 292330Z 3000/3024 30010KT CAVOK"
    },
    {
      "icao": "ESGG",
      "alert": "OK",
      "vis_m": 9999,
      "fzfg": false,
      "metar_trigger": false,
      "taf_trigger": false,
      "metar": "METAR ESGG 300120Z 25005KT CAVOK 13/10 Q1022",
      "taf": "TAF ESGG 292330Z 3000/3024 25009KT CAVOK"
    },
    {
      "icao": "ESKN",
      "alert": "OK",
      "vis_m": 9999,
      "fzfg": false,
      "metar_trigger": false,
      "taf_trigger": false,
      "metar": "METAR ESKN 300120Z 24008KT CAVOK 13/11 Q1019",
      "taf": "TAF ESKN 292330Z 3000/3024 25008KT CAVOK"
    },
    {
      "icao": "ESMS",
      "alert": "OK",
      "vis_m": 9999,
      "fzfg": false,
      "metar_trigger": false,
      "taf_trigger": false,
      "metar": "METAR ESMS 300120Z 17002KT CAVOK 10/10 Q1024",
      "taf": "TAF ESMS 292327Z 3000/3024 34006KT CAVOK"
    },
    {
      "icao": "ESSA",
      "alert": "OK",
      "vis_m": 9999,
      "fzfg": false,
      "metar_trigger": false,
      "taf_trigger": false,
      "metar": "METAR ESSA 300120Z 27006KT CAVOK 15/10 Q1017 NOSIG",
      "taf": "TAF ESSA 292330Z 3000/3024 25010KT CAVOK"
    },
    {
      "icao": "EYKA",
      "alert": "OK",
      "vis_m": 9999,
      "fzfg": false,
      "metar_trigger": false,
      "taf_trigger": false,
      "metar": "METAR EYKA 300120Z 29005KT CAVOK 20/18 Q1019",
      "taf": "TAF EYKA 292301Z 3000/3024 VRB03KT 9000 NSC"
    },
    {
      "icao": "EYPA",
      "alert": "OK",
      "vis_m": 9999,
      "fzfg": false,
      "metar_trigger": false,
      "taf_trigger": false,
      "metar": "METAR EYPA 300120Z VRB02KT CAVOK 22/16 Q1020",
      "taf": "TAF EYPA 292300Z 3000/3024 VRB03KT 9000 NSC"
    },
    {
      "icao": "EYVI",
      "alert": "OK",
      "vis_m": 9999,
      "fzfg": false,
      "metar_trigger": false,
      "taf_trigger": false,
      "metar": "METAR EYVI 300120Z 31005KT CAVOK 22/20 Q1019 NOSIG",
      "taf": "TAF EYVI 292301Z 3000/3024 VRB03KT 9000 NSC"
    },
    {
      "icao": "GCFV",
      "alert": "OK",
      "vis_m": 9999,
      "fzfg": false,
      "metar_trigger": false,
      "taf_trigger": false,
      "metar": "METAR GCFV 300100Z AUTO 01011KT CAVOK 23/17 Q1017",
      "taf": "TAF GCFV 292000Z 2921/3021 03012KT CAVOK TX28/3014Z TN22/3006Z"
    },
    {
      "icao": "GCLP",
      "alert": "OK",
      "vis_m": 9999,
      "fzfg": false,
      "metar_trigger": false,
      "taf_trigger": false,
      "metar": "METAR GCLP 300100Z 01023KT 9999 FEW020 24/17 Q1017 NOSIG",
      "taf": "TAF GCLP 292000Z 2921/3021 01026KT 9999 FEW020 TX31/3014Z TN24/3006Z"
    },
    {
      "icao": "GCTS",
      "alert": "OK",
      "vis_m": 9999,
      "fzfg": false,
      "metar_trigger": false,
      "taf_trigger": false,
      "metar": "METAR GCTS 300100Z 06011KT 9999 FEW025 25/16 Q1016 NOSIG",
      "taf": "TAF GCTS 292000Z 2921/3021 05014KT CAVOK TX33/3014Z TN24/3006Z"
    },
    {
      "icao": "GMAD",
      "alert": "OK",
      "vis_m": 8000,
      "fzfg": false,
      "metar_trigger": false,
      "taf_trigger": false,
      "metar": "METAR GMAD 300100Z 19003KT 8000 NSC 21/17 Q1014 NOSIG",
      "taf": "TAF GMAD 292300Z 3000/0106 12005KT 8000 NSC"
    },
    {
      "icao": "GMMN",
      "alert": "OK",
      "vis_m": 9999,
      "fzfg": false,
      "metar_trigger": false,
      "taf_trigger": false,
      "metar": "METAR GMMN 300100Z 05004KT CAVOK 20/18 Q1019 NOSIG",
      "taf": "TAF GMMN 292300Z 3000/0106 03004KT 7000 NSC"
    },
    {
      "icao": "GMMX",
      "alert": "OK",
      "vis_m": 9999,
      "fzfg": false,
      "metar_trigger": false,
      "taf_trigger": false,
      "metar": "METAR GMMX 300100Z 23004KT 190V250 CAVOK 27/14 Q1018 NOSIG",
      "taf": "TAF GMMX 292300Z 3000/0106 24006KT 8000 NSC"
    },
    {
      "icao": "HEGN",
      "alert": "OK",
      "vis_m": 9999,
      "fzfg": false,
      "metar_trigger": false,
      "taf_trigger": false,
      "metar": "METAR HEGN 300100Z 31014KT CAVOK 30/11 Q1006 NOSIG",
      "taf": "TAF HEGN 292300Z 3000/0106 29012KT CAVOK"
    },
    {
      "icao": "HEMA",
      "alert": "OK",
      "vis_m": 9999,
      "fzfg": false,
      "metar_trigger": false,
      "taf_trigger": false,
      "metar": "METAR HEMA 300100Z 29007KT CAVOK 28/05 Q1005 NOSIG",
      "taf": "TAF HEMA 292300Z 3000/0106 25010KT CAVOK"
    },
    {
      "icao": "HESH",
      "alert": "OK",
      "vis_m": 9999,
      "fzfg": false,
      "metar_trigger": false,
      "taf_trigger": false,
      "metar": "METAR HESH 300100Z 35015KT CAVOK 31/16 Q1005 NOSIG",
      "taf": "TAF HESH 292300Z 3000/0106 32008KT CAVOK"
    },
    {
      "icao": "HESX",
      "alert": "OK",
      "vis_m": 9999,
      "fzfg": false,
      "metar_trigger": false,
      "taf_trigger": false,
      "metar": "METAR HESX 300100Z 02004KT CAVOK 22/18 Q1010 NOSIG",
      "taf": "TAF HESX 292300Z 3000/0106 06009KT CAVOK"
    },
    {
      "icao": "LATI",
      "alert": "OK",
      "vis_m": 9999,
      "fzfg": false,
      "metar_trigger": false,
      "taf_trigger": false,
      "metar": "METAR LATI 300120Z VRB03KT CAVOK 23/16 Q1015 NOSIG",
      "taf": "TAF LATI 292300Z 3000/3024 VRB05KT CAVOK TX38/3012Z TN21/3004Z"
    },
    {
      "icao": "LBPD",
      "alert": "OK",
      "vis_m": 9999,
      "fzfg": false,
      "metar_trigger": false,
      "taf_trigger": false,
      "metar": "METAR LBPD 300130Z AUTO 23002KT 9999 NCD 22/16 Q1017",
      "taf": "TAF LBPD 292300Z 3000/3024 VRB04KT CAVOK"
    },
    {
      "icao": "LBSF",
      "alert": "OK",
      "vis_m": 9999,
      "fzfg": false,
      "metar_trigger": false,
      "taf_trigger": false,
      "metar": "METAR LBSF 300130Z AUTO 10004KT 9999 NCD 17/16 Q1020 NOSIG",
      "taf": "TAF LBSF 292300Z 3000/3024 VRB04KT CAVOK"
    },
    {
      "icao": "LBWN",
      "alert": "OK",
      "vis_m": 9999,
      "fzfg": false,
      "metar_trigger": false,
      "taf_trigger": false,
      "metar": "METAR LBWN 300130Z AUTO 26004KT 9999 NCD 20/16 Q1015 NOSIG",
      "taf": "TAF LBWN 292300Z 3000/3024 VRB03KT CAVOK"
    },
    {
      "icao": "LCLK",
      "alert": "OK",
      "vis_m": 8000,
      "fzfg": false,
      "metar_trigger": false,
      "taf_trigger": false,
      "metar": "METAR LCLK 300130Z 25003KT 8000 NSC 24/20 Q1007 NOSIG",
      "taf": "TAF LCLK 292330Z 3000/0100 22006KT 8000 FEW002"
    },
    {
      "icao": "LCPH",
      "alert": "OK",
      "vis_m": 9999,
      "fzfg": false,
      "metar_trigger": false,
      "taf_trigger": false,
      "metar": "METAR LCPH 300130Z AUTO 02002KT 9999 NCD 21/11 Q1008 NOSIG",
      "taf": "TAF LCPH 292330Z 3000/0100 02006KT CAVOK"
    },
    {
      "icao": "LEAL",
      "alert": "OK",
      "vis_m": 9999,
      "fzfg": false,
      "metar_trigger": false,
      "taf_trigger": false,
      "metar": "METAR LEAL 300100Z 31003KT CAVOK 25/18 Q1020 NOSIG",
      "taf": "TAF LEAL 292300Z 3000/3024 VRB04KT CAVOK TX32/3012Z TN24/3006Z"
    },
    {
      "icao": "LEBB",
      "alert": "OK",
      "vis_m": 9999,
      "fzfg": false,
      "metar_trigger": false,
      "taf_trigger": false,
      "metar": "METAR LEBB 300100Z AUTO VRB01KT 9999 FEW022 BKN036 OVC042 20/19 Q1025",
      "taf": "TAF LEBB 292300Z 3000/3024 VRB03KT 9999 BKN020 TX24/3014Z TN17/3000Z"
    },
    {
      "icao": "LEBL",
      "alert": "OK",
      "vis_m": 9999,
      "fzfg": false,
      "metar_trigger": false,
      "taf_trigger": false,
      "metar": "METAR LEBL 300100Z VRB02KT CAVOK 26/19 Q1020 NOSIG",
      "taf": "TAF LEBL 292300Z 3000/3024 22005KT CAVOK TX33/3013Z TN24/3006Z"
    },
    {
      "icao": "LECH",
      "alert": "OK",
      "vis_m": 9999,
      "fzfg": false,
      "metar_trigger": false,
      "taf_trigger": false,
      "metar": "METAR LECH 300100Z AUTO 16002KT CAVOK 23/18 Q1022",
      "taf": "TAF LECH 292300Z 3000/3024 VRB03KT CAVOK TX35/3012Z TN18/3006Z"
    },
    {
      "icao": "LEMD",
      "alert": "OK",
      "vis_m": 9999,
      "fzfg": false,
      "metar_trigger": false,
      "taf_trigger": false,
      "metar": "METAR LEMD 300100Z VRB02KT CAVOK 24/12 Q1022 NOSIG",
      "taf": "TAF LEMD 292300Z 3000/0106 VRB04KT CAVOK TX37/3016Z TN18/3005Z"
    },
    {
      "icao": "LEMG",
      "alert": "OK",
      "vis_m": 9999,
      "fzfg": false,
      "metar_trigger": false,
      "taf_trigger": false,
      "metar": "METAR LEMG 300100Z 28002KT CAVOK 23/20 Q1020 NOSIG",
      "taf": "TAF LEMG 292300Z 3000/3024 29006KT CAVOK TX31/3013Z TN23/3005Z"
    },
    {
      "icao": "LEVC",
      "alert": "OK",
      "vis_m": 9999,
      "fzfg": false,
      "metar_trigger": false,
      "taf_trigger": false,
      "metar": "METAR LEVC 300100Z 28004KT 240V320 CAVOK 24/19 Q1020 NOSIG",
      "taf": "TAF LEVC 292300Z 3000/3024 VRB04KT CAVOK TX35/3012Z TN23/3006Z"
    },
    {
      "icao": "LEXJ",
      "alert": "OK",
      "vis_m": 9999,
      "fzfg": false,
      "metar_trigger": false,
      "taf_trigger": false,
      "metar": "METAR LEXJ 300100Z AUTO VRB01KT CAVOK 18/17 Q1024",
      "taf": "TAF LEXJ 292000Z 2921/3021 05009KT 9999 SCT020 TX22/3014Z TN16/3005Z"
    },
    {
      "icao": "LEZG",
      "alert": "OK",
      "vis_m": 9999,
      "fzfg": false,
      "metar_trigger": false,
      "taf_trigger": false,
      "metar": "METAR LEZG 300100Z 28012KT CAVOK 21/16 Q1023 NOSIG",
      "taf": "TAF LEZG 292300Z 3000/3024 30012KT CAVOK TX36/3015Z TN19/3006Z"
    },
    {
      "icao": "LEZL",
      "alert": "OK",
      "vis_m": 9999,
      "fzfg": false,
      "metar_trigger": false,
      "taf_trigger": false,
      "metar": "METAR LEZL 300100Z AUTO 19007KT 150V230 CAVOK 26/14 Q1017",
      "taf": "TAF LEZL 292000Z 2921/3021 20010KT CAVOK TX40/3015Z TN23/3005Z"
    },
    {
      "icao": "LFBD",
      "alert": "OK",
      "vis_m": 9999,
      "fzfg": false,
      "metar_trigger": false,
      "taf_trigger": false,
      "metar": "METAR LFBD 300100Z AUTO 31003KT CAVOK 18/15 Q1024 NOSIG",
      "taf": "TAF LFBD 292300Z 3000/0106 VRB03KT CAVOK TX31/3013Z TN17/0102Z"
    },
    {
      "icao": "LFLL",
      "alert": "OK",
      "vis_m": 9999,
      "fzfg": false,
      "metar_trigger": false,
      "taf_trigger": false,
      "metar": "METAR LFLL 300100Z 34006KT CAVOK 23/18 Q1021 NOSIG",
      "taf": "TAF LFLL 292300Z 3000/0106 VRB03KT CAVOK"
    },
    {
      "icao": "LFLS",
      "alert": "OK",
      "vis_m": 9999,
      "fzfg": false,
      "metar_trigger": false,
      "taf_trigger": false,
      "metar": "METAR LFLS 300100Z AUTO 04004KT CAVOK 20/16 Q1022",
      "taf": "TAF LFLS 291400Z 2915/3015 34010KT 9999 FEW045"
    },
    {
      "icao": "LFMN",
      "alert": "OK",
      "vis_m": 9999,
      "fzfg": false,
      "metar_trigger": false,
      "taf_trigger": false,
      "metar": "METAR LFMN 300100Z 33008KT CAVOK 28/14 Q1017 NOSIG",
      "taf": "TAF LFMN 292000Z 2921/0103 03015G25KT CAVOK"
    },
    {
      "icao": "LFOB",
      "alert": "OK",
      "vis_m": 9999,
      "fzfg": false,
      "metar_trigger": false,
      "taf_trigger": false,
      "metar": "METAR LFOB 300100Z AUTO 30003KT CAVOK 12/11 Q1025 NOSIG",
      "taf": "TAF LFOB 292300Z 3000/3024 33005KT CAVOK"
    },
    {
      "icao": "LFPO",
      "alert": "OK",
      "vis_m": 9999,
      "fzfg": false,
      "metar_trigger": false,
      "taf_trigger": false,
      "metar": "METAR LFPO 300100Z AUTO 01008KT CAVOK 18/09 Q1024 NOSIG",
      "taf": "TAF LFPO 292300Z 3000/0106 02008KT CAVOK"
    },
    {
      "icao": "LFSB",
      "alert": "OK",
      "vis_m": 9999,
      "fzfg": false,
      "metar_trigger": false,
      "taf_trigger": false,
      "metar": "METAR LFSB 300100Z AUTO 31003KT CAVOK 20/18 Q1022 TEMPO FEW035TCU",
      "taf": "TAF LFSB 292300Z 3000/3024 33006KT CAVOK"
    },
    {
      "icao": "LGAV",
      "alert": "OK",
      "vis_m": 9999,
      "fzfg": false,
      "metar_trigger": false,
      "taf_trigger": false,
      "metar": "METAR LGAV 300120Z 34004KT CAVOK 26/13 Q1012 NOSIG",
      "taf": "TAF LGAV 292300Z 3000/3024 03012KT 9999 FEW025"
    },
    {
      "icao": "LGTS",
      "alert": "OK",
      "vis_m": 9999,
      "fzfg": false,
      "metar_trigger": false,
      "taf_trigger": false,
      "metar": "METAR LGTS 300120Z COR 11004KT 9999 FEW030 24/15 Q1014 NOSIG",
      "taf": "TAF LGTS 292300Z 3000/3024 VRB03KT CAVOK"
    },
    {
      "icao": "LHBP",
      "alert": "OK",
      "vis_m": 9999,
      "fzfg": false,
      "metar_trigger": false,
      "taf_trigger": false,
      "metar": "METAR LHBP 300130Z VRB01KT CAVOK 20/13 Q1018 NOSIG",
      "taf": "TAF LHBP 292315Z 3000/3024 VRB02KT CAVOK"
    },
    {
      "icao": "LHDC",
      "alert": "OK",
      "vis_m": 9999,
      "fzfg": false,
      "metar_trigger": false,
      "taf_trigger": false,
      "metar": "METAR LHDC 300045Z AUTO VRB01KT CAVOK 24/18 Q1017",
      "taf": "TAF LHDC 292315Z 3000/3009 VRB02KT CAVOK"
    },
    {
      "icao": "LIBD",
      "alert": "OK",
      "vis_m": 9999,
      "fzfg": false,
      "metar_trigger": false,
      "taf_trigger": false,
      "metar": "METAR LIBD 300120Z 25007KT CAVOK 23/19 Q1015",
      "taf": "TAF LIBD 292300Z 3000/3024 25007KT CAVOK"
    },
    {
      "icao": "LIBG",
      "alert": "OK",
      "vis_m": 9999,
      "fzfg": false,
      "metar_trigger": false,
      "taf_trigger": false,
      "metar": "METAR LIBG 300120Z AUTO VRB01KT 9999 SCT120/// 22/16 Q1015",
      "taf": "TAF LIBG 292300Z 3000/3024 VRB05KT CAVOK"
    },
    {
      "icao": "LIBP",
      "alert": "OK",
      "vis_m": 9999,
      "fzfg": false,
      "metar_trigger": false,
      "taf_trigger": false,
      "metar": "METAR LIBP 300120Z AUTO VRB02KT 9999 NCD 22/19 Q1016",
      "taf": "TAF LIBP 292300Z 3000/3024 VRB05KT CAVOK"
    },
    {
      "icao": "LIBR",
      "alert": "OK",
      "vis_m": 9999,
      "fzfg": false,
      "metar_trigger": false,
      "taf_trigger": false,
      "metar": "METAR LIBR 300120Z 30005KT CAVOK 24/21 Q1014",
      "taf": "TAF LIBR 292300Z 3000/3024 34005KT CAVOK"
    },
    {
      "icao": "LICA",
      "alert": "OK",
      "vis_m": 9999,
      "fzfg": false,
      "metar_trigger": false,
      "taf_trigger": false,
      "metar": "METAR LICA 300120Z AUTO 08006KT 9999 NCD 22/21 Q1015",
      "taf": "TAF LICA 292300Z 3000/3024 08005KT CAVOK"
    },
    {
      "icao": "LICC",
      "alert": "OK",
      "vis_m": 9999,
      "fzfg": false,
      "metar_trigger": false,
      "taf_trigger": false,
      "metar": "METAR LICC 300120Z 20006KT CAVOK 24/18 Q1015",
      "taf": "TAF LICC 292300Z 3000/3024 VRB04KT CAVOK"
    },
    {
      "icao": "LICJ",
      "alert": "OK",
      "vis_m": 9999,
      "fzfg": false,
      "metar_trigger": false,
      "taf_trigger": false,
      "metar": "METAR LICJ 300120Z AUTO 18003KT 9999 NCD 26/21 Q1015",
      "taf": "TAF LICJ 292300Z 3000/3024 VRB05KT CAVOK"
    },
    {
      "icao": "LIMC",
      "alert": "OK",
      "vis_m": 9999,
      "fzfg": false,
      "metar_trigger": false,
      "taf_trigger": false,
      "metar": "METAR LIMC 300120Z 08005KT CAVOK 24/15 Q1019 NOSIG",
      "taf": "TAF LIMC 292300Z 3000/0106 02010KT CAVOK"
    },
    {
      "icao": "LIME",
      "alert": "OK",
      "vis_m": 9999,
      "fzfg": false,
      "metar_trigger": false,
      "taf_trigger": false,
      "metar": "METAR LIME 300120Z 14010KT CAVOK 24/17 Q1020 NOSIG",
      "taf": "TAF LIME 292300Z 3000/3024 VRB05KT CAVOK"
    },
    {
      "icao": "LIMF",
      "alert": "OK",
      "vis_m": 9999,
      "fzfg": false,
      "metar_trigger": false,
      "taf_trigger": false,
      "metar": "METAR LIMF 300120Z 35003KT 230V010 CAVOK 22/17 Q1019",
      "taf": "TAF LIMF 292300Z 3000/3024 VRB05KT CAVOK"
    },
    {
      "icao": "LIMJ",
      "alert": "OK",
      "vis_m": 9999,
      "fzfg": false,
      "metar_trigger": false,
      "taf_trigger": false,
      "metar": "METAR LIMJ 300120Z VRB02KT CAVOK 26/23 Q1018",
      "taf": "TAF LIMJ 292300Z 3000/3024 02012KT CAVOK"
    },
    {
      "icao": "LIPE",
      "alert": "OK",
      "vis_m": 9999,
      "fzfg": false,
      "metar_trigger": false,
      "taf_trigger": false,
      "metar": "METAR LIPE 300120Z AUTO 24006KT 9999 NCD 22/18 Q1018",
      "taf": "TAF LIPE 292300Z 3000/3024 VRB05KT 9999 SCT030"
    },
    {
      "icao": "LIPH",
      "alert": "OK",
      "vis_m": 9999,
      "fzfg": false,
      "metar_trigger": false,
      "taf_trigger": false,
      "metar": "METAR LIPH 300120Z AUTO 30004KT 270V330 9999 NCD 27/17 Q1017",
      "taf": "TAF LIPH 292300Z 3000/3024 03006KT 9999 FEW030"
    },
    {
      "icao": "LIPQ",
      "alert": "OK",
      "vis_m": 9999,
      "fzfg": false,
      "metar_trigger": false,
      "taf_trigger": false,
      "metar": "METAR LIPQ 300120Z AUTO 10003KT 080V140 9999 NCD 26/17 Q1016",
      "taf": "TAF LIPQ 292300Z 3000/3024 09010KT 9999 FEW040"
    },
    {
      "icao": "LIPR",
      "alert": "OK",
      "vis_m": 9999,
      "fzfg": false,
      "metar_trigger": false,
      "taf_trigger": false,
      "metar": "METAR LIPR 300120Z AUTO 31006KT 9999 NCD 26/17 Q1017",
      "taf": "TAF LIPR 292300Z 3000/3024 VRB05KT CAVOK"
    },
    {
      "icao": "LIPX",
      "alert": "OK",
      "vis_m": 9999,
      "fzfg": false,
      "metar_trigger": false,
      "taf_trigger": false,
      "metar": "METAR LIPX 300120Z 26008KT CAVOK 22/20 Q1018",
      "taf": "TAF LIPX 292300Z 3000/3024 VRB05KT CAVOK"
    },
    {
      "icao": "LIPY",
      "alert": "OK",
      "vis_m": 9999,
      "fzfg": false,
      "metar_trigger": false,
      "taf_trigger": false,
      "metar": "METAR LIPY 300120Z AUTO 18003KT 130V210 9999 NCD 25/18 Q1017",
      "taf": "TAF LIPY 292300Z 3000/3024 VRB05KT CAVOK"
    },
    {
      "icao": "LIPZ",
      "alert": "OK",
      "vis_m": 9999,
      "fzfg": false,
      "metar_trigger": false,
      "taf_trigger": false,
      "metar": "METAR LIPZ 300050Z 35003KT 290V030 CAVOK 27/19 Q1016 NOSIG",
      "taf": "TAF LIPZ 292300Z 3000/0106 03008KT 9999 FEW040"
    },
    {
      "icao": "LIRF",
      "alert": "OK",
      "vis_m": 9999,
      "fzfg": false,
      "metar_trigger": false,
      "taf_trigger": false,
      "metar": "METAR LIRF 300120Z 35004KT CAVOK 23/18 Q1016 NOSIG",
      "taf": "TAF LIRF 292300Z 3000/0106 VRB04KT CAVOK"
    },
    {
      "icao": "LIRN",
      "alert": "OK",
      "vis_m": 9999,
      "fzfg": false,
      "metar_trigger": false,
      "taf_trigger": false,
      "metar": "METAR LIRN 300120Z 02004KT CAVOK 24/16 Q1016 NOSIG",
      "taf": "TAF LIRN 292300Z 3000/3024 VRB05KT CAVOK"
    },
    {
      "icao": "LIRP",
      "alert": "OK",
      "vis_m": 9999,
      "fzfg": false,
      "metar_trigger": false,
      "taf_trigger": false,
      "metar": "METAR LIRP 300045Z 09009KT 9999 FEW030 21/17 Q1017 NOSIG",
      "taf": "TAF LIRP 292300Z 3000/3024 10004KT 9999 SCT030 SCT040"
    },
    {
      "icao": "LIRZ",
      "alert": "OK",
      "vis_m": 9999,
      "fzfg": false,
      "metar_trigger": false,
      "taf_trigger": false,
      "metar": "METAR LIRZ 300120Z AUTO 32004KT 280V360 9999 NCD 21/17 Q1018",
      "taf": "TAF LIRZ 292300Z 3000/3024 VRB06KT CAVOK"
    },
    {
      "icao": "LJLJ",
      "alert": "OK",
      "vis_m": 9999,
      "fzfg": false,
      "metar_trigger": false,
      "taf_trigger": false,
      "metar": "METAR LJLJ 300100Z 02004KT 330V040 CAVOK 21/18 Q1020 NOSIG",
      "taf": "TAF LJLJ 292300Z 3000/0100 VRB02KT 9999 FEW060"
    },
    {
      "icao": "LKMT",
      "alert": "OK",
      "vis_m": 9999,
      "fzfg": false,
      "metar_trigger": false,
      "taf_trigger": false,
      "metar": "METAR LKMT 300100Z 08005KT 050V110 CAVOK 21/18 Q1021 NOSIG",
      "taf": "TAF LKMT 292300Z 3000/3024 04008KT CAVOK"
    },
    {
      "icao": "LKPR",
      "alert": "OK",
      "vis_m": 9999,
      "fzfg": false,
      "metar_trigger": false,
      "taf_trigger": false,
      "metar": "METAR LKPR 300100Z 36012KT 9999 FEW025CB 20/17 Q1023 NOSIG",
      "taf": "TAF LKPR 292300Z 3000/0106 33010KT CAVOK"
    },
    {
      "icao": "LLBG",
      "alert": "OK",
      "vis_m": 9999,
      "fzfg": false,
      "metar_trigger": false,
      "taf_trigger": false,
      "metar": "METAR LLBG 300120Z 14005KT CAVOK 24/19 Q1009 TEMPO 9999 SCT014",
      "taf": "TAF LLBG 292322Z 3000/3024 VRB03KT 9999 FEW018 TX33/3011Z TN22/3003Z"
    },
    {
      "icao": "LMML",
      "alert": "OK",
      "vis_m": 9999,
      "fzfg": false,
      "metar_trigger": false,
      "taf_trigger": false,
      "metar": "METAR LMML 300115Z 36004KT CAVOK 27/23 Q1015 NOSIG",
      "taf": "TAF LMML 292300Z 3000/3024 VRB06KT CAVOK"
    },
    {
      "icao": "LOWW",
      "alert": "OK",
      "vis_m": 9999,
      "fzfg": false,
      "metar_trigger": false,
      "taf_trigger": false,
      "metar": "METAR LOWW 300120Z 33013KT CAVOK 24/17 Q1021 NOSIG",
      "taf": "TAF LOWW 292315Z 3000/0106 32010KT CAVOK TX35/3014Z TN21/0103Z"
    },
    {
      "icao": "LPFR",
      "alert": "OK",
      "vis_m": 9999,
      "fzfg": false,
      "metar_trigger": false,
      "taf_trigger": false,
      "metar": "METAR LPFR 300100Z 01010KT CAVOK 29/11 Q1017",
      "taf": "TAF LPFR 292300Z 3000/3024 36010KT CAVOK"
    },
    {
      "icao": "LPMA",
      "alert": "OK",
      "vis_m": 9999,
      "fzfg": false,
      "metar_trigger": false,
      "taf_trigger": false,
      "metar": "METAR LPMA 300100Z 03017G32KT 360V060 9999 SCT014 21/15 Q1023",
      "taf": ""
    },
    {
      "icao": "LPPR",
      "alert": "OK",
      "vis_m": 7000,
      "fzfg": false,
      "metar_trigger": false,
      "taf_trigger": false,
      "metar": "METAR LPPR 300100Z 28003KT 250V310 7000 NSC 17/16 Q1021",
      "taf": "TAF LPPR 292300Z 3000/3024 VRB02KT CAVOK"
    },
    {
      "icao": "LPPS",
      "alert": "OK",
      "vis_m": 9999,
      "fzfg": false,
      "metar_trigger": false,
      "taf_trigger": false,
      "metar": "METAR LPPS 300100Z 04009KT 010V080 9999 SCT014 SCT030 20/15 Q1024",
      "taf": "TAF LPPS 292300Z 3000/0106 03013KT 9999 SCT015 SCT030"
    },
    {
      "icao": "LPPT",
      "alert": "OK",
      "vis_m": 9999,
      "fzfg": false,
      "metar_trigger": false,
      "taf_trigger": false,
      "metar": "METAR LPPT 300100Z 32011KT 290V350 CAVOK 19/16 Q1020",
      "taf": "TAF LPPT 292300Z 3000/0106 33013KT 9999 FEW015"
    },
    {
      "icao": "LQBK",
      "alert": "OK",
      "vis_m": 9999,
      "fzfg": false,
      "metar_trigger": false,
      "taf_trigger": false,
      "metar": "METAR LQBK 300100Z 14004KT CAVOK 21/15 Q1018 NOSIG",
      "taf": "TAF LQBK 292300Z 3000/3024 15005KT CAVOK TX36/3013Z TN20/3003Z"
    },
    {
      "icao": "LQSA",
      "alert": "OK",
      "vis_m": 9999,
      "fzfg": false,
      "metar_trigger": false,
      "taf_trigger": false,
      "metar": "METAR LQSA 300100Z VRB02KT CAVOK 18/13 Q1021",
      "taf": "TAF LQSA 292300Z 3000/3024 VRB02KT CAVOK TX35/3012Z TN18/3003Z"
    },
    {
      "icao": "LQTZ",
      "alert": "OK",
      "vis_m": 9999,
      "fzfg": false,
      "metar_trigger": false,
      "taf_trigger": false,
      "metar": "METAR LQTZ 300100Z 00000KT CAVOK 16/16 Q1019",
      "taf": "TAF LQTZ 292300Z 3000/3024 VRB02KT CAVOK TX38/3013Z TN16/3003Z"
    },
    {
      "icao": "LRBC",
      "alert": "OK",
      "vis_m": 9999,
      "fzfg": false,
      "metar_trigger": false,
      "taf_trigger": false,
      "metar": "METAR LRBC 300100Z VRB02KT CAVOK 20/18 Q1017",
      "taf": "TAF LRBC 292300Z 3000/3009 VRB04KT CAVOK"
    },
    {
      "icao": "LRBS",
      "alert": "OK",
      "vis_m": 9999,
      "fzfg": false,
      "metar_trigger": false,
      "taf_trigger": false,
      "metar": "METAR LRBS 300100Z VRB02KT CAVOK 23/19 Q1016 NOSIG",
      "taf": "TAF LRBS 292300Z 3000/3024 VRB04KT CAVOK"
    },
    {
      "icao": "LRBV",
      "alert": "OK",
      "vis_m": 7000,
      "fzfg": false,
      "metar_trigger": false,
      "taf_trigger": false,
      "metar": "METAR LRBV 300100Z AUTO 24004KT 7000 NCD 17/16 Q1021",
      "taf": "TAF LRBV 291700Z 2918/3003 36006KT 9999 SCT050"
    },
    {
      "icao": "LRCL",
      "alert": "OK",
      "vis_m": 9999,
      "fzfg": false,
      "metar_trigger": false,
      "taf_trigger": false,
      "metar": "METAR LRCL 300100Z 00000KT CAVOK 21/18 Q1019",
      "taf": "TAF LRCL 292300Z 3000/3009 VRB04KT CAVOK"
    },
    {
      "icao": "LRCV",
      "alert": "OK",
      "vis_m": 9999,
      "fzfg": false,
      "metar_trigger": false,
      "taf_trigger": false,
      "metar": "METAR LRCV 300100Z 35004KT CAVOK 22/21 Q1017",
      "taf": "TAF LRCV 292300Z 3000/3009 04006KT CAVOK"
    },
    {
      "icao": "LRIA",
      "alert": "OK",
      "vis_m": 9999,
      "fzfg": false,
      "metar_trigger": false,
      "taf_trigger": false,
      "metar": "METAR LRIA 300100Z 23005KT CAVOK 24/19 Q1016",
      "taf": "TAF LRIA 292300Z 3000/3009 VRB04KT CAVOK"
    },
    {
      "icao": "LROP",
      "alert": "OK",
      "vis_m": 9999,
      "fzfg": false,
      "metar_trigger": false,
      "taf_trigger": false,
      "metar": "METAR LROP 300100Z VRB02KT CAVOK 22/20 Q1016 NOSIG",
      "taf": "TAF LROP 292300Z 3000/3024 VRB04KT CAVOK"
    },
    {
      "icao": "LRSB",
      "alert": "OK",
      "vis_m": 9999,
      "fzfg": false,
      "metar_trigger": false,
      "taf_trigger": false,
      "metar": "METAR LRSB 300100Z VRB02KT CAVOK 19/17 Q1020",
      "taf": "TAF LRSB 292300Z 3000/3024 VRB04KT CAVOK"
    },
    {
      "icao": "LRSM",
      "alert": "OK",
      "vis_m": 9999,
      "fzfg": false,
      "metar_trigger": false,
      "taf_trigger": false,
      "metar": "METAR LRSM 300100Z AUTO VRB01KT 9999 FEW110/// 23/18 Q1017",
      "taf": "TAF LRSM 291400Z 2915/2924 VRB04KT CAVOK"
    },
    {
      "icao": "LRSV",
      "alert": "OK",
      "vis_m": 9999,
      "fzfg": false,
      "metar_trigger": false,
      "taf_trigger": false,
      "metar": "METAR LRSV 300100Z 30006KT CAVOK 26/16 Q1018",
      "taf": "TAF LRSV 292300Z 3000/3009 VRB04KT CAVOK"
    },
    {
      "icao": "LRTM",
      "alert": "OK",
      "vis_m": 9999,
      "fzfg": false,
      "metar_trigger": false,
      "taf_trigger": false,
      "metar": "METAR LRTM 300100Z 10004KT CAVOK 19/19 Q1019",
      "taf": "TAF LRTM 292300Z 3000/3009 VRB04KT CAVOK"
    },
    {
      "icao": "LRTR",
      "alert": "OK",
      "vis_m": 9999,
      "fzfg": false,
      "metar_trigger": false,
      "taf_trigger": false,
      "metar": "METAR LRTR 300100Z 06004KT CAVOK 22/18 Q1017",
      "taf": "TAF LRTR 292300Z 3000/3024 VRB04KT CAVOK"
    },
    {
      "icao": "LTAC",
      "alert": "OK",
      "vis_m": 9999,
      "fzfg": false,
      "metar_trigger": false,
      "taf_trigger": false,
      "metar": "METAR LTAC 300120Z 04006KT 010V070 CAVOK 15/11 Q1019 NOSIG",
      "taf": "TAF LTAC 292240Z 3000/3024 VRB02KT CAVOK"
    },
    {
      "icao": "LTFM",
      "alert": "OK",
      "vis_m": 9999,
      "fzfg": false,
      "metar_trigger": false,
      "taf_trigger": false,
      "metar": "METAR LTFM 300120Z 03008KT 350V070 9999 BKN006 23/22 Q1015 NOSIG",
      "taf": "TAF LTFM 292240Z 3000/0106 03005KT 9999 SCT007"
    },
    {
      "icao": "LUKK",
      "alert": "OK",
      "vis_m": 9999,
      "fzfg": false,
      "metar_trigger": false,
      "taf_trigger": false,
      "metar": "METAR LUKK 300100Z 26003KT CAVOK 23/21 Q1015 NOSIG",
      "taf": "TAF LUKK 292319Z 3000/3024 VRB05KT CAVOK"
    },
    {
      "icao": "LWOH",
      "alert": "OK",
      "vis_m": null,
      "fzfg": false,
      "metar_trigger": false,
      "taf_trigger": false,
      "metar": "",
      "taf": "TAF LWOH 292340Z 3000/3024 VRB02KT CAVOK"
    },
    {
      "icao": "LWSK",
      "alert": "OK",
      "vis_m": 9999,
      "fzfg": false,
      "metar_trigger": false,
      "taf_trigger": false,
      "metar": "METAR LWSK 300100Z 00000KT CAVOK 20/14 Q1017 NOSIG",
      "taf": "TAF LWSK 292340Z 3000/3024 VRB02KT CAVOK"
    },
    {
      "icao": "LYBE",
      "alert": "OK",
      "vis_m": 9999,
      "fzfg": false,
      "metar_trigger": false,
      "taf_trigger": false,
      "metar": "METAR LYBE 300100Z 25004KT CAVOK 24/16 Q1017 NOSIG",
      "taf": "TAF LYBE 292300Z 3000/3024 23004KT CAVOK TX39/3014Z TN22/3003Z"
    },
    {
      "icao": "LYNI",
      "alert": "OK",
      "vis_m": 9999,
      "fzfg": false,
      "metar_trigger": false,
      "taf_trigger": false,
      "metar": "METAR LYNI 300100Z VRB01KT CAVOK 20/16 Q1018 NOSIG",
      "taf": "TAF LYNI 292300Z 3000/3024 06004KT CAVOK TX37/3014Z TN20/3003Z"
    },
    {
      "icao": "LYPG",
      "alert": "OK",
      "vis_m": 9999,
      "fzfg": false,
      "metar_trigger": false,
      "taf_trigger": false,
      "metar": "METAR LYPG 300100Z 33006KT CAVOK 28/13 Q1015 NOSIG",
      "taf": "TAF LYPG 292300Z 3000/3024 35007KT CAVOK TX39/3013Z TN28/3003Z"
    },
    {
      "icao": "LZIB",
      "alert": "OK",
      "vis_m": 9999,
      "fzfg": false,
      "metar_trigger": false,
      "taf_trigger": false,
      "metar": "METAR LZIB 300130Z 34011KT CAVOK 26/17 Q1019 NOSIG",
      "taf": ""
    },
    {
      "icao": "LZKZ",
      "alert": "OK",
      "vis_m": 9999,
      "fzfg": false,
      "metar_trigger": false,
      "taf_trigger": false,
      "metar": "METAR LZKZ 300130Z 05005KT CAVOK 25/17 Q1019 NOSIG",
      "taf": ""
    },
    {
      "icao": "LZTT",
      "alert": "OK",
      "vis_m": 9999,
      "fzfg": false,
      "metar_trigger": false,
      "taf_trigger": false,
      "metar": "METAR LZTT 300130Z 29005KT CAVOK 17/15 Q1023",
      "taf": "TAF LZTT 300024Z 3000/0100 27006KT 9999 SCT060"
    },
    {
      "icao": "OEJN",
      "alert": "OK",
      "vis_m": 9999,
      "fzfg": false,
      "metar_trigger": false,
      "taf_trigger": false,
      "metar": "METAR OEJN 300100Z 35007KT CAVOK 31/16 Q1002 NOSIG",
      "taf": "TAF OEJN 292300Z 3000/0106 36007KT CAVOK"
    },
    {
      "icao": "OEMA",
      "alert": "OK",
      "vis_m": 9999,
      "fzfg": false,
      "metar_trigger": false,
      "taf_trigger": false,
      "metar": "METAR OEMA 300100Z VRB03KT CAVOK 31/M04 Q1008 NOSIG",
      "taf": "TAF OEMA 292300Z 3000/0106 VRB03KT CAVOK"
    },
    {
      "icao": "OJAI",
      "alert": "OK",
      "vis_m": 5000,
      "fzfg": false,
      "metar_trigger": false,
      "taf_trigger": false,
      "metar": "METAR OJAI 300100Z 28005KT 5000 HZ NSC 18/10 Q1013 NOSIG",
      "taf": "TAF OJAI 292250Z 3000/0106 VRB02KT 6000 NSC"
    },
    {
      "icao": "OMAA",
      "alert": "OK",
      "vis_m": 9999,
      "fzfg": false,
      "metar_trigger": false,
      "taf_trigger": false,
      "metar": "METAR OMAA 300130Z 00000KT CAVOK 31/26 Q0997 NOSIG",
      "taf": "TAF OMAA 292300Z 3000/0106 22005KT 8000 NSC"
    },
    {
      "icao": "OMDB",
      "alert": "OK",
      "vis_m": 7000,
      "fzfg": false,
      "metar_trigger": false,
      "taf_trigger": false,
      "metar": "METAR OMDB 300130Z 18007KT 7000 NSC 31/26 Q0997 NOSIG",
      "taf": "TAF OMDB 292300Z 3000/0106 19005KT 7000 NSC"
    },
    {
      "icao": "UAAA",
      "alert": "OK",
      "vis_m": 9999,
      "fzfg": false,
      "metar_trigger": false,
      "taf_trigger": false,
      "metar": "METAR UAAA 300100Z 35003MPS 280V090 9999 SCT050CB BKN100 21/16 Q1010 NOSIG",
      "taf": "TAF UAAA 292301Z 3000/3024 04003G08MPS 9999 SCT050CB BKN100 TX32/3010Z TN19/3001Z"
    },
    {
      "icao": "UBBB",
      "alert": "OK",
      "vis_m": 9999,
      "fzfg": false,
      "metar_trigger": false,
      "taf_trigger": false,
      "metar": "METAR UBBB 300130Z VRB02KT CAVOK 19/16 Q1012 NOSIG",
      "taf": "TAF UBBB 292300Z 3000/3024 VRB04KT 9999 SCT040 TX27/3010Z TN19/3001Z"
    },
    {
      "icao": "UDSG",
      "alert": "OK",
      "vis_m": 9999,
      "fzfg": false,
      "metar_trigger": false,
      "taf_trigger": false,
      "metar": "METAR UDSG 300100Z 11002KT 9999 NSC 06/04 Q1021 NOSIG",
      "taf": "TAF UDSG 292300Z 3000/3024 36006KT 9999 FEW050"
    },
    {
      "icao": "UDYZ",
      "alert": "OK",
      "vis_m": 9999,
      "fzfg": false,
      "metar_trigger": false,
      "taf_trigger": false,
      "metar": "METAR UDYZ 300100Z 08005KT 9999 NSC 15/09 Q1015 NOSIG",
      "taf": "TAF UDYZ 292300Z 3000/3024 04006KT 9999 FEW040"
    },
    {
      "icao": "UGKO",
      "alert": "OK",
      "vis_m": 9999,
      "fzfg": false,
      "metar_trigger": false,
      "taf_trigger": false,
      "metar": "METAR UGKO 300100Z VRB02KT 9999 BKN067 19/17 Q1014 NOSIG",
      "taf": "TAF UGKO 292300Z 3000/3024 26007KT 9999 BKN060 TX26/3012Z TN17/3002Z"
    }
  ]
}