{
  "ts_utc": "2026-07-16T16:06:26Z",
  "threshold_m": 150,
  "source": "stations_override.txt (ICAO list) + aviationweather.gov (METAR/TAF raw)",
  "station_count": 159,
  "stations": [
    {
      "icao": "BIKF",
      "alert": "OK",
      "vis_m": 9999,
      "fzfg": false,
      "metar_trigger": false,
      "taf_trigger": false,
      "metar": "METAR BIKF 161600Z 21012KT 9999 BKN009 OVC038 10/09 Q1026",
      "taf": "TAF BIKF 161359Z 1615/1715 23014KT 3000 -DZ BR OVC004 TX12/1715Z TN09/1702Z"
    },
    {
      "icao": "BKPR",
      "alert": "OK",
      "vis_m": 9999,
      "fzfg": false,
      "metar_trigger": false,
      "taf_trigger": false,
      "metar": "METAR BKPR 161600Z 31007KT 9999 VCTS FEW035CB BKN070 24/17 Q1018 NOSIG",
      "taf": "TAF BKPR 161130Z 1612/1712 VRB05KT 9999 FEW050"
    },
    {
      "icao": "EBCI",
      "alert": "OK",
      "vis_m": 9999,
      "fzfg": false,
      "metar_trigger": false,
      "taf_trigger": false,
      "metar": "METAR EBCI 161550Z 35007KT 260V020 CAVOK 30/12 Q1015 NOSIG",
      "taf": "TAF EBCI 161100Z 1612/1718 03004KT 9999 FEW045"
    },
    {
      "icao": "EDDB",
      "alert": "OK",
      "vis_m": 9999,
      "fzfg": false,
      "metar_trigger": false,
      "taf_trigger": false,
      "metar": "METAR EDDB 161550Z AUTO VRB04KT CAVOK 30/13 Q1017 NOSIG",
      "taf": ""
    },
    {
      "icao": "EDDH",
      "alert": "OK",
      "vis_m": 9999,
      "fzfg": false,
      "metar_trigger": false,
      "taf_trigger": false,
      "metar": "METAR EDDH 161550Z AUTO 10005KT 340V130 CAVOK 27/13 Q1018 NOSIG",
      "taf": "TAF EDDH 161100Z 1612/1718 07006KT CAVOK"
    },
    {
      "icao": "EDDK",
      "alert": "OK",
      "vis_m": 9999,
      "fzfg": false,
      "metar_trigger": false,
      "taf_trigger": false,
      "metar": "METAR EDDK 161550Z AUTO 05008KT CAVOK 28/14 Q1015 NOSIG",
      "taf": "TAF EDDK 161100Z 1612/1718 05005KT CAVOK"
    },
    {
      "icao": "EDDN",
      "alert": "OK",
      "vis_m": 9999,
      "fzfg": false,
      "metar_trigger": false,
      "taf_trigger": false,
      "metar": "METAR EDDN 161550Z AUTO 05005KT 030V110 9999 +SHRA VCTS FEW014 FEW///CB 25/19 Q1017 BECMG NSW",
      "taf": "TAF EDDN 161100Z 1612/1712 10005KT 9999 FEW045"
    },
    {
      "icao": "EDDS",
      "alert": "OK",
      "vis_m": 9999,
      "fzfg": false,
      "metar_trigger": false,
      "taf_trigger": false,
      "metar": "METAR EDDS 161550Z AUTO 15006KT 090V210 CAVOK 28/18 Q1016 NOSIG",
      "taf": "TAF EDDS 161100Z 1612/1712 23005KT CAVOK"
    },
    {
      "icao": "EDFH",
      "alert": "OK",
      "vis_m": 9999,
      "fzfg": false,
      "metar_trigger": false,
      "taf_trigger": false,
      "metar": "METAR EDFH 161550Z 12008KT 090V150 9999 VCSH NSC 26/12 Q1016",
      "taf": "TAF EDFH 161100Z 1612/1712 14007KT CAVOK"
    },
    {
      "icao": "EDJA",
      "alert": "OK",
      "vis_m": 9999,
      "fzfg": false,
      "metar_trigger": false,
      "taf_trigger": false,
      "metar": "METAR EDJA 161550Z 26006KT 230V310 CAVOK 29/14 Q1018",
      "taf": "TAF EDJA 161400Z 1615/1624 24006KT CAVOK"
    },
    {
      "icao": "EDLW",
      "alert": "OK",
      "vis_m": 9999,
      "fzfg": false,
      "metar_trigger": false,
      "taf_trigger": false,
      "metar": "METAR EDLW 161550Z 08004KT 340V140 CAVOK 27/15 Q1016",
      "taf": "TAF EDLW 161100Z 1612/1712 04006KT CAVOK"
    },
    {
      "icao": "EDNY",
      "alert": "OK",
      "vis_m": 9999,
      "fzfg": false,
      "metar_trigger": false,
      "taf_trigger": false,
      "metar": "METAR EDNY 161550Z VRB02KT CAVOK 31/17 Q1016",
      "taf": "TAF EDNY 161400Z 1615/1624 24005KT CAVOK"
    },
    {
      "icao": "EDSB",
      "alert": "OK",
      "vis_m": 9999,
      "fzfg": false,
      "metar_trigger": false,
      "taf_trigger": false,
      "metar": "METAR EDSB 161550Z VRB04KT CAVOK 32/15 Q1014",
      "taf": "TAF EDSB 161100Z 1612/1712 34005KT CAVOK"
    },
    {
      "icao": "EETN",
      "alert": "OK",
      "vis_m": 9999,
      "fzfg": false,
      "metar_trigger": false,
      "taf_trigger": false,
      "metar": "METAR EETN 161550Z 06008KT CAVOK 23/11 Q1021 NOSIG",
      "taf": "TAF EETN 161130Z 1612/1712 04010KT CAVOK 1617/1619 11006KT"
    },
    {
      "icao": "EFTU",
      "alert": "OK",
      "vis_m": 9999,
      "fzfg": false,
      "metar_trigger": false,
      "taf_trigger": false,
      "metar": "METAR EFTU 161550Z AUTO 23006KT 170V280 CAVOK 26/14 Q1020",
      "taf": "TAF EFTU 161426Z 1615/1715 07005KT CAVOK"
    },
    {
      "icao": "EGBB",
      "alert": "OK",
      "vis_m": 9999,
      "fzfg": false,
      "metar_trigger": false,
      "taf_trigger": false,
      "metar": "METAR EGBB 161550Z 06006KT 010V100 CAVOK 27/11 Q1019",
      "taf": "TAF EGBB 161056Z 1612/1712 06008KT CAVOK"
    },
    {
      "icao": "EGGP",
      "alert": "OK",
      "vis_m": 9999,
      "fzfg": false,
      "metar_trigger": false,
      "taf_trigger": false,
      "metar": "METAR EGGP 161550Z VRB03KT CAVOK 27/09 Q1019",
      "taf": "TAF EGGP 161057Z 1612/1712 08004KT CAVOK"
    },
    {
      "icao": "EGGW",
      "alert": "OK",
      "vis_m": 9999,
      "fzfg": false,
      "metar_trigger": false,
      "taf_trigger": false,
      "metar": "METAR EGGW 161550Z AUTO 05010KT 9999 NCD 27/10 Q1019",
      "taf": "TAF EGGW 161059Z 1612/1712 05010KT CAVOK"
    },
    {
      "icao": "EGKK",
      "alert": "OK",
      "vis_m": 9999,
      "fzfg": false,
      "metar_trigger": false,
      "taf_trigger": false,
      "metar": "METAR EGKK 161550Z 08010KT 040V110 CAVOK 28/11 Q1018",
      "taf": "TAF EGKK 161058Z 1612/1718 06012KT 9999 FEW040"
    },
    {
      "icao": "EGNM",
      "alert": "OK",
      "vis_m": 9999,
      "fzfg": false,
      "metar_trigger": false,
      "taf_trigger": false,
      "metar": "METAR EGNM 161550Z 07004KT 360V150 CAVOK 25/11 Q1020",
      "taf": "TAF EGNM 161057Z 1612/1712 04005KT CAVOK"
    },
    {
      "icao": "EGPD",
      "alert": "OK",
      "vis_m": 9999,
      "fzfg": false,
      "metar_trigger": false,
      "taf_trigger": false,
      "metar": "METAR EGPD 161550Z AUTO 10007KT 050V130 9999 NCD 16/12 Q1023",
      "taf": "TAF EGPD 161057Z 1612/1712 04006KT 9999 FEW016"
    },
    {
      "icao": "EGPF",
      "alert": "OK",
      "vis_m": 9999,
      "fzfg": false,
      "metar_trigger": false,
      "taf_trigger": false,
      "metar": "METAR EGPF 161550Z AUTO 04006KT 9999 NCD 26/13 Q1021",
      "taf": "TAF EGPF 161059Z 1612/1712 03006KT CAVOK"
    },
    {
      "icao": "EHBK",
      "alert": "OK",
      "vis_m": 9999,
      "fzfg": false,
      "metar_trigger": false,
      "taf_trigger": false,
      "metar": "METAR EHBK 161555Z AUTO 35007KT 300V060 9999 NSC 30/12 Q1015 NOSIG",
      "taf": "TAF EHBK 161116Z 1612/1718 01004KT CAVOK"
    },
    {
      "icao": "EHEH",
      "alert": "OK",
      "vis_m": 9999,
      "fzfg": false,
      "metar_trigger": false,
      "taf_trigger": false,
      "metar": "METAR EHEH 161555Z AUTO 03008KT 350V070 9999 OVC120 27/13 Q1015 BLU NOSIG RMK TREND REMOTE BY EHWX",
      "taf": "TAF EHEH 161134Z 1612/1718 05007KT CAVOK"
    },
    {
      "icao": "EKBI",
      "alert": "OK",
      "vis_m": 9999,
      "fzfg": false,
      "metar_trigger": false,
      "taf_trigger": false,
      "metar": "METAR EKBI 161550Z AUTO 15007KT 110V180 9999 BKN140/// 25/13 Q1019",
      "taf": ""
    },
    {
      "icao": "EKCH",
      "alert": "OK",
      "vis_m": 9999,
      "fzfg": false,
      "metar_trigger": false,
      "taf_trigger": false,
      "metar": "METAR EKCH 161550Z AUTO 18008KT 9999 FEW150/// 23/09 Q1020 NOSIG",
      "taf": "TAF EKCH 161427Z 1615/1715 18010KT CAVOK"
    },
    {
      "icao": "ENAL",
      "alert": "OK",
      "vis_m": 9999,
      "fzfg": false,
      "metar_trigger": false,
      "taf_trigger": false,
      "metar": "METAR ENAL 161550Z 31005KT 270V010 9999 FEW008 14/11 Q1023",
      "taf": "TAF ENAL 161400Z 1615/1624 30008KT 9999 FEW008"
    },
    {
      "icao": "ENBR",
      "alert": "OK",
      "vis_m": 9999,
      "fzfg": false,
      "metar_trigger": false,
      "taf_trigger": false,
      "metar": "METAR ENBR 161550Z 33011KT CAVOK 17/11 Q1021 NOSIG RMK WIND 1200FT 33007KT",
      "taf": "TAF ENBR 161100Z 1612/1712 32008KT CAVOK"
    },
    {
      "icao": "ENGM",
      "alert": "OK",
      "vis_m": 9999,
      "fzfg": false,
      "metar_trigger": false,
      "taf_trigger": false,
      "metar": "METAR ENGM 161550Z 23009KT 200V260 CAVOK 31/08 Q1019 NOSIG",
      "taf": "TAF ENGM 161100Z 1612/1712 21005KT CAVOK"
    },
    {
      "icao": "ENHD",
      "alert": "OK",
      "vis_m": 9999,
      "fzfg": false,
      "metar_trigger": false,
      "taf_trigger": false,
      "metar": "METAR ENHD 161550Z 36005KT 9999 FEW001 15/12 Q1021",
      "taf": "TAF ENHD 161400Z 1615/1622 35007KT 9999 SCT002"
    },
    {
      "icao": "ENTC",
      "alert": "OK",
      "vis_m": 9999,
      "fzfg": false,
      "metar_trigger": false,
      "taf_trigger": false,
      "metar": "METAR ENTC 161550Z 21021KT 9999 -SHRA FEW024 BKN032 14/09 Q1012 NOSIG RMK WIND 2600FT 23017KT",
      "taf": "TAF ENTC 161100Z 1612/1712 22022KT 9999 BKN030"
    },
    {
      "icao": "ENTO",
      "alert": "OK",
      "vis_m": 9999,
      "fzfg": false,
      "metar_trigger": false,
      "taf_trigger": false,
      "metar": "METAR ENTO 161550Z 21009KT CAVOK 28/12 Q1020 NOSIG",
      "taf": ""
    },
    {
      "icao": "ENVA",
      "alert": "OK",
      "vis_m": 9999,
      "fzfg": false,
      "metar_trigger": false,
      "taf_trigger": false,
      "metar": "METAR ENVA 161550Z 27010KT CAVOK 20/12 Q1021 NOSIG RMK WIND 670FT 27009KT",
      "taf": "TAF ENVA 161100Z 1612/1712 27008KT CAVOK"
    },
    {
      "icao": "ENZV",
      "alert": "OK",
      "vis_m": 9999,
      "fzfg": false,
      "metar_trigger": false,
      "taf_trigger": false,
      "metar": "METAR ENZV 161550Z 29005KT CAVOK 18/14 Q1021 NOSIG",
      "taf": ""
    },
    {
      "icao": "EPGD",
      "alert": "OK",
      "vis_m": 9999,
      "fzfg": false,
      "metar_trigger": false,
      "taf_trigger": false,
      "metar": "METAR EPGD 161600Z 03009KT CAVOK 22/14 Q1021",
      "taf": "TAF EPGD 161130Z 1612/1712 05008KT CAVOK"
    },
    {
      "icao": "EPKK",
      "alert": "OK",
      "vis_m": 9999,
      "fzfg": false,
      "metar_trigger": false,
      "taf_trigger": false,
      "metar": "METAR EPKK 161600Z 35002KT 9999 FEW053 29/15 Q1019",
      "taf": "TAF EPKK 161430Z 1615/1715 VRB02KT 9999 FEW050"
    },
    {
      "icao": "EPKT",
      "alert": "OK",
      "vis_m": 9999,
      "fzfg": false,
      "metar_trigger": false,
      "taf_trigger": false,
      "metar": "METAR EPKT 161600Z 26003KT 240V310 9999 FEW049 28/15 Q1019",
      "taf": "TAF EPKT 161130Z 1612/1712 VRB05KT 9999 SCT035"
    },
    {
      "icao": "EPLB",
      "alert": "OK",
      "vis_m": 9999,
      "fzfg": false,
      "metar_trigger": false,
      "taf_trigger": false,
      "metar": "METAR EPLB 161600Z 35007KT CAVOK 30/13 Q1018",
      "taf": "TAF EPLB 161130Z 1612/1712 35007KT CAVOK"
    },
    {
      "icao": "EPMO",
      "alert": "OK",
      "vis_m": 9999,
      "fzfg": false,
      "metar_trigger": false,
      "taf_trigger": false,
      "metar": "METAR EPMO 161600Z 33004KT 260V050 CAVOK 29/14 Q1018",
      "taf": "TAF EPMO 161130Z 1612/1712 VRB05KT CAVOK"
    },
    {
      "icao": "EPPO",
      "alert": "OK",
      "vis_m": 9999,
      "fzfg": false,
      "metar_trigger": false,
      "taf_trigger": false,
      "metar": "METAR EPPO 161600Z 09005KT 070V150 9999 FEW055CB 28/17 Q1018",
      "taf": "TAF EPPO 161130Z 1612/1712 16008KT 9999 SCT040"
    },
    {
      "icao": "EPRA",
      "alert": "OK",
      "vis_m": 9999,
      "fzfg": false,
      "metar_trigger": false,
      "taf_trigger": false,
      "metar": "METAR EPRA 161600Z 34006KT 310V050 CAVOK 29/14 Q1018",
      "taf": "TAF EPRA 161430Z 1615/1624 36005KT CAVOK"
    },
    {
      "icao": "EPRZ",
      "alert": "OK",
      "vis_m": 9999,
      "fzfg": false,
      "metar_trigger": false,
      "taf_trigger": false,
      "metar": "METAR EPRZ 161600Z 30003KT 9999 FEW050CB 30/15 Q1018",
      "taf": "TAF EPRZ 161130Z 1612/1712 VRB05KT 9999 SCT045"
    },
    {
      "icao": "EPSC",
      "alert": "OK",
      "vis_m": 9999,
      "fzfg": false,
      "metar_trigger": false,
      "taf_trigger": false,
      "metar": "METAR EPSC 161600Z 09007KT 040V120 CAVOK 28/13 Q1018",
      "taf": "TAF EPSC 161130Z 1612/1712 12006KT CAVOK"
    },
    {
      "icao": "EPSY",
      "alert": "OK",
      "vis_m": 9999,
      "fzfg": false,
      "metar_trigger": false,
      "taf_trigger": false,
      "metar": "METAR EPSY 161600Z 02006KT 350V060 CAVOK 27/14 Q1019",
      "taf": "TAF EPSY 161430Z 1615/1624 02006KT CAVOK"
    },
    {
      "icao": "EPWA",
      "alert": "OK",
      "vis_m": 9999,
      "fzfg": false,
      "metar_trigger": false,
      "taf_trigger": false,
      "metar": "METAR EPWA 161600Z 02004KT 310V080 CAVOK 29/13 Q1018 NOSIG",
      "taf": "TAF EPWA 161430Z 1615/1715 VRB04KT CAVOK"
    },
    {
      "icao": "EPWR",
      "alert": "OK",
      "vis_m": 9999,
      "fzfg": false,
      "metar_trigger": false,
      "taf_trigger": false,
      "metar": "METAR EPWR 161600Z VRB03KT CAVOK 29/15 Q1018",
      "taf": "TAF EPWR 161430Z 1615/1715 13010KT 9999 FEW040"
    },
    {
      "icao": "ESGG",
      "alert": "OK",
      "vis_m": 9999,
      "fzfg": false,
      "metar_trigger": false,
      "taf_trigger": false,
      "metar": "METAR ESGG 161550Z 24009KT CAVOK 27/11 Q1020",
      "taf": "TAF ESGG 161430Z 1615/1715 26010KT CAVOK"
    },
    {
      "icao": "ESKN",
      "alert": "OK",
      "vis_m": 9999,
      "fzfg": false,
      "metar_trigger": false,
      "taf_trigger": false,
      "metar": "METAR ESKN 161550Z 12008KT CAVOK 25/16 Q1020",
      "taf": "TAF ESKN 161430Z 1615/1715 14010KT CAVOK"
    },
    {
      "icao": "ESMS",
      "alert": "OK",
      "vis_m": 9999,
      "fzfg": false,
      "metar_trigger": false,
      "taf_trigger": false,
      "metar": "METAR ESMS 161550Z 15008KT CAVOK 25/12 Q1020",
      "taf": "TAF ESMS 161427Z 1615/1715 12008KT CAVOK"
    },
    {
      "icao": "ESSA",
      "alert": "OK",
      "vis_m": 9999,
      "fzfg": false,
      "metar_trigger": false,
      "taf_trigger": false,
      "metar": "METAR ESSA 161550Z 13009KT CAVOK 25/10 Q1020 NOSIG",
      "taf": "TAF ESSA 161430Z 1615/1715 13009KT CAVOK"
    },
    {
      "icao": "EYKA",
      "alert": "OK",
      "vis_m": 9999,
      "fzfg": false,
      "metar_trigger": false,
      "taf_trigger": false,
      "metar": "METAR EYKA 161550Z 36005KT 320V050 CAVOK 27/15 Q1019",
      "taf": "TAF EYKA 161100Z 1612/1712 VRB03KT 9000 NSC"
    },
    {
      "icao": "EYPA",
      "alert": "OK",
      "vis_m": 9999,
      "fzfg": false,
      "metar_trigger": false,
      "taf_trigger": false,
      "metar": "METAR EYPA 161550Z 36005KT 320V040 CAVOK 23/12 Q1020",
      "taf": "TAF EYPA 161100Z 1612/1712 VRB03KT CAVOK"
    },
    {
      "icao": "EYVI",
      "alert": "OK",
      "vis_m": 9999,
      "fzfg": false,
      "metar_trigger": false,
      "taf_trigger": false,
      "metar": "METAR EYVI 161550Z 35007KT 320V040 CAVOK 26/13 Q1019 NOSIG",
      "taf": "TAF EYVI 161100Z 1612/1712 VRB03KT 9000 NSC"
    },
    {
      "icao": "GCFV",
      "alert": "OK",
      "vis_m": 9999,
      "fzfg": false,
      "metar_trigger": false,
      "taf_trigger": false,
      "metar": "METAR GCFV 161600Z 04014KT CAVOK 26/21 Q1017",
      "taf": "TAF GCFV 161400Z 1615/1715 04015KT CAVOK TX29/1714Z TN22/1706Z"
    },
    {
      "icao": "GCLP",
      "alert": "OK",
      "vis_m": 9999,
      "fzfg": false,
      "metar_trigger": false,
      "taf_trigger": false,
      "metar": "METAR GCLP 161600Z 02022KT 9999 FEW020 29/21 Q1017 NOSIG",
      "taf": "TAF GCLP 161400Z 1615/1715 01022KT 9999 FEW020 TX29/1714Z TN23/1706Z"
    },
    {
      "icao": "GCTS",
      "alert": "OK",
      "vis_m": 9999,
      "fzfg": false,
      "metar_trigger": false,
      "taf_trigger": false,
      "metar": "METAR GCTS 161600Z 07020KT CAVOK 32/15 Q1017 WS R07 NOSIG",
      "taf": "TAF GCTS 161400Z 1615/1715 08018KT CAVOK TX30/1714Z TN23/1706Z"
    },
    {
      "icao": "GMAD",
      "alert": "OK",
      "vis_m": 7000,
      "fzfg": false,
      "metar_trigger": false,
      "taf_trigger": false,
      "metar": "METAR GMAD 161600Z 26009KT 240V300 7000 NSC 33/19 Q1012 NOSIG",
      "taf": "TAF GMAD 161100Z 1612/1718 28010KT CAVOK"
    },
    {
      "icao": "GMMN",
      "alert": "OK",
      "vis_m": 9999,
      "fzfg": false,
      "metar_trigger": false,
      "taf_trigger": false,
      "metar": "METAR GMMN 161600Z 36013KT CAVOK 29/18 Q1017 NOSIG",
      "taf": "TAF GMMN 161100Z 1612/1718 04014KT CAVOK"
    },
    {
      "icao": "GMMX",
      "alert": "OK",
      "vis_m": 8000,
      "fzfg": false,
      "metar_trigger": false,
      "taf_trigger": false,
      "metar": "METAR GMMX 161600Z VRB04KT 8000 SCT030 37/15 Q1017 NOSIG",
      "taf": "TAF GMMX 161100Z 1612/1718 22006KT 8000 NSC"
    },
    {
      "icao": "HEGN",
      "alert": "OK",
      "vis_m": 9999,
      "fzfg": false,
      "metar_trigger": false,
      "taf_trigger": false,
      "metar": "METAR HEGN 161500Z 12003KT CAVOK 35/16 Q1005 NOSIG",
      "taf": "TAF HEGN 161100Z 1612/1718 02018KT CAVOK"
    },
    {
      "icao": "HEMA",
      "alert": "OK",
      "vis_m": 9999,
      "fzfg": false,
      "metar_trigger": false,
      "taf_trigger": false,
      "metar": "METAR HEMA 161500Z 01008KT CAVOK 34/15 Q1005 NOSIG",
      "taf": "TAF HEMA 161100Z 1612/1718 02018KT CAVOK"
    },
    {
      "icao": "HESH",
      "alert": "OK",
      "vis_m": 9999,
      "fzfg": false,
      "metar_trigger": false,
      "taf_trigger": false,
      "metar": "METAR HESH 161500Z 15006KT CAVOK 36/19 Q1003 NOSIG",
      "taf": "TAF HESH 161100Z 1612/1718 03015KT CAVOK"
    },
    {
      "icao": "HESX",
      "alert": "OK",
      "vis_m": 9999,
      "fzfg": false,
      "metar_trigger": false,
      "taf_trigger": false,
      "metar": "METAR HESX 161500Z 04011KT CAVOK 34/15 Q1006 NOSIG",
      "taf": "TAF HESX 161100Z 1612/1718 34010KT CAVOK"
    },
    {
      "icao": "LATI",
      "alert": "OK",
      "vis_m": 9999,
      "fzfg": false,
      "metar_trigger": false,
      "taf_trigger": false,
      "metar": "METAR LATI 161550Z 32011KT CAVOK 31/19 Q1015 NOSIG",
      "taf": "TAF LATI 161100Z 1612/1712 34012KT CAVOK TX38/1712Z TN20/1704Z"
    },
    {
      "icao": "LBPD",
      "alert": "OK",
      "vis_m": 9999,
      "fzfg": false,
      "metar_trigger": false,
      "taf_trigger": false,
      "metar": "METAR LBPD 161600Z AUTO 05006KT 9999 BKN130/// 32/15 Q1014 NOSIG",
      "taf": "TAF LBPD 161100Z 1612/1712 05010KT CAVOK"
    },
    {
      "icao": "LBSF",
      "alert": "OK",
      "vis_m": 9999,
      "fzfg": false,
      "metar_trigger": false,
      "taf_trigger": false,
      "metar": "METAR LBSF 161600Z AUTO VRB03KT 9999 //////CB 29/15 Q1018 NOSIG",
      "taf": "TAF LBSF 161100Z 1612/1712 04010KT 9999 SCT060"
    },
    {
      "icao": "LBWN",
      "alert": "OK",
      "vis_m": 9999,
      "fzfg": false,
      "metar_trigger": false,
      "taf_trigger": false,
      "metar": "METAR LBWN 161600Z AUTO 13007KT 9999 FEW010/// 27/18 Q1015 NOSIG",
      "taf": "TAF LBWN 161100Z 1612/1712 11010KT 9999 SCT045"
    },
    {
      "icao": "LCLK",
      "alert": "OK",
      "vis_m": 9999,
      "fzfg": false,
      "metar_trigger": false,
      "taf_trigger": false,
      "metar": "METAR LCLK 161600Z 22013KT CAVOK 31/26 Q1004 NOSIG",
      "taf": "TAF LCLK 161130Z 1612/1712 21016KT 9999 FEW015"
    },
    {
      "icao": "LCPH",
      "alert": "OK",
      "vis_m": 9999,
      "fzfg": false,
      "metar_trigger": false,
      "taf_trigger": false,
      "metar": "METAR LCPH 161600Z 31012KT 250V320 9999 SCT012 28/25 Q1006 NOSIG",
      "taf": "TAF LCPH 161130Z 1612/1712 29015KT 9999 FEW012"
    },
    {
      "icao": "LEAL",
      "alert": "OK",
      "vis_m": 9999,
      "fzfg": false,
      "metar_trigger": false,
      "taf_trigger": false,
      "metar": "METAR LEAL 161600Z 09007KT 060V120 CAVOK 31/23 Q1014 NOSIG",
      "taf": ""
    },
    {
      "icao": "LEBB",
      "alert": "OK",
      "vis_m": 9999,
      "fzfg": false,
      "metar_trigger": false,
      "taf_trigger": false,
      "metar": "METAR LEBB 161600Z 30011KT 260V330 9999 FEW038 27/20 Q1016 NOSIG",
      "taf": ""
    },
    {
      "icao": "LEBL",
      "alert": "OK",
      "vis_m": 8000,
      "fzfg": false,
      "metar_trigger": false,
      "taf_trigger": false,
      "metar": "METAR LEBL 161600Z 10007KT 070V130 8000 FEW090TCU 29/26 Q1016 NOSIG",
      "taf": "TAF LEBL 161100Z 1612/1712 09010KT 9999 FEW020 TX32/1612Z TN25/1706Z"
    },
    {
      "icao": "LECH",
      "alert": "OK",
      "vis_m": 9999,
      "fzfg": false,
      "metar_trigger": false,
      "taf_trigger": false,
      "metar": "METAR LECH 161600Z AUTO 12009KT 090V150 CAVOK 29/21 Q1016",
      "taf": "TAF LECH 161100Z 1612/1712 12007KT 9999 FEW040 TX35/1615Z TN19/1705Z"
    },
    {
      "icao": "LEMD",
      "alert": "OK",
      "vis_m": 9999,
      "fzfg": false,
      "metar_trigger": false,
      "taf_trigger": false,
      "metar": "METAR LEMD 161600Z 24016KT CAVOK 35/07 Q1016 NOSIG",
      "taf": "TAF LEMD 161100Z 1612/1718 22010KT CAVOK TX36/1616Z TN19/1705Z"
    },
    {
      "icao": "LEMG",
      "alert": "OK",
      "vis_m": 9999,
      "fzfg": false,
      "metar_trigger": false,
      "taf_trigger": false,
      "metar": "METAR LEMG 161600Z 10008KT CAVOK 29/18 Q1013 NOSIG",
      "taf": ""
    },
    {
      "icao": "LEVC",
      "alert": "OK",
      "vis_m": 9999,
      "fzfg": false,
      "metar_trigger": false,
      "taf_trigger": false,
      "metar": "METAR LEVC 161600Z 07010KT 040V120 9999 FEW019 31/25 Q1014 NOSIG",
      "taf": "TAF LEVC 161100Z 1612/1712 08010KT 9999 FEW040 TX34/1615Z TN23/1705Z"
    },
    {
      "icao": "LEXJ",
      "alert": "OK",
      "vis_m": 9999,
      "fzfg": false,
      "metar_trigger": false,
      "taf_trigger": false,
      "metar": "METAR LEXJ 161600Z 33010KT 290V020 9999 FEW027 BKN045 24/18 Q1016",
      "taf": ""
    },
    {
      "icao": "LEZG",
      "alert": "OK",
      "vis_m": 9999,
      "fzfg": false,
      "metar_trigger": false,
      "taf_trigger": false,
      "metar": "METAR LEZG 161600Z 09008KT 060V120 CAVOK 38/14 Q1012 NOSIG",
      "taf": "TAF LEZG 161100Z 1612/1712 VRB04KT 9999 FEW060 TX40/1615Z TN21/1705Z"
    },
    {
      "icao": "LEZL",
      "alert": "OK",
      "vis_m": 9999,
      "fzfg": false,
      "metar_trigger": false,
      "taf_trigger": false,
      "metar": "METAR LEZL 161600Z 22010KT CAVOK 35/16 Q1015 NOSIG",
      "taf": "TAF LEZL 161400Z 1615/1715 23012KT CAVOK TX38/1615Z TN22/1705Z"
    },
    {
      "icao": "LFBD",
      "alert": "OK",
      "vis_m": 9999,
      "fzfg": false,
      "metar_trigger": false,
      "taf_trigger": false,
      "metar": "METAR LFBD 161600Z AUTO 30010KT 280V340 9999 FEW042 30/19 Q1014 NOSIG",
      "taf": "TAF LFBD 161100Z 1612/1718 VRB03KT CAVOK TX33/1614Z TN20/1704Z"
    },
    {
      "icao": "LFLL",
      "alert": "OK",
      "vis_m": 9999,
      "fzfg": false,
      "metar_trigger": false,
      "taf_trigger": false,
      "metar": "METAR LFLL 161600Z 07004KT 040V110 CAVOK 32/16 Q1014 NOSIG",
      "taf": ""
    },
    {
      "icao": "LFLS",
      "alert": "OK",
      "vis_m": 9999,
      "fzfg": false,
      "metar_trigger": false,
      "taf_trigger": false,
      "metar": "METAR LFLS 161600Z AUTO 20011KT 170V230 CAVOK 35/15 Q1014 TEMPO VRB20G40KT 3000 TSRA SCT110CB",
      "taf": "TAF LFLS 161400Z 1615/1715 17007KT CAVOK"
    },
    {
      "icao": "LFMN",
      "alert": "OK",
      "vis_m": 9999,
      "fzfg": false,
      "metar_trigger": false,
      "taf_trigger": false,
      "metar": "METAR LFMN 161600Z 10007KT CAVOK 29/25 Q1017 NOSIG",
      "taf": "TAF LFMN 161400Z 1615/1721 18007KT 9999 FEW020"
    },
    {
      "icao": "LFOB",
      "alert": "OK",
      "vis_m": 9999,
      "fzfg": false,
      "metar_trigger": false,
      "taf_trigger": false,
      "metar": "METAR LFOB 161600Z AUTO 07009KT 050V110 CAVOK 30/11 Q1014 TEMPO SCT070TCU",
      "taf": "TAF LFOB 161100Z 1612/1712 03010KT CAVOK"
    },
    {
      "icao": "LFPO",
      "alert": "OK",
      "vis_m": 9999,
      "fzfg": false,
      "metar_trigger": false,
      "taf_trigger": false,
      "metar": "METAR LFPO 161600Z VRB03KT CAVOK 32/12 Q1013 NOSIG",
      "taf": "TAF LFPO 161100Z 1612/1718 03005KT CAVOK"
    },
    {
      "icao": "LFSB",
      "alert": "OK",
      "vis_m": 9999,
      "fzfg": false,
      "metar_trigger": false,
      "taf_trigger": false,
      "metar": "METAR LFSB 161600Z AUTO 29003KT 9999 TS ///CB 31/15 Q1014 TEMPO VRB20G40KT 2000 TSRAGR",
      "taf": "TAF LFSB 161100Z 1612/1712 VRB04KT CAVOK"
    },
    {
      "icao": "LGAV",
      "alert": "OK",
      "vis_m": 9999,
      "fzfg": false,
      "metar_trigger": false,
      "taf_trigger": false,
      "metar": "METAR LGAV 161550Z 06014KT CAVOK 31/13 Q1013 NOSIG",
      "taf": "TAF LGAV 161100Z 1612/1712 06015KT 9999 FEW025"
    },
    {
      "icao": "LGTS",
      "alert": "OK",
      "vis_m": 9999,
      "fzfg": false,
      "metar_trigger": false,
      "taf_trigger": false,
      "metar": "METAR LGTS 161550Z 16012KT 9999 FEW020 32/18 Q1013 NOSIG",
      "taf": "TAF LGTS 161100Z 1612/1712 16013KT 9999 FEW030"
    },
    {
      "icao": "LHBP",
      "alert": "OK",
      "vis_m": 9999,
      "fzfg": false,
      "metar_trigger": false,
      "taf_trigger": false,
      "metar": "METAR LHBP 161600Z VRB05KT CAVOK 32/12 Q1017 NOSIG",
      "taf": "TAF LHBP 161115Z 1612/1712 31008KT CAVOK"
    },
    {
      "icao": "LHDC",
      "alert": "OK",
      "vis_m": 9999,
      "fzfg": false,
      "metar_trigger": false,
      "taf_trigger": false,
      "metar": "METAR LHDC 161545Z AUTO 32006KT 260V020 CAVOK 32/13 Q1016 NOSIG",
      "taf": "TAF LHDC 161415Z 1615/1624 32010KT CAVOK"
    },
    {
      "icao": "LIBD",
      "alert": "OK",
      "vis_m": 9999,
      "fzfg": false,
      "metar_trigger": false,
      "taf_trigger": false,
      "metar": "METAR LIBD 161550Z 34005KT 290V030 CAVOK 31/21 Q1016",
      "taf": "TAF LIBD 161100Z 1612/1712 03012KT CAVOK"
    },
    {
      "icao": "LIBG",
      "alert": "OK",
      "vis_m": 9999,
      "fzfg": false,
      "metar_trigger": false,
      "taf_trigger": false,
      "metar": "METAR LIBG 161550Z 02012KT CAVOK 36/15 Q1014",
      "taf": "TAF LIBG 161100Z 1612/1712 25007KT 9999 FEW030"
    },
    {
      "icao": "LIBP",
      "alert": "OK",
      "vis_m": 9999,
      "fzfg": false,
      "metar_trigger": false,
      "taf_trigger": false,
      "metar": "METAR LIBP 161550Z AUTO 03006KT 360V060 9999 NCD 30/21 Q1017",
      "taf": "TAF LIBP 161100Z 1612/1712 06011KT CAVOK"
    },
    {
      "icao": "LIBR",
      "alert": "OK",
      "vis_m": 9999,
      "fzfg": false,
      "metar_trigger": false,
      "taf_trigger": false,
      "metar": "METAR LIBR 161550Z 33012KT CAVOK 29/25 Q1015",
      "taf": "TAF LIBR 161100Z 1612/1712 02013KT CAVOK"
    },
    {
      "icao": "LICA",
      "alert": "OK",
      "vis_m": 9999,
      "fzfg": false,
      "metar_trigger": false,
      "taf_trigger": false,
      "metar": "METAR LICA 161550Z AUTO 25014KT 9999 NCD 31/23 Q1016",
      "taf": "TAF LICA 161100Z 1612/1712 25012KT CAVOK"
    },
    {
      "icao": "LICC",
      "alert": "OK",
      "vis_m": 9999,
      "fzfg": false,
      "metar_trigger": false,
      "taf_trigger": false,
      "metar": "METAR LICC 161550Z 06009KT CAVOK 34/20 Q1015",
      "taf": "TAF LICC 161100Z 1612/1712 08012KT CAVOK"
    },
    {
      "icao": "LICJ",
      "alert": "OK",
      "vis_m": 9999,
      "fzfg": false,
      "metar_trigger": false,
      "taf_trigger": false,
      "metar": "METAR LICJ 161550Z 04013KT CAVOK 30/25 Q1017",
      "taf": "TAF LICJ 161100Z 1612/1712 04012KT CAVOK"
    },
    {
      "icao": "LIMC",
      "alert": "OK",
      "vis_m": 9999,
      "fzfg": false,
      "metar_trigger": false,
      "taf_trigger": false,
      "metar": "METAR LIMC 161550Z VRB03KT CAVOK 32/14 Q1017 NOSIG",
      "taf": "TAF LIMC 161100Z 1612/1718 19006KT 9999 SCT040"
    },
    {
      "icao": "LIME",
      "alert": "OK",
      "vis_m": 9999,
      "fzfg": false,
      "metar_trigger": false,
      "taf_trigger": false,
      "metar": "METAR LIME 161550Z 20004KT 150V270 9999 FEW120 31/19 Q1017 NOSIG",
      "taf": "TAF LIME 161100Z 1612/1712 VRB06KT 9999 SCT040"
    },
    {
      "icao": "LIMF",
      "alert": "OK",
      "vis_m": 9999,
      "fzfg": false,
      "metar_trigger": false,
      "taf_trigger": false,
      "metar": "METAR LIMF 161550Z 17004KT 120V240 CAVOK 31/19 Q1017",
      "taf": ""
    },
    {
      "icao": "LIMJ",
      "alert": "OK",
      "vis_m": 9999,
      "fzfg": false,
      "metar_trigger": false,
      "taf_trigger": false,
      "metar": "METAR LIMJ 161550Z 24006KT CAVOK 29/24 Q1016",
      "taf": "TAF LIMJ 161100Z 1612/1712 21010KT 9999 SCT040"
    },
    {
      "icao": "LIPE",
      "alert": "OK",
      "vis_m": 9999,
      "fzfg": false,
      "metar_trigger": false,
      "taf_trigger": false,
      "metar": "METAR LIPE 161550Z 07006KT 040V110 CAVOK 32/22 Q1016",
      "taf": "TAF LIPE 161100Z 1612/1712 09010KT 9999 SCT050"
    },
    {
      "icao": "LIPH",
      "alert": "OK",
      "vis_m": 9999,
      "fzfg": false,
      "metar_trigger": false,
      "taf_trigger": false,
      "metar": "METAR LIPH 161550Z 15005KT 130V190 CAVOK 34/21 Q1016",
      "taf": "TAF LIPH 161100Z 1612/1712 VRB05KT 9999 FEW040"
    },
    {
      "icao": "LIPQ",
      "alert": "OK",
      "vis_m": 9999,
      "fzfg": false,
      "metar_trigger": false,
      "taf_trigger": false,
      "metar": "METAR LIPQ 161550Z AUTO 19003KT 130V270 9999 NCD 33/21 Q1016",
      "taf": "TAF LIPQ 161100Z 1612/1712 23010KT 9999 SCT060"
    },
    {
      "icao": "LIPR",
      "alert": "OK",
      "vis_m": 9999,
      "fzfg": false,
      "metar_trigger": false,
      "taf_trigger": false,
      "metar": "METAR LIPR 161550Z 10007KT 070V130 CAVOK 29/22 Q1016",
      "taf": "TAF LIPR 161100Z 1612/1712 02011KT 9999 FEW050"
    },
    {
      "icao": "LIPX",
      "alert": "OK",
      "vis_m": 9999,
      "fzfg": false,
      "metar_trigger": false,
      "taf_trigger": false,
      "metar": "METAR LIPX 161550Z 20003KT 150V230 CAVOK 32/20 Q1016",
      "taf": "TAF LIPX 161100Z 1612/1712 VRB06KT 9999 FEW050"
    },
    {
      "icao": "LIPY",
      "alert": "OK",
      "vis_m": 9999,
      "fzfg": false,
      "metar_trigger": false,
      "taf_trigger": false,
      "metar": "METAR LIPY 161550Z AUTO 03004KT 9999 NCD 29/22 Q1017",
      "taf": "TAF LIPY 161100Z 1612/1712 35010KT CAVOK"
    },
    {
      "icao": "LIPZ",
      "alert": "OK",
      "vis_m": 9999,
      "fzfg": false,
      "metar_trigger": false,
      "taf_trigger": false,
      "metar": "METAR LIPZ 161550Z 20006KT 150V220 CAVOK 32/18 Q1016 NOSIG",
      "taf": "TAF LIPZ 161100Z 1612/1718 VRB05KT 9999 FEW050"
    },
    {
      "icao": "LIRF",
      "alert": "OK",
      "vis_m": 9999,
      "fzfg": false,
      "metar_trigger": false,
      "taf_trigger": false,
      "metar": "METAR LIRF 161550Z 27008KT CAVOK 32/24 Q1015 NOSIG",
      "taf": "TAF LIRF 161100Z 1612/1718 28012KT CAVOK"
    },
    {
      "icao": "LIRN",
      "alert": "OK",
      "vis_m": 9999,
      "fzfg": false,
      "metar_trigger": false,
      "taf_trigger": false,
      "metar": "METAR LIRN 161550Z 18006KT 140V220 CAVOK 33/19 Q1016 NOSIG",
      "taf": "TAF LIRN 161100Z 1612/1712 24010KT CAVOK"
    },
    {
      "icao": "LIRP",
      "alert": "OK",
      "vis_m": 9999,
      "fzfg": false,
      "metar_trigger": false,
      "taf_trigger": false,
      "metar": "METAR LIRP 161545Z 30009KT CAVOK 31/22 Q1016 NOSIG",
      "taf": "TAF LIRP 161100Z 1612/1712 27010KT CAVOK"
    },
    {
      "icao": "LIRZ",
      "alert": "OK",
      "vis_m": 9999,
      "fzfg": false,
      "metar_trigger": false,
      "taf_trigger": false,
      "metar": "METAR LIRZ 161550Z AUTO VRB03KT 9999 FEW003/// 37/16 Q1016",
      "taf": "TAF LIRZ 161100Z 1612/1712 25010KT CAVOK"
    },
    {
      "icao": "LJLJ",
      "alert": "OK",
      "vis_m": 9999,
      "fzfg": false,
      "metar_trigger": false,
      "taf_trigger": false,
      "metar": "METAR LJLJ 161600Z 20004KT 160V250 9999 FEW050 SCT130 29/18 Q1019 NOSIG",
      "taf": "TAF LJLJ 161100Z 1612/1712 12010KT 9999 FEW040"
    },
    {
      "icao": "LKMT",
      "alert": "OK",
      "vis_m": 9999,
      "fzfg": false,
      "metar_trigger": false,
      "taf_trigger": false,
      "metar": "METAR LKMT 161600Z 05004KT 340V090 CAVOK 28/16 Q1019 NOSIG",
      "taf": "TAF LKMT 161100Z 1612/1712 05006KT 9999 SCT030"
    },
    {
      "icao": "LKPR",
      "alert": "OK",
      "vis_m": 9999,
      "fzfg": false,
      "metar_trigger": false,
      "taf_trigger": false,
      "metar": "METAR LKPR 161600Z 07008KT 040V110 CAVOK 27/15 Q1018 NOSIG",
      "taf": "TAF LKPR 161400Z 1615/1721 VRB02KT CAVOK"
    },
    {
      "icao": "LLBG",
      "alert": "OK",
      "vis_m": 9999,
      "fzfg": false,
      "metar_trigger": false,
      "taf_trigger": false,
      "metar": "METAR LLBG 161550Z 34008KT 300V010 CAVOK 29/21 Q1006 NOSIG",
      "taf": "TAF LLBG 161103Z 1612/1712 31010KT 9999 FEW025 TX32/1612Z TN24/1703Z"
    },
    {
      "icao": "LMML",
      "alert": "OK",
      "vis_m": 9999,
      "fzfg": false,
      "metar_trigger": false,
      "taf_trigger": false,
      "metar": "METAR LMML 161545Z 19006KT 140V220 CAVOK 36/16 Q1016 NOSIG",
      "taf": "TAF LMML 161100Z 1612/1712 VRB05KT CAVOK"
    },
    {
      "icao": "LOWW",
      "alert": "OK",
      "vis_m": 9999,
      "fzfg": false,
      "metar_trigger": false,
      "taf_trigger": false,
      "metar": "METAR LOWW 161550Z 12006KT 060V170 CAVOK 31/15 Q1018 NOSIG",
      "taf": "TAF LOWW 161415Z 1615/1721 16004KT 9999 FEW050 TX30/1615Z TN20/1703Z"
    },
    {
      "icao": "LPFR",
      "alert": "OK",
      "vis_m": 9999,
      "fzfg": false,
      "metar_trigger": false,
      "taf_trigger": false,
      "metar": "METAR LPFR 161600Z 17012KT CAVOK 25/20 Q1017",
      "taf": ""
    },
    {
      "icao": "LPMA",
      "alert": "OK",
      "vis_m": 9999,
      "fzfg": false,
      "metar_trigger": false,
      "taf_trigger": false,
      "metar": "METAR LPMA 161600Z 05006KT 010V120 9999 FEW016 26/21 Q1021",
      "taf": "TAF LPMA 161100Z 1612/1712 VRB05KT 9999 SCT015"
    },
    {
      "icao": "LPPR",
      "alert": "OK",
      "vis_m": 9999,
      "fzfg": false,
      "metar_trigger": false,
      "taf_trigger": false,
      "metar": "METAR LPPR 161600Z 29006KT 230V330 9999 FEW014 23/18 Q1019",
      "taf": "TAF LPPR 161100Z 1612/1712 27008KT 9999 SCT015"
    },
    {
      "icao": "LPPS",
      "alert": "OK",
      "vis_m": 9999,
      "fzfg": false,
      "metar_trigger": false,
      "taf_trigger": false,
      "metar": "METAR LPPS 161600Z 14006KT 120V190 9999 FEW015 BKN030 25/20 Q1022",
      "taf": "TAF LPPS 161100Z 1612/1718 11007KT 9999 SCT015"
    },
    {
      "icao": "LPPT",
      "alert": "OK",
      "vis_m": 9999,
      "fzfg": false,
      "metar_trigger": false,
      "taf_trigger": false,
      "metar": "METAR LPPT 161600Z 26011KT 230V300 9999 FEW038 27/16 Q1019 NOSIG",
      "taf": "TAF LPPT 161100Z 1612/1718 30010KT CAVOK"
    },
    {
      "icao": "LQBK",
      "alert": "OK",
      "vis_m": 9999,
      "fzfg": false,
      "metar_trigger": false,
      "taf_trigger": false,
      "metar": "METAR LQBK 161600Z 31007KT 9999 FEW040 SCT047 30/19 Q1017 NOSIG",
      "taf": "TAF LQBK 161100Z 1612/1712 33005KT CAVOK TX29/1614Z TN17/1703Z"
    },
    {
      "icao": "LQSA",
      "alert": "OK",
      "vis_m": 9999,
      "fzfg": false,
      "metar_trigger": false,
      "taf_trigger": false,
      "metar": "METAR LQSA 161600Z 21003KT 170V320 9999 SCT055 24/19 Q1020 RESHRA NOSIG",
      "taf": "TAF LQSA 161100Z 1612/1712 VRB02KT 9999 SCT050 TX33/1712Z TN18/1704Z"
    },
    {
      "icao": "LQTZ",
      "alert": "OK",
      "vis_m": 9999,
      "fzfg": false,
      "metar_trigger": false,
      "taf_trigger": false,
      "metar": "METAR LQTZ 161600Z 12009KT 9999 SCT050 23/21 Q1018",
      "taf": "TAF LQTZ 161100Z 1612/1712 20005KT CAVOK TX28/1614Z TN17/1703Z"
    },
    {
      "icao": "LRBC",
      "alert": "OK",
      "vis_m": 9999,
      "fzfg": false,
      "metar_trigger": false,
      "taf_trigger": false,
      "metar": "METAR LRBC 161600Z 28008KT 9999 FEW045CB 27/18 Q1016",
      "taf": "TAF LRBC 161400Z 1615/1624 32008KT 9999 SCT065"
    },
    {
      "icao": "LRBS",
      "alert": "OK",
      "vis_m": 9999,
      "fzfg": false,
      "metar_trigger": false,
      "taf_trigger": false,
      "metar": "METAR LRBS 161600Z VRB03KT 9999 FEW050CB 26/21 Q1016 NOSIG",
      "taf": "TAF LRBS 161100Z 1612/1712 VRB04KT 9999 SCT050CB"
    },
    {
      "icao": "LRBV",
      "alert": "OK",
      "vis_m": 9999,
      "fzfg": false,
      "metar_trigger": false,
      "taf_trigger": false,
      "metar": "METAR LRBV 161600Z VRB02KT CAVOK 24/16 Q1019",
      "taf": "TAF LRBV 161400Z 1615/1624 VRB04KT 9999 FEW050CB"
    },
    {
      "icao": "LRCL",
      "alert": "OK",
      "vis_m": 9999,
      "fzfg": false,
      "metar_trigger": false,
      "taf_trigger": false,
      "metar": "METAR LRCL 161600Z 05010KT 020V080 9999 VCTS SCT060CB 29/16 Q1017",
      "taf": "TAF LRCL 161400Z 1615/1624 VRB04KT 9999 SCT055"
    },
    {
      "icao": "LRCV",
      "alert": "OK",
      "vis_m": 9999,
      "fzfg": false,
      "metar_trigger": false,
      "taf_trigger": false,
      "metar": "METAR LRCV 161600Z 07016KT 9999 SCT050CB 28/18 Q1016 RETS",
      "taf": "TAF LRCV 161400Z 1615/1624 VRB04KT 9999 SCT045"
    },
    {
      "icao": "LRIA",
      "alert": "OK",
      "vis_m": 9999,
      "fzfg": false,
      "metar_trigger": false,
      "taf_trigger": false,
      "metar": "METAR LRIA 161600Z 31008KT CAVOK 31/12 Q1016",
      "taf": "TAF LRIA 161400Z 1615/1624 35010KT CAVOK"
    },
    {
      "icao": "LROP",
      "alert": "OK",
      "vis_m": 9999,
      "fzfg": false,
      "metar_trigger": false,
      "taf_trigger": false,
      "metar": "METAR LROP 161600Z 35005KT 290V010 CAVOK 25/23 Q1016 NOSIG",
      "taf": "TAF LROP 161100Z 1612/1712 VRB04KT 9999 SCT050CB"
    },
    {
      "icao": "LRSB",
      "alert": "OK",
      "vis_m": 9999,
      "fzfg": false,
      "metar_trigger": false,
      "taf_trigger": false,
      "metar": "METAR LRSB 161600Z 35003KT 300V050 9999 VCSH SCT045 FEW048CB SCT070 27/17 Q1018",
      "taf": "TAF LRSB 161100Z 1612/1712 VRB04KT 9999 SCT045"
    },
    {
      "icao": "LRSM",
      "alert": "OK",
      "vis_m": 9999,
      "fzfg": false,
      "metar_trigger": false,
      "taf_trigger": false,
      "metar": "METAR LRSM 161600Z 04008KT CAVOK 31/16 Q1016",
      "taf": "TAF LRSM 161400Z 1615/1624 VRB04KT CAVOK"
    },
    {
      "icao": "LRSV",
      "alert": "OK",
      "vis_m": 9999,
      "fzfg": false,
      "metar_trigger": false,
      "taf_trigger": false,
      "metar": "METAR LRSV 161600Z 36006KT CAVOK 28/15 Q1018",
      "taf": "TAF LRSV 161400Z 1615/1624 35006KT CAVOK"
    },
    {
      "icao": "LRTM",
      "alert": "OK",
      "vis_m": 9999,
      "fzfg": false,
      "metar_trigger": false,
      "taf_trigger": false,
      "metar": "METAR LRTM 161600Z 09008KT CAVOK 28/19 Q1017",
      "taf": "TAF LRTM 161400Z 1615/1624 VRB04KT 9999 SCT045CB"
    },
    {
      "icao": "LRTR",
      "alert": "OK",
      "vis_m": 9999,
      "fzfg": false,
      "metar_trigger": false,
      "taf_trigger": false,
      "metar": "METAR LRTR 161600Z 36009KT 320V040 CAVOK 32/14 Q1016 NOSIG",
      "taf": "TAF LRTR 161100Z 1612/1712 33010KT CAVOK"
    },
    {
      "icao": "LTAC",
      "alert": "OK",
      "vis_m": 9999,
      "fzfg": false,
      "metar_trigger": false,
      "taf_trigger": false,
      "metar": "METAR LTAC 161550Z 02016KT 9999 SCT040 29/09 Q1014 NOSIG RMK RWY21C 01014KT RWY03L 02013KT RWY21R 36015KT RWY03R 36015KT RWY21L 01015KT",
      "taf": "TAF LTAC 161040Z 1612/1712 03008KT 9999 SCT040"
    },
    {
      "icao": "LTFM",
      "alert": "OK",
      "vis_m": 9999,
      "fzfg": false,
      "metar_trigger": false,
      "taf_trigger": false,
      "metar": "METAR LTFM 161550Z 03011KT 350V060 CAVOK 27/18 Q1015 NOSIG RMK RWY17L 02011KT RWY34L 02010KT RWY16R 04010KT RWY36 03012KT RWY18 04010KT",
      "taf": "TAF LTFM 161040Z 1612/1718 03012KT CAVOK"
    },
    {
      "icao": "LUKK",
      "alert": "OK",
      "vis_m": 9999,
      "fzfg": false,
      "metar_trigger": false,
      "taf_trigger": false,
      "metar": "METAR LUKK 161600Z 33010KT CAVOK 31/12 Q1015 NOSIG",
      "taf": "TAF LUKK 161102Z 1612/1712 35009KT CAVOK"
    },
    {
      "icao": "LWOH",
      "alert": "OK",
      "vis_m": 9999,
      "fzfg": false,
      "metar_trigger": false,
      "taf_trigger": false,
      "metar": "METAR LWOH 161550Z 19005KT 9999 FEW040CB SCT050 24/21 Q1018",
      "taf": "TAF LWOH 161430Z 1615/1715 16006KT 9999 SCT040"
    },
    {
      "icao": "LWSK",
      "alert": "OK",
      "vis_m": 9999,
      "fzfg": false,
      "metar_trigger": false,
      "taf_trigger": false,
      "metar": "METAR LWSK 161550Z 36015G25KT 9999 FEW035TCU SCT085 34/17 Q1014 NOSIG",
      "taf": "TAF LWSK 161430Z 1615/1715 34008KT 9999 FEW040"
    },
    {
      "icao": "LYBE",
      "alert": "OK",
      "vis_m": 9999,
      "fzfg": false,
      "metar_trigger": false,
      "taf_trigger": false,
      "metar": "METAR LYBE 161600Z 36004KT CAVOK 31/19 Q1017 NOSIG",
      "taf": "TAF LYBE 161100Z 1612/1712 05006KT CAVOK TX34/1614Z TN19/1703Z"
    },
    {
      "icao": "LYNI",
      "alert": "OK",
      "vis_m": 9999,
      "fzfg": false,
      "metar_trigger": false,
      "taf_trigger": false,
      "metar": "METAR LYNI 161600Z 03005KT 340V070 CAVOK 31/16 Q1015 NOSIG",
      "taf": "TAF LYNI 161100Z 1612/1712 22005KT 9999 SCT050 TX35/1614Z TN17/1703Z"
    },
    {
      "icao": "LYPG",
      "alert": "OK",
      "vis_m": 9999,
      "fzfg": false,
      "metar_trigger": false,
      "taf_trigger": false,
      "metar": "METAR LYPG 161600Z 02013KT 350V070 9999 FEW040 SCT080 28/17 Q1015 TEMPO 02024KT",
      "taf": "TAF LYPG 161100Z 1612/1712 17008KT 9999 SCT050 TX37/1712Z TN24/1703Z"
    },
    {
      "icao": "LZIB",
      "alert": "OK",
      "vis_m": 9999,
      "fzfg": false,
      "metar_trigger": false,
      "taf_trigger": false,
      "metar": "METAR LZIB 161600Z 09006KT 060V120 CAVOK 31/18 Q1017 NOSIG",
      "taf": "TAF LZIB 161115Z 1612/1712 VRB02KT 9999 FEW040"
    },
    {
      "icao": "LZKZ",
      "alert": "OK",
      "vis_m": 9999,
      "fzfg": false,
      "metar_trigger": false,
      "taf_trigger": false,
      "metar": "METAR LZKZ 161600Z 36010KT 330V030 CAVOK 30/15 Q1017 NOSIG",
      "taf": "TAF LZKZ 161115Z 1612/1712 04006KT CAVOK"
    },
    {
      "icao": "LZTT",
      "alert": "OK",
      "vis_m": 9999,
      "fzfg": false,
      "metar_trigger": false,
      "taf_trigger": false,
      "metar": "METAR LZTT 161600Z 03003KT 310V120 9999 FEW050 26/14 Q1021 NOSIG",
      "taf": "TAF LZTT 161115Z 1612/1712 03006KT 9999 FEW040"
    },
    {
      "icao": "OEJN",
      "alert": "OK",
      "vis_m": 9999,
      "fzfg": false,
      "metar_trigger": false,
      "taf_trigger": false,
      "metar": "METAR OEJN 161600Z 35016KT CAVOK 36/14 Q1002 NOSIG",
      "taf": "TAF OEJN 161100Z 1612/1718 30012KT CAVOK"
    },
    {
      "icao": "OEMA",
      "alert": "OK",
      "vis_m": 9999,
      "fzfg": false,
      "metar_trigger": false,
      "taf_trigger": false,
      "metar": "METAR OEMA 161600Z 28010KT 9999 SCT045 44/M02 Q1006 NOSIG",
      "taf": "TAF OEMA 161100Z 1612/1718 29014KT 9999 SCT040"
    },
    {
      "icao": "OJAI",
      "alert": "OK",
      "vis_m": 5000,
      "fzfg": false,
      "metar_trigger": false,
      "taf_trigger": false,
      "metar": "METAR OJAI 161500Z 30011KT 5000 HZ NSC 33/15 Q1010 NOSIG",
      "taf": "TAF OJAI 161033Z 1612/1718 27010KT 5000 HZ NSC"
    },
    {
      "icao": "OMAA",
      "alert": "OK",
      "vis_m": 9999,
      "fzfg": false,
      "metar_trigger": false,
      "taf_trigger": false,
      "metar": "METAR OMAA 161600Z 35010KT CAVOK 39/25 Q0995 NOSIG",
      "taf": "TAF OMAA 161100Z 1612/1718 34011KT 8000 NSC"
    },
    {
      "icao": "OMDB",
      "alert": "OK",
      "vis_m": 9999,
      "fzfg": false,
      "metar_trigger": false,
      "taf_trigger": false,
      "metar": "METAR OMDB 161600Z 11014KT CAVOK 39/22 Q0997 NOSIG",
      "taf": "TAF OMDB 161100Z 1612/1718 09013KT 8000 NSC"
    },
    {
      "icao": "UAAA",
      "alert": "OK",
      "vis_m": 9999,
      "fzfg": false,
      "metar_trigger": false,
      "taf_trigger": false,
      "metar": "METAR UAAA 161600Z 14003MPS 9999 NSC 29/07 Q1008 NOSIG",
      "taf": "TAF UAAA 161102Z 1612/1712 06003MPS 9999 FEW100 TX40/1710Z TN21/1701Z"
    },
    {
      "icao": "UBBB",
      "alert": "OK",
      "vis_m": 9999,
      "fzfg": false,
      "metar_trigger": false,
      "taf_trigger": false,
      "metar": "METAR UBBB 161600Z 33012KT CAVOK 26/22 Q1008 NOSIG",
      "taf": "TAF UBBB 161046Z 1612/1712 33014G24KT CAVOK TX30/1612Z TN24/1701Z"
    },
    {
      "icao": "UDSG",
      "alert": "OK",
      "vis_m": 9999,
      "fzfg": false,
      "metar_trigger": false,
      "taf_trigger": false,
      "metar": "METAR UDSG 161600Z 06010KT 9999 FEW049 21/13 Q1017 NOSIG",
      "taf": "TAF UDSG 161100Z 1612/1712 03006KT 9999 SCT050"
    },
    {
      "icao": "UDYZ",
      "alert": "OK",
      "vis_m": 9999,
      "fzfg": false,
      "metar_trigger": false,
      "taf_trigger": false,
      "metar": "METAR UDYZ 161600Z 02016G26KT 9999 VCTS SCT043CB 29/12 Q1008 TEMPO 03020G30KT -TSRA",
      "taf": "TAF UDYZ 161100Z 1612/1712 21006KT 9999 SCT040"
    },
    {
      "icao": "UGKO",
      "alert": "OK",
      "vis_m": 9999,
      "fzfg": false,
      "metar_trigger": false,
      "taf_trigger": false,
      "metar": "METAR UGKO 161600Z 24011KT 9999 SCT023 BKN073 23/19 Q1013 NOSIG",
      "taf": "TAF UGKO 161100Z 1612/1712 25006KT 9999 SCT030 BKN080 TX28/1712Z TN18/1702Z"
    }
  ]
}