{
  "ts_utc": "2025-12-21T15:15:03Z",
  "threshold_m": 150,
  "source": "stations_override.txt (ICAO list) + aviationweather.gov (METAR/TAF raw)",
  "station_count": 114,
  "stations": [
    {
      "icao": "BIKF",
      "alert": "OK",
      "vis_m": 9999,
      "fzfg": false,
      "metar_trigger": false,
      "taf_trigger": false,
      "metar": "METAR BIKF 211500Z 14020KT 9999 BKN010 OVC037 09/08 Q1008",
      "taf": "TAF BIKF 211320Z 2115/2215 11018G28KT 9999 BKN025 TX08/2115Z TN06/2205Z"
    },
    {
      "icao": "BKPR",
      "alert": "OK",
      "vis_m": 500,
      "fzfg": false,
      "metar_trigger": false,
      "taf_trigger": false,
      "metar": "METAR BKPR 211500Z 03003KT 350V080 0500 R17/1900D R35/1200U FG VV002 02/02 Q1018 TEMPO 0150 FG",
      "taf": ""
    },
    {
      "icao": "EBBR",
      "alert": "OK",
      "vis_m": 9999,
      "fzfg": false,
      "metar_trigger": false,
      "taf_trigger": false,
      "metar": "METAR EBBR 211450Z 08006KT CAVOK 11/09 Q1009 NOSIG",
      "taf": "TAF EBBR 211105Z 2112/2218 11006KT CAVOK"
    },
    {
      "icao": "EBCI",
      "alert": "OK",
      "vis_m": 9999,
      "fzfg": false,
      "metar_trigger": false,
      "taf_trigger": false,
      "metar": "METAR EBCI 211450Z 05006KT 340V070 CAVOK 10/08 Q1008 NOSIG",
      "taf": "TAF EBCI 211105Z 2112/2218 11006KT CAVOK"
    },
    {
      "icao": "EDDB",
      "alert": "OK",
      "vis_m": 8000,
      "fzfg": false,
      "metar_trigger": false,
      "taf_trigger": false,
      "metar": "METAR EDDB 211450Z AUTO 10009KT 8000 OVC006 07/06 Q1018 TEMPO 4000 BR",
      "taf": "TAF EDDB 211100Z 2112/2212 09010KT 8000 OVC006"
    },
    {
      "icao": "EDDH",
      "alert": "OK",
      "vis_m": 9999,
      "fzfg": false,
      "metar_trigger": false,
      "taf_trigger": false,
      "metar": "METAR EDDH 211450Z AUTO 09009KT 060V120 9999 OVC005 07/06 Q1017 BECMG OVC004",
      "taf": "TAF EDDH 211100Z 2112/2218 09009KT 9999 BKN003"
    },
    {
      "icao": "EDDK",
      "alert": "OK",
      "vis_m": 9999,
      "fzfg": false,
      "metar_trigger": false,
      "taf_trigger": false,
      "metar": "METAR EDDK 211450Z AUTO 09004KT 060V120 CAVOK 12/04 Q1010 NOSIG",
      "taf": "TAF EDDK 211100Z 2112/2218 11006KT CAVOK"
    },
    {
      "icao": "EDDN",
      "alert": "OK",
      "vis_m": 9999,
      "fzfg": false,
      "metar_trigger": false,
      "taf_trigger": false,
      "metar": "METAR EDDN 211450Z AUTO 10007KT CAVOK 04/01 Q1012 NOSIG",
      "taf": "TAF EDDN 211100Z 2112/2212 10006KT 9999 FEW010"
    },
    {
      "icao": "EDFH",
      "alert": "OK",
      "vis_m": 9999,
      "fzfg": false,
      "metar_trigger": false,
      "taf_trigger": false,
      "metar": "METAR EDFH 211450Z 09010KT CAVOK 07/02 Q1009",
      "taf": "TAF EDFH 211100Z 2112/2212 13011KT CAVOK"
    },
    {
      "icao": "EDJA",
      "alert": "OK",
      "vis_m": 2000,
      "fzfg": false,
      "metar_trigger": false,
      "taf_trigger": false,
      "metar": "METAR EDJA 211450Z 05009KT 2000 BR BKN002 OVC005 M01/M02 Q1009",
      "taf": "TAF EDJA 211400Z 2115/2124 06007KT 2000 BR OVC002"
    },
    {
      "icao": "EDLW",
      "alert": "OK",
      "vis_m": 9999,
      "fzfg": false,
      "metar_trigger": false,
      "taf_trigger": false,
      "metar": "METAR EDLW 211450Z 04005KT CAVOK 10/07 Q1011",
      "taf": "TAF EDLW 211100Z 2112/2212 VRB03KT CAVOK"
    },
    {
      "icao": "EDSB",
      "alert": "OK",
      "vis_m": 9999,
      "fzfg": false,
      "metar_trigger": false,
      "taf_trigger": false,
      "metar": "METAR EDSB 211450Z 01007KT CAVOK 08/04 Q1008",
      "taf": "TAF EDSB 211100Z 2112/2212 03005KT CAVOK"
    },
    {
      "icao": "EETN",
      "alert": "OK",
      "vis_m": 9999,
      "fzfg": false,
      "metar_trigger": false,
      "taf_trigger": false,
      "metar": "METAR EETN 211450Z 33014G24KT 9999 BKN013 04/02 Q1012 NOSIG",
      "taf": "TAF EETN 211130Z 2112/2212 33014KT 9999 OVC015"
    },
    {
      "icao": "EFHK",
      "alert": "OK",
      "vis_m": 9999,
      "fzfg": false,
      "metar_trigger": false,
      "taf_trigger": false,
      "metar": "METAR EFHK 211450Z 33014KT 9999 BKN020 03/M00 Q1012 NOSIG",
      "taf": "TAF EFHK 211437Z 2115/2215 32011KT 9999 BKN020"
    },
    {
      "icao": "EFTU",
      "alert": "OK",
      "vis_m": 9999,
      "fzfg": false,
      "metar_trigger": false,
      "taf_trigger": false,
      "metar": "METAR EFTU 211450Z AUTO 33005KT 290V360 CAVOK 03/02 Q1015",
      "taf": "TAF EFTU 211435Z 2115/2215 33007KT 9999 SCT014"
    },
    {
      "icao": "EGGW",
      "alert": "OK",
      "vis_m": 6000,
      "fzfg": false,
      "metar_trigger": false,
      "taf_trigger": false,
      "metar": "METAR EGGW 211450Z AUTO 09008KT 6000 OVC005 09/08 Q1007",
      "taf": ""
    },
    {
      "icao": "EGKK",
      "alert": "OK",
      "vis_m": 9999,
      "fzfg": false,
      "metar_trigger": false,
      "taf_trigger": false,
      "metar": "METAR EGKK 211450Z 07009KT 9999 BKN011 10/09 Q1006",
      "taf": ""
    },
    {
      "icao": "EHEH",
      "alert": "OK",
      "vis_m": 9999,
      "fzfg": false,
      "metar_trigger": false,
      "taf_trigger": false,
      "metar": "METAR EHEH 211455Z AUTO 07005KT 050V110 9999 OVC300 11/08 Q1010 BLU NOSIG RMK TREND REMOTE BY EHWX",
      "taf": "TAF EHEH 211107Z 2112/2218 09006KT CAVOK"
    },
    {
      "icao": "EKBI",
      "alert": "OK",
      "vis_m": 9999,
      "fzfg": false,
      "metar_trigger": false,
      "taf_trigger": false,
      "metar": "METAR EKBI 211450Z AUTO 08011KT 9999 OVC010/// 05/04 Q1019",
      "taf": "TAF EKBI 211427Z 2115/2215 09012KT 9999 BKN008"
    },
    {
      "icao": "EKCH",
      "alert": "OK",
      "vis_m": 9999,
      "fzfg": false,
      "metar_trigger": false,
      "taf_trigger": false,
      "metar": "METAR EKCH 211450Z AUTO 08005KT 050V120 9999 OVC017/// 06/02 Q1022 TEMPO BKN014",
      "taf": "TAF EKCH 211427Z 2115/2215 10005KT 9999 BKN016"
    },
    {
      "icao": "ENTO",
      "alert": "OK",
      "vis_m": 9999,
      "fzfg": false,
      "metar_trigger": false,
      "taf_trigger": false,
      "metar": "METAR ENTO 211450Z 01007KT CAVOK M01/M02 Q1023 NOSIG",
      "taf": "TAF ENTO 211100Z 2112/2212 02008KT CAVOK"
    },
    {
      "icao": "EPGD",
      "alert": "OK",
      "vis_m": 9999,
      "fzfg": false,
      "metar_trigger": false,
      "taf_trigger": false,
      "metar": "METAR EPGD 211500Z 27005KT 9999 BKN023 05/02 Q1021",
      "taf": "TAF EPGD 211130Z 2112/2212 27005KT 9999 BKN020"
    },
    {
      "icao": "EPKK",
      "alert": "OK",
      "vis_m": 5000,
      "fzfg": false,
      "metar_trigger": false,
      "taf_trigger": false,
      "metar": "METAR EPKK 211500Z 06007KT 5000 BR SCT003 OVC004 05/04 Q1019",
      "taf": "TAF EPKK 211430Z 2115/2215 07008KT 5000 BR OVC004"
    },
    {
      "icao": "EPKT",
      "alert": "OK",
      "vis_m": 5000,
      "fzfg": false,
      "metar_trigger": false,
      "taf_trigger": false,
      "metar": "METAR EPKT 211500Z 05007KT 5000 BR OVC004 05/05 Q1019",
      "taf": ""
    },
    {
      "icao": "EPWA",
      "alert": "OK",
      "vis_m": 9999,
      "fzfg": false,
      "metar_trigger": false,
      "taf_trigger": false,
      "metar": "METAR EPWA 211500Z VRB01KT 9999 BKN016 03/M00 Q1022 NOSIG",
      "taf": "TAF EPWA 211430Z 2115/2215 08005KT 9999 BKN018"
    },
    {
      "icao": "EPWR",
      "alert": "OK",
      "vis_m": 5000,
      "fzfg": false,
      "metar_trigger": false,
      "taf_trigger": false,
      "metar": "METAR EPWR 211500Z 07005KT 5000 BR OVC005 06/05 Q1019",
      "taf": "TAF EPWR 211430Z 2115/2215 08007KT 5000 BR OVC006"
    },
    {
      "icao": "ESGG",
      "alert": "OK",
      "vis_m": 9999,
      "fzfg": false,
      "metar_trigger": false,
      "taf_trigger": false,
      "metar": "METAR ESGG 211450Z 06005KT 9999 OVC004 03/02 Q1022",
      "taf": "TAF ESGG 211430Z 2115/2215 VRB03KT 9999 OVC005"
    },
    {
      "icao": "ESKN",
      "alert": "OK",
      "vis_m": 9999,
      "fzfg": false,
      "metar_trigger": false,
      "taf_trigger": false,
      "metar": "METAR ESKN 211450Z 28006KT CAVOK 00/M00 Q1021",
      "taf": "TAF ESKN 211430Z 2115/2215 28006KT CAVOK"
    },
    {
      "icao": "ESMX",
      "alert": "OK",
      "vis_m": 900,
      "fzfg": false,
      "metar_trigger": false,
      "taf_trigger": false,
      "metar": "METAR ESMX 211450Z 34004KT 0900 R01/1100U R19/P2000N FG VV002 01/01 Q1021",
      "taf": "TAF ESMX 211430Z 2115/2120 34004KT 0300 FG OVC001"
    },
    {
      "icao": "EVRA",
      "alert": "OK",
      "vis_m": 9999,
      "fzfg": false,
      "metar_trigger": false,
      "taf_trigger": false,
      "metar": "METAR EVRA 211450Z 31009KT 260V340 9999 FEW027 OVC031 07/03 Q1015 NOSIG",
      "taf": "TAF EVRA 211402Z 2115/2215 30010KT 9999 BKN030"
    },
    {
      "icao": "EYKA",
      "alert": "OK",
      "vis_m": 9999,
      "fzfg": false,
      "metar_trigger": false,
      "taf_trigger": false,
      "metar": "METAR EYKA 211450Z 27007KT 9999 OVC026 05/03 Q1017",
      "taf": "TAF EYKA 211110Z 2112/2212 28008KT 9000 BKN020"
    },
    {
      "icao": "EYVI",
      "alert": "OK",
      "vis_m": 9999,
      "fzfg": false,
      "metar_trigger": false,
      "taf_trigger": false,
      "metar": "METAR EYVI 211450Z 29008KT 9999 FEW011 BKN028 04/03 Q1016 NOSIG",
      "taf": "TAF EYVI 211100Z 2112/2212 29010KT 9000 BKN010 OVC015"
    },
    {
      "icao": "GCLP",
      "alert": "OK",
      "vis_m": 9999,
      "fzfg": false,
      "metar_trigger": false,
      "taf_trigger": false,
      "metar": "METAR GCLP 211500Z 01011KT 330V040 9999 FEW050 21/10 Q1018 NOSIG",
      "taf": "TAF GCLP 211400Z 2115/2215 36012KT 9999 FEW050 TX20/2214Z TN15/2206Z"
    },
    {
      "icao": "GCTS",
      "alert": "OK",
      "vis_m": 9999,
      "fzfg": false,
      "metar_trigger": false,
      "taf_trigger": false,
      "metar": "METAR GCTS 211500Z 19006KT 160V250 9999 BKN040 20/10 Q1019 NOSIG",
      "taf": "TAF GCTS 211400Z 2115/2215 19007KT 9999 SCT040 TX24/2214Z TN16/2206Z"
    },
    {
      "icao": "HECA",
      "alert": "OK",
      "vis_m": 4000,
      "fzfg": false,
      "metar_trigger": false,
      "taf_trigger": false,
      "metar": "METAR HECA 211500Z 20008KT 4000 DU NSC 21/01 Q1011 NOSIG",
      "taf": "TAF HECA 211100Z 2112/2218 19012KT CAVOK"
    },
    {
      "icao": "HEGN",
      "alert": "OK",
      "vis_m": 9999,
      "fzfg": false,
      "metar_trigger": false,
      "taf_trigger": false,
      "metar": "METAR HEGN 211400Z 10005KT CAVOK 24/12 Q1013 NOSIG",
      "taf": "TAF HEGN 211100Z 2112/2218 14008KT CAVOK"
    },
    {
      "icao": "HESH",
      "alert": "OK",
      "vis_m": 9999,
      "fzfg": false,
      "metar_trigger": false,
      "taf_trigger": false,
      "metar": "METAR HESH 211400Z 13009KT CAVOK 23/11 Q1013 NOSIG",
      "taf": "TAF HESH 211100Z 2112/2218 19008KT CAVOK"
    },
    {
      "icao": "HESX",
      "alert": "OK",
      "vis_m": 9999,
      "fzfg": false,
      "metar_trigger": false,
      "taf_trigger": false,
      "metar": "METAR HESX 211400Z 18014KT CAVOK 20/01 Q1012 NOSIG",
      "taf": "TAF HESX 211100Z 2112/2218 18009KT CAVOK"
    },
    {
      "icao": "LATI",
      "alert": "OK",
      "vis_m": 9999,
      "fzfg": false,
      "metar_trigger": false,
      "taf_trigger": false,
      "metar": "METAR LATI 211450Z 31004KT CAVOK 15/04 Q1014 NOSIG",
      "taf": "TAF LATI 211100Z 2112/2212 VRB05KT CAVOK TX17/2112Z TN01/2205Z"
    },
    {
      "icao": "LBSF",
      "alert": "OK",
      "vis_m": 9999,
      "fzfg": false,
      "metar_trigger": false,
      "taf_trigger": false,
      "metar": "METAR LBSF 211500Z 00000KT 9999 FEW030 06/02 Q1017 NOSIG",
      "taf": "TAF LBSF 211100Z 2112/2212 VRB03KT 9999 SCT030"
    },
    {
      "icao": "LBWN",
      "alert": "OK",
      "vis_m": 9999,
      "fzfg": false,
      "metar_trigger": false,
      "taf_trigger": false,
      "metar": "METAR LBWN 211500Z AUTO 33008KT 9999 FEW010/// OVC029/// 08/08 Q1019 NOSIG",
      "taf": "TAF LBWN 211100Z 2112/2212 35008KT 7000 BKN015 OVC035"
    },
    {
      "icao": "LCLK",
      "alert": "OK",
      "vis_m": 9999,
      "fzfg": false,
      "metar_trigger": false,
      "taf_trigger": false,
      "metar": "METAR LCLK 211500Z 11011KT 9999 FEW025 FEW030CB SCT060 19/13 Q1012 NOSIG",
      "taf": "TAF LCLK 211130Z 2112/2212 12012KT 9999 FEW020 SCT030"
    },
    {
      "icao": "LDDU",
      "alert": "OK",
      "vis_m": 9999,
      "fzfg": false,
      "metar_trigger": false,
      "taf_trigger": false,
      "metar": "METAR LDDU 211500Z 28004KT CAVOK 13/08 Q1014 NOSIG",
      "taf": "TAF LDDU 211125Z 2112/2212 VRB02KT CAVOK TX15/2112Z TN08/2203Z"
    },
    {
      "icao": "LDSP",
      "alert": "OK",
      "vis_m": 9999,
      "fzfg": false,
      "metar_trigger": false,
      "taf_trigger": false,
      "metar": "METAR LDSP 211500Z VRB02KT CAVOK 13/06 Q1014 NOSIG",
      "taf": "TAF LDSP 211125Z 2112/2212 VRB02KT CAVOK TX15/2113Z TN07/2205Z"
    },
    {
      "icao": "LDZA",
      "alert": "OK",
      "vis_m": 4500,
      "fzfg": false,
      "metar_trigger": false,
      "taf_trigger": false,
      "metar": "METAR LDZA 211500Z 10004KT 4500 BR OVC009 03/03 Q1019 NOSIG",
      "taf": "TAF LDZA 211125Z 2112/2212 VRB02KT 6000 OVC005 TX05/2211Z TN03/2206Z"
    },
    {
      "icao": "LEAL",
      "alert": "OK",
      "vis_m": 9999,
      "fzfg": false,
      "metar_trigger": false,
      "taf_trigger": false,
      "metar": "METAR LEAL 211500Z 28011KT 9999 -RA FEW020 BKN050 14/06 Q1005 NOSIG",
      "taf": "TAF LEAL 211100Z 2112/2212 25008KT 9999 FEW020 SCT040 TX16/2113Z TN07/2207Z"
    },
    {
      "icao": "LEBL",
      "alert": "OK",
      "vis_m": 9999,
      "fzfg": false,
      "metar_trigger": false,
      "taf_trigger": false,
      "metar": "METAR LEBL 211500Z 23010KT 9999 DZ FEW030 SCT050 15/10 Q1004 NOSIG",
      "taf": "TAF LEBL 211100Z 2112/2212 21012KT 9999 FEW020 TX16/2112Z TN07/2206Z"
    },
    {
      "icao": "LECH",
      "alert": "OK",
      "vis_m": 9999,
      "fzfg": false,
      "metar_trigger": false,
      "taf_trigger": false,
      "metar": "METAR LECH 211500Z AUTO 20007KT 170V230 CAVOK 13/03 Q1003",
      "taf": ""
    },
    {
      "icao": "LEMD",
      "alert": "OK",
      "vis_m": 9999,
      "fzfg": false,
      "metar_trigger": false,
      "taf_trigger": false,
      "metar": "METAR LEMD 211500Z 21006G17KT 170V270 9999 FEW030 FEW035TCU SCT040 07/01 Q1004 NOSIG",
      "taf": ""
    },
    {
      "icao": "LEMG",
      "alert": "OK",
      "vis_m": 8000,
      "fzfg": false,
      "metar_trigger": false,
      "taf_trigger": false,
      "metar": "METAR LEMG 211500Z 29011KT 8000 -RA FEW015 BKN050 09/08 Q1008 NOSIG",
      "taf": "TAF LEMG 211100Z 2112/2212 30008KT 9999 FEW012 SCT060 TX14/2114Z TN07/2206Z"
    },
    {
      "icao": "LERS",
      "alert": "OK",
      "vis_m": 9999,
      "fzfg": false,
      "metar_trigger": false,
      "taf_trigger": false,
      "metar": "METAR LERS 211500Z 22003KT 170V260 9999 FEW025 13/09 Q1004",
      "taf": "TAF LERS 211400Z 2115/2215 22008KT 9999 SCT025 TX12/2213Z TN06/2206Z"
    },
    {
      "icao": "LEVC",
      "alert": "OK",
      "vis_m": 9999,
      "fzfg": false,
      "metar_trigger": false,
      "taf_trigger": false,
      "metar": "METAR LEVC 211500Z 26012KT 220V290 9999 FEW065 13/03 Q1005 NOSIG",
      "taf": ""
    },
    {
      "icao": "LFLL",
      "alert": "OK",
      "vis_m": 9999,
      "fzfg": false,
      "metar_trigger": false,
      "taf_trigger": false,
      "metar": "METAR LFLL 211500Z 12008KT CAVOK 12/06 Q1005 NOSIG",
      "taf": "TAF LFLL 211100Z 2112/2218 14006KT CAVOK"
    },
    {
      "icao": "LFMN",
      "alert": "OK",
      "vis_m": 9999,
      "fzfg": false,
      "metar_trigger": false,
      "taf_trigger": false,
      "metar": "METAR LFMN 211500Z 10025KT 9999 BKN093 SCT100 OVC260 16/10 Q1010 NOSIG",
      "taf": "TAF LFMN 211400Z 2115/2221 08020KT 9999 BKN040"
    },
    {
      "icao": "LFOB",
      "alert": "OK",
      "vis_m": 9999,
      "fzfg": false,
      "metar_trigger": false,
      "taf_trigger": false,
      "metar": "METAR LFOB 211500Z AUTO 10012KT 9999 -RA FEW033 BKN066 OVC078 11/10 Q1005 NOSIG",
      "taf": "TAF LFOB 211100Z 2112/2212 08009KT 9999 OVC002"
    },
    {
      "icao": "LFPO",
      "alert": "OK",
      "vis_m": 8000,
      "fzfg": false,
      "metar_trigger": false,
      "taf_trigger": false,
      "metar": "METAR LFPO 211500Z AUTO 10010KT 8000 -RA FEW045/// BKN062/// OVC074/// ///TCU 11/10 Q1005 TEMPO 4500 -RA BECMG BKN040",
      "taf": ""
    },
    {
      "icao": "LFSB",
      "alert": "OK",
      "vis_m": 2900,
      "fzfg": false,
      "metar_trigger": false,
      "taf_trigger": false,
      "metar": "METAR LFSB 211500Z AUTO 35006KT 2900 BR SCT002 05/05 Q1008 TEMPO 0500 FG VV///",
      "taf": ""
    },
    {
      "icao": "LGAV",
      "alert": "OK",
      "vis_m": 9999,
      "fzfg": false,
      "metar_trigger": false,
      "taf_trigger": false,
      "metar": "METAR LGAV 211450Z 36012KT 9999 SCT035 14/08 Q1015 NOSIG",
      "taf": "TAF LGAV 211100Z 2112/2212 02012KT 9999 SCT025 SCT070"
    },
    {
      "icao": "LGIR",
      "alert": "OK",
      "vis_m": 9999,
      "fzfg": false,
      "metar_trigger": false,
      "taf_trigger": false,
      "metar": "METAR LGIR 211450Z 05004KT 9999 SCT020 16/11 Q1013 NOSIG",
      "taf": "TAF LGIR 211100Z 2112/2212 33010KT 9999 SCT020 SCT080"
    },
    {
      "icao": "LGKR",
      "alert": "OK",
      "vis_m": 9999,
      "fzfg": false,
      "metar_trigger": false,
      "taf_trigger": false,
      "metar": "METAR LGKR 211450Z VRB02KT 9999 FEW010 17/10 Q1013 NOSIG",
      "taf": "TAF LGKR 211100Z 2112/2212 VRB03KT 9999 SCT015"
    },
    {
      "icao": "LGRP",
      "alert": "OK",
      "vis_m": 4000,
      "fzfg": false,
      "metar_trigger": false,
      "taf_trigger": false,
      "metar": "METAR LGRP 211450Z 07005KT 040V100 4000 -RA FEW012 FEW018TCU SCT020 16/14 Q1012 NOSIG",
      "taf": "TAF LGRP 211100Z 2112/2212 14010KT 9999 FEW018 SCT020"
    },
    {
      "icao": "LGTS",
      "alert": "OK",
      "vis_m": 9999,
      "fzfg": false,
      "metar_trigger": false,
      "taf_trigger": false,
      "metar": "METAR LGTS 211450Z 26006KT 9999 FEW025 13/09 Q1017 NOSIG",
      "taf": "TAF LGTS 211100Z 2112/2212 VRB03KT 9999 FEW020"
    },
    {
      "icao": "LGZA",
      "alert": "OK",
      "vis_m": 9999,
      "fzfg": false,
      "metar_trigger": false,
      "taf_trigger": false,
      "metar": "METAR LGZA 211450Z 00000KT 9999 FEW025 BKN080 15/12 Q1013",
      "taf": "TAF LGZA 211400Z 2115/2124 03010KT 9999 FEW020 BKN080"
    },
    {
      "icao": "LHBP",
      "alert": "OK",
      "vis_m": 3000,
      "fzfg": false,
      "metar_trigger": false,
      "taf_trigger": false,
      "metar": "METAR LHBP 211500Z VRB02KT 3000 BR OVC003 05/04 Q1020 TEMPO 2500 -DZ BR",
      "taf": "TAF LHBP 211115Z 2112/2212 21005KT 5000 BR OVC005"
    },
    {
      "icao": "LHDC",
      "alert": "OK",
      "vis_m": 7000,
      "fzfg": false,
      "metar_trigger": false,
      "taf_trigger": false,
      "metar": "METAR LHDC 211445Z AUTO 23004KT 200V360 7000 ////// 05/04 Q1020 NOSIG",
      "taf": "TAF LHDC 211415Z 2115/2124 VRB03KT 7000 FEW006 OVC020"
    },
    {
      "icao": "LIBD",
      "alert": "OK",
      "vis_m": 9999,
      "fzfg": false,
      "metar_trigger": false,
      "taf_trigger": false,
      "metar": "METAR LIBD 211450Z 04003KT CAVOK 13/11 Q1014",
      "taf": "TAF LIBD 211100Z 2112/2212 VRB04KT 9999 SCT040"
    },
    {
      "icao": "LICC",
      "alert": "OK",
      "vis_m": 6000,
      "fzfg": false,
      "metar_trigger": false,
      "taf_trigger": false,
      "metar": "METAR LICC 211450Z 05011KT 6000 RA SCT020 BKN070 15/13 Q1010",
      "taf": "TAF LICC 211100Z 2112/2212 07012KT 6000 RA BKN010 BKN060"
    },
    {
      "icao": "LICJ",
      "alert": "OK",
      "vis_m": 9999,
      "fzfg": false,
      "metar_trigger": false,
      "taf_trigger": false,
      "metar": "METAR LICJ 211450Z 02006KT 9999 -RA SCT040 16/13 Q1009",
      "taf": "TAF LICJ 211100Z 2112/2212 10010KT 9999 SCT040"
    },
    {
      "icao": "LIEO",
      "alert": "OK",
      "vis_m": 9999,
      "fzfg": false,
      "metar_trigger": false,
      "taf_trigger": false,
      "metar": "METAR LIEO 211450Z VRB01KT 9999 SCT015 BKN030 15/14 Q1009",
      "taf": "TAF LIEO 211100Z 2112/2212 10010KT 6000 RA BKN010"
    },
    {
      "icao": "LIMC",
      "alert": "OK",
      "vis_m": 7000,
      "fzfg": false,
      "metar_trigger": false,
      "taf_trigger": false,
      "metar": "METAR LIMC 211450Z 16002KT 7000 BKN060 10/06 Q1015 NOSIG",
      "taf": "TAF LIMC 211100Z 2112/2218 VRB03KT 7000 SCT040"
    },
    {
      "icao": "LIME",
      "alert": "OK",
      "vis_m": 9999,
      "fzfg": false,
      "metar_trigger": false,
      "taf_trigger": false,
      "metar": "METAR LIME 211450Z 14003KT 110V210 9999 FEW070 09/05 Q1015 NOSIG",
      "taf": "TAF LIME 211100Z 2112/2212 VRB03KT 9000 SCT080"
    },
    {
      "icao": "LIPH",
      "alert": "OK",
      "vis_m": 9999,
      "fzfg": false,
      "metar_trigger": false,
      "taf_trigger": false,
      "metar": "METAR LIPH 211450Z 05003KT 010V070 CAVOK 12/05 Q1015",
      "taf": "TAF LIPH 211100Z 2112/2212 VRB04KT 8000 FEW030"
    },
    {
      "icao": "LIPQ",
      "alert": "OK",
      "vis_m": 9999,
      "fzfg": false,
      "metar_trigger": false,
      "taf_trigger": false,
      "metar": "METAR LIPQ 211450Z AUTO 11007KT 9999 NCD 10/04 Q1015",
      "taf": "TAF LIPQ 211100Z 2112/2212 VRB04KT CAVOK"
    },
    {
      "icao": "LIPX",
      "alert": "OK",
      "vis_m": 9999,
      "fzfg": false,
      "metar_trigger": false,
      "taf_trigger": false,
      "metar": "METAR LIPX 211450Z 16002KT CAVOK 11/07 Q1015",
      "taf": "TAF LIPX 211100Z 2112/2212 VRB03KT 9999 FEW040"
    },
    {
      "icao": "LIPY",
      "alert": "OK",
      "vis_m": 5000,
      "fzfg": false,
      "metar_trigger": false,
      "taf_trigger": false,
      "metar": "METAR LIPY 211450Z AUTO VRB02KT 5000 BR OVC049/// 11/10 Q1015",
      "taf": "TAF LIPY 211100Z 2112/2212 VRB05KT 4000 BR OVC020"
    },
    {
      "icao": "LIPZ",
      "alert": "OK",
      "vis_m": 9999,
      "fzfg": false,
      "metar_trigger": false,
      "taf_trigger": false,
      "metar": "METAR LIPZ 211450Z 06004KT CAVOK 11/06 Q1015 NOSIG",
      "taf": "TAF LIPZ 211100Z 2112/2218 02005KT 9999 FEW020"
    },
    {
      "icao": "LIRA",
      "alert": "OK",
      "vis_m": 9999,
      "fzfg": false,
      "metar_trigger": false,
      "taf_trigger": false,
      "metar": "METAR LIRA 211450Z 05006KT CAVOK 14/07 Q1012",
      "taf": "TAF LIRA 211100Z 2112/2212 04005KT 9999 FEW060"
    },
    {
      "icao": "LIRN",
      "alert": "OK",
      "vis_m": 9999,
      "fzfg": false,
      "metar_trigger": false,
      "taf_trigger": false,
      "metar": "METAR LIRN 211450Z VRB02KT CAVOK 16/07 Q1012 NOSIG",
      "taf": "TAF LIRN 211100Z 2112/2212 05006KT 9999 SCT060"
    },
    {
      "icao": "LLBG",
      "alert": "OK",
      "vis_m": 9999,
      "fzfg": false,
      "metar_trigger": false,
      "taf_trigger": false,
      "metar": "METAR LLBG 211450Z 31006KT CAVOK 18/10 Q1013 NOSIG RMK FEW150",
      "taf": "TAF LLBG 211102Z 2112/2212 25010KT CAVOK"
    },
    {
      "icao": "LMML",
      "alert": "OK",
      "vis_m": 9999,
      "fzfg": false,
      "metar_trigger": false,
      "taf_trigger": false,
      "metar": "METAR LMML 211445Z VRB02KT 9999 -RA FEW017 BKN045 15/13 Q1010 NOSIG",
      "taf": "TAF LMML 211100Z 2112/2212 24008KT 9999 FEW015 SCT020"
    },
    {
      "icao": "LOWW",
      "alert": "OK",
      "vis_m": 6000,
      "fzfg": false,
      "metar_trigger": false,
      "taf_trigger": false,
      "metar": "METAR LOWW 211450Z 13010KT 6000 FEW002 OVC003 02/02 Q1018 TEMPO OVC005",
      "taf": "TAF LOWW 211415Z 2115/2221 13013KT 6000 OVC003 TX04/2218Z TN02/2115Z"
    },
    {
      "icao": "LPFR",
      "alert": "OK",
      "vis_m": 9999,
      "fzfg": false,
      "metar_trigger": false,
      "taf_trigger": false,
      "metar": "METAR LPFR 211500Z 30014KT 270V330 9999 -SHRA FEW015 FEW020TCU BKN035 12/08 Q1009",
      "taf": "TAF LPFR 211100Z 2112/2212 27010KT 9999 FEW015 SCT030"
    },
    {
      "icao": "LPPR",
      "alert": "OK",
      "vis_m": 9999,
      "fzfg": false,
      "metar_trigger": false,
      "taf_trigger": false,
      "metar": "METAR LPPR 211500Z 28006KT 190V350 9999 -SHRA SCT016 FEW020CB BKN028 07/05 Q1007 RERA",
      "taf": "TAF LPPR 211100Z 2112/2212 13010KT 9999 FEW012 SCT035"
    },
    {
      "icao": "LPPT",
      "alert": "OK",
      "vis_m": 9999,
      "fzfg": false,
      "metar_trigger": false,
      "taf_trigger": false,
      "metar": "METAR LPPT 211500Z 32011KT 290V350 9999 VCSH FEW025 FEW030CB SCT035 10/04 Q1009",
      "taf": "TAF LPPT 211100Z 2112/2218 29007KT 9999 SCT035"
    },
    {
      "icao": "LQSA",
      "alert": "OK",
      "vis_m": 8000,
      "fzfg": false,
      "metar_trigger": false,
      "taf_trigger": false,
      "metar": "METAR LQSA 211500Z VRB03KT 8000 BKN012 OVC020 03/02 Q1018 NOSIG",
      "taf": "TAF LQSA 211100Z 2112/2212 VRB02KT 8000 BKN010 OVC020 TX04/2113Z TNM02/2205Z"
    },
    {
      "icao": "LQTZ",
      "alert": "OK",
      "vis_m": 6000,
      "fzfg": false,
      "metar_trigger": false,
      "taf_trigger": false,
      "metar": "METAR LQTZ 211500Z 13001KT 6000 SCT008 OVC015 05/05 Q1018",
      "taf": "TAF LQTZ 211100Z 2112/2212 12005KT 4000 BR OVC006 TX06/2113Z TN02/2205Z"
    },
    {
      "icao": "LRCL",
      "alert": "OK",
      "vis_m": 6000,
      "fzfg": false,
      "metar_trigger": false,
      "taf_trigger": false,
      "metar": "METAR LRCL 211500Z 26004KT 6000 OVC012 05/04 Q1019",
      "taf": "TAF LRCL 211400Z 2115/2124 VRB04KT 5000 BR BKN010"
    },
    {
      "icao": "LRCV",
      "alert": "OK",
      "vis_m": 5000,
      "fzfg": false,
      "metar_trigger": false,
      "taf_trigger": false,
      "metar": "METAR LRCV 211500Z 27002KT 5000 BR OVC014 05/04 Q1020",
      "taf": "TAF LRCV 211400Z 2115/2124 VRB04KT 5000 BR BKN015"
    },
    {
      "icao": "LRIA",
      "alert": "OK",
      "vis_m": 8000,
      "fzfg": false,
      "metar_trigger": false,
      "taf_trigger": false,
      "metar": "METAR LRIA 211500Z 33003KT 290V350 8000 OVC003 02/02 Q1020",
      "taf": "TAF LRIA 211400Z 2115/2124 VRB03KT 5000 BR OVC002"
    },
    {
      "icao": "LROP",
      "alert": "OK",
      "vis_m": 7000,
      "fzfg": false,
      "metar_trigger": false,
      "taf_trigger": false,
      "metar": "METAR LROP 211500Z 25003KT 200V270 7000 SCT008 BKN017 06/05 Q1020 NOSIG",
      "taf": "TAF LROP 211100Z 2112/2212 23006KT 5000 BR BKN010"
    },
    {
      "icao": "LRSB",
      "alert": "OK",
      "vis_m": 9000,
      "fzfg": false,
      "metar_trigger": false,
      "taf_trigger": false,
      "metar": "METAR LRSB 211500Z 10003KT 9000 NSC 02/02 Q1018",
      "taf": "TAF LRSB 211100Z 2112/2212 VRB04KT 3000 BR NSC"
    },
    {
      "icao": "LRTR",
      "alert": "OK",
      "vis_m": 5000,
      "fzfg": false,
      "metar_trigger": false,
      "taf_trigger": false,
      "metar": "METAR LRTR 211500Z 36006KT 5000 BR SCT004 BKN005 OVC007 05/05 Q1020",
      "taf": "TAF LRTR 211100Z 2112/2212 VRB04KT 3000 BR OVC002"
    },
    {
      "icao": "LTAF",
      "alert": "OK",
      "vis_m": 9999,
      "fzfg": false,
      "metar_trigger": false,
      "taf_trigger": false,
      "metar": "METAR LTAF 211450Z 05012KT CAVOK 16/M02 Q1015 NOSIG RMK RWY23 07011KT 6CI200",
      "taf": "TAF LTAF 211040Z 2112/2212 05009KT CAVOK"
    },
    {
      "icao": "LTAI",
      "alert": "OK",
      "vis_m": 9999,
      "fzfg": false,
      "metar_trigger": false,
      "taf_trigger": false,
      "metar": "METAR LTAI 211450Z VRB02KT 9999 SCT030 BKN100 14/10 Q1014 NOSIG RMK RWY18C VRB01KT RWY36R VRB02KT RWY18L VRB03KT",
      "taf": "TAF LTAI 211040Z 2112/2212 34009KT 4000 SHRA BR FEW015CB BKN025"
    },
    {
      "icao": "LTFM",
      "alert": "OK",
      "vis_m": 9999,
      "fzfg": false,
      "metar_trigger": false,
      "taf_trigger": false,
      "metar": "METAR LTFM 211450Z 03009KT 9999 SCT015 BKN025 12/10 Q1016 NOSIG RMK RWY17L 04008KT RWY34L 02008KT RWY16R 03008KT RWY36 04008KT RWY18 04009KT",
      "taf": "TAF LTFM 211040Z 2112/2218 05008KT 9999 SCT015 BKN025"
    },
    {
      "icao": "LUBL",
      "alert": "OK",
      "vis_m": null,
      "fzfg": false,
      "metar_trigger": false,
      "taf_trigger": false,
      "metar": "",
      "taf": ""
    },
    {
      "icao": "LUKK",
      "alert": "OK",
      "vis_m": 4400,
      "fzfg": false,
      "metar_trigger": false,
      "taf_trigger": false,
      "metar": "METAR LUKK 211500Z VRB03KT 4400 BR OVC002 01/01 Q1020 TEMPO 1500 BR OVC003",
      "taf": "TAF LUKK 211131Z 2112/2212 VRB04KT 0800 FG VV002"
    },
    {
      "icao": "LWSK",
      "alert": "OK",
      "vis_m": 400,
      "fzfg": false,
      "metar_trigger": false,
      "taf_trigger": false,
      "metar": "METAR LWSK 211450Z VRB02KT 0400 R34/0650D FG VV002 01/01 Q1019 NOSIG",
      "taf": "TAF LWSK 211410Z 2115/2215 VRB02KT 0600 FG OVC002"
    },
    {
      "icao": "LYBE",
      "alert": "OK",
      "vis_m": 3500,
      "fzfg": false,
      "metar_trigger": false,
      "taf_trigger": false,
      "metar": "METAR LYBE 211500Z 36004KT 340V040 3500 BR OVC005 05/04 Q1020 NOSIG",
      "taf": "TAF LYBE 211100Z 2112/2212 07006KT 5000 BR OVC008 TX05/2113Z TN02/2206Z"
    },
    {
      "icao": "LZIB",
      "alert": "OK",
      "vis_m": 1800,
      "fzfg": false,
      "metar_trigger": false,
      "taf_trigger": false,
      "metar": "METAR LZIB 211500Z 11004KT 1800 -DZ BR FEW001 OVC002 03/03 Q1019 NOSIG",
      "taf": ""
    },
    {
      "icao": "LZKZ",
      "alert": "OK",
      "vis_m": 5000,
      "fzfg": false,
      "metar_trigger": false,
      "taf_trigger": false,
      "metar": "METAR LZKZ 211500Z 14002KT 5000 -RA BR BKN010 05/04 Q1020 NOSIG",
      "taf": ""
    },
    {
      "icao": "LZTT",
      "alert": "OK",
      "vis_m": 9999,
      "fzfg": false,
      "metar_trigger": false,
      "taf_trigger": false,
      "metar": "METAR LZTT 211500Z 00000KT 9999 FEW004 SCT009 BKN016 02/01 Q1018 NOSIG",
      "taf": "TAF LZTT 211115Z 2112/2212 VRB02KT 9999 FEW033"
    },
    {
      "icao": "OEJN",
      "alert": "OK",
      "vis_m": 9999,
      "fzfg": false,
      "metar_trigger": false,
      "taf_trigger": false,
      "metar": "METAR OEJN 211500Z 24004KT 9999 FEW040 27/18 Q1011 NOSIG",
      "taf": "TAF OEJN 211100Z 2112/2218 27012KT 9999 FEW040"
    },
    {
      "icao": "OEMA",
      "alert": "OK",
      "vis_m": 9999,
      "fzfg": false,
      "metar_trigger": false,
      "taf_trigger": false,
      "metar": "METAR OEMA 211500Z 06006KT CAVOK 21/M04 Q1017 NOSIG",
      "taf": "TAF OEMA 211100Z 2112/2218 14012KT 9999 FEW040"
    },
    {
      "icao": "OERK",
      "alert": "OK",
      "vis_m": 9999,
      "fzfg": false,
      "metar_trigger": false,
      "taf_trigger": false,
      "metar": "METAR OERK 211500Z 08003KT CAVOK 14/01 Q1021 NOSIG",
      "taf": "TAF OERK 211100Z 2112/2218 10010KT 9999 FEW040"
    },
    {
      "icao": "OJAI",
      "alert": "OK",
      "vis_m": 5000,
      "fzfg": false,
      "metar_trigger": false,
      "taf_trigger": false,
      "metar": "METAR OJAI 211500Z 10004KT 5000 HZ FEW030 14/01 Q1016 NOSIG",
      "taf": "TAF OJAI 211035Z 2112/2218 12010KT 5000 HZ NSC"
    },
    {
      "icao": "OKBK",
      "alert": "OK",
      "vis_m": null,
      "fzfg": false,
      "metar_trigger": false,
      "taf_trigger": false,
      "metar": "",
      "taf": ""
    },
    {
      "icao": "OMAA",
      "alert": "OK",
      "vis_m": 9999,
      "fzfg": false,
      "metar_trigger": false,
      "taf_trigger": false,
      "metar": "METAR OMAA 211500Z 35005KT CAVOK 21/12 Q1019 NOSIG",
      "taf": "TAF OMAA 211100Z 2112/2218 33008KT 8000 FEW040"
    },
    {
      "icao": "UAAA",
      "alert": "OK",
      "vis_m": 450,
      "fzfg": true,
      "metar_trigger": false,
      "taf_trigger": false,
      "metar": "METAR UAAA 211500Z 05001MPS 0450 R23L/1400N -SN FZFG BKN007 OVC026 M01/M01 Q1028 NOSIG",
      "taf": "TAF UAAA 211102Z 2112/2212 19003MPS 3100 BR SCT011 BKN020CB OVC050 TXM00/2207Z TNM06/2201Z"
    },
    {
      "icao": "UCFM",
      "alert": "CRITICAL",
      "vis_m": 100,
      "fzfg": true,
      "metar_trigger": true,
      "taf_trigger": false,
      "metar": "METAR UCFM 211500Z 08002MPS 0100 0050W R25/0800N FZFG BKN001 OVC016 M01/M01 Q1029 NOSIG",
      "taf": "TAF UCFM 211056Z 2112/2212 12003MPS 0800 FZFG FEW003 OVC030CB"
    },
    {
      "icao": "UDYZ",
      "alert": "OK",
      "vis_m": 3500,
      "fzfg": false,
      "metar_trigger": false,
      "taf_trigger": false,
      "metar": "METAR UDYZ 211500Z 36001KT 3500 BR NSC M00/M05 Q1024 NOSIG",
      "taf": "TAF UDYZ 211100Z 2112/2212 VRB04KT 6000 NSC"
    },
    {
      "icao": "UGTB",
      "alert": "OK",
      "vis_m": 8000,
      "fzfg": false,
      "metar_trigger": false,
      "taf_trigger": false,
      "metar": "METAR UGTB 211500Z VRB01KT 8000 OVC023 03/M00 Q1024 NOSIG",
      "taf": "TAF UGTB 211100Z 2112/2212 VRB02KT 6000 SCT014 OVC025 TX09/2212Z TNM02/2203Z"
    },
    {
      "icao": "UKKK",
      "alert": "OK",
      "vis_m": null,
      "fzfg": false,
      "metar_trigger": false,
      "taf_trigger": false,
      "metar": "",
      "taf": ""
    },
    {
      "icao": "UTTT",
      "alert": "OK",
      "vis_m": null,
      "fzfg": false,
      "metar_trigger": false,
      "taf_trigger": false,
      "metar": "",
      "taf": ""
    }
  ]
}