{
  "ts_utc": "2026-02-24T23:17:55Z",
  "threshold_m": 150,
  "source": "stations_override.txt (ICAO list) + aviationweather.gov (METAR/TAF raw)",
  "station_count": 159,
  "stations": [
    {
      "icao": "BIKF",
      "alert": "OK",
      "vis_m": 9999,
      "fzfg": false,
      "metar_trigger": false,
      "taf_trigger": false,
      "metar": "METAR BIKF 242300Z 28015G27KT 9999 -SN SCT018 BKN032 M02/M08 Q0997",
      "taf": "TAF BIKF 242247Z 2500/2600 27025G35KT 9999 -SHSN SCT020 BKN030 TX03/2522Z TNM03/2500Z"
    },
    {
      "icao": "BKPR",
      "alert": "OK",
      "vis_m": 9999,
      "fzfg": false,
      "metar_trigger": false,
      "taf_trigger": false,
      "metar": "METAR BKPR 242300Z 29005KT 9999 FEW060 05/00 Q1020 NOSIG",
      "taf": ""
    },
    {
      "icao": "EBCI",
      "alert": "OK",
      "vis_m": 9999,
      "fzfg": false,
      "metar_trigger": false,
      "taf_trigger": false,
      "metar": "METAR EBCI 242250Z 18006KT 9999 BKN011 11/09 Q1019 NOSIG",
      "taf": "TAF EBCI 241704Z 2418/2524 15004KT 9999 FEW025"
    },
    {
      "icao": "EDDB",
      "alert": "OK",
      "vis_m": 9999,
      "fzfg": false,
      "metar_trigger": false,
      "taf_trigger": false,
      "metar": "METAR EDDB 242250Z AUTO 19003KT CAVOK 03/02 Q1022 NOSIG",
      "taf": "TAF EDDB 241700Z 2418/2518 VRB03KT 9999 BKN030"
    },
    {
      "icao": "EDDH",
      "alert": "OK",
      "vis_m": 9999,
      "fzfg": false,
      "metar_trigger": false,
      "taf_trigger": false,
      "metar": "METAR EDDH 242250Z AUTO 15004KT 9999 BKN027 06/05 Q1021 TEMPO 2000 BCFG",
      "taf": ""
    },
    {
      "icao": "EDDK",
      "alert": "OK",
      "vis_m": 9999,
      "fzfg": false,
      "metar_trigger": false,
      "taf_trigger": false,
      "metar": "METAR EDDK 242250Z AUTO 12005KT 090V150 9999 SCT033 10/09 Q1021 NOSIG",
      "taf": "TAF EDDK 241700Z 2418/2524 12005KT 9999 BKN014"
    },
    {
      "icao": "EDDN",
      "alert": "OK",
      "vis_m": 8000,
      "fzfg": false,
      "metar_trigger": false,
      "taf_trigger": false,
      "metar": "METAR EDDN 242250Z AUTO 11006KT 8000 SCT039 03/03 Q1023",
      "taf": "TAF EDDN 241700Z 2418/2518 11004KT 9999 SCT014 BKN035"
    },
    {
      "icao": "EDDS",
      "alert": "OK",
      "vis_m": 250,
      "fzfg": false,
      "metar_trigger": false,
      "taf_trigger": false,
      "metar": "METAR EDDS 242250Z AUTO VRB02KT 0250 0200 R25/0275N FG VV003 08/08 Q1021",
      "taf": ""
    },
    {
      "icao": "EDFH",
      "alert": "OK",
      "vis_m": 2500,
      "fzfg": false,
      "metar_trigger": false,
      "taf_trigger": false,
      "metar": "METAR EDFH 242250Z 14008KT 2500 BR OVC001 09/09 Q1021",
      "taf": ""
    },
    {
      "icao": "EDJA",
      "alert": "OK",
      "vis_m": 500,
      "fzfg": false,
      "metar_trigger": false,
      "taf_trigger": false,
      "metar": "METAR EDJA 242250Z AUTO VRB02KT 0500 0450 R06/0500D // FEW002/// SCT049/// 06/06 Q1022",
      "taf": "TAF EDJA 241700Z 2418/2503 VRB03KT 9999 SCT008 OVC010"
    },
    {
      "icao": "EDLW",
      "alert": "OK",
      "vis_m": 9999,
      "fzfg": false,
      "metar_trigger": false,
      "taf_trigger": false,
      "metar": "METAR EDLW 242250Z AUTO 17007KT 9999 // FEW057/// 09/09 Q1020",
      "taf": "TAF EDLW 241700Z 2418/2518 16006KT 9999 BKN020"
    },
    {
      "icao": "EDNY",
      "alert": "OK",
      "vis_m": 9999,
      "fzfg": false,
      "metar_trigger": false,
      "taf_trigger": false,
      "metar": "METAR EDNY 242250Z AUTO 05005KT 9999 // NCD 08/07 Q1022",
      "taf": "TAF EDNY 241700Z 2418/2503 VRB03KT CAVOK"
    },
    {
      "icao": "EDSB",
      "alert": "OK",
      "vis_m": 500,
      "fzfg": false,
      "metar_trigger": false,
      "taf_trigger": false,
      "metar": "METAR EDSB 242250Z AUTO VRB02KT 0500 0400 R21/0450D VV/// 07/07 Q1021",
      "taf": ""
    },
    {
      "icao": "EETN",
      "alert": "OK",
      "vis_m": 9999,
      "fzfg": false,
      "metar_trigger": false,
      "taf_trigger": false,
      "metar": "METAR EETN 242250Z 05009KT 020V080 9999 FEW009 M05/M07 Q1020",
      "taf": "TAF EETN 241730Z 2418/2518 05010KT CAVOK"
    },
    {
      "icao": "EFTU",
      "alert": "OK",
      "vis_m": 9999,
      "fzfg": false,
      "metar_trigger": false,
      "taf_trigger": false,
      "metar": "METAR EFTU 242250Z AUTO 05004KT CAVOK M09/M11 Q1023",
      "taf": "TAF EFTU 242025Z 2421/2521 04003KT CAVOK"
    },
    {
      "icao": "EGBB",
      "alert": "OK",
      "vis_m": 9999,
      "fzfg": false,
      "metar_trigger": false,
      "taf_trigger": false,
      "metar": "METAR EGBB 242250Z 13004KT CAVOK 07/05 Q1013",
      "taf": "TAF EGBB 242257Z 2500/2524 18006KT 9999 FEW025"
    },
    {
      "icao": "EGGP",
      "alert": "OK",
      "vis_m": 9999,
      "fzfg": false,
      "metar_trigger": false,
      "taf_trigger": false,
      "metar": "METAR EGGP 242250Z 15008KT CAVOK 09/06 Q1011",
      "taf": "TAF EGGP 242257Z 2500/2524 16008KT 9999 FEW030"
    },
    {
      "icao": "EGGW",
      "alert": "OK",
      "vis_m": 9999,
      "fzfg": false,
      "metar_trigger": false,
      "taf_trigger": false,
      "metar": "METAR EGGW 242250Z AUTO 17006KT 9999 FEW008 10/09 Q1014",
      "taf": "TAF EGGW 242257Z 2500/2524 16010KT 9999 FEW025"
    },
    {
      "icao": "EGKK",
      "alert": "OK",
      "vis_m": 9999,
      "fzfg": false,
      "metar_trigger": false,
      "taf_trigger": false,
      "metar": "METAR EGKK 242250Z 16006KT 120V190 CAVOK 10/09 Q1015",
      "taf": "TAF EGKK 242252Z 2500/2606 14004KT 9999 FEW035"
    },
    {
      "icao": "EGNM",
      "alert": "OK",
      "vis_m": 9999,
      "fzfg": false,
      "metar_trigger": false,
      "taf_trigger": false,
      "metar": "METAR EGNM 242150Z 19006KT CAVOK 07/05 Q1011",
      "taf": "TAF EGNM 242302Z 2500/2524 19007KT 9999 FEW008"
    },
    {
      "icao": "EGPD",
      "alert": "OK",
      "vis_m": 9999,
      "fzfg": false,
      "metar_trigger": false,
      "taf_trigger": false,
      "metar": "METAR EGPD 242250Z COR AUTO 20011KT 160V240 9999 NCD 10/06 Q1005 NOSIG",
      "taf": "TAF EGPD 242254Z 2500/2524 19009KT 9999 FEW025"
    },
    {
      "icao": "EGPF",
      "alert": "OK",
      "vis_m": 9999,
      "fzfg": false,
      "metar_trigger": false,
      "taf_trigger": false,
      "metar": "METAR EGPF 242250Z AUTO 18009KT 9999 BKN018 BKN023 OVC045 10/08 Q1007",
      "taf": "TAF EGPF 242301Z 2500/2524 18009KT 9999 SCT020"
    },
    {
      "icao": "EHBK",
      "alert": "OK",
      "vis_m": 9999,
      "fzfg": false,
      "metar_trigger": false,
      "taf_trigger": false,
      "metar": "METAR EHBK 242255Z AUTO 22004KT 9999 OVC016 12/11 Q1020",
      "taf": "TAF EHBK 241720Z 2418/2524 15004KT 9999 BKN012"
    },
    {
      "icao": "EHEH",
      "alert": "OK",
      "vis_m": 3400,
      "fzfg": false,
      "metar_trigger": false,
      "taf_trigger": false,
      "metar": "METAR EHEH 242255Z AUTO 15002KT 3400 BR SCT013 OVC015 11/11 Q1020 YLO",
      "taf": ""
    },
    {
      "icao": "EKBI",
      "alert": "OK",
      "vis_m": 500,
      "fzfg": false,
      "metar_trigger": false,
      "taf_trigger": false,
      "metar": "METAR EKBI 242250Z AUTO 10007KT 0500 R09/P1500N R27/1300N FG VV003 01/01 Q1021",
      "taf": "TAF EKBI 242027Z 2421/2521 13006KT 0200 FG VV001"
    },
    {
      "icao": "EKCH",
      "alert": "OK",
      "vis_m": 9999,
      "fzfg": false,
      "metar_trigger": false,
      "taf_trigger": false,
      "metar": "METAR EKCH 242250Z 15004KT 9999 FEW006 BKN009 00/M01 Q1023 NOSIG",
      "taf": "TAF EKCH 242027Z 2421/2521 01005KT 9999 BKN010"
    },
    {
      "icao": "ENAL",
      "alert": "OK",
      "vis_m": 9999,
      "fzfg": false,
      "metar_trigger": false,
      "taf_trigger": false,
      "metar": "METAR ENAL 242250Z AUTO 14015KT 9999 FEW041/// BKN050/// 05/01 Q1007",
      "taf": "TAF ENAL 242000Z 2421/2506 14015KT 9999 -RA FEW030 BKN050"
    },
    {
      "icao": "ENBR",
      "alert": "OK",
      "vis_m": 9999,
      "fzfg": false,
      "metar_trigger": false,
      "taf_trigger": false,
      "metar": "METAR ENBR 242250Z 14017KT 9999 -RA BKN022 OVC026 05/03 Q1011 RMK WIND 1200FT 15030KT",
      "taf": "TAF ENBR 241700Z 2418/2518 14012KT 9999 SCT030 BKN045"
    },
    {
      "icao": "ENGM",
      "alert": "OK",
      "vis_m": 9999,
      "fzfg": false,
      "metar_trigger": false,
      "taf_trigger": false,
      "metar": "METAR ENGM 242250Z 16008KT 9999 FEW017 OVC027 M03/M07 Q1023",
      "taf": "TAF ENGM 241700Z 2418/2518 04005KT 9999 BKN020"
    },
    {
      "icao": "ENHD",
      "alert": "OK",
      "vis_m": 6000,
      "fzfg": false,
      "metar_trigger": false,
      "taf_trigger": false,
      "metar": "METAR ENHD 242250Z AUTO 14018KT 6000 RA FEW003/// SCT004/// BKN006/// 04/02 Q1013 REDZRA REDZ",
      "taf": "TAF ENHD 241400Z 2415/2423 14015KT 9999 FEW020"
    },
    {
      "icao": "ENTC",
      "alert": "OK",
      "vis_m": 9999,
      "fzfg": false,
      "metar_trigger": false,
      "taf_trigger": false,
      "metar": "METAR ENTC 242250Z 12002KT CAVOK M08/M10 Q1021 RMK WIND 2600FT 16017KT",
      "taf": "TAF ENTC 241700Z 2418/2518 22004KT 9999 FEW040"
    },
    {
      "icao": "ENTO",
      "alert": "OK",
      "vis_m": 9999,
      "fzfg": false,
      "metar_trigger": false,
      "taf_trigger": false,
      "metar": "METAR ENTO 242250Z AUTO VRB02KT 9999 BKN027/// M01/M05 Q1023",
      "taf": "TAF ENTO 241700Z 2418/2518 02010KT CAVOK"
    },
    {
      "icao": "ENVA",
      "alert": "OK",
      "vis_m": 9999,
      "fzfg": false,
      "metar_trigger": false,
      "taf_trigger": false,
      "metar": "METAR ENVA 242250Z 14018KT CAVOK M00/M09 Q1014 RMK WIND 670FT 16027G39KT",
      "taf": "TAF ENVA 241700Z 2418/2518 12015KT CAVOK"
    },
    {
      "icao": "ENZV",
      "alert": "OK",
      "vis_m": 9999,
      "fzfg": false,
      "metar_trigger": false,
      "taf_trigger": false,
      "metar": "METAR ENZV 242250Z 14018KT 9999 OVC025 04/M00 Q1015",
      "taf": ""
    },
    {
      "icao": "EPGD",
      "alert": "OK",
      "vis_m": 9999,
      "fzfg": false,
      "metar_trigger": false,
      "taf_trigger": false,
      "metar": "METAR EPGD 242300Z 31008KT 9999 -SNRA BKN003 00/M00 Q1019 RESN RERA",
      "taf": "TAF EPGD 241730Z 2418/2518 28010KT 9999 OVC005"
    },
    {
      "icao": "EPKK",
      "alert": "OK",
      "vis_m": 9999,
      "fzfg": false,
      "metar_trigger": false,
      "taf_trigger": false,
      "metar": "METAR EPKK 242300Z 33004KT 9999 BKN030 03/M00 Q1022",
      "taf": "TAF EPKK 242030Z 2421/2521 32004KT 9999 BKN030"
    },
    {
      "icao": "EPKT",
      "alert": "OK",
      "vis_m": 9999,
      "fzfg": false,
      "metar_trigger": false,
      "taf_trigger": false,
      "metar": "METAR EPKT 242300Z 23003KT 9999 FEW016 BKN031 02/01 Q1021",
      "taf": "TAF EPKT 241730Z 2418/2518 29005KT 9999 SCT016 BKN030"
    },
    {
      "icao": "EPLB",
      "alert": "OK",
      "vis_m": 9999,
      "fzfg": false,
      "metar_trigger": false,
      "taf_trigger": false,
      "metar": "METAR EPLB 242300Z 32009KT 300V010 9999 OVC025 00/M03 Q1019",
      "taf": "TAF EPLB 241730Z 2418/2518 32012KT 9999 OVC020"
    },
    {
      "icao": "EPMO",
      "alert": "OK",
      "vis_m": 8000,
      "fzfg": false,
      "metar_trigger": false,
      "taf_trigger": false,
      "metar": "METAR EPMO 242300Z 25003KT 8000 FEW010 BKN016 01/00 Q1020",
      "taf": "TAF EPMO 241730Z 2418/2518 31010KT 9999 BKN020"
    },
    {
      "icao": "EPPO",
      "alert": "OK",
      "vis_m": 9999,
      "fzfg": false,
      "metar_trigger": false,
      "taf_trigger": false,
      "metar": "METAR EPPO 242300Z 26005KT 9999 OVC027 04/01 Q1021",
      "taf": ""
    },
    {
      "icao": "EPRA",
      "alert": "OK",
      "vis_m": 9999,
      "fzfg": false,
      "metar_trigger": false,
      "taf_trigger": false,
      "metar": "METAR EPRA 242300Z 29003KT 9999 BKN023 OVC032 02/M02 Q1020",
      "taf": "TAF EPRA 242030Z 2421/2506 29008KT 9999 BKN020"
    },
    {
      "icao": "EPRZ",
      "alert": "OK",
      "vis_m": 9999,
      "fzfg": false,
      "metar_trigger": false,
      "taf_trigger": false,
      "metar": "METAR EPRZ 242300Z 31009KT 290V350 9999 OVC024 02/M02 Q1021",
      "taf": "TAF EPRZ 241730Z 2418/2518 33010KT 9999 BKN025"
    },
    {
      "icao": "EPSC",
      "alert": "OK",
      "vis_m": 9999,
      "fzfg": false,
      "metar_trigger": false,
      "taf_trigger": false,
      "metar": "METAR EPSC 242300Z 30007KT 9999 OVC003 01/01 Q1022",
      "taf": "TAF EPSC 241730Z 2418/2518 28005KT 9999 BKN010 BKN017"
    },
    {
      "icao": "EPSY",
      "alert": "OK",
      "vis_m": 2800,
      "fzfg": false,
      "metar_trigger": false,
      "taf_trigger": false,
      "metar": "METAR EPSY 242300Z 24004KT 2800 SN BR OVC004 00/00 Q1019",
      "taf": "TAF EPSY 242030Z 2421/2506 30004KT 9999 BKN007 OVC012"
    },
    {
      "icao": "EPWA",
      "alert": "OK",
      "vis_m": 9999,
      "fzfg": false,
      "metar_trigger": false,
      "taf_trigger": false,
      "metar": "METAR EPWA 242300Z 26006KT 9999 BKN020 BKN040 01/00 Q1020 NOSIG",
      "taf": "TAF EPWA 242030Z 2421/2521 29007KT 9999 BKN025"
    },
    {
      "icao": "EPWR",
      "alert": "OK",
      "vis_m": 9999,
      "fzfg": false,
      "metar_trigger": false,
      "taf_trigger": false,
      "metar": "METAR EPWR 242300Z 23003KT 9999 BKN037 04/03 Q1022",
      "taf": "TAF EPWR 242030Z 2421/2521 29005KT 9999 FEW014 BKN035"
    },
    {
      "icao": "ESGG",
      "alert": "OK",
      "vis_m": 9999,
      "fzfg": false,
      "metar_trigger": false,
      "taf_trigger": false,
      "metar": "METAR ESGG 242250Z 08005KT CAVOK M02/M05 Q1022",
      "taf": "TAF ESGG 242030Z 2421/2521 09005KT CAVOK"
    },
    {
      "icao": "ESKN",
      "alert": "OK",
      "vis_m": 9999,
      "fzfg": false,
      "metar_trigger": false,
      "taf_trigger": false,
      "metar": "METAR ESKN 242250Z 36006KT 320V040 9999 OVC015 M02/M05 Q1023",
      "taf": "TAF ESKN 242030Z 2421/2521 36008KT 9999 BKN020"
    },
    {
      "icao": "ESMS",
      "alert": "OK",
      "vis_m": 4100,
      "fzfg": false,
      "metar_trigger": false,
      "taf_trigger": false,
      "metar": "METAR ESMS 242250Z 33004KT 4100 BR OVC002 M01/M01 Q1022",
      "taf": ""
    },
    {
      "icao": "ESSA",
      "alert": "OK",
      "vis_m": 9999,
      "fzfg": false,
      "metar_trigger": false,
      "taf_trigger": false,
      "metar": "METAR ESSA 242250Z 34004KT CAVOK M06/M07 Q1023 TEMPO MIFG",
      "taf": "TAF ESSA 242030Z 2421/2521 36006KT 9999 BKN015"
    },
    {
      "icao": "EYKA",
      "alert": "OK",
      "vis_m": 8000,
      "fzfg": false,
      "metar_trigger": false,
      "taf_trigger": false,
      "metar": "METAR EYKA 242250Z 30003KT 240V340 8000 -SN OVC008 M01/M02 Q1016",
      "taf": "TAF EYKA 242311Z 2500/2524 34008KT 9000 OVC010"
    },
    {
      "icao": "EYPA",
      "alert": "OK",
      "vis_m": 9999,
      "fzfg": false,
      "metar_trigger": false,
      "taf_trigger": false,
      "metar": "METAR EYPA 242250Z 01008KT 310V030 9999 OVC010 M00/M03 Q1018",
      "taf": "TAF EYPA 242310Z 2500/2524 01007KT 9000 BKN015"
    },
    {
      "icao": "EYVI",
      "alert": "OK",
      "vis_m": 9999,
      "fzfg": false,
      "metar_trigger": false,
      "taf_trigger": false,
      "metar": "METAR EYVI 242250Z 32008KT 9999 OVC006 M02/M03 Q1014 TEMPO 3000 SN",
      "taf": "TAF EYVI 242312Z 2500/2524 33010KT 5000 SN BR OVC005"
    },
    {
      "icao": "GCFV",
      "alert": "OK",
      "vis_m": 9999,
      "fzfg": false,
      "metar_trigger": false,
      "taf_trigger": false,
      "metar": "METAR GCFV 242300Z 28014KT CAVOK 23/M10 Q1018",
      "taf": "TAF GCFV 242000Z 2421/2521 31010KT 9999 FEW015 TX22/2514Z TN15/2506Z"
    },
    {
      "icao": "GCLP",
      "alert": "OK",
      "vis_m": 9999,
      "fzfg": false,
      "metar_trigger": false,
      "taf_trigger": false,
      "metar": "METAR GCLP 242300Z VRB01KT CAVOK 19/10 Q1019 NOSIG",
      "taf": "TAF GCLP 242000Z 2421/2521 36007KT 9999 FEW015 TX23/2514Z TN14/2506Z"
    },
    {
      "icao": "GCTS",
      "alert": "OK",
      "vis_m": 9999,
      "fzfg": false,
      "metar_trigger": false,
      "taf_trigger": false,
      "metar": "METAR GCTS 242300Z 08003KT 030V110 CAVOK 20/M02 Q1019 NOSIG",
      "taf": "TAF GCTS 242000Z 2421/2521 VRB05KT CAVOK TX24/2514Z TN14/2506Z"
    },
    {
      "icao": "GMAD",
      "alert": "OK",
      "vis_m": 9999,
      "fzfg": false,
      "metar_trigger": false,
      "taf_trigger": false,
      "metar": "METAR GMAD 242300Z 02004KT CAVOK 12/01 Q1019 NOSIG",
      "taf": "TAF GMAD 241700Z 2418/2524 20008KT CAVOK"
    },
    {
      "icao": "GMMN",
      "alert": "OK",
      "vis_m": 9999,
      "fzfg": false,
      "metar_trigger": false,
      "taf_trigger": false,
      "metar": "METAR GMMN 242300Z 20006KT CAVOK 13/11 Q1019 NOSIG",
      "taf": "TAF GMMN 242300Z 2500/2606 20007KT CAVOK"
    },
    {
      "icao": "GMMX",
      "alert": "OK",
      "vis_m": 9999,
      "fzfg": false,
      "metar_trigger": false,
      "taf_trigger": false,
      "metar": "METAR GMMX 242300Z 23003KT CAVOK 17/05 Q1019 NOSIG",
      "taf": "TAF GMMX 241700Z 2418/2524 06006KT 8000 NSC"
    },
    {
      "icao": "HEGN",
      "alert": "OK",
      "vis_m": 9999,
      "fzfg": false,
      "metar_trigger": false,
      "taf_trigger": false,
      "metar": "METAR HEGN 242300Z 29011KT CAVOK 16/05 Q1019 NOSIG",
      "taf": "TAF HEGN 242300Z 2500/2606 28010KT CAVOK"
    },
    {
      "icao": "HEMA",
      "alert": "OK",
      "vis_m": 9999,
      "fzfg": false,
      "metar_trigger": false,
      "taf_trigger": false,
      "metar": "METAR HEMA 242300Z 31010KT CAVOK 12/08 Q1018 NOSIG",
      "taf": "TAF HEMA 242300Z 2500/2606 26010KT CAVOK"
    },
    {
      "icao": "HESH",
      "alert": "OK",
      "vis_m": 9999,
      "fzfg": false,
      "metar_trigger": false,
      "taf_trigger": false,
      "metar": "METAR HESH 242300Z 28003KT CAVOK 16/05 Q1019 NOSIG",
      "taf": "TAF HESH 242300Z 2500/2606 30010KT CAVOK"
    },
    {
      "icao": "HESX",
      "alert": "OK",
      "vis_m": 9999,
      "fzfg": false,
      "metar_trigger": false,
      "taf_trigger": false,
      "metar": "METAR HESX 242300Z 09003KT CAVOK 11/07 Q1021 NOSIG",
      "taf": "TAF HESX 242300Z 2500/2606 29009KT 9999 SCT020"
    },
    {
      "icao": "LATI",
      "alert": "OK",
      "vis_m": 2500,
      "fzfg": false,
      "metar_trigger": false,
      "taf_trigger": false,
      "metar": "METAR LATI 242250Z 00000KT 2500 BCFG SCT005 06/04 Q1019 TEMPO 0600 FG",
      "taf": "TAF LATI 242300Z 2500/2524 VRB03KT 1500 BCFG NSC TX17/2512Z TN04/2505Z"
    },
    {
      "icao": "LBPD",
      "alert": "OK",
      "vis_m": 9999,
      "fzfg": false,
      "metar_trigger": false,
      "taf_trigger": false,
      "metar": "METAR LBPD 242300Z AUTO 27016KT 9999 FEW064/// 10/01 Q1016",
      "taf": "TAF LBPD 242300Z 2500/2524 32016KT 9999 SCT050 BKN070"
    },
    {
      "icao": "LBSF",
      "alert": "OK",
      "vis_m": 9999,
      "fzfg": false,
      "metar_trigger": false,
      "taf_trigger": false,
      "metar": "METAR LBSF 242300Z AUTO 29010KT 9999 NSC 05/01 Q1018 NOSIG",
      "taf": "TAF LBSF 242300Z 2500/2524 30015KT 9999 SCT030 BKN060"
    },
    {
      "icao": "LBWN",
      "alert": "OK",
      "vis_m": 9999,
      "fzfg": false,
      "metar_trigger": false,
      "taf_trigger": false,
      "metar": "METAR LBWN 242300Z AUTO 34012KT 310V010 9999 BKN016/// BKN029/// 05/02 Q1014 NOSIG",
      "taf": "TAF LBWN 242300Z 2500/2524 30014KT 9999 BKN015 OVC030"
    },
    {
      "icao": "LCLK",
      "alert": "OK",
      "vis_m": 9999,
      "fzfg": false,
      "metar_trigger": false,
      "taf_trigger": false,
      "metar": "METAR LCLK 242300Z 23004KT 190V270 CAVOK 10/07 Q1017 NOSIG",
      "taf": "TAF LCLK 241730Z 2418/2518 27007KT 9999 FEW025"
    },
    {
      "icao": "LCPH",
      "alert": "OK",
      "vis_m": 9999,
      "fzfg": false,
      "metar_trigger": false,
      "taf_trigger": false,
      "metar": "METAR LCPH 242300Z 26010KT 9999 FEW030 BKN040 15/09 Q1017 NOSIG",
      "taf": "TAF LCPH 241730Z 2418/2518 33009KT 9999 FEW020 SCT045"
    },
    {
      "icao": "LEAL",
      "alert": "OK",
      "vis_m": 9999,
      "fzfg": false,
      "metar_trigger": false,
      "taf_trigger": false,
      "metar": "METAR LEAL 242300Z 00000KT CAVOK 10/08 Q1019 NOSIG",
      "taf": "TAF LEAL 241700Z 2418/2518 VRB04KT CAVOK TX21/2512Z TN07/2506Z"
    },
    {
      "icao": "LEBB",
      "alert": "OK",
      "vis_m": 9999,
      "fzfg": false,
      "metar_trigger": false,
      "taf_trigger": false,
      "metar": "METAR LEBB 242300Z AUTO VRB07KT CAVOK 18/04 Q1014",
      "taf": "TAF LEBB 241700Z 2418/2518 20009KT CAVOK TX25/2514Z TN10/2423Z"
    },
    {
      "icao": "LEBL",
      "alert": "OK",
      "vis_m": 1800,
      "fzfg": false,
      "metar_trigger": false,
      "taf_trigger": false,
      "metar": "METAR LEBL 242300Z 24008KT 1800 0700 BR BCFG BKN002 11/11 Q1018 NOSIG",
      "taf": "TAF LEBL 241700Z 2418/2518 22012KT 9999 FEW015 TX18/2513Z TN07/2506Z"
    },
    {
      "icao": "LECH",
      "alert": "OK",
      "vis_m": 9000,
      "fzfg": false,
      "metar_trigger": false,
      "taf_trigger": false,
      "metar": "METAR LECH 242300Z AUTO 18005KT 9000 NCD 10/06 Q1019",
      "taf": ""
    },
    {
      "icao": "LEMD",
      "alert": "OK",
      "vis_m": 9999,
      "fzfg": false,
      "metar_trigger": false,
      "taf_trigger": false,
      "metar": "METAR LEMD 242300Z 34004KT 310V010 CAVOK 08/03 Q1019 NOSIG",
      "taf": "TAF LEMD 241700Z 2418/2524 VRB04KT CAVOK TX23/2515Z TN02/2507Z"
    },
    {
      "icao": "LEMG",
      "alert": "OK",
      "vis_m": 9999,
      "fzfg": false,
      "metar_trigger": false,
      "taf_trigger": false,
      "metar": "METAR LEMG 242300Z 29005KT 9999 SCT006 09/07 Q1019 NOSIG",
      "taf": "TAF LEMG 241700Z 2418/2518 VRB03KT CAVOK TX20/2514Z TN06/2507Z"
    },
    {
      "icao": "LEVC",
      "alert": "OK",
      "vis_m": 8000,
      "fzfg": false,
      "metar_trigger": false,
      "taf_trigger": false,
      "metar": "METAR LEVC 242300Z 27003KT 8000 NSC 08/07 Q1018 NOSIG",
      "taf": "TAF LEVC 241700Z 2418/2518 11007KT CAVOK TX20/2512Z TN07/2506Z"
    },
    {
      "icao": "LEXJ",
      "alert": "OK",
      "vis_m": 8000,
      "fzfg": false,
      "metar_trigger": false,
      "taf_trigger": false,
      "metar": "METAR LEXJ 242300Z AUTO 11001KT 8000 NCD 10/09 Q1013",
      "taf": ""
    },
    {
      "icao": "LEZG",
      "alert": "OK",
      "vis_m": 9999,
      "fzfg": false,
      "metar_trigger": false,
      "taf_trigger": false,
      "metar": "METAR LEZG 242300Z 13003KT 090V160 CAVOK 10/06 Q1018 NOSIG",
      "taf": "TAF LEZG 241700Z 2418/2518 11008KT CAVOK TX21/2515Z TN07/2506Z"
    },
    {
      "icao": "LEZL",
      "alert": "OK",
      "vis_m": 9999,
      "fzfg": false,
      "metar_trigger": false,
      "taf_trigger": false,
      "metar": "METAR LEZL 242300Z 04002KT CAVOK 12/11 Q1018 NOSIG",
      "taf": "TAF LEZL 242000Z 2421/2521 VRB03KT CAVOK TX23/2515Z TN09/2507Z"
    },
    {
      "icao": "LFBD",
      "alert": "OK",
      "vis_m": 9999,
      "fzfg": false,
      "metar_trigger": false,
      "taf_trigger": false,
      "metar": "METAR LFBD 242300Z AUTO 13006KT CAVOK 13/11 Q1014 TEMPO 4000 BR",
      "taf": "TAF LFBD 241700Z 2418/2524 12010KT CAVOK TX20/2515Z TN08/2506Z"
    },
    {
      "icao": "LFLL",
      "alert": "OK",
      "vis_m": 9999,
      "fzfg": false,
      "metar_trigger": false,
      "taf_trigger": false,
      "metar": "METAR LFLL 242300Z 16003KT CAVOK 09/08 Q1019 NOSIG",
      "taf": "TAF LFLL 241700Z 2418/2524 34004KT CAVOK"
    },
    {
      "icao": "LFLS",
      "alert": "OK",
      "vis_m": 9999,
      "fzfg": false,
      "metar_trigger": false,
      "taf_trigger": false,
      "metar": "METAR LFLS 242300Z AUTO VRB03KT 9999 4900 NSC 06/06 Q1019",
      "taf": "TAF LFLS 241400Z 2415/2515 02005KT CAVOK"
    },
    {
      "icao": "LFMN",
      "alert": "OK",
      "vis_m": 9999,
      "fzfg": false,
      "metar_trigger": false,
      "taf_trigger": false,
      "metar": "METAR LFMN 242300Z 08003KT 9999 BKN021 14/10 Q1021 NOSIG",
      "taf": "TAF LFMN 242000Z 2421/2603 33010KT 9999 BKN025"
    },
    {
      "icao": "LFOB",
      "alert": "OK",
      "vis_m": 9000,
      "fzfg": false,
      "metar_trigger": false,
      "taf_trigger": false,
      "metar": "METAR LFOB 242300Z AUTO 12004KT 9000 0650 R30/2500D R12/P5000 BCFG NSC 07/07 Q1018 BECMG 4000 BR",
      "taf": ""
    },
    {
      "icao": "LFPO",
      "alert": "OK",
      "vis_m": 9999,
      "fzfg": false,
      "metar_trigger": false,
      "taf_trigger": false,
      "metar": "METAR LFPO 242300Z 07003KT CAVOK 10/09 Q1018 NOSIG",
      "taf": "TAF LFPO 241700Z 2418/2524 15004KT 9999 FEW020"
    },
    {
      "icao": "LFSB",
      "alert": "OK",
      "vis_m": 2100,
      "fzfg": false,
      "metar_trigger": false,
      "taf_trigger": false,
      "metar": "METAR LFSB 242300Z AUTO 33005KT 2100 0700 R15/1200D R33/1100D BCFG NSC 07/06 Q1021 TEMPO 0300 FG VV///",
      "taf": ""
    },
    {
      "icao": "LGAV",
      "alert": "OK",
      "vis_m": 9999,
      "fzfg": false,
      "metar_trigger": false,
      "taf_trigger": false,
      "metar": "METAR LGAV 242250Z VRB03KT CAVOK 12/06 Q1015 NOSIG",
      "taf": "TAF LGAV 242300Z 2500/2524 29012KT 9999 FEW020"
    },
    {
      "icao": "LGTS",
      "alert": "OK",
      "vis_m": 9999,
      "fzfg": false,
      "metar_trigger": false,
      "taf_trigger": false,
      "metar": "METAR LGTS 242250Z 32017G27KT 9999 FEW025 13/04 Q1017 NOSIG",
      "taf": "TAF LGTS 242300Z 2500/2524 34020G30KT 9999 FEW030"
    },
    {
      "icao": "LHBP",
      "alert": "OK",
      "vis_m": 9999,
      "fzfg": false,
      "metar_trigger": false,
      "taf_trigger": false,
      "metar": "METAR LHBP 242300Z 32007KT CAVOK 03/00 Q1021 NOSIG",
      "taf": "TAF LHBP 241715Z 2418/2518 31011KT CAVOK"
    },
    {
      "icao": "LHDC",
      "alert": "OK",
      "vis_m": 8000,
      "fzfg": false,
      "metar_trigger": false,
      "taf_trigger": false,
      "metar": "METAR LHDC 242245Z AUTO VRB03KT 8000 FEW003 00/00 Q1020",
      "taf": "TAF LHDC 241415Z 2415/2424 31005KT 9999 SCT030 SCT070"
    },
    {
      "icao": "LIBD",
      "alert": "OK",
      "vis_m": 9999,
      "fzfg": false,
      "metar_trigger": false,
      "taf_trigger": false,
      "metar": "METAR LIBD 242250Z 26006KT CAVOK 09/09 Q1021",
      "taf": "TAF LIBD 241700Z 2418/2518 26006KT 9999 FEW010"
    },
    {
      "icao": "LIBG",
      "alert": "OK",
      "vis_m": null,
      "fzfg": false,
      "metar_trigger": false,
      "taf_trigger": false,
      "metar": "",
      "taf": "TAF LIBG 241700Z 2418/2503 VRB05KT 9999 FEW040"
    },
    {
      "icao": "LIBP",
      "alert": "OK",
      "vis_m": 9000,
      "fzfg": false,
      "metar_trigger": false,
      "taf_trigger": false,
      "metar": "METAR LIBP 242250Z AUTO 24005KT 9000 BKN055/// 08/07 Q1022",
      "taf": "TAF LIBP 241700Z 2418/2518 VRB05KT 7000 FEW010"
    },
    {
      "icao": "LIBR",
      "alert": "OK",
      "vis_m": 8000,
      "fzfg": false,
      "metar_trigger": false,
      "taf_trigger": false,
      "metar": "METAR LIBR 242250Z 30006KT 8000 SCT020 11/10 Q1020",
      "taf": "TAF LIBR 241700Z 2418/2518 28006KT 9999 FEW015"
    },
    {
      "icao": "LICA",
      "alert": "OK",
      "vis_m": 9999,
      "fzfg": false,
      "metar_trigger": false,
      "taf_trigger": false,
      "metar": "METAR LICA 242250Z AUTO VRB03KT 9999 NCD 09/08 Q1021",
      "taf": "TAF LICA 241700Z 2418/2518 27012KT 9999 SCT020"
    },
    {
      "icao": "LICC",
      "alert": "OK",
      "vis_m": 9999,
      "fzfg": false,
      "metar_trigger": false,
      "taf_trigger": false,
      "metar": "METAR LICC 242250Z 25003KT CAVOK 10/06 Q1020",
      "taf": "TAF LICC 241700Z 2418/2518 VRB05KT CAVOK"
    },
    {
      "icao": "LICJ",
      "alert": "OK",
      "vis_m": 9999,
      "fzfg": false,
      "metar_trigger": false,
      "taf_trigger": false,
      "metar": "METAR LICJ 242250Z 07008KT CAVOK 13/11 Q1021",
      "taf": "TAF LICJ 241700Z 2418/2518 30010KT CAVOK"
    },
    {
      "icao": "LIMC",
      "alert": "OK",
      "vis_m": 7000,
      "fzfg": false,
      "metar_trigger": false,
      "taf_trigger": false,
      "metar": "METAR LIMC 242250Z 02005KT 7000 NSC 05/04 Q1023 NOSIG",
      "taf": "TAF LIMC 241700Z 2418/2524 13008KT 6000 NSC"
    },
    {
      "icao": "LIME",
      "alert": "OK",
      "vis_m": 7000,
      "fzfg": false,
      "metar_trigger": false,
      "taf_trigger": false,
      "metar": "METAR LIME 242250Z 36004KT 7000 NSC 08/06 Q1023 NOSIG",
      "taf": "TAF LIME 241700Z 2418/2518 14006KT 7000 FEW020"
    },
    {
      "icao": "LIMF",
      "alert": "OK",
      "vis_m": 3500,
      "fzfg": false,
      "metar_trigger": false,
      "taf_trigger": false,
      "metar": "METAR LIMF 242250Z 04004KT 3500 BR BKN010 10/08 Q1023",
      "taf": ""
    },
    {
      "icao": "LIMJ",
      "alert": "OK",
      "vis_m": 9999,
      "fzfg": false,
      "metar_trigger": false,
      "taf_trigger": false,
      "metar": "METAR LIMJ 242250Z AUTO 01002KT 9999 BKN025/// 13/09 Q1021",
      "taf": "TAF LIMJ 241700Z 2418/2518 VRB05KT 9999 BKN030"
    },
    {
      "icao": "LIPE",
      "alert": "OK",
      "vis_m": 5000,
      "fzfg": false,
      "metar_trigger": false,
      "taf_trigger": false,
      "metar": "METAR LIPE 242250Z 05003KT 5000 BR BKN010 11/09 Q1022",
      "taf": "TAF LIPE 241700Z 2418/2518 08007KT 4000 BR BKN010"
    },
    {
      "icao": "LIPH",
      "alert": "OK",
      "vis_m": 4500,
      "fzfg": false,
      "metar_trigger": false,
      "taf_trigger": false,
      "metar": "METAR LIPH 242250Z AUTO 00000KT 4500 BR NCD 07/06 Q1022",
      "taf": "TAF LIPH 241700Z 2418/2518 VRB05KT 6000 SCT030"
    },
    {
      "icao": "LIPQ",
      "alert": "OK",
      "vis_m": 2200,
      "fzfg": false,
      "metar_trigger": false,
      "taf_trigger": false,
      "metar": "METAR LIPQ 242250Z AUTO 36002KT 2200 BR SCT110/// 06/05 Q1023",
      "taf": "TAF LIPQ 241700Z 2418/2518 VRB05KT 9000 FEW060"
    },
    {
      "icao": "LIPR",
      "alert": "OK",
      "vis_m": 9999,
      "fzfg": false,
      "metar_trigger": false,
      "taf_trigger": false,
      "metar": "METAR LIPR 242250Z AUTO VRB02KT 9999 OVC047/// 10/08 Q1022",
      "taf": "TAF LIPR 241700Z 2418/2518 VRB05KT 7000 FEW030"
    },
    {
      "icao": "LIPX",
      "alert": "OK",
      "vis_m": 7000,
      "fzfg": false,
      "metar_trigger": false,
      "taf_trigger": false,
      "metar": "METAR LIPX 242250Z 27003KT 220V340 7000 FEW040 06/05 Q1023",
      "taf": "TAF LIPX 241700Z 2418/2518 11007KT 6000 SCT020"
    },
    {
      "icao": "LIPY",
      "alert": "OK",
      "vis_m": 9999,
      "fzfg": false,
      "metar_trigger": false,
      "taf_trigger": false,
      "metar": "METAR LIPY 242250Z AUTO 18004KT 9999 OVC055/// 11/08 Q1022",
      "taf": "TAF LIPY 241700Z 2418/2518 VRB05KT 7000 FEW030"
    },
    {
      "icao": "LIPZ",
      "alert": "OK",
      "vis_m": 7000,
      "fzfg": false,
      "metar_trigger": false,
      "taf_trigger": false,
      "metar": "METAR LIPZ 242250Z VRB01KT 7000 SCT030 08/06 Q1023 NOSIG",
      "taf": "TAF LIPZ 241700Z 2418/2524 VRB05KT 6000 SCT030"
    },
    {
      "icao": "LIRF",
      "alert": "OK",
      "vis_m": 9999,
      "fzfg": false,
      "metar_trigger": false,
      "taf_trigger": false,
      "metar": "METAR LIRF 242250Z 08005KT 9999 FEW020 09/08 Q1020 NOSIG",
      "taf": "TAF LIRF 241700Z 2418/2524 VRB06KT 9999 SCT030"
    },
    {
      "icao": "LIRN",
      "alert": "OK",
      "vis_m": 9999,
      "fzfg": false,
      "metar_trigger": false,
      "taf_trigger": false,
      "metar": "METAR LIRN 242250Z VRB01KT 9999 BKN035 13/10 Q1021 NOSIG",
      "taf": "TAF LIRN 241700Z 2418/2518 VRB05KT 9999 BKN030"
    },
    {
      "icao": "LIRP",
      "alert": "OK",
      "vis_m": 3000,
      "fzfg": false,
      "metar_trigger": false,
      "taf_trigger": false,
      "metar": "METAR LIRP 242245Z 10002KT 3000 BR SCT003 08/08 Q1021 NOSIG",
      "taf": "TAF LIRP 241700Z 2418/2518 VRB03KT 9999 SCT030"
    },
    {
      "icao": "LIRZ",
      "alert": "OK",
      "vis_m": 9999,
      "fzfg": false,
      "metar_trigger": false,
      "taf_trigger": false,
      "metar": "METAR LIRZ 242250Z AUTO 33005KT 9999 NCD 08/06 Q1021",
      "taf": "TAF LIRZ 241700Z 2418/2518 VRB05KT 6000 SCT030"
    },
    {
      "icao": "LJLJ",
      "alert": "OK",
      "vis_m": 9999,
      "fzfg": false,
      "metar_trigger": false,
      "taf_trigger": false,
      "metar": "METAR LJLJ 242300Z 28003KT 170V290 9999 FEW055 BKN070 06/05 Q1023 NOSIG",
      "taf": "TAF LJLJ 242300Z 2500/2600 VRB02KT 9999 FEW055 BKN070"
    },
    {
      "icao": "LKMT",
      "alert": "OK",
      "vis_m": 9999,
      "fzfg": false,
      "metar_trigger": false,
      "taf_trigger": false,
      "metar": "METAR LKMT 242300Z VRB01KT 9999 -RA BKN015 OVC047 03/03 Q1022 NOSIG",
      "taf": "TAF LKMT 241700Z 2418/2518 34009KT 9999 SCT030"
    },
    {
      "icao": "LKPR",
      "alert": "OK",
      "vis_m": 9999,
      "fzfg": false,
      "metar_trigger": false,
      "taf_trigger": false,
      "metar": "METAR LKPR 242300Z 17005KT 120V190 9999 BKN043 01/00 Q1022 NOSIG",
      "taf": "TAF LKPR 242000Z 2421/2603 24003KT CAVOK"
    },
    {
      "icao": "LLBG",
      "alert": "OK",
      "vis_m": 9999,
      "fzfg": false,
      "metar_trigger": false,
      "taf_trigger": false,
      "metar": "METAR LLBG 242250Z 17005KT 9999 SCT035 14/10 Q1020 NOSIG RMK SCT075",
      "taf": "TAF LLBG 241702Z 2418/2518 VRB04KT 9999 SCT035"
    },
    {
      "icao": "LMML",
      "alert": "OK",
      "vis_m": 9999,
      "fzfg": false,
      "metar_trigger": false,
      "taf_trigger": false,
      "metar": "METAR LMML 242315Z 26010KT CAVOK 13/11 Q1020 NOSIG",
      "taf": "TAF LMML 242300Z 2500/2524 29012KT 9999 FEW015"
    },
    {
      "icao": "LOWW",
      "alert": "OK",
      "vis_m": 9999,
      "fzfg": false,
      "metar_trigger": false,
      "taf_trigger": false,
      "metar": "METAR LOWW 242250Z 29008KT 9999 FEW044 BKN046 06/04 Q1023 NOSIG",
      "taf": "TAF LOWW 242315Z 2500/2606 33004KT CAVOK TX11/2514Z TNM00/2605Z"
    },
    {
      "icao": "LPFR",
      "alert": "OK",
      "vis_m": 9999,
      "fzfg": false,
      "metar_trigger": false,
      "taf_trigger": false,
      "metar": "METAR LPFR 242300Z 04005KT 9999 FEW010 14/13 Q1017",
      "taf": "TAF LPFR 242300Z 2500/2524 06005KT 9999 SCT012"
    },
    {
      "icao": "LPMA",
      "alert": "OK",
      "vis_m": 9999,
      "fzfg": false,
      "metar_trigger": false,
      "taf_trigger": false,
      "metar": "METAR LPMA 242300Z 32006KT 9999 SCT015 16/13 Q1018",
      "taf": "TAF LPMA 242300Z 2500/2524 34008KT 9999 SCT015"
    },
    {
      "icao": "LPPR",
      "alert": "OK",
      "vis_m": 9999,
      "fzfg": false,
      "metar_trigger": false,
      "taf_trigger": false,
      "metar": "METAR LPPR 242300Z 16010KT 9999 FEW042 14/11 Q1014",
      "taf": "TAF LPPR 242300Z 2500/2524 16010KT 9999 SCT012"
    },
    {
      "icao": "LPPS",
      "alert": "OK",
      "vis_m": 9999,
      "fzfg": false,
      "metar_trigger": false,
      "taf_trigger": false,
      "metar": "METAR LPPS 242300Z 29013KT 9999 SCT010 16/15 Q1018",
      "taf": "TAF LPPS 242310Z 2500/2606 31010KT 9999 SCT015"
    },
    {
      "icao": "LPPT",
      "alert": "OK",
      "vis_m": 9999,
      "fzfg": false,
      "metar_trigger": false,
      "taf_trigger": false,
      "metar": "METAR LPPT 242300Z 19006KT 160V220 9999 SCT009 BKN034 14/13 Q1015",
      "taf": "TAF LPPT 242310Z 2500/2606 17008KT 9999 SCT008 BKN015"
    },
    {
      "icao": "LQBK",
      "alert": "OK",
      "vis_m": 9999,
      "fzfg": false,
      "metar_trigger": false,
      "taf_trigger": false,
      "metar": "METAR LQBK 242300Z 14005KT CAVOK 03/02 Q1024 NOSIG",
      "taf": "TAF LQBK 242300Z 2500/2524 15005KT CAVOK TX15/2514Z TN01/2505Z"
    },
    {
      "icao": "LQSA",
      "alert": "OK",
      "vis_m": 9999,
      "fzfg": false,
      "metar_trigger": false,
      "taf_trigger": false,
      "metar": "METAR LQSA 242300Z VRB01KT CAVOK 01/01 Q1023",
      "taf": "TAF LQSA 242300Z 2500/2524 VRB02KT 9999 SCT060 TX13/2514Z TN00/2505Z"
    },
    {
      "icao": "LQTZ",
      "alert": "OK",
      "vis_m": 300,
      "fzfg": false,
      "metar_trigger": false,
      "taf_trigger": false,
      "metar": "METAR LQTZ 242300Z VRB01KT 0300 R09/0325N FG BKN002 02/02 Q1023",
      "taf": "TAF LQTZ 242300Z 2500/2524 27005KT 4000 BR SCT005 TX14/2514Z TNM02/2505Z"
    },
    {
      "icao": "LRBC",
      "alert": "OK",
      "vis_m": 9999,
      "fzfg": false,
      "metar_trigger": false,
      "taf_trigger": false,
      "metar": "METAR LRBC 242300Z 35006KT 9999 BKN045 03/01 Q1016",
      "taf": "TAF LRBC 242000Z 2421/2506 34014KT 9999 BKN050"
    },
    {
      "icao": "LRBS",
      "alert": "OK",
      "vis_m": 8000,
      "fzfg": false,
      "metar_trigger": false,
      "taf_trigger": false,
      "metar": "METAR LRBS 242300Z 00000KT 8000 NSC 03/03 Q1016 NOSIG",
      "taf": "TAF LRBS 241700Z 2418/2518 VRB04KT 9999 BKN045"
    },
    {
      "icao": "LRBV",
      "alert": "OK",
      "vis_m": 9999,
      "fzfg": false,
      "metar_trigger": false,
      "taf_trigger": false,
      "metar": "METAR LRBV 242300Z AUTO 31010KT 9999 FEW015/// BKN021/// BKN026/// 03/01 Q1015",
      "taf": "TAF LRBV 242000Z 2421/2506 30012KT 9999 BKN035"
    },
    {
      "icao": "LRCL",
      "alert": "OK",
      "vis_m": 9999,
      "fzfg": false,
      "metar_trigger": false,
      "taf_trigger": false,
      "metar": "METAR LRCL 242300Z 30012KT CAVOK 04/00 Q1018",
      "taf": "TAF LRCL 242000Z 2421/2506 30009KT 9999 BKN040"
    },
    {
      "icao": "LRCV",
      "alert": "OK",
      "vis_m": 9999,
      "fzfg": false,
      "metar_trigger": false,
      "taf_trigger": false,
      "metar": "METAR LRCV 242300Z 28010KT CAVOK 04/02 Q1016",
      "taf": "TAF LRCV 242000Z 2421/2506 27009KT CAVOK"
    },
    {
      "icao": "LRIA",
      "alert": "OK",
      "vis_m": 9999,
      "fzfg": false,
      "metar_trigger": false,
      "taf_trigger": false,
      "metar": "METAR LRIA 242300Z 31012KT 9999 FEW010 02/01 Q1015",
      "taf": "TAF LRIA 242000Z 2421/2506 32012KT 9999 BKN030"
    },
    {
      "icao": "LROP",
      "alert": "OK",
      "vis_m": 6000,
      "fzfg": false,
      "metar_trigger": false,
      "taf_trigger": false,
      "metar": "METAR LROP 242300Z 21004KT 6000 NSC 02/02 Q1016 NOSIG",
      "taf": "TAF LROP 241700Z 2418/2518 VRB04KT 9999 BKN045"
    },
    {
      "icao": "LRSB",
      "alert": "OK",
      "vis_m": 9999,
      "fzfg": false,
      "metar_trigger": false,
      "taf_trigger": false,
      "metar": "METAR LRSB 242300Z COR 36004KT 9999 SCT040 BKN055 04/02 Q1017",
      "taf": "TAF LRSB 241700Z 2418/2518 28008KT 9999 BKN020 BKN070"
    },
    {
      "icao": "LRSM",
      "alert": "OK",
      "vis_m": 9999,
      "fzfg": false,
      "metar_trigger": false,
      "taf_trigger": false,
      "metar": "METAR LRSM 242300Z AUTO 30008KT 9999 BKN050/// 01/00 Q1019",
      "taf": "TAF LRSM 241400Z 2415/2424 32015KT 9999 SCT040"
    },
    {
      "icao": "LRSV",
      "alert": "OK",
      "vis_m": 9999,
      "fzfg": false,
      "metar_trigger": false,
      "taf_trigger": false,
      "metar": "METAR LRSV 242300Z 30013KT 9999 FEW014 BKN040 02/00 Q1015",
      "taf": "TAF LRSV 242000Z 2421/2506 32015KT 9999 BKN035"
    },
    {
      "icao": "LRTM",
      "alert": "OK",
      "vis_m": 9999,
      "fzfg": false,
      "metar_trigger": false,
      "taf_trigger": false,
      "metar": "METAR LRTM 242300Z AUTO 29008KT 260V320 9999 NCD 04/01 Q1017",
      "taf": "TAF LRTM 241400Z 2415/2424 29010KT 9999 BKN020 BKN040"
    },
    {
      "icao": "LRTR",
      "alert": "OK",
      "vis_m": 9999,
      "fzfg": false,
      "metar_trigger": false,
      "taf_trigger": false,
      "metar": "METAR LRTR 242300Z 29005KT 9999 FEW037 04/04 Q1020",
      "taf": "TAF LRTR 241700Z 2418/2518 VRB04KT 9999 SCT045"
    },
    {
      "icao": "LTAC",
      "alert": "OK",
      "vis_m": 8000,
      "fzfg": false,
      "metar_trigger": false,
      "taf_trigger": false,
      "metar": "METAR LTAC 242250Z 06003KT 8000 BKN040 BKN100 02/00 Q1011 NOSIG RMK RWY21C 05003KT RWY03L 06005KT RWY21R 04003KT RWY03R VRB02KT RWY21L 07003KT",
      "taf": "TAF LTAC 242240Z 2500/2524 VRB02KT 9999 SCT040 BKN100"
    },
    {
      "icao": "LTFM",
      "alert": "OK",
      "vis_m": 9999,
      "fzfg": false,
      "metar_trigger": false,
      "taf_trigger": false,
      "metar": "METAR LTFM 242250Z 21005KT 180V280 9999 BKN028 BKN080 07/05 Q1014 NOSIG RMK RWY17L 21006KT RWY34L 20005KT RWY16R 21006KT RWY36 22007KT 170V240 RWY18 23008KT 180V250",
      "taf": "TAF LTFM 242240Z 2500/2606 27008KT 9999 BKN025 BKN080"
    },
    {
      "icao": "LUKK",
      "alert": "OK",
      "vis_m": 9999,
      "fzfg": false,
      "metar_trigger": false,
      "taf_trigger": false,
      "metar": "METAR LUKK 242300Z 34011KT 9999 -RA OVC010 03/02 Q1013 NOSIG",
      "taf": "TAF LUKK 241711Z 2418/2518 01008KT 9999 BKN015"
    },
    {
      "icao": "LWOH",
      "alert": "OK",
      "vis_m": null,
      "fzfg": false,
      "metar_trigger": false,
      "taf_trigger": false,
      "metar": "",
      "taf": ""
    },
    {
      "icao": "LWSK",
      "alert": "OK",
      "vis_m": null,
      "fzfg": false,
      "metar_trigger": false,
      "taf_trigger": false,
      "metar": "",
      "taf": ""
    },
    {
      "icao": "LYBE",
      "alert": "OK",
      "vis_m": 9999,
      "fzfg": false,
      "metar_trigger": false,
      "taf_trigger": false,
      "metar": "METAR LYBE 242300Z 29008KT CAVOK 04/01 Q1022 NOSIG",
      "taf": "TAF LYBE 241700Z 2418/2518 28007KT CAVOK TX12/2513Z TN01/2506Z"
    },
    {
      "icao": "LYNI",
      "alert": "OK",
      "vis_m": 9999,
      "fzfg": false,
      "metar_trigger": false,
      "taf_trigger": false,
      "metar": "METAR LYNI 242300Z VRB02KT 9999 BKN033 05/04 Q1020 NOSIG",
      "taf": "TAF LYNI 241700Z 2418/2518 27006KT 9999 FEW017 BKN027 TX12/2514Z TN03/2506Z"
    },
    {
      "icao": "LYPG",
      "alert": "OK",
      "vis_m": 9999,
      "fzfg": false,
      "metar_trigger": false,
      "taf_trigger": false,
      "metar": "METAR LYPG 242300Z 35006KT 320V070 CAVOK 11/01 Q1020 NOSIG",
      "taf": "TAF LYPG 241700Z 2418/2518 34010KT CAVOK TX16/2513Z TN07/2420Z"
    },
    {
      "icao": "LZIB",
      "alert": "OK",
      "vis_m": 9999,
      "fzfg": false,
      "metar_trigger": false,
      "taf_trigger": false,
      "metar": "METAR LZIB 242300Z 34005KT CAVOK 06/02 Q1023 NOSIG",
      "taf": "TAF LZIB 242315Z 2500/2600 28005KT CAVOK"
    },
    {
      "icao": "LZKZ",
      "alert": "OK",
      "vis_m": 9999,
      "fzfg": false,
      "metar_trigger": false,
      "taf_trigger": false,
      "metar": "METAR LZKZ 242300Z 04007KT 9999 BKN045 05/01 Q1019 NOSIG",
      "taf": "TAF LZKZ 242315Z 2500/2600 01009KT 9999 SCT040"
    },
    {
      "icao": "LZTT",
      "alert": "OK",
      "vis_m": 9999,
      "fzfg": false,
      "metar_trigger": false,
      "taf_trigger": false,
      "metar": "METAR LZTT 242300Z VRB02KT 9999 FEW033 M00/M02 Q1018",
      "taf": "TAF LZTT 242315Z 2500/2600 27005KT 9999 BKN040"
    },
    {
      "icao": "OEJN",
      "alert": "OK",
      "vis_m": 9999,
      "fzfg": false,
      "metar_trigger": false,
      "taf_trigger": false,
      "metar": "METAR OEJN 242300Z 36006KT CAVOK 21/12 Q1014 NOSIG",
      "taf": "TAF OEJN 242300Z 2500/2606 06008KT CAVOK"
    },
    {
      "icao": "OEMA",
      "alert": "OK",
      "vis_m": 9999,
      "fzfg": false,
      "metar_trigger": false,
      "taf_trigger": false,
      "metar": "METAR OEMA 242300Z 02005KT CAVOK 17/M05 Q1019 NOSIG",
      "taf": "TAF OEMA 242300Z 2500/2606 09012KT 7000 NSC"
    },
    {
      "icao": "OJAI",
      "alert": "OK",
      "vis_m": 6000,
      "fzfg": false,
      "metar_trigger": false,
      "taf_trigger": false,
      "metar": "METAR OJAI 242300Z 00000KT 6000 BKN025 05/05 Q1021 NOSIG",
      "taf": "TAF OJAI 242247Z 2500/2606 27010KT 4000 BR SCT035"
    },
    {
      "icao": "OMAA",
      "alert": "OK",
      "vis_m": 6000,
      "fzfg": false,
      "metar_trigger": false,
      "taf_trigger": false,
      "metar": "METAR OMAA 242300Z VRB03KT 6000 NSC 21/14 Q1011 NOSIG",
      "taf": "TAF OMAA 242300Z 2500/2606 14006KT 7000 NSC"
    },
    {
      "icao": "OMDB",
      "alert": "OK",
      "vis_m": 6000,
      "fzfg": false,
      "metar_trigger": false,
      "taf_trigger": false,
      "metar": "METAR OMDB 242300Z VRB02KT 6000 NSC 23/16 Q1011 BECMG 4000 HZ",
      "taf": "TAF OMDB 242300Z 2500/2606 14005KT 6000 NSC"
    },
    {
      "icao": "UAAA",
      "alert": "OK",
      "vis_m": 1100,
      "fzfg": false,
      "metar_trigger": false,
      "taf_trigger": false,
      "metar": "METAR UAAA 242300Z 02002MPS 1100 R23L/P2000 SHSN BR SCT011 BKN026CB OVC100 M03/M04 Q1021 NOSIG",
      "taf": "TAF UAAA 241700Z 2418/2518 22003MPS 1300 -SHSN BR FEW005 BKN011CB OVC050 TXM01/2509Z TNM06/2502Z"
    },
    {
      "icao": "UBBB",
      "alert": "OK",
      "vis_m": 9999,
      "fzfg": false,
      "metar_trigger": false,
      "taf_trigger": false,
      "metar": "METAR UBBB 242300Z 00000KT 9999 OVC014 06/04 Q1014 NOSIG",
      "taf": "TAF UBBB 242305Z 2500/2524 VRB04KT 9999 BKN012 BKN030 TX08/2511Z TN04/2502Z"
    },
    {
      "icao": "UDSG",
      "alert": "OK",
      "vis_m": 9999,
      "fzfg": false,
      "metar_trigger": false,
      "taf_trigger": false,
      "metar": "METAR UDSG 242300Z 08004KT 9999 NSC M04/M05 Q1014 NOSIG",
      "taf": "TAF UDSG 241658Z 2418/2518 VRB06KT 9999 FEW040"
    },
    {
      "icao": "UDYZ",
      "alert": "OK",
      "vis_m": 9999,
      "fzfg": false,
      "metar_trigger": false,
      "taf_trigger": false,
      "metar": "METAR UDYZ 242300Z VRB01KT 9999 NSC 00/M02 Q1013 NOSIG",
      "taf": "TAF UDYZ 241700Z 2418/2518 03006KT 9999 FEW040"
    },
    {
      "icao": "UGKO",
      "alert": "OK",
      "vis_m": 9999,
      "fzfg": false,
      "metar_trigger": false,
      "taf_trigger": false,
      "metar": "METAR UGKO 242300Z VRB02KT 9999 BKN078 04/03 Q1015 NOSIG",
      "taf": "TAF UGKO 242300Z 2500/2524 26007KT 9999 SCT023 OVC050 TX17/2511Z TN03/2502Z"
    }
  ]
}