{
  "ts_utc": "2026-07-14T18:47:03Z",
  "threshold_m": 150,
  "source": "stations_override.txt (ICAO list) + aviationweather.gov (METAR/TAF raw)",
  "station_count": 159,
  "stations": [
    {
      "icao": "BIKF",
      "alert": "OK",
      "vis_m": 5000,
      "fzfg": false,
      "metar_trigger": false,
      "taf_trigger": false,
      "metar": "METAR BIKF 141830Z 16020KT 5000 -DZ BR OVC003 11/11 Q1017",
      "taf": "TAF BIKF 141653Z 1418/1518 17022KT 4000 RADZ BKN004 OVC010 TX12/1515Z TN10/1503Z"
    },
    {
      "icao": "BKPR",
      "alert": "OK",
      "vis_m": 9999,
      "fzfg": false,
      "metar_trigger": false,
      "taf_trigger": false,
      "metar": "METAR BKPR 141830Z 33006KT CAVOK 26/14 Q1019 NOSIG",
      "taf": "TAF BKPR 141730Z 1418/1518 02006KT 9999 FEW050"
    },
    {
      "icao": "EBCI",
      "alert": "OK",
      "vis_m": 9999,
      "fzfg": false,
      "metar_trigger": false,
      "taf_trigger": false,
      "metar": "METAR EBCI 141820Z 04012KT CAVOK 28/12 Q1018 NOSIG",
      "taf": "TAF EBCI 141700Z 1418/1524 04010KT CAVOK"
    },
    {
      "icao": "EDDB",
      "alert": "OK",
      "vis_m": 9999,
      "fzfg": false,
      "metar_trigger": false,
      "taf_trigger": false,
      "metar": "METAR EDDB 141820Z AUTO 06004KT CAVOK 23/12 Q1019 NOSIG",
      "taf": "TAF EDDB 141700Z 1418/1518 VRB03KT CAVOK"
    },
    {
      "icao": "EDDH",
      "alert": "OK",
      "vis_m": 9999,
      "fzfg": false,
      "metar_trigger": false,
      "taf_trigger": false,
      "metar": "METAR EDDH 141820Z AUTO 05008KT CAVOK 24/11 Q1021 NOSIG",
      "taf": "TAF EDDH 141700Z 1418/1524 05010KT CAVOK"
    },
    {
      "icao": "EDDK",
      "alert": "OK",
      "vis_m": 9999,
      "fzfg": false,
      "metar_trigger": false,
      "taf_trigger": false,
      "metar": "METAR EDDK 141820Z AUTO 02008KT CAVOK 28/12 Q1017 NOSIG",
      "taf": "TAF EDDK 141700Z 1418/1524 03009KT CAVOK"
    },
    {
      "icao": "EDDN",
      "alert": "OK",
      "vis_m": 9999,
      "fzfg": false,
      "metar_trigger": false,
      "taf_trigger": false,
      "metar": "METAR EDDN 141820Z AUTO 03005KT 330V080 9999 SHRA FEW///CB 19/18 Q1018 TEMPO 36015G25KT 4000 TSRA",
      "taf": "TAF EDDN 141700Z 1418/1518 04010KT CAVOK"
    },
    {
      "icao": "EDDS",
      "alert": "OK",
      "vis_m": 9999,
      "fzfg": false,
      "metar_trigger": false,
      "taf_trigger": false,
      "metar": "METAR EDDS 141820Z AUTO 34009KT 320V020 CAVOK 30/13 Q1016 NOSIG",
      "taf": "TAF EDDS 141700Z 1418/1518 33007KT 9999 FEW040"
    },
    {
      "icao": "EDFH",
      "alert": "OK",
      "vis_m": 9999,
      "fzfg": false,
      "metar_trigger": false,
      "taf_trigger": false,
      "metar": "METAR EDFH 141820Z VRB02KT CAVOK 20/18 Q1018",
      "taf": "TAF EDFH 141700Z 1418/1518 04008KT 9999 FEW040"
    },
    {
      "icao": "EDJA",
      "alert": "OK",
      "vis_m": 1400,
      "fzfg": false,
      "metar_trigger": false,
      "taf_trigger": false,
      "metar": "METAR EDJA 141820Z 25019G38KT 200V290 2300E 1400 R24/P2000N TSGRRA FEW036CB 19/14 Q1018",
      "taf": "TAF EDJA 141700Z 1418/1503 VRB03KT CAVOK"
    },
    {
      "icao": "EDLW",
      "alert": "OK",
      "vis_m": 9999,
      "fzfg": false,
      "metar_trigger": false,
      "taf_trigger": false,
      "metar": "METAR EDLW 141820Z 05009KT 020V080 CAVOK 26/14 Q1018",
      "taf": "TAF EDLW 141700Z 1418/1518 05008KT CAVOK"
    },
    {
      "icao": "EDNY",
      "alert": "OK",
      "vis_m": 9999,
      "fzfg": false,
      "metar_trigger": false,
      "taf_trigger": false,
      "metar": "METAR EDNY 141820Z COR VRB03KT 9999 BKN088CB 22/19 Q1016",
      "taf": "TAF EDNY 141700Z 1418/1503 VRB03KT CAVOK"
    },
    {
      "icao": "EDSB",
      "alert": "OK",
      "vis_m": 9999,
      "fzfg": false,
      "metar_trigger": false,
      "taf_trigger": false,
      "metar": "METAR EDSB 141820Z 01005KT CAVOK 31/16 Q1014",
      "taf": "TAF EDSB 141700Z 1418/1518 02006KT 9999 FEW040"
    },
    {
      "icao": "EETN",
      "alert": "OK",
      "vis_m": 9999,
      "fzfg": false,
      "metar_trigger": false,
      "taf_trigger": false,
      "metar": "METAR EETN 141820Z 31003KT CAVOK 19/14 Q1019 NOSIG",
      "taf": "TAF EETN 141730Z 1418/1518 29006KT CAVOK"
    },
    {
      "icao": "EFTU",
      "alert": "OK",
      "vis_m": 9999,
      "fzfg": false,
      "metar_trigger": false,
      "taf_trigger": false,
      "metar": "METAR EFTU 141820Z AUTO 31005KT CAVOK 20/12 Q1020",
      "taf": "TAF EFTU 141724Z 1418/1518 32006KT CAVOK"
    },
    {
      "icao": "EGBB",
      "alert": "OK",
      "vis_m": 9999,
      "fzfg": false,
      "metar_trigger": false,
      "taf_trigger": false,
      "metar": "METAR EGBB 141820Z 07012KT CAVOK 24/15 Q1023",
      "taf": "TAF EGBB 141656Z 1418/1518 04010KT 9999 SCT020"
    },
    {
      "icao": "EGGP",
      "alert": "OK",
      "vis_m": 9999,
      "fzfg": false,
      "metar_trigger": false,
      "taf_trigger": false,
      "metar": "METAR EGGP 141820Z 09009KT CAVOK 25/12 Q1023",
      "taf": "TAF EGGP 141655Z 1418/1518 09008KT 9999 FEW045"
    },
    {
      "icao": "EGGW",
      "alert": "OK",
      "vis_m": 9999,
      "fzfg": false,
      "metar_trigger": false,
      "taf_trigger": false,
      "metar": "METAR EGGW 141820Z AUTO 03013KT 360V060 9999 NCD 23/16 Q1022",
      "taf": "TAF EGGW 141700Z 1418/1518 04012KT 9999 FEW025"
    },
    {
      "icao": "EGKK",
      "alert": "OK",
      "vis_m": 9999,
      "fzfg": false,
      "metar_trigger": false,
      "taf_trigger": false,
      "metar": "METAR EGKK 141820Z 06012KT CAVOK 26/13 Q1020",
      "taf": "TAF EGKK 141701Z 1418/1524 05012KT 9999 FEW035"
    },
    {
      "icao": "EGNM",
      "alert": "OK",
      "vis_m": 9999,
      "fzfg": false,
      "metar_trigger": false,
      "taf_trigger": false,
      "metar": "METAR EGNM 141820Z 06009KT 030V090 CAVOK 19/13 Q1026",
      "taf": "TAF EGNM 141656Z 1418/1518 04009KT 9999 FEW035"
    },
    {
      "icao": "EGPD",
      "alert": "OK",
      "vis_m": 9999,
      "fzfg": false,
      "metar_trigger": false,
      "taf_trigger": false,
      "metar": "METAR EGPD 141820Z AUTO 14005KT 100V190 9999 OVC010 14/11 Q1028",
      "taf": "TAF EGPD 141703Z 1418/1518 09010KT 9999 SCT014"
    },
    {
      "icao": "EGPF",
      "alert": "OK",
      "vis_m": 9999,
      "fzfg": false,
      "metar_trigger": false,
      "taf_trigger": false,
      "metar": "METAR EGPF 141820Z AUTO 06013KT 9999 NCD 19/12 Q1027",
      "taf": "TAF EGPF 141649Z 1418/1518 07008KT 9999 FEW020"
    },
    {
      "icao": "EHBK",
      "alert": "OK",
      "vis_m": 9999,
      "fzfg": false,
      "metar_trigger": false,
      "taf_trigger": false,
      "metar": "METAR EHBK 141825Z AUTO 04012KT 010V070 9999 NCD 28/12 Q1018 NOSIG",
      "taf": "TAF EHBK 141713Z 1418/1524 05010KT CAVOK"
    },
    {
      "icao": "EHEH",
      "alert": "OK",
      "vis_m": 9999,
      "fzfg": false,
      "metar_trigger": false,
      "taf_trigger": false,
      "metar": "METAR EHEH 141825Z AUTO 04008KT 010V080 9999 NCD 28/12 Q1018 BLU TEMPO 05010G20KT",
      "taf": "TAF EHEH 141721Z 1418/1524 03010KT CAVOK"
    },
    {
      "icao": "EKBI",
      "alert": "OK",
      "vis_m": 9999,
      "fzfg": false,
      "metar_trigger": false,
      "taf_trigger": false,
      "metar": "METAR EKBI 141820Z AUTO 09005KT 9999 NCD 24/12 Q1023",
      "taf": "TAF EKBI 141727Z 1418/1518 36005KT CAVOK"
    },
    {
      "icao": "EKCH",
      "alert": "OK",
      "vis_m": 9999,
      "fzfg": false,
      "metar_trigger": false,
      "taf_trigger": false,
      "metar": "METAR EKCH 141820Z AUTO 35008KT 310V030 9999 NCD 24/10 Q1022 NOSIG",
      "taf": "TAF EKCH 141727Z 1418/1518 35014KT CAVOK"
    },
    {
      "icao": "ENAL",
      "alert": "OK",
      "vis_m": 9999,
      "fzfg": false,
      "metar_trigger": false,
      "taf_trigger": false,
      "metar": "METAR ENAL 141820Z 05011KT 9999 SCT010 13/11 Q1027",
      "taf": "TAF ENAL 141700Z 1418/1503 04009KT 9999 SCT011"
    },
    {
      "icao": "ENBR",
      "alert": "OK",
      "vis_m": 9999,
      "fzfg": false,
      "metar_trigger": false,
      "taf_trigger": false,
      "metar": "METAR ENBR 141820Z 32009KT CAVOK 17/12 Q1025 NOSIG RMK WIND 1200FT 32003KT",
      "taf": "TAF ENBR 141700Z 1418/1518 33008KT CAVOK"
    },
    {
      "icao": "ENGM",
      "alert": "OK",
      "vis_m": 9999,
      "fzfg": false,
      "metar_trigger": false,
      "taf_trigger": false,
      "metar": "METAR ENGM 141820Z 34002KT CAVOK 27/07 Q1023 NOSIG",
      "taf": "TAF ENGM 141700Z 1418/1518 02005KT CAVOK"
    },
    {
      "icao": "ENHD",
      "alert": "OK",
      "vis_m": 9999,
      "fzfg": false,
      "metar_trigger": false,
      "taf_trigger": false,
      "metar": "METAR ENHD 141820Z 35011KT CAVOK 14/11 Q1025",
      "taf": "TAF ENHD 141400Z 1415/1422 34012KT CAVOK"
    },
    {
      "icao": "ENTC",
      "alert": "OK",
      "vis_m": 9999,
      "fzfg": false,
      "metar_trigger": false,
      "taf_trigger": false,
      "metar": "METAR ENTC 141820Z 20008KT 9999 -DZRA BKN035 BKN044 09/06 Q1020 NOSIG RMK WIND 2600FT 24008KT",
      "taf": "TAF ENTC 141700Z 1418/1518 19006KT 9999 -DZ SCT010 BKN020"
    },
    {
      "icao": "ENTO",
      "alert": "OK",
      "vis_m": 9999,
      "fzfg": false,
      "metar_trigger": false,
      "taf_trigger": false,
      "metar": "METAR ENTO 141820Z 20006KT CAVOK 24/14 Q1023 NOSIG",
      "taf": "TAF ENTO 141700Z 1418/1518 18010KT CAVOK"
    },
    {
      "icao": "ENVA",
      "alert": "OK",
      "vis_m": 9999,
      "fzfg": false,
      "metar_trigger": false,
      "taf_trigger": false,
      "metar": "METAR ENVA 141820Z 27007KT CAVOK 18/13 Q1026 NOSIG RMK WIND 670FT 29007KT",
      "taf": "TAF ENVA 141700Z 1418/1518 27009KT CAVOK"
    },
    {
      "icao": "ENZV",
      "alert": "OK",
      "vis_m": 9999,
      "fzfg": false,
      "metar_trigger": false,
      "taf_trigger": false,
      "metar": "METAR ENZV 141820Z 29007KT CAVOK 18/13 Q1025 NOSIG",
      "taf": "TAF ENZV 141700Z 1418/1518 30008KT CAVOK"
    },
    {
      "icao": "EPGD",
      "alert": "OK",
      "vis_m": 9999,
      "fzfg": false,
      "metar_trigger": false,
      "taf_trigger": false,
      "metar": "METAR EPGD 141830Z 04005KT 010V070 CAVOK 16/11 Q1022",
      "taf": "TAF EPGD 141730Z 1418/1518 01010KT CAVOK"
    },
    {
      "icao": "EPKK",
      "alert": "OK",
      "vis_m": 9999,
      "fzfg": false,
      "metar_trigger": false,
      "taf_trigger": false,
      "metar": "METAR EPKK 141830Z 02004KT CAVOK 22/16 Q1018",
      "taf": "TAF EPKK 141730Z 1418/1518 05006KT CAVOK"
    },
    {
      "icao": "EPKT",
      "alert": "OK",
      "vis_m": 9999,
      "fzfg": false,
      "metar_trigger": false,
      "taf_trigger": false,
      "metar": "METAR EPKT 141830Z 06008KT 030V100 9999 TS FEW015 SCT040CB 22/19 Q1018",
      "taf": "TAF EPKT 141730Z 1418/1518 12006KT CAVOK"
    },
    {
      "icao": "EPLB",
      "alert": "OK",
      "vis_m": 9999,
      "fzfg": false,
      "metar_trigger": false,
      "taf_trigger": false,
      "metar": "METAR EPLB 141830Z 35004KT CAVOK 25/18 Q1018",
      "taf": "TAF EPLB 141730Z 1418/1518 36006KT CAVOK"
    },
    {
      "icao": "EPMO",
      "alert": "OK",
      "vis_m": 9999,
      "fzfg": false,
      "metar_trigger": false,
      "taf_trigger": false,
      "metar": "METAR EPMO 141830Z 36005KT 320V020 CAVOK 23/12 Q1019",
      "taf": "TAF EPMO 141730Z 1418/1518 02010KT CAVOK"
    },
    {
      "icao": "EPPO",
      "alert": "OK",
      "vis_m": 9999,
      "fzfg": false,
      "metar_trigger": false,
      "taf_trigger": false,
      "metar": "METAR EPPO 141830Z 02004KT CAVOK 23/10 Q1019",
      "taf": ""
    },
    {
      "icao": "EPRA",
      "alert": "OK",
      "vis_m": 9999,
      "fzfg": false,
      "metar_trigger": false,
      "taf_trigger": false,
      "metar": "METAR EPRA 141830Z 30004KT 260V340 9999 FEW050CB 22/15 Q1018",
      "taf": "TAF EPRA 141730Z 1418/1503 21008KT 9999 SCT040CB"
    },
    {
      "icao": "EPRZ",
      "alert": "OK",
      "vis_m": 9999,
      "fzfg": false,
      "metar_trigger": false,
      "taf_trigger": false,
      "metar": "METAR EPRZ 141830Z 14003KT CAVOK 19/18 Q1018",
      "taf": "TAF EPRZ 141730Z 1418/1518 VRB02KT CAVOK"
    },
    {
      "icao": "EPSC",
      "alert": "OK",
      "vis_m": 9999,
      "fzfg": false,
      "metar_trigger": false,
      "taf_trigger": false,
      "metar": "METAR EPSC 141830Z 36005KT 330V030 CAVOK 20/10 Q1021",
      "taf": "TAF EPSC 141730Z 1418/1518 02010KT CAVOK"
    },
    {
      "icao": "EPSY",
      "alert": "OK",
      "vis_m": 9999,
      "fzfg": false,
      "metar_trigger": false,
      "taf_trigger": false,
      "metar": "METAR EPSY 141830Z 35005KT CAVOK 19/13 Q1020",
      "taf": "TAF EPSY 141730Z 1418/1503 01006KT CAVOK"
    },
    {
      "icao": "EPWA",
      "alert": "OK",
      "vis_m": 9999,
      "fzfg": false,
      "metar_trigger": false,
      "taf_trigger": false,
      "metar": "METAR EPWA 141830Z 35008KT CAVOK 25/13 Q1019 NOSIG",
      "taf": "TAF EPWA 141730Z 1418/1518 02010KT CAVOK"
    },
    {
      "icao": "EPWR",
      "alert": "OK",
      "vis_m": 9999,
      "fzfg": false,
      "metar_trigger": false,
      "taf_trigger": false,
      "metar": "METAR EPWR 141830Z 30006KT CAVOK 23/18 Q1018",
      "taf": "TAF EPWR 141730Z 1418/1518 04008KT 9999 SCT040"
    },
    {
      "icao": "ESGG",
      "alert": "OK",
      "vis_m": 9999,
      "fzfg": false,
      "metar_trigger": false,
      "taf_trigger": false,
      "metar": "METAR ESGG 141820Z 32008KT CAVOK 24/12 Q1022",
      "taf": "TAF ESGG 141730Z 1418/1518 32008KT CAVOK"
    },
    {
      "icao": "ESKN",
      "alert": "OK",
      "vis_m": 9999,
      "fzfg": false,
      "metar_trigger": false,
      "taf_trigger": false,
      "metar": "METAR ESKN 141820Z 14005KT CAVOK 22/10 Q1022",
      "taf": "TAF ESKN 141730Z 1418/1518 14008KT CAVOK"
    },
    {
      "icao": "ESMS",
      "alert": "OK",
      "vis_m": 9999,
      "fzfg": false,
      "metar_trigger": false,
      "taf_trigger": false,
      "metar": "METAR ESMS 141820Z 29009KT CAVOK 24/12 Q1021",
      "taf": "TAF ESMS 141727Z 1418/1518 34006KT CAVOK"
    },
    {
      "icao": "ESSA",
      "alert": "OK",
      "vis_m": 9999,
      "fzfg": false,
      "metar_trigger": false,
      "taf_trigger": false,
      "metar": "METAR ESSA 141820Z 13006KT CAVOK 23/09 Q1021 NOSIG",
      "taf": "TAF ESSA 141730Z 1418/1518 04006KT CAVOK"
    },
    {
      "icao": "EYKA",
      "alert": "OK",
      "vis_m": 9999,
      "fzfg": false,
      "metar_trigger": false,
      "taf_trigger": false,
      "metar": "METAR EYKA 141820Z 34003KT CAVOK 22/18 Q1018",
      "taf": "TAF EYKA 141714Z 1418/1518 36005KT 9000 SCT030"
    },
    {
      "icao": "EYPA",
      "alert": "OK",
      "vis_m": 9999,
      "fzfg": false,
      "metar_trigger": false,
      "taf_trigger": false,
      "metar": "METAR EYPA 141820Z 35003KT 300V050 CAVOK 18/16 Q1019",
      "taf": "TAF EYPA 141702Z 1418/1518 VRB03KT 6000 FEW030"
    },
    {
      "icao": "EYVI",
      "alert": "OK",
      "vis_m": 9999,
      "fzfg": false,
      "metar_trigger": false,
      "taf_trigger": false,
      "metar": "METAR EYVI 141820Z 33004KT CAVOK 22/15 Q1018 NOSIG",
      "taf": "TAF EYVI 141725Z 1418/1518 VRB03KT 9000 FEW030"
    },
    {
      "icao": "GCFV",
      "alert": "OK",
      "vis_m": 9999,
      "fzfg": false,
      "metar_trigger": false,
      "taf_trigger": false,
      "metar": "METAR GCFV 141830Z 05011KT 9999 FEW020 25/19 Q1017",
      "taf": "TAF GCFV 141400Z 1415/1515 04012KT 9999 FEW020 TX28/1514Z TN22/1506Z"
    },
    {
      "icao": "GCLP",
      "alert": "OK",
      "vis_m": 9999,
      "fzfg": false,
      "metar_trigger": false,
      "taf_trigger": false,
      "metar": "METAR GCLP 141830Z 03020KT 9999 FEW035 25/19 Q1016 NOSIG",
      "taf": "TAF GCLP 141400Z 1415/1515 03015KT 9999 FEW025 TX29/1514Z TN21/1506Z"
    },
    {
      "icao": "GCTS",
      "alert": "OK",
      "vis_m": 9999,
      "fzfg": false,
      "metar_trigger": false,
      "taf_trigger": false,
      "metar": "METAR GCTS 141830Z 09014KT CAVOK 26/19 Q1016 WS R07 NOSIG",
      "taf": "TAF GCTS 141400Z 1415/1515 12012KT 9999 FEW035 TX30/1514Z TN21/1506Z"
    },
    {
      "icao": "GMAD",
      "alert": "OK",
      "vis_m": 9999,
      "fzfg": false,
      "metar_trigger": false,
      "taf_trigger": false,
      "metar": "METAR GMAD 141830Z 20009KT CAVOK 29/13 Q1014 NOSIG",
      "taf": "TAF GMAD 141700Z 1418/1524 20008KT 8000 NSC"
    },
    {
      "icao": "GMMN",
      "alert": "OK",
      "vis_m": 9999,
      "fzfg": false,
      "metar_trigger": false,
      "taf_trigger": false,
      "metar": "METAR GMMN 141830Z 01012KT 340V060 CAVOK 25/19 Q1017 NOSIG",
      "taf": "TAF GMMN 141700Z 1418/1524 36012KT CAVOK"
    },
    {
      "icao": "GMMX",
      "alert": "OK",
      "vis_m": 9999,
      "fzfg": false,
      "metar_trigger": false,
      "taf_trigger": false,
      "metar": "METAR GMMX 141830Z 01005KT 330V070 9999 SCT030 37/16 Q1015 NOSIG",
      "taf": "TAF GMMX 141700Z 1418/1524 24006KT 8000 SCT033 SCT100"
    },
    {
      "icao": "HEGN",
      "alert": "OK",
      "vis_m": 9999,
      "fzfg": false,
      "metar_trigger": false,
      "taf_trigger": false,
      "metar": "METAR HEGN 141800Z 34010KT CAVOK 33/10 Q1005 NOSIG",
      "taf": "TAF HEGN 141700Z 1418/1524 33015KT CAVOK"
    },
    {
      "icao": "HEMA",
      "alert": "OK",
      "vis_m": 9999,
      "fzfg": false,
      "metar_trigger": false,
      "taf_trigger": false,
      "metar": "METAR HEMA 141800Z 20002KT CAVOK 31/06 Q1005 NOSIG",
      "taf": "TAF HEMA 141700Z 1418/1524 34015KT CAVOK"
    },
    {
      "icao": "HESH",
      "alert": "OK",
      "vis_m": 9999,
      "fzfg": false,
      "metar_trigger": false,
      "taf_trigger": false,
      "metar": "METAR HESH 141800Z 01004KT CAVOK 35/09 Q1004 NOSIG",
      "taf": "TAF HESH 141700Z 1418/1524 35010KT CAVOK"
    },
    {
      "icao": "HESX",
      "alert": "OK",
      "vis_m": 9999,
      "fzfg": false,
      "metar_trigger": false,
      "taf_trigger": false,
      "metar": "METAR HESX 141800Z 33013KT CAVOK 29/20 Q1009 NOSIG",
      "taf": "TAF HESX 141700Z 1418/1524 35012KT CAVOK"
    },
    {
      "icao": "LATI",
      "alert": "OK",
      "vis_m": null,
      "fzfg": false,
      "metar_trigger": false,
      "taf_trigger": false,
      "metar": "",
      "taf": "TAF LATI 141700Z 1418/1518 VRB05KT CAVOK TX35/1512Z TN19/1504Z"
    },
    {
      "icao": "LBPD",
      "alert": "OK",
      "vis_m": 9999,
      "fzfg": false,
      "metar_trigger": false,
      "taf_trigger": false,
      "metar": "METAR LBPD 141830Z AUTO 15003KT 130V210 9999 SCT093/// 25/13 Q1016 NOSIG",
      "taf": "TAF LBPD 141700Z 1418/1518 01010KT CAVOK"
    },
    {
      "icao": "LBSF",
      "alert": "OK",
      "vis_m": 9999,
      "fzfg": false,
      "metar_trigger": false,
      "taf_trigger": false,
      "metar": "METAR LBSF 141830Z AUTO VRB02KT 9999 SCT066/// 23/13 Q1019 NOSIG",
      "taf": "TAF LBSF 141700Z 1418/1518 31010KT CAVOK"
    },
    {
      "icao": "LBWN",
      "alert": "OK",
      "vis_m": 9999,
      "fzfg": false,
      "metar_trigger": false,
      "taf_trigger": false,
      "metar": "METAR LBWN 141830Z AUTO VRB02KT 9999 NSC 23/16 Q1015 NOSIG",
      "taf": "TAF LBWN 141700Z 1418/1518 35008KT 9999 SCT045"
    },
    {
      "icao": "LCLK",
      "alert": "OK",
      "vis_m": 9999,
      "fzfg": false,
      "metar_trigger": false,
      "taf_trigger": false,
      "metar": "METAR LCLK 141830Z 21005KT CAVOK 27/24 Q1006 NOSIG",
      "taf": "TAF LCLK 141730Z 1418/1518 22010KT 9999 FEW025"
    },
    {
      "icao": "LCPH",
      "alert": "OK",
      "vis_m": 9999,
      "fzfg": false,
      "metar_trigger": false,
      "taf_trigger": false,
      "metar": "METAR LCPH 141830Z AUTO 36002KT 9999 NCD 26/23 Q1006 NOSIG",
      "taf": "TAF LCPH 141730Z 1418/1518 28010KT 9999 FEW020"
    },
    {
      "icao": "LEAL",
      "alert": "OK",
      "vis_m": 9999,
      "fzfg": false,
      "metar_trigger": false,
      "taf_trigger": false,
      "metar": "METAR LEAL 141830Z 09004KT 050V140 CAVOK 30/22 Q1014 NOSIG",
      "taf": "TAF LEAL 141700Z 1418/1518 11007KT CAVOK TX37/1515Z TN25/1505Z"
    },
    {
      "icao": "LEBB",
      "alert": "OK",
      "vis_m": 9999,
      "fzfg": false,
      "metar_trigger": false,
      "taf_trigger": false,
      "metar": "METAR LEBB 141830Z 31009KT 280V340 CAVOK 27/22 Q1015 NOSIG",
      "taf": "TAF LEBB 141700Z 1418/1518 32008KT 9999 FEW020 TX28/1514Z TN22/1505Z"
    },
    {
      "icao": "LEBL",
      "alert": "OK",
      "vis_m": 9999,
      "fzfg": false,
      "metar_trigger": false,
      "taf_trigger": false,
      "metar": "METAR LEBL 141830Z 22009KT 170V240 9999 FEW020 28/25 Q1015 NOSIG",
      "taf": "TAF LEBL 141700Z 1418/1518 23010KT 9999 FEW020 TX34/1512Z TN25/1506Z"
    },
    {
      "icao": "LECH",
      "alert": "OK",
      "vis_m": 9000,
      "fzfg": false,
      "metar_trigger": false,
      "taf_trigger": false,
      "metar": "METAR LECH 141830Z AUTO 10005KT 060V140 9000 NSC 26/22 Q1017",
      "taf": "TAF LECH 141700Z 1418/1518 13007KT 9999 SCT010 TX38/1515Z TN22/1505Z"
    },
    {
      "icao": "LEMD",
      "alert": "OK",
      "vis_m": 9999,
      "fzfg": false,
      "metar_trigger": false,
      "taf_trigger": false,
      "metar": "METAR LEMD 141830Z 27011KT 230V300 CAVOK 34/02 Q1016 NOSIG",
      "taf": "TAF LEMD 141700Z 1418/1524 20012KT CAVOK TX37/1516Z TN20/1505Z"
    },
    {
      "icao": "LEMG",
      "alert": "OK",
      "vis_m": 9999,
      "fzfg": false,
      "metar_trigger": false,
      "taf_trigger": false,
      "metar": "METAR LEMG 141830Z 11008KT 070V140 9999 FEW070 24/16 Q1014 NOSIG",
      "taf": "TAF LEMG 141700Z 1418/1518 08012KT CAVOK TX38/1514Z TN22/1505Z"
    },
    {
      "icao": "LEVC",
      "alert": "OK",
      "vis_m": 9999,
      "fzfg": false,
      "metar_trigger": false,
      "taf_trigger": false,
      "metar": "METAR LEVC 141830Z 08008KT 040V130 9999 FEW055 29/23 Q1015 NOSIG",
      "taf": "TAF LEVC 141700Z 1418/1518 09008KT 9999 FEW040 TX44/1515Z TN24/1505Z"
    },
    {
      "icao": "LEXJ",
      "alert": "OK",
      "vis_m": 9999,
      "fzfg": false,
      "metar_trigger": false,
      "taf_trigger": false,
      "metar": "METAR LEXJ 141830Z VRB02KT 9999 FEW018 BKN030 24/22 Q1016",
      "taf": "TAF LEXJ 141400Z 1415/1515 05010KT 9999 FEW030 TX28/1513Z TN20/1505Z"
    },
    {
      "icao": "LEZG",
      "alert": "OK",
      "vis_m": 9999,
      "fzfg": false,
      "metar_trigger": false,
      "taf_trigger": false,
      "metar": "METAR LEZG 141830Z 10011KT CAVOK 37/19 Q1012 NOSIG",
      "taf": "TAF LEZG 141700Z 1418/1518 11009KT CAVOK TX42/1515Z TN24/1505Z"
    },
    {
      "icao": "LEZL",
      "alert": "OK",
      "vis_m": 9999,
      "fzfg": false,
      "metar_trigger": false,
      "taf_trigger": false,
      "metar": "METAR LEZL 141830Z 22014KT CAVOK 29/13 Q1015 NOSIG",
      "taf": "TAF LEZL 141400Z 1415/1515 23012KT CAVOK TX34/1415Z TN18/1505Z"
    },
    {
      "icao": "LFBD",
      "alert": "OK",
      "vis_m": 9999,
      "fzfg": false,
      "metar_trigger": false,
      "taf_trigger": false,
      "metar": "METAR LFBD 141830Z AUTO 02011KT CAVOK 34/17 Q1013 NOSIG",
      "taf": "TAF LFBD 141700Z 1418/1524 06005KT CAVOK TX34/1418Z TN21/1502Z"
    },
    {
      "icao": "LFLL",
      "alert": "OK",
      "vis_m": 9999,
      "fzfg": false,
      "metar_trigger": false,
      "taf_trigger": false,
      "metar": "METAR LFLL 141830Z 07005KT CAVOK 35/12 Q1015 NOSIG",
      "taf": "TAF LFLL 141700Z 1418/1524 05005KT CAVOK"
    },
    {
      "icao": "LFLS",
      "alert": "OK",
      "vis_m": 9999,
      "fzfg": false,
      "metar_trigger": false,
      "taf_trigger": false,
      "metar": "METAR LFLS 141830Z AUTO 36002KT CAVOK 34/12 Q1016 NOSIG",
      "taf": "TAF LFLS 141400Z 1415/1515 27005KT CAVOK"
    },
    {
      "icao": "LFMN",
      "alert": "OK",
      "vis_m": 9999,
      "fzfg": false,
      "metar_trigger": false,
      "taf_trigger": false,
      "metar": "METAR LFMN 141830Z 21009KT CAVOK 28/24 Q1015 NOSIG",
      "taf": "TAF LFMN 141400Z 1415/1521 18010KT CAVOK"
    },
    {
      "icao": "LFOB",
      "alert": "OK",
      "vis_m": 9999,
      "fzfg": false,
      "metar_trigger": false,
      "taf_trigger": false,
      "metar": "METAR LFOB 141830Z AUTO 03009KT CAVOK 31/16 Q1016 NOSIG",
      "taf": "TAF LFOB 141700Z 1418/1518 04008KT CAVOK"
    },
    {
      "icao": "LFPO",
      "alert": "OK",
      "vis_m": 9999,
      "fzfg": false,
      "metar_trigger": false,
      "taf_trigger": false,
      "metar": "METAR LFPO 141830Z AUTO 01008KT CAVOK 32/13 Q1015 NOSIG",
      "taf": "TAF LFPO 141700Z 1418/1524 02008KT CAVOK"
    },
    {
      "icao": "LFSB",
      "alert": "OK",
      "vis_m": 9999,
      "fzfg": false,
      "metar_trigger": false,
      "taf_trigger": false,
      "metar": "METAR LFSB 141830Z AUTO 33006KT 310V020 9999 ///CB 31/16 Q1015 NOSIG",
      "taf": ""
    },
    {
      "icao": "LGAV",
      "alert": "OK",
      "vis_m": 9999,
      "fzfg": false,
      "metar_trigger": false,
      "taf_trigger": false,
      "metar": "METAR LGAV 141820Z 05008KT 9999 FEW025 25/16 Q1016 NOSIG",
      "taf": "TAF LGAV 141700Z 1418/1518 04012KT 9999 FEW025"
    },
    {
      "icao": "LGTS",
      "alert": "OK",
      "vis_m": 9999,
      "fzfg": false,
      "metar_trigger": false,
      "taf_trigger": false,
      "metar": "METAR LGTS 141820Z 16009KT CAVOK 27/19 Q1015 NOSIG",
      "taf": "TAF LGTS 141700Z 1418/1518 15013KT 9999 FEW030"
    },
    {
      "icao": "LHBP",
      "alert": "OK",
      "vis_m": 9999,
      "fzfg": false,
      "metar_trigger": false,
      "taf_trigger": false,
      "metar": "METAR LHBP 141830Z 15006KT CAVOK 30/12 Q1015 NOSIG",
      "taf": "TAF LHBP 141715Z 1418/1518 12006KT CAVOK"
    },
    {
      "icao": "LHDC",
      "alert": "OK",
      "vis_m": 9999,
      "fzfg": false,
      "metar_trigger": false,
      "taf_trigger": false,
      "metar": "METAR LHDC 141815Z AUTO 06004KT CAVOK 27/16 Q1016 NOSIG",
      "taf": "TAF LHDC 141715Z 1418/1503 03007KT CAVOK"
    },
    {
      "icao": "LIBD",
      "alert": "OK",
      "vis_m": 9999,
      "fzfg": false,
      "metar_trigger": false,
      "taf_trigger": false,
      "metar": "METAR LIBD 141820Z 15004KT 110V200 CAVOK 31/11 Q1014",
      "taf": "TAF LIBD 141700Z 1418/1518 09010KT CAVOK"
    },
    {
      "icao": "LIBG",
      "alert": "OK",
      "vis_m": 9999,
      "fzfg": false,
      "metar_trigger": false,
      "taf_trigger": false,
      "metar": "METAR LIBG 141820Z AUTO 22004KT 190V260 9999 NCD 29/19 Q1015",
      "taf": "TAF LIBG 141700Z 1418/1518 VRB05KT 9999 FEW030"
    },
    {
      "icao": "LIBP",
      "alert": "OK",
      "vis_m": 9999,
      "fzfg": false,
      "metar_trigger": false,
      "taf_trigger": false,
      "metar": "METAR LIBP 141820Z AUTO 04004KT 010V080 9999 NCD 31/16 Q1014",
      "taf": "TAF LIBP 141700Z 1418/1518 VRB05KT 9999 FEW050"
    },
    {
      "icao": "LIBR",
      "alert": "OK",
      "vis_m": 9999,
      "fzfg": false,
      "metar_trigger": false,
      "taf_trigger": false,
      "metar": "METAR LIBR 141820Z 06003KT CAVOK 27/19 Q1015",
      "taf": "TAF LIBR 141700Z 1418/1518 VRB05KT CAVOK"
    },
    {
      "icao": "LICA",
      "alert": "OK",
      "vis_m": 9999,
      "fzfg": false,
      "metar_trigger": false,
      "taf_trigger": false,
      "metar": "METAR LICA 141820Z AUTO 23005KT 9999 SCT012/// 27/25 Q1017",
      "taf": "TAF LICA 141700Z 1418/1518 27013KT 9999 FEW020"
    },
    {
      "icao": "LICC",
      "alert": "OK",
      "vis_m": 9999,
      "fzfg": false,
      "metar_trigger": false,
      "taf_trigger": false,
      "metar": "METAR LICC 141820Z 10002KT CAVOK 30/20 Q1017",
      "taf": "TAF LICC 141700Z 1418/1518 08010KT CAVOK"
    },
    {
      "icao": "LICJ",
      "alert": "OK",
      "vis_m": 9999,
      "fzfg": false,
      "metar_trigger": false,
      "taf_trigger": false,
      "metar": "METAR LICJ 141820Z 23010KT CAVOK 28/26 Q1017",
      "taf": "TAF LICJ 141700Z 1418/1518 04010KT CAVOK"
    },
    {
      "icao": "LIMC",
      "alert": "OK",
      "vis_m": 9999,
      "fzfg": false,
      "metar_trigger": false,
      "taf_trigger": false,
      "metar": "METAR LIMC 141820Z 25007KT CAVOK 33/17 Q1014 NOSIG",
      "taf": "TAF LIMC 141700Z 1418/1524 17010KT 9999 FEW060"
    },
    {
      "icao": "LIME",
      "alert": "OK",
      "vis_m": 9999,
      "fzfg": false,
      "metar_trigger": false,
      "taf_trigger": false,
      "metar": "METAR LIME 141820Z 19004KT 160V220 CAVOK 32/17 Q1014 NOSIG",
      "taf": "TAF LIME 141700Z 1418/1518 VRB05KT 9999 FEW060"
    },
    {
      "icao": "LIMF",
      "alert": "OK",
      "vis_m": 9999,
      "fzfg": false,
      "metar_trigger": false,
      "taf_trigger": false,
      "metar": "METAR LIMF 141820Z 22006KT CAVOK 34/17 Q1014",
      "taf": "TAF LIMF 141700Z 1418/1518 VRB05KT CAVOK"
    },
    {
      "icao": "LIMJ",
      "alert": "OK",
      "vis_m": 9999,
      "fzfg": false,
      "metar_trigger": false,
      "taf_trigger": false,
      "metar": "METAR LIMJ 141820Z 16002KT 9999 FEW015 28/24 Q1015",
      "taf": "TAF LIMJ 141700Z 1418/1518 VRB06KT 9999 FEW020"
    },
    {
      "icao": "LIPE",
      "alert": "OK",
      "vis_m": 9999,
      "fzfg": false,
      "metar_trigger": false,
      "taf_trigger": false,
      "metar": "METAR LIPE 141820Z 10010KT CAVOK 33/20 Q1013",
      "taf": "TAF LIPE 141700Z 1418/1518 VRB05KT CAVOK"
    },
    {
      "icao": "LIPH",
      "alert": "OK",
      "vis_m": 9999,
      "fzfg": false,
      "metar_trigger": false,
      "taf_trigger": false,
      "metar": "METAR LIPH 141820Z 07005KT 9999 -RA FEW015CB SCT030 26/20 Q1015",
      "taf": "TAF LIPH 141700Z 1418/1518 16010KT 9999 FEW050"
    },
    {
      "icao": "LIPQ",
      "alert": "OK",
      "vis_m": 9999,
      "fzfg": false,
      "metar_trigger": false,
      "taf_trigger": false,
      "metar": "METAR LIPQ 141820Z AUTO VRB02KT 9999 SCT140/// 27/19 Q1014",
      "taf": "TAF LIPQ 141700Z 1418/1518 VRB05KT 9999 FEW050"
    },
    {
      "icao": "LIPR",
      "alert": "OK",
      "vis_m": 9999,
      "fzfg": false,
      "metar_trigger": false,
      "taf_trigger": false,
      "metar": "METAR LIPR 141820Z VRB02KT CAVOK 28/22 Q1013",
      "taf": "TAF LIPR 141700Z 1418/1518 10010KT CAVOK"
    },
    {
      "icao": "LIPX",
      "alert": "OK",
      "vis_m": 9999,
      "fzfg": false,
      "metar_trigger": false,
      "taf_trigger": false,
      "metar": "METAR LIPX 141820Z 13004KT 9999 FEW080 31/20 Q1014",
      "taf": "TAF LIPX 141700Z 1418/1518 VRB05KT CAVOK"
    },
    {
      "icao": "LIPY",
      "alert": "OK",
      "vis_m": 9999,
      "fzfg": false,
      "metar_trigger": false,
      "taf_trigger": false,
      "metar": "METAR LIPY 141820Z AUTO 14006KT 080V190 9999 NCD 32/14 Q1013",
      "taf": "TAF LIPY 141700Z 1418/1518 12013KT 9999 FEW050"
    },
    {
      "icao": "LIPZ",
      "alert": "OK",
      "vis_m": 9999,
      "fzfg": false,
      "metar_trigger": false,
      "taf_trigger": false,
      "metar": "METAR LIPZ 141820Z 08009KT CAVOK 27/19 Q1014 NOSIG",
      "taf": "TAF LIPZ 141700Z 1418/1524 03012KT 9999 FEW045"
    },
    {
      "icao": "LIRF",
      "alert": "OK",
      "vis_m": 9999,
      "fzfg": false,
      "metar_trigger": false,
      "taf_trigger": false,
      "metar": "METAR LIRF 141820Z 16005KT 130V200 CAVOK 30/21 Q1016 NOSIG",
      "taf": "TAF LIRF 141700Z 1418/1524 19010KT CAVOK"
    },
    {
      "icao": "LIRN",
      "alert": "OK",
      "vis_m": 9999,
      "fzfg": false,
      "metar_trigger": false,
      "taf_trigger": false,
      "metar": "METAR LIRN 141820Z 19004KT 130V240 CAVOK 28/23 Q1017 NOSIG",
      "taf": "TAF LIRN 141700Z 1418/1518 VRB05KT CAVOK"
    },
    {
      "icao": "LIRP",
      "alert": "OK",
      "vis_m": 9999,
      "fzfg": false,
      "metar_trigger": false,
      "taf_trigger": false,
      "metar": "METAR LIRP 141815Z 24009KT CAVOK 29/22 Q1015 NOSIG",
      "taf": "TAF LIRP 141700Z 1418/1518 28005KT CAVOK"
    },
    {
      "icao": "LIRZ",
      "alert": "OK",
      "vis_m": 9999,
      "fzfg": false,
      "metar_trigger": false,
      "taf_trigger": false,
      "metar": "METAR LIRZ 141820Z AUTO 23010KT 9999 NCD 31/15 Q1016",
      "taf": "TAF LIRZ 141700Z 1418/1518 22012KT CAVOK"
    },
    {
      "icao": "LJLJ",
      "alert": "OK",
      "vis_m": 9999,
      "fzfg": false,
      "metar_trigger": false,
      "taf_trigger": false,
      "metar": "METAR LJLJ 141830Z 09003KT 060V120 9999 FEW060TCU BKN220 22/18 Q1017 NOSIG",
      "taf": "TAF LJLJ 141700Z 1418/1518 VRB02KT 9999 FEW030"
    },
    {
      "icao": "LKMT",
      "alert": "OK",
      "vis_m": 9999,
      "fzfg": false,
      "metar_trigger": false,
      "taf_trigger": false,
      "metar": "METAR LKMT 141830Z 03005KT CAVOK 23/17 Q1018 NOSIG",
      "taf": "TAF LKMT 141700Z 1418/1518 02008KT CAVOK"
    },
    {
      "icao": "LKPR",
      "alert": "OK",
      "vis_m": 9999,
      "fzfg": false,
      "metar_trigger": false,
      "taf_trigger": false,
      "metar": "METAR LKPR 141830Z 11005KT 9999 -SHRA FEW030TCU 19/18 Q1018 NOSIG",
      "taf": "TAF LKPR 141700Z 1418/1524 01006KT CAVOK"
    },
    {
      "icao": "LLBG",
      "alert": "OK",
      "vis_m": 9999,
      "fzfg": false,
      "metar_trigger": false,
      "taf_trigger": false,
      "metar": "METAR LLBG 141820Z 34004KT CAVOK 27/21 Q1007 NOSIG",
      "taf": "TAF LLBG 141706Z 1418/1518 VRB04KT 9999 FEW020 TX31/1512Z TN23/1503Z"
    },
    {
      "icao": "LMML",
      "alert": "OK",
      "vis_m": 9999,
      "fzfg": false,
      "metar_trigger": false,
      "taf_trigger": false,
      "metar": "METAR LMML 141845Z 31007KT CAVOK 28/18 Q1019 NOSIG",
      "taf": "TAF LMML 141700Z 1418/1518 28008KT 9999 FEW011"
    },
    {
      "icao": "LOWW",
      "alert": "OK",
      "vis_m": 9999,
      "fzfg": false,
      "metar_trigger": false,
      "taf_trigger": false,
      "metar": "METAR LOWW 141820Z 19014KT CAVOK 23/17 Q1016 NOSIG",
      "taf": "TAF LOWW 141715Z 1418/1524 24007KT CAVOK TX29/1514Z TN19/1504Z"
    },
    {
      "icao": "LPFR",
      "alert": "OK",
      "vis_m": 9999,
      "fzfg": false,
      "metar_trigger": false,
      "taf_trigger": false,
      "metar": "METAR LPFR 141830Z 26016KT CAVOK 24/18 Q1016",
      "taf": "TAF LPFR 141700Z 1418/1518 24013KT CAVOK"
    },
    {
      "icao": "LPMA",
      "alert": "OK",
      "vis_m": 9999,
      "fzfg": false,
      "metar_trigger": false,
      "taf_trigger": false,
      "metar": "METAR LPMA 141830Z 20012KT 9999 SCT015 SCT030 23/20 Q1017",
      "taf": "TAF LPMA 141700Z 1418/1518 19010KT 9999 SCT015 SCT030"
    },
    {
      "icao": "LPPR",
      "alert": "OK",
      "vis_m": 9999,
      "fzfg": false,
      "metar_trigger": false,
      "taf_trigger": false,
      "metar": "METAR LPPR 141830Z 28005KT 240V320 9999 FEW012 21/18 Q1017",
      "taf": "TAF LPPR 141700Z 1418/1518 29010KT 9999 SCT015"
    },
    {
      "icao": "LPPS",
      "alert": "OK",
      "vis_m": 9999,
      "fzfg": false,
      "metar_trigger": false,
      "taf_trigger": false,
      "metar": "METAR LPPS 141830Z 17005KT 140V220 9999 FEW014 24/18 Q1018",
      "taf": "TAF LPPS 141700Z 1418/1524 18010KT 9999 SCT015"
    },
    {
      "icao": "LPPT",
      "alert": "OK",
      "vis_m": 9999,
      "fzfg": false,
      "metar_trigger": false,
      "taf_trigger": false,
      "metar": "METAR LPPT 141830Z 31009KT 9999 FEW030 24/15 Q1017 NOSIG",
      "taf": "TAF LPPT 141700Z 1418/1524 30010KT 9999 FEW030"
    },
    {
      "icao": "LQBK",
      "alert": "OK",
      "vis_m": 9999,
      "fzfg": false,
      "metar_trigger": false,
      "taf_trigger": false,
      "metar": "METAR LQBK 141830Z 29002KT 9999 FEW047 27/18 Q1014 NOSIG",
      "taf": "TAF LQBK 141700Z 1418/1518 14005KT CAVOK TX34/1514Z TN17/1503Z"
    },
    {
      "icao": "LQSA",
      "alert": "OK",
      "vis_m": 9999,
      "fzfg": false,
      "metar_trigger": false,
      "taf_trigger": false,
      "metar": "METAR LQSA 141830Z 14004KT CAVOK 25/17 Q1017 NOSIG",
      "taf": "TAF LQSA 141700Z 1418/1518 VRB02KT CAVOK TX32/1513Z TN15/1504Z"
    },
    {
      "icao": "LQTZ",
      "alert": "OK",
      "vis_m": 9999,
      "fzfg": false,
      "metar_trigger": false,
      "taf_trigger": false,
      "metar": "METAR LQTZ 141830Z 13004KT 090V150 CAVOK 25/18 Q1015",
      "taf": "TAF LQTZ 141700Z 1418/1518 VRB02KT CAVOK TX32/1514Z TN16/1503Z"
    },
    {
      "icao": "LRBC",
      "alert": "OK",
      "vis_m": 9999,
      "fzfg": false,
      "metar_trigger": false,
      "taf_trigger": false,
      "metar": "METAR LRBC 141830Z 32007KT CAVOK 21/18 Q1016",
      "taf": "TAF LRBC 141700Z 1418/1503 33006KT CAVOK"
    },
    {
      "icao": "LRBS",
      "alert": "OK",
      "vis_m": 9999,
      "fzfg": false,
      "metar_trigger": false,
      "taf_trigger": false,
      "metar": "METAR LRBS 141830Z 03003KT 360V060 CAVOK 24/16 Q1016 NOSIG",
      "taf": "TAF LRBS 141700Z 1418/1518 04010KT CAVOK"
    },
    {
      "icao": "LRBV",
      "alert": "OK",
      "vis_m": 9999,
      "fzfg": false,
      "metar_trigger": false,
      "taf_trigger": false,
      "metar": "METAR LRBV 141830Z VRB01KT 9999 FEW006 17/16 Q1019",
      "taf": "TAF LRBV 141700Z 1418/1503 VRB04KT 9999 SCT045"
    },
    {
      "icao": "LRCL",
      "alert": "OK",
      "vis_m": 9999,
      "fzfg": false,
      "metar_trigger": false,
      "taf_trigger": false,
      "metar": "METAR LRCL 141830Z 07004KT CAVOK 23/16 Q1017",
      "taf": "TAF LRCL 141700Z 1418/1503 VRB04KT 9999 SCT045"
    },
    {
      "icao": "LRCV",
      "alert": "OK",
      "vis_m": 9999,
      "fzfg": false,
      "metar_trigger": false,
      "taf_trigger": false,
      "metar": "METAR LRCV 141830Z 00000KT CAVOK 28/12 Q1016",
      "taf": "TAF LRCV 141700Z 1418/1503 VRB04KT 9999 SCT045CB"
    },
    {
      "icao": "LRIA",
      "alert": "OK",
      "vis_m": 9999,
      "fzfg": false,
      "metar_trigger": false,
      "taf_trigger": false,
      "metar": "METAR LRIA 141830Z 30010KT CAVOK 22/16 Q1015",
      "taf": "TAF LRIA 141700Z 1418/1503 31010KT CAVOK"
    },
    {
      "icao": "LROP",
      "alert": "OK",
      "vis_m": 9999,
      "fzfg": false,
      "metar_trigger": false,
      "taf_trigger": false,
      "metar": "METAR LROP 141830Z 02006KT CAVOK 24/17 Q1016 NOSIG",
      "taf": "TAF LROP 141700Z 1418/1518 04010KT CAVOK"
    },
    {
      "icao": "LRSB",
      "alert": "OK",
      "vis_m": 9999,
      "fzfg": false,
      "metar_trigger": false,
      "taf_trigger": false,
      "metar": "METAR LRSB 141830Z 15005KT 9999 FEW040CB 20/16 Q1019",
      "taf": "TAF LRSB 141700Z 1418/1518 VRB04KT 9999 SCT050"
    },
    {
      "icao": "LRSM",
      "alert": "OK",
      "vis_m": 9999,
      "fzfg": false,
      "metar_trigger": false,
      "taf_trigger": false,
      "metar": "METAR LRSM 141830Z 07005KT CAVOK 24/16 Q1016",
      "taf": "TAF LRSM 141700Z 1418/1503 05005KT CAVOK"
    },
    {
      "icao": "LRSV",
      "alert": "OK",
      "vis_m": 9999,
      "fzfg": false,
      "metar_trigger": false,
      "taf_trigger": false,
      "metar": "METAR LRSV 141830Z 28009KT CAVOK 21/17 Q1017",
      "taf": "TAF LRSV 141700Z 1418/1503 31010KT CAVOK"
    },
    {
      "icao": "LRTM",
      "alert": "OK",
      "vis_m": 9999,
      "fzfg": false,
      "metar_trigger": false,
      "taf_trigger": false,
      "metar": "METAR LRTM 141830Z VRB02KT CAVOK 22/18 Q1017",
      "taf": "TAF LRTM 141700Z 1418/1503 15010KT 9999 SCT045"
    },
    {
      "icao": "LRTR",
      "alert": "OK",
      "vis_m": 9999,
      "fzfg": false,
      "metar_trigger": false,
      "taf_trigger": false,
      "metar": "METAR LRTR 141830Z 00000KT CAVOK 27/14 Q1015",
      "taf": "TAF LRTR 141700Z 1418/1518 VRB04KT CAVOK"
    },
    {
      "icao": "LTAC",
      "alert": "OK",
      "vis_m": 9999,
      "fzfg": false,
      "metar_trigger": false,
      "taf_trigger": false,
      "metar": "METAR LTAC 141820Z 07010KT CAVOK 20/10 Q1016 NOSIG RMK RWY21C 06010KT RWY03L 06008KT RWY21R 05009KT RWY03R 06009KT RWY21L 06010KT",
      "taf": "TAF LTAC 141640Z 1418/1518 34012KT CAVOK"
    },
    {
      "icao": "LTFM",
      "alert": "OK",
      "vis_m": 9999,
      "fzfg": false,
      "metar_trigger": false,
      "taf_trigger": false,
      "metar": "METAR LTFM 141820Z 06007KT CAVOK 23/17 Q1016 NOSIG RMK RWY17L 07004KT RWY34L 05006KT 020V090 RWY16R 07005KT RWY36 06006KT RWY18 09004KT",
      "taf": "TAF LTFM 141640Z 1418/1524 02012KT CAVOK"
    },
    {
      "icao": "LUKK",
      "alert": "OK",
      "vis_m": 9999,
      "fzfg": false,
      "metar_trigger": false,
      "taf_trigger": false,
      "metar": "METAR LUKK 141830Z 27009KT 9999 -SHRA SCT049CB 20/18 Q1015 TEMPO 35018G30KT 3000 TSRA BKN015 SCT030CB",
      "taf": "TAF LUKK 141715Z 1418/1518 33008KT 9999 SCT040"
    },
    {
      "icao": "LWOH",
      "alert": "OK",
      "vis_m": null,
      "fzfg": false,
      "metar_trigger": false,
      "taf_trigger": false,
      "metar": "",
      "taf": "TAF LWOH 141720Z 1418/1518 34006KT 9999 FEW040"
    },
    {
      "icao": "LWSK",
      "alert": "OK",
      "vis_m": null,
      "fzfg": false,
      "metar_trigger": false,
      "taf_trigger": false,
      "metar": "",
      "taf": "TAF LWSK 141720Z 1418/1518 34008KT CAVOK"
    },
    {
      "icao": "LYBE",
      "alert": "OK",
      "vis_m": 9999,
      "fzfg": false,
      "metar_trigger": false,
      "taf_trigger": false,
      "metar": "METAR LYBE 141830Z 07004KT CAVOK 27/16 Q1016 NOSIG",
      "taf": "TAF LYBE 141700Z 1418/1518 08005KT CAVOK TX33/1514Z TN21/1503Z"
    },
    {
      "icao": "LYNI",
      "alert": "OK",
      "vis_m": 9999,
      "fzfg": false,
      "metar_trigger": false,
      "taf_trigger": false,
      "metar": "METAR LYNI 141830Z 03001KT CAVOK 27/15 Q1017 NOSIG",
      "taf": "TAF LYNI 141700Z 1418/1518 33005KT CAVOK TX33/1514Z TN14/1503Z"
    },
    {
      "icao": "LYPG",
      "alert": "OK",
      "vis_m": 9999,
      "fzfg": false,
      "metar_trigger": false,
      "taf_trigger": false,
      "metar": "METAR LYPG 141830Z 19003KT 150V220 CAVOK 30/15 Q1014 NOSIG",
      "taf": "TAF LYPG 141700Z 1418/1518 36005KT CAVOK TX35/1513Z TN23/1503Z"
    },
    {
      "icao": "LZIB",
      "alert": "OK",
      "vis_m": 9999,
      "fzfg": false,
      "metar_trigger": false,
      "taf_trigger": false,
      "metar": "METAR LZIB 141830Z 21005KT CAVOK 28/16 Q1015 NOSIG",
      "taf": "TAF LZIB 141715Z 1418/1518 06008KT CAVOK"
    },
    {
      "icao": "LZKZ",
      "alert": "OK",
      "vis_m": 9999,
      "fzfg": false,
      "metar_trigger": false,
      "taf_trigger": false,
      "metar": "METAR LZKZ 141830Z 34008KT CAVOK 25/18 Q1017 NOSIG",
      "taf": "TAF LZKZ 141715Z 1418/1518 01008KT CAVOK"
    },
    {
      "icao": "LZTT",
      "alert": "OK",
      "vis_m": 9999,
      "fzfg": false,
      "metar_trigger": false,
      "taf_trigger": false,
      "metar": "METAR LZTT 141830Z 30006KT 9999 -SHRA FEW020 FEW046CB 17/17 Q1020 TEMPO TSRA",
      "taf": ""
    },
    {
      "icao": "OEJN",
      "alert": "OK",
      "vis_m": 9999,
      "fzfg": false,
      "metar_trigger": false,
      "taf_trigger": false,
      "metar": "METAR OEJN 141800Z 01003KT CAVOK 33/16 Q1004 NOSIG",
      "taf": "TAF OEJN 141700Z 1418/1524 36005KT CAVOK"
    },
    {
      "icao": "OEMA",
      "alert": "OK",
      "vis_m": 9999,
      "fzfg": false,
      "metar_trigger": false,
      "taf_trigger": false,
      "metar": "METAR OEMA 141800Z 27015KT CAVOK 42/04 Q1007 NOSIG",
      "taf": "TAF OEMA 141700Z 1418/1524 29010KT CAVOK"
    },
    {
      "icao": "OJAI",
      "alert": "OK",
      "vis_m": 5000,
      "fzfg": false,
      "metar_trigger": false,
      "taf_trigger": false,
      "metar": "METAR OJAI 141800Z 30006KT 5000 HZ NSC 27/15 Q1011 NOSIG",
      "taf": "TAF OJAI 141649Z 1418/1524 30008KT 5000 HZ NSC"
    },
    {
      "icao": "OMAA",
      "alert": "OK",
      "vis_m": 9999,
      "fzfg": false,
      "metar_trigger": false,
      "taf_trigger": false,
      "metar": "METAR OMAA 141830Z 03008KT CAVOK 33/28 Q0996 NOSIG",
      "taf": "TAF OMAA 141700Z 1418/1600 02008KT 8000 NSC"
    },
    {
      "icao": "OMDB",
      "alert": "OK",
      "vis_m": 9999,
      "fzfg": false,
      "metar_trigger": false,
      "taf_trigger": false,
      "metar": "METAR OMDB 141830Z 03007KT 360V080 CAVOK 37/23 Q0996 NOSIG",
      "taf": "TAF OMDB 141700Z 1418/1600 05008KT CAVOK"
    },
    {
      "icao": "UAAA",
      "alert": "OK",
      "vis_m": 9999,
      "fzfg": false,
      "metar_trigger": false,
      "taf_trigger": false,
      "metar": "METAR UAAA 141830Z 13002MPS 9999 SCT200 22/12 Q1009 NOSIG",
      "taf": "TAF UAAA 141701Z 1418/1518 16003MPS 9999 SCT100 TX36/1510Z TN20/1501Z"
    },
    {
      "icao": "UBBB",
      "alert": "OK",
      "vis_m": 9999,
      "fzfg": false,
      "metar_trigger": false,
      "taf_trigger": false,
      "metar": "METAR UBBB 141830Z 33006KT CAVOK 26/22 Q1006 NOSIG",
      "taf": "TAF UBBB 141658Z 1418/1518 33012KT CAVOK TX32/1510Z TN23/1501Z"
    },
    {
      "icao": "UDSG",
      "alert": "OK",
      "vis_m": 9999,
      "fzfg": false,
      "metar_trigger": false,
      "taf_trigger": false,
      "metar": "METAR UDSG 141830Z 06013KT 9999 NSC 22/16 Q1014 NOSIG",
      "taf": "TAF UDSG 141658Z 1418/1518 06008KT 9999 FEW050"
    },
    {
      "icao": "UDYZ",
      "alert": "OK",
      "vis_m": 9999,
      "fzfg": false,
      "metar_trigger": false,
      "taf_trigger": false,
      "metar": "METAR UDYZ 141830Z 02013KT 9999 NSC 29/16 Q1006 NOSIG",
      "taf": "TAF UDYZ 141700Z 1418/1518 05006KT 9999 NSC"
    },
    {
      "icao": "UGKO",
      "alert": "OK",
      "vis_m": 9000,
      "fzfg": false,
      "metar_trigger": false,
      "taf_trigger": false,
      "metar": "METAR UGKO 141830Z 02003KT 350V050 9000 -RA SCT022 OVC035 21/20 Q1012 NOSIG",
      "taf": "TAF UGKO 141700Z 1418/1518 25007KT 9999 SCT015 OVC030 TX26/1511Z TN20/1502Z"
    }
  ]
}