{
  "ts_utc": "2026-02-16T14:07:50Z",
  "threshold_m": 150,
  "source": "stations_override.txt (ICAO list) + aviationweather.gov (METAR/TAF raw)",
  "station_count": 159,
  "stations": [
    {
      "icao": "BIKF",
      "alert": "OK",
      "vis_m": 9999,
      "fzfg": false,
      "metar_trigger": false,
      "taf_trigger": false,
      "metar": "METAR BIKF 161400Z 03007KT CAVOK M01/M08 Q1012",
      "taf": "TAF BIKF 161333Z 1615/1715 02010KT 9999 FEW025 TXM01/1615Z TNM07/1704Z"
    },
    {
      "icao": "BKPR",
      "alert": "OK",
      "vis_m": 9999,
      "fzfg": false,
      "metar_trigger": false,
      "taf_trigger": false,
      "metar": "METAR BKPR 161400Z 09006KT 9999 FEW040 09/04 Q1003 NOSIG",
      "taf": "TAF BKPR 161130Z 1612/1712 21010KT 9999 SCT040"
    },
    {
      "icao": "EBCI",
      "alert": "OK",
      "vis_m": 9999,
      "fzfg": false,
      "metar_trigger": false,
      "taf_trigger": false,
      "metar": "METAR EBCI 161350Z 27012KT 230V290 9999 -SHRA SCT018TCU SCT027 07/04 Q0996 NOSIG",
      "taf": "TAF EBCI 161105Z 1612/1718 26013KT 9999 FEW015TCU SCT030"
    },
    {
      "icao": "EDDB",
      "alert": "OK",
      "vis_m": 9999,
      "fzfg": false,
      "metar_trigger": false,
      "taf_trigger": false,
      "metar": "METAR EDDB 161350Z AUTO 11010KT 080V140 9999 -SN BKN015 BKN020 OVC043 M03/M06 Q0997 TEMPO BKN012",
      "taf": "TAF EDDB 161100Z 1612/1712 11013KT 6000 BKN015"
    },
    {
      "icao": "EDDH",
      "alert": "OK",
      "vis_m": 9999,
      "fzfg": false,
      "metar_trigger": false,
      "taf_trigger": false,
      "metar": "METAR EDDH 161350Z AUTO 12013KT 9999 OVC014 M02/M05 Q0994 TEMPO 2500 -SN BKN008",
      "taf": "TAF EDDH 161100Z 1612/1718 12013KT 6000 BKN013"
    },
    {
      "icao": "EDDK",
      "alert": "OK",
      "vis_m": 9999,
      "fzfg": false,
      "metar_trigger": false,
      "taf_trigger": false,
      "metar": "METAR EDDK 161350Z AUTO 24010KT 9999 SHRA FEW015 BKN041 BKN049 FEW///CB 05/03 Q0995 BECMG NSW",
      "taf": "TAF EDDK 161100Z 1612/1718 25010KT 9999 BKN020"
    },
    {
      "icao": "EDDN",
      "alert": "OK",
      "vis_m": 9999,
      "fzfg": false,
      "metar_trigger": false,
      "taf_trigger": false,
      "metar": "METAR EDDN 161350Z AUTO 27007KT 210V310 9999 SCT024 BKN045 07/03 Q0995 TEMPO 4000 SHRA",
      "taf": "TAF EDDN 161100Z 1612/1712 25010KT 9999 SCT020"
    },
    {
      "icao": "EDDS",
      "alert": "OK",
      "vis_m": 9999,
      "fzfg": false,
      "metar_trigger": false,
      "taf_trigger": false,
      "metar": "METAR EDDS 161350Z AUTO 23008KT 150V270 9999 BKN036 08/02 Q0996 TEMPO SHRA",
      "taf": "TAF EDDS 161100Z 1612/1712 24010KT 9999 BKN035"
    },
    {
      "icao": "EDFH",
      "alert": "OK",
      "vis_m": 9999,
      "fzfg": false,
      "metar_trigger": false,
      "taf_trigger": false,
      "metar": "METAR EDFH 161350Z 26013KT 220V290 9999 -RA OVC004 02/02 Q0994",
      "taf": "TAF EDFH 161100Z 1612/1712 27013KT 9999 BKN010"
    },
    {
      "icao": "EDJA",
      "alert": "OK",
      "vis_m": 9999,
      "fzfg": false,
      "metar_trigger": false,
      "taf_trigger": false,
      "metar": "METAR EDJA 161350Z 23018G29KT 9999 -SHRA SCT014 05/02 Q0997",
      "taf": "TAF EDJA 161100Z 1612/1621 23015G25KT 9999 SCT010 BKN030"
    },
    {
      "icao": "EDLW",
      "alert": "OK",
      "vis_m": 9999,
      "fzfg": false,
      "metar_trigger": false,
      "taf_trigger": false,
      "metar": "METAR EDLW 161350Z 23013KT 9999 -RA FEW021 BKN048 07/03 Q0993",
      "taf": "TAF EDLW 161100Z 1612/1712 23010KT 9999 SCT008 BKN015"
    },
    {
      "icao": "EDNY",
      "alert": "OK",
      "vis_m": 7000,
      "fzfg": false,
      "metar_trigger": false,
      "taf_trigger": false,
      "metar": "METAR EDNY 161350Z 23017KT 7000 RA BKN019 BKN025 OVC037 05/02 Q0999",
      "taf": "TAF EDNY 161100Z 1612/1621 24010KT 9999 FEW015 BKN030"
    },
    {
      "icao": "EDSB",
      "alert": "OK",
      "vis_m": 9000,
      "fzfg": false,
      "metar_trigger": false,
      "taf_trigger": false,
      "metar": "METAR EDSB 161350Z 21009KT 9000 -RA SCT021 BKN027 BKN038 07/05 Q0997",
      "taf": "TAF EDSB 161100Z 1612/1712 22012KT 9999 BKN030"
    },
    {
      "icao": "EETN",
      "alert": "OK",
      "vis_m": 9999,
      "fzfg": false,
      "metar_trigger": false,
      "taf_trigger": false,
      "metar": "METAR EETN 161350Z 10004KT 9999 OVC023 M05/M09 Q1012 NOSIG",
      "taf": "TAF EETN 161130Z 1612/1712 VRB02KT 9999 OVC020"
    },
    {
      "icao": "EFTU",
      "alert": "OK",
      "vis_m": 9999,
      "fzfg": false,
      "metar_trigger": false,
      "taf_trigger": false,
      "metar": "METAR EFTU 161350Z AUTO 11004KT 9999 OVC007 M08/M09 Q1012 RESG",
      "taf": "TAF EFTU 161122Z 1612/1712 13005KT 9999 OVC006"
    },
    {
      "icao": "EGBB",
      "alert": "OK",
      "vis_m": 9999,
      "fzfg": false,
      "metar_trigger": false,
      "taf_trigger": false,
      "metar": "METAR EGBB 161350Z 29014KT 9999 VCSH SCT028 BKN048 08/03 Q0995",
      "taf": "TAF EGBB 161058Z 1612/1712 27011KT 9999 SCT025"
    },
    {
      "icao": "EGGP",
      "alert": "OK",
      "vis_m": 9999,
      "fzfg": false,
      "metar_trigger": false,
      "taf_trigger": false,
      "metar": "METAR EGGP 161350Z 28018KT 9999 BKN018 BKN022 07/04 Q0995",
      "taf": "TAF EGGP 161055Z 1612/1712 26014KT 9999 FEW025"
    },
    {
      "icao": "EGGW",
      "alert": "OK",
      "vis_m": 9999,
      "fzfg": false,
      "metar_trigger": false,
      "taf_trigger": false,
      "metar": "METAR EGGW 161350Z AUTO 28019KT 9999 SCT018/// BKN023/// BKN030/// //////CB 07/05 Q0995",
      "taf": "TAF EGGW 161105Z 1612/1712 27018KT 9999 SCT025"
    },
    {
      "icao": "EGKK",
      "alert": "OK",
      "vis_m": 9999,
      "fzfg": false,
      "metar_trigger": false,
      "taf_trigger": false,
      "metar": "METAR EGKK 161350Z 26018KT 9999 SCT038 09/03 Q0996",
      "taf": "TAF EGKK 161052Z 1612/1718 27014KT 9999 FEW040"
    },
    {
      "icao": "EGNM",
      "alert": "OK",
      "vis_m": 9999,
      "fzfg": false,
      "metar_trigger": false,
      "taf_trigger": false,
      "metar": "METAR EGNM 161350Z 28014KT 9999 FEW010 SCT022 06/03 Q0993",
      "taf": "TAF EGNM 161055Z 1612/1712 29014KT 9999 SCT020"
    },
    {
      "icao": "EGPD",
      "alert": "OK",
      "vis_m": 4500,
      "fzfg": false,
      "metar_trigger": false,
      "taf_trigger": false,
      "metar": "METAR EGPD 161350Z 34018KT 4500 -RADZ BKN008 05/03 Q0991 TEMPO RA",
      "taf": ""
    },
    {
      "icao": "EGPF",
      "alert": "OK",
      "vis_m": 9999,
      "fzfg": false,
      "metar_trigger": false,
      "taf_trigger": false,
      "metar": "METAR EGPF 161350Z AUTO 29012KT 9999 SCT023 08/04 Q0993",
      "taf": "TAF EGPF 161056Z 1612/1712 26005KT 9999 FEW015 SCT024"
    },
    {
      "icao": "EHBK",
      "alert": "OK",
      "vis_m": 9999,
      "fzfg": false,
      "metar_trigger": false,
      "taf_trigger": false,
      "metar": "METAR EHBK 161355Z AUTO 23011KT 200V270 9999 FEW002 BKN015 BKN018 06/05 Q0995 REDZ TEMPO 4000 SHRA BKN013 FEW015CB",
      "taf": "TAF EHBK 161122Z 1612/1718 23012KT 9999 BKN016"
    },
    {
      "icao": "EHEH",
      "alert": "OK",
      "vis_m": 9999,
      "fzfg": false,
      "metar_trigger": false,
      "taf_trigger": false,
      "metar": "METAR EHEH 161355Z AUTO 26007KT 230V300 9999 FEW015CB SCT032 BKN042 07/04 Q0994 BLU TEMPO 4500 SHRAGS SCT008 SCT012CB BKN018 RMK TREND REMOTE BY EHWX",
      "taf": "TAF EHEH 161104Z 1612/1718 24008KT 9999 SCT016 BKN025"
    },
    {
      "icao": "EKBI",
      "alert": "OK",
      "vis_m": 9999,
      "fzfg": false,
      "metar_trigger": false,
      "taf_trigger": false,
      "metar": "METAR EKBI 161351Z 11013KT 9999 -SN DRSN BKN016 M04/M07 Q0995",
      "taf": "TAF EKBI 161127Z 1612/1712 11015KT 9999 -SN BKN018"
    },
    {
      "icao": "EKCH",
      "alert": "OK",
      "vis_m": 9999,
      "fzfg": false,
      "metar_trigger": false,
      "taf_trigger": false,
      "metar": "METAR EKCH 161350Z AUTO 11021KT 9999 NCD M02/M10 Q1001 TEMPO 12023G33KT",
      "taf": "TAF EKCH 161127Z 1612/1712 12020KT CAVOK"
    },
    {
      "icao": "ENAL",
      "alert": "OK",
      "vis_m": 9999,
      "fzfg": false,
      "metar_trigger": false,
      "taf_trigger": false,
      "metar": "METAR ENAL 161350Z 18012KT CAVOK 03/M11 Q0993",
      "taf": "TAF ENAL 161100Z 1612/1621 19012KT CAVOK"
    },
    {
      "icao": "ENBR",
      "alert": "OK",
      "vis_m": 9999,
      "fzfg": false,
      "metar_trigger": false,
      "taf_trigger": false,
      "metar": "METAR ENBR 161350Z 12009KT CAVOK 02/M10 Q0994 TEMPO 13015G25KT RMK WIND 1200FT 13024KT",
      "taf": "TAF ENBR 161100Z 1612/1712 12012KT CAVOK"
    },
    {
      "icao": "ENGM",
      "alert": "OK",
      "vis_m": 9999,
      "fzfg": false,
      "metar_trigger": false,
      "taf_trigger": false,
      "metar": "METAR ENGM 161350Z 14005KT 9999 FEW020 BKN027 M05/M12 Q1003 NOSIG",
      "taf": "TAF ENGM 161100Z 1612/1712 14008KT 9999 -SN BKN020"
    },
    {
      "icao": "ENHD",
      "alert": "OK",
      "vis_m": 9999,
      "fzfg": false,
      "metar_trigger": false,
      "taf_trigger": false,
      "metar": "METAR ENHD 161350Z 11017KT 9999 BKN047 01/M07 Q0993",
      "taf": "TAF ENHD 161100Z 1612/1621 11020KT 9999 SCT040"
    },
    {
      "icao": "ENTC",
      "alert": "OK",
      "vis_m": 9999,
      "fzfg": false,
      "metar_trigger": false,
      "taf_trigger": false,
      "metar": "METAR ENTC 161350Z 17003KT 140V200 CAVOK M02/M05 Q0995 NOSIG RMK WIND 2600FT 15011KT",
      "taf": "TAF ENTC 161100Z 1612/1712 VRB03KT 9999 BKN030"
    },
    {
      "icao": "ENTO",
      "alert": "OK",
      "vis_m": 9999,
      "fzfg": false,
      "metar_trigger": false,
      "taf_trigger": false,
      "metar": "METAR ENTO 161350Z 06004KT 020V080 CAVOK M04/M11 Q1003 NOSIG",
      "taf": ""
    },
    {
      "icao": "ENVA",
      "alert": "OK",
      "vis_m": 9999,
      "fzfg": false,
      "metar_trigger": false,
      "taf_trigger": false,
      "metar": "METAR ENVA 161350Z 15015KT CAVOK 01/M10 Q0996 TEMPO 16015G25KT RMK WIND 670FT 18020G33KT",
      "taf": "TAF ENVA 161100Z 1612/1712 14010KT CAVOK"
    },
    {
      "icao": "ENZV",
      "alert": "OK",
      "vis_m": 9999,
      "fzfg": false,
      "metar_trigger": false,
      "taf_trigger": false,
      "metar": "METAR ENZV 161350Z 11017KT 070V130 CAVOK 01/M08 Q0993 TEMPO 13022G32KT",
      "taf": "TAF ENZV 161100Z 1612/1712 12018KT 9999 SCT035"
    },
    {
      "icao": "EPGD",
      "alert": "OK",
      "vis_m": 9999,
      "fzfg": false,
      "metar_trigger": false,
      "taf_trigger": false,
      "metar": "METAR EPGD 161400Z 08007KT 050V110 CAVOK M09/M15 Q1005",
      "taf": ""
    },
    {
      "icao": "EPKK",
      "alert": "OK",
      "vis_m": 9999,
      "fzfg": false,
      "metar_trigger": false,
      "taf_trigger": false,
      "metar": "METAR EPKK 161400Z 06010KT 9999 BKN025 M05/M08 Q1001",
      "taf": ""
    },
    {
      "icao": "EPKT",
      "alert": "OK",
      "vis_m": 9999,
      "fzfg": false,
      "metar_trigger": false,
      "taf_trigger": false,
      "metar": "METAR EPKT 161400Z 09012KT 9999 BKN021 M05/M08 Q0999",
      "taf": "TAF EPKT 161130Z 1612/1712 10010KT 7000 -SN BKN030"
    },
    {
      "icao": "EPLB",
      "alert": "OK",
      "vis_m": 9999,
      "fzfg": false,
      "metar_trigger": false,
      "taf_trigger": false,
      "metar": "METAR EPLB 161400Z 07005KT CAVOK M09/M13 Q1005",
      "taf": "TAF EPLB 161130Z 1612/1712 09012KT CAVOK"
    },
    {
      "icao": "EPMO",
      "alert": "OK",
      "vis_m": 9999,
      "fzfg": false,
      "metar_trigger": false,
      "taf_trigger": false,
      "metar": "METAR EPMO 161400Z 07013KT CAVOK M06/M11 Q1004",
      "taf": "TAF EPMO 161130Z 1612/1712 10010KT CAVOK"
    },
    {
      "icao": "EPPO",
      "alert": "OK",
      "vis_m": 9999,
      "fzfg": false,
      "metar_trigger": false,
      "taf_trigger": false,
      "metar": "METAR EPPO 161400Z 11015KT 9999 SCT025 M04/M10 Q1000",
      "taf": "TAF EPPO 161130Z 1612/1712 11015KT CAVOK"
    },
    {
      "icao": "EPRA",
      "alert": "OK",
      "vis_m": 9999,
      "fzfg": false,
      "metar_trigger": false,
      "taf_trigger": false,
      "metar": "METAR EPRA 161400Z 09010KT CAVOK M06/M12 Q1003",
      "taf": "TAF EPRA 161130Z 1612/1621 11010KT CAVOK"
    },
    {
      "icao": "EPRZ",
      "alert": "OK",
      "vis_m": 9999,
      "fzfg": false,
      "metar_trigger": false,
      "taf_trigger": false,
      "metar": "METAR EPRZ 161400Z 08013KT 9999 SCT029 M06/M09 Q1003",
      "taf": "TAF EPRZ 161130Z 1612/1712 09010KT 9999 SCT040"
    },
    {
      "icao": "EPSC",
      "alert": "OK",
      "vis_m": 9999,
      "fzfg": false,
      "metar_trigger": false,
      "taf_trigger": false,
      "metar": "METAR EPSC 161400Z 11013KT CAVOK M04/M11 Q0999",
      "taf": ""
    },
    {
      "icao": "EPSY",
      "alert": "OK",
      "vis_m": 9999,
      "fzfg": false,
      "metar_trigger": false,
      "taf_trigger": false,
      "metar": "METAR EPSY 161400Z 08006KT 040V120 CAVOK M07/M19 Q1006",
      "taf": "TAF EPSY 161130Z 1612/1621 09010KT CAVOK"
    },
    {
      "icao": "EPWA",
      "alert": "OK",
      "vis_m": 9999,
      "fzfg": false,
      "metar_trigger": false,
      "taf_trigger": false,
      "metar": "METAR EPWA 161400Z 11011KT CAVOK M05/M13 Q1004 NOSIG",
      "taf": "TAF EPWA 161130Z 1612/1712 10010KT CAVOK"
    },
    {
      "icao": "EPWR",
      "alert": "OK",
      "vis_m": 2300,
      "fzfg": false,
      "metar_trigger": false,
      "taf_trigger": false,
      "metar": "METAR EPWR 161400Z 13013KT 2300 -SN BR BKN009 M04/M04 Q0998 RESN",
      "taf": ""
    },
    {
      "icao": "ESGG",
      "alert": "OK",
      "vis_m": 9999,
      "fzfg": false,
      "metar_trigger": false,
      "taf_trigger": false,
      "metar": "METAR ESGG 161350Z 13012KT CAVOK M02/M13 Q1001",
      "taf": "TAF ESGG 161130Z 1612/1712 15013G25KT CAVOK"
    },
    {
      "icao": "ESKN",
      "alert": "OK",
      "vis_m": 9999,
      "fzfg": false,
      "metar_trigger": false,
      "taf_trigger": false,
      "metar": "METAR ESKN 161350Z 15013KT 9999 BKN026 M02/M08 Q1009",
      "taf": "TAF ESKN 161130Z 1612/1712 17009KT CAVOK"
    },
    {
      "icao": "ESMS",
      "alert": "OK",
      "vis_m": 9999,
      "fzfg": false,
      "metar_trigger": false,
      "taf_trigger": false,
      "metar": "METAR ESMS 161350Z 11016KT CAVOK M03/M12 Q1001",
      "taf": "TAF ESMS 161127Z 1612/1712 12020KT CAVOK"
    },
    {
      "icao": "ESSA",
      "alert": "OK",
      "vis_m": 9999,
      "fzfg": false,
      "metar_trigger": false,
      "taf_trigger": false,
      "metar": "METAR ESSA 161350Z 17011KT CAVOK M02/M09 Q1009 NOSIG",
      "taf": "TAF ESSA 161130Z 1612/1712 16007KT CAVOK"
    },
    {
      "icao": "EYKA",
      "alert": "OK",
      "vis_m": 9999,
      "fzfg": false,
      "metar_trigger": false,
      "taf_trigger": false,
      "metar": "METAR EYKA 161350Z 01004KT 310V080 CAVOK M07/M15 Q1010",
      "taf": "TAF EYKA 161101Z 1612/1712 09010KT 9000 NSC"
    },
    {
      "icao": "EYPA",
      "alert": "OK",
      "vis_m": 9999,
      "fzfg": false,
      "metar_trigger": false,
      "taf_trigger": false,
      "metar": "METAR EYPA 161350Z 10009KT 070V140 CAVOK M04/M12 Q1010",
      "taf": ""
    },
    {
      "icao": "EYVI",
      "alert": "OK",
      "vis_m": 9999,
      "fzfg": false,
      "metar_trigger": false,
      "taf_trigger": false,
      "metar": "METAR EYVI 161350Z 06008KT CAVOK M08/M24 Q1008 NOSIG",
      "taf": "TAF EYVI 161100Z 1612/1712 VRB04KT 8000 NSC"
    },
    {
      "icao": "GCFV",
      "alert": "OK",
      "vis_m": 9999,
      "fzfg": false,
      "metar_trigger": false,
      "taf_trigger": false,
      "metar": "METAR GCFV 161400Z 05005KT 020V090 9999 FEW030 20/16 Q1028",
      "taf": "TAF GCFV 160800Z 1609/1709 07010KT 7000 NSC TX25/1614Z TN17/1706Z"
    },
    {
      "icao": "GCLP",
      "alert": "OK",
      "vis_m": 5000,
      "fzfg": false,
      "metar_trigger": false,
      "taf_trigger": false,
      "metar": "METAR GCLP 161400Z 14007KT 070V170 5000 HZ NSC 21/14 Q1027 TEMPO 4500 HZ",
      "taf": "TAF GCLP 160800Z 1609/1709 16008KT 7000 NSC TX26/1614Z TN16/1706Z"
    },
    {
      "icao": "GCTS",
      "alert": "OK",
      "vis_m": 2500,
      "fzfg": false,
      "metar_trigger": false,
      "taf_trigger": false,
      "metar": "METAR GCTS 161400Z 11008KT 070V180 2500 HZ NSC 24/01 Q1027 NOSIG",
      "taf": ""
    },
    {
      "icao": "GMAD",
      "alert": "OK",
      "vis_m": 9999,
      "fzfg": false,
      "metar_trigger": false,
      "taf_trigger": false,
      "metar": "METAR GMAD 161400Z 27009KT CAVOK 25/10 Q1026 NOSIG",
      "taf": "TAF GMAD 161100Z 1612/1718 27010KT CAVOK"
    },
    {
      "icao": "GMMN",
      "alert": "OK",
      "vis_m": 9999,
      "fzfg": false,
      "metar_trigger": false,
      "taf_trigger": false,
      "metar": "METAR GMMN 161400Z 03012KT 360V060 CAVOK 17/12 Q1030 NOSIG",
      "taf": "TAF GMMN 161100Z 1612/1718 03011KT CAVOK"
    },
    {
      "icao": "GMMX",
      "alert": "OK",
      "vis_m": 9999,
      "fzfg": false,
      "metar_trigger": false,
      "taf_trigger": false,
      "metar": "METAR GMMX 161400Z 09006KT 040V120 CAVOK 24/07 Q1028 NOSIG",
      "taf": "TAF GMMX 161100Z 1612/1718 06006KT 8000 NSC"
    },
    {
      "icao": "HEGN",
      "alert": "OK",
      "vis_m": 9999,
      "fzfg": false,
      "metar_trigger": false,
      "taf_trigger": false,
      "metar": "METAR HEGN 161400Z 10005KT CAVOK 27/13 Q1011 NOSIG",
      "taf": "TAF HEGN 161100Z 1612/1718 12010KT CAVOK"
    },
    {
      "icao": "HEMA",
      "alert": "OK",
      "vis_m": 9999,
      "fzfg": false,
      "metar_trigger": false,
      "taf_trigger": false,
      "metar": "METAR HEMA 161400Z 05005KT CAVOK 26/17 Q1011 NOSIG",
      "taf": "TAF HEMA 161100Z 1612/1718 02012KT CAVOK"
    },
    {
      "icao": "HESH",
      "alert": "OK",
      "vis_m": 9999,
      "fzfg": false,
      "metar_trigger": false,
      "taf_trigger": false,
      "metar": "METAR HESH 161400Z 03006KT CAVOK 30/04 Q1011 NOSIG",
      "taf": "TAF HESH 161100Z 1612/1718 17012KT 6000 NSC"
    },
    {
      "icao": "HESX",
      "alert": "OK",
      "vis_m": 9999,
      "fzfg": false,
      "metar_trigger": false,
      "taf_trigger": false,
      "metar": "METAR HESX 161400Z 30012KT CAVOK 28/01 Q1010 NOSIG",
      "taf": "TAF HESX 161100Z 1612/1718 18012KT CAVOK"
    },
    {
      "icao": "LATI",
      "alert": "OK",
      "vis_m": 9999,
      "fzfg": false,
      "metar_trigger": false,
      "taf_trigger": false,
      "metar": "METAR LATI 161350Z 20008KT 170V240 9999 SCT035 14/05 Q1006 NOSIG",
      "taf": "TAF LATI 161100Z 1612/1712 22008KT 9999 SCT050 BKN090 TX15/1612Z TN08/1704Z"
    },
    {
      "icao": "LBPD",
      "alert": "OK",
      "vis_m": 9999,
      "fzfg": false,
      "metar_trigger": false,
      "taf_trigger": false,
      "metar": "METAR LBPD 161400Z AUTO 12007KT 090V150 9999 FEW069/// SCT083/// 11/06 Q1004 NOSIG",
      "taf": "TAF LBPD 161100Z 1612/1712 VRB03KT 8000 -RA SCT015 BKN040"
    },
    {
      "icao": "LBSF",
      "alert": "OK",
      "vis_m": 9999,
      "fzfg": false,
      "metar_trigger": false,
      "taf_trigger": false,
      "metar": "METAR LBSF 161400Z 22003KT 150V270 9999 SCT042 BKN052 06/01 Q1003 NOSIG",
      "taf": "TAF LBSF 161100Z 1612/1712 VRB04KT 9999 SCT020 BKN040"
    },
    {
      "icao": "LBWN",
      "alert": "OK",
      "vis_m": 9000,
      "fzfg": false,
      "metar_trigger": false,
      "taf_trigger": false,
      "metar": "METAR LBWN 161400Z 14005KT 9000 -RA OVC029 05/04 Q1006 RERA TEMPO 5000 RA",
      "taf": "TAF LBWN 161100Z 1612/1712 12008KT 9999 SCT025 BKN045"
    },
    {
      "icao": "LCLK",
      "alert": "OK",
      "vis_m": 6000,
      "fzfg": false,
      "metar_trigger": false,
      "taf_trigger": false,
      "metar": "METAR LCLK 161400Z 08008KT 6000 FEW060 20/16 Q1011 NOSIG",
      "taf": "TAF LCLK 161130Z 1612/1712 09012KT 8000 FEW035"
    },
    {
      "icao": "LCPH",
      "alert": "OK",
      "vis_m": 5000,
      "fzfg": false,
      "metar_trigger": false,
      "taf_trigger": false,
      "metar": "METAR LCPH 161400Z 14010KT 090V160 5000 DU NSC 21/10 Q1010 NOSIG",
      "taf": "TAF LCPH 161130Z 1612/1712 14016KT 7000 FEW020"
    },
    {
      "icao": "LEAL",
      "alert": "OK",
      "vis_m": 9999,
      "fzfg": false,
      "metar_trigger": false,
      "taf_trigger": false,
      "metar": "METAR LEAL 161400Z 29013KT 260V340 CAVOK 22/09 Q1020 NOSIG",
      "taf": "TAF LEAL 161100Z 1612/1712 29014KT 9999 FEW040 TX22/1614Z TN15/1706Z"
    },
    {
      "icao": "LEBB",
      "alert": "OK",
      "vis_m": 1900,
      "fzfg": false,
      "metar_trigger": false,
      "taf_trigger": false,
      "metar": "METAR LEBB 161400Z 29005KT 260V320 1900 RA BKN005 OVC011 12/12 Q1019 NOSIG",
      "taf": "TAF LEBB 161100Z 1612/1712 29009KT 9999 SCT005 BKN016 TX13/1712Z TN10/1705Z"
    },
    {
      "icao": "LEBL",
      "alert": "OK",
      "vis_m": 9999,
      "fzfg": false,
      "metar_trigger": false,
      "taf_trigger": false,
      "metar": "METAR LEBL 161400Z 21012KT 9999 FEW025 SCT058 19/11 Q1011 NOSIG",
      "taf": "TAF LEBL 161100Z 1612/1712 23012KT 9999 FEW030 TX20/1613Z TN10/1706Z"
    },
    {
      "icao": "LECH",
      "alert": "OK",
      "vis_m": 9000,
      "fzfg": false,
      "metar_trigger": false,
      "taf_trigger": false,
      "metar": "METAR LECH 161400Z AUTO 33014KT 280V010 9000 SCT070 23/06 Q1015",
      "taf": ""
    },
    {
      "icao": "LEMD",
      "alert": "OK",
      "vis_m": 9999,
      "fzfg": false,
      "metar_trigger": false,
      "taf_trigger": false,
      "metar": "METAR LEMD 161400Z 25011KT 220V280 9999 FEW047 SCT055 16/08 Q1023 NOSIG",
      "taf": "TAF LEMD 161100Z 1612/1718 24010KT 9999 SCT025 TX15/1614Z TN07/1707Z"
    },
    {
      "icao": "LEMG",
      "alert": "OK",
      "vis_m": 9999,
      "fzfg": false,
      "metar_trigger": false,
      "taf_trigger": false,
      "metar": "METAR LEMG 161400Z 30018G28KT 270V330 CAVOK 17/09 Q1028 NOSIG",
      "taf": "TAF LEMG 161100Z 1612/1712 31020KT 9999 FEW040 TX19/1614Z TN11/1707Z"
    },
    {
      "icao": "LEVC",
      "alert": "OK",
      "vis_m": 9999,
      "fzfg": false,
      "metar_trigger": false,
      "taf_trigger": false,
      "metar": "METAR LEVC 161400Z 26026KT CAVOK 20/08 Q1018 NOSIG",
      "taf": "TAF LEVC 161100Z 1612/1712 27014KT 9999 FEW040 TX24/1614Z TN16/1706Z"
    },
    {
      "icao": "LEXJ",
      "alert": "OK",
      "vis_m": 1200,
      "fzfg": false,
      "metar_trigger": false,
      "taf_trigger": false,
      "metar": "METAR LEXJ 161400Z 33007KT 290V020 1200 R29/1900N R11/1900N RA OVC004 12/11 Q1019",
      "taf": ""
    },
    {
      "icao": "LEZG",
      "alert": "OK",
      "vis_m": 9999,
      "fzfg": false,
      "metar_trigger": false,
      "taf_trigger": false,
      "metar": "METAR LEZG 161400Z 25025KT 9999 SCT040 18/09 Q1016 NOSIG",
      "taf": "TAF LEZG 161100Z 1612/1712 27014KT 9999 SCT040 TX18/1613Z TN10/1706Z"
    },
    {
      "icao": "LEZL",
      "alert": "OK",
      "vis_m": 9999,
      "fzfg": false,
      "metar_trigger": false,
      "taf_trigger": false,
      "metar": "METAR LEZL 161400Z 25005KT 200V300 9999 BKN030 17/11 Q1030 NOSIG",
      "taf": "TAF LEZL 160800Z 1609/1709 27006KT 9999 SCT040 TX19/1615Z TN08/1707Z"
    },
    {
      "icao": "LFBD",
      "alert": "OK",
      "vis_m": 9999,
      "fzfg": false,
      "metar_trigger": false,
      "taf_trigger": false,
      "metar": "METAR LFBD 161400Z AUTO 29014KT 9999 FEW008/// BKN041/// BKN052/// ///TCU 12/10 Q1013 TEMPO 29020G30KT 4000 SHRA BKN008 BKN020TCU",
      "taf": "TAF LFBD 161100Z 1612/1718 28015KT 9999 BKN020 TX13/1713Z TN08/1705Z"
    },
    {
      "icao": "LFLL",
      "alert": "OK",
      "vis_m": 9999,
      "fzfg": false,
      "metar_trigger": false,
      "taf_trigger": false,
      "metar": "METAR LFLL 161400Z 22010KT 9999 FEW030TCU BKN170 10/06 Q1006 TEMPO 30015G25KT 4000 -SHRA SCT030CB BKN050",
      "taf": ""
    },
    {
      "icao": "LFLS",
      "alert": "OK",
      "vis_m": 9999,
      "fzfg": false,
      "metar_trigger": false,
      "taf_trigger": false,
      "metar": "METAR LFLS 161400Z AUTO 26004KT 190V310 9999 FEW024 BKN030 BKN035 09/05 Q1007 TEMPO VRB20G40KT 2000 SHRA SCT014CB BKN020TCU",
      "taf": "TAF LFLS 160800Z 1609/1709 VRB05KT 9000 -RA SCT015 OVC040"
    },
    {
      "icao": "LFMN",
      "alert": "OK",
      "vis_m": 9999,
      "fzfg": false,
      "metar_trigger": false,
      "taf_trigger": false,
      "metar": "METAR LFMN 161400Z 25025KT 9999 FEW050 BKN230 16/06 Q1001 NOSIG",
      "taf": "TAF LFMN 160800Z 1609/1715 26020KT CAVOK"
    },
    {
      "icao": "LFOB",
      "alert": "OK",
      "vis_m": 9999,
      "fzfg": false,
      "metar_trigger": false,
      "taf_trigger": false,
      "metar": "METAR LFOB 161400Z AUTO 27020G31KT 240V300 9999 FEW039 SCT054 10/04 Q1000 TEMPO 3500 SHRA SCT014 SCT020CB SCT030TCU",
      "taf": "TAF LFOB 161100Z 1612/1712 28012KT 9999 BKN030"
    },
    {
      "icao": "LFPO",
      "alert": "OK",
      "vis_m": 9999,
      "fzfg": false,
      "metar_trigger": false,
      "taf_trigger": false,
      "metar": "METAR LFPO 161400Z 29017KT 260V330 9999 FEW040TCU SCT040 11/02 Q1001 TEMPO 27015G30KT",
      "taf": "TAF LFPO 161100Z 1612/1718 25012KT 9999 BKN030"
    },
    {
      "icao": "LFSB",
      "alert": "OK",
      "vis_m": 9999,
      "fzfg": false,
      "metar_trigger": false,
      "taf_trigger": false,
      "metar": "METAR LFSB 161400Z AUTO 27010KT 9999 -RA FEW026/// BKN034/// BKN043/// ///CB 07/04 Q1000 TEMPO 28015G35KT 2000 TSRAGS",
      "taf": ""
    },
    {
      "icao": "LGAV",
      "alert": "OK",
      "vis_m": 9999,
      "fzfg": false,
      "metar_trigger": false,
      "taf_trigger": false,
      "metar": "METAR LGAV 161350Z 27014KT 240V300 9999 SCT025 SCT070 16/07 Q1005 NOSIG",
      "taf": "TAF LGAV 161100Z 1612/1712 27014KT 9999 SCT020"
    },
    {
      "icao": "LGTS",
      "alert": "OK",
      "vis_m": 9999,
      "fzfg": false,
      "metar_trigger": false,
      "taf_trigger": false,
      "metar": "METAR LGTS 161350Z 30005KT 9999 FEW020 16/08 Q1003 NOSIG",
      "taf": "TAF LGTS 161100Z 1612/1712 VRB03KT 9999 FEW025"
    },
    {
      "icao": "LHBP",
      "alert": "OK",
      "vis_m": 9999,
      "fzfg": false,
      "metar_trigger": false,
      "taf_trigger": false,
      "metar": "METAR LHBP 161400Z 12005KT 9999 -SN OVC031 00/M06 Q1004 TEMPO 1200 +SN BKN012",
      "taf": "TAF LHBP 161115Z 1612/1712 13009KT 9999 BKN040 OVC070"
    },
    {
      "icao": "LHDC",
      "alert": "OK",
      "vis_m": 9999,
      "fzfg": false,
      "metar_trigger": false,
      "taf_trigger": false,
      "metar": "METAR LHDC 161345Z AUTO 16006KT 130V190 9999 OVC019 01/M03 Q1005 NOSIG",
      "taf": "TAF LHDC 161115Z 1612/1621 16008KT CAVOK"
    },
    {
      "icao": "LIBD",
      "alert": "OK",
      "vis_m": 9999,
      "fzfg": false,
      "metar_trigger": false,
      "taf_trigger": false,
      "metar": "METAR LIBD 161350Z 20009KT 9999 FEW040 15/08 Q1004",
      "taf": "TAF LIBD 161100Z 1612/1712 18010KT 9999 FEW030"
    },
    {
      "icao": "LIBG",
      "alert": "OK",
      "vis_m": 9999,
      "fzfg": false,
      "metar_trigger": false,
      "taf_trigger": false,
      "metar": "METAR LIBG 161350Z 17009KT 9999 FEW020 13/09 Q1005",
      "taf": "TAF LIBG 161100Z 1612/1621 19010KT 9999 FEW020"
    },
    {
      "icao": "LIBP",
      "alert": "OK",
      "vis_m": 9999,
      "fzfg": false,
      "metar_trigger": false,
      "taf_trigger": false,
      "metar": "METAR LIBP 161350Z AUTO 15005KT 120V200 9999 SCT180/// SCT210/// 17/06 Q1001",
      "taf": "TAF LIBP 161100Z 1612/1712 VRB06KT 9999 SCT080"
    },
    {
      "icao": "LIBR",
      "alert": "OK",
      "vis_m": 9999,
      "fzfg": false,
      "metar_trigger": false,
      "taf_trigger": false,
      "metar": "METAR LIBR 161350Z 19010KT CAVOK 13/06 Q1005",
      "taf": "TAF LIBR 161100Z 1612/1712 18012KT 9999 FEW030"
    },
    {
      "icao": "LICA",
      "alert": "OK",
      "vis_m": 9999,
      "fzfg": false,
      "metar_trigger": false,
      "taf_trigger": false,
      "metar": "METAR LICA 161350Z AUTO 25005KT 9999 DZRA OVC010/// 11/10 Q1009",
      "taf": "TAF LICA 161100Z 1612/1712 28015KT 9999 FEW030"
    },
    {
      "icao": "LICC",
      "alert": "OK",
      "vis_m": 9999,
      "fzfg": false,
      "metar_trigger": false,
      "taf_trigger": false,
      "metar": "METAR LICC 161350Z 26012KT 9999 FEW030 SCT070 BKN120 16/12 Q1009",
      "taf": "TAF LICC 161100Z 1612/1712 27015KT 9999 SCT020"
    },
    {
      "icao": "LICJ",
      "alert": "OK",
      "vis_m": 9999,
      "fzfg": false,
      "metar_trigger": false,
      "taf_trigger": false,
      "metar": "METAR LICJ 161350Z 26024KT 9999 SCT025 BKN040 15/11 Q1011",
      "taf": "TAF LICJ 161100Z 1612/1712 27020G32KT 9999 SCT030"
    },
    {
      "icao": "LIMC",
      "alert": "OK",
      "vis_m": 9999,
      "fzfg": false,
      "metar_trigger": false,
      "taf_trigger": false,
      "metar": "METAR LIMC 161350Z VRB03KT CAVOK 11/02 Q1000 NOSIG",
      "taf": "TAF LIMC 161100Z 1612/1718 VRB05KT 9999 SCT050"
    },
    {
      "icao": "LIME",
      "alert": "OK",
      "vis_m": 9999,
      "fzfg": false,
      "metar_trigger": false,
      "taf_trigger": false,
      "metar": "METAR LIME 161350Z AUTO 22005KT 9999 NCD 09/04 Q1000",
      "taf": "TAF LIME 161100Z 1612/1712 28008KT 9999 SCT040"
    },
    {
      "icao": "LIMF",
      "alert": "OK",
      "vis_m": 9999,
      "fzfg": false,
      "metar_trigger": false,
      "taf_trigger": false,
      "metar": "METAR LIMF 161350Z VRB02KT 9999 FEW100 09/01 Q1001",
      "taf": "TAF LIMF 161100Z 1612/1712 VRB05KT CAVOK"
    },
    {
      "icao": "LIMJ",
      "alert": "OK",
      "vis_m": 9999,
      "fzfg": false,
      "metar_trigger": false,
      "taf_trigger": false,
      "metar": "METAR LIMJ 161350Z 13009KT 9999 FEW018 SCT030 14/10 Q0999",
      "taf": "TAF LIMJ 161100Z 1612/1712 VRB05KT 9999 FEW020 SCT030"
    },
    {
      "icao": "LIPE",
      "alert": "OK",
      "vis_m": 9999,
      "fzfg": false,
      "metar_trigger": false,
      "taf_trigger": false,
      "metar": "METAR LIPE 161350Z 33005KT 200V360 9999 FEW020 SCT045 13/07 Q1000",
      "taf": "TAF LIPE 161100Z 1612/1712 VRB05KT 9999 FEW020 SCT040"
    },
    {
      "icao": "LIPH",
      "alert": "OK",
      "vis_m": 9999,
      "fzfg": false,
      "metar_trigger": false,
      "taf_trigger": false,
      "metar": "METAR LIPH 161350Z 09003KT 030V130 9999 FEW030 10/03 Q1000",
      "taf": "TAF LIPH 161100Z 1612/1712 06006KT 9999 FEW020"
    },
    {
      "icao": "LIPQ",
      "alert": "OK",
      "vis_m": 9999,
      "fzfg": false,
      "metar_trigger": false,
      "taf_trigger": false,
      "metar": "METAR LIPQ 161350Z AUTO 02005KT 9999 FEW100/// 11/04 Q1000",
      "taf": "TAF LIPQ 161100Z 1612/1712 VRB05KT 9999 SCT030"
    },
    {
      "icao": "LIPR",
      "alert": "OK",
      "vis_m": 9999,
      "fzfg": false,
      "metar_trigger": false,
      "taf_trigger": false,
      "metar": "METAR LIPR 161350Z 35005KT 270V030 9999 -RA FEW040 BKN050 13/07 Q1000",
      "taf": "TAF LIPR 161100Z 1612/1712 19010KT 9999 SCT030"
    },
    {
      "icao": "LIPX",
      "alert": "OK",
      "vis_m": 9999,
      "fzfg": false,
      "metar_trigger": false,
      "taf_trigger": false,
      "metar": "METAR LIPX 161350Z 29003KT 260V350 9999 FEW080 09/04 Q1000",
      "taf": "TAF LIPX 161100Z 1612/1712 VRB05KT 9999 FEW040"
    },
    {
      "icao": "LIPY",
      "alert": "OK",
      "vis_m": 9999,
      "fzfg": false,
      "metar_trigger": false,
      "taf_trigger": false,
      "metar": "METAR LIPY 161350Z AUTO 24010KT 9999 BKN060/// BKN083/// 14/05 Q1000",
      "taf": "TAF LIPY 161100Z 1612/1712 19007KT 9999 SCT040"
    },
    {
      "icao": "LIPZ",
      "alert": "OK",
      "vis_m": 9999,
      "fzfg": false,
      "metar_trigger": false,
      "taf_trigger": false,
      "metar": "METAR LIPZ 161350Z 03007KT 9999 FEW025 09/03 Q1000 NOSIG",
      "taf": "TAF LIPZ 161100Z 1612/1718 04010KT 9999 FEW020"
    },
    {
      "icao": "LIRF",
      "alert": "OK",
      "vis_m": 9999,
      "fzfg": false,
      "metar_trigger": false,
      "taf_trigger": false,
      "metar": "METAR LIRF 161350Z 22008KT 9999 FEW015 SCT025 16/12 Q1003 NOSIG",
      "taf": "TAF LIRF 161100Z 1612/1718 14012KT 9999 SCT030"
    },
    {
      "icao": "LIRN",
      "alert": "OK",
      "vis_m": 8000,
      "fzfg": false,
      "metar_trigger": false,
      "taf_trigger": false,
      "metar": "METAR LIRN 161350Z 20005KT 170V250 8000 -RA SCT020 14/12 Q1005 NOSIG",
      "taf": "TAF LIRN 161100Z 1612/1712 22012KT 9999 SCT030"
    },
    {
      "icao": "LIRP",
      "alert": "OK",
      "vis_m": 9999,
      "fzfg": false,
      "metar_trigger": false,
      "taf_trigger": false,
      "metar": "METAR LIRP 161345Z 23018G28KT 9999 BKN040 15/10 Q1000 NOSIG",
      "taf": "TAF LIRP 161100Z 1612/1712 27012KT 9999 SCT020 BKN040"
    },
    {
      "icao": "LIRZ",
      "alert": "OK",
      "vis_m": 9999,
      "fzfg": false,
      "metar_trigger": false,
      "taf_trigger": false,
      "metar": "METAR LIRZ 161350Z AUTO 17004KT 9999 OVC047/// 12/06 Q1001",
      "taf": "TAF LIRZ 161100Z 1612/1712 20010KT 9999 BKN030"
    },
    {
      "icao": "LJLJ",
      "alert": "OK",
      "vis_m": 9999,
      "fzfg": false,
      "metar_trigger": false,
      "taf_trigger": false,
      "metar": "METAR LJLJ 161400Z 09004KT 9999 FEW030 SCT043 BKN055 05/01 Q0999 NOSIG",
      "taf": "TAF LJLJ 161100Z 1612/1712 VRB02KT 9999 SCT033 BKN040"
    },
    {
      "icao": "LKMT",
      "alert": "OK",
      "vis_m": 6000,
      "fzfg": false,
      "metar_trigger": false,
      "taf_trigger": false,
      "metar": "METAR LKMT 161400Z 23005KT 6000 BKN025 OVC033 M05/M07 Q0999 NOSIG",
      "taf": ""
    },
    {
      "icao": "LKPR",
      "alert": "OK",
      "vis_m": 9999,
      "fzfg": false,
      "metar_trigger": false,
      "taf_trigger": false,
      "metar": "METAR LKPR 161400Z VRB02KT 9999 OVC011 M01/M03 Q0995 NOSIG",
      "taf": "TAF LKPR 161100Z 1612/1718 14007KT 6000 -SN OVC020"
    },
    {
      "icao": "LLBG",
      "alert": "OK",
      "vis_m": 9000,
      "fzfg": false,
      "metar_trigger": false,
      "taf_trigger": false,
      "metar": "METAR LLBG 161350Z 33005KT 9000 NSC 27/04 Q1010 NOSIG",
      "taf": "TAF LLBG 161114Z 1612/1712 30008KT 8000 NSC"
    },
    {
      "icao": "LMML",
      "alert": "OK",
      "vis_m": 9999,
      "fzfg": false,
      "metar_trigger": false,
      "taf_trigger": false,
      "metar": "METAR LMML 161345Z 28019KT 9999 SCT020 15/11 Q1013 NOSIG",
      "taf": "TAF LMML 161100Z 1612/1712 28020G30KT 9999 SCT018"
    },
    {
      "icao": "LOWW",
      "alert": "OK",
      "vis_m": 9999,
      "fzfg": false,
      "metar_trigger": false,
      "taf_trigger": false,
      "metar": "METAR LOWW 161350Z 12006KT 9999 FEW026 SCT036 M00/M02 Q1000 NOSIG",
      "taf": "TAF LOWW 161115Z 1612/1718 15010KT 5000 -SN BKN010 TX05/1714Z TNM02/1622Z"
    },
    {
      "icao": "LPFR",
      "alert": "OK",
      "vis_m": 9999,
      "fzfg": false,
      "metar_trigger": false,
      "taf_trigger": false,
      "metar": "METAR LPFR 161400Z 24010KT 9999 BKN034 16/13 Q1031",
      "taf": "TAF LPFR 161100Z 1612/1712 24010KT 9999 BKN030"
    },
    {
      "icao": "LPMA",
      "alert": "OK",
      "vis_m": 9999,
      "fzfg": false,
      "metar_trigger": false,
      "taf_trigger": false,
      "metar": "METAR LPMA 161400Z 10006KT 040V130 9999 SCT014 19/13 Q1031",
      "taf": "TAF LPMA 161100Z 1612/1712 06010KT 9999 SCT015"
    },
    {
      "icao": "LPPR",
      "alert": "OK",
      "vis_m": 8000,
      "fzfg": false,
      "metar_trigger": false,
      "taf_trigger": false,
      "metar": "METAR LPPR 161400Z 25006KT 170V300 8000 SCT004 BKN008 14/13 Q1028",
      "taf": "TAF LPPR 161100Z 1612/1712 26010KT 8000 SCT006 BKN012"
    },
    {
      "icao": "LPPS",
      "alert": "OK",
      "vis_m": 9999,
      "fzfg": false,
      "metar_trigger": false,
      "taf_trigger": false,
      "metar": "METAR LPPS 161400Z 11014KT 9999 FEW014 SCT030 17/13 Q1031",
      "taf": "TAF LPPS 161100Z 1612/1718 11015KT 9999 SCT015"
    },
    {
      "icao": "LPPT",
      "alert": "OK",
      "vis_m": 9999,
      "fzfg": false,
      "metar_trigger": false,
      "taf_trigger": false,
      "metar": "METAR LPPT 161400Z 29008KT 260V330 9999 BKN026 16/10 Q1031",
      "taf": "TAF LPPT 161100Z 1612/1718 26008KT 9999 FEW015 BKN030"
    },
    {
      "icao": "LQBK",
      "alert": "OK",
      "vis_m": 9999,
      "fzfg": false,
      "metar_trigger": false,
      "taf_trigger": false,
      "metar": "METAR LQBK 161400Z VRB02KT 9999 FEW030 BKN047 03/01 Q1002 RERA NOSIG",
      "taf": "TAF LQBK 161100Z 1612/1712 14004KT 9999 SCT040 TX04/1613Z TN00/1706Z"
    },
    {
      "icao": "LQSA",
      "alert": "OK",
      "vis_m": 9999,
      "fzfg": false,
      "metar_trigger": false,
      "taf_trigger": false,
      "metar": "METAR LQSA 161400Z VRB01KT CAVOK 08/01 Q1002 NOSIG",
      "taf": "TAF LQSA 161100Z 1612/1712 VRB02KT 9999 SCT035 TX07/1614Z TNM01/1706Z"
    },
    {
      "icao": "LQTZ",
      "alert": "OK",
      "vis_m": 9999,
      "fzfg": false,
      "metar_trigger": false,
      "taf_trigger": false,
      "metar": "METAR LQTZ 161400Z VRB02KT 9999 BKN055 08/03 Q1002",
      "taf": "TAF LQTZ 161100Z 1612/1712 09005KT 9999 SCT055 TX07/1614Z TN00/1706Z"
    },
    {
      "icao": "LRBC",
      "alert": "OK",
      "vis_m": 9999,
      "fzfg": false,
      "metar_trigger": false,
      "taf_trigger": false,
      "metar": "METAR LRBC 161400Z 17012KT CAVOK 01/M02 Q1005",
      "taf": "TAF LRBC 161100Z 1612/1621 VRB04KT CAVOK"
    },
    {
      "icao": "LRBS",
      "alert": "OK",
      "vis_m": 6000,
      "fzfg": false,
      "metar_trigger": false,
      "taf_trigger": false,
      "metar": "METAR LRBS 161400Z 03005KT 340V070 6000 BKN005 OVC015 03/02 Q1006 NOSIG",
      "taf": "TAF LRBS 161100Z 1612/1712 04006KT 9999 BKN005"
    },
    {
      "icao": "LRBV",
      "alert": "OK",
      "vis_m": 9999,
      "fzfg": false,
      "metar_trigger": false,
      "taf_trigger": false,
      "metar": "METAR LRBV 161400Z 33004KT 300V030 9999 BKN025 BKN030 03/M02 Q1003",
      "taf": "TAF LRBV 161100Z 1612/1621 VRB04KT 9999 BKN030"
    },
    {
      "icao": "LRCL",
      "alert": "OK",
      "vis_m": 9999,
      "fzfg": false,
      "metar_trigger": false,
      "taf_trigger": false,
      "metar": "METAR LRCL 161400Z 12005KT 080V180 9999 BKN016 M00/M05 Q1004",
      "taf": "TAF LRCL 161100Z 1612/1621 09006KT 9999 BKN030"
    },
    {
      "icao": "LRCV",
      "alert": "OK",
      "vis_m": 9999,
      "fzfg": false,
      "metar_trigger": false,
      "taf_trigger": false,
      "metar": "METAR LRCV 161400Z 27006KT CAVOK 08/M00 Q1004",
      "taf": "TAF LRCV 161100Z 1612/1621 28009KT CAVOK"
    },
    {
      "icao": "LRIA",
      "alert": "OK",
      "vis_m": 9999,
      "fzfg": false,
      "metar_trigger": false,
      "taf_trigger": false,
      "metar": "METAR LRIA 161400Z 01004KT 9999 FEW022 M02/M07 Q1007",
      "taf": "TAF LRIA 161100Z 1612/1621 35005KT CAVOK"
    },
    {
      "icao": "LROP",
      "alert": "OK",
      "vis_m": 6000,
      "fzfg": false,
      "metar_trigger": false,
      "taf_trigger": false,
      "metar": "METAR LROP 161400Z 05008KT 6000 OVC005 03/02 Q1006 NOSIG",
      "taf": "TAF LROP 161100Z 1612/1712 04006KT 5000 BR BKN005"
    },
    {
      "icao": "LRSB",
      "alert": "OK",
      "vis_m": 9999,
      "fzfg": false,
      "metar_trigger": false,
      "taf_trigger": false,
      "metar": "METAR LRSB 161400Z 25004KT 220V300 9999 FEW029 BKN045 03/M02 Q1003",
      "taf": "TAF LRSB 161100Z 1612/1712 VRB04KT 9999 SCT020"
    },
    {
      "icao": "LRSM",
      "alert": "OK",
      "vis_m": 9999,
      "fzfg": false,
      "metar_trigger": false,
      "taf_trigger": false,
      "metar": "METAR LRSM 161400Z 12003KT CAVOK 01/M06 Q1005",
      "taf": "TAF LRSM 161100Z 1612/1621 VRB04KT CAVOK"
    },
    {
      "icao": "LRSV",
      "alert": "OK",
      "vis_m": 9999,
      "fzfg": false,
      "metar_trigger": false,
      "taf_trigger": false,
      "metar": "METAR LRSV 161400Z 06004KT 9999 SCT016 M04/M07 Q1004",
      "taf": "TAF LRSV 161100Z 1612/1621 VRB02KT CAVOK"
    },
    {
      "icao": "LRTM",
      "alert": "OK",
      "vis_m": 9999,
      "fzfg": false,
      "metar_trigger": false,
      "taf_trigger": false,
      "metar": "METAR LRTM 161400Z 04005KT 360V060 9999 FEW020 01/M04 Q1004",
      "taf": "TAF LRTM 161100Z 1612/1621 06006KT 9999 BKN030"
    },
    {
      "icao": "LRTR",
      "alert": "OK",
      "vis_m": 9999,
      "fzfg": false,
      "metar_trigger": false,
      "taf_trigger": false,
      "metar": "METAR LRTR 161400Z 15008KT 110V180 CAVOK 04/M01 Q1004",
      "taf": "TAF LRTR 161100Z 1612/1712 VRB04KT 9999 BKN020"
    },
    {
      "icao": "LTAC",
      "alert": "OK",
      "vis_m": 9999,
      "fzfg": false,
      "metar_trigger": false,
      "taf_trigger": false,
      "metar": "METAR LTAC 161350Z 22005KT 9999 FEW040 BKN100 14/01 Q1009 NOSIG RMK RWY21C 21006KT RWY03L 22005KT RWY21R 20007KT RWY03R 19006KT RWY21L 20006KT",
      "taf": "TAF LTAC 161040Z 1612/1712 21012KT 9999 SCT035 BKN100"
    },
    {
      "icao": "LTFM",
      "alert": "OK",
      "vis_m": 9999,
      "fzfg": false,
      "metar_trigger": false,
      "taf_trigger": false,
      "metar": "METAR LTFM 161350Z 33010KT 9999 SCT032 BKN080 09/06 Q1006 NOSIG RMK RWY17L 31014KT RWY34L 30017KT RWY16R 32012KT RWY36 32013KT 260V330 RWY18 31010KT",
      "taf": "TAF LTFM 161040Z 1612/1718 24012KT CAVOK"
    },
    {
      "icao": "LUKK",
      "alert": "OK",
      "vis_m": 9999,
      "fzfg": false,
      "metar_trigger": false,
      "taf_trigger": false,
      "metar": "METAR LUKK 161400Z 28006KT CAVOK M01/M06 Q1006 NOSIG",
      "taf": "TAF LUKK 161117Z 1612/1712 VRB05KT 9999 SCT015"
    },
    {
      "icao": "LWOH",
      "alert": "OK",
      "vis_m": 9999,
      "fzfg": false,
      "metar_trigger": false,
      "taf_trigger": false,
      "metar": "METAR LWOH 161350Z 18009KT 9999 FEW020 BKN040 08/05 Q1005",
      "taf": "TAF LWOH 161130Z 1612/1712 20010KT 9999 SCT040"
    },
    {
      "icao": "LWSK",
      "alert": "OK",
      "vis_m": 9999,
      "fzfg": false,
      "metar_trigger": false,
      "taf_trigger": false,
      "metar": "METAR LWSK 161350Z VRB01KT 9999 FEW029 11/04 Q1005 NOSIG",
      "taf": "TAF LWSK 161130Z 1612/1712 VRB02KT 9999 SCT035"
    },
    {
      "icao": "LYBE",
      "alert": "OK",
      "vis_m": 9999,
      "fzfg": false,
      "metar_trigger": false,
      "taf_trigger": false,
      "metar": "METAR LYBE 161400Z 12006KT 080V150 CAVOK 07/01 Q1003 NOSIG",
      "taf": "TAF LYBE 161100Z 1612/1712 13008KT CAVOK TX07/1613Z TN02/1705Z"
    },
    {
      "icao": "LYNI",
      "alert": "OK",
      "vis_m": 9999,
      "fzfg": false,
      "metar_trigger": false,
      "taf_trigger": false,
      "metar": "METAR LYNI 161400Z 19004KT 120V250 CAVOK 11/03 Q1004 NOSIG",
      "taf": "TAF LYNI 161100Z 1612/1712 19004KT CAVOK TX09/1613Z TN02/1712Z"
    },
    {
      "icao": "LYPG",
      "alert": "OK",
      "vis_m": 9999,
      "fzfg": false,
      "metar_trigger": false,
      "taf_trigger": false,
      "metar": "METAR LYPG 161400Z 18003KT 120V240 9999 SCT050 13/06 Q1006 NOSIG",
      "taf": "TAF LYPG 161100Z 1612/1712 14008KT 9999 SCT040 TX13/1612Z TN08/1706Z"
    },
    {
      "icao": "LZIB",
      "alert": "OK",
      "vis_m": 3400,
      "fzfg": false,
      "metar_trigger": false,
      "taf_trigger": false,
      "metar": "METAR LZIB 161400Z 04006KT 3400 -SN BR SCT004 BKN006 BKN008 M02/M02 Q1002 BECMG 3000 SN BKN010",
      "taf": ""
    },
    {
      "icao": "LZKZ",
      "alert": "OK",
      "vis_m": 9999,
      "fzfg": false,
      "metar_trigger": false,
      "taf_trigger": false,
      "metar": "METAR LZKZ 161400Z 20010KT 9999 BKN027 OVC037 M02/M06 Q1004 NOSIG",
      "taf": "TAF LZKZ 161115Z 1612/1712 21006KT 9999 FEW010 BKN035"
    },
    {
      "icao": "LZTT",
      "alert": "OK",
      "vis_m": 9999,
      "fzfg": false,
      "metar_trigger": false,
      "taf_trigger": false,
      "metar": "METAR LZTT 161400Z 16009KT 9999 SCT030 BKN060 M04/M07 Q0998 NOSIG",
      "taf": "TAF LZTT 161115Z 1612/1712 24005KT 9999 FEW012 SCT030"
    },
    {
      "icao": "OEJN",
      "alert": "OK",
      "vis_m": 8000,
      "fzfg": false,
      "metar_trigger": false,
      "taf_trigger": false,
      "metar": "METAR OEJN 161400Z 23008KT 8000 NSC 29/19 Q1010 NOSIG",
      "taf": "TAF OEJN 161100Z 1612/1718 24012KT 7000 NSC"
    },
    {
      "icao": "OEMA",
      "alert": "OK",
      "vis_m": 9999,
      "fzfg": false,
      "metar_trigger": false,
      "taf_trigger": false,
      "metar": "METAR OEMA 161400Z 14006KT CAVOK 32/M03 Q1017 NOSIG",
      "taf": "TAF OEMA 161100Z 1612/1718 09010KT 7000 NSC"
    },
    {
      "icao": "OJAI",
      "alert": "OK",
      "vis_m": 3500,
      "fzfg": false,
      "metar_trigger": false,
      "taf_trigger": false,
      "metar": "METAR OJAI 161400Z 16006KT 3500 DU NSC 26/M00 Q1015 NOSIG",
      "taf": "TAF OJAI 160957Z 1612/1718 09010KT 3000 DU NSC"
    },
    {
      "icao": "OMAA",
      "alert": "OK",
      "vis_m": 9999,
      "fzfg": false,
      "metar_trigger": false,
      "taf_trigger": false,
      "metar": "METAR OMAA 161400Z 30014KT CAVOK 23/17 Q1012 NOSIG",
      "taf": "TAF OMAA 161100Z 1612/1718 31014KT 8000 FEW035"
    },
    {
      "icao": "OMDB",
      "alert": "OK",
      "vis_m": 9999,
      "fzfg": false,
      "metar_trigger": false,
      "taf_trigger": false,
      "metar": "METAR OMDB 161400Z 33009KT 310V010 CAVOK 25/13 Q1011 NOSIG",
      "taf": "TAF OMDB 161100Z 1612/1718 33012KT 7000 NSC"
    },
    {
      "icao": "UAAA",
      "alert": "OK",
      "vis_m": 3100,
      "fzfg": false,
      "metar_trigger": false,
      "taf_trigger": false,
      "metar": "METAR UAAA 161400Z 23002MPS 3100 BR FU SCT050CB BKN100 05/01 Q1017 NOSIG",
      "taf": "TAF UAAA 161107Z 1612/1712 22003MPS 1500 BR SCT030CB BKN050 TX07/1709Z TNM00/1702Z"
    },
    {
      "icao": "UBBB",
      "alert": "OK",
      "vis_m": 9999,
      "fzfg": false,
      "metar_trigger": false,
      "taf_trigger": false,
      "metar": "METAR UBBB 161400Z 18026G36KT CAVOK 11/08 Q1011 NOSIG",
      "taf": "TAF UBBB 161052Z 1612/1712 17020G30KT 9999 SCT030 TX12/1612Z TN06/1701Z"
    },
    {
      "icao": "UDSG",
      "alert": "OK",
      "vis_m": 9999,
      "fzfg": false,
      "metar_trigger": false,
      "taf_trigger": false,
      "metar": "METAR UDSG 161400Z 20001KT 9999 NSC 03/M02 Q1023 NOSIG",
      "taf": "TAF UDSG 161058Z 1612/1712 VRB06KT 9999 FEW040"
    },
    {
      "icao": "UDYZ",
      "alert": "OK",
      "vis_m": 9999,
      "fzfg": false,
      "metar_trigger": false,
      "taf_trigger": false,
      "metar": "METAR UDYZ 161400Z VRB02KT 9999 NSC 14/01 Q1021 NOSIG",
      "taf": "TAF UDYZ 161100Z 1612/1712 VRB06KT 9999 NSC"
    },
    {
      "icao": "UGKO",
      "alert": "OK",
      "vis_m": 9999,
      "fzfg": false,
      "metar_trigger": false,
      "taf_trigger": false,
      "metar": "METAR UGKO 161400Z 08017KT 9999 BKN055 22/03 Q1008 NOSIG",
      "taf": "TAF UGKO 161100Z 1612/1712 08017KT CAVOK TX23/1612Z TN13/1703Z"
    }
  ]
}