{
  "ts_utc": "2026-05-20T23:55:14Z",
  "threshold_m": 150,
  "source": "stations_override.txt (ICAO list) + aviationweather.gov (METAR/TAF raw)",
  "station_count": 159,
  "stations": [
    {
      "icao": "BIKF",
      "alert": "OK",
      "vis_m": 9999,
      "fzfg": false,
      "metar_trigger": false,
      "taf_trigger": false,
      "metar": "METAR BIKF 202330Z 22004KT 180V270 CAVOK 07/05 Q1009",
      "taf": "TAF BIKF 202253Z 2100/2200 05010KT CAVOK TX13/2115Z TN06/2104Z"
    },
    {
      "icao": "BKPR",
      "alert": "OK",
      "vis_m": null,
      "fzfg": false,
      "metar_trigger": false,
      "taf_trigger": false,
      "metar": "",
      "taf": "TAF BKPR 202330Z 2100/2124 29006KT CAVOK"
    },
    {
      "icao": "EBCI",
      "alert": "OK",
      "vis_m": 9999,
      "fzfg": false,
      "metar_trigger": false,
      "taf_trigger": false,
      "metar": "METAR EBCI 202320Z 24008KT CAVOK 13/10 Q1027 NOSIG",
      "taf": "TAF EBCI 202315Z 2100/2206 23006KT 9999 FEW018 SCT030"
    },
    {
      "icao": "EDDB",
      "alert": "OK",
      "vis_m": 9999,
      "fzfg": false,
      "metar_trigger": false,
      "taf_trigger": false,
      "metar": "METAR EDDB 202350Z AUTO 26006KT CAVOK 12/11 Q1024 NOSIG",
      "taf": "TAF EDDB 202300Z 2100/2124 26006KT CAVOK"
    },
    {
      "icao": "EDDH",
      "alert": "OK",
      "vis_m": 9999,
      "fzfg": false,
      "metar_trigger": false,
      "taf_trigger": false,
      "metar": "METAR EDDH 202350Z AUTO 21004KT CAVOK 12/11 Q1023 NOSIG",
      "taf": "TAF EDDH 202300Z 2100/2206 22003KT 9999 SCT035"
    },
    {
      "icao": "EDDK",
      "alert": "OK",
      "vis_m": 9999,
      "fzfg": false,
      "metar_trigger": false,
      "taf_trigger": false,
      "metar": "METAR EDDK 202350Z AUTO 24004KT 9999 FEW025 BKN035 14/12 Q1027 NOSIG",
      "taf": "TAF EDDK 202300Z 2100/2206 22005KT 9999 SCT030"
    },
    {
      "icao": "EDDN",
      "alert": "OK",
      "vis_m": 9999,
      "fzfg": false,
      "metar_trigger": false,
      "taf_trigger": false,
      "metar": "METAR EDDN 202350Z AUTO 00000KT 9999 SCT046 12/10 Q1027",
      "taf": "TAF EDDN 202300Z 2100/2124 25005KT 9999 SCT030"
    },
    {
      "icao": "EDDS",
      "alert": "OK",
      "vis_m": 9999,
      "fzfg": false,
      "metar_trigger": false,
      "taf_trigger": false,
      "metar": "METAR EDDS 202350Z AUTO 00000KT CAVOK 13/10 Q1028",
      "taf": ""
    },
    {
      "icao": "EDFH",
      "alert": "OK",
      "vis_m": 9999,
      "fzfg": false,
      "metar_trigger": false,
      "taf_trigger": false,
      "metar": "METAR EDFH 202320Z 25007KT 9999 FEW018 SCT026 12/11 Q1028",
      "taf": "TAF EDFH 202300Z 2100/2124 25005KT 9999 FEW020"
    },
    {
      "icao": "EDJA",
      "alert": "OK",
      "vis_m": 9999,
      "fzfg": false,
      "metar_trigger": false,
      "taf_trigger": false,
      "metar": "METAR EDJA 202320Z AUTO 21006KT 9999 // OVC080/// 11/09 Q1029",
      "taf": "TAF EDJA 201700Z 2018/2103 33010KT 9999 BKN040"
    },
    {
      "icao": "EDLW",
      "alert": "OK",
      "vis_m": 9999,
      "fzfg": false,
      "metar_trigger": false,
      "taf_trigger": false,
      "metar": "METAR EDLW 202320Z AUTO 21007KT 9999 FEW032/// OVC072/// 14/12 Q1025",
      "taf": "TAF EDLW 201700Z 2018/2118 23006KT 9999 SCT040"
    },
    {
      "icao": "EDNY",
      "alert": "OK",
      "vis_m": 9999,
      "fzfg": false,
      "metar_trigger": false,
      "taf_trigger": false,
      "metar": "METAR EDNY 202320Z AUTO VRB01KT 9999 // OVC079/// 13/11 Q1029",
      "taf": "TAF EDNY 201700Z 2018/2103 22007KT 9999 SCT050"
    },
    {
      "icao": "EDSB",
      "alert": "OK",
      "vis_m": 9999,
      "fzfg": false,
      "metar_trigger": false,
      "taf_trigger": false,
      "metar": "METAR EDSB 202320Z AUTO 22006KT 9999 FEW040/// BKN046/// OVC067/// 15/11 Q1028",
      "taf": "TAF EDSB 202300Z 2100/2124 22004KT CAVOK"
    },
    {
      "icao": "EETN",
      "alert": "OK",
      "vis_m": 9999,
      "fzfg": false,
      "metar_trigger": false,
      "taf_trigger": false,
      "metar": "METAR EETN 202350Z 29003KT 260V350 CAVOK 10/08 Q1022",
      "taf": "TAF EETN 202330Z 2100/2124 29006KT CAVOK"
    },
    {
      "icao": "EFTU",
      "alert": "OK",
      "vis_m": 9999,
      "fzfg": false,
      "metar_trigger": false,
      "taf_trigger": false,
      "metar": "METAR EFTU 202350Z AUTO 13001KT 9999 0900 R26/1100D NCD 06/06 Q1021",
      "taf": "TAF EFTU 202334Z 2100/2124 24003KT CAVOK"
    },
    {
      "icao": "EGBB",
      "alert": "OK",
      "vis_m": 9999,
      "fzfg": false,
      "metar_trigger": false,
      "taf_trigger": false,
      "metar": "METAR EGBB 202320Z 21004KT 160V250 9999 BKN034 13/09 Q1024",
      "taf": "TAF EGBB 202254Z 2100/2124 19005KT 9999 SCT030"
    },
    {
      "icao": "EGGP",
      "alert": "OK",
      "vis_m": 9999,
      "fzfg": false,
      "metar_trigger": false,
      "taf_trigger": false,
      "metar": "METAR EGGP 202320Z 20004KT 9999 FEW045 12/08 Q1021",
      "taf": "TAF EGGP 202300Z 2100/2124 17007KT 9999 FEW015 SCT025"
    },
    {
      "icao": "EGGW",
      "alert": "OK",
      "vis_m": 9999,
      "fzfg": false,
      "metar_trigger": false,
      "taf_trigger": false,
      "metar": "METAR EGGW 202320Z AUTO 21004KT 180V240 9999 SCT029 11/08 Q1024",
      "taf": "TAF EGGW 202302Z 2100/2124 22006KT 9999 FEW035"
    },
    {
      "icao": "EGKK",
      "alert": "OK",
      "vis_m": 9999,
      "fzfg": false,
      "metar_trigger": false,
      "taf_trigger": false,
      "metar": "METAR EGKK 202320Z 21004KT 170V240 CAVOK 11/10 Q1025",
      "taf": "TAF EGKK 202256Z 2100/2206 21005KT 9999 FEW035"
    },
    {
      "icao": "EGNM",
      "alert": "OK",
      "vis_m": 9999,
      "fzfg": false,
      "metar_trigger": false,
      "taf_trigger": false,
      "metar": "METAR EGNM 202320Z 24010KT 9999 SCT026 12/09 Q1021",
      "taf": "TAF EGNM 202303Z 2100/2124 23010KT 9999 SCT025"
    },
    {
      "icao": "EGPD",
      "alert": "OK",
      "vis_m": 9999,
      "fzfg": false,
      "metar_trigger": false,
      "taf_trigger": false,
      "metar": "METAR EGPD 202320Z COR AUTO 21004KT 9999 NCD 09/02 Q1015 NOSIG",
      "taf": "TAF EGPD 202303Z 2100/2124 22005KT 9999 FEW040"
    },
    {
      "icao": "EGPF",
      "alert": "OK",
      "vis_m": 9999,
      "fzfg": false,
      "metar_trigger": false,
      "taf_trigger": false,
      "metar": "METAR EGPF 202320Z AUTO VRB02KT 9999 BKN035 OVC045 11/08 Q1017",
      "taf": "TAF EGPF 202256Z 2100/2124 22003KT 9999 SCT040"
    },
    {
      "icao": "EHBK",
      "alert": "OK",
      "vis_m": 9999,
      "fzfg": false,
      "metar_trigger": false,
      "taf_trigger": false,
      "metar": "METAR EHBK 202325Z AUTO 23009KT 9999 NSC 14/11 Q1026 NOSIG",
      "taf": "TAF EHBK 202308Z 2100/2206 23005KT CAVOK"
    },
    {
      "icao": "EHEH",
      "alert": "OK",
      "vis_m": 9999,
      "fzfg": false,
      "metar_trigger": false,
      "taf_trigger": false,
      "metar": "METAR EHEH 202325Z AUTO 23007KT 200V260 9999 BKN058 OVC074 15/12 Q1025 BLU",
      "taf": "TAF EHEH 201704Z 2018/2124 27006KT 9999 FEW035"
    },
    {
      "icao": "EKBI",
      "alert": "OK",
      "vis_m": 9999,
      "fzfg": false,
      "metar_trigger": false,
      "taf_trigger": false,
      "metar": "METAR EKBI 202350Z AUTO 22007KT 9999 -RA BKN008/// BKN060/// 11/10 Q1021",
      "taf": "TAF EKBI 202327Z 2100/2124 21008KT 3000 BR BKN006"
    },
    {
      "icao": "EKCH",
      "alert": "OK",
      "vis_m": 9000,
      "fzfg": false,
      "metar_trigger": false,
      "taf_trigger": false,
      "metar": "METAR EKCH 202350Z AUTO 24007KT 9000 OVC069/// 12/12 Q1021 NOSIG",
      "taf": "TAF EKCH 202327Z 2100/2124 20005KT 8000 FEW020"
    },
    {
      "icao": "ENAL",
      "alert": "OK",
      "vis_m": 9999,
      "fzfg": false,
      "metar_trigger": false,
      "taf_trigger": false,
      "metar": "METAR ENAL 202250Z AUTO VRB02KT 9999 NCD 09/06 Q1014",
      "taf": "TAF ENAL 202300Z 2100/2109 VRB05KT 9999 BKN060"
    },
    {
      "icao": "ENBR",
      "alert": "OK",
      "vis_m": 1700,
      "fzfg": false,
      "metar_trigger": false,
      "taf_trigger": false,
      "metar": "METAR ENBR 202320Z 23003KT 190V250 1700 +RA FEW001 BKN032 OVC039 10/10 Q1015 RMK WIND 1200FT 16011KT",
      "taf": "TAF ENBR 202300Z 2100/2124 15008KT 9999 -RA SCT006 BKN015"
    },
    {
      "icao": "ENGM",
      "alert": "OK",
      "vis_m": 9999,
      "fzfg": false,
      "metar_trigger": false,
      "taf_trigger": false,
      "metar": "METAR ENGM 202320Z 17005KT 9999 FEW045 13/07 Q1017",
      "taf": "TAF ENGM 202300Z 2100/2124 18008KT 9999 BKN040"
    },
    {
      "icao": "ENHD",
      "alert": "OK",
      "vis_m": 9000,
      "fzfg": false,
      "metar_trigger": false,
      "taf_trigger": false,
      "metar": "METAR ENHD 202320Z AUTO 16011KT 9000 RA FEW002/// BKN004/// BKN005/// 11/09 Q1015 REDZRA",
      "taf": "TAF ENHD 201400Z 2015/2022 17008KT 9999 -SHRA FEW015 BKN025"
    },
    {
      "icao": "ENTC",
      "alert": "OK",
      "vis_m": 9999,
      "fzfg": false,
      "metar_trigger": false,
      "taf_trigger": false,
      "metar": "METAR ENTC 202320Z AUTO 19006KT 9999 BKN033/// OVC038/// 09/07 Q1015 RMK WIND 2600FT 29011KT",
      "taf": "TAF ENTC 202300Z 2100/2124 20007KT 9999 FEW025 BKN040"
    },
    {
      "icao": "ENTO",
      "alert": "OK",
      "vis_m": 9999,
      "fzfg": false,
      "metar_trigger": false,
      "taf_trigger": false,
      "metar": "METAR ENTO 202320Z AUTO 20006KT 9999 -RA VV016 11/11 Q1017",
      "taf": "TAF ENTO 202300Z 2100/2124 18008KT 7000 -SHRA OVC005"
    },
    {
      "icao": "ENVA",
      "alert": "OK",
      "vis_m": 9999,
      "fzfg": false,
      "metar_trigger": false,
      "taf_trigger": false,
      "metar": "METAR ENVA 202320Z AUTO 04003KT 010V090 9999 NCD 12/03 Q1015 RMK WIND 670FT 14011KT",
      "taf": "TAF ENVA 202300Z 2100/2124 12007KT CAVOK"
    },
    {
      "icao": "ENZV",
      "alert": "OK",
      "vis_m": 9999,
      "fzfg": false,
      "metar_trigger": false,
      "taf_trigger": false,
      "metar": "METAR ENZV 202320Z 18010KT 9999 SCT006 BKN007 OVC009 11/09 Q1015",
      "taf": "TAF ENZV 202300Z 2100/2124 17008KT 9999 SCT006 BKN015"
    },
    {
      "icao": "EPGD",
      "alert": "OK",
      "vis_m": 9999,
      "fzfg": false,
      "metar_trigger": false,
      "taf_trigger": false,
      "metar": "METAR EPGD 202330Z 28002KT CAVOK 12/09 Q1021",
      "taf": "TAF EPGD 202330Z 2100/2124 VRB03KT CAVOK"
    },
    {
      "icao": "EPKK",
      "alert": "OK",
      "vis_m": 9999,
      "fzfg": false,
      "metar_trigger": false,
      "taf_trigger": false,
      "metar": "METAR EPKK 202330Z 20003KT CAVOK 13/09 Q1021",
      "taf": "TAF EPKK 202330Z 2100/2124 VRB02KT CAVOK"
    },
    {
      "icao": "EPKT",
      "alert": "OK",
      "vis_m": 9999,
      "fzfg": false,
      "metar_trigger": false,
      "taf_trigger": false,
      "metar": "METAR EPKT 202330Z 27005KT CAVOK 08/06 Q1022",
      "taf": "TAF EPKT 202330Z 2100/2124 VRB02KT CAVOK"
    },
    {
      "icao": "EPLB",
      "alert": "OK",
      "vis_m": 9999,
      "fzfg": false,
      "metar_trigger": false,
      "taf_trigger": false,
      "metar": "METAR EPLB 202330Z 30005KT CAVOK 14/11 Q1019",
      "taf": "TAF EPLB 202330Z 2100/2124 VRB03KT CAVOK"
    },
    {
      "icao": "EPMO",
      "alert": "OK",
      "vis_m": 9999,
      "fzfg": false,
      "metar_trigger": false,
      "taf_trigger": false,
      "metar": "METAR EPMO 202330Z VRB01KT CAVOK 13/11 Q1021",
      "taf": "TAF EPMO 202330Z 2100/2124 VRB03KT CAVOK"
    },
    {
      "icao": "EPPO",
      "alert": "OK",
      "vis_m": 9999,
      "fzfg": false,
      "metar_trigger": false,
      "taf_trigger": false,
      "metar": "METAR EPPO 202330Z 28005KT CAVOK 14/12 Q1022",
      "taf": "TAF EPPO 202330Z 2100/2124 27005KT CAVOK"
    },
    {
      "icao": "EPRA",
      "alert": "OK",
      "vis_m": 9999,
      "fzfg": false,
      "metar_trigger": false,
      "taf_trigger": false,
      "metar": "METAR EPRA 202330Z 28004KT CAVOK 13/09 Q1020",
      "taf": "TAF EPRA 202330Z 2100/2109 28005KT CAVOK"
    },
    {
      "icao": "EPRZ",
      "alert": "OK",
      "vis_m": 9999,
      "fzfg": false,
      "metar_trigger": false,
      "taf_trigger": false,
      "metar": "METAR EPRZ 202330Z 25006KT CAVOK 10/08 Q1020",
      "taf": "TAF EPRZ 202330Z 2100/2124 34010KT CAVOK"
    },
    {
      "icao": "EPSC",
      "alert": "OK",
      "vis_m": 9999,
      "fzfg": false,
      "metar_trigger": false,
      "taf_trigger": false,
      "metar": "METAR EPSC 202330Z 22003KT CAVOK 13/13 Q1022",
      "taf": "TAF EPSC 202330Z 2100/2124 VRB03KT CAVOK"
    },
    {
      "icao": "EPSY",
      "alert": "OK",
      "vis_m": 9999,
      "fzfg": false,
      "metar_trigger": false,
      "taf_trigger": false,
      "metar": "METAR EPSY 202330Z VRB02KT CAVOK 12/10 Q1021",
      "taf": "TAF EPSY 202330Z 2100/2109 VRB02KT CAVOK"
    },
    {
      "icao": "EPWA",
      "alert": "OK",
      "vis_m": 9999,
      "fzfg": false,
      "metar_trigger": false,
      "taf_trigger": false,
      "metar": "METAR EPWA 202330Z 34004KT CAVOK 15/11 Q1020 NOSIG",
      "taf": "TAF EPWA 202330Z 2100/2124 VRB04KT CAVOK"
    },
    {
      "icao": "EPWR",
      "alert": "OK",
      "vis_m": 9999,
      "fzfg": false,
      "metar_trigger": false,
      "taf_trigger": false,
      "metar": "METAR EPWR 202330Z 28008KT CAVOK 14/12 Q1023",
      "taf": "TAF EPWR 202330Z 2100/2124 27007KT CAVOK"
    },
    {
      "icao": "ESGG",
      "alert": "OK",
      "vis_m": 9999,
      "fzfg": false,
      "metar_trigger": false,
      "taf_trigger": false,
      "metar": "METAR ESGG 202320Z 19007KT 9999 BKN005 OVC007 11/11 Q1018",
      "taf": "TAF ESGG 202330Z 2100/2124 19006KT 9999 BKN006"
    },
    {
      "icao": "ESKN",
      "alert": "OK",
      "vis_m": 9999,
      "fzfg": false,
      "metar_trigger": false,
      "taf_trigger": false,
      "metar": "METAR ESKN 202320Z 13007KT 9999 SCT003 09/08 Q1020",
      "taf": "TAF ESKN 202330Z 2100/2124 14007KT CAVOK"
    },
    {
      "icao": "ESMS",
      "alert": "OK",
      "vis_m": 100,
      "fzfg": false,
      "metar_trigger": false,
      "taf_trigger": false,
      "metar": "METAR ESMS 202320Z 17003KT 0100 R17/0400U R35/0600N FG FEW019 09/09 Q1021",
      "taf": "TAF ESMS 202327Z 2100/2124 17006KT 3000 BR SCT003"
    },
    {
      "icao": "ESSA",
      "alert": "OK",
      "vis_m": 9999,
      "fzfg": false,
      "metar_trigger": false,
      "taf_trigger": false,
      "metar": "METAR ESSA 202320Z 14005KT CAVOK 09/04 Q1020 NOSIG",
      "taf": "TAF ESSA 202330Z 2100/2124 16005KT CAVOK"
    },
    {
      "icao": "EYKA",
      "alert": "OK",
      "vis_m": 5000,
      "fzfg": false,
      "metar_trigger": false,
      "taf_trigger": false,
      "metar": "METAR EYKA 202350Z AUTO 31004KT 5000 -RA FEW005/// OVC078/// 11/10 Q1021",
      "taf": "TAF EYKA 202300Z 2100/2124 VRB03KT 6000 SCT005 BKN020"
    },
    {
      "icao": "EYPA",
      "alert": "OK",
      "vis_m": 9999,
      "fzfg": false,
      "metar_trigger": false,
      "taf_trigger": false,
      "metar": "METAR EYPA 202350Z 11001KT CAVOK 06/06 Q1021",
      "taf": "TAF EYPA 202300Z 2100/2124 VRB03KT 5000 BR NSC"
    },
    {
      "icao": "EYVI",
      "alert": "OK",
      "vis_m": 9999,
      "fzfg": false,
      "metar_trigger": false,
      "taf_trigger": false,
      "metar": "METAR EYVI 202350Z 35009KT 9999 -RA OVC005 11/10 Q1020 NOSIG",
      "taf": "TAF EYVI 202300Z 2100/2124 35008KT 8000 OVC005"
    },
    {
      "icao": "GCFV",
      "alert": "OK",
      "vis_m": 9999,
      "fzfg": false,
      "metar_trigger": false,
      "taf_trigger": false,
      "metar": "METAR GCFV 202330Z AUTO 32004KT 260V010 CAVOK 20/16 Q1018",
      "taf": "TAF GCFV 202000Z 2021/2121 32015KT 9999 FEW025 TX28/2114Z TN17/2106Z"
    },
    {
      "icao": "GCLP",
      "alert": "OK",
      "vis_m": 9999,
      "fzfg": false,
      "metar_trigger": false,
      "taf_trigger": false,
      "metar": "METAR GCLP 202330Z 01016KT 9999 FEW030 19/14 Q1018 NOSIG",
      "taf": "TAF GCLP 202000Z 2021/2121 36015KT 9999 FEW030 TX26/2114Z TN18/2106Z"
    },
    {
      "icao": "GCTS",
      "alert": "OK",
      "vis_m": 9999,
      "fzfg": false,
      "metar_trigger": false,
      "taf_trigger": false,
      "metar": "METAR GCTS 202330Z 28008KT 9999 FEW030 20/15 Q1019 NOSIG",
      "taf": "TAF GCTS 202000Z 2021/2121 26005KT 9999 SCT020 TX25/2114Z TN17/2106Z"
    },
    {
      "icao": "GMAD",
      "alert": "OK",
      "vis_m": 8000,
      "fzfg": false,
      "metar_trigger": false,
      "taf_trigger": false,
      "metar": "METAR GMAD 202330Z 27004KT 8000 NSC 19/17 Q1017 NOSIG",
      "taf": "TAF GMAD 202300Z 2100/2206 12006KT 8000 NSC"
    },
    {
      "icao": "GMMN",
      "alert": "OK",
      "vis_m": 9999,
      "fzfg": false,
      "metar_trigger": false,
      "taf_trigger": false,
      "metar": "METAR GMMN 202330Z 06006KT 020V080 CAVOK 23/12 Q1018 NOSIG",
      "taf": "TAF GMMN 202300Z 2100/2206 04006KT CAVOK"
    },
    {
      "icao": "GMMX",
      "alert": "OK",
      "vis_m": 9999,
      "fzfg": false,
      "metar_trigger": false,
      "taf_trigger": false,
      "metar": "METAR GMMX 202330Z VRB07GP99KT CAVOK 28/08 Q1018 NOSIG",
      "taf": "TAF GMMX 202300Z 2100/2206 16006KT CAVOK"
    },
    {
      "icao": "HEGN",
      "alert": "OK",
      "vis_m": 9999,
      "fzfg": false,
      "metar_trigger": false,
      "taf_trigger": false,
      "metar": "METAR HEGN 202300Z 33016KT CAVOK 28/10 Q1009 NOSIG",
      "taf": "TAF HEGN 202300Z 2100/2206 30015KT CAVOK"
    },
    {
      "icao": "HEMA",
      "alert": "OK",
      "vis_m": 9999,
      "fzfg": false,
      "metar_trigger": false,
      "taf_trigger": false,
      "metar": "METAR HEMA 202300Z 33016KT CAVOK 29/14 Q1008 NOSIG",
      "taf": "TAF HEMA 202300Z 2100/2206 26012KT CAVOK"
    },
    {
      "icao": "HESH",
      "alert": "OK",
      "vis_m": 9999,
      "fzfg": false,
      "metar_trigger": false,
      "taf_trigger": false,
      "metar": "METAR HESH 202300Z 35011KT CAVOK 27/16 Q1008 NOSIG",
      "taf": "TAF HESH 202300Z 2100/2206 35010KT CAVOK"
    },
    {
      "icao": "HESX",
      "alert": "OK",
      "vis_m": 9999,
      "fzfg": false,
      "metar_trigger": false,
      "taf_trigger": false,
      "metar": "METAR HESX 202300Z 33006KT CAVOK 16/11 Q1015 NOSIG",
      "taf": "TAF HESX 202300Z 2100/2206 33010KT CAVOK"
    },
    {
      "icao": "LATI",
      "alert": "OK",
      "vis_m": 9999,
      "fzfg": false,
      "metar_trigger": false,
      "taf_trigger": false,
      "metar": "METAR LATI 202350Z VRB02KT CAVOK 13/10 Q1017 NOSIG",
      "taf": "TAF LATI 202300Z 2100/2124 VRB05KT CAVOK TX27/2112Z TN11/2104Z"
    },
    {
      "icao": "LBPD",
      "alert": "OK",
      "vis_m": 9999,
      "fzfg": false,
      "metar_trigger": false,
      "taf_trigger": false,
      "metar": "METAR LBPD 202330Z AUTO 29011KT 9999 SCT100/// 19/10 Q1014",
      "taf": "TAF LBPD 202300Z 2100/2124 28016KT 9999 SCT050"
    },
    {
      "icao": "LBSF",
      "alert": "OK",
      "vis_m": 9999,
      "fzfg": false,
      "metar_trigger": false,
      "taf_trigger": false,
      "metar": "METAR LBSF 202330Z AUTO 28008KT 9999 BKN090/// 14/09 Q1017 NOSIG",
      "taf": "TAF LBSF 202300Z 2100/2124 29012KT 9999 BKN070"
    },
    {
      "icao": "LBWN",
      "alert": "OK",
      "vis_m": 9999,
      "fzfg": false,
      "metar_trigger": false,
      "taf_trigger": false,
      "metar": "METAR LBWN 202330Z AUTO 26009KT 9999 FEW046/// 15/12 Q1011 NOSIG",
      "taf": "TAF LBWN 202300Z 2100/2124 32012KT 9999 SCT045"
    },
    {
      "icao": "LCLK",
      "alert": "OK",
      "vis_m": 9999,
      "fzfg": false,
      "metar_trigger": false,
      "taf_trigger": false,
      "metar": "METAR LCLK 202330Z 22005KT CAVOK 18/15 Q1006 NOSIG",
      "taf": "TAF LCLK 202330Z 2100/2200 24009KT 9999 FEW025"
    },
    {
      "icao": "LCPH",
      "alert": "OK",
      "vis_m": 9999,
      "fzfg": false,
      "metar_trigger": false,
      "taf_trigger": false,
      "metar": "METAR LCPH 202330Z AUTO 28011KT 250V320 9999 SCT012 19/17 Q1007 NOSIG",
      "taf": "TAF LCPH 202330Z 2100/2200 27014KT 9999 SCT015"
    },
    {
      "icao": "LEAL",
      "alert": "OK",
      "vis_m": 9999,
      "fzfg": false,
      "metar_trigger": false,
      "taf_trigger": false,
      "metar": "METAR LEAL 202330Z 35004KT 300V010 CAVOK 20/11 Q1025 NOSIG",
      "taf": "TAF LEAL 202300Z 2100/2124 VRB04KT CAVOK TX28/2112Z TN16/2105Z"
    },
    {
      "icao": "LEBB",
      "alert": "OK",
      "vis_m": 9999,
      "fzfg": false,
      "metar_trigger": false,
      "taf_trigger": false,
      "metar": "METAR LEBB 202330Z AUTO VRB02KT CAVOK 16/14 Q1025",
      "taf": "TAF LEBB 202300Z 2100/2124 10009KT CAVOK TX35/2118Z TN14/2105Z"
    },
    {
      "icao": "LEBL",
      "alert": "OK",
      "vis_m": 9999,
      "fzfg": false,
      "metar_trigger": false,
      "taf_trigger": false,
      "metar": "METAR LEBL 202330Z 30004KT 9999 FEW030 19/15 Q1025 NOSIG",
      "taf": "TAF LEBL 202300Z 2100/2124 32007KT 9999 FEW020 TX25/2112Z TN16/2105Z"
    },
    {
      "icao": "LECH",
      "alert": "OK",
      "vis_m": 9999,
      "fzfg": false,
      "metar_trigger": false,
      "taf_trigger": false,
      "metar": "METAR LECH 202330Z AUTO 19003KT CAVOK 16/11 Q1026",
      "taf": "TAF LECH 202300Z 2100/2124 VRB03KT CAVOK TX28/2112Z TN14/2105Z"
    },
    {
      "icao": "LEMD",
      "alert": "OK",
      "vis_m": 9999,
      "fzfg": false,
      "metar_trigger": false,
      "taf_trigger": false,
      "metar": "METAR LEMD 202330Z VRB02KT CAVOK 17/09 Q1025 NOSIG",
      "taf": "TAF LEMD 202300Z 2100/2206 VRB04KT CAVOK TX33/2116Z TN15/2105Z"
    },
    {
      "icao": "LEMG",
      "alert": "OK",
      "vis_m": 9999,
      "fzfg": false,
      "metar_trigger": false,
      "taf_trigger": false,
      "metar": "METAR LEMG 202330Z 29005KT CAVOK 17/03 Q1024 NOSIG",
      "taf": "TAF LEMG 202300Z 2100/2124 29006KT CAVOK TX28/2114Z TN18/2106Z"
    },
    {
      "icao": "LEVC",
      "alert": "OK",
      "vis_m": 9999,
      "fzfg": false,
      "metar_trigger": false,
      "taf_trigger": false,
      "metar": "SPECI LEVC 202352Z VRB01KT 9999 FEW015 18/16 Q1026 NOSIG",
      "taf": "TAF LEVC 202300Z 2100/2124 VRB03KT CAVOK TX30/2112Z TN15/2105Z"
    },
    {
      "icao": "LEXJ",
      "alert": "OK",
      "vis_m": 5000,
      "fzfg": false,
      "metar_trigger": false,
      "taf_trigger": false,
      "metar": "METAR LEXJ 202330Z AUTO 00000KT 5000 BR NSC 14/14 Q1024",
      "taf": ""
    },
    {
      "icao": "LEZG",
      "alert": "OK",
      "vis_m": 9999,
      "fzfg": false,
      "metar_trigger": false,
      "taf_trigger": false,
      "metar": "METAR LEZG 202330Z 08005KT CAVOK 21/13 Q1024 NOSIG",
      "taf": "TAF LEZG 202300Z 2100/2124 12007KT CAVOK TX34/2114Z TN17/2105Z"
    },
    {
      "icao": "LEZL",
      "alert": "OK",
      "vis_m": 9999,
      "fzfg": false,
      "metar_trigger": false,
      "taf_trigger": false,
      "metar": "METAR LEZL 202330Z AUTO 08002KT CAVOK 21/12 Q1021",
      "taf": "TAF LEZL 202000Z 2021/2121 VRB03KT CAVOK TX37/2115Z TN18/2106Z"
    },
    {
      "icao": "LFBD",
      "alert": "OK",
      "vis_m": 9999,
      "fzfg": false,
      "metar_trigger": false,
      "taf_trigger": false,
      "metar": "METAR LFBD 202330Z AUTO 01005KT CAVOK 15/12 Q1026 NOSIG",
      "taf": "TAF LFBD 202300Z 2100/2206 02005KT CAVOK TX30/2115Z TN13/2105Z"
    },
    {
      "icao": "LFLL",
      "alert": "OK",
      "vis_m": 9999,
      "fzfg": false,
      "metar_trigger": false,
      "taf_trigger": false,
      "metar": "METAR LFLL 202330Z 32003KT CAVOK 15/11 Q1027 NOSIG",
      "taf": "TAF LFLL 202300Z 2100/2206 02008KT CAVOK"
    },
    {
      "icao": "LFLS",
      "alert": "OK",
      "vis_m": 9999,
      "fzfg": false,
      "metar_trigger": false,
      "taf_trigger": false,
      "metar": "METAR LFLS 202330Z AUTO VRB02KT CAVOK 12/10 Q1027",
      "taf": "TAF LFLS 201400Z 2015/2115 09005KT CAVOK"
    },
    {
      "icao": "LFMN",
      "alert": "OK",
      "vis_m": 9999,
      "fzfg": false,
      "metar_trigger": false,
      "taf_trigger": false,
      "metar": "METAR LFMN 202330Z 32005KT 9999 FEW110 16/14 Q1024 NOSIG",
      "taf": "TAF LFMN 202000Z 2021/2203 VRB03KT CAVOK"
    },
    {
      "icao": "LFOB",
      "alert": "OK",
      "vis_m": 9999,
      "fzfg": false,
      "metar_trigger": false,
      "taf_trigger": false,
      "metar": "METAR LFOB 202330Z AUTO 32003KT 9999 FEW027 SCT038 12/11 Q1028 TEMPO 2000 BR OVC002",
      "taf": "TAF LFOB 202300Z 2100/2124 VRB03KT 9999 SCT030"
    },
    {
      "icao": "LFPO",
      "alert": "OK",
      "vis_m": 9999,
      "fzfg": false,
      "metar_trigger": false,
      "taf_trigger": false,
      "metar": "METAR LFPO 202330Z AUTO 26002KT CAVOK 11/11 Q1028 NOSIG",
      "taf": "TAF LFPO 202300Z 2100/2206 VRB02KT CAVOK"
    },
    {
      "icao": "LFSB",
      "alert": "OK",
      "vis_m": 9999,
      "fzfg": false,
      "metar_trigger": false,
      "taf_trigger": false,
      "metar": "METAR LFSB 202330Z AUTO VRB03KT CAVOK 10/10 Q1029 NOSIG",
      "taf": "TAF LFSB 202300Z 2100/2124 VRB03KT CAVOK"
    },
    {
      "icao": "LGAV",
      "alert": "OK",
      "vis_m": 9999,
      "fzfg": false,
      "metar_trigger": false,
      "taf_trigger": false,
      "metar": "METAR LGAV 202320Z 27003KT 9999 FEW025 17/10 Q1014 NOSIG",
      "taf": "TAF LGAV 202300Z 2100/2124 VRB03KT 9999 FEW025"
    },
    {
      "icao": "LGTS",
      "alert": "OK",
      "vis_m": 9999,
      "fzfg": false,
      "metar_trigger": false,
      "taf_trigger": false,
      "metar": "METAR LGTS 202320Z 29009KT 9999 FEW025 19/12 Q1014 NOSIG",
      "taf": "TAF LGTS 202300Z 2100/2124 32015KT 9999 FEW030"
    },
    {
      "icao": "LHBP",
      "alert": "OK",
      "vis_m": 9999,
      "fzfg": false,
      "metar_trigger": false,
      "taf_trigger": false,
      "metar": "METAR LHBP 202330Z 32005KT CAVOK 15/09 Q1021 NOSIG",
      "taf": "TAF LHBP 202315Z 2100/2124 35008KT CAVOK"
    },
    {
      "icao": "LHDC",
      "alert": "OK",
      "vis_m": 9999,
      "fzfg": false,
      "metar_trigger": false,
      "taf_trigger": false,
      "metar": "METAR LHDC 202315Z AUTO 34006KT 310V010 CAVOK 15/07 Q1019",
      "taf": "TAF LHDC 201415Z 2015/2024 01009KT CAVOK"
    },
    {
      "icao": "LIBD",
      "alert": "OK",
      "vis_m": 9999,
      "fzfg": false,
      "metar_trigger": false,
      "taf_trigger": false,
      "metar": "METAR LIBD 202320Z 26007KT CAVOK 16/09 Q1019",
      "taf": "TAF LIBD 202300Z 2100/2124 27008KT CAVOK"
    },
    {
      "icao": "LIBG",
      "alert": "OK",
      "vis_m": 9999,
      "fzfg": false,
      "metar_trigger": false,
      "taf_trigger": false,
      "metar": "METAR LIBG 202320Z AUTO 34009KT 9999 FEW240/// 18/08 Q1018",
      "taf": "TAF LIBG 202300Z 2100/2124 32007KT CAVOK"
    },
    {
      "icao": "LIBP",
      "alert": "OK",
      "vis_m": 9999,
      "fzfg": false,
      "metar_trigger": false,
      "taf_trigger": false,
      "metar": "METAR LIBP 202320Z AUTO 23004KT 9999 NCD 12/10 Q1023",
      "taf": "TAF LIBP 202300Z 2100/2124 VRB05KT CAVOK"
    },
    {
      "icao": "LIBR",
      "alert": "OK",
      "vis_m": 9999,
      "fzfg": false,
      "metar_trigger": false,
      "taf_trigger": false,
      "metar": "METAR LIBR 202320Z 32014KT CAVOK 18/14 Q1018",
      "taf": "TAF LIBR 202300Z 2100/2124 31016KT CAVOK"
    },
    {
      "icao": "LICA",
      "alert": "OK",
      "vis_m": 9999,
      "fzfg": false,
      "metar_trigger": false,
      "taf_trigger": false,
      "metar": "METAR LICA 202320Z AUTO 23006KT 9999 RA OVC015/// 18/16 Q1021",
      "taf": "TAF LICA 202300Z 2100/2124 25005KT 9999 FEW030"
    },
    {
      "icao": "LICC",
      "alert": "OK",
      "vis_m": 9999,
      "fzfg": false,
      "metar_trigger": false,
      "taf_trigger": false,
      "metar": "METAR LICC 202320Z VRB02KT CAVOK 17/10 Q1020",
      "taf": "TAF LICC 202300Z 2100/2124 VRB05KT CAVOK"
    },
    {
      "icao": "LICJ",
      "alert": "OK",
      "vis_m": 9999,
      "fzfg": false,
      "metar_trigger": false,
      "taf_trigger": false,
      "metar": "METAR LICJ 202320Z 36004KT CAVOK 19/15 Q1022",
      "taf": "TAF LICJ 202300Z 2100/2124 VRB05KT CAVOK"
    },
    {
      "icao": "LIMC",
      "alert": "OK",
      "vis_m": 9999,
      "fzfg": false,
      "metar_trigger": false,
      "taf_trigger": false,
      "metar": "METAR LIMC 202320Z 04004KT CAVOK 16/11 Q1024 NOSIG",
      "taf": "TAF LIMC 202300Z 2100/2206 VRB05KT CAVOK"
    },
    {
      "icao": "LIME",
      "alert": "OK",
      "vis_m": 9999,
      "fzfg": false,
      "metar_trigger": false,
      "taf_trigger": false,
      "metar": "METAR LIME 202320Z 03003KT CAVOK 16/13 Q1024 NOSIG",
      "taf": "TAF LIME 202300Z 2100/2124 VRB05KT CAVOK"
    },
    {
      "icao": "LIMF",
      "alert": "OK",
      "vis_m": 9999,
      "fzfg": false,
      "metar_trigger": false,
      "taf_trigger": false,
      "metar": "METAR LIMF 202320Z VRB02KT CAVOK 15/11 Q1024",
      "taf": "TAF LIMF 202300Z 2100/2124 VRB04KT 9999 FEW050"
    },
    {
      "icao": "LIMJ",
      "alert": "OK",
      "vis_m": 9999,
      "fzfg": false,
      "metar_trigger": false,
      "taf_trigger": false,
      "metar": "METAR LIMJ 202320Z AUTO 01004KT 9999 NCD 16/12 Q1024",
      "taf": "TAF LIMJ 202300Z 2100/2124 VRB05KT CAVOK"
    },
    {
      "icao": "LIPE",
      "alert": "OK",
      "vis_m": 9999,
      "fzfg": false,
      "metar_trigger": false,
      "taf_trigger": false,
      "metar": "METAR LIPE 202320Z 23005KT 200V270 CAVOK 16/11 Q1023",
      "taf": "TAF LIPE 202300Z 2100/2124 VRB05KT CAVOK"
    },
    {
      "icao": "LIPH",
      "alert": "OK",
      "vis_m": 9999,
      "fzfg": false,
      "metar_trigger": false,
      "taf_trigger": false,
      "metar": "METAR LIPH 202320Z AUTO VRB01KT 9999 NCD 15/14 Q1023",
      "taf": "TAF LIPH 202300Z 2100/2124 VRB05KT 9999 SCT040"
    },
    {
      "icao": "LIPQ",
      "alert": "OK",
      "vis_m": 9999,
      "fzfg": false,
      "metar_trigger": false,
      "taf_trigger": false,
      "metar": "METAR LIPQ 202320Z AUTO 01002KT 9999 FEW130/// 14/13 Q1023",
      "taf": "TAF LIPQ 202300Z 2100/2124 VRB05KT 9999 FEW050"
    },
    {
      "icao": "LIPR",
      "alert": "OK",
      "vis_m": 9999,
      "fzfg": false,
      "metar_trigger": false,
      "taf_trigger": false,
      "metar": "METAR LIPR 202320Z AUTO 22004KT 9999 BKN130/// 15/10 Q1023",
      "taf": "TAF LIPR 202300Z 2100/2124 VRB06KT CAVOK"
    },
    {
      "icao": "LIPX",
      "alert": "OK",
      "vis_m": 9999,
      "fzfg": false,
      "metar_trigger": false,
      "taf_trigger": false,
      "metar": "METAR LIPX 202320Z VRB01KT CAVOK 15/12 Q1023",
      "taf": "TAF LIPX 202300Z 2100/2124 VRB05KT CAVOK"
    },
    {
      "icao": "LIPY",
      "alert": "OK",
      "vis_m": 9999,
      "fzfg": false,
      "metar_trigger": false,
      "taf_trigger": false,
      "metar": "METAR LIPY 202320Z AUTO 19004KT 9999 NCD 13/10 Q1023",
      "taf": "TAF LIPY 202300Z 2100/2124 VRB05KT CAVOK"
    },
    {
      "icao": "LIPZ",
      "alert": "OK",
      "vis_m": 9999,
      "fzfg": false,
      "metar_trigger": false,
      "taf_trigger": false,
      "metar": "METAR LIPZ 202320Z 31004KT CAVOK 16/14 Q1023 NOSIG",
      "taf": "TAF LIPZ 202300Z 2100/2206 04006KT 9999 FEW040"
    },
    {
      "icao": "LIRF",
      "alert": "OK",
      "vis_m": 9999,
      "fzfg": false,
      "metar_trigger": false,
      "taf_trigger": false,
      "metar": "METAR LIRF 202320Z 35004KT CAVOK 14/13 Q1022 NOSIG",
      "taf": "TAF LIRF 202300Z 2100/2206 04006KT CAVOK"
    },
    {
      "icao": "LIRN",
      "alert": "OK",
      "vis_m": 9999,
      "fzfg": false,
      "metar_trigger": false,
      "taf_trigger": false,
      "metar": "METAR LIRN 202320Z 02002KT CAVOK 15/12 Q1021 NOSIG",
      "taf": "TAF LIRN 202300Z 2100/2124 VRB05KT 9999 FEW040"
    },
    {
      "icao": "LIRP",
      "alert": "OK",
      "vis_m": 9999,
      "fzfg": false,
      "metar_trigger": false,
      "taf_trigger": false,
      "metar": "METAR LIRP 202315Z 01001KT CAVOK 14/13 Q1024 NOSIG",
      "taf": "TAF LIRP 202300Z 2100/2124 VRB03KT CAVOK"
    },
    {
      "icao": "LIRZ",
      "alert": "OK",
      "vis_m": 9999,
      "fzfg": false,
      "metar_trigger": false,
      "taf_trigger": false,
      "metar": "METAR LIRZ 202320Z AUTO 01008KT 9999 NCD 13/11 Q1023",
      "taf": "TAF LIRZ 202300Z 2100/2124 VRB05KT 9999 FEW030"
    },
    {
      "icao": "LJLJ",
      "alert": "OK",
      "vis_m": 9999,
      "fzfg": false,
      "metar_trigger": false,
      "taf_trigger": false,
      "metar": "METAR LJLJ 202330Z 27003KT 9999 FEW075 SCT110 12/10 Q1024 NOSIG",
      "taf": "TAF LJLJ 202300Z 2100/2200 30003KT 9999 FEW060 SCT100"
    },
    {
      "icao": "LKMT",
      "alert": "OK",
      "vis_m": 9999,
      "fzfg": false,
      "metar_trigger": false,
      "taf_trigger": false,
      "metar": "METAR LKMT 202330Z 18004KT CAVOK 14/10 Q1023 NOSIG",
      "taf": "TAF LKMT 202300Z 2100/2124 VRB02KT CAVOK"
    },
    {
      "icao": "LKPR",
      "alert": "OK",
      "vis_m": 9999,
      "fzfg": false,
      "metar_trigger": false,
      "taf_trigger": false,
      "metar": "METAR LKPR 202330Z 26006KT CAVOK 12/10 Q1025 NOSIG",
      "taf": "TAF LKPR 202300Z 2100/2206 26008KT CAVOK"
    },
    {
      "icao": "LLBG",
      "alert": "OK",
      "vis_m": 9999,
      "fzfg": false,
      "metar_trigger": false,
      "taf_trigger": false,
      "metar": "METAR LLBG 202350Z 24006KT 9999 SCT026 20/14 Q1010 NOSIG",
      "taf": "TAF LLBG 202300Z 2100/2124 26010KT 9999 SCT030 TX24/2111Z TN18/2103Z"
    },
    {
      "icao": "LMML",
      "alert": "OK",
      "vis_m": 9999,
      "fzfg": false,
      "metar_trigger": false,
      "taf_trigger": false,
      "metar": "METAR LMML 202345Z 30014KT CAVOK 18/13 Q1020 NOSIG",
      "taf": "TAF LMML 202300Z 2100/2124 35011KT 9999 FEW015"
    },
    {
      "icao": "LOWW",
      "alert": "OK",
      "vis_m": 9999,
      "fzfg": false,
      "metar_trigger": false,
      "taf_trigger": false,
      "metar": "METAR LOWW 202320Z 31014KT CAVOK 17/11 Q1024 NOSIG",
      "taf": "TAF LOWW 202315Z 2100/2206 31010KT CAVOK TX22/2115Z TN14/2203Z"
    },
    {
      "icao": "LPFR",
      "alert": "OK",
      "vis_m": 9999,
      "fzfg": false,
      "metar_trigger": false,
      "taf_trigger": false,
      "metar": "METAR LPFR 202330Z 03008KT CAVOK 22/08 Q1021",
      "taf": "TAF LPFR 202300Z 2100/2124 03007KT CAVOK"
    },
    {
      "icao": "LPMA",
      "alert": "OK",
      "vis_m": 9999,
      "fzfg": false,
      "metar_trigger": false,
      "taf_trigger": false,
      "metar": "METAR LPMA 202330Z 02007KT 9999 FEW015 18/13 Q1021",
      "taf": "TAF LPMA 202300Z 2100/2124 36010KT 9999 SCT015"
    },
    {
      "icao": "LPPR",
      "alert": "OK",
      "vis_m": 6000,
      "fzfg": false,
      "metar_trigger": false,
      "taf_trigger": false,
      "metar": "METAR LPPR 202330Z VRB01KT 6000 NSC 15/13 Q1021",
      "taf": "TAF LPPR 202300Z 2100/2124 VRB02KT 9999 FEW012"
    },
    {
      "icao": "LPPS",
      "alert": "OK",
      "vis_m": 9999,
      "fzfg": false,
      "metar_trigger": false,
      "taf_trigger": false,
      "metar": "METAR LPPS 202330Z 04007KT 010V080 9999 SCT015 17/14 Q1021",
      "taf": "TAF LPPS 202300Z 2100/2206 02007KT 9999 SCT015 SCT030"
    },
    {
      "icao": "LPPT",
      "alert": "OK",
      "vis_m": 9999,
      "fzfg": false,
      "metar_trigger": false,
      "taf_trigger": false,
      "metar": "METAR LPPT 202330Z 34003KT CAVOK 19/11 Q1021",
      "taf": "TAF LPPT 202300Z 2100/2206 VRB02KT CAVOK"
    },
    {
      "icao": "LQBK",
      "alert": "OK",
      "vis_m": 9999,
      "fzfg": false,
      "metar_trigger": false,
      "taf_trigger": false,
      "metar": "METAR LQBK 202330Z 16002KT CAVOK 13/10 Q1022 NOSIG",
      "taf": "TAF LQBK 202300Z 2100/2124 29005KT CAVOK TX23/2113Z TN09/2104Z"
    },
    {
      "icao": "LQSA",
      "alert": "OK",
      "vis_m": 9999,
      "fzfg": false,
      "metar_trigger": false,
      "taf_trigger": false,
      "metar": "METAR LQSA 202330Z VRB02KT CAVOK 09/07 Q1022",
      "taf": "TAF LQSA 202300Z 2100/2124 29005KT 9999 SCT055 TX20/2114Z TN06/2104Z"
    },
    {
      "icao": "LQTZ",
      "alert": "OK",
      "vis_m": 9999,
      "fzfg": false,
      "metar_trigger": false,
      "taf_trigger": false,
      "metar": "METAR LQTZ 202330Z VRB01KT CAVOK 10/10 Q1022",
      "taf": "TAF LQTZ 202300Z 2100/2124 28005KT 9999 SCT045 TX22/2112Z TN09/2104Z"
    },
    {
      "icao": "LRBC",
      "alert": "OK",
      "vis_m": 9999,
      "fzfg": false,
      "metar_trigger": false,
      "taf_trigger": false,
      "metar": "METAR LRBC 202330Z 33019KT 9999 BKN043 18/11 Q1013",
      "taf": "TAF LRBC 202300Z 2100/2109 34016KT CAVOK"
    },
    {
      "icao": "LRBS",
      "alert": "OK",
      "vis_m": 9999,
      "fzfg": false,
      "metar_trigger": false,
      "taf_trigger": false,
      "metar": "METAR LRBS 202330Z AUTO 26003KT CAVOK 17/15 Q1012 NOSIG",
      "taf": "TAF LRBS 202300Z 2100/2124 VRB04KT CAVOK"
    },
    {
      "icao": "LRBV",
      "alert": "OK",
      "vis_m": 9999,
      "fzfg": false,
      "metar_trigger": false,
      "taf_trigger": false,
      "metar": "METAR LRBV 202330Z AUTO VRB02KT 9999 OVC047/// 14/12 Q1016",
      "taf": "TAF LRBV 201700Z 2018/2103 23008KT 9999 SCT040"
    },
    {
      "icao": "LRCL",
      "alert": "OK",
      "vis_m": 9999,
      "fzfg": false,
      "metar_trigger": false,
      "taf_trigger": false,
      "metar": "METAR LRCL 202330Z 24004KT 200V270 CAVOK 14/09 Q1017",
      "taf": "TAF LRCL 202300Z 2100/2109 29010KT CAVOK"
    },
    {
      "icao": "LRCV",
      "alert": "OK",
      "vis_m": 9999,
      "fzfg": false,
      "metar_trigger": false,
      "taf_trigger": false,
      "metar": "METAR LRCV 202330Z 31006KT CAVOK 14/11 Q1014",
      "taf": "TAF LRCV 202300Z 2100/2109 30008KT CAVOK"
    },
    {
      "icao": "LRIA",
      "alert": "OK",
      "vis_m": 9999,
      "fzfg": false,
      "metar_trigger": false,
      "taf_trigger": false,
      "metar": "METAR LRIA 202330Z 31015KT 9999 SCT031 16/12 Q1012",
      "taf": "TAF LRIA 202300Z 2100/2109 34010KT 9999 SCT030CB"
    },
    {
      "icao": "LROP",
      "alert": "OK",
      "vis_m": 9999,
      "fzfg": false,
      "metar_trigger": false,
      "taf_trigger": false,
      "metar": "METAR LROP 202330Z 35004KT CAVOK 17/14 Q1013 NOSIG",
      "taf": "TAF LROP 202300Z 2100/2124 VRB04KT CAVOK"
    },
    {
      "icao": "LRSB",
      "alert": "OK",
      "vis_m": 9999,
      "fzfg": false,
      "metar_trigger": false,
      "taf_trigger": false,
      "metar": "METAR LRSB 202330Z VRB02KT CAVOK 14/11 Q1017",
      "taf": "TAF LRSB 202300Z 2100/2124 28008KT 9999 BKN040"
    },
    {
      "icao": "LRSM",
      "alert": "OK",
      "vis_m": null,
      "fzfg": false,
      "metar_trigger": false,
      "taf_trigger": false,
      "metar": "",
      "taf": "TAF LRSM 201400Z 2015/2024 04010KT 9999 SCT045CB"
    },
    {
      "icao": "LRSV",
      "alert": "OK",
      "vis_m": 9999,
      "fzfg": false,
      "metar_trigger": false,
      "taf_trigger": false,
      "metar": "METAR LRSV 202330Z 31017KT CAVOK 15/12 Q1015",
      "taf": "TAF LRSV 202300Z 2100/2109 30016KT 9999 SCT045"
    },
    {
      "icao": "LRTM",
      "alert": "OK",
      "vis_m": 9999,
      "fzfg": false,
      "metar_trigger": false,
      "taf_trigger": false,
      "metar": "METAR LRTM 202330Z 23004KT CAVOK 15/13 Q1016",
      "taf": "TAF LRTM 202300Z 2100/2109 32008KT 9999 SCT045"
    },
    {
      "icao": "LRTR",
      "alert": "OK",
      "vis_m": 9999,
      "fzfg": false,
      "metar_trigger": false,
      "taf_trigger": false,
      "metar": "METAR LRTR 202330Z 33005KT CAVOK 12/10 Q1018",
      "taf": "TAF LRTR 202300Z 2100/2124 35010KT CAVOK"
    },
    {
      "icao": "LTAC",
      "alert": "OK",
      "vis_m": 9999,
      "fzfg": false,
      "metar_trigger": false,
      "taf_trigger": false,
      "metar": "METAR LTAC 202320Z VRB02KT 9999 SCT040 SCT100 09/08 Q1009 NOSIG RMK RWY21C VRB01KT RWY03L 08003KT 030V120 RWY21R VRB01KT RWY03R VRB01KT RWY21L 10003KT",
      "taf": "TAF LTAC 202240Z 2100/2124 VRB02KT 9999 SCT040 BKN100"
    },
    {
      "icao": "LTFM",
      "alert": "OK",
      "vis_m": 9999,
      "fzfg": false,
      "metar_trigger": false,
      "taf_trigger": false,
      "metar": "METAR LTFM 202320Z 33013KT 9999 BKN032 17/14 Q1010 RESHRA NOSIG RMK RWY17L 32013KT RWY34L 31012KT RWY16R 32009KT RWY36 32014KT RWY18 33014KT",
      "taf": "TAF LTFM 202240Z 2100/2206 30012KT 9999 BKN025 BKN080"
    },
    {
      "icao": "LUKK",
      "alert": "OK",
      "vis_m": 9999,
      "fzfg": false,
      "metar_trigger": false,
      "taf_trigger": false,
      "metar": "METAR LUKK 202330Z 35008KT 9999 FEW013 17/15 Q1009 NOSIG",
      "taf": "TAF LUKK 202309Z 2100/2124 34009KT 9999 SCT030"
    },
    {
      "icao": "LWOH",
      "alert": "OK",
      "vis_m": null,
      "fzfg": false,
      "metar_trigger": false,
      "taf_trigger": false,
      "metar": "",
      "taf": "TAF LWOH 202330Z 2100/2124 34006KT 9999 FEW040 SCT090"
    },
    {
      "icao": "LWSK",
      "alert": "OK",
      "vis_m": 9999,
      "fzfg": false,
      "metar_trigger": false,
      "taf_trigger": false,
      "metar": "METAR LWSK 202350Z 36005KT 300V030 CAVOK 12/08 Q1018 NOSIG",
      "taf": "TAF LWSK 202330Z 2100/2124 01008KT CAVOK"
    },
    {
      "icao": "LYBE",
      "alert": "OK",
      "vis_m": 9999,
      "fzfg": false,
      "metar_trigger": false,
      "taf_trigger": false,
      "metar": "METAR LYBE 202330Z VRB02KT CAVOK 13/09 Q1019 NOSIG",
      "taf": "TAF LYBE 202300Z 2100/2124 25005KT CAVOK TX24/2113Z TN11/2104Z"
    },
    {
      "icao": "LYNI",
      "alert": "OK",
      "vis_m": 9999,
      "fzfg": false,
      "metar_trigger": false,
      "taf_trigger": false,
      "metar": "METAR LYNI 202330Z 30005KT 230V340 CAVOK 17/09 Q1018 NOSIG",
      "taf": "TAF LYNI 202300Z 2100/2124 33010KT CAVOK TX23/2113Z TN12/2104Z"
    },
    {
      "icao": "LYPG",
      "alert": "OK",
      "vis_m": 9999,
      "fzfg": false,
      "metar_trigger": false,
      "taf_trigger": false,
      "metar": "METAR LYPG 202330Z 32006KT 280V360 CAVOK 18/07 Q1018 NOSIG",
      "taf": "TAF LYPG 202300Z 2100/2124 36010KT CAVOK TX27/2112Z TN18/2104Z"
    },
    {
      "icao": "LZIB",
      "alert": "OK",
      "vis_m": 9999,
      "fzfg": false,
      "metar_trigger": false,
      "taf_trigger": false,
      "metar": "METAR LZIB 202330Z 30014KT CAVOK 17/10 Q1023 NOSIG",
      "taf": "TAF LZIB 202315Z 2100/2200 29014KT CAVOK"
    },
    {
      "icao": "LZKZ",
      "alert": "OK",
      "vis_m": 9999,
      "fzfg": false,
      "metar_trigger": false,
      "taf_trigger": false,
      "metar": "METAR LZKZ 202330Z 02007KT CAVOK 11/08 Q1020 NOSIG",
      "taf": "TAF LZKZ 202315Z 2100/2200 35004KT CAVOK"
    },
    {
      "icao": "LZTT",
      "alert": "OK",
      "vis_m": 9999,
      "fzfg": false,
      "metar_trigger": false,
      "taf_trigger": false,
      "metar": "METAR LZTT 202330Z 27009KT 9999 FEW056 09/06 Q1022",
      "taf": "TAF LZTT 202315Z 2100/2200 28004KT 9999 FEW050"
    },
    {
      "icao": "OEJN",
      "alert": "OK",
      "vis_m": 7000,
      "fzfg": false,
      "metar_trigger": false,
      "taf_trigger": false,
      "metar": "METAR OEJN 202300Z 14003KT 7000 NSC 32/11 Q1004 NOSIG",
      "taf": "TAF OEJN 202300Z 2100/2206 VRB03KT 7000 NSC"
    },
    {
      "icao": "OEMA",
      "alert": "OK",
      "vis_m": 9999,
      "fzfg": false,
      "metar_trigger": false,
      "taf_trigger": false,
      "metar": "METAR OEMA 202300Z VRB02KT CAVOK 35/00 Q1010 NOSIG",
      "taf": "TAF OEMA 202300Z 2100/2206 VRB03KT CAVOK"
    },
    {
      "icao": "OJAI",
      "alert": "OK",
      "vis_m": 4000,
      "fzfg": false,
      "metar_trigger": false,
      "taf_trigger": false,
      "metar": "METAR OJAI 202300Z 24010KT 4000 DU NSC 14/06 Q1014 NOSIG",
      "taf": "TAF OJAI 202300Z 2100/2206 26016KT 4000 BLDU FEW035"
    },
    {
      "icao": "OMAA",
      "alert": "OK",
      "vis_m": 9999,
      "fzfg": false,
      "metar_trigger": false,
      "taf_trigger": false,
      "metar": "METAR OMAA 202330Z 28009KT CAVOK 28/14 Q1004 NOSIG",
      "taf": "TAF OMAA 202300Z 2100/2206 25007KT 8000 NSC"
    },
    {
      "icao": "OMDB",
      "alert": "OK",
      "vis_m": 9999,
      "fzfg": false,
      "metar_trigger": false,
      "taf_trigger": false,
      "metar": "METAR OMDB 202300Z VRB05KT CAVOK 28/18 Q1003 NOSIG",
      "taf": "TAF OMDB 202300Z 2100/2206 21008KT 8000 NSC"
    },
    {
      "icao": "UAAA",
      "alert": "OK",
      "vis_m": 9999,
      "fzfg": false,
      "metar_trigger": false,
      "taf_trigger": false,
      "metar": "METAR UAAA 202330Z 14002MPS 9999 FEW100 SCT200 10/07 Q1004 NOSIG",
      "taf": "TAF UAAA 202301Z 2100/2124 35003MPS 9999 SCT100 TX26/2110Z TN09/2100Z"
    },
    {
      "icao": "UBBB",
      "alert": "OK",
      "vis_m": 9999,
      "fzfg": false,
      "metar_trigger": false,
      "taf_trigger": false,
      "metar": "METAR UBBB 202330Z 13004KT CAVOK 15/13 Q1007 NOSIG",
      "taf": "TAF UBBB 202306Z 2100/2124 17005KT 9999 SCT020 TX24/2110Z TN14/2100Z"
    },
    {
      "icao": "UDSG",
      "alert": "OK",
      "vis_m": 9999,
      "fzfg": false,
      "metar_trigger": false,
      "taf_trigger": false,
      "metar": "METAR UDSG 202330Z 21002KT 9999 BKN036CB 09/07 Q1010 NOSIG",
      "taf": "TAF UDSG 202300Z 2100/2124 06006KT 9999 BKN040"
    },
    {
      "icao": "UDYZ",
      "alert": "OK",
      "vis_m": 9999,
      "fzfg": false,
      "metar_trigger": false,
      "taf_trigger": false,
      "metar": "METAR UDYZ 202330Z 05003KT 020V100 9999 FEW043CB 14/07 Q1006 NOSIG",
      "taf": "TAF UDYZ 202300Z 2100/2124 04006KT 9999 SCT040"
    },
    {
      "icao": "UGKO",
      "alert": "OK",
      "vis_m": 9999,
      "fzfg": false,
      "metar_trigger": false,
      "taf_trigger": false,
      "metar": "METAR UGKO 202330Z VRB01KT 9999 SCT099 15/14 Q1004 NOSIG",
      "taf": "TAF UGKO 202300Z 2100/2124 26007KT 9999 SCT022 BKN060 TX20/2111Z TN13/2102Z"
    }
  ]
}