{
  "ts_utc": "2026-02-09T08:28:00Z",
  "threshold_m": 150,
  "source": "stations_override.txt (ICAO list) + aviationweather.gov (METAR/TAF raw)",
  "station_count": 159,
  "stations": [
    {
      "icao": "BIKF",
      "alert": "OK",
      "vis_m": 9999,
      "fzfg": false,
      "metar_trigger": false,
      "taf_trigger": false,
      "metar": "METAR BIKF 090800Z 02010KT CAVOK 00/M03 Q1007",
      "taf": "TAF BIKF 090754Z 0909/1009 05012KT CAVOK TX03/0915Z TN00/0909Z"
    },
    {
      "icao": "BKPR",
      "alert": "OK",
      "vis_m": 600,
      "fzfg": false,
      "metar_trigger": false,
      "taf_trigger": false,
      "metar": "METAR BKPR 090800Z 13002KT 0600 R17/1500U R35/0275N FG BKN005 05/05 Q1008 BECMG 2000 BR",
      "taf": ""
    },
    {
      "icao": "EBCI",
      "alert": "OK",
      "vis_m": 8000,
      "fzfg": false,
      "metar_trigger": false,
      "taf_trigger": false,
      "metar": "METAR EBCI 090820Z 17007KT 8000 OVC009 04/03 Q1005 NOSIG",
      "taf": "TAF EBCI 090518Z 0906/1012 16005KT 9999 BKN009"
    },
    {
      "icao": "EDDB",
      "alert": "OK",
      "vis_m": 2600,
      "fzfg": false,
      "metar_trigger": false,
      "taf_trigger": false,
      "metar": "METAR EDDB 090820Z AUTO 11008KT 2600 BR OVC004 M00/M01 Q1013 TEMPO 4000 BR OVC005",
      "taf": "TAF EDDB 090500Z 0906/1006 10007KT 3500 BR OVC003"
    },
    {
      "icao": "EDDH",
      "alert": "OK",
      "vis_m": 5000,
      "fzfg": false,
      "metar_trigger": false,
      "taf_trigger": false,
      "metar": "METAR EDDH 090820Z AUTO 10007KT 5000 -SN BR BKN008 OVC020 00/M01 Q1011 TEMPO 4500",
      "taf": "TAF EDDH 090500Z 0906/1012 11008KT 9999 BKN013"
    },
    {
      "icao": "EDDK",
      "alert": "OK",
      "vis_m": 9999,
      "fzfg": false,
      "metar_trigger": false,
      "taf_trigger": false,
      "metar": "METAR EDDK 090820Z AUTO 11006KT 9999 SCT007 02/00 Q1008 NOSIG",
      "taf": ""
    },
    {
      "icao": "EDDN",
      "alert": "OK",
      "vis_m": 9999,
      "fzfg": false,
      "metar_trigger": false,
      "taf_trigger": false,
      "metar": "METAR EDDN 090820Z AUTO VRB02KT 9999 OVC010 OVC037 04/02 Q1008 NOSIG",
      "taf": ""
    },
    {
      "icao": "EDDS",
      "alert": "OK",
      "vis_m": 9999,
      "fzfg": false,
      "metar_trigger": false,
      "taf_trigger": false,
      "metar": "METAR EDDS 090820Z AUTO 12004KT 080V160 9999 OVC016 02/01 Q1006 NOSIG",
      "taf": "TAF EDDS 090500Z 0906/1006 10004KT 9999 OVC015"
    },
    {
      "icao": "EDFH",
      "alert": "OK",
      "vis_m": 500,
      "fzfg": false,
      "metar_trigger": false,
      "taf_trigger": false,
      "metar": "METAR EDFH 090820Z 14007KT 0500 R21/0900U FG VV/// 00/00 Q1006",
      "taf": "TAF EDFH 090500Z 0906/1006 14011KT 0600 FG OVC001"
    },
    {
      "icao": "EDJA",
      "alert": "OK",
      "vis_m": 9000,
      "fzfg": false,
      "metar_trigger": false,
      "taf_trigger": false,
      "metar": "METAR EDJA 090820Z 05004KT 9000 FEW003 OVC012 01/01 Q1006",
      "taf": "TAF EDJA 090800Z 0909/0918 VRB03KT 4000 BR BKN002"
    },
    {
      "icao": "EDLW",
      "alert": "OK",
      "vis_m": 9999,
      "fzfg": false,
      "metar_trigger": false,
      "taf_trigger": false,
      "metar": "METAR EDLW 090820Z 07007KT CAVOK 02/M00 Q1007",
      "taf": "TAF EDLW 090500Z 0906/1006 07004KT 9999 FEW035"
    },
    {
      "icao": "EDNY",
      "alert": "OK",
      "vis_m": 9999,
      "fzfg": false,
      "metar_trigger": false,
      "taf_trigger": false,
      "metar": "METAR EDNY 090820Z VRB01KT 9999 OVC024 04/01 Q1007",
      "taf": "TAF EDNY 090800Z 0909/0918 VRB03KT 9999 BKN025"
    },
    {
      "icao": "EDSB",
      "alert": "OK",
      "vis_m": 6000,
      "fzfg": false,
      "metar_trigger": false,
      "taf_trigger": false,
      "metar": "METAR EDSB 090820Z 02007KT 6000 FEW004 OVC032 03/02 Q1007",
      "taf": "TAF EDSB 090500Z 0906/1006 03004KT 3000 BR BKN002"
    },
    {
      "icao": "EETN",
      "alert": "OK",
      "vis_m": 9999,
      "fzfg": false,
      "metar_trigger": false,
      "taf_trigger": false,
      "metar": "METAR EETN 090820Z 23009KT 9999 OVC019 M10/M11 Q1017 NOSIG",
      "taf": "TAF EETN 090530Z 0906/1006 22012KT 9999 BKN005 OVC012"
    },
    {
      "icao": "EFTU",
      "alert": "OK",
      "vis_m": 9999,
      "fzfg": false,
      "metar_trigger": false,
      "taf_trigger": false,
      "metar": "METAR EFTU 090820Z AUTO 27014KT 9999 OVC013 M06/M09 Q1014",
      "taf": "TAF EFTU 090522Z 0906/1006 24009KT 9999 BKN012"
    },
    {
      "icao": "EGBB",
      "alert": "OK",
      "vis_m": 9999,
      "fzfg": false,
      "metar_trigger": false,
      "taf_trigger": false,
      "metar": "METAR EGBB 090820Z 14009KT 9999 BKN007 07/06 Q0999",
      "taf": "TAF EGBB 090454Z 0906/1006 15008KT 9999 SCT010"
    },
    {
      "icao": "EGGP",
      "alert": "OK",
      "vis_m": 9999,
      "fzfg": false,
      "metar_trigger": false,
      "taf_trigger": false,
      "metar": "METAR EGGP 090820Z 15005KT 9999 FEW010 SCT034 06/05 Q0998",
      "taf": "TAF EGGP 090452Z 0906/1006 14008KT 9999 FEW010 SCT045"
    },
    {
      "icao": "EGGW",
      "alert": "OK",
      "vis_m": 9999,
      "fzfg": false,
      "metar_trigger": false,
      "taf_trigger": false,
      "metar": "METAR EGGW 090820Z COR 15007KT 9999 BKN006 06/05 Q1000",
      "taf": "TAF EGGW 090458Z 0906/1006 15007KT 9999 SCT005"
    },
    {
      "icao": "EGKK",
      "alert": "OK",
      "vis_m": 9999,
      "fzfg": false,
      "metar_trigger": false,
      "taf_trigger": false,
      "metar": "METAR EGKK 090820Z 14005KT 100V170 9999 BKN006 08/07 Q1001",
      "taf": "TAF EGKK 090456Z 0906/1012 15006KT 9999 SCT015"
    },
    {
      "icao": "EGNM",
      "alert": "OK",
      "vis_m": 1100,
      "fzfg": false,
      "metar_trigger": false,
      "taf_trigger": false,
      "metar": "METAR EGNM 090820Z 13007KT 100V160 1100 R14/P1500N -RA BR OVC002 06/06 Q0999",
      "taf": "TAF EGNM 090635Z 0906/1006 15006KT 9999 SCT003"
    },
    {
      "icao": "EGPD",
      "alert": "OK",
      "vis_m": 7000,
      "fzfg": false,
      "metar_trigger": false,
      "taf_trigger": false,
      "metar": "METAR EGPD 090820Z 16012KT 7000 -DZ BKN007 07/06 Q0999 TEMPO 4000 RA",
      "taf": "TAF EGPD 090455Z 0906/1006 15009KT 9999 SCT002 BKN006"
    },
    {
      "icao": "EGPF",
      "alert": "OK",
      "vis_m": 8000,
      "fzfg": false,
      "metar_trigger": false,
      "taf_trigger": false,
      "metar": "METAR EGPF 090820Z 07003KT 8000 MIFG BKN042 BKN049 04/04 Q0998",
      "taf": ""
    },
    {
      "icao": "EHBK",
      "alert": "OK",
      "vis_m": 9999,
      "fzfg": false,
      "metar_trigger": false,
      "taf_trigger": false,
      "metar": "METAR EHBK 090755Z AUTO 13004KT 9999 NSC 01/M00 Q1006 NOSIG",
      "taf": "TAF EHBK 090455Z 0906/1012 11005KT CAVOK"
    },
    {
      "icao": "EHEH",
      "alert": "OK",
      "vis_m": 4400,
      "fzfg": false,
      "metar_trigger": false,
      "taf_trigger": false,
      "metar": "METAR EHEH 090755Z AUTO 12004KT 090V210 4400 BR FEW015 BKN220 01/01 Q1006 GRN NOSIG RMK TREND REMOTE BY EHWX",
      "taf": "TAF EHEH 090531Z 0906/1012 12002KT 3000 BR BKN003"
    },
    {
      "icao": "EKBI",
      "alert": "OK",
      "vis_m": 9999,
      "fzfg": false,
      "metar_trigger": false,
      "taf_trigger": false,
      "metar": "METAR EKBI 090820Z AUTO 10008KT 9999 OVC009/// M01/M02 Q1012",
      "taf": "TAF EKBI 090527Z 0906/1006 09008KT 9999 BKN008"
    },
    {
      "icao": "EKCH",
      "alert": "OK",
      "vis_m": 9999,
      "fzfg": false,
      "metar_trigger": false,
      "taf_trigger": false,
      "metar": "METAR EKCH 090820Z 11012KT 9999 OVC009 M01/M03 Q1015 TEMPO BKN012",
      "taf": "TAF EKCH 090527Z 0906/1006 09010KT 9999 BKN009"
    },
    {
      "icao": "ENAL",
      "alert": "OK",
      "vis_m": 9999,
      "fzfg": false,
      "metar_trigger": false,
      "taf_trigger": false,
      "metar": "METAR ENAL 090820Z 15006KT 100V170 9999 FEW030 02/M04 Q1013",
      "taf": "TAF ENAL 090500Z 0906/0915 15008KT 9999 SCT030"
    },
    {
      "icao": "ENBR",
      "alert": "OK",
      "vis_m": 9999,
      "fzfg": false,
      "metar_trigger": false,
      "taf_trigger": false,
      "metar": "METAR ENBR 090820Z 00000KT 9999 SCT045 M01/M08 Q1012 NOSIG RMK WIND 1200FT 14012KT",
      "taf": "TAF ENBR 090500Z 0906/1006 VRB03KT CAVOK"
    },
    {
      "icao": "ENGM",
      "alert": "OK",
      "vis_m": 9999,
      "fzfg": false,
      "metar_trigger": false,
      "taf_trigger": false,
      "metar": "METAR ENGM 090820Z 02004KT 9999 FEW001 OVC022 M09/M11 Q1016 NOSIG",
      "taf": "TAF ENGM 090500Z 0906/1006 01005KT 9999 -SN BKN020"
    },
    {
      "icao": "ENHD",
      "alert": "OK",
      "vis_m": 9999,
      "fzfg": false,
      "metar_trigger": false,
      "taf_trigger": false,
      "metar": "METAR ENHD 090820Z 11012KT 9999 FEW028 BKN051 01/M05 Q1012",
      "taf": "TAF ENHD 090500Z 0906/0915 11012KT 9999 BKN025"
    },
    {
      "icao": "ENTC",
      "alert": "OK",
      "vis_m": 9999,
      "fzfg": false,
      "metar_trigger": false,
      "taf_trigger": false,
      "metar": "METAR ENTC 090820Z 03006KT 340V050 9999 VCSH FEW013 SCT021 BKN030 M02/M06 Q1010 TEMPO 1200 -SHSN VV008 RMK WIND 2600FT 36015KT",
      "taf": "TAF ENTC 090500Z 0906/1006 03005KT 9999 FEW015 BKN035"
    },
    {
      "icao": "ENTO",
      "alert": "OK",
      "vis_m": 9999,
      "fzfg": false,
      "metar_trigger": false,
      "taf_trigger": false,
      "metar": "METAR ENTO 090820Z 36003KT 9999 OVC008 M07/M09 Q1017 TEMPO SCT008",
      "taf": "TAF ENTO 090500Z 0906/1006 01006KT 9999 BKN020"
    },
    {
      "icao": "ENVA",
      "alert": "OK",
      "vis_m": 9999,
      "fzfg": false,
      "metar_trigger": false,
      "taf_trigger": false,
      "metar": "METAR ENVA 090820Z 08003KT 9999 BKN023 M06/M11 Q1014 NOSIG RMK WIND 670FT 16005KT",
      "taf": "TAF ENVA 090500Z 0906/1006 10005KT 9999 FEW020 BKN040"
    },
    {
      "icao": "ENZV",
      "alert": "OK",
      "vis_m": 9999,
      "fzfg": false,
      "metar_trigger": false,
      "taf_trigger": false,
      "metar": "METAR ENZV 090820Z 12010KT 9999 SCT047 01/M05 Q1013 NOSIG",
      "taf": "TAF ENZV 090500Z 0906/1006 12010KT 9999 SCT030"
    },
    {
      "icao": "EPGD",
      "alert": "OK",
      "vis_m": 1300,
      "fzfg": false,
      "metar_trigger": false,
      "taf_trigger": false,
      "metar": "METAR EPGD 090800Z 13008KT 1300 0700E R29/1000N PRFG BR OVC001 M09/M10 Q1018",
      "taf": ""
    },
    {
      "icao": "EPKK",
      "alert": "OK",
      "vis_m": 9999,
      "fzfg": false,
      "metar_trigger": false,
      "taf_trigger": false,
      "metar": "METAR EPKK 090800Z 07014KT 9999 OVC010 M03/M05 Q1014",
      "taf": "TAF EPKK 090530Z 0906/1006 07012KT 9999 OVC008"
    },
    {
      "icao": "EPKT",
      "alert": "OK",
      "vis_m": 9999,
      "fzfg": false,
      "metar_trigger": false,
      "taf_trigger": false,
      "metar": "METAR EPKT 090800Z 10015KT 9999 BKN010 M03/M05 Q1013",
      "taf": "TAF EPKT 090530Z 0906/1006 08012KT 9999 OVC008"
    },
    {
      "icao": "EPLB",
      "alert": "OK",
      "vis_m": 9999,
      "fzfg": false,
      "metar_trigger": false,
      "taf_trigger": false,
      "metar": "METAR EPLB 090800Z 12011KT 9999 -SN OVC010 M08/M10 Q1020",
      "taf": "TAF EPLB 090530Z 0906/1006 12012KT 9999 BKN007 OVC012"
    },
    {
      "icao": "EPMO",
      "alert": "OK",
      "vis_m": 9999,
      "fzfg": false,
      "metar_trigger": false,
      "taf_trigger": false,
      "metar": "METAR EPMO 090800Z 09009KT 9999 BKN010 M09/M10 Q1019",
      "taf": "TAF EPMO 090530Z 0906/1006 08012KT 9999 BKN009 OVC014"
    },
    {
      "icao": "EPPO",
      "alert": "OK",
      "vis_m": 9999,
      "fzfg": false,
      "metar_trigger": false,
      "taf_trigger": false,
      "metar": "METAR EPPO 090800Z 12011KT 9999 OVC011 M02/M04 Q1015",
      "taf": ""
    },
    {
      "icao": "EPRA",
      "alert": "OK",
      "vis_m": 9999,
      "fzfg": false,
      "metar_trigger": false,
      "taf_trigger": false,
      "metar": "METAR EPRA 090800Z 13013KT 9999 OVC010 M06/M09 Q1018",
      "taf": "TAF EPRA 090530Z 0906/0915 13012KT 9999 OVC010"
    },
    {
      "icao": "EPRZ",
      "alert": "OK",
      "vis_m": 9999,
      "fzfg": false,
      "metar_trigger": false,
      "taf_trigger": false,
      "metar": "METAR EPRZ 090800Z 08019KT 9999 OVC011 M05/M07 Q1017",
      "taf": "TAF EPRZ 090530Z 0906/1006 07015KT 9999 OVC009"
    },
    {
      "icao": "EPSC",
      "alert": "OK",
      "vis_m": 9999,
      "fzfg": false,
      "metar_trigger": false,
      "taf_trigger": false,
      "metar": "METAR EPSC 090800Z 11012KT 9999 OVC012 M01/M04 Q1014",
      "taf": "TAF EPSC 090530Z 0906/1006 11010KT 9999 BKN014"
    },
    {
      "icao": "EPSY",
      "alert": "OK",
      "vis_m": 6000,
      "fzfg": false,
      "metar_trigger": false,
      "taf_trigger": false,
      "metar": "METAR EPSY 090800Z 12006KT 070V200 6000 -SN SCT002 OVC005 M12/M13 Q1020",
      "taf": "TAF EPSY 090530Z 0906/0915 12006KT 9999 BKN006"
    },
    {
      "icao": "EPWA",
      "alert": "OK",
      "vis_m": 9999,
      "fzfg": false,
      "metar_trigger": false,
      "taf_trigger": false,
      "metar": "METAR EPWA 090800Z 11012KT 9999 -SN OVC011 M09/M11 Q1019 NOSIG",
      "taf": "TAF EPWA 090530Z 0906/1006 10010KT 9999 BKN008 OVC013"
    },
    {
      "icao": "EPWR",
      "alert": "OK",
      "vis_m": 9999,
      "fzfg": false,
      "metar_trigger": false,
      "taf_trigger": false,
      "metar": "METAR EPWR 090800Z 11012KT 9999 OVC010 M01/M02 Q1013",
      "taf": "TAF EPWR 090530Z 0906/1006 08010KT 8000 OVC008"
    },
    {
      "icao": "ESGG",
      "alert": "OK",
      "vis_m": 9999,
      "fzfg": false,
      "metar_trigger": false,
      "taf_trigger": false,
      "metar": "METAR ESGG 090820Z 11008KT 9999 FEW038 M08/M10 Q1016",
      "taf": "TAF ESGG 090530Z 0906/1006 11007KT 9999 SCT040"
    },
    {
      "icao": "ESKN",
      "alert": "OK",
      "vis_m": 9999,
      "fzfg": false,
      "metar_trigger": false,
      "taf_trigger": false,
      "metar": "METAR ESKN 090820Z VRB03KT 9999 BKN016 M11/M12 Q1018",
      "taf": "TAF ESKN 090530Z 0906/1006 30003KT CAVOK"
    },
    {
      "icao": "ESMS",
      "alert": "OK",
      "vis_m": 9999,
      "fzfg": false,
      "metar_trigger": false,
      "taf_trigger": false,
      "metar": "METAR ESMS 090820Z 10009KT 9999 OVC009 M02/M03 Q1015",
      "taf": "TAF ESMS 090527Z 0906/1006 10010KT 9999 OVC008"
    },
    {
      "icao": "ESSA",
      "alert": "OK",
      "vis_m": 9999,
      "fzfg": false,
      "metar_trigger": false,
      "taf_trigger": false,
      "metar": "METAR ESSA 090820Z 25004KT 9999 BKN015 M09/M10 Q1017 TEMPO BKN014",
      "taf": "TAF ESSA 090530Z 0906/1006 24003KT 9999 FEW003 BKN020"
    },
    {
      "icao": "EYKA",
      "alert": "OK",
      "vis_m": 9999,
      "fzfg": false,
      "metar_trigger": false,
      "taf_trigger": false,
      "metar": "METAR EYKA 090820Z 14003KT 9999 FEW002 M17/M19 Q1022",
      "taf": "TAF EYKA 090508Z 0906/1006 VRB04KT 8000 NSC"
    },
    {
      "icao": "EYPA",
      "alert": "OK",
      "vis_m": 9999,
      "fzfg": false,
      "metar_trigger": false,
      "taf_trigger": false,
      "metar": "METAR EYPA 090820Z 16008KT CAVOK M13/M15 Q1020",
      "taf": "TAF EYPA 090508Z 0906/1006 VRB04KT 8000 SCT015"
    },
    {
      "icao": "EYVI",
      "alert": "OK",
      "vis_m": 6000,
      "fzfg": false,
      "metar_trigger": false,
      "taf_trigger": false,
      "metar": "METAR EYVI 090820Z 15004KT 6000 BKN002 M16/M18 Q1021 BECMG FEW002",
      "taf": "TAF EYVI 090503Z 0906/1006 VRB03KT 9000 BKN002"
    },
    {
      "icao": "GCFV",
      "alert": "OK",
      "vis_m": 9999,
      "fzfg": false,
      "metar_trigger": false,
      "taf_trigger": false,
      "metar": "METAR GCFV 090800Z 33008KT 9999 FEW030 17/13 Q1023",
      "taf": "TAF GCFV 090800Z 0909/1009 03010KT 9999 FEW030 TX22/0914Z TN16/1006Z"
    },
    {
      "icao": "GCLP",
      "alert": "OK",
      "vis_m": 9999,
      "fzfg": false,
      "metar_trigger": false,
      "taf_trigger": false,
      "metar": "METAR GCLP 090800Z 35006KT 320V020 9999 FEW030 16/13 Q1024 NOSIG",
      "taf": "TAF GCLP 090800Z 0909/1009 03015KT 9999 FEW030 TX22/0914Z TN16/1006Z"
    },
    {
      "icao": "GCTS",
      "alert": "OK",
      "vis_m": 9999,
      "fzfg": false,
      "metar_trigger": false,
      "taf_trigger": false,
      "metar": "METAR GCTS 090800Z 35007KT 9999 FEW035 15/09 Q1024 NOSIG",
      "taf": "TAF GCTS 090800Z 0909/1009 10007KT 9999 FEW035 TX22/0914Z TN15/1006Z"
    },
    {
      "icao": "GMAD",
      "alert": "OK",
      "vis_m": 8000,
      "fzfg": false,
      "metar_trigger": false,
      "taf_trigger": false,
      "metar": "METAR GMAD 090800Z 09006KT 8000 FEW010 BKN200 12/10 Q1021 NOSIG",
      "taf": "TAF GMAD 090500Z 0906/1012 22004KT 2000 BR BKN008"
    },
    {
      "icao": "GMMN",
      "alert": "OK",
      "vis_m": 9999,
      "fzfg": false,
      "metar_trigger": false,
      "taf_trigger": false,
      "metar": "METAR GMMN 090800Z 21012KT 9999 BKN005 14/13 Q1021 NOSIG",
      "taf": "TAF GMMN 090500Z 0906/1012 22015KT 5000 -DZ BKN006"
    },
    {
      "icao": "GMMX",
      "alert": "OK",
      "vis_m": 8000,
      "fzfg": false,
      "metar_trigger": false,
      "taf_trigger": false,
      "metar": "METAR GMMX 090800Z 17007KT 8000 BKN026 14/13 Q1022 NOSIG",
      "taf": "TAF GMMX 090500Z 0906/1012 22006KT 8000 SCT020 SCT080"
    },
    {
      "icao": "HEGN",
      "alert": "OK",
      "vis_m": 9999,
      "fzfg": false,
      "metar_trigger": false,
      "taf_trigger": false,
      "metar": "METAR HEGN 090800Z 11006KT CAVOK 24/11 Q1014 NOSIG",
      "taf": "TAF HEGN 090500Z 0906/1012 33008KT CAVOK"
    },
    {
      "icao": "HEMA",
      "alert": "OK",
      "vis_m": 9999,
      "fzfg": false,
      "metar_trigger": false,
      "taf_trigger": false,
      "metar": "METAR HEMA 090800Z 15007KT CAVOK 26/06 Q1015 NOSIG",
      "taf": "TAF HEMA 090500Z 0906/1012 32008KT CAVOK"
    },
    {
      "icao": "HESH",
      "alert": "OK",
      "vis_m": 9999,
      "fzfg": false,
      "metar_trigger": false,
      "taf_trigger": false,
      "metar": "METAR HESH 090800Z 32005KT CAVOK 22/18 Q1015 NOSIG",
      "taf": "TAF HESH 090500Z 0906/1012 36008KT 6000 NSC"
    },
    {
      "icao": "HESX",
      "alert": "OK",
      "vis_m": 6000,
      "fzfg": false,
      "metar_trigger": false,
      "taf_trigger": false,
      "metar": "METAR HESX 090800Z 35003KT 6000 NSC 17/10 Q1013 NOSIG",
      "taf": "TAF HESX 090500Z 0906/1012 27008KT 6000 NSC"
    },
    {
      "icao": "LATI",
      "alert": "OK",
      "vis_m": 9999,
      "fzfg": false,
      "metar_trigger": false,
      "taf_trigger": false,
      "metar": "METAR LATI 090820Z VRB03KT 9999 -RA BKN049 OVC080 10/08 Q1007 NOSIG",
      "taf": "TAF LATI 090500Z 0906/1006 VRB05KT 9999 SCT040 BKN080 TX13/0912Z TN07/1005Z"
    },
    {
      "icao": "LBPD",
      "alert": "OK",
      "vis_m": 9999,
      "fzfg": false,
      "metar_trigger": false,
      "taf_trigger": false,
      "metar": "METAR LBPD 090800Z AUTO 09003KT 9999 FEW036/// SCT044/// OVC071/// 06/06 Q1011 NOSIG",
      "taf": "TAF LBPD 090500Z 0906/1006 VRB03KT 9999 SCT050"
    },
    {
      "icao": "LBSF",
      "alert": "OK",
      "vis_m": 5000,
      "fzfg": false,
      "metar_trigger": false,
      "taf_trigger": false,
      "metar": "METAR LBSF 090800Z VRB02KT 5000 BR NSC 02/01 Q1010 TEMPO 5000 BR",
      "taf": "TAF LBSF 090500Z 0906/1006 VRB03KT 4000 BR BKN012"
    },
    {
      "icao": "LBWN",
      "alert": "OK",
      "vis_m": 8000,
      "fzfg": false,
      "metar_trigger": false,
      "taf_trigger": false,
      "metar": "METAR LBWN 090800Z 06010KT 030V100 8000 SCT013 OVC019 01/M01 Q1015 NOSIG",
      "taf": "TAF LBWN 090500Z 0906/1006 05012KT 9999 BKN005 OVC020"
    },
    {
      "icao": "LCLK",
      "alert": "OK",
      "vis_m": 9999,
      "fzfg": false,
      "metar_trigger": false,
      "taf_trigger": false,
      "metar": "METAR LCLK 090800Z 22004KT 170V280 9999 FEW025 19/14 Q1010 NOSIG",
      "taf": "TAF LCLK 090530Z 0906/1006 28006KT 9999 FEW025"
    },
    {
      "icao": "LCPH",
      "alert": "OK",
      "vis_m": 9999,
      "fzfg": false,
      "metar_trigger": false,
      "taf_trigger": false,
      "metar": "METAR LCPH 090800Z 26007KT 250V320 9999 SCT020 SCT030 18/13 Q1011 NOSIG",
      "taf": "TAF LCPH 090530Z 0906/1006 02007KT 9999 SCT013"
    },
    {
      "icao": "LEAL",
      "alert": "OK",
      "vis_m": 9999,
      "fzfg": false,
      "metar_trigger": false,
      "taf_trigger": false,
      "metar": "METAR LEAL 090800Z 27005KT 9999 BKN052 10/09 Q1011 NOSIG",
      "taf": "TAF LEAL 090500Z 0906/1006 26005KT 9999 FEW040 TX21/0914Z TN06/0906Z"
    },
    {
      "icao": "LEBB",
      "alert": "OK",
      "vis_m": 9999,
      "fzfg": false,
      "metar_trigger": false,
      "taf_trigger": false,
      "metar": "METAR LEBB 090800Z VRB03KT 9999 FEW035 13/05 Q1005 NOSIG",
      "taf": "TAF LEBB 090500Z 0906/1006 20008KT 9999 FEW040 SCT060 TX16/0913Z TN11/0906Z"
    },
    {
      "icao": "LEBL",
      "alert": "OK",
      "vis_m": 9999,
      "fzfg": false,
      "metar_trigger": false,
      "taf_trigger": false,
      "metar": "METAR LEBL 090800Z 33009KT 300V010 9999 FEW025 08/05 Q1008 NOSIG",
      "taf": "TAF LEBL 090500Z 0906/1006 34008KT 9999 FEW025 TX14/0913Z TN07/0906Z"
    },
    {
      "icao": "LECH",
      "alert": "OK",
      "vis_m": 9999,
      "fzfg": false,
      "metar_trigger": false,
      "taf_trigger": false,
      "metar": "METAR LECH 090800Z AUTO VRB02KT 9999 OVC050 07/05 Q1009",
      "taf": ""
    },
    {
      "icao": "LEMD",
      "alert": "OK",
      "vis_m": 8000,
      "fzfg": false,
      "metar_trigger": false,
      "taf_trigger": false,
      "metar": "METAR LEMD 090800Z 21006KT 170V250 8000 BKN008 07/07 Q1009 NOSIG",
      "taf": "TAF LEMD 090500Z 0906/1012 22010KT 9999 SCT030 TX13/0915Z TN05/0906Z"
    },
    {
      "icao": "LEMG",
      "alert": "OK",
      "vis_m": 9999,
      "fzfg": false,
      "metar_trigger": false,
      "taf_trigger": false,
      "metar": "METAR LEMG 090800Z 30008KT 9999 FEW030 BKN040 10/09 Q1013 NOSIG",
      "taf": "TAF LEMG 090500Z 0906/1006 VRB03KT 9999 BKN030 TX22/0914Z TN13/0907Z"
    },
    {
      "icao": "LEVC",
      "alert": "OK",
      "vis_m": 9999,
      "fzfg": false,
      "metar_trigger": false,
      "taf_trigger": false,
      "metar": "METAR LEVC 090800Z 24006KT 9999 FEW040 10/07 Q1010 NOSIG",
      "taf": "TAF LEVC 090500Z 0906/1006 25006KT 9999 FEW040 TX20/0914Z TN07/0906Z"
    },
    {
      "icao": "LEXJ",
      "alert": "OK",
      "vis_m": 9999,
      "fzfg": false,
      "metar_trigger": false,
      "taf_trigger": false,
      "metar": "METAR LEXJ 090800Z 21010KT 170V250 CAVOK 13/04 Q1003",
      "taf": "TAF LEXJ 090800Z 0909/1009 21009KT 9999 SCT060 TX16/0913Z TN13/1007Z"
    },
    {
      "icao": "LEZG",
      "alert": "OK",
      "vis_m": 9999,
      "fzfg": false,
      "metar_trigger": false,
      "taf_trigger": false,
      "metar": "METAR LEZG 090800Z 14005KT 110V170 9999 BKN060 BKN070 08/06 Q1008 NOSIG",
      "taf": "TAF LEZG 090500Z 0906/1006 23010KT 9999 FEW020 TX16/0915Z TN05/0906Z"
    },
    {
      "icao": "LEZL",
      "alert": "OK",
      "vis_m": 9999,
      "fzfg": false,
      "metar_trigger": false,
      "taf_trigger": false,
      "metar": "SPECI LEZL 090825Z 22008KT 9999 SCT005 BKN008 16/16 Q1014 NOSIG",
      "taf": "TAF LEZL 090800Z 0909/1009 24010KT 9999 FEW015 TX20/0915Z TN15/1007Z"
    },
    {
      "icao": "LFBD",
      "alert": "OK",
      "vis_m": 9999,
      "fzfg": false,
      "metar_trigger": false,
      "taf_trigger": false,
      "metar": "METAR LFBD 090800Z AUTO 16008KT CAVOK 07/06 Q1004 NOSIG",
      "taf": "TAF LFBD 090500Z 0906/1012 VRB03KT 9999 SCT040 TX12/0914Z TN06/0906Z"
    },
    {
      "icao": "LFLL",
      "alert": "OK",
      "vis_m": 7000,
      "fzfg": false,
      "metar_trigger": false,
      "taf_trigger": false,
      "metar": "METAR LFLL 090800Z VRB03KT 7000 NSC 02/01 Q1007 NOSIG",
      "taf": "TAF LFLL 090500Z 0906/1012 14007KT CAVOK"
    },
    {
      "icao": "LFLS",
      "alert": "OK",
      "vis_m": 9999,
      "fzfg": false,
      "metar_trigger": false,
      "taf_trigger": false,
      "metar": "METAR LFLS 090800Z AUTO 08007KT CAVOK 03/02 Q1006 NOSIG",
      "taf": "TAF LFLS 090800Z 0909/1009 08007KT CAVOK"
    },
    {
      "icao": "LFMN",
      "alert": "OK",
      "vis_m": 9999,
      "fzfg": false,
      "metar_trigger": false,
      "taf_trigger": false,
      "metar": "METAR LFMN 090800Z 33010KT 9999 FEW030 SCT100 09/05 Q1006 NOSIG",
      "taf": "TAF LFMN 090800Z 0909/1015 32010KT 9999 SCT100"
    },
    {
      "icao": "LFOB",
      "alert": "OK",
      "vis_m": 1100,
      "fzfg": false,
      "metar_trigger": false,
      "taf_trigger": false,
      "metar": "METAR LFOB 090800Z AUTO 14010KT 1100 0900 R30/1700D R12/1200N BCFG VV/// 04/04 Q1004 BECMG 9999 NSW OVC003",
      "taf": "TAF LFOB 090500Z 0906/1006 13010KT 3000 BR OVC003"
    },
    {
      "icao": "LFPO",
      "alert": "OK",
      "vis_m": 800,
      "fzfg": false,
      "metar_trigger": false,
      "taf_trigger": false,
      "metar": "METAR LFPO 090800Z 13006KT 110V170 0800 R02/1700U R25/1500U R07/1500N R24/1600N R06/1100N FG VV/// 04/04 Q1004 NOSIG",
      "taf": "TAF LFPO 090500Z 0906/1012 13005KT 2000 BR OVC002"
    },
    {
      "icao": "LFSB",
      "alert": "OK",
      "vis_m": 5000,
      "fzfg": false,
      "metar_trigger": false,
      "taf_trigger": false,
      "metar": "METAR LFSB 090800Z AUTO 30002KT 5000 BR FEW004 OVC027 03/03 Q1007 TEMPO 0300 FG VV///",
      "taf": "TAF LFSB 090500Z 0906/1006 VRB03KT 7000 BKN010"
    },
    {
      "icao": "LGAV",
      "alert": "OK",
      "vis_m": 9999,
      "fzfg": false,
      "metar_trigger": false,
      "taf_trigger": false,
      "metar": "METAR LGAV 090750Z VRB02KT 9999 FEW025 SCT070 14/07 Q1008 NOSIG",
      "taf": "TAF LGAV 090500Z 0906/1006 27006KT 9999 SCT025 SCT070"
    },
    {
      "icao": "LGTS",
      "alert": "OK",
      "vis_m": 9999,
      "fzfg": false,
      "metar_trigger": false,
      "taf_trigger": false,
      "metar": "METAR LGTS 090820Z VRB02KT 9999 FEW020 BKN040 10/09 Q1009 NOSIG",
      "taf": "TAF LGTS 090500Z 0906/1006 VRB03KT 9999 FEW010 BKN025"
    },
    {
      "icao": "LHBP",
      "alert": "OK",
      "vis_m": 9999,
      "fzfg": false,
      "metar_trigger": false,
      "taf_trigger": false,
      "metar": "METAR LHBP 090800Z 09007KT 9999 FEW018 BKN100 04/02 Q1011 NOSIG",
      "taf": ""
    },
    {
      "icao": "LHDC",
      "alert": "OK",
      "vis_m": 9999,
      "fzfg": false,
      "metar_trigger": false,
      "taf_trigger": false,
      "metar": "METAR LHDC 090745Z AUTO 05010KT 9999 OVC013 03/01 Q1011 NOSIG",
      "taf": "TAF LHDC 090815Z 0909/0918 05011KT 9999 OVC018"
    },
    {
      "icao": "LIBD",
      "alert": "OK",
      "vis_m": 9999,
      "fzfg": false,
      "metar_trigger": false,
      "taf_trigger": false,
      "metar": "METAR LIBD 090820Z 24004KT 9999 -RA BKN025 10/09 Q1005",
      "taf": "TAF LIBD 090500Z 0906/1006 VRB05KT 9999 SCT040"
    },
    {
      "icao": "LIBG",
      "alert": "OK",
      "vis_m": 9999,
      "fzfg": false,
      "metar_trigger": false,
      "taf_trigger": false,
      "metar": "METAR LIBG 090750Z 12003KT 9999 FEW010 BKN040 11/10 Q1005",
      "taf": "TAF LIBG 090800Z 0909/0918 VRB05KT 9999 SCT040"
    },
    {
      "icao": "LIBP",
      "alert": "OK",
      "vis_m": 9999,
      "fzfg": false,
      "metar_trigger": false,
      "taf_trigger": false,
      "metar": "METAR LIBP 090820Z AUTO 23003KT 9999 OVC015/// 10/09 Q1006",
      "taf": "TAF LIBP 090500Z 0906/1006 VRB05KT 8000 BKN020"
    },
    {
      "icao": "LIBR",
      "alert": "OK",
      "vis_m": 9999,
      "fzfg": false,
      "metar_trigger": false,
      "taf_trigger": false,
      "metar": "METAR LIBR 090820Z VRB01KT 9999 -DZ FEW045 11/09 Q1005",
      "taf": "TAF LIBR 090500Z 0906/1006 15012KT 9999 SCT040"
    },
    {
      "icao": "LICA",
      "alert": "OK",
      "vis_m": 9999,
      "fzfg": false,
      "metar_trigger": false,
      "taf_trigger": false,
      "metar": "METAR LICA 090820Z AUTO 30004KT 9999 -DZ OVC042/// 11/10 Q1005",
      "taf": "TAF LICA 090500Z 0906/1006 07006KT 9999 BKN045"
    },
    {
      "icao": "LICC",
      "alert": "OK",
      "vis_m": 9999,
      "fzfg": false,
      "metar_trigger": false,
      "taf_trigger": false,
      "metar": "METAR LICC 090820Z 24011KT 9999 SCT070 12/09 Q1006",
      "taf": "TAF LICC 090500Z 0906/1006 26015KT 9999 SCT040"
    },
    {
      "icao": "LICJ",
      "alert": "OK",
      "vis_m": 9999,
      "fzfg": false,
      "metar_trigger": false,
      "taf_trigger": false,
      "metar": "METAR LICJ 090820Z 19012KT 9999 SCT020 12/09 Q1005",
      "taf": "TAF LICJ 090500Z 0906/1006 20015KT 9999 FEW020 SCT040"
    },
    {
      "icao": "LIMC",
      "alert": "OK",
      "vis_m": 9999,
      "fzfg": false,
      "metar_trigger": false,
      "taf_trigger": false,
      "metar": "METAR LIMC 090820Z VRB01KT 9999 SCT050 06/06 Q1008 NOSIG",
      "taf": "TAF LIMC 090500Z 0906/1012 VRB04KT 7000 SCT040"
    },
    {
      "icao": "LIME",
      "alert": "OK",
      "vis_m": 9999,
      "fzfg": false,
      "metar_trigger": false,
      "taf_trigger": false,
      "metar": "METAR LIME 090820Z 01002KT 9999 SCT055 BKN080 08/05 Q1007 NOSIG",
      "taf": "TAF LIME 090500Z 0906/1006 VRB04KT 7000 SCT040"
    },
    {
      "icao": "LIMF",
      "alert": "OK",
      "vis_m": 9999,
      "fzfg": false,
      "metar_trigger": false,
      "taf_trigger": false,
      "metar": "METAR LIMF 090820Z VRB02KT 9999 SCT030 BKN050 07/05 Q1007",
      "taf": "TAF LIMF 090500Z 0906/1006 VRB04KT 7000 BKN030"
    },
    {
      "icao": "LIMJ",
      "alert": "OK",
      "vis_m": 9999,
      "fzfg": false,
      "metar_trigger": false,
      "taf_trigger": false,
      "metar": "METAR LIMJ 090820Z 03014KT CAVOK 10/07 Q1006",
      "taf": "TAF LIMJ 090500Z 0906/1006 02012KT 9999 BKN040"
    },
    {
      "icao": "LIPE",
      "alert": "OK",
      "vis_m": 900,
      "fzfg": false,
      "metar_trigger": false,
      "taf_trigger": false,
      "metar": "METAR LIPE 090820Z 29003KT 0900 R12/1800U R30/1500U FG VV002 08/08 Q1007",
      "taf": "TAF LIPE 090500Z 0906/1006 VRB05KT 0300 FG SCT010"
    },
    {
      "icao": "LIPH",
      "alert": "OK",
      "vis_m": 9999,
      "fzfg": false,
      "metar_trigger": false,
      "taf_trigger": false,
      "metar": "METAR LIPH 090820Z 03004KT 9999 SCT050 SCT070 09/06 Q1007",
      "taf": "TAF LIPH 090500Z 0906/1006 VRB05KT 7000 SCT060"
    },
    {
      "icao": "LIPQ",
      "alert": "OK",
      "vis_m": 9999,
      "fzfg": false,
      "metar_trigger": false,
      "taf_trigger": false,
      "metar": "METAR LIPQ 090820Z AUTO 35002KT 9999 BKN073/// BKN110/// 09/07 Q1007",
      "taf": "TAF LIPQ 090500Z 0906/1006 03006KT 9999 BKN050"
    },
    {
      "icao": "LIPR",
      "alert": "OK",
      "vis_m": 9999,
      "fzfg": false,
      "metar_trigger": false,
      "taf_trigger": false,
      "metar": "METAR LIPR 090820Z 30004KT 9999 -DZ BKN060 09/09 Q1006",
      "taf": "TAF LIPR 090500Z 0906/1006 30006KT 6000 SCT010 SCT040"
    },
    {
      "icao": "LIPX",
      "alert": "OK",
      "vis_m": 9999,
      "fzfg": false,
      "metar_trigger": false,
      "taf_trigger": false,
      "metar": "METAR LIPX 090820Z VRB02KT 9999 FEW045 BKN090 08/06 Q1007",
      "taf": "TAF LIPX 090500Z 0906/1006 VRB04KT 8000 BKN040"
    },
    {
      "icao": "LIPY",
      "alert": "OK",
      "vis_m": 9999,
      "fzfg": false,
      "metar_trigger": false,
      "taf_trigger": false,
      "metar": "METAR LIPY 090820Z AUTO VRB01KT 9999 -RA BKN020/// 09/09 Q1006",
      "taf": "TAF LIPY 090500Z 0906/1006 30006KT 7000 SCT060"
    },
    {
      "icao": "LIPZ",
      "alert": "OK",
      "vis_m": 9999,
      "fzfg": false,
      "metar_trigger": false,
      "taf_trigger": false,
      "metar": "METAR LIPZ 090820Z 03005KT 9999 SCT070 08/06 Q1007 NOSIG",
      "taf": "TAF LIPZ 090500Z 0906/1012 05006KT 9999 SCT060"
    },
    {
      "icao": "LIRF",
      "alert": "OK",
      "vis_m": 9999,
      "fzfg": false,
      "metar_trigger": false,
      "taf_trigger": false,
      "metar": "METAR LIRF 090820Z 06006KT CAVOK 10/08 Q1004 NOSIG",
      "taf": "TAF LIRF 090500Z 0906/1012 08010KT 9999 SCT020 BKN040"
    },
    {
      "icao": "LIRN",
      "alert": "OK",
      "vis_m": 9999,
      "fzfg": false,
      "metar_trigger": false,
      "taf_trigger": false,
      "metar": "METAR LIRN 090820Z 02005KT 9999 -DZ SCT050 10/08 Q1004 NOSIG",
      "taf": "TAF LIRN 090500Z 0906/1006 VRB05KT 9999 BKN040"
    },
    {
      "icao": "LIRP",
      "alert": "OK",
      "vis_m": 9999,
      "fzfg": false,
      "metar_trigger": false,
      "taf_trigger": false,
      "metar": "METAR LIRP 090815Z 15001KT 9999 FEW040 SCT080 10/09 Q1006 NOSIG",
      "taf": "TAF LIRP 082300Z 0900/0924 06005KT 9999 SCT020 SCT050"
    },
    {
      "icao": "LIRZ",
      "alert": "OK",
      "vis_m": 9999,
      "fzfg": false,
      "metar_trigger": false,
      "taf_trigger": false,
      "metar": "METAR LIRZ 090820Z AUTO 35004KT 9999 OVC047/// 08/06 Q1005",
      "taf": "TAF LIRZ 090500Z 0906/1006 VRB05KT 9999 BKN045"
    },
    {
      "icao": "LJLJ",
      "alert": "OK",
      "vis_m": 9000,
      "fzfg": false,
      "metar_trigger": false,
      "taf_trigger": false,
      "metar": "METAR LJLJ 090800Z 29003KT 9000 FEW005 SCT013 OVC040 05/05 Q1008 NOSIG",
      "taf": "TAF LJLJ 090500Z 0906/1006 VRB02KT 8000 SCT020 BKN040"
    },
    {
      "icao": "LKMT",
      "alert": "OK",
      "vis_m": 2000,
      "fzfg": false,
      "metar_trigger": false,
      "taf_trigger": false,
      "metar": "METAR LKMT 090800Z 03007KT 2000 -SN BR OVC006 M02/M02 Q1012 NOSIG",
      "taf": "TAF LKMT 090500Z 0906/1006 02008KT 3000 -SN BR OVC006"
    },
    {
      "icao": "LKPR",
      "alert": "OK",
      "vis_m": 2800,
      "fzfg": false,
      "metar_trigger": false,
      "taf_trigger": false,
      "metar": "METAR LKPR 090800Z 05006KT 2800 BR OVC002 M00/M00 Q1010 BECMG 3500 BR",
      "taf": "TAF LKPR 090800Z 0909/1015 07004KT 2500 BR OVC002"
    },
    {
      "icao": "LLBG",
      "alert": "OK",
      "vis_m": 9000,
      "fzfg": false,
      "metar_trigger": false,
      "taf_trigger": false,
      "metar": "METAR LLBG 090820Z 18007KT 9000 NSC 21/09 Q1012 NOSIG",
      "taf": "TAF LLBG 090500Z 0906/1006 16005KT CAVOK"
    },
    {
      "icao": "LMML",
      "alert": "OK",
      "vis_m": 9999,
      "fzfg": false,
      "metar_trigger": false,
      "taf_trigger": false,
      "metar": "METAR LMML 090815Z 25008KT 9999 FEW020 15/09 Q1008 NOSIG",
      "taf": "TAF LMML 090500Z 0906/1006 29010KT 9999 FEW020"
    },
    {
      "icao": "LOWW",
      "alert": "OK",
      "vis_m": 9999,
      "fzfg": false,
      "metar_trigger": false,
      "taf_trigger": false,
      "metar": "METAR LOWW 090820Z VRB02KT 9999 FEW020 BKN024 02/00 Q1011 NOSIG",
      "taf": "TAF LOWW 090815Z 0909/1015 03005KT 9999 FEW013 BKN020 TX05/1013Z TN02/1006Z"
    },
    {
      "icao": "LPFR",
      "alert": "OK",
      "vis_m": 4000,
      "fzfg": false,
      "metar_trigger": false,
      "taf_trigger": false,
      "metar": "METAR LPFR 090800Z 24012KT 4000 BR FEW001 SCT015 15/15 Q1014",
      "taf": ""
    },
    {
      "icao": "LPMA",
      "alert": "OK",
      "vis_m": 9999,
      "fzfg": false,
      "metar_trigger": false,
      "taf_trigger": false,
      "metar": "METAR LPMA 090800Z 03003KT 360V060 9999 FEW015 16/12 Q1022",
      "taf": "TAF LPMA 090500Z 0906/1006 VRB05KT 9999 SCT015"
    },
    {
      "icao": "LPPR",
      "alert": "OK",
      "vis_m": 8000,
      "fzfg": false,
      "metar_trigger": false,
      "taf_trigger": false,
      "metar": "METAR LPPR 090800Z 20011KT 8000 -DZRA BKN003 BKN014 14/13 Q1009",
      "taf": "TAF LPPR 090500Z 0906/1006 23010KT 8000 -RA SCT004 SCT008"
    },
    {
      "icao": "LPPS",
      "alert": "OK",
      "vis_m": 9000,
      "fzfg": false,
      "metar_trigger": false,
      "taf_trigger": false,
      "metar": "METAR LPPS 090800Z 29014KT 9000 SCT010 BKN030 17/16 Q1022",
      "taf": "TAF LPPS 090500Z 0906/1012 27010KT 9999 SCT012"
    },
    {
      "icao": "LPPT",
      "alert": "OK",
      "vis_m": 9999,
      "fzfg": false,
      "metar_trigger": false,
      "taf_trigger": false,
      "metar": "METAR LPPT 090800Z 22008KT 9999 SCT005 SCT008 14/14 Q1012",
      "taf": "TAF LPPT 090500Z 0906/1012 26008KT 8000 -RA SCT005 SCT010"
    },
    {
      "icao": "LQBK",
      "alert": "OK",
      "vis_m": 5000,
      "fzfg": false,
      "metar_trigger": false,
      "taf_trigger": false,
      "metar": "METAR LQBK 090800Z 03004KT 5000 BR BKN005 OVC025 07/06 Q1009 TEMPO 3000",
      "taf": ""
    },
    {
      "icao": "LQSA",
      "alert": "OK",
      "vis_m": 7000,
      "fzfg": false,
      "metar_trigger": false,
      "taf_trigger": false,
      "metar": "METAR LQSA 090800Z 16002KT 7000 BKN007 06/06 Q1007 NOSIG",
      "taf": "TAF LQSA 090500Z 0906/1006 VRB02KT 8000 BKN005 TX09/0913Z TN03/1005Z"
    },
    {
      "icao": "LQTZ",
      "alert": "OK",
      "vis_m": 6000,
      "fzfg": false,
      "metar_trigger": false,
      "taf_trigger": false,
      "metar": "METAR LQTZ 090800Z 10005KT 6000 SCT020 OVC040 08/08 Q1008",
      "taf": "TAF LQTZ 090500Z 0906/1006 04005KT 9999 BKN020 TX10/0913Z TN03/1005Z"
    },
    {
      "icao": "LRBC",
      "alert": "OK",
      "vis_m": 3000,
      "fzfg": false,
      "metar_trigger": false,
      "taf_trigger": false,
      "metar": "METAR LRBC 090800Z 34004KT 3000 -SN BR OVC014 M04/M06 Q1019 RESN",
      "taf": ""
    },
    {
      "icao": "LRBS",
      "alert": "OK",
      "vis_m": 5000,
      "fzfg": false,
      "metar_trigger": false,
      "taf_trigger": false,
      "metar": "METAR LRBS 090800Z 07018KT 5000 -SHGS BR BKN012 BKN035 FEW040CB M01/M04 Q1017 TEMPO 5000 SN",
      "taf": ""
    },
    {
      "icao": "LRBV",
      "alert": "OK",
      "vis_m": 9999,
      "fzfg": false,
      "metar_trigger": false,
      "taf_trigger": false,
      "metar": "METAR LRBV 090800Z 10011KT 070V130 9999 OVC020 M02/M05 Q1012",
      "taf": ""
    },
    {
      "icao": "LRCL",
      "alert": "OK",
      "vis_m": 7000,
      "fzfg": false,
      "metar_trigger": false,
      "taf_trigger": false,
      "metar": "METAR LRCL 090800Z 05007KT 7000 -RA OVC007 03/02 Q1011",
      "taf": "TAF LRCL 090500Z 0906/0915 VRB04KT 5000 -RA BR OVC010"
    },
    {
      "icao": "LRCV",
      "alert": "OK",
      "vis_m": 9999,
      "fzfg": false,
      "metar_trigger": false,
      "taf_trigger": false,
      "metar": "METAR LRCV 090800Z 10017KT 9999 BKN012 OVC018 01/M01 Q1014",
      "taf": "TAF LRCV 090500Z 0906/0915 10014KT 5000 BR OVC010"
    },
    {
      "icao": "LRIA",
      "alert": "OK",
      "vis_m": 9999,
      "fzfg": false,
      "metar_trigger": false,
      "taf_trigger": false,
      "metar": "METAR LRIA 090800Z 36007KT 9999 OVC017 M05/M09 Q1020",
      "taf": "TAF LRIA 090500Z 0906/0915 01009KT 9999 BKN010 OVC015"
    },
    {
      "icao": "LROP",
      "alert": "OK",
      "vis_m": 9999,
      "fzfg": false,
      "metar_trigger": false,
      "taf_trigger": false,
      "metar": "METAR LROP 090800Z 08019KT 9999 -SN BKN013 OVC038 M01/M04 Q1017 TEMPO 5000 SN",
      "taf": "TAF LROP 090500Z 0906/1006 08016KT 9999 BKN010 BKN025"
    },
    {
      "icao": "LRSB",
      "alert": "OK",
      "vis_m": 9999,
      "fzfg": false,
      "metar_trigger": false,
      "taf_trigger": false,
      "metar": "METAR LRSB 090800Z VRB02KT 9999 -RA FEW030 SCT045 BKN050 05/03 Q1010",
      "taf": "TAF LRSB 090500Z 0906/1006 VRB04KT 9999 BKN050"
    },
    {
      "icao": "LRSM",
      "alert": "OK",
      "vis_m": 7000,
      "fzfg": false,
      "metar_trigger": false,
      "taf_trigger": false,
      "metar": "METAR LRSM 090800Z 09004KT 7000 FEW005 BKN017 05/05 Q1011",
      "taf": "TAF LRSM 090500Z 0906/0915 VRB04KT 1500 BR BKN002"
    },
    {
      "icao": "LRSV",
      "alert": "OK",
      "vis_m": 4000,
      "fzfg": false,
      "metar_trigger": false,
      "taf_trigger": false,
      "metar": "METAR LRSV 090800Z 06005KT 4000 -SN BKN007 BKN025 M06/M07 Q1018",
      "taf": ""
    },
    {
      "icao": "LRTM",
      "alert": "OK",
      "vis_m": 7000,
      "fzfg": false,
      "metar_trigger": false,
      "taf_trigger": false,
      "metar": "METAR LRTM 090800Z 05007KT 7000 -RA FEW002 SCT004 BKN010 04/03 Q1011",
      "taf": "TAF LRTM 090500Z 0906/0915 VRB04KT 5000 BR OVC010"
    },
    {
      "icao": "LRTR",
      "alert": "OK",
      "vis_m": 4000,
      "fzfg": false,
      "metar_trigger": false,
      "taf_trigger": false,
      "metar": "METAR LRTR 090800Z 10003KT 4000 BR BKN046 05/05 Q1010",
      "taf": "TAF LRTR 090500Z 0906/1006 10005KT 1500 BR SCT035"
    },
    {
      "icao": "LTAC",
      "alert": "OK",
      "vis_m": 9999,
      "fzfg": false,
      "metar_trigger": false,
      "taf_trigger": false,
      "metar": "METAR LTAC 090820Z VRB02KT 9999 FEW015 SCT031 BKN100 07/02 Q1010 NOSIG",
      "taf": "TAF LTAC 090440Z 0906/1006 VRB02KT 9999 SCT035 BKN090"
    },
    {
      "icao": "LTFM",
      "alert": "OK",
      "vis_m": 7000,
      "fzfg": false,
      "metar_trigger": false,
      "taf_trigger": false,
      "metar": "METAR LTFM 090820Z 08013KT 7000 BKN004 BKN020 07/06 Q1012 NOSIG",
      "taf": ""
    },
    {
      "icao": "LUKK",
      "alert": "OK",
      "vis_m": 9999,
      "fzfg": false,
      "metar_trigger": false,
      "taf_trigger": false,
      "metar": "METAR LUKK 090800Z 02009KT 9999 OVC018 M08/M11 Q1020 NOSIG",
      "taf": "TAF LUKK 090513Z 0906/1006 04010KT 9999 BKN012"
    },
    {
      "icao": "LWOH",
      "alert": "OK",
      "vis_m": 9999,
      "fzfg": false,
      "metar_trigger": false,
      "taf_trigger": false,
      "metar": "METAR LWOH 090820Z VRB02KT 9999 SCT035 OVC090 07/06 Q1007",
      "taf": "TAF LWOH 090820Z 0909/1009 VRB02KT 9999 SCT035 BKN090"
    },
    {
      "icao": "LWSK",
      "alert": "OK",
      "vis_m": 8000,
      "fzfg": false,
      "metar_trigger": false,
      "taf_trigger": false,
      "metar": "METAR LWSK 090820Z VRB01KT 8000 FEW050 SCT090 05/04 Q1009 NOSIG",
      "taf": "TAF LWSK 090820Z 0909/1009 VRB02KT 9999 FEW050 SCT090"
    },
    {
      "icao": "LYBE",
      "alert": "OK",
      "vis_m": 9999,
      "fzfg": false,
      "metar_trigger": false,
      "taf_trigger": false,
      "metar": "METAR LYBE 090800Z 10012KT CAVOK 06/03 Q1009 NOSIG",
      "taf": "TAF LYBE 090500Z 0906/1006 05004KT 4000 BR NSC TX10/0913Z TNM01/1006Z"
    },
    {
      "icao": "LYNI",
      "alert": "OK",
      "vis_m": 9999,
      "fzfg": false,
      "metar_trigger": false,
      "taf_trigger": false,
      "metar": "METAR LYNI 090800Z VRB01KT 9999 -RA FEW020 SCT040 BKN060 07/06 Q1009 NOSIG",
      "taf": "TAF LYNI 090500Z 0906/1006 32004KT 9999 SCT040 TX08/0912Z TNM01/1005Z"
    },
    {
      "icao": "LYPG",
      "alert": "OK",
      "vis_m": 6000,
      "fzfg": false,
      "metar_trigger": false,
      "taf_trigger": false,
      "metar": "METAR LYPG 090800Z 34003KT 300V010 6000 -RA FEW006 SCT033 OVC080 09/09 Q1008 TEMPO 4000 BR",
      "taf": "TAF LYPG 090500Z 0906/1006 16005KT 9999 FEW023 SCT033 BKN070 TX11/0912Z TN07/1005Z"
    },
    {
      "icao": "LZIB",
      "alert": "OK",
      "vis_m": 9999,
      "fzfg": false,
      "metar_trigger": false,
      "taf_trigger": false,
      "metar": "METAR LZIB 090800Z 08002KT 9999 SCT007 BKN008 04/03 Q1010 NOSIG",
      "taf": "TAF LZIB 090515Z 0906/1006 VRB02KT 9999 FEW020 BKN035"
    },
    {
      "icao": "LZKZ",
      "alert": "OK",
      "vis_m": 9999,
      "fzfg": false,
      "metar_trigger": false,
      "taf_trigger": false,
      "metar": "METAR LZKZ 090800Z 01014KT CAVOK 01/M04 Q1012 NOSIG",
      "taf": "TAF LZKZ 090515Z 0906/1006 01012KT 9999 BKN035"
    },
    {
      "icao": "LZTT",
      "alert": "OK",
      "vis_m": 8000,
      "fzfg": false,
      "metar_trigger": false,
      "taf_trigger": false,
      "metar": "METAR LZTT 090800Z 07006KT 8000 BKN005 M03/M04 Q1010 NOSIG",
      "taf": "TAF LZTT 090515Z 0906/1006 08005KT 9999 FEW006 OVC016"
    },
    {
      "icao": "OEJN",
      "alert": "OK",
      "vis_m": 9999,
      "fzfg": false,
      "metar_trigger": false,
      "taf_trigger": false,
      "metar": "METAR OEJN 090800Z 30006KT CAVOK 30/04 Q1014 NOSIG",
      "taf": "TAF OEJN 090500Z 0906/1012 30010KT CAVOK"
    },
    {
      "icao": "OEMA",
      "alert": "OK",
      "vis_m": 9999,
      "fzfg": false,
      "metar_trigger": false,
      "taf_trigger": false,
      "metar": "METAR OEMA 090800Z VRB02KT CAVOK 24/03 Q1020 NOSIG",
      "taf": "TAF OEMA 090500Z 0906/1012 25007KT CAVOK"
    },
    {
      "icao": "OJAI",
      "alert": "OK",
      "vis_m": 4000,
      "fzfg": false,
      "metar_trigger": false,
      "taf_trigger": false,
      "metar": "METAR OJAI 090800Z 24018KT 4000 BLDU FEW030 SCT080 20/04 Q1014 NOSIG",
      "taf": "TAF OJAI 090500Z 0906/1012 22012KT 4000 DU NSC"
    },
    {
      "icao": "OMAA",
      "alert": "OK",
      "vis_m": 9999,
      "fzfg": false,
      "metar_trigger": false,
      "taf_trigger": false,
      "metar": "METAR OMAA 090800Z VRB03KT CAVOK 28/09 Q1016 BECMG 33012KT",
      "taf": "TAF OMAA 090500Z 0906/1012 VRB02KT 8000 NSC"
    },
    {
      "icao": "OMDB",
      "alert": "OK",
      "vis_m": 9999,
      "fzfg": false,
      "metar_trigger": false,
      "taf_trigger": false,
      "metar": "METAR OMDB 090800Z 28007KT 250V310 CAVOK 28/09 Q1015 NOSIG",
      "taf": "TAF OMDB 090500Z 0906/1012 17005KT CAVOK"
    },
    {
      "icao": "UAAA",
      "alert": "OK",
      "vis_m": 5000,
      "fzfg": false,
      "metar_trigger": false,
      "taf_trigger": false,
      "metar": "METAR UAAA 090800Z 26003MPS 220V290 5000 FU SCT100 BKN200 04/M03 Q1004 NOSIG",
      "taf": "TAF UAAA 090502Z 0906/1006 02003G08MPS 6000 SCT050 BKN100 TX04/0909Z TNM05/1002Z"
    },
    {
      "icao": "UBBB",
      "alert": "OK",
      "vis_m": 9999,
      "fzfg": false,
      "metar_trigger": false,
      "taf_trigger": false,
      "metar": "METAR UBBB 090800Z 06006KT 9999 SCT016 08/05 Q1006 NOSIG",
      "taf": "TAF UBBB 090524Z 0906/1006 34008KT 9999 BKN012 BKN025 TX07/0910Z TN02/1002Z"
    },
    {
      "icao": "UDSG",
      "alert": "OK",
      "vis_m": 7000,
      "fzfg": false,
      "metar_trigger": false,
      "taf_trigger": false,
      "metar": "METAR UDSG 090800Z 24006KT 7000 SCT016 OVC033 01/01 Q1007 NOSIG",
      "taf": "TAF UDSG 090500Z 0906/1006 VRB06KT 2000 BR OVC020"
    },
    {
      "icao": "UDYZ",
      "alert": "OK",
      "vis_m": 9000,
      "fzfg": false,
      "metar_trigger": false,
      "taf_trigger": false,
      "metar": "METAR UDYZ 090800Z VRB01KT 9000 -RA SCT007 OVC018 05/04 Q1007 NOSIG",
      "taf": "TAF UDYZ 090500Z 0906/1006 VRB04KT 3500 BR BKN020"
    },
    {
      "icao": "UGKO",
      "alert": "OK",
      "vis_m": 7000,
      "fzfg": false,
      "metar_trigger": false,
      "taf_trigger": false,
      "metar": "METAR UGKO 090800Z 26008KT 7000 -SHRA SCT014CB OVC027 07/06 Q1009 NOSIG",
      "taf": ""
    }
  ]
}