{
  "ts_utc": "2025-12-27T23:27:48Z",
  "threshold_m": 150,
  "source": "stations_override.txt (ICAO list) + aviationweather.gov (METAR/TAF raw)",
  "station_count": 159,
  "stations": [
    {
      "icao": "BIKF",
      "alert": "OK",
      "vis_m": 9000,
      "fzfg": false,
      "metar_trigger": false,
      "taf_trigger": false,
      "metar": "METAR BIKF 272300Z 22012KT 9000 -DZ BR FEW005 BKN010 OVC038 07/07 Q1038",
      "taf": "TAF BIKF 272243Z 2800/2900 23015KT 9999 SCT010 BKN020 TX07/2724Z TN03/2821Z"
    },
    {
      "icao": "BKPR",
      "alert": "OK",
      "vis_m": null,
      "fzfg": false,
      "metar_trigger": false,
      "taf_trigger": false,
      "metar": "",
      "taf": ""
    },
    {
      "icao": "EBCI",
      "alert": "OK",
      "vis_m": 800,
      "fzfg": false,
      "metar_trigger": false,
      "taf_trigger": false,
      "metar": "METAR EBCI 272320Z 05006KT 0800 R24/P2000N FG SCT001 OVC002 01/01 Q1031 NOSIG",
      "taf": "TAF EBCI 272301Z 2800/2906 02003KT 2500 BR BKN003"
    },
    {
      "icao": "EDDB",
      "alert": "OK",
      "vis_m": 9999,
      "fzfg": false,
      "metar_trigger": false,
      "taf_trigger": false,
      "metar": "METAR EDDB 272320Z AUTO 29008KT CAVOK 00/M01 Q1027 NOSIG",
      "taf": "TAF EDDB 272300Z 2800/2824 32008KT CAVOK"
    },
    {
      "icao": "EDDH",
      "alert": "OK",
      "vis_m": 550,
      "fzfg": true,
      "metar_trigger": false,
      "taf_trigger": false,
      "metar": "METAR EDDH 272320Z AUTO 31002KT 0550 R05/0900D R33/0900N FZFG FEW009 M04/M04 Q1031 TEMPO 0700 OVC001",
      "taf": "TAF EDDH 272300Z 2800/2906 VRB03KT CAVOK"
    },
    {
      "icao": "EDDK",
      "alert": "OK",
      "vis_m": 9999,
      "fzfg": false,
      "metar_trigger": false,
      "taf_trigger": false,
      "metar": "METAR EDDK 272320Z AUTO 18001KT 9999 OVC003 00/M01 Q1031 TEMPO 2000 BR",
      "taf": "TAF EDDK 271700Z 2718/2824 VRB03KT CAVOK"
    },
    {
      "icao": "EDDN",
      "alert": "OK",
      "vis_m": 9999,
      "fzfg": false,
      "metar_trigger": false,
      "taf_trigger": false,
      "metar": "METAR EDDN 272320Z AUTO 36002KT CAVOK M05/M07 Q1028",
      "taf": "TAF EDDN 272300Z 2800/2824 02003KT CAVOK"
    },
    {
      "icao": "EDDS",
      "alert": "OK",
      "vis_m": 7000,
      "fzfg": false,
      "metar_trigger": false,
      "taf_trigger": false,
      "metar": "METAR EDDS 272320Z AUTO 03003KT 7000 NCD M04/M05 Q1027",
      "taf": "TAF EDDS 272300Z 2800/2824 VRB03KT 7000 NSC"
    },
    {
      "icao": "EDFH",
      "alert": "OK",
      "vis_m": 6000,
      "fzfg": false,
      "metar_trigger": false,
      "taf_trigger": false,
      "metar": "METAR EDFH 272320Z 02007KT 320V050 6000 BKN003 M02/M03 Q1028",
      "taf": "TAF EDFH 272300Z 2800/2824 03007KT CAVOK"
    },
    {
      "icao": "EDJA",
      "alert": "OK",
      "vis_m": 650,
      "fzfg": true,
      "metar_trigger": false,
      "taf_trigger": false,
      "metar": "METAR EDJA 272320Z AUTO 20005KT 0650 0500 R24/0700N // VV/// M04/M05 Q1027",
      "taf": "TAF EDJA 271700Z 2718/2803 VRB02KT 0700 FZFG OVC002"
    },
    {
      "icao": "EDLW",
      "alert": "OK",
      "vis_m": 4300,
      "fzfg": false,
      "metar_trigger": false,
      "taf_trigger": false,
      "metar": "METAR EDLW 272320Z AUTO 18002KT 4300 // FEW002/// BKN021/// 01/01 Q1031",
      "taf": "TAF EDLW 271700Z 2718/2818 VRB03KT 4000 -DZ BR OVC005"
    },
    {
      "icao": "EDNY",
      "alert": "OK",
      "vis_m": 6000,
      "fzfg": false,
      "metar_trigger": false,
      "taf_trigger": false,
      "metar": "METAR EDNY 272320Z AUTO 11003KT 060V150 6000 // OVC004/// M02/M03 Q1028",
      "taf": "TAF EDNY 271700Z 2718/2803 05004KT 9999 OVC010"
    },
    {
      "icao": "EDSB",
      "alert": "OK",
      "vis_m": 2500,
      "fzfg": false,
      "metar_trigger": false,
      "taf_trigger": false,
      "metar": "METAR EDSB 272320Z AUTO 01003KT 2500 1000 R21/P2000N // NCD M03/M04 Q1029",
      "taf": "TAF EDSB 272300Z 2800/2824 VRB02KT CAVOK"
    },
    {
      "icao": "EETN",
      "alert": "OK",
      "vis_m": 9999,
      "fzfg": false,
      "metar_trigger": false,
      "taf_trigger": false,
      "metar": "METAR EETN 272320Z 35022G39KT 320V020 9999 BKN032 OVC039 03/M03 Q1000",
      "taf": "TAF EETN 271730Z 2718/2818 31020G32KT 9999 BKN020"
    },
    {
      "icao": "EFTU",
      "alert": "OK",
      "vis_m": 9999,
      "fzfg": false,
      "metar_trigger": false,
      "taf_trigger": false,
      "metar": "METAR EFTU 272320Z AUTO 35015G29KT 300V040 9999 SCT046 01/M08 Q1008",
      "taf": ""
    },
    {
      "icao": "EGBB",
      "alert": "OK",
      "vis_m": 9999,
      "fzfg": false,
      "metar_trigger": false,
      "taf_trigger": false,
      "metar": "METAR EGBB 272320Z 06009KT 9999 BKN008 06/05 Q1036",
      "taf": "TAF EGBB 272254Z 2800/2824 05008KT 9999 BKN025"
    },
    {
      "icao": "EGGP",
      "alert": "OK",
      "vis_m": 9999,
      "fzfg": false,
      "metar_trigger": false,
      "taf_trigger": false,
      "metar": "METAR EGGP 272320Z 09012KT 060V120 9999 BKN025 BKN029 07/02 Q1038",
      "taf": "TAF EGGP 272253Z 2800/2824 09008KT 9999 BKN024"
    },
    {
      "icao": "EGGW",
      "alert": "OK",
      "vis_m": 9999,
      "fzfg": false,
      "metar_trigger": false,
      "taf_trigger": false,
      "metar": "METAR EGGW 272320Z AUTO 05010KT 9999 BKN012 OVC017 05/04 Q1035",
      "taf": "TAF EGGW 272254Z 2800/2824 04012KT 9999 SCT020"
    },
    {
      "icao": "EGKK",
      "alert": "OK",
      "vis_m": 9999,
      "fzfg": false,
      "metar_trigger": false,
      "taf_trigger": false,
      "metar": "METAR EGKK 272320Z 05010KT 9999 BKN009 07/06 Q1033",
      "taf": "TAF EGKK 272255Z 2800/2906 04010KT 9999 BKN012"
    },
    {
      "icao": "EGNM",
      "alert": "OK",
      "vis_m": 9999,
      "fzfg": false,
      "metar_trigger": false,
      "taf_trigger": false,
      "metar": "METAR EGNM 272220Z 06007KT 020V090 9999 BKN021 05/03 Q1038",
      "taf": ""
    },
    {
      "icao": "EGPD",
      "alert": "OK",
      "vis_m": 9999,
      "fzfg": false,
      "metar_trigger": false,
      "taf_trigger": false,
      "metar": "METAR EGPD 272320Z COR AUTO 33004KT 9999 OVC026 04/01 Q1041 NOSIG",
      "taf": "TAF EGPD 272257Z 2800/2824 30004KT 9999 BKN030"
    },
    {
      "icao": "EGPF",
      "alert": "OK",
      "vis_m": 9999,
      "fzfg": false,
      "metar_trigger": false,
      "taf_trigger": false,
      "metar": "METAR EGPF 272320Z AUTO 07008KT 9999 OVC029 06/02 Q1041",
      "taf": "TAF EGPF 272253Z 2800/2824 05006KT 9999 BKN030"
    },
    {
      "icao": "EHBK",
      "alert": "OK",
      "vis_m": 400,
      "fzfg": false,
      "metar_trigger": false,
      "taf_trigger": false,
      "metar": "METAR EHBK 272255Z AUTO 04001KT 0400 R03/0400N FG VV000 02/02 Q1031",
      "taf": "TAF EHBK 272315Z 2800/2906 05005KT 0500 FG OVC000"
    },
    {
      "icao": "EHEH",
      "alert": "OK",
      "vis_m": 2800,
      "fzfg": false,
      "metar_trigger": false,
      "taf_trigger": false,
      "metar": "METAR EHEH 272255Z AUTO VRB01KT 2800 BR OVC016 04/03 Q1032 YLO",
      "taf": ""
    },
    {
      "icao": "EKBI",
      "alert": "OK",
      "vis_m": 9999,
      "fzfg": false,
      "metar_trigger": false,
      "taf_trigger": false,
      "metar": "METAR EKBI 272320Z AUTO 30002KT 9999 NCD M03/M03 Q1032",
      "taf": ""
    },
    {
      "icao": "EKCH",
      "alert": "OK",
      "vis_m": 9999,
      "fzfg": false,
      "metar_trigger": false,
      "taf_trigger": false,
      "metar": "METAR EKCH 272320Z AUTO 35024G35KT 9999 NCD 05/M05 Q1028 NOSIG",
      "taf": "TAF EKCH 272027Z 2721/2821 34015KT CAVOK"
    },
    {
      "icao": "ENAL",
      "alert": "OK",
      "vis_m": 9999,
      "fzfg": false,
      "metar_trigger": false,
      "taf_trigger": false,
      "metar": "METAR ENAL 272320Z AUTO 25006KT 9999 BKN039/// 03/M03 Q1036",
      "taf": ""
    },
    {
      "icao": "ENBR",
      "alert": "OK",
      "vis_m": 9999,
      "fzfg": false,
      "metar_trigger": false,
      "taf_trigger": false,
      "metar": "METAR ENBR 272320Z VRB02KT CAVOK 01/M02 Q1037 RMK WIND 1200FT 34015KT",
      "taf": "TAF ENBR 271700Z 2718/2818 34008KT 9999 FEW035 SCT050"
    },
    {
      "icao": "ENGM",
      "alert": "OK",
      "vis_m": 9999,
      "fzfg": false,
      "metar_trigger": false,
      "taf_trigger": false,
      "metar": "METAR ENGM 272320Z VRB02KT CAVOK 00/M09 Q1030",
      "taf": "TAF ENGM 271700Z 2718/2818 32005KT CAVOK"
    },
    {
      "icao": "ENHD",
      "alert": "OK",
      "vis_m": 9999,
      "fzfg": false,
      "metar_trigger": false,
      "taf_trigger": false,
      "metar": "METAR ENHD 272320Z AUTO 01015KT 9999 NCD 04/M01 Q1036",
      "taf": "TAF ENHD 271400Z 2715/2723 01028G38KT 9999 SCT035"
    },
    {
      "icao": "ENTC",
      "alert": "OK",
      "vis_m": 9999,
      "fzfg": false,
      "metar_trigger": false,
      "taf_trigger": false,
      "metar": "METAR ENTC 272320Z 17012KT 150V230 9999 4000NE -SHSN BKN030 M03/M04 Q1011 RMK WIND 2600FT 25015KT",
      "taf": "TAF ENTC 271700Z 2718/2818 32018KT 9999 SCT018CB BKN025"
    },
    {
      "icao": "ENTO",
      "alert": "OK",
      "vis_m": 9999,
      "fzfg": false,
      "metar_trigger": false,
      "taf_trigger": false,
      "metar": "METAR ENTO 272320Z AUTO 33010KT 9999 NCD 02/M08 Q1031",
      "taf": "TAF ENTO 271700Z 2718/2818 31008KT CAVOK"
    },
    {
      "icao": "ENVA",
      "alert": "OK",
      "vis_m": 9999,
      "fzfg": false,
      "metar_trigger": false,
      "taf_trigger": false,
      "metar": "METAR ENVA 272320Z 29022KT 9999 FEW033 BKN045 03/M01 Q1030 RMK WIND 670FT 31036KT",
      "taf": "TAF ENVA 271700Z 2718/2818 29018KT 9999 -SHRASN FEW015TCU SCT030"
    },
    {
      "icao": "ENZV",
      "alert": "OK",
      "vis_m": 9999,
      "fzfg": false,
      "metar_trigger": false,
      "taf_trigger": false,
      "metar": "METAR ENZV 272320Z 03009KT CAVOK 03/M02 Q1036",
      "taf": ""
    },
    {
      "icao": "EPGD",
      "alert": "OK",
      "vis_m": 9999,
      "fzfg": false,
      "metar_trigger": false,
      "taf_trigger": false,
      "metar": "METAR EPGD 272300Z 34020G34KT 9999 SCT040 03/M05 Q1017",
      "taf": "TAF EPGD 271730Z 2718/2818 33018G28KT 9999 SCT045"
    },
    {
      "icao": "EPKK",
      "alert": "OK",
      "vis_m": 6000,
      "fzfg": false,
      "metar_trigger": false,
      "taf_trigger": false,
      "metar": "METAR EPKK 272300Z 25010KT 6000 -SN BKN008 M01/M02 Q1019",
      "taf": "TAF EPKK 272030Z 2721/2821 24010KT 5000 -SN BR FEW007 BKN010"
    },
    {
      "icao": "EPKT",
      "alert": "OK",
      "vis_m": 6000,
      "fzfg": false,
      "metar_trigger": false,
      "taf_trigger": false,
      "metar": "METAR EPKT 272300Z 29009KT 6000 -SG OVC003 M01/M01 Q1019",
      "taf": ""
    },
    {
      "icao": "EPLB",
      "alert": "OK",
      "vis_m": 9999,
      "fzfg": false,
      "metar_trigger": false,
      "taf_trigger": false,
      "metar": "METAR EPLB 272300Z 31011KT 9999 -SN SCT010 BKN013 BKN024 01/M00 Q1011",
      "taf": "TAF EPLB 271730Z 2718/2818 28015KT 7000 BKN005"
    },
    {
      "icao": "EPMO",
      "alert": "OK",
      "vis_m": 9999,
      "fzfg": false,
      "metar_trigger": false,
      "taf_trigger": false,
      "metar": "METAR EPMO 272300Z 27015KT 9999 FEW042 02/M01 Q1014",
      "taf": "TAF EPMO 271730Z 2718/2818 27015KT 8000 BKN005"
    },
    {
      "icao": "EPPO",
      "alert": "OK",
      "vis_m": 9999,
      "fzfg": false,
      "metar_trigger": false,
      "taf_trigger": false,
      "metar": "METAR EPPO 272300Z 30006KT 280V340 CAVOK 01/M01 Q1022",
      "taf": "TAF EPPO 271730Z 2718/2818 29014KT 6000 OVC003"
    },
    {
      "icao": "EPRA",
      "alert": "OK",
      "vis_m": 9999,
      "fzfg": false,
      "metar_trigger": false,
      "taf_trigger": false,
      "metar": "METAR EPRA 272300Z 30015KT 270V330 9999 OVC008 01/M01 Q1014",
      "taf": "TAF EPRA 272030Z 2721/2806 28012KT 8000 OVC007"
    },
    {
      "icao": "EPRZ",
      "alert": "OK",
      "vis_m": 9999,
      "fzfg": false,
      "metar_trigger": false,
      "taf_trigger": false,
      "metar": "METAR EPRZ 272300Z 28017KT 9999 OVC011 M00/M02 Q1014",
      "taf": ""
    },
    {
      "icao": "EPSC",
      "alert": "OK",
      "vis_m": 9999,
      "fzfg": false,
      "metar_trigger": false,
      "taf_trigger": false,
      "metar": "METAR EPSC 272300Z 32010KT 9999 FEW046 03/M04 Q1025",
      "taf": "TAF EPSC 271730Z 2718/2818 31010KT 9999 BKN006"
    },
    {
      "icao": "EPSY",
      "alert": "OK",
      "vis_m": 9999,
      "fzfg": false,
      "metar_trigger": false,
      "taf_trigger": false,
      "metar": "METAR EPSY 272300Z 32013KT 290V350 CAVOK 03/M03 Q1012",
      "taf": "TAF EPSY 272030Z 2721/2806 32012KT 9999 SCT040"
    },
    {
      "icao": "EPWA",
      "alert": "OK",
      "vis_m": 9999,
      "fzfg": false,
      "metar_trigger": false,
      "taf_trigger": false,
      "metar": "METAR EPWA 272300Z 27014KT 9999 FEW006 SCT044 01/00 Q1014 NOSIG",
      "taf": "TAF EPWA 272030Z 2721/2821 29015KT 7000 BKN012"
    },
    {
      "icao": "EPWR",
      "alert": "OK",
      "vis_m": 9999,
      "fzfg": false,
      "metar_trigger": false,
      "taf_trigger": false,
      "metar": "METAR EPWR 272300Z 29015KT 9999 OVC005 01/01 Q1023",
      "taf": "TAF EPWR 272030Z 2721/2821 32012KT 9999 OVC009"
    },
    {
      "icao": "ESGG",
      "alert": "OK",
      "vis_m": 9999,
      "fzfg": false,
      "metar_trigger": false,
      "taf_trigger": false,
      "metar": "METAR ESGG 272320Z 34013KT CAVOK 02/M06 Q1029",
      "taf": "TAF ESGG 272030Z 2721/2821 35010KT CAVOK"
    },
    {
      "icao": "ESKN",
      "alert": "OK",
      "vis_m": 9999,
      "fzfg": false,
      "metar_trigger": false,
      "taf_trigger": false,
      "metar": "METAR ESKN 272320Z 32013KT CAVOK 01/M08 Q1021",
      "taf": "TAF ESKN 272030Z 2721/2821 33019G34KT CAVOK"
    },
    {
      "icao": "ESMS",
      "alert": "OK",
      "vis_m": 9999,
      "fzfg": false,
      "metar_trigger": false,
      "taf_trigger": false,
      "metar": "METAR ESMS 272320Z 34014KT CAVOK 02/M06 Q1027",
      "taf": "TAF ESMS 272027Z 2721/2821 34012KT CAVOK"
    },
    {
      "icao": "ESSA",
      "alert": "OK",
      "vis_m": 9999,
      "fzfg": false,
      "metar_trigger": false,
      "taf_trigger": false,
      "metar": "METAR ESSA 272320Z 33016KT CAVOK 01/M08 Q1019 NOSIG",
      "taf": "TAF ESSA 272030Z 2721/2821 33019G30KT CAVOK"
    },
    {
      "icao": "EYKA",
      "alert": "OK",
      "vis_m": 9999,
      "fzfg": false,
      "metar_trigger": false,
      "taf_trigger": false,
      "metar": "METAR EYKA 272320Z 30011G23KT 260V010 9999 BKN025 OVC032 03/M01 Q1003",
      "taf": "TAF EYKA 272304Z 2800/2824 31014G25KT 6000 BKN015"
    },
    {
      "icao": "EYPA",
      "alert": "OK",
      "vis_m": 9999,
      "fzfg": false,
      "metar_trigger": false,
      "taf_trigger": false,
      "metar": "METAR EYPA 272320Z AUTO 35015G26KT 310V030 9999 FEW025/// SCT049/// BKN061/// 04/M01 Q1011",
      "taf": "TAF EYPA 272300Z 2800/2824 34016G30KT 8000 SCT015 BKN020"
    },
    {
      "icao": "EYVI",
      "alert": "OK",
      "vis_m": 5000,
      "fzfg": false,
      "metar_trigger": false,
      "taf_trigger": false,
      "metar": "METAR EYVI 272320Z 31014KT 5000 SHSNRA BKN007CB 00/M01 Q0999 TEMPO 1500 SHSNRA BKN005",
      "taf": "TAF EYVI 272312Z 2800/2824 31015G25KT 3000 SNRA BR OVC010"
    },
    {
      "icao": "GCFV",
      "alert": "OK",
      "vis_m": 9999,
      "fzfg": false,
      "metar_trigger": false,
      "taf_trigger": false,
      "metar": "METAR GCFV 272300Z 21006KT 180V260 9999 SCT025 17/13 Q1019",
      "taf": "TAF GCFV 272000Z 2721/2821 26005KT 9999 SCT040 TX22/2814Z TN13/2806Z"
    },
    {
      "icao": "GCLP",
      "alert": "OK",
      "vis_m": 9999,
      "fzfg": false,
      "metar_trigger": false,
      "taf_trigger": false,
      "metar": "METAR GCLP 272300Z 30005KT 260V330 9999 FEW045 17/10 Q1019 NOSIG",
      "taf": "TAF GCLP 272000Z 2721/2821 28004KT 9999 SCT040 TX22/2814Z TN14/2806Z"
    },
    {
      "icao": "GCTS",
      "alert": "OK",
      "vis_m": 9999,
      "fzfg": false,
      "metar_trigger": false,
      "taf_trigger": false,
      "metar": "METAR GCTS 272300Z 36008KT 9999 FEW040 16/08 Q1020 NOSIG",
      "taf": "TAF GCTS 272000Z 2721/2821 VRB07KT 9999 FEW040 TX23/2814Z TN14/2806Z"
    },
    {
      "icao": "GMAD",
      "alert": "OK",
      "vis_m": 6000,
      "fzfg": false,
      "metar_trigger": false,
      "taf_trigger": false,
      "metar": "METAR GMAD 272300Z 00000KT 6000 BKN020TCU BKN080 12/12 Q1016 NOSIG",
      "taf": "TAF GMAD 272300Z 2800/2906 12005KT 6000 BKN020TCU BKN080"
    },
    {
      "icao": "GMMN",
      "alert": "OK",
      "vis_m": 8000,
      "fzfg": false,
      "metar_trigger": false,
      "taf_trigger": false,
      "metar": "METAR GMMN 272300Z 22013KT 8000 -RA BKN016TCU FEW033CB 10/08 Q1012 NOSIG",
      "taf": "TAF GMMN 271700Z 2718/2824 22010KT 9999 SCT016TCU BKN020"
    },
    {
      "icao": "GMMX",
      "alert": "OK",
      "vis_m": 6000,
      "fzfg": false,
      "metar_trigger": false,
      "taf_trigger": false,
      "metar": "METAR GMMX 272300Z 17007KT 150V230 6000 SCT010 BKN016 11/10 Q1014 TEMPO 3000 RA",
      "taf": "TAF GMMX 272300Z 2800/2906 18006KT 6000 SCT010 BKN016"
    },
    {
      "icao": "HEGN",
      "alert": "OK",
      "vis_m": 9999,
      "fzfg": false,
      "metar_trigger": false,
      "taf_trigger": false,
      "metar": "METAR HEGN 272300Z 31010KT CAVOK 14/06 Q1013 NOSIG",
      "taf": "TAF HEGN 272300Z 2800/2906 29015KT CAVOK"
    },
    {
      "icao": "HEMA",
      "alert": "OK",
      "vis_m": 9999,
      "fzfg": false,
      "metar_trigger": false,
      "taf_trigger": false,
      "metar": "METAR HEMA 272300Z 22004KT CAVOK 15/11 Q1012 NOSIG",
      "taf": "TAF HEMA 272300Z 2800/2906 30012KT CAVOK"
    },
    {
      "icao": "HESH",
      "alert": "OK",
      "vis_m": 9999,
      "fzfg": false,
      "metar_trigger": false,
      "taf_trigger": false,
      "metar": "METAR HESH 272300Z 25004KT CAVOK 17/07 Q1012 NOSIG",
      "taf": "TAF HESH 272300Z 2800/2906 35012KT CAVOK"
    },
    {
      "icao": "HESX",
      "alert": "OK",
      "vis_m": 9999,
      "fzfg": false,
      "metar_trigger": false,
      "taf_trigger": false,
      "metar": "METAR HESX 272300Z 27005KT CAVOK 12/08 Q1013 NOSIG",
      "taf": "TAF HESX 272300Z 2800/2906 27008KT 9999 SCT025"
    },
    {
      "icao": "LATI",
      "alert": "OK",
      "vis_m": 9999,
      "fzfg": false,
      "metar_trigger": false,
      "taf_trigger": false,
      "metar": "METAR LATI 272320Z 13003KT CAVOK 01/M01 Q1019 NOSIG",
      "taf": "TAF LATI 272300Z 2800/2824 VRB04KT CAVOK TX15/2812Z TNM01/2804Z"
    },
    {
      "icao": "LBPD",
      "alert": "OK",
      "vis_m": 9999,
      "fzfg": false,
      "metar_trigger": false,
      "taf_trigger": false,
      "metar": "METAR LBPD 272300Z AUTO 28010KT 220V310 9999 NCD 03/M04 Q1014",
      "taf": "TAF LBPD 272300Z 2800/2824 29018KT 9999 SCT020"
    },
    {
      "icao": "LBSF",
      "alert": "OK",
      "vis_m": 9999,
      "fzfg": false,
      "metar_trigger": false,
      "taf_trigger": false,
      "metar": "METAR LBSF 272300Z AUTO 30005KT 260V320 9999 NCD M02/M04 Q1017 NOSIG",
      "taf": "TAF LBSF 272300Z 2800/2824 29016KT 9999 SCT015 SCT040"
    },
    {
      "icao": "LBWN",
      "alert": "OK",
      "vis_m": 9999,
      "fzfg": false,
      "metar_trigger": false,
      "taf_trigger": false,
      "metar": "METAR LBWN 272300Z AUTO 26008KT 9999 NCD 00/M02 Q1011 NOSIG",
      "taf": "TAF LBWN 272300Z 2800/2824 27010KT 9999 SCT030"
    },
    {
      "icao": "LCLK",
      "alert": "OK",
      "vis_m": 9999,
      "fzfg": false,
      "metar_trigger": false,
      "taf_trigger": false,
      "metar": "METAR LCLK 272300Z 32007KT 9999 FEW040 10/05 Q1008 NOSIG",
      "taf": "TAF LCLK 271730Z 2718/2818 34009KT 9999 FEW025"
    },
    {
      "icao": "LCPH",
      "alert": "OK",
      "vis_m": 9999,
      "fzfg": false,
      "metar_trigger": false,
      "taf_trigger": false,
      "metar": "METAR LCPH 272300Z 36004KT 9999 FEW080 09/03 Q1007 NOSIG",
      "taf": "TAF LCPH 271730Z 2718/2818 33010KT 9999 FEW020 SCT035"
    },
    {
      "icao": "LEAL",
      "alert": "OK",
      "vis_m": 9999,
      "fzfg": false,
      "metar_trigger": false,
      "taf_trigger": false,
      "metar": "METAR LEAL 272300Z 01007KT 340V060 9999 FEW020 12/08 Q1016 NOSIG",
      "taf": "TAF LEAL 272300Z 2800/2824 04007KT 9999 SCT015 TX15/2813Z TN11/2806Z"
    },
    {
      "icao": "LEBB",
      "alert": "OK",
      "vis_m": 9999,
      "fzfg": false,
      "metar_trigger": false,
      "taf_trigger": false,
      "metar": "METAR LEBB 272300Z VRB01KT CAVOK 07/07 Q1019 NOSIG",
      "taf": "TAF LEBB 272300Z 2800/2824 12008KT CAVOK TX14/2814Z TN04/2805Z"
    },
    {
      "icao": "LEBL",
      "alert": "OK",
      "vis_m": 9999,
      "fzfg": false,
      "metar_trigger": false,
      "taf_trigger": false,
      "metar": "METAR LEBL 272300Z 05012KT 9999 SCT014 SCT020 BKN030 12/11 Q1021 NOSIG",
      "taf": "TAF LEBL 272300Z 2800/2824 07012KT 9999 SCT014 TX16/2812Z TN11/2807Z"
    },
    {
      "icao": "LECH",
      "alert": "OK",
      "vis_m": 5000,
      "fzfg": false,
      "metar_trigger": false,
      "taf_trigger": false,
      "metar": "METAR LECH 272300Z AUTO 04010KT 5000 RA OVC005 09/08 Q1018",
      "taf": ""
    },
    {
      "icao": "LEMD",
      "alert": "OK",
      "vis_m": 9999,
      "fzfg": false,
      "metar_trigger": false,
      "taf_trigger": false,
      "metar": "METAR LEMD 272300Z 06002KT 9999 FEW046 BKN052 07/04 Q1015 NOSIG",
      "taf": "TAF LEMD 272300Z 2800/2906 09006KT 9999 SCT040 BKN045 TX12/2815Z TN04/2806Z"
    },
    {
      "icao": "LEMG",
      "alert": "OK",
      "vis_m": 9999,
      "fzfg": false,
      "metar_trigger": false,
      "taf_trigger": false,
      "metar": "METAR LEMG 272300Z 11021G31KT 080V140 9999 -TSRA SCT015 SCT018CB BKN036 14/11 Q1012 RERA BECMG NSW",
      "taf": "TAF LEMG 272300Z 2800/2824 VRB03KT 9999 FEW020 TX16/2814Z TN12/2806Z"
    },
    {
      "icao": "LEVC",
      "alert": "OK",
      "vis_m": 9999,
      "fzfg": false,
      "metar_trigger": false,
      "taf_trigger": false,
      "metar": "METAR LEVC 272300Z 01003KT 310V080 9999 FEW018 BKN049 11/09 Q1017 NOSIG",
      "taf": "TAF LEVC 272300Z 2800/2824 02005KT 9999 FEW020 BKN040 TX13/2813Z TN09/2806Z"
    },
    {
      "icao": "LEXJ",
      "alert": "OK",
      "vis_m": 9000,
      "fzfg": false,
      "metar_trigger": false,
      "taf_trigger": false,
      "metar": "METAR LEXJ 272300Z AUTO 11006KT 080V140 9000 NSC 11/07 Q1018",
      "taf": "TAF LEXJ 272000Z 2721/2821 10009KT 9999 FEW060 TX15/2814Z TN07/2809Z"
    },
    {
      "icao": "LEZG",
      "alert": "OK",
      "vis_m": 9999,
      "fzfg": false,
      "metar_trigger": false,
      "taf_trigger": false,
      "metar": "METAR LEZG 272300Z 10011KT 9999 SCT015 SCT050 10/08 Q1019 NOSIG",
      "taf": "TAF LEZG 272300Z 2800/2824 09006KT 9999 SCT015 BKN020 TX11/2814Z TN05/2806Z"
    },
    {
      "icao": "LEZL",
      "alert": "OK",
      "vis_m": 9999,
      "fzfg": false,
      "metar_trigger": false,
      "taf_trigger": false,
      "metar": "METAR LEZL 272300Z 13007KT CAVOK 11/10 Q1010 NOSIG",
      "taf": "TAF LEZL 272000Z 2721/2821 13010KT 9999 SCT025 TX17/2815Z TN08/2806Z"
    },
    {
      "icao": "LFBD",
      "alert": "OK",
      "vis_m": 9999,
      "fzfg": false,
      "metar_trigger": false,
      "taf_trigger": false,
      "metar": "METAR LFBD 272300Z AUTO 06006KT 040V100 CAVOK 09/04 Q1021 NOSIG",
      "taf": "TAF LFBD 271700Z 2718/2824 08005KT CAVOK TX12/2814Z TN03/2805Z"
    },
    {
      "icao": "LFLL",
      "alert": "OK",
      "vis_m": 2300,
      "fzfg": true,
      "metar_trigger": false,
      "taf_trigger": false,
      "metar": "METAR LFLL 272300Z VRB02KT 2300 BR OVC002 00/M00 Q1027 TEMPO 0500 FZFG VV///",
      "taf": "TAF LFLL 272300Z 2800/2906 VRB03KT 3500 BR OVC003"
    },
    {
      "icao": "LFLS",
      "alert": "OK",
      "vis_m": 5000,
      "fzfg": false,
      "metar_trigger": false,
      "taf_trigger": false,
      "metar": "METAR LFLS 272300Z AUTO 14003KT 5000 BR NSC M03/M04 Q1026",
      "taf": "TAF LFLS 271400Z 2715/2815 VRB02KT CAVOK"
    },
    {
      "icao": "LFMN",
      "alert": "OK",
      "vis_m": 9999,
      "fzfg": false,
      "metar_trigger": false,
      "taf_trigger": false,
      "metar": "METAR LFMN 272300Z 34008KT CAVOK 09/M01 Q1022 NOSIG",
      "taf": "TAF LFMN 272000Z 2721/2903 33012KT CAVOK"
    },
    {
      "icao": "LFOB",
      "alert": "OK",
      "vis_m": 9000,
      "fzfg": true,
      "metar_trigger": false,
      "taf_trigger": false,
      "metar": "METAR LFOB 272300Z AUTO 04005KT 360V060 9000 NSC M01/M03 Q1031 TEMPO 0600 FZFG VV///",
      "taf": "TAF LFOB 271700Z 2718/2818 02006KT 8000 NSC"
    },
    {
      "icao": "LFPO",
      "alert": "OK",
      "vis_m": 9999,
      "fzfg": false,
      "metar_trigger": false,
      "taf_trigger": false,
      "metar": "METAR LFPO 272300Z 36002KT CAVOK M01/M02 Q1030 NOSIG",
      "taf": "TAF LFPO 272300Z 2800/2906 03006KT 7000 NSC"
    },
    {
      "icao": "LFSB",
      "alert": "OK",
      "vis_m": 9999,
      "fzfg": false,
      "metar_trigger": false,
      "taf_trigger": false,
      "metar": "METAR LFSB 272300Z AUTO 08004KT 050V120 CAVOK M01/M02 Q1028 TEMPO 4000 BCFG BKN014",
      "taf": ""
    },
    {
      "icao": "LGAV",
      "alert": "OK",
      "vis_m": 9999,
      "fzfg": false,
      "metar_trigger": false,
      "taf_trigger": false,
      "metar": "METAR LGAV 272320Z VRB03KT 9999 FEW020 03/01 Q1018 NOSIG",
      "taf": "TAF LGAV 272300Z 2800/2824 22008KT 9999 FEW020"
    },
    {
      "icao": "LGTS",
      "alert": "OK",
      "vis_m": 9999,
      "fzfg": false,
      "metar_trigger": false,
      "taf_trigger": false,
      "metar": "METAR LGTS 272320Z 36010KT CAVOK 08/M01 Q1018 NOSIG",
      "taf": "TAF LGTS 272300Z 2800/2824 33015KT 9999 FEW025"
    },
    {
      "icao": "LHBP",
      "alert": "OK",
      "vis_m": 9999,
      "fzfg": false,
      "metar_trigger": false,
      "taf_trigger": false,
      "metar": "METAR LHBP 272300Z 30017KT CAVOK 03/M03 Q1015 NOSIG",
      "taf": "TAF LHBP 272315Z 2800/2824 31014G28KT CAVOK"
    },
    {
      "icao": "LHDC",
      "alert": "OK",
      "vis_m": 6000,
      "fzfg": false,
      "metar_trigger": false,
      "taf_trigger": false,
      "metar": "METAR LHDC 272245Z AUTO 19011KT 6000 BKN005 M00/M01 Q1014",
      "taf": ""
    },
    {
      "icao": "LIBD",
      "alert": "OK",
      "vis_m": 9999,
      "fzfg": false,
      "metar_trigger": false,
      "taf_trigger": false,
      "metar": "METAR LIBD 272320Z 27007KT CAVOK 07/04 Q1020",
      "taf": "TAF LIBD 272300Z 2800/2824 27010KT 9999 FEW030"
    },
    {
      "icao": "LIBG",
      "alert": "OK",
      "vis_m": null,
      "fzfg": false,
      "metar_trigger": false,
      "taf_trigger": false,
      "metar": "",
      "taf": "TAF LIBG 271700Z 2718/2803 35012KT 9999 SCT030"
    },
    {
      "icao": "LIBP",
      "alert": "OK",
      "vis_m": 9999,
      "fzfg": false,
      "metar_trigger": false,
      "taf_trigger": false,
      "metar": "METAR LIBP 272320Z AUTO 25004KT 9999 NCD 02/02 Q1022",
      "taf": "TAF LIBP 272300Z 2800/2824 VRB05KT 9999 FEW030"
    },
    {
      "icao": "LIBR",
      "alert": "OK",
      "vis_m": 9999,
      "fzfg": false,
      "metar_trigger": false,
      "taf_trigger": false,
      "metar": "METAR LIBR 272320Z 31013KT 280V340 CAVOK 10/08 Q1019",
      "taf": "TAF LIBR 272300Z 2800/2824 34016KT 9999 FEW025"
    },
    {
      "icao": "LICA",
      "alert": "OK",
      "vis_m": 9999,
      "fzfg": false,
      "metar_trigger": false,
      "taf_trigger": false,
      "metar": "METAR LICA 272320Z AUTO 07008KT 9999 NCD 05/03 Q1020",
      "taf": "TAF LICA 272300Z 2800/2824 07008KT CAVOK"
    },
    {
      "icao": "LICC",
      "alert": "OK",
      "vis_m": 9999,
      "fzfg": false,
      "metar_trigger": false,
      "taf_trigger": false,
      "metar": "METAR LICC 272320Z 22004KT 9999 SCT045 11/08 Q1020",
      "taf": "TAF LICC 272300Z 2800/2824 28007KT 9999 BKN030"
    },
    {
      "icao": "LICJ",
      "alert": "OK",
      "vis_m": 9999,
      "fzfg": false,
      "metar_trigger": false,
      "taf_trigger": false,
      "metar": "METAR LICJ 272320Z 17004KT 140V210 CAVOK 12/09 Q1020",
      "taf": "TAF LICJ 272300Z 2800/2824 VRB05KT 9999 FEW040"
    },
    {
      "icao": "LIMC",
      "alert": "OK",
      "vis_m": 9999,
      "fzfg": false,
      "metar_trigger": false,
      "taf_trigger": false,
      "metar": "METAR LIMC 272320Z VRB02KT CAVOK 01/00 Q1022 NOSIG",
      "taf": "TAF LIMC 272300Z 2800/2906 VRB05KT 6000 FEW030"
    },
    {
      "icao": "LIME",
      "alert": "OK",
      "vis_m": 9999,
      "fzfg": false,
      "metar_trigger": false,
      "taf_trigger": false,
      "metar": "METAR LIME 272320Z AUTO 01003KT 300V030 9999 NCD 02/M00 Q1021",
      "taf": "TAF LIME 272300Z 2800/2824 VRB05KT CAVOK"
    },
    {
      "icao": "LIMF",
      "alert": "OK",
      "vis_m": 9999,
      "fzfg": false,
      "metar_trigger": false,
      "taf_trigger": false,
      "metar": "METAR LIMF 272320Z 30003KT CAVOK 02/M02 Q1022",
      "taf": "TAF LIMF 272300Z 2800/2824 VRB06KT CAVOK"
    },
    {
      "icao": "LIMJ",
      "alert": "OK",
      "vis_m": 9999,
      "fzfg": false,
      "metar_trigger": false,
      "taf_trigger": false,
      "metar": "METAR LIMJ 272320Z AUTO 04011KT 9999 NCD 13/M02 Q1021",
      "taf": "TAF LIMJ 272300Z 2800/2824 03008KT CAVOK"
    },
    {
      "icao": "LIPE",
      "alert": "OK",
      "vis_m": 9999,
      "fzfg": false,
      "metar_trigger": false,
      "taf_trigger": false,
      "metar": "METAR LIPE 272320Z 21005KT CAVOK 02/M00 Q1022",
      "taf": "TAF LIPE 272300Z 2800/2824 VRB06KT CAVOK"
    },
    {
      "icao": "LIPH",
      "alert": "OK",
      "vis_m": 3400,
      "fzfg": false,
      "metar_trigger": false,
      "taf_trigger": false,
      "metar": "METAR LIPH 272320Z AUTO VRB02KT 3400 -RA BR NCD 02/02 Q1020",
      "taf": "TAF LIPH 272300Z 2800/2824 VRB05KT CAVOK"
    },
    {
      "icao": "LIPQ",
      "alert": "OK",
      "vis_m": 9999,
      "fzfg": false,
      "metar_trigger": false,
      "taf_trigger": false,
      "metar": "METAR LIPQ 272320Z AUTO 10004KT 9999 NCD 00/M02 Q1020",
      "taf": "TAF LIPQ 272300Z 2800/2824 VRB05KT CAVOK"
    },
    {
      "icao": "LIPR",
      "alert": "OK",
      "vis_m": 9999,
      "fzfg": false,
      "metar_trigger": false,
      "taf_trigger": false,
      "metar": "METAR LIPR 272320Z AUTO 23005KT 9999 NCD 05/M01 Q1021",
      "taf": "TAF LIPR 272300Z 2800/2824 25007KT CAVOK"
    },
    {
      "icao": "LIPX",
      "alert": "OK",
      "vis_m": 9999,
      "fzfg": false,
      "metar_trigger": false,
      "taf_trigger": false,
      "metar": "METAR LIPX 272320Z 27010KT CAVOK 06/02 Q1020",
      "taf": "TAF LIPX 272300Z 2800/2824 VRB06KT CAVOK"
    },
    {
      "icao": "LIPY",
      "alert": "OK",
      "vis_m": 9999,
      "fzfg": false,
      "metar_trigger": false,
      "taf_trigger": false,
      "metar": "METAR LIPY 272320Z AUTO 19003KT 9999 NCD 03/01 Q1022",
      "taf": "TAF LIPY 272300Z 2800/2824 VRB05KT CAVOK"
    },
    {
      "icao": "LIPZ",
      "alert": "OK",
      "vis_m": 8000,
      "fzfg": false,
      "metar_trigger": false,
      "taf_trigger": false,
      "metar": "METAR LIPZ 272320Z 24006KT 8000 NSC 02/02 Q1020 NOSIG",
      "taf": "TAF LIPZ 272300Z 2800/2906 VRB05KT CAVOK"
    },
    {
      "icao": "LIRF",
      "alert": "OK",
      "vis_m": 9999,
      "fzfg": false,
      "metar_trigger": false,
      "taf_trigger": false,
      "metar": "METAR LIRF 272320Z 07003KT CAVOK 04/04 Q1021 NOSIG",
      "taf": "TAF LIRF 272300Z 2800/2906 04008KT CAVOK"
    },
    {
      "icao": "LIRN",
      "alert": "OK",
      "vis_m": 9999,
      "fzfg": false,
      "metar_trigger": false,
      "taf_trigger": false,
      "metar": "METAR LIRN 272320Z 32003KT CAVOK 06/02 Q1021 NOSIG",
      "taf": "TAF LIRN 272300Z 2800/2824 03007KT CAVOK"
    },
    {
      "icao": "LIRP",
      "alert": "OK",
      "vis_m": 9999,
      "fzfg": false,
      "metar_trigger": false,
      "taf_trigger": false,
      "metar": "METAR LIRP 272315Z VRB03KT CAVOK 01/00 Q1022 NOSIG",
      "taf": "TAF LIRP 272300Z 2800/2824 12005KT CAVOK"
    },
    {
      "icao": "LIRZ",
      "alert": "OK",
      "vis_m": 9999,
      "fzfg": false,
      "metar_trigger": false,
      "taf_trigger": false,
      "metar": "METAR LIRZ 272320Z AUTO 02004KT 9999 NCD M00/M01 Q1022",
      "taf": "TAF LIRZ 272300Z 2800/2824 VRB06KT CAVOK"
    },
    {
      "icao": "LJLJ",
      "alert": "OK",
      "vis_m": 500,
      "fzfg": true,
      "metar_trigger": false,
      "taf_trigger": false,
      "metar": "METAR LJLJ 272300Z VRB02KT 0500 R30/0900N FZFG VV002 M02/M03 Q1022 NOSIG",
      "taf": "TAF LJLJ 272300Z 2800/2900 30002KT 0400 FZFG VV002"
    },
    {
      "icao": "LKMT",
      "alert": "OK",
      "vis_m": 9999,
      "fzfg": false,
      "metar_trigger": false,
      "taf_trigger": false,
      "metar": "METAR LKMT 272300Z 36012KT 9999 SCT015 BKN038 02/M01 Q1021 NOSIG",
      "taf": "TAF LKMT 272300Z 2800/2824 35010KT 9999 BKN017"
    },
    {
      "icao": "LKPR",
      "alert": "OK",
      "vis_m": 9999,
      "fzfg": false,
      "metar_trigger": false,
      "taf_trigger": false,
      "metar": "METAR LKPR 272300Z 28010KT 9999 OVC016 02/M00 Q1026 TEMPO BKN014",
      "taf": "TAF LKPR 272300Z 2800/2906 29009KT 9999 BKN016"
    },
    {
      "icao": "LLBG",
      "alert": "OK",
      "vis_m": 9999,
      "fzfg": false,
      "metar_trigger": false,
      "taf_trigger": false,
      "metar": "METAR LLBG 272320Z 27011KT 9999 BKN048 16/08 Q1008 TEMPO 5000 RA FEW025TCU BKN030",
      "taf": "TAF LLBG 272318Z 2800/2824 27013KT 9999 SCT035"
    },
    {
      "icao": "LMML",
      "alert": "OK",
      "vis_m": 9999,
      "fzfg": false,
      "metar_trigger": false,
      "taf_trigger": false,
      "metar": "METAR LMML 272315Z 06008KT 9999 FEW020 SCT040 14/11 Q1019 NOSIG",
      "taf": "TAF LMML 272300Z 2800/2824 08010KT 9999 SCT020"
    },
    {
      "icao": "LOWW",
      "alert": "OK",
      "vis_m": 9999,
      "fzfg": false,
      "metar_trigger": false,
      "taf_trigger": false,
      "metar": "METAR LOWW 272320Z 34020KT 9999 FEW022 03/M01 Q1022 TEMPO BKN014",
      "taf": "TAF LOWW 272315Z 2800/2906 31015G25KT 9999 SCT020 TX04/2812Z TNM04/2906Z"
    },
    {
      "icao": "LPFR",
      "alert": "OK",
      "vis_m": 9999,
      "fzfg": false,
      "metar_trigger": false,
      "taf_trigger": false,
      "metar": "METAR LPFR 272300Z 21008KT 9999 FEW010 FEW025CB 12/08 Q1007",
      "taf": "TAF LPFR 272300Z 2800/2824 20008KT 9999 FEW012 BKN030"
    },
    {
      "icao": "LPMA",
      "alert": "OK",
      "vis_m": 9999,
      "fzfg": false,
      "metar_trigger": false,
      "taf_trigger": false,
      "metar": "METAR LPMA 272300Z 32006KT 250V360 9999 FEW016 16/06 Q1017",
      "taf": "TAF LPMA 272300Z 2800/2824 VRB05KT 9999 SCT015"
    },
    {
      "icao": "LPPR",
      "alert": "OK",
      "vis_m": 9999,
      "fzfg": false,
      "metar_trigger": false,
      "taf_trigger": false,
      "metar": "METAR LPPR 272300Z 00000KT CAVOK 06/03 Q1012",
      "taf": "TAF LPPR 272300Z 2800/2824 04005KT CAVOK"
    },
    {
      "icao": "LPPS",
      "alert": "OK",
      "vis_m": 9999,
      "fzfg": false,
      "metar_trigger": false,
      "taf_trigger": false,
      "metar": "METAR LPPS 272300Z 30016KT 9999 SCT015 16/08 Q1017",
      "taf": "TAF LPPS 272300Z 2800/2906 31015KT 9999 SCT015"
    },
    {
      "icao": "LPPT",
      "alert": "OK",
      "vis_m": 7000,
      "fzfg": false,
      "metar_trigger": false,
      "taf_trigger": false,
      "metar": "METAR LPPT 272300Z 05011KT 7000 VCSH SCT006 BKN010 08/08 Q1007",
      "taf": "TAF LPPT 272300Z 2800/2906 05010KT 9999 FEW015 BKN030"
    },
    {
      "icao": "LQBK",
      "alert": "OK",
      "vis_m": 9999,
      "fzfg": false,
      "metar_trigger": false,
      "taf_trigger": false,
      "metar": "METAR LQBK 272300Z VRB01KT CAVOK M03/M03 Q1021 NOSIG",
      "taf": "TAF LQBK 272300Z 2800/2824 15005KT CAVOK TX07/2813Z TNM04/2804Z"
    },
    {
      "icao": "LQSA",
      "alert": "OK",
      "vis_m": 9999,
      "fzfg": false,
      "metar_trigger": false,
      "taf_trigger": false,
      "metar": "METAR LQSA 272300Z VRB02KT 9999 OVC012 M00/M02 Q1022",
      "taf": ""
    },
    {
      "icao": "LQTZ",
      "alert": "OK",
      "vis_m": 3500,
      "fzfg": false,
      "metar_trigger": false,
      "taf_trigger": false,
      "metar": "METAR LQTZ 272300Z 00000KT 3500 BR SCT004 M03/M03 Q1021",
      "taf": "TAF LQTZ 272300Z 2800/2824 36005KT 4000 BR SCT005 TX02/2813Z TNM04/2803Z"
    },
    {
      "icao": "LRBC",
      "alert": "OK",
      "vis_m": 9999,
      "fzfg": false,
      "metar_trigger": false,
      "taf_trigger": false,
      "metar": "METAR LRBC 272300Z 25016KT 9999 SCT051 04/M04 Q1005",
      "taf": "TAF LRBC 272000Z 2721/2806 VRB04KT 9999 BKN050"
    },
    {
      "icao": "LRBS",
      "alert": "OK",
      "vis_m": 8000,
      "fzfg": false,
      "metar_trigger": false,
      "taf_trigger": false,
      "metar": "METAR LRBS 272300Z 23012KT 8000 SCT005 M02/M03 Q1009 NOSIG",
      "taf": ""
    },
    {
      "icao": "LRBV",
      "alert": "OK",
      "vis_m": 9999,
      "fzfg": false,
      "metar_trigger": false,
      "taf_trigger": false,
      "metar": "METAR LRBV 272300Z AUTO 32006KT 300V360 9999 BKN007/// OVC009/// M02/M03 Q1010",
      "taf": "TAF LRBV 272000Z 2721/2806 31014KT 9999 BKN025"
    },
    {
      "icao": "LRCL",
      "alert": "OK",
      "vis_m": 8000,
      "fzfg": false,
      "metar_trigger": false,
      "taf_trigger": false,
      "metar": "METAR LRCL 272300Z 25004KT 230V310 8000 FEW008 BKN051 M04/M05 Q1011",
      "taf": "TAF LRCL 272000Z 2721/2806 VRB04KT CAVOK"
    },
    {
      "icao": "LRCV",
      "alert": "OK",
      "vis_m": 9999,
      "fzfg": false,
      "metar_trigger": false,
      "taf_trigger": false,
      "metar": "METAR LRCV 272300Z 27018KT CAVOK M00/M02 Q1011",
      "taf": "TAF LRCV 272000Z 2721/2806 27012KT CAVOK"
    },
    {
      "icao": "LRIA",
      "alert": "OK",
      "vis_m": 9999,
      "fzfg": false,
      "metar_trigger": false,
      "taf_trigger": false,
      "metar": "METAR LRIA 272300Z 27009KT 230V300 9999 OVC045 03/M03 Q1004",
      "taf": "TAF LRIA 272000Z 2721/2806 VRB04KT 9999 BKN035"
    },
    {
      "icao": "LROP",
      "alert": "OK",
      "vis_m": 6000,
      "fzfg": true,
      "metar_trigger": false,
      "taf_trigger": false,
      "metar": "METAR LROP 272300Z 23010KT 6000 SCT005 M03/M03 Q1009 NOSIG",
      "taf": "TAF LROP 271700Z 2718/2818 24008KT 0800 FZFG OVC001"
    },
    {
      "icao": "LRSB",
      "alert": "OK",
      "vis_m": 9999,
      "fzfg": false,
      "metar_trigger": false,
      "taf_trigger": false,
      "metar": "METAR LRSB 272300Z VRB01KT 9999 BKN010 M01/M02 Q1011",
      "taf": "TAF LRSB 271700Z 2718/2818 VRB04KT 9999 SCT020"
    },
    {
      "icao": "LRSM",
      "alert": "OK",
      "vis_m": 9000,
      "fzfg": false,
      "metar_trigger": false,
      "taf_trigger": false,
      "metar": "METAR LRSM 272300Z AUTO 31009KT 9000 SCT009/// BKN011/// 00/M02 Q1015",
      "taf": ""
    },
    {
      "icao": "LRSV",
      "alert": "OK",
      "vis_m": 9999,
      "fzfg": false,
      "metar_trigger": false,
      "taf_trigger": false,
      "metar": "METAR LRSV 272300Z 31013KT 9999 BKN034 04/M02 Q1004",
      "taf": "TAF LRSV 272000Z 2721/2806 25006KT CAVOK"
    },
    {
      "icao": "LRTM",
      "alert": "OK",
      "vis_m": 9999,
      "fzfg": false,
      "metar_trigger": false,
      "taf_trigger": false,
      "metar": "METAR LRTM 272300Z AUTO 10003KT 070V140 9999 SCT013/// OVC055/// M02/M03 Q1011",
      "taf": "TAF LRTM 271400Z 2715/2724 31006KT 9999 SCT020 BKN035"
    },
    {
      "icao": "LRTR",
      "alert": "OK",
      "vis_m": 7000,
      "fzfg": false,
      "metar_trigger": false,
      "taf_trigger": false,
      "metar": "METAR LRTR 272300Z 22006KT 7000 FEW013 BKN028 00/00 Q1017",
      "taf": "TAF LRTR 271700Z 2718/2818 22008KT 9999 OVC010"
    },
    {
      "icao": "LTAC",
      "alert": "OK",
      "vis_m": 9999,
      "fzfg": false,
      "metar_trigger": false,
      "taf_trigger": false,
      "metar": "METAR LTAC 272250Z 26010KT 9999 -SN BKN030 BKN080 M02/M04 Q1010 NOSIG RMK RWY21C 25010KT RWY03L 26008KT RWY21R 25009KT RWY03R 24008KT RWY21L 25010KT",
      "taf": "TAF LTAC 272240Z 2800/2824 VRB02KT 9999 SCT030 BKN080"
    },
    {
      "icao": "LTFM",
      "alert": "OK",
      "vis_m": 9999,
      "fzfg": false,
      "metar_trigger": false,
      "taf_trigger": false,
      "metar": "METAR LTFM 272250Z 24009KT CAVOK 02/M03 Q1015 NOSIG RMK RWY17L 24008KT RWY34L 23009KT RWY16R 23006KT RWY36 22008KT 180V240 RWY18 24009G22KT 130V250",
      "taf": "TAF LTFM 272240Z 2800/2906 22010KT CAVOK"
    },
    {
      "icao": "LUKK",
      "alert": "OK",
      "vis_m": 9999,
      "fzfg": false,
      "metar_trigger": false,
      "taf_trigger": false,
      "metar": "METAR LUKK 272300Z 27010KT 9999 OVC046 01/M03 Q1002 TEMPO 29016G26KT",
      "taf": "TAF LUKK 272321Z 2800/2824 29014KT 9999 BKN015"
    },
    {
      "icao": "LWOH",
      "alert": "OK",
      "vis_m": null,
      "fzfg": false,
      "metar_trigger": false,
      "taf_trigger": false,
      "metar": "",
      "taf": "TAF LWOH 272015Z 2721/2821 32005KT CAVOK"
    },
    {
      "icao": "LWSK",
      "alert": "OK",
      "vis_m": 9999,
      "fzfg": false,
      "metar_trigger": false,
      "taf_trigger": false,
      "metar": "METAR LWSK 272320Z 20002KT CAVOK M04/M05 Q1020 NOSIG",
      "taf": "TAF LWSK 272015Z 2721/2821 01005KT CAVOK"
    },
    {
      "icao": "LYBE",
      "alert": "OK",
      "vis_m": 9999,
      "fzfg": false,
      "metar_trigger": false,
      "taf_trigger": false,
      "metar": "METAR LYBE 272300Z 23008KT CAVOK 00/M02 Q1019 NOSIG",
      "taf": "TAF LYBE 272300Z 2800/2824 26008KT CAVOK TX04/2812Z TNM01/2802Z"
    },
    {
      "icao": "LYNI",
      "alert": "OK",
      "vis_m": 7000,
      "fzfg": false,
      "metar_trigger": false,
      "taf_trigger": false,
      "metar": "METAR LYNI 272300Z 00000KT 7000 SCT008 BKN017 M01/M01 Q1020 NOSIG",
      "taf": "TAF LYNI 272300Z 2800/2824 35004KT 9999 SCT020 TX03/2812Z TNM01/2802Z"
    },
    {
      "icao": "LYPG",
      "alert": "OK",
      "vis_m": 9999,
      "fzfg": false,
      "metar_trigger": false,
      "taf_trigger": false,
      "metar": "METAR LYPG 272300Z 34006KT CAVOK 01/M01 Q1019 NOSIG",
      "taf": "TAF LYPG 272300Z 2800/2824 34005KT CAVOK TX13/2813Z TNM02/2803Z"
    },
    {
      "icao": "LZIB",
      "alert": "OK",
      "vis_m": 9999,
      "fzfg": false,
      "metar_trigger": false,
      "taf_trigger": false,
      "metar": "METAR LZIB 272300Z 30015KT CAVOK 04/M01 Q1021 NOSIG",
      "taf": "TAF LZIB 272315Z 2800/2900 30014KT 9999 FEW045"
    },
    {
      "icao": "LZKZ",
      "alert": "OK",
      "vis_m": 9999,
      "fzfg": false,
      "metar_trigger": false,
      "taf_trigger": false,
      "metar": "METAR LZKZ 272300Z 01020KT 9999 FEW005 SCT032 01/M01 Q1015 NOSIG",
      "taf": "TAF LZKZ 272315Z 2800/2900 35012KT 9999 SCT045"
    },
    {
      "icao": "LZTT",
      "alert": "OK",
      "vis_m": 9999,
      "fzfg": false,
      "metar_trigger": false,
      "taf_trigger": false,
      "metar": "METAR LZTT 272300Z 28019KT 9999 FEW053 01/M06 Q1012",
      "taf": "TAF LZTT 272315Z 2800/2900 26012KT 9999 FEW045"
    },
    {
      "icao": "OEJN",
      "alert": "OK",
      "vis_m": 9999,
      "fzfg": false,
      "metar_trigger": false,
      "taf_trigger": false,
      "metar": "METAR OEJN 272300Z 36004KT CAVOK 22/17 Q1011 NOSIG",
      "taf": "TAF OEJN 272300Z 2800/2906 VRB03KT 7000 FEW040"
    },
    {
      "icao": "OEMA",
      "alert": "OK",
      "vis_m": 9999,
      "fzfg": false,
      "metar_trigger": false,
      "taf_trigger": false,
      "metar": "METAR OEMA 272300Z 25009KT CAVOK 19/02 Q1013 NOSIG",
      "taf": "TAF OEMA 272300Z 2800/2906 VRB03KT 7000 NSC"
    },
    {
      "icao": "OJAI",
      "alert": "OK",
      "vis_m": 3000,
      "fzfg": false,
      "metar_trigger": false,
      "taf_trigger": false,
      "metar": "METAR OJAI 272300Z 23012KT 3000 BR FEW025 FEW080 10/08 Q1009 NOSIG",
      "taf": "TAF OJAI 272300Z 2800/2906 29018G30KT 3000 RA BR FEW020TCU BKN025"
    },
    {
      "icao": "OMAA",
      "alert": "OK",
      "vis_m": 8000,
      "fzfg": false,
      "metar_trigger": false,
      "taf_trigger": false,
      "metar": "METAR OMAA 272300Z 08006KT 8000 NSC 20/14 Q1013 NOSIG",
      "taf": "TAF OMAA 272300Z 2800/2906 09005KT 8000 NSC"
    },
    {
      "icao": "OMDB",
      "alert": "OK",
      "vis_m": 8000,
      "fzfg": false,
      "metar_trigger": false,
      "taf_trigger": false,
      "metar": "METAR OMDB 272300Z 06003KT 020V100 8000 NSC 21/14 Q1013 NOSIG",
      "taf": "TAF OMDB 272300Z 2800/2906 06005KT 8000 NSC"
    },
    {
      "icao": "UAAA",
      "alert": "OK",
      "vis_m": 200,
      "fzfg": true,
      "metar_trigger": false,
      "taf_trigger": false,
      "metar": "METAR UAAA 272300Z 28002MPS 240V300 0200 R23L/0700N FZFG VV001 M02/M03 Q1016 NOSIG RMK QBB050",
      "taf": "TAF UAAA 272259Z 2800/2824 20003MPS 0600 FZFG VV002 TX01/2809Z TNM05/2801Z"
    },
    {
      "icao": "UBBB",
      "alert": "OK",
      "vis_m": 9999,
      "fzfg": false,
      "metar_trigger": false,
      "taf_trigger": false,
      "metar": "METAR UBBB 272300Z 34018KT 9999 SCT021 07/03 Q1003 NOSIG",
      "taf": "TAF UBBB 272305Z 2800/2824 32016G26KT 9999 SCT010 BKN020 TX06/2810Z TN04/2802Z"
    },
    {
      "icao": "UDSG",
      "alert": "OK",
      "vis_m": 9000,
      "fzfg": false,
      "metar_trigger": false,
      "taf_trigger": false,
      "metar": "METAR UDSG 272300Z 03003KT 010V090 9000 OVC033 M04/M10 Q1001 NOSIG",
      "taf": "TAF UDSG 272258Z 2800/2824 VRB06KT 3000 BR OVC020"
    },
    {
      "icao": "UDYZ",
      "alert": "OK",
      "vis_m": 1000,
      "fzfg": true,
      "metar_trigger": false,
      "taf_trigger": false,
      "metar": "METAR UDYZ 272300Z 07007KT 1000 0800E R08/2000U SN BCFG OVC003 M01/M01 Q1001 NOSIG",
      "taf": "TAF UDYZ 272300Z 2800/2824 VRB06KT 0600 FZFG OVC010"
    },
    {
      "icao": "UGKO",
      "alert": "OK",
      "vis_m": 7000,
      "fzfg": false,
      "metar_trigger": false,
      "taf_trigger": false,
      "metar": "METAR UGKO 272300Z 08004KT 7000 SCT013CB OVC046 00/M00 Q1008 NOSIG",
      "taf": "TAF UGKO 272300Z 2800/2824 08007KT 9999 BKN045 TX04/2811Z TNM01/2804Z"
    }
  ]
}