{
  "ts_utc": "2026-04-09T21:27:33Z",
  "threshold_m": 150,
  "source": "stations_override.txt (ICAO list) + aviationweather.gov (METAR/TAF raw)",
  "station_count": 159,
  "stations": [
    {
      "icao": "BIKF",
      "alert": "OK",
      "vis_m": 9000,
      "fzfg": false,
      "metar_trigger": false,
      "taf_trigger": false,
      "metar": "METAR BIKF 092100Z 22027KT 9000 -RASN BKN013 OVC047 03/01 Q0987",
      "taf": "TAF BIKF 091950Z 0921/1021 23030G40KT 6000 -RADZ BKN008 TX05/1015Z TN00/1006Z"
    },
    {
      "icao": "BKPR",
      "alert": "OK",
      "vis_m": null,
      "fzfg": false,
      "metar_trigger": false,
      "taf_trigger": false,
      "metar": "",
      "taf": "TAF BKPR 091730Z 0918/1018 01007KT CAVOK"
    },
    {
      "icao": "EBCI",
      "alert": "OK",
      "vis_m": 9999,
      "fzfg": false,
      "metar_trigger": false,
      "taf_trigger": false,
      "metar": "METAR EBCI 092120Z 27009KT 240V300 CAVOK 16/10 Q1016 NOSIG",
      "taf": "TAF EBCI 091703Z 0918/1024 25005KT CAVOK"
    },
    {
      "icao": "EDDB",
      "alert": "OK",
      "vis_m": 9999,
      "fzfg": false,
      "metar_trigger": false,
      "taf_trigger": false,
      "metar": "METAR EDDB 092120Z AUTO 06006KT CAVOK 03/M03 Q1020 NOSIG",
      "taf": "TAF EDDB 091700Z 0918/1018 09006KT CAVOK"
    },
    {
      "icao": "EDDH",
      "alert": "OK",
      "vis_m": 9999,
      "fzfg": false,
      "metar_trigger": false,
      "taf_trigger": false,
      "metar": "METAR EDDH 092120Z AUTO 11014KT 090V150 CAVOK 08/M04 Q1017 NOSIG",
      "taf": "TAF EDDH 091700Z 0918/1024 11012KT 9999 SCT030"
    },
    {
      "icao": "EDDK",
      "alert": "OK",
      "vis_m": 9999,
      "fzfg": false,
      "metar_trigger": false,
      "taf_trigger": false,
      "metar": "METAR EDDK 092120Z AUTO 13004KT 090V170 CAVOK 17/03 Q1014 TEMPO 23008KT SHRA BKN045TCU",
      "taf": "TAF EDDK 091700Z 0918/1024 16006KT CAVOK"
    },
    {
      "icao": "EDDN",
      "alert": "OK",
      "vis_m": 9999,
      "fzfg": false,
      "metar_trigger": false,
      "taf_trigger": false,
      "metar": "METAR EDDN 092120Z AUTO 11008KT 9999 FEW044 10/01 Q1016",
      "taf": ""
    },
    {
      "icao": "EDDS",
      "alert": "OK",
      "vis_m": 9999,
      "fzfg": false,
      "metar_trigger": false,
      "taf_trigger": false,
      "metar": "METAR EDDS 092120Z AUTO 28003KT CAVOK 10/01 Q1016",
      "taf": "TAF EDDS 091700Z 0918/1018 01007KT CAVOK"
    },
    {
      "icao": "EDFH",
      "alert": "OK",
      "vis_m": 9999,
      "fzfg": false,
      "metar_trigger": false,
      "taf_trigger": false,
      "metar": "METAR EDFH 092120Z 16007KT CAVOK 13/01 Q1016",
      "taf": ""
    },
    {
      "icao": "EDJA",
      "alert": "OK",
      "vis_m": 9999,
      "fzfg": false,
      "metar_trigger": false,
      "taf_trigger": false,
      "metar": "METAR EDJA 092120Z AUTO 03002KT 9999 // FEW110/// OVC130/// 08/03 Q1017",
      "taf": ""
    },
    {
      "icao": "EDLW",
      "alert": "OK",
      "vis_m": 9999,
      "fzfg": false,
      "metar_trigger": false,
      "taf_trigger": false,
      "metar": "METAR EDLW 092120Z AUTO 19005KT 9999 // BKN088/// OVC099/// 15/05 Q1013",
      "taf": "TAF EDLW 091700Z 0918/1018 09007KT CAVOK"
    },
    {
      "icao": "EDNY",
      "alert": "OK",
      "vis_m": 9999,
      "fzfg": false,
      "metar_trigger": false,
      "taf_trigger": false,
      "metar": "METAR EDNY 092120Z AUTO VRB02KT 9999 BKN140/// 13/04 Q1016",
      "taf": "TAF EDNY 091700Z 0918/1003 VRB03KT CAVOK"
    },
    {
      "icao": "EDSB",
      "alert": "OK",
      "vis_m": 9999,
      "fzfg": false,
      "metar_trigger": false,
      "taf_trigger": false,
      "metar": "METAR EDSB 092120Z AUTO 20004KT 9999 // NCD 10/02 Q1016",
      "taf": "TAF EDSB 091700Z 0918/1018 35003KT CAVOK"
    },
    {
      "icao": "EETN",
      "alert": "OK",
      "vis_m": 9999,
      "fzfg": false,
      "metar_trigger": false,
      "taf_trigger": false,
      "metar": "METAR EETN 092120Z 07006KT CAVOK 01/M04 Q1027 NOSIG",
      "taf": "TAF EETN 091730Z 0918/1018 07012KT CAVOK"
    },
    {
      "icao": "EFTU",
      "alert": "OK",
      "vis_m": 9999,
      "fzfg": false,
      "metar_trigger": false,
      "taf_trigger": false,
      "metar": "METAR EFTU 092120Z AUTO VRB01KT CAVOK M02/M07 Q1028",
      "taf": "TAF EFTU 092025Z 0921/1021 VRB02KT CAVOK"
    },
    {
      "icao": "EGBB",
      "alert": "OK",
      "vis_m": 9999,
      "fzfg": false,
      "metar_trigger": false,
      "taf_trigger": false,
      "metar": "METAR EGBB 092120Z 29009KT CAVOK 07/M00 Q1019",
      "taf": "TAF EGBB 091702Z 0918/1018 28009KT 9999 FEW045"
    },
    {
      "icao": "EGGP",
      "alert": "OK",
      "vis_m": 9999,
      "fzfg": false,
      "metar_trigger": false,
      "taf_trigger": false,
      "metar": "METAR EGGP 092120Z 27013KT 9999 SCT030 BKN040 06/02 Q1019",
      "taf": "TAF EGGP 091657Z 0918/1018 28014KT 9999 SCT025"
    },
    {
      "icao": "EGGW",
      "alert": "OK",
      "vis_m": 9999,
      "fzfg": false,
      "metar_trigger": false,
      "taf_trigger": false,
      "metar": "METAR EGGW 092120Z AUTO 30011KT 9999 NCD 07/M01 Q1019",
      "taf": ""
    },
    {
      "icao": "EGKK",
      "alert": "OK",
      "vis_m": 9999,
      "fzfg": false,
      "metar_trigger": false,
      "taf_trigger": false,
      "metar": "METAR EGKK 092120Z 30010KT CAVOK 09/00 Q1020",
      "taf": "TAF EGKK 091656Z 0918/1024 24015KT CAVOK"
    },
    {
      "icao": "EGNM",
      "alert": "OK",
      "vis_m": 9999,
      "fzfg": false,
      "metar_trigger": false,
      "taf_trigger": false,
      "metar": "METAR EGNM 092120Z 25018KT 9999 FEW017 05/02 Q1015",
      "taf": "TAF EGNM 091657Z 0918/1018 28018G28KT 9999 SCT025"
    },
    {
      "icao": "EGPD",
      "alert": "OK",
      "vis_m": 9999,
      "fzfg": false,
      "metar_trigger": false,
      "taf_trigger": false,
      "metar": "METAR EGPD 092120Z COR AUTO 27007KT 9999 NCD 05/00 Q1009 NOSIG",
      "taf": "TAF EGPD 091655Z 0918/1018 29008KT 9999 FEW040"
    },
    {
      "icao": "EGPF",
      "alert": "OK",
      "vis_m": 9999,
      "fzfg": false,
      "metar_trigger": false,
      "taf_trigger": false,
      "metar": "METAR EGPF 092120Z AUTO 25010G20KT 9999 -RA SCT025 BKN032 05/03 Q1014",
      "taf": "TAF EGPF 091654Z 0918/1018 26012KT 9999 FEW020"
    },
    {
      "icao": "EHBK",
      "alert": "OK",
      "vis_m": 9999,
      "fzfg": false,
      "metar_trigger": false,
      "taf_trigger": false,
      "metar": "METAR EHBK 092055Z AUTO 22005KT 9999 NSC 17/12 Q1014 REDZ TEMPO -SHRA FEW030CB",
      "taf": "TAF EHBK 091719Z 0918/1024 19005KT CAVOK"
    },
    {
      "icao": "EHEH",
      "alert": "OK",
      "vis_m": 9999,
      "fzfg": false,
      "metar_trigger": false,
      "taf_trigger": false,
      "metar": "METAR EHEH 092055Z AUTO VRB02KT 9999 FEW039 OVC088 18/12 Q1013 BLU",
      "taf": ""
    },
    {
      "icao": "EKBI",
      "alert": "OK",
      "vis_m": 9999,
      "fzfg": false,
      "metar_trigger": false,
      "taf_trigger": false,
      "metar": "METAR EKBI 092120Z AUTO 12013KT 090V150 9999 FEW200/// 03/M07 Q1017",
      "taf": "TAF EKBI 092027Z 0921/1021 11015KT 9999 BKN045"
    },
    {
      "icao": "EKCH",
      "alert": "OK",
      "vis_m": 9999,
      "fzfg": false,
      "metar_trigger": false,
      "taf_trigger": false,
      "metar": "METAR EKCH 092120Z AUTO 12015KT 9999 NCD 03/M04 Q1023 NOSIG",
      "taf": "TAF EKCH 092027Z 0921/1021 12013KT CAVOK"
    },
    {
      "icao": "ENAL",
      "alert": "OK",
      "vis_m": 9999,
      "fzfg": false,
      "metar_trigger": false,
      "taf_trigger": false,
      "metar": "METAR ENAL 092120Z 33005KT 300V010 9999 BKN060 06/04 Q1011",
      "taf": "TAF ENAL 092000Z 0921/1006 VRB07KT 9999 -RA BKN050"
    },
    {
      "icao": "ENBR",
      "alert": "OK",
      "vis_m": 9999,
      "fzfg": false,
      "metar_trigger": false,
      "taf_trigger": false,
      "metar": "METAR ENBR 092120Z 15022KT 9999 FEW043CB BKN053 09/M02 Q1010 RMK WIND 1200FT 14037KT",
      "taf": "TAF ENBR 091700Z 0918/1018 15020KT 9999 FEW040 SCT050"
    },
    {
      "icao": "ENGM",
      "alert": "OK",
      "vis_m": 9999,
      "fzfg": false,
      "metar_trigger": false,
      "taf_trigger": false,
      "metar": "METAR ENGM 092120Z 14004KT CAVOK 04/M06 Q1020",
      "taf": "TAF ENGM 091700Z 0918/1018 16007KT 9999 SCT040"
    },
    {
      "icao": "ENHD",
      "alert": "OK",
      "vis_m": 9999,
      "fzfg": false,
      "metar_trigger": false,
      "taf_trigger": false,
      "metar": "METAR ENHD 092120Z AUTO 15031G49KT 120V180 9999 -RA SQ OVC035/// 08/M00 Q1010 REDZRA",
      "taf": "TAF ENHD 091400Z 0915/0922 14018KT 9999 -RA SCT050"
    },
    {
      "icao": "ENTC",
      "alert": "OK",
      "vis_m": 9999,
      "fzfg": false,
      "metar_trigger": false,
      "taf_trigger": false,
      "metar": "METAR ENTC 092120Z 20007KT CAVOK 07/M01 Q1016 RMK WIND 2600FT 19010KT",
      "taf": "TAF ENTC 091700Z 0918/1018 18012KT 9999 BKN060"
    },
    {
      "icao": "ENTO",
      "alert": "OK",
      "vis_m": 9999,
      "fzfg": false,
      "metar_trigger": false,
      "taf_trigger": false,
      "metar": "METAR ENTO 092120Z COR 11001KT CAVOK 03/02 Q1020",
      "taf": "TAF ENTO 091700Z 0918/1018 15008KT CAVOK"
    },
    {
      "icao": "ENVA",
      "alert": "OK",
      "vis_m": 9999,
      "fzfg": false,
      "metar_trigger": false,
      "taf_trigger": false,
      "metar": "METAR ENVA 092120Z 16018G33KT 130V190 CAVOK 10/M01 Q1014 RMK WIND 670FT 17031G46KT",
      "taf": "TAF ENVA 091700Z 0918/1018 14015KT CAVOK"
    },
    {
      "icao": "ENZV",
      "alert": "OK",
      "vis_m": 9999,
      "fzfg": false,
      "metar_trigger": false,
      "taf_trigger": false,
      "metar": "METAR ENZV 092120Z 15021KT CAVOK 10/M01 Q1011",
      "taf": "TAF ENZV 091700Z 0918/1018 14022KT CAVOK"
    },
    {
      "icao": "EPGD",
      "alert": "OK",
      "vis_m": 9999,
      "fzfg": false,
      "metar_trigger": false,
      "taf_trigger": false,
      "metar": "METAR EPGD 092100Z 03004KT CAVOK M00/M01 Q1023",
      "taf": "TAF EPGD 091730Z 0918/1018 04010KT CAVOK"
    },
    {
      "icao": "EPKK",
      "alert": "OK",
      "vis_m": 9999,
      "fzfg": false,
      "metar_trigger": false,
      "taf_trigger": false,
      "metar": "METAR EPKK 092100Z 22003KT 9999 FEW039 BKN045 01/M03 Q1020",
      "taf": "TAF EPKK 092030Z 0921/1021 VRB02KT 9999 SCT045"
    },
    {
      "icao": "EPKT",
      "alert": "OK",
      "vis_m": 9999,
      "fzfg": false,
      "metar_trigger": false,
      "taf_trigger": false,
      "metar": "METAR EPKT 092100Z 31003KT 9999 FEW021TCU M01/M04 Q1020",
      "taf": ""
    },
    {
      "icao": "EPLB",
      "alert": "OK",
      "vis_m": 9999,
      "fzfg": false,
      "metar_trigger": false,
      "taf_trigger": false,
      "metar": "METAR EPLB 092100Z 04002KT CAVOK 01/M00 Q1021",
      "taf": "TAF EPLB 091730Z 0918/1018 VRB05KT 9999 BKN020"
    },
    {
      "icao": "EPMO",
      "alert": "OK",
      "vis_m": 9999,
      "fzfg": false,
      "metar_trigger": false,
      "taf_trigger": false,
      "metar": "METAR EPMO 092100Z 02004KT CAVOK 00/M05 Q1022",
      "taf": "TAF EPMO 091730Z 0918/1018 04007KT CAVOK"
    },
    {
      "icao": "EPPO",
      "alert": "OK",
      "vis_m": 9999,
      "fzfg": false,
      "metar_trigger": false,
      "taf_trigger": false,
      "metar": "METAR EPPO 092100Z 07008KT CAVOK 02/M06 Q1022",
      "taf": "TAF EPPO 091730Z 0918/1018 09008KT CAVOK"
    },
    {
      "icao": "EPRA",
      "alert": "OK",
      "vis_m": 9999,
      "fzfg": false,
      "metar_trigger": false,
      "taf_trigger": false,
      "metar": "METAR EPRA 092100Z 05002KT CAVOK 02/M01 Q1021",
      "taf": "TAF EPRA 092030Z 0921/1006 06005KT 9999 SCT040"
    },
    {
      "icao": "EPRZ",
      "alert": "OK",
      "vis_m": 9999,
      "fzfg": false,
      "metar_trigger": false,
      "taf_trigger": false,
      "metar": "METAR EPRZ 092100Z 06003KT 9999 -SHRA SCT010CB 01/01 Q1020",
      "taf": "TAF EPRZ 091730Z 0918/1018 30010KT 9999 BKN030"
    },
    {
      "icao": "EPSC",
      "alert": "OK",
      "vis_m": 9999,
      "fzfg": false,
      "metar_trigger": false,
      "taf_trigger": false,
      "metar": "METAR EPSC 092100Z 04007KT 010V070 CAVOK 01/M04 Q1022",
      "taf": "TAF EPSC 091730Z 0918/1018 03010KT CAVOK"
    },
    {
      "icao": "EPSY",
      "alert": "OK",
      "vis_m": 9999,
      "fzfg": false,
      "metar_trigger": false,
      "taf_trigger": false,
      "metar": "METAR EPSY 092100Z 04003KT CAVOK 02/M04 Q1022",
      "taf": "TAF EPSY 092030Z 0921/1006 03006KT CAVOK"
    },
    {
      "icao": "EPWA",
      "alert": "OK",
      "vis_m": 9999,
      "fzfg": false,
      "metar_trigger": false,
      "taf_trigger": false,
      "metar": "METAR EPWA 092100Z 06006KT CAVOK 04/M05 Q1021 NOSIG",
      "taf": "TAF EPWA 092030Z 0921/1021 06005KT CAVOK"
    },
    {
      "icao": "EPWR",
      "alert": "OK",
      "vis_m": 9999,
      "fzfg": false,
      "metar_trigger": false,
      "taf_trigger": false,
      "metar": "METAR EPWR 092100Z 02005KT CAVOK 02/M04 Q1021",
      "taf": "TAF EPWR 092030Z 0921/1021 VRB02KT CAVOK"
    },
    {
      "icao": "ESGG",
      "alert": "OK",
      "vis_m": 9999,
      "fzfg": false,
      "metar_trigger": false,
      "taf_trigger": false,
      "metar": "METAR ESGG 092120Z 15005KT CAVOK 03/M03 Q1021",
      "taf": "TAF ESGG 092030Z 0921/1021 14008KT CAVOK"
    },
    {
      "icao": "ESKN",
      "alert": "OK",
      "vis_m": 9999,
      "fzfg": false,
      "metar_trigger": false,
      "taf_trigger": false,
      "metar": "METAR ESKN 092120Z 07003KT CAVOK M02/M03 Q1027",
      "taf": "TAF ESKN 092030Z 0921/1021 11006KT CAVOK"
    },
    {
      "icao": "ESMS",
      "alert": "OK",
      "vis_m": 9999,
      "fzfg": false,
      "metar_trigger": false,
      "taf_trigger": false,
      "metar": "METAR ESMS 092120Z 10013KT CAVOK 00/M04 Q1023",
      "taf": "TAF ESMS 092027Z 0921/1021 11008KT CAVOK"
    },
    {
      "icao": "ESSA",
      "alert": "OK",
      "vis_m": 9999,
      "fzfg": false,
      "metar_trigger": false,
      "taf_trigger": false,
      "metar": "METAR ESSA 092120Z VRB01KT CAVOK M04/M06 Q1027 NOSIG",
      "taf": "TAF ESSA 092030Z 0921/1021 12004KT CAVOK"
    },
    {
      "icao": "EYKA",
      "alert": "OK",
      "vis_m": 9999,
      "fzfg": false,
      "metar_trigger": false,
      "taf_trigger": false,
      "metar": "METAR EYKA 092120Z 33002KT 9999 BKN043 M00/M04 Q1024",
      "taf": "TAF EYKA 091700Z 0918/1018 VRB04KT 9000 BKN040"
    },
    {
      "icao": "EYPA",
      "alert": "OK",
      "vis_m": 9999,
      "fzfg": false,
      "metar_trigger": false,
      "taf_trigger": false,
      "metar": "METAR EYPA 092120Z 06004KT 9999 FEW049 M01/M05 Q1025",
      "taf": "TAF EYPA 091700Z 0918/1018 08010KT 9000 SCT040"
    },
    {
      "icao": "EYVI",
      "alert": "OK",
      "vis_m": 9999,
      "fzfg": false,
      "metar_trigger": false,
      "taf_trigger": false,
      "metar": "METAR EYVI 092120Z 34005KT 9999 OVC033 02/M04 Q1022 NOSIG",
      "taf": "TAF EYVI 091700Z 0918/1018 VRB04KT 9000 BKN035"
    },
    {
      "icao": "GCFV",
      "alert": "OK",
      "vis_m": 9999,
      "fzfg": false,
      "metar_trigger": false,
      "taf_trigger": false,
      "metar": "METAR GCFV 092100Z 33017KT 9999 FEW027 SCT032 18/10 Q1017",
      "taf": "TAF GCFV 092000Z 0921/1021 34010KT 9999 SCT030 TX21/1014Z TN15/1006Z"
    },
    {
      "icao": "GCLP",
      "alert": "OK",
      "vis_m": 9999,
      "fzfg": false,
      "metar_trigger": false,
      "taf_trigger": false,
      "metar": "METAR GCLP 092100Z 34011KT 9999 FEW035 17/12 Q1018 NOSIG",
      "taf": "TAF GCLP 092000Z 0921/1021 33020KT 9999 SCT030 TX22/1014Z TN15/1006Z"
    },
    {
      "icao": "GCTS",
      "alert": "OK",
      "vis_m": 9999,
      "fzfg": false,
      "metar_trigger": false,
      "taf_trigger": false,
      "metar": "METAR GCTS 092100Z 20006KT 170V230 9999 FEW030 18/13 Q1018 NOSIG",
      "taf": "TAF GCTS 092000Z 0921/1021 VRB09KT 9999 SCT030 TX23/1014Z TN15/1006Z"
    },
    {
      "icao": "GMAD",
      "alert": "OK",
      "vis_m": 8000,
      "fzfg": false,
      "metar_trigger": false,
      "taf_trigger": false,
      "metar": "METAR GMAD 092100Z 00000KT 8000 -RA FEW020 SCT030TCU BKN080 15/13 Q1013 NOSIG",
      "taf": "TAF GMAD 091700Z 0918/1024 18006KT 6000 SCT020 SCT080"
    },
    {
      "icao": "GMMN",
      "alert": "OK",
      "vis_m": 9999,
      "fzfg": false,
      "metar_trigger": false,
      "taf_trigger": false,
      "metar": "METAR GMMN 092100Z 02004KT 9999 FEW026 12/09 Q1015 NOSIG",
      "taf": "TAF GMMN 091700Z 0918/1024 03009KT 9999 SCT030"
    },
    {
      "icao": "GMMX",
      "alert": "OK",
      "vis_m": 5000,
      "fzfg": false,
      "metar_trigger": false,
      "taf_trigger": false,
      "metar": "METAR GMMX 092100Z 28005KT 5000 -RA SCT016 BKN020 12/09 Q1014 NOSIG",
      "taf": "TAF GMMX 091700Z 0918/1024 24015KT 8000 ST015 BKN023"
    },
    {
      "icao": "HEGN",
      "alert": "OK",
      "vis_m": 9999,
      "fzfg": false,
      "metar_trigger": false,
      "taf_trigger": false,
      "metar": "METAR HEGN 092100Z 00000KT CAVOK 21/00 Q1015 NOSIG",
      "taf": "TAF HEGN 091700Z 0918/1024 24010KT CAVOK"
    },
    {
      "icao": "HEMA",
      "alert": "OK",
      "vis_m": 9999,
      "fzfg": false,
      "metar_trigger": false,
      "taf_trigger": false,
      "metar": "METAR HEMA 092100Z 26007KT CAVOK 19/08 Q1015 NOSIG",
      "taf": "TAF HEMA 091700Z 0918/1024 23010KT CAVOK"
    },
    {
      "icao": "HESH",
      "alert": "OK",
      "vis_m": 9999,
      "fzfg": false,
      "metar_trigger": false,
      "taf_trigger": false,
      "metar": "METAR HESH 092100Z 03003KT CAVOK 21/13 Q1015 NOSIG",
      "taf": "TAF HESH 091700Z 0918/1024 26010KT CAVOK"
    },
    {
      "icao": "HESX",
      "alert": "OK",
      "vis_m": 9999,
      "fzfg": false,
      "metar_trigger": false,
      "taf_trigger": false,
      "metar": "METAR HESX 092100Z 32004KT CAVOK 17/09 Q1016 NOSIG",
      "taf": "TAF HESX 091700Z 0918/1024 27012KT CAVOK"
    },
    {
      "icao": "LATI",
      "alert": "OK",
      "vis_m": 9999,
      "fzfg": false,
      "metar_trigger": false,
      "taf_trigger": false,
      "metar": "METAR LATI 092120Z 17004KT CAVOK 09/04 Q1015 NOSIG",
      "taf": "TAF LATI 091700Z 0918/1018 VRB03KT CAVOK TX21/1013Z TN04/1003Z"
    },
    {
      "icao": "LBPD",
      "alert": "OK",
      "vis_m": 9999,
      "fzfg": false,
      "metar_trigger": false,
      "taf_trigger": false,
      "metar": "METAR LBPD 092100Z AUTO 00000KT 9999 SCT074/// OVC090/// 08/01 Q1016",
      "taf": "TAF LBPD 091700Z 0918/1018 32010KT 9999 SCT060"
    },
    {
      "icao": "LBSF",
      "alert": "OK",
      "vis_m": 9999,
      "fzfg": false,
      "metar_trigger": false,
      "taf_trigger": false,
      "metar": "METAR LBSF 092100Z AUTO 27002KT 9999 FEW073/// 03/M03 Q1016 NOSIG",
      "taf": "TAF LBSF 091700Z 0918/1018 31012KT 9999 SCT060"
    },
    {
      "icao": "LBWN",
      "alert": "OK",
      "vis_m": 9999,
      "fzfg": false,
      "metar_trigger": false,
      "taf_trigger": false,
      "metar": "METAR LBWN 092100Z AUTO VRB01KT 9999 NSC 05/05 Q1016 NOSIG",
      "taf": "TAF LBWN 091700Z 0918/1018 13010KT 7000 RA BKN040"
    },
    {
      "icao": "LCLK",
      "alert": "OK",
      "vis_m": 9999,
      "fzfg": false,
      "metar_trigger": false,
      "taf_trigger": false,
      "metar": "METAR LCLK 092100Z 25011KT 9999 FEW030 16/14 Q1011 NOSIG",
      "taf": "TAF LCLK 091730Z 0918/1018 25009KT 9999 FEW020 SCT050"
    },
    {
      "icao": "LCPH",
      "alert": "OK",
      "vis_m": 9999,
      "fzfg": false,
      "metar_trigger": false,
      "taf_trigger": false,
      "metar": "METAR LCPH 092100Z 26010KT 250V310 9999 SCT025 BKN040 18/14 Q1012 NOSIG",
      "taf": "TAF LCPH 091730Z 0918/1018 26010KT 9999 SCT018"
    },
    {
      "icao": "LEAL",
      "alert": "OK",
      "vis_m": 9999,
      "fzfg": false,
      "metar_trigger": false,
      "taf_trigger": false,
      "metar": "METAR LEAL 092100Z 05007KT CAVOK 19/09 Q1017 NOSIG",
      "taf": "TAF LEAL 091700Z 0918/1018 08010KT CAVOK TX26/1013Z TN15/1006Z"
    },
    {
      "icao": "LEBB",
      "alert": "OK",
      "vis_m": 9999,
      "fzfg": false,
      "metar_trigger": false,
      "taf_trigger": false,
      "metar": "METAR LEBB 092100Z 07003KT 010V140 9999 FEW025 13/12 Q1024 NOSIG",
      "taf": "TAF LEBB 091700Z 0918/1018 31009KT 9999 FEW010 TX30/1014Z TN11/1006Z"
    },
    {
      "icao": "LEBL",
      "alert": "OK",
      "vis_m": 9999,
      "fzfg": false,
      "metar_trigger": false,
      "taf_trigger": false,
      "metar": "METAR LEBL 092100Z 25006KT CAVOK 16/14 Q1018 NOSIG",
      "taf": "TAF LEBL 091700Z 0918/1018 20008KT 9999 FEW035 TX23/1012Z TN12/1006Z"
    },
    {
      "icao": "LECH",
      "alert": "OK",
      "vis_m": 9999,
      "fzfg": false,
      "metar_trigger": false,
      "taf_trigger": false,
      "metar": "METAR LECH 092100Z AUTO 19003KT CAVOK 16/02 Q1019",
      "taf": "TAF LECH 091700Z 0918/1018 VRB04KT CAVOK TX26/1014Z TN09/1006Z"
    },
    {
      "icao": "LEMD",
      "alert": "OK",
      "vis_m": 9999,
      "fzfg": false,
      "metar_trigger": false,
      "taf_trigger": false,
      "metar": "METAR LEMD 092100Z 32004KT 290V350 CAVOK 16/05 Q1018 NOSIG",
      "taf": "TAF LEMD 091700Z 0918/1024 01006KT CAVOK TX29/1015Z TN09/1006Z"
    },
    {
      "icao": "LEMG",
      "alert": "OK",
      "vis_m": 9999,
      "fzfg": false,
      "metar_trigger": false,
      "taf_trigger": false,
      "metar": "METAR LEMG 092100Z 28004KT 240V300 9999 FEW070 17/12 Q1013 NOSIG",
      "taf": "TAF LEMG 091700Z 0918/1018 29005KT 9999 FEW015 SCT025 TX24/1014Z TN14/1007Z"
    },
    {
      "icao": "LEVC",
      "alert": "OK",
      "vis_m": 9999,
      "fzfg": false,
      "metar_trigger": false,
      "taf_trigger": false,
      "metar": "METAR LEVC 092100Z 30004KT CAVOK 15/07 Q1019 NOSIG",
      "taf": "TAF LEVC 091700Z 0918/1018 VRB04KT 9999 FEW010 TX26/1013Z TN13/1006Z"
    },
    {
      "icao": "LEXJ",
      "alert": "OK",
      "vis_m": 9999,
      "fzfg": false,
      "metar_trigger": false,
      "taf_trigger": false,
      "metar": "METAR LEXJ 092100Z 25007KT 220V280 9999 BKN014 14/12 Q1024",
      "taf": "TAF LEXJ 092000Z 0921/1021 28007KT 9000 SCT010 TX24/1014Z TN12/1007Z"
    },
    {
      "icao": "LEZG",
      "alert": "OK",
      "vis_m": 9999,
      "fzfg": false,
      "metar_trigger": false,
      "taf_trigger": false,
      "metar": "METAR LEZG 092100Z 26008KT CAVOK 19/06 Q1018 NOSIG",
      "taf": "TAF LEZG 091700Z 0918/1018 VRB03KT CAVOK TX31/1015Z TN12/1006Z"
    },
    {
      "icao": "LEZL",
      "alert": "OK",
      "vis_m": 9999,
      "fzfg": false,
      "metar_trigger": false,
      "taf_trigger": false,
      "metar": "METAR LEZL 092100Z 27008KT CAVOK 18/12 Q1013 NOSIG",
      "taf": "TAF LEZL 092000Z 0921/1021 21006KT CAVOK TX26/1015Z TN11/1007Z"
    },
    {
      "icao": "LFBD",
      "alert": "OK",
      "vis_m": 9999,
      "fzfg": false,
      "metar_trigger": false,
      "taf_trigger": false,
      "metar": "METAR LFBD 092100Z AUTO 26008KT CAVOK 15/13 Q1020 BECMG 3000 BR BKN002",
      "taf": "TAF LFBD 091700Z 0918/1024 30010KT CAVOK TX26/1015Z TN13/1001Z"
    },
    {
      "icao": "LFLL",
      "alert": "OK",
      "vis_m": 9999,
      "fzfg": false,
      "metar_trigger": false,
      "taf_trigger": false,
      "metar": "METAR LFLL 092100Z VRB02KT CAVOK 17/09 Q1017 NOSIG",
      "taf": "TAF LFLL 091700Z 0918/1024 VRB02KT CAVOK"
    },
    {
      "icao": "LFLS",
      "alert": "OK",
      "vis_m": 9999,
      "fzfg": false,
      "metar_trigger": false,
      "taf_trigger": false,
      "metar": "METAR LFLS 092100Z AUTO 10005KT CAVOK 11/07 Q1018",
      "taf": "TAF LFLS 091400Z 0915/1015 09005KT CAVOK"
    },
    {
      "icao": "LFMN",
      "alert": "OK",
      "vis_m": 9999,
      "fzfg": false,
      "metar_trigger": false,
      "taf_trigger": false,
      "metar": "METAR LFMN 092100Z 08006KT 9999 BKN012 16/13 Q1015 NOSIG",
      "taf": "TAF LFMN 092000Z 0921/1103 VRB03KT 9999 FEW012"
    },
    {
      "icao": "LFOB",
      "alert": "OK",
      "vis_m": 9999,
      "fzfg": false,
      "metar_trigger": false,
      "taf_trigger": false,
      "metar": "METAR LFOB 092100Z AUTO 30016KT 9999 FEW022 OVC150 12/08 Q1020 TEMPO BKN014 BECMG 31015G25KT",
      "taf": "TAF LFOB 091700Z 0918/1018 31015G25KT CAVOK"
    },
    {
      "icao": "LFPO",
      "alert": "OK",
      "vis_m": 9999,
      "fzfg": false,
      "metar_trigger": false,
      "taf_trigger": false,
      "metar": "METAR LFPO 092100Z 31014KT CAVOK 16/07 Q1019 NOSIG",
      "taf": "TAF LFPO 091700Z 0918/1024 27008KT CAVOK"
    },
    {
      "icao": "LFSB",
      "alert": "OK",
      "vis_m": 9999,
      "fzfg": false,
      "metar_trigger": false,
      "taf_trigger": false,
      "metar": "METAR LFSB 092100Z AUTO 24004KT CAVOK 11/06 Q1017 NOSIG",
      "taf": "TAF LFSB 091700Z 0918/1018 VRB03KT CAVOK"
    },
    {
      "icao": "LGAV",
      "alert": "OK",
      "vis_m": 9999,
      "fzfg": false,
      "metar_trigger": false,
      "taf_trigger": false,
      "metar": "METAR LGAV 092120Z 26004KT 9999 FEW030 08/06 Q1015 NOSIG",
      "taf": "TAF LGAV 091700Z 0918/1018 VRB05KT 9999 SCT030"
    },
    {
      "icao": "LGTS",
      "alert": "OK",
      "vis_m": 9999,
      "fzfg": false,
      "metar_trigger": false,
      "taf_trigger": false,
      "metar": "METAR LGTS 092120Z 10004KT 9999 FEW020 09/06 Q1015 NOSIG",
      "taf": "TAF LGTS 091700Z 0918/1018 VRB03KT 9999 FEW025"
    },
    {
      "icao": "LHBP",
      "alert": "OK",
      "vis_m": 9999,
      "fzfg": false,
      "metar_trigger": false,
      "taf_trigger": false,
      "metar": "METAR LHBP 092100Z 07011KT 030V100 CAVOK 04/M02 Q1018 NOSIG",
      "taf": "TAF LHBP 091715Z 0918/1018 30009KT CAVOK"
    },
    {
      "icao": "LHDC",
      "alert": "OK",
      "vis_m": 9999,
      "fzfg": false,
      "metar_trigger": false,
      "taf_trigger": false,
      "metar": "METAR LHDC 092045Z AUTO 03012G22KT 360V060 CAVOK 06/M04 Q1018",
      "taf": "TAF LHDC 091415Z 0915/0924 03008KT CAVOK"
    },
    {
      "icao": "LIBD",
      "alert": "OK",
      "vis_m": 9999,
      "fzfg": false,
      "metar_trigger": false,
      "taf_trigger": false,
      "metar": "METAR LIBD 092120Z 23006KT CAVOK 12/06 Q1015",
      "taf": "TAF LIBD 091700Z 0918/1018 22006KT CAVOK"
    },
    {
      "icao": "LIBG",
      "alert": "OK",
      "vis_m": null,
      "fzfg": false,
      "metar_trigger": false,
      "taf_trigger": false,
      "metar": "",
      "taf": "TAF LIBG 091400Z 0915/0924 01012KT CAVOK"
    },
    {
      "icao": "LIBP",
      "alert": "OK",
      "vis_m": 9999,
      "fzfg": false,
      "metar_trigger": false,
      "taf_trigger": false,
      "metar": "METAR LIBP 092120Z AUTO VRB01KT 9999 FEW210/// 10/08 Q1015",
      "taf": "TAF LIBP 091700Z 0918/1018 VRB05KT CAVOK"
    },
    {
      "icao": "LIBR",
      "alert": "OK",
      "vis_m": 9999,
      "fzfg": false,
      "metar_trigger": false,
      "taf_trigger": false,
      "metar": "METAR LIBR 092120Z 24005KT CAVOK 11/04 Q1016",
      "taf": "TAF LIBR 091700Z 0918/1018 33011KT CAVOK"
    },
    {
      "icao": "LICA",
      "alert": "OK",
      "vis_m": 9999,
      "fzfg": false,
      "metar_trigger": false,
      "taf_trigger": false,
      "metar": "METAR LICA 092120Z AUTO 22002KT 9999 NCD 11/10 Q1018",
      "taf": "TAF LICA 091700Z 0918/1018 26012KT 9999 FEW020"
    },
    {
      "icao": "LICC",
      "alert": "OK",
      "vis_m": 9999,
      "fzfg": false,
      "metar_trigger": false,
      "taf_trigger": false,
      "metar": "METAR LICC 092120Z 24006KT CAVOK 12/07 Q1017",
      "taf": "TAF LICC 091700Z 0918/1018 VRB05KT CAVOK"
    },
    {
      "icao": "LICJ",
      "alert": "OK",
      "vis_m": 9999,
      "fzfg": false,
      "metar_trigger": false,
      "taf_trigger": false,
      "metar": "METAR LICJ 092120Z 24003KT CAVOK 16/07 Q1017",
      "taf": "TAF LICJ 091700Z 0918/1018 VRB05KT CAVOK"
    },
    {
      "icao": "LIMC",
      "alert": "OK",
      "vis_m": 9999,
      "fzfg": false,
      "metar_trigger": false,
      "taf_trigger": false,
      "metar": "METAR LIMC 092120Z 07002KT CAVOK 14/10 Q1015 NOSIG",
      "taf": "TAF LIMC 091700Z 0918/1024 VRB05KT CAVOK"
    },
    {
      "icao": "LIME",
      "alert": "OK",
      "vis_m": 9999,
      "fzfg": false,
      "metar_trigger": false,
      "taf_trigger": false,
      "metar": "METAR LIME 092120Z 02003KT CAVOK 13/08 Q1015 NOSIG",
      "taf": "TAF LIME 091700Z 0918/1018 VRB05KT CAVOK"
    },
    {
      "icao": "LIMF",
      "alert": "OK",
      "vis_m": 9999,
      "fzfg": false,
      "metar_trigger": false,
      "taf_trigger": false,
      "metar": "METAR LIMF 092120Z 33003KT CAVOK 17/09 Q1014",
      "taf": "TAF LIMF 091700Z 0918/1018 VRB05KT CAVOK"
    },
    {
      "icao": "LIMJ",
      "alert": "OK",
      "vis_m": 9999,
      "fzfg": false,
      "metar_trigger": false,
      "taf_trigger": false,
      "metar": "METAR LIMJ 092120Z 08004KT 040V120 CAVOK 14/11 Q1015",
      "taf": "TAF LIMJ 091700Z 0918/1018 VRB05KT 9999 FEW015"
    },
    {
      "icao": "LIPE",
      "alert": "OK",
      "vis_m": 9999,
      "fzfg": false,
      "metar_trigger": false,
      "taf_trigger": false,
      "metar": "METAR LIPE 092120Z 08005KT CAVOK 12/M00 Q1015",
      "taf": "TAF LIPE 091700Z 0918/1018 10010KT CAVOK"
    },
    {
      "icao": "LIPH",
      "alert": "OK",
      "vis_m": 9999,
      "fzfg": false,
      "metar_trigger": false,
      "taf_trigger": false,
      "metar": "METAR LIPH 092050Z VRB01KT CAVOK 10/07 Q1016",
      "taf": "TAF LIPH 091700Z 0918/1018 VRB05KT CAVOK"
    },
    {
      "icao": "LIPQ",
      "alert": "OK",
      "vis_m": 9999,
      "fzfg": false,
      "metar_trigger": false,
      "taf_trigger": false,
      "metar": "METAR LIPQ 092120Z AUTO VRB01KT 9999 NCD 07/06 Q1016",
      "taf": "TAF LIPQ 091700Z 0918/1018 VRB05KT CAVOK"
    },
    {
      "icao": "LIPR",
      "alert": "OK",
      "vis_m": 9999,
      "fzfg": false,
      "metar_trigger": false,
      "taf_trigger": false,
      "metar": "METAR LIPR 092120Z AUTO 23001KT 9999 SCT070/// 11/09 Q1015",
      "taf": "TAF LIPR 091700Z 0918/1018 VRB05KT CAVOK"
    },
    {
      "icao": "LIPX",
      "alert": "OK",
      "vis_m": 9999,
      "fzfg": false,
      "metar_trigger": false,
      "taf_trigger": false,
      "metar": "METAR LIPX 092120Z 12004KT CAVOK 12/07 Q1016",
      "taf": "TAF LIPX 091700Z 0918/1018 10006KT CAVOK"
    },
    {
      "icao": "LIPY",
      "alert": "OK",
      "vis_m": 9999,
      "fzfg": false,
      "metar_trigger": false,
      "taf_trigger": false,
      "metar": "METAR LIPY 092120Z AUTO 22003KT 180V240 9999 FEW092/// 10/07 Q1015",
      "taf": "TAF LIPY 091700Z 0918/1018 VRB05KT CAVOK"
    },
    {
      "icao": "LIPZ",
      "alert": "OK",
      "vis_m": 9999,
      "fzfg": false,
      "metar_trigger": false,
      "taf_trigger": false,
      "metar": "METAR LIPZ 092120Z 36002KT CAVOK 11/08 Q1016 NOSIG",
      "taf": "TAF LIPZ 091700Z 0918/1024 VRB05KT CAVOK"
    },
    {
      "icao": "LIRF",
      "alert": "OK",
      "vis_m": 9000,
      "fzfg": false,
      "metar_trigger": false,
      "taf_trigger": false,
      "metar": "METAR LIRF 092120Z VRB01KT 9000 NSC 12/12 Q1016 NOSIG",
      "taf": ""
    },
    {
      "icao": "LIRN",
      "alert": "OK",
      "vis_m": 9999,
      "fzfg": false,
      "metar_trigger": false,
      "taf_trigger": false,
      "metar": "METAR LIRN 092120Z AUTO VRB02KT 9999 NCD 14/13 Q1017",
      "taf": "TAF LIRN 091700Z 0918/1018 VRB05KT 9999 FEW020"
    },
    {
      "icao": "LIRP",
      "alert": "OK",
      "vis_m": 3000,
      "fzfg": false,
      "metar_trigger": false,
      "taf_trigger": false,
      "metar": "METAR LIRP 092115Z 18001KT 3000 BR SCT080 11/10 Q1016 TEMPO 3000",
      "taf": "TAF LIRP 091700Z 0918/1018 25005KT CAVOK"
    },
    {
      "icao": "LIRZ",
      "alert": "OK",
      "vis_m": 9999,
      "fzfg": false,
      "metar_trigger": false,
      "taf_trigger": false,
      "metar": "METAR LIRZ 092120Z AUTO VRB02KT 9999 NCD 15/03 Q1015",
      "taf": "TAF LIRZ 091700Z 0918/1018 VRB05KT CAVOK"
    },
    {
      "icao": "LJLJ",
      "alert": "OK",
      "vis_m": 9999,
      "fzfg": false,
      "metar_trigger": false,
      "taf_trigger": false,
      "metar": "METAR LJLJ 092100Z VRB01KT CAVOK 05/00 Q1017 NOSIG",
      "taf": "TAF LJLJ 091700Z 0918/1018 VRB02KT CAVOK"
    },
    {
      "icao": "LKMT",
      "alert": "OK",
      "vis_m": 9999,
      "fzfg": false,
      "metar_trigger": false,
      "taf_trigger": false,
      "metar": "METAR LKMT 092100Z 06005KT CAVOK M01/M04 Q1020 NOSIG",
      "taf": "TAF LKMT 091700Z 0918/1018 01008KT CAVOK"
    },
    {
      "icao": "LKPR",
      "alert": "OK",
      "vis_m": 9999,
      "fzfg": false,
      "metar_trigger": false,
      "taf_trigger": false,
      "metar": "METAR LKPR 092100Z 09008KT CAVOK 02/M07 Q1019 NOSIG",
      "taf": "TAF LKPR 092000Z 0921/1103 10006KT CAVOK"
    },
    {
      "icao": "LLBG",
      "alert": "OK",
      "vis_m": 9999,
      "fzfg": false,
      "metar_trigger": false,
      "taf_trigger": false,
      "metar": "METAR LLBG 092120Z VRB03KT CAVOK 14/09 Q1015 NOSIG",
      "taf": "TAF LLBG 091704Z 0918/1018 VRB04KT CAVOK TX22/1010Z TN13/1003Z"
    },
    {
      "icao": "LMML",
      "alert": "OK",
      "vis_m": 9999,
      "fzfg": false,
      "metar_trigger": false,
      "taf_trigger": false,
      "metar": "METAR LMML 092115Z 28004KT CAVOK 14/09 Q1018 NOSIG",
      "taf": "TAF LMML 091700Z 0918/1018 VRB05KT CAVOK"
    },
    {
      "icao": "LOWW",
      "alert": "OK",
      "vis_m": 9999,
      "fzfg": false,
      "metar_trigger": false,
      "taf_trigger": false,
      "metar": "METAR LOWW 092120Z 01006KT CAVOK 04/M04 Q1019 NOSIG",
      "taf": "TAF LOWW 092015Z 0921/1103 36008KT CAVOK TX06/1011Z TN00/1004Z"
    },
    {
      "icao": "LPFR",
      "alert": "OK",
      "vis_m": 9999,
      "fzfg": false,
      "metar_trigger": false,
      "taf_trigger": false,
      "metar": "METAR LPFR 092100Z 35009KT 9999 -RA FEW020 16/13 Q1013",
      "taf": "TAF LPFR 091700Z 0918/1018 29007KT 9999 SCT030"
    },
    {
      "icao": "LPMA",
      "alert": "OK",
      "vis_m": 9999,
      "fzfg": false,
      "metar_trigger": false,
      "taf_trigger": false,
      "metar": "METAR LPMA 092100Z 35013G25KT 310V020 9999 SCT015 16/08 Q1019",
      "taf": "TAF LPMA 091700Z 0918/1018 36015KT 9999 SCT015"
    },
    {
      "icao": "LPPR",
      "alert": "OK",
      "vis_m": 9999,
      "fzfg": false,
      "metar_trigger": false,
      "taf_trigger": false,
      "metar": "METAR LPPR 092100Z 05008KT 020V080 CAVOK 24/14 Q1015",
      "taf": "TAF LPPR 091700Z 0918/1018 35008KT CAVOK"
    },
    {
      "icao": "LPPS",
      "alert": "OK",
      "vis_m": 9999,
      "fzfg": false,
      "metar_trigger": false,
      "taf_trigger": false,
      "metar": "METAR LPPS 092100Z 33015KT 9999 FEW015 BKN030 15/11 Q1020",
      "taf": "TAF LPPS 091700Z 0918/1024 01015KT 9999 SCT012 SCT030"
    },
    {
      "icao": "LPPT",
      "alert": "OK",
      "vis_m": 9999,
      "fzfg": false,
      "metar_trigger": false,
      "taf_trigger": false,
      "metar": "METAR LPPT 092100Z 28003KT CAVOK 17/13 Q1014",
      "taf": "TAF LPPT 091700Z 0918/1024 34012KT 9999 SCT030"
    },
    {
      "icao": "LQBK",
      "alert": "OK",
      "vis_m": 9999,
      "fzfg": false,
      "metar_trigger": false,
      "taf_trigger": false,
      "metar": "METAR LQBK 092100Z 17004KT 150V210 CAVOK 03/M01 Q1018 NOSIG",
      "taf": "TAF LQBK 091700Z 0918/1018 29005KT CAVOK TX15/1013Z TN00/1004Z"
    },
    {
      "icao": "LQSA",
      "alert": "OK",
      "vis_m": 9999,
      "fzfg": false,
      "metar_trigger": false,
      "taf_trigger": false,
      "metar": "METAR LQSA 092100Z 13004KT CAVOK 03/M04 Q1017 NOSIG",
      "taf": "TAF LQSA 091700Z 0918/1018 32006KT CAVOK TX17/1014Z TNM02/1005Z"
    },
    {
      "icao": "LQTZ",
      "alert": "OK",
      "vis_m": 9999,
      "fzfg": false,
      "metar_trigger": false,
      "taf_trigger": false,
      "metar": "METAR LQTZ 092100Z VRB02KT CAVOK 03/M01 Q1018",
      "taf": "TAF LQTZ 091700Z 0918/1018 VRB03KT CAVOK TX14/1013Z TNM01/1004Z"
    },
    {
      "icao": "LRBC",
      "alert": "OK",
      "vis_m": 9999,
      "fzfg": false,
      "metar_trigger": false,
      "taf_trigger": false,
      "metar": "METAR LRBC 092100Z 32010KT 9999 FEW032 02/M02 Q1018",
      "taf": "TAF LRBC 092000Z 0921/1006 34012KT 9999 SCT035"
    },
    {
      "icao": "LRBS",
      "alert": "OK",
      "vis_m": 9999,
      "fzfg": false,
      "metar_trigger": false,
      "taf_trigger": false,
      "metar": "METAR LRBS 092100Z 05004KT 9999 SCT031 SCT037 BKN049 05/03 Q1017 NOSIG",
      "taf": "TAF LRBS 091700Z 0918/1018 VRB04KT CAVOK"
    },
    {
      "icao": "LRBV",
      "alert": "OK",
      "vis_m": 9999,
      "fzfg": false,
      "metar_trigger": false,
      "taf_trigger": false,
      "metar": "METAR LRBV 092100Z AUTO 06004KT 9999 FEW005/// OVC027/// 01/01 Q1016",
      "taf": "TAF LRBV 092000Z 0921/1006 29006KT 9999 SCT020 BKN040"
    },
    {
      "icao": "LRCL",
      "alert": "OK",
      "vis_m": 9999,
      "fzfg": false,
      "metar_trigger": false,
      "taf_trigger": false,
      "metar": "METAR LRCL 092100Z 29004KT 9999 BKN053 02/M03 Q1017",
      "taf": "TAF LRCL 092000Z 0921/1006 VRB04KT CAVOK"
    },
    {
      "icao": "LRCV",
      "alert": "OK",
      "vis_m": 9999,
      "fzfg": false,
      "metar_trigger": false,
      "taf_trigger": false,
      "metar": "METAR LRCV 092100Z 04005KT CAVOK 06/02 Q1016",
      "taf": "TAF LRCV 092000Z 0921/1006 VRB04KT CAVOK"
    },
    {
      "icao": "LRIA",
      "alert": "OK",
      "vis_m": 9999,
      "fzfg": false,
      "metar_trigger": false,
      "taf_trigger": false,
      "metar": "METAR LRIA 092100Z 30009KT 9999 -RA BKN012 03/00 Q1017",
      "taf": "TAF LRIA 092000Z 0921/1006 30009KT 9999 SCT025"
    },
    {
      "icao": "LROP",
      "alert": "OK",
      "vis_m": 9999,
      "fzfg": false,
      "metar_trigger": false,
      "taf_trigger": false,
      "metar": "METAR LROP 092100Z 07004KT 9999 BKN040 06/01 Q1017 NOSIG",
      "taf": "TAF LROP 091700Z 0918/1018 VRB04KT CAVOK"
    },
    {
      "icao": "LRSB",
      "alert": "OK",
      "vis_m": 9999,
      "fzfg": false,
      "metar_trigger": false,
      "taf_trigger": false,
      "metar": "METAR LRSB 092100Z 27007KT 9999 SCT063 BKN087 02/01 Q1017",
      "taf": "TAF LRSB 091700Z 0918/1018 VRB04KT 9999 SCT045"
    },
    {
      "icao": "LRSM",
      "alert": "OK",
      "vis_m": 9999,
      "fzfg": false,
      "metar_trigger": false,
      "taf_trigger": false,
      "metar": "METAR LRSM 092100Z 01005KT CAVOK 02/M05 Q1018",
      "taf": "TAF LRSM 092000Z 0921/1006 35006KT CAVOK"
    },
    {
      "icao": "LRSV",
      "alert": "OK",
      "vis_m": 9999,
      "fzfg": false,
      "metar_trigger": false,
      "taf_trigger": false,
      "metar": "METAR LRSV 092100Z 31009KT 9999 FEW030 01/M02 Q1017",
      "taf": "TAF LRSV 092000Z 0921/1006 32010KT 9999 SCT035"
    },
    {
      "icao": "LRTM",
      "alert": "OK",
      "vis_m": 9999,
      "fzfg": false,
      "metar_trigger": false,
      "taf_trigger": false,
      "metar": "METAR LRTM 092100Z 07002KT 9999 FEW046 02/M01 Q1017",
      "taf": "TAF LRTM 092000Z 0921/1006 VRB04KT CAVOK"
    },
    {
      "icao": "LRTR",
      "alert": "OK",
      "vis_m": 9999,
      "fzfg": false,
      "metar_trigger": false,
      "taf_trigger": false,
      "metar": "METAR LRTR 092100Z 00000KT CAVOK 03/01 Q1017 NOSIG",
      "taf": "TAF LRTR 091700Z 0918/1018 09007KT CAVOK"
    },
    {
      "icao": "LTAC",
      "alert": "OK",
      "vis_m": 9999,
      "fzfg": false,
      "metar_trigger": false,
      "taf_trigger": false,
      "metar": "METAR LTAC 092120Z VRB02KT 9999 SCT040 BKN080 03/M02 Q1012 NOSIG",
      "taf": "TAF LTAC 091640Z 0918/1018 30008KT 9999 SCT040 BKN100"
    },
    {
      "icao": "LTFM",
      "alert": "OK",
      "vis_m": 9999,
      "fzfg": false,
      "metar_trigger": false,
      "taf_trigger": false,
      "metar": "METAR LTFM 092120Z 36007KT 9999 SCT035 BKN090 08/04 Q1016 NOSIG",
      "taf": "TAF LTFM 091640Z 0918/1024 VRB02KT 9999 SCT035 BKN090"
    },
    {
      "icao": "LUKK",
      "alert": "OK",
      "vis_m": 9999,
      "fzfg": false,
      "metar_trigger": false,
      "taf_trigger": false,
      "metar": "METAR LUKK 092100Z 33006KT 9999 FEW018 SCT024CB BKN039 04/01 Q1016 TEMPO SCT030CB",
      "taf": "TAF LUKK 091702Z 0918/1018 32009KT 9999 SCT040"
    },
    {
      "icao": "LWOH",
      "alert": "OK",
      "vis_m": null,
      "fzfg": false,
      "metar_trigger": false,
      "taf_trigger": false,
      "metar": "",
      "taf": "TAF LWOH 092025Z 0921/1021 34005KT CAVOK"
    },
    {
      "icao": "LWSK",
      "alert": "OK",
      "vis_m": 9999,
      "fzfg": false,
      "metar_trigger": false,
      "taf_trigger": false,
      "metar": "METAR LWSK 092120Z 02007KT CAVOK 07/M01 Q1017 NOSIG",
      "taf": "TAF LWSK 092025Z 0921/1021 02015KT CAVOK"
    },
    {
      "icao": "LYBE",
      "alert": "OK",
      "vis_m": 9999,
      "fzfg": false,
      "metar_trigger": false,
      "taf_trigger": false,
      "metar": "METAR LYBE 092100Z 16004KT CAVOK 05/M00 Q1018 NOSIG",
      "taf": "TAF LYBE 091700Z 0918/1018 24005KT CAVOK TX13/1013Z TN01/1004Z"
    },
    {
      "icao": "LYNI",
      "alert": "OK",
      "vis_m": 9999,
      "fzfg": false,
      "metar_trigger": false,
      "taf_trigger": false,
      "metar": "METAR LYNI 092100Z 35006KT CAVOK 04/M02 Q1018 NOSIG",
      "taf": "TAF LYNI 091700Z 0918/1018 32006KT 9999 SCT060 TX15/1012Z TN00/1004Z"
    },
    {
      "icao": "LYPG",
      "alert": "OK",
      "vis_m": 9999,
      "fzfg": false,
      "metar_trigger": false,
      "taf_trigger": false,
      "metar": "METAR LYPG 092100Z 22004KT CAVOK 12/03 Q1015 NOSIG",
      "taf": "TAF LYPG 091700Z 0918/1018 32008KT CAVOK TX22/1013Z TN06/1004Z"
    },
    {
      "icao": "LZIB",
      "alert": "OK",
      "vis_m": 9999,
      "fzfg": false,
      "metar_trigger": false,
      "taf_trigger": false,
      "metar": "METAR LZIB 092100Z 03004KT CAVOK 05/M07 Q1018 NOSIG",
      "taf": "TAF LZIB 091715Z 0918/1018 34009KT CAVOK"
    },
    {
      "icao": "LZKZ",
      "alert": "OK",
      "vis_m": 9999,
      "fzfg": false,
      "metar_trigger": false,
      "taf_trigger": false,
      "metar": "METAR LZKZ 092100Z 02010KT CAVOK 02/M05 Q1019 NOSIG",
      "taf": "TAF LZKZ 091715Z 0918/1018 36007KT CAVOK"
    },
    {
      "icao": "LZTT",
      "alert": "OK",
      "vis_m": 9999,
      "fzfg": false,
      "metar_trigger": false,
      "taf_trigger": false,
      "metar": "METAR LZTT 092100Z 08011KT 9999 BKN030 M01/M06 Q1018",
      "taf": "TAF LZTT 091715Z 0918/1018 07007KT 9999 FEW050"
    },
    {
      "icao": "OEJN",
      "alert": "OK",
      "vis_m": 9999,
      "fzfg": false,
      "metar_trigger": false,
      "taf_trigger": false,
      "metar": "METAR OEJN 092100Z 34007KT CAVOK 23/10 Q1013 NOSIG",
      "taf": "TAF OEJN 091700Z 0918/1024 33010KT CAVOK"
    },
    {
      "icao": "OEMA",
      "alert": "OK",
      "vis_m": 9999,
      "fzfg": false,
      "metar_trigger": false,
      "taf_trigger": false,
      "metar": "METAR OEMA 092100Z 33002KT CAVOK 22/M12 Q1016 NOSIG",
      "taf": "TAF OEMA 091700Z 0918/1024 VRB03KT CAVOK"
    },
    {
      "icao": "OJAI",
      "alert": "OK",
      "vis_m": 5000,
      "fzfg": false,
      "metar_trigger": false,
      "taf_trigger": false,
      "metar": "METAR OJAI 092100Z 22002KT 5000 HZ NSC 08/03 Q1017 NOSIG",
      "taf": "TAF OJAI 091700Z 0918/1024 28010KT 5000 HZ NSC"
    },
    {
      "icao": "OMAA",
      "alert": "OK",
      "vis_m": null,
      "fzfg": false,
      "metar_trigger": false,
      "taf_trigger": false,
      "metar": "",
      "taf": ""
    },
    {
      "icao": "OMDB",
      "alert": "OK",
      "vis_m": null,
      "fzfg": false,
      "metar_trigger": false,
      "taf_trigger": false,
      "metar": "",
      "taf": ""
    },
    {
      "icao": "UAAA",
      "alert": "OK",
      "vis_m": 9999,
      "fzfg": false,
      "metar_trigger": false,
      "taf_trigger": false,
      "metar": "METAR UAAA 092100Z 17001MPS 9999 -SHRA BKN050CB OVC100 10/09 Q1019 NOSIG",
      "taf": "TAF UAAA 091704Z 0918/1018 17003G08MPS 5000 -SHRA BR BKN020CB OVC050 TX18/1008Z TN08/1001Z"
    },
    {
      "icao": "UBBB",
      "alert": "OK",
      "vis_m": 9999,
      "fzfg": false,
      "metar_trigger": false,
      "taf_trigger": false,
      "metar": "METAR UBBB 092100Z 01004KT CAVOK 08/06 Q1016 NOSIG",
      "taf": "TAF UBBB 091704Z 0918/1018 36008KT 9999 BKN020 TX15/1010Z TN07/1001Z"
    },
    {
      "icao": "UDSG",
      "alert": "OK",
      "vis_m": 5000,
      "fzfg": false,
      "metar_trigger": false,
      "taf_trigger": false,
      "metar": "METAR UDSG 092100Z 08006KT 5000 -SHSN BR BKN026CB 00/00 Q1014 NOSIG",
      "taf": "TAF UDSG 091658Z 0918/1018 24006KT 9999 BKN040"
    },
    {
      "icao": "UDYZ",
      "alert": "OK",
      "vis_m": 9999,
      "fzfg": false,
      "metar_trigger": false,
      "taf_trigger": false,
      "metar": "METAR UDYZ 092100Z 10003KT 9999 -SHRA OVC043CB 09/06 Q1012 NOSIG",
      "taf": ""
    },
    {
      "icao": "UGKO",
      "alert": "OK",
      "vis_m": 9999,
      "fzfg": false,
      "metar_trigger": false,
      "taf_trigger": false,
      "metar": "METAR UGKO 092100Z 06008KT CAVOK 06/04 Q1014 NOSIG",
      "taf": "TAF UGKO 091700Z 0918/1018 08010KT 9999 SCT020 OVC050 TX12/1011Z TN05/1003Z"
    }
  ]
}