{
  "ts_utc": "2026-06-06T17:55:46Z",
  "threshold_m": 150,
  "source": "stations_override.txt (ICAO list) + aviationweather.gov (METAR/TAF raw)",
  "station_count": 159,
  "stations": [
    {
      "icao": "BIKF",
      "alert": "OK",
      "vis_m": 9999,
      "fzfg": false,
      "metar_trigger": false,
      "taf_trigger": false,
      "metar": "METAR BIKF 061730Z 14014KT 110V170 9999 BKN036 11/03 Q0994",
      "taf": "TAF BIKF 061647Z 0618/0718 14012KT 9999 SCT020 BKN037 TX11/0715Z TN05/0704Z"
    },
    {
      "icao": "BKPR",
      "alert": "OK",
      "vis_m": 9999,
      "fzfg": false,
      "metar_trigger": false,
      "taf_trigger": false,
      "metar": "METAR BKPR 061700Z 22006KT 9999 FEW050 28/09 Q1016 NOSIG",
      "taf": "TAF BKPR 061130Z 0612/0712 02008KT 9999 FEW050"
    },
    {
      "icao": "EBCI",
      "alert": "OK",
      "vis_m": 9999,
      "fzfg": false,
      "metar_trigger": false,
      "taf_trigger": false,
      "metar": "METAR EBCI 061720Z 21010KT 9999 VCTS FEW018CB SCT045 16/12 Q1014 TEMPO 22020G35KT 4000 TSRA",
      "taf": "TAF EBCI 061706Z 0618/0724 23012KT 9999 FEW025 SCT040"
    },
    {
      "icao": "EDDB",
      "alert": "OK",
      "vis_m": 9999,
      "fzfg": false,
      "metar_trigger": false,
      "taf_trigger": false,
      "metar": "METAR EDDB 061750Z AUTO 15005KT CAVOK 23/10 Q1015 NOSIG",
      "taf": "TAF EDDB 061700Z 0618/0718 17004KT CAVOK"
    },
    {
      "icao": "EDDH",
      "alert": "OK",
      "vis_m": 9999,
      "fzfg": false,
      "metar_trigger": false,
      "taf_trigger": false,
      "metar": "METAR EDDH 061750Z AUTO 05004KT 010V070 CAVOK 20/16 Q1013 NOSIG",
      "taf": "TAF EDDH 061700Z 0618/0724 VRB03KT 9999 SCT030"
    },
    {
      "icao": "EDDK",
      "alert": "OK",
      "vis_m": 9999,
      "fzfg": false,
      "metar_trigger": false,
      "taf_trigger": false,
      "metar": "METAR EDDK 061750Z AUTO 10004KT 060V200 9999 VCSH FEW///TCU 16/14 Q1014 TEMPO SHRA",
      "taf": "TAF EDDK 061700Z 0618/0724 19006KT CAVOK"
    },
    {
      "icao": "EDDN",
      "alert": "OK",
      "vis_m": 9999,
      "fzfg": false,
      "metar_trigger": false,
      "taf_trigger": false,
      "metar": "METAR EDDN 061750Z AUTO 12003KT 9999 VCSH FEW045 FEW///TCU 19/14 Q1016 RESHRA NOSIG",
      "taf": "TAF EDDN 061700Z 0618/0718 VRB03KT CAVOK"
    },
    {
      "icao": "EDDS",
      "alert": "OK",
      "vis_m": 9999,
      "fzfg": false,
      "metar_trigger": false,
      "taf_trigger": false,
      "metar": "METAR EDDS 061750Z AUTO 25009KT 200V270 CAVOK 22/07 Q1017 NOSIG",
      "taf": "TAF EDDS 061700Z 0618/0718 25007KT CAVOK"
    },
    {
      "icao": "EDFH",
      "alert": "OK",
      "vis_m": 9999,
      "fzfg": false,
      "metar_trigger": false,
      "taf_trigger": false,
      "metar": "METAR EDFH 061720Z 22007KT CAVOK 18/08 Q1016",
      "taf": "TAF EDFH 061700Z 0618/0718 22008KT 9999 SCT040"
    },
    {
      "icao": "EDJA",
      "alert": "OK",
      "vis_m": 9999,
      "fzfg": false,
      "metar_trigger": false,
      "taf_trigger": false,
      "metar": "METAR EDJA 061720Z 24011KT 210V270 9999 FEW056 20/09 Q1016",
      "taf": "TAF EDJA 061700Z 0618/0703 22008KT 9999 FEW050"
    },
    {
      "icao": "EDLW",
      "alert": "OK",
      "vis_m": 9999,
      "fzfg": false,
      "metar_trigger": false,
      "taf_trigger": false,
      "metar": "METAR EDLW 061720Z 24005KT 210V280 9999 -SHRA FEW045TCU 16/13 Q1014",
      "taf": "TAF EDLW 061700Z 0618/0718 20007KT CAVOK"
    },
    {
      "icao": "EDNY",
      "alert": "OK",
      "vis_m": 9999,
      "fzfg": false,
      "metar_trigger": false,
      "taf_trigger": false,
      "metar": "METAR EDNY 061720Z 20005KT 150V250 9999 FEW042 22/11 Q1017",
      "taf": "TAF EDNY 061700Z 0618/0703 22005KT 9999 FEW040"
    },
    {
      "icao": "EDSB",
      "alert": "OK",
      "vis_m": 9999,
      "fzfg": false,
      "metar_trigger": false,
      "taf_trigger": false,
      "metar": "METAR EDSB 061720Z VRB02KT CAVOK 22/11 Q1016",
      "taf": "TAF EDSB 061700Z 0618/0718 22007KT 9999 SCT045"
    },
    {
      "icao": "EETN",
      "alert": "OK",
      "vis_m": 9999,
      "fzfg": false,
      "metar_trigger": false,
      "taf_trigger": false,
      "metar": "METAR EETN 061750Z 24010KT 9999 FEW019 16/12 Q1015 NOSIG",
      "taf": "TAF EETN 061730Z 0618/0718 24010KT 9999 BKN015"
    },
    {
      "icao": "EFTU",
      "alert": "OK",
      "vis_m": 9999,
      "fzfg": false,
      "metar_trigger": false,
      "taf_trigger": false,
      "metar": "METAR EFTU 061750Z AUTO 24007KT 9999 OVC008 13/12 Q1012",
      "taf": "TAF EFTU 061735Z 0618/0718 25011KT 9999 -SHRA BKN008"
    },
    {
      "icao": "EGBB",
      "alert": "OK",
      "vis_m": 9999,
      "fzfg": false,
      "metar_trigger": false,
      "taf_trigger": false,
      "metar": "METAR EGBB 061750Z 27008KT 9999 VCSH SCT017CB BKN041 17/14 Q1004",
      "taf": "TAF EGBB 061702Z 0618/0718 27010KT 9999 SCT025"
    },
    {
      "icao": "EGGP",
      "alert": "OK",
      "vis_m": 9999,
      "fzfg": false,
      "metar_trigger": false,
      "taf_trigger": false,
      "metar": "METAR EGGP 061750Z 28011KT 9999 8000E -SHRA FEW025 SCT030 BKN038 15/12 Q1005",
      "taf": "TAF EGGP 061658Z 0618/0718 VRB03KT 9999 SCT030"
    },
    {
      "icao": "EGGW",
      "alert": "OK",
      "vis_m": 9999,
      "fzfg": false,
      "metar_trigger": false,
      "taf_trigger": false,
      "metar": "METAR EGGW 061750Z AUTO 23017KT 9999 BKN015 14/12 Q1005",
      "taf": "TAF EGGW 061704Z 0618/0718 25013KT 9999 SCT018"
    },
    {
      "icao": "EGKK",
      "alert": "OK",
      "vis_m": 9999,
      "fzfg": false,
      "metar_trigger": false,
      "taf_trigger": false,
      "metar": "METAR EGKK 061750Z 23013KT 9999 VCSH BKN010 14/12 Q1009",
      "taf": "TAF EGKK 061701Z 0618/0724 23015KT 9999 SCT040"
    },
    {
      "icao": "EGNM",
      "alert": "OK",
      "vis_m": 9999,
      "fzfg": false,
      "metar_trigger": false,
      "taf_trigger": false,
      "metar": "METAR EGNM 061750Z VRB01KT 9999 SCT027 16/12 Q1004",
      "taf": "TAF EGNM 061659Z 0618/0718 VRB03KT 9999 SCT030"
    },
    {
      "icao": "EGPD",
      "alert": "OK",
      "vis_m": 9999,
      "fzfg": false,
      "metar_trigger": false,
      "taf_trigger": false,
      "metar": "METAR EGPD 061750Z COR 14013KT 9999 BKN012 13/10 Q1006 NOSIG",
      "taf": "TAF EGPD 061659Z 0618/0718 14009KT 9999 BKN010"
    },
    {
      "icao": "EGPF",
      "alert": "OK",
      "vis_m": 9999,
      "fzfg": false,
      "metar_trigger": false,
      "taf_trigger": false,
      "metar": "METAR EGPF 061750Z AUTO VRB02KT 9999 -RA BKN021 BKN026 OVC030 14/11 Q1004",
      "taf": "TAF EGPF 061658Z 0618/0718 VRB04KT 9999 BKN020"
    },
    {
      "icao": "EHBK",
      "alert": "OK",
      "vis_m": 9999,
      "fzfg": false,
      "metar_trigger": false,
      "taf_trigger": false,
      "metar": "METAR EHBK 061725Z AUTO 20012KT 170V230 9999 BKN049 16/13 Q1014 REDZ NOSIG",
      "taf": "TAF EHBK 061712Z 0618/0724 19007KT 9999 BKN040"
    },
    {
      "icao": "EHEH",
      "alert": "OK",
      "vis_m": 9999,
      "fzfg": false,
      "metar_trigger": false,
      "taf_trigger": false,
      "metar": "METAR EHEH 061725Z AUTO 19013KT 150V230 9999 BKN033 BKN043 BKN055 18/12 Q1012 BLU NOSIG RMK TREND REMOTE BY EHWX",
      "taf": "TAF EHEH 061122Z 0612/0718 19012KT 9999 BKN045 BKN070"
    },
    {
      "icao": "EKBI",
      "alert": "OK",
      "vis_m": 9999,
      "fzfg": false,
      "metar_trigger": false,
      "taf_trigger": false,
      "metar": "METAR EKBI 061750Z AUTO 13006KT 9999 BKN067/// BKN160/// 16/11 Q1014",
      "taf": "TAF EKBI 061727Z 0618/0718 15005KT 9999 SCT030"
    },
    {
      "icao": "EKCH",
      "alert": "OK",
      "vis_m": 9999,
      "fzfg": false,
      "metar_trigger": false,
      "taf_trigger": false,
      "metar": "METAR EKCH 061750Z AUTO 15005KT 9999 NCD 18/10 Q1016 NOSIG",
      "taf": "TAF EKCH 061727Z 0618/0718 15010KT 9999 SCT040"
    },
    {
      "icao": "ENAL",
      "alert": "OK",
      "vis_m": 9999,
      "fzfg": false,
      "metar_trigger": false,
      "taf_trigger": false,
      "metar": "METAR ENAL 061720Z 06008KT CAVOK 14/10 Q1014",
      "taf": "TAF ENAL 061700Z 0618/0703 05010KT CAVOK"
    },
    {
      "icao": "ENBR",
      "alert": "OK",
      "vis_m": 9999,
      "fzfg": false,
      "metar_trigger": false,
      "taf_trigger": false,
      "metar": "METAR ENBR 061720Z 19003KT 150V230 9999 FEW050 15/07 Q1013 NOSIG RMK WIND 1200FT 25006KT",
      "taf": "TAF ENBR 061700Z 0618/0718 VRB04KT 9999 SCT050"
    },
    {
      "icao": "ENGM",
      "alert": "OK",
      "vis_m": 9999,
      "fzfg": false,
      "metar_trigger": false,
      "taf_trigger": false,
      "metar": "METAR ENGM 061720Z 23009KT 200V260 CAVOK 16/08 Q1012 NOSIG",
      "taf": "TAF ENGM 061700Z 0618/0718 20008KT CAVOK"
    },
    {
      "icao": "ENHD",
      "alert": "OK",
      "vis_m": 9999,
      "fzfg": false,
      "metar_trigger": false,
      "taf_trigger": false,
      "metar": "METAR ENHD 061720Z 23005KT 200V280 CAVOK 14/08 Q1013",
      "taf": "TAF ENHD 061400Z 0615/0622 22007KT 9999 FEW030"
    },
    {
      "icao": "ENTC",
      "alert": "OK",
      "vis_m": 9999,
      "fzfg": false,
      "metar_trigger": false,
      "taf_trigger": false,
      "metar": "METAR ENTC 061720Z 36009KT CAVOK 16/10 Q1017 NOSIG RMK WIND 2600FT 17004KT",
      "taf": "TAF ENTC 061700Z 0618/0718 02009KT 9999 SCT060"
    },
    {
      "icao": "ENTO",
      "alert": "OK",
      "vis_m": 9999,
      "fzfg": false,
      "metar_trigger": false,
      "taf_trigger": false,
      "metar": "METAR ENTO 061720Z 19013KT CAVOK 15/09 Q1013 NOSIG",
      "taf": "TAF ENTO 061700Z 0618/0718 19008KT CAVOK"
    },
    {
      "icao": "ENVA",
      "alert": "OK",
      "vis_m": 9999,
      "fzfg": false,
      "metar_trigger": false,
      "taf_trigger": false,
      "metar": "METAR ENVA 061720Z 26010KT 9999 FEW040 16/11 Q1014 RMK WIND 670FT 29010KT",
      "taf": "TAF ENVA 061700Z 0618/0718 27010KT 9999 SCT040"
    },
    {
      "icao": "ENZV",
      "alert": "OK",
      "vis_m": 9999,
      "fzfg": false,
      "metar_trigger": false,
      "taf_trigger": false,
      "metar": "METAR ENZV 061720Z 22010KT CAVOK 15/08 Q1013 NOSIG",
      "taf": "TAF ENZV 061700Z 0618/0718 VRB05KT 9999 FEW025"
    },
    {
      "icao": "EPGD",
      "alert": "OK",
      "vis_m": 9999,
      "fzfg": false,
      "metar_trigger": false,
      "taf_trigger": false,
      "metar": "METAR EPGD 061730Z 05006KT CAVOK 15/11 Q1018",
      "taf": "TAF EPGD 061730Z 0618/0718 05007KT 9999 SCT045"
    },
    {
      "icao": "EPKK",
      "alert": "OK",
      "vis_m": 9999,
      "fzfg": false,
      "metar_trigger": false,
      "taf_trigger": false,
      "metar": "METAR EPKK 061730Z 06006KT CAVOK 20/09 Q1018",
      "taf": "TAF EPKK 061730Z 0618/0718 08005KT CAVOK"
    },
    {
      "icao": "EPKT",
      "alert": "OK",
      "vis_m": 9999,
      "fzfg": false,
      "metar_trigger": false,
      "taf_trigger": false,
      "metar": "METAR EPKT 061730Z 10006KT CAVOK 21/09 Q1017",
      "taf": "TAF EPKT 061730Z 0618/0718 11005KT CAVOK"
    },
    {
      "icao": "EPLB",
      "alert": "OK",
      "vis_m": 9999,
      "fzfg": false,
      "metar_trigger": false,
      "taf_trigger": false,
      "metar": "METAR EPLB 061730Z 04004KT CAVOK 20/11 Q1018",
      "taf": "TAF EPLB 061730Z 0618/0718 VRB04KT CAVOK"
    },
    {
      "icao": "EPMO",
      "alert": "OK",
      "vis_m": 9999,
      "fzfg": false,
      "metar_trigger": false,
      "taf_trigger": false,
      "metar": "METAR EPMO 061730Z 03003KT 010V070 CAVOK 23/12 Q1017",
      "taf": "TAF EPMO 061730Z 0618/0718 VRB04KT CAVOK"
    },
    {
      "icao": "EPPO",
      "alert": "OK",
      "vis_m": 9999,
      "fzfg": false,
      "metar_trigger": false,
      "taf_trigger": false,
      "metar": "METAR EPPO 061730Z 19006KT CAVOK 23/08 Q1016",
      "taf": "TAF EPPO 061730Z 0618/0718 16004KT CAVOK"
    },
    {
      "icao": "EPRA",
      "alert": "OK",
      "vis_m": 9999,
      "fzfg": false,
      "metar_trigger": false,
      "taf_trigger": false,
      "metar": "METAR EPRA 061730Z 18002KT CAVOK 22/08 Q1017",
      "taf": "TAF EPRA 061730Z 0618/0703 VRB02KT CAVOK"
    },
    {
      "icao": "EPRZ",
      "alert": "OK",
      "vis_m": 9999,
      "fzfg": false,
      "metar_trigger": false,
      "taf_trigger": false,
      "metar": "METAR EPRZ 061730Z 11008KT CAVOK 20/12 Q1018",
      "taf": "TAF EPRZ 061730Z 0618/0718 12010KT CAVOK"
    },
    {
      "icao": "EPSC",
      "alert": "OK",
      "vis_m": 9999,
      "fzfg": false,
      "metar_trigger": false,
      "taf_trigger": false,
      "metar": "METAR EPSC 061730Z 03006KT CAVOK 21/13 Q1016",
      "taf": "TAF EPSC 061730Z 0618/0718 06010KT CAVOK"
    },
    {
      "icao": "EPSY",
      "alert": "OK",
      "vis_m": 9999,
      "fzfg": false,
      "metar_trigger": false,
      "taf_trigger": false,
      "metar": "METAR EPSY 061730Z 06003KT 030V090 CAVOK 21/12 Q1017",
      "taf": "TAF EPSY 061730Z 0618/0703 VRB02KT CAVOK"
    },
    {
      "icao": "EPWA",
      "alert": "OK",
      "vis_m": 9999,
      "fzfg": false,
      "metar_trigger": false,
      "taf_trigger": false,
      "metar": "METAR EPWA 061730Z 20002KT CAVOK 21/12 Q1017 NOSIG",
      "taf": "TAF EPWA 061730Z 0618/0718 VRB03KT CAVOK"
    },
    {
      "icao": "EPWR",
      "alert": "OK",
      "vis_m": 9999,
      "fzfg": false,
      "metar_trigger": false,
      "taf_trigger": false,
      "metar": "METAR EPWR 061730Z 13007KT CAVOK 21/10 Q1016",
      "taf": "TAF EPWR 061730Z 0618/0718 13004KT CAVOK"
    },
    {
      "icao": "ESGG",
      "alert": "OK",
      "vis_m": 9999,
      "fzfg": false,
      "metar_trigger": false,
      "taf_trigger": false,
      "metar": "METAR ESGG 061750Z 20009KT 9999 SCT032 15/09 Q1015",
      "taf": "TAF ESGG 061730Z 0618/0718 22009KT 9999 SCT035"
    },
    {
      "icao": "ESKN",
      "alert": "OK",
      "vis_m": 9999,
      "fzfg": false,
      "metar_trigger": false,
      "taf_trigger": false,
      "metar": "METAR ESKN 061750Z 18010KT CAVOK 17/12 Q1013",
      "taf": "TAF ESKN 061730Z 0618/0718 17010KT CAVOK"
    },
    {
      "icao": "ESMS",
      "alert": "OK",
      "vis_m": 9999,
      "fzfg": false,
      "metar_trigger": false,
      "taf_trigger": false,
      "metar": "METAR ESMS 061750Z 17005KT CAVOK 18/08 Q1016",
      "taf": "TAF ESMS 061727Z 0618/0718 18005KT 9999 FEW040"
    },
    {
      "icao": "ESSA",
      "alert": "OK",
      "vis_m": 9999,
      "fzfg": false,
      "metar_trigger": false,
      "taf_trigger": false,
      "metar": "METAR ESSA 061750Z 25011KT 9999 FEW043 18/09 Q1012 NOSIG",
      "taf": "TAF ESSA 061730Z 0618/0718 26009KT CAVOK"
    },
    {
      "icao": "EYKA",
      "alert": "OK",
      "vis_m": 9999,
      "fzfg": false,
      "metar_trigger": false,
      "taf_trigger": false,
      "metar": "METAR EYKA 061750Z 30003KT 280V340 CAVOK 20/13 Q1018",
      "taf": "TAF EYKA 061700Z 0618/0718 VRB03KT 8000 SCT040"
    },
    {
      "icao": "EYPA",
      "alert": "OK",
      "vis_m": 9999,
      "fzfg": false,
      "metar_trigger": false,
      "taf_trigger": false,
      "metar": "METAR EYPA 061750Z 23003KT 200V300 CAVOK 15/13 Q1018",
      "taf": "TAF EYPA 061720Z 0618/0718 VRB03KT 8000 SCT005"
    },
    {
      "icao": "EYVI",
      "alert": "OK",
      "vis_m": 9999,
      "fzfg": false,
      "metar_trigger": false,
      "taf_trigger": false,
      "metar": "METAR EYVI 061750Z 32004KT 280V030 CAVOK 19/11 Q1018 NOSIG",
      "taf": "TAF EYVI 061700Z 0618/0718 VRB03KT 8000 SCT040"
    },
    {
      "icao": "GCFV",
      "alert": "OK",
      "vis_m": 9999,
      "fzfg": false,
      "metar_trigger": false,
      "taf_trigger": false,
      "metar": "METAR GCFV 061730Z 36020KT 9999 FEW018 25/14 Q1016",
      "taf": "TAF GCFV 061400Z 0615/0715 01018KT 9999 FEW020 TX25/0714Z TN18/0706Z"
    },
    {
      "icao": "GCLP",
      "alert": "OK",
      "vis_m": 9999,
      "fzfg": false,
      "metar_trigger": false,
      "taf_trigger": false,
      "metar": "METAR GCLP 061730Z 36025KT 330V030 9999 FEW025 26/14 Q1016 NOSIG",
      "taf": "TAF GCLP 061400Z 0615/0715 36027KT 9999 FEW020 TX26/0714Z TN19/0706Z"
    },
    {
      "icao": "GCTS",
      "alert": "OK",
      "vis_m": 9999,
      "fzfg": false,
      "metar_trigger": false,
      "taf_trigger": false,
      "metar": "METAR GCTS 061730Z 21005KT 150V250 9999 FEW030 24/15 Q1018 NOSIG",
      "taf": "TAF GCTS 061400Z 0615/0715 21005KT 9999 FEW025 TX26/0714Z TN18/0706Z"
    },
    {
      "icao": "GMAD",
      "alert": "OK",
      "vis_m": 8000,
      "fzfg": false,
      "metar_trigger": false,
      "taf_trigger": false,
      "metar": "METAR GMAD 061730Z 23011KT 8000 NSC 27/15 Q1011 NOSIG",
      "taf": "TAF GMAD 061700Z 0618/0724 18006KT 8000 NSC"
    },
    {
      "icao": "GMMN",
      "alert": "OK",
      "vis_m": 9999,
      "fzfg": false,
      "metar_trigger": false,
      "taf_trigger": false,
      "metar": "METAR GMMN 061730Z 02014KT 350V050 CAVOK 25/15 Q1015 NOSIG",
      "taf": "TAF GMMN 061700Z 0618/0724 36016KT CAVOK"
    },
    {
      "icao": "GMMX",
      "alert": "OK",
      "vis_m": 9999,
      "fzfg": false,
      "metar_trigger": false,
      "taf_trigger": false,
      "metar": "METAR GMMX 061730Z 35007KT 300V060 9999 FEW026 34/10 Q1013 NOSIG",
      "taf": "TAF GMMX 061700Z 0618/0724 04006KT 8000 NSC"
    },
    {
      "icao": "HEGN",
      "alert": "OK",
      "vis_m": 9999,
      "fzfg": false,
      "metar_trigger": false,
      "taf_trigger": false,
      "metar": "METAR HEGN 061700Z 28003KT CAVOK 36/06 Q1009 NOSIG",
      "taf": "TAF HEGN 061700Z 0618/0724 33008KT CAVOK"
    },
    {
      "icao": "HEMA",
      "alert": "OK",
      "vis_m": 9999,
      "fzfg": false,
      "metar_trigger": false,
      "taf_trigger": false,
      "metar": "METAR HEMA 061700Z 33013KT CAVOK 35/01 Q1010 NOSIG",
      "taf": "TAF HEMA 061700Z 0618/0724 32008KT CAVOK"
    },
    {
      "icao": "HESH",
      "alert": "OK",
      "vis_m": 9999,
      "fzfg": false,
      "metar_trigger": false,
      "taf_trigger": false,
      "metar": "METAR HESH 061700Z 15007KT CAVOK 36/06 Q1009 NOSIG",
      "taf": "TAF HESH 061700Z 0618/0724 34008KT CAVOK"
    },
    {
      "icao": "HESX",
      "alert": "OK",
      "vis_m": 9999,
      "fzfg": false,
      "metar_trigger": false,
      "taf_trigger": false,
      "metar": "METAR HESX 061700Z 34015KT CAVOK 28/10 Q1012 NOSIG",
      "taf": "TAF HESX 061700Z 0618/0724 34014KT CAVOK"
    },
    {
      "icao": "LATI",
      "alert": "OK",
      "vis_m": 9999,
      "fzfg": false,
      "metar_trigger": false,
      "taf_trigger": false,
      "metar": "METAR LATI 061750Z 33003KT CAVOK 23/16 Q1016 NOSIG",
      "taf": "TAF LATI 061700Z 0618/0718 VRB04KT CAVOK TX31/0712Z TN15/0704Z"
    },
    {
      "icao": "LBPD",
      "alert": "OK",
      "vis_m": 9999,
      "fzfg": false,
      "metar_trigger": false,
      "taf_trigger": false,
      "metar": "METAR LBPD 061730Z AUTO 13006KT 9999 SCT090/// 26/19 Q1014 NOSIG",
      "taf": "TAF LBPD 061700Z 0618/0718 15010KT 9999 FEW025 SCT040"
    },
    {
      "icao": "LBSF",
      "alert": "OK",
      "vis_m": 9999,
      "fzfg": false,
      "metar_trigger": false,
      "taf_trigger": false,
      "metar": "METAR LBSF 061730Z AUTO 14006KT 9999 FEW051/// SCT061/// 20/16 Q1018 TEMPO 4000 SHRA FEW030TCU",
      "taf": "TAF LBSF 061700Z 0618/0718 08010KT 9999 SCT050 BKN070"
    },
    {
      "icao": "LBWN",
      "alert": "OK",
      "vis_m": 9999,
      "fzfg": false,
      "metar_trigger": false,
      "taf_trigger": false,
      "metar": "METAR LBWN 061730Z AUTO 12005KT 9999 NSC 20/16 Q1015 NOSIG",
      "taf": "TAF LBWN 061700Z 0618/0718 12010KT 9999 SCT040"
    },
    {
      "icao": "LCLK",
      "alert": "OK",
      "vis_m": 9999,
      "fzfg": false,
      "metar_trigger": false,
      "taf_trigger": false,
      "metar": "METAR LCLK 061730Z 35010KT CAVOK 26/15 Q1011 NOSIG",
      "taf": "TAF LCLK 061730Z 0618/0718 32006KT CAVOK"
    },
    {
      "icao": "LCPH",
      "alert": "OK",
      "vis_m": 9999,
      "fzfg": false,
      "metar_trigger": false,
      "taf_trigger": false,
      "metar": "METAR LCPH 061730Z 33007KT 9999 FEW030 24/18 Q1011 NOSIG",
      "taf": "TAF LCPH 061730Z 0618/0718 29014KT 9999 FEW030"
    },
    {
      "icao": "LEAL",
      "alert": "OK",
      "vis_m": 9999,
      "fzfg": false,
      "metar_trigger": false,
      "taf_trigger": false,
      "metar": "METAR LEAL 061730Z 08006KT 060V150 9999 SCT015 BKN030 25/18 Q1018 NOSIG",
      "taf": "TAF LEAL 061700Z 0618/0718 10007KT 9999 SCT020 TX29/0712Z TN20/0706Z"
    },
    {
      "icao": "LEBB",
      "alert": "OK",
      "vis_m": 9999,
      "fzfg": false,
      "metar_trigger": false,
      "taf_trigger": false,
      "metar": "METAR LEBB 061730Z 32005KT 280V350 9999 SCT032 BKN046 19/13 Q1024 NOSIG",
      "taf": "TAF LEBB 061700Z 0618/0718 32010KT 9999 SCT040 TX26/0714Z TN11/0705Z"
    },
    {
      "icao": "LEBL",
      "alert": "OK",
      "vis_m": 9999,
      "fzfg": false,
      "metar_trigger": false,
      "taf_trigger": false,
      "metar": "METAR LEBL 061730Z 22011KT CAVOK 23/20 Q1019 NOSIG",
      "taf": "TAF LEBL 061700Z 0618/0718 22012KT CAVOK TX24/0712Z TN18/0706Z"
    },
    {
      "icao": "LECH",
      "alert": "OK",
      "vis_m": 9999,
      "fzfg": false,
      "metar_trigger": false,
      "taf_trigger": false,
      "metar": "METAR LECH 061730Z AUTO 16006KT 130V200 CAVOK 21/17 Q1020",
      "taf": "TAF LECH 061700Z 0618/0718 VRB04KT 9999 FEW030 TX28/0713Z TN16/0706Z"
    },
    {
      "icao": "LEMD",
      "alert": "OK",
      "vis_m": 9999,
      "fzfg": false,
      "metar_trigger": false,
      "taf_trigger": false,
      "metar": "METAR LEMD 061730Z 20003KT CAVOK 29/04 Q1018 NOSIG",
      "taf": "TAF LEMD 061700Z 0618/0724 VRB04KT CAVOK TX34/0716Z TN16/0705Z"
    },
    {
      "icao": "LEMG",
      "alert": "OK",
      "vis_m": 9999,
      "fzfg": false,
      "metar_trigger": false,
      "taf_trigger": false,
      "metar": "METAR LEMG 061730Z 12007KT CAVOK 23/19 Q1016 NOSIG",
      "taf": "TAF LEMG 061700Z 0618/0718 13010KT 9999 FEW030 TX28/0714Z TN21/0706Z"
    },
    {
      "icao": "LEVC",
      "alert": "OK",
      "vis_m": 9999,
      "fzfg": false,
      "metar_trigger": false,
      "taf_trigger": false,
      "metar": "METAR LEVC 061730Z 08008KT 050V160 9999 FEW020 24/18 Q1018 NOSIG",
      "taf": "TAF LEVC 061700Z 0618/0718 09008KT 9999 FEW025 TX27/0712Z TN16/0706Z"
    },
    {
      "icao": "LEXJ",
      "alert": "OK",
      "vis_m": 9999,
      "fzfg": false,
      "metar_trigger": false,
      "taf_trigger": false,
      "metar": "METAR LEXJ 061730Z 31004KT 260V020 9999 SCT035 BKN048 18/12 Q1024",
      "taf": "TAF LEXJ 061400Z 0615/0715 28010KT 9999 BKN035 TX21/0713Z TN11/0704Z"
    },
    {
      "icao": "LEZG",
      "alert": "OK",
      "vis_m": 9999,
      "fzfg": false,
      "metar_trigger": false,
      "taf_trigger": false,
      "metar": "METAR LEZG 061730Z 35005KT 290V020 CAVOK 30/07 Q1016 NOSIG",
      "taf": "TAF LEZG 061700Z 0618/0718 VRB05KT CAVOK TX32/0715Z TN16/0706Z"
    },
    {
      "icao": "LEZL",
      "alert": "OK",
      "vis_m": 9999,
      "fzfg": false,
      "metar_trigger": false,
      "taf_trigger": false,
      "metar": "METAR LEZL 061730Z 03002KT CAVOK 33/05 Q1014 NOSIG",
      "taf": "TAF LEZL 061400Z 0615/0715 VRB03KT CAVOK TX34/0615Z TN18/0706Z"
    },
    {
      "icao": "LFBD",
      "alert": "OK",
      "vis_m": 9999,
      "fzfg": false,
      "metar_trigger": false,
      "taf_trigger": false,
      "metar": "METAR LFBD 061730Z AUTO 29011KT 270V330 9999 SCT042 20/09 Q1022 NOSIG",
      "taf": "TAF LFBD 061700Z 0618/0724 28010KT CAVOK TX27/0716Z TN11/0704Z"
    },
    {
      "icao": "LFLL",
      "alert": "OK",
      "vis_m": 9999,
      "fzfg": false,
      "metar_trigger": false,
      "taf_trigger": false,
      "metar": "METAR LFLL 061730Z 21004KT 180V250 CAVOK 25/10 Q1018 NOSIG",
      "taf": "TAF LFLL 061700Z 0618/0724 VRB02KT CAVOK"
    },
    {
      "icao": "LFLS",
      "alert": "OK",
      "vis_m": 9999,
      "fzfg": false,
      "metar_trigger": false,
      "taf_trigger": false,
      "metar": "METAR LFLS 061730Z AUTO 27006KT CAVOK 24/11 Q1019 NOSIG",
      "taf": "TAF LFLS 061400Z 0615/0715 22006KT CAVOK"
    },
    {
      "icao": "LFMN",
      "alert": "OK",
      "vis_m": 9999,
      "fzfg": false,
      "metar_trigger": false,
      "taf_trigger": false,
      "metar": "METAR LFMN 061730Z 11004KT 080V140 CAVOK 22/15 Q1018 NOSIG",
      "taf": "TAF LFMN 061400Z 0615/0721 13008KT CAVOK"
    },
    {
      "icao": "LFOB",
      "alert": "OK",
      "vis_m": 9999,
      "fzfg": false,
      "metar_trigger": false,
      "taf_trigger": false,
      "metar": "METAR LFOB 061730Z AUTO 27010KT 9999 FEW049 SCT058 OVC070 17/10 Q1015 NOSIG",
      "taf": "TAF LFOB 061700Z 0618/0718 25010KT 9999 BKN040 OVC060"
    },
    {
      "icao": "LFPO",
      "alert": "OK",
      "vis_m": 9999,
      "fzfg": false,
      "metar_trigger": false,
      "taf_trigger": false,
      "metar": "METAR LFPO 061730Z AUTO 24014KT 9999 FEW049 OVC074 20/08 Q1016 NOSIG",
      "taf": "TAF LFPO 061700Z 0618/0724 25012KT CAVOK"
    },
    {
      "icao": "LFSB",
      "alert": "OK",
      "vis_m": 9999,
      "fzfg": false,
      "metar_trigger": false,
      "taf_trigger": false,
      "metar": "METAR LFSB 061730Z AUTO 28007KT CAVOK 23/10 Q1017 NOSIG",
      "taf": "TAF LFSB 061700Z 0618/0718 27005KT 9999 FEW055 SCT080"
    },
    {
      "icao": "LGAV",
      "alert": "OK",
      "vis_m": 9999,
      "fzfg": false,
      "metar_trigger": false,
      "taf_trigger": false,
      "metar": "METAR LGAV 061750Z 24003KT 9999 FEW025 24/15 Q1015 NOSIG",
      "taf": "TAF LGAV 061700Z 0618/0718 VRB05KT 9999 FEW030"
    },
    {
      "icao": "LGTS",
      "alert": "OK",
      "vis_m": 9999,
      "fzfg": false,
      "metar_trigger": false,
      "taf_trigger": false,
      "metar": "METAR LGTS 061720Z 19006KT CAVOK 28/15 Q1014 NOSIG",
      "taf": "TAF LGTS 061700Z 0618/0718 VRB03KT 9999 FEW030"
    },
    {
      "icao": "LHBP",
      "alert": "OK",
      "vis_m": 9999,
      "fzfg": false,
      "metar_trigger": false,
      "taf_trigger": false,
      "metar": "METAR LHBP 061730Z 07003KT 040V100 CAVOK 24/11 Q1016 NOSIG",
      "taf": "TAF LHBP 061715Z 0618/0718 VRB04KT CAVOK"
    },
    {
      "icao": "LHDC",
      "alert": "OK",
      "vis_m": 9999,
      "fzfg": false,
      "metar_trigger": false,
      "taf_trigger": false,
      "metar": "METAR LHDC 061715Z AUTO 05005KT CAVOK 22/15 Q1017 NOSIG",
      "taf": "TAF LHDC 061715Z 0618/0703 VRB03KT 9999 SCT040"
    },
    {
      "icao": "LIBD",
      "alert": "OK",
      "vis_m": 9999,
      "fzfg": false,
      "metar_trigger": false,
      "taf_trigger": false,
      "metar": "METAR LIBD 061720Z 07005KT 040V100 CAVOK 26/16 Q1015",
      "taf": "TAF LIBD 061700Z 0618/0718 07012KT CAVOK"
    },
    {
      "icao": "LIBG",
      "alert": "OK",
      "vis_m": 9999,
      "fzfg": false,
      "metar_trigger": false,
      "taf_trigger": false,
      "metar": "METAR LIBG 061720Z AUTO 17005KT 9999 FEW130/// 25/18 Q1015",
      "taf": "TAF LIBG 061700Z 0618/0718 VRB05KT CAVOK"
    },
    {
      "icao": "LIBP",
      "alert": "OK",
      "vis_m": 9999,
      "fzfg": false,
      "metar_trigger": false,
      "taf_trigger": false,
      "metar": "METAR LIBP 061720Z AUTO 04005KT 9999 FEW110/// 23/19 Q1016",
      "taf": "TAF LIBP 061700Z 0618/0718 VRB05KT 9999 SCT060"
    },
    {
      "icao": "LIBR",
      "alert": "OK",
      "vis_m": 9999,
      "fzfg": false,
      "metar_trigger": false,
      "taf_trigger": false,
      "metar": "METAR LIBR 061720Z 15007KT CAVOK 27/11 Q1015",
      "taf": "TAF LIBR 061700Z 0618/0718 11012KT CAVOK"
    },
    {
      "icao": "LICA",
      "alert": "OK",
      "vis_m": 9999,
      "fzfg": false,
      "metar_trigger": false,
      "taf_trigger": false,
      "metar": "METAR LICA 061720Z AUTO 24006KT 9999 NCD 25/19 Q1016",
      "taf": "TAF LICA 061700Z 0618/0718 VRB05KT CAVOK"
    },
    {
      "icao": "LICC",
      "alert": "OK",
      "vis_m": 9999,
      "fzfg": false,
      "metar_trigger": false,
      "taf_trigger": false,
      "metar": "METAR LICC 061720Z 08007KT CAVOK 24/18 Q1016",
      "taf": "TAF LICC 061700Z 0618/0718 08010KT CAVOK"
    },
    {
      "icao": "LICJ",
      "alert": "OK",
      "vis_m": 9999,
      "fzfg": false,
      "metar_trigger": false,
      "taf_trigger": false,
      "metar": "METAR LICJ 061720Z AUTO 03011KT 9999 NCD 24/22 Q1017",
      "taf": "TAF LICJ 061700Z 0618/0718 03010KT CAVOK"
    },
    {
      "icao": "LIMC",
      "alert": "OK",
      "vis_m": 9999,
      "fzfg": false,
      "metar_trigger": false,
      "taf_trigger": false,
      "metar": "METAR LIMC 061720Z VRB02KT 9999 FEW042 24/14 Q1017 NOSIG",
      "taf": "TAF LIMC 061700Z 0618/0724 VRB05KT 9999 FEW030"
    },
    {
      "icao": "LIME",
      "alert": "OK",
      "vis_m": 9999,
      "fzfg": false,
      "metar_trigger": false,
      "taf_trigger": false,
      "metar": "METAR LIME 061720Z 20004KT 160V260 9999 FEW050 24/14 Q1017 NOSIG",
      "taf": "TAF LIME 061700Z 0618/0718 VRB05KT 9999 FEW030"
    },
    {
      "icao": "LIMF",
      "alert": "OK",
      "vis_m": 9999,
      "fzfg": false,
      "metar_trigger": false,
      "taf_trigger": false,
      "metar": "METAR LIMF 061720Z 05006KT 020V080 9999 BKN050 24/15 Q1017",
      "taf": "TAF LIMF 061700Z 0618/0718 VRB05KT 9999 FEW040"
    },
    {
      "icao": "LIMJ",
      "alert": "OK",
      "vis_m": 9999,
      "fzfg": false,
      "metar_trigger": false,
      "taf_trigger": false,
      "metar": "METAR LIMJ 061720Z 20003KT CAVOK 22/16 Q1018",
      "taf": "TAF LIMJ 061700Z 0618/0718 VRB05KT 9999 FEW030"
    },
    {
      "icao": "LIPE",
      "alert": "OK",
      "vis_m": 9999,
      "fzfg": false,
      "metar_trigger": false,
      "taf_trigger": false,
      "metar": "METAR LIPE 061720Z 34004KT 300V020 CAVOK 27/13 Q1016",
      "taf": "TAF LIPE 061700Z 0618/0718 VRB05KT 9999 FEW030"
    },
    {
      "icao": "LIPH",
      "alert": "OK",
      "vis_m": 9999,
      "fzfg": false,
      "metar_trigger": false,
      "taf_trigger": false,
      "metar": "METAR LIPH 061720Z 16004KT 120V200 CAVOK 24/17 Q1016",
      "taf": "TAF LIPH 061700Z 0618/0718 VRB05KT 9999 FEW040"
    },
    {
      "icao": "LIPQ",
      "alert": "OK",
      "vis_m": 9999,
      "fzfg": false,
      "metar_trigger": false,
      "taf_trigger": false,
      "metar": "METAR LIPQ 061720Z AUTO 23005KT 210V270 9999 NCD 24/15 Q1016",
      "taf": "TAF LIPQ 061700Z 0618/0718 VRB05KT 9999 OVC030"
    },
    {
      "icao": "LIPR",
      "alert": "OK",
      "vis_m": 9999,
      "fzfg": false,
      "metar_trigger": false,
      "taf_trigger": false,
      "metar": "METAR LIPR 061720Z 10007KT 070V130 9999 FEW070 22/18 Q1016",
      "taf": "TAF LIPR 061700Z 0618/0718 VRB05KT 9999 FEW050"
    },
    {
      "icao": "LIPX",
      "alert": "OK",
      "vis_m": 9999,
      "fzfg": false,
      "metar_trigger": false,
      "taf_trigger": false,
      "metar": "METAR LIPX 061720Z 32004KT 280V360 CAVOK 25/15 Q1016",
      "taf": "TAF LIPX 061700Z 0618/0718 VRB05KT 9999 FEW040"
    },
    {
      "icao": "LIPY",
      "alert": "OK",
      "vis_m": 9999,
      "fzfg": false,
      "metar_trigger": false,
      "taf_trigger": false,
      "metar": "METAR LIPY 061720Z AUTO 04006KT 9999 NCD 22/19 Q1017",
      "taf": "TAF LIPY 061700Z 0618/0718 VRB05KT 9999 BKN070"
    },
    {
      "icao": "LIPZ",
      "alert": "OK",
      "vis_m": 9999,
      "fzfg": false,
      "metar_trigger": false,
      "taf_trigger": false,
      "metar": "METAR LIPZ 061720Z 16005KT 130V190 CAVOK 22/18 Q1016 NOSIG",
      "taf": "TAF LIPZ 061700Z 0618/0724 VRB05KT 9999 FEW040"
    },
    {
      "icao": "LIRF",
      "alert": "OK",
      "vis_m": 9999,
      "fzfg": false,
      "metar_trigger": false,
      "taf_trigger": false,
      "metar": "METAR LIRF 061720Z 27007KT 240V310 CAVOK 23/18 Q1017 NOSIG",
      "taf": "TAF LIRF 061700Z 0618/0724 VRB06KT CAVOK"
    },
    {
      "icao": "LIRN",
      "alert": "OK",
      "vis_m": 9999,
      "fzfg": false,
      "metar_trigger": false,
      "taf_trigger": false,
      "metar": "METAR LIRN 061720Z 26008KT CAVOK 25/16 Q1017 NOSIG",
      "taf": "TAF LIRN 061700Z 0618/0718 26010KT CAVOK"
    },
    {
      "icao": "LIRP",
      "alert": "OK",
      "vis_m": 9999,
      "fzfg": false,
      "metar_trigger": false,
      "taf_trigger": false,
      "metar": "METAR LIRP 061715Z 28008KT 9999 SCT020 22/17 Q1018 NOSIG",
      "taf": "TAF LIRP 061700Z 0618/0718 26007KT 9999 SCT025"
    },
    {
      "icao": "LIRZ",
      "alert": "OK",
      "vis_m": 9999,
      "fzfg": false,
      "metar_trigger": false,
      "taf_trigger": false,
      "metar": "METAR LIRZ 061720Z AUTO 29007KT 9999 NCD 26/11 Q1016",
      "taf": "TAF LIRZ 061700Z 0618/0718 VRB05KT 9999 FEW050"
    },
    {
      "icao": "LJLJ",
      "alert": "OK",
      "vis_m": 9999,
      "fzfg": false,
      "metar_trigger": false,
      "taf_trigger": false,
      "metar": "METAR LJLJ 061730Z VRB02KT 9999 FEW033 21/13 Q1017 NOSIG",
      "taf": "TAF LJLJ 061700Z 0618/0718 VRB02KT 9999 FEW035"
    },
    {
      "icao": "LKMT",
      "alert": "OK",
      "vis_m": 9999,
      "fzfg": false,
      "metar_trigger": false,
      "taf_trigger": false,
      "metar": "METAR LKMT 061730Z 07006KT CAVOK 21/11 Q1017 NOSIG",
      "taf": "TAF LKMT 061700Z 0618/0718 23006KT CAVOK"
    },
    {
      "icao": "LKPR",
      "alert": "OK",
      "vis_m": 9999,
      "fzfg": false,
      "metar_trigger": false,
      "taf_trigger": false,
      "metar": "METAR LKPR 061730Z 09004KT 040V130 CAVOK 22/09 Q1016 NOSIG",
      "taf": "TAF LKPR 061700Z 0618/0724 10004KT CAVOK"
    },
    {
      "icao": "LLBG",
      "alert": "OK",
      "vis_m": 9999,
      "fzfg": false,
      "metar_trigger": false,
      "taf_trigger": false,
      "metar": "METAR LLBG 061750Z 32012KT CAVOK 26/15 Q1010 NOSIG",
      "taf": "TAF LLBG 061707Z 0618/0718 VRB04KT CAVOK TX29/0710Z TN19/0703Z"
    },
    {
      "icao": "LMML",
      "alert": "OK",
      "vis_m": 9999,
      "fzfg": false,
      "metar_trigger": false,
      "taf_trigger": false,
      "metar": "METAR LMML 061745Z 01006KT 350V080 CAVOK 26/19 Q1017 NOSIG",
      "taf": "TAF LMML 061700Z 0618/0718 VRB06KT 9999 FEW015"
    },
    {
      "icao": "LOWW",
      "alert": "OK",
      "vis_m": 9999,
      "fzfg": false,
      "metar_trigger": false,
      "taf_trigger": false,
      "metar": "METAR LOWW 061720Z 15007KT CAVOK 23/11 Q1016 NOSIG",
      "taf": "TAF LOWW 061715Z 0618/0724 16007KT CAVOK TX26/0714Z TN15/0703Z"
    },
    {
      "icao": "LPFR",
      "alert": "OK",
      "vis_m": 9999,
      "fzfg": false,
      "metar_trigger": false,
      "taf_trigger": false,
      "metar": "METAR LPFR 061730Z 26010KT CAVOK 24/17 Q1016",
      "taf": "TAF LPFR 061700Z 0618/0718 25010KT CAVOK"
    },
    {
      "icao": "LPMA",
      "alert": "OK",
      "vis_m": 9999,
      "fzfg": false,
      "metar_trigger": false,
      "taf_trigger": false,
      "metar": "METAR LPMA 061730Z VRB10KT 9999 SCT016 SCT030 22/16 Q1021",
      "taf": "TAF LPMA 061700Z 0618/0718 01010KT 9999 SCT015"
    },
    {
      "icao": "LPPR",
      "alert": "OK",
      "vis_m": 9999,
      "fzfg": false,
      "metar_trigger": false,
      "taf_trigger": false,
      "metar": "METAR LPPR 061730Z 34014KT CAVOK 18/12 Q1020",
      "taf": "TAF LPPR 061700Z 0618/0718 33013KT CAVOK"
    },
    {
      "icao": "LPPS",
      "alert": "OK",
      "vis_m": 9999,
      "fzfg": false,
      "metar_trigger": false,
      "taf_trigger": false,
      "metar": "METAR LPPS 061730Z 35014KT 9999 SCT010 22/17 Q1022",
      "taf": "TAF LPPS 061700Z 0618/0724 36012KT 9999 SCT012 SCT030"
    },
    {
      "icao": "LPPT",
      "alert": "OK",
      "vis_m": 9999,
      "fzfg": false,
      "metar_trigger": false,
      "taf_trigger": false,
      "metar": "METAR LPPT 061730Z 32013G24KT 290V350 9999 FEW030 21/14 Q1019",
      "taf": "TAF LPPT 061700Z 0618/0724 32015KT 9999 FEW030"
    },
    {
      "icao": "LQBK",
      "alert": "OK",
      "vis_m": 9999,
      "fzfg": false,
      "metar_trigger": false,
      "taf_trigger": false,
      "metar": "METAR LQBK 061730Z 01005KT CAVOK 20/16 Q1017 NOSIG",
      "taf": "TAF LQBK 061700Z 0618/0718 17005KT CAVOK TX25/0714Z TN15/0704Z"
    },
    {
      "icao": "LQSA",
      "alert": "OK",
      "vis_m": 9999,
      "fzfg": false,
      "metar_trigger": false,
      "taf_trigger": false,
      "metar": "METAR LQSA 061730Z 30007KT 9999 FEW060 22/16 Q1017 NOSIG",
      "taf": "TAF LQSA 061700Z 0618/0718 VRB02KT 9999 FEW055 TX28/0714Z TN15/0703Z"
    },
    {
      "icao": "LQTZ",
      "alert": "OK",
      "vis_m": 9999,
      "fzfg": false,
      "metar_trigger": false,
      "taf_trigger": false,
      "metar": "METAR LQTZ 061730Z 15003KT 9999 -SHRA FEW030TCU SCT040 BKN060 19/19 Q1017",
      "taf": "TAF LQTZ 061700Z 0618/0718 27005KT 9999 SCT040 TX24/0713Z TN14/0703Z"
    },
    {
      "icao": "LRBC",
      "alert": "OK",
      "vis_m": 9999,
      "fzfg": false,
      "metar_trigger": false,
      "taf_trigger": false,
      "metar": "METAR LRBC 061730Z 29005KT 9999 -RA SCT019 20/19 Q1017",
      "taf": "TAF LRBC 061700Z 0618/0703 32008KT 9999 SCT015 SCT040"
    },
    {
      "icao": "LRBS",
      "alert": "OK",
      "vis_m": 9999,
      "fzfg": false,
      "metar_trigger": false,
      "taf_trigger": false,
      "metar": "METAR LRBS 061730Z 22005KT 9999 FEW045 27/19 Q1014 NOSIG",
      "taf": "TAF LRBS 061700Z 0618/0718 VRB04KT CAVOK"
    },
    {
      "icao": "LRBV",
      "alert": "OK",
      "vis_m": 9999,
      "fzfg": false,
      "metar_trigger": false,
      "taf_trigger": false,
      "metar": "METAR LRBV 061730Z 30004KT 260V340 9999 3500S -TSRA SCT040 BKN044CB BKN083 17/15 Q1019",
      "taf": "TAF LRBV 061700Z 0618/0703 24007KT 9999 SCT045CB"
    },
    {
      "icao": "LRCL",
      "alert": "OK",
      "vis_m": 9999,
      "fzfg": false,
      "metar_trigger": false,
      "taf_trigger": false,
      "metar": "METAR LRCL 061730Z 31004KT 260V350 CAVOK 20/16 Q1017",
      "taf": "TAF LRCL 061700Z 0618/0703 VRB04KT 9999 FEW035CB"
    },
    {
      "icao": "LRCV",
      "alert": "OK",
      "vis_m": 9999,
      "fzfg": false,
      "metar_trigger": false,
      "taf_trigger": false,
      "metar": "METAR LRCV 061730Z 22008KT 9999 FEW045 23/19 Q1015",
      "taf": "TAF LRCV 061700Z 0618/0703 20006KT 9999 FEW040"
    },
    {
      "icao": "LRIA",
      "alert": "OK",
      "vis_m": 9999,
      "fzfg": false,
      "metar_trigger": false,
      "taf_trigger": false,
      "metar": "METAR LRIA 061730Z 32004KT 290V360 9999 FEW017 FEW030CB 21/18 Q1016",
      "taf": "TAF LRIA 061700Z 0618/0703 31008KT 9999 SCT035"
    },
    {
      "icao": "LROP",
      "alert": "OK",
      "vis_m": 9999,
      "fzfg": false,
      "metar_trigger": false,
      "taf_trigger": false,
      "metar": "METAR LROP 061730Z 22005KT CAVOK 26/19 Q1015 NOSIG",
      "taf": "TAF LROP 061700Z 0618/0718 VRB04KT CAVOK"
    },
    {
      "icao": "LRSB",
      "alert": "OK",
      "vis_m": 9999,
      "fzfg": false,
      "metar_trigger": false,
      "taf_trigger": false,
      "metar": "METAR LRSB 061730Z 35004KT 320V030 9999 FEW040CB 21/16 Q1018",
      "taf": "TAF LRSB 061700Z 0618/0718 VRB04KT CAVOK"
    },
    {
      "icao": "LRSM",
      "alert": "OK",
      "vis_m": 9999,
      "fzfg": false,
      "metar_trigger": false,
      "taf_trigger": false,
      "metar": "METAR LRSM 061730Z AUTO 34004KT 9999 NCD 21/14 Q1017",
      "taf": "TAF LRSM 061400Z 0615/0624 VRB04KT CAVOK"
    },
    {
      "icao": "LRSV",
      "alert": "OK",
      "vis_m": 8000,
      "fzfg": false,
      "metar_trigger": false,
      "taf_trigger": false,
      "metar": "METAR LRSV 061730Z 27009KT 8000 FEW019 BKN028 17/16 Q1018",
      "taf": "TAF LRSV 061700Z 0618/0703 31008KT 9999 SCT015 SCT040"
    },
    {
      "icao": "LRTM",
      "alert": "OK",
      "vis_m": 9999,
      "fzfg": false,
      "metar_trigger": false,
      "taf_trigger": false,
      "metar": "METAR LRTM 061730Z 15004KT 110V180 9999 -RA FEW043 FEW052CB 19/18 Q1018",
      "taf": "TAF LRTM 061700Z 0618/0703 VRB04KT 9999 FEW050CB"
    },
    {
      "icao": "LRTR",
      "alert": "OK",
      "vis_m": 9999,
      "fzfg": false,
      "metar_trigger": false,
      "taf_trigger": false,
      "metar": "METAR LRTR 061730Z 24003KT CAVOK 22/16 Q1017",
      "taf": "TAF LRTR 061700Z 0618/0718 VRB04KT CAVOK"
    },
    {
      "icao": "LTAC",
      "alert": "OK",
      "vis_m": 9999,
      "fzfg": false,
      "metar_trigger": false,
      "taf_trigger": false,
      "metar": "METAR LTAC 061750Z 22002KT 9999 SCT040 SCT100 20/11 Q1017 NOSIG",
      "taf": "TAF LTAC 061640Z 0618/0718 VRB02KT 9999 FEW040 SCT100"
    },
    {
      "icao": "LTFM",
      "alert": "OK",
      "vis_m": 9999,
      "fzfg": false,
      "metar_trigger": false,
      "taf_trigger": false,
      "metar": "METAR LTFM 061750Z 05009KT 010V070 9999 SCT010 20/17 Q1016 NOSIG",
      "taf": "TAF LTFM 061640Z 0618/0724 03012KT 9999 SCT010"
    },
    {
      "icao": "LUKK",
      "alert": "OK",
      "vis_m": 9999,
      "fzfg": false,
      "metar_trigger": false,
      "taf_trigger": false,
      "metar": "METAR LUKK 061730Z VRB03KT 9999 FEW007 20/18 Q1016 TEMPO VRB16G26KT -TSRA BKN025CB",
      "taf": "TAF LUKK 061701Z 0618/0718 VRB06KT 9999 SCT030"
    },
    {
      "icao": "LWOH",
      "alert": "OK",
      "vis_m": 9999,
      "fzfg": false,
      "metar_trigger": false,
      "taf_trigger": false,
      "metar": "METAR LWOH 061720Z 07004KT 040V110 CAVOK 23/15 Q1017",
      "taf": "TAF LWOH 061705Z 0618/0718 VRB02KT 9999 FEW040"
    },
    {
      "icao": "LWSK",
      "alert": "OK",
      "vis_m": 9999,
      "fzfg": false,
      "metar_trigger": false,
      "taf_trigger": false,
      "metar": "METAR LWSK 061750Z 12007KT 090V150 9999 FEW060 27/16 Q1014 NOSIG",
      "taf": "TAF LWSK 061705Z 0618/0718 VRB02KT CAVOK"
    },
    {
      "icao": "LYBE",
      "alert": "OK",
      "vis_m": 9999,
      "fzfg": false,
      "metar_trigger": false,
      "taf_trigger": false,
      "metar": "METAR LYBE 061730Z 06004KT 030V090 9999 SCT040 21/16 Q1017 NOSIG",
      "taf": "TAF LYBE 061700Z 0618/0718 10005KT 9999 SCT035 TX28/0713Z TN16/0704Z"
    },
    {
      "icao": "LYNI",
      "alert": "OK",
      "vis_m": 9999,
      "fzfg": false,
      "metar_trigger": false,
      "taf_trigger": false,
      "metar": "METAR LYNI 061730Z 32006KT CAVOK 23/17 Q1016 NOSIG",
      "taf": "TAF LYNI 061700Z 0618/0718 34006KT CAVOK TX28/0713Z TN14/0704Z"
    },
    {
      "icao": "LYPG",
      "alert": "OK",
      "vis_m": 9999,
      "fzfg": false,
      "metar_trigger": false,
      "taf_trigger": false,
      "metar": "METAR LYPG 061730Z 15004KT CAVOK 27/18 Q1015 NOSIG",
      "taf": "TAF LYPG 061700Z 0618/0718 VRB02KT CAVOK TX30/0714Z TN19/0703Z"
    },
    {
      "icao": "LZIB",
      "alert": "OK",
      "vis_m": 9999,
      "fzfg": false,
      "metar_trigger": false,
      "taf_trigger": false,
      "metar": "METAR LZIB 061730Z 16006KT CAVOK 24/10 Q1016 NOSIG",
      "taf": "TAF LZIB 061715Z 0618/0718 VRB02KT CAVOK"
    },
    {
      "icao": "LZKZ",
      "alert": "OK",
      "vis_m": 9999,
      "fzfg": false,
      "metar_trigger": false,
      "taf_trigger": false,
      "metar": "METAR LZKZ 061730Z 36008KT CAVOK 21/11 Q1017 NOSIG",
      "taf": "TAF LZKZ 061715Z 0618/0718 01012KT CAVOK"
    },
    {
      "icao": "LZTT",
      "alert": "OK",
      "vis_m": 9999,
      "fzfg": false,
      "metar_trigger": false,
      "taf_trigger": false,
      "metar": "METAR LZTT 061730Z 03004KT 9999 -SHRA SCT046 SCT060 BKN076 17/12 Q1018",
      "taf": "TAF LZTT 061715Z 0618/0718 06008KT 9999 FEW030 SCT045"
    },
    {
      "icao": "OEJN",
      "alert": "OK",
      "vis_m": 9999,
      "fzfg": false,
      "metar_trigger": false,
      "taf_trigger": false,
      "metar": "METAR OEJN 061700Z 35012KT CAVOK 32/17 Q1007 NOSIG",
      "taf": "TAF OEJN 061700Z 0618/0724 36006KT CAVOK"
    },
    {
      "icao": "OEMA",
      "alert": "OK",
      "vis_m": 9999,
      "fzfg": false,
      "metar_trigger": false,
      "taf_trigger": false,
      "metar": "METAR OEMA 061700Z 25009KT CAVOK 41/M02 Q1011 NOSIG",
      "taf": "TAF OEMA 061700Z 0618/0724 29008KT CAVOK"
    },
    {
      "icao": "OJAI",
      "alert": "OK",
      "vis_m": 5000,
      "fzfg": false,
      "metar_trigger": false,
      "taf_trigger": false,
      "metar": "METAR OJAI 061700Z 30006KT 5000 HZ NSC 26/05 Q1014 NOSIG",
      "taf": "TAF OJAI 061700Z 0618/0724 30012KT 5000 HZ NSC"
    },
    {
      "icao": "OMAA",
      "alert": "OK",
      "vis_m": 9999,
      "fzfg": false,
      "metar_trigger": false,
      "taf_trigger": false,
      "metar": "METAR OMAA 061730Z 29005KT CAVOK 30/24 Q1002 NOSIG",
      "taf": "TAF OMAA 061700Z 0618/0800 VRB02KT 8000 NSC"
    },
    {
      "icao": "OMDB",
      "alert": "OK",
      "vis_m": 9999,
      "fzfg": false,
      "metar_trigger": false,
      "taf_trigger": false,
      "metar": "METAR OMDB 061730Z 26006KT 230V300 CAVOK 32/25 Q1002 NOSIG",
      "taf": "TAF OMDB 061700Z 0618/0800 VRB02KT 8000 NSC"
    },
    {
      "icao": "UAAA",
      "alert": "OK",
      "vis_m": 9999,
      "fzfg": false,
      "metar_trigger": false,
      "taf_trigger": false,
      "metar": "METAR UAAA 061730Z VRB01MPS 9999 FEW100 SCT200 18/11 Q1017 NOSIG",
      "taf": "TAF UAAA 061701Z 0618/0718 22003MPS 9999 SCT050CB BKN100 TX26/0709Z TN16/0701Z"
    },
    {
      "icao": "UBBB",
      "alert": "OK",
      "vis_m": 9999,
      "fzfg": false,
      "metar_trigger": false,
      "taf_trigger": false,
      "metar": "METAR UBBB 061730Z 30008KT 9999 FEW060CB 22/14 Q1013 NOSIG",
      "taf": "TAF UBBB 061705Z 0618/0718 35008KT 9999 FEW050CB TX27/0710Z TN16/0701Z"
    },
    {
      "icao": "UDSG",
      "alert": "OK",
      "vis_m": 9999,
      "fzfg": false,
      "metar_trigger": false,
      "taf_trigger": false,
      "metar": "METAR UDSG 061730Z 07001KT 9999 FEW046CB SCT049 13/10 Q1020 NOSIG",
      "taf": "TAF UDSG 061700Z 0618/0718 24006KT 9999 SCT050"
    },
    {
      "icao": "UDYZ",
      "alert": "OK",
      "vis_m": 9999,
      "fzfg": false,
      "metar_trigger": false,
      "taf_trigger": false,
      "metar": "METAR UDYZ 061730Z VRB01KT 9999 BKN043CB 18/14 Q1016 NOSIG",
      "taf": "TAF UDYZ 061700Z 0618/0718 04006KT 9999 SCT040"
    },
    {
      "icao": "UGKO",
      "alert": "OK",
      "vis_m": 9999,
      "fzfg": false,
      "metar_trigger": false,
      "taf_trigger": false,
      "metar": "METAR UGKO 061730Z 30007KT CAVOK 20/16 Q1014 NOSIG",
      "taf": "TAF UGKO 061700Z 0618/0718 26007KT CAVOK TX27/0711Z TN15/0702Z"
    }
  ]
}