{
  "ts_utc": "2026-01-12T01:44:58Z",
  "threshold_m": 150,
  "source": "stations_override.txt (ICAO list) + aviationweather.gov (METAR/TAF raw)",
  "station_count": 159,
  "stations": [
    {
      "icao": "BIKF",
      "alert": "OK",
      "vis_m": 9999,
      "fzfg": false,
      "metar_trigger": false,
      "taf_trigger": false,
      "metar": "METAR BIKF 120130Z 01016KT 9999 FEW030 M01/M05 Q0994",
      "taf": "TAF BIKF 120113Z 1203/1303 02022KT 9999 FEW030 TX00/1203Z TNM03/1300Z"
    },
    {
      "icao": "BKPR",
      "alert": "OK",
      "vis_m": 9999,
      "fzfg": false,
      "metar_trigger": false,
      "taf_trigger": false,
      "metar": "METAR BKPR 120130Z VRB02KT 9999 BKN050 M07/M09 Q1019 NOSIG",
      "taf": "TAF BKPR 112330Z 1200/1224 33007KT 9999 SCT030"
    },
    {
      "icao": "EBCI",
      "alert": "OK",
      "vis_m": 9999,
      "fzfg": false,
      "metar_trigger": false,
      "taf_trigger": false,
      "metar": "METAR EBCI 120120Z 18016KT 9999 BKN017 02/M01 Q1011 NOSIG",
      "taf": "TAF EBCI 112300Z 1200/1306 17015KT 9999 FEW014 BKN030"
    },
    {
      "icao": "EDDB",
      "alert": "OK",
      "vis_m": 9999,
      "fzfg": false,
      "metar_trigger": false,
      "taf_trigger": false,
      "metar": "METAR EDDB 120120Z AUTO 23004KT CAVOK M13/M14 Q1021 NOSIG",
      "taf": "TAF EDDB 112300Z 1200/1224 20004KT CAVOK"
    },
    {
      "icao": "EDDH",
      "alert": "OK",
      "vis_m": 9999,
      "fzfg": false,
      "metar_trigger": false,
      "taf_trigger": false,
      "metar": "METAR EDDH 120120Z AUTO 14007KT CAVOK M06/M08 Q1017 NOSIG",
      "taf": "TAF EDDH 112300Z 1200/1306 14006KT CAVOK"
    },
    {
      "icao": "EDDK",
      "alert": "OK",
      "vis_m": 9999,
      "fzfg": false,
      "metar_trigger": false,
      "taf_trigger": false,
      "metar": "METAR EDDK 120120Z AUTO 14011KT 9999 FEW019 00/M02 Q1017 TEMPO -FZRA",
      "taf": "TAF EDDK 112300Z 1200/1306 14009KT 9999 BKN020"
    },
    {
      "icao": "EDDN",
      "alert": "OK",
      "vis_m": 9999,
      "fzfg": false,
      "metar_trigger": false,
      "taf_trigger": false,
      "metar": "METAR EDDN 120120Z AUTO 12006KT CAVOK M06/M07 Q1022",
      "taf": "TAF EDDN 112300Z 1200/1224 11005KT 9999 BKN015"
    },
    {
      "icao": "EDDS",
      "alert": "OK",
      "vis_m": 9999,
      "fzfg": false,
      "metar_trigger": false,
      "taf_trigger": false,
      "metar": "METAR EDDS 120120Z AUTO 01001KT CAVOK M04/M05 Q1019",
      "taf": "TAF EDDS 112300Z 1200/1224 VRB02KT CAVOK"
    },
    {
      "icao": "EDFH",
      "alert": "OK",
      "vis_m": 9999,
      "fzfg": false,
      "metar_trigger": false,
      "taf_trigger": false,
      "metar": "METAR EDFH 120120Z COR 15011KT 130V190 9999 SCT004 M02/M03 Q1016",
      "taf": "TAF EDFH 112300Z 1200/1224 18010KT 7000 BKN005"
    },
    {
      "icao": "EDJA",
      "alert": "OK",
      "vis_m": 9999,
      "fzfg": false,
      "metar_trigger": false,
      "taf_trigger": false,
      "metar": "METAR EDJA 120120Z AUTO 20004KT 9999 // SCT140/// M10/M11 Q1020",
      "taf": "TAF EDJA 111700Z 1118/1203 19004KT CAVOK"
    },
    {
      "icao": "EDLW",
      "alert": "OK",
      "vis_m": 9999,
      "fzfg": false,
      "metar_trigger": false,
      "taf_trigger": false,
      "metar": "METAR EDLW 120120Z AUTO 17012KT 9999 // OVC089/// 00/M03 Q1014",
      "taf": "TAF EDLW 111700Z 1118/1218 17008KT 9999 FEW015"
    },
    {
      "icao": "EDNY",
      "alert": "OK",
      "vis_m": 9999,
      "fzfg": false,
      "metar_trigger": false,
      "taf_trigger": false,
      "metar": "METAR EDNY 120120Z AUTO VRB02KT 9999 // OVC011/// M05/M06 Q1022",
      "taf": "TAF EDNY 111700Z 1118/1203 06003KT 9999 BKN020"
    },
    {
      "icao": "EDSB",
      "alert": "OK",
      "vis_m": 8000,
      "fzfg": false,
      "metar_trigger": false,
      "taf_trigger": false,
      "metar": "METAR EDSB 120120Z AUTO 00000KT 8000 BKN100/// M02/M03 Q1020",
      "taf": "TAF EDSB 112300Z 1200/1224 VRB02KT CAVOK"
    },
    {
      "icao": "EETN",
      "alert": "OK",
      "vis_m": 9999,
      "fzfg": false,
      "metar_trigger": false,
      "taf_trigger": false,
      "metar": "METAR EETN 120120Z 10009KT 9999 -SN OVC013 M05/M07 Q1014",
      "taf": "TAF EETN 112330Z 1200/1224 08010KT 9999 SCT015 BKN030"
    },
    {
      "icao": "EFTU",
      "alert": "OK",
      "vis_m": 9999,
      "fzfg": false,
      "metar_trigger": false,
      "taf_trigger": false,
      "metar": "METAR EFTU 120120Z AUTO 05008KT 9999 -SHSN FEW025 M07/M10 Q1017",
      "taf": "TAF EFTU 112331Z 1200/1224 04007KT 9999 FEW020"
    },
    {
      "icao": "EGBB",
      "alert": "OK",
      "vis_m": 9999,
      "fzfg": false,
      "metar_trigger": false,
      "taf_trigger": false,
      "metar": "METAR EGBB 120120Z 19008KT 160V220 9999 SCT027 09/07 Q0998",
      "taf": "TAF EGBB 112257Z 1200/1224 20012KT 9999 SCT025"
    },
    {
      "icao": "EGGP",
      "alert": "OK",
      "vis_m": 9999,
      "fzfg": false,
      "metar_trigger": false,
      "taf_trigger": false,
      "metar": "METAR EGGP 120120Z AUTO 21010KT 9999 BKN029/// BKN035/// 09/06 Q0994",
      "taf": "TAF EGGP 112257Z 1200/1224 20012KT 9999 SCT030"
    },
    {
      "icao": "EGGW",
      "alert": "OK",
      "vis_m": 9999,
      "fzfg": false,
      "metar_trigger": false,
      "taf_trigger": false,
      "metar": "METAR EGGW 120120Z AUTO 21012KT 170V230 9999 BKN008 10/09 Q1000",
      "taf": ""
    },
    {
      "icao": "EGKK",
      "alert": "OK",
      "vis_m": 9999,
      "fzfg": false,
      "metar_trigger": false,
      "taf_trigger": false,
      "metar": "METAR EGKK 120120Z 22010KT 180V250 9999 BKN007 11/10 Q1003",
      "taf": "TAF EGKK 112300Z 1200/1306 21012KT 9999 BKN010"
    },
    {
      "icao": "EGNM",
      "alert": "OK",
      "vis_m": null,
      "fzfg": false,
      "metar_trigger": false,
      "taf_trigger": false,
      "metar": "",
      "taf": "TAF EGNM 112255Z 1200/1224 20012KT 9999 BKN017"
    },
    {
      "icao": "EGPD",
      "alert": "OK",
      "vis_m": 9999,
      "fzfg": false,
      "metar_trigger": false,
      "taf_trigger": false,
      "metar": "METAR EGPD 120120Z COR AUTO 19021KT 9999 NCD 08/06 Q0980 NOSIG",
      "taf": "TAF EGPD 112258Z 1200/1224 17025G35KT 5000 RA BKN006"
    },
    {
      "icao": "EGPF",
      "alert": "OK",
      "vis_m": 9999,
      "fzfg": false,
      "metar_trigger": false,
      "taf_trigger": false,
      "metar": "METAR EGPF 120120Z AUTO 21025G38KT 9999 -RA FEW019/// SCT025/// BKN030/// //////TCU 09/07 Q0983 RERA",
      "taf": "TAF EGPF 112256Z 1200/1224 21020G38KT 9999 SCT025"
    },
    {
      "icao": "EHBK",
      "alert": "OK",
      "vis_m": 9999,
      "fzfg": false,
      "metar_trigger": false,
      "taf_trigger": false,
      "metar": "METAR EHBK 120125Z AUTO 18012KT 150V210 9999 -RA FEW035/// SCT039/// BKN045/// 01/M01 Q1013 NOSIG",
      "taf": "TAF EHBK 112315Z 1200/1306 19011KT 9999 -FZRA NSC"
    },
    {
      "icao": "EHEH",
      "alert": "OK",
      "vis_m": 8000,
      "fzfg": false,
      "metar_trigger": false,
      "taf_trigger": false,
      "metar": "METAR EHEH 120125Z AUTO 16015KT 120V200 8000 -RA FEW022 BKN027 BKN032 01/M01 Q1012 BLU",
      "taf": "TAF EHEH 112307Z 1200/1306 17011KT 9999 BKN040"
    },
    {
      "icao": "EKBI",
      "alert": "OK",
      "vis_m": 9999,
      "fzfg": false,
      "metar_trigger": false,
      "taf_trigger": false,
      "metar": "METAR EKBI 120120Z AUTO 13011KT 9999 BKN092/// OVC100/// M02/M09 Q1015",
      "taf": "TAF EKBI 112327Z 1200/1224 12008KT CAVOK"
    },
    {
      "icao": "EKCH",
      "alert": "OK",
      "vis_m": 9999,
      "fzfg": false,
      "metar_trigger": false,
      "taf_trigger": false,
      "metar": "METAR EKCH 120120Z AUTO 08003KT 9999 BKN210/// M06/M09 Q1020 NOSIG",
      "taf": "TAF EKCH 112327Z 1200/1224 07005KT CAVOK"
    },
    {
      "icao": "ENAL",
      "alert": "OK",
      "vis_m": 9999,
      "fzfg": false,
      "metar_trigger": false,
      "taf_trigger": false,
      "metar": "METAR ENAL 120120Z AUTO 15017KT 9999 NCD 06/M08 Q1001",
      "taf": "TAF ENAL 112300Z 1200/1209 15012KT CAVOK"
    },
    {
      "icao": "ENBR",
      "alert": "OK",
      "vis_m": 9999,
      "fzfg": false,
      "metar_trigger": false,
      "taf_trigger": false,
      "metar": "METAR ENBR 120120Z 14029G46KT 9999 SQ SCT020 BKN050 04/M07 Q1002 RMK WIND 1200FT 14054G72KT",
      "taf": "TAF ENBR 112300Z 1200/1224 13025G35KT 9999 SCT045"
    },
    {
      "icao": "ENGM",
      "alert": "OK",
      "vis_m": 9999,
      "fzfg": false,
      "metar_trigger": false,
      "taf_trigger": false,
      "metar": "METAR ENGM 120120Z VRB01KT 9999 BKN032 M19/M21 Q1020",
      "taf": "TAF ENGM 112300Z 1200/1224 02003KT 9999 SCT004"
    },
    {
      "icao": "ENHD",
      "alert": "OK",
      "vis_m": 9999,
      "fzfg": false,
      "metar_trigger": false,
      "taf_trigger": false,
      "metar": "METAR ENHD 120120Z AUTO 13034G45KT 9999 -RA FEW023/// SCT032/// BKN039/// 02/M07 Q1002",
      "taf": "TAF ENHD 111400Z 1115/1123 14025KT 9999 BKN040"
    },
    {
      "icao": "ENTC",
      "alert": "OK",
      "vis_m": 9999,
      "fzfg": false,
      "metar_trigger": false,
      "taf_trigger": false,
      "metar": "METAR ENTC 120120Z VRB01KT CAVOK M08/M10 Q1018 RMK WIND 2600FT 18029KT",
      "taf": "TAF ENTC 112300Z 1200/1224 20009KT CAVOK"
    },
    {
      "icao": "ENTO",
      "alert": "OK",
      "vis_m": 9999,
      "fzfg": false,
      "metar_trigger": false,
      "taf_trigger": false,
      "metar": "METAR ENTO 120120Z AUTO 01008KT 9999 R18/P2000N R36///// NCD M13/M15 Q1019",
      "taf": "TAF ENTO 112300Z 1200/1224 02007KT 9999 BKN004"
    },
    {
      "icao": "ENVA",
      "alert": "OK",
      "vis_m": 9999,
      "fzfg": false,
      "metar_trigger": false,
      "taf_trigger": false,
      "metar": "METAR ENVA 120120Z AUTO 11016KT 9999 NCD 00/M09 Q1013 RMK WIND 670FT 12017KT",
      "taf": "TAF ENVA 112300Z 1200/1224 09010KT CAVOK"
    },
    {
      "icao": "ENZV",
      "alert": "OK",
      "vis_m": 9999,
      "fzfg": false,
      "metar_trigger": false,
      "taf_trigger": false,
      "metar": "METAR ENZV 120120Z AUTO 14030G46KT 9999 -DZ FEW028/// SCT034/// 01/M08 Q1004",
      "taf": "TAF ENZV 112300Z 1200/1224 13030G42KT 9999 SCT045"
    },
    {
      "icao": "EPGD",
      "alert": "OK",
      "vis_m": 500,
      "fzfg": false,
      "metar_trigger": false,
      "taf_trigger": false,
      "metar": "METAR EPGD 120130Z 32005KT 0500 R29/1400D +SHSN VV008 M02/M03 Q1013",
      "taf": "TAF EPGD 112330Z 1200/1224 33010KT 9999 -SHSN SCT016CB"
    },
    {
      "icao": "EPKK",
      "alert": "OK",
      "vis_m": 1700,
      "fzfg": false,
      "metar_trigger": false,
      "taf_trigger": false,
      "metar": "METAR EPKK 120130Z 27013KT 1700 SN DRSN BR FEW010 BKN015 M05/M06 Q1016",
      "taf": "TAF EPKK 112330Z 1200/1224 27015KT 6000 -SN BKN020"
    },
    {
      "icao": "EPKT",
      "alert": "OK",
      "vis_m": 9999,
      "fzfg": false,
      "metar_trigger": false,
      "taf_trigger": false,
      "metar": "METAR EPKT 120130Z 28013KT 9999 -SN DRSN SCT008 OVC010 M06/M08 Q1016 RESN",
      "taf": "TAF EPKT 112330Z 1200/1224 28015KT 6000 -SN DRSN BKN014"
    },
    {
      "icao": "EPLB",
      "alert": "OK",
      "vis_m": 2600,
      "fzfg": false,
      "metar_trigger": false,
      "taf_trigger": false,
      "metar": "METAR EPLB 120130Z 35008KT 2600 -SN BR FEW015 BKN020 OVC034 M05/M06 Q1011",
      "taf": "TAF EPLB 112330Z 1200/1224 30008KT 8000 -SN BKN020"
    },
    {
      "icao": "EPMO",
      "alert": "OK",
      "vis_m": 5000,
      "fzfg": false,
      "metar_trigger": false,
      "taf_trigger": false,
      "metar": "METAR EPMO 120130Z 32004KT 280V350 5000 -SN BR BKN010 BKN035 M04/M04 Q1013",
      "taf": "TAF EPMO 112330Z 1200/1224 30010KT 9999 BKN030"
    },
    {
      "icao": "EPPO",
      "alert": "OK",
      "vis_m": 9999,
      "fzfg": false,
      "metar_trigger": false,
      "taf_trigger": false,
      "metar": "METAR EPPO 120130Z 29009KT 9999 BKN029 M06/M09 Q1018",
      "taf": "TAF EPPO 112330Z 1200/1224 29010KT 9999 BKN032"
    },
    {
      "icao": "EPRA",
      "alert": "OK",
      "vis_m": 9000,
      "fzfg": false,
      "metar_trigger": false,
      "taf_trigger": false,
      "metar": "METAR EPRA 120130Z 31010KT 9000 -SN BKN010 OVC024 M04/M05 Q1012",
      "taf": "TAF EPRA 112330Z 1200/1209 32010KT 8000 -SN SCT016 OVC025"
    },
    {
      "icao": "EPRZ",
      "alert": "OK",
      "vis_m": 8000,
      "fzfg": false,
      "metar_trigger": false,
      "taf_trigger": false,
      "metar": "METAR EPRZ 120130Z 27016KT 8000 -SN DRSN FEW003 OVC013 M04/M06 Q1012",
      "taf": "TAF EPRZ 112330Z 1200/1224 28012KT 3000 -SN BR BKN014"
    },
    {
      "icao": "EPSC",
      "alert": "OK",
      "vis_m": 9999,
      "fzfg": false,
      "metar_trigger": false,
      "taf_trigger": false,
      "metar": "METAR EPSC 120130Z VRB02KT CAVOK M11/M12 Q1019",
      "taf": "TAF EPSC 112330Z 1200/1224 27004KT CAVOK"
    },
    {
      "icao": "EPSY",
      "alert": "OK",
      "vis_m": 9999,
      "fzfg": false,
      "metar_trigger": false,
      "taf_trigger": false,
      "metar": "METAR EPSY 120130Z 34004KT 9999 BKN015 M08/M09 Q1013",
      "taf": "TAF EPSY 112330Z 1200/1209 35005KT 9999 BKN014"
    },
    {
      "icao": "EPWA",
      "alert": "OK",
      "vis_m": 4700,
      "fzfg": false,
      "metar_trigger": false,
      "taf_trigger": false,
      "metar": "METAR EPWA 120130Z 30008KT 4700 -SN BR FEW008 SCT041 M04/M05 Q1012 TEMPO 3000 BR BKN005",
      "taf": "TAF EPWA 112330Z 1200/1224 30010KT 9999 BKN018"
    },
    {
      "icao": "EPWR",
      "alert": "OK",
      "vis_m": 9999,
      "fzfg": false,
      "metar_trigger": false,
      "taf_trigger": false,
      "metar": "METAR EPWR 120130Z 28016KT CAVOK M07/M09 Q1020",
      "taf": "TAF EPWR 112330Z 1200/1224 28016KT CAVOK"
    },
    {
      "icao": "ESGG",
      "alert": "OK",
      "vis_m": 9999,
      "fzfg": false,
      "metar_trigger": false,
      "taf_trigger": false,
      "metar": "METAR ESGG 120120Z 10003KT CAVOK M11/M14 Q1018",
      "taf": "TAF ESGG 112330Z 1200/1224 11005KT CAVOK"
    },
    {
      "icao": "ESKN",
      "alert": "OK",
      "vis_m": 9999,
      "fzfg": false,
      "metar_trigger": false,
      "taf_trigger": false,
      "metar": "METAR ESKN 120120Z 32006KT 290V350 9999 OVC019 M07/M09 Q1018",
      "taf": "TAF ESKN 112330Z 1200/1224 34007KT 9999 BKN020"
    },
    {
      "icao": "ESMS",
      "alert": "OK",
      "vis_m": 9999,
      "fzfg": false,
      "metar_trigger": false,
      "taf_trigger": false,
      "metar": "METAR ESMS 120120Z 00000KT CAVOK M15/M17 Q1019",
      "taf": "TAF ESMS 112327Z 1200/1224 VRB04KT CAVOK"
    },
    {
      "icao": "ESSA",
      "alert": "OK",
      "vis_m": 9999,
      "fzfg": false,
      "metar_trigger": false,
      "taf_trigger": false,
      "metar": "METAR ESSA 120120Z 33005KT 9999 -SN FEW013 SCT019 OVC025 M05/M06 Q1017 NOSIG",
      "taf": "TAF ESSA 112330Z 1200/1224 02006KT 9999 -SG BKN020"
    },
    {
      "icao": "EYKA",
      "alert": "OK",
      "vis_m": 9000,
      "fzfg": false,
      "metar_trigger": false,
      "taf_trigger": false,
      "metar": "METAR EYKA 120120Z AUTO 27002KT 9000 -UP OVC030/// M12/M13 Q1012",
      "taf": "TAF EYKA 112300Z 1200/1224 VRB04KT 5000 BR SCT005 BKN015"
    },
    {
      "icao": "EYPA",
      "alert": "OK",
      "vis_m": 9999,
      "fzfg": false,
      "metar_trigger": false,
      "taf_trigger": false,
      "metar": "METAR EYPA 120120Z 05001KT CAVOK M08/M09 Q1013",
      "taf": "TAF EYPA 112300Z 1200/1224 VRB04KT 5000 BR SCT005 SCT015"
    },
    {
      "icao": "EYVI",
      "alert": "OK",
      "vis_m": 8000,
      "fzfg": false,
      "metar_trigger": false,
      "taf_trigger": false,
      "metar": "METAR EYVI 120120Z VRB02KT 8000 -SN SCT004 BKN018 M15/M16 Q1010 TEMPO BKN002",
      "taf": "TAF EYVI 112309Z 1200/1224 VRB04KT 5000 BR SCT005 BKN015"
    },
    {
      "icao": "GCFV",
      "alert": "OK",
      "vis_m": 9999,
      "fzfg": false,
      "metar_trigger": false,
      "taf_trigger": false,
      "metar": "METAR GCFV 120130Z AUTO 03009KT 9999 FEW019 17/12 Q1023",
      "taf": "TAF GCFV 112000Z 1121/1221 03006KT 9999 FEW020 TX21/1214Z TN14/1206Z"
    },
    {
      "icao": "GCLP",
      "alert": "OK",
      "vis_m": 9999,
      "fzfg": false,
      "metar_trigger": false,
      "taf_trigger": false,
      "metar": "METAR GCLP 120130Z 33007KT 9999 FEW025 15/11 Q1023 NOSIG",
      "taf": "TAF GCLP 112000Z 1121/1221 33007KT 9999 SCT025 TX21/1214Z TN15/1206Z"
    },
    {
      "icao": "GCTS",
      "alert": "OK",
      "vis_m": 9999,
      "fzfg": false,
      "metar_trigger": false,
      "taf_trigger": false,
      "metar": "METAR GCTS 120130Z 02008KT 9999 FEW030 16/10 Q1023 NOSIG",
      "taf": "TAF GCTS 112000Z 1121/1221 03008KT 9999 FEW030 TX23/1214Z TN16/1206Z"
    },
    {
      "icao": "GMAD",
      "alert": "OK",
      "vis_m": 9999,
      "fzfg": false,
      "metar_trigger": false,
      "taf_trigger": false,
      "metar": "METAR GMAD 120130Z 09008KT CAVOK 07/07 Q1023 NOSIG",
      "taf": "TAF GMAD 112300Z 1200/1306 20008KT CAVOK"
    },
    {
      "icao": "GMMN",
      "alert": "OK",
      "vis_m": 2000,
      "fzfg": false,
      "metar_trigger": false,
      "taf_trigger": false,
      "metar": "METAR GMMN 120130Z 14006KT 2000 R35L/0600V0700U BR NCD 05/04 Q1024 NOSIG",
      "taf": "TAF GMMN 112300Z 1200/1306 17004KT 9999 FEW020"
    },
    {
      "icao": "GMMX",
      "alert": "OK",
      "vis_m": 6000,
      "fzfg": false,
      "metar_trigger": false,
      "taf_trigger": false,
      "metar": "METAR GMMX 120130Z 10003KT 6000 NSC 08/06 Q1023 NOSIG",
      "taf": "TAF GMMX 112300Z 1200/1306 06006KT 7000 NSC"
    },
    {
      "icao": "HEGN",
      "alert": "OK",
      "vis_m": null,
      "fzfg": false,
      "metar_trigger": false,
      "taf_trigger": false,
      "metar": "",
      "taf": "TAF HEGN 112300Z 1200/1306 28008KT CAVOK"
    },
    {
      "icao": "HEMA",
      "alert": "OK",
      "vis_m": null,
      "fzfg": false,
      "metar_trigger": false,
      "taf_trigger": false,
      "metar": "",
      "taf": "TAF HEMA 112300Z 1200/1306 28008G20KT CAVOK"
    },
    {
      "icao": "HESH",
      "alert": "OK",
      "vis_m": null,
      "fzfg": false,
      "metar_trigger": false,
      "taf_trigger": false,
      "metar": "",
      "taf": "TAF HESH 112300Z 1200/1306 31006G18KT CAVOK"
    },
    {
      "icao": "HESX",
      "alert": "OK",
      "vis_m": null,
      "fzfg": false,
      "metar_trigger": false,
      "taf_trigger": false,
      "metar": "",
      "taf": "TAF HESX 112300Z 1200/1306 21008KT CAVOK"
    },
    {
      "icao": "LATI",
      "alert": "OK",
      "vis_m": 9999,
      "fzfg": false,
      "metar_trigger": false,
      "taf_trigger": false,
      "metar": "METAR LATI 120120Z 29006KT CAVOK 00/M11 Q1018 NOSIG",
      "taf": "TAF LATI 112300Z 1200/1224 VRB05KT CAVOK TX06/1212Z TNM04/1205Z"
    },
    {
      "icao": "LBPD",
      "alert": "OK",
      "vis_m": 9999,
      "fzfg": false,
      "metar_trigger": false,
      "taf_trigger": false,
      "metar": "METAR LBPD 120130Z AUTO 28017KT 9999 OVC070/// M02/M09 Q1017",
      "taf": "TAF LBPD 112300Z 1200/1224 28020KT 9999 BKN040"
    },
    {
      "icao": "LBSF",
      "alert": "OK",
      "vis_m": 9999,
      "fzfg": false,
      "metar_trigger": false,
      "taf_trigger": false,
      "metar": "METAR LBSF 120130Z AUTO 28010KT 9999 FEW035/// M06/M09 Q1017 NOSIG",
      "taf": "TAF LBSF 112300Z 1200/1224 28012KT 9999 BKN040"
    },
    {
      "icao": "LBWN",
      "alert": "OK",
      "vis_m": 6000,
      "fzfg": false,
      "metar_trigger": false,
      "taf_trigger": false,
      "metar": "METAR LBWN 120130Z AUTO 26012KT 6000 -SHSN SCT015/// SCT027/// OVC039/// M03/M06 Q1017 NOSIG",
      "taf": "TAF LBWN 112300Z 1200/1224 31010KT 9999 SCT020 BKN040"
    },
    {
      "icao": "LCLK",
      "alert": "OK",
      "vis_m": 9999,
      "fzfg": false,
      "metar_trigger": false,
      "taf_trigger": false,
      "metar": "METAR LCLK 120130Z 24008KT 9999 FEW025 BKN060 14/12 Q1010 NOSIG",
      "taf": "TAF LCLK 112330Z 1200/1300 23015KT 9999 FEW025 BKN060"
    },
    {
      "icao": "LCPH",
      "alert": "OK",
      "vis_m": 4200,
      "fzfg": false,
      "metar_trigger": false,
      "taf_trigger": false,
      "metar": "METAR LCPH 120130Z AUTO 28017KT 250V320 4200 BKN039 17/09 Q1010 NOSIG",
      "taf": "TAF LCPH 112330Z 1200/1300 27015KT 9999 FEW030 SCT050"
    },
    {
      "icao": "LEAL",
      "alert": "OK",
      "vis_m": 9999,
      "fzfg": false,
      "metar_trigger": false,
      "taf_trigger": false,
      "metar": "METAR LEAL 120130Z VRB02KT CAVOK 08/04 Q1024 NOSIG",
      "taf": "TAF LEAL 112300Z 1200/1224 29007KT CAVOK TX16/1213Z TN07/1206Z"
    },
    {
      "icao": "LEBB",
      "alert": "OK",
      "vis_m": 9999,
      "fzfg": false,
      "metar_trigger": false,
      "taf_trigger": false,
      "metar": "METAR LEBB 120130Z AUTO 19011G22KT 140V260 CAVOK 16/07 Q1018",
      "taf": "TAF LEBB 112300Z 1200/1224 18008KT 9999 SCT060 TX15/1214Z TN12/1207Z"
    },
    {
      "icao": "LEBL",
      "alert": "OK",
      "vis_m": 9999,
      "fzfg": false,
      "metar_trigger": false,
      "taf_trigger": false,
      "metar": "METAR LEBL 120130Z 32007KT CAVOK 06/03 Q1023 NOSIG",
      "taf": "TAF LEBL 112300Z 1200/1224 33006KT 9999 FEW020 TX15/1213Z TN05/1206Z"
    },
    {
      "icao": "LECH",
      "alert": "OK",
      "vis_m": 7000,
      "fzfg": false,
      "metar_trigger": false,
      "taf_trigger": false,
      "metar": "METAR LECH 120130Z AUTO 17003KT 7000 NCD 05/02 Q1023",
      "taf": ""
    },
    {
      "icao": "LEMD",
      "alert": "OK",
      "vis_m": 9999,
      "fzfg": false,
      "metar_trigger": false,
      "taf_trigger": false,
      "metar": "METAR LEMD 120130Z 34003KT 9999 FEW018 00/00 Q1025 NOSIG",
      "taf": "TAF LEMD 112300Z 1200/1306 VRB03KT CAVOK TX08/1215Z TN01/1306Z"
    },
    {
      "icao": "LEMG",
      "alert": "OK",
      "vis_m": 9999,
      "fzfg": false,
      "metar_trigger": false,
      "taf_trigger": false,
      "metar": "METAR LEMG 120130Z 29008KT CAVOK 06/05 Q1025 NOSIG",
      "taf": "TAF LEMG 112300Z 1200/1224 27006KT CAVOK TX17/1214Z TN07/1207Z"
    },
    {
      "icao": "LEVC",
      "alert": "OK",
      "vis_m": 9999,
      "fzfg": false,
      "metar_trigger": false,
      "taf_trigger": false,
      "metar": "METAR LEVC 120130Z 31005KT CAVOK 05/03 Q1023 NOSIG",
      "taf": "TAF LEVC 112300Z 1200/1224 27005KT CAVOK TX19/1214Z TN05/1206Z"
    },
    {
      "icao": "LEXJ",
      "alert": "OK",
      "vis_m": 9999,
      "fzfg": false,
      "metar_trigger": false,
      "taf_trigger": false,
      "metar": "METAR LEXJ 120130Z AUTO 21014KT 150V260 9999 3800E NSC 16/06 Q1016",
      "taf": "TAF LEXJ 112000Z 1121/1221 22009KT 9999 SCT060 TX15/1213Z TN12/1208Z"
    },
    {
      "icao": "LEZG",
      "alert": "OK",
      "vis_m": 9999,
      "fzfg": false,
      "metar_trigger": false,
      "taf_trigger": false,
      "metar": "METAR LEZG 120130Z 09002KT CAVOK 06/04 Q1023 NOSIG",
      "taf": "TAF LEZG 112300Z 1200/1224 VRB04KT CAVOK TX14/1215Z TN04/1206Z"
    },
    {
      "icao": "LEZL",
      "alert": "OK",
      "vis_m": 9999,
      "fzfg": false,
      "metar_trigger": false,
      "taf_trigger": false,
      "metar": "METAR LEZL 120130Z AUTO 33003KT 300V360 CAVOK 05/05 Q1025",
      "taf": "TAF LEZL 112000Z 1121/1221 06004KT CAVOK TX16/1215Z TN05/1207Z"
    },
    {
      "icao": "LFBD",
      "alert": "OK",
      "vis_m": 9999,
      "fzfg": false,
      "metar_trigger": false,
      "taf_trigger": false,
      "metar": "METAR LFBD 120130Z AUTO 15006KT CAVOK 05/05 Q1018",
      "taf": ""
    },
    {
      "icao": "LFLL",
      "alert": "OK",
      "vis_m": 9999,
      "fzfg": false,
      "metar_trigger": false,
      "taf_trigger": false,
      "metar": "METAR LFLL 120130Z 16005KT CAVOK 02/M01 Q1022 NOSIG",
      "taf": "TAF LFLL 112300Z 1200/1306 18007KT CAVOK"
    },
    {
      "icao": "LFLS",
      "alert": "OK",
      "vis_m": 9999,
      "fzfg": false,
      "metar_trigger": false,
      "taf_trigger": false,
      "metar": "METAR LFLS 120130Z AUTO 08009KT CAVOK 00/M02 Q1021",
      "taf": "TAF LFLS 111400Z 1115/1215 09005KT CAVOK"
    },
    {
      "icao": "LFMN",
      "alert": "OK",
      "vis_m": 9999,
      "fzfg": false,
      "metar_trigger": false,
      "taf_trigger": false,
      "metar": "METAR LFMN 120130Z 32014KT CAVOK 06/M05 Q1023 NOSIG",
      "taf": "TAF LFMN 112000Z 1121/1303 33012KT CAVOK"
    },
    {
      "icao": "LFOB",
      "alert": "OK",
      "vis_m": 9999,
      "fzfg": false,
      "metar_trigger": false,
      "taf_trigger": false,
      "metar": "METAR LFOB 120130Z AUTO 18015KT 9999 -RA OVC011/// ///TCU 05/04 Q1010 TEMPO 2000 DZ OVC002",
      "taf": "TAF LFOB 112300Z 1200/1224 18015G25KT 9999 OVC020"
    },
    {
      "icao": "LFPO",
      "alert": "OK",
      "vis_m": 9999,
      "fzfg": false,
      "metar_trigger": false,
      "taf_trigger": false,
      "metar": "METAR LFPO 120130Z AUTO 19009KT 150V210 9999 OVC012 05/03 Q1013",
      "taf": ""
    },
    {
      "icao": "LFSB",
      "alert": "OK",
      "vis_m": 9999,
      "fzfg": false,
      "metar_trigger": false,
      "taf_trigger": false,
      "metar": "METAR LFSB 120130Z AUTO 17004KT CAVOK M00/M02 Q1020 NOSIG",
      "taf": "TAF LFSB 112300Z 1200/1224 12006KT CAVOK"
    },
    {
      "icao": "LGAV",
      "alert": "OK",
      "vis_m": 9999,
      "fzfg": false,
      "metar_trigger": false,
      "taf_trigger": false,
      "metar": "METAR LGAV 120120Z 32008KT 9999 FEW020 06/M01 Q1012 NOSIG",
      "taf": "TAF LGAV 112300Z 1200/1224 34012KT 9999 FEW018 SCT025"
    },
    {
      "icao": "LGTS",
      "alert": "OK",
      "vis_m": 9999,
      "fzfg": false,
      "metar_trigger": false,
      "taf_trigger": false,
      "metar": "METAR LGTS 120120Z 34017G27KT 9999 SCT025 01/M07 Q1017 NOSIG",
      "taf": "TAF LGTS 112300Z 1200/1224 34015G30KT 9999 FEW025"
    },
    {
      "icao": "LHBP",
      "alert": "OK",
      "vis_m": 9999,
      "fzfg": false,
      "metar_trigger": false,
      "taf_trigger": false,
      "metar": "METAR LHBP 120130Z 32014KT 9999 DRSN NSC M06/M11 Q1019 NOSIG",
      "taf": "TAF LHBP 112315Z 1200/1224 30010KT CAVOK"
    },
    {
      "icao": "LHDC",
      "alert": "OK",
      "vis_m": 9999,
      "fzfg": false,
      "metar_trigger": false,
      "taf_trigger": false,
      "metar": "METAR LHDC 120115Z AUTO 17007KT CAVOK M11/M12 Q1018",
      "taf": "TAF LHDC 111715Z 1118/1203 20008KT CAVOK"
    },
    {
      "icao": "LIBD",
      "alert": "OK",
      "vis_m": 9999,
      "fzfg": false,
      "metar_trigger": false,
      "taf_trigger": false,
      "metar": "METAR LIBD 120120Z 34012KT 300V020 9999 SCT045 06/M05 Q1022",
      "taf": "TAF LIBD 112300Z 1200/1224 34016KT 9999 FEW040"
    },
    {
      "icao": "LIBG",
      "alert": "OK",
      "vis_m": null,
      "fzfg": false,
      "metar_trigger": false,
      "taf_trigger": false,
      "metar": "",
      "taf": "TAF LIBG 111700Z 1118/1203 33015KT 9999 FEW040"
    },
    {
      "icao": "LIBP",
      "alert": "OK",
      "vis_m": 9999,
      "fzfg": false,
      "metar_trigger": false,
      "taf_trigger": false,
      "metar": "METAR LIBP 120120Z AUTO 21002KT 9999 NCD M01/M01 Q1025",
      "taf": "TAF LIBP 112300Z 1200/1224 22006KT CAVOK"
    },
    {
      "icao": "LIBR",
      "alert": "OK",
      "vis_m": 9999,
      "fzfg": false,
      "metar_trigger": false,
      "taf_trigger": false,
      "metar": "METAR LIBR 120120Z 36020KT 9999 BKN045 06/M04 Q1019",
      "taf": "TAF LIBR 112300Z 1200/1224 35020G35KT 9999 SCT040"
    },
    {
      "icao": "LICA",
      "alert": "OK",
      "vis_m": 9999,
      "fzfg": false,
      "metar_trigger": false,
      "taf_trigger": false,
      "metar": "METAR LICA 120120Z AUTO 08006KT 9999 NCD 05/M12 Q1021",
      "taf": "TAF LICA 112300Z 1200/1224 04007KT CAVOK"
    },
    {
      "icao": "LICC",
      "alert": "OK",
      "vis_m": 9999,
      "fzfg": false,
      "metar_trigger": false,
      "taf_trigger": false,
      "metar": "METAR LICC 120120Z 22005KT CAVOK 06/01 Q1021",
      "taf": "TAF LICC 112300Z 1200/1224 26008KT 9999 FEW040"
    },
    {
      "icao": "LICJ",
      "alert": "OK",
      "vis_m": 9999,
      "fzfg": false,
      "metar_trigger": false,
      "taf_trigger": false,
      "metar": "METAR LICJ 120120Z 02012KT 340V060 9999 SCT050 13/06 Q1022",
      "taf": "TAF LICJ 112300Z 1200/1224 04010KT 9999 FEW030"
    },
    {
      "icao": "LIMC",
      "alert": "OK",
      "vis_m": 9999,
      "fzfg": false,
      "metar_trigger": false,
      "taf_trigger": false,
      "metar": "METAR LIMC 120120Z 02007KT CAVOK M05/M08 Q1022 NOSIG",
      "taf": "TAF LIMC 112300Z 1200/1306 VRB05KT CAVOK"
    },
    {
      "icao": "LIME",
      "alert": "OK",
      "vis_m": 9999,
      "fzfg": false,
      "metar_trigger": false,
      "taf_trigger": false,
      "metar": "METAR LIME 120120Z AUTO 02004KT 9999 NCD M01/M10 Q1022",
      "taf": "TAF LIME 112300Z 1200/1224 VRB05KT CAVOK"
    },
    {
      "icao": "LIMF",
      "alert": "OK",
      "vis_m": 9999,
      "fzfg": false,
      "metar_trigger": false,
      "taf_trigger": false,
      "metar": "METAR LIMF 120120Z 04002KT CAVOK M01/M08 Q1022",
      "taf": "TAF LIMF 112300Z 1200/1224 VRB05KT CAVOK"
    },
    {
      "icao": "LIMJ",
      "alert": "OK",
      "vis_m": 9999,
      "fzfg": false,
      "metar_trigger": false,
      "taf_trigger": false,
      "metar": "METAR LIMJ 120120Z VRB02KT CAVOK 06/M09 Q1022",
      "taf": "TAF LIMJ 112300Z 1200/1224 VRB05KT CAVOK"
    },
    {
      "icao": "LIPE",
      "alert": "OK",
      "vis_m": 9999,
      "fzfg": false,
      "metar_trigger": false,
      "taf_trigger": false,
      "metar": "METAR LIPE 120120Z 20007KT CAVOK 00/M06 Q1023",
      "taf": "TAF LIPE 112300Z 1200/1224 VRB05KT CAVOK"
    },
    {
      "icao": "LIPH",
      "alert": "OK",
      "vis_m": 9999,
      "fzfg": false,
      "metar_trigger": false,
      "taf_trigger": false,
      "metar": "METAR LIPH 120120Z AUTO 02004KT 9999 NCD M01/M03 Q1023",
      "taf": "TAF LIPH 112300Z 1200/1224 VRB05KT 9999 FEW030"
    },
    {
      "icao": "LIPQ",
      "alert": "OK",
      "vis_m": 9999,
      "fzfg": false,
      "metar_trigger": false,
      "taf_trigger": false,
      "metar": "METAR LIPQ 120120Z AUTO 06002KT 9999 BKN039/// M03/M06 Q1023",
      "taf": "TAF LIPQ 112300Z 1200/1224 VRB05KT 9999 SCT040"
    },
    {
      "icao": "LIPR",
      "alert": "OK",
      "vis_m": 9999,
      "fzfg": false,
      "metar_trigger": false,
      "taf_trigger": false,
      "metar": "METAR LIPR 120120Z AUTO 22002KT 9999 NCD M02/M04 Q1023",
      "taf": "TAF LIPR 112300Z 1200/1224 VRB05KT CAVOK"
    },
    {
      "icao": "LIPX",
      "alert": "OK",
      "vis_m": 9999,
      "fzfg": false,
      "metar_trigger": false,
      "taf_trigger": false,
      "metar": "METAR LIPX 120120Z VRB02KT CAVOK M03/M07 Q1023",
      "taf": "TAF LIPX 112300Z 1200/1224 VRB05KT CAVOK"
    },
    {
      "icao": "LIPY",
      "alert": "OK",
      "vis_m": 9999,
      "fzfg": false,
      "metar_trigger": false,
      "taf_trigger": false,
      "metar": "METAR LIPY 120120Z AUTO 20005KT 9999 NCD 00/M02 Q1024",
      "taf": "TAF LIPY 112300Z 1200/1224 22007KT 9999 FEW040"
    },
    {
      "icao": "LIPZ",
      "alert": "OK",
      "vis_m": 9999,
      "fzfg": false,
      "metar_trigger": false,
      "taf_trigger": false,
      "metar": "METAR LIPZ 120120Z 01006KT CAVOK M01/M04 Q1023 NOSIG",
      "taf": "TAF LIPZ 112300Z 1200/1306 VRB05KT CAVOK"
    },
    {
      "icao": "LIRF",
      "alert": "OK",
      "vis_m": 9999,
      "fzfg": false,
      "metar_trigger": false,
      "taf_trigger": false,
      "metar": "METAR LIRF 120120Z 10005KT 060V130 CAVOK 03/M03 Q1024 NOSIG",
      "taf": "TAF LIRF 112300Z 1200/1306 02010KT CAVOK"
    },
    {
      "icao": "LIRN",
      "alert": "OK",
      "vis_m": 9999,
      "fzfg": false,
      "metar_trigger": false,
      "taf_trigger": false,
      "metar": "METAR LIRN 120120Z 05010KT CAVOK 04/M07 Q1024 NOSIG",
      "taf": "TAF LIRN 112300Z 1200/1224 05007KT CAVOK"
    },
    {
      "icao": "LIRP",
      "alert": "OK",
      "vis_m": 9999,
      "fzfg": false,
      "metar_trigger": false,
      "taf_trigger": false,
      "metar": "METAR LIRP 120115Z 12004KT CAVOK M02/M02 Q1024 NOSIG",
      "taf": "TAF LIRP 112300Z 1200/1224 12005KT CAVOK"
    },
    {
      "icao": "LIRZ",
      "alert": "OK",
      "vis_m": 9999,
      "fzfg": false,
      "metar_trigger": false,
      "taf_trigger": false,
      "metar": "METAR LIRZ 120120Z AUTO 04003KT 360V080 9999 NCD M03/M03 Q1024",
      "taf": "TAF LIRZ 112300Z 1200/1224 VRB05KT 9999 FEW050"
    },
    {
      "icao": "LJLJ",
      "alert": "OK",
      "vis_m": 9999,
      "fzfg": false,
      "metar_trigger": false,
      "taf_trigger": false,
      "metar": "METAR LJLJ 120130Z VRB01KT 9999 MIFG NSC M13/M14 Q1023 NOSIG",
      "taf": "TAF LJLJ 112300Z 1200/1300 VRB02KT CAVOK"
    },
    {
      "icao": "LKMT",
      "alert": "OK",
      "vis_m": 9999,
      "fzfg": false,
      "metar_trigger": false,
      "taf_trigger": false,
      "metar": "METAR LKMT 120130Z 22014KT 9999 OVC038 M07/M09 Q1019 NOSIG",
      "taf": "TAF LKMT 112300Z 1200/1224 23009KT 9999 BKN033"
    },
    {
      "icao": "LKPR",
      "alert": "OK",
      "vis_m": 9999,
      "fzfg": false,
      "metar_trigger": false,
      "taf_trigger": false,
      "metar": "METAR LKPR 120130Z 20011KT CAVOK M10/M12 Q1021 NOSIG",
      "taf": "TAF LKPR 112300Z 1200/1306 25010KT CAVOK"
    },
    {
      "icao": "LLBG",
      "alert": "OK",
      "vis_m": 9999,
      "fzfg": false,
      "metar_trigger": false,
      "taf_trigger": false,
      "metar": "METAR LLBG 120120Z VRB03KT CAVOK 12/08 Q1015 NOSIG",
      "taf": "TAF LLBG 112318Z 1200/1224 14005KT CAVOK"
    },
    {
      "icao": "LMML",
      "alert": "OK",
      "vis_m": 9999,
      "fzfg": false,
      "metar_trigger": false,
      "taf_trigger": false,
      "metar": "METAR LMML 120115Z 29012KT 9999 FEW022 10/04 Q1021 NOSIG",
      "taf": "TAF LMML 112300Z 1200/1224 31009KT 9999 FEW028"
    },
    {
      "icao": "LOWW",
      "alert": "OK",
      "vis_m": 9999,
      "fzfg": false,
      "metar_trigger": false,
      "taf_trigger": false,
      "metar": "METAR LOWW 120120Z 30014KT CAVOK M05/M12 Q1022 NOSIG",
      "taf": "TAF LOWW 112315Z 1200/1306 30010KT CAVOK TXM02/1306Z TNM08/1207Z"
    },
    {
      "icao": "LPFR",
      "alert": "OK",
      "vis_m": 9999,
      "fzfg": false,
      "metar_trigger": false,
      "taf_trigger": false,
      "metar": "METAR LPFR 120130Z 03005KT CAVOK 09/08 Q1024",
      "taf": "TAF LPFR 112300Z 1200/1224 03005KT 9999 FEW025"
    },
    {
      "icao": "LPMA",
      "alert": "OK",
      "vis_m": 9999,
      "fzfg": false,
      "metar_trigger": false,
      "taf_trigger": false,
      "metar": "METAR LPMA 120130Z 28001KT 9999 BKN015 15/13 Q1024",
      "taf": "TAF LPMA 112300Z 1200/1224 VRB05KT 9999 SCT015"
    },
    {
      "icao": "LPPR",
      "alert": "OK",
      "vis_m": 9999,
      "fzfg": false,
      "metar_trigger": false,
      "taf_trigger": false,
      "metar": "METAR LPPR 120130Z 19014KT 9999 BKN005 BKN012 13/12 Q1020",
      "taf": "TAF LPPR 112300Z 1200/1224 18015KT 9999 SCT006 BKN012"
    },
    {
      "icao": "LPPS",
      "alert": "OK",
      "vis_m": 9999,
      "fzfg": false,
      "metar_trigger": false,
      "taf_trigger": false,
      "metar": "METAR LPPS 120130Z 14002KT 9999 SCT014 14/13 Q1024",
      "taf": "TAF LPPS 112300Z 1200/1306 VRB05KT 9999 SCT015 SCT030"
    },
    {
      "icao": "LPPT",
      "alert": "OK",
      "vis_m": 3000,
      "fzfg": false,
      "metar_trigger": false,
      "taf_trigger": false,
      "metar": "METAR LPPT 120130Z 20009KT 3000 -DZ BR FEW002 BKN006 12/12 Q1023",
      "taf": "TAF LPPT 112300Z 1200/1306 21008KT 9999 SCT008 BKN020"
    },
    {
      "icao": "LQBK",
      "alert": "OK",
      "vis_m": 9999,
      "fzfg": false,
      "metar_trigger": false,
      "taf_trigger": false,
      "metar": "METAR LQBK 120130Z VRB03KT CAVOK M10/M11 Q1024 NOSIG",
      "taf": "TAF LQBK 112300Z 1200/1224 16005KT CAVOK TX00/1212Z TNM13/1206Z"
    },
    {
      "icao": "LQSA",
      "alert": "OK",
      "vis_m": 9999,
      "fzfg": false,
      "metar_trigger": false,
      "taf_trigger": false,
      "metar": "METAR LQSA 120130Z 12001KT 9999 FEW065 M10/M10 Q1022",
      "taf": "TAF LQSA 112300Z 1200/1224 15005KT CAVOK TXM03/1214Z TNM13/1206Z"
    },
    {
      "icao": "LQTZ",
      "alert": "OK",
      "vis_m": 9999,
      "fzfg": false,
      "metar_trigger": false,
      "taf_trigger": false,
      "metar": "METAR LQTZ 120130Z 31004KT CAVOK M06/M07 Q1023",
      "taf": "TAF LQTZ 112300Z 1200/1224 28005KT CAVOK TXM01/1213Z TNM10/1206Z"
    },
    {
      "icao": "LRBC",
      "alert": "OK",
      "vis_m": 9999,
      "fzfg": false,
      "metar_trigger": false,
      "taf_trigger": false,
      "metar": "METAR LRBC 120130Z 28007KT CAVOK M04/M12 Q1014",
      "taf": "TAF LRBC 112300Z 1200/1209 26016KT CAVOK"
    },
    {
      "icao": "LRBS",
      "alert": "OK",
      "vis_m": 4000,
      "fzfg": false,
      "metar_trigger": false,
      "taf_trigger": false,
      "metar": "METAR LRBS 120130Z 26007KT 4000 BR NSC M05/M06 Q1017 NOSIG",
      "taf": "TAF LRBS 112300Z 1200/1224 27006KT 5000 BR NSC"
    },
    {
      "icao": "LRBV",
      "alert": "OK",
      "vis_m": 9999,
      "fzfg": false,
      "metar_trigger": false,
      "taf_trigger": false,
      "metar": "METAR LRBV 120130Z AUTO 33006KT 300V360 9999 NCD M09/M11 Q1015",
      "taf": "TAF LRBV 112000Z 1121/1206 28006KT 9999 BKN050"
    },
    {
      "icao": "LRCL",
      "alert": "OK",
      "vis_m": 9999,
      "fzfg": false,
      "metar_trigger": false,
      "taf_trigger": false,
      "metar": "METAR LRCL 120130Z 00000KT 9999 BKN037 M09/M10 Q1016",
      "taf": "TAF LRCL 112300Z 1200/1209 VRB04KT 9999 SCT055"
    },
    {
      "icao": "LRCV",
      "alert": "OK",
      "vis_m": 9999,
      "fzfg": false,
      "metar_trigger": false,
      "taf_trigger": false,
      "metar": "METAR LRCV 120130Z 29006KT CAVOK M08/M10 Q1018",
      "taf": "TAF LRCV 112300Z 1200/1209 28008KT CAVOK"
    },
    {
      "icao": "LRIA",
      "alert": "OK",
      "vis_m": 9999,
      "fzfg": false,
      "metar_trigger": false,
      "taf_trigger": false,
      "metar": "METAR LRIA 120130Z 22003KT 9999 FEW044 M05/M11 Q1013",
      "taf": "TAF LRIA 112300Z 1200/1209 VRB04KT CAVOK"
    },
    {
      "icao": "LROP",
      "alert": "OK",
      "vis_m": 4000,
      "fzfg": false,
      "metar_trigger": false,
      "taf_trigger": false,
      "metar": "METAR LROP 120130Z 24007KT 4000 BR NSC M06/M07 Q1017 NOSIG",
      "taf": "TAF LROP 112300Z 1200/1224 27007KT 3000 BR NSC"
    },
    {
      "icao": "LRSB",
      "alert": "OK",
      "vis_m": 9999,
      "fzfg": false,
      "metar_trigger": false,
      "taf_trigger": false,
      "metar": "METAR LRSB 120130Z VRB02KT CAVOK M11/M12 Q1016",
      "taf": "TAF LRSB 112300Z 1200/1224 VRB04KT 9999 BKN060"
    },
    {
      "icao": "LRSM",
      "alert": "OK",
      "vis_m": 4500,
      "fzfg": false,
      "metar_trigger": false,
      "taf_trigger": false,
      "metar": "METAR LRSM 120130Z AUTO 26012KT 4500 -SN VV011 M05/M07 Q1017",
      "taf": "TAF LRSM 111400Z 1115/1124 27014KT 9999 BKN040"
    },
    {
      "icao": "LRSV",
      "alert": "OK",
      "vis_m": 9999,
      "fzfg": false,
      "metar_trigger": false,
      "taf_trigger": false,
      "metar": "METAR LRSV 120130Z 25007KT CAVOK M05/M11 Q1010",
      "taf": "TAF LRSV 112300Z 1200/1209 26009KT CAVOK"
    },
    {
      "icao": "LRTM",
      "alert": "OK",
      "vis_m": 9999,
      "fzfg": false,
      "metar_trigger": false,
      "taf_trigger": false,
      "metar": "METAR LRTM 120130Z AUTO VRB01KT 9999 FEW041/// SCT050/// BKN095/// M10/M13 Q1017",
      "taf": "TAF LRTM 111400Z 1115/1124 VRB04KT 9999 OVC045"
    },
    {
      "icao": "LRTR",
      "alert": "OK",
      "vis_m": 9999,
      "fzfg": false,
      "metar_trigger": false,
      "taf_trigger": false,
      "metar": "METAR LRTR 120130Z 17004KT 9999 SCT031 M10/M12 Q1020",
      "taf": "TAF LRTR 112300Z 1200/1224 VRB04KT 9999 BKN035"
    },
    {
      "icao": "LTAC",
      "alert": "OK",
      "vis_m": 2900,
      "fzfg": false,
      "metar_trigger": false,
      "taf_trigger": false,
      "metar": "METAR LTAC 120120Z 20003KT 2900 -SN BR SCT003 BKN020 BKN080 01/00 Q1005 BECMG TL0220 4000 RMK RWY21C 17002KT RWY03L 00000KT RWY21R 00000KT RWY03R 18003KT RWY21L 18003KT",
      "taf": "TAF LTAC 112240Z 1200/1224 VRB02KT 6000 SCT035 BKN090"
    },
    {
      "icao": "LTFM",
      "alert": "OK",
      "vis_m": 2800,
      "fzfg": false,
      "metar_trigger": false,
      "taf_trigger": false,
      "metar": "METAR LTFM 120120Z 02022KT 2800 -SHSN BKN006 BKN020 01/00 Q1013 NOSIG RMK RWY17L 02022KT RWY34L 02021KT RWY16R 02021KT RWY36 02022KT RWY18 03020KT",
      "taf": "TAF LTFM 112240Z 1200/1306 02018KT 9999 -SHSN BKN012 BKN020"
    },
    {
      "icao": "LUKK",
      "alert": "OK",
      "vis_m": 9999,
      "fzfg": false,
      "metar_trigger": false,
      "taf_trigger": false,
      "metar": "METAR LUKK 120130Z 27005KT CAVOK M09/M12 Q1013 NOSIG",
      "taf": "TAF LUKK 112314Z 1200/1224 27008KT CAVOK"
    },
    {
      "icao": "LWOH",
      "alert": "OK",
      "vis_m": null,
      "fzfg": false,
      "metar_trigger": false,
      "taf_trigger": false,
      "metar": "",
      "taf": "TAF LWOH 112330Z 1200/1224 34010KT 9999 FEW040"
    },
    {
      "icao": "LWSK",
      "alert": "OK",
      "vis_m": 9999,
      "fzfg": false,
      "metar_trigger": false,
      "taf_trigger": false,
      "metar": "METAR LWSK 120120Z 30004KT 250V010 9999 SCT056 M04/M10 Q1021 NOSIG",
      "taf": "TAF LWSK 112330Z 1200/1224 01010KT 9999 SCT050"
    },
    {
      "icao": "LYBE",
      "alert": "OK",
      "vis_m": 9999,
      "fzfg": false,
      "metar_trigger": false,
      "taf_trigger": false,
      "metar": "METAR LYBE 120130Z 27009KT CAVOK M05/M09 Q1022 NOSIG",
      "taf": "TAF LYBE 112300Z 1200/1224 27008KT CAVOK TXM01/1212Z TNM10/1206Z"
    },
    {
      "icao": "LYNI",
      "alert": "OK",
      "vis_m": 9999,
      "fzfg": false,
      "metar_trigger": false,
      "taf_trigger": false,
      "metar": "METAR LYNI 120130Z VRB02KT 9999 SCT015 BKN030 OVC070 M04/M06 Q1021 NOSIG",
      "taf": "TAF LYNI 112300Z 1200/1224 30005KT 9999 SCT015 BKN030 TXM02/1212Z TNM07/1206Z"
    },
    {
      "icao": "LYPG",
      "alert": "OK",
      "vis_m": 9999,
      "fzfg": false,
      "metar_trigger": false,
      "taf_trigger": false,
      "metar": "METAR LYPG 120130Z 35017KT CAVOK 00/M12 Q1021 NOSIG",
      "taf": "TAF LYPG 112300Z 1200/1224 36015G25KT CAVOK TX05/1212Z TNM04/1223Z"
    },
    {
      "icao": "LZIB",
      "alert": "OK",
      "vis_m": 9999,
      "fzfg": false,
      "metar_trigger": false,
      "taf_trigger": false,
      "metar": "METAR LZIB 120130Z 30015KT CAVOK M05/M13 Q1022 NOSIG",
      "taf": "TAF LZIB 112315Z 1200/1300 29010KT CAVOK"
    },
    {
      "icao": "LZKZ",
      "alert": "OK",
      "vis_m": 6000,
      "fzfg": false,
      "metar_trigger": false,
      "taf_trigger": false,
      "metar": "METAR LZKZ 120130Z VRB02KT 6000 NSC M08/M09 Q1016 NOSIG",
      "taf": "TAF LZKZ 112315Z 1200/1300 VRB02KT 9999 SCT025"
    },
    {
      "icao": "LZTT",
      "alert": "OK",
      "vis_m": 6000,
      "fzfg": false,
      "metar_trigger": false,
      "taf_trigger": false,
      "metar": "METAR LZTT 120130Z 27018KT 6000 -SN DRSN OVC045 M07/M10 Q1012",
      "taf": "TAF LZTT 112315Z 1200/1300 28017KT 5000 -SN DRSN SCT015 OVC025"
    },
    {
      "icao": "OEJN",
      "alert": "OK",
      "vis_m": 9999,
      "fzfg": false,
      "metar_trigger": false,
      "taf_trigger": false,
      "metar": "METAR OEJN 120100Z 00000KT CAVOK 23/17 Q1014 NOSIG",
      "taf": "TAF OEJN 112300Z 1200/1306 VRB03KT 7000 NSC"
    },
    {
      "icao": "OEMA",
      "alert": "OK",
      "vis_m": 9999,
      "fzfg": false,
      "metar_trigger": false,
      "taf_trigger": false,
      "metar": "METAR OEMA 120100Z 34004KT CAVOK 16/00 Q1019 NOSIG",
      "taf": "TAF OEMA 112300Z 1200/1306 VRB03KT 9999 FEW040"
    },
    {
      "icao": "OJAI",
      "alert": "OK",
      "vis_m": 5000,
      "fzfg": false,
      "metar_trigger": false,
      "taf_trigger": false,
      "metar": "METAR OJAI 120100Z 00000KT 5000 BR NSC 02/01 Q1016 NOSIG",
      "taf": "TAF OJAI 112300Z 1200/1306 24014KT 5000 HZ NSC"
    },
    {
      "icao": "OMAA",
      "alert": "OK",
      "vis_m": 8000,
      "fzfg": false,
      "metar_trigger": false,
      "taf_trigger": false,
      "metar": "METAR OMAA 120100Z 12002KT 8000 NSC 16/12 Q1020 NOSIG",
      "taf": "TAF OMAA 112300Z 1200/1306 VRB02KT 8000 NSC"
    },
    {
      "icao": "OMDB",
      "alert": "OK",
      "vis_m": 8000,
      "fzfg": false,
      "metar_trigger": false,
      "taf_trigger": false,
      "metar": "METAR OMDB 120130Z 18003KT 8000 NSC 18/12 Q1020 NOSIG",
      "taf": "TAF OMDB 112300Z 1200/1306 14005KT 8000 NSC"
    },
    {
      "icao": "UAAA",
      "alert": "OK",
      "vis_m": 5000,
      "fzfg": false,
      "metar_trigger": false,
      "taf_trigger": false,
      "metar": "METAR UAAA 120130Z 18001MPS 5000 BR FEW200 M04/M06 Q1021 NOSIG",
      "taf": "TAF UAAA 112301Z 1200/1224 26003G08MPS 6000 SCT050 BKN100 TX07/1209Z TNM03/1201Z"
    },
    {
      "icao": "UBBB",
      "alert": "OK",
      "vis_m": 9999,
      "fzfg": false,
      "metar_trigger": false,
      "taf_trigger": false,
      "metar": "METAR UBBB 120130Z 18026KT CAVOK 10/01 Q1009 NOSIG",
      "taf": "TAF UBBB 112301Z 1200/1224 19020G30KT CAVOK TX14/1209Z TN08/1202Z"
    },
    {
      "icao": "UDSG",
      "alert": "OK",
      "vis_m": 9999,
      "fzfg": false,
      "metar_trigger": false,
      "taf_trigger": false,
      "metar": "METAR UDSG 120130Z 02004KT 9999 BKN049 M04/M06 Q1017 NOSIG",
      "taf": "TAF UDSG 112258Z 1200/1224 VRB04KT 9999 BKN040"
    },
    {
      "icao": "UDYZ",
      "alert": "CRITICAL",
      "vis_m": 100,
      "fzfg": true,
      "metar_trigger": true,
      "taf_trigger": false,
      "metar": "METAR UDYZ 120130Z VRB02KT 0100 0050E R08/0500U FZFG VV001 M06/M07 Q1018 NOSIG",
      "taf": "TAF UDYZ 112300Z 1200/1224 VRB04KT 0800 FZFG FEW030"
    },
    {
      "icao": "UGKO",
      "alert": "OK",
      "vis_m": 9999,
      "fzfg": false,
      "metar_trigger": false,
      "taf_trigger": false,
      "metar": "METAR UGKO 120130Z AUTO 07020KT CAVOK 14/M01 Q1007 NOSIG",
      "taf": "TAF UGKO 112300Z 1200/1224 08010KT CAVOK TX15/1212Z TN10/1200Z"
    }
  ]
}