{
  "ts_utc": "2026-07-18T10:51:08Z",
  "threshold_m": 150,
  "source": "stations_override.txt (ICAO list) + aviationweather.gov (METAR/TAF raw)",
  "station_count": 159,
  "stations": [
    {
      "icao": "BIKF",
      "alert": "OK",
      "vis_m": 8000,
      "fzfg": false,
      "metar_trigger": false,
      "taf_trigger": false,
      "metar": "METAR BIKF 181030Z 21005KT 8000 BR BKN005 OVC016 10/10 Q1025",
      "taf": "TAF BIKF 181049Z 1812/1912 23005KT 3000 -DZ BR OVC004 TX11/1813Z TN10/1906Z"
    },
    {
      "icao": "BKPR",
      "alert": "OK",
      "vis_m": 9999,
      "fzfg": false,
      "metar_trigger": false,
      "taf_trigger": false,
      "metar": "METAR BKPR 181030Z 11004KT 060V190 CAVOK 33/16 Q1014 NOSIG",
      "taf": "TAF BKPR 180530Z 1806/1906 01008KT 9999 SCT050"
    },
    {
      "icao": "EBCI",
      "alert": "OK",
      "vis_m": 9999,
      "fzfg": false,
      "metar_trigger": false,
      "taf_trigger": false,
      "metar": "METAR EBCI 181020Z 31004KT 250V350 9999 BKN018 18/13 Q1018 NOSIG",
      "taf": "TAF EBCI 180507Z 1806/1912 32006KT 9999 SCT020 SCT040"
    },
    {
      "icao": "EDDB",
      "alert": "OK",
      "vis_m": 9999,
      "fzfg": false,
      "metar_trigger": false,
      "taf_trigger": false,
      "metar": "METAR EDDB 181020Z AUTO 26017KT 240V300 9999 FEW034 BKN043 22/13 Q1011 TEMPO 28015G25KT",
      "taf": "TAF EDDB 180500Z 1806/1906 29008KT CAVOK"
    },
    {
      "icao": "EDDH",
      "alert": "OK",
      "vis_m": 9999,
      "fzfg": false,
      "metar_trigger": false,
      "taf_trigger": false,
      "metar": "METAR EDDH 181020Z AUTO 27013KT 230V300 9999 SCT024 OVC030 18/12 Q1011 TEMPO 28015G25KT",
      "taf": "TAF EDDH 180500Z 1806/1912 29011KT 9999 BKN030"
    },
    {
      "icao": "EDDK",
      "alert": "OK",
      "vis_m": 9999,
      "fzfg": false,
      "metar_trigger": false,
      "taf_trigger": false,
      "metar": "METAR EDDK 181020Z AUTO 31009KT 280V350 9999 BKN032 21/13 Q1016 NOSIG",
      "taf": "TAF EDDK 180500Z 1806/1912 30007KT 9999 FEW025"
    },
    {
      "icao": "EDDN",
      "alert": "OK",
      "vis_m": 9999,
      "fzfg": false,
      "metar_trigger": false,
      "taf_trigger": false,
      "metar": "METAR EDDN 181020Z AUTO 28010KT 9999 FEW042 24/13 Q1015 NOSIG",
      "taf": ""
    },
    {
      "icao": "EDDS",
      "alert": "OK",
      "vis_m": 9999,
      "fzfg": false,
      "metar_trigger": false,
      "taf_trigger": false,
      "metar": "METAR EDDS 181020Z AUTO 12002KT 9999 -SHRA SCT044 FEW///TCU 23/15 Q1016 TEMPO SHRA",
      "taf": "TAF EDDS 180500Z 1806/1906 VRB03KT 9999 FEW040"
    },
    {
      "icao": "EDFH",
      "alert": "OK",
      "vis_m": 9999,
      "fzfg": false,
      "metar_trigger": false,
      "taf_trigger": false,
      "metar": "METAR EDFH 181020Z 28005KT 220V350 9999 FEW026 21/13 Q1017",
      "taf": "TAF EDFH 180500Z 1806/1906 30006KT CAVOK"
    },
    {
      "icao": "EDJA",
      "alert": "OK",
      "vis_m": 9999,
      "fzfg": false,
      "metar_trigger": false,
      "taf_trigger": false,
      "metar": "METAR EDJA 181020Z 28009KT 250V310 9999 FEW038 23/14 Q1017",
      "taf": "TAF EDJA 180800Z 1809/1818 25009KT 9999 SCT030"
    },
    {
      "icao": "EDLW",
      "alert": "OK",
      "vis_m": 9999,
      "fzfg": false,
      "metar_trigger": false,
      "taf_trigger": false,
      "metar": "METAR EDLW 181020Z COR 24008KT 210V280 9999 BKN030 OVC038 20/13 Q1015",
      "taf": "TAF EDLW 180500Z 1806/1906 27005KT 9999 BKN035"
    },
    {
      "icao": "EDNY",
      "alert": "OK",
      "vis_m": 9999,
      "fzfg": false,
      "metar_trigger": false,
      "taf_trigger": false,
      "metar": "METAR EDNY 181020Z 21004KT CAVOK 24/15 Q1016",
      "taf": "TAF EDNY 180800Z 1809/1818 23008KT 9999 FEW040"
    },
    {
      "icao": "EDSB",
      "alert": "OK",
      "vis_m": 9999,
      "fzfg": false,
      "metar_trigger": false,
      "taf_trigger": false,
      "metar": "METAR EDSB 181020Z VRB03KT 9999 FEW028 24/16 Q1016",
      "taf": "TAF EDSB 180500Z 1806/1906 21005KT CAVOK"
    },
    {
      "icao": "EETN",
      "alert": "OK",
      "vis_m": 9999,
      "fzfg": false,
      "metar_trigger": false,
      "taf_trigger": false,
      "metar": "METAR EETN 181050Z 16014KT CAVOK 27/15 Q1005 NOSIG",
      "taf": ""
    },
    {
      "icao": "EFTU",
      "alert": "OK",
      "vis_m": 9999,
      "fzfg": false,
      "metar_trigger": false,
      "taf_trigger": false,
      "metar": "METAR EFTU 181020Z AUTO 18005KT 140V210 9999 SHRA VCTS //////CB 20/18 Q1005",
      "taf": "TAF EFTU 180836Z 1809/1909 14008KT 9999 -SHRA SCT035CB"
    },
    {
      "icao": "EGBB",
      "alert": "OK",
      "vis_m": 9999,
      "fzfg": false,
      "metar_trigger": false,
      "taf_trigger": false,
      "metar": "METAR EGBB 181020Z 36007KT 330V040 9999 SCT031 19/10 Q1021",
      "taf": "TAF EGBB 180457Z 1806/1906 03008KT 9999 FEW045"
    },
    {
      "icao": "EGGP",
      "alert": "OK",
      "vis_m": 9000,
      "fzfg": false,
      "metar_trigger": false,
      "taf_trigger": false,
      "metar": "METAR EGGP 181020Z 12003KT 080V170 9000 OVC016 16/12 Q1021",
      "taf": ""
    },
    {
      "icao": "EGGW",
      "alert": "OK",
      "vis_m": 9999,
      "fzfg": false,
      "metar_trigger": false,
      "taf_trigger": false,
      "metar": "METAR EGGW 181020Z AUTO 03009KT 350V050 9999 SCT031 18/09 Q1020",
      "taf": "TAF EGGW 180500Z 1806/1906 03006KT 9999 SCT030"
    },
    {
      "icao": "EGKK",
      "alert": "OK",
      "vis_m": 9999,
      "fzfg": false,
      "metar_trigger": false,
      "taf_trigger": false,
      "metar": "METAR EGKK 181020Z 02009KT 330V080 9999 FEW035 21/10 Q1019",
      "taf": "TAF EGKK 180500Z 1806/1912 04008KT CAVOK"
    },
    {
      "icao": "EGNM",
      "alert": "OK",
      "vis_m": 9999,
      "fzfg": false,
      "metar_trigger": false,
      "taf_trigger": false,
      "metar": "METAR EGNM 181020Z 01005KT 330V060 9999 BKN019 14/10 Q1021",
      "taf": "TAF EGNM 180500Z 1806/1906 01005KT 9999 SCT020"
    },
    {
      "icao": "EGPD",
      "alert": "OK",
      "vis_m": 9999,
      "fzfg": false,
      "metar_trigger": false,
      "taf_trigger": false,
      "metar": "METAR EGPD 181020Z 35017KT 9999 -SHRA SCT012 BKN017 13/10 Q1022",
      "taf": ""
    },
    {
      "icao": "EGPF",
      "alert": "OK",
      "vis_m": 9999,
      "fzfg": false,
      "metar_trigger": false,
      "taf_trigger": false,
      "metar": "METAR EGPF 181020Z AUTO 28006KT 250V360 9999 BKN030 20/12 Q1022",
      "taf": ""
    },
    {
      "icao": "EHBK",
      "alert": "OK",
      "vis_m": 9999,
      "fzfg": false,
      "metar_trigger": false,
      "taf_trigger": false,
      "metar": "METAR EHBK 181025Z AUTO 28006KT 210V350 9999 SCT028/// OVC032/// 21/13 Q1017 NOSIG",
      "taf": "TAF EHBK 180512Z 1806/1912 29004KT 9999 BKN018"
    },
    {
      "icao": "EHEH",
      "alert": "OK",
      "vis_m": 9999,
      "fzfg": false,
      "metar_trigger": false,
      "taf_trigger": false,
      "metar": "METAR EHEH 181025Z AUTO 28006KT 230V340 9999 BKN028 BKN033 OVC043 20/13 Q1016 BLU BECMG SCT020 BKN025",
      "taf": "TAF EHEH 180514Z 1806/1912 29004KT 9999 SCT015 OVC018"
    },
    {
      "icao": "EKBI",
      "alert": "OK",
      "vis_m": 9999,
      "fzfg": false,
      "metar_trigger": false,
      "taf_trigger": false,
      "metar": "METAR EKBI 181020Z AUTO 27018KT 9999 BKN026/// 17/11 Q1008",
      "taf": "TAF EKBI 180827Z 1809/1909 28012KT 9999 SCT045"
    },
    {
      "icao": "EKCH",
      "alert": "OK",
      "vis_m": 9999,
      "fzfg": false,
      "metar_trigger": false,
      "taf_trigger": false,
      "metar": "METAR EKCH 181020Z AUTO 28012G23KT 240V310 9999 BKN031/// 20/13 Q1006 NOSIG",
      "taf": "TAF EKCH 180827Z 1809/1909 28010KT 9999 BKN030"
    },
    {
      "icao": "ENAL",
      "alert": "OK",
      "vis_m": 9999,
      "fzfg": false,
      "metar_trigger": false,
      "taf_trigger": false,
      "metar": "METAR ENAL 181020Z 03013KT 9999 FEW019 15/07 Q1017",
      "taf": "TAF ENAL 180800Z 1809/1818 04015KT 9999 FEW020"
    },
    {
      "icao": "ENBR",
      "alert": "OK",
      "vis_m": 9999,
      "fzfg": false,
      "metar_trigger": false,
      "taf_trigger": false,
      "metar": "METAR ENBR 181020Z 31009KT CAVOK 18/10 Q1009 NOSIG RMK WIND 1200FT 34015KT",
      "taf": "TAF ENBR 180500Z 1806/1906 34010KT 9999 SCT030"
    },
    {
      "icao": "ENGM",
      "alert": "OK",
      "vis_m": 9999,
      "fzfg": false,
      "metar_trigger": false,
      "taf_trigger": false,
      "metar": "METAR ENGM 181020Z 02017KT 9999 -DZ FEW012 BKN032 12/09 Q1008 TEMPO 02017G27KT BKN014",
      "taf": ""
    },
    {
      "icao": "ENHD",
      "alert": "OK",
      "vis_m": 9999,
      "fzfg": false,
      "metar_trigger": false,
      "taf_trigger": false,
      "metar": "METAR ENHD 181020Z 33013KT CAVOK 15/10 Q1008",
      "taf": "TAF ENHD 180800Z 1809/1818 34018KT 9999 SCT020"
    },
    {
      "icao": "ENTC",
      "alert": "OK",
      "vis_m": 9999,
      "fzfg": false,
      "metar_trigger": false,
      "taf_trigger": false,
      "metar": "METAR ENTC 181020Z 28012KT 9999 FEW025 SCT035 BKN044 09/03 Q1010 TEMPO 20007KT RMK WIND 2600FT 31017KT",
      "taf": ""
    },
    {
      "icao": "ENTO",
      "alert": "OK",
      "vis_m": 9999,
      "fzfg": false,
      "metar_trigger": false,
      "taf_trigger": false,
      "metar": "METAR ENTO 181020Z 01015KT 9999 OVC019 14/11 Q1006 TEMPO 01015G25KT",
      "taf": "TAF ENTO 180500Z 1806/1906 36015KT 9999 BKN020"
    },
    {
      "icao": "ENVA",
      "alert": "OK",
      "vis_m": 9999,
      "fzfg": false,
      "metar_trigger": false,
      "taf_trigger": false,
      "metar": "METAR ENVA 181020Z 33007KT 300V360 9999 BKN051 14/04 Q1015 NOSIG RMK WIND 670FT 34009KT",
      "taf": "TAF ENVA 180500Z 1806/1906 32008KT 9999 FEW020 SCT050"
    },
    {
      "icao": "ENZV",
      "alert": "OK",
      "vis_m": 9999,
      "fzfg": false,
      "metar_trigger": false,
      "taf_trigger": false,
      "metar": "METAR ENZV 181020Z 36009KT 9999 BKN017 17/12 Q1008 NOSIG",
      "taf": ""
    },
    {
      "icao": "EPGD",
      "alert": "OK",
      "vis_m": 9999,
      "fzfg": false,
      "metar_trigger": false,
      "taf_trigger": false,
      "metar": "METAR EPGD 181030Z 27011KT 9999 -SHRA BKN012 SCT016TCU 20/18 Q1006",
      "taf": "TAF EPGD 180530Z 1806/1906 26010KT 9999 BKN018"
    },
    {
      "icao": "EPKK",
      "alert": "OK",
      "vis_m": 9999,
      "fzfg": false,
      "metar_trigger": false,
      "taf_trigger": false,
      "metar": "METAR EPKK 181030Z 24008KT 210V300 9999 SCT035TCU 26/17 Q1011",
      "taf": "TAF EPKK 180830Z 1809/1909 25007KT CAVOK"
    },
    {
      "icao": "EPKT",
      "alert": "OK",
      "vis_m": 9999,
      "fzfg": false,
      "metar_trigger": false,
      "taf_trigger": false,
      "metar": "METAR EPKT 181030Z 27011KT 9999 FEW035CB 24/18 Q1011",
      "taf": "TAF EPKT 180530Z 1806/1906 25009KT CAVOK"
    },
    {
      "icao": "EPLB",
      "alert": "OK",
      "vis_m": 9999,
      "fzfg": false,
      "metar_trigger": false,
      "taf_trigger": false,
      "metar": "METAR EPLB 181030Z 21007KT 9999 SCT045TCU 28/17 Q1009",
      "taf": "TAF EPLB 180530Z 1806/1906 VRB02KT 9999 SCT040"
    },
    {
      "icao": "EPMO",
      "alert": "OK",
      "vis_m": 9999,
      "fzfg": false,
      "metar_trigger": false,
      "taf_trigger": false,
      "metar": "METAR EPMO 181030Z 23012KT 9999 FEW024CB 23/18 Q1008",
      "taf": ""
    },
    {
      "icao": "EPPO",
      "alert": "OK",
      "vis_m": 9999,
      "fzfg": false,
      "metar_trigger": false,
      "taf_trigger": false,
      "metar": "METAR EPPO 181030Z 27012KT 9999 BKN017 22/18 Q1010",
      "taf": ""
    },
    {
      "icao": "EPRA",
      "alert": "OK",
      "vis_m": 9999,
      "fzfg": false,
      "metar_trigger": false,
      "taf_trigger": false,
      "metar": "METAR EPRA 181030Z 25010KT 9999 SCT040CB 26/17 Q1009",
      "taf": ""
    },
    {
      "icao": "EPRZ",
      "alert": "OK",
      "vis_m": 9999,
      "fzfg": false,
      "metar_trigger": false,
      "taf_trigger": false,
      "metar": "METAR EPRZ 181030Z 28009KT 9999 SCT046 29/16 Q1010",
      "taf": "TAF EPRZ 180530Z 1806/1906 VRB02KT CAVOK"
    },
    {
      "icao": "EPSC",
      "alert": "OK",
      "vis_m": 9999,
      "fzfg": false,
      "metar_trigger": false,
      "taf_trigger": false,
      "metar": "METAR EPSC 181030Z 26013KT 9999 SCT031 BKN036 20/13 Q1009",
      "taf": "TAF EPSC 180530Z 1806/1906 27012KT 9999 BKN005 BKN010"
    },
    {
      "icao": "EPSY",
      "alert": "OK",
      "vis_m": 9999,
      "fzfg": false,
      "metar_trigger": false,
      "taf_trigger": false,
      "metar": "METAR EPSY 181030Z 19009KT 160V230 9999 SCT021 24/18 Q1007",
      "taf": "TAF EPSY 180830Z 1809/1818 20008KT 9999 BKN013"
    },
    {
      "icao": "EPWA",
      "alert": "OK",
      "vis_m": 5000,
      "fzfg": false,
      "metar_trigger": false,
      "taf_trigger": false,
      "metar": "METAR EPWA 181030Z 21010KT 5000 TSRA SCT013 BKN030CB 21/19 Q1008 TEMPO 1500 TSRAGR",
      "taf": "TAF EPWA 180830Z 1809/1909 20008KT 9999 SCT020"
    },
    {
      "icao": "EPWR",
      "alert": "OK",
      "vis_m": 9999,
      "fzfg": false,
      "metar_trigger": false,
      "taf_trigger": false,
      "metar": "METAR EPWR 181030Z 30011KT 250V330 9999 SCT035 24/16 Q1011",
      "taf": "TAF EPWR 180830Z 1809/1909 27012KT 9999 SCT035"
    },
    {
      "icao": "ESGG",
      "alert": "OK",
      "vis_m": 2100,
      "fzfg": false,
      "metar_trigger": false,
      "taf_trigger": false,
      "metar": "METAR ESGG 181020Z 31007KT 260V350 2100 -RA BKN009CB 16/15 Q1004",
      "taf": ""
    },
    {
      "icao": "ESKN",
      "alert": "OK",
      "vis_m": 9999,
      "fzfg": false,
      "metar_trigger": false,
      "taf_trigger": false,
      "metar": "METAR ESKN 181020Z 36006KT 320V040 9999 BKN027 SCT039TCU 23/17 Q1002",
      "taf": ""
    },
    {
      "icao": "ESMS",
      "alert": "OK",
      "vis_m": 9999,
      "fzfg": false,
      "metar_trigger": false,
      "taf_trigger": false,
      "metar": "METAR ESMS 181020Z 30013KT 9999 SCT018 BKN024 17/14 Q1006",
      "taf": "TAF ESMS 180827Z 1809/1909 27009KT 9999 BKN030"
    },
    {
      "icao": "ESSA",
      "alert": "OK",
      "vis_m": 9999,
      "fzfg": false,
      "metar_trigger": false,
      "taf_trigger": false,
      "metar": "METAR ESSA 181020Z 01012KT 9999 BKN012 16/13 Q1004 TEMPO BKN025CB",
      "taf": "TAF ESSA 180830Z 1809/1909 01014KT 9999 SCT020"
    },
    {
      "icao": "EYKA",
      "alert": "OK",
      "vis_m": 9999,
      "fzfg": false,
      "metar_trigger": false,
      "taf_trigger": false,
      "metar": "METAR EYKA 181020Z 18009KT CAVOK 26/17 Q1007",
      "taf": "TAF EYKA 180504Z 1806/1906 14012KT 9000 BKN040"
    },
    {
      "icao": "EYPA",
      "alert": "OK",
      "vis_m": 9000,
      "fzfg": false,
      "metar_trigger": false,
      "taf_trigger": false,
      "metar": "METAR EYPA 181020Z 17007KT 140V210 9000 -SHRA BKN006 BKN010CB 20/19 Q1004",
      "taf": "TAF EYPA 180503Z 1806/1906 12010KT 9000 SCT010 OVC020"
    },
    {
      "icao": "EYVI",
      "alert": "OK",
      "vis_m": 9999,
      "fzfg": false,
      "metar_trigger": false,
      "taf_trigger": false,
      "metar": "METAR EYVI 181020Z 16013KT 130V190 CAVOK 27/16 Q1009 NOSIG",
      "taf": "TAF EYVI 180500Z 1806/1906 15012KT 9000 NSC"
    },
    {
      "icao": "GCFV",
      "alert": "OK",
      "vis_m": 9999,
      "fzfg": false,
      "metar_trigger": false,
      "taf_trigger": false,
      "metar": "METAR GCFV 181030Z 04014KT 9999 FEW018 26/20 Q1016",
      "taf": "TAF GCFV 180800Z 1809/1909 04016KT CAVOK TX27/1814Z TN23/1906Z"
    },
    {
      "icao": "GCLP",
      "alert": "OK",
      "vis_m": 9999,
      "fzfg": false,
      "metar_trigger": false,
      "taf_trigger": false,
      "metar": "METAR GCLP 181030Z 01027KT 9999 SCT020 26/19 Q1016 NOSIG",
      "taf": "TAF GCLP 180800Z 1809/1909 01024KT 9999 FEW020 TX29/1814Z TN23/1906Z"
    },
    {
      "icao": "GCTS",
      "alert": "OK",
      "vis_m": 9999,
      "fzfg": false,
      "metar_trigger": false,
      "taf_trigger": false,
      "metar": "METAR GCTS 181030Z 08020KT 9999 FEW020 27/20 Q1016 WS R07 NOSIG",
      "taf": "TAF GCTS 180800Z 1809/1909 08022KT CAVOK TX30/1814Z TN23/1906Z"
    },
    {
      "icao": "GMAD",
      "alert": "OK",
      "vis_m": 8000,
      "fzfg": false,
      "metar_trigger": false,
      "taf_trigger": false,
      "metar": "METAR GMAD 181030Z 26006KT 220V290 8000 NSC 27/20 Q1012 NOSIG",
      "taf": "TAF GMAD 180500Z 1806/1912 27006KT 8000 NSC"
    },
    {
      "icao": "GMMN",
      "alert": "OK",
      "vis_m": 9999,
      "fzfg": false,
      "metar_trigger": false,
      "taf_trigger": false,
      "metar": "METAR GMMN 181030Z 01008KT 310V070 CAVOK 29/18 Q1015 NOSIG",
      "taf": "TAF GMMN 180500Z 1806/1912 03005KT 9999 BKN010"
    },
    {
      "icao": "GMMX",
      "alert": "OK",
      "vis_m": 8000,
      "fzfg": false,
      "metar_trigger": false,
      "taf_trigger": false,
      "metar": "METAR GMMX 181030Z 31004KT 240V360 8000 NSC 32/20 Q1015 NOSIG",
      "taf": "TAF GMMX 180500Z 1806/1912 06006KT 8000 NSC"
    },
    {
      "icao": "HEGN",
      "alert": "OK",
      "vis_m": 9999,
      "fzfg": false,
      "metar_trigger": false,
      "taf_trigger": false,
      "metar": "METAR HEGN 181000Z 02010KT CAVOK 35/18 Q1006 NOSIG",
      "taf": ""
    },
    {
      "icao": "HEMA",
      "alert": "OK",
      "vis_m": 9999,
      "fzfg": false,
      "metar_trigger": false,
      "taf_trigger": false,
      "metar": "METAR HEMA 181000Z 02014KT CAVOK 36/12 Q1006 NOSIG",
      "taf": ""
    },
    {
      "icao": "HESH",
      "alert": "OK",
      "vis_m": 9999,
      "fzfg": false,
      "metar_trigger": false,
      "taf_trigger": false,
      "metar": "METAR HESH 181000Z 36008KT CAVOK 37/14 Q1006 NOSIG",
      "taf": ""
    },
    {
      "icao": "HESX",
      "alert": "OK",
      "vis_m": 9999,
      "fzfg": false,
      "metar_trigger": false,
      "taf_trigger": false,
      "metar": "METAR HESX 181000Z 32004KT CAVOK 33/15 Q1008 NOSIG",
      "taf": ""
    },
    {
      "icao": "LATI",
      "alert": "OK",
      "vis_m": 9999,
      "fzfg": false,
      "metar_trigger": false,
      "taf_trigger": false,
      "metar": "METAR LATI 181050Z 23010KT 190V260 CAVOK 37/18 Q1010 NOSIG",
      "taf": "TAF LATI 180500Z 1806/1906 VRB03KT CAVOK TX39/1812Z TN22/1904Z"
    },
    {
      "icao": "LBPD",
      "alert": "OK",
      "vis_m": 9999,
      "fzfg": false,
      "metar_trigger": false,
      "taf_trigger": false,
      "metar": "METAR LBPD 181030Z AUTO VRB04KT 9999 FEW068/// 33/17 Q1012 NOSIG",
      "taf": "TAF LBPD 180500Z 1806/1906 VRB04KT 9999 SCT070"
    },
    {
      "icao": "LBSF",
      "alert": "OK",
      "vis_m": 9999,
      "fzfg": false,
      "metar_trigger": false,
      "taf_trigger": false,
      "metar": "METAR LBSF 181030Z VRB04KT CAVOK 31/14 Q1014 NOSIG",
      "taf": "TAF LBSF 180500Z 1806/1906 VRB04KT 9999 SCT060"
    },
    {
      "icao": "LBWN",
      "alert": "OK",
      "vis_m": 9999,
      "fzfg": false,
      "metar_trigger": false,
      "taf_trigger": false,
      "metar": "METAR LBWN 181030Z 13011KT 9999 FEW028 29/19 Q1013 NOSIG",
      "taf": "TAF LBWN 180500Z 1806/1906 VRB03KT 9999 SCT045"
    },
    {
      "icao": "LCLK",
      "alert": "OK",
      "vis_m": 9999,
      "fzfg": false,
      "metar_trigger": false,
      "taf_trigger": false,
      "metar": "METAR LCLK 181030Z 21014KT 9999 FEW025 33/26 Q1005 NOSIG",
      "taf": "TAF LCLK 180530Z 1806/1906 18008KT 9999 FEW025"
    },
    {
      "icao": "LCPH",
      "alert": "OK",
      "vis_m": 9999,
      "fzfg": false,
      "metar_trigger": false,
      "taf_trigger": false,
      "metar": "METAR LCPH 181030Z 27010KT 240V320 9999 FEW020 FEW030TCU 31/25 Q1005 NOSIG",
      "taf": "TAF LCPH 180530Z 1806/1906 22007KT 9999 FEW015"
    },
    {
      "icao": "LEAL",
      "alert": "OK",
      "vis_m": 9999,
      "fzfg": false,
      "metar_trigger": false,
      "taf_trigger": false,
      "metar": "METAR LEAL 181030Z 14006KT 060V210 CAVOK 33/24 Q1013 NOSIG",
      "taf": "TAF LEAL 180500Z 1806/1906 VRB04KT 9999 FEW015 TX35/1816Z TN25/1905Z"
    },
    {
      "icao": "LEBB",
      "alert": "OK",
      "vis_m": 9999,
      "fzfg": false,
      "metar_trigger": false,
      "taf_trigger": false,
      "metar": "METAR LEBB 181030Z 27003KT 240V310 9999 BKN035 OVC047 23/20 Q1018 NOSIG",
      "taf": "TAF LEBB 180500Z 1806/1906 04009KT 9999 FEW020 BKN025 TX25/1814Z TN20/1822Z"
    },
    {
      "icao": "LEBL",
      "alert": "OK",
      "vis_m": 9999,
      "fzfg": false,
      "metar_trigger": false,
      "taf_trigger": false,
      "metar": "METAR LEBL 181030Z 13006KT 080V170 CAVOK 32/21 Q1014 NOSIG",
      "taf": "TAF LEBL 180500Z 1806/1906 VRB03KT 9999 FEW020 TX32/1812Z TN25/1806Z"
    },
    {
      "icao": "LECH",
      "alert": "OK",
      "vis_m": 9000,
      "fzfg": false,
      "metar_trigger": false,
      "taf_trigger": false,
      "metar": "METAR LECH 181030Z AUTO 12007KT 070V170 9000 SCT023 BKN031 29/22 Q1016",
      "taf": "TAF LECH 180500Z 1806/1906 02007KT 9999 FEW015 TX34/1813Z TN22/1905Z"
    },
    {
      "icao": "LEMD",
      "alert": "OK",
      "vis_m": 9999,
      "fzfg": false,
      "metar_trigger": false,
      "taf_trigger": false,
      "metar": "METAR LEMD 181030Z 20001KT CAVOK 32/04 Q1016 NOSIG",
      "taf": "TAF LEMD 180500Z 1806/1912 VRB04KT CAVOK TX37/1816Z TN20/1905Z"
    },
    {
      "icao": "LEMG",
      "alert": "OK",
      "vis_m": 9999,
      "fzfg": false,
      "metar_trigger": false,
      "taf_trigger": false,
      "metar": "METAR LEMG 181030Z 12009KT 100V160 CAVOK 31/14 Q1012 NOSIG",
      "taf": "TAF LEMG 180500Z 1806/1906 27008KT CAVOK TX37/1815Z TN22/1905Z"
    },
    {
      "icao": "LEVC",
      "alert": "OK",
      "vis_m": 9999,
      "fzfg": false,
      "metar_trigger": false,
      "taf_trigger": false,
      "metar": "METAR LEVC 181030Z 09009KT 050V120 9999 FEW019 SCT023 BKN039 31/23 Q1014 NOSIG",
      "taf": ""
    },
    {
      "icao": "LEXJ",
      "alert": "OK",
      "vis_m": 9999,
      "fzfg": false,
      "metar_trigger": false,
      "taf_trigger": false,
      "metar": "METAR LEXJ 181030Z 06004KT 350V150 9999 FEW020 BKN045 23/20 Q1018",
      "taf": "TAF LEXJ 180800Z 1809/1909 05009KT 9999 BKN025 TX25/1817Z TN20/1902Z"
    },
    {
      "icao": "LEZG",
      "alert": "OK",
      "vis_m": 9999,
      "fzfg": false,
      "metar_trigger": false,
      "taf_trigger": false,
      "metar": "METAR LEZG 181030Z 34005KT 290V060 CAVOK 28/16 Q1015 NOSIG",
      "taf": "TAF LEZG 180500Z 1806/1906 30010KT CAVOK TX38/1814Z TN20/1905Z"
    },
    {
      "icao": "LEZL",
      "alert": "OK",
      "vis_m": 9999,
      "fzfg": false,
      "metar_trigger": false,
      "taf_trigger": false,
      "metar": "METAR LEZL 181030Z 05002KT CAVOK 31/14 Q1014 NOSIG",
      "taf": "TAF LEZL 180800Z 1809/1909 VRB02KT CAVOK TX38/1815Z TN20/1905Z"
    },
    {
      "icao": "LFBD",
      "alert": "OK",
      "vis_m": 9999,
      "fzfg": false,
      "metar_trigger": false,
      "taf_trigger": false,
      "metar": "METAR LFBD 181030Z AUTO 04005KT 310V100 CAVOK 28/16 Q1017 NOSIG",
      "taf": "TAF LFBD 180500Z 1806/1912 VRB03KT CAVOK TX32/1815Z TN19/1806Z"
    },
    {
      "icao": "LFLL",
      "alert": "OK",
      "vis_m": 9999,
      "fzfg": false,
      "metar_trigger": false,
      "taf_trigger": false,
      "metar": "METAR LFLL 181030Z 33004KT 300V070 CAVOK 28/15 Q1017 NOSIG",
      "taf": "TAF LFLL 180500Z 1806/1912 VRB02KT CAVOK"
    },
    {
      "icao": "LFLS",
      "alert": "OK",
      "vis_m": 9999,
      "fzfg": false,
      "metar_trigger": false,
      "taf_trigger": false,
      "metar": "METAR LFLS 181030Z AUTO 35007KT 300V030 CAVOK 28/14 Q1017 NOSIG",
      "taf": "TAF LFLS 180800Z 1809/1909 36006KT CAVOK"
    },
    {
      "icao": "LFMN",
      "alert": "OK",
      "vis_m": 9999,
      "fzfg": false,
      "metar_trigger": false,
      "taf_trigger": false,
      "metar": "METAR LFMN 181030Z 13008KT CAVOK 30/24 Q1012 NOSIG",
      "taf": "TAF LFMN 180800Z 1809/1915 14005KT CAVOK"
    },
    {
      "icao": "LFOB",
      "alert": "OK",
      "vis_m": 9999,
      "fzfg": false,
      "metar_trigger": false,
      "taf_trigger": false,
      "metar": "METAR LFOB 181030Z AUTO 27005KT 200V320 CAVOK 25/14 Q1017 TEMPO 4000 SHRA BKN060TCU",
      "taf": "TAF LFOB 180500Z 1806/1906 VRB03KT CAVOK"
    },
    {
      "icao": "LFPO",
      "alert": "OK",
      "vis_m": 9999,
      "fzfg": false,
      "metar_trigger": false,
      "taf_trigger": false,
      "metar": "METAR LFPO 181030Z VRB04KT CAVOK 28/12 Q1017 NOSIG",
      "taf": "TAF LFPO 180500Z 1806/1912 VRB03KT CAVOK"
    },
    {
      "icao": "LFSB",
      "alert": "OK",
      "vis_m": 9999,
      "fzfg": false,
      "metar_trigger": false,
      "taf_trigger": false,
      "metar": "METAR LFSB 181030Z AUTO 27007KT 210V310 CAVOK 28/13 Q1016 TEMPO FEW080CB",
      "taf": "TAF LFSB 180500Z 1806/1906 VRB03KT CAVOK"
    },
    {
      "icao": "LGAV",
      "alert": "OK",
      "vis_m": 9999,
      "fzfg": false,
      "metar_trigger": false,
      "taf_trigger": false,
      "metar": "METAR LGAV 181020Z 03013KT 9999 FEW025 32/12 Q1012 NOSIG",
      "taf": "TAF LGAV 180500Z 1806/1906 02010KT 9999 FEW025"
    },
    {
      "icao": "LGTS",
      "alert": "OK",
      "vis_m": 9999,
      "fzfg": false,
      "metar_trigger": false,
      "taf_trigger": false,
      "metar": "METAR LGTS 181020Z 30009KT 9999 FEW025 32/22 Q1011 NOSIG",
      "taf": "TAF LGTS 180500Z 1806/1906 VRB03KT 9999 FEW030"
    },
    {
      "icao": "LHBP",
      "alert": "OK",
      "vis_m": 9999,
      "fzfg": false,
      "metar_trigger": false,
      "taf_trigger": false,
      "metar": "METAR LHBP 181030Z 29014KT CAVOK 31/15 Q1012 NOSIG",
      "taf": "TAF LHBP 180515Z 1806/1906 31005KT CAVOK"
    },
    {
      "icao": "LHDC",
      "alert": "OK",
      "vis_m": 9999,
      "fzfg": false,
      "metar_trigger": false,
      "taf_trigger": false,
      "metar": "METAR LHDC 181015Z AUTO 26006KT 220V320 CAVOK 32/17 Q1010 NOSIG",
      "taf": "TAF LHDC 180815Z 1809/1818 20006KT CAVOK"
    },
    {
      "icao": "LIBD",
      "alert": "OK",
      "vis_m": 9999,
      "fzfg": false,
      "metar_trigger": false,
      "taf_trigger": false,
      "metar": "METAR LIBD 181020Z 04007KT 340V070 CAVOK 32/23 Q1010",
      "taf": "TAF LIBD 180500Z 1806/1906 28006KT CAVOK"
    },
    {
      "icao": "LIBG",
      "alert": "OK",
      "vis_m": 9999,
      "fzfg": false,
      "metar_trigger": false,
      "taf_trigger": false,
      "metar": "METAR LIBG 181020Z VRB06KT CAVOK 38/16 Q1010",
      "taf": "TAF LIBG 180500Z 1806/1906 VRB05KT CAVOK"
    },
    {
      "icao": "LIBP",
      "alert": "OK",
      "vis_m": 9999,
      "fzfg": false,
      "metar_trigger": false,
      "taf_trigger": false,
      "metar": "METAR LIBP 181020Z AUTO 06010KT 030V100 9999 NCD 32/22 Q1011",
      "taf": "TAF LIBP 180500Z 1806/1906 VRB05KT CAVOK"
    },
    {
      "icao": "LIBR",
      "alert": "OK",
      "vis_m": 9999,
      "fzfg": false,
      "metar_trigger": false,
      "taf_trigger": false,
      "metar": "METAR LIBR 181020Z 01009KT 340V040 CAVOK 33/21 Q1010",
      "taf": "TAF LIBR 180500Z 1806/1906 17006KT CAVOK"
    },
    {
      "icao": "LICA",
      "alert": "OK",
      "vis_m": 9999,
      "fzfg": false,
      "metar_trigger": false,
      "taf_trigger": false,
      "metar": "METAR LICA 181020Z AUTO 26012KT 9999 NCD 33/18 Q1012",
      "taf": "TAF LICA 180500Z 1806/1906 VRB05KT CAVOK"
    },
    {
      "icao": "LICC",
      "alert": "OK",
      "vis_m": 9999,
      "fzfg": false,
      "metar_trigger": false,
      "taf_trigger": false,
      "metar": "METAR LICC 181020Z 08011KT CAVOK 38/18 Q1011",
      "taf": "TAF LICC 180500Z 1806/1906 VRB05KT CAVOK"
    },
    {
      "icao": "LICJ",
      "alert": "OK",
      "vis_m": 9999,
      "fzfg": false,
      "metar_trigger": false,
      "taf_trigger": false,
      "metar": "METAR LICJ 181020Z AUTO 33005KT 9999 NCD 31/26 Q1013",
      "taf": "TAF LICJ 180500Z 1806/1906 VRB06KT CAVOK"
    },
    {
      "icao": "LIMC",
      "alert": "OK",
      "vis_m": 9999,
      "fzfg": false,
      "metar_trigger": false,
      "taf_trigger": false,
      "metar": "METAR LIMC 181020Z 14005KT 110V190 CAVOK 31/18 Q1012 NOSIG",
      "taf": "TAF LIMC 180500Z 1806/1912 02005KT 9999 FEW040"
    },
    {
      "icao": "LIME",
      "alert": "OK",
      "vis_m": 9999,
      "fzfg": false,
      "metar_trigger": false,
      "taf_trigger": false,
      "metar": "METAR LIME 181020Z 20005KT 150V260 9999 FEW040 29/20 Q1012 NOSIG",
      "taf": "TAF LIME 180500Z 1806/1906 VRB05KT 9999 FEW050"
    },
    {
      "icao": "LIMF",
      "alert": "OK",
      "vis_m": 9999,
      "fzfg": false,
      "metar_trigger": false,
      "taf_trigger": false,
      "metar": "METAR LIMF 181020Z AUTO VRB04KT 9999 NCD 31/19 Q1012",
      "taf": "TAF LIMF 180500Z 1806/1906 VRB05KT 9999 FEW040"
    },
    {
      "icao": "LIMJ",
      "alert": "OK",
      "vis_m": 9999,
      "fzfg": false,
      "metar_trigger": false,
      "taf_trigger": false,
      "metar": "METAR LIMJ 181020Z 16005KT 9999 FEW022 29/24 Q1012",
      "taf": "TAF LIMJ 180500Z 1806/1906 VRB06KT 9999 FEW030"
    },
    {
      "icao": "LIPE",
      "alert": "OK",
      "vis_m": 9999,
      "fzfg": false,
      "metar_trigger": false,
      "taf_trigger": false,
      "metar": "METAR LIPE 181020Z VRB04G14KT 9999 FEW040 32/23 Q1011",
      "taf": "TAF LIPE 180500Z 1806/1906 VRB05KT 9999 FEW030"
    },
    {
      "icao": "LIPH",
      "alert": "OK",
      "vis_m": 9999,
      "fzfg": false,
      "metar_trigger": false,
      "taf_trigger": false,
      "metar": "METAR LIPH 181020Z VRB03KT CAVOK 32/20 Q1011",
      "taf": "TAF LIPH 180500Z 1806/1906 VRB05KT 9999 SCT040"
    },
    {
      "icao": "LIPQ",
      "alert": "OK",
      "vis_m": 9999,
      "fzfg": false,
      "metar_trigger": false,
      "taf_trigger": false,
      "metar": "METAR LIPQ 181020Z AUTO 20007KT 140V240 9999 NCD 34/17 Q1010",
      "taf": "TAF LIPQ 180500Z 1806/1906 VRB05KT 9999 SCT040"
    },
    {
      "icao": "LIPR",
      "alert": "OK",
      "vis_m": 9999,
      "fzfg": false,
      "metar_trigger": false,
      "taf_trigger": false,
      "metar": "METAR LIPR 181020Z 02008KT 9999 FEW040 31/24 Q1011",
      "taf": "TAF LIPR 180500Z 1806/1906 30007KT CAVOK"
    },
    {
      "icao": "LIPX",
      "alert": "OK",
      "vis_m": 9999,
      "fzfg": false,
      "metar_trigger": false,
      "taf_trigger": false,
      "metar": "METAR LIPX 181020Z 16004KT 080V210 9999 SCT025 31/23 Q1011",
      "taf": "TAF LIPX 180500Z 1806/1906 VRB05KT 9999 FEW050"
    },
    {
      "icao": "LIPY",
      "alert": "OK",
      "vis_m": 9999,
      "fzfg": false,
      "metar_trigger": false,
      "taf_trigger": false,
      "metar": "METAR LIPY 181020Z AUTO 01010KT 9999 NCD 31/22 Q1011",
      "taf": "TAF LIPY 180500Z 1806/1906 28006KT CAVOK"
    },
    {
      "icao": "LIPZ",
      "alert": "OK",
      "vis_m": 9999,
      "fzfg": false,
      "metar_trigger": false,
      "taf_trigger": false,
      "metar": "METAR LIPZ 181020Z 18005KT 140V210 9999 FEW040 31/19 Q1011 NOSIG",
      "taf": "TAF LIPZ 180500Z 1806/1912 VRB05KT 9999 FEW040"
    },
    {
      "icao": "LIRF",
      "alert": "OK",
      "vis_m": 9999,
      "fzfg": false,
      "metar_trigger": false,
      "taf_trigger": false,
      "metar": "METAR LIRF 181020Z 27009KT CAVOK 31/24 Q1013 NOSIG",
      "taf": "TAF LIRF 180500Z 1806/1912 VRB05KT CAVOK"
    },
    {
      "icao": "LIRN",
      "alert": "OK",
      "vis_m": 9999,
      "fzfg": false,
      "metar_trigger": false,
      "taf_trigger": false,
      "metar": "METAR LIRN 181020Z 18006KT 120V240 CAVOK 32/23 Q1013 NOSIG",
      "taf": "TAF LIRN 180500Z 1806/1906 VRB05KT 8000 FEW020"
    },
    {
      "icao": "LIRP",
      "alert": "OK",
      "vis_m": 9999,
      "fzfg": false,
      "metar_trigger": false,
      "taf_trigger": false,
      "metar": "METAR LIRP 181015Z 27011KT 9999 SCT025 31/22 Q1013 NOSIG",
      "taf": "TAF LIRP 180500Z 1806/1906 24012KT 9999 SCT020"
    },
    {
      "icao": "LIRZ",
      "alert": "OK",
      "vis_m": 9999,
      "fzfg": false,
      "metar_trigger": false,
      "taf_trigger": false,
      "metar": "METAR LIRZ 181020Z AUTO 25006KT 210V280 9999 NCD 32/19 Q1013",
      "taf": "TAF LIRZ 180500Z 1806/1906 VRB05KT CAVOK"
    },
    {
      "icao": "LJLJ",
      "alert": "OK",
      "vis_m": 9999,
      "fzfg": false,
      "metar_trigger": false,
      "taf_trigger": false,
      "metar": "METAR LJLJ 181030Z 10001KT 9999 FEW070 30/13 Q1013 NOSIG",
      "taf": "TAF LJLJ 180500Z 1806/1906 12003KT 9999 FEW060 BKN075"
    },
    {
      "icao": "LKMT",
      "alert": "OK",
      "vis_m": 9999,
      "fzfg": false,
      "metar_trigger": false,
      "taf_trigger": false,
      "metar": "METAR LKMT 181030Z 22015KT 9999 VCTS FEW031CB SCT032 26/17 Q1011 NOSIG",
      "taf": "TAF LKMT 180500Z 1806/1906 22008KT CAVOK"
    },
    {
      "icao": "LKPR",
      "alert": "OK",
      "vis_m": 9999,
      "fzfg": false,
      "metar_trigger": false,
      "taf_trigger": false,
      "metar": "METAR LKPR 181030Z 23012KT 190V250 9999 FEW030CB 24/16 Q1013 NOSIG",
      "taf": "TAF LKPR 180800Z 1809/1915 24009KT CAVOK"
    },
    {
      "icao": "LLBG",
      "alert": "OK",
      "vis_m": 9999,
      "fzfg": false,
      "metar_trigger": false,
      "taf_trigger": false,
      "metar": "METAR LLBG 181020Z 28010KT CAVOK 35/10 Q1006 NOSIG",
      "taf": "TAF LLBG 180424Z 1806/1906 VRB03KT 9999 FEW010 TX35/1811Z TN24/1903Z"
    },
    {
      "icao": "LMML",
      "alert": "OK",
      "vis_m": 9999,
      "fzfg": false,
      "metar_trigger": false,
      "taf_trigger": false,
      "metar": "METAR LMML 181045Z 31009KT 260V360 CAVOK 40/16 Q1013 NOSIG",
      "taf": "TAF LMML 180500Z 1806/1906 29010KT CAVOK"
    },
    {
      "icao": "LOWW",
      "alert": "OK",
      "vis_m": 9999,
      "fzfg": false,
      "metar_trigger": false,
      "taf_trigger": false,
      "metar": "METAR LOWW 181020Z 33011KT 9999 FEW050 28/14 Q1013 NOSIG",
      "taf": "TAF LOWW 180815Z 1809/1915 28015KT CAVOK TX29/1813Z TN20/1902Z"
    },
    {
      "icao": "LPFR",
      "alert": "OK",
      "vis_m": 9999,
      "fzfg": false,
      "metar_trigger": false,
      "taf_trigger": false,
      "metar": "METAR LPFR 181030Z 22009KT CAVOK 24/16 Q1015",
      "taf": "TAF LPFR 180500Z 1806/1906 VRB02KT CAVOK"
    },
    {
      "icao": "LPMA",
      "alert": "OK",
      "vis_m": 9999,
      "fzfg": false,
      "metar_trigger": false,
      "taf_trigger": false,
      "metar": "METAR LPMA 181030Z 02010KT 340V050 9999 FEW016 24/18 Q1020",
      "taf": "TAF LPMA 180500Z 1806/1906 02010KT 9999 SCT015"
    },
    {
      "icao": "LPPR",
      "alert": "OK",
      "vis_m": 9999,
      "fzfg": false,
      "metar_trigger": false,
      "taf_trigger": false,
      "metar": "METAR LPPR 181030Z 25007KT 210V290 9999 FEW017 23/18 Q1016",
      "taf": ""
    },
    {
      "icao": "LPPS",
      "alert": "OK",
      "vis_m": 9999,
      "fzfg": false,
      "metar_trigger": false,
      "taf_trigger": false,
      "metar": "METAR LPPS 181030Z 02011KT 350V060 9999 FEW015 24/18 Q1020",
      "taf": "TAF LPPS 180500Z 1806/1912 02010KT 9999 SCT015"
    },
    {
      "icao": "LPPT",
      "alert": "OK",
      "vis_m": 9999,
      "fzfg": false,
      "metar_trigger": false,
      "taf_trigger": false,
      "metar": "METAR LPPT 181030Z 34010KT 310V020 9999 BKN032 24/16 Q1017 NOSIG",
      "taf": ""
    },
    {
      "icao": "LQBK",
      "alert": "OK",
      "vis_m": 9999,
      "fzfg": false,
      "metar_trigger": false,
      "taf_trigger": false,
      "metar": "METAR LQBK 181030Z 35008G25KT 300V040 9999 FEW043 34/19 Q1011 NOSIG",
      "taf": "TAF LQBK 180500Z 1806/1906 30005KT CAVOK TX32/1812Z TN19/1903Z"
    },
    {
      "icao": "LQSA",
      "alert": "OK",
      "vis_m": 9999,
      "fzfg": false,
      "metar_trigger": false,
      "taf_trigger": false,
      "metar": "METAR LQSA 181030Z VRB03KT 9999 FEW060 32/16 Q1012 NOSIG",
      "taf": "TAF LQSA 180500Z 1806/1906 VRB02KT CAVOK TX34/1813Z TN19/1903Z"
    },
    {
      "icao": "LQTZ",
      "alert": "OK",
      "vis_m": 9999,
      "fzfg": false,
      "metar_trigger": false,
      "taf_trigger": false,
      "metar": "METAR LQTZ 181030Z 09005KT 020V140 9999 FEW045TCU 31/21 Q1012",
      "taf": "TAF LQTZ 180500Z 1806/1906 VRB02KT CAVOK TX33/1813Z TN17/1903Z"
    },
    {
      "icao": "LRBC",
      "alert": "OK",
      "vis_m": 9999,
      "fzfg": false,
      "metar_trigger": false,
      "taf_trigger": false,
      "metar": "METAR LRBC 181030Z 16009KT CAVOK 31/16 Q1012",
      "taf": "TAF LRBC 180800Z 1809/1818 16008KT CAVOK"
    },
    {
      "icao": "LRBS",
      "alert": "OK",
      "vis_m": 9999,
      "fzfg": false,
      "metar_trigger": false,
      "taf_trigger": false,
      "metar": "METAR LRBS 181030Z VRB03KT CAVOK 33/17 Q1012 NOSIG",
      "taf": "TAF LRBS 180500Z 1806/1906 VRB04KT CAVOK"
    },
    {
      "icao": "LRBV",
      "alert": "OK",
      "vis_m": 9999,
      "fzfg": false,
      "metar_trigger": false,
      "taf_trigger": false,
      "metar": "METAR LRBV 181030Z VRB03KT 9999 FEW050 FEW055CB 29/17 Q1013",
      "taf": "TAF LRBV 180800Z 1809/1818 VRB04KT CAVOK"
    },
    {
      "icao": "LRCL",
      "alert": "OK",
      "vis_m": 9999,
      "fzfg": false,
      "metar_trigger": false,
      "taf_trigger": false,
      "metar": "METAR LRCL 181030Z 10004KT 360V140 CAVOK 28/18 Q1012",
      "taf": "TAF LRCL 180800Z 1809/1818 VRB04KT CAVOK"
    },
    {
      "icao": "LRCV",
      "alert": "OK",
      "vis_m": 9999,
      "fzfg": false,
      "metar_trigger": false,
      "taf_trigger": false,
      "metar": "METAR LRCV 181030Z 13005KT 050V190 9999 FEW048 33/17 Q1012",
      "taf": "TAF LRCV 180800Z 1809/1818 VRB04KT CAVOK"
    },
    {
      "icao": "LRIA",
      "alert": "OK",
      "vis_m": 9999,
      "fzfg": false,
      "metar_trigger": false,
      "taf_trigger": false,
      "metar": "METAR LRIA 181030Z 12010KT 090V150 CAVOK 30/15 Q1012",
      "taf": "TAF LRIA 180800Z 1809/1818 10008KT CAVOK"
    },
    {
      "icao": "LROP",
      "alert": "OK",
      "vis_m": 9999,
      "fzfg": false,
      "metar_trigger": false,
      "taf_trigger": false,
      "metar": "METAR LROP 181030Z 26007KT CAVOK 33/15 Q1012 NOSIG",
      "taf": "TAF LROP 180500Z 1806/1906 VRB04KT CAVOK"
    },
    {
      "icao": "LRSB",
      "alert": "OK",
      "vis_m": 9999,
      "fzfg": false,
      "metar_trigger": false,
      "taf_trigger": false,
      "metar": "METAR LRSB 181030Z 32003KT 260V010 9999 FEW045 31/16 Q1012 NOSIG",
      "taf": "TAF LRSB 180500Z 1806/1906 VRB04KT CAVOK"
    },
    {
      "icao": "LRSM",
      "alert": "OK",
      "vis_m": 9999,
      "fzfg": false,
      "metar_trigger": false,
      "taf_trigger": false,
      "metar": "METAR LRSM 181030Z 18008KT 130V230 CAVOK 31/17 Q1010",
      "taf": "TAF LRSM 180800Z 1809/1818 VRB04KT CAVOK"
    },
    {
      "icao": "LRSV",
      "alert": "OK",
      "vis_m": 9999,
      "fzfg": false,
      "metar_trigger": false,
      "taf_trigger": false,
      "metar": "METAR LRSV 181030Z 12009KT 080V150 CAVOK 29/18 Q1012",
      "taf": "TAF LRSV 180800Z 1809/1818 15010KT CAVOK"
    },
    {
      "icao": "LRTM",
      "alert": "OK",
      "vis_m": 9999,
      "fzfg": false,
      "metar_trigger": false,
      "taf_trigger": false,
      "metar": "METAR LRTM 181030Z VRB03KT CAVOK 31/21 Q1012",
      "taf": "TAF LRTM 180800Z 1809/1818 25005KT CAVOK"
    },
    {
      "icao": "LRTR",
      "alert": "OK",
      "vis_m": 9999,
      "fzfg": false,
      "metar_trigger": false,
      "taf_trigger": false,
      "metar": "METAR LRTR 181030Z COR 27008KT 210V310 CAVOK 34/16 Q1010",
      "taf": "TAF LRTR 180500Z 1806/1906 VRB04KT CAVOK"
    },
    {
      "icao": "LTAC",
      "alert": "OK",
      "vis_m": 9999,
      "fzfg": false,
      "metar_trigger": false,
      "taf_trigger": false,
      "metar": "METAR LTAC 181020Z VRB05KT 9999 SCT040 27/08 Q1014 NOSIG RMK RWY21C 14007KT RWY03L VRB05KT RWY21R 03008G19KT 320V090 RWY03R 06008KT 340V100 RWY21L 04009KT 280V090",
      "taf": "TAF LTAC 180440Z 1806/1906 04009KT CAVOK"
    },
    {
      "icao": "LTFM",
      "alert": "OK",
      "vis_m": 9999,
      "fzfg": false,
      "metar_trigger": false,
      "taf_trigger": false,
      "metar": "METAR LTFM 181020Z 06012KT 010V080 9999 FEW025 27/18 Q1013 NOSIG RMK RWY17L 04012KT RWY34L 05011KT 010V090 RWY16R 04012KT RWY36 06013KT 020V090 RWY18 06011KT 020V090",
      "taf": "TAF LTFM 180440Z 1806/1912 05015KT 9999 BKN016"
    },
    {
      "icao": "LUKK",
      "alert": "OK",
      "vis_m": 9999,
      "fzfg": false,
      "metar_trigger": false,
      "taf_trigger": false,
      "metar": "METAR LUKK 181030Z 11007KT 040V170 CAVOK 30/16 Q1013 NOSIG",
      "taf": "TAF LUKK 180509Z 1806/1906 13008KT CAVOK"
    },
    {
      "icao": "LWOH",
      "alert": "OK",
      "vis_m": 9999,
      "fzfg": false,
      "metar_trigger": false,
      "taf_trigger": false,
      "metar": "METAR LWOH 181050Z 17006KT 140V200 9999 FEW050 29/17 Q1015",
      "taf": "TAF LWOH 180820Z 1809/1909 16008KT CAVOK"
    },
    {
      "icao": "LWSK",
      "alert": "OK",
      "vis_m": 9999,
      "fzfg": false,
      "metar_trigger": false,
      "taf_trigger": false,
      "metar": "METAR LWSK 181050Z VRB03KT CAVOK 36/19 Q1011 NOSIG",
      "taf": "TAF LWSK 180820Z 1809/1909 VRB02KT CAVOK"
    },
    {
      "icao": "LYBE",
      "alert": "OK",
      "vis_m": 9999,
      "fzfg": false,
      "metar_trigger": false,
      "taf_trigger": false,
      "metar": "METAR LYBE 181030Z 34006KT 240V040 CAVOK 34/18 Q1011 NOSIG",
      "taf": "TAF LYBE 180500Z 1806/1906 30008KT CAVOK TX35/1814Z TN22/1903Z"
    },
    {
      "icao": "LYNI",
      "alert": "OK",
      "vis_m": 9999,
      "fzfg": false,
      "metar_trigger": false,
      "taf_trigger": false,
      "metar": "METAR LYNI 181030Z 18003KT 100V260 CAVOK 35/15 Q1011 NOSIG",
      "taf": "TAF LYNI 180500Z 1806/1906 08005KT CAVOK TX36/1814Z TN21/1903Z"
    },
    {
      "icao": "LYPG",
      "alert": "OK",
      "vis_m": 9999,
      "fzfg": false,
      "metar_trigger": false,
      "taf_trigger": false,
      "metar": "METAR LYPG 181030Z 14006KT 110V200 9999 FEW050 36/16 Q1010 NOSIG",
      "taf": "TAF LYPG 180500Z 1806/1906 18008KT CAVOK TX38/1814Z TN24/1903Z"
    },
    {
      "icao": "LZIB",
      "alert": "OK",
      "vis_m": 9999,
      "fzfg": false,
      "metar_trigger": false,
      "taf_trigger": false,
      "metar": "METAR LZIB 181030Z 30012KT 260V340 CAVOK 29/16 Q1012 NOSIG",
      "taf": ""
    },
    {
      "icao": "LZKZ",
      "alert": "OK",
      "vis_m": 9999,
      "fzfg": false,
      "metar_trigger": false,
      "taf_trigger": false,
      "metar": "METAR LZKZ 181030Z 21006KT 110V280 CAVOK 31/17 Q1010 NOSIG",
      "taf": ""
    },
    {
      "icao": "LZTT",
      "alert": "OK",
      "vis_m": 9999,
      "fzfg": false,
      "metar_trigger": false,
      "taf_trigger": false,
      "metar": "METAR LZTT 181030Z 27012KT 9999 FEW033 24/15 Q1013 NOSIG",
      "taf": "TAF LZTT 180515Z 1806/1906 27008KT 9999 SCT040"
    },
    {
      "icao": "OEJN",
      "alert": "OK",
      "vis_m": 9999,
      "fzfg": false,
      "metar_trigger": false,
      "taf_trigger": false,
      "metar": "METAR OEJN 181000Z 30012KT 9999 FEW040 36/20 Q1005 NOSIG",
      "taf": "TAF OEJN 180500Z 1806/1912 30015KT 9999 FEW040"
    },
    {
      "icao": "OEMA",
      "alert": "OK",
      "vis_m": 9999,
      "fzfg": false,
      "metar_trigger": false,
      "taf_trigger": false,
      "metar": "METAR OEMA 181000Z 27013KT CAVOK 41/02 Q1009 NOSIG",
      "taf": "TAF OEMA 180500Z 1806/1912 29013KT 9999 FEW040"
    },
    {
      "icao": "OJAI",
      "alert": "OK",
      "vis_m": 5000,
      "fzfg": false,
      "metar_trigger": false,
      "taf_trigger": false,
      "metar": "METAR OJAI 181000Z 25009KT 5000 HZ NSC 32/08 Q1011 NOSIG",
      "taf": "TAF OJAI 180453Z 1806/1912 29013KT 5000 HZ NSC"
    },
    {
      "icao": "OMAA",
      "alert": "OK",
      "vis_m": 9999,
      "fzfg": false,
      "metar_trigger": false,
      "taf_trigger": false,
      "metar": "METAR OMAA 181030Z VRB03KT CAVOK 44/17 Q0997 BECMG 33013KT",
      "taf": "TAF OMAA 180500Z 1806/1912 15008KT 7000 NSC"
    },
    {
      "icao": "OMDB",
      "alert": "OK",
      "vis_m": 7000,
      "fzfg": false,
      "metar_trigger": false,
      "taf_trigger": false,
      "metar": "METAR OMDB 181030Z 33013KT 7000 NSC 38/24 Q0998 NOSIG",
      "taf": "TAF OMDB 180500Z 1806/1912 16007KT CAVOK"
    },
    {
      "icao": "UAAA",
      "alert": "OK",
      "vis_m": 9999,
      "fzfg": false,
      "metar_trigger": false,
      "taf_trigger": false,
      "metar": "METAR UAAA 181030Z 04006MPS 020V080 9999 FEW050 41/09 Q1006 NOSIG",
      "taf": "TAF UAAA 180505Z 1806/1906 02005MPS 9999 FEW050 SCT100 TX41/1810Z TN22/1900Z"
    },
    {
      "icao": "UBBB",
      "alert": "OK",
      "vis_m": 9999,
      "fzfg": false,
      "metar_trigger": false,
      "taf_trigger": false,
      "metar": "METAR UBBB 181030Z 02014KT CAVOK 30/21 Q1008 NOSIG",
      "taf": "TAF UBBB 180459Z 1806/1906 34014KT CAVOK TX32/1810Z TN25/1901Z"
    },
    {
      "icao": "UDSG",
      "alert": "OK",
      "vis_m": 9999,
      "fzfg": false,
      "metar_trigger": false,
      "taf_trigger": false,
      "metar": "METAR UDSG 181030Z 36006KT 9999 FEW049TCU 25/16 Q1015 NOSIG",
      "taf": "TAF UDSG 180458Z 1806/1906 06006KT 9999 SCT050"
    },
    {
      "icao": "UDYZ",
      "alert": "OK",
      "vis_m": 9999,
      "fzfg": false,
      "metar_trigger": false,
      "taf_trigger": false,
      "metar": "METAR UDYZ 181030Z 19005KT 140V230 9999 FEW046 33/15 Q1008 NOSIG",
      "taf": "TAF UDYZ 180500Z 1806/1906 20006KT 9999 FEW040"
    },
    {
      "icao": "UGKO",
      "alert": "OK",
      "vis_m": 9999,
      "fzfg": false,
      "metar_trigger": false,
      "taf_trigger": false,
      "metar": "METAR UGKO 181030Z 23006KT 200V260 9999 SCT038 BKN052 28/18 Q1010 NOSIG",
      "taf": "TAF UGKO 180500Z 1806/1906 26007KT CAVOK TX29/1811Z TN20/1902Z"
    }
  ]
}