{
  "ts_utc": "2026-02-23T11:53:09Z",
  "threshold_m": 150,
  "source": "stations_override.txt (ICAO list) + aviationweather.gov (METAR/TAF raw)",
  "station_count": 159,
  "stations": [
    {
      "icao": "BIKF",
      "alert": "OK",
      "vis_m": 9999,
      "fzfg": false,
      "metar_trigger": false,
      "taf_trigger": false,
      "metar": "METAR BIKF 231130Z 14017KT 9999 FEW008 BKN016CB BKN034 05/05 Q0993",
      "taf": "TAF BIKF 231031Z 2312/2412 17022KT 9999 -SHRA SCT015 BKN025 TX07/2314Z TN01/2406Z"
    },
    {
      "icao": "BKPR",
      "alert": "OK",
      "vis_m": null,
      "fzfg": false,
      "metar_trigger": false,
      "taf_trigger": false,
      "metar": "",
      "taf": "TAF BKPR 231130Z 2312/2412 23007KT 9999 BKN080"
    },
    {
      "icao": "EBCI",
      "alert": "OK",
      "vis_m": 9999,
      "fzfg": false,
      "metar_trigger": false,
      "taf_trigger": false,
      "metar": "METAR EBCI 231120Z 24019G29KT 9999 BKN018 10/06 Q1018 NOSIG",
      "taf": "TAF EBCI 231115Z 2312/2418 26014KT 9999 SCT030"
    },
    {
      "icao": "EDDB",
      "alert": "OK",
      "vis_m": 9999,
      "fzfg": false,
      "metar_trigger": false,
      "taf_trigger": false,
      "metar": "METAR EDDB 231120Z AUTO 27014KT 9999 BKN027 BKN034 BKN043 11/05 Q1009 TEMPO 25015G25KT",
      "taf": "TAF EDDB 231100Z 2312/2412 26015G25KT 9999 SCT020 BKN030"
    },
    {
      "icao": "EDDH",
      "alert": "OK",
      "vis_m": 9999,
      "fzfg": false,
      "metar_trigger": false,
      "taf_trigger": false,
      "metar": "METAR EDDH 231120Z AUTO 25011KT 220V280 9999 -SHRA BKN016 BKN023 BKN043 FEW///TCU 09/07 Q1007 TEMPO SHRA BKN013",
      "taf": "TAF EDDH 231100Z 2312/2418 25012KT 9999 BKN015"
    },
    {
      "icao": "EDDK",
      "alert": "OK",
      "vis_m": 9999,
      "fzfg": false,
      "metar_trigger": false,
      "taf_trigger": false,
      "metar": "METAR EDDK 231120Z AUTO 25015KT 9999 SCT033 BKN041 11/05 Q1016 TEMPO 27015G25KT",
      "taf": "TAF EDDK 231100Z 2312/2418 27015KT 9999 BKN025"
    },
    {
      "icao": "EDDN",
      "alert": "OK",
      "vis_m": 9999,
      "fzfg": false,
      "metar_trigger": false,
      "taf_trigger": false,
      "metar": "METAR EDDN 231120Z AUTO 31011KT 9999 VCSH FEW011 BKN022 OVC034 FEW///TCU 08/07 Q1017 RESHRA TEMPO 27015G25KT",
      "taf": "TAF EDDN 231100Z 2312/2412 26013KT 9999 BKN020"
    },
    {
      "icao": "EDDS",
      "alert": "OK",
      "vis_m": 9999,
      "fzfg": false,
      "metar_trigger": false,
      "taf_trigger": false,
      "metar": "METAR EDDS 231120Z AUTO 26015KT 220V290 9999 FEW031 BKN047 11/06 Q1018 NOSIG",
      "taf": "TAF EDDS 231100Z 2312/2412 24012KT 9999 BKN030"
    },
    {
      "icao": "EDFH",
      "alert": "OK",
      "vis_m": 9999,
      "fzfg": false,
      "metar_trigger": false,
      "taf_trigger": false,
      "metar": "METAR EDFH 231120Z 26018KT 9999 SCT014 BKN017 08/05 Q1017",
      "taf": "TAF EDFH 231100Z 2312/2412 27015G30KT 9999 BKN020"
    },
    {
      "icao": "EDJA",
      "alert": "OK",
      "vis_m": 9999,
      "fzfg": false,
      "metar_trigger": false,
      "taf_trigger": false,
      "metar": "METAR EDJA 231120Z 24013G26KT 9999 BKN015 09/06 Q1020",
      "taf": "TAF EDJA 231100Z 2312/2321 24015G25KT 9999 SCT015 BKN040"
    },
    {
      "icao": "EDLW",
      "alert": "OK",
      "vis_m": 9999,
      "fzfg": false,
      "metar_trigger": false,
      "taf_trigger": false,
      "metar": "METAR EDLW 231120Z 23017KT 9999 -RA BKN017 BKN023 OVC027 09/07 Q1013",
      "taf": "TAF EDLW 231100Z 2312/2412 24013KT 9999 BKN020"
    },
    {
      "icao": "EDNY",
      "alert": "OK",
      "vis_m": 9999,
      "fzfg": false,
      "metar_trigger": false,
      "taf_trigger": false,
      "metar": "METAR EDNY 231120Z COR 25012KT 9999 BKN027 BKN051 11/07 Q1022",
      "taf": "TAF EDNY 231100Z 2312/2321 24010KT 9999 FEW020 BKN040"
    },
    {
      "icao": "EDSB",
      "alert": "OK",
      "vis_m": 9999,
      "fzfg": false,
      "metar_trigger": false,
      "taf_trigger": false,
      "metar": "METAR EDSB 231120Z 21014KT 9999 VCSH FEW027 BKN035 12/09 Q1020",
      "taf": "TAF EDSB 231100Z 2312/2412 22012KT 9999 BKN035"
    },
    {
      "icao": "EETN",
      "alert": "OK",
      "vis_m": 9999,
      "fzfg": false,
      "metar_trigger": false,
      "taf_trigger": false,
      "metar": "METAR EETN 231150Z 12006KT 9999 FEW030 M04/M06 Q1007 NOSIG",
      "taf": "TAF EETN 231130Z 2312/2412 12006KT 9999 FEW015"
    },
    {
      "icao": "EFTU",
      "alert": "OK",
      "vis_m": 9999,
      "fzfg": false,
      "metar_trigger": false,
      "taf_trigger": false,
      "metar": "METAR EFTU 231150Z AUTO 14005KT 110V170 9999 OVC008 M04/M05 Q1007",
      "taf": "TAF EFTU 231130Z 2312/2412 12005KT 9999 OVC007"
    },
    {
      "icao": "EGBB",
      "alert": "OK",
      "vis_m": 9999,
      "fzfg": false,
      "metar_trigger": false,
      "taf_trigger": false,
      "metar": "METAR EGBB 231120Z 25009KT 210V290 9999 BKN032 12/05 Q1013",
      "taf": "TAF EGBB 231056Z 2312/2412 26010KT 9999 SCT030"
    },
    {
      "icao": "EGGP",
      "alert": "OK",
      "vis_m": 9999,
      "fzfg": false,
      "metar_trigger": false,
      "taf_trigger": false,
      "metar": "METAR EGGP 231120Z 24013KT 9999 SCT040 10/05 Q1011",
      "taf": "TAF EGGP 231100Z 2312/2412 25013KT 9999 FEW030"
    },
    {
      "icao": "EGGW",
      "alert": "OK",
      "vis_m": 9999,
      "fzfg": false,
      "metar_trigger": false,
      "taf_trigger": false,
      "metar": "METAR EGGW 231120Z AUTO 25016KT 9999 FEW023 SCT029 11/06 Q1014",
      "taf": "TAF EGGW 231055Z 2312/2412 23012KT 9999 SCT025"
    },
    {
      "icao": "EGKK",
      "alert": "OK",
      "vis_m": 9999,
      "fzfg": false,
      "metar_trigger": false,
      "taf_trigger": false,
      "metar": "METAR EGKK 231120Z 24011KT 9999 BKN021 11/08 Q1016",
      "taf": "TAF EGKK 231059Z 2312/2418 23010KT 9999 SCT020"
    },
    {
      "icao": "EGNM",
      "alert": "OK",
      "vis_m": 9999,
      "fzfg": false,
      "metar_trigger": false,
      "taf_trigger": false,
      "metar": "METAR EGNM 231120Z 27022G34KT 9999 SCT020 SCT022 10/04 Q1008",
      "taf": "TAF EGNM 231100Z 2312/2412 26014KT 9999 SCT030"
    },
    {
      "icao": "EGPD",
      "alert": "OK",
      "vis_m": 9999,
      "fzfg": false,
      "metar_trigger": false,
      "taf_trigger": false,
      "metar": "METAR EGPD 231120Z COR AUTO 24008KT 190V270 9999 BKN044 11/04 Q1000 NOSIG",
      "taf": "TAF EGPD 231059Z 2312/2412 27009KT 9999 FEW035"
    },
    {
      "icao": "EGPF",
      "alert": "OK",
      "vis_m": 9999,
      "fzfg": false,
      "metar_trigger": false,
      "taf_trigger": false,
      "metar": "METAR EGPF 231120Z AUTO 24015KT 9999 SCT023 BKN029 BKN037 10/06 Q1004",
      "taf": "TAF EGPF 231056Z 2312/2412 25012KT 9999 SCT025"
    },
    {
      "icao": "EHBK",
      "alert": "OK",
      "vis_m": 9999,
      "fzfg": false,
      "metar_trigger": false,
      "taf_trigger": false,
      "metar": "METAR EHBK 231125Z AUTO 24017G28KT 210V280 9999 SCT021 BKN026 BKN030 11/07 Q1016 NOSIG",
      "taf": "TAF EHBK 231121Z 2312/2418 25015KT 9999 BKN018"
    },
    {
      "icao": "EHEH",
      "alert": "OK",
      "vis_m": 9999,
      "fzfg": false,
      "metar_trigger": false,
      "taf_trigger": false,
      "metar": "METAR EHEH 231125Z AUTO 25016KT 200V280 9999 BKN024 OVC028 11/06 Q1014 WHT TEMPO 25017G27KT RMK TREND REMOTE BY EHWX",
      "taf": "TAF EHEH 230553Z 2306/2412 24012G22KT 9999 SCT017 BKN020"
    },
    {
      "icao": "EKBI",
      "alert": "OK",
      "vis_m": 5000,
      "fzfg": false,
      "metar_trigger": false,
      "taf_trigger": false,
      "metar": "METAR EKBI 231120Z 24009KT 5000 -RA BKN003 05/05 Q1003",
      "taf": "TAF EKBI 231109Z 2312/2412 24008KT 8000 BKN003"
    },
    {
      "icao": "EKCH",
      "alert": "OK",
      "vis_m": 900,
      "fzfg": false,
      "metar_trigger": false,
      "taf_trigger": false,
      "metar": "METAR EKCH 231120Z 25011KT 0900 R22L/1300D R04L/1300D R12/1300D FG OVC002 04/04 Q1003 BECMG 2000 BR",
      "taf": "TAF EKCH 231109Z 2312/2412 24010KT 2000 BR BKN003"
    },
    {
      "icao": "ENAL",
      "alert": "OK",
      "vis_m": 9999,
      "fzfg": false,
      "metar_trigger": false,
      "taf_trigger": false,
      "metar": "METAR ENAL 231120Z 09008KT 9999 -RA VV007 02/01 Q0997",
      "taf": ""
    },
    {
      "icao": "ENBR",
      "alert": "OK",
      "vis_m": 9999,
      "fzfg": false,
      "metar_trigger": false,
      "taf_trigger": false,
      "metar": "METAR ENBR 231120Z 13007KT 9999 -SHRA SCT006 BKN010 04/03 Q0998 TEMPO 4000 SHRA BKN006 SCT018CB RMK WIND 1200FT 15011KT",
      "taf": "TAF ENBR 231100Z 2312/2412 13008KT 9999 SCT008 BKN020"
    },
    {
      "icao": "ENGM",
      "alert": "OK",
      "vis_m": 9999,
      "fzfg": false,
      "metar_trigger": false,
      "taf_trigger": false,
      "metar": "METAR ENGM 231120Z 20002KT 9999 -SNRA SCT007 BKN013 M01/M04 Q1000 TEMPO 2000 -SN BKN007",
      "taf": "TAF ENGM 231100Z 2312/2412 02003KT 8000 -SN SCT007 BKN012"
    },
    {
      "icao": "ENHD",
      "alert": "OK",
      "vis_m": 9999,
      "fzfg": false,
      "metar_trigger": false,
      "taf_trigger": false,
      "metar": "METAR ENHD 231120Z 11006KT 9999 VCSH FEW007 SCT015 BKN020 05/04 Q0999",
      "taf": "TAF ENHD 231100Z 2312/2321 17008KT 9999 SCT010 BKN015"
    },
    {
      "icao": "ENTC",
      "alert": "OK",
      "vis_m": 9999,
      "fzfg": false,
      "metar_trigger": false,
      "taf_trigger": false,
      "metar": "METAR ENTC 231120Z 22006KT 9999 FEW014 M03/M06 Q1005 NOSIG RMK WIND 2600FT 19008KT",
      "taf": "TAF ENTC 231100Z 2312/2412 22008KT 9999 FEW015"
    },
    {
      "icao": "ENTO",
      "alert": "OK",
      "vis_m": 9999,
      "fzfg": false,
      "metar_trigger": false,
      "taf_trigger": false,
      "metar": "METAR ENTO 231120Z 18002KT 9999 OVC004 M01/M01 Q1000 TEMPO 2000 BCFG",
      "taf": "TAF ENTO 231100Z 2312/2412 18005KT 8000 -SN BKN004"
    },
    {
      "icao": "ENVA",
      "alert": "OK",
      "vis_m": 9999,
      "fzfg": false,
      "metar_trigger": false,
      "taf_trigger": false,
      "metar": "METAR ENVA 231120Z 12002KT CAVOK M02/M07 Q0998 RMK WIND 670FT 10005KT",
      "taf": "TAF ENVA 231100Z 2312/2412 09005KT CAVOK"
    },
    {
      "icao": "ENZV",
      "alert": "OK",
      "vis_m": 9999,
      "fzfg": false,
      "metar_trigger": false,
      "taf_trigger": false,
      "metar": "METAR ENZV 231120Z 17004KT 9999 -SHRA SCT012 BKN028 05/04 Q0999 TEMPO BKN009",
      "taf": "TAF ENZV 231100Z 2312/2412 17008KT 9999 SCT010 BKN020"
    },
    {
      "icao": "EPGD",
      "alert": "OK",
      "vis_m": 9999,
      "fzfg": false,
      "metar_trigger": false,
      "taf_trigger": false,
      "metar": "METAR EPGD 231130Z 26009KT 9999 -DZ OVC004 04/03 Q1004",
      "taf": "TAF EPGD 231130Z 2312/2412 26010KT 9999 OVC003"
    },
    {
      "icao": "EPKK",
      "alert": "OK",
      "vis_m": 9999,
      "fzfg": false,
      "metar_trigger": false,
      "taf_trigger": false,
      "metar": "METAR EPKK 231130Z 25013KT 9999 FEW022 BKN037 10/05 Q1011",
      "taf": "TAF EPKK 231130Z 2312/2412 24012KT 9999 BKN030"
    },
    {
      "icao": "EPKT",
      "alert": "OK",
      "vis_m": 9999,
      "fzfg": false,
      "metar_trigger": false,
      "taf_trigger": false,
      "metar": "METAR EPKT 231130Z 27013KT 9999 -SHRA FEW020CB BKN024 08/05 Q1011",
      "taf": "TAF EPKT 231130Z 2312/2412 25012KT 9999 BKN025"
    },
    {
      "icao": "EPLB",
      "alert": "OK",
      "vis_m": 9999,
      "fzfg": false,
      "metar_trigger": false,
      "taf_trigger": false,
      "metar": "METAR EPLB 231130Z 28013KT 9999 BKN014 BKN021 06/04 Q1008",
      "taf": "TAF EPLB 231130Z 2312/2412 28012KT 9999 BKN014"
    },
    {
      "icao": "EPMO",
      "alert": "OK",
      "vis_m": 9999,
      "fzfg": false,
      "metar_trigger": false,
      "taf_trigger": false,
      "metar": "METAR EPMO 231130Z 25008KT 9999 BKN012 05/05 Q1008",
      "taf": "TAF EPMO 231130Z 2312/2412 27012KT 9999 BKN010"
    },
    {
      "icao": "EPPO",
      "alert": "OK",
      "vis_m": 9999,
      "fzfg": false,
      "metar_trigger": false,
      "taf_trigger": false,
      "metar": "METAR EPPO 231130Z 26011KT 9999 OVC013 08/06 Q1009",
      "taf": "TAF EPPO 231130Z 2312/2412 25012KT 9999 BKN009"
    },
    {
      "icao": "EPRA",
      "alert": "OK",
      "vis_m": 9999,
      "fzfg": false,
      "metar_trigger": false,
      "taf_trigger": false,
      "metar": "METAR EPRA 231130Z 29012KT 9999 BKN016 07/04 Q1009",
      "taf": "TAF EPRA 231130Z 2312/2321 27012KT 9999 BKN016"
    },
    {
      "icao": "EPRZ",
      "alert": "OK",
      "vis_m": 9999,
      "fzfg": false,
      "metar_trigger": false,
      "taf_trigger": false,
      "metar": "METAR EPRZ 231130Z 28014KT 9999 BKN026 09/05 Q1010",
      "taf": "TAF EPRZ 231130Z 2312/2412 25015KT 9999 BKN025"
    },
    {
      "icao": "EPSC",
      "alert": "OK",
      "vis_m": 5000,
      "fzfg": false,
      "metar_trigger": false,
      "taf_trigger": false,
      "metar": "METAR EPSC 231130Z 24006KT 210V280 5000 -SHRA FEW005 SCT010CB BKN012 07/07 Q1007",
      "taf": "TAF EPSC 231130Z 2312/2412 26010KT 9999 BKN016"
    },
    {
      "icao": "EPSY",
      "alert": "OK",
      "vis_m": 9999,
      "fzfg": false,
      "metar_trigger": false,
      "taf_trigger": false,
      "metar": "METAR EPSY 231130Z 26008KT 220V300 9999 OVC005 04/03 Q1006",
      "taf": "TAF EPSY 231130Z 2312/2321 27006KT 9999 OVC007"
    },
    {
      "icao": "EPWA",
      "alert": "OK",
      "vis_m": 9999,
      "fzfg": false,
      "metar_trigger": false,
      "taf_trigger": false,
      "metar": "METAR EPWA 231130Z 27010KT 9999 BKN011 06/05 Q1008 NOSIG",
      "taf": "TAF EPWA 231130Z 2312/2412 27012KT 9999 OVC011"
    },
    {
      "icao": "EPWR",
      "alert": "OK",
      "vis_m": 9999,
      "fzfg": false,
      "metar_trigger": false,
      "taf_trigger": false,
      "metar": "METAR EPWR 231130Z 25011KT CAVOK 09/06 Q1011",
      "taf": "TAF EPWR 231130Z 2312/2412 26010KT 9999 BKN025"
    },
    {
      "icao": "ESGG",
      "alert": "OK",
      "vis_m": 700,
      "fzfg": false,
      "metar_trigger": false,
      "taf_trigger": false,
      "metar": "METAR ESGG 231120Z 20005KT 0700 R03/1000N R21/1200U VV002 01/01 Q1000",
      "taf": "TAF ESGG 231130Z 2312/2412 18006KT 0100 FG VV002"
    },
    {
      "icao": "ESKN",
      "alert": "OK",
      "vis_m": 3200,
      "fzfg": false,
      "metar_trigger": false,
      "taf_trigger": false,
      "metar": "METAR ESKN 231120Z 13009KT 3200 -DZ OVC003 00/M00 Q1002",
      "taf": "TAF ESKN 231130Z 2312/2412 13008KT 9999 SCT004 BKN015"
    },
    {
      "icao": "ESMS",
      "alert": "OK",
      "vis_m": 300,
      "fzfg": false,
      "metar_trigger": false,
      "taf_trigger": false,
      "metar": "METAR ESMS 231120Z 25009KT 0300 R17/0750N R35/0600N FG OVC001 04/04 Q1003",
      "taf": "TAF ESMS 231130Z 2312/2412 26008KT 0200 FG VV002"
    },
    {
      "icao": "ESSA",
      "alert": "OK",
      "vis_m": 9999,
      "fzfg": false,
      "metar_trigger": false,
      "taf_trigger": false,
      "metar": "METAR ESSA 231120Z 14009KT 100V160 9999 BKN013 01/M02 Q1003 TEMPO SCT015",
      "taf": "TAF ESSA 231130Z 2312/2412 14007KT 9999 SCT015"
    },
    {
      "icao": "EYKA",
      "alert": "OK",
      "vis_m": 4600,
      "fzfg": false,
      "metar_trigger": false,
      "taf_trigger": false,
      "metar": "METAR EYKA 231150Z 16005KT 120V190 4600 -SNRA BR OVC003 01/00 Q1003",
      "taf": "TAF EYKA 231109Z 2312/2412 VRB05KT 1500 BR OVC005"
    },
    {
      "icao": "EYPA",
      "alert": "OK",
      "vis_m": 9999,
      "fzfg": false,
      "metar_trigger": false,
      "taf_trigger": false,
      "metar": "METAR EYPA 231150Z 26005KT 210V320 9999 OVC002 01/01 Q1001",
      "taf": "TAF EYPA 231109Z 2312/2412 VRB05KT 0400 FG OVC002"
    },
    {
      "icao": "EYVI",
      "alert": "OK",
      "vis_m": 8000,
      "fzfg": false,
      "metar_trigger": false,
      "taf_trigger": false,
      "metar": "METAR EYVI 231150Z 15006KT 8000 -RASN OVC010 01/M01 Q1004 BECMG 3000 SNRA",
      "taf": "TAF EYVI 231120Z 2312/2412 18008KT 3000 SNRA OVC005"
    },
    {
      "icao": "GCFV",
      "alert": "OK",
      "vis_m": 9999,
      "fzfg": false,
      "metar_trigger": false,
      "taf_trigger": false,
      "metar": "METAR GCFV 231130Z 04003KT 360V090 CAVOK 23/12 Q1023",
      "taf": "TAF GCFV 230800Z 2309/2409 17005KT 7000 NSC TX24/2314Z TN17/2406Z"
    },
    {
      "icao": "GCLP",
      "alert": "OK",
      "vis_m": 9999,
      "fzfg": false,
      "metar_trigger": false,
      "taf_trigger": false,
      "metar": "METAR GCLP 231130Z 15007KT 110V170 CAVOK 24/08 Q1022 NOSIG",
      "taf": "TAF GCLP 230800Z 2309/2409 17010KT 7000 NSC TX25/2314Z TN18/2406Z"
    },
    {
      "icao": "GCTS",
      "alert": "OK",
      "vis_m": 9999,
      "fzfg": false,
      "metar_trigger": false,
      "taf_trigger": false,
      "metar": "METAR GCTS 231130Z 10010KT 080V140 CAVOK 29/M04 Q1022 NOSIG",
      "taf": "TAF GCTS 230800Z 2309/2409 10010KT 8000 NSC TX27/2314Z TN19/2406Z"
    },
    {
      "icao": "GMAD",
      "alert": "OK",
      "vis_m": 9999,
      "fzfg": false,
      "metar_trigger": false,
      "taf_trigger": false,
      "metar": "METAR GMAD 231130Z 05004KT 340V090 CAVOK 27/06 Q1023 NOSIG",
      "taf": "TAF GMAD 231100Z 2312/2418 05005KT CAVOK"
    },
    {
      "icao": "GMMN",
      "alert": "OK",
      "vis_m": 9999,
      "fzfg": false,
      "metar_trigger": false,
      "taf_trigger": false,
      "metar": "METAR GMMN 231130Z 18003KT 150V220 CAVOK 25/16 Q1024 NOSIG",
      "taf": ""
    },
    {
      "icao": "GMMX",
      "alert": "OK",
      "vis_m": 9999,
      "fzfg": false,
      "metar_trigger": false,
      "taf_trigger": false,
      "metar": "METAR GMMX 231130Z 06004KT 330V130 CAVOK 25/06 Q1024 NOSIG",
      "taf": "TAF GMMX 231100Z 2312/2418 06006KT 8000 NSC"
    },
    {
      "icao": "HEGN",
      "alert": "OK",
      "vis_m": 9999,
      "fzfg": false,
      "metar_trigger": false,
      "taf_trigger": false,
      "metar": "METAR HEGN 231100Z 34015KT CAVOK 22/02 Q1012 NOSIG",
      "taf": "TAF HEGN 231100Z 2312/2418 34015G25KT CAVOK"
    },
    {
      "icao": "HEMA",
      "alert": "OK",
      "vis_m": 9999,
      "fzfg": false,
      "metar_trigger": false,
      "taf_trigger": false,
      "metar": "METAR HEMA 231100Z 03012KT CAVOK 24/05 Q1012 NOSIG",
      "taf": "TAF HEMA 231100Z 2312/2418 35015G25KT CAVOK"
    },
    {
      "icao": "HESH",
      "alert": "OK",
      "vis_m": 9999,
      "fzfg": false,
      "metar_trigger": false,
      "taf_trigger": false,
      "metar": "METAR HESH 231100Z 08008KT CAVOK 24/07 Q1011 NOSIG",
      "taf": "TAF HESH 231100Z 2312/2418 03015KT CAVOK"
    },
    {
      "icao": "HESX",
      "alert": "OK",
      "vis_m": 9999,
      "fzfg": false,
      "metar_trigger": false,
      "taf_trigger": false,
      "metar": "METAR HESX 231100Z 28012KT 9999 SCT020 19/09 Q1015 NOSIG",
      "taf": "TAF HESX 231100Z 2312/2418 27012G22KT 9999 SCT020"
    },
    {
      "icao": "LATI",
      "alert": "OK",
      "vis_m": 9999,
      "fzfg": false,
      "metar_trigger": false,
      "taf_trigger": false,
      "metar": "METAR LATI 231150Z VRB02KT CAVOK 17/M03 Q1020 NOSIG",
      "taf": "TAF LATI 231100Z 2312/2412 VRB05KT CAVOK TX17/2412Z TN03/2405Z"
    },
    {
      "icao": "LBPD",
      "alert": "OK",
      "vis_m": 9999,
      "fzfg": false,
      "metar_trigger": false,
      "taf_trigger": false,
      "metar": "METAR LBPD 231130Z AUTO VRB02KT 9999 NCD 11/02 Q1018 NOSIG",
      "taf": "TAF LBPD 231100Z 2312/2412 VRB03KT 9999 SCT070"
    },
    {
      "icao": "LBSF",
      "alert": "OK",
      "vis_m": 9999,
      "fzfg": false,
      "metar_trigger": false,
      "taf_trigger": false,
      "metar": "METAR LBSF 231130Z 17004KT 130V200 9999 BKN083 07/01 Q1018 NOSIG",
      "taf": "TAF LBSF 231100Z 2312/2412 VRB03KT 9999 SCT050"
    },
    {
      "icao": "LBWN",
      "alert": "OK",
      "vis_m": 9999,
      "fzfg": false,
      "metar_trigger": false,
      "taf_trigger": false,
      "metar": "METAR LBWN 231130Z 24012KT CAVOK 12/02 Q1016 NOSIG",
      "taf": "TAF LBWN 231100Z 2312/2412 27010KT CAVOK"
    },
    {
      "icao": "LCLK",
      "alert": "OK",
      "vis_m": 9999,
      "fzfg": false,
      "metar_trigger": false,
      "taf_trigger": false,
      "metar": "METAR LCLK 231130Z 21012KT 9999 SCT025 FEW040CB 19/09 Q1011 NOSIG RMK DISTANT CB TO S",
      "taf": "TAF LCLK 231130Z 2312/2412 22012KT 9999 FEW025"
    },
    {
      "icao": "LCPH",
      "alert": "OK",
      "vis_m": 9999,
      "fzfg": false,
      "metar_trigger": false,
      "taf_trigger": false,
      "metar": "METAR LCPH 231130Z 31011KT 250V320 9999 FEW025 FEW030CB SCT045 18/10 Q1012 NOSIG",
      "taf": "TAF LCPH 231130Z 2312/2412 28012KT 9999 FEW020"
    },
    {
      "icao": "LEAL",
      "alert": "OK",
      "vis_m": 9999,
      "fzfg": false,
      "metar_trigger": false,
      "taf_trigger": false,
      "metar": "METAR LEAL 231130Z 07003KT 350V120 CAVOK 19/08 Q1026 NOSIG",
      "taf": "TAF LEAL 231100Z 2312/2412 VRB04KT CAVOK TX20/2312Z TN07/2406Z"
    },
    {
      "icao": "LEBB",
      "alert": "OK",
      "vis_m": 9999,
      "fzfg": false,
      "metar_trigger": false,
      "taf_trigger": false,
      "metar": "METAR LEBB 231130Z 08003KT 030V140 CAVOK 18/09 Q1026 NOSIG",
      "taf": "TAF LEBB 231100Z 2312/2412 10005KT CAVOK TX22/2314Z TN09/2407Z"
    },
    {
      "icao": "LEBL",
      "alert": "OK",
      "vis_m": 9999,
      "fzfg": false,
      "metar_trigger": false,
      "taf_trigger": false,
      "metar": "METAR LEBL 231130Z 10006KT 060V140 CAVOK 15/10 Q1025 NOSIG",
      "taf": "TAF LEBL 231100Z 2312/2412 12006KT 9999 FEW025 TX17/2312Z TN08/2406Z"
    },
    {
      "icao": "LECH",
      "alert": "OK",
      "vis_m": 9999,
      "fzfg": false,
      "metar_trigger": false,
      "taf_trigger": false,
      "metar": "METAR LECH 231130Z AUTO 14004KT 100V180 CAVOK 20/02 Q1026",
      "taf": ""
    },
    {
      "icao": "LEMD",
      "alert": "OK",
      "vis_m": 9999,
      "fzfg": false,
      "metar_trigger": false,
      "taf_trigger": false,
      "metar": "METAR LEMD 231130Z 27001KT CAVOK 15/04 Q1027 NOSIG",
      "taf": "TAF LEMD 231100Z 2312/2418 VRB04KT CAVOK TX21/2315Z TN02/2407Z"
    },
    {
      "icao": "LEMG",
      "alert": "OK",
      "vis_m": 9999,
      "fzfg": false,
      "metar_trigger": false,
      "taf_trigger": false,
      "metar": "METAR LEMG 231130Z 13006KT 110V170 CAVOK 17/09 Q1026 NOSIG",
      "taf": "TAF LEMG 231100Z 2312/2412 29008KT CAVOK TX19/2314Z TN08/2407Z"
    },
    {
      "icao": "LEVC",
      "alert": "OK",
      "vis_m": 9999,
      "fzfg": false,
      "metar_trigger": false,
      "taf_trigger": false,
      "metar": "METAR LEVC 231130Z VRB02KT CAVOK 20/03 Q1026 NOSIG",
      "taf": "TAF LEVC 231100Z 2312/2412 VRB04KT CAVOK TX23/2312Z TN06/2406Z"
    },
    {
      "icao": "LEXJ",
      "alert": "OK",
      "vis_m": 9999,
      "fzfg": false,
      "metar_trigger": false,
      "taf_trigger": false,
      "metar": "METAR LEXJ 231130Z 06004KT 010V110 CAVOK 13/10 Q1025",
      "taf": "TAF LEXJ 230800Z 2309/2409 20009KT 9999 FEW020 TX19/2314Z TN06/2309Z"
    },
    {
      "icao": "LEZG",
      "alert": "OK",
      "vis_m": 9999,
      "fzfg": false,
      "metar_trigger": false,
      "taf_trigger": false,
      "metar": "METAR LEZG 231130Z 30005KT 260V340 CAVOK 17/05 Q1026 NOSIG",
      "taf": "TAF LEZG 231100Z 2312/2412 32009KT CAVOK TX21/2314Z TN05/2406Z"
    },
    {
      "icao": "LEZL",
      "alert": "OK",
      "vis_m": 9999,
      "fzfg": false,
      "metar_trigger": false,
      "taf_trigger": false,
      "metar": "METAR LEZL 231130Z 06003KT 020V120 CAVOK 19/10 Q1025 NOSIG",
      "taf": "TAF LEZL 230800Z 2309/2409 VRB03KT CAVOK TX23/2315Z TN08/2407Z"
    },
    {
      "icao": "LFBD",
      "alert": "OK",
      "vis_m": 9999,
      "fzfg": false,
      "metar_trigger": false,
      "taf_trigger": false,
      "metar": "METAR LFBD 231130Z AUTO 16006KT 120V200 9999 BKN014 13/10 Q1027 BECMG NSC",
      "taf": "TAF LFBD 231100Z 2312/2418 20005KT 9999 BKN014 TX18/2415Z TN07/2406Z"
    },
    {
      "icao": "LFLL",
      "alert": "OK",
      "vis_m": 9999,
      "fzfg": false,
      "metar_trigger": false,
      "taf_trigger": false,
      "metar": "METAR LFLL 231130Z VRB03KT 9999 FEW028 BKN045 14/07 Q1025 NOSIG",
      "taf": "TAF LFLL 231100Z 2312/2418 VRB05KT 9999 BKN030"
    },
    {
      "icao": "LFLS",
      "alert": "OK",
      "vis_m": 9999,
      "fzfg": false,
      "metar_trigger": false,
      "taf_trigger": false,
      "metar": "METAR LFLS 231130Z AUTO 33003KT 300V020 9999 FEW031 14/07 Q1025 NOSIG",
      "taf": "TAF LFLS 230800Z 2309/2409 VRB02KT CAVOK"
    },
    {
      "icao": "LFMN",
      "alert": "OK",
      "vis_m": 9999,
      "fzfg": false,
      "metar_trigger": false,
      "taf_trigger": false,
      "metar": "METAR LFMN 231130Z 19004KT 170V250 9999 FEW026 SCT260 15/09 Q1020 NOSIG",
      "taf": "TAF LFMN 230800Z 2309/2415 33010KT 9999 FEW020 BKN250"
    },
    {
      "icao": "LFOB",
      "alert": "OK",
      "vis_m": 9999,
      "fzfg": false,
      "metar_trigger": false,
      "taf_trigger": false,
      "metar": "METAR LFOB 231130Z AUTO 24011KT 210V270 9999 BKN021 BKN027 OVC150 11/08 Q1021 NOSIG",
      "taf": "TAF LFOB 231100Z 2312/2412 24012KT 9999 SCT025"
    },
    {
      "icao": "LFPO",
      "alert": "OK",
      "vis_m": 9999,
      "fzfg": false,
      "metar_trigger": false,
      "taf_trigger": false,
      "metar": "METAR LFPO 231130Z 25012KT 220V280 9999 FEW028 SCT070 BKN160 15/09 Q1021 NOSIG",
      "taf": "TAF LFPO 231100Z 2312/2418 25012KT 9999 SCT030 BKN160"
    },
    {
      "icao": "LFSB",
      "alert": "OK",
      "vis_m": 9999,
      "fzfg": false,
      "metar_trigger": false,
      "taf_trigger": false,
      "metar": "METAR LFSB 231130Z AUTO 27013G24KT 240V300 9999 BKN025 BKN030 13/08 Q1022 NOSIG",
      "taf": "TAF LFSB 231100Z 2312/2412 26012KT 9999 BKN025"
    },
    {
      "icao": "LGAV",
      "alert": "OK",
      "vis_m": 9999,
      "fzfg": false,
      "metar_trigger": false,
      "taf_trigger": false,
      "metar": "METAR LGAV 231120Z 02006KT 300V070 9999 SCT030 14/02 Q1020 NOSIG",
      "taf": "TAF LGAV 231100Z 2312/2412 04010KT 9999 SCT025"
    },
    {
      "icao": "LGTS",
      "alert": "OK",
      "vis_m": 9999,
      "fzfg": false,
      "metar_trigger": false,
      "taf_trigger": false,
      "metar": "METAR LGTS 231120Z 26008KT CAVOK 12/03 Q1020 NOSIG",
      "taf": "TAF LGTS 231100Z 2312/2412 VRB03KT 9999 FEW030"
    },
    {
      "icao": "LHBP",
      "alert": "OK",
      "vis_m": 9999,
      "fzfg": false,
      "metar_trigger": false,
      "taf_trigger": false,
      "metar": "METAR LHBP 231130Z 31019G30KT 9999 BKN033 14/06 Q1014 NOSIG",
      "taf": "TAF LHBP 231115Z 2312/2412 29014KT 9999 BKN035"
    },
    {
      "icao": "LHDC",
      "alert": "OK",
      "vis_m": 9999,
      "fzfg": false,
      "metar_trigger": false,
      "taf_trigger": false,
      "metar": "METAR LHDC 231115Z AUTO 28008KT 250V310 9999 -SHRA OVC011 09/08 Q1014 BECMG SCT020",
      "taf": "TAF LHDC 231115Z 2312/2321 25009KT 9999 BKN009"
    },
    {
      "icao": "LIBD",
      "alert": "OK",
      "vis_m": 9999,
      "fzfg": false,
      "metar_trigger": false,
      "taf_trigger": false,
      "metar": "METAR LIBD 231120Z 05006KT 010V080 CAVOK 18/07 Q1019",
      "taf": "TAF LIBD 231100Z 2312/2412 VRB06KT CAVOK"
    },
    {
      "icao": "LIBG",
      "alert": "OK",
      "vis_m": 9999,
      "fzfg": false,
      "metar_trigger": false,
      "taf_trigger": false,
      "metar": "METAR LIBG 231050Z 20007KT 160V230 CAVOK 16/07 Q1021",
      "taf": "TAF LIBG 231100Z 2312/2321 22010KT CAVOK"
    },
    {
      "icao": "LIBP",
      "alert": "OK",
      "vis_m": 9999,
      "fzfg": false,
      "metar_trigger": false,
      "taf_trigger": false,
      "metar": "METAR LIBP 231120Z AUTO 02009KT 340V050 9999 FEW240/// 15/08 Q1021",
      "taf": "TAF LIBP 231100Z 2312/2412 35010KT 8000 NSC"
    },
    {
      "icao": "LIBR",
      "alert": "OK",
      "vis_m": 9999,
      "fzfg": false,
      "metar_trigger": false,
      "taf_trigger": false,
      "metar": "METAR LIBR 231120Z 21009KT CAVOK 17/05 Q1020",
      "taf": "TAF LIBR 231100Z 2312/2412 VRB06KT 8000 NSC"
    },
    {
      "icao": "LICA",
      "alert": "OK",
      "vis_m": 9999,
      "fzfg": false,
      "metar_trigger": false,
      "taf_trigger": false,
      "metar": "METAR LICA 231120Z AUTO 26011KT 9999 FEW019/// BKN031/// 16/12 Q1023",
      "taf": "TAF LICA 231100Z 2312/2412 27012KT 9999 FEW020"
    },
    {
      "icao": "LICC",
      "alert": "OK",
      "vis_m": 9999,
      "fzfg": false,
      "metar_trigger": false,
      "taf_trigger": false,
      "metar": "METAR LICC 231120Z 28004KT 220V340 CAVOK 21/16 Q1022",
      "taf": "TAF LICC 231100Z 2312/2412 25008KT CAVOK"
    },
    {
      "icao": "LICJ",
      "alert": "OK",
      "vis_m": 9999,
      "fzfg": false,
      "metar_trigger": false,
      "taf_trigger": false,
      "metar": "METAR LICJ 231120Z 21015KT CAVOK 18/10 Q1023 WS R25",
      "taf": "TAF LICJ 231100Z 2312/2412 21016KT CAVOK"
    },
    {
      "icao": "LIMC",
      "alert": "OK",
      "vis_m": 9999,
      "fzfg": false,
      "metar_trigger": false,
      "taf_trigger": false,
      "metar": "METAR LIMC 231120Z 25006KT 210V290 CAVOK 13/08 Q1020 NOSIG",
      "taf": "TAF LIMC 231100Z 2312/2418 VRB05KT CAVOK"
    },
    {
      "icao": "LIME",
      "alert": "OK",
      "vis_m": 8000,
      "fzfg": false,
      "metar_trigger": false,
      "taf_trigger": false,
      "metar": "METAR LIME 231120Z 20004KT 160V280 8000 NSC 12/07 Q1020 NOSIG",
      "taf": "TAF LIME 231100Z 2312/2412 VRB05KT 7000 NSC"
    },
    {
      "icao": "LIMF",
      "alert": "OK",
      "vis_m": 6000,
      "fzfg": false,
      "metar_trigger": false,
      "taf_trigger": false,
      "metar": "METAR LIMF 231120Z VRB02KT 6000 NSC 13/07 Q1020",
      "taf": "TAF LIMF 231100Z 2312/2412 VRB04KT 7000 NSC"
    },
    {
      "icao": "LIMJ",
      "alert": "OK",
      "vis_m": 9999,
      "fzfg": false,
      "metar_trigger": false,
      "taf_trigger": false,
      "metar": "METAR LIMJ 231120Z 15006KT 9999 FEW026 14/12 Q1021",
      "taf": "TAF LIMJ 231100Z 2312/2412 VRB05KT 9999 SCT025"
    },
    {
      "icao": "LIPE",
      "alert": "OK",
      "vis_m": 9999,
      "fzfg": false,
      "metar_trigger": false,
      "taf_trigger": false,
      "metar": "METAR LIPE 231120Z 09003KT 350V160 CAVOK 15/08 Q1020",
      "taf": "TAF LIPE 231100Z 2312/2412 VRB04KT 9999 FEW030"
    },
    {
      "icao": "LIPH",
      "alert": "OK",
      "vis_m": 2500,
      "fzfg": false,
      "metar_trigger": false,
      "taf_trigger": false,
      "metar": "METAR LIPH 231120Z 21003KT 170V250 2500 BR BKN004 08/08 Q1021",
      "taf": "TAF LIPH 231100Z 2312/2412 VRB03KT 2500 BR BKN005"
    },
    {
      "icao": "LIPQ",
      "alert": "OK",
      "vis_m": 9999,
      "fzfg": false,
      "metar_trigger": false,
      "taf_trigger": false,
      "metar": "METAR LIPQ 231120Z AUTO 27003KT 210V340 9999 NCD 13/06 Q1020",
      "taf": "TAF LIPQ 231100Z 2312/2412 VRB03KT 9999 SCT030"
    },
    {
      "icao": "LIPR",
      "alert": "OK",
      "vis_m": 9999,
      "fzfg": false,
      "metar_trigger": false,
      "taf_trigger": false,
      "metar": "METAR LIPR 231120Z 04006KT CAVOK 12/09 Q1020",
      "taf": "TAF LIPR 231100Z 2312/2412 VRB04KT 7000 FEW030"
    },
    {
      "icao": "LIPX",
      "alert": "OK",
      "vis_m": 7000,
      "fzfg": false,
      "metar_trigger": false,
      "taf_trigger": false,
      "metar": "METAR LIPX 231120Z 17003KT 130V220 7000 FEW020 10/07 Q1020",
      "taf": "TAF LIPX 231100Z 2312/2412 VRB04KT 7000 NSC"
    },
    {
      "icao": "LIPY",
      "alert": "OK",
      "vis_m": 9999,
      "fzfg": false,
      "metar_trigger": false,
      "taf_trigger": false,
      "metar": "METAR LIPY 231120Z AUTO 36007KT 9999 VV002 10/09 Q1021",
      "taf": "TAF LIPY 231100Z 2312/2412 VRB05KT 8000 NSC"
    },
    {
      "icao": "LIPZ",
      "alert": "OK",
      "vis_m": 3000,
      "fzfg": false,
      "metar_trigger": false,
      "taf_trigger": false,
      "metar": "METAR LIPZ 231120Z VRB02KT 3000 BR SCT005 SCT015 10/07 Q1021 BECMG 5000 BR",
      "taf": "TAF LIPZ 231100Z 2312/2418 VRB03KT 4000 BR BKN005"
    },
    {
      "icao": "LIRF",
      "alert": "OK",
      "vis_m": 9999,
      "fzfg": false,
      "metar_trigger": false,
      "taf_trigger": false,
      "metar": "METAR LIRF 231120Z 14008KT 9999 FEW015 BKN030 14/11 Q1022 NOSIG",
      "taf": "TAF LIRF 231100Z 2312/2418 16010KT 9999 FEW015 BKN030"
    },
    {
      "icao": "LIRN",
      "alert": "OK",
      "vis_m": 9999,
      "fzfg": false,
      "metar_trigger": false,
      "taf_trigger": false,
      "metar": "METAR LIRN 231120Z 20006KT 130V240 9999 BKN030 15/10 Q1022 NOSIG",
      "taf": "TAF LIRN 231100Z 2312/2412 VRB05KT CAVOK"
    },
    {
      "icao": "LIRP",
      "alert": "OK",
      "vis_m": 9999,
      "fzfg": false,
      "metar_trigger": false,
      "taf_trigger": false,
      "metar": "METAR LIRP 231115Z 14004KT 9999 BKN040 13/12 Q1022 NOSIG",
      "taf": "TAF LIRP 231100Z 2312/2412 VRB04KT 9999 SCT030"
    },
    {
      "icao": "LIRZ",
      "alert": "OK",
      "vis_m": 9999,
      "fzfg": false,
      "metar_trigger": false,
      "taf_trigger": false,
      "metar": "METAR LIRZ 231120Z AUTO 20005KT 140V250 9999 FEW043/// 15/08 Q1021",
      "taf": "TAF LIRZ 231100Z 2312/2412 VRB05KT 9999 BKN030"
    },
    {
      "icao": "LJLJ",
      "alert": "OK",
      "vis_m": 9999,
      "fzfg": false,
      "metar_trigger": false,
      "taf_trigger": false,
      "metar": "METAR LJLJ 231130Z VRB02KT 9999 FEW070 12/04 Q1018 NOSIG",
      "taf": "TAF LJLJ 231100Z 2312/2412 VRB02KT 9999 FEW070"
    },
    {
      "icao": "LKMT",
      "alert": "OK",
      "vis_m": 9999,
      "fzfg": false,
      "metar_trigger": false,
      "taf_trigger": false,
      "metar": "METAR LKMT 231130Z 23017KT 9999 SCT012 11/08 Q1012 NOSIG",
      "taf": "TAF LKMT 231100Z 2312/2412 23014KT 9999 SCT022 BKN045"
    },
    {
      "icao": "LKPR",
      "alert": "OK",
      "vis_m": 9999,
      "fzfg": false,
      "metar_trigger": false,
      "taf_trigger": false,
      "metar": "METAR LKPR 231130Z 26019KT 9999 SCT042 11/03 Q1014 NOSIG",
      "taf": "TAF LKPR 231100Z 2312/2418 23015KT 9999 SCT035"
    },
    {
      "icao": "LLBG",
      "alert": "OK",
      "vis_m": 9999,
      "fzfg": false,
      "metar_trigger": false,
      "taf_trigger": false,
      "metar": "METAR LLBG 231120Z 23012KT 9999 FEW030 17/09 Q1013 TEMPO 8000 RA BKN025 RMK BKN065",
      "taf": "TAF LLBG 231106Z 2312/2412 24010KT 9999 SCT025 BKN035"
    },
    {
      "icao": "LMML",
      "alert": "OK",
      "vis_m": 9999,
      "fzfg": false,
      "metar_trigger": false,
      "taf_trigger": false,
      "metar": "METAR LMML 231145Z 27017KT 9999 FEW020 17/12 Q1025 NOSIG",
      "taf": "TAF LMML 231100Z 2312/2412 28012KT 9999 FEW018"
    },
    {
      "icao": "LOWW",
      "alert": "OK",
      "vis_m": 9999,
      "fzfg": false,
      "metar_trigger": false,
      "taf_trigger": false,
      "metar": "METAR LOWW 231120Z 31018KT 280V350 9999 -SHRA FEW024 SCT030 BKN036 12/06 Q1016 TEMPO SHRA",
      "taf": "TAF LOWW 231115Z 2312/2418 28012KT 9999 FEW040 SCT050 TX14/2312Z TN07/2418Z"
    },
    {
      "icao": "LPFR",
      "alert": "OK",
      "vis_m": 9999,
      "fzfg": false,
      "metar_trigger": false,
      "taf_trigger": false,
      "metar": "METAR LPFR 231130Z 10010KT CAVOK 17/11 Q1025",
      "taf": "TAF LPFR 231100Z 2312/2412 12010KT CAVOK"
    },
    {
      "icao": "LPMA",
      "alert": "OK",
      "vis_m": 9999,
      "fzfg": false,
      "metar_trigger": false,
      "taf_trigger": false,
      "metar": "METAR LPMA 231130Z 05004KT 360V140 9999 SCT015 17/13 Q1024",
      "taf": "TAF LPMA 231100Z 2312/2412 VRB05KT 9999 FEW015"
    },
    {
      "icao": "LPPR",
      "alert": "OK",
      "vis_m": 9999,
      "fzfg": false,
      "metar_trigger": false,
      "taf_trigger": false,
      "metar": "METAR LPPR 231130Z 12007KT 080V150 CAVOK 19/09 Q1024",
      "taf": "TAF LPPR 231100Z 2312/2412 12010KT CAVOK"
    },
    {
      "icao": "LPPS",
      "alert": "OK",
      "vis_m": 9999,
      "fzfg": false,
      "metar_trigger": false,
      "taf_trigger": false,
      "metar": "METAR LPPS 231130Z 12008KT 090V160 9999 FEW014 17/13 Q1024",
      "taf": "TAF LPPS 231100Z 2312/2418 13008KT 9999 FEW015"
    },
    {
      "icao": "LPPT",
      "alert": "OK",
      "vis_m": 9999,
      "fzfg": false,
      "metar_trigger": false,
      "taf_trigger": false,
      "metar": "METAR LPPT 231130Z 09003KT 360V140 CAVOK 16/10 Q1025",
      "taf": "TAF LPPT 231100Z 2312/2418 VRB05KT CAVOK"
    },
    {
      "icao": "LQBK",
      "alert": "OK",
      "vis_m": 9999,
      "fzfg": false,
      "metar_trigger": false,
      "taf_trigger": false,
      "metar": "METAR LQBK 231130Z 02005KT 350V060 CAVOK 16/04 Q1018 NOSIG",
      "taf": "TAF LQBK 231100Z 2312/2412 32005KT CAVOK TX15/2313Z TN05/2406Z"
    },
    {
      "icao": "LQSA",
      "alert": "OK",
      "vis_m": 9999,
      "fzfg": false,
      "metar_trigger": false,
      "taf_trigger": false,
      "metar": "METAR LQSA 231130Z VRB02KT CAVOK 11/03 Q1018 NOSIG",
      "taf": "TAF LQSA 231100Z 2312/2412 VRB02KT CAVOK TX15/2314Z TN02/2405Z"
    },
    {
      "icao": "LQTZ",
      "alert": "OK",
      "vis_m": 9999,
      "fzfg": false,
      "metar_trigger": false,
      "taf_trigger": false,
      "metar": "METAR LQTZ 231130Z VRB02KT CAVOK 14/03 Q1018",
      "taf": "TAF LQTZ 231100Z 2312/2412 30005KT CAVOK TX15/2313Z TN04/2406Z"
    },
    {
      "icao": "LRBC",
      "alert": "OK",
      "vis_m": 9999,
      "fzfg": false,
      "metar_trigger": false,
      "taf_trigger": false,
      "metar": "METAR LRBC 231130Z 14008KT CAVOK 09/02 Q1011",
      "taf": "TAF LRBC 231100Z 2312/2321 17008KT CAVOK"
    },
    {
      "icao": "LRBS",
      "alert": "OK",
      "vis_m": 9999,
      "fzfg": false,
      "metar_trigger": false,
      "taf_trigger": false,
      "metar": "METAR LRBS 231130Z 26012KT CAVOK 04/00 Q1016 NOSIG",
      "taf": "TAF LRBS 231100Z 2312/2412 26010KT CAVOK"
    },
    {
      "icao": "LRBV",
      "alert": "OK",
      "vis_m": 4000,
      "fzfg": false,
      "metar_trigger": false,
      "taf_trigger": false,
      "metar": "METAR LRBV 231130Z VRB01KT 4000 -RA BR BKN014 BKN019 00/M01 Q1014",
      "taf": "TAF LRBV 231100Z 2312/2321 VRB04KT 9999 BKN025"
    },
    {
      "icao": "LRCL",
      "alert": "OK",
      "vis_m": 7000,
      "fzfg": false,
      "metar_trigger": false,
      "taf_trigger": false,
      "metar": "METAR LRCL 231130Z 07005KT 7000 -RA SCT007 OVC028 05/04 Q1013",
      "taf": "TAF LRCL 231100Z 2312/2321 VRB04KT 9999 BKN035"
    },
    {
      "icao": "LRCV",
      "alert": "OK",
      "vis_m": 6000,
      "fzfg": false,
      "metar_trigger": false,
      "taf_trigger": false,
      "metar": "METAR LRCV 231130Z 23005KT 6000 -RA BKN044 04/04 Q1016",
      "taf": ""
    },
    {
      "icao": "LRIA",
      "alert": "OK",
      "vis_m": 9999,
      "fzfg": false,
      "metar_trigger": false,
      "taf_trigger": false,
      "metar": "METAR LRIA 231130Z 10008KT 9999 -RA NSC 04/01 Q1011",
      "taf": "TAF LRIA 231100Z 2312/2321 10008KT 9999 BKN045"
    },
    {
      "icao": "LROP",
      "alert": "OK",
      "vis_m": 9999,
      "fzfg": false,
      "metar_trigger": false,
      "taf_trigger": false,
      "metar": "METAR LROP 231130Z 24011KT CAVOK 04/M01 Q1016 NOSIG",
      "taf": "TAF LROP 231100Z 2312/2412 24010KT CAVOK"
    },
    {
      "icao": "LRSB",
      "alert": "OK",
      "vis_m": 9999,
      "fzfg": false,
      "metar_trigger": false,
      "taf_trigger": false,
      "metar": "METAR LRSB 231130Z VRB02KT 9999 -RA SCT030 BKN043 OVC055 06/05 Q1014",
      "taf": "TAF LRSB 231100Z 2312/2412 VRB03KT 9999 BKN045"
    },
    {
      "icao": "LRSM",
      "alert": "OK",
      "vis_m": 8000,
      "fzfg": false,
      "metar_trigger": false,
      "taf_trigger": false,
      "metar": "METAR LRSM 231130Z 07003KT 8000 RA FEW005 BKN007 OVC010 05/05 Q1014",
      "taf": "TAF LRSM 231100Z 2312/2321 VRB04KT 5000 -RA BR BKN010 BKN020"
    },
    {
      "icao": "LRSV",
      "alert": "OK",
      "vis_m": 9999,
      "fzfg": false,
      "metar_trigger": false,
      "taf_trigger": false,
      "metar": "METAR LRSV 231130Z 21008KT 9999 -RA SCT045 07/02 Q1009",
      "taf": "TAF LRSV 231100Z 2312/2321 18006KT CAVOK"
    },
    {
      "icao": "LRTM",
      "alert": "OK",
      "vis_m": 9999,
      "fzfg": false,
      "metar_trigger": false,
      "taf_trigger": false,
      "metar": "METAR LRTM 231130Z VRB03KT 9999 -RA FEW021 SCT038 BKN046 08/05 Q1014",
      "taf": "TAF LRTM 231100Z 2312/2321 VRB04KT 9999 BKN040"
    },
    {
      "icao": "LRTR",
      "alert": "OK",
      "vis_m": 9999,
      "fzfg": false,
      "metar_trigger": false,
      "taf_trigger": false,
      "metar": "METAR LRTR 231130Z 20007KT 9999 -RA FEW033 10/07 Q1017",
      "taf": "TAF LRTR 231100Z 2312/2412 20008KT 9999 SCT035"
    },
    {
      "icao": "LTAC",
      "alert": "OK",
      "vis_m": 9999,
      "fzfg": false,
      "metar_trigger": false,
      "taf_trigger": false,
      "metar": "METAR LTAC 231120Z 21003KT 120V280 9999 BKN029 06/M01 Q1015 NOSIG RMK RWY21C 22007KT 190V250 RWY03L 27004KT 200V310 RWY21R 20007KT 170V260 RWY03R VRB01KT RWY21L 19005KT 130V240",
      "taf": "TAF LTAC 231040Z 2312/2412 VRB02KT 9999 SCT040"
    },
    {
      "icao": "LTFM",
      "alert": "OK",
      "vis_m": 9999,
      "fzfg": false,
      "metar_trigger": false,
      "taf_trigger": false,
      "metar": "METAR LTFM 231120Z 24008KT 200V280 9999 SCT025 09/02 Q1019 NOSIG RMK RWY17L 22010KT 170V240 RWY34L 21008KT 170V250 RWY16R 23010KT RWY36 22009KT RWY18 23010KT 190V260",
      "taf": "TAF LTFM 231040Z 2312/2418 21012KT 9999 SCT028"
    },
    {
      "icao": "LUKK",
      "alert": "OK",
      "vis_m": 9999,
      "fzfg": false,
      "metar_trigger": false,
      "taf_trigger": false,
      "metar": "METAR LUKK 231130Z 20005KT 170V250 9999 FEW046 06/M00 Q1012 NOSIG",
      "taf": "TAF LUKK 231121Z 2312/2412 23006KT 9999 BKN045"
    },
    {
      "icao": "LWOH",
      "alert": "OK",
      "vis_m": 9999,
      "fzfg": false,
      "metar_trigger": false,
      "taf_trigger": false,
      "metar": "METAR LWOH 231150Z 15004KT 9999 FEW050 08/M03 Q1020",
      "taf": "TAF LWOH 231130Z 2312/2412 16010KT 9999 FEW050"
    },
    {
      "icao": "LWSK",
      "alert": "OK",
      "vis_m": 9999,
      "fzfg": false,
      "metar_trigger": false,
      "taf_trigger": false,
      "metar": "METAR LWSK 231150Z VRB02KT CAVOK 10/02 Q1020 NOSIG",
      "taf": "TAF LWSK 231130Z 2312/2412 VRB02KT CAVOK"
    },
    {
      "icao": "LYBE",
      "alert": "OK",
      "vis_m": 9999,
      "fzfg": false,
      "metar_trigger": false,
      "taf_trigger": false,
      "metar": "METAR LYBE 231130Z 27005KT CAVOK 13/05 Q1018 NOSIG",
      "taf": "TAF LYBE 231100Z 2312/2412 20005KT CAVOK TX14/2313Z TN06/2406Z"
    },
    {
      "icao": "LYNI",
      "alert": "OK",
      "vis_m": 9999,
      "fzfg": false,
      "metar_trigger": false,
      "taf_trigger": false,
      "metar": "METAR LYNI 231130Z VRB02KT 9999 BKN090 08/03 Q1019 NOSIG",
      "taf": "TAF LYNI 231100Z 2312/2412 21005KT 9999 BKN080 TX12/2314Z TN00/2405Z"
    },
    {
      "icao": "LYPG",
      "alert": "OK",
      "vis_m": 9999,
      "fzfg": false,
      "metar_trigger": false,
      "taf_trigger": false,
      "metar": "METAR LYPG 231130Z 14005KT 080V190 CAVOK 14/03 Q1021 NOSIG",
      "taf": "TAF LYPG 231100Z 2312/2412 16005KT CAVOK TX16/2313Z TN04/2405Z"
    },
    {
      "icao": "LZIB",
      "alert": "OK",
      "vis_m": 8000,
      "fzfg": false,
      "metar_trigger": false,
      "taf_trigger": false,
      "metar": "METAR LZIB 231130Z 32009KT 8000 -SHRA FEW015 SCT018TCU BKN021 11/09 Q1016 RESHRA NOSIG",
      "taf": "TAF LZIB 231115Z 2312/2412 30009KT 9999 SCT040"
    },
    {
      "icao": "LZKZ",
      "alert": "OK",
      "vis_m": 9999,
      "fzfg": false,
      "metar_trigger": false,
      "taf_trigger": false,
      "metar": "METAR LZKZ 231130Z VRB02KT 9999 BKN006 06/05 Q1012 NOSIG",
      "taf": "TAF LZKZ 231115Z 2312/2412 23009KT 9999 BKN018"
    },
    {
      "icao": "LZTT",
      "alert": "OK",
      "vis_m": 9999,
      "fzfg": false,
      "metar_trigger": false,
      "taf_trigger": false,
      "metar": "METAR LZTT 231130Z 27019KT 9999 FEW017 08/03 Q1010 NOSIG",
      "taf": "TAF LZTT 231115Z 2312/2412 27008KT 9999 BKN020"
    },
    {
      "icao": "OEJN",
      "alert": "OK",
      "vis_m": 9999,
      "fzfg": false,
      "metar_trigger": false,
      "taf_trigger": false,
      "metar": "METAR OEJN 231100Z 28011KT 9999 FEW040 29/17 Q1009 NOSIG",
      "taf": "TAF OEJN 231100Z 2312/2418 31010KT 9999 FEW040"
    },
    {
      "icao": "OEMA",
      "alert": "OK",
      "vis_m": 9999,
      "fzfg": false,
      "metar_trigger": false,
      "taf_trigger": false,
      "metar": "METAR OEMA 231100Z 21007KT CAVOK 29/05 Q1010 NOSIG",
      "taf": "TAF OEMA 231100Z 2312/2418 24010KT CAVOK"
    },
    {
      "icao": "OJAI",
      "alert": "OK",
      "vis_m": 5000,
      "fzfg": false,
      "metar_trigger": false,
      "taf_trigger": false,
      "metar": "METAR OJAI 231100Z 22011KT 5000 HZ FEW035 16/03 Q1013 NOSIG",
      "taf": "TAF OJAI 231100Z 2312/2418 31012KT 5000 HZ SCT030"
    },
    {
      "icao": "OMAA",
      "alert": "OK",
      "vis_m": 9999,
      "fzfg": false,
      "metar_trigger": false,
      "taf_trigger": false,
      "metar": "METAR OMAA 231130Z 29011KT CAVOK 29/07 Q1009 NOSIG",
      "taf": "TAF OMAA 231100Z 2312/2418 33010KT 8000 NSC"
    },
    {
      "icao": "OMDB",
      "alert": "OK",
      "vis_m": 9999,
      "fzfg": false,
      "metar_trigger": false,
      "taf_trigger": false,
      "metar": "METAR OMDB 231130Z 32012KT CAVOK 28/13 Q1009 NOSIG",
      "taf": "TAF OMDB 231100Z 2312/2418 30010KT 8000 NSC"
    },
    {
      "icao": "UAAA",
      "alert": "OK",
      "vis_m": 5000,
      "fzfg": false,
      "metar_trigger": false,
      "taf_trigger": false,
      "metar": "METAR UAAA 231130Z 07002MPS 040V100 5000 -RA BR OVC032 03/01 Q1019 NOSIG",
      "taf": "TAF UAAA 231105Z 2312/2412 04002G07MPS 3100 -SHRA BR BKN011CB OVC020 TXM03/2409Z TNM06/2402Z"
    },
    {
      "icao": "UBBB",
      "alert": "OK",
      "vis_m": 9999,
      "fzfg": false,
      "metar_trigger": false,
      "taf_trigger": false,
      "metar": "METAR UBBB 231130Z 33018KT 9999 BKN013 OVC045 07/04 Q1015 NOSIG",
      "taf": "TAF UBBB 231055Z 2312/2412 32014KT 9999 BKN012 BKN030 TX07/2312Z TN05/2401Z"
    },
    {
      "icao": "UDSG",
      "alert": "OK",
      "vis_m": 9999,
      "fzfg": false,
      "metar_trigger": false,
      "taf_trigger": false,
      "metar": "METAR UDSG 231130Z 32008KT 9999 SCT043 07/M04 Q1013 NOSIG",
      "taf": "TAF UDSG 231058Z 2312/2412 VRB04KT 9999 SCT030"
    },
    {
      "icao": "UDYZ",
      "alert": "OK",
      "vis_m": 9999,
      "fzfg": false,
      "metar_trigger": false,
      "taf_trigger": false,
      "metar": "METAR UDYZ 231130Z 27006KT 230V300 9999 SCT043CB 14/M00 Q1010 NOSIG",
      "taf": "TAF UDYZ 231100Z 2312/2412 24006KT 9999 SCT040"
    },
    {
      "icao": "UGKO",
      "alert": "OK",
      "vis_m": 9999,
      "fzfg": false,
      "metar_trigger": false,
      "taf_trigger": false,
      "metar": "METAR UGKO 231130Z 28008KT 9999 SCT014 BKN028 OVC041 09/06 Q1018 NOSIG",
      "taf": "TAF UGKO 231100Z 2312/2412 26007KT 9000 SCT030 OVC045 TX13/2411Z TN04/2403Z"
    }
  ]
}