{
  "ts_utc": "2025-12-19T03:14:36Z",
  "threshold_m": 150,
  "source": "stations_override.txt (ICAO list) + aviationweather.gov (METAR/TAF raw)",
  "station_count": 114,
  "stations": [
    {
      "icao": "BIKF",
      "alert": "OK",
      "vis_m": 9999,
      "fzfg": false,
      "metar_trigger": false,
      "taf_trigger": false,
      "metar": "METAR BIKF 190300Z 03009KT CAVOK 02/M00 Q0978",
      "taf": "TAF BIKF 190130Z 1903/2003 04012KT 9999 SCT035 TX08/2002Z TN01/1907Z"
    },
    {
      "icao": "BKPR",
      "alert": "OK",
      "vis_m": 2500,
      "fzfg": true,
      "metar_trigger": false,
      "taf_trigger": false,
      "metar": "METAR BKPR 190300Z VRB01KT 2500 BR NSC M02/M02 Q1030 TEMPO 0600 FZFG BKN003",
      "taf": "TAF BKPR 182330Z 1900/1924 VRB03KT 6000 FEW015"
    },
    {
      "icao": "EBBR",
      "alert": "OK",
      "vis_m": 9999,
      "fzfg": false,
      "metar_trigger": false,
      "taf_trigger": false,
      "metar": "METAR EBBR 190250Z 20015KT 9999 -RA FEW017 SCT023 BKN026 11/09 Q1012 BECMG BKN012",
      "taf": "TAF EBBR 182310Z 1900/2006 21012KT 9999 BKN025"
    },
    {
      "icao": "EBCI",
      "alert": "OK",
      "vis_m": 9999,
      "fzfg": false,
      "metar_trigger": false,
      "taf_trigger": false,
      "metar": "METAR EBCI 190250Z 19014KT 9999 -RA BKN022 11/08 Q1013 NOSIG",
      "taf": "TAF EBCI 182310Z 1900/2006 20014KT 9999 BKN025"
    },
    {
      "icao": "EDDB",
      "alert": "OK",
      "vis_m": 9999,
      "fzfg": false,
      "metar_trigger": false,
      "taf_trigger": false,
      "metar": "METAR EDDB 190250Z AUTO 16008KT CAVOK 03/02 Q1018 NOSIG",
      "taf": "TAF EDDB 182300Z 1900/1924 17008KT CAVOK"
    },
    {
      "icao": "EDDH",
      "alert": "OK",
      "vis_m": 9999,
      "fzfg": false,
      "metar_trigger": false,
      "taf_trigger": false,
      "metar": "METAR EDDH 190250Z AUTO 17010KT 9999 SCT038 10/05 Q1012 NOSIG",
      "taf": "TAF EDDH 182300Z 1900/2006 16010KT CAVOK"
    },
    {
      "icao": "EDDK",
      "alert": "OK",
      "vis_m": 9999,
      "fzfg": false,
      "metar_trigger": false,
      "taf_trigger": false,
      "metar": "METAR EDDK 190250Z AUTO 15007KT CAVOK 11/06 Q1015 NOSIG",
      "taf": "TAF EDDK 182300Z 1900/2006 15010KT 9999 BKN030"
    },
    {
      "icao": "EDDN",
      "alert": "OK",
      "vis_m": 8000,
      "fzfg": false,
      "metar_trigger": false,
      "taf_trigger": false,
      "metar": "METAR EDDN 190250Z AUTO 12009KT 8000 NCD 00/M00 Q1021",
      "taf": "TAF EDDN 182300Z 1900/1924 12008KT CAVOK"
    },
    {
      "icao": "EDFH",
      "alert": "OK",
      "vis_m": 9999,
      "fzfg": false,
      "metar_trigger": false,
      "taf_trigger": false,
      "metar": "METAR EDFH 190250Z 20013KT CAVOK 09/05 Q1017",
      "taf": "TAF EDFH 182300Z 1900/1924 19012KT CAVOK"
    },
    {
      "icao": "EDJA",
      "alert": "OK",
      "vis_m": 9999,
      "fzfg": false,
      "metar_trigger": false,
      "taf_trigger": false,
      "metar": "METAR EDJA 190250Z AUTO 21005KT 9999 // SCT150/// 01/M01 Q1022",
      "taf": "TAF EDJA 190200Z 1903/1912 21004KT CAVOK"
    },
    {
      "icao": "EDLW",
      "alert": "OK",
      "vis_m": 9999,
      "fzfg": false,
      "metar_trigger": false,
      "taf_trigger": false,
      "metar": "METAR EDLW 190250Z AUTO 19017KT 9999 // FEW064/// SCT100/// OVC130/// 12/06 Q1013",
      "taf": "TAF EDLW 181700Z 1818/1918 18014KT CAVOK"
    },
    {
      "icao": "EDSB",
      "alert": "OK",
      "vis_m": 9999,
      "fzfg": false,
      "metar_trigger": false,
      "taf_trigger": false,
      "metar": "METAR EDSB 190250Z AUTO 20004KT 9999 // BKN130/// 02/01 Q1020",
      "taf": "TAF EDSB 182300Z 1900/1924 VRB03KT 8000 NSC"
    },
    {
      "icao": "EETN",
      "alert": "OK",
      "vis_m": 9999,
      "fzfg": false,
      "metar_trigger": false,
      "taf_trigger": false,
      "metar": "METAR EETN 190250Z 21012KT 9999 BKN009 OVC017 05/04 Q1016",
      "taf": "TAF EETN 182330Z 1900/1924 20012KT 9999 OVC007"
    },
    {
      "icao": "EFHK",
      "alert": "OK",
      "vis_m": 4000,
      "fzfg": false,
      "metar_trigger": false,
      "taf_trigger": false,
      "metar": "METAR EFHK 190250Z 21013KT 4000 -DZRA FEW004 BKN005 06/05 Q1014 BECMG BKN004 TEMPO 5000",
      "taf": "TAF EFHK 190228Z 1903/2003 21014KT 9999 FEW005 BKN007"
    },
    {
      "icao": "EFTU",
      "alert": "OK",
      "vis_m": 9999,
      "fzfg": false,
      "metar_trigger": false,
      "taf_trigger": false,
      "metar": "METAR EFTU 190250Z AUTO 23008KT 9999 FEW008 OVC022 06/05 Q1013",
      "taf": "TAF EFTU 190228Z 1903/2003 22007KT 9999 SCT007 OVC020"
    },
    {
      "icao": "EGGW",
      "alert": "OK",
      "vis_m": 9999,
      "fzfg": false,
      "metar_trigger": false,
      "taf_trigger": false,
      "metar": "METAR EGGW 190250Z AUTO 24009KT 9999 NCD 07/04 Q1009",
      "taf": "TAF EGGW 182255Z 1900/1924 22010KT 9999 FEW020"
    },
    {
      "icao": "EGKK",
      "alert": "OK",
      "vis_m": 9999,
      "fzfg": false,
      "metar_trigger": false,
      "taf_trigger": false,
      "metar": "METAR EGKK 190250Z 27006KT CAVOK 09/07 Q1010",
      "taf": "TAF EGKK 182258Z 1900/2006 24008KT CAVOK"
    },
    {
      "icao": "EHEH",
      "alert": "OK",
      "vis_m": 9999,
      "fzfg": false,
      "metar_trigger": false,
      "taf_trigger": false,
      "metar": "METAR EHEH 190255Z AUTO 18008KT 9999 DZ OVC022 11/09 Q1012 WHT",
      "taf": "TAF EHEH 182325Z 1900/2006 19013KT CAVOK"
    },
    {
      "icao": "EKBI",
      "alert": "OK",
      "vis_m": 9999,
      "fzfg": false,
      "metar_trigger": false,
      "taf_trigger": false,
      "metar": "METAR EKBI 190250Z AUTO 19013KT 9999 -RA OVC020/// 09/08 Q1007",
      "taf": "TAF EKBI 190227Z 1903/2003 18015KT 8000 BKN020"
    },
    {
      "icao": "EKCH",
      "alert": "OK",
      "vis_m": 9999,
      "fzfg": false,
      "metar_trigger": false,
      "taf_trigger": false,
      "metar": "METAR EKCH 190250Z AUTO 18015KT 9999 SCT076/// BKN240/// 07/06 Q1012 NOSIG",
      "taf": "TAF EKCH 190227Z 1903/2003 18012KT 9999 BKN020"
    },
    {
      "icao": "ENTO",
      "alert": "OK",
      "vis_m": 6000,
      "fzfg": false,
      "metar_trigger": false,
      "taf_trigger": false,
      "metar": "METAR ENTO 190250Z AUTO 17020KT 6000 RA VV003 07/07 Q1002",
      "taf": "TAF ENTO 182300Z 1900/1924 19012KT 9000 -RA SCT004 BKN007"
    },
    {
      "icao": "EPGD",
      "alert": "OK",
      "vis_m": 7000,
      "fzfg": false,
      "metar_trigger": false,
      "taf_trigger": false,
      "metar": "METAR EPGD 190300Z 19007KT 7000 NSC 03/03 Q1020",
      "taf": "TAF EPGD 182330Z 1900/1924 20006KT 6000 OVC005"
    },
    {
      "icao": "EPKK",
      "alert": "OK",
      "vis_m": 2500,
      "fzfg": false,
      "metar_trigger": false,
      "taf_trigger": false,
      "metar": "METAR EPKK 190300Z VRB01KT 2500 BR NSC M02/M03 Q1025",
      "taf": "TAF EPKK 190230Z 1903/2003 VRB02KT 1500 BR NSC"
    },
    {
      "icao": "EPKT",
      "alert": "OK",
      "vis_m": 1300,
      "fzfg": false,
      "metar_trigger": false,
      "taf_trigger": false,
      "metar": "METAR EPKT 190300Z 23002KT 1300 R26/P2000N BR NSC 00/00 Q1025",
      "taf": "TAF EPKT 182330Z 1900/1924 14004KT 1500 BR NSC"
    },
    {
      "icao": "EPWA",
      "alert": "OK",
      "vis_m": 1400,
      "fzfg": false,
      "metar_trigger": false,
      "taf_trigger": false,
      "metar": "METAR EPWA 190300Z 14008KT 1400 1100W R33/1400D BR OVC002 02/02 Q1025 NOSIG",
      "taf": "TAF EPWA 190230Z 1903/2003 14007KT 1500 BR OVC002"
    },
    {
      "icao": "EPWR",
      "alert": "OK",
      "vis_m": 4200,
      "fzfg": false,
      "metar_trigger": false,
      "taf_trigger": false,
      "metar": "METAR EPWR 190300Z 09003KT 080V160 4200 0900E BCFG BR NSC 00/M00 Q1023",
      "taf": "TAF EPWR 190230Z 1903/2003 11006KT 4000 BR NSC"
    },
    {
      "icao": "ESGG",
      "alert": "OK",
      "vis_m": 9000,
      "fzfg": false,
      "metar_trigger": false,
      "taf_trigger": false,
      "metar": "METAR ESGG 190250Z 18017KT 9000 -RA BKN007 OVC011 07/06 Q1007 REDZ",
      "taf": "TAF ESGG 190230Z 1903/2003 19014G24KT 6000 -RA OVC010"
    },
    {
      "icao": "ESKN",
      "alert": "OK",
      "vis_m": 9999,
      "fzfg": false,
      "metar_trigger": false,
      "taf_trigger": false,
      "metar": "METAR ESKN 190250Z 15008KT 9999 DZ BKN007 06/05 Q1011",
      "taf": "TAF ESKN 190230Z 1903/2003 17008KT 9999 SCT007"
    },
    {
      "icao": "ESMX",
      "alert": "OK",
      "vis_m": 7000,
      "fzfg": false,
      "metar_trigger": false,
      "taf_trigger": false,
      "metar": "METAR ESMX 190250Z AUTO 17010KT 130V190 7000 OVC004/// 07/07 Q1011",
      "taf": ""
    },
    {
      "icao": "EVRA",
      "alert": "OK",
      "vis_m": 2100,
      "fzfg": false,
      "metar_trigger": false,
      "taf_trigger": false,
      "metar": "METAR EVRA 190250Z 18011KT 2100 BR OVC002 02/02 Q1021 NOSIG",
      "taf": ""
    },
    {
      "icao": "EYKA",
      "alert": "OK",
      "vis_m": 3700,
      "fzfg": false,
      "metar_trigger": false,
      "taf_trigger": false,
      "metar": "METAR EYKA 190250Z 18006KT 130V200 3700 BR OVC002 00/00 Q1024",
      "taf": ""
    },
    {
      "icao": "EYVI",
      "alert": "OK",
      "vis_m": 200,
      "fzfg": true,
      "metar_trigger": false,
      "taf_trigger": false,
      "metar": "METAR EYVI 190250Z 18009KT 0200 R19/0700N -FZDZ FZFG VV001 M01/M02 Q1025 NOSIG",
      "taf": "TAF EYVI 182300Z 1900/1924 19009KT 0350 FZFG VV001"
    },
    {
      "icao": "GCLP",
      "alert": "OK",
      "vis_m": 9999,
      "fzfg": false,
      "metar_trigger": false,
      "taf_trigger": false,
      "metar": "METAR GCLP 190300Z 02011KT 9999 BKN030 17/15 Q1022 NOSIG",
      "taf": "TAF GCLP 190200Z 1903/2003 34008KT 9999 BKN020 TX21/1914Z TN17/1906Z"
    },
    {
      "icao": "GCTS",
      "alert": "OK",
      "vis_m": 9999,
      "fzfg": false,
      "metar_trigger": false,
      "taf_trigger": false,
      "metar": "METAR GCTS 190300Z 06008KT 9999 BKN030 18/14 Q1022 NOSIG",
      "taf": "TAF GCTS 190200Z 1903/2003 30005KT 9999 BKN030 TX23/1914Z TN16/1906Z"
    },
    {
      "icao": "HECA",
      "alert": "OK",
      "vis_m": 9999,
      "fzfg": false,
      "metar_trigger": false,
      "taf_trigger": false,
      "metar": "METAR HECA 190300Z 07007KT CAVOK 10/04 Q1026 NOSIG",
      "taf": "TAF HECA 182300Z 1900/2006 07007KT CAVOK"
    },
    {
      "icao": "HEGN",
      "alert": "OK",
      "vis_m": 9999,
      "fzfg": false,
      "metar_trigger": false,
      "taf_trigger": false,
      "metar": "METAR HEGN 190200Z 29012KT CAVOK 14/03 Q1025 NOSIG",
      "taf": "TAF HEGN 182300Z 1900/2006 28008KT CAVOK"
    },
    {
      "icao": "HESH",
      "alert": "OK",
      "vis_m": 9999,
      "fzfg": false,
      "metar_trigger": false,
      "taf_trigger": false,
      "metar": "METAR HESH 190200Z 35007KT CAVOK 15/01 Q1026 NOSIG",
      "taf": "TAF HESH 182300Z 1900/2006 33010KT CAVOK"
    },
    {
      "icao": "HESX",
      "alert": "OK",
      "vis_m": 4000,
      "fzfg": false,
      "metar_trigger": false,
      "taf_trigger": false,
      "metar": "METAR HESX 190200Z 05004KT 4000 BR NSC 09/07 Q1026 NOSIG",
      "taf": "TAF HESX 182300Z 1900/2006 05006KT CAVOK"
    },
    {
      "icao": "LATI",
      "alert": "OK",
      "vis_m": 4300,
      "fzfg": false,
      "metar_trigger": false,
      "taf_trigger": false,
      "metar": "METAR LATI 190250Z 08003KT 4300 0650S R17/P2000N R35/0800U BCFG NSC 06/04 Q1028 TEMPO 2000 BCFG",
      "taf": "TAF LATI 182300Z 1900/1924 VRB05KT 2000 BCFG NSC TX17/1912Z TN04/1905Z"
    },
    {
      "icao": "LBSF",
      "alert": "OK",
      "vis_m": 5000,
      "fzfg": true,
      "metar_trigger": false,
      "taf_trigger": false,
      "metar": "METAR LBSF 190300Z AUTO 00000KT 5000 BR NCD M03/M04 Q1030 TEMPO 0300 FZFG",
      "taf": "TAF LBSF 182300Z 1900/1924 VRB03KT 1500 BR NSC"
    },
    {
      "icao": "LBWN",
      "alert": "OK",
      "vis_m": 9999,
      "fzfg": false,
      "metar_trigger": false,
      "taf_trigger": false,
      "metar": "METAR LBWN 190300Z AUTO 26005KT 9999 NCD 05/02 Q1027 NOSIG",
      "taf": "TAF LBWN 182300Z 1900/1924 VRB04KT CAVOK"
    },
    {
      "icao": "LCLK",
      "alert": "OK",
      "vis_m": 9999,
      "fzfg": false,
      "metar_trigger": false,
      "taf_trigger": false,
      "metar": "METAR LCLK 190300Z 32005KT 9999 FEW025 SCT040 13/10 Q1025 NOSIG",
      "taf": "TAF LCLK 182330Z 1900/2000 31007KT CAVOK"
    },
    {
      "icao": "LDDU",
      "alert": "OK",
      "vis_m": 9999,
      "fzfg": false,
      "metar_trigger": false,
      "taf_trigger": false,
      "metar": "METAR LDDU 190300Z 07004KT 040V110 9999 FEW035 12/08 Q1028 NOSIG",
      "taf": "TAF LDDU 182325Z 1900/1924 08005KT 9999 SCT030 TX16/1911Z TN11/1905Z"
    },
    {
      "icao": "LDSP",
      "alert": "OK",
      "vis_m": 9999,
      "fzfg": false,
      "metar_trigger": false,
      "taf_trigger": false,
      "metar": "METAR LDSP 190300Z AUTO 00000KT 9999 FEW017/// SCT027/// BKN031/// 11/10 Q1028 NOSIG",
      "taf": "TAF LDSP 182325Z 1900/1924 VRB02KT 9999 SCT025 TX16/1912Z TN10/1905Z"
    },
    {
      "icao": "LDZA",
      "alert": "OK",
      "vis_m": 300,
      "fzfg": false,
      "metar_trigger": false,
      "taf_trigger": false,
      "metar": "METAR LDZA 190300Z VRB02KT 0300 R04/0500N R22/0300N FG BKN040 M00/M01 Q1026 NOSIG",
      "taf": "TAF LDZA 182325Z 1900/1924 VRB02KT 0200 FG VV001 TX08/1914Z TNM01/1900Z"
    },
    {
      "icao": "LEAL",
      "alert": "OK",
      "vis_m": 9999,
      "fzfg": false,
      "metar_trigger": false,
      "taf_trigger": false,
      "metar": "METAR LEAL 190300Z 22004KT CAVOK 10/10 Q1021 NOSIG",
      "taf": "TAF LEAL 182300Z 1900/1924 32006KT 9999 SCT020 TX17/1912Z TN08/1906Z"
    },
    {
      "icao": "LEBL",
      "alert": "OK",
      "vis_m": 9999,
      "fzfg": false,
      "metar_trigger": false,
      "taf_trigger": false,
      "metar": "METAR LEBL 190300Z 33009KT 9999 FEW020 09/08 Q1022 NOSIG",
      "taf": "TAF LEBL 182300Z 1900/1924 34009KT 9999 FEW020 TX16/1912Z TN07/1906Z"
    },
    {
      "icao": "LECH",
      "alert": "OK",
      "vis_m": 50,
      "fzfg": false,
      "metar_trigger": false,
      "taf_trigger": false,
      "metar": "METAR LECH 190300Z AUTO VRB02KT 0050 R06/0075N FG VV001 06/06 Q1021",
      "taf": ""
    },
    {
      "icao": "LEMD",
      "alert": "OK",
      "vis_m": 9999,
      "fzfg": false,
      "metar_trigger": false,
      "taf_trigger": false,
      "metar": "METAR LEMD 190300Z 13002KT 9999 FEW040 07/07 Q1021 NOSIG",
      "taf": "TAF LEMD 182300Z 1900/2006 VRB04KT 9999 FEW025 TX11/1915Z TN06/1907Z"
    },
    {
      "icao": "LEMG",
      "alert": "OK",
      "vis_m": 9999,
      "fzfg": false,
      "metar_trigger": false,
      "taf_trigger": false,
      "metar": "METAR LEMG 190300Z 29007KT CAVOK 10/08 Q1021 NOSIG",
      "taf": "TAF LEMG 182300Z 1900/1924 29010KT 9999 FEW030 TX17/1914Z TN09/1906Z"
    },
    {
      "icao": "LERS",
      "alert": "OK",
      "vis_m": 9999,
      "fzfg": false,
      "metar_trigger": false,
      "taf_trigger": false,
      "metar": "METAR LERS 190300Z AUTO 35003KT 9999 OVC015 09/08 Q1022",
      "taf": "TAF LERS 190200Z 1903/2003 01006KT 9999 FEW020 TX18/1912Z TN06/1906Z"
    },
    {
      "icao": "LEVC",
      "alert": "OK",
      "vis_m": 9999,
      "fzfg": false,
      "metar_trigger": false,
      "taf_trigger": false,
      "metar": "METAR LEVC 190300Z VRB01KT CAVOK 07/06 Q1022 NOSIG",
      "taf": "TAF LEVC 182300Z 1900/1924 28004KT 9999 SCT020 TX16/1912Z TN06/1906Z"
    },
    {
      "icao": "LFLL",
      "alert": "OK",
      "vis_m": 9999,
      "fzfg": false,
      "metar_trigger": false,
      "taf_trigger": false,
      "metar": "METAR LFLL 190300Z 14004KT 9999 FEW049 BKN140 11/06 Q1021 NOSIG",
      "taf": "TAF LFLL 182300Z 1900/2006 15008KT 9999 FEW050"
    },
    {
      "icao": "LFMN",
      "alert": "OK",
      "vis_m": 9999,
      "fzfg": false,
      "metar_trigger": false,
      "taf_trigger": false,
      "metar": "METAR LFMN 190300Z 34010KT 9999 OVC062 11/06 Q1025 NOSIG",
      "taf": "TAF LFMN 190200Z 1903/2009 34010KT 9999 BKN050"
    },
    {
      "icao": "LFOB",
      "alert": "OK",
      "vis_m": 9999,
      "fzfg": false,
      "metar_trigger": false,
      "taf_trigger": false,
      "metar": "METAR LFOB 190300Z AUTO 20012KT 9999 -RA BKN015 BKN033 BKN042 12/11 Q1012 TEMPO 4000 -RA BKN008 OVC014 BECMG 18015G25KT",
      "taf": "TAF LFOB 182300Z 1900/1924 18015G25KT 9999 BKN020 OVC040"
    },
    {
      "icao": "LFPO",
      "alert": "OK",
      "vis_m": 9999,
      "fzfg": false,
      "metar_trigger": false,
      "taf_trigger": false,
      "metar": "METAR LFPO 190300Z 20011KT 9999 -RA SCT014 BKN021 12/10 Q1014 TEMPO BKN014",
      "taf": "TAF LFPO 182300Z 1900/2006 20010KT 9999 -RA BKN040"
    },
    {
      "icao": "LFSB",
      "alert": "OK",
      "vis_m": 9999,
      "fzfg": false,
      "metar_trigger": false,
      "taf_trigger": false,
      "metar": "METAR LFSB 190300Z AUTO 18006KT CAVOK 04/02 Q1021 NOSIG",
      "taf": "TAF LFSB 182300Z 1900/1924 17005KT CAVOK"
    },
    {
      "icao": "LGAV",
      "alert": "OK",
      "vis_m": 9999,
      "fzfg": false,
      "metar_trigger": false,
      "taf_trigger": false,
      "metar": "METAR LGAV 190250Z VRB01KT 9999 FEW018 03/02 Q1029 NOSIG",
      "taf": "TAF LGAV 182300Z 1900/1924 VRB05KT 9999 FEW018"
    },
    {
      "icao": "LGIR",
      "alert": "OK",
      "vis_m": 9999,
      "fzfg": false,
      "metar_trigger": false,
      "taf_trigger": false,
      "metar": "METAR LGIR 190250Z 17008KT 9999 FEW018 10/09 Q1028 NOSIG",
      "taf": "TAF LGIR 182300Z 1900/1924 VRB03KT 9999 SCT020"
    },
    {
      "icao": "LGKR",
      "alert": "OK",
      "vis_m": 2000,
      "fzfg": false,
      "metar_trigger": false,
      "taf_trigger": false,
      "metar": "METAR LGKR 190250Z 00000KT 2000 BR BKN004 BKN020 11/10 Q1027 NOSIG",
      "taf": ""
    },
    {
      "icao": "LGRP",
      "alert": "OK",
      "vis_m": 9999,
      "fzfg": false,
      "metar_trigger": false,
      "taf_trigger": false,
      "metar": "METAR LGRP 190250Z 23006KT 9999 FEW020 15/11 Q1025 NOSIG",
      "taf": "TAF LGRP 182300Z 1900/1924 25010KT 9999 FEW018"
    },
    {
      "icao": "LGTS",
      "alert": "OK",
      "vis_m": 8000,
      "fzfg": false,
      "metar_trigger": false,
      "taf_trigger": false,
      "metar": "METAR LGTS 190250Z 11005KT 8000 FEW006 02/02 Q1029 NOSIG",
      "taf": "TAF LGTS 182300Z 1900/1924 VRB03KT 9999 FEW025"
    },
    {
      "icao": "LGZA",
      "alert": "OK",
      "vis_m": null,
      "fzfg": false,
      "metar_trigger": false,
      "taf_trigger": false,
      "metar": "",
      "taf": "TAF LGZA 190200Z 1903/1912 VRB03KT 9999 SCT020"
    },
    {
      "icao": "LHBP",
      "alert": "OK",
      "vis_m": 4500,
      "fzfg": false,
      "metar_trigger": false,
      "taf_trigger": false,
      "metar": "METAR LHBP 190300Z 10007KT 4500 BR BKN006 OVC040 05/04 Q1028 NOSIG",
      "taf": "TAF LHBP 182315Z 1900/1924 09006KT 5000 BR SCT006 OVC020"
    },
    {
      "icao": "LHDC",
      "alert": "OK",
      "vis_m": 3800,
      "fzfg": false,
      "metar_trigger": false,
      "taf_trigger": false,
      "metar": "METAR LHDC 190245Z AUTO 05003KT 3800 BR BKN034 04/03 Q1029",
      "taf": ""
    },
    {
      "icao": "LIBD",
      "alert": "OK",
      "vis_m": 600,
      "fzfg": false,
      "metar_trigger": false,
      "taf_trigger": false,
      "metar": "METAR LIBD 190250Z 22004KT 0600 R07/P2000N FG VV003 11/11 Q1028",
      "taf": "TAF LIBD 182300Z 1900/1924 VRB04KT 0100 FG OVC001"
    },
    {
      "icao": "LICC",
      "alert": "OK",
      "vis_m": 4000,
      "fzfg": false,
      "metar_trigger": false,
      "taf_trigger": false,
      "metar": "METAR LICC 190250Z 26003KT 210V280 4000 BR SCT050 12/11 Q1027",
      "taf": ""
    },
    {
      "icao": "LICJ",
      "alert": "OK",
      "vis_m": 9999,
      "fzfg": false,
      "metar_trigger": false,
      "taf_trigger": false,
      "metar": "METAR LICJ 190250Z 18003KT CAVOK 13/12 Q1026",
      "taf": "TAF LICJ 182300Z 1900/1924 18005KT 9999 FEW020"
    },
    {
      "icao": "LIEO",
      "alert": "OK",
      "vis_m": 9999,
      "fzfg": false,
      "metar_trigger": false,
      "taf_trigger": false,
      "metar": "METAR LIEO 190250Z AUTO 21003KT 9999 BKN150/// 11/11 Q1025",
      "taf": "TAF LIEO 182300Z 1900/1924 VRB06KT 7000 SCT010 SCT040"
    },
    {
      "icao": "LIMC",
      "alert": "OK",
      "vis_m": 1500,
      "fzfg": false,
      "metar_trigger": false,
      "taf_trigger": false,
      "metar": "METAR LIMC 190250Z 02003KT 1500 R35R/1500D R17L/1000N R35L/1300D BR BKN060 08/08 Q1028 BECMG 0800 FG",
      "taf": "TAF LIMC 182300Z 1900/2006 VRB03KT 2000 BR BKN030"
    },
    {
      "icao": "LIME",
      "alert": "OK",
      "vis_m": 1500,
      "fzfg": false,
      "metar_trigger": false,
      "taf_trigger": false,
      "metar": "METAR LIME 190250Z 13002KT 1500 BR BKN002 09/09 Q1028 NOSIG",
      "taf": "TAF LIME 182300Z 1900/1924 VRB03KT 3000 BR BKN006"
    },
    {
      "icao": "LIPH",
      "alert": "OK",
      "vis_m": 300,
      "fzfg": false,
      "metar_trigger": false,
      "taf_trigger": false,
      "metar": "METAR LIPH 190250Z AUTO VRB01KT 0300 0250E R07/0900N FG OVC002/// 08/08 Q1028",
      "taf": "TAF LIPH 182300Z 1900/1924 VRB04KT 0100 FG OVC001"
    },
    {
      "icao": "LIPQ",
      "alert": "OK",
      "vis_m": 450,
      "fzfg": false,
      "metar_trigger": false,
      "taf_trigger": false,
      "metar": "METAR LIPQ 190250Z AUTO 02003KT 0450 R09/1100U FG BKN003/// OVC037/// 08/08 Q1028",
      "taf": "TAF LIPQ 182300Z 1900/1924 VRB04KT 0500 FG OVC002"
    },
    {
      "icao": "LIPX",
      "alert": "OK",
      "vis_m": 500,
      "fzfg": false,
      "metar_trigger": false,
      "taf_trigger": false,
      "metar": "METAR LIPX 190220Z 21003KT 0500 R04/0650N FG NSC 09/09 Q1028",
      "taf": "TAF LIPX 182300Z 1900/1924 VRB03KT 1000 BR OVC002"
    },
    {
      "icao": "LIPY",
      "alert": "OK",
      "vis_m": 6000,
      "fzfg": false,
      "metar_trigger": false,
      "taf_trigger": false,
      "metar": "METAR LIPY 190250Z AUTO 31002KT 6000 OVC004/// 10/10 Q1028",
      "taf": "TAF LIPY 182300Z 1900/1924 VRB05KT 3000 BR OVC004"
    },
    {
      "icao": "LIPZ",
      "alert": "OK",
      "vis_m": 600,
      "fzfg": false,
      "metar_trigger": false,
      "taf_trigger": false,
      "metar": "METAR LIPZ 190250Z VRB01KT 0600 R04R/P2000N FG BKN018 09/09 Q1028 NOSIG",
      "taf": "TAF LIPZ 182300Z 1900/2006 VRB04KT 0200 FG OVC001"
    },
    {
      "icao": "LIRA",
      "alert": "OK",
      "vis_m": 9999,
      "fzfg": false,
      "metar_trigger": false,
      "taf_trigger": false,
      "metar": "METAR LIRA 190150Z VRB02KT 9999 SCT080 11/10 Q1027",
      "taf": "TAF LIRA 182300Z 1900/1924 VRB06KT 9999 FEW030"
    },
    {
      "icao": "LIRN",
      "alert": "OK",
      "vis_m": 9999,
      "fzfg": false,
      "metar_trigger": false,
      "taf_trigger": false,
      "metar": "METAR LIRN 190250Z 32003KT CAVOK 07/05 Q1027 NOSIG",
      "taf": "TAF LIRN 182300Z 1900/1924 VRB05KT 9999 SCT030"
    },
    {
      "icao": "LLBG",
      "alert": "OK",
      "vis_m": 9999,
      "fzfg": false,
      "metar_trigger": false,
      "taf_trigger": false,
      "metar": "METAR LLBG 190250Z 13004KT CAVOK 11/08 Q1026 NOSIG",
      "taf": "TAF LLBG 182309Z 1900/1924 VRB03KT 9999 SCT045"
    },
    {
      "icao": "LMML",
      "alert": "OK",
      "vis_m": 9999,
      "fzfg": false,
      "metar_trigger": false,
      "taf_trigger": false,
      "metar": "METAR LMML 190245Z AUTO 08007KT CAVOK 16/14 Q1024 NOSIG",
      "taf": "TAF LMML 182300Z 1900/1924 11012KT 9999 FEW015"
    },
    {
      "icao": "LOWW",
      "alert": "OK",
      "vis_m": 7000,
      "fzfg": false,
      "metar_trigger": false,
      "taf_trigger": false,
      "metar": "METAR LOWW 190250Z 14008KT 7000 FEW002 BKN003 03/03 Q1025 NOSIG",
      "taf": ""
    },
    {
      "icao": "LPFR",
      "alert": "OK",
      "vis_m": 9999,
      "fzfg": false,
      "metar_trigger": false,
      "taf_trigger": false,
      "metar": "METAR LPFR 190300Z 18008KT 9999 FEW022 16/12 Q1019",
      "taf": "TAF LPFR 182300Z 1900/1924 19007KT 9999 SCT018 SCT035"
    },
    {
      "icao": "LPPR",
      "alert": "OK",
      "vis_m": 9999,
      "fzfg": false,
      "metar_trigger": false,
      "taf_trigger": false,
      "metar": "METAR LPPR 190300Z 35004KT 9999 -RA BKN040 11/11 Q1020",
      "taf": "TAF LPPR 182300Z 1900/1924 VRB02KT 8000 -RA SCT004 BKN025"
    },
    {
      "icao": "LPPT",
      "alert": "OK",
      "vis_m": 9999,
      "fzfg": false,
      "metar_trigger": false,
      "taf_trigger": false,
      "metar": "METAR LPPT 190300Z 35008KT 9999 -RA NSC 12/11 Q1018",
      "taf": "TAF LPPT 182300Z 1900/2006 18012KT 6000 -RA SCT006 BKN015"
    },
    {
      "icao": "LQSA",
      "alert": "OK",
      "vis_m": 300,
      "fzfg": true,
      "metar_trigger": false,
      "taf_trigger": false,
      "metar": "METAR LQSA 190300Z VRB01KT 0300 R11/0300N FZFG VV002 M01/M01 Q1029",
      "taf": "TAF LQSA 182300Z 1900/1924 VRB02KT 0400 FZFG OVC003 TX10/1913Z TNM02/1905Z"
    },
    {
      "icao": "LQTZ",
      "alert": "OK",
      "vis_m": 400,
      "fzfg": true,
      "metar_trigger": false,
      "taf_trigger": false,
      "metar": "METAR LQTZ 190300Z 34002KT 0400 R09/0450N FZFG BKN001 OVC005 M01/M01 Q1028",
      "taf": "TAF LQTZ 182300Z 1900/1924 VRB02KT 3000 BR NSC TX12/1913Z TNM00/1906Z"
    },
    {
      "icao": "LRCL",
      "alert": "OK",
      "vis_m": 5000,
      "fzfg": false,
      "metar_trigger": false,
      "taf_trigger": false,
      "metar": "METAR LRCL 190300Z VRB01KT 5000 BR OVC039 03/02 Q1030",
      "taf": "TAF LRCL 190200Z 1903/1912 VRB04KT 5000 BR OVC035"
    },
    {
      "icao": "LRCV",
      "alert": "OK",
      "vis_m": 4500,
      "fzfg": false,
      "metar_trigger": false,
      "taf_trigger": false,
      "metar": "METAR LRCV 190300Z 03005KT 4500 BR NSC 02/01 Q1028",
      "taf": "TAF LRCV 190200Z 1903/1912 VRB04KT 3000 BR NSC"
    },
    {
      "icao": "LRIA",
      "alert": "OK",
      "vis_m": 2000,
      "fzfg": false,
      "metar_trigger": false,
      "taf_trigger": false,
      "metar": "METAR LRIA 190300Z 27003KT 2000 BR NSC 02/02 Q1028",
      "taf": "TAF LRIA 190200Z 1903/1912 VRB04KT 3000 BR NSC"
    },
    {
      "icao": "LROP",
      "alert": "OK",
      "vis_m": 1300,
      "fzfg": false,
      "metar_trigger": false,
      "taf_trigger": false,
      "metar": "METAR LROP 190300Z 26003KT 1300 R08R/1900U R08L/0550N PRFG BR BKN001 M01/M01 Q1028 NOSIG",
      "taf": "TAF LROP 182300Z 1900/1924 VRB04KT 3000 BR NSC"
    },
    {
      "icao": "LRSB",
      "alert": "OK",
      "vis_m": 6000,
      "fzfg": false,
      "metar_trigger": false,
      "taf_trigger": false,
      "metar": "METAR LRSB 190300Z 21003KT 6000 FEW034 BKN058 02/02 Q1029",
      "taf": "TAF LRSB 182300Z 1900/1924 VRB04KT 5000 BR NSC"
    },
    {
      "icao": "LRTR",
      "alert": "OK",
      "vis_m": 9999,
      "fzfg": false,
      "metar_trigger": false,
      "taf_trigger": false,
      "metar": "METAR LRTR 190300Z 10008KT CAVOK 05/04 Q1028 NOSIG",
      "taf": "TAF LRTR 182300Z 1900/1924 11006KT CAVOK"
    },
    {
      "icao": "LTAF",
      "alert": "OK",
      "vis_m": 9999,
      "fzfg": false,
      "metar_trigger": false,
      "taf_trigger": false,
      "metar": "METAR LTAF 190250Z 05006KT CAVOK 06/03 Q1025 TEMPO 4000 BR RMK RWY23 05006KT SKC",
      "taf": "TAF LTAF 182240Z 1900/1924 VRB02KT CAVOK"
    },
    {
      "icao": "LTAI",
      "alert": "OK",
      "vis_m": 9999,
      "fzfg": false,
      "metar_trigger": false,
      "taf_trigger": false,
      "metar": "METAR LTAI 190250Z 33004KT CAVOK 06/M02 Q1025 NOSIG RMK RWY18C 35003KT RWY36R 33004KT 270V340 RWY18L 33004KT",
      "taf": "TAF LTAI 182240Z 1900/1924 34006KT CAVOK"
    },
    {
      "icao": "LTFM",
      "alert": "OK",
      "vis_m": 6000,
      "fzfg": false,
      "metar_trigger": false,
      "taf_trigger": false,
      "metar": "METAR LTFM 190250Z 18006KT 6000 NSC 05/05 Q1028 NOSIG RMK RWY17L 20002KT RWY34L 21004KT 170V260 RWY16R 00000KT RWY36 19005KT RWY18 21008KT",
      "taf": "TAF LTFM 182240Z 1900/2006 23005KT 6000 NSC"
    },
    {
      "icao": "LUBL",
      "alert": "OK",
      "vis_m": null,
      "fzfg": false,
      "metar_trigger": false,
      "taf_trigger": false,
      "metar": "",
      "taf": ""
    },
    {
      "icao": "LUKK",
      "alert": "OK",
      "vis_m": 9999,
      "fzfg": false,
      "metar_trigger": false,
      "taf_trigger": false,
      "metar": "METAR LUKK 190300Z VRB01KT CAVOK 04/02 Q1028 TEMPO 3000 BR",
      "taf": "TAF LUKK 182313Z 1900/1924 VRB05KT 5000 BR NSC"
    },
    {
      "icao": "LWSK",
      "alert": "OK",
      "vis_m": 2500,
      "fzfg": false,
      "metar_trigger": false,
      "taf_trigger": false,
      "metar": "METAR LWSK 190250Z VRB01KT 2500 BR NSC M03/M04 Q1031 NOSIG",
      "taf": "TAF LWSK 190210Z 1903/2003 VRB02KT 3000 BR NSC"
    },
    {
      "icao": "LYBE",
      "alert": "OK",
      "vis_m": 1500,
      "fzfg": false,
      "metar_trigger": false,
      "taf_trigger": false,
      "metar": "METAR LYBE 190300Z 12003KT 1500 0500E R12L/1500U R30R/0325N BCFG BR NSC 03/03 Q1028 TEMPO 0500 FG",
      "taf": ""
    },
    {
      "icao": "LZIB",
      "alert": "OK",
      "vis_m": 1200,
      "fzfg": false,
      "metar_trigger": false,
      "taf_trigger": false,
      "metar": "METAR LZIB 190300Z 09005KT 1200 R31/P2000N R22/P2000N -DZ BR OVC002 05/05 Q1026 NOSIG",
      "taf": ""
    },
    {
      "icao": "LZKZ",
      "alert": "OK",
      "vis_m": 3100,
      "fzfg": false,
      "metar_trigger": false,
      "taf_trigger": false,
      "metar": "METAR LZKZ 190300Z VRB02KT 3100 BR OVC006 04/03 Q1029 TEMPO OVC004",
      "taf": "TAF LZKZ 182315Z 1900/2000 VRB02KT 4000 BR OVC011"
    },
    {
      "icao": "LZTT",
      "alert": "OK",
      "vis_m": 200,
      "fzfg": true,
      "metar_trigger": false,
      "taf_trigger": false,
      "metar": "METAR LZTT 190300Z VRB01KT 0200 R27/0550N FZFG OVC002 M01/M02 Q1026",
      "taf": "TAF LZTT 182315Z 1900/2000 VRB02KT 1200 BR BCFG BKN003"
    },
    {
      "icao": "OEJN",
      "alert": "OK",
      "vis_m": 9999,
      "fzfg": false,
      "metar_trigger": false,
      "taf_trigger": false,
      "metar": "METAR OEJN 190300Z 04012KT CAVOK 17/00 Q1018 NOSIG",
      "taf": "TAF OEJN 182300Z 1900/2006 06015KT 7000 NSC"
    },
    {
      "icao": "OEMA",
      "alert": "OK",
      "vis_m": 9999,
      "fzfg": false,
      "metar_trigger": false,
      "taf_trigger": false,
      "metar": "METAR OEMA 190300Z VRB02KT CAVOK 08/02 Q1025 NOSIG",
      "taf": "TAF OEMA 182300Z 1900/2006 08006KT CAVOK"
    },
    {
      "icao": "OERK",
      "alert": "OK",
      "vis_m": 9999,
      "fzfg": false,
      "metar_trigger": false,
      "taf_trigger": false,
      "metar": "METAR OERK 190300Z 27008KT CAVOK 07/03 Q1019 NOSIG",
      "taf": "TAF OERK 182300Z 1900/2006 32010KT 8000 SCT030"
    },
    {
      "icao": "OJAI",
      "alert": "OK",
      "vis_m": 150,
      "fzfg": false,
      "metar_trigger": false,
      "taf_trigger": false,
      "metar": "METAR OJAI 190300Z 04001KT 0150 FG NSC 02/02 Q1026 NOSIG",
      "taf": ""
    },
    {
      "icao": "OKBK",
      "alert": "OK",
      "vis_m": null,
      "fzfg": false,
      "metar_trigger": false,
      "taf_trigger": false,
      "metar": "",
      "taf": ""
    },
    {
      "icao": "OMAA",
      "alert": "OK",
      "vis_m": 8000,
      "fzfg": false,
      "metar_trigger": false,
      "taf_trigger": false,
      "metar": "METAR OMAA 190300Z 25008KT 230V300 8000 -RA FEW020 SCT035 19/15 Q1014 RETSRA WS ALL RWY TEMPO 4000 SHRA FEW035TCU",
      "taf": "TAF OMAA 182300Z 1900/2006 21008KT 7000 FEW030"
    },
    {
      "icao": "UAAA",
      "alert": "OK",
      "vis_m": 2200,
      "fzfg": false,
      "metar_trigger": false,
      "taf_trigger": false,
      "metar": "METAR UAAA 190300Z 04001MPS 2200 -SN BR OVC036 M03/M04 Q1033 NOSIG",
      "taf": "TAF UAAA 182301Z 1900/1924 34002MPS 3100 -SN BR SCT011 OVC030 TXM03/1908Z TNM04/1902Z"
    },
    {
      "icao": "UCFM",
      "alert": "CRITICAL",
      "vis_m": 100,
      "fzfg": true,
      "metar_trigger": true,
      "taf_trigger": false,
      "metar": "METAR UCFM 190300Z 05002MPS 0100 0050S R07/0150N FZFG FEW005 M04/M05 Q1032 NOSIG",
      "taf": ""
    },
    {
      "icao": "UDYZ",
      "alert": "OK",
      "vis_m": 4600,
      "fzfg": false,
      "metar_trigger": false,
      "taf_trigger": false,
      "metar": "METAR UDYZ 190300Z 26002KT 4600 BR NSC M06/M09 Q1030 NOSIG",
      "taf": "TAF UDYZ 182300Z 1900/1924 VRB04KT 3500 BR NSC"
    },
    {
      "icao": "UGTB",
      "alert": "OK",
      "vis_m": 9999,
      "fzfg": false,
      "metar_trigger": false,
      "taf_trigger": false,
      "metar": "METAR UGTB 190300Z 29005KT 260V320 CAVOK M01/M02 Q1029 NOSIG",
      "taf": "TAF UGTB 182300Z 1900/1924 30010KT 8000 NSC TX09/1911Z TN00/1903Z"
    },
    {
      "icao": "UKKK",
      "alert": "OK",
      "vis_m": null,
      "fzfg": false,
      "metar_trigger": false,
      "taf_trigger": false,
      "metar": "",
      "taf": ""
    },
    {
      "icao": "UTTT",
      "alert": "OK",
      "vis_m": null,
      "fzfg": false,
      "metar_trigger": false,
      "taf_trigger": false,
      "metar": "",
      "taf": ""
    }
  ]
}