{
  "ts_utc": "2026-03-08T16:18:46Z",
  "threshold_m": 150,
  "source": "stations_override.txt (ICAO list) + aviationweather.gov (METAR/TAF raw)",
  "station_count": 159,
  "stations": [
    {
      "icao": "BIKF",
      "alert": "OK",
      "vis_m": 9999,
      "fzfg": false,
      "metar_trigger": false,
      "taf_trigger": false,
      "metar": "METAR BIKF 081600Z 17012KT 9999 FEW018TCU SCT029 01/M02 Q0998",
      "taf": "TAF BIKF 081352Z 0815/0915 20010KT 9999 SCT015 BKN035 TX03/0816Z TNM01/0824Z"
    },
    {
      "icao": "BKPR",
      "alert": "OK",
      "vis_m": 9999,
      "fzfg": false,
      "metar_trigger": false,
      "taf_trigger": false,
      "metar": "METAR BKPR 081600Z 05006KT 9999 BKN065 13/03 Q1025 NOSIG",
      "taf": ""
    },
    {
      "icao": "EBCI",
      "alert": "OK",
      "vis_m": 9999,
      "fzfg": false,
      "metar_trigger": false,
      "taf_trigger": false,
      "metar": "METAR EBCI 081550Z 36005KT CAVOK 17/07 Q1022 NOSIG",
      "taf": "TAF EBCI 081115Z 0812/0918 VRB03KT CAVOK"
    },
    {
      "icao": "EDDB",
      "alert": "OK",
      "vis_m": 9999,
      "fzfg": false,
      "metar_trigger": false,
      "taf_trigger": false,
      "metar": "METAR EDDB 081550Z AUTO 13009KT CAVOK 16/01 Q1027 NOSIG",
      "taf": "TAF EDDB 081100Z 0812/0912 10006KT CAVOK"
    },
    {
      "icao": "EDDH",
      "alert": "OK",
      "vis_m": 9999,
      "fzfg": false,
      "metar_trigger": false,
      "taf_trigger": false,
      "metar": "METAR EDDH 081550Z AUTO 11010KT 080V140 CAVOK 16/04 Q1025 NOSIG",
      "taf": "TAF EDDH 081100Z 0812/0918 11007KT CAVOK"
    },
    {
      "icao": "EDDK",
      "alert": "OK",
      "vis_m": 9999,
      "fzfg": false,
      "metar_trigger": false,
      "taf_trigger": false,
      "metar": "METAR EDDK 081550Z AUTO 16007KT CAVOK 19/02 Q1022 NOSIG",
      "taf": "TAF EDDK 081100Z 0812/0918 13004KT CAVOK"
    },
    {
      "icao": "EDDN",
      "alert": "OK",
      "vis_m": 9999,
      "fzfg": false,
      "metar_trigger": false,
      "taf_trigger": false,
      "metar": "METAR EDDN 081550Z AUTO 10007KT CAVOK 15/05 Q1023 NOSIG",
      "taf": "TAF EDDN 081100Z 0812/0912 11004KT CAVOK"
    },
    {
      "icao": "EDDS",
      "alert": "OK",
      "vis_m": 9999,
      "fzfg": false,
      "metar_trigger": false,
      "taf_trigger": false,
      "metar": "METAR EDDS 081550Z AUTO 35005KT CAVOK 16/01 Q1022 NOSIG",
      "taf": "TAF EDDS 081100Z 0812/0912 VRB03KT CAVOK"
    },
    {
      "icao": "EDFH",
      "alert": "OK",
      "vis_m": 9999,
      "fzfg": false,
      "metar_trigger": false,
      "taf_trigger": false,
      "metar": "METAR EDFH 081550Z 12007KT CAVOK 14/03 Q1022",
      "taf": "TAF EDFH 081100Z 0812/0912 14007KT CAVOK"
    },
    {
      "icao": "EDJA",
      "alert": "OK",
      "vis_m": 9999,
      "fzfg": false,
      "metar_trigger": false,
      "taf_trigger": false,
      "metar": "METAR EDJA 081550Z 02004KT CAVOK 14/03 Q1023",
      "taf": "TAF EDJA 081400Z 0815/0824 VRB03KT CAVOK"
    },
    {
      "icao": "EDLW",
      "alert": "OK",
      "vis_m": 9999,
      "fzfg": false,
      "metar_trigger": false,
      "taf_trigger": false,
      "metar": "METAR EDLW 081550Z 03004KT CAVOK 17/05 Q1022",
      "taf": "TAF EDLW 081100Z 0812/0912 05004KT CAVOK"
    },
    {
      "icao": "EDNY",
      "alert": "OK",
      "vis_m": 9999,
      "fzfg": false,
      "metar_trigger": false,
      "taf_trigger": false,
      "metar": "METAR EDNY 081550Z COR 24004KT CAVOK 13/06 Q1023",
      "taf": "TAF EDNY 081400Z 0815/0824 VRB03KT CAVOK"
    },
    {
      "icao": "EDSB",
      "alert": "OK",
      "vis_m": 9999,
      "fzfg": false,
      "metar_trigger": false,
      "taf_trigger": false,
      "metar": "METAR EDSB 081550Z 36003KT CAVOK 16/07 Q1022",
      "taf": "TAF EDSB 081100Z 0812/0912 VRB03KT CAVOK"
    },
    {
      "icao": "EETN",
      "alert": "OK",
      "vis_m": 9999,
      "fzfg": false,
      "metar_trigger": false,
      "taf_trigger": false,
      "metar": "METAR EETN 081550Z 26011KT CAVOK 05/01 Q1029 NOSIG",
      "taf": "TAF EETN 081130Z 0812/0912 24008KT CAVOK"
    },
    {
      "icao": "EFTU",
      "alert": "OK",
      "vis_m": 9999,
      "fzfg": false,
      "metar_trigger": false,
      "taf_trigger": false,
      "metar": "METAR EFTU 081550Z AUTO 23004KT CAVOK 06/01 Q1028",
      "taf": "TAF EFTU 081435Z 0815/0915 28008KT CAVOK"
    },
    {
      "icao": "EGBB",
      "alert": "OK",
      "vis_m": 5000,
      "fzfg": false,
      "metar_trigger": false,
      "taf_trigger": false,
      "metar": "METAR EGBB 081550Z 15006KT 5000 BR OVC007 10/08 Q1021",
      "taf": ""
    },
    {
      "icao": "EGGP",
      "alert": "OK",
      "vis_m": 9000,
      "fzfg": false,
      "metar_trigger": false,
      "taf_trigger": false,
      "metar": "METAR EGGP 081550Z 14006KT 9000 OVC010 10/08 Q1020",
      "taf": ""
    },
    {
      "icao": "EGGW",
      "alert": "OK",
      "vis_m": 2400,
      "fzfg": false,
      "metar_trigger": false,
      "taf_trigger": false,
      "metar": "METAR EGGW 081550Z AUTO 14005KT 2400 BR OVC003 08/08 Q1021",
      "taf": ""
    },
    {
      "icao": "EGKK",
      "alert": "OK",
      "vis_m": 5000,
      "fzfg": false,
      "metar_trigger": false,
      "taf_trigger": false,
      "metar": "METAR EGKK 081550Z 08004KT 5000 HZ BKN007 09/08 Q1022",
      "taf": "TAF EGKK 081101Z 0812/0918 12005KT 3000 BR BKN003"
    },
    {
      "icao": "EGNM",
      "alert": "OK",
      "vis_m": 6000,
      "fzfg": false,
      "metar_trigger": false,
      "taf_trigger": false,
      "metar": "METAR EGNM 081550Z 12005KT 090V150 6000 SCT004 BKN005 09/08 Q1021",
      "taf": "TAF EGNM 081104Z 0812/0912 14004KT 7000 SCT007 BKN012"
    },
    {
      "icao": "EGPD",
      "alert": "OK",
      "vis_m": 9999,
      "fzfg": false,
      "metar_trigger": false,
      "taf_trigger": false,
      "metar": "METAR EGPD 081550Z COR AUTO 20013KT 9999 NCD 09/02 Q1018 NOSIG",
      "taf": "TAF EGPD 081052Z 0812/0912 19009KT 9999 FEW030"
    },
    {
      "icao": "EGPF",
      "alert": "OK",
      "vis_m": 9999,
      "fzfg": false,
      "metar_trigger": false,
      "taf_trigger": false,
      "metar": "METAR EGPF 081550Z AUTO 19010KT 9999 NCD 10/03 Q1019",
      "taf": ""
    },
    {
      "icao": "EHBK",
      "alert": "OK",
      "vis_m": 9999,
      "fzfg": false,
      "metar_trigger": false,
      "taf_trigger": false,
      "metar": "METAR EHBK 081555Z AUTO 05005KT 9999 NCD 16/09 Q1021 NOSIG",
      "taf": "TAF EHBK 081058Z 0812/0918 VRB02KT CAVOK"
    },
    {
      "icao": "EHEH",
      "alert": "OK",
      "vis_m": 9999,
      "fzfg": false,
      "metar_trigger": false,
      "taf_trigger": false,
      "metar": "METAR EHEH 081555Z AUTO 07003KT 010V130 9999 NCD 16/06 Q1022 BLU NOSIG RMK TREND REMOTE BY EHWX",
      "taf": "TAF EHEH 081100Z 0812/0918 VRB03KT 6000 NSC"
    },
    {
      "icao": "EKBI",
      "alert": "OK",
      "vis_m": 4500,
      "fzfg": false,
      "metar_trigger": false,
      "taf_trigger": false,
      "metar": "METAR EKBI 081550Z AUTO 35005KT 4500 BR NCD 10/08 Q1026",
      "taf": "TAF EKBI 081427Z 0815/0915 13003KT 6000 BKN005"
    },
    {
      "icao": "EKCH",
      "alert": "OK",
      "vis_m": 9000,
      "fzfg": false,
      "metar_trigger": false,
      "taf_trigger": false,
      "metar": "METAR EKCH 081550Z AUTO 15005KT 9000 NCD 07/02 Q1028 NOSIG",
      "taf": "TAF EKCH 081427Z 0815/0915 13006KT CAVOK"
    },
    {
      "icao": "ENAL",
      "alert": "OK",
      "vis_m": 9999,
      "fzfg": false,
      "metar_trigger": false,
      "taf_trigger": false,
      "metar": "METAR ENAL 081550Z 03003KT 350V060 9999 BKN042 07/02 Q1021",
      "taf": "TAF ENAL 081400Z 0815/0824 33008KT 9999 FEW030 BKN060"
    },
    {
      "icao": "ENBR",
      "alert": "OK",
      "vis_m": 3500,
      "fzfg": false,
      "metar_trigger": false,
      "taf_trigger": false,
      "metar": "METAR ENBR 081550Z 19010KT 3500 -DZRA BR VV003 05/04 Q1023 TEMPO 2500 -DZRA BR BKN006 RMK WIND 1200FT 20014KT",
      "taf": "TAF ENBR 081100Z 0812/0912 VRB05KT 6000 SCT008 BKN015"
    },
    {
      "icao": "ENGM",
      "alert": "OK",
      "vis_m": 6000,
      "fzfg": false,
      "metar_trigger": false,
      "taf_trigger": false,
      "metar": "METAR ENGM 081550Z 00000KT 6000 -RA SCT010 BKN022 04/02 Q1024 TEMPO BKN008",
      "taf": "TAF ENGM 081100Z 0812/0912 03005KT 7000 BKN004"
    },
    {
      "icao": "ENHD",
      "alert": "OK",
      "vis_m": 7000,
      "fzfg": false,
      "metar_trigger": false,
      "taf_trigger": false,
      "metar": "METAR ENHD 081550Z 18011KT 7000 -DZ FEW004 BKN005 OVC017 05/04 Q1023",
      "taf": ""
    },
    {
      "icao": "ENTC",
      "alert": "OK",
      "vis_m": 9999,
      "fzfg": false,
      "metar_trigger": false,
      "taf_trigger": false,
      "metar": "METAR ENTC 081550Z 21011KT 9999 FEW052 04/00 Q1017 NOSIG RMK WIND 2600FT 21010KT",
      "taf": "TAF ENTC 081100Z 0812/0912 21009KT 9999 FEW015 BKN040"
    },
    {
      "icao": "ENTO",
      "alert": "OK",
      "vis_m": 900,
      "fzfg": false,
      "metar_trigger": false,
      "taf_trigger": false,
      "metar": "METAR ENTO 081550Z 17003KT 150V210 0900 R18/P2000N R36/P2000D FG VV002 03/03 Q1025 TEMPO 0800",
      "taf": ""
    },
    {
      "icao": "ENVA",
      "alert": "OK",
      "vis_m": 9999,
      "fzfg": false,
      "metar_trigger": false,
      "taf_trigger": false,
      "metar": "METAR ENVA 081550Z 24009KT CAVOK 04/01 Q1023 RMK WIND 670FT 27006KT",
      "taf": "TAF ENVA 081100Z 0812/0912 12008KT CAVOK"
    },
    {
      "icao": "ENZV",
      "alert": "OK",
      "vis_m": 9999,
      "fzfg": false,
      "metar_trigger": false,
      "taf_trigger": false,
      "metar": "METAR ENZV 081550Z 17009KT 9999 BKN012 BKN016 BKN029 05/03 Q1024 TEMPO BKN009",
      "taf": ""
    },
    {
      "icao": "EPGD",
      "alert": "OK",
      "vis_m": 9999,
      "fzfg": false,
      "metar_trigger": false,
      "taf_trigger": false,
      "metar": "METAR EPGD 081600Z 14007KT CAVOK 13/M03 Q1030",
      "taf": "TAF EPGD 081130Z 0812/0912 19006KT CAVOK"
    },
    {
      "icao": "EPKK",
      "alert": "OK",
      "vis_m": 9999,
      "fzfg": false,
      "metar_trigger": false,
      "taf_trigger": false,
      "metar": "METAR EPKK 081600Z 07012KT CAVOK 10/M01 Q1030",
      "taf": "TAF EPKK 081430Z 0815/0915 07014KT CAVOK"
    },
    {
      "icao": "EPKT",
      "alert": "OK",
      "vis_m": 9999,
      "fzfg": false,
      "metar_trigger": false,
      "taf_trigger": false,
      "metar": "METAR EPKT 081600Z 07010KT CAVOK 10/M02 Q1029",
      "taf": "TAF EPKT 081130Z 0812/0912 10012KT CAVOK"
    },
    {
      "icao": "EPLB",
      "alert": "OK",
      "vis_m": 9999,
      "fzfg": false,
      "metar_trigger": false,
      "taf_trigger": false,
      "metar": "METAR EPLB 081600Z 10003KT CAVOK 11/01 Q1032",
      "taf": "TAF EPLB 081130Z 0812/0912 13007KT CAVOK"
    },
    {
      "icao": "EPMO",
      "alert": "OK",
      "vis_m": 9999,
      "fzfg": false,
      "metar_trigger": false,
      "taf_trigger": false,
      "metar": "METAR EPMO 081600Z 11003KT CAVOK 13/M04 Q1032",
      "taf": "TAF EPMO 081130Z 0812/0912 13006KT CAVOK"
    },
    {
      "icao": "EPPO",
      "alert": "OK",
      "vis_m": 9999,
      "fzfg": false,
      "metar_trigger": false,
      "taf_trigger": false,
      "metar": "METAR EPPO 081600Z 11008KT CAVOK 13/M02 Q1029",
      "taf": "TAF EPPO 081130Z 0812/0912 13008KT CAVOK"
    },
    {
      "icao": "EPRA",
      "alert": "OK",
      "vis_m": 9999,
      "fzfg": false,
      "metar_trigger": false,
      "taf_trigger": false,
      "metar": "METAR EPRA 081600Z 10006KT CAVOK 11/M02 Q1031",
      "taf": "TAF EPRA 081430Z 0815/0824 10010KT CAVOK"
    },
    {
      "icao": "EPRZ",
      "alert": "OK",
      "vis_m": 9999,
      "fzfg": false,
      "metar_trigger": false,
      "taf_trigger": false,
      "metar": "METAR EPRZ 081600Z 08009KT CAVOK 10/M01 Q1031",
      "taf": "TAF EPRZ 081130Z 0812/0912 07008KT CAVOK"
    },
    {
      "icao": "EPSC",
      "alert": "OK",
      "vis_m": 9999,
      "fzfg": false,
      "metar_trigger": false,
      "taf_trigger": false,
      "metar": "METAR EPSC 081600Z 13004KT CAVOK 13/M01 Q1028",
      "taf": "TAF EPSC 081130Z 0812/0912 12010KT CAVOK"
    },
    {
      "icao": "EPSY",
      "alert": "OK",
      "vis_m": 9999,
      "fzfg": false,
      "metar_trigger": false,
      "taf_trigger": false,
      "metar": "METAR EPSY 081600Z 20004KT CAVOK 12/M06 Q1032",
      "taf": "TAF EPSY 081430Z 0815/0824 VRB02KT CAVOK"
    },
    {
      "icao": "EPWA",
      "alert": "OK",
      "vis_m": 9999,
      "fzfg": false,
      "metar_trigger": false,
      "taf_trigger": false,
      "metar": "METAR EPWA 081600Z 12005KT CAVOK 12/M02 Q1031 NOSIG",
      "taf": "TAF EPWA 081430Z 0815/0915 13007KT CAVOK"
    },
    {
      "icao": "EPWR",
      "alert": "OK",
      "vis_m": 9999,
      "fzfg": false,
      "metar_trigger": false,
      "taf_trigger": false,
      "metar": "METAR EPWR 081600Z 08006KT CAVOK 13/M01 Q1028",
      "taf": "TAF EPWR 081430Z 0815/0915 13007KT CAVOK"
    },
    {
      "icao": "ESGG",
      "alert": "OK",
      "vis_m": 9999,
      "fzfg": false,
      "metar_trigger": false,
      "taf_trigger": false,
      "metar": "METAR ESGG 081550Z 19007KT 9999 BKN040 BKN076 08/05 Q1027",
      "taf": "TAF ESGG 081430Z 0815/0915 16007KT 9999 BKN040"
    },
    {
      "icao": "ESKN",
      "alert": "OK",
      "vis_m": 9999,
      "fzfg": false,
      "metar_trigger": false,
      "taf_trigger": false,
      "metar": "METAR ESKN 081550Z 13006KT 9999 SCT100 05/01 Q1028",
      "taf": "TAF ESKN 081430Z 0815/0915 13004KT CAVOK"
    },
    {
      "icao": "ESMS",
      "alert": "OK",
      "vis_m": 9999,
      "fzfg": false,
      "metar_trigger": false,
      "taf_trigger": false,
      "metar": "METAR ESMS 081550Z 13004KT CAVOK 09/01 Q1028",
      "taf": "TAF ESMS 081427Z 0815/0915 13008KT CAVOK"
    },
    {
      "icao": "ESSA",
      "alert": "OK",
      "vis_m": 9999,
      "fzfg": false,
      "metar_trigger": false,
      "taf_trigger": false,
      "metar": "METAR ESSA 081550Z 17007KT CAVOK 09/02 Q1027 NOSIG",
      "taf": "TAF ESSA 081430Z 0815/0915 20006KT CAVOK"
    },
    {
      "icao": "EYKA",
      "alert": "OK",
      "vis_m": 9999,
      "fzfg": false,
      "metar_trigger": false,
      "taf_trigger": false,
      "metar": "METAR EYKA 081550Z 17003KT CAVOK 10/M02 Q1032",
      "taf": "TAF EYKA 081100Z 0812/0912 VRB04KT 8000 NSC"
    },
    {
      "icao": "EYPA",
      "alert": "OK",
      "vis_m": 9999,
      "fzfg": false,
      "metar_trigger": false,
      "taf_trigger": false,
      "metar": "METAR EYPA 081550Z 00000KT CAVOK 07/01 Q1032",
      "taf": "TAF EYPA 081100Z 0812/0912 VRB05KT 8000 NSC"
    },
    {
      "icao": "EYVI",
      "alert": "OK",
      "vis_m": 9999,
      "fzfg": false,
      "metar_trigger": false,
      "taf_trigger": false,
      "metar": "METAR EYVI 081550Z 27003KT CAVOK 09/M05 Q1032 NOSIG",
      "taf": "TAF EYVI 081100Z 0812/0912 VRB05KT 9000 NSC"
    },
    {
      "icao": "GCFV",
      "alert": "OK",
      "vis_m": 9999,
      "fzfg": false,
      "metar_trigger": false,
      "taf_trigger": false,
      "metar": "METAR GCFV 081600Z 03017KT 9999 SCT035 19/12 Q1020",
      "taf": "TAF GCFV 081400Z 0815/0915 04017KT 9999 SCT035 TX20/0914Z TN15/0906Z"
    },
    {
      "icao": "GCLP",
      "alert": "OK",
      "vis_m": 9999,
      "fzfg": false,
      "metar_trigger": false,
      "taf_trigger": false,
      "metar": "METAR GCLP 081600Z 01022KT 340V040 9999 FEW035 BKN045 19/08 Q1021 NOSIG",
      "taf": "TAF GCLP 081400Z 0815/0915 02023KT 9999 BKN040 TX20/0914Z TN15/0906Z"
    },
    {
      "icao": "GCTS",
      "alert": "OK",
      "vis_m": 9999,
      "fzfg": false,
      "metar_trigger": false,
      "taf_trigger": false,
      "metar": "METAR GCTS 081600Z 09026KT 9999 SCT045 20/07 Q1021 WS R07 NOSIG",
      "taf": "TAF GCTS 081400Z 0815/0915 09026KT 9999 SCT045 TX22/0914Z TN14/0906Z"
    },
    {
      "icao": "GMAD",
      "alert": "OK",
      "vis_m": 9999,
      "fzfg": false,
      "metar_trigger": false,
      "taf_trigger": false,
      "metar": "METAR GMAD 081600Z 24012KT 9999 FEW030 20/10 Q1016 NOSIG",
      "taf": "TAF GMAD 081100Z 0812/0918 26012KT CAVOK"
    },
    {
      "icao": "GMMN",
      "alert": "OK",
      "vis_m": 9999,
      "fzfg": false,
      "metar_trigger": false,
      "taf_trigger": false,
      "metar": "METAR GMMN 081600Z 36009KT 9999 BKN030 17/12 Q1020 NOSIG",
      "taf": "TAF GMMN 080500Z 0806/0912 16004KT 3000 BR BKN020"
    },
    {
      "icao": "GMMX",
      "alert": "OK",
      "vis_m": 9999,
      "fzfg": false,
      "metar_trigger": false,
      "taf_trigger": false,
      "metar": "METAR GMMX 081600Z VRB04KT 9999 BKN023 18/05 Q1019 NOSIG",
      "taf": "TAF GMMX 081100Z 0812/0918 06006KT 8000 SCT020 BKN040"
    },
    {
      "icao": "HEGN",
      "alert": "OK",
      "vis_m": 9999,
      "fzfg": false,
      "metar_trigger": false,
      "taf_trigger": false,
      "metar": "METAR HEGN 081500Z 01010KT CAVOK 22/06 Q1016 NOSIG",
      "taf": "TAF HEGN 081100Z 0812/0918 35010G24KT CAVOK"
    },
    {
      "icao": "HEMA",
      "alert": "OK",
      "vis_m": 9999,
      "fzfg": false,
      "metar_trigger": false,
      "taf_trigger": false,
      "metar": "METAR HEMA 081500Z 36017KT CAVOK 22/08 Q1014 NOSIG",
      "taf": "TAF HEMA 081100Z 0812/0918 36010G24KT CAVOK"
    },
    {
      "icao": "HESH",
      "alert": "OK",
      "vis_m": 9999,
      "fzfg": false,
      "metar_trigger": false,
      "taf_trigger": false,
      "metar": "METAR HESH 081500Z 36011KT CAVOK 22/09 Q1015 NOSIG",
      "taf": "TAF HESH 081100Z 0812/0918 01010G22KT CAVOK"
    },
    {
      "icao": "HESX",
      "alert": "OK",
      "vis_m": 9999,
      "fzfg": false,
      "metar_trigger": false,
      "taf_trigger": false,
      "metar": "METAR HESX 081500Z 01013KT CAVOK 20/03 Q1018 NOSIG",
      "taf": "TAF HESX 081100Z 0812/0918 35009KT CAVOK"
    },
    {
      "icao": "LATI",
      "alert": "OK",
      "vis_m": null,
      "fzfg": false,
      "metar_trigger": false,
      "taf_trigger": false,
      "metar": "",
      "taf": "TAF LATI 081100Z 0812/0912 33008KT 9999 SCT120 TX21/0813Z TN08/0904Z"
    },
    {
      "icao": "LBPD",
      "alert": "OK",
      "vis_m": 9999,
      "fzfg": false,
      "metar_trigger": false,
      "taf_trigger": false,
      "metar": "METAR LBPD 081600Z AUTO 09011KT 9999 NCD 11/01 Q1028 NOSIG",
      "taf": "TAF LBPD 081100Z 0812/0912 11010KT CAVOK"
    },
    {
      "icao": "LBSF",
      "alert": "OK",
      "vis_m": 9999,
      "fzfg": false,
      "metar_trigger": false,
      "taf_trigger": false,
      "metar": "METAR LBSF 081600Z AUTO 05009KT 9999 NSC 11/M01 Q1027 NOSIG",
      "taf": "TAF LBSF 081100Z 0812/0912 05010KT CAVOK"
    },
    {
      "icao": "LBWN",
      "alert": "OK",
      "vis_m": 9999,
      "fzfg": false,
      "metar_trigger": false,
      "taf_trigger": false,
      "metar": "METAR LBWN 081600Z 11007KT CAVOK 07/02 Q1031 NOSIG",
      "taf": "TAF LBWN 081100Z 0812/0912 12010KT 9999 SCT030"
    },
    {
      "icao": "LCLK",
      "alert": "OK",
      "vis_m": 9999,
      "fzfg": false,
      "metar_trigger": false,
      "taf_trigger": false,
      "metar": "METAR LCLK 081600Z 22004KT 9999 FEW030 15/06 Q1019 NOSIG",
      "taf": ""
    },
    {
      "icao": "LCPH",
      "alert": "OK",
      "vis_m": 9999,
      "fzfg": false,
      "metar_trigger": false,
      "taf_trigger": false,
      "metar": "METAR LCPH 081600Z 33009KT 9999 FEW040 15/M01 Q1019 NOSIG",
      "taf": "TAF LCPH 081130Z 0812/0912 29014KT 9999 FEW020"
    },
    {
      "icao": "LEAL",
      "alert": "OK",
      "vis_m": 9999,
      "fzfg": false,
      "metar_trigger": false,
      "taf_trigger": false,
      "metar": "METAR LEAL 081600Z 11007KT 080V140 9999 FEW030 BKN057 15/09 Q1021 NOSIG",
      "taf": "TAF LEAL 081100Z 0812/0912 13007KT 9999 SCT030 TX17/0813Z TN07/0906Z"
    },
    {
      "icao": "LEBB",
      "alert": "OK",
      "vis_m": 9999,
      "fzfg": false,
      "metar_trigger": false,
      "taf_trigger": false,
      "metar": "METAR LEBB 081600Z 34004KT 290V020 9999 FEW035 15/09 Q1020 NOSIG",
      "taf": "TAF LEBB 081100Z 0812/0912 12007KT 9999 FEW020 SCT060 TX17/0815Z TN07/0907Z"
    },
    {
      "icao": "LEBL",
      "alert": "OK",
      "vis_m": 9999,
      "fzfg": false,
      "metar_trigger": false,
      "taf_trigger": false,
      "metar": "METAR LEBL 081600Z 12006KT 9999 FEW013 14/11 Q1021 NOSIG",
      "taf": "TAF LEBL 081100Z 0812/0912 33005KT 9999 FEW015 BKN040 TX16/0812Z TN09/0906Z"
    },
    {
      "icao": "LECH",
      "alert": "OK",
      "vis_m": 9999,
      "fzfg": false,
      "metar_trigger": false,
      "taf_trigger": false,
      "metar": "METAR LECH 081600Z AUTO 11006KT 080V140 CAVOK 12/08 Q1021",
      "taf": ""
    },
    {
      "icao": "LEMD",
      "alert": "OK",
      "vis_m": 9999,
      "fzfg": false,
      "metar_trigger": false,
      "taf_trigger": false,
      "metar": "METAR LEMD 081600Z 31005KT 240V050 9999 FEW035TCU SCT045 BKN065 12/06 Q1019 NOSIG",
      "taf": "TAF LEMD 081100Z 0812/0918 VRB04KT 9999 FEW015 SCT030 TX13/0815Z TN02/0904Z"
    },
    {
      "icao": "LEMG",
      "alert": "OK",
      "vis_m": 9999,
      "fzfg": false,
      "metar_trigger": false,
      "taf_trigger": false,
      "metar": "METAR LEMG 081600Z 10004KT 010V170 9999 -SHRA FEW021 FEW025TCU BKN043 14/12 Q1020 RESHRA NOSIG",
      "taf": "TAF LEMG 081100Z 0812/0912 13010KT 9999 SCT030 TX16/0814Z TN08/0907Z"
    },
    {
      "icao": "LEVC",
      "alert": "OK",
      "vis_m": 9999,
      "fzfg": false,
      "metar_trigger": false,
      "taf_trigger": false,
      "metar": "METAR LEVC 081600Z 12006KT 070V160 9999 FEW025 15/09 Q1021 NOSIG",
      "taf": "TAF LEVC 081100Z 0812/0912 VRB04KT 9999 SCT025 TX16/0813Z TN07/0906Z"
    },
    {
      "icao": "LEXJ",
      "alert": "OK",
      "vis_m": 9999,
      "fzfg": false,
      "metar_trigger": false,
      "taf_trigger": false,
      "metar": "METAR LEXJ 081600Z 06005KT 360V110 9999 FEW033 12/08 Q1021",
      "taf": "TAF LEXJ 081400Z 0815/0915 24005KT 9999 FEW030 TX13/0815Z TN07/0905Z"
    },
    {
      "icao": "LEZG",
      "alert": "OK",
      "vis_m": 9999,
      "fzfg": false,
      "metar_trigger": false,
      "taf_trigger": false,
      "metar": "METAR LEZG 081600Z 30006KT 260V330 9999 FEW030TCU BKN040 14/08 Q1020 NOSIG",
      "taf": "TAF LEZG 081100Z 0812/0912 VRB04KT 9999 SCT025 TX14/0814Z TN04/0906Z"
    },
    {
      "icao": "LEZL",
      "alert": "OK",
      "vis_m": 9999,
      "fzfg": false,
      "metar_trigger": false,
      "taf_trigger": false,
      "metar": "METAR LEZL 081600Z 35007KT 9999 FEW035CB SCT040 16/12 Q1020 NOSIG",
      "taf": "TAF LEZL 081400Z 0815/0915 29005KT 9999 FEW030 TX19/0815Z TN12/0907Z"
    },
    {
      "icao": "LFBD",
      "alert": "OK",
      "vis_m": 9999,
      "fzfg": false,
      "metar_trigger": false,
      "taf_trigger": false,
      "metar": "METAR LFBD 081600Z AUTO 12007KT 9999 FEW023/// BKN058/// OVC080/// ///TCU 15/09 Q1020 TEMPO 4000 -SHRA",
      "taf": "TAF LFBD 081100Z 0812/0918 12005KT 9999 BKN040 TX16/0814Z TN05/0905Z"
    },
    {
      "icao": "LFLL",
      "alert": "OK",
      "vis_m": 9999,
      "fzfg": false,
      "metar_trigger": false,
      "taf_trigger": false,
      "metar": "METAR LFLL 081600Z VRB02KT CAVOK 18/03 Q1022 NOSIG",
      "taf": "TAF LFLL 081100Z 0812/0918 19005KT CAVOK"
    },
    {
      "icao": "LFLS",
      "alert": "OK",
      "vis_m": 9999,
      "fzfg": false,
      "metar_trigger": false,
      "taf_trigger": false,
      "metar": "METAR LFLS 081600Z AUTO 25005KT CAVOK 16/07 Q1022 TEMPO 24015G25KT SHRA FEW030CB BKN040TCU",
      "taf": "TAF LFLS 081400Z 0815/0915 VRB04KT CAVOK"
    },
    {
      "icao": "LFMN",
      "alert": "OK",
      "vis_m": 9999,
      "fzfg": false,
      "metar_trigger": false,
      "taf_trigger": false,
      "metar": "METAR LFMN 081600Z 10008KT 9999 SCT016 SCT260 15/12 Q1024 NOSIG",
      "taf": "TAF LFMN 081400Z 0815/0921 09008KT 9999 FEW110 SCT260"
    },
    {
      "icao": "LFOB",
      "alert": "OK",
      "vis_m": 5000,
      "fzfg": false,
      "metar_trigger": false,
      "taf_trigger": false,
      "metar": "METAR LFOB 081600Z AUTO VRB03KT 5000 BR FEW006 13/10 Q1021 NOSIG",
      "taf": ""
    },
    {
      "icao": "LFPO",
      "alert": "OK",
      "vis_m": 9999,
      "fzfg": false,
      "metar_trigger": false,
      "taf_trigger": false,
      "metar": "METAR LFPO 081600Z 19004KT 130V230 CAVOK 18/09 Q1021 NOSIG",
      "taf": "TAF LFPO 081100Z 0812/0918 VRB02KT CAVOK"
    },
    {
      "icao": "LFSB",
      "alert": "OK",
      "vis_m": 9999,
      "fzfg": false,
      "metar_trigger": false,
      "taf_trigger": false,
      "metar": "METAR LFSB 081600Z AUTO 32004KT 300V360 CAVOK 18/06 Q1022 NOSIG",
      "taf": "TAF LFSB 081100Z 0812/0912 16004KT CAVOK"
    },
    {
      "icao": "LGAV",
      "alert": "OK",
      "vis_m": 9999,
      "fzfg": false,
      "metar_trigger": false,
      "taf_trigger": false,
      "metar": "METAR LGAV 081550Z 04014KT 9999 FEW030 12/06 Q1025 NOSIG",
      "taf": "TAF LGAV 081100Z 0812/0912 02015KT 9999 FEW025"
    },
    {
      "icao": "LGTS",
      "alert": "OK",
      "vis_m": 9999,
      "fzfg": false,
      "metar_trigger": false,
      "taf_trigger": false,
      "metar": "METAR LGTS 081550Z 19006KT 9999 SCT025 14/08 Q1027 NOSIG",
      "taf": "TAF LGTS 081100Z 0812/0912 14013KT 9999 SCT020"
    },
    {
      "icao": "LHBP",
      "alert": "OK",
      "vis_m": 9999,
      "fzfg": false,
      "metar_trigger": false,
      "taf_trigger": false,
      "metar": "METAR LHBP 081600Z 08005KT CAVOK 15/M02 Q1027 NOSIG",
      "taf": "TAF LHBP 081115Z 0812/0912 10006KT CAVOK"
    },
    {
      "icao": "LHDC",
      "alert": "OK",
      "vis_m": 9999,
      "fzfg": false,
      "metar_trigger": false,
      "taf_trigger": false,
      "metar": "METAR LHDC 081545Z AUTO 08005KT CAVOK 15/M02 Q1027 NOSIG",
      "taf": "TAF LHDC 081415Z 0815/0824 07006KT CAVOK"
    },
    {
      "icao": "LIBD",
      "alert": "OK",
      "vis_m": 9999,
      "fzfg": false,
      "metar_trigger": false,
      "taf_trigger": false,
      "metar": "METAR LIBD 081550Z 01004KT 330V040 9999 FEW015 SCT040 14/11 Q1025",
      "taf": "TAF LIBD 081100Z 0812/0912 VRB05KT 9999 BKN040"
    },
    {
      "icao": "LIBG",
      "alert": "OK",
      "vis_m": 9999,
      "fzfg": false,
      "metar_trigger": false,
      "taf_trigger": false,
      "metar": "METAR LIBG 081550Z 05005KT 020V080 9999 SCT020 15/11 Q1024",
      "taf": "TAF LIBG 081400Z 0815/0824 VRB05KT 9999 SCT030"
    },
    {
      "icao": "LIBP",
      "alert": "OK",
      "vis_m": 9999,
      "fzfg": false,
      "metar_trigger": false,
      "taf_trigger": false,
      "metar": "METAR LIBP 081550Z AUTO 08005KT 9999 SCT013/// BKN033/// 14/11 Q1026",
      "taf": "TAF LIBP 081100Z 0812/0912 VRB04KT 9999 BKN025"
    },
    {
      "icao": "LIBR",
      "alert": "OK",
      "vis_m": 9999,
      "fzfg": false,
      "metar_trigger": false,
      "taf_trigger": false,
      "metar": "METAR LIBR 081550Z 10005KT 9999 FEW020 13/11 Q1024",
      "taf": "TAF LIBR 081100Z 0812/0912 VRB04KT 8000 BKN020"
    },
    {
      "icao": "LICA",
      "alert": "OK",
      "vis_m": 9999,
      "fzfg": false,
      "metar_trigger": false,
      "taf_trigger": false,
      "metar": "METAR LICA 081550Z AUTO VRB02KT 9999 NCD 17/12 Q1023",
      "taf": "TAF LICA 081100Z 0812/0912 25010KT 9999 SCT040"
    },
    {
      "icao": "LICC",
      "alert": "OK",
      "vis_m": 9999,
      "fzfg": false,
      "metar_trigger": false,
      "taf_trigger": false,
      "metar": "METAR LICC 081550Z 08010KT 9999 FEW020 17/15 Q1023",
      "taf": "TAF LICC 081100Z 0812/0912 09012KT 9999 SCT015"
    },
    {
      "icao": "LICJ",
      "alert": "OK",
      "vis_m": 9999,
      "fzfg": false,
      "metar_trigger": false,
      "taf_trigger": false,
      "metar": "METAR LICJ 081550Z 07012KT CAVOK 16/13 Q1022",
      "taf": "TAF LICJ 081100Z 0812/0912 05013KT 9999 FEW030"
    },
    {
      "icao": "LIMC",
      "alert": "OK",
      "vis_m": 9999,
      "fzfg": false,
      "metar_trigger": false,
      "taf_trigger": false,
      "metar": "METAR LIMC 081550Z 18005KT 150V210 CAVOK 16/03 Q1025 NOSIG",
      "taf": "TAF LIMC 081100Z 0812/0918 VRB05KT CAVOK"
    },
    {
      "icao": "LIME",
      "alert": "OK",
      "vis_m": 9999,
      "fzfg": false,
      "metar_trigger": false,
      "taf_trigger": false,
      "metar": "METAR LIME 081550Z 16004KT 110V210 CAVOK 15/05 Q1025 NOSIG",
      "taf": "TAF LIME 081100Z 0812/0912 VRB05KT 9999 FEW030"
    },
    {
      "icao": "LIMF",
      "alert": "OK",
      "vis_m": 9999,
      "fzfg": false,
      "metar_trigger": false,
      "taf_trigger": false,
      "metar": "METAR LIMF 081550Z 08004KT CAVOK 16/05 Q1024",
      "taf": "TAF LIMF 081100Z 0812/0912 VRB04KT CAVOK"
    },
    {
      "icao": "LIMJ",
      "alert": "OK",
      "vis_m": 9999,
      "fzfg": false,
      "metar_trigger": false,
      "taf_trigger": false,
      "metar": "METAR LIMJ 081550Z 13004KT 9999 BKN080 15/12 Q1025",
      "taf": "TAF LIMJ 081100Z 0812/0912 VRB05KT 9999 SCT030"
    },
    {
      "icao": "LIPE",
      "alert": "OK",
      "vis_m": 8000,
      "fzfg": false,
      "metar_trigger": false,
      "taf_trigger": false,
      "metar": "METAR LIPE 081550Z 10004KT 8000 NSC 14/09 Q1025",
      "taf": "TAF LIPE 081100Z 0812/0912 VRB04KT 8000 SCT050"
    },
    {
      "icao": "LIPH",
      "alert": "OK",
      "vis_m": 9999,
      "fzfg": false,
      "metar_trigger": false,
      "taf_trigger": false,
      "metar": "METAR LIPH 081550Z 20004KT CAVOK 17/05 Q1025",
      "taf": "TAF LIPH 081100Z 0812/0912 VRB03KT CAVOK"
    },
    {
      "icao": "LIPQ",
      "alert": "OK",
      "vis_m": 9999,
      "fzfg": false,
      "metar_trigger": false,
      "taf_trigger": false,
      "metar": "METAR LIPQ 081550Z AUTO 23004KT 200V260 9999 NCD 17/10 Q1025",
      "taf": "TAF LIPQ 081100Z 0812/0912 VRB04KT CAVOK"
    },
    {
      "icao": "LIPR",
      "alert": "OK",
      "vis_m": 8000,
      "fzfg": false,
      "metar_trigger": false,
      "taf_trigger": false,
      "metar": "METAR LIPR 081550Z 06005KT 8000 NSC 12/10 Q1026",
      "taf": "TAF LIPR 081100Z 0812/0912 VRB06KT 8000 NSC"
    },
    {
      "icao": "LIPX",
      "alert": "OK",
      "vis_m": 9999,
      "fzfg": false,
      "metar_trigger": false,
      "taf_trigger": false,
      "metar": "METAR LIPX 081550Z 17004KT 110V220 CAVOK 15/09 Q1025",
      "taf": "TAF LIPX 081100Z 0812/0912 VRB05KT CAVOK"
    },
    {
      "icao": "LIPY",
      "alert": "OK",
      "vis_m": 9999,
      "fzfg": false,
      "metar_trigger": false,
      "taf_trigger": false,
      "metar": "METAR LIPY 081550Z AUTO 03006KT 9999 NCD 13/11 Q1026",
      "taf": ""
    },
    {
      "icao": "LIPZ",
      "alert": "OK",
      "vis_m": 9999,
      "fzfg": false,
      "metar_trigger": false,
      "taf_trigger": false,
      "metar": "METAR LIPZ 081550Z 20005KT CAVOK 15/04 Q1025 NOSIG",
      "taf": "TAF LIPZ 081100Z 0812/0918 VRB04KT 6000 NSC"
    },
    {
      "icao": "LIRF",
      "alert": "OK",
      "vis_m": 9999,
      "fzfg": false,
      "metar_trigger": false,
      "taf_trigger": false,
      "metar": "METAR LIRF 081550Z 27008KT 9999 FEW035TCU 16/11 Q1024 NOSIG",
      "taf": "TAF LIRF 081100Z 0812/0918 27010KT 9999 SCT040"
    },
    {
      "icao": "LIRN",
      "alert": "OK",
      "vis_m": 9999,
      "fzfg": false,
      "metar_trigger": false,
      "taf_trigger": false,
      "metar": "METAR LIRN 081550Z 04003KT 010V080 9999 BKN050 17/11 Q1024 NOSIG",
      "taf": "TAF LIRN 081100Z 0812/0912 VRB05KT 9999 SCT040"
    },
    {
      "icao": "LIRP",
      "alert": "OK",
      "vis_m": 9999,
      "fzfg": false,
      "metar_trigger": false,
      "taf_trigger": false,
      "metar": "METAR LIRP 081545Z 24005KT 9999 FEW030 16/11 Q1024 NOSIG",
      "taf": "TAF LIRP 081100Z 0812/0912 17007KT 9999 SCT040 SCT060"
    },
    {
      "icao": "LIRZ",
      "alert": "OK",
      "vis_m": 9999,
      "fzfg": false,
      "metar_trigger": false,
      "taf_trigger": false,
      "metar": "METAR LIRZ 081550Z AUTO 34008KT 9999 BKN069/// 14/09 Q1024",
      "taf": "TAF LIRZ 081100Z 0812/0912 VRB05KT 9999 SCT030"
    },
    {
      "icao": "LJLJ",
      "alert": "OK",
      "vis_m": 9999,
      "fzfg": false,
      "metar_trigger": false,
      "taf_trigger": false,
      "metar": "METAR LJLJ 081600Z 12003KT 9999 FEW060 15/06 Q1025 NOSIG",
      "taf": "TAF LJLJ 081100Z 0812/0912 10004KT 9999 FEW070"
    },
    {
      "icao": "LKMT",
      "alert": "OK",
      "vis_m": 9999,
      "fzfg": false,
      "metar_trigger": false,
      "taf_trigger": false,
      "metar": "METAR LKMT 081600Z 01005KT CAVOK 10/M00 Q1027 NOSIG",
      "taf": "TAF LKMT 081100Z 0812/0912 04002KT CAVOK"
    },
    {
      "icao": "LKPR",
      "alert": "OK",
      "vis_m": 9999,
      "fzfg": false,
      "metar_trigger": false,
      "taf_trigger": false,
      "metar": "METAR LKPR 081600Z 08010KT CAVOK 12/02 Q1025 NOSIG",
      "taf": "TAF LKPR 081400Z 0815/0921 11006KT CAVOK"
    },
    {
      "icao": "LLBG",
      "alert": "OK",
      "vis_m": 9999,
      "fzfg": false,
      "metar_trigger": false,
      "taf_trigger": false,
      "metar": "METAR LLBG 081550Z 33010KT 9999 FEW050 15/03 Q1019 NOSIG",
      "taf": "TAF LLBG 081103Z 0812/0912 33015KT 9999 FEW045 TX19/0812Z TN08/0904Z"
    },
    {
      "icao": "LMML",
      "alert": "OK",
      "vis_m": 9999,
      "fzfg": false,
      "metar_trigger": false,
      "taf_trigger": false,
      "metar": "METAR LMML 081615Z 07015KT 9999 FEW014 16/13 Q1021 NOSIG",
      "taf": "TAF LMML 081100Z 0812/0912 09015KT 9999 SCT013"
    },
    {
      "icao": "LOWW",
      "alert": "OK",
      "vis_m": 9999,
      "fzfg": false,
      "metar_trigger": false,
      "taf_trigger": false,
      "metar": "METAR LOWW 081550Z 15007KT CAVOK 15/01 Q1026 NOSIG",
      "taf": "TAF LOWW 081415Z 0815/0921 13007KT CAVOK TX16/0815Z TN05/0905Z"
    },
    {
      "icao": "LPFR",
      "alert": "OK",
      "vis_m": 9999,
      "fzfg": false,
      "metar_trigger": false,
      "taf_trigger": false,
      "metar": "METAR LPFR 081600Z 25010KT 9999 FEW035 16/11 Q1021",
      "taf": "TAF LPFR 081100Z 0812/0912 20007KT 9999 SCT035"
    },
    {
      "icao": "LPMA",
      "alert": "OK",
      "vis_m": 9999,
      "fzfg": false,
      "metar_trigger": false,
      "taf_trigger": false,
      "metar": "METAR LPMA 081600Z 02013KT 340V040 9999 BKN015 16/07 Q1026",
      "taf": "TAF LPMA 081100Z 0812/0912 01012KT 9999 SCT015 SCT030"
    },
    {
      "icao": "LPPR",
      "alert": "OK",
      "vis_m": 9999,
      "fzfg": false,
      "metar_trigger": false,
      "taf_trigger": false,
      "metar": "METAR LPPR 081600Z 31008KT 280V340 9999 FEW015 13/09 Q1022",
      "taf": "TAF LPPR 081100Z 0812/0912 26005KT 9999 SCT018"
    },
    {
      "icao": "LPPS",
      "alert": "OK",
      "vis_m": 9999,
      "fzfg": false,
      "metar_trigger": false,
      "taf_trigger": false,
      "metar": "METAR LPPS 081600Z 03011KT 9999 SCT014 SCT030 15/09 Q1026",
      "taf": "TAF LPPS 081100Z 0812/0918 05010KT 9999 FEW013 BKN030"
    },
    {
      "icao": "LPPT",
      "alert": "OK",
      "vis_m": 9999,
      "fzfg": false,
      "metar_trigger": false,
      "taf_trigger": false,
      "metar": "METAR LPPT 081600Z 33011KT 290V350 9999 FEW026 15/09 Q1021",
      "taf": "TAF LPPT 081100Z 0812/0918 33012KT 9999 FEW028"
    },
    {
      "icao": "LQBK",
      "alert": "OK",
      "vis_m": 9999,
      "fzfg": false,
      "metar_trigger": false,
      "taf_trigger": false,
      "metar": "METAR LQBK 081600Z 03006KT 360V060 CAVOK 17/M03 Q1025 NOSIG",
      "taf": ""
    },
    {
      "icao": "LQSA",
      "alert": "OK",
      "vis_m": 9999,
      "fzfg": false,
      "metar_trigger": false,
      "taf_trigger": false,
      "metar": "METAR LQSA 081600Z 12005KT 9999 FEW065 13/04 Q1024 NOSIG",
      "taf": ""
    },
    {
      "icao": "LQTZ",
      "alert": "OK",
      "vis_m": 9999,
      "fzfg": false,
      "metar_trigger": false,
      "taf_trigger": false,
      "metar": "METAR LQTZ 081600Z 06008KT CAVOK 16/02 Q1025",
      "taf": "TAF LQTZ 081100Z 0812/0912 VRB02KT CAVOK TX18/0813Z TNM02/0905Z"
    },
    {
      "icao": "LRBC",
      "alert": "OK",
      "vis_m": 9999,
      "fzfg": false,
      "metar_trigger": false,
      "taf_trigger": false,
      "metar": "METAR LRBC 081600Z 33007KT CAVOK 09/M02 Q1031",
      "taf": "TAF LRBC 081400Z 0815/0824 01008KT CAVOK"
    },
    {
      "icao": "LRBS",
      "alert": "OK",
      "vis_m": 9999,
      "fzfg": false,
      "metar_trigger": false,
      "taf_trigger": false,
      "metar": "METAR LRBS 081600Z 12008KT CAVOK 10/01 Q1031 NOSIG",
      "taf": "TAF LRBS 081100Z 0812/0912 08010KT CAVOK"
    },
    {
      "icao": "LRBV",
      "alert": "OK",
      "vis_m": 9999,
      "fzfg": false,
      "metar_trigger": false,
      "taf_trigger": false,
      "metar": "METAR LRBV 081600Z 07008KT 9999 FEW067 08/M03 Q1028",
      "taf": "TAF LRBV 081400Z 0815/0824 08008KT CAVOK"
    },
    {
      "icao": "LRCL",
      "alert": "OK",
      "vis_m": 9999,
      "fzfg": false,
      "metar_trigger": false,
      "taf_trigger": false,
      "metar": "METAR LRCL 081600Z 13004KT CAVOK 13/M04 Q1028",
      "taf": "TAF LRCL 081400Z 0815/0824 VRB04KT CAVOK"
    },
    {
      "icao": "LRCV",
      "alert": "OK",
      "vis_m": 9999,
      "fzfg": false,
      "metar_trigger": false,
      "taf_trigger": false,
      "metar": "METAR LRCV 081600Z 10009KT CAVOK 10/03 Q1029",
      "taf": "TAF LRCV 081400Z 0815/0824 08008KT CAVOK"
    },
    {
      "icao": "LRIA",
      "alert": "OK",
      "vis_m": 9999,
      "fzfg": false,
      "metar_trigger": false,
      "taf_trigger": false,
      "metar": "METAR LRIA 081600Z 35007KT CAVOK 11/M01 Q1032",
      "taf": "TAF LRIA 081400Z 0815/0824 01008KT CAVOK"
    },
    {
      "icao": "LROP",
      "alert": "OK",
      "vis_m": 9999,
      "fzfg": false,
      "metar_trigger": false,
      "taf_trigger": false,
      "metar": "METAR LROP 081600Z 12007KT CAVOK 10/M02 Q1031 NOSIG",
      "taf": "TAF LROP 081100Z 0812/0912 08010KT CAVOK"
    },
    {
      "icao": "LRSB",
      "alert": "OK",
      "vis_m": 9999,
      "fzfg": false,
      "metar_trigger": false,
      "taf_trigger": false,
      "metar": "METAR LRSB 081600Z 17004KT 150V210 CAVOK 12/M00 Q1027",
      "taf": "TAF LRSB 081100Z 0812/0912 10008KT CAVOK"
    },
    {
      "icao": "LRSM",
      "alert": "OK",
      "vis_m": 9999,
      "fzfg": false,
      "metar_trigger": false,
      "taf_trigger": false,
      "metar": "METAR LRSM 081600Z 02005KT CAVOK 14/00 Q1028",
      "taf": "TAF LRSM 081400Z 0815/0824 VRB04KT CAVOK"
    },
    {
      "icao": "LRSV",
      "alert": "OK",
      "vis_m": 9999,
      "fzfg": false,
      "metar_trigger": false,
      "taf_trigger": false,
      "metar": "METAR LRSV 081600Z 04004KT CAVOK 08/M02 Q1031",
      "taf": "TAF LRSV 081400Z 0815/0824 03006KT CAVOK"
    },
    {
      "icao": "LRTM",
      "alert": "OK",
      "vis_m": 9999,
      "fzfg": false,
      "metar_trigger": false,
      "taf_trigger": false,
      "metar": "METAR LRTM 081600Z 11003KT CAVOK 13/M01 Q1028",
      "taf": "TAF LRTM 081400Z 0815/0824 VRB04KT CAVOK"
    },
    {
      "icao": "LRTR",
      "alert": "OK",
      "vis_m": 9999,
      "fzfg": false,
      "metar_trigger": false,
      "taf_trigger": false,
      "metar": "METAR LRTR 081600Z 35005KT CAVOK 13/02 Q1026",
      "taf": "TAF LRTR 081100Z 0812/0912 31008KT CAVOK"
    },
    {
      "icao": "LTAC",
      "alert": "OK",
      "vis_m": 9999,
      "fzfg": false,
      "metar_trigger": false,
      "taf_trigger": false,
      "metar": "METAR LTAC 081550Z 06007KT CAVOK 06/M07 Q1023 NOSIG RMK RWY21C 06007KT RWY03L 05007KT RWY21R 04009KT RWY03R 06006KT RWY21L 09005KT 040V100",
      "taf": "TAF LTAC 081040Z 0812/0912 03008KT 9999 SCT040"
    },
    {
      "icao": "LTFM",
      "alert": "OK",
      "vis_m": 9999,
      "fzfg": false,
      "metar_trigger": false,
      "taf_trigger": false,
      "metar": "METAR LTFM 081550Z 06014KT 9999 BKN028 07/02 Q1030 NOSIG RMK RWY17L 06011KT RWY34L 05011KT RWY16R 06012KT RWY36 06013KT RWY18 06010KT",
      "taf": "TAF LTFM 081040Z 0812/0918 05015KT 9999 BKN028"
    },
    {
      "icao": "LUKK",
      "alert": "OK",
      "vis_m": 9999,
      "fzfg": false,
      "metar_trigger": false,
      "taf_trigger": false,
      "metar": "METAR LUKK 081600Z 02004KT CAVOK 10/01 Q1032 NOSIG",
      "taf": "TAF LUKK 081116Z 0812/0912 VRB05KT CAVOK"
    },
    {
      "icao": "LWOH",
      "alert": "OK",
      "vis_m": null,
      "fzfg": false,
      "metar_trigger": false,
      "taf_trigger": false,
      "metar": "",
      "taf": "TAF LWOH 081445Z 0815/0915 VRB02KT 9999 SCT040 BKN090"
    },
    {
      "icao": "LWSK",
      "alert": "OK",
      "vis_m": 9999,
      "fzfg": false,
      "metar_trigger": false,
      "taf_trigger": false,
      "metar": "METAR LWSK 081550Z 30006KT 250V340 9999 SCT100 16/04 Q1024 NOSIG",
      "taf": "TAF LWSK 081445Z 0815/0915 VRB02KT 9999 SCT050 SCT100"
    },
    {
      "icao": "LYBE",
      "alert": "OK",
      "vis_m": 9999,
      "fzfg": false,
      "metar_trigger": false,
      "taf_trigger": false,
      "metar": "METAR LYBE 081600Z 08008KT CAVOK 16/00 Q1026 NOSIG",
      "taf": "TAF LYBE 081100Z 0812/0912 10008KT CAVOK TX19/0813Z TN06/0905Z"
    },
    {
      "icao": "LYNI",
      "alert": "OK",
      "vis_m": 9999,
      "fzfg": false,
      "metar_trigger": false,
      "taf_trigger": false,
      "metar": "METAR LYNI 081600Z 04010KT CAVOK 14/01 Q1025 NOSIG",
      "taf": "TAF LYNI 081100Z 0812/0912 05008KT CAVOK TX18/0813Z TN04/0905Z"
    },
    {
      "icao": "LYPG",
      "alert": "OK",
      "vis_m": 9999,
      "fzfg": false,
      "metar_trigger": false,
      "taf_trigger": false,
      "metar": "METAR LYPG 081600Z 18005KT 9999 SCT050 18/04 Q1023 NOSIG",
      "taf": "TAF LYPG 081100Z 0812/0912 17007KT 9999 SCT050 TX18/0813Z TN07/0905Z"
    },
    {
      "icao": "LZIB",
      "alert": "OK",
      "vis_m": 9999,
      "fzfg": false,
      "metar_trigger": false,
      "taf_trigger": false,
      "metar": "METAR LZIB 081600Z 13004KT CAVOK 14/M01 Q1026 NOSIG",
      "taf": "TAF LZIB 081115Z 0812/0912 07008KT CAVOK"
    },
    {
      "icao": "LZKZ",
      "alert": "OK",
      "vis_m": 9999,
      "fzfg": false,
      "metar_trigger": false,
      "taf_trigger": false,
      "metar": "METAR LZKZ 081600Z 07005KT CAVOK 13/M03 Q1028 NOSIG",
      "taf": "TAF LZKZ 081115Z 0812/0912 01010KT CAVOK"
    },
    {
      "icao": "LZTT",
      "alert": "OK",
      "vis_m": 9999,
      "fzfg": false,
      "metar_trigger": false,
      "taf_trigger": false,
      "metar": "METAR LZTT 081600Z 06003KT CAVOK 09/M05 Q1029 NOSIG",
      "taf": "TAF LZTT 081115Z 0812/0912 10008KT CAVOK"
    },
    {
      "icao": "OEJN",
      "alert": "OK",
      "vis_m": 9999,
      "fzfg": false,
      "metar_trigger": false,
      "taf_trigger": false,
      "metar": "METAR OEJN 081600Z 33014KT CAVOK 25/12 Q1012 NOSIG",
      "taf": "TAF OEJN 081100Z 0812/0918 30012KT CAVOK"
    },
    {
      "icao": "OEMA",
      "alert": "OK",
      "vis_m": 9999,
      "fzfg": false,
      "metar_trigger": false,
      "taf_trigger": false,
      "metar": "METAR OEMA 081600Z 28006KT CAVOK 26/M08 Q1014 NOSIG",
      "taf": "TAF OEMA 081100Z 0812/0918 27008KT CAVOK"
    },
    {
      "icao": "OJAI",
      "alert": "OK",
      "vis_m": 4500,
      "fzfg": false,
      "metar_trigger": false,
      "taf_trigger": false,
      "metar": "METAR OJAI 081600Z 28010KT 4500 HZ NSC 10/M03 Q1019 NOSIG",
      "taf": "TAF OJAI 081035Z 0812/0918 30010KT 5000 HZ FEW030"
    },
    {
      "icao": "OMAA",
      "alert": "OK",
      "vis_m": null,
      "fzfg": false,
      "metar_trigger": false,
      "taf_trigger": false,
      "metar": "",
      "taf": ""
    },
    {
      "icao": "OMDB",
      "alert": "OK",
      "vis_m": null,
      "fzfg": false,
      "metar_trigger": false,
      "taf_trigger": false,
      "metar": "",
      "taf": ""
    },
    {
      "icao": "UAAA",
      "alert": "OK",
      "vis_m": 2500,
      "fzfg": false,
      "metar_trigger": false,
      "taf_trigger": false,
      "metar": "METAR UAAA 081600Z 16001MPS 2500 BR FU SCT100 OVC200 07/02 Q1020 NOSIG",
      "taf": "TAF UAAA 081101Z 0812/0912 17003MPS 3100 BR FU SCT050 BKN100 TX15/0909Z TN02/0902Z"
    },
    {
      "icao": "UBBB",
      "alert": "OK",
      "vis_m": 9999,
      "fzfg": false,
      "metar_trigger": false,
      "taf_trigger": false,
      "metar": "METAR UBBB 081600Z 03006KT CAVOK 06/02 Q1026 NOSIG",
      "taf": "TAF UBBB 081055Z 0812/0912 04010KT 9999 BKN020 TX07/0812Z TN04/0901Z"
    },
    {
      "icao": "UDSG",
      "alert": "OK",
      "vis_m": 9999,
      "fzfg": false,
      "metar_trigger": false,
      "taf_trigger": false,
      "metar": "METAR UDSG 081600Z 35007KT 9999 SCT049 M03/M09 Q1020 NOSIG",
      "taf": "TAF UDSG 081058Z 0812/0912 VRB06KT 9999 BKN040"
    },
    {
      "icao": "UDYZ",
      "alert": "OK",
      "vis_m": 9999,
      "fzfg": false,
      "metar_trigger": false,
      "taf_trigger": false,
      "metar": "METAR UDYZ 081600Z 26003KT 9999 FEW046 04/M02 Q1020 NOSIG",
      "taf": "TAF UDYZ 081100Z 0812/0912 22006KT 9999 BKN030"
    },
    {
      "icao": "UGKO",
      "alert": "OK",
      "vis_m": 9999,
      "fzfg": false,
      "metar_trigger": false,
      "taf_trigger": false,
      "metar": "METAR UGKO 081600Z 25012KT 9999 SCT028 BKN049 06/02 Q1028 NOSIG",
      "taf": "TAF UGKO 081100Z 0812/0912 25010KT 9999 SCT024 BKN050 TX08/0812Z TN02/0903Z"
    }
  ]
}