{
  "ts_utc": "2026-02-06T05:06:26Z",
  "threshold_m": 150,
  "source": "stations_override.txt (ICAO list) + aviationweather.gov (METAR/TAF raw)",
  "station_count": 159,
  "stations": [
    {
      "icao": "BIKF",
      "alert": "OK",
      "vis_m": 9999,
      "fzfg": false,
      "metar_trigger": false,
      "taf_trigger": false,
      "metar": "METAR BIKF 060500Z 02011KT CAVOK M00/M03 Q1004",
      "taf": "TAF BIKF 060433Z 0606/0706 01012KT CAVOK TX04/0617Z TNM01/0705Z"
    },
    {
      "icao": "BKPR",
      "alert": "OK",
      "vis_m": 9999,
      "fzfg": false,
      "metar_trigger": false,
      "taf_trigger": false,
      "metar": "METAR BKPR 060500Z 15003KT 9999 FEW040 M00/M00 Q0998 NOSIG",
      "taf": "TAF BKPR 052330Z 0600/0624 24005KT 9999 SCT040"
    },
    {
      "icao": "EBCI",
      "alert": "OK",
      "vis_m": 9999,
      "fzfg": false,
      "metar_trigger": false,
      "taf_trigger": false,
      "metar": "METAR EBCI 060450Z 14005KT 100V170 9999 -RA SCT027 BKN036 06/04 Q0986 NOSIG",
      "taf": "TAF EBCI 052305Z 0600/0706 14006KT 9999 -RA FEW025 BKN040"
    },
    {
      "icao": "EDDB",
      "alert": "OK",
      "vis_m": 2300,
      "fzfg": false,
      "metar_trigger": false,
      "taf_trigger": false,
      "metar": "METAR EDDB 060450Z AUTO 07006KT 2300 -FZRA BR OVC003 M00/M01 Q0994 NOSIG",
      "taf": "TAF EDDB 052300Z 0600/0624 09008KT 4000 BR BKN004"
    },
    {
      "icao": "EDDH",
      "alert": "OK",
      "vis_m": 4300,
      "fzfg": false,
      "metar_trigger": false,
      "taf_trigger": false,
      "metar": "METAR EDDH 060450Z AUTO 07007KT 4300 BR OVC004 M01/M02 Q0994 NOSIG",
      "taf": "TAF EDDH 052300Z 0600/0706 09007KT 8000 OVC008"
    },
    {
      "icao": "EDDK",
      "alert": "OK",
      "vis_m": 9999,
      "fzfg": false,
      "metar_trigger": false,
      "taf_trigger": false,
      "metar": "METAR EDDK 060450Z AUTO 13007KT 090V160 9999 FEW009 02/01 Q0989 NOSIG",
      "taf": ""
    },
    {
      "icao": "EDDN",
      "alert": "OK",
      "vis_m": 9999,
      "fzfg": false,
      "metar_trigger": false,
      "taf_trigger": false,
      "metar": "METAR EDDN 060450Z AUTO 11005KT 9999 OVC007 01/M00 Q0990",
      "taf": "TAF EDDN 052300Z 0600/0624 11007KT 9999 OVC007"
    },
    {
      "icao": "EDDS",
      "alert": "OK",
      "vis_m": 9000,
      "fzfg": false,
      "metar_trigger": false,
      "taf_trigger": false,
      "metar": "METAR EDDS 060450Z AUTO 30003KT 9000 NSC M01/M02 Q0988",
      "taf": "TAF EDDS 052300Z 0600/0624 VRB02KT CAVOK"
    },
    {
      "icao": "EDFH",
      "alert": "OK",
      "vis_m": 400,
      "fzfg": true,
      "metar_trigger": false,
      "taf_trigger": false,
      "metar": "METAR EDFH 060450Z 14016KT 0400 R21/0450N FZFG VV/// M01/M01 Q0988",
      "taf": "TAF EDFH 052300Z 0600/0624 14013KT 0400 FG OVC002"
    },
    {
      "icao": "EDJA",
      "alert": "OK",
      "vis_m": 1300,
      "fzfg": true,
      "metar_trigger": false,
      "taf_trigger": false,
      "metar": "METAR EDJA 060450Z VRB01KT 1300 R24/P2000N BR BKN002 OVC004 M01/M02 Q0988",
      "taf": "TAF EDJA 060200Z 0603/0612 VRB03KT 0800 FZFG VV001"
    },
    {
      "icao": "EDLW",
      "alert": "OK",
      "vis_m": 9999,
      "fzfg": false,
      "metar_trigger": false,
      "taf_trigger": false,
      "metar": "METAR EDLW 060450Z 04003KT CAVOK M01/M02 Q0989",
      "taf": "TAF EDLW 060423Z 0604/0624 08004KT 8000 NSC"
    },
    {
      "icao": "EDNY",
      "alert": "OK",
      "vis_m": 8000,
      "fzfg": false,
      "metar_trigger": false,
      "taf_trigger": false,
      "metar": "METAR EDNY 060450Z AUTO 00000KT 8000 // FEW010/// OVC070/// 00/M01 Q0990",
      "taf": "TAF EDNY 060200Z 0603/0612 VRB02KT 7000 BKN045"
    },
    {
      "icao": "EDSB",
      "alert": "OK",
      "vis_m": 5000,
      "fzfg": false,
      "metar_trigger": false,
      "taf_trigger": false,
      "metar": "METAR EDSB 060450Z VRB02KT 5000 BR OVC006 01/M00 Q0990",
      "taf": ""
    },
    {
      "icao": "EETN",
      "alert": "OK",
      "vis_m": 9999,
      "fzfg": false,
      "metar_trigger": false,
      "taf_trigger": false,
      "metar": "METAR EETN 060450Z 08011KT 9999 OVC028 M12/M14 Q1013 NOSIG",
      "taf": "TAF EETN 052330Z 0600/0624 08010KT 9999 BKN020"
    },
    {
      "icao": "EFTU",
      "alert": "OK",
      "vis_m": 9999,
      "fzfg": false,
      "metar_trigger": false,
      "taf_trigger": false,
      "metar": "METAR EFTU 060450Z AUTO 05005KT CAVOK M20/M22 Q1015",
      "taf": "TAF EFTU 060226Z 0603/0703 06008KT CAVOK"
    },
    {
      "icao": "EGBB",
      "alert": "OK",
      "vis_m": 7000,
      "fzfg": false,
      "metar_trigger": false,
      "taf_trigger": false,
      "metar": "METAR EGBB 060450Z 07009KT 040V100 7000 -RA OVC004 05/04 Q0983",
      "taf": "TAF EGBB 052259Z 0600/0624 08009KT 9999 SCT006 BKN012"
    },
    {
      "icao": "EGGP",
      "alert": "OK",
      "vis_m": 9999,
      "fzfg": false,
      "metar_trigger": false,
      "taf_trigger": false,
      "metar": "METAR EGGP 060450Z AUTO 07015KT 9999 -RA FEW025/// OVC044/// 03/02 Q0984",
      "taf": "TAF EGGP 052259Z 0600/0624 08014KT 9999 BKN016"
    },
    {
      "icao": "EGGW",
      "alert": "OK",
      "vis_m": 3200,
      "fzfg": false,
      "metar_trigger": false,
      "taf_trigger": false,
      "metar": "METAR EGGW 060450Z AUTO 09009KT 3200 DZ OVC002/// //////TCU 07/07 Q0982 RERA",
      "taf": "TAF EGGW 052256Z 0600/0624 11010KT 6000 -RA SCT003 BKN006"
    },
    {
      "icao": "EGKK",
      "alert": "OK",
      "vis_m": 7000,
      "fzfg": false,
      "metar_trigger": false,
      "taf_trigger": false,
      "metar": "METAR EGKK 060450Z 10007KT 7000 -RADZ BKN008 09/09 Q0981",
      "taf": "TAF EGKK 052253Z 0600/0706 09006KT 9999 SCT007 BKN030"
    },
    {
      "icao": "EGNM",
      "alert": "OK",
      "vis_m": 2500,
      "fzfg": false,
      "metar_trigger": false,
      "taf_trigger": false,
      "metar": "METAR EGNM 060450Z 07007KT 020V090 2500 -RA BR OVC002 02/02 Q0987",
      "taf": ""
    },
    {
      "icao": "EGPD",
      "alert": "OK",
      "vis_m": 9999,
      "fzfg": false,
      "metar_trigger": false,
      "taf_trigger": false,
      "metar": "METAR EGPD 060450Z AUTO 08010KT 040V110 9999 -RA BKN013/// BKN020/// OVC033/// //////TCU 03/01 Q0996 TEMPO SHRA BKN008",
      "taf": "TAF EGPD 052255Z 0600/0624 09013KT 9999 BKN016"
    },
    {
      "icao": "EGPF",
      "alert": "OK",
      "vis_m": 9999,
      "fzfg": false,
      "metar_trigger": false,
      "taf_trigger": false,
      "metar": "METAR EGPF 060450Z AUTO 07017KT 9999 BKN018 OVC042 04/01 Q0991",
      "taf": "TAF EGPF 052258Z 0600/0624 08018G28KT 9999 SCT020 BKN025"
    },
    {
      "icao": "EHBK",
      "alert": "OK",
      "vis_m": 7000,
      "fzfg": false,
      "metar_trigger": false,
      "taf_trigger": false,
      "metar": "METAR EHBK 060455Z AUTO 10007KT 7000 DZ SCT034/// OVC042/// 04/03 Q0988 TEMPO 8000",
      "taf": "TAF EHBK 052322Z 0600/0706 10006KT 9999 OVC040"
    },
    {
      "icao": "EHEH",
      "alert": "OK",
      "vis_m": null,
      "fzfg": false,
      "metar_trigger": false,
      "taf_trigger": false,
      "metar": "",
      "taf": "TAF EHEH 051748Z 0518/0624 09007KT 9999 BKN025"
    },
    {
      "icao": "EKBI",
      "alert": "OK",
      "vis_m": 6000,
      "fzfg": false,
      "metar_trigger": false,
      "taf_trigger": false,
      "metar": "METAR EKBI 060450Z AUTO 06015KT 6000 -SN OVC009/// M01/M03 Q0997",
      "taf": ""
    },
    {
      "icao": "EKCH",
      "alert": "OK",
      "vis_m": 5000,
      "fzfg": false,
      "metar_trigger": false,
      "taf_trigger": false,
      "metar": "METAR EKCH 060450Z 08012KT 5000 -RASN FEW010 BKN012 00/M01 Q0999 TEMPO 2500 BKN008",
      "taf": "TAF EKCH 060227Z 0603/0703 07015KT 7000 BKN010"
    },
    {
      "icao": "ENAL",
      "alert": "OK",
      "vis_m": 9999,
      "fzfg": false,
      "metar_trigger": false,
      "taf_trigger": false,
      "metar": "METAR ENAL 060450Z COR 07004KT CAVOK M08/M12 Q1006",
      "taf": "TAF ENAL 060200Z 0603/0612 09008KT CAVOK"
    },
    {
      "icao": "ENBR",
      "alert": "OK",
      "vis_m": 9999,
      "fzfg": false,
      "metar_trigger": false,
      "taf_trigger": false,
      "metar": "METAR ENBR 060450Z 17002KT CAVOK M05/M13 Q1004 RMK WIND 1200FT 11012KT",
      "taf": "TAF ENBR 052300Z 0600/0624 04005KT CAVOK"
    },
    {
      "icao": "ENGM",
      "alert": "OK",
      "vis_m": 9999,
      "fzfg": false,
      "metar_trigger": false,
      "taf_trigger": false,
      "metar": "METAR ENGM 060450Z 01011KT 9999 -SN OVC018 M11/M15 Q1012 NOSIG",
      "taf": "TAF ENGM 052300Z 0600/0624 02010KT 9999 -SN BKN020"
    },
    {
      "icao": "ENHD",
      "alert": "OK",
      "vis_m": 9999,
      "fzfg": false,
      "metar_trigger": false,
      "taf_trigger": false,
      "metar": "METAR ENHD 060450Z AUTO VRB03KT 9999 NCD 01/M10 Q1003",
      "taf": "TAF ENHD 060200Z 0603/0612 06008KT CAVOK"
    },
    {
      "icao": "ENTC",
      "alert": "OK",
      "vis_m": 9999,
      "fzfg": false,
      "metar_trigger": false,
      "taf_trigger": false,
      "metar": "METAR ENTC 060450Z 22005KT 200V260 9999 VCSH FEW013 SCT019 BKN031 01/M00 Q1011 RERA RMK WIND 2600FT 32027KT",
      "taf": ""
    },
    {
      "icao": "ENTO",
      "alert": "OK",
      "vis_m": 9999,
      "fzfg": false,
      "metar_trigger": false,
      "taf_trigger": false,
      "metar": "METAR ENTO 060450Z 02017KT 9999 -SN OVC018 M08/M10 Q1010",
      "taf": "TAF ENTO 052300Z 0600/0624 02015KT 9999 -SN BKN018"
    },
    {
      "icao": "ENVA",
      "alert": "OK",
      "vis_m": 9999,
      "fzfg": false,
      "metar_trigger": false,
      "taf_trigger": false,
      "metar": "METAR ENVA 060450Z 12008KT CAVOK M13/M20 Q1014 RMK WIND 670FT 12008KT",
      "taf": "TAF ENVA 052300Z 0600/0624 11008KT CAVOK"
    },
    {
      "icao": "ENZV",
      "alert": "OK",
      "vis_m": 9999,
      "fzfg": false,
      "metar_trigger": false,
      "taf_trigger": false,
      "metar": "METAR ENZV 060450Z 19003KT 160V220 9999 FEW040 M02/M10 Q1003",
      "taf": "TAF ENZV 052300Z 0600/0624 08008KT CAVOK"
    },
    {
      "icao": "EPGD",
      "alert": "OK",
      "vis_m": 3500,
      "fzfg": false,
      "metar_trigger": false,
      "taf_trigger": false,
      "metar": "METAR EPGD 060500Z 09008KT 3500 BR OVC002 M03/M04 Q0999 REFZDZ",
      "taf": "TAF EPGD 052330Z 0600/0624 09008KT 6000 BKN009"
    },
    {
      "icao": "EPKK",
      "alert": "OK",
      "vis_m": 550,
      "fzfg": true,
      "metar_trigger": false,
      "taf_trigger": false,
      "metar": "METAR EPKK 060500Z 06006KT 0550 R25/1600D FZFG OVC001 M00/M01 Q0995",
      "taf": "TAF EPKK 060230Z 0603/0703 06008KT 0200 FG OVC001"
    },
    {
      "icao": "EPKT",
      "alert": "OK",
      "vis_m": 8000,
      "fzfg": false,
      "metar_trigger": false,
      "taf_trigger": false,
      "metar": "METAR EPKT 060500Z 08006KT 8000 -RA FEW012 OVC046 00/M00 Q0994 REFZRA",
      "taf": ""
    },
    {
      "icao": "EPLB",
      "alert": "OK",
      "vis_m": 4000,
      "fzfg": false,
      "metar_trigger": false,
      "taf_trigger": false,
      "metar": "METAR EPLB 060500Z 12009KT 4000 BR OVC002 01/01 Q0998",
      "taf": ""
    },
    {
      "icao": "EPMO",
      "alert": "OK",
      "vis_m": 5000,
      "fzfg": false,
      "metar_trigger": false,
      "taf_trigger": false,
      "metar": "METAR EPMO 060500Z 10007KT 5000 BR OVC004 M01/M01 Q0998",
      "taf": "TAF EPMO 052330Z 0600/0624 09012KT 7000 OVC005"
    },
    {
      "icao": "EPPO",
      "alert": "OK",
      "vis_m": 1700,
      "fzfg": false,
      "metar_trigger": false,
      "taf_trigger": false,
      "metar": "METAR EPPO 060500Z 09008KT 1700 BR OVC002 00/M00 Q0995",
      "taf": "TAF EPPO 052330Z 0600/0624 09008KT 2500 BR OVC006"
    },
    {
      "icao": "EPRA",
      "alert": "OK",
      "vis_m": 1500,
      "fzfg": false,
      "metar_trigger": false,
      "taf_trigger": false,
      "metar": "METAR EPRA 060500Z 11008KT 1500 BR OVC002 00/M00 Q0997",
      "taf": "TAF EPRA 060230Z 0603/0612 11008KT 1500 BR OVC003"
    },
    {
      "icao": "EPRZ",
      "alert": "OK",
      "vis_m": 4500,
      "fzfg": false,
      "metar_trigger": false,
      "taf_trigger": false,
      "metar": "METAR EPRZ 060500Z 09010KT 4500 -RA BR BKN002 01/01 Q0997",
      "taf": ""
    },
    {
      "icao": "EPSC",
      "alert": "OK",
      "vis_m": 5000,
      "fzfg": false,
      "metar_trigger": false,
      "taf_trigger": false,
      "metar": "METAR EPSC 060500Z 07004KT 050V110 5000 BR OVC007 M01/M02 Q0996",
      "taf": "TAF EPSC 052330Z 0600/0624 10006KT 4000 BR BKN007"
    },
    {
      "icao": "EPSY",
      "alert": "OK",
      "vis_m": 5000,
      "fzfg": false,
      "metar_trigger": false,
      "taf_trigger": false,
      "metar": "METAR EPSY 060500Z 10006KT 070V150 5000 BR OVC003 M02/M03 Q0999 REFZDZ",
      "taf": "TAF EPSY 060230Z 0603/0612 10008KT 5000 BR OVC003"
    },
    {
      "icao": "EPWA",
      "alert": "OK",
      "vis_m": 5000,
      "fzfg": false,
      "metar_trigger": false,
      "taf_trigger": false,
      "metar": "METAR EPWA 060500Z 10009KT 5000 BR OVC002 M00/M01 Q0998 TEMPO 3000 BR",
      "taf": "TAF EPWA 060230Z 0603/0703 10009KT 6000 OVC004"
    },
    {
      "icao": "EPWR",
      "alert": "OK",
      "vis_m": 3700,
      "fzfg": false,
      "metar_trigger": false,
      "taf_trigger": false,
      "metar": "METAR EPWR 060500Z 10007KT 3700 BR SCT006 BKN037 01/01 Q0994",
      "taf": "TAF EPWR 060230Z 0603/0703 10010KT 2000 BR BKN004 BKN012"
    },
    {
      "icao": "ESGG",
      "alert": "OK",
      "vis_m": 9999,
      "fzfg": false,
      "metar_trigger": false,
      "taf_trigger": false,
      "metar": "METAR ESGG 060450Z 05017KT 9999 OVC013 M03/M06 Q1002",
      "taf": "TAF ESGG 060230Z 0603/0703 06017KT 9999 -SN OVC008"
    },
    {
      "icao": "ESKN",
      "alert": "OK",
      "vis_m": 9999,
      "fzfg": false,
      "metar_trigger": false,
      "taf_trigger": false,
      "metar": "METAR ESKN 060450Z AUTO 03010KT 9999 OVC007/// M07/M08 Q1010",
      "taf": "TAF ESKN 060230Z 0603/0703 02010KT 9999 OVC009"
    },
    {
      "icao": "ESMS",
      "alert": "OK",
      "vis_m": 4000,
      "fzfg": false,
      "metar_trigger": false,
      "taf_trigger": false,
      "metar": "METAR ESMS 060450Z 09019KT 4000 -RASN BKN008 M00/M01 Q0998",
      "taf": "TAF ESMS 060227Z 0603/0703 08018KT 6000 -SNRA BKN010"
    },
    {
      "icao": "ESSA",
      "alert": "OK",
      "vis_m": 8000,
      "fzfg": false,
      "metar_trigger": false,
      "taf_trigger": false,
      "metar": "METAR ESSA 060450Z 04010KT 8000 -SN BKN005 M11/M13 Q1013 TEMPO BKN012",
      "taf": ""
    },
    {
      "icao": "EYKA",
      "alert": "OK",
      "vis_m": 4900,
      "fzfg": false,
      "metar_trigger": false,
      "taf_trigger": false,
      "metar": "METAR EYKA 060450Z 09007KT 4900 BR OVC007 M05/M06 Q1005",
      "taf": "TAF EYKA 052301Z 0600/0624 09009KT 6000 OVC010"
    },
    {
      "icao": "EYPA",
      "alert": "OK",
      "vis_m": 9999,
      "fzfg": false,
      "metar_trigger": false,
      "taf_trigger": false,
      "metar": "METAR EYPA 060450Z 09008KT 9999 OVC030 M05/M08 Q1004",
      "taf": "TAF EYPA 052301Z 0600/0624 10010KT 6000 OVC020"
    },
    {
      "icao": "EYVI",
      "alert": "OK",
      "vis_m": 9999,
      "fzfg": false,
      "metar_trigger": false,
      "taf_trigger": false,
      "metar": "METAR EYVI 060450Z 12008KT 9999 OVC006 M06/M07 Q1005 NOSIG",
      "taf": "TAF EYVI 052301Z 0600/0624 12010KT 8000 OVC005"
    },
    {
      "icao": "GCFV",
      "alert": "OK",
      "vis_m": 9999,
      "fzfg": false,
      "metar_trigger": false,
      "taf_trigger": false,
      "metar": "METAR GCFV 060500Z AUTO VRB02KT CAVOK 17/14 Q1017",
      "taf": "TAF GCFV 060200Z 0603/0703 33015KT 9999 BKN025 TX21/0614Z TN15/0606Z"
    },
    {
      "icao": "GCLP",
      "alert": "OK",
      "vis_m": 9999,
      "fzfg": false,
      "metar_trigger": false,
      "taf_trigger": false,
      "metar": "METAR GCLP 060500Z 34015KT 9999 FEW030 BKN050 20/10 Q1017 NOSIG",
      "taf": "TAF GCLP 060200Z 0603/0703 35016KT 9999 BKN025 TX22/0614Z TN15/0606Z"
    },
    {
      "icao": "GCTS",
      "alert": "OK",
      "vis_m": 9999,
      "fzfg": false,
      "metar_trigger": false,
      "taf_trigger": false,
      "metar": "METAR GCTS 060500Z 03003KT 9999 SCT030 18/13 Q1018 NOSIG",
      "taf": "TAF GCTS 060200Z 0603/0703 VRB05KT 9999 BKN025 TX24/0614Z TN16/0606Z"
    },
    {
      "icao": "GMAD",
      "alert": "OK",
      "vis_m": 5000,
      "fzfg": false,
      "metar_trigger": false,
      "taf_trigger": false,
      "metar": "METAR GMAD 060500Z 00000KT 5000 -RA SCT004 BKN020 BKN026 15/13 Q1015 TEMPO 3000 RA",
      "taf": "TAF GMAD 052300Z 0600/0706 22006KT 8000 BKN016"
    },
    {
      "icao": "GMMN",
      "alert": "OK",
      "vis_m": 9999,
      "fzfg": false,
      "metar_trigger": false,
      "taf_trigger": false,
      "metar": "METAR GMMN 060500Z 22009KT 9999 OVC010 13/11 Q1013 NOSIG",
      "taf": ""
    },
    {
      "icao": "GMMX",
      "alert": "OK",
      "vis_m": 6000,
      "fzfg": false,
      "metar_trigger": false,
      "taf_trigger": false,
      "metar": "METAR GMMX 060500Z 28009KT 6000 SCT016 BKN026 14/13 Q1014 TEMPO 3000 RA BKN013",
      "taf": "TAF GMMX 052300Z 0600/0706 26006KT 8000 BKN023"
    },
    {
      "icao": "HEGN",
      "alert": "OK",
      "vis_m": 9999,
      "fzfg": false,
      "metar_trigger": false,
      "taf_trigger": false,
      "metar": "METAR HEGN 060400Z 00000KT 9999 FEW025 17/00 Q1012 NOSIG",
      "taf": "TAF HEGN 060500Z 0606/0712 13008KT CAVOK"
    },
    {
      "icao": "HEMA",
      "alert": "OK",
      "vis_m": 9999,
      "fzfg": false,
      "metar_trigger": false,
      "taf_trigger": false,
      "metar": "METAR HEMA 060400Z 33003KT CAVOK 19/M01 Q1012 NOSIG",
      "taf": "TAF HEMA 060500Z 0606/0712 25008KT CAVOK"
    },
    {
      "icao": "HESH",
      "alert": "OK",
      "vis_m": 9999,
      "fzfg": false,
      "metar_trigger": false,
      "taf_trigger": false,
      "metar": "METAR HESH 060400Z 32005KT CAVOK 18/07 Q1012 NOSIG",
      "taf": "TAF HESH 060500Z 0606/0712 12008KT CAVOK"
    },
    {
      "icao": "HESX",
      "alert": "OK",
      "vis_m": 9999,
      "fzfg": false,
      "metar_trigger": false,
      "taf_trigger": false,
      "metar": "METAR HESX 060400Z 22008KT CAVOK 17/00 Q1010 NOSIG",
      "taf": "TAF HESX 052300Z 0600/0706 19009KT 9999 SCT025 BKN090"
    },
    {
      "icao": "LATI",
      "alert": "OK",
      "vis_m": 9999,
      "fzfg": false,
      "metar_trigger": false,
      "taf_trigger": false,
      "metar": "METAR LATI 060450Z 15005KT 9999 -RA SCT060 BKN140 08/06 Q0999 NOSIG",
      "taf": "TAF LATI 060500Z 0606/0706 VRB05KT 9999 SCT040 BKN080 TX15/0613Z TN10/0705Z"
    },
    {
      "icao": "LBPD",
      "alert": "OK",
      "vis_m": 9999,
      "fzfg": false,
      "metar_trigger": false,
      "taf_trigger": false,
      "metar": "METAR LBPD 060500Z AUTO 00000KT 9999 NCD 01/01 Q1000 TEMPO 3000 BR",
      "taf": "TAF LBPD 052300Z 0600/0624 VRB04KT 5000 BR SCT005 BKN015"
    },
    {
      "icao": "LBSF",
      "alert": "OK",
      "vis_m": 5000,
      "fzfg": false,
      "metar_trigger": false,
      "taf_trigger": false,
      "metar": "METAR LBSF 060500Z 10004KT 5000 BR OVC010 03/03 Q1000 TEMPO 1500 BR SCT003",
      "taf": ""
    },
    {
      "icao": "LBWN",
      "alert": "OK",
      "vis_m": 3200,
      "fzfg": false,
      "metar_trigger": false,
      "taf_trigger": false,
      "metar": "METAR LBWN 060500Z AUTO 30002KT 3200 DZ SCT010/// BKN014/// OVC034/// 08/08 Q0999 TEMPO 2000 DZ BR",
      "taf": "TAF LBWN 052300Z 0600/0624 10010KT 6000 RA BKN020 OVC040"
    },
    {
      "icao": "LCLK",
      "alert": "OK",
      "vis_m": 9999,
      "fzfg": false,
      "metar_trigger": false,
      "taf_trigger": false,
      "metar": "METAR LCLK 060500Z 33004KT 240V040 9999 -RA FEW017 14/13 Q1009 NOSIG",
      "taf": "TAF LCLK 052330Z 0600/0700 06008KT CAVOK"
    },
    {
      "icao": "LCPH",
      "alert": "OK",
      "vis_m": 9000,
      "fzfg": false,
      "metar_trigger": false,
      "taf_trigger": false,
      "metar": "METAR LCPH 060500Z 15009KT 100V160 9000 -SHRA FEW020 SCT080 17/13 Q1008 BECMG 8000 RA",
      "taf": "TAF LCPH 052330Z 0600/0700 12012KT 9999 FEW025"
    },
    {
      "icao": "LEAL",
      "alert": "OK",
      "vis_m": 9999,
      "fzfg": false,
      "metar_trigger": false,
      "taf_trigger": false,
      "metar": "METAR LEAL 060500Z 26005KT CAVOK 12/06 Q1004 NOSIG",
      "taf": "TAF LEAL 052300Z 0600/0624 25010KT CAVOK TX18/0615Z TN08/0606Z"
    },
    {
      "icao": "LEBB",
      "alert": "OK",
      "vis_m": 9999,
      "fzfg": false,
      "metar_trigger": false,
      "taf_trigger": false,
      "metar": "METAR LEBB 060500Z 23010G22KT 150V280 CAVOK 13/05 Q0995 NOSIG",
      "taf": "TAF LEBB 052300Z 0600/0624 22009KT 9999 FEW040 TX17/0613Z TN11/0606Z"
    },
    {
      "icao": "LEBL",
      "alert": "OK",
      "vis_m": 9999,
      "fzfg": false,
      "metar_trigger": false,
      "taf_trigger": false,
      "metar": "METAR LEBL 060500Z 28006KT 240V340 CAVOK 13/05 Q0996 NOSIG",
      "taf": ""
    },
    {
      "icao": "LECH",
      "alert": "OK",
      "vis_m": 9000,
      "fzfg": false,
      "metar_trigger": false,
      "taf_trigger": false,
      "metar": "METAR LECH 060500Z AUTO 31004KT 230V020 9000 NCD 13/M00 Q0998",
      "taf": ""
    },
    {
      "icao": "LEMD",
      "alert": "OK",
      "vis_m": 9999,
      "fzfg": false,
      "metar_trigger": false,
      "taf_trigger": false,
      "metar": "METAR LEMD 060500Z 23015KT 9999 FEW040 07/06 Q1001 NOSIG",
      "taf": "TAF LEMD 052300Z 0600/0706 22010KT 9999 SCT020 TX10/0615Z TN06/0607Z"
    },
    {
      "icao": "LEMG",
      "alert": "OK",
      "vis_m": 9999,
      "fzfg": false,
      "metar_trigger": false,
      "taf_trigger": false,
      "metar": "METAR LEMG 060500Z 29001KT 9999 FEW075 10/08 Q1007 NOSIG",
      "taf": "TAF LEMG 052300Z 0600/0624 VRB03KT 9999 FEW030 TX20/0614Z TN13/0607Z"
    },
    {
      "icao": "LEVC",
      "alert": "OK",
      "vis_m": 9999,
      "fzfg": false,
      "metar_trigger": false,
      "taf_trigger": false,
      "metar": "METAR LEVC 060500Z 29015KT CAVOK 13/06 Q1000 NOSIG",
      "taf": "TAF LEVC 052300Z 0600/0624 27015KT 9999 FEW020 TX20/0614Z TN11/0606Z"
    },
    {
      "icao": "LEXJ",
      "alert": "OK",
      "vis_m": 9999,
      "fzfg": false,
      "metar_trigger": false,
      "taf_trigger": false,
      "metar": "METAR LEXJ 060500Z 25005KT 180V290 CAVOK 11/04 Q0994",
      "taf": "TAF LEXJ 060200Z 0603/0703 20009KT 9999 SCT070 TX15/0611Z TN09/0607Z"
    },
    {
      "icao": "LEZG",
      "alert": "OK",
      "vis_m": 9999,
      "fzfg": false,
      "metar_trigger": false,
      "taf_trigger": false,
      "metar": "METAR LEZG 060500Z 25014KT 9999 FEW050 11/05 Q0998 NOSIG",
      "taf": "TAF LEZG 052300Z 0600/0624 25010KT 9999 FEW050 TX16/0615Z TN08/0606Z"
    },
    {
      "icao": "LEZL",
      "alert": "OK",
      "vis_m": 8000,
      "fzfg": false,
      "metar_trigger": false,
      "taf_trigger": false,
      "metar": "METAR LEZL 060500Z 22007KT 8000 FEW020 13/12 Q1006 NOSIG",
      "taf": "TAF LEZL 060200Z 0603/0703 22009KT 9999 FEW030 TX18/0615Z TN12/0607Z"
    },
    {
      "icao": "LFBD",
      "alert": "OK",
      "vis_m": 9999,
      "fzfg": false,
      "metar_trigger": false,
      "taf_trigger": false,
      "metar": "METAR LFBD 060500Z AUTO 23009KT 9999 FEW031/// SCT038/// BKN048/// ///TCU 11/08 Q0993 TEMPO 24015G25KT 3000 SHRA BKN025TCU SCT030CB",
      "taf": "TAF LFBD 052300Z 0600/0706 22010KT 9999 BKN040 TX15/0614Z TN08/0624Z"
    },
    {
      "icao": "LFLL",
      "alert": "OK",
      "vis_m": 9999,
      "fzfg": false,
      "metar_trigger": false,
      "taf_trigger": false,
      "metar": "METAR LFLL 060500Z 16006KT 9999 -RA BKN045 08/07 Q0991 NOSIG",
      "taf": "TAF LFLL 052300Z 0600/0706 19008KT 9999 BKN045"
    },
    {
      "icao": "LFLS",
      "alert": "OK",
      "vis_m": 9999,
      "fzfg": false,
      "metar_trigger": false,
      "taf_trigger": false,
      "metar": "METAR LFLS 060500Z AUTO 05006KT 9999 -DZ BKN047 BKN060 OVC074 07/06 Q0992 NOSIG",
      "taf": "TAF LFLS 060200Z 0603/0703 07007KT 9999 BKN055"
    },
    {
      "icao": "LFMN",
      "alert": "OK",
      "vis_m": 9999,
      "fzfg": false,
      "metar_trigger": false,
      "taf_trigger": false,
      "metar": "METAR LFMN 060500Z 30007KT 260V330 CAVOK 09/05 Q0989 NOSIG",
      "taf": "TAF LFMN 060200Z 0603/0709 33010KT 9999 BKN070"
    },
    {
      "icao": "LFOB",
      "alert": "OK",
      "vis_m": 9000,
      "fzfg": false,
      "metar_trigger": false,
      "taf_trigger": false,
      "metar": "METAR LFOB 060500Z AUTO 16004KT 140V200 9000 BKN005 BKN010 OVC024 09/09 Q0984 TEMPO 3000 RADZ BR",
      "taf": "TAF LFOB 052300Z 0600/0624 12010KT 9999 FEW010 BKN045"
    },
    {
      "icao": "LFPO",
      "alert": "OK",
      "vis_m": 9999,
      "fzfg": false,
      "metar_trigger": false,
      "taf_trigger": false,
      "metar": "METAR LFPO 060500Z AUTO 20007KT 9999 OVC009 10/09 Q0985 TEMPO 4000 -RA",
      "taf": "TAF LFPO 052300Z 0600/0706 16005KT 9999 SCT012 BKN020"
    },
    {
      "icao": "LFSB",
      "alert": "OK",
      "vis_m": 5000,
      "fzfg": false,
      "metar_trigger": false,
      "taf_trigger": false,
      "metar": "METAR LFSB 060500Z AUTO 18004KT 5000 BR BKN036 BKN042 BKN049 03/03 Q0990 NOSIG",
      "taf": ""
    },
    {
      "icao": "LGAV",
      "alert": "OK",
      "vis_m": 9999,
      "fzfg": false,
      "metar_trigger": false,
      "taf_trigger": false,
      "metar": "METAR LGAV 060450Z 20008KT 150V220 9999 FEW025 11/08 Q1003 NOSIG",
      "taf": "TAF LGAV 052300Z 0600/0624 22005KT 9999 FEW025"
    },
    {
      "icao": "LGTS",
      "alert": "OK",
      "vis_m": 9999,
      "fzfg": false,
      "metar_trigger": false,
      "taf_trigger": false,
      "metar": "METAR LGTS 060450Z VRB02KT 9999 FEW008 05/04 Q1000 NOSIG",
      "taf": "TAF LGTS 052300Z 0600/0624 VRB03KT 9999 FEW025"
    },
    {
      "icao": "LHBP",
      "alert": "OK",
      "vis_m": 6000,
      "fzfg": false,
      "metar_trigger": false,
      "taf_trigger": false,
      "metar": "METAR LHBP 060500Z 10005KT 6000 BKN007 OVC110 05/04 Q0995 BECMG 4000 BR",
      "taf": "TAF LHBP 052315Z 0600/0624 09007KT 9999 SCT020 BKN060"
    },
    {
      "icao": "LHDC",
      "alert": "OK",
      "vis_m": 4400,
      "fzfg": false,
      "metar_trigger": false,
      "taf_trigger": false,
      "metar": "METAR LHDC 060445Z AUTO VRB01KT 4400 BR FEW041 BKN072 03/03 Q0997 NOSIG",
      "taf": ""
    },
    {
      "icao": "LIBD",
      "alert": "OK",
      "vis_m": 9999,
      "fzfg": false,
      "metar_trigger": false,
      "taf_trigger": false,
      "metar": "METAR LIBD 060450Z 14009KT CAVOK 11/09 Q0994",
      "taf": "TAF LIBD 052300Z 0600/0624 VRB05KT CAVOK"
    },
    {
      "icao": "LIBG",
      "alert": "OK",
      "vis_m": null,
      "fzfg": false,
      "metar_trigger": false,
      "taf_trigger": false,
      "metar": "",
      "taf": ""
    },
    {
      "icao": "LIBP",
      "alert": "OK",
      "vis_m": 8000,
      "fzfg": false,
      "metar_trigger": false,
      "taf_trigger": false,
      "metar": "METAR LIBP 060450Z AUTO 16005KT 110V200 8000 +RA FEW032/// OVC058/// 10/10 Q0991",
      "taf": "TAF LIBP 052300Z 0600/0624 VRB05KT 9999 BKN030"
    },
    {
      "icao": "LIBR",
      "alert": "OK",
      "vis_m": 9999,
      "fzfg": false,
      "metar_trigger": false,
      "taf_trigger": false,
      "metar": "METAR LIBR 060450Z 17010KT CAVOK 12/10 Q0997",
      "taf": "TAF LIBR 052300Z 0600/0624 20014KT CAVOK"
    },
    {
      "icao": "LICA",
      "alert": "OK",
      "vis_m": 9999,
      "fzfg": false,
      "metar_trigger": false,
      "taf_trigger": false,
      "metar": "METAR LICA 060450Z AUTO 08004KT 9999 OVC021/// 11/11 Q0999 RERA",
      "taf": "TAF LICA 052300Z 0600/0624 VRB05KT 9999 SCT040"
    },
    {
      "icao": "LICC",
      "alert": "OK",
      "vis_m": 9999,
      "fzfg": false,
      "metar_trigger": false,
      "taf_trigger": false,
      "metar": "METAR LICC 060450Z 27008KT 9999 FEW030 SCT060 14/11 Q1002",
      "taf": "TAF LICC 052300Z 0600/0624 25012KT 9999 FEW050"
    },
    {
      "icao": "LICJ",
      "alert": "OK",
      "vis_m": 9999,
      "fzfg": false,
      "metar_trigger": false,
      "taf_trigger": false,
      "metar": "METAR LICJ 060450Z 21019KT 9999 SCT050 17/12 Q0999",
      "taf": "TAF LICJ 052300Z 0600/0624 19018G35KT 9999 FEW030"
    },
    {
      "icao": "LIMC",
      "alert": "OK",
      "vis_m": 9999,
      "fzfg": false,
      "metar_trigger": false,
      "taf_trigger": false,
      "metar": "METAR LIMC 060450Z 34010KT 9999 -RA BKN030 06/06 Q0991 NOSIG",
      "taf": "TAF LIMC 052300Z 0600/0706 35010KT 6000 RA BKN030"
    },
    {
      "icao": "LIME",
      "alert": "OK",
      "vis_m": 9999,
      "fzfg": false,
      "metar_trigger": false,
      "taf_trigger": false,
      "metar": "METAR LIME 060450Z AUTO 29006KT 9999 -RA OVC036/// 07/07 Q0991",
      "taf": "TAF LIME 052300Z 0600/0624 VRB05KT 6000 RA BKN030"
    },
    {
      "icao": "LIMF",
      "alert": "OK",
      "vis_m": 8000,
      "fzfg": false,
      "metar_trigger": false,
      "taf_trigger": false,
      "metar": "METAR LIMF 060450Z 30006KT 8000 BKN060 05/03 Q0992",
      "taf": "TAF LIMF 052300Z 0600/0624 VRB05KT 3000 RA BKN010"
    },
    {
      "icao": "LIMJ",
      "alert": "OK",
      "vis_m": 9999,
      "fzfg": false,
      "metar_trigger": false,
      "taf_trigger": false,
      "metar": "METAR LIMJ 060450Z AUTO 31011KT 280V350 9999 -DZ SCT039/// BKN088/// 10/05 Q0988 REDZ",
      "taf": "TAF LIMJ 052300Z 0600/0624 02016KT 4000 RA SCT020"
    },
    {
      "icao": "LIPE",
      "alert": "OK",
      "vis_m": 8000,
      "fzfg": false,
      "metar_trigger": false,
      "taf_trigger": false,
      "metar": "METAR LIPE 060450Z 07007KT 8000 -DZ FEW005 BKN050 08/08 Q0988",
      "taf": "TAF LIPE 052300Z 0600/0624 27007KT 8000 BKN020"
    },
    {
      "icao": "LIPH",
      "alert": "OK",
      "vis_m": 9999,
      "fzfg": false,
      "metar_trigger": false,
      "taf_trigger": false,
      "metar": "METAR LIPH 060450Z AUTO 04006KT 9999 -DZ OVC077/// 07/07 Q0991",
      "taf": "TAF LIPH 052300Z 0600/0624 04009KT 8000 BKN040"
    },
    {
      "icao": "LIPQ",
      "alert": "OK",
      "vis_m": 9999,
      "fzfg": false,
      "metar_trigger": false,
      "taf_trigger": false,
      "metar": "METAR LIPQ 060450Z AUTO 05003KT 360V100 9999 RA OVC022/// 08/08 Q0991",
      "taf": "TAF LIPQ 052300Z 0600/0624 03005KT 9999 BKN040"
    },
    {
      "icao": "LIPR",
      "alert": "OK",
      "vis_m": 9999,
      "fzfg": false,
      "metar_trigger": false,
      "taf_trigger": false,
      "metar": "METAR LIPR 060450Z AUTO 14005KT 110V170 9999 -RA OVC046/// 09/08 Q0989",
      "taf": "TAF LIPR 052300Z 0600/0624 15010KT 9999 BKN040"
    },
    {
      "icao": "LIPX",
      "alert": "OK",
      "vis_m": 9999,
      "fzfg": false,
      "metar_trigger": false,
      "taf_trigger": false,
      "metar": "METAR LIPX 060450Z 07009KT 9999 -RA BKN055 09/07 Q0990",
      "taf": "TAF LIPX 052300Z 0600/0624 08012KT 6000 RA BKN030"
    },
    {
      "icao": "LIPY",
      "alert": "OK",
      "vis_m": 9999,
      "fzfg": false,
      "metar_trigger": false,
      "taf_trigger": false,
      "metar": "METAR LIPY 060450Z AUTO 18004KT 150V210 9999 RA OVC055/// 10/08 Q0990",
      "taf": "TAF LIPY 052300Z 0600/0624 15010KT 9999 BKN020"
    },
    {
      "icao": "LIPZ",
      "alert": "OK",
      "vis_m": 9999,
      "fzfg": false,
      "metar_trigger": false,
      "taf_trigger": false,
      "metar": "METAR LIPZ 060450Z 04011KT 9999 -RA SCT010 BKN050 08/07 Q0991 NOSIG",
      "taf": "TAF LIPZ 052300Z 0600/0706 05012KT 9999 BKN030 BKN050"
    },
    {
      "icao": "LIRF",
      "alert": "OK",
      "vis_m": 9000,
      "fzfg": false,
      "metar_trigger": false,
      "taf_trigger": false,
      "metar": "METAR LIRF 060450Z 24016G26KT 9000 FEW035 15/11 Q0990 NOSIG",
      "taf": ""
    },
    {
      "icao": "LIRN",
      "alert": "OK",
      "vis_m": 7000,
      "fzfg": false,
      "metar_trigger": false,
      "taf_trigger": false,
      "metar": "METAR LIRN 060450Z 23016KT 7000 BKN015 16/13 Q0992 NOSIG",
      "taf": "TAF LIRN 052300Z 0600/0624 VRB05KT 9999 SCT040"
    },
    {
      "icao": "LIRP",
      "alert": "OK",
      "vis_m": 9999,
      "fzfg": false,
      "metar_trigger": false,
      "taf_trigger": false,
      "metar": "METAR LIRP 060445Z 22008KT 9999 SCT015 SCT025 BKN040 11/11 Q0987 NOSIG",
      "taf": "TAF LIRP 052300Z 0600/0624 12010KT 8000 RA SCT025 BKN040"
    },
    {
      "icao": "LIRZ",
      "alert": "OK",
      "vis_m": 9999,
      "fzfg": false,
      "metar_trigger": false,
      "taf_trigger": false,
      "metar": "METAR LIRZ 060450Z AUTO VRB01KT 9999 BKN031/// BKN041/// BKN072/// 09/08 Q0989",
      "taf": ""
    },
    {
      "icao": "LJLJ",
      "alert": "OK",
      "vis_m": 6000,
      "fzfg": false,
      "metar_trigger": false,
      "taf_trigger": false,
      "metar": "METAR LJLJ 060500Z VRB02KT 6000 -RA FEW002 BKN035 03/03 Q0992 NOSIG",
      "taf": "TAF LJLJ 060500Z 0606/0706 VRB02KT 6000 FEW002 BKN030"
    },
    {
      "icao": "LKMT",
      "alert": "OK",
      "vis_m": 1400,
      "fzfg": false,
      "metar_trigger": false,
      "taf_trigger": false,
      "metar": "METAR LKMT 060500Z 02002KT 1400 R22/P2000N R04/P2000N BR BKN035 01/01 Q0994 NOSIG",
      "taf": "TAF LKMT 052300Z 0600/0624 VRB02KT 1600 BR OVC035"
    },
    {
      "icao": "LKPR",
      "alert": "OK",
      "vis_m": 3500,
      "fzfg": false,
      "metar_trigger": false,
      "taf_trigger": false,
      "metar": "METAR LKPR 060500Z 07003KT 3500 -DZ BR FEW003 BKN005 OVC010 02/02 Q0991 BECMG 2500 BR BKN004",
      "taf": "TAF LKPR 060200Z 0603/0709 16004KT 6000 SCT003 OVC008"
    },
    {
      "icao": "LLBG",
      "alert": "OK",
      "vis_m": 9999,
      "fzfg": false,
      "metar_trigger": false,
      "taf_trigger": false,
      "metar": "METAR LLBG 060450Z VRB02KT CAVOK 15/06 Q1011 NOSIG RMK BKN120",
      "taf": "TAF LLBG 052304Z 0600/0624 VRB03KT CAVOK"
    },
    {
      "icao": "LMML",
      "alert": "OK",
      "vis_m": 9000,
      "fzfg": false,
      "metar_trigger": false,
      "taf_trigger": false,
      "metar": "METAR LMML 060445Z 21014KT 9000 NSC 16/14 Q1004 NOSIG",
      "taf": "TAF LMML 052300Z 0600/0624 20009KT 9999 FEW013"
    },
    {
      "icao": "LOWW",
      "alert": "OK",
      "vis_m": 9000,
      "fzfg": false,
      "metar_trigger": false,
      "taf_trigger": false,
      "metar": "METAR LOWW 060450Z 15013KT 9000 FEW006 BKN008 04/03 Q0991 NOSIG",
      "taf": "TAF LOWW 060215Z 0603/0709 14010KT 5000 BR BKN012 TX05/0709Z TN03/0620Z"
    },
    {
      "icao": "LPFR",
      "alert": "OK",
      "vis_m": 9999,
      "fzfg": false,
      "metar_trigger": false,
      "taf_trigger": false,
      "metar": "METAR LPFR 060500Z 24011KT 9999 FEW020 FEW022CB 14/11 Q1005",
      "taf": "TAF LPFR 052300Z 0600/0624 26015KT 9999 SCT035"
    },
    {
      "icao": "LPMA",
      "alert": "OK",
      "vis_m": 9999,
      "fzfg": false,
      "metar_trigger": false,
      "taf_trigger": false,
      "metar": "METAR LPMA 060500Z 26005KT 220V300 9999 FEW015 15/08 Q1015",
      "taf": "TAF LPMA 052300Z 0600/0624 VRB05KT 9999 SCT016"
    },
    {
      "icao": "LPPR",
      "alert": "OK",
      "vis_m": 9999,
      "fzfg": false,
      "metar_trigger": false,
      "taf_trigger": false,
      "metar": "METAR LPPR 060500Z 21007KT 180V240 9999 FEW026 12/08 Q0998",
      "taf": "TAF LPPR 052300Z 0600/0624 24015KT 9999 SCT025"
    },
    {
      "icao": "LPPS",
      "alert": "OK",
      "vis_m": 9999,
      "fzfg": false,
      "metar_trigger": false,
      "taf_trigger": false,
      "metar": "METAR LPPS 060500Z 29021KT 9999 SCT014 SCT030 15/10 Q1015",
      "taf": "TAF LPPS 052300Z 0600/0706 27015KT 9999 SCT015 SCT030"
    },
    {
      "icao": "LPPT",
      "alert": "OK",
      "vis_m": 9999,
      "fzfg": false,
      "metar_trigger": false,
      "taf_trigger": false,
      "metar": "METAR LPPT 060500Z 28004KT 240V330 9999 FEW018 FEW025CB SCT040 11/09 Q1002 RESHRA",
      "taf": "TAF LPPT 052300Z 0600/0706 25012KT 9999 SCT025"
    },
    {
      "icao": "LQBK",
      "alert": "OK",
      "vis_m": 400,
      "fzfg": false,
      "metar_trigger": false,
      "taf_trigger": false,
      "metar": "METAR LQBK 060500Z VRB02KT 0400 R16/0400N FG BKN002 03/03 Q0994 NOSIG",
      "taf": "TAF LQBK 060500Z 0606/0706 16005KT 7000 SCT007 TX08/0613Z TN02/0606Z"
    },
    {
      "icao": "LQSA",
      "alert": "OK",
      "vis_m": 5000,
      "fzfg": false,
      "metar_trigger": false,
      "taf_trigger": false,
      "metar": "METAR LQSA 060500Z VRB02KT 5000 BR FEW050 01/01 Q0995 NOSIG",
      "taf": "TAF LQSA 060500Z 0606/0706 VRB02KT 9999 BKN050 TX09/0613Z TN01/0606Z"
    },
    {
      "icao": "LQTZ",
      "alert": "OK",
      "vis_m": 1200,
      "fzfg": false,
      "metar_trigger": false,
      "taf_trigger": false,
      "metar": "METAR LQTZ 060500Z VRB02KT 1200 R09/0500N BR FEW001 M00/M00 Q0995",
      "taf": "TAF LQTZ 060500Z 0606/0706 VRB02KT 7000 SCT050 TX10/0613Z TN00/0606Z"
    },
    {
      "icao": "LRBC",
      "alert": "OK",
      "vis_m": 7000,
      "fzfg": false,
      "metar_trigger": false,
      "taf_trigger": false,
      "metar": "METAR LRBC 060500Z 17005KT 7000 -RA OVC005 01/01 Q1002",
      "taf": ""
    },
    {
      "icao": "LRBS",
      "alert": "OK",
      "vis_m": 1000,
      "fzfg": false,
      "metar_trigger": false,
      "taf_trigger": false,
      "metar": "METAR LRBS 060500Z COR 25002KT 1000 R07/2000N -DZ BR OVC002 02/02 Q1000 NOSIG",
      "taf": ""
    },
    {
      "icao": "LRBV",
      "alert": "OK",
      "vis_m": 9999,
      "fzfg": false,
      "metar_trigger": false,
      "taf_trigger": false,
      "metar": "METAR LRBV 060500Z 25002KT 9999 -RADZ OVC055 03/02 Q0998",
      "taf": "TAF LRBV 060200Z 0603/0612 VRB04KT 9999 BKN045"
    },
    {
      "icao": "LRCL",
      "alert": "OK",
      "vis_m": 9999,
      "fzfg": false,
      "metar_trigger": false,
      "taf_trigger": false,
      "metar": "METAR LRCL 060500Z 08007KT 9999 FEW060 03/02 Q0997",
      "taf": "TAF LRCL 060200Z 0603/0612 VRB04KT 9999 BKN045"
    },
    {
      "icao": "LRCV",
      "alert": "OK",
      "vis_m": 400,
      "fzfg": false,
      "metar_trigger": false,
      "taf_trigger": false,
      "metar": "METAR LRCV 060500Z 28003KT 0400 R26/1000U FG VV004 02/02 Q1000",
      "taf": "TAF LRCV 060200Z 0603/0612 VRB04KT 0350 FG VV001"
    },
    {
      "icao": "LRIA",
      "alert": "OK",
      "vis_m": 4500,
      "fzfg": false,
      "metar_trigger": false,
      "taf_trigger": false,
      "metar": "METAR LRIA 060500Z COR 11013KT 4500 -RADZ OVC001 M00/M01 Q1003",
      "taf": ""
    },
    {
      "icao": "LROP",
      "alert": "OK",
      "vis_m": 1600,
      "fzfg": false,
      "metar_trigger": false,
      "taf_trigger": false,
      "metar": "METAR LROP 060500Z 25004KT 1600 -DZ BR OVC002 03/03 Q1000 TEMPO 0800 -DZ FG",
      "taf": "TAF LROP 052300Z 0600/0624 08010KT 5000 -RA BR OVC002"
    },
    {
      "icao": "LRSB",
      "alert": "OK",
      "vis_m": 150,
      "fzfg": false,
      "metar_trigger": false,
      "taf_trigger": false,
      "metar": "METAR LRSB 060500Z VRB01KT 0150 R27/0325N FG FEW002 02/02 Q0997",
      "taf": ""
    },
    {
      "icao": "LRSM",
      "alert": "OK",
      "vis_m": 9999,
      "fzfg": false,
      "metar_trigger": false,
      "taf_trigger": false,
      "metar": "METAR LRSM 060500Z 13002KT CAVOK 07/04 Q0997",
      "taf": ""
    },
    {
      "icao": "LRSV",
      "alert": "OK",
      "vis_m": 300,
      "fzfg": false,
      "metar_trigger": false,
      "taf_trigger": false,
      "metar": "METAR LRSV 060500Z 12008KT 0300 R34/0500N -SG FG VV001 00/00 Q1000",
      "taf": "TAF LRSV 060200Z 0603/0612 12012KT 0800 -DZ FG OVC002"
    },
    {
      "icao": "LRTM",
      "alert": "OK",
      "vis_m": 9999,
      "fzfg": false,
      "metar_trigger": false,
      "taf_trigger": false,
      "metar": "METAR LRTM 060500Z 08003KT 9999 FEW033 02/01 Q0998",
      "taf": "TAF LRTM 060200Z 0603/0612 07006KT 9999 BKN040"
    },
    {
      "icao": "LRTR",
      "alert": "OK",
      "vis_m": 9999,
      "fzfg": false,
      "metar_trigger": false,
      "taf_trigger": false,
      "metar": "METAR LRTR 060500Z 11005KT 9999 -RA NSC 04/04 Q0997",
      "taf": "TAF LRTR 052300Z 0600/0624 11006KT CAVOK"
    },
    {
      "icao": "LTAC",
      "alert": "OK",
      "vis_m": 9999,
      "fzfg": false,
      "metar_trigger": false,
      "taf_trigger": false,
      "metar": "METAR LTAC 060450Z 18007KT 140V200 9999 -SHRA FEW019 BKN035 BKN080 04/02 Q1008 NOSIG",
      "taf": "TAF LTAC 060440Z 0606/0706 20008KT 9999 -SHRA FEW020 BKN030 BKN080"
    },
    {
      "icao": "LTFM",
      "alert": "OK",
      "vis_m": 9999,
      "fzfg": false,
      "metar_trigger": false,
      "taf_trigger": false,
      "metar": "METAR LTFM 060450Z 21012KT 9999 SCT028 BKN080 10/07 Q1001 RESHRA NOSIG",
      "taf": "TAF LTFM 060440Z 0606/0712 22015KT 9999 SCT035 BKN080"
    },
    {
      "icao": "LUKK",
      "alert": "OK",
      "vis_m": 9999,
      "fzfg": false,
      "metar_trigger": false,
      "taf_trigger": false,
      "metar": "METAR LUKK 060500Z 09015KT 9999 OVC008 M05/M06 Q1005 REFZRA NOSIG",
      "taf": "TAF LUKK 052317Z 0600/0624 09012KT 8000 -FZRA OVC006"
    },
    {
      "icao": "LWOH",
      "alert": "OK",
      "vis_m": null,
      "fzfg": false,
      "metar_trigger": false,
      "taf_trigger": false,
      "metar": "",
      "taf": "TAF LWOH 060240Z 0603/0703 14005KT 9999 BKN040"
    },
    {
      "icao": "LWSK",
      "alert": "OK",
      "vis_m": 4100,
      "fzfg": false,
      "metar_trigger": false,
      "taf_trigger": false,
      "metar": "METAR LWSK 060450Z VRB01KT 4100 BR BKN020 03/02 Q1000 NOSIG",
      "taf": ""
    },
    {
      "icao": "LYBE",
      "alert": "OK",
      "vis_m": 9999,
      "fzfg": false,
      "metar_trigger": false,
      "taf_trigger": false,
      "metar": "METAR LYBE 060500Z 12004KT CAVOK 03/02 Q0996 NOSIG",
      "taf": "TAF LYBE 052300Z 0600/0624 09004KT CAVOK TX14/0613Z TN04/0606Z"
    },
    {
      "icao": "LYNI",
      "alert": "OK",
      "vis_m": 3500,
      "fzfg": false,
      "metar_trigger": false,
      "taf_trigger": false,
      "metar": "METAR LYNI 060500Z 12002KT 3500 BR NSC M01/M01 Q0999 TEMPO 1500",
      "taf": "TAF LYNI 052300Z 0600/0624 10004KT 8000 NSC TX12/0613Z TN01/0606Z"
    },
    {
      "icao": "LYPG",
      "alert": "OK",
      "vis_m": 1500,
      "fzfg": false,
      "metar_trigger": false,
      "taf_trigger": false,
      "metar": "METAR LYPG 060500Z VRB02KT 1500 BR FEW010 SCT030 BKN050 08/08 Q0998 NOSIG",
      "taf": "TAF LYPG 052300Z 0600/0624 VRB02KT 6000 FEW013 BKN040 OVC070 TX14/0615Z TN07/0605Z"
    },
    {
      "icao": "LZIB",
      "alert": "OK",
      "vis_m": 6000,
      "fzfg": false,
      "metar_trigger": false,
      "taf_trigger": false,
      "metar": "METAR LZIB 060500Z 11007KT 6000 BKN005 BKN012 05/04 Q0992 NOSIG",
      "taf": ""
    },
    {
      "icao": "LZKZ",
      "alert": "OK",
      "vis_m": 9999,
      "fzfg": false,
      "metar_trigger": false,
      "taf_trigger": false,
      "metar": "METAR LZKZ 060500Z 01003KT 9999 SCT036 04/03 Q0996 NOSIG",
      "taf": "TAF LZKZ 052315Z 0600/0700 01006KT 9999 OVC040"
    },
    {
      "icao": "LZTT",
      "alert": "OK",
      "vis_m": 4000,
      "fzfg": false,
      "metar_trigger": false,
      "taf_trigger": false,
      "metar": "METAR LZTT 060500Z VRB01KT 4000 BR SCT005 OVC020 01/01 Q0994",
      "taf": ""
    },
    {
      "icao": "OEJN",
      "alert": "OK",
      "vis_m": 9999,
      "fzfg": false,
      "metar_trigger": false,
      "taf_trigger": false,
      "metar": "METAR OEJN 060500Z 00000KT 9999 FEW040 25/15 Q1012 NOSIG",
      "taf": "TAF OEJN 052300Z 0600/0706 36006KT 9999 SCT040"
    },
    {
      "icao": "OEMA",
      "alert": "OK",
      "vis_m": 4000,
      "fzfg": false,
      "metar_trigger": false,
      "taf_trigger": false,
      "metar": "METAR OEMA 060500Z 32004KT 4000 DU SCT040 19/00 Q1017 NOSIG",
      "taf": "TAF OEMA 052300Z 0600/0706 12006KT 7000 SCT040"
    },
    {
      "icao": "OJAI",
      "alert": "OK",
      "vis_m": null,
      "fzfg": false,
      "metar_trigger": false,
      "taf_trigger": false,
      "metar": "",
      "taf": ""
    },
    {
      "icao": "OMAA",
      "alert": "OK",
      "vis_m": 9999,
      "fzfg": false,
      "metar_trigger": false,
      "taf_trigger": false,
      "metar": "METAR OMAA 060500Z 08005KT CAVOK 19/15 Q1021 NOSIG",
      "taf": "TAF OMAA 060500Z 0606/0712 07005KT 8000 NSC"
    },
    {
      "icao": "OMDB",
      "alert": "OK",
      "vis_m": 9999,
      "fzfg": false,
      "metar_trigger": false,
      "taf_trigger": false,
      "metar": "METAR OMDB 060500Z VRB04KT CAVOK 21/16 Q1021 NOSIG",
      "taf": "TAF OMDB 060500Z 0606/0712 08005KT 8000 NSC"
    },
    {
      "icao": "UAAA",
      "alert": "OK",
      "vis_m": 4400,
      "fzfg": false,
      "metar_trigger": false,
      "taf_trigger": false,
      "metar": "METAR UAAA 060500Z VRB01MPS 4400 -SHRA BR BKN027CB OVC100 05/02 Q1020 NOSIG",
      "taf": "TAF UAAA 052305Z 0600/0624 20003MPS 3100 BR FU SCT050CB BKN100 TX03/0607Z TNM03/0602Z"
    },
    {
      "icao": "UBBB",
      "alert": "OK",
      "vis_m": 7000,
      "fzfg": false,
      "metar_trigger": false,
      "taf_trigger": false,
      "metar": "METAR UBBB 060500Z VRB02KT 7000 OVC025 04/04 Q1022 NOSIG",
      "taf": "TAF UBBB 060503Z 0606/0706 VRB04KT 5000 -RA BR SCT012 OVC025 TX06/0610Z TN03/0700Z"
    },
    {
      "icao": "UDSG",
      "alert": "OK",
      "vis_m": 9999,
      "fzfg": false,
      "metar_trigger": false,
      "taf_trigger": false,
      "metar": "METAR UDSG 060500Z 02002KT 9999 NSC M14/M15 Q1021 NOSIG",
      "taf": "TAF UDSG 052300Z 0600/0624 VRB06KT 9999 FEW040"
    },
    {
      "icao": "UDYZ",
      "alert": "OK",
      "vis_m": 9999,
      "fzfg": false,
      "metar_trigger": false,
      "taf_trigger": false,
      "metar": "METAR UDYZ 060500Z 12002KT 9999 NSC M03/M05 Q1022 NOSIG",
      "taf": "TAF UDYZ 052300Z 0600/0624 VRB04KT 2000 BR NSC"
    },
    {
      "icao": "UGKO",
      "alert": "OK",
      "vis_m": 9999,
      "fzfg": false,
      "metar_trigger": false,
      "taf_trigger": false,
      "metar": "METAR UGKO 060500Z 09021G37KT CAVOK 07/M03 Q1012 NOSIG",
      "taf": "TAF UGKO 060500Z 0606/0706 08023G37KT CAVOK TX15/0611Z TN08/0606Z"
    }
  ]
}