{
  "ts_utc": "2026-01-28T07:37:01Z",
  "threshold_m": 150,
  "source": "stations_override.txt (ICAO list) + aviationweather.gov (METAR/TAF raw)",
  "station_count": 159,
  "stations": [
    {
      "icao": "BIKF",
      "alert": "OK",
      "vis_m": 9999,
      "fzfg": false,
      "metar_trigger": false,
      "taf_trigger": false,
      "metar": "METAR BIKF 280730Z 07015KT CAVOK 04/M06 Q0998",
      "taf": "TAF BIKF 280446Z 2806/2906 07014KT CAVOK TX04/2815Z TN02/2807Z"
    },
    {
      "icao": "BKPR",
      "alert": "OK",
      "vis_m": 3000,
      "fzfg": false,
      "metar_trigger": false,
      "taf_trigger": false,
      "metar": "METAR BKPR 280730Z VRB02KT 3000 BR NSC M01/M01 Q1007 BECMG 6000 NSW",
      "taf": "TAF BKPR 280530Z 2806/2906 17005KT 1200 BCFG BKN005"
    },
    {
      "icao": "EBCI",
      "alert": "OK",
      "vis_m": 4500,
      "fzfg": false,
      "metar_trigger": false,
      "taf_trigger": false,
      "metar": "METAR EBCI 280720Z 24004KT 4500 BR FEW045 04/04 Q0993 TEMPO 1200 BR",
      "taf": "TAF EBCI 280520Z 2806/2912 33003KT 6000 BKN008"
    },
    {
      "icao": "EDDB",
      "alert": "OK",
      "vis_m": 9999,
      "fzfg": false,
      "metar_trigger": false,
      "taf_trigger": false,
      "metar": "METAR EDDB 280720Z AUTO 08010KT 9999 OVC024 M01/M03 Q1000 NOSIG",
      "taf": "TAF EDDB 280500Z 2806/2906 07009KT 9000 SCT008 OVC015"
    },
    {
      "icao": "EDDH",
      "alert": "OK",
      "vis_m": 9999,
      "fzfg": false,
      "metar_trigger": false,
      "taf_trigger": false,
      "metar": "METAR EDDH 280720Z AUTO 11015KT 9999 BKN010 OVC015 M00/M02 Q1000 TEMPO BKN009",
      "taf": "TAF EDDH 280500Z 2806/2912 09011KT 9999 OVC012"
    },
    {
      "icao": "EDDK",
      "alert": "OK",
      "vis_m": 8000,
      "fzfg": false,
      "metar_trigger": false,
      "taf_trigger": false,
      "metar": "METAR EDDK 280720Z AUTO 07002KT 8000 OVC009 04/03 Q0994 TEMPO OVC010",
      "taf": "TAF EDDK 280500Z 2806/2912 08004KT 9999 OVC015"
    },
    {
      "icao": "EDDN",
      "alert": "OK",
      "vis_m": 2600,
      "fzfg": false,
      "metar_trigger": false,
      "taf_trigger": false,
      "metar": "METAR EDDN 280720Z AUTO VRB01KT 2600 BR NSC 01/M00 Q0993 BECMG 7000",
      "taf": "TAF EDDN 280500Z 2806/2906 05006KT 7000 NSC"
    },
    {
      "icao": "EDDS",
      "alert": "OK",
      "vis_m": 9000,
      "fzfg": false,
      "metar_trigger": false,
      "taf_trigger": false,
      "metar": "METAR EDDS 280720Z AUTO 05001KT 9000 -RA SCT028 SCT037 BKN049 02/01 Q0991 NOSIG",
      "taf": ""
    },
    {
      "icao": "EDFH",
      "alert": "OK",
      "vis_m": 1500,
      "fzfg": false,
      "metar_trigger": false,
      "taf_trigger": false,
      "metar": "METAR EDFH 280720Z 34004KT 310V010 1500 R21/0800N -RA BCFG OVC004 02/02 Q0992",
      "taf": "TAF EDFH 280500Z 2806/2906 VRB03KT 2000 -RADZ OVC002"
    },
    {
      "icao": "EDJA",
      "alert": "OK",
      "vis_m": 8000,
      "fzfg": false,
      "metar_trigger": false,
      "taf_trigger": false,
      "metar": "METAR EDJA 280720Z 02004KT 8000 FEW002 M01/M02 Q0989",
      "taf": "TAF EDJA 280500Z 2806/2815 06006KT CAVOK"
    },
    {
      "icao": "EDLW",
      "alert": "OK",
      "vis_m": 1700,
      "fzfg": false,
      "metar_trigger": false,
      "taf_trigger": false,
      "metar": "METAR EDLW 280720Z 02004KT 350V050 1700 BR BKN002 OVC004 01/01 Q0994",
      "taf": "TAF EDLW 280500Z 2806/2906 06007KT 3000 BR OVC010"
    },
    {
      "icao": "EDNY",
      "alert": "OK",
      "vis_m": 9999,
      "fzfg": false,
      "metar_trigger": false,
      "taf_trigger": false,
      "metar": "METAR EDNY 280720Z VRB01KT CAVOK M00/M01 Q0990",
      "taf": "TAF EDNY 280500Z 2806/2815 04005KT 9999 SCT050"
    },
    {
      "icao": "EDSB",
      "alert": "OK",
      "vis_m": 5000,
      "fzfg": false,
      "metar_trigger": false,
      "taf_trigger": false,
      "metar": "METAR EDSB 280720Z 03009KT 5000 RA BR BKN004 OVC018 04/04 Q0992",
      "taf": "TAF EDSB 280500Z 2806/2906 02007KT 3000 -RADZ SCT002 BKN010"
    },
    {
      "icao": "EETN",
      "alert": "OK",
      "vis_m": 9999,
      "fzfg": false,
      "metar_trigger": false,
      "taf_trigger": false,
      "metar": "METAR EETN 280720Z 07012KT 9999 OVC009 M08/M10 Q1014 NOSIG",
      "taf": "TAF EETN 280530Z 2806/2906 07010KT 9999 OVC008"
    },
    {
      "icao": "EFTU",
      "alert": "OK",
      "vis_m": 9999,
      "fzfg": false,
      "metar_trigger": false,
      "taf_trigger": false,
      "metar": "METAR EFTU 280720Z AUTO 07003KT CAVOK M15/M16 Q1016",
      "taf": ""
    },
    {
      "icao": "EGBB",
      "alert": "OK",
      "vis_m": 9999,
      "fzfg": false,
      "metar_trigger": false,
      "taf_trigger": false,
      "metar": "METAR EGBB 280720Z 17003KT CAVOK 00/M00 Q0992",
      "taf": "TAF EGBB 280454Z 2806/2906 16005KT 9999 FEW025"
    },
    {
      "icao": "EGGP",
      "alert": "OK",
      "vis_m": 9999,
      "fzfg": false,
      "metar_trigger": false,
      "taf_trigger": false,
      "metar": "METAR EGGP 280720Z 15005KT CAVOK 03/02 Q0991",
      "taf": "TAF EGGP 280454Z 2806/2906 15004KT 9999 FEW030"
    },
    {
      "icao": "EGGW",
      "alert": "OK",
      "vis_m": 9000,
      "fzfg": false,
      "metar_trigger": false,
      "taf_trigger": false,
      "metar": "METAR EGGW 280720Z 19004KT 9000 2000E BCFG NSC 02/02 Q0992",
      "taf": "TAF EGGW 280457Z 2806/2906 VRB05KT 9999 FEW020"
    },
    {
      "icao": "EGKK",
      "alert": "OK",
      "vis_m": 4000,
      "fzfg": false,
      "metar_trigger": false,
      "taf_trigger": false,
      "metar": "METAR EGKK 280720Z VRB01KT 4000 1000W R26L/P1500N BR PRFG FEW002 M00/M00 Q0993",
      "taf": "TAF EGKK 280455Z 2806/2912 14003KT 9999 FEW042"
    },
    {
      "icao": "EGNM",
      "alert": "OK",
      "vis_m": 9999,
      "fzfg": false,
      "metar_trigger": false,
      "taf_trigger": false,
      "metar": "METAR EGNM 280720Z 19003KT 170V250 9999 VCFG NSC 02/02 Q0991",
      "taf": ""
    },
    {
      "icao": "EGPD",
      "alert": "OK",
      "vis_m": 9999,
      "fzfg": false,
      "metar_trigger": false,
      "taf_trigger": false,
      "metar": "METAR EGPD 280720Z AUTO 13014KT 9999 -RA OVC007/// //////TCU 06/05 Q0991 NOSIG",
      "taf": "TAF EGPD 280456Z 2806/2906 12015G25KT 9999 SCT010 BKN020"
    },
    {
      "icao": "EGPF",
      "alert": "OK",
      "vis_m": 9999,
      "fzfg": false,
      "metar_trigger": false,
      "taf_trigger": false,
      "metar": "METAR EGPF 280720Z AUTO 06004KT 9999 NCD 04/03 Q0990",
      "taf": "TAF EGPF 280459Z 2806/2906 09005KT 9999 FEW018"
    },
    {
      "icao": "EHBK",
      "alert": "OK",
      "vis_m": 4400,
      "fzfg": false,
      "metar_trigger": false,
      "taf_trigger": false,
      "metar": "METAR EHBK 280725Z AUTO 16001KT 4400 BR OVC004 05/04 Q0994 NOSIG",
      "taf": "TAF EHBK 280512Z 2806/2912 VRB02KT 9999 BKN030"
    },
    {
      "icao": "EHEH",
      "alert": "OK",
      "vis_m": null,
      "fzfg": false,
      "metar_trigger": false,
      "taf_trigger": false,
      "metar": "",
      "taf": "TAF EHEH 280559Z 2806/2912 VRB01KT 0600 FG VV001"
    },
    {
      "icao": "EKBI",
      "alert": "OK",
      "vis_m": 9999,
      "fzfg": false,
      "metar_trigger": false,
      "taf_trigger": false,
      "metar": "METAR EKBI 280650Z AUTO 08014KT 9999 -SN OVC010/// M01/M03 Q1003",
      "taf": "TAF EKBI 280527Z 2806/2906 08014KT 9999 BKN008"
    },
    {
      "icao": "EKCH",
      "alert": "OK",
      "vis_m": 9999,
      "fzfg": false,
      "metar_trigger": false,
      "taf_trigger": false,
      "metar": "METAR EKCH 280720Z 06015KT 9999 FEW019 BKN029 M01/M04 Q1005 NOSIG",
      "taf": "TAF EKCH 280527Z 2806/2906 07016KT 9999 OVC015"
    },
    {
      "icao": "ENAL",
      "alert": "OK",
      "vis_m": 9999,
      "fzfg": false,
      "metar_trigger": false,
      "taf_trigger": false,
      "metar": "METAR ENAL 280720Z 16005KT CAVOK M07/M08 Q1006",
      "taf": "TAF ENAL 280500Z 2806/2815 17005KT CAVOK"
    },
    {
      "icao": "ENBR",
      "alert": "OK",
      "vis_m": 9999,
      "fzfg": false,
      "metar_trigger": false,
      "taf_trigger": false,
      "metar": "METAR ENBR 280720Z VRB02KT CAVOK M06/M08 Q1005 NOSIG RMK WIND 1200FT 36009KT",
      "taf": "TAF ENBR 280500Z 2806/2906 08005KT CAVOK"
    },
    {
      "icao": "ENGM",
      "alert": "OK",
      "vis_m": 9999,
      "fzfg": false,
      "metar_trigger": false,
      "taf_trigger": false,
      "metar": "METAR ENGM 280720Z 03006KT 9999 -SN BKN023 M10/M12 Q1014 NOSIG",
      "taf": "TAF ENGM 280500Z 2806/2906 02005KT 9999 -SN BKN024"
    },
    {
      "icao": "ENHD",
      "alert": "OK",
      "vis_m": 9999,
      "fzfg": false,
      "metar_trigger": false,
      "taf_trigger": false,
      "metar": "METAR ENHD 280720Z 06003KT 010V110 9999 FEW040 M02/M10 Q1005",
      "taf": "TAF ENHD 280500Z 2806/2815 11008KT 9999 FEW040"
    },
    {
      "icao": "ENTC",
      "alert": "OK",
      "vis_m": 9999,
      "fzfg": false,
      "metar_trigger": false,
      "taf_trigger": false,
      "metar": "METAR ENTC 280720Z 20009KT 9999 -SN FEW013 SCT024 BKN035 M06/M09 Q1013 TEMPO 3500 -SHSN VV014 RMK WIND 2600FT 35012KT",
      "taf": "TAF ENTC 280500Z 2806/2906 22008KT 9999 FEW045"
    },
    {
      "icao": "ENTO",
      "alert": "OK",
      "vis_m": 9999,
      "fzfg": false,
      "metar_trigger": false,
      "taf_trigger": false,
      "metar": "METAR ENTO 280720Z 01008KT 9999 OVC025 M07/M10 Q1012 NOSIG",
      "taf": "TAF ENTO 280500Z 2806/2906 02008KT 9999 BKN020"
    },
    {
      "icao": "ENVA",
      "alert": "OK",
      "vis_m": 9999,
      "fzfg": false,
      "metar_trigger": false,
      "taf_trigger": false,
      "metar": "METAR ENVA 280720Z 09007KT CAVOK M13/M16 Q1010 NOSIG RMK WIND 670FT 13015KT",
      "taf": "TAF ENVA 280500Z 2806/2906 10008KT CAVOK"
    },
    {
      "icao": "ENZV",
      "alert": "OK",
      "vis_m": 9999,
      "fzfg": false,
      "metar_trigger": false,
      "taf_trigger": false,
      "metar": "METAR ENZV 280720Z 09004KT CAVOK M02/M15 Q1005 NOSIG",
      "taf": "TAF ENZV 280500Z 2806/2906 11008KT CAVOK"
    },
    {
      "icao": "EPGD",
      "alert": "OK",
      "vis_m": 9000,
      "fzfg": false,
      "metar_trigger": false,
      "taf_trigger": false,
      "metar": "METAR EPGD 280730Z 03006KT 9000 OVC004 M02/M03 Q1002",
      "taf": ""
    },
    {
      "icao": "EPKK",
      "alert": "OK",
      "vis_m": 3500,
      "fzfg": false,
      "metar_trigger": false,
      "taf_trigger": false,
      "metar": "METAR EPKK 280730Z 22001KT 3500 BR BKN040 M01/M02 Q0998",
      "taf": "TAF EPKK 280530Z 2806/2906 VRB02KT 2500 BR BKN040"
    },
    {
      "icao": "EPKT",
      "alert": "OK",
      "vis_m": 3200,
      "fzfg": false,
      "metar_trigger": false,
      "taf_trigger": false,
      "metar": "METAR EPKT 280730Z 03005KT 3200 BR FEW036 BKN042 00/M01 Q0998",
      "taf": "TAF EPKT 280530Z 2806/2906 VRB02KT 9999 OVC020"
    },
    {
      "icao": "EPLB",
      "alert": "OK",
      "vis_m": 2600,
      "fzfg": false,
      "metar_trigger": false,
      "taf_trigger": false,
      "metar": "METAR EPLB 280730Z 10001KT 2600 BR NSC M02/M02 Q0999",
      "taf": "TAF EPLB 280530Z 2806/2906 VRB02KT 3000 BR SCT049"
    },
    {
      "icao": "EPMO",
      "alert": "OK",
      "vis_m": 700,
      "fzfg": true,
      "metar_trigger": false,
      "taf_trigger": false,
      "metar": "METAR EPMO 280730Z 28003KT 0700 0300W R08/0300N FZFG VV001 M03/M03 Q1001",
      "taf": "TAF EPMO 280530Z 2806/2906 VRB02KT 2000 -SN BR BKN007"
    },
    {
      "icao": "EPPO",
      "alert": "OK",
      "vis_m": 2800,
      "fzfg": false,
      "metar_trigger": false,
      "taf_trigger": false,
      "metar": "METAR EPPO 280730Z 08003KT 2800 BR BKN004 M01/M02 Q1001",
      "taf": "TAF EPPO 280530Z 2806/2906 07007KT 2000 BR OVC003"
    },
    {
      "icao": "EPRA",
      "alert": "OK",
      "vis_m": 1800,
      "fzfg": false,
      "metar_trigger": false,
      "taf_trigger": false,
      "metar": "METAR EPRA 280730Z 35005KT 1800 -SN BR OVC002 M01/M01 Q0999",
      "taf": "TAF EPRA 280530Z 2806/2815 01005KT 2500 -SN BR OVC004"
    },
    {
      "icao": "EPRZ",
      "alert": "OK",
      "vis_m": 3100,
      "fzfg": false,
      "metar_trigger": false,
      "taf_trigger": false,
      "metar": "METAR EPRZ 280730Z 14004KT 3100 BR SCT042 M04/M04 Q0999",
      "taf": "TAF EPRZ 280530Z 2806/2906 19007KT 6000 NSC"
    },
    {
      "icao": "EPSC",
      "alert": "OK",
      "vis_m": 4000,
      "fzfg": false,
      "metar_trigger": false,
      "taf_trigger": false,
      "metar": "METAR EPSC 280730Z VRB02KT 4000 BR OVC013 M01/M02 Q1002",
      "taf": "TAF EPSC 280530Z 2806/2906 VRB03KT 6000 BKN015"
    },
    {
      "icao": "EPSY",
      "alert": "OK",
      "vis_m": 1300,
      "fzfg": false,
      "metar_trigger": false,
      "taf_trigger": false,
      "metar": "METAR EPSY 280730Z 35004KT 1300 R01/1700N BR OVC001 M01/M01 Q1000",
      "taf": ""
    },
    {
      "icao": "EPWA",
      "alert": "OK",
      "vis_m": 2800,
      "fzfg": false,
      "metar_trigger": false,
      "taf_trigger": false,
      "metar": "METAR EPWA 280730Z 32004KT 290V350 2800 -SN BR SCT006 BKN015 M00/M01 Q1000 BECMG 3500 BR",
      "taf": "TAF EPWA 280530Z 2806/2906 02004KT 4000 -SN BR BKN007"
    },
    {
      "icao": "EPWR",
      "alert": "OK",
      "vis_m": 7000,
      "fzfg": false,
      "metar_trigger": false,
      "taf_trigger": false,
      "metar": "METAR EPWR 280730Z 06005KT 7000 SCT006 OVC038 00/M01 Q0999",
      "taf": "TAF EPWR 280530Z 2806/2906 02005KT 4500 BR BKN005"
    },
    {
      "icao": "ESGG",
      "alert": "OK",
      "vis_m": 9999,
      "fzfg": false,
      "metar_trigger": false,
      "taf_trigger": false,
      "metar": "METAR ESGG 280720Z 08010KT 9999 BKN024 M04/M09 Q1008",
      "taf": "TAF ESGG 280530Z 2806/2906 07010KT 9999 SCT020"
    },
    {
      "icao": "ESKN",
      "alert": "OK",
      "vis_m": 9999,
      "fzfg": false,
      "metar_trigger": false,
      "taf_trigger": false,
      "metar": "METAR ESKN 280720Z 03010KT 350V060 9999 BKN030 M04/M07 Q1012",
      "taf": "TAF ESKN 280530Z 2806/2906 02009KT 9999 BKN030"
    },
    {
      "icao": "ESMS",
      "alert": "OK",
      "vis_m": 9999,
      "fzfg": false,
      "metar_trigger": false,
      "taf_trigger": false,
      "metar": "METAR ESMS 280720Z 05010KT 9999 OVC012 M02/M04 Q1005",
      "taf": "TAF ESMS 280527Z 2806/2906 07015KT 9999 OVC009"
    },
    {
      "icao": "ESSA",
      "alert": "OK",
      "vis_m": 9999,
      "fzfg": false,
      "metar_trigger": false,
      "taf_trigger": false,
      "metar": "METAR ESSA 280720Z 03006KT 9999 BKN016 M10/M11 Q1014 NOSIG",
      "taf": "TAF ESSA 280530Z 2806/2906 03008KT 9999 BKN015"
    },
    {
      "icao": "EYKA",
      "alert": "OK",
      "vis_m": 6000,
      "fzfg": false,
      "metar_trigger": false,
      "taf_trigger": false,
      "metar": "METAR EYKA 280720Z 01005KT 340V040 6000 -SN OVC018 M06/M07 Q1002",
      "taf": "TAF EYKA 280500Z 2806/2906 VRB04KT 5000 SN BR OVC020"
    },
    {
      "icao": "EYPA",
      "alert": "OK",
      "vis_m": 2600,
      "fzfg": false,
      "metar_trigger": false,
      "taf_trigger": false,
      "metar": "METAR EYPA 280720Z 07012KT 2600 -SN BR FEW027 BKN033 M08/M10 Q1004",
      "taf": "TAF EYPA 280500Z 2806/2906 06011KT 5000 SN BR SCT015 BKN030"
    },
    {
      "icao": "EYVI",
      "alert": "OK",
      "vis_m": 9999,
      "fzfg": false,
      "metar_trigger": false,
      "taf_trigger": false,
      "metar": "METAR EYVI 280720Z 05006KT 9999 -SN BKN016 OVC023 M05/M06 Q1000 NOSIG",
      "taf": "TAF EYVI 280500Z 2806/2906 04009KT 5000 SN BR SCT010 BKN015"
    },
    {
      "icao": "GCFV",
      "alert": "OK",
      "vis_m": 9999,
      "fzfg": false,
      "metar_trigger": false,
      "taf_trigger": false,
      "metar": "METAR GCFV 280730Z 25004KT 200V330 9999 SCT015 BKN025 19/15 Q1021",
      "taf": "TAF GCFV 280200Z 2803/2903 26009KT 9999 SCT030 TX22/2814Z TN14/2806Z"
    },
    {
      "icao": "GCLP",
      "alert": "OK",
      "vis_m": 9999,
      "fzfg": false,
      "metar_trigger": false,
      "taf_trigger": false,
      "metar": "METAR GCLP 280730Z 34007KT 9999 FEW030 16/12 Q1022 NOSIG",
      "taf": "TAF GCLP 280200Z 2803/2903 VRB05KT 9999 FEW030 TX22/2814Z TN15/2806Z"
    },
    {
      "icao": "GCTS",
      "alert": "OK",
      "vis_m": 9999,
      "fzfg": false,
      "metar_trigger": false,
      "taf_trigger": false,
      "metar": "METAR GCTS 280730Z 01003KT 290V080 9999 FEW030 16/10 Q1021 NOSIG",
      "taf": "TAF GCTS 280200Z 2803/2903 VRB05KT 9999 FEW030 TX22/2814Z TN16/2806Z"
    },
    {
      "icao": "GMAD",
      "alert": "OK",
      "vis_m": 5000,
      "fzfg": false,
      "metar_trigger": false,
      "taf_trigger": false,
      "metar": "METAR GMAD 280700Z 00000KT 5000 -RA FEW020 BKN083 Q0000 NOSIG",
      "taf": "TAF GMAD 280500Z 2806/2912 22005KT 8000 SCT020 BKN080"
    },
    {
      "icao": "GMMN",
      "alert": "OK",
      "vis_m": 9999,
      "fzfg": false,
      "metar_trigger": false,
      "taf_trigger": false,
      "metar": "METAR GMMN 280730Z 22019KT 9999 BKN008 13/12 Q1016 NOSIG",
      "taf": "TAF GMMN 280500Z 2806/2912 22015KT 9999 BKN008"
    },
    {
      "icao": "GMMX",
      "alert": "OK",
      "vis_m": 8000,
      "fzfg": false,
      "metar_trigger": false,
      "taf_trigger": false,
      "metar": "METAR GMMX 280730Z 23004KT 180V240 8000 BKN020 13/12 Q1020 NOSIG",
      "taf": "TAF GMMX 280500Z 2806/2912 06006KT 8000 SCT023 SCT080"
    },
    {
      "icao": "HEGN",
      "alert": "OK",
      "vis_m": 3000,
      "fzfg": false,
      "metar_trigger": false,
      "taf_trigger": false,
      "metar": "METAR HEGN 280700Z 33011KT 3000 SA NSC 18/M06 Q1019 NOSIG",
      "taf": ""
    },
    {
      "icao": "HEMA",
      "alert": "OK",
      "vis_m": 9999,
      "fzfg": false,
      "metar_trigger": false,
      "taf_trigger": false,
      "metar": "METAR HEMA 280700Z 28006KT CAVOK 21/M09 Q1020 NOSIG",
      "taf": ""
    },
    {
      "icao": "HESH",
      "alert": "OK",
      "vis_m": 2000,
      "fzfg": false,
      "metar_trigger": false,
      "taf_trigger": false,
      "metar": "METAR HESH 280700Z 23006KT 2000 HZ NSC 20/00 Q1018 NOSIG",
      "taf": ""
    },
    {
      "icao": "HESX",
      "alert": "OK",
      "vis_m": 8000,
      "fzfg": false,
      "metar_trigger": false,
      "taf_trigger": false,
      "metar": "METAR HESX 280700Z 24011KT 8000 NSC 12/05 Q1018 NOSIG",
      "taf": "TAF HESX 280500Z 2806/2912 24009KT 6000 SCT030"
    },
    {
      "icao": "LATI",
      "alert": "OK",
      "vis_m": 9999,
      "fzfg": false,
      "metar_trigger": false,
      "taf_trigger": false,
      "metar": "METAR LATI 280720Z 14005KT 9999 FEW070 BKN140 06/03 Q1008 NOSIG",
      "taf": "TAF LATI 280500Z 2806/2906 VRB05KT CAVOK TX15/2812Z TN05/2905Z"
    },
    {
      "icao": "LBPD",
      "alert": "OK",
      "vis_m": 9999,
      "fzfg": false,
      "metar_trigger": false,
      "taf_trigger": false,
      "metar": "METAR LBPD 280730Z AUTO 00000KT 9999 NCD 05/02 Q1008 NOSIG",
      "taf": "TAF LBPD 280500Z 2806/2906 VRB04KT CAVOK"
    },
    {
      "icao": "LBSF",
      "alert": "OK",
      "vis_m": 300,
      "fzfg": true,
      "metar_trigger": false,
      "taf_trigger": false,
      "metar": "METAR LBSF 280730Z 00000KT 0300 R27/0450N FZFG VV002 M02/M02 Q1008 NOSIG",
      "taf": ""
    },
    {
      "icao": "LBWN",
      "alert": "OK",
      "vis_m": 9999,
      "fzfg": false,
      "metar_trigger": false,
      "taf_trigger": false,
      "metar": "METAR LBWN 280730Z AUTO VRB02KT 9999 NCD 06/05 Q1008 NOSIG",
      "taf": ""
    },
    {
      "icao": "LCLK",
      "alert": "OK",
      "vis_m": 8000,
      "fzfg": false,
      "metar_trigger": false,
      "taf_trigger": false,
      "metar": "METAR LCLK 280730Z 32004KT 300V360 8000 NSC 15/12 Q1012 NOSIG",
      "taf": "TAF LCLK 280530Z 2806/2906 33006KT 9999 FEW020 SCT040"
    },
    {
      "icao": "LCPH",
      "alert": "OK",
      "vis_m": 5000,
      "fzfg": false,
      "metar_trigger": false,
      "taf_trigger": false,
      "metar": "METAR LCPH 280730Z 08005KT 5000 DU FEW030 15/10 Q1011 NOSIG",
      "taf": "TAF LCPH 280530Z 2806/2906 08009KT 9999 FEW020 SCT050"
    },
    {
      "icao": "LEAL",
      "alert": "OK",
      "vis_m": 9999,
      "fzfg": false,
      "metar_trigger": false,
      "taf_trigger": false,
      "metar": "METAR LEAL 280730Z 26003KT 190V310 CAVOK 09/04 Q1001 NOSIG",
      "taf": "TAF LEAL 280500Z 2806/2906 27010KT 9999 FEW040 TX20/2814Z TN10/2807Z"
    },
    {
      "icao": "LEBB",
      "alert": "OK",
      "vis_m": 9999,
      "fzfg": false,
      "metar_trigger": false,
      "taf_trigger": false,
      "metar": "METAR LEBB 280730Z 12006KT 070V160 CAVOK 05/01 Q0994 NOSIG",
      "taf": "TAF LEBB 280500Z 2806/2906 22009KT 9999 FEW030 TX10/2816Z TN04/2806Z"
    },
    {
      "icao": "LEBL",
      "alert": "OK",
      "vis_m": 9999,
      "fzfg": false,
      "metar_trigger": false,
      "taf_trigger": false,
      "metar": "METAR LEBL 280730Z 26008KT 240V310 9999 FEW035 09/01 Q0997 NOSIG",
      "taf": "TAF LEBL 280500Z 2806/2906 23008KT 9999 FEW020 TX12/2812Z TN07/2806Z"
    },
    {
      "icao": "LECH",
      "alert": "OK",
      "vis_m": 9999,
      "fzfg": false,
      "metar_trigger": false,
      "taf_trigger": false,
      "metar": "METAR LECH 280730Z AUTO 13005KT CAVOK 07/00 Q0997",
      "taf": ""
    },
    {
      "icao": "LEMD",
      "alert": "OK",
      "vis_m": 5000,
      "fzfg": false,
      "metar_trigger": false,
      "taf_trigger": false,
      "metar": "METAR LEMD 280730Z 12008KT 080V150 5000 -SN BR SCT007 BKN012 01/01 Q0993 NOSIG",
      "taf": ""
    },
    {
      "icao": "LEMG",
      "alert": "OK",
      "vis_m": 9999,
      "fzfg": false,
      "metar_trigger": false,
      "taf_trigger": false,
      "metar": "METAR LEMG 280730Z 27007G17KT 9999 -RA FEW020 SCT035 BKN045 13/09 Q1003 RERA NOSIG",
      "taf": "TAF LEMG 280500Z 2806/2906 23014KT 9999 SCT025 TX19/2814Z TN14/2807Z"
    },
    {
      "icao": "LEVC",
      "alert": "OK",
      "vis_m": 9999,
      "fzfg": false,
      "metar_trigger": false,
      "taf_trigger": false,
      "metar": "METAR LEVC 280730Z 12008KT 080V140 9999 FEW040 09/04 Q0999 NOSIG",
      "taf": "TAF LEVC 280500Z 2806/2906 18005KT 9999 FEW040 TX18/2814Z TN08/2807Z"
    },
    {
      "icao": "LEXJ",
      "alert": "OK",
      "vis_m": 9999,
      "fzfg": false,
      "metar_trigger": false,
      "taf_trigger": false,
      "metar": "METAR LEXJ 280730Z 12006KT CAVOK 08/00 Q0991",
      "taf": "TAF LEXJ 280200Z 2803/2903 20009KT 9999 SCT040 TX11/2815Z TN06/2803Z"
    },
    {
      "icao": "LEZG",
      "alert": "OK",
      "vis_m": 9999,
      "fzfg": false,
      "metar_trigger": false,
      "taf_trigger": false,
      "metar": "METAR LEZG 280730Z 12004KT 070V160 CAVOK 05/02 Q0996 NOSIG",
      "taf": "TAF LEZG 280500Z 2806/2906 25005KT 9999 FEW040 TX08/2813Z TN03/2900Z"
    },
    {
      "icao": "LEZL",
      "alert": "OK",
      "vis_m": 5000,
      "fzfg": false,
      "metar_trigger": false,
      "taf_trigger": false,
      "metar": "METAR LEZL 280730Z 23030G46KT 5000 -RA BKN009 BKN018 15/15 Q0998 RERA NOSIG",
      "taf": "TAF LEZL 280200Z 2803/2903 22018KT 9999 BKN025 TX18/2815Z TN10/2807Z"
    },
    {
      "icao": "LFBD",
      "alert": "OK",
      "vis_m": 9999,
      "fzfg": false,
      "metar_trigger": false,
      "taf_trigger": false,
      "metar": "METAR LFBD 280730Z AUTO 23002KT 9999 3500 -RA BKN004 BKN012 BKN032 06/05 Q0995 BECMG BKN030",
      "taf": "TAF LFBD 280500Z 2806/2912 VRB03KT 9999 BKN030 TX11/2813Z TN05/2806Z"
    },
    {
      "icao": "LFLL",
      "alert": "OK",
      "vis_m": 5000,
      "fzfg": false,
      "metar_trigger": false,
      "taf_trigger": false,
      "metar": "METAR LFLL 280730Z 32005KT 270V360 5000 RA SCT004 BKN006 BKN015 05/05 Q0993 NOSIG",
      "taf": "TAF LFLL 280500Z 2806/2912 32009KT 9999 -RA FEW010 OVC025"
    },
    {
      "icao": "LFLS",
      "alert": "OK",
      "vis_m": 9999,
      "fzfg": false,
      "metar_trigger": false,
      "taf_trigger": false,
      "metar": "METAR LFLS 280730Z AUTO VRB03KT 9999 RA BKN013 OVC018 04/03 Q0993 TEMPO 1000 SN BKN004",
      "taf": "TAF LFLS 280200Z 2803/2903 30007KT 8000 -RA OVC016"
    },
    {
      "icao": "LFMN",
      "alert": "OK",
      "vis_m": 5000,
      "fzfg": false,
      "metar_trigger": false,
      "taf_trigger": false,
      "metar": "METAR LFMN 280730Z 02008KT 5000 -RA SCT015 BKN020 BKN033 09/06 Q0989 NOSIG",
      "taf": ""
    },
    {
      "icao": "LFOB",
      "alert": "OK",
      "vis_m": 750,
      "fzfg": true,
      "metar_trigger": false,
      "taf_trigger": false,
      "metar": "METAR LFOB 280730Z AUTO 31001KT 0750 0650 R30/0700D R12/1100D FZFG SCT006 BKN011 M01/M01 Q0994 TEMPO VV///",
      "taf": "TAF LFOB 280500Z 2806/2906 VRB03KT 9999 NSC"
    },
    {
      "icao": "LFPO",
      "alert": "OK",
      "vis_m": 3900,
      "fzfg": false,
      "metar_trigger": false,
      "taf_trigger": false,
      "metar": "METAR LFPO 280730Z AUTO 19002KT 3900 0800 R02/P2000 R25/P2000 R07/1200D R24/1400D R06/1100U BCFG FEW002 BKN190 OVC210 03/03 Q0994 TEMPO 0800 FG VV///",
      "taf": "TAF LFPO 280500Z 2806/2912 VRB03KT 6000 NSC"
    },
    {
      "icao": "LFSB",
      "alert": "OK",
      "vis_m": 2400,
      "fzfg": false,
      "metar_trigger": false,
      "taf_trigger": false,
      "metar": "METAR LFSB 280730Z AUTO 09002KT 2400 -DZ BR OVC005 04/04 Q0992 TEMPO 3000 -RA BR",
      "taf": ""
    },
    {
      "icao": "LGAV",
      "alert": "OK",
      "vis_m": 9999,
      "fzfg": false,
      "metar_trigger": false,
      "taf_trigger": false,
      "metar": "METAR LGAV 280720Z 29007KT 250V330 9999 FEW025 14/04 Q1011 NOSIG",
      "taf": "TAF LGAV 280500Z 2806/2906 27010KT 9999 FEW018 SCT030"
    },
    {
      "icao": "LGTS",
      "alert": "OK",
      "vis_m": 9999,
      "fzfg": false,
      "metar_trigger": false,
      "taf_trigger": false,
      "metar": "METAR LGTS 280720Z VRB02KT CAVOK 05/02 Q1009 NOSIG",
      "taf": "TAF LGTS 280500Z 2806/2906 34005KT 9999 FEW030"
    },
    {
      "icao": "LHBP",
      "alert": "OK",
      "vis_m": 8000,
      "fzfg": false,
      "metar_trigger": false,
      "taf_trigger": false,
      "metar": "METAR LHBP 280730Z 11007KT 8000 -RA OVC045 01/00 Q0999 WS ALL RWY NOSIG",
      "taf": "TAF LHBP 280515Z 2806/2906 11007KT CAVOK"
    },
    {
      "icao": "LHDC",
      "alert": "OK",
      "vis_m": 7000,
      "fzfg": false,
      "metar_trigger": false,
      "taf_trigger": false,
      "metar": "METAR LHDC 280715Z AUTO 12004KT 090V150 7000 BKN002 BKN085 01/01 Q1002 BECMG SCT005 OVC050",
      "taf": "TAF LHDC 280515Z 2806/2815 15006KT 0300 FG VV001"
    },
    {
      "icao": "LIBD",
      "alert": "OK",
      "vis_m": 9999,
      "fzfg": false,
      "metar_trigger": false,
      "taf_trigger": false,
      "metar": "METAR LIBD 280720Z 16007KT 9999 FEW045 12/07 Q1002",
      "taf": "TAF LIBD 280500Z 2806/2906 19006KT 9999 SCT030"
    },
    {
      "icao": "LIBG",
      "alert": "OK",
      "vis_m": null,
      "fzfg": false,
      "metar_trigger": false,
      "taf_trigger": false,
      "metar": "",
      "taf": "TAF LIBG 280729Z 2808/2815 VRB05KT 9999 SCT020 SCT050"
    },
    {
      "icao": "LIBP",
      "alert": "OK",
      "vis_m": 9999,
      "fzfg": false,
      "metar_trigger": false,
      "taf_trigger": false,
      "metar": "METAR LIBP 280720Z AUTO VRB02KT 9999 FEW090/// BKN160/// 07/04 Q0996",
      "taf": "TAF LIBP 280500Z 2806/2906 23010KT 9999 SCT070"
    },
    {
      "icao": "LIBR",
      "alert": "OK",
      "vis_m": 9999,
      "fzfg": false,
      "metar_trigger": false,
      "taf_trigger": false,
      "metar": "METAR LIBR 280720Z 17011KT CAVOK 11/08 Q1005",
      "taf": "TAF LIBR 280500Z 2806/2906 18006KT 9999 FEW030"
    },
    {
      "icao": "LICA",
      "alert": "OK",
      "vis_m": 9999,
      "fzfg": false,
      "metar_trigger": false,
      "taf_trigger": false,
      "metar": "METAR LICA 280720Z AUTO 07010KT 9999 BKN061/// OVC120/// 11/07 Q1005",
      "taf": "TAF LICA 280500Z 2806/2906 07012KT 9999 SCT040"
    },
    {
      "icao": "LICC",
      "alert": "OK",
      "vis_m": 9000,
      "fzfg": false,
      "metar_trigger": false,
      "taf_trigger": false,
      "metar": "METAR LICC 280720Z 24005KT 9000 BKN030 10/08 Q1007",
      "taf": "TAF LICC 280500Z 2806/2906 26010KT 9999 SCT030"
    },
    {
      "icao": "LICJ",
      "alert": "OK",
      "vis_m": 9999,
      "fzfg": false,
      "metar_trigger": false,
      "taf_trigger": false,
      "metar": "METAR LICJ 280720Z 21025G35KT 9999 -SHRA SCT020 15/12 Q1005",
      "taf": "TAF LICJ 280500Z 2806/2906 18018G30KT 9999 SCT040"
    },
    {
      "icao": "LIMC",
      "alert": "OK",
      "vis_m": 6000,
      "fzfg": false,
      "metar_trigger": false,
      "taf_trigger": false,
      "metar": "METAR LIMC 280720Z 35008KT 6000 RA OVC020 04/04 Q0993 NOSIG",
      "taf": ""
    },
    {
      "icao": "LIME",
      "alert": "OK",
      "vis_m": 9999,
      "fzfg": false,
      "metar_trigger": false,
      "taf_trigger": false,
      "metar": "METAR LIME 280720Z AUTO 02005KT 9999 -RA OVC031/// 05/05 Q0991",
      "taf": "TAF LIME 280500Z 2806/2906 VRB04KT 3000 RA BKN014"
    },
    {
      "icao": "LIMF",
      "alert": "OK",
      "vis_m": 5000,
      "fzfg": false,
      "metar_trigger": false,
      "taf_trigger": false,
      "metar": "METAR LIMF 280720Z 25003KT 220V290 5000 RA BR OVC015 03/02 Q0993",
      "taf": "TAF LIMF 280500Z 2806/2906 VRB04KT 4000 RA BKN014"
    },
    {
      "icao": "LIMJ",
      "alert": "OK",
      "vis_m": 9999,
      "fzfg": false,
      "metar_trigger": false,
      "taf_trigger": false,
      "metar": "METAR LIMJ 280720Z 04013KT 9999 FEW018 BKN035 06/02 Q0991",
      "taf": "TAF LIMJ 280500Z 2806/2906 04015KT 4000 RA BKN014"
    },
    {
      "icao": "LIPE",
      "alert": "OK",
      "vis_m": 3000,
      "fzfg": false,
      "metar_trigger": false,
      "taf_trigger": false,
      "metar": "METAR LIPE 280720Z 25005KT 3000 -RA BR BKN003 07/07 Q0991",
      "taf": "TAF LIPE 280500Z 2806/2906 09010KT 6000 BKN030"
    },
    {
      "icao": "LIPH",
      "alert": "OK",
      "vis_m": 4000,
      "fzfg": false,
      "metar_trigger": false,
      "taf_trigger": false,
      "metar": "METAR LIPH 280720Z 05009KT 020V090 4000 -RA BR SCT005 BKN020 06/06 Q0995",
      "taf": "TAF LIPH 280500Z 2806/2906 05010KT 4000 RA BKN008"
    },
    {
      "icao": "LIPQ",
      "alert": "OK",
      "vis_m": 6000,
      "fzfg": false,
      "metar_trigger": false,
      "taf_trigger": false,
      "metar": "METAR LIPQ 280720Z AUTO 02005KT 6000 RA OVC012/// 07/07 Q0996 REDZ",
      "taf": "TAF LIPQ 280500Z 2806/2906 05007KT 4000 RA BKN020"
    },
    {
      "icao": "LIPR",
      "alert": "OK",
      "vis_m": 9999,
      "fzfg": false,
      "metar_trigger": false,
      "taf_trigger": false,
      "metar": "METAR LIPR 280720Z 13011KT 100V160 9999 BKN040 11/05 Q0992",
      "taf": "TAF LIPR 280500Z 2806/2906 13012KT 9999 BKN030"
    },
    {
      "icao": "LIPX",
      "alert": "OK",
      "vis_m": 9000,
      "fzfg": false,
      "metar_trigger": false,
      "taf_trigger": false,
      "metar": "METAR LIPX 280720Z 07013KT 9000 RA BKN020 08/05 Q0992",
      "taf": "TAF LIPX 280500Z 2806/2906 06010KT 3000 RA BKN014"
    },
    {
      "icao": "LIPY",
      "alert": "OK",
      "vis_m": 9999,
      "fzfg": false,
      "metar_trigger": false,
      "taf_trigger": false,
      "metar": "METAR LIPY 280720Z AUTO 15010G21KT 120V180 9999 SCT063/// SCT081/// BKN140/// 12/06 Q0994",
      "taf": "TAF LIPY 280500Z 2806/2906 14010KT 9999 BKN050"
    },
    {
      "icao": "LIPZ",
      "alert": "OK",
      "vis_m": 3000,
      "fzfg": false,
      "metar_trigger": false,
      "taf_trigger": false,
      "metar": "METAR LIPZ 280720Z 05017KT 3000 R04R/0900N -RA BR SCT005 BKN012 06/06 Q0995 NOSIG",
      "taf": "TAF LIPZ 280500Z 2806/2912 05013KT 4000 RA BKN015"
    },
    {
      "icao": "LIRF",
      "alert": "OK",
      "vis_m": 4000,
      "fzfg": false,
      "metar_trigger": false,
      "taf_trigger": false,
      "metar": "METAR LIRF 280720Z 16011KT 140V200 4000 -SHRA SCT008 BKN020 14/14 Q0994 RESHRA NOSIG",
      "taf": "TAF LIRF 280500Z 2806/2912 16020G30KT 9999 RA SCT030"
    },
    {
      "icao": "LIRN",
      "alert": "OK",
      "vis_m": 6000,
      "fzfg": false,
      "metar_trigger": false,
      "taf_trigger": false,
      "metar": "METAR LIRN 280720Z 18007KT 130V250 6000 BKN010 12/10 Q1000 NOSIG",
      "taf": "TAF LIRN 280500Z 2806/2906 17012KT 9999 SCT030"
    },
    {
      "icao": "LIRP",
      "alert": "OK",
      "vis_m": 9999,
      "fzfg": false,
      "metar_trigger": false,
      "taf_trigger": false,
      "metar": "METAR LIRP 280715Z VRB02KT 9999 -RA FEW030 SCT040 12/12 Q0990 NOSIG",
      "taf": "TAF LIRP 280500Z 2806/2906 19012KT 6000 -RA FEW015 SCT020 BKN035"
    },
    {
      "icao": "LIRZ",
      "alert": "OK",
      "vis_m": 9999,
      "fzfg": false,
      "metar_trigger": false,
      "taf_trigger": false,
      "metar": "METAR LIRZ 280720Z AUTO 12006KT 080V150 9999 -RA BKN019/// 10/09 Q0993",
      "taf": "TAF LIRZ 280500Z 2806/2906 17014KT 7000 RA BKN025"
    },
    {
      "icao": "LJLJ",
      "alert": "OK",
      "vis_m": 9999,
      "fzfg": false,
      "metar_trigger": false,
      "taf_trigger": false,
      "metar": "METAR LJLJ 280730Z 23003KT 200V310 9999 -RA FEW003 BKN025 OVC040 03/02 Q0996 NOSIG",
      "taf": "TAF LJLJ 280500Z 2806/2906 VRB02KT 7000 FEW008 OVC027"
    },
    {
      "icao": "LKMT",
      "alert": "OK",
      "vis_m": 3500,
      "fzfg": false,
      "metar_trigger": false,
      "taf_trigger": false,
      "metar": "METAR LKMT 280730Z 00000KT 3500 BR OVC031 M00/M01 Q0998 NOSIG",
      "taf": "TAF LKMT 280500Z 2806/2906 04008KT 8000 BKN015 OVC025"
    },
    {
      "icao": "LKPR",
      "alert": "OK",
      "vis_m": 4800,
      "fzfg": false,
      "metar_trigger": false,
      "taf_trigger": false,
      "metar": "METAR LKPR 280730Z 06003KT 4800 BR BKN006 M01/M02 Q0996 NOSIG",
      "taf": "TAF LKPR 280500Z 2806/2912 05004KT 3500 BR BKN022"
    },
    {
      "icao": "LLBG",
      "alert": "OK",
      "vis_m": 4000,
      "fzfg": false,
      "metar_trigger": false,
      "taf_trigger": false,
      "metar": "METAR LLBG 280720Z 19013KT 4000 DU SCT030 16/05 Q1015 NOSIG",
      "taf": "TAF LLBG 280500Z 2806/2906 19010KT 8000 SCT040"
    },
    {
      "icao": "LMML",
      "alert": "OK",
      "vis_m": 9999,
      "fzfg": false,
      "metar_trigger": false,
      "taf_trigger": false,
      "metar": "METAR LMML 280715Z 22015KT CAVOK 16/13 Q1008 NOSIG",
      "taf": "TAF LMML 280500Z 2806/2906 20015KT 9999 FEW025"
    },
    {
      "icao": "LOWW",
      "alert": "OK",
      "vis_m": 600,
      "fzfg": false,
      "metar_trigger": false,
      "taf_trigger": false,
      "metar": "METAR LOWW 280720Z 05003KT 0600 R16/0650N R29/0650D -DZ FG OVC001 00/00 Q0996 NOSIG",
      "taf": "TAF LOWW 280515Z 2806/2912 13007KT 1800 BCFG OVC002 TX02/2820Z TN00/2806Z"
    },
    {
      "icao": "LPFR",
      "alert": "OK",
      "vis_m": 4000,
      "fzfg": false,
      "metar_trigger": false,
      "taf_trigger": false,
      "metar": "METAR LPFR 280730Z 24035G48KT 4000 RA BR SCT008 BKN012 16/14 Q1000",
      "taf": "TAF LPFR 280500Z 2806/2906 22023G38KT 9999 SCT012 BKN025"
    },
    {
      "icao": "LPMA",
      "alert": "OK",
      "vis_m": 9999,
      "fzfg": false,
      "metar_trigger": false,
      "taf_trigger": false,
      "metar": "METAR LPMA 280730Z 26003KT 200V320 9999 FEW015 16/11 Q1016",
      "taf": "TAF LPMA 280500Z 2806/2906 VRB05KT 9999 FEW015"
    },
    {
      "icao": "LPPR",
      "alert": "OK",
      "vis_m": 9999,
      "fzfg": false,
      "metar_trigger": false,
      "taf_trigger": false,
      "metar": "METAR LPPR 280730Z 00000KT 9999 FEW018 SCT045 07/05 Q0994",
      "taf": ""
    },
    {
      "icao": "LPPS",
      "alert": "OK",
      "vis_m": 9999,
      "fzfg": false,
      "metar_trigger": false,
      "taf_trigger": false,
      "metar": "METAR LPPS 280730Z 28016KT 9999 FEW010 SCT030 16/15 Q1016",
      "taf": "TAF LPPS 280500Z 2806/2912 27015KT 9999 SCT015 SCT030"
    },
    {
      "icao": "LPPT",
      "alert": "OK",
      "vis_m": 9999,
      "fzfg": false,
      "metar_trigger": false,
      "taf_trigger": false,
      "metar": "METAR LPPT 280730Z 28018G29KT 9999 FEW014 SCT030 14/10 Q0999 WS R20",
      "taf": "TAF LPPT 280500Z 2806/2912 29020G35KT 9999 SCT025"
    },
    {
      "icao": "LQBK",
      "alert": "OK",
      "vis_m": 9999,
      "fzfg": false,
      "metar_trigger": false,
      "taf_trigger": false,
      "metar": "METAR LQBK 280730Z 05003KT 9999 -RA BKN047 03/03 Q0999 NOSIG",
      "taf": "TAF LQBK 280500Z 2806/2906 34005KT 9999 SCT040 TX11/2813Z TN01/2806Z"
    },
    {
      "icao": "LQSA",
      "alert": "OK",
      "vis_m": 9999,
      "fzfg": false,
      "metar_trigger": false,
      "taf_trigger": false,
      "metar": "METAR LQSA 280730Z 29005KT 210V340 9999 BKN060 02/01 Q1002 BECMG 15012KT",
      "taf": "TAF LQSA 280500Z 2806/2906 11008KT 9999 SCT050 TX12/2814Z TNM00/2806Z"
    },
    {
      "icao": "LQTZ",
      "alert": "OK",
      "vis_m": 9999,
      "fzfg": false,
      "metar_trigger": false,
      "taf_trigger": false,
      "metar": "METAR LQTZ 280730Z VRB03KT 9999 -RA BKN067 06/03 Q1000",
      "taf": "TAF LQTZ 280500Z 2806/2906 10005KT 9999 SCT060 TX14/2813Z TNM00/2806Z"
    },
    {
      "icao": "LRBC",
      "alert": "OK",
      "vis_m": 300,
      "fzfg": true,
      "metar_trigger": false,
      "taf_trigger": false,
      "metar": "METAR LRBC 280730Z 16008KT 0300 R16/0350N FZFG VV002 M00/M00 Q1004",
      "taf": "TAF LRBC 280500Z 2806/2815 16008KT 0350 FZFG VV001"
    },
    {
      "icao": "LRBS",
      "alert": "OK",
      "vis_m": 800,
      "fzfg": false,
      "metar_trigger": false,
      "taf_trigger": false,
      "metar": "METAR LRBS 280730Z 24005KT 200V270 0800 R07/0900N FG VV001 03/03 Q1007 TEMPO BKN005 SCT020",
      "taf": ""
    },
    {
      "icao": "LRBV",
      "alert": "OK",
      "vis_m": 200,
      "fzfg": false,
      "metar_trigger": false,
      "taf_trigger": false,
      "metar": "METAR LRBV 280730Z VRB02KT 0200 R03/0400N FG VV001 02/02 Q1003",
      "taf": "TAF LRBV 280500Z 2806/2815 VRB04KT 3000 BR BKN015"
    },
    {
      "icao": "LRCL",
      "alert": "OK",
      "vis_m": 4000,
      "fzfg": false,
      "metar_trigger": false,
      "taf_trigger": false,
      "metar": "METAR LRCL 280730Z COR 10006KT 4000 BR BKN003 BKN007 02/01 Q1003",
      "taf": "TAF LRCL 280500Z 2806/2815 08007KT 3000 BR OVC005"
    },
    {
      "icao": "LRCV",
      "alert": "OK",
      "vis_m": 150,
      "fzfg": true,
      "metar_trigger": false,
      "taf_trigger": false,
      "metar": "METAR LRCV 280730Z 00000KT 0150 R26/0225N FZFG OVC002 M01/M01 Q1006",
      "taf": "TAF LRCV 280500Z 2806/2815 VRB04KT 0150 FG VV001"
    },
    {
      "icao": "LRIA",
      "alert": "OK",
      "vis_m": 600,
      "fzfg": true,
      "metar_trigger": false,
      "taf_trigger": false,
      "metar": "METAR LRIA 280730Z 08002KT 0600 R14/1400N BCFG OVC003 00/M00 Q1005",
      "taf": "TAF LRIA 280500Z 2806/2815 10006KT 0300 FZFG OVC001"
    },
    {
      "icao": "LROP",
      "alert": "OK",
      "vis_m": 4000,
      "fzfg": false,
      "metar_trigger": false,
      "taf_trigger": false,
      "metar": "METAR LROP 280730Z 24006KT 4000 BR BKN004 04/04 Q1006 BECMG 5000 OVC005",
      "taf": "TAF LROP 280500Z 2806/2906 24008KT 0200 FG VV001"
    },
    {
      "icao": "LRSB",
      "alert": "OK",
      "vis_m": 800,
      "fzfg": false,
      "metar_trigger": false,
      "taf_trigger": false,
      "metar": "METAR LRSB 280730Z VRB03KT 0800 R27/1000D FG FEW001 OVC003 03/03 Q1003",
      "taf": "TAF LRSB 280500Z 2806/2906 VRB04KT 0200 FG VV001"
    },
    {
      "icao": "LRSM",
      "alert": "OK",
      "vis_m": 9999,
      "fzfg": false,
      "metar_trigger": false,
      "taf_trigger": false,
      "metar": "METAR LRSM 280730Z 12006KT CAVOK 02/01 Q1002",
      "taf": "TAF LRSM 280500Z 2806/2815 VRB04KT 3000 BR BKN005"
    },
    {
      "icao": "LRSV",
      "alert": "CRITICAL",
      "vis_m": 100,
      "fzfg": true,
      "metar_trigger": true,
      "taf_trigger": false,
      "metar": "METAR LRSV 280730Z VRB02KT 0100 R34/0300N FZFG SCT001 M01/M01 Q1002",
      "taf": "TAF LRSV 280500Z 2806/2815 VRB04KT 0150 FZFG VV001"
    },
    {
      "icao": "LRTM",
      "alert": "OK",
      "vis_m": 200,
      "fzfg": false,
      "metar_trigger": false,
      "taf_trigger": false,
      "metar": "METAR LRTM 280730Z 01001KT 0200 R07/0325N FG BKN001 OVC004 01/01 Q1004",
      "taf": "TAF LRTM 280500Z 2806/2815 VRB04KT 0600 FG OVC002"
    },
    {
      "icao": "LRTR",
      "alert": "OK",
      "vis_m": 6000,
      "fzfg": false,
      "metar_trigger": false,
      "taf_trigger": false,
      "metar": "METAR LRTR 280730Z 11011KT 6000 FEW001 01/01 Q1002 NOSIG",
      "taf": "TAF LRTR 280500Z 2806/2906 11010KT 0350 FG VV001"
    },
    {
      "icao": "LTAC",
      "alert": "OK",
      "vis_m": 9999,
      "fzfg": false,
      "metar_trigger": false,
      "taf_trigger": false,
      "metar": "METAR LTAC 280720Z VRB02KT 9999 SCT035 BKN080 05/03 Q1010 NOSIG RMK RWY21C VRB02KT RWY03L VRB01KT RWY21R 02003KT 340V040 RWY03R 00000KT RWY21L VRB02KT",
      "taf": ""
    },
    {
      "icao": "LTFM",
      "alert": "OK",
      "vis_m": 9999,
      "fzfg": false,
      "metar_trigger": false,
      "taf_trigger": false,
      "metar": "METAR LTFM 280720Z 04004KT 310V070 9999 SCT008 BKN020 08/07 Q1009 NOSIG RMK RWY17L 02003KT 340V040 RWY34L 02004KT RWY16R 04003KT 360V070 RWY36 05004KT RWY18 07003KT",
      "taf": "TAF LTFM 280440Z 2806/2912 01005KT 9999 SCT008 BKN022"
    },
    {
      "icao": "LUKK",
      "alert": "OK",
      "vis_m": 250,
      "fzfg": true,
      "metar_trigger": false,
      "taf_trigger": false,
      "metar": "METAR LUKK 280730Z 15002KT 0250 R08/0325N FZFG VV002 M00/M00 Q1005 TEMPO 0400 FZFG",
      "taf": "TAF LUKK 280523Z 2806/2906 13006KT 0300 FZFG VV001"
    },
    {
      "icao": "LWOH",
      "alert": "OK",
      "vis_m": 9999,
      "fzfg": false,
      "metar_trigger": false,
      "taf_trigger": false,
      "metar": "METAR LWOH 280720Z 33003KT 9999 FEW040 SCT090 00/M01 Q1008",
      "taf": "TAF LWOH 280530Z 2806/2906 32005KT 9999 FEW040"
    },
    {
      "icao": "LWSK",
      "alert": "OK",
      "vis_m": 600,
      "fzfg": true,
      "metar_trigger": false,
      "taf_trigger": false,
      "metar": "METAR LWSK 280650Z VRB02KT 0600 R34/1200U FZFG OVC002 M01/M01 Q1010 NOSIG",
      "taf": ""
    },
    {
      "icao": "LYBE",
      "alert": "OK",
      "vis_m": 9999,
      "fzfg": false,
      "metar_trigger": false,
      "taf_trigger": false,
      "metar": "METAR LYBE 280730Z 16006KT CAVOK 04/M01 Q1002 NOSIG",
      "taf": "TAF LYBE 280500Z 2806/2906 12006KT CAVOK TX11/2812Z TN01/2906Z"
    },
    {
      "icao": "LYNI",
      "alert": "OK",
      "vis_m": 250,
      "fzfg": true,
      "metar_trigger": false,
      "taf_trigger": false,
      "metar": "METAR LYNI 280730Z 18004KT 150V210 0250 R29/0400N R11/0450N FZFG BKN001 M01/M01 Q1007 BECMG 0700 BKN002",
      "taf": ""
    },
    {
      "icao": "LYPG",
      "alert": "OK",
      "vis_m": 9999,
      "fzfg": false,
      "metar_trigger": false,
      "taf_trigger": false,
      "metar": "METAR LYPG 280730Z 30003KT 280V340 9999 FEW030 SCT050 06/04 Q1008 NOSIG",
      "taf": "TAF LYPG 280500Z 2806/2906 16006KT 9999 SCT040 BKN080 TX10/2813Z TN05/2806Z"
    },
    {
      "icao": "LZIB",
      "alert": "OK",
      "vis_m": 6000,
      "fzfg": false,
      "metar_trigger": false,
      "taf_trigger": false,
      "metar": "METAR LZIB 280730Z 06006KT 6000 FEW007 OVC011 01/01 Q0997 TEMPO BKN008",
      "taf": "TAF LZIB 280515Z 2806/2906 05007KT 7000 OVC018"
    },
    {
      "icao": "LZKZ",
      "alert": "OK",
      "vis_m": 3500,
      "fzfg": false,
      "metar_trigger": false,
      "taf_trigger": false,
      "metar": "METAR LZKZ 280730Z 29002KT 3500 BR OVC008 01/01 Q1001 NOSIG",
      "taf": "TAF LZKZ 280515Z 2806/2906 19006KT 8000 BKN012"
    },
    {
      "icao": "LZTT",
      "alert": "OK",
      "vis_m": 9999,
      "fzfg": false,
      "metar_trigger": false,
      "taf_trigger": false,
      "metar": "METAR LZTT 280730Z 16007KT 9999 FEW010 BKN026 01/M01 Q0997 NOSIG",
      "taf": "TAF LZTT 280515Z 2806/2906 26008KT 9999 BKN035"
    },
    {
      "icao": "OEJN",
      "alert": "OK",
      "vis_m": 9999,
      "fzfg": false,
      "metar_trigger": false,
      "taf_trigger": false,
      "metar": "METAR OEJN 280700Z 33005KT CAVOK 27/17 Q1017 NOSIG",
      "taf": "TAF OEJN 280500Z 2806/2912 28012KT 9999 FEW040"
    },
    {
      "icao": "OEMA",
      "alert": "OK",
      "vis_m": 9999,
      "fzfg": false,
      "metar_trigger": false,
      "taf_trigger": false,
      "metar": "METAR OEMA 280700Z 23008KT CAVOK 23/12 Q1019 NOSIG",
      "taf": "TAF OEMA 280500Z 2806/2912 28014KT 9999 SCT040"
    },
    {
      "icao": "OJAI",
      "alert": "OK",
      "vis_m": 3000,
      "fzfg": false,
      "metar_trigger": false,
      "taf_trigger": false,
      "metar": "METAR OJAI 280700Z 24016KT 3000 BLDU NSC 09/M00 Q1016 NOSIG",
      "taf": "TAF OJAI 280434Z 2806/2912 26012KT 4000 HZ SCT035"
    },
    {
      "icao": "OMAA",
      "alert": "OK",
      "vis_m": 9999,
      "fzfg": false,
      "metar_trigger": false,
      "taf_trigger": false,
      "metar": "METAR OMAA 280730Z 17008KT 140V200 CAVOK 23/10 Q1021 NOSIG",
      "taf": "TAF OMAA 280500Z 2806/2912 16008KT 8000 NSC"
    },
    {
      "icao": "OMDB",
      "alert": "OK",
      "vis_m": 9999,
      "fzfg": false,
      "metar_trigger": false,
      "taf_trigger": false,
      "metar": "METAR OMDB 280730Z 17007KT 130V210 CAVOK 24/12 Q1021 NOSIG",
      "taf": "TAF OMDB 280500Z 2806/2912 16005KT 8000 NSC"
    },
    {
      "icao": "UAAA",
      "alert": "OK",
      "vis_m": 9999,
      "fzfg": false,
      "metar_trigger": false,
      "taf_trigger": false,
      "metar": "METAR UAAA 280730Z 02003MPS 9999 SCT050 BKN100 03/M02 Q1021 NOSIG",
      "taf": "TAF UAAA 280503Z 2806/2906 04003MPS 3100 BR FU BKN030CB OVC100 TX02/2806Z TNM05/2902Z"
    },
    {
      "icao": "UBBB",
      "alert": "OK",
      "vis_m": 9999,
      "fzfg": false,
      "metar_trigger": false,
      "taf_trigger": false,
      "metar": "METAR UBBB 280730Z 16012KT 9999 BKN020 08/04 Q1022 NOSIG",
      "taf": "TAF UBBB 280513Z 2806/2906 15016KT 9999 OVC030 TX09/2808Z TN05/2901Z"
    },
    {
      "icao": "UDSG",
      "alert": "OK",
      "vis_m": 1300,
      "fzfg": true,
      "metar_trigger": false,
      "taf_trigger": false,
      "metar": "METAR UDSG 280730Z 13001KT 1300 R02/1300U BR BKN010 M09/M10 Q1020 NOSIG",
      "taf": "TAF UDSG 280458Z 2806/2906 VRB06KT 0800 FZFG OVC010"
    },
    {
      "icao": "UDYZ",
      "alert": "OK",
      "vis_m": 3900,
      "fzfg": false,
      "metar_trigger": false,
      "taf_trigger": false,
      "metar": "METAR UDYZ 280730Z 33003KT 3900 BR BKN008 M04/M06 Q1024 NOSIG",
      "taf": "TAF UDYZ 280500Z 2806/2906 VRB04KT 2300 BR BKN008"
    },
    {
      "icao": "UGKO",
      "alert": "OK",
      "vis_m": 9999,
      "fzfg": false,
      "metar_trigger": false,
      "taf_trigger": false,
      "metar": "METAR UGKO 280730Z 09021KT CAVOK 10/M01 Q1013 NOSIG",
      "taf": "TAF UGKO 280500Z 2806/2906 08017KT CAVOK TX15/2812Z TN03/2903Z"
    }
  ]
}