{
  "ts_utc": "2026-02-10T12:34:53Z",
  "threshold_m": 150,
  "source": "stations_override.txt (ICAO list) + aviationweather.gov (METAR/TAF raw)",
  "station_count": 159,
  "stations": [
    {
      "icao": "BIKF",
      "alert": "OK",
      "vis_m": 9999,
      "fzfg": false,
      "metar_trigger": false,
      "taf_trigger": false,
      "metar": "METAR BIKF 101230Z 03013KT CAVOK 03/M00 Q1006",
      "taf": "TAF BIKF 101031Z 1012/1112 05012KT 9999 FEW040 TX04/1015Z TNM03/1110Z"
    },
    {
      "icao": "BKPR",
      "alert": "OK",
      "vis_m": 9999,
      "fzfg": false,
      "metar_trigger": false,
      "taf_trigger": false,
      "metar": "METAR BKPR 101230Z VRB01KT 9999 SCT010 BKN025 06/04 Q1007 NOSIG",
      "taf": "TAF BKPR 101130Z 1012/1112 15008KT 9999 BKN010 BKN025"
    },
    {
      "icao": "EBCI",
      "alert": "OK",
      "vis_m": 7000,
      "fzfg": false,
      "metar_trigger": false,
      "taf_trigger": false,
      "metar": "METAR EBCI 101220Z COR 20012KT 7000 -DZ FEW009 BKN011 09/08 Q0992 TEMPO 3000 SHRA BKN016",
      "taf": "TAF EBCI 101100Z 1012/1118 19009KT 9999 BKN007"
    },
    {
      "icao": "EDDB",
      "alert": "OK",
      "vis_m": 9999,
      "fzfg": false,
      "metar_trigger": false,
      "taf_trigger": false,
      "metar": "METAR EDDB 101220Z AUTO 13007KT 9999 OVC024 03/00 Q1000 NOSIG",
      "taf": "TAF EDDB 101100Z 1012/1112 13006KT 8000 BKN025"
    },
    {
      "icao": "EDDH",
      "alert": "OK",
      "vis_m": 9999,
      "fzfg": false,
      "metar_trigger": false,
      "taf_trigger": false,
      "metar": "METAR EDDH 101220Z AUTO 12012KT 9999 FEW016 04/00 Q0997 NOSIG",
      "taf": "TAF EDDH 101100Z 1012/1118 11011KT 9999 BKN030"
    },
    {
      "icao": "EDDK",
      "alert": "OK",
      "vis_m": 9999,
      "fzfg": false,
      "metar_trigger": false,
      "taf_trigger": false,
      "metar": "METAR EDDK 101220Z AUTO 13011KT 9999 BKN024 BKN042 08/04 Q0994 NOSIG",
      "taf": "TAF EDDK 101100Z 1012/1118 12010KT 9999 BKN020"
    },
    {
      "icao": "EDDN",
      "alert": "OK",
      "vis_m": 9999,
      "fzfg": false,
      "metar_trigger": false,
      "taf_trigger": false,
      "metar": "METAR EDDN 101220Z AUTO 14010KT CAVOK 05/01 Q0999 NOSIG",
      "taf": "TAF EDDN 101100Z 1012/1112 14008KT 9999 BKN040"
    },
    {
      "icao": "EDDS",
      "alert": "OK",
      "vis_m": 9999,
      "fzfg": false,
      "metar_trigger": false,
      "taf_trigger": false,
      "metar": "METAR EDDS 101220Z AUTO VRB02KT 9999 OVC036 07/04 Q0997 NOSIG",
      "taf": "TAF EDDS 101100Z 1012/1112 09005KT 9999 BKN030"
    },
    {
      "icao": "EDFH",
      "alert": "OK",
      "vis_m": 9999,
      "fzfg": false,
      "metar_trigger": false,
      "taf_trigger": false,
      "metar": "METAR EDFH 101220Z 15009KT 9999 -DZ SCT001 BKN008 05/04 Q0994",
      "taf": "TAF EDFH 101100Z 1012/1112 17012KT 6000 BKN008"
    },
    {
      "icao": "EDJA",
      "alert": "OK",
      "vis_m": 9999,
      "fzfg": false,
      "metar_trigger": false,
      "taf_trigger": false,
      "metar": "METAR EDJA 101220Z 22008KT 9999 SCT042 BKN052 OVC060 06/01 Q0999",
      "taf": "TAF EDJA 101100Z 1012/1021 21006KT 9999 BKN045"
    },
    {
      "icao": "EDLW",
      "alert": "OK",
      "vis_m": 9999,
      "fzfg": false,
      "metar_trigger": false,
      "taf_trigger": false,
      "metar": "METAR EDLW 101220Z 17009KT 130V200 9999 FEW020 BKN033 OVC040 08/04 Q0993",
      "taf": "TAF EDLW 101100Z 1012/1112 15008KT 9999 BKN025"
    },
    {
      "icao": "EDNY",
      "alert": "OK",
      "vis_m": 6000,
      "fzfg": false,
      "metar_trigger": false,
      "taf_trigger": false,
      "metar": "METAR EDNY 101220Z 00000KT 6000 -RA BKN010 OVC039 03/03 Q1000",
      "taf": "TAF EDNY 101100Z 1012/1021 VRB02KT 4000 BR BKN004"
    },
    {
      "icao": "EDSB",
      "alert": "OK",
      "vis_m": 9999,
      "fzfg": false,
      "metar_trigger": false,
      "taf_trigger": false,
      "metar": "METAR EDSB 101220Z 20010KT 180V240 9999 OVC033 10/06 Q0997",
      "taf": "TAF EDSB 101100Z 1012/1112 VRB03KT 9999 OVC035"
    },
    {
      "icao": "EETN",
      "alert": "OK",
      "vis_m": 9999,
      "fzfg": false,
      "metar_trigger": false,
      "taf_trigger": false,
      "metar": "METAR EETN 101220Z 19007KT 150V220 9999 FEW009 OVC024 M06/M08 Q1005 TEMPO BKN008",
      "taf": "TAF EETN 101130Z 1012/1112 19008KT 9999 SCT008 BKN020"
    },
    {
      "icao": "EFTU",
      "alert": "OK",
      "vis_m": 9999,
      "fzfg": false,
      "metar_trigger": false,
      "taf_trigger": false,
      "metar": "METAR EFTU 101220Z AUTO 25004KT 210V270 9999 BKN013 OVC029 M06/M09 Q1003",
      "taf": "TAF EFTU 101135Z 1012/1112 22004KT 9999 BKN013"
    },
    {
      "icao": "EGBB",
      "alert": "OK",
      "vis_m": 4000,
      "fzfg": false,
      "metar_trigger": false,
      "taf_trigger": false,
      "metar": "METAR EGBB 101220Z 12008KT 4000 BR OVC004 08/07 Q0986",
      "taf": ""
    },
    {
      "icao": "EGGP",
      "alert": "OK",
      "vis_m": 9999,
      "fzfg": false,
      "metar_trigger": false,
      "taf_trigger": false,
      "metar": "METAR EGGP 101220Z 12011KT 9999 6000SW OVC011 08/06 Q0986",
      "taf": "TAF EGGP 101056Z 1012/1112 12010KT 9999 BKN010"
    },
    {
      "icao": "EGGW",
      "alert": "OK",
      "vis_m": 4600,
      "fzfg": false,
      "metar_trigger": false,
      "taf_trigger": false,
      "metar": "METAR EGGW 101220Z AUTO 16005KT 130V200 4600 BR OVC002 08/08 Q0987",
      "taf": "TAF EGGW 101101Z 1012/1112 17005KT 3000 BR BKN004"
    },
    {
      "icao": "EGKK",
      "alert": "OK",
      "vis_m": 9999,
      "fzfg": false,
      "metar_trigger": false,
      "taf_trigger": false,
      "metar": "METAR EGKK 101220Z 21007KT 170V250 9999 FEW008 SCT011 BKN041 10/09 Q0987",
      "taf": "TAF EGKK 101107Z 1012/1118 20010KT 9999 SCT010"
    },
    {
      "icao": "EGNM",
      "alert": "OK",
      "vis_m": 150,
      "fzfg": false,
      "metar_trigger": false,
      "taf_trigger": false,
      "metar": "METAR EGNM 101220Z 09008KT 0150 R14/0400N -RA FG VV/// 05/05 Q0987",
      "taf": "TAF EGNM 101056Z 1012/1112 10010KT 0300 -RADZ FG VV///"
    },
    {
      "icao": "EGPD",
      "alert": "OK",
      "vis_m": 9999,
      "fzfg": false,
      "metar_trigger": false,
      "taf_trigger": false,
      "metar": "METAR EGPD 101220Z AUTO 13012KT 9999 OVC018 05/02 Q0993 TEMPO BKN012",
      "taf": "TAF EGPD 101054Z 1012/1112 12012KT 9999 SCT015 BKN030"
    },
    {
      "icao": "EGPF",
      "alert": "OK",
      "vis_m": 7000,
      "fzfg": false,
      "metar_trigger": false,
      "taf_trigger": false,
      "metar": "METAR EGPF 101220Z AUTO 07011KT 7000 -RA BKN012 OVC018 07/05 Q0988",
      "taf": "TAF EGPF 101103Z 1012/1112 06011KT 9999 SCT020"
    },
    {
      "icao": "EHBK",
      "alert": "OK",
      "vis_m": 9999,
      "fzfg": false,
      "metar_trigger": false,
      "taf_trigger": false,
      "metar": "METAR EHBK 101225Z AUTO 20013KT 170V230 9999 OVC018 11/07 Q0992 NOSIG",
      "taf": "TAF EHBK 101121Z 1012/1118 19010KT 9999 BKN016"
    },
    {
      "icao": "EHEH",
      "alert": "OK",
      "vis_m": 9999,
      "fzfg": false,
      "metar_trigger": false,
      "taf_trigger": false,
      "metar": "METAR EHEH 101225Z AUTO 16007KT 110V210 9999 FEW006 SCT007 OVC015 08/07 Q0992 WHT NOSIG RMK TREND REMOTED BY EHWX",
      "taf": "TAF EHEH 101125Z 1012/1118 14006KT 5000 BR BKN006 OVC012"
    },
    {
      "icao": "EKBI",
      "alert": "OK",
      "vis_m": 1600,
      "fzfg": false,
      "metar_trigger": false,
      "taf_trigger": false,
      "metar": "METAR EKBI 101220Z AUTO 09007KT 1600 R09/P1500N R27/1400U BR OVC003/// M00/M00 Q0999",
      "taf": "TAF EKBI 101127Z 1012/1112 09010KT 2500 BR BKN003"
    },
    {
      "icao": "EKCH",
      "alert": "OK",
      "vis_m": 4000,
      "fzfg": false,
      "metar_trigger": false,
      "taf_trigger": false,
      "metar": "METAR EKCH 101220Z 13009KT 4000 BR OVC006 M00/M01 Q1002 TEMPO 5000",
      "taf": "TAF EKCH 101127Z 1012/1112 12008KT 3000 BR BKN006"
    },
    {
      "icao": "ENAL",
      "alert": "OK",
      "vis_m": 9999,
      "fzfg": false,
      "metar_trigger": false,
      "taf_trigger": false,
      "metar": "METAR ENAL 101220Z 16004KT 130V220 9999 SCT046 04/M03 Q1002",
      "taf": "TAF ENAL 101100Z 1012/1021 15005KT 9999 FEW020 BKN040"
    },
    {
      "icao": "ENBR",
      "alert": "OK",
      "vis_m": 9999,
      "fzfg": false,
      "metar_trigger": false,
      "taf_trigger": false,
      "metar": "METAR ENBR 101220Z 00000KT CAVOK 02/M05 Q1002 NOSIG RMK WIND 1200FT VRB01KT",
      "taf": "TAF ENBR 101100Z 1012/1112 VRB03KT CAVOK"
    },
    {
      "icao": "ENGM",
      "alert": "OK",
      "vis_m": 9999,
      "fzfg": false,
      "metar_trigger": false,
      "taf_trigger": false,
      "metar": "METAR ENGM 101220Z 00000KT 9999 OVC005 M10/M12 Q1003 NOSIG",
      "taf": "TAF ENGM 101100Z 1012/1112 VRB03KT 9999 BKN004"
    },
    {
      "icao": "ENHD",
      "alert": "OK",
      "vis_m": 9999,
      "fzfg": false,
      "metar_trigger": false,
      "taf_trigger": false,
      "metar": "METAR ENHD 101220Z 11004KT 9999 SCT044 02/M05 Q1001",
      "taf": "TAF ENHD 101100Z 1012/1021 09008KT 9999 SCT040"
    },
    {
      "icao": "ENTC",
      "alert": "OK",
      "vis_m": 9999,
      "fzfg": false,
      "metar_trigger": false,
      "taf_trigger": false,
      "metar": "METAR ENTC 101220Z 22007KT 9999 VCSH FEW015 M05/M09 Q1005 TEMPO 4000 -SHSN VV012 RMK WIND 2600FT 35008KT",
      "taf": "TAF ENTC 101100Z 1012/1112 20008KT 9999 FEW020 SCT030"
    },
    {
      "icao": "ENTO",
      "alert": "OK",
      "vis_m": 9999,
      "fzfg": false,
      "metar_trigger": false,
      "taf_trigger": false,
      "metar": "METAR ENTO 101220Z 01006KT CAVOK M09/M13 Q1004 NOSIG",
      "taf": "TAF ENTO 101100Z 1012/1112 02005KT 9999 SCT010 SCT025"
    },
    {
      "icao": "ENVA",
      "alert": "OK",
      "vis_m": 2100,
      "fzfg": false,
      "metar_trigger": false,
      "taf_trigger": false,
      "metar": "METAR ENVA 101220Z 06002KT 2100 -SN VV016 M01/M02 Q1002 BECMG 9999 NSW SCT020 RMK WIND 670FT VRB01KT",
      "taf": ""
    },
    {
      "icao": "ENZV",
      "alert": "OK",
      "vis_m": 9999,
      "fzfg": false,
      "metar_trigger": false,
      "taf_trigger": false,
      "metar": "METAR ENZV 101220Z 12008KT CAVOK 03/M08 Q1001 NOSIG",
      "taf": "TAF ENZV 101100Z 1012/1112 10008KT CAVOK"
    },
    {
      "icao": "EPGD",
      "alert": "OK",
      "vis_m": 6000,
      "fzfg": false,
      "metar_trigger": false,
      "taf_trigger": false,
      "metar": "METAR EPGD 101230Z 17004KT 6000 OVC005 M04/M05 Q1003",
      "taf": "TAF EPGD 101130Z 1012/1112 16004KT 6000 OVC006"
    },
    {
      "icao": "EPKK",
      "alert": "OK",
      "vis_m": 9999,
      "fzfg": false,
      "metar_trigger": false,
      "taf_trigger": false,
      "metar": "METAR EPKK 101230Z 06007KT 9999 FEW053 05/01 Q1003",
      "taf": "TAF EPKK 101130Z 1012/1112 06006KT 7000 SCT040"
    },
    {
      "icao": "EPKT",
      "alert": "OK",
      "vis_m": 9000,
      "fzfg": false,
      "metar_trigger": false,
      "taf_trigger": false,
      "metar": "METAR EPKT 101230Z 15005KT 9000 BKN031 04/02 Q1003",
      "taf": "TAF EPKT 101130Z 1012/1112 20008KT 8000 BKN030"
    },
    {
      "icao": "EPLB",
      "alert": "OK",
      "vis_m": 9999,
      "fzfg": false,
      "metar_trigger": false,
      "taf_trigger": false,
      "metar": "METAR EPLB 101230Z 15005KT 9999 -PL BKN040 OVC049 M01/M04 Q1006",
      "taf": ""
    },
    {
      "icao": "EPMO",
      "alert": "OK",
      "vis_m": 8000,
      "fzfg": false,
      "metar_trigger": false,
      "taf_trigger": false,
      "metar": "METAR EPMO 101230Z 11005KT 090V150 8000 BKN009 M03/M05 Q1004",
      "taf": "TAF EPMO 101130Z 1012/1112 12008KT 9999 BKN020"
    },
    {
      "icao": "EPPO",
      "alert": "OK",
      "vis_m": 5000,
      "fzfg": false,
      "metar_trigger": false,
      "taf_trigger": false,
      "metar": "METAR EPPO 101230Z 13005KT 5000 BR OVC046 01/M02 Q1002",
      "taf": "TAF EPPO 101130Z 1012/1112 14008KT 6000 OVC040"
    },
    {
      "icao": "EPRA",
      "alert": "OK",
      "vis_m": 9999,
      "fzfg": false,
      "metar_trigger": false,
      "taf_trigger": false,
      "metar": "METAR EPRA 101230Z 13006KT 9999 -FZRA BKN030 M01/M03 Q1004",
      "taf": "TAF EPRA 101130Z 1012/1021 14006KT 9999 BKN030"
    },
    {
      "icao": "EPRZ",
      "alert": "OK",
      "vis_m": 9999,
      "fzfg": false,
      "metar_trigger": false,
      "taf_trigger": false,
      "metar": "METAR EPRZ 101230Z 08005KT 9999 FEW023 01/M03 Q1006",
      "taf": "TAF EPRZ 101130Z 1012/1112 08007KT CAVOK"
    },
    {
      "icao": "EPSC",
      "alert": "OK",
      "vis_m": 7000,
      "fzfg": false,
      "metar_trigger": false,
      "taf_trigger": false,
      "metar": "METAR EPSC 101230Z 13007KT 7000 OVC033 M00/M02 Q1001",
      "taf": "TAF EPSC 101130Z 1012/1112 13008KT 8000 BKN030"
    },
    {
      "icao": "EPSY",
      "alert": "OK",
      "vis_m": 3700,
      "fzfg": false,
      "metar_trigger": false,
      "taf_trigger": false,
      "metar": "METAR EPSY 101230Z VRB02KT 3700 BR BKN005 OVC010 M07/M07 Q1004",
      "taf": "TAF EPSY 101130Z 1012/1021 16005KT 5000 BR OVC006"
    },
    {
      "icao": "EPWA",
      "alert": "OK",
      "vis_m": 8000,
      "fzfg": false,
      "metar_trigger": false,
      "taf_trigger": false,
      "metar": "METAR EPWA 101230Z 14008KT 8000 -FZRA BKN023 M03/M05 Q1004 TEMPO FZRA",
      "taf": "TAF EPWA 101130Z 1012/1112 13008KT 9999 BKN020"
    },
    {
      "icao": "EPWR",
      "alert": "OK",
      "vis_m": 8000,
      "fzfg": false,
      "metar_trigger": false,
      "taf_trigger": false,
      "metar": "METAR EPWR 101230Z 14007KT 8000 BKN028 04/01 Q1001",
      "taf": "TAF EPWR 101130Z 1012/1112 12007KT 6000 BKN033"
    },
    {
      "icao": "ESGG",
      "alert": "OK",
      "vis_m": 9999,
      "fzfg": false,
      "metar_trigger": false,
      "taf_trigger": false,
      "metar": "METAR ESGG 101220Z 10004KT 050V140 9999 BKN006 M03/M05 Q1001",
      "taf": "TAF ESGG 101130Z 1012/1112 10005KT 9999 SCT008 BKN018"
    },
    {
      "icao": "ESKN",
      "alert": "OK",
      "vis_m": 9999,
      "fzfg": false,
      "metar_trigger": false,
      "taf_trigger": false,
      "metar": "METAR ESKN 101220Z 28008KT 9999 BKN017 M06/M09 Q1003",
      "taf": "TAF ESKN 101130Z 1012/1112 26005KT 9999 BKN016"
    },
    {
      "icao": "ESMS",
      "alert": "OK",
      "vis_m": 3300,
      "fzfg": false,
      "metar_trigger": false,
      "taf_trigger": false,
      "metar": "METAR ESMS 101220Z 12008KT 3300 BR OVC003 M01/M01 Q1001",
      "taf": "TAF ESMS 101150Z 1012/1112 15008KT 5000 BR BKN006"
    },
    {
      "icao": "ESSA",
      "alert": "OK",
      "vis_m": 9999,
      "fzfg": false,
      "metar_trigger": false,
      "taf_trigger": false,
      "metar": "METAR ESSA 101220Z 25007KT 9999 -SN BKN012 M09/M12 Q1003 TEMPO BKN010",
      "taf": "TAF ESSA 101130Z 1012/1112 24005KT 9999 OVC011"
    },
    {
      "icao": "EYKA",
      "alert": "OK",
      "vis_m": 2700,
      "fzfg": false,
      "metar_trigger": false,
      "taf_trigger": false,
      "metar": "METAR EYKA 101220Z 21004KT 170V250 2700 -SN BR OVC005 M11/M13 Q1006",
      "taf": "TAF EYKA 101118Z 1012/1112 VRB03KT 5000 BR OVC005"
    },
    {
      "icao": "EYPA",
      "alert": "OK",
      "vis_m": 8000,
      "fzfg": false,
      "metar_trigger": false,
      "taf_trigger": false,
      "metar": "METAR EYPA 101220Z 16005KT 130V190 8000 OVC006 M10/M12 Q1005",
      "taf": "TAF EYPA 101117Z 1012/1112 15008KT 6000 OVC005"
    },
    {
      "icao": "EYVI",
      "alert": "OK",
      "vis_m": 9999,
      "fzfg": false,
      "metar_trigger": false,
      "taf_trigger": false,
      "metar": "METAR EYVI 101220Z 19010KT 9999 OVC020 M10/M13 Q1005 NOSIG",
      "taf": "TAF EYVI 101125Z 1012/1112 19008KT 5000 BR BKN010"
    },
    {
      "icao": "GCFV",
      "alert": "OK",
      "vis_m": 9999,
      "fzfg": false,
      "metar_trigger": false,
      "taf_trigger": false,
      "metar": "METAR GCFV 101200Z 36014KT 9999 FEW010 23/16 Q1024",
      "taf": "TAF GCFV 100800Z 1009/1109 04014KT 9999 SCT020 TX23/1014Z TN16/1106Z"
    },
    {
      "icao": "GCLP",
      "alert": "OK",
      "vis_m": 9999,
      "fzfg": false,
      "metar_trigger": false,
      "taf_trigger": false,
      "metar": "METAR GCLP 101200Z 02022KT 9999 SCT030 22/16 Q1024 NOSIG",
      "taf": "TAF GCLP 100800Z 1009/1109 02019KT 9999 FEW025 TX22/1014Z TN17/1106Z"
    },
    {
      "icao": "GCTS",
      "alert": "OK",
      "vis_m": 9999,
      "fzfg": false,
      "metar_trigger": false,
      "taf_trigger": false,
      "metar": "METAR GCTS 101200Z 11014KT 9999 FEW022 22/06 Q1025 WS R07 NOSIG",
      "taf": "TAF GCTS 100800Z 1009/1109 06004KT 9999 FEW035 TX22/1014Z TN17/1106Z"
    },
    {
      "icao": "GMAD",
      "alert": "OK",
      "vis_m": 8000,
      "fzfg": false,
      "metar_trigger": false,
      "taf_trigger": false,
      "metar": "METAR GMAD 101230Z 27004KT 230V310 8000 SCT016 20/19 Q1022 NOSIG",
      "taf": "TAF GMAD 101100Z 1012/1118 28011KT 8000 BKN016"
    },
    {
      "icao": "GMMN",
      "alert": "OK",
      "vis_m": 9999,
      "fzfg": false,
      "metar_trigger": false,
      "taf_trigger": false,
      "metar": "METAR GMMN 101230Z 29006KT 250V310 9999 SCT009 SCT030 20/17 Q1024 NOSIG",
      "taf": "TAF GMMN 101100Z 1012/1118 30007KT 9999 SCT016"
    },
    {
      "icao": "GMMX",
      "alert": "OK",
      "vis_m": 9999,
      "fzfg": false,
      "metar_trigger": false,
      "taf_trigger": false,
      "metar": "METAR GMMX 101230Z 03006KT 350V060 CAVOK 23/14 Q1023 NOSIG",
      "taf": "TAF GMMX 101100Z 1012/1118 24008KT 8000 SCT026"
    },
    {
      "icao": "HEGN",
      "alert": "OK",
      "vis_m": null,
      "fzfg": false,
      "metar_trigger": false,
      "taf_trigger": false,
      "metar": "",
      "taf": "TAF HEGN 101100Z 1012/1118 34008KT 6000 SCT025"
    },
    {
      "icao": "HEMA",
      "alert": "OK",
      "vis_m": null,
      "fzfg": false,
      "metar_trigger": false,
      "taf_trigger": false,
      "metar": "",
      "taf": "TAF HEMA 101100Z 1012/1118 09012KT CAVOK"
    },
    {
      "icao": "HESH",
      "alert": "OK",
      "vis_m": null,
      "fzfg": false,
      "metar_trigger": false,
      "taf_trigger": false,
      "metar": "",
      "taf": "TAF HESH 101100Z 1012/1118 02008KT CAVOK"
    },
    {
      "icao": "HESX",
      "alert": "OK",
      "vis_m": null,
      "fzfg": false,
      "metar_trigger": false,
      "taf_trigger": false,
      "metar": "",
      "taf": "TAF HESX 101100Z 1012/1118 25008KT CAVOK"
    },
    {
      "icao": "LATI",
      "alert": "OK",
      "vis_m": 9999,
      "fzfg": false,
      "metar_trigger": false,
      "taf_trigger": false,
      "metar": "METAR LATI 101220Z VRB03KT 9999 SCT050 BKN100 16/05 Q1006 NOSIG",
      "taf": "TAF LATI 101100Z 1012/1112 VRB05KT 9999 SCT040 BKN080 TX16/1012Z TN09/1105Z"
    },
    {
      "icao": "LBPD",
      "alert": "OK",
      "vis_m": 9999,
      "fzfg": false,
      "metar_trigger": false,
      "taf_trigger": false,
      "metar": "METAR LBPD 101230Z AUTO 13005KT 9999 FEW014/// OVC019/// 02/00 Q1013 NOSIG",
      "taf": "TAF LBPD 101100Z 1012/1112 11010KT 9999 BKN020 OVC035"
    },
    {
      "icao": "LBSF",
      "alert": "OK",
      "vis_m": 9999,
      "fzfg": false,
      "metar_trigger": false,
      "taf_trigger": false,
      "metar": "METAR LBSF 101230Z 11015KT 9999 FEW019 SCT024 BKN084 02/M03 Q1010 NOSIG",
      "taf": "TAF LBSF 101100Z 1012/1112 11014KT 9999 BKN015 OVC025"
    },
    {
      "icao": "LBWN",
      "alert": "OK",
      "vis_m": 9999,
      "fzfg": false,
      "metar_trigger": false,
      "taf_trigger": false,
      "metar": "METAR LBWN 101230Z 04008KT 350V070 9999 OVC025 03/00 Q1014 NOSIG",
      "taf": "TAF LBWN 101100Z 1012/1112 04012KT 9999 SCT015 OVC030"
    },
    {
      "icao": "LCLK",
      "alert": "OK",
      "vis_m": 9999,
      "fzfg": false,
      "metar_trigger": false,
      "taf_trigger": false,
      "metar": "METAR LCLK 101230Z 22017KT 9999 -SHRA FEW025 SCT045 19/15 Q1008 NOSIG",
      "taf": "TAF LCLK 101130Z 1012/1112 22020KT 9999 FEW025 SCT040"
    },
    {
      "icao": "LCPH",
      "alert": "OK",
      "vis_m": 9999,
      "fzfg": false,
      "metar_trigger": false,
      "taf_trigger": false,
      "metar": "METAR LCPH 101230Z 26013KT 230V300 9999 SCT025 SCT035 18/12 Q1008 NOSIG",
      "taf": "TAF LCPH 101130Z 1012/1112 26016KT 9999 FEW025 SCT040"
    },
    {
      "icao": "LEAL",
      "alert": "OK",
      "vis_m": 9999,
      "fzfg": false,
      "metar_trigger": false,
      "taf_trigger": false,
      "metar": "METAR LEAL 101200Z 22011KT 180V250 9999 FEW045 23/13 Q1010 NOSIG",
      "taf": "TAF LEAL 101100Z 1012/1112 25012KT 9999 SCT045 TX23/1012Z TN15/1106Z"
    },
    {
      "icao": "LEBB",
      "alert": "OK",
      "vis_m": 9999,
      "fzfg": false,
      "metar_trigger": false,
      "taf_trigger": false,
      "metar": "METAR LEBB 101200Z 21011KT 160V270 9999 FEW070 21/13 Q1001 TEMPO RA",
      "taf": ""
    },
    {
      "icao": "LEBL",
      "alert": "OK",
      "vis_m": 9999,
      "fzfg": false,
      "metar_trigger": false,
      "taf_trigger": false,
      "metar": "METAR LEBL 101200Z 24003KT 200V290 9999 SCT035 17/13 Q1005 NOSIG",
      "taf": "TAF LEBL 101100Z 1012/1112 22012KT 9999 FEW020 TX20/1012Z TN14/1106Z"
    },
    {
      "icao": "LECH",
      "alert": "OK",
      "vis_m": 9999,
      "fzfg": false,
      "metar_trigger": false,
      "taf_trigger": false,
      "metar": "METAR LECH 101200Z AUTO VRB02KT CAVOK 22/08 Q1006",
      "taf": ""
    },
    {
      "icao": "LEMD",
      "alert": "OK",
      "vis_m": 9999,
      "fzfg": false,
      "metar_trigger": false,
      "taf_trigger": false,
      "metar": "SPECI LEMD 101213Z 23014G24KT 9999 -RA FEW013 FEW050TCU SCT060 BKN080 13/13 Q1013 RERA NOSIG",
      "taf": "TAF LEMD 101100Z 1012/1118 24015KT 9999 SCT015 TX15/1015Z TN10/1107Z"
    },
    {
      "icao": "LEMG",
      "alert": "OK",
      "vis_m": 9999,
      "fzfg": false,
      "metar_trigger": false,
      "taf_trigger": false,
      "metar": "METAR LEMG 101200Z 10004KT 040V150 9999 FEW025 BKN055 21/15 Q1018 NOSIG",
      "taf": "TAF LEMG 101100Z 1012/1112 28007KT 9999 SCT020 TX22/1014Z TN16/1107Z"
    },
    {
      "icao": "LEVC",
      "alert": "OK",
      "vis_m": 9999,
      "fzfg": false,
      "metar_trigger": false,
      "taf_trigger": false,
      "metar": "METAR LEVC 101200Z 28012KT 240V320 9999 FEW050 23/11 Q1008 NOSIG",
      "taf": "TAF LEVC 101100Z 1012/1112 26015KT 9999 FEW045 TX24/1014Z TN17/1106Z"
    },
    {
      "icao": "LEXJ",
      "alert": "OK",
      "vis_m": 9999,
      "fzfg": false,
      "metar_trigger": false,
      "taf_trigger": false,
      "metar": "METAR LEXJ 101200Z 32011KT 290V350 9999 -RA FEW030 SCT055 BKN070 17/13 Q1002",
      "taf": ""
    },
    {
      "icao": "LEZG",
      "alert": "OK",
      "vis_m": 9999,
      "fzfg": false,
      "metar_trigger": false,
      "taf_trigger": false,
      "metar": "METAR LEZG 101230Z 25020KT 9999 SCT040 19/12 Q1005 NOSIG",
      "taf": "TAF LEZG 101100Z 1012/1112 25018KT 9999 SCT070 TX20/1012Z TN13/1108Z"
    },
    {
      "icao": "LEZL",
      "alert": "OK",
      "vis_m": 9999,
      "fzfg": false,
      "metar_trigger": false,
      "taf_trigger": false,
      "metar": "METAR LEZL 101200Z 24012KT 9999 BKN012 18/16 Q1019 NOSIG",
      "taf": ""
    },
    {
      "icao": "LFBD",
      "alert": "OK",
      "vis_m": 4500,
      "fzfg": false,
      "metar_trigger": false,
      "taf_trigger": false,
      "metar": "METAR LFBD 101230Z AUTO 27020KT 240V300 4500 1800 RA BR BKN006 OVC011 15/14 Q0998 TEMPO 23015G25KT 1200 TSRA BKN003 SCT025CB",
      "taf": "TAF LFBD 101100Z 1012/1118 23010KT 7000 BKN015 TX14/1014Z TN11/1106Z"
    },
    {
      "icao": "LFLL",
      "alert": "OK",
      "vis_m": 9999,
      "fzfg": false,
      "metar_trigger": false,
      "taf_trigger": false,
      "metar": "METAR LFLL 101230Z 19020KT 9999 FEW020 BKN090 BKN260 11/07 Q1000 TEMPO 18025G35KT 4000 RA",
      "taf": "TAF LFLL 101100Z 1012/1118 18020KT CAVOK"
    },
    {
      "icao": "LFLS",
      "alert": "OK",
      "vis_m": 9999,
      "fzfg": false,
      "metar_trigger": false,
      "taf_trigger": false,
      "metar": "METAR LFLS 101230Z AUTO 22007G18KT 160V300 9999 SCT027 BKN033 OVC050 10/06 Q1001 TEMPO 22018G30KT 4000 RA BKN014",
      "taf": "TAF LFLS 100800Z 1009/1109 22012KT 9999 BKN040"
    },
    {
      "icao": "LFMN",
      "alert": "OK",
      "vis_m": 9999,
      "fzfg": false,
      "metar_trigger": false,
      "taf_trigger": false,
      "metar": "METAR LFMN 101230Z 23009KT 9999 FEW023 BKN033 12/09 Q1005 NOSIG",
      "taf": ""
    },
    {
      "icao": "LFOB",
      "alert": "OK",
      "vis_m": 9999,
      "fzfg": false,
      "metar_trigger": false,
      "taf_trigger": false,
      "metar": "METAR LFOB 101230Z AUTO 21009KT 9999 BKN018 OVC025 11/08 Q0991 TEMPO 4500 -SHRA BKN013TCU BKN025",
      "taf": "TAF LFOB 101100Z 1012/1112 20012KT 9999 BKN020 OVC030"
    },
    {
      "icao": "LFPO",
      "alert": "OK",
      "vis_m": 8000,
      "fzfg": false,
      "metar_trigger": false,
      "taf_trigger": false,
      "metar": "METAR LFPO 101230Z 20010KT 8000 BKN013 BKN025 11/09 Q0993 TEMPO BKN010",
      "taf": "TAF LFPO 101100Z 1012/1118 21010KT 9999 BKN012"
    },
    {
      "icao": "LFSB",
      "alert": "OK",
      "vis_m": 9999,
      "fzfg": false,
      "metar_trigger": false,
      "taf_trigger": false,
      "metar": "METAR LFSB 101230Z AUTO 09003KT 060V120 9999 OVC034 09/06 Q0998 TEMPO 4500 -SHRA FEW040TCU",
      "taf": "TAF LFSB 101100Z 1012/1112 09005KT 9999 OVC035 OVC045"
    },
    {
      "icao": "LGAV",
      "alert": "OK",
      "vis_m": 9999,
      "fzfg": false,
      "metar_trigger": false,
      "taf_trigger": false,
      "metar": "METAR LGAV 101220Z 04012KT 9999 FEW018 BKN040 12/06 Q1009 NOSIG",
      "taf": "TAF LGAV 101100Z 1012/1112 03012KT 9999 SCT025 SCT070"
    },
    {
      "icao": "LGTS",
      "alert": "OK",
      "vis_m": 9999,
      "fzfg": false,
      "metar_trigger": false,
      "taf_trigger": false,
      "metar": "METAR LGTS 101220Z VRB03KT 9999 FEW012 BKN030 10/06 Q1011 NOSIG",
      "taf": "TAF LGTS 101100Z 1012/1112 VRB03KT 9999 FEW010 BKN025"
    },
    {
      "icao": "LHBP",
      "alert": "OK",
      "vis_m": 9999,
      "fzfg": false,
      "metar_trigger": false,
      "taf_trigger": false,
      "metar": "METAR LHBP 101230Z 15010KT 9999 OVC019 03/M01 Q1008 NOSIG",
      "taf": "TAF LHBP 101115Z 1012/1112 15012KT 9999 BKN019"
    },
    {
      "icao": "LHDC",
      "alert": "OK",
      "vis_m": 9999,
      "fzfg": false,
      "metar_trigger": false,
      "taf_trigger": false,
      "metar": "METAR LHDC 101215Z AUTO 21004KT 180V240 9999 OVC027 05/01 Q1009 NOSIG",
      "taf": "TAF LHDC 101115Z 1012/1021 21006KT 9999 BKN025 OVC040"
    },
    {
      "icao": "LIBD",
      "alert": "OK",
      "vis_m": 9999,
      "fzfg": false,
      "metar_trigger": false,
      "taf_trigger": false,
      "metar": "METAR LIBD 101220Z 03004KT 320V080 CAVOK 13/07 Q1006",
      "taf": "TAF LIBD 101100Z 1012/1112 VRB05KT 9999 SCT040"
    },
    {
      "icao": "LIBG",
      "alert": "OK",
      "vis_m": 9999,
      "fzfg": false,
      "metar_trigger": false,
      "taf_trigger": false,
      "metar": "METAR LIBG 101150Z 25005KT 200V310 CAVOK 15/07 Q1007",
      "taf": "TAF LIBG 101100Z 1012/1021 18010KT 9999 FEW040"
    },
    {
      "icao": "LIBP",
      "alert": "OK",
      "vis_m": 9999,
      "fzfg": false,
      "metar_trigger": false,
      "taf_trigger": false,
      "metar": "METAR LIBP 101220Z AUTO 06008KT 9999 SCT098/// 13/09 Q1005",
      "taf": "TAF LIBP 101100Z 1012/1112 VRB05KT 9999 BKN020"
    },
    {
      "icao": "LIBR",
      "alert": "OK",
      "vis_m": 9999,
      "fzfg": false,
      "metar_trigger": false,
      "taf_trigger": false,
      "metar": "METAR LIBR 101220Z 08005KT 9999 SCT035 13/09 Q1006",
      "taf": "TAF LIBR 101100Z 1012/1112 VRB05KT 9999 SCT020"
    },
    {
      "icao": "LICA",
      "alert": "OK",
      "vis_m": 9999,
      "fzfg": false,
      "metar_trigger": false,
      "taf_trigger": false,
      "metar": "METAR LICA 101220Z AUTO 22007KT 9999 -RA FEW014/// BKN029/// BKN049/// 13/11 Q1008 REDZ RERA",
      "taf": "TAF LICA 101100Z 1012/1112 26012KT 9999 BKN040"
    },
    {
      "icao": "LICC",
      "alert": "OK",
      "vis_m": 9999,
      "fzfg": false,
      "metar_trigger": false,
      "taf_trigger": false,
      "metar": "METAR LICC 101220Z 25014KT 9999 FEW030 18/14 Q1008",
      "taf": "TAF LICC 101100Z 1012/1112 26013KT 9999 SCT030"
    },
    {
      "icao": "LICJ",
      "alert": "OK",
      "vis_m": 9999,
      "fzfg": false,
      "metar_trigger": false,
      "taf_trigger": false,
      "metar": "METAR LICJ 101220Z 21011KT 9999 SCT030 15/10 Q1008",
      "taf": "TAF LICJ 101100Z 1012/1112 21015KT 9999 SCT025"
    },
    {
      "icao": "LIMC",
      "alert": "OK",
      "vis_m": 7000,
      "fzfg": false,
      "metar_trigger": false,
      "taf_trigger": false,
      "metar": "METAR LIMC 101220Z 13003KT 080V160 7000 BKN015 09/07 Q1005 NOSIG",
      "taf": "TAF LIMC 101100Z 1012/1118 VRB04KT 7000 SCT010 BKN020"
    },
    {
      "icao": "LIME",
      "alert": "OK",
      "vis_m": 9999,
      "fzfg": false,
      "metar_trigger": false,
      "taf_trigger": false,
      "metar": "METAR LIME 101220Z 22004KT 170V260 9999 SCT020 SCT055 10/06 Q1005 NOSIG",
      "taf": "TAF LIME 101100Z 1012/1112 VRB04KT 8000 BKN025"
    },
    {
      "icao": "LIMF",
      "alert": "OK",
      "vis_m": 6000,
      "fzfg": false,
      "metar_trigger": false,
      "taf_trigger": false,
      "metar": "METAR LIMF 101220Z 08005KT 6000 SCT009 BKN060 08/06 Q1005",
      "taf": "TAF LIMF 101100Z 1012/1112 VRB04KT 7000 BKN020"
    },
    {
      "icao": "LIMJ",
      "alert": "OK",
      "vis_m": 9999,
      "fzfg": false,
      "metar_trigger": false,
      "taf_trigger": false,
      "metar": "METAR LIMJ 101220Z 21005KT 180V240 9999 -RA FEW018 SCT024 BKN050 13/08 Q1004",
      "taf": "TAF LIMJ 101100Z 1012/1112 13007KT 9999 BKN014"
    },
    {
      "icao": "LIPE",
      "alert": "OK",
      "vis_m": 9999,
      "fzfg": false,
      "metar_trigger": false,
      "taf_trigger": false,
      "metar": "METAR LIPE 101220Z 03005KT 010V070 9999 FEW060 12/08 Q1005",
      "taf": "TAF LIPE 101100Z 1012/1112 VRB05KT 7000 SCT020"
    },
    {
      "icao": "LIPH",
      "alert": "OK",
      "vis_m": 9999,
      "fzfg": false,
      "metar_trigger": false,
      "taf_trigger": false,
      "metar": "METAR LIPH 101220Z VRB02KT 9999 FEW040 BKN060 12/06 Q1005",
      "taf": "TAF LIPH 101100Z 1012/1112 VRB05KT 7000 BKN040"
    },
    {
      "icao": "LIPQ",
      "alert": "OK",
      "vis_m": 9999,
      "fzfg": false,
      "metar_trigger": false,
      "taf_trigger": false,
      "metar": "METAR LIPQ 101220Z AUTO VRB02KT 9999 FEW023/// OVC054/// 12/08 Q1005",
      "taf": "TAF LIPQ 101100Z 1012/1112 VRB05KT 9999 BKN040"
    },
    {
      "icao": "LIPR",
      "alert": "OK",
      "vis_m": 9999,
      "fzfg": false,
      "metar_trigger": false,
      "taf_trigger": false,
      "metar": "METAR LIPR 101220Z 06007KT 9999 FEW020 11/08 Q1005",
      "taf": "TAF LIPR 101100Z 1012/1112 VRB05KT 6000 SCT010 BKN020"
    },
    {
      "icao": "LIPX",
      "alert": "OK",
      "vis_m": 9999,
      "fzfg": false,
      "metar_trigger": false,
      "taf_trigger": false,
      "metar": "METAR LIPX 101220Z 18003KT 130V210 9999 BKN085 12/06 Q1005",
      "taf": "TAF LIPX 101100Z 1012/1112 VRB04KT 8000 BKN050"
    },
    {
      "icao": "LIPY",
      "alert": "OK",
      "vis_m": 9999,
      "fzfg": false,
      "metar_trigger": false,
      "taf_trigger": false,
      "metar": "METAR LIPY 101220Z AUTO 05006KT 9999 NCD 13/09 Q1005",
      "taf": "TAF LIPY 101100Z 1012/1112 VRB05KT 7000 FEW020 SCT040"
    },
    {
      "icao": "LIPZ",
      "alert": "OK",
      "vis_m": 9999,
      "fzfg": false,
      "metar_trigger": false,
      "taf_trigger": false,
      "metar": "METAR LIPZ 101220Z 16003KT 9999 SCT055 10/05 Q1005 NOSIG",
      "taf": "TAF LIPZ 101100Z 1012/1118 VRB05KT 9999 BKN050"
    },
    {
      "icao": "LIRF",
      "alert": "OK",
      "vis_m": 9999,
      "fzfg": false,
      "metar_trigger": false,
      "taf_trigger": false,
      "metar": "METAR LIRF 101220Z 21006KT 160V230 9999 FEW015 14/10 Q1006 NOSIG",
      "taf": "TAF LIRF 101100Z 1012/1118 22010KT 9999 FEW050"
    },
    {
      "icao": "LIRN",
      "alert": "OK",
      "vis_m": 9999,
      "fzfg": false,
      "metar_trigger": false,
      "taf_trigger": false,
      "metar": "METAR LIRN 101220Z 19006KT 160V220 9999 -RA FEW025 BKN060 12/10 Q1007 TEMPO RA",
      "taf": "TAF LIRN 101100Z 1012/1112 20010KT 9999 SCT040"
    },
    {
      "icao": "LIRP",
      "alert": "OK",
      "vis_m": 9999,
      "fzfg": false,
      "metar_trigger": false,
      "taf_trigger": false,
      "metar": "METAR LIRP 101215Z 15002KT 9999 BKN050 14/11 Q1006 NOSIG",
      "taf": "TAF LIRP 101100Z 1012/1112 VRB03KT 9999 SCT015 BKN025"
    },
    {
      "icao": "LIRZ",
      "alert": "OK",
      "vis_m": 9999,
      "fzfg": false,
      "metar_trigger": false,
      "taf_trigger": false,
      "metar": "METAR LIRZ 101220Z AUTO VRB03KT 9999 BKN015/// 12/08 Q1006",
      "taf": "TAF LIRZ 101100Z 1012/1112 VRB05KT 7000 BKN010"
    },
    {
      "icao": "LJLJ",
      "alert": "OK",
      "vis_m": 9999,
      "fzfg": false,
      "metar_trigger": false,
      "taf_trigger": false,
      "metar": "METAR LJLJ 101200Z 14003KT 100V220 9999 FEW010 SCT033 BKN050 08/04 Q1004 NOSIG",
      "taf": "TAF LJLJ 101100Z 1012/1112 VRB02KT 9999 BKN025"
    },
    {
      "icao": "LKMT",
      "alert": "OK",
      "vis_m": 9999,
      "fzfg": false,
      "metar_trigger": false,
      "taf_trigger": false,
      "metar": "METAR LKMT 101230Z 19012KT 9999 FEW029 SCT040 07/02 Q1002 NOSIG",
      "taf": "TAF LKMT 101100Z 1012/1112 21012KT 9999 SCT025"
    },
    {
      "icao": "LKPR",
      "alert": "OK",
      "vis_m": 9999,
      "fzfg": false,
      "metar_trigger": false,
      "taf_trigger": false,
      "metar": "METAR LKPR 101230Z 14005KT 100V190 9999 BKN016 03/M00 Q1000 NOSIG",
      "taf": "TAF LKPR 101100Z 1012/1118 17006KT 9999 OVC020"
    },
    {
      "icao": "LLBG",
      "alert": "OK",
      "vis_m": 9999,
      "fzfg": false,
      "metar_trigger": false,
      "taf_trigger": false,
      "metar": "METAR LLBG 101220Z 25012KT 9999 FEW030 20/12 Q1011 NOSIG",
      "taf": "TAF LLBG 101105Z 1012/1112 25014KT 9999 SCT035"
    },
    {
      "icao": "LMML",
      "alert": "OK",
      "vis_m": 9999,
      "fzfg": false,
      "metar_trigger": false,
      "taf_trigger": false,
      "metar": "METAR LMML 101215Z 25014KT 9999 FEW028 16/09 Q1011 NOSIG",
      "taf": "TAF LMML 101100Z 1012/1112 28013KT 9999 SCT020"
    },
    {
      "icao": "LOWW",
      "alert": "OK",
      "vis_m": 9999,
      "fzfg": false,
      "metar_trigger": false,
      "taf_trigger": false,
      "metar": "METAR LOWW 101220Z 14016KT 9999 BKN011 04/01 Q1004 TEMPO SCT012",
      "taf": "TAF LOWW 101115Z 1012/1118 13015KT 9999 BKN010 TX07/1114Z TN03/1105Z"
    },
    {
      "icao": "LPFR",
      "alert": "OK",
      "vis_m": 8000,
      "fzfg": false,
      "metar_trigger": false,
      "taf_trigger": false,
      "metar": "METAR LPFR 101200Z 24012KT 8000 BKN003 16/16 Q1021",
      "taf": "TAF LPFR 101100Z 1012/1112 25012KT 8000 SCT004 BKN008"
    },
    {
      "icao": "LPMA",
      "alert": "OK",
      "vis_m": 9999,
      "fzfg": false,
      "metar_trigger": false,
      "taf_trigger": false,
      "metar": "METAR LPMA 101200Z 17005KT 130V220 9999 FEW015 20/14 Q1025",
      "taf": "TAF LPMA 101100Z 1012/1112 VRB05KT 9999 SCT015"
    },
    {
      "icao": "LPPR",
      "alert": "OK",
      "vis_m": 4000,
      "fzfg": false,
      "metar_trigger": false,
      "taf_trigger": false,
      "metar": "METAR LPPR 101200Z 24008KT 210V270 4000 BR BKN002 BKN005 15/15 Q1011",
      "taf": "TAF LPPR 101100Z 1012/1112 22010KT 6000 SCT004 BKN008"
    },
    {
      "icao": "LPPS",
      "alert": "OK",
      "vis_m": 9999,
      "fzfg": false,
      "metar_trigger": false,
      "taf_trigger": false,
      "metar": "METAR LPPS 101200Z 26010KT 9999 FEW012 19/15 Q1025",
      "taf": "TAF LPPS 101100Z 1012/1118 27008KT 9999 SCT012"
    },
    {
      "icao": "LPPT",
      "alert": "OK",
      "vis_m": 1800,
      "fzfg": false,
      "metar_trigger": false,
      "taf_trigger": false,
      "metar": "METAR LPPT 101200Z 24017KT 1800 DZ BR FEW001 BKN003 16/16 Q1017",
      "taf": "TAF LPPT 101100Z 1012/1118 23013KT 6000 SCT004 BKN008"
    },
    {
      "icao": "LQBK",
      "alert": "OK",
      "vis_m": 9999,
      "fzfg": false,
      "metar_trigger": false,
      "taf_trigger": false,
      "metar": "METAR LQBK 101230Z 33004KT 280V360 9999 BKN010 OVC040 06/04 Q1006 NOSIG",
      "taf": ""
    },
    {
      "icao": "LQSA",
      "alert": "OK",
      "vis_m": 9999,
      "fzfg": false,
      "metar_trigger": false,
      "taf_trigger": false,
      "metar": "METAR LQSA 101230Z VRB02KT 9999 SCT045 BKN060 10/05 Q1004 NOSIG",
      "taf": "TAF LQSA 101100Z 1012/1112 VRB02KT 9999 SCT035 TX09/1013Z TN03/1105Z"
    },
    {
      "icao": "LQTZ",
      "alert": "OK",
      "vis_m": 9999,
      "fzfg": false,
      "metar_trigger": false,
      "taf_trigger": false,
      "metar": "METAR LQTZ 101230Z VRB02KT 9999 -RA FEW040 BKN060 09/05 Q1005",
      "taf": ""
    },
    {
      "icao": "LRBC",
      "alert": "OK",
      "vis_m": 9999,
      "fzfg": false,
      "metar_trigger": false,
      "taf_trigger": false,
      "metar": "METAR LRBC 101200Z 15019KT CAVOK M01/M05 Q1013",
      "taf": "TAF LRBC 101100Z 1012/1021 16015KT 9999 SCT025"
    },
    {
      "icao": "LRBS",
      "alert": "OK",
      "vis_m": 9999,
      "fzfg": false,
      "metar_trigger": false,
      "taf_trigger": false,
      "metar": "METAR LRBS 101230Z 03007KT 340V060 9999 SCT021 BKN030 00/M05 Q1016 NOSIG",
      "taf": "TAF LRBS 101100Z 1012/1112 VRB04KT 9999 SCT040"
    },
    {
      "icao": "LRBV",
      "alert": "OK",
      "vis_m": 9999,
      "fzfg": false,
      "metar_trigger": false,
      "taf_trigger": false,
      "metar": "METAR LRBV 101200Z 11006KT 060V140 9999 FEW072 05/M04 Q1009",
      "taf": "TAF LRBV 101100Z 1012/1021 19012KT CAVOK"
    },
    {
      "icao": "LRCL",
      "alert": "OK",
      "vis_m": 9999,
      "fzfg": false,
      "metar_trigger": false,
      "taf_trigger": false,
      "metar": "METAR LRCL 101230Z 12008KT 9999 -SN FEW010 OVC030 02/00 Q1009",
      "taf": "TAF LRCL 101100Z 1012/1021 14010KT 9999 OVC035"
    },
    {
      "icao": "LRCV",
      "alert": "OK",
      "vis_m": 2500,
      "fzfg": false,
      "metar_trigger": false,
      "taf_trigger": false,
      "metar": "METAR LRCV 101200Z 10011KT 2500 SN BR SCT008 BKN012 OVC022 M02/M03 Q1014",
      "taf": "TAF LRCV 101100Z 1012/1021 10012KT 3000 -SN BR BKN010 OVC030"
    },
    {
      "icao": "LRIA",
      "alert": "OK",
      "vis_m": 9999,
      "fzfg": false,
      "metar_trigger": false,
      "taf_trigger": false,
      "metar": "METAR LRIA 101200Z 15013KT 9999 BKN021 M00/M06 Q1015",
      "taf": "TAF LRIA 101100Z 1012/1021 14014KT 9999 SCT020"
    },
    {
      "icao": "LROP",
      "alert": "OK",
      "vis_m": 9999,
      "fzfg": false,
      "metar_trigger": false,
      "taf_trigger": false,
      "metar": "METAR LROP 101230Z 04008KT 9999 OVC026 00/M06 Q1015 NOSIG",
      "taf": "TAF LROP 101100Z 1012/1112 VRB04KT 9999 SCT040"
    },
    {
      "icao": "LRSB",
      "alert": "OK",
      "vis_m": 9999,
      "fzfg": false,
      "metar_trigger": false,
      "taf_trigger": false,
      "metar": "METAR LRSB 101230Z 16007KT 130V200 9999 FEW035 SCT060 BKN085 03/M04 Q1008",
      "taf": "TAF LRSB 101100Z 1012/1112 14016KT 9999 BKN050"
    },
    {
      "icao": "LRSM",
      "alert": "OK",
      "vis_m": 9999,
      "fzfg": false,
      "metar_trigger": false,
      "taf_trigger": false,
      "metar": "METAR LRSM 101230Z 31002KT 9999 OVC025 05/M02 Q1009",
      "taf": "TAF LRSM 101100Z 1012/1021 14006KT 9999 SCT010 OVC025"
    },
    {
      "icao": "LRSV",
      "alert": "OK",
      "vis_m": 9999,
      "fzfg": false,
      "metar_trigger": false,
      "taf_trigger": false,
      "metar": "METAR LRSV 101200Z 16012KT CAVOK M04/M06 Q1010",
      "taf": "TAF LRSV 101100Z 1012/1021 16012KT CAVOK"
    },
    {
      "icao": "LRTM",
      "alert": "OK",
      "vis_m": 9999,
      "fzfg": false,
      "metar_trigger": false,
      "taf_trigger": false,
      "metar": "METAR LRTM 101230Z 10003KT 060V150 9999 BKN038 SCT043 05/M04 Q1009",
      "taf": "TAF LRTM 101100Z 1012/1021 10005KT 9999 SCT040"
    },
    {
      "icao": "LRTR",
      "alert": "OK",
      "vis_m": 9999,
      "fzfg": false,
      "metar_trigger": false,
      "taf_trigger": false,
      "metar": "METAR LRTR 101230Z 15008KT 9999 FEW020 OVC037 04/01 Q1009",
      "taf": "TAF LRTR 101100Z 1012/1112 16008KT 9999 OVC040"
    },
    {
      "icao": "LTAC",
      "alert": "OK",
      "vis_m": 9999,
      "fzfg": false,
      "metar_trigger": false,
      "taf_trigger": false,
      "metar": "METAR LTAC 101220Z 07011KT 9999 SCT023 BKN100 06/02 Q1007 NOSIG RMK RWY21C 08010KT RWY03L 07010KT RWY21R 07010KT RWY03R 04014KT RWY21L 06010KT",
      "taf": "TAF LTAC 101040Z 1012/1112 VRB02KT 9999 SCT040 BKN100"
    },
    {
      "icao": "LTFM",
      "alert": "OK",
      "vis_m": 9999,
      "fzfg": false,
      "metar_trigger": false,
      "taf_trigger": false,
      "metar": "METAR LTFM 101220Z 06020KT 9999 BKN016 BKN025 07/03 Q1010 NOSIG RMK RWY17L 06019KT RWY34L 05015KT RWY16R 06021KT RWY36 06021KT RWY18 07019KT",
      "taf": "TAF LTFM 101040Z 1012/1118 05015KT 9999 SCT012 BKN025"
    },
    {
      "icao": "LUKK",
      "alert": "OK",
      "vis_m": 9999,
      "fzfg": false,
      "metar_trigger": false,
      "taf_trigger": false,
      "metar": "METAR LUKK 101230Z 17010KT 9999 OVC023 M03/M06 Q1017 NOSIG",
      "taf": "TAF LUKK 101103Z 1012/1112 15009KT 9999 BKN020"
    },
    {
      "icao": "LWOH",
      "alert": "OK",
      "vis_m": 9999,
      "fzfg": false,
      "metar_trigger": false,
      "taf_trigger": false,
      "metar": "METAR LWOH 101220Z 15005KT 130V200 9999 SCT040 BKN090 09/04 Q1007",
      "taf": "TAF LWOH 101115Z 1012/1112 17008KT 9999 SCT030 BKN090"
    },
    {
      "icao": "LWSK",
      "alert": "OK",
      "vis_m": 9999,
      "fzfg": false,
      "metar_trigger": false,
      "taf_trigger": false,
      "metar": "METAR LWSK 101220Z VRB02KT 9999 BKN030 OVC050 10/05 Q1009 NOSIG",
      "taf": "TAF LWSK 101115Z 1012/1112 VRB02KT 9999 BKN020 OVC050"
    },
    {
      "icao": "LYBE",
      "alert": "OK",
      "vis_m": 9999,
      "fzfg": false,
      "metar_trigger": false,
      "taf_trigger": false,
      "metar": "METAR LYBE 101230Z 14016KT CAVOK 04/M02 Q1008 NOSIG",
      "taf": "TAF LYBE 101100Z 1012/1112 13019KT CAVOK TX14/1112Z TN00/1105Z"
    },
    {
      "icao": "LYNI",
      "alert": "OK",
      "vis_m": 9999,
      "fzfg": false,
      "metar_trigger": false,
      "taf_trigger": false,
      "metar": "METAR LYNI 101230Z 08006KT 040V110 9999 FEW017 BKN033 04/M02 Q1009 NOSIG",
      "taf": "TAF LYNI 101100Z 1012/1112 08012KT 9999 SCT017 BKN030 OVC080 TX12/1012Z TN01/1105Z"
    },
    {
      "icao": "LYPG",
      "alert": "OK",
      "vis_m": 9000,
      "fzfg": false,
      "metar_trigger": false,
      "taf_trigger": false,
      "metar": "METAR LYPG 101230Z 28003KT 250V330 9000 -RA FEW007 SCT027 BKN033 10/10 Q1007 NOSIG",
      "taf": "TAF LYPG 101100Z 1012/1112 17006KT 8000 FEW007 BKN040 BKN070 TX12/1013Z TN08/1106Z"
    },
    {
      "icao": "LZIB",
      "alert": "OK",
      "vis_m": 9999,
      "fzfg": false,
      "metar_trigger": false,
      "taf_trigger": false,
      "metar": "METAR LZIB 101230Z 10010KT 9999 FEW010 OVC015 03/M00 Q1005 NOSIG",
      "taf": "TAF LZIB 101115Z 1012/1112 12010KT 9999 SCT013 OVC020"
    },
    {
      "icao": "LZKZ",
      "alert": "OK",
      "vis_m": 9999,
      "fzfg": false,
      "metar_trigger": false,
      "taf_trigger": false,
      "metar": "METAR LZKZ 101230Z 18008KT 9999 -RA SCT009 OVC015 03/02 Q1008 NOSIG",
      "taf": ""
    },
    {
      "icao": "LZTT",
      "alert": "OK",
      "vis_m": 9999,
      "fzfg": false,
      "metar_trigger": false,
      "taf_trigger": false,
      "metar": "METAR LZTT 101230Z 26013KT 9999 BKN023 04/M01 Q1004 NOSIG",
      "taf": "TAF LZTT 101115Z 1012/1112 25006KT 9999 FEW013 SCT035"
    },
    {
      "icao": "OEJN",
      "alert": "OK",
      "vis_m": 9999,
      "fzfg": false,
      "metar_trigger": false,
      "taf_trigger": false,
      "metar": "METAR OEJN 101200Z 25010KT CAVOK 31/13 Q1010 NOSIG",
      "taf": "TAF OEJN 101100Z 1012/1118 23010KT CAVOK"
    },
    {
      "icao": "OEMA",
      "alert": "OK",
      "vis_m": 9999,
      "fzfg": false,
      "metar_trigger": false,
      "taf_trigger": false,
      "metar": "METAR OEMA 101200Z 22008KT CAVOK 32/M04 Q1014 NOSIG",
      "taf": "TAF OEMA 101100Z 1012/1118 24010KT CAVOK"
    },
    {
      "icao": "OJAI",
      "alert": "OK",
      "vis_m": 4500,
      "fzfg": false,
      "metar_trigger": false,
      "taf_trigger": false,
      "metar": "METAR OJAI 101200Z 27019KT 4500 BLDU NSC 18/08 Q1012 NOSIG",
      "taf": "TAF OJAI 101100Z 1012/1118 26012KT 4000 HZ NSC"
    },
    {
      "icao": "OMAA",
      "alert": "OK",
      "vis_m": 9999,
      "fzfg": false,
      "metar_trigger": false,
      "taf_trigger": false,
      "metar": "METAR OMAA 101230Z 33013KT CAVOK 27/09 Q1015 NOSIG",
      "taf": "TAF OMAA 101100Z 1012/1118 33011KT 8000 NSC"
    },
    {
      "icao": "OMDB",
      "alert": "OK",
      "vis_m": 9999,
      "fzfg": false,
      "metar_trigger": false,
      "taf_trigger": false,
      "metar": "METAR OMDB 101230Z 31008KT 270V340 CAVOK 27/15 Q1014 NOSIG",
      "taf": "TAF OMDB 101100Z 1012/1118 27010KT 8000 NSC"
    },
    {
      "icao": "UAAA",
      "alert": "OK",
      "vis_m": 9999,
      "fzfg": false,
      "metar_trigger": false,
      "taf_trigger": false,
      "metar": "METAR UAAA 101200Z 05002MPS 360V080 9999 SCT050 OVC100 07/01 Q1013 NOSIG",
      "taf": "TAF UAAA 101103Z 1012/1112 10003MPS 3100 BR FU SCT030CB BKN100 TX08/1109Z TNM02/1102Z"
    },
    {
      "icao": "UBBB",
      "alert": "OK",
      "vis_m": 9999,
      "fzfg": false,
      "metar_trigger": false,
      "taf_trigger": false,
      "metar": "METAR UBBB 101230Z 35021G31KT 9999 -SN OVC027 01/M03 Q1021 NOSIG",
      "taf": "TAF UBBB 101038Z 1012/1112 34024G34KT 9999 SCT012 BKN025 TX01/1012Z TN00/1100Z"
    },
    {
      "icao": "UDSG",
      "alert": "OK",
      "vis_m": 9999,
      "fzfg": false,
      "metar_trigger": false,
      "taf_trigger": false,
      "metar": "METAR UDSG 101200Z 30003KT 9999 OVC040 00/M02 Q1011 NOSIG",
      "taf": "TAF UDSG 101100Z 1012/1112 VRB06KT 9999 BKN040"
    },
    {
      "icao": "UDYZ",
      "alert": "OK",
      "vis_m": 6000,
      "fzfg": false,
      "metar_trigger": false,
      "taf_trigger": false,
      "metar": "METAR UDYZ 101200Z 23006KT 6000 -RA FEW008 OVC017 04/02 Q1011 NOSIG",
      "taf": "TAF UDYZ 101100Z 1012/1112 23006KT 6000 BKN020"
    },
    {
      "icao": "UGKO",
      "alert": "OK",
      "vis_m": 9999,
      "fzfg": false,
      "metar_trigger": false,
      "taf_trigger": false,
      "metar": "METAR UGKO 101200Z 13005KT 9999 FEW015 06/02 Q1015 NOSIG",
      "taf": "TAF UGKO 101100Z 1012/1112 08010KT CAVOK TX09/1111Z TN03/1020Z"
    }
  ]
}