{
  "ts_utc": "2026-04-19T19:00:17Z",
  "threshold_m": 150,
  "source": "stations_override.txt (ICAO list) + aviationweather.gov (METAR/TAF raw)",
  "station_count": 159,
  "stations": [
    {
      "icao": "BIKF",
      "alert": "OK",
      "vis_m": 9999,
      "fzfg": false,
      "metar_trigger": false,
      "taf_trigger": false,
      "metar": "METAR BIKF 191830Z 13024KT 9999 BKN012 OVC032 08/05 Q1023",
      "taf": "TAF BIKF 191627Z 1918/2018 13025KT 9999 SCT015 BKN030 TX11/2015Z TN06/2006Z"
    },
    {
      "icao": "BKPR",
      "alert": "OK",
      "vis_m": null,
      "fzfg": false,
      "metar_trigger": false,
      "taf_trigger": false,
      "metar": "",
      "taf": ""
    },
    {
      "icao": "EBCI",
      "alert": "OK",
      "vis_m": 9999,
      "fzfg": false,
      "metar_trigger": false,
      "taf_trigger": false,
      "metar": "METAR EBCI 191850Z 35006KT CAVOK 10/04 Q1022 NOSIG",
      "taf": "TAF EBCI 191714Z 1918/2024 33009KT 9999 FEW045"
    },
    {
      "icao": "EDDB",
      "alert": "OK",
      "vis_m": 9999,
      "fzfg": false,
      "metar_trigger": false,
      "taf_trigger": false,
      "metar": "METAR EDDB 191850Z AUTO 30016G26KT 9999 RA FEW011 BKN028 BKN035 05/04 Q1014 TEMPO 32015G25KT BKN009",
      "taf": "TAF EDDB 191700Z 1918/2018 30015G25KT 8000 SCT009 BKN020"
    },
    {
      "icao": "EDDH",
      "alert": "OK",
      "vis_m": 9999,
      "fzfg": false,
      "metar_trigger": false,
      "taf_trigger": false,
      "metar": "METAR EDDH 191850Z AUTO 30007KT 9999 FEW017 BKN035 BKN045 09/07 Q1018 TEMPO 34015KT SHRA BKN015CB",
      "taf": "TAF EDDH 191700Z 1918/2024 33008KT 9999 SCT020"
    },
    {
      "icao": "EDDK",
      "alert": "OK",
      "vis_m": 9999,
      "fzfg": false,
      "metar_trigger": false,
      "taf_trigger": false,
      "metar": "METAR EDDK 191850Z AUTO 01006KT CAVOK 11/04 Q1021 NOSIG",
      "taf": "TAF EDDK 191700Z 1918/2024 35007KT 9999 SCT030"
    },
    {
      "icao": "EDDN",
      "alert": "OK",
      "vis_m": 9999,
      "fzfg": false,
      "metar_trigger": false,
      "taf_trigger": false,
      "metar": "METAR EDDN 191850Z AUTO 33002KT CAVOK 09/06 Q1019 NOSIG",
      "taf": "TAF EDDN 191700Z 1918/2018 31010KT CAVOK"
    },
    {
      "icao": "EDDS",
      "alert": "OK",
      "vis_m": 9999,
      "fzfg": false,
      "metar_trigger": false,
      "taf_trigger": false,
      "metar": "METAR EDDS 191850Z AUTO 31003KT CAVOK 11/00 Q1019 NOSIG",
      "taf": "TAF EDDS 191700Z 1918/2018 32010KT 9999 FEW045"
    },
    {
      "icao": "EDFH",
      "alert": "OK",
      "vis_m": 9999,
      "fzfg": false,
      "metar_trigger": false,
      "taf_trigger": false,
      "metar": "METAR EDFH 191850Z 27003KT CAVOK 09/04 Q1020",
      "taf": "TAF EDFH 191700Z 1918/2018 36006KT 9999 FEW045"
    },
    {
      "icao": "EDJA",
      "alert": "OK",
      "vis_m": 9999,
      "fzfg": false,
      "metar_trigger": false,
      "taf_trigger": false,
      "metar": "METAR EDJA 191850Z 35005KT CAVOK 07/02 Q1019",
      "taf": "TAF EDJA 191700Z 1918/2003 33009KT CAVOK"
    },
    {
      "icao": "EDLW",
      "alert": "OK",
      "vis_m": 9999,
      "fzfg": false,
      "metar_trigger": false,
      "taf_trigger": false,
      "metar": "METAR EDLW 191850Z 35006KT 320V020 9999 BKN035 BKN047 09/05 Q1021",
      "taf": "TAF EDLW 191700Z 1918/2018 32007KT 9999 SCT040"
    },
    {
      "icao": "EDNY",
      "alert": "OK",
      "vis_m": 9999,
      "fzfg": false,
      "metar_trigger": false,
      "taf_trigger": false,
      "metar": "METAR EDNY 191850Z 04009KT CAVOK 12/03 Q1019",
      "taf": "TAF EDNY 191700Z 1918/2003 03004KT 9999 FEW060"
    },
    {
      "icao": "EDSB",
      "alert": "OK",
      "vis_m": 9999,
      "fzfg": false,
      "metar_trigger": false,
      "taf_trigger": false,
      "metar": "METAR EDSB 191850Z 35001KT CAVOK 12/02 Q1020",
      "taf": "TAF EDSB 191700Z 1918/2018 36005KT CAVOK"
    },
    {
      "icao": "EETN",
      "alert": "OK",
      "vis_m": 9999,
      "fzfg": false,
      "metar_trigger": false,
      "taf_trigger": false,
      "metar": "METAR EETN 191850Z 05004KT CAVOK 04/M04 Q1025 NOSIG",
      "taf": "TAF EETN 191730Z 1918/2018 05010KT CAVOK"
    },
    {
      "icao": "EFTU",
      "alert": "OK",
      "vis_m": 9999,
      "fzfg": false,
      "metar_trigger": false,
      "taf_trigger": false,
      "metar": "METAR EFTU 191850Z AUTO 05004KT CAVOK 03/M06 Q1026",
      "taf": "TAF EFTU 191729Z 1918/2018 05005KT CAVOK"
    },
    {
      "icao": "EGBB",
      "alert": "OK",
      "vis_m": 9999,
      "fzfg": false,
      "metar_trigger": false,
      "taf_trigger": false,
      "metar": "METAR EGBB 191850Z 35005KT CAVOK 10/01 Q1025",
      "taf": "TAF EGBB 191658Z 1918/2018 34008KT 9999 FEW045"
    },
    {
      "icao": "EGGP",
      "alert": "OK",
      "vis_m": 9999,
      "fzfg": false,
      "metar_trigger": false,
      "taf_trigger": false,
      "metar": "METAR EGGP 191850Z 34006KT 300V010 CAVOK 09/02 Q1026",
      "taf": "TAF EGGP 191658Z 1918/2018 30008KT 9999 FEW035"
    },
    {
      "icao": "EGGW",
      "alert": "OK",
      "vis_m": 9999,
      "fzfg": false,
      "metar_trigger": false,
      "taf_trigger": false,
      "metar": "METAR EGGW 191850Z AUTO 04006KT 360V110 9999 NCD 10/M00 Q1024",
      "taf": "TAF EGGW 191657Z 1918/2018 05005KT 9999 FEW045"
    },
    {
      "icao": "EGKK",
      "alert": "OK",
      "vis_m": 9999,
      "fzfg": false,
      "metar_trigger": false,
      "taf_trigger": false,
      "metar": "METAR EGKK 191850Z 05008KT 020V090 CAVOK 12/00 Q1024",
      "taf": "TAF EGKK 191659Z 1918/2024 03006KT CAVOK"
    },
    {
      "icao": "EGNM",
      "alert": "OK",
      "vis_m": 9999,
      "fzfg": false,
      "metar_trigger": false,
      "taf_trigger": false,
      "metar": "METAR EGNM 191850Z 30006KT 9999 -SHRA FEW032 09/04 Q1025",
      "taf": "TAF EGNM 191700Z 1918/2018 32005KT 9999 FEW035"
    },
    {
      "icao": "EGPD",
      "alert": "OK",
      "vis_m": 9999,
      "fzfg": false,
      "metar_trigger": false,
      "taf_trigger": false,
      "metar": "METAR EGPD 191850Z COR AUTO 34008KT 9999 NCD 09/02 Q1025 NOSIG",
      "taf": "TAF EGPD 191655Z 1918/2018 33010KT 9999 SCT020"
    },
    {
      "icao": "EGPF",
      "alert": "OK",
      "vis_m": 9999,
      "fzfg": false,
      "metar_trigger": false,
      "taf_trigger": false,
      "metar": "METAR EGPF 191850Z AUTO 29008KT 9999 NCD 11/04 Q1026",
      "taf": "TAF EGPF 191659Z 1918/2018 29010KT 9999 FEW040"
    },
    {
      "icao": "EHBK",
      "alert": "OK",
      "vis_m": 9999,
      "fzfg": false,
      "metar_trigger": false,
      "taf_trigger": false,
      "metar": "METAR EHBK 191855Z AUTO 35006KT 300V030 9999 NSC 11/04 Q1021 NOSIG",
      "taf": "TAF EHBK 191714Z 1918/2024 35007KT 9999 BKN045"
    },
    {
      "icao": "EHEH",
      "alert": "OK",
      "vis_m": 9999,
      "fzfg": false,
      "metar_trigger": false,
      "taf_trigger": false,
      "metar": "METAR EHEH 191825Z AUTO 02005KT 310V050 9999 BKN031 BKN039 OVC210 11/05 Q1022 BLU NOSIG RMK TREND REMOTE BY EHWX",
      "taf": "TAF EHEH 191730Z 1918/2024 34008KT 9999 SCT045"
    },
    {
      "icao": "EKBI",
      "alert": "OK",
      "vis_m": 9999,
      "fzfg": false,
      "metar_trigger": false,
      "taf_trigger": false,
      "metar": "METAR EKBI 191850Z AUTO 32007KT 9999 SCT034/// BKN042/// BKN076/// 09/07 Q1020",
      "taf": "TAF EKBI 191727Z 1918/2018 33008KT 9999 SCT025"
    },
    {
      "icao": "EKCH",
      "alert": "OK",
      "vis_m": 9999,
      "fzfg": false,
      "metar_trigger": false,
      "taf_trigger": false,
      "metar": "METAR EKCH 191850Z AUTO 06007KT 9999 OVC060/// 07/02 Q1019 NOSIG",
      "taf": "TAF EKCH 191727Z 1918/2018 05012KT CAVOK"
    },
    {
      "icao": "ENAL",
      "alert": "OK",
      "vis_m": 9999,
      "fzfg": false,
      "metar_trigger": false,
      "taf_trigger": false,
      "metar": "METAR ENAL 191850Z 30003KT 9999 FEW007 08/06 Q1021",
      "taf": "TAF ENAL 191700Z 1918/2003 VRB05KT 9999 SCT008"
    },
    {
      "icao": "ENBR",
      "alert": "OK",
      "vis_m": 9999,
      "fzfg": false,
      "metar_trigger": false,
      "taf_trigger": false,
      "metar": "METAR ENBR 191850Z 12002KT 9999 FEW025 SCT050 08/04 Q1021 NOSIG RMK WIND 1200FT 15003KT",
      "taf": "TAF ENBR 191700Z 1918/2018 18008KT 9999 FEW008 SCT040"
    },
    {
      "icao": "ENGM",
      "alert": "OK",
      "vis_m": 9999,
      "fzfg": false,
      "metar_trigger": false,
      "taf_trigger": false,
      "metar": "METAR ENGM 191850Z VRB02KT 9999 -RA FEW021 BKN045 06/04 Q1025 NOSIG",
      "taf": "TAF ENGM 191700Z 1918/2018 04005KT 9999 BKN025"
    },
    {
      "icao": "ENHD",
      "alert": "OK",
      "vis_m": 9999,
      "fzfg": false,
      "metar_trigger": false,
      "taf_trigger": false,
      "metar": "METAR ENHD 191850Z 15003KT 120V200 9999 FEW045 07/06 Q1020",
      "taf": "TAF ENHD 191400Z 1915/1922 26005KT 5000 -RA SCT003 BKN015"
    },
    {
      "icao": "ENTC",
      "alert": "OK",
      "vis_m": 9999,
      "fzfg": false,
      "metar_trigger": false,
      "taf_trigger": false,
      "metar": "METAR ENTC 191850Z 03004KT CAVOK 08/M00 Q1027 NOSIG RMK WIND 2600FT 30002KT",
      "taf": "TAF ENTC 191700Z 1918/2018 28006KT CAVOK"
    },
    {
      "icao": "ENTO",
      "alert": "OK",
      "vis_m": 9999,
      "fzfg": false,
      "metar_trigger": false,
      "taf_trigger": false,
      "metar": "METAR ENTO 191850Z 08005KT 020V120 9999 -RA BKN028 06/06 Q1023 NOSIG",
      "taf": "TAF ENTO 191700Z 1918/2018 09007KT 6000 RADZ BR BKN008"
    },
    {
      "icao": "ENVA",
      "alert": "OK",
      "vis_m": 9999,
      "fzfg": false,
      "metar_trigger": false,
      "taf_trigger": false,
      "metar": "METAR ENVA 191850Z 15009KT CAVOK 13/M02 Q1024 RMK WIND 670FT 16015KT",
      "taf": "TAF ENVA 191700Z 1918/2018 12008KT CAVOK"
    },
    {
      "icao": "ENZV",
      "alert": "OK",
      "vis_m": 9999,
      "fzfg": false,
      "metar_trigger": false,
      "taf_trigger": false,
      "metar": "METAR ENZV 191850Z 32003KT 9999 SCT030 09/06 Q1020 NOSIG",
      "taf": "TAF ENZV 191700Z 1918/2018 VRB05KT 9999 FEW010 BKN040"
    },
    {
      "icao": "EPGD",
      "alert": "OK",
      "vis_m": 9999,
      "fzfg": false,
      "metar_trigger": false,
      "taf_trigger": false,
      "metar": "METAR EPGD 191830Z 04011KT CAVOK 07/01 Q1016",
      "taf": "TAF EPGD 191730Z 1918/2018 05010KT CAVOK"
    },
    {
      "icao": "EPKK",
      "alert": "OK",
      "vis_m": 9999,
      "fzfg": false,
      "metar_trigger": false,
      "taf_trigger": false,
      "metar": "METAR EPKK 191830Z 24008KT 9999 -RA FEW039 BKN052 13/08 Q1012",
      "taf": ""
    },
    {
      "icao": "EPKT",
      "alert": "OK",
      "vis_m": 9999,
      "fzfg": false,
      "metar_trigger": false,
      "taf_trigger": false,
      "metar": "METAR EPKT 191830Z 28003KT 9999 -RA SCT040 11/08 Q1013",
      "taf": "TAF EPKT 191730Z 1918/2018 VRB05KT 9999 -RA BKN040"
    },
    {
      "icao": "EPLB",
      "alert": "OK",
      "vis_m": 9999,
      "fzfg": false,
      "metar_trigger": false,
      "taf_trigger": false,
      "metar": "METAR EPLB 191830Z 05003KT CAVOK 11/01 Q1013",
      "taf": "TAF EPLB 191730Z 1918/2018 03006KT CAVOK"
    },
    {
      "icao": "EPMO",
      "alert": "OK",
      "vis_m": 9999,
      "fzfg": false,
      "metar_trigger": false,
      "taf_trigger": false,
      "metar": "METAR EPMO 191830Z 05012KT CAVOK 12/03 Q1013",
      "taf": "TAF EPMO 191730Z 1918/2018 03010KT CAVOK"
    },
    {
      "icao": "EPPO",
      "alert": "OK",
      "vis_m": 9999,
      "fzfg": false,
      "metar_trigger": false,
      "taf_trigger": false,
      "metar": "METAR EPPO 191830Z 08015KT CAVOK 15/03 Q1011",
      "taf": "TAF EPPO 191730Z 1918/2018 08008KT CAVOK"
    },
    {
      "icao": "EPRA",
      "alert": "OK",
      "vis_m": 9999,
      "fzfg": false,
      "metar_trigger": false,
      "taf_trigger": false,
      "metar": "METAR EPRA 191830Z 11006KT CAVOK 12/00 Q1012",
      "taf": "TAF EPRA 191730Z 1918/2003 09008KT CAVOK"
    },
    {
      "icao": "EPRZ",
      "alert": "OK",
      "vis_m": 9999,
      "fzfg": false,
      "metar_trigger": false,
      "taf_trigger": false,
      "metar": "METAR EPRZ 191830Z 08006KT CAVOK 15/03 Q1012",
      "taf": "TAF EPRZ 191730Z 1918/2018 VRB06KT CAVOK"
    },
    {
      "icao": "EPSC",
      "alert": "OK",
      "vis_m": 9999,
      "fzfg": false,
      "metar_trigger": false,
      "taf_trigger": false,
      "metar": "METAR EPSC 191830Z 06008KT CAVOK 14/04 Q1011",
      "taf": "TAF EPSC 191730Z 1918/2018 06010KT CAVOK"
    },
    {
      "icao": "EPSY",
      "alert": "OK",
      "vis_m": 9999,
      "fzfg": false,
      "metar_trigger": false,
      "taf_trigger": false,
      "metar": "METAR EPSY 191830Z 05002KT CAVOK 08/07 Q1015",
      "taf": "TAF EPSY 191730Z 1918/2003 05007KT CAVOK"
    },
    {
      "icao": "EPWA",
      "alert": "OK",
      "vis_m": 9999,
      "fzfg": false,
      "metar_trigger": false,
      "taf_trigger": false,
      "metar": "METAR EPWA 191830Z 04010KT CAVOK 15/M00 Q1013 NOSIG",
      "taf": "TAF EPWA 191730Z 1918/2018 06008KT CAVOK"
    },
    {
      "icao": "EPWR",
      "alert": "OK",
      "vis_m": 9999,
      "fzfg": false,
      "metar_trigger": false,
      "taf_trigger": false,
      "metar": "METAR EPWR 191830Z 29015KT 9999 -SHRA SCT025CB BKN030 11/10 Q1012 RESHRA",
      "taf": ""
    },
    {
      "icao": "ESGG",
      "alert": "OK",
      "vis_m": 9999,
      "fzfg": false,
      "metar_trigger": false,
      "taf_trigger": false,
      "metar": "METAR ESGG 191850Z 07009KT CAVOK 07/03 Q1021",
      "taf": "TAF ESGG 191730Z 1918/2018 08005KT 9999 -DZ BKN045"
    },
    {
      "icao": "ESKN",
      "alert": "OK",
      "vis_m": 9999,
      "fzfg": false,
      "metar_trigger": false,
      "taf_trigger": false,
      "metar": "METAR ESKN 191850Z 05008KT CAVOK 04/M04 Q1025",
      "taf": "TAF ESKN 191730Z 1918/2018 08010KT CAVOK"
    },
    {
      "icao": "ESMS",
      "alert": "OK",
      "vis_m": 9999,
      "fzfg": false,
      "metar_trigger": false,
      "taf_trigger": false,
      "metar": "METAR ESMS 191850Z 07019KT CAVOK 07/M01 Q1018",
      "taf": "TAF ESMS 191727Z 1918/2018 06013KT CAVOK"
    },
    {
      "icao": "ESSA",
      "alert": "OK",
      "vis_m": 9999,
      "fzfg": false,
      "metar_trigger": false,
      "taf_trigger": false,
      "metar": "METAR ESSA 191850Z 12006KT CAVOK 05/M04 Q1027 NOSIG",
      "taf": "TAF ESSA 191730Z 1918/2018 07008KT CAVOK"
    },
    {
      "icao": "EYKA",
      "alert": "OK",
      "vis_m": 9999,
      "fzfg": false,
      "metar_trigger": false,
      "taf_trigger": false,
      "metar": "METAR EYKA 191850Z 05010KT CAVOK 08/M04 Q1019",
      "taf": "TAF EYKA 191700Z 1918/2018 05010KT 9000 NSC"
    },
    {
      "icao": "EYPA",
      "alert": "OK",
      "vis_m": 9999,
      "fzfg": false,
      "metar_trigger": false,
      "taf_trigger": false,
      "metar": "METAR EYPA 191850Z 06008KT CAVOK 09/M03 Q1020",
      "taf": "TAF EYPA 191700Z 1918/2018 05010KT 9000 NSC"
    },
    {
      "icao": "EYVI",
      "alert": "OK",
      "vis_m": 9999,
      "fzfg": false,
      "metar_trigger": false,
      "taf_trigger": false,
      "metar": "METAR EYVI 191850Z 05007KT CAVOK 06/M04 Q1018 NOSIG",
      "taf": "TAF EYVI 191700Z 1918/2018 06010KT 9000 NSC"
    },
    {
      "icao": "GCFV",
      "alert": "OK",
      "vis_m": 9999,
      "fzfg": false,
      "metar_trigger": false,
      "taf_trigger": false,
      "metar": "METAR GCFV 191830Z 02008KT CAVOK 24/15 Q1008",
      "taf": "TAF GCFV 191400Z 1915/2015 04005KT 8000 NSC TX26/2014Z TN18/2006Z"
    },
    {
      "icao": "GCLP",
      "alert": "OK",
      "vis_m": 9999,
      "fzfg": false,
      "metar_trigger": false,
      "taf_trigger": false,
      "metar": "METAR GCLP 191830Z 17010KT 9999 FEW050 25/13 Q1007 NOSIG",
      "taf": "TAF GCLP 191400Z 1915/2015 21015KT CAVOK TX24/2014Z TN16/2006Z"
    },
    {
      "icao": "GCTS",
      "alert": "OK",
      "vis_m": 9999,
      "fzfg": false,
      "metar_trigger": false,
      "taf_trigger": false,
      "metar": "METAR GCTS 191830Z 26013KT CAVOK 23/17 Q1008 NOSIG",
      "taf": "TAF GCTS 191400Z 1915/2015 25013KT CAVOK TX26/2014Z TN16/2006Z"
    },
    {
      "icao": "GMAD",
      "alert": "OK",
      "vis_m": 8000,
      "fzfg": false,
      "metar_trigger": false,
      "taf_trigger": false,
      "metar": "METAR GMAD 191830Z 26008KT 8000 NSC 32/00 Q1010 NOSIG",
      "taf": "TAF GMAD 191700Z 1918/2024 06007KT 8000 NSC"
    },
    {
      "icao": "GMMN",
      "alert": "OK",
      "vis_m": 9999,
      "fzfg": false,
      "metar_trigger": false,
      "taf_trigger": false,
      "metar": "METAR GMMN 191830Z 36007KT CAVOK 22/15 Q1013 NOSIG",
      "taf": "TAF GMMN 191700Z 1918/2024 02010KT CAVOK"
    },
    {
      "icao": "GMMX",
      "alert": "OK",
      "vis_m": 9999,
      "fzfg": false,
      "metar_trigger": false,
      "taf_trigger": false,
      "metar": "METAR GMMX 191830Z 18004KT 140V230 9999 FEW033 BKN200 30/09 Q1013 NOSIG",
      "taf": "TAF GMMX 191700Z 1918/2024 08006KT 8000 NSC"
    },
    {
      "icao": "HEGN",
      "alert": "OK",
      "vis_m": 9999,
      "fzfg": false,
      "metar_trigger": false,
      "taf_trigger": false,
      "metar": "METAR HEGN 191800Z 31008KT CAVOK 28/08 Q1009 NOSIG",
      "taf": "TAF HEGN 191700Z 1918/2024 30012KT CAVOK"
    },
    {
      "icao": "HEMA",
      "alert": "OK",
      "vis_m": 9999,
      "fzfg": false,
      "metar_trigger": false,
      "taf_trigger": false,
      "metar": "METAR HEMA 191800Z 32006KT CAVOK 25/10 Q1009 NOSIG",
      "taf": "TAF HEMA 191100Z 1912/2018 01014KT 9999 SCT025"
    },
    {
      "icao": "HESH",
      "alert": "OK",
      "vis_m": 9999,
      "fzfg": false,
      "metar_trigger": false,
      "taf_trigger": false,
      "metar": "METAR HESH 191800Z 08007KT CAVOK 26/14 Q1008 NOSIG",
      "taf": "TAF HESH 191700Z 1918/2024 35010KT CAVOK"
    },
    {
      "icao": "HESX",
      "alert": "OK",
      "vis_m": 9999,
      "fzfg": false,
      "metar_trigger": false,
      "taf_trigger": false,
      "metar": "METAR HESX 191800Z 35013KT CAVOK 19/11 Q1012 NOSIG",
      "taf": "TAF HESX 191700Z 1918/2024 31014KT CAVOK"
    },
    {
      "icao": "LATI",
      "alert": "OK",
      "vis_m": 9999,
      "fzfg": false,
      "metar_trigger": false,
      "taf_trigger": false,
      "metar": "METAR LATI 191850Z 23005KT CAVOK 17/11 Q1016 NOSIG",
      "taf": "TAF LATI 191700Z 1918/2018 VRB03KT 9999 SCT050 TX24/2012Z TN10/2004Z"
    },
    {
      "icao": "LBPD",
      "alert": "OK",
      "vis_m": 9999,
      "fzfg": false,
      "metar_trigger": false,
      "taf_trigger": false,
      "metar": "METAR LBPD 191830Z AUTO 12008KT 9999 NCD 14/07 Q1014 NOSIG",
      "taf": "TAF LBPD 191700Z 1918/2018 VRB03KT 9999 SCT060"
    },
    {
      "icao": "LBSF",
      "alert": "OK",
      "vis_m": 9999,
      "fzfg": false,
      "metar_trigger": false,
      "taf_trigger": false,
      "metar": "METAR LBSF 191830Z AUTO 16003KT 110V230 9999 NCD 13/04 Q1014 NOSIG",
      "taf": "TAF LBSF 191700Z 1918/2018 VRB03KT 9999 SCT050"
    },
    {
      "icao": "LBWN",
      "alert": "OK",
      "vis_m": 9999,
      "fzfg": false,
      "metar_trigger": false,
      "taf_trigger": false,
      "metar": "METAR LBWN 191830Z AUTO 06003KT 9999 NCD 09/06 Q1016 NOSIG",
      "taf": "TAF LBWN 191700Z 1918/2018 VRB03KT 9999 SCT040"
    },
    {
      "icao": "LCLK",
      "alert": "OK",
      "vis_m": 9999,
      "fzfg": false,
      "metar_trigger": false,
      "taf_trigger": false,
      "metar": "METAR LCLK 191830Z VRB02KT 9999 FEW016 BKN025 18/16 Q1008 NOSIG",
      "taf": "TAF LCLK 191730Z 1918/2018 24010KT 9999 FEW020 SCT040"
    },
    {
      "icao": "LCPH",
      "alert": "OK",
      "vis_m": 9999,
      "fzfg": false,
      "metar_trigger": false,
      "taf_trigger": false,
      "metar": "METAR LCPH 191830Z 32008KT 9999 SCT010 SCT035 BKN055 17/15 Q1008 NOSIG",
      "taf": "TAF LCPH 191730Z 1918/2018 34006KT 9999 SCT012 SCT020"
    },
    {
      "icao": "LEAL",
      "alert": "OK",
      "vis_m": 9999,
      "fzfg": false,
      "metar_trigger": false,
      "taf_trigger": false,
      "metar": "METAR LEAL 191830Z 00000KT CAVOK 22/09 Q1016 NOSIG",
      "taf": "TAF LEAL 191700Z 1918/2018 VRB04KT CAVOK TX25/2012Z TN11/2005Z"
    },
    {
      "icao": "LEBB",
      "alert": "OK",
      "vis_m": 9999,
      "fzfg": false,
      "metar_trigger": false,
      "taf_trigger": false,
      "metar": "METAR LEBB 191830Z 29009KT 260V320 9999 SCT007 16/15 Q1015 NOSIG",
      "taf": "TAF LEBB 191700Z 1918/2018 31009KT 9999 FEW030 TX25/2010Z TN12/2005Z"
    },
    {
      "icao": "LEBL",
      "alert": "OK",
      "vis_m": 9999,
      "fzfg": false,
      "metar_trigger": false,
      "taf_trigger": false,
      "metar": "METAR LEBL 191830Z 22005KT 9999 FEW030 17/16 Q1017 NOSIG",
      "taf": "TAF LEBL 191700Z 1918/2018 21008KT 9999 FEW030 TX21/2012Z TN14/2006Z"
    },
    {
      "icao": "LECH",
      "alert": "OK",
      "vis_m": 9000,
      "fzfg": false,
      "metar_trigger": false,
      "taf_trigger": false,
      "metar": "METAR LECH 191830Z AUTO 20006KT 150V250 9000 NSC 19/09 Q1016",
      "taf": "TAF LECH 191700Z 1918/2018 VRB04KT CAVOK TX28/2013Z TN11/2005Z"
    },
    {
      "icao": "LEMD",
      "alert": "OK",
      "vis_m": 9999,
      "fzfg": false,
      "metar_trigger": false,
      "taf_trigger": false,
      "metar": "METAR LEMD 191830Z 26007KT 220V300 CAVOK 25/03 Q1015 NOSIG",
      "taf": "TAF LEMD 191700Z 1918/2024 VRB04KT CAVOK TX29/2016Z TN11/2006Z"
    },
    {
      "icao": "LEMG",
      "alert": "OK",
      "vis_m": 9999,
      "fzfg": false,
      "metar_trigger": false,
      "taf_trigger": false,
      "metar": "METAR LEMG 191830Z 12003KT 090V160 CAVOK 20/08 Q1016 NOSIG",
      "taf": "TAF LEMG 191700Z 1918/2018 29005KT CAVOK TX23/2014Z TN11/2006Z"
    },
    {
      "icao": "LEVC",
      "alert": "OK",
      "vis_m": 9999,
      "fzfg": false,
      "metar_trigger": false,
      "taf_trigger": false,
      "metar": "METAR LEVC 191830Z 07010KT 040V110 9999 FEW065 21/11 Q1015 NOSIG",
      "taf": "TAF LEVC 191700Z 1918/2018 07010KT 9999 FEW050 TX28/2012Z TN12/2005Z"
    },
    {
      "icao": "LEXJ",
      "alert": "OK",
      "vis_m": 9999,
      "fzfg": false,
      "metar_trigger": false,
      "taf_trigger": false,
      "metar": "METAR LEXJ 191830Z 05007KT 020V080 9999 SCT016 15/14 Q1016",
      "taf": "TAF LEXJ 191400Z 1915/2015 06009KT CAVOK TX22/2013Z TN12/2005Z"
    },
    {
      "icao": "LEZG",
      "alert": "OK",
      "vis_m": 9999,
      "fzfg": false,
      "metar_trigger": false,
      "taf_trigger": false,
      "metar": "METAR LEZG 191830Z 20013KT 9999 FEW050TCU 24/10 Q1014 NOSIG",
      "taf": "TAF LEZG 191700Z 1918/2018 10006KT CAVOK TX31/2015Z TN14/2005Z"
    },
    {
      "icao": "LEZL",
      "alert": "OK",
      "vis_m": 9999,
      "fzfg": false,
      "metar_trigger": false,
      "taf_trigger": false,
      "metar": "METAR LEZL 191830Z 25008KT 220V280 CAVOK 28/09 Q1013 NOSIG",
      "taf": "TAF LEZL 191400Z 1915/2015 VRB03KT CAVOK TX32/1915Z TN12/2006Z"
    },
    {
      "icao": "LFBD",
      "alert": "OK",
      "vis_m": 9999,
      "fzfg": false,
      "metar_trigger": false,
      "taf_trigger": false,
      "metar": "METAR LFBD 191830Z AUTO 03010KT CAVOK 21/08 Q1016 NOSIG",
      "taf": "TAF LFBD 191700Z 1918/2024 06010KT CAVOK TX26/2015Z TN12/2006Z"
    },
    {
      "icao": "LFLL",
      "alert": "OK",
      "vis_m": 9999,
      "fzfg": false,
      "metar_trigger": false,
      "taf_trigger": false,
      "metar": "METAR LFLL 191830Z 36008KT CAVOK 16/08 Q1018 NOSIG",
      "taf": "TAF LFLL 191700Z 1918/2024 36010KT CAVOK"
    },
    {
      "icao": "LFLS",
      "alert": "OK",
      "vis_m": 9999,
      "fzfg": false,
      "metar_trigger": false,
      "taf_trigger": false,
      "metar": "METAR LFLS 191830Z AUTO 33005KT CAVOK 14/09 Q1017 NOSIG",
      "taf": "TAF LFLS 191400Z 1915/2015 34008KT 9999 SCT030"
    },
    {
      "icao": "LFMN",
      "alert": "OK",
      "vis_m": 9999,
      "fzfg": false,
      "metar_trigger": false,
      "taf_trigger": false,
      "metar": "METAR LFMN 191830Z 07003KT 9999 FEW012 BKN260 17/15 Q1014 NOSIG",
      "taf": "TAF LFMN 191400Z 1915/2021 09008KT 9999 FEW012"
    },
    {
      "icao": "LFOB",
      "alert": "OK",
      "vis_m": 9999,
      "fzfg": false,
      "metar_trigger": false,
      "taf_trigger": false,
      "metar": "METAR LFOB 191830Z AUTO 36009KT CAVOK 13/06 Q1022 NOSIG",
      "taf": "TAF LFOB 191700Z 1918/2018 02008KT 9999 SCT035"
    },
    {
      "icao": "LFPO",
      "alert": "OK",
      "vis_m": 9999,
      "fzfg": false,
      "metar_trigger": false,
      "taf_trigger": false,
      "metar": "METAR LFPO 191830Z 05006KT CAVOK 15/04 Q1021 NOSIG",
      "taf": "TAF LFPO 191700Z 1918/2024 05010KT CAVOK"
    },
    {
      "icao": "LFSB",
      "alert": "OK",
      "vis_m": 9999,
      "fzfg": false,
      "metar_trigger": false,
      "taf_trigger": false,
      "metar": "METAR LFSB 191830Z AUTO 35006KT CAVOK 12/03 Q1019 NOSIG",
      "taf": "TAF LFSB 191700Z 1918/2018 36008KT 9999 SCT055"
    },
    {
      "icao": "LGAV",
      "alert": "OK",
      "vis_m": 9999,
      "fzfg": false,
      "metar_trigger": false,
      "taf_trigger": false,
      "metar": "METAR LGAV 191850Z 29003KT CAVOK 14/09 Q1017 NOSIG",
      "taf": "TAF LGAV 191700Z 1918/2018 VRB05KT 9999 FEW025"
    },
    {
      "icao": "LGTS",
      "alert": "OK",
      "vis_m": 9999,
      "fzfg": false,
      "metar_trigger": false,
      "taf_trigger": false,
      "metar": "METAR LGTS 191850Z 12004KT 9999 FEW025 15/10 Q1015 NOSIG",
      "taf": "TAF LGTS 191700Z 1918/2018 14013KT 9999 FEW030"
    },
    {
      "icao": "LHBP",
      "alert": "OK",
      "vis_m": 9999,
      "fzfg": false,
      "metar_trigger": false,
      "taf_trigger": false,
      "metar": "METAR LHBP 191830Z 30019KT CAVOK 17/08 Q1013 TEMPO 31020G30KT",
      "taf": "TAF LHBP 191715Z 1918/2018 29008KT CAVOK"
    },
    {
      "icao": "LHDC",
      "alert": "OK",
      "vis_m": 9999,
      "fzfg": false,
      "metar_trigger": false,
      "taf_trigger": false,
      "metar": "METAR LHDC 191815Z AUTO 18003KT 120V190 CAVOK 15/04 Q1012 NOSIG",
      "taf": "TAF LHDC 191715Z 1918/2003 21005KT CAVOK"
    },
    {
      "icao": "LIBD",
      "alert": "OK",
      "vis_m": 9999,
      "fzfg": false,
      "metar_trigger": false,
      "taf_trigger": false,
      "metar": "METAR LIBD 191850Z 14004KT 100V160 CAVOK 15/10 Q1015",
      "taf": "TAF LIBD 191700Z 1918/2018 08010KT CAVOK"
    },
    {
      "icao": "LIBG",
      "alert": "OK",
      "vis_m": 9999,
      "fzfg": false,
      "metar_trigger": false,
      "taf_trigger": false,
      "metar": "METAR LIBG 191750Z 16003KT CAVOK 16/12 Q1015",
      "taf": "TAF LIBG 191400Z 1915/1924 VRB05KT 9999 FEW050"
    },
    {
      "icao": "LIBP",
      "alert": "OK",
      "vis_m": 9999,
      "fzfg": false,
      "metar_trigger": false,
      "taf_trigger": false,
      "metar": "METAR LIBP 191850Z AUTO 34003KT 9999 FEW100/// 17/09 Q1014",
      "taf": "TAF LIBP 191700Z 1918/2018 VRB06KT CAVOK"
    },
    {
      "icao": "LIBR",
      "alert": "OK",
      "vis_m": 9999,
      "fzfg": false,
      "metar_trigger": false,
      "taf_trigger": false,
      "metar": "METAR LIBR 191850Z 16003KT CAVOK 16/15 Q1016",
      "taf": "TAF LIBR 191700Z 1918/2018 20008KT CAVOK"
    },
    {
      "icao": "LICA",
      "alert": "OK",
      "vis_m": 9000,
      "fzfg": false,
      "metar_trigger": false,
      "taf_trigger": false,
      "metar": "METAR LICA 191850Z AUTO 21002KT 9000 NCD 15/13 Q1017",
      "taf": "TAF LICA 191700Z 1918/2018 VRB05KT CAVOK"
    },
    {
      "icao": "LICC",
      "alert": "OK",
      "vis_m": 9999,
      "fzfg": false,
      "metar_trigger": false,
      "taf_trigger": false,
      "metar": "METAR LICC 191850Z 02004KT 9999 SCT060 19/15 Q1016",
      "taf": "TAF LICC 191700Z 1918/2018 06012KT CAVOK"
    },
    {
      "icao": "LICJ",
      "alert": "OK",
      "vis_m": 9999,
      "fzfg": false,
      "metar_trigger": false,
      "taf_trigger": false,
      "metar": "METAR LICJ 191850Z AUTO 22002KT 9999 NCD 17/15 Q1017",
      "taf": "TAF LICJ 191700Z 1918/2018 VRB05KT CAVOK"
    },
    {
      "icao": "LIMC",
      "alert": "OK",
      "vis_m": 9999,
      "fzfg": false,
      "metar_trigger": false,
      "taf_trigger": false,
      "metar": "METAR LIMC 191850Z 09005KT 050V130 CAVOK 20/10 Q1013 NOSIG",
      "taf": "TAF LIMC 191700Z 1918/2024 VRB05KT 9999 FEW040"
    },
    {
      "icao": "LIME",
      "alert": "OK",
      "vis_m": 9999,
      "fzfg": false,
      "metar_trigger": false,
      "taf_trigger": false,
      "metar": "METAR LIME 191850Z 30008KT 210V340 9999 -TSRA SCT025CB SCT060 16/13 Q1014 NOSIG",
      "taf": ""
    },
    {
      "icao": "LIMF",
      "alert": "OK",
      "vis_m": 9999,
      "fzfg": false,
      "metar_trigger": false,
      "taf_trigger": false,
      "metar": "METAR LIMF 191850Z 36005KT 9999 SCT050 19/13 Q1012",
      "taf": "TAF LIMF 191700Z 1918/2018 VRB05KT 9999 SCT035"
    },
    {
      "icao": "LIMJ",
      "alert": "OK",
      "vis_m": 9999,
      "fzfg": false,
      "metar_trigger": false,
      "taf_trigger": false,
      "metar": "METAR LIMJ 191850Z 14004KT 9999 FEW012 SCT020 18/15 Q1015",
      "taf": "TAF LIMJ 191700Z 1918/2018 VRB05KT 9999 FEW015"
    },
    {
      "icao": "LIPE",
      "alert": "OK",
      "vis_m": 9999,
      "fzfg": false,
      "metar_trigger": false,
      "taf_trigger": false,
      "metar": "METAR LIPE 191850Z 17005KT CAVOK 15/11 Q1014",
      "taf": "TAF LIPE 191700Z 1918/2018 VRB05KT 9999 SCT040"
    },
    {
      "icao": "LIPH",
      "alert": "OK",
      "vis_m": 9999,
      "fzfg": false,
      "metar_trigger": false,
      "taf_trigger": false,
      "metar": "METAR LIPH 191850Z 10006KT CAVOK 16/13 Q1014",
      "taf": "TAF LIPH 191700Z 1918/2018 VRB05KT 9999 SCT050"
    },
    {
      "icao": "LIPQ",
      "alert": "OK",
      "vis_m": 9999,
      "fzfg": false,
      "metar_trigger": false,
      "taf_trigger": false,
      "metar": "METAR LIPQ 191850Z AUTO VRB02KT 9999 NCD 14/12 Q1014",
      "taf": "TAF LIPQ 191700Z 1918/2018 VRB05KT 9999 SCT060"
    },
    {
      "icao": "LIPR",
      "alert": "OK",
      "vis_m": 9999,
      "fzfg": false,
      "metar_trigger": false,
      "taf_trigger": false,
      "metar": "METAR LIPR 191850Z 19004KT 9999 SCT060 15/12 Q1016",
      "taf": "TAF LIPR 191700Z 1918/2018 VRB05KT 9999 SCT050"
    },
    {
      "icao": "LIPX",
      "alert": "OK",
      "vis_m": 9999,
      "fzfg": false,
      "metar_trigger": false,
      "taf_trigger": false,
      "metar": "METAR LIPX 191850Z 33003KT 300V060 CAVOK 17/11 Q1014",
      "taf": "TAF LIPX 191700Z 1918/2018 VRB05KT 9999 FEW040"
    },
    {
      "icao": "LIPY",
      "alert": "OK",
      "vis_m": 9999,
      "fzfg": false,
      "metar_trigger": false,
      "taf_trigger": false,
      "metar": "METAR LIPY 191850Z AUTO 05017KT 9999 BKN071/// BKN086/// 18/09 Q1014",
      "taf": "TAF LIPY 191700Z 1918/2018 VRB06KT 9999 SCT050"
    },
    {
      "icao": "LIPZ",
      "alert": "OK",
      "vis_m": 9999,
      "fzfg": false,
      "metar_trigger": false,
      "taf_trigger": false,
      "metar": "METAR LIPZ 191850Z 10005KT CAVOK 16/12 Q1014 NOSIG",
      "taf": "TAF LIPZ 191700Z 1918/2024 VRB06KT 9999 SCT045"
    },
    {
      "icao": "LIRF",
      "alert": "OK",
      "vis_m": 9999,
      "fzfg": false,
      "metar_trigger": false,
      "taf_trigger": false,
      "metar": "METAR LIRF 191850Z 16005KT CAVOK 17/16 Q1016 NOSIG",
      "taf": "TAF LIRF 191700Z 1918/2024 VRB06KT CAVOK"
    },
    {
      "icao": "LIRN",
      "alert": "OK",
      "vis_m": 9999,
      "fzfg": false,
      "metar_trigger": false,
      "taf_trigger": false,
      "metar": "METAR LIRN 191850Z VRB04KT CAVOK 17/14 Q1016 NOSIG",
      "taf": "TAF LIRN 191700Z 1918/2018 VRB04KT CAVOK"
    },
    {
      "icao": "LIRP",
      "alert": "OK",
      "vis_m": 9999,
      "fzfg": false,
      "metar_trigger": false,
      "taf_trigger": false,
      "metar": "METAR LIRP 191845Z VRB02KT CAVOK 16/12 Q1015 NOSIG",
      "taf": "TAF LIRP 191700Z 1918/2018 25010KT 9999 SCT070"
    },
    {
      "icao": "LIRZ",
      "alert": "OK",
      "vis_m": 9999,
      "fzfg": false,
      "metar_trigger": false,
      "taf_trigger": false,
      "metar": "METAR LIRZ 191850Z AUTO 22006KT 9999 FEW079/// 19/11 Q1015",
      "taf": "TAF LIRZ 191700Z 1918/2018 VRB05KT CAVOK"
    },
    {
      "icao": "LJLJ",
      "alert": "OK",
      "vis_m": 9999,
      "fzfg": false,
      "metar_trigger": false,
      "taf_trigger": false,
      "metar": "METAR LJLJ 191830Z 29007KT 9999 FEW047 SCT075 BKN110 13/09 Q1015 NOSIG",
      "taf": "TAF LJLJ 191700Z 1918/2018 30006KT 9999 FEW045"
    },
    {
      "icao": "LKMT",
      "alert": "OK",
      "vis_m": 9999,
      "fzfg": false,
      "metar_trigger": false,
      "taf_trigger": false,
      "metar": "METAR LKMT 191830Z 21004KT CAVOK 12/11 Q1013 NOSIG",
      "taf": "TAF LKMT 191700Z 1918/2018 23008KT 9999 BKN035"
    },
    {
      "icao": "LKPR",
      "alert": "OK",
      "vis_m": 9999,
      "fzfg": false,
      "metar_trigger": false,
      "taf_trigger": false,
      "metar": "METAR LKPR 191830Z 31012KT 9999 FEW027 06/03 Q1016 NOSIG",
      "taf": "TAF LKPR 191700Z 1918/2024 27018KT 9999 BKN047"
    },
    {
      "icao": "LLBG",
      "alert": "OK",
      "vis_m": 9999,
      "fzfg": false,
      "metar_trigger": false,
      "taf_trigger": false,
      "metar": "METAR LLBG 191850Z 22004KT 9999 FEW020 18/14 Q1012 NOSIG",
      "taf": "TAF LLBG 191701Z 1918/2018 VRB03KT 9999 SCT025 TX20/2009Z TN15/2004Z"
    },
    {
      "icao": "LMML",
      "alert": "OK",
      "vis_m": 9999,
      "fzfg": false,
      "metar_trigger": false,
      "taf_trigger": false,
      "metar": "METAR LMML 191845Z 22004KT 9999 FEW013 16/14 Q1017 BECMG BKN012",
      "taf": "TAF LMML 191700Z 1918/2018 VRB06KT 9999 SCT012"
    },
    {
      "icao": "LOWW",
      "alert": "OK",
      "vis_m": 9999,
      "fzfg": false,
      "metar_trigger": false,
      "taf_trigger": false,
      "metar": "METAR LOWW 191850Z 21005KT 9999 FEW050 13/11 Q1014 BECMG TL1915 29012KT",
      "taf": "TAF LOWW 191715Z 1918/2024 20005KT 9999 SCT050 TX16/2013Z TN08/2024Z"
    },
    {
      "icao": "LPFR",
      "alert": "OK",
      "vis_m": 9999,
      "fzfg": false,
      "metar_trigger": false,
      "taf_trigger": false,
      "metar": "METAR LPFR 191830Z 11005KT CAVOK 19/14 Q1014",
      "taf": "TAF LPFR 191700Z 1918/2018 13007KT CAVOK"
    },
    {
      "icao": "LPMA",
      "alert": "OK",
      "vis_m": 9999,
      "fzfg": false,
      "metar_trigger": false,
      "taf_trigger": false,
      "metar": "METAR LPMA 191830Z 04008KT 360V120 9999 SCT016 BKN060 20/14 Q1009",
      "taf": "TAF LPMA 191700Z 1918/2018 01010KT 9999 SCT013"
    },
    {
      "icao": "LPPR",
      "alert": "OK",
      "vis_m": 9999,
      "fzfg": false,
      "metar_trigger": false,
      "taf_trigger": false,
      "metar": "METAR LPPR 191830Z 35004KT 9999 4000W BCFG FEW007 15/13 Q1015",
      "taf": "TAF LPPR 191700Z 1918/2018 VRB02KT 9999 SCT008"
    },
    {
      "icao": "LPPS",
      "alert": "OK",
      "vis_m": 9999,
      "fzfg": false,
      "metar_trigger": false,
      "taf_trigger": false,
      "metar": "METAR LPPS 191830Z 07018G31KT 9999 FEW015 20/12 Q1008",
      "taf": "TAF LPPS 191700Z 1918/2024 09013KT 9999 SCT015"
    },
    {
      "icao": "LPPT",
      "alert": "OK",
      "vis_m": 9999,
      "fzfg": false,
      "metar_trigger": false,
      "taf_trigger": false,
      "metar": "METAR LPPT 191830Z 31007KT 280V340 CAVOK 22/12 Q1014",
      "taf": "TAF LPPT 191700Z 1918/2024 30007KT CAVOK"
    },
    {
      "icao": "LQBK",
      "alert": "OK",
      "vis_m": 9999,
      "fzfg": false,
      "metar_trigger": false,
      "taf_trigger": false,
      "metar": "METAR LQBK 191830Z VRB02KT CAVOK 14/06 Q1012 NOSIG",
      "taf": "TAF LQBK 191700Z 1918/2018 03005KT 9999 BKN030 TX17/1918Z TN12/2018Z"
    },
    {
      "icao": "LQSA",
      "alert": "OK",
      "vis_m": 9999,
      "fzfg": false,
      "metar_trigger": false,
      "taf_trigger": false,
      "metar": "METAR LQSA 191830Z 07004KT 020V110 CAVOK 17/01 Q1014 NOSIG",
      "taf": "TAF LQSA 191700Z 1918/2018 VRB02KT 9999 SCT060 TX16/2014Z TN08/2005Z"
    },
    {
      "icao": "LQTZ",
      "alert": "OK",
      "vis_m": 9999,
      "fzfg": false,
      "metar_trigger": false,
      "taf_trigger": false,
      "metar": "METAR LQTZ 191830Z VRB02KT CAVOK 13/05 Q1013",
      "taf": "TAF LQTZ 191700Z 1918/2018 12005KT 9999 SCT050 TX17/1918Z TN08/2004Z"
    },
    {
      "icao": "LRBC",
      "alert": "OK",
      "vis_m": 9999,
      "fzfg": false,
      "metar_trigger": false,
      "taf_trigger": false,
      "metar": "METAR LRBC 191830Z 16005KT 9999 OVC066 12/09 Q1014",
      "taf": "TAF LRBC 191700Z 1918/2003 23010KT 9999 BKN065"
    },
    {
      "icao": "LRBS",
      "alert": "OK",
      "vis_m": 9999,
      "fzfg": false,
      "metar_trigger": false,
      "taf_trigger": false,
      "metar": "METAR LRBS 191830Z 17003KT 130V210 CAVOK 16/06 Q1014 NOSIG",
      "taf": "TAF LRBS 191700Z 1918/2018 VRB04KT CAVOK"
    },
    {
      "icao": "LRBV",
      "alert": "OK",
      "vis_m": 9999,
      "fzfg": false,
      "metar_trigger": false,
      "taf_trigger": false,
      "metar": "METAR LRBV 191830Z 29005KT CAVOK 09/04 Q1014",
      "taf": "TAF LRBV 191700Z 1918/2003 VRB04KT 9999 SCT040"
    },
    {
      "icao": "LRCL",
      "alert": "OK",
      "vis_m": 9999,
      "fzfg": false,
      "metar_trigger": false,
      "taf_trigger": false,
      "metar": "METAR LRCL 191830Z VRB01KT CAVOK 11/04 Q1013",
      "taf": "TAF LRCL 191700Z 1918/2003 VRB04KT CAVOK"
    },
    {
      "icao": "LRCV",
      "alert": "OK",
      "vis_m": 9999,
      "fzfg": false,
      "metar_trigger": false,
      "taf_trigger": false,
      "metar": "METAR LRCV 191830Z 18005KT CAVOK 15/07 Q1013",
      "taf": "TAF LRCV 191700Z 1918/2003 VRB04KT CAVOK"
    },
    {
      "icao": "LRIA",
      "alert": "OK",
      "vis_m": 9999,
      "fzfg": false,
      "metar_trigger": false,
      "taf_trigger": false,
      "metar": "METAR LRIA 191830Z 33004KT 260V010 CAVOK 14/04 Q1014",
      "taf": "TAF LRIA 191700Z 1918/2003 VRB04KT 9999 SCT045"
    },
    {
      "icao": "LROP",
      "alert": "OK",
      "vis_m": 9999,
      "fzfg": false,
      "metar_trigger": false,
      "taf_trigger": false,
      "metar": "METAR LROP 191830Z 15006KT CAVOK 14/05 Q1014 NOSIG",
      "taf": "TAF LROP 191700Z 1918/2018 VRB04KT CAVOK"
    },
    {
      "icao": "LRSB",
      "alert": "OK",
      "vis_m": 9999,
      "fzfg": false,
      "metar_trigger": false,
      "taf_trigger": false,
      "metar": "METAR LRSB 191830Z 29004KT 9999 FEW075 13/04 Q1013",
      "taf": "TAF LRSB 191700Z 1918/2018 VRB04KT CAVOK"
    },
    {
      "icao": "LRSM",
      "alert": "OK",
      "vis_m": 9999,
      "fzfg": false,
      "metar_trigger": false,
      "taf_trigger": false,
      "metar": "METAR LRSM 191830Z AUTO 19004KT 9999 FEW080/// SCT240/// 14/05 Q1012",
      "taf": ""
    },
    {
      "icao": "LRSV",
      "alert": "OK",
      "vis_m": 9999,
      "fzfg": false,
      "metar_trigger": false,
      "taf_trigger": false,
      "metar": "METAR LRSV 191830Z 22003KT 9999 -RA NSC 12/04 Q1014",
      "taf": "TAF LRSV 191700Z 1918/2003 VRB04KT 9999 BKN045"
    },
    {
      "icao": "LRTM",
      "alert": "OK",
      "vis_m": 9999,
      "fzfg": false,
      "metar_trigger": false,
      "taf_trigger": false,
      "metar": "METAR LRTM 191830Z VRB02KT CAVOK 11/04 Q1013",
      "taf": "TAF LRTM 191700Z 1918/2003 VRB04KT CAVOK"
    },
    {
      "icao": "LRTR",
      "alert": "OK",
      "vis_m": 9999,
      "fzfg": false,
      "metar_trigger": false,
      "taf_trigger": false,
      "metar": "METAR LRTR 191830Z 00000KT CAVOK 14/06 Q1013",
      "taf": "TAF LRTR 191700Z 1918/2018 VRB04KT CAVOK"
    },
    {
      "icao": "LTAC",
      "alert": "OK",
      "vis_m": 9999,
      "fzfg": false,
      "metar_trigger": false,
      "taf_trigger": false,
      "metar": "METAR LTAC 191850Z 05007KT 9999 SCT040 BKN100 07/02 Q1013 NOSIG RMK RWY21C 05005KT RWY03L 04006KT RWY21R 04005KT RWY03R 02008KT RWY21L 05007KT",
      "taf": "TAF LTAC 191640Z 1918/2018 05012KT 9999 SCT040 BKN100"
    },
    {
      "icao": "LTFM",
      "alert": "OK",
      "vis_m": 9999,
      "fzfg": false,
      "metar_trigger": false,
      "taf_trigger": false,
      "metar": "METAR LTFM 191850Z 11005KT CAVOK 11/05 Q1017 NOSIG RMK RWY17L 10004KT RWY34L 10006KT RWY16R 11004KT RWY36 11005KT RWY18 12003KT 080V160",
      "taf": "TAF LTFM 191640Z 1918/2024 04010KT CAVOK"
    },
    {
      "icao": "LUKK",
      "alert": "OK",
      "vis_m": 9999,
      "fzfg": false,
      "metar_trigger": false,
      "taf_trigger": false,
      "metar": "METAR LUKK 191830Z 26002KT CAVOK 14/08 Q1014 NOSIG",
      "taf": "TAF LUKK 191706Z 1918/2018 VRB04KT CAVOK"
    },
    {
      "icao": "LWOH",
      "alert": "OK",
      "vis_m": 9999,
      "fzfg": false,
      "metar_trigger": false,
      "taf_trigger": false,
      "metar": "METAR LWOH 191850Z 07006KT 9999 FEW040 13/06 Q1016",
      "taf": "TAF LWOH 191715Z 1918/2018 32005KT 9999 FEW040"
    },
    {
      "icao": "LWSK",
      "alert": "OK",
      "vis_m": 9999,
      "fzfg": false,
      "metar_trigger": false,
      "taf_trigger": false,
      "metar": "METAR LWSK 191850Z 02005KT CAVOK 12/04 Q1014 NOSIG",
      "taf": "TAF LWSK 191715Z 1918/2018 VRB03KT CAVOK"
    },
    {
      "icao": "LYBE",
      "alert": "OK",
      "vis_m": 9999,
      "fzfg": false,
      "metar_trigger": false,
      "taf_trigger": false,
      "metar": "METAR LYBE 191830Z 02003KT 340V060 CAVOK 13/04 Q1013 NOSIG",
      "taf": "TAF LYBE 191700Z 1918/2018 18004KT CAVOK TX18/1918Z TN08/2002Z"
    },
    {
      "icao": "LYNI",
      "alert": "OK",
      "vis_m": 9999,
      "fzfg": false,
      "metar_trigger": false,
      "taf_trigger": false,
      "metar": "METAR LYNI 191830Z VRB01KT CAVOK 14/05 Q1013 NOSIG",
      "taf": "TAF LYNI 191700Z 1918/2018 07004KT CAVOK TX19/1918Z TN07/2004Z"
    },
    {
      "icao": "LYPG",
      "alert": "OK",
      "vis_m": 9999,
      "fzfg": false,
      "metar_trigger": false,
      "taf_trigger": false,
      "metar": "METAR LYPG 191830Z 12005KT CAVOK 17/06 Q1015 NOSIG",
      "taf": "TAF LYPG 191700Z 1918/2018 VRB02KT CAVOK TX20/2013Z TN12/2002Z"
    },
    {
      "icao": "LZIB",
      "alert": "OK",
      "vis_m": 9999,
      "fzfg": false,
      "metar_trigger": false,
      "taf_trigger": false,
      "metar": "METAR LZIB 191830Z 22004KT CAVOK 14/12 Q1013 NOSIG",
      "taf": "TAF LZIB 191715Z 1918/2018 28008KT 9999 FEW040"
    },
    {
      "icao": "LZKZ",
      "alert": "OK",
      "vis_m": 9999,
      "fzfg": false,
      "metar_trigger": false,
      "taf_trigger": false,
      "metar": "METAR LZKZ 191830Z VRB02KT CAVOK 15/05 Q1011 NOSIG",
      "taf": "TAF LZKZ 191715Z 1918/2018 VRB02KT CAVOK"
    },
    {
      "icao": "LZTT",
      "alert": "OK",
      "vis_m": 9999,
      "fzfg": false,
      "metar_trigger": false,
      "taf_trigger": false,
      "metar": "METAR LZTT 191830Z 29007KT 9999 -RA BKN060 BKN071 12/06 Q1012",
      "taf": "TAF LZTT 191715Z 1918/2018 27006KT 9999 FEW040 SCT060"
    },
    {
      "icao": "OEJN",
      "alert": "OK",
      "vis_m": 9999,
      "fzfg": false,
      "metar_trigger": false,
      "taf_trigger": false,
      "metar": "METAR OEJN 191800Z 22006KT CAVOK 31/19 Q1006 NOSIG",
      "taf": "TAF OEJN 191700Z 1918/2024 22010KT 7000 NSC"
    },
    {
      "icao": "OEMA",
      "alert": "OK",
      "vis_m": 9999,
      "fzfg": false,
      "metar_trigger": false,
      "taf_trigger": false,
      "metar": "METAR OEMA 191800Z 24010KT CAVOK 32/13 Q1011 NOSIG",
      "taf": "TAF OEMA 191700Z 1918/2024 35006KT 7000 SCT040"
    },
    {
      "icao": "OJAI",
      "alert": "OK",
      "vis_m": null,
      "fzfg": false,
      "metar_trigger": false,
      "taf_trigger": false,
      "metar": "",
      "taf": "TAF OJAI 191700Z 1918/2024 25012KT 5000 HZ SCT030"
    },
    {
      "icao": "OMAA",
      "alert": "OK",
      "vis_m": null,
      "fzfg": false,
      "metar_trigger": false,
      "taf_trigger": false,
      "metar": "",
      "taf": ""
    },
    {
      "icao": "OMDB",
      "alert": "OK",
      "vis_m": null,
      "fzfg": false,
      "metar_trigger": false,
      "taf_trigger": false,
      "metar": "",
      "taf": ""
    },
    {
      "icao": "UAAA",
      "alert": "OK",
      "vis_m": 1600,
      "fzfg": false,
      "metar_trigger": false,
      "taf_trigger": false,
      "metar": "METAR UAAA 191830Z 11002MPS 080V140 1600 R05R/P2000 BR FU SCT100 BKN200 07/05 Q1018 NOSIG",
      "taf": "TAF UAAA 191702Z 1918/2018 17002MPS 3100 BR FU SCT020 BKN050 TX18/2009Z TN04/2001Z"
    },
    {
      "icao": "UBBB",
      "alert": "OK",
      "vis_m": 9999,
      "fzfg": false,
      "metar_trigger": false,
      "taf_trigger": false,
      "metar": "METAR UBBB 191830Z 32008KT CAVOK 13/09 Q1006 NOSIG",
      "taf": "TAF UBBB 191714Z 1918/2018 32012KT 9999 BKN030 TX15/2010Z TN10/2001Z"
    },
    {
      "icao": "UDSG",
      "alert": "OK",
      "vis_m": 9999,
      "fzfg": false,
      "metar_trigger": false,
      "taf_trigger": false,
      "metar": "METAR UDSG 191830Z 33003KT 280V020 9999 SCT043CB 07/05 Q1010 NOSIG",
      "taf": "TAF UDSG 191700Z 1918/2018 36006KT 9999 BKN040"
    },
    {
      "icao": "UDYZ",
      "alert": "OK",
      "vis_m": 9999,
      "fzfg": false,
      "metar_trigger": false,
      "taf_trigger": false,
      "metar": "METAR UDYZ 191830Z 33003KT 9999 -SHRA BKN043CB 14/11 Q1006 NOSIG",
      "taf": "TAF UDYZ 191700Z 1918/2018 04006KT 6000 SCT040"
    },
    {
      "icao": "UGKO",
      "alert": "OK",
      "vis_m": 9999,
      "fzfg": false,
      "metar_trigger": false,
      "taf_trigger": false,
      "metar": "METAR UGKO 191830Z 26004KT 9999 -SHRA FEW006 SCT024CB BKN029 10/10 Q1012 NOSIG",
      "taf": "TAF UGKO 191700Z 1918/2018 26007KT 9999 SCT020 BKN050 TX12/2010Z TN09/2003Z"
    }
  ]
}