{
  "ts_utc": "2026-02-03T14:33:12Z",
  "threshold_m": 150,
  "source": "stations_override.txt (ICAO list) + aviationweather.gov (METAR/TAF raw)",
  "station_count": 159,
  "stations": [
    {
      "icao": "BIKF",
      "alert": "OK",
      "vis_m": 9999,
      "fzfg": false,
      "metar_trigger": false,
      "taf_trigger": false,
      "metar": "METAR BIKF 031400Z 11023KT 9999 BKN024 BKN330 07/03 Q1007",
      "taf": "TAF BIKF 031332Z 0315/0415 11018G28KT 9999 SCT018 BKN028 TX06/0315Z TN01/0406Z"
    },
    {
      "icao": "BKPR",
      "alert": "OK",
      "vis_m": 9999,
      "fzfg": false,
      "metar_trigger": false,
      "taf_trigger": false,
      "metar": "METAR BKPR 031430Z 18013KT 9999 BKN040 05/02 Q1015 NOSIG",
      "taf": "TAF BKPR 031130Z 0312/0412 17012KT 9999 SCT040"
    },
    {
      "icao": "EBCI",
      "alert": "OK",
      "vis_m": 3200,
      "fzfg": false,
      "metar_trigger": false,
      "taf_trigger": false,
      "metar": "METAR EBCI 031420Z 18008KT 3200 -DZ BR FEW004 BKN006 06/05 Q0993 TEMPO 2500 RADZ BKN004",
      "taf": "TAF EBCI 031120Z 0312/0418 14008KT 9999 SCT020 BKN030"
    },
    {
      "icao": "EDDB",
      "alert": "OK",
      "vis_m": 9999,
      "fzfg": false,
      "metar_trigger": false,
      "taf_trigger": false,
      "metar": "METAR EDDB 031420Z AUTO 09013KT 9999 BKN039 M04/M12 Q1010 TEMPO 09015G25KT",
      "taf": "TAF EDDB 031100Z 0312/0412 08012KT 9999 BKN035"
    },
    {
      "icao": "EDDH",
      "alert": "OK",
      "vis_m": 9999,
      "fzfg": false,
      "metar_trigger": false,
      "taf_trigger": false,
      "metar": "METAR EDDH 031420Z AUTO 10015KT 070V130 9999 FEW028 OVC041 M04/M11 Q1008 TEMPO 10015G25KT",
      "taf": "TAF EDDH 031100Z 0312/0418 09013KT 9999 BKN020"
    },
    {
      "icao": "EDDK",
      "alert": "OK",
      "vis_m": 9000,
      "fzfg": false,
      "metar_trigger": false,
      "taf_trigger": false,
      "metar": "METAR EDDK 031420Z AUTO 12008KT 070V150 9000 -RA BKN024 BKN042 02/01 Q0998 NOSIG",
      "taf": "TAF EDDK 031100Z 0312/0418 12008KT 9999 SCT020 BKN030"
    },
    {
      "icao": "EDDN",
      "alert": "OK",
      "vis_m": 9999,
      "fzfg": false,
      "metar_trigger": false,
      "taf_trigger": false,
      "metar": "METAR EDDN 031420Z AUTO 07008KT 040V100 CAVOK 03/M02 Q1001 NOSIG",
      "taf": "TAF EDDN 031100Z 0312/0412 10010KT 9999 FEW020"
    },
    {
      "icao": "EDDS",
      "alert": "OK",
      "vis_m": 9999,
      "fzfg": false,
      "metar_trigger": false,
      "taf_trigger": false,
      "metar": "METAR EDDS 031420Z AUTO 21005KT 150V260 CAVOK 08/04 Q0999 NOSIG",
      "taf": "TAF EDDS 031100Z 0312/0412 18003KT 9999 FEW040"
    },
    {
      "icao": "EDFH",
      "alert": "OK",
      "vis_m": 3000,
      "fzfg": false,
      "metar_trigger": false,
      "taf_trigger": false,
      "metar": "METAR EDFH 031420Z 14018KT 3000 -SN BR OVC001 M01/M01 Q0997 REFZRA",
      "taf": ""
    },
    {
      "icao": "EDJA",
      "alert": "OK",
      "vis_m": 9999,
      "fzfg": false,
      "metar_trigger": false,
      "taf_trigger": false,
      "metar": "METAR EDJA 031420Z 23012KT 9999 FEW028 06/01 Q1000",
      "taf": "TAF EDJA 031400Z 0315/0324 26008KT CAVOK"
    },
    {
      "icao": "EDLW",
      "alert": "OK",
      "vis_m": 4300,
      "fzfg": false,
      "metar_trigger": false,
      "taf_trigger": false,
      "metar": "METAR EDLW 031420Z 04011KT 4300 -RA BR FEW018 BKN038 OVC043 01/00 Q0998",
      "taf": "TAF EDLW 031100Z 0312/0412 07011KT 9999 SCT020 BKN040"
    },
    {
      "icao": "EDNY",
      "alert": "OK",
      "vis_m": 9999,
      "fzfg": false,
      "metar_trigger": false,
      "taf_trigger": false,
      "metar": "METAR EDNY 031420Z COR 25014KT 9999 OVC032 09/03 Q1002",
      "taf": "TAF EDNY 031400Z 0315/0324 27005KT 9999 SCT040"
    },
    {
      "icao": "EDSB",
      "alert": "OK",
      "vis_m": 4200,
      "fzfg": false,
      "metar_trigger": false,
      "taf_trigger": false,
      "metar": "METAR EDSB 031420Z VRB01KT 4200 -DZ BR OVC007 02/01 Q1001",
      "taf": "TAF EDSB 031100Z 0312/0412 35003KT 6000 BKN015"
    },
    {
      "icao": "EETN",
      "alert": "OK",
      "vis_m": 9999,
      "fzfg": false,
      "metar_trigger": false,
      "taf_trigger": false,
      "metar": "METAR EETN 031420Z 02005KT 9999 FEW020 M07/M12 Q1028 NOSIG",
      "taf": "TAF EETN 031130Z 0312/0412 03010KT 9999 SCT015"
    },
    {
      "icao": "EFTU",
      "alert": "OK",
      "vis_m": 9999,
      "fzfg": false,
      "metar_trigger": false,
      "taf_trigger": false,
      "metar": "METAR EFTU 031420Z AUTO 28002KT 9999 SCT032 M10/M15 Q1029",
      "taf": "TAF EFTU 031123Z 0312/0412 VRB02KT CAVOK"
    },
    {
      "icao": "EGBB",
      "alert": "OK",
      "vis_m": 5000,
      "fzfg": false,
      "metar_trigger": false,
      "taf_trigger": false,
      "metar": "METAR EGBB 031420Z 08010KT 020V110 5000 HZ OVC007 02/00 Q0994",
      "taf": "TAF EGBB 031057Z 0312/0412 08011KT 7000 BKN012"
    },
    {
      "icao": "EGGP",
      "alert": "OK",
      "vis_m": 9999,
      "fzfg": false,
      "metar_trigger": false,
      "taf_trigger": false,
      "metar": "METAR EGGP 031420Z 09014KT 9999 OVC015 02/M01 Q0994",
      "taf": "TAF EGGP 031058Z 0312/0412 09014KT 9999 BKN018"
    },
    {
      "icao": "EGGW",
      "alert": "OK",
      "vis_m": 3400,
      "fzfg": false,
      "metar_trigger": false,
      "taf_trigger": false,
      "metar": "METAR EGGW 031420Z 06009KT 3400 -DZ OVC006 02/02 Q0992",
      "taf": ""
    },
    {
      "icao": "EGKK",
      "alert": "OK",
      "vis_m": 9000,
      "fzfg": false,
      "metar_trigger": false,
      "taf_trigger": false,
      "metar": "METAR EGKK 031420Z 04007KT 360V100 9000 -RADZ BKN007 05/05 Q0991",
      "taf": "TAF EGKK 031100Z 0312/0418 08010KT 9999 BKN010"
    },
    {
      "icao": "EGNM",
      "alert": "OK",
      "vis_m": 6000,
      "fzfg": false,
      "metar_trigger": false,
      "taf_trigger": false,
      "metar": "METAR EGNM 031420Z 07007KT 030V090 6000 OVC007 00/M01 Q0996",
      "taf": "TAF EGNM 031055Z 0312/0412 08010KT 9999 SCT008 BKN010"
    },
    {
      "icao": "EGPD",
      "alert": "OK",
      "vis_m": 8000,
      "fzfg": false,
      "metar_trigger": false,
      "taf_trigger": false,
      "metar": "METAR EGPD 031420Z 10014KT 8000 SCT010 BKN018 03/01 Q1003 RERA TEMPO BKN008",
      "taf": "TAF EGPD 031056Z 0312/0412 09012KT 9999 SCT012 BKN020"
    },
    {
      "icao": "EGPF",
      "alert": "OK",
      "vis_m": 9999,
      "fzfg": false,
      "metar_trigger": false,
      "taf_trigger": false,
      "metar": "METAR EGPF 031420Z AUTO 08017KT 9999 BKN023 OVC038 05/00 Q0999",
      "taf": "TAF EGPF 031103Z 0312/0412 08012KT 9999 SCT020"
    },
    {
      "icao": "EHBK",
      "alert": "OK",
      "vis_m": 9999,
      "fzfg": false,
      "metar_trigger": false,
      "taf_trigger": false,
      "metar": "METAR EHBK 031425Z AUTO 09009KT 9999 FEW023/// OVC028/// 05/03 Q0994 NOSIG",
      "taf": "TAF EHBK 031122Z 0312/0418 08010KT 9999 BKN045"
    },
    {
      "icao": "EHEH",
      "alert": "OK",
      "vis_m": null,
      "fzfg": false,
      "metar_trigger": false,
      "taf_trigger": false,
      "metar": "",
      "taf": "TAF EHEH 031151Z 0312/0418 07012KT 8000 BR BKN045"
    },
    {
      "icao": "EKBI",
      "alert": "OK",
      "vis_m": 9999,
      "fzfg": false,
      "metar_trigger": false,
      "taf_trigger": false,
      "metar": "METAR EKBI 031420Z AUTO 09021G33KT 9999 NCD M01/M11 Q1012",
      "taf": "TAF EKBI 031427Z 0315/0415 10022G38KT 9999 FEW030"
    },
    {
      "icao": "EKCH",
      "alert": "OK",
      "vis_m": 9999,
      "fzfg": false,
      "metar_trigger": false,
      "taf_trigger": false,
      "metar": "METAR EKCH 031420Z AUTO 09020KT 9999 NCD 00/M07 Q1018 TEMPO 10020G33KT",
      "taf": "TAF EKCH 031427Z 0315/0415 11023G34KT 9999 FEW030"
    },
    {
      "icao": "ENAL",
      "alert": "OK",
      "vis_m": 9999,
      "fzfg": false,
      "metar_trigger": false,
      "taf_trigger": false,
      "metar": "METAR ENAL 031420Z 14015KT 9999 SCT033 BKN041 M01/M09 Q1019",
      "taf": "TAF ENAL 031100Z 0312/0321 14012KT 9999 BKN030"
    },
    {
      "icao": "ENBR",
      "alert": "OK",
      "vis_m": 9999,
      "fzfg": false,
      "metar_trigger": false,
      "taf_trigger": false,
      "metar": "METAR ENBR 031420Z 09005KT CAVOK M03/M17 Q1018 NOSIG RMK WIND 1200FT 10010KT",
      "taf": "TAF ENBR 031100Z 0312/0412 07005KT CAVOK"
    },
    {
      "icao": "ENGM",
      "alert": "OK",
      "vis_m": 9999,
      "fzfg": false,
      "metar_trigger": false,
      "taf_trigger": false,
      "metar": "METAR ENGM 031420Z 02004KT 9999 -SN OVC041 M08/M10 Q1025 NOSIG",
      "taf": "TAF ENGM 031100Z 0312/0412 02002KT 9999 -SN FEW030 BKN040"
    },
    {
      "icao": "ENHD",
      "alert": "OK",
      "vis_m": 9999,
      "fzfg": false,
      "metar_trigger": false,
      "taf_trigger": false,
      "metar": "METAR ENHD 031420Z 10022KT CAVOK M01/M13 Q1017",
      "taf": "TAF ENHD 031100Z 0312/0321 09012KT CAVOK"
    },
    {
      "icao": "ENTC",
      "alert": "OK",
      "vis_m": 9999,
      "fzfg": false,
      "metar_trigger": false,
      "taf_trigger": false,
      "metar": "METAR ENTC 031420Z 18008KT 9999 FEW033 SCT042 M01/M05 Q1023 NOSIG RMK WIND 2600FT 24010KT",
      "taf": "TAF ENTC 031100Z 0312/0412 19009KT 9999 FEW025 BKN045"
    },
    {
      "icao": "ENTO",
      "alert": "OK",
      "vis_m": 9999,
      "fzfg": false,
      "metar_trigger": false,
      "taf_trigger": false,
      "metar": "METAR ENTO 031420Z 05008KT 020V080 9999 -SHSN BKN042 M04/M07 Q1024 NOSIG",
      "taf": "TAF ENTO 031100Z 0312/0412 08005KT 9999 BKN040"
    },
    {
      "icao": "ENVA",
      "alert": "OK",
      "vis_m": 9999,
      "fzfg": false,
      "metar_trigger": false,
      "taf_trigger": false,
      "metar": "METAR ENVA 031420Z 10005KT 070V130 CAVOK M06/M17 Q1022 NOSIG RMK WIND 670FT 15013KT",
      "taf": "TAF ENVA 031100Z 0312/0412 09007KT CAVOK"
    },
    {
      "icao": "ENZV",
      "alert": "OK",
      "vis_m": 9999,
      "fzfg": false,
      "metar_trigger": false,
      "taf_trigger": false,
      "metar": "METAR ENZV 031420Z 10017KT CAVOK M00/M10 Q1017 TEMPO 10018G28KT",
      "taf": "TAF ENZV 031100Z 0312/0412 09015KT CAVOK"
    },
    {
      "icao": "EPGD",
      "alert": "OK",
      "vis_m": 9999,
      "fzfg": false,
      "metar_trigger": false,
      "taf_trigger": false,
      "metar": "METAR EPGD 031400Z 12010KT CAVOK M09/M15 Q1019",
      "taf": "TAF EPGD 031130Z 0312/0412 11012KT CAVOK"
    },
    {
      "icao": "EPKK",
      "alert": "OK",
      "vis_m": 9999,
      "fzfg": false,
      "metar_trigger": false,
      "taf_trigger": false,
      "metar": "METAR EPKK 031400Z 06012KT CAVOK M05/M10 Q1012",
      "taf": "TAF EPKK 031430Z 0315/0415 06012KT CAVOK"
    },
    {
      "icao": "EPKT",
      "alert": "OK",
      "vis_m": 9999,
      "fzfg": false,
      "metar_trigger": false,
      "taf_trigger": false,
      "metar": "METAR EPKT 031400Z 06011KT CAVOK M05/M09 Q1011",
      "taf": "TAF EPKT 031130Z 0312/0412 08010KT CAVOK"
    },
    {
      "icao": "EPLB",
      "alert": "OK",
      "vis_m": 9999,
      "fzfg": false,
      "metar_trigger": false,
      "taf_trigger": false,
      "metar": "METAR EPLB 031400Z 08008KT CAVOK M10/M16 Q1018",
      "taf": "TAF EPLB 031130Z 0312/0412 09010KT CAVOK"
    },
    {
      "icao": "EPMO",
      "alert": "OK",
      "vis_m": 9999,
      "fzfg": false,
      "metar_trigger": false,
      "taf_trigger": false,
      "metar": "METAR EPMO 031400Z 07011KT CAVOK M09/M16 Q1018",
      "taf": "TAF EPMO 031130Z 0312/0412 09009KT CAVOK"
    },
    {
      "icao": "EPPO",
      "alert": "OK",
      "vis_m": 9999,
      "fzfg": false,
      "metar_trigger": false,
      "taf_trigger": false,
      "metar": "METAR EPPO 031400Z 09014KT CAVOK M05/M18 Q1014",
      "taf": "TAF EPPO 031130Z 0312/0412 09014KT CAVOK"
    },
    {
      "icao": "EPRA",
      "alert": "OK",
      "vis_m": 9999,
      "fzfg": false,
      "metar_trigger": false,
      "taf_trigger": false,
      "metar": "METAR EPRA 031400Z 07009KT 9999 BKN017 M08/M18 Q1017",
      "taf": "TAF EPRA 031430Z 0315/0324 08008KT 9999 BKN015"
    },
    {
      "icao": "EPRZ",
      "alert": "OK",
      "vis_m": 9999,
      "fzfg": false,
      "metar_trigger": false,
      "taf_trigger": false,
      "metar": "METAR EPRZ 031400Z 09013KT 9999 FEW030 M06/M10 Q1015",
      "taf": "TAF EPRZ 031130Z 0312/0412 10010KT 9999 BKN018"
    },
    {
      "icao": "EPSC",
      "alert": "OK",
      "vis_m": 9999,
      "fzfg": false,
      "metar_trigger": false,
      "taf_trigger": false,
      "metar": "METAR EPSC 031400Z 08011KT CAVOK M05/M14 Q1015",
      "taf": "TAF EPSC 031130Z 0312/0412 09012KT CAVOK"
    },
    {
      "icao": "EPSY",
      "alert": "OK",
      "vis_m": 9999,
      "fzfg": false,
      "metar_trigger": false,
      "taf_trigger": false,
      "metar": "METAR EPSY 031400Z 08006KT 040V110 CAVOK M10/M16 Q1020",
      "taf": "TAF EPSY 031430Z 0315/0324 08005KT CAVOK"
    },
    {
      "icao": "EPWA",
      "alert": "OK",
      "vis_m": 9999,
      "fzfg": false,
      "metar_trigger": false,
      "taf_trigger": false,
      "metar": "METAR EPWA 031400Z 08011KT CAVOK M07/M19 Q1018 NOSIG",
      "taf": "TAF EPWA 031430Z 0315/0415 09010KT CAVOK"
    },
    {
      "icao": "EPWR",
      "alert": "OK",
      "vis_m": 9999,
      "fzfg": false,
      "metar_trigger": false,
      "taf_trigger": false,
      "metar": "METAR EPWR 031400Z 09010KT CAVOK M04/M11 Q1011",
      "taf": "TAF EPWR 031430Z 0315/0415 09010KT 9999 BKN035"
    },
    {
      "icao": "ESGG",
      "alert": "OK",
      "vis_m": 9999,
      "fzfg": false,
      "metar_trigger": false,
      "taf_trigger": false,
      "metar": "METAR ESGG 031420Z 12016KT 080V140 9999 FEW038 M02/M11 Q1021",
      "taf": "TAF ESGG 031430Z 0315/0415 10013KT 9999 SCT040"
    },
    {
      "icao": "ESKN",
      "alert": "OK",
      "vis_m": 9999,
      "fzfg": false,
      "metar_trigger": false,
      "taf_trigger": false,
      "metar": "METAR ESKN 031420Z 04006KT CAVOK M06/M09 Q1027",
      "taf": "TAF ESKN 031130Z 0312/0412 06005KT CAVOK"
    },
    {
      "icao": "ESMS",
      "alert": "OK",
      "vis_m": 9999,
      "fzfg": false,
      "metar_trigger": false,
      "taf_trigger": false,
      "metar": "METAR ESMS 031420Z 10020KT CAVOK M01/M08 Q1017",
      "taf": "TAF ESMS 031427Z 0315/0415 11018KT 9999 FEW020"
    },
    {
      "icao": "ESSA",
      "alert": "OK",
      "vis_m": 9999,
      "fzfg": false,
      "metar_trigger": false,
      "taf_trigger": false,
      "metar": "METAR ESSA 031420Z 03006KT CAVOK M07/M11 Q1029 NOSIG",
      "taf": "TAF ESSA 031130Z 0312/0412 03005KT 9999 BKN025"
    },
    {
      "icao": "EYKA",
      "alert": "OK",
      "vis_m": 9999,
      "fzfg": false,
      "metar_trigger": false,
      "taf_trigger": false,
      "metar": "METAR EYKA 031420Z 01004KT 340V050 CAVOK M11/M16 Q1024",
      "taf": "TAF EYKA 031100Z 0312/0412 VRB03KT 9000 NSC"
    },
    {
      "icao": "EYPA",
      "alert": "OK",
      "vis_m": 9999,
      "fzfg": false,
      "metar_trigger": false,
      "taf_trigger": false,
      "metar": "METAR EYPA 031420Z 11006KT CAVOK M08/M14 Q1024",
      "taf": "TAF EYPA 031100Z 0312/0412 08007KT 9000 NSC"
    },
    {
      "icao": "EYVI",
      "alert": "OK",
      "vis_m": 9999,
      "fzfg": false,
      "metar_trigger": false,
      "taf_trigger": false,
      "metar": "METAR EYVI 031420Z 05004KT CAVOK M11/M15 Q1022 NOSIG",
      "taf": "TAF EYVI 031100Z 0312/0412 VRB04KT 9000 NSC"
    },
    {
      "icao": "GCFV",
      "alert": "OK",
      "vis_m": 9999,
      "fzfg": false,
      "metar_trigger": false,
      "taf_trigger": false,
      "metar": "METAR GCFV 031400Z 34013KT 9999 FEW035 20/08 Q1017",
      "taf": "TAF GCFV 031400Z 0315/0415 32010KT 9999 FEW030 TX22/0414Z TN16/0406Z"
    },
    {
      "icao": "GCLP",
      "alert": "OK",
      "vis_m": 9999,
      "fzfg": false,
      "metar_trigger": false,
      "taf_trigger": false,
      "metar": "METAR GCLP 031400Z 17009KT 110V210 9999 FEW040 21/12 Q1018 NOSIG",
      "taf": "TAF GCLP 031400Z 0315/0415 01010KT 9999 SCT030 TX22/0414Z TN14/0406Z"
    },
    {
      "icao": "GCTS",
      "alert": "OK",
      "vis_m": 9999,
      "fzfg": false,
      "metar_trigger": false,
      "taf_trigger": false,
      "metar": "METAR GCTS 031400Z 20006KT 160V250 9999 SCT040 20/13 Q1019 NOSIG",
      "taf": "TAF GCTS 031400Z 0315/0415 07006KT 9999 FEW035 TX24/0414Z TN16/0406Z"
    },
    {
      "icao": "GMAD",
      "alert": "OK",
      "vis_m": 9999,
      "fzfg": false,
      "metar_trigger": false,
      "taf_trigger": false,
      "metar": "METAR GMAD 031400Z 25012KT 9999 FEW023 SCT233 17/13 Q1014 NOSIG",
      "taf": "TAF GMAD 031100Z 0312/0418 27012KT 8000 SCT016"
    },
    {
      "icao": "GMMN",
      "alert": "OK",
      "vis_m": 8000,
      "fzfg": false,
      "metar_trigger": false,
      "taf_trigger": false,
      "metar": "METAR GMMN 031400Z 25016KT 8000 SCT016TCU BKN020 16/11 Q1012 TEMPO RA",
      "taf": "TAF GMMN 031100Z 0312/0418 22018KT 9999 SCT012 BKN020"
    },
    {
      "icao": "GMMX",
      "alert": "OK",
      "vis_m": 9999,
      "fzfg": false,
      "metar_trigger": false,
      "taf_trigger": false,
      "metar": "METAR GMMX 031400Z 28010KT 250V310 9999 BKN026 BKN090 14/10 Q1015 NOSIG",
      "taf": "TAF GMMX 031100Z 0312/0418 26008KT 8000 SCT023 SCT080"
    },
    {
      "icao": "HEGN",
      "alert": "OK",
      "vis_m": null,
      "fzfg": false,
      "metar_trigger": false,
      "taf_trigger": false,
      "metar": "",
      "taf": "TAF HEGN 031100Z 0312/0418 34013G26KT 6000 NSC"
    },
    {
      "icao": "HEMA",
      "alert": "OK",
      "vis_m": null,
      "fzfg": false,
      "metar_trigger": false,
      "taf_trigger": false,
      "metar": "",
      "taf": "TAF HEMA 031100Z 0312/0418 35010G22KT 6000 NSC"
    },
    {
      "icao": "HESH",
      "alert": "OK",
      "vis_m": null,
      "fzfg": false,
      "metar_trigger": false,
      "taf_trigger": false,
      "metar": "",
      "taf": "TAF HESH 031100Z 0312/0418 01006G18KT CAVOK"
    },
    {
      "icao": "HESX",
      "alert": "OK",
      "vis_m": null,
      "fzfg": false,
      "metar_trigger": false,
      "taf_trigger": false,
      "metar": "",
      "taf": "TAF HESX 031345Z 0314/0418 28010KT CAVOK"
    },
    {
      "icao": "LATI",
      "alert": "OK",
      "vis_m": 9999,
      "fzfg": false,
      "metar_trigger": false,
      "taf_trigger": false,
      "metar": "METAR LATI 031420Z 14005KT 9999 BKN065 16/04 Q1015 NOSIG",
      "taf": "TAF LATI 031100Z 0312/0412 14012KT 9999 FEW030 BKN060 TX19/0412Z TN08/0405Z"
    },
    {
      "icao": "LBPD",
      "alert": "OK",
      "vis_m": 9999,
      "fzfg": false,
      "metar_trigger": false,
      "taf_trigger": false,
      "metar": "METAR LBPD 031430Z AUTO 00000KT 9999 OVC019/// 00/M01 Q1021 NOSIG",
      "taf": "TAF LBPD 031100Z 0312/0412 10010KT 9999 SCT012 BKN030"
    },
    {
      "icao": "LBSF",
      "alert": "OK",
      "vis_m": 9999,
      "fzfg": false,
      "metar_trigger": false,
      "taf_trigger": false,
      "metar": "METAR LBSF 031430Z 11010KT CAVOK 02/M01 Q1017 NOSIG",
      "taf": "TAF LBSF 031100Z 0312/0412 10010KT 9999 SCT010 BKN020"
    },
    {
      "icao": "LBWN",
      "alert": "OK",
      "vis_m": 9999,
      "fzfg": false,
      "metar_trigger": false,
      "taf_trigger": false,
      "metar": "METAR LBWN 031430Z 12009KT CAVOK 00/M04 Q1021 NOSIG",
      "taf": "TAF LBWN 031100Z 0312/0412 10010KT 9999 SCT020 BKN040"
    },
    {
      "icao": "LCLK",
      "alert": "OK",
      "vis_m": 9999,
      "fzfg": false,
      "metar_trigger": false,
      "taf_trigger": false,
      "metar": "METAR LCLK 031400Z 33018KT 9999 FEW020 18/09 Q1015 NOSIG",
      "taf": "TAF LCLK 031130Z 0312/0412 31020KT 9999 FEW020"
    },
    {
      "icao": "LCPH",
      "alert": "OK",
      "vis_m": 9999,
      "fzfg": false,
      "metar_trigger": false,
      "taf_trigger": false,
      "metar": "METAR LCPH 031400Z 33015KT 9999 SCT035 17/08 Q1017 NOSIG",
      "taf": "TAF LCPH 031130Z 0312/0412 29022KT 9999 FEW020"
    },
    {
      "icao": "LEAL",
      "alert": "OK",
      "vis_m": 9999,
      "fzfg": false,
      "metar_trigger": false,
      "taf_trigger": false,
      "metar": "METAR LEAL 031400Z 22005KT 190V260 9999 FEW030 17/03 Q1002 NOSIG",
      "taf": "TAF LEAL 031100Z 0312/0412 26008KT 9999 FEW030 TX17/0313Z TN07/0407Z"
    },
    {
      "icao": "LEBB",
      "alert": "OK",
      "vis_m": 9999,
      "fzfg": false,
      "metar_trigger": false,
      "taf_trigger": false,
      "metar": "METAR LEBB 031400Z 15009G20KT 110V230 9999 FEW040 14/02 Q0997 NOSIG",
      "taf": "TAF LEBB 031100Z 0312/0412 20009KT 9999 FEW040 TX16/0314Z TN07/0406Z"
    },
    {
      "icao": "LEBL",
      "alert": "OK",
      "vis_m": 9999,
      "fzfg": false,
      "metar_trigger": false,
      "taf_trigger": false,
      "metar": "METAR LEBL 031400Z 20010KT 9999 FEW025 14/09 Q1000 NOSIG",
      "taf": "TAF LEBL 031100Z 0312/0412 22010KT 9999 FEW020 TX15/0314Z TN05/0406Z"
    },
    {
      "icao": "LECH",
      "alert": "OK",
      "vis_m": 9000,
      "fzfg": false,
      "metar_trigger": false,
      "taf_trigger": false,
      "metar": "METAR LECH 031400Z AUTO 24011KT 9000 NSC 12/02 Q1001",
      "taf": ""
    },
    {
      "icao": "LEMD",
      "alert": "OK",
      "vis_m": 9999,
      "fzfg": false,
      "metar_trigger": false,
      "taf_trigger": false,
      "metar": "METAR LEMD 031400Z 21012KT 180V240 9999 FEW025 BKN035 08/03 Q1001 NOSIG",
      "taf": "TAF LEMD 031100Z 0312/0418 22010KT 9999 SCT020 TX08/0314Z TN04/0407Z"
    },
    {
      "icao": "LEMG",
      "alert": "OK",
      "vis_m": 9999,
      "fzfg": false,
      "metar_trigger": false,
      "taf_trigger": false,
      "metar": "METAR LEMG 031400Z 15003KT 070V230 9999 FEW025 SCT065 13/08 Q1006 NOSIG",
      "taf": "TAF LEMG 031100Z 0312/0412 29005KT 9999 FEW025 SCT040 TX17/0314Z TN10/0407Z"
    },
    {
      "icao": "LEVC",
      "alert": "OK",
      "vis_m": 9999,
      "fzfg": false,
      "metar_trigger": false,
      "taf_trigger": false,
      "metar": "METAR LEVC 031400Z 25012KT 9999 FEW020 SCT050 16/02 Q1002 NOSIG",
      "taf": "TAF LEVC 031100Z 0312/0412 25009KT 9999 FEW030 TX16/0313Z TN08/0406Z"
    },
    {
      "icao": "LEXJ",
      "alert": "OK",
      "vis_m": 9999,
      "fzfg": false,
      "metar_trigger": false,
      "taf_trigger": false,
      "metar": "METAR LEXJ 031400Z 21014G24KT 160V260 CAVOK 13/03 Q0995",
      "taf": "TAF LEXJ 031400Z 0315/0415 21009KT 9999 FEW060 TX16/0415Z TN08/0407Z"
    },
    {
      "icao": "LEZG",
      "alert": "OK",
      "vis_m": 9999,
      "fzfg": false,
      "metar_trigger": false,
      "taf_trigger": false,
      "metar": "METAR LEZG 031400Z 21006KT 9999 -RA BKN050 BKN060 OVC080 10/04 Q1000 NOSIG",
      "taf": "TAF LEZG 031100Z 0312/0412 23009KT 9999 FEW020 TX12/0314Z TN05/0406Z"
    },
    {
      "icao": "LEZL",
      "alert": "OK",
      "vis_m": 9999,
      "fzfg": false,
      "metar_trigger": false,
      "taf_trigger": false,
      "metar": "METAR LEZL 031400Z 27010KT 240V300 9999 FEW040 15/07 Q1005 NOSIG",
      "taf": "TAF LEZL 031400Z 0315/0415 26010KT 9999 SCT020 TX15/0315Z TN12/0407Z"
    },
    {
      "icao": "LFBD",
      "alert": "OK",
      "vis_m": 9999,
      "fzfg": false,
      "metar_trigger": false,
      "taf_trigger": false,
      "metar": "METAR LFBD 031400Z AUTO 22014KT 190V250 9999 SCT049 OVC060 13/03 Q0997 NOSIG",
      "taf": "TAF LFBD 031100Z 0312/0418 17010KT CAVOK TX14/0314Z TN05/0406Z"
    },
    {
      "icao": "LFLL",
      "alert": "OK",
      "vis_m": 9999,
      "fzfg": false,
      "metar_trigger": false,
      "taf_trigger": false,
      "metar": "METAR LFLL 031400Z 21015KT 9999 FEW026 13/05 Q1000 NOSIG",
      "taf": "TAF LFLL 031100Z 0312/0418 18015G25KT CAVOK"
    },
    {
      "icao": "LFLS",
      "alert": "OK",
      "vis_m": 9999,
      "fzfg": false,
      "metar_trigger": false,
      "taf_trigger": false,
      "metar": "METAR LFLS 031400Z AUTO 24010KT CAVOK 11/06 Q1000 NOSIG",
      "taf": "TAF LFLS 031400Z 0315/0415 24008KT CAVOK"
    },
    {
      "icao": "LFMN",
      "alert": "OK",
      "vis_m": 9999,
      "fzfg": false,
      "metar_trigger": false,
      "taf_trigger": false,
      "metar": "METAR LFMN 031400Z 08014KT 9999 BKN019TCU BKN066 13/10 Q1004 TEMPO SHRA",
      "taf": "TAF LFMN 031400Z 0315/0421 10012KT 9999 BKN024"
    },
    {
      "icao": "LFOB",
      "alert": "OK",
      "vis_m": 9999,
      "fzfg": false,
      "metar_trigger": false,
      "taf_trigger": false,
      "metar": "METAR LFOB 031400Z AUTO 21012KT 9999 OVC012/// //////TCU 10/08 Q0993 TEMPO 4000 SHRA BKN009 BKN014TCU",
      "taf": "TAF LFOB 031100Z 0312/0412 23011KT 9999 OVC013"
    },
    {
      "icao": "LFPO",
      "alert": "OK",
      "vis_m": 9999,
      "fzfg": false,
      "metar_trigger": false,
      "taf_trigger": false,
      "metar": "METAR LFPO 031400Z 21010KT 170V240 9999 -RA BKN023 10/07 Q0995 NOSIG",
      "taf": "TAF LFPO 031100Z 0312/0418 21010G20KT 9999 SCT011 BKN018"
    },
    {
      "icao": "LFSB",
      "alert": "OK",
      "vis_m": 9999,
      "fzfg": false,
      "metar_trigger": false,
      "taf_trigger": false,
      "metar": "METAR LFSB 031400Z AUTO 11005KT 070V140 9999 FEW044 OVC068 09/06 Q1001 NOSIG",
      "taf": "TAF LFSB 031100Z 0312/0412 17006KT CAVOK"
    },
    {
      "icao": "LGAV",
      "alert": "OK",
      "vis_m": 9999,
      "fzfg": false,
      "metar_trigger": false,
      "taf_trigger": false,
      "metar": "METAR LGAV 031420Z 21007KT 9999 FEW025 16/06 Q1019 NOSIG",
      "taf": "TAF LGAV 031100Z 0312/0412 VRB05KT 9999 FEW025"
    },
    {
      "icao": "LGTS",
      "alert": "OK",
      "vis_m": 9999,
      "fzfg": false,
      "metar_trigger": false,
      "taf_trigger": false,
      "metar": "METAR LGTS 031420Z 27004KT 9999 SCT030 12/08 Q1020 NOSIG",
      "taf": "TAF LGTS 031100Z 0312/0412 VRB03KT 9999 SCT030"
    },
    {
      "icao": "LHBP",
      "alert": "OK",
      "vis_m": 5000,
      "fzfg": false,
      "metar_trigger": false,
      "taf_trigger": false,
      "metar": "METAR LHBP 031430Z 10012KT 5000 -SN -PL OVC008 M00/M02 Q1012 BECMG 8000 -PL -FZRA",
      "taf": "TAF LHBP 031115Z 0312/0412 10011KT 1000 +SN DRSN VV004"
    },
    {
      "icao": "LHDC",
      "alert": "OK",
      "vis_m": 9999,
      "fzfg": false,
      "metar_trigger": false,
      "taf_trigger": false,
      "metar": "METAR LHDC 031345Z AUTO 09006KT 9999 -RASN BKN030 OVC043 02/M01 Q1015 NOSIG",
      "taf": "TAF LHDC 031415Z 0315/0324 08006KT 7000 -SN OVC030"
    },
    {
      "icao": "LIBD",
      "alert": "OK",
      "vis_m": 9999,
      "fzfg": false,
      "metar_trigger": false,
      "taf_trigger": false,
      "metar": "METAR LIBD 031420Z AUTO 17009KT 9999 FEW180/// 15/11 Q1009",
      "taf": "TAF LIBD 031100Z 0312/0412 18012KT CAVOK"
    },
    {
      "icao": "LIBG",
      "alert": "OK",
      "vis_m": 9999,
      "fzfg": false,
      "metar_trigger": false,
      "taf_trigger": false,
      "metar": "METAR LIBG 031350Z 16011KT 9999 SCT010 BKN020 16/13 Q1012",
      "taf": "TAF LIBG 031400Z 0315/0324 17020G30KT 9999 FEW010 SCT020"
    },
    {
      "icao": "LIBP",
      "alert": "OK",
      "vis_m": 9999,
      "fzfg": false,
      "metar_trigger": false,
      "taf_trigger": false,
      "metar": "METAR LIBP 031420Z AUTO VRB05KT 9999 SCT083/// 18/08 Q1005",
      "taf": "TAF LIBP 031100Z 0312/0412 VRB05KT 9999 SCT050"
    },
    {
      "icao": "LIBR",
      "alert": "OK",
      "vis_m": 9999,
      "fzfg": false,
      "metar_trigger": false,
      "taf_trigger": false,
      "metar": "METAR LIBR 031420Z 18014KT 9999 BKN035 16/11 Q1012",
      "taf": "TAF LIBR 031100Z 0312/0412 16025G35KT 9999 SCT030"
    },
    {
      "icao": "LICA",
      "alert": "OK",
      "vis_m": 9999,
      "fzfg": false,
      "metar_trigger": false,
      "taf_trigger": false,
      "metar": "METAR LICA 031420Z AUTO 08013KT 9999 NCD 18/11 Q1010",
      "taf": "TAF LICA 031100Z 0312/0412 07015KT 9999 SCT025"
    },
    {
      "icao": "LICC",
      "alert": "OK",
      "vis_m": 9999,
      "fzfg": false,
      "metar_trigger": false,
      "taf_trigger": false,
      "metar": "METAR LICC 031420Z 26006KT CAVOK 19/16 Q1012",
      "taf": "TAF LICC 031100Z 0312/0412 VRB05KT 9999 FEW030"
    },
    {
      "icao": "LICJ",
      "alert": "OK",
      "vis_m": 9000,
      "fzfg": false,
      "metar_trigger": false,
      "taf_trigger": false,
      "metar": "METAR LICJ 031420Z 20014KT 9000 NSC 20/07 Q1008",
      "taf": "TAF LICJ 031100Z 0312/0412 18015KT 9999 SCT030"
    },
    {
      "icao": "LIMC",
      "alert": "OK",
      "vis_m": 3000,
      "fzfg": false,
      "metar_trigger": false,
      "taf_trigger": false,
      "metar": "METAR LIMC 031420Z 02003KT 3000 BR BKN005 04/04 Q1007 NOSIG",
      "taf": ""
    },
    {
      "icao": "LIME",
      "alert": "OK",
      "vis_m": 9999,
      "fzfg": false,
      "metar_trigger": false,
      "taf_trigger": false,
      "metar": "METAR LIME 031420Z 23007KT 200V260 9999 SCT007 BKN020 05/04 Q1007 NOSIG",
      "taf": "TAF LIME 031100Z 0312/0412 VRB05KT 6000 SCT008 BKN020"
    },
    {
      "icao": "LIMF",
      "alert": "OK",
      "vis_m": 9999,
      "fzfg": false,
      "metar_trigger": false,
      "taf_trigger": false,
      "metar": "METAR LIMF 031420Z 11003KT 9999 BKN010 BKN025 05/02 Q1006",
      "taf": "TAF LIMF 031100Z 0312/0412 VRB05KT 6000 SCT030"
    },
    {
      "icao": "LIMJ",
      "alert": "OK",
      "vis_m": 9999,
      "fzfg": false,
      "metar_trigger": false,
      "taf_trigger": false,
      "metar": "METAR LIMJ 031420Z 04011KT 9999 BKN035 BKN055 08/04 Q1005",
      "taf": "TAF LIMJ 031100Z 0312/0412 04013KT 9999 BKN030"
    },
    {
      "icao": "LIPE",
      "alert": "OK",
      "vis_m": 2000,
      "fzfg": false,
      "metar_trigger": false,
      "taf_trigger": false,
      "metar": "METAR LIPE 031420Z 28007KT 2000 BR BKN003 BKN005 07/07 Q1007",
      "taf": "TAF LIPE 031100Z 0312/0412 27010KT 6000 BKN015"
    },
    {
      "icao": "LIPH",
      "alert": "OK",
      "vis_m": 9999,
      "fzfg": false,
      "metar_trigger": false,
      "taf_trigger": false,
      "metar": "METAR LIPH 031420Z 03004KT 350V080 9999 SCT020 10/08 Q1006",
      "taf": "TAF LIPH 031100Z 0312/0412 VRB06KT 6000 SCT004 BKN014"
    },
    {
      "icao": "LIPQ",
      "alert": "OK",
      "vis_m": 9999,
      "fzfg": false,
      "metar_trigger": false,
      "taf_trigger": false,
      "metar": "METAR LIPQ 031420Z AUTO 20015G27KT 9999 RA BKN011/// OVC013/// 11/11 Q1006",
      "taf": "TAF LIPQ 031100Z 0312/0412 VRB05KT 9000 OVC020"
    },
    {
      "icao": "LIPR",
      "alert": "OK",
      "vis_m": 9999,
      "fzfg": false,
      "metar_trigger": false,
      "taf_trigger": false,
      "metar": "METAR LIPR 031420Z 30005KT 9999 FEW030 BKN060 11/08 Q1006",
      "taf": "TAF LIPR 031100Z 0312/0412 16012KT 9999 BKN040"
    },
    {
      "icao": "LIPX",
      "alert": "OK",
      "vis_m": 9999,
      "fzfg": false,
      "metar_trigger": false,
      "taf_trigger": false,
      "metar": "METAR LIPX 031420Z 31005KT 280V350 9999 BKN070 09/07 Q1006",
      "taf": "TAF LIPX 031100Z 0312/0412 VRB05KT 8000 BKN020"
    },
    {
      "icao": "LIPY",
      "alert": "OK",
      "vis_m": 9999,
      "fzfg": false,
      "metar_trigger": false,
      "taf_trigger": false,
      "metar": "METAR LIPY 031420Z AUTO VRB01KT 9999 OVC054/// 13/08 Q1006",
      "taf": "TAF LIPY 031100Z 0312/0412 15010KT 9999 SCT050"
    },
    {
      "icao": "LIPZ",
      "alert": "OK",
      "vis_m": 9999,
      "fzfg": false,
      "metar_trigger": false,
      "taf_trigger": false,
      "metar": "METAR LIPZ 031420Z 06004KT 9999 FEW020 08/07 Q1006 NOSIG",
      "taf": ""
    },
    {
      "icao": "LIRF",
      "alert": "OK",
      "vis_m": 9999,
      "fzfg": false,
      "metar_trigger": false,
      "taf_trigger": false,
      "metar": "METAR LIRF 031420Z 13014KT 9999 SCT020 14/12 Q1006 NOSIG",
      "taf": "TAF LIRF 031100Z 0312/0418 15015KT 9999 SCT030"
    },
    {
      "icao": "LIRN",
      "alert": "OK",
      "vis_m": 9999,
      "fzfg": false,
      "metar_trigger": false,
      "taf_trigger": false,
      "metar": "METAR LIRN 031420Z 18008KT 130V210 CAVOK 16/08 Q1009 NOSIG",
      "taf": "TAF LIRN 031100Z 0312/0412 17015KT 9999 SCT030"
    },
    {
      "icao": "LIRP",
      "alert": "OK",
      "vis_m": 9999,
      "fzfg": false,
      "metar_trigger": false,
      "taf_trigger": false,
      "metar": "METAR LIRP 031415Z 11006KT 9999 FEW040 SCT060 14/13 Q1006 NOSIG",
      "taf": "TAF LIRP 031100Z 0312/0412 06005KT 9999 SCT020 SCT050"
    },
    {
      "icao": "LIRZ",
      "alert": "OK",
      "vis_m": 9999,
      "fzfg": false,
      "metar_trigger": false,
      "taf_trigger": false,
      "metar": "METAR LIRZ 031420Z AUTO 19004KT 9999 BKN022/// BKN065/// 12/09 Q1006",
      "taf": "TAF LIRZ 031100Z 0312/0412 18010KT 9999 BKN035"
    },
    {
      "icao": "LJLJ",
      "alert": "OK",
      "vis_m": 7000,
      "fzfg": false,
      "metar_trigger": false,
      "taf_trigger": false,
      "metar": "METAR LJLJ 031400Z 29003KT 260V330 7000 -RA BKN003 OVC023 03/02 Q1007 RERA NOSIG",
      "taf": "TAF LJLJ 031100Z 0312/0412 11002KT 5000 -RA BR BKN004 OVC020"
    },
    {
      "icao": "LKMT",
      "alert": "OK",
      "vis_m": 8000,
      "fzfg": false,
      "metar_trigger": false,
      "taf_trigger": false,
      "metar": "METAR LKMT 031400Z 03008KT 8000 SCT038 BKN045 M05/M09 Q1010 NOSIG",
      "taf": "TAF LKMT 031100Z 0312/0412 02006KT 9000 OVC030"
    },
    {
      "icao": "LKPR",
      "alert": "OK",
      "vis_m": 9999,
      "fzfg": false,
      "metar_trigger": false,
      "taf_trigger": false,
      "metar": "METAR LKPR 031400Z 10012KT 9999 OVC012 M01/M02 Q1004 NOSIG",
      "taf": "TAF LKPR 031400Z 0315/0421 11010KT 9999 OVC011"
    },
    {
      "icao": "LLBG",
      "alert": "OK",
      "vis_m": 9999,
      "fzfg": false,
      "metar_trigger": false,
      "taf_trigger": false,
      "metar": "METAR LLBG 031420Z 28012KT 9999 FEW030 SCT035 18/12 Q1019 NOSIG",
      "taf": "TAF LLBG 031102Z 0312/0412 29012KT 9999 SCT035"
    },
    {
      "icao": "LMML",
      "alert": "OK",
      "vis_m": 9999,
      "fzfg": false,
      "metar_trigger": false,
      "taf_trigger": false,
      "metar": "METAR LMML 031415Z 16009KT 130V190 CAVOK 18/13 Q1012 NOSIG",
      "taf": "TAF LMML 031100Z 0312/0412 18012KT CAVOK"
    },
    {
      "icao": "LOWW",
      "alert": "OK",
      "vis_m": 9999,
      "fzfg": false,
      "metar_trigger": false,
      "taf_trigger": false,
      "metar": "METAR LOWW 031420Z 12016KT 9999 BKN009 M00/M02 Q1006 NOSIG",
      "taf": "TAF LOWW 031415Z 0315/0421 12010KT 9999 OVC010 TX01/0421Z TNM00/0400Z"
    },
    {
      "icao": "LPFR",
      "alert": "OK",
      "vis_m": 9999,
      "fzfg": false,
      "metar_trigger": false,
      "taf_trigger": false,
      "metar": "METAR LPFR 031400Z 26016KT 9999 FEW012 14/10 Q1006",
      "taf": "TAF LPFR 031100Z 0312/0412 26013KT 9999 FEW015 SCT030"
    },
    {
      "icao": "LPMA",
      "alert": "OK",
      "vis_m": 9999,
      "fzfg": false,
      "metar_trigger": false,
      "taf_trigger": false,
      "metar": "METAR LPMA 031400Z 05006KT 350V140 9999 FEW015 20/11 Q1014",
      "taf": "TAF LPMA 031100Z 0312/0412 VRB05KT 9999 SCT015"
    },
    {
      "icao": "LPPR",
      "alert": "OK",
      "vis_m": 9999,
      "fzfg": false,
      "metar_trigger": false,
      "taf_trigger": false,
      "metar": "METAR LPPR 031400Z 21007KT 9999 FEW023 SCT032 11/07 Q0999",
      "taf": "TAF LPPR 031100Z 0312/0412 23010KT 9999 FEW020 SCT040"
    },
    {
      "icao": "LPPS",
      "alert": "OK",
      "vis_m": 9999,
      "fzfg": false,
      "metar_trigger": false,
      "taf_trigger": false,
      "metar": "METAR LPPS 031400Z 28020G30KT 9999 FEW014 18/14 Q1014",
      "taf": "TAF LPPS 031100Z 0312/0418 27017KT 9999 SCT015"
    },
    {
      "icao": "LPPT",
      "alert": "OK",
      "vis_m": 9999,
      "fzfg": false,
      "metar_trigger": false,
      "taf_trigger": false,
      "metar": "METAR LPPT 031400Z 26011KT 9999 FEW030 13/07 Q1003",
      "taf": "TAF LPPT 031100Z 0312/0418 25010KT 9999 SCT020"
    },
    {
      "icao": "LQBK",
      "alert": "OK",
      "vis_m": 9999,
      "fzfg": false,
      "metar_trigger": false,
      "taf_trigger": false,
      "metar": "METAR LQBK 031400Z VRB02KT CAVOK 07/03 Q1009 NOSIG",
      "taf": "TAF LQBK 031100Z 0312/0412 06005KT CAVOK TX08/0314Z TN04/0406Z"
    },
    {
      "icao": "LQSA",
      "alert": "OK",
      "vis_m": 9999,
      "fzfg": false,
      "metar_trigger": false,
      "taf_trigger": false,
      "metar": "METAR LQSA 031400Z 14017KT 9999 BKN043 11/04 Q1011 NOSIG",
      "taf": ""
    },
    {
      "icao": "LQTZ",
      "alert": "OK",
      "vis_m": 9999,
      "fzfg": false,
      "metar_trigger": false,
      "taf_trigger": false,
      "metar": "METAR LQTZ 031400Z 17005KT 110V210 9999 SCT050 15/04 Q1009",
      "taf": "TAF LQTZ 031100Z 0312/0412 06005KT 9999 SCT060 TX14/0314Z TN06/0406Z"
    },
    {
      "icao": "LRBC",
      "alert": "OK",
      "vis_m": 9999,
      "fzfg": false,
      "metar_trigger": false,
      "taf_trigger": false,
      "metar": "METAR LRBC 031400Z 16008KT CAVOK M02/M10 Q1020",
      "taf": "TAF LRBC 031400Z 0315/0324 16010KT CAVOK"
    },
    {
      "icao": "LRBS",
      "alert": "OK",
      "vis_m": 9999,
      "fzfg": false,
      "metar_trigger": false,
      "taf_trigger": false,
      "metar": "METAR LRBS 031400Z 15005KT CAVOK M01/M11 Q1021 NOSIG",
      "taf": "TAF LRBS 031100Z 0312/0412 29010KT CAVOK"
    },
    {
      "icao": "LRBV",
      "alert": "OK",
      "vis_m": 9999,
      "fzfg": false,
      "metar_trigger": false,
      "taf_trigger": false,
      "metar": "METAR LRBV 031400Z VRB03KT CAVOK 03/M03 Q1015",
      "taf": "TAF LRBV 031400Z 0315/0324 VRB04KT CAVOK"
    },
    {
      "icao": "LRCL",
      "alert": "OK",
      "vis_m": 9999,
      "fzfg": false,
      "metar_trigger": false,
      "taf_trigger": false,
      "metar": "METAR LRCL 031400Z 14009KT CAVOK 03/M02 Q1015",
      "taf": "TAF LRCL 031400Z 0315/0324 13008KT CAVOK"
    },
    {
      "icao": "LRCV",
      "alert": "OK",
      "vis_m": 9999,
      "fzfg": false,
      "metar_trigger": false,
      "taf_trigger": false,
      "metar": "METAR LRCV 031400Z 10004KT 080V140 9999 BKN023 M04/M08 Q1020",
      "taf": "TAF LRCV 031400Z 0315/0324 VRB04KT 9999 BKN025"
    },
    {
      "icao": "LRIA",
      "alert": "OK",
      "vis_m": 9999,
      "fzfg": false,
      "metar_trigger": false,
      "taf_trigger": false,
      "metar": "METAR LRIA 031400Z 11012KT CAVOK M04/M12 Q1021",
      "taf": "TAF LRIA 031400Z 0315/0324 11011KT CAVOK"
    },
    {
      "icao": "LROP",
      "alert": "OK",
      "vis_m": 9999,
      "fzfg": false,
      "metar_trigger": false,
      "taf_trigger": false,
      "metar": "METAR LROP 031400Z 28003KT 250V310 CAVOK M02/M15 Q1021 NOSIG",
      "taf": "TAF LROP 031100Z 0312/0412 29010KT CAVOK"
    },
    {
      "icao": "LRSB",
      "alert": "OK",
      "vis_m": 9999,
      "fzfg": false,
      "metar_trigger": false,
      "taf_trigger": false,
      "metar": "METAR LRSB 031400Z 11007KT 9999 FEW080 04/M03 Q1014",
      "taf": "TAF LRSB 031100Z 0312/0412 VRB04KT CAVOK"
    },
    {
      "icao": "LRSM",
      "alert": "OK",
      "vis_m": 9999,
      "fzfg": false,
      "metar_trigger": false,
      "taf_trigger": false,
      "metar": "METAR LRSM 031400Z 14005KT CAVOK 05/M01 Q1015",
      "taf": "TAF LRSM 031400Z 0315/0324 VRB04KT 9999 BKN040"
    },
    {
      "icao": "LRSV",
      "alert": "OK",
      "vis_m": 9999,
      "fzfg": false,
      "metar_trigger": false,
      "taf_trigger": false,
      "metar": "METAR LRSV 031400Z 10004KT CAVOK M06/M10 Q1017",
      "taf": "TAF LRSV 031400Z 0315/0324 11006KT CAVOK"
    },
    {
      "icao": "LRTM",
      "alert": "OK",
      "vis_m": 9999,
      "fzfg": false,
      "metar_trigger": false,
      "taf_trigger": false,
      "metar": "METAR LRTM 031400Z 06004KT CAVOK 04/M01 Q1015",
      "taf": "TAF LRTM 031400Z 0315/0324 VRB04KT CAVOK"
    },
    {
      "icao": "LRTR",
      "alert": "OK",
      "vis_m": 9999,
      "fzfg": false,
      "metar_trigger": false,
      "taf_trigger": false,
      "metar": "METAR LRTR 031400Z 10010KT CAVOK 04/01 Q1014 NOSIG",
      "taf": "TAF LRTR 031100Z 0312/0412 10010KT CAVOK"
    },
    {
      "icao": "LTAC",
      "alert": "OK",
      "vis_m": 9999,
      "fzfg": false,
      "metar_trigger": false,
      "taf_trigger": false,
      "metar": "METAR LTAC 031420Z 32006KT 290V350 9999 BKN040 05/M01 Q1017 NOSIG",
      "taf": "TAF LTAC 031040Z 0312/0412 VRB02KT 9999 SCT040"
    },
    {
      "icao": "LTFM",
      "alert": "OK",
      "vis_m": 9999,
      "fzfg": false,
      "metar_trigger": false,
      "taf_trigger": false,
      "metar": "METAR LTFM 031420Z 09004KT 050V160 9999 FEW017 BKN027 04/00 Q1022 NOSIG",
      "taf": "TAF LTFM 031040Z 0312/0418 05005KT 9999 BKN017 BKN027"
    },
    {
      "icao": "LUKK",
      "alert": "OK",
      "vis_m": 9999,
      "fzfg": false,
      "metar_trigger": false,
      "taf_trigger": false,
      "metar": "METAR LUKK 031400Z 15006KT CAVOK M04/M13 Q1022 NOSIG",
      "taf": "TAF LUKK 031118Z 0312/0412 VRB06KT CAVOK"
    },
    {
      "icao": "LWOH",
      "alert": "OK",
      "vis_m": 9999,
      "fzfg": false,
      "metar_trigger": false,
      "taf_trigger": false,
      "metar": "METAR LWOH 031420Z 30003KT 270V340 9999 BKN040 10/04 Q1016",
      "taf": "TAF LWOH 031130Z 0312/0412 VRB02KT 9999 SCT040"
    },
    {
      "icao": "LWSK",
      "alert": "OK",
      "vis_m": 9999,
      "fzfg": false,
      "metar_trigger": false,
      "taf_trigger": false,
      "metar": "METAR LWSK 031420Z VRB02KT 9999 SCT035 07/02 Q1018 NOSIG",
      "taf": "TAF LWSK 031130Z 0312/0412 VRB02KT 9999 SCT030 SCT080"
    },
    {
      "icao": "LYBE",
      "alert": "OK",
      "vis_m": 9999,
      "fzfg": false,
      "metar_trigger": false,
      "taf_trigger": false,
      "metar": "METAR LYBE 031400Z 12009KT CAVOK 08/00 Q1012 NOSIG",
      "taf": "TAF LYBE 031100Z 0312/0412 12009KT CAVOK TX09/0412Z TN04/0406Z"
    },
    {
      "icao": "LYNI",
      "alert": "OK",
      "vis_m": 9999,
      "fzfg": false,
      "metar_trigger": false,
      "taf_trigger": false,
      "metar": "METAR LYNI 031400Z 16005KT 120V220 9999 FEW043 SCT080 10/01 Q1015 NOSIG",
      "taf": "TAF LYNI 031100Z 0312/0412 11006KT 9999 SCT040 TX08/0313Z TN01/0406Z"
    },
    {
      "icao": "LYPG",
      "alert": "OK",
      "vis_m": 7000,
      "fzfg": false,
      "metar_trigger": false,
      "taf_trigger": false,
      "metar": "METAR LYPG 031400Z 27002KT 7000 FEW010 BKN040 OVC080 08/07 Q1016 NOSIG",
      "taf": "TAF LYPG 031100Z 0312/0412 14008KT 9999 FEW030 BKN040 OVC080 TX12/0316Z TN08/0406Z"
    },
    {
      "icao": "LZIB",
      "alert": "OK",
      "vis_m": 9999,
      "fzfg": false,
      "metar_trigger": false,
      "taf_trigger": false,
      "metar": "METAR LZIB 031430Z 09012KT 9999 BKN007 OVC008 M00/M01 Q1009 NOSIG",
      "taf": "TAF LZIB 031115Z 0312/0412 11014KT 9999 SCT008 OVC016"
    },
    {
      "icao": "LZKZ",
      "alert": "OK",
      "vis_m": 9999,
      "fzfg": false,
      "metar_trigger": false,
      "taf_trigger": false,
      "metar": "METAR LZKZ 031430Z VRB02KT 9999 -SN OVC032 M00/M03 Q1014 NOSIG",
      "taf": "TAF LZKZ 031115Z 0312/0412 VRB02KT 9999 BKN017 OVC025"
    },
    {
      "icao": "LZTT",
      "alert": "OK",
      "vis_m": 9999,
      "fzfg": false,
      "metar_trigger": false,
      "taf_trigger": false,
      "metar": "METAR LZTT 031430Z 14006KT 9999 FEW010 BKN026 M03/M05 Q1010 NOSIG",
      "taf": "TAF LZTT 031115Z 0312/0412 17005KT 9999 SCT010 OVC020"
    },
    {
      "icao": "OEJN",
      "alert": "OK",
      "vis_m": 9999,
      "fzfg": false,
      "metar_trigger": false,
      "taf_trigger": false,
      "metar": "METAR OEJN 031400Z 32013KT 9999 FEW040 29/18 Q1014 NOSIG",
      "taf": "TAF OEJN 031100Z 0312/0418 28010KT CAVOK"
    },
    {
      "icao": "OEMA",
      "alert": "OK",
      "vis_m": 9999,
      "fzfg": false,
      "metar_trigger": false,
      "taf_trigger": false,
      "metar": "METAR OEMA 031400Z 29010KT 9999 FEW040 30/07 Q1016 NOSIG",
      "taf": "TAF OEMA 031100Z 0312/0418 30010KT CAVOK"
    },
    {
      "icao": "OJAI",
      "alert": "OK",
      "vis_m": 6000,
      "fzfg": false,
      "metar_trigger": false,
      "taf_trigger": false,
      "metar": "METAR OJAI 031400Z 27014KT 6000 SCT025 SCT030 12/08 Q1019 NOSIG",
      "taf": "TAF OJAI 031100Z 0312/0418 24014KT 4000 -RA BR SCT015 SCT035"
    },
    {
      "icao": "OMAA",
      "alert": "OK",
      "vis_m": 9999,
      "fzfg": false,
      "metar_trigger": false,
      "taf_trigger": false,
      "metar": "METAR OMAA 031430Z 34007KT CAVOK 24/09 Q1015 NOSIG",
      "taf": "TAF OMAA 031100Z 0312/0418 35010KT 8000 NSC"
    },
    {
      "icao": "OMDB",
      "alert": "OK",
      "vis_m": 9999,
      "fzfg": false,
      "metar_trigger": false,
      "taf_trigger": false,
      "metar": "METAR OMDB 031430Z 33007KT CAVOK 24/15 Q1015 NOSIG",
      "taf": "TAF OMDB 031100Z 0312/0418 31010KT 8000 NSC"
    },
    {
      "icao": "UAAA",
      "alert": "OK",
      "vis_m": 4300,
      "fzfg": false,
      "metar_trigger": false,
      "taf_trigger": false,
      "metar": "METAR UAAA 031400Z 15002MPS 4300 BR SCT050 OVC100 04/01 Q1020 NOSIG",
      "taf": "TAF UAAA 031105Z 0312/0412 26003MPS 3100 BR FU BKN011CB OVC050 TX05/0409Z TNM01/0402Z"
    },
    {
      "icao": "UBBB",
      "alert": "OK",
      "vis_m": 9999,
      "fzfg": false,
      "metar_trigger": false,
      "taf_trigger": false,
      "metar": "METAR UBBB 031430Z 33016KT CAVOK 07/05 Q1009 NOSIG",
      "taf": "TAF UBBB 031054Z 0312/0412 32020G30KT 9999 BKN010 BKN030 TX07/0312Z TN03/0403Z"
    },
    {
      "icao": "UDSG",
      "alert": "OK",
      "vis_m": 5000,
      "fzfg": false,
      "metar_trigger": false,
      "taf_trigger": false,
      "metar": "METAR UDSG 031400Z 00000KT 5000 BR OVC026 02/02 Q1011 NOSIG",
      "taf": "TAF UDSG 031058Z 0312/0412 VRB06KT 5000 BR OVC030"
    },
    {
      "icao": "UDYZ",
      "alert": "OK",
      "vis_m": 2400,
      "fzfg": false,
      "metar_trigger": false,
      "taf_trigger": false,
      "metar": "METAR UDYZ 031400Z 24004KT 2400 BR FEW007 BKN043CB 05/04 Q1010 NOSIG",
      "taf": "TAF UDYZ 031100Z 0312/0412 06006KT 2000 BR BKN030"
    },
    {
      "icao": "UGKO",
      "alert": "OK",
      "vis_m": 5000,
      "fzfg": false,
      "metar_trigger": false,
      "taf_trigger": false,
      "metar": "METAR UGKO 031400Z 27011KT 250V320 5000 BR SCT005 BKN007 OVC010 06/06 Q1018 NOSIG",
      "taf": "TAF UGKO 031100Z 0312/0412 25010KT 9000 SCT030 OVC050 TX08/0312Z TN04/0403Z"
    }
  ]
}