{
  "ts_utc": "2026-02-03T21:25:58Z",
  "threshold_m": 150,
  "source": "stations_override.txt (ICAO list) + aviationweather.gov (METAR/TAF raw)",
  "station_count": 159,
  "stations": [
    {
      "icao": "BIKF",
      "alert": "OK",
      "vis_m": 9999,
      "fzfg": false,
      "metar_trigger": false,
      "taf_trigger": false,
      "metar": "METAR BIKF 032100Z 09012KT CAVOK 03/M00 Q1009",
      "taf": "TAF BIKF 031948Z 0321/0421 07015KT 9999 FEW030 TX03/0321Z TN00/0421Z"
    },
    {
      "icao": "BKPR",
      "alert": "OK",
      "vis_m": null,
      "fzfg": false,
      "metar_trigger": false,
      "taf_trigger": false,
      "metar": "",
      "taf": "TAF BKPR 031730Z 0318/0418 19010KT 9999 SCT040"
    },
    {
      "icao": "EBCI",
      "alert": "OK",
      "vis_m": 9999,
      "fzfg": false,
      "metar_trigger": false,
      "taf_trigger": false,
      "metar": "METAR EBCI 032120Z 19009KT 9999 FEW024 BKN045 08/05 Q0997 NOSIG",
      "taf": "TAF EBCI 031709Z 0318/0424 20010KT 9999 SCT015 BKN030"
    },
    {
      "icao": "EDDB",
      "alert": "OK",
      "vis_m": 9999,
      "fzfg": false,
      "metar_trigger": false,
      "taf_trigger": false,
      "metar": "METAR EDDB 032120Z AUTO 10011KT 9999 BKN022 OVC032 M05/M13 Q1009 NOSIG",
      "taf": "TAF EDDB 031700Z 0318/0418 08013KT 9999 OVC025"
    },
    {
      "icao": "EDDH",
      "alert": "OK",
      "vis_m": 9999,
      "fzfg": false,
      "metar_trigger": false,
      "taf_trigger": false,
      "metar": "METAR EDDH 032120Z AUTO 10012KT 9999 OVC025 M04/M11 Q1008 TEMPO 10015G25KT",
      "taf": "TAF EDDH 031700Z 0318/0424 09013KT 9999 BKN035"
    },
    {
      "icao": "EDDK",
      "alert": "OK",
      "vis_m": 9999,
      "fzfg": false,
      "metar_trigger": false,
      "taf_trigger": false,
      "metar": "METAR EDDK 032120Z AUTO 13011KT 9999 VCSH FEW042 FEW///TCU 03/02 Q1000 NOSIG",
      "taf": "TAF EDDK 031700Z 0318/0424 12009KT 9999 BKN025"
    },
    {
      "icao": "EDDN",
      "alert": "OK",
      "vis_m": 8000,
      "fzfg": false,
      "metar_trigger": false,
      "taf_trigger": false,
      "metar": "METAR EDDN 032120Z AUTO 11008KT 8000 FEW040 M00/M01 Q1004",
      "taf": "TAF EDDN 031700Z 0318/0418 10006KT 9999 SCT035"
    },
    {
      "icao": "EDDS",
      "alert": "OK",
      "vis_m": 2500,
      "fzfg": false,
      "metar_trigger": false,
      "taf_trigger": false,
      "metar": "METAR EDDS 032120Z AUTO 08001KT 2500 BR NCD 00/00 Q1002",
      "taf": "TAF EDDS 031700Z 0318/0418 VRB02KT CAVOK"
    },
    {
      "icao": "EDFH",
      "alert": "OK",
      "vis_m": 400,
      "fzfg": true,
      "metar_trigger": false,
      "taf_trigger": false,
      "metar": "METAR EDFH 032120Z 14011KT 0400 R21/0600U FZFG FEW000 SCT012 BKN038 00/M00 Q1000",
      "taf": "TAF EDFH 031700Z 0318/0418 14015KT 4000 BR SCT005 OVC015"
    },
    {
      "icao": "EDJA",
      "alert": "OK",
      "vis_m": 9999,
      "fzfg": false,
      "metar_trigger": false,
      "taf_trigger": false,
      "metar": "METAR EDJA 032120Z COR VRB02KT CAVOK M01/M02 Q1003",
      "taf": "TAF EDJA 031700Z 0318/0403 22006KT CAVOK"
    },
    {
      "icao": "EDLW",
      "alert": "OK",
      "vis_m": 9999,
      "fzfg": false,
      "metar_trigger": false,
      "taf_trigger": false,
      "metar": "METAR EDLW 032120Z AUTO 13005KT 090V180 9999 // BKN022/// OVC026/// 04/02 Q0999",
      "taf": "TAF EDLW 031700Z 0318/0418 10007KT 9999 BKN025"
    },
    {
      "icao": "EDNY",
      "alert": "OK",
      "vis_m": 9999,
      "fzfg": false,
      "metar_trigger": false,
      "taf_trigger": false,
      "metar": "METAR EDNY 032120Z AUTO VRB02KT 9999 // NCD M02/M02 Q1003",
      "taf": "TAF EDNY 031700Z 0318/0403 04004KT CAVOK"
    },
    {
      "icao": "EDSB",
      "alert": "OK",
      "vis_m": 350,
      "fzfg": false,
      "metar_trigger": false,
      "taf_trigger": false,
      "metar": "METAR EDSB 032120Z AUTO 04003KT 010V070 0350 R21/0400N VV/// M00/M00 Q1002",
      "taf": ""
    },
    {
      "icao": "EETN",
      "alert": "OK",
      "vis_m": 9999,
      "fzfg": false,
      "metar_trigger": false,
      "taf_trigger": false,
      "metar": "METAR EETN 032120Z 01005KT 9999 SCT015 BKN024 M09/M11 Q1028 TEMPO BKN009",
      "taf": "TAF EETN 031730Z 0318/0418 02006KT 9999 SCT020"
    },
    {
      "icao": "EFTU",
      "alert": "OK",
      "vis_m": 9999,
      "fzfg": false,
      "metar_trigger": false,
      "taf_trigger": false,
      "metar": "METAR EFTU 032120Z AUTO VRB01KT 9999 OVC026 M12/M14 Q1029",
      "taf": "TAF EFTU 032030Z 0321/0421 VRB01KT 9999 BKN028"
    },
    {
      "icao": "EGBB",
      "alert": "OK",
      "vis_m": 2000,
      "fzfg": false,
      "metar_trigger": false,
      "taf_trigger": false,
      "metar": "METAR EGBB 032120Z 04003KT 330V070 2000 -RASN OVC004 01/M00 Q0993",
      "taf": "TAF EGBB 031656Z 0318/0418 08009KT 7000 BKN008"
    },
    {
      "icao": "EGGP",
      "alert": "OK",
      "vis_m": 9999,
      "fzfg": false,
      "metar_trigger": false,
      "taf_trigger": false,
      "metar": "METAR EGGP 032120Z 11008KT 9999 OVC010 02/M00 Q0994",
      "taf": "TAF EGGP 031702Z 0318/0418 10008KT 9999 BKN016"
    },
    {
      "icao": "EGGW",
      "alert": "OK",
      "vis_m": 6000,
      "fzfg": false,
      "metar_trigger": false,
      "taf_trigger": false,
      "metar": "METAR EGGW 032120Z AUTO 02003KT 6000 -RADZ FEW010/// BKN042/// //////TCU 00/00 Q0993 REDZ",
      "taf": ""
    },
    {
      "icao": "EGKK",
      "alert": "OK",
      "vis_m": 9999,
      "fzfg": false,
      "metar_trigger": false,
      "taf_trigger": false,
      "metar": "METAR EGKK 032120Z 07003KT 010V110 9999 BKN006 04/04 Q0993",
      "taf": "TAF EGKK 031655Z 0318/0424 VRB04KT 9999 BKN010"
    },
    {
      "icao": "EGNM",
      "alert": "OK",
      "vis_m": 300,
      "fzfg": false,
      "metar_trigger": false,
      "taf_trigger": false,
      "metar": "METAR EGNM 032120Z 04004KT 0300 R32/0300N FG VV/// 01/01 Q0994",
      "taf": ""
    },
    {
      "icao": "EGPD",
      "alert": "OK",
      "vis_m": 8000,
      "fzfg": false,
      "metar_trigger": false,
      "taf_trigger": false,
      "metar": "METAR EGPD 032120Z COR 11014KT 8000 -RA BKN010 03/01 Q1001 TEMPO 4000 RA BKN008",
      "taf": "TAF EGPD 031657Z 0318/0418 10012KT 9999 SCT012 BKN025"
    },
    {
      "icao": "EGPF",
      "alert": "OK",
      "vis_m": 9999,
      "fzfg": false,
      "metar_trigger": false,
      "taf_trigger": false,
      "metar": "METAR EGPF 032120Z AUTO 06011KT 9999 SCT016 OVC041 03/01 Q0997",
      "taf": "TAF EGPF 031654Z 0318/0418 08012KT 9999 SCT020"
    },
    {
      "icao": "EHBK",
      "alert": "OK",
      "vis_m": 9999,
      "fzfg": false,
      "metar_trigger": false,
      "taf_trigger": false,
      "metar": "METAR EHBK 032055Z AUTO 19012KT 9999 FEW043 08/07 Q0997 NOSIG",
      "taf": "TAF EHBK 031710Z 0318/0424 18008KT 9999 BKN045"
    },
    {
      "icao": "EHEH",
      "alert": "OK",
      "vis_m": null,
      "fzfg": false,
      "metar_trigger": false,
      "taf_trigger": false,
      "metar": "",
      "taf": "TAF EHEH 031755Z 0318/0424 11007KT 7000 SCT010 BKN012"
    },
    {
      "icao": "EKBI",
      "alert": "OK",
      "vis_m": 9999,
      "fzfg": false,
      "metar_trigger": false,
      "taf_trigger": false,
      "metar": "METAR EKBI 032120Z AUTO 09020G31KT 070V130 9999 FEW023/// OVC059/// M02/M07 Q1011",
      "taf": "TAF EKBI 032027Z 0321/0421 10022G40KT 9999 BKN030"
    },
    {
      "icao": "EKCH",
      "alert": "OK",
      "vis_m": 9999,
      "fzfg": false,
      "metar_trigger": false,
      "taf_trigger": false,
      "metar": "METAR EKCH 032120Z AUTO 09021G34KT 9999 OVC019/// M02/M06 Q1016 TEMPO 10020G33KT",
      "taf": "TAF EKCH 032027Z 0321/0421 10020KT 9999 BKN020"
    },
    {
      "icao": "ENAL",
      "alert": "OK",
      "vis_m": 9999,
      "fzfg": false,
      "metar_trigger": false,
      "taf_trigger": false,
      "metar": "METAR ENAL 032050Z 13015KT 9999 FEW049 M03/M13 Q1019",
      "taf": "TAF ENAL 032000Z 0321/0406 13016KT 9999 FEW050"
    },
    {
      "icao": "ENBR",
      "alert": "OK",
      "vis_m": 9999,
      "fzfg": false,
      "metar_trigger": false,
      "taf_trigger": false,
      "metar": "METAR ENBR 032050Z 10002KT CAVOK M06/M14 Q1017 RMK WIND 1200FT 10010KT",
      "taf": "TAF ENBR 031700Z 0318/0418 07005KT CAVOK"
    },
    {
      "icao": "ENGM",
      "alert": "OK",
      "vis_m": 9999,
      "fzfg": false,
      "metar_trigger": false,
      "taf_trigger": false,
      "metar": "METAR ENGM 032050Z 04004KT 9999 SCT020 M10/M13 Q1026 NOSIG",
      "taf": "TAF ENGM 031700Z 0318/0418 02005KT 9999 -SN BKN020"
    },
    {
      "icao": "ENHD",
      "alert": "OK",
      "vis_m": 9999,
      "fzfg": false,
      "metar_trigger": false,
      "taf_trigger": false,
      "metar": "METAR ENHD 032050Z 10022KT CAVOK M01/M12 Q1016",
      "taf": "TAF ENHD 031400Z 0315/0323 09015KT CAVOK"
    },
    {
      "icao": "ENTC",
      "alert": "OK",
      "vis_m": 9999,
      "fzfg": false,
      "metar_trigger": false,
      "taf_trigger": false,
      "metar": "METAR ENTC 032050Z 19015KT 9999 FEW033 SCT041 BKN051 M00/M05 Q1022 NOSIG RMK WIND 2600FT 24010KT",
      "taf": "TAF ENTC 031700Z 0318/0418 19012KT 9999 SCT015 BKN030"
    },
    {
      "icao": "ENTO",
      "alert": "OK",
      "vis_m": 9999,
      "fzfg": false,
      "metar_trigger": false,
      "taf_trigger": false,
      "metar": "METAR ENTO 032050Z 04009KT 010V070 9999 OVC021 M05/M09 Q1024 NOSIG",
      "taf": "TAF ENTO 031700Z 0318/0418 08010KT 9999 BKN025"
    },
    {
      "icao": "ENVA",
      "alert": "OK",
      "vis_m": 9999,
      "fzfg": false,
      "metar_trigger": false,
      "taf_trigger": false,
      "metar": "METAR ENVA 032050Z 11004KT CAVOK M10/M16 Q1023 RMK WIND 670FT 13008KT",
      "taf": "TAF ENVA 031700Z 0318/0418 09006KT CAVOK"
    },
    {
      "icao": "ENZV",
      "alert": "OK",
      "vis_m": 9999,
      "fzfg": false,
      "metar_trigger": false,
      "taf_trigger": false,
      "metar": "METAR ENZV 032050Z 10014KT 9999 SCT047 M00/M11 Q1016",
      "taf": "TAF ENZV 031700Z 0318/0418 09015KT CAVOK"
    },
    {
      "icao": "EPGD",
      "alert": "OK",
      "vis_m": 9999,
      "fzfg": false,
      "metar_trigger": false,
      "taf_trigger": false,
      "metar": "METAR EPGD 032100Z 09010KT CAVOK M12/M17 Q1019",
      "taf": "TAF EPGD 031730Z 0318/0418 11008KT CAVOK"
    },
    {
      "icao": "EPKK",
      "alert": "OK",
      "vis_m": 3500,
      "fzfg": false,
      "metar_trigger": false,
      "taf_trigger": false,
      "metar": "METAR EPKK 032100Z 05008KT 3500 -SN BR SCT009 BKN020 M05/M06 Q1011",
      "taf": "TAF EPKK 032030Z 0321/0421 06008KT 4000 -SN BR OVC012"
    },
    {
      "icao": "EPKT",
      "alert": "OK",
      "vis_m": 5000,
      "fzfg": false,
      "metar_trigger": false,
      "taf_trigger": false,
      "metar": "METAR EPKT 032100Z 07004KT 5000 -SN BR FEW006 OVC028 M04/M06 Q1010",
      "taf": "TAF EPKT 031730Z 0318/0418 08010KT 9999 BKN040"
    },
    {
      "icao": "EPLB",
      "alert": "OK",
      "vis_m": 9999,
      "fzfg": false,
      "metar_trigger": false,
      "taf_trigger": false,
      "metar": "METAR EPLB 032100Z 11011KT 9999 OVC026 M08/M14 Q1017",
      "taf": "TAF EPLB 031730Z 0318/0418 09010KT 9999 BKN022"
    },
    {
      "icao": "EPMO",
      "alert": "OK",
      "vis_m": 9999,
      "fzfg": false,
      "metar_trigger": false,
      "taf_trigger": false,
      "metar": "METAR EPMO 032100Z 08014KT 9999 BKN017 M12/M16 Q1017",
      "taf": "TAF EPMO 031730Z 0318/0418 09009KT 9999 BKN027"
    },
    {
      "icao": "EPPO",
      "alert": "OK",
      "vis_m": 9999,
      "fzfg": false,
      "metar_trigger": false,
      "taf_trigger": false,
      "metar": "METAR EPPO 032100Z 10014KT CAVOK M09/M15 Q1013",
      "taf": ""
    },
    {
      "icao": "EPRA",
      "alert": "OK",
      "vis_m": 9999,
      "fzfg": false,
      "metar_trigger": false,
      "taf_trigger": false,
      "metar": "METAR EPRA 032100Z 10011KT 9999 BKN035 M07/M14 Q1015",
      "taf": "TAF EPRA 032030Z 0321/0406 08010KT 9999 BKN030"
    },
    {
      "icao": "EPRZ",
      "alert": "OK",
      "vis_m": 3600,
      "fzfg": false,
      "metar_trigger": false,
      "taf_trigger": false,
      "metar": "METAR EPRZ 032100Z 09016KT 3600 -SN BR FEW008 SCT027 BKN040 M06/M09 Q1014",
      "taf": "TAF EPRZ 031730Z 0318/0418 10010KT 9999 SCT032"
    },
    {
      "icao": "EPSC",
      "alert": "OK",
      "vis_m": 9999,
      "fzfg": false,
      "metar_trigger": false,
      "taf_trigger": false,
      "metar": "METAR EPSC 032100Z 08008KT CAVOK M09/M16 Q1014",
      "taf": "TAF EPSC 031730Z 0318/0418 09010KT CAVOK"
    },
    {
      "icao": "EPSY",
      "alert": "OK",
      "vis_m": 9999,
      "fzfg": false,
      "metar_trigger": false,
      "taf_trigger": false,
      "metar": "METAR EPSY 032100Z 06004KT 030V100 CAVOK M14/M17 Q1020",
      "taf": "TAF EPSY 032030Z 0321/0406 08008KT CAVOK"
    },
    {
      "icao": "EPWA",
      "alert": "OK",
      "vis_m": 9999,
      "fzfg": false,
      "metar_trigger": false,
      "taf_trigger": false,
      "metar": "METAR EPWA 032100Z 09011KT 9999 OVC018 M09/M17 Q1016 NOSIG",
      "taf": "TAF EPWA 032030Z 0321/0421 09010KT 9999 BKN030"
    },
    {
      "icao": "EPWR",
      "alert": "OK",
      "vis_m": 5000,
      "fzfg": false,
      "metar_trigger": false,
      "taf_trigger": false,
      "metar": "METAR EPWR 032100Z 11012KT 5000 -SN FEW011 BKN018 M04/M06 Q1010",
      "taf": "TAF EPWR 032030Z 0321/0421 10010KT 6000 -SN SCT012 BKN025"
    },
    {
      "icao": "ESGG",
      "alert": "OK",
      "vis_m": 9999,
      "fzfg": false,
      "metar_trigger": false,
      "taf_trigger": false,
      "metar": "METAR ESGG 032120Z 08012KT CAVOK M05/M09 Q1019",
      "taf": "TAF ESGG 032030Z 0321/0421 08015KT CAVOK"
    },
    {
      "icao": "ESKN",
      "alert": "OK",
      "vis_m": 9999,
      "fzfg": false,
      "metar_trigger": false,
      "taf_trigger": false,
      "metar": "METAR ESKN 032120Z 04008KT 9999 BKN029 M06/M10 Q1026",
      "taf": "TAF ESKN 032030Z 0321/0421 05008KT 9999 BKN030"
    },
    {
      "icao": "ESMS",
      "alert": "OK",
      "vis_m": 9999,
      "fzfg": false,
      "metar_trigger": false,
      "taf_trigger": false,
      "metar": "METAR ESMS 032120Z 10018KT 9999 OVC015 M03/M06 Q1016",
      "taf": "TAF ESMS 032027Z 0321/0421 09020KT 9999 BKN016"
    },
    {
      "icao": "ESSA",
      "alert": "OK",
      "vis_m": 9999,
      "fzfg": false,
      "metar_trigger": false,
      "taf_trigger": false,
      "metar": "METAR ESSA 032120Z 04007KT CAVOK M11/M13 Q1028 NOSIG",
      "taf": "TAF ESSA 032030Z 0321/0421 03006KT 9999 SCT025"
    },
    {
      "icao": "EYKA",
      "alert": "OK",
      "vis_m": 9999,
      "fzfg": false,
      "metar_trigger": false,
      "taf_trigger": false,
      "metar": "METAR EYKA 032120Z 08006KT CAVOK M17/M19 Q1025",
      "taf": "TAF EYKA 031712Z 0318/0418 VRB04KT 5000 BR SCT005"
    },
    {
      "icao": "EYPA",
      "alert": "OK",
      "vis_m": 9999,
      "fzfg": false,
      "metar_trigger": false,
      "taf_trigger": false,
      "metar": "METAR EYPA 032120Z 08004KT CAVOK M12/M16 Q1026",
      "taf": "TAF EYPA 031712Z 0318/0418 VRB04KT 9000 NSC"
    },
    {
      "icao": "EYVI",
      "alert": "OK",
      "vis_m": 9999,
      "fzfg": false,
      "metar_trigger": false,
      "taf_trigger": false,
      "metar": "METAR EYVI 032120Z VRB02KT CAVOK M15/M17 Q1024 NOSIG",
      "taf": "TAF EYVI 031711Z 0318/0418 VRB04KT 5000 BR SCT005"
    },
    {
      "icao": "GCFV",
      "alert": "OK",
      "vis_m": 9999,
      "fzfg": false,
      "metar_trigger": false,
      "taf_trigger": false,
      "metar": "METAR GCFV 032100Z 28005KT 9999 SCT030 17/11 Q1018",
      "taf": "TAF GCFV 032000Z 0321/0421 26005KT 9999 FEW030 TX22/0414Z TN16/0406Z"
    },
    {
      "icao": "GCLP",
      "alert": "OK",
      "vis_m": 9999,
      "fzfg": false,
      "metar_trigger": false,
      "taf_trigger": false,
      "metar": "METAR GCLP 032100Z 30004KT 240V340 9999 BKN033 18/13 Q1019 NOSIG",
      "taf": "TAF GCLP 032000Z 0321/0421 30005KT 9999 SCT030 TX22/0414Z TN14/0406Z"
    },
    {
      "icao": "GCTS",
      "alert": "OK",
      "vis_m": 9999,
      "fzfg": false,
      "metar_trigger": false,
      "taf_trigger": false,
      "metar": "METAR GCTS 032100Z 00000KT 9999 SCT035 17/10 Q1019 NOSIG",
      "taf": "TAF GCTS 032000Z 0321/0421 31007KT 9999 FEW030 TX24/0414Z TN16/0406Z"
    },
    {
      "icao": "GMAD",
      "alert": "OK",
      "vis_m": 9999,
      "fzfg": false,
      "metar_trigger": false,
      "taf_trigger": false,
      "metar": "METAR GMAD 032100Z 21008KT 9999 FEW023 14/14 Q1017 NOSIG",
      "taf": "TAF GMAD 031700Z 0318/0424 26012KT 8000 SCT016 SCT080"
    },
    {
      "icao": "GMMN",
      "alert": "OK",
      "vis_m": 9999,
      "fzfg": false,
      "metar_trigger": false,
      "taf_trigger": false,
      "metar": "METAR GMMN 032100Z 22019KT 9999 BKN020 SCT023TCU 13/11 Q1013 NOSIG",
      "taf": "TAF GMMN 031700Z 0318/0424 23015KT 8000 SCT016TCU BKN020"
    },
    {
      "icao": "GMMX",
      "alert": "OK",
      "vis_m": 9999,
      "fzfg": false,
      "metar_trigger": false,
      "taf_trigger": false,
      "metar": "METAR GMMX 032100Z 23006KT 9999 FEW026 BKN100 12/10 Q1016 NOSIG",
      "taf": "TAF GMMX 031700Z 0318/0424 24006KT 8000 SCT023 SCT100"
    },
    {
      "icao": "HEGN",
      "alert": "OK",
      "vis_m": 9999,
      "fzfg": false,
      "metar_trigger": false,
      "taf_trigger": false,
      "metar": "METAR HEGN 032000Z 28008KT CAVOK 18/05 Q1021 NOSIG",
      "taf": "TAF HEGN 031700Z 0318/0424 32010G22KT CAVOK"
    },
    {
      "icao": "HEMA",
      "alert": "OK",
      "vis_m": 6000,
      "fzfg": false,
      "metar_trigger": false,
      "taf_trigger": false,
      "metar": "METAR HEMA 032000Z 31012KT 6000 NSC 19/12 Q1019 NOSIG",
      "taf": "TAF HEMA 031700Z 0318/0424 33008G20KT 6000 NSC"
    },
    {
      "icao": "HESH",
      "alert": "OK",
      "vis_m": 9999,
      "fzfg": false,
      "metar_trigger": false,
      "taf_trigger": false,
      "metar": "METAR HESH 032000Z 01010KT CAVOK 20/07 Q1020 NOSIG",
      "taf": "TAF HESH 031700Z 0318/0424 36013KT CAVOK"
    },
    {
      "icao": "HESX",
      "alert": "OK",
      "vis_m": 9999,
      "fzfg": false,
      "metar_trigger": false,
      "taf_trigger": false,
      "metar": "METAR HESX 032000Z 35004KT CAVOK 12/09 Q1023 NOSIG",
      "taf": "TAF HESX 031700Z 0318/0424 28010KT CAVOK"
    },
    {
      "icao": "LATI",
      "alert": "OK",
      "vis_m": 9999,
      "fzfg": false,
      "metar_trigger": false,
      "taf_trigger": false,
      "metar": "METAR LATI 032120Z 17004KT CAVOK 08/04 Q1014 NOSIG",
      "taf": "TAF LATI 031700Z 0318/0418 VRB03KT CAVOK TX19/0413Z TN09/0406Z"
    },
    {
      "icao": "LBPD",
      "alert": "OK",
      "vis_m": 9999,
      "fzfg": false,
      "metar_trigger": false,
      "taf_trigger": false,
      "metar": "METAR LBPD 032100Z AUTO 15001KT 9999 OVC014/// M00/M00 Q1022",
      "taf": "TAF LBPD 031700Z 0318/0418 VRB03KT 9999 OVC015"
    },
    {
      "icao": "LBSF",
      "alert": "OK",
      "vis_m": 9999,
      "fzfg": false,
      "metar_trigger": false,
      "taf_trigger": false,
      "metar": "METAR LBSF 032100Z AUTO 12005KT 9999 FEW063/// M02/M03 Q1019 NOSIG",
      "taf": "TAF LBSF 031700Z 0318/0418 10010KT 9999 SCT050"
    },
    {
      "icao": "LBWN",
      "alert": "OK",
      "vis_m": 9999,
      "fzfg": false,
      "metar_trigger": false,
      "taf_trigger": false,
      "metar": "METAR LBWN 032100Z AUTO 12003KT 070V190 9999 OVC017/// 02/M00 Q1022 NOSIG",
      "taf": "TAF LBWN 031700Z 0318/0418 10010KT 9999 SCT020 BKN040"
    },
    {
      "icao": "LCLK",
      "alert": "OK",
      "vis_m": 9999,
      "fzfg": false,
      "metar_trigger": false,
      "taf_trigger": false,
      "metar": "METAR LCLK 032100Z 32004KT 260V360 9999 FEW055 13/07 Q1019 NOSIG",
      "taf": "TAF LCLK 031730Z 0318/0418 29008KT CAVOK"
    },
    {
      "icao": "LCPH",
      "alert": "OK",
      "vis_m": 9999,
      "fzfg": false,
      "metar_trigger": false,
      "taf_trigger": false,
      "metar": "METAR LCPH 032100Z 36002KT CAVOK 11/06 Q1019 NOSIG",
      "taf": "TAF LCPH 031730Z 0318/0418 02009KT CAVOK"
    },
    {
      "icao": "LEAL",
      "alert": "OK",
      "vis_m": 9999,
      "fzfg": false,
      "metar_trigger": false,
      "taf_trigger": false,
      "metar": "METAR LEAL 032100Z 25004KT CAVOK 08/04 Q1003 NOSIG",
      "taf": "TAF LEAL 031700Z 0318/0418 26008KT 9999 FEW030 TX18/0413Z TN07/0407Z"
    },
    {
      "icao": "LEBB",
      "alert": "OK",
      "vis_m": 9999,
      "fzfg": false,
      "metar_trigger": false,
      "taf_trigger": false,
      "metar": "METAR LEBB 032100Z 15008KT 110V190 9999 FEW050 11/03 Q0995 NOSIG",
      "taf": ""
    },
    {
      "icao": "LEBL",
      "alert": "OK",
      "vis_m": 9999,
      "fzfg": false,
      "metar_trigger": false,
      "taf_trigger": false,
      "metar": "METAR LEBL 032100Z VRB02KT 9999 FEW020 08/05 Q1000 NOSIG",
      "taf": "TAF LEBL 031700Z 0318/0418 24010KT 9999 FEW020 TX14/0414Z TN05/0406Z"
    },
    {
      "icao": "LECH",
      "alert": "OK",
      "vis_m": 9999,
      "fzfg": false,
      "metar_trigger": false,
      "taf_trigger": false,
      "metar": "METAR LECH 032100Z AUTO 23006KT CAVOK 06/02 Q1000",
      "taf": ""
    },
    {
      "icao": "LEMD",
      "alert": "OK",
      "vis_m": 9999,
      "fzfg": false,
      "metar_trigger": false,
      "taf_trigger": false,
      "metar": "METAR LEMD 032100Z 18007G20KT 110V220 9999 -RA FEW012 SCT018 BKN029 06/05 Q0999 NOSIG",
      "taf": "TAF LEMD 031700Z 0318/0424 22010KT 9999 SCT020 TX12/0414Z TN04/0407Z"
    },
    {
      "icao": "LEMG",
      "alert": "OK",
      "vis_m": 9999,
      "fzfg": false,
      "metar_trigger": false,
      "taf_trigger": false,
      "metar": "SPECI LEMG 032124Z VRB02KT 9999 RA FEW030 SCT050 BKN070 10/09 Q1006 TEMPO 4000 BKN015",
      "taf": "TAF LEMG 031700Z 0318/0418 VRB03KT 9999 SCT020 TX16/0414Z TN10/0407Z"
    },
    {
      "icao": "LEVC",
      "alert": "OK",
      "vis_m": 9999,
      "fzfg": false,
      "metar_trigger": false,
      "taf_trigger": false,
      "metar": "METAR LEVC 032100Z 26004KT 210V290 CAVOK 09/04 Q1002 NOSIG",
      "taf": "TAF LEVC 031700Z 0318/0418 22007KT 9999 FEW030 TX19/0413Z TN08/0406Z"
    },
    {
      "icao": "LEXJ",
      "alert": "OK",
      "vis_m": 9999,
      "fzfg": false,
      "metar_trigger": false,
      "taf_trigger": false,
      "metar": "METAR LEXJ 032100Z 21012G23KT 100V260 CAVOK 12/02 Q0993",
      "taf": "TAF LEXJ 032000Z 0321/0421 20009KT CAVOK TX16/0416Z TN08/0404Z"
    },
    {
      "icao": "LEZG",
      "alert": "OK",
      "vis_m": 9999,
      "fzfg": false,
      "metar_trigger": false,
      "taf_trigger": false,
      "metar": "METAR LEZG 032100Z 07005KT 9999 SCT060 06/05 Q0999 NOSIG",
      "taf": "TAF LEZG 031700Z 0318/0418 23008KT 9999 FEW020 TX12/0414Z TN05/0406Z"
    },
    {
      "icao": "LEZL",
      "alert": "OK",
      "vis_m": 9999,
      "fzfg": false,
      "metar_trigger": false,
      "taf_trigger": false,
      "metar": "METAR LEZL 032100Z 22006KT 190V250 9999 RA FEW006 SCT012 BKN028 12/11 Q1004 TEMPO 3000 +RA BKN010",
      "taf": "TAF LEZL 032000Z 0321/0421 18009KT 9999 BKN020 TX18/0415Z TN12/0407Z"
    },
    {
      "icao": "LFBD",
      "alert": "OK",
      "vis_m": 9999,
      "fzfg": false,
      "metar_trigger": false,
      "taf_trigger": false,
      "metar": "METAR LFBD 032100Z AUTO 14007KT CAVOK 07/04 Q0996 NOSIG",
      "taf": "TAF LFBD 031700Z 0318/0424 22005KT CAVOK TX12/0417Z TN06/0406Z"
    },
    {
      "icao": "LFLL",
      "alert": "OK",
      "vis_m": 9999,
      "fzfg": false,
      "metar_trigger": false,
      "taf_trigger": false,
      "metar": "METAR LFLL 032100Z 14008KT CAVOK 08/05 Q1001 NOSIG",
      "taf": "TAF LFLL 031700Z 0318/0424 15006KT CAVOK"
    },
    {
      "icao": "LFLS",
      "alert": "OK",
      "vis_m": 9999,
      "fzfg": false,
      "metar_trigger": false,
      "taf_trigger": false,
      "metar": "METAR LFLS 032100Z AUTO 11005KT CAVOK 03/02 Q1001",
      "taf": "TAF LFLS 031400Z 0315/0415 24008KT CAVOK"
    },
    {
      "icao": "LFMN",
      "alert": "OK",
      "vis_m": 9999,
      "fzfg": false,
      "metar_trigger": false,
      "taf_trigger": false,
      "metar": "METAR LFMN 032100Z 32006KT 9999 -TSRA FEW010 SCT017 FEW020CB BKN028 10/08 Q1005 TEMPO 2000 TSRA BKN020CB",
      "taf": "TAF LFMN 032000Z 0321/0503 34010KT 9999 BKN030"
    },
    {
      "icao": "LFOB",
      "alert": "OK",
      "vis_m": 9999,
      "fzfg": false,
      "metar_trigger": false,
      "taf_trigger": false,
      "metar": "METAR LFOB 032100Z AUTO 18005KT 9999 SCT023 SCT086 07/06 Q0996 NOSIG",
      "taf": "TAF LFOB 031700Z 0318/0418 21010KT 9999 SCT020"
    },
    {
      "icao": "LFPO",
      "alert": "OK",
      "vis_m": 9999,
      "fzfg": false,
      "metar_trigger": false,
      "taf_trigger": false,
      "metar": "METAR LFPO 032100Z 18005KT 9999 BKN046 SCT180 07/05 Q0997 NOSIG",
      "taf": "TAF LFPO 031700Z 0318/0424 20009KT 9999 SCT025"
    },
    {
      "icao": "LFSB",
      "alert": "OK",
      "vis_m": 9999,
      "fzfg": false,
      "metar_trigger": false,
      "taf_trigger": false,
      "metar": "METAR LFSB 032100Z AUTO 17004KT CAVOK 05/04 Q1002 NOSIG",
      "taf": "TAF LFSB 031700Z 0318/0418 16004KT CAVOK"
    },
    {
      "icao": "LGAV",
      "alert": "OK",
      "vis_m": 9999,
      "fzfg": false,
      "metar_trigger": false,
      "taf_trigger": false,
      "metar": "METAR LGAV 032120Z 03003KT CAVOK 09/06 Q1020 NOSIG",
      "taf": "TAF LGAV 031700Z 0318/0418 21010KT 9999 FEW025"
    },
    {
      "icao": "LGTS",
      "alert": "OK",
      "vis_m": 9999,
      "fzfg": false,
      "metar_trigger": false,
      "taf_trigger": false,
      "metar": "METAR LGTS 032120Z VRB02KT 9999 FEW020 BKN030 09/09 Q1020 NOSIG",
      "taf": "TAF LGTS 031700Z 0318/0418 VRB03KT 9999 SCT030"
    },
    {
      "icao": "LHBP",
      "alert": "OK",
      "vis_m": 9000,
      "fzfg": false,
      "metar_trigger": false,
      "taf_trigger": false,
      "metar": "SPECI LHBP 032115Z 05005KT 350V080 9000 -FZDZ BKN006 OVC014 01/M00 Q1011 REFZRA TEMPO -FZRA",
      "taf": "TAF LHBP 031715Z 0318/0418 10010KT 5000 PL FZRA BKN007 OVC020"
    },
    {
      "icao": "LHDC",
      "alert": "OK",
      "vis_m": 7000,
      "fzfg": false,
      "metar_trigger": false,
      "taf_trigger": false,
      "metar": "METAR LHDC 032045Z AUTO 08008KT 7000 -RA OVC043 02/02 Q1013",
      "taf": "TAF LHDC 031415Z 0315/0324 08006KT 7000 -SN OVC030"
    },
    {
      "icao": "LIBD",
      "alert": "OK",
      "vis_m": 9999,
      "fzfg": false,
      "metar_trigger": false,
      "taf_trigger": false,
      "metar": "METAR LIBD 032120Z AUTO 18006KT 9999 BKN110/// 15/12 Q1009",
      "taf": "TAF LIBD 031700Z 0318/0418 18012KT CAVOK"
    },
    {
      "icao": "LIBG",
      "alert": "OK",
      "vis_m": null,
      "fzfg": false,
      "metar_trigger": false,
      "taf_trigger": false,
      "metar": "",
      "taf": "TAF LIBG 031700Z 0318/0403 17020G30KT 9999 FEW010 SCT020"
    },
    {
      "icao": "LIBP",
      "alert": "OK",
      "vis_m": 9999,
      "fzfg": false,
      "metar_trigger": false,
      "taf_trigger": false,
      "metar": "METAR LIBP 032120Z AUTO 12004KT 9999 FEW098/// BKN150/// 11/09 Q1007",
      "taf": "TAF LIBP 031700Z 0318/0418 VRB05KT 9999 SCT050"
    },
    {
      "icao": "LIBR",
      "alert": "OK",
      "vis_m": 9999,
      "fzfg": false,
      "metar_trigger": false,
      "taf_trigger": false,
      "metar": "METAR LIBR 032120Z 18016KT CAVOK 14/12 Q1011",
      "taf": "TAF LIBR 031700Z 0318/0418 16025G35KT 9999 SCT030"
    },
    {
      "icao": "LICA",
      "alert": "OK",
      "vis_m": 9999,
      "fzfg": false,
      "metar_trigger": false,
      "taf_trigger": false,
      "metar": "METAR LICA 032120Z AUTO 07015KT 9999 NCD 14/12 Q1010",
      "taf": "TAF LICA 031700Z 0318/0418 07015KT 9999 SCT025"
    },
    {
      "icao": "LICC",
      "alert": "OK",
      "vis_m": 9999,
      "fzfg": false,
      "metar_trigger": false,
      "taf_trigger": false,
      "metar": "METAR LICC 032120Z 07007KT CAVOK 14/11 Q1011",
      "taf": "TAF LICC 031700Z 0318/0418 VRB05KT 9999 FEW030"
    },
    {
      "icao": "LICJ",
      "alert": "OK",
      "vis_m": 9999,
      "fzfg": false,
      "metar_trigger": false,
      "taf_trigger": false,
      "metar": "METAR LICJ 032120Z 35003KT 290V030 CAVOK 17/10 Q1006",
      "taf": "TAF LICJ 031700Z 0318/0418 18015KT 9999 SCT030"
    },
    {
      "icao": "LIMC",
      "alert": "OK",
      "vis_m": 2000,
      "fzfg": false,
      "metar_trigger": false,
      "taf_trigger": false,
      "metar": "METAR LIMC 032120Z VRB01KT 2000 -RA BR BKN003 BKN015 04/04 Q1008 NOSIG",
      "taf": ""
    },
    {
      "icao": "LIME",
      "alert": "OK",
      "vis_m": 5000,
      "fzfg": false,
      "metar_trigger": false,
      "taf_trigger": false,
      "metar": "METAR LIME 032120Z VRB02KT 5000 BR SCT002 BKN010 05/05 Q1007 NOSIG",
      "taf": "TAF LIME 031700Z 0318/0418 VRB05KT 6000 SCT006 BKN020"
    },
    {
      "icao": "LIMF",
      "alert": "OK",
      "vis_m": 7000,
      "fzfg": false,
      "metar_trigger": false,
      "taf_trigger": false,
      "metar": "METAR LIMF 032120Z 25003KT 220V300 7000 SCT040 03/01 Q1008",
      "taf": "TAF LIMF 031700Z 0318/0418 VRB05KT 6000 SCT030"
    },
    {
      "icao": "LIMJ",
      "alert": "OK",
      "vis_m": 9999,
      "fzfg": false,
      "metar_trigger": false,
      "taf_trigger": false,
      "metar": "METAR LIMJ 032120Z 04017KT 9999 BKN025 06/02 Q1006",
      "taf": "TAF LIMJ 031700Z 0318/0418 35015KT 9999 BKN030"
    },
    {
      "icao": "LIPE",
      "alert": "OK",
      "vis_m": 5000,
      "fzfg": false,
      "metar_trigger": false,
      "taf_trigger": false,
      "metar": "METAR LIPE 032120Z 27004KT 5000 BR BKN010 05/05 Q1008",
      "taf": "TAF LIPE 031700Z 0318/0418 27005KT 6000 FEW005 BKN014"
    },
    {
      "icao": "LIPH",
      "alert": "OK",
      "vis_m": 9999,
      "fzfg": false,
      "metar_trigger": false,
      "taf_trigger": false,
      "metar": "METAR LIPH 032120Z VRB01KT CAVOK 05/05 Q1007",
      "taf": "TAF LIPH 031700Z 0318/0418 VRB06KT 6000 SCT020"
    },
    {
      "icao": "LIPQ",
      "alert": "OK",
      "vis_m": 2000,
      "fzfg": false,
      "metar_trigger": false,
      "taf_trigger": false,
      "metar": "METAR LIPQ 032120Z AUTO 06003KT 2000 BR BKN024/// BKN083/// 09/09 Q1007",
      "taf": "TAF LIPQ 031700Z 0318/0418 VRB05KT 9000 SCT020"
    },
    {
      "icao": "LIPR",
      "alert": "OK",
      "vis_m": 5000,
      "fzfg": false,
      "metar_trigger": false,
      "taf_trigger": false,
      "metar": "METAR LIPR 032120Z 29004KT 5000 -RA BR BKN005 SCT015 07/07 Q1008",
      "taf": "TAF LIPR 031700Z 0318/0418 32008KT 9999 BKN040"
    },
    {
      "icao": "LIPX",
      "alert": "OK",
      "vis_m": 7000,
      "fzfg": false,
      "metar_trigger": false,
      "taf_trigger": false,
      "metar": "METAR LIPX 032120Z 30005KT 7000 OVC020 06/04 Q1008",
      "taf": "TAF LIPX 031700Z 0318/0418 VRB05KT 6000 BKN006"
    },
    {
      "icao": "LIPY",
      "alert": "OK",
      "vis_m": 3500,
      "fzfg": false,
      "metar_trigger": false,
      "taf_trigger": false,
      "metar": "METAR LIPY 032120Z AUTO 02004KT 3500 -RA BR BKN004/// OVC054/// 09/08 Q1007",
      "taf": "TAF LIPY 031700Z 0318/0418 VRB05KT 9999 SCT050"
    },
    {
      "icao": "LIPZ",
      "alert": "OK",
      "vis_m": 9999,
      "fzfg": false,
      "metar_trigger": false,
      "taf_trigger": false,
      "metar": "METAR LIPZ 032120Z 34003KT 320V040 9999 BKN010 07/07 Q1007 NOSIG",
      "taf": "TAF LIPZ 031700Z 0318/0424 VRB05KT 8000 FEW020"
    },
    {
      "icao": "LIRF",
      "alert": "OK",
      "vis_m": 9000,
      "fzfg": false,
      "metar_trigger": false,
      "taf_trigger": false,
      "metar": "METAR LIRF 032120Z 13007KT 9000 DZ FEW005 SCT025 13/12 Q1007 NOSIG",
      "taf": "TAF LIRF 031700Z 0318/0424 15015KT 9999 SCT030"
    },
    {
      "icao": "LIRN",
      "alert": "OK",
      "vis_m": 9999,
      "fzfg": false,
      "metar_trigger": false,
      "taf_trigger": false,
      "metar": "METAR LIRN 032120Z 19005KT 160V220 9999 BKN050 15/11 Q1008 NOSIG",
      "taf": "TAF LIRN 031700Z 0318/0418 17015KT 9999 SCT030"
    },
    {
      "icao": "LIRP",
      "alert": "OK",
      "vis_m": 9999,
      "fzfg": false,
      "metar_trigger": false,
      "taf_trigger": false,
      "metar": "METAR LIRP 032115Z 08006KT 9999 SCT040 SCT050 11/11 Q1005 NOSIG",
      "taf": "TAF LIRP 031700Z 0318/0418 09010KT 9999 SCT040"
    },
    {
      "icao": "LIRZ",
      "alert": "OK",
      "vis_m": 4100,
      "fzfg": false,
      "metar_trigger": false,
      "taf_trigger": false,
      "metar": "METAR LIRZ 032120Z AUTO 26004KT 4100 -RA BR BKN004/// 10/10 Q1007",
      "taf": "TAF LIRZ 031700Z 0318/0418 VRB05KT 9999 BKN020"
    },
    {
      "icao": "LJLJ",
      "alert": "OK",
      "vis_m": 4000,
      "fzfg": false,
      "metar_trigger": false,
      "taf_trigger": false,
      "metar": "METAR LJLJ 032100Z 12002KT 4000 BR FEW003 SCT008 BKN042 03/02 Q1008 NOSIG",
      "taf": "TAF LJLJ 031700Z 0318/0418 11002KT 7000 -RA FEW004 OVC020"
    },
    {
      "icao": "LKMT",
      "alert": "OK",
      "vis_m": 7000,
      "fzfg": false,
      "metar_trigger": false,
      "taf_trigger": false,
      "metar": "METAR LKMT 032100Z 01003KT 330V030 7000 OVC026 M04/M07 Q1010 NOSIG",
      "taf": "TAF LKMT 031700Z 0318/0418 02006KT 8000 OVC030"
    },
    {
      "icao": "LKPR",
      "alert": "OK",
      "vis_m": 9000,
      "fzfg": false,
      "metar_trigger": false,
      "taf_trigger": false,
      "metar": "METAR LKPR 032100Z 11004KT 9000 SCT005 OVC008 M01/M02 Q1006 NOSIG",
      "taf": "TAF LKPR 032000Z 0321/0503 11008KT 9000 OVC015"
    },
    {
      "icao": "LLBG",
      "alert": "OK",
      "vis_m": 9999,
      "fzfg": false,
      "metar_trigger": false,
      "taf_trigger": false,
      "metar": "METAR LLBG 032120Z 30008KT 9999 FEW038 SCT050 16/09 Q1021 NOSIG",
      "taf": "TAF LLBG 031703Z 0318/0418 28007KT 9999 SCT035"
    },
    {
      "icao": "LMML",
      "alert": "OK",
      "vis_m": 9999,
      "fzfg": false,
      "metar_trigger": false,
      "taf_trigger": false,
      "metar": "METAR LMML 032115Z 13013KT CAVOK 15/13 Q1009 NOSIG",
      "taf": "TAF LMML 031700Z 0318/0418 15012KT CAVOK"
    },
    {
      "icao": "LOWW",
      "alert": "OK",
      "vis_m": 9999,
      "fzfg": false,
      "metar_trigger": false,
      "taf_trigger": false,
      "metar": "METAR LOWW 032120Z 14008KT 9999 FEW011 BKN012 00/M02 Q1009 TEMPO BKN008",
      "taf": "TAF LOWW 032015Z 0321/0503 12010KT 9999 OVC009 TX01/0503Z TNM00/0400Z"
    },
    {
      "icao": "LPFR",
      "alert": "OK",
      "vis_m": 4500,
      "fzfg": false,
      "metar_trigger": false,
      "taf_trigger": false,
      "metar": "METAR LPFR 032100Z 21014KT 4500 RA BKN005 BKN012 14/13 Q1001",
      "taf": "TAF LPFR 031700Z 0318/0418 25015KT 9999 FEW015 SCT030"
    },
    {
      "icao": "LPMA",
      "alert": "OK",
      "vis_m": 9999,
      "fzfg": false,
      "metar_trigger": false,
      "taf_trigger": false,
      "metar": "METAR LPMA 032100Z 33003KT 300V030 9999 FEW015 17/12 Q1014",
      "taf": "TAF LPMA 031700Z 0318/0418 VRB05KT 9999 SCT015"
    },
    {
      "icao": "LPPR",
      "alert": "OK",
      "vis_m": 4000,
      "fzfg": false,
      "metar_trigger": false,
      "taf_trigger": false,
      "metar": "METAR LPPR 032100Z 17019KT 4000 -RADZ BR BKN009 BKN011 FEW018TCU 08/07 Q0992",
      "taf": "TAF LPPR 031700Z 0318/0418 21008KT 9999 SCT020"
    },
    {
      "icao": "LPPS",
      "alert": "OK",
      "vis_m": 9999,
      "fzfg": false,
      "metar_trigger": false,
      "taf_trigger": false,
      "metar": "METAR LPPS 032100Z 27017KT 9999 SCT013 SCT030 18/15 Q1014",
      "taf": "TAF LPPS 031700Z 0318/0424 27017KT 9999 SCT015"
    },
    {
      "icao": "LPPT",
      "alert": "OK",
      "vis_m": 2000,
      "fzfg": false,
      "metar_trigger": false,
      "taf_trigger": false,
      "metar": "METAR LPPT 032100Z 20007KT 150V320 2000 RA BR FEW002 BKN004 11/11 Q0995 RERA",
      "taf": ""
    },
    {
      "icao": "LQBK",
      "alert": "OK",
      "vis_m": 8000,
      "fzfg": false,
      "metar_trigger": false,
      "taf_trigger": false,
      "metar": "METAR LQBK 032100Z 30003KT 8000 -RA SCT049 04/03 Q1008 NOSIG",
      "taf": "TAF LQBK 031700Z 0318/0418 VRB03KT 9999 SCT045 TX11/0414Z TN04/0406Z"
    },
    {
      "icao": "LQSA",
      "alert": "OK",
      "vis_m": 9999,
      "fzfg": false,
      "metar_trigger": false,
      "taf_trigger": false,
      "metar": "METAR LQSA 032100Z 10005KT 9999 -RA SCT045 BKN060 09/08 Q1010 NOSIG",
      "taf": "TAF LQSA 031700Z 0318/0418 15015KT 9999 BKN045 TX12/0413Z TN05/0405Z"
    },
    {
      "icao": "LQTZ",
      "alert": "OK",
      "vis_m": 9999,
      "fzfg": false,
      "metar_trigger": false,
      "taf_trigger": false,
      "metar": "METAR LQTZ 032100Z 12006KT 9999 BKN065 11/07 Q1008",
      "taf": "TAF LQTZ 031700Z 0318/0418 08005KT 9999 SCT055 TX14/0413Z TN06/0406Z"
    },
    {
      "icao": "LRBC",
      "alert": "OK",
      "vis_m": 9999,
      "fzfg": false,
      "metar_trigger": false,
      "taf_trigger": false,
      "metar": "METAR LRBC 032100Z AUTO 16011KT 9999 BKN150/// M05/M08 Q1020",
      "taf": "TAF LRBC 032000Z 0321/0406 16012KT CAVOK"
    },
    {
      "icao": "LRBS",
      "alert": "OK",
      "vis_m": 9999,
      "fzfg": false,
      "metar_trigger": false,
      "taf_trigger": false,
      "metar": "METAR LRBS 032100Z VRB02KT CAVOK M04/M09 Q1022 NOSIG",
      "taf": "TAF LRBS 031700Z 0318/0418 06006KT CAVOK"
    },
    {
      "icao": "LRBV",
      "alert": "OK",
      "vis_m": 9999,
      "fzfg": false,
      "metar_trigger": false,
      "taf_trigger": false,
      "metar": "METAR LRBV 032100Z 11007KT 9999 FEW068 01/M03 Q1015",
      "taf": "TAF LRBV 032000Z 0321/0406 10006KT 9999 BKN060"
    },
    {
      "icao": "LRCL",
      "alert": "OK",
      "vis_m": 9999,
      "fzfg": false,
      "metar_trigger": false,
      "taf_trigger": false,
      "metar": "METAR LRCL 032100Z 06005KT 030V090 9999 OVC053 03/M02 Q1015",
      "taf": "TAF LRCL 032000Z 0321/0406 11006KT 9999 BKN050"
    },
    {
      "icao": "LRCV",
      "alert": "OK",
      "vis_m": 9999,
      "fzfg": false,
      "metar_trigger": false,
      "taf_trigger": false,
      "metar": "METAR LRCV 032100Z VRB01KT CAVOK M07/M09 Q1021",
      "taf": "TAF LRCV 032000Z 0321/0406 VRB04KT CAVOK"
    },
    {
      "icao": "LRIA",
      "alert": "OK",
      "vis_m": 9999,
      "fzfg": false,
      "metar_trigger": false,
      "taf_trigger": false,
      "metar": "METAR LRIA 032100Z 11011KT CAVOK M07/M10 Q1022",
      "taf": "TAF LRIA 032000Z 0321/0406 12008KT CAVOK"
    },
    {
      "icao": "LROP",
      "alert": "OK",
      "vis_m": 9999,
      "fzfg": false,
      "metar_trigger": false,
      "taf_trigger": false,
      "metar": "METAR LROP 032100Z 03004KT CAVOK M04/M11 Q1022 NOSIG",
      "taf": "TAF LROP 031700Z 0318/0418 06006KT CAVOK"
    },
    {
      "icao": "LRSB",
      "alert": "OK",
      "vis_m": 9999,
      "fzfg": false,
      "metar_trigger": false,
      "taf_trigger": false,
      "metar": "METAR LRSB 032100Z 24004KT CAVOK M00/M02 Q1014",
      "taf": "TAF LRSB 031700Z 0318/0418 VRB04KT CAVOK"
    },
    {
      "icao": "LRSM",
      "alert": "OK",
      "vis_m": 9999,
      "fzfg": false,
      "metar_trigger": false,
      "taf_trigger": false,
      "metar": "METAR LRSM 032100Z AUTO 12006KT 9999 DZ FEW024/// SCT031/// OVC037/// 03/01 Q1015",
      "taf": "TAF LRSM 031400Z 0315/0324 VRB04KT 9999 BKN040"
    },
    {
      "icao": "LRSV",
      "alert": "OK",
      "vis_m": 9999,
      "fzfg": false,
      "metar_trigger": false,
      "taf_trigger": false,
      "metar": "METAR LRSV 032100Z 14010KT CAVOK M07/M10 Q1017",
      "taf": "TAF LRSV 032000Z 0321/0406 14010KT CAVOK"
    },
    {
      "icao": "LRTM",
      "alert": "OK",
      "vis_m": 9000,
      "fzfg": false,
      "metar_trigger": false,
      "taf_trigger": false,
      "metar": "METAR LRTM 032100Z AUTO 24003KT 9000 NCD 01/M01 Q1015",
      "taf": "TAF LRTM 032000Z 0321/0406 VRB04KT CAVOK"
    },
    {
      "icao": "LRTR",
      "alert": "OK",
      "vis_m": 9999,
      "fzfg": false,
      "metar_trigger": false,
      "taf_trigger": false,
      "metar": "METAR LRTR 032100Z 10012KT 9999 -RA NSC 02/00 Q1013",
      "taf": "TAF LRTR 031700Z 0318/0418 11012KT CAVOK"
    },
    {
      "icao": "LTAC",
      "alert": "OK",
      "vis_m": 9999,
      "fzfg": false,
      "metar_trigger": false,
      "taf_trigger": false,
      "metar": "METAR LTAC 032120Z 34006KT 300V020 CAVOK M00/M04 Q1020 NOSIG",
      "taf": "TAF LTAC 031640Z 0318/0418 VRB02KT 9999 SCT040"
    },
    {
      "icao": "LTFM",
      "alert": "OK",
      "vis_m": 9999,
      "fzfg": false,
      "metar_trigger": false,
      "taf_trigger": false,
      "metar": "METAR LTFM 032120Z 15004KT 9999 SCT033 04/01 Q1023 NOSIG",
      "taf": "TAF LTFM 031640Z 0318/0424 13005KT 9999 BKN022"
    },
    {
      "icao": "LUKK",
      "alert": "OK",
      "vis_m": 9999,
      "fzfg": false,
      "metar_trigger": false,
      "taf_trigger": false,
      "metar": "METAR LUKK 032100Z 12005KT CAVOK M08/M10 Q1024 NOSIG",
      "taf": "TAF LUKK 031708Z 0318/0418 13008KT CAVOK"
    },
    {
      "icao": "LWOH",
      "alert": "OK",
      "vis_m": null,
      "fzfg": false,
      "metar_trigger": false,
      "taf_trigger": false,
      "metar": "",
      "taf": "TAF LWOH 032030Z 0321/0421 VRB02KT 9999 BKN040"
    },
    {
      "icao": "LWSK",
      "alert": "OK",
      "vis_m": 9999,
      "fzfg": false,
      "metar_trigger": false,
      "taf_trigger": false,
      "metar": "METAR LWSK 032120Z 07002KT 9999 SCT020 BKN033 04/02 Q1019 NOSIG",
      "taf": "TAF LWSK 032030Z 0321/0421 VRB02KT 9999 BKN025"
    },
    {
      "icao": "LYBE",
      "alert": "OK",
      "vis_m": 9999,
      "fzfg": false,
      "metar_trigger": false,
      "taf_trigger": false,
      "metar": "METAR LYBE 032100Z 11011KT 9999 -RA NSC 06/02 Q1011 NOSIG",
      "taf": "TAF LYBE 031700Z 0318/0418 12014KT CAVOK TX10/0412Z TN05/0406Z"
    },
    {
      "icao": "LYNI",
      "alert": "OK",
      "vis_m": 9999,
      "fzfg": false,
      "metar_trigger": false,
      "taf_trigger": false,
      "metar": "METAR LYNI 032100Z 12007KT 9999 BKN040 OVC090 05/01 Q1016 NOSIG",
      "taf": "TAF LYNI 031700Z 0318/0418 11008KT 9999 BKN040 TX11/0413Z TN03/0406Z"
    },
    {
      "icao": "LYPG",
      "alert": "OK",
      "vis_m": 600,
      "fzfg": false,
      "metar_trigger": false,
      "taf_trigger": false,
      "metar": "METAR LYPG 032100Z VRB01KT 0600 R18/0900N R36/1200N FG FEW006 SCT050 BKN090 07/07 Q1015 NOSIG",
      "taf": ""
    },
    {
      "icao": "LZIB",
      "alert": "OK",
      "vis_m": 9999,
      "fzfg": false,
      "metar_trigger": false,
      "taf_trigger": false,
      "metar": "METAR LZIB 032100Z 04005KT 010V070 9999 FEW008 BKN011 OVC013 01/M01 Q1010 NOSIG",
      "taf": ""
    },
    {
      "icao": "LZKZ",
      "alert": "OK",
      "vis_m": 1600,
      "fzfg": false,
      "metar_trigger": false,
      "taf_trigger": false,
      "metar": "METAR LZKZ 032100Z 01004KT 1600 -SN BR OVC009 M01/M01 Q1014 TEMPO 1400 SN",
      "taf": "TAF LZKZ 031715Z 0318/0418 VRB02KT 4000 -SN BR SCT004 BKN016 OVC025"
    },
    {
      "icao": "LZTT",
      "alert": "OK",
      "vis_m": 8000,
      "fzfg": false,
      "metar_trigger": false,
      "taf_trigger": false,
      "metar": "METAR LZTT 032100Z 21004KT 180V240 8000 -SN FEW010 SCT027 OVC036 M03/M04 Q1010",
      "taf": "TAF LZTT 031715Z 0318/0418 VRB02KT 4000 -SN SCT010 OVC020"
    },
    {
      "icao": "OEJN",
      "alert": "OK",
      "vis_m": 9999,
      "fzfg": false,
      "metar_trigger": false,
      "taf_trigger": false,
      "metar": "METAR OEJN 032100Z 36008KT 9999 FEW040 24/18 Q1016 NOSIG",
      "taf": "TAF OEJN 031700Z 0318/0424 01008KT 7000 NSC"
    },
    {
      "icao": "OEMA",
      "alert": "OK",
      "vis_m": 9999,
      "fzfg": false,
      "metar_trigger": false,
      "taf_trigger": false,
      "metar": "METAR OEMA 032100Z 29006KT CAVOK 23/02 Q1019 NOSIG",
      "taf": "TAF OEMA 031700Z 0318/0424 33006KT CAVOK"
    },
    {
      "icao": "OJAI",
      "alert": "OK",
      "vis_m": 4000,
      "fzfg": false,
      "metar_trigger": false,
      "taf_trigger": false,
      "metar": "METAR OJAI 032100Z 28010KT 4000 BR SCT020 10/08 Q1021 NOSIG",
      "taf": "TAF OJAI 031645Z 0318/0424 26014KT 4000 BR SCT035"
    },
    {
      "icao": "OMAA",
      "alert": "OK",
      "vis_m": 9999,
      "fzfg": false,
      "metar_trigger": false,
      "taf_trigger": false,
      "metar": "METAR OMAA 032100Z 08005KT CAVOK 19/11 Q1016 NOSIG",
      "taf": "TAF OMAA 031700Z 0318/0500 07007KT 8000 NSC"
    },
    {
      "icao": "OMDB",
      "alert": "OK",
      "vis_m": 8000,
      "fzfg": false,
      "metar_trigger": false,
      "taf_trigger": false,
      "metar": "METAR OMDB 032100Z 11004KT 070V130 8000 NSC 21/16 Q1016 NOSIG",
      "taf": "TAF OMDB 031700Z 0318/0500 10005KT 8000 NSC"
    },
    {
      "icao": "UAAA",
      "alert": "OK",
      "vis_m": 9999,
      "fzfg": false,
      "metar_trigger": false,
      "taf_trigger": false,
      "metar": "METAR UAAA 032100Z 32002MPS 280V010 9999 BKN050CB OVC100 05/02 Q1022 NOSIG",
      "taf": "TAF UAAA 031702Z 0318/0418 26003MPS 3100 -SHRA BR FU BKN011CB OVC050 TX06/0409Z TNM02/0402Z"
    },
    {
      "icao": "UBBB",
      "alert": "OK",
      "vis_m": 9999,
      "fzfg": false,
      "metar_trigger": false,
      "taf_trigger": false,
      "metar": "METAR UBBB 032100Z 33018G28KT 9999 BKN007 06/05 Q1012 NOSIG",
      "taf": "TAF UBBB 031658Z 0318/0418 33022G32KT 9999 SCT010 SCT030 TX03/0406Z TN04/0409Z"
    },
    {
      "icao": "UDSG",
      "alert": "OK",
      "vis_m": 9999,
      "fzfg": false,
      "metar_trigger": false,
      "taf_trigger": false,
      "metar": "METAR UDSG 032100Z 34015KT 9999 BKN026 M00/M05 Q1013 NOSIG",
      "taf": "TAF UDSG 031658Z 0318/0418 VRB06KT 5000 BR BKN030"
    },
    {
      "icao": "UDYZ",
      "alert": "OK",
      "vis_m": 4000,
      "fzfg": false,
      "metar_trigger": false,
      "taf_trigger": false,
      "metar": "METAR UDYZ 032100Z 06003KT 4000 BR SCT046 02/01 Q1011 NOSIG",
      "taf": "TAF UDYZ 031700Z 0318/0418 VRB06KT 1500 BR BKN030"
    },
    {
      "icao": "UGKO",
      "alert": "OK",
      "vis_m": 9999,
      "fzfg": false,
      "metar_trigger": false,
      "taf_trigger": false,
      "metar": "METAR UGKO 032100Z 27007KT 9999 -RA SCT008 BKN017 OVC021 04/03 Q1022 NOSIG",
      "taf": "TAF UGKO 031700Z 0318/0418 25008KT 9000 SCT030 OVC050 TX07/0410Z TN02/0418Z"
    }
  ]
}