{
  "ts_utc": "2026-02-28T23:30:56Z",
  "threshold_m": 150,
  "source": "stations_override.txt (ICAO list) + aviationweather.gov (METAR/TAF raw)",
  "station_count": 159,
  "stations": [
    {
      "icao": "BIKF",
      "alert": "OK",
      "vis_m": 9999,
      "fzfg": false,
      "metar_trigger": false,
      "taf_trigger": false,
      "metar": "METAR BIKF 282300Z 06006KT 9999 -SN FEW005 BKN015 BKN030 M01/M01 Q1001",
      "taf": "TAF BIKF 282259Z 0100/0200 05008KT 9999 FEW020 BKN040 TXM01/0114Z TNM04/0200Z"
    },
    {
      "icao": "BKPR",
      "alert": "OK",
      "vis_m": 9999,
      "fzfg": false,
      "metar_trigger": false,
      "taf_trigger": false,
      "metar": "METAR BKPR 282330Z 35002KT CAVOK 02/00 Q1025 NOSIG",
      "taf": "TAF BKPR 282330Z 0100/0124 15007KT CAVOK"
    },
    {
      "icao": "EBCI",
      "alert": "OK",
      "vis_m": 9999,
      "fzfg": false,
      "metar_trigger": false,
      "taf_trigger": false,
      "metar": "METAR EBCI 282320Z 22006KT 9999 FEW040 05/01 Q1024 NOSIG",
      "taf": "TAF EBCI 282315Z 0100/0206 22008KT CAVOK"
    },
    {
      "icao": "EDDB",
      "alert": "OK",
      "vis_m": 9999,
      "fzfg": false,
      "metar_trigger": false,
      "taf_trigger": false,
      "metar": "METAR EDDB 282320Z AUTO 25011KT CAVOK 10/04 Q1020 NOSIG",
      "taf": "TAF EDDB 282300Z 0100/0124 24008KT 9999 SCT030"
    },
    {
      "icao": "EDDH",
      "alert": "OK",
      "vis_m": 9999,
      "fzfg": false,
      "metar_trigger": false,
      "taf_trigger": false,
      "metar": "METAR EDDH 282320Z AUTO 25019KT 220V280 9999 FEW019 BKN031 OVC037 07/03 Q1018 TEMPO 25020G30KT",
      "taf": "TAF EDDH 282300Z 0100/0206 25020G30KT 9999 BKN015"
    },
    {
      "icao": "EDDK",
      "alert": "OK",
      "vis_m": 9999,
      "fzfg": false,
      "metar_trigger": false,
      "taf_trigger": false,
      "metar": "METAR EDDK 282320Z AUTO 18005KT CAVOK 05/02 Q1024 NOSIG",
      "taf": "TAF EDDK 282300Z 0100/0206 15004KT CAVOK"
    },
    {
      "icao": "EDDN",
      "alert": "OK",
      "vis_m": 9999,
      "fzfg": false,
      "metar_trigger": false,
      "taf_trigger": false,
      "metar": "METAR EDDN 282320Z AUTO VRB02KT CAVOK 09/04 Q1024",
      "taf": "TAF EDDN 282300Z 0100/0124 26005KT 9999 FEW040"
    },
    {
      "icao": "EDDS",
      "alert": "OK",
      "vis_m": 9999,
      "fzfg": false,
      "metar_trigger": false,
      "taf_trigger": false,
      "metar": "METAR EDDS 282320Z AUTO 23003KT 190V260 9999 FEW034 08/05 Q1024",
      "taf": "TAF EDDS 282300Z 0100/0124 VRB03KT CAVOK"
    },
    {
      "icao": "EDFH",
      "alert": "OK",
      "vis_m": 9999,
      "fzfg": false,
      "metar_trigger": false,
      "taf_trigger": false,
      "metar": "METAR EDFH 282320Z 26006KT 9999 FEW019 SCT029 05/03 Q1024",
      "taf": "TAF EDFH 282300Z 0100/0124 22004KT 9999 SCT035"
    },
    {
      "icao": "EDJA",
      "alert": "OK",
      "vis_m": 9999,
      "fzfg": false,
      "metar_trigger": false,
      "taf_trigger": false,
      "metar": "METAR EDJA 282320Z AUTO 22003KT 9999 // SCT025/// OVC039/// 07/05 Q1025",
      "taf": "TAF EDJA 281700Z 2818/0103 22006KT 9999 BKN035"
    },
    {
      "icao": "EDLW",
      "alert": "OK",
      "vis_m": 9999,
      "fzfg": false,
      "metar_trigger": false,
      "taf_trigger": false,
      "metar": "METAR EDLW 282320Z AUTO 21008KT 9999 // SCT030/// BKN034/// 07/04 Q1023",
      "taf": "TAF EDLW 281700Z 2818/0118 22015G25KT 9999 BKN035"
    },
    {
      "icao": "EDNY",
      "alert": "OK",
      "vis_m": 9999,
      "fzfg": false,
      "metar_trigger": false,
      "taf_trigger": false,
      "metar": "METAR EDNY 282320Z AUTO 24003KT 9999 // OVC050/// 08/04 Q1025",
      "taf": "TAF EDNY 281700Z 2818/0103 24005KT 9999 BKN035"
    },
    {
      "icao": "EDSB",
      "alert": "OK",
      "vis_m": 9999,
      "fzfg": false,
      "metar_trigger": false,
      "taf_trigger": false,
      "metar": "METAR EDSB 282320Z AUTO 22004KT 9999 R21///// // FEW200/// 07/05 Q1026",
      "taf": "TAF EDSB 282300Z 0100/0124 21004KT CAVOK"
    },
    {
      "icao": "EETN",
      "alert": "OK",
      "vis_m": 400,
      "fzfg": false,
      "metar_trigger": false,
      "taf_trigger": false,
      "metar": "METAR EETN 282320Z 11004KT 0400 R08/1300U FG VV003 01/01 Q1015",
      "taf": ""
    },
    {
      "icao": "EFTU",
      "alert": "OK",
      "vis_m": 9000,
      "fzfg": false,
      "metar_trigger": false,
      "taf_trigger": false,
      "metar": "METAR EFTU 282320Z AUTO 14006KT 9000 OVC001 M00/M00 Q1015",
      "taf": ""
    },
    {
      "icao": "EGBB",
      "alert": "OK",
      "vis_m": 9999,
      "fzfg": false,
      "metar_trigger": false,
      "taf_trigger": false,
      "metar": "METAR EGBB 282320Z 17007KT CAVOK 04/01 Q1017",
      "taf": "TAF EGBB 282256Z 0100/0124 18009KT 9999 FEW045"
    },
    {
      "icao": "EGGP",
      "alert": "OK",
      "vis_m": 9999,
      "fzfg": false,
      "metar_trigger": false,
      "taf_trigger": false,
      "metar": "METAR EGGP 282320Z 16008KT 9999 FEW045 05/01 Q1015",
      "taf": "TAF EGGP 282303Z 0100/0124 17009KT 9999 SCT040"
    },
    {
      "icao": "EGGW",
      "alert": "OK",
      "vis_m": 9999,
      "fzfg": false,
      "metar_trigger": false,
      "taf_trigger": false,
      "metar": "METAR EGGW 282320Z AUTO 20005KT 170V230 9999 NCD 05/02 Q1019",
      "taf": "TAF EGGW 282304Z 0100/0124 19012KT 9999 SCT030"
    },
    {
      "icao": "EGKK",
      "alert": "OK",
      "vis_m": 9999,
      "fzfg": false,
      "metar_trigger": false,
      "taf_trigger": false,
      "metar": "METAR EGKK 282320Z 18005KT CAVOK 07/05 Q1020",
      "taf": "TAF EGKK 282254Z 0100/0206 19009KT 9999 SCT028"
    },
    {
      "icao": "EGNM",
      "alert": "OK",
      "vis_m": 9999,
      "fzfg": false,
      "metar_trigger": false,
      "taf_trigger": false,
      "metar": "METAR EGNM 282250Z 19006KT CAVOK 03/M01 Q1015",
      "taf": "TAF EGNM 282303Z 0100/0124 16006KT 9999 SCT025"
    },
    {
      "icao": "EGPD",
      "alert": "OK",
      "vis_m": 9999,
      "fzfg": false,
      "metar_trigger": false,
      "taf_trigger": false,
      "metar": "METAR EGPD 282320Z COR AUTO 16005KT 130V200 9999 NCD 01/M00 Q1011 NOSIG",
      "taf": "TAF EGPD 282255Z 0100/0124 17008KT 9999 FEW020"
    },
    {
      "icao": "EGPF",
      "alert": "OK",
      "vis_m": 9999,
      "fzfg": false,
      "metar_trigger": false,
      "taf_trigger": false,
      "metar": "METAR EGPF 282320Z AUTO 06006KT 9999 OVC014 05/02 Q1010",
      "taf": "TAF EGPF 282255Z 0100/0124 09006KT 9999 SCT025"
    },
    {
      "icao": "EHBK",
      "alert": "OK",
      "vis_m": 9999,
      "fzfg": false,
      "metar_trigger": false,
      "taf_trigger": false,
      "metar": "METAR EHBK 282325Z AUTO 22008KT 9999 FEW040 05/02 Q1023",
      "taf": "TAF EHBK 282313Z 0100/0206 22006KT 9999 SCT040"
    },
    {
      "icao": "EHEH",
      "alert": "OK",
      "vis_m": 9999,
      "fzfg": false,
      "metar_trigger": false,
      "taf_trigger": false,
      "metar": "METAR EHEH 282325Z AUTO 20006KT 9999 NCD 05/03 Q1023 BLU",
      "taf": "TAF EHEH 281750Z 2818/0124 24015G25KT 9999 BKN018"
    },
    {
      "icao": "EKBI",
      "alert": "OK",
      "vis_m": 3200,
      "fzfg": false,
      "metar_trigger": false,
      "taf_trigger": false,
      "metar": "METAR EKBI 282320Z AUTO 22012KT 3200 -RA BR OVC003/// 05/05 Q1010 REDZRA",
      "taf": "TAF EKBI 282327Z 0100/0124 22014KT 8000 -RA BKN020"
    },
    {
      "icao": "EKCH",
      "alert": "OK",
      "vis_m": 9999,
      "fzfg": false,
      "metar_trigger": false,
      "taf_trigger": false,
      "metar": "METAR EKCH 282320Z AUTO 19009KT 9999 FEW091/// 04/03 Q1013 NOSIG",
      "taf": "TAF EKCH 282327Z 0100/0124 18010KT 9999 BKN040"
    },
    {
      "icao": "ENAL",
      "alert": "OK",
      "vis_m": 9999,
      "fzfg": false,
      "metar_trigger": false,
      "taf_trigger": false,
      "metar": "METAR ENAL 282320Z AUTO 14005KT 9999 NCD M01/M04 Q1011",
      "taf": "TAF ENAL 282000Z 2821/0106 14005KT CAVOK"
    },
    {
      "icao": "ENBR",
      "alert": "OK",
      "vis_m": 9999,
      "fzfg": false,
      "metar_trigger": false,
      "taf_trigger": false,
      "metar": "METAR ENBR 282320Z 03002KT CAVOK M02/M04 Q1009 RMK WIND 1200FT VRB01KT",
      "taf": "TAF ENBR 281700Z 2818/0118 35008KT CAVOK"
    },
    {
      "icao": "ENGM",
      "alert": "OK",
      "vis_m": 1900,
      "fzfg": false,
      "metar_trigger": false,
      "taf_trigger": false,
      "metar": "METAR ENGM 282320Z 04008KT 1900 SN SCT003 BKN011 OVC013 00/M01 Q1009",
      "taf": ""
    },
    {
      "icao": "ENHD",
      "alert": "OK",
      "vis_m": 9999,
      "fzfg": false,
      "metar_trigger": false,
      "taf_trigger": false,
      "metar": "METAR ENHD 282320Z AUTO 06003KT 330V100 9999 NCD 02/01 Q1010",
      "taf": "TAF ENHD 281400Z 2815/2823 35010KT CAVOK"
    },
    {
      "icao": "ENTC",
      "alert": "OK",
      "vis_m": 9999,
      "fzfg": false,
      "metar_trigger": false,
      "taf_trigger": false,
      "metar": "METAR ENTC 282320Z AUTO 19023KT 9999 -SN OVC039/// 02/M04 Q1003 RMK WIND 2600FT 18031KT",
      "taf": "TAF ENTC 281700Z 2818/0118 22015KT 9999 FEW025 BKN050"
    },
    {
      "icao": "ENTO",
      "alert": "OK",
      "vis_m": 2100,
      "fzfg": false,
      "metar_trigger": false,
      "taf_trigger": false,
      "metar": "METAR ENTO 282320Z AUTO 36008KT 2100 +RA SCT001/// OVC003/// 00/00 Q1008 REDZ",
      "taf": ""
    },
    {
      "icao": "ENVA",
      "alert": "OK",
      "vis_m": 9999,
      "fzfg": false,
      "metar_trigger": false,
      "taf_trigger": false,
      "metar": "METAR ENVA 282320Z 13005KT CAVOK M02/M07 Q1013 RMK WIND 670FT 11006KT",
      "taf": "TAF ENVA 281700Z 2818/0118 10005KT CAVOK"
    },
    {
      "icao": "ENZV",
      "alert": "OK",
      "vis_m": 9999,
      "fzfg": false,
      "metar_trigger": false,
      "taf_trigger": false,
      "metar": "METAR ENZV 282320Z VRB02KT 9999 BKN029 03/01 Q1010",
      "taf": "TAF ENZV 281700Z 2818/0118 36007KT 9999 -RA FEW015 BKN040"
    },
    {
      "icao": "EPGD",
      "alert": "OK",
      "vis_m": 9999,
      "fzfg": false,
      "metar_trigger": false,
      "taf_trigger": false,
      "metar": "METAR EPGD 282300Z 25005KT CAVOK 06/04 Q1017",
      "taf": "TAF EPGD 282330Z 0100/0124 27010KT CAVOK"
    },
    {
      "icao": "EPKK",
      "alert": "OK",
      "vis_m": 8000,
      "fzfg": false,
      "metar_trigger": false,
      "taf_trigger": false,
      "metar": "METAR EPKK 282300Z 00000KT 8000 NSC 02/00 Q1023",
      "taf": "TAF EPKK 282330Z 0100/0124 VRB02KT 7000 NSC"
    },
    {
      "icao": "EPKT",
      "alert": "OK",
      "vis_m": 9999,
      "fzfg": false,
      "metar_trigger": false,
      "taf_trigger": false,
      "metar": "METAR EPKT 282300Z 22007KT CAVOK 06/02 Q1022",
      "taf": "TAF EPKT 282330Z 0100/0124 22010KT CAVOK"
    },
    {
      "icao": "EPLB",
      "alert": "OK",
      "vis_m": 9999,
      "fzfg": false,
      "metar_trigger": false,
      "taf_trigger": false,
      "metar": "METAR EPLB 282300Z 22003KT CAVOK 04/00 Q1022",
      "taf": "TAF EPLB 282330Z 0100/0124 17005KT CAVOK"
    },
    {
      "icao": "EPMO",
      "alert": "OK",
      "vis_m": 9999,
      "fzfg": false,
      "metar_trigger": false,
      "taf_trigger": false,
      "metar": "METAR EPMO 282300Z 16006KT CAVOK 06/03 Q1020",
      "taf": "TAF EPMO 282330Z 0100/0124 17005KT CAVOK"
    },
    {
      "icao": "EPPO",
      "alert": "OK",
      "vis_m": 9999,
      "fzfg": false,
      "metar_trigger": false,
      "taf_trigger": false,
      "metar": "METAR EPPO 282300Z 24005KT CAVOK 08/04 Q1019",
      "taf": "TAF EPPO 282330Z 0100/0124 25007KT CAVOK"
    },
    {
      "icao": "EPRA",
      "alert": "OK",
      "vis_m": 9999,
      "fzfg": false,
      "metar_trigger": false,
      "taf_trigger": false,
      "metar": "METAR EPRA 282300Z 17007KT CAVOK 04/M00 Q1021",
      "taf": "TAF EPRA 282330Z 0100/0109 19008KT CAVOK"
    },
    {
      "icao": "EPRZ",
      "alert": "OK",
      "vis_m": 9999,
      "fzfg": false,
      "metar_trigger": false,
      "taf_trigger": false,
      "metar": "METAR EPRZ 282300Z 20008KT CAVOK 06/M01 Q1023",
      "taf": "TAF EPRZ 282330Z 0100/0124 19005KT CAVOK"
    },
    {
      "icao": "EPSC",
      "alert": "OK",
      "vis_m": 9999,
      "fzfg": false,
      "metar_trigger": false,
      "taf_trigger": false,
      "metar": "METAR EPSC 282300Z 18003KT 150V210 CAVOK 10/05 Q1017",
      "taf": "TAF EPSC 282330Z 0100/0124 20005KT CAVOK"
    },
    {
      "icao": "EPSY",
      "alert": "OK",
      "vis_m": 250,
      "fzfg": true,
      "metar_trigger": false,
      "taf_trigger": false,
      "metar": "METAR EPSY 282300Z 01001KT 0250 R01/0300N FZFG NSC M01/M01 Q1019",
      "taf": "TAF EPSY 282330Z 0100/0109 VRB02KT 1500 BR NSC"
    },
    {
      "icao": "EPWA",
      "alert": "OK",
      "vis_m": 9999,
      "fzfg": false,
      "metar_trigger": false,
      "taf_trigger": false,
      "metar": "METAR EPWA 282300Z 15004KT CAVOK 03/01 Q1020 NOSIG",
      "taf": "TAF EPWA 282330Z 0100/0124 16005KT CAVOK"
    },
    {
      "icao": "EPWR",
      "alert": "OK",
      "vis_m": 9999,
      "fzfg": false,
      "metar_trigger": false,
      "taf_trigger": false,
      "metar": "METAR EPWR 282300Z 23007KT CAVOK 09/03 Q1021",
      "taf": "TAF EPWR 282330Z 0100/0124 22008KT CAVOK"
    },
    {
      "icao": "ESGG",
      "alert": "OK",
      "vis_m": 7000,
      "fzfg": false,
      "metar_trigger": false,
      "taf_trigger": false,
      "metar": "METAR ESGG 282320Z 18013KT 7000 -RA OVC003 05/05 Q1009",
      "taf": "TAF ESGG 282030Z 2821/0121 19008KT 5000 -RADZ OVC002"
    },
    {
      "icao": "ESKN",
      "alert": "OK",
      "vis_m": 4000,
      "fzfg": false,
      "metar_trigger": false,
      "taf_trigger": false,
      "metar": "METAR ESKN 282320Z 11006KT 4000 BR OVC002 02/02 Q1011",
      "taf": "TAF ESKN 282030Z 2821/0121 VRB02KT 9999 BKN003"
    },
    {
      "icao": "ESMS",
      "alert": "OK",
      "vis_m": 9999,
      "fzfg": false,
      "metar_trigger": false,
      "taf_trigger": false,
      "metar": "METAR ESMS 282320Z 20010KT CAVOK 07/04 Q1014",
      "taf": "TAF ESMS 282027Z 2821/0121 19006KT 7000 BKN040"
    },
    {
      "icao": "ESSA",
      "alert": "OK",
      "vis_m": 2500,
      "fzfg": false,
      "metar_trigger": false,
      "taf_trigger": false,
      "metar": "METAR ESSA 282320Z 08007KT 2500 -RASN BR VV003 00/00 Q1013 TEMPO 5000 RADZ",
      "taf": ""
    },
    {
      "icao": "EYKA",
      "alert": "OK",
      "vis_m": 7000,
      "fzfg": false,
      "metar_trigger": false,
      "taf_trigger": false,
      "metar": "METAR EYKA 282320Z AUTO VRB01KT 7000 NCD 03/02 Q1019",
      "taf": "TAF EYKA 282323Z 0100/0124 VRB04KT 5000 BR SCT005"
    },
    {
      "icao": "EYPA",
      "alert": "OK",
      "vis_m": 3700,
      "fzfg": false,
      "metar_trigger": false,
      "taf_trigger": false,
      "metar": "METAR EYPA 282320Z AUTO 14003KT 3700 BR NCD 02/01 Q1017",
      "taf": "TAF EYPA 282322Z 0100/0124 VRB04KT 3000 BR SCT005"
    },
    {
      "icao": "EYVI",
      "alert": "OK",
      "vis_m": 9999,
      "fzfg": false,
      "metar_trigger": false,
      "taf_trigger": false,
      "metar": "METAR EYVI 282320Z 18006KT CAVOK 03/01 Q1020 NOSIG",
      "taf": "TAF EYVI 282324Z 0100/0124 VRB05KT 5000 BR SCT005"
    },
    {
      "icao": "GCFV",
      "alert": "OK",
      "vis_m": 9999,
      "fzfg": false,
      "metar_trigger": false,
      "taf_trigger": false,
      "metar": "METAR GCFV 282300Z 34016KT 9999 BKN030 17/10 Q1020",
      "taf": "TAF GCFV 282000Z 2821/0121 02022KT 9999 SCT025 TX21/0114Z TN15/0106Z"
    },
    {
      "icao": "GCLP",
      "alert": "OK",
      "vis_m": 9999,
      "fzfg": false,
      "metar_trigger": false,
      "taf_trigger": false,
      "metar": "METAR GCLP 282300Z 36018KT 9999 FEW028 BKN038 17/11 Q1020 NOSIG",
      "taf": "TAF GCLP 282000Z 2821/0121 01025KT 9999 SCT030 TX21/0114Z TN16/0106Z"
    },
    {
      "icao": "GCTS",
      "alert": "OK",
      "vis_m": 9999,
      "fzfg": false,
      "metar_trigger": false,
      "taf_trigger": false,
      "metar": "METAR GCTS 282300Z 07019G30KT 9999 BKN035 17/09 Q1021 NOSIG",
      "taf": "TAF GCTS 282000Z 2821/0121 06018KT 9999 FEW035 TX22/0114Z TN17/0106Z"
    },
    {
      "icao": "GMAD",
      "alert": "OK",
      "vis_m": 6000,
      "fzfg": false,
      "metar_trigger": false,
      "taf_trigger": false,
      "metar": "METAR GMAD 282300Z 36004KT 6000 NSC 15/13 Q1014 NOSIG",
      "taf": "TAF GMAD 282300Z 0100/0206 06005KT 6000 NSC"
    },
    {
      "icao": "GMMN",
      "alert": "OK",
      "vis_m": 9999,
      "fzfg": false,
      "metar_trigger": false,
      "taf_trigger": false,
      "metar": "METAR GMMN 282300Z 05006KT 020V080 9999 BKN013 14/11 Q1020 NOSIG",
      "taf": ""
    },
    {
      "icao": "GMMX",
      "alert": "OK",
      "vis_m": 8000,
      "fzfg": false,
      "metar_trigger": false,
      "taf_trigger": false,
      "metar": "METAR GMMX 282300Z 03008KT 8000 SCT020 BKN200 14/11 Q1018 NOSIG",
      "taf": "TAF GMMX 282300Z 0100/0206 28006KT 8000 BKN020 BKN200"
    },
    {
      "icao": "HEGN",
      "alert": "OK",
      "vis_m": 9999,
      "fzfg": false,
      "metar_trigger": false,
      "taf_trigger": false,
      "metar": "METAR HEGN 282300Z 29014KT CAVOK 14/04 Q1016 NOSIG",
      "taf": "TAF HEGN 282300Z 0100/0206 29012KT CAVOK"
    },
    {
      "icao": "HEMA",
      "alert": "OK",
      "vis_m": 9999,
      "fzfg": false,
      "metar_trigger": false,
      "taf_trigger": false,
      "metar": "METAR HEMA 282300Z 31010KT CAVOK 16/03 Q1015 NOSIG",
      "taf": "TAF HEMA 282300Z 0100/0206 28010KT CAVOK"
    },
    {
      "icao": "HESH",
      "alert": "OK",
      "vis_m": 9999,
      "fzfg": false,
      "metar_trigger": false,
      "taf_trigger": false,
      "metar": "METAR HESH 282300Z 35016KT CAVOK 16/M01 Q1015 NOSIG",
      "taf": "TAF HESH 282300Z 0100/0206 33012KT CAVOK"
    },
    {
      "icao": "HESX",
      "alert": "OK",
      "vis_m": 9999,
      "fzfg": false,
      "metar_trigger": false,
      "taf_trigger": false,
      "metar": "METAR HESX 282300Z 01005KT CAVOK 08/04 Q1019 NOSIG",
      "taf": "TAF HESX 282300Z 0100/0206 02010KT 9999 FEW025"
    },
    {
      "icao": "LATI",
      "alert": "OK",
      "vis_m": 2700,
      "fzfg": false,
      "metar_trigger": false,
      "taf_trigger": false,
      "metar": "METAR LATI 282320Z 16003KT 2700 BCFG NSC 06/04 Q1025 NOSIG",
      "taf": "TAF LATI 282300Z 0100/0124 VRB03KT 6000 NSC TX18/0112Z TN05/0104Z"
    },
    {
      "icao": "LBPD",
      "alert": "OK",
      "vis_m": 5000,
      "fzfg": false,
      "metar_trigger": false,
      "taf_trigger": false,
      "metar": "METAR LBPD 282330Z AUTO 28004KT 5000 BR NCD M03/M03 Q1029",
      "taf": "TAF LBPD 282300Z 0100/0124 VRB04KT 2000 BR SCT010"
    },
    {
      "icao": "LBSF",
      "alert": "OK",
      "vis_m": 9999,
      "fzfg": false,
      "metar_trigger": false,
      "taf_trigger": false,
      "metar": "METAR LBSF 282330Z AUTO 15004KT 9999 NCD M03/M07 Q1027 NOSIG",
      "taf": "TAF LBSF 282300Z 0100/0124 VRB04KT CAVOK"
    },
    {
      "icao": "LBWN",
      "alert": "OK",
      "vis_m": 9999,
      "fzfg": false,
      "metar_trigger": false,
      "taf_trigger": false,
      "metar": "METAR LBWN 282330Z AUTO VRB01KT 9999 OVC013/// 02/M00 Q1030 NOSIG",
      "taf": "TAF LBWN 282300Z 0100/0124 VRB03KT 9999 BKN015"
    },
    {
      "icao": "LCLK",
      "alert": "OK",
      "vis_m": 9999,
      "fzfg": false,
      "metar_trigger": false,
      "taf_trigger": false,
      "metar": "METAR LCLK 282300Z 30007KT 9999 FEW050 07/04 Q1019 NOSIG",
      "taf": "TAF LCLK 282330Z 0100/0200 34008KT 9999 FEW030"
    },
    {
      "icao": "LCPH",
      "alert": "OK",
      "vis_m": 9999,
      "fzfg": false,
      "metar_trigger": false,
      "taf_trigger": false,
      "metar": "METAR LCPH 282300Z 06008KT 010V080 9999 FEW025 07/00 Q1019 NOSIG",
      "taf": "TAF LCPH 282330Z 0100/0200 04008KT 9999 FEW030"
    },
    {
      "icao": "LEAL",
      "alert": "OK",
      "vis_m": 9999,
      "fzfg": false,
      "metar_trigger": false,
      "taf_trigger": false,
      "metar": "METAR LEAL 282300Z 06005KT 9999 BKN048 15/11 Q1025 NOSIG",
      "taf": "TAF LEAL 282300Z 0100/0124 32005KT 9999 BKN030 TX17/0112Z TN07/0107Z"
    },
    {
      "icao": "LEBB",
      "alert": "OK",
      "vis_m": 9999,
      "fzfg": false,
      "metar_trigger": false,
      "taf_trigger": false,
      "metar": "METAR LEBB 282300Z AUTO 10003KT CAVOK 06/05 Q1028",
      "taf": "TAF LEBB 282300Z 0100/0124 12006KT CAVOK TX19/0115Z TN03/0106Z"
    },
    {
      "icao": "LEBL",
      "alert": "OK",
      "vis_m": 9999,
      "fzfg": false,
      "metar_trigger": false,
      "taf_trigger": false,
      "metar": "METAR LEBL 282300Z VRB01KT 9999 FEW015 BKN029 BKN036 13/10 Q1026 NOSIG",
      "taf": "TAF LEBL 282300Z 0100/0124 VRB04KT 9999 FEW015 SCT040 BKN060 TX16/0113Z TN10/0106Z"
    },
    {
      "icao": "LECH",
      "alert": "OK",
      "vis_m": 9999,
      "fzfg": false,
      "metar_trigger": false,
      "taf_trigger": false,
      "metar": "METAR LECH 282300Z AUTO 04006KT 9999 OVC039 11/07 Q1026",
      "taf": ""
    },
    {
      "icao": "LEMD",
      "alert": "OK",
      "vis_m": 9999,
      "fzfg": false,
      "metar_trigger": false,
      "taf_trigger": false,
      "metar": "METAR LEMD 282300Z VRB01KT 9999 FEW040 09/06 Q1024 NOSIG",
      "taf": "TAF LEMD 282300Z 0100/0206 VRB05KT 9999 FEW030 TX16/0115Z TN02/0106Z"
    },
    {
      "icao": "LEMG",
      "alert": "OK",
      "vis_m": 9999,
      "fzfg": false,
      "metar_trigger": false,
      "taf_trigger": false,
      "metar": "METAR LEMG 282300Z 09003KT 9999 SCT015 OVC040 14/11 Q1024 NOSIG",
      "taf": "TAF LEMG 282300Z 0100/0124 11005KT 9999 BKN025 TX17/0114Z TN13/0106Z"
    },
    {
      "icao": "LEVC",
      "alert": "OK",
      "vis_m": 9999,
      "fzfg": false,
      "metar_trigger": false,
      "taf_trigger": false,
      "metar": "METAR LEVC 282300Z 35003KT 9999 FEW020 BKN052 13/09 Q1026 NOSIG",
      "taf": "TAF LEVC 282300Z 0100/0124 33005KT 9999 BKN030 TX17/0112Z TN06/0107Z"
    },
    {
      "icao": "LEXJ",
      "alert": "OK",
      "vis_m": 9999,
      "fzfg": false,
      "metar_trigger": false,
      "taf_trigger": false,
      "metar": "METAR LEXJ 282300Z VRB02KT CAVOK 06/04 Q1028",
      "taf": "TAF LEXJ 282000Z 2821/0121 20006KT CAVOK TX19/0115Z TN05/0105Z"
    },
    {
      "icao": "LEZG",
      "alert": "OK",
      "vis_m": 9999,
      "fzfg": false,
      "metar_trigger": false,
      "taf_trigger": false,
      "metar": "METAR LEZG 282300Z 27008KT CAVOK 08/05 Q1026 NOSIG",
      "taf": "TAF LEZG 282300Z 0100/0124 27008KT 9999 SCT060 TX17/0115Z TN03/0106Z"
    },
    {
      "icao": "LEZL",
      "alert": "OK",
      "vis_m": 9999,
      "fzfg": false,
      "metar_trigger": false,
      "taf_trigger": false,
      "metar": "METAR LEZL 282300Z 23004KT CAVOK 14/12 Q1022 NOSIG",
      "taf": "TAF LEZL 282000Z 2821/0121 22005KT CAVOK TX22/0115Z TN09/0107Z"
    },
    {
      "icao": "LFBD",
      "alert": "OK",
      "vis_m": 9999,
      "fzfg": false,
      "metar_trigger": false,
      "taf_trigger": false,
      "metar": "METAR LFBD 282300Z AUTO 23005KT CAVOK 06/05 Q1027 TEMPO 1500 MIFG",
      "taf": "TAF LFBD 282300Z 0100/0206 VRB03KT CAVOK TX16/0114Z TN03/0106Z"
    },
    {
      "icao": "LFLL",
      "alert": "OK",
      "vis_m": 9999,
      "fzfg": false,
      "metar_trigger": false,
      "taf_trigger": false,
      "metar": "METAR LFLL 282300Z 00000KT CAVOK 08/06 Q1026 NOSIG",
      "taf": "TAF LFLL 282300Z 0100/0206 VRB02KT CAVOK"
    },
    {
      "icao": "LFLS",
      "alert": "OK",
      "vis_m": 9999,
      "fzfg": false,
      "metar_trigger": false,
      "taf_trigger": false,
      "metar": "METAR LFLS 282300Z AUTO 00000KT 9999 OVC062 07/06 Q1026",
      "taf": "TAF LFLS 281400Z 2815/0115 VRB03KT 9999 BKN030"
    },
    {
      "icao": "LFMN",
      "alert": "OK",
      "vis_m": 9999,
      "fzfg": false,
      "metar_trigger": false,
      "taf_trigger": false,
      "metar": "METAR LFMN 282300Z 13003KT 9999 FEW020 BKN210 12/10 Q1024 NOSIG",
      "taf": "TAF LFMN 282000Z 2821/0203 09003KT 9999 SCT018 BKN050"
    },
    {
      "icao": "LFOB",
      "alert": "OK",
      "vis_m": 9999,
      "fzfg": false,
      "metar_trigger": false,
      "taf_trigger": false,
      "metar": "METAR LFOB 282300Z AUTO 13003KT CAVOK 02/02 Q1024 TEMPO 0700 BCFG",
      "taf": "TAF LFOB 282300Z 0100/0124 VRB03KT CAVOK"
    },
    {
      "icao": "LFPO",
      "alert": "OK",
      "vis_m": 9999,
      "fzfg": false,
      "metar_trigger": false,
      "taf_trigger": false,
      "metar": "METAR LFPO 282300Z AUTO 19004KT CAVOK 07/03 Q1025 NOSIG",
      "taf": "TAF LFPO 282300Z 0100/0206 19006KT CAVOK"
    },
    {
      "icao": "LFSB",
      "alert": "OK",
      "vis_m": 9999,
      "fzfg": false,
      "metar_trigger": false,
      "taf_trigger": false,
      "metar": "METAR LFSB 282300Z AUTO 17003KT CAVOK 08/05 Q1026 NOSIG",
      "taf": "TAF LFSB 282300Z 0100/0124 18003KT 9999 FEW040 BKN090"
    },
    {
      "icao": "LGAV",
      "alert": "OK",
      "vis_m": 9999,
      "fzfg": false,
      "metar_trigger": false,
      "taf_trigger": false,
      "metar": "METAR LGAV 282320Z 34007KT 9999 FEW040 09/02 Q1025 NOSIG",
      "taf": "TAF LGAV 282300Z 0100/0124 36015KT 9999 FEW018 SCT025"
    },
    {
      "icao": "LGTS",
      "alert": "OK",
      "vis_m": 9999,
      "fzfg": false,
      "metar_trigger": false,
      "taf_trigger": false,
      "metar": "METAR LGTS 282320Z 09004KT 9999 FEW012 BKN025 05/05 Q1028 NOSIG",
      "taf": "TAF LGTS 282300Z 0100/0124 12006KT 9999 FEW030"
    },
    {
      "icao": "LHBP",
      "alert": "OK",
      "vis_m": 9999,
      "fzfg": false,
      "metar_trigger": false,
      "taf_trigger": false,
      "metar": "METAR LHBP 282300Z 00000KT CAVOK 01/M02 Q1025 NOSIG",
      "taf": "TAF LHBP 282315Z 0100/0124 VRB02KT CAVOK"
    },
    {
      "icao": "LHDC",
      "alert": "OK",
      "vis_m": 6000,
      "fzfg": false,
      "metar_trigger": false,
      "taf_trigger": false,
      "metar": "METAR LHDC 282245Z AUTO 02001KT 6000 NCD 01/M01 Q1026",
      "taf": "TAF LHDC 281415Z 2815/2824 VRB03KT CAVOK"
    },
    {
      "icao": "LIBD",
      "alert": "OK",
      "vis_m": 2900,
      "fzfg": false,
      "metar_trigger": false,
      "taf_trigger": false,
      "metar": "METAR LIBD 282320Z AUTO 21004KT 2900 // BKN026/// BKN039/// 08/08 Q1024",
      "taf": "TAF LIBD 282300Z 0100/0124 VRB05KT 4000 BR FEW025"
    },
    {
      "icao": "LIBG",
      "alert": "OK",
      "vis_m": null,
      "fzfg": false,
      "metar_trigger": false,
      "taf_trigger": false,
      "metar": "",
      "taf": "TAF LIBG 281700Z 2818/0103 VRB05KT 9999 SCT020"
    },
    {
      "icao": "LIBP",
      "alert": "OK",
      "vis_m": 9999,
      "fzfg": false,
      "metar_trigger": false,
      "taf_trigger": false,
      "metar": "METAR LIBP 282320Z 25001KT 9999 OVC030 12/11 Q1024",
      "taf": "TAF LIBP 282300Z 0100/0124 VRB05KT 6000 BKN030"
    },
    {
      "icao": "LIBR",
      "alert": "OK",
      "vis_m": 9999,
      "fzfg": false,
      "metar_trigger": false,
      "taf_trigger": false,
      "metar": "METAR LIBR 282320Z 20002KT 9999 BKN035 12/10 Q1024",
      "taf": "TAF LIBR 282300Z 0100/0124 VRB05KT 6000 SCT020"
    },
    {
      "icao": "LICA",
      "alert": "OK",
      "vis_m": 9999,
      "fzfg": false,
      "metar_trigger": false,
      "taf_trigger": false,
      "metar": "METAR LICA 282320Z 06005KT CAVOK 08/08 Q1024",
      "taf": "TAF LICA 282300Z 0100/0124 VRB04KT 8000 FEW015"
    },
    {
      "icao": "LICC",
      "alert": "OK",
      "vis_m": 5000,
      "fzfg": false,
      "metar_trigger": false,
      "taf_trigger": false,
      "metar": "METAR LICC 282320Z 25006KT 5000 BR NSC 10/08 Q1024",
      "taf": "TAF LICC 282300Z 0100/0124 VRB05KT 4000 BR FEW025"
    },
    {
      "icao": "LICJ",
      "alert": "OK",
      "vis_m": 9999,
      "fzfg": false,
      "metar_trigger": false,
      "taf_trigger": false,
      "metar": "METAR LICJ 282320Z 11004KT CAVOK 11/09 Q1023",
      "taf": "TAF LICJ 282300Z 0100/0124 VRB05KT 9999 FEW015"
    },
    {
      "icao": "LIMC",
      "alert": "OK",
      "vis_m": 8000,
      "fzfg": false,
      "metar_trigger": false,
      "taf_trigger": false,
      "metar": "METAR LIMC 282320Z VRB01KT 8000 BKN050 10/08 Q1023 NOSIG",
      "taf": "TAF LIMC 282300Z 0100/0206 VRB04KT 9999 SCT030"
    },
    {
      "icao": "LIME",
      "alert": "OK",
      "vis_m": 9999,
      "fzfg": false,
      "metar_trigger": false,
      "taf_trigger": false,
      "metar": "METAR LIME 282320Z VRB02KT 9999 BKN035 11/08 Q1024 NOSIG",
      "taf": "TAF LIME 282300Z 0100/0124 VRB05KT 6000 BKN030"
    },
    {
      "icao": "LIMF",
      "alert": "OK",
      "vis_m": 7000,
      "fzfg": false,
      "metar_trigger": false,
      "taf_trigger": false,
      "metar": "METAR LIMF 282320Z 30004KT 7000 SCT050 09/06 Q1024",
      "taf": "TAF LIMF 282300Z 0100/0124 VRB04KT 6000 BKN030"
    },
    {
      "icao": "LIMJ",
      "alert": "OK",
      "vis_m": 9999,
      "fzfg": false,
      "metar_trigger": false,
      "taf_trigger": false,
      "metar": "METAR LIMJ 282320Z 34004KT 9999 BKN060 13/09 Q1024",
      "taf": "TAF LIMJ 282300Z 0100/0124 VRB05KT 9999 SCT020 BKN030"
    },
    {
      "icao": "LIPE",
      "alert": "OK",
      "vis_m": 400,
      "fzfg": false,
      "metar_trigger": false,
      "taf_trigger": false,
      "metar": "METAR LIPE 282320Z 08002KT 0400 R12/0450D R30/P2000N BCFG SCT060 06/06 Q1024",
      "taf": "TAF LIPE 282300Z 0100/0124 VRB04KT 2000 BR FEW050"
    },
    {
      "icao": "LIPH",
      "alert": "OK",
      "vis_m": 1000,
      "fzfg": false,
      "metar_trigger": false,
      "taf_trigger": false,
      "metar": "METAR LIPH 282320Z AUTO 07003KT 1000 0350W R07/1400D // VV002 08/08 Q1025",
      "taf": "TAF LIPH 282300Z 0100/0124 VRB04KT 0200 FG BKN002"
    },
    {
      "icao": "LIPQ",
      "alert": "OK",
      "vis_m": 200,
      "fzfg": false,
      "metar_trigger": false,
      "taf_trigger": false,
      "metar": "METAR LIPQ 282320Z AUTO 12005KT 0200 R09/0700N // VV002 08/08 Q1025",
      "taf": "TAF LIPQ 282300Z 0100/0124 VRB04KT 0200 FG OVC002"
    },
    {
      "icao": "LIPR",
      "alert": "OK",
      "vis_m": 2400,
      "fzfg": false,
      "metar_trigger": false,
      "taf_trigger": false,
      "metar": "METAR LIPR 282320Z AUTO VRB02KT 2400 // OVC003/// 08/07 Q1024",
      "taf": "TAF LIPR 282300Z 0100/0124 VRB04KT 2000 BR FEW050"
    },
    {
      "icao": "LIPX",
      "alert": "OK",
      "vis_m": 2000,
      "fzfg": false,
      "metar_trigger": false,
      "taf_trigger": false,
      "metar": "METAR LIPX 282320Z 09004KT 2000 BR BKN005 11/10 Q1024",
      "taf": "TAF LIPX 282300Z 0100/0124 VRB05KT 2000 BR SCT030"
    },
    {
      "icao": "LIPY",
      "alert": "OK",
      "vis_m": 1300,
      "fzfg": false,
      "metar_trigger": false,
      "taf_trigger": false,
      "metar": "METAR LIPY 282320Z AUTO 23002KT 1300 R22/P2000N // OVC002/// 10/09 Q1025",
      "taf": "TAF LIPY 282300Z 0100/0124 VRB04KT 2000 BCFG BKN015"
    },
    {
      "icao": "LIPZ",
      "alert": "OK",
      "vis_m": 150,
      "fzfg": false,
      "metar_trigger": false,
      "taf_trigger": false,
      "metar": "METAR LIPZ 282320Z 04005KT 0150 R04R/0700N FG VV002 08/08 Q1025 NOSIG",
      "taf": "TAF LIPZ 282300Z 0100/0206 VRB04KT 0200 FG OVC002"
    },
    {
      "icao": "LIRF",
      "alert": "OK",
      "vis_m": 9999,
      "fzfg": false,
      "metar_trigger": false,
      "taf_trigger": false,
      "metar": "METAR LIRF 282320Z 05002KT 9999 FEW040 09/07 Q1024 NOSIG",
      "taf": "TAF LIRF 282300Z 0100/0206 VRB06KT 9999 SCT040"
    },
    {
      "icao": "LIRN",
      "alert": "OK",
      "vis_m": 9999,
      "fzfg": false,
      "metar_trigger": false,
      "taf_trigger": false,
      "metar": "METAR LIRN 282320Z 05003KT CAVOK 11/08 Q1024 NOSIG",
      "taf": "TAF LIRN 282300Z 0100/0124 VRB05KT 8000 SCT030"
    },
    {
      "icao": "LIRP",
      "alert": "OK",
      "vis_m": 9999,
      "fzfg": false,
      "metar_trigger": false,
      "taf_trigger": false,
      "metar": "METAR LIRP 282315Z 15003KT 9999 FEW040 08/08 Q1025 NOSIG",
      "taf": "TAF LIRP 282300Z 0100/0124 VRB03KT 8000 BKN040"
    },
    {
      "icao": "LIRZ",
      "alert": "OK",
      "vis_m": 9999,
      "fzfg": false,
      "metar_trigger": false,
      "taf_trigger": false,
      "metar": "METAR LIRZ 282320Z AUTO VRB02KT 9999 // SCT041/// 07/05 Q1024",
      "taf": "TAF LIRZ 282300Z 0100/0124 VRB05KT 9999 FEW035"
    },
    {
      "icao": "LJLJ",
      "alert": "OK",
      "vis_m": 9999,
      "fzfg": false,
      "metar_trigger": false,
      "taf_trigger": false,
      "metar": "METAR LJLJ 282300Z 28004KT CAVOK 03/02 Q1024 NOSIG",
      "taf": "TAF LJLJ 282300Z 0100/0200 VRB02KT 9999 FEW060"
    },
    {
      "icao": "LKMT",
      "alert": "OK",
      "vis_m": 9999,
      "fzfg": false,
      "metar_trigger": false,
      "taf_trigger": false,
      "metar": "METAR LKMT 282300Z 24009KT CAVOK 03/01 Q1023 NOSIG",
      "taf": "TAF LKMT 282300Z 0100/0124 23008KT CAVOK"
    },
    {
      "icao": "LKPR",
      "alert": "OK",
      "vis_m": 9999,
      "fzfg": false,
      "metar_trigger": false,
      "taf_trigger": false,
      "metar": "METAR LKPR 282300Z 19006KT CAVOK 06/04 Q1022 NOSIG",
      "taf": "TAF LKPR 282300Z 0100/0206 22006KT CAVOK"
    },
    {
      "icao": "LLBG",
      "alert": "OK",
      "vis_m": 9999,
      "fzfg": false,
      "metar_trigger": false,
      "taf_trigger": false,
      "metar": "METAR LLBG 282320Z 14004KT CAVOK 09/04 Q1018 NOSIG",
      "taf": "TAF LLBG 282318Z 0100/0124 VRB04KT CAVOK TX17/0112Z TN06/0104Z"
    },
    {
      "icao": "LMML",
      "alert": "OK",
      "vis_m": 9999,
      "fzfg": false,
      "metar_trigger": false,
      "taf_trigger": false,
      "metar": "METAR LMML 282315Z VRB01KT 9999 FEW014 11/11 Q1024 NOSIG",
      "taf": "TAF LMML 282300Z 0100/0124 11005KT 9999 FEW015"
    },
    {
      "icao": "LOWW",
      "alert": "OK",
      "vis_m": 9999,
      "fzfg": false,
      "metar_trigger": false,
      "taf_trigger": false,
      "metar": "METAR LOWW 282320Z 20004KT CAVOK 04/00 Q1024 NOSIG",
      "taf": "TAF LOWW 282315Z 0100/0206 VRB03KT CAVOK TX12/0114Z TN02/0105Z"
    },
    {
      "icao": "LPFR",
      "alert": "OK",
      "vis_m": 9999,
      "fzfg": false,
      "metar_trigger": false,
      "taf_trigger": false,
      "metar": "METAR LPFR 282300Z 02006KT CAVOK 13/06 Q1021",
      "taf": "TAF LPFR 282300Z 0100/0124 01005KT CAVOK"
    },
    {
      "icao": "LPMA",
      "alert": "OK",
      "vis_m": 9999,
      "fzfg": false,
      "metar_trigger": false,
      "taf_trigger": false,
      "metar": "METAR LPMA 282300Z 01014KT 9999 SCT015 15/08 Q1026",
      "taf": "TAF LPMA 282300Z 0100/0124 01015KT 9999 SCT015"
    },
    {
      "icao": "LPPR",
      "alert": "OK",
      "vis_m": 9999,
      "fzfg": false,
      "metar_trigger": false,
      "taf_trigger": false,
      "metar": "METAR LPPR 282300Z 02003KT 360V060 CAVOK 08/06 Q1025",
      "taf": "TAF LPPR 282300Z 0100/0124 VRB02KT CAVOK"
    },
    {
      "icao": "LPPS",
      "alert": "OK",
      "vis_m": 9999,
      "fzfg": false,
      "metar_trigger": false,
      "taf_trigger": false,
      "metar": "METAR LPPS 282300Z 03010KT 350V060 9999 SCT014 BKN030 14/09 Q1026",
      "taf": "TAF LPPS 282300Z 0100/0206 03013KT 9999 SCT014 BKN030"
    },
    {
      "icao": "LPPT",
      "alert": "OK",
      "vis_m": 9999,
      "fzfg": false,
      "metar_trigger": false,
      "taf_trigger": false,
      "metar": "METAR LPPT 282300Z 32009KT CAVOK 10/07 Q1023",
      "taf": "TAF LPPT 282300Z 0100/0206 35010KT CAVOK"
    },
    {
      "icao": "LQBK",
      "alert": "OK",
      "vis_m": 9999,
      "fzfg": false,
      "metar_trigger": false,
      "taf_trigger": false,
      "metar": "METAR LQBK 282300Z VRB01KT CAVOK 03/02 Q1024 NOSIG",
      "taf": "TAF LQBK 282300Z 0100/0124 15005KT CAVOK TX17/0114Z TNM00/0106Z"
    },
    {
      "icao": "LQSA",
      "alert": "OK",
      "vis_m": 9999,
      "fzfg": false,
      "metar_trigger": false,
      "taf_trigger": false,
      "metar": "METAR LQSA 282300Z 11002KT CAVOK 03/02 Q1024",
      "taf": "TAF LQSA 282300Z 0100/0124 VRB02KT CAVOK TX19/0114Z TNM01/0105Z"
    },
    {
      "icao": "LQTZ",
      "alert": "OK",
      "vis_m": 9999,
      "fzfg": false,
      "metar_trigger": false,
      "taf_trigger": false,
      "metar": "METAR LQTZ 282300Z VRB01KT CAVOK 02/01 Q1024",
      "taf": "TAF LQTZ 282300Z 0100/0124 12005KT CAVOK TX18/0114Z TNM02/0106Z"
    },
    {
      "icao": "LRBC",
      "alert": "OK",
      "vis_m": 250,
      "fzfg": true,
      "metar_trigger": false,
      "taf_trigger": false,
      "metar": "METAR LRBC 282300Z 16010KT 0250 R16/0800N FZFG VV002 M01/M01 Q1028",
      "taf": "TAF LRBC 282300Z 0100/0109 16010KT 0300 FZFG VV001"
    },
    {
      "icao": "LRBS",
      "alert": "OK",
      "vis_m": 500,
      "fzfg": true,
      "metar_trigger": false,
      "taf_trigger": false,
      "metar": "METAR LRBS 282300Z 27004KT 230V300 0500 R07/1200D FZFG OVC001 M02/M03 Q1031 NOSIG",
      "taf": "TAF LRBS 282300Z 0100/0124 VRB04KT 0600 FZFG OVC001"
    },
    {
      "icao": "LRBV",
      "alert": "OK",
      "vis_m": 9999,
      "fzfg": false,
      "metar_trigger": false,
      "taf_trigger": false,
      "metar": "METAR LRBV 282300Z AUTO VRB02KT 9999 NCD M02/M03 Q1026",
      "taf": "TAF LRBV 282000Z 2821/0106 VRB04KT CAVOK"
    },
    {
      "icao": "LRCL",
      "alert": "OK",
      "vis_m": 9999,
      "fzfg": false,
      "metar_trigger": false,
      "taf_trigger": false,
      "metar": "METAR LRCL 282300Z 00000KT CAVOK M02/M04 Q1026",
      "taf": "TAF LRCL 282300Z 0100/0109 VRB04KT CAVOK"
    },
    {
      "icao": "LRCV",
      "alert": "OK",
      "vis_m": 2000,
      "fzfg": false,
      "metar_trigger": false,
      "taf_trigger": false,
      "metar": "METAR LRCV 282300Z 33004KT 2000 BR OVC002 M01/M01 Q1030",
      "taf": "TAF LRCV 282300Z 0100/0109 VRB04KT 1500 BR OVC002"
    },
    {
      "icao": "LRIA",
      "alert": "OK",
      "vis_m": 3000,
      "fzfg": false,
      "metar_trigger": false,
      "taf_trigger": false,
      "metar": "METAR LRIA 282300Z 10007KT 3000 BR BKN001 M02/M03 Q1028",
      "taf": "TAF LRIA 282300Z 0100/0109 12005KT 3000 BR BKN001"
    },
    {
      "icao": "LROP",
      "alert": "OK",
      "vis_m": 300,
      "fzfg": true,
      "metar_trigger": false,
      "taf_trigger": false,
      "metar": "METAR LROP 282300Z 25003KT 180V320 0300 R08R/0650N R08L/0550N FZFG VV001 M02/M02 Q1031 NOSIG",
      "taf": "TAF LROP 282300Z 0100/0124 VRB04KT 0300 FZFG VV001"
    },
    {
      "icao": "LRSB",
      "alert": "OK",
      "vis_m": 9999,
      "fzfg": false,
      "metar_trigger": false,
      "taf_trigger": false,
      "metar": "METAR LRSB 282300Z 22002KT CAVOK M02/M03 Q1026",
      "taf": "TAF LRSB 282300Z 0100/0124 VRB04KT CAVOK"
    },
    {
      "icao": "LRSM",
      "alert": "OK",
      "vis_m": 9999,
      "fzfg": false,
      "metar_trigger": false,
      "taf_trigger": false,
      "metar": "METAR LRSM 282300Z AUTO 06004KT 9999 NCD M01/M02 Q1026",
      "taf": ""
    },
    {
      "icao": "LRSV",
      "alert": "OK",
      "vis_m": 350,
      "fzfg": true,
      "metar_trigger": false,
      "taf_trigger": false,
      "metar": "METAR LRSV 282300Z VRB01KT 0350 R34/0500N FZFG VV001 M04/M05 Q1025",
      "taf": "TAF LRSV 282300Z 0100/0109 VRB04KT 0300 FZFG VV001"
    },
    {
      "icao": "LRTM",
      "alert": "OK",
      "vis_m": 9999,
      "fzfg": false,
      "metar_trigger": false,
      "taf_trigger": false,
      "metar": "METAR LRTM 282300Z AUTO 09005KT 9999 NCD M01/M03 Q1026",
      "taf": "TAF LRTM 281400Z 2815/2824 VRB04KT CAVOK"
    },
    {
      "icao": "LRTR",
      "alert": "OK",
      "vis_m": 9999,
      "fzfg": false,
      "metar_trigger": false,
      "taf_trigger": false,
      "metar": "METAR LRTR 282300Z 08006KT CAVOK 01/00 Q1026",
      "taf": "TAF LRTR 282300Z 0100/0124 09006KT CAVOK"
    },
    {
      "icao": "LTAC",
      "alert": "OK",
      "vis_m": 9999,
      "fzfg": false,
      "metar_trigger": false,
      "taf_trigger": false,
      "metar": "METAR LTAC 282320Z 05005KT 9999 FEW035 00/M04 Q1022 NOSIG RMK RWY21C 06003KT RWY03L 05004KT RWY21R 07004KT RWY03R 02006KT RWY21L 03004KT",
      "taf": "TAF LTAC 282240Z 0100/0124 01008KT 9999 SCT040"
    },
    {
      "icao": "LTFM",
      "alert": "OK",
      "vis_m": 9999,
      "fzfg": false,
      "metar_trigger": false,
      "taf_trigger": false,
      "metar": "METAR LTFM 282320Z 03010KT 9999 FEW016 BKN025 05/02 Q1028 NOSIG RMK RWY17L 04010KT RWY34L 03008KT RWY16R 04009KT RWY36 04011KT RWY18 05010KT",
      "taf": "TAF LTFM 282240Z 0100/0206 02010KT 9999 SCT016 BKN025"
    },
    {
      "icao": "LUKK",
      "alert": "OK",
      "vis_m": 6000,
      "fzfg": false,
      "metar_trigger": false,
      "taf_trigger": false,
      "metar": "METAR LUKK 282300Z 25003KT 6000 NSC M02/M03 Q1029 BECMG 5000 BR",
      "taf": "TAF LUKK 282305Z 0100/0124 VRB05KT 5000 BR NSC"
    },
    {
      "icao": "LWOH",
      "alert": "OK",
      "vis_m": null,
      "fzfg": false,
      "metar_trigger": false,
      "taf_trigger": false,
      "metar": "",
      "taf": "TAF LWOH 282330Z 0100/0124 VRB02KT CAVOK"
    },
    {
      "icao": "LWSK",
      "alert": "OK",
      "vis_m": 9999,
      "fzfg": false,
      "metar_trigger": false,
      "taf_trigger": false,
      "metar": "METAR LWSK 282250Z 06002KT CAVOK 01/M01 Q1027 NOSIG",
      "taf": "TAF LWSK 282330Z 0100/0124 VRB02KT CAVOK"
    },
    {
      "icao": "LYBE",
      "alert": "OK",
      "vis_m": 9999,
      "fzfg": false,
      "metar_trigger": false,
      "taf_trigger": false,
      "metar": "METAR LYBE 282300Z 10006KT CAVOK 04/M02 Q1025 NOSIG",
      "taf": "TAF LYBE 282300Z 0100/0124 09008KT CAVOK TX15/0113Z TN00/0106Z"
    },
    {
      "icao": "LYNI",
      "alert": "OK",
      "vis_m": 9999,
      "fzfg": false,
      "metar_trigger": false,
      "taf_trigger": false,
      "metar": "METAR LYNI 282300Z VRB02KT CAVOK M03/M03 Q1027 NOSIG",
      "taf": "TAF LYNI 282300Z 0100/0124 09005KT CAVOK TX16/0113Z TNM05/0105Z"
    },
    {
      "icao": "LYPG",
      "alert": "OK",
      "vis_m": 9999,
      "fzfg": false,
      "metar_trigger": false,
      "taf_trigger": false,
      "metar": "METAR LYPG 282300Z 35003KT CAVOK 06/05 Q1025 NOSIG",
      "taf": "TAF LYPG 282300Z 0100/0124 36005KT CAVOK TX18/0113Z TN02/0105Z"
    },
    {
      "icao": "LZIB",
      "alert": "OK",
      "vis_m": 9999,
      "fzfg": false,
      "metar_trigger": false,
      "taf_trigger": false,
      "metar": "METAR LZIB 282300Z 03008KT CAVOK 02/M00 Q1024 NOSIG",
      "taf": "TAF LZIB 282315Z 0100/0200 03004KT CAVOK"
    },
    {
      "icao": "LZKZ",
      "alert": "OK",
      "vis_m": 9999,
      "fzfg": false,
      "metar_trigger": false,
      "taf_trigger": false,
      "metar": "METAR LZKZ 282300Z 00000KT CAVOK 02/M01 Q1025 NOSIG",
      "taf": "TAF LZKZ 282315Z 0100/0200 VRB02KT CAVOK"
    },
    {
      "icao": "LZTT",
      "alert": "OK",
      "vis_m": 9999,
      "fzfg": false,
      "metar_trigger": false,
      "taf_trigger": false,
      "metar": "METAR LZTT 282300Z VRB01KT CAVOK M03/M04 Q1023",
      "taf": "TAF LZTT 282315Z 0100/0200 VRB02KT CAVOK"
    },
    {
      "icao": "OEJN",
      "alert": "OK",
      "vis_m": 9999,
      "fzfg": false,
      "metar_trigger": false,
      "taf_trigger": false,
      "metar": "METAR OEJN 282300Z 02004KT CAVOK 21/11 Q1011 NOSIG",
      "taf": "TAF OEJN 282300Z 0100/0206 03005KT CAVOK"
    },
    {
      "icao": "OEMA",
      "alert": "OK",
      "vis_m": 9999,
      "fzfg": false,
      "metar_trigger": false,
      "taf_trigger": false,
      "metar": "METAR OEMA 282300Z 23006KT CAVOK 20/02 Q1013 NOSIG",
      "taf": "TAF OEMA 282300Z 0100/0206 VRB03KT CAVOK"
    },
    {
      "icao": "OJAI",
      "alert": "OK",
      "vis_m": 5000,
      "fzfg": false,
      "metar_trigger": false,
      "taf_trigger": false,
      "metar": "METAR OJAI 282300Z 30005KT 5000 HZ NSC 03/M02 Q1019 NOSIG",
      "taf": "TAF OJAI 282300Z 0100/0206 31010KT 5000 HZ FEW030"
    },
    {
      "icao": "OMAA",
      "alert": "OK",
      "vis_m": 9999,
      "fzfg": false,
      "metar_trigger": false,
      "taf_trigger": false,
      "metar": "METAR OMAA 282300Z AUTO 09007KT CAVOK 20/08 Q1008 NOSIG",
      "taf": "TAF OMAA 282300Z 0100/0206 10005KT 8000 NSC"
    },
    {
      "icao": "OMDB",
      "alert": "OK",
      "vis_m": 7000,
      "fzfg": false,
      "metar_trigger": false,
      "taf_trigger": false,
      "metar": "METAR OMDB 282300Z 08003KT 7000 NSC 21/16 Q1009 NOSIG",
      "taf": "TAF OMDB 282300Z 0100/0206 11005KT 8000 NSC"
    },
    {
      "icao": "UAAA",
      "alert": "OK",
      "vis_m": 9999,
      "fzfg": false,
      "metar_trigger": false,
      "taf_trigger": false,
      "metar": "METAR UAAA 282300Z 02002MPS 360V060 9999 OVC017 M10/M13 Q1025 NOSIG",
      "taf": "TAF UAAA 282301Z 0100/0124 34003MPS 3100 BR FU BKN011 OVC020 TXM05/0108Z TNM14/0102Z"
    },
    {
      "icao": "UBBB",
      "alert": "OK",
      "vis_m": 9999,
      "fzfg": false,
      "metar_trigger": false,
      "taf_trigger": false,
      "metar": "METAR UBBB 282300Z 32014KT 9999 FEW015 BKN047 03/00 Q1021 NOSIG",
      "taf": "TAF UBBB 282302Z 0100/0124 32014KT 9999 SCT015 BKN035 TX06/0110Z TN02/0101Z"
    },
    {
      "icao": "UDSG",
      "alert": "OK",
      "vis_m": 4000,
      "fzfg": false,
      "metar_trigger": false,
      "taf_trigger": false,
      "metar": "METAR UDSG 282300Z 16001KT 4000 BR OVC033 M05/M05 Q1017 NOSIG",
      "taf": "TAF UDSG 282258Z 0100/0124 VRB06KT 5000 BR BKN030"
    },
    {
      "icao": "UDYZ",
      "alert": "OK",
      "vis_m": 9999,
      "fzfg": false,
      "metar_trigger": false,
      "taf_trigger": false,
      "metar": "METAR UDYZ 282300Z 03002KT 9999 SCT013 BKN042 02/M00 Q1017 NOSIG",
      "taf": "TAF UDYZ 282300Z 0100/0124 VRB06KT 6000 BKN030"
    },
    {
      "icao": "UGKO",
      "alert": "OK",
      "vis_m": 9999,
      "fzfg": false,
      "metar_trigger": false,
      "taf_trigger": false,
      "metar": "METAR UGKO 282300Z AUTO 29007KT 9999 FEW021/// SCT025/// BKN030/// 04/03 Q1021 NOSIG",
      "taf": "TAF UGKO 282300Z 0100/0124 26010KT 9999 SCT020 OVC030 TX07/0112Z TN04/0102Z"
    }
  ]
}