{
  "ts_utc": "2026-01-09T08:15:13Z",
  "threshold_m": 150,
  "source": "stations_override.txt (ICAO list) + aviationweather.gov (METAR/TAF raw)",
  "station_count": 159,
  "stations": [
    {
      "icao": "BIKF",
      "alert": "OK",
      "vis_m": 9999,
      "fzfg": false,
      "metar_trigger": false,
      "taf_trigger": false,
      "metar": "METAR BIKF 090800Z 05009KT 9999 FEW035 SCT170 M01/M06 Q1007",
      "taf": "TAF BIKF 090751Z 0909/1009 03010KT CAVOK TXM00/0916Z TNM05/1006Z"
    },
    {
      "icao": "BKPR",
      "alert": "OK",
      "vis_m": 9999,
      "fzfg": false,
      "metar_trigger": false,
      "taf_trigger": false,
      "metar": "METAR BKPR 090800Z VRB01KT CAVOK M06/M07 Q1011 NOSIG",
      "taf": "TAF BKPR 090530Z 0906/1006 VRB05KT 9999 SCT080"
    },
    {
      "icao": "EBCI",
      "alert": "OK",
      "vis_m": 6000,
      "fzfg": false,
      "metar_trigger": false,
      "taf_trigger": false,
      "metar": "METAR EBCI 090750Z 21027G39KT 6000 -RADZ FEW009 BKN011 03/01 Q0980 WS R24 TEMPO20020G45KT 4000 MODRADZ BKN008",
      "taf": "TAF EBCI 090500Z 0906/1012 21020G35KT 6000 -RA SCT003 BKN005"
    },
    {
      "icao": "EDDB",
      "alert": "OK",
      "vis_m": 9999,
      "fzfg": false,
      "metar_trigger": false,
      "taf_trigger": false,
      "metar": "METAR EDDB 090750Z AUTO 10009KT 070V130 CAVOK M07/M10 Q1003 NOSIG",
      "taf": "TAF EDDB 090500Z 0906/1006 09013KT 9999 FEW025"
    },
    {
      "icao": "EDDH",
      "alert": "OK",
      "vis_m": 2700,
      "fzfg": false,
      "metar_trigger": false,
      "taf_trigger": false,
      "metar": "METAR EDDH 090750Z AUTO 10018KT 2700 SN BR FEW019 SCT027 BKN039 M02/M05 Q0998 TEMPO 11020G35KT 0900 -SN BLSN BKN004",
      "taf": "TAF EDDH 090500Z 0906/1012 09015G25KT 9999 BKN015"
    },
    {
      "icao": "EDDK",
      "alert": "OK",
      "vis_m": 9999,
      "fzfg": false,
      "metar_trigger": false,
      "taf_trigger": false,
      "metar": "METAR EDDK 090750Z AUTO 16012KT 9999 FEW028 06/03 Q0986 TEMPO 14015G25KT",
      "taf": "TAF EDDK 090500Z 0906/1012 16013KT 9999 OVC030"
    },
    {
      "icao": "EDDN",
      "alert": "OK",
      "vis_m": 9999,
      "fzfg": false,
      "metar_trigger": false,
      "taf_trigger": false,
      "metar": "METAR EDDN 090750Z AUTO 12008KT 9999 SCT049 02/01 Q0995 NOSIG",
      "taf": "TAF EDDN 090500Z 0906/1006 13010KT 9999 FEW015 BKN025"
    },
    {
      "icao": "EDDS",
      "alert": "OK",
      "vis_m": 9999,
      "fzfg": false,
      "metar_trigger": false,
      "taf_trigger": false,
      "metar": "METAR EDDS 090750Z COR AUTO 23013G25KT 180V270 CAVOK 07/01 Q0994 NOSIG",
      "taf": "TAF EDDS 090500Z 0906/1006 20010KT 9999 SCT030"
    },
    {
      "icao": "EDFH",
      "alert": "OK",
      "vis_m": 9999,
      "fzfg": false,
      "metar_trigger": false,
      "taf_trigger": false,
      "metar": "METAR EDFH 090750Z 21023G37KT 9999 -RA FEW013 SCT015 OVC027 04/02 Q0987",
      "taf": "TAF EDFH 090500Z 0906/1006 22020G35KT 9999 SCT010 BKN030"
    },
    {
      "icao": "EDJA",
      "alert": "OK",
      "vis_m": 9999,
      "fzfg": false,
      "metar_trigger": false,
      "taf_trigger": false,
      "metar": "METAR EDJA 090750Z 24021G32KT 9999 SCT013 04/01 Q0998",
      "taf": "TAF EDJA 090500Z 0906/0915 23015G25KT 9999 SCT020 BKN035"
    },
    {
      "icao": "EDLW",
      "alert": "OK",
      "vis_m": 9999,
      "fzfg": false,
      "metar_trigger": false,
      "taf_trigger": false,
      "metar": "METAR EDLW 090750Z 14011KT 9999 FEW048 06/03 Q0985",
      "taf": "TAF EDLW 090500Z 0906/1006 15012KT 9999 SCT040"
    },
    {
      "icao": "EDNY",
      "alert": "OK",
      "vis_m": 9999,
      "fzfg": false,
      "metar_trigger": false,
      "taf_trigger": false,
      "metar": "METAR EDNY 090750Z 21013KT 9999 FEW060 05/02 Q0999",
      "taf": ""
    },
    {
      "icao": "EDSB",
      "alert": "OK",
      "vis_m": 9999,
      "fzfg": false,
      "metar_trigger": false,
      "taf_trigger": false,
      "metar": "METAR EDSB 090750Z 20021KT 9999 FEW047 07/03 Q0994",
      "taf": "TAF EDSB 090500Z 0906/1006 20020G30KT 9999 SCT030"
    },
    {
      "icao": "EETN",
      "alert": "OK",
      "vis_m": 9999,
      "fzfg": false,
      "metar_trigger": false,
      "taf_trigger": false,
      "metar": "METAR EETN 090750Z 07014KT 9999 BKN026 M05/M10 Q1020 NOSIG",
      "taf": "TAF EETN 090530Z 0906/1006 07014KT 9999 DRSN SCT020"
    },
    {
      "icao": "EFTU",
      "alert": "OK",
      "vis_m": 9999,
      "fzfg": false,
      "metar_trigger": false,
      "taf_trigger": false,
      "metar": "METAR EFTU 090750Z AUTO 08007KT CAVOK M14/M17 Q1024",
      "taf": "TAF EFTU 090528Z 0906/1006 08006KT 9999 BKN025"
    },
    {
      "icao": "EGBB",
      "alert": "OK",
      "vis_m": 9999,
      "fzfg": false,
      "metar_trigger": false,
      "taf_trigger": false,
      "metar": "METAR EGBB 090750Z 32014KT 9999 -RA FEW025 BKN032 02/01 Q0993",
      "taf": ""
    },
    {
      "icao": "EGGP",
      "alert": "OK",
      "vis_m": 9999,
      "fzfg": false,
      "metar_trigger": false,
      "taf_trigger": false,
      "metar": "METAR EGGP 090750Z 33011KT 9999 BKN028 BKN034 04/00 Q0996",
      "taf": "TAF EGGP 090453Z 0906/1006 34012KT 9999 SCT016"
    },
    {
      "icao": "EGGW",
      "alert": "OK",
      "vis_m": 5000,
      "fzfg": false,
      "metar_trigger": false,
      "taf_trigger": false,
      "metar": "METAR EGGW 090750Z AUTO 33022KT 5000 -RADZ OVC005 01/01 Q0988",
      "taf": "TAF EGGW 090458Z 0906/1006 31020G30KT 9999 BKN005"
    },
    {
      "icao": "EGKK",
      "alert": "OK",
      "vis_m": 9999,
      "fzfg": false,
      "metar_trigger": false,
      "taf_trigger": false,
      "metar": "METAR EGKK 090750Z 31018KT 9999 -RA BKN009 02/02 Q0988",
      "taf": "TAF EGKK 090453Z 0906/1012 31016G26KT 9999 SCT010 BKN020"
    },
    {
      "icao": "EGNM",
      "alert": "OK",
      "vis_m": 9999,
      "fzfg": false,
      "metar_trigger": false,
      "taf_trigger": false,
      "metar": "METAR EGNM 090750Z 33011KT 9999 FEW020 BKN035 02/01 Q0994",
      "taf": "TAF EGNM 090455Z 0906/1006 01012KT 9999 BKN018"
    },
    {
      "icao": "EGPD",
      "alert": "OK",
      "vis_m": 9999,
      "fzfg": false,
      "metar_trigger": false,
      "taf_trigger": false,
      "metar": "METAR EGPD 090750Z AUTO 23003KT 190V270 9999 FEW028/// BKN033/// OVC049/// //////CB M03/M03 Q1000 NOSIG",
      "taf": "TAF EGPD 090455Z 0906/1006 VRB03KT 9999 FEW009"
    },
    {
      "icao": "EGPF",
      "alert": "OK",
      "vis_m": 9999,
      "fzfg": false,
      "metar_trigger": false,
      "taf_trigger": false,
      "metar": "METAR EGPF 090750Z AUTO 24004KT 9999 NCD M01/M02 Q1000",
      "taf": "TAF EGPF 090504Z 0906/1006 VRB03KT 9999 SCT025"
    },
    {
      "icao": "EHBK",
      "alert": "OK",
      "vis_m": 9999,
      "fzfg": false,
      "metar_trigger": false,
      "taf_trigger": false,
      "metar": "METAR EHBK 090755Z AUTO 19020KT 160V220 9999 -DZ FEW019/// BKN022/// BKN026/// 05/02 Q0982 NOSIG",
      "taf": "TAF EHBK 090516Z 0906/1012 19018G28KT 9999 -RADZ BKN035"
    },
    {
      "icao": "EHEH",
      "alert": "OK",
      "vis_m": 9999,
      "fzfg": false,
      "metar_trigger": false,
      "taf_trigger": false,
      "metar": "METAR EHEH 090755Z AUTO 16015KT 120V200 9999 -RA SCT017 BKN024 BKN028 05/03 Q0980 RERA REDZ WHT TEMPO 17012G25KT 4000 -RA SCT015 BKN020 RMK TREND REMOTE BY EHWX",
      "taf": "TAF EHEH 090549Z 0906/1012 16010KT 9999 SCT018 BKN030"
    },
    {
      "icao": "EKBI",
      "alert": "OK",
      "vis_m": 9999,
      "fzfg": false,
      "metar_trigger": false,
      "taf_trigger": false,
      "metar": "METAR EKBI 090750Z AUTO 09022G32KT 9999 -SN FEW024/// BKN200/// M02/M05 Q1004",
      "taf": "TAF EKBI 090527Z 0906/1006 09018KT 9000 BKN012"
    },
    {
      "icao": "EKCH",
      "alert": "OK",
      "vis_m": 9999,
      "fzfg": false,
      "metar_trigger": false,
      "taf_trigger": false,
      "metar": "METAR EKCH 090750Z AUTO 09020G30KT 9999 BKN040/// M00/M05 Q1008 TEMPO 12015G28KT",
      "taf": "TAF EKCH 090527Z 0906/1006 10018KT 9999 BKN035"
    },
    {
      "icao": "ENAL",
      "alert": "OK",
      "vis_m": 9999,
      "fzfg": false,
      "metar_trigger": false,
      "taf_trigger": false,
      "metar": "METAR ENAL 090750Z 14013KT CAVOK M01/M08 Q1009",
      "taf": "TAF ENAL 090500Z 0906/0915 14012KT CAVOK"
    },
    {
      "icao": "ENBR",
      "alert": "OK",
      "vis_m": 9999,
      "fzfg": false,
      "metar_trigger": false,
      "taf_trigger": false,
      "metar": "METAR ENBR 090750Z 12002KT CAVOK M07/M12 Q1008 NOSIG RMK WIND 1200FT 11010KT",
      "taf": "TAF ENBR 090500Z 0906/1006 06005KT CAVOK"
    },
    {
      "icao": "ENGM",
      "alert": "OK",
      "vis_m": 9999,
      "fzfg": false,
      "metar_trigger": false,
      "taf_trigger": false,
      "metar": "METAR ENGM 090750Z 03004KT 9999 -SN OVC043 M08/M09 Q1016 TEMPO 4000",
      "taf": ""
    },
    {
      "icao": "ENHD",
      "alert": "OK",
      "vis_m": 9999,
      "fzfg": false,
      "metar_trigger": false,
      "taf_trigger": false,
      "metar": "METAR ENHD 090750Z 10008KT 070V130 CAVOK 00/M08 Q1008",
      "taf": "TAF ENHD 090500Z 0906/0915 10008KT CAVOK"
    },
    {
      "icao": "ENTC",
      "alert": "OK",
      "vis_m": 9999,
      "fzfg": false,
      "metar_trigger": false,
      "taf_trigger": false,
      "metar": "METAR ENTC 090750Z 00000KT CAVOK M11/M15 Q1024 NOSIG RMK WIND 2600FT 18025KT",
      "taf": "TAF ENTC 090500Z 0906/1006 20005KT CAVOK"
    },
    {
      "icao": "ENTO",
      "alert": "OK",
      "vis_m": 9999,
      "fzfg": false,
      "metar_trigger": false,
      "taf_trigger": false,
      "metar": "METAR ENTO 090750Z 02007KT 9999 OVC043 M07/M08 Q1015 NOSIG",
      "taf": "TAF ENTO 090500Z 0906/1006 03010KT 9999 -SN SCT012 BKN020"
    },
    {
      "icao": "ENVA",
      "alert": "OK",
      "vis_m": 9999,
      "fzfg": false,
      "metar_trigger": false,
      "taf_trigger": false,
      "metar": "METAR ENVA 090720Z 07005KT 330V130 CAVOK M05/M15 Q1012 TEMPO 15015G25KT RMK WIND 670FT 15018KT",
      "taf": "TAF ENVA 090500Z 0906/1006 10008KT CAVOK"
    },
    {
      "icao": "ENZV",
      "alert": "OK",
      "vis_m": 9999,
      "fzfg": false,
      "metar_trigger": false,
      "taf_trigger": false,
      "metar": "METAR ENZV 090750Z 10008KT CAVOK 00/M09 Q1008 NOSIG",
      "taf": "TAF ENZV 090500Z 0906/1006 12008KT CAVOK"
    },
    {
      "icao": "EPGD",
      "alert": "OK",
      "vis_m": 8000,
      "fzfg": false,
      "metar_trigger": false,
      "taf_trigger": false,
      "metar": "METAR EPGD 090800Z 27002KT 8000 NSC M09/M10 Q1008",
      "taf": "TAF EPGD 090530Z 0906/1006 06006KT 9999 SCT015"
    },
    {
      "icao": "EPKK",
      "alert": "OK",
      "vis_m": 9999,
      "fzfg": false,
      "metar_trigger": false,
      "taf_trigger": false,
      "metar": "METAR EPKK 090800Z 24006KT 9999 BKN010 M08/M10 Q1005",
      "taf": "TAF EPKK 090530Z 0906/1006 26006KT 9999 BKN013"
    },
    {
      "icao": "EPKT",
      "alert": "OK",
      "vis_m": 1000,
      "fzfg": false,
      "metar_trigger": false,
      "taf_trigger": false,
      "metar": "METAR EPKT 090800Z 02002KT 1000 0300NW R26/P2000N BCFG BR SCT000 BKN007 M12/M14 Q1004",
      "taf": ""
    },
    {
      "icao": "EPLB",
      "alert": "OK",
      "vis_m": 3700,
      "fzfg": false,
      "metar_trigger": false,
      "taf_trigger": false,
      "metar": "METAR EPLB 090800Z 30013KT 3700 -SN DRSN BR SCT009 BKN013 OVC032 M09/M10 Q1001",
      "taf": "TAF EPLB 090530Z 0906/1006 30012KT 8000 -SN BKN013 BKN030"
    },
    {
      "icao": "EPMO",
      "alert": "OK",
      "vis_m": 8000,
      "fzfg": false,
      "metar_trigger": false,
      "taf_trigger": false,
      "metar": "METAR EPMO 090800Z 31008KT 8000 NSC M12/M13 Q1004",
      "taf": "TAF EPMO 090530Z 0906/1006 31008KT 8000 NSC"
    },
    {
      "icao": "EPPO",
      "alert": "OK",
      "vis_m": 5000,
      "fzfg": false,
      "metar_trigger": false,
      "taf_trigger": false,
      "metar": "METAR EPPO 090800Z 10004KT 5000 BR BKN002 M12/M14 Q1006",
      "taf": "TAF EPPO 090530Z 0906/1006 08003KT 3500 BR OVC002"
    },
    {
      "icao": "EPRA",
      "alert": "OK",
      "vis_m": 7000,
      "fzfg": false,
      "metar_trigger": false,
      "taf_trigger": false,
      "metar": "METAR EPRA 090800Z 30009KT 7000 -SN BKN007 OVC030 M10/M12 Q1003",
      "taf": "TAF EPRA 090530Z 0906/0915 32010KT 8000 OVC007"
    },
    {
      "icao": "EPRZ",
      "alert": "OK",
      "vis_m": 9999,
      "fzfg": false,
      "metar_trigger": false,
      "taf_trigger": false,
      "metar": "METAR EPRZ 090800Z 26019KT 9999 BKN009 M08/M10 Q1003",
      "taf": "TAF EPRZ 090530Z 0906/1006 31015KT 9999 -SN OVC013"
    },
    {
      "icao": "EPSC",
      "alert": "OK",
      "vis_m": 9999,
      "fzfg": false,
      "metar_trigger": false,
      "taf_trigger": false,
      "metar": "METAR EPSC 090800Z 07009KT CAVOK M10/M12 Q1006",
      "taf": "TAF EPSC 090530Z 0906/1006 10008KT CAVOK"
    },
    {
      "icao": "EPSY",
      "alert": "OK",
      "vis_m": 9999,
      "fzfg": false,
      "metar_trigger": false,
      "taf_trigger": false,
      "metar": "METAR EPSY 090800Z 34008KT CAVOK M12/M13 Q1005",
      "taf": "TAF EPSY 090530Z 0906/0915 01010KT 9999 SCT030"
    },
    {
      "icao": "EPWA",
      "alert": "OK",
      "vis_m": 9999,
      "fzfg": false,
      "metar_trigger": false,
      "taf_trigger": false,
      "metar": "METAR EPWA 090800Z 29009KT 9999 SCT007 SCT045 M11/M12 Q1004 NOSIG",
      "taf": "TAF EPWA 090530Z 0906/1006 31011KT 9999 BKN008"
    },
    {
      "icao": "EPWR",
      "alert": "OK",
      "vis_m": 3500,
      "fzfg": false,
      "metar_trigger": false,
      "taf_trigger": false,
      "metar": "METAR EPWR 090800Z 10007KT 3500 BR FEW002 M11/M12 Q1005",
      "taf": ""
    },
    {
      "icao": "ESGG",
      "alert": "OK",
      "vis_m": 9999,
      "fzfg": false,
      "metar_trigger": false,
      "taf_trigger": false,
      "metar": "METAR ESGG 090750Z 08010KT CAVOK M05/M08 Q1012",
      "taf": "TAF ESGG 090530Z 0906/1006 11010KT 9999 SCT040"
    },
    {
      "icao": "ESKN",
      "alert": "OK",
      "vis_m": 9999,
      "fzfg": false,
      "metar_trigger": false,
      "taf_trigger": false,
      "metar": "METAR ESKN 090750Z 05008KT 9999 FEW023 BKN031 M03/M05 Q1018",
      "taf": "TAF ESKN 090530Z 0906/1006 08010KT 9999 BKN030"
    },
    {
      "icao": "ESMS",
      "alert": "OK",
      "vis_m": 9999,
      "fzfg": false,
      "metar_trigger": false,
      "taf_trigger": false,
      "metar": "METAR ESMS 090750Z 09017KT 9999 SCT027 BKN035 M01/M06 Q1008",
      "taf": "TAF ESMS 090527Z 0906/1006 10012KT 9999 FEW030"
    },
    {
      "icao": "ESSA",
      "alert": "OK",
      "vis_m": 9999,
      "fzfg": false,
      "metar_trigger": false,
      "taf_trigger": false,
      "metar": "METAR ESSA 090750Z 08011KT 9999 BKN034 M03/M06 Q1019 NOSIG",
      "taf": "TAF ESSA 090530Z 0906/1006 10007KT CAVOK"
    },
    {
      "icao": "EYKA",
      "alert": "OK",
      "vis_m": 1800,
      "fzfg": false,
      "metar_trigger": false,
      "taf_trigger": false,
      "metar": "METAR EYKA 090750Z 36015KT 320V030 1800 +SN BKN018 OVC023 M11/M13 Q1004",
      "taf": "TAF EYKA 090505Z 0906/1006 01015G28KT 3000 SN BKN015 OVC030"
    },
    {
      "icao": "EYPA",
      "alert": "OK",
      "vis_m": 9999,
      "fzfg": false,
      "metar_trigger": false,
      "taf_trigger": false,
      "metar": "METAR EYPA 090750Z 05015KT CAVOK M08/M10 Q1010",
      "taf": ""
    },
    {
      "icao": "EYVI",
      "alert": "OK",
      "vis_m": 1100,
      "fzfg": false,
      "metar_trigger": false,
      "taf_trigger": false,
      "metar": "METAR EYVI 090750Z 01018KT 1100 R01/1200V1700N SN BLSN OVC012 M11/M14 Q1000 NOSIG",
      "taf": "TAF EYVI 090500Z 0906/1006 02015KT 1500 SN BLSN SCT010 OVC015"
    },
    {
      "icao": "GCFV",
      "alert": "OK",
      "vis_m": 9999,
      "fzfg": false,
      "metar_trigger": false,
      "taf_trigger": false,
      "metar": "METAR GCFV 090800Z 32007KT 9999 FEW025 14/09 Q1030",
      "taf": ""
    },
    {
      "icao": "GCLP",
      "alert": "OK",
      "vis_m": 9999,
      "fzfg": false,
      "metar_trigger": false,
      "taf_trigger": false,
      "metar": "METAR GCLP 090800Z 31007KT 280V340 9999 FEW025 15/10 Q1030 NOSIG",
      "taf": "TAF GCLP 090200Z 0903/1003 33008KT 9999 FEW030 TX20/0914Z TN14/0906Z"
    },
    {
      "icao": "GCTS",
      "alert": "OK",
      "vis_m": 9999,
      "fzfg": false,
      "metar_trigger": false,
      "taf_trigger": false,
      "metar": "METAR GCTS 090800Z 04013KT 9999 FEW025 16/09 Q1030 NOSIG",
      "taf": "TAF GCTS 090200Z 0903/1003 03010KT 9999 FEW035 TX22/0914Z TN15/0906Z"
    },
    {
      "icao": "GMAD",
      "alert": "OK",
      "vis_m": 9999,
      "fzfg": false,
      "metar_trigger": false,
      "taf_trigger": false,
      "metar": "METAR GMAD 090800Z 07008KT CAVOK 06/05 Q1030 NOSIG",
      "taf": "TAF GMAD 090500Z 0906/1012 05005KT CAVOK"
    },
    {
      "icao": "GMMN",
      "alert": "OK",
      "vis_m": 6000,
      "fzfg": false,
      "metar_trigger": false,
      "taf_trigger": false,
      "metar": "METAR GMMN 090800Z 17003KT 6000 BKN030 07/06 Q1031 NOSIG",
      "taf": "TAF GMMN 090500Z 0906/1012 15004KT 9999 SCT030"
    },
    {
      "icao": "GMMX",
      "alert": "OK",
      "vis_m": 8000,
      "fzfg": false,
      "metar_trigger": false,
      "taf_trigger": false,
      "metar": "METAR GMMX 090800Z VRB02KT 8000 NSC 05/04 Q1030 NOSIG",
      "taf": "TAF GMMX 090500Z 0906/1012 24004KT 8000 NSC"
    },
    {
      "icao": "HEGN",
      "alert": "OK",
      "vis_m": 9999,
      "fzfg": false,
      "metar_trigger": false,
      "taf_trigger": false,
      "metar": "METAR HEGN 090700Z 32005KT CAVOK 22/10 Q1015 NOSIG",
      "taf": "TAF HEGN 090500Z 0906/1012 32015G30KT 6000 NSC"
    },
    {
      "icao": "HEMA",
      "alert": "OK",
      "vis_m": 9999,
      "fzfg": false,
      "metar_trigger": false,
      "taf_trigger": false,
      "metar": "METAR HEMA 090700Z 19008KT CAVOK 19/14 Q1014 NOSIG",
      "taf": "TAF HEMA 090500Z 0906/1012 32008G20KT 6000 NSC"
    },
    {
      "icao": "HESH",
      "alert": "OK",
      "vis_m": 8000,
      "fzfg": false,
      "metar_trigger": false,
      "taf_trigger": false,
      "metar": "METAR HESH 090700Z 16007KT 8000 NSC 21/17 Q1013 NOSIG",
      "taf": "TAF HESH 090500Z 0906/1012 34010G22KT 6000 NSC"
    },
    {
      "icao": "HESX",
      "alert": "OK",
      "vis_m": 9999,
      "fzfg": false,
      "metar_trigger": false,
      "taf_trigger": false,
      "metar": "METAR HESX 090700Z 30012KT CAVOK 15/08 Q1018 NOSIG",
      "taf": "TAF HESX 090500Z 0906/1012 27015KT 6000 SCT025"
    },
    {
      "icao": "LATI",
      "alert": "OK",
      "vis_m": 9999,
      "fzfg": false,
      "metar_trigger": false,
      "taf_trigger": false,
      "metar": "METAR LATI 090750Z 14005KT 9999 SCT043 BKN075 04/M02 Q1015 NOSIG",
      "taf": "TAF LATI 090500Z 0906/1006 VRB05KT CAVOK TX14/0921Z TN01/0906Z"
    },
    {
      "icao": "LBPD",
      "alert": "OK",
      "vis_m": 9999,
      "fzfg": false,
      "metar_trigger": false,
      "taf_trigger": false,
      "metar": "METAR LBPD 090800Z AUTO 30014KT 9999 NCD 03/M08 Q1009 NOSIG",
      "taf": "TAF LBPD 090500Z 0906/1006 29010KT 9999 SCT050"
    },
    {
      "icao": "LBSF",
      "alert": "OK",
      "vis_m": 9999,
      "fzfg": false,
      "metar_trigger": false,
      "taf_trigger": false,
      "metar": "METAR LBSF 090800Z VRB03KT CAVOK M03/M08 Q1010 NOSIG",
      "taf": "TAF LBSF 090500Z 0906/1006 VRB04KT 9999 SCT030"
    },
    {
      "icao": "LBWN",
      "alert": "OK",
      "vis_m": 9999,
      "fzfg": false,
      "metar_trigger": false,
      "taf_trigger": false,
      "metar": "METAR LBWN 090800Z 28019KT CAVOK M02/M07 Q1007 NOSIG",
      "taf": "TAF LBWN 090500Z 0906/1006 28018G28KT CAVOK"
    },
    {
      "icao": "LCLK",
      "alert": "OK",
      "vis_m": 9999,
      "fzfg": false,
      "metar_trigger": false,
      "taf_trigger": false,
      "metar": "METAR LCLK 090800Z 24016KT 9999 FEW020 FEW030TCU FEW035CB SCT060 17/09 Q1008 NOSIG RMK CB TO SW NW",
      "taf": "TAF LCLK 090530Z 0906/1006 24014KT 9999 FEW020 SCT040"
    },
    {
      "icao": "LCPH",
      "alert": "OK",
      "vis_m": 9999,
      "fzfg": false,
      "metar_trigger": false,
      "taf_trigger": false,
      "metar": "METAR LCPH 090800Z 30018KT 250V320 9999 R29/1600 R11/0700 FEW025 FEW030CB SCT050 BKN070 15/08 Q1009 TEMPO 5000 TSRA BKN005",
      "taf": "TAF LCPH 090530Z 0906/1006 30025G35KT 9999 FEW025 SCT040"
    },
    {
      "icao": "LEAL",
      "alert": "OK",
      "vis_m": 9999,
      "fzfg": false,
      "metar_trigger": false,
      "taf_trigger": false,
      "metar": "METAR LEAL 090800Z 26005KT CAVOK 12/05 Q1023 NOSIG",
      "taf": "TAF LEAL 090500Z 0906/1006 23008KT CAVOK TX18/0914Z TN10/0906Z"
    },
    {
      "icao": "LEBB",
      "alert": "OK",
      "vis_m": 9999,
      "fzfg": false,
      "metar_trigger": false,
      "taf_trigger": false,
      "metar": "METAR LEBB 090800Z 25003KT 160V300 9999 -RA SCT040 BKN055 10/07 Q1016 NOSIG",
      "taf": "TAF LEBB 090500Z 0906/1006 29009KT 9999 FEW020 SCT040 TX12/0914Z TN07/0923Z"
    },
    {
      "icao": "LEBL",
      "alert": "OK",
      "vis_m": 9999,
      "fzfg": false,
      "metar_trigger": false,
      "taf_trigger": false,
      "metar": "METAR LEBL 090800Z 20005KT 150V270 9999 FEW025 13/05 Q1015 NOSIG",
      "taf": ""
    },
    {
      "icao": "LECH",
      "alert": "OK",
      "vis_m": 9999,
      "fzfg": false,
      "metar_trigger": false,
      "taf_trigger": false,
      "metar": "METAR LECH 090800Z AUTO 30003KT 210V340 CAVOK 08/02 Q1018",
      "taf": ""
    },
    {
      "icao": "LEMD",
      "alert": "OK",
      "vis_m": 9999,
      "fzfg": false,
      "metar_trigger": false,
      "taf_trigger": false,
      "metar": "METAR LEMD 090800Z 22009KT 9999 FEW011 SCT050 07/06 Q1022 NOSIG",
      "taf": "TAF LEMD 090500Z 0906/1012 23010KT 9999 SCT030 TX11/0912Z TN01/1006Z"
    },
    {
      "icao": "LEMG",
      "alert": "OK",
      "vis_m": 9999,
      "fzfg": false,
      "metar_trigger": false,
      "taf_trigger": false,
      "metar": "METAR LEMG 090800Z 30008KT 260V330 9999 FEW030 10/07 Q1028 NOSIG",
      "taf": "TAF LEMG 090500Z 0906/1006 29013KT CAVOK TX18/0914Z TN08/0906Z"
    },
    {
      "icao": "LEVC",
      "alert": "OK",
      "vis_m": 9999,
      "fzfg": false,
      "metar_trigger": false,
      "taf_trigger": false,
      "metar": "METAR LEVC 090800Z 26016KT 9999 SCT038 12/06 Q1020 NOSIG",
      "taf": "TAF LEVC 090500Z 0906/1006 27015KT 9999 FEW020 TX18/0914Z TN09/0906Z"
    },
    {
      "icao": "LEXJ",
      "alert": "OK",
      "vis_m": 9999,
      "fzfg": false,
      "metar_trigger": false,
      "taf_trigger": false,
      "metar": "METAR LEXJ 090800Z 31033G48KT 280V340 9999 SCT045 11/05 Q1017",
      "taf": ""
    },
    {
      "icao": "LEZG",
      "alert": "OK",
      "vis_m": 9999,
      "fzfg": false,
      "metar_trigger": false,
      "taf_trigger": false,
      "metar": "METAR LEZG 090800Z 29014KT 260V320 CAVOK 11/03 Q1016 NOSIG",
      "taf": "TAF LEZG 090500Z 0906/1006 24020KT CAVOK TX14/0915Z TN05/0906Z"
    },
    {
      "icao": "LEZL",
      "alert": "OK",
      "vis_m": 5000,
      "fzfg": false,
      "metar_trigger": false,
      "taf_trigger": false,
      "metar": "METAR LEZL 090800Z 20004KT 160V230 5000 BR BKN007 SCT015 10/09 Q1030 NOSIG",
      "taf": ""
    },
    {
      "icao": "LFBD",
      "alert": "OK",
      "vis_m": 9999,
      "fzfg": false,
      "metar_trigger": false,
      "taf_trigger": false,
      "metar": "METAR LFBD 090800Z AUTO 27012KT 9999 FEW037/// SCT043/// BKN100/// ///CB 10/05 Q1010",
      "taf": "TAF LFBD 090500Z 0906/1012 26015G25KT 9999 BKN030 TX11/0914Z TN09/0906Z"
    },
    {
      "icao": "LFLL",
      "alert": "OK",
      "vis_m": 9999,
      "fzfg": false,
      "metar_trigger": false,
      "taf_trigger": false,
      "metar": "METAR LFLL 090800Z 22014KT CAVOK 08/02 Q1005 NOSIG",
      "taf": "TAF LFLL 090500Z 0906/1012 22012KT 9999 BKN045"
    },
    {
      "icao": "LFLS",
      "alert": "OK",
      "vis_m": 9999,
      "fzfg": false,
      "metar_trigger": false,
      "taf_trigger": false,
      "metar": "METAR LFLS 090800Z AUTO 21014KT 9999 FEW048 SCT130 BKN210 07/02 Q1006",
      "taf": ""
    },
    {
      "icao": "LFMN",
      "alert": "OK",
      "vis_m": 9999,
      "fzfg": false,
      "metar_trigger": false,
      "taf_trigger": false,
      "metar": "METAR LFMN 090800Z 25019KT CAVOK 14/03 Q1005 NOSIG",
      "taf": "TAF LFMN 090200Z 0903/1009 33010KT CAVOK"
    },
    {
      "icao": "LFOB",
      "alert": "OK",
      "vis_m": 9999,
      "fzfg": false,
      "metar_trigger": false,
      "taf_trigger": false,
      "metar": "METAR LFOB 090800Z AUTO 26021KT 9999 -RA OVC015 04/03 Q0989 TEMPO 4000 SHRA BKN012TCU BECMG 25025G40KT",
      "taf": "TAF LFOB 090500Z 0906/1006 25025G40KT 9999 OVC020"
    },
    {
      "icao": "LFPO",
      "alert": "OK",
      "vis_m": 9999,
      "fzfg": false,
      "metar_trigger": false,
      "taf_trigger": false,
      "metar": "METAR LFPO 090800Z 24021G32KT 9999 BKN030 07/02 Q0993 NOSIG",
      "taf": "TAF LFPO 090500Z 0906/1012 24025G40KT 9999 BKN030"
    },
    {
      "icao": "LFSB",
      "alert": "OK",
      "vis_m": 9999,
      "fzfg": false,
      "metar_trigger": false,
      "taf_trigger": false,
      "metar": "METAR LFSB 090800Z AUTO 23020KT 9999 ///TCU 08/02 Q0998 TEMPO 24020G40KT BECMG FEW040",
      "taf": ""
    },
    {
      "icao": "LGAV",
      "alert": "OK",
      "vis_m": 9999,
      "fzfg": false,
      "metar_trigger": false,
      "taf_trigger": false,
      "metar": "METAR LGAV 090750Z VRB02KT 9999 FEW025 11/M03 Q1016 NOSIG",
      "taf": "TAF LGAV 090500Z 0906/1006 25012KT 9999 FEW025"
    },
    {
      "icao": "LGTS",
      "alert": "OK",
      "vis_m": 9999,
      "fzfg": false,
      "metar_trigger": false,
      "taf_trigger": false,
      "metar": "METAR LGTS 090750Z 10004KT CAVOK 04/M06 Q1014 NOSIG",
      "taf": "TAF LGTS 090500Z 0906/1006 31015KT 9999 FEW025"
    },
    {
      "icao": "LHBP",
      "alert": "OK",
      "vis_m": 9000,
      "fzfg": false,
      "metar_trigger": false,
      "taf_trigger": false,
      "metar": "METAR LHBP 090800Z 10005KT 060V120 9000 NSC M10/M11 Q1007 NOSIG",
      "taf": "TAF LHBP 090515Z 0906/1006 VRB03KT CAVOK"
    },
    {
      "icao": "LHDC",
      "alert": "OK",
      "vis_m": 4500,
      "fzfg": false,
      "metar_trigger": false,
      "taf_trigger": false,
      "metar": "METAR LHDC 090745Z AUTO 18004KT 4500 BR NCD M14/M16 Q1008 BECMG 6000 NSW",
      "taf": "TAF LHDC 090515Z 0906/0915 14005KT CAVOK"
    },
    {
      "icao": "LIBD",
      "alert": "OK",
      "vis_m": 9999,
      "fzfg": false,
      "metar_trigger": false,
      "taf_trigger": false,
      "metar": "METAR LIBD 090750Z 16003KT 9999 FEW045 08/06 Q1010",
      "taf": "TAF LIBD 090500Z 0906/1006 17008KT 9999 FEW020"
    },
    {
      "icao": "LIBG",
      "alert": "OK",
      "vis_m": 9999,
      "fzfg": false,
      "metar_trigger": false,
      "taf_trigger": false,
      "metar": "METAR LIBG 090750Z 02003KT 330V050 9999 FEW010 SCT040 09/09 Q1012",
      "taf": ""
    },
    {
      "icao": "LIBP",
      "alert": "OK",
      "vis_m": 9999,
      "fzfg": false,
      "metar_trigger": false,
      "taf_trigger": false,
      "metar": "METAR LIBP 090750Z AUTO VRB02KT 9999 BKN200/// 09/06 Q1006",
      "taf": "TAF LIBP 090500Z 0906/1006 VRB06KT 9999 SCT025"
    },
    {
      "icao": "LIBR",
      "alert": "OK",
      "vis_m": 9999,
      "fzfg": false,
      "metar_trigger": false,
      "taf_trigger": false,
      "metar": "METAR LIBR 090750Z 17008KT 9999 FEW030 07/05 Q1012",
      "taf": "TAF LIBR 090500Z 0906/1006 17010KT 9999 FEW040"
    },
    {
      "icao": "LICA",
      "alert": "OK",
      "vis_m": 9999,
      "fzfg": false,
      "metar_trigger": false,
      "taf_trigger": false,
      "metar": "METAR LICA 090750Z AUTO 26021KT 9999 BKN022/// BKN047/// 16/12 Q1015",
      "taf": "TAF LICA 090500Z 0906/1006 27026G38KT 9999 BKN016"
    },
    {
      "icao": "LICC",
      "alert": "OK",
      "vis_m": 9999,
      "fzfg": false,
      "metar_trigger": false,
      "taf_trigger": false,
      "metar": "METAR LICC 090750Z 25012KT 9999 SCT060 14/10 Q1018",
      "taf": "TAF LICC 090500Z 0906/1006 26013KT 9999 FEW050"
    },
    {
      "icao": "LICJ",
      "alert": "OK",
      "vis_m": 9999,
      "fzfg": false,
      "metar_trigger": false,
      "taf_trigger": false,
      "metar": "METAR LICJ 090750Z 22019KT 9999 BKN040 15/11 Q1018",
      "taf": "TAF LICJ 090500Z 0906/1006 23020G35KT 9999 SCT020"
    },
    {
      "icao": "LIMC",
      "alert": "OK",
      "vis_m": 5000,
      "fzfg": false,
      "metar_trigger": false,
      "taf_trigger": false,
      "metar": "METAR LIMC 090750Z VRB01KT 5000 BR BKN010 00/M02 Q1007 NOSIG",
      "taf": "TAF LIMC 090500Z 0906/1012 VRB04KT 9999 BKN025"
    },
    {
      "icao": "LIME",
      "alert": "OK",
      "vis_m": 9999,
      "fzfg": false,
      "metar_trigger": false,
      "taf_trigger": false,
      "metar": "METAR LIME 090750Z 24006KT 9999 BKN025 01/M06 Q1006 NOSIG",
      "taf": "TAF LIME 090500Z 0906/1006 VRB04KT 9999 SCT050"
    },
    {
      "icao": "LIMF",
      "alert": "OK",
      "vis_m": 8000,
      "fzfg": false,
      "metar_trigger": false,
      "taf_trigger": false,
      "metar": "METAR LIMF 090750Z 36004KT 8000 SCT030 M02/M06 Q1006",
      "taf": "TAF LIMF 090500Z 0906/1006 VRB03KT 9999 BKN030"
    },
    {
      "icao": "LIMJ",
      "alert": "OK",
      "vis_m": 9999,
      "fzfg": false,
      "metar_trigger": false,
      "taf_trigger": false,
      "metar": "METAR LIMJ 090750Z 04012KT 9999 SCT030 07/00 Q1004",
      "taf": "TAF LIMJ 090500Z 0906/1006 03012KT 9999 SCT020 BKN030"
    },
    {
      "icao": "LIPE",
      "alert": "OK",
      "vis_m": 9999,
      "fzfg": false,
      "metar_trigger": false,
      "taf_trigger": false,
      "metar": "METAR LIPE 090750Z VRB02KT 9999 BKN018 SCT050 M01/M02 Q1006",
      "taf": "TAF LIPE 090500Z 0906/1006 VRB05KT 9999 BKN020"
    },
    {
      "icao": "LIPH",
      "alert": "OK",
      "vis_m": 9999,
      "fzfg": false,
      "metar_trigger": false,
      "taf_trigger": false,
      "metar": "METAR LIPH 090750Z 29003KT 270V330 9999 BKN040 00/M03 Q1006",
      "taf": "TAF LIPH 090500Z 0906/1006 VRB05KT 9999 BKN030"
    },
    {
      "icao": "LIPQ",
      "alert": "OK",
      "vis_m": 9999,
      "fzfg": false,
      "metar_trigger": false,
      "taf_trigger": false,
      "metar": "METAR LIPQ 090750Z AUTO 01004KT 9999 -RA OVC014/// 02/M01 Q1006",
      "taf": "TAF LIPQ 090500Z 0906/1006 VRB05KT 9999 BKN030"
    },
    {
      "icao": "LIPR",
      "alert": "OK",
      "vis_m": 9999,
      "fzfg": false,
      "metar_trigger": false,
      "taf_trigger": false,
      "metar": "METAR LIPR 090750Z 15003KT 9999 SCT060 01/M02 Q1005",
      "taf": "TAF LIPR 090500Z 0906/1006 VRB05KT 9999 BKN040"
    },
    {
      "icao": "LIPX",
      "alert": "OK",
      "vis_m": 9999,
      "fzfg": false,
      "metar_trigger": false,
      "taf_trigger": false,
      "metar": "METAR LIPX 090750Z VRB01KT 9999 BKN025 00/M05 Q1006",
      "taf": "TAF LIPX 090500Z 0906/1006 VRB05KT 7000 FEW020"
    },
    {
      "icao": "LIPY",
      "alert": "OK",
      "vis_m": 9999,
      "fzfg": false,
      "metar_trigger": false,
      "taf_trigger": false,
      "metar": "METAR LIPY 090750Z AUTO VRB02KT 9999 BKN058/// BKN130/// 06/03 Q1005",
      "taf": "TAF LIPY 090500Z 0906/1006 VRB05KT 9999 SCT035"
    },
    {
      "icao": "LIPZ",
      "alert": "OK",
      "vis_m": 9999,
      "fzfg": false,
      "metar_trigger": false,
      "taf_trigger": false,
      "metar": "METAR LIPZ 090750Z 34004KT 310V020 9999 BKN030 01/M03 Q1006 NOSIG",
      "taf": "TAF LIPZ 090500Z 0906/1012 VRB06KT 9999 BKN020"
    },
    {
      "icao": "LIRF",
      "alert": "OK",
      "vis_m": 9999,
      "fzfg": false,
      "metar_trigger": false,
      "taf_trigger": false,
      "metar": "METAR LIRF 090750Z 24014KT 9999 FEW025 SCT035 15/10 Q1010 NOSIG",
      "taf": "TAF LIRF 090500Z 0906/1012 25016G26KT 9999 SCT020"
    },
    {
      "icao": "LIRN",
      "alert": "OK",
      "vis_m": 9999,
      "fzfg": false,
      "metar_trigger": false,
      "taf_trigger": false,
      "metar": "METAR LIRN 090750Z 20005KT 9999 FEW025 SCT045 12/11 Q1012 NOSIG",
      "taf": "TAF LIRN 090500Z 0906/1006 VRB05KT 9999 BKN025"
    },
    {
      "icao": "LIRP",
      "alert": "OK",
      "vis_m": 9999,
      "fzfg": false,
      "metar_trigger": false,
      "taf_trigger": false,
      "metar": "METAR LIRP 090745Z 23010G21KT 9999 FEW015 SCT020 13/11 Q1006 NOSIG",
      "taf": "TAF LIRP 090500Z 0906/1006 12003KT 9999 SCT020 SCT030"
    },
    {
      "icao": "LIRZ",
      "alert": "OK",
      "vis_m": 9999,
      "fzfg": false,
      "metar_trigger": false,
      "taf_trigger": false,
      "metar": "METAR LIRZ 090750Z AUTO 27005KT 9999 OVC015/// 08/08 Q1008",
      "taf": "TAF LIRZ 090500Z 0906/1006 VRB05KT 9999 BKN040"
    },
    {
      "icao": "LJLJ",
      "alert": "OK",
      "vis_m": 9999,
      "fzfg": false,
      "metar_trigger": false,
      "taf_trigger": false,
      "metar": "METAR LJLJ 090800Z 11002KT 9999 -SN BKN027 OVC040 M05/M06 Q1004 NOSIG",
      "taf": "TAF LJLJ 090500Z 0906/1006 29006KT 9999 BKN030"
    },
    {
      "icao": "LKMT",
      "alert": "OK",
      "vis_m": 9999,
      "fzfg": false,
      "metar_trigger": false,
      "taf_trigger": false,
      "metar": "METAR LKMT 090800Z 23003KT CAVOK M10/M12 Q1005 NOSIG",
      "taf": "TAF LKMT 090500Z 0906/1006 VRB02KT 5000 BR NSC"
    },
    {
      "icao": "LKPR",
      "alert": "OK",
      "vis_m": 800,
      "fzfg": false,
      "metar_trigger": false,
      "taf_trigger": false,
      "metar": "METAR LKPR 090800Z 12008KT 0800 R06/1000N R30/1100N SN BKN003 OVC010 M04/M05 Q0999 NOSIG",
      "taf": "TAF LKPR 090500Z 0906/1012 09007KT 6000 -SN SCT010 OVC015"
    },
    {
      "icao": "LLBG",
      "alert": "OK",
      "vis_m": 9999,
      "fzfg": false,
      "metar_trigger": false,
      "taf_trigger": false,
      "metar": "METAR LLBG 090750Z 27010KT 9999 SCT045 18/10 Q1014 TEMPO RA FEW025TCU RMK BKN070",
      "taf": "TAF LLBG 090502Z 0906/1006 24014KT 9999 SCT025 BKN035"
    },
    {
      "icao": "LMML",
      "alert": "OK",
      "vis_m": 9999,
      "fzfg": false,
      "metar_trigger": false,
      "taf_trigger": false,
      "metar": "METAR LMML 090745Z 25012KT 9999 FEW030 15/09 Q1022 NOSIG",
      "taf": "TAF LMML 090500Z 0906/1006 27017KT 9999 FEW025"
    },
    {
      "icao": "LOWW",
      "alert": "OK",
      "vis_m": 7000,
      "fzfg": false,
      "metar_trigger": false,
      "taf_trigger": false,
      "metar": "METAR LOWW 090750Z 17007KT 7000 -SN FEW012 BKN014 M06/M08 Q1004 TEMPO 1200 SN",
      "taf": "TAF LOWW 090515Z 0906/1012 12008KT 9999 BKN020 TXM00/1012Z TNM06/0909Z"
    },
    {
      "icao": "LPFR",
      "alert": "OK",
      "vis_m": 2000,
      "fzfg": false,
      "metar_trigger": false,
      "taf_trigger": false,
      "metar": "METAR LPFR 090800Z 29006KT 2000 BR SCT002 SCT003 10/10 Q1030",
      "taf": "TAF LPFR 090500Z 0906/1006 31005KT 9999 SCT012 BKN020"
    },
    {
      "icao": "LPMA",
      "alert": "OK",
      "vis_m": 9999,
      "fzfg": false,
      "metar_trigger": false,
      "taf_trigger": false,
      "metar": "METAR LPMA 090800Z 03007KT 340V070 9999 -SHRA BKN015 15/11 Q1033",
      "taf": "TAF LPMA 090500Z 0906/1006 01010KT 9999 SCT015"
    },
    {
      "icao": "LPPR",
      "alert": "OK",
      "vis_m": 9999,
      "fzfg": false,
      "metar_trigger": false,
      "taf_trigger": false,
      "metar": "METAR LPPR 090800Z 32007KT 9999 VCSH FEW018 SCT033 BKN045 12/09 Q1027",
      "taf": "TAF LPPR 090500Z 0906/1006 30010KT 9999 FEW020"
    },
    {
      "icao": "LPPS",
      "alert": "OK",
      "vis_m": 9000,
      "fzfg": false,
      "metar_trigger": false,
      "taf_trigger": false,
      "metar": "METAR LPPS 090800Z 35003KT 330V060 9000 -RA SCT008 BKN025 13/13 Q1033 RERA",
      "taf": "TAF LPPS 090500Z 0906/1012 05008KT 9999 FEW015 SCT030"
    },
    {
      "icao": "LPPT",
      "alert": "OK",
      "vis_m": 9999,
      "fzfg": false,
      "metar_trigger": false,
      "taf_trigger": false,
      "metar": "METAR LPPT 090800Z 23004KT 210V280 9999 4500NW VCSH FEW010 SCT018 11/11 Q1028",
      "taf": ""
    },
    {
      "icao": "LQBK",
      "alert": "OK",
      "vis_m": 9000,
      "fzfg": false,
      "metar_trigger": false,
      "taf_trigger": false,
      "metar": "METAR LQBK 090800Z 00000KT 9000 NSC M08/M09 Q1007 NOSIG",
      "taf": "TAF LQBK 090500Z 0906/1006 15005KT 9999 SCT040 TX01/0913Z TNM10/0906Z"
    },
    {
      "icao": "LQSA",
      "alert": "OK",
      "vis_m": 5000,
      "fzfg": false,
      "metar_trigger": false,
      "taf_trigger": false,
      "metar": "METAR LQSA 090800Z VRB01KT 5000 BR SCT040 M09/M10 Q1009 NOSIG",
      "taf": "TAF LQSA 090500Z 0906/1006 10006KT 6000 SCT050 TX02/0913Z TNM12/0906Z"
    },
    {
      "icao": "LQTZ",
      "alert": "OK",
      "vis_m": 2000,
      "fzfg": false,
      "metar_trigger": false,
      "taf_trigger": false,
      "metar": "METAR LQTZ 090800Z VRB01KT 2000 BR BKN045 M09/M10 Q1008",
      "taf": ""
    },
    {
      "icao": "LRBC",
      "alert": "OK",
      "vis_m": 9999,
      "fzfg": false,
      "metar_trigger": false,
      "taf_trigger": false,
      "metar": "METAR LRBC 090800Z 26015KT CAVOK M02/M10 Q1002",
      "taf": "TAF LRBC 090500Z 0906/0915 26012KT CAVOK"
    },
    {
      "icao": "LRBS",
      "alert": "OK",
      "vis_m": 9999,
      "fzfg": false,
      "metar_trigger": false,
      "taf_trigger": false,
      "metar": "METAR LRBS 090800Z 26007KT CAVOK M02/M06 Q1007 NOSIG",
      "taf": "TAF LRBS 090500Z 0906/1006 25012KT CAVOK"
    },
    {
      "icao": "LRBV",
      "alert": "OK",
      "vis_m": 9999,
      "fzfg": false,
      "metar_trigger": false,
      "taf_trigger": false,
      "metar": "METAR LRBV 090800Z VRB03KT 9999 -SN BKN019 BKN031 M06/M10 Q1005",
      "taf": "TAF LRBV 090500Z 0906/0915 30012KT 9999 -SN SCT015 OVC030"
    },
    {
      "icao": "LRCL",
      "alert": "OK",
      "vis_m": 9999,
      "fzfg": false,
      "metar_trigger": false,
      "taf_trigger": false,
      "metar": "METAR LRCL 090800Z 00000KT CAVOK M06/M10 Q1006",
      "taf": "TAF LRCL 090500Z 0906/0915 29010KT 9999 OVC040"
    },
    {
      "icao": "LRCV",
      "alert": "OK",
      "vis_m": 9999,
      "fzfg": false,
      "metar_trigger": false,
      "taf_trigger": false,
      "metar": "METAR LRCV 090800Z 29008KT CAVOK M03/M07 Q1008",
      "taf": "TAF LRCV 090500Z 0906/0915 29010KT CAVOK"
    },
    {
      "icao": "LRIA",
      "alert": "OK",
      "vis_m": 9999,
      "fzfg": false,
      "metar_trigger": false,
      "taf_trigger": false,
      "metar": "METAR LRIA 090800Z 25010KT CAVOK M02/M08 Q1001",
      "taf": "TAF LRIA 090500Z 0906/0915 26008KT 9999 BKN045"
    },
    {
      "icao": "LROP",
      "alert": "OK",
      "vis_m": 9999,
      "fzfg": false,
      "metar_trigger": false,
      "taf_trigger": false,
      "metar": "METAR LROP 090800Z 26005KT CAVOK M02/M06 Q1007 NOSIG",
      "taf": "TAF LROP 090500Z 0906/1006 25012KT CAVOK"
    },
    {
      "icao": "LRSB",
      "alert": "OK",
      "vis_m": 9999,
      "fzfg": false,
      "metar_trigger": false,
      "taf_trigger": false,
      "metar": "METAR LRSB 090800Z 21004KT 180V260 CAVOK M06/M10 Q1006",
      "taf": "TAF LRSB 090500Z 0906/1006 29012KT 9999 OVC050"
    },
    {
      "icao": "LRSM",
      "alert": "OK",
      "vis_m": 9999,
      "fzfg": false,
      "metar_trigger": false,
      "taf_trigger": false,
      "metar": "METAR LRSM 090800Z 15004KT CAVOK M12/M14 Q1008",
      "taf": "TAF LRSM 090500Z 0906/0915 26010KT 9999 SCT030"
    },
    {
      "icao": "LRSV",
      "alert": "OK",
      "vis_m": 9999,
      "fzfg": false,
      "metar_trigger": false,
      "taf_trigger": false,
      "metar": "METAR LRSV 090800Z COR 25010KT 9999 BKN047 M04/M10 Q0999",
      "taf": "TAF LRSV 090500Z 0906/0915 28012KT 9999 BKN045"
    },
    {
      "icao": "LRTM",
      "alert": "OK",
      "vis_m": 9999,
      "fzfg": false,
      "metar_trigger": false,
      "taf_trigger": false,
      "metar": "METAR LRTM 090800Z 24006KT 9999 FEW034 SCT042 M06/M10 Q1007",
      "taf": "TAF LRTM 090500Z 0906/0915 23010KT 9999 OVC040"
    },
    {
      "icao": "LRTR",
      "alert": "OK",
      "vis_m": 6000,
      "fzfg": false,
      "metar_trigger": false,
      "taf_trigger": false,
      "metar": "METAR LRTR 090800Z 10005KT 6000 NSC M13/M14 Q1009 NOSIG",
      "taf": ""
    },
    {
      "icao": "LTAC",
      "alert": "OK",
      "vis_m": 9999,
      "fzfg": false,
      "metar_trigger": false,
      "taf_trigger": false,
      "metar": "METAR LTAC 090750Z 23010KT 9999 SCT040 BKN080 02/M02 Q1005 NOSIG RMK RWY21C 23009KT RWY03L 22008KT RWY21R 21010KT RWY03R 22010KT RWY21L 23010KT",
      "taf": "TAF LTAC 090440Z 0906/1006 24012KT 8000 SCT040 BKN100"
    },
    {
      "icao": "LTFM",
      "alert": "OK",
      "vis_m": 9999,
      "fzfg": false,
      "metar_trigger": false,
      "taf_trigger": false,
      "metar": "METAR LTFM 090750Z 24011KT 9999 FEW040 01/M07 Q1011 NOSIG RMK RWY17L 24009G19KT 190V250 RWY34L 22010KT RWY16R 23007KT RWY36 26008KT RWY18 24010KT",
      "taf": "TAF LTFM 090440Z 0906/1012 26008KT 9999 FEW040"
    },
    {
      "icao": "LUKK",
      "alert": "OK",
      "vis_m": 9999,
      "fzfg": false,
      "metar_trigger": false,
      "taf_trigger": false,
      "metar": "METAR LUKK 090800Z 27008KT 9999 SCT049 M03/M07 Q1001 NOSIG",
      "taf": "TAF LUKK 090516Z 0906/1006 27010KT 9999 SCT030"
    },
    {
      "icao": "LWOH",
      "alert": "OK",
      "vis_m": 9999,
      "fzfg": false,
      "metar_trigger": false,
      "taf_trigger": false,
      "metar": "METAR LWOH 090750Z 35003KT 320V040 9999 FEW040 SCT090 M01/M04 Q1013",
      "taf": "TAF LWOH 082020Z 0821/0921 VRB02KT 9999 FEW015 BKN035"
    },
    {
      "icao": "LWSK",
      "alert": "OK",
      "vis_m": 9999,
      "fzfg": false,
      "metar_trigger": false,
      "taf_trigger": false,
      "metar": "METAR LWSK 090750Z 15004KT 110V210 CAVOK M04/M07 Q1014 NOSIG",
      "taf": "TAF LWSK 090810Z 0909/1009 VRB02KT CAVOK"
    },
    {
      "icao": "LYBE",
      "alert": "OK",
      "vis_m": 4000,
      "fzfg": false,
      "metar_trigger": false,
      "taf_trigger": false,
      "metar": "METAR LYBE 090800Z 00000KT 4000 BR NSC M07/M08 Q1009 BECMG 8000 NSW",
      "taf": "TAF LYBE 090500Z 0906/1006 10005KT CAVOK TX01/0919Z TNM12/0906Z"
    },
    {
      "icao": "LYNI",
      "alert": "OK",
      "vis_m": 9999,
      "fzfg": false,
      "metar_trigger": false,
      "taf_trigger": false,
      "metar": "METAR LYNI 090800Z VRB02KT CAVOK M06/M08 Q1012 NOSIG",
      "taf": "TAF LYNI 090500Z 0906/1006 19004KT CAVOK TX02/0914Z TNM10/0906Z"
    },
    {
      "icao": "LYPG",
      "alert": "OK",
      "vis_m": 9999,
      "fzfg": false,
      "metar_trigger": false,
      "taf_trigger": false,
      "metar": "METAR LYPG 090800Z 02006KT 9999 FEW030 BKN040 02/M05 Q1017 NOSIG",
      "taf": "TAF LYPG 090500Z 0906/1006 02008KT 9999 BKN034 BKN070 TX07/0923Z TN00/0906Z"
    },
    {
      "icao": "LZIB",
      "alert": "OK",
      "vis_m": 9999,
      "fzfg": false,
      "metar_trigger": false,
      "taf_trigger": false,
      "metar": "METAR LZIB 090800Z 04010KT 9999 SCT044 M06/M09 Q1005 BECMG 2000 SN BKN012",
      "taf": "TAF LZIB 090515Z 0906/1006 07005KT 9999 SCT023"
    },
    {
      "icao": "LZKZ",
      "alert": "OK",
      "vis_m": 9999,
      "fzfg": false,
      "metar_trigger": false,
      "taf_trigger": false,
      "metar": "METAR LZKZ 090800Z VRB01KT CAVOK M11/M14 Q1006 NOSIG",
      "taf": "TAF LZKZ 090515Z 0906/1006 VRB02KT CAVOK"
    },
    {
      "icao": "LZTT",
      "alert": "OK",
      "vis_m": 9999,
      "fzfg": false,
      "metar_trigger": false,
      "taf_trigger": false,
      "metar": "METAR LZTT 090800Z VRB01KT CAVOK M11/M15 Q1002 NOSIG",
      "taf": "TAF LZTT 090515Z 0906/1006 VRB02KT 9999 FEW015"
    },
    {
      "icao": "OEJN",
      "alert": "OK",
      "vis_m": 8000,
      "fzfg": false,
      "metar_trigger": false,
      "taf_trigger": false,
      "metar": "METAR OEJN 090800Z 00000KT 8000 FEW040 28/17 Q1015 NOSIG",
      "taf": "TAF OEJN 090500Z 0906/1012 23010KT 7000 FEW040"
    },
    {
      "icao": "OEMA",
      "alert": "OK",
      "vis_m": 9999,
      "fzfg": false,
      "metar_trigger": false,
      "taf_trigger": false,
      "metar": "METAR OEMA 090800Z 13009KT CAVOK 21/M04 Q1020 NOSIG",
      "taf": "TAF OEMA 090500Z 0906/1012 25018KT 7000 FEW045"
    },
    {
      "icao": "OJAI",
      "alert": "OK",
      "vis_m": 2000,
      "fzfg": false,
      "metar_trigger": false,
      "taf_trigger": false,
      "metar": "METAR OJAI 090800Z 27020KT 2000 RA FEW015 BKN030 11/10 Q1014 NOSIG",
      "taf": ""
    },
    {
      "icao": "OMAA",
      "alert": "OK",
      "vis_m": 9999,
      "fzfg": false,
      "metar_trigger": false,
      "taf_trigger": false,
      "metar": "METAR OMAA 090800Z 31005KT 280V340 CAVOK 22/13 Q1019 NOSIG",
      "taf": "TAF OMAA 090500Z 0906/1012 VRB02KT CAVOK"
    },
    {
      "icao": "OMDB",
      "alert": "OK",
      "vis_m": 9999,
      "fzfg": false,
      "metar_trigger": false,
      "taf_trigger": false,
      "metar": "METAR OMDB 090800Z 04005KT 350V090 9999 SCT045 23/11 Q1019 NOSIG",
      "taf": "TAF OMDB 090500Z 0906/1012 06005KT 8000 NSC"
    },
    {
      "icao": "UAAA",
      "alert": "OK",
      "vis_m": 4000,
      "fzfg": false,
      "metar_trigger": false,
      "taf_trigger": false,
      "metar": "METAR UAAA 090800Z 35002MPS 240V050 4000 BR FU SCT012 BKN100 M03/M06 Q1023 NOSIG",
      "taf": "TAF UAAA 090505Z 0906/1006 06003G08MPS 4000 BR FU BKN011 OVC020 TXM02/0909Z TNM07/1001Z"
    },
    {
      "icao": "UBBB",
      "alert": "OK",
      "vis_m": 9999,
      "fzfg": false,
      "metar_trigger": false,
      "taf_trigger": false,
      "metar": "METAR UBBB 090800Z 14016KT CAVOK 10/05 Q1002 NOSIG",
      "taf": "TAF UBBB 090504Z 0906/1006 18024G34KT 8000 SCT012 TX12/0910Z TN08/1000Z"
    },
    {
      "icao": "UDSG",
      "alert": "OK",
      "vis_m": 6000,
      "fzfg": false,
      "metar_trigger": false,
      "taf_trigger": false,
      "metar": "METAR UDSG 090800Z 24006KT 6000 OVC036 M02/M05 Q1009 NOSIG",
      "taf": "TAF UDSG 090500Z 0906/1006 VRB06KT 1200 BR OVC020"
    },
    {
      "icao": "UDYZ",
      "alert": "OK",
      "vis_m": 2000,
      "fzfg": false,
      "metar_trigger": false,
      "taf_trigger": false,
      "metar": "METAR UDYZ 090800Z VRB02KT 2000 R08/2000D BR SCT046 M01/M06 Q1011 NOSIG",
      "taf": "TAF UDYZ 090500Z 0906/1006 23006KT 2300 BR BKN030"
    },
    {
      "icao": "UGKO",
      "alert": "OK",
      "vis_m": 9999,
      "fzfg": false,
      "metar_trigger": false,
      "taf_trigger": false,
      "metar": "METAR UGKO 090800Z 08005KT 040V110 9999 BKN080 13/06 Q1002 BECMG 25010KT",
      "taf": "TAF UGKO 090500Z 0906/1006 08010KT 9999 BKN050 TX12/0906Z TN04/1003Z"
    }
  ]
}