{
  "ts_utc": "2026-02-07T14:51:45Z",
  "threshold_m": 150,
  "source": "stations_override.txt (ICAO list) + aviationweather.gov (METAR/TAF raw)",
  "station_count": 159,
  "stations": [
    {
      "icao": "BIKF",
      "alert": "OK",
      "vis_m": 9999,
      "fzfg": false,
      "metar_trigger": false,
      "taf_trigger": false,
      "metar": "METAR BIKF 071430Z 08003KT CAVOK 03/M01 Q1009",
      "taf": "TAF BIKF 071305Z 0715/0815 09008KT CAVOK TX03/0715Z TNM03/0803Z"
    },
    {
      "icao": "BKPR",
      "alert": "OK",
      "vis_m": null,
      "fzfg": false,
      "metar_trigger": false,
      "taf_trigger": false,
      "metar": "",
      "taf": "TAF BKPR 071130Z 0712/0812 25008KT 9999 BKN040"
    },
    {
      "icao": "EBCI",
      "alert": "OK",
      "vis_m": 9999,
      "fzfg": false,
      "metar_trigger": false,
      "taf_trigger": false,
      "metar": "METAR EBCI 071420Z 20010KT 9999 FEW026 11/04 Q1002 NOSIG",
      "taf": "TAF EBCI 071115Z 0712/0818 18009KT 9999 FEW020 SCT040"
    },
    {
      "icao": "EDDB",
      "alert": "OK",
      "vis_m": 2900,
      "fzfg": false,
      "metar_trigger": false,
      "taf_trigger": false,
      "metar": "METAR EDDB 071420Z AUTO 09003KT 2900 BR OVC004 03/02 Q1006 TEMPO 3000 BR OVC005",
      "taf": "TAF EDDB 071100Z 0712/0812 06005KT 3000 BR OVC005"
    },
    {
      "icao": "EDDH",
      "alert": "OK",
      "vis_m": 8000,
      "fzfg": false,
      "metar_trigger": false,
      "taf_trigger": false,
      "metar": "METAR EDDH 071420Z AUTO 09007KT 8000 -SHRA OVC005 FEW///TCU 02/01 Q1006 TEMPO 4000",
      "taf": ""
    },
    {
      "icao": "EDDK",
      "alert": "OK",
      "vis_m": 9999,
      "fzfg": false,
      "metar_trigger": false,
      "taf_trigger": false,
      "metar": "METAR EDDK 071420Z AUTO 14003KT 100V180 9999 FEW030 13/05 Q1004 NOSIG",
      "taf": "TAF EDDK 071100Z 0712/0818 12006KT 9999 FEW035"
    },
    {
      "icao": "EDDN",
      "alert": "OK",
      "vis_m": 6000,
      "fzfg": false,
      "metar_trigger": false,
      "taf_trigger": false,
      "metar": "METAR EDDN 071420Z AUTO 28002KT 6000 OVC005 06/05 Q1005 NOSIG",
      "taf": ""
    },
    {
      "icao": "EDDS",
      "alert": "OK",
      "vis_m": 9999,
      "fzfg": false,
      "metar_trigger": false,
      "taf_trigger": false,
      "metar": "METAR EDDS 071420Z AUTO 03004KT 9999 SCT035 SCT043 BKN049 11/05 Q1003 NOSIG",
      "taf": "TAF EDDS 071100Z 0712/0812 VRB03KT 9999 FEW045"
    },
    {
      "icao": "EDFH",
      "alert": "OK",
      "vis_m": 9999,
      "fzfg": false,
      "metar_trigger": false,
      "taf_trigger": false,
      "metar": "METAR EDFH 071420Z 28005KT 240V320 9999 FEW012 08/05 Q1004",
      "taf": "TAF EDFH 071100Z 0712/0812 25007KT 9999 BKN010"
    },
    {
      "icao": "EDJA",
      "alert": "OK",
      "vis_m": 9999,
      "fzfg": false,
      "metar_trigger": false,
      "taf_trigger": false,
      "metar": "METAR EDJA 071420Z 31003KT 250V360 9999 BKN039 09/03 Q1004",
      "taf": "TAF EDJA 071400Z 0715/0724 VRB03KT 9999 FEW020 BKN040"
    },
    {
      "icao": "EDLW",
      "alert": "OK",
      "vis_m": 9999,
      "fzfg": false,
      "metar_trigger": false,
      "taf_trigger": false,
      "metar": "METAR EDLW 071420Z 22004KT 170V260 9999 FEW031 11/05 Q1003",
      "taf": "TAF EDLW 071100Z 0712/0812 21006KT 9999 FEW025"
    },
    {
      "icao": "EDNY",
      "alert": "OK",
      "vis_m": 9999,
      "fzfg": false,
      "metar_trigger": false,
      "taf_trigger": false,
      "metar": "METAR EDNY 071420Z COR VRB03KT 9999 FEW030 BKN037 11/04 Q1004",
      "taf": "TAF EDNY 071400Z 0715/0724 VRB02KT 9999 FEW025"
    },
    {
      "icao": "EDSB",
      "alert": "OK",
      "vis_m": 9999,
      "fzfg": false,
      "metar_trigger": false,
      "taf_trigger": false,
      "metar": "METAR EDSB 071420Z VRB02KT CAVOK 12/06 Q1004",
      "taf": "TAF EDSB 071100Z 0712/0812 30004KT 9999 FEW030"
    },
    {
      "icao": "EETN",
      "alert": "OK",
      "vis_m": 9999,
      "fzfg": false,
      "metar_trigger": false,
      "taf_trigger": false,
      "metar": "METAR EETN 071450Z 06008KT 9999 OVC005 M10/M11 Q1017 NOSIG",
      "taf": "TAF EETN 071130Z 0712/0812 05008KT 9999 BKN006"
    },
    {
      "icao": "EFTU",
      "alert": "OK",
      "vis_m": 9999,
      "fzfg": false,
      "metar_trigger": false,
      "taf_trigger": false,
      "metar": "METAR EFTU 071420Z AUTO 05003KT 010V090 CAVOK M10/M15 Q1018",
      "taf": "TAF EFTU 071426Z 0715/0815 05003KT CAVOK"
    },
    {
      "icao": "EGBB",
      "alert": "OK",
      "vis_m": 9999,
      "fzfg": false,
      "metar_trigger": false,
      "taf_trigger": false,
      "metar": "METAR EGBB 071420Z 13011KT 9999 6000N -RA VCSH SCT013 BKN038 10/08 Q0991",
      "taf": "TAF EGBB 071059Z 0712/0812 15010KT 9999 SCT013 BKN020"
    },
    {
      "icao": "EGGP",
      "alert": "OK",
      "vis_m": 9999,
      "fzfg": false,
      "metar_trigger": false,
      "taf_trigger": false,
      "metar": "METAR EGGP 071420Z 11009KT 9999 SCT012 BKN021 08/07 Q0991",
      "taf": "TAF EGGP 071106Z 0712/0812 10010KT 9999 BKN016"
    },
    {
      "icao": "EGGW",
      "alert": "OK",
      "vis_m": 9999,
      "fzfg": false,
      "metar_trigger": false,
      "taf_trigger": false,
      "metar": "METAR EGGW 071420Z AUTO 16008KT 9999 FEW007 BKN011 BKN018 09/08 Q0994",
      "taf": "TAF EGGW 071058Z 0712/0812 17008KT 9999 FEW004 SCT008"
    },
    {
      "icao": "EGKK",
      "alert": "OK",
      "vis_m": 8000,
      "fzfg": false,
      "metar_trigger": false,
      "taf_trigger": false,
      "metar": "METAR EGKK 071420Z 18010KT 150V220 8000 VCSH BKN010 10/09 Q0995",
      "taf": ""
    },
    {
      "icao": "EGNM",
      "alert": "OK",
      "vis_m": 2200,
      "fzfg": false,
      "metar_trigger": false,
      "taf_trigger": false,
      "metar": "METAR EGNM 071420Z 11010KT 2200 -RA BR OVC002 07/07 Q0993",
      "taf": ""
    },
    {
      "icao": "EGPD",
      "alert": "OK",
      "vis_m": 1500,
      "fzfg": false,
      "metar_trigger": false,
      "taf_trigger": false,
      "metar": "METAR EGPD 071420Z COR 10011KT 1500 R16/1300N -RADZ OVC003 06/05 Q0998 NOSIG",
      "taf": ""
    },
    {
      "icao": "EGPF",
      "alert": "OK",
      "vis_m": 9999,
      "fzfg": false,
      "metar_trigger": false,
      "taf_trigger": false,
      "metar": "METAR EGPF 071420Z AUTO 07011KT 9999 BKN007 OVC013 07/06 Q0995",
      "taf": "TAF EGPF 071059Z 0712/0812 07009KT 9999 BKN020"
    },
    {
      "icao": "EHBK",
      "alert": "OK",
      "vis_m": 9999,
      "fzfg": false,
      "metar_trigger": false,
      "taf_trigger": false,
      "metar": "METAR EHBK 071425Z AUTO 20010KT 170V230 9999 NSC 12/06 Q1003 NOSIG",
      "taf": "TAF EHBK 071109Z 0712/0818 17008KT CAVOK"
    },
    {
      "icao": "EHEH",
      "alert": "OK",
      "vis_m": 9999,
      "fzfg": false,
      "metar_trigger": false,
      "taf_trigger": false,
      "metar": "METAR EHEH 071425Z AUTO 18010KT 130V220 9999 BKN230 12/06 Q1003 BLU NOSIG RMK TREND REMOTE BY EHWX",
      "taf": "TAF EHEH 071123Z 0712/0818 19007KT CAVOK"
    },
    {
      "icao": "EKBI",
      "alert": "OK",
      "vis_m": 9999,
      "fzfg": false,
      "metar_trigger": false,
      "taf_trigger": false,
      "metar": "METAR EKBI 071420Z AUTO 09014KT 9999 -SN OVC007/// 00/M01 Q1009",
      "taf": "TAF EKBI 071427Z 0715/0815 09014KT 9999 BKN007"
    },
    {
      "icao": "EKCH",
      "alert": "OK",
      "vis_m": 9999,
      "fzfg": false,
      "metar_trigger": false,
      "taf_trigger": false,
      "metar": "METAR EKCH 071420Z 07012KT 9999 OVC012 00/M02 Q1011 NOSIG",
      "taf": "TAF EKCH 071427Z 0715/0815 07012KT 9999 OVC012"
    },
    {
      "icao": "ENAL",
      "alert": "OK",
      "vis_m": 9999,
      "fzfg": false,
      "metar_trigger": false,
      "taf_trigger": false,
      "metar": "METAR ENAL 071420Z 22005KT CAVOK 05/M04 Q1011",
      "taf": "TAF ENAL 071400Z 0715/0724 VRB04KT CAVOK"
    },
    {
      "icao": "ENBR",
      "alert": "OK",
      "vis_m": 9999,
      "fzfg": false,
      "metar_trigger": false,
      "taf_trigger": false,
      "metar": "METAR ENBR 071420Z 01002KT 9999 -RASN SCT015 BKN025 01/M00 Q1011 NOSIG RMK WIND 1200FT 08006KT",
      "taf": "TAF ENBR 071100Z 0712/0812 VRB03KT 9999 SCT050"
    },
    {
      "icao": "ENGM",
      "alert": "OK",
      "vis_m": 9999,
      "fzfg": false,
      "metar_trigger": false,
      "taf_trigger": false,
      "metar": "METAR ENGM 071420Z 03008KT 9999 BKN037 M05/M09 Q1018 NOSIG",
      "taf": "TAF ENGM 071100Z 0712/0812 02008KT 9999 BKN020"
    },
    {
      "icao": "ENHD",
      "alert": "OK",
      "vis_m": 9999,
      "fzfg": false,
      "metar_trigger": false,
      "taf_trigger": false,
      "metar": "METAR ENHD 071420Z 10012KT CAVOK 05/M05 Q1010",
      "taf": "TAF ENHD 071400Z 0715/0723 10010KT CAVOK"
    },
    {
      "icao": "ENTC",
      "alert": "OK",
      "vis_m": 9999,
      "fzfg": false,
      "metar_trigger": false,
      "taf_trigger": false,
      "metar": "METAR ENTC 071420Z 17003KT 140V210 CAVOK M05/M07 Q1022 NOSIG RMK WIND 2600FT 20007KT",
      "taf": "TAF ENTC 071100Z 0712/0812 18005KT CAVOK"
    },
    {
      "icao": "ENTO",
      "alert": "OK",
      "vis_m": 9999,
      "fzfg": false,
      "metar_trigger": false,
      "taf_trigger": false,
      "metar": "METAR ENTO 071420Z 01010KT 9999 OVC031 M04/M06 Q1018 NOSIG",
      "taf": "TAF ENTO 071100Z 0712/0812 02012KT 9000 -SN BKN015"
    },
    {
      "icao": "ENVA",
      "alert": "OK",
      "vis_m": 9999,
      "fzfg": false,
      "metar_trigger": false,
      "taf_trigger": false,
      "metar": "METAR ENVA 071420Z 10008KT 050V130 CAVOK M04/M16 Q1018 NOSIG RMK WIND 670FT 10011KT",
      "taf": "TAF ENVA 071100Z 0712/0812 10008KT CAVOK"
    },
    {
      "icao": "ENZV",
      "alert": "OK",
      "vis_m": 9999,
      "fzfg": false,
      "metar_trigger": false,
      "taf_trigger": false,
      "metar": "METAR ENZV 071420Z 10011KT CAVOK 04/M04 Q1010 NOSIG",
      "taf": "TAF ENZV 071100Z 0712/0812 12005KT 9999 SCT050"
    },
    {
      "icao": "EPGD",
      "alert": "OK",
      "vis_m": 9999,
      "fzfg": false,
      "metar_trigger": false,
      "taf_trigger": false,
      "metar": "METAR EPGD 071430Z 02006KT 360V060 9999 -SN OVC006 M02/M03 Q1007",
      "taf": "TAF EPGD 071130Z 0712/0812 05006KT 7000 OVC006"
    },
    {
      "icao": "EPKK",
      "alert": "OK",
      "vis_m": 2000,
      "fzfg": false,
      "metar_trigger": false,
      "taf_trigger": false,
      "metar": "METAR EPKK 071430Z 22005KT 2000 BR OVC008 03/02 Q1004",
      "taf": "TAF EPKK 071430Z 0715/0815 22004KT 2000 BR OVC009"
    },
    {
      "icao": "EPKT",
      "alert": "OK",
      "vis_m": 9000,
      "fzfg": false,
      "metar_trigger": false,
      "taf_trigger": false,
      "metar": "METAR EPKT 071430Z 32003KT 9000 OVC009 03/01 Q1004",
      "taf": ""
    },
    {
      "icao": "EPLB",
      "alert": "OK",
      "vis_m": 3400,
      "fzfg": false,
      "metar_trigger": false,
      "taf_trigger": false,
      "metar": "METAR EPLB 071430Z 08004KT 3400 -RA BR BKN003 OVC007 M00/M00 Q1004",
      "taf": "TAF EPLB 071130Z 0712/0812 06005KT 5000 BR BKN005"
    },
    {
      "icao": "EPMO",
      "alert": "OK",
      "vis_m": 1200,
      "fzfg": false,
      "metar_trigger": false,
      "taf_trigger": false,
      "metar": "METAR EPMO 071430Z 02005KT 350V050 1200 R08/1200N BR OVC002 M00/M00 Q1005",
      "taf": "TAF EPMO 071130Z 0712/0812 04005KT 1500 BR OVC002"
    },
    {
      "icao": "EPPO",
      "alert": "OK",
      "vis_m": 2800,
      "fzfg": false,
      "metar_trigger": false,
      "taf_trigger": false,
      "metar": "METAR EPPO 071430Z 04004KT 2800 BR OVC002 01/M00 Q1006",
      "taf": ""
    },
    {
      "icao": "EPRA",
      "alert": "OK",
      "vis_m": 3400,
      "fzfg": false,
      "metar_trigger": false,
      "taf_trigger": false,
      "metar": "METAR EPRA 071430Z 04003KT 3400 BR OVC003 01/01 Q1004",
      "taf": "TAF EPRA 071430Z 0715/0724 04005KT 4000 BR OVC005"
    },
    {
      "icao": "EPRZ",
      "alert": "OK",
      "vis_m": 150,
      "fzfg": false,
      "metar_trigger": false,
      "taf_trigger": false,
      "metar": "METAR EPRZ 071430Z 22003KT 0150 R27/0400N FG OVC001 01/01 Q1004",
      "taf": ""
    },
    {
      "icao": "EPSC",
      "alert": "OK",
      "vis_m": 9000,
      "fzfg": false,
      "metar_trigger": false,
      "taf_trigger": false,
      "metar": "METAR EPSC 071430Z VRB02KT 9000 SCT007 BKN009 01/M01 Q1007",
      "taf": ""
    },
    {
      "icao": "EPSY",
      "alert": "OK",
      "vis_m": 1700,
      "fzfg": false,
      "metar_trigger": false,
      "taf_trigger": false,
      "metar": "METAR EPSY 071430Z 03006KT 1700 BR OVC002 M01/M02 Q1006",
      "taf": "TAF EPSY 071430Z 0715/0724 03005KT 3000 BR OVC003"
    },
    {
      "icao": "EPWA",
      "alert": "OK",
      "vis_m": 2100,
      "fzfg": false,
      "metar_trigger": false,
      "taf_trigger": false,
      "metar": "METAR EPWA 071430Z 06003KT 360V100 2100 -DZ BR OVC003 01/01 Q1005 NOSIG",
      "taf": "TAF EPWA 071430Z 0715/0815 04004KT 2000 -DZ BR OVC003"
    },
    {
      "icao": "EPWR",
      "alert": "OK",
      "vis_m": 5000,
      "fzfg": false,
      "metar_trigger": false,
      "taf_trigger": false,
      "metar": "METAR EPWR 071430Z 06004KT 5000 BR OVC007 03/02 Q1005",
      "taf": "TAF EPWR 071430Z 0715/0815 35003KT 5000 BR OVC008"
    },
    {
      "icao": "ESGG",
      "alert": "OK",
      "vis_m": 9999,
      "fzfg": false,
      "metar_trigger": false,
      "taf_trigger": false,
      "metar": "METAR ESGG 071420Z 07011KT 9999 BKN012 M01/M03 Q1013",
      "taf": "TAF ESGG 071430Z 0715/0815 07010KT 9999 BKN018"
    },
    {
      "icao": "ESKN",
      "alert": "OK",
      "vis_m": 9999,
      "fzfg": false,
      "metar_trigger": false,
      "taf_trigger": false,
      "metar": "METAR ESKN 071420Z 02007KT 340V060 CAVOK M04/M11 Q1018",
      "taf": "TAF ESKN 071430Z 0715/0815 03010KT CAVOK"
    },
    {
      "icao": "ESMS",
      "alert": "OK",
      "vis_m": 9999,
      "fzfg": false,
      "metar_trigger": false,
      "taf_trigger": false,
      "metar": "METAR ESMS 071420Z 08014KT 9999 OVC011 00/M02 Q1010",
      "taf": "TAF ESMS 071427Z 0715/0815 07014KT 9999 OVC008"
    },
    {
      "icao": "ESSA",
      "alert": "OK",
      "vis_m": 9999,
      "fzfg": false,
      "metar_trigger": false,
      "taf_trigger": false,
      "metar": "METAR ESSA 071420Z 02008KT 9999 BKN018 M05/M08 Q1019 NOSIG",
      "taf": "TAF ESSA 071430Z 0715/0815 03010KT 9999 BKN018"
    },
    {
      "icao": "EYKA",
      "alert": "OK",
      "vis_m": 3500,
      "fzfg": false,
      "metar_trigger": false,
      "taf_trigger": false,
      "metar": "METAR EYKA 071450Z 03004KT 350V070 3500 -SN BR OVC008 M02/M03 Q1008",
      "taf": "TAF EYKA 071103Z 0712/0812 06010KT 5000 -SN BR SCT010 OVC020"
    },
    {
      "icao": "EYPA",
      "alert": "OK",
      "vis_m": 9999,
      "fzfg": false,
      "metar_trigger": false,
      "taf_trigger": false,
      "metar": "METAR EYPA 071450Z 07009KT 040V100 9999 -SN BKN039 OVC047 M04/M06 Q1010",
      "taf": "TAF EYPA 071102Z 0712/0812 05012KT 9000 SCT010 OVC025"
    },
    {
      "icao": "EYVI",
      "alert": "OK",
      "vis_m": 5000,
      "fzfg": false,
      "metar_trigger": false,
      "taf_trigger": false,
      "metar": "METAR EYVI 071420Z 05006KT 5000 -SN BR FEW009 BKN043 M03/M05 Q1007 NOSIG",
      "taf": "TAF EYVI 071106Z 0712/0812 05008KT 5000 -SN BR SCT010 OVC020"
    },
    {
      "icao": "GCFV",
      "alert": "OK",
      "vis_m": 9999,
      "fzfg": false,
      "metar_trigger": false,
      "taf_trigger": false,
      "metar": "METAR GCFV 071430Z 07006KT 030V120 CAVOK 19/11 Q1024",
      "taf": "TAF GCFV 071400Z 0715/0815 08005KT 9999 FEW030 TX22/0814Z TN13/0806Z"
    },
    {
      "icao": "GCLP",
      "alert": "OK",
      "vis_m": 9999,
      "fzfg": false,
      "metar_trigger": false,
      "taf_trigger": false,
      "metar": "METAR GCLP 071430Z 07009KT 020V090 9999 FEW040 20/12 Q1024 NOSIG",
      "taf": "TAF GCLP 071400Z 0715/0815 04010KT 9999 FEW035 TX22/0814Z TN15/0806Z"
    },
    {
      "icao": "GCTS",
      "alert": "OK",
      "vis_m": 9999,
      "fzfg": false,
      "metar_trigger": false,
      "taf_trigger": false,
      "metar": "METAR GCTS 071430Z 21009KT 160V260 9999 FEW035 20/12 Q1025 NOSIG",
      "taf": "TAF GCTS 071400Z 0715/0815 19005KT 9999 SCT030 TX23/0814Z TN13/0806Z"
    },
    {
      "icao": "GMAD",
      "alert": "OK",
      "vis_m": 9999,
      "fzfg": false,
      "metar_trigger": false,
      "taf_trigger": false,
      "metar": "METAR GMAD 071430Z 23004KT 180V280 CAVOK 20/09 Q1023 NOSIG",
      "taf": "TAF GMAD 071100Z 0712/0818 28012KT 8000 SCT020"
    },
    {
      "icao": "GMMN",
      "alert": "OK",
      "vis_m": 9999,
      "fzfg": false,
      "metar_trigger": false,
      "taf_trigger": false,
      "metar": "METAR GMMN 071430Z 23020KT 9999 SCT023 18/12 Q1019 NOSIG",
      "taf": "TAF GMMN 071100Z 0712/0818 22016KT 9999 SCT020"
    },
    {
      "icao": "GMMX",
      "alert": "OK",
      "vis_m": 9999,
      "fzfg": false,
      "metar_trigger": false,
      "taf_trigger": false,
      "metar": "METAR GMMX 071430Z 26009KT 230V290 CAVOK 18/09 Q1022 NOSIG",
      "taf": "TAF GMMX 071100Z 0712/0818 22006KT 8000 NSC"
    },
    {
      "icao": "HEGN",
      "alert": "OK",
      "vis_m": 9999,
      "fzfg": false,
      "metar_trigger": false,
      "taf_trigger": false,
      "metar": "METAR HEGN 071400Z 10010KT CAVOK 26/06 Q1014 NOSIG",
      "taf": "TAF HEGN 071100Z 0712/0818 13008KT CAVOK"
    },
    {
      "icao": "HEMA",
      "alert": "OK",
      "vis_m": 9999,
      "fzfg": false,
      "metar_trigger": false,
      "taf_trigger": false,
      "metar": "METAR HEMA 071400Z 04010KT CAVOK 25/12 Q1015 NOSIG",
      "taf": "TAF HEMA 071100Z 0712/0818 14008KT CAVOK"
    },
    {
      "icao": "HESH",
      "alert": "OK",
      "vis_m": 9999,
      "fzfg": false,
      "metar_trigger": false,
      "taf_trigger": false,
      "metar": "METAR HESH 071400Z 12009KT CAVOK 25/17 Q1014 NOSIG",
      "taf": "TAF HESH 071100Z 0712/0818 14008KT CAVOK"
    },
    {
      "icao": "HESX",
      "alert": "OK",
      "vis_m": 9999,
      "fzfg": false,
      "metar_trigger": false,
      "taf_trigger": false,
      "metar": "METAR HESX 071400Z 27014KT CAVOK 25/04 Q1013 NOSIG",
      "taf": ""
    },
    {
      "icao": "LATI",
      "alert": "OK",
      "vis_m": 9999,
      "fzfg": false,
      "metar_trigger": false,
      "taf_trigger": false,
      "metar": "METAR LATI 071450Z 21013KT 9999 FEW030 BKN078 16/06 Q1007 NOSIG",
      "taf": "TAF LATI 071100Z 0712/0812 22010KT 9999 FEW025CB SCT040 BKN060 TX16/0712Z TN09/0802Z"
    },
    {
      "icao": "LBPD",
      "alert": "OK",
      "vis_m": 9999,
      "fzfg": false,
      "metar_trigger": false,
      "taf_trigger": false,
      "metar": "METAR LBPD 071430Z AUTO VRB02KT 9999 FEW083/// BKN110/// 16/07 Q1003 NOSIG",
      "taf": "TAF LBPD 071100Z 0712/0812 31010KT 9999 BKN050"
    },
    {
      "icao": "LBSF",
      "alert": "OK",
      "vis_m": 9999,
      "fzfg": false,
      "metar_trigger": false,
      "taf_trigger": false,
      "metar": "METAR LBSF 071430Z 31007KT 280V340 9999 FEW013 SCT048 BKN083 10/07 Q1004 NOSIG",
      "taf": "TAF LBSF 071100Z 0712/0812 32010KT 9999 SCT030 BKN050"
    },
    {
      "icao": "LBWN",
      "alert": "OK",
      "vis_m": 9999,
      "fzfg": false,
      "metar_trigger": false,
      "taf_trigger": false,
      "metar": "METAR LBWN 071430Z AUTO 25005KT 9999 SCT019/// 09/06 Q1004 NOSIG",
      "taf": "TAF LBWN 071100Z 0712/0812 30010KT 9999 BKN012 BKN030"
    },
    {
      "icao": "LCLK",
      "alert": "OK",
      "vis_m": 9999,
      "fzfg": false,
      "metar_trigger": false,
      "taf_trigger": false,
      "metar": "METAR LCLK 071430Z 23017KT 9999 FEW030 19/17 Q1007 NOSIG",
      "taf": "TAF LCLK 071130Z 0712/0812 22020KT 9999 FEW025 SCT040"
    },
    {
      "icao": "LCPH",
      "alert": "OK",
      "vis_m": 9999,
      "fzfg": false,
      "metar_trigger": false,
      "taf_trigger": false,
      "metar": "METAR LCPH 071430Z 32011KT 9999 FEW014 SCT025 19/16 Q1009 NOSIG",
      "taf": "TAF LCPH 071130Z 0712/0812 26016KT 9999 FEW018 SCT030"
    },
    {
      "icao": "LEAL",
      "alert": "OK",
      "vis_m": 9999,
      "fzfg": false,
      "metar_trigger": false,
      "taf_trigger": false,
      "metar": "METAR LEAL 071430Z 18004KT 120V230 CAVOK 18/05 Q1011 NOSIG",
      "taf": "TAF LEAL 071100Z 0712/0812 22012KT 9999 FEW040 TX16/0714Z TN08/0806Z"
    },
    {
      "icao": "LEBB",
      "alert": "OK",
      "vis_m": 9999,
      "fzfg": false,
      "metar_trigger": false,
      "taf_trigger": false,
      "metar": "METAR LEBB 071430Z 18009KT 110V240 9999 FEW040 15/02 Q1001 NOSIG",
      "taf": "TAF LEBB 071100Z 0712/0812 20010KT CAVOK TX14/0714Z TN07/0804Z"
    },
    {
      "icao": "LEBL",
      "alert": "OK",
      "vis_m": 9999,
      "fzfg": false,
      "metar_trigger": false,
      "taf_trigger": false,
      "metar": "METAR LEBL 071430Z 30014KT 260V340 9999 FEW040 16/03 Q1006 NOSIG",
      "taf": "TAF LEBL 071100Z 0712/0812 29009KT 9999 FEW025 TX16/0713Z TN07/0806Z"
    },
    {
      "icao": "LECH",
      "alert": "OK",
      "vis_m": 9000,
      "fzfg": false,
      "metar_trigger": false,
      "taf_trigger": false,
      "metar": "METAR LECH 071430Z AUTO 21011KT 170V240 9000 NSC 15/M01 Q1007",
      "taf": ""
    },
    {
      "icao": "LEMD",
      "alert": "OK",
      "vis_m": 7000,
      "fzfg": false,
      "metar_trigger": false,
      "taf_trigger": false,
      "metar": "METAR LEMD 071430Z 16012G27KT 110V200 7000 RA SCT014 OVC020 05/05 Q1006 BECMG 4000 RA",
      "taf": ""
    },
    {
      "icao": "LEMG",
      "alert": "OK",
      "vis_m": 9999,
      "fzfg": false,
      "metar_trigger": false,
      "taf_trigger": false,
      "metar": "METAR LEMG 071430Z 21007KT 150V290 9999 -RA FEW025 BKN030 BKN045 14/11 Q1012 NOSIG",
      "taf": "TAF LEMG 071100Z 0712/0812 12007KT 9999 FEW040 TX13/0714Z TN09/0806Z"
    },
    {
      "icao": "LEVC",
      "alert": "OK",
      "vis_m": 9999,
      "fzfg": false,
      "metar_trigger": false,
      "taf_trigger": false,
      "metar": "METAR LEVC 071430Z 26013KT 230V290 9999 FEW035 14/02 Q1010 NOSIG",
      "taf": "TAF LEVC 071100Z 0712/0812 27014KT 9999 SCT035 TX16/0714Z TN08/0806Z"
    },
    {
      "icao": "LEXJ",
      "alert": "OK",
      "vis_m": 9999,
      "fzfg": false,
      "metar_trigger": false,
      "taf_trigger": false,
      "metar": "METAR LEXJ 071430Z 17014G25KT 140V210 CAVOK 13/01 Q0999",
      "taf": "TAF LEXJ 071400Z 0715/0815 20009KT 9999 SCT050 TX13/0715Z TN07/0719Z"
    },
    {
      "icao": "LEZG",
      "alert": "OK",
      "vis_m": 9999,
      "fzfg": false,
      "metar_trigger": false,
      "taf_trigger": false,
      "metar": "METAR LEZG 071430Z 24012G25KT 200V300 9999 FEW050 13/02 Q1006 NOSIG",
      "taf": "TAF LEZG 071100Z 0712/0812 24012KT 9999 FEW050 TX13/0715Z TN05/0806Z"
    },
    {
      "icao": "LEZL",
      "alert": "OK",
      "vis_m": 6000,
      "fzfg": false,
      "metar_trigger": false,
      "taf_trigger": false,
      "metar": "METAR LEZL 071430Z 22012KT 6000 RA VCTS SCT013 SCT020CB OVC035 12/11 Q1008 NOSIG",
      "taf": "TAF LEZL 071400Z 0715/0815 24018KT 9999 SCT030 SCT040 TX14/0815Z TN09/0807Z"
    },
    {
      "icao": "LFBD",
      "alert": "OK",
      "vis_m": 9999,
      "fzfg": false,
      "metar_trigger": false,
      "taf_trigger": false,
      "metar": "METAR LFBD 071430Z AUTO 18005KT 140V220 CAVOK 13/05 Q1003 NOSIG",
      "taf": ""
    },
    {
      "icao": "LFLL",
      "alert": "OK",
      "vis_m": 9999,
      "fzfg": false,
      "metar_trigger": false,
      "taf_trigger": false,
      "metar": "METAR LFLL 071430Z VRB01KT 9999 FEW018 SCT160 BKN230 11/06 Q1004 NOSIG",
      "taf": "TAF LFLL 071100Z 0712/0818 VRB04KT 9999 FEW015 BKN100"
    },
    {
      "icao": "LFLS",
      "alert": "OK",
      "vis_m": 9999,
      "fzfg": false,
      "metar_trigger": false,
      "taf_trigger": false,
      "metar": "METAR LFLS 071430Z AUTO 25005KT 9999 FEW030 BKN160 11/06 Q1003 NOSIG",
      "taf": "TAF LFLS 071400Z 0715/0815 VRB03KT CAVOK"
    },
    {
      "icao": "LFMN",
      "alert": "OK",
      "vis_m": 9999,
      "fzfg": false,
      "metar_trigger": false,
      "taf_trigger": false,
      "metar": "METAR LFMN 071439Z VRB02KT 9999 SCT020 SCT040TCU BKN073 13/10 Q1003 NOSIG",
      "taf": "TAF LFMN 071400Z 0715/0821 09010KT 9999 BKN030"
    },
    {
      "icao": "LFOB",
      "alert": "OK",
      "vis_m": 9999,
      "fzfg": false,
      "metar_trigger": false,
      "taf_trigger": false,
      "metar": "METAR LFOB 071430Z AUTO 20013KT 9999 BKN031 BKN037 BKN044 12/06 Q1001 NOSIG",
      "taf": "TAF LFOB 071100Z 0712/0812 19012KT 9999 SCT020"
    },
    {
      "icao": "LFPO",
      "alert": "OK",
      "vis_m": 9999,
      "fzfg": false,
      "metar_trigger": false,
      "taf_trigger": false,
      "metar": "METAR LFPO 071430Z 21009KT CAVOK 13/06 Q1002 NOSIG",
      "taf": "TAF LFPO 071100Z 0712/0818 19010KT 9999 BKN030"
    },
    {
      "icao": "LFSB",
      "alert": "OK",
      "vis_m": 9999,
      "fzfg": false,
      "metar_trigger": false,
      "taf_trigger": false,
      "metar": "METAR LFSB 071430Z AUTO VRB03KT 9999 FEW039 13/04 Q1004 NOSIG",
      "taf": "TAF LFSB 071100Z 0712/0812 17005KT CAVOK"
    },
    {
      "icao": "LGAV",
      "alert": "OK",
      "vis_m": 9999,
      "fzfg": false,
      "metar_trigger": false,
      "taf_trigger": false,
      "metar": "METAR LGAV 071420Z 22011KT CAVOK 19/08 Q1007 NOSIG",
      "taf": "TAF LGAV 071100Z 0712/0812 26014KT 9999 FEW020"
    },
    {
      "icao": "LGTS",
      "alert": "OK",
      "vis_m": 9999,
      "fzfg": false,
      "metar_trigger": false,
      "taf_trigger": false,
      "metar": "METAR LGTS 071420Z 02002KT 9999 FEW018 19/11 Q1004 NOSIG",
      "taf": "TAF LGTS 071100Z 0712/0812 VRB03KT 4000 BR SCT005"
    },
    {
      "icao": "LHBP",
      "alert": "OK",
      "vis_m": 9999,
      "fzfg": false,
      "metar_trigger": false,
      "taf_trigger": false,
      "metar": "METAR LHBP 071430Z 31008KT 9999 SCT026 BKN140 08/03 Q1004 NOSIG",
      "taf": "TAF LHBP 071115Z 0712/0812 29008KT 9999 BKN028"
    },
    {
      "icao": "LHDC",
      "alert": "OK",
      "vis_m": 9999,
      "fzfg": false,
      "metar_trigger": false,
      "taf_trigger": false,
      "metar": "METAR LHDC 071415Z AUTO 28006KT 250V310 9999 OVC024 08/05 Q1003 NOSIG",
      "taf": "TAF LHDC 071415Z 0715/0724 24008KT 9999 BKN020"
    },
    {
      "icao": "LIBD",
      "alert": "OK",
      "vis_m": 9999,
      "fzfg": false,
      "metar_trigger": false,
      "taf_trigger": false,
      "metar": "METAR LIBD 071420Z 05005KT 020V080 9999 FEW040 16/09 Q1006",
      "taf": "TAF LIBD 071100Z 0712/0812 VRB06KT 9999 SCT045"
    },
    {
      "icao": "LIBG",
      "alert": "OK",
      "vis_m": 9999,
      "fzfg": false,
      "metar_trigger": false,
      "taf_trigger": false,
      "metar": "METAR LIBG 071350Z 21007KT 180V240 CAVOK 17/09 Q1007",
      "taf": "TAF LIBG 071400Z 0715/0724 22010KT 9999 SCT040"
    },
    {
      "icao": "LIBP",
      "alert": "OK",
      "vis_m": 9999,
      "fzfg": false,
      "metar_trigger": false,
      "taf_trigger": false,
      "metar": "METAR LIBP 071420Z AUTO VRB04KT 9999 BKN073/// 15/06 Q1004",
      "taf": "TAF LIBP 071100Z 0712/0812 VRB05KT 9999 FEW050"
    },
    {
      "icao": "LIBR",
      "alert": "OK",
      "vis_m": 9999,
      "fzfg": false,
      "metar_trigger": false,
      "taf_trigger": false,
      "metar": "METAR LIBR 071420Z 23014KT CAVOK 18/07 Q1007",
      "taf": "TAF LIBR 071100Z 0712/0812 24010KT 9999 SCT040"
    },
    {
      "icao": "LICA",
      "alert": "OK",
      "vis_m": 9999,
      "fzfg": false,
      "metar_trigger": false,
      "taf_trigger": false,
      "metar": "METAR LICA 071420Z AUTO 25008KT 9999 OVC025/// 15/12 Q1009",
      "taf": "TAF LICA 071100Z 0712/0812 27015KT 9999 SCT015"
    },
    {
      "icao": "LICC",
      "alert": "OK",
      "vis_m": 9999,
      "fzfg": false,
      "metar_trigger": false,
      "taf_trigger": false,
      "metar": "METAR LICC 071420Z 25017KT 9999 SCT130 18/13 Q1008",
      "taf": "TAF LICC 071100Z 0712/0812 26015KT 9999 SCT050"
    },
    {
      "icao": "LICJ",
      "alert": "OK",
      "vis_m": 9999,
      "fzfg": false,
      "metar_trigger": false,
      "taf_trigger": false,
      "metar": "METAR LICJ 071420Z 22012KT 9999 SCT070 16/11 Q1010",
      "taf": "TAF LICJ 071100Z 0712/0812 23018G28KT 9999 BKN030"
    },
    {
      "icao": "LIMC",
      "alert": "OK",
      "vis_m": 9999,
      "fzfg": false,
      "metar_trigger": false,
      "taf_trigger": false,
      "metar": "METAR LIMC 071420Z 20004KT 160V250 9999 BKN065 12/07 Q1004 NOSIG",
      "taf": "TAF LIMC 071100Z 0712/0818 VRB05KT CAVOK"
    },
    {
      "icao": "LIME",
      "alert": "OK",
      "vis_m": 9999,
      "fzfg": false,
      "metar_trigger": false,
      "taf_trigger": false,
      "metar": "METAR LIME 071420Z 20004KT 9999 SCT040 SCT060 11/06 Q1004 NOSIG",
      "taf": "TAF LIME 071100Z 0712/0812 VRB05KT 9999 SCT090"
    },
    {
      "icao": "LIMF",
      "alert": "OK",
      "vis_m": 8000,
      "fzfg": false,
      "metar_trigger": false,
      "taf_trigger": false,
      "metar": "METAR LIMF 071420Z 09003KT 030V140 8000 SCT030 BKN060 11/05 Q1004",
      "taf": "TAF LIMF 071100Z 0712/0812 VRB05KT CAVOK"
    },
    {
      "icao": "LIMJ",
      "alert": "OK",
      "vis_m": 9999,
      "fzfg": false,
      "metar_trigger": false,
      "taf_trigger": false,
      "metar": "METAR LIMJ 071420Z 12005KT 9999 FEW022 14/09 Q1003",
      "taf": "TAF LIMJ 071100Z 0712/0812 VRB06KT 9999 SCT040"
    },
    {
      "icao": "LIPE",
      "alert": "OK",
      "vis_m": 9999,
      "fzfg": false,
      "metar_trigger": false,
      "taf_trigger": false,
      "metar": "METAR LIPE 071420Z 08005KT 9999 FEW055 12/09 Q1003",
      "taf": "TAF LIPE 071100Z 0712/0812 VRB05KT 9000 SCT030"
    },
    {
      "icao": "LIPH",
      "alert": "OK",
      "vis_m": 7000,
      "fzfg": false,
      "metar_trigger": false,
      "taf_trigger": false,
      "metar": "METAR LIPH 071420Z 06004KT 020V090 7000 FEW015 BKN060 11/08 Q1005",
      "taf": "TAF LIPH 071100Z 0712/0812 VRB05KT 6000 SCT020"
    },
    {
      "icao": "LIPQ",
      "alert": "OK",
      "vis_m": 9999,
      "fzfg": false,
      "metar_trigger": false,
      "taf_trigger": false,
      "metar": "METAR LIPQ 071420Z AUTO 05004KT 010V110 9999 -RA OVC053/// 11/09 Q1005",
      "taf": "TAF LIPQ 071100Z 0712/0812 VRB05KT 8000 BKN050"
    },
    {
      "icao": "LIPR",
      "alert": "OK",
      "vis_m": 9999,
      "fzfg": false,
      "metar_trigger": false,
      "taf_trigger": false,
      "metar": "METAR LIPR 071420Z 36005KT 9999 BKN050 11/08 Q1004",
      "taf": "TAF LIPR 071100Z 0712/0812 VRB05KT 9999 SCT030"
    },
    {
      "icao": "LIPX",
      "alert": "OK",
      "vis_m": 9999,
      "fzfg": false,
      "metar_trigger": false,
      "taf_trigger": false,
      "metar": "METAR LIPX 071420Z 13007KT 9999 BKN050 13/09 Q1004",
      "taf": "TAF LIPX 071100Z 0712/0812 VRB05KT 9999 SCT050"
    },
    {
      "icao": "LIPY",
      "alert": "OK",
      "vis_m": 9999,
      "fzfg": false,
      "metar_trigger": false,
      "taf_trigger": false,
      "metar": "METAR LIPY 071420Z AUTO 14005KT 090V200 9999 SCT052/// BKN100/// 14/08 Q1004",
      "taf": "TAF LIPY 071100Z 0712/0812 VRB05KT 9999 SCT040"
    },
    {
      "icao": "LIPZ",
      "alert": "OK",
      "vis_m": 6000,
      "fzfg": false,
      "metar_trigger": false,
      "taf_trigger": false,
      "metar": "METAR LIPZ 071420Z 09006KT 6000 SCT020 SCT050 11/10 Q1005 NOSIG",
      "taf": "TAF LIPZ 071100Z 0712/0818 VRB05KT 2000 BR BKN003 BKN060"
    },
    {
      "icao": "LIRF",
      "alert": "OK",
      "vis_m": 6000,
      "fzfg": false,
      "metar_trigger": false,
      "taf_trigger": false,
      "metar": "METAR LIRF 071420Z VRB03KT 6000 SHRA FEW015 SCT035 13/11 Q1004 TEMPO 4000TSRA",
      "taf": "TAF LIRF 071100Z 0712/0818 16012KT 9999 SCT030"
    },
    {
      "icao": "LIRN",
      "alert": "OK",
      "vis_m": 8000,
      "fzfg": false,
      "metar_trigger": false,
      "taf_trigger": false,
      "metar": "METAR LIRN 071420Z 19009KT 150V230 8000 -RA SCT015 BKN050 15/11 Q1006 NOSIG",
      "taf": "TAF LIRN 071100Z 0712/0812 19010KT 9999 SCT040"
    },
    {
      "icao": "LIRP",
      "alert": "OK",
      "vis_m": 9999,
      "fzfg": false,
      "metar_trigger": false,
      "taf_trigger": false,
      "metar": "METAR LIRP 071415Z 17005KT 9999 FEW025TCU SCT040 12/10 Q1004 NOSIG",
      "taf": "TAF LIRP 071100Z 0712/0812 28005KT 9999 SCT040"
    },
    {
      "icao": "LIRZ",
      "alert": "OK",
      "vis_m": 9999,
      "fzfg": false,
      "metar_trigger": false,
      "taf_trigger": false,
      "metar": "METAR LIRZ 071420Z AUTO 14011KT 9999 -RA BKN043/// 10/09 Q1005",
      "taf": "TAF LIRZ 071100Z 0712/0812 18010KT 9999 BKN030"
    },
    {
      "icao": "LJLJ",
      "alert": "OK",
      "vis_m": 9999,
      "fzfg": false,
      "metar_trigger": false,
      "taf_trigger": false,
      "metar": "METAR LJLJ 071430Z 24003KT 9999 -RA FEW040 BKN100 08/07 Q1005 NOSIG",
      "taf": "TAF LJLJ 071100Z 0712/0812 VRB02KT 9999 SCT005 BKN060"
    },
    {
      "icao": "LKMT",
      "alert": "OK",
      "vis_m": 600,
      "fzfg": false,
      "metar_trigger": false,
      "taf_trigger": false,
      "metar": "METAR LKMT 071430Z VRB02KT 0600 R22/1300N R04/1300U -DZ FG BKN003 OVC006 03/03 Q1004 NOSIG",
      "taf": "TAF LKMT 071100Z 0712/0812 23006KT 2100 BR OVC007"
    },
    {
      "icao": "LKPR",
      "alert": "OK",
      "vis_m": 3300,
      "fzfg": false,
      "metar_trigger": false,
      "taf_trigger": false,
      "metar": "METAR LKPR 071430Z 05003KT 3300 BR BKN003 BKN005 OVC007 04/03 Q1004 NOSIG",
      "taf": "TAF LKPR 071400Z 0715/0821 34002KT 2500 BR OVC003"
    },
    {
      "icao": "LLBG",
      "alert": "OK",
      "vis_m": 9999,
      "fzfg": false,
      "metar_trigger": false,
      "taf_trigger": false,
      "metar": "METAR LLBG 071450Z 23009KT CAVOK 23/09 Q1012 NOSIG",
      "taf": "TAF LLBG 071102Z 0712/0812 24015KT CAVOK"
    },
    {
      "icao": "LMML",
      "alert": "OK",
      "vis_m": 9999,
      "fzfg": false,
      "metar_trigger": false,
      "taf_trigger": false,
      "metar": "METAR LMML 071445Z 29010KT 9999 FEW020 17/12 Q1011 NOSIG",
      "taf": "TAF LMML 071100Z 0712/0812 26008KT 9999 FEW020"
    },
    {
      "icao": "LOWW",
      "alert": "OK",
      "vis_m": 9999,
      "fzfg": false,
      "metar_trigger": false,
      "taf_trigger": false,
      "metar": "METAR LOWW 071420Z 04005KT 010V070 9999 FEW024 07/04 Q1005 NOSIG",
      "taf": "TAF LOWW 071415Z 0715/0821 VRB03KT 9999 BKN025 TX08/0715Z TN03/0821Z"
    },
    {
      "icao": "LPFR",
      "alert": "OK",
      "vis_m": 9999,
      "fzfg": false,
      "metar_trigger": false,
      "taf_trigger": false,
      "metar": "METAR LPFR 071430Z 22024KT 9999 FEW015 BKN022 14/11 Q1008",
      "taf": "TAF LPFR 071100Z 0712/0812 23023KT 6000 -RA SCT008 BKN018"
    },
    {
      "icao": "LPMA",
      "alert": "OK",
      "vis_m": 9999,
      "fzfg": false,
      "metar_trigger": false,
      "taf_trigger": false,
      "metar": "METAR LPMA 071430Z 24011KT 200V310 9999 FEW015 21/13 Q1020",
      "taf": "TAF LPMA 071100Z 0712/0812 23010KT 9999 SCT015"
    },
    {
      "icao": "LPPR",
      "alert": "OK",
      "vis_m": 7000,
      "fzfg": false,
      "metar_trigger": false,
      "taf_trigger": false,
      "metar": "METAR LPPR 071430Z 21021G38KT 7000 -SHRA FEW010 FEW017CB BKN020 14/11 Q0993",
      "taf": "TAF LPPR 071100Z 0712/0812 18018KT 8000 -RA SCT012 BKN025"
    },
    {
      "icao": "LPPS",
      "alert": "OK",
      "vis_m": 9999,
      "fzfg": false,
      "metar_trigger": false,
      "taf_trigger": false,
      "metar": "METAR LPPS 071430Z 27020KT 9999 FEW014 19/15 Q1020",
      "taf": "TAF LPPS 071100Z 0712/0818 27018KT 9999 SCT015"
    },
    {
      "icao": "LPPT",
      "alert": "OK",
      "vis_m": 9999,
      "fzfg": false,
      "metar_trigger": false,
      "taf_trigger": false,
      "metar": "METAR LPPT 071430Z 24021G31KT 9999 VCSH FEW025 SCT028 FEW032TCU 15/11 Q1002 WS R20",
      "taf": "TAF LPPT 071100Z 0712/0818 27018KT 9999 SCT025"
    },
    {
      "icao": "LQBK",
      "alert": "OK",
      "vis_m": 9999,
      "fzfg": false,
      "metar_trigger": false,
      "taf_trigger": false,
      "metar": "METAR LQBK 071430Z 17005KT CAVOK 12/08 Q1005 NOSIG",
      "taf": "TAF LQBK 071100Z 0712/0812 VRB02KT 7000 SCT030 BKN045 TX12/0713Z TN04/0805Z"
    },
    {
      "icao": "LQSA",
      "alert": "OK",
      "vis_m": 3500,
      "fzfg": false,
      "metar_trigger": false,
      "taf_trigger": false,
      "metar": "METAR LQSA 071430Z 31006KT 3500 -RA FEW005 BKN015 BKN025 07/07 Q1005 NOSIG",
      "taf": "TAF LQSA 071100Z 0712/0812 VRB02KT 4000 RA BR BKN004 BKN030 TX08/0713Z TN02/0805Z"
    },
    {
      "icao": "LQTZ",
      "alert": "OK",
      "vis_m": 4000,
      "fzfg": false,
      "metar_trigger": false,
      "taf_trigger": false,
      "metar": "METAR LQTZ 071430Z 27006KT 4000 -DZ BR OVC020 10/09 Q1005",
      "taf": "TAF LQTZ 071100Z 0712/0812 VRB02KT 7000 SCT012 BKN035 TX10/0713Z TN03/0805Z"
    },
    {
      "icao": "LRBC",
      "alert": "OK",
      "vis_m": 9999,
      "fzfg": false,
      "metar_trigger": false,
      "taf_trigger": false,
      "metar": "METAR LRBC 071430Z 03003KT 360V070 9999 SCT007 BKN058 03/01 Q1004",
      "taf": "TAF LRBC 071400Z 0715/0724 VRB04KT 7000 OVC010"
    },
    {
      "icao": "LRBS",
      "alert": "OK",
      "vis_m": 9999,
      "fzfg": false,
      "metar_trigger": false,
      "taf_trigger": false,
      "metar": "METAR LRBS 071430Z 27009KT 240V320 9999 OVC010 06/04 Q1004 NOSIG",
      "taf": "TAF LRBS 071100Z 0712/0812 24010KT 9999 OVC010"
    },
    {
      "icao": "LRBV",
      "alert": "OK",
      "vis_m": 9999,
      "fzfg": false,
      "metar_trigger": false,
      "taf_trigger": false,
      "metar": "METAR LRBV 071430Z 00000KT 9999 BKN018 BKN023 BKN060 07/04 Q1003",
      "taf": "TAF LRBV 071400Z 0715/0724 VRB04KT 9999 BKN015 BKN035"
    },
    {
      "icao": "LRCL",
      "alert": "OK",
      "vis_m": 9999,
      "fzfg": false,
      "metar_trigger": false,
      "taf_trigger": false,
      "metar": "METAR LRCL 071430Z COR 03002KT 9999 SCT045 SCT059 09/05 Q1003",
      "taf": "TAF LRCL 071400Z 0715/0724 VRB04KT 9999 BKN040"
    },
    {
      "icao": "LRCV",
      "alert": "OK",
      "vis_m": 9999,
      "fzfg": false,
      "metar_trigger": false,
      "taf_trigger": false,
      "metar": "METAR LRCV 071430Z 23005KT 9999 BKN009 BKN024 06/05 Q1004",
      "taf": "TAF LRCV 071400Z 0715/0724 VRB04KT 9999 BKN010 BKN025"
    },
    {
      "icao": "LRIA",
      "alert": "OK",
      "vis_m": 9999,
      "fzfg": false,
      "metar_trigger": false,
      "taf_trigger": false,
      "metar": "METAR LRIA 071430Z 31003KT 9999 SCT006 BKN017 00/M01 Q1004",
      "taf": "TAF LRIA 071400Z 0715/0724 VRB04KT 9999 SCT005 OVC010"
    },
    {
      "icao": "LROP",
      "alert": "OK",
      "vis_m": 9999,
      "fzfg": false,
      "metar_trigger": false,
      "taf_trigger": false,
      "metar": "METAR LROP 071430Z 26008KT 9999 OVC009 06/05 Q1004 NOSIG",
      "taf": "TAF LROP 071100Z 0712/0812 24010KT 9999 OVC010"
    },
    {
      "icao": "LRSB",
      "alert": "OK",
      "vis_m": 9999,
      "fzfg": false,
      "metar_trigger": false,
      "taf_trigger": false,
      "metar": "METAR LRSB 071430Z 16004KT 9999 FEW035 SCT076 08/06 Q1003",
      "taf": "TAF LRSB 071100Z 0712/0812 VRB04KT 9999 BKN035"
    },
    {
      "icao": "LRSM",
      "alert": "OK",
      "vis_m": 9999,
      "fzfg": false,
      "metar_trigger": false,
      "taf_trigger": false,
      "metar": "METAR LRSM 071430Z AUTO 20003KT 9999 SCT028/// OVC032/// 08/06 Q1003",
      "taf": ""
    },
    {
      "icao": "LRSV",
      "alert": "OK",
      "vis_m": 1000,
      "fzfg": false,
      "metar_trigger": false,
      "taf_trigger": false,
      "metar": "METAR LRSV 071430Z 07002KT 1000 R34/1300 BR OVC002 M01/M01 Q1002",
      "taf": "TAF LRSV 071400Z 0715/0724 VRB04KT 1500 BR BKN002"
    },
    {
      "icao": "LRTM",
      "alert": "OK",
      "vis_m": 9999,
      "fzfg": false,
      "metar_trigger": false,
      "taf_trigger": false,
      "metar": "METAR LRTM 071430Z VRB04KT 9999 -SHRA FEW018 SCT021 SCT043CB 10/05 Q1003",
      "taf": "TAF LRTM 071400Z 0715/0724 VRB04KT 9999 BKN030"
    },
    {
      "icao": "LRTR",
      "alert": "OK",
      "vis_m": 9999,
      "fzfg": false,
      "metar_trigger": false,
      "taf_trigger": false,
      "metar": "METAR LRTR 071430Z 31004KT 9999 FEW020 10/08 Q1004 NOSIG",
      "taf": "TAF LRTR 071100Z 0712/0812 VRB04KT CAVOK"
    },
    {
      "icao": "LTAC",
      "alert": "OK",
      "vis_m": 9999,
      "fzfg": false,
      "metar_trigger": false,
      "taf_trigger": false,
      "metar": "METAR LTAC 071420Z 26012KT 9999 FEW025CB SCT030 BKN080 09/05 Q1004 NOSIG RMK RWY21C 26014KT RWY03L 27011KT 230V290 RWY21R 26012KT RWY03R 25010KT RWY21L 26012KT",
      "taf": "TAF LTAC 071040Z 0712/0812 23009KT 9999 SCT040 SCT100"
    },
    {
      "icao": "LTFM",
      "alert": "OK",
      "vis_m": 4000,
      "fzfg": false,
      "metar_trigger": false,
      "taf_trigger": false,
      "metar": "METAR LTFM 071420Z 06006KT 030V090 4000 BR BKN002 BKN022 08/07 Q1004 NOSIG RMK RWY17L 07006KT RWY34L 06006KT 020V080 RWY16R 07006KT RWY36 07007KT 010V090 RWY18 08006KT",
      "taf": ""
    },
    {
      "icao": "LUKK",
      "alert": "OK",
      "vis_m": 9999,
      "fzfg": false,
      "metar_trigger": false,
      "taf_trigger": false,
      "metar": "METAR LUKK 071430Z 33006KT 9999 BKN009 OVC013 00/M01 Q1003 NOSIG",
      "taf": "TAF LUKK 071110Z 0712/0812 34005KT 9999 OVC008"
    },
    {
      "icao": "LWOH",
      "alert": "OK",
      "vis_m": 9999,
      "fzfg": false,
      "metar_trigger": false,
      "taf_trigger": false,
      "metar": "METAR LWOH 071450Z 17009KT 9999 BKN040 11/06 Q1007",
      "taf": ""
    },
    {
      "icao": "LWSK",
      "alert": "OK",
      "vis_m": 9999,
      "fzfg": false,
      "metar_trigger": false,
      "taf_trigger": false,
      "metar": "METAR LWSK 071450Z 34003KT 310V040 9999 FEW030 SCT080 12/09 Q1005 NOSIG",
      "taf": ""
    },
    {
      "icao": "LYBE",
      "alert": "OK",
      "vis_m": 8000,
      "fzfg": false,
      "metar_trigger": false,
      "taf_trigger": false,
      "metar": "METAR LYBE 071430Z 28003KT 8000 SCT013 11/07 Q1005 NOSIG",
      "taf": "TAF LYBE 071100Z 0712/0812 25006KT 4000 BR BKN007 TX11/0713Z TN05/0806Z"
    },
    {
      "icao": "LYNI",
      "alert": "OK",
      "vis_m": 9999,
      "fzfg": false,
      "metar_trigger": false,
      "taf_trigger": false,
      "metar": "METAR LYNI 071430Z VRB01KT 9999 -RA FEW015 SCT033 BKN067 10/08 Q1005 NOSIG",
      "taf": "TAF LYNI 071100Z 0712/0812 32005KT 8000 SCT012 BKN030 TX10/0713Z TN05/0806Z"
    },
    {
      "icao": "LYPG",
      "alert": "OK",
      "vis_m": 9999,
      "fzfg": false,
      "metar_trigger": false,
      "taf_trigger": false,
      "metar": "METAR LYPG 071430Z 11003KT 070V190 9999 FEW013 BKN040 12/10 Q1007 RERA NOSIG",
      "taf": "TAF LYPG 071100Z 0712/0812 18006KT 9999 FEW010 BKN050 TX15/0713Z TN09/0806Z"
    },
    {
      "icao": "LZIB",
      "alert": "OK",
      "vis_m": 9999,
      "fzfg": false,
      "metar_trigger": false,
      "taf_trigger": false,
      "metar": "METAR LZIB 071430Z 32010KT 9999 SCT023 09/04 Q1004 NOSIG",
      "taf": "TAF LZIB 071115Z 0712/0812 28006KT 9999 SCT015 BKN020"
    },
    {
      "icao": "LZKZ",
      "alert": "OK",
      "vis_m": 9999,
      "fzfg": false,
      "metar_trigger": false,
      "taf_trigger": false,
      "metar": "METAR LZKZ 071430Z 08004KT 9999 OVC015 06/05 Q1003 NOSIG",
      "taf": "TAF LZKZ 071115Z 0712/0812 02005KT 9999 SCT012 OVC025"
    },
    {
      "icao": "LZTT",
      "alert": "OK",
      "vis_m": 9999,
      "fzfg": false,
      "metar_trigger": false,
      "taf_trigger": false,
      "metar": "METAR LZTT 071430Z 27007KT 9999 4000E PRFG FEW006 BKN016 OVC040 04/03 Q1002 NOSIG",
      "taf": "TAF LZTT 071115Z 0712/0812 VRB02KT 4000 BR FEW003 SCT008 OVC016"
    },
    {
      "icao": "OEJN",
      "alert": "OK",
      "vis_m": 9999,
      "fzfg": false,
      "metar_trigger": false,
      "taf_trigger": false,
      "metar": "METAR OEJN 071400Z 30011KT 9999 FEW040 27/16 Q1013 NOSIG",
      "taf": "TAF OEJN 071100Z 0712/0818 30012KT 9999 SCT040"
    },
    {
      "icao": "OEMA",
      "alert": "OK",
      "vis_m": 9999,
      "fzfg": false,
      "metar_trigger": false,
      "taf_trigger": false,
      "metar": "METAR OEMA 071400Z 27010KT CAVOK 28/M03 Q1016 NOSIG",
      "taf": "TAF OEMA 071100Z 0712/0818 30012KT CAVOK"
    },
    {
      "icao": "OJAI",
      "alert": "OK",
      "vis_m": 3000,
      "fzfg": false,
      "metar_trigger": false,
      "taf_trigger": false,
      "metar": "METAR OJAI 071400Z 25020KT 3000 BLDU SCT030 18/06 Q1014 NOSIG",
      "taf": "TAF OJAI 071056Z 0712/0818 26014KT 4000 DU FEW040"
    },
    {
      "icao": "OMAA",
      "alert": "OK",
      "vis_m": 9999,
      "fzfg": false,
      "metar_trigger": false,
      "taf_trigger": false,
      "metar": "METAR OMAA 071430Z 35012KT CAVOK 23/17 Q1015 NOSIG",
      "taf": "TAF OMAA 071100Z 0712/0818 31010KT 8000 NSC"
    },
    {
      "icao": "OMDB",
      "alert": "OK",
      "vis_m": 9999,
      "fzfg": false,
      "metar_trigger": false,
      "taf_trigger": false,
      "metar": "METAR OMDB 071430Z 34009KT CAVOK 24/16 Q1016 NOSIG",
      "taf": "TAF OMDB 071100Z 0712/0818 33010KT 8000 NSC"
    },
    {
      "icao": "UAAA",
      "alert": "OK",
      "vis_m": 5000,
      "fzfg": false,
      "metar_trigger": false,
      "taf_trigger": false,
      "metar": "SPECI UAAA 071444Z 35002MPS 5000 -SHSN BR SCT007 BKN021CB OVC100 M02/M03 Q1025 NOSIG",
      "taf": "TAF UAAA 071108Z 0712/0812 01003MPS 3100 -SHSN BR BKN020CB OVC100 TX00/0807Z TNM04/0802Z"
    },
    {
      "icao": "UBBB",
      "alert": "OK",
      "vis_m": 9999,
      "fzfg": false,
      "metar_trigger": false,
      "taf_trigger": false,
      "metar": "METAR UBBB 071430Z 19020G30KT CAVOK 08/04 Q1005 NOSIG",
      "taf": "TAF UBBB 071049Z 0712/0812 18020G30KT 9999 SCT030 TX10/0712Z TN03/0801Z"
    },
    {
      "icao": "UDSG",
      "alert": "OK",
      "vis_m": 7000,
      "fzfg": false,
      "metar_trigger": false,
      "taf_trigger": false,
      "metar": "METAR UDSG 071430Z 25011KT 7000 BKN023 00/M01 Q1009 NOSIG",
      "taf": "TAF UDSG 071058Z 0712/0812 VRB06KT 5000 BR OVC030"
    },
    {
      "icao": "UDYZ",
      "alert": "OK",
      "vis_m": 9000,
      "fzfg": false,
      "metar_trigger": false,
      "taf_trigger": false,
      "metar": "METAR UDYZ 071430Z 21001KT 9000 BKN043 07/01 Q1010 NOSIG",
      "taf": "TAF UDYZ 071100Z 0712/0812 VRB06KT 6000 BKN040"
    },
    {
      "icao": "UGKO",
      "alert": "OK",
      "vis_m": 9999,
      "fzfg": false,
      "metar_trigger": false,
      "taf_trigger": false,
      "metar": "METAR UGKO 071430Z 08013KT CAVOK 15/01 Q1003 NOSIG",
      "taf": "TAF UGKO 071100Z 0712/0812 09010KT CAVOK TX16/0712Z TN08/0803Z"
    }
  ]
}