{
  "ts_utc": "2026-07-17T01:11:46Z",
  "threshold_m": 150,
  "source": "stations_override.txt (ICAO list) + aviationweather.gov (METAR/TAF raw)",
  "station_count": 159,
  "stations": [
    {
      "icao": "BIKF",
      "alert": "OK",
      "vis_m": 2500,
      "fzfg": false,
      "metar_trigger": false,
      "taf_trigger": false,
      "metar": "METAR BIKF 170100Z 25010KT 2500 BR OVC002 10/10 Q1025",
      "taf": "TAF BIKF 170109Z 1703/1803 27011KT 4000 -DZ BKN005 TX12/1715Z TN09/1703Z"
    },
    {
      "icao": "BKPR",
      "alert": "OK",
      "vis_m": 9999,
      "fzfg": false,
      "metar_trigger": false,
      "taf_trigger": false,
      "metar": "METAR BKPR 170100Z VRB02KT CAVOK 17/16 Q1020 NOSIG",
      "taf": "TAF BKPR 162330Z 1700/1724 34006KT 9999 FEW080"
    },
    {
      "icao": "EBCI",
      "alert": "OK",
      "vis_m": 9999,
      "fzfg": false,
      "metar_trigger": false,
      "taf_trigger": false,
      "metar": "METAR EBCI 170050Z AUTO 05006KT CAVOK 20/12 Q1015",
      "taf": "TAF EBCI 162300Z 1700/1806 02006KT CAVOK"
    },
    {
      "icao": "EDDB",
      "alert": "OK",
      "vis_m": 9999,
      "fzfg": false,
      "metar_trigger": false,
      "taf_trigger": false,
      "metar": "METAR EDDB 170050Z AUTO 09003KT CAVOK 18/15 Q1015 NOSIG",
      "taf": "TAF EDDB 162300Z 1700/1724 12004KT CAVOK"
    },
    {
      "icao": "EDDH",
      "alert": "OK",
      "vis_m": 9999,
      "fzfg": false,
      "metar_trigger": false,
      "taf_trigger": false,
      "metar": "METAR EDDH 170050Z AUTO 06003KT CAVOK 18/16 Q1014 NOSIG",
      "taf": "TAF EDDH 162300Z 1700/1806 07005KT CAVOK"
    },
    {
      "icao": "EDDK",
      "alert": "OK",
      "vis_m": 9999,
      "fzfg": false,
      "metar_trigger": false,
      "taf_trigger": false,
      "metar": "METAR EDDK 170050Z AUTO VRB02KT CAVOK 17/14 Q1014 NOSIG",
      "taf": "TAF EDDK 162300Z 1700/1806 VRB03KT CAVOK"
    },
    {
      "icao": "EDDN",
      "alert": "OK",
      "vis_m": 9999,
      "fzfg": false,
      "metar_trigger": false,
      "taf_trigger": false,
      "metar": "METAR EDDN 170050Z AUTO 11009KT CAVOK 17/16 Q1015",
      "taf": "TAF EDDN 162300Z 1700/1724 10004KT CAVOK"
    },
    {
      "icao": "EDDS",
      "alert": "OK",
      "vis_m": 9999,
      "fzfg": false,
      "metar_trigger": false,
      "taf_trigger": false,
      "metar": "METAR EDDS 170050Z AUTO 19003KT 130V230 CAVOK 19/16 Q1015",
      "taf": "TAF EDDS 162300Z 1700/1724 VRB03KT CAVOK"
    },
    {
      "icao": "EDFH",
      "alert": "OK",
      "vis_m": 9999,
      "fzfg": false,
      "metar_trigger": false,
      "taf_trigger": false,
      "metar": "METAR EDFH 170050Z VRB02KT CAVOK 18/14 Q1015",
      "taf": ""
    },
    {
      "icao": "EDJA",
      "alert": "OK",
      "vis_m": 9999,
      "fzfg": false,
      "metar_trigger": false,
      "taf_trigger": false,
      "metar": "METAR EDJA 170050Z AUTO 17004KT 9999 // NCD 15/15 Q1017",
      "taf": "TAF EDJA 161700Z 1618/1703 VRB03KT CAVOK"
    },
    {
      "icao": "EDLW",
      "alert": "OK",
      "vis_m": 9999,
      "fzfg": false,
      "metar_trigger": false,
      "taf_trigger": false,
      "metar": "METAR EDLW 170050Z AUTO VRB01KT 9999 // NCD 16/15 Q1014",
      "taf": "TAF EDLW 161700Z 1618/1718 06007KT CAVOK"
    },
    {
      "icao": "EDNY",
      "alert": "OK",
      "vis_m": 9999,
      "fzfg": false,
      "metar_trigger": false,
      "taf_trigger": false,
      "metar": "METAR EDNY 170050Z AUTO 24004KT 190V290 9999 // OVC170/// 18/17 Q1019",
      "taf": "TAF EDNY 161700Z 1618/1703 VRB03KT 9999 FEW050"
    },
    {
      "icao": "EDSB",
      "alert": "OK",
      "vis_m": 9999,
      "fzfg": false,
      "metar_trigger": false,
      "taf_trigger": false,
      "metar": "METAR EDSB 170050Z AUTO 22003KT 9999 FEW110/// 18/18 Q1014",
      "taf": "TAF EDSB 162300Z 1700/1724 21004KT CAVOK"
    },
    {
      "icao": "EETN",
      "alert": "OK",
      "vis_m": 9999,
      "fzfg": false,
      "metar_trigger": false,
      "taf_trigger": false,
      "metar": "METAR EETN 170050Z 12003KT CAVOK 13/10 Q1020",
      "taf": "TAF EETN 162330Z 1700/1724 VRB02KT CAVOK"
    },
    {
      "icao": "EFTU",
      "alert": "OK",
      "vis_m": 9999,
      "fzfg": false,
      "metar_trigger": false,
      "taf_trigger": false,
      "metar": "METAR EFTU 170050Z AUTO 13003KT CAVOK 12/12 Q1019",
      "taf": "TAF EFTU 162326Z 1700/1724 VRB02KT CAVOK"
    },
    {
      "icao": "EGBB",
      "alert": "OK",
      "vis_m": 9999,
      "fzfg": false,
      "metar_trigger": false,
      "taf_trigger": false,
      "metar": "METAR EGBB 170050Z 01004KT CAVOK 15/11 Q1019",
      "taf": "TAF EGBB 162255Z 1700/1724 VRB03KT CAVOK"
    },
    {
      "icao": "EGGP",
      "alert": "OK",
      "vis_m": 9999,
      "fzfg": false,
      "metar_trigger": false,
      "taf_trigger": false,
      "metar": "METAR EGGP 170050Z 30004KT CAVOK 18/12 Q1018",
      "taf": "TAF EGGP 162302Z 1700/1724 VRB03KT 9999 FEW040"
    },
    {
      "icao": "EGGW",
      "alert": "OK",
      "vis_m": 9999,
      "fzfg": false,
      "metar_trigger": false,
      "taf_trigger": false,
      "metar": "METAR EGGW 170050Z AUTO 34004KT 9999 NCD 14/12 Q1018",
      "taf": "TAF EGGW 162259Z 1700/1724 01005KT 9999 FEW045"
    },
    {
      "icao": "EGKK",
      "alert": "OK",
      "vis_m": 9999,
      "fzfg": false,
      "metar_trigger": false,
      "taf_trigger": false,
      "metar": "METAR EGKK 170050Z 02004KT CAVOK 17/14 Q1017",
      "taf": "TAF EGKK 162257Z 1700/1806 07005KT CAVOK"
    },
    {
      "icao": "EGNM",
      "alert": "OK",
      "vis_m": 9999,
      "fzfg": false,
      "metar_trigger": false,
      "taf_trigger": false,
      "metar": "METAR EGNM 170050Z 03004KT CAVOK 12/11 Q1019",
      "taf": "TAF EGNM 162300Z 1700/1724 01006KT 9999 FEW020"
    },
    {
      "icao": "EGPD",
      "alert": "OK",
      "vis_m": 9999,
      "fzfg": false,
      "metar_trigger": false,
      "taf_trigger": false,
      "metar": "METAR EGPD 170050Z AUTO 33008KT 9999 BKN010 OVC015 13/11 Q1021",
      "taf": "TAF EGPD 162255Z 1700/1724 33009KT 9999 SCT012"
    },
    {
      "icao": "EGPF",
      "alert": "OK",
      "vis_m": 9999,
      "fzfg": false,
      "metar_trigger": false,
      "taf_trigger": false,
      "metar": "METAR EGPF 170050Z AUTO 05007KT 9999 NCD 14/12 Q1021",
      "taf": "TAF EGPF 162253Z 1700/1724 05008KT CAVOK"
    },
    {
      "icao": "EHBK",
      "alert": "OK",
      "vis_m": 9999,
      "fzfg": false,
      "metar_trigger": false,
      "taf_trigger": false,
      "metar": "METAR EHBK 170055Z AUTO 35004KT 320V030 9999 NSC 19/12 Q1014",
      "taf": "TAF EHBK 162304Z 1700/1806 01004KT CAVOK"
    },
    {
      "icao": "EHEH",
      "alert": "OK",
      "vis_m": 9999,
      "fzfg": false,
      "metar_trigger": false,
      "taf_trigger": false,
      "metar": "METAR EHEH 170055Z AUTO 36003KT 300V020 9999 OVC320 17/14 Q1014 BLU",
      "taf": "TAF EHEH 162328Z 1700/1806 01004KT CAVOK"
    },
    {
      "icao": "EKBI",
      "alert": "OK",
      "vis_m": 9999,
      "fzfg": false,
      "metar_trigger": false,
      "taf_trigger": false,
      "metar": "METAR EKBI 170050Z AUTO 08004KT 9999 FEW190/// 15/14 Q1016",
      "taf": "TAF EKBI 162327Z 1700/1724 VRB03KT CAVOK"
    },
    {
      "icao": "EKCH",
      "alert": "OK",
      "vis_m": 9999,
      "fzfg": false,
      "metar_trigger": false,
      "taf_trigger": false,
      "metar": "METAR EKCH 170050Z AUTO 08003KT 9999 NCD 17/16 Q1017 NOSIG",
      "taf": "TAF EKCH 162327Z 1700/1724 12005KT CAVOK"
    },
    {
      "icao": "ENAL",
      "alert": "OK",
      "vis_m": 9999,
      "fzfg": false,
      "metar_trigger": false,
      "taf_trigger": false,
      "metar": "METAR ENAL 170050Z 03004KT 9999 BKN011 12/10 Q1019",
      "taf": ""
    },
    {
      "icao": "ENBR",
      "alert": "OK",
      "vis_m": 9999,
      "fzfg": false,
      "metar_trigger": false,
      "taf_trigger": false,
      "metar": "METAR ENBR 170050Z AUTO 33007KT 9999 NCD 12/11 Q1017 RMK WIND 1200FT 35013KT",
      "taf": "TAF ENBR 162300Z 1700/1724 33008KT CAVOK"
    },
    {
      "icao": "ENGM",
      "alert": "OK",
      "vis_m": 9999,
      "fzfg": false,
      "metar_trigger": false,
      "taf_trigger": false,
      "metar": "METAR ENGM 170050Z 20004KT CAVOK 20/11 Q1016",
      "taf": "TAF ENGM 162300Z 1700/1724 19008KT CAVOK"
    },
    {
      "icao": "ENHD",
      "alert": "OK",
      "vis_m": 6000,
      "fzfg": false,
      "metar_trigger": false,
      "taf_trigger": false,
      "metar": "METAR ENHD 170050Z AUTO 35012KT 6000 FEW004/// 12/11 Q1016",
      "taf": "TAF ENHD 161400Z 1615/1622 35007KT 9999 SCT002"
    },
    {
      "icao": "ENTC",
      "alert": "OK",
      "vis_m": 9999,
      "fzfg": false,
      "metar_trigger": false,
      "taf_trigger": false,
      "metar": "METAR ENTC 170050Z AUTO 27018KT 9999 -DZ FEW007/// SCT026/// BKN034/// 10/08 Q1010 RMK WIND 2600FT 26028G39KT",
      "taf": "TAF ENTC 162300Z 1700/1724 25012KT 9999 SCT019 BKN030"
    },
    {
      "icao": "ENTO",
      "alert": "OK",
      "vis_m": 7000,
      "fzfg": false,
      "metar_trigger": false,
      "taf_trigger": false,
      "metar": "METAR ENTO 170050Z AUTO 18006KT 7000 // NCD 19/16 Q1016",
      "taf": "TAF ENTO 161700Z 1618/1718 22007KT CAVOK"
    },
    {
      "icao": "ENVA",
      "alert": "OK",
      "vis_m": 9999,
      "fzfg": false,
      "metar_trigger": false,
      "taf_trigger": false,
      "metar": "METAR ENVA 170050Z AUTO 28010KT 9999 OVC015/// 13/11 Q1019 RMK WIND 670FT 29009KT",
      "taf": "TAF ENVA 162300Z 1700/1724 27008KT CAVOK"
    },
    {
      "icao": "ENZV",
      "alert": "OK",
      "vis_m": 9999,
      "fzfg": false,
      "metar_trigger": false,
      "taf_trigger": false,
      "metar": "METAR ENZV 170050Z AUTO 30004KT 9999 NCD 15/13 Q1016",
      "taf": "TAF ENZV 162300Z 1700/1724 30005KT CAVOK"
    },
    {
      "icao": "EPGD",
      "alert": "OK",
      "vis_m": 9999,
      "fzfg": false,
      "metar_trigger": false,
      "taf_trigger": false,
      "metar": "METAR EPGD 170100Z VRB02KT CAVOK 13/12 Q1019",
      "taf": "TAF EPGD 162330Z 1700/1724 VRB02KT CAVOK"
    },
    {
      "icao": "EPKK",
      "alert": "OK",
      "vis_m": 9999,
      "fzfg": false,
      "metar_trigger": false,
      "taf_trigger": false,
      "metar": "METAR EPKK 170100Z 05003KT 9999 MIFG NSC 16/15 Q1018",
      "taf": "TAF EPKK 162330Z 1700/1724 VRB03KT CAVOK"
    },
    {
      "icao": "EPKT",
      "alert": "OK",
      "vis_m": 9000,
      "fzfg": false,
      "metar_trigger": false,
      "taf_trigger": false,
      "metar": "METAR EPKT 170100Z VRB02KT 9000 NSC 15/14 Q1018",
      "taf": "TAF EPKT 162330Z 1700/1724 VRB02KT 6000 NSC"
    },
    {
      "icao": "EPLB",
      "alert": "OK",
      "vis_m": 9999,
      "fzfg": false,
      "metar_trigger": false,
      "taf_trigger": false,
      "metar": "METAR EPLB 170100Z 29001KT CAVOK 16/14 Q1018",
      "taf": "TAF EPLB 162330Z 1700/1724 VRB02KT CAVOK"
    },
    {
      "icao": "EPMO",
      "alert": "OK",
      "vis_m": 9999,
      "fzfg": false,
      "metar_trigger": false,
      "taf_trigger": false,
      "metar": "METAR EPMO 170100Z 06004KT CAVOK 17/14 Q1018",
      "taf": "TAF EPMO 162330Z 1700/1724 10002KT CAVOK"
    },
    {
      "icao": "EPPO",
      "alert": "OK",
      "vis_m": 9999,
      "fzfg": false,
      "metar_trigger": false,
      "taf_trigger": false,
      "metar": "METAR EPPO 170100Z 10003KT CAVOK 18/14 Q1017",
      "taf": "TAF EPPO 162330Z 1700/1724 VRB02KT CAVOK"
    },
    {
      "icao": "EPRA",
      "alert": "OK",
      "vis_m": 9999,
      "fzfg": false,
      "metar_trigger": false,
      "taf_trigger": false,
      "metar": "METAR EPRA 170100Z 13004KT CAVOK 20/13 Q1018",
      "taf": "TAF EPRA 162330Z 1700/1709 12006KT CAVOK"
    },
    {
      "icao": "EPRZ",
      "alert": "OK",
      "vis_m": 9999,
      "fzfg": false,
      "metar_trigger": false,
      "taf_trigger": false,
      "metar": "METAR EPRZ 170100Z VRB01KT CAVOK 17/17 Q1018",
      "taf": "TAF EPRZ 162330Z 1700/1724 35004KT CAVOK"
    },
    {
      "icao": "EPSC",
      "alert": "OK",
      "vis_m": 9999,
      "fzfg": false,
      "metar_trigger": false,
      "taf_trigger": false,
      "metar": "METAR EPSC 170100Z 13009KT CAVOK 20/13 Q1016",
      "taf": "TAF EPSC 162330Z 1700/1724 10004KT CAVOK"
    },
    {
      "icao": "EPSY",
      "alert": "OK",
      "vis_m": 5000,
      "fzfg": false,
      "metar_trigger": false,
      "taf_trigger": false,
      "metar": "METAR EPSY 170100Z 00000KT 5000 BR NSC 14/14 Q1019",
      "taf": "TAF EPSY 162330Z 1700/1709 VRB02KT CAVOK"
    },
    {
      "icao": "EPWA",
      "alert": "OK",
      "vis_m": 9999,
      "fzfg": false,
      "metar_trigger": false,
      "taf_trigger": false,
      "metar": "METAR EPWA 170100Z 11002KT CAVOK 19/14 Q1018 NOSIG",
      "taf": "TAF EPWA 162330Z 1700/1724 10003KT CAVOK"
    },
    {
      "icao": "EPWR",
      "alert": "OK",
      "vis_m": 9999,
      "fzfg": false,
      "metar_trigger": false,
      "taf_trigger": false,
      "metar": "METAR EPWR 170100Z VRB01KT CAVOK 18/17 Q1016",
      "taf": "TAF EPWR 162330Z 1700/1724 VRB02KT CAVOK"
    },
    {
      "icao": "ESGG",
      "alert": "OK",
      "vis_m": 9999,
      "fzfg": false,
      "metar_trigger": false,
      "taf_trigger": false,
      "metar": "METAR ESGG 170050Z 11003KT CAVOK 18/11 Q1017",
      "taf": "TAF ESGG 162330Z 1700/1724 21004KT CAVOK"
    },
    {
      "icao": "ESKN",
      "alert": "OK",
      "vis_m": 350,
      "fzfg": false,
      "metar_trigger": false,
      "taf_trigger": false,
      "metar": "METAR ESKN 170050Z 10003KT 0350 R08/P2000N R26/1300D BCFG NSC 15/15 Q1017",
      "taf": ""
    },
    {
      "icao": "ESMS",
      "alert": "OK",
      "vis_m": 9999,
      "fzfg": false,
      "metar_trigger": false,
      "taf_trigger": false,
      "metar": "METAR ESMS 170050Z 08004KT CAVOK 14/13 Q1017",
      "taf": "TAF ESMS 162327Z 1700/1724 VRB03KT CAVOK"
    },
    {
      "icao": "ESSA",
      "alert": "OK",
      "vis_m": 9999,
      "fzfg": false,
      "metar_trigger": false,
      "taf_trigger": false,
      "metar": "METAR ESSA 170050Z 16003KT CAVOK 14/10 Q1017 NOSIG",
      "taf": "TAF ESSA 162330Z 1700/1724 15006KT CAVOK"
    },
    {
      "icao": "EYKA",
      "alert": "OK",
      "vis_m": 9999,
      "fzfg": false,
      "metar_trigger": false,
      "taf_trigger": false,
      "metar": "METAR EYKA 170050Z 29001KT CAVOK 16/16 Q1018",
      "taf": "TAF EYKA 162300Z 1700/1724 VRB03KT 9000 NSC"
    },
    {
      "icao": "EYPA",
      "alert": "OK",
      "vis_m": 9999,
      "fzfg": false,
      "metar_trigger": false,
      "taf_trigger": false,
      "metar": "METAR EYPA 170050Z AUTO VRB01KT 9999 NCD 15/13 Q1018",
      "taf": "TAF EYPA 162300Z 1700/1724 VRB03KT 9000 NSC"
    },
    {
      "icao": "EYVI",
      "alert": "OK",
      "vis_m": 9999,
      "fzfg": false,
      "metar_trigger": false,
      "taf_trigger": false,
      "metar": "METAR EYVI 170050Z VRB01KT CAVOK 17/14 Q1019 NOSIG",
      "taf": "TAF EYVI 162300Z 1700/1724 VRB03KT 9000 NSC"
    },
    {
      "icao": "GCFV",
      "alert": "OK",
      "vis_m": 9999,
      "fzfg": false,
      "metar_trigger": false,
      "taf_trigger": false,
      "metar": "METAR GCFV 170100Z AUTO 36010KT CAVOK 24/18 Q1017",
      "taf": "TAF GCFV 162000Z 1621/1721 36012KT 9999 FEW015 TX29/1714Z TN22/1706Z"
    },
    {
      "icao": "GCLP",
      "alert": "OK",
      "vis_m": 9999,
      "fzfg": false,
      "metar_trigger": false,
      "taf_trigger": false,
      "metar": "METAR GCLP 170100Z 36021KT 9999 FEW020 24/20 Q1018 NOSIG",
      "taf": "TAF GCLP 162000Z 1621/1721 36018KT 9999 SCT020 TX29/1714Z TN23/1706Z"
    },
    {
      "icao": "GCTS",
      "alert": "OK",
      "vis_m": 9999,
      "fzfg": false,
      "metar_trigger": false,
      "taf_trigger": false,
      "metar": "METAR GCTS 170100Z 06010KT CAVOK 24/20 Q1018 NOSIG",
      "taf": "TAF GCTS 162000Z 1621/1721 08017KT 9999 FEW020 TX30/1714Z TN23/1706Z"
    },
    {
      "icao": "GMAD",
      "alert": "OK",
      "vis_m": 7000,
      "fzfg": false,
      "metar_trigger": false,
      "taf_trigger": false,
      "metar": "METAR GMAD 170100Z 22003KT 7000 NSC 22/18 Q1013 NOSIG",
      "taf": "TAF GMAD 162300Z 1700/1806 12005KT 8000 NSC"
    },
    {
      "icao": "GMMN",
      "alert": "OK",
      "vis_m": 9999,
      "fzfg": false,
      "metar_trigger": false,
      "taf_trigger": false,
      "metar": "METAR GMMN 170100Z 04009KT 9999 FEW020 22/19 Q1019 NOSIG",
      "taf": "TAF GMMN 162300Z 1700/1806 03005KT 9999 FEW020"
    },
    {
      "icao": "GMMX",
      "alert": "OK",
      "vis_m": 8000,
      "fzfg": false,
      "metar_trigger": false,
      "taf_trigger": false,
      "metar": "METAR GMMX 170100Z VRB07KT 8000 BKN030 28/15 Q1017 NOSIG",
      "taf": "TAF GMMX 162300Z 1700/1806 06006KT 8000 SCT030"
    },
    {
      "icao": "HEGN",
      "alert": "OK",
      "vis_m": 9999,
      "fzfg": false,
      "metar_trigger": false,
      "taf_trigger": false,
      "metar": "METAR HEGN 170000Z 33010KT CAVOK 31/07 Q1005 NOSIG",
      "taf": "TAF HEGN 162300Z 1700/1806 28012KT CAVOK"
    },
    {
      "icao": "HEMA",
      "alert": "OK",
      "vis_m": 9999,
      "fzfg": false,
      "metar_trigger": false,
      "taf_trigger": false,
      "metar": "METAR HEMA 170000Z 29006KT CAVOK 29/12 Q1005 NOSIG",
      "taf": "TAF HEMA 162300Z 1700/1806 26010KT CAVOK"
    },
    {
      "icao": "HESH",
      "alert": "OK",
      "vis_m": 9999,
      "fzfg": false,
      "metar_trigger": false,
      "taf_trigger": false,
      "metar": "METAR HESH 170000Z 01006KT CAVOK 29/21 Q1004 NOSIG",
      "taf": "TAF HESH 162300Z 1700/1806 33010KT CAVOK"
    },
    {
      "icao": "HESX",
      "alert": "OK",
      "vis_m": 6000,
      "fzfg": false,
      "metar_trigger": false,
      "taf_trigger": false,
      "metar": "METAR HESX 170000Z 33004KT 6000 NSC 23/21 Q1008 NOSIG",
      "taf": "TAF HESX 162300Z 1700/1806 28006KT CAVOK"
    },
    {
      "icao": "LATI",
      "alert": "OK",
      "vis_m": 9999,
      "fzfg": false,
      "metar_trigger": false,
      "taf_trigger": false,
      "metar": "METAR LATI 170050Z VRB02KT CAVOK 22/16 Q1015 NOSIG",
      "taf": "TAF LATI 162300Z 1700/1724 VRB03KT CAVOK TX37/1712Z TN19/1704Z"
    },
    {
      "icao": "LBPD",
      "alert": "OK",
      "vis_m": 9999,
      "fzfg": false,
      "metar_trigger": false,
      "taf_trigger": false,
      "metar": "METAR LBPD 170100Z AUTO 00000KT 9999 FEW067/// 22/18 Q1016",
      "taf": "TAF LBPD 162300Z 1700/1724 VRB04KT 9999 SCT070"
    },
    {
      "icao": "LBSF",
      "alert": "OK",
      "vis_m": 9999,
      "fzfg": false,
      "metar_trigger": false,
      "taf_trigger": false,
      "metar": "METAR LBSF 170100Z AUTO 07003KT 030V110 9999 NCD 18/16 Q1018 NOSIG",
      "taf": "TAF LBSF 162300Z 1700/1724 VRB03KT 9999 SCT060"
    },
    {
      "icao": "LBWN",
      "alert": "OK",
      "vis_m": 8000,
      "fzfg": false,
      "metar_trigger": false,
      "taf_trigger": false,
      "metar": "METAR LBWN 170100Z AUTO 23001KT 8000 NSC 20/18 Q1014 NOSIG",
      "taf": "TAF LBWN 162300Z 1700/1724 VRB04KT 9999 SCT045"
    },
    {
      "icao": "LCLK",
      "alert": "OK",
      "vis_m": 9999,
      "fzfg": false,
      "metar_trigger": false,
      "taf_trigger": false,
      "metar": "METAR LCLK 170100Z 25003KT 210V310 CAVOK 27/25 Q1003 NOSIG",
      "taf": "TAF LCLK 162330Z 1700/1800 28007KT 9999 FEW015"
    },
    {
      "icao": "LCPH",
      "alert": "OK",
      "vis_m": 9999,
      "fzfg": false,
      "metar_trigger": false,
      "taf_trigger": false,
      "metar": "METAR LCPH 170100Z AUTO 36004KT 9999 NCD 24/18 Q1004 NOSIG",
      "taf": "TAF LCPH 162330Z 1700/1800 34008KT 9999 SCT012"
    },
    {
      "icao": "LEAL",
      "alert": "OK",
      "vis_m": 9999,
      "fzfg": false,
      "metar_trigger": false,
      "taf_trigger": false,
      "metar": "METAR LEAL 170100Z 34002KT CAVOK 28/26 Q1014 NOSIG",
      "taf": "TAF LEAL 162300Z 1700/1724 VRB04KT 9999 FEW020 TX40/1713Z TN25/1705Z"
    },
    {
      "icao": "LEBB",
      "alert": "OK",
      "vis_m": 9999,
      "fzfg": false,
      "metar_trigger": false,
      "taf_trigger": false,
      "metar": "METAR LEBB 170100Z AUTO VRB02KT 9999 SCT021 SCT026 20/18 Q1019",
      "taf": "TAF LEBB 162300Z 1700/1724 31009KT 9999 SCT025 BKN040 TX26/1712Z TN18/1705Z"
    },
    {
      "icao": "LEBL",
      "alert": "OK",
      "vis_m": 8000,
      "fzfg": false,
      "metar_trigger": false,
      "taf_trigger": false,
      "metar": "METAR LEBL 170100Z 28002KT 8000 FEW020 26/25 Q1013 NOSIG",
      "taf": "TAF LEBL 162300Z 1700/1724 VRB03KT 9999 FEW020 TX31/1712Z TN25/1706Z"
    },
    {
      "icao": "LECH",
      "alert": "OK",
      "vis_m": 9000,
      "fzfg": false,
      "metar_trigger": false,
      "taf_trigger": false,
      "metar": "METAR LECH 170100Z AUTO VRB02KT 9000 NCD 24/21 Q1015",
      "taf": "TAF LECH 162300Z 1700/1724 VRB04KT 9999 FEW025 TX35/1713Z TN20/1705Z"
    },
    {
      "icao": "LEMD",
      "alert": "OK",
      "vis_m": 9999,
      "fzfg": false,
      "metar_trigger": false,
      "taf_trigger": false,
      "metar": "METAR LEMD 170100Z 28003KT 200V010 CAVOK 23/05 Q1017 NOSIG",
      "taf": "TAF LEMD 162300Z 1700/1806 VRB04KT CAVOK TX35/1716Z TN19/1705Z"
    },
    {
      "icao": "LEMG",
      "alert": "OK",
      "vis_m": 9999,
      "fzfg": false,
      "metar_trigger": false,
      "taf_trigger": false,
      "metar": "METAR LEMG 170100Z 27014KT CAVOK 31/13 Q1014 NOSIG",
      "taf": "TAF LEMG 162300Z 1700/1724 27013KT CAVOK TX39/1715Z TN24/1705Z"
    },
    {
      "icao": "LEVC",
      "alert": "OK",
      "vis_m": 9999,
      "fzfg": false,
      "metar_trigger": false,
      "taf_trigger": false,
      "metar": "METAR LEVC 170100Z 22003KT 190V250 CAVOK 27/25 Q1013 NOSIG",
      "taf": "TAF LEVC 162300Z 1700/1724 VRB04KT 9999 FEW020 TX34/1713Z TN24/1705Z"
    },
    {
      "icao": "LEXJ",
      "alert": "OK",
      "vis_m": 8000,
      "fzfg": false,
      "metar_trigger": false,
      "taf_trigger": false,
      "metar": "METAR LEXJ 170100Z AUTO 23005KT 200V260 8000 NCD 19/18 Q1018",
      "taf": "TAF LEXJ 162000Z 1621/1721 25008KT 9999 SCT020 BKN030 TX25/1713Z TN19/1703Z"
    },
    {
      "icao": "LEZG",
      "alert": "OK",
      "vis_m": 9999,
      "fzfg": false,
      "metar_trigger": false,
      "taf_trigger": false,
      "metar": "METAR LEZG 170100Z 29013KT 260V330 CAVOK 23/16 Q1016 NOSIG",
      "taf": "TAF LEZG 162300Z 1700/1724 30013KT 9999 FEW060 TX36/1714Z TN21/1705Z"
    },
    {
      "icao": "LEZL",
      "alert": "OK",
      "vis_m": 9999,
      "fzfg": false,
      "metar_trigger": false,
      "taf_trigger": false,
      "metar": "METAR LEZL 170100Z AUTO 23004KT 190V290 CAVOK 24/16 Q1016",
      "taf": "TAF LEZL 162000Z 1621/1721 VRB02KT CAVOK TX37/1715Z TN22/1705Z"
    },
    {
      "icao": "LFBD",
      "alert": "OK",
      "vis_m": 9999,
      "fzfg": false,
      "metar_trigger": false,
      "taf_trigger": false,
      "metar": "METAR LFBD 170100Z AUTO 26007KT CAVOK 22/20 Q1017 TEMPO BKN010",
      "taf": "TAF LFBD 162300Z 1700/1806 24005KT CAVOK TX30/1714Z TN19/1803Z"
    },
    {
      "icao": "LFLL",
      "alert": "OK",
      "vis_m": 8000,
      "fzfg": false,
      "metar_trigger": false,
      "taf_trigger": false,
      "metar": "METAR LFLL 170100Z 15014KT 8000 TSRA FEW010 FEW046CB OVC100 19/18 Q1020 TEMPO VRB20G35KT",
      "taf": "TAF LFLL 162300Z 1700/1806 VRB05KT CAVOK"
    },
    {
      "icao": "LFLS",
      "alert": "OK",
      "vis_m": 4700,
      "fzfg": false,
      "metar_trigger": false,
      "taf_trigger": false,
      "metar": "METAR LFLS 170100Z AUTO 07009KT 4700 TSRA BR FEW035/// SCT045/// BKN068/// ///CB 17/17 Q1022",
      "taf": ""
    },
    {
      "icao": "LFMN",
      "alert": "OK",
      "vis_m": 9999,
      "fzfg": false,
      "metar_trigger": false,
      "taf_trigger": false,
      "metar": "METAR LFMN 170100Z 30005KT CAVOK 27/22 Q1013 NOSIG",
      "taf": "TAF LFMN 162000Z 1621/1803 33008KT CAVOK"
    },
    {
      "icao": "LFOB",
      "alert": "OK",
      "vis_m": 9999,
      "fzfg": false,
      "metar_trigger": false,
      "taf_trigger": false,
      "metar": "METAR LFOB 170100Z AUTO 01009KT 9999 ///CB 18/14 Q1014 TEMPO VRB15G25KT 4000 -SHRA",
      "taf": "TAF LFOB 162300Z 1700/1724 03010KT CAVOK"
    },
    {
      "icao": "LFPO",
      "alert": "OK",
      "vis_m": 9999,
      "fzfg": false,
      "metar_trigger": false,
      "taf_trigger": false,
      "metar": "METAR LFPO 170100Z AUTO 05004KT 020V100 CAVOK 20/16 Q1014 NOSIG",
      "taf": "TAF LFPO 162300Z 1700/1806 VRB04KT CAVOK"
    },
    {
      "icao": "LFSB",
      "alert": "OK",
      "vis_m": 9999,
      "fzfg": false,
      "metar_trigger": false,
      "taf_trigger": false,
      "metar": "METAR LFSB 170100Z AUTO 14006KT 100V170 CAVOK 20/16 Q1016 TEMPO -TSRA FEW080CB",
      "taf": "TAF LFSB 162300Z 1700/1724 VRB04KT CAVOK"
    },
    {
      "icao": "LGAV",
      "alert": "OK",
      "vis_m": 9999,
      "fzfg": false,
      "metar_trigger": false,
      "taf_trigger": false,
      "metar": "METAR LGAV 170050Z 36011KT CAVOK 28/12 Q1012 NOSIG",
      "taf": "TAF LGAV 162300Z 1700/1724 04010KT 9999 FEW025"
    },
    {
      "icao": "LGTS",
      "alert": "OK",
      "vis_m": 9999,
      "fzfg": false,
      "metar_trigger": false,
      "taf_trigger": false,
      "metar": "METAR LGTS 170050Z 27007KT 9999 FEW020 26/22 Q1014 NOSIG",
      "taf": "TAF LGTS 162300Z 1700/1724 VRB03KT 9999 FEW030"
    },
    {
      "icao": "LHBP",
      "alert": "OK",
      "vis_m": 9999,
      "fzfg": false,
      "metar_trigger": false,
      "taf_trigger": false,
      "metar": "METAR LHBP 170100Z 00000KT CAVOK 18/14 Q1017 NOSIG",
      "taf": "TAF LHBP 162315Z 1700/1724 VRB03KT CAVOK"
    },
    {
      "icao": "LHDC",
      "alert": "OK",
      "vis_m": 9999,
      "fzfg": false,
      "metar_trigger": false,
      "taf_trigger": false,
      "metar": "METAR LHDC 170045Z AUTO 04005KT CAVOK 22/16 Q1016",
      "taf": "TAF LHDC 161715Z 1618/1703 36005KT CAVOK"
    },
    {
      "icao": "LIBD",
      "alert": "OK",
      "vis_m": 9999,
      "fzfg": false,
      "metar_trigger": false,
      "taf_trigger": false,
      "metar": "METAR LIBD 170050Z 22003KT CAVOK 24/16 Q1015",
      "taf": "TAF LIBD 162300Z 1700/1724 24006KT CAVOK"
    },
    {
      "icao": "LIBG",
      "alert": "OK",
      "vis_m": null,
      "fzfg": false,
      "metar_trigger": false,
      "taf_trigger": false,
      "metar": "",
      "taf": "TAF LIBG 162300Z 1700/1724 VRB05KT CAVOK"
    },
    {
      "icao": "LIBP",
      "alert": "OK",
      "vis_m": 9999,
      "fzfg": false,
      "metar_trigger": false,
      "taf_trigger": false,
      "metar": "METAR LIBP 170050Z AUTO 24004KT 9999 NCD 23/21 Q1015",
      "taf": "TAF LIBP 162300Z 1700/1724 VRB05KT CAVOK"
    },
    {
      "icao": "LIBR",
      "alert": "OK",
      "vis_m": 9999,
      "fzfg": false,
      "metar_trigger": false,
      "taf_trigger": false,
      "metar": "METAR LIBR 170050Z 35007KT 320V020 CAVOK 26/24 Q1015",
      "taf": "TAF LIBR 162300Z 1700/1724 33015KT CAVOK"
    },
    {
      "icao": "LICA",
      "alert": "OK",
      "vis_m": 9999,
      "fzfg": false,
      "metar_trigger": false,
      "taf_trigger": false,
      "metar": "METAR LICA 170050Z AUTO 10003KT 9999 NCD 22/21 Q1016",
      "taf": "TAF LICA 162300Z 1700/1724 VRB05KT CAVOK"
    },
    {
      "icao": "LICC",
      "alert": "OK",
      "vis_m": 9999,
      "fzfg": false,
      "metar_trigger": false,
      "taf_trigger": false,
      "metar": "METAR LICC 170050Z 24004KT CAVOK 25/15 Q1015",
      "taf": "TAF LICC 162300Z 1700/1724 VRB06KT CAVOK"
    },
    {
      "icao": "LICJ",
      "alert": "OK",
      "vis_m": 9999,
      "fzfg": false,
      "metar_trigger": false,
      "taf_trigger": false,
      "metar": "METAR LICJ 170050Z 03004KT CAVOK 28/27 Q1015",
      "taf": "TAF LICJ 162300Z 1700/1724 VRB05KT CAVOK"
    },
    {
      "icao": "LIMC",
      "alert": "OK",
      "vis_m": 9999,
      "fzfg": false,
      "metar_trigger": false,
      "taf_trigger": false,
      "metar": "METAR LIMC 170050Z 35009KT 9999 SCT040 26/16 Q1015 NOSIG",
      "taf": "TAF LIMC 162300Z 1700/1806 01010KT 9999 FEW040"
    },
    {
      "icao": "LIME",
      "alert": "OK",
      "vis_m": 9999,
      "fzfg": false,
      "metar_trigger": false,
      "taf_trigger": false,
      "metar": "METAR LIME 170050Z 04003KT 010V070 CAVOK 25/20 Q1014 NOSIG",
      "taf": "TAF LIME 162300Z 1700/1724 VRB05KT 9999 SCT040"
    },
    {
      "icao": "LIMF",
      "alert": "OK",
      "vis_m": 9999,
      "fzfg": false,
      "metar_trigger": false,
      "taf_trigger": false,
      "metar": "METAR LIMF 170050Z 32005KT CAVOK 26/18 Q1016",
      "taf": "TAF LIMF 162300Z 1700/1724 VRB05KT 9999 FEW040"
    },
    {
      "icao": "LIMJ",
      "alert": "OK",
      "vis_m": 9999,
      "fzfg": false,
      "metar_trigger": false,
      "taf_trigger": false,
      "metar": "METAR LIMJ 170050Z 02004KT CAVOK 27/23 Q1013",
      "taf": "TAF LIMJ 162300Z 1700/1724 VRB05KT 9999 SCT040"
    },
    {
      "icao": "LIPE",
      "alert": "OK",
      "vis_m": 9999,
      "fzfg": false,
      "metar_trigger": false,
      "taf_trigger": false,
      "metar": "METAR LIPE 170050Z AUTO 11005KT 9999 NCD 24/22 Q1013",
      "taf": "TAF LIPE 162300Z 1700/1724 08006KT CAVOK"
    },
    {
      "icao": "LIPH",
      "alert": "OK",
      "vis_m": null,
      "fzfg": false,
      "metar_trigger": false,
      "taf_trigger": false,
      "metar": "",
      "taf": "TAF LIPH 161700Z 1618/1718 VRB05KT CAVOK"
    },
    {
      "icao": "LIPQ",
      "alert": "OK",
      "vis_m": 9999,
      "fzfg": false,
      "metar_trigger": false,
      "taf_trigger": false,
      "metar": "METAR LIPQ 170050Z AUTO 06003KT 9999 NCD 23/20 Q1015",
      "taf": "TAF LIPQ 162300Z 1700/1724 VRB05KT 9999 FEW050"
    },
    {
      "icao": "LIPR",
      "alert": "OK",
      "vis_m": 9999,
      "fzfg": false,
      "metar_trigger": false,
      "taf_trigger": false,
      "metar": "METAR LIPR 170050Z AUTO 11005KT 9999 NCD 25/21 Q1013",
      "taf": "TAF LIPR 162300Z 1700/1724 VRB05KT CAVOK"
    },
    {
      "icao": "LIPX",
      "alert": "OK",
      "vis_m": 9999,
      "fzfg": false,
      "metar_trigger": false,
      "taf_trigger": false,
      "metar": "METAR LIPX 170050Z 07003KT 050V110 CAVOK 26/21 Q1014",
      "taf": "TAF LIPX 162300Z 1700/1724 VRB05KT 9999 FEW050"
    },
    {
      "icao": "LIPY",
      "alert": "OK",
      "vis_m": 9999,
      "fzfg": false,
      "metar_trigger": false,
      "taf_trigger": false,
      "metar": "METAR LIPY 170050Z AUTO VRB01KT 9999 NCD 24/21 Q1014",
      "taf": "TAF LIPY 162300Z 1700/1724 VRB05KT CAVOK"
    },
    {
      "icao": "LIPZ",
      "alert": "OK",
      "vis_m": 9999,
      "fzfg": false,
      "metar_trigger": false,
      "taf_trigger": false,
      "metar": "METAR LIPZ 170050Z 03003KT CAVOK 25/22 Q1015 NOSIG",
      "taf": "TAF LIPZ 162300Z 1700/1806 04006KT CAVOK"
    },
    {
      "icao": "LIRF",
      "alert": "OK",
      "vis_m": 9999,
      "fzfg": false,
      "metar_trigger": false,
      "taf_trigger": false,
      "metar": "METAR LIRF 170050Z 15004KT CAVOK 27/25 Q1015 NOSIG",
      "taf": "TAF LIRF 162300Z 1700/1806 VRB05KT CAVOK"
    },
    {
      "icao": "LIRN",
      "alert": "OK",
      "vis_m": 9999,
      "fzfg": false,
      "metar_trigger": false,
      "taf_trigger": false,
      "metar": "METAR LIRN 170050Z VRB02KT CAVOK 27/25 Q1016 NOSIG",
      "taf": "TAF LIRN 162300Z 1700/1724 VRB05KT CAVOK"
    },
    {
      "icao": "LIRP",
      "alert": "OK",
      "vis_m": 9999,
      "fzfg": false,
      "metar_trigger": false,
      "taf_trigger": false,
      "metar": "METAR LIRP 170045Z 12004KT CAVOK 23/22 Q1014 NOSIG",
      "taf": "TAF LIRP 162300Z 1700/1724 30006KT CAVOK"
    },
    {
      "icao": "LIRZ",
      "alert": "OK",
      "vis_m": 9999,
      "fzfg": false,
      "metar_trigger": false,
      "taf_trigger": false,
      "metar": "METAR LIRZ 170050Z AUTO 01006KT 9999 NCD 25/19 Q1016",
      "taf": "TAF LIRZ 162300Z 1700/1724 VRB04KT CAVOK"
    },
    {
      "icao": "LJLJ",
      "alert": "OK",
      "vis_m": 9999,
      "fzfg": false,
      "metar_trigger": false,
      "taf_trigger": false,
      "metar": "METAR LJLJ 170100Z 32003KT CAVOK 19/18 Q1018 NOSIG",
      "taf": "TAF LJLJ 162300Z 1700/1800 VRB02KT 9999 FEW050"
    },
    {
      "icao": "LKMT",
      "alert": "OK",
      "vis_m": 9999,
      "fzfg": false,
      "metar_trigger": false,
      "taf_trigger": false,
      "metar": "METAR LKMT 170100Z 21003KT CAVOK 18/16 Q1018 NOSIG",
      "taf": "TAF LKMT 162300Z 1700/1724 VRB02KT CAVOK"
    },
    {
      "icao": "LKPR",
      "alert": "OK",
      "vis_m": 9999,
      "fzfg": false,
      "metar_trigger": false,
      "taf_trigger": false,
      "metar": "METAR LKPR 170100Z 04004KT 010V070 CAVOK 21/16 Q1015 NOSIG",
      "taf": "TAF LKPR 162300Z 1700/1806 08005KT CAVOK"
    },
    {
      "icao": "LLBG",
      "alert": "OK",
      "vis_m": 9999,
      "fzfg": false,
      "metar_trigger": false,
      "taf_trigger": false,
      "metar": "METAR LLBG 170050Z 13007KT 9999 FEW015 24/20 Q1006 NOSIG",
      "taf": "TAF LLBG 162303Z 1700/1724 VRB04KT 9999 FEW020 TX33/1711Z TN24/1703Z"
    },
    {
      "icao": "LMML",
      "alert": "OK",
      "vis_m": 9999,
      "fzfg": false,
      "metar_trigger": false,
      "taf_trigger": false,
      "metar": "METAR LMML 170045Z 23006KT CAVOK 27/23 Q1015 NOSIG",
      "taf": "TAF LMML 162300Z 1700/1724 VRB07KT CAVOK"
    },
    {
      "icao": "LOWW",
      "alert": "OK",
      "vis_m": 9999,
      "fzfg": false,
      "metar_trigger": false,
      "taf_trigger": false,
      "metar": "METAR LOWW 170050Z 14003KT 100V180 CAVOK 22/17 Q1016 NOSIG",
      "taf": "TAF LOWW 162315Z 1700/1806 16008KT 9999 FEW050 TX30/1713Z TN20/1802Z"
    },
    {
      "icao": "LPFR",
      "alert": "OK",
      "vis_m": 9999,
      "fzfg": false,
      "metar_trigger": false,
      "taf_trigger": false,
      "metar": "METAR LPFR 170100Z 32006KT CAVOK 23/15 Q1018",
      "taf": "TAF LPFR 162300Z 1700/1724 30005KT CAVOK"
    },
    {
      "icao": "LPMA",
      "alert": "OK",
      "vis_m": 9999,
      "fzfg": false,
      "metar_trigger": false,
      "taf_trigger": false,
      "metar": "METAR LPMA 170100Z 03013KT 9999 FEW016 24/21 Q1021",
      "taf": "TAF LPMA 162300Z 1700/1724 02010KT 9999 SCT015"
    },
    {
      "icao": "LPPR",
      "alert": "OK",
      "vis_m": 9999,
      "fzfg": false,
      "metar_trigger": false,
      "taf_trigger": false,
      "metar": "METAR LPPR 170100Z 30003KT 9999 FEW015 19/17 Q1019",
      "taf": "TAF LPPR 162300Z 1700/1724 VRB02KT 9999 SCT008"
    },
    {
      "icao": "LPPS",
      "alert": "OK",
      "vis_m": 9999,
      "fzfg": false,
      "metar_trigger": false,
      "taf_trigger": false,
      "metar": "METAR LPPS 170100Z 04007KT 010V070 9999 SCT014 23/20 Q1022",
      "taf": "TAF LPPS 162300Z 1700/1806 02010KT 9999 SCT015"
    },
    {
      "icao": "LPPT",
      "alert": "OK",
      "vis_m": 9999,
      "fzfg": false,
      "metar_trigger": false,
      "taf_trigger": false,
      "metar": "METAR LPPT 170100Z 33005KT 9999 FEW012 19/17 Q1019 NOSIG",
      "taf": "TAF LPPT 162300Z 1700/1806 VRB02KT 9999 SCT012"
    },
    {
      "icao": "LQBK",
      "alert": "OK",
      "vis_m": 9999,
      "fzfg": false,
      "metar_trigger": false,
      "taf_trigger": false,
      "metar": "METAR LQBK 170100Z VRB01KT CAVOK 20/18 Q1017 NOSIG",
      "taf": "TAF LQBK 162300Z 1700/1724 16005KT CAVOK TX34/1714Z TN18/1703Z"
    },
    {
      "icao": "LQSA",
      "alert": "OK",
      "vis_m": 9999,
      "fzfg": false,
      "metar_trigger": false,
      "taf_trigger": false,
      "metar": "METAR LQSA 170100Z VRB02KT CAVOK 18/17 Q1020",
      "taf": "TAF LQSA 162300Z 1700/1724 VRB02KT CAVOK TX33/1713Z TN18/1704Z"
    },
    {
      "icao": "LQTZ",
      "alert": "OK",
      "vis_m": 3500,
      "fzfg": false,
      "metar_trigger": false,
      "taf_trigger": false,
      "metar": "METAR LQTZ 170100Z 13002KT 3500 BR SCT003 17/17 Q1018",
      "taf": ""
    },
    {
      "icao": "LRBC",
      "alert": "OK",
      "vis_m": 9999,
      "fzfg": false,
      "metar_trigger": false,
      "taf_trigger": false,
      "metar": "METAR LRBC 170100Z 34004KT CAVOK 18/16 Q1017",
      "taf": "TAF LRBC 162300Z 1700/1709 VRB04KT CAVOK"
    },
    {
      "icao": "LRBS",
      "alert": "OK",
      "vis_m": 9999,
      "fzfg": false,
      "metar_trigger": false,
      "taf_trigger": false,
      "metar": "METAR LRBS 170100Z 27003KT CAVOK 19/18 Q1016 NOSIG",
      "taf": "TAF LRBS 162300Z 1700/1724 VRB04KT CAVOK"
    },
    {
      "icao": "LRBV",
      "alert": "OK",
      "vis_m": 9999,
      "fzfg": false,
      "metar_trigger": false,
      "taf_trigger": false,
      "metar": "METAR LRBV 170100Z AUTO 23004KT 9999 OVC120/// 15/15 Q1019",
      "taf": "TAF LRBV 162300Z 1700/1709 VRB04KT 1500 BR BKN005"
    },
    {
      "icao": "LRCL",
      "alert": "OK",
      "vis_m": 9999,
      "fzfg": false,
      "metar_trigger": false,
      "taf_trigger": false,
      "metar": "METAR LRCL 170100Z 00000KT CAVOK 17/15 Q1018",
      "taf": "TAF LRCL 162300Z 1700/1709 VRB04KT 9999 SCT055"
    },
    {
      "icao": "LRCV",
      "alert": "OK",
      "vis_m": 9999,
      "fzfg": false,
      "metar_trigger": false,
      "taf_trigger": false,
      "metar": "METAR LRCV 170100Z 05003KT CAVOK 19/19 Q1016",
      "taf": "TAF LRCV 162300Z 1700/1709 VRB04KT CAVOK"
    },
    {
      "icao": "LRIA",
      "alert": "OK",
      "vis_m": 9999,
      "fzfg": false,
      "metar_trigger": false,
      "taf_trigger": false,
      "metar": "METAR LRIA 170100Z 25005KT CAVOK 19/15 Q1016",
      "taf": "TAF LRIA 162300Z 1700/1709 23006KT CAVOK"
    },
    {
      "icao": "LROP",
      "alert": "OK",
      "vis_m": 9999,
      "fzfg": false,
      "metar_trigger": false,
      "taf_trigger": false,
      "metar": "METAR LROP 170100Z 30003KT CAVOK 18/18 Q1016 NOSIG",
      "taf": "TAF LROP 162300Z 1700/1724 VRB04KT CAVOK"
    },
    {
      "icao": "LRSB",
      "alert": "OK",
      "vis_m": 9999,
      "fzfg": false,
      "metar_trigger": false,
      "taf_trigger": false,
      "metar": "METAR LRSB 170100Z VRB01KT 9999 FEW078 18/17 Q1018",
      "taf": "TAF LRSB 162300Z 1700/1724 VRB04KT 9999 SCT055"
    },
    {
      "icao": "LRSM",
      "alert": "OK",
      "vis_m": 9999,
      "fzfg": false,
      "metar_trigger": false,
      "taf_trigger": false,
      "metar": "METAR LRSM 170100Z AUTO 13002KT 9999 NCD 18/15 Q1017",
      "taf": "TAF LRSM 162000Z 1621/1706 05005KT CAVOK"
    },
    {
      "icao": "LRSV",
      "alert": "OK",
      "vis_m": 9999,
      "fzfg": false,
      "metar_trigger": false,
      "taf_trigger": false,
      "metar": "METAR LRSV 170100Z 31006KT CAVOK 21/15 Q1018",
      "taf": "TAF LRSV 162300Z 1700/1709 30006KT CAVOK"
    },
    {
      "icao": "LRTM",
      "alert": "OK",
      "vis_m": 9999,
      "fzfg": false,
      "metar_trigger": false,
      "taf_trigger": false,
      "metar": "METAR LRTM 170100Z 10002KT CAVOK 17/16 Q1018",
      "taf": "TAF LRTM 162300Z 1700/1709 VRB04KT 5000 BR NSC"
    },
    {
      "icao": "LRTR",
      "alert": "OK",
      "vis_m": 9999,
      "fzfg": false,
      "metar_trigger": false,
      "taf_trigger": false,
      "metar": "METAR LRTR 170100Z 06004KT CAVOK 19/14 Q1016",
      "taf": "TAF LRTR 162300Z 1700/1724 VRB04KT CAVOK"
    },
    {
      "icao": "LTAC",
      "alert": "OK",
      "vis_m": 9999,
      "fzfg": false,
      "metar_trigger": false,
      "taf_trigger": false,
      "metar": "METAR LTAC 170050Z 04007KT CAVOK 17/11 Q1016 NOSIG RMK RWY21C 03008KT RWY03L 03008KT RWY21R 02007KT RWY03R 03007KT RWY21L 04006KT",
      "taf": "TAF LTAC 162240Z 1700/1724 03011KT CAVOK"
    },
    {
      "icao": "LTFM",
      "alert": "OK",
      "vis_m": 9999,
      "fzfg": false,
      "metar_trigger": false,
      "taf_trigger": false,
      "metar": "METAR LTFM 170050Z 32007G18KT 9999 FEW012 23/21 Q1014 NOSIG RMK RWY17L 28005KT RWY34L 31007KT RWY16R 28003KT 250V310 RWY36 32005KT RWY18 29005KT",
      "taf": "TAF LTFM 162240Z 1700/1806 VRB02KT CAVOK"
    },
    {
      "icao": "LUKK",
      "alert": "OK",
      "vis_m": 9999,
      "fzfg": false,
      "metar_trigger": false,
      "taf_trigger": false,
      "metar": "METAR LUKK 170100Z 24003KT CAVOK 18/16 Q1016 NOSIG",
      "taf": "TAF LUKK 162301Z 1700/1724 VRB05KT CAVOK"
    },
    {
      "icao": "LWOH",
      "alert": "OK",
      "vis_m": 9999,
      "fzfg": false,
      "metar_trigger": false,
      "taf_trigger": false,
      "metar": "METAR LWOH 170050Z VRB02KT CAVOK 15/14 Q1020",
      "taf": "TAF LWOH 162356Z 1700/1724 33006KT CAVOK"
    },
    {
      "icao": "LWSK",
      "alert": "OK",
      "vis_m": 9999,
      "fzfg": false,
      "metar_trigger": false,
      "taf_trigger": false,
      "metar": "METAR LWSK 170050Z VRB01KT CAVOK 20/17 Q1017 NOSIG",
      "taf": "TAF LWSK 162356Z 1700/1724 34008KT CAVOK"
    },
    {
      "icao": "LYBE",
      "alert": "OK",
      "vis_m": 9999,
      "fzfg": false,
      "metar_trigger": false,
      "taf_trigger": false,
      "metar": "METAR LYBE 170100Z 20006KT CAVOK 21/18 Q1017 NOSIG",
      "taf": "TAF LYBE 162300Z 1700/1724 22005KT CAVOK TX35/1714Z TN19/1703Z"
    },
    {
      "icao": "LYNI",
      "alert": "OK",
      "vis_m": 9999,
      "fzfg": false,
      "metar_trigger": false,
      "taf_trigger": false,
      "metar": "METAR LYNI 170100Z VRB02KT CAVOK 21/17 Q1017 NOSIG",
      "taf": "TAF LYNI 162300Z 1700/1724 33006KT CAVOK TX35/1714Z TN17/1703Z"
    },
    {
      "icao": "LYPG",
      "alert": "OK",
      "vis_m": 9999,
      "fzfg": false,
      "metar_trigger": false,
      "taf_trigger": false,
      "metar": "METAR LYPG 170100Z 00000KT CAVOK 22/19 Q1015 NOSIG",
      "taf": "TAF LYPG 162300Z 1700/1724 36005KT CAVOK TX37/1713Z TN21/1703Z"
    },
    {
      "icao": "LZIB",
      "alert": "OK",
      "vis_m": 9999,
      "fzfg": false,
      "metar_trigger": false,
      "taf_trigger": false,
      "metar": "METAR LZIB 170100Z 01003KT CAVOK 21/18 Q1017 NOSIG",
      "taf": "TAF LZIB 162315Z 1700/1800 03005KT CAVOK"
    },
    {
      "icao": "LZKZ",
      "alert": "OK",
      "vis_m": 9999,
      "fzfg": false,
      "metar_trigger": false,
      "taf_trigger": false,
      "metar": "METAR LZKZ 170100Z 24002KT CAVOK 18/16 Q1018 NOSIG",
      "taf": "TAF LZKZ 162315Z 1700/1800 01005KT CAVOK"
    },
    {
      "icao": "LZTT",
      "alert": "OK",
      "vis_m": 9999,
      "fzfg": false,
      "metar_trigger": false,
      "taf_trigger": false,
      "metar": "METAR LZTT 170100Z 30003KT CAVOK 14/14 Q1021",
      "taf": "TAF LZTT 162315Z 1700/1800 29005KT CAVOK"
    },
    {
      "icao": "OEJN",
      "alert": "OK",
      "vis_m": 9999,
      "fzfg": false,
      "metar_trigger": false,
      "taf_trigger": false,
      "metar": "METAR OEJN 170100Z 25007KT CAVOK 32/24 Q1002 NOSIG",
      "taf": "TAF OEJN 162300Z 1700/1806 VRB03KT 9999 FEW040"
    },
    {
      "icao": "OEMA",
      "alert": "OK",
      "vis_m": 9999,
      "fzfg": false,
      "metar_trigger": false,
      "taf_trigger": false,
      "metar": "METAR OEMA 170100Z 28006KT 9999 SCT045 36/03 Q1007 NOSIG",
      "taf": "TAF OEMA 162300Z 1700/1806 VRB03KT 9999 SCT040"
    },
    {
      "icao": "OJAI",
      "alert": "OK",
      "vis_m": 5000,
      "fzfg": false,
      "metar_trigger": false,
      "taf_trigger": false,
      "metar": "METAR OJAI 170100Z 26007KT 5000 HZ NSC 18/11 Q1010 NOSIG",
      "taf": "TAF OJAI 162300Z 1700/1806 29012KT 5000 HZ NSC"
    },
    {
      "icao": "OMAA",
      "alert": "OK",
      "vis_m": 9999,
      "fzfg": false,
      "metar_trigger": false,
      "taf_trigger": false,
      "metar": "METAR OMAA 170100Z 13002KT CAVOK 33/18 Q0997 NOSIG",
      "taf": "TAF OMAA 162300Z 1700/1806 10006KT 8000 NSC"
    },
    {
      "icao": "OMDB",
      "alert": "OK",
      "vis_m": 9999,
      "fzfg": false,
      "metar_trigger": false,
      "taf_trigger": false,
      "metar": "METAR OMDB 170100Z 10012KT CAVOK 32/24 Q0998 NOSIG",
      "taf": "TAF OMDB 162300Z 1700/1806 11012KT CAVOK"
    },
    {
      "icao": "UAAA",
      "alert": "OK",
      "vis_m": 9999,
      "fzfg": false,
      "metar_trigger": false,
      "taf_trigger": false,
      "metar": "METAR UAAA 170100Z 23002MPS 9999 NSC 25/11 Q1008 NOSIG",
      "taf": "TAF UAAA 162302Z 1700/1724 16003MPS 9999 FEW100 TX41/1710Z TN20/1701Z"
    },
    {
      "icao": "UBBB",
      "alert": "OK",
      "vis_m": 9999,
      "fzfg": false,
      "metar_trigger": false,
      "taf_trigger": false,
      "metar": "METAR UBBB 170100Z 31008KT CAVOK 24/21 Q1008 NOSIG",
      "taf": "TAF UBBB 162257Z 1700/1724 33012KT 9999 FEW020 TX31/1710Z TN23/1701Z"
    },
    {
      "icao": "UDSG",
      "alert": "OK",
      "vis_m": 9999,
      "fzfg": false,
      "metar_trigger": false,
      "taf_trigger": false,
      "metar": "METAR UDSG 170100Z 35003KT 9999 NSC 16/12 Q1017 NOSIG",
      "taf": "TAF UDSG 162300Z 1700/1724 03006KT 9999 FEW050"
    },
    {
      "icao": "UDYZ",
      "alert": "OK",
      "vis_m": 9999,
      "fzfg": false,
      "metar_trigger": false,
      "taf_trigger": false,
      "metar": "METAR UDYZ 170100Z 26005KT 9999 NSC 20/14 Q1011 NOSIG",
      "taf": "TAF UDYZ 162300Z 1700/1724 14006KT 9999 FEW040"
    },
    {
      "icao": "UGKO",
      "alert": "OK",
      "vis_m": 9999,
      "fzfg": false,
      "metar_trigger": false,
      "taf_trigger": false,
      "metar": "METAR UGKO 170100Z VRB02KT 9999 SCT043 19/18 Q1012 NOSIG",
      "taf": "TAF UGKO 162300Z 1700/1724 25006KT 9999 SCT033 BKN080 TX29/1712Z TN18/1702Z"
    }
  ]
}