{
  "ts_utc": "2026-03-15T18:20:09Z",
  "threshold_m": 150,
  "source": "stations_override.txt (ICAO list) + aviationweather.gov (METAR/TAF raw)",
  "station_count": 159,
  "stations": [
    {
      "icao": "BIKF",
      "alert": "OK",
      "vis_m": 9999,
      "fzfg": false,
      "metar_trigger": false,
      "taf_trigger": false,
      "metar": "METAR BIKF 151800Z 03022KT 9999 FEW020 BKN070 BKN160 02/M01 Q0976",
      "taf": "TAF BIKF 151611Z 1518/1618 03022KT 9999 SCT040 TX03/1615Z TN00/1608Z"
    },
    {
      "icao": "BKPR",
      "alert": "OK",
      "vis_m": 9999,
      "fzfg": false,
      "metar_trigger": false,
      "taf_trigger": false,
      "metar": "METAR BKPR 151800Z 33008KT CAVOK 10/00 Q1010 NOSIG",
      "taf": "TAF BKPR 151730Z 1518/1618 05007KT 9999 FEW050"
    },
    {
      "icao": "EBCI",
      "alert": "OK",
      "vis_m": 9999,
      "fzfg": false,
      "metar_trigger": false,
      "taf_trigger": false,
      "metar": "METAR EBCI 151750Z 20009KT CAVOK 08/00 Q1014 NOSIG",
      "taf": "TAF EBCI 151709Z 1518/1624 21008KT 9999 FEW040"
    },
    {
      "icao": "EDDB",
      "alert": "OK",
      "vis_m": 9999,
      "fzfg": false,
      "metar_trigger": false,
      "taf_trigger": false,
      "metar": "METAR EDDB 151750Z AUTO 23005KT 9999 FEW044 06/02 Q1016 NOSIG",
      "taf": "TAF EDDB 151700Z 1518/1618 18005KT 9999 SCT020"
    },
    {
      "icao": "EDDH",
      "alert": "OK",
      "vis_m": 9999,
      "fzfg": false,
      "metar_trigger": false,
      "taf_trigger": false,
      "metar": "METAR EDDH 151750Z AUTO 20009KT 9999 FEW025 06/01 Q1014 NOSIG",
      "taf": "TAF EDDH 151700Z 1518/1624 22007KT CAVOK"
    },
    {
      "icao": "EDDK",
      "alert": "OK",
      "vis_m": 9999,
      "fzfg": false,
      "metar_trigger": false,
      "taf_trigger": false,
      "metar": "METAR EDDK 151750Z AUTO 13004KT CAVOK 07/00 Q1015 NOSIG",
      "taf": "TAF EDDK 151700Z 1518/1624 16005KT CAVOK"
    },
    {
      "icao": "EDDN",
      "alert": "OK",
      "vis_m": 9999,
      "fzfg": false,
      "metar_trigger": false,
      "taf_trigger": false,
      "metar": "METAR EDDN 151750Z AUTO 26006KT 9999 OVC041 07/M00 Q1016 NOSIG",
      "taf": "TAF EDDN 151700Z 1518/1618 25005KT 9999 BKN035"
    },
    {
      "icao": "EDDS",
      "alert": "OK",
      "vis_m": 9999,
      "fzfg": false,
      "metar_trigger": false,
      "taf_trigger": false,
      "metar": "METAR EDDS 151750Z AUTO 33003KT 9999 OVC036 06/00 Q1016 NOSIG",
      "taf": "TAF EDDS 151700Z 1518/1618 VRB03KT 9999 BKN030"
    },
    {
      "icao": "EDFH",
      "alert": "OK",
      "vis_m": 9999,
      "fzfg": false,
      "metar_trigger": false,
      "taf_trigger": false,
      "metar": "METAR EDFH 151750Z 23005KT CAVOK 03/M02 Q1016",
      "taf": "TAF EDFH 151700Z 1518/1618 21006KT CAVOK"
    },
    {
      "icao": "EDJA",
      "alert": "OK",
      "vis_m": 9999,
      "fzfg": false,
      "metar_trigger": false,
      "taf_trigger": false,
      "metar": "METAR EDJA 151750Z 03003KT 9999 OVC035 03/01 Q1015",
      "taf": "TAF EDJA 151700Z 1518/1603 36004KT 9999 OVC040"
    },
    {
      "icao": "EDLW",
      "alert": "OK",
      "vis_m": 9999,
      "fzfg": false,
      "metar_trigger": false,
      "taf_trigger": false,
      "metar": "METAR EDLW 151750Z 19007KT CAVOK 06/M01 Q1015",
      "taf": "TAF EDLW 151700Z 1518/1618 18006KT CAVOK"
    },
    {
      "icao": "EDNY",
      "alert": "OK",
      "vis_m": 9999,
      "fzfg": false,
      "metar_trigger": false,
      "taf_trigger": false,
      "metar": "METAR EDNY 151750Z 02004KT 9999 BKN037 OVC042 06/00 Q1016",
      "taf": "TAF EDNY 151700Z 1518/1603 VRB03KT 9999 BKN040"
    },
    {
      "icao": "EDSB",
      "alert": "OK",
      "vis_m": 9999,
      "fzfg": false,
      "metar_trigger": false,
      "taf_trigger": false,
      "metar": "METAR EDSB 151750Z 21003KT CAVOK 07/01 Q1017",
      "taf": "TAF EDSB 151700Z 1518/1618 20004KT CAVOK"
    },
    {
      "icao": "EETN",
      "alert": "OK",
      "vis_m": 9999,
      "fzfg": false,
      "metar_trigger": false,
      "taf_trigger": false,
      "metar": "METAR EETN 151750Z 23013KT 9999 -SHRA FEW025CB BKN045 08/04 Q1009 TEMPO 4000 SHRA",
      "taf": "TAF EETN 151730Z 1518/1618 23012KT 9999 BKN030"
    },
    {
      "icao": "EFTU",
      "alert": "OK",
      "vis_m": 9999,
      "fzfg": false,
      "metar_trigger": false,
      "taf_trigger": false,
      "metar": "METAR EFTU 151750Z AUTO 27008KT 9999 OVC004 01/00 Q1008",
      "taf": "TAF EFTU 151734Z 1518/1618 28008KT 9999 OVC004"
    },
    {
      "icao": "EGBB",
      "alert": "OK",
      "vis_m": 9999,
      "fzfg": false,
      "metar_trigger": false,
      "taf_trigger": false,
      "metar": "METAR EGBB 151750Z 27009KT CAVOK 08/03 Q1006",
      "taf": "TAF EGBB 151658Z 1518/1618 27010KT 9999 SCT025"
    },
    {
      "icao": "EGGP",
      "alert": "OK",
      "vis_m": 9999,
      "fzfg": false,
      "metar_trigger": false,
      "taf_trigger": false,
      "metar": "METAR EGGP 151750Z 27019KT 9999 SCT038 08/02 Q1005",
      "taf": "TAF EGGP 151702Z 1518/1618 26020G34KT 9999 SCT035"
    },
    {
      "icao": "EGGW",
      "alert": "OK",
      "vis_m": 9999,
      "fzfg": false,
      "metar_trigger": false,
      "taf_trigger": false,
      "metar": "METAR EGGW 151750Z AUTO 24014KT 9999 BKN013/// BKN017/// //////CB 08/07 Q1006",
      "taf": "TAF EGGW 151659Z 1518/1618 20018G28KT 9999 SCT030"
    },
    {
      "icao": "EGKK",
      "alert": "OK",
      "vis_m": 4000,
      "fzfg": false,
      "metar_trigger": false,
      "taf_trigger": false,
      "metar": "METAR EGKK 151750Z 21015KT 4000 -RA SCT006 BKN011 09/08 Q1008",
      "taf": "TAF EGKK 151652Z 1518/1624 23014KT 9999 SCT025"
    },
    {
      "icao": "EGNM",
      "alert": "OK",
      "vis_m": 9999,
      "fzfg": false,
      "metar_trigger": false,
      "taf_trigger": false,
      "metar": "METAR EGNM 151750Z 25020G33KT 9999 -SHRA FEW016 SCT025CB 06/03 Q1001",
      "taf": "TAF EGNM 151656Z 1518/1618 26018G36KT 9999 SCT020"
    },
    {
      "icao": "EGPD",
      "alert": "OK",
      "vis_m": 9999,
      "fzfg": false,
      "metar_trigger": false,
      "taf_trigger": false,
      "metar": "METAR EGPD 151750Z COR AUTO 24010KT 210V270 9999 NCD 06/M02 Q0993 NOSIG",
      "taf": "TAF EGPD 151658Z 1518/1618 24012KT 9999 FEW030"
    },
    {
      "icao": "EGPF",
      "alert": "OK",
      "vis_m": 9999,
      "fzfg": false,
      "metar_trigger": false,
      "taf_trigger": false,
      "metar": "METAR EGPF 151750Z AUTO 24015G29KT 9999 BKN038/// //////TCU 05/02 Q0998",
      "taf": "TAF EGPF 151659Z 1518/1618 26016G28KT 9999 SCT030"
    },
    {
      "icao": "EHBK",
      "alert": "OK",
      "vis_m": 9999,
      "fzfg": false,
      "metar_trigger": false,
      "taf_trigger": false,
      "metar": "METAR EHBK 151755Z AUTO 18007KT 9999 NCD 07/01 Q1014 NOSIG",
      "taf": "TAF EHBK 151653Z 1518/1624 19007KT CAVOK"
    },
    {
      "icao": "EHEH",
      "alert": "OK",
      "vis_m": 9999,
      "fzfg": false,
      "metar_trigger": false,
      "taf_trigger": false,
      "metar": "METAR EHEH 151755Z AUTO 18009KT 9999 FEW300 08/01 Q1013 BLU NOSIG RMK TREND REMOTE BY EHWX",
      "taf": "TAF EHEH 151746Z 1518/1624 18010KT 9999 FEW030"
    },
    {
      "icao": "EKBI",
      "alert": "OK",
      "vis_m": 9999,
      "fzfg": false,
      "metar_trigger": false,
      "taf_trigger": false,
      "metar": "METAR EKBI 151750Z AUTO 17007KT 9999 NCD 05/01 Q1010",
      "taf": "TAF EKBI 151727Z 1518/1618 17012KT 9999 SCT020"
    },
    {
      "icao": "EKCH",
      "alert": "OK",
      "vis_m": 9999,
      "fzfg": false,
      "metar_trigger": false,
      "taf_trigger": false,
      "metar": "METAR EKCH 151750Z AUTO 18006KT 9999 NCD 04/02 Q1014 NOSIG",
      "taf": "TAF EKCH 151727Z 1518/1618 20007KT 9999 BKN020"
    },
    {
      "icao": "ENAL",
      "alert": "OK",
      "vis_m": 9999,
      "fzfg": false,
      "metar_trigger": false,
      "taf_trigger": false,
      "metar": "METAR ENAL 151750Z 18020KT 140V210 9999 FEW058 08/M02 Q0989",
      "taf": "TAF ENAL 151700Z 1518/1603 16015KT 9999 FEW045 BKN055"
    },
    {
      "icao": "ENBR",
      "alert": "OK",
      "vis_m": 9999,
      "fzfg": false,
      "metar_trigger": false,
      "taf_trigger": false,
      "metar": "METAR ENBR 151750Z 14020KT 9999 -RA SCT010 BKN014 03/02 Q0993 TEMPO 16028G40KT 4000 RADZ BR BKN008 RMK WIND 1200FT 15037KT",
      "taf": "TAF ENBR 151700Z 1518/1618 15020KT 9999 FEW005 SCT009 BKN012"
    },
    {
      "icao": "ENGM",
      "alert": "OK",
      "vis_m": 9999,
      "fzfg": false,
      "metar_trigger": false,
      "taf_trigger": false,
      "metar": "METAR ENGM 151750Z 18013KT 9999 OVC011 02/M00 Q1004 NOSIG",
      "taf": "TAF ENGM 151700Z 1518/1618 18015KT 9999 BKN012"
    },
    {
      "icao": "ENHD",
      "alert": "OK",
      "vis_m": 8000,
      "fzfg": false,
      "metar_trigger": false,
      "taf_trigger": false,
      "metar": "METAR ENHD 151750Z 17024G38KT 8000 RA FEW002 SCT008 BKN010 04/03 Q0995",
      "taf": "TAF ENHD 151400Z 1515/1523 16018KT 9999 FEW005 BKN012"
    },
    {
      "icao": "ENTC",
      "alert": "OK",
      "vis_m": 9999,
      "fzfg": false,
      "metar_trigger": false,
      "taf_trigger": false,
      "metar": "METAR ENTC 151750Z 21007KT 9999 BKN053 04/M01 Q0998 NOSIG RMK WIND 2600FT 18024KT",
      "taf": "TAF ENTC 151700Z 1518/1618 22009KT 9999 SCT045"
    },
    {
      "icao": "ENTO",
      "alert": "OK",
      "vis_m": 9999,
      "fzfg": false,
      "metar_trigger": false,
      "taf_trigger": false,
      "metar": "METAR ENTO 151750Z 19012KT 9999 BKN045 03/02 Q1005 TEMPO BKN012",
      "taf": "TAF ENTO 151700Z 1518/1618 18015KT 9999 BKN008"
    },
    {
      "icao": "ENVA",
      "alert": "OK",
      "vis_m": 9999,
      "fzfg": false,
      "metar_trigger": false,
      "taf_trigger": false,
      "metar": "METAR ENVA 151750Z 16013KT 130V190 CAVOK 06/M05 Q0996 RMK WIND 670FT 17019KT",
      "taf": "TAF ENVA 151700Z 1518/1618 14008KT CAVOK"
    },
    {
      "icao": "ENZV",
      "alert": "OK",
      "vis_m": 6000,
      "fzfg": false,
      "metar_trigger": false,
      "taf_trigger": false,
      "metar": "METAR ENZV 151750Z 17024KT 6000 RA FEW012 BKN015 05/03 Q0996 TEMPO 17025G35KT BECMG BKN012",
      "taf": "TAF ENZV 151700Z 1518/1618 16020KT 9999 FEW009 BKN015"
    },
    {
      "icao": "EPGD",
      "alert": "OK",
      "vis_m": 9999,
      "fzfg": false,
      "metar_trigger": false,
      "taf_trigger": false,
      "metar": "METAR EPGD 151800Z 27003KT 9999 -RA FEW017 OVC045 04/03 Q1015",
      "taf": "TAF EPGD 151730Z 1518/1618 VRB02KT 9999 BKN030"
    },
    {
      "icao": "EPKK",
      "alert": "OK",
      "vis_m": 9999,
      "fzfg": false,
      "metar_trigger": false,
      "taf_trigger": false,
      "metar": "METAR EPKK 151800Z 35011KT CAVOK 13/02 Q1012",
      "taf": "TAF EPKK 151730Z 1518/1618 01005KT CAVOK"
    },
    {
      "icao": "EPKT",
      "alert": "OK",
      "vis_m": 9999,
      "fzfg": false,
      "metar_trigger": false,
      "taf_trigger": false,
      "metar": "METAR EPKT 151800Z 33008KT CAVOK 09/05 Q1014",
      "taf": "TAF EPKT 151730Z 1518/1618 33008KT CAVOK"
    },
    {
      "icao": "EPLB",
      "alert": "OK",
      "vis_m": 9999,
      "fzfg": false,
      "metar_trigger": false,
      "taf_trigger": false,
      "metar": "METAR EPLB 151800Z 13008KT CAVOK 10/M01 Q1015",
      "taf": "TAF EPLB 151730Z 1518/1618 13007KT CAVOK"
    },
    {
      "icao": "EPMO",
      "alert": "OK",
      "vis_m": 9999,
      "fzfg": false,
      "metar_trigger": false,
      "taf_trigger": false,
      "metar": "METAR EPMO 151800Z 29010KT CAVOK 07/05 Q1014",
      "taf": "TAF EPMO 151730Z 1518/1618 29010KT CAVOK"
    },
    {
      "icao": "EPPO",
      "alert": "OK",
      "vis_m": 9999,
      "fzfg": false,
      "metar_trigger": false,
      "taf_trigger": false,
      "metar": "METAR EPPO 151800Z 32001KT 9999 -RA NSC 05/03 Q1016",
      "taf": "TAF EPPO 151730Z 1518/1618 VRB02KT 9999 BKN020"
    },
    {
      "icao": "EPRA",
      "alert": "OK",
      "vis_m": 9999,
      "fzfg": false,
      "metar_trigger": false,
      "taf_trigger": false,
      "metar": "METAR EPRA 151800Z 15007KT CAVOK 11/M04 Q1013",
      "taf": "TAF EPRA 151730Z 1518/1603 14006KT CAVOK"
    },
    {
      "icao": "EPRZ",
      "alert": "OK",
      "vis_m": 9999,
      "fzfg": false,
      "metar_trigger": false,
      "taf_trigger": false,
      "metar": "METAR EPRZ 151800Z 08009KT CAVOK 10/M01 Q1014",
      "taf": "TAF EPRZ 151730Z 1518/1618 07010KT CAVOK"
    },
    {
      "icao": "EPSC",
      "alert": "OK",
      "vis_m": 9999,
      "fzfg": false,
      "metar_trigger": false,
      "taf_trigger": false,
      "metar": "METAR EPSC 151800Z 11002KT 9999 FEW029 OVC048 06/03 Q1016",
      "taf": "TAF EPSC 151730Z 1518/1618 VRB02KT 9999 BKN040"
    },
    {
      "icao": "EPSY",
      "alert": "OK",
      "vis_m": 9999,
      "fzfg": false,
      "metar_trigger": false,
      "taf_trigger": false,
      "metar": "METAR EPSY 151800Z 33007KT CAVOK 07/04 Q1014",
      "taf": "TAF EPSY 151730Z 1518/1603 31005KT 9999 SCT040"
    },
    {
      "icao": "EPWA",
      "alert": "OK",
      "vis_m": 9999,
      "fzfg": false,
      "metar_trigger": false,
      "taf_trigger": false,
      "metar": "METAR EPWA 151800Z 27007KT CAVOK 11/06 Q1014 NOSIG",
      "taf": "TAF EPWA 151730Z 1518/1618 27010KT CAVOK"
    },
    {
      "icao": "EPWR",
      "alert": "OK",
      "vis_m": 9999,
      "fzfg": false,
      "metar_trigger": false,
      "taf_trigger": false,
      "metar": "METAR EPWR 151800Z 33004KT 9999 FEW014 06/04 Q1016",
      "taf": "TAF EPWR 151730Z 1518/1618 30010KT 9999 BKN030"
    },
    {
      "icao": "ESGG",
      "alert": "OK",
      "vis_m": 9999,
      "fzfg": false,
      "metar_trigger": false,
      "taf_trigger": false,
      "metar": "METAR ESGG 151750Z 17009KT 9999 FEW010 BKN024 02/01 Q1010",
      "taf": "TAF ESGG 151730Z 1518/1618 17008KT 9999 SCT010 OVC025"
    },
    {
      "icao": "ESKN",
      "alert": "OK",
      "vis_m": 9999,
      "fzfg": false,
      "metar_trigger": false,
      "taf_trigger": false,
      "metar": "METAR ESKN 151750Z 20004KT 9999 BKN031 02/02 Q1010",
      "taf": "TAF ESKN 151730Z 1518/1618 24011KT 9999 BKN030"
    },
    {
      "icao": "ESMS",
      "alert": "OK",
      "vis_m": 9999,
      "fzfg": false,
      "metar_trigger": false,
      "taf_trigger": false,
      "metar": "METAR ESMS 151750Z 20004KT CAVOK 02/00 Q1013",
      "taf": "TAF ESMS 151727Z 1518/1618 20006KT 9999 BKN020"
    },
    {
      "icao": "ESSA",
      "alert": "OK",
      "vis_m": 9999,
      "fzfg": false,
      "metar_trigger": false,
      "taf_trigger": false,
      "metar": "METAR ESSA 151750Z 24012KT 9999 BKN013 03/01 Q1009 TEMPO BKN015",
      "taf": "TAF ESSA 151730Z 1518/1618 24010KT 9999 BKN012"
    },
    {
      "icao": "EYKA",
      "alert": "OK",
      "vis_m": 9999,
      "fzfg": false,
      "metar_trigger": false,
      "taf_trigger": false,
      "metar": "METAR EYKA 151750Z 15006KT CAVOK 10/M00 Q1014",
      "taf": "TAF EYKA 151707Z 1518/1618 16009KT 9000 NSC"
    },
    {
      "icao": "EYPA",
      "alert": "OK",
      "vis_m": 6000,
      "fzfg": false,
      "metar_trigger": false,
      "taf_trigger": false,
      "metar": "METAR EYPA 151750Z VRB02KT 6000 -RA OVC002 03/02 Q1014",
      "taf": "TAF EYPA 151715Z 1518/1618 VRB03KT 5000 DZ BR OVC002"
    },
    {
      "icao": "EYVI",
      "alert": "OK",
      "vis_m": 9999,
      "fzfg": false,
      "metar_trigger": false,
      "taf_trigger": false,
      "metar": "METAR EYVI 151750Z 15012KT CAVOK 09/M02 Q1016 NOSIG",
      "taf": "TAF EYVI 151707Z 1518/1618 15011KT 9000 NSC"
    },
    {
      "icao": "GCFV",
      "alert": "OK",
      "vis_m": 9999,
      "fzfg": false,
      "metar_trigger": false,
      "taf_trigger": false,
      "metar": "METAR GCFV 151800Z 04018KT 9999 FEW030 19/13 Q1015",
      "taf": "TAF GCFV 151400Z 1515/1615 04012KT 9999 SCT030 TX20/1614Z TN15/1606Z"
    },
    {
      "icao": "GCLP",
      "alert": "OK",
      "vis_m": 9999,
      "fzfg": false,
      "metar_trigger": false,
      "taf_trigger": false,
      "metar": "METAR GCLP 151800Z 02016KT 9999 SCT030 19/13 Q1016 NOSIG",
      "taf": "TAF GCLP 151400Z 1515/1615 02017KT 9999 SCT030 TX21/1614Z TN15/1606Z"
    },
    {
      "icao": "GCTS",
      "alert": "OK",
      "vis_m": 9999,
      "fzfg": false,
      "metar_trigger": false,
      "taf_trigger": false,
      "metar": "METAR GCTS 151800Z 07021KT 9999 FEW025 20/11 Q1015 NOSIG",
      "taf": "TAF GCTS 151400Z 1515/1615 06018KT 9999 FEW025 TX22/1614Z TN15/1606Z"
    },
    {
      "icao": "GMAD",
      "alert": "OK",
      "vis_m": 8000,
      "fzfg": false,
      "metar_trigger": false,
      "taf_trigger": false,
      "metar": "METAR GMAD 151800Z 25008KT 8000 NSC 18/14 Q1011 NOSIG",
      "taf": "TAF GMAD 151700Z 1518/1624 20006KT 8000 FEW020"
    },
    {
      "icao": "GMMN",
      "alert": "OK",
      "vis_m": 9999,
      "fzfg": false,
      "metar_trigger": false,
      "taf_trigger": false,
      "metar": "METAR GMMN 151800Z 36010KT 9999 BKN020 15/12 Q1016 NOSIG",
      "taf": "TAF GMMN 151700Z 1518/1624 34010KT 9999 BKN020"
    },
    {
      "icao": "GMMX",
      "alert": "OK",
      "vis_m": 9999,
      "fzfg": false,
      "metar_trigger": false,
      "taf_trigger": false,
      "metar": "METAR GMMX 151800Z 05008KT 020V080 CAVOK 21/11 Q1013 NOSIG",
      "taf": "TAF GMMX 151700Z 1518/1624 06006KT CAVOK"
    },
    {
      "icao": "HEGN",
      "alert": "OK",
      "vis_m": 9999,
      "fzfg": false,
      "metar_trigger": false,
      "taf_trigger": false,
      "metar": "METAR HEGN 151700Z 34003KT CAVOK 21/08 Q1011 NOSIG",
      "taf": "TAF HEGN 151700Z 1518/1624 32010G20KT 6000 SCT025"
    },
    {
      "icao": "HEMA",
      "alert": "OK",
      "vis_m": 9999,
      "fzfg": false,
      "metar_trigger": false,
      "taf_trigger": false,
      "metar": "METAR HEMA 151700Z 33010KT CAVOK 21/11 Q1011 NOSIG",
      "taf": "TAF HEMA 151700Z 1518/1624 33010G20KT 6000 SCT025"
    },
    {
      "icao": "HESH",
      "alert": "OK",
      "vis_m": 9999,
      "fzfg": false,
      "metar_trigger": false,
      "taf_trigger": false,
      "metar": "METAR HESH 151700Z 06004KT CAVOK 23/11 Q1009 NOSIG",
      "taf": "TAF HESH 151700Z 1518/1624 01015KT 6000 SCT025"
    },
    {
      "icao": "HESX",
      "alert": "OK",
      "vis_m": 9999,
      "fzfg": false,
      "metar_trigger": false,
      "taf_trigger": false,
      "metar": "METAR HESX 151700Z 29013KT CAVOK 17/03 Q1011 NOSIG",
      "taf": "TAF HESX 151700Z 1518/1624 30014KT 9999 FEW020"
    },
    {
      "icao": "LATI",
      "alert": "OK",
      "vis_m": null,
      "fzfg": false,
      "metar_trigger": false,
      "taf_trigger": false,
      "metar": "",
      "taf": "TAF LATI 151700Z 1518/1618 VRB03KT CAVOK TX21/1612Z TN04/1604Z"
    },
    {
      "icao": "LBPD",
      "alert": "OK",
      "vis_m": 9999,
      "fzfg": false,
      "metar_trigger": false,
      "taf_trigger": false,
      "metar": "METAR LBPD 151800Z AUTO 12008KT 9999 NCD 07/01 Q1013 NOSIG",
      "taf": "TAF LBPD 151700Z 1518/1618 11010KT CAVOK"
    },
    {
      "icao": "LBSF",
      "alert": "OK",
      "vis_m": 9999,
      "fzfg": false,
      "metar_trigger": false,
      "taf_trigger": false,
      "metar": "METAR LBSF 151800Z AUTO 12005KT 090V150 9999 NCD 06/M00 Q1012 NOSIG",
      "taf": "TAF LBSF 151700Z 1518/1618 12010KT CAVOK"
    },
    {
      "icao": "LBWN",
      "alert": "OK",
      "vis_m": 9999,
      "fzfg": false,
      "metar_trigger": false,
      "taf_trigger": false,
      "metar": "METAR LBWN 151800Z AUTO VRB03KT 9999 NCD 06/04 Q1014 NOSIG",
      "taf": "TAF LBWN 151700Z 1518/1618 VRB04KT 9999 SCT040"
    },
    {
      "icao": "LCLK",
      "alert": "OK",
      "vis_m": 9999,
      "fzfg": false,
      "metar_trigger": false,
      "taf_trigger": false,
      "metar": "METAR LCLK 151800Z 24015KT 9999 FEW030 SCT050 16/11 Q1006 NOSIG",
      "taf": "TAF LCLK 151730Z 1518/1618 24016KT 9999 FEW020 SCT040"
    },
    {
      "icao": "LCPH",
      "alert": "OK",
      "vis_m": 9999,
      "fzfg": false,
      "metar_trigger": false,
      "taf_trigger": false,
      "metar": "METAR LCPH 151800Z 27018KT 250V320 9999 FEW025 BKN035 16/11 Q1007 NOSIG",
      "taf": "TAF LCPH 151730Z 1518/1618 29018KT 9999 FEW025 SCT035"
    },
    {
      "icao": "LEAL",
      "alert": "OK",
      "vis_m": 9999,
      "fzfg": false,
      "metar_trigger": false,
      "taf_trigger": false,
      "metar": "METAR LEAL 151800Z VRB05KT CAVOK 18/M02 Q1013 NOSIG",
      "taf": "TAF LEAL 151700Z 1518/1618 35012KT CAVOK TX19/1612Z TN06/1606Z"
    },
    {
      "icao": "LEBB",
      "alert": "OK",
      "vis_m": 9999,
      "fzfg": false,
      "metar_trigger": false,
      "taf_trigger": false,
      "metar": "METAR LEBB 151800Z 33005KT 290V010 9999 SCT032 BKN050 12/07 Q1023 NOSIG",
      "taf": "TAF LEBB 151700Z 1518/1618 31009KT 9999 SCT025 BKN040 TX15/1612Z TN08/1603Z"
    },
    {
      "icao": "LEBL",
      "alert": "OK",
      "vis_m": 9999,
      "fzfg": false,
      "metar_trigger": false,
      "taf_trigger": false,
      "metar": "METAR LEBL 151800Z 08012G22KT 030V130 CAVOK 15/05 Q1011 NOSIG",
      "taf": ""
    },
    {
      "icao": "LECH",
      "alert": "OK",
      "vis_m": 9000,
      "fzfg": false,
      "metar_trigger": false,
      "taf_trigger": false,
      "metar": "METAR LECH 151800Z AUTO 33014G26KT 280V030 9000 NCD 12/M01 Q1013",
      "taf": ""
    },
    {
      "icao": "LEMD",
      "alert": "OK",
      "vis_m": 9999,
      "fzfg": false,
      "metar_trigger": false,
      "taf_trigger": false,
      "metar": "METAR LEMD 151800Z 01012KT 340V060 CAVOK 12/M00 Q1017 NOSIG",
      "taf": "TAF LEMD 151700Z 1518/1624 02015KT CAVOK TX21/1615Z TN01/1607Z"
    },
    {
      "icao": "LEMG",
      "alert": "OK",
      "vis_m": 9999,
      "fzfg": false,
      "metar_trigger": false,
      "taf_trigger": false,
      "metar": "METAR LEMG 151800Z 32010KT CAVOK 20/05 Q1014 NOSIG",
      "taf": "TAF LEMG 151700Z 1518/1618 29008KT 9999 FEW060 TX18/1615Z TN11/1607Z"
    },
    {
      "icao": "LEVC",
      "alert": "OK",
      "vis_m": 9999,
      "fzfg": false,
      "metar_trigger": false,
      "taf_trigger": false,
      "metar": "METAR LEVC 151800Z 33012KT 300V360 CAVOK 17/M01 Q1013 NOSIG",
      "taf": "TAF LEVC 151700Z 1518/1618 33012KT CAVOK TX20/1612Z TN05/1605Z"
    },
    {
      "icao": "LEXJ",
      "alert": "OK",
      "vis_m": 9999,
      "fzfg": false,
      "metar_trigger": false,
      "taf_trigger": false,
      "metar": "METAR LEXJ 151800Z 31007KT 9999 BKN021 OVC048 11/06 Q1023",
      "taf": "TAF LEXJ 151400Z 1515/1615 32010KT 9999 SCT020 BKN030 TX17/1613Z TN10/1521Z"
    },
    {
      "icao": "LEZG",
      "alert": "OK",
      "vis_m": 9999,
      "fzfg": false,
      "metar_trigger": false,
      "taf_trigger": false,
      "metar": "METAR LEZG 151800Z 31028G42KT CAVOK 11/02 Q1017 NOSIG",
      "taf": "TAF LEZG 151700Z 1518/1618 30020KT 9999 FEW045 TX19/1614Z TN07/1606Z"
    },
    {
      "icao": "LEZL",
      "alert": "OK",
      "vis_m": 9999,
      "fzfg": false,
      "metar_trigger": false,
      "taf_trigger": false,
      "metar": "METAR LEZL 151800Z VRB02KT CAVOK 21/11 Q1015 NOSIG",
      "taf": "TAF LEZL 151400Z 1515/1615 04004KT 9999 SCT030 TX21/1515Z TN12/1607Z"
    },
    {
      "icao": "LFBD",
      "alert": "OK",
      "vis_m": 9999,
      "fzfg": false,
      "metar_trigger": false,
      "taf_trigger": false,
      "metar": "METAR LFBD 151800Z AUTO 31008KT CAVOK 11/03 Q1021 NOSIG",
      "taf": "TAF LFBD 151700Z 1518/1624 32010KT CAVOK TX15/1615Z TN05/1522Z"
    },
    {
      "icao": "LFLL",
      "alert": "OK",
      "vis_m": 9999,
      "fzfg": false,
      "metar_trigger": false,
      "taf_trigger": false,
      "metar": "METAR LFLL 151800Z 36013KT CAVOK 09/01 Q1018 NOSIG",
      "taf": "TAF LFLL 151700Z 1518/1624 34008KT CAVOK"
    },
    {
      "icao": "LFLS",
      "alert": "OK",
      "vis_m": 9999,
      "fzfg": false,
      "metar_trigger": false,
      "taf_trigger": false,
      "metar": "METAR LFLS 151800Z AUTO 35010KT 9999 OVC038 07/01 Q1017 NOSIG",
      "taf": "TAF LFLS 151400Z 1515/1615 35012KT 9999 BKN035"
    },
    {
      "icao": "LFMN",
      "alert": "OK",
      "vis_m": 9999,
      "fzfg": false,
      "metar_trigger": false,
      "taf_trigger": false,
      "metar": "METAR LFMN 151800Z 27008KT CAVOK 15/10 Q1008 BECMG 34010KT",
      "taf": ""
    },
    {
      "icao": "LFOB",
      "alert": "OK",
      "vis_m": 9999,
      "fzfg": false,
      "metar_trigger": false,
      "taf_trigger": false,
      "metar": "METAR LFOB 151800Z AUTO 21011KT CAVOK 10/M00 Q1015 NOSIG",
      "taf": "TAF LFOB 151700Z 1518/1618 24012KT CAVOK"
    },
    {
      "icao": "LFPO",
      "alert": "OK",
      "vis_m": 9999,
      "fzfg": false,
      "metar_trigger": false,
      "taf_trigger": false,
      "metar": "METAR LFPO 151800Z 21007KT CAVOK 10/01 Q1016 NOSIG",
      "taf": "TAF LFPO 151700Z 1518/1624 23010KT CAVOK"
    },
    {
      "icao": "LFSB",
      "alert": "OK",
      "vis_m": 9999,
      "fzfg": false,
      "metar_trigger": false,
      "taf_trigger": false,
      "metar": "METAR LFSB 151800Z AUTO 33004KT 9999 OVC058 06/02 Q1018 NOSIG",
      "taf": "TAF LFSB 151700Z 1518/1618 36008KT 9999 BKN050"
    },
    {
      "icao": "LGAV",
      "alert": "OK",
      "vis_m": 9999,
      "fzfg": false,
      "metar_trigger": false,
      "taf_trigger": false,
      "metar": "METAR LGAV 151750Z 02009KT 9999 FEW030 10/04 Q1012 NOSIG",
      "taf": "TAF LGAV 151700Z 1518/1618 04010KT 9999 FEW025"
    },
    {
      "icao": "LGTS",
      "alert": "OK",
      "vis_m": 9999,
      "fzfg": false,
      "metar_trigger": false,
      "taf_trigger": false,
      "metar": "METAR LGTS 151750Z 11006KT 9999 FEW020 11/06 Q1012 NOSIG",
      "taf": "TAF LGTS 151700Z 1518/1618 VRB03KT 9999 FEW030"
    },
    {
      "icao": "LHBP",
      "alert": "OK",
      "vis_m": 9999,
      "fzfg": false,
      "metar_trigger": false,
      "taf_trigger": false,
      "metar": "METAR LHBP 151800Z 08002KT CAVOK 09/M03 Q1013 NOSIG",
      "taf": "TAF LHBP 151715Z 1518/1618 08005KT CAVOK"
    },
    {
      "icao": "LHDC",
      "alert": "OK",
      "vis_m": 9999,
      "fzfg": false,
      "metar_trigger": false,
      "taf_trigger": false,
      "metar": "METAR LHDC 151745Z AUTO 04005KT CAVOK 10/M06 Q1012 NOSIG",
      "taf": "TAF LHDC 151715Z 1518/1603 VRB03KT CAVOK"
    },
    {
      "icao": "LIBD",
      "alert": "OK",
      "vis_m": 9999,
      "fzfg": false,
      "metar_trigger": false,
      "taf_trigger": false,
      "metar": "METAR LIBD 151750Z 13007KT CAVOK 13/09 Q1007",
      "taf": "TAF LIBD 151700Z 1518/1618 11010KT 9999 SCT020"
    },
    {
      "icao": "LIBG",
      "alert": "OK",
      "vis_m": 9999,
      "fzfg": false,
      "metar_trigger": false,
      "taf_trigger": false,
      "metar": "METAR LIBG 151750Z 10010KT 9999 FEW030 12/10 Q1007",
      "taf": "TAF LIBG 151700Z 1518/1603 14013KT 9999 SCT020"
    },
    {
      "icao": "LIBP",
      "alert": "OK",
      "vis_m": 9999,
      "fzfg": false,
      "metar_trigger": false,
      "taf_trigger": false,
      "metar": "METAR LIBP 151750Z AUTO 09007KT 9999 BKN098/// 14/12 Q1008",
      "taf": "TAF LIBP 151700Z 1518/1618 VRB06KT 9999 SCT020"
    },
    {
      "icao": "LIBR",
      "alert": "OK",
      "vis_m": 9999,
      "fzfg": false,
      "metar_trigger": false,
      "taf_trigger": false,
      "metar": "METAR LIBR 151750Z 18012KT 9999 -DZ FEW045 13/08 Q1008",
      "taf": "TAF LIBR 151700Z 1518/1618 13012KT 9999 SCT020"
    },
    {
      "icao": "LICA",
      "alert": "OK",
      "vis_m": 1500,
      "fzfg": false,
      "metar_trigger": false,
      "taf_trigger": false,
      "metar": "METAR LICA 151750Z AUTO 07007KT 360V130 1500 RA BCFG VCTS OVC018/// 13/12 Q1003 RETS",
      "taf": "TAF LICA 151700Z 1518/1618 08016KT 9999 BKN040"
    },
    {
      "icao": "LICC",
      "alert": "OK",
      "vis_m": 8000,
      "fzfg": false,
      "metar_trigger": false,
      "taf_trigger": false,
      "metar": "METAR LICC 151750Z 11004KT 040V200 8000 -RA FEW015 BKN050 13/11 Q1001",
      "taf": "TAF LICC 151700Z 1518/1618 09015KT 9999 BKN020"
    },
    {
      "icao": "LICJ",
      "alert": "OK",
      "vis_m": 9999,
      "fzfg": false,
      "metar_trigger": false,
      "taf_trigger": false,
      "metar": "METAR LICJ 151750Z 29013KT 9999 -RA OVC050 12/05 Q1002",
      "taf": "TAF LICJ 151700Z 1518/1618 28013KT 9999 BKN025"
    },
    {
      "icao": "LIMC",
      "alert": "OK",
      "vis_m": 9999,
      "fzfg": false,
      "metar_trigger": false,
      "taf_trigger": false,
      "metar": "METAR LIMC 151750Z 36004KT 9999 BKN040 10/06 Q1012 NOSIG",
      "taf": "TAF LIMC 151700Z 1518/1624 01007KT 9999 SCT060"
    },
    {
      "icao": "LIME",
      "alert": "OK",
      "vis_m": 9999,
      "fzfg": false,
      "metar_trigger": false,
      "taf_trigger": false,
      "metar": "METAR LIME 151750Z 35004KT 9999 SCT035 SCT060 11/08 Q1012 NOSIG",
      "taf": "TAF LIME 151700Z 1518/1618 VRB05KT 9999 SCT040"
    },
    {
      "icao": "LIMF",
      "alert": "OK",
      "vis_m": 9999,
      "fzfg": false,
      "metar_trigger": false,
      "taf_trigger": false,
      "metar": "METAR LIMF 151750Z VRB01KT 9999 BKN050 11/07 Q1012",
      "taf": "TAF LIMF 151700Z 1518/1618 VRB05KT 9999 SCT060"
    },
    {
      "icao": "LIMJ",
      "alert": "OK",
      "vis_m": 9999,
      "fzfg": false,
      "metar_trigger": false,
      "taf_trigger": false,
      "metar": "METAR LIMJ 151750Z 03012KT 350V100 CAVOK 14/08 Q1008",
      "taf": "TAF LIMJ 151700Z 1518/1618 04015KT CAVOK"
    },
    {
      "icao": "LIPE",
      "alert": "OK",
      "vis_m": 9999,
      "fzfg": false,
      "metar_trigger": false,
      "taf_trigger": false,
      "metar": "METAR LIPE 151720Z 07008KT 9999 FEW020 SCT040 14/10 Q1009",
      "taf": "TAF LIPE 151700Z 1518/1618 VRB06KT 9999 SCT020"
    },
    {
      "icao": "LIPH",
      "alert": "OK",
      "vis_m": 9999,
      "fzfg": false,
      "metar_trigger": false,
      "taf_trigger": false,
      "metar": "METAR LIPH 151750Z 31004KT 280V340 CAVOK 13/09 Q1011",
      "taf": "TAF LIPH 151700Z 1518/1618 36006KT 9999 FEW060"
    },
    {
      "icao": "LIPQ",
      "alert": "OK",
      "vis_m": 9999,
      "fzfg": false,
      "metar_trigger": false,
      "taf_trigger": false,
      "metar": "METAR LIPQ 151750Z AUTO VRB02KT 9999 NCD 13/08 Q1010",
      "taf": "TAF LIPQ 151700Z 1518/1618 VRB05KT 9999 FEW060"
    },
    {
      "icao": "LIPR",
      "alert": "OK",
      "vis_m": 9999,
      "fzfg": false,
      "metar_trigger": false,
      "taf_trigger": false,
      "metar": "METAR LIPR 151750Z 09006KT CAVOK 12/11 Q1009",
      "taf": "TAF LIPR 151700Z 1518/1618 09010KT 9999 SCT020"
    },
    {
      "icao": "LIPX",
      "alert": "OK",
      "vis_m": 9999,
      "fzfg": false,
      "metar_trigger": false,
      "taf_trigger": false,
      "metar": "METAR LIPX 151750Z 04005KT 9999 FEW030 SCT070 12/07 Q1011",
      "taf": "TAF LIPX 151700Z 1518/1618 VRB05KT 9999 SCT050"
    },
    {
      "icao": "LIPY",
      "alert": "OK",
      "vis_m": 9999,
      "fzfg": false,
      "metar_trigger": false,
      "taf_trigger": false,
      "metar": "METAR LIPY 151750Z AUTO 07005KT 9999 NCD 13/11 Q1009",
      "taf": "TAF LIPY 151700Z 1518/1618 VRB06KT 9999 SCT020"
    },
    {
      "icao": "LIPZ",
      "alert": "OK",
      "vis_m": 9999,
      "fzfg": false,
      "metar_trigger": false,
      "taf_trigger": false,
      "metar": "METAR LIPZ 151750Z 31004KT 230V360 CAVOK 14/09 Q1011 NOSIG",
      "taf": "TAF LIPZ 151700Z 1518/1624 01007KT 9999 FEW060"
    },
    {
      "icao": "LIRF",
      "alert": "OK",
      "vis_m": 9999,
      "fzfg": false,
      "metar_trigger": false,
      "taf_trigger": false,
      "metar": "METAR LIRF 151750Z 17004KT 140V210 CAVOK 15/10 Q1004 NOSIG",
      "taf": "TAF LIRF 151700Z 1518/1624 04012KT 9999 SCT025"
    },
    {
      "icao": "LIRN",
      "alert": "OK",
      "vis_m": 9999,
      "fzfg": false,
      "metar_trigger": false,
      "taf_trigger": false,
      "metar": "METAR LIRN 151750Z 31003KT 250V350 9999 SCT080 15/05 Q1003 NOSIG",
      "taf": "TAF LIRN 151700Z 1518/1618 04012KT 9999 SCT030"
    },
    {
      "icao": "LIRP",
      "alert": "OK",
      "vis_m": 9999,
      "fzfg": false,
      "metar_trigger": false,
      "taf_trigger": false,
      "metar": "METAR LIRP 151745Z 03010KT CAVOK 16/05 Q1006 NOSIG",
      "taf": "TAF LIRP 151700Z 1518/1618 03012KT 9999 SCT060"
    },
    {
      "icao": "LIRZ",
      "alert": "OK",
      "vis_m": 9999,
      "fzfg": false,
      "metar_trigger": false,
      "taf_trigger": false,
      "metar": "METAR LIRZ 151750Z AUTO 06016KT 9999 BKN079/// 14/06 Q1006",
      "taf": "TAF LIRZ 151700Z 1518/1618 06013KT 9999 SCT030"
    },
    {
      "icao": "LJLJ",
      "alert": "OK",
      "vis_m": 9999,
      "fzfg": false,
      "metar_trigger": false,
      "taf_trigger": false,
      "metar": "METAR LJLJ 151800Z VRB01KT 9999 FEW045 SCT090 09/06 Q1011 NOSIG",
      "taf": "TAF LJLJ 151700Z 1518/1618 VRB02KT 9999 FEW045 SCT060 BKN100"
    },
    {
      "icao": "LKMT",
      "alert": "OK",
      "vis_m": 9999,
      "fzfg": false,
      "metar_trigger": false,
      "taf_trigger": false,
      "metar": "METAR LKMT 151800Z 02005KT 350V060 CAVOK 08/05 Q1014 NOSIG",
      "taf": "TAF LKMT 151700Z 1518/1618 23012KT CAVOK"
    },
    {
      "icao": "LKPR",
      "alert": "OK",
      "vis_m": 9999,
      "fzfg": false,
      "metar_trigger": false,
      "taf_trigger": false,
      "metar": "METAR LKPR 151800Z 33003KT 270V360 9999 SCT018 BKN025 OVC035 06/03 Q1015 NOSIG",
      "taf": "TAF LKPR 151700Z 1518/1624 36005KT 9999 SCT017 OVC020"
    },
    {
      "icao": "LLBG",
      "alert": "OK",
      "vis_m": 9999,
      "fzfg": false,
      "metar_trigger": false,
      "taf_trigger": false,
      "metar": "METAR LLBG 151750Z 21005KT CAVOK 16/10 Q1012 NOSIG RMK FEW063",
      "taf": "TAF LLBG 151705Z 1518/1618 VRB04KT 9999 FEW035 TX18/1611Z TN13/1604Z"
    },
    {
      "icao": "LMML",
      "alert": "OK",
      "vis_m": 9999,
      "fzfg": false,
      "metar_trigger": false,
      "taf_trigger": false,
      "metar": "METAR LMML 151815Z 31010KT 9999 FEW010 10/09 Q1002 NOSIG",
      "taf": "TAF LMML 151700Z 1518/1618 22015KT 9999 SCT015"
    },
    {
      "icao": "LOWW",
      "alert": "OK",
      "vis_m": 9999,
      "fzfg": false,
      "metar_trigger": false,
      "taf_trigger": false,
      "metar": "METAR LOWW 151750Z 30007KT 9999 NSC 09/03 Q1014 NOSIG",
      "taf": "TAF LOWW 151715Z 1518/1624 30006KT 9999 FEW040 TX12/1615Z TN06/1624Z"
    },
    {
      "icao": "LPFR",
      "alert": "OK",
      "vis_m": 9999,
      "fzfg": false,
      "metar_trigger": false,
      "taf_trigger": false,
      "metar": "METAR LPFR 151800Z 21006KT CAVOK 16/12 Q1016",
      "taf": "TAF LPFR 151700Z 1518/1618 22010KT CAVOK"
    },
    {
      "icao": "LPMA",
      "alert": "OK",
      "vis_m": 6000,
      "fzfg": false,
      "metar_trigger": false,
      "taf_trigger": false,
      "metar": "METAR LPMA 151800Z 04014KT 6000 -RA BKN012 16/14 Q1019",
      "taf": "TAF LPMA 151700Z 1518/1618 02012KT 9999 SCT015 BKN030"
    },
    {
      "icao": "LPPR",
      "alert": "OK",
      "vis_m": 9999,
      "fzfg": false,
      "metar_trigger": false,
      "taf_trigger": false,
      "metar": "METAR LPPR 151800Z 34015KT CAVOK 14/11 Q1020",
      "taf": "TAF LPPR 151700Z 1518/1618 36012KT CAVOK"
    },
    {
      "icao": "LPPS",
      "alert": "OK",
      "vis_m": 9000,
      "fzfg": false,
      "metar_trigger": false,
      "taf_trigger": false,
      "metar": "METAR LPPS 151800Z 04009KT 9000 -DZ SCT012 BKN030 16/14 Q1020",
      "taf": "TAF LPPS 151700Z 1518/1624 05010KT 9999 SCT012 BKN030"
    },
    {
      "icao": "LPPT",
      "alert": "OK",
      "vis_m": 9999,
      "fzfg": false,
      "metar_trigger": false,
      "taf_trigger": false,
      "metar": "METAR LPPT 151800Z 33014KT CAVOK 15/09 Q1018",
      "taf": "TAF LPPT 151700Z 1518/1624 35015KT CAVOK"
    },
    {
      "icao": "LQBK",
      "alert": "OK",
      "vis_m": 9999,
      "fzfg": false,
      "metar_trigger": false,
      "taf_trigger": false,
      "metar": "METAR LQBK 151800Z 32003KT CAVOK 11/02 Q1011 NOSIG",
      "taf": "TAF LQBK 151700Z 1518/1618 14005KT CAVOK TX17/1613Z TN02/1605Z"
    },
    {
      "icao": "LQSA",
      "alert": "OK",
      "vis_m": 9999,
      "fzfg": false,
      "metar_trigger": false,
      "taf_trigger": false,
      "metar": "METAR LQSA 151800Z 07004KT 010V100 9999 SCT050 SCT070 14/M00 Q1009 NOSIG",
      "taf": "TAF LQSA 151700Z 1518/1618 VRB02KT CAVOK TX17/1614Z TNM00/1605Z"
    },
    {
      "icao": "LQTZ",
      "alert": "OK",
      "vis_m": 9999,
      "fzfg": false,
      "metar_trigger": false,
      "taf_trigger": false,
      "metar": "METAR LQTZ 151800Z VRB02KT CAVOK 09/01 Q1010",
      "taf": "TAF LQTZ 151700Z 1518/1618 10005KT CAVOK TX16/1613Z TN00/1605Z"
    },
    {
      "icao": "LRBC",
      "alert": "OK",
      "vis_m": 9999,
      "fzfg": false,
      "metar_trigger": false,
      "taf_trigger": false,
      "metar": "METAR LRBC 151800Z VRB02KT CAVOK 04/M01 Q1016",
      "taf": "TAF LRBC 151700Z 1518/1603 VRB04KT CAVOK"
    },
    {
      "icao": "LRBS",
      "alert": "OK",
      "vis_m": 9999,
      "fzfg": false,
      "metar_trigger": false,
      "taf_trigger": false,
      "metar": "METAR LRBS 151800Z 06003KT CAVOK 06/00 Q1015 NOSIG",
      "taf": "TAF LRBS 151700Z 1518/1618 VRB04KT CAVOK"
    },
    {
      "icao": "LRBV",
      "alert": "OK",
      "vis_m": 9999,
      "fzfg": false,
      "metar_trigger": false,
      "taf_trigger": false,
      "metar": "METAR LRBV 151800Z 07012KT 9999 BKN065 07/M03 Q1014",
      "taf": "TAF LRBV 151700Z 1518/1603 07012KT 9999 SCT045"
    },
    {
      "icao": "LRCL",
      "alert": "OK",
      "vis_m": 9999,
      "fzfg": false,
      "metar_trigger": false,
      "taf_trigger": false,
      "metar": "METAR LRCL 151800Z 12006KT 080V160 CAVOK 08/M04 Q1013",
      "taf": "TAF LRCL 151700Z 1518/1603 VRB04KT CAVOK"
    },
    {
      "icao": "LRCV",
      "alert": "OK",
      "vis_m": 9999,
      "fzfg": false,
      "metar_trigger": false,
      "taf_trigger": false,
      "metar": "METAR LRCV 151800Z 10005KT CAVOK 05/03 Q1015",
      "taf": "TAF LRCV 151700Z 1518/1603 10006KT CAVOK"
    },
    {
      "icao": "LRIA",
      "alert": "OK",
      "vis_m": 9999,
      "fzfg": false,
      "metar_trigger": false,
      "taf_trigger": false,
      "metar": "METAR LRIA 151800Z 07007KT CAVOK 08/M05 Q1017",
      "taf": "TAF LRIA 151700Z 1518/1603 06007KT CAVOK"
    },
    {
      "icao": "LROP",
      "alert": "OK",
      "vis_m": 9999,
      "fzfg": false,
      "metar_trigger": false,
      "taf_trigger": false,
      "metar": "METAR LROP 151800Z 08005KT CAVOK 07/M01 Q1015 NOSIG",
      "taf": "TAF LROP 151700Z 1518/1618 07010KT CAVOK"
    },
    {
      "icao": "LRSB",
      "alert": "OK",
      "vis_m": 9999,
      "fzfg": false,
      "metar_trigger": false,
      "taf_trigger": false,
      "metar": "METAR LRSB 151800Z 10010KT CAVOK 09/M03 Q1013",
      "taf": "TAF LRSB 151700Z 1518/1618 10010KT CAVOK"
    },
    {
      "icao": "LRSM",
      "alert": "OK",
      "vis_m": 9999,
      "fzfg": false,
      "metar_trigger": false,
      "taf_trigger": false,
      "metar": "METAR LRSM 151800Z AUTO VRB01KT 9999 NCD 09/M03 Q1013",
      "taf": "TAF LRSM 151400Z 1515/1524 17005KT CAVOK"
    },
    {
      "icao": "LRSV",
      "alert": "OK",
      "vis_m": 9999,
      "fzfg": false,
      "metar_trigger": false,
      "taf_trigger": false,
      "metar": "METAR LRSV 151800Z 10003KT CAVOK 07/M06 Q1016",
      "taf": "TAF LRSV 151700Z 1518/1603 09007KT CAVOK"
    },
    {
      "icao": "LRTM",
      "alert": "OK",
      "vis_m": 9999,
      "fzfg": false,
      "metar_trigger": false,
      "taf_trigger": false,
      "metar": "METAR LRTM 151800Z AUTO 09005KT 9999 NCD 08/M03 Q1014",
      "taf": "TAF LRTM 151400Z 1515/1524 12006KT CAVOK"
    },
    {
      "icao": "LRTR",
      "alert": "OK",
      "vis_m": 9999,
      "fzfg": false,
      "metar_trigger": false,
      "taf_trigger": false,
      "metar": "METAR LRTR 151800Z VRB02KT CAVOK 08/00 Q1012",
      "taf": "TAF LRTR 151700Z 1518/1618 VRB04KT CAVOK"
    },
    {
      "icao": "LTAC",
      "alert": "OK",
      "vis_m": 9999,
      "fzfg": false,
      "metar_trigger": false,
      "taf_trigger": false,
      "metar": "METAR LTAC 151750Z 04006KT 9999 SCT040 BKN100 10/04 Q1005 NOSIG RMK RWY21C 07007KT RWY03L 05007KT RWY21R 07009KT RWY03R 01006KT RWY21L 08008KT",
      "taf": "TAF LTAC 151640Z 1518/1618 VRB02KT 9999 SCT040 SCT100"
    },
    {
      "icao": "LTFM",
      "alert": "OK",
      "vis_m": 6000,
      "fzfg": false,
      "metar_trigger": false,
      "taf_trigger": false,
      "metar": "METAR LTFM 151750Z 01012KT 6000 BKN003 BKN022 08/07 Q1012 REDZ NOSIG RMK RWY17L 01011KT RWY34L 01012KT RWY16R 01012KT RWY36 01012KT RWY18 01011KT",
      "taf": "TAF LTFM 151640Z 1518/1624 36013KT 9999 BKN006 BKN022"
    },
    {
      "icao": "LUKK",
      "alert": "OK",
      "vis_m": 9999,
      "fzfg": false,
      "metar_trigger": false,
      "taf_trigger": false,
      "metar": "METAR LUKK 151800Z 04003KT 010V090 CAVOK 09/M00 Q1017 NOSIG",
      "taf": "TAF LUKK 151710Z 1518/1618 VRB05KT CAVOK"
    },
    {
      "icao": "LWOH",
      "alert": "OK",
      "vis_m": 9999,
      "fzfg": false,
      "metar_trigger": false,
      "taf_trigger": false,
      "metar": "METAR LWOH 151750Z 06009KT 9999 FEW040 11/M01 Q1009",
      "taf": "TAF LWOH 151730Z 1518/1618 33010KT 9999 SCT040"
    },
    {
      "icao": "LWSK",
      "alert": "OK",
      "vis_m": null,
      "fzfg": false,
      "metar_trigger": false,
      "taf_trigger": false,
      "metar": "",
      "taf": "TAF LWSK 151730Z 1518/1618 VRB02KT CAVOK"
    },
    {
      "icao": "LYBE",
      "alert": "OK",
      "vis_m": 9999,
      "fzfg": false,
      "metar_trigger": false,
      "taf_trigger": false,
      "metar": "METAR LYBE 151800Z 10009KT CAVOK 11/M03 Q1012 NOSIG",
      "taf": "TAF LYBE 151700Z 1518/1618 10008KT CAVOK TX17/1613Z TN03/1605Z"
    },
    {
      "icao": "LYNI",
      "alert": "OK",
      "vis_m": 9999,
      "fzfg": false,
      "metar_trigger": false,
      "taf_trigger": false,
      "metar": "METAR LYNI 151800Z 00000KT CAVOK 09/M01 Q1011 NOSIG",
      "taf": "TAF LYNI 151700Z 1518/1618 05007KT CAVOK TX16/1613Z TN02/1605Z"
    },
    {
      "icao": "LYPG",
      "alert": "OK",
      "vis_m": 9999,
      "fzfg": false,
      "metar_trigger": false,
      "taf_trigger": false,
      "metar": "METAR LYPG 151800Z 14006KT 9999 FEW090 15/03 Q1009 NOSIG",
      "taf": "TAF LYPG 151700Z 1518/1618 36005KT 9999 FEW050 SCT090 TX19/1613Z TN06/1605Z"
    },
    {
      "icao": "LZIB",
      "alert": "OK",
      "vis_m": 9999,
      "fzfg": false,
      "metar_trigger": false,
      "taf_trigger": false,
      "metar": "METAR LZIB 151800Z 31008KT CAVOK 12/04 Q1013 NOSIG",
      "taf": "TAF LZIB 151715Z 1518/1618 30009KT CAVOK"
    },
    {
      "icao": "LZKZ",
      "alert": "OK",
      "vis_m": 9999,
      "fzfg": false,
      "metar_trigger": false,
      "taf_trigger": false,
      "metar": "METAR LZKZ 151800Z VRB02KT CAVOK 09/M05 Q1013 NOSIG",
      "taf": "TAF LZKZ 151715Z 1518/1618 02003KT CAVOK"
    },
    {
      "icao": "LZTT",
      "alert": "OK",
      "vis_m": 9999,
      "fzfg": false,
      "metar_trigger": false,
      "taf_trigger": false,
      "metar": "METAR LZTT 151800Z 02005KT 9999 FEW060 05/M04 Q1013 NOSIG",
      "taf": "TAF LZTT 151715Z 1518/1618 14006KT CAVOK"
    },
    {
      "icao": "OEJN",
      "alert": "OK",
      "vis_m": 7000,
      "fzfg": false,
      "metar_trigger": false,
      "taf_trigger": false,
      "metar": "METAR OEJN 151800Z 33010KT 7000 NSC 27/22 Q1009 NOSIG",
      "taf": "TAF OEJN 151700Z 1518/1624 35008KT 7000 NSC"
    },
    {
      "icao": "OEMA",
      "alert": "OK",
      "vis_m": 9999,
      "fzfg": false,
      "metar_trigger": false,
      "taf_trigger": false,
      "metar": "METAR OEMA 151800Z 23008KT CAVOK 28/12 Q1012 NOSIG",
      "taf": "TAF OEMA 151700Z 1518/1624 24012KT 7000 FEW045"
    },
    {
      "icao": "OJAI",
      "alert": "OK",
      "vis_m": 4000,
      "fzfg": false,
      "metar_trigger": false,
      "taf_trigger": false,
      "metar": "METAR OJAI 151800Z 28010KT 4000 DU FEW030 10/05 Q1013 NOSIG",
      "taf": "TAF OJAI 151700Z 1518/1624 24012KT 5000 HZ FEW025TCU SCT030"
    },
    {
      "icao": "OMAA",
      "alert": "OK",
      "vis_m": null,
      "fzfg": false,
      "metar_trigger": false,
      "taf_trigger": false,
      "metar": "",
      "taf": ""
    },
    {
      "icao": "OMDB",
      "alert": "OK",
      "vis_m": null,
      "fzfg": false,
      "metar_trigger": false,
      "taf_trigger": false,
      "metar": "",
      "taf": ""
    },
    {
      "icao": "UAAA",
      "alert": "OK",
      "vis_m": 5000,
      "fzfg": false,
      "metar_trigger": false,
      "taf_trigger": false,
      "metar": "METAR UAAA 151800Z 20001MPS 5000 BR FU SCT200 M01/M05 Q1028 NOSIG",
      "taf": "TAF UAAA 151701Z 1518/1618 22002MPS 5000 BR SCT100 TX08/1609Z TNM04/1601Z"
    },
    {
      "icao": "UBBB",
      "alert": "OK",
      "vis_m": 9999,
      "fzfg": false,
      "metar_trigger": false,
      "taf_trigger": false,
      "metar": "METAR UBBB 151800Z 20014KT 9999 FEW050CB 10/07 Q1014 NOSIG",
      "taf": "TAF UBBB 151703Z 1518/1618 17008KT 9999 BKN040 TX13/1610Z TN07/1601Z"
    },
    {
      "icao": "UDSG",
      "alert": "OK",
      "vis_m": 4000,
      "fzfg": false,
      "metar_trigger": false,
      "taf_trigger": false,
      "metar": "METAR UDSG 151800Z 19002KT 4000 -RA BR OVC016 01/01 Q1011 NOSIG",
      "taf": "TAF UDSG 151658Z 1518/1618 VRB06KT 3000 BR OVC030"
    },
    {
      "icao": "UDYZ",
      "alert": "OK",
      "vis_m": 2600,
      "fzfg": false,
      "metar_trigger": false,
      "taf_trigger": false,
      "metar": "METAR UDYZ 151800Z VRB01KT 2600 BR FEW011 BKN023CB 07/07 Q1011 NOSIG",
      "taf": "TAF UDYZ 151700Z 1518/1618 06006KT 3500 BR BKN030"
    },
    {
      "icao": "UGKO",
      "alert": "OK",
      "vis_m": 9999,
      "fzfg": false,
      "metar_trigger": false,
      "taf_trigger": false,
      "metar": "METAR UGKO 151800Z 08027G38KT 9999 SCT097 10/02 Q1006 NOSIG",
      "taf": "TAF UGKO 151700Z 1518/1618 08020KT 9999 OVC060 TX10/1518Z TN08/1603Z"
    }
  ]
}