{
  "ts_utc": "2025-12-30T22:30:08Z",
  "threshold_m": 150,
  "source": "stations_override.txt (ICAO list) + aviationweather.gov (METAR/TAF raw)",
  "station_count": 159,
  "stations": [
    {
      "icao": "BIKF",
      "alert": "OK",
      "vis_m": 9000,
      "fzfg": false,
      "metar_trigger": false,
      "taf_trigger": false,
      "metar": "METAR BIKF 302200Z 26017KT 9000 -RA BKN009 06/05 Q1031",
      "taf": "TAF BIKF 302215Z 3100/0100 27017KT 9999 SCT017 BKN020 TX06/3100Z TNM02/3124Z"
    },
    {
      "icao": "BKPR",
      "alert": "OK",
      "vis_m": null,
      "fzfg": false,
      "metar_trigger": false,
      "taf_trigger": false,
      "metar": "",
      "taf": "TAF BKPR 301730Z 3018/3118 01009KT 9999 SCT050"
    },
    {
      "icao": "EBCI",
      "alert": "OK",
      "vis_m": 9999,
      "fzfg": false,
      "metar_trigger": false,
      "taf_trigger": false,
      "metar": "METAR EBCI 302220Z 33003KT 290V350 CAVOK M00/M03 Q1030 NOSIG",
      "taf": "TAF EBCI 301718Z 3018/3124 30005KT 9999 SCT030"
    },
    {
      "icao": "EDDB",
      "alert": "OK",
      "vis_m": 9999,
      "fzfg": false,
      "metar_trigger": false,
      "taf_trigger": false,
      "metar": "METAR EDDB 302220Z AUTO 29010KT CAVOK M02/M04 Q1022 NOSIG",
      "taf": "TAF EDDB 301700Z 3018/3118 31011KT CAVOK"
    },
    {
      "icao": "EDDH",
      "alert": "OK",
      "vis_m": 9999,
      "fzfg": false,
      "metar_trigger": false,
      "taf_trigger": false,
      "metar": "METAR EDDH 302220Z AUTO 27004KT 240V300 CAVOK M01/M06 Q1024 NOSIG",
      "taf": "TAF EDDH 301700Z 3018/3124 27004KT 9999 BKN030"
    },
    {
      "icao": "EDDK",
      "alert": "OK",
      "vis_m": 9999,
      "fzfg": false,
      "metar_trigger": false,
      "taf_trigger": false,
      "metar": "METAR EDDK 302220Z AUTO VRB01KT 9999 FEW045 M03/M04 Q1029 NOSIG",
      "taf": ""
    },
    {
      "icao": "EDDN",
      "alert": "OK",
      "vis_m": 9999,
      "fzfg": false,
      "metar_trigger": false,
      "taf_trigger": false,
      "metar": "METAR EDDN 302220Z AUTO VRB02KT CAVOK M07/M09 Q1026",
      "taf": "TAF EDDN 301700Z 3018/3118 32005KT CAVOK"
    },
    {
      "icao": "EDDS",
      "alert": "OK",
      "vis_m": 9999,
      "fzfg": false,
      "metar_trigger": false,
      "taf_trigger": false,
      "metar": "METAR EDDS 302220Z AUTO 29003KT 150V300 CAVOK M05/M08 Q1026",
      "taf": "TAF EDDS 301700Z 3018/3118 30004KT CAVOK"
    },
    {
      "icao": "EDFH",
      "alert": "OK",
      "vis_m": 9999,
      "fzfg": false,
      "metar_trigger": false,
      "taf_trigger": false,
      "metar": "METAR EDFH 302220Z VRB01KT CAVOK M04/M05 Q1027",
      "taf": "TAF EDFH 301700Z 3018/3118 01003KT CAVOK"
    },
    {
      "icao": "EDJA",
      "alert": "OK",
      "vis_m": 9999,
      "fzfg": false,
      "metar_trigger": false,
      "taf_trigger": false,
      "metar": "METAR EDJA 302220Z 15003KT CAVOK M08/M09 Q1025",
      "taf": "TAF EDJA 301700Z 3018/3103 VRB03KT 9999 SCT040"
    },
    {
      "icao": "EDLW",
      "alert": "OK",
      "vis_m": 9999,
      "fzfg": false,
      "metar_trigger": false,
      "taf_trigger": false,
      "metar": "METAR EDLW 302220Z AUTO 22007KT 9999 // BKN044/// M01/M03 Q1027",
      "taf": "TAF EDLW 301700Z 3018/3118 24005KT CAVOK"
    },
    {
      "icao": "EDNY",
      "alert": "OK",
      "vis_m": 9999,
      "fzfg": false,
      "metar_trigger": false,
      "taf_trigger": false,
      "metar": "METAR EDNY 302220Z AUTO 03005KT 9999 // NCD M03/M06 Q1026",
      "taf": "TAF EDNY 301400Z 3015/3024 04004KT 9999 OVC040"
    },
    {
      "icao": "EDSB",
      "alert": "OK",
      "vis_m": 9999,
      "fzfg": false,
      "metar_trigger": false,
      "taf_trigger": false,
      "metar": "METAR EDSB 302220Z 02002KT CAVOK M04/M05 Q1028",
      "taf": "TAF EDSB 301700Z 3018/3118 05004KT 9999 SCT040"
    },
    {
      "icao": "EETN",
      "alert": "OK",
      "vis_m": 9999,
      "fzfg": false,
      "metar_trigger": false,
      "taf_trigger": false,
      "metar": "METAR EETN 302220Z 01012KT 340V050 9999 FEW029 M05/M11 Q1005",
      "taf": "TAF EETN 301730Z 3018/3118 01015G25KT 9999 DRSN BKN025"
    },
    {
      "icao": "EFTU",
      "alert": "OK",
      "vis_m": 9999,
      "fzfg": false,
      "metar_trigger": false,
      "taf_trigger": false,
      "metar": "METAR EFTU 302220Z AUTO 01003KT 330V040 CAVOK M09/M13 Q1009",
      "taf": "TAF EFTU 302025Z 3021/3121 35004KT CAVOK"
    },
    {
      "icao": "EGBB",
      "alert": "OK",
      "vis_m": 9999,
      "fzfg": false,
      "metar_trigger": false,
      "taf_trigger": false,
      "metar": "METAR EGBB 302220Z 32003KT CAVOK 00/M01 Q1035",
      "taf": "TAF EGBB 301702Z 3018/3118 02005KT 9999 FEW020 SCT040"
    },
    {
      "icao": "EGGP",
      "alert": "OK",
      "vis_m": 9999,
      "fzfg": false,
      "metar_trigger": false,
      "taf_trigger": false,
      "metar": "METAR EGGP 302220Z COR 03004KT 9999 SCT033 02/M00 Q1036",
      "taf": "TAF EGGP 301654Z 3018/3118 01005KT 9999 SCT035"
    },
    {
      "icao": "EGGW",
      "alert": "OK",
      "vis_m": 9999,
      "fzfg": false,
      "metar_trigger": false,
      "taf_trigger": false,
      "metar": "METAR EGGW 302220Z AUTO 34007KT 9999 FEW024 02/01 Q1033",
      "taf": "TAF EGGW 301704Z 3018/3118 01006KT 9999 FEW040"
    },
    {
      "icao": "EGKK",
      "alert": "OK",
      "vis_m": 9999,
      "fzfg": false,
      "metar_trigger": false,
      "taf_trigger": false,
      "metar": "METAR EGKK 302220Z 36004KT CAVOK 02/01 Q1034",
      "taf": "TAF EGKK 301659Z 3018/3124 01006KT 9999 FEW040"
    },
    {
      "icao": "EGNM",
      "alert": "OK",
      "vis_m": 9999,
      "fzfg": false,
      "metar_trigger": false,
      "taf_trigger": false,
      "metar": "METAR EGNM 302220Z 32006KT 9999 FEW039 M00/M02 Q1034",
      "taf": "TAF EGNM 301655Z 3018/3118 35006KT 9999 SCT035"
    },
    {
      "icao": "EGPD",
      "alert": "OK",
      "vis_m": 9999,
      "fzfg": false,
      "metar_trigger": false,
      "taf_trigger": false,
      "metar": "METAR EGPD 302220Z COR AUTO 28009KT 9999 OVC028 03/M01 Q1033 NOSIG",
      "taf": "TAF EGPD 301654Z 3018/3118 28008KT 9999 SCT030"
    },
    {
      "icao": "EGPF",
      "alert": "OK",
      "vis_m": 8000,
      "fzfg": false,
      "metar_trigger": false,
      "taf_trigger": false,
      "metar": "METAR EGPF 302220Z VRB01KT 8000 VCFG NSC M04/M05 Q1036",
      "taf": "TAF EGPF 301657Z 3018/3118 VRB02KT 9999 FEW040"
    },
    {
      "icao": "EHBK",
      "alert": "OK",
      "vis_m": 7000,
      "fzfg": false,
      "metar_trigger": false,
      "taf_trigger": false,
      "metar": "METAR EHBK 302225Z AUTO 21004KT 7000 NCD M02/M03 Q1029",
      "taf": "TAF EHBK 301702Z 3018/3124 34004KT 9999 BKN045"
    },
    {
      "icao": "EHEH",
      "alert": "OK",
      "vis_m": 9999,
      "fzfg": false,
      "metar_trigger": false,
      "taf_trigger": false,
      "metar": "METAR EHEH 302155Z AUTO 28003KT 250V320 9999 NCD M03/M03 Q1030 BLU",
      "taf": "TAF EHEH 301747Z 3018/3124 31003KT CAVOK"
    },
    {
      "icao": "EKBI",
      "alert": "OK",
      "vis_m": 9999,
      "fzfg": false,
      "metar_trigger": false,
      "taf_trigger": false,
      "metar": "METAR EKBI 302220Z AUTO 27006KT 9999 OVC090/// M02/M05 Q1022",
      "taf": "TAF EKBI 302027Z 3021/3121 VRB02KT CAVOK"
    },
    {
      "icao": "EKCH",
      "alert": "OK",
      "vis_m": 9999,
      "fzfg": false,
      "metar_trigger": false,
      "taf_trigger": false,
      "metar": "METAR EKCH 302220Z AUTO 27007KT 9999 NCD M03/M06 Q1020 NOSIG",
      "taf": "TAF EKCH 302027Z 3021/3121 28005KT CAVOK"
    },
    {
      "icao": "ENAL",
      "alert": "OK",
      "vis_m": 9999,
      "fzfg": false,
      "metar_trigger": false,
      "taf_trigger": false,
      "metar": "METAR ENAL 302220Z 32006KT 9999 FEW028 SCT049 05/01 Q1018",
      "taf": "TAF ENAL 302000Z 3021/3106 31012KT 9999 FEW015 BKN030"
    },
    {
      "icao": "ENBR",
      "alert": "OK",
      "vis_m": 9999,
      "fzfg": false,
      "metar_trigger": false,
      "taf_trigger": false,
      "metar": "METAR ENBR 302220Z VRB02KT 9999 -RADZ FEW005 BKN016 01/01 Q1020 RMK WIND 1200FT 32024KT",
      "taf": "TAF ENBR 301700Z 3018/3118 14008KT 9999 -SHSN SCT010 BKN020"
    },
    {
      "icao": "ENGM",
      "alert": "OK",
      "vis_m": 9999,
      "fzfg": false,
      "metar_trigger": false,
      "taf_trigger": false,
      "metar": "METAR ENGM 302220Z 30003KT 250V350 CAVOK M03/M08 Q1014",
      "taf": "TAF ENGM 301700Z 3018/3118 VRB03KT CAVOK"
    },
    {
      "icao": "ENHD",
      "alert": "OK",
      "vis_m": 9999,
      "fzfg": false,
      "metar_trigger": false,
      "taf_trigger": false,
      "metar": "METAR ENHD 302220Z AUTO 33016KT 9999 -RA SCT019/// SCT023/// 06/03 Q1020 REDZ",
      "taf": "TAF ENHD 301400Z 3015/3023 VRB05KT 9999 FEW015 BKN030"
    },
    {
      "icao": "ENTC",
      "alert": "OK",
      "vis_m": 6000,
      "fzfg": false,
      "metar_trigger": false,
      "taf_trigger": false,
      "metar": "METAR ENTC 302220Z VRB02KT 6000 -SN VV015 M06/M07 Q1011 RMK WIND 2600FT 01019KT",
      "taf": "TAF ENTC 301700Z 3018/3118 01008KT 9999 -SHSN FEW008 SCT030 BKN035"
    },
    {
      "icao": "ENTO",
      "alert": "OK",
      "vis_m": 9999,
      "fzfg": false,
      "metar_trigger": false,
      "taf_trigger": false,
      "metar": "METAR ENTO 302220Z 24006KT 9999 FEW038 M00/M08 Q1015",
      "taf": "TAF ENTO 301700Z 3018/3118 28005KT CAVOK"
    },
    {
      "icao": "ENVA",
      "alert": "OK",
      "vis_m": 9999,
      "fzfg": false,
      "metar_trigger": false,
      "taf_trigger": false,
      "metar": "METAR ENVA 302220Z 29008KT 250V340 9999 -RASN FEW005 BKN009 01/01 Q1010 RMK WIND 670FT 28017G27KT",
      "taf": ""
    },
    {
      "icao": "ENZV",
      "alert": "OK",
      "vis_m": 9999,
      "fzfg": false,
      "metar_trigger": false,
      "taf_trigger": false,
      "metar": "METAR ENZV 302220Z 08003KT 030V150 9999 VCSH FEW018 SCT029 02/01 Q1021",
      "taf": "TAF ENZV 301700Z 3018/3118 35005KT 9999 FEW015 BKN030"
    },
    {
      "icao": "EPGD",
      "alert": "OK",
      "vis_m": 6000,
      "fzfg": false,
      "metar_trigger": false,
      "taf_trigger": false,
      "metar": "METAR EPGD 302200Z 34015KT 6000 -SHSN SCT002 FEW010CB BKN015 M02/M04 Q1011 RESHSN",
      "taf": "TAF EPGD 301730Z 3018/3118 33018KT 8000 -SHSN SCT020CB BKN025"
    },
    {
      "icao": "EPKK",
      "alert": "OK",
      "vis_m": 9999,
      "fzfg": false,
      "metar_trigger": false,
      "taf_trigger": false,
      "metar": "METAR EPKK 302200Z 28016G26KT 9999 BKN020 M03/M07 Q1013",
      "taf": "TAF EPKK 302030Z 3021/3121 27012KT 9999 BKN020"
    },
    {
      "icao": "EPKT",
      "alert": "OK",
      "vis_m": 9999,
      "fzfg": false,
      "metar_trigger": false,
      "taf_trigger": false,
      "metar": "METAR EPKT 302200Z 29011KT CAVOK M05/M08 Q1014",
      "taf": "TAF EPKT 301730Z 3018/3118 28013KT 9999 FEW005 SCT020"
    },
    {
      "icao": "EPLB",
      "alert": "OK",
      "vis_m": 9999,
      "fzfg": false,
      "metar_trigger": false,
      "taf_trigger": false,
      "metar": "METAR EPLB 302200Z 29014KT 9999 DRSN SCT013 BKN018 M03/M04 Q1005",
      "taf": "TAF EPLB 301730Z 3018/3118 29018KT 8000 BKN020"
    },
    {
      "icao": "EPMO",
      "alert": "OK",
      "vis_m": 1000,
      "fzfg": false,
      "metar_trigger": false,
      "taf_trigger": false,
      "metar": "METAR EPMO 302200Z 30012KT 270V330 1000 R08/1300U SHSN DRSN BKN009 BKN018CB M03/M03 Q1008 RESHSN",
      "taf": ""
    },
    {
      "icao": "EPPO",
      "alert": "OK",
      "vis_m": 9999,
      "fzfg": false,
      "metar_trigger": false,
      "taf_trigger": false,
      "metar": "METAR EPPO 302200Z 30012KT CAVOK M03/M07 Q1016",
      "taf": "TAF EPPO 301730Z 3018/3118 30012KT 9999 FEW040"
    },
    {
      "icao": "EPRA",
      "alert": "OK",
      "vis_m": 3000,
      "fzfg": false,
      "metar_trigger": false,
      "taf_trigger": false,
      "metar": "METAR EPRA 302200Z 31016KT 3000 -SN BLSN OVC012 M04/M05 Q1008",
      "taf": "TAF EPRA 302030Z 3021/3106 30014KT 8000 -SN BKN025"
    },
    {
      "icao": "EPRZ",
      "alert": "OK",
      "vis_m": 9999,
      "fzfg": false,
      "metar_trigger": false,
      "taf_trigger": false,
      "metar": "METAR EPRZ 302200Z 28018KT 9999 BKN022 M03/M07 Q1008",
      "taf": "TAF EPRZ 301730Z 3018/3118 27013KT 9999 BKN030"
    },
    {
      "icao": "EPSC",
      "alert": "OK",
      "vis_m": 9999,
      "fzfg": false,
      "metar_trigger": false,
      "taf_trigger": false,
      "metar": "METAR EPSC 302200Z 29007KT CAVOK M05/M08 Q1018",
      "taf": "TAF EPSC 301730Z 3018/3118 30010KT 9999 SCT040"
    },
    {
      "icao": "EPSY",
      "alert": "OK",
      "vis_m": 9999,
      "fzfg": false,
      "metar_trigger": false,
      "taf_trigger": false,
      "metar": "METAR EPSY 302200Z 31008KT 280V350 9999 SCT046 M03/M03 Q1007",
      "taf": "TAF EPSY 302030Z 3021/3106 31010KT 9999 BKN040"
    },
    {
      "icao": "EPWA",
      "alert": "OK",
      "vis_m": 3900,
      "fzfg": false,
      "metar_trigger": false,
      "taf_trigger": false,
      "metar": "METAR EPWA 302200Z 30014KT 3900 1800SE SHSN BLSN BKN003 BKN010CB M02/M03 Q1008 RESHSN TEMPO 0500 +SHSN",
      "taf": "TAF EPWA 302030Z 3021/3121 29015KT 4500 -SHSN BKN012 BKN015CB"
    },
    {
      "icao": "EPWR",
      "alert": "OK",
      "vis_m": 9999,
      "fzfg": false,
      "metar_trigger": false,
      "taf_trigger": false,
      "metar": "METAR EPWR 302200Z 29014KT CAVOK M03/M06 Q1018",
      "taf": "TAF EPWR 302030Z 3021/3121 30014KT CAVOK"
    },
    {
      "icao": "ESGG",
      "alert": "OK",
      "vis_m": 9999,
      "fzfg": false,
      "metar_trigger": false,
      "taf_trigger": false,
      "metar": "METAR ESGG 302220Z 26006KT CAVOK M01/M06 Q1016",
      "taf": "TAF ESGG 302030Z 3021/3121 VRB03KT CAVOK"
    },
    {
      "icao": "ESKN",
      "alert": "OK",
      "vis_m": 9999,
      "fzfg": false,
      "metar_trigger": false,
      "taf_trigger": false,
      "metar": "METAR ESKN 302220Z 29007KT CAVOK M06/M08 Q1013",
      "taf": "TAF ESKN 302030Z 3021/3121 30006KT CAVOK"
    },
    {
      "icao": "ESMS",
      "alert": "OK",
      "vis_m": 9999,
      "fzfg": false,
      "metar_trigger": false,
      "taf_trigger": false,
      "metar": "METAR ESMS 302220Z 30007KT CAVOK M04/M09 Q1018",
      "taf": "TAF ESMS 302027Z 3021/3121 30006KT CAVOK"
    },
    {
      "icao": "ESSA",
      "alert": "OK",
      "vis_m": 9999,
      "fzfg": false,
      "metar_trigger": false,
      "taf_trigger": false,
      "metar": "METAR ESSA 302220Z 30002KT CAVOK M09/M12 Q1012 NOSIG",
      "taf": "TAF ESSA 302030Z 3021/3121 29008KT CAVOK"
    },
    {
      "icao": "EYKA",
      "alert": "OK",
      "vis_m": 9999,
      "fzfg": false,
      "metar_trigger": false,
      "taf_trigger": false,
      "metar": "METAR EYKA 302220Z VRB06KT 9999 BKN020 M03/M06 Q1001",
      "taf": "TAF EYKA 301707Z 3018/3118 33010KT 9000 BKN020"
    },
    {
      "icao": "EYPA",
      "alert": "OK",
      "vis_m": 9999,
      "fzfg": false,
      "metar_trigger": false,
      "taf_trigger": false,
      "metar": "METAR EYPA 302220Z AUTO 02015KT 9999 -SHSN FEW014/// SCT036/// BKN056/// M02/M06 Q1007",
      "taf": ""
    },
    {
      "icao": "EYVI",
      "alert": "OK",
      "vis_m": 3900,
      "fzfg": false,
      "metar_trigger": false,
      "taf_trigger": false,
      "metar": "METAR EYVI 302220Z 32011KT 3900 SN BKN010 BKN042 M05/M06 Q0998 NOSIG",
      "taf": ""
    },
    {
      "icao": "GCFV",
      "alert": "OK",
      "vis_m": 9999,
      "fzfg": false,
      "metar_trigger": false,
      "taf_trigger": false,
      "metar": "METAR GCFV 302200Z 28004KT 9999 FEW025 16/13 Q1022",
      "taf": "TAF GCFV 302000Z 3021/3121 30005KT 9999 FEW025 TX21/3114Z TN14/3106Z"
    },
    {
      "icao": "GCLP",
      "alert": "OK",
      "vis_m": 9999,
      "fzfg": false,
      "metar_trigger": false,
      "taf_trigger": false,
      "metar": "METAR GCLP 302200Z 31003KT 280V340 9999 FEW027 17/14 Q1022 NOSIG",
      "taf": "TAF GCLP 302000Z 3021/3121 29003KT 9999 SCT030 TX22/3114Z TN15/3106Z"
    },
    {
      "icao": "GCTS",
      "alert": "OK",
      "vis_m": 9999,
      "fzfg": false,
      "metar_trigger": false,
      "taf_trigger": false,
      "metar": "METAR GCTS 302200Z 34006KT 310V010 9999 FEW025 17/12 Q1022 NOSIG",
      "taf": "TAF GCTS 302000Z 3021/3121 30005KT 9999 FEW025 TX24/3114Z TN16/3106Z"
    },
    {
      "icao": "GMAD",
      "alert": "OK",
      "vis_m": 9999,
      "fzfg": false,
      "metar_trigger": false,
      "taf_trigger": false,
      "metar": "METAR GMAD 302200Z 13005KT CAVOK 12/12 Q1022 NOSIG",
      "taf": "TAF GMAD 301700Z 3018/3124 20008KT 8000 FEW020"
    },
    {
      "icao": "GMMN",
      "alert": "OK",
      "vis_m": 9999,
      "fzfg": false,
      "metar_trigger": false,
      "taf_trigger": false,
      "metar": "METAR GMMN 302200Z 18006KT 9999 BKN030 11/09 Q1021 NOSIG",
      "taf": "TAF GMMN 301700Z 3018/3124 22006KT 9999 BKN030"
    },
    {
      "icao": "GMMX",
      "alert": "OK",
      "vis_m": 9999,
      "fzfg": false,
      "metar_trigger": false,
      "taf_trigger": false,
      "metar": "METAR GMMX 302200Z 18003KT 150V210 9999 BKN080 13/10 Q1021 NOSIG",
      "taf": "TAF GMMX 301700Z 3018/3124 20005KT 8000 BKN090"
    },
    {
      "icao": "HEGN",
      "alert": "OK",
      "vis_m": 9999,
      "fzfg": false,
      "metar_trigger": false,
      "taf_trigger": false,
      "metar": "METAR HEGN 302200Z 00000KT CAVOK 14/09 Q1019 NOSIG",
      "taf": "TAF HEGN 301700Z 3018/3124 05010KT CAVOK"
    },
    {
      "icao": "HEMA",
      "alert": "OK",
      "vis_m": 9999,
      "fzfg": false,
      "metar_trigger": false,
      "taf_trigger": false,
      "metar": "METAR HEMA 302200Z 26005KT CAVOK 15/09 Q1018 NOSIG",
      "taf": "TAF HEMA 301700Z 3018/3124 09010KT CAVOK"
    },
    {
      "icao": "HESH",
      "alert": "OK",
      "vis_m": 9999,
      "fzfg": false,
      "metar_trigger": false,
      "taf_trigger": false,
      "metar": "METAR HESH 302200Z 24004KT CAVOK 16/09 Q1019 NOSIG",
      "taf": "TAF HESH 301700Z 3018/3124 05010KT CAVOK"
    },
    {
      "icao": "HESX",
      "alert": "OK",
      "vis_m": 9999,
      "fzfg": false,
      "metar_trigger": false,
      "taf_trigger": false,
      "metar": "METAR HESX 302200Z 19007KT CAVOK 14/07 Q1017 NOSIG",
      "taf": ""
    },
    {
      "icao": "LATI",
      "alert": "OK",
      "vis_m": 9999,
      "fzfg": false,
      "metar_trigger": false,
      "taf_trigger": false,
      "metar": "METAR LATI 302220Z 30006KT 9999 FEW059 OVC086 07/M04 Q1010 NOSIG",
      "taf": ""
    },
    {
      "icao": "LBPD",
      "alert": "OK",
      "vis_m": 9999,
      "fzfg": false,
      "metar_trigger": false,
      "taf_trigger": false,
      "metar": "METAR LBPD 302200Z AUTO 28018KT 9999 OVC070/// 03/M06 Q1012",
      "taf": "TAF LBPD 301700Z 3018/3118 28016KT 9999 SCT050"
    },
    {
      "icao": "LBSF",
      "alert": "OK",
      "vis_m": 9999,
      "fzfg": false,
      "metar_trigger": false,
      "taf_trigger": false,
      "metar": "METAR LBSF 302200Z AUTO 30010KT 9999 FEW045/// M02/M08 Q1014 NOSIG",
      "taf": "TAF LBSF 301700Z 3018/3118 28012KT 9999 SCT050"
    },
    {
      "icao": "LBWN",
      "alert": "OK",
      "vis_m": 9999,
      "fzfg": false,
      "metar_trigger": false,
      "taf_trigger": false,
      "metar": "METAR LBWN 302200Z AUTO 31011KT 9999 OVC023/// 02/M03 Q1010 TEMPO 5000 -SN OVC018",
      "taf": "TAF LBWN 301700Z 3018/3118 29012KT 9999 SCT020 BKN045"
    },
    {
      "icao": "LCLK",
      "alert": "OK",
      "vis_m": 9999,
      "fzfg": false,
      "metar_trigger": false,
      "taf_trigger": false,
      "metar": "METAR LCLK 302200Z 20011KT 9999 -SHRA FEW025 SCT040 16/13 Q1013 NOSIG",
      "taf": "TAF LCLK 301730Z 3018/3118 28006KT 9999 FEW025 SCT045"
    },
    {
      "icao": "LCPH",
      "alert": "OK",
      "vis_m": 9999,
      "fzfg": false,
      "metar_trigger": false,
      "taf_trigger": false,
      "metar": "METAR LCPH 302200Z 16009KT 9999 FEW013 SCT025 BKN060 16/13 Q1012 NOSIG",
      "taf": "TAF LCPH 301730Z 3018/3118 21009KT 9999 FEW025 SCT040"
    },
    {
      "icao": "LEAL",
      "alert": "OK",
      "vis_m": 9999,
      "fzfg": false,
      "metar_trigger": false,
      "taf_trigger": false,
      "metar": "METAR LEAL 302200Z 25008KT 220V290 CAVOK 12/05 Q1018 NOSIG",
      "taf": "TAF LEAL 301700Z 3018/3118 29008KT CAVOK TX16/3114Z TN07/3106Z"
    },
    {
      "icao": "LEBB",
      "alert": "OK",
      "vis_m": 9999,
      "fzfg": false,
      "metar_trigger": false,
      "taf_trigger": false,
      "metar": "METAR LEBB 302200Z 03005KT 350V080 9999 BKN018 OVC024 09/07 Q1023 NOSIG",
      "taf": "TAF LEBB 301700Z 3018/3118 VRB03KT 9999 SCT010 BKN020 TX10/3114Z TN07/3108Z"
    },
    {
      "icao": "LEBL",
      "alert": "OK",
      "vis_m": 9999,
      "fzfg": false,
      "metar_trigger": false,
      "taf_trigger": false,
      "metar": "METAR LEBL 302200Z 29006KT CAVOK 09/05 Q1017 NOSIG",
      "taf": ""
    },
    {
      "icao": "LECH",
      "alert": "OK",
      "vis_m": 9000,
      "fzfg": false,
      "metar_trigger": false,
      "taf_trigger": false,
      "metar": "METAR LECH 302200Z AUTO 32006KT 260V360 9000 NCD 08/02 Q1018",
      "taf": ""
    },
    {
      "icao": "LEMD",
      "alert": "OK",
      "vis_m": 9999,
      "fzfg": false,
      "metar_trigger": false,
      "taf_trigger": false,
      "metar": "METAR LEMD 302200Z VRB02KT CAVOK 04/00 Q1020 NOSIG",
      "taf": "TAF LEMD 301700Z 3018/3124 VRB03KT CAVOK TX08/3114Z TNM02/3106Z"
    },
    {
      "icao": "LEMG",
      "alert": "OK",
      "vis_m": 9999,
      "fzfg": false,
      "metar_trigger": false,
      "taf_trigger": false,
      "metar": "METAR LEMG 302200Z 28009KT CAVOK 12/07 Q1021 NOSIG",
      "taf": "TAF LEMG 301700Z 3018/3118 29007KT CAVOK TX18/3114Z TN08/3106Z"
    },
    {
      "icao": "LEVC",
      "alert": "OK",
      "vis_m": 9999,
      "fzfg": false,
      "metar_trigger": false,
      "taf_trigger": false,
      "metar": "METAR LEVC 302200Z 32004KT CAVOK 07/06 Q1018 NOSIG",
      "taf": "TAF LEVC 301700Z 3018/3118 29006KT CAVOK TX15/3114Z TN05/3106Z"
    },
    {
      "icao": "LEXJ",
      "alert": "OK",
      "vis_m": 7000,
      "fzfg": false,
      "metar_trigger": false,
      "taf_trigger": false,
      "metar": "METAR LEXJ 302200Z 07004KT 020V120 7000 OVC015 10/06 Q1023",
      "taf": "TAF LEXJ 302000Z 3021/3121 VRB03KT 9999 SCT015 BKN035 TX10/3115Z TN07/3108Z"
    },
    {
      "icao": "LEZG",
      "alert": "OK",
      "vis_m": 9999,
      "fzfg": false,
      "metar_trigger": false,
      "taf_trigger": false,
      "metar": "METAR LEZG 302200Z 28014KT CAVOK 08/05 Q1019 NOSIG",
      "taf": "TAF LEZG 301700Z 3018/3118 29013KT 9999 FEW020 TX11/3114Z TN05/3106Z"
    },
    {
      "icao": "LEZL",
      "alert": "OK",
      "vis_m": 2500,
      "fzfg": false,
      "metar_trigger": false,
      "taf_trigger": false,
      "metar": "METAR LEZL 302200Z 02003KT 2500 R27/1900N R09/0350D BCFG FEW003 07/07 Q1021 NOSIG",
      "taf": "TAF LEZL 302000Z 3021/3121 05005KT CAVOK TX15/3115Z TN04/3106Z"
    },
    {
      "icao": "LFBD",
      "alert": "OK",
      "vis_m": 9999,
      "fzfg": false,
      "metar_trigger": false,
      "taf_trigger": false,
      "metar": "METAR LFBD 302200Z AUTO 05006KT CAVOK M00/M02 Q1024 TEMPO 3000 BR",
      "taf": "TAF LFBD 301700Z 3018/3124 VRB03KT CAVOK TX05/3114Z TNM03/3106Z"
    },
    {
      "icao": "LFLL",
      "alert": "OK",
      "vis_m": 9999,
      "fzfg": false,
      "metar_trigger": false,
      "taf_trigger": false,
      "metar": "METAR LFLL 302200Z 33005KT CAVOK M02/M04 Q1023 NOSIG",
      "taf": "TAF LFLL 301700Z 3018/3124 36005KT 9999 BKN030"
    },
    {
      "icao": "LFLS",
      "alert": "OK",
      "vis_m": 9999,
      "fzfg": false,
      "metar_trigger": false,
      "taf_trigger": false,
      "metar": "METAR LFLS 302200Z AUTO 34008KT CAVOK M02/M04 Q1022",
      "taf": ""
    },
    {
      "icao": "LFMN",
      "alert": "OK",
      "vis_m": 9999,
      "fzfg": false,
      "metar_trigger": false,
      "taf_trigger": false,
      "metar": "METAR LFMN 302200Z 32011KT 9999 BKN038 08/02 Q1014 NOSIG",
      "taf": "TAF LFMN 302000Z 3021/0103 33010KT CAVOK"
    },
    {
      "icao": "LFOB",
      "alert": "OK",
      "vis_m": 9999,
      "fzfg": false,
      "metar_trigger": false,
      "taf_trigger": false,
      "metar": "METAR LFOB 302200Z AUTO 35008KT CAVOK M01/M02 Q1031",
      "taf": "TAF LFOB 301100Z 3012/3112 02008KT CAVOK"
    },
    {
      "icao": "LFPO",
      "alert": "OK",
      "vis_m": 9999,
      "fzfg": false,
      "metar_trigger": false,
      "taf_trigger": false,
      "metar": "METAR LFPO 302200Z AUTO 04008KT CAVOK 01/M02 Q1030",
      "taf": "TAF LFPO 301700Z 3018/3124 01005KT CAVOK"
    },
    {
      "icao": "LFSB",
      "alert": "OK",
      "vis_m": 5000,
      "fzfg": true,
      "metar_trigger": false,
      "taf_trigger": false,
      "metar": "METAR LFSB 302200Z AUTO VRB03KT 5000 BR NSC M05/M05 Q1027 TEMPO 0500 FZFG VV///",
      "taf": "TAF LFSB 301700Z 3018/3118 33005KT 8000 BKN040"
    },
    {
      "icao": "LGAV",
      "alert": "OK",
      "vis_m": 9999,
      "fzfg": false,
      "metar_trigger": false,
      "taf_trigger": false,
      "metar": "METAR LGAV 302220Z 03004KT 9999 FEW025 BKN065 11/08 Q1007 NOSIG",
      "taf": "TAF LGAV 301700Z 3018/3118 VRB05KT 9999 SCT025 BKN070"
    },
    {
      "icao": "LGTS",
      "alert": "OK",
      "vis_m": 9999,
      "fzfg": false,
      "metar_trigger": false,
      "taf_trigger": false,
      "metar": "METAR LGTS 302220Z 35016KT 9999 FEW025 06/M03 Q1011 NOSIG",
      "taf": "TAF LGTS 301700Z 3018/3118 34015G25KT CAVOK"
    },
    {
      "icao": "LHBP",
      "alert": "OK",
      "vis_m": 9999,
      "fzfg": false,
      "metar_trigger": false,
      "taf_trigger": false,
      "metar": "METAR LHBP 302200Z 30014KT 9999 FEW035 M02/M05 Q1017 NOSIG",
      "taf": ""
    },
    {
      "icao": "LHDC",
      "alert": "OK",
      "vis_m": 9999,
      "fzfg": false,
      "metar_trigger": false,
      "taf_trigger": false,
      "metar": "METAR LHDC 302145Z AUTO 28006KT CAVOK M05/M09 Q1014",
      "taf": "TAF LHDC 301415Z 3015/3024 36010KT CAVOK"
    },
    {
      "icao": "LIBD",
      "alert": "OK",
      "vis_m": 9999,
      "fzfg": false,
      "metar_trigger": false,
      "taf_trigger": false,
      "metar": "METAR LIBD 302220Z 01010KT 340V040 CAVOK 10/M01 Q1013",
      "taf": "TAF LIBD 301700Z 3018/3118 30007KT 9999 FEW050"
    },
    {
      "icao": "LIBG",
      "alert": "OK",
      "vis_m": null,
      "fzfg": false,
      "metar_trigger": false,
      "taf_trigger": false,
      "metar": "",
      "taf": "TAF LIBG 301700Z 3018/3103 33007KT CAVOK"
    },
    {
      "icao": "LIBP",
      "alert": "OK",
      "vis_m": 9999,
      "fzfg": false,
      "metar_trigger": false,
      "taf_trigger": false,
      "metar": "METAR LIBP 302220Z AUTO 04010KT 9999 OVC056/// 09/M01 Q1018",
      "taf": "TAF LIBP 301700Z 3018/3118 VRB05KT 9999 SCT045"
    },
    {
      "icao": "LIBR",
      "alert": "OK",
      "vis_m": 9999,
      "fzfg": false,
      "metar_trigger": false,
      "taf_trigger": false,
      "metar": "METAR LIBR 302220Z 02014KT 9999 BKN030 10/06 Q1011 RERA",
      "taf": ""
    },
    {
      "icao": "LICA",
      "alert": "OK",
      "vis_m": 9999,
      "fzfg": false,
      "metar_trigger": false,
      "taf_trigger": false,
      "metar": "METAR LICA 302220Z AUTO 07004KT 9999 -RA OVC055/// 08/07 Q1011",
      "taf": "TAF LICA 301700Z 3018/3118 VRB05KT 9999 SCT040"
    },
    {
      "icao": "LICC",
      "alert": "OK",
      "vis_m": 9999,
      "fzfg": false,
      "metar_trigger": false,
      "taf_trigger": false,
      "metar": "METAR LICC 302220Z 25010KT CAVOK 10/07 Q1012",
      "taf": "TAF LICC 301700Z 3018/3118 26010KT 9999 FEW050"
    },
    {
      "icao": "LICJ",
      "alert": "OK",
      "vis_m": 9999,
      "fzfg": false,
      "metar_trigger": false,
      "taf_trigger": false,
      "metar": "METAR LICJ 302220Z 29008KT 9999 -RA SCT025 SCT050 14/10 Q1013",
      "taf": "TAF LICJ 301700Z 3018/3118 VRB06KT 9999 SCT020"
    },
    {
      "icao": "LIMC",
      "alert": "OK",
      "vis_m": 9999,
      "fzfg": false,
      "metar_trigger": false,
      "taf_trigger": false,
      "metar": "METAR LIMC 302220Z 02005KT 9999 SCT030 04/02 Q1019 NOSIG",
      "taf": "TAF LIMC 301700Z 3018/3124 02010KT 9999 SCT040"
    },
    {
      "icao": "LIME",
      "alert": "OK",
      "vis_m": 9999,
      "fzfg": false,
      "metar_trigger": false,
      "taf_trigger": false,
      "metar": "METAR LIME 302220Z VRB02KT 9999 BKN040 03/01 Q1018 NOSIG",
      "taf": "TAF LIME 301700Z 3018/3118 VRB05KT 9999 SCT040"
    },
    {
      "icao": "LIMF",
      "alert": "OK",
      "vis_m": 3000,
      "fzfg": false,
      "metar_trigger": false,
      "taf_trigger": false,
      "metar": "METAR LIMF 302220Z 06003KT 360V130 3000 BR SCT010 BKN030 04/01 Q1019",
      "taf": "TAF LIMF 301700Z 3018/3118 VRB05KT 1500 BR BKN003"
    },
    {
      "icao": "LIMJ",
      "alert": "OK",
      "vis_m": 9000,
      "fzfg": false,
      "metar_trigger": false,
      "taf_trigger": false,
      "metar": "METAR LIMJ 302220Z 03021KT 9000 NSC 06/02 Q1016",
      "taf": "TAF LIMJ 301700Z 3018/3118 02014KT 9999 FEW020"
    },
    {
      "icao": "LIPE",
      "alert": "OK",
      "vis_m": 3500,
      "fzfg": false,
      "metar_trigger": false,
      "taf_trigger": false,
      "metar": "METAR LIPE 302220Z 01003KT 3500 BR OVC040 04/03 Q1019",
      "taf": "TAF LIPE 301700Z 3018/3118 VRB04KT 3000 BR BKN010"
    },
    {
      "icao": "LIPH",
      "alert": "OK",
      "vis_m": 9999,
      "fzfg": false,
      "metar_trigger": false,
      "taf_trigger": false,
      "metar": "METAR LIPH 302220Z AUTO 01005KT 9999 BKN067/// 02/M04 Q1020",
      "taf": "TAF LIPH 301700Z 3018/3118 VRB04KT 9999 SCT045"
    },
    {
      "icao": "LIPQ",
      "alert": "OK",
      "vis_m": 9999,
      "fzfg": false,
      "metar_trigger": false,
      "taf_trigger": false,
      "metar": "METAR LIPQ 302220Z AUTO 03003KT 350V100 9999 FEW082/// M03/M06 Q1020",
      "taf": "TAF LIPQ 301700Z 3018/3118 09010KT 9999 SCT050"
    },
    {
      "icao": "LIPR",
      "alert": "OK",
      "vis_m": 4200,
      "fzfg": false,
      "metar_trigger": false,
      "taf_trigger": false,
      "metar": "METAR LIPR 302220Z AUTO 25002KT 4200 BR OVC047/// 04/03 Q1018",
      "taf": "TAF LIPR 301700Z 3018/3118 29005KT 3000 BR BKN010"
    },
    {
      "icao": "LIPX",
      "alert": "OK",
      "vis_m": 9999,
      "fzfg": false,
      "metar_trigger": false,
      "taf_trigger": false,
      "metar": "METAR LIPX 302220Z 07007KT 9999 BKN040 05/M03 Q1019",
      "taf": "TAF LIPX 301700Z 3018/3118 07006KT 9999 SCT050"
    },
    {
      "icao": "LIPY",
      "alert": "OK",
      "vis_m": 3100,
      "fzfg": false,
      "metar_trigger": false,
      "taf_trigger": false,
      "metar": "METAR LIPY 302220Z AUTO VRB01KT 3100 BR OVC052/// 06/05 Q1018",
      "taf": "TAF LIPY 301700Z 3018/3118 09010KT 9999 SCT045"
    },
    {
      "icao": "LIPZ",
      "alert": "OK",
      "vis_m": 9999,
      "fzfg": false,
      "metar_trigger": false,
      "taf_trigger": false,
      "metar": "METAR LIPZ 302220Z 01008KT CAVOK 02/M03 Q1020 NOSIG",
      "taf": "TAF LIPZ 301700Z 3018/3124 08010KT 9999 SCT040"
    },
    {
      "icao": "LIRF",
      "alert": "OK",
      "vis_m": 9999,
      "fzfg": false,
      "metar_trigger": false,
      "taf_trigger": false,
      "metar": "METAR LIRF 302220Z 03003KT CAVOK 05/03 Q1013 NOSIG",
      "taf": "TAF LIRF 301700Z 3018/3124 34007KT CAVOK"
    },
    {
      "icao": "LIRN",
      "alert": "OK",
      "vis_m": 9999,
      "fzfg": false,
      "metar_trigger": false,
      "taf_trigger": false,
      "metar": "METAR LIRN 302220Z 06011KT CAVOK 10/03 Q1013 NOSIG",
      "taf": "TAF LIRN 301700Z 3018/3118 02005KT CAVOK"
    },
    {
      "icao": "LIRP",
      "alert": "OK",
      "vis_m": 9999,
      "fzfg": false,
      "metar_trigger": false,
      "taf_trigger": false,
      "metar": "METAR LIRP 302215Z 12009KT CAVOK 06/03 Q1014 NOSIG",
      "taf": "TAF LIRP 301700Z 3018/3118 12005KT 9999 FEW050"
    },
    {
      "icao": "LIRZ",
      "alert": "OK",
      "vis_m": 9999,
      "fzfg": false,
      "metar_trigger": false,
      "taf_trigger": false,
      "metar": "METAR LIRZ 302220Z AUTO 06011KT 030V090 9999 NCD 07/01 Q1015",
      "taf": "TAF LIRZ 301700Z 3018/3118 03010KT 9999 SCT050"
    },
    {
      "icao": "LJLJ",
      "alert": "OK",
      "vis_m": 9999,
      "fzfg": false,
      "metar_trigger": false,
      "taf_trigger": false,
      "metar": "METAR LJLJ 302200Z VRB01KT 9999 MIFG BKN050 BKN070 M03/M04 Q1020 NOSIG",
      "taf": "TAF LJLJ 301700Z 3018/3118 30002KT 9999 BKN033"
    },
    {
      "icao": "LKMT",
      "alert": "OK",
      "vis_m": 9999,
      "fzfg": false,
      "metar_trigger": false,
      "taf_trigger": false,
      "metar": "METAR LKMT 302200Z 30007KT 9999 FEW034 M03/M08 Q1017 NOSIG",
      "taf": "TAF LKMT 301700Z 3018/3118 31010KT 9999 SCT020"
    },
    {
      "icao": "LKPR",
      "alert": "OK",
      "vis_m": 9999,
      "fzfg": false,
      "metar_trigger": false,
      "taf_trigger": false,
      "metar": "METAR LKPR 302200Z 25010KT 9999 SCT030 BKN042 M03/M06 Q1021 NOSIG",
      "taf": "TAF LKPR 302000Z 3021/0103 29013KT 9999 SCT025"
    },
    {
      "icao": "LLBG",
      "alert": "OK",
      "vis_m": 9999,
      "fzfg": false,
      "metar_trigger": false,
      "taf_trigger": false,
      "metar": "METAR LLBG 302220Z 15009KT CAVOK 14/07 Q1017 NOSIG",
      "taf": "TAF LLBG 301706Z 3018/3118 15007KT CAVOK"
    },
    {
      "icao": "LMML",
      "alert": "OK",
      "vis_m": 9999,
      "fzfg": false,
      "metar_trigger": false,
      "taf_trigger": false,
      "metar": "METAR LMML 302215Z 29008KT 9999 FEW020TCU 13/10 Q1013 NOSIG",
      "taf": "TAF LMML 301700Z 3018/3118 30015KT 9999 FEW020"
    },
    {
      "icao": "LOWW",
      "alert": "OK",
      "vis_m": 9999,
      "fzfg": false,
      "metar_trigger": false,
      "taf_trigger": false,
      "metar": "METAR LOWW 302220Z 31016KT CAVOK M01/M08 Q1020 NOSIG",
      "taf": "TAF LOWW 302015Z 3021/0103 31015KT CAVOK TX02/0103Z TNM03/3106Z"
    },
    {
      "icao": "LPFR",
      "alert": "OK",
      "vis_m": 9999,
      "fzfg": false,
      "metar_trigger": false,
      "taf_trigger": false,
      "metar": "METAR LPFR 302200Z 03007KT CAVOK 11/10 Q1020",
      "taf": "TAF LPFR 301700Z 3018/3118 06007KT CAVOK"
    },
    {
      "icao": "LPMA",
      "alert": "OK",
      "vis_m": 9999,
      "fzfg": false,
      "metar_trigger": false,
      "taf_trigger": false,
      "metar": "METAR LPMA 302200Z 32003KT 9999 SCT013 18/15 Q1020",
      "taf": "TAF LPMA 301700Z 3018/3118 VRB05KT 9999 SCT015"
    },
    {
      "icao": "LPPR",
      "alert": "OK",
      "vis_m": 7000,
      "fzfg": false,
      "metar_trigger": false,
      "taf_trigger": false,
      "metar": "METAR LPPR 302200Z VRB02KT 7000 NSC 07/06 Q1021",
      "taf": "TAF LPPR 301700Z 3018/3118 VRB02KT CAVOK"
    },
    {
      "icao": "LPPS",
      "alert": "OK",
      "vis_m": 9999,
      "fzfg": false,
      "metar_trigger": false,
      "taf_trigger": false,
      "metar": "METAR LPPS 302200Z 28006KT 9999 FEW010 18/16 Q1020",
      "taf": "TAF LPPS 301700Z 3018/3124 27007KT 9999 SCT012"
    },
    {
      "icao": "LPPT",
      "alert": "OK",
      "vis_m": 9999,
      "fzfg": false,
      "metar_trigger": false,
      "taf_trigger": false,
      "metar": "METAR LPPT 302200Z VRB02KT CAVOK 08/07 Q1021",
      "taf": "TAF LPPT 301700Z 3018/3124 VRB02KT 9999 FEW008"
    },
    {
      "icao": "LQBK",
      "alert": "OK",
      "vis_m": 9999,
      "fzfg": false,
      "metar_trigger": false,
      "taf_trigger": false,
      "metar": "METAR LQBK 302200Z 13003KT CAVOK M06/M07 Q1021 NOSIG",
      "taf": "TAF LQBK 301700Z 3018/3118 30007KT 9999 SCT040 TX02/3113Z TNM07/3105Z"
    },
    {
      "icao": "LQSA",
      "alert": "OK",
      "vis_m": 9999,
      "fzfg": false,
      "metar_trigger": false,
      "taf_trigger": false,
      "metar": "METAR LQSA 302200Z 32003KT 9999 FEW040 M06/M08 Q1018 NOSIG",
      "taf": "TAF LQSA 301700Z 3018/3118 29005KT 9999 SCT040 TXM00/3113Z TNM08/3106Z"
    },
    {
      "icao": "LQTZ",
      "alert": "OK",
      "vis_m": 6000,
      "fzfg": false,
      "metar_trigger": false,
      "taf_trigger": false,
      "metar": "METAR LQTZ 302200Z 34002KT 6000 NSC M07/M08 Q1020",
      "taf": "TAF LQTZ 301700Z 3018/3118 27005KT 9999 SCT040 TX02/3113Z TNM07/3105Z"
    },
    {
      "icao": "LRBC",
      "alert": "OK",
      "vis_m": 9999,
      "fzfg": false,
      "metar_trigger": false,
      "taf_trigger": false,
      "metar": "METAR LRBC 302200Z 15004KT CAVOK M05/M10 Q1008",
      "taf": "TAF LRBC 302000Z 3021/3106 VRB04KT 9999 BKN045"
    },
    {
      "icao": "LRBS",
      "alert": "OK",
      "vis_m": 9999,
      "fzfg": false,
      "metar_trigger": false,
      "taf_trigger": false,
      "metar": "METAR LRBS 302200Z 31003KT 280V350 CAVOK M03/M08 Q1012 NOSIG",
      "taf": "TAF LRBS 301700Z 3018/3118 02006KT CAVOK"
    },
    {
      "icao": "LRBV",
      "alert": "OK",
      "vis_m": 9999,
      "fzfg": false,
      "metar_trigger": false,
      "taf_trigger": false,
      "metar": "METAR LRBV 302200Z AUTO 28008KT 9999 SCT030/// BKN048/// M05/M10 Q1010",
      "taf": "TAF LRBV 302000Z 3021/3106 28008KT 9999 SCT050"
    },
    {
      "icao": "LRCL",
      "alert": "OK",
      "vis_m": 9999,
      "fzfg": false,
      "metar_trigger": false,
      "taf_trigger": false,
      "metar": "METAR LRCL 302200Z 25009KT 9999 SCT071 M06/M10 Q1012",
      "taf": "TAF LRCL 302000Z 3021/3106 27007KT 9999 SCT060"
    },
    {
      "icao": "LRCV",
      "alert": "OK",
      "vis_m": 9999,
      "fzfg": false,
      "metar_trigger": false,
      "taf_trigger": false,
      "metar": "METAR LRCV 302200Z 29007KT CAVOK M05/M08 Q1014",
      "taf": "TAF LRCV 302000Z 3021/3106 30008KT CAVOK"
    },
    {
      "icao": "LRIA",
      "alert": "OK",
      "vis_m": 9999,
      "fzfg": false,
      "metar_trigger": false,
      "taf_trigger": false,
      "metar": "METAR LRIA 302200Z 23006KT CAVOK M03/M10 Q1006",
      "taf": "TAF LRIA 302000Z 3021/3106 26008KT CAVOK"
    },
    {
      "icao": "LROP",
      "alert": "OK",
      "vis_m": 9999,
      "fzfg": false,
      "metar_trigger": false,
      "taf_trigger": false,
      "metar": "METAR LROP 302200Z 26007KT CAVOK M05/M10 Q1012 NOSIG",
      "taf": "TAF LROP 301700Z 3018/3118 02008KT CAVOK"
    },
    {
      "icao": "LRSB",
      "alert": "OK",
      "vis_m": 9999,
      "fzfg": false,
      "metar_trigger": false,
      "taf_trigger": false,
      "metar": "METAR LRSB 302200Z 28009KT CAVOK M07/M11 Q1011",
      "taf": "TAF LRSB 301700Z 3018/3118 01008KT 9999 BKN040"
    },
    {
      "icao": "LRSM",
      "alert": "OK",
      "vis_m": 9999,
      "fzfg": false,
      "metar_trigger": false,
      "taf_trigger": false,
      "metar": "METAR LRSM 302200Z AUTO 25009KT 9999 FEW055/// M06/M09 Q1012",
      "taf": "TAF LRSM 301400Z 3015/3024 29008KT 9999 BKN040"
    },
    {
      "icao": "LRSV",
      "alert": "OK",
      "vis_m": 9999,
      "fzfg": false,
      "metar_trigger": false,
      "taf_trigger": false,
      "metar": "METAR LRSV 302200Z 26012KT CAVOK M05/M12 Q1004",
      "taf": "TAF LRSV 302000Z 3021/3106 26010KT CAVOK"
    },
    {
      "icao": "LRTM",
      "alert": "OK",
      "vis_m": 9999,
      "fzfg": false,
      "metar_trigger": false,
      "taf_trigger": false,
      "metar": "METAR LRTM 302200Z AUTO 25006KT 9999 R25////// NCD M07/M11 Q1011",
      "taf": "TAF LRTM 301400Z 3015/3024 30012KT 5000 -SN SCT025 BKN040"
    },
    {
      "icao": "LRTR",
      "alert": "OK",
      "vis_m": 9999,
      "fzfg": false,
      "metar_trigger": false,
      "taf_trigger": false,
      "metar": "METAR LRTR 302200Z 25005KT CAVOK M06/M09 Q1016",
      "taf": "TAF LRTR 301700Z 3018/3118 30009KT CAVOK"
    },
    {
      "icao": "LTAC",
      "alert": "OK",
      "vis_m": 4600,
      "fzfg": false,
      "metar_trigger": false,
      "taf_trigger": false,
      "metar": "METAR LTAC 302150Z 15005KT 4600 -SN BR SCT009 BKN022 BKN070 M00/M01 Q1005 RESN NOSIG RMK RWY21C 16006KT RWY03L 14005KT RWY21R 15006KT RWY03R 12005KT RWY21L 14005KT",
      "taf": "TAF LTAC 301640Z 3018/3118 24008KT 9999 SCT040 BKN100"
    },
    {
      "icao": "LTFM",
      "alert": "OK",
      "vis_m": 9999,
      "fzfg": false,
      "metar_trigger": false,
      "taf_trigger": false,
      "metar": "METAR LTFM 302150Z COR 02014KT 9999 -SHRASN BKN025 05/M00 Q1009 NOSIG RMK RWY17L 01015KT RWY34L 01014KT RWY16R 01014KT RWY36 02016KT RWY18 02014KT",
      "taf": ""
    },
    {
      "icao": "LUKK",
      "alert": "OK",
      "vis_m": 9999,
      "fzfg": false,
      "metar_trigger": false,
      "taf_trigger": false,
      "metar": "METAR LUKK 302200Z 24009KT CAVOK M04/M10 Q1006 NOSIG",
      "taf": "TAF LUKK 301717Z 3018/3118 29012KT 9999 SCT035"
    },
    {
      "icao": "LWOH",
      "alert": "OK",
      "vis_m": null,
      "fzfg": false,
      "metar_trigger": false,
      "taf_trigger": false,
      "metar": "",
      "taf": "TAF LWOH 302020Z 3021/3121 33010KT 9999 SCT040 BKN070"
    },
    {
      "icao": "LWSK",
      "alert": "OK",
      "vis_m": 9999,
      "fzfg": false,
      "metar_trigger": false,
      "taf_trigger": false,
      "metar": "METAR LWSK 302220Z 36014KT 9999 SCT045 BKN080 01/M08 Q1016 NOSIG",
      "taf": "TAF LWSK 302020Z 3021/3121 01015KT 9999 BKN050 BKN070"
    },
    {
      "icao": "LYBE",
      "alert": "OK",
      "vis_m": 9999,
      "fzfg": false,
      "metar_trigger": false,
      "taf_trigger": false,
      "metar": "METAR LYBE 302200Z 24009KT CAVOK M03/M06 Q1019 NOSIG",
      "taf": "TAF LYBE 301700Z 3018/3118 26008KT CAVOK TX00/3112Z TNM06/3106Z"
    },
    {
      "icao": "LYNI",
      "alert": "OK",
      "vis_m": 9999,
      "fzfg": false,
      "metar_trigger": false,
      "taf_trigger": false,
      "metar": "METAR LYNI 302200Z 32008KT 9999 SCT045 M02/M07 Q1018 NOSIG",
      "taf": "TAF LYNI 301700Z 3018/3118 32005KT 9999 SCT035 TX01/3018Z TNM05/3103Z"
    },
    {
      "icao": "LYPG",
      "alert": "OK",
      "vis_m": 9999,
      "fzfg": false,
      "metar_trigger": false,
      "taf_trigger": false,
      "metar": "METAR LYPG 302200Z 36014KT 330V030 CAVOK 05/M11 Q1013 NOSIG",
      "taf": "TAF LYPG 301700Z 3018/3118 01015G25KT 9999 SCT090 TX07/3112Z TN03/3105Z"
    },
    {
      "icao": "LZIB",
      "alert": "OK",
      "vis_m": 9999,
      "fzfg": false,
      "metar_trigger": false,
      "taf_trigger": false,
      "metar": "METAR LZIB 302200Z 31013KT 9999 VCSH FEW020TCU SCT035 M01/M07 Q1019 TEMPO 32020G32KT 2000 SHSN DRSN BKN013 FEW020CB",
      "taf": ""
    },
    {
      "icao": "LZKZ",
      "alert": "OK",
      "vis_m": 9999,
      "fzfg": false,
      "metar_trigger": false,
      "taf_trigger": false,
      "metar": "METAR LZKZ 302200Z 28005KT 250V330 9999 SCT048 M02/M10 Q1012 NOSIG",
      "taf": "TAF LZKZ 301715Z 3018/3118 30008KT 9999 FEW045"
    },
    {
      "icao": "LZTT",
      "alert": "OK",
      "vis_m": 9999,
      "fzfg": false,
      "metar_trigger": false,
      "taf_trigger": false,
      "metar": "METAR LZTT 302200Z VRB04KT 9999 -SN BKN050 M05/M14 Q1009",
      "taf": "TAF LZTT 301715Z 3018/3118 28014KT 9999 -SN SCT012 BKN040"
    },
    {
      "icao": "OEJN",
      "alert": "OK",
      "vis_m": 9999,
      "fzfg": false,
      "metar_trigger": false,
      "taf_trigger": false,
      "metar": "METAR OEJN 302200Z 02004KT CAVOK 20/09 Q1016 NOSIG",
      "taf": "TAF OEJN 301700Z 3018/3124 03007KT CAVOK"
    },
    {
      "icao": "OEMA",
      "alert": "OK",
      "vis_m": 9999,
      "fzfg": false,
      "metar_trigger": false,
      "taf_trigger": false,
      "metar": "METAR OEMA 302200Z VRB02KT CAVOK 16/M03 Q1021 NOSIG",
      "taf": "TAF OEMA 301700Z 3018/3124 10010KT CAVOK"
    },
    {
      "icao": "OJAI",
      "alert": "OK",
      "vis_m": 3500,
      "fzfg": false,
      "metar_trigger": false,
      "taf_trigger": false,
      "metar": "METAR OJAI 302200Z 00000KT 3500 BR NSC 06/05 Q1020 NOSIG",
      "taf": "TAF OJAI 301700Z 3018/3124 23012KT 5000 HZ FEW030"
    },
    {
      "icao": "OMAA",
      "alert": "OK",
      "vis_m": 9999,
      "fzfg": false,
      "metar_trigger": false,
      "taf_trigger": false,
      "metar": "METAR OMAA 302200Z 30011KT 9999 FEW040 21/10 Q1016 NOSIG",
      "taf": "TAF OMAA 301700Z 3018/0100 31013KT 8000 FEW040"
    },
    {
      "icao": "OMDB",
      "alert": "OK",
      "vis_m": null,
      "fzfg": false,
      "metar_trigger": false,
      "taf_trigger": false,
      "metar": "",
      "taf": "TAF OMDB 301700Z 3018/0100 29012KT 8000 FEW040"
    },
    {
      "icao": "UAAA",
      "alert": "OK",
      "vis_m": 1500,
      "fzfg": false,
      "metar_trigger": false,
      "taf_trigger": false,
      "metar": "METAR UAAA 302200Z VRB01MPS 1500 R05R/P2000 BR SCT100 BKN200 M01/M03 Q1006 NOSIG",
      "taf": "TAF UAAA 301701Z 3018/3118 VRB01MPS 3100 BR FU SCT050 BKN100 TX07/3109Z TNM02/3101Z"
    },
    {
      "icao": "UBBB",
      "alert": "OK",
      "vis_m": 9999,
      "fzfg": false,
      "metar_trigger": false,
      "taf_trigger": false,
      "metar": "METAR UBBB 302200Z 19018G28KT CAVOK 07/01 Q1011 NOSIG",
      "taf": "TAF UBBB 301700Z 3018/3118 19006KT 9999 SCT030 TX10/3110Z TN02/3019Z"
    },
    {
      "icao": "UDSG",
      "alert": "OK",
      "vis_m": 9999,
      "fzfg": false,
      "metar_trigger": false,
      "taf_trigger": false,
      "metar": "METAR UDSG 302200Z 10003KT 9999 NSC M14/M17 Q1015 NOSIG",
      "taf": ""
    },
    {
      "icao": "UDYZ",
      "alert": "OK",
      "vis_m": 9999,
      "fzfg": false,
      "metar_trigger": false,
      "taf_trigger": false,
      "metar": "METAR UDYZ 302200Z 07003KT 9999 NSC M08/M12 Q1018 NOSIG",
      "taf": "TAF UDYZ 301700Z 3018/3118 VRB06KT 3500 BR FEW050"
    },
    {
      "icao": "UGKO",
      "alert": "OK",
      "vis_m": 9999,
      "fzfg": false,
      "metar_trigger": false,
      "taf_trigger": false,
      "metar": "METAR UGKO 302200Z COR 08014KT CAVOK 01/M03 Q1011 NOSIG",
      "taf": "TAF UGKO 301700Z 3018/3118 08010KT CAVOK TX04/3112Z TNM01/3020Z"
    }
  ]
}