{
  "ts_utc": "2026-04-26T16:09:39Z",
  "threshold_m": 150,
  "source": "stations_override.txt (ICAO list) + aviationweather.gov (METAR/TAF raw)",
  "station_count": 159,
  "stations": [
    {
      "icao": "BIKF",
      "alert": "OK",
      "vis_m": 8000,
      "fzfg": false,
      "metar_trigger": false,
      "taf_trigger": false,
      "metar": "METAR BIKF 261600Z 12020KT 8000 -DZ BKN012 09/07 Q1010",
      "taf": "TAF BIKF 261348Z 2615/2715 14022G32KT 9999 BKN020 TX08/2615Z TN07/2705Z"
    },
    {
      "icao": "BKPR",
      "alert": "OK",
      "vis_m": 9999,
      "fzfg": false,
      "metar_trigger": false,
      "taf_trigger": false,
      "metar": "METAR BKPR 261600Z 03011KT CAVOK 22/03 Q1016 NOSIG",
      "taf": "TAF BKPR 261130Z 2612/2712 03007KT CAVOK"
    },
    {
      "icao": "EBCI",
      "alert": "OK",
      "vis_m": 9999,
      "fzfg": false,
      "metar_trigger": false,
      "taf_trigger": false,
      "metar": "METAR EBCI 261550Z 05008KT CAVOK 17/04 Q1023 NOSIG",
      "taf": "TAF EBCI 261110Z 2612/2718 05007KT CAVOK"
    },
    {
      "icao": "EDDB",
      "alert": "OK",
      "vis_m": 9999,
      "fzfg": false,
      "metar_trigger": false,
      "taf_trigger": false,
      "metar": "METAR EDDB 261550Z AUTO 28007KT 220V360 CAVOK 14/M02 Q1024 NOSIG",
      "taf": "TAF EDDB 261100Z 2612/2712 33008KT CAVOK"
    },
    {
      "icao": "EDDH",
      "alert": "OK",
      "vis_m": 9999,
      "fzfg": false,
      "metar_trigger": false,
      "taf_trigger": false,
      "metar": "METAR EDDH 261550Z AUTO 31007KT 260V020 CAVOK 15/01 Q1024 NOSIG",
      "taf": "TAF EDDH 261100Z 2612/2718 VRB03KT CAVOK"
    },
    {
      "icao": "EDDK",
      "alert": "OK",
      "vis_m": 9999,
      "fzfg": false,
      "metar_trigger": false,
      "taf_trigger": false,
      "metar": "METAR EDDK 261550Z AUTO 31008KT 250V340 CAVOK 18/02 Q1023 NOSIG",
      "taf": "TAF EDDK 261100Z 2612/2718 VRB03KT CAVOK"
    },
    {
      "icao": "EDDN",
      "alert": "OK",
      "vis_m": 9999,
      "fzfg": false,
      "metar_trigger": false,
      "taf_trigger": false,
      "metar": "METAR EDDN 261550Z AUTO 03005KT 340V110 CAVOK 16/M00 Q1022 NOSIG",
      "taf": "TAF EDDN 261100Z 2612/2712 35006KT CAVOK"
    },
    {
      "icao": "EDDS",
      "alert": "OK",
      "vis_m": 9999,
      "fzfg": false,
      "metar_trigger": false,
      "taf_trigger": false,
      "metar": "METAR EDDS 261550Z AUTO 01007KT 300V060 CAVOK 19/01 Q1021 NOSIG",
      "taf": "TAF EDDS 261100Z 2612/2712 02006KT CAVOK"
    },
    {
      "icao": "EDFH",
      "alert": "OK",
      "vis_m": 9999,
      "fzfg": false,
      "metar_trigger": false,
      "taf_trigger": false,
      "metar": "METAR EDFH 261550Z 04006KT 340V070 CAVOK 16/M00 Q1022",
      "taf": "TAF EDFH 261100Z 2612/2712 04006KT CAVOK"
    },
    {
      "icao": "EDJA",
      "alert": "OK",
      "vis_m": 9999,
      "fzfg": false,
      "metar_trigger": false,
      "taf_trigger": false,
      "metar": "METAR EDJA 261550Z 01008KT 340V050 CAVOK 18/03 Q1021",
      "taf": "TAF EDJA 261400Z 2615/2624 03006KT CAVOK"
    },
    {
      "icao": "EDLW",
      "alert": "OK",
      "vis_m": 9999,
      "fzfg": false,
      "metar_trigger": false,
      "taf_trigger": false,
      "metar": "METAR EDLW 261550Z 05006KT 360V090 CAVOK 14/02 Q1024",
      "taf": "TAF EDLW 261100Z 2612/2712 VRB03KT CAVOK"
    },
    {
      "icao": "EDNY",
      "alert": "OK",
      "vis_m": 9999,
      "fzfg": false,
      "metar_trigger": false,
      "taf_trigger": false,
      "metar": "METAR EDNY 261550Z 02008KT CAVOK 20/M01 Q1020",
      "taf": "TAF EDNY 261400Z 2615/2624 02009KT CAVOK"
    },
    {
      "icao": "EDSB",
      "alert": "OK",
      "vis_m": 9999,
      "fzfg": false,
      "metar_trigger": false,
      "taf_trigger": false,
      "metar": "METAR EDSB 261550Z 02010KT CAVOK 20/01 Q1020",
      "taf": "TAF EDSB 261100Z 2612/2712 02009KT CAVOK"
    },
    {
      "icao": "EETN",
      "alert": "OK",
      "vis_m": 9999,
      "fzfg": false,
      "metar_trigger": false,
      "taf_trigger": false,
      "metar": "METAR EETN 261550Z 33012KT CAVOK 06/M06 Q1007 NOSIG",
      "taf": "TAF EETN 261130Z 2612/2712 33016G26KT 9999 SCT040"
    },
    {
      "icao": "EFTU",
      "alert": "OK",
      "vis_m": 9999,
      "fzfg": false,
      "metar_trigger": false,
      "taf_trigger": false,
      "metar": "METAR EFTU 261550Z AUTO 33013KT 290V020 CAVOK 06/M06 Q1011",
      "taf": "TAF EFTU 261437Z 2615/2715 33013KT CAVOK"
    },
    {
      "icao": "EGBB",
      "alert": "OK",
      "vis_m": 9999,
      "fzfg": false,
      "metar_trigger": false,
      "taf_trigger": false,
      "metar": "METAR EGBB 261550Z 15005KT CAVOK 18/04 Q1024",
      "taf": "TAF EGBB 261105Z 2612/2712 14006KT CAVOK"
    },
    {
      "icao": "EGGP",
      "alert": "OK",
      "vis_m": 9999,
      "fzfg": false,
      "metar_trigger": false,
      "taf_trigger": false,
      "metar": "METAR EGGP 261550Z 18003KT 100V260 CAVOK 18/07 Q1023",
      "taf": "TAF EGGP 261057Z 2612/2712 17010KT CAVOK"
    },
    {
      "icao": "EGGW",
      "alert": "OK",
      "vis_m": 9999,
      "fzfg": false,
      "metar_trigger": false,
      "taf_trigger": false,
      "metar": "METAR EGGW 261550Z AUTO 12004KT 050V180 9999 NCD 17/05 Q1024",
      "taf": "TAF EGGW 261057Z 2612/2712 12008KT CAVOK"
    },
    {
      "icao": "EGKK",
      "alert": "OK",
      "vis_m": 9999,
      "fzfg": false,
      "metar_trigger": false,
      "taf_trigger": false,
      "metar": "METAR EGKK 261550Z 06005KT 360V100 CAVOK 19/04 Q1023",
      "taf": "TAF EGKK 261059Z 2612/2718 11006KT CAVOK"
    },
    {
      "icao": "EGNM",
      "alert": "OK",
      "vis_m": 9999,
      "fzfg": false,
      "metar_trigger": false,
      "taf_trigger": false,
      "metar": "METAR EGNM 261550Z 13004KT 090V160 CAVOK 17/07 Q1023",
      "taf": "TAF EGNM 261058Z 2612/2712 15010KT CAVOK"
    },
    {
      "icao": "EGPD",
      "alert": "OK",
      "vis_m": 9999,
      "fzfg": false,
      "metar_trigger": false,
      "taf_trigger": false,
      "metar": "METAR EGPD 261550Z COR AUTO 16010KT 9999 NCD 12/07 Q1022 NOSIG",
      "taf": "TAF EGPD 261058Z 2612/2712 17010KT 9999 FEW020"
    },
    {
      "icao": "EGPF",
      "alert": "OK",
      "vis_m": 9999,
      "fzfg": false,
      "metar_trigger": false,
      "taf_trigger": false,
      "metar": "METAR EGPF 261550Z AUTO 23010KT 9999 NCD 17/07 Q1022",
      "taf": "TAF EGPF 261103Z 2612/2712 VRB03KT 9999 FEW024"
    },
    {
      "icao": "EHBK",
      "alert": "OK",
      "vis_m": 9999,
      "fzfg": false,
      "metar_trigger": false,
      "taf_trigger": false,
      "metar": "METAR EHBK 261555Z AUTO 06005KT 030V100 9999 NSC 17/03 Q1023 NOSIG",
      "taf": "TAF EHBK 261044Z 2612/2718 04006KT CAVOK"
    },
    {
      "icao": "EHEH",
      "alert": "OK",
      "vis_m": 9999,
      "fzfg": false,
      "metar_trigger": false,
      "taf_trigger": false,
      "metar": "METAR EHEH 261555Z AUTO 01005KT 350V110 9999 OVC190 17/M00 Q1024 BLU NOSIG RMK TREND REMOTE BY EHWX",
      "taf": "TAF EHEH 261151Z 2612/2718 05007KT CAVOK"
    },
    {
      "icao": "EKBI",
      "alert": "OK",
      "vis_m": 9999,
      "fzfg": false,
      "metar_trigger": false,
      "taf_trigger": false,
      "metar": "METAR EKBI 261550Z AUTO 28013KT 250V310 9999 NCD 10/00 Q1024",
      "taf": "TAF EKBI 261427Z 2615/2715 29010KT 9999 FEW045"
    },
    {
      "icao": "EKCH",
      "alert": "OK",
      "vis_m": 9999,
      "fzfg": false,
      "metar_trigger": false,
      "taf_trigger": false,
      "metar": "METAR EKCH 261550Z AUTO 30009KT 270V330 9999 NCD 11/M06 Q1024 NOSIG",
      "taf": "TAF EKCH 261427Z 2615/2715 35010KT CAVOK"
    },
    {
      "icao": "ENAL",
      "alert": "OK",
      "vis_m": 9999,
      "fzfg": false,
      "metar_trigger": false,
      "taf_trigger": false,
      "metar": "METAR ENAL 261550Z 31004KT 270V360 9999 FEW050 BKN061 05/M00 Q1026",
      "taf": "TAF ENAL 261400Z 2615/2624 VRB04KT 9999 FEW025 SCT040"
    },
    {
      "icao": "ENBR",
      "alert": "OK",
      "vis_m": 9999,
      "fzfg": false,
      "metar_trigger": false,
      "taf_trigger": false,
      "metar": "METAR ENBR 261550Z 31009KT CAVOK 07/M02 Q1025 NOSIG RMK WIND 1200FT 33011KT",
      "taf": "TAF ENBR 261100Z 2612/2712 35012KT CAVOK"
    },
    {
      "icao": "ENGM",
      "alert": "OK",
      "vis_m": 9999,
      "fzfg": false,
      "metar_trigger": false,
      "taf_trigger": false,
      "metar": "METAR ENGM 261550Z 05012KT 010V080 CAVOK 08/M10 Q1020 NOSIG",
      "taf": ""
    },
    {
      "icao": "ENHD",
      "alert": "OK",
      "vis_m": 9999,
      "fzfg": false,
      "metar_trigger": false,
      "taf_trigger": false,
      "metar": "METAR ENHD 261550Z 33015KT CAVOK 08/M01 Q1025",
      "taf": "TAF ENHD 261400Z 2615/2622 33015KT CAVOK"
    },
    {
      "icao": "ENTC",
      "alert": "OK",
      "vis_m": 9999,
      "fzfg": false,
      "metar_trigger": false,
      "taf_trigger": false,
      "metar": "METAR ENTC 261550Z 30009KT 9999 FEW036 SCT046 BKN053 02/M04 Q1014 TEMPO 1000 SHSN VV009 RMK WIND 2600FT 32027KT",
      "taf": "TAF ENTC 261100Z 2612/2712 30008KT 9999 -SHSN FEW012 BKN030"
    },
    {
      "icao": "ENTO",
      "alert": "OK",
      "vis_m": 9999,
      "fzfg": false,
      "metar_trigger": false,
      "taf_trigger": false,
      "metar": "METAR ENTO 261550Z 22011KT 190V250 CAVOK 08/M02 Q1022 NOSIG",
      "taf": "TAF ENTO 261100Z 2612/2712 20012KT CAVOK"
    },
    {
      "icao": "ENVA",
      "alert": "OK",
      "vis_m": 9999,
      "fzfg": false,
      "metar_trigger": false,
      "taf_trigger": false,
      "metar": "METAR ENVA 261550Z 29017KT 9999 -SHSNRA FEW021 SCT031CB BKN037 03/M00 Q1024 RMK WIND 670FT 31026KT",
      "taf": "TAF ENVA 261100Z 2612/2712 28012KT 9999 FEW020 BKN030"
    },
    {
      "icao": "ENZV",
      "alert": "OK",
      "vis_m": 9999,
      "fzfg": false,
      "metar_trigger": false,
      "taf_trigger": false,
      "metar": "METAR ENZV 261550Z 32017KT CAVOK 08/M01 Q1025 NOSIG",
      "taf": "TAF ENZV 261100Z 2612/2712 35012KT CAVOK"
    },
    {
      "icao": "EPGD",
      "alert": "OK",
      "vis_m": 9999,
      "fzfg": false,
      "metar_trigger": false,
      "taf_trigger": false,
      "metar": "METAR EPGD 261600Z 29016KT CAVOK 07/M10 Q1022",
      "taf": "TAF EPGD 261130Z 2612/2712 32015KT 9999 SCT023"
    },
    {
      "icao": "EPKK",
      "alert": "OK",
      "vis_m": 9999,
      "fzfg": false,
      "metar_trigger": false,
      "taf_trigger": false,
      "metar": "METAR EPKK 261600Z 33012KT CAVOK 12/M08 Q1021",
      "taf": "TAF EPKK 261430Z 2615/2715 31012KT CAVOK"
    },
    {
      "icao": "EPKT",
      "alert": "OK",
      "vis_m": 9999,
      "fzfg": false,
      "metar_trigger": false,
      "taf_trigger": false,
      "metar": "METAR EPKT 261600Z 31011KT 290V360 CAVOK 10/M06 Q1022",
      "taf": "TAF EPKT 261130Z 2612/2712 31014KT CAVOK"
    },
    {
      "icao": "EPLB",
      "alert": "OK",
      "vis_m": 9999,
      "fzfg": false,
      "metar_trigger": false,
      "taf_trigger": false,
      "metar": "METAR EPLB 261600Z 32015KT CAVOK 08/M11 Q1018",
      "taf": ""
    },
    {
      "icao": "EPMO",
      "alert": "OK",
      "vis_m": 9999,
      "fzfg": false,
      "metar_trigger": false,
      "taf_trigger": false,
      "metar": "METAR EPMO 261600Z 33017KT CAVOK 10/M10 Q1020",
      "taf": "TAF EPMO 261130Z 2612/2712 30012KT 9999 SCT025"
    },
    {
      "icao": "EPPO",
      "alert": "OK",
      "vis_m": 9999,
      "fzfg": false,
      "metar_trigger": false,
      "taf_trigger": false,
      "metar": "METAR EPPO 261600Z 35009KT 310V020 CAVOK 12/M10 Q1023",
      "taf": "TAF EPPO 261130Z 2612/2712 32012KT CAVOK"
    },
    {
      "icao": "EPRA",
      "alert": "OK",
      "vis_m": 9999,
      "fzfg": false,
      "metar_trigger": false,
      "taf_trigger": false,
      "metar": "METAR EPRA 261600Z 33017KT 290V350 CAVOK 10/M12 Q1020",
      "taf": "TAF EPRA 261430Z 2615/2624 32015KT CAVOK"
    },
    {
      "icao": "EPRZ",
      "alert": "OK",
      "vis_m": 9999,
      "fzfg": false,
      "metar_trigger": false,
      "taf_trigger": false,
      "metar": "METAR EPRZ 261600Z 30016G26KT 280V340 CAVOK 10/M07 Q1020",
      "taf": "TAF EPRZ 261130Z 2612/2712 31014KT 9999 SCT040"
    },
    {
      "icao": "EPSC",
      "alert": "OK",
      "vis_m": 9999,
      "fzfg": false,
      "metar_trigger": false,
      "taf_trigger": false,
      "metar": "METAR EPSC 261600Z 33011KT CAVOK 10/M08 Q1025",
      "taf": "TAF EPSC 261130Z 2612/2712 32010KT CAVOK"
    },
    {
      "icao": "EPSY",
      "alert": "OK",
      "vis_m": 9999,
      "fzfg": false,
      "metar_trigger": false,
      "taf_trigger": false,
      "metar": "METAR EPSY 261600Z 33016KT 290V360 CAVOK 06/M07 Q1020",
      "taf": "TAF EPSY 261430Z 2615/2624 33014KT CAVOK"
    },
    {
      "icao": "EPWA",
      "alert": "OK",
      "vis_m": 9999,
      "fzfg": false,
      "metar_trigger": false,
      "taf_trigger": false,
      "metar": "METAR EPWA 261600Z 32021KT CAVOK 10/M13 Q1020 NOSIG",
      "taf": "TAF EPWA 261430Z 2615/2715 30015KT CAVOK"
    },
    {
      "icao": "EPWR",
      "alert": "OK",
      "vis_m": 9999,
      "fzfg": false,
      "metar_trigger": false,
      "taf_trigger": false,
      "metar": "METAR EPWR 261600Z 33011KT CAVOK 13/M08 Q1023",
      "taf": "TAF EPWR 261430Z 2615/2715 31015KT CAVOK"
    },
    {
      "icao": "ESGG",
      "alert": "OK",
      "vis_m": 9999,
      "fzfg": false,
      "metar_trigger": false,
      "taf_trigger": false,
      "metar": "METAR ESGG 261550Z 27010KT 240V320 CAVOK 07/M08 Q1022",
      "taf": "TAF ESGG 261430Z 2615/2715 29011KT CAVOK"
    },
    {
      "icao": "ESKN",
      "alert": "OK",
      "vis_m": 9999,
      "fzfg": false,
      "metar_trigger": false,
      "taf_trigger": false,
      "metar": "METAR ESKN 261550Z 30017KT CAVOK 10/M08 Q1017",
      "taf": "TAF ESKN 261430Z 2615/2715 31015G25KT CAVOK"
    },
    {
      "icao": "ESMS",
      "alert": "OK",
      "vis_m": 9999,
      "fzfg": false,
      "metar_trigger": false,
      "taf_trigger": false,
      "metar": "METAR ESMS 261550Z 33013KT CAVOK 09/M04 Q1023",
      "taf": "TAF ESMS 261427Z 2615/2715 32012KT CAVOK"
    },
    {
      "icao": "ESSA",
      "alert": "OK",
      "vis_m": 9999,
      "fzfg": false,
      "metar_trigger": false,
      "taf_trigger": false,
      "metar": "METAR ESSA 261550Z 33013KT 9999 SCT074TCU BKN098 08/M09 Q1016 NOSIG",
      "taf": "TAF ESSA 261430Z 2615/2715 33014KT 9999 SCT040"
    },
    {
      "icao": "EYKA",
      "alert": "OK",
      "vis_m": 9999,
      "fzfg": false,
      "metar_trigger": false,
      "taf_trigger": false,
      "metar": "METAR EYKA 261550Z 31008KT 260V010 9999 -SHRASN SCT013CB 03/M01 Q1013",
      "taf": "TAF EYKA 261100Z 2612/2712 31015G25KT 9000 BKN025"
    },
    {
      "icao": "EYPA",
      "alert": "OK",
      "vis_m": 9999,
      "fzfg": false,
      "metar_trigger": false,
      "taf_trigger": false,
      "metar": "METAR EYPA 261550Z VRB06KT CAVOK 06/M00 Q1018",
      "taf": "TAF EYPA 261100Z 2612/2712 34015G25KT 9000 SCT030"
    },
    {
      "icao": "EYVI",
      "alert": "OK",
      "vis_m": 9999,
      "fzfg": false,
      "metar_trigger": false,
      "taf_trigger": false,
      "metar": "METAR EYVI 261550Z 31016KT 270V340 9999 FEW024CB 03/M02 Q1011 NOSIG",
      "taf": "TAF EYVI 261101Z 2612/2712 33020G35KT 9000 BKN040"
    },
    {
      "icao": "GCFV",
      "alert": "OK",
      "vis_m": 9999,
      "fzfg": false,
      "metar_trigger": false,
      "taf_trigger": false,
      "metar": "METAR GCFV 261600Z 35015KT 9999 BKN035 23/12 Q1013",
      "taf": "TAF GCFV 261400Z 2615/2715 02014KT 9999 SCT030 TX23/2714Z TN18/2706Z"
    },
    {
      "icao": "GCLP",
      "alert": "OK",
      "vis_m": 9999,
      "fzfg": false,
      "metar_trigger": false,
      "taf_trigger": false,
      "metar": "METAR GCLP 261600Z 02022KT 9999 FEW030 23/12 Q1014 NOSIG",
      "taf": "TAF GCLP 261400Z 2615/2715 01018KT 9999 SCT030 TX24/2714Z TN17/2706Z"
    },
    {
      "icao": "GCTS",
      "alert": "OK",
      "vis_m": 9999,
      "fzfg": false,
      "metar_trigger": false,
      "taf_trigger": false,
      "metar": "METAR GCTS 261600Z 10018KT 9999 SCT050 21/14 Q1014 NOSIG",
      "taf": "TAF GCTS 261400Z 2615/2715 10014KT 9999 FEW035 BKN040 TX23/2714Z TN16/2706Z"
    },
    {
      "icao": "GMAD",
      "alert": "OK",
      "vis_m": 8000,
      "fzfg": false,
      "metar_trigger": false,
      "taf_trigger": false,
      "metar": "METAR GMAD 261600Z 25012KT 8000 NSC 24/13 Q1007 NOSIG",
      "taf": "TAF GMAD 261100Z 2612/2718 28012KT 8000 NSC"
    },
    {
      "icao": "GMMN",
      "alert": "OK",
      "vis_m": 9999,
      "fzfg": false,
      "metar_trigger": false,
      "taf_trigger": false,
      "metar": "METAR GMMN 261600Z 01012KT 320V050 CAVOK 24/17 Q1010 NOSIG",
      "taf": "TAF GMMN 261100Z 2612/2718 01013KT CAVOK"
    },
    {
      "icao": "GMMX",
      "alert": "OK",
      "vis_m": 8000,
      "fzfg": false,
      "metar_trigger": false,
      "taf_trigger": false,
      "metar": "METAR GMMX 261600Z 06005KT 360V120 8000 FEW026 SCT200 30/13 Q1008 NOSIG",
      "taf": "TAF GMMX 261100Z 2612/2718 06006KT 8000 SCT026"
    },
    {
      "icao": "HEGN",
      "alert": "OK",
      "vis_m": 9999,
      "fzfg": false,
      "metar_trigger": false,
      "taf_trigger": false,
      "metar": "METAR HEGN 261500Z 36007KT CAVOK 30/13 Q1009 NOSIG",
      "taf": "TAF HEGN 261100Z 2612/2718 13010KT CAVOK"
    },
    {
      "icao": "HEMA",
      "alert": "OK",
      "vis_m": 9999,
      "fzfg": false,
      "metar_trigger": false,
      "taf_trigger": false,
      "metar": "METAR HEMA 261500Z 11008KT CAVOK 32/08 Q1008 NOSIG",
      "taf": "TAF HEMA 261100Z 2612/2718 15010KT CAVOK"
    },
    {
      "icao": "HESH",
      "alert": "OK",
      "vis_m": 9999,
      "fzfg": false,
      "metar_trigger": false,
      "taf_trigger": false,
      "metar": "METAR HESH 261500Z 16014KT CAVOK 30/08 Q1008 NOSIG",
      "taf": "TAF HESH 261100Z 2612/2718 19010KT CAVOK"
    },
    {
      "icao": "HESX",
      "alert": "OK",
      "vis_m": 9999,
      "fzfg": false,
      "metar_trigger": false,
      "taf_trigger": false,
      "metar": "METAR HESX 261500Z 28016KT CAVOK 25/07 Q1011 NOSIG",
      "taf": ""
    },
    {
      "icao": "LATI",
      "alert": "OK",
      "vis_m": 9999,
      "fzfg": false,
      "metar_trigger": false,
      "taf_trigger": false,
      "metar": "METAR LATI 261550Z 32006KT 290V350 CAVOK 21/12 Q1016 NOSIG",
      "taf": "TAF LATI 261100Z 2612/2712 32012KT CAVOK TX28/2712Z TN08/2704Z"
    },
    {
      "icao": "LBPD",
      "alert": "OK",
      "vis_m": 9999,
      "fzfg": false,
      "metar_trigger": false,
      "taf_trigger": false,
      "metar": "METAR LBPD 261600Z AUTO 34009KT 9999 NCD 25/04 Q1011 NOSIG",
      "taf": "TAF LBPD 261100Z 2612/2712 29015KT CAVOK"
    },
    {
      "icao": "LBSF",
      "alert": "OK",
      "vis_m": 9999,
      "fzfg": false,
      "metar_trigger": false,
      "taf_trigger": false,
      "metar": "METAR LBSF 261600Z AUTO 29015KT 9999 NCD 22/02 Q1014 TEMPO 29018G30KT",
      "taf": "TAF LBSF 261100Z 2612/2712 31014KT CAVOK"
    },
    {
      "icao": "LBWN",
      "alert": "OK",
      "vis_m": 9999,
      "fzfg": false,
      "metar_trigger": false,
      "taf_trigger": false,
      "metar": "METAR LBWN 261600Z AUTO 29012KT 9999 NCD 24/05 Q1009 NOSIG",
      "taf": "TAF LBWN 261100Z 2612/2712 27016KT 9999 SCT045"
    },
    {
      "icao": "LCLK",
      "alert": "OK",
      "vis_m": 9999,
      "fzfg": false,
      "metar_trigger": false,
      "taf_trigger": false,
      "metar": "METAR LCLK 261600Z 23008KT 9999 FEW030 22/18 Q1009 NOSIG",
      "taf": "TAF LCLK 261130Z 2612/2712 07013KT 9999 FEW030"
    },
    {
      "icao": "LCPH",
      "alert": "OK",
      "vis_m": 9999,
      "fzfg": false,
      "metar_trigger": false,
      "taf_trigger": false,
      "metar": "METAR LCPH 261600Z 31010KT 250V320 9999 FEW030 20/18 Q1010 NOSIG",
      "taf": "TAF LCPH 261130Z 2612/2712 26010KT 9999 FEW020"
    },
    {
      "icao": "LEAL",
      "alert": "OK",
      "vis_m": 9999,
      "fzfg": false,
      "metar_trigger": false,
      "taf_trigger": false,
      "metar": "METAR LEAL 261600Z 09009KT 050V140 CAVOK 20/12 Q1018 NOSIG",
      "taf": "TAF LEAL 261100Z 2612/2712 08010KT 9999 FEW020 TX21/2612Z TN10/2706Z"
    },
    {
      "icao": "LEBB",
      "alert": "OK",
      "vis_m": 9999,
      "fzfg": false,
      "metar_trigger": false,
      "taf_trigger": false,
      "metar": "METAR LEBB 261600Z 27011KT 230V300 CAVOK 19/13 Q1019 NOSIG",
      "taf": "TAF LEBB 261100Z 2612/2712 VRB03KT 9999 FEW030 TX21/2612Z TN13/2706Z"
    },
    {
      "icao": "LEBL",
      "alert": "OK",
      "vis_m": 9999,
      "fzfg": false,
      "metar_trigger": false,
      "taf_trigger": false,
      "metar": "METAR LEBL 261500Z 21008KT 160V240 9999 FEW020 21/16 Q1018 NOSIG",
      "taf": "TAF LEBL 261100Z 2612/2712 22005KT 9999 FEW020 TX22/2612Z TN14/2705Z"
    },
    {
      "icao": "LECH",
      "alert": "OK",
      "vis_m": 9000,
      "fzfg": false,
      "metar_trigger": false,
      "taf_trigger": false,
      "metar": "METAR LECH 261600Z AUTO 13007KT 070V170 9000 NCD 20/07 Q1019",
      "taf": "TAF LECH 261100Z 2612/2712 VRB03KT CAVOK TX25/2613Z TN10/2706Z"
    },
    {
      "icao": "LEMD",
      "alert": "OK",
      "vis_m": 9999,
      "fzfg": false,
      "metar_trigger": false,
      "taf_trigger": false,
      "metar": "METAR LEMD 261600Z 12004KT 040V190 9999 FEW080 26/07 Q1016 NOSIG",
      "taf": "TAF LEMD 261100Z 2612/2718 VRB04KT CAVOK TX28/2715Z TN11/2706Z"
    },
    {
      "icao": "LEMG",
      "alert": "OK",
      "vis_m": 9999,
      "fzfg": false,
      "metar_trigger": false,
      "taf_trigger": false,
      "metar": "METAR LEMG 261600Z 10009KT 080V140 9999 SCT025 19/13 Q1016 NOSIG",
      "taf": "TAF LEMG 261100Z 2612/2712 11010KT 9999 FEW020 BKN050 TX20/2615Z TN14/2706Z"
    },
    {
      "icao": "LEVC",
      "alert": "OK",
      "vis_m": 9999,
      "fzfg": false,
      "metar_trigger": false,
      "taf_trigger": false,
      "metar": "METAR LEVC 261600Z 13009KT 090V160 CAVOK 21/10 Q1018 NOSIG",
      "taf": "TAF LEVC 261100Z 2612/2712 11012KT CAVOK TX24/2612Z TN10/2706Z"
    },
    {
      "icao": "LEXJ",
      "alert": "OK",
      "vis_m": 9999,
      "fzfg": false,
      "metar_trigger": false,
      "taf_trigger": false,
      "metar": "METAR LEXJ 261600Z 06004KT 340V110 9999 OVC020 15/12 Q1020",
      "taf": "TAF LEXJ 261400Z 2615/2715 VRB03KT 9999 SCT025 TX16/2713Z TN13/2707Z"
    },
    {
      "icao": "LEZG",
      "alert": "OK",
      "vis_m": 9999,
      "fzfg": false,
      "metar_trigger": false,
      "taf_trigger": false,
      "metar": "METAR LEZG 261600Z VRB04KT 9999 FEW070 28/09 Q1016 NOSIG",
      "taf": "TAF LEZG 261100Z 2612/2712 VRB04KT CAVOK TX28/2615Z TN14/2706Z"
    },
    {
      "icao": "LEZL",
      "alert": "OK",
      "vis_m": 9999,
      "fzfg": false,
      "metar_trigger": false,
      "taf_trigger": false,
      "metar": "METAR LEZL 261600Z 10011KT 060V140 CAVOK 28/13 Q1013 WS ALL RWY NOSIG",
      "taf": "TAF LEZL 261400Z 2615/2715 11010KT 9999 FEW040 TX27/2615Z TN16/2706Z"
    },
    {
      "icao": "LFBD",
      "alert": "OK",
      "vis_m": 9999,
      "fzfg": false,
      "metar_trigger": false,
      "taf_trigger": false,
      "metar": "METAR LFBD 261600Z AUTO 03005KT 290V080 9999 FEW042 24/12 Q1019 NOSIG",
      "taf": "TAF LFBD 261100Z 2612/2718 VRB03KT 9999 BKN025 TX24/2714Z TN14/2706Z"
    },
    {
      "icao": "LFLL",
      "alert": "OK",
      "vis_m": 9999,
      "fzfg": false,
      "metar_trigger": false,
      "taf_trigger": false,
      "metar": "METAR LFLL 261600Z 36007KT 320V030 CAVOK 23/03 Q1018 NOSIG",
      "taf": "TAF LFLL 261100Z 2612/2718 35008KT CAVOK"
    },
    {
      "icao": "LFLS",
      "alert": "OK",
      "vis_m": 9999,
      "fzfg": false,
      "metar_trigger": false,
      "taf_trigger": false,
      "metar": "METAR LFLS 261600Z AUTO 34009KT 300V360 CAVOK 22/06 Q1018 NOSIG",
      "taf": "TAF LFLS 261400Z 2615/2715 36007KT CAVOK"
    },
    {
      "icao": "LFMN",
      "alert": "OK",
      "vis_m": 9999,
      "fzfg": false,
      "metar_trigger": false,
      "taf_trigger": false,
      "metar": "METAR LFMN 261600Z VRB02KT 9999 OVC030 18/14 Q1019 NOSIG",
      "taf": "TAF LFMN 261400Z 2615/2721 14003KT 9999 BKN025"
    },
    {
      "icao": "LFOB",
      "alert": "OK",
      "vis_m": 9999,
      "fzfg": false,
      "metar_trigger": false,
      "taf_trigger": false,
      "metar": "METAR LFOB 261600Z AUTO 05007KT 020V080 CAVOK 19/04 Q1022 NOSIG",
      "taf": "TAF LFOB 261100Z 2612/2712 05006KT CAVOK"
    },
    {
      "icao": "LFPO",
      "alert": "OK",
      "vis_m": 9999,
      "fzfg": false,
      "metar_trigger": false,
      "taf_trigger": false,
      "metar": "METAR LFPO 261600Z 02006KT 340V050 CAVOK 21/04 Q1021 NOSIG",
      "taf": "TAF LFPO 261100Z 2612/2718 04007KT CAVOK"
    },
    {
      "icao": "LFSB",
      "alert": "OK",
      "vis_m": 9999,
      "fzfg": false,
      "metar_trigger": false,
      "taf_trigger": false,
      "metar": "METAR LFSB 261600Z AUTO 36008KT 340V040 CAVOK 23/03 Q1019 NOSIG",
      "taf": "TAF LFSB 261100Z 2612/2712 01005KT CAVOK"
    },
    {
      "icao": "LGAV",
      "alert": "OK",
      "vis_m": 9999,
      "fzfg": false,
      "metar_trigger": false,
      "taf_trigger": false,
      "metar": "METAR LGAV 261550Z 04005KT CAVOK 23/04 Q1014 NOSIG",
      "taf": "TAF LGAV 261100Z 2612/2712 VRB03KT 9999 FEW030"
    },
    {
      "icao": "LGTS",
      "alert": "OK",
      "vis_m": 9999,
      "fzfg": false,
      "metar_trigger": false,
      "taf_trigger": false,
      "metar": "METAR LGTS 261550Z 21007KT 9999 FEW030 24/07 Q1012 NOSIG",
      "taf": "TAF LGTS 261100Z 2612/2712 VRB03KT 9999 FEW035"
    },
    {
      "icao": "LHBP",
      "alert": "OK",
      "vis_m": 9999,
      "fzfg": false,
      "metar_trigger": false,
      "taf_trigger": false,
      "metar": "METAR LHBP 261600Z 32012KT CAVOK 16/M04 Q1019 NOSIG",
      "taf": "TAF LHBP 261115Z 2612/2712 33015G27KT CAVOK"
    },
    {
      "icao": "LHDC",
      "alert": "OK",
      "vis_m": 9999,
      "fzfg": false,
      "metar_trigger": false,
      "taf_trigger": false,
      "metar": "METAR LHDC 261545Z AUTO 02013KT 350V050 CAVOK 16/M05 Q1018 NOSIG",
      "taf": "TAF LHDC 261415Z 2615/2624 02014G24KT CAVOK"
    },
    {
      "icao": "LIBD",
      "alert": "OK",
      "vis_m": 9999,
      "fzfg": false,
      "metar_trigger": false,
      "taf_trigger": false,
      "metar": "METAR LIBD 261550Z 01004KT 340V060 CAVOK 21/05 Q1017",
      "taf": "TAF LIBD 261100Z 2612/2712 34012KT CAVOK"
    },
    {
      "icao": "LIBG",
      "alert": "OK",
      "vis_m": 9999,
      "fzfg": false,
      "metar_trigger": false,
      "taf_trigger": false,
      "metar": "METAR LIBG 261550Z 24005KT 210V280 CAVOK 26/06 Q1016",
      "taf": "TAF LIBG 261400Z 2615/2624 VRB05KT CAVOK"
    },
    {
      "icao": "LIBP",
      "alert": "OK",
      "vis_m": 9999,
      "fzfg": false,
      "metar_trigger": false,
      "taf_trigger": false,
      "metar": "METAR LIBP 261550Z AUTO 05004KT 010V080 9999 NCD 22/08 Q1017",
      "taf": "TAF LIBP 261100Z 2612/2712 06010KT CAVOK"
    },
    {
      "icao": "LIBR",
      "alert": "OK",
      "vis_m": 9999,
      "fzfg": false,
      "metar_trigger": false,
      "taf_trigger": false,
      "metar": "METAR LIBR 261550Z 33009KT CAVOK 19/12 Q1016",
      "taf": "TAF LIBR 261100Z 2612/2712 33012KT CAVOK"
    },
    {
      "icao": "LICA",
      "alert": "OK",
      "vis_m": 9999,
      "fzfg": false,
      "metar_trigger": false,
      "taf_trigger": false,
      "metar": "METAR LICA 261550Z AUTO 25010KT 9999 NCD 19/14 Q1019",
      "taf": "TAF LICA 261100Z 2612/2712 27012KT 9999 FEW040"
    },
    {
      "icao": "LICC",
      "alert": "OK",
      "vis_m": 9999,
      "fzfg": false,
      "metar_trigger": false,
      "taf_trigger": false,
      "metar": "METAR LICC 261550Z 09009KT CAVOK 20/14 Q1018",
      "taf": ""
    },
    {
      "icao": "LICJ",
      "alert": "OK",
      "vis_m": 9999,
      "fzfg": false,
      "metar_trigger": false,
      "taf_trigger": false,
      "metar": "METAR LICJ 261550Z 06018KT CAVOK 20/09 Q1018",
      "taf": ""
    },
    {
      "icao": "LIMC",
      "alert": "OK",
      "vis_m": 9999,
      "fzfg": false,
      "metar_trigger": false,
      "taf_trigger": false,
      "metar": "METAR LIMC 261550Z 12003KT 060V190 CAVOK 25/09 Q1016 NOSIG",
      "taf": "TAF LIMC 261100Z 2612/2718 VRB05KT CAVOK"
    },
    {
      "icao": "LIME",
      "alert": "OK",
      "vis_m": 9999,
      "fzfg": false,
      "metar_trigger": false,
      "taf_trigger": false,
      "metar": "METAR LIME 261550Z 18005KT 130V220 CAVOK 24/08 Q1016 NOSIG",
      "taf": "TAF LIME 261100Z 2612/2712 19010KT CAVOK"
    },
    {
      "icao": "LIMF",
      "alert": "OK",
      "vis_m": 9999,
      "fzfg": false,
      "metar_trigger": false,
      "taf_trigger": false,
      "metar": "METAR LIMF 261550Z 13004KT 030V200 CAVOK 25/11 Q1016",
      "taf": "TAF LIMF 261100Z 2612/2712 VRB05KT CAVOK"
    },
    {
      "icao": "LIMJ",
      "alert": "OK",
      "vis_m": 9999,
      "fzfg": false,
      "metar_trigger": false,
      "taf_trigger": false,
      "metar": "METAR LIMJ 261550Z 19003KT 9999 SCT020 17/13 Q1018",
      "taf": "TAF LIMJ 261100Z 2612/2712 20010KT 9999 FEW015 BKN025"
    },
    {
      "icao": "LIPE",
      "alert": "OK",
      "vis_m": 9999,
      "fzfg": false,
      "metar_trigger": false,
      "taf_trigger": false,
      "metar": "METAR LIPE 261520Z 05005KT 360V090 CAVOK 25/11 Q1016",
      "taf": "TAF LIPE 261100Z 2612/2712 VRB05KT CAVOK"
    },
    {
      "icao": "LIPH",
      "alert": "OK",
      "vis_m": 9999,
      "fzfg": false,
      "metar_trigger": false,
      "taf_trigger": false,
      "metar": "METAR LIPH 261550Z 15004KT 110V210 CAVOK 25/09 Q1016",
      "taf": "TAF LIPH 261100Z 2612/2712 VRB05KT CAVOK"
    },
    {
      "icao": "LIPQ",
      "alert": "OK",
      "vis_m": 9999,
      "fzfg": false,
      "metar_trigger": false,
      "taf_trigger": false,
      "metar": "METAR LIPQ 261550Z AUTO 18004KT 150V210 9999 NCD 23/07 Q1016",
      "taf": "TAF LIPQ 261100Z 2612/2712 22010KT CAVOK"
    },
    {
      "icao": "LIPR",
      "alert": "OK",
      "vis_m": 9999,
      "fzfg": false,
      "metar_trigger": false,
      "taf_trigger": false,
      "metar": "METAR LIPR 261550Z 11003KT 060V180 CAVOK 21/13 Q1016",
      "taf": "TAF LIPR 261100Z 2612/2712 08010KT CAVOK"
    },
    {
      "icao": "LIPX",
      "alert": "OK",
      "vis_m": 9999,
      "fzfg": false,
      "metar_trigger": false,
      "taf_trigger": false,
      "metar": "METAR LIPX 261550Z 18004KT 150V220 CAVOK 26/10 Q1016",
      "taf": "TAF LIPX 261100Z 2612/2712 VRB05KT CAVOK"
    },
    {
      "icao": "LIPY",
      "alert": "OK",
      "vis_m": 9999,
      "fzfg": false,
      "metar_trigger": false,
      "taf_trigger": false,
      "metar": "METAR LIPY 261550Z AUTO 02003KT 350V070 9999 NCD 21/12 Q1017",
      "taf": "TAF LIPY 261100Z 2612/2712 05010KT CAVOK"
    },
    {
      "icao": "LIPZ",
      "alert": "OK",
      "vis_m": 9999,
      "fzfg": false,
      "metar_trigger": false,
      "taf_trigger": false,
      "metar": "METAR LIPZ 261550Z 13004KT 110V170 CAVOK 22/12 Q1016 NOSIG",
      "taf": "TAF LIPZ 261100Z 2612/2718 VRB05KT CAVOK"
    },
    {
      "icao": "LIRF",
      "alert": "OK",
      "vis_m": 9999,
      "fzfg": false,
      "metar_trigger": false,
      "taf_trigger": false,
      "metar": "METAR LIRF 261550Z AUTO 27010KT 9999 NCD 18/14 Q1018",
      "taf": "TAF LIRF 261100Z 2612/2718 27012KT CAVOK"
    },
    {
      "icao": "LIRN",
      "alert": "OK",
      "vis_m": 9999,
      "fzfg": false,
      "metar_trigger": false,
      "taf_trigger": false,
      "metar": "METAR LIRN 261550Z AUTO 26009KT 230V290 9999 NCD 21/12 Q1019",
      "taf": "TAF LIRN 261100Z 2612/2712 20010KT CAVOK"
    },
    {
      "icao": "LIRP",
      "alert": "OK",
      "vis_m": 9999,
      "fzfg": false,
      "metar_trigger": false,
      "taf_trigger": false,
      "metar": "METAR LIRP 261545Z 27008KT CAVOK 20/10 Q1019 NOSIG",
      "taf": "TAF LIRP 261100Z 2612/2712 27010KT 9999 FEW020"
    },
    {
      "icao": "LIRZ",
      "alert": "OK",
      "vis_m": 9999,
      "fzfg": false,
      "metar_trigger": false,
      "taf_trigger": false,
      "metar": "METAR LIRZ 261550Z AUTO 27006KT 230V330 9999 NCD 24/06 Q1017",
      "taf": "TAF LIRZ 261100Z 2612/2712 VRB05KT CAVOK"
    },
    {
      "icao": "LJLJ",
      "alert": "OK",
      "vis_m": 9999,
      "fzfg": false,
      "metar_trigger": false,
      "taf_trigger": false,
      "metar": "METAR LJLJ 261600Z 14005KT 110V200 9999 FEW070 24/05 Q1016 NOSIG",
      "taf": "TAF LJLJ 261100Z 2612/2712 12006KT 9999 FEW060"
    },
    {
      "icao": "LKMT",
      "alert": "OK",
      "vis_m": 9999,
      "fzfg": false,
      "metar_trigger": false,
      "taf_trigger": false,
      "metar": "METAR LKMT 261600Z 35008KT 320V030 CAVOK 12/M03 Q1022 NOSIG",
      "taf": "TAF LKMT 261100Z 2612/2712 35014KT CAVOK"
    },
    {
      "icao": "LKPR",
      "alert": "OK",
      "vis_m": 9999,
      "fzfg": false,
      "metar_trigger": false,
      "taf_trigger": false,
      "metar": "METAR LKPR 261600Z 35005KT 280V030 CAVOK 12/M03 Q1023 NOSIG",
      "taf": "TAF LKPR 261400Z 2615/2721 02010KT CAVOK"
    },
    {
      "icao": "LLBG",
      "alert": "OK",
      "vis_m": 9999,
      "fzfg": false,
      "metar_trigger": false,
      "taf_trigger": false,
      "metar": "METAR LLBG 261550Z 28009KT 9999 FEW017 20/15 Q1012 BECMG BKN015",
      "taf": "TAF LLBG 261101Z 2612/2712 27010KT CAVOK TX27/2612Z TN16/2703Z"
    },
    {
      "icao": "LMML",
      "alert": "OK",
      "vis_m": 9999,
      "fzfg": false,
      "metar_trigger": false,
      "taf_trigger": false,
      "metar": "METAR LMML 261545Z 22007KT 190V260 CAVOK 20/10 Q1019 NOSIG",
      "taf": "TAF LMML 261100Z 2612/2712 28006KT CAVOK"
    },
    {
      "icao": "LOWW",
      "alert": "OK",
      "vis_m": 9999,
      "fzfg": false,
      "metar_trigger": false,
      "taf_trigger": false,
      "metar": "METAR LOWW 261550Z 01011KT 330V050 CAVOK 16/M02 Q1021 NOSIG",
      "taf": "TAF LOWW 261415Z 2615/2721 34013KT CAVOK TX19/2714Z TN05/2704Z"
    },
    {
      "icao": "LPFR",
      "alert": "OK",
      "vis_m": 9999,
      "fzfg": false,
      "metar_trigger": false,
      "taf_trigger": false,
      "metar": "METAR LPFR 261600Z 26007KT 210V320 9999 FEW030 21/14 Q1014",
      "taf": "TAF LPFR 261100Z 2612/2712 12010KT 9999 FEW030"
    },
    {
      "icao": "LPMA",
      "alert": "OK",
      "vis_m": 9999,
      "fzfg": false,
      "metar_trigger": false,
      "taf_trigger": false,
      "metar": "METAR LPMA 261600Z 01017KT 340V040 9999 FEW016 21/11 Q1017",
      "taf": "TAF LPMA 261100Z 2612/2712 01013KT 9999 SCT015"
    },
    {
      "icao": "LPPR",
      "alert": "OK",
      "vis_m": 9999,
      "fzfg": false,
      "metar_trigger": false,
      "taf_trigger": false,
      "metar": "METAR LPPR 261600Z 32008KT 9999 FEW030 21/13 Q1016",
      "taf": "TAF LPPR 261100Z 2612/2712 26005KT 9999 SCT004"
    },
    {
      "icao": "LPPS",
      "alert": "OK",
      "vis_m": 9999,
      "fzfg": false,
      "metar_trigger": false,
      "taf_trigger": false,
      "metar": "METAR LPPS 261600Z 02014KT 350V050 9999 FEW015 19/13 Q1018",
      "taf": "TAF LPPS 261100Z 2612/2718 02012KT 9999 SCT015"
    },
    {
      "icao": "LPPT",
      "alert": "OK",
      "vis_m": 9999,
      "fzfg": false,
      "metar_trigger": false,
      "taf_trigger": false,
      "metar": "METAR LPPT 261600Z 32011KT 280V360 9999 FEW040 26/16 Q1014",
      "taf": "TAF LPPT 261100Z 2612/2718 06005KT 9999 FEW030"
    },
    {
      "icao": "LQBK",
      "alert": "OK",
      "vis_m": 9999,
      "fzfg": false,
      "metar_trigger": false,
      "taf_trigger": false,
      "metar": "METAR LQBK 261600Z 34004KT 310V050 CAVOK 24/03 Q1017 NOSIG",
      "taf": "TAF LQBK 261100Z 2612/2712 35005KT CAVOK TX25/2613Z TN06/2704Z"
    },
    {
      "icao": "LQSA",
      "alert": "OK",
      "vis_m": 9999,
      "fzfg": false,
      "metar_trigger": false,
      "taf_trigger": false,
      "metar": "METAR LQSA 261600Z 32008KT CAVOK 22/02 Q1017 NOSIG",
      "taf": "TAF LQSA 261100Z 2612/2712 32005KT CAVOK TX24/2614Z TN02/2704Z"
    },
    {
      "icao": "LQTZ",
      "alert": "OK",
      "vis_m": 9999,
      "fzfg": false,
      "metar_trigger": false,
      "taf_trigger": false,
      "metar": "METAR LQTZ 261600Z 03006KT 350V070 CAVOK 22/02 Q1018",
      "taf": "TAF LQTZ 261100Z 2612/2712 10005KT CAVOK TX23/2613Z TN02/2704Z"
    },
    {
      "icao": "LRBC",
      "alert": "OK",
      "vis_m": 9999,
      "fzfg": false,
      "metar_trigger": false,
      "taf_trigger": false,
      "metar": "METAR LRBC 261600Z 36016KT CAVOK 13/M06 Q1015",
      "taf": "TAF LRBC 261400Z 2615/2624 36016KT CAVOK"
    },
    {
      "icao": "LRBS",
      "alert": "OK",
      "vis_m": 9999,
      "fzfg": false,
      "metar_trigger": false,
      "taf_trigger": false,
      "metar": "METAR LRBS 261600Z 05019KT 020V080 CAVOK 18/05 Q1010 NOSIG",
      "taf": "TAF LRBS 261100Z 2612/2712 26016KT CAVOK"
    },
    {
      "icao": "LRBV",
      "alert": "OK",
      "vis_m": 9999,
      "fzfg": false,
      "metar_trigger": false,
      "taf_trigger": false,
      "metar": "METAR LRBV 261600Z 30013KT 9999 FEW070 15/M00 Q1014",
      "taf": "TAF LRBV 261400Z 2615/2624 30014KT CAVOK"
    },
    {
      "icao": "LRCL",
      "alert": "OK",
      "vis_m": 9999,
      "fzfg": false,
      "metar_trigger": false,
      "taf_trigger": false,
      "metar": "METAR LRCL 261600Z 29017KT CAVOK 12/M07 Q1017",
      "taf": "TAF LRCL 261400Z 2615/2624 33016KT CAVOK"
    },
    {
      "icao": "LRCV",
      "alert": "OK",
      "vis_m": 9999,
      "fzfg": false,
      "metar_trigger": false,
      "taf_trigger": false,
      "metar": "METAR LRCV 261600Z 29019KT CAVOK 22/M01 Q1011",
      "taf": "TAF LRCV 261400Z 2615/2624 30020KT CAVOK"
    },
    {
      "icao": "LRIA",
      "alert": "OK",
      "vis_m": 9999,
      "fzfg": false,
      "metar_trigger": false,
      "taf_trigger": false,
      "metar": "METAR LRIA 261600Z 32017KT CAVOK 11/M06 Q1014",
      "taf": "TAF LRIA 261400Z 2615/2624 33020G30KT CAVOK"
    },
    {
      "icao": "LROP",
      "alert": "OK",
      "vis_m": 9999,
      "fzfg": false,
      "metar_trigger": false,
      "taf_trigger": false,
      "metar": "METAR LROP 261600Z 07023KT CAVOK 17/05 Q1011 WS ALL RWY NOSIG",
      "taf": "TAF LROP 261100Z 2612/2712 26016KT CAVOK"
    },
    {
      "icao": "LRSB",
      "alert": "OK",
      "vis_m": 9999,
      "fzfg": false,
      "metar_trigger": false,
      "taf_trigger": false,
      "metar": "METAR LRSB 261600Z 01013KT CAVOK 15/M02 Q1015",
      "taf": "TAF LRSB 261100Z 2612/2712 30020KT CAVOK"
    },
    {
      "icao": "LRSM",
      "alert": "OK",
      "vis_m": 9999,
      "fzfg": false,
      "metar_trigger": false,
      "taf_trigger": false,
      "metar": "METAR LRSM 261500Z AUTO 35021KT 9999 NCD 14/M07 Q1018",
      "taf": ""
    },
    {
      "icao": "LRSV",
      "alert": "OK",
      "vis_m": 9999,
      "fzfg": false,
      "metar_trigger": false,
      "taf_trigger": false,
      "metar": "METAR LRSV 261600Z 32022G32KT CAVOK 09/M07 Q1014",
      "taf": "TAF LRSV 261400Z 2615/2624 32025G35KT CAVOK"
    },
    {
      "icao": "LRTM",
      "alert": "OK",
      "vis_m": 9999,
      "fzfg": false,
      "metar_trigger": false,
      "taf_trigger": false,
      "metar": "METAR LRTM 261600Z 30018G28KT 260V330 CAVOK 14/M05 Q1016",
      "taf": "TAF LRTM 261400Z 2615/2624 30018KT CAVOK"
    },
    {
      "icao": "LRTR",
      "alert": "OK",
      "vis_m": 9999,
      "fzfg": false,
      "metar_trigger": false,
      "taf_trigger": false,
      "metar": "METAR LRTR 261600Z 02010KT CAVOK 17/01 Q1017",
      "taf": "TAF LRTR 261100Z 2612/2712 32016KT CAVOK"
    },
    {
      "icao": "LTAC",
      "alert": "OK",
      "vis_m": 9999,
      "fzfg": false,
      "metar_trigger": false,
      "taf_trigger": false,
      "metar": "METAR LTAC 261550Z 27007KT 9999 FEW040 SCT100 19/05 Q1012 NOSIG RMK RWY21C 25009KT RWY03L 26007KT RWY21R 25007KT RWY03R 24008KT RWY21L 26009KT",
      "taf": "TAF LTAC 261040Z 2612/2712 VRB02KT 9999 FEW040 SCT100"
    },
    {
      "icao": "LTFM",
      "alert": "OK",
      "vis_m": 9999,
      "fzfg": false,
      "metar_trigger": false,
      "taf_trigger": false,
      "metar": "METAR LTFM 261550Z 22011KT CAVOK 22/05 Q1011 NOSIG RMK RWY17L 21011KT RWY34L 20009KT RWY16R 21009KT RWY36 22010KT RWY18 23013KT",
      "taf": "TAF LTFM 261040Z 2612/2718 22012KT CAVOK"
    },
    {
      "icao": "LUKK",
      "alert": "OK",
      "vis_m": 9999,
      "fzfg": false,
      "metar_trigger": false,
      "taf_trigger": false,
      "metar": "METAR LUKK 261600Z 36013G25KT 320V040 CAVOK 11/M09 Q1013 NOSIG",
      "taf": "TAF LUKK 261100Z 2612/2712 32020G30KT CAVOK"
    },
    {
      "icao": "LWOH",
      "alert": "OK",
      "vis_m": 9999,
      "fzfg": false,
      "metar_trigger": false,
      "taf_trigger": false,
      "metar": "METAR LWOH 261550Z 12007KT 9999 FEW045 20/10 Q1015",
      "taf": "TAF LWOH 261430Z 2615/2715 15010KT 9999 FEW045"
    },
    {
      "icao": "LWSK",
      "alert": "OK",
      "vis_m": 9999,
      "fzfg": false,
      "metar_trigger": false,
      "taf_trigger": false,
      "metar": "METAR LWSK 261550Z 01010KT CAVOK 25/06 Q1014 NOSIG",
      "taf": "TAF LWSK 261430Z 2615/2715 01010KT CAVOK"
    },
    {
      "icao": "LYBE",
      "alert": "OK",
      "vis_m": 9999,
      "fzfg": false,
      "metar_trigger": false,
      "taf_trigger": false,
      "metar": "METAR LYBE 261600Z 35014KT CAVOK 20/M00 Q1018 NOSIG",
      "taf": "TAF LYBE 261100Z 2612/2712 33015KT CAVOK TX24/2613Z TN05/2704Z"
    },
    {
      "icao": "LYNI",
      "alert": "OK",
      "vis_m": 9999,
      "fzfg": false,
      "metar_trigger": false,
      "taf_trigger": false,
      "metar": "METAR LYNI 261600Z 33013KT 290V360 CAVOK 23/M02 Q1016 NOSIG",
      "taf": "TAF LYNI 261100Z 2612/2712 33016KT CAVOK TX24/2613Z TN04/2704Z"
    },
    {
      "icao": "LYPG",
      "alert": "OK",
      "vis_m": 9999,
      "fzfg": false,
      "metar_trigger": false,
      "taf_trigger": false,
      "metar": "METAR LYPG 261600Z 14010KT CAVOK 23/11 Q1014 NOSIG",
      "taf": "TAF LYPG 261100Z 2612/2712 16006KT CAVOK TX24/2613Z TN11/2706Z"
    },
    {
      "icao": "LZIB",
      "alert": "OK",
      "vis_m": 9999,
      "fzfg": false,
      "metar_trigger": false,
      "taf_trigger": false,
      "metar": "METAR LZIB 261600Z 36014KT CAVOK 16/M02 Q1021 NOSIG",
      "taf": "TAF LZIB 261115Z 2612/2712 33018KT CAVOK"
    },
    {
      "icao": "LZKZ",
      "alert": "OK",
      "vis_m": 9999,
      "fzfg": false,
      "metar_trigger": false,
      "taf_trigger": false,
      "metar": "METAR LZKZ 261600Z 35016KT CAVOK 13/M05 Q1019 NOSIG",
      "taf": "TAF LZKZ 261115Z 2612/2712 01020KT CAVOK"
    },
    {
      "icao": "LZTT",
      "alert": "OK",
      "vis_m": 9999,
      "fzfg": false,
      "metar_trigger": false,
      "taf_trigger": false,
      "metar": "METAR LZTT 261600Z 32009KT 260V340 9999 FEW060 09/M07 Q1019 NOSIG",
      "taf": "TAF LZTT 261115Z 2612/2712 33015KT 9999 FEW050"
    },
    {
      "icao": "OEJN",
      "alert": "OK",
      "vis_m": 9999,
      "fzfg": false,
      "metar_trigger": false,
      "taf_trigger": false,
      "metar": "METAR OEJN 261600Z 31005KT 9999 BKN040 30/21 Q1008 NOSIG",
      "taf": "TAF OEJN 261100Z 2612/2718 32010KT 9999 SCT040"
    },
    {
      "icao": "OEMA",
      "alert": "OK",
      "vis_m": 9999,
      "fzfg": false,
      "metar_trigger": false,
      "taf_trigger": false,
      "metar": "METAR OEMA 261600Z 28009KT CAVOK 35/M08 Q1011 NOSIG",
      "taf": "TAF OEMA 261100Z 2612/2718 33010KT 9999 SCT045"
    },
    {
      "icao": "OJAI",
      "alert": "OK",
      "vis_m": 5000,
      "fzfg": false,
      "metar_trigger": false,
      "taf_trigger": false,
      "metar": "METAR OJAI 261600Z 28011KT 5000 HZ FEW030 22/10 Q1013 NOSIG",
      "taf": "TAF OJAI 261100Z 2612/2718 28012KT 5000 HZ FEW030"
    },
    {
      "icao": "OMAA",
      "alert": "OK",
      "vis_m": 9999,
      "fzfg": false,
      "metar_trigger": false,
      "taf_trigger": false,
      "metar": "METAR OMAA 261600Z 28004KT CAVOK 31/18 Q1009 NOSIG",
      "taf": "TAF OMAA 261100Z 2612/2718 33012KT 8000 NSC"
    },
    {
      "icao": "OMDB",
      "alert": "OK",
      "vis_m": 9999,
      "fzfg": false,
      "metar_trigger": false,
      "taf_trigger": false,
      "metar": "METAR OMDB 261600Z 28009KT 250V310 CAVOK 33/17 Q1009 NOSIG",
      "taf": "TAF OMDB 261100Z 2612/2718 29012KT CAVOK"
    },
    {
      "icao": "UAAA",
      "alert": "OK",
      "vis_m": 9999,
      "fzfg": false,
      "metar_trigger": false,
      "taf_trigger": false,
      "metar": "METAR UAAA 261600Z 15003MPS 9999 SCT100 19/07 Q1018 NOSIG",
      "taf": "TAF UAAA 261100Z 2612/2712 03003MPS 9999 NSC TX22/2709Z TN12/2701Z"
    },
    {
      "icao": "UBBB",
      "alert": "OK",
      "vis_m": 9999,
      "fzfg": false,
      "metar_trigger": false,
      "taf_trigger": false,
      "metar": "METAR UBBB 261600Z 18012KT CAVOK 13/11 Q1015 NOSIG",
      "taf": "TAF UBBB 261109Z 2612/2712 15014KT 9999 SCT020 TX15/2612Z TN10/2701Z"
    },
    {
      "icao": "UDSG",
      "alert": "OK",
      "vis_m": 9999,
      "fzfg": false,
      "metar_trigger": false,
      "taf_trigger": false,
      "metar": "METAR UDSG 261600Z 21001KT 9999 SCT049 13/06 Q1017 NOSIG",
      "taf": "TAF UDSG 261100Z 2612/2712 35006KT 9999 SCT040"
    },
    {
      "icao": "UDYZ",
      "alert": "OK",
      "vis_m": 9999,
      "fzfg": false,
      "metar_trigger": false,
      "taf_trigger": false,
      "metar": "METAR UDYZ 261600Z VRB01KT 9999 SCT043CB 18/08 Q1013 NOSIG",
      "taf": "TAF UDYZ 261100Z 2612/2712 26006KT 9999 SCT040"
    },
    {
      "icao": "UGKO",
      "alert": "OK",
      "vis_m": 9999,
      "fzfg": false,
      "metar_trigger": false,
      "taf_trigger": false,
      "metar": "METAR UGKO 261600Z 05008KT CAVOK 22/06 Q1009 NOSIG",
      "taf": "TAF UGKO 261100Z 2612/2712 08007KT CAVOK TX24/2612Z TN12/2702Z"
    }
  ]
}