{
  "ts_utc": "2026-02-17T11:24:03Z",
  "threshold_m": 150,
  "source": "stations_override.txt (ICAO list) + aviationweather.gov (METAR/TAF raw)",
  "station_count": 159,
  "stations": [
    {
      "icao": "BIKF",
      "alert": "OK",
      "vis_m": 9999,
      "fzfg": false,
      "metar_trigger": false,
      "taf_trigger": false,
      "metar": "METAR BIKF 171100Z 06015KT CAVOK M04/M11 Q1012",
      "taf": "TAF BIKF 171030Z 1712/1812 06017KT CAVOK TXM01/1718Z TNM04/1712Z"
    },
    {
      "icao": "BKPR",
      "alert": "OK",
      "vis_m": 9999,
      "fzfg": false,
      "metar_trigger": false,
      "taf_trigger": false,
      "metar": "METAR BKPR 171100Z 33005KT 290V020 9999 SCT020 BKN045 08/05 Q0992 NOSIG",
      "taf": ""
    },
    {
      "icao": "EBCI",
      "alert": "OK",
      "vis_m": 9999,
      "fzfg": false,
      "metar_trigger": false,
      "taf_trigger": false,
      "metar": "METAR EBCI 171050Z COR 29008KT 250V330 9999 SCT015 BKN022 03/01 Q1011 NOSIG",
      "taf": "TAF EBCI 170520Z 1706/1812 28010KT 9999 FEW018 SCT025"
    },
    {
      "icao": "EDDB",
      "alert": "OK",
      "vis_m": 9999,
      "fzfg": false,
      "metar_trigger": false,
      "taf_trigger": false,
      "metar": "METAR EDDB 171050Z AUTO VRB02KT 9999 SCT010 BKN032 OVC043 M01/M05 Q1004 TEMPO BKN009",
      "taf": "TAF EDDB 170500Z 1706/1806 09005KT 9000 SCT010 BKN025"
    },
    {
      "icao": "EDDH",
      "alert": "OK",
      "vis_m": 5000,
      "fzfg": false,
      "metar_trigger": false,
      "taf_trigger": false,
      "metar": "METAR EDDH 171050Z AUTO 14007KT 110V170 5000 -SN BR OVC006 M02/M03 Q1003 TEMPO 3000",
      "taf": "TAF EDDH 170500Z 1706/1812 11004KT 6000 BKN012"
    },
    {
      "icao": "EDDK",
      "alert": "OK",
      "vis_m": 9999,
      "fzfg": false,
      "metar_trigger": false,
      "taf_trigger": false,
      "metar": "METAR EDDK 171050Z AUTO 28018KT 9999 -SHRA BKN013 FEW///TCU 04/02 Q1007 TEMPO SHRA BKN020TCU",
      "taf": "TAF EDDK 170500Z 1706/1812 27007KT 9999 BKN010"
    },
    {
      "icao": "EDDN",
      "alert": "OK",
      "vis_m": 9999,
      "fzfg": false,
      "metar_trigger": false,
      "taf_trigger": false,
      "metar": "METAR EDDN 171050Z AUTO 27012KT 9999 -SHRA BKN014 FEW///CB 04/02 Q1006 RESHRA TEMPO SCT013 BKN020",
      "taf": "TAF EDDN 170500Z 1706/1806 26009KT 9999 FEW004 BKN025"
    },
    {
      "icao": "EDDS",
      "alert": "OK",
      "vis_m": 9999,
      "fzfg": false,
      "metar_trigger": false,
      "taf_trigger": false,
      "metar": "METAR EDDS 171050Z AUTO 27014KT 230V300 9999 SCT020 BKN025 BKN032 07/02 Q1008 NOSIG",
      "taf": "TAF EDDS 170500Z 1706/1806 25010KT 9999 BKN020"
    },
    {
      "icao": "EDFH",
      "alert": "OK",
      "vis_m": 9999,
      "fzfg": false,
      "metar_trigger": false,
      "taf_trigger": false,
      "metar": "METAR EDFH 171050Z 27013KT 240V300 9999 FEW030 SCT040 03/M02 Q1007",
      "taf": ""
    },
    {
      "icao": "EDJA",
      "alert": "OK",
      "vis_m": 9999,
      "fzfg": false,
      "metar_trigger": false,
      "taf_trigger": false,
      "metar": "METAR EDJA 171050Z 25014KT 9999 FEW020 BKN040 OVC048 03/M00 Q1008",
      "taf": "TAF EDJA 170800Z 1709/1718 26012KT 9999 SCT013 BKN020"
    },
    {
      "icao": "EDLW",
      "alert": "OK",
      "vis_m": 9999,
      "fzfg": false,
      "metar_trigger": false,
      "taf_trigger": false,
      "metar": "METAR EDLW 171050Z COR 26006KT 230V300 9999 -RA BKN007 OVC019 04/03 Q1005",
      "taf": "TAF EDLW 170500Z 1706/1806 25010KT 9999 BKN012"
    },
    {
      "icao": "EDNY",
      "alert": "OK",
      "vis_m": 9999,
      "fzfg": false,
      "metar_trigger": false,
      "taf_trigger": false,
      "metar": "METAR EDNY 171050Z 24012KT 9999 SCT014 BKN024 BKN035 05/02 Q1011",
      "taf": "TAF EDNY 170800Z 1709/1718 25010KT 9999 SCT012 BKN030"
    },
    {
      "icao": "EDSB",
      "alert": "OK",
      "vis_m": 9999,
      "fzfg": false,
      "metar_trigger": false,
      "taf_trigger": false,
      "metar": "METAR EDSB 171050Z 21010KT 9999 VCSH BKN019 BKN035 07/03 Q1010",
      "taf": "TAF EDSB 170500Z 1706/1806 23008KT 9999 BKN025"
    },
    {
      "icao": "EETN",
      "alert": "OK",
      "vis_m": 9999,
      "fzfg": false,
      "metar_trigger": false,
      "taf_trigger": false,
      "metar": "METAR EETN 171120Z 17005KT CAVOK M06/M11 Q1017 NOSIG",
      "taf": "TAF EETN 170530Z 1706/1806 16006KT CAVOK"
    },
    {
      "icao": "EFTU",
      "alert": "OK",
      "vis_m": 9999,
      "fzfg": false,
      "metar_trigger": false,
      "taf_trigger": false,
      "metar": "METAR EFTU 171120Z AUTO 15004KT 9999 OVC026 M06/M07 Q1015",
      "taf": "TAF EFTU 170832Z 1709/1809 14003KT 9999 OVC024"
    },
    {
      "icao": "EGBB",
      "alert": "OK",
      "vis_m": 9999,
      "fzfg": false,
      "metar_trigger": false,
      "taf_trigger": false,
      "metar": "METAR EGBB 171050Z 31008KT CAVOK 04/M03 Q1016",
      "taf": "TAF EGBB 171056Z 1712/1812 36006KT 9999 FEW030"
    },
    {
      "icao": "EGGP",
      "alert": "OK",
      "vis_m": 9999,
      "fzfg": false,
      "metar_trigger": false,
      "taf_trigger": false,
      "metar": "METAR EGGP 171050Z 02007KT 340V040 9999 FEW039 04/M06 Q1017",
      "taf": "TAF EGGP 171058Z 1712/1812 03008KT 9999 FEW040"
    },
    {
      "icao": "EGGW",
      "alert": "OK",
      "vis_m": 9999,
      "fzfg": false,
      "metar_trigger": false,
      "taf_trigger": false,
      "metar": "METAR EGGW 171050Z AUTO 33012KT 9999 NCD 04/M02 Q1015",
      "taf": "TAF EGGW 171101Z 1712/1812 32011KT CAVOK"
    },
    {
      "icao": "EGKK",
      "alert": "OK",
      "vis_m": 9999,
      "fzfg": false,
      "metar_trigger": false,
      "taf_trigger": false,
      "metar": "METAR EGKK 171050Z 33010KT 290V360 CAVOK 05/M01 Q1016",
      "taf": "TAF EGKK 171104Z 1712/1818 32010KT 9999 FEW035"
    },
    {
      "icao": "EGNM",
      "alert": "OK",
      "vis_m": 9999,
      "fzfg": false,
      "metar_trigger": false,
      "taf_trigger": false,
      "metar": "METAR EGNM 171050Z 33013KT CAVOK 02/M05 Q1015",
      "taf": "TAF EGNM 171056Z 1712/1812 01009KT CAVOK"
    },
    {
      "icao": "EGPD",
      "alert": "OK",
      "vis_m": 9999,
      "fzfg": false,
      "metar_trigger": false,
      "taf_trigger": false,
      "metar": "METAR EGPD 171050Z COR 31011KT 9999 FEW028TCU 02/M02 Q1015 NOSIG",
      "taf": "TAF EGPD 171057Z 1712/1812 34010KT 9999 FEW030"
    },
    {
      "icao": "EGPF",
      "alert": "OK",
      "vis_m": 9999,
      "fzfg": false,
      "metar_trigger": false,
      "taf_trigger": false,
      "metar": "METAR EGPF 171050Z AUTO 25003KT 9999 NCD 03/M04 Q1017",
      "taf": "TAF EGPF 171101Z 1712/1812 VRB03KT 9999 FEW040"
    },
    {
      "icao": "EHBK",
      "alert": "OK",
      "vis_m": 9999,
      "fzfg": false,
      "metar_trigger": false,
      "taf_trigger": false,
      "metar": "METAR EHBK 171055Z AUTO 31007KT 260V350 9999 -RA FEW007 SCT017 BKN021 03/02 Q1009 REDZRA TEMPO 6000 -SHRA FEW020CB",
      "taf": "TAF EHBK 170515Z 1706/1812 25008KT 9999 BKN025"
    },
    {
      "icao": "EHEH",
      "alert": "OK",
      "vis_m": 9999,
      "fzfg": false,
      "metar_trigger": false,
      "taf_trigger": false,
      "metar": "SPECI EHEH 171101Z AUTO 26009KT 220V330 9999 FEW009 SCT016 BKN022 05/04 Q1008 WHT TEMPO 4000 RA SHRAGS SCT008 SCT012CB RMK TREND REMOTE BY EHWX",
      "taf": "TAF EHEH 170551Z 1706/1812 24008KT 9999 SCT018"
    },
    {
      "icao": "EKBI",
      "alert": "OK",
      "vis_m": 2500,
      "fzfg": false,
      "metar_trigger": false,
      "taf_trigger": false,
      "metar": "METAR EKBI 171120Z 10012KT 2500 -SN BKN010 BKN030 M03/M05 Q1004",
      "taf": "TAF EKBI 170827Z 1709/1809 11012KT 9999 BKN025"
    },
    {
      "icao": "EKCH",
      "alert": "OK",
      "vis_m": 9999,
      "fzfg": false,
      "metar_trigger": false,
      "taf_trigger": false,
      "metar": "METAR EKCH 171120Z AUTO 11012KT 9999 FEW023/// SCT096/// M02/M07 Q1007 NOSIG",
      "taf": "TAF EKCH 170827Z 1709/1809 11014KT 9999 SCT020"
    },
    {
      "icao": "ENAL",
      "alert": "OK",
      "vis_m": 1000,
      "fzfg": false,
      "metar_trigger": false,
      "taf_trigger": false,
      "metar": "METAR ENAL 171050Z 30010KT 270V340 1000 SN VV006 00/M00 Q1004",
      "taf": "TAF ENAL 170800Z 1709/1718 20012KT 9999 -SN SCT015 BKN030"
    },
    {
      "icao": "ENBR",
      "alert": "OK",
      "vis_m": 9999,
      "fzfg": false,
      "metar_trigger": false,
      "taf_trigger": false,
      "metar": "METAR ENBR 171050Z 15011KT 9999 -SN FEW012 BKN019 M02/M04 Q1007 TEMPO 0500 SHSN VV005 RMK WIND 1200FT 16020KT",
      "taf": ""
    },
    {
      "icao": "ENGM",
      "alert": "OK",
      "vis_m": 9999,
      "fzfg": false,
      "metar_trigger": false,
      "taf_trigger": false,
      "metar": "METAR ENGM 171050Z VRB01KT 9999 -SN OVC027 M07/M10 Q1009 NOSIG",
      "taf": "TAF ENGM 170500Z 1706/1806 VRB03KT 9999 BKN020"
    },
    {
      "icao": "ENHD",
      "alert": "OK",
      "vis_m": 9999,
      "fzfg": false,
      "metar_trigger": false,
      "taf_trigger": false,
      "metar": "METAR ENHD 171050Z 15008KT 9999 SCT048 00/M08 Q1008",
      "taf": "TAF ENHD 170800Z 1709/1718 09005KT 9999 BKN040"
    },
    {
      "icao": "ENTC",
      "alert": "OK",
      "vis_m": 9999,
      "fzfg": false,
      "metar_trigger": false,
      "taf_trigger": false,
      "metar": "METAR ENTC 171050Z 23009KT 9999 SCT027 BKN060 M04/M10 Q1001 NOSIG RMK WIND 2600FT 17014KT",
      "taf": "TAF ENTC 170500Z 1706/1806 21010KT 9999 BKN050"
    },
    {
      "icao": "ENTO",
      "alert": "OK",
      "vis_m": 9999,
      "fzfg": false,
      "metar_trigger": false,
      "taf_trigger": false,
      "metar": "METAR ENTO 171050Z 01006KT 9999 -SN BKN019 OVC027 M06/M08 Q1010 NOSIG",
      "taf": "TAF ENTO 170500Z 1706/1806 01005KT 9999 BKN030"
    },
    {
      "icao": "ENVA",
      "alert": "OK",
      "vis_m": 9999,
      "fzfg": false,
      "metar_trigger": false,
      "taf_trigger": false,
      "metar": "METAR ENVA 171050Z 11005KT 9999 SCT048 M02/M12 Q1003 TEMPO 3000 -SN BKN012 RMK WIND 670FT 16013KT",
      "taf": "TAF ENVA 170500Z 1706/1806 12008KT CAVOK"
    },
    {
      "icao": "ENZV",
      "alert": "OK",
      "vis_m": 9999,
      "fzfg": false,
      "metar_trigger": false,
      "taf_trigger": false,
      "metar": "METAR ENZV 171050Z 11006KT 090V160 CAVOK 00/M10 Q1008 NOSIG",
      "taf": "TAF ENZV 170500Z 1706/1806 07008KT 9999 BKN045"
    },
    {
      "icao": "EPGD",
      "alert": "OK",
      "vis_m": 4300,
      "fzfg": false,
      "metar_trigger": false,
      "taf_trigger": false,
      "metar": "METAR EPGD 171100Z 10008KT 070V130 4300 -SN BR BKN015 M09/M11 Q1005 RESN",
      "taf": ""
    },
    {
      "icao": "EPKK",
      "alert": "OK",
      "vis_m": 8000,
      "fzfg": false,
      "metar_trigger": false,
      "taf_trigger": false,
      "metar": "METAR EPKK 171100Z VRB01KT 8000 BKN030 03/M03 Q1002",
      "taf": "TAF EPKK 170830Z 1709/1809 07003KT 7000 BKN020"
    },
    {
      "icao": "EPKT",
      "alert": "OK",
      "vis_m": 9999,
      "fzfg": false,
      "metar_trigger": false,
      "taf_trigger": false,
      "metar": "METAR EPKT 171100Z 21006KT 9999 BKN011 00/M02 Q1002",
      "taf": "TAF EPKT 170530Z 1706/1806 18004KT 7000 BKN025"
    },
    {
      "icao": "EPLB",
      "alert": "OK",
      "vis_m": 9999,
      "fzfg": false,
      "metar_trigger": false,
      "taf_trigger": false,
      "metar": "METAR EPLB 171100Z 10011KT 9999 OVC037 M06/M08 Q1005",
      "taf": "TAF EPLB 170530Z 1706/1806 12012KT 9999 BKN030"
    },
    {
      "icao": "EPMO",
      "alert": "OK",
      "vis_m": 9000,
      "fzfg": false,
      "metar_trigger": false,
      "taf_trigger": false,
      "metar": "METAR EPMO 171100Z 11009KT 9000 -SN OVC011 M06/M07 Q1005",
      "taf": "TAF EPMO 170530Z 1706/1806 10012KT 8000 -SN SCT012 BKN030"
    },
    {
      "icao": "EPPO",
      "alert": "OK",
      "vis_m": 8000,
      "fzfg": false,
      "metar_trigger": false,
      "taf_trigger": false,
      "metar": "METAR EPPO 171100Z VRB02KT 8000 OVC012 M04/M07 Q1004",
      "taf": ""
    },
    {
      "icao": "EPRA",
      "alert": "OK",
      "vis_m": 9999,
      "fzfg": false,
      "metar_trigger": false,
      "taf_trigger": false,
      "metar": "METAR EPRA 171100Z 11008KT 9999 -SN FEW011 OVC020 M04/M07 Q1004",
      "taf": "TAF EPRA 170830Z 1709/1718 13010KT 9999 BKN020"
    },
    {
      "icao": "EPRZ",
      "alert": "OK",
      "vis_m": 9999,
      "fzfg": false,
      "metar_trigger": false,
      "taf_trigger": false,
      "metar": "METAR EPRZ 171100Z 08008KT CAVOK M02/M05 Q1003",
      "taf": "TAF EPRZ 170530Z 1706/1806 09008KT 7000 OVC038"
    },
    {
      "icao": "EPSC",
      "alert": "OK",
      "vis_m": 9999,
      "fzfg": false,
      "metar_trigger": false,
      "taf_trigger": false,
      "metar": "METAR EPSC 171100Z VRB02KT 9999 OVC013 M05/M09 Q1005",
      "taf": ""
    },
    {
      "icao": "EPSY",
      "alert": "OK",
      "vis_m": 9000,
      "fzfg": false,
      "metar_trigger": false,
      "taf_trigger": false,
      "metar": "METAR EPSY 171100Z 11007KT 040V170 9000 -SN OVC022 M07/M12 Q1006",
      "taf": "TAF EPSY 170830Z 1709/1718 12012KT 7000 -SN BKN020"
    },
    {
      "icao": "EPWA",
      "alert": "OK",
      "vis_m": 9999,
      "fzfg": false,
      "metar_trigger": false,
      "taf_trigger": false,
      "metar": "METAR EPWA 171100Z 11011KT 9999 -SN BKN013 M06/M08 Q1005 NOSIG",
      "taf": "TAF EPWA 170830Z 1709/1809 12010KT 9999 BKN012"
    },
    {
      "icao": "EPWR",
      "alert": "OK",
      "vis_m": 3500,
      "fzfg": false,
      "metar_trigger": false,
      "taf_trigger": false,
      "metar": "METAR EPWR 171100Z 26003KT 230V290 3500 -SN BR SCT008 BKN011 M01/M02 Q1003",
      "taf": ""
    },
    {
      "icao": "ESGG",
      "alert": "OK",
      "vis_m": 9999,
      "fzfg": false,
      "metar_trigger": false,
      "taf_trigger": false,
      "metar": "METAR ESGG 171050Z 10007KT 070V140 CAVOK M04/M10 Q1007",
      "taf": "TAF ESGG 170830Z 1709/1809 11009KT CAVOK"
    },
    {
      "icao": "ESKN",
      "alert": "OK",
      "vis_m": 9999,
      "fzfg": false,
      "metar_trigger": false,
      "taf_trigger": false,
      "metar": "METAR ESKN 171050Z 13012KT CAVOK M02/M10 Q1012",
      "taf": "TAF ESKN 170830Z 1709/1809 14010KT 9999 BKN040"
    },
    {
      "icao": "ESMS",
      "alert": "OK",
      "vis_m": 9999,
      "fzfg": false,
      "metar_trigger": false,
      "taf_trigger": false,
      "metar": "METAR ESMS 171050Z 11010KT CAVOK M03/M08 Q1005",
      "taf": "TAF ESMS 170827Z 1709/1809 10010KT 9999 SCT025"
    },
    {
      "icao": "ESSA",
      "alert": "OK",
      "vis_m": 5000,
      "fzfg": false,
      "metar_trigger": false,
      "taf_trigger": false,
      "metar": "METAR ESSA 171050Z 17010KT 5000 -SN BKN014 BKN031 M03/M06 Q1012 NOSIG",
      "taf": ""
    },
    {
      "icao": "EYKA",
      "alert": "OK",
      "vis_m": 9999,
      "fzfg": false,
      "metar_trigger": false,
      "taf_trigger": false,
      "metar": "METAR EYKA 171120Z 08010KT CAVOK M09/M20 Q1013",
      "taf": "TAF EYKA 171100Z 1712/1812 09008KT CAVOK"
    },
    {
      "icao": "EYPA",
      "alert": "OK",
      "vis_m": 9999,
      "fzfg": false,
      "metar_trigger": false,
      "taf_trigger": false,
      "metar": "METAR EYPA 171120Z 10011KT CAVOK M07/M19 Q1011",
      "taf": "TAF EYPA 171100Z 1712/1812 10010KT CAVOK"
    },
    {
      "icao": "EYVI",
      "alert": "OK",
      "vis_m": 9999,
      "fzfg": false,
      "metar_trigger": false,
      "taf_trigger": false,
      "metar": "METAR EYVI 171120Z 09006KT CAVOK M12/M21 Q1012 NOSIG",
      "taf": "TAF EYVI 171100Z 1712/1812 09008KT 9000 NSC"
    },
    {
      "icao": "GCFV",
      "alert": "OK",
      "vis_m": 9999,
      "fzfg": false,
      "metar_trigger": false,
      "taf_trigger": false,
      "metar": "METAR GCFV 171100Z 08005KT 030V150 9999 SCT014 18/14 Q1026",
      "taf": ""
    },
    {
      "icao": "GCLP",
      "alert": "OK",
      "vis_m": 9999,
      "fzfg": false,
      "metar_trigger": false,
      "taf_trigger": false,
      "metar": "METAR GCLP 171100Z 05010KT CAVOK 20/15 Q1025 NOSIG",
      "taf": ""
    },
    {
      "icao": "GCTS",
      "alert": "OK",
      "vis_m": 8000,
      "fzfg": false,
      "metar_trigger": false,
      "taf_trigger": false,
      "metar": "METAR GCTS 171100Z 09007KT 8000 NSC 22/12 Q1025 NOSIG",
      "taf": ""
    },
    {
      "icao": "GMAD",
      "alert": "OK",
      "vis_m": 9999,
      "fzfg": false,
      "metar_trigger": false,
      "taf_trigger": false,
      "metar": "METAR GMAD 171100Z 00000KT CAVOK 22/09 Q1024 NOSIG",
      "taf": "TAF GMAD 171100Z 1712/1818 28014KT CAVOK"
    },
    {
      "icao": "GMMN",
      "alert": "OK",
      "vis_m": 9999,
      "fzfg": false,
      "metar_trigger": false,
      "taf_trigger": false,
      "metar": "METAR GMMN 171100Z 02008KT 340V050 CAVOK 15/12 Q1026 NOSIG",
      "taf": "TAF GMMN 171100Z 1712/1818 02008KT CAVOK"
    },
    {
      "icao": "GMMX",
      "alert": "OK",
      "vis_m": 9999,
      "fzfg": false,
      "metar_trigger": false,
      "taf_trigger": false,
      "metar": "METAR GMMX 171100Z VRB02KT CAVOK 20/08 Q1025 NOSIG",
      "taf": "TAF GMMX 170500Z 1706/1812 06006KT CAVOK"
    },
    {
      "icao": "HEGN",
      "alert": "OK",
      "vis_m": 4000,
      "fzfg": false,
      "metar_trigger": false,
      "taf_trigger": false,
      "metar": "METAR HEGN 171000Z 36016KT 4000 SA NSC 25/12 Q1012 NOSIG",
      "taf": "TAF HEGN 171100Z 1712/1818 34012G22KT 6000 NSC"
    },
    {
      "icao": "HEMA",
      "alert": "OK",
      "vis_m": 9999,
      "fzfg": false,
      "metar_trigger": false,
      "taf_trigger": false,
      "metar": "METAR HEMA 171000Z 34022KT CAVOK 27/12 Q1013 NOSIG",
      "taf": "TAF HEMA 171100Z 1712/1818 35012G22KT CAVOK"
    },
    {
      "icao": "HESH",
      "alert": "OK",
      "vis_m": 9999,
      "fzfg": false,
      "metar_trigger": false,
      "taf_trigger": false,
      "metar": "METAR HESH 171000Z 36010KT CAVOK 28/11 Q1012 NOSIG",
      "taf": "TAF HESH 171100Z 1712/1818 01015KT 6000 NSC"
    },
    {
      "icao": "HESX",
      "alert": "OK",
      "vis_m": 9999,
      "fzfg": false,
      "metar_trigger": false,
      "taf_trigger": false,
      "metar": "METAR HESX 171000Z 28010KT CAVOK 20/06 Q1015 NOSIG",
      "taf": "TAF HESX 171100Z 1712/1818 28012KT 6000 NSC"
    },
    {
      "icao": "LATI",
      "alert": "OK",
      "vis_m": 9999,
      "fzfg": false,
      "metar_trigger": false,
      "taf_trigger": false,
      "metar": "METAR LATI 171120Z 13008KT 100V160 9999 FEW020CB SCT035 BKN055 11/07 Q0993 NOSIG",
      "taf": "TAF LATI 171100Z 1712/1812 24005KT 9999 SCT030 BKN060 TX13/1811Z TN02/1805Z"
    },
    {
      "icao": "LBPD",
      "alert": "OK",
      "vis_m": 5000,
      "fzfg": false,
      "metar_trigger": false,
      "taf_trigger": false,
      "metar": "METAR LBPD 171100Z AUTO 25004KT 5000 BR OVC004/// 06/06 Q0994 TEMPO 3000 BR OVC002",
      "taf": "TAF LBPD 171100Z 1712/1812 28014KT 9999 BKN005 OVC010"
    },
    {
      "icao": "LBSF",
      "alert": "OK",
      "vis_m": 9999,
      "fzfg": false,
      "metar_trigger": false,
      "taf_trigger": false,
      "metar": "METAR LBSF 171100Z 12011KT 9999 SCT015 BKN017 OVC021 06/03 Q0993 TEMPO 5000 RA",
      "taf": "TAF LBSF 171100Z 1712/1812 11014KT 9999 SCT015 OVC020"
    },
    {
      "icao": "LBWN",
      "alert": "OK",
      "vis_m": 9999,
      "fzfg": false,
      "metar_trigger": false,
      "taf_trigger": false,
      "metar": "METAR LBWN 171100Z 08014KT 9999 BKN008 OVC019 08/08 Q0998 NOSIG",
      "taf": "TAF LBWN 171100Z 1712/1812 07014KT 9999 BKN010 OVC015"
    },
    {
      "icao": "LCLK",
      "alert": "OK",
      "vis_m": 9999,
      "fzfg": false,
      "metar_trigger": false,
      "taf_trigger": false,
      "metar": "METAR LCLK 171100Z 22021KT 9999 FEW030 20/15 Q1009 NOSIG",
      "taf": "TAF LCLK 170530Z 1706/1806 24006KT 7000 FEW025"
    },
    {
      "icao": "LCPH",
      "alert": "OK",
      "vis_m": 9999,
      "fzfg": false,
      "metar_trigger": false,
      "taf_trigger": false,
      "metar": "METAR LCPH 171100Z 26010KT 9999 FEW020 FEW035TCU 19/13 Q1010 TEMPO 5000 SHRA SCT030TCU",
      "taf": "TAF LCPH 170530Z 1706/1806 29012KT 7000 FEW020"
    },
    {
      "icao": "LEAL",
      "alert": "OK",
      "vis_m": 9999,
      "fzfg": false,
      "metar_trigger": false,
      "taf_trigger": false,
      "metar": "METAR LEAL 171100Z 30019KT 270V330 CAVOK 22/09 Q1023 NOSIG",
      "taf": ""
    },
    {
      "icao": "LEBB",
      "alert": "OK",
      "vis_m": 9999,
      "fzfg": false,
      "metar_trigger": false,
      "taf_trigger": false,
      "metar": "METAR LEBB 171100Z 09004KT 060V130 9999 BKN020 OVC025 11/11 Q1023 NOSIG",
      "taf": "TAF LEBB 170500Z 1706/1806 14005KT 9999 BKN020 TX15/1715Z TN08/1804Z"
    },
    {
      "icao": "LEBL",
      "alert": "OK",
      "vis_m": 9999,
      "fzfg": false,
      "metar_trigger": false,
      "taf_trigger": false,
      "metar": "METAR LEBL 171100Z 09009KT 9999 FEW030 15/10 Q1020 NOSIG",
      "taf": "TAF LEBL 170500Z 1706/1806 34008KT 9999 FEW030 TX18/1713Z TN09/1806Z"
    },
    {
      "icao": "LECH",
      "alert": "OK",
      "vis_m": 9999,
      "fzfg": false,
      "metar_trigger": false,
      "taf_trigger": false,
      "metar": "METAR LECH 171100Z AUTO 24004KT 200V270 9999 OVC060 17/09 Q1022",
      "taf": ""
    },
    {
      "icao": "LEMD",
      "alert": "OK",
      "vis_m": 9999,
      "fzfg": false,
      "metar_trigger": false,
      "taf_trigger": false,
      "metar": "METAR LEMD 171100Z 24013KT 9999 SCT055 15/08 Q1025 NOSIG",
      "taf": ""
    },
    {
      "icao": "LEMG",
      "alert": "OK",
      "vis_m": 9999,
      "fzfg": false,
      "metar_trigger": false,
      "taf_trigger": false,
      "metar": "METAR LEMG 171100Z 29020KT 250V310 CAVOK 19/10 Q1025 NOSIG",
      "taf": "TAF LEMG 170500Z 1706/1806 29015KT CAVOK TX24/1714Z TN11/1707Z"
    },
    {
      "icao": "LEVC",
      "alert": "OK",
      "vis_m": 9999,
      "fzfg": false,
      "metar_trigger": false,
      "taf_trigger": false,
      "metar": "METAR LEVC 171100Z 27017KT 9999 FEW045 21/09 Q1022 NOSIG",
      "taf": "TAF LEVC 170500Z 1706/1806 27012KT 9999 FEW050 TX24/1714Z TN15/1706Z"
    },
    {
      "icao": "LEXJ",
      "alert": "OK",
      "vis_m": 9999,
      "fzfg": false,
      "metar_trigger": false,
      "taf_trigger": false,
      "metar": "METAR LEXJ 171100Z 25007KT 9999 SCT019 BKN057 13/11 Q1023",
      "taf": "TAF LEXJ 170800Z 1709/1809 22009KT 9999 BKN030 TX16/1714Z TN09/1803Z"
    },
    {
      "icao": "LEZG",
      "alert": "OK",
      "vis_m": 9999,
      "fzfg": false,
      "metar_trigger": false,
      "taf_trigger": false,
      "metar": "METAR LEZG 171100Z 31007KT 260V010 9999 FEW045 BKN070 13/08 Q1023 NOSIG",
      "taf": "TAF LEZG 170500Z 1706/1806 29010KT 9999 SCT030 TX17/1714Z TN09/1706Z"
    },
    {
      "icao": "LEZL",
      "alert": "OK",
      "vis_m": 9999,
      "fzfg": false,
      "metar_trigger": false,
      "taf_trigger": false,
      "metar": "METAR LEZL 171100Z 05006KT 9999 OVC023 16/11 Q1028 NOSIG",
      "taf": "TAF LEZL 170800Z 1709/1809 05007KT 9999 SCT030 TX19/1715Z TN12/1807Z"
    },
    {
      "icao": "LFBD",
      "alert": "OK",
      "vis_m": 9999,
      "fzfg": false,
      "metar_trigger": false,
      "taf_trigger": false,
      "metar": "METAR LFBD 171100Z AUTO 23006KT 9999 FEW020 BKN034 BKN052 12/08 Q1021 TEMPO 4000 SHRA BKN020TCU",
      "taf": "TAF LFBD 170500Z 1706/1812 27005KT CAVOK TX16/1812Z TN06/1706Z"
    },
    {
      "icao": "LFLL",
      "alert": "OK",
      "vis_m": 9999,
      "fzfg": false,
      "metar_trigger": false,
      "taf_trigger": false,
      "metar": "METAR LFLL 171100Z 29003KT 230V340 9999 -RA FEW025 SCT033 BKN046 08/04 Q1017 NOSIG",
      "taf": "TAF LFLL 171100Z 1712/1818 31008KT 9999 BKN040"
    },
    {
      "icao": "LFLS",
      "alert": "OK",
      "vis_m": 9999,
      "fzfg": false,
      "metar_trigger": false,
      "taf_trigger": false,
      "metar": "METAR LFLS 171100Z AUTO 24006KT 210V280 9999 FEW021 BKN042 BKN054 08/04 Q1017 TEMPO 4000 SHRA SCT020TCU BKN030",
      "taf": "TAF LFLS 170800Z 1709/1809 VRB03KT 9999 BKN030"
    },
    {
      "icao": "LFMN",
      "alert": "OK",
      "vis_m": 9999,
      "fzfg": false,
      "metar_trigger": false,
      "taf_trigger": false,
      "metar": "METAR LFMN 171100Z 29014KT CAVOK 17/M03 Q1010 NOSIG",
      "taf": "TAF LFMN 170800Z 1709/1815 34012KT CAVOK"
    },
    {
      "icao": "LFOB",
      "alert": "OK",
      "vis_m": 9999,
      "fzfg": false,
      "metar_trigger": false,
      "taf_trigger": false,
      "metar": "METAR LFOB 171100Z AUTO 31019KT 9999 BKN041 BKN048 07/M01 Q1015 BECMG 30008KT",
      "taf": "TAF LFOB 171100Z 1712/1812 30008KT CAVOK"
    },
    {
      "icao": "LFPO",
      "alert": "OK",
      "vis_m": 9999,
      "fzfg": false,
      "metar_trigger": false,
      "taf_trigger": false,
      "metar": "METAR LFPO 171100Z 31014KT 280V350 9999 BKN040 08/M00 Q1016 NOSIG",
      "taf": "TAF LFPO 170500Z 1706/1812 28010KT 9999 FEW025 BKN060"
    },
    {
      "icao": "LFSB",
      "alert": "OK",
      "vis_m": 9999,
      "fzfg": false,
      "metar_trigger": false,
      "taf_trigger": false,
      "metar": "METAR LFSB 171100Z AUTO 26013KT 9999 FEW009/// BKN049/// OVC100/// //////TCU 06/04 Q1012 TEMPO 29015G30KT 3000 SHRA FEW030CB",
      "taf": "TAF LFSB 171100Z 1712/1812 26015KT 9999 FEW020 BKN040"
    },
    {
      "icao": "LGAV",
      "alert": "OK",
      "vis_m": 5000,
      "fzfg": false,
      "metar_trigger": false,
      "taf_trigger": false,
      "metar": "METAR LGAV 171020Z 27011KT 5000 RA FEW012 FEW018TCU BKN025 OVC060 13/10 Q0997 NOSIG",
      "taf": "TAF LGAV 171100Z 1712/1812 24012KT 9999 SCT020 BKN070"
    },
    {
      "icao": "LGTS",
      "alert": "OK",
      "vis_m": 9999,
      "fzfg": false,
      "metar_trigger": false,
      "taf_trigger": false,
      "metar": "METAR LGTS 171050Z 28007KT 9999 FEW007 BKN020 11/11 Q0992 NOSIG",
      "taf": "TAF LGTS 171100Z 1712/1812 12015KT 9999 FEW012 BKN030"
    },
    {
      "icao": "LHBP",
      "alert": "OK",
      "vis_m": 7000,
      "fzfg": false,
      "metar_trigger": false,
      "taf_trigger": false,
      "metar": "METAR LHBP 171100Z 34006KT 310V010 7000 BKN012 BKN024 02/M01 Q1003 BECMG SCT014 BKN025",
      "taf": ""
    },
    {
      "icao": "LHDC",
      "alert": "OK",
      "vis_m": 9999,
      "fzfg": false,
      "metar_trigger": false,
      "taf_trigger": false,
      "metar": "METAR LHDC 171045Z AUTO 02009KT 340V050 CAVOK 03/M02 Q1002 NOSIG",
      "taf": "TAF LHDC 170815Z 1709/1718 02008KT 9999 BKN035"
    },
    {
      "icao": "LIBD",
      "alert": "OK",
      "vis_m": 9999,
      "fzfg": false,
      "metar_trigger": false,
      "taf_trigger": false,
      "metar": "METAR LIBD 171050Z 29014G24KT 9999 FEW015 BKN030 10/06 Q0998",
      "taf": "TAF LIBD 171100Z 1712/1812 32020G35KT 9999 SCT030"
    },
    {
      "icao": "LIBG",
      "alert": "OK",
      "vis_m": 5000,
      "fzfg": false,
      "metar_trigger": false,
      "taf_trigger": false,
      "metar": "SPECI LIBG 171111Z 31008KT 5000 RA SCT010 SCT025 09/07 Q0998",
      "taf": "TAF LIBG 171100Z 1712/1721 32023G38KT 9999 SCT020"
    },
    {
      "icao": "LIBP",
      "alert": "OK",
      "vis_m": 9999,
      "fzfg": false,
      "metar_trigger": false,
      "taf_trigger": false,
      "metar": "METAR LIBP 171050Z AUTO 35012KT 310V030 9999 NCD 14/04 Q1004",
      "taf": "TAF LIBP 171100Z 1712/1812 35013KT CAVOK"
    },
    {
      "icao": "LIBR",
      "alert": "OK",
      "vis_m": 9999,
      "fzfg": false,
      "metar_trigger": false,
      "taf_trigger": false,
      "metar": "METAR LIBR 171050Z 33020KT 9999 BKN020 11/06 Q0996",
      "taf": "TAF LIBR 171100Z 1712/1812 32028G45KT 9999 SCT030"
    },
    {
      "icao": "LICA",
      "alert": "OK",
      "vis_m": 9999,
      "fzfg": false,
      "metar_trigger": false,
      "taf_trigger": false,
      "metar": "METAR LICA 171050Z AUTO 28026G36KT 9999 NCD 14/07 Q1001",
      "taf": "TAF LICA 171100Z 1712/1812 29025G43KT 9999 SCT020"
    },
    {
      "icao": "LICC",
      "alert": "OK",
      "vis_m": 9999,
      "fzfg": false,
      "metar_trigger": false,
      "taf_trigger": false,
      "metar": "METAR LICC 171050Z 32022G32KT 9999 FEW050 16/12 Q1004",
      "taf": "TAF LICC 171100Z 1712/1812 29020G35KT 9999 FEW040"
    },
    {
      "icao": "LICJ",
      "alert": "OK",
      "vis_m": 9999,
      "fzfg": false,
      "metar_trigger": false,
      "taf_trigger": false,
      "metar": "METAR LICJ 171050Z 31026KT 9999 SCT030 15/08 Q1009",
      "taf": "TAF LICJ 171100Z 1712/1812 30026G45KT 9999 SCT025"
    },
    {
      "icao": "LIMC",
      "alert": "OK",
      "vis_m": 9999,
      "fzfg": false,
      "metar_trigger": false,
      "taf_trigger": false,
      "metar": "METAR LIMC 171050Z VRB03KT CAVOK 13/M00 Q1008 NOSIG",
      "taf": "TAF LIMC 171100Z 1712/1818 31012KT 9999 FEW040"
    },
    {
      "icao": "LIME",
      "alert": "OK",
      "vis_m": 9999,
      "fzfg": false,
      "metar_trigger": false,
      "taf_trigger": false,
      "metar": "METAR LIME 171050Z 29014KT CAVOK 13/M05 Q1006 NOSIG",
      "taf": "TAF LIME 171100Z 1712/1812 29013KT 9999 FEW040"
    },
    {
      "icao": "LIMF",
      "alert": "OK",
      "vis_m": 9999,
      "fzfg": false,
      "metar_trigger": false,
      "taf_trigger": false,
      "metar": "METAR LIMF 171050Z 29013KT CAVOK 14/M06 Q1008",
      "taf": "TAF LIMF 171100Z 1712/1812 28012KT CAVOK"
    },
    {
      "icao": "LIMJ",
      "alert": "OK",
      "vis_m": 9999,
      "fzfg": false,
      "metar_trigger": false,
      "taf_trigger": false,
      "metar": "METAR LIMJ 171050Z 01011KT CAVOK 17/M07 Q1008",
      "taf": "TAF LIMJ 171100Z 1712/1812 01018G28KT CAVOK"
    },
    {
      "icao": "LIPE",
      "alert": "OK",
      "vis_m": 9999,
      "fzfg": false,
      "metar_trigger": false,
      "taf_trigger": false,
      "metar": "METAR LIPE 171050Z 29016KT CAVOK 14/M01 Q1006",
      "taf": "TAF LIPE 171100Z 1712/1812 30018G30KT CAVOK"
    },
    {
      "icao": "LIPH",
      "alert": "OK",
      "vis_m": 9999,
      "fzfg": false,
      "metar_trigger": false,
      "taf_trigger": false,
      "metar": "METAR LIPH 171050Z VRB02KT CAVOK 13/01 Q1004",
      "taf": "TAF LIPH 171100Z 1712/1812 VRB05KT CAVOK"
    },
    {
      "icao": "LIPQ",
      "alert": "OK",
      "vis_m": 9999,
      "fzfg": false,
      "metar_trigger": false,
      "taf_trigger": false,
      "metar": "METAR LIPQ 171050Z AUTO 24005KT 210V300 9999 NCD 12/03 Q1004",
      "taf": "TAF LIPQ 171100Z 1712/1812 VRB05KT CAVOK"
    },
    {
      "icao": "LIPR",
      "alert": "OK",
      "vis_m": 9999,
      "fzfg": false,
      "metar_trigger": false,
      "taf_trigger": false,
      "metar": "METAR LIPR 171050Z 32018KT CAVOK 13/M00 Q1005",
      "taf": "TAF LIPR 171100Z 1712/1812 31016KT CAVOK"
    },
    {
      "icao": "LIPX",
      "alert": "OK",
      "vis_m": 9999,
      "fzfg": false,
      "metar_trigger": false,
      "taf_trigger": false,
      "metar": "METAR LIPX 171050Z 28012KT CAVOK 13/01 Q1005",
      "taf": "TAF LIPX 171100Z 1712/1812 28014KT 9999 FEW040"
    },
    {
      "icao": "LIPY",
      "alert": "OK",
      "vis_m": 9999,
      "fzfg": false,
      "metar_trigger": false,
      "taf_trigger": false,
      "metar": "METAR LIPY 171050Z AUTO 33016KT 9999 NCD 12/04 Q1006",
      "taf": "TAF LIPY 171100Z 1712/1812 32015KT CAVOK"
    },
    {
      "icao": "LIPZ",
      "alert": "OK",
      "vis_m": 9999,
      "fzfg": false,
      "metar_trigger": false,
      "taf_trigger": false,
      "metar": "METAR LIPZ 171050Z 22005KT 190V250 CAVOK 12/02 Q1004 NOSIG",
      "taf": "TAF LIPZ 171100Z 1712/1818 27010KT CAVOK"
    },
    {
      "icao": "LIRF",
      "alert": "OK",
      "vis_m": 9999,
      "fzfg": false,
      "metar_trigger": false,
      "taf_trigger": false,
      "metar": "METAR LIRF 171050Z 30013KT CAVOK 15/03 Q1006 NOSIG",
      "taf": "TAF LIRF 171100Z 1712/1818 32015KT CAVOK"
    },
    {
      "icao": "LIRN",
      "alert": "OK",
      "vis_m": 9999,
      "fzfg": false,
      "metar_trigger": false,
      "taf_trigger": false,
      "metar": "METAR LIRN 171050Z 34012KT 310V020 9999 FEW070 14/03 Q1003 NOSIG",
      "taf": "TAF LIRN 171100Z 1712/1812 34010KT 9999 SCT040"
    },
    {
      "icao": "LIRP",
      "alert": "OK",
      "vis_m": 9999,
      "fzfg": false,
      "metar_trigger": false,
      "taf_trigger": false,
      "metar": "METAR LIRP 171045Z 28011KT CAVOK 14/01 Q1006 NOSIG",
      "taf": "TAF LIRP 171100Z 1712/1812 30010KT CAVOK"
    },
    {
      "icao": "LIRZ",
      "alert": "OK",
      "vis_m": 9999,
      "fzfg": false,
      "metar_trigger": false,
      "taf_trigger": false,
      "metar": "METAR LIRZ 171050Z AUTO 31004KT 230V030 9999 NCD 12/M00 Q1006",
      "taf": "TAF LIRZ 171100Z 1712/1812 31010KT 9999 FEW050"
    },
    {
      "icao": "LJLJ",
      "alert": "OK",
      "vis_m": 1500,
      "fzfg": false,
      "metar_trigger": false,
      "taf_trigger": false,
      "metar": "METAR LJLJ 171100Z 16001KT 1500 0800SE PRFG BR SCT001 BKN003 02/02 Q1004 BECMG 5000 BR SCT001",
      "taf": "TAF LJLJ 171100Z 1712/1812 VRB02KT 4000 BR FEW003"
    },
    {
      "icao": "LKMT",
      "alert": "OK",
      "vis_m": 6000,
      "fzfg": false,
      "metar_trigger": false,
      "taf_trigger": false,
      "metar": "METAR LKMT 171100Z 23009KT 6000 -SN NSC 01/M01 Q1003 NOSIG",
      "taf": "TAF LKMT 171100Z 1712/1812 22008KT 4300 BR BKN035"
    },
    {
      "icao": "LKPR",
      "alert": "OK",
      "vis_m": 9999,
      "fzfg": false,
      "metar_trigger": false,
      "taf_trigger": false,
      "metar": "METAR LKPR 171100Z 26006KT 9999 FEW010 BKN025 03/00 Q1003 NOSIG",
      "taf": "TAF LKPR 171100Z 1712/1818 27010KT 9999 BKN025"
    },
    {
      "icao": "LLBG",
      "alert": "OK",
      "vis_m": 9000,
      "fzfg": false,
      "metar_trigger": false,
      "taf_trigger": false,
      "metar": "METAR LLBG 171050Z 24008KT 9000 FEW020 SCT040 19/14 Q1013 NOSIG",
      "taf": "TAF LLBG 171100Z 1712/1812 25012KT 8000 FEW030"
    },
    {
      "icao": "LMML",
      "alert": "OK",
      "vis_m": 9999,
      "fzfg": false,
      "metar_trigger": false,
      "taf_trigger": false,
      "metar": "METAR LMML 171115Z 28034G48KT 9999 FEW017TCU 16/09 Q1009 NOSIG",
      "taf": "TAF LMML 171100Z 1712/1812 28030G43KT 9999 FEW018"
    },
    {
      "icao": "LOWW",
      "alert": "OK",
      "vis_m": 9999,
      "fzfg": false,
      "metar_trigger": false,
      "taf_trigger": false,
      "metar": "METAR LOWW 171050Z 31013KT 9999 FEW013 SCT019 BKN040 04/02 Q1004 NOSIG",
      "taf": "TAF LOWW 171115Z 1712/1818 29010KT 9999 FEW010 BKN030 TX06/1813Z TN02/1818Z"
    },
    {
      "icao": "LPFR",
      "alert": "OK",
      "vis_m": 9999,
      "fzfg": false,
      "metar_trigger": false,
      "taf_trigger": false,
      "metar": "METAR LPFR 171100Z 23003KT 200V270 9999 FEW012 BKN015 13/11 Q1028",
      "taf": "TAF LPFR 171100Z 1712/1812 22007KT 9999 BKN015"
    },
    {
      "icao": "LPMA",
      "alert": "OK",
      "vis_m": 9999,
      "fzfg": false,
      "metar_trigger": false,
      "taf_trigger": false,
      "metar": "METAR LPMA 171100Z VRB04KT 9999 FEW014 17/12 Q1028",
      "taf": "TAF LPMA 171100Z 1712/1812 VRB05KT 9999 SCT015"
    },
    {
      "icao": "LPPR",
      "alert": "OK",
      "vis_m": 9999,
      "fzfg": false,
      "metar_trigger": false,
      "taf_trigger": false,
      "metar": "METAR LPPR 171100Z 21007KT 9999 FEW010 SCT015 BKN038 15/13 Q1027",
      "taf": "TAF LPPR 171100Z 1712/1812 21008KT 9999 BKN020"
    },
    {
      "icao": "LPPS",
      "alert": "OK",
      "vis_m": 9999,
      "fzfg": false,
      "metar_trigger": false,
      "taf_trigger": false,
      "metar": "METAR LPPS 171100Z 12007KT 9999 FEW014 BKN030 16/12 Q1028",
      "taf": "TAF LPPS 171100Z 1712/1818 13008KT 9999 FEW015 BKN030"
    },
    {
      "icao": "LPPT",
      "alert": "OK",
      "vis_m": 9999,
      "fzfg": false,
      "metar_trigger": false,
      "taf_trigger": false,
      "metar": "METAR LPPT 171100Z 22004KT 170V260 9999 BKN022 14/09 Q1028",
      "taf": "TAF LPPT 171100Z 1712/1818 24005KT 9999 BKN020"
    },
    {
      "icao": "LQBK",
      "alert": "OK",
      "vis_m": 9999,
      "fzfg": false,
      "metar_trigger": false,
      "taf_trigger": false,
      "metar": "METAR LQBK 171100Z VRB02KT 9999 BKN012 OVC023 05/03 Q1004 NOSIG",
      "taf": "TAF LQBK 171100Z 1712/1812 33007KT 9999 SCT010 BKN020 TX06/1713Z TNM02/1805Z"
    },
    {
      "icao": "LQSA",
      "alert": "OK",
      "vis_m": 8000,
      "fzfg": false,
      "metar_trigger": false,
      "taf_trigger": false,
      "metar": "METAR LQSA 171100Z 30008KT 270V330 8000 BKN020 OVC035 02/02 Q1001 NOSIG",
      "taf": "TAF LQSA 171100Z 1712/1812 35006KT 9999 BKN018 OVC035 TX02/1713Z TNM03/1805Z"
    },
    {
      "icao": "LQTZ",
      "alert": "OK",
      "vis_m": 9999,
      "fzfg": false,
      "metar_trigger": false,
      "taf_trigger": false,
      "metar": "METAR LQTZ 171100Z 29008KT 9999 FEW005 BKN010 OVC020 03/02 Q1003",
      "taf": "TAF LQTZ 171100Z 1712/1812 30007KT 9999 SCT015 BKN030 TX04/1714Z TNM03/1805Z"
    },
    {
      "icao": "LRBC",
      "alert": "OK",
      "vis_m": 4000,
      "fzfg": false,
      "metar_trigger": false,
      "taf_trigger": false,
      "metar": "METAR LRBC 171100Z 17003KT 4000 -FZDZ BR OVC010 M00/M01 Q1004",
      "taf": "TAF LRBC 170800Z 1709/1718 VRB04KT 3000 -FZDZ BR OVC005"
    },
    {
      "icao": "LRBS",
      "alert": "OK",
      "vis_m": 1800,
      "fzfg": false,
      "metar_trigger": false,
      "taf_trigger": false,
      "metar": "METAR LRBS 171100Z 05016KT 010V080 1800 -SHSN BR BKN004 BKN010 FEW040CB 02/01 Q1000 NOSIG",
      "taf": "TAF LRBS 170500Z 1706/1806 07014KT 3000 BR OVC002"
    },
    {
      "icao": "LRBV",
      "alert": "OK",
      "vis_m": 9999,
      "fzfg": false,
      "metar_trigger": false,
      "taf_trigger": false,
      "metar": "METAR LRBV 171100Z 06013KT 9999 FEW019 BKN079 02/M02 Q0998",
      "taf": "TAF LRBV 170800Z 1709/1718 VRB04KT CAVOK"
    },
    {
      "icao": "LRCL",
      "alert": "OK",
      "vis_m": 9999,
      "fzfg": false,
      "metar_trigger": false,
      "taf_trigger": false,
      "metar": "METAR LRCL 171100Z 07004KT 040V110 9999 -RASN SCT005 OVC020 01/M00 Q1000",
      "taf": "TAF LRCL 170800Z 1709/1718 VRB04KT 9999 SCT005 OVC020"
    },
    {
      "icao": "LRCV",
      "alert": "OK",
      "vis_m": 4000,
      "fzfg": false,
      "metar_trigger": false,
      "taf_trigger": false,
      "metar": "METAR LRCV 171100Z 08020KT 4000 SNRA BR BKN003 BKN008 OVC012 02/01 Q0997",
      "taf": ""
    },
    {
      "icao": "LRIA",
      "alert": "OK",
      "vis_m": 9999,
      "fzfg": false,
      "metar_trigger": false,
      "taf_trigger": false,
      "metar": "METAR LRIA 171100Z 11008KT 9999 FEW007 SCT009 BKN010 M02/M04 Q1006",
      "taf": "TAF LRIA 170800Z 1709/1718 11010KT 7000 BKN015"
    },
    {
      "icao": "LROP",
      "alert": "OK",
      "vis_m": 3000,
      "fzfg": false,
      "metar_trigger": false,
      "taf_trigger": false,
      "metar": "METAR LROP 171100Z 06020KT 3000 -SNRA OVC005 02/02 Q1000 BECMG 3000 -RA",
      "taf": "TAF LROP 170500Z 1706/1806 07014KT 3000 BR OVC002"
    },
    {
      "icao": "LRSB",
      "alert": "OK",
      "vis_m": 2000,
      "fzfg": false,
      "metar_trigger": false,
      "taf_trigger": false,
      "metar": "METAR LRSB 171100Z VRB02KT 2000 -SN BR FEW003 BKN006 BKN018 01/00 Q0998",
      "taf": "TAF LRSB 170500Z 1706/1806 VRB04KT 9999 BKN080"
    },
    {
      "icao": "LRSM",
      "alert": "OK",
      "vis_m": 9999,
      "fzfg": false,
      "metar_trigger": false,
      "taf_trigger": false,
      "metar": "METAR LRSM 171100Z 02005KT 340V050 CAVOK 04/M02 Q1001",
      "taf": "TAF LRSM 170800Z 1709/1718 01006KT 9999 SCT035"
    },
    {
      "icao": "LRSV",
      "alert": "CRITICAL",
      "vis_m": 100,
      "fzfg": true,
      "metar_trigger": true,
      "taf_trigger": true,
      "metar": "METAR LRSV 171100Z 05007KT 0100 R34/0250N FZFG VV001 M04/M04 Q1003",
      "taf": "TAF LRSV 170800Z 1709/1718 07008KT 0100 FZFG VV001"
    },
    {
      "icao": "LRTM",
      "alert": "OK",
      "vis_m": 9999,
      "fzfg": false,
      "metar_trigger": false,
      "taf_trigger": false,
      "metar": "METAR LRTM 171100Z 35005KT 310V040 9999 FEW022 SCT046 04/M01 Q1000",
      "taf": ""
    },
    {
      "icao": "LRTR",
      "alert": "OK",
      "vis_m": 9999,
      "fzfg": false,
      "metar_trigger": false,
      "taf_trigger": false,
      "metar": "METAR LRTR 171100Z 35012KT 9999 FEW025 03/02 Q1000 NOSIG",
      "taf": "TAF LRTR 170500Z 1706/1806 02010KT 9999 SCT025"
    },
    {
      "icao": "LTAC",
      "alert": "OK",
      "vis_m": 9999,
      "fzfg": false,
      "metar_trigger": false,
      "taf_trigger": false,
      "metar": "SPECI LTAC 171104Z 24007KT 190V270 9999 -SHRA BKN030 BKN080 12/04 Q1003 NOSIG",
      "taf": "TAF LTAC 171040Z 1712/1812 22012KT 9999 SCT040 BKN100"
    },
    {
      "icao": "LTFM",
      "alert": "OK",
      "vis_m": 9999,
      "fzfg": false,
      "metar_trigger": false,
      "taf_trigger": false,
      "metar": "METAR LTFM 171050Z 20018KT 9999 SCT032 BKN080 15/09 Q0998 NOSIG RMK RWY17L 21013KT RWY34L 21013KT RWY16R 20013KT RWY36 21016KT RWY18 21016KT",
      "taf": "TAF LTFM 171040Z 1712/1818 22012KT 9999 FEW008 SCT032 BKN080"
    },
    {
      "icao": "LUKK",
      "alert": "OK",
      "vis_m": 9999,
      "fzfg": false,
      "metar_trigger": false,
      "taf_trigger": false,
      "metar": "METAR LUKK 171100Z 07011KT 9999 OVC013 M02/M05 Q1006 NOSIG",
      "taf": "TAF LUKK 170522Z 1706/1806 06008KT 9999 BKN007"
    },
    {
      "icao": "LWOH",
      "alert": "OK",
      "vis_m": 9999,
      "fzfg": false,
      "metar_trigger": false,
      "taf_trigger": false,
      "metar": "METAR LWOH 171120Z 15013KT 9999 FEW015 BKN035 07/04 Q0992",
      "taf": "TAF LWOH 170830Z 1709/1809 12014KT 9999 SCT015 OVC030"
    },
    {
      "icao": "LWSK",
      "alert": "OK",
      "vis_m": 9999,
      "fzfg": false,
      "metar_trigger": false,
      "taf_trigger": false,
      "metar": "METAR LWSK 171120Z VRB02KT 9999 FEW015 BKN045 OVC070 09/06 Q0992 NOSIG",
      "taf": "TAF LWSK 170830Z 1709/1809 32005KT 9999 SCT015 OVC040"
    },
    {
      "icao": "LYBE",
      "alert": "OK",
      "vis_m": 7000,
      "fzfg": false,
      "metar_trigger": false,
      "taf_trigger": false,
      "metar": "METAR LYBE 171100Z 35008KT 7000 -RA BKN007 BKN027 02/01 Q1001 BECMG BKN012 BKN027",
      "taf": "TAF LYBE 171100Z 1712/1812 32010KT 9999 BKN012 BKN025 TX08/1812Z TNM00/1805Z"
    },
    {
      "icao": "LYNI",
      "alert": "OK",
      "vis_m": 9999,
      "fzfg": false,
      "metar_trigger": false,
      "taf_trigger": false,
      "metar": "METAR LYNI 171100Z 32016KT 9999 -RA SCT010 BKN025 OVC067 02/02 Q0996 NOSIG",
      "taf": "TAF LYNI 171100Z 1712/1812 33015KT 5000 RASN BKN010 BKN023 TX07/1812Z TNM00/1806Z"
    },
    {
      "icao": "LYPG",
      "alert": "OK",
      "vis_m": 9999,
      "fzfg": false,
      "metar_trigger": false,
      "taf_trigger": false,
      "metar": "METAR LYPG 171100Z 35020G31KT 9999 -RA FEW010 BKN030 OVC070 07/03 Q0992 NOSIG",
      "taf": "TAF LYPG 171100Z 1712/1812 36020KT 9999 SCT040 BKN070 TX13/1812Z TN06/1805Z"
    },
    {
      "icao": "LZIB",
      "alert": "OK",
      "vis_m": 2700,
      "fzfg": false,
      "metar_trigger": false,
      "taf_trigger": false,
      "metar": "METAR LZIB 171100Z VRB02KT 2700 -SN BR SCT004 BKN006 OVC028 01/M01 Q1004 NOSIG",
      "taf": "TAF LZIB 171115Z 1712/1812 32008KT 7000 SCT004 SCT012 BKN035"
    },
    {
      "icao": "LZKZ",
      "alert": "OK",
      "vis_m": 9999,
      "fzfg": false,
      "metar_trigger": false,
      "taf_trigger": false,
      "metar": "METAR LZKZ 171100Z VRB02KT CAVOK 03/M03 Q1002 NOSIG",
      "taf": "TAF LZKZ 171115Z 1712/1812 03006KT 9999 FEW035"
    },
    {
      "icao": "LZTT",
      "alert": "OK",
      "vis_m": 9999,
      "fzfg": false,
      "metar_trigger": false,
      "taf_trigger": false,
      "metar": "METAR LZTT 171100Z VRB01KT 9999 FEW030 BKN060 M01/M04 Q1000 NOSIG",
      "taf": "TAF LZTT 171115Z 1712/1812 VRB02KT 9999 FEW015 SCT030 BKN060"
    },
    {
      "icao": "OEJN",
      "alert": "OK",
      "vis_m": 9999,
      "fzfg": false,
      "metar_trigger": false,
      "taf_trigger": false,
      "metar": "METAR OEJN 171100Z 23009KT CAVOK 33/13 Q1010 NOSIG",
      "taf": "TAF OEJN 171100Z 1712/1818 25010KT CAVOK"
    },
    {
      "icao": "OEMA",
      "alert": "OK",
      "vis_m": 9999,
      "fzfg": false,
      "metar_trigger": false,
      "taf_trigger": false,
      "metar": "METAR OEMA 171100Z VRB03KT CAVOK 32/M03 Q1015 NOSIG",
      "taf": "TAF OEMA 171100Z 1712/1818 27008KT CAVOK"
    },
    {
      "icao": "OJAI",
      "alert": "OK",
      "vis_m": 4000,
      "fzfg": false,
      "metar_trigger": false,
      "taf_trigger": false,
      "metar": "METAR OJAI 171100Z 23006KT 4000 HZ NSC 16/09 Q1015 NOSIG",
      "taf": "TAF OJAI 171038Z 1712/1818 26008KT 3000 DU FEW050"
    },
    {
      "icao": "OMAA",
      "alert": "OK",
      "vis_m": 9999,
      "fzfg": false,
      "metar_trigger": false,
      "taf_trigger": false,
      "metar": "METAR OMAA 171100Z 30011KT 270V330 9999 FEW040 27/17 Q1013 NOSIG",
      "taf": "TAF OMAA 171100Z 1712/1818 32010KT 8000 NSC"
    },
    {
      "icao": "OMDB",
      "alert": "OK",
      "vis_m": 8000,
      "fzfg": false,
      "metar_trigger": false,
      "taf_trigger": false,
      "metar": "METAR OMDB 171100Z 36012KT 8000 FEW035 28/12 Q1013 NOSIG",
      "taf": "TAF OMDB 171100Z 1712/1818 34010KT 8000 FEW035"
    },
    {
      "icao": "UAAA",
      "alert": "OK",
      "vis_m": 9999,
      "fzfg": false,
      "metar_trigger": false,
      "taf_trigger": false,
      "metar": "METAR UAAA 171100Z 01003MPS 9999 SCT100 BKN200 12/08 Q1024 NOSIG",
      "taf": "TAF UAAA 171102Z 1712/1812 04003MPS 1200 BR FU SCT011 BKN030 TX13/1809Z TNM01/1803Z"
    },
    {
      "icao": "UBBB",
      "alert": "OK",
      "vis_m": 9999,
      "fzfg": false,
      "metar_trigger": false,
      "taf_trigger": false,
      "metar": "METAR UBBB 171100Z 19016KT CAVOK 17/08 Q1004 NOSIG",
      "taf": "TAF UBBB 171057Z 1712/1812 18016KT CAVOK TX16/1712Z TN07/1802Z"
    },
    {
      "icao": "UDSG",
      "alert": "OK",
      "vis_m": 9000,
      "fzfg": false,
      "metar_trigger": false,
      "taf_trigger": false,
      "metar": "METAR UDSG 171100Z 07001KT 9000 FEW049 04/M01 Q1014 NOSIG",
      "taf": "TAF UDSG 171100Z 1712/1812 VRB06KT 5000 BR SCT040"
    },
    {
      "icao": "UDYZ",
      "alert": "OK",
      "vis_m": 9999,
      "fzfg": false,
      "metar_trigger": false,
      "taf_trigger": false,
      "metar": "METAR UDYZ 171100Z 16003KT 9999 FEW046 12/02 Q1013 NOSIG",
      "taf": "TAF UDYZ 171100Z 1712/1812 22006KT 6000 FEW040"
    },
    {
      "icao": "UGKO",
      "alert": "OK",
      "vis_m": 9999,
      "fzfg": false,
      "metar_trigger": false,
      "taf_trigger": false,
      "metar": "METAR UGKO 171100Z 13007KT CAVOK 21/04 Q1003 NOSIG",
      "taf": "TAF UGKO 171100Z 1712/1812 08007KT CAVOK TX23/1812Z TN11/1801Z"
    }
  ]
}