{
  "ts_utc": "2026-01-03T06:43:43Z",
  "threshold_m": 150,
  "source": "stations_override.txt (ICAO list) + aviationweather.gov (METAR/TAF raw)",
  "station_count": 159,
  "stations": [
    {
      "icao": "BIKF",
      "alert": "OK",
      "vis_m": 9999,
      "fzfg": false,
      "metar_trigger": false,
      "taf_trigger": false,
      "metar": "METAR BIKF 030630Z 31003KT CAVOK M04/M08 Q1028",
      "taf": "TAF BIKF 030447Z 0306/0406 07006KT CAVOK TXM02/0403Z TNM08/0312Z"
    },
    {
      "icao": "BKPR",
      "alert": "OK",
      "vis_m": 9999,
      "fzfg": false,
      "metar_trigger": false,
      "taf_trigger": false,
      "metar": "METAR BKPR 030630Z 19005KT 9999 FEW025 BKN045 05/02 Q1004 NOSIG",
      "taf": "TAF BKPR 030530Z 0306/0406 17008KT 9999 BKN030"
    },
    {
      "icao": "EBCI",
      "alert": "OK",
      "vis_m": 9999,
      "fzfg": false,
      "metar_trigger": false,
      "taf_trigger": false,
      "metar": "METAR EBCI 030620Z 23009KT 9999 FEW025 BKN044 M00/M03 Q1004 TEMPO 2500 -SHSN BKN004 BKN010CB",
      "taf": "TAF EBCI 030515Z 0306/0412 26010KT 9999 FEW015 SCT035"
    },
    {
      "icao": "EDDB",
      "alert": "OK",
      "vis_m": 9999,
      "fzfg": false,
      "metar_trigger": false,
      "taf_trigger": false,
      "metar": "METAR EDDB 030620Z AUTO 26014KT 9999 SCT017 M00/M03 Q0996 NOSIG",
      "taf": "TAF EDDB 030500Z 0306/0406 27012G22KT 9999 BKN015"
    },
    {
      "icao": "EDDH",
      "alert": "OK",
      "vis_m": 3000,
      "fzfg": false,
      "metar_trigger": false,
      "taf_trigger": false,
      "metar": "METAR EDDH 030620Z AUTO VRB02KT 3000 SHSN BR BKN004 OVC008 FEW///CB 00/00 Q0994 TEMPO 1200 BKN005",
      "taf": "TAF EDDH 030500Z 0306/0412 24008KT 4500 -SN BKN012"
    },
    {
      "icao": "EDDK",
      "alert": "OK",
      "vis_m": 9999,
      "fzfg": false,
      "metar_trigger": false,
      "taf_trigger": false,
      "metar": "METAR EDDK 030620Z AUTO 22009KT 9999 OVC045 01/M03 Q1003 NOSIG",
      "taf": "TAF EDDK 030500Z 0306/0412 22006KT 9999 BKN030"
    },
    {
      "icao": "EDDN",
      "alert": "OK",
      "vis_m": 9999,
      "fzfg": false,
      "metar_trigger": false,
      "taf_trigger": false,
      "metar": "METAR EDDN 030620Z AUTO 22007KT 9999 SCT017 BKN036 M02/M05 Q1005 NOSIG",
      "taf": "TAF EDDN 030500Z 0306/0406 25010KT 9999 BKN020"
    },
    {
      "icao": "EDDS",
      "alert": "OK",
      "vis_m": 9999,
      "fzfg": false,
      "metar_trigger": false,
      "taf_trigger": false,
      "metar": "METAR EDDS 030620Z AUTO 22005KT 180V250 9999 FEW027 M03/M07 Q1005 NOSIG",
      "taf": "TAF EDDS 030500Z 0306/0406 22005KT 9999 SCT025"
    },
    {
      "icao": "EDFH",
      "alert": "OK",
      "vis_m": 9999,
      "fzfg": false,
      "metar_trigger": false,
      "taf_trigger": false,
      "metar": "METAR EDFH 030620Z 25016KT 9999 OVC024 M03/M06 Q1003",
      "taf": "TAF EDFH 030500Z 0306/0406 26012KT 9999 BKN015"
    },
    {
      "icao": "EDJA",
      "alert": "OK",
      "vis_m": 9999,
      "fzfg": false,
      "metar_trigger": false,
      "taf_trigger": false,
      "metar": "METAR EDJA 030620Z 20007KT 9999 FEW024 M09/M10 Q1005",
      "taf": "TAF EDJA 030500Z 0306/0315 23010KT 9999 FEW025"
    },
    {
      "icao": "EDLW",
      "alert": "OK",
      "vis_m": 9999,
      "fzfg": false,
      "metar_trigger": false,
      "taf_trigger": false,
      "metar": "METAR EDLW 030620Z COR 23017KT 9999 FEW016 00/M02 Q1000",
      "taf": "TAF EDLW 030500Z 0306/0406 24014KT 9999 SCT006 BKN015"
    },
    {
      "icao": "EDNY",
      "alert": "OK",
      "vis_m": 9999,
      "fzfg": false,
      "metar_trigger": false,
      "taf_trigger": false,
      "metar": "METAR EDNY 030620Z 19001KT 9999 BKN018 BKN024 BKN038 M06/M07 Q1007",
      "taf": "TAF EDNY 030500Z 0306/0315 02003KT 9999 FEW025"
    },
    {
      "icao": "EDSB",
      "alert": "OK",
      "vis_m": 9999,
      "fzfg": false,
      "metar_trigger": false,
      "taf_trigger": false,
      "metar": "METAR EDSB 030620Z 21007KT 9999 FEW027 OVC037 M02/M04 Q1008",
      "taf": "TAF EDSB 030500Z 0306/0406 20007KT 9999 SCT025"
    },
    {
      "icao": "EETN",
      "alert": "OK",
      "vis_m": 9999,
      "fzfg": false,
      "metar_trigger": false,
      "taf_trigger": false,
      "metar": "METAR EETN 030620Z 08011KT 9999 SCT008 OVC013 M05/M07 Q0987 TEMPO 3000 SN BKN005",
      "taf": "TAF EETN 030530Z 0306/0406 09008KT 9000 SCT007 BKN015"
    },
    {
      "icao": "EFTU",
      "alert": "OK",
      "vis_m": 9999,
      "fzfg": false,
      "metar_trigger": false,
      "taf_trigger": false,
      "metar": "METAR EFTU 030620Z AUTO 08012KT 9999 -SHSN OVC008 M08/M10 Q0988",
      "taf": ""
    },
    {
      "icao": "EGBB",
      "alert": "OK",
      "vis_m": 9999,
      "fzfg": false,
      "metar_trigger": false,
      "taf_trigger": false,
      "metar": "METAR EGBB 030620Z 30009KT CAVOK M01/M06 Q1009",
      "taf": "TAF EGBB 030453Z 0306/0406 30008KT CAVOK"
    },
    {
      "icao": "EGGP",
      "alert": "OK",
      "vis_m": 9999,
      "fzfg": false,
      "metar_trigger": false,
      "taf_trigger": false,
      "metar": "METAR EGGP 030620Z 32006KT 9999 -FZRA SCT034 SCT040 00/M06 Q1010",
      "taf": "TAF EGGP 030455Z 0306/0406 32009KT 9999 SCT030"
    },
    {
      "icao": "EGGW",
      "alert": "OK",
      "vis_m": 9999,
      "fzfg": false,
      "metar_trigger": false,
      "taf_trigger": false,
      "metar": "METAR EGGW 030620Z AUTO 30012KT 9999 NCD M02/M05 Q1006",
      "taf": "TAF EGGW 030454Z 0306/0406 30009KT 9999 FEW025"
    },
    {
      "icao": "EGKK",
      "alert": "OK",
      "vis_m": 9999,
      "fzfg": false,
      "metar_trigger": false,
      "taf_trigger": false,
      "metar": "METAR EGKK 030620Z 30009KT CAVOK 01/M02 Q1008",
      "taf": "TAF EGKK 030459Z 0306/0412 30010KT 9999 FEW030"
    },
    {
      "icao": "EGNM",
      "alert": "OK",
      "vis_m": 9999,
      "fzfg": false,
      "metar_trigger": false,
      "taf_trigger": false,
      "metar": "METAR EGNM 030620Z 29021KT CAVOK M02/M07 Q1006",
      "taf": "TAF EGNM 030604Z 0306/0406 30015KT 9999 FEW030"
    },
    {
      "icao": "EGPD",
      "alert": "OK",
      "vis_m": 1900,
      "fzfg": false,
      "metar_trigger": false,
      "taf_trigger": false,
      "metar": "METAR EGPD 030620Z AUTO 33013KT 1900 -SN SCT008/// BKN021/// //////TCU M00/M01 Q1007 TEMPO SN BKN008",
      "taf": ""
    },
    {
      "icao": "EGPF",
      "alert": "OK",
      "vis_m": 9999,
      "fzfg": false,
      "metar_trigger": false,
      "taf_trigger": false,
      "metar": "METAR EGPF 030620Z AUTO 31012KT 9999 NCD 00/M03 Q1010",
      "taf": "TAF EGPF 030456Z 0306/0406 30009KT 9999 FEW030"
    },
    {
      "icao": "EHBK",
      "alert": "OK",
      "vis_m": 9999,
      "fzfg": false,
      "metar_trigger": false,
      "taf_trigger": false,
      "metar": "METAR EHBK 030625Z AUTO 22012KT 9999 SCT049/// M01/M03 Q1003 NOSIG",
      "taf": "TAF EHBK 030509Z 0306/0412 22010KT 9999 SCT022"
    },
    {
      "icao": "EHEH",
      "alert": "OK",
      "vis_m": 9999,
      "fzfg": false,
      "metar_trigger": false,
      "taf_trigger": false,
      "metar": "METAR EHEH 030625Z AUTO 21012KT 9999 -FZUP SCT043 BKN048 OVC054 M00/M02 Q1001 BLU TEMPO 1500 -SHSN SCT006 SCT015CB BKN018",
      "taf": "TAF EHEH 030540Z 0306/0412 24010KT SCT020 BKN025"
    },
    {
      "icao": "EKBI",
      "alert": "OK",
      "vis_m": 9999,
      "fzfg": false,
      "metar_trigger": false,
      "taf_trigger": false,
      "metar": "METAR EKBI 030620Z AUTO 00000KT 9999 NCD M10/M10 Q0993",
      "taf": "TAF EKBI 030528Z 0306/0406 VRB03KT 9999 FEW020"
    },
    {
      "icao": "EKCH",
      "alert": "OK",
      "vis_m": 9999,
      "fzfg": false,
      "metar_trigger": false,
      "taf_trigger": false,
      "metar": "METAR EKCH 030620Z 28011KT 9999 SCT037 M02/M05 Q0989 TEMPO 3000 BKN012",
      "taf": "TAF EKCH 030528Z 0306/0406 30010KT 9999 BKN020"
    },
    {
      "icao": "ENAL",
      "alert": "OK",
      "vis_m": 9999,
      "fzfg": false,
      "metar_trigger": false,
      "taf_trigger": false,
      "metar": "METAR ENAL 030620Z 07012KT CAVOK M04/M10 Q1001",
      "taf": "TAF ENAL 030500Z 0306/0315 06015KT CAVOK"
    },
    {
      "icao": "ENBR",
      "alert": "OK",
      "vis_m": 9999,
      "fzfg": false,
      "metar_trigger": false,
      "taf_trigger": false,
      "metar": "METAR ENBR 030620Z 03007KT 010V070 CAVOK M05/M16 Q0998 NOSIG RMK WIND 1200FT 05009KT",
      "taf": "TAF ENBR 030500Z 0306/0406 01008KT CAVOK"
    },
    {
      "icao": "ENGM",
      "alert": "OK",
      "vis_m": 5000,
      "fzfg": false,
      "metar_trigger": false,
      "taf_trigger": false,
      "metar": "METAR ENGM 030620Z 01015KT 5000 -SN FEW028 BKN043 M08/M11 Q0993 TEMPO 01015G25KT 4000",
      "taf": "TAF ENGM 030500Z 0306/0406 36015KT 9000 -SN FEW025 BKN040"
    },
    {
      "icao": "ENHD",
      "alert": "OK",
      "vis_m": 9999,
      "fzfg": false,
      "metar_trigger": false,
      "taf_trigger": false,
      "metar": "METAR ENHD 030620Z AUTO 04010KT 9999 NCD M05/M11 Q0996",
      "taf": "TAF ENHD 030500Z 0306/0315 07008KT CAVOK"
    },
    {
      "icao": "ENTC",
      "alert": "OK",
      "vis_m": 9999,
      "fzfg": false,
      "metar_trigger": false,
      "taf_trigger": false,
      "metar": "METAR ENTC 030620Z 15003KT 9999 FEW009 M05/M08 Q1000 TEMPO 2000 -SHSN VV012 RMK WIND 2600FT 28012KT",
      "taf": "TAF ENTC 030500Z 0306/0406 29010KT 9999 -SHSN FEW020 BKN025"
    },
    {
      "icao": "ENTO",
      "alert": "OK",
      "vis_m": 3100,
      "fzfg": false,
      "metar_trigger": false,
      "taf_trigger": false,
      "metar": "METAR ENTO 030620Z 36014KT 3100 -SN VV015 M07/M09 Q0992 TEMPO 2000 -SN VV012",
      "taf": ""
    },
    {
      "icao": "ENVA",
      "alert": "OK",
      "vis_m": 9999,
      "fzfg": false,
      "metar_trigger": false,
      "taf_trigger": false,
      "metar": "METAR ENVA 030620Z 12005KT CAVOK M11/M13 Q1003 NOSIG RMK WIND 670FT 14005KT",
      "taf": "TAF ENVA 030500Z 0306/0406 11008KT CAVOK"
    },
    {
      "icao": "ENZV",
      "alert": "OK",
      "vis_m": 9999,
      "fzfg": false,
      "metar_trigger": false,
      "taf_trigger": false,
      "metar": "METAR ENZV 030620Z 05003KT 020V080 CAVOK M07/M13 Q0995 NOSIG",
      "taf": "TAF ENZV 030500Z 0306/0406 10005KT CAVOK"
    },
    {
      "icao": "EPGD",
      "alert": "OK",
      "vis_m": 3700,
      "fzfg": false,
      "metar_trigger": false,
      "taf_trigger": false,
      "metar": "METAR EPGD 030630Z 23016KT 3700 SN VV020 M02/M03 Q0985",
      "taf": "TAF EPGD 030530Z 0306/0406 24015KT 6000 -SN BKN015"
    },
    {
      "icao": "EPKK",
      "alert": "OK",
      "vis_m": 9999,
      "fzfg": false,
      "metar_trigger": false,
      "taf_trigger": false,
      "metar": "METAR EPKK 030630Z 25017KT 9999 BKN053 M00/M07 Q0997",
      "taf": "TAF EPKK 030530Z 0306/0406 23015KT 9999 BKN030"
    },
    {
      "icao": "EPKT",
      "alert": "OK",
      "vis_m": 9999,
      "fzfg": false,
      "metar_trigger": false,
      "taf_trigger": false,
      "metar": "METAR EPKT 030630Z 24017KT 9999 FEW024 SCT042 M01/M06 Q0996",
      "taf": "TAF EPKT 030530Z 0306/0406 24015KT 9999 SCT040"
    },
    {
      "icao": "EPLB",
      "alert": "OK",
      "vis_m": 9999,
      "fzfg": false,
      "metar_trigger": false,
      "taf_trigger": false,
      "metar": "METAR EPLB 030630Z 22012KT 9999 FEW039 M02/M06 Q0995",
      "taf": "TAF EPLB 030530Z 0306/0406 22010KT 9999 BKN030"
    },
    {
      "icao": "EPMO",
      "alert": "OK",
      "vis_m": 6000,
      "fzfg": false,
      "metar_trigger": false,
      "taf_trigger": false,
      "metar": "METAR EPMO 030630Z 24019KT 6000 -SHSN DRSN FEW008 SCT017CB M01/M02 Q0991 RESHSN",
      "taf": "TAF EPMO 030530Z 0306/0406 23010KT 9999 BKN030"
    },
    {
      "icao": "EPPO",
      "alert": "OK",
      "vis_m": 9999,
      "fzfg": false,
      "metar_trigger": false,
      "taf_trigger": false,
      "metar": "METAR EPPO 030630Z 27013KT 9999 -SHSN FEW015CB SCT023 M01/M05 Q0994",
      "taf": "TAF EPPO 030530Z 0306/0406 26014KT 9999 FEW017"
    },
    {
      "icao": "EPRA",
      "alert": "OK",
      "vis_m": 4500,
      "fzfg": false,
      "metar_trigger": false,
      "taf_trigger": false,
      "metar": "METAR EPRA 030630Z 23013KT 4500 -SN BKN010 OVC027 M01/M03 Q0994",
      "taf": "TAF EPRA 030530Z 0306/0315 25012KT 9999 BKN035"
    },
    {
      "icao": "EPRZ",
      "alert": "OK",
      "vis_m": 9999,
      "fzfg": false,
      "metar_trigger": false,
      "taf_trigger": false,
      "metar": "METAR EPRZ 030630Z 21011KT 9999 FEW043 M01/M07 Q0997",
      "taf": "TAF EPRZ 030530Z 0306/0406 20010KT 9999 SCT040"
    },
    {
      "icao": "EPSC",
      "alert": "OK",
      "vis_m": 9999,
      "fzfg": false,
      "metar_trigger": false,
      "taf_trigger": false,
      "metar": "METAR EPSC 030630Z 25013KT 220V280 CAVOK M02/M06 Q0992",
      "taf": "TAF EPSC 030530Z 0306/0406 26012KT 9999 SCT035"
    },
    {
      "icao": "EPSY",
      "alert": "OK",
      "vis_m": 3000,
      "fzfg": false,
      "metar_trigger": false,
      "taf_trigger": false,
      "metar": "METAR EPSY 030630Z 21012KT 3000 SHSN BKN007CB M01/M02 Q0988",
      "taf": "TAF EPSY 030530Z 0306/0315 21012KT 9999 BKN014"
    },
    {
      "icao": "EPWA",
      "alert": "OK",
      "vis_m": 9999,
      "fzfg": false,
      "metar_trigger": false,
      "taf_trigger": false,
      "metar": "METAR EPWA 030630Z 23012KT 9999 -SHSN SCT015CB SCT036 M00/M03 Q0992 TEMPO BKN014",
      "taf": "TAF EPWA 030530Z 0306/0406 23010KT 9999 BKN030"
    },
    {
      "icao": "EPWR",
      "alert": "OK",
      "vis_m": 9999,
      "fzfg": false,
      "metar_trigger": false,
      "taf_trigger": false,
      "metar": "METAR EPWR 030630Z 26015KT 9999 FEW033 M00/M05 Q0998",
      "taf": "TAF EPWR 030530Z 0306/0406 27015KT 9999 FEW030"
    },
    {
      "icao": "ESGG",
      "alert": "OK",
      "vis_m": 3900,
      "fzfg": false,
      "metar_trigger": false,
      "taf_trigger": false,
      "metar": "METAR ESGG 030620Z 34009KT 3900 -SN VV028 M07/M09 Q0988",
      "taf": "TAF ESGG 030530Z 0306/0406 34009KT 9000 -SN OVC009"
    },
    {
      "icao": "ESKN",
      "alert": "OK",
      "vis_m": 9999,
      "fzfg": false,
      "metar_trigger": false,
      "taf_trigger": false,
      "metar": "METAR ESKN 030620Z 35011KT 330V030 9999 BKN009 M03/M04 Q0982",
      "taf": "TAF ESKN 030530Z 0306/0406 01012G22KT 9999 -SN OVC009"
    },
    {
      "icao": "ESMS",
      "alert": "OK",
      "vis_m": 9999,
      "fzfg": false,
      "metar_trigger": false,
      "taf_trigger": false,
      "metar": "METAR ESMS 030620Z 33014KT 9999 -SN FEW007 BKN026 M03/M05 Q0987",
      "taf": "TAF ESMS 030528Z 0306/0406 32012KT 9999 BKN020"
    },
    {
      "icao": "ESSA",
      "alert": "OK",
      "vis_m": 900,
      "fzfg": false,
      "metar_trigger": false,
      "taf_trigger": false,
      "metar": "METAR ESSA 030620Z 02019KT 0900 R01L/P2000N R19R/P2000N R01R/P2000N R19L/P2000N SN VV012 M03/M04 Q0983 TEMPO 1200 SN VV015",
      "taf": "TAF ESSA 030530Z 0306/0406 02015KT 6000 -SN BKN007"
    },
    {
      "icao": "EYKA",
      "alert": "OK",
      "vis_m": 9999,
      "fzfg": false,
      "metar_trigger": false,
      "taf_trigger": false,
      "metar": "METAR EYKA 030620Z 19004KT 140V250 9999 BKN009 OVC045 M00/M01 Q0988",
      "taf": "TAF EYKA 030500Z 0306/0406 VRB04KT 8000 BKN010 OVC015"
    },
    {
      "icao": "EYPA",
      "alert": "OK",
      "vis_m": 7000,
      "fzfg": false,
      "metar_trigger": false,
      "taf_trigger": false,
      "metar": "METAR EYPA 030620Z 16010KT 7000 -SHSNRA FEW006 SCT010 BKN017CB 00/M00 Q0984",
      "taf": ""
    },
    {
      "icao": "EYVI",
      "alert": "OK",
      "vis_m": 9000,
      "fzfg": false,
      "metar_trigger": false,
      "taf_trigger": false,
      "metar": "METAR EYVI 030620Z 21009KT 9000 BKN004 BKN021 M01/M02 Q0988 TEMPO 0600 +SHSN BKN015CB",
      "taf": "TAF EYVI 030510Z 0306/0406 21010KT 9000 BKN005"
    },
    {
      "icao": "GCFV",
      "alert": "OK",
      "vis_m": 9999,
      "fzfg": false,
      "metar_trigger": false,
      "taf_trigger": false,
      "metar": "METAR GCFV 030630Z 26013KT 9999 FEW020 SCT045 18/13 Q1005",
      "taf": "TAF GCFV 030200Z 0303/0403 27008KT 9999 SCT025 TX22/0314Z TN17/0306Z"
    },
    {
      "icao": "GCLP",
      "alert": "OK",
      "vis_m": 9999,
      "fzfg": false,
      "metar_trigger": false,
      "taf_trigger": false,
      "metar": "METAR GCLP 030630Z 25004KT 200V340 9999 FEW035 SCT050 17/13 Q1006 NOSIG",
      "taf": "TAF GCLP 030200Z 0303/0403 24011KT 9999 SCT035 TX23/0314Z TN17/0306Z"
    },
    {
      "icao": "GCTS",
      "alert": "OK",
      "vis_m": 9999,
      "fzfg": false,
      "metar_trigger": false,
      "taf_trigger": false,
      "metar": "METAR GCTS 030630Z 29016KT 260V320 9999 FEW050 18/11 Q1006 NOSIG",
      "taf": "TAF GCTS 030200Z 0303/0403 28015KT 9999 FEW030 TX24/0314Z TN18/0306Z"
    },
    {
      "icao": "GMAD",
      "alert": "OK",
      "vis_m": 8000,
      "fzfg": false,
      "metar_trigger": false,
      "taf_trigger": false,
      "metar": "METAR GMAD 030630Z 15005KT 8000 -RA FEW010 SCT020 BKN100 14/14 Q1005 NOSIG",
      "taf": "TAF GMAD 030500Z 0306/0412 24008KT 6000 BKN20TCU BKN080"
    },
    {
      "icao": "GMMN",
      "alert": "OK",
      "vis_m": 9999,
      "fzfg": false,
      "metar_trigger": false,
      "taf_trigger": false,
      "metar": "METAR GMMN 030630Z 18015KT 9999 SCT030 SCT100 13/10 Q1002 NOSIG",
      "taf": "TAF GMMN 030500Z 0306/0412 18020KT 9999 SCT030 SCT100"
    },
    {
      "icao": "GMMX",
      "alert": "OK",
      "vis_m": 5000,
      "fzfg": false,
      "metar_trigger": false,
      "taf_trigger": false,
      "metar": "METAR GMMX 030630Z 11011KT 5000 RA SCT016 BKN023 12/11 Q1004 TEMPO 1500 SHRA",
      "taf": "TAF GMMX 030500Z 0306/0412 22004KT 6000 RA SCT016 BKN023"
    },
    {
      "icao": "HEGN",
      "alert": "OK",
      "vis_m": 9999,
      "fzfg": false,
      "metar_trigger": false,
      "taf_trigger": false,
      "metar": "METAR HEGN 030600Z 30016KT CAVOK 14/05 Q1023 NOSIG",
      "taf": "TAF HEGN 030500Z 0306/0412 34018KT CAVOK"
    },
    {
      "icao": "HEMA",
      "alert": "OK",
      "vis_m": 9999,
      "fzfg": false,
      "metar_trigger": false,
      "taf_trigger": false,
      "metar": "METAR HEMA 030600Z 32018KT CAVOK 18/10 Q1021 NOSIG",
      "taf": "TAF HEMA 030500Z 0306/0412 36018KT CAVOK"
    },
    {
      "icao": "HESH",
      "alert": "OK",
      "vis_m": 9999,
      "fzfg": false,
      "metar_trigger": false,
      "taf_trigger": false,
      "metar": "METAR HESH 030600Z 36016KT CAVOK 18/07 Q1022 NOSIG",
      "taf": "TAF HESH 030500Z 0306/0412 03012KT CAVOK"
    },
    {
      "icao": "HESX",
      "alert": "OK",
      "vis_m": 9999,
      "fzfg": false,
      "metar_trigger": false,
      "taf_trigger": false,
      "metar": "METAR HESX 030600Z 00000KT CAVOK 08/03 Q1026 NOSIG",
      "taf": "TAF HESX 030500Z 0306/0412 02008KT 9999 SCT020"
    },
    {
      "icao": "LATI",
      "alert": "OK",
      "vis_m": 9999,
      "fzfg": false,
      "metar_trigger": false,
      "taf_trigger": false,
      "metar": "METAR LATI 030620Z 16011KT 9999 SCT028 OVC080 14/08 Q1008 NOSIG",
      "taf": "TAF LATI 030500Z 0306/0406 14013KT 9999 SCT025 BKN070 TX14/0318Z TN12/0403Z"
    },
    {
      "icao": "LBPD",
      "alert": "OK",
      "vis_m": 9999,
      "fzfg": false,
      "metar_trigger": false,
      "taf_trigger": false,
      "metar": "METAR LBPD 030630Z AUTO VRB02KT 9999 FEW098/// SCT130/// M05/M06 Q1008 NOSIG",
      "taf": "TAF LBPD 030500Z 0306/0406 VRB03KT 9999 SCT020 BKN080"
    },
    {
      "icao": "LBSF",
      "alert": "OK",
      "vis_m": 9999,
      "fzfg": false,
      "metar_trigger": false,
      "taf_trigger": false,
      "metar": "METAR LBSF 030630Z 22007KT 140V300 9999 FEW057 BKN069 10/M00 Q1004 TEMPO 23016G28KT",
      "taf": "TAF LBSF 030500Z 0306/0406 08012KT 9999 SCT025 SCT050"
    },
    {
      "icao": "LBWN",
      "alert": "OK",
      "vis_m": 9999,
      "fzfg": false,
      "metar_trigger": false,
      "taf_trigger": false,
      "metar": "METAR LBWN 030630Z 32007KT CAVOK 09/04 Q1006 NOSIG",
      "taf": "TAF LBWN 030500Z 0306/0406 30010KT CAVOK"
    },
    {
      "icao": "LCLK",
      "alert": "OK",
      "vis_m": 9999,
      "fzfg": false,
      "metar_trigger": false,
      "taf_trigger": false,
      "metar": "METAR LCLK 030630Z 33004KT 310V010 9999 FEW030 BKN050 11/06 Q1027 NOSIG",
      "taf": "TAF LCLK 030530Z 0306/0406 33007KT 9999 FEW040"
    },
    {
      "icao": "LCPH",
      "alert": "OK",
      "vis_m": 9999,
      "fzfg": false,
      "metar_trigger": false,
      "taf_trigger": false,
      "metar": "METAR LCPH 030630Z 02006KT 010V080 9999 BKN050 12/03 Q1027 NOSIG",
      "taf": "TAF LCPH 030530Z 0306/0406 04006KT 9999 SCT045"
    },
    {
      "icao": "LEAL",
      "alert": "OK",
      "vis_m": 9999,
      "fzfg": false,
      "metar_trigger": false,
      "taf_trigger": false,
      "metar": "METAR LEAL 030630Z 02003KT 340V070 CAVOK 13/11 Q1005 NOSIG",
      "taf": "TAF LEAL 030500Z 0306/0406 VRB05KT CAVOK TX17/0314Z TN09/0306Z"
    },
    {
      "icao": "LEBB",
      "alert": "OK",
      "vis_m": 8000,
      "fzfg": false,
      "metar_trigger": false,
      "taf_trigger": false,
      "metar": "METAR LEBB 030630Z VRB01KT 8000 -RA BKN012 BKN020 08/06 Q1009 TEMPO 3000 RA",
      "taf": "TAF LEBB 030500Z 0306/0406 VRB03KT 9999 SCT010 BKN020 TX07/0314Z TN00/0406Z"
    },
    {
      "icao": "LEBL",
      "alert": "OK",
      "vis_m": 9999,
      "fzfg": false,
      "metar_trigger": false,
      "taf_trigger": false,
      "metar": "METAR LEBL 030630Z 33007G20KT 260V010 9999 FEW030 08/05 Q1008 NOSIG",
      "taf": "TAF LEBL 030500Z 0306/0406 34009KT 9999 FEW015 TX15/0312Z TN05/0306Z"
    },
    {
      "icao": "LECH",
      "alert": "OK",
      "vis_m": 9000,
      "fzfg": false,
      "metar_trigger": false,
      "taf_trigger": false,
      "metar": "METAR LECH 030630Z AUTO 12004KT 9000 NSC 08/06 Q1006",
      "taf": ""
    },
    {
      "icao": "LEMD",
      "alert": "OK",
      "vis_m": 9999,
      "fzfg": false,
      "metar_trigger": false,
      "taf_trigger": false,
      "metar": "METAR LEMD 030630Z 34005KT 310V010 CAVOK 06/06 Q1005 NOSIG",
      "taf": "TAF LEMD 030500Z 0306/0412 VRB03KT CAVOK TX13/0314Z TN05/0307Z"
    },
    {
      "icao": "LEMG",
      "alert": "OK",
      "vis_m": 9999,
      "fzfg": false,
      "metar_trigger": false,
      "taf_trigger": false,
      "metar": "METAR LEMG 030630Z 29004KT 9999 SCT055 11/10 Q1004 NOSIG",
      "taf": "TAF LEMG 030500Z 0306/0406 29005KT 9999 FEW015 TX18/0314Z TN10/0307Z"
    },
    {
      "icao": "LEVC",
      "alert": "OK",
      "vis_m": 9999,
      "fzfg": false,
      "metar_trigger": false,
      "taf_trigger": false,
      "metar": "METAR LEVC 030630Z 34002KT 9999 FEW005 08/08 Q1006 NOSIG",
      "taf": "TAF LEVC 030500Z 0306/0406 VRB05KT CAVOK TX16/0314Z TN09/0306Z"
    },
    {
      "icao": "LEXJ",
      "alert": "OK",
      "vis_m": 6000,
      "fzfg": false,
      "metar_trigger": false,
      "taf_trigger": false,
      "metar": "METAR LEXJ 030630Z 08007KT 020V150 6000 -DZ BKN017 OVC021 08/06 Q1009",
      "taf": "TAF LEXJ 030200Z 0303/0403 08009KT 8000 SCT010 BKN020 TX10/0313Z TN05/0403Z"
    },
    {
      "icao": "LEZG",
      "alert": "OK",
      "vis_m": 2000,
      "fzfg": false,
      "metar_trigger": false,
      "taf_trigger": false,
      "metar": "METAR LEZG 030630Z 12002KT 2000 0500W R30R/P2000 R12R/1400N R30L/0700N R12L/P2000 BCFG BR BKN003 04/04 Q1008 NOSIG",
      "taf": "TAF LEZG 030500Z 0306/0406 VRB04KT CAVOK TX11/0315Z TN05/0306Z"
    },
    {
      "icao": "LEZL",
      "alert": "OK",
      "vis_m": 9999,
      "fzfg": false,
      "metar_trigger": false,
      "taf_trigger": false,
      "metar": "METAR LEZL 030630Z 13004KT 9999 -RA FEW030 13/13 Q1003 NOSIG",
      "taf": "TAF LEZL 030200Z 0303/0403 08008KT 9999 SCT030 TX19/0315Z TN12/0307Z"
    },
    {
      "icao": "LFBD",
      "alert": "OK",
      "vis_m": 5000,
      "fzfg": true,
      "metar_trigger": false,
      "taf_trigger": false,
      "metar": "METAR LFBD 030630Z AUTO 04005KT 5000 BR VV/// M03/M03 Q1011",
      "taf": "TAF LFBD 030500Z 0306/0412 VRB03KT 0500 FZFG VV/// TX03/0313Z TNM04/0406Z"
    },
    {
      "icao": "LFLL",
      "alert": "OK",
      "vis_m": 9999,
      "fzfg": false,
      "metar_trigger": false,
      "taf_trigger": false,
      "metar": "METAR LFLL 030630Z 02004KT 9999 FEW013 M01/M02 Q1010 TEMPO 4000 BR BKN006",
      "taf": "TAF LFLL 030500Z 0306/0412 35005KT CAVOK"
    },
    {
      "icao": "LFLS",
      "alert": "OK",
      "vis_m": 9999,
      "fzfg": false,
      "metar_trigger": false,
      "taf_trigger": false,
      "metar": "METAR LFLS 030630Z AUTO 01003KT 320V060 9999 OVC008 M00/M01 Q1009 TEMPO 4000 -SN",
      "taf": "TAF LFLS 030200Z 0303/0403 VRB02KT CAVOK"
    },
    {
      "icao": "LFMN",
      "alert": "OK",
      "vis_m": 9999,
      "fzfg": false,
      "metar_trigger": false,
      "taf_trigger": false,
      "metar": "METAR LFMN 030630Z 32015KT CAVOK 04/M06 Q1001 NOSIG",
      "taf": "TAF LFMN 030200Z 0303/0409 33012KT CAVOK"
    },
    {
      "icao": "LFOB",
      "alert": "OK",
      "vis_m": 9999,
      "fzfg": false,
      "metar_trigger": false,
      "taf_trigger": false,
      "metar": "METAR LFOB 030630Z AUTO 26008KT 9999 BKN009 BKN019 BKN029 00/M01 Q1007 TEMPO 2000 -SNRA",
      "taf": "TAF LFOB 030500Z 0306/0406 28008KT CAVOK"
    },
    {
      "icao": "LFPO",
      "alert": "OK",
      "vis_m": 9999,
      "fzfg": false,
      "metar_trigger": false,
      "taf_trigger": false,
      "metar": "METAR LFPO 030630Z AUTO 24007KT 9999 FEW047 BKN064 BKN082 M02/M04 Q1009",
      "taf": ""
    },
    {
      "icao": "LFSB",
      "alert": "OK",
      "vis_m": 9999,
      "fzfg": false,
      "metar_trigger": false,
      "taf_trigger": false,
      "metar": "METAR LFSB 030630Z AUTO 24004KT 200V290 CAVOK M04/M05 Q1009 TEMPO BKN008",
      "taf": "TAF LFSB 030511Z 0306/0406 26010KT 9999 FEW010"
    },
    {
      "icao": "LGAV",
      "alert": "OK",
      "vis_m": 9999,
      "fzfg": false,
      "metar_trigger": false,
      "taf_trigger": false,
      "metar": "METAR LGAV 030620Z 22015KT 9999 FEW025 SCT035 15/10 Q1016 NOSIG",
      "taf": "TAF LGAV 030500Z 0306/0406 21018G30KT 9999 FEW025"
    },
    {
      "icao": "LGTS",
      "alert": "OK",
      "vis_m": 8000,
      "fzfg": false,
      "metar_trigger": false,
      "taf_trigger": false,
      "metar": "METAR LGTS 030620Z VRB03KT 8000 FEW015 SCT025 04/04 Q1011 NOSIG",
      "taf": "TAF LGTS 030500Z 0306/0406 VRB03KT 9999 SCT025"
    },
    {
      "icao": "LHBP",
      "alert": "OK",
      "vis_m": 9999,
      "fzfg": false,
      "metar_trigger": false,
      "taf_trigger": false,
      "metar": "METAR LHBP 030630Z 27007KT 9999 FEW033 BKN140 00/M00 Q1004 NOSIG",
      "taf": "TAF LHBP 030515Z 0306/0406 25007KT 9999 OVC005"
    },
    {
      "icao": "LHDC",
      "alert": "OK",
      "vis_m": 9999,
      "fzfg": false,
      "metar_trigger": false,
      "taf_trigger": false,
      "metar": "METAR LHDC 030615Z AUTO 21007KT CAVOK M00/M01 Q1003 NOSIG",
      "taf": "TAF LHDC 030515Z 0306/0315 20006KT CAVOK"
    },
    {
      "icao": "LIBD",
      "alert": "OK",
      "vis_m": 9999,
      "fzfg": false,
      "metar_trigger": false,
      "taf_trigger": false,
      "metar": "METAR LIBD 030620Z 16004KT CAVOK 12/07 Q1005",
      "taf": "TAF LIBD 030500Z 0306/0406 23011KT 9999 SCT035"
    },
    {
      "icao": "LIBG",
      "alert": "OK",
      "vis_m": null,
      "fzfg": false,
      "metar_trigger": false,
      "taf_trigger": false,
      "metar": "",
      "taf": ""
    },
    {
      "icao": "LIBP",
      "alert": "OK",
      "vis_m": 9999,
      "fzfg": false,
      "metar_trigger": false,
      "taf_trigger": false,
      "metar": "METAR LIBP 030620Z AUTO 21011KT 9999 BKN250/// 14/03 Q1002",
      "taf": "TAF LIBP 030500Z 0306/0406 23012KT 9999 SCT020"
    },
    {
      "icao": "LIBR",
      "alert": "OK",
      "vis_m": 9999,
      "fzfg": false,
      "metar_trigger": false,
      "taf_trigger": false,
      "metar": "METAR LIBR 030620Z 22015KT 9999 -RA FEW045 14/08 Q1007",
      "taf": "TAF LIBR 030500Z 0306/0406 21015KT 9999 SCT030"
    },
    {
      "icao": "LICA",
      "alert": "OK",
      "vis_m": 9999,
      "fzfg": false,
      "metar_trigger": false,
      "taf_trigger": false,
      "metar": "METAR LICA 030620Z AUTO 09005KT 9999 OVC071/// 10/09 Q1011",
      "taf": "TAF LICA 030500Z 0306/0406 07010KT 9999 SCT040"
    },
    {
      "icao": "LICC",
      "alert": "OK",
      "vis_m": 9999,
      "fzfg": false,
      "metar_trigger": false,
      "taf_trigger": false,
      "metar": "METAR LICC 030620Z 24011KT 9999 BKN035 13/10 Q1012",
      "taf": "TAF LICC 030500Z 0306/0406 25013KT 9999 SCT030"
    },
    {
      "icao": "LICJ",
      "alert": "OK",
      "vis_m": 9999,
      "fzfg": false,
      "metar_trigger": false,
      "taf_trigger": false,
      "metar": "METAR LICJ 030620Z AUTO 20017KT 9999 NCD 17/09 Q1009",
      "taf": "TAF LICJ 030500Z 0306/0406 19018G30KT CAVOK"
    },
    {
      "icao": "LIMC",
      "alert": "OK",
      "vis_m": 9999,
      "fzfg": false,
      "metar_trigger": false,
      "taf_trigger": false,
      "metar": "METAR LIMC 030620Z 04004KT 010V150 CAVOK M04/M05 Q1002 NOSIG",
      "taf": "TAF LIMC 030500Z 0306/0412 VRB04KT CAVOK"
    },
    {
      "icao": "LIME",
      "alert": "OK",
      "vis_m": 300,
      "fzfg": true,
      "metar_trigger": false,
      "taf_trigger": false,
      "metar": "METAR LIME 030620Z VRB02KT 0300 R28/0650N FZFG VV002 M01/M01 Q1003 NOSIG",
      "taf": "TAF LIME 030500Z 0306/0406 VRB04KT 0300 FZFG NSC"
    },
    {
      "icao": "LIMF",
      "alert": "OK",
      "vis_m": 9999,
      "fzfg": false,
      "metar_trigger": false,
      "taf_trigger": false,
      "metar": "METAR LIMF 030620Z 27004KT 240V300 CAVOK M01/M04 Q1003",
      "taf": "TAF LIMF 030500Z 0306/0406 VRB04KT CAVOK"
    },
    {
      "icao": "LIMJ",
      "alert": "OK",
      "vis_m": 9999,
      "fzfg": false,
      "metar_trigger": false,
      "taf_trigger": false,
      "metar": "METAR LIMJ 030620Z 03017KT CAVOK 07/00 Q1001",
      "taf": "TAF LIMJ 030500Z 0306/0406 03013KT CAVOK"
    },
    {
      "icao": "LIPE",
      "alert": "OK",
      "vis_m": 2000,
      "fzfg": false,
      "metar_trigger": false,
      "taf_trigger": false,
      "metar": "METAR LIPE 030620Z VRB02KT 2000 BR OVC003 00/00 Q1004",
      "taf": "TAF LIPE 030500Z 0306/0406 VRB05KT 0600 FG BKN002"
    },
    {
      "icao": "LIPH",
      "alert": "OK",
      "vis_m": 9999,
      "fzfg": false,
      "metar_trigger": false,
      "taf_trigger": false,
      "metar": "METAR LIPH 030620Z VRB01KT CAVOK M02/M03 Q1003",
      "taf": "TAF LIPH 030500Z 0306/0406 VRB04KT 9999 SCT040"
    },
    {
      "icao": "LIPQ",
      "alert": "OK",
      "vis_m": 3400,
      "fzfg": false,
      "metar_trigger": false,
      "taf_trigger": false,
      "metar": "METAR LIPQ 030620Z AUTO 33003KT 3400 BR FEW023/// 00/M00 Q1003",
      "taf": "TAF LIPQ 030500Z 0306/0406 VRB05KT 9999 SCT020"
    },
    {
      "icao": "LIPR",
      "alert": "OK",
      "vis_m": 1200,
      "fzfg": false,
      "metar_trigger": false,
      "taf_trigger": false,
      "metar": "METAR LIPR 030620Z 16001KT 1200 R30/P2000N BR NSC M01/M01 Q1004",
      "taf": "TAF LIPR 030500Z 0306/0406 VRB06KT 7000 SCT050"
    },
    {
      "icao": "LIPX",
      "alert": "OK",
      "vis_m": 200,
      "fzfg": false,
      "metar_trigger": false,
      "taf_trigger": false,
      "metar": "METAR LIPX 030620Z 27004KT 0200 R04/0450D FG VV001 00/00 Q1003",
      "taf": "TAF LIPX 030500Z 0306/0406 VRB04KT 3000 BR FEW020"
    },
    {
      "icao": "LIPY",
      "alert": "OK",
      "vis_m": 250,
      "fzfg": false,
      "metar_trigger": false,
      "taf_trigger": false,
      "metar": "METAR LIPY 030620Z AUTO 34006KT 0250 R22/0800N FG VV002 06/06 Q1004",
      "taf": ""
    },
    {
      "icao": "LIPZ",
      "alert": "OK",
      "vis_m": 9999,
      "fzfg": false,
      "metar_trigger": false,
      "taf_trigger": false,
      "metar": "METAR LIPZ 030620Z 31006KT CAVOK M01/M03 Q1003 NOSIG",
      "taf": "TAF LIPZ 030500Z 0306/0412 VRB05KT 9999 FEW020"
    },
    {
      "icao": "LIRF",
      "alert": "OK",
      "vis_m": 9999,
      "fzfg": false,
      "metar_trigger": false,
      "taf_trigger": false,
      "metar": "METAR LIRF 030620Z 24014KT 9999 SCT020 SCT040 14/11 Q1005 NOSIG",
      "taf": "TAF LIRF 030500Z 0306/0412 24014KT 9999 SCT020"
    },
    {
      "icao": "LIRN",
      "alert": "OK",
      "vis_m": 9999,
      "fzfg": false,
      "metar_trigger": false,
      "taf_trigger": false,
      "metar": "METAR LIRN 030620Z 22010KT 9999 FEW030 14/11 Q1006 NOSIG",
      "taf": "TAF LIRN 030500Z 0306/0406 23013KT 9999 BKN030"
    },
    {
      "icao": "LIRP",
      "alert": "OK",
      "vis_m": 9999,
      "fzfg": false,
      "metar_trigger": false,
      "taf_trigger": false,
      "metar": "METAR LIRP 030615Z 23012KT 9999 BKN040 11/05 Q1001 NOSIG",
      "taf": "TAF LIRP 030500Z 0306/0406 23012KT 9999 BKN040"
    },
    {
      "icao": "LIRZ",
      "alert": "OK",
      "vis_m": 9999,
      "fzfg": false,
      "metar_trigger": false,
      "taf_trigger": false,
      "metar": "METAR LIRZ 030620Z AUTO 21002KT 9999 SCT033/// 06/05 Q1003",
      "taf": "TAF LIRZ 030500Z 0306/0406 VRB05KT 9999 SCT030"
    },
    {
      "icao": "LJLJ",
      "alert": "OK",
      "vis_m": 9999,
      "fzfg": false,
      "metar_trigger": false,
      "taf_trigger": false,
      "metar": "METAR LJLJ 030630Z VRB02KT 9999 MIFG FEW003 BKN012 M00/M00 Q1004 NOSIG",
      "taf": "TAF LJLJ 030500Z 0306/0406 VRB02KT 9999 SCT050"
    },
    {
      "icao": "LKMT",
      "alert": "OK",
      "vis_m": 9999,
      "fzfg": false,
      "metar_trigger": false,
      "taf_trigger": false,
      "metar": "METAR LKMT 030630Z 22014KT 9999 FEW031 SCT041 M02/M06 Q1000 NOSIG",
      "taf": "TAF LKMT 030500Z 0306/0406 22015KT 9999 SCT040"
    },
    {
      "icao": "LKPR",
      "alert": "OK",
      "vis_m": 9999,
      "fzfg": false,
      "metar_trigger": false,
      "taf_trigger": false,
      "metar": "METAR LKPR 030630Z 21015KT 9999 FEW037 M03/M05 Q1001 NOSIG",
      "taf": "TAF LKPR 030500Z 0306/0412 23012KT 9999 BKN035"
    },
    {
      "icao": "LLBG",
      "alert": "OK",
      "vis_m": 9999,
      "fzfg": false,
      "metar_trigger": false,
      "taf_trigger": false,
      "metar": "METAR LLBG 030620Z VRB02KT 9999 FEW050 11/07 Q1027 NOSIG",
      "taf": "TAF LLBG 030508Z 0306/0406 VRB03KT CAVOK"
    },
    {
      "icao": "LMML",
      "alert": "OK",
      "vis_m": 9999,
      "fzfg": false,
      "metar_trigger": false,
      "taf_trigger": false,
      "metar": "METAR LMML 030615Z 22016KT 200V260 9999 FEW022 15/10 Q1014 NOSIG",
      "taf": "TAF LMML 030500Z 0306/0406 24020KT 9999 FEW020"
    },
    {
      "icao": "LOWW",
      "alert": "OK",
      "vis_m": 9999,
      "fzfg": false,
      "metar_trigger": false,
      "taf_trigger": false,
      "metar": "METAR LOWW 030620Z 28023KT 9999 FEW050 01/M06 Q1004 TEMPO 28025G35KT",
      "taf": "TAF LOWW 030515Z 0306/0412 29015G25KT 9999 FEW040 TX03/0312Z TNM01/0318Z"
    },
    {
      "icao": "LPFR",
      "alert": "OK",
      "vis_m": 9999,
      "fzfg": false,
      "metar_trigger": false,
      "taf_trigger": false,
      "metar": "METAR LPFR 030630Z 17012KT 9999 SCT012 BKN020 16/14 Q0998",
      "taf": "TAF LPFR 030500Z 0306/0406 18015KT 9999 SCT015 SCT030"
    },
    {
      "icao": "LPMA",
      "alert": "OK",
      "vis_m": 9999,
      "fzfg": false,
      "metar_trigger": false,
      "taf_trigger": false,
      "metar": "METAR LPMA 030630Z 34016G28KT 300V010 9999 SCT015 FEW018CB 17/11 Q0996",
      "taf": "TAF LPMA 030500Z 0306/0406 VRB05KT 9999 SCT015"
    },
    {
      "icao": "LPPR",
      "alert": "OK",
      "vis_m": 9999,
      "fzfg": false,
      "metar_trigger": false,
      "taf_trigger": false,
      "metar": "METAR LPPR 030630Z 10007KT 070V130 9999 FEW045 14/09 Q1000",
      "taf": "TAF LPPR 030500Z 0306/0406 08010KT 9999 FEW035"
    },
    {
      "icao": "LPPS",
      "alert": "OK",
      "vis_m": 9999,
      "fzfg": false,
      "metar_trigger": false,
      "taf_trigger": false,
      "metar": "METAR LPPS 030630Z 31031G42KT 9999 SCT014 FEW018TCU SCT030 16/13 Q0994",
      "taf": "TAF LPPS 030500Z 0306/0412 27023G35KT 9999 SCT015 SCT030"
    },
    {
      "icao": "LPPT",
      "alert": "OK",
      "vis_m": 9999,
      "fzfg": false,
      "metar_trigger": false,
      "taf_trigger": false,
      "metar": "METAR LPPT 030630Z 12008G21KT 090V160 9999 FEW002 SCT006 13/13 Q0997",
      "taf": "TAF LPPT 030500Z 0306/0412 13012KT 9999 SCT015 SCT025"
    },
    {
      "icao": "LQBK",
      "alert": "OK",
      "vis_m": 1200,
      "fzfg": false,
      "metar_trigger": false,
      "taf_trigger": false,
      "metar": "METAR LQBK 030630Z 30006KT 1200 R16/P2000N +SN BR BKN003 OVC007 00/00 Q1007 NOSIG",
      "taf": "TAF LQBK 030500Z 0306/0406 33005KT 9999 SCT015 BKN030 TX02/0306Z TN00/0406Z"
    },
    {
      "icao": "LQSA",
      "alert": "OK",
      "vis_m": 8000,
      "fzfg": false,
      "metar_trigger": false,
      "taf_trigger": false,
      "metar": "METAR LQSA 030630Z 23007KT 210V270 8000 -RA SCT025 BKN040 06/05 Q1002 NOSIG",
      "taf": "TAF LQSA 030500Z 0306/0406 16006KT 9999 BKN045 TX08/0312Z TN01/0319Z"
    },
    {
      "icao": "LQTZ",
      "alert": "OK",
      "vis_m": 9999,
      "fzfg": false,
      "metar_trigger": false,
      "taf_trigger": false,
      "metar": "METAR LQTZ 030630Z 02005KT 9999 -RA SCT013 OVC020 03/02 Q1004",
      "taf": "TAF LQTZ 030500Z 0306/0406 27005KT 9999 SCT015 BKN030 TX03/0313Z TNM00/0406Z"
    },
    {
      "icao": "LRBC",
      "alert": "OK",
      "vis_m": 9999,
      "fzfg": false,
      "metar_trigger": false,
      "taf_trigger": false,
      "metar": "METAR LRBC 030630Z 13006KT 9999 OVC054 01/M02 Q1001",
      "taf": "TAF LRBC 030500Z 0306/0315 VRB04KT 9999 BKN040"
    },
    {
      "icao": "LRBS",
      "alert": "OK",
      "vis_m": 9999,
      "fzfg": false,
      "metar_trigger": false,
      "taf_trigger": false,
      "metar": "METAR LRBS 030630Z 06003KT 010V120 CAVOK 00/M02 Q1002 NOSIG",
      "taf": "TAF LRBS 030500Z 0306/0406 VRB04KT 9999 SCT045"
    },
    {
      "icao": "LRBV",
      "alert": "OK",
      "vis_m": 1200,
      "fzfg": false,
      "metar_trigger": false,
      "taf_trigger": false,
      "metar": "METAR LRBV 030630Z 27004KT 1200 R21/P2000N -SN VV008 M01/M01 Q1001",
      "taf": "TAF LRBV 030500Z 0306/0315 26008KT 5000 -SN BKN010 BKN025"
    },
    {
      "icao": "LRCL",
      "alert": "OK",
      "vis_m": 3000,
      "fzfg": false,
      "metar_trigger": false,
      "taf_trigger": false,
      "metar": "METAR LRCL 030630Z 22002KT 3000 -SN BR OVC030 M00/M01 Q1003",
      "taf": "TAF LRCL 030500Z 0306/0315 24006KT 9999 SCT030 BKN055"
    },
    {
      "icao": "LRCV",
      "alert": "OK",
      "vis_m": 9999,
      "fzfg": false,
      "metar_trigger": false,
      "taf_trigger": false,
      "metar": "METAR LRCV 030630Z 07004KT CAVOK M00/M01 Q1001",
      "taf": "TAF LRCV 030500Z 0306/0315 VRB04KT 9999 SCT045"
    },
    {
      "icao": "LRIA",
      "alert": "OK",
      "vis_m": 9999,
      "fzfg": false,
      "metar_trigger": false,
      "taf_trigger": false,
      "metar": "METAR LRIA 030630Z 20006KT 160V250 CAVOK 02/01 Q1001",
      "taf": "TAF LRIA 030500Z 0306/0315 VRB04KT 9999 BKN045"
    },
    {
      "icao": "LROP",
      "alert": "OK",
      "vis_m": 8000,
      "fzfg": false,
      "metar_trigger": false,
      "taf_trigger": false,
      "metar": "METAR LROP 030630Z 03003KT 360V090 8000 -FZRA SCT040 M00/M01 Q1002 NOSIG",
      "taf": "TAF LROP 030500Z 0306/0406 VRB04KT 9999 SCT045"
    },
    {
      "icao": "LRSB",
      "alert": "OK",
      "vis_m": 1300,
      "fzfg": false,
      "metar_trigger": false,
      "taf_trigger": false,
      "metar": "METAR LRSB 030630Z VRB01KT 1300 R27/1800U -SN BR SCT002 OVC010 M00/M00 Q1003 TEMPO 0800 SN",
      "taf": "TAF LRSB 030500Z 0306/0406 VRB04KT 1500 SN BKN005 OVC015"
    },
    {
      "icao": "LRSM",
      "alert": "OK",
      "vis_m": 9999,
      "fzfg": false,
      "metar_trigger": false,
      "taf_trigger": false,
      "metar": "METAR LRSM 030630Z AUTO 23005KT 9999 OVC120/// M00/M01 Q1003",
      "taf": ""
    },
    {
      "icao": "LRSV",
      "alert": "OK",
      "vis_m": 9999,
      "fzfg": false,
      "metar_trigger": false,
      "taf_trigger": false,
      "metar": "METAR LRSV 030630Z 20006KT CAVOK 01/M05 Q0999",
      "taf": "TAF LRSV 030500Z 0306/0315 22010KT CAVOK"
    },
    {
      "icao": "LRTM",
      "alert": "OK",
      "vis_m": 1600,
      "fzfg": false,
      "metar_trigger": false,
      "taf_trigger": false,
      "metar": "METAR LRTM 030630Z 24004KT 1600 -SN BR SCT002 BKN006 BKN016 00/M00 Q1003",
      "taf": "TAF LRTM 030500Z 0306/0315 24006KT 5000 -SN BKN005 OVC015"
    },
    {
      "icao": "LRTR",
      "alert": "OK",
      "vis_m": 9999,
      "fzfg": false,
      "metar_trigger": false,
      "taf_trigger": false,
      "metar": "METAR LRTR 030630Z 12008KT 9999 -SN FEW008 BKN031 OVC043 01/01 Q1004",
      "taf": "TAF LRTR 030500Z 0306/0406 05007KT 5000 -SN SCT005 OVC015"
    },
    {
      "icao": "LTAC",
      "alert": "OK",
      "vis_m": 4400,
      "fzfg": false,
      "metar_trigger": false,
      "taf_trigger": false,
      "metar": "METAR LTAC 030620Z VRB02KT 4400 BR NSC M12/M14 Q1022 BECMG 6000 RMK RWY21C VRB01KT RWY03L VRB01KT RWY21R VRB01KT RWY03R 00000KT RWY21L 00000KT",
      "taf": "TAF LTAC 030440Z 0306/0406 VRB02KT CAVOK"
    },
    {
      "icao": "LTFM",
      "alert": "OK",
      "vis_m": 9999,
      "fzfg": false,
      "metar_trigger": false,
      "taf_trigger": false,
      "metar": "METAR LTFM 030620Z 21021KT 9999 -SHRA FEW018TCU BKN025 09/05 Q1012 NOSIG RMK RWY17L 21018KT RWY34L 20018KT RWY16R 21016KT RWY36 21023KT RWY18 21023KT",
      "taf": "TAF LTFM 030440Z 0306/0412 20026G38KT 9999 SCT035 BKN090"
    },
    {
      "icao": "LUKK",
      "alert": "OK",
      "vis_m": 9999,
      "fzfg": false,
      "metar_trigger": false,
      "taf_trigger": false,
      "metar": "METAR LUKK 030630Z VRB02KT 9999 -RA SCT044 02/M03 Q1001 NOSIG",
      "taf": "TAF LUKK 030508Z 0306/0406 VRB06KT 9999 SCT035"
    },
    {
      "icao": "LWOH",
      "alert": "OK",
      "vis_m": 9999,
      "fzfg": false,
      "metar_trigger": false,
      "taf_trigger": false,
      "metar": "METAR LWOH 030620Z 14012KT 9999 BKN040 10/04 Q1008",
      "taf": "TAF LWOH 030545Z 0306/0406 16012KT 9999 BKN040"
    },
    {
      "icao": "LWSK",
      "alert": "OK",
      "vis_m": 9999,
      "fzfg": false,
      "metar_trigger": false,
      "taf_trigger": false,
      "metar": "METAR LWSK 030620Z 01003KT 340V100 9999 BKN069 M01/M03 Q1007 NOSIG",
      "taf": "TAF LWSK 030545Z 0306/0406 VRB03KT 9999 BKN070"
    },
    {
      "icao": "LYBE",
      "alert": "OK",
      "vis_m": 2000,
      "fzfg": false,
      "metar_trigger": false,
      "taf_trigger": false,
      "metar": "METAR LYBE 030630Z 04009KT 2000 SN BKN003 00/M00 Q1005 NOSIG",
      "taf": "TAF LYBE 030500Z 0306/0406 02012KT 9999 BKN006 TX02/0313Z TN01/0307Z"
    },
    {
      "icao": "LYNI",
      "alert": "OK",
      "vis_m": 9999,
      "fzfg": false,
      "metar_trigger": false,
      "taf_trigger": false,
      "metar": "METAR LYNI 030630Z 18007KT 150V220 9999 BKN043 09/01 Q1003 NOSIG",
      "taf": "TAF LYNI 030500Z 0306/0406 16008KT 9999 BKN040 TX08/0309Z TN01/0318Z"
    },
    {
      "icao": "LYPG",
      "alert": "OK",
      "vis_m": 7000,
      "fzfg": false,
      "metar_trigger": false,
      "taf_trigger": false,
      "metar": "METAR LYPG 030630Z 09004KT 7000 RA FEW020 SCT040 OVC070 10/08 Q1006 TEMPO 5000",
      "taf": "TAF LYPG 030500Z 0306/0406 15008KT 9999 FEW020 BKN040 OVC080 TX13/0315Z TN10/0306Z"
    },
    {
      "icao": "LZIB",
      "alert": "OK",
      "vis_m": 9999,
      "fzfg": false,
      "metar_trigger": false,
      "taf_trigger": false,
      "metar": "METAR LZIB 030630Z 28015G26KT 9999 FEW025 01/M06 Q1003 NOSIG",
      "taf": "TAF LZIB 030515Z 0306/0406 29013KT CAVOK"
    },
    {
      "icao": "LZKZ",
      "alert": "OK",
      "vis_m": 9999,
      "fzfg": false,
      "metar_trigger": false,
      "taf_trigger": false,
      "metar": "METAR LZKZ 030630Z 18003KT CAVOK M04/M06 Q1000 NOSIG",
      "taf": "TAF LZKZ 030515Z 0306/0406 24008KT CAVOK"
    },
    {
      "icao": "LZTT",
      "alert": "OK",
      "vis_m": 9999,
      "fzfg": false,
      "metar_trigger": false,
      "taf_trigger": false,
      "metar": "METAR LZTT 030630Z 29010KT 9999 FEW020 M04/M09 Q0997 NOSIG",
      "taf": "TAF LZTT 030515Z 0306/0406 25010KT 9999 FEW040"
    },
    {
      "icao": "OEJN",
      "alert": "OK",
      "vis_m": 9999,
      "fzfg": false,
      "metar_trigger": false,
      "taf_trigger": false,
      "metar": "METAR OEJN 030600Z 03004KT CAVOK 25/16 Q1017 NOSIG",
      "taf": "TAF OEJN 030500Z 0306/0412 32010KT CAVOK"
    },
    {
      "icao": "OEMA",
      "alert": "OK",
      "vis_m": 9999,
      "fzfg": false,
      "metar_trigger": false,
      "taf_trigger": false,
      "metar": "METAR OEMA 030600Z VRB02KT CAVOK 18/00 Q1022 NOSIG",
      "taf": "TAF OEMA 030500Z 0306/0412 06008KT CAVOK"
    },
    {
      "icao": "OJAI",
      "alert": "OK",
      "vis_m": 1400,
      "fzfg": false,
      "metar_trigger": false,
      "taf_trigger": false,
      "metar": "SPECI OJAI 030615Z 12003KT 1400 BR BKN025 03/02 Q1027 NOSIG",
      "taf": "TAF OJAI 030443Z 0306/0412 VRB02KT 3000 BR SCT035"
    },
    {
      "icao": "OMAA",
      "alert": "OK",
      "vis_m": 5000,
      "fzfg": false,
      "metar_trigger": false,
      "taf_trigger": false,
      "metar": "METAR OMAA 030600Z 00000KT 5000 HZ NSC 19/16 Q1021 BECMG 7000 NSW",
      "taf": "TAF OMAA 030500Z 0306/0412 VRB02KT 7000 NSC"
    },
    {
      "icao": "OMDB",
      "alert": "OK",
      "vis_m": 8000,
      "fzfg": false,
      "metar_trigger": false,
      "taf_trigger": false,
      "metar": "METAR OMDB 030630Z 20005KT 170V270 8000 NSC 21/16 Q1021 BECMG 30010KT",
      "taf": "TAF OMDB 030500Z 0306/0412 19005KT 3000 HZ NSC"
    },
    {
      "icao": "UAAA",
      "alert": "OK",
      "vis_m": 300,
      "fzfg": true,
      "metar_trigger": false,
      "taf_trigger": false,
      "metar": "METAR UAAA 030630Z 00000MPS 0300 R23L/0400N FZFG VV002 M00/M01 Q1022 NOSIG RMK QBB060",
      "taf": ""
    },
    {
      "icao": "UBBB",
      "alert": "OK",
      "vis_m": 9999,
      "fzfg": false,
      "metar_trigger": false,
      "taf_trigger": false,
      "metar": "METAR UBBB 030630Z 20010KT CAVOK 05/01 Q1028 NOSIG",
      "taf": "TAF UBBB 030501Z 0306/0406 18012KT 9999 SCT030 TX07/0310Z TN02/0401Z"
    },
    {
      "icao": "UDSG",
      "alert": "OK",
      "vis_m": 9999,
      "fzfg": false,
      "metar_trigger": false,
      "taf_trigger": false,
      "metar": "METAR UDSG 030630Z 08003KT 9999 NSC M24/M27 Q1026 NOSIG",
      "taf": "TAF UDSG 030458Z 0306/0406 VRB06KT 9999 FEW040"
    },
    {
      "icao": "UDYZ",
      "alert": "OK",
      "vis_m": 9999,
      "fzfg": false,
      "metar_trigger": false,
      "taf_trigger": false,
      "metar": "METAR UDYZ 030630Z 00000KT 9999 NSC M13/M17 Q1030 NOSIG",
      "taf": "TAF UDYZ 030500Z 0306/0406 VRB06KT 9999 NSC"
    },
    {
      "icao": "UGKO",
      "alert": "OK",
      "vis_m": 9999,
      "fzfg": false,
      "metar_trigger": false,
      "taf_trigger": false,
      "metar": "METAR UGKO 030630Z 09022G33KT CAVOK 03/M07 Q1024 NOSIG",
      "taf": "TAF UGKO 030500Z 0306/0406 08017KT CAVOK TX05/0311Z TNM02/0402Z"
    }
  ]
}