{
  "ts_utc": "2026-02-02T13:21:59Z",
  "threshold_m": 150,
  "source": "stations_override.txt (ICAO list) + aviationweather.gov (METAR/TAF raw)",
  "station_count": 159,
  "stations": [
    {
      "icao": "BIKF",
      "alert": "OK",
      "vis_m": 9999,
      "fzfg": false,
      "metar_trigger": false,
      "taf_trigger": false,
      "metar": "METAR BIKF 021300Z 12018KT 9999 FEW016 BKN240 BKN320 07/04 Q1003",
      "taf": "TAF BIKF 021030Z 0212/0312 09015KT 9999 FEW025 SCT035 TX07/0215Z TN04/0306Z"
    },
    {
      "icao": "BKPR",
      "alert": "OK",
      "vis_m": 9999,
      "fzfg": false,
      "metar_trigger": false,
      "taf_trigger": false,
      "metar": "METAR BKPR 021300Z VRB01KT 9999 BKN035 M00/M04 Q1009 NOSIG",
      "taf": "TAF BKPR 021130Z 0212/0312 35008KT 9999 BKN035"
    },
    {
      "icao": "EBCI",
      "alert": "OK",
      "vis_m": 9999,
      "fzfg": false,
      "metar_trigger": false,
      "taf_trigger": false,
      "metar": "METAR EBCI 021250Z 12005KT 090V150 9999 FEW015 BKN022 07/04 Q0998 NOSIG",
      "taf": "TAF EBCI 021110Z 0212/0318 12005KT 9999 SCT015 BKN020"
    },
    {
      "icao": "EDDB",
      "alert": "OK",
      "vis_m": 9999,
      "fzfg": false,
      "metar_trigger": false,
      "taf_trigger": false,
      "metar": "METAR EDDB 021250Z AUTO 09011KT 9999 OVC046 M08/M12 Q1012 NOSIG",
      "taf": "TAF EDDB 021100Z 0212/0312 08012KT 9999 BKN035"
    },
    {
      "icao": "EDDH",
      "alert": "OK",
      "vis_m": 9999,
      "fzfg": false,
      "metar_trigger": false,
      "taf_trigger": false,
      "metar": "METAR EDDH 021250Z AUTO 09013KT 050V120 9999 FEW017 OVC032 M06/M10 Q1011 NOSIG",
      "taf": "TAF EDDH 021100Z 0212/0318 09012KT 9999 BKN025"
    },
    {
      "icao": "EDDK",
      "alert": "OK",
      "vis_m": 9999,
      "fzfg": false,
      "metar_trigger": false,
      "taf_trigger": false,
      "metar": "METAR EDDK 021250Z AUTO 13014KT 090V160 9999 SCT027 BKN034 06/01 Q1001 NOSIG",
      "taf": "TAF EDDK 021100Z 0212/0318 11010KT 9999 BKN040"
    },
    {
      "icao": "EDDN",
      "alert": "OK",
      "vis_m": 9999,
      "fzfg": false,
      "metar_trigger": false,
      "taf_trigger": false,
      "metar": "METAR EDDN 021250Z AUTO 10010KT 9999 BKN023 02/M03 Q1003 TEMPO 4000 -SHSN SCT012 BKN020TCU",
      "taf": "TAF EDDN 021100Z 0212/0312 11007KT 9999 BKN025"
    },
    {
      "icao": "EDDS",
      "alert": "OK",
      "vis_m": 9999,
      "fzfg": false,
      "metar_trigger": false,
      "taf_trigger": false,
      "metar": "METAR EDDS 021250Z AUTO 07003KT 030V120 9999 VCSH SCT017 BKN031 BKN037 FEW///TCU 03/01 Q1000 NOSIG",
      "taf": "TAF EDDS 021100Z 0212/0312 VRB03KT 9999 SCT020 BKN025"
    },
    {
      "icao": "EDFH",
      "alert": "OK",
      "vis_m": 1100,
      "fzfg": false,
      "metar_trigger": false,
      "taf_trigger": false,
      "metar": "METAR EDFH 021250Z 13014KT 1100 R21/P2000N -SN BR OVC001 M00/M00 Q0999",
      "taf": "TAF EDFH 021100Z 0212/0312 13015G25KT 4500 BR SCT001 BKN003"
    },
    {
      "icao": "EDJA",
      "alert": "OK",
      "vis_m": 9999,
      "fzfg": false,
      "metar_trigger": false,
      "taf_trigger": false,
      "metar": "METAR EDJA 021250Z 01006KT 350V050 CAVOK 03/M00 Q1000",
      "taf": "TAF EDJA 021100Z 0212/0221 06006KT CAVOK"
    },
    {
      "icao": "EDLW",
      "alert": "OK",
      "vis_m": 9999,
      "fzfg": false,
      "metar_trigger": false,
      "taf_trigger": false,
      "metar": "METAR EDLW 021250Z 01006KT CAVOK 06/01 Q1002",
      "taf": "TAF EDLW 021100Z 0212/0312 07009KT CAVOK"
    },
    {
      "icao": "EDNY",
      "alert": "OK",
      "vis_m": 9999,
      "fzfg": false,
      "metar_trigger": false,
      "taf_trigger": false,
      "metar": "METAR EDNY 021250Z 23004KT 200V260 CAVOK 06/01 Q1001",
      "taf": ""
    },
    {
      "icao": "EDSB",
      "alert": "OK",
      "vis_m": 6000,
      "fzfg": false,
      "metar_trigger": false,
      "taf_trigger": false,
      "metar": "METAR EDSB 021250Z 02006KT 6000 OVC005 05/04 Q1001",
      "taf": "TAF EDSB 021100Z 0212/0312 01004KT 9000 SCT003 BKN020"
    },
    {
      "icao": "EETN",
      "alert": "OK",
      "vis_m": 9999,
      "fzfg": false,
      "metar_trigger": false,
      "taf_trigger": false,
      "metar": "METAR EETN 021320Z 36007KT 330V030 CAVOK M08/M15 Q1025 NOSIG",
      "taf": "TAF EETN 021130Z 0212/0312 01012KT CAVOK"
    },
    {
      "icao": "EFTU",
      "alert": "OK",
      "vis_m": 9999,
      "fzfg": false,
      "metar_trigger": false,
      "taf_trigger": false,
      "metar": "METAR EFTU 021250Z AUTO 01003KT 320V040 CAVOK M12/M20 Q1028",
      "taf": "TAF EFTU 021125Z 0212/0312 03002KT CAVOK"
    },
    {
      "icao": "EGBB",
      "alert": "OK",
      "vis_m": 9999,
      "fzfg": false,
      "metar_trigger": false,
      "taf_trigger": false,
      "metar": "METAR EGBB 021250Z 09011KT 9999 BKN011 07/05 Q0996",
      "taf": "TAF EGBB 021056Z 0212/0312 08012KT 9999 BKN012"
    },
    {
      "icao": "EGGP",
      "alert": "OK",
      "vis_m": 9999,
      "fzfg": false,
      "metar_trigger": false,
      "taf_trigger": false,
      "metar": "METAR EGGP 021250Z 12012KT 9999 FEW020 BKN035 07/04 Q0997",
      "taf": "TAF EGGP 021055Z 0212/0312 09012KT 9999 BKN030"
    },
    {
      "icao": "EGGW",
      "alert": "OK",
      "vis_m": 9999,
      "fzfg": false,
      "metar_trigger": false,
      "taf_trigger": false,
      "metar": "METAR EGGW 021250Z AUTO 10010KT 9999 BKN009 BKN015 OVC033 07/06 Q0996",
      "taf": "TAF EGGW 021052Z 0212/0312 09009KT 4000 DZ BR BKN005"
    },
    {
      "icao": "EGKK",
      "alert": "OK",
      "vis_m": 9999,
      "fzfg": false,
      "metar_trigger": false,
      "taf_trigger": false,
      "metar": "METAR EGKK 021250Z 09007KT 9999 -RA FEW007 BKN012 07/07 Q0995",
      "taf": "TAF EGKK 021057Z 0212/0318 10008KT 9999 SCT009 BKN030"
    },
    {
      "icao": "EGNM",
      "alert": "OK",
      "vis_m": 400,
      "fzfg": false,
      "metar_trigger": false,
      "taf_trigger": false,
      "metar": "METAR EGNM 021250Z 09013KT 0400 R14/1100U FG VV/// 04/04 Q0999",
      "taf": ""
    },
    {
      "icao": "EGPD",
      "alert": "OK",
      "vis_m": 4500,
      "fzfg": false,
      "metar_trigger": false,
      "taf_trigger": false,
      "metar": "METAR EGPD 021250Z AUTO 12014KT 4500 RA BKN007/// OVC011/// //////TCU 05/03 Q1005",
      "taf": "TAF EGPD 021054Z 0212/0312 11013KT 9999 SCT012 BKN018"
    },
    {
      "icao": "EGPF",
      "alert": "OK",
      "vis_m": 9999,
      "fzfg": false,
      "metar_trigger": false,
      "taf_trigger": false,
      "metar": "METAR EGPF 021250Z AUTO 07012KT 9999 BKN028 OVC033 08/05 Q1000",
      "taf": "TAF EGPF 021100Z 0212/0312 08010KT 9999 SCT030"
    },
    {
      "icao": "EHBK",
      "alert": "OK",
      "vis_m": 9999,
      "fzfg": false,
      "metar_trigger": false,
      "taf_trigger": false,
      "metar": "METAR EHBK 021255Z AUTO 09009KT 060V120 9999 BKN018 OVC021 07/04 Q1000 NOSIG",
      "taf": "TAF EHBK 021113Z 0212/0318 14005KT 9999 BKN017"
    },
    {
      "icao": "EHEH",
      "alert": "OK",
      "vis_m": null,
      "fzfg": false,
      "metar_trigger": false,
      "taf_trigger": false,
      "metar": "",
      "taf": "TAF EHEH 021126Z 0212/0318 09010KT 9999 BKN030"
    },
    {
      "icao": "EKBI",
      "alert": "OK",
      "vis_m": 9999,
      "fzfg": false,
      "metar_trigger": false,
      "taf_trigger": false,
      "metar": "METAR EKBI 021250Z AUTO 09021KT 9999 NCD M03/M14 Q1014",
      "taf": "TAF EKBI 021127Z 0212/0312 10020G32KT 9999 FEW025"
    },
    {
      "icao": "EKCH",
      "alert": "OK",
      "vis_m": 9999,
      "fzfg": false,
      "metar_trigger": false,
      "taf_trigger": false,
      "metar": "METAR EKCH 021250Z AUTO 10016KT 9999 FEW033/// M04/M11 Q1019 TEMPO 10018G28KT",
      "taf": "TAF EKCH 021127Z 0212/0312 10018KT 9999 SCT025"
    },
    {
      "icao": "ENAL",
      "alert": "OK",
      "vis_m": 9999,
      "fzfg": false,
      "metar_trigger": false,
      "taf_trigger": false,
      "metar": "METAR ENAL 021250Z 13009KT CAVOK M00/M11 Q1018",
      "taf": "TAF ENAL 021100Z 0212/0221 14012KT CAVOK"
    },
    {
      "icao": "ENBR",
      "alert": "OK",
      "vis_m": 9999,
      "fzfg": false,
      "metar_trigger": false,
      "taf_trigger": false,
      "metar": "METAR ENBR 021250Z 09003KT CAVOK M02/M15 Q1018 NOSIG RMK WIND 1200FT VRB02KT",
      "taf": "TAF ENBR 021100Z 0212/0312 09005KT CAVOK"
    },
    {
      "icao": "ENGM",
      "alert": "OK",
      "vis_m": 9999,
      "fzfg": false,
      "metar_trigger": false,
      "taf_trigger": false,
      "metar": "METAR ENGM 021250Z VRB04KT 9999 -SN FEW020 BKN035 M08/M12 Q1024 NOSIG",
      "taf": "TAF ENGM 021100Z 0212/0312 10005KT 9999 -SN BKN030"
    },
    {
      "icao": "ENHD",
      "alert": "OK",
      "vis_m": 9999,
      "fzfg": false,
      "metar_trigger": false,
      "taf_trigger": false,
      "metar": "METAR ENHD 021250Z 11012KT CAVOK M01/M15 Q1018",
      "taf": "TAF ENHD 021100Z 0212/0221 10010KT CAVOK"
    },
    {
      "icao": "ENTC",
      "alert": "OK",
      "vis_m": 9999,
      "fzfg": false,
      "metar_trigger": false,
      "taf_trigger": false,
      "metar": "METAR ENTC 021250Z 19013KT 9999 FEW020 SCT035 M01/M03 Q1022 NOSIG RMK WIND 2600FT 23006KT",
      "taf": "TAF ENTC 021100Z 0212/0312 20009KT 9999 FEW025 BKN040"
    },
    {
      "icao": "ENTO",
      "alert": "OK",
      "vis_m": 4000,
      "fzfg": false,
      "metar_trigger": false,
      "taf_trigger": false,
      "metar": "METAR ENTO 021250Z 07005KT 040V100 4000 -SN OVC023 M06/M09 Q1023 TEMPO 6000 BKN014",
      "taf": ""
    },
    {
      "icao": "ENVA",
      "alert": "OK",
      "vis_m": 9999,
      "fzfg": false,
      "metar_trigger": false,
      "taf_trigger": false,
      "metar": "METAR ENVA 021250Z 09005KT CAVOK M06/M13 Q1021 NOSIG RMK WIND 670FT 14016KT",
      "taf": "TAF ENVA 021100Z 0212/0312 11008KT CAVOK"
    },
    {
      "icao": "ENZV",
      "alert": "OK",
      "vis_m": 9999,
      "fzfg": false,
      "metar_trigger": false,
      "taf_trigger": false,
      "metar": "METAR ENZV 021250Z 11016KT CAVOK M03/M15 Q1019 NOSIG",
      "taf": "TAF ENZV 021100Z 0212/0312 13005KT CAVOK"
    },
    {
      "icao": "EPGD",
      "alert": "OK",
      "vis_m": 9999,
      "fzfg": false,
      "metar_trigger": false,
      "taf_trigger": false,
      "metar": "METAR EPGD 021300Z 12010KT CAVOK M13/M21 Q1021",
      "taf": "TAF EPGD 021130Z 0212/0312 11011KT CAVOK"
    },
    {
      "icao": "EPKK",
      "alert": "OK",
      "vis_m": 9999,
      "fzfg": false,
      "metar_trigger": false,
      "taf_trigger": false,
      "metar": "METAR EPKK 021300Z 07011KT CAVOK M08/M14 Q1013",
      "taf": "TAF EPKK 021130Z 0212/0312 06012KT CAVOK"
    },
    {
      "icao": "EPKT",
      "alert": "OK",
      "vis_m": 9999,
      "fzfg": false,
      "metar_trigger": false,
      "taf_trigger": false,
      "metar": "METAR EPKT 021300Z 06011KT CAVOK M06/M13 Q1012",
      "taf": "TAF EPKT 021130Z 0212/0312 08010KT 9999 BKN033"
    },
    {
      "icao": "EPLB",
      "alert": "OK",
      "vis_m": 9999,
      "fzfg": false,
      "metar_trigger": false,
      "taf_trigger": false,
      "metar": "METAR EPLB 021300Z 07011KT CAVOK M13/M18 Q1018",
      "taf": "TAF EPLB 021130Z 0212/0312 08008KT CAVOK"
    },
    {
      "icao": "EPMO",
      "alert": "OK",
      "vis_m": 9999,
      "fzfg": false,
      "metar_trigger": false,
      "taf_trigger": false,
      "metar": "METAR EPMO 021300Z 07013KT CAVOK M12/M19 Q1019",
      "taf": "TAF EPMO 021130Z 0212/0312 07012KT CAVOK"
    },
    {
      "icao": "EPPO",
      "alert": "OK",
      "vis_m": 9999,
      "fzfg": false,
      "metar_trigger": false,
      "taf_trigger": false,
      "metar": "METAR EPPO 021300Z 11014KT 9999 BKN018 M09/M18 Q1015",
      "taf": "TAF EPPO 021130Z 0212/0312 10014KT 9999 BKN048"
    },
    {
      "icao": "EPRA",
      "alert": "OK",
      "vis_m": 9999,
      "fzfg": false,
      "metar_trigger": false,
      "taf_trigger": false,
      "metar": "METAR EPRA 021300Z 07009KT CAVOK M12/M19 Q1017",
      "taf": "TAF EPRA 021130Z 0212/0221 08010KT CAVOK"
    },
    {
      "icao": "EPRZ",
      "alert": "OK",
      "vis_m": 9999,
      "fzfg": false,
      "metar_trigger": false,
      "taf_trigger": false,
      "metar": "METAR EPRZ 021300Z 08013KT 9999 FEW030 BKN040 M09/M17 Q1015",
      "taf": "TAF EPRZ 021130Z 0212/0312 09014KT 9999 BKN045"
    },
    {
      "icao": "EPSC",
      "alert": "OK",
      "vis_m": 9999,
      "fzfg": false,
      "metar_trigger": false,
      "taf_trigger": false,
      "metar": "METAR EPSC 021300Z 09011KT 9999 BKN026 BKN037 M09/M15 Q1015",
      "taf": "TAF EPSC 021130Z 0212/0312 08012KT 9999 SCT025"
    },
    {
      "icao": "EPSY",
      "alert": "OK",
      "vis_m": 9999,
      "fzfg": false,
      "metar_trigger": false,
      "taf_trigger": false,
      "metar": "METAR EPSY 021300Z 08005KT 040V120 CAVOK M13/M23 Q1021",
      "taf": "TAF EPSY 021130Z 0212/0221 07006KT CAVOK"
    },
    {
      "icao": "EPWA",
      "alert": "OK",
      "vis_m": 9999,
      "fzfg": false,
      "metar_trigger": false,
      "taf_trigger": false,
      "metar": "METAR EPWA 021300Z 10009KT CAVOK M10/M20 Q1019 NOSIG",
      "taf": "TAF EPWA 021130Z 0212/0312 09011KT CAVOK"
    },
    {
      "icao": "EPWR",
      "alert": "OK",
      "vis_m": 9999,
      "fzfg": false,
      "metar_trigger": false,
      "taf_trigger": false,
      "metar": "METAR EPWR 021300Z 09010KT 9999 OVC020 M07/M13 Q1013",
      "taf": "TAF EPWR 021130Z 0212/0312 10011KT 9999 BKN020"
    },
    {
      "icao": "ESGG",
      "alert": "OK",
      "vis_m": 9999,
      "fzfg": false,
      "metar_trigger": false,
      "taf_trigger": false,
      "metar": "METAR ESGG 021250Z 11009KT 070V160 9999 BKN027 M05/M12 Q1021",
      "taf": "TAF ESGG 021130Z 0212/0312 10010KT 9999 -SN BKN025"
    },
    {
      "icao": "ESKN",
      "alert": "OK",
      "vis_m": 7000,
      "fzfg": false,
      "metar_trigger": false,
      "taf_trigger": false,
      "metar": "METAR ESKN 021250Z 13007KT 080V150 7000 -SN FEW016 BKN021 M05/M10 Q1027",
      "taf": "TAF ESKN 021130Z 0212/0312 08005KT 9000 -SN SCT012 BKN020"
    },
    {
      "icao": "ESMS",
      "alert": "OK",
      "vis_m": 9999,
      "fzfg": false,
      "metar_trigger": false,
      "taf_trigger": false,
      "metar": "METAR ESMS 021250Z 10022KT CAVOK M05/M11 Q1018",
      "taf": "TAF ESMS 021127Z 0212/0312 10015KT 9999 SCT025"
    },
    {
      "icao": "ESSA",
      "alert": "OK",
      "vis_m": 9999,
      "fzfg": false,
      "metar_trigger": false,
      "taf_trigger": false,
      "metar": "METAR ESSA 021250Z 02003KT 9999 BKN026 M06/M12 Q1028 NOSIG",
      "taf": "TAF ESSA 021130Z 0212/0312 08005KT 9000 BKN030"
    },
    {
      "icao": "EYKA",
      "alert": "OK",
      "vis_m": 9999,
      "fzfg": false,
      "metar_trigger": false,
      "taf_trigger": false,
      "metar": "METAR EYKA 021320Z 33003KT 290V350 CAVOK M14/M18 Q1022",
      "taf": "TAF EYKA 021100Z 0212/0312 VRB04KT 8000 NSC"
    },
    {
      "icao": "EYPA",
      "alert": "OK",
      "vis_m": 9999,
      "fzfg": false,
      "metar_trigger": false,
      "taf_trigger": false,
      "metar": "METAR EYPA 021320Z 06005KT CAVOK M10/M16 Q1025",
      "taf": "TAF EYPA 021100Z 0212/0312 VRB05KT CAVOK"
    },
    {
      "icao": "EYVI",
      "alert": "OK",
      "vis_m": 9999,
      "fzfg": false,
      "metar_trigger": false,
      "taf_trigger": false,
      "metar": "METAR EYVI 021250Z 29005KT 9999 SCT010 M15/M19 Q1019 NOSIG",
      "taf": "TAF EYVI 021100Z 0212/0312 VRB04KT 9000 NSC"
    },
    {
      "icao": "GCFV",
      "alert": "OK",
      "vis_m": 9999,
      "fzfg": false,
      "metar_trigger": false,
      "taf_trigger": false,
      "metar": "METAR GCFV 021300Z 26017KT 9999 SCT028 23/14 Q1016",
      "taf": "TAF GCFV 020800Z 0209/0309 27005KT 9999 SCT025 TX22/0214Z TN15/0306Z"
    },
    {
      "icao": "GCLP",
      "alert": "OK",
      "vis_m": 9999,
      "fzfg": false,
      "metar_trigger": false,
      "taf_trigger": false,
      "metar": "METAR GCLP 021300Z 20011KT 160V230 9999 FEW035 22/13 Q1017 NOSIG",
      "taf": "TAF GCLP 020800Z 0209/0309 18010KT 9999 FEW020 TX23/0214Z TN15/0306Z"
    },
    {
      "icao": "GCTS",
      "alert": "OK",
      "vis_m": 9999,
      "fzfg": false,
      "metar_trigger": false,
      "taf_trigger": false,
      "metar": "METAR GCTS 021300Z 21007KT 160V240 9999 BKN030 20/13 Q1018 NOSIG",
      "taf": "TAF GCTS 020800Z 0209/0309 13007KT 9999 SCT025 TX23/0214Z TN16/0306Z"
    },
    {
      "icao": "GMAD",
      "alert": "OK",
      "vis_m": 8000,
      "fzfg": false,
      "metar_trigger": false,
      "taf_trigger": false,
      "metar": "METAR GMAD 021300Z 00000KT 8000 SCT026 BKN050 18/13 Q1015 NOSIG",
      "taf": ""
    },
    {
      "icao": "GMMN",
      "alert": "OK",
      "vis_m": 6000,
      "fzfg": false,
      "metar_trigger": false,
      "taf_trigger": false,
      "metar": "METAR GMMN 021300Z 21009KT 6000 -RA SCT004 BKN013 13/11 Q1012 NOSIG",
      "taf": "TAF GMMN 021100Z 0212/0318 26014KT 5000 RA SCT004 OVC010"
    },
    {
      "icao": "GMMX",
      "alert": "OK",
      "vis_m": 4000,
      "fzfg": false,
      "metar_trigger": false,
      "taf_trigger": false,
      "metar": "METAR GMMX 021300Z 32006KT 280V360 4000 -RA SCT013 BKN023 13/11 Q1013 NOSIG",
      "taf": "TAF GMMX 021100Z 0212/0318 28006KT 8000 BKN023 SCT080"
    },
    {
      "icao": "HEGN",
      "alert": "OK",
      "vis_m": 9999,
      "fzfg": false,
      "metar_trigger": false,
      "taf_trigger": false,
      "metar": "METAR HEGN 021300Z 11006KT CAVOK 26/10 Q1013 NOSIG",
      "taf": "TAF HEGN 021100Z 0212/0318 10008KT CAVOK"
    },
    {
      "icao": "HEMA",
      "alert": "OK",
      "vis_m": 9999,
      "fzfg": false,
      "metar_trigger": false,
      "taf_trigger": false,
      "metar": "METAR HEMA 021300Z 10009KT CAVOK 26/19 Q1013 NOSIG",
      "taf": "TAF HEMA 021100Z 0212/0318 11008KT CAVOK"
    },
    {
      "icao": "HESH",
      "alert": "OK",
      "vis_m": 9999,
      "fzfg": false,
      "metar_trigger": false,
      "taf_trigger": false,
      "metar": "METAR HESH 021300Z 15011KT CAVOK 26/16 Q1013 NOSIG",
      "taf": "TAF HESH 021100Z 0212/0318 30008KT CAVOK"
    },
    {
      "icao": "HESX",
      "alert": "OK",
      "vis_m": 9999,
      "fzfg": false,
      "metar_trigger": false,
      "taf_trigger": false,
      "metar": "METAR HESX 021300Z 26012KT CAVOK 22/04 Q1015 NOSIG",
      "taf": "TAF HESX 021100Z 0212/0318 26014G24KT 6000 NSC"
    },
    {
      "icao": "LATI",
      "alert": "OK",
      "vis_m": 9999,
      "fzfg": false,
      "metar_trigger": false,
      "taf_trigger": false,
      "metar": "METAR LATI 021320Z 36006KT 260V060 9999 -RA FEW020CB BKN045 11/07 Q1009 RERA NOSIG",
      "taf": "TAF LATI 021100Z 0212/0312 VRB05KT 9999 SCT060 BKN080 TX16/0312Z TN06/0304Z"
    },
    {
      "icao": "LBPD",
      "alert": "OK",
      "vis_m": 9999,
      "fzfg": false,
      "metar_trigger": false,
      "taf_trigger": false,
      "metar": "METAR LBPD 021300Z AUTO 09006KT 9999 FEW011/// BKN042/// OVC056/// 00/00 Q1011 NOSIG",
      "taf": "TAF LBPD 021100Z 0212/0312 10010KT 7000 SCT005 BKN015 OVC060"
    },
    {
      "icao": "LBSF",
      "alert": "OK",
      "vis_m": 9999,
      "fzfg": false,
      "metar_trigger": false,
      "taf_trigger": false,
      "metar": "METAR LBSF 021300Z VRB02KT 9999 OVC049 M02/M06 Q1010 NOSIG",
      "taf": "TAF LBSF 021100Z 0212/0312 VRB03KT 8000 SCT010 BKN020 OVC045"
    },
    {
      "icao": "LBWN",
      "alert": "OK",
      "vis_m": 9999,
      "fzfg": false,
      "metar_trigger": false,
      "taf_trigger": false,
      "metar": "METAR LBWN 021300Z AUTO 28012KT 9999 SCT030/// BKN040/// M06/M09 Q1013 NOSIG",
      "taf": "TAF LBWN 021100Z 0212/0312 34012KT 5000 -SN SCT010 OVC020"
    },
    {
      "icao": "LCLK",
      "alert": "OK",
      "vis_m": 1400,
      "fzfg": false,
      "metar_trigger": false,
      "taf_trigger": false,
      "metar": "METAR LCLK 021300Z 23019KT 1400 R22/P2000 R04/P2000 DU SCT026 19/14 Q1010 NOSIG",
      "taf": "TAF LCLK 021130Z 0212/0312 22020KT 3000 DU FEW020"
    },
    {
      "icao": "LCPH",
      "alert": "OK",
      "vis_m": 5000,
      "fzfg": false,
      "metar_trigger": false,
      "taf_trigger": false,
      "metar": "METAR LCPH 021300Z 26014KT 5000 DU FEW024TCU SCT031 BKN060 18/14 Q1010 BECMG 7000",
      "taf": "TAF LCPH 021130Z 0212/0312 25020KT 2000 DU FEW020"
    },
    {
      "icao": "LEAL",
      "alert": "OK",
      "vis_m": 9999,
      "fzfg": false,
      "metar_trigger": false,
      "taf_trigger": false,
      "metar": "METAR LEAL 021300Z 24012KT 210V270 9999 FEW028 SCT065 18/10 Q0998 NOSIG",
      "taf": "TAF LEAL 021100Z 0212/0312 VRB04KT 9999 FEW030 TX19/0213Z TN05/0306Z"
    },
    {
      "icao": "LEBB",
      "alert": "OK",
      "vis_m": 9999,
      "fzfg": false,
      "metar_trigger": false,
      "taf_trigger": false,
      "metar": "METAR LEBB 021300Z 22012G25KT 190V300 9999 SCT050 17/05 Q0988 NOSIG",
      "taf": "TAF LEBB 021100Z 0212/0312 16009KT 9999 SCT050 TX16/0212Z TN09/0307Z"
    },
    {
      "icao": "LEBL",
      "alert": "OK",
      "vis_m": 1500,
      "fzfg": false,
      "metar_trigger": false,
      "taf_trigger": false,
      "metar": "SPECI LEBL 021312Z 34004KT 290V040 1500 +DZ BR BKN008 10/09 Q0996 NOSIG",
      "taf": ""
    },
    {
      "icao": "LECH",
      "alert": "OK",
      "vis_m": 9000,
      "fzfg": false,
      "metar_trigger": false,
      "taf_trigger": false,
      "metar": "METAR LECH 021300Z AUTO 09005KT 050V150 9000 FEW016 13/09 Q0996",
      "taf": ""
    },
    {
      "icao": "LEMD",
      "alert": "OK",
      "vis_m": 9999,
      "fzfg": false,
      "metar_trigger": false,
      "taf_trigger": false,
      "metar": "METAR LEMD 021300Z 21015G28KT 190V250 9999 BKN018 BKN025 08/05 Q0996 NOSIG",
      "taf": "TAF LEMD 021100Z 0212/0318 22010KT 9999 SCT020 TX10/0214Z TN04/0308Z"
    },
    {
      "icao": "LEMG",
      "alert": "OK",
      "vis_m": 9999,
      "fzfg": false,
      "metar_trigger": false,
      "taf_trigger": false,
      "metar": "METAR LEMG 021300Z 17003KT 130V220 9999 FEW030 SCT050 BKN070 10/09 Q1005 NOSIG",
      "taf": "TAF LEMG 021100Z 0212/0312 29006KT 9999 SCT025 TX16/0215Z TN09/0307Z"
    },
    {
      "icao": "LEVC",
      "alert": "OK",
      "vis_m": 9999,
      "fzfg": false,
      "metar_trigger": false,
      "taf_trigger": false,
      "metar": "METAR LEVC 021300Z 25025G35KT 220V280 9999 -RA FEW012 SCT030 BKN040 13/08 Q0997 RERA NOSIG",
      "taf": "TAF LEVC 021100Z 0212/0312 VRB04KT 9999 FEW030 TX17/0213Z TN08/0306Z"
    },
    {
      "icao": "LEXJ",
      "alert": "OK",
      "vis_m": 9999,
      "fzfg": false,
      "metar_trigger": false,
      "taf_trigger": false,
      "metar": "METAR LEXJ 021300Z 19008KT 150V230 CAVOK 16/06 Q0987",
      "taf": ""
    },
    {
      "icao": "LEZG",
      "alert": "OK",
      "vis_m": 9999,
      "fzfg": false,
      "metar_trigger": false,
      "taf_trigger": false,
      "metar": "METAR LEZG 021300Z 09010KT 9999 -DZ SCT050 SCT060 BKN070 10/09 Q0993 NOSIG",
      "taf": "TAF LEZG 021100Z 0212/0312 11009KT 9999 FEW050 TX14/0214Z TN04/0306Z"
    },
    {
      "icao": "LEZL",
      "alert": "OK",
      "vis_m": 9999,
      "fzfg": false,
      "metar_trigger": false,
      "taf_trigger": false,
      "metar": "METAR LEZL 021300Z 25013KT 210V280 9999 FEW032 SCT045 15/09 Q1003 NOSIG",
      "taf": "TAF LEZL 020800Z 0209/0309 23010KT 9999 SCT025 TX16/0215Z TN10/0307Z"
    },
    {
      "icao": "LFBD",
      "alert": "OK",
      "vis_m": 9999,
      "fzfg": false,
      "metar_trigger": false,
      "taf_trigger": false,
      "metar": "METAR LFBD 021300Z AUTO 14013KT CAVOK 14/09 Q0989 TEMPO 14015G25KT 4500 SHRA BKN050TCU",
      "taf": "TAF LFBD 021100Z 0212/0318 14010KT CAVOK TX13/0214Z TN06/0307Z"
    },
    {
      "icao": "LFLL",
      "alert": "OK",
      "vis_m": 9999,
      "fzfg": false,
      "metar_trigger": false,
      "taf_trigger": false,
      "metar": "METAR LFLL 021300Z 19015KT 9999 FEW034 BKN260 13/05 Q0997 NOSIG",
      "taf": "TAF LFLL 021100Z 0212/0318 18015KT 9999 SCT025"
    },
    {
      "icao": "LFLS",
      "alert": "OK",
      "vis_m": 9999,
      "fzfg": false,
      "metar_trigger": false,
      "taf_trigger": false,
      "metar": "METAR LFLS 021300Z AUTO 21010KT CAVOK 11/06 Q0998 NOSIG",
      "taf": "TAF LFLS 020800Z 0209/0309 09005KT 9999 BKN045"
    },
    {
      "icao": "LFMN",
      "alert": "OK",
      "vis_m": 9999,
      "fzfg": false,
      "metar_trigger": false,
      "taf_trigger": false,
      "metar": "METAR LFMN 021300Z 02008KT 9999 -RA BKN011 09/05 Q1005 NOSIG",
      "taf": ""
    },
    {
      "icao": "LFOB",
      "alert": "OK",
      "vis_m": 9999,
      "fzfg": false,
      "metar_trigger": false,
      "taf_trigger": false,
      "metar": "METAR LFOB 021300Z AUTO 10010KT 9999 BKN012 08/06 Q0995 NOSIG",
      "taf": ""
    },
    {
      "icao": "LFPO",
      "alert": "OK",
      "vis_m": 9999,
      "fzfg": false,
      "metar_trigger": false,
      "taf_trigger": false,
      "metar": "METAR LFPO 021300Z 09008KT 9999 BKN009 08/06 Q0995 BECMG BKN012",
      "taf": "TAF LFPO 021100Z 0212/0318 12006KT 9999 SCT012"
    },
    {
      "icao": "LFSB",
      "alert": "OK",
      "vis_m": 9999,
      "fzfg": false,
      "metar_trigger": false,
      "taf_trigger": false,
      "metar": "METAR LFSB 021300Z AUTO 11006KT 080V220 CAVOK 08/04 Q0999 NOSIG",
      "taf": "TAF LFSB 021100Z 0212/0312 12005KT 9999 SCT040 BKN060"
    },
    {
      "icao": "LGAV",
      "alert": "OK",
      "vis_m": 9999,
      "fzfg": false,
      "metar_trigger": false,
      "taf_trigger": false,
      "metar": "METAR LGAV 021250Z 28007KT 150V340 9999 SCT020 15/05 Q1008 NOSIG",
      "taf": "TAF LGAV 021100Z 0212/0312 30010KT 9999 SCT025 SCT070"
    },
    {
      "icao": "LGTS",
      "alert": "OK",
      "vis_m": 9999,
      "fzfg": false,
      "metar_trigger": false,
      "taf_trigger": false,
      "metar": "METAR LGTS 021250Z 30009KT 9999 FEW025 10/02 Q1009 NOSIG",
      "taf": "TAF LGTS 021100Z 0212/0312 VRB03KT 9999 SCT025"
    },
    {
      "icao": "LHBP",
      "alert": "OK",
      "vis_m": 9999,
      "fzfg": false,
      "metar_trigger": false,
      "taf_trigger": false,
      "metar": "METAR LHBP 021300Z 18006KT 9999 -SN OVC008 01/M01 Q1011 NOSIG",
      "taf": "TAF LHBP 021115Z 0212/0312 17006KT 9999 SCT008 OVC040"
    },
    {
      "icao": "LHDC",
      "alert": "OK",
      "vis_m": 9999,
      "fzfg": false,
      "metar_trigger": false,
      "taf_trigger": false,
      "metar": "METAR LHDC 021245Z AUTO 27005KT 9999 FEW010 OVC026 00/M02 Q1012 NOSIG",
      "taf": "TAF LHDC 021115Z 0212/0221 VRB03KT 9999 BKN025"
    },
    {
      "icao": "LIBD",
      "alert": "OK",
      "vis_m": 9999,
      "fzfg": false,
      "metar_trigger": false,
      "taf_trigger": false,
      "metar": "METAR LIBD 021250Z 34007KT 310V020 9999 FEW030 12/05 Q1009",
      "taf": "TAF LIBD 021100Z 0212/0312 33008KT 9999 FEW030"
    },
    {
      "icao": "LIBG",
      "alert": "OK",
      "vis_m": 9999,
      "fzfg": false,
      "metar_trigger": false,
      "taf_trigger": false,
      "metar": "METAR LIBG 021250Z 24006KT 190V280 CAVOK 15/04 Q1008",
      "taf": "TAF LIBG 021100Z 0212/0221 VRB05KT 9999 FEW040"
    },
    {
      "icao": "LIBP",
      "alert": "OK",
      "vis_m": 9999,
      "fzfg": false,
      "metar_trigger": false,
      "taf_trigger": false,
      "metar": "METAR LIBP 021250Z AUTO 07007KT 030V090 9999 NCD 11/01 Q1008",
      "taf": "TAF LIBP 021100Z 0212/0312 VRB05KT 9999 FEW040"
    },
    {
      "icao": "LIBR",
      "alert": "OK",
      "vis_m": 9999,
      "fzfg": false,
      "metar_trigger": false,
      "taf_trigger": false,
      "metar": "METAR LIBR 021250Z 33011KT 9999 FEW040 13/03 Q1009",
      "taf": "TAF LIBR 021100Z 0212/0312 30010KT 9999 SCT030"
    },
    {
      "icao": "LICA",
      "alert": "OK",
      "vis_m": 9999,
      "fzfg": false,
      "metar_trigger": false,
      "taf_trigger": false,
      "metar": "METAR LICA 021250Z 28010KT 9999 SCT020 BKN055 14/10 Q1010",
      "taf": "TAF LICA 021100Z 0212/0312 28012KT 9999 SCT025"
    },
    {
      "icao": "LICC",
      "alert": "OK",
      "vis_m": 9999,
      "fzfg": false,
      "metar_trigger": false,
      "taf_trigger": false,
      "metar": "METAR LICC 021250Z 26015KT 9999 FEW040 18/13 Q1010",
      "taf": "TAF LICC 021100Z 0212/0312 24016KT 9999 FEW040"
    },
    {
      "icao": "LICJ",
      "alert": "OK",
      "vis_m": 9999,
      "fzfg": false,
      "metar_trigger": false,
      "taf_trigger": false,
      "metar": "METAR LICJ 021250Z 22009KT 9999 SCT050 16/09 Q1010",
      "taf": "TAF LICJ 021100Z 0212/0312 28015KT 9999 SCT030"
    },
    {
      "icao": "LIMC",
      "alert": "OK",
      "vis_m": 6000,
      "fzfg": false,
      "metar_trigger": false,
      "taf_trigger": false,
      "metar": "METAR LIMC 021250Z VRB02KT 6000 BKN030 06/03 Q1007 NOSIG",
      "taf": "TAF LIMC 021100Z 0212/0318 VRB05KT 6000 BKN040"
    },
    {
      "icao": "LIME",
      "alert": "OK",
      "vis_m": 7000,
      "fzfg": false,
      "metar_trigger": false,
      "taf_trigger": false,
      "metar": "METAR LIME 021250Z 17003KT 140V210 7000 FEW040 BKN065 06/03 Q1007 NOSIG",
      "taf": "TAF LIME 021100Z 0212/0312 VRB05KT 7000 BKN040"
    },
    {
      "icao": "LIMF",
      "alert": "OK",
      "vis_m": 5000,
      "fzfg": false,
      "metar_trigger": false,
      "taf_trigger": false,
      "metar": "METAR LIMF 021250Z VRB02KT 5000 BR OVC045 05/02 Q1007",
      "taf": "TAF LIMF 021100Z 0212/0312 VRB04KT 6000 BKN040"
    },
    {
      "icao": "LIMJ",
      "alert": "OK",
      "vis_m": 9999,
      "fzfg": false,
      "metar_trigger": false,
      "taf_trigger": false,
      "metar": "METAR LIMJ 021250Z 05014KT 9999 SCT020 BKN027 06/03 Q1006",
      "taf": "TAF LIMJ 021100Z 0212/0312 04014KT 7000 BKN020"
    },
    {
      "icao": "LIPE",
      "alert": "OK",
      "vis_m": 9999,
      "fzfg": false,
      "metar_trigger": false,
      "taf_trigger": false,
      "metar": "METAR LIPE 021250Z 09008KT 050V120 CAVOK 08/04 Q1007",
      "taf": "TAF LIPE 021100Z 0212/0312 VRB05KT 8000 SCT050"
    },
    {
      "icao": "LIPH",
      "alert": "OK",
      "vis_m": 9999,
      "fzfg": false,
      "metar_trigger": false,
      "taf_trigger": false,
      "metar": "METAR LIPH 021250Z VRB02KT 9999 BKN050 09/M00 Q1008",
      "taf": "TAF LIPH 021100Z 0212/0312 VRB05KT 9999 BKN040"
    },
    {
      "icao": "LIPQ",
      "alert": "OK",
      "vis_m": 9999,
      "fzfg": false,
      "metar_trigger": false,
      "taf_trigger": false,
      "metar": "METAR LIPQ 021250Z 31005KT 270V340 CAVOK 10/M01 Q1008",
      "taf": "TAF LIPQ 021100Z 0212/0312 VRB05KT 9999 SCT040"
    },
    {
      "icao": "LIPR",
      "alert": "OK",
      "vis_m": 9999,
      "fzfg": false,
      "metar_trigger": false,
      "taf_trigger": false,
      "metar": "METAR LIPR 021250Z 03005KT 360V060 CAVOK 08/03 Q1008",
      "taf": "TAF LIPR 021100Z 0212/0312 07008KT 9999 SCT040"
    },
    {
      "icao": "LIPX",
      "alert": "OK",
      "vis_m": 8000,
      "fzfg": false,
      "metar_trigger": false,
      "taf_trigger": false,
      "metar": "METAR LIPX 021250Z VRB02KT 8000 -RA BKN040 06/02 Q1008",
      "taf": "TAF LIPX 021100Z 0212/0312 VRB05KT 7000 SCT040 BKN060"
    },
    {
      "icao": "LIPY",
      "alert": "OK",
      "vis_m": 9999,
      "fzfg": false,
      "metar_trigger": false,
      "taf_trigger": false,
      "metar": "METAR LIPY 021250Z 01005KT 310V040 CAVOK 10/04 Q1008",
      "taf": "TAF LIPY 021100Z 0212/0312 VRB05KT 9999 FEW040"
    },
    {
      "icao": "LIPZ",
      "alert": "OK",
      "vis_m": 9999,
      "fzfg": false,
      "metar_trigger": false,
      "taf_trigger": false,
      "metar": "METAR LIPZ 021250Z 14005KT 9999 FEW030 08/M01 Q1008 NOSIG",
      "taf": "TAF LIPZ 021100Z 0212/0318 VRB05KT 9999 SCT040"
    },
    {
      "icao": "LIRF",
      "alert": "OK",
      "vis_m": 9999,
      "fzfg": false,
      "metar_trigger": false,
      "taf_trigger": false,
      "metar": "METAR LIRF 021250Z 25003KT 190V320 CAVOK 13/02 Q1008 NOSIG",
      "taf": "TAF LIRF 021100Z 0212/0318 05007KT CAVOK"
    },
    {
      "icao": "LIRN",
      "alert": "OK",
      "vis_m": 9999,
      "fzfg": false,
      "metar_trigger": false,
      "taf_trigger": false,
      "metar": "METAR LIRN 021250Z 20009KT 170V240 CAVOK 14/03 Q1009 NOSIG",
      "taf": "TAF LIRN 021100Z 0212/0312 VRB05KT 9999 FEW030"
    },
    {
      "icao": "LIRP",
      "alert": "OK",
      "vis_m": 9999,
      "fzfg": false,
      "metar_trigger": false,
      "taf_trigger": false,
      "metar": "METAR LIRP 021245Z 10004KT 9999 -RA FEW020 SCT025 08/07 Q1008 NOSIG",
      "taf": "TAF LIRP 021100Z 0212/0312 11008KT 9999 SCT040 BKN080"
    },
    {
      "icao": "LIRZ",
      "alert": "OK",
      "vis_m": 9999,
      "fzfg": false,
      "metar_trigger": false,
      "taf_trigger": false,
      "metar": "METAR LIRZ 021250Z AUTO VRB02KT 9999 BKN082/// 10/03 Q1007",
      "taf": "TAF LIRZ 021100Z 0212/0312 VRB06KT CAVOK"
    },
    {
      "icao": "LJLJ",
      "alert": "OK",
      "vis_m": 9999,
      "fzfg": false,
      "metar_trigger": false,
      "taf_trigger": false,
      "metar": "METAR LJLJ 021300Z 15004KT 110V180 9999 OVC027 03/M02 Q1008 NOSIG",
      "taf": "TAF LJLJ 021100Z 0212/0312 VRB02KT 9999 BKN025"
    },
    {
      "icao": "LKMT",
      "alert": "OK",
      "vis_m": 9999,
      "fzfg": false,
      "metar_trigger": false,
      "taf_trigger": false,
      "metar": "METAR LKMT 021300Z 04008KT 9999 OVC039 M06/M10 Q1011 NOSIG",
      "taf": "TAF LKMT 021100Z 0212/0312 04006KT 9999 SCT012 OVC035"
    },
    {
      "icao": "LKPR",
      "alert": "OK",
      "vis_m": 5000,
      "fzfg": false,
      "metar_trigger": false,
      "taf_trigger": false,
      "metar": "METAR LKPR 021300Z 07010KT 5000 BR SCT010 OVC015 M03/M04 Q1006 NOSIG",
      "taf": "TAF LKPR 021100Z 0212/0318 08008KT 5000 BR OVC012"
    },
    {
      "icao": "LLBG",
      "alert": "OK",
      "vis_m": 4000,
      "fzfg": false,
      "metar_trigger": false,
      "taf_trigger": false,
      "metar": "METAR LLBG 021250Z 25015KT 4000 DU NSC 21/11 Q1014 NOSIG",
      "taf": ""
    },
    {
      "icao": "LMML",
      "alert": "OK",
      "vis_m": 9999,
      "fzfg": false,
      "metar_trigger": false,
      "taf_trigger": false,
      "metar": "METAR LMML 021315Z 24010KT 200V270 9999 FEW029 16/10 Q1013 NOSIG",
      "taf": "TAF LMML 021100Z 0212/0312 26015KT 9999 FEW025"
    },
    {
      "icao": "LOWW",
      "alert": "OK",
      "vis_m": 8000,
      "fzfg": false,
      "metar_trigger": false,
      "taf_trigger": false,
      "metar": "METAR LOWW 021250Z 13014KT 8000 FEW008 BKN009 02/M01 Q1007 TEMPO BKN012",
      "taf": "TAF LOWW 021115Z 0212/0318 13015KT 6000 BKN006 TX01/0213Z TNM01/0308Z"
    },
    {
      "icao": "LPFR",
      "alert": "OK",
      "vis_m": 9999,
      "fzfg": false,
      "metar_trigger": false,
      "taf_trigger": false,
      "metar": "METAR LPFR 021300Z 26020KT 9999 VCSH FEW018 SCT030 15/08 Q1004",
      "taf": "TAF LPFR 021100Z 0212/0312 27020KT 9999 FEW018 SCT030"
    },
    {
      "icao": "LPMA",
      "alert": "OK",
      "vis_m": 9999,
      "fzfg": false,
      "metar_trigger": false,
      "taf_trigger": false,
      "metar": "METAR LPMA 021300Z 25008KT 230V290 9999 SCT015 18/06 Q1015",
      "taf": "TAF LPMA 021100Z 0212/0312 34015KT 9999 SCT015"
    },
    {
      "icao": "LPPR",
      "alert": "OK",
      "vis_m": 9999,
      "fzfg": false,
      "metar_trigger": false,
      "taf_trigger": false,
      "metar": "METAR LPPR 021300Z 23014KT 9999 FEW015 SCT030 13/08 Q0993",
      "taf": "TAF LPPR 021100Z 0212/0312 25012KT 9999 FEW015 SCT025"
    },
    {
      "icao": "LPPS",
      "alert": "OK",
      "vis_m": 9999,
      "fzfg": false,
      "metar_trigger": false,
      "taf_trigger": false,
      "metar": "METAR LPPS 021300Z 28017KT 9999 FEW015 SCT030 16/11 Q1015",
      "taf": "TAF LPPS 021100Z 0212/0318 30018KT 9999 SCT015 SCT030"
    },
    {
      "icao": "LPPT",
      "alert": "OK",
      "vis_m": 9999,
      "fzfg": false,
      "metar_trigger": false,
      "taf_trigger": false,
      "metar": "METAR LPPT 021300Z 23014KT 9999 VCTS FEW015 FEW025CB SCT030 11/09 Q0999",
      "taf": "TAF LPPT 021100Z 0212/0318 27013KT 9999 FEW018 SCT030"
    },
    {
      "icao": "LQBK",
      "alert": "OK",
      "vis_m": 9999,
      "fzfg": false,
      "metar_trigger": false,
      "taf_trigger": false,
      "metar": "METAR LQBK 021300Z VRB02KT 9999 BKN012 OVC017 02/M01 Q1011 NOSIG",
      "taf": "TAF LQBK 021100Z 0212/0312 07005KT 9999 BKN012 SCT035 TX04/0214Z TNM02/0305Z"
    },
    {
      "icao": "LQSA",
      "alert": "OK",
      "vis_m": 9999,
      "fzfg": false,
      "metar_trigger": false,
      "taf_trigger": false,
      "metar": "METAR LQSA 021300Z VRB01KT 9999 SCT025 BKN045 04/M02 Q1008 NOSIG",
      "taf": "TAF LQSA 021100Z 0212/0312 VRB02KT 9999 SCT030 TX10/0312Z TNM03/0301Z"
    },
    {
      "icao": "LQTZ",
      "alert": "OK",
      "vis_m": 9999,
      "fzfg": false,
      "metar_trigger": false,
      "taf_trigger": false,
      "metar": "METAR LQTZ 021300Z 32003KT 270V350 9999 BKN025 02/M00 Q1010",
      "taf": "TAF LQTZ 021100Z 0212/0312 10005KT 9999 SCT015 BKN030 TX04/0214Z TNM04/0305Z"
    },
    {
      "icao": "LRBC",
      "alert": "OK",
      "vis_m": 9999,
      "fzfg": false,
      "metar_trigger": false,
      "taf_trigger": false,
      "metar": "METAR LRBC 021300Z 35006KT 320V030 CAVOK M05/M18 Q1015",
      "taf": "TAF LRBC 021100Z 0212/0221 35008KT CAVOK"
    },
    {
      "icao": "LRBS",
      "alert": "OK",
      "vis_m": 9999,
      "fzfg": false,
      "metar_trigger": false,
      "taf_trigger": false,
      "metar": "METAR LRBS 021300Z 07007KT 9999 BKN048 M04/M14 Q1016 NOSIG",
      "taf": "TAF LRBS 021100Z 0212/0312 07010KT 9999 BKN045"
    },
    {
      "icao": "LRBV",
      "alert": "OK",
      "vis_m": 9999,
      "fzfg": false,
      "metar_trigger": false,
      "taf_trigger": false,
      "metar": "METAR LRBV 021300Z VRB02KT 9999 FEW021 M00/M11 Q1009",
      "taf": "TAF LRBV 021100Z 0212/0221 10006KT 9999 SCT015 BKN040"
    },
    {
      "icao": "LRCL",
      "alert": "OK",
      "vis_m": 9999,
      "fzfg": false,
      "metar_trigger": false,
      "taf_trigger": false,
      "metar": "METAR LRCL 021300Z VRB02KT 9999 -SN BKN014 BKN062 01/M02 Q1010",
      "taf": "TAF LRCL 021100Z 0212/0221 09006KT 9999 SCT030 BKN060"
    },
    {
      "icao": "LRCV",
      "alert": "OK",
      "vis_m": 9999,
      "fzfg": false,
      "metar_trigger": false,
      "taf_trigger": false,
      "metar": "METAR LRCV 021300Z 16005KT 9999 -SN FEW009 BKN013 BKN038 M06/M08 Q1015",
      "taf": "TAF LRCV 021100Z 0212/0221 12006KT 9999 SCT015 BKN025"
    },
    {
      "icao": "LRIA",
      "alert": "OK",
      "vis_m": 9999,
      "fzfg": false,
      "metar_trigger": false,
      "taf_trigger": false,
      "metar": "METAR LRIA 021300Z 03004KT 330V080 CAVOK M06/M16 Q1017",
      "taf": "TAF LRIA 021100Z 0212/0221 02008KT CAVOK"
    },
    {
      "icao": "LROP",
      "alert": "OK",
      "vis_m": 9999,
      "fzfg": false,
      "metar_trigger": false,
      "taf_trigger": false,
      "metar": "METAR LROP 021300Z 11004KT CAVOK M03/M18 Q1016 NOSIG",
      "taf": "TAF LROP 021100Z 0212/0312 07010KT 9999 BKN045"
    },
    {
      "icao": "LRSB",
      "alert": "OK",
      "vis_m": 9999,
      "fzfg": false,
      "metar_trigger": false,
      "taf_trigger": false,
      "metar": "METAR LRSB 021300Z 36003KT 330V040 9999 SCT014 SCT027 BKN055 01/M02 Q1009 NOSIG",
      "taf": "TAF LRSB 021100Z 0212/0312 VRB04KT 9999 SCT015 OVC045"
    },
    {
      "icao": "LRSM",
      "alert": "OK",
      "vis_m": 9000,
      "fzfg": false,
      "metar_trigger": false,
      "taf_trigger": false,
      "metar": "METAR LRSM 021300Z 27005KT 240V300 9000 -SN BKN006 OVC012 00/M01 Q1012",
      "taf": "TAF LRSM 021100Z 0212/0221 24006KT 9999 BKN010 OVC030"
    },
    {
      "icao": "LRSV",
      "alert": "OK",
      "vis_m": 9999,
      "fzfg": false,
      "metar_trigger": false,
      "taf_trigger": false,
      "metar": "METAR LRSV 021300Z 04006KT CAVOK M10/M14 Q1014",
      "taf": "TAF LRSV 021100Z 0212/0221 06006KT CAVOK"
    },
    {
      "icao": "LRTM",
      "alert": "OK",
      "vis_m": 9999,
      "fzfg": false,
      "metar_trigger": false,
      "taf_trigger": false,
      "metar": "METAR LRTM 021300Z VRB02KT 9999 FEW018 SCT031 02/M02 Q1010",
      "taf": "TAF LRTM 021100Z 0212/0221 VRB04KT 9999 BKN025"
    },
    {
      "icao": "LRTR",
      "alert": "OK",
      "vis_m": 8000,
      "fzfg": false,
      "metar_trigger": false,
      "taf_trigger": false,
      "metar": "METAR LRTR 021300Z 15003KT 100V190 8000 -SN SCT010 BKN040 M01/M02 Q1013",
      "taf": "TAF LRTR 021100Z 0212/0312 VRB04KT 9999 BKN010 BKN035"
    },
    {
      "icao": "LTAC",
      "alert": "OK",
      "vis_m": 9999,
      "fzfg": false,
      "metar_trigger": false,
      "taf_trigger": false,
      "metar": "METAR LTAC 021250Z 06004KT 020V080 9999 -SHRA BKN025 BKN080 08/05 Q1003 NOSIG RMK RWY21C 06004KT RWY03L 07004KT 030V090 RWY21R 05004KT RWY03R 04004KT RWY21L 08003KT 030V090",
      "taf": "TAF LTAC 021040Z 0212/0312 VRB02KT 9999 SCT040 BKN100"
    },
    {
      "icao": "LTFM",
      "alert": "OK",
      "vis_m": 6000,
      "fzfg": false,
      "metar_trigger": false,
      "taf_trigger": false,
      "metar": "METAR LTFM 021250Z 34026KT 6000 2500N -SHRASN BR BKN004 BKN022 03/02 Q1009 NOSIG RMK RWY17L 31028KT RWY34L 33025KT RWY16R 34023KT RWY36 34027KT RWY18 35025KT",
      "taf": "TAF LTFM 021040Z 0212/0318 34024G34KT 9999 -SHRASN BKN007 BKN022"
    },
    {
      "icao": "LUKK",
      "alert": "OK",
      "vis_m": 9999,
      "fzfg": false,
      "metar_trigger": false,
      "taf_trigger": false,
      "metar": "METAR LUKK 021300Z 02009KT CAVOK M07/M16 Q1016 NOSIG",
      "taf": "TAF LUKK 021101Z 0212/0312 03010KT CAVOK"
    },
    {
      "icao": "LWOH",
      "alert": "OK",
      "vis_m": 9999,
      "fzfg": false,
      "metar_trigger": false,
      "taf_trigger": false,
      "metar": "METAR LWOH 021320Z VRB02KT 9999 SCT015 BKN035 06/03 Q1007",
      "taf": "TAF LWOH 021115Z 0212/0312 VRB03KT 9999 SCT020 BKN035"
    },
    {
      "icao": "LWSK",
      "alert": "OK",
      "vis_m": 9999,
      "fzfg": false,
      "metar_trigger": false,
      "taf_trigger": false,
      "metar": "METAR LWSK 021320Z 32001KT 9999 SCT026 BKN050 04/M01 Q1010 NOSIG",
      "taf": "TAF LWSK 021115Z 0212/0312 03005KT 9999 SCT025 OVC050"
    },
    {
      "icao": "LYBE",
      "alert": "OK",
      "vis_m": 9999,
      "fzfg": false,
      "metar_trigger": false,
      "taf_trigger": false,
      "metar": "METAR LYBE 021300Z 12007KT CAVOK 02/M07 Q1012 NOSIG",
      "taf": "TAF LYBE 021100Z 0212/0312 12009KT CAVOK TX05/0312Z TNM03/0306Z"
    },
    {
      "icao": "LYNI",
      "alert": "OK",
      "vis_m": 9999,
      "fzfg": false,
      "metar_trigger": false,
      "taf_trigger": false,
      "metar": "METAR LYNI 021300Z 11007KT 080V160 9999 BKN040 00/M06 Q1012 NOSIG",
      "taf": "TAF LYNI 021100Z 0212/0312 07006KT 9999 SCT040 TX06/0312Z TNM05/0306Z"
    },
    {
      "icao": "LYPG",
      "alert": "OK",
      "vis_m": 9999,
      "fzfg": false,
      "metar_trigger": false,
      "taf_trigger": false,
      "metar": "METAR LYPG 021300Z 34003KT 290V030 9999 FEW033 BKN040 08/02 Q1009 NOSIG",
      "taf": "TAF LYPG 021100Z 0212/0312 18005KT 9999 FEW030 SCT050 TX09/0212Z TN03/0303Z"
    },
    {
      "icao": "LZIB",
      "alert": "OK",
      "vis_m": 4500,
      "fzfg": false,
      "metar_trigger": false,
      "taf_trigger": false,
      "metar": "METAR LZIB 021300Z 11009KT 4500 BR BKN006 BKN010 02/01 Q1009 NOSIG",
      "taf": "TAF LZIB 021115Z 0212/0312 13004KT 9999 BKN017"
    },
    {
      "icao": "LZKZ",
      "alert": "OK",
      "vis_m": 9999,
      "fzfg": false,
      "metar_trigger": false,
      "taf_trigger": false,
      "metar": "METAR LZKZ 021300Z 10003KT 9999 SCT020 00/M06 Q1011 TEMPO BKN014",
      "taf": ""
    },
    {
      "icao": "LZTT",
      "alert": "OK",
      "vis_m": 9999,
      "fzfg": false,
      "metar_trigger": false,
      "taf_trigger": false,
      "metar": "METAR LZTT 021300Z 00000KT 9999 FEW009 SCT056 M02/M05 Q1008 NOSIG",
      "taf": "TAF LZTT 021115Z 0212/0312 VRB02KT 9999 FEW008 BKN017"
    },
    {
      "icao": "OEJN",
      "alert": "OK",
      "vis_m": 9999,
      "fzfg": false,
      "metar_trigger": false,
      "taf_trigger": false,
      "metar": "METAR OEJN 021300Z 25009KT CAVOK 31/18 Q1012 NOSIG",
      "taf": "TAF OEJN 021100Z 0212/0318 26010KT 7000 NSC"
    },
    {
      "icao": "OEMA",
      "alert": "OK",
      "vis_m": 9999,
      "fzfg": false,
      "metar_trigger": false,
      "taf_trigger": false,
      "metar": "METAR OEMA 021300Z 24007KT 9999 SCT045 30/10 Q1016 NOSIG",
      "taf": "TAF OEMA 021100Z 0212/0318 26010KT 9999 SCT045"
    },
    {
      "icao": "OJAI",
      "alert": "OK",
      "vis_m": 3500,
      "fzfg": false,
      "metar_trigger": false,
      "taf_trigger": false,
      "metar": "METAR OJAI 021300Z 27020KT 3500 BLDU NSC 20/04 Q1016 NOSIG",
      "taf": "TAF OJAI 021100Z 0212/0318 24014KT 5000 DU NSC"
    },
    {
      "icao": "OMAA",
      "alert": "OK",
      "vis_m": 9999,
      "fzfg": false,
      "metar_trigger": false,
      "taf_trigger": false,
      "metar": "METAR OMAA 021300Z 30008KT 270V330 CAVOK 26/04 Q1018 NOSIG",
      "taf": "TAF OMAA 021100Z 0212/0318 33010KT 8000 NSC"
    },
    {
      "icao": "OMDB",
      "alert": "OK",
      "vis_m": 9999,
      "fzfg": false,
      "metar_trigger": false,
      "taf_trigger": false,
      "metar": "METAR OMDB 021300Z 32007KT 270V030 CAVOK 26/08 Q1018 NOSIG",
      "taf": "TAF OMDB 021100Z 0212/0318 31010KT 8000 NSC"
    },
    {
      "icao": "UAAA",
      "alert": "OK",
      "vis_m": 3800,
      "fzfg": false,
      "metar_trigger": false,
      "taf_trigger": false,
      "metar": "METAR UAAA 021300Z 09002MPS 3800 FU SCT100 BKN200 02/M04 Q1020 NOSIG",
      "taf": "TAF UAAA 021103Z 0212/0312 20003MPS 4000 BR FU SCT050 BKN100 TX06/0309Z TNM06/0302Z"
    },
    {
      "icao": "UBBB",
      "alert": "OK",
      "vis_m": 9999,
      "fzfg": false,
      "metar_trigger": false,
      "taf_trigger": false,
      "metar": "METAR UBBB 021300Z 17018KT 9999 BKN014 08/06 Q1015 NOSIG",
      "taf": "TAF UBBB 021100Z 0212/0312 16016KT 9999 SCT010 BKN020 TX08/0212Z TN05/0300Z"
    },
    {
      "icao": "UDSG",
      "alert": "OK",
      "vis_m": 9000,
      "fzfg": false,
      "metar_trigger": false,
      "taf_trigger": false,
      "metar": "METAR UDSG 021300Z 33004KT 9000 -SNRA FEW016 OVC036 02/02 Q1017 NOSIG",
      "taf": "TAF UDSG 021100Z 0212/0312 VRB06KT 2000 BR OVC020"
    },
    {
      "icao": "UDYZ",
      "alert": "OK",
      "vis_m": 1100,
      "fzfg": false,
      "metar_trigger": false,
      "taf_trigger": false,
      "metar": "METAR UDYZ 021300Z VRB01KT 1100 R08/1100U BR BKN046 03/02 Q1017 NOSIG",
      "taf": "TAF UDYZ 021100Z 0212/0312 24006KT 1500 BR BKN030"
    },
    {
      "icao": "UGKO",
      "alert": "OK",
      "vis_m": 9999,
      "fzfg": false,
      "metar_trigger": false,
      "taf_trigger": false,
      "metar": "METAR UGKO 021300Z 08025G38KT CAVOK 12/06 Q1009 NOSIG",
      "taf": "TAF UGKO 021100Z 0212/0312 08017KT 9999 BKN050 TX12/0212Z TN08/0303Z"
    }
  ]
}