{
  "ts_utc": "2026-03-26T12:37:27Z",
  "threshold_m": 150,
  "source": "stations_override.txt (ICAO list) + aviationweather.gov (METAR/TAF raw)",
  "station_count": 159,
  "stations": [
    {
      "icao": "BIKF",
      "alert": "OK",
      "vis_m": 9999,
      "fzfg": false,
      "metar_trigger": false,
      "taf_trigger": false,
      "metar": "METAR BIKF 261232Z 15014KT 9999 VCSH FEW007 SCT014CB BKN075 02/01 Q0981",
      "taf": "TAF BIKF 261030Z 2612/2712 12035G47KT 0300 SN BLSN OVC003 TX04/2616Z TN00/2708Z"
    },
    {
      "icao": "BKPR",
      "alert": "OK",
      "vis_m": 9999,
      "fzfg": false,
      "metar_trigger": false,
      "taf_trigger": false,
      "metar": "METAR BKPR 261230Z 14008KT 9999 BKN065 14/01 Q0998 NOSIG",
      "taf": "TAF BKPR 261130Z 2612/2712 16008KT 9999 BKN050"
    },
    {
      "icao": "EBCI",
      "alert": "OK",
      "vis_m": 9999,
      "fzfg": false,
      "metar_trigger": false,
      "taf_trigger": false,
      "metar": "METAR EBCI 261220Z 01009KT 330V030 9999 VCSH FEW016 SCT039 05/01 Q1019 TEMPO 3000 SHRAGS BKN014CB",
      "taf": "TAF EBCI 261110Z 2612/2718 33010KT 9999 SCT022TCU"
    },
    {
      "icao": "EDDB",
      "alert": "OK",
      "vis_m": 9999,
      "fzfg": false,
      "metar_trigger": false,
      "taf_trigger": false,
      "metar": "METAR EDDB 261220Z AUTO 27012KT 9999 FEW039 08/M00 Q1009 TEMPO 29015G25KT SHRA",
      "taf": "TAF EDDB 261100Z 2612/2712 28012KT 9999 BKN030"
    },
    {
      "icao": "EDDH",
      "alert": "OK",
      "vis_m": 9999,
      "fzfg": false,
      "metar_trigger": false,
      "taf_trigger": false,
      "metar": "METAR EDDH 261220Z AUTO 30018G29KT 270V330 9999 SCT046 06/M03 Q1011 NOSIG",
      "taf": "TAF EDDH 261100Z 2612/2718 30015G25KT 9999 SCT035"
    },
    {
      "icao": "EDDK",
      "alert": "OK",
      "vis_m": 9999,
      "fzfg": false,
      "metar_trigger": false,
      "taf_trigger": false,
      "metar": "METAR EDDK 261220Z AUTO 34009KT 300V020 9999 FEW022 SCT029 06/01 Q1016 TEMPO 33020G30KT 3500 SHRAGS BKN020CB",
      "taf": "TAF EDDK 261100Z 2612/2718 32013KT 9999 BKN025"
    },
    {
      "icao": "EDDN",
      "alert": "OK",
      "vis_m": 9999,
      "fzfg": false,
      "metar_trigger": false,
      "taf_trigger": false,
      "metar": "METAR EDDN 261220Z AUTO VRB04KT 9999 SHRA FEW017 SCT031 BKN043 FEW///CB 04/M01 Q1012 TEMPO 35015G25KT 4000 -SHRAGS",
      "taf": ""
    },
    {
      "icao": "EDDS",
      "alert": "OK",
      "vis_m": 9999,
      "fzfg": false,
      "metar_trigger": false,
      "taf_trigger": false,
      "metar": "METAR EDDS 261220Z AUTO 33015KT 9999 SHRA FEW034 FEW///CB 05/M01 Q1013 TEMPO SHRA",
      "taf": "TAF EDDS 261100Z 2612/2712 31012KT 9999 SCT025"
    },
    {
      "icao": "EDFH",
      "alert": "OK",
      "vis_m": 2500,
      "fzfg": false,
      "metar_trigger": false,
      "taf_trigger": false,
      "metar": "METAR EDFH 261220Z 34011G21KT 300V020 2500 -SHSN BR FEW001 SCT031 BKN045CB 03/M04 Q1014",
      "taf": "TAF EDFH 261100Z 2612/2712 33010KT 9999 BKN030"
    },
    {
      "icao": "EDJA",
      "alert": "OK",
      "vis_m": 9999,
      "fzfg": false,
      "metar_trigger": false,
      "taf_trigger": false,
      "metar": "METAR EDJA 261220Z 30007KT 260V320 9999 BKN028 BKN045 OVC056 02/M01 Q1012",
      "taf": "TAF EDJA 261100Z 2612/2621 33010KT 9999 SCT020 BKN030"
    },
    {
      "icao": "EDLW",
      "alert": "OK",
      "vis_m": 9999,
      "fzfg": false,
      "metar_trigger": false,
      "taf_trigger": false,
      "metar": "METAR EDLW 261220Z 28008KT 230V330 9999 FEW022 SCT030 BKN037 07/01 Q1015",
      "taf": "TAF EDLW 261100Z 2612/2712 31010KT 9999 BKN025"
    },
    {
      "icao": "EDNY",
      "alert": "OK",
      "vis_m": 9999,
      "fzfg": false,
      "metar_trigger": false,
      "taf_trigger": false,
      "metar": "METAR EDNY 261220Z 31008KT 260V360 9999 FEW046 05/M02 Q1014",
      "taf": "TAF EDNY 261100Z 2612/2621 33008KT 9999 SCT030"
    },
    {
      "icao": "EDSB",
      "alert": "OK",
      "vis_m": 9999,
      "fzfg": false,
      "metar_trigger": false,
      "taf_trigger": false,
      "metar": "METAR EDSB 261220Z 01006KT 310V040 9999 VCSH SCT049 08/M02 Q1015",
      "taf": "TAF EDSB 261100Z 2612/2712 31006KT 9999 SCT030"
    },
    {
      "icao": "EETN",
      "alert": "OK",
      "vis_m": 9999,
      "fzfg": false,
      "metar_trigger": false,
      "taf_trigger": false,
      "metar": "METAR EETN 261220Z 21016KT 9999 SCT040 09/M01 Q1001 NOSIG",
      "taf": "TAF EETN 261130Z 2612/2712 20013KT 9999 BKN025"
    },
    {
      "icao": "EFTU",
      "alert": "OK",
      "vis_m": 9999,
      "fzfg": false,
      "metar_trigger": false,
      "taf_trigger": false,
      "metar": "METAR EFTU 261220Z AUTO 19013KT 9999 -RA OVC006 03/02 Q0996",
      "taf": "TAF EFTU 261133Z 2612/2712 19012KT 9999 BKN007"
    },
    {
      "icao": "EGBB",
      "alert": "OK",
      "vis_m": 9999,
      "fzfg": false,
      "metar_trigger": false,
      "taf_trigger": false,
      "metar": "METAR EGBB 261220Z 32009KT 9999 SCT044 08/M02 Q1023",
      "taf": "TAF EGBB 261052Z 2612/2712 34010KT 9999 FEW035"
    },
    {
      "icao": "EGGP",
      "alert": "OK",
      "vis_m": 9999,
      "fzfg": false,
      "metar_trigger": false,
      "taf_trigger": false,
      "metar": "METAR EGGP 261220Z 28010KT 260V320 9999 FEW040 08/M03 Q1023",
      "taf": "TAF EGGP 261054Z 2612/2712 28010KT 9999 FEW030"
    },
    {
      "icao": "EGGW",
      "alert": "OK",
      "vis_m": 9999,
      "fzfg": false,
      "metar_trigger": false,
      "taf_trigger": false,
      "metar": "METAR EGGW 261220Z AUTO 35011KT 320V030 9999 NCD 08/M05 Q1022",
      "taf": "TAF EGGW 261056Z 2612/2712 31010KT 9999 SCT040"
    },
    {
      "icao": "EGKK",
      "alert": "OK",
      "vis_m": 9999,
      "fzfg": false,
      "metar_trigger": false,
      "taf_trigger": false,
      "metar": "METAR EGKK 261220Z 35008KT 310V030 9999 FEW048 09/M03 Q1023",
      "taf": "TAF EGKK 261056Z 2612/2718 33010KT 9999 FEW040"
    },
    {
      "icao": "EGNM",
      "alert": "OK",
      "vis_m": 9999,
      "fzfg": false,
      "metar_trigger": false,
      "taf_trigger": false,
      "metar": "METAR EGNM 261220Z 30008KT 9999 FEW035 07/M03 Q1021",
      "taf": "TAF EGNM 261059Z 2612/2712 29009KT 9999 FEW025"
    },
    {
      "icao": "EGPD",
      "alert": "OK",
      "vis_m": 9999,
      "fzfg": false,
      "metar_trigger": false,
      "taf_trigger": false,
      "metar": "METAR EGPD 261220Z COR AUTO VRB04KT 9999 SCT037 07/M01 Q1018 NOSIG",
      "taf": ""
    },
    {
      "icao": "EGPF",
      "alert": "OK",
      "vis_m": 9999,
      "fzfg": false,
      "metar_trigger": false,
      "taf_trigger": false,
      "metar": "METAR EGPF 261220Z AUTO 21014KT 9999 BKN027 BKN040 08/02 Q1020",
      "taf": "TAF EGPF 261100Z 2612/2712 23012KT 9999 FEW020"
    },
    {
      "icao": "EHBK",
      "alert": "OK",
      "vis_m": 9999,
      "fzfg": false,
      "metar_trigger": false,
      "taf_trigger": false,
      "metar": "METAR EHBK 261225Z AUTO VRB02KT 9999 -SHRA FEW018/// 05/02 Q1017 TEMPO 6000 SHRAGS TSRA SCT010 SCT020CB",
      "taf": "TAF EHBK 261114Z 2612/2718 32010KT 9999 BKN030"
    },
    {
      "icao": "EHEH",
      "alert": "OK",
      "vis_m": 9999,
      "fzfg": false,
      "metar_trigger": false,
      "taf_trigger": false,
      "metar": "METAR EHEH 261225Z AUTO 30009KT 250V020 9999 SCT022 BKN027 BKN035 07/01 Q1018 BLU TEMPO 30010G20KT 3000 SHRA SHRAGS FEW015 SCT025CB RMK TREND REMOTE BY EHWX",
      "taf": "TAF EHEH 261120Z 2612/2718 31006KT 9999 SCT045"
    },
    {
      "icao": "EKBI",
      "alert": "OK",
      "vis_m": 9999,
      "fzfg": false,
      "metar_trigger": false,
      "taf_trigger": false,
      "metar": "METAR EKBI 261220Z 29017G30KT 9999 -SHRA SCT020CB OVC025 03/00 Q1007",
      "taf": "TAF EKBI 261127Z 2612/2712 28015KT 9999 BKN030"
    },
    {
      "icao": "EKCH",
      "alert": "OK",
      "vis_m": 9999,
      "fzfg": false,
      "metar_trigger": false,
      "taf_trigger": false,
      "metar": "METAR EKCH 261220Z AUTO 28017KT 9999 OVC037/// 07/M02 Q1005 TEMPO 27015G25KT",
      "taf": "TAF EKCH 261127Z 2612/2712 26015KT 9999 BKN025"
    },
    {
      "icao": "ENAL",
      "alert": "OK",
      "vis_m": 9999,
      "fzfg": false,
      "metar_trigger": false,
      "taf_trigger": false,
      "metar": "METAR ENAL 261220Z 28009KT 9999 VCSH SCT017TCU BKN050 05/02 Q1004",
      "taf": "TAF ENAL 261100Z 2612/2621 33015KT 9999 -SHRA FEW015 BKN035"
    },
    {
      "icao": "ENBR",
      "alert": "OK",
      "vis_m": 9999,
      "fzfg": false,
      "metar_trigger": false,
      "taf_trigger": false,
      "metar": "METAR ENBR 261220Z 32015KT 9999 FEW020CB SCT035 04/M00 Q1007 TEMPO 33020G32KT 4000 SHRASN BKN009 SCT015CB RMK WIND 1200FT 32021KT",
      "taf": ""
    },
    {
      "icao": "ENGM",
      "alert": "OK",
      "vis_m": 9999,
      "fzfg": false,
      "metar_trigger": false,
      "taf_trigger": false,
      "metar": "METAR ENGM 261220Z 33009KT 300V020 CAVOK 10/M07 Q0996 NOSIG",
      "taf": "TAF ENGM 261100Z 2612/2712 32008KT CAVOK"
    },
    {
      "icao": "ENHD",
      "alert": "OK",
      "vis_m": 9999,
      "fzfg": false,
      "metar_trigger": false,
      "taf_trigger": false,
      "metar": "METAR ENHD 261220Z 34023KT 9999 FEW034 06/M01 Q1007",
      "taf": "TAF ENHD 261100Z 2612/2621 33020KT 9999 -SHRA FEW015TCU BKN025"
    },
    {
      "icao": "ENTC",
      "alert": "OK",
      "vis_m": 9999,
      "fzfg": false,
      "metar_trigger": false,
      "taf_trigger": false,
      "metar": "METAR ENTC 261220Z 04006KT 9999 FEW024 BKN037 03/M02 Q0989 NOSIG RMK WIND 2600FT 36017KT",
      "taf": "TAF ENTC 261100Z 2612/2712 01008KT 9999 FEW015 BKN030"
    },
    {
      "icao": "ENTO",
      "alert": "OK",
      "vis_m": 9999,
      "fzfg": false,
      "metar_trigger": false,
      "taf_trigger": false,
      "metar": "METAR ENTO 261220Z 34008KT 310V030 CAVOK 11/M06 Q0998 NOSIG",
      "taf": "TAF ENTO 261100Z 2612/2712 32010KT CAVOK"
    },
    {
      "icao": "ENVA",
      "alert": "OK",
      "vis_m": 9999,
      "fzfg": false,
      "metar_trigger": false,
      "taf_trigger": false,
      "metar": "METAR ENVA 261220Z 26022KT 9999 VCSH BKN024 BKN030 06/02 Q0994 TEMPO 28024G34KT SHRASN BKN014 SCT020CB RMK WIND 670FT 27018G32KT",
      "taf": "TAF ENVA 261100Z 2612/2712 27022G32KT 9999 -SHRA SCT012 BKN025"
    },
    {
      "icao": "ENZV",
      "alert": "OK",
      "vis_m": 9999,
      "fzfg": false,
      "metar_trigger": false,
      "taf_trigger": false,
      "metar": "METAR ENZV 261220Z 34023KT 9999 FEW020 07/M02 Q1007 TEMPO 33023G33KT",
      "taf": "TAF ENZV 261100Z 2612/2712 33018KT 9999 FEW025 SCT045"
    },
    {
      "icao": "EPGD",
      "alert": "OK",
      "vis_m": 9999,
      "fzfg": false,
      "metar_trigger": false,
      "taf_trigger": false,
      "metar": "METAR EPGD 261230Z 29016KT 9999 BKN033 07/M01 Q1006",
      "taf": "TAF EPGD 261130Z 2612/2712 26012KT 9999 SCT028"
    },
    {
      "icao": "EPKK",
      "alert": "OK",
      "vis_m": 9999,
      "fzfg": false,
      "metar_trigger": false,
      "taf_trigger": false,
      "metar": "METAR EPKK 261230Z 35008KT 310V030 9999 -RA FEW009 BKN012 04/02 Q1005",
      "taf": "TAF EPKK 261130Z 2612/2712 35010KT 8000 -RA SCT012 BKN020"
    },
    {
      "icao": "EPKT",
      "alert": "OK",
      "vis_m": 9999,
      "fzfg": false,
      "metar_trigger": false,
      "taf_trigger": false,
      "metar": "METAR EPKT 261230Z 36013KT 320V040 9999 -RA FEW016 BKN029 05/M01 Q1005",
      "taf": "TAF EPKT 261130Z 2612/2712 01010KT 9999 BKN020"
    },
    {
      "icao": "EPLB",
      "alert": "OK",
      "vis_m": 9000,
      "fzfg": false,
      "metar_trigger": false,
      "taf_trigger": false,
      "metar": "METAR EPLB 261230Z 34006KT 320V020 9000 -RA FEW010 SCT016 BKN046 09/08 Q1003",
      "taf": "TAF EPLB 261130Z 2612/2712 02007KT 9999 -RA FEW010 BKN015"
    },
    {
      "icao": "EPMO",
      "alert": "OK",
      "vis_m": 9999,
      "fzfg": false,
      "metar_trigger": false,
      "taf_trigger": false,
      "metar": "METAR EPMO 261230Z 33008KT 280V020 CAVOK 09/M01 Q1005",
      "taf": "TAF EPMO 261130Z 2612/2712 33010KT CAVOK"
    },
    {
      "icao": "EPPO",
      "alert": "OK",
      "vis_m": 9999,
      "fzfg": false,
      "metar_trigger": false,
      "taf_trigger": false,
      "metar": "METAR EPPO 261230Z 28012KT 9999 BKN034 08/M01 Q1008",
      "taf": "TAF EPPO 261130Z 2612/2712 32008KT 9999 SCT025"
    },
    {
      "icao": "EPRA",
      "alert": "OK",
      "vis_m": 9999,
      "fzfg": false,
      "metar_trigger": false,
      "taf_trigger": false,
      "metar": "METAR EPRA 261230Z 02009KT 340V040 9999 -RA SCT008 BKN020 06/04 Q1005",
      "taf": "TAF EPRA 261130Z 2612/2621 35010KT 8000 -RA BKN011 OVC020"
    },
    {
      "icao": "EPRZ",
      "alert": "OK",
      "vis_m": 9999,
      "fzfg": false,
      "metar_trigger": false,
      "taf_trigger": false,
      "metar": "METAR EPRZ 261230Z 33005KT 210V020 9999 SCT030 13/05 Q1002",
      "taf": "TAF EPRZ 261130Z 2612/2712 32008KT 9999 SCT040"
    },
    {
      "icao": "EPSC",
      "alert": "OK",
      "vis_m": 9999,
      "fzfg": false,
      "metar_trigger": false,
      "taf_trigger": false,
      "metar": "METAR EPSC 261230Z 27007KT 240V300 9999 FEW008 SCT028TCU BKN032 06/01 Q1008",
      "taf": "TAF EPSC 261130Z 2612/2712 27011KT 9999 SCT025"
    },
    {
      "icao": "EPSY",
      "alert": "OK",
      "vis_m": 9999,
      "fzfg": false,
      "metar_trigger": false,
      "taf_trigger": false,
      "metar": "METAR EPSY 261230Z 34006KT 290V030 CAVOK 09/M02 Q1005",
      "taf": "TAF EPSY 261130Z 2612/2621 34006KT CAVOK"
    },
    {
      "icao": "EPWA",
      "alert": "OK",
      "vis_m": 9999,
      "fzfg": false,
      "metar_trigger": false,
      "taf_trigger": false,
      "metar": "METAR EPWA 261230Z 34010KT 310V020 9999 FEW033 09/M01 Q1005 NOSIG",
      "taf": "TAF EPWA 261130Z 2612/2712 33011KT 9999 SCT033"
    },
    {
      "icao": "EPWR",
      "alert": "OK",
      "vis_m": 9999,
      "fzfg": false,
      "metar_trigger": false,
      "taf_trigger": false,
      "metar": "METAR EPWR 261230Z 31015KT 9999 BKN036 08/M00 Q1008",
      "taf": "TAF EPWR 261130Z 2612/2712 32010KT 9999 SCT030"
    },
    {
      "icao": "ESGG",
      "alert": "OK",
      "vis_m": 9999,
      "fzfg": false,
      "metar_trigger": false,
      "taf_trigger": false,
      "metar": "METAR ESGG 261220Z 25011KT CAVOK 07/M00 Q0999",
      "taf": "TAF ESGG 261130Z 2612/2712 26010KT CAVOK"
    },
    {
      "icao": "ESKN",
      "alert": "OK",
      "vis_m": 9999,
      "fzfg": false,
      "metar_trigger": false,
      "taf_trigger": false,
      "metar": "METAR ESKN 261220Z 28007KT 230V320 9999 FEW028 BKN037 08/02 Q0995",
      "taf": "TAF ESKN 261130Z 2612/2712 24010KT 9999 BKN025"
    },
    {
      "icao": "ESMS",
      "alert": "OK",
      "vis_m": 9999,
      "fzfg": false,
      "metar_trigger": false,
      "taf_trigger": false,
      "metar": "METAR ESMS 261220Z 27018KT 9999 OVC037 06/M01 Q1004",
      "taf": "TAF ESMS 261127Z 2612/2712 26015KT 9999 BKN030"
    },
    {
      "icao": "ESSA",
      "alert": "OK",
      "vis_m": 9999,
      "fzfg": false,
      "metar_trigger": false,
      "taf_trigger": false,
      "metar": "METAR ESSA 261220Z 23010KT 9999 BKN018 04/00 Q0995 NOSIG",
      "taf": "TAF ESSA 261130Z 2612/2712 24010KT 9999 BKN025"
    },
    {
      "icao": "EYKA",
      "alert": "OK",
      "vis_m": 9999,
      "fzfg": false,
      "metar_trigger": false,
      "taf_trigger": false,
      "metar": "METAR EYKA 261220Z VRB01KT CAVOK 07/04 Q1005",
      "taf": "TAF EYKA 261101Z 2612/2712 VRB04KT 8000 SCT015 BKN040"
    },
    {
      "icao": "EYPA",
      "alert": "OK",
      "vis_m": 9999,
      "fzfg": false,
      "metar_trigger": false,
      "taf_trigger": false,
      "metar": "METAR EYPA 261220Z 21011KT 170V240 9999 OVC033 06/02 Q1005",
      "taf": "TAF EYPA 261101Z 2612/2712 21012KT 9000 BKN030"
    },
    {
      "icao": "EYVI",
      "alert": "OK",
      "vis_m": 9999,
      "fzfg": false,
      "metar_trigger": false,
      "taf_trigger": false,
      "metar": "METAR EYVI 261220Z 33010KT CAVOK 09/05 Q1004 NOSIG",
      "taf": "TAF EYVI 261105Z 2612/2712 34009KT 9000 OVC040"
    },
    {
      "icao": "GCFV",
      "alert": "OK",
      "vis_m": 9999,
      "fzfg": false,
      "metar_trigger": false,
      "taf_trigger": false,
      "metar": "METAR GCFV 261230Z 34015KT 9999 SCT025 BKN030 21/12 Q1013",
      "taf": "TAF GCFV 260800Z 2609/2709 36015KT 9999 FEW020 TX23/2614Z TN16/2706Z"
    },
    {
      "icao": "GCLP",
      "alert": "OK",
      "vis_m": 9999,
      "fzfg": false,
      "metar_trigger": false,
      "taf_trigger": false,
      "metar": "METAR GCLP 261230Z 36023G33KT 330V030 9999 FEW025 22/13 Q1014 NOSIG",
      "taf": "TAF GCLP 260800Z 2609/2709 35022KT 9999 FEW025 TX22/2614Z TN15/2706Z"
    },
    {
      "icao": "GCTS",
      "alert": "OK",
      "vis_m": 9999,
      "fzfg": false,
      "metar_trigger": false,
      "taf_trigger": false,
      "metar": "METAR GCTS 261230Z 21005KT 140V280 9999 SCT030 21/13 Q1015 NOSIG",
      "taf": "TAF GCTS 260800Z 2609/2709 VRB07KT 9999 FEW025 TX23/2614Z TN13/2706Z"
    },
    {
      "icao": "GMAD",
      "alert": "OK",
      "vis_m": 9999,
      "fzfg": false,
      "metar_trigger": false,
      "taf_trigger": false,
      "metar": "METAR GMAD 261230Z 26008KT 240V310 9999 FEW030TCU 24/19 Q1009 NOSIG",
      "taf": "TAF GMAD 261100Z 2612/2718 28013KT 8000 SCT020"
    },
    {
      "icao": "GMMN",
      "alert": "OK",
      "vis_m": 9999,
      "fzfg": false,
      "metar_trigger": false,
      "taf_trigger": false,
      "metar": "METAR GMMN 261230Z 30005KT 250V030 9999 SCT020 20/15 Q1011 NOSIG",
      "taf": "TAF GMMN 261100Z 2612/2718 28004KT 9999 SCT020"
    },
    {
      "icao": "GMMX",
      "alert": "OK",
      "vis_m": 9999,
      "fzfg": false,
      "metar_trigger": false,
      "taf_trigger": false,
      "metar": "METAR GMMX 261230Z VRB03KT 9999 SCT023 SCT080 22/14 Q1011 NOSIG",
      "taf": "TAF GMMX 261100Z 2612/2718 12006KT 8000 SCT023 SCT080"
    },
    {
      "icao": "HEGN",
      "alert": "OK",
      "vis_m": 9999,
      "fzfg": false,
      "metar_trigger": false,
      "taf_trigger": false,
      "metar": "METAR HEGN 261200Z 28020KT 9999 SCT020 23/03 Q1006 NOSIG",
      "taf": "TAF HEGN 261100Z 2612/2718 28018G28KT 6000 SCT025"
    },
    {
      "icao": "HEMA",
      "alert": "OK",
      "vis_m": 9999,
      "fzfg": false,
      "metar_trigger": false,
      "taf_trigger": false,
      "metar": "METAR HEMA 261200Z 29017KT 9999 SCT020 23/01 Q1007 NOSIG",
      "taf": "TAF HEMA 261100Z 2612/2718 29018G28KT 6000 SCT025"
    },
    {
      "icao": "HESH",
      "alert": "OK",
      "vis_m": 9999,
      "fzfg": false,
      "metar_trigger": false,
      "taf_trigger": false,
      "metar": "METAR HESH 261200Z 25015KT 9999 SCT020 21/06 Q1005 NOSIG",
      "taf": "TAF HESH 261100Z 2612/2718 29015G25KT 9999 SCT025"
    },
    {
      "icao": "HESX",
      "alert": "OK",
      "vis_m": 9999,
      "fzfg": false,
      "metar_trigger": false,
      "taf_trigger": false,
      "metar": "METAR HESX 261200Z 30013KT 9999 SCT020 BKN025 19/09 Q1006 NOSIG",
      "taf": "TAF HESX 261102Z 2612/2718 32015KT 9999 SCT020 BKN070"
    },
    {
      "icao": "LATI",
      "alert": "OK",
      "vis_m": 9999,
      "fzfg": false,
      "metar_trigger": false,
      "taf_trigger": false,
      "metar": "METAR LATI 261220Z 17016KT 140V210 9999 FEW055 SCT098 19/02 Q0999 NOSIG",
      "taf": "TAF LATI 261100Z 2612/2712 19015G25KT 9999 BKN060 TX19/2612Z TN06/2703Z"
    },
    {
      "icao": "LBPD",
      "alert": "OK",
      "vis_m": 9999,
      "fzfg": false,
      "metar_trigger": false,
      "taf_trigger": false,
      "metar": "METAR LBPD 261230Z AUTO 09007KT 060V120 9999 FEW084/// OVC095/// 15/07 Q1002 NOSIG",
      "taf": "TAF LBPD 261100Z 2612/2712 09010KT 9999 SCT060"
    },
    {
      "icao": "LBSF",
      "alert": "OK",
      "vis_m": 9999,
      "fzfg": false,
      "metar_trigger": false,
      "taf_trigger": false,
      "metar": "METAR LBSF 261230Z 11011KT 080V140 9999 BKN079 15/01 Q1000 NOSIG",
      "taf": "TAF LBSF 261100Z 2612/2712 11014KT 9999 SCT070"
    },
    {
      "icao": "LBWN",
      "alert": "OK",
      "vis_m": 9999,
      "fzfg": false,
      "metar_trigger": false,
      "taf_trigger": false,
      "metar": "METAR LBWN 261230Z 11015KT CAVOK 11/05 Q1005 NOSIG",
      "taf": "TAF LBWN 261100Z 2612/2712 11015KT CAVOK"
    },
    {
      "icao": "LCLK",
      "alert": "OK",
      "vis_m": 9999,
      "fzfg": false,
      "metar_trigger": false,
      "taf_trigger": false,
      "metar": "METAR LCLK 261230Z 21015KT 9999 FEW025 FEW028TCU FEW030CB SCT070 20/14 Q1001 NOSIG RMK CB TO E.SW",
      "taf": "TAF LCLK 261130Z 2612/2712 22012KT 9999 FEW025"
    },
    {
      "icao": "LCPH",
      "alert": "OK",
      "vis_m": 9999,
      "fzfg": false,
      "metar_trigger": false,
      "taf_trigger": false,
      "metar": "METAR LCPH 261230Z 31018KT 9999 FEW030CB FEW035TCU SCT050 19/12 Q1002 NOSIG RMK CB TO SE",
      "taf": "TAF LCPH 261130Z 2612/2712 30017KT 9999 FEW025"
    },
    {
      "icao": "LEAL",
      "alert": "OK",
      "vis_m": 9999,
      "fzfg": false,
      "metar_trigger": false,
      "taf_trigger": false,
      "metar": "METAR LEAL 261230Z 09014KT 070V130 9999 FEW037 17/07 Q1016 NOSIG",
      "taf": "TAF LEAL 261100Z 2612/2712 08013KT 9999 FEW025 TX16/2612Z TN07/2706Z"
    },
    {
      "icao": "LEBB",
      "alert": "OK",
      "vis_m": 9999,
      "fzfg": false,
      "metar_trigger": false,
      "taf_trigger": false,
      "metar": "METAR LEBB 261230Z 03008KT 350V070 9999 SCT030 BKN055 12/06 Q1026 NOSIG",
      "taf": "TAF LEBB 261100Z 2612/2712 35009KT 9999 FEW025 BKN050 TX12/2612Z TN06/2706Z"
    },
    {
      "icao": "LEBL",
      "alert": "OK",
      "vis_m": 9999,
      "fzfg": false,
      "metar_trigger": false,
      "taf_trigger": false,
      "metar": "METAR LEBL 261230Z 19010KT 160V220 CAVOK 14/06 Q1015 NOSIG",
      "taf": "TAF LEBL 261100Z 2612/2712 15010KT 9999 FEW025 TX17/2612Z TN08/2706Z"
    },
    {
      "icao": "LECH",
      "alert": "OK",
      "vis_m": 9999,
      "fzfg": false,
      "metar_trigger": false,
      "taf_trigger": false,
      "metar": "METAR LECH 261230Z AUTO 32009KT 260V050 CAVOK 16/M03 Q1016",
      "taf": "TAF LECH 261100Z 2612/2712 33009KT 9999 FEW030 TX18/2613Z TN05/2706Z"
    },
    {
      "icao": "LEMD",
      "alert": "OK",
      "vis_m": 9999,
      "fzfg": false,
      "metar_trigger": false,
      "taf_trigger": false,
      "metar": "METAR LEMD 261230Z 03003KT 310V110 CAVOK 13/01 Q1019 NOSIG",
      "taf": "TAF LEMD 261100Z 2612/2718 05008KT CAVOK TX18/2616Z TN03/2706Z"
    },
    {
      "icao": "LEMG",
      "alert": "OK",
      "vis_m": 9999,
      "fzfg": false,
      "metar_trigger": false,
      "taf_trigger": false,
      "metar": "METAR LEMG 261230Z 14013KT 9999 FEW012 18/13 Q1014 NOSIG",
      "taf": "TAF LEMG 261100Z 2612/2712 12010KT CAVOK TX20/2613Z TN08/2706Z"
    },
    {
      "icao": "LEVC",
      "alert": "OK",
      "vis_m": 9999,
      "fzfg": false,
      "metar_trigger": false,
      "taf_trigger": false,
      "metar": "METAR LEVC 261230Z 12011KT 090V160 CAVOK 17/02 Q1016 NOSIG",
      "taf": "TAF LEVC 261100Z 2612/2712 01008KT 9999 FEW030 TX19/2613Z TN05/2706Z"
    },
    {
      "icao": "LEXJ",
      "alert": "OK",
      "vis_m": 9999,
      "fzfg": false,
      "metar_trigger": false,
      "taf_trigger": false,
      "metar": "METAR LEXJ 261230Z 06005KT 360V110 9999 FEW018 BKN042 11/04 Q1027",
      "taf": "TAF LEXJ 260800Z 2609/2709 35009KT 9999 FEW025 BKN040 TX13/2613Z TN07/2706Z"
    },
    {
      "icao": "LEZG",
      "alert": "OK",
      "vis_m": 9999,
      "fzfg": false,
      "metar_trigger": false,
      "taf_trigger": false,
      "metar": "METAR LEZG 261230Z 30030G41KT 9999 FEW045 13/00 Q1019 NOSIG",
      "taf": "TAF LEZG 261100Z 2612/2712 31024KT 9999 FEW050 TX14/2614Z TN07/2706Z"
    },
    {
      "icao": "LEZL",
      "alert": "OK",
      "vis_m": 9999,
      "fzfg": false,
      "metar_trigger": false,
      "taf_trigger": false,
      "metar": "METAR LEZL 261230Z 07014KT 040V110 CAVOK 25/04 Q1012 NOSIG",
      "taf": "TAF LEZL 260800Z 2609/2709 07014KT CAVOK TX25/2615Z TN10/2707Z"
    },
    {
      "icao": "LFBD",
      "alert": "OK",
      "vis_m": 9999,
      "fzfg": false,
      "metar_trigger": false,
      "taf_trigger": false,
      "metar": "METAR LFBD 261230Z AUTO 01010G20KT 290V050 CAVOK 13/M01 Q1025 TEMPO 36015KT",
      "taf": "TAF LFBD 261100Z 2612/2718 36010KT 9999 SCT040 TX14/2614Z TN02/2706Z"
    },
    {
      "icao": "LFLL",
      "alert": "OK",
      "vis_m": 9999,
      "fzfg": false,
      "metar_trigger": false,
      "taf_trigger": false,
      "metar": "METAR LFLL 261230Z 33016KT 9999 FEW015 FEW026TCU SCT030 BKN066 06/03 Q1017 RESHRA TEMPO 34025G45KT 1000 SHGS SCT020CB",
      "taf": ""
    },
    {
      "icao": "LFLS",
      "alert": "OK",
      "vis_m": 9999,
      "fzfg": false,
      "metar_trigger": false,
      "taf_trigger": false,
      "metar": "METAR LFLS 261230Z AUTO 33018KT 9999 3300 FEW009/// SCT046/// BKN064/// ///TCU 05/00 Q1016 TEMPO 34025G45KT 3000 SHRAGS BKN013 SCT020CB",
      "taf": ""
    },
    {
      "icao": "LFMN",
      "alert": "OK",
      "vis_m": 9999,
      "fzfg": false,
      "metar_trigger": false,
      "taf_trigger": false,
      "metar": "METAR LFMN 261230Z 33011KT 290V360 CAVOK 18/M13 Q0999 NOSIG",
      "taf": "TAF LFMN 260800Z 2609/2715 33015KT CAVOK"
    },
    {
      "icao": "LFOB",
      "alert": "OK",
      "vis_m": 9999,
      "fzfg": false,
      "metar_trigger": false,
      "taf_trigger": false,
      "metar": "METAR LFOB 261230Z AUTO 34016G29KT 330V030 9999 FEW044/// SCT050/// ///TCU 10/M00 Q1021 BECMG 32013KT SCT030",
      "taf": "TAF LFOB 261100Z 2612/2712 32013KT 9999 SCT030"
    },
    {
      "icao": "LFPO",
      "alert": "OK",
      "vis_m": 8000,
      "fzfg": false,
      "metar_trigger": false,
      "taf_trigger": false,
      "metar": "METAR LFPO 261230Z 33015KT 8000 -SHRA SCT016 BKN026CB 05/02 Q1022 NOSIG",
      "taf": ""
    },
    {
      "icao": "LFSB",
      "alert": "OK",
      "vis_m": 9999,
      "fzfg": false,
      "metar_trigger": false,
      "taf_trigger": false,
      "metar": "METAR LFSB 261230Z AUTO 33009KT 260V030 9999 FEW038/// SCT046/// BKN056/// ///TCU 07/M01 Q1016 TEMPO 4000 SHRA FEW030CB",
      "taf": ""
    },
    {
      "icao": "LGAV",
      "alert": "OK",
      "vis_m": 9999,
      "fzfg": false,
      "metar_trigger": false,
      "taf_trigger": false,
      "metar": "METAR LGAV 261220Z 22009KT CAVOK 19/02 Q1005 NOSIG",
      "taf": "TAF LGAV 261100Z 2612/2712 VRB05KT 9999 FEW020"
    },
    {
      "icao": "LGTS",
      "alert": "OK",
      "vis_m": 9999,
      "fzfg": false,
      "metar_trigger": false,
      "taf_trigger": false,
      "metar": "METAR LGTS 261220Z 15015KT 9999 FEW025 19/04 Q1003 NOSIG",
      "taf": "TAF LGTS 261100Z 2612/2712 12015KT 9999 SCT025"
    },
    {
      "icao": "LHBP",
      "alert": "OK",
      "vis_m": 9999,
      "fzfg": false,
      "metar_trigger": false,
      "taf_trigger": false,
      "metar": "METAR LHBP 261230Z VRB04KT CAVOK 14/02 Q0998 NOSIG",
      "taf": "TAF LHBP 261115Z 2612/2712 05010KT CAVOK"
    },
    {
      "icao": "LHDC",
      "alert": "OK",
      "vis_m": 9999,
      "fzfg": false,
      "metar_trigger": false,
      "taf_trigger": false,
      "metar": "METAR LHDC 261215Z AUTO 18009KT 140V210 CAVOK 16/02 Q0999 NOSIG",
      "taf": "TAF LHDC 261115Z 2612/2621 16009KT CAVOK"
    },
    {
      "icao": "LIBD",
      "alert": "OK",
      "vis_m": 9999,
      "fzfg": false,
      "metar_trigger": false,
      "taf_trigger": false,
      "metar": "METAR LIBD 261220Z 22018G29KT 9999 -RA BKN045 13/06 Q0996",
      "taf": "TAF LIBD 261100Z 2612/2712 23015G28KT CAVOK"
    },
    {
      "icao": "LIBG",
      "alert": "OK",
      "vis_m": 9999,
      "fzfg": false,
      "metar_trigger": false,
      "taf_trigger": false,
      "metar": "METAR LIBG 261150Z 18013KT 150V210 9999 SCT030 17/09 Q0997",
      "taf": "TAF LIBG 261100Z 2612/2621 22014KT 9999 SCT030"
    },
    {
      "icao": "LIBP",
      "alert": "OK",
      "vis_m": 9999,
      "fzfg": false,
      "metar_trigger": false,
      "taf_trigger": false,
      "metar": "METAR LIBP 261220Z AUTO 04012KT 9999 FEW027/// BKN051/// 13/06 Q0992",
      "taf": "TAF LIBP 261100Z 2612/2712 24010KT 9999 FEW050"
    },
    {
      "icao": "LIBR",
      "alert": "OK",
      "vis_m": 9999,
      "fzfg": false,
      "metar_trigger": false,
      "taf_trigger": false,
      "metar": "METAR LIBR 261220Z 20018KT 170V230 9999 FEW048 18/05 Q0997",
      "taf": "TAF LIBR 261100Z 2612/2712 22012KT CAVOK"
    },
    {
      "icao": "LICA",
      "alert": "OK",
      "vis_m": 9999,
      "fzfg": false,
      "metar_trigger": false,
      "taf_trigger": false,
      "metar": "METAR LICA 261220Z AUTO 24015KT 9999 BKN071/// 16/10 Q1002",
      "taf": "TAF LICA 261100Z 2612/2712 25022G40KT 9999 BKN020"
    },
    {
      "icao": "LICC",
      "alert": "OK",
      "vis_m": 9999,
      "fzfg": false,
      "metar_trigger": false,
      "taf_trigger": false,
      "metar": "METAR LICC 261220Z 27016KT 9999 BKN060 18/14 Q1003",
      "taf": "TAF LICC 261100Z 2612/2712 25020G35KT 9999 FEW040"
    },
    {
      "icao": "LICJ",
      "alert": "OK",
      "vis_m": 9999,
      "fzfg": false,
      "metar_trigger": false,
      "taf_trigger": false,
      "metar": "METAR LICJ 261220Z 26030G40KT 9999 SCT030 SCT065 14/05 Q1005",
      "taf": "TAF LICJ 261100Z 2612/2712 27026G40KT 9999 SCT020"
    },
    {
      "icao": "LIMC",
      "alert": "OK",
      "vis_m": 9999,
      "fzfg": false,
      "metar_trigger": false,
      "taf_trigger": false,
      "metar": "METAR LIMC 261220Z 34024G36KT 320V020 CAVOK 14/M14 Q1001 WS R35R NOSIG",
      "taf": "TAF LIMC 261100Z 2612/2718 35025G38KT CAVOK"
    },
    {
      "icao": "LIME",
      "alert": "OK",
      "vis_m": 9999,
      "fzfg": false,
      "metar_trigger": false,
      "taf_trigger": false,
      "metar": "METAR LIME 261220Z VRB03KT 9999 SCT065 14/M01 Q0997 BECMG 01014KT",
      "taf": "TAF LIME 261100Z 2612/2712 01018G28KT CAVOK"
    },
    {
      "icao": "LIMF",
      "alert": "OK",
      "vis_m": 9999,
      "fzfg": false,
      "metar_trigger": false,
      "taf_trigger": false,
      "metar": "METAR LIMF 261220Z 34014KT CAVOK 14/M10 Q1002 WS R36",
      "taf": "TAF LIMF 261100Z 2612/2712 32018G28KT CAVOK"
    },
    {
      "icao": "LIMJ",
      "alert": "OK",
      "vis_m": 9999,
      "fzfg": false,
      "metar_trigger": false,
      "taf_trigger": false,
      "metar": "METAR LIMJ 261220Z 36018G36KT 320V050 CAVOK 15/M11 Q0998 WS R28",
      "taf": "TAF LIMJ 261100Z 2612/2712 35025G45KT 9999 FEW060"
    },
    {
      "icao": "LIPE",
      "alert": "OK",
      "vis_m": 9999,
      "fzfg": false,
      "metar_trigger": false,
      "taf_trigger": false,
      "metar": "METAR LIPE 261220Z VRB05KT 9999 -RA SCT025 OVC035 07/03 Q0998",
      "taf": "TAF LIPE 261100Z 2612/2712 27010KT 9999 SCT020"
    },
    {
      "icao": "LIPH",
      "alert": "OK",
      "vis_m": 9999,
      "fzfg": false,
      "metar_trigger": false,
      "taf_trigger": false,
      "metar": "METAR LIPH 261220Z 31005KT 250V360 9999 BKN080 12/00 Q0995",
      "taf": "TAF LIPH 261100Z 2612/2712 03014KT 9999 SCT040"
    },
    {
      "icao": "LIPQ",
      "alert": "OK",
      "vis_m": 9999,
      "fzfg": false,
      "metar_trigger": false,
      "taf_trigger": false,
      "metar": "METAR LIPQ 261220Z AUTO 35004KT 300V040 9999 OVC100/// 12/M03 Q0994",
      "taf": "TAF LIPQ 261100Z 2612/2712 VRB06KT 9999 SCT070"
    },
    {
      "icao": "LIPR",
      "alert": "OK",
      "vis_m": 4000,
      "fzfg": false,
      "metar_trigger": false,
      "taf_trigger": false,
      "metar": "METAR LIPR 261220Z 36025G39KT 4000 R30/0900U RA BR BKN010 BKN020 07/05 Q0992",
      "taf": "TAF LIPR 261100Z 2612/2712 02016KT 9999 SCT030"
    },
    {
      "icao": "LIPX",
      "alert": "OK",
      "vis_m": 9999,
      "fzfg": false,
      "metar_trigger": false,
      "taf_trigger": false,
      "metar": "METAR LIPX 261220Z 36019G32KT 9999 BKN090 13/M09 Q0997",
      "taf": "TAF LIPX 261100Z 2612/2712 04020G30KT 9999 SCT040"
    },
    {
      "icao": "LIPY",
      "alert": "OK",
      "vis_m": 9999,
      "fzfg": false,
      "metar_trigger": false,
      "taf_trigger": false,
      "metar": "METAR LIPY 261220Z AUTO VRB01KT 9999 OVC018/// 07/04 Q0993",
      "taf": "TAF LIPY 261100Z 2612/2712 32013KT 9999 BKN025"
    },
    {
      "icao": "LIPZ",
      "alert": "OK",
      "vis_m": 9999,
      "fzfg": false,
      "metar_trigger": false,
      "taf_trigger": false,
      "metar": "METAR LIPZ 261220Z 01018G30KT 340V040 9999 BKN070 13/M03 Q0995 WS R04R NOSIG",
      "taf": "TAF LIPZ 261100Z 2612/2718 03018G28KT 9999 FEW035"
    },
    {
      "icao": "LIRF",
      "alert": "OK",
      "vis_m": 9999,
      "fzfg": false,
      "metar_trigger": false,
      "taf_trigger": false,
      "metar": "METAR LIRF 261220Z 28016KT 9999 VCSH SCT035 BKN050 12/05 Q0995 TEMPO SHRA",
      "taf": "TAF LIRF 261100Z 2612/2718 35016G26KT 9999 SCT020"
    },
    {
      "icao": "LIRN",
      "alert": "OK",
      "vis_m": 9999,
      "fzfg": false,
      "metar_trigger": false,
      "taf_trigger": false,
      "metar": "METAR LIRN 261220Z 25025G38KT 9999 BKN050 12/02 Q0996 NOSIG",
      "taf": "TAF LIRN 261100Z 2612/2712 25025G35KT 9999 BKN030"
    },
    {
      "icao": "LIRP",
      "alert": "OK",
      "vis_m": 9999,
      "fzfg": false,
      "metar_trigger": false,
      "taf_trigger": false,
      "metar": "METAR LIRP 261215Z 32012KT 9999 SCT040 11/00 Q0997 NOSIG",
      "taf": "TAF LIRP 261100Z 2612/2712 34012KT 9999 BKN050"
    },
    {
      "icao": "LIRZ",
      "alert": "OK",
      "vis_m": 9999,
      "fzfg": false,
      "metar_trigger": false,
      "taf_trigger": false,
      "metar": "METAR LIRZ 261220Z AUTO 29008KT 9999 -RA BKN016/// 04/02 Q0994",
      "taf": "TAF LIRZ 261100Z 2612/2712 27018G28KT 9999 BKN020"
    },
    {
      "icao": "LJLJ",
      "alert": "OK",
      "vis_m": 9999,
      "fzfg": false,
      "metar_trigger": false,
      "taf_trigger": false,
      "metar": "METAR LJLJ 261230Z 34020G36KT 310V010 9999 FEW010 SCT046 BKN100 08/M02 Q0996 WS ALL RWY NOSIG",
      "taf": "TAF LJLJ 261100Z 2612/2712 33005KT 9999 FEW007 BKN035 OVC080"
    },
    {
      "icao": "LKMT",
      "alert": "OK",
      "vis_m": 9999,
      "fzfg": false,
      "metar_trigger": false,
      "taf_trigger": false,
      "metar": "METAR LKMT 261230Z 04015KT 9999 -RA SCT020 BKN027 OVC039 04/02 Q1006 NOSIG",
      "taf": "TAF LKMT 261100Z 2612/2712 04014KT 9999 -RA SCT012 OVC020"
    },
    {
      "icao": "LKPR",
      "alert": "OK",
      "vis_m": 9999,
      "fzfg": false,
      "metar_trigger": false,
      "taf_trigger": false,
      "metar": "METAR LKPR 261230Z 29013KT 9999 SCT030 BKN043 05/M02 Q1009 NOSIG",
      "taf": "TAF LKPR 261100Z 2612/2718 31014KT 9999 BKN035"
    },
    {
      "icao": "LLBG",
      "alert": "OK",
      "vis_m": 9999,
      "fzfg": false,
      "metar_trigger": false,
      "taf_trigger": false,
      "metar": "METAR LLBG 261220Z 29015KT 9999 BKN028 17/11 Q1002 NOSIG",
      "taf": "TAF LLBG 261105Z 2612/2712 29012KT 9999 SCT030 TX17/2613Z TN12/2704Z"
    },
    {
      "icao": "LMML",
      "alert": "OK",
      "vis_m": 9999,
      "fzfg": false,
      "metar_trigger": false,
      "taf_trigger": false,
      "metar": "METAR LMML 261215Z 27015KT 9999 FEW030 17/09 Q1007 NOSIG",
      "taf": "TAF LMML 261100Z 2612/2712 28017KT 9999 FEW025"
    },
    {
      "icao": "LOWW",
      "alert": "OK",
      "vis_m": 8000,
      "fzfg": false,
      "metar_trigger": false,
      "taf_trigger": false,
      "metar": "METAR LOWW 261220Z 34020KT 8000 RA FEW010 BKN014 04/02 Q1004 TEMPO 4000 -RA FEW010 BKN015",
      "taf": ""
    },
    {
      "icao": "LPFR",
      "alert": "OK",
      "vis_m": 9999,
      "fzfg": false,
      "metar_trigger": false,
      "taf_trigger": false,
      "metar": "METAR LPFR 261230Z 09013KT CAVOK 23/10 Q1012",
      "taf": "TAF LPFR 261100Z 2612/2712 11010KT CAVOK"
    },
    {
      "icao": "LPMA",
      "alert": "OK",
      "vis_m": 9999,
      "fzfg": false,
      "metar_trigger": false,
      "taf_trigger": false,
      "metar": "METAR LPMA 261230Z 35010KT 320V030 9999 BKN016 18/11 Q1018",
      "taf": "TAF LPMA 261100Z 2612/2712 01015KT 9999 FEW015"
    },
    {
      "icao": "LPPR",
      "alert": "OK",
      "vis_m": 9999,
      "fzfg": false,
      "metar_trigger": false,
      "taf_trigger": false,
      "metar": "METAR LPPR 261230Z 03010KT 350V070 CAVOK 18/03 Q1020",
      "taf": "TAF LPPR 261100Z 2612/2712 05010KT CAVOK"
    },
    {
      "icao": "LPPS",
      "alert": "OK",
      "vis_m": 9999,
      "fzfg": false,
      "metar_trigger": false,
      "taf_trigger": false,
      "metar": "METAR LPPS 261230Z 01013KT 9999 SCT014 BKN030 16/11 Q1019",
      "taf": "TAF LPPS 261100Z 2612/2718 02015KT 9999 SCT015 BKN030"
    },
    {
      "icao": "LPPT",
      "alert": "OK",
      "vis_m": 9999,
      "fzfg": false,
      "metar_trigger": false,
      "taf_trigger": false,
      "metar": "METAR LPPT 261230Z 06014KT 020V090 CAVOK 20/05 Q1016",
      "taf": "TAF LPPT 261100Z 2612/2718 04015KT CAVOK"
    },
    {
      "icao": "LQBK",
      "alert": "OK",
      "vis_m": 8000,
      "fzfg": false,
      "metar_trigger": false,
      "taf_trigger": false,
      "metar": "METAR LQBK 261230Z 32006KT 290V340 8000 RA SCT023 BKN040 09/06 Q0995 NOSIG",
      "taf": "TAF LQBK 261100Z 2612/2712 03007KT 9999 SCT040 TX11/2612Z TN01/2704Z"
    },
    {
      "icao": "LQSA",
      "alert": "OK",
      "vis_m": 3500,
      "fzfg": false,
      "metar_trigger": false,
      "taf_trigger": false,
      "metar": "METAR LQSA 261230Z 26008KT 220V310 3500 SHRA FEW015 SCT030TCU BKN045 08/04 Q0995 WS ALL RWY TEMPO TSRA FEW018 FEW035CB BKN045",
      "taf": "TAF LQSA 261100Z 2612/2712 15012KT 9999 SCT030 BKN045 TX10/2612Z TN01/2705Z"
    },
    {
      "icao": "LQTZ",
      "alert": "OK",
      "vis_m": 9999,
      "fzfg": false,
      "metar_trigger": false,
      "taf_trigger": false,
      "metar": "METAR LQTZ 261230Z 14012KT 9999 SCT068 16/02 Q0994",
      "taf": "TAF LQTZ 261100Z 2612/2712 12008KT 9999 SCT050 TX16/2612Z TN02/2705Z"
    },
    {
      "icao": "LRBC",
      "alert": "OK",
      "vis_m": 9999,
      "fzfg": false,
      "metar_trigger": false,
      "taf_trigger": false,
      "metar": "METAR LRBC 261230Z 15017KT 9999 FEW050 16/02 Q1003",
      "taf": "TAF LRBC 261100Z 2612/2621 15018KT CAVOK"
    },
    {
      "icao": "LRBS",
      "alert": "OK",
      "vis_m": 9999,
      "fzfg": false,
      "metar_trigger": false,
      "taf_trigger": false,
      "metar": "METAR LRBS 261230Z 10009KT 060V130 CAVOK 19/01 Q1002 NOSIG",
      "taf": "TAF LRBS 261100Z 2612/2712 13011KT CAVOK"
    },
    {
      "icao": "LRBV",
      "alert": "OK",
      "vis_m": 9999,
      "fzfg": false,
      "metar_trigger": false,
      "taf_trigger": false,
      "metar": "METAR LRBV 261230Z 18014KT 150V220 9999 SCT073 15/M02 Q1002",
      "taf": "TAF LRBV 261100Z 2612/2621 19015KT CAVOK"
    },
    {
      "icao": "LRCL",
      "alert": "OK",
      "vis_m": 9999,
      "fzfg": false,
      "metar_trigger": false,
      "taf_trigger": false,
      "metar": "METAR LRCL 261230Z 14014KT 100V170 CAVOK 17/00 Q0999",
      "taf": "TAF LRCL 261100Z 2612/2621 15012KT CAVOK"
    },
    {
      "icao": "LRCV",
      "alert": "OK",
      "vis_m": 9999,
      "fzfg": false,
      "metar_trigger": false,
      "taf_trigger": false,
      "metar": "METAR LRCV 261230Z 10010KT 9999 FEW048 FEW055CB 17/05 Q1000",
      "taf": "TAF LRCV 261100Z 2612/2621 14008KT CAVOK"
    },
    {
      "icao": "LRIA",
      "alert": "OK",
      "vis_m": 9999,
      "fzfg": false,
      "metar_trigger": false,
      "taf_trigger": false,
      "metar": "METAR LRIA 261230Z 16013KT 130V190 CAVOK 17/01 Q1004",
      "taf": "TAF LRIA 261100Z 2612/2621 19014KT CAVOK"
    },
    {
      "icao": "LROP",
      "alert": "OK",
      "vis_m": 9999,
      "fzfg": false,
      "metar_trigger": false,
      "taf_trigger": false,
      "metar": "METAR LROP 261230Z 11010KT 080V150 CAVOK 19/M05 Q1002 NOSIG",
      "taf": "TAF LROP 261100Z 2612/2712 13011KT CAVOK"
    },
    {
      "icao": "LRSB",
      "alert": "OK",
      "vis_m": 9999,
      "fzfg": false,
      "metar_trigger": false,
      "taf_trigger": false,
      "metar": "METAR LRSB 261230Z 15012KT 120V190 CAVOK 16/02 Q1000",
      "taf": "TAF LRSB 261100Z 2612/2712 16015KT CAVOK"
    },
    {
      "icao": "LRSM",
      "alert": "OK",
      "vis_m": 9999,
      "fzfg": false,
      "metar_trigger": false,
      "taf_trigger": false,
      "metar": "METAR LRSM 261230Z 13009KT CAVOK 17/02 Q0999",
      "taf": "TAF LRSM 261100Z 2612/2621 13012KT CAVOK"
    },
    {
      "icao": "LRSV",
      "alert": "OK",
      "vis_m": 9999,
      "fzfg": false,
      "metar_trigger": false,
      "taf_trigger": false,
      "metar": "METAR LRSV 261230Z 15010KT CAVOK 15/01 Q1002",
      "taf": "TAF LRSV 261100Z 2612/2621 15012KT CAVOK"
    },
    {
      "icao": "LRTM",
      "alert": "OK",
      "vis_m": 9999,
      "fzfg": false,
      "metar_trigger": false,
      "taf_trigger": false,
      "metar": "METAR LRTM 261230Z 10004KT 050V180 9999 FEW038 FEW040CB 16/01 Q1000",
      "taf": "TAF LRTM 261100Z 2612/2621 VRB04KT CAVOK"
    },
    {
      "icao": "LRTR",
      "alert": "OK",
      "vis_m": 9999,
      "fzfg": false,
      "metar_trigger": false,
      "taf_trigger": false,
      "metar": "METAR LRTR 261230Z 17010KT CAVOK 17/M02 Q0998 NOSIG",
      "taf": "TAF LRTR 261100Z 2612/2712 17016KT CAVOK"
    },
    {
      "icao": "LTAC",
      "alert": "OK",
      "vis_m": 9999,
      "fzfg": false,
      "metar_trigger": false,
      "taf_trigger": false,
      "metar": "METAR LTAC 261220Z VRB02KT 9999 SCT030 BKN100 10/02 Q1005 NOSIG RMK RWY21C VRB02KT RWY03L VRB03KT RWY21R VRB02KT RWY03R VRB02KT RWY21L 23003KT 160V280",
      "taf": "TAF LTAC 261040Z 2612/2712 VRB02KT 9999 SCT033 BKN100"
    },
    {
      "icao": "LTFM",
      "alert": "OK",
      "vis_m": 9999,
      "fzfg": false,
      "metar_trigger": false,
      "taf_trigger": false,
      "metar": "METAR LTFM 261220Z 06011KT 9999 FEW030 11/06 Q1005 NOSIG RMK RWY17L 06010KT RWY34L 06009KT RWY16R 07010KT RWY36 06012KT 020V080 RWY18 07009KT",
      "taf": "TAF LTFM 261040Z 2612/2718 07010KT 9999 SCT035"
    },
    {
      "icao": "LUKK",
      "alert": "OK",
      "vis_m": 9999,
      "fzfg": false,
      "metar_trigger": false,
      "taf_trigger": false,
      "metar": "METAR LUKK 261230Z 16010KT 140V200 CAVOK 16/01 Q1005 NOSIG",
      "taf": "TAF LUKK 261103Z 2612/2712 16008KT CAVOK"
    },
    {
      "icao": "LWOH",
      "alert": "OK",
      "vis_m": 9999,
      "fzfg": false,
      "metar_trigger": false,
      "taf_trigger": false,
      "metar": "METAR LWOH 261220Z 15014KT 9999 SCT040 SCT050 12/06 Q1000",
      "taf": "TAF LWOH 261130Z 2612/2712 16012KT 9999 BKN040"
    },
    {
      "icao": "LWSK",
      "alert": "OK",
      "vis_m": 9999,
      "fzfg": false,
      "metar_trigger": false,
      "taf_trigger": false,
      "metar": "METAR LWSK 261220Z 12015KT 9999 BKN060 17/03 Q0999 NOSIG",
      "taf": "TAF LWSK 261130Z 2612/2712 14012KT 9999 BKN060"
    },
    {
      "icao": "LYBE",
      "alert": "OK",
      "vis_m": 9999,
      "fzfg": false,
      "metar_trigger": false,
      "taf_trigger": false,
      "metar": "METAR LYBE 261230Z 15015KT CAVOK 18/01 Q0996 NOSIG",
      "taf": "TAF LYBE 261100Z 2612/2712 15012KT CAVOK TX17/2612Z TN07/2706Z"
    },
    {
      "icao": "LYNI",
      "alert": "OK",
      "vis_m": 9999,
      "fzfg": false,
      "metar_trigger": false,
      "taf_trigger": false,
      "metar": "METAR LYNI 261230Z 17010G23KT 9999 SCT060 18/00 Q0998 NOSIG",
      "taf": "TAF LYNI 261100Z 2612/2712 13008KT 9999 BKN070 TX19/2612Z TN07/2705Z"
    },
    {
      "icao": "LYPG",
      "alert": "OK",
      "vis_m": 9999,
      "fzfg": false,
      "metar_trigger": false,
      "taf_trigger": false,
      "metar": "METAR LYPG 261230Z 15017KT 9999 FEW033 BKN040 OVC080 15/06 Q0998 NOSIG",
      "taf": "TAF LYPG 261100Z 2612/2712 16015KT 9999 FEW020 BKN040 OVC070 TX17/2613Z TN09/2706Z"
    },
    {
      "icao": "LZIB",
      "alert": "OK",
      "vis_m": 9000,
      "fzfg": false,
      "metar_trigger": false,
      "taf_trigger": false,
      "metar": "METAR LZIB 261230Z 35016KT 9000 -RA FEW010 SCT023 BKN030 05/03 Q1002 NOSIG",
      "taf": "TAF LZIB 261115Z 2612/2712 36018KT 9999 -RA FEW014 SCT020"
    },
    {
      "icao": "LZKZ",
      "alert": "OK",
      "vis_m": 9999,
      "fzfg": false,
      "metar_trigger": false,
      "taf_trigger": false,
      "metar": "METAR LZKZ 261230Z 03004KT 360V080 9999 -RA FEW030 SCT040 11/04 Q1000 NOSIG",
      "taf": ""
    },
    {
      "icao": "LZTT",
      "alert": "OK",
      "vis_m": 9999,
      "fzfg": false,
      "metar_trigger": false,
      "taf_trigger": false,
      "metar": "METAR LZTT 261230Z 06008KT 020V080 9999 -RA SCT010 BKN023 OVC046 06/04 Q1000 NOSIG",
      "taf": "TAF LZTT 261115Z 2612/2712 08006KT 9999 -RA SCT011 BKN040"
    },
    {
      "icao": "OEJN",
      "alert": "OK",
      "vis_m": 6000,
      "fzfg": false,
      "metar_trigger": false,
      "taf_trigger": false,
      "metar": "METAR OEJN 261200Z 35016KT 6000 BKN040 25/09 Q1008 NOSIG",
      "taf": "TAF OEJN 261100Z 2612/2718 35012KT 7000 SCT040"
    },
    {
      "icao": "OEMA",
      "alert": "OK",
      "vis_m": 9999,
      "fzfg": false,
      "metar_trigger": false,
      "taf_trigger": false,
      "metar": "METAR OEMA 261200Z 26015KT 9999 SCT035 22/01 Q1007 NOSIG",
      "taf": "TAF OEMA 261100Z 2612/2718 26013KT 7000 SCT040"
    },
    {
      "icao": "OJAI",
      "alert": "OK",
      "vis_m": 3500,
      "fzfg": false,
      "metar_trigger": false,
      "taf_trigger": false,
      "metar": "METAR OJAI 261200Z 29009KT 3500 BR SCT010 BKN020 09/08 Q1002 NOSIG",
      "taf": "TAF OJAI 261100Z 2612/2718 29012KT 4000 -RA FEW025TCU BKN030"
    },
    {
      "icao": "OMAA",
      "alert": "OK",
      "vis_m": null,
      "fzfg": false,
      "metar_trigger": false,
      "taf_trigger": false,
      "metar": "",
      "taf": ""
    },
    {
      "icao": "OMDB",
      "alert": "OK",
      "vis_m": null,
      "fzfg": false,
      "metar_trigger": false,
      "taf_trigger": false,
      "metar": "",
      "taf": ""
    },
    {
      "icao": "UAAA",
      "alert": "OK",
      "vis_m": 9999,
      "fzfg": false,
      "metar_trigger": false,
      "taf_trigger": false,
      "metar": "METAR UAAA 261230Z 03003MPS 9999 NSC 19/M02 Q1014 NOSIG",
      "taf": "TAF UAAA 261102Z 2612/2712 20003MPS 9999 FEW100 TX22/2710Z TN04/2701Z"
    },
    {
      "icao": "UBBB",
      "alert": "OK",
      "vis_m": 8000,
      "fzfg": false,
      "metar_trigger": false,
      "taf_trigger": false,
      "metar": "METAR UBBB 261230Z 17012KT 8000 FEW006 13/11 Q1002 NOSIG",
      "taf": "TAF UBBB 261054Z 2612/2712 19012KT 9999 SCT012 TX17/2612Z TN07/2702Z"
    },
    {
      "icao": "UDSG",
      "alert": "OK",
      "vis_m": 9999,
      "fzfg": false,
      "metar_trigger": false,
      "taf_trigger": false,
      "metar": "METAR UDSG 261230Z 29003KT 260V340 9999 SCT043CB 10/04 Q1005 NOSIG",
      "taf": "TAF UDSG 261100Z 2612/2712 27006KT 9999 SCT040"
    },
    {
      "icao": "UDYZ",
      "alert": "OK",
      "vis_m": 9999,
      "fzfg": false,
      "metar_trigger": false,
      "taf_trigger": false,
      "metar": "METAR UDYZ 261230Z 02008KT 9999 SCT043CB 17/07 Q1001 NOSIG",
      "taf": "TAF UDYZ 261100Z 2612/2712 03006KT 9999 SCT040"
    },
    {
      "icao": "UGKO",
      "alert": "OK",
      "vis_m": 9999,
      "fzfg": false,
      "metar_trigger": false,
      "taf_trigger": false,
      "metar": "METAR UGKO 261230Z AUTO 27005KT 9999 FEW016/// OVC031/// 12/08 Q1006 NOSIG",
      "taf": "TAF UGKO 261100Z 2612/2712 26007KT 9999 SCT015 OVC030 TX12/2612Z TN08/2703Z"
    }
  ]
}