{
  "ts_utc": "2026-02-05T20:16:50Z",
  "threshold_m": 150,
  "source": "stations_override.txt (ICAO list) + aviationweather.gov (METAR/TAF raw)",
  "station_count": 159,
  "stations": [
    {
      "icao": "BIKF",
      "alert": "OK",
      "vis_m": 9999,
      "fzfg": false,
      "metar_trigger": false,
      "taf_trigger": false,
      "metar": "METAR BIKF 052000Z 02008KT CAVOK M02/M05 Q1005",
      "taf": "TAF BIKF 051952Z 0521/0621 05008KT CAVOK TX04/0617Z TNM00/0603Z"
    },
    {
      "icao": "BKPR",
      "alert": "OK",
      "vis_m": 9999,
      "fzfg": false,
      "metar_trigger": false,
      "taf_trigger": false,
      "metar": "METAR BKPR 052000Z 02003KT CAVOK 05/03 Q0999 NOSIG",
      "taf": "TAF BKPR 051730Z 0518/0618 24007KT 9999 SCT040"
    },
    {
      "icao": "EBCI",
      "alert": "OK",
      "vis_m": 9999,
      "fzfg": false,
      "metar_trigger": false,
      "taf_trigger": false,
      "metar": "METAR EBCI 051950Z 12003KT 060V160 9999 FEW029 06/05 Q0985 NOSIG",
      "taf": "TAF EBCI 051703Z 0518/0624 13007KT 9999 SCT020 BKN035"
    },
    {
      "icao": "EDDB",
      "alert": "OK",
      "vis_m": 3100,
      "fzfg": false,
      "metar_trigger": false,
      "taf_trigger": false,
      "metar": "METAR EDDB 051950Z AUTO 09009KT 3100 -FZRA BR OVC004 M01/M02 Q0995 TEMPO 2900 -FZRA",
      "taf": "TAF EDDB 051700Z 0518/0618 09008KT 4000 BR BKN004"
    },
    {
      "icao": "EDDH",
      "alert": "OK",
      "vis_m": 9999,
      "fzfg": false,
      "metar_trigger": false,
      "taf_trigger": false,
      "metar": "METAR EDDH 051950Z AUTO 10007KT 9999 OVC009 OVC018 M03/M04 Q0995 TEMPO OVC010",
      "taf": "TAF EDDH 051700Z 0518/0624 08008KT 8000 OVC008"
    },
    {
      "icao": "EDDK",
      "alert": "OK",
      "vis_m": 9999,
      "fzfg": false,
      "metar_trigger": false,
      "taf_trigger": false,
      "metar": "METAR EDDK 051950Z AUTO 13005KT 9999 FEW012 03/01 Q0989 NOSIG",
      "taf": "TAF EDDK 051700Z 0518/0624 12008KT 9999 SCT040"
    },
    {
      "icao": "EDDN",
      "alert": "OK",
      "vis_m": 9999,
      "fzfg": false,
      "metar_trigger": false,
      "taf_trigger": false,
      "metar": "METAR EDDN 051950Z AUTO 10006KT 9999 OVC008 01/M00 Q0991 NOSIG",
      "taf": ""
    },
    {
      "icao": "EDDS",
      "alert": "OK",
      "vis_m": 9999,
      "fzfg": false,
      "metar_trigger": false,
      "taf_trigger": false,
      "metar": "METAR EDDS 051950Z AUTO VRB02KT CAVOK 01/M02 Q0987 NOSIG",
      "taf": "TAF EDDS 051700Z 0518/0618 VRB03KT CAVOK"
    },
    {
      "icao": "EDFH",
      "alert": "OK",
      "vis_m": 450,
      "fzfg": true,
      "metar_trigger": false,
      "taf_trigger": false,
      "metar": "METAR EDFH 051950Z 14016KT 0450 R21/0550N FZFG VV/// 00/00 Q0988",
      "taf": "TAF EDFH 051700Z 0518/0618 14013KT 0200 FZFG VV000"
    },
    {
      "icao": "EDJA",
      "alert": "OK",
      "vis_m": 8000,
      "fzfg": false,
      "metar_trigger": false,
      "taf_trigger": false,
      "metar": "METAR EDJA 051950Z 05008KT 8000 NSC 00/M01 Q0988",
      "taf": "TAF EDJA 051700Z 0518/0603 06006KT CAVOK"
    },
    {
      "icao": "EDLW",
      "alert": "OK",
      "vis_m": 9999,
      "fzfg": false,
      "metar_trigger": false,
      "taf_trigger": false,
      "metar": "METAR EDLW 051950Z 04006KT CAVOK 03/01 Q0989",
      "taf": "TAF EDLW 051700Z 0518/0618 09007KT CAVOK"
    },
    {
      "icao": "EDNY",
      "alert": "OK",
      "vis_m": 9000,
      "fzfg": false,
      "metar_trigger": false,
      "taf_trigger": false,
      "metar": "METAR EDNY 051950Z 04005KT 9000 NSC 01/M00 Q0987",
      "taf": ""
    },
    {
      "icao": "EDSB",
      "alert": "OK",
      "vis_m": 8000,
      "fzfg": false,
      "metar_trigger": false,
      "taf_trigger": false,
      "metar": "METAR EDSB 051950Z 03007KT 8000 NSC 03/01 Q0988",
      "taf": "TAF EDSB 051700Z 0518/0618 02004KT CAVOK"
    },
    {
      "icao": "EETN",
      "alert": "OK",
      "vis_m": 9999,
      "fzfg": false,
      "metar_trigger": false,
      "taf_trigger": false,
      "metar": "METAR EETN 051950Z 08009KT CAVOK M15/M17 Q1016 NOSIG",
      "taf": "TAF EETN 051730Z 0518/0618 08010KT CAVOK"
    },
    {
      "icao": "EFTU",
      "alert": "OK",
      "vis_m": 9999,
      "fzfg": false,
      "metar_trigger": false,
      "taf_trigger": false,
      "metar": "METAR EFTU 051950Z AUTO 07008KT CAVOK M15/M17 Q1017",
      "taf": ""
    },
    {
      "icao": "EGBB",
      "alert": "OK",
      "vis_m": 3000,
      "fzfg": false,
      "metar_trigger": false,
      "taf_trigger": false,
      "metar": "METAR EGBB 051950Z 07013KT 3000 RA OVC004 04/03 Q0983",
      "taf": "TAF EGBB 051658Z 0518/0618 09012KT 9999 -RA SCT006 BKN012"
    },
    {
      "icao": "EGGP",
      "alert": "OK",
      "vis_m": 9999,
      "fzfg": false,
      "metar_trigger": false,
      "taf_trigger": false,
      "metar": "METAR EGGP 051950Z 09021KT 9999 BKN020 04/00 Q0984",
      "taf": "TAF EGGP 051703Z 0518/0618 09020G30KT 9999 BKN020"
    },
    {
      "icao": "EGGW",
      "alert": "OK",
      "vis_m": 4900,
      "fzfg": false,
      "metar_trigger": false,
      "taf_trigger": false,
      "metar": "METAR EGGW 051950Z AUTO 09010KT 060V120 4900 -RA OVC002 06/06 Q0982",
      "taf": "TAF EGGW 051704Z 0518/0618 11010KT 6000 -RA SCT003 BKN006"
    },
    {
      "icao": "EGKK",
      "alert": "OK",
      "vis_m": 6000,
      "fzfg": false,
      "metar_trigger": false,
      "taf_trigger": false,
      "metar": "METAR EGKK 051950Z 09006KT 6000 -RA SCT007 BKN011 09/09 Q0981",
      "taf": "TAF EGKK 051703Z 0518/0624 09010KT 9999 SCT007 BKN020"
    },
    {
      "icao": "EGNM",
      "alert": "OK",
      "vis_m": 1600,
      "fzfg": false,
      "metar_trigger": false,
      "taf_trigger": false,
      "metar": "METAR EGNM 051950Z 08012KT 1600 -RA BR SCT002 OVC003 01/01 Q0987",
      "taf": ""
    },
    {
      "icao": "EGPD",
      "alert": "OK",
      "vis_m": 9999,
      "fzfg": false,
      "metar_trigger": false,
      "taf_trigger": false,
      "metar": "METAR EGPD 051950Z AUTO 09012KT 9999 -RA BKN012 BKN017 BKN026 03/01 Q0997 TEMPO RA BKN008",
      "taf": "TAF EGPD 051656Z 0518/0618 09015KT 9999 BKN016"
    },
    {
      "icao": "EGPF",
      "alert": "OK",
      "vis_m": 9999,
      "fzfg": false,
      "metar_trigger": false,
      "taf_trigger": false,
      "metar": "METAR EGPF 051950Z AUTO 07020G31KT 9999 BKN018 OVC026 04/01 Q0991",
      "taf": "TAF EGPF 051658Z 0518/0618 08018G30KT 9999 SCT020"
    },
    {
      "icao": "EHBK",
      "alert": "OK",
      "vis_m": 7000,
      "fzfg": false,
      "metar_trigger": false,
      "taf_trigger": false,
      "metar": "METAR EHBK 051955Z AUTO 10007KT 070V130 7000 FEW030 OVC035 05/04 Q0987 NOSIG",
      "taf": "TAF EHBK 051720Z 0518/0624 10008KT 9999 OVC040"
    },
    {
      "icao": "EHEH",
      "alert": "OK",
      "vis_m": null,
      "fzfg": false,
      "metar_trigger": false,
      "taf_trigger": false,
      "metar": "",
      "taf": "TAF EHEH 051748Z 0518/0624 09007KT 9999 BKN025"
    },
    {
      "icao": "EKBI",
      "alert": "OK",
      "vis_m": 9000,
      "fzfg": false,
      "metar_trigger": false,
      "taf_trigger": false,
      "metar": "METAR EKBI 051949Z 07019G29KT 9000 -SN DRSN BKN010 M02/M03 Q0998",
      "taf": "TAF EKBI 051727Z 0518/0618 07016KT 1500 -SN BLSN BKN005"
    },
    {
      "icao": "EKCH",
      "alert": "OK",
      "vis_m": 2000,
      "fzfg": false,
      "metar_trigger": false,
      "taf_trigger": false,
      "metar": "METAR EKCH 051951Z 07020G30KT 2000 -SN DRSN BKN008 M01/M02 Q1000 TEMPO 07018G28KT 1200 SN BKN010",
      "taf": ""
    },
    {
      "icao": "ENAL",
      "alert": "OK",
      "vis_m": 9999,
      "fzfg": false,
      "metar_trigger": false,
      "taf_trigger": false,
      "metar": "METAR ENAL 051950Z 07006KT CAVOK M05/M11 Q1009",
      "taf": "TAF ENAL 051700Z 0518/0603 07008KT CAVOK"
    },
    {
      "icao": "ENBR",
      "alert": "OK",
      "vis_m": 9999,
      "fzfg": false,
      "metar_trigger": false,
      "taf_trigger": false,
      "metar": "METAR ENBR 051950Z 00000KT CAVOK M05/M12 Q1006 NOSIG RMK WIND 1200FT 05004KT",
      "taf": "TAF ENBR 051700Z 0518/0618 04005KT CAVOK"
    },
    {
      "icao": "ENGM",
      "alert": "OK",
      "vis_m": 9999,
      "fzfg": false,
      "metar_trigger": false,
      "taf_trigger": false,
      "metar": "METAR ENGM 051950Z 02009KT 9999 -SN OVC019 M10/M14 Q1014 NOSIG",
      "taf": "TAF ENGM 051700Z 0518/0618 02010KT 9999 -SN BKN020"
    },
    {
      "icao": "ENHD",
      "alert": "OK",
      "vis_m": 9999,
      "fzfg": false,
      "metar_trigger": false,
      "taf_trigger": false,
      "metar": "METAR ENHD 051950Z 08010KT CAVOK M01/M13 Q1005",
      "taf": "TAF ENHD 051400Z 0515/0523 06008KT CAVOK"
    },
    {
      "icao": "ENTC",
      "alert": "OK",
      "vis_m": 9999,
      "fzfg": false,
      "metar_trigger": false,
      "taf_trigger": false,
      "metar": "METAR ENTC 051950Z 21005KT 9999 VCSH FEW004 BKN032 M00/M01 Q1014 TEMPO 2000 SHSNRA BKN005 RMK WIND 2600FT 28008KT",
      "taf": "TAF ENTC 051700Z 0518/0618 25005KT 9999 FEW005 BKN025"
    },
    {
      "icao": "ENTO",
      "alert": "OK",
      "vis_m": 9999,
      "fzfg": false,
      "metar_trigger": false,
      "taf_trigger": false,
      "metar": "METAR ENTO 051950Z 01015KT 9999 -SN OVC018 M08/M11 Q1012 NOSIG",
      "taf": "TAF ENTO 051700Z 0518/0618 03012KT 8000 -SN BKN025"
    },
    {
      "icao": "ENVA",
      "alert": "OK",
      "vis_m": 9999,
      "fzfg": false,
      "metar_trigger": false,
      "taf_trigger": false,
      "metar": "METAR ENVA 051950Z 13005KT CAVOK M10/M20 Q1013 NOSIG RMK WIND 670FT 09010KT",
      "taf": "TAF ENVA 051700Z 0518/0618 11008KT CAVOK"
    },
    {
      "icao": "ENZV",
      "alert": "OK",
      "vis_m": 9999,
      "fzfg": false,
      "metar_trigger": false,
      "taf_trigger": false,
      "metar": "METAR ENZV 051950Z 11004KT CAVOK M04/M12 Q1006 NOSIG",
      "taf": "TAF ENZV 051700Z 0518/0618 08008KT CAVOK"
    },
    {
      "icao": "EPGD",
      "alert": "OK",
      "vis_m": 4700,
      "fzfg": false,
      "metar_trigger": false,
      "taf_trigger": false,
      "metar": "METAR EPGD 052000Z 09009KT 4700 BR OVC005 M04/M05 Q1001",
      "taf": ""
    },
    {
      "icao": "EPKK",
      "alert": "OK",
      "vis_m": 3500,
      "fzfg": false,
      "metar_trigger": false,
      "taf_trigger": false,
      "metar": "METAR EPKK 052000Z 07009KT 3500 BR OVC003 01/00 Q0997",
      "taf": "TAF EPKK 051730Z 0518/0618 06008KT 4000 BR OVC007"
    },
    {
      "icao": "EPKT",
      "alert": "OK",
      "vis_m": 6000,
      "fzfg": false,
      "metar_trigger": false,
      "taf_trigger": false,
      "metar": "METAR EPKT 052000Z 07007KT 6000 BKN007 01/00 Q0996",
      "taf": ""
    },
    {
      "icao": "EPLB",
      "alert": "OK",
      "vis_m": 3000,
      "fzfg": false,
      "metar_trigger": false,
      "taf_trigger": false,
      "metar": "METAR EPLB 052000Z 10012KT 3000 -FZDZ BR OVC002 M01/M01 Q1001 REFZRA",
      "taf": ""
    },
    {
      "icao": "EPMO",
      "alert": "OK",
      "vis_m": 6000,
      "fzfg": false,
      "metar_trigger": false,
      "taf_trigger": false,
      "metar": "METAR EPMO 052000Z 10012KT 6000 OVC005 M01/M01 Q1000",
      "taf": "TAF EPMO 051730Z 0518/0618 09012KT 5000 BR OVC005"
    },
    {
      "icao": "EPPO",
      "alert": "OK",
      "vis_m": 2900,
      "fzfg": false,
      "metar_trigger": false,
      "taf_trigger": false,
      "metar": "METAR EPPO 052000Z 09009KT 2900 BR OVC004 M02/M03 Q0998",
      "taf": "TAF EPPO 051730Z 0518/0618 09008KT 3000 BR OVC005"
    },
    {
      "icao": "EPRA",
      "alert": "OK",
      "vis_m": 1800,
      "fzfg": false,
      "metar_trigger": false,
      "taf_trigger": false,
      "metar": "METAR EPRA 052000Z 09010KT 1800 BR OVC002 00/M00 Q0999",
      "taf": "TAF EPRA 051730Z 0518/0603 11010KT 1500 BR OVC003"
    },
    {
      "icao": "EPRZ",
      "alert": "OK",
      "vis_m": 3500,
      "fzfg": false,
      "metar_trigger": false,
      "taf_trigger": false,
      "metar": "METAR EPRZ 052000Z 09010KT 3500 BR OVC002 01/01 Q0999",
      "taf": "TAF EPRZ 051730Z 0518/0618 09012KT 6000 OVC003"
    },
    {
      "icao": "EPSC",
      "alert": "OK",
      "vis_m": 4500,
      "fzfg": false,
      "metar_trigger": false,
      "taf_trigger": false,
      "metar": "METAR EPSC 052000Z 09006KT 4500 BR OVC006 M03/M03 Q0998",
      "taf": ""
    },
    {
      "icao": "EPSY",
      "alert": "OK",
      "vis_m": 9000,
      "fzfg": false,
      "metar_trigger": false,
      "taf_trigger": false,
      "metar": "METAR EPSY 052000Z 10007KT 060V140 9000 OVC009 M03/M04 Q1002",
      "taf": "TAF EPSY 051730Z 0518/0603 10008KT 8000 OVC010"
    },
    {
      "icao": "EPWA",
      "alert": "OK",
      "vis_m": 7000,
      "fzfg": false,
      "metar_trigger": false,
      "taf_trigger": false,
      "metar": "METAR EPWA 052000Z 10013KT 7000 OVC004 M01/M01 Q1000 TEMPO FZRADZ",
      "taf": "TAF EPWA 051730Z 0518/0618 10011KT 6000 OVC003"
    },
    {
      "icao": "EPWR",
      "alert": "OK",
      "vis_m": 3000,
      "fzfg": false,
      "metar_trigger": false,
      "taf_trigger": false,
      "metar": "METAR EPWR 052000Z 09005KT 3000 BR BKN005 01/01 Q0996",
      "taf": "TAF EPWR 051730Z 0518/0618 10006KT 2000 BR OVC002"
    },
    {
      "icao": "ESGG",
      "alert": "OK",
      "vis_m": 9999,
      "fzfg": false,
      "metar_trigger": false,
      "taf_trigger": false,
      "metar": "METAR ESGG 051950Z 05016KT 9999 SCT020 M04/M08 Q1005",
      "taf": "TAF ESGG 051730Z 0518/0618 07014G24KT 9999 SCT040"
    },
    {
      "icao": "ESKN",
      "alert": "OK",
      "vis_m": 9999,
      "fzfg": false,
      "metar_trigger": false,
      "taf_trigger": false,
      "metar": "METAR ESKN 051950Z AUTO 04009KT 9999 OVC019/// M04/M06 Q1012",
      "taf": "TAF ESKN 051730Z 0518/0618 04008KT 9999 OVC020"
    },
    {
      "icao": "ESMS",
      "alert": "OK",
      "vis_m": 2400,
      "fzfg": false,
      "metar_trigger": false,
      "taf_trigger": false,
      "metar": "METAR ESMS 051950Z 08023KT 2400 -SN VV014 M01/M02 Q1000",
      "taf": "TAF ESMS 051740Z 0518/0618 08018G33KT 1200 SN DRSN BKN004"
    },
    {
      "icao": "ESSA",
      "alert": "OK",
      "vis_m": 9999,
      "fzfg": false,
      "metar_trigger": false,
      "taf_trigger": false,
      "metar": "METAR ESSA 051950Z 04012KT 9999 -SN OVC009 M07/M09 Q1014 NOSIG",
      "taf": ""
    },
    {
      "icao": "EYKA",
      "alert": "OK",
      "vis_m": 9999,
      "fzfg": false,
      "metar_trigger": false,
      "taf_trigger": false,
      "metar": "METAR EYKA 051950Z 09007KT 9999 OVC015 M06/M08 Q1008",
      "taf": "TAF EYKA 051711Z 0518/0618 09009KT 8000 SCT010 OVC020"
    },
    {
      "icao": "EYPA",
      "alert": "OK",
      "vis_m": 5000,
      "fzfg": false,
      "metar_trigger": false,
      "taf_trigger": false,
      "metar": "METAR EYPA 051950Z COR 09008KT 5000 -SN OVC031 M07/M10 Q1007",
      "taf": "TAF EYPA 051711Z 0518/0618 10010KT 8000 OVC020"
    },
    {
      "icao": "EYVI",
      "alert": "OK",
      "vis_m": 9999,
      "fzfg": false,
      "metar_trigger": false,
      "taf_trigger": false,
      "metar": "METAR EYVI 051950Z 12009KT 9999 OVC012 M06/M08 Q1008 NOSIG",
      "taf": "TAF EYVI 051711Z 0518/0618 12010KT 8000 SCT010 OVC015"
    },
    {
      "icao": "GCFV",
      "alert": "OK",
      "vis_m": 9999,
      "fzfg": false,
      "metar_trigger": false,
      "taf_trigger": false,
      "metar": "METAR GCFV 052000Z 28006KT 250V330 9999 FEW025 BKN045 20/15 Q1016",
      "taf": "TAF GCFV 051400Z 0515/0615 17007KT 9999 FEW025 TX21/0614Z TN16/0606Z"
    },
    {
      "icao": "GCLP",
      "alert": "OK",
      "vis_m": 9999,
      "fzfg": false,
      "metar_trigger": false,
      "taf_trigger": false,
      "metar": "METAR GCLP 052000Z 00000KT 9999 SCT030 20/15 Q1016 NOSIG",
      "taf": "TAF GCLP 051400Z 0515/0615 18008KT 9999 SCT025 TX21/0614Z TN16/0606Z"
    },
    {
      "icao": "GCTS",
      "alert": "OK",
      "vis_m": 9999,
      "fzfg": false,
      "metar_trigger": false,
      "taf_trigger": false,
      "metar": "METAR GCTS 052000Z 07006KT 320V100 9999 FEW040 20/14 Q1016 NOSIG",
      "taf": "TAF GCTS 051400Z 0515/0615 VRB05KT 9999 SCT025 TX24/0614Z TN16/0606Z"
    },
    {
      "icao": "GMAD",
      "alert": "OK",
      "vis_m": 9999,
      "fzfg": false,
      "metar_trigger": false,
      "taf_trigger": false,
      "metar": "METAR GMAD 052000Z 22004KT 9999 FEW023 14/13 Q1015 NOSIG",
      "taf": "TAF GMAD 051700Z 0518/0624 22006KT 8000 BKN016"
    },
    {
      "icao": "GMMN",
      "alert": "OK",
      "vis_m": 3000,
      "fzfg": false,
      "metar_trigger": false,
      "taf_trigger": false,
      "metar": "METAR GMMN 052000Z 24011KT 3000 DZ OVC004 15/14 Q1012 NOSIG",
      "taf": "TAF GMMN 051700Z 0518/0624 23018KT 9999 SCT008 BKN020"
    },
    {
      "icao": "GMMX",
      "alert": "OK",
      "vis_m": 9999,
      "fzfg": false,
      "metar_trigger": false,
      "taf_trigger": false,
      "metar": "METAR GMMX 052000Z 28005KT 9999 SCT026 BKN080 17/13 Q1014 NOSIG",
      "taf": "TAF GMMX 051700Z 0518/0624 22006KT 8000 SCT026 SCT080"
    },
    {
      "icao": "HEGN",
      "alert": "OK",
      "vis_m": 9999,
      "fzfg": false,
      "metar_trigger": false,
      "taf_trigger": false,
      "metar": "METAR HEGN 051900Z 22003KT CAVOK 18/09 Q1013 NOSIG",
      "taf": "TAF HEGN 051700Z 0518/0624 30007KT CAVOK"
    },
    {
      "icao": "HEMA",
      "alert": "OK",
      "vis_m": 9999,
      "fzfg": false,
      "metar_trigger": false,
      "taf_trigger": false,
      "metar": "METAR HEMA 051900Z 20004KT CAVOK 17/11 Q1013 NOSIG",
      "taf": "TAF HEMA 051700Z 0518/0624 28009KT CAVOK"
    },
    {
      "icao": "HESH",
      "alert": "OK",
      "vis_m": 9999,
      "fzfg": false,
      "metar_trigger": false,
      "taf_trigger": false,
      "metar": "METAR HESH 051900Z 29003KT CAVOK 19/08 Q1013 NOSIG",
      "taf": "TAF HESH 051700Z 0518/0624 28007KT CAVOK"
    },
    {
      "icao": "HESX",
      "alert": "OK",
      "vis_m": 9999,
      "fzfg": false,
      "metar_trigger": false,
      "taf_trigger": false,
      "metar": "METAR HESX 051900Z 15005KT CAVOK 17/02 Q1012 NOSIG",
      "taf": "TAF HESX 051100Z 0512/0618 20010KT 9999 SCT020"
    },
    {
      "icao": "LATI",
      "alert": "OK",
      "vis_m": null,
      "fzfg": false,
      "metar_trigger": false,
      "taf_trigger": false,
      "metar": "",
      "taf": "TAF LATI 051700Z 0518/0618 14006KT 9999 SCT050 BKN080 TX16/0615Z TN08/0605Z"
    },
    {
      "icao": "LBPD",
      "alert": "OK",
      "vis_m": 9999,
      "fzfg": false,
      "metar_trigger": false,
      "taf_trigger": false,
      "metar": "METAR LBPD 052000Z AUTO 14004KT 9999 -SHRA FEW020/// BKN094/// BKN120/// 04/04 Q1000 NOSIG",
      "taf": "TAF LBPD 051700Z 0518/0618 VRB04KT 9999 BKN015 OVC025"
    },
    {
      "icao": "LBSF",
      "alert": "OK",
      "vis_m": 8000,
      "fzfg": false,
      "metar_trigger": false,
      "taf_trigger": false,
      "metar": "METAR LBSF 052000Z AUTO VRB03KT 8000 -RA OVC049/// 04/03 Q1000 TEMPO 4000 RA BR",
      "taf": "TAF LBSF 051700Z 0518/0618 10010KT 9999 BKN020 OVC040"
    },
    {
      "icao": "LBWN",
      "alert": "OK",
      "vis_m": 9999,
      "fzfg": false,
      "metar_trigger": false,
      "taf_trigger": false,
      "metar": "METAR LBWN 052000Z AUTO 11012KT 9999 -RA BKN039/// OVC044/// 08/08 Q1001 NOSIG",
      "taf": "TAF LBWN 051700Z 0518/0618 10010KT 6000 RA BKN020 OVC040"
    },
    {
      "icao": "LCLK",
      "alert": "OK",
      "vis_m": 9999,
      "fzfg": false,
      "metar_trigger": false,
      "taf_trigger": false,
      "metar": "METAR LCLK 052000Z 32007KT CAVOK 14/11 Q1013 NOSIG",
      "taf": "TAF LCLK 051730Z 0518/0618 35006KT 9999 FEW025"
    },
    {
      "icao": "LCPH",
      "alert": "OK",
      "vis_m": 9999,
      "fzfg": false,
      "metar_trigger": false,
      "taf_trigger": false,
      "metar": "METAR LCPH 052000Z 11012KT 090V160 CAVOK 16/09 Q1010 NOSIG",
      "taf": "TAF LCPH 051730Z 0518/0618 12015KT 9999 FEW020"
    },
    {
      "icao": "LEAL",
      "alert": "OK",
      "vis_m": 9999,
      "fzfg": false,
      "metar_trigger": false,
      "taf_trigger": false,
      "metar": "METAR LEAL 052000Z 19005KT 160V220 9999 FEW015 17/08 Q0999 NOSIG",
      "taf": "TAF LEAL 051700Z 0518/0618 25020KT 9999 FEW020 TX18/0615Z TN08/0606Z"
    },
    {
      "icao": "LEBB",
      "alert": "OK",
      "vis_m": 9999,
      "fzfg": false,
      "metar_trigger": false,
      "taf_trigger": false,
      "metar": "METAR LEBB 052000Z VRB02KT 9999 FEW025 SCT046 BKN056 11/10 Q0989 NOSIG",
      "taf": ""
    },
    {
      "icao": "LEBL",
      "alert": "OK",
      "vis_m": 9999,
      "fzfg": false,
      "metar_trigger": false,
      "taf_trigger": false,
      "metar": "METAR LEBL 052000Z 26012KT CAVOK 15/07 Q0990 NOSIG",
      "taf": ""
    },
    {
      "icao": "LECH",
      "alert": "OK",
      "vis_m": 9999,
      "fzfg": false,
      "metar_trigger": false,
      "taf_trigger": false,
      "metar": "METAR LECH 052000Z AUTO 26024G38KT 230V290 CAVOK 14/04 Q0993",
      "taf": ""
    },
    {
      "icao": "LEMD",
      "alert": "OK",
      "vis_m": 9999,
      "fzfg": false,
      "metar_trigger": false,
      "taf_trigger": false,
      "metar": "METAR LEMD 052000Z 23015KT 9999 FEW025 09/07 Q0996 NOSIG",
      "taf": "TAF LEMD 051700Z 0518/0624 23015KT 9999 SCT020 TX10/0615Z TN06/0607Z"
    },
    {
      "icao": "LEMG",
      "alert": "OK",
      "vis_m": 9999,
      "fzfg": false,
      "metar_trigger": false,
      "taf_trigger": false,
      "metar": "METAR LEMG 052000Z COR 17003KT 140V200 9999 FEW068 14/07 Q1005 NOSIG",
      "taf": ""
    },
    {
      "icao": "LEVC",
      "alert": "OK",
      "vis_m": 9999,
      "fzfg": false,
      "metar_trigger": false,
      "taf_trigger": false,
      "metar": "METAR LEVC 052000Z 28014KT CAVOK 17/08 Q0996 NOSIG",
      "taf": "TAF LEVC 051700Z 0518/0618 27015KT 9999 FEW035 TX20/0614Z TN11/0606Z"
    },
    {
      "icao": "LEXJ",
      "alert": "OK",
      "vis_m": 9999,
      "fzfg": false,
      "metar_trigger": false,
      "taf_trigger": false,
      "metar": "METAR LEXJ 052000Z 22005KT 9999 FEW020 SCT080 13/08 Q0988",
      "taf": ""
    },
    {
      "icao": "LEZG",
      "alert": "OK",
      "vis_m": 9999,
      "fzfg": false,
      "metar_trigger": false,
      "taf_trigger": false,
      "metar": "METAR LEZG 052000Z 25015KT 230V290 9999 SCT060 14/06 Q0992 NOSIG",
      "taf": ""
    },
    {
      "icao": "LEZL",
      "alert": "OK",
      "vis_m": 9000,
      "fzfg": false,
      "metar_trigger": false,
      "taf_trigger": false,
      "metar": "METAR LEZL 052000Z 23011KT 200V290 9000 FEW040 16/12 Q1004 NOSIG",
      "taf": "TAF LEZL 051400Z 0515/0615 23018KT 9999 FEW030 TX20/0515Z TN12/0607Z"
    },
    {
      "icao": "LFBD",
      "alert": "OK",
      "vis_m": 9999,
      "fzfg": false,
      "metar_trigger": false,
      "taf_trigger": false,
      "metar": "METAR LFBD 052000Z AUTO 25013KT 9999 -RA SCT013/// SCT021/// BKN041/// ///TCU 11/10 Q0986 TEMPO 24015G25KT 3000 SHRA BKN025TCU SCT030CB",
      "taf": "TAF LFBD 051700Z 0518/0624 22008KT 9999 BKN040 TX15/0614Z TN08/0624Z"
    },
    {
      "icao": "LFLL",
      "alert": "OK",
      "vis_m": 5000,
      "fzfg": false,
      "metar_trigger": false,
      "taf_trigger": false,
      "metar": "METAR LFLL 052000Z 25002KT 5000 RA FEW004 BKN030 08/08 Q0987 TEMPO 4000 RA BKN014",
      "taf": "TAF LFLL 051700Z 0518/0624 18008KT 9999 RA BKN040"
    },
    {
      "icao": "LFLS",
      "alert": "OK",
      "vis_m": 9999,
      "fzfg": false,
      "metar_trigger": false,
      "taf_trigger": false,
      "metar": "METAR LFLS 052000Z AUTO VRB01KT 9999 -RA OVC052/// ///TCU 07/07 Q0986 TEMPO 3000 RA BKN009",
      "taf": "TAF LFLS 051400Z 0515/0615 24007KT CAVOK"
    },
    {
      "icao": "LFMN",
      "alert": "OK",
      "vis_m": 2500,
      "fzfg": false,
      "metar_trigger": false,
      "taf_trigger": false,
      "metar": "METAR LFMN 052000Z 04011KT 010V080 2500 +RA BR BKN010 FEW015CB BKN015 11/10 Q0988 TEMPO TSRA",
      "taf": "TAF LFMN 051400Z 0515/0621 24008KT CAVOK"
    },
    {
      "icao": "LFOB",
      "alert": "OK",
      "vis_m": 7000,
      "fzfg": false,
      "metar_trigger": false,
      "taf_trigger": false,
      "metar": "METAR LFOB 052000Z AUTO 11004KT 7000 -RA SCT031/// BKN038/// BKN044/// ///TCU 09/08 Q0983 BECMG BKN045",
      "taf": "TAF LFOB 051700Z 0518/0618 12010KT 9999 BKN045"
    },
    {
      "icao": "LFPO",
      "alert": "OK",
      "vis_m": 9999,
      "fzfg": false,
      "metar_trigger": false,
      "taf_trigger": false,
      "metar": "METAR LFPO 052000Z AUTO 11005KT 9999 -RA ///TCU 10/08 Q0983 NOSIG",
      "taf": "TAF LFPO 051700Z 0518/0624 10005KT 9999 SCT040 BKN060"
    },
    {
      "icao": "LFSB",
      "alert": "OK",
      "vis_m": 8000,
      "fzfg": false,
      "metar_trigger": false,
      "taf_trigger": false,
      "metar": "METAR LFSB 052000Z AUTO 32004KT 290V010 8000 NSC 03/01 Q0987 TEMPO 3000 BR BKN003",
      "taf": "TAF LFSB 051700Z 0518/0618 35004KT CAVOK"
    },
    {
      "icao": "LGAV",
      "alert": "OK",
      "vis_m": 9999,
      "fzfg": false,
      "metar_trigger": false,
      "taf_trigger": false,
      "metar": "METAR LGAV 051950Z 22003KT 9999 FEW025 12/09 Q1001 NOSIG",
      "taf": "TAF LGAV 051700Z 0518/0618 23012KT 9999 FEW020 SCT030"
    },
    {
      "icao": "LGTS",
      "alert": "OK",
      "vis_m": 9999,
      "fzfg": false,
      "metar_trigger": false,
      "taf_trigger": false,
      "metar": "METAR LGTS 051950Z 12005KT 9999 FEW025 09/08 Q0992 NOSIG",
      "taf": "TAF LGTS 051700Z 0518/0618 VRB03KT 9999 FEW010 SCT025"
    },
    {
      "icao": "LHBP",
      "alert": "OK",
      "vis_m": 9999,
      "fzfg": false,
      "metar_trigger": false,
      "taf_trigger": false,
      "metar": "METAR LHBP 052000Z 10007KT 9999 -RA SCT040 BKN055 07/06 Q0996 NOSIG",
      "taf": "TAF LHBP 051715Z 0518/0618 08006KT 9999 BKN025"
    },
    {
      "icao": "LHDC",
      "alert": "OK",
      "vis_m": 9999,
      "fzfg": false,
      "metar_trigger": false,
      "taf_trigger": false,
      "metar": "METAR LHDC 051945Z AUTO 27005KT 230V340 9999 FEW039 07/05 Q0997",
      "taf": "TAF LHDC 051415Z 0515/0524 07005KT CAVOK"
    },
    {
      "icao": "LIBD",
      "alert": "OK",
      "vis_m": 9999,
      "fzfg": false,
      "metar_trigger": false,
      "taf_trigger": false,
      "metar": "METAR LIBD 051950Z 20004KT CAVOK 07/07 Q0999",
      "taf": "TAF LIBD 051700Z 0518/0618 VRB05KT CAVOK"
    },
    {
      "icao": "LIBG",
      "alert": "OK",
      "vis_m": 9999,
      "fzfg": false,
      "metar_trigger": false,
      "taf_trigger": false,
      "metar": "METAR LIBG 051850Z VRB01KT 9999 FEW040 09/08 Q0999",
      "taf": "TAF LIBG 051700Z 0518/0603 VRB05KT 9999 SCT030"
    },
    {
      "icao": "LIBP",
      "alert": "OK",
      "vis_m": 9999,
      "fzfg": false,
      "metar_trigger": false,
      "taf_trigger": false,
      "metar": "METAR LIBP 051950Z AUTO 14012KT 9999 BKN220/// 12/09 Q0997",
      "taf": "TAF LIBP 051700Z 0518/0618 VRB05KT 9999 BKN030"
    },
    {
      "icao": "LIBR",
      "alert": "OK",
      "vis_m": 9999,
      "fzfg": false,
      "metar_trigger": false,
      "taf_trigger": false,
      "metar": "METAR LIBR 051950Z 23006KT CAVOK 11/09 Q0999",
      "taf": "TAF LIBR 051700Z 0518/0618 20014KT CAVOK"
    },
    {
      "icao": "LICA",
      "alert": "OK",
      "vis_m": 9999,
      "fzfg": false,
      "metar_trigger": false,
      "taf_trigger": false,
      "metar": "METAR LICA 051950Z AUTO 25007KT 9999 FEW020/// BKN230/// 13/11 Q1002",
      "taf": "TAF LICA 051700Z 0518/0618 27010KT 9999 SCT040"
    },
    {
      "icao": "LICC",
      "alert": "OK",
      "vis_m": 9999,
      "fzfg": false,
      "metar_trigger": false,
      "taf_trigger": false,
      "metar": "METAR LICC 051950Z 27007KT CAVOK 12/09 Q1002",
      "taf": "TAF LICC 051700Z 0518/0618 25010KT 9999 FEW030"
    },
    {
      "icao": "LICJ",
      "alert": "OK",
      "vis_m": 9999,
      "fzfg": false,
      "metar_trigger": false,
      "taf_trigger": false,
      "metar": "METAR LICJ 051950Z 19019KT 9999 -RA FEW025 SCT065 16/10 Q1001",
      "taf": "TAF LICJ 051700Z 0518/0618 22013KT 9999 FEW030"
    },
    {
      "icao": "LIMC",
      "alert": "OK",
      "vis_m": 9999,
      "fzfg": false,
      "metar_trigger": false,
      "taf_trigger": false,
      "metar": "METAR LIMC 051950Z 13006KT 9999 -RA BKN025 07/06 Q0993 BECMG 3000 RA",
      "taf": "TAF LIMC 051700Z 0518/0624 VRB05KT 8000 OVC040"
    },
    {
      "icao": "LIME",
      "alert": "OK",
      "vis_m": 9999,
      "fzfg": false,
      "metar_trigger": false,
      "taf_trigger": false,
      "metar": "METAR LIME 051950Z 10004KT 9999 SCT060 07/05 Q0993 BECMG 4000 RA",
      "taf": "TAF LIME 051700Z 0518/0618 VRB06KT 7000 BKN045"
    },
    {
      "icao": "LIMF",
      "alert": "OK",
      "vis_m": 2500,
      "fzfg": false,
      "metar_trigger": false,
      "taf_trigger": false,
      "metar": "METAR LIMF 051950Z 05002KT 2500 RA BR OVC030 07/05 Q0992",
      "taf": "TAF LIMF 051700Z 0518/0618 VRB05KT 7000 BKN040"
    },
    {
      "icao": "LIMJ",
      "alert": "OK",
      "vis_m": 5000,
      "fzfg": false,
      "metar_trigger": false,
      "taf_trigger": false,
      "metar": "METAR LIMJ 051950Z 11017KT 5000 RA SCT010 BKN030 12/11 Q0991",
      "taf": "TAF LIMJ 051700Z 0518/0618 15022KT 7000 OVC014"
    },
    {
      "icao": "LIPE",
      "alert": "OK",
      "vis_m": 9999,
      "fzfg": false,
      "metar_trigger": false,
      "taf_trigger": false,
      "metar": "METAR LIPE 051950Z 09005KT 050V110 CAVOK 08/07 Q0993",
      "taf": "TAF LIPE 051700Z 0518/0618 27008KT CAVOK"
    },
    {
      "icao": "LIPH",
      "alert": "OK",
      "vis_m": 9999,
      "fzfg": false,
      "metar_trigger": false,
      "taf_trigger": false,
      "metar": "METAR LIPH 051950Z 09005KT 9999 BKN020 08/07 Q0995",
      "taf": "TAF LIPH 051700Z 0518/0618 04009KT 8000 BKN040"
    },
    {
      "icao": "LIPQ",
      "alert": "OK",
      "vis_m": 9999,
      "fzfg": false,
      "metar_trigger": false,
      "taf_trigger": false,
      "metar": "METAR LIPQ 051950Z AUTO VRB01KT 9999 BKN009/// OVC039/// 06/06 Q0995",
      "taf": "TAF LIPQ 051700Z 0518/0618 VRB05KT 9999 BKN040"
    },
    {
      "icao": "LIPR",
      "alert": "OK",
      "vis_m": 9999,
      "fzfg": false,
      "metar_trigger": false,
      "taf_trigger": false,
      "metar": "METAR LIPR 051950Z 13005KT CAVOK 09/07 Q0995",
      "taf": "TAF LIPR 051700Z 0518/0618 15010KT 9999 BKN040"
    },
    {
      "icao": "LIPX",
      "alert": "OK",
      "vis_m": 9999,
      "fzfg": false,
      "metar_trigger": false,
      "taf_trigger": false,
      "metar": "METAR LIPX 051950Z 09005KT 9999 BKN060 08/07 Q0994",
      "taf": "TAF LIPX 051700Z 0518/0618 VRB05KT 6000 SCT030 BKN050"
    },
    {
      "icao": "LIPY",
      "alert": "OK",
      "vis_m": 9999,
      "fzfg": false,
      "metar_trigger": false,
      "taf_trigger": false,
      "metar": "METAR LIPY 051950Z AUTO 16005KT 140V200 9999 BKN220/// 11/07 Q0996",
      "taf": "TAF LIPY 051700Z 0518/0618 VRB05KT 9999 BKN020"
    },
    {
      "icao": "LIPZ",
      "alert": "OK",
      "vis_m": 9999,
      "fzfg": false,
      "metar_trigger": false,
      "taf_trigger": false,
      "metar": "METAR LIPZ 051950Z 08004KT 9999 BKN011 08/07 Q0995 NOSIG",
      "taf": "TAF LIPZ 051700Z 0518/0624 VRB05KT 9999 BKN030"
    },
    {
      "icao": "LIRF",
      "alert": "OK",
      "vis_m": 9999,
      "fzfg": false,
      "metar_trigger": false,
      "taf_trigger": false,
      "metar": "METAR LIRF 051950Z 13010KT 9999 FEW050 12/09 Q0997 TEMPO SHRA",
      "taf": "TAF LIRF 051700Z 0518/0624 14015KT 9999 BKN040"
    },
    {
      "icao": "LIRN",
      "alert": "OK",
      "vis_m": 9999,
      "fzfg": false,
      "metar_trigger": false,
      "taf_trigger": false,
      "metar": "METAR LIRN 051950Z 21004KT 170V230 9999 SCT050 13/09 Q1000 NOSIG",
      "taf": "TAF LIRN 051700Z 0518/0618 VRB05KT 9999 SCT020"
    },
    {
      "icao": "LIRP",
      "alert": "OK",
      "vis_m": 9999,
      "fzfg": false,
      "metar_trigger": false,
      "taf_trigger": false,
      "metar": "METAR LIRP 051945Z 12005KT 9999 -RA FEW025 BKN050 11/10 Q0993 NOSIG",
      "taf": "TAF LIRP 051700Z 0518/0618 10005KT 9999 SCT025 BKN060"
    },
    {
      "icao": "LIRZ",
      "alert": "OK",
      "vis_m": 9999,
      "fzfg": false,
      "metar_trigger": false,
      "taf_trigger": false,
      "metar": "METAR LIRZ 051950Z AUTO 17005KT 9999 FEW053/// BKN160/// 10/06 Q0996",
      "taf": "TAF LIRZ 051700Z 0518/0618 VRB05KT 9999 BKN060"
    },
    {
      "icao": "LJLJ",
      "alert": "OK",
      "vis_m": 8000,
      "fzfg": false,
      "metar_trigger": false,
      "taf_trigger": false,
      "metar": "METAR LJLJ 052000Z 21003KT 170V260 8000 FEW002 SCT023 BKN036 03/03 Q0995 NOSIG",
      "taf": "TAF LJLJ 051700Z 0518/0618 VRB02KT 9999 FEW013 BKN035"
    },
    {
      "icao": "LKMT",
      "alert": "OK",
      "vis_m": 1800,
      "fzfg": false,
      "metar_trigger": false,
      "taf_trigger": false,
      "metar": "METAR LKMT 052000Z 06002KT 1800 BR BKN036 OVC045 01/01 Q0996 NOSIG",
      "taf": "TAF LKMT 051700Z 0518/0618 VRB02KT 4000 BR SCT014 OVC030"
    },
    {
      "icao": "LKPR",
      "alert": "OK",
      "vis_m": 6000,
      "fzfg": false,
      "metar_trigger": false,
      "taf_trigger": false,
      "metar": "METAR LKPR 052000Z 06006KT 6000 1200NE R24/1500N R30/P2000N BCFG FEW003 OVC012 03/02 Q0992 NOSIG",
      "taf": "TAF LKPR 051700Z 0518/0624 10006KT 1500 BR BKN003"
    },
    {
      "icao": "LLBG",
      "alert": "OK",
      "vis_m": 9999,
      "fzfg": false,
      "metar_trigger": false,
      "taf_trigger": false,
      "metar": "METAR LLBG 051950Z 12006KT CAVOK 15/11 Q1012 NOSIG",
      "taf": "TAF LLBG 051719Z 0518/0618 VRB04KT CAVOK"
    },
    {
      "icao": "LMML",
      "alert": "OK",
      "vis_m": 9999,
      "fzfg": false,
      "metar_trigger": false,
      "taf_trigger": false,
      "metar": "METAR LMML 052015Z 21004KT CAVOK 15/12 Q1005 NOSIG",
      "taf": ""
    },
    {
      "icao": "LOWW",
      "alert": "OK",
      "vis_m": 6000,
      "fzfg": false,
      "metar_trigger": false,
      "taf_trigger": false,
      "metar": "METAR LOWW 051950Z 14005KT 6000 FEW011 BKN015 04/03 Q0995 TEMPO 4000 BR BECMG BKN012",
      "taf": "TAF LOWW 051715Z 0518/0624 16005KT 7000 FEW009 BKN015 TX04/0614Z TN02/0619Z"
    },
    {
      "icao": "LPFR",
      "alert": "OK",
      "vis_m": 9000,
      "fzfg": false,
      "metar_trigger": false,
      "taf_trigger": false,
      "metar": "METAR LPFR 052000Z 25015KT 9000 FEW018 FEW022CB SCT030 15/13 Q1005",
      "taf": "TAF LPFR 051700Z 0518/0618 23017KT 9999 SCT025"
    },
    {
      "icao": "LPMA",
      "alert": "OK",
      "vis_m": 9999,
      "fzfg": false,
      "metar_trigger": false,
      "taf_trigger": false,
      "metar": "METAR LPMA 052000Z 31005KT 270V340 9999 SCT015 17/10 Q1011",
      "taf": "TAF LPMA 051700Z 0518/0618 VRB08G18KT 9999 SCT015"
    },
    {
      "icao": "LPPR",
      "alert": "OK",
      "vis_m": 9999,
      "fzfg": false,
      "metar_trigger": false,
      "taf_trigger": false,
      "metar": "METAR LPPR 052000Z 24011KT 210V280 9999 FEW018 FEW020CB BKN032 13/10 Q0995",
      "taf": "TAF LPPR 051700Z 0518/0618 24012KT 9999 SCT025"
    },
    {
      "icao": "LPPS",
      "alert": "OK",
      "vis_m": 9999,
      "fzfg": false,
      "metar_trigger": false,
      "taf_trigger": false,
      "metar": "METAR LPPS 052000Z 27014KT 9999 FEW015 SCT030 17/13 Q1011",
      "taf": "TAF LPPS 051700Z 0518/0624 27015KT 9999 SCT015"
    },
    {
      "icao": "LPPT",
      "alert": "OK",
      "vis_m": 9999,
      "fzfg": false,
      "metar_trigger": false,
      "taf_trigger": false,
      "metar": "METAR LPPT 052000Z 24012KT 210V270 9999 FEW016 SCT020 FEW025CB 13/11 Q1001 WS R20",
      "taf": "TAF LPPT 051700Z 0518/0624 25012KT 9999 SCT025"
    },
    {
      "icao": "LQBK",
      "alert": "OK",
      "vis_m": 7000,
      "fzfg": false,
      "metar_trigger": false,
      "taf_trigger": false,
      "metar": "METAR LQBK 052000Z VRB01KT 7000 OVC008 06/06 Q0997 NOSIG",
      "taf": "TAF LQBK 051700Z 0518/0618 33005KT 9999 SCT045 TX07/0616Z TN03/0605Z"
    },
    {
      "icao": "LQSA",
      "alert": "OK",
      "vis_m": 9999,
      "fzfg": false,
      "metar_trigger": false,
      "taf_trigger": false,
      "metar": "METAR LQSA 052000Z 04002KT 9999 FEW065 05/04 Q0997 NOSIG",
      "taf": "TAF LQSA 051700Z 0518/0618 VRB02KT 9999 BKN055 TX10/0613Z TN05/0605Z"
    },
    {
      "icao": "LQTZ",
      "alert": "OK",
      "vis_m": 9999,
      "fzfg": false,
      "metar_trigger": false,
      "taf_trigger": false,
      "metar": "METAR LQTZ 052000Z 26003KT CAVOK 07/07 Q0996",
      "taf": "TAF LQTZ 051700Z 0518/0618 10005KT 9999 SCT050 TX10/0613Z TN03/0605Z"
    },
    {
      "icao": "LRBC",
      "alert": "OK",
      "vis_m": 9999,
      "fzfg": false,
      "metar_trigger": false,
      "taf_trigger": false,
      "metar": "METAR LRBC 052000Z 17004KT 9999 -RA OVC008 04/04 Q1005",
      "taf": "TAF LRBC 051700Z 0518/0603 15008KT 5000 -RA BR OVC010"
    },
    {
      "icao": "LRBS",
      "alert": "OK",
      "vis_m": 4000,
      "fzfg": false,
      "metar_trigger": false,
      "taf_trigger": false,
      "metar": "METAR LRBS 052000Z 08007KT 4000 -RA BR BKN005 OVC014 07/07 Q1001 NOSIG",
      "taf": "TAF LRBS 051700Z 0518/0618 08010KT 9999 SCT020 OVC030"
    },
    {
      "icao": "LRBV",
      "alert": "OK",
      "vis_m": 9999,
      "fzfg": false,
      "metar_trigger": false,
      "taf_trigger": false,
      "metar": "METAR LRBV 052000Z 07009KT 9999 FEW032 BKN041 05/02 Q1000",
      "taf": "TAF LRBV 051700Z 0518/0603 09012KT 9999 BKN040"
    },
    {
      "icao": "LRCL",
      "alert": "OK",
      "vis_m": 9999,
      "fzfg": false,
      "metar_trigger": false,
      "taf_trigger": false,
      "metar": "METAR LRCL 052000Z VRB02KT 9999 -RA OVC034 07/05 Q0999",
      "taf": "TAF LRCL 051700Z 0518/0603 VRB04KT 9999 OVC040"
    },
    {
      "icao": "LRCV",
      "alert": "OK",
      "vis_m": 800,
      "fzfg": false,
      "metar_trigger": false,
      "taf_trigger": false,
      "metar": "METAR LRCV 052000Z 32006KT 0800 R26/1000U FG OVC004 04/04 Q1000",
      "taf": "TAF LRCV 051700Z 0518/0603 VRB04KT 0200 FG VV002"
    },
    {
      "icao": "LRIA",
      "alert": "OK",
      "vis_m": 6000,
      "fzfg": false,
      "metar_trigger": false,
      "taf_trigger": false,
      "metar": "METAR LRIA 052000Z 11023KT 6000 -DZ OVC002 01/01 Q1006",
      "taf": "TAF LRIA 051700Z 0518/0603 11017KT 5000 -RADZ BR BKN002 OVC005"
    },
    {
      "icao": "LROP",
      "alert": "OK",
      "vis_m": 4000,
      "fzfg": false,
      "metar_trigger": false,
      "taf_trigger": false,
      "metar": "METAR LROP 052000Z 10007KT 4000 -RA BR BKN002 OVC004 07/07 Q1001 TEMPO 3000 -RA BR",
      "taf": "TAF LROP 051700Z 0518/0618 08010KT 9999 SCT020 OVC030"
    },
    {
      "icao": "LRSB",
      "alert": "OK",
      "vis_m": 9999,
      "fzfg": false,
      "metar_trigger": false,
      "taf_trigger": false,
      "metar": "METAR LRSB 052000Z 10009KT 9999 -RA FEW040 SCT055 BKN070 08/04 Q0998",
      "taf": "TAF LRSB 051700Z 0518/0618 VRB04KT 9999 BKN070"
    },
    {
      "icao": "LRSM",
      "alert": "OK",
      "vis_m": 9999,
      "fzfg": false,
      "metar_trigger": false,
      "taf_trigger": false,
      "metar": "METAR LRSM 052000Z AUTO 15005KT 9999 -RA BKN050/// OVC065/// 09/06 Q0998",
      "taf": "TAF LRSM 051400Z 0515/0524 14008KT 9999 SCT045"
    },
    {
      "icao": "LRSV",
      "alert": "OK",
      "vis_m": 100,
      "fzfg": false,
      "metar_trigger": false,
      "taf_trigger": false,
      "metar": "METAR LRSV 052000Z 10010KT 0100 R34/0325N DZ FG VV001 00/M00 Q1003",
      "taf": ""
    },
    {
      "icao": "LRTM",
      "alert": "OK",
      "vis_m": 9999,
      "fzfg": false,
      "metar_trigger": false,
      "taf_trigger": false,
      "metar": "METAR LRTM 052000Z AUTO 10003KT 9999 OVC041/// 08/04 Q0999",
      "taf": "TAF LRTM 051700Z 0518/0603 10006KT 9999 BKN040"
    },
    {
      "icao": "LRTR",
      "alert": "OK",
      "vis_m": 9999,
      "fzfg": false,
      "metar_trigger": false,
      "taf_trigger": false,
      "metar": "METAR LRTR 052000Z 10005KT CAVOK 04/04 Q0998",
      "taf": "TAF LRTR 051700Z 0518/0618 11006KT CAVOK"
    },
    {
      "icao": "LTAC",
      "alert": "OK",
      "vis_m": 9999,
      "fzfg": false,
      "metar_trigger": false,
      "taf_trigger": false,
      "metar": "METAR LTAC 051950Z 27003KT 210V330 9999 -SHRA BKN030 BKN080 04/02 Q1010 NOSIG",
      "taf": "TAF LTAC 051640Z 0518/0618 VRB02KT 9999 SCT040 BKN100"
    },
    {
      "icao": "LTFM",
      "alert": "OK",
      "vis_m": 9999,
      "fzfg": false,
      "metar_trigger": false,
      "taf_trigger": false,
      "metar": "METAR LTFM 051950Z COR 18008KT 9999 -RA SCT035 BKN080 11/07 Q1001 NOSIG",
      "taf": "TAF LTFM 051640Z 0518/0624 14014KT 9999 -RA SCT035 BKN080"
    },
    {
      "icao": "LUKK",
      "alert": "OK",
      "vis_m": 9999,
      "fzfg": false,
      "metar_trigger": false,
      "taf_trigger": false,
      "metar": "METAR LUKK 052000Z 11012KT 9999 -FZRA OVC006 M01/M02 Q1008 NOSIG",
      "taf": "TAF LUKK 051718Z 0518/0618 12010KT 6000 OVC005"
    },
    {
      "icao": "LWOH",
      "alert": "OK",
      "vis_m": 9999,
      "fzfg": false,
      "metar_trigger": false,
      "taf_trigger": false,
      "metar": "METAR LWOH 051950Z 12004KT 080V170 9999 BKN040 07/05 Q1000",
      "taf": "TAF LWOH 051730Z 0518/0618 16006KT 9999 BKN040"
    },
    {
      "icao": "LWSK",
      "alert": "OK",
      "vis_m": null,
      "fzfg": false,
      "metar_trigger": false,
      "taf_trigger": false,
      "metar": "",
      "taf": "TAF LWSK 051730Z 0518/0618 VRB02KT 9999 SCT045"
    },
    {
      "icao": "LYBE",
      "alert": "OK",
      "vis_m": 9999,
      "fzfg": false,
      "metar_trigger": false,
      "taf_trigger": false,
      "metar": "METAR LYBE 052000Z 13010KT CAVOK 07/02 Q0997 NOSIG",
      "taf": "TAF LYBE 051700Z 0518/0618 09007KT CAVOK TX13/0613Z TN04/0606Z"
    },
    {
      "icao": "LYNI",
      "alert": "OK",
      "vis_m": 9999,
      "fzfg": false,
      "metar_trigger": false,
      "taf_trigger": false,
      "metar": "METAR LYNI 052000Z 28003KT CAVOK 01/00 Q0999 NOSIG",
      "taf": "TAF LYNI 051700Z 0518/0618 10006KT 9999 SCT050 TX11/0613Z TN02/0606Z"
    },
    {
      "icao": "LYPG",
      "alert": "OK",
      "vis_m": 9999,
      "fzfg": false,
      "metar_trigger": false,
      "taf_trigger": false,
      "metar": "METAR LYPG 052000Z VRB02KT 9999 SCT050 BKN070 09/08 Q1000 NOSIG",
      "taf": "TAF LYPG 051700Z 0518/0618 36005KT 8000 FEW020 SCT040 TX14/0615Z TN08/0602Z"
    },
    {
      "icao": "LZIB",
      "alert": "OK",
      "vis_m": 9999,
      "fzfg": false,
      "metar_trigger": false,
      "taf_trigger": false,
      "metar": "METAR LZIB 052000Z 08003KT 9999 FEW011 OVC018 05/04 Q0995 NOSIG",
      "taf": "TAF LZIB 051715Z 0518/0618 12007KT 9999 BKN020"
    },
    {
      "icao": "LZKZ",
      "alert": "OK",
      "vis_m": 9999,
      "fzfg": false,
      "metar_trigger": false,
      "taf_trigger": false,
      "metar": "METAR LZKZ 052000Z 01006KT 9999 BKN048 03/02 Q0997 NOSIG",
      "taf": "TAF LZKZ 051715Z 0518/0618 01009KT 9999 BKN030"
    },
    {
      "icao": "LZTT",
      "alert": "OK",
      "vis_m": 4000,
      "fzfg": false,
      "metar_trigger": false,
      "taf_trigger": false,
      "metar": "METAR LZTT 052000Z VRB02KT 4000 BR BKN002 OVC020 01/01 Q0996",
      "taf": ""
    },
    {
      "icao": "OEJN",
      "alert": "OK",
      "vis_m": 9999,
      "fzfg": false,
      "metar_trigger": false,
      "taf_trigger": false,
      "metar": "METAR OEJN 052000Z 35004KT 9999 SCT040 26/16 Q1011 NOSIG",
      "taf": "TAF OEJN 051700Z 0518/0624 36006KT 7000 FEW040"
    },
    {
      "icao": "OEMA",
      "alert": "OK",
      "vis_m": 9000,
      "fzfg": false,
      "metar_trigger": false,
      "taf_trigger": false,
      "metar": "METAR OEMA 052000Z 30005KT 9000 BKN040 24/00 Q1015 NOSIG",
      "taf": "TAF OEMA 051700Z 0518/0624 28006KT 7000 SCT045"
    },
    {
      "icao": "OJAI",
      "alert": "OK",
      "vis_m": 4000,
      "fzfg": false,
      "metar_trigger": false,
      "taf_trigger": false,
      "metar": "METAR OJAI 052000Z 12009KT 4000 HZ NSC 13/01 Q1015 NOSIG",
      "taf": "TAF OJAI 051700Z 0518/0624 12006KT 5000 HZ NSC"
    },
    {
      "icao": "OMAA",
      "alert": "OK",
      "vis_m": 9999,
      "fzfg": false,
      "metar_trigger": false,
      "taf_trigger": false,
      "metar": "METAR OMAA 052000Z 33005KT 290V360 CAVOK 20/15 Q1019 NOSIG",
      "taf": "TAF OMAA 051700Z 0518/0700 33010KT 8000 NSC"
    },
    {
      "icao": "OMDB",
      "alert": "OK",
      "vis_m": 9999,
      "fzfg": false,
      "metar_trigger": false,
      "taf_trigger": false,
      "metar": "METAR OMDB 052000Z 32005KT 290V030 CAVOK 22/15 Q1020 NOSIG",
      "taf": "TAF OMDB 051700Z 0518/0700 30010KT 8000 NSC"
    },
    {
      "icao": "UAAA",
      "alert": "OK",
      "vis_m": 4600,
      "fzfg": false,
      "metar_trigger": false,
      "taf_trigger": false,
      "metar": "METAR UAAA 052000Z 15002MPS 4600 BR FU BKN100 M01/M04 Q1012 NOSIG",
      "taf": "TAF UAAA 051709Z 0518/0618 20003MPS 1200 BR FU SCT050CB BKN100 TX04/0607Z TNM02/0602Z"
    },
    {
      "icao": "UBBB",
      "alert": "OK",
      "vis_m": 9999,
      "fzfg": false,
      "metar_trigger": false,
      "taf_trigger": false,
      "metar": "METAR UBBB 052000Z VRB02KT 9999 -RA BKN012 OVC025 01/01 Q1025 NOSIG",
      "taf": "TAF UBBB 051702Z 0518/0618 13008KT 9999 BKN012 BKN020 TX08/0611Z TN02/0600Z"
    },
    {
      "icao": "UDSG",
      "alert": "OK",
      "vis_m": 9000,
      "fzfg": false,
      "metar_trigger": false,
      "taf_trigger": false,
      "metar": "METAR UDSG 052000Z 06001KT 9000 NSC M09/M11 Q1022 NOSIG",
      "taf": "TAF UDSG 051700Z 0518/0618 VRB06KT 9999 FEW040"
    },
    {
      "icao": "UDYZ",
      "alert": "OK",
      "vis_m": 5000,
      "fzfg": false,
      "metar_trigger": false,
      "taf_trigger": false,
      "metar": "METAR UDYZ 052000Z VRB01KT 5000 BR NSC M01/M03 Q1023 NOSIG",
      "taf": "TAF UDYZ 051700Z 0518/0618 VRB04KT 6000 NSC"
    },
    {
      "icao": "UGKO",
      "alert": "OK",
      "vis_m": 9999,
      "fzfg": false,
      "metar_trigger": false,
      "taf_trigger": false,
      "metar": "METAR UGKO 052000Z 09029G41KT CAVOK 08/M02 Q1013 NOSIG",
      "taf": "TAF UGKO 051700Z 0518/0618 08032G45KT CAVOK TX15/0611Z TN05/0604Z"
    }
  ]
}