{
  "ts_utc": "2026-07-12T19:45:44Z",
  "threshold_m": 150,
  "source": "stations_override.txt (ICAO list) + aviationweather.gov (METAR/TAF raw)",
  "station_count": 159,
  "stations": [
    {
      "icao": "BIKF",
      "alert": "OK",
      "vis_m": 6000,
      "fzfg": false,
      "metar_trigger": false,
      "taf_trigger": false,
      "metar": "METAR BIKF 121930Z 18024KT 6000 DZRA BR BKN010 OVC016 10/10 Q1020",
      "taf": "TAF BIKF 121934Z 1221/1321 18025G35KT 2000 RADZ OVC005 TX11/1314Z TN10/1306Z"
    },
    {
      "icao": "BKPR",
      "alert": "OK",
      "vis_m": 9999,
      "fzfg": false,
      "metar_trigger": false,
      "taf_trigger": false,
      "metar": "METAR BKPR 121930Z 31005KT CAVOK 21/16 Q1018 NOSIG",
      "taf": "TAF BKPR 121730Z 1218/1318 VRB03KT 9999 SCT090"
    },
    {
      "icao": "EBCI",
      "alert": "OK",
      "vis_m": 9999,
      "fzfg": false,
      "metar_trigger": false,
      "taf_trigger": false,
      "metar": "METAR EBCI 121920Z 04014KT CAVOK 27/14 Q1020 NOSIG",
      "taf": "TAF EBCI 121705Z 1218/1324 04012KT CAVOK"
    },
    {
      "icao": "EDDB",
      "alert": "OK",
      "vis_m": 9999,
      "fzfg": false,
      "metar_trigger": false,
      "taf_trigger": false,
      "metar": "METAR EDDB 121920Z AUTO 04009KT 360V070 CAVOK 25/12 Q1020 NOSIG",
      "taf": "TAF EDDB 121700Z 1218/1318 01012KT CAVOK"
    },
    {
      "icao": "EDDH",
      "alert": "OK",
      "vis_m": 9999,
      "fzfg": false,
      "metar_trigger": false,
      "taf_trigger": false,
      "metar": "METAR EDDH 121920Z AUTO 30010KT CAVOK 20/15 Q1023 NOSIG",
      "taf": "TAF EDDH 121700Z 1218/1324 31010KT CAVOK"
    },
    {
      "icao": "EDDK",
      "alert": "OK",
      "vis_m": 9999,
      "fzfg": false,
      "metar_trigger": false,
      "taf_trigger": false,
      "metar": "METAR EDDK 121920Z AUTO 03006KT CAVOK 27/15 Q1020 NOSIG",
      "taf": "TAF EDDK 121700Z 1218/1324 04007KT CAVOK"
    },
    {
      "icao": "EDDN",
      "alert": "OK",
      "vis_m": 9999,
      "fzfg": false,
      "metar_trigger": false,
      "taf_trigger": false,
      "metar": "METAR EDDN 121920Z AUTO 05004KT CAVOK 26/12 Q1021 NOSIG",
      "taf": "TAF EDDN 121700Z 1218/1318 02007KT CAVOK"
    },
    {
      "icao": "EDDS",
      "alert": "OK",
      "vis_m": 9999,
      "fzfg": false,
      "metar_trigger": false,
      "taf_trigger": false,
      "metar": "METAR EDDS 121920Z AUTO 05008KT CAVOK 26/08 Q1020 NOSIG",
      "taf": "TAF EDDS 121700Z 1218/1318 05008KT CAVOK"
    },
    {
      "icao": "EDFH",
      "alert": "OK",
      "vis_m": 9999,
      "fzfg": false,
      "metar_trigger": false,
      "taf_trigger": false,
      "metar": "METAR EDFH 121920Z 06004KT 010V120 CAVOK 25/11 Q1022",
      "taf": "TAF EDFH 121700Z 1218/1318 08007KT CAVOK"
    },
    {
      "icao": "EDJA",
      "alert": "OK",
      "vis_m": 9999,
      "fzfg": false,
      "metar_trigger": false,
      "taf_trigger": false,
      "metar": "METAR EDJA 121920Z 07007KT CAVOK 21/09 Q1022",
      "taf": "TAF EDJA 121700Z 1218/1303 05005KT CAVOK"
    },
    {
      "icao": "EDLW",
      "alert": "OK",
      "vis_m": 9999,
      "fzfg": false,
      "metar_trigger": false,
      "taf_trigger": false,
      "metar": "METAR EDLW 121920Z 01006KT 340V040 CAVOK 25/13 Q1022",
      "taf": "TAF EDLW 121700Z 1218/1318 03006KT CAVOK"
    },
    {
      "icao": "EDNY",
      "alert": "OK",
      "vis_m": 9999,
      "fzfg": false,
      "metar_trigger": false,
      "taf_trigger": false,
      "metar": "METAR EDNY 121920Z AUTO 05006KT 9999 // NCD 25/10 Q1020",
      "taf": "TAF EDNY 121700Z 1218/1303 03007KT CAVOK"
    },
    {
      "icao": "EDSB",
      "alert": "OK",
      "vis_m": 9999,
      "fzfg": false,
      "metar_trigger": false,
      "taf_trigger": false,
      "metar": "METAR EDSB 121920Z 03009KT CAVOK 28/08 Q1018",
      "taf": "TAF EDSB 121700Z 1218/1318 03014KT CAVOK"
    },
    {
      "icao": "EETN",
      "alert": "OK",
      "vis_m": 9999,
      "fzfg": false,
      "metar_trigger": false,
      "taf_trigger": false,
      "metar": "METAR EETN 121920Z 35005KT CAVOK 22/17 Q1017 NOSIG",
      "taf": "TAF EETN 121730Z 1218/1318 34010KT CAVOK"
    },
    {
      "icao": "EFTU",
      "alert": "OK",
      "vis_m": 9999,
      "fzfg": false,
      "metar_trigger": false,
      "taf_trigger": false,
      "metar": "METAR EFTU 121920Z AUTO 36004KT 330V040 CAVOK 20/17 Q1020",
      "taf": "TAF EFTU 121731Z 1218/1318 36005KT 9999 FEW040"
    },
    {
      "icao": "EGBB",
      "alert": "OK",
      "vis_m": 9999,
      "fzfg": false,
      "metar_trigger": false,
      "taf_trigger": false,
      "metar": "METAR EGBB 121920Z 07016KT CAVOK 22/08 Q1026",
      "taf": "TAF EGBB 121654Z 1218/1318 06012KT CAVOK"
    },
    {
      "icao": "EGGP",
      "alert": "OK",
      "vis_m": 9999,
      "fzfg": false,
      "metar_trigger": false,
      "taf_trigger": false,
      "metar": "METAR EGGP 121920Z 09012KT 9999 7000N NSC 23/11 Q1026",
      "taf": "TAF EGGP 121657Z 1218/1318 10012KT CAVOK"
    },
    {
      "icao": "EGGW",
      "alert": "OK",
      "vis_m": 9999,
      "fzfg": false,
      "metar_trigger": false,
      "taf_trigger": false,
      "metar": "METAR EGGW 121920Z AUTO 07015KT 9999 NCD 22/08 Q1025",
      "taf": "TAF EGGW 121659Z 1218/1318 05012KT 9999 FEW020"
    },
    {
      "icao": "EGKK",
      "alert": "OK",
      "vis_m": 9999,
      "fzfg": false,
      "metar_trigger": false,
      "taf_trigger": false,
      "metar": "METAR EGKK 121920Z 07012KT CAVOK 22/03 Q1023",
      "taf": "TAF EGKK 121655Z 1218/1324 07012KT 9999 FEW045"
    },
    {
      "icao": "EGNM",
      "alert": "OK",
      "vis_m": 9999,
      "fzfg": false,
      "metar_trigger": false,
      "taf_trigger": false,
      "metar": "METAR EGNM 121920Z 06009KT 030V100 CAVOK 18/11 Q1029",
      "taf": "TAF EGNM 121657Z 1218/1318 06010KT CAVOK"
    },
    {
      "icao": "EGPD",
      "alert": "OK",
      "vis_m": 9999,
      "fzfg": false,
      "metar_trigger": false,
      "taf_trigger": false,
      "metar": "METAR EGPD 121920Z AUTO 10005KT 080V140 9999 NCD 14/10 Q1032",
      "taf": "TAF EGPD 121656Z 1218/1318 10010KT 9999 SCT020"
    },
    {
      "icao": "EGPF",
      "alert": "OK",
      "vis_m": 9999,
      "fzfg": false,
      "metar_trigger": false,
      "taf_trigger": false,
      "metar": "METAR EGPF 121920Z AUTO 06013KT 9999 NCD 18/10 Q1030",
      "taf": "TAF EGPF 121653Z 1218/1318 06009KT 9999 FEW025"
    },
    {
      "icao": "EHBK",
      "alert": "OK",
      "vis_m": 9999,
      "fzfg": false,
      "metar_trigger": false,
      "taf_trigger": false,
      "metar": "METAR EHBK 121925Z AUTO 02013KT 9999 NCD 26/15 Q1021 NOSIG",
      "taf": "TAF EHBK 121656Z 1218/1324 03008KT CAVOK"
    },
    {
      "icao": "EHEH",
      "alert": "OK",
      "vis_m": 9999,
      "fzfg": false,
      "metar_trigger": false,
      "taf_trigger": false,
      "metar": "METAR EHEH 121925Z AUTO 02008KT 350V050 9999 OVC260 25/12 Q1022 BLU NOSIG RMK TREND REMOTE BY EHWX",
      "taf": ""
    },
    {
      "icao": "EKBI",
      "alert": "OK",
      "vis_m": 9999,
      "fzfg": false,
      "metar_trigger": false,
      "taf_trigger": false,
      "metar": "METAR EKBI 121920Z AUTO 09004KT 9999 BKN032/// 22/17 Q1023",
      "taf": "TAF EKBI 121727Z 1218/1318 36005KT 9999 FEW030"
    },
    {
      "icao": "EKCH",
      "alert": "OK",
      "vis_m": 9999,
      "fzfg": false,
      "metar_trigger": false,
      "taf_trigger": false,
      "metar": "METAR EKCH 121920Z AUTO 01007KT 330V030 9999 SCT140/// BKN160/// 24/14 Q1022 NOSIG",
      "taf": "TAF EKCH 121731Z 1218/1318 36012KT 9999 SCT045"
    },
    {
      "icao": "ENAL",
      "alert": "OK",
      "vis_m": 9999,
      "fzfg": false,
      "metar_trigger": false,
      "taf_trigger": false,
      "metar": "METAR ENAL 121920Z 04008KT CAVOK 14/10 Q1031",
      "taf": "TAF ENAL 121700Z 1218/1303 03009KT CAVOK"
    },
    {
      "icao": "ENBR",
      "alert": "OK",
      "vis_m": 9999,
      "fzfg": false,
      "metar_trigger": false,
      "taf_trigger": false,
      "metar": "METAR ENBR 121920Z 32010KT CAVOK 14/10 Q1027 RMK WIND 1200FT 34012KT",
      "taf": "TAF ENBR 121700Z 1218/1318 34009KT CAVOK"
    },
    {
      "icao": "ENGM",
      "alert": "OK",
      "vis_m": 9999,
      "fzfg": false,
      "metar_trigger": false,
      "taf_trigger": false,
      "metar": "METAR ENGM 121920Z 35004KT CAVOK 22/06 Q1026 NOSIG",
      "taf": "TAF ENGM 121700Z 1218/1318 01008KT CAVOK"
    },
    {
      "icao": "ENHD",
      "alert": "OK",
      "vis_m": 9999,
      "fzfg": false,
      "metar_trigger": false,
      "taf_trigger": false,
      "metar": "METAR ENHD 121920Z 35018KT CAVOK 13/10 Q1027",
      "taf": "TAF ENHD 121400Z 1215/1222 34018KT CAVOK"
    },
    {
      "icao": "ENTC",
      "alert": "OK",
      "vis_m": 9999,
      "fzfg": false,
      "metar_trigger": false,
      "taf_trigger": false,
      "metar": "METAR ENTC 121920Z 21019KT 9999 BKN044 13/06 Q1025 NOSIG RMK WIND 2600FT 21016KT",
      "taf": ""
    },
    {
      "icao": "ENTO",
      "alert": "OK",
      "vis_m": 9999,
      "fzfg": false,
      "metar_trigger": false,
      "taf_trigger": false,
      "metar": "METAR ENTO 121920Z VRB02KT CAVOK 22/10 Q1025 NOSIG",
      "taf": "TAF ENTO 121700Z 1218/1318 02008KT CAVOK"
    },
    {
      "icao": "ENVA",
      "alert": "OK",
      "vis_m": 9999,
      "fzfg": false,
      "metar_trigger": false,
      "taf_trigger": false,
      "metar": "METAR ENVA 121920Z 28012KT CAVOK 16/11 Q1030 RMK WIND 670FT 28013KT",
      "taf": "TAF ENVA 121700Z 1218/1318 27005KT CAVOK"
    },
    {
      "icao": "ENZV",
      "alert": "OK",
      "vis_m": 9999,
      "fzfg": false,
      "metar_trigger": false,
      "taf_trigger": false,
      "metar": "METAR ENZV 121920Z 32008KT CAVOK 16/11 Q1026 NOSIG",
      "taf": "TAF ENZV 121700Z 1218/1318 30008KT CAVOK"
    },
    {
      "icao": "EPGD",
      "alert": "OK",
      "vis_m": 7000,
      "fzfg": false,
      "metar_trigger": false,
      "taf_trigger": false,
      "metar": "METAR EPGD 121930Z 32010KT 7000 OVC002 16/16 Q1020",
      "taf": "TAF EPGD 121730Z 1218/1318 33007KT 9999 SCT011"
    },
    {
      "icao": "EPKK",
      "alert": "OK",
      "vis_m": 9999,
      "fzfg": false,
      "metar_trigger": false,
      "taf_trigger": false,
      "metar": "METAR EPKK 121930Z 28004KT 9999 BKN040 18/14 Q1018",
      "taf": "TAF EPKK 121730Z 1218/1318 VRB02KT 9999 SCT035"
    },
    {
      "icao": "EPKT",
      "alert": "OK",
      "vis_m": 9999,
      "fzfg": false,
      "metar_trigger": false,
      "taf_trigger": false,
      "metar": "METAR EPKT 121930Z 11002KT CAVOK 15/14 Q1018",
      "taf": "TAF EPKT 121730Z 1218/1318 35005KT 9999 SCT030"
    },
    {
      "icao": "EPLB",
      "alert": "OK",
      "vis_m": 9999,
      "fzfg": false,
      "metar_trigger": false,
      "taf_trigger": false,
      "metar": "METAR EPLB 121930Z 32004KT 9999 FEW026 16/14 Q1017",
      "taf": "TAF EPLB 121730Z 1218/1318 VRB04KT 9999 BKN035"
    },
    {
      "icao": "EPMO",
      "alert": "OK",
      "vis_m": 9999,
      "fzfg": false,
      "metar_trigger": false,
      "taf_trigger": false,
      "metar": "METAR EPMO 121930Z 32003KT CAVOK 16/15 Q1017",
      "taf": "TAF EPMO 121730Z 1218/1318 34006KT 9999 BKN030"
    },
    {
      "icao": "EPPO",
      "alert": "OK",
      "vis_m": 9999,
      "fzfg": false,
      "metar_trigger": false,
      "taf_trigger": false,
      "metar": "METAR EPPO 121930Z 34004KT 9999 SCT036 22/15 Q1019",
      "taf": "TAF EPPO 121730Z 1218/1318 36008KT CAVOK"
    },
    {
      "icao": "EPRA",
      "alert": "OK",
      "vis_m": 9999,
      "fzfg": false,
      "metar_trigger": false,
      "taf_trigger": false,
      "metar": "METAR EPRA 121930Z 35004KT CAVOK 17/15 Q1017",
      "taf": "TAF EPRA 121730Z 1218/1303 34004KT 9999 BKN040"
    },
    {
      "icao": "EPRZ",
      "alert": "OK",
      "vis_m": 9999,
      "fzfg": false,
      "metar_trigger": false,
      "taf_trigger": false,
      "metar": "METAR EPRZ 121930Z 26003KT 9999 SCT011 16/15 Q1017",
      "taf": "TAF EPRZ 121730Z 1218/1318 24004KT 9999 BKN040"
    },
    {
      "icao": "EPSC",
      "alert": "OK",
      "vis_m": 9999,
      "fzfg": false,
      "metar_trigger": false,
      "taf_trigger": false,
      "metar": "METAR EPSC 121930Z 34008KT CAVOK 20/15 Q1021",
      "taf": "TAF EPSC 121730Z 1218/1318 01006KT 9999 SCT035"
    },
    {
      "icao": "EPSY",
      "alert": "OK",
      "vis_m": 9999,
      "fzfg": false,
      "metar_trigger": false,
      "taf_trigger": false,
      "metar": "METAR EPSY 121930Z 31003KT 9999 FEW048 18/15 Q1017",
      "taf": "TAF EPSY 121730Z 1218/1303 35004KT 9999 SCT030"
    },
    {
      "icao": "EPWA",
      "alert": "OK",
      "vis_m": 9999,
      "fzfg": false,
      "metar_trigger": false,
      "taf_trigger": false,
      "metar": "METAR EPWA 121930Z 32005KT CAVOK 18/15 Q1017 NOSIG",
      "taf": "TAF EPWA 121730Z 1218/1318 34005KT 9999 BKN030"
    },
    {
      "icao": "EPWR",
      "alert": "OK",
      "vis_m": 9999,
      "fzfg": false,
      "metar_trigger": false,
      "taf_trigger": false,
      "metar": "METAR EPWR 121930Z 30004KT CAVOK 23/15 Q1018",
      "taf": "TAF EPWR 121730Z 1218/1318 35010KT CAVOK"
    },
    {
      "icao": "ESGG",
      "alert": "OK",
      "vis_m": 9999,
      "fzfg": false,
      "metar_trigger": false,
      "taf_trigger": false,
      "metar": "METAR ESGG 121920Z 03009KT CAVOK 19/15 Q1024",
      "taf": "TAF ESGG 121730Z 1218/1318 03010KT CAVOK"
    },
    {
      "icao": "ESKN",
      "alert": "OK",
      "vis_m": 9999,
      "fzfg": false,
      "metar_trigger": false,
      "taf_trigger": false,
      "metar": "METAR ESKN 121920Z 36006KT 320V030 CAVOK 18/12 Q1024",
      "taf": "TAF ESKN 121730Z 1218/1318 36007KT CAVOK"
    },
    {
      "icao": "ESMS",
      "alert": "OK",
      "vis_m": 9999,
      "fzfg": false,
      "metar_trigger": false,
      "taf_trigger": false,
      "metar": "METAR ESMS 121920Z 13004KT CAVOK 20/13 Q1022",
      "taf": "TAF ESMS 121727Z 1218/1318 16010KT CAVOK"
    },
    {
      "icao": "ESSA",
      "alert": "OK",
      "vis_m": 9999,
      "fzfg": false,
      "metar_trigger": false,
      "taf_trigger": false,
      "metar": "METAR ESSA 121920Z 36012KT CAVOK 16/08 Q1023 NOSIG",
      "taf": "TAF ESSA 121730Z 1218/1318 36008KT CAVOK"
    },
    {
      "icao": "EYKA",
      "alert": "OK",
      "vis_m": 9999,
      "fzfg": false,
      "metar_trigger": false,
      "taf_trigger": false,
      "metar": "METAR EYKA 121920Z VRB01KT 9999 SCT034 BKN046 18/17 Q1015",
      "taf": "TAF EYKA 121700Z 1218/1318 VRB03KT 9000 NSC"
    },
    {
      "icao": "EYPA",
      "alert": "OK",
      "vis_m": 9999,
      "fzfg": false,
      "metar_trigger": false,
      "taf_trigger": false,
      "metar": "METAR EYPA 121920Z VRB02KT CAVOK 19/17 Q1017",
      "taf": "TAF EYPA 121700Z 1218/1318 VRB03KT 9000 NSC"
    },
    {
      "icao": "EYVI",
      "alert": "OK",
      "vis_m": 9999,
      "fzfg": false,
      "metar_trigger": false,
      "taf_trigger": false,
      "metar": "METAR EYVI 121920Z 32005KT CAVOK 19/17 Q1014 NOSIG",
      "taf": "TAF EYVI 121710Z 1218/1318 VRB03KT 9000 NSC"
    },
    {
      "icao": "GCFV",
      "alert": "OK",
      "vis_m": 9999,
      "fzfg": false,
      "metar_trigger": false,
      "taf_trigger": false,
      "metar": "METAR GCFV 121930Z 36012KT 9999 FEW035 25/15 Q1016",
      "taf": "TAF GCFV 121400Z 1215/1315 06012KT 9999 FEW025 TX25/1314Z TN21/1306Z"
    },
    {
      "icao": "GCLP",
      "alert": "OK",
      "vis_m": 9999,
      "fzfg": false,
      "metar_trigger": false,
      "taf_trigger": false,
      "metar": "METAR GCLP 121930Z 02018KT 9999 FEW030 24/16 Q1016 NOSIG",
      "taf": "TAF GCLP 121400Z 1215/1315 02020KT 9999 FEW030 TX26/1314Z TN20/1306Z"
    },
    {
      "icao": "GCTS",
      "alert": "OK",
      "vis_m": 9999,
      "fzfg": false,
      "metar_trigger": false,
      "taf_trigger": false,
      "metar": "METAR GCTS 121930Z 10008KT 9999 FEW035 23/17 Q1017 NOSIG",
      "taf": "TAF GCTS 121400Z 1215/1315 11011KT 9999 FEW030 TX26/1314Z TN19/1306Z"
    },
    {
      "icao": "GMAD",
      "alert": "OK",
      "vis_m": 9999,
      "fzfg": false,
      "metar_trigger": false,
      "taf_trigger": false,
      "metar": "METAR GMAD 121930Z 21011KT CAVOK 24/17 Q1014 NOSIG",
      "taf": ""
    },
    {
      "icao": "GMMN",
      "alert": "OK",
      "vis_m": 9999,
      "fzfg": false,
      "metar_trigger": false,
      "taf_trigger": false,
      "metar": "METAR GMMN 121930Z 36009KT 330V030 9999 FEW030 23/17 Q1016 NOSIG",
      "taf": "TAF GMMN 121700Z 1218/1324 36010KT 9999 SCT030"
    },
    {
      "icao": "GMMX",
      "alert": "OK",
      "vis_m": 9999,
      "fzfg": false,
      "metar_trigger": false,
      "taf_trigger": false,
      "metar": "METAR GMMX 121930Z 36006KT 310V040 9999 SCT030 32/16 Q1014 NOSIG",
      "taf": "TAF GMMX 121700Z 1218/1324 30006KT 8000 SCT030"
    },
    {
      "icao": "HEGN",
      "alert": "OK",
      "vis_m": 9999,
      "fzfg": false,
      "metar_trigger": false,
      "taf_trigger": false,
      "metar": "METAR HEGN 121900Z 32012KT CAVOK 32/11 Q1006 NOSIG",
      "taf": "TAF HEGN 121700Z 1218/1324 31015KT CAVOK"
    },
    {
      "icao": "HEMA",
      "alert": "OK",
      "vis_m": 9999,
      "fzfg": false,
      "metar_trigger": false,
      "taf_trigger": false,
      "metar": "METAR HEMA 121900Z 33005KT CAVOK 32/12 Q1006 NOSIG",
      "taf": "TAF HEMA 121700Z 1218/1324 30015KT CAVOK"
    },
    {
      "icao": "HESH",
      "alert": "OK",
      "vis_m": 9999,
      "fzfg": false,
      "metar_trigger": false,
      "taf_trigger": false,
      "metar": "METAR HESH 121900Z 35009KT CAVOK 35/12 Q1004 NOSIG",
      "taf": "TAF HESH 121700Z 1218/1324 35014KT CAVOK"
    },
    {
      "icao": "HESX",
      "alert": "OK",
      "vis_m": 9999,
      "fzfg": false,
      "metar_trigger": false,
      "taf_trigger": false,
      "metar": "METAR HESX 121900Z 36010KT CAVOK 26/15 Q1011 NOSIG",
      "taf": "TAF HESX 121700Z 1218/1324 35015KT CAVOK"
    },
    {
      "icao": "LATI",
      "alert": "OK",
      "vis_m": 9999,
      "fzfg": false,
      "metar_trigger": false,
      "taf_trigger": false,
      "metar": "METAR LATI 121920Z 34003KT 300V010 CAVOK 24/17 Q1015 NOSIG",
      "taf": "TAF LATI 121700Z 1218/1318 34008KT CAVOK TX36/1312Z TN17/1304Z"
    },
    {
      "icao": "LBPD",
      "alert": "OK",
      "vis_m": 9999,
      "fzfg": false,
      "metar_trigger": false,
      "taf_trigger": false,
      "metar": "METAR LBPD 121930Z AUTO 17005KT 9999 FEW170/// 20/20 Q1015",
      "taf": "TAF LBPD 121700Z 1218/1318 VRB03KT 9999 SCT070"
    },
    {
      "icao": "LBSF",
      "alert": "OK",
      "vis_m": 9999,
      "fzfg": false,
      "metar_trigger": false,
      "taf_trigger": false,
      "metar": "METAR LBSF 121930Z AUTO 30006KT 9999 NCD 20/16 Q1018 NOSIG",
      "taf": "TAF LBSF 121700Z 1218/1318 29012KT 9999 SCT050"
    },
    {
      "icao": "LBWN",
      "alert": "OK",
      "vis_m": 9999,
      "fzfg": false,
      "metar_trigger": false,
      "taf_trigger": false,
      "metar": "METAR LBWN 121930Z AUTO 10003KT 9999 NSC 23/18 Q1014 TEMPO 5000 SHRA FEW030TCU",
      "taf": "TAF LBWN 121700Z 1218/1318 VRB04KT 9999 SCT050"
    },
    {
      "icao": "LCLK",
      "alert": "OK",
      "vis_m": 9999,
      "fzfg": false,
      "metar_trigger": false,
      "taf_trigger": false,
      "metar": "METAR LCLK 121930Z 20004KT CAVOK 27/24 Q1006 NOSIG",
      "taf": "TAF LCLK 121730Z 1218/1318 22005KT CAVOK"
    },
    {
      "icao": "LCPH",
      "alert": "OK",
      "vis_m": 9999,
      "fzfg": false,
      "metar_trigger": false,
      "taf_trigger": false,
      "metar": "METAR LCPH 121930Z 33006KT CAVOK 26/24 Q1007 NOSIG",
      "taf": "TAF LCPH 121730Z 1218/1318 34008KT CAVOK"
    },
    {
      "icao": "LEAL",
      "alert": "OK",
      "vis_m": 9999,
      "fzfg": false,
      "metar_trigger": false,
      "taf_trigger": false,
      "metar": "METAR LEAL 121930Z 07007KT 9999 SCT010 BKN017 28/26 Q1012 NOSIG",
      "taf": "TAF LEAL 121700Z 1218/1318 09010KT 9999 FEW030 TX33/1312Z TN24/1306Z"
    },
    {
      "icao": "LEBB",
      "alert": "OK",
      "vis_m": 9999,
      "fzfg": false,
      "metar_trigger": false,
      "taf_trigger": false,
      "metar": "METAR LEBB 121930Z 31006KT 260V040 9999 FEW015 24/21 Q1010 TEMPO 3000 TSRA SCT040CB",
      "taf": "TAF LEBB 121700Z 1218/1318 34009KT 9999 SCT030 TX28/1314Z TN21/1305Z"
    },
    {
      "icao": "LEBL",
      "alert": "OK",
      "vis_m": 9999,
      "fzfg": false,
      "metar_trigger": false,
      "taf_trigger": false,
      "metar": "METAR LEBL 121930Z 06010KT 9999 FEW015 27/24 Q1014 NOSIG",
      "taf": "TAF LEBL 121700Z 1218/1318 06012KT 9999 SCT015 TX32/1312Z TN25/1306Z"
    },
    {
      "icao": "LECH",
      "alert": "OK",
      "vis_m": 9000,
      "fzfg": false,
      "metar_trigger": false,
      "taf_trigger": false,
      "metar": "METAR LECH 121930Z AUTO 07008KT 9000 NSC 25/22 Q1014",
      "taf": "TAF LECH 121700Z 1218/1318 09010KT CAVOK TX33/1312Z TN19/1306Z"
    },
    {
      "icao": "LEMD",
      "alert": "OK",
      "vis_m": 9999,
      "fzfg": false,
      "metar_trigger": false,
      "taf_trigger": false,
      "metar": "METAR LEMD 121930Z 25009KT 220V310 CAVOK 29/09 Q1013 NOSIG",
      "taf": ""
    },
    {
      "icao": "LEMG",
      "alert": "OK",
      "vis_m": 9999,
      "fzfg": false,
      "metar_trigger": false,
      "taf_trigger": false,
      "metar": "METAR LEMG 121930Z 31001G12KT CAVOK 30/14 Q1011 NOSIG",
      "taf": "TAF LEMG 121700Z 1218/1318 VRB03KT CAVOK TX34/1314Z TN21/1305Z"
    },
    {
      "icao": "LEVC",
      "alert": "OK",
      "vis_m": 9999,
      "fzfg": false,
      "metar_trigger": false,
      "taf_trigger": false,
      "metar": "METAR LEVC 121930Z 07008KT 050V130 9999 SCT014 27/23 Q1012 NOSIG",
      "taf": "TAF LEVC 121700Z 1218/1318 07010KT 9999 FEW020 TX31/1314Z TN23/1306Z"
    },
    {
      "icao": "LEXJ",
      "alert": "OK",
      "vis_m": 4500,
      "fzfg": false,
      "metar_trigger": false,
      "taf_trigger": false,
      "metar": "SPECI LEXJ 121934Z 30011KT 4500 SHRA TS SCT012 BKN034CB 22/20 Q1012",
      "taf": ""
    },
    {
      "icao": "LEZG",
      "alert": "OK",
      "vis_m": 9999,
      "fzfg": false,
      "metar_trigger": false,
      "taf_trigger": false,
      "metar": "METAR LEZG 121930Z 09015KT 060V120 CAVOK 30/17 Q1010 NOSIG",
      "taf": "TAF LEZG 121700Z 1218/1318 10010KT CAVOK TX37/1315Z TN23/1306Z"
    },
    {
      "icao": "LEZL",
      "alert": "OK",
      "vis_m": 9999,
      "fzfg": false,
      "metar_trigger": false,
      "taf_trigger": false,
      "metar": "METAR LEZL 121930Z 23010KT 200V260 CAVOK 26/15 Q1014 NOSIG",
      "taf": "TAF LEZL 121400Z 1215/1315 23014KT 9999 FEW045 TX30/1215Z TN18/1305Z"
    },
    {
      "icao": "LFBD",
      "alert": "OK",
      "vis_m": 9999,
      "fzfg": false,
      "metar_trigger": false,
      "taf_trigger": false,
      "metar": "METAR LFBD 121930Z AUTO 09004KT CAVOK 35/14 Q1007 TEMPO VRB25G40KT 3000 TSRA BKN080CB",
      "taf": "TAF LFBD 121700Z 1218/1324 10010KT CAVOK TX38/1218Z TN24/1305Z"
    },
    {
      "icao": "LFLL",
      "alert": "OK",
      "vis_m": 9999,
      "fzfg": false,
      "metar_trigger": false,
      "taf_trigger": false,
      "metar": "METAR LFLL 121930Z 04004KT CAVOK 33/12 Q1014 NOSIG",
      "taf": "TAF LFLL 121700Z 1218/1324 04005KT CAVOK"
    },
    {
      "icao": "LFLS",
      "alert": "OK",
      "vis_m": 9999,
      "fzfg": false,
      "metar_trigger": false,
      "taf_trigger": false,
      "metar": "METAR LFLS 121930Z AUTO 14003KT CAVOK 28/11 Q1015",
      "taf": ""
    },
    {
      "icao": "LFMN",
      "alert": "OK",
      "vis_m": 9999,
      "fzfg": false,
      "metar_trigger": false,
      "taf_trigger": false,
      "metar": "METAR LFMN 121930Z 20003KT CAVOK 27/24 Q1015 NOSIG",
      "taf": "TAF LFMN 121400Z 1215/1321 11006KT 9999 FEW030"
    },
    {
      "icao": "LFOB",
      "alert": "OK",
      "vis_m": 9999,
      "fzfg": false,
      "metar_trigger": false,
      "taf_trigger": false,
      "metar": "METAR LFOB 121930Z AUTO 04014KT CAVOK 29/13 Q1018 NOSIG",
      "taf": "TAF LFOB 121700Z 1218/1318 04012G22KT CAVOK"
    },
    {
      "icao": "LFPO",
      "alert": "OK",
      "vis_m": 9999,
      "fzfg": false,
      "metar_trigger": false,
      "taf_trigger": false,
      "metar": "METAR LFPO 121930Z AUTO 06013KT CAVOK 32/08 Q1016 NOSIG",
      "taf": "TAF LFPO 121700Z 1218/1324 06012KT CAVOK"
    },
    {
      "icao": "LFSB",
      "alert": "OK",
      "vis_m": 9999,
      "fzfg": false,
      "metar_trigger": false,
      "taf_trigger": false,
      "metar": "METAR LFSB 121930Z AUTO 36007KT CAVOK 28/10 Q1018 TEMPO 09010KT",
      "taf": "TAF LFSB 121700Z 1218/1318 02008KT CAVOK"
    },
    {
      "icao": "LGAV",
      "alert": "OK",
      "vis_m": 9999,
      "fzfg": false,
      "metar_trigger": false,
      "taf_trigger": false,
      "metar": "METAR LGAV 121920Z 25001KT CAVOK 27/11 Q1013 NOSIG",
      "taf": "TAF LGAV 121700Z 1218/1318 04010KT 9999 FEW025"
    },
    {
      "icao": "LGTS",
      "alert": "OK",
      "vis_m": 9999,
      "fzfg": false,
      "metar_trigger": false,
      "taf_trigger": false,
      "metar": "METAR LGTS 121920Z VRB03KT 9999 FEW020TCU 26/19 Q1013 RETS NOSIG",
      "taf": "TAF LGTS 121700Z 1218/1318 16013KT 9999 FEW030"
    },
    {
      "icao": "LHBP",
      "alert": "OK",
      "vis_m": 9999,
      "fzfg": false,
      "metar_trigger": false,
      "taf_trigger": false,
      "metar": "METAR LHBP 121930Z 33008KT CAVOK 20/13 Q1017 NOSIG",
      "taf": "TAF LHBP 121715Z 1218/1318 31012KT CAVOK"
    },
    {
      "icao": "LHDC",
      "alert": "OK",
      "vis_m": 9999,
      "fzfg": false,
      "metar_trigger": false,
      "taf_trigger": false,
      "metar": "METAR LHDC 121915Z AUTO 29005KT 240V320 9999 -SHRA OVC072 //////TCU 20/14 Q1016 NOSIG",
      "taf": "TAF LHDC 121715Z 1218/1303 33005KT CAVOK"
    },
    {
      "icao": "LIBD",
      "alert": "OK",
      "vis_m": 9999,
      "fzfg": false,
      "metar_trigger": false,
      "taf_trigger": false,
      "metar": "METAR LIBD 121920Z 32003KT CAVOK 25/21 Q1016",
      "taf": "TAF LIBD 121700Z 1218/1318 VRB05KT CAVOK"
    },
    {
      "icao": "LIBG",
      "alert": "OK",
      "vis_m": 9999,
      "fzfg": false,
      "metar_trigger": false,
      "taf_trigger": false,
      "metar": "METAR LIBG 121920Z AUTO 02007KT 9999 NCD 26/20 Q1015",
      "taf": "TAF LIBG 121700Z 1218/1318 VRB05KT 9999 FEW040"
    },
    {
      "icao": "LIBP",
      "alert": "OK",
      "vis_m": 9999,
      "fzfg": false,
      "metar_trigger": false,
      "taf_trigger": false,
      "metar": "METAR LIBP 121920Z AUTO 09003KT 060V120 9999 NCD 25/21 Q1017",
      "taf": "TAF LIBP 121700Z 1218/1318 VRB05KT CAVOK"
    },
    {
      "icao": "LIBR",
      "alert": "OK",
      "vis_m": 9999,
      "fzfg": false,
      "metar_trigger": false,
      "taf_trigger": false,
      "metar": "METAR LIBR 121920Z 33009KT 9999 FEW045 26/22 Q1015",
      "taf": "TAF LIBR 121700Z 1218/1318 34013KT CAVOK"
    },
    {
      "icao": "LICA",
      "alert": "OK",
      "vis_m": 9999,
      "fzfg": false,
      "metar_trigger": false,
      "taf_trigger": false,
      "metar": "METAR LICA 121920Z AUTO 12004KT 9999 NCD 27/20 Q1013",
      "taf": "TAF LICA 121700Z 1218/1318 VRB05KT CAVOK"
    },
    {
      "icao": "LICC",
      "alert": "OK",
      "vis_m": 9999,
      "fzfg": false,
      "metar_trigger": false,
      "taf_trigger": false,
      "metar": "METAR LICC 121920Z 27011KT CAVOK 30/13 Q1013",
      "taf": "TAF LICC 121700Z 1218/1318 26009KT CAVOK"
    },
    {
      "icao": "LICJ",
      "alert": "OK",
      "vis_m": 9999,
      "fzfg": false,
      "metar_trigger": false,
      "taf_trigger": false,
      "metar": "METAR LICJ 121920Z 06008KT CAVOK 29/21 Q1014",
      "taf": "TAF LICJ 121700Z 1218/1318 05012KT CAVOK"
    },
    {
      "icao": "LIMC",
      "alert": "OK",
      "vis_m": 9999,
      "fzfg": false,
      "metar_trigger": false,
      "taf_trigger": false,
      "metar": "METAR LIMC 121920Z 19003KT CAVOK 29/14 Q1016 NOSIG",
      "taf": "TAF LIMC 121700Z 1218/1324 VRB05KT CAVOK"
    },
    {
      "icao": "LIME",
      "alert": "OK",
      "vis_m": 9999,
      "fzfg": false,
      "metar_trigger": false,
      "taf_trigger": false,
      "metar": "METAR LIME 121920Z 13005KT 110V170 CAVOK 29/17 Q1016 NOSIG",
      "taf": "TAF LIME 121700Z 1218/1318 VRB05KT CAVOK"
    },
    {
      "icao": "LIMF",
      "alert": "OK",
      "vis_m": 9999,
      "fzfg": false,
      "metar_trigger": false,
      "taf_trigger": false,
      "metar": "METAR LIMF 121920Z 06005KT CAVOK 29/22 Q1016",
      "taf": "TAF LIMF 121700Z 1218/1318 VRB05KT CAVOK"
    },
    {
      "icao": "LIMJ",
      "alert": "OK",
      "vis_m": 9999,
      "fzfg": false,
      "metar_trigger": false,
      "taf_trigger": false,
      "metar": "METAR LIMJ 121920Z 23003KT CAVOK 28/23 Q1015",
      "taf": "TAF LIMJ 121700Z 1218/1318 VRB05KT CAVOK"
    },
    {
      "icao": "LIPE",
      "alert": "OK",
      "vis_m": 9999,
      "fzfg": false,
      "metar_trigger": false,
      "taf_trigger": false,
      "metar": "METAR LIPE 121920Z 09007KT CAVOK 29/19 Q1015",
      "taf": "TAF LIPE 121700Z 1218/1318 12010KT CAVOK"
    },
    {
      "icao": "LIPH",
      "alert": "OK",
      "vis_m": 9999,
      "fzfg": false,
      "metar_trigger": false,
      "taf_trigger": false,
      "metar": "METAR LIPH 121920Z 12005KT CAVOK 27/22 Q1016",
      "taf": "TAF LIPH 121700Z 1218/1318 VRB05KT CAVOK"
    },
    {
      "icao": "LIPQ",
      "alert": "OK",
      "vis_m": 9999,
      "fzfg": false,
      "metar_trigger": false,
      "taf_trigger": false,
      "metar": "METAR LIPQ 121920Z AUTO 05003KT 9999 BKN095/// 26/20 Q1017",
      "taf": "TAF LIPQ 121700Z 1218/1318 VRB05KT 9999 SCT040"
    },
    {
      "icao": "LIPR",
      "alert": "OK",
      "vis_m": 9999,
      "fzfg": false,
      "metar_trigger": false,
      "taf_trigger": false,
      "metar": "METAR LIPR 121920Z 11007KT CAVOK 26/19 Q1016",
      "taf": "TAF LIPR 121700Z 1218/1318 VRB05KT CAVOK"
    },
    {
      "icao": "LIPX",
      "alert": "OK",
      "vis_m": 9999,
      "fzfg": false,
      "metar_trigger": false,
      "taf_trigger": false,
      "metar": "METAR LIPX 121920Z 14003KT CAVOK 27/22 Q1016",
      "taf": "TAF LIPX 121700Z 1218/1318 VRB05KT CAVOK"
    },
    {
      "icao": "LIPY",
      "alert": "OK",
      "vis_m": 9999,
      "fzfg": false,
      "metar_trigger": false,
      "taf_trigger": false,
      "metar": "METAR LIPY 121920Z AUTO VRB02KT 9999 NCD 26/16 Q1016",
      "taf": "TAF LIPY 121700Z 1218/1318 VRB05KT CAVOK"
    },
    {
      "icao": "LIPZ",
      "alert": "OK",
      "vis_m": 9999,
      "fzfg": false,
      "metar_trigger": false,
      "taf_trigger": false,
      "metar": "METAR LIPZ 121920Z 13007KT CAVOK 27/22 Q1016 NOSIG",
      "taf": "TAF LIPZ 121700Z 1218/1324 VRB05KT CAVOK"
    },
    {
      "icao": "LIRF",
      "alert": "OK",
      "vis_m": 9999,
      "fzfg": false,
      "metar_trigger": false,
      "taf_trigger": false,
      "metar": "METAR LIRF 121920Z 28008KT CAVOK 27/23 Q1015 NOSIG",
      "taf": ""
    },
    {
      "icao": "LIRN",
      "alert": "OK",
      "vis_m": 9999,
      "fzfg": false,
      "metar_trigger": false,
      "taf_trigger": false,
      "metar": "METAR LIRN 121920Z 36004KT 330V040 CAVOK 30/17 Q1015 NOSIG",
      "taf": "TAF LIRN 121700Z 1218/1318 04006KT CAVOK"
    },
    {
      "icao": "LIRP",
      "alert": "OK",
      "vis_m": 9999,
      "fzfg": false,
      "metar_trigger": false,
      "taf_trigger": false,
      "metar": "METAR LIRP 121915Z 30004KT CAVOK 28/18 Q1014 NOSIG",
      "taf": "TAF LIRP 121700Z 1218/1318 27010KT CAVOK"
    },
    {
      "icao": "LIRZ",
      "alert": "OK",
      "vis_m": 9999,
      "fzfg": false,
      "metar_trigger": false,
      "taf_trigger": false,
      "metar": "METAR LIRZ 121920Z AUTO 04007KT 9999 NCD 28/16 Q1016",
      "taf": "TAF LIRZ 121700Z 1218/1318 04013KT CAVOK"
    },
    {
      "icao": "LJLJ",
      "alert": "OK",
      "vis_m": 9999,
      "fzfg": false,
      "metar_trigger": false,
      "taf_trigger": false,
      "metar": "METAR LJLJ 121930Z VRB02KT 9999 FEW070 21/17 Q1019 NOSIG",
      "taf": "TAF LJLJ 121700Z 1218/1318 14007KT 9999 FEW050"
    },
    {
      "icao": "LKMT",
      "alert": "OK",
      "vis_m": 9999,
      "fzfg": false,
      "metar_trigger": false,
      "taf_trigger": false,
      "metar": "METAR LKMT 121930Z VRB02KT 9999 FEW049 19/16 Q1018 NOSIG",
      "taf": "TAF LKMT 121700Z 1218/1318 VRB02KT 9999 BKN040"
    },
    {
      "icao": "LKPR",
      "alert": "OK",
      "vis_m": 9999,
      "fzfg": false,
      "metar_trigger": false,
      "taf_trigger": false,
      "metar": "METAR LKPR 121930Z 33004KT CAVOK 22/12 Q1020 NOSIG",
      "taf": "TAF LKPR 121700Z 1218/1324 33008KT CAVOK"
    },
    {
      "icao": "LLBG",
      "alert": "OK",
      "vis_m": 9999,
      "fzfg": false,
      "metar_trigger": false,
      "taf_trigger": false,
      "metar": "METAR LLBG 121920Z VRB01KT 9999 FEW020 27/21 Q1009 NOSIG",
      "taf": "TAF LLBG 121705Z 1218/1318 VRB04KT 9999 FEW022 TX31/1311Z TN22/1302Z"
    },
    {
      "icao": "LMML",
      "alert": "OK",
      "vis_m": 9999,
      "fzfg": false,
      "metar_trigger": false,
      "taf_trigger": false,
      "metar": "METAR LMML 121915Z 17008KT CAVOK 26/24 Q1014 NOSIG",
      "taf": "TAF LMML 121700Z 1218/1318 18010KT 9999 FEW015"
    },
    {
      "icao": "LOWW",
      "alert": "OK",
      "vis_m": 9999,
      "fzfg": false,
      "metar_trigger": false,
      "taf_trigger": false,
      "metar": "METAR LOWW 121920Z 34009KT CAVOK 25/12 Q1018 NOSIG",
      "taf": "TAF LOWW 121715Z 1218/1324 34012KT CAVOK TX30/1316Z TN18/1304Z"
    },
    {
      "icao": "LPFR",
      "alert": "OK",
      "vis_m": 9999,
      "fzfg": false,
      "metar_trigger": false,
      "taf_trigger": false,
      "metar": "METAR LPFR 121930Z 26012KT CAVOK 22/19 Q1014",
      "taf": "TAF LPFR 121700Z 1218/1318 25010KT 9999 FEW020"
    },
    {
      "icao": "LPMA",
      "alert": "OK",
      "vis_m": 9999,
      "fzfg": false,
      "metar_trigger": false,
      "taf_trigger": false,
      "metar": "METAR LPMA 121930Z 32004KT 250V030 9999 BKN015 22/18 Q1017",
      "taf": "TAF LPMA 121700Z 1218/1318 VRB05KT 9999 SCT016 SCT033"
    },
    {
      "icao": "LPPR",
      "alert": "OK",
      "vis_m": 9999,
      "fzfg": false,
      "metar_trigger": false,
      "taf_trigger": false,
      "metar": "METAR LPPR 121930Z 21005KT 190V260 CAVOK 20/16 Q1014",
      "taf": "TAF LPPR 121700Z 1218/1318 20010KT 9999 SCT015"
    },
    {
      "icao": "LPPS",
      "alert": "OK",
      "vis_m": 9999,
      "fzfg": false,
      "metar_trigger": false,
      "taf_trigger": false,
      "metar": "METAR LPPS 121930Z 31007KT 9999 FEW015 23/18 Q1017",
      "taf": "TAF LPPS 121700Z 1218/1324 31010KT 9999 SCT015"
    },
    {
      "icao": "LPPT",
      "alert": "OK",
      "vis_m": 9999,
      "fzfg": false,
      "metar_trigger": false,
      "taf_trigger": false,
      "metar": "METAR LPPT 121930Z 24008KT 9999 FEW030 22/14 Q1015 NOSIG",
      "taf": "TAF LPPT 121700Z 1218/1324 23012KT 9999 SCT020"
    },
    {
      "icao": "LQBK",
      "alert": "OK",
      "vis_m": 9999,
      "fzfg": false,
      "metar_trigger": false,
      "taf_trigger": false,
      "metar": "METAR LQBK 121930Z 29003KT CAVOK 21/13 Q1018 NOSIG",
      "taf": "TAF LQBK 121700Z 1218/1318 29006KT CAVOK TX33/1314Z TN16/1304Z"
    },
    {
      "icao": "LQSA",
      "alert": "OK",
      "vis_m": 9999,
      "fzfg": false,
      "metar_trigger": false,
      "taf_trigger": false,
      "metar": "METAR LQSA 121930Z 13003KT CAVOK 18/17 Q1020 NOSIG",
      "taf": "TAF LQSA 121700Z 1218/1318 VRB02KT CAVOK TX27/1313Z TN15/1303Z"
    },
    {
      "icao": "LQTZ",
      "alert": "OK",
      "vis_m": 9999,
      "fzfg": false,
      "metar_trigger": false,
      "taf_trigger": false,
      "metar": "METAR LQTZ 121930Z 00000KT CAVOK 19/15 Q1018",
      "taf": "TAF LQTZ 121700Z 1218/1318 03006KT 9999 SCT045 TX29/1314Z TN14/1303Z"
    },
    {
      "icao": "LRBC",
      "alert": "OK",
      "vis_m": 9999,
      "fzfg": false,
      "metar_trigger": false,
      "taf_trigger": false,
      "metar": "METAR LRBC 121930Z COR VRB01KT 9999 RA FEW022 SCT065 18/17 Q1015",
      "taf": "TAF LRBC 121700Z 1218/1303 VRB04KT 9999 SCT040"
    },
    {
      "icao": "LRBS",
      "alert": "OK",
      "vis_m": 9999,
      "fzfg": false,
      "metar_trigger": false,
      "taf_trigger": false,
      "metar": "METAR LRBS 121930Z 35006KT 270V040 CAVOK 22/14 Q1014 NOSIG",
      "taf": "TAF LRBS 121700Z 1218/1318 VRB04KT 9999 SCT045"
    },
    {
      "icao": "LRBV",
      "alert": "OK",
      "vis_m": 9999,
      "fzfg": false,
      "metar_trigger": false,
      "taf_trigger": false,
      "metar": "METAR LRBV 121930Z COR VRB03KT 9999 -TSRA FEW028 SCT040 BKN060 16/15 Q1018",
      "taf": "TAF LRBV 121700Z 1218/1303 20006KT 9999 SCT015 SCT040"
    },
    {
      "icao": "LRCL",
      "alert": "OK",
      "vis_m": 9999,
      "fzfg": false,
      "metar_trigger": false,
      "taf_trigger": false,
      "metar": "METAR LRCL 121930Z 27003KT 220V320 CAVOK 17/12 Q1017",
      "taf": "TAF LRCL 121700Z 1218/1303 27006KT 9999 FEW040"
    },
    {
      "icao": "LRCV",
      "alert": "OK",
      "vis_m": 9999,
      "fzfg": false,
      "metar_trigger": false,
      "taf_trigger": false,
      "metar": "METAR LRCV 121930Z 26008KT CAVOK 21/18 Q1015",
      "taf": "TAF LRCV 121700Z 1218/1303 30010KT CAVOK"
    },
    {
      "icao": "LRIA",
      "alert": "OK",
      "vis_m": 9999,
      "fzfg": false,
      "metar_trigger": false,
      "taf_trigger": false,
      "metar": "METAR LRIA 121930Z 27003KT CAVOK 18/15 Q1014",
      "taf": "TAF LRIA 121700Z 1218/1303 VRB04KT 9999 SCT040"
    },
    {
      "icao": "LROP",
      "alert": "OK",
      "vis_m": 9999,
      "fzfg": false,
      "metar_trigger": false,
      "taf_trigger": false,
      "metar": "METAR LROP 121930Z 01008KT CAVOK 22/14 Q1014 NOSIG",
      "taf": "TAF LROP 121700Z 1218/1318 VRB04KT 9999 SCT045"
    },
    {
      "icao": "LRSB",
      "alert": "OK",
      "vis_m": 9999,
      "fzfg": false,
      "metar_trigger": false,
      "taf_trigger": false,
      "metar": "METAR LRSB 121930Z 15002KT CAVOK 17/12 Q1017",
      "taf": "TAF LRSB 121700Z 1218/1318 30012KT 9999 SCT045"
    },
    {
      "icao": "LRSM",
      "alert": "OK",
      "vis_m": 9999,
      "fzfg": false,
      "metar_trigger": false,
      "taf_trigger": false,
      "metar": "METAR LRSM 121930Z AUTO 19003KT 9999 FEW100/// 15/12 Q1016",
      "taf": ""
    },
    {
      "icao": "LRSV",
      "alert": "OK",
      "vis_m": 9999,
      "fzfg": false,
      "metar_trigger": false,
      "taf_trigger": false,
      "metar": "METAR LRSV 121930Z 31006KT 9999 SCT045CB 15/14 Q1016",
      "taf": "TAF LRSV 121700Z 1218/1303 24010KT 9999 SCT045"
    },
    {
      "icao": "LRTM",
      "alert": "OK",
      "vis_m": 9999,
      "fzfg": false,
      "metar_trigger": false,
      "taf_trigger": false,
      "metar": "METAR LRTM 121930Z VRB02KT CAVOK 15/15 Q1017",
      "taf": "TAF LRTM 121700Z 1218/1303 VRB04KT 9999 SCT040"
    },
    {
      "icao": "LRTR",
      "alert": "OK",
      "vis_m": 9999,
      "fzfg": false,
      "metar_trigger": false,
      "taf_trigger": false,
      "metar": "METAR LRTR 121930Z 20003KT CAVOK 22/10 Q1015",
      "taf": "TAF LRTR 121700Z 1218/1318 34008KT CAVOK"
    },
    {
      "icao": "LTAC",
      "alert": "OK",
      "vis_m": 9999,
      "fzfg": false,
      "metar_trigger": false,
      "taf_trigger": false,
      "metar": "METAR LTAC 121920Z 05010KT CAVOK 23/11 Q1015 NOSIG RMK RWY21C 04010KT RWY03L 04008KT RWY21R 03010KT RWY03R 02009KT RWY21L 03007KT",
      "taf": "TAF LTAC 121640Z 1218/1318 VRB02KT CAVOK"
    },
    {
      "icao": "LTFM",
      "alert": "OK",
      "vis_m": 9999,
      "fzfg": false,
      "metar_trigger": false,
      "taf_trigger": false,
      "metar": "METAR LTFM 121920Z 10009KT CAVOK 23/17 Q1013 NOSIG RMK RWY17L 09011KT RWY34L 09012KT RWY16R 09012KT RWY36 09010KT RWY18 09012KT",
      "taf": "TAF LTFM 121640Z 1218/1324 07012KT CAVOK"
    },
    {
      "icao": "LUKK",
      "alert": "OK",
      "vis_m": 9999,
      "fzfg": false,
      "metar_trigger": false,
      "taf_trigger": false,
      "metar": "METAR LUKK 121930Z 02003KT CAVOK 19/12 Q1014 NOSIG",
      "taf": "TAF LUKK 121703Z 1218/1318 VRB05KT CAVOK"
    },
    {
      "icao": "LWOH",
      "alert": "OK",
      "vis_m": 9999,
      "fzfg": false,
      "metar_trigger": false,
      "taf_trigger": false,
      "metar": "METAR LWOH 121920Z 07003KT 9999 FEW040 21/13 Q1017",
      "taf": "TAF LWOH 121725Z 1218/1318 32006KT 9999 FEW040"
    },
    {
      "icao": "LWSK",
      "alert": "OK",
      "vis_m": 9999,
      "fzfg": false,
      "metar_trigger": false,
      "taf_trigger": false,
      "metar": "METAR LWSK 121920Z 22004KT 180V280 9999 FEW050 SCT100 21/19 Q1016 NOSIG",
      "taf": "TAF LWSK 121725Z 1218/1318 VRB03KT 9999 FEW040"
    },
    {
      "icao": "LYBE",
      "alert": "OK",
      "vis_m": 9999,
      "fzfg": false,
      "metar_trigger": false,
      "taf_trigger": false,
      "metar": "METAR LYBE 121930Z 30005KT CAVOK 21/13 Q1016 NOSIG",
      "taf": "TAF LYBE 121700Z 1218/1318 26006KT CAVOK TX29/1314Z TN16/1303Z"
    },
    {
      "icao": "LYNI",
      "alert": "OK",
      "vis_m": 9999,
      "fzfg": false,
      "metar_trigger": false,
      "taf_trigger": false,
      "metar": "METAR LYNI 121930Z 35003KT 300V030 9999 FEW037 22/18 Q1017 NOSIG",
      "taf": "TAF LYNI 121700Z 1218/1318 33006KT CAVOK TX28/1314Z TN15/1303Z"
    },
    {
      "icao": "LYPG",
      "alert": "OK",
      "vis_m": 9999,
      "fzfg": false,
      "metar_trigger": false,
      "taf_trigger": false,
      "metar": "METAR LYPG 121930Z 36008KT 330V030 9999 FEW050 28/15 Q1014 NOSIG",
      "taf": "TAF LYPG 121700Z 1218/1318 34010KT 9999 FEW060 TX34/1314Z TN24/1303Z"
    },
    {
      "icao": "LZIB",
      "alert": "OK",
      "vis_m": 9999,
      "fzfg": false,
      "metar_trigger": false,
      "taf_trigger": false,
      "metar": "METAR LZIB 121930Z 31006KT CAVOK 22/16 Q1018 NOSIG",
      "taf": "TAF LZIB 121715Z 1218/1318 32012KT CAVOK"
    },
    {
      "icao": "LZKZ",
      "alert": "OK",
      "vis_m": 9999,
      "fzfg": false,
      "metar_trigger": false,
      "taf_trigger": false,
      "metar": "METAR LZKZ 121930Z 08003KT 040V100 CAVOK 16/15 Q1017 NOSIG",
      "taf": "TAF LZKZ 121715Z 1218/1318 VRB02KT CAVOK"
    },
    {
      "icao": "LZTT",
      "alert": "OK",
      "vis_m": 9999,
      "fzfg": false,
      "metar_trigger": false,
      "taf_trigger": false,
      "metar": "METAR LZTT 121930Z VRB01KT 9999 -SHRA BKN007 BKN033 14/14 Q1018",
      "taf": ""
    },
    {
      "icao": "OEJN",
      "alert": "OK",
      "vis_m": 9999,
      "fzfg": false,
      "metar_trigger": false,
      "taf_trigger": false,
      "metar": "METAR OEJN 121900Z 35002KT CAVOK 33/17 Q1005 NOSIG",
      "taf": "TAF OEJN 121700Z 1218/1324 36005KT CAVOK"
    },
    {
      "icao": "OEMA",
      "alert": "OK",
      "vis_m": 9999,
      "fzfg": false,
      "metar_trigger": false,
      "taf_trigger": false,
      "metar": "METAR OEMA 121900Z 25011KT CAVOK 41/06 Q1008 NOSIG",
      "taf": "TAF OEMA 121700Z 1218/1324 28008KT CAVOK"
    },
    {
      "icao": "OJAI",
      "alert": "OK",
      "vis_m": 5000,
      "fzfg": false,
      "metar_trigger": false,
      "taf_trigger": false,
      "metar": "METAR OJAI 121900Z 26005KT 5000 HZ NSC 24/15 Q1013 NOSIG",
      "taf": "TAF OJAI 121700Z 1218/1324 30010KT 5000 HZ NSC"
    },
    {
      "icao": "OMAA",
      "alert": "OK",
      "vis_m": 9999,
      "fzfg": false,
      "metar_trigger": false,
      "taf_trigger": false,
      "metar": "METAR OMAA 121930Z 23003KT CAVOK 34/25 Q0997 NOSIG",
      "taf": "TAF OMAA 121700Z 1218/1400 20005KT 8000 NSC"
    },
    {
      "icao": "OMDB",
      "alert": "OK",
      "vis_m": 9999,
      "fzfg": false,
      "metar_trigger": false,
      "taf_trigger": false,
      "metar": "METAR OMDB 121930Z 26008KT CAVOK 34/27 Q0997 NOSIG",
      "taf": "TAF OMDB 121700Z 1218/1400 18005KT 8000 NSC"
    },
    {
      "icao": "UAAA",
      "alert": "OK",
      "vis_m": 9999,
      "fzfg": false,
      "metar_trigger": false,
      "taf_trigger": false,
      "metar": "METAR UAAA 121930Z 19002MPS 9999 FEW100 22/11 Q1005 NOSIG",
      "taf": "TAF UAAA 121703Z 1218/1318 19002MPS 9999 SCT050CB BKN100 TX32/1310Z TN21/1301Z"
    },
    {
      "icao": "UBBB",
      "alert": "OK",
      "vis_m": 9999,
      "fzfg": false,
      "metar_trigger": false,
      "taf_trigger": false,
      "metar": "METAR UBBB 121930Z 32010KT CAVOK 25/23 Q1010 NOSIG",
      "taf": "TAF UBBB 121713Z 1218/1318 32012KT CAVOK TX31/1310Z TN22/1301Z"
    },
    {
      "icao": "UDSG",
      "alert": "OK",
      "vis_m": 9999,
      "fzfg": false,
      "metar_trigger": false,
      "taf_trigger": false,
      "metar": "METAR UDSG 121930Z 04009G20KT 320V100 9999 FEW049 20/15 Q1018 NOSIG",
      "taf": "TAF UDSG 121700Z 1218/1318 VRB06KT 9999 FEW050"
    },
    {
      "icao": "UDYZ",
      "alert": "OK",
      "vis_m": 9999,
      "fzfg": false,
      "metar_trigger": false,
      "taf_trigger": false,
      "metar": "METAR UDYZ 121930Z 36016KT 9999 FEW046 27/15 Q1012 NOSIG",
      "taf": "TAF UDYZ 121700Z 1218/1318 07006KT 9999 FEW040"
    },
    {
      "icao": "UGKO",
      "alert": "OK",
      "vis_m": 9999,
      "fzfg": false,
      "metar_trigger": false,
      "taf_trigger": false,
      "metar": "METAR UGKO 121930Z 13002KT 9999 SCT030 BKN039 22/19 Q1014 NOSIG",
      "taf": "TAF UGKO 121700Z 1218/1318 26007KT 9999 SCT020 BKN050 TX28/1311Z TN21/1302Z"
    }
  ]
}