{
  "ts_utc": "2025-12-29T04:56:24Z",
  "threshold_m": 150,
  "source": "stations_override.txt (ICAO list) + aviationweather.gov (METAR/TAF raw)",
  "station_count": 159,
  "stations": [
    {
      "icao": "BIKF",
      "alert": "OK",
      "vis_m": 9999,
      "fzfg": false,
      "metar_trigger": false,
      "taf_trigger": false,
      "metar": "METAR BIKF 290430Z 35005KT 9999 FEW037 BKN330 03/03 Q1038",
      "taf": "TAF BIKF 290102Z 2903/3003 25004KT 8000 -DZ SCT007 BKN015 TX05/2903Z TN02/2921Z"
    },
    {
      "icao": "BKPR",
      "alert": "OK",
      "vis_m": null,
      "fzfg": false,
      "metar_trigger": false,
      "taf_trigger": false,
      "metar": "",
      "taf": "TAF BKPR 282330Z 2900/2924 35008KT CAVOK"
    },
    {
      "icao": "EBCI",
      "alert": "OK",
      "vis_m": 800,
      "fzfg": true,
      "metar_trigger": false,
      "taf_trigger": false,
      "metar": "METAR EBCI 290450Z 05004KT 0800 R24/0550U FZFG OVC001 M04/M04 Q1025 TEMPO 0100 FZFG",
      "taf": "TAF EBCI 282301Z 2900/3006 04004KT 8000 NSC"
    },
    {
      "icao": "EDDB",
      "alert": "OK",
      "vis_m": 9999,
      "fzfg": false,
      "metar_trigger": false,
      "taf_trigger": false,
      "metar": "METAR EDDB 290450Z AUTO 28010KT 9999 BKN007 BKN011 OVC018 01/01 Q1019 TEMPO 2000 -FZDZ",
      "taf": ""
    },
    {
      "icao": "EDDH",
      "alert": "OK",
      "vis_m": 9999,
      "fzfg": false,
      "metar_trigger": false,
      "taf_trigger": false,
      "metar": "METAR EDDH 290450Z AUTO 28007KT 9999 OVC026 05/03 Q1021 NOSIG",
      "taf": "TAF EDDH 282300Z 2900/3006 30010KT 9999 BKN020"
    },
    {
      "icao": "EDDK",
      "alert": "OK",
      "vis_m": 9999,
      "fzfg": false,
      "metar_trigger": false,
      "taf_trigger": false,
      "metar": "METAR EDDK 290450Z AUTO VRB02KT 9999 BKN004 BKN010 M07/M09 Q1026 TEMPO 4000 BR",
      "taf": "TAF EDDK 282300Z 2900/3006 VRB02KT CAVOK"
    },
    {
      "icao": "EDDN",
      "alert": "OK",
      "vis_m": 9999,
      "fzfg": false,
      "metar_trigger": false,
      "taf_trigger": false,
      "metar": "METAR EDDN 290450Z AUTO 10004KT 040V110 CAVOK M09/M11 Q1022",
      "taf": "TAF EDDN 282300Z 2900/2924 VRB03KT CAVOK"
    },
    {
      "icao": "EDDS",
      "alert": "OK",
      "vis_m": 7000,
      "fzfg": false,
      "metar_trigger": false,
      "taf_trigger": false,
      "metar": "METAR EDDS 290450Z AUTO 12001KT 7000 NCD M08/M09 Q1022",
      "taf": "TAF EDDS 282300Z 2900/2924 VRB03KT CAVOK"
    },
    {
      "icao": "EDFH",
      "alert": "OK",
      "vis_m": 9999,
      "fzfg": false,
      "metar_trigger": false,
      "taf_trigger": false,
      "metar": "METAR EDFH 290450Z 04005KT CAVOK M04/M09 Q1022",
      "taf": "TAF EDFH 282300Z 2900/2924 07007KT CAVOK"
    },
    {
      "icao": "EDJA",
      "alert": "OK",
      "vis_m": 750,
      "fzfg": true,
      "metar_trigger": false,
      "taf_trigger": false,
      "metar": "METAR EDJA 290450Z 25003KT 220V290 0750 R06/P2000N FZFG VV/// M05/M06 Q1022",
      "taf": "TAF EDJA 290200Z 2903/2912 VRB02KT 0300 FZFG OVC001"
    },
    {
      "icao": "EDLW",
      "alert": "OK",
      "vis_m": 9999,
      "fzfg": false,
      "metar_trigger": false,
      "taf_trigger": false,
      "metar": "METAR EDLW 290450Z 16006KT 9999 OVC019 M02/M03 Q1025",
      "taf": "TAF EDLW 290425Z 2905/2924 16005KT 9999 OVC020"
    },
    {
      "icao": "EDNY",
      "alert": "OK",
      "vis_m": 9000,
      "fzfg": false,
      "metar_trigger": false,
      "taf_trigger": false,
      "metar": "METAR EDNY 290450Z AUTO 06004KT 9000 // OVC008/// M02/M03 Q1023",
      "taf": "TAF EDNY 290200Z 2903/2912 35003KT 9999 OVC008"
    },
    {
      "icao": "EDSB",
      "alert": "OK",
      "vis_m": 9999,
      "fzfg": false,
      "metar_trigger": false,
      "taf_trigger": false,
      "metar": "METAR EDSB 290450Z 15004KT CAVOK M04/M05 Q1024",
      "taf": "TAF EDSB 282300Z 2900/2924 VRB03KT CAVOK"
    },
    {
      "icao": "EETN",
      "alert": "OK",
      "vis_m": 9999,
      "fzfg": false,
      "metar_trigger": false,
      "taf_trigger": false,
      "metar": "METAR EETN 290450Z 33016KT 9999 SCT030 02/M04 Q0996 TEMPO 32018G32KT",
      "taf": "TAF EETN 282330Z 2900/2924 27010KT 9999 BKN020"
    },
    {
      "icao": "EFTU",
      "alert": "OK",
      "vis_m": 9999,
      "fzfg": false,
      "metar_trigger": false,
      "taf_trigger": false,
      "metar": "METAR EFTU 290450Z AUTO 35007KT 310V040 9999 -SHSN BKN025 M00/M03 Q0998",
      "taf": "TAF EFTU 290225Z 2903/3003 32012KT 9999 BKN040"
    },
    {
      "icao": "EGBB",
      "alert": "OK",
      "vis_m": 9999,
      "fzfg": false,
      "metar_trigger": false,
      "taf_trigger": false,
      "metar": "METAR EGBB 290450Z 06006KT 9999 OVC018 05/01 Q1030",
      "taf": "TAF EGBB 282259Z 2900/2924 07008KT 9999 BKN018"
    },
    {
      "icao": "EGGP",
      "alert": "OK",
      "vis_m": 9999,
      "fzfg": false,
      "metar_trigger": false,
      "taf_trigger": false,
      "metar": "METAR EGGP 290450Z AUTO 08005KT 9999 OVC020/// 04/01 Q1031",
      "taf": "TAF EGGP 282253Z 2900/2924 08005KT 9999 BKN020"
    },
    {
      "icao": "EGGW",
      "alert": "OK",
      "vis_m": 9999,
      "fzfg": false,
      "metar_trigger": false,
      "taf_trigger": false,
      "metar": "METAR EGGW 290450Z AUTO 05007KT 9999 OVC016 04/01 Q1028",
      "taf": "TAF EGGW 282252Z 2900/2924 03010KT 9999 SCT016"
    },
    {
      "icao": "EGKK",
      "alert": "OK",
      "vis_m": 9999,
      "fzfg": false,
      "metar_trigger": false,
      "taf_trigger": false,
      "metar": "METAR EGKK 290450Z 04004KT 320V080 9999 BKN023 03/02 Q1028",
      "taf": "TAF EGKK 282254Z 2900/3006 04007KT 9999 SCT018"
    },
    {
      "icao": "EGNM",
      "alert": "OK",
      "vis_m": 9999,
      "fzfg": false,
      "metar_trigger": false,
      "taf_trigger": false,
      "metar": "METAR EGNM 290450Z 04005KT 020V080 9999 OVC016 04/01 Q1030",
      "taf": "TAF EGNM 282255Z 2900/2924 03005KT 9999 BKN018"
    },
    {
      "icao": "EGPD",
      "alert": "OK",
      "vis_m": 9999,
      "fzfg": false,
      "metar_trigger": false,
      "taf_trigger": false,
      "metar": "METAR EGPD 290450Z COR AUTO 31009KT 9999 OVC025 05/01 Q1032 NOSIG",
      "taf": "TAF EGPD 282253Z 2900/2924 29005KT 9999 SCT018"
    },
    {
      "icao": "EGPF",
      "alert": "OK",
      "vis_m": 9999,
      "fzfg": false,
      "metar_trigger": false,
      "taf_trigger": false,
      "metar": "METAR EGPF 290450Z AUTO 04002KT 9999 OVC018 04/01 Q1033",
      "taf": "TAF EGPF 282254Z 2900/2924 08004KT 9999 BKN020"
    },
    {
      "icao": "EHBK",
      "alert": "OK",
      "vis_m": 7000,
      "fzfg": false,
      "metar_trigger": false,
      "taf_trigger": false,
      "metar": "METAR EHBK 290425Z AUTO 02004KT 7000 FEW012 M06/M06 Q1026",
      "taf": "TAF EHBK 282315Z 2900/3006 03005KT 4000 BR MIFG NSC"
    },
    {
      "icao": "EHEH",
      "alert": "OK",
      "vis_m": 450,
      "fzfg": true,
      "metar_trigger": false,
      "taf_trigger": false,
      "metar": "METAR EHEH 290425Z AUTO 02001KT 0450 FZFG OVC000 M02/M02 Q1027 RED",
      "taf": "TAF EHEH 282308Z 2900/3006 VRB02KT 0600 FZFG NSC"
    },
    {
      "icao": "EKBI",
      "alert": "OK",
      "vis_m": 9999,
      "fzfg": false,
      "metar_trigger": false,
      "taf_trigger": false,
      "metar": "METAR EKBI 290450Z AUTO 30008KT 9999 BKN019/// 06/03 Q1019",
      "taf": "TAF EKBI 290227Z 2903/3003 31012KT 9999 FEW025"
    },
    {
      "icao": "EKCH",
      "alert": "OK",
      "vis_m": 9999,
      "fzfg": false,
      "metar_trigger": false,
      "taf_trigger": false,
      "metar": "METAR EKCH 290450Z AUTO 29007KT 9999 NCD 03/01 Q1016 NOSIG",
      "taf": "TAF EKCH 290227Z 2903/3003 29010KT CAVOK"
    },
    {
      "icao": "ENAL",
      "alert": "OK",
      "vis_m": 9999,
      "fzfg": false,
      "metar_trigger": false,
      "taf_trigger": false,
      "metar": "METAR ENAL 290450Z 36015KT 310V020 9999 FEW017 SCT024 02/M02 Q1025",
      "taf": "TAF ENAL 290200Z 2903/2912 34015KT 9999 FEW020 BKN035"
    },
    {
      "icao": "ENBR",
      "alert": "OK",
      "vis_m": 9999,
      "fzfg": false,
      "metar_trigger": false,
      "taf_trigger": false,
      "metar": "METAR ENBR 290450Z 33010KT 9999 SCT053 03/M03 Q1024 RMK WIND 1200FT 34022G32KT",
      "taf": "TAF ENBR 282300Z 2900/2924 34012KT 9999 -SHRA FEW004 BKN020"
    },
    {
      "icao": "ENGM",
      "alert": "OK",
      "vis_m": 9999,
      "fzfg": false,
      "metar_trigger": false,
      "taf_trigger": false,
      "metar": "METAR ENGM 290450Z 34008G18KT 290V020 CAVOK 01/M10 Q1014 NOSIG",
      "taf": "TAF ENGM 282300Z 2900/2924 VRB03KT CAVOK"
    },
    {
      "icao": "ENHD",
      "alert": "OK",
      "vis_m": 9999,
      "fzfg": false,
      "metar_trigger": false,
      "taf_trigger": false,
      "metar": "METAR ENHD 290450Z AUTO 36026KT 9999 BKN041/// 06/M01 Q1023",
      "taf": "TAF ENHD 290200Z 2903/2912 34017KT 9999 FEW015 BKN022"
    },
    {
      "icao": "ENTC",
      "alert": "OK",
      "vis_m": 9999,
      "fzfg": false,
      "metar_trigger": false,
      "taf_trigger": false,
      "metar": "METAR ENTC 290450Z 15006KT 9999 -SHSN SCT015 BKN046 M04/M06 Q1002 RMK WIND 2600FT 35023KT",
      "taf": ""
    },
    {
      "icao": "ENTO",
      "alert": "OK",
      "vis_m": 9999,
      "fzfg": false,
      "metar_trigger": false,
      "taf_trigger": false,
      "metar": "METAR ENTO 290450Z 30005KT CAVOK 03/M05 Q1016",
      "taf": "TAF ENTO 282300Z 2900/2924 28005KT CAVOK"
    },
    {
      "icao": "ENVA",
      "alert": "OK",
      "vis_m": 8000,
      "fzfg": false,
      "metar_trigger": false,
      "taf_trigger": false,
      "metar": "METAR ENVA 290450Z 29012KT 8000 -SN SCT008 M03/M03 Q1017 RMK WIND 670FT 31017KT",
      "taf": ""
    },
    {
      "icao": "ENZV",
      "alert": "OK",
      "vis_m": 9999,
      "fzfg": false,
      "metar_trigger": false,
      "taf_trigger": false,
      "metar": "METAR ENZV 290450Z 34021KT CAVOK 05/M01 Q1023",
      "taf": "TAF ENZV 282300Z 2900/2924 35012KT 9999 SCT025"
    },
    {
      "icao": "EPGD",
      "alert": "OK",
      "vis_m": 9999,
      "fzfg": false,
      "metar_trigger": false,
      "taf_trigger": false,
      "metar": "METAR EPGD 290430Z 29015KT 9999 FEW014 02/M00 Q1009",
      "taf": "TAF EPGD 282330Z 2900/2924 29012KT 9999 BKN020"
    },
    {
      "icao": "EPKK",
      "alert": "OK",
      "vis_m": 9999,
      "fzfg": false,
      "metar_trigger": false,
      "taf_trigger": false,
      "metar": "METAR EPKK 290430Z 23007KT CAVOK M03/M06 Q1015",
      "taf": "TAF EPKK 290230Z 2903/3003 27014KT CAVOK"
    },
    {
      "icao": "EPKT",
      "alert": "OK",
      "vis_m": 9999,
      "fzfg": false,
      "metar_trigger": false,
      "taf_trigger": false,
      "metar": "METAR EPKT 290430Z 24012KT CAVOK M04/M07 Q1014",
      "taf": ""
    },
    {
      "icao": "EPLB",
      "alert": "OK",
      "vis_m": 9999,
      "fzfg": false,
      "metar_trigger": false,
      "taf_trigger": false,
      "metar": "METAR EPLB 290430Z 28013KT CAVOK M02/M03 Q1011",
      "taf": "TAF EPLB 282330Z 2900/2924 29014KT 9999 BKN030"
    },
    {
      "icao": "EPMO",
      "alert": "OK",
      "vis_m": 8000,
      "fzfg": false,
      "metar_trigger": false,
      "taf_trigger": false,
      "metar": "METAR EPMO 290430Z 26011KT 8000 -SN BKN008 M01/M02 Q1011",
      "taf": "TAF EPMO 282330Z 2900/2924 28011KT CAVOK"
    },
    {
      "icao": "EPPO",
      "alert": "OK",
      "vis_m": 4200,
      "fzfg": false,
      "metar_trigger": false,
      "taf_trigger": false,
      "metar": "METAR EPPO 290430Z 27011KT 4200 -SN BR BKN004 M00/M01 Q1015",
      "taf": ""
    },
    {
      "icao": "EPRA",
      "alert": "OK",
      "vis_m": 9999,
      "fzfg": false,
      "metar_trigger": false,
      "taf_trigger": false,
      "metar": "METAR EPRA 290430Z 29013KT 260V330 9999 OVC014 M02/M05 Q1012",
      "taf": "TAF EPRA 290230Z 2903/2912 29012KT 9999 OVC010"
    },
    {
      "icao": "EPRZ",
      "alert": "OK",
      "vis_m": 9999,
      "fzfg": false,
      "metar_trigger": false,
      "taf_trigger": false,
      "metar": "METAR EPRZ 290430Z 26017KT 9999 OVC020 M01/M05 Q1014",
      "taf": "TAF EPRZ 282330Z 2900/2924 28014KT 9999 BKN020"
    },
    {
      "icao": "EPSC",
      "alert": "OK",
      "vis_m": 9999,
      "fzfg": false,
      "metar_trigger": false,
      "taf_trigger": false,
      "metar": "METAR EPSC 290430Z 29009KT 9999 SCT014 BKN016 OVC019 03/01 Q1015",
      "taf": "TAF EPSC 282330Z 2900/2924 24008KT 9999 BKN012"
    },
    {
      "icao": "EPSY",
      "alert": "OK",
      "vis_m": 9999,
      "fzfg": false,
      "metar_trigger": false,
      "taf_trigger": false,
      "metar": "METAR EPSY 290430Z 27009KT 9999 OVC033 M00/M02 Q1009",
      "taf": "TAF EPSY 290230Z 2903/2912 25008KT 9999 BKN030"
    },
    {
      "icao": "EPWA",
      "alert": "OK",
      "vis_m": 9999,
      "fzfg": false,
      "metar_trigger": false,
      "taf_trigger": false,
      "metar": "METAR EPWA 290430Z 27011KT 9999 -SN BKN008 M01/M02 Q1011 NOSIG",
      "taf": ""
    },
    {
      "icao": "EPWR",
      "alert": "OK",
      "vis_m": 9999,
      "fzfg": false,
      "metar_trigger": false,
      "taf_trigger": false,
      "metar": "METAR EPWR 290430Z 32016KT 9999 -SN OVC008 M01/M02 Q1018",
      "taf": ""
    },
    {
      "icao": "ESGG",
      "alert": "OK",
      "vis_m": 9999,
      "fzfg": false,
      "metar_trigger": false,
      "taf_trigger": false,
      "metar": "METAR ESGG 290450Z 34005KT CAVOK 01/M00 Q1014",
      "taf": "TAF ESGG 290230Z 2903/3003 26004KT CAVOK"
    },
    {
      "icao": "ESKN",
      "alert": "OK",
      "vis_m": 9999,
      "fzfg": false,
      "metar_trigger": false,
      "taf_trigger": false,
      "metar": "METAR ESKN 290450Z 31014KT CAVOK 01/M05 Q1009",
      "taf": "TAF ESKN 290230Z 2903/3003 28013KT CAVOK"
    },
    {
      "icao": "ESMS",
      "alert": "OK",
      "vis_m": 9999,
      "fzfg": false,
      "metar_trigger": false,
      "taf_trigger": false,
      "metar": "METAR ESMS 290450Z 31008KT CAVOK 01/M01 Q1015",
      "taf": "TAF ESMS 290227Z 2903/3003 32010KT 9999 BKN007"
    },
    {
      "icao": "ESSA",
      "alert": "OK",
      "vis_m": 9999,
      "fzfg": false,
      "metar_trigger": false,
      "taf_trigger": false,
      "metar": "METAR ESSA 290450Z 33018KT 9999 -SG NSC 01/M07 Q1007 TEMPO 4000 SHSN SCT030TCU",
      "taf": "TAF ESSA 290230Z 2903/3003 29008KT 9999 SCT040"
    },
    {
      "icao": "EYKA",
      "alert": "OK",
      "vis_m": 9999,
      "fzfg": false,
      "metar_trigger": false,
      "taf_trigger": false,
      "metar": "METAR EYKA 290450Z 27011KT 9999 FEW027 OVC033 01/M01 Q1004",
      "taf": ""
    },
    {
      "icao": "EYPA",
      "alert": "OK",
      "vis_m": 9999,
      "fzfg": false,
      "metar_trigger": false,
      "taf_trigger": false,
      "metar": "METAR EYPA 290450Z 32006KT 260V040 9999 OVC023 05/01 Q1005",
      "taf": ""
    },
    {
      "icao": "EYVI",
      "alert": "OK",
      "vis_m": 9999,
      "fzfg": false,
      "metar_trigger": false,
      "taf_trigger": false,
      "metar": "METAR EYVI 290450Z 28011KT 9999 BKN012 OVC032 00/M02 Q1003 NOSIG",
      "taf": ""
    },
    {
      "icao": "GCFV",
      "alert": "OK",
      "vis_m": 9999,
      "fzfg": false,
      "metar_trigger": false,
      "taf_trigger": false,
      "metar": "METAR GCFV 290430Z AUTO 28005KT CAVOK 14/10 Q1019",
      "taf": "TAF GCFV 290200Z 2903/3003 31005KT 9999 FEW030 TX21/2914Z TN14/2906Z"
    },
    {
      "icao": "GCLP",
      "alert": "OK",
      "vis_m": 9999,
      "fzfg": false,
      "metar_trigger": false,
      "taf_trigger": false,
      "metar": "METAR GCLP 290430Z 30004KT 9999 FEW040 17/12 Q1019 NOSIG",
      "taf": "TAF GCLP 290200Z 2903/3003 31005KT 9999 SCT030 TX21/2914Z TN15/2906Z"
    },
    {
      "icao": "GCTS",
      "alert": "OK",
      "vis_m": 9999,
      "fzfg": false,
      "metar_trigger": false,
      "taf_trigger": false,
      "metar": "METAR GCTS 290430Z 02006KT 9999 FEW030 15/11 Q1020 NOSIG",
      "taf": "TAF GCTS 290200Z 2903/3003 01005KT 9999 SCT035 TX23/2914Z TN16/2906Z"
    },
    {
      "icao": "GMAD",
      "alert": "OK",
      "vis_m": 9999,
      "fzfg": false,
      "metar_trigger": false,
      "taf_trigger": false,
      "metar": "METAR GMAD 290430Z 03004KT 9999 FEW020 SCT200 09/09 Q1018 NOSIG",
      "taf": "TAF GMAD 282300Z 2900/3006 26008KT 8000 SCT020 SCT080"
    },
    {
      "icao": "GMMN",
      "alert": "OK",
      "vis_m": 8000,
      "fzfg": false,
      "metar_trigger": false,
      "taf_trigger": false,
      "metar": "METAR GMMN 290430Z 22006KT 8000 SCT008 BKN020 11/09 Q1017 TEMPO 5000 RA",
      "taf": "TAF GMMN 282300Z 2900/3006 24012KT 9999 SCT016 SCT023"
    },
    {
      "icao": "GMMX",
      "alert": "OK",
      "vis_m": 8000,
      "fzfg": false,
      "metar_trigger": false,
      "taf_trigger": false,
      "metar": "METAR GMMX 290430Z 20006KT 8000 FEW026 SCT100 10/08 Q1018 NOSIG",
      "taf": "TAF GMMX 282300Z 2900/3006 22006KT 8000 SCT023 SCT090"
    },
    {
      "icao": "HEGN",
      "alert": "OK",
      "vis_m": null,
      "fzfg": false,
      "metar_trigger": false,
      "taf_trigger": false,
      "metar": "",
      "taf": ""
    },
    {
      "icao": "HEMA",
      "alert": "OK",
      "vis_m": null,
      "fzfg": false,
      "metar_trigger": false,
      "taf_trigger": false,
      "metar": "",
      "taf": ""
    },
    {
      "icao": "HESH",
      "alert": "OK",
      "vis_m": null,
      "fzfg": false,
      "metar_trigger": false,
      "taf_trigger": false,
      "metar": "",
      "taf": ""
    },
    {
      "icao": "HESX",
      "alert": "OK",
      "vis_m": null,
      "fzfg": false,
      "metar_trigger": false,
      "taf_trigger": false,
      "metar": "",
      "taf": ""
    },
    {
      "icao": "LATI",
      "alert": "OK",
      "vis_m": 9999,
      "fzfg": false,
      "metar_trigger": false,
      "taf_trigger": false,
      "metar": "METAR LATI 290450Z VRB02KT CAVOK M02/M04 Q1019 NOSIG",
      "taf": "TAF LATI 282300Z 2900/2924 VRB05KT CAVOK TX14/2912Z TNM02/2905Z"
    },
    {
      "icao": "LBPD",
      "alert": "OK",
      "vis_m": 9999,
      "fzfg": false,
      "metar_trigger": false,
      "taf_trigger": false,
      "metar": "METAR LBPD 290430Z AUTO 30020KT 9999 NCD 02/M06 Q1015 NOSIG",
      "taf": "TAF LBPD 282300Z 2900/2924 28020G32KT 9999 SCT050"
    },
    {
      "icao": "LBSF",
      "alert": "OK",
      "vis_m": 9999,
      "fzfg": false,
      "metar_trigger": false,
      "taf_trigger": false,
      "metar": "METAR LBSF 290430Z 28018KT 9999 SCT025 M02/M06 Q1018 NOSIG",
      "taf": "TAF LBSF 282300Z 2900/2924 29018G30KT 9999 SCT025"
    },
    {
      "icao": "LBWN",
      "alert": "OK",
      "vis_m": 9999,
      "fzfg": false,
      "metar_trigger": false,
      "taf_trigger": false,
      "metar": "METAR LBWN 290430Z AUTO 26008KT 9999 NCD M01/M04 Q1013 NOSIG",
      "taf": "TAF LBWN 282300Z 2900/2924 28018KT 9999 SCT045"
    },
    {
      "icao": "LCLK",
      "alert": "OK",
      "vis_m": 9999,
      "fzfg": false,
      "metar_trigger": false,
      "taf_trigger": false,
      "metar": "METAR LCLK 290430Z 31006KT 9999 FEW025 SCT035 13/08 Q1007 NOSIG",
      "taf": "TAF LCLK 282330Z 2900/3000 24012KT 9999 FEW030 SCT060"
    },
    {
      "icao": "LCPH",
      "alert": "OK",
      "vis_m": 9999,
      "fzfg": false,
      "metar_trigger": false,
      "taf_trigger": false,
      "metar": "METAR LCPH 290430Z 35007KT 9999 FEW030 SCT045 14/07 Q1007 NOSIG",
      "taf": "TAF LCPH 282330Z 2900/3000 29025KT 9999 FEW030 SCT060"
    },
    {
      "icao": "LEAL",
      "alert": "OK",
      "vis_m": 9999,
      "fzfg": false,
      "metar_trigger": false,
      "taf_trigger": false,
      "metar": "METAR LEAL 290430Z 36003KT 9999 FEW020TCU BKN030 12/09 Q1017 NOSIG",
      "taf": "TAF LEAL 282300Z 2900/2924 02006KT 9999 FEW015 SCT025 TX16/2913Z TN08/2906Z"
    },
    {
      "icao": "LEBB",
      "alert": "OK",
      "vis_m": 9999,
      "fzfg": false,
      "metar_trigger": false,
      "taf_trigger": false,
      "metar": "METAR LEBB 290430Z 06005KT CAVOK 06/05 Q1019 NOSIG",
      "taf": "TAF LEBB 282300Z 2900/2924 11008KT 9999 FEW040 TX15/2914Z TN04/2908Z"
    },
    {
      "icao": "LEBL",
      "alert": "OK",
      "vis_m": 9999,
      "fzfg": false,
      "metar_trigger": false,
      "taf_trigger": false,
      "metar": "METAR LEBL 290430Z 33004KT 9999 VCSH FEW020TCU SCT025 11/09 Q1019 TEMPO 3000 SHRA",
      "taf": "TAF LEBL 282300Z 2900/2924 06007KT 9999 FEW015 TX15/2912Z TN08/2907Z"
    },
    {
      "icao": "LECH",
      "alert": "OK",
      "vis_m": 9000,
      "fzfg": false,
      "metar_trigger": false,
      "taf_trigger": false,
      "metar": "METAR LECH 290430Z AUTO VRB02KT 9000 BKN045 BKN050 08/07 Q1018",
      "taf": ""
    },
    {
      "icao": "LEMD",
      "alert": "OK",
      "vis_m": 9999,
      "fzfg": false,
      "metar_trigger": false,
      "taf_trigger": false,
      "metar": "METAR LEMD 290430Z 35003KT 9999 BKN040 07/04 Q1018 NOSIG",
      "taf": "TAF LEMD 282300Z 2900/3006 VRB04KT 9999 SCT040 TX11/2915Z TNM01/3006Z"
    },
    {
      "icao": "LEMG",
      "alert": "OK",
      "vis_m": 9999,
      "fzfg": false,
      "metar_trigger": false,
      "taf_trigger": false,
      "metar": "METAR LEMG 290430Z 29009KT 9999 FEW030 07/07 Q1016 NOSIG",
      "taf": "TAF LEMG 282300Z 2900/2924 29006KT 9999 FEW025 SCT040 TX16/2914Z TN09/2906Z"
    },
    {
      "icao": "LEVC",
      "alert": "OK",
      "vis_m": 9999,
      "fzfg": false,
      "metar_trigger": false,
      "taf_trigger": false,
      "metar": "METAR LEVC 290430Z 32005KT CAVOK 08/06 Q1018 NOSIG",
      "taf": "TAF LEVC 282300Z 2900/2924 32010KT 7000 FEW015 BKN040 TX15/2913Z TN06/2906Z"
    },
    {
      "icao": "LEXJ",
      "alert": "OK",
      "vis_m": 9999,
      "fzfg": false,
      "metar_trigger": false,
      "taf_trigger": false,
      "metar": "METAR LEXJ 290430Z VRB02KT CAVOK 04/04 Q1019",
      "taf": "TAF LEXJ 290200Z 2903/3003 22009KT CAVOK TX17/2913Z TN04/2906Z"
    },
    {
      "icao": "LEZG",
      "alert": "OK",
      "vis_m": 6000,
      "fzfg": false,
      "metar_trigger": false,
      "taf_trigger": false,
      "metar": "METAR LEZG 290430Z 25003KT 220V280 6000 FEW040 SCT060 06/06 Q1020 NOSIG",
      "taf": "TAF LEZG 282300Z 2900/2924 28005KT 9999 FEW060 TX12/2914Z TN06/2906Z"
    },
    {
      "icao": "LEZL",
      "alert": "OK",
      "vis_m": 9999,
      "fzfg": false,
      "metar_trigger": false,
      "taf_trigger": false,
      "metar": "METAR LEZL 290430Z 03004KT CAVOK 07/07 Q1016 NOSIG",
      "taf": "TAF LEZL 290200Z 2903/3003 03006KT CAVOK TX16/2915Z TN05/2906Z"
    },
    {
      "icao": "LFBD",
      "alert": "OK",
      "vis_m": 7000,
      "fzfg": false,
      "metar_trigger": false,
      "taf_trigger": false,
      "metar": "METAR LFBD 290430Z AUTO 05004KT 7000 NSC 00/M01 Q1021",
      "taf": ""
    },
    {
      "icao": "LFLL",
      "alert": "OK",
      "vis_m": 6000,
      "fzfg": false,
      "metar_trigger": false,
      "taf_trigger": false,
      "metar": "METAR LFLL 290430Z 07003KT 6000 OVC008 00/M01 Q1023 NOSIG",
      "taf": "TAF LFLL 282300Z 2900/3006 VRB03KT 7000 OVC007"
    },
    {
      "icao": "LFLS",
      "alert": "OK",
      "vis_m": 5000,
      "fzfg": false,
      "metar_trigger": false,
      "taf_trigger": false,
      "metar": "METAR LFLS 290430Z AUTO 09011KT 5000 BR OVC005 M02/M03 Q1022",
      "taf": ""
    },
    {
      "icao": "LFMN",
      "alert": "OK",
      "vis_m": 9999,
      "fzfg": false,
      "metar_trigger": false,
      "taf_trigger": false,
      "metar": "METAR LFMN 290430Z 33015KT CAVOK 06/M03 Q1020 NOSIG",
      "taf": "TAF LFMN 290200Z 2903/3009 33012KT CAVOK"
    },
    {
      "icao": "LFOB",
      "alert": "OK",
      "vis_m": 8000,
      "fzfg": false,
      "metar_trigger": false,
      "taf_trigger": false,
      "metar": "METAR LFOB 290430Z AUTO 02004KT 8000 NSC M04/M05 Q1025",
      "taf": ""
    },
    {
      "icao": "LFPO",
      "alert": "OK",
      "vis_m": 8000,
      "fzfg": false,
      "metar_trigger": false,
      "taf_trigger": false,
      "metar": "METAR LFPO 290430Z 02006KT 8000 NSC M02/M03 Q1024 NOSIG",
      "taf": "TAF LFPO 282300Z 2900/3006 01004KT CAVOK"
    },
    {
      "icao": "LFSB",
      "alert": "OK",
      "vis_m": 6000,
      "fzfg": true,
      "metar_trigger": false,
      "taf_trigger": false,
      "metar": "METAR LFSB 290430Z AUTO 00000KT 6000 SCT016 M05/M06 Q1023 TEMPO 0300 FZFG VV///",
      "taf": ""
    },
    {
      "icao": "LGAV",
      "alert": "OK",
      "vis_m": 9999,
      "fzfg": false,
      "metar_trigger": false,
      "taf_trigger": false,
      "metar": "METAR LGAV 290450Z 35003KT 9999 FEW025 06/M01 Q1018 NOSIG",
      "taf": "TAF LGAV 282300Z 2900/2924 34012KT 9999 FEW020"
    },
    {
      "icao": "LGTS",
      "alert": "OK",
      "vis_m": 9999,
      "fzfg": false,
      "metar_trigger": false,
      "taf_trigger": false,
      "metar": "METAR LGTS 290450Z 28014KT CAVOK 06/M02 Q1018 NOSIG",
      "taf": "TAF LGTS 282300Z 2900/2924 33015G25KT 9999 FEW030"
    },
    {
      "icao": "LHBP",
      "alert": "OK",
      "vis_m": 9999,
      "fzfg": false,
      "metar_trigger": false,
      "taf_trigger": false,
      "metar": "METAR LHBP 290430Z 31005KT CAVOK M03/M06 Q1018 NOSIG",
      "taf": "TAF LHBP 282315Z 2900/2924 31017KT CAVOK"
    },
    {
      "icao": "LHDC",
      "alert": "OK",
      "vis_m": 9999,
      "fzfg": false,
      "metar_trigger": false,
      "taf_trigger": false,
      "metar": "METAR LHDC 290415Z AUTO 17005KT CAVOK M06/M07 Q1018 NOSIG",
      "taf": "TAF LHDC 290215Z 2903/2912 18004KT CAVOK"
    },
    {
      "icao": "LIBD",
      "alert": "OK",
      "vis_m": 9999,
      "fzfg": false,
      "metar_trigger": false,
      "taf_trigger": false,
      "metar": "METAR LIBD 290450Z 25007KT CAVOK 06/05 Q1020",
      "taf": "TAF LIBD 282300Z 2900/2924 28012KT CAVOK"
    },
    {
      "icao": "LIBG",
      "alert": "OK",
      "vis_m": null,
      "fzfg": false,
      "metar_trigger": false,
      "taf_trigger": false,
      "metar": "",
      "taf": "TAF LIBG 281700Z 2818/2903 35012KT CAVOK"
    },
    {
      "icao": "LIBP",
      "alert": "OK",
      "vis_m": 9999,
      "fzfg": false,
      "metar_trigger": false,
      "taf_trigger": false,
      "metar": "METAR LIBP 290450Z AUTO 25006KT 9999 NCD 02/M01 Q1022",
      "taf": "TAF LIBP 282300Z 2900/2924 VRB05KT CAVOK"
    },
    {
      "icao": "LIBR",
      "alert": "OK",
      "vis_m": 9999,
      "fzfg": false,
      "metar_trigger": false,
      "taf_trigger": false,
      "metar": "METAR LIBR 290450Z 01009KT CAVOK 12/04 Q1019",
      "taf": "TAF LIBR 282300Z 2900/2924 33015KT CAVOK"
    },
    {
      "icao": "LICA",
      "alert": "OK",
      "vis_m": 9999,
      "fzfg": false,
      "metar_trigger": false,
      "taf_trigger": false,
      "metar": "METAR LICA 290450Z AUTO 08006KT 9999 BKN032/// 05/05 Q1020",
      "taf": "TAF LICA 282300Z 2900/2924 07006KT CAVOK"
    },
    {
      "icao": "LICC",
      "alert": "OK",
      "vis_m": 9999,
      "fzfg": false,
      "metar_trigger": false,
      "taf_trigger": false,
      "metar": "METAR LICC 290450Z 24004KT CAVOK 03/01 Q1019",
      "taf": "TAF LICC 282300Z 2900/2924 VRB05KT 9999 FEW040"
    },
    {
      "icao": "LICJ",
      "alert": "OK",
      "vis_m": 9999,
      "fzfg": false,
      "metar_trigger": false,
      "taf_trigger": false,
      "metar": "METAR LICJ 290450Z 19004KT 160V220 CAVOK 10/07 Q1019",
      "taf": "TAF LICJ 282300Z 2900/2924 VRB05KT CAVOK"
    },
    {
      "icao": "LIMC",
      "alert": "OK",
      "vis_m": 9999,
      "fzfg": false,
      "metar_trigger": false,
      "taf_trigger": false,
      "metar": "METAR LIMC 290450Z 05007KT CAVOK M01/M01 Q1022 NOSIG",
      "taf": "TAF LIMC 282300Z 2900/3006 VRB04KT CAVOK"
    },
    {
      "icao": "LIME",
      "alert": "OK",
      "vis_m": 9999,
      "fzfg": false,
      "metar_trigger": false,
      "taf_trigger": false,
      "metar": "METAR LIME 290450Z AUTO 35003KT 9999 NCD 01/M01 Q1021",
      "taf": "TAF LIME 282300Z 2900/2924 VRB05KT CAVOK"
    },
    {
      "icao": "LIMF",
      "alert": "OK",
      "vis_m": 9999,
      "fzfg": false,
      "metar_trigger": false,
      "taf_trigger": false,
      "metar": "METAR LIMF 290450Z 22004KT CAVOK 01/M03 Q1022",
      "taf": "TAF LIMF 282300Z 2900/2924 VRB05KT CAVOK"
    },
    {
      "icao": "LIMJ",
      "alert": "OK",
      "vis_m": 9999,
      "fzfg": false,
      "metar_trigger": false,
      "taf_trigger": false,
      "metar": "METAR LIMJ 290450Z 04015G25KT CAVOK 10/M01 Q1020",
      "taf": "TAF LIMJ 282300Z 2900/2924 01015KT CAVOK"
    },
    {
      "icao": "LIPE",
      "alert": "OK",
      "vis_m": 8000,
      "fzfg": false,
      "metar_trigger": false,
      "taf_trigger": false,
      "metar": "METAR LIPE 290450Z 33003KT 270V350 8000 3000N BCFG NSC M02/M02 Q1023",
      "taf": "TAF LIPE 282300Z 2900/2924 VRB06KT 6000 NSC"
    },
    {
      "icao": "LIPH",
      "alert": "OK",
      "vis_m": 9999,
      "fzfg": false,
      "metar_trigger": false,
      "taf_trigger": false,
      "metar": "METAR LIPH 290450Z AUTO VRB01KT 9999 NCD M01/M01 Q1021",
      "taf": "TAF LIPH 282300Z 2900/2924 VRB05KT CAVOK"
    },
    {
      "icao": "LIPQ",
      "alert": "OK",
      "vis_m": 9999,
      "fzfg": false,
      "metar_trigger": false,
      "taf_trigger": false,
      "metar": "METAR LIPQ 290450Z AUTO 03003KT 9999 NCD M02/M03 Q1021",
      "taf": "TAF LIPQ 282300Z 2900/2924 VRB05KT CAVOK"
    },
    {
      "icao": "LIPR",
      "alert": "OK",
      "vis_m": 9999,
      "fzfg": false,
      "metar_trigger": false,
      "taf_trigger": false,
      "metar": "METAR LIPR 290450Z AUTO 23004KT 9999 NCD M00/M01 Q1022",
      "taf": "TAF LIPR 282300Z 2900/2924 VRB05KT CAVOK"
    },
    {
      "icao": "LIPX",
      "alert": "OK",
      "vis_m": 2000,
      "fzfg": false,
      "metar_trigger": false,
      "taf_trigger": false,
      "metar": "METAR LIPX 290450Z AUTO 17002KT 2000 1300NE BR NCD M02/M02 Q1022",
      "taf": "TAF LIPX 282300Z 2900/2924 VRB05KT CAVOK"
    },
    {
      "icao": "LIPY",
      "alert": "OK",
      "vis_m": 9999,
      "fzfg": false,
      "metar_trigger": false,
      "taf_trigger": false,
      "metar": "METAR LIPY 290450Z AUTO 20004KT 9999 NCD 01/01 Q1022",
      "taf": "TAF LIPY 282300Z 2900/2924 VRB05KT CAVOK"
    },
    {
      "icao": "LIPZ",
      "alert": "OK",
      "vis_m": 9999,
      "fzfg": false,
      "metar_trigger": false,
      "taf_trigger": false,
      "metar": "METAR LIPZ 290450Z 31003KT CAVOK M01/M01 Q1022 NOSIG",
      "taf": "TAF LIPZ 282300Z 2900/3006 VRB05KT CAVOK"
    },
    {
      "icao": "LIRF",
      "alert": "OK",
      "vis_m": 9999,
      "fzfg": false,
      "metar_trigger": false,
      "taf_trigger": false,
      "metar": "METAR LIRF 290450Z 08005KT CAVOK 01/M00 Q1020 NOSIG",
      "taf": "TAF LIRF 282300Z 2900/3006 05005KT CAVOK"
    },
    {
      "icao": "LIRN",
      "alert": "OK",
      "vis_m": 9999,
      "fzfg": false,
      "metar_trigger": false,
      "taf_trigger": false,
      "metar": "METAR LIRN 290450Z 31005KT CAVOK 04/01 Q1020 NOSIG",
      "taf": "TAF LIRN 282300Z 2900/2924 VRB05KT CAVOK"
    },
    {
      "icao": "LIRP",
      "alert": "OK",
      "vis_m": 9999,
      "fzfg": false,
      "metar_trigger": false,
      "taf_trigger": false,
      "metar": "METAR LIRP 290445Z 12004KT CAVOK 00/00 Q1020 NOSIG",
      "taf": "TAF LIRP 282300Z 2900/2924 11005KT CAVOK"
    },
    {
      "icao": "LIRZ",
      "alert": "OK",
      "vis_m": 5000,
      "fzfg": false,
      "metar_trigger": false,
      "taf_trigger": false,
      "metar": "METAR LIRZ 290450Z AUTO VRB01KT 5000 BR BKN002/// M03/M04 Q1021",
      "taf": "TAF LIRZ 282300Z 2900/2924 VRB05KT CAVOK"
    },
    {
      "icao": "LJLJ",
      "alert": "OK",
      "vis_m": 8000,
      "fzfg": false,
      "metar_trigger": false,
      "taf_trigger": false,
      "metar": "METAR LJLJ 290430Z 35003KT 8000 OVC004 M01/M02 Q1022 NOSIG",
      "taf": "TAF LJLJ 282300Z 2900/3000 VRB02KT 7000 OVC005"
    },
    {
      "icao": "LKMT",
      "alert": "OK",
      "vis_m": 9999,
      "fzfg": false,
      "metar_trigger": false,
      "taf_trigger": false,
      "metar": "METAR LKMT 290430Z 22010KT CAVOK M04/M06 Q1019 NOSIG",
      "taf": "TAF LKMT 282300Z 2900/2924 21002KT CAVOK"
    },
    {
      "icao": "LKPR",
      "alert": "OK",
      "vis_m": 9999,
      "fzfg": false,
      "metar_trigger": false,
      "taf_trigger": false,
      "metar": "METAR LKPR 290430Z 21009KT CAVOK M05/M07 Q1020 NOSIG",
      "taf": "TAF LKPR 290200Z 2903/3009 23008KT CAVOK"
    },
    {
      "icao": "LLBG",
      "alert": "OK",
      "vis_m": 4000,
      "fzfg": false,
      "metar_trigger": false,
      "taf_trigger": false,
      "metar": "METAR LLBG 290450Z 23014KT 4000 RA FEW020TCU BKN028 12/11 Q1012 NOSIG",
      "taf": "TAF LLBG 282320Z 2900/2924 20012KT 9999 BKN045"
    },
    {
      "icao": "LMML",
      "alert": "OK",
      "vis_m": 9999,
      "fzfg": false,
      "metar_trigger": false,
      "taf_trigger": false,
      "metar": "METAR LMML 290445Z 24004KT 9999 FEW020 10/10 Q1019 NOSIG",
      "taf": "TAF LMML 282300Z 2900/2924 VRB05KT 9999 SCT020"
    },
    {
      "icao": "LOWW",
      "alert": "OK",
      "vis_m": 9999,
      "fzfg": false,
      "metar_trigger": false,
      "taf_trigger": false,
      "metar": "METAR LOWW 290450Z 29005KT CAVOK M03/M07 Q1020 NOSIG",
      "taf": "TAF LOWW 290215Z 2903/3009 30010KT CAVOK TX04/2913Z TNM04/2905Z"
    },
    {
      "icao": "LPFR",
      "alert": "OK",
      "vis_m": 9999,
      "fzfg": false,
      "metar_trigger": false,
      "taf_trigger": false,
      "metar": "METAR LPFR 290430Z 36004KT 340V080 CAVOK 08/06 Q1017",
      "taf": "TAF LPFR 282300Z 2900/2924 01005KT 9999 FEW025"
    },
    {
      "icao": "LPMA",
      "alert": "OK",
      "vis_m": 9999,
      "fzfg": false,
      "metar_trigger": false,
      "taf_trigger": false,
      "metar": "METAR LPMA 290430Z 26005KT 9999 BKN015 16/10 Q1019",
      "taf": "TAF LPMA 282300Z 2900/2924 VRB05KT 9999 SCT016"
    },
    {
      "icao": "LPPR",
      "alert": "OK",
      "vis_m": 9999,
      "fzfg": false,
      "metar_trigger": false,
      "taf_trigger": false,
      "metar": "METAR LPPR 290430Z 10006KT CAVOK 07/05 Q1018",
      "taf": "TAF LPPR 282300Z 2900/2924 VRB02KT CAVOK"
    },
    {
      "icao": "LPPS",
      "alert": "OK",
      "vis_m": 9999,
      "fzfg": false,
      "metar_trigger": false,
      "taf_trigger": false,
      "metar": "METAR LPPS 290430Z 00000KT 9999 SCT015 15/10 Q1019",
      "taf": "TAF LPPS 282300Z 2900/3006 VRB05KT 9999 SCT015"
    },
    {
      "icao": "LPPT",
      "alert": "OK",
      "vis_m": 9999,
      "fzfg": false,
      "metar_trigger": false,
      "taf_trigger": false,
      "metar": "METAR LPPT 290430Z 30004KT CAVOK 10/07 Q1018",
      "taf": "TAF LPPT 282300Z 2900/3006 01007KT CAVOK"
    },
    {
      "icao": "LQBK",
      "alert": "OK",
      "vis_m": 900,
      "fzfg": true,
      "metar_trigger": false,
      "taf_trigger": false,
      "metar": "METAR LQBK 290430Z VRB02KT 0900 0400N R16/0600N FZFG NSC M05/M06 Q1023 TEMPO 0200 VV002",
      "taf": "TAF LQBK 282300Z 2900/2924 18005KT CAVOK TX04/2913Z TNM06/2905Z"
    },
    {
      "icao": "LQSA",
      "alert": "OK",
      "vis_m": 9999,
      "fzfg": false,
      "metar_trigger": false,
      "taf_trigger": false,
      "metar": "METAR LQSA 290430Z 00000KT CAVOK M07/M08 Q1023 NOSIG",
      "taf": "TAF LQSA 282300Z 2900/2924 VRB02KT CAVOK TX04/2913Z TNM08/2905Z"
    },
    {
      "icao": "LQTZ",
      "alert": "OK",
      "vis_m": 6000,
      "fzfg": false,
      "metar_trigger": false,
      "taf_trigger": false,
      "metar": "METAR LQTZ 290430Z 00000KT 6000 NSC M07/M07 Q1023",
      "taf": "TAF LQTZ 282300Z 2900/2924 33005KT CAVOK TX05/2913Z TNM07/2905Z"
    },
    {
      "icao": "LRBC",
      "alert": "OK",
      "vis_m": 9999,
      "fzfg": false,
      "metar_trigger": false,
      "taf_trigger": false,
      "metar": "METAR LRBC 290430Z 34019KT 9999 -SN OVC037 02/M04 Q1010",
      "taf": "TAF LRBC 290200Z 2903/2912 33008KT 9999 OVC055"
    },
    {
      "icao": "LRBS",
      "alert": "OK",
      "vis_m": 9999,
      "fzfg": false,
      "metar_trigger": false,
      "taf_trigger": false,
      "metar": "METAR LRBS 290430Z 27007KT 250V310 CAVOK M01/M06 Q1014 NOSIG",
      "taf": "TAF LRBS 282300Z 2900/2924 27012KT CAVOK"
    },
    {
      "icao": "LRBV",
      "alert": "OK",
      "vis_m": 9999,
      "fzfg": false,
      "metar_trigger": false,
      "taf_trigger": false,
      "metar": "METAR LRBV 290430Z AUTO 29019G30KT 9999 -PL BKN032/// OVC051/// M01/M07 Q1013 RESG",
      "taf": "TAF LRBV 290200Z 2903/2912 29017KT 9999 BKN035"
    },
    {
      "icao": "LRCL",
      "alert": "OK",
      "vis_m": 9999,
      "fzfg": false,
      "metar_trigger": false,
      "taf_trigger": false,
      "metar": "METAR LRCL 290430Z 28008KT 9999 FEW042 M01/M07 Q1016",
      "taf": "TAF LRCL 290200Z 2903/2912 30012KT 9999 BKN045"
    },
    {
      "icao": "LRCV",
      "alert": "OK",
      "vis_m": 9999,
      "fzfg": false,
      "metar_trigger": false,
      "taf_trigger": false,
      "metar": "METAR LRCV 290430Z 28016KT CAVOK M01/M04 Q1016",
      "taf": "TAF LRCV 290200Z 2903/2912 28016KT CAVOK"
    },
    {
      "icao": "LRIA",
      "alert": "OK",
      "vis_m": 9999,
      "fzfg": false,
      "metar_trigger": false,
      "taf_trigger": false,
      "metar": "METAR LRIA 290430Z 30015G25KT 270V330 9999 FEW012 BKN040 01/M04 Q1008",
      "taf": "TAF LRIA 290200Z 2903/2912 31020KT 9999 SCT010 OVC030"
    },
    {
      "icao": "LROP",
      "alert": "OK",
      "vis_m": 9999,
      "fzfg": false,
      "metar_trigger": false,
      "taf_trigger": false,
      "metar": "METAR LROP 290430Z 22005KT CAVOK M01/M08 Q1013 NOSIG",
      "taf": "TAF LROP 282300Z 2900/2924 27012KT CAVOK"
    },
    {
      "icao": "LRSB",
      "alert": "OK",
      "vis_m": 9999,
      "fzfg": false,
      "metar_trigger": false,
      "taf_trigger": false,
      "metar": "METAR LRSB 290430Z 30012KT 9999 BKN050 M01/M06 Q1016",
      "taf": "TAF LRSB 282300Z 2900/2924 29016KT 9999 BKN055"
    },
    {
      "icao": "LRSM",
      "alert": "OK",
      "vis_m": 9999,
      "fzfg": false,
      "metar_trigger": false,
      "taf_trigger": false,
      "metar": "METAR LRSM 290430Z AUTO 21006KT 9999 NCD M04/M06 Q1017",
      "taf": "TAF LRSM 290200Z 2903/2912 30012KT 9999 BKN040"
    },
    {
      "icao": "LRSV",
      "alert": "OK",
      "vis_m": 9999,
      "fzfg": false,
      "metar_trigger": false,
      "taf_trigger": false,
      "metar": "METAR LRSV 290430Z COR 31021G32KT 9999 -SN BKN040 M01/M06 Q1008",
      "taf": "TAF LRSV 290200Z 2903/2912 31020KT 9999 BKN040"
    },
    {
      "icao": "LRTM",
      "alert": "OK",
      "vis_m": 9999,
      "fzfg": false,
      "metar_trigger": false,
      "taf_trigger": false,
      "metar": "METAR LRTM 290430Z AUTO 24013KT 9999 R25////// OVC050/// M00/M06 Q1016",
      "taf": "TAF LRTM 290200Z 2903/2912 28012KT 9999 BKN035"
    },
    {
      "icao": "LRTR",
      "alert": "OK",
      "vis_m": 9999,
      "fzfg": false,
      "metar_trigger": false,
      "taf_trigger": false,
      "metar": "METAR LRTR 290430Z VRB01KT CAVOK M05/M05 Q1021",
      "taf": "TAF LRTR 282300Z 2900/2924 29008KT CAVOK"
    },
    {
      "icao": "LTAC",
      "alert": "OK",
      "vis_m": 9999,
      "fzfg": false,
      "metar_trigger": false,
      "taf_trigger": false,
      "metar": "METAR LTAC 290420Z 26006KT 9999 FEW015 SCT040 BKN100 M04/M07 Q1007 NOSIG RMK RWY21C 23008KT RWY03L 25006KT RWY21R 23006KT RWY03R 24007KT RWY21L 24008KT",
      "taf": "TAF LTAC 282240Z 2900/2924 26012KT 9999 SCT040 BKN100"
    },
    {
      "icao": "LTFM",
      "alert": "OK",
      "vis_m": 9999,
      "fzfg": false,
      "metar_trigger": false,
      "taf_trigger": false,
      "metar": "METAR LTFM 290420Z 30012KT CAVOK 01/M05 Q1015 NOSIG RMK RWY17L 28008KT RWY34L 30007KT RWY16R 27007KT RWY36 29011KT RWY18 29010KT",
      "taf": "TAF LTFM 282240Z 2900/3006 28012KT 9999 SCT035"
    },
    {
      "icao": "LUKK",
      "alert": "OK",
      "vis_m": 9999,
      "fzfg": false,
      "metar_trigger": false,
      "taf_trigger": false,
      "metar": "METAR LUKK 290430Z 34016G27KT 320V020 9999 BKN045 00/M07 Q1005 TEMPO 33018G28KT 5000 SN BKN010",
      "taf": "TAF LUKK 282318Z 2900/2924 32018G28KT 9999 BKN025"
    },
    {
      "icao": "LWOH",
      "alert": "OK",
      "vis_m": null,
      "fzfg": false,
      "metar_trigger": false,
      "taf_trigger": false,
      "metar": "",
      "taf": "TAF LWOH 290205Z 2903/3003 33005KT CAVOK"
    },
    {
      "icao": "LWSK",
      "alert": "OK",
      "vis_m": 9999,
      "fzfg": false,
      "metar_trigger": false,
      "taf_trigger": false,
      "metar": "METAR LWSK 290450Z 03010KT CAVOK M02/M06 Q1022 NOSIG",
      "taf": "TAF LWSK 290205Z 2903/3003 36005KT CAVOK"
    },
    {
      "icao": "LYBE",
      "alert": "OK",
      "vis_m": 9999,
      "fzfg": false,
      "metar_trigger": false,
      "taf_trigger": false,
      "metar": "METAR LYBE 290430Z 25009KT CAVOK M02/M04 Q1022 NOSIG",
      "taf": "TAF LYBE 282300Z 2900/2924 28010KT CAVOK TX06/2912Z TNM03/2906Z"
    },
    {
      "icao": "LYNI",
      "alert": "OK",
      "vis_m": 9999,
      "fzfg": false,
      "metar_trigger": false,
      "taf_trigger": false,
      "metar": "METAR LYNI 290430Z 31007KT 9999 FEW040 M00/M05 Q1022 NOSIG",
      "taf": "TAF LYNI 282300Z 2900/2924 30008KT 9999 BKN040 TX06/2912Z TNM03/2906Z"
    },
    {
      "icao": "LYPG",
      "alert": "OK",
      "vis_m": 9999,
      "fzfg": false,
      "metar_trigger": false,
      "taf_trigger": false,
      "metar": "METAR LYPG 290430Z 00000KT CAVOK 00/M06 Q1020 NOSIG",
      "taf": ""
    },
    {
      "icao": "LZIB",
      "alert": "OK",
      "vis_m": 9999,
      "fzfg": false,
      "metar_trigger": false,
      "taf_trigger": false,
      "metar": "METAR LZIB 290430Z 28008KT CAVOK M01/M05 Q1020 NOSIG",
      "taf": "TAF LZIB 282315Z 2900/3000 30007KT CAVOK"
    },
    {
      "icao": "LZKZ",
      "alert": "OK",
      "vis_m": 9999,
      "fzfg": false,
      "metar_trigger": false,
      "taf_trigger": false,
      "metar": "METAR LZKZ 290430Z 29003KT CAVOK M06/M08 Q1016 NOSIG",
      "taf": "TAF LZKZ 282315Z 2900/3000 VRB02KT CAVOK"
    },
    {
      "icao": "LZTT",
      "alert": "OK",
      "vis_m": 9999,
      "fzfg": false,
      "metar_trigger": false,
      "taf_trigger": false,
      "metar": "METAR LZTT 290430Z 24010KT 200V270 CAVOK M03/M13 Q1013",
      "taf": "TAF LZTT 282315Z 2900/3000 27012KT CAVOK"
    },
    {
      "icao": "OEJN",
      "alert": "OK",
      "vis_m": 9999,
      "fzfg": false,
      "metar_trigger": false,
      "taf_trigger": false,
      "metar": "METAR OEJN 290400Z 00000KT CAVOK 18/13 Q1014 NOSIG",
      "taf": "TAF OEJN 282300Z 2900/3006 05006KT CAVOK"
    },
    {
      "icao": "OEMA",
      "alert": "OK",
      "vis_m": 9999,
      "fzfg": false,
      "metar_trigger": false,
      "taf_trigger": false,
      "metar": "METAR OEMA 290400Z VRB02KT CAVOK 11/06 Q1018 NOSIG",
      "taf": "TAF OEMA 282300Z 2900/3006 VRB03KT CAVOK"
    },
    {
      "icao": "OJAI",
      "alert": "OK",
      "vis_m": 3000,
      "fzfg": false,
      "metar_trigger": false,
      "taf_trigger": false,
      "metar": "METAR OJAI 290400Z 24014KT 3000 BR SCT030 07/06 Q1012 NOSIG",
      "taf": "TAF OJAI 282300Z 2900/3006 29018G36KT 3000 RA BR SCT025TCU BKN030"
    },
    {
      "icao": "OMAA",
      "alert": "OK",
      "vis_m": 9999,
      "fzfg": false,
      "metar_trigger": false,
      "taf_trigger": false,
      "metar": "METAR OMAA 290400Z 15011KT 9999 FEW045 21/16 Q1013 NOSIG",
      "taf": "TAF OMAA 282300Z 2900/3006 16009KT 8000 NSC"
    },
    {
      "icao": "OMDB",
      "alert": "OK",
      "vis_m": 9999,
      "fzfg": false,
      "metar_trigger": false,
      "taf_trigger": false,
      "metar": "METAR OMDB 290430Z 20012KT CAVOK 23/18 Q1013 NOSIG",
      "taf": ""
    },
    {
      "icao": "UAAA",
      "alert": "OK",
      "vis_m": 1800,
      "fzfg": false,
      "metar_trigger": false,
      "taf_trigger": false,
      "metar": "METAR UAAA 290430Z VRB01MPS 1800 R05R/1800N BR SCT100 BKN200 02/M02 Q1015 NOSIG",
      "taf": "TAF UAAA 282302Z 2900/2924 24003MPS 1500 BR FU SCT050 BKN100 TX05/2909Z TNM04/2901Z"
    },
    {
      "icao": "UBBB",
      "alert": "OK",
      "vis_m": 9999,
      "fzfg": false,
      "metar_trigger": false,
      "taf_trigger": false,
      "metar": "METAR UBBB 290430Z VRB02KT CAVOK 03/M02 Q1000 NOSIG",
      "taf": "TAF UBBB 282301Z 2900/2924 21010KT 9999 SCT012 BKN030 TX09/2910Z TN02/2902Z"
    },
    {
      "icao": "UDSG",
      "alert": "OK",
      "vis_m": 9999,
      "fzfg": false,
      "metar_trigger": false,
      "taf_trigger": false,
      "metar": "METAR UDSG 290430Z 09002KT 9999 SCT049 M13/M16 Q1002 NOSIG",
      "taf": "TAF UDSG 282300Z 2900/2924 VRB06KT 9999 SCT040"
    },
    {
      "icao": "UDYZ",
      "alert": "OK",
      "vis_m": 9999,
      "fzfg": false,
      "metar_trigger": false,
      "taf_trigger": false,
      "metar": "METAR UDYZ 290430Z 09003KT 9999 SCT046 M07/M09 Q1005 NOSIG",
      "taf": "TAF UDYZ 282300Z 2900/2924 20006KT 6000 FEW040"
    },
    {
      "icao": "UGKO",
      "alert": "OK",
      "vis_m": 2500,
      "fzfg": false,
      "metar_trigger": false,
      "taf_trigger": false,
      "metar": "METAR UGKO 290430Z 09007KT 2500 SHSN SCT002 BKN015CB OVC025 00/M01 Q1004 NOSIG",
      "taf": "TAF UGKO 282300Z 2900/2924 08007KT 9999 SCT015 OVC045 TX02/2911Z TNM01/2904Z"
    }
  ]
}