{
  "ts_utc": "2026-06-29T01:52:39Z",
  "threshold_m": 150,
  "source": "stations_override.txt (ICAO list) + aviationweather.gov (METAR/TAF raw)",
  "station_count": 159,
  "stations": [
    {
      "icao": "BIKF",
      "alert": "OK",
      "vis_m": 9999,
      "fzfg": false,
      "metar_trigger": false,
      "taf_trigger": false,
      "metar": "METAR BIKF 290130Z 23007KT 210V270 9999 FEW010 BKN035 BKN070 10/09 Q0993",
      "taf": "TAF BIKF 282256Z 2900/3000 28008KT 9999 -RA FEW030 BKN040 TX11/2915Z TN08/2906Z"
    },
    {
      "icao": "BKPR",
      "alert": "OK",
      "vis_m": null,
      "fzfg": false,
      "metar_trigger": false,
      "taf_trigger": false,
      "metar": "",
      "taf": "TAF BKPR 282330Z 2900/2924 07008KT CAVOK"
    },
    {
      "icao": "EBCI",
      "alert": "OK",
      "vis_m": 9999,
      "fzfg": false,
      "metar_trigger": false,
      "taf_trigger": false,
      "metar": "METAR EBCI 290120Z 31005KT 260V350 CAVOK 19/14 Q1023 NOSIG",
      "taf": "TAF EBCI 282310Z 2900/3006 31007KT CAVOK"
    },
    {
      "icao": "EDDB",
      "alert": "OK",
      "vis_m": 9999,
      "fzfg": false,
      "metar_trigger": false,
      "taf_trigger": false,
      "metar": "METAR EDDB 290120Z AUTO 03005KT CAVOK 23/18 Q1018 NOSIG",
      "taf": "TAF EDDB 282300Z 2900/2924 02007KT CAVOK"
    },
    {
      "icao": "EDDH",
      "alert": "OK",
      "vis_m": 9999,
      "fzfg": false,
      "metar_trigger": false,
      "taf_trigger": false,
      "metar": "METAR EDDH 290120Z AUTO 28002KT 9999 BKN028 20/18 Q1020 NOSIG",
      "taf": "TAF EDDH 282300Z 2900/3006 29004KT CAVOK"
    },
    {
      "icao": "EDDK",
      "alert": "OK",
      "vis_m": 9999,
      "fzfg": false,
      "metar_trigger": false,
      "taf_trigger": false,
      "metar": "METAR EDDK 290120Z AUTO 33005KT 9999 BKN028 22/18 Q1021 TEMPO SHRA BKN040CB",
      "taf": "TAF EDDK 282300Z 2900/3006 30007KT CAVOK"
    },
    {
      "icao": "EDDN",
      "alert": "OK",
      "vis_m": 9999,
      "fzfg": false,
      "metar_trigger": false,
      "taf_trigger": false,
      "metar": "METAR EDDN 290120Z AUTO VRB06KT CAVOK 22/17 Q1019",
      "taf": ""
    },
    {
      "icao": "EDDS",
      "alert": "OK",
      "vis_m": 9999,
      "fzfg": false,
      "metar_trigger": false,
      "taf_trigger": false,
      "metar": "METAR EDDS 290120Z AUTO 16004KT 120V200 CAVOK 24/15 Q1019",
      "taf": "TAF EDDS 282300Z 2900/2924 28004KT CAVOK"
    },
    {
      "icao": "EDFH",
      "alert": "OK",
      "vis_m": 8000,
      "fzfg": false,
      "metar_trigger": false,
      "taf_trigger": false,
      "metar": "METAR EDFH 290120Z 31008KT 280V350 8000 -SHRA FEW006 SCT016CB 20/19 Q1023",
      "taf": "TAF EDFH 282300Z 2900/2924 35007KT 9999 SCT010"
    },
    {
      "icao": "EDJA",
      "alert": "OK",
      "vis_m": 9999,
      "fzfg": false,
      "metar_trigger": false,
      "taf_trigger": false,
      "metar": "METAR EDJA 290120Z AUTO 16002KT 9999 // NCD 16/15 Q1021",
      "taf": "TAF EDJA 281700Z 2818/2903 VRB03KT CAVOK"
    },
    {
      "icao": "EDLW",
      "alert": "OK",
      "vis_m": 9999,
      "fzfg": false,
      "metar_trigger": false,
      "taf_trigger": false,
      "metar": "METAR EDLW 290120Z AUTO 00000KT 9999 // OVC026/// 22/19 Q1021",
      "taf": "TAF EDLW 281700Z 2818/2918 28006KT CAVOK"
    },
    {
      "icao": "EDNY",
      "alert": "OK",
      "vis_m": 9999,
      "fzfg": false,
      "metar_trigger": false,
      "taf_trigger": false,
      "metar": "METAR EDNY 290120Z AUTO 07004KT 050V120 9999 // BKN170/// 21/15 Q1020",
      "taf": ""
    },
    {
      "icao": "EDSB",
      "alert": "OK",
      "vis_m": 9999,
      "fzfg": false,
      "metar_trigger": false,
      "taf_trigger": false,
      "metar": "METAR EDSB 290120Z AUTO 30003KT 270V330 9999 // BKN150/// 25/18 Q1018",
      "taf": "TAF EDSB 282300Z 2900/2924 20005KT CAVOK"
    },
    {
      "icao": "EETN",
      "alert": "OK",
      "vis_m": 200,
      "fzfg": false,
      "metar_trigger": false,
      "taf_trigger": false,
      "metar": "METAR EETN 290150Z 26006KT 0200 R26/0500D FG VV001 18/18 Q1013",
      "taf": "TAF EETN 282330Z 2900/2924 VRB02KT 8000 SCT005"
    },
    {
      "icao": "EFTU",
      "alert": "OK",
      "vis_m": 9999,
      "fzfg": false,
      "metar_trigger": false,
      "taf_trigger": false,
      "metar": "METAR EFTU 290120Z AUTO VRB02KT CAVOK 14/14 Q1013",
      "taf": "TAF EFTU 282324Z 2900/2924 23007KT CAVOK"
    },
    {
      "icao": "EGBB",
      "alert": "OK",
      "vis_m": 9999,
      "fzfg": false,
      "metar_trigger": false,
      "taf_trigger": false,
      "metar": "METAR EGBB 290120Z 25005KT 210V280 CAVOK 13/09 Q1024",
      "taf": "TAF EGBB 282255Z 2900/2924 25005KT CAVOK"
    },
    {
      "icao": "EGGP",
      "alert": "OK",
      "vis_m": 9999,
      "fzfg": false,
      "metar_trigger": false,
      "taf_trigger": false,
      "metar": "METAR EGGP 290120Z 23008KT 200V260 CAVOK 15/09 Q1022",
      "taf": "TAF EGGP 282257Z 2900/2924 21009KT 9999 FEW035"
    },
    {
      "icao": "EGGW",
      "alert": "OK",
      "vis_m": 9999,
      "fzfg": false,
      "metar_trigger": false,
      "taf_trigger": false,
      "metar": "METAR EGGW 290120Z AUTO 27010KT 9999 NCD 13/09 Q1024",
      "taf": "TAF EGGW 282252Z 2900/2924 24009KT 9999 FEW045"
    },
    {
      "icao": "EGKK",
      "alert": "OK",
      "vis_m": 9999,
      "fzfg": false,
      "metar_trigger": false,
      "taf_trigger": false,
      "metar": "METAR EGKK 290120Z 22003KT CAVOK 14/09 Q1024",
      "taf": "TAF EGKK 282254Z 2900/3006 30008KT 9999 SCT045"
    },
    {
      "icao": "EGNM",
      "alert": "OK",
      "vis_m": 9999,
      "fzfg": false,
      "metar_trigger": false,
      "taf_trigger": false,
      "metar": "METAR EGNM 290120Z 23009KT 9999 FEW028 13/09 Q1021",
      "taf": "TAF EGNM 282255Z 2900/2924 21008KT 9999 FEW035"
    },
    {
      "icao": "EGPD",
      "alert": "OK",
      "vis_m": 9999,
      "fzfg": false,
      "metar_trigger": false,
      "taf_trigger": false,
      "metar": "METAR EGPD 290120Z AUTO 12003KT 060V200 9999 NCD 12/07 Q1015",
      "taf": "TAF EGPD 282257Z 2900/2924 21009KT 9999 SCT045"
    },
    {
      "icao": "EGPF",
      "alert": "OK",
      "vis_m": 9999,
      "fzfg": false,
      "metar_trigger": false,
      "taf_trigger": false,
      "metar": "METAR EGPF 290120Z AUTO 22006KT 9999 NCD 10/08 Q1017",
      "taf": "TAF EGPF 282256Z 2900/2924 23008KT 9999 SCT035"
    },
    {
      "icao": "EHBK",
      "alert": "OK",
      "vis_m": 9999,
      "fzfg": false,
      "metar_trigger": false,
      "taf_trigger": false,
      "metar": "METAR EHBK 290125Z AUTO 33003KT 300V360 9999 FEW022CB 22/16 Q1022",
      "taf": "TAF EHBK 282310Z 2900/3006 30005KT CAVOK"
    },
    {
      "icao": "EHEH",
      "alert": "OK",
      "vis_m": 9999,
      "fzfg": false,
      "metar_trigger": false,
      "taf_trigger": false,
      "metar": "METAR EHEH 290125Z AUTO VRB02KT 9999 BKN100 OVC160 19/15 Q1022 BLU",
      "taf": "TAF EHEH 282312Z 2900/3006 24003KT CAVOK"
    },
    {
      "icao": "EKBI",
      "alert": "OK",
      "vis_m": 9999,
      "fzfg": false,
      "metar_trigger": false,
      "taf_trigger": false,
      "metar": "METAR EKBI 290120Z AUTO 26008KT 220V280 9999 BKN007/// 18/17 Q1019",
      "taf": "TAF EKBI 282327Z 2900/2924 23006KT CAVOK"
    },
    {
      "icao": "EKCH",
      "alert": "OK",
      "vis_m": 9999,
      "fzfg": false,
      "metar_trigger": false,
      "taf_trigger": false,
      "metar": "METAR EKCH 290120Z AUTO 25005KT 9999 NCD 19/18 Q1018 NOSIG",
      "taf": "TAF EKCH 282327Z 2900/2924 24008KT CAVOK"
    },
    {
      "icao": "ENAL",
      "alert": "OK",
      "vis_m": 9999,
      "fzfg": false,
      "metar_trigger": false,
      "taf_trigger": false,
      "metar": "METAR ENAL 290120Z AUTO 26008KT 220V290 9999 SCT003/// BKN004/// 13/13 Q1011",
      "taf": "TAF ENAL 282300Z 2900/2909 26008KT 9999 SCT005 BKN020"
    },
    {
      "icao": "ENBR",
      "alert": "OK",
      "vis_m": 9999,
      "fzfg": false,
      "metar_trigger": false,
      "taf_trigger": false,
      "metar": "METAR ENBR 290120Z 17013KT 9999 FEW014 OVC051 14/12 Q1015 RMK WIND 1200FT 18016KT",
      "taf": "TAF ENBR 282300Z 2900/2924 17012KT 9999 SCT005 BKN018"
    },
    {
      "icao": "ENGM",
      "alert": "OK",
      "vis_m": 9999,
      "fzfg": false,
      "metar_trigger": false,
      "taf_trigger": false,
      "metar": "METAR ENGM 290120Z 20006KT 9999 FEW012 17/14 Q1013",
      "taf": "TAF ENGM 282300Z 2900/2924 VRB03KT CAVOK"
    },
    {
      "icao": "ENHD",
      "alert": "OK",
      "vis_m": 9999,
      "fzfg": false,
      "metar_trigger": false,
      "taf_trigger": false,
      "metar": "METAR ENHD 290120Z AUTO 16007KT 9999 NCD 14/11 Q1015",
      "taf": "TAF ENHD 281400Z 2815/2822 18012KT 9999 BKN045"
    },
    {
      "icao": "ENTC",
      "alert": "OK",
      "vis_m": 9999,
      "fzfg": false,
      "metar_trigger": false,
      "taf_trigger": false,
      "metar": "METAR ENTC 290120Z AUTO 05005KT 9999 NCD 09/06 Q1012 RMK WIND 2600FT 19005KT",
      "taf": "TAF ENTC 282300Z 2900/2924 02008KT 9999 FEW040 BKN080"
    },
    {
      "icao": "ENTO",
      "alert": "OK",
      "vis_m": 2200,
      "fzfg": false,
      "metar_trigger": false,
      "taf_trigger": false,
      "metar": "METAR ENTO 290120Z AUTO 20008KT 2200 // NCD 18/18 Q1013",
      "taf": "TAF ENTO 282300Z 2900/2924 18008KT CAVOK"
    },
    {
      "icao": "ENVA",
      "alert": "OK",
      "vis_m": 9999,
      "fzfg": false,
      "metar_trigger": false,
      "taf_trigger": false,
      "metar": "METAR ENVA 290120Z AUTO VRB02KT 9999 NCD 17/17 Q1009 RERA RMK WIND 670FT 13006KT",
      "taf": "TAF ENVA 282300Z 2900/2924 25008KT 9999 SCT015 BKN030"
    },
    {
      "icao": "ENZV",
      "alert": "OK",
      "vis_m": 9999,
      "fzfg": false,
      "metar_trigger": false,
      "taf_trigger": false,
      "metar": "METAR ENZV 290120Z AUTO 20005KT 170V230 9999 NCD 14/13 Q1016",
      "taf": "TAF ENZV 282300Z 2900/2924 20012KT 9999 FEW050"
    },
    {
      "icao": "EPGD",
      "alert": "OK",
      "vis_m": 9999,
      "fzfg": false,
      "metar_trigger": false,
      "taf_trigger": false,
      "metar": "METAR EPGD 290130Z 30007KT CAVOK 21/18 Q1017",
      "taf": "TAF EPGD 282330Z 2900/2924 30010KT CAVOK"
    },
    {
      "icao": "EPKK",
      "alert": "OK",
      "vis_m": 9999,
      "fzfg": false,
      "metar_trigger": false,
      "taf_trigger": false,
      "metar": "METAR EPKK 290130Z VRB02KT CAVOK 21/19 Q1018",
      "taf": "TAF EPKK 282330Z 2900/2924 VRB02KT CAVOK"
    },
    {
      "icao": "EPKT",
      "alert": "OK",
      "vis_m": 9999,
      "fzfg": false,
      "metar_trigger": false,
      "taf_trigger": false,
      "metar": "METAR EPKT 290130Z 10003KT CAVOK 23/19 Q1018",
      "taf": "TAF EPKT 282330Z 2900/2924 25006KT CAVOK"
    },
    {
      "icao": "EPLB",
      "alert": "OK",
      "vis_m": 9999,
      "fzfg": false,
      "metar_trigger": false,
      "taf_trigger": false,
      "metar": "METAR EPLB 290130Z 28007KT CAVOK 25/18 Q1017",
      "taf": "TAF EPLB 282330Z 2900/2924 26008KT CAVOK"
    },
    {
      "icao": "EPMO",
      "alert": "OK",
      "vis_m": 9999,
      "fzfg": false,
      "metar_trigger": false,
      "taf_trigger": false,
      "metar": "METAR EPMO 290130Z 34006KT 300V010 CAVOK 27/19 Q1016",
      "taf": "TAF EPMO 282330Z 2900/2924 24005KT CAVOK"
    },
    {
      "icao": "EPPO",
      "alert": "OK",
      "vis_m": 9999,
      "fzfg": false,
      "metar_trigger": false,
      "taf_trigger": false,
      "metar": "METAR EPPO 290130Z 34005KT CAVOK 22/19 Q1018",
      "taf": "TAF EPPO 282330Z 2900/2924 35006KT CAVOK"
    },
    {
      "icao": "EPRA",
      "alert": "OK",
      "vis_m": 9999,
      "fzfg": false,
      "metar_trigger": false,
      "taf_trigger": false,
      "metar": "METAR EPRA 290130Z 25005KT CAVOK 26/16 Q1017",
      "taf": "TAF EPRA 282330Z 2900/2909 26006KT CAVOK"
    },
    {
      "icao": "EPRZ",
      "alert": "OK",
      "vis_m": 9999,
      "fzfg": false,
      "metar_trigger": false,
      "taf_trigger": false,
      "metar": "METAR EPRZ 290130Z 22003KT CAVOK 24/18 Q1018",
      "taf": "TAF EPRZ 282330Z 2900/2924 23006KT CAVOK"
    },
    {
      "icao": "EPSC",
      "alert": "OK",
      "vis_m": 9999,
      "fzfg": false,
      "metar_trigger": false,
      "taf_trigger": false,
      "metar": "METAR EPSC 290130Z 13003KT CAVOK 17/17 Q1019",
      "taf": "TAF EPSC 282330Z 2900/2924 34010KT CAVOK"
    },
    {
      "icao": "EPSY",
      "alert": "OK",
      "vis_m": 9999,
      "fzfg": false,
      "metar_trigger": false,
      "taf_trigger": false,
      "metar": "METAR EPSY 290130Z 02004KT 350V060 CAVOK 24/19 Q1015",
      "taf": "TAF EPSY 282330Z 2900/2909 VRB02KT CAVOK"
    },
    {
      "icao": "EPWA",
      "alert": "OK",
      "vis_m": 9999,
      "fzfg": false,
      "metar_trigger": false,
      "taf_trigger": false,
      "metar": "METAR EPWA 290130Z 27006KT CAVOK 25/17 Q1016 NOSIG",
      "taf": "TAF EPWA 282330Z 2900/2924 VRB03KT CAVOK"
    },
    {
      "icao": "EPWR",
      "alert": "OK",
      "vis_m": 9999,
      "fzfg": false,
      "metar_trigger": false,
      "taf_trigger": false,
      "metar": "METAR EPWR 290130Z 29008KT CAVOK 23/18 Q1016",
      "taf": "TAF EPWR 282330Z 2900/2924 VRB02KT CAVOK"
    },
    {
      "icao": "ESGG",
      "alert": "OK",
      "vis_m": 6000,
      "fzfg": false,
      "metar_trigger": false,
      "taf_trigger": false,
      "metar": "METAR ESGG 290120Z 24003KT 6000 BCFG NSC 18/18 Q1016",
      "taf": "TAF ESGG 282330Z 2900/2924 24005KT CAVOK"
    },
    {
      "icao": "ESKN",
      "alert": "OK",
      "vis_m": 9999,
      "fzfg": false,
      "metar_trigger": false,
      "taf_trigger": false,
      "metar": "METAR ESKN 290120Z 27003KT CAVOK 16/16 Q1015",
      "taf": "TAF ESKN 282330Z 2900/2924 25003KT CAVOK"
    },
    {
      "icao": "ESMS",
      "alert": "OK",
      "vis_m": 9999,
      "fzfg": false,
      "metar_trigger": false,
      "taf_trigger": false,
      "metar": "METAR ESMS 290120Z 26005KT CAVOK 21/20 Q1018",
      "taf": "TAF ESMS 282327Z 2900/2924 25006KT CAVOK"
    },
    {
      "icao": "ESSA",
      "alert": "OK",
      "vis_m": 200,
      "fzfg": false,
      "metar_trigger": false,
      "taf_trigger": false,
      "metar": "METAR ESSA 290120Z 00000KT 0200 R01L/P2000N R19R/P2000D R01R/P2000N R19L/P2000N BCFG NSC 14/14 Q1014 BECMG 8000",
      "taf": "TAF ESSA 282330Z 2900/2924 VRB02KT CAVOK"
    },
    {
      "icao": "EYKA",
      "alert": "OK",
      "vis_m": 9999,
      "fzfg": false,
      "metar_trigger": false,
      "taf_trigger": false,
      "metar": "METAR EYKA 290150Z 14001KT CAVOK 20/18 Q1014",
      "taf": "TAF EYKA 282301Z 2900/2924 VRB03KT 9000 NSC"
    },
    {
      "icao": "EYPA",
      "alert": "OK",
      "vis_m": 9999,
      "fzfg": false,
      "metar_trigger": false,
      "taf_trigger": false,
      "metar": "METAR EYPA 290150Z VRB01KT CAVOK 20/19 Q1014",
      "taf": "TAF EYPA 282307Z 2900/2924 VRB03KT 9000 NSC"
    },
    {
      "icao": "EYVI",
      "alert": "OK",
      "vis_m": 9999,
      "fzfg": false,
      "metar_trigger": false,
      "taf_trigger": false,
      "metar": "METAR EYVI 290150Z 18004KT CAVOK 18/17 Q1015 NOSIG",
      "taf": "TAF EYVI 282302Z 2900/2924 VRB03KT 9000 NSC"
    },
    {
      "icao": "GCFV",
      "alert": "OK",
      "vis_m": 9999,
      "fzfg": false,
      "metar_trigger": false,
      "taf_trigger": false,
      "metar": "METAR GCFV 290130Z AUTO 02011KT CAVOK 22/17 Q1017",
      "taf": "TAF GCFV 282000Z 2821/2921 02015KT 9999 FEW020 TX27/2914Z TN22/2906Z"
    },
    {
      "icao": "GCLP",
      "alert": "OK",
      "vis_m": 9999,
      "fzfg": false,
      "metar_trigger": false,
      "taf_trigger": false,
      "metar": "METAR GCLP 290130Z 35022KT 9999 FEW025 22/17 Q1018 NOSIG",
      "taf": "TAF GCLP 282000Z 2821/2921 36023KT 9999 FEW025 TX30/2914Z TN22/2906Z"
    },
    {
      "icao": "GCTS",
      "alert": "OK",
      "vis_m": 9999,
      "fzfg": false,
      "metar_trigger": false,
      "taf_trigger": false,
      "metar": "METAR GCTS 290130Z 04008KT 330V070 9999 FEW025 22/16 Q1018 NOSIG",
      "taf": ""
    },
    {
      "icao": "GMAD",
      "alert": "OK",
      "vis_m": 8000,
      "fzfg": false,
      "metar_trigger": false,
      "taf_trigger": false,
      "metar": "METAR GMAD 290130Z 33003KT 8000 FEW013 SCT200 21/17 Q1014 NOSIG",
      "taf": "TAF GMAD 282300Z 2900/3006 18004KT 8000 FEW016 SCT100"
    },
    {
      "icao": "GMMN",
      "alert": "OK",
      "vis_m": 9999,
      "fzfg": false,
      "metar_trigger": false,
      "taf_trigger": false,
      "metar": "METAR GMMN 290130Z 04005KT CAVOK 20/18 Q1021 NOSIG",
      "taf": "TAF GMMN 282300Z 2900/3006 36006KT 9999 BKN010"
    },
    {
      "icao": "GMMX",
      "alert": "OK",
      "vis_m": 9999,
      "fzfg": false,
      "metar_trigger": false,
      "taf_trigger": false,
      "metar": "METAR GMMX 290130Z 06003KT CAVOK 26/17 Q1019 NOSIG",
      "taf": "TAF GMMX 282300Z 2900/3006 06006KT CAVOK"
    },
    {
      "icao": "HEGN",
      "alert": "OK",
      "vis_m": 9999,
      "fzfg": false,
      "metar_trigger": false,
      "taf_trigger": false,
      "metar": "METAR HEGN 290100Z 30006KT CAVOK 28/09 Q1007 NOSIG",
      "taf": "TAF HEGN 282300Z 2900/3006 29011KT CAVOK"
    },
    {
      "icao": "HEMA",
      "alert": "OK",
      "vis_m": 9999,
      "fzfg": false,
      "metar_trigger": false,
      "taf_trigger": false,
      "metar": "METAR HEMA 290100Z 24008KT CAVOK 28/04 Q1006 NOSIG",
      "taf": "TAF HEMA 282300Z 2900/3006 29006G18KT CAVOK"
    },
    {
      "icao": "HESH",
      "alert": "OK",
      "vis_m": 9999,
      "fzfg": false,
      "metar_trigger": false,
      "taf_trigger": false,
      "metar": "METAR HESH 290100Z 34012KT CAVOK 30/17 Q1006 NOSIG",
      "taf": "TAF HESH 282300Z 2900/3006 32010KT CAVOK"
    },
    {
      "icao": "HESX",
      "alert": "OK",
      "vis_m": 9999,
      "fzfg": false,
      "metar_trigger": false,
      "taf_trigger": false,
      "metar": "METAR HESX 290100Z 04006KT CAVOK 23/19 Q1010 NOSIG",
      "taf": "TAF HESX 282300Z 2900/3006 04008KT CAVOK"
    },
    {
      "icao": "LATI",
      "alert": "OK",
      "vis_m": 9999,
      "fzfg": false,
      "metar_trigger": false,
      "taf_trigger": false,
      "metar": "METAR LATI 290150Z 16004KT CAVOK 24/16 Q1015 NOSIG",
      "taf": "TAF LATI 282300Z 2900/2924 VRB03KT CAVOK TX37/2912Z TN21/2904Z"
    },
    {
      "icao": "LBPD",
      "alert": "OK",
      "vis_m": 9999,
      "fzfg": false,
      "metar_trigger": false,
      "taf_trigger": false,
      "metar": "METAR LBPD 290130Z AUTO 27006KT 9999 NCD 19/12 Q1020",
      "taf": "TAF LBPD 282300Z 2900/2924 VRB04KT CAVOK"
    },
    {
      "icao": "LBSF",
      "alert": "OK",
      "vis_m": 9999,
      "fzfg": false,
      "metar_trigger": false,
      "taf_trigger": false,
      "metar": "METAR LBSF 290130Z AUTO 13003KT 9999 NCD 14/13 Q1022 NOSIG",
      "taf": "TAF LBSF 282300Z 2900/2924 VRB04KT CAVOK"
    },
    {
      "icao": "LBWN",
      "alert": "OK",
      "vis_m": 9999,
      "fzfg": false,
      "metar_trigger": false,
      "taf_trigger": false,
      "metar": "METAR LBWN 290130Z AUTO VRB02KT 9999 NCD 18/14 Q1017 NOSIG",
      "taf": "TAF LBWN 282300Z 2900/2924 VRB03KT CAVOK"
    },
    {
      "icao": "LCLK",
      "alert": "OK",
      "vis_m": 9999,
      "fzfg": false,
      "metar_trigger": false,
      "taf_trigger": false,
      "metar": "METAR LCLK 290130Z 24004KT CAVOK 24/17 Q1008 NOSIG",
      "taf": "TAF LCLK 282330Z 2900/3000 28008KT CAVOK"
    },
    {
      "icao": "LCPH",
      "alert": "OK",
      "vis_m": 9999,
      "fzfg": false,
      "metar_trigger": false,
      "taf_trigger": false,
      "metar": "METAR LCPH 290130Z AUTO 05004KT 010V080 9999 NCD 22/11 Q1008 NOSIG",
      "taf": "TAF LCPH 282330Z 2900/3000 01007KT CAVOK"
    },
    {
      "icao": "LEAL",
      "alert": "OK",
      "vis_m": 9999,
      "fzfg": false,
      "metar_trigger": false,
      "taf_trigger": false,
      "metar": "METAR LEAL 290130Z 27005KT CAVOK 26/24 Q1018 NOSIG",
      "taf": "TAF LEAL 282300Z 2900/2924 VRB04KT 9999 FEW015 TX32/2912Z TN24/2906Z"
    },
    {
      "icao": "LEBB",
      "alert": "OK",
      "vis_m": 9999,
      "fzfg": false,
      "metar_trigger": false,
      "taf_trigger": false,
      "metar": "METAR LEBB 290130Z AUTO 28003KT 9999 -RA SCT015 BKN022 OVC034 21/20 Q1026",
      "taf": "TAF LEBB 282300Z 2900/2924 02007KT 9999 SCT020 BKN040 TX24/2915Z TN17/2924Z"
    },
    {
      "icao": "LEBL",
      "alert": "OK",
      "vis_m": 9999,
      "fzfg": false,
      "metar_trigger": false,
      "taf_trigger": false,
      "metar": "METAR LEBL 290130Z 36001KT 9999 FEW055TCU 28/19 Q1018 NOSIG",
      "taf": ""
    },
    {
      "icao": "LECH",
      "alert": "OK",
      "vis_m": 9999,
      "fzfg": false,
      "metar_trigger": false,
      "taf_trigger": false,
      "metar": "METAR LECH 290130Z AUTO 29002KT CAVOK 20/13 Q1021",
      "taf": "TAF LECH 282300Z 2900/2924 VRB04KT CAVOK TX34/2912Z TN19/2906Z"
    },
    {
      "icao": "LEMD",
      "alert": "OK",
      "vis_m": 9999,
      "fzfg": false,
      "metar_trigger": false,
      "taf_trigger": false,
      "metar": "METAR LEMD 290130Z 34003KT CAVOK 19/13 Q1023 NOSIG",
      "taf": "TAF LEMD 282300Z 2900/3006 04006KT CAVOK TX34/2916Z TN17/2905Z"
    },
    {
      "icao": "LEMG",
      "alert": "OK",
      "vis_m": 9999,
      "fzfg": false,
      "metar_trigger": false,
      "taf_trigger": false,
      "metar": "METAR LEMG 290130Z 15001KT CAVOK 22/20 Q1018 NOSIG",
      "taf": "TAF LEMG 282300Z 2900/2924 29003KT CAVOK TX31/2912Z TN22/2905Z"
    },
    {
      "icao": "LEVC",
      "alert": "OK",
      "vis_m": 9999,
      "fzfg": false,
      "metar_trigger": false,
      "taf_trigger": false,
      "metar": "METAR LEVC 290130Z 31007KT CAVOK 24/15 Q1019 NOSIG",
      "taf": "TAF LEVC 282300Z 2900/2924 31006KT CAVOK TX33/2912Z TN23/2906Z"
    },
    {
      "icao": "LEXJ",
      "alert": "OK",
      "vis_m": 3200,
      "fzfg": false,
      "metar_trigger": false,
      "taf_trigger": false,
      "metar": "METAR LEXJ 290130Z AUTO 24004KT 3200 -RA BR BKN019 BKN028 OVC035 18/18 Q1027",
      "taf": "TAF LEXJ 282000Z 2821/2921 04008KT 9999 BKN020 TX23/2914Z TN19/2905Z"
    },
    {
      "icao": "LEZG",
      "alert": "OK",
      "vis_m": 9999,
      "fzfg": false,
      "metar_trigger": false,
      "taf_trigger": false,
      "metar": "METAR LEZG 290130Z 29012KT 260V330 CAVOK 21/17 Q1023 NOSIG",
      "taf": "TAF LEZG 282300Z 2900/2924 29012KT CAVOK TX34/2915Z TN20/2906Z"
    },
    {
      "icao": "LEZL",
      "alert": "OK",
      "vis_m": 9999,
      "fzfg": false,
      "metar_trigger": false,
      "taf_trigger": false,
      "metar": "METAR LEZL 290130Z AUTO VRB02KT CAVOK 23/16 Q1018",
      "taf": "TAF LEZL 282000Z 2821/2921 22012KT CAVOK TX40/2915Z TN22/2905Z"
    },
    {
      "icao": "LFBD",
      "alert": "OK",
      "vis_m": 9999,
      "fzfg": false,
      "metar_trigger": false,
      "taf_trigger": false,
      "metar": "METAR LFBD 290130Z AUTO 34011KT CAVOK 21/17 Q1025 TEMPO SCT060TCU",
      "taf": "TAF LFBD 282300Z 2900/3006 34008KT 9999 SCT020 TX30/2914Z TN18/3004Z"
    },
    {
      "icao": "LFLL",
      "alert": "OK",
      "vis_m": 9999,
      "fzfg": false,
      "metar_trigger": false,
      "taf_trigger": false,
      "metar": "METAR LFLL 290130Z 29009KT 9999 FEW066CB BKN100 23/15 Q1023 NOSIG",
      "taf": "TAF LFLL 282300Z 2900/3006 36010KT CAVOK"
    },
    {
      "icao": "LFLS",
      "alert": "OK",
      "vis_m": 9999,
      "fzfg": false,
      "metar_trigger": false,
      "taf_trigger": false,
      "metar": "METAR LFLS 290130Z AUTO 33006KT CAVOK 21/14 Q1022",
      "taf": "TAF LFLS 281400Z 2815/2915 25008KT CAVOK"
    },
    {
      "icao": "LFMN",
      "alert": "OK",
      "vis_m": 9999,
      "fzfg": false,
      "metar_trigger": false,
      "taf_trigger": false,
      "metar": "METAR LFMN 290130Z 31003KT CAVOK 26/15 Q1017 NOSIG",
      "taf": "TAF LFMN 282000Z 2821/3003 08006KT CAVOK"
    },
    {
      "icao": "LFOB",
      "alert": "OK",
      "vis_m": 9999,
      "fzfg": false,
      "metar_trigger": false,
      "taf_trigger": false,
      "metar": "METAR LFOB 290130Z AUTO 31005KT 9999 ///TCU 14/12 Q1025 BECMG NSC",
      "taf": "TAF LFOB 282300Z 2900/2924 30008KT CAVOK"
    },
    {
      "icao": "LFPO",
      "alert": "OK",
      "vis_m": 9999,
      "fzfg": false,
      "metar_trigger": false,
      "taf_trigger": false,
      "metar": "METAR LFPO 290130Z AUTO 34013KT 9999 BKN041 BKN094 20/11 Q1024 NOSIG",
      "taf": "TAF LFPO 282300Z 2900/3006 01008KT CAVOK"
    },
    {
      "icao": "LFSB",
      "alert": "OK",
      "vis_m": 9999,
      "fzfg": false,
      "metar_trigger": false,
      "taf_trigger": false,
      "metar": "METAR LFSB 290130Z AUTO 22009KT CAVOK 22/19 Q1021 TEMPO 28015G35KT 3000 TSRA SCT070CB",
      "taf": "TAF LFSB 282300Z 2900/2924 20005KT CAVOK"
    },
    {
      "icao": "LGAV",
      "alert": "OK",
      "vis_m": 9999,
      "fzfg": false,
      "metar_trigger": false,
      "taf_trigger": false,
      "metar": "METAR LGAV 290120Z 01014KT CAVOK 23/14 Q1015 NOSIG",
      "taf": "TAF LGAV 282300Z 2900/2924 02016KT 9999 FEW025"
    },
    {
      "icao": "LGTS",
      "alert": "OK",
      "vis_m": 9999,
      "fzfg": false,
      "metar_trigger": false,
      "taf_trigger": false,
      "metar": "METAR LGTS 290120Z 10004KT CAVOK 21/13 Q1018 NOSIG",
      "taf": "TAF LGTS 282300Z 2900/2924 VRB03KT CAVOK"
    },
    {
      "icao": "LHBP",
      "alert": "OK",
      "vis_m": 9999,
      "fzfg": false,
      "metar_trigger": false,
      "taf_trigger": false,
      "metar": "METAR LHBP 290130Z 11002KT CAVOK 23/18 Q1018 NOSIG",
      "taf": "TAF LHBP 282315Z 2900/2924 09005KT CAVOK"
    },
    {
      "icao": "LHDC",
      "alert": "OK",
      "vis_m": 9999,
      "fzfg": false,
      "metar_trigger": false,
      "taf_trigger": false,
      "metar": "METAR LHDC 290115Z AUTO VRB02KT CAVOK 23/17 Q1019 NOSIG",
      "taf": "TAF LHDC 281715Z 2818/2903 VRB04KT CAVOK"
    },
    {
      "icao": "LIBD",
      "alert": "OK",
      "vis_m": 9999,
      "fzfg": false,
      "metar_trigger": false,
      "taf_trigger": false,
      "metar": "METAR LIBD 290120Z 22005KT CAVOK 23/15 Q1016",
      "taf": "TAF LIBD 282300Z 2900/2924 VRB05KT CAVOK"
    },
    {
      "icao": "LIBG",
      "alert": "OK",
      "vis_m": 9999,
      "fzfg": false,
      "metar_trigger": false,
      "taf_trigger": false,
      "metar": "METAR LIBG 290120Z AUTO 16001KT 9999 NCD 23/15 Q1015",
      "taf": "TAF LIBG 282300Z 2900/2924 VRB05KT CAVOK"
    },
    {
      "icao": "LIBP",
      "alert": "OK",
      "vis_m": 9999,
      "fzfg": false,
      "metar_trigger": false,
      "taf_trigger": false,
      "metar": "METAR LIBP 290120Z AUTO VRB01KT 9999 NCD 23/15 Q1016",
      "taf": "TAF LIBP 282300Z 2900/2924 VRB05KT CAVOK"
    },
    {
      "icao": "LIBR",
      "alert": "OK",
      "vis_m": 9999,
      "fzfg": false,
      "metar_trigger": false,
      "taf_trigger": false,
      "metar": "METAR LIBR 290120Z 30005KT CAVOK 25/22 Q1015",
      "taf": "TAF LIBR 282300Z 2900/2924 VRB05KT CAVOK"
    },
    {
      "icao": "LICA",
      "alert": "OK",
      "vis_m": 9999,
      "fzfg": false,
      "metar_trigger": false,
      "taf_trigger": false,
      "metar": "METAR LICA 290120Z AUTO 08003KT 9999 BKN015/// 24/23 Q1016",
      "taf": "TAF LICA 282300Z 2900/2924 VRB05KT 9999 SCT015"
    },
    {
      "icao": "LICC",
      "alert": "OK",
      "vis_m": 9999,
      "fzfg": false,
      "metar_trigger": false,
      "taf_trigger": false,
      "metar": "METAR LICC 290050Z 23005KT CAVOK 24/16 Q1015",
      "taf": "TAF LICC 282300Z 2900/2924 VRB05KT CAVOK"
    },
    {
      "icao": "LICJ",
      "alert": "OK",
      "vis_m": 9999,
      "fzfg": false,
      "metar_trigger": false,
      "taf_trigger": false,
      "metar": "METAR LICJ 290120Z VRB02KT CAVOK 26/25 Q1016",
      "taf": "TAF LICJ 282300Z 2900/2924 VRB05KT CAVOK"
    },
    {
      "icao": "LIMC",
      "alert": "OK",
      "vis_m": 9999,
      "fzfg": false,
      "metar_trigger": false,
      "taf_trigger": false,
      "metar": "METAR LIMC 290120Z 36008KT CAVOK 23/17 Q1018 NOSIG",
      "taf": "TAF LIMC 282300Z 2900/3006 01010KT CAVOK"
    },
    {
      "icao": "LIME",
      "alert": "OK",
      "vis_m": 9999,
      "fzfg": false,
      "metar_trigger": false,
      "taf_trigger": false,
      "metar": "METAR LIME 290120Z COR 03006KT 9999 -RA FEW040CB BKN080 22/19 Q1019 RETSRA",
      "taf": ""
    },
    {
      "icao": "LIMF",
      "alert": "OK",
      "vis_m": 9999,
      "fzfg": false,
      "metar_trigger": false,
      "taf_trigger": false,
      "metar": "METAR LIMF 290120Z 12003KT 080V150 9999 SCT140 23/19 Q1019",
      "taf": "TAF LIMF 282300Z 2900/2924 VRB05KT 9999 SCT030"
    },
    {
      "icao": "LIMJ",
      "alert": "OK",
      "vis_m": 9999,
      "fzfg": false,
      "metar_trigger": false,
      "taf_trigger": false,
      "metar": "METAR LIMJ 290120Z 03015KT CAVOK 29/17 Q1016",
      "taf": "TAF LIMJ 282300Z 2900/2924 VRB05KT CAVOK"
    },
    {
      "icao": "LIPE",
      "alert": "OK",
      "vis_m": 9999,
      "fzfg": false,
      "metar_trigger": false,
      "taf_trigger": false,
      "metar": "METAR LIPE 290120Z 23004KT 200V290 CAVOK 26/19 Q1016",
      "taf": "TAF LIPE 282300Z 2900/2924 VRB05KT CAVOK"
    },
    {
      "icao": "LIPH",
      "alert": "OK",
      "vis_m": 9999,
      "fzfg": false,
      "metar_trigger": false,
      "taf_trigger": false,
      "metar": "METAR LIPH 290120Z AUTO VRB02KT 9999 NCD 25/20 Q1016",
      "taf": "TAF LIPH 282300Z 2900/2924 VRB05KT 9999 SCT030"
    },
    {
      "icao": "LIPQ",
      "alert": "OK",
      "vis_m": 9999,
      "fzfg": false,
      "metar_trigger": false,
      "taf_trigger": false,
      "metar": "METAR LIPQ 290120Z AUTO VRB02KT 9999 SCT110/// 24/21 Q1016",
      "taf": "TAF LIPQ 282300Z 2900/2924 VRB05KT CAVOK"
    },
    {
      "icao": "LIPR",
      "alert": "OK",
      "vis_m": 9999,
      "fzfg": false,
      "metar_trigger": false,
      "taf_trigger": false,
      "metar": "METAR LIPR 290120Z AUTO 21002KT 9999 NCD 22/20 Q1016",
      "taf": "TAF LIPR 282300Z 2900/2924 VRB05KT CAVOK"
    },
    {
      "icao": "LIPX",
      "alert": "OK",
      "vis_m": 9999,
      "fzfg": false,
      "metar_trigger": false,
      "taf_trigger": false,
      "metar": "METAR LIPX 290120Z 28007KT 240V320 CAVOK 27/17 Q1017",
      "taf": "TAF LIPX 282300Z 2900/2924 VRB05KT CAVOK"
    },
    {
      "icao": "LIPY",
      "alert": "OK",
      "vis_m": 9999,
      "fzfg": false,
      "metar_trigger": false,
      "taf_trigger": false,
      "metar": "METAR LIPY 290120Z AUTO 18003KT 9999 NCD 23/21 Q1016",
      "taf": "TAF LIPY 282300Z 2900/2924 VRB05KT CAVOK"
    },
    {
      "icao": "LIPZ",
      "alert": "OK",
      "vis_m": 9999,
      "fzfg": false,
      "metar_trigger": false,
      "taf_trigger": false,
      "metar": "METAR LIPZ 290120Z 24005KT CAVOK 26/20 Q1016 NOSIG",
      "taf": "TAF LIPZ 282300Z 2900/3006 VRB05KT CAVOK"
    },
    {
      "icao": "LIRF",
      "alert": "OK",
      "vis_m": 9999,
      "fzfg": false,
      "metar_trigger": false,
      "taf_trigger": false,
      "metar": "METAR LIRF 290120Z 27003KT CAVOK 25/22 Q1016 NOSIG",
      "taf": "TAF LIRF 282300Z 2900/3006 31006KT CAVOK"
    },
    {
      "icao": "LIRN",
      "alert": "OK",
      "vis_m": 9999,
      "fzfg": false,
      "metar_trigger": false,
      "taf_trigger": false,
      "metar": "METAR LIRN 290120Z AUTO VRB02KT 9999 FEW098/// 26/19 Q1016",
      "taf": "TAF LIRN 282300Z 2900/2924 VRB05KT 9999 FEW080"
    },
    {
      "icao": "LIRP",
      "alert": "OK",
      "vis_m": 9999,
      "fzfg": false,
      "metar_trigger": false,
      "taf_trigger": false,
      "metar": "METAR LIRP 290115Z 20003KT CAVOK 24/23 Q1017 NOSIG",
      "taf": "TAF LIRP 282300Z 2900/2924 VRB03KT CAVOK"
    },
    {
      "icao": "LIRZ",
      "alert": "OK",
      "vis_m": 9999,
      "fzfg": false,
      "metar_trigger": false,
      "taf_trigger": false,
      "metar": "METAR LIRZ 290120Z AUTO 35004KT 9999 NCD 24/18 Q1018",
      "taf": "TAF LIRZ 282300Z 2900/2924 VRB05KT 9999 FEW080"
    },
    {
      "icao": "LJLJ",
      "alert": "OK",
      "vis_m": 9999,
      "fzfg": false,
      "metar_trigger": false,
      "taf_trigger": false,
      "metar": "METAR LJLJ 290130Z 33005KT CAVOK 20/18 Q1019 NOSIG",
      "taf": "TAF LJLJ 282300Z 2900/3000 32005KT 9999 FEW060"
    },
    {
      "icao": "LKMT",
      "alert": "OK",
      "vis_m": 9999,
      "fzfg": false,
      "metar_trigger": false,
      "taf_trigger": false,
      "metar": "METAR LKMT 290130Z 22006KT CAVOK 20/16 Q1018 NOSIG",
      "taf": "TAF LKMT 282300Z 2900/2924 23003KT CAVOK"
    },
    {
      "icao": "LKPR",
      "alert": "OK",
      "vis_m": 9999,
      "fzfg": false,
      "metar_trigger": false,
      "taf_trigger": false,
      "metar": "METAR LKPR 290130Z 31006KT CAVOK 25/18 Q1019 NOSIG",
      "taf": "TAF LKPR 282300Z 2900/3006 33008KT CAVOK"
    },
    {
      "icao": "LLBG",
      "alert": "OK",
      "vis_m": 9999,
      "fzfg": false,
      "metar_trigger": false,
      "taf_trigger": false,
      "metar": "METAR LLBG 290120Z 15004KT 9999 SCT017 25/22 Q1009 TEMPO BKN015",
      "taf": "TAF LLBG 282322Z 2900/2924 VRB04KT 9999 SCT017 TX33/2911Z TN23/2903Z"
    },
    {
      "icao": "LMML",
      "alert": "OK",
      "vis_m": 9999,
      "fzfg": false,
      "metar_trigger": false,
      "taf_trigger": false,
      "metar": "METAR LMML 290145Z VRB02KT CAVOK 26/18 Q1015 NOSIG",
      "taf": "TAF LMML 282300Z 2900/2924 VRB06KT CAVOK"
    },
    {
      "icao": "LOWW",
      "alert": "OK",
      "vis_m": 9999,
      "fzfg": false,
      "metar_trigger": false,
      "taf_trigger": false,
      "metar": "METAR LOWW 290120Z 21004KT 150V290 CAVOK 25/16 Q1018 NOSIG",
      "taf": "TAF LOWW 282315Z 2900/3006 18005KT CAVOK TX38/2913Z TN23/2903Z"
    },
    {
      "icao": "LPFR",
      "alert": "OK",
      "vis_m": 9999,
      "fzfg": false,
      "metar_trigger": false,
      "taf_trigger": false,
      "metar": "METAR LPFR 290130Z 36009KT CAVOK 24/14 Q1019",
      "taf": "TAF LPFR 282300Z 2900/2924 34010KT CAVOK"
    },
    {
      "icao": "LPMA",
      "alert": "OK",
      "vis_m": 9999,
      "fzfg": false,
      "metar_trigger": false,
      "taf_trigger": false,
      "metar": "METAR LPMA 290130Z 02015KT 350V050 9999 BKN015 22/18 Q1024",
      "taf": "TAF LPMA 282300Z 2900/2924 02015KT 9999 SCT015"
    },
    {
      "icao": "LPPR",
      "alert": "OK",
      "vis_m": 9999,
      "fzfg": false,
      "metar_trigger": false,
      "taf_trigger": false,
      "metar": "METAR LPPR 290130Z VRB01KT CAVOK 15/14 Q1022",
      "taf": "TAF LPPR 282300Z 2900/2924 VRB02KT CAVOK"
    },
    {
      "icao": "LPPS",
      "alert": "OK",
      "vis_m": 9999,
      "fzfg": false,
      "metar_trigger": false,
      "taf_trigger": false,
      "metar": "METAR LPPS 290130Z 04010KT 010V070 9999 FEW012 21/17 Q1024",
      "taf": "TAF LPPS 282300Z 2900/3006 03012KT 9999 SCT015"
    },
    {
      "icao": "LPPT",
      "alert": "OK",
      "vis_m": 9999,
      "fzfg": false,
      "metar_trigger": false,
      "taf_trigger": false,
      "metar": "METAR LPPT 290130Z 33008KT 300V020 CAVOK 18/14 Q1022",
      "taf": "TAF LPPT 282300Z 2900/3006 35015KT CAVOK"
    },
    {
      "icao": "LQBK",
      "alert": "OK",
      "vis_m": 9999,
      "fzfg": false,
      "metar_trigger": false,
      "taf_trigger": false,
      "metar": "METAR LQBK 290130Z 14002KT CAVOK 20/18 Q1017 NOSIG",
      "taf": "TAF LQBK 282300Z 2900/2924 06005KT CAVOK TX37/2913Z TN19/2903Z"
    },
    {
      "icao": "LQSA",
      "alert": "OK",
      "vis_m": 9999,
      "fzfg": false,
      "metar_trigger": false,
      "taf_trigger": false,
      "metar": "METAR LQSA 290130Z 00000KT CAVOK 19/16 Q1020",
      "taf": "TAF LQSA 282300Z 2900/2924 VRB02KT CAVOK TX36/2913Z TN18/2903Z"
    },
    {
      "icao": "LQTZ",
      "alert": "OK",
      "vis_m": 9999,
      "fzfg": false,
      "metar_trigger": false,
      "taf_trigger": false,
      "metar": "METAR LQTZ 290130Z 00000KT CAVOK 18/18 Q1018",
      "taf": "TAF LQTZ 282300Z 2900/2924 05007KT CAVOK TX38/2914Z TN18/2903Z"
    },
    {
      "icao": "LRBC",
      "alert": "OK",
      "vis_m": 9999,
      "fzfg": false,
      "metar_trigger": false,
      "taf_trigger": false,
      "metar": "METAR LRBC 290130Z 35002KT CAVOK 20/18 Q1019",
      "taf": "TAF LRBC 282300Z 2900/2909 VRB04KT CAVOK"
    },
    {
      "icao": "LRBS",
      "alert": "OK",
      "vis_m": 9999,
      "fzfg": false,
      "metar_trigger": false,
      "taf_trigger": false,
      "metar": "METAR LRBS 290130Z VRB02KT CAVOK 22/19 Q1018 NOSIG",
      "taf": "TAF LRBS 282300Z 2900/2924 VRB04KT CAVOK"
    },
    {
      "icao": "LRBV",
      "alert": "OK",
      "vis_m": 9999,
      "fzfg": false,
      "metar_trigger": false,
      "taf_trigger": false,
      "metar": "METAR LRBV 290130Z AUTO 23005KT 9999 NCD 17/15 Q1022",
      "taf": "TAF LRBV 281700Z 2818/2903 VRB04KT CAVOK"
    },
    {
      "icao": "LRCL",
      "alert": "OK",
      "vis_m": 9999,
      "fzfg": false,
      "metar_trigger": false,
      "taf_trigger": false,
      "metar": "METAR LRCL 290130Z 00000KT CAVOK 21/18 Q1020",
      "taf": "TAF LRCL 282300Z 2900/2909 VRB04KT CAVOK"
    },
    {
      "icao": "LRCV",
      "alert": "OK",
      "vis_m": 9999,
      "fzfg": false,
      "metar_trigger": false,
      "taf_trigger": false,
      "metar": "METAR LRCV 290130Z 32004KT CAVOK 20/19 Q1019",
      "taf": "TAF LRCV 282300Z 2900/2909 VRB04KT CAVOK"
    },
    {
      "icao": "LRIA",
      "alert": "OK",
      "vis_m": 9999,
      "fzfg": false,
      "metar_trigger": false,
      "taf_trigger": false,
      "metar": "METAR LRIA 290130Z 26003KT CAVOK 20/18 Q1018",
      "taf": "TAF LRIA 282300Z 2900/2909 VRB04KT CAVOK"
    },
    {
      "icao": "LROP",
      "alert": "OK",
      "vis_m": 9999,
      "fzfg": false,
      "metar_trigger": false,
      "taf_trigger": false,
      "metar": "METAR LROP 290130Z 27004KT CAVOK 22/20 Q1018 NOSIG",
      "taf": "TAF LROP 282300Z 2900/2924 VRB04KT CAVOK"
    },
    {
      "icao": "LRSB",
      "alert": "OK",
      "vis_m": 9999,
      "fzfg": false,
      "metar_trigger": false,
      "taf_trigger": false,
      "metar": "METAR LRSB 290130Z COR VRB01KT CAVOK 17/16 Q1021",
      "taf": "TAF LRSB 282300Z 2900/2924 VRB04KT CAVOK"
    },
    {
      "icao": "LRSM",
      "alert": "OK",
      "vis_m": 9999,
      "fzfg": false,
      "metar_trigger": false,
      "taf_trigger": false,
      "metar": "METAR LRSM 290130Z AUTO 11003KT 9999 NCD 20/17 Q1019",
      "taf": ""
    },
    {
      "icao": "LRSV",
      "alert": "OK",
      "vis_m": 9999,
      "fzfg": false,
      "metar_trigger": false,
      "taf_trigger": false,
      "metar": "METAR LRSV 290130Z 30006KT CAVOK 25/15 Q1020",
      "taf": "TAF LRSV 282300Z 2900/2909 VRB04KT CAVOK"
    },
    {
      "icao": "LRTM",
      "alert": "OK",
      "vis_m": 9999,
      "fzfg": false,
      "metar_trigger": false,
      "taf_trigger": false,
      "metar": "METAR LRTM 290130Z 08004KT CAVOK 19/18 Q1021",
      "taf": "TAF LRTM 282300Z 2900/2909 VRB04KT CAVOK"
    },
    {
      "icao": "LRTR",
      "alert": "OK",
      "vis_m": 9999,
      "fzfg": false,
      "metar_trigger": false,
      "taf_trigger": false,
      "metar": "METAR LRTR 290130Z 07004KT CAVOK 20/19 Q1019 NOSIG",
      "taf": "TAF LRTR 282300Z 2900/2924 VRB04KT CAVOK"
    },
    {
      "icao": "LTAC",
      "alert": "OK",
      "vis_m": 9999,
      "fzfg": false,
      "metar_trigger": false,
      "taf_trigger": false,
      "metar": "METAR LTAC 290120Z 05007KT CAVOK 13/08 Q1021 NOSIG RMK RWY21C 10004KT 060V120 RWY03L 05006KT RWY21R 05003KT 020V090 RWY03R 02006KT RWY21L 05006KT",
      "taf": "TAF LTAC 282240Z 2900/2924 04009KT CAVOK"
    },
    {
      "icao": "LTFM",
      "alert": "OK",
      "vis_m": 9999,
      "fzfg": false,
      "metar_trigger": false,
      "taf_trigger": false,
      "metar": "METAR LTFM 290120Z 03006KT CAVOK 22/20 Q1018 NOSIG RMK RWY17L 04006KT RWY34L 01006KT RWY16R 03006KT RWY36 03005KT RWY18 04006KT",
      "taf": "TAF LTFM 282240Z 2900/3006 05008KT CAVOK"
    },
    {
      "icao": "LUKK",
      "alert": "OK",
      "vis_m": 9999,
      "fzfg": false,
      "metar_trigger": false,
      "taf_trigger": false,
      "metar": "METAR LUKK 290130Z VRB02KT CAVOK 20/17 Q1018 NOSIG",
      "taf": "TAF LUKK 282301Z 2900/2924 VRB04KT CAVOK"
    },
    {
      "icao": "LWOH",
      "alert": "OK",
      "vis_m": null,
      "fzfg": false,
      "metar_trigger": false,
      "taf_trigger": false,
      "metar": "",
      "taf": "TAF LWOH 282330Z 2900/2924 33005KT CAVOK"
    },
    {
      "icao": "LWSK",
      "alert": "OK",
      "vis_m": 9999,
      "fzfg": false,
      "metar_trigger": false,
      "taf_trigger": false,
      "metar": "METAR LWSK 290150Z VRB02KT CAVOK 18/14 Q1020 NOSIG",
      "taf": "TAF LWSK 282330Z 2900/2924 VRB02KT CAVOK"
    },
    {
      "icao": "LYBE",
      "alert": "OK",
      "vis_m": 9999,
      "fzfg": false,
      "metar_trigger": false,
      "taf_trigger": false,
      "metar": "METAR LYBE 290130Z 01003KT CAVOK 20/17 Q1018 NOSIG",
      "taf": "TAF LYBE 282300Z 2900/2924 10005KT CAVOK TX38/2913Z TN22/2903Z"
    },
    {
      "icao": "LYNI",
      "alert": "OK",
      "vis_m": 9999,
      "fzfg": false,
      "metar_trigger": false,
      "taf_trigger": false,
      "metar": "METAR LYNI 290130Z 00000KT CAVOK 19/15 Q1019 NOSIG",
      "taf": "TAF LYNI 282300Z 2900/2924 09004KT CAVOK TX37/2914Z TN20/2903Z"
    },
    {
      "icao": "LYPG",
      "alert": "OK",
      "vis_m": 9999,
      "fzfg": false,
      "metar_trigger": false,
      "taf_trigger": false,
      "metar": "METAR LYPG 290130Z 32006KT CAVOK 27/16 Q1016 NOSIG",
      "taf": "TAF LYPG 282300Z 2900/2924 36006KT CAVOK TX38/2914Z TN25/2903Z"
    },
    {
      "icao": "LZIB",
      "alert": "OK",
      "vis_m": 9999,
      "fzfg": false,
      "metar_trigger": false,
      "taf_trigger": false,
      "metar": "METAR LZIB 290130Z 36003KT CAVOK 24/17 Q1018 NOSIG",
      "taf": "TAF LZIB 282315Z 2900/3000 VRB02KT CAVOK"
    },
    {
      "icao": "LZKZ",
      "alert": "OK",
      "vis_m": 9999,
      "fzfg": false,
      "metar_trigger": false,
      "taf_trigger": false,
      "metar": "METAR LZKZ 290130Z 35003KT CAVOK 23/16 Q1019 NOSIG",
      "taf": "TAF LZKZ 282315Z 2900/3000 35004KT CAVOK"
    },
    {
      "icao": "LZTT",
      "alert": "OK",
      "vis_m": 9999,
      "fzfg": false,
      "metar_trigger": false,
      "taf_trigger": false,
      "metar": "METAR LZTT 290130Z 30005KT CAVOK 18/15 Q1023",
      "taf": "TAF LZTT 282315Z 2900/3000 29004KT 9999 FEW066"
    },
    {
      "icao": "OEJN",
      "alert": "OK",
      "vis_m": 9999,
      "fzfg": false,
      "metar_trigger": false,
      "taf_trigger": false,
      "metar": "METAR OEJN 290100Z 32007KT CAVOK 32/11 Q1003 NOSIG",
      "taf": "TAF OEJN 282300Z 2900/3006 01010KT CAVOK"
    },
    {
      "icao": "OEMA",
      "alert": "OK",
      "vis_m": 9999,
      "fzfg": false,
      "metar_trigger": false,
      "taf_trigger": false,
      "metar": "METAR OEMA 290100Z VRB02KT CAVOK 31/M03 Q1010 NOSIG",
      "taf": "TAF OEMA 282300Z 2900/3006 35005KT CAVOK"
    },
    {
      "icao": "OJAI",
      "alert": "OK",
      "vis_m": 5000,
      "fzfg": false,
      "metar_trigger": false,
      "taf_trigger": false,
      "metar": "METAR OJAI 290100Z 27003KT 5000 HZ NSC 16/10 Q1013 NOSIG",
      "taf": "TAF OJAI 282300Z 2900/3006 29008KT 5000 HZ NSC"
    },
    {
      "icao": "OMAA",
      "alert": "OK",
      "vis_m": 9999,
      "fzfg": false,
      "metar_trigger": false,
      "taf_trigger": false,
      "metar": "METAR OMAA 290130Z 02004KT 270V040 CAVOK 31/25 Q0999 NOSIG",
      "taf": "TAF OMAA 282300Z 2900/3006 VRB02KT 8000 NSC"
    },
    {
      "icao": "OMDB",
      "alert": "OK",
      "vis_m": 9999,
      "fzfg": false,
      "metar_trigger": false,
      "taf_trigger": false,
      "metar": "METAR OMDB 290130Z VRB03KT CAVOK 33/24 Q0999 NOSIG",
      "taf": "TAF OMDB 282300Z 2900/3006 VRB02KT 8000 NSC"
    },
    {
      "icao": "UAAA",
      "alert": "OK",
      "vis_m": 9999,
      "fzfg": false,
      "metar_trigger": false,
      "taf_trigger": false,
      "metar": "METAR UAAA 290130Z 00000MPS 9999 NSC 26/12 Q1008 NOSIG",
      "taf": "TAF UAAA 282301Z 2900/2924 34003MPS 9999 SCT050CB BKN100 TX36/2910Z TN19/2901Z"
    },
    {
      "icao": "UBBB",
      "alert": "OK",
      "vis_m": 9999,
      "fzfg": false,
      "metar_trigger": false,
      "taf_trigger": false,
      "metar": "METAR UBBB 290130Z 21008KT CAVOK 21/14 Q1012 NOSIG",
      "taf": "TAF UBBB 282258Z 2900/2924 23010KT CAVOK TX26/2910Z TN20/2901Z"
    },
    {
      "icao": "UDSG",
      "alert": "OK",
      "vis_m": 9999,
      "fzfg": false,
      "metar_trigger": false,
      "taf_trigger": false,
      "metar": "METAR UDSG 290130Z 09001KT 9999 NSC 03/02 Q1022 NOSIG",
      "taf": "TAF UDSG 282258Z 2900/2924 36008KT 9999 FEW050"
    },
    {
      "icao": "UDYZ",
      "alert": "OK",
      "vis_m": 9999,
      "fzfg": false,
      "metar_trigger": false,
      "taf_trigger": false,
      "metar": "METAR UDYZ 290130Z 06004KT 020V120 9999 NSC 14/07 Q1017 NOSIG",
      "taf": "TAF UDYZ 282300Z 2900/2924 16006KT 9999 FEW050"
    },
    {
      "icao": "UGKO",
      "alert": "OK",
      "vis_m": 9999,
      "fzfg": false,
      "metar_trigger": false,
      "taf_trigger": false,
      "metar": "METAR UGKO 290130Z 07004KT 9999 SCT027 SCT087 17/16 Q1017 NOSIG",
      "taf": "TAF UGKO 282300Z 2900/2924 25007KT CAVOK TX25/2911Z TN16/2902Z"
    }
  ]
}