{
  "ts_utc": "2026-02-16T09:05:35Z",
  "threshold_m": 150,
  "source": "stations_override.txt (ICAO list) + aviationweather.gov (METAR/TAF raw)",
  "station_count": 159,
  "stations": [
    {
      "icao": "BIKF",
      "alert": "OK",
      "vis_m": 9999,
      "fzfg": false,
      "metar_trigger": false,
      "taf_trigger": false,
      "metar": "METAR BIKF 160900Z 01010KT CAVOK M05/M08 Q1010",
      "taf": "TAF BIKF 160800Z 1609/1709 04008KT CAVOK TXM01/1614Z TNM06/1609Z"
    },
    {
      "icao": "BKPR",
      "alert": "OK",
      "vis_m": 7000,
      "fzfg": false,
      "metar_trigger": false,
      "taf_trigger": false,
      "metar": "METAR BKPR 160900Z VRB02KT 7000 SCT020 BKN040 03/M00 Q1007 NOSIG",
      "taf": "TAF BKPR 160530Z 1606/1706 19006KT 9999 SCT040"
    },
    {
      "icao": "EBCI",
      "alert": "OK",
      "vis_m": 9999,
      "fzfg": false,
      "metar_trigger": false,
      "taf_trigger": false,
      "metar": "METAR EBCI 160850Z 22012KT 9999 FEW010 BKN020TCU BKN035 05/03 Q0996 TEMPO 3000 SHRA SCT008 BKN013TCU",
      "taf": "TAF EBCI 160500Z 1606/1712 24010KT 9999 FEW013 BKN025"
    },
    {
      "icao": "EDDB",
      "alert": "OK",
      "vis_m": 9999,
      "fzfg": false,
      "metar_trigger": false,
      "taf_trigger": false,
      "metar": "METAR EDDB 160850Z AUTO 11013KT 9999 BKN039 M04/M09 Q0999 BECMG BKN013",
      "taf": "TAF EDDB 160500Z 1606/1706 13011KT CAVOK"
    },
    {
      "icao": "EDDH",
      "alert": "OK",
      "vis_m": 6000,
      "fzfg": false,
      "metar_trigger": false,
      "taf_trigger": false,
      "metar": "METAR EDDH 160850Z AUTO 12013KT 6000 -SN SCT013 BKN031 BKN039 M04/M06 Q0995 TEMPO 4000 BKN012",
      "taf": "TAF EDDH 160500Z 1606/1712 12013KT 6000 BKN015"
    },
    {
      "icao": "EDDK",
      "alert": "OK",
      "vis_m": 9999,
      "fzfg": false,
      "metar_trigger": false,
      "taf_trigger": false,
      "metar": "METAR EDDK 160850Z AUTO 25009KT 9999 -SHRA SCT018 BKN023 OVC045 FEW///TCU 05/03 Q0995 RESHRA TEMPO SHRA",
      "taf": "TAF EDDK 160500Z 1606/1712 24008KT 9999 BKN012"
    },
    {
      "icao": "EDDN",
      "alert": "OK",
      "vis_m": 9999,
      "fzfg": false,
      "metar_trigger": false,
      "taf_trigger": false,
      "metar": "METAR EDDN 160850Z AUTO 23008KT 9999 -SHRA BKN012 FEW///CB 03/02 Q0997 BECMG SCT013 BKN025",
      "taf": "TAF EDDN 160500Z 1606/1706 14006KT 9999 FEW012 BKN025"
    },
    {
      "icao": "EDDS",
      "alert": "OK",
      "vis_m": 9999,
      "fzfg": false,
      "metar_trigger": false,
      "taf_trigger": false,
      "metar": "METAR EDDS 160850Z AUTO 26012KT 220V280 9999 -DZ SCT036 07/03 Q0999 NOSIG",
      "taf": "TAF EDDS 160500Z 1606/1706 24008KT 9999 BKN025"
    },
    {
      "icao": "EDFH",
      "alert": "OK",
      "vis_m": 9999,
      "fzfg": false,
      "metar_trigger": false,
      "taf_trigger": false,
      "metar": "METAR EDFH 160850Z 25012KT 9999 OVC007 03/02 Q0996",
      "taf": "TAF EDFH 160500Z 1606/1706 26013KT 6000 BKN005"
    },
    {
      "icao": "EDJA",
      "alert": "OK",
      "vis_m": 9999,
      "fzfg": false,
      "metar_trigger": false,
      "taf_trigger": false,
      "metar": "METAR EDJA 160850Z 23014G24KT 9999 FEW017 04/01 Q1000",
      "taf": "TAF EDJA 160800Z 1609/1618 23015G25KT 9999 FEW012 BKN035"
    },
    {
      "icao": "EDLW",
      "alert": "OK",
      "vis_m": 9999,
      "fzfg": false,
      "metar_trigger": false,
      "taf_trigger": false,
      "metar": "METAR EDLW 160850Z 23011KT 9999 R24///// -RA SCT007 SCT019 OVC025 04/03 Q0993",
      "taf": ""
    },
    {
      "icao": "EDNY",
      "alert": "OK",
      "vis_m": 9999,
      "fzfg": false,
      "metar_trigger": false,
      "taf_trigger": false,
      "metar": "METAR EDNY 160850Z 25010KT 9999 FEW011 BKN031 BKN053 05/03 Q1002",
      "taf": "TAF EDNY 160800Z 1609/1618 24010KT 9999 SCT015 BKN030"
    },
    {
      "icao": "EDSB",
      "alert": "OK",
      "vis_m": 9999,
      "fzfg": false,
      "metar_trigger": false,
      "taf_trigger": false,
      "metar": "METAR EDSB 160850Z 19014KT 9999 BKN029 BKN037 OVC044 07/03 Q1000",
      "taf": "TAF EDSB 160500Z 1606/1706 21011KT 9999 BKN020"
    },
    {
      "icao": "EETN",
      "alert": "OK",
      "vis_m": 9999,
      "fzfg": false,
      "metar_trigger": false,
      "taf_trigger": false,
      "metar": "METAR EETN 160850Z VRB01KT 9999 OVC018 M05/M08 Q1012 NOSIG",
      "taf": "TAF EETN 160530Z 1606/1706 VRB02KT 9999 BKN025"
    },
    {
      "icao": "EFTU",
      "alert": "OK",
      "vis_m": 9999,
      "fzfg": false,
      "metar_trigger": false,
      "taf_trigger": false,
      "metar": "METAR EFTU 160850Z AUTO 09003KT 070V130 9999 OVC004 M08/M09 Q1012",
      "taf": "TAF EFTU 160822Z 1609/1709 12004KT 9999 OVC006"
    },
    {
      "icao": "EGBB",
      "alert": "OK",
      "vis_m": 9999,
      "fzfg": false,
      "metar_trigger": false,
      "taf_trigger": false,
      "metar": "METAR EGBB 160850Z 24008KT 210V280 9999 SCT040 05/02 Q0994",
      "taf": "TAF EGBB 160458Z 1606/1706 23009KT 9999 SCT030"
    },
    {
      "icao": "EGGP",
      "alert": "OK",
      "vis_m": 9999,
      "fzfg": false,
      "metar_trigger": false,
      "taf_trigger": false,
      "metar": "METAR EGGP 160850Z 27018KT 9999 -RA FEW022 SCT027 BKN034 05/03 Q0993",
      "taf": "TAF EGGP 160454Z 1606/1706 26014KT 9999 SCT025"
    },
    {
      "icao": "EGGW",
      "alert": "OK",
      "vis_m": 9999,
      "fzfg": false,
      "metar_trigger": false,
      "taf_trigger": false,
      "metar": "METAR EGGW 160850Z AUTO 26016KT 9999 NCD 05/02 Q0995",
      "taf": "TAF EGGW 160454Z 1606/1706 25014KT 9999 FEW030"
    },
    {
      "icao": "EGKK",
      "alert": "OK",
      "vis_m": 9999,
      "fzfg": false,
      "metar_trigger": false,
      "taf_trigger": false,
      "metar": "METAR EGKK 160850Z 26010KT 9999 SCT020 06/04 Q0996",
      "taf": "TAF EGKK 160454Z 1606/1712 25010KT 9999 FEW040"
    },
    {
      "icao": "EGNM",
      "alert": "OK",
      "vis_m": 9999,
      "fzfg": false,
      "metar_trigger": false,
      "taf_trigger": false,
      "metar": "METAR EGNM 160850Z 27010KT 9999 -SHRA SCT012 BKN018 03/02 Q0990",
      "taf": "TAF EGNM 160453Z 1606/1706 28012KT 9999 SCT015"
    },
    {
      "icao": "EGPD",
      "alert": "OK",
      "vis_m": 9999,
      "fzfg": false,
      "metar_trigger": false,
      "taf_trigger": false,
      "metar": "METAR EGPD 160850Z COR AUTO VRB02KT 9999 SCT035 01/M01 Q0987 NOSIG",
      "taf": ""
    },
    {
      "icao": "EGPF",
      "alert": "OK",
      "vis_m": 9999,
      "fzfg": false,
      "metar_trigger": false,
      "taf_trigger": false,
      "metar": "METAR EGPF 160850Z AUTO 22006KT 9999 BKN026/// //////TCU 02/01 Q0989",
      "taf": "TAF EGPF 160456Z 1606/1706 26005KT 9999 FEW015 SCT025"
    },
    {
      "icao": "EHBK",
      "alert": "OK",
      "vis_m": 9999,
      "fzfg": false,
      "metar_trigger": false,
      "taf_trigger": false,
      "metar": "METAR EHBK 160855Z AUTO 23011KT 9999 FEW012 BKN014 OVC017 06/05 Q0995 TEMPO BKN016",
      "taf": ""
    },
    {
      "icao": "EHEH",
      "alert": "OK",
      "vis_m": 9999,
      "fzfg": false,
      "metar_trigger": false,
      "taf_trigger": false,
      "metar": "METAR EHEH 160855Z AUTO 23012KT 190V270 9999 FEW008 SCT009 OVC160 06/05 Q0994 BLU BECMG SCT012 BKN015 RMK TREND REMOTE BY EHWX",
      "taf": "TAF EHEH 160556Z 1606/1712 24008KT 6000 BKN006"
    },
    {
      "icao": "EKBI",
      "alert": "OK",
      "vis_m": 9999,
      "fzfg": false,
      "metar_trigger": false,
      "taf_trigger": false,
      "metar": "METAR EKBI 160854Z 11015KT 9999 -SN SCT016 BKN059 M04/M07 Q0996",
      "taf": "TAF EKBI 160827Z 1609/1709 13015KT 9999 -SN BKN018"
    },
    {
      "icao": "EKCH",
      "alert": "OK",
      "vis_m": 9999,
      "fzfg": false,
      "metar_trigger": false,
      "taf_trigger": false,
      "metar": "METAR EKCH 160850Z AUTO 12023KT 9999 NCD M03/M09 Q1002 TEMPO 12023G33KT",
      "taf": "TAF EKCH 160827Z 1609/1709 12020KT CAVOK"
    },
    {
      "icao": "ENAL",
      "alert": "OK",
      "vis_m": 9999,
      "fzfg": false,
      "metar_trigger": false,
      "taf_trigger": false,
      "metar": "METAR ENAL 160850Z 18011KT CAVOK 04/M09 Q0992",
      "taf": "TAF ENAL 160800Z 1609/1618 18012KT CAVOK"
    },
    {
      "icao": "ENBR",
      "alert": "OK",
      "vis_m": 9999,
      "fzfg": false,
      "metar_trigger": false,
      "taf_trigger": false,
      "metar": "METAR ENBR 160850Z 13015KT CAVOK 01/M10 Q0993 NOSIG RMK WIND 1200FT 13029KT",
      "taf": "TAF ENBR 160500Z 1606/1706 14012KT CAVOK"
    },
    {
      "icao": "ENGM",
      "alert": "OK",
      "vis_m": 9999,
      "fzfg": false,
      "metar_trigger": false,
      "taf_trigger": false,
      "metar": "METAR ENGM 160850Z 15010KT 9999 VCSH OVC020 M07/M10 Q1003 NOSIG",
      "taf": "TAF ENGM 160500Z 1606/1706 16008KT 9999 -SN BKN020"
    },
    {
      "icao": "ENHD",
      "alert": "OK",
      "vis_m": 9999,
      "fzfg": false,
      "metar_trigger": false,
      "taf_trigger": false,
      "metar": "METAR ENHD 160850Z 11018KT CAVOK 01/M07 Q0993",
      "taf": "TAF ENHD 160800Z 1609/1618 11020KT 9999 SCT040"
    },
    {
      "icao": "ENTC",
      "alert": "OK",
      "vis_m": 9999,
      "fzfg": false,
      "metar_trigger": false,
      "taf_trigger": false,
      "metar": "METAR ENTC 160850Z VRB02KT CAVOK M05/M07 Q0994 NOSIG RMK WIND 2600FT 17015KT",
      "taf": "TAF ENTC 160500Z 1606/1706 02006KT 9999 SCT015 BKN025"
    },
    {
      "icao": "ENTO",
      "alert": "OK",
      "vis_m": 9999,
      "fzfg": false,
      "metar_trigger": false,
      "taf_trigger": false,
      "metar": "METAR ENTO 160850Z 11006KT 070V140 9999 -SN BKN012 OVC018 M05/M08 Q1003 TEMPO BKN015",
      "taf": "TAF ENTO 160500Z 1606/1706 12007KT 9999 OVC018"
    },
    {
      "icao": "ENVA",
      "alert": "OK",
      "vis_m": 9999,
      "fzfg": false,
      "metar_trigger": false,
      "taf_trigger": false,
      "metar": "METAR ENVA 160850Z 15015KT CAVOK M01/M10 Q0995 NOSIG RMK WIND 670FT 16023G33KT",
      "taf": "TAF ENVA 160500Z 1606/1706 14009KT CAVOK"
    },
    {
      "icao": "ENZV",
      "alert": "OK",
      "vis_m": 9999,
      "fzfg": false,
      "metar_trigger": false,
      "taf_trigger": false,
      "metar": "METAR ENZV 160850Z 13019G30KT CAVOK 01/M07 Q0993 TEMPO 13020G30KT",
      "taf": "TAF ENZV 160500Z 1606/1706 14015KT 9999 SCT035"
    },
    {
      "icao": "EPGD",
      "alert": "OK",
      "vis_m": 9999,
      "fzfg": false,
      "metar_trigger": false,
      "taf_trigger": false,
      "metar": "METAR EPGD 160900Z 11013KT CAVOK M12/M20 Q1008",
      "taf": "TAF EPGD 160530Z 1606/1706 11012KT CAVOK"
    },
    {
      "icao": "EPKK",
      "alert": "OK",
      "vis_m": 9999,
      "fzfg": false,
      "metar_trigger": false,
      "taf_trigger": false,
      "metar": "METAR EPKK 160900Z 08011KT 9999 BKN011 M07/M10 Q1004",
      "taf": "TAF EPKK 160830Z 1609/1709 08012KT 9999 OVC011"
    },
    {
      "icao": "EPKT",
      "alert": "OK",
      "vis_m": 9999,
      "fzfg": false,
      "metar_trigger": false,
      "taf_trigger": false,
      "metar": "METAR EPKT 160900Z 11011KT 9999 FEW013 M07/M10 Q1003",
      "taf": "TAF EPKT 160530Z 1606/1706 10010KT 9999 -SN BKN005"
    },
    {
      "icao": "EPLB",
      "alert": "OK",
      "vis_m": 9999,
      "fzfg": false,
      "metar_trigger": false,
      "taf_trigger": false,
      "metar": "METAR EPLB 160900Z 07003KT CAVOK M13/M15 Q1008",
      "taf": "TAF EPLB 160530Z 1606/1706 10010KT CAVOK"
    },
    {
      "icao": "EPMO",
      "alert": "OK",
      "vis_m": 9999,
      "fzfg": false,
      "metar_trigger": false,
      "taf_trigger": false,
      "metar": "METAR EPMO 160900Z 07010KT CAVOK M11/M14 Q1008",
      "taf": "TAF EPMO 160530Z 1606/1706 09010KT CAVOK"
    },
    {
      "icao": "EPPO",
      "alert": "OK",
      "vis_m": 9999,
      "fzfg": false,
      "metar_trigger": false,
      "taf_trigger": false,
      "metar": "METAR EPPO 160900Z 11016KT CAVOK M07/M11 Q1003",
      "taf": "TAF EPPO 160530Z 1606/1706 11010KT CAVOK"
    },
    {
      "icao": "EPRA",
      "alert": "OK",
      "vis_m": 9999,
      "fzfg": false,
      "metar_trigger": false,
      "taf_trigger": false,
      "metar": "METAR EPRA 160900Z 14007KT CAVOK M10/M14 Q1007",
      "taf": "TAF EPRA 160830Z 1609/1618 13008KT CAVOK"
    },
    {
      "icao": "EPRZ",
      "alert": "OK",
      "vis_m": 9999,
      "fzfg": false,
      "metar_trigger": false,
      "taf_trigger": false,
      "metar": "METAR EPRZ 160900Z 07007KT 9999 SCT006 OVC011 M08/M11 Q1006",
      "taf": ""
    },
    {
      "icao": "EPSC",
      "alert": "OK",
      "vis_m": 9999,
      "fzfg": false,
      "metar_trigger": false,
      "taf_trigger": false,
      "metar": "METAR EPSC 160900Z 11014KT CAVOK M06/M12 Q1002",
      "taf": "TAF EPSC 160530Z 1606/1706 13015KT CAVOK"
    },
    {
      "icao": "EPSY",
      "alert": "OK",
      "vis_m": 9999,
      "fzfg": false,
      "metar_trigger": false,
      "taf_trigger": false,
      "metar": "METAR EPSY 160900Z 09007KT 030V160 CAVOK M11/M18 Q1009",
      "taf": "TAF EPSY 160830Z 1609/1618 07006KT CAVOK"
    },
    {
      "icao": "EPWA",
      "alert": "OK",
      "vis_m": 9999,
      "fzfg": false,
      "metar_trigger": false,
      "taf_trigger": false,
      "metar": "METAR EPWA 160900Z 10006KT CAVOK M10/M15 Q1008 NOSIG",
      "taf": "TAF EPWA 160830Z 1609/1709 10010KT CAVOK"
    },
    {
      "icao": "EPWR",
      "alert": "OK",
      "vis_m": 9999,
      "fzfg": false,
      "metar_trigger": false,
      "taf_trigger": false,
      "metar": "METAR EPWR 160900Z 13018KT 9999 FEW011 BKN018 M05/M09 Q1002",
      "taf": "TAF EPWR 160830Z 1609/1709 14015KT 9999 BKN020"
    },
    {
      "icao": "ESGG",
      "alert": "OK",
      "vis_m": 9999,
      "fzfg": false,
      "metar_trigger": false,
      "taf_trigger": false,
      "metar": "METAR ESGG 160850Z 13014KT CAVOK M05/M12 Q1002",
      "taf": "TAF ESGG 160830Z 1609/1709 15014G25KT CAVOK"
    },
    {
      "icao": "ESKN",
      "alert": "OK",
      "vis_m": 9999,
      "fzfg": false,
      "metar_trigger": false,
      "taf_trigger": false,
      "metar": "METAR ESKN 160850Z 13004KT CAVOK M08/M09 Q1010",
      "taf": "TAF ESKN 160830Z 1609/1709 VRB03KT CAVOK"
    },
    {
      "icao": "ESMS",
      "alert": "OK",
      "vis_m": 9999,
      "fzfg": false,
      "metar_trigger": false,
      "taf_trigger": false,
      "metar": "METAR ESMS 160850Z 12014KT CAVOK M04/M11 Q1002",
      "taf": "TAF ESMS 160827Z 1609/1709 13015KT CAVOK"
    },
    {
      "icao": "ESSA",
      "alert": "OK",
      "vis_m": 9999,
      "fzfg": false,
      "metar_trigger": false,
      "taf_trigger": false,
      "metar": "METAR ESSA 160850Z 14003KT CAVOK M08/M11 Q1010 NOSIG",
      "taf": "TAF ESSA 160830Z 1609/1709 16005KT CAVOK"
    },
    {
      "icao": "EYKA",
      "alert": "OK",
      "vis_m": 9000,
      "fzfg": false,
      "metar_trigger": false,
      "taf_trigger": false,
      "metar": "METAR EYKA 160850Z 00000KT 9000 NSC M11/M16 Q1012",
      "taf": "TAF EYKA 160501Z 1606/1706 VRB04KT 9000 NSC"
    },
    {
      "icao": "EYPA",
      "alert": "OK",
      "vis_m": 9999,
      "fzfg": false,
      "metar_trigger": false,
      "taf_trigger": false,
      "metar": "METAR EYPA 160850Z 10005KT 9999 OVC028 M12/M16 Q1013",
      "taf": "TAF EYPA 160500Z 1606/1706 VRB04KT 9000 NSC"
    },
    {
      "icao": "EYVI",
      "alert": "OK",
      "vis_m": 9999,
      "fzfg": false,
      "metar_trigger": false,
      "taf_trigger": false,
      "metar": "METAR EYVI 160850Z 03007KT CAVOK M13/M20 Q1010 NOSIG",
      "taf": "TAF EYVI 160500Z 1606/1706 02008KT 8000 SCT020"
    },
    {
      "icao": "GCFV",
      "alert": "OK",
      "vis_m": 9999,
      "fzfg": false,
      "metar_trigger": false,
      "taf_trigger": false,
      "metar": "METAR GCFV 160900Z 32006KT 280V340 9999 FEW010 BKN030 17/15 Q1029",
      "taf": "TAF GCFV 160800Z 1609/1709 07010KT 7000 NSC TX25/1614Z TN17/1706Z"
    },
    {
      "icao": "GCLP",
      "alert": "OK",
      "vis_m": 8000,
      "fzfg": false,
      "metar_trigger": false,
      "taf_trigger": false,
      "metar": "METAR GCLP 160900Z 21005KT 8000 NSC 20/11 Q1028 NOSIG",
      "taf": "TAF GCLP 160800Z 1609/1709 16008KT 7000 NSC TX26/1614Z TN16/1706Z"
    },
    {
      "icao": "GCTS",
      "alert": "OK",
      "vis_m": 9000,
      "fzfg": false,
      "metar_trigger": false,
      "taf_trigger": false,
      "metar": "METAR GCTS 160900Z 08011KT 050V110 9000 FEW050 20/06 Q1027 NOSIG",
      "taf": "TAF GCTS 160800Z 1609/1709 09014KT 7000 NSC TX27/1614Z TN18/1706Z"
    },
    {
      "icao": "GMAD",
      "alert": "OK",
      "vis_m": 9999,
      "fzfg": false,
      "metar_trigger": false,
      "taf_trigger": false,
      "metar": "METAR GMAD 160900Z 07007KT CAVOK 14/09 Q1028 NOSIG",
      "taf": "TAF GMAD 160500Z 1606/1712 06008KT CAVOK"
    },
    {
      "icao": "GMMN",
      "alert": "OK",
      "vis_m": 9999,
      "fzfg": false,
      "metar_trigger": false,
      "taf_trigger": false,
      "metar": "METAR GMMN 160900Z 05010KT CAVOK 11/09 Q1032 NOSIG",
      "taf": "TAF GMMN 160500Z 1606/1712 06008KT CAVOK"
    },
    {
      "icao": "GMMX",
      "alert": "OK",
      "vis_m": 9999,
      "fzfg": false,
      "metar_trigger": false,
      "taf_trigger": false,
      "metar": "METAR GMMX 160900Z 09005KT CAVOK 12/07 Q1030 NOSIG",
      "taf": "TAF GMMX 160500Z 1606/1712 06006KT 8000 NSC"
    },
    {
      "icao": "HEGN",
      "alert": "OK",
      "vis_m": 9999,
      "fzfg": false,
      "metar_trigger": false,
      "taf_trigger": false,
      "metar": "METAR HEGN 160800Z 00000KT CAVOK 28/M03 Q1015 NOSIG",
      "taf": "TAF HEGN 160500Z 1606/1712 27008KT 6000 NSC"
    },
    {
      "icao": "HEMA",
      "alert": "OK",
      "vis_m": 9999,
      "fzfg": false,
      "metar_trigger": false,
      "taf_trigger": false,
      "metar": "METAR HEMA 160800Z 35007KT CAVOK 29/M04 Q1014 NOSIG",
      "taf": "TAF HEMA 160500Z 1606/1712 26008KT 6000 NSC"
    },
    {
      "icao": "HESH",
      "alert": "OK",
      "vis_m": 8000,
      "fzfg": false,
      "metar_trigger": false,
      "taf_trigger": false,
      "metar": "METAR HESH 160800Z 36009KT 8000 NSC 29/M01 Q1015 NOSIG",
      "taf": "TAF HESH 160500Z 1606/1712 31008KT 6000 NSC"
    },
    {
      "icao": "HESX",
      "alert": "OK",
      "vis_m": 9999,
      "fzfg": false,
      "metar_trigger": false,
      "taf_trigger": false,
      "metar": "METAR HESX 160800Z 21008KT CAVOK 24/M06 Q1014 NOSIG",
      "taf": "TAF HESX 160500Z 1606/1712 18007KT 6000 NSC"
    },
    {
      "icao": "LATI",
      "alert": "OK",
      "vis_m": 9999,
      "fzfg": false,
      "metar_trigger": false,
      "taf_trigger": false,
      "metar": "METAR LATI 160850Z 16007KT 9999 FEW045 SCT080 12/06 Q1008 NOSIG",
      "taf": "TAF LATI 160500Z 1606/1706 VRB05KT 9999 BKN040 TX13/1612Z TN08/1606Z"
    },
    {
      "icao": "LBPD",
      "alert": "OK",
      "vis_m": 9999,
      "fzfg": false,
      "metar_trigger": false,
      "taf_trigger": false,
      "metar": "METAR LBPD 160900Z AUTO 25004KT 220V290 9999 FEW100/// 08/04 Q1006 NOSIG",
      "taf": "TAF LBPD 160500Z 1606/1706 29010KT 9999 BKN040"
    },
    {
      "icao": "LBSF",
      "alert": "OK",
      "vis_m": 9999,
      "fzfg": false,
      "metar_trigger": false,
      "taf_trigger": false,
      "metar": "METAR LBSF 160900Z 31003KT 270V360 9999 SCT015 BKN020 02/M01 Q1007 NOSIG",
      "taf": "TAF LBSF 160500Z 1606/1706 29010KT 9999 BKN040"
    },
    {
      "icao": "LBWN",
      "alert": "OK",
      "vis_m": 9999,
      "fzfg": false,
      "metar_trigger": false,
      "taf_trigger": false,
      "metar": "METAR LBWN 160900Z 30011KT 9999 SCT048 06/00 Q1008 NOSIG",
      "taf": "TAF LBWN 160500Z 1606/1706 30010KT 9999 SCT045"
    },
    {
      "icao": "LCLK",
      "alert": "OK",
      "vis_m": 7000,
      "fzfg": false,
      "metar_trigger": false,
      "taf_trigger": false,
      "metar": "METAR LCLK 160900Z 06011KT 7000 FEW050 22/17 Q1015 BECMG 5000 DU",
      "taf": "TAF LCLK 160530Z 1606/1706 35007KT 9999 FEW025"
    },
    {
      "icao": "LCPH",
      "alert": "OK",
      "vis_m": 6000,
      "fzfg": false,
      "metar_trigger": false,
      "taf_trigger": false,
      "metar": "METAR LCPH 160900Z 12014KT 090V160 6000 NSC 22/08 Q1013 BECMG 5000 DU",
      "taf": "TAF LCPH 160530Z 1606/1706 08009KT 9999 FEW020"
    },
    {
      "icao": "LEAL",
      "alert": "OK",
      "vis_m": 9999,
      "fzfg": false,
      "metar_trigger": false,
      "taf_trigger": false,
      "metar": "METAR LEAL 160900Z 29013KT 260V320 9999 FEW030 16/06 Q1022 NOSIG",
      "taf": "TAF LEAL 160500Z 1606/1706 29012KT CAVOK TX22/1613Z TN13/1606Z"
    },
    {
      "icao": "LEBB",
      "alert": "OK",
      "vis_m": 3500,
      "fzfg": false,
      "metar_trigger": false,
      "taf_trigger": false,
      "metar": "METAR LEBB 160900Z 22006KT 140V290 3500 RA FEW011 OVC018 12/11 Q1019 NOSIG",
      "taf": "TAF LEBB 160500Z 1606/1706 20008KT 9999 FEW015 BKN025 TX14/1609Z TN10/1706Z"
    },
    {
      "icao": "LEBL",
      "alert": "OK",
      "vis_m": 9999,
      "fzfg": false,
      "metar_trigger": false,
      "taf_trigger": false,
      "metar": "METAR LEBL 160900Z 25015KT 9999 FEW035 16/09 Q1014 NOSIG",
      "taf": "TAF LEBL 160500Z 1606/1706 23012KT 9999 FEW035 TX21/1613Z TN13/1606Z"
    },
    {
      "icao": "LECH",
      "alert": "OK",
      "vis_m": 9000,
      "fzfg": false,
      "metar_trigger": false,
      "taf_trigger": false,
      "metar": "METAR LECH 160900Z AUTO 24004KT 9000 NCD 13/05 Q1018",
      "taf": ""
    },
    {
      "icao": "LEMD",
      "alert": "OK",
      "vis_m": 9999,
      "fzfg": false,
      "metar_trigger": false,
      "taf_trigger": false,
      "metar": "METAR LEMD 160900Z 23016KT 9999 FEW075 09/07 Q1024 NOSIG",
      "taf": ""
    },
    {
      "icao": "LEMG",
      "alert": "OK",
      "vis_m": 9999,
      "fzfg": false,
      "metar_trigger": false,
      "taf_trigger": false,
      "metar": "METAR LEMG 160900Z 31020G30KT 9999 FEW040 14/07 Q1029 NOSIG",
      "taf": "TAF LEMG 160500Z 1606/1706 30012KT 9999 SCT040 TX19/1614Z TN12/1607Z"
    },
    {
      "icao": "LEVC",
      "alert": "OK",
      "vis_m": 9999,
      "fzfg": false,
      "metar_trigger": false,
      "taf_trigger": false,
      "metar": "METAR LEVC 160900Z 26021KT 230V290 CAVOK 15/06 Q1020 NOSIG",
      "taf": "TAF LEVC 160500Z 1606/1706 27014KT CAVOK TX23/1614Z TN13/1606Z"
    },
    {
      "icao": "LEXJ",
      "alert": "OK",
      "vis_m": 1400,
      "fzfg": false,
      "metar_trigger": false,
      "taf_trigger": false,
      "metar": "METAR LEXJ 160900Z 24009KT 210V270 1400 R29/1900N R11/P2000 RA OVC009 12/11 Q1019",
      "taf": "TAF LEXJ 160800Z 1609/1709 24009KT 9999 SCT005 BKN016 TX14/1613Z TN11/1706Z"
    },
    {
      "icao": "LEZG",
      "alert": "OK",
      "vis_m": 9999,
      "fzfg": false,
      "metar_trigger": false,
      "taf_trigger": false,
      "metar": "METAR LEZG 160900Z 27020KT 9999 FEW060 15/07 Q1018 NOSIG",
      "taf": "TAF LEZG 160500Z 1606/1706 27012KT CAVOK TX17/1612Z TN11/1606Z"
    },
    {
      "icao": "LEZL",
      "alert": "OK",
      "vis_m": 9999,
      "fzfg": false,
      "metar_trigger": false,
      "taf_trigger": false,
      "metar": "METAR LEZL 160900Z 26006KT 9999 OVC035 14/11 Q1032 NOSIG",
      "taf": "TAF LEZL 160800Z 1609/1709 27006KT 9999 SCT040 TX19/1615Z TN08/1707Z"
    },
    {
      "icao": "LFBD",
      "alert": "OK",
      "vis_m": 9999,
      "fzfg": false,
      "metar_trigger": false,
      "taf_trigger": false,
      "metar": "METAR LFBD 160900Z AUTO 29015KT 9999 BKN019 BKN140 BKN170 13/10 Q1013 TEMPO 29020G30KT 4000 SHRA BKN006 BKN015TCU",
      "taf": "TAF LFBD 160500Z 1606/1712 27015KT 9999 BKN012 TX14/1614Z TN12/1621Z"
    },
    {
      "icao": "LFLL",
      "alert": "OK",
      "vis_m": 9999,
      "fzfg": false,
      "metar_trigger": false,
      "taf_trigger": false,
      "metar": "METAR LFLL 160900Z 15007KT 9999 -RA FEW033 BKN040 07/06 Q1008 NOSIG",
      "taf": "TAF LFLL 160500Z 1606/1712 20010KT 9999 BKN040"
    },
    {
      "icao": "LFLS",
      "alert": "OK",
      "vis_m": 9999,
      "fzfg": false,
      "metar_trigger": false,
      "taf_trigger": false,
      "metar": "METAR LFLS 160900Z AUTO 09006KT 9999 -RA BKN019 BKN024 OVC030 06/06 Q1008 TEMPO VRB15G25KT 3000 RA BECMG FEW025TCU BKN050",
      "taf": "TAF LFLS 160800Z 1609/1709 VRB05KT 9000 -RA SCT015 OVC040"
    },
    {
      "icao": "LFMN",
      "alert": "OK",
      "vis_m": 9999,
      "fzfg": false,
      "metar_trigger": false,
      "taf_trigger": false,
      "metar": "METAR LFMN 160900Z 30022KT CAVOK 17/03 Q1003 NOSIG",
      "taf": "TAF LFMN 160800Z 1609/1715 26020KT CAVOK"
    },
    {
      "icao": "LFOB",
      "alert": "OK",
      "vis_m": 9999,
      "fzfg": false,
      "metar_trigger": false,
      "taf_trigger": false,
      "metar": "METAR LFOB 160900Z AUTO 25013KT 9999 FEW017 SCT120 BKN140 07/05 Q0999 TEMPO VRB25G45KT 1500 TSRAGS BKN008 BKN012CB",
      "taf": "TAF LFOB 160500Z 1606/1706 24010G20KT 9999 BKN030"
    },
    {
      "icao": "LFPO",
      "alert": "OK",
      "vis_m": 9999,
      "fzfg": false,
      "metar_trigger": false,
      "taf_trigger": false,
      "metar": "METAR LFPO 160900Z 27018KT 9999 -SHRA FEW025CB FEW025 BKN083 08/04 Q1001 TEMPO 27015G30KT 4000 -SHRA",
      "taf": "TAF LFPO 160500Z 1606/1712 26010KT CAVOK"
    },
    {
      "icao": "LFSB",
      "alert": "OK",
      "vis_m": 9999,
      "fzfg": false,
      "metar_trigger": false,
      "taf_trigger": false,
      "metar": "METAR LFSB 160900Z AUTO 28017KT 250V310 9999 -RA SCT037 BKN050 BKN064 08/03 Q1003 TEMPO 4500 SHRA FEW025CB BECMG 25015G25KT",
      "taf": "TAF LFSB 160500Z 1606/1706 25015G25KT 9999 FEW030 BKN045"
    },
    {
      "icao": "LGAV",
      "alert": "OK",
      "vis_m": 9999,
      "fzfg": false,
      "metar_trigger": false,
      "taf_trigger": false,
      "metar": "METAR LGAV 160850Z 20018KT 9999 SCT018 17/12 Q1007 NOSIG",
      "taf": "TAF LGAV 160500Z 1606/1706 24010KT 9999 FEW018 SCT025"
    },
    {
      "icao": "LGTS",
      "alert": "OK",
      "vis_m": 9999,
      "fzfg": false,
      "metar_trigger": false,
      "taf_trigger": false,
      "metar": "METAR LGTS 160850Z 27003KT 9999 FEW025 13/09 Q1006 NOSIG",
      "taf": "TAF LGTS 160500Z 1606/1706 VRB03KT 9999 FEW025"
    },
    {
      "icao": "LHBP",
      "alert": "OK",
      "vis_m": 9999,
      "fzfg": false,
      "metar_trigger": false,
      "taf_trigger": false,
      "metar": "METAR LHBP 160900Z 13006KT 9999 SCT044 BKN060 M03/M07 Q1006 NOSIG",
      "taf": "TAF LHBP 160515Z 1606/1706 12005KT CAVOK"
    },
    {
      "icao": "LHDC",
      "alert": "OK",
      "vis_m": 9999,
      "fzfg": false,
      "metar_trigger": false,
      "taf_trigger": false,
      "metar": "METAR LHDC 160845Z AUTO 10004KT 060V160 CAVOK M02/M07 Q1008 NOSIG",
      "taf": "TAF LHDC 160815Z 1609/1618 10006KT CAVOK"
    },
    {
      "icao": "LIBD",
      "alert": "OK",
      "vis_m": 7000,
      "fzfg": false,
      "metar_trigger": false,
      "taf_trigger": false,
      "metar": "METAR LIBD 160850Z 17002KT 7000 FEW045 11/07 Q1008",
      "taf": "TAF LIBD 160500Z 1606/1706 VRB05KT 9999 SCT030"
    },
    {
      "icao": "LIBG",
      "alert": "OK",
      "vis_m": 9999,
      "fzfg": false,
      "metar_trigger": false,
      "taf_trigger": false,
      "metar": "METAR LIBG 160850Z VRB01KT 9999 FEW025 11/06 Q1009",
      "taf": "TAF LIBG 160800Z 1609/1618 VRB05KT 9999 FEW020"
    },
    {
      "icao": "LIBP",
      "alert": "OK",
      "vis_m": 9999,
      "fzfg": false,
      "metar_trigger": false,
      "taf_trigger": false,
      "metar": "METAR LIBP 160850Z AUTO 07003KT 030V120 9999 SCT240/// 10/06 Q1006",
      "taf": "TAF LIBP 160500Z 1606/1706 VRB05KT 9999 FEW030 SCT060"
    },
    {
      "icao": "LIBR",
      "alert": "OK",
      "vis_m": 9999,
      "fzfg": false,
      "metar_trigger": false,
      "taf_trigger": false,
      "metar": "METAR LIBR 160850Z 27005KT 250V310 CAVOK 11/06 Q1009",
      "taf": "TAF LIBR 160500Z 1606/1706 29013KT 9999 SCT030"
    },
    {
      "icao": "LICA",
      "alert": "OK",
      "vis_m": 9999,
      "fzfg": false,
      "metar_trigger": false,
      "taf_trigger": false,
      "metar": "METAR LICA 160850Z AUTO 26019KT 9999 FEW020/// BKN025/// 14/10 Q1010",
      "taf": "TAF LICA 160500Z 1606/1706 28015KT 9999 FEW030"
    },
    {
      "icao": "LICC",
      "alert": "OK",
      "vis_m": 9999,
      "fzfg": false,
      "metar_trigger": false,
      "taf_trigger": false,
      "metar": "METAR LICC 160850Z 25015KT CAVOK 14/11 Q1011",
      "taf": "TAF LICC 160500Z 1606/1706 27016KT 9999 SCT020"
    },
    {
      "icao": "LICJ",
      "alert": "OK",
      "vis_m": 9999,
      "fzfg": false,
      "metar_trigger": false,
      "taf_trigger": false,
      "metar": "METAR LICJ 160850Z 26019KT 9999 SCT020 15/11 Q1012",
      "taf": "TAF LICJ 160500Z 1606/1706 28017KT 9999 SCT030"
    },
    {
      "icao": "LIMC",
      "alert": "OK",
      "vis_m": 9999,
      "fzfg": false,
      "metar_trigger": false,
      "taf_trigger": false,
      "metar": "METAR LIMC 160850Z 09006KT CAVOK 08/02 Q1003 NOSIG",
      "taf": "TAF LIMC 160500Z 1606/1712 VRB05KT CAVOK"
    },
    {
      "icao": "LIME",
      "alert": "OK",
      "vis_m": 9999,
      "fzfg": false,
      "metar_trigger": false,
      "taf_trigger": false,
      "metar": "METAR LIME 160850Z AUTO VRB02KT 9999 SCT046/// 08/02 Q1003",
      "taf": "TAF LIME 160500Z 1606/1706 VRB05KT CAVOK"
    },
    {
      "icao": "LIMF",
      "alert": "OK",
      "vis_m": null,
      "fzfg": false,
      "metar_trigger": false,
      "taf_trigger": false,
      "metar": "METAR LIMF 160850Z AUTO VRB01KT //// // BKN100/// 07/01 Q1003",
      "taf": "TAF LIMF 160500Z 1606/1706 VRB05KT CAVOK"
    },
    {
      "icao": "LIMJ",
      "alert": "OK",
      "vis_m": 9999,
      "fzfg": false,
      "metar_trigger": false,
      "taf_trigger": false,
      "metar": "METAR LIMJ 160850Z 07004KT 030V110 9999 FEW018 SCT027 11/06 Q1002",
      "taf": "TAF LIMJ 160500Z 1606/1706 VRB05KT CAVOK"
    },
    {
      "icao": "LIPE",
      "alert": "OK",
      "vis_m": 9999,
      "fzfg": false,
      "metar_trigger": false,
      "taf_trigger": false,
      "metar": "METAR LIPE 160850Z 33003KT 280V030 CAVOK 08/05 Q1002",
      "taf": "TAF LIPE 160500Z 1606/1706 VRB05KT 6000 FEW060"
    },
    {
      "icao": "LIPH",
      "alert": "OK",
      "vis_m": 9999,
      "fzfg": false,
      "metar_trigger": false,
      "taf_trigger": false,
      "metar": "METAR LIPH 160850Z 03005KT 360V060 9999 BKN030 07/03 Q1004",
      "taf": "TAF LIPH 160500Z 1606/1706 VRB05KT 9999 FEW020 SCT060"
    },
    {
      "icao": "LIPQ",
      "alert": "OK",
      "vis_m": 9999,
      "fzfg": false,
      "metar_trigger": false,
      "taf_trigger": false,
      "metar": "METAR LIPQ 160850Z AUTO 02004KT 9999 BKN036/// 07/01 Q1004",
      "taf": "TAF LIPQ 160500Z 1606/1706 07007KT 9999 FEW060"
    },
    {
      "icao": "LIPR",
      "alert": "OK",
      "vis_m": 9999,
      "fzfg": false,
      "metar_trigger": false,
      "taf_trigger": false,
      "metar": "METAR LIPR 160850Z 20009KT 9999 SCT050 11/06 Q1003",
      "taf": "TAF LIPR 160500Z 1606/1706 15007KT CAVOK"
    },
    {
      "icao": "LIPX",
      "alert": "OK",
      "vis_m": 9999,
      "fzfg": false,
      "metar_trigger": false,
      "taf_trigger": false,
      "metar": "METAR LIPX 160850Z 13003KT 090V190 CAVOK 08/03 Q1003",
      "taf": "TAF LIPX 160500Z 1606/1706 VRB05KT CAVOK"
    },
    {
      "icao": "LIPY",
      "alert": "OK",
      "vis_m": 9999,
      "fzfg": false,
      "metar_trigger": false,
      "taf_trigger": false,
      "metar": "METAR LIPY 160850Z AUTO 22002KT 9999 BKN059/// 09/07 Q1005",
      "taf": "TAF LIPY 160500Z 1606/1706 VRB05KT 9999 FEW020"
    },
    {
      "icao": "LIPZ",
      "alert": "OK",
      "vis_m": 9999,
      "fzfg": false,
      "metar_trigger": false,
      "taf_trigger": false,
      "metar": "METAR LIPZ 160850Z 04010KT 9999 BKN025 08/03 Q1004 NOSIG",
      "taf": "TAF LIPZ 160500Z 1606/1712 VRB05KT 9999 FEW060"
    },
    {
      "icao": "LIRF",
      "alert": "OK",
      "vis_m": 9999,
      "fzfg": false,
      "metar_trigger": false,
      "taf_trigger": false,
      "metar": "METAR LIRF 160850Z 10004KT CAVOK 10/07 Q1007 NOSIG",
      "taf": "TAF LIRF 160500Z 1606/1712 VRB05KT CAVOK"
    },
    {
      "icao": "LIRN",
      "alert": "OK",
      "vis_m": 9999,
      "fzfg": false,
      "metar_trigger": false,
      "taf_trigger": false,
      "metar": "METAR LIRN 160850Z VRB02KT 9999 FEW040 12/07 Q1008 NOSIG",
      "taf": "TAF LIRN 160500Z 1606/1706 VRB05KT CAVOK"
    },
    {
      "icao": "LIRP",
      "alert": "OK",
      "vis_m": 8000,
      "fzfg": false,
      "metar_trigger": false,
      "taf_trigger": false,
      "metar": "METAR LIRP 160845Z 23014KT 8000 RA SCT025 BKN040 14/13 Q1003 TEMPO 23016G26KT",
      "taf": "TAF LIRP 160500Z 1606/1706 VRB03KT 9999 BKN030"
    },
    {
      "icao": "LIRZ",
      "alert": "OK",
      "vis_m": 9999,
      "fzfg": false,
      "metar_trigger": false,
      "taf_trigger": false,
      "metar": "METAR LIRZ 160850Z AUTO VRB01KT 9999 BKN034/// 06/04 Q1006",
      "taf": "TAF LIRZ 160500Z 1606/1706 VRB05KT CAVOK"
    },
    {
      "icao": "LJLJ",
      "alert": "OK",
      "vis_m": 9999,
      "fzfg": false,
      "metar_trigger": false,
      "taf_trigger": false,
      "metar": "METAR LJLJ 160900Z 27005KT 240V300 9999 SCT033 BKN040 01/M02 Q1003 NOSIG",
      "taf": "TAF LJLJ 160500Z 1606/1706 VRB02KT 9999 BKN040"
    },
    {
      "icao": "LKMT",
      "alert": "OK",
      "vis_m": 6000,
      "fzfg": false,
      "metar_trigger": false,
      "taf_trigger": false,
      "metar": "METAR LKMT 160900Z 05003KT 6000 NSC M09/M10 Q1003 NOSIG",
      "taf": "TAF LKMT 160500Z 1606/1706 VRB02KT CAVOK"
    },
    {
      "icao": "LKPR",
      "alert": "OK",
      "vis_m": 9999,
      "fzfg": false,
      "metar_trigger": false,
      "taf_trigger": false,
      "metar": "METAR LKPR 160900Z 14008KT 9999 -SN SCT009 OVC020 M04/M06 Q0997 NOSIG",
      "taf": "TAF LKPR 160800Z 1609/1715 14007KT 6000 -SN OVC011"
    },
    {
      "icao": "LLBG",
      "alert": "OK",
      "vis_m": 9000,
      "fzfg": false,
      "metar_trigger": false,
      "taf_trigger": false,
      "metar": "METAR LLBG 160850Z 28007KT 9000 NSC 29/07 Q1013 BECMG 6000 NSC",
      "taf": "TAF LLBG 160502Z 1606/1706 VRB04KT 8000 NSC"
    },
    {
      "icao": "LMML",
      "alert": "OK",
      "vis_m": 9999,
      "fzfg": false,
      "metar_trigger": false,
      "taf_trigger": false,
      "metar": "METAR LMML 160845Z 29013KT 9999 -RA FEW005 SCT018 BKN040 14/11 Q1014 NOSIG",
      "taf": ""
    },
    {
      "icao": "LOWW",
      "alert": "OK",
      "vis_m": 9999,
      "fzfg": false,
      "metar_trigger": false,
      "taf_trigger": false,
      "metar": "METAR LOWW 160850Z 14011KT 9999 FEW028 BKN030 M02/M06 Q1002 TEMPO FM1000 4000 -SN BKN010",
      "taf": "TAF LOWW 160815Z 1609/1715 13012KT 9999 BKN030 TX04/1714Z TNM03/1609Z"
    },
    {
      "icao": "LPFR",
      "alert": "OK",
      "vis_m": 9999,
      "fzfg": false,
      "metar_trigger": false,
      "taf_trigger": false,
      "metar": "METAR LPFR 160900Z VRB02KT 9999 BKN034 14/10 Q1033",
      "taf": "TAF LPFR 160500Z 1606/1706 VRB05KT 9999 BKN030"
    },
    {
      "icao": "LPMA",
      "alert": "OK",
      "vis_m": 9999,
      "fzfg": false,
      "metar_trigger": false,
      "taf_trigger": false,
      "metar": "METAR LPMA 160900Z 04008KT 020V080 9999 BKN014 16/12 Q1031",
      "taf": "TAF LPMA 160500Z 1606/1706 02010KT 9999 SCT016"
    },
    {
      "icao": "LPPR",
      "alert": "OK",
      "vis_m": 5000,
      "fzfg": false,
      "metar_trigger": false,
      "taf_trigger": false,
      "metar": "METAR LPPR 160900Z 26007KT 220V310 5000 -RADZ BR SCT002 BKN004 14/13 Q1028",
      "taf": "TAF LPPR 160500Z 1606/1706 24010KT 9999 SCT006 BKN012"
    },
    {
      "icao": "LPPS",
      "alert": "OK",
      "vis_m": 9999,
      "fzfg": false,
      "metar_trigger": false,
      "taf_trigger": false,
      "metar": "METAR LPPS 160900Z 11015KT 9999 BKN012 16/13 Q1031",
      "taf": "TAF LPPS 160500Z 1606/1712 09015KT 9999 SCT015"
    },
    {
      "icao": "LPPT",
      "alert": "OK",
      "vis_m": 9999,
      "fzfg": false,
      "metar_trigger": false,
      "taf_trigger": false,
      "metar": "METAR LPPT 160900Z 23006KT 9999 FEW008 BKN036 13/11 Q1032",
      "taf": "TAF LPPT 160500Z 1606/1712 26010KT 9999 SCT020"
    },
    {
      "icao": "LQBK",
      "alert": "OK",
      "vis_m": 9999,
      "fzfg": false,
      "metar_trigger": false,
      "taf_trigger": false,
      "metar": "METAR LQBK 160900Z 13004KT 090V160 CAVOK M00/M02 Q1006 NOSIG",
      "taf": "TAF LQBK 160500Z 1606/1706 09004KT CAVOK TX07/1613Z TNM05/1606Z"
    },
    {
      "icao": "LQSA",
      "alert": "OK",
      "vis_m": 9999,
      "fzfg": false,
      "metar_trigger": false,
      "taf_trigger": false,
      "metar": "METAR LQSA 160900Z VRB01KT 9999 FEW012 02/M00 Q1007 NOSIG",
      "taf": "TAF LQSA 160500Z 1606/1706 VRB02KT 9999 SCT035 TX06/1614Z TNM03/1606Z"
    },
    {
      "icao": "LQTZ",
      "alert": "OK",
      "vis_m": 8000,
      "fzfg": false,
      "metar_trigger": false,
      "taf_trigger": false,
      "metar": "METAR LQTZ 160900Z VRB01KT 8000 FEW010 M00/M01 Q1006",
      "taf": "TAF LQTZ 160500Z 1606/1706 09005KT CAVOK TX07/1614Z TNM04/1606Z"
    },
    {
      "icao": "LRBC",
      "alert": "OK",
      "vis_m": 9999,
      "fzfg": false,
      "metar_trigger": false,
      "taf_trigger": false,
      "metar": "METAR LRBC 160900Z 33003KT 280V010 9999 FEW025 M01/M07 Q1008",
      "taf": "TAF LRBC 160800Z 1609/1618 01008KT 9999 BKN050"
    },
    {
      "icao": "LRBS",
      "alert": "OK",
      "vis_m": 9999,
      "fzfg": false,
      "metar_trigger": false,
      "taf_trigger": false,
      "metar": "METAR LRBS 160900Z VRB02KT 9999 OVC012 03/00 Q1008 NOSIG",
      "taf": "TAF LRBS 160500Z 1606/1706 VRB04KT 9999 BKN020"
    },
    {
      "icao": "LRBV",
      "alert": "OK",
      "vis_m": 9999,
      "fzfg": false,
      "metar_trigger": false,
      "taf_trigger": false,
      "metar": "METAR LRBV 160900Z VRB03KT 9999 FEW019 BKN036 00/M03 Q1006",
      "taf": "TAF LRBV 160800Z 1609/1618 VRB04KT 9999 BKN035"
    },
    {
      "icao": "LRCL",
      "alert": "OK",
      "vis_m": 9999,
      "fzfg": false,
      "metar_trigger": false,
      "taf_trigger": false,
      "metar": "METAR LRCL 160900Z 10005KT 050V130 9999 BKN014 BKN051 M02/M06 Q1007",
      "taf": "TAF LRCL 160800Z 1609/1618 VRB04KT 9999 OVC015"
    },
    {
      "icao": "LRCV",
      "alert": "OK",
      "vis_m": 9999,
      "fzfg": false,
      "metar_trigger": false,
      "taf_trigger": false,
      "metar": "METAR LRCV 160900Z 29010KT CAVOK 04/M01 Q1006",
      "taf": "TAF LRCV 160800Z 1609/1618 27012KT CAVOK"
    },
    {
      "icao": "LRIA",
      "alert": "OK",
      "vis_m": 9999,
      "fzfg": false,
      "metar_trigger": false,
      "taf_trigger": false,
      "metar": "METAR LRIA 160900Z 31008KT 280V340 9999 FEW018 SCT038 M04/M07 Q1008",
      "taf": "TAF LRIA 160800Z 1609/1618 30010KT 9999 BKN045"
    },
    {
      "icao": "LROP",
      "alert": "OK",
      "vis_m": 9999,
      "fzfg": false,
      "metar_trigger": false,
      "taf_trigger": false,
      "metar": "METAR LROP 160900Z VRB02KT 9999 OVC011 03/00 Q1008 NOSIG",
      "taf": "TAF LROP 160500Z 1606/1706 VRB04KT 9999 BKN020"
    },
    {
      "icao": "LRSB",
      "alert": "OK",
      "vis_m": 9999,
      "fzfg": false,
      "metar_trigger": false,
      "taf_trigger": false,
      "metar": "METAR LRSB 160900Z 36005KT 330V050 9999 OVC010 M00/M02 Q1007",
      "taf": "TAF LRSB 160500Z 1606/1706 VRB04KT 9999 SCT040"
    },
    {
      "icao": "LRSM",
      "alert": "OK",
      "vis_m": 9999,
      "fzfg": false,
      "metar_trigger": false,
      "taf_trigger": false,
      "metar": "METAR LRSM 160900Z 17004KT 120V210 9999 FEW012 M02/M07 Q1008",
      "taf": "TAF LRSM 160800Z 1609/1618 VRB04KT CAVOK"
    },
    {
      "icao": "LRSV",
      "alert": "OK",
      "vis_m": 9999,
      "fzfg": false,
      "metar_trigger": false,
      "taf_trigger": false,
      "metar": "METAR LRSV 160900Z 32006KT 9999 FEW014 BKN044 M06/M09 Q1005",
      "taf": "TAF LRSV 160800Z 1609/1618 32005KT 9999 BKN035"
    },
    {
      "icao": "LRTM",
      "alert": "OK",
      "vis_m": 9999,
      "fzfg": false,
      "metar_trigger": false,
      "taf_trigger": false,
      "metar": "METAR LRTM 160900Z 05005KT 010V070 9999 BKN015 OVC033 M01/M04 Q1008",
      "taf": "TAF LRTM 160800Z 1609/1618 VRB04KT 9999 BKN015 BKN035"
    },
    {
      "icao": "LRTR",
      "alert": "OK",
      "vis_m": 9999,
      "fzfg": false,
      "metar_trigger": false,
      "taf_trigger": false,
      "metar": "METAR LRTR 160900Z 20006KT 150V240 9999 BKN015 01/M01 Q1008 NOSIG",
      "taf": "TAF LRTR 160500Z 1606/1706 VRB04KT 9999 BKN015 BKN040"
    },
    {
      "icao": "LTAC",
      "alert": "OK",
      "vis_m": 9999,
      "fzfg": false,
      "metar_trigger": false,
      "taf_trigger": false,
      "metar": "METAR LTAC 160850Z 23010KT 9999 FEW040 BKN180 13/M03 Q1013 NOSIG RMK RWY21C 22009KT RWY03L 23008KT RWY21R 20010KT RWY03R 22007KT RWY21L 23010KT",
      "taf": ""
    },
    {
      "icao": "LTFM",
      "alert": "OK",
      "vis_m": 9999,
      "fzfg": false,
      "metar_trigger": false,
      "taf_trigger": false,
      "metar": "METAR LTFM 160850Z 22018KT CAVOK 17/08 Q1007 NOSIG RMK RWY17L 22013G24KT RWY34L 20016KT RWY16R 21013KT RWY36 22015KT RWY18 23017KT",
      "taf": "TAF LTFM 160440Z 1606/1712 21012KT CAVOK"
    },
    {
      "icao": "LUKK",
      "alert": "OK",
      "vis_m": 9999,
      "fzfg": false,
      "metar_trigger": false,
      "taf_trigger": false,
      "metar": "METAR LUKK 160900Z 33007KT 300V020 9999 FEW020 M03/M06 Q1007 NOSIG",
      "taf": "TAF LUKK 160507Z 1606/1706 32010KT 9999 BKN025"
    },
    {
      "icao": "LWOH",
      "alert": "OK",
      "vis_m": 9999,
      "fzfg": false,
      "metar_trigger": false,
      "taf_trigger": false,
      "metar": "METAR LWOH 160850Z 16011KT 9999 SCT010 BKN040 08/05 Q1007",
      "taf": "TAF LWOH 160830Z 1609/1709 20008KT 9999 SCT010 BKN040"
    },
    {
      "icao": "LWSK",
      "alert": "OK",
      "vis_m": 9999,
      "fzfg": false,
      "metar_trigger": false,
      "taf_trigger": false,
      "metar": "METAR LWSK 160850Z VRB02KT 9999 FEW015 BKN029 06/01 Q1008 NOSIG",
      "taf": "TAF LWSK 160830Z 1609/1709 VRB02KT 9999 FEW015 BKN035"
    },
    {
      "icao": "LYBE",
      "alert": "OK",
      "vis_m": 9999,
      "fzfg": false,
      "metar_trigger": false,
      "taf_trigger": false,
      "metar": "METAR LYBE 160900Z 13004KT 100V160 CAVOK 01/M03 Q1008 NOSIG",
      "taf": "TAF LYBE 160500Z 1606/1706 14007KT 9999 SCT020 TX07/1613Z TNM03/1606Z"
    },
    {
      "icao": "LYNI",
      "alert": "OK",
      "vis_m": 9999,
      "fzfg": false,
      "metar_trigger": false,
      "taf_trigger": false,
      "metar": "METAR LYNI 160900Z VRB03KT 9999 SCT020 04/00 Q1008 NOSIG",
      "taf": "TAF LYNI 160500Z 1606/1706 19004KT 9999 SCT025 TX08/1613Z TN00/1606Z"
    },
    {
      "icao": "LYPG",
      "alert": "OK",
      "vis_m": 9999,
      "fzfg": false,
      "metar_trigger": false,
      "taf_trigger": false,
      "metar": "METAR LYPG 160900Z 17003KT 110V260 9999 FEW040 SCT060 10/05 Q1008 NOSIG",
      "taf": "TAF LYPG 160500Z 1606/1706 36005KT 9999 SCT040 SCT070 TX13/1612Z TN05/1606Z"
    },
    {
      "icao": "LZIB",
      "alert": "OK",
      "vis_m": 9999,
      "fzfg": false,
      "metar_trigger": false,
      "taf_trigger": false,
      "metar": "METAR LZIB 160900Z 09010KT 9999 FEW008 BKN011 OVC014 M04/M06 Q1003 NOSIG",
      "taf": "TAF LZIB 160515Z 1606/1706 13008KT 9999 FEW025"
    },
    {
      "icao": "LZKZ",
      "alert": "OK",
      "vis_m": 9999,
      "fzfg": false,
      "metar_trigger": false,
      "taf_trigger": false,
      "metar": "METAR LZKZ 160900Z 20007KT 9999 -SN BKN017 OVC030 M04/M07 Q1006 NOSIG",
      "taf": "TAF LZKZ 160515Z 1606/1706 02008KT 9999 FEW010 BKN035"
    },
    {
      "icao": "LZTT",
      "alert": "OK",
      "vis_m": 9999,
      "fzfg": false,
      "metar_trigger": false,
      "taf_trigger": false,
      "metar": "METAR LZTT 160900Z VRB01KT 9999 FEW013 M06/M10 Q1001 NOSIG",
      "taf": "TAF LZTT 160515Z 1606/1706 24005KT 9999 FEW012 SCT030"
    },
    {
      "icao": "OEJN",
      "alert": "OK",
      "vis_m": 6000,
      "fzfg": false,
      "metar_trigger": false,
      "taf_trigger": false,
      "metar": "METAR OEJN 160900Z 18004KT 6000 NSC 33/13 Q1013 NOSIG",
      "taf": "TAF OEJN 160500Z 1606/1712 25010KT CAVOK"
    },
    {
      "icao": "OEMA",
      "alert": "OK",
      "vis_m": 5000,
      "fzfg": false,
      "metar_trigger": false,
      "taf_trigger": false,
      "metar": "METAR OEMA 160900Z 08011KT 5000 DU NSC 26/M03 Q1021 NOSIG",
      "taf": "TAF OEMA 160500Z 1606/1712 09010KT 7000 NSC"
    },
    {
      "icao": "OJAI",
      "alert": "OK",
      "vis_m": 3000,
      "fzfg": false,
      "metar_trigger": false,
      "taf_trigger": false,
      "metar": "METAR OJAI 160900Z 08010KT 3000 DU NSC 17/M00 Q1020 NOSIG",
      "taf": "TAF OJAI 160500Z 1606/1712 13010KT 3000 DU NSC"
    },
    {
      "icao": "OMAA",
      "alert": "OK",
      "vis_m": 9999,
      "fzfg": false,
      "metar_trigger": false,
      "taf_trigger": false,
      "metar": "METAR OMAA 160900Z 30017KT 9999 SCT035 24/15 Q1013 NOSIG",
      "taf": "TAF OMAA 160500Z 1606/1712 30014KT 7000 NSC"
    },
    {
      "icao": "OMDB",
      "alert": "OK",
      "vis_m": 5000,
      "fzfg": false,
      "metar_trigger": false,
      "taf_trigger": false,
      "metar": "METAR OMDB 160900Z 30011KT 270V330 5000 DU SCT030 26/16 Q1012 TEMPO 4000",
      "taf": "TAF OMDB 160500Z 1606/1712 30014KT 7000 NSC"
    },
    {
      "icao": "UAAA",
      "alert": "OK",
      "vis_m": 4700,
      "fzfg": false,
      "metar_trigger": false,
      "taf_trigger": false,
      "metar": "METAR UAAA 160830Z 35002MPS 4700 FU SCT050CB BKN100 07/01 Q1015 NOSIG",
      "taf": "TAF UAAA 160510Z 1606/1706 03002MPS 6000 SCT030 BKN050 TX07/1609Z TNM01/1702Z"
    },
    {
      "icao": "UBBB",
      "alert": "OK",
      "vis_m": 9999,
      "fzfg": false,
      "metar_trigger": false,
      "taf_trigger": false,
      "metar": "METAR UBBB 160900Z 19024G38KT 9999 FEW013 12/09 Q1016 NOSIG",
      "taf": ""
    },
    {
      "icao": "UDSG",
      "alert": "OK",
      "vis_m": 9999,
      "fzfg": false,
      "metar_trigger": false,
      "taf_trigger": false,
      "metar": "METAR UDSG 160830Z 21002KT 9999 NSC 00/M03 Q1025 NOSIG",
      "taf": "TAF UDSG 160458Z 1606/1706 VRB06KT 9999 FEW040"
    },
    {
      "icao": "UDYZ",
      "alert": "OK",
      "vis_m": 9999,
      "fzfg": false,
      "metar_trigger": false,
      "taf_trigger": false,
      "metar": "METAR UDYZ 160830Z VRB01KT 9999 NSC 11/02 Q1024 NOSIG",
      "taf": "TAF UDYZ 160500Z 1606/1706 VRB06KT 9999 NSC"
    },
    {
      "icao": "UGKO",
      "alert": "OK",
      "vis_m": 9999,
      "fzfg": false,
      "metar_trigger": false,
      "taf_trigger": false,
      "metar": "METAR UGKO 160900Z 09021G31KT CAVOK 21/04 Q1013 NOSIG",
      "taf": "TAF UGKO 160500Z 1606/1706 08015KT CAVOK TX23/1611Z TN13/1703Z"
    }
  ]
}