{
  "ts_utc": "2026-01-09T07:34:04Z",
  "threshold_m": 150,
  "source": "stations_override.txt (ICAO list) + aviationweather.gov (METAR/TAF raw)",
  "station_count": 159,
  "stations": [
    {
      "icao": "BIKF",
      "alert": "OK",
      "vis_m": 9999,
      "fzfg": false,
      "metar_trigger": false,
      "taf_trigger": false,
      "metar": "METAR BIKF 090700Z 02010KT CAVOK M02/M07 Q1007",
      "taf": "TAF BIKF 090407Z 0906/1006 05010KT CAVOK TXM01/0914Z TNM03/0909Z"
    },
    {
      "icao": "BKPR",
      "alert": "OK",
      "vis_m": 9999,
      "fzfg": false,
      "metar_trigger": false,
      "taf_trigger": false,
      "metar": "METAR BKPR 090730Z 22003KT CAVOK M07/M08 Q1011 NOSIG",
      "taf": "TAF BKPR 090530Z 0906/1006 VRB05KT 9999 SCT080"
    },
    {
      "icao": "EBCI",
      "alert": "OK",
      "vis_m": 6000,
      "fzfg": false,
      "metar_trigger": false,
      "taf_trigger": false,
      "metar": "METAR EBCI 090720Z 21025G36KT 6000 -RADZ FEW012 BKN013 04/01 Q0980 WS R24 TEMPO20020G45KT 4000 MODRADZ BKN010",
      "taf": "TAF EBCI 090500Z 0906/1012 21020G35KT 6000 -RA SCT003 BKN005"
    },
    {
      "icao": "EDDB",
      "alert": "OK",
      "vis_m": 9999,
      "fzfg": false,
      "metar_trigger": false,
      "taf_trigger": false,
      "metar": "METAR EDDB 090720Z AUTO 10011KT CAVOK M07/M10 Q1002 NOSIG",
      "taf": "TAF EDDB 090500Z 0906/1006 09013KT 9999 FEW025"
    },
    {
      "icao": "EDDH",
      "alert": "OK",
      "vis_m": 9999,
      "fzfg": false,
      "metar_trigger": false,
      "taf_trigger": false,
      "metar": "METAR EDDH 090720Z AUTO 10018KT 9999 -SN FEW017 BKN041 BKN049 M02/M05 Q0997 TEMPO 11020G30KT 2500 -SN DRSN BKN008",
      "taf": "TAF EDDH 090500Z 0906/1012 09015G25KT 9999 BKN015"
    },
    {
      "icao": "EDDK",
      "alert": "OK",
      "vis_m": 9999,
      "fzfg": false,
      "metar_trigger": false,
      "taf_trigger": false,
      "metar": "METAR EDDK 090720Z AUTO 17015KT 9999 FEW030 SCT040 06/03 Q0986 TEMPO 14015G25KT RA",
      "taf": "TAF EDDK 090500Z 0906/1012 16013KT 9999 OVC030"
    },
    {
      "icao": "EDDN",
      "alert": "OK",
      "vis_m": 9999,
      "fzfg": false,
      "metar_trigger": false,
      "taf_trigger": false,
      "metar": "METAR EDDN 090720Z AUTO 13006KT 9999 FEW039 02/01 Q0995 NOSIG",
      "taf": "TAF EDDN 090500Z 0906/1006 13010KT 9999 FEW015 BKN025"
    },
    {
      "icao": "EDDS",
      "alert": "OK",
      "vis_m": 9999,
      "fzfg": false,
      "metar_trigger": false,
      "taf_trigger": false,
      "metar": "METAR EDDS 090720Z AUTO 23014G25KT 180V260 9999 FEW037 06/01 Q0994",
      "taf": "TAF EDDS 090500Z 0906/1006 20010KT 9999 SCT030"
    },
    {
      "icao": "EDFH",
      "alert": "OK",
      "vis_m": 9999,
      "fzfg": false,
      "metar_trigger": false,
      "taf_trigger": false,
      "metar": "METAR EDFH 090720Z 21022G36KT 9999 -RA FEW015 BKN032 04/02 Q0987",
      "taf": "TAF EDFH 090500Z 0906/1006 22020G35KT 9999 SCT010 BKN030"
    },
    {
      "icao": "EDJA",
      "alert": "OK",
      "vis_m": 9999,
      "fzfg": false,
      "metar_trigger": false,
      "taf_trigger": false,
      "metar": "METAR EDJA 090720Z 24021G32KT 9999 SCT013 BKN023 04/02 Q0997",
      "taf": "TAF EDJA 090500Z 0906/0915 23015G25KT 9999 SCT020 BKN035"
    },
    {
      "icao": "EDLW",
      "alert": "OK",
      "vis_m": 9999,
      "fzfg": false,
      "metar_trigger": false,
      "taf_trigger": false,
      "metar": "METAR EDLW 090720Z 14011KT 120V190 9999 SCT045 06/03 Q0985",
      "taf": "TAF EDLW 090500Z 0906/1006 15012KT 9999 SCT040"
    },
    {
      "icao": "EDNY",
      "alert": "OK",
      "vis_m": 9999,
      "fzfg": false,
      "metar_trigger": false,
      "taf_trigger": false,
      "metar": "METAR EDNY 090720Z 23013KT 9999 FEW025 SCT040 05/02 Q1000",
      "taf": ""
    },
    {
      "icao": "EDSB",
      "alert": "OK",
      "vis_m": 9999,
      "fzfg": false,
      "metar_trigger": false,
      "taf_trigger": false,
      "metar": "METAR EDSB 090720Z 20016KT 9999 FEW049 07/03 Q0995",
      "taf": "TAF EDSB 090500Z 0906/1006 20020G30KT 9999 SCT030"
    },
    {
      "icao": "EETN",
      "alert": "OK",
      "vis_m": 9999,
      "fzfg": false,
      "metar_trigger": false,
      "taf_trigger": false,
      "metar": "METAR EETN 090720Z 08012KT 9999 BKN027 M06/M10 Q1020 NOSIG",
      "taf": "TAF EETN 090530Z 0906/1006 07014KT 9999 DRSN SCT020"
    },
    {
      "icao": "EFTU",
      "alert": "OK",
      "vis_m": 9999,
      "fzfg": false,
      "metar_trigger": false,
      "taf_trigger": false,
      "metar": "METAR EFTU 090720Z AUTO 08009KT CAVOK M14/M16 Q1024",
      "taf": "TAF EFTU 090528Z 0906/1006 08006KT 9999 BKN025"
    },
    {
      "icao": "EGBB",
      "alert": "OK",
      "vis_m": 7000,
      "fzfg": false,
      "metar_trigger": false,
      "taf_trigger": false,
      "metar": "METAR EGBB 090720Z 32014KT 7000 -RA SCT011 BKN015 02/01 Q0993",
      "taf": "TAF EGBB 090456Z 0906/1006 33018G30KT 5000 BR BKN005"
    },
    {
      "icao": "EGGP",
      "alert": "OK",
      "vis_m": 9999,
      "fzfg": false,
      "metar_trigger": false,
      "taf_trigger": false,
      "metar": "METAR EGGP 090720Z 33010KT 9999 SCT029 BKN035 04/00 Q0996",
      "taf": "TAF EGGP 090453Z 0906/1006 34012KT 9999 SCT016"
    },
    {
      "icao": "EGGW",
      "alert": "OK",
      "vis_m": 3800,
      "fzfg": false,
      "metar_trigger": false,
      "taf_trigger": false,
      "metar": "METAR EGGW 090720Z AUTO 33023G33KT 3800 -RA OVC005 01/01 Q0987",
      "taf": "TAF EGGW 090458Z 0906/1006 31020G30KT 9999 BKN005"
    },
    {
      "icao": "EGKK",
      "alert": "OK",
      "vis_m": 9999,
      "fzfg": false,
      "metar_trigger": false,
      "taf_trigger": false,
      "metar": "METAR EGKK 090720Z 30019KT 9999 -RA BKN010 BKN017 02/01 Q0988",
      "taf": "TAF EGKK 090453Z 0906/1012 31016G26KT 9999 SCT010 BKN020"
    },
    {
      "icao": "EGNM",
      "alert": "OK",
      "vis_m": 9999,
      "fzfg": false,
      "metar_trigger": false,
      "taf_trigger": false,
      "metar": "METAR EGNM 090720Z 34012KT 9999 FEW020 BKN035 02/01 Q0994",
      "taf": "TAF EGNM 090455Z 0906/1006 01012KT 9999 BKN018"
    },
    {
      "icao": "EGPD",
      "alert": "OK",
      "vis_m": 7000,
      "fzfg": false,
      "metar_trigger": false,
      "taf_trigger": false,
      "metar": "METAR EGPD 090720Z AUTO 36003KT 330V040 7000 -RASN FEW014/// BKN019/// BKN028/// //////CB M04/M05 Q1000",
      "taf": "TAF EGPD 090455Z 0906/1006 VRB03KT 9999 FEW009"
    },
    {
      "icao": "EGPF",
      "alert": "OK",
      "vis_m": 9999,
      "fzfg": false,
      "metar_trigger": false,
      "taf_trigger": false,
      "metar": "METAR EGPF 090720Z AUTO 23003KT 9999 NCD M01/M02 Q1000",
      "taf": "TAF EGPF 090504Z 0906/1006 VRB03KT 9999 SCT025"
    },
    {
      "icao": "EHBK",
      "alert": "OK",
      "vis_m": 9999,
      "fzfg": false,
      "metar_trigger": false,
      "taf_trigger": false,
      "metar": "METAR EHBK 090725Z AUTO 20019KT 160V230 9999 SCT022/// OVC025/// 06/02 Q0982 BECMG 20020G30KT",
      "taf": "TAF EHBK 090516Z 0906/1012 19018G28KT 9999 -RADZ BKN035"
    },
    {
      "icao": "EHEH",
      "alert": "OK",
      "vis_m": 9999,
      "fzfg": false,
      "metar_trigger": false,
      "taf_trigger": false,
      "metar": "METAR EHEH 090725Z AUTO 16013KT 130V200 9999 DZ SCT019 SCT025 BKN033 06/03 Q0980 BLU TEMPO 17012G25KT 4000 -RA SCT015 BKN020 RMK TREND REMOTE BY EHWX",
      "taf": "TAF EHEH 090549Z 0906/1012 16010KT 9999 SCT018 BKN030"
    },
    {
      "icao": "EKBI",
      "alert": "OK",
      "vis_m": 9999,
      "fzfg": false,
      "metar_trigger": false,
      "taf_trigger": false,
      "metar": "METAR EKBI 090720Z AUTO 09020G32KT 9999 -SN SCT022/// BKN210/// BKN240/// M02/M05 Q1003",
      "taf": "TAF EKBI 090527Z 0906/1006 09018KT 9000 BKN012"
    },
    {
      "icao": "EKCH",
      "alert": "OK",
      "vis_m": 9999,
      "fzfg": false,
      "metar_trigger": false,
      "taf_trigger": false,
      "metar": "METAR EKCH 090720Z AUTO 09014KT 9999 BKN031/// M01/M05 Q1008 TEMPO 12015G28KT",
      "taf": "TAF EKCH 090527Z 0906/1006 10018KT 9999 BKN035"
    },
    {
      "icao": "ENAL",
      "alert": "OK",
      "vis_m": 9999,
      "fzfg": false,
      "metar_trigger": false,
      "taf_trigger": false,
      "metar": "METAR ENAL 090720Z 14012KT CAVOK M01/M08 Q1009",
      "taf": "TAF ENAL 090500Z 0906/0915 14012KT CAVOK"
    },
    {
      "icao": "ENBR",
      "alert": "OK",
      "vis_m": 9999,
      "fzfg": false,
      "metar_trigger": false,
      "taf_trigger": false,
      "metar": "METAR ENBR 090720Z VRB01KT CAVOK M06/M13 Q1008 NOSIG RMK WIND 1200FT 10006KT",
      "taf": "TAF ENBR 090500Z 0906/1006 06005KT CAVOK"
    },
    {
      "icao": "ENGM",
      "alert": "OK",
      "vis_m": 9999,
      "fzfg": false,
      "metar_trigger": false,
      "taf_trigger": false,
      "metar": "METAR ENGM 090720Z 02004KT 9999 -SN FEW012 OVC040 M08/M10 Q1016 TEMPO 4000",
      "taf": ""
    },
    {
      "icao": "ENHD",
      "alert": "OK",
      "vis_m": 9999,
      "fzfg": false,
      "metar_trigger": false,
      "taf_trigger": false,
      "metar": "METAR ENHD 090720Z 12011KT CAVOK 01/M08 Q1007",
      "taf": "TAF ENHD 090500Z 0906/0915 10008KT CAVOK"
    },
    {
      "icao": "ENTC",
      "alert": "OK",
      "vis_m": 9999,
      "fzfg": false,
      "metar_trigger": false,
      "taf_trigger": false,
      "metar": "METAR ENTC 090720Z 09003KT CAVOK M11/M15 Q1024 NOSIG RMK WIND 2600FT 17025KT",
      "taf": "TAF ENTC 090500Z 0906/1006 20005KT CAVOK"
    },
    {
      "icao": "ENTO",
      "alert": "OK",
      "vis_m": 9999,
      "fzfg": false,
      "metar_trigger": false,
      "taf_trigger": false,
      "metar": "METAR ENTO 090720Z 01008KT 9999 FEW018 OVC042 M07/M08 Q1015 NOSIG",
      "taf": "TAF ENTO 090500Z 0906/1006 03010KT 9999 -SN SCT012 BKN020"
    },
    {
      "icao": "ENVA",
      "alert": "OK",
      "vis_m": 9999,
      "fzfg": false,
      "metar_trigger": false,
      "taf_trigger": false,
      "metar": "METAR ENVA 090720Z 07005KT 330V130 CAVOK M05/M15 Q1012 TEMPO 15015G25KT RMK WIND 670FT 15018KT",
      "taf": "TAF ENVA 090500Z 0906/1006 10008KT CAVOK"
    },
    {
      "icao": "ENZV",
      "alert": "OK",
      "vis_m": 9999,
      "fzfg": false,
      "metar_trigger": false,
      "taf_trigger": false,
      "metar": "METAR ENZV 090720Z 10008KT CAVOK 00/M09 Q1007 NOSIG",
      "taf": "TAF ENZV 090500Z 0906/1006 12008KT CAVOK"
    },
    {
      "icao": "EPGD",
      "alert": "OK",
      "vis_m": 9999,
      "fzfg": false,
      "metar_trigger": false,
      "taf_trigger": false,
      "metar": "METAR EPGD 090730Z 26002KT CAVOK M09/M10 Q1008",
      "taf": "TAF EPGD 090530Z 0906/1006 06006KT 9999 SCT015"
    },
    {
      "icao": "EPKK",
      "alert": "OK",
      "vis_m": 9999,
      "fzfg": false,
      "metar_trigger": false,
      "taf_trigger": false,
      "metar": "METAR EPKK 090730Z 22005KT 9999 OVC011 M08/M10 Q1005",
      "taf": "TAF EPKK 090530Z 0906/1006 26006KT 9999 BKN013"
    },
    {
      "icao": "EPKT",
      "alert": "OK",
      "vis_m": 250,
      "fzfg": true,
      "metar_trigger": false,
      "taf_trigger": false,
      "metar": "METAR EPKT 090730Z 35002KT 0250 R26/P2000U FZFG BKN000 M13/M15 Q1005",
      "taf": ""
    },
    {
      "icao": "EPLB",
      "alert": "OK",
      "vis_m": 5000,
      "fzfg": false,
      "metar_trigger": false,
      "taf_trigger": false,
      "metar": "METAR EPLB 090730Z 30011KT 5000 -SN DRSN BR SCT010 BKN012 OVC018 M09/M10 Q1001",
      "taf": "TAF EPLB 090530Z 0906/1006 30012KT 8000 -SN BKN013 BKN030"
    },
    {
      "icao": "EPMO",
      "alert": "OK",
      "vis_m": 7000,
      "fzfg": false,
      "metar_trigger": false,
      "taf_trigger": false,
      "metar": "METAR EPMO 090730Z 30007KT 7000 NSC M13/M13 Q1005",
      "taf": "TAF EPMO 090530Z 0906/1006 31008KT 8000 NSC"
    },
    {
      "icao": "EPPO",
      "alert": "OK",
      "vis_m": 6000,
      "fzfg": false,
      "metar_trigger": false,
      "taf_trigger": false,
      "metar": "METAR EPPO 090730Z 09005KT 6000 BKN003 M12/M14 Q1006",
      "taf": "TAF EPPO 090530Z 0906/1006 08003KT 3500 BR OVC002"
    },
    {
      "icao": "EPRA",
      "alert": "OK",
      "vis_m": 7000,
      "fzfg": false,
      "metar_trigger": false,
      "taf_trigger": false,
      "metar": "METAR EPRA 090730Z 31010KT 7000 -SN OVC006 M10/M12 Q1003",
      "taf": "TAF EPRA 090530Z 0906/0915 32010KT 8000 OVC007"
    },
    {
      "icao": "EPRZ",
      "alert": "OK",
      "vis_m": 9999,
      "fzfg": false,
      "metar_trigger": false,
      "taf_trigger": false,
      "metar": "METAR EPRZ 090730Z 27019KT 9999 BKN009 M08/M10 Q1003",
      "taf": "TAF EPRZ 090530Z 0906/1006 31015KT 9999 -SN OVC013"
    },
    {
      "icao": "EPSC",
      "alert": "OK",
      "vis_m": 9999,
      "fzfg": false,
      "metar_trigger": false,
      "taf_trigger": false,
      "metar": "METAR EPSC 090730Z 07007KT CAVOK M10/M12 Q1006",
      "taf": "TAF EPSC 090530Z 0906/1006 10008KT CAVOK"
    },
    {
      "icao": "EPSY",
      "alert": "OK",
      "vis_m": 9999,
      "fzfg": false,
      "metar_trigger": false,
      "taf_trigger": false,
      "metar": "METAR EPSY 090730Z 34007KT CAVOK M11/M13 Q1005",
      "taf": "TAF EPSY 090530Z 0906/0915 01010KT 9999 SCT030"
    },
    {
      "icao": "EPWA",
      "alert": "OK",
      "vis_m": 9999,
      "fzfg": false,
      "metar_trigger": false,
      "taf_trigger": false,
      "metar": "METAR EPWA 090730Z 29011KT 9999 SCT007 SCT048 M11/M12 Q1004 NOSIG",
      "taf": "TAF EPWA 090530Z 0906/1006 31011KT 9999 BKN008"
    },
    {
      "icao": "EPWR",
      "alert": "OK",
      "vis_m": 3500,
      "fzfg": false,
      "metar_trigger": false,
      "taf_trigger": false,
      "metar": "METAR EPWR 090730Z 11007KT 3500 BR NSC M12/M13 Q1005",
      "taf": "TAF EPWR 090530Z 0906/1006 12003KT 3500 BR NSC"
    },
    {
      "icao": "ESGG",
      "alert": "OK",
      "vis_m": 9999,
      "fzfg": false,
      "metar_trigger": false,
      "taf_trigger": false,
      "metar": "METAR ESGG 090720Z 08010KT 9999 FEW035 M06/M08 Q1012",
      "taf": "TAF ESGG 090530Z 0906/1006 11010KT 9999 SCT040"
    },
    {
      "icao": "ESKN",
      "alert": "OK",
      "vis_m": 9999,
      "fzfg": false,
      "metar_trigger": false,
      "taf_trigger": false,
      "metar": "METAR ESKN 090720Z 04007KT 9999 BKN025 M03/M05 Q1018",
      "taf": "TAF ESKN 090530Z 0906/1006 08010KT 9999 BKN030"
    },
    {
      "icao": "ESMS",
      "alert": "OK",
      "vis_m": 9999,
      "fzfg": false,
      "metar_trigger": false,
      "taf_trigger": false,
      "metar": "METAR ESMS 090720Z 09017KT 9999 BKN040 M01/M06 Q1008",
      "taf": "TAF ESMS 090527Z 0906/1006 10012KT 9999 FEW030"
    },
    {
      "icao": "ESSA",
      "alert": "OK",
      "vis_m": 9999,
      "fzfg": false,
      "metar_trigger": false,
      "taf_trigger": false,
      "metar": "METAR ESSA 090720Z 07008KT 9999 SCT017 BKN025 M04/M06 Q1019 NOSIG",
      "taf": "TAF ESSA 090530Z 0906/1006 10007KT CAVOK"
    },
    {
      "icao": "EYKA",
      "alert": "OK",
      "vis_m": 1200,
      "fzfg": false,
      "metar_trigger": false,
      "taf_trigger": false,
      "metar": "METAR EYKA 090720Z 36014KT 330V040 1200 R08/1900D +SN OVC018 M11/M13 Q1004",
      "taf": "TAF EYKA 090505Z 0906/1006 01015G28KT 3000 SN BKN015 OVC030"
    },
    {
      "icao": "EYPA",
      "alert": "OK",
      "vis_m": 9999,
      "fzfg": false,
      "metar_trigger": false,
      "taf_trigger": false,
      "metar": "METAR EYPA 090720Z 05016G26KT CAVOK M08/M10 Q1010",
      "taf": ""
    },
    {
      "icao": "EYVI",
      "alert": "OK",
      "vis_m": 1000,
      "fzfg": false,
      "metar_trigger": false,
      "taf_trigger": false,
      "metar": "METAR EYVI 090720Z 01017KT 1000 R01/1400N SN BLSN OVC014 M11/M14 Q1000 NOSIG",
      "taf": "TAF EYVI 090500Z 0906/1006 02015KT 1500 SN BLSN SCT010 OVC015"
    },
    {
      "icao": "GCFV",
      "alert": "OK",
      "vis_m": 9999,
      "fzfg": false,
      "metar_trigger": false,
      "taf_trigger": false,
      "metar": "METAR GCFV 090700Z 31006KT CAVOK 14/09 Q1030",
      "taf": ""
    },
    {
      "icao": "GCLP",
      "alert": "OK",
      "vis_m": 9999,
      "fzfg": false,
      "metar_trigger": false,
      "taf_trigger": false,
      "metar": "METAR GCLP 090700Z 31007KT 9999 FEW030 15/10 Q1029 NOSIG",
      "taf": "TAF GCLP 090200Z 0903/1003 33008KT 9999 FEW030 TX20/0914Z TN14/0906Z"
    },
    {
      "icao": "GCTS",
      "alert": "OK",
      "vis_m": 9999,
      "fzfg": false,
      "metar_trigger": false,
      "taf_trigger": false,
      "metar": "METAR GCTS 090700Z 03011KT 9999 FEW025 16/10 Q1029 NOSIG",
      "taf": "TAF GCTS 090200Z 0903/1003 03010KT 9999 FEW035 TX22/0914Z TN15/0906Z"
    },
    {
      "icao": "GMAD",
      "alert": "OK",
      "vis_m": 9999,
      "fzfg": false,
      "metar_trigger": false,
      "taf_trigger": false,
      "metar": "METAR GMAD 090730Z 06008KT CAVOK 05/05 Q1030 NOSIG",
      "taf": "TAF GMAD 090500Z 0906/1012 05005KT CAVOK"
    },
    {
      "icao": "GMMN",
      "alert": "OK",
      "vis_m": 6000,
      "fzfg": false,
      "metar_trigger": false,
      "taf_trigger": false,
      "metar": "METAR GMMN 090730Z 15003KT 100V220 6000 BKN030 07/06 Q1031 NOSIG",
      "taf": "TAF GMMN 090500Z 0906/1012 15004KT 9999 SCT030"
    },
    {
      "icao": "GMMX",
      "alert": "OK",
      "vis_m": 8000,
      "fzfg": false,
      "metar_trigger": false,
      "taf_trigger": false,
      "metar": "METAR GMMX 090730Z VRB01KT 8000 NSC 05/03 Q1030 NOSIG",
      "taf": "TAF GMMX 090500Z 0906/1012 24004KT 8000 NSC"
    },
    {
      "icao": "HEGN",
      "alert": "OK",
      "vis_m": 9999,
      "fzfg": false,
      "metar_trigger": false,
      "taf_trigger": false,
      "metar": "METAR HEGN 090700Z 32005KT CAVOK 22/10 Q1015 NOSIG",
      "taf": "TAF HEGN 090500Z 0906/1012 32015G30KT 6000 NSC"
    },
    {
      "icao": "HEMA",
      "alert": "OK",
      "vis_m": 9999,
      "fzfg": false,
      "metar_trigger": false,
      "taf_trigger": false,
      "metar": "METAR HEMA 090700Z 19008KT CAVOK 19/14 Q1014 NOSIG",
      "taf": "TAF HEMA 090500Z 0906/1012 32008G20KT 6000 NSC"
    },
    {
      "icao": "HESH",
      "alert": "OK",
      "vis_m": 8000,
      "fzfg": false,
      "metar_trigger": false,
      "taf_trigger": false,
      "metar": "METAR HESH 090700Z 16007KT 8000 NSC 21/17 Q1013 NOSIG",
      "taf": "TAF HESH 090500Z 0906/1012 34010G22KT 6000 NSC"
    },
    {
      "icao": "HESX",
      "alert": "OK",
      "vis_m": 9999,
      "fzfg": false,
      "metar_trigger": false,
      "taf_trigger": false,
      "metar": "METAR HESX 090700Z 30012KT CAVOK 15/08 Q1018 NOSIG",
      "taf": "TAF HESX 090500Z 0906/1012 27015KT 6000 SCT025"
    },
    {
      "icao": "LATI",
      "alert": "OK",
      "vis_m": 9999,
      "fzfg": false,
      "metar_trigger": false,
      "taf_trigger": false,
      "metar": "METAR LATI 090720Z 13006KT 9999 SCT045 BKN078 03/M02 Q1015 NOSIG",
      "taf": "TAF LATI 090500Z 0906/1006 VRB05KT CAVOK TX14/0921Z TN01/0906Z"
    },
    {
      "icao": "LBPD",
      "alert": "OK",
      "vis_m": 9999,
      "fzfg": false,
      "metar_trigger": false,
      "taf_trigger": false,
      "metar": "METAR LBPD 090730Z AUTO 30014KT 9999 NCD 02/M08 Q1009 NOSIG",
      "taf": "TAF LBPD 090500Z 0906/1006 29010KT 9999 SCT050"
    },
    {
      "icao": "LBSF",
      "alert": "OK",
      "vis_m": 9999,
      "fzfg": false,
      "metar_trigger": false,
      "taf_trigger": false,
      "metar": "METAR LBSF 090730Z VRB05KT CAVOK M05/M09 Q1010 NOSIG",
      "taf": "TAF LBSF 090500Z 0906/1006 VRB04KT 9999 SCT030"
    },
    {
      "icao": "LBWN",
      "alert": "OK",
      "vis_m": 9999,
      "fzfg": false,
      "metar_trigger": false,
      "taf_trigger": false,
      "metar": "METAR LBWN 090730Z 27013KT CAVOK M02/M07 Q1007 NOSIG",
      "taf": "TAF LBWN 090500Z 0906/1006 28018G28KT CAVOK"
    },
    {
      "icao": "LCLK",
      "alert": "OK",
      "vis_m": 9999,
      "fzfg": false,
      "metar_trigger": false,
      "taf_trigger": false,
      "metar": "METAR LCLK 090730Z VRB04KT 9999 FEW020 FEW030TCU FEW035CB SCT070 18/10 Q1008 NOSIG RMK CB TO SW NW",
      "taf": "TAF LCLK 090530Z 0906/1006 24014KT 9999 FEW020 SCT040"
    },
    {
      "icao": "LCPH",
      "alert": "OK",
      "vis_m": 6000,
      "fzfg": false,
      "metar_trigger": false,
      "taf_trigger": false,
      "metar": "METAR LCPH 090730Z 31032G42KT 6000 R29/P2000 R11/0600 -SHRA FEW025 FEW030CB SCT050 BKN070 14/10 Q1009 TEMPO 5000 TSRA BKN005",
      "taf": "TAF LCPH 090530Z 0906/1006 30025G35KT 9999 FEW025 SCT040"
    },
    {
      "icao": "LEAL",
      "alert": "OK",
      "vis_m": 9999,
      "fzfg": false,
      "metar_trigger": false,
      "taf_trigger": false,
      "metar": "METAR LEAL 090700Z 26012KT CAVOK 13/05 Q1023 NOSIG",
      "taf": "TAF LEAL 090500Z 0906/1006 23008KT CAVOK TX18/0914Z TN10/0906Z"
    },
    {
      "icao": "LEBB",
      "alert": "OK",
      "vis_m": 9999,
      "fzfg": false,
      "metar_trigger": false,
      "taf_trigger": false,
      "metar": "METAR LEBB 090700Z VRB02KT 9999 SCT042 BKN055 10/08 Q1017 NOSIG",
      "taf": "TAF LEBB 090500Z 0906/1006 29009KT 9999 FEW020 SCT040 TX12/0914Z TN07/0923Z"
    },
    {
      "icao": "LEBL",
      "alert": "OK",
      "vis_m": 9999,
      "fzfg": false,
      "metar_trigger": false,
      "taf_trigger": false,
      "metar": "METAR LEBL 090700Z 26014KT 9999 FEW025 12/05 Q1014 NOSIG",
      "taf": ""
    },
    {
      "icao": "LECH",
      "alert": "OK",
      "vis_m": 9999,
      "fzfg": false,
      "metar_trigger": false,
      "taf_trigger": false,
      "metar": "METAR LECH 090700Z AUTO 26002KT 9999 FEW070 09/02 Q1017",
      "taf": ""
    },
    {
      "icao": "LEMD",
      "alert": "OK",
      "vis_m": 9999,
      "fzfg": false,
      "metar_trigger": false,
      "taf_trigger": false,
      "metar": "METAR LEMD 090700Z 23014G24KT 9999 FEW010 SCT040 BKN055 08/06 Q1022 NOSIG",
      "taf": "TAF LEMD 090500Z 0906/1012 23010KT 9999 SCT030 TX11/0912Z TN01/1006Z"
    },
    {
      "icao": "LEMG",
      "alert": "OK",
      "vis_m": 9999,
      "fzfg": false,
      "metar_trigger": false,
      "taf_trigger": false,
      "metar": "METAR LEMG 090700Z 29013KT 260V320 9999 FEW025 09/06 Q1028 NOSIG",
      "taf": "TAF LEMG 090500Z 0906/1006 29013KT CAVOK TX18/0914Z TN08/0906Z"
    },
    {
      "icao": "LEVC",
      "alert": "OK",
      "vis_m": 9999,
      "fzfg": false,
      "metar_trigger": false,
      "taf_trigger": false,
      "metar": "METAR LEVC 090700Z 26013KT CAVOK 11/05 Q1021 NOSIG",
      "taf": "TAF LEVC 090500Z 0906/1006 27015KT 9999 FEW020 TX18/0914Z TN09/0906Z"
    },
    {
      "icao": "LEXJ",
      "alert": "OK",
      "vis_m": 9999,
      "fzfg": false,
      "metar_trigger": false,
      "taf_trigger": false,
      "metar": "METAR LEXJ 090700Z 29023G35KT 9999 BKN060 BKN065 12/06 Q1016",
      "taf": "TAF LEXJ 090200Z 0903/1003 24009KT 9999 SCT025 TX12/0913Z TN07/0921Z"
    },
    {
      "icao": "LEZG",
      "alert": "OK",
      "vis_m": 9999,
      "fzfg": false,
      "metar_trigger": false,
      "taf_trigger": false,
      "metar": "METAR LEZG 090700Z 25016KT 9999 FEW070 12/04 Q1016 NOSIG",
      "taf": "TAF LEZG 090500Z 0906/1006 24020KT CAVOK TX14/0915Z TN05/0906Z"
    },
    {
      "icao": "LEZL",
      "alert": "OK",
      "vis_m": 9000,
      "fzfg": false,
      "metar_trigger": false,
      "taf_trigger": false,
      "metar": "METAR LEZL 090700Z 20003KT 170V240 9000 OVC010 10/09 Q1030 NOSIG",
      "taf": ""
    },
    {
      "icao": "LFBD",
      "alert": "OK",
      "vis_m": 9999,
      "fzfg": false,
      "metar_trigger": false,
      "taf_trigger": false,
      "metar": "METAR LFBD 090730Z AUTO 28019KT 9999 SCT036/// BKN130/// BKN150/// ///CB 11/05 Q1010",
      "taf": "TAF LFBD 090500Z 0906/1012 26015G25KT 9999 BKN030 TX11/0914Z TN09/0906Z"
    },
    {
      "icao": "LFLL",
      "alert": "OK",
      "vis_m": 9999,
      "fzfg": false,
      "metar_trigger": false,
      "taf_trigger": false,
      "metar": "METAR LFLL 090730Z 22015KT CAVOK 08/02 Q1005 NOSIG",
      "taf": "TAF LFLL 090500Z 0906/1012 22012KT 9999 BKN045"
    },
    {
      "icao": "LFLS",
      "alert": "OK",
      "vis_m": 9999,
      "fzfg": false,
      "metar_trigger": false,
      "taf_trigger": false,
      "metar": "METAR LFLS 090730Z AUTO 21013KT 9999 BKN045 BKN110 OVC130 07/03 Q1006",
      "taf": ""
    },
    {
      "icao": "LFMN",
      "alert": "OK",
      "vis_m": 9999,
      "fzfg": false,
      "metar_trigger": false,
      "taf_trigger": false,
      "metar": "METAR LFMN 090730Z 26010KT 9999 BKN120 13/04 Q1004 NOSIG",
      "taf": "TAF LFMN 090200Z 0903/1009 33010KT CAVOK"
    },
    {
      "icao": "LFOB",
      "alert": "OK",
      "vis_m": 9999,
      "fzfg": false,
      "metar_trigger": false,
      "taf_trigger": false,
      "metar": "METAR LFOB 090730Z AUTO 26020G32KT 9999 -RA BKN016 OVC024 04/03 Q0988 TEMPO 4000 SHRA BKN012TCU",
      "taf": "TAF LFOB 090500Z 0906/1006 25025G40KT 9999 OVC020"
    },
    {
      "icao": "LFPO",
      "alert": "OK",
      "vis_m": 9999,
      "fzfg": false,
      "metar_trigger": false,
      "taf_trigger": false,
      "metar": "METAR LFPO 090730Z 25022KT 9999 BKN027 07/02 Q0992 NOSIG",
      "taf": "TAF LFPO 090500Z 0906/1012 24025G40KT 9999 BKN030"
    },
    {
      "icao": "LFSB",
      "alert": "OK",
      "vis_m": 9999,
      "fzfg": false,
      "metar_trigger": false,
      "taf_trigger": false,
      "metar": "METAR LFSB 090730Z AUTO 23017KT 190V250 9999 FEW046 SCT100 BKN160 08/02 Q0999 TEMPO 24020G40KT",
      "taf": ""
    },
    {
      "icao": "LGAV",
      "alert": "OK",
      "vis_m": 9999,
      "fzfg": false,
      "metar_trigger": false,
      "taf_trigger": false,
      "metar": "METAR LGAV 090720Z VRB01KT 9999 FEW025 09/M02 Q1016 NOSIG",
      "taf": "TAF LGAV 090500Z 0906/1006 25012KT 9999 FEW025"
    },
    {
      "icao": "LGTS",
      "alert": "OK",
      "vis_m": 9999,
      "fzfg": false,
      "metar_trigger": false,
      "taf_trigger": false,
      "metar": "METAR LGTS 090720Z COR 11004KT CAVOK 03/M06 Q1014 NOSIG",
      "taf": "TAF LGTS 090500Z 0906/1006 31015KT 9999 FEW025"
    },
    {
      "icao": "LHBP",
      "alert": "OK",
      "vis_m": 9000,
      "fzfg": false,
      "metar_trigger": false,
      "taf_trigger": false,
      "metar": "METAR LHBP 090730Z 08004KT 9000 NSC M11/M12 Q1007 TEMPO FM0800 4000 SN SCT045 BKN060",
      "taf": "TAF LHBP 090515Z 0906/1006 VRB03KT CAVOK"
    },
    {
      "icao": "LHDC",
      "alert": "OK",
      "vis_m": 4800,
      "fzfg": false,
      "metar_trigger": false,
      "taf_trigger": false,
      "metar": "METAR LHDC 090715Z AUTO 17005KT 4800 BR NCD M14/M16 Q1008 NOSIG",
      "taf": "TAF LHDC 090515Z 0906/0915 14005KT CAVOK"
    },
    {
      "icao": "LIBD",
      "alert": "OK",
      "vis_m": 9999,
      "fzfg": false,
      "metar_trigger": false,
      "taf_trigger": false,
      "metar": "METAR LIBD 090720Z 18003KT 9999 FEW045 07/05 Q1010",
      "taf": "TAF LIBD 090500Z 0906/1006 17008KT 9999 FEW020"
    },
    {
      "icao": "LIBG",
      "alert": "OK",
      "vis_m": 9999,
      "fzfg": false,
      "metar_trigger": false,
      "taf_trigger": false,
      "metar": "SPECI LIBG 090655Z VRB02KT 9999 FEW015 SCT030 07/07 Q1012",
      "taf": ""
    },
    {
      "icao": "LIBP",
      "alert": "OK",
      "vis_m": 9999,
      "fzfg": false,
      "metar_trigger": false,
      "taf_trigger": false,
      "metar": "METAR LIBP 090720Z AUTO VRB02KT 9999 OVC190/// 06/04 Q1006",
      "taf": "TAF LIBP 090500Z 0906/1006 VRB06KT 9999 SCT025"
    },
    {
      "icao": "LIBR",
      "alert": "OK",
      "vis_m": 9999,
      "fzfg": false,
      "metar_trigger": false,
      "taf_trigger": false,
      "metar": "METAR LIBR 090720Z 15004KT 110V190 9999 -RA FEW030 06/04 Q1013",
      "taf": "TAF LIBR 090500Z 0906/1006 17010KT 9999 FEW040"
    },
    {
      "icao": "LICA",
      "alert": "OK",
      "vis_m": 9999,
      "fzfg": false,
      "metar_trigger": false,
      "taf_trigger": false,
      "metar": "METAR LICA 090720Z AUTO 25020KT 9999 BKN019/// BKN077/// 15/12 Q1015",
      "taf": "TAF LICA 090500Z 0906/1006 27026G38KT 9999 BKN016"
    },
    {
      "icao": "LICC",
      "alert": "OK",
      "vis_m": 9999,
      "fzfg": false,
      "metar_trigger": false,
      "taf_trigger": false,
      "metar": "METAR LICC 090720Z 24013KT 9999 BKN060 14/10 Q1018",
      "taf": "TAF LICC 090500Z 0906/1006 26013KT 9999 FEW050"
    },
    {
      "icao": "LICJ",
      "alert": "OK",
      "vis_m": 9999,
      "fzfg": false,
      "metar_trigger": false,
      "taf_trigger": false,
      "metar": "METAR LICJ 090720Z 22019G29KT 9999 SCT040 16/12 Q1018",
      "taf": "TAF LICJ 090500Z 0906/1006 23020G35KT 9999 SCT020"
    },
    {
      "icao": "LIMC",
      "alert": "OK",
      "vis_m": 5000,
      "fzfg": false,
      "metar_trigger": false,
      "taf_trigger": false,
      "metar": "METAR LIMC 090720Z 16004KT 130V190 5000 BR BKN030 00/M02 Q1006 NOSIG",
      "taf": "TAF LIMC 090500Z 0906/1012 VRB04KT 9999 BKN025"
    },
    {
      "icao": "LIME",
      "alert": "OK",
      "vis_m": 9999,
      "fzfg": false,
      "metar_trigger": false,
      "taf_trigger": false,
      "metar": "METAR LIME 090720Z 28006KT 9999 BKN030 00/M06 Q1006 NOSIG",
      "taf": "TAF LIME 090500Z 0906/1006 VRB04KT 9999 SCT050"
    },
    {
      "icao": "LIMF",
      "alert": "OK",
      "vis_m": 8000,
      "fzfg": false,
      "metar_trigger": false,
      "taf_trigger": false,
      "metar": "METAR LIMF 090720Z VRB02KT 8000 SCT030 M01/M06 Q1006",
      "taf": "TAF LIMF 090500Z 0906/1006 VRB03KT 9999 BKN030"
    },
    {
      "icao": "LIMJ",
      "alert": "OK",
      "vis_m": 9999,
      "fzfg": false,
      "metar_trigger": false,
      "taf_trigger": false,
      "metar": "METAR LIMJ 090720Z 05017KT 9999 SCT020 BKN032 07/01 Q1004",
      "taf": "TAF LIMJ 090500Z 0906/1006 03012KT 9999 SCT020 BKN030"
    },
    {
      "icao": "LIPE",
      "alert": "OK",
      "vis_m": 9999,
      "fzfg": false,
      "metar_trigger": false,
      "taf_trigger": false,
      "metar": "METAR LIPE 090720Z 34003KT 310V020 9999 BKN016 M01/M02 Q1006",
      "taf": "TAF LIPE 090500Z 0906/1006 VRB05KT 9999 BKN020"
    },
    {
      "icao": "LIPH",
      "alert": "OK",
      "vis_m": 9999,
      "fzfg": false,
      "metar_trigger": false,
      "taf_trigger": false,
      "metar": "METAR LIPH 090720Z VRB02KT 9999 BKN040 00/M03 Q1006",
      "taf": "TAF LIPH 090500Z 0906/1006 VRB05KT 9999 BKN030"
    },
    {
      "icao": "LIPQ",
      "alert": "OK",
      "vis_m": 9999,
      "fzfg": false,
      "metar_trigger": false,
      "taf_trigger": false,
      "metar": "METAR LIPQ 090720Z AUTO 02003KT 9999 OVC018/// 02/M02 Q1006",
      "taf": "TAF LIPQ 090500Z 0906/1006 VRB05KT 9999 BKN030"
    },
    {
      "icao": "LIPR",
      "alert": "OK",
      "vis_m": 9999,
      "fzfg": false,
      "metar_trigger": false,
      "taf_trigger": false,
      "metar": "METAR LIPR 090720Z 29003KT 260V320 9999 BKN060 01/M02 Q1006",
      "taf": "TAF LIPR 090500Z 0906/1006 VRB05KT 9999 BKN040"
    },
    {
      "icao": "LIPX",
      "alert": "OK",
      "vis_m": 9999,
      "fzfg": false,
      "metar_trigger": false,
      "taf_trigger": false,
      "metar": "METAR LIPX 090720Z 01003KT 9999 BKN030 M00/M05 Q1006",
      "taf": "TAF LIPX 090500Z 0906/1006 VRB05KT 7000 FEW020"
    },
    {
      "icao": "LIPY",
      "alert": "OK",
      "vis_m": 9999,
      "fzfg": false,
      "metar_trigger": false,
      "taf_trigger": false,
      "metar": "METAR LIPY 090720Z AUTO /////KT 9999 BKN059/// BKN140/// BKN190/// ///// Q////",
      "taf": "TAF LIPY 090500Z 0906/1006 VRB05KT 9999 SCT035"
    },
    {
      "icao": "LIPZ",
      "alert": "OK",
      "vis_m": 9999,
      "fzfg": false,
      "metar_trigger": false,
      "taf_trigger": false,
      "metar": "METAR LIPZ 090720Z 35005KT 9999 BKN020 01/M03 Q1006 NOSIG",
      "taf": "TAF LIPZ 090500Z 0906/1012 VRB06KT 9999 BKN020"
    },
    {
      "icao": "LIRF",
      "alert": "OK",
      "vis_m": 9999,
      "fzfg": false,
      "metar_trigger": false,
      "taf_trigger": false,
      "metar": "METAR LIRF 090720Z 24015KT 9999 FEW030 SCT040 14/10 Q1010 NOSIG",
      "taf": "TAF LIRF 090500Z 0906/1012 25016G26KT 9999 SCT020"
    },
    {
      "icao": "LIRN",
      "alert": "OK",
      "vis_m": 9999,
      "fzfg": false,
      "metar_trigger": false,
      "taf_trigger": false,
      "metar": "METAR LIRN 090720Z 20004KT 9999 FEW025 SCT045 11/11 Q1012 NOSIG",
      "taf": "TAF LIRN 090500Z 0906/1006 VRB05KT 9999 BKN025"
    },
    {
      "icao": "LIRP",
      "alert": "OK",
      "vis_m": 9999,
      "fzfg": false,
      "metar_trigger": false,
      "taf_trigger": false,
      "metar": "METAR LIRP 090715Z 23012KT 9999 FEW015 SCT020 BKN070 13/12 Q1006 NOSIG",
      "taf": "TAF LIRP 090500Z 0906/1006 12003KT 9999 SCT020 SCT030"
    },
    {
      "icao": "LIRZ",
      "alert": "OK",
      "vis_m": 9999,
      "fzfg": false,
      "metar_trigger": false,
      "taf_trigger": false,
      "metar": "METAR LIRZ 090720Z AUTO 19003KT 160V250 9999 BKN016/// 08/07 Q1008",
      "taf": "TAF LIRZ 090500Z 0906/1006 VRB05KT 9999 BKN040"
    },
    {
      "icao": "LJLJ",
      "alert": "OK",
      "vis_m": 9999,
      "fzfg": false,
      "metar_trigger": false,
      "taf_trigger": false,
      "metar": "METAR LJLJ 090700Z 34002KT 9999 BKN027 OVC040 M04/M06 Q1004 NOSIG",
      "taf": "TAF LJLJ 090500Z 0906/1006 29006KT 9999 BKN030"
    },
    {
      "icao": "LKMT",
      "alert": "OK",
      "vis_m": 9999,
      "fzfg": false,
      "metar_trigger": false,
      "taf_trigger": false,
      "metar": "METAR LKMT 090730Z 00000KT CAVOK M11/M13 Q1005 NOSIG",
      "taf": "TAF LKMT 090500Z 0906/1006 VRB02KT 5000 BR NSC"
    },
    {
      "icao": "LKPR",
      "alert": "OK",
      "vis_m": 900,
      "fzfg": false,
      "metar_trigger": false,
      "taf_trigger": false,
      "metar": "METAR LKPR 090730Z 11008KT 0900 R06/1000D R30/1300D SN BKN003 OVC008 M04/M05 Q0999 NOSIG",
      "taf": "TAF LKPR 090500Z 0906/1012 09007KT 6000 -SN SCT010 OVC015"
    },
    {
      "icao": "LLBG",
      "alert": "OK",
      "vis_m": 9999,
      "fzfg": false,
      "metar_trigger": false,
      "taf_trigger": false,
      "metar": "METAR LLBG 090720Z 19005KT 9999 FEW022 SCT033 17/14 Q1014 TEMPO RA FEW025TCU RMK BKN070",
      "taf": "TAF LLBG 090502Z 0906/1006 24014KT 9999 SCT025 BKN035"
    },
    {
      "icao": "LMML",
      "alert": "OK",
      "vis_m": 9999,
      "fzfg": false,
      "metar_trigger": false,
      "taf_trigger": false,
      "metar": "METAR LMML 090715Z 25011KT 9999 FEW028 14/09 Q1022 NOSIG",
      "taf": "TAF LMML 090500Z 0906/1006 27017KT 9999 FEW025"
    },
    {
      "icao": "LOWW",
      "alert": "OK",
      "vis_m": 9000,
      "fzfg": false,
      "metar_trigger": false,
      "taf_trigger": false,
      "metar": "METAR LOWW 090720Z 13011KT 9000 FEW015 M06/M08 Q1004 TEMPO 1200 SN BKN012",
      "taf": "TAF LOWW 090515Z 0906/1012 12008KT 9999 BKN020 TXM00/1012Z TNM06/0909Z"
    },
    {
      "icao": "LPFR",
      "alert": "OK",
      "vis_m": 9999,
      "fzfg": false,
      "metar_trigger": false,
      "taf_trigger": false,
      "metar": "METAR LPFR 090700Z 32007KT 9999 FEW008 SCT016 11/11 Q1030",
      "taf": "TAF LPFR 090500Z 0906/1006 31005KT 9999 SCT012 BKN020"
    },
    {
      "icao": "LPMA",
      "alert": "OK",
      "vis_m": 9999,
      "fzfg": false,
      "metar_trigger": false,
      "taf_trigger": false,
      "metar": "METAR LPMA 090700Z 36007KT 9999 BKN015 15/11 Q1033",
      "taf": "TAF LPMA 090500Z 0906/1006 01010KT 9999 SCT015"
    },
    {
      "icao": "LPPR",
      "alert": "OK",
      "vis_m": 9999,
      "fzfg": false,
      "metar_trigger": false,
      "taf_trigger": false,
      "metar": "METAR LPPR 090700Z 30009G19KT 220V340 9999 -SHRA FEW018 FEW020TCU SCT040 12/10 Q1026",
      "taf": "TAF LPPR 090500Z 0906/1006 30010KT 9999 FEW020"
    },
    {
      "icao": "LPPS",
      "alert": "OK",
      "vis_m": 9000,
      "fzfg": false,
      "metar_trigger": false,
      "taf_trigger": false,
      "metar": "METAR LPPS 090700Z 01006KT 9000 -RA SCT012 BKN030 14/13 Q1033",
      "taf": "TAF LPPS 090500Z 0906/1012 05008KT 9999 FEW015 SCT030"
    },
    {
      "icao": "LPPT",
      "alert": "OK",
      "vis_m": 9999,
      "fzfg": false,
      "metar_trigger": false,
      "taf_trigger": false,
      "metar": "METAR LPPT 090700Z 28004KT 230V330 9999 FEW008 SCT030 12/12 Q1028",
      "taf": ""
    },
    {
      "icao": "LQBK",
      "alert": "OK",
      "vis_m": 7000,
      "fzfg": false,
      "metar_trigger": false,
      "taf_trigger": false,
      "metar": "METAR LQBK 090700Z 34004KT 7000 SCT045 M09/M10 Q1007 NOSIG",
      "taf": "TAF LQBK 090500Z 0906/1006 15005KT 9999 SCT040 TX01/0913Z TNM10/0906Z"
    },
    {
      "icao": "LQSA",
      "alert": "OK",
      "vis_m": 5000,
      "fzfg": false,
      "metar_trigger": false,
      "taf_trigger": false,
      "metar": "METAR LQSA 090700Z 00000KT 5000 -SG BR SCT050 M10/M11 Q1010 NOSIG",
      "taf": "TAF LQSA 090500Z 0906/1006 10006KT 6000 SCT050 TX02/0913Z TNM12/0906Z"
    },
    {
      "icao": "LQTZ",
      "alert": "OK",
      "vis_m": 2000,
      "fzfg": false,
      "metar_trigger": false,
      "taf_trigger": false,
      "metar": "METAR LQTZ 090700Z VRB02KT 2000 BR SCT050 M12/M12 Q1008",
      "taf": "TAF LQTZ 090500Z 0906/1006 10005KT 7000 SCT060 TX03/0913Z TNM13/0906Z"
    },
    {
      "icao": "LRBC",
      "alert": "OK",
      "vis_m": 9999,
      "fzfg": false,
      "metar_trigger": false,
      "taf_trigger": false,
      "metar": "METAR LRBC 090700Z 25013KT CAVOK M03/M10 Q1002",
      "taf": "TAF LRBC 090500Z 0906/0915 26012KT CAVOK"
    },
    {
      "icao": "LRBS",
      "alert": "OK",
      "vis_m": 9999,
      "fzfg": false,
      "metar_trigger": false,
      "taf_trigger": false,
      "metar": "METAR LRBS 090700Z 27008KT CAVOK M04/M07 Q1007 NOSIG",
      "taf": "TAF LRBS 090500Z 0906/1006 25012KT CAVOK"
    },
    {
      "icao": "LRBV",
      "alert": "OK",
      "vis_m": 9999,
      "fzfg": false,
      "metar_trigger": false,
      "taf_trigger": false,
      "metar": "METAR LRBV 090700Z 28008KT 250V320 9999 -SN BKN017 BKN036 M07/M10 Q1005",
      "taf": "TAF LRBV 090500Z 0906/0915 30012KT 9999 -SN SCT015 OVC030"
    },
    {
      "icao": "LRCL",
      "alert": "OK",
      "vis_m": 9999,
      "fzfg": false,
      "metar_trigger": false,
      "taf_trigger": false,
      "metar": "METAR LRCL 090700Z 29005KT 9999 FEW033 M06/M10 Q1006",
      "taf": "TAF LRCL 090500Z 0906/0915 29010KT 9999 OVC040"
    },
    {
      "icao": "LRCV",
      "alert": "OK",
      "vis_m": 9999,
      "fzfg": false,
      "metar_trigger": false,
      "taf_trigger": false,
      "metar": "METAR LRCV 090700Z 27009KT CAVOK M05/M07 Q1008",
      "taf": "TAF LRCV 090500Z 0906/0915 29010KT CAVOK"
    },
    {
      "icao": "LRIA",
      "alert": "OK",
      "vis_m": 9999,
      "fzfg": false,
      "metar_trigger": false,
      "taf_trigger": false,
      "metar": "METAR LRIA 090700Z 24009KT 210V280 CAVOK M02/M08 Q1001",
      "taf": "TAF LRIA 090500Z 0906/0915 26008KT 9999 BKN045"
    },
    {
      "icao": "LROP",
      "alert": "OK",
      "vis_m": 9999,
      "fzfg": false,
      "metar_trigger": false,
      "taf_trigger": false,
      "metar": "METAR LROP 090700Z 25010KT CAVOK M04/M07 Q1006 NOSIG",
      "taf": "TAF LROP 090500Z 0906/1006 25012KT CAVOK"
    },
    {
      "icao": "LRSB",
      "alert": "OK",
      "vis_m": 9999,
      "fzfg": false,
      "metar_trigger": false,
      "taf_trigger": false,
      "metar": "METAR LRSB 090700Z 28013KT 9999 FEW055 M06/M11 Q1006",
      "taf": "TAF LRSB 090500Z 0906/1006 29012KT 9999 OVC050"
    },
    {
      "icao": "LRSM",
      "alert": "OK",
      "vis_m": 9999,
      "fzfg": false,
      "metar_trigger": false,
      "taf_trigger": false,
      "metar": "METAR LRSM 090700Z 23003KT 200V270 9999 FEW033 M12/M14 Q1008",
      "taf": "TAF LRSM 090500Z 0906/0915 26010KT 9999 SCT030"
    },
    {
      "icao": "LRSV",
      "alert": "OK",
      "vis_m": 9999,
      "fzfg": false,
      "metar_trigger": false,
      "taf_trigger": false,
      "metar": "METAR LRSV 090700Z 27007KT 9999 BKN043 M04/M10 Q0999",
      "taf": "TAF LRSV 090500Z 0906/0915 28012KT 9999 BKN045"
    },
    {
      "icao": "LRTM",
      "alert": "OK",
      "vis_m": 9999,
      "fzfg": false,
      "metar_trigger": false,
      "taf_trigger": false,
      "metar": "METAR LRTM 090700Z 23005KT 9999 FEW030 BKN037 M06/M09 Q1007",
      "taf": "TAF LRTM 090500Z 0906/0915 23010KT 9999 OVC040"
    },
    {
      "icao": "LRTR",
      "alert": "OK",
      "vis_m": 4500,
      "fzfg": false,
      "metar_trigger": false,
      "taf_trigger": false,
      "metar": "METAR LRTR 090700Z VRB02KT 4500 BR NSC M15/M17 Q1010 BECMG 5000",
      "taf": ""
    },
    {
      "icao": "LTAC",
      "alert": "OK",
      "vis_m": 7000,
      "fzfg": false,
      "metar_trigger": false,
      "taf_trigger": false,
      "metar": "METAR LTAC 090720Z 24012KT 7000 FEW015 SCT030 BKN080 01/M01 Q1005 RESN NOSIG RMK RWY21C 23014KT RWY03L 23011KT RWY21R 22013KT RWY03R 23013KT RWY21L 23013KT",
      "taf": "TAF LTAC 090440Z 0906/1006 24012KT 8000 SCT040 BKN100"
    },
    {
      "icao": "LTFM",
      "alert": "OK",
      "vis_m": 9999,
      "fzfg": false,
      "metar_trigger": false,
      "taf_trigger": false,
      "metar": "METAR LTFM 090720Z 25011KT 9999 FEW040 00/M07 Q1011 NOSIG RMK RWY17L 25009KT RWY34L 24010KT RWY16R 25006KT 220V290 RWY36 26012KT RWY18 26012KT",
      "taf": "TAF LTFM 090440Z 0906/1012 26008KT 9999 FEW040"
    },
    {
      "icao": "LUKK",
      "alert": "OK",
      "vis_m": 9999,
      "fzfg": false,
      "metar_trigger": false,
      "taf_trigger": false,
      "metar": "METAR LUKK 090700Z 27008KT 9999 FEW030 BKN042 M04/M07 Q1001 NOSIG",
      "taf": "TAF LUKK 090516Z 0906/1006 27010KT 9999 SCT030"
    },
    {
      "icao": "LWOH",
      "alert": "OK",
      "vis_m": 9999,
      "fzfg": false,
      "metar_trigger": false,
      "taf_trigger": false,
      "metar": "METAR LWOH 090720Z 34004KT 9999 FEW040 SCT090 M03/M05 Q1013",
      "taf": "TAF LWOH 082020Z 0821/0921 VRB02KT 9999 FEW015 BKN035"
    },
    {
      "icao": "LWSK",
      "alert": "OK",
      "vis_m": 9999,
      "fzfg": false,
      "metar_trigger": false,
      "taf_trigger": false,
      "metar": "METAR LWSK 090720Z VRB02KT CAVOK M05/M08 Q1014 NOSIG",
      "taf": "TAF LWSK 090540Z 0906/1006 VRB02KT CAVOK"
    },
    {
      "icao": "LYBE",
      "alert": "OK",
      "vis_m": 6000,
      "fzfg": false,
      "metar_trigger": false,
      "taf_trigger": false,
      "metar": "METAR LYBE 090700Z 06003KT 6000 NSC M09/M10 Q1009 NOSIG",
      "taf": "TAF LYBE 090500Z 0906/1006 10005KT CAVOK TX01/0919Z TNM12/0906Z"
    },
    {
      "icao": "LYNI",
      "alert": "OK",
      "vis_m": 9999,
      "fzfg": false,
      "metar_trigger": false,
      "taf_trigger": false,
      "metar": "METAR LYNI 090700Z VRB02KT 9999 4500E NSC M07/M09 Q1012 NOSIG",
      "taf": "TAF LYNI 090500Z 0906/1006 19004KT CAVOK TX02/0914Z TNM10/0906Z"
    },
    {
      "icao": "LYPG",
      "alert": "OK",
      "vis_m": 9999,
      "fzfg": false,
      "metar_trigger": false,
      "taf_trigger": false,
      "metar": "METAR LYPG 090700Z 34004KT 310V010 9999 FEW040 BKN050 01/M04 Q1016 NOSIG",
      "taf": "TAF LYPG 090500Z 0906/1006 02008KT 9999 BKN034 BKN070 TX07/0923Z TN00/0906Z"
    },
    {
      "icao": "LZIB",
      "alert": "OK",
      "vis_m": 9999,
      "fzfg": false,
      "metar_trigger": false,
      "taf_trigger": false,
      "metar": "METAR LZIB 090730Z 06008KT CAVOK M06/M09 Q1005 NOSIG",
      "taf": "TAF LZIB 090515Z 0906/1006 07005KT 9999 SCT023"
    },
    {
      "icao": "LZKZ",
      "alert": "OK",
      "vis_m": 9999,
      "fzfg": false,
      "metar_trigger": false,
      "taf_trigger": false,
      "metar": "METAR LZKZ 090730Z 31002KT CAVOK M12/M14 Q1006 NOSIG",
      "taf": "TAF LZKZ 090515Z 0906/1006 VRB02KT CAVOK"
    },
    {
      "icao": "LZTT",
      "alert": "OK",
      "vis_m": 9999,
      "fzfg": false,
      "metar_trigger": false,
      "taf_trigger": false,
      "metar": "METAR LZTT 090730Z 29008KT CAVOK M12/M15 Q1002 NOSIG",
      "taf": "TAF LZTT 090515Z 0906/1006 VRB02KT 9999 FEW015"
    },
    {
      "icao": "OEJN",
      "alert": "OK",
      "vis_m": 8000,
      "fzfg": false,
      "metar_trigger": false,
      "taf_trigger": false,
      "metar": "METAR OEJN 090700Z VRB03KT 8000 NSC 27/18 Q1016 NOSIG",
      "taf": "TAF OEJN 090500Z 0906/1012 23010KT 7000 FEW040"
    },
    {
      "icao": "OEMA",
      "alert": "OK",
      "vis_m": 9999,
      "fzfg": false,
      "metar_trigger": false,
      "taf_trigger": false,
      "metar": "METAR OEMA 090700Z VRB02KT CAVOK 19/M03 Q1021 NOSIG",
      "taf": "TAF OEMA 090500Z 0906/1012 25018KT 7000 FEW045"
    },
    {
      "icao": "OJAI",
      "alert": "OK",
      "vis_m": 900,
      "fzfg": false,
      "metar_trigger": false,
      "taf_trigger": false,
      "metar": "METAR OJAI 090700Z COR 26015KT 0900 RA FEW010 BKN020 11/10 Q1015 NOSIG",
      "taf": ""
    },
    {
      "icao": "OMAA",
      "alert": "OK",
      "vis_m": 8000,
      "fzfg": false,
      "metar_trigger": false,
      "taf_trigger": false,
      "metar": "METAR OMAA 090700Z 16004KT 100V210 8000 NSC 22/14 Q1020 NOSIG",
      "taf": "TAF OMAA 090500Z 0906/1012 VRB02KT CAVOK"
    },
    {
      "icao": "OMDB",
      "alert": "OK",
      "vis_m": 9999,
      "fzfg": false,
      "metar_trigger": false,
      "taf_trigger": false,
      "metar": "METAR OMDB 090730Z 07005KT 360V110 9999 FEW045 23/10 Q1020 NOSIG",
      "taf": "TAF OMDB 090500Z 0906/1012 06005KT 8000 NSC"
    },
    {
      "icao": "UAAA",
      "alert": "OK",
      "vis_m": 3600,
      "fzfg": false,
      "metar_trigger": false,
      "taf_trigger": false,
      "metar": "METAR UAAA 090700Z 03002MPS 340V070 3600 BR BKN011 M04/M07 Q1023 NOSIG",
      "taf": "TAF UAAA 090505Z 0906/1006 06003G08MPS 4000 BR FU BKN011 OVC020 TXM02/0909Z TNM07/1001Z"
    },
    {
      "icao": "UBBB",
      "alert": "OK",
      "vis_m": 9999,
      "fzfg": false,
      "metar_trigger": false,
      "taf_trigger": false,
      "metar": "METAR UBBB 090700Z 17022KT CAVOK 09/05 Q1003 NOSIG",
      "taf": "TAF UBBB 090504Z 0906/1006 18024G34KT 8000 SCT012 TX12/0910Z TN08/1000Z"
    },
    {
      "icao": "UDSG",
      "alert": "OK",
      "vis_m": 3700,
      "fzfg": false,
      "metar_trigger": false,
      "taf_trigger": false,
      "metar": "METAR UDSG 090700Z 33002KT 3700 BR OVC036 M02/M04 Q1009 NOSIG",
      "taf": "TAF UDSG 090500Z 0906/1006 VRB06KT 1200 BR OVC020"
    },
    {
      "icao": "UDYZ",
      "alert": "OK",
      "vis_m": 1700,
      "fzfg": false,
      "metar_trigger": false,
      "taf_trigger": false,
      "metar": "METAR UDYZ 090700Z VRB01KT 1700 R08/1500U BR SCT046 M01/M05 Q1011 NOSIG",
      "taf": "TAF UDYZ 090500Z 0906/1006 23006KT 2300 BR BKN030"
    },
    {
      "icao": "UGKO",
      "alert": "OK",
      "vis_m": 9999,
      "fzfg": false,
      "metar_trigger": false,
      "taf_trigger": false,
      "metar": "METAR UGKO 090700Z VRB02KT 9999 BKN064 13/06 Q1002 NOSIG",
      "taf": "TAF UGKO 090500Z 0906/1006 08010KT 9999 BKN050 TX12/0906Z TN04/1003Z"
    }
  ]
}