{
  "ts_utc": "2026-05-03T23:27:46Z",
  "threshold_m": 150,
  "source": "stations_override.txt (ICAO list) + aviationweather.gov (METAR/TAF raw)",
  "station_count": 159,
  "stations": [
    {
      "icao": "BIKF",
      "alert": "OK",
      "vis_m": 9999,
      "fzfg": false,
      "metar_trigger": false,
      "taf_trigger": false,
      "metar": "METAR BIKF 032300Z 01010KT 9999 FEW040 02/M05 Q1014",
      "taf": "TAF BIKF 032207Z 0400/0500 33015KT 9999 FEW030 TX05/0414Z TNM01/0404Z"
    },
    {
      "icao": "BKPR",
      "alert": "OK",
      "vis_m": null,
      "fzfg": false,
      "metar_trigger": false,
      "taf_trigger": false,
      "metar": "",
      "taf": ""
    },
    {
      "icao": "EBCI",
      "alert": "OK",
      "vis_m": 9999,
      "fzfg": false,
      "metar_trigger": false,
      "taf_trigger": false,
      "metar": "METAR EBCI 032320Z 18005KT 9999 FEW052TCU 13/12 Q1012 TEMPO 4000 SHRA",
      "taf": "TAF EBCI 032311Z 0400/0506 21004KT 9999 SCT018"
    },
    {
      "icao": "EDDB",
      "alert": "OK",
      "vis_m": 9999,
      "fzfg": false,
      "metar_trigger": false,
      "taf_trigger": false,
      "metar": "METAR EDDB 032320Z AUTO 29012KT CAVOK 21/06 Q1010 NOSIG",
      "taf": "TAF EDDB 032300Z 0400/0424 24006KT CAVOK"
    },
    {
      "icao": "EDDH",
      "alert": "OK",
      "vis_m": 9999,
      "fzfg": false,
      "metar_trigger": false,
      "taf_trigger": false,
      "metar": "METAR EDDH 032320Z AUTO 23010KT 9999 SCT017 BKN025 OVC031 15/12 Q1010 TEMPO BKN014",
      "taf": "TAF EDDH 032300Z 0400/0506 27007KT 9999 BKN020"
    },
    {
      "icao": "EDDK",
      "alert": "OK",
      "vis_m": 9999,
      "fzfg": false,
      "metar_trigger": false,
      "taf_trigger": false,
      "metar": "METAR EDDK 032320Z AUTO 14007KT CAVOK 13/09 Q1013 NOSIG",
      "taf": "TAF EDDK 032300Z 0400/0506 15004KT 9999 SCT030"
    },
    {
      "icao": "EDDN",
      "alert": "OK",
      "vis_m": 9999,
      "fzfg": false,
      "metar_trigger": false,
      "taf_trigger": false,
      "metar": "METAR EDDN 032320Z AUTO 28005KT CAVOK 16/06 Q1015",
      "taf": "TAF EDDN 032300Z 0400/0424 VRB03KT CAVOK"
    },
    {
      "icao": "EDDS",
      "alert": "OK",
      "vis_m": 9999,
      "fzfg": false,
      "metar_trigger": false,
      "taf_trigger": false,
      "metar": "METAR EDDS 032320Z AUTO VRB02KT CAVOK 14/06 Q1014",
      "taf": "TAF EDDS 032300Z 0400/0424 VRB03KT CAVOK"
    },
    {
      "icao": "EDFH",
      "alert": "OK",
      "vis_m": 9999,
      "fzfg": false,
      "metar_trigger": false,
      "taf_trigger": false,
      "metar": "METAR EDFH 032320Z 18007KT CAVOK 10/06 Q1014",
      "taf": "TAF EDFH 032300Z 0400/0424 17005KT CAVOK"
    },
    {
      "icao": "EDJA",
      "alert": "OK",
      "vis_m": 9999,
      "fzfg": false,
      "metar_trigger": false,
      "taf_trigger": false,
      "metar": "METAR EDJA 032320Z AUTO 20008KT 9999 // OVC120/// 12/06 Q1016",
      "taf": "TAF EDJA 031700Z 0318/0403 23004KT CAVOK"
    },
    {
      "icao": "EDLW",
      "alert": "OK",
      "vis_m": 9999,
      "fzfg": false,
      "metar_trigger": false,
      "taf_trigger": false,
      "metar": "METAR EDLW 032320Z AUTO 19007KT 9999 // FEW025/// SCT052/// 14/10 Q1012",
      "taf": "TAF EDLW 031700Z 0318/0418 22012KT CAVOK"
    },
    {
      "icao": "EDNY",
      "alert": "OK",
      "vis_m": 9999,
      "fzfg": false,
      "metar_trigger": false,
      "taf_trigger": false,
      "metar": "METAR EDNY 032320Z AUTO 06003KT 9999 // FEW100/// OVC120/// 11/07 Q1016",
      "taf": "TAF EDNY 031700Z 0318/0403 23003KT CAVOK"
    },
    {
      "icao": "EDSB",
      "alert": "OK",
      "vis_m": 9999,
      "fzfg": false,
      "metar_trigger": false,
      "taf_trigger": false,
      "metar": "METAR EDSB 032320Z AUTO VRB01KT 9999 FEW100/// BKN120/// 13/09 Q1014",
      "taf": "TAF EDSB 032300Z 0400/0424 21003KT CAVOK"
    },
    {
      "icao": "EETN",
      "alert": "OK",
      "vis_m": 9999,
      "fzfg": false,
      "metar_trigger": false,
      "taf_trigger": false,
      "metar": "METAR EETN 032320Z VRB02KT CAVOK 08/05 Q1007",
      "taf": "TAF EETN 031730Z 0318/0418 VRB02KT CAVOK"
    },
    {
      "icao": "EFTU",
      "alert": "OK",
      "vis_m": 9999,
      "fzfg": false,
      "metar_trigger": false,
      "taf_trigger": false,
      "metar": "METAR EFTU 032320Z AUTO 31002KT CAVOK 04/M01 Q1008",
      "taf": "TAF EFTU 032027Z 0321/0421 33005KT CAVOK"
    },
    {
      "icao": "EGBB",
      "alert": "OK",
      "vis_m": 9999,
      "fzfg": false,
      "metar_trigger": false,
      "taf_trigger": false,
      "metar": "METAR EGBB 032320Z 03007KT 9999 BKN010 OVC016 11/09 Q1012",
      "taf": "TAF EGBB 032254Z 0400/0424 01006KT 9999 BKN012"
    },
    {
      "icao": "EGGP",
      "alert": "OK",
      "vis_m": 9999,
      "fzfg": false,
      "metar_trigger": false,
      "taf_trigger": false,
      "metar": "METAR EGGP 032320Z 06007KT 9999 FEW017 OVC039 10/07 Q1013",
      "taf": "TAF EGGP 032255Z 0400/0424 04006KT 9999 BKN030"
    },
    {
      "icao": "EGGW",
      "alert": "OK",
      "vis_m": 5000,
      "fzfg": false,
      "metar_trigger": false,
      "taf_trigger": false,
      "metar": "METAR EGGW 032320Z AUTO 03005KT 5000 -RA SCT004/// //////CB 12/11 Q1011 RERA",
      "taf": "TAF EGGW 032257Z 0400/0424 01004KT 9999 SCT008 BKN030"
    },
    {
      "icao": "EGKK",
      "alert": "OK",
      "vis_m": 9000,
      "fzfg": false,
      "metar_trigger": false,
      "taf_trigger": false,
      "metar": "METAR EGKK 032320Z 23003KT 9000 FEW037 11/10 Q1012",
      "taf": "TAF EGKK 032257Z 0400/0506 21003KT 9999 SCT035"
    },
    {
      "icao": "EGNM",
      "alert": "OK",
      "vis_m": 8000,
      "fzfg": false,
      "metar_trigger": false,
      "taf_trigger": false,
      "metar": "METAR EGNM 032320Z 02008KT 8000 -DZ OVC005 07/06 Q1013",
      "taf": "TAF EGNM 032304Z 0400/0424 02006KT 9999 BKN010"
    },
    {
      "icao": "EGPD",
      "alert": "OK",
      "vis_m": 9999,
      "fzfg": false,
      "metar_trigger": false,
      "taf_trigger": false,
      "metar": "METAR EGPD 032320Z COR AUTO 30003KT 9999 NCD 04/03 Q1014 NOSIG",
      "taf": "TAF EGPD 032255Z 0400/0424 VRB03KT 9999 FEW025 SCT030"
    },
    {
      "icao": "EGPF",
      "alert": "OK",
      "vis_m": 9999,
      "fzfg": false,
      "metar_trigger": false,
      "taf_trigger": false,
      "metar": "METAR EGPF 032320Z AUTO 12002KT 9999 OVC021 09/06 Q1014",
      "taf": "TAF EGPF 032302Z 0400/0424 VRB02KT 9999 SCT020"
    },
    {
      "icao": "EHBK",
      "alert": "OK",
      "vis_m": 9999,
      "fzfg": false,
      "metar_trigger": false,
      "taf_trigger": false,
      "metar": "METAR EHBK 032255Z AUTO 20007KT 9999 NSC 13/11 Q1012",
      "taf": "TAF EHBK 032317Z 0400/0506 19005KT 9999 FEW030"
    },
    {
      "icao": "EHEH",
      "alert": "OK",
      "vis_m": 300,
      "fzfg": false,
      "metar_trigger": false,
      "taf_trigger": false,
      "metar": "METAR EHEH 032255Z AUTO 25001KT 0300 FG SCT000 11/11 Q1011 RED",
      "taf": "TAF EHEH 031730Z 0318/0424 19009KT 9999 FEW018 BKN022"
    },
    {
      "icao": "EKBI",
      "alert": "OK",
      "vis_m": 6000,
      "fzfg": false,
      "metar_trigger": false,
      "taf_trigger": false,
      "metar": "METAR EKBI 032320Z AUTO 30007KT 6000 -RA OVC002/// 11/10 Q1007 RERA",
      "taf": "TAF EKBI 032027Z 0321/0421 33008KT 9999 SCT008"
    },
    {
      "icao": "EKCH",
      "alert": "OK",
      "vis_m": 5000,
      "fzfg": false,
      "metar_trigger": false,
      "taf_trigger": false,
      "metar": "METAR EKCH 032320Z 35005KT 5000 BKN045 13/12 Q1007 NOSIG",
      "taf": "TAF EKCH 032027Z 0321/0421 15008KT 9999 FEW020"
    },
    {
      "icao": "ENAL",
      "alert": "OK",
      "vis_m": 9999,
      "fzfg": false,
      "metar_trigger": false,
      "taf_trigger": false,
      "metar": "METAR ENAL 032320Z AUTO 21018KT 9999 -RA OVC032/// 06/01 Q1003",
      "taf": "TAF ENAL 032000Z 0321/0406 22015KT 9999 SCT035"
    },
    {
      "icao": "ENBR",
      "alert": "OK",
      "vis_m": 9999,
      "fzfg": false,
      "metar_trigger": false,
      "taf_trigger": false,
      "metar": "METAR ENBR 032250Z VRB02KT 9999 FEW030 02/M00 Q1009 RMK WIND 1200FT 26005KT",
      "taf": "TAF ENBR 031700Z 0318/0418 32010KT 9999 FEW025"
    },
    {
      "icao": "ENGM",
      "alert": "OK",
      "vis_m": 9999,
      "fzfg": false,
      "metar_trigger": false,
      "taf_trigger": false,
      "metar": "METAR ENGM 032320Z 15007KT 9999 FEW011 BKN015 08/06 Q1005",
      "taf": "TAF ENGM 031700Z 0318/0418 18010KT 9999 FEW035"
    },
    {
      "icao": "ENHD",
      "alert": "OK",
      "vis_m": 9999,
      "fzfg": false,
      "metar_trigger": false,
      "taf_trigger": false,
      "metar": "METAR ENHD 032320Z AUTO 31009KT 280V340 9999 OVC023/// 05/00 Q1010",
      "taf": "TAF ENHD 031400Z 0315/0322 34015KT CAVOK"
    },
    {
      "icao": "ENTC",
      "alert": "OK",
      "vis_m": 9999,
      "fzfg": false,
      "metar_trigger": false,
      "taf_trigger": false,
      "metar": "METAR ENTC 032320Z AUTO 18007KT 9999 FEW022/// SCT031/// BKN038/// 02/M05 Q1000 RMK WIND 2600FT 17026KT",
      "taf": ""
    },
    {
      "icao": "ENTO",
      "alert": "OK",
      "vis_m": 9999,
      "fzfg": false,
      "metar_trigger": false,
      "taf_trigger": false,
      "metar": "METAR ENTO 032320Z AUTO 19006KT 9999 BKN006/// OVC007/// 09/08 Q1006",
      "taf": ""
    },
    {
      "icao": "ENVA",
      "alert": "OK",
      "vis_m": 9999,
      "fzfg": false,
      "metar_trigger": false,
      "taf_trigger": false,
      "metar": "METAR ENVA 032320Z 10004KT CAVOK 02/00 Q1003 RMK WIND 670FT 16004KT",
      "taf": "TAF ENVA 031700Z 0318/0418 33005KT CAVOK"
    },
    {
      "icao": "ENZV",
      "alert": "OK",
      "vis_m": 9999,
      "fzfg": false,
      "metar_trigger": false,
      "taf_trigger": false,
      "metar": "METAR ENZV 032320Z 33010KT 9999 NSC 05/00 Q1010",
      "taf": "TAF ENZV 031700Z 0318/0418 31012KT CAVOK"
    },
    {
      "icao": "EPGD",
      "alert": "OK",
      "vis_m": 9999,
      "fzfg": false,
      "metar_trigger": false,
      "taf_trigger": false,
      "metar": "METAR EPGD 032300Z VRB02KT CAVOK 14/06 Q1010",
      "taf": "TAF EPGD 031730Z 0318/0418 02010KT CAVOK"
    },
    {
      "icao": "EPKK",
      "alert": "OK",
      "vis_m": 9999,
      "fzfg": false,
      "metar_trigger": false,
      "taf_trigger": false,
      "metar": "METAR EPKK 032300Z VRB01KT CAVOK 11/03 Q1016",
      "taf": "TAF EPKK 032030Z 0321/0421 24004KT CAVOK"
    },
    {
      "icao": "EPKT",
      "alert": "OK",
      "vis_m": 9999,
      "fzfg": false,
      "metar_trigger": false,
      "taf_trigger": false,
      "metar": "METAR EPKT 032300Z 20008KT CAVOK 14/01 Q1015",
      "taf": "TAF EPKT 031730Z 0318/0418 22010KT CAVOK"
    },
    {
      "icao": "EPLB",
      "alert": "OK",
      "vis_m": 9999,
      "fzfg": false,
      "metar_trigger": false,
      "taf_trigger": false,
      "metar": "METAR EPLB 032300Z 22009KT CAVOK 15/03 Q1015",
      "taf": "TAF EPLB 031730Z 0318/0418 21010KT CAVOK"
    },
    {
      "icao": "EPMO",
      "alert": "OK",
      "vis_m": 9999,
      "fzfg": false,
      "metar_trigger": false,
      "taf_trigger": false,
      "metar": "METAR EPMO 032300Z 19008KT CAVOK 16/04 Q1013",
      "taf": "TAF EPMO 031730Z 0318/0418 20010KT CAVOK"
    },
    {
      "icao": "EPPO",
      "alert": "OK",
      "vis_m": 9999,
      "fzfg": false,
      "metar_trigger": false,
      "taf_trigger": false,
      "metar": "METAR EPPO 032300Z 20010KT CAVOK 18/04 Q1011",
      "taf": "TAF EPPO 031730Z 0318/0418 18008KT CAVOK"
    },
    {
      "icao": "EPRA",
      "alert": "OK",
      "vis_m": 9999,
      "fzfg": false,
      "metar_trigger": false,
      "taf_trigger": false,
      "metar": "METAR EPRA 032300Z 22008KT CAVOK 13/02 Q1015",
      "taf": "TAF EPRA 032030Z 0321/0406 19007KT CAVOK"
    },
    {
      "icao": "EPRZ",
      "alert": "OK",
      "vis_m": 9999,
      "fzfg": false,
      "metar_trigger": false,
      "taf_trigger": false,
      "metar": "METAR EPRZ 032300Z 21003KT CAVOK 09/04 Q1016",
      "taf": "TAF EPRZ 031730Z 0318/0418 19008KT CAVOK"
    },
    {
      "icao": "EPSC",
      "alert": "OK",
      "vis_m": 9999,
      "fzfg": false,
      "metar_trigger": false,
      "taf_trigger": false,
      "metar": "METAR EPSC 032300Z VRB02KT CAVOK 15/08 Q1009",
      "taf": "TAF EPSC 031730Z 0318/0418 25010KT CAVOK"
    },
    {
      "icao": "EPSY",
      "alert": "OK",
      "vis_m": 9999,
      "fzfg": false,
      "metar_trigger": false,
      "taf_trigger": false,
      "metar": "METAR EPSY 032300Z 00000KT CAVOK 09/02 Q1012",
      "taf": "TAF EPSY 032030Z 0321/0406 20005KT CAVOK"
    },
    {
      "icao": "EPWA",
      "alert": "OK",
      "vis_m": 9999,
      "fzfg": false,
      "metar_trigger": false,
      "taf_trigger": false,
      "metar": "METAR EPWA 032300Z 17003KT CAVOK 13/04 Q1014 NOSIG",
      "taf": "TAF EPWA 032030Z 0321/0421 20006KT CAVOK"
    },
    {
      "icao": "EPWR",
      "alert": "OK",
      "vis_m": 9999,
      "fzfg": false,
      "metar_trigger": false,
      "taf_trigger": false,
      "metar": "METAR EPWR 032300Z 16009KT CAVOK 18/04 Q1013",
      "taf": "TAF EPWR 032030Z 0321/0421 18010KT CAVOK"
    },
    {
      "icao": "ESGG",
      "alert": "OK",
      "vis_m": 1800,
      "fzfg": false,
      "metar_trigger": false,
      "taf_trigger": false,
      "metar": "METAR ESGG 032320Z 20005KT 1800 -RA BKN048 09/09 Q1007 REDZ",
      "taf": "TAF ESGG 032030Z 0321/0421 18004KT CAVOK"
    },
    {
      "icao": "ESKN",
      "alert": "OK",
      "vis_m": 9999,
      "fzfg": false,
      "metar_trigger": false,
      "taf_trigger": false,
      "metar": "METAR ESKN 032320Z 14003KT 9999 FEW026 06/05 Q1008",
      "taf": "TAF ESKN 032030Z 0321/0421 14005KT CAVOK"
    },
    {
      "icao": "ESMS",
      "alert": "OK",
      "vis_m": 9999,
      "fzfg": false,
      "metar_trigger": false,
      "taf_trigger": false,
      "metar": "METAR ESMS 032320Z 04004KT 010V070 CAVOK 12/11 Q1006",
      "taf": "TAF ESMS 032027Z 0321/0421 27008KT 9999 FEW020"
    },
    {
      "icao": "ESSA",
      "alert": "OK",
      "vis_m": 9999,
      "fzfg": false,
      "metar_trigger": false,
      "taf_trigger": false,
      "metar": "METAR ESSA 032320Z 14004KT 9999 BKN018 05/02 Q1008 NOSIG",
      "taf": "TAF ESSA 032030Z 0321/0421 10005KT 9999 BKN025"
    },
    {
      "icao": "EYKA",
      "alert": "OK",
      "vis_m": 9999,
      "fzfg": false,
      "metar_trigger": false,
      "taf_trigger": false,
      "metar": "METAR EYKA 032320Z 18003KT CAVOK 11/04 Q1011",
      "taf": "TAF EYKA 032301Z 0400/0424 VRB04KT 9000 NSC"
    },
    {
      "icao": "EYPA",
      "alert": "OK",
      "vis_m": 9999,
      "fzfg": false,
      "metar_trigger": false,
      "taf_trigger": false,
      "metar": "METAR EYPA 032320Z AUTO VRB01KT 9999 NCD 09/07 Q1009",
      "taf": "TAF EYPA 032306Z 0400/0424 VRB03KT 7000 NSC"
    },
    {
      "icao": "EYVI",
      "alert": "OK",
      "vis_m": 9999,
      "fzfg": false,
      "metar_trigger": false,
      "taf_trigger": false,
      "metar": "METAR EYVI 032320Z 18003KT CAVOK 06/04 Q1012 NOSIG",
      "taf": "TAF EYVI 032301Z 0400/0424 VRB04KT 9000 NSC"
    },
    {
      "icao": "GCFV",
      "alert": "OK",
      "vis_m": 9999,
      "fzfg": false,
      "metar_trigger": false,
      "taf_trigger": false,
      "metar": "METAR GCFV 032300Z AUTO 35008KT 9999 FEW015 19/15 Q1018",
      "taf": "TAF GCFV 032000Z 0321/0421 04010KT 9999 FEW020 TX22/0414Z TN18/0406Z"
    },
    {
      "icao": "GCLP",
      "alert": "OK",
      "vis_m": 9999,
      "fzfg": false,
      "metar_trigger": false,
      "taf_trigger": false,
      "metar": "METAR GCLP 032300Z 01013KT 9999 FEW025 19/16 Q1017 NOSIG",
      "taf": "TAF GCLP 032000Z 0321/0421 01013KT 9999 FEW025 TX24/0414Z TN18/0406Z"
    },
    {
      "icao": "GCTS",
      "alert": "OK",
      "vis_m": 9999,
      "fzfg": false,
      "metar_trigger": false,
      "taf_trigger": false,
      "metar": "METAR GCTS 032300Z 07007KT 9999 FEW030 19/15 Q1018 NOSIG",
      "taf": "TAF GCTS 032000Z 0321/0421 06007KT 9999 SCT030 TX25/0414Z TN18/0406Z"
    },
    {
      "icao": "GMAD",
      "alert": "OK",
      "vis_m": 8000,
      "fzfg": false,
      "metar_trigger": false,
      "taf_trigger": false,
      "metar": "METAR GMAD 032300Z 19005KT 150V220 8000 BKN016 18/14 Q1015 NOSIG",
      "taf": "TAF GMAD 032300Z 0400/0506 20007KT 9999 BKN016"
    },
    {
      "icao": "GMMN",
      "alert": "OK",
      "vis_m": 9999,
      "fzfg": false,
      "metar_trigger": false,
      "taf_trigger": false,
      "metar": "METAR GMMN 032300Z 04005KT 010V080 9999 FEW016 SCT100 17/14 Q1017 NOSIG",
      "taf": "TAF GMMN 032300Z 0400/0506 04006KT 9999 FEW016 SCT100"
    },
    {
      "icao": "GMMX",
      "alert": "OK",
      "vis_m": 9999,
      "fzfg": false,
      "metar_trigger": false,
      "taf_trigger": false,
      "metar": "METAR GMMX 032300Z 32006KT 9999 FEW033 SCT080 18/12 Q1016 NOSIG",
      "taf": "TAF GMMX 031700Z 0318/0424 28006KT 8000 NSC"
    },
    {
      "icao": "HEGN",
      "alert": "OK",
      "vis_m": 6000,
      "fzfg": false,
      "metar_trigger": false,
      "taf_trigger": false,
      "metar": "METAR HEGN 032300Z 33022KT 6000 NSC 23/12 Q1013 NOSIG",
      "taf": "TAF HEGN 032300Z 0400/0506 30008G22KT 6000 NSC"
    },
    {
      "icao": "HEMA",
      "alert": "OK",
      "vis_m": 9999,
      "fzfg": false,
      "metar_trigger": false,
      "taf_trigger": false,
      "metar": "METAR HEMA 032300Z 29008KT CAVOK 28/03 Q1010 NOSIG",
      "taf": "TAF HEMA 032300Z 0400/0506 31008G22KT CAVOK"
    },
    {
      "icao": "HESH",
      "alert": "OK",
      "vis_m": 9999,
      "fzfg": false,
      "metar_trigger": false,
      "taf_trigger": false,
      "metar": "METAR HESH 032300Z 36014KT CAVOK 25/16 Q1011 NOSIG",
      "taf": "TAF HESH 032300Z 0400/0506 25008G22KT CAVOK"
    },
    {
      "icao": "HESX",
      "alert": "OK",
      "vis_m": 9999,
      "fzfg": false,
      "metar_trigger": false,
      "taf_trigger": false,
      "metar": "METAR HESX 032300Z 33005KT CAVOK 13/08 Q1017 NOSIG",
      "taf": "TAF HESX 032300Z 0400/0506 31005KT 9999 FEW025"
    },
    {
      "icao": "LATI",
      "alert": "OK",
      "vis_m": 9999,
      "fzfg": false,
      "metar_trigger": false,
      "taf_trigger": false,
      "metar": "METAR LATI 032320Z VRB02KT CAVOK 11/06 Q1018 NOSIG",
      "taf": "TAF LATI 032300Z 0400/0424 VRB03KT CAVOK TX25/0412Z TN06/0404Z"
    },
    {
      "icao": "LBPD",
      "alert": "OK",
      "vis_m": 9999,
      "fzfg": false,
      "metar_trigger": false,
      "taf_trigger": false,
      "metar": "METAR LBPD 032300Z AUTO VRB03KT 9999 NCD 05/00 Q1019",
      "taf": "TAF LBPD 032300Z 0400/0424 29010KT 9999 SCT060 BKN080"
    },
    {
      "icao": "LBSF",
      "alert": "OK",
      "vis_m": 9999,
      "fzfg": false,
      "metar_trigger": false,
      "taf_trigger": false,
      "metar": "METAR LBSF 032300Z AUTO 20004KT 180V240 9999 NSC 03/M02 Q1020 NOSIG",
      "taf": "TAF LBSF 032300Z 0400/0424 VRB04KT 9999 SCT050"
    },
    {
      "icao": "LBWN",
      "alert": "OK",
      "vis_m": 9999,
      "fzfg": false,
      "metar_trigger": false,
      "taf_trigger": false,
      "metar": "METAR LBWN 032300Z AUTO 28007KT 9999 NCD 05/M00 Q1016 NOSIG",
      "taf": "TAF LBWN 032300Z 0400/0424 34012KT 9999 SCT045"
    },
    {
      "icao": "LCLK",
      "alert": "OK",
      "vis_m": 9999,
      "fzfg": false,
      "metar_trigger": false,
      "taf_trigger": false,
      "metar": "METAR LCLK 032300Z 24008KT 200V260 9999 FEW020 FEW025TCU 14/09 Q1008 NOSIG",
      "taf": "TAF LCLK 031730Z 0318/0418 24016KT 9999 FEW018 SCT030"
    },
    {
      "icao": "LCPH",
      "alert": "OK",
      "vis_m": 9000,
      "fzfg": false,
      "metar_trigger": false,
      "taf_trigger": false,
      "metar": "METAR LCPH 032300Z 26023G33KT 9000 R29/P2000 R11/1200 -SHRA FEW025CB FEW030TCU SCT040 16/09 Q1007 NOSIG RMK CB TO NW",
      "taf": "TAF LCPH 031730Z 0318/0418 28020KT 9999 FEW020 SCT035"
    },
    {
      "icao": "LEAL",
      "alert": "OK",
      "vis_m": 9999,
      "fzfg": false,
      "metar_trigger": false,
      "taf_trigger": false,
      "metar": "METAR LEAL 032300Z 05004KT 020V080 9999 FEW017 BKN022 19/16 Q1014 NOSIG",
      "taf": "TAF LEAL 032300Z 0400/0424 VRB04KT 9999 SCT010 TX25/0412Z TN15/0405Z"
    },
    {
      "icao": "LEBB",
      "alert": "OK",
      "vis_m": 9000,
      "fzfg": false,
      "metar_trigger": false,
      "taf_trigger": false,
      "metar": "METAR LEBB 032300Z AUTO 24004KT 200V270 9000 -RA BKN013 BKN019 OVC070 14/13 Q1014 RERA",
      "taf": "TAF LEBB 032300Z 0400/0424 29009KT 9999 SCT020 BKN040 TX15/0416Z TN12/0409Z"
    },
    {
      "icao": "LEBL",
      "alert": "OK",
      "vis_m": 9000,
      "fzfg": false,
      "metar_trigger": false,
      "taf_trigger": false,
      "metar": "METAR LEBL 032300Z 02003KT 340V040 9000 SCT009 BKN020 BKN040 16/15 Q1014 NOSIG",
      "taf": "TAF LEBL 032300Z 0400/0424 VRB04KT 9999 SCT020 TX21/0412Z TN14/0406Z"
    },
    {
      "icao": "LECH",
      "alert": "OK",
      "vis_m": 9999,
      "fzfg": false,
      "metar_trigger": false,
      "taf_trigger": false,
      "metar": "METAR LECH 032300Z AUTO VRB01KT 9999 BKN031 OVC038 14/12 Q1015",
      "taf": "TAF LECH 032300Z 0400/0424 VRB04KT 9999 SCT010 TX22/0413Z TN12/0405Z"
    },
    {
      "icao": "LEMD",
      "alert": "OK",
      "vis_m": 9999,
      "fzfg": false,
      "metar_trigger": false,
      "taf_trigger": false,
      "metar": "METAR LEMD 032300Z 18005KT 9999 FEW048TCU 16/07 Q1013 NOSIG",
      "taf": "TAF LEMD 032300Z 0400/0506 VRB04KT CAVOK TX21/0416Z TN08/0405Z"
    },
    {
      "icao": "LEMG",
      "alert": "OK",
      "vis_m": 9999,
      "fzfg": false,
      "metar_trigger": false,
      "taf_trigger": false,
      "metar": "METAR LEMG 032300Z 29005KT 9999 FEW040 16/14 Q1014 NOSIG",
      "taf": "TAF LEMG 032300Z 0400/0424 29006KT 9999 FEW030 TX26/0414Z TN15/0407Z"
    },
    {
      "icao": "LEVC",
      "alert": "OK",
      "vis_m": 9999,
      "fzfg": false,
      "metar_trigger": false,
      "taf_trigger": false,
      "metar": "METAR LEVC 032300Z 16002KT 9999 FEW018 SCT032 OVC048 17/14 Q1014 NOSIG",
      "taf": "TAF LEVC 032300Z 0400/0424 VRB04KT 9999 SCT010 TX28/0412Z TN14/0405Z"
    },
    {
      "icao": "LEXJ",
      "alert": "OK",
      "vis_m": 9000,
      "fzfg": false,
      "metar_trigger": false,
      "taf_trigger": false,
      "metar": "METAR LEXJ 032300Z AUTO 23007KT 200V260 9000 -RA OVC038 13/12 Q1014",
      "taf": "TAF LEXJ 032000Z 0321/0421 28009KT 9999 FEW010 BKN040 TX16/0413Z TN12/0409Z"
    },
    {
      "icao": "LEZG",
      "alert": "OK",
      "vis_m": 9999,
      "fzfg": false,
      "metar_trigger": false,
      "taf_trigger": false,
      "metar": "METAR LEZG 032300Z 06003KT 9999 BKN007 OVC011 15/14 Q1013 NOSIG",
      "taf": "TAF LEZG 032300Z 0400/0424 10008KT 9999 SCT010 TX24/0414Z TN12/0405Z"
    },
    {
      "icao": "LEZL",
      "alert": "OK",
      "vis_m": 9999,
      "fzfg": false,
      "metar_trigger": false,
      "taf_trigger": false,
      "metar": "METAR LEZL 032300Z 20004KT 160V240 CAVOK 17/13 Q1015 NOSIG",
      "taf": "TAF LEZL 032000Z 0321/0421 22008KT 9999 FEW030 TX27/0415Z TN13/0407Z"
    },
    {
      "icao": "LFBD",
      "alert": "OK",
      "vis_m": 9999,
      "fzfg": false,
      "metar_trigger": false,
      "taf_trigger": false,
      "metar": "METAR LFBD 032300Z AUTO 14007KT 9999 FEW007/// BKN048/// BKN074/// ///CB 15/14 Q1012 TEMPO 3000 SHRA BKN010 BKN030CB",
      "taf": "TAF LFBD 032300Z 0400/0506 32005KT 9999 BKN040 TX18/0418Z TN12/0405Z"
    },
    {
      "icao": "LFLL",
      "alert": "OK",
      "vis_m": 9999,
      "fzfg": false,
      "metar_trigger": false,
      "taf_trigger": false,
      "metar": "METAR LFLL 032300Z 17007KT CAVOK 16/06 Q1015 TEMPO SHRA BKN070TCU",
      "taf": "TAF LFLL 032300Z 0400/0506 18008KT CAVOK"
    },
    {
      "icao": "LFLS",
      "alert": "OK",
      "vis_m": 9999,
      "fzfg": false,
      "metar_trigger": false,
      "taf_trigger": false,
      "metar": "METAR LFLS 032300Z AUTO 24007KT 9999 ///CB 13/06 Q1016",
      "taf": "TAF LFLS 031400Z 0315/0415 24010KT CAVOK"
    },
    {
      "icao": "LFMN",
      "alert": "OK",
      "vis_m": 9999,
      "fzfg": false,
      "metar_trigger": false,
      "taf_trigger": false,
      "metar": "METAR LFMN 032300Z 32005KT CAVOK 16/12 Q1018 NOSIG",
      "taf": "TAF LFMN 032000Z 0321/0503 10004KT CAVOK"
    },
    {
      "icao": "LFOB",
      "alert": "OK",
      "vis_m": 9999,
      "fzfg": false,
      "metar_trigger": false,
      "taf_trigger": false,
      "metar": "METAR LFOB 032300Z AUTO 06005KT 9999 FEW016/// BKN130/// ///CB 13/12 Q1012 TEMPO 0500 FG VV///",
      "taf": "TAF LFOB 032300Z 0400/0424 VRB03KT CAVOK"
    },
    {
      "icao": "LFPO",
      "alert": "OK",
      "vis_m": 9999,
      "fzfg": false,
      "metar_trigger": false,
      "taf_trigger": false,
      "metar": "METAR LFPO 032300Z AUTO 19004KT 9999 FEW007 OVC200 14/13 Q1012 NOSIG",
      "taf": "TAF LFPO 031700Z 0318/0424 19008KT 9999 SCT030"
    },
    {
      "icao": "LFSB",
      "alert": "OK",
      "vis_m": 9999,
      "fzfg": false,
      "metar_trigger": false,
      "taf_trigger": false,
      "metar": "METAR LFSB 032300Z AUTO 19004KT CAVOK 14/08 Q1015 NOSIG",
      "taf": "TAF LFSB 032300Z 0400/0424 VRB03KT CAVOK"
    },
    {
      "icao": "LGAV",
      "alert": "OK",
      "vis_m": 9999,
      "fzfg": false,
      "metar_trigger": false,
      "taf_trigger": false,
      "metar": "METAR LGAV 032250Z 34004KT 310V010 9999 FEW025 10/03 Q1018 NOSIG",
      "taf": "TAF LGAV 032300Z 0400/0424 33010KT 9999 FEW025"
    },
    {
      "icao": "LGTS",
      "alert": "OK",
      "vis_m": 9999,
      "fzfg": false,
      "metar_trigger": false,
      "taf_trigger": false,
      "metar": "METAR LGTS 032320Z 07005KT CAVOK 08/03 Q1019 NOSIG",
      "taf": "TAF LGTS 032300Z 0400/0424 33013KT 9999 FEW030"
    },
    {
      "icao": "LHBP",
      "alert": "OK",
      "vis_m": 9999,
      "fzfg": false,
      "metar_trigger": false,
      "taf_trigger": false,
      "metar": "METAR LHBP 032300Z 09003KT CAVOK 08/01 Q1019 NOSIG",
      "taf": "TAF LHBP 032315Z 0400/0424 VRB03KT CAVOK"
    },
    {
      "icao": "LHDC",
      "alert": "OK",
      "vis_m": 9999,
      "fzfg": false,
      "metar_trigger": false,
      "taf_trigger": false,
      "metar": "METAR LHDC 032245Z AUTO 00000KT CAVOK 09/02 Q1019",
      "taf": "TAF LHDC 032315Z 0400/0409 VRB02KT CAVOK"
    },
    {
      "icao": "LIBD",
      "alert": "OK",
      "vis_m": 9999,
      "fzfg": false,
      "metar_trigger": false,
      "taf_trigger": false,
      "metar": "METAR LIBD 032320Z 22006KT CAVOK 10/06 Q1018",
      "taf": "TAF LIBD 032300Z 0400/0424 VRB05KT CAVOK"
    },
    {
      "icao": "LIBG",
      "alert": "OK",
      "vis_m": null,
      "fzfg": false,
      "metar_trigger": false,
      "taf_trigger": false,
      "metar": "",
      "taf": "TAF LIBG 031400Z 0315/0324 35015KT CAVOK"
    },
    {
      "icao": "LIBP",
      "alert": "OK",
      "vis_m": 9999,
      "fzfg": false,
      "metar_trigger": false,
      "taf_trigger": false,
      "metar": "METAR LIBP 032320Z AUTO 22006KT 9999 NCD 09/08 Q1018",
      "taf": "TAF LIBP 032300Z 0400/0424 VRB05KT CAVOK"
    },
    {
      "icao": "LIBR",
      "alert": "OK",
      "vis_m": 9999,
      "fzfg": false,
      "metar_trigger": false,
      "taf_trigger": false,
      "metar": "METAR LIBR 032320Z 25007KT CAVOK 13/09 Q1018",
      "taf": "TAF LIBR 032300Z 0400/0424 VRB05KT CAVOK"
    },
    {
      "icao": "LICA",
      "alert": "OK",
      "vis_m": 9999,
      "fzfg": false,
      "metar_trigger": false,
      "taf_trigger": false,
      "metar": "METAR LICA 032320Z AUTO VRB01KT 9999 FEW021/// 12/10 Q1021",
      "taf": "TAF LICA 032300Z 0400/0424 VRB05KT CAVOK"
    },
    {
      "icao": "LICC",
      "alert": "OK",
      "vis_m": 9999,
      "fzfg": false,
      "metar_trigger": false,
      "taf_trigger": false,
      "metar": "METAR LICC 032320Z 27007KT 9999 FEW040 14/08 Q1021",
      "taf": "TAF LICC 032300Z 0400/0424 25007KT 9999 FEW040"
    },
    {
      "icao": "LICJ",
      "alert": "OK",
      "vis_m": 9999,
      "fzfg": false,
      "metar_trigger": false,
      "taf_trigger": false,
      "metar": "METAR LICJ 032320Z 16003KT CAVOK 15/08 Q1020",
      "taf": "TAF LICJ 032300Z 0400/0424 19007KT CAVOK"
    },
    {
      "icao": "LIMC",
      "alert": "OK",
      "vis_m": 9999,
      "fzfg": false,
      "metar_trigger": false,
      "taf_trigger": false,
      "metar": "METAR LIMC 032320Z VRB01KT CAVOK 14/08 Q1018 NOSIG",
      "taf": "TAF LIMC 032300Z 0400/0506 VRB04KT CAVOK"
    },
    {
      "icao": "LIME",
      "alert": "OK",
      "vis_m": 9999,
      "fzfg": false,
      "metar_trigger": false,
      "taf_trigger": false,
      "metar": "METAR LIME 032320Z 29005KT 260V320 CAVOK 16/06 Q1017 NOSIG",
      "taf": "TAF LIME 032300Z 0400/0424 VRB05KT CAVOK"
    },
    {
      "icao": "LIMF",
      "alert": "OK",
      "vis_m": 9999,
      "fzfg": false,
      "metar_trigger": false,
      "taf_trigger": false,
      "metar": "METAR LIMF 032220Z 01004KT 9999 SCT120 16/09 Q1018",
      "taf": "TAF LIMF 032300Z 0400/0424 VRB05KT 9999 SCT030"
    },
    {
      "icao": "LIMJ",
      "alert": "OK",
      "vis_m": 9999,
      "fzfg": false,
      "metar_trigger": false,
      "taf_trigger": false,
      "metar": "METAR LIMJ 032320Z AUTO 04004KT 9999 OVC160/// 16/10 Q1018",
      "taf": "TAF LIMJ 032300Z 0400/0424 VRB05KT CAVOK"
    },
    {
      "icao": "LIPE",
      "alert": "OK",
      "vis_m": 9999,
      "fzfg": false,
      "metar_trigger": false,
      "taf_trigger": false,
      "metar": "METAR LIPE 032320Z 20005KT CAVOK 17/06 Q1017",
      "taf": "TAF LIPE 032300Z 0400/0424 VRB05KT CAVOK"
    },
    {
      "icao": "LIPH",
      "alert": "OK",
      "vis_m": 9999,
      "fzfg": false,
      "metar_trigger": false,
      "taf_trigger": false,
      "metar": "METAR LIPH 032320Z AUTO VRB02KT 9999 BKN180/// 15/10 Q1017",
      "taf": "TAF LIPH 032300Z 0400/0424 VRB05KT CAVOK"
    },
    {
      "icao": "LIPQ",
      "alert": "OK",
      "vis_m": 9999,
      "fzfg": false,
      "metar_trigger": false,
      "taf_trigger": false,
      "metar": "METAR LIPQ 032320Z AUTO VRB01KT 9999 NCD 10/06 Q1017",
      "taf": "TAF LIPQ 032300Z 0400/0424 VRB05KT CAVOK"
    },
    {
      "icao": "LIPR",
      "alert": "OK",
      "vis_m": 9999,
      "fzfg": false,
      "metar_trigger": false,
      "taf_trigger": false,
      "metar": "METAR LIPR 032320Z AUTO 22004KT 9999 NCD 14/09 Q1017",
      "taf": "TAF LIPR 032300Z 0400/0424 VRB05KT CAVOK"
    },
    {
      "icao": "LIPX",
      "alert": "OK",
      "vis_m": 9999,
      "fzfg": false,
      "metar_trigger": false,
      "taf_trigger": false,
      "metar": "METAR LIPX 032320Z 20003KT CAVOK 16/09 Q1017",
      "taf": "TAF LIPX 032300Z 0400/0424 VRB05KT CAVOK"
    },
    {
      "icao": "LIPY",
      "alert": "OK",
      "vis_m": 9999,
      "fzfg": false,
      "metar_trigger": false,
      "taf_trigger": false,
      "metar": "METAR LIPY 032320Z AUTO 19005KT 9999 NCD 15/09 Q1017",
      "taf": "TAF LIPY 032300Z 0400/0424 VRB05KT CAVOK"
    },
    {
      "icao": "LIPZ",
      "alert": "OK",
      "vis_m": 9999,
      "fzfg": false,
      "metar_trigger": false,
      "taf_trigger": false,
      "metar": "METAR LIPZ 032320Z 06003KT CAVOK 15/10 Q1017 NOSIG",
      "taf": "TAF LIPZ 032300Z 0400/0506 VRB05KT CAVOK"
    },
    {
      "icao": "LIRF",
      "alert": "OK",
      "vis_m": 9999,
      "fzfg": false,
      "metar_trigger": false,
      "taf_trigger": false,
      "metar": "METAR LIRF 032320Z 08005KT CAVOK 12/11 Q1020 NOSIG",
      "taf": "TAF LIRF 032300Z 0400/0506 VRB05KT 9999 FEW040"
    },
    {
      "icao": "LIRN",
      "alert": "OK",
      "vis_m": 9999,
      "fzfg": false,
      "metar_trigger": false,
      "taf_trigger": false,
      "metar": "METAR LIRN 032320Z 25003KT CAVOK 15/11 Q1020 NOSIG",
      "taf": "TAF LIRN 032300Z 0400/0424 VRB05KT 9999 FEW050"
    },
    {
      "icao": "LIRP",
      "alert": "OK",
      "vis_m": 9999,
      "fzfg": false,
      "metar_trigger": false,
      "taf_trigger": false,
      "metar": "METAR LIRP 032315Z VRB01KT CAVOK 11/09 Q1019 NOSIG",
      "taf": "TAF LIRP 032300Z 0400/0424 VRB03KT CAVOK"
    },
    {
      "icao": "LIRZ",
      "alert": "OK",
      "vis_m": 9999,
      "fzfg": false,
      "metar_trigger": false,
      "taf_trigger": false,
      "metar": "METAR LIRZ 032320Z AUTO 35003KT 290V030 9999 NCD 10/08 Q1019",
      "taf": "TAF LIRZ 032300Z 0400/0424 VRB05KT 9999 SCT060"
    },
    {
      "icao": "LJLJ",
      "alert": "OK",
      "vis_m": 9999,
      "fzfg": false,
      "metar_trigger": false,
      "taf_trigger": false,
      "metar": "METAR LJLJ 032300Z VRB02KT CAVOK 08/06 Q1018 NOSIG",
      "taf": "TAF LJLJ 032300Z 0400/0500 VRB02KT CAVOK"
    },
    {
      "icao": "LKMT",
      "alert": "OK",
      "vis_m": 9999,
      "fzfg": false,
      "metar_trigger": false,
      "taf_trigger": false,
      "metar": "METAR LKMT 032300Z 29004KT CAVOK 12/02 Q1016 NOSIG",
      "taf": "TAF LKMT 032300Z 0400/0424 20007KT CAVOK"
    },
    {
      "icao": "LKPR",
      "alert": "OK",
      "vis_m": 9999,
      "fzfg": false,
      "metar_trigger": false,
      "taf_trigger": false,
      "metar": "METAR LKPR 032300Z 17006KT CAVOK 16/05 Q1012 NOSIG",
      "taf": "TAF LKPR 032300Z 0400/0506 16008KT CAVOK"
    },
    {
      "icao": "LLBG",
      "alert": "OK",
      "vis_m": 9999,
      "fzfg": false,
      "metar_trigger": false,
      "taf_trigger": false,
      "metar": "METAR LLBG 032320Z 24007KT 9999 FEW040 17/08 Q1014 NOSIG",
      "taf": "TAF LLBG 032303Z 0400/0424 22005KT 9999 SCT035 TX20/0411Z TN15/0403Z"
    },
    {
      "icao": "LMML",
      "alert": "OK",
      "vis_m": 9999,
      "fzfg": false,
      "metar_trigger": false,
      "taf_trigger": false,
      "metar": "METAR LMML 032315Z 23005KT CAVOK 14/10 Q1021 NOSIG",
      "taf": "TAF LMML 032300Z 0400/0424 24010KT 9999 FEW025"
    },
    {
      "icao": "LOWW",
      "alert": "OK",
      "vis_m": 9999,
      "fzfg": false,
      "metar_trigger": false,
      "taf_trigger": false,
      "metar": "METAR LOWW 032320Z 15014KT CAVOK 14/06 Q1015 NOSIG",
      "taf": "TAF LOWW 032315Z 0400/0506 15010KT CAVOK TX27/0413Z TN13/0404Z"
    },
    {
      "icao": "LPFR",
      "alert": "OK",
      "vis_m": 9999,
      "fzfg": false,
      "metar_trigger": false,
      "taf_trigger": false,
      "metar": "METAR LPFR 032300Z 30007KT CAVOK 16/11 Q1016",
      "taf": "TAF LPFR 032300Z 0400/0424 31007KT 9999 FEW025"
    },
    {
      "icao": "LPMA",
      "alert": "OK",
      "vis_m": 9999,
      "fzfg": false,
      "metar_trigger": false,
      "taf_trigger": false,
      "metar": "METAR LPMA 032300Z 00000KT 9999 FEW013 17/14 Q1017",
      "taf": "TAF LPMA 032300Z 0400/0424 VRB05KT 9999 SCT013 SCT030"
    },
    {
      "icao": "LPPR",
      "alert": "OK",
      "vis_m": 9999,
      "fzfg": false,
      "metar_trigger": false,
      "taf_trigger": false,
      "metar": "METAR LPPR 032300Z 34007KT 9999 FEW019 SCT035 14/10 Q1015",
      "taf": "TAF LPPR 032300Z 0400/0424 VRB02KT 9999 SCT015"
    },
    {
      "icao": "LPPS",
      "alert": "OK",
      "vis_m": 9999,
      "fzfg": false,
      "metar_trigger": false,
      "taf_trigger": false,
      "metar": "METAR LPPS 032300Z 20005KT 9999 SCT011 18/16 Q1017",
      "taf": "TAF LPPS 032300Z 0400/0506 VRB05KT 9999 SCT011"
    },
    {
      "icao": "LPPT",
      "alert": "OK",
      "vis_m": 9999,
      "fzfg": false,
      "metar_trigger": false,
      "taf_trigger": false,
      "metar": "METAR LPPT 032300Z 30004KT 9999 FEW020 13/10 Q1016",
      "taf": "TAF LPPT 032300Z 0400/0506 29005KT 9999 SCT020"
    },
    {
      "icao": "LQBK",
      "alert": "OK",
      "vis_m": 9999,
      "fzfg": false,
      "metar_trigger": false,
      "taf_trigger": false,
      "metar": "METAR LQBK 032300Z VRB01KT CAVOK 07/05 Q1018 NOSIG",
      "taf": "TAF LQBK 032300Z 0400/0424 VRB02KT CAVOK TX25/0414Z TN05/0404Z"
    },
    {
      "icao": "LQSA",
      "alert": "OK",
      "vis_m": 9999,
      "fzfg": false,
      "metar_trigger": false,
      "taf_trigger": false,
      "metar": "METAR LQSA 032300Z 15004KT 120V180 CAVOK 07/03 Q1020",
      "taf": "TAF LQSA 032300Z 0400/0424 VRB02KT CAVOK TX25/0414Z TN03/0404Z"
    },
    {
      "icao": "LQTZ",
      "alert": "OK",
      "vis_m": 9999,
      "fzfg": false,
      "metar_trigger": false,
      "taf_trigger": false,
      "metar": "METAR LQTZ 032300Z VRB02KT CAVOK 04/04 Q1020",
      "taf": "TAF LQTZ 032300Z 0400/0424 06005KT CAVOK TX24/0413Z TN01/0404Z"
    },
    {
      "icao": "LRBC",
      "alert": "OK",
      "vis_m": 9999,
      "fzfg": false,
      "metar_trigger": false,
      "taf_trigger": false,
      "metar": "METAR LRBC 032300Z 11001KT CAVOK 07/02 Q1017",
      "taf": "TAF LRBC 032000Z 0321/0406 VRB04KT CAVOK"
    },
    {
      "icao": "LRBS",
      "alert": "OK",
      "vis_m": 9999,
      "fzfg": false,
      "metar_trigger": false,
      "taf_trigger": false,
      "metar": "METAR LRBS 032300Z VRB04KT CAVOK 07/02 Q1018 NOSIG",
      "taf": "TAF LRBS 031700Z 0318/0418 VRB04KT CAVOK"
    },
    {
      "icao": "LRBV",
      "alert": "OK",
      "vis_m": 9999,
      "fzfg": false,
      "metar_trigger": false,
      "taf_trigger": false,
      "metar": "METAR LRBV 032300Z AUTO 22007KT 9999 OVC061/// 07/01 Q1018",
      "taf": "TAF LRBV 032000Z 0321/0406 VRB04KT CAVOK"
    },
    {
      "icao": "LRCL",
      "alert": "OK",
      "vis_m": 9999,
      "fzfg": false,
      "metar_trigger": false,
      "taf_trigger": false,
      "metar": "METAR LRCL 032300Z 27006KT CAVOK 08/01 Q1019",
      "taf": "TAF LRCL 032000Z 0321/0406 VRB04KT CAVOK"
    },
    {
      "icao": "LRCV",
      "alert": "OK",
      "vis_m": 9999,
      "fzfg": false,
      "metar_trigger": false,
      "taf_trigger": false,
      "metar": "METAR LRCV 032300Z 25003KT CAVOK 06/01 Q1019",
      "taf": "TAF LRCV 032000Z 0321/0406 VRB04KT CAVOK"
    },
    {
      "icao": "LRIA",
      "alert": "OK",
      "vis_m": 9999,
      "fzfg": false,
      "metar_trigger": false,
      "taf_trigger": false,
      "metar": "METAR LRIA 032300Z 27004KT CAVOK 10/M00 Q1017",
      "taf": "TAF LRIA 032000Z 0321/0406 VRB04KT CAVOK"
    },
    {
      "icao": "LROP",
      "alert": "OK",
      "vis_m": 9999,
      "fzfg": false,
      "metar_trigger": false,
      "taf_trigger": false,
      "metar": "METAR LROP 032300Z 30007KT CAVOK 06/03 Q1018 NOSIG",
      "taf": "TAF LROP 031700Z 0318/0418 VRB04KT CAVOK"
    },
    {
      "icao": "LRSB",
      "alert": "OK",
      "vis_m": 9999,
      "fzfg": false,
      "metar_trigger": false,
      "taf_trigger": false,
      "metar": "METAR LRSB 032300Z VRB01KT 9999 SCT070 SCT085 09/02 Q1019",
      "taf": "TAF LRSB 031700Z 0318/0418 VRB04KT CAVOK"
    },
    {
      "icao": "LRSM",
      "alert": "OK",
      "vis_m": 9999,
      "fzfg": false,
      "metar_trigger": false,
      "taf_trigger": false,
      "metar": "METAR LRSM 032300Z AUTO 19003KT 9999 NCD 08/02 Q1019",
      "taf": ""
    },
    {
      "icao": "LRSV",
      "alert": "OK",
      "vis_m": 9999,
      "fzfg": false,
      "metar_trigger": false,
      "taf_trigger": false,
      "metar": "METAR LRSV 032300Z 23006KT CAVOK 10/03 Q1016",
      "taf": "TAF LRSV 032000Z 0321/0406 21005KT CAVOK"
    },
    {
      "icao": "LRTM",
      "alert": "OK",
      "vis_m": 9999,
      "fzfg": false,
      "metar_trigger": false,
      "taf_trigger": false,
      "metar": "METAR LRTM 032300Z 36002KT CAVOK 04/01 Q1019",
      "taf": "TAF LRTM 032000Z 0321/0406 VRB04KT CAVOK"
    },
    {
      "icao": "LRTR",
      "alert": "OK",
      "vis_m": 9999,
      "fzfg": false,
      "metar_trigger": false,
      "taf_trigger": false,
      "metar": "METAR LRTR 032300Z 14005KT CAVOK 07/03 Q1019 NOSIG",
      "taf": "TAF LRTR 031700Z 0318/0418 VRB04KT CAVOK"
    },
    {
      "icao": "LTAC",
      "alert": "OK",
      "vis_m": 9999,
      "fzfg": false,
      "metar_trigger": false,
      "taf_trigger": false,
      "metar": "METAR LTAC 032320Z 07007KT 030V100 9999 SCT015 BKN021 BKN080 05/02 Q1004 NOSIG",
      "taf": "TAF LTAC 032240Z 0400/0424 01009KT 9999 SCT030 BKN080"
    },
    {
      "icao": "LTFM",
      "alert": "OK",
      "vis_m": 9999,
      "fzfg": false,
      "metar_trigger": false,
      "taf_trigger": false,
      "metar": "METAR LTFM 032320Z 01021KT 9999 FEW035 BKN100 11/04 Q1013 NOSIG",
      "taf": "TAF LTFM 032240Z 0400/0506 35020G30KT 9999 SCT035 BKN100"
    },
    {
      "icao": "LUKK",
      "alert": "OK",
      "vis_m": 9999,
      "fzfg": false,
      "metar_trigger": false,
      "taf_trigger": false,
      "metar": "METAR LUKK 032300Z VRB02KT CAVOK 10/04 Q1016 NOSIG",
      "taf": "TAF LUKK 032306Z 0400/0424 VRB05KT CAVOK"
    },
    {
      "icao": "LWOH",
      "alert": "OK",
      "vis_m": null,
      "fzfg": false,
      "metar_trigger": false,
      "taf_trigger": false,
      "metar": "",
      "taf": "TAF LWOH 032305Z 0400/0424 32005KT CAVOK"
    },
    {
      "icao": "LWSK",
      "alert": "OK",
      "vis_m": 9999,
      "fzfg": false,
      "metar_trigger": false,
      "taf_trigger": false,
      "metar": "METAR LWSK 032250Z VRB02KT CAVOK 03/M01 Q1021 NOSIG",
      "taf": "TAF LWSK 032305Z 0400/0424 VRB02KT CAVOK"
    },
    {
      "icao": "LYBE",
      "alert": "OK",
      "vis_m": 9999,
      "fzfg": false,
      "metar_trigger": false,
      "taf_trigger": false,
      "metar": "METAR LYBE 032300Z 17003KT 130V240 CAVOK 08/02 Q1020 NOSIG",
      "taf": "TAF LYBE 032300Z 0400/0424 16005KT CAVOK TX25/0413Z TN06/0404Z"
    },
    {
      "icao": "LYNI",
      "alert": "OK",
      "vis_m": 9999,
      "fzfg": false,
      "metar_trigger": false,
      "taf_trigger": false,
      "metar": "METAR LYNI 032300Z 12002KT CAVOK 06/01 Q1021 NOSIG",
      "taf": "TAF LYNI 032300Z 0400/0424 09004KT CAVOK TX23/0413Z TN02/0404Z"
    },
    {
      "icao": "LYPG",
      "alert": "OK",
      "vis_m": 9999,
      "fzfg": false,
      "metar_trigger": false,
      "taf_trigger": false,
      "metar": "METAR LYPG 032300Z 33007KT CAVOK 11/06 Q1019 NOSIG",
      "taf": "TAF LYPG 032300Z 0400/0424 36005KT CAVOK TX24/0413Z TN09/0404Z"
    },
    {
      "icao": "LZIB",
      "alert": "OK",
      "vis_m": 9999,
      "fzfg": false,
      "metar_trigger": false,
      "taf_trigger": false,
      "metar": "METAR LZIB 032300Z VRB03KT CAVOK 12/02 Q1016 NOSIG",
      "taf": "TAF LZIB 032315Z 0400/0500 14005KT CAVOK"
    },
    {
      "icao": "LZKZ",
      "alert": "OK",
      "vis_m": 9999,
      "fzfg": false,
      "metar_trigger": false,
      "taf_trigger": false,
      "metar": "METAR LZKZ 032300Z 36003KT CAVOK 08/02 Q1019 NOSIG",
      "taf": "TAF LZKZ 032315Z 0400/0500 26004KT CAVOK"
    },
    {
      "icao": "LZTT",
      "alert": "OK",
      "vis_m": 9999,
      "fzfg": false,
      "metar_trigger": false,
      "taf_trigger": false,
      "metar": "METAR LZTT 032300Z VRB02KT CAVOK 07/01 Q1019",
      "taf": "TAF LZTT 032315Z 0400/0500 25005KT CAVOK"
    },
    {
      "icao": "OEJN",
      "alert": "OK",
      "vis_m": 9999,
      "fzfg": false,
      "metar_trigger": false,
      "taf_trigger": false,
      "metar": "METAR OEJN 032300Z 00000KT CAVOK 28/06 Q1007 NOSIG",
      "taf": "TAF OEJN 032300Z 0400/0506 VRB03KT CAVOK"
    },
    {
      "icao": "OEMA",
      "alert": "OK",
      "vis_m": 9999,
      "fzfg": false,
      "metar_trigger": false,
      "taf_trigger": false,
      "metar": "METAR OEMA 032300Z 15004KT CAVOK 30/02 Q1013 NOSIG",
      "taf": "TAF OEMA 032300Z 0400/0506 VRB03KT CAVOK"
    },
    {
      "icao": "OJAI",
      "alert": "OK",
      "vis_m": 4000,
      "fzfg": false,
      "metar_trigger": false,
      "taf_trigger": false,
      "metar": "METAR OJAI 032300Z 24010KT 4000 DU FEW030 SCT080 12/07 Q1015 NOSIG",
      "taf": "TAF OJAI 032300Z 0400/0506 24018KT 3000 BLDU SCT035"
    },
    {
      "icao": "OMAA",
      "alert": "OK",
      "vis_m": 9999,
      "fzfg": false,
      "metar_trigger": false,
      "taf_trigger": false,
      "metar": "METAR OMAA 032300Z VRB02KT CAVOK 29/16 Q1005 NOSIG",
      "taf": "TAF OMAA 032300Z 0400/0506 VRB02KT CAVOK"
    },
    {
      "icao": "OMDB",
      "alert": "OK",
      "vis_m": 9999,
      "fzfg": false,
      "metar_trigger": false,
      "taf_trigger": false,
      "metar": "METAR OMDB 032300Z 20004KT 150V230 CAVOK 30/15 Q1004 NOSIG",
      "taf": "TAF OMDB 032300Z 0400/0506 19005KT CAVOK"
    },
    {
      "icao": "UAAA",
      "alert": "OK",
      "vis_m": 9999,
      "fzfg": false,
      "metar_trigger": false,
      "taf_trigger": false,
      "metar": "METAR UAAA 032300Z 14002MPS 9999 SCT050CB OVC100 15/14 Q1015 NOSIG",
      "taf": "TAF UAAA 032301Z 0400/0424 21003G08MPS 9999 BKN050CB OVC100 TX19/0408Z TN14/0401Z"
    },
    {
      "icao": "UBBB",
      "alert": "OK",
      "vis_m": 9999,
      "fzfg": false,
      "metar_trigger": false,
      "taf_trigger": false,
      "metar": "METAR UBBB 032300Z 35004KT 9999 OVC010 10/09 Q1014 NOSIG",
      "taf": "TAF UBBB 032259Z 0400/0424 35005KT 9999 BKN012 TX17/0410Z TN09/0401Z"
    },
    {
      "icao": "UDSG",
      "alert": "OK",
      "vis_m": 9999,
      "fzfg": false,
      "metar_trigger": false,
      "taf_trigger": false,
      "metar": "METAR UDSG 032300Z 03002KT 9999 SCT046CB 08/07 Q1011 NOSIG",
      "taf": "TAF UDSG 032258Z 0400/0424 24006KT 9999 BKN040"
    },
    {
      "icao": "UDYZ",
      "alert": "OK",
      "vis_m": 9999,
      "fzfg": false,
      "metar_trigger": false,
      "taf_trigger": false,
      "metar": "METAR UDYZ 032300Z 04004KT 9999 BKN040CB 13/11 Q1010 TEMPO -TSRA",
      "taf": "TAF UDYZ 032300Z 0400/0424 05008KT 9999 BKN040"
    },
    {
      "icao": "UGKO",
      "alert": "OK",
      "vis_m": 9999,
      "fzfg": false,
      "metar_trigger": false,
      "taf_trigger": false,
      "metar": "METAR UGKO 032300Z 17016KT 090V240 9999 -RA BKN025 17/11 Q1005 NOSIG",
      "taf": "TAF UGKO 032300Z 0400/0424 26010KT 9999 SCT030 OVC050 TX20/0411Z TN10/0404Z"
    }
  ]
}