{
  "ts_utc": "2026-02-19T13:51:33Z",
  "threshold_m": 150,
  "source": "stations_override.txt (ICAO list) + aviationweather.gov (METAR/TAF raw)",
  "station_count": 159,
  "stations": [
    {
      "icao": "BIKF",
      "alert": "OK",
      "vis_m": 9999,
      "fzfg": false,
      "metar_trigger": false,
      "taf_trigger": false,
      "metar": "METAR BIKF 191330Z 04015KT CAVOK 00/M06 Q1010",
      "taf": "TAF BIKF 191332Z 1915/2015 04017KT 9999 FEW025 TX01/1915Z TNM03/2006Z"
    },
    {
      "icao": "BKPR",
      "alert": "OK",
      "vis_m": null,
      "fzfg": false,
      "metar_trigger": false,
      "taf_trigger": false,
      "metar": "",
      "taf": "TAF BKPR 191130Z 1912/2012 16008KT 9999 SCT050"
    },
    {
      "icao": "EBCI",
      "alert": "OK",
      "vis_m": 9999,
      "fzfg": false,
      "metar_trigger": false,
      "taf_trigger": false,
      "metar": "METAR EBCI 191320Z 09012KT 9999 FEW013 BKN035 08/05 Q0998 TEMPO 4000 SHRA BKN010",
      "taf": "TAF EBCI 191114Z 1912/2018 10006KT 9999 SCT009 BKN012"
    },
    {
      "icao": "EDDB",
      "alert": "OK",
      "vis_m": 9999,
      "fzfg": false,
      "metar_trigger": false,
      "taf_trigger": false,
      "metar": "METAR EDDB 191320Z AUTO 05010KT CAVOK M00/M08 Q1013 NOSIG",
      "taf": "TAF EDDB 191100Z 1912/2012 09007KT CAVOK"
    },
    {
      "icao": "EDDH",
      "alert": "OK",
      "vis_m": 9999,
      "fzfg": false,
      "metar_trigger": false,
      "taf_trigger": false,
      "metar": "METAR EDDH 191320Z AUTO 08012KT 050V110 CAVOK M00/M06 Q1013 NOSIG",
      "taf": "TAF EDDH 191100Z 1912/2018 09012KT CAVOK"
    },
    {
      "icao": "EDDK",
      "alert": "OK",
      "vis_m": 9999,
      "fzfg": false,
      "metar_trigger": false,
      "taf_trigger": false,
      "metar": "METAR EDDK 191320Z AUTO 11011KT 050V140 9999 -RA SCT017 BKN027 BKN042 04/01 Q1002 RESHRA NOSIG",
      "taf": "TAF EDDK 191100Z 1912/2018 10012KT 9999 SCT040"
    },
    {
      "icao": "EDDN",
      "alert": "OK",
      "vis_m": 9999,
      "fzfg": false,
      "metar_trigger": false,
      "taf_trigger": false,
      "metar": "METAR EDDN 191320Z AUTO VRB02KT 9999 -SN FEW010 BKN017 OVC032 01/M01 Q1004 TEMPO 4000 -SN BKN010",
      "taf": "TAF EDDN 191100Z 1912/2012 07005KT 9999 FEW007 BKN025"
    },
    {
      "icao": "EDDS",
      "alert": "OK",
      "vis_m": 9999,
      "fzfg": false,
      "metar_trigger": false,
      "taf_trigger": false,
      "metar": "METAR EDDS 191320Z AUTO 09005KT 060V130 9999 -DZ SCT003 SCT041 04/03 Q1000 NOSIG",
      "taf": "TAF EDDS 191100Z 1912/2012 09006KT 9999 BKN045"
    },
    {
      "icao": "EDFH",
      "alert": "OK",
      "vis_m": 8000,
      "fzfg": false,
      "metar_trigger": false,
      "taf_trigger": false,
      "metar": "METAR EDFH 191320Z 13011KT 8000 OVC002 00/M00 Q1000",
      "taf": "TAF EDFH 191100Z 1912/2012 13014KT 4000 BR FEW001 BKN005"
    },
    {
      "icao": "EDJA",
      "alert": "OK",
      "vis_m": 7000,
      "fzfg": false,
      "metar_trigger": false,
      "taf_trigger": false,
      "metar": "METAR EDJA 191320Z 07002KT 7000 -RA FEW002 BKN032 OVC037 02/01 Q1001",
      "taf": "TAF EDJA 191100Z 1912/1921 VRB03KT 2500 BR SCT002 BKN015"
    },
    {
      "icao": "EDLW",
      "alert": "OK",
      "vis_m": 9999,
      "fzfg": false,
      "metar_trigger": false,
      "taf_trigger": false,
      "metar": "METAR EDLW 191320Z COR 04010KT 9999 FEW023 SCT040 OVC047 03/M00 Q1003",
      "taf": "TAF EDLW 191100Z 1912/2012 07013KT 9999 SCT040"
    },
    {
      "icao": "EDNY",
      "alert": "OK",
      "vis_m": 9999,
      "fzfg": false,
      "metar_trigger": false,
      "taf_trigger": false,
      "metar": "METAR EDNY 191320Z 09003KT 040V130 9999 FEW007 BKN035 05/04 Q1001",
      "taf": "TAF EDNY 191100Z 1912/1921 03005KT 5000 -RA BKN040"
    },
    {
      "icao": "EDSB",
      "alert": "OK",
      "vis_m": 9999,
      "fzfg": false,
      "metar_trigger": false,
      "taf_trigger": false,
      "metar": "METAR EDSB 191320Z 01008KT 9999 BKN044 07/05 Q1000",
      "taf": "TAF EDSB 191100Z 1912/2012 01005KT 9999 BKN006 BKN045"
    },
    {
      "icao": "EETN",
      "alert": "OK",
      "vis_m": 7000,
      "fzfg": false,
      "metar_trigger": false,
      "taf_trigger": false,
      "metar": "METAR EETN 191350Z 04009KT 7000 -SN OVC008 M09/M10 Q1009 TEMPO BKN006",
      "taf": "TAF EETN 191130Z 1912/2012 05010KT 9000 BKN012 BKN030"
    },
    {
      "icao": "EFTU",
      "alert": "OK",
      "vis_m": 9999,
      "fzfg": false,
      "metar_trigger": false,
      "taf_trigger": false,
      "metar": "METAR EFTU 191320Z AUTO 03004KT 340V070 CAVOK M08/M13 Q1012",
      "taf": "TAF EFTU 191123Z 1912/2012 03005KT CAVOK"
    },
    {
      "icao": "EGBB",
      "alert": "OK",
      "vis_m": 9000,
      "fzfg": false,
      "metar_trigger": false,
      "taf_trigger": false,
      "metar": "METAR EGBB 191320Z 35006KT 9000 OVC007 04/02 Q1004",
      "taf": ""
    },
    {
      "icao": "EGGP",
      "alert": "OK",
      "vis_m": 9999,
      "fzfg": false,
      "metar_trigger": false,
      "taf_trigger": false,
      "metar": "METAR EGGP 191320Z 04004KT 340V070 9999 FEW020 BKN022 05/01 Q1005",
      "taf": "TAF EGGP 191102Z 1912/2012 VRB04KT 9999 SCT025"
    },
    {
      "icao": "EGGW",
      "alert": "OK",
      "vis_m": 3400,
      "fzfg": false,
      "metar_trigger": false,
      "taf_trigger": false,
      "metar": "METAR EGGW 191320Z AUTO 36009KT 330V060 3400 BR BKN004 OVC008 04/04 Q1002",
      "taf": "TAF EGGW 191104Z 1912/2012 02010KT 4000 -RADZ BR OVC002"
    },
    {
      "icao": "EGKK",
      "alert": "OK",
      "vis_m": 9999,
      "fzfg": false,
      "metar_trigger": false,
      "taf_trigger": false,
      "metar": "METAR EGKK 191320Z 35006KT 290V080 9999 -DZRA BKN006 06/05 Q1001",
      "taf": "TAF EGKK 191053Z 1912/2018 03006KT 9999 BKN007"
    },
    {
      "icao": "EGNM",
      "alert": "OK",
      "vis_m": 9000,
      "fzfg": false,
      "metar_trigger": false,
      "taf_trigger": false,
      "metar": "METAR EGNM 191320Z 07007KT 9000 OVC008 03/02 Q1004",
      "taf": "TAF EGNM 191101Z 1912/2012 06010KT 3000 -DZ BKN004"
    },
    {
      "icao": "EGPD",
      "alert": "OK",
      "vis_m": 9999,
      "fzfg": false,
      "metar_trigger": false,
      "taf_trigger": false,
      "metar": "METAR EGPD 191320Z COR AUTO 16018KT 9999 OVC031 05/M00 Q1006 NOSIG",
      "taf": "TAF EGPD 191058Z 1912/2012 16012KT 9999 SCT030"
    },
    {
      "icao": "EGPF",
      "alert": "OK",
      "vis_m": 9999,
      "fzfg": false,
      "metar_trigger": false,
      "taf_trigger": false,
      "metar": "METAR EGPF 191320Z AUTO 16003KT 120V210 9999 OVC045 06/01 Q1006",
      "taf": "TAF EGPF 191104Z 1912/2012 09009KT 9999 FEW015 SCT025"
    },
    {
      "icao": "EHBK",
      "alert": "OK",
      "vis_m": 9999,
      "fzfg": false,
      "metar_trigger": false,
      "taf_trigger": false,
      "metar": "METAR EHBK 191325Z AUTO 09012KT 060V130 9999 BKN027 OVC037 06/03 Q1000 NOSIG",
      "taf": "TAF EHBK 191118Z 1912/2018 09012KT 9999 OVC030"
    },
    {
      "icao": "EHEH",
      "alert": "OK",
      "vis_m": 9999,
      "fzfg": false,
      "metar_trigger": false,
      "taf_trigger": false,
      "metar": "METAR EHEH 191325Z AUTO 09010KT 020V140 9999 FEW009 OVC010 04/02 Q1001 GRN BECMG SCT010 BKN030",
      "taf": "TAF EHEH 191124Z 1912/2018 08011KT 6000 -RA SCT006 BKN008"
    },
    {
      "icao": "EKBI",
      "alert": "OK",
      "vis_m": 9999,
      "fzfg": false,
      "metar_trigger": false,
      "taf_trigger": false,
      "metar": "METAR EKBI 191320Z AUTO 09009KT 9999 NCD M01/M05 Q1015",
      "taf": "TAF EKBI 191127Z 1912/2012 09010KT 9999 FEW010"
    },
    {
      "icao": "EKCH",
      "alert": "OK",
      "vis_m": 9999,
      "fzfg": false,
      "metar_trigger": false,
      "taf_trigger": false,
      "metar": "METAR EKCH 191320Z AUTO 01004KT 330V060 9999 NCD M02/M08 Q1016 NOSIG",
      "taf": "TAF EKCH 191127Z 1912/2012 02008KT CAVOK"
    },
    {
      "icao": "ENAL",
      "alert": "OK",
      "vis_m": 9999,
      "fzfg": false,
      "metar_trigger": false,
      "taf_trigger": false,
      "metar": "METAR ENAL 191320Z 20015KT 9999 NSC 04/M04 Q1009",
      "taf": "TAF ENAL 191100Z 1912/1921 20012KT 9999 FEW040 BKN050"
    },
    {
      "icao": "ENBR",
      "alert": "OK",
      "vis_m": 9999,
      "fzfg": false,
      "metar_trigger": false,
      "taf_trigger": false,
      "metar": "METAR ENBR 191320Z 17010KT CAVOK 02/M05 Q1014 NOSIG RMK WIND 1200FT 17016KT",
      "taf": "TAF ENBR 191100Z 1912/2012 16010KT CAVOK"
    },
    {
      "icao": "ENGM",
      "alert": "OK",
      "vis_m": 9999,
      "fzfg": false,
      "metar_trigger": false,
      "taf_trigger": false,
      "metar": "METAR ENGM 191320Z 22002KT CAVOK M09/M11 Q1014 NOSIG",
      "taf": "TAF ENGM 191100Z 1912/2012 20005KT CAVOK"
    },
    {
      "icao": "ENHD",
      "alert": "OK",
      "vis_m": 9999,
      "fzfg": false,
      "metar_trigger": false,
      "taf_trigger": false,
      "metar": "METAR ENHD 191320Z 17010KT 140V200 CAVOK 01/M05 Q1015",
      "taf": "TAF ENHD 191100Z 1912/1921 16012KT CAVOK"
    },
    {
      "icao": "ENTC",
      "alert": "OK",
      "vis_m": 9999,
      "fzfg": false,
      "metar_trigger": false,
      "taf_trigger": false,
      "metar": "METAR ENTC 191320Z 20013KT 9999 FEW025 BKN047 M06/M09 Q1010 NOSIG RMK WIND 2600FT 19011KT",
      "taf": "TAF ENTC 191100Z 1912/2012 22009KT 9999 FEW015 SCT040"
    },
    {
      "icao": "ENTO",
      "alert": "OK",
      "vis_m": 9999,
      "fzfg": false,
      "metar_trigger": false,
      "taf_trigger": false,
      "metar": "METAR ENTO 191320Z 17006KT CAVOK M05/M09 Q1016 NOSIG",
      "taf": ""
    },
    {
      "icao": "ENVA",
      "alert": "OK",
      "vis_m": 9999,
      "fzfg": false,
      "metar_trigger": false,
      "taf_trigger": false,
      "metar": "METAR ENVA 191320Z 10005KT 9999 FEW047 M01/M03 Q1009 NOSIG RMK WIND 670FT 19011KT",
      "taf": "TAF ENVA 191100Z 1912/2012 10005KT 9999 FEW025 BKN040"
    },
    {
      "icao": "ENZV",
      "alert": "OK",
      "vis_m": 9999,
      "fzfg": false,
      "metar_trigger": false,
      "taf_trigger": false,
      "metar": "METAR ENZV 191320Z 18008KT CAVOK 02/M06 Q1015 NOSIG",
      "taf": "TAF ENZV 191100Z 1912/2012 15008KT CAVOK"
    },
    {
      "icao": "EPGD",
      "alert": "OK",
      "vis_m": 9999,
      "fzfg": false,
      "metar_trigger": false,
      "taf_trigger": false,
      "metar": "METAR EPGD 191330Z 31010KT 9999 SCT017 BKN037 M03/M07 Q1012",
      "taf": "TAF EPGD 191130Z 1912/2012 29010KT 9999 BKN025"
    },
    {
      "icao": "EPKK",
      "alert": "OK",
      "vis_m": 6000,
      "fzfg": false,
      "metar_trigger": false,
      "taf_trigger": false,
      "metar": "METAR EPKK 191330Z 06009KT 6000 FEW015 M01/M05 Q1010",
      "taf": "TAF EPKK 191130Z 1912/2012 06010KT 6000 SCT014"
    },
    {
      "icao": "EPKT",
      "alert": "OK",
      "vis_m": 9999,
      "fzfg": false,
      "metar_trigger": false,
      "taf_trigger": false,
      "metar": "METAR EPKT 191330Z 03006KT 010V070 CAVOK 00/M07 Q1010",
      "taf": "TAF EPKT 191130Z 1912/2012 06004KT 9999 FEW024"
    },
    {
      "icao": "EPLB",
      "alert": "OK",
      "vis_m": 9999,
      "fzfg": false,
      "metar_trigger": false,
      "taf_trigger": false,
      "metar": "METAR EPLB 191330Z 31004KT 9999 BKN033 M02/M09 Q1012",
      "taf": "TAF EPLB 191130Z 1912/2012 27006KT 9999 SCT025"
    },
    {
      "icao": "EPMO",
      "alert": "OK",
      "vis_m": 9999,
      "fzfg": false,
      "metar_trigger": false,
      "taf_trigger": false,
      "metar": "METAR EPMO 191330Z 25006KT 9999 SCT033 M03/M08 Q1013",
      "taf": "TAF EPMO 191130Z 1912/2012 25005KT 9999 SCT030"
    },
    {
      "icao": "EPPO",
      "alert": "OK",
      "vis_m": 9999,
      "fzfg": false,
      "metar_trigger": false,
      "taf_trigger": false,
      "metar": "METAR EPPO 191330Z 04006KT 010V080 9999 BKN036 01/M08 Q1013",
      "taf": "TAF EPPO 191130Z 1912/2012 06010KT CAVOK"
    },
    {
      "icao": "EPRA",
      "alert": "OK",
      "vis_m": 9999,
      "fzfg": false,
      "metar_trigger": false,
      "taf_trigger": false,
      "metar": "METAR EPRA 191330Z 01005KT 9999 BKN030 M02/M09 Q1012",
      "taf": "TAF EPRA 191130Z 1912/1921 35006KT 9999 BKN033"
    },
    {
      "icao": "EPRZ",
      "alert": "OK",
      "vis_m": 9999,
      "fzfg": false,
      "metar_trigger": false,
      "taf_trigger": false,
      "metar": "METAR EPRZ 191330Z 09006KT 9999 BKN025 M01/M06 Q1011",
      "taf": "TAF EPRZ 191130Z 1912/2012 08005KT 9999 SCT040"
    },
    {
      "icao": "EPSC",
      "alert": "OK",
      "vis_m": 9999,
      "fzfg": false,
      "metar_trigger": false,
      "taf_trigger": false,
      "metar": "METAR EPSC 191330Z 28005KT 240V360 9999 BKN030 00/M07 Q1014",
      "taf": "TAF EPSC 191130Z 1912/2012 VRB03KT 9999 SCT030"
    },
    {
      "icao": "EPSY",
      "alert": "OK",
      "vis_m": 9999,
      "fzfg": false,
      "metar_trigger": false,
      "taf_trigger": false,
      "metar": "METAR EPSY 191330Z 33007KT 290V010 9999 SCT026 M02/M09 Q1011",
      "taf": "TAF EPSY 191130Z 1912/1921 28006KT 9999 BKN030"
    },
    {
      "icao": "EPWA",
      "alert": "OK",
      "vis_m": 9999,
      "fzfg": false,
      "metar_trigger": false,
      "taf_trigger": false,
      "metar": "METAR EPWA 191330Z 27007KT 230V290 9999 SCT035 M03/M10 Q1013 NOSIG",
      "taf": "TAF EPWA 191130Z 1912/2012 29005KT 9999 SCT030"
    },
    {
      "icao": "EPWR",
      "alert": "OK",
      "vis_m": 9999,
      "fzfg": false,
      "metar_trigger": false,
      "taf_trigger": false,
      "metar": "METAR EPWR 191330Z 05006KT 010V070 CAVOK M00/M06 Q1012",
      "taf": "TAF EPWR 191130Z 1912/2012 07008KT CAVOK"
    },
    {
      "icao": "ESGG",
      "alert": "OK",
      "vis_m": 9999,
      "fzfg": false,
      "metar_trigger": false,
      "taf_trigger": false,
      "metar": "METAR ESGG 191320Z 02004KT CAVOK M05/M06 Q1015",
      "taf": "TAF ESGG 191130Z 1912/2012 VRB02KT CAVOK"
    },
    {
      "icao": "ESKN",
      "alert": "OK",
      "vis_m": 9999,
      "fzfg": false,
      "metar_trigger": false,
      "taf_trigger": false,
      "metar": "METAR ESKN 191320Z 28006KT CAVOK M05/M09 Q1014",
      "taf": "TAF ESKN 191130Z 1912/2012 31005KT CAVOK"
    },
    {
      "icao": "ESMS",
      "alert": "OK",
      "vis_m": 9999,
      "fzfg": false,
      "metar_trigger": false,
      "taf_trigger": false,
      "metar": "METAR ESMS 191320Z VRB02KT CAVOK M01/M09 Q1015",
      "taf": "TAF ESMS 191127Z 1912/2012 02008KT CAVOK"
    },
    {
      "icao": "ESSA",
      "alert": "OK",
      "vis_m": 9999,
      "fzfg": false,
      "metar_trigger": false,
      "taf_trigger": false,
      "metar": "METAR ESSA 191320Z 30006KT CAVOK M05/M12 Q1013 NOSIG",
      "taf": "TAF ESSA 191130Z 1912/2012 30005KT 9999 BKN030"
    },
    {
      "icao": "EYKA",
      "alert": "OK",
      "vis_m": 9999,
      "fzfg": false,
      "metar_trigger": false,
      "taf_trigger": false,
      "metar": "METAR EYKA 191350Z 28008KT 9999 FEW018 BKN026 M03/M07 Q1009",
      "taf": "TAF EYKA 191100Z 1912/2012 28010KT 8000 SCT010 BKN015"
    },
    {
      "icao": "EYPA",
      "alert": "OK",
      "vis_m": 5000,
      "fzfg": false,
      "metar_trigger": false,
      "taf_trigger": false,
      "metar": "METAR EYPA 191350Z VRB02KT 5000 -SHSN FEW023 BKN036CB BKN049 M03/M05 Q1011",
      "taf": "TAF EYPA 191100Z 1912/2012 VRB04KT 5000 SN SCT005 BKN015"
    },
    {
      "icao": "EYVI",
      "alert": "OK",
      "vis_m": 9999,
      "fzfg": false,
      "metar_trigger": false,
      "taf_trigger": false,
      "metar": "METAR EYVI 191320Z 28009KT 9999 -SN BKN023 M04/M09 Q1008 TEMPO 1500 SHSN BKN010 SCT015TCU",
      "taf": "TAF EYVI 191103Z 1912/2012 29010KT 5000 SN BKN015"
    },
    {
      "icao": "GCFV",
      "alert": "OK",
      "vis_m": 9999,
      "fzfg": false,
      "metar_trigger": false,
      "taf_trigger": false,
      "metar": "METAR GCFV 191330Z 03018KT 9999 FEW022 20/12 Q1023",
      "taf": "TAF GCFV 190800Z 1909/2009 04018KT 9999 FEW025 TX19/1914Z TN16/2006Z"
    },
    {
      "icao": "GCLP",
      "alert": "OK",
      "vis_m": 9999,
      "fzfg": false,
      "metar_trigger": false,
      "taf_trigger": false,
      "metar": "METAR GCLP 191330Z 03021KT 9999 SCT025 20/12 Q1023 NOSIG",
      "taf": "TAF GCLP 190800Z 1909/2009 03020KT 9999 SCT025 TX20/1914Z TN15/2006Z"
    },
    {
      "icao": "GCTS",
      "alert": "OK",
      "vis_m": 9999,
      "fzfg": false,
      "metar_trigger": false,
      "taf_trigger": false,
      "metar": "METAR GCTS 191330Z 07024KT 040V100 9999 FEW020 21/11 Q1022 NOSIG",
      "taf": "TAF GCTS 190800Z 1909/2009 05010KT 9999 FEW020 TX24/1914Z TN17/2006Z"
    },
    {
      "icao": "GMAD",
      "alert": "OK",
      "vis_m": 8000,
      "fzfg": false,
      "metar_trigger": false,
      "taf_trigger": false,
      "metar": "METAR GMAD 191330Z 24006KT 210V290 8000 NSC 20/14 Q1020 NOSIG",
      "taf": "TAF GMAD 191100Z 1912/2018 24010KT 6000 BKN016"
    },
    {
      "icao": "GMMN",
      "alert": "OK",
      "vis_m": 9999,
      "fzfg": false,
      "metar_trigger": false,
      "taf_trigger": false,
      "metar": "METAR GMMN 191330Z 03012KT 330V060 9999 SCT020 18/13 Q1025 NOSIG",
      "taf": "TAF GMMN 191100Z 1912/2018 05008KT 9999 SCT020"
    },
    {
      "icao": "GMMX",
      "alert": "OK",
      "vis_m": 8000,
      "fzfg": false,
      "metar_trigger": false,
      "taf_trigger": false,
      "metar": "METAR GMMX 191330Z 03008KT 340V070 8000 NSC 18/12 Q1022 NOSIG",
      "taf": "TAF GMMX 191100Z 1912/2018 06006KT CAVOK"
    },
    {
      "icao": "HEGN",
      "alert": "OK",
      "vis_m": 9999,
      "fzfg": false,
      "metar_trigger": false,
      "taf_trigger": false,
      "metar": "METAR HEGN 191300Z 35015KT CAVOK 22/05 Q1017 NOSIG",
      "taf": "TAF HEGN 191100Z 1912/2018 34012G22KT CAVOK"
    },
    {
      "icao": "HEMA",
      "alert": "OK",
      "vis_m": 9999,
      "fzfg": false,
      "metar_trigger": false,
      "taf_trigger": false,
      "metar": "METAR HEMA 191300Z 34020KT CAVOK 23/07 Q1016 NOSIG",
      "taf": "TAF HEMA 191100Z 1912/2018 35012G22KT CAVOK"
    },
    {
      "icao": "HESH",
      "alert": "OK",
      "vis_m": 9999,
      "fzfg": false,
      "metar_trigger": false,
      "taf_trigger": false,
      "metar": "METAR HESH 191300Z 36014KT CAVOK 23/07 Q1016 NOSIG",
      "taf": "TAF HESH 191100Z 1912/2018 02014KT CAVOK"
    },
    {
      "icao": "HESX",
      "alert": "OK",
      "vis_m": 9999,
      "fzfg": false,
      "metar_trigger": false,
      "taf_trigger": false,
      "metar": "METAR HESX 191300Z 36009KT 9999 SCT020 19/06 Q1020 NOSIG",
      "taf": "TAF HESX 191110Z 1912/2018 02010KT 9999 SCT025"
    },
    {
      "icao": "LATI",
      "alert": "OK",
      "vis_m": 9999,
      "fzfg": false,
      "metar_trigger": false,
      "taf_trigger": false,
      "metar": "METAR LATI 191350Z 15007KT 130V190 9999 BKN070 16/03 Q1014 NOSIG",
      "taf": "TAF LATI 191100Z 1912/2012 15015KT 9999 SCT040 BKN070 TX16/1912Z TN07/2005Z"
    },
    {
      "icao": "LBPD",
      "alert": "OK",
      "vis_m": 9999,
      "fzfg": false,
      "metar_trigger": false,
      "taf_trigger": false,
      "metar": "METAR LBPD 191330Z AUTO 05003KT 330V120 9999 NCD 11/00 Q1016 NOSIG",
      "taf": "TAF LBPD 191100Z 1912/2012 VRB04KT CAVOK"
    },
    {
      "icao": "LBSF",
      "alert": "OK",
      "vis_m": 9999,
      "fzfg": false,
      "metar_trigger": false,
      "taf_trigger": false,
      "metar": "METAR LBSF 191330Z 08007KT 050V110 CAVOK 10/M01 Q1014 NOSIG",
      "taf": "TAF LBSF 191100Z 1912/2012 VRB03KT CAVOK"
    },
    {
      "icao": "LBWN",
      "alert": "OK",
      "vis_m": 9999,
      "fzfg": false,
      "metar_trigger": false,
      "taf_trigger": false,
      "metar": "METAR LBWN 191330Z 11010KT CAVOK 09/M00 Q1017 NOSIG",
      "taf": "TAF LBWN 191100Z 1912/2012 28008KT CAVOK"
    },
    {
      "icao": "LCLK",
      "alert": "OK",
      "vis_m": 9999,
      "fzfg": false,
      "metar_trigger": false,
      "taf_trigger": false,
      "metar": "METAR LCLK 191330Z 12004KT 9999 FEW030 SCT050 18/10 Q1019 NOSIG",
      "taf": "TAF LCLK 191130Z 1912/2012 06009KT 9999 FEW025"
    },
    {
      "icao": "LCPH",
      "alert": "OK",
      "vis_m": 9999,
      "fzfg": false,
      "metar_trigger": false,
      "taf_trigger": false,
      "metar": "METAR LCPH 191330Z 31012KT 9999 FEW030 17/07 Q1019 NOSIG",
      "taf": "TAF LCPH 191130Z 1912/2012 29014KT 9999 FEW025"
    },
    {
      "icao": "LEAL",
      "alert": "OK",
      "vis_m": 9999,
      "fzfg": false,
      "metar_trigger": false,
      "taf_trigger": false,
      "metar": "METAR LEAL 191330Z 29017KT 250V340 9999 FEW040 19/M02 Q1019 NOSIG",
      "taf": "TAF LEAL 191100Z 1912/2012 30015KT 9999 FEW030 TX19/1913Z TN09/2006Z"
    },
    {
      "icao": "LEBB",
      "alert": "OK",
      "vis_m": 9999,
      "fzfg": false,
      "metar_trigger": false,
      "taf_trigger": false,
      "metar": "METAR LEBB 191330Z 28016KT 240V310 9999 SCT042 SCT060 12/06 Q1021 NOSIG",
      "taf": "TAF LEBB 191100Z 1912/2012 28009KT 9999 SCT020 BKN040 TX12/1913Z TN07/2005Z"
    },
    {
      "icao": "LEBL",
      "alert": "OK",
      "vis_m": 9999,
      "fzfg": false,
      "metar_trigger": false,
      "taf_trigger": false,
      "metar": "METAR LEBL 191330Z 31015G27KT 270V340 9999 FEW030 16/02 Q1012 NOSIG",
      "taf": "TAF LEBL 191100Z 1912/2012 29012KT CAVOK TX17/1913Z TN09/2006Z"
    },
    {
      "icao": "LECH",
      "alert": "OK",
      "vis_m": 9999,
      "fzfg": false,
      "metar_trigger": false,
      "taf_trigger": false,
      "metar": "METAR LECH 191330Z AUTO 33011KT 290V030 CAVOK 15/M05 Q1016",
      "taf": ""
    },
    {
      "icao": "LEMD",
      "alert": "OK",
      "vis_m": 9999,
      "fzfg": false,
      "metar_trigger": false,
      "taf_trigger": false,
      "metar": "METAR LEMD 191330Z 27011G21KT 220V300 9999 SCT056 11/M01 Q1022 NOSIG",
      "taf": "TAF LEMD 191100Z 1912/2018 29010KT CAVOK TX13/1915Z TNM00/2006Z"
    },
    {
      "icao": "LEMG",
      "alert": "OK",
      "vis_m": 9999,
      "fzfg": false,
      "metar_trigger": false,
      "taf_trigger": false,
      "metar": "METAR LEMG 191330Z 31013G25KT 270V350 CAVOK 16/04 Q1024 NOSIG",
      "taf": "TAF LEMG 191100Z 1912/2012 32016KT CAVOK TX17/1914Z TN11/2007Z"
    },
    {
      "icao": "LEVC",
      "alert": "OK",
      "vis_m": 9999,
      "fzfg": false,
      "metar_trigger": false,
      "taf_trigger": false,
      "metar": "METAR LEVC 191330Z 27017KT CAVOK 18/M03 Q1017 NOSIG",
      "taf": "TAF LEVC 191100Z 1912/2012 28013KT 9999 FEW035 TX19/1914Z TN08/2006Z"
    },
    {
      "icao": "LEXJ",
      "alert": "OK",
      "vis_m": 8000,
      "fzfg": false,
      "metar_trigger": false,
      "taf_trigger": false,
      "metar": "METAR LEXJ 191330Z 29028G38KT 260V320 8000 BKN041 12/04 Q1022",
      "taf": ""
    },
    {
      "icao": "LEZG",
      "alert": "OK",
      "vis_m": 9999,
      "fzfg": false,
      "metar_trigger": false,
      "taf_trigger": false,
      "metar": "METAR LEZG 191330Z 32024KT 280V350 9999 BKN070 13/M00 Q1019 NOSIG",
      "taf": "TAF LEZG 191100Z 1912/2012 30015KT 9999 FEW040 TX14/1914Z TN07/2006Z"
    },
    {
      "icao": "LEZL",
      "alert": "OK",
      "vis_m": 9999,
      "fzfg": false,
      "metar_trigger": false,
      "taf_trigger": false,
      "metar": "METAR LEZL 191330Z 32006KT 290V080 9999 FEW045 17/05 Q1025 NOSIG",
      "taf": "TAF LEZL 190800Z 1909/2009 29006KT CAVOK TX18/1915Z TN06/2007Z"
    },
    {
      "icao": "LFBD",
      "alert": "OK",
      "vis_m": 9999,
      "fzfg": false,
      "metar_trigger": false,
      "taf_trigger": false,
      "metar": "METAR LFBD 191330Z AUTO 29023G36KT 9999 BKN026/// OVC033/// ///TCU 12/08 Q1012 TEMPO 3000 SHRA BKN020 BKN030TCU SCT035CB",
      "taf": ""
    },
    {
      "icao": "LFLL",
      "alert": "OK",
      "vis_m": 9999,
      "fzfg": false,
      "metar_trigger": false,
      "taf_trigger": false,
      "metar": "METAR LFLL 191330Z 19011KT 9999 -SHRA SCT031TCU BKN045 10/05 Q1003 TEMPO 4000 SHRA BKN030TCU",
      "taf": "TAF LFLL 191100Z 1912/2018 20012KT 9999 FEW030TCU OVC035"
    },
    {
      "icao": "LFLS",
      "alert": "OK",
      "vis_m": 9999,
      "fzfg": false,
      "metar_trigger": false,
      "taf_trigger": false,
      "metar": "METAR LFLS 191330Z AUTO 17008KT 140V200 9999 BKN048/// OVC056/// ///TCU 09/03 Q1004 TEMPO 27012G25KT 3000 SHRA FEW025CB BKN025TCU",
      "taf": "TAF LFLS 190800Z 1909/2009 21010KT 9999 BKN035"
    },
    {
      "icao": "LFMN",
      "alert": "OK",
      "vis_m": 9999,
      "fzfg": false,
      "metar_trigger": false,
      "taf_trigger": false,
      "metar": "METAR LFMN 191330Z 28019KT CAVOK 17/03 Q0999 NOSIG",
      "taf": ""
    },
    {
      "icao": "LFOB",
      "alert": "OK",
      "vis_m": 9999,
      "fzfg": false,
      "metar_trigger": false,
      "taf_trigger": false,
      "metar": "METAR LFOB 191330Z AUTO 35011KT 9999 SCT016/// BKN024/// BKN037/// ///TCU 10/08 Q0998 TEMPO 3500 SHRA BKN007 BKN012 SCT030TCU",
      "taf": "TAF LFOB 191100Z 1912/2012 26010KT 9999 SCT016 OVC030"
    },
    {
      "icao": "LFPO",
      "alert": "OK",
      "vis_m": 9999,
      "fzfg": false,
      "metar_trigger": false,
      "taf_trigger": false,
      "metar": "METAR LFPO 191330Z 29009KT 9999 BKN010 09/07 Q0998 TEMPO 4000 -SHRA BKN012TCU",
      "taf": "TAF LFPO 191100Z 1912/2018 28010KT 8000 BKN015 BKN030"
    },
    {
      "icao": "LFSB",
      "alert": "OK",
      "vis_m": 9999,
      "fzfg": false,
      "metar_trigger": false,
      "taf_trigger": false,
      "metar": "METAR LFSB 191330Z AUTO 23009KT 180V260 9999 -RA SCT033 BKN039 BKN050 10/05 Q1000 TEMPO 4000 SHRA SCT030TCU",
      "taf": "TAF LFSB 191100Z 1912/2012 23010KT 9999 SCT025 BKN040"
    },
    {
      "icao": "LGAV",
      "alert": "OK",
      "vis_m": 9999,
      "fzfg": false,
      "metar_trigger": false,
      "taf_trigger": false,
      "metar": "METAR LGAV 191320Z 19013KT 9999 FEW030 16/04 Q1020 NOSIG",
      "taf": "TAF LGAV 191100Z 1912/2012 20010KT 9999 FEW025"
    },
    {
      "icao": "LGTS",
      "alert": "OK",
      "vis_m": 9999,
      "fzfg": false,
      "metar_trigger": false,
      "taf_trigger": false,
      "metar": "METAR LGTS 191320Z 14011KT 9999 FEW020 15/04 Q1017 NOSIG",
      "taf": "TAF LGTS 191100Z 1912/2012 14013KT 9999 FEW030"
    },
    {
      "icao": "LHBP",
      "alert": "OK",
      "vis_m": 6000,
      "fzfg": false,
      "metar_trigger": false,
      "taf_trigger": false,
      "metar": "METAR LHBP 191330Z 06006KT 6000 BKN005 OVC046 03/01 Q1007 TEMPO SCT006 BKN050",
      "taf": "TAF LHBP 191115Z 1912/2012 08010KT 9999 FEW010 BKN060"
    },
    {
      "icao": "LHDC",
      "alert": "OK",
      "vis_m": 9999,
      "fzfg": false,
      "metar_trigger": false,
      "taf_trigger": false,
      "metar": "METAR LHDC 191315Z AUTO 11006KT 080V150 9999 -RA OVC021 04/02 Q1010 TEMPO RA",
      "taf": "TAF LHDC 191115Z 1912/1921 13008KT 9999 -RA BKN030 OVC050"
    },
    {
      "icao": "LIBD",
      "alert": "OK",
      "vis_m": 9999,
      "fzfg": false,
      "metar_trigger": false,
      "taf_trigger": false,
      "metar": "METAR LIBD 191320Z 16009G19KT CAVOK 15/07 Q1008",
      "taf": "TAF LIBD 191100Z 1912/2012 17016G30KT 9999 SCT040"
    },
    {
      "icao": "LIBG",
      "alert": "OK",
      "vis_m": 9999,
      "fzfg": false,
      "metar_trigger": false,
      "taf_trigger": false,
      "metar": "METAR LIBG 191250Z 16014KT CAVOK 15/10 Q1011",
      "taf": "TAF LIBG 191100Z 1912/1921 17015KT 9999 SCT020"
    },
    {
      "icao": "LIBP",
      "alert": "OK",
      "vis_m": 9999,
      "fzfg": false,
      "metar_trigger": false,
      "taf_trigger": false,
      "metar": "METAR LIBP 191320Z AUTO 25013KT 9999 BKN079/// 19/07 Q1000",
      "taf": "TAF LIBP 191100Z 1912/2012 22012KT 9999 SCT050"
    },
    {
      "icao": "LIBR",
      "alert": "OK",
      "vis_m": 9999,
      "fzfg": false,
      "metar_trigger": false,
      "taf_trigger": false,
      "metar": "METAR LIBR 191320Z 19017KT CAVOK 16/08 Q1011",
      "taf": "TAF LIBR 191100Z 1912/2012 18020G33KT 9999 SCT025"
    },
    {
      "icao": "LICA",
      "alert": "OK",
      "vis_m": 9999,
      "fzfg": false,
      "metar_trigger": false,
      "taf_trigger": false,
      "metar": "METAR LICA 191320Z AUTO 08009KT 9999 NCD 19/09 Q1011",
      "taf": "TAF LICA 191100Z 1912/2012 VRB06KT 9999 FEW025"
    },
    {
      "icao": "LICC",
      "alert": "OK",
      "vis_m": 9999,
      "fzfg": false,
      "metar_trigger": false,
      "taf_trigger": false,
      "metar": "METAR LICC 191320Z 23007KT 9999 SCT030 20/15 Q1012",
      "taf": "TAF LICC 191100Z 1912/2012 26011KT 9999 FEW040"
    },
    {
      "icao": "LICJ",
      "alert": "OK",
      "vis_m": 9999,
      "fzfg": false,
      "metar_trigger": false,
      "taf_trigger": false,
      "metar": "METAR LICJ 191320Z 21021KT 9999 FEW030 18/11 Q1010",
      "taf": "TAF LICJ 191100Z 1912/2012 22022G32KT 9999 SCT035"
    },
    {
      "icao": "LIMC",
      "alert": "OK",
      "vis_m": 9999,
      "fzfg": false,
      "metar_trigger": false,
      "taf_trigger": false,
      "metar": "METAR LIMC 191320Z 24004KT 200V280 9999 BKN015 06/04 Q1000 NOSIG",
      "taf": "TAF LIMC 191100Z 1912/2018 35010KT 9999 BKN025"
    },
    {
      "icao": "LIME",
      "alert": "OK",
      "vis_m": 9999,
      "fzfg": false,
      "metar_trigger": false,
      "taf_trigger": false,
      "metar": "METAR LIME 191320Z AUTO 27007KT 9999 -RA BKN007/// 05/04 Q0999 RERA",
      "taf": "TAF LIME 191100Z 1912/2012 31010KT 7000 BKN030"
    },
    {
      "icao": "LIMF",
      "alert": "OK",
      "vis_m": 9999,
      "fzfg": false,
      "metar_trigger": false,
      "taf_trigger": false,
      "metar": "METAR LIMF 191320Z 19004KT 130V230 CAVOK 09/03 Q0999",
      "taf": "TAF LIMF 191100Z 1912/2012 VRB05KT 8000 BKN020"
    },
    {
      "icao": "LIMJ",
      "alert": "OK",
      "vis_m": 9999,
      "fzfg": false,
      "metar_trigger": false,
      "taf_trigger": false,
      "metar": "METAR LIMJ 191320Z 28004KT 9999 FEW030 11/04 Q1000",
      "taf": "TAF LIMJ 191100Z 1912/2012 05015KT 9999 SCT020"
    },
    {
      "icao": "LIPE",
      "alert": "OK",
      "vis_m": 9999,
      "fzfg": false,
      "metar_trigger": false,
      "taf_trigger": false,
      "metar": "METAR LIPE 191320Z 29014KT 9999 FEW025 09/04 Q0999",
      "taf": "TAF LIPE 191100Z 1912/2012 29014KT 9999 SCT040"
    },
    {
      "icao": "LIPH",
      "alert": "OK",
      "vis_m": 9999,
      "fzfg": false,
      "metar_trigger": false,
      "taf_trigger": false,
      "metar": "METAR LIPH 191320Z 14008KT 9999 VCSH SCT020 13/11 Q0997 RESHRA",
      "taf": "TAF LIPH 191100Z 1912/2012 06012KT 7000 BKN020"
    },
    {
      "icao": "LIPQ",
      "alert": "OK",
      "vis_m": 8000,
      "fzfg": false,
      "metar_trigger": false,
      "taf_trigger": false,
      "metar": "METAR LIPQ 191320Z AUTO 15012KT 8000 RA OVC023/// 11/10 Q0999",
      "taf": "TAF LIPQ 191100Z 1912/2012 15016KT 7000 RA SCT010 BKN030"
    },
    {
      "icao": "LIPR",
      "alert": "OK",
      "vis_m": 9999,
      "fzfg": false,
      "metar_trigger": false,
      "taf_trigger": false,
      "metar": "METAR LIPR 191320Z 20006KT 9999 FEW020 BKN055 11/09 Q0999 RESHRA",
      "taf": "TAF LIPR 191100Z 1912/2012 22016KT 9999 SCT040"
    },
    {
      "icao": "LIPX",
      "alert": "OK",
      "vis_m": 9999,
      "fzfg": false,
      "metar_trigger": false,
      "taf_trigger": false,
      "metar": "METAR LIPX 191320Z 26013KT 9999 BKN025 08/06 Q0998",
      "taf": "TAF LIPX 191100Z 1912/2012 26013KT 4000 RA BKN030"
    },
    {
      "icao": "LIPY",
      "alert": "OK",
      "vis_m": 9999,
      "fzfg": false,
      "metar_trigger": false,
      "taf_trigger": false,
      "metar": "METAR LIPY 191320Z AUTO 23016KT 9999 RA BKN065/// 16/09 Q0999",
      "taf": "TAF LIPY 191100Z 1912/2012 15010KT 9999 SCT040"
    },
    {
      "icao": "LIPZ",
      "alert": "OK",
      "vis_m": 9999,
      "fzfg": false,
      "metar_trigger": false,
      "taf_trigger": false,
      "metar": "METAR LIPZ 191320Z 17012KT 9999 VCSH FEW020TCU SCT040 12/10 Q0997 NOSIG",
      "taf": "TAF LIPZ 191100Z 1912/2018 17018G32KT 7000 SCT020"
    },
    {
      "icao": "LIRF",
      "alert": "OK",
      "vis_m": 8000,
      "fzfg": false,
      "metar_trigger": false,
      "taf_trigger": false,
      "metar": "METAR LIRF 191320Z 23010KT 8000 -RA FEW010CB SCT030 14/12 Q1003 RETS NOSIG",
      "taf": "TAF LIRF 191100Z 1912/2018 18022G35KT 9999 FEW025"
    },
    {
      "icao": "LIRN",
      "alert": "OK",
      "vis_m": 9999,
      "fzfg": false,
      "metar_trigger": false,
      "taf_trigger": false,
      "metar": "METAR LIRN 191320Z 16011G21KT 110V220 9999 FEW030 BKN050 15/08 Q1007 NOSIG",
      "taf": "TAF LIRN 191100Z 1912/2012 19022G32KT 9999 SCT030"
    },
    {
      "icao": "LIRP",
      "alert": "OK",
      "vis_m": 9999,
      "fzfg": false,
      "metar_trigger": false,
      "taf_trigger": false,
      "metar": "METAR LIRP 191315Z 23008KT 9999 SCT030 13/09 Q1001 NOSIG",
      "taf": "TAF LIRP 191100Z 1912/2012 27013KT 9999 SCT025 BKN035"
    },
    {
      "icao": "LIRZ",
      "alert": "OK",
      "vis_m": 9999,
      "fzfg": false,
      "metar_trigger": false,
      "taf_trigger": false,
      "metar": "METAR LIRZ 191320Z AUTO 28008KT 240V310 9999 RA BKN030/// 09/07 Q1002",
      "taf": "TAF LIRZ 191100Z 1912/2012 19013KT 9999 SCT035"
    },
    {
      "icao": "LJLJ",
      "alert": "OK",
      "vis_m": 4000,
      "fzfg": false,
      "metar_trigger": false,
      "taf_trigger": false,
      "metar": "METAR LJLJ 191330Z 30005KT 4000 -RA BR FEW002 SCT020 BKN035 05/05 Q1001 NOSIG",
      "taf": "TAF LJLJ 191100Z 1912/2012 VRB02KT 6000 -RA SCT002 BKN015 OVC025"
    },
    {
      "icao": "LKMT",
      "alert": "OK",
      "vis_m": 1800,
      "fzfg": false,
      "metar_trigger": false,
      "taf_trigger": false,
      "metar": "METAR LKMT 191330Z 02009KT 1800 BR BKN009 OVC010 M00/M01 Q1009 NOSIG",
      "taf": "TAF LKMT 191100Z 1912/2012 03008KT 1600 BR BKN006 OVC010"
    },
    {
      "icao": "LKPR",
      "alert": "OK",
      "vis_m": 9999,
      "fzfg": false,
      "metar_trigger": false,
      "taf_trigger": false,
      "metar": "METAR LKPR 191330Z 07012KT 9999 SCT014 01/M02 Q1007 NOSIG",
      "taf": "TAF LKPR 191100Z 1912/2018 08009KT 8000 BKN008"
    },
    {
      "icao": "LLBG",
      "alert": "OK",
      "vis_m": 9999,
      "fzfg": false,
      "metar_trigger": false,
      "taf_trigger": false,
      "metar": "METAR LLBG 191350Z 33009KT 9999 BKN045 18/07 Q1020 NOSIG",
      "taf": "TAF LLBG 191104Z 1912/2012 30010KT 9999 FEW040"
    },
    {
      "icao": "LMML",
      "alert": "OK",
      "vis_m": 9999,
      "fzfg": false,
      "metar_trigger": false,
      "taf_trigger": false,
      "metar": "METAR LMML 191345Z 20011KT 170V230 CAVOK 18/14 Q1013 NOSIG",
      "taf": "TAF LMML 191100Z 1912/2012 18015KT CAVOK"
    },
    {
      "icao": "LOWW",
      "alert": "OK",
      "vis_m": 9999,
      "fzfg": false,
      "metar_trigger": false,
      "taf_trigger": false,
      "metar": "METAR LOWW 191320Z 06007KT 9999 FEW004 BKN006 01/M00 Q1006 NOSIG",
      "taf": "TAF LOWW 191115Z 1912/2018 10009KT 9999 OVC009 TX00/1912Z TNM02/2018Z"
    },
    {
      "icao": "LPFR",
      "alert": "OK",
      "vis_m": 9999,
      "fzfg": false,
      "metar_trigger": false,
      "taf_trigger": false,
      "metar": "METAR LPFR 191330Z 36009KT 330V050 9999 FEW020 17/06 Q1027",
      "taf": "TAF LPFR 191100Z 1912/2012 36010KT CAVOK"
    },
    {
      "icao": "LPMA",
      "alert": "OK",
      "vis_m": 9999,
      "fzfg": false,
      "metar_trigger": false,
      "taf_trigger": false,
      "metar": "METAR LPMA 191330Z 04011KT 9999 BKN015 18/10 Q1027",
      "taf": "TAF LPMA 191100Z 1912/2012 03010KT 9999 SCT016"
    },
    {
      "icao": "LPPR",
      "alert": "OK",
      "vis_m": 9999,
      "fzfg": false,
      "metar_trigger": false,
      "taf_trigger": false,
      "metar": "METAR LPPR 191330Z 34007KT 300V010 9999 FEW025 BKN046 12/08 Q1028",
      "taf": "TAF LPPR 191100Z 1912/2012 35010KT 9999 SCT035"
    },
    {
      "icao": "LPPS",
      "alert": "OK",
      "vis_m": 9999,
      "fzfg": false,
      "metar_trigger": false,
      "taf_trigger": false,
      "metar": "METAR LPPS 191330Z 11012KT 9999 SCT015 18/10 Q1027",
      "taf": "TAF LPPS 191100Z 1912/2018 08010KT 9999 SCT015"
    },
    {
      "icao": "LPPT",
      "alert": "OK",
      "vis_m": 9999,
      "fzfg": false,
      "metar_trigger": false,
      "taf_trigger": false,
      "metar": "METAR LPPT 191330Z 34012KT 300V360 9999 FEW030 SCT037 14/07 Q1028",
      "taf": "TAF LPPT 191100Z 1912/2018 34010KT 9999 SCT035"
    },
    {
      "icao": "LQBK",
      "alert": "OK",
      "vis_m": 9999,
      "fzfg": false,
      "metar_trigger": false,
      "taf_trigger": false,
      "metar": "METAR LQBK 191330Z 16015KT CAVOK 15/04 Q1003 TEMPO 17015G25KT",
      "taf": ""
    },
    {
      "icao": "LQSA",
      "alert": "OK",
      "vis_m": 9999,
      "fzfg": false,
      "metar_trigger": false,
      "taf_trigger": false,
      "metar": "METAR LQSA 191330Z COR 16016G27KT 130V190 9999 -RA SCT030 SCT045 BKN065 09/04 Q1008 NOSIG",
      "taf": "TAF LQSA 191100Z 1912/2012 14013KT 9999 BKN045 TX11/1913Z TN04/2006Z"
    },
    {
      "icao": "LQTZ",
      "alert": "OK",
      "vis_m": 9999,
      "fzfg": false,
      "metar_trigger": false,
      "taf_trigger": false,
      "metar": "METAR LQTZ 191330Z 19007KT 140V230 9999 FEW050 13/02 Q1006",
      "taf": "TAF LQTZ 191100Z 1912/2012 09006KT CAVOK TX16/1914Z TN06/2005Z"
    },
    {
      "icao": "LRBC",
      "alert": "OK",
      "vis_m": 9999,
      "fzfg": false,
      "metar_trigger": false,
      "taf_trigger": false,
      "metar": "METAR LRBC 191330Z 17012KT CAVOK 01/M03 Q1014",
      "taf": "TAF LRBC 191100Z 1912/1921 VRB04KT 5000 BR NSC"
    },
    {
      "icao": "LRBS",
      "alert": "OK",
      "vis_m": 9999,
      "fzfg": false,
      "metar_trigger": false,
      "taf_trigger": false,
      "metar": "METAR LRBS 191330Z 23005KT CAVOK 07/M04 Q1016 NOSIG",
      "taf": "TAF LRBS 191100Z 1912/2012 25006KT CAVOK"
    },
    {
      "icao": "LRBV",
      "alert": "OK",
      "vis_m": 9999,
      "fzfg": false,
      "metar_trigger": false,
      "taf_trigger": false,
      "metar": "METAR LRBV 191330Z VRB03KT 9999 BKN069 03/M03 Q1012",
      "taf": "TAF LRBV 191100Z 1912/1921 VRB04KT CAVOK"
    },
    {
      "icao": "LRCL",
      "alert": "OK",
      "vis_m": 9999,
      "fzfg": false,
      "metar_trigger": false,
      "taf_trigger": false,
      "metar": "METAR LRCL 191330Z 11007KT 9999 BKN057 04/M02 Q1011",
      "taf": "TAF LRCL 191100Z 1912/1921 12010KT CAVOK"
    },
    {
      "icao": "LRCV",
      "alert": "OK",
      "vis_m": 9999,
      "fzfg": false,
      "metar_trigger": false,
      "taf_trigger": false,
      "metar": "METAR LRCV 191330Z 13011KT CAVOK 09/M00 Q1014",
      "taf": "TAF LRCV 191100Z 1912/1921 14010KT CAVOK"
    },
    {
      "icao": "LRIA",
      "alert": "OK",
      "vis_m": 9999,
      "fzfg": false,
      "metar_trigger": false,
      "taf_trigger": false,
      "metar": "METAR LRIA 191330Z 10008KT CAVOK 02/M01 Q1015",
      "taf": "TAF LRIA 191100Z 1912/1921 VRB04KT CAVOK"
    },
    {
      "icao": "LROP",
      "alert": "OK",
      "vis_m": 9999,
      "fzfg": false,
      "metar_trigger": false,
      "taf_trigger": false,
      "metar": "METAR LROP 191330Z 23004KT CAVOK 07/M06 Q1016 NOSIG",
      "taf": "TAF LROP 191100Z 1912/2012 25006KT CAVOK"
    },
    {
      "icao": "LRSB",
      "alert": "OK",
      "vis_m": 9999,
      "fzfg": false,
      "metar_trigger": false,
      "taf_trigger": false,
      "metar": "METAR LRSB 191330Z 13008KT 9999 FEW060 SCT075 07/M03 Q1010",
      "taf": "TAF LRSB 191100Z 1912/2012 12007KT CAVOK"
    },
    {
      "icao": "LRSM",
      "alert": "OK",
      "vis_m": 9999,
      "fzfg": false,
      "metar_trigger": false,
      "taf_trigger": false,
      "metar": "METAR LRSM 191330Z 16006KT 140V210 9999 -RA SCT029 OVC034 06/M01 Q1011",
      "taf": "TAF LRSM 191100Z 1912/1921 14006KT CAVOK"
    },
    {
      "icao": "LRSV",
      "alert": "OK",
      "vis_m": 9999,
      "fzfg": false,
      "metar_trigger": false,
      "taf_trigger": false,
      "metar": "METAR LRSV 191330Z 10010KT CAVOK 00/M03 Q1012",
      "taf": "TAF LRSV 191100Z 1912/1921 11006KT CAVOK"
    },
    {
      "icao": "LRTM",
      "alert": "OK",
      "vis_m": 9999,
      "fzfg": false,
      "metar_trigger": false,
      "taf_trigger": false,
      "metar": "METAR LRTM 191330Z 07009KT 9999 FEW045 04/M00 Q1012",
      "taf": "TAF LRTM 191100Z 1912/1921 09007KT CAVOK"
    },
    {
      "icao": "LRTR",
      "alert": "OK",
      "vis_m": 9999,
      "fzfg": false,
      "metar_trigger": false,
      "taf_trigger": false,
      "metar": "METAR LRTR 191330Z 16014KT CAVOK 11/02 Q1009 NOSIG",
      "taf": "TAF LRTR 191100Z 1912/2012 10012KT CAVOK"
    },
    {
      "icao": "LTAC",
      "alert": "OK",
      "vis_m": 9999,
      "fzfg": false,
      "metar_trigger": false,
      "taf_trigger": false,
      "metar": "METAR LTAC 191320Z 25010KT 9999 SCT040 05/M06 Q1020 NOSIG RMK RWY21C 24010KT 200V260 RWY03L 23008KT 210V270 RWY21R 22011KT 190V250 RWY03R 25010KT RWY21L 25011KT",
      "taf": "TAF LTAC 191040Z 1912/2012 VRB02KT 9999 SCT040"
    },
    {
      "icao": "LTFM",
      "alert": "OK",
      "vis_m": 9999,
      "fzfg": false,
      "metar_trigger": false,
      "taf_trigger": false,
      "metar": "METAR LTFM 191320Z 22015KT CAVOK 11/02 Q1020 NOSIG RMK RWY17L 22014KT RWY34L 21014KT RWY16R 21013KT RWY36 22016KT RWY18 21015KT",
      "taf": "TAF LTFM 191040Z 1912/2018 20013KT 9999 FEW030"
    },
    {
      "icao": "LUKK",
      "alert": "OK",
      "vis_m": 9999,
      "fzfg": false,
      "metar_trigger": false,
      "taf_trigger": false,
      "metar": "METAR LUKK 191330Z 23007KT CAVOK 03/M03 Q1015 NOSIG",
      "taf": "TAF LUKK 191128Z 1912/2012 26008KT 9999 SCT020"
    },
    {
      "icao": "LWOH",
      "alert": "OK",
      "vis_m": 9999,
      "fzfg": false,
      "metar_trigger": false,
      "taf_trigger": false,
      "metar": "METAR LWOH 191350Z 15013KT 130V190 9999 SCT040 10/05 Q1014",
      "taf": ""
    },
    {
      "icao": "LWSK",
      "alert": "OK",
      "vis_m": 9999,
      "fzfg": false,
      "metar_trigger": false,
      "taf_trigger": false,
      "metar": "METAR LWSK 191350Z 29005KT 240V340 9999 SCT075 10/01 Q1015 NOSIG",
      "taf": ""
    },
    {
      "icao": "LYBE",
      "alert": "OK",
      "vis_m": 9999,
      "fzfg": false,
      "metar_trigger": false,
      "taf_trigger": false,
      "metar": "METAR LYBE 191330Z 17013KT CAVOK 14/01 Q1008 NOSIG",
      "taf": "TAF LYBE 191100Z 1912/2012 16012KT CAVOK TX14/1913Z TN06/2005Z"
    },
    {
      "icao": "LYNI",
      "alert": "OK",
      "vis_m": 9999,
      "fzfg": false,
      "metar_trigger": false,
      "taf_trigger": false,
      "metar": "METAR LYNI 191330Z 17008KT 120V220 9999 FEW050 12/M01 Q1012 NOSIG",
      "taf": "TAF LYNI 191100Z 1912/2012 18012KT CAVOK TX12/1913Z TN04/2005Z"
    },
    {
      "icao": "LYPG",
      "alert": "OK",
      "vis_m": 8000,
      "fzfg": false,
      "metar_trigger": false,
      "taf_trigger": false,
      "metar": "METAR LYPG 191330Z 35005KT 8000 RA FEW027 SCT040 OVC070 08/07 Q1015 TEMPO 5000",
      "taf": "TAF LYPG 191100Z 1912/2012 16008KT 9999 FEW027 SCT040 BKN070 TX12/1918Z TN07/2006Z"
    },
    {
      "icao": "LZIB",
      "alert": "OK",
      "vis_m": 5000,
      "fzfg": false,
      "metar_trigger": false,
      "taf_trigger": false,
      "metar": "METAR LZIB 191330Z 04010KT 5000 -SN BR SCT003 BKN004 00/00 Q1007 NOSIG",
      "taf": "TAF LZIB 191115Z 1912/2012 05011KT 3200 -SN SCT003 BKN015"
    },
    {
      "icao": "LZKZ",
      "alert": "OK",
      "vis_m": 1700,
      "fzfg": false,
      "metar_trigger": false,
      "taf_trigger": false,
      "metar": "METAR LZKZ 191330Z 07004KT 1700 -SN BR SCT003 OVC005 00/00 Q1010 TEMPO 1400 -SN BR",
      "taf": "TAF LZKZ 191115Z 1912/2012 VRB02KT 9999 FEW005 BKN025"
    },
    {
      "icao": "LZTT",
      "alert": "OK",
      "vis_m": 9999,
      "fzfg": false,
      "metar_trigger": false,
      "taf_trigger": false,
      "metar": "METAR LZTT 191330Z 14007KT 9999 VCSH FEW016 BKN053 M00/M04 Q1007 TEMPO 2800 -SN SCT014 BKN020",
      "taf": "TAF LZTT 191115Z 1912/2012 16005KT 9999 FEW015 BKN040"
    },
    {
      "icao": "OEJN",
      "alert": "OK",
      "vis_m": 9999,
      "fzfg": false,
      "metar_trigger": false,
      "taf_trigger": false,
      "metar": "METAR OEJN 191300Z 30012KT CAVOK 29/16 Q1011 NOSIG",
      "taf": "TAF OEJN 191100Z 1912/2018 33010KT CAVOK"
    },
    {
      "icao": "OEMA",
      "alert": "OK",
      "vis_m": 9999,
      "fzfg": false,
      "metar_trigger": false,
      "taf_trigger": false,
      "metar": "METAR OEMA 191300Z 33005KT CAVOK 33/02 Q1014 NOSIG",
      "taf": "TAF OEMA 191100Z 1912/2018 30008KT CAVOK"
    },
    {
      "icao": "OJAI",
      "alert": "OK",
      "vis_m": 5000,
      "fzfg": false,
      "metar_trigger": false,
      "taf_trigger": false,
      "metar": "METAR OJAI 191300Z 28009KT 5000 HZ BKN030 14/05 Q1021 NOSIG",
      "taf": "TAF OJAI 191035Z 1912/2018 28010KT 5000 HZ FEW030"
    },
    {
      "icao": "OMAA",
      "alert": "OK",
      "vis_m": 9999,
      "fzfg": false,
      "metar_trigger": false,
      "taf_trigger": false,
      "metar": "METAR OMAA 191330Z 34012KT CAVOK 28/09 Q1014 NOSIG",
      "taf": "TAF OMAA 191100Z 1912/2018 35011KT 8000 NSC"
    },
    {
      "icao": "OMDB",
      "alert": "OK",
      "vis_m": 9999,
      "fzfg": false,
      "metar_trigger": false,
      "taf_trigger": false,
      "metar": "METAR OMDB 191330Z 36011KT 340V050 CAVOK 28/10 Q1015 NOSIG",
      "taf": "TAF OMDB 191100Z 1912/2018 35013KT CAVOK"
    },
    {
      "icao": "UAAA",
      "alert": "OK",
      "vis_m": 5000,
      "fzfg": false,
      "metar_trigger": false,
      "taf_trigger": false,
      "metar": "METAR UAAA 191330Z 20003MPS 5000 FU FEW100 SCT200 14/03 Q1017 NOSIG",
      "taf": "TAF UAAA 191102Z 1912/2012 20003MPS 4000 BR FU FEW050 SCT100 TX12/2009Z TN03/2003Z"
    },
    {
      "icao": "UBBB",
      "alert": "OK",
      "vis_m": 9999,
      "fzfg": false,
      "metar_trigger": false,
      "taf_trigger": false,
      "metar": "METAR UBBB 191330Z 32016KT CAVOK 09/05 Q1010 NOSIG",
      "taf": ""
    },
    {
      "icao": "UDSG",
      "alert": "OK",
      "vis_m": 9999,
      "fzfg": false,
      "metar_trigger": false,
      "taf_trigger": false,
      "metar": "METAR UDSG 191330Z 27018G30KT 9999 SCT049CB 04/M02 Q1015 NOSIG",
      "taf": ""
    },
    {
      "icao": "UDYZ",
      "alert": "OK",
      "vis_m": 9999,
      "fzfg": false,
      "metar_trigger": false,
      "taf_trigger": false,
      "metar": "METAR UDYZ 191330Z 27023KT 9999 SCT///CB 12/M01 Q1013 NOSIG",
      "taf": "TAF UDYZ 191100Z 1912/2012 25006KT 9999 SCT040"
    },
    {
      "icao": "UGKO",
      "alert": "OK",
      "vis_m": 9999,
      "fzfg": false,
      "metar_trigger": false,
      "taf_trigger": false,
      "metar": "METAR UGKO 191330Z 24013KT 9999 -RA SCT009 BKN020CB 06/05 Q1024 NOSIG",
      "taf": "TAF UGKO 191100Z 1912/2012 25007KT 9000 OVC050 TX19/2011Z TN02/2003Z"
    }
  ]
}