{
  "ts_utc": "2026-06-01T18:46:35Z",
  "threshold_m": 150,
  "source": "stations_override.txt (ICAO list) + aviationweather.gov (METAR/TAF raw)",
  "station_count": 159,
  "stations": [
    {
      "icao": "BIKF",
      "alert": "OK",
      "vis_m": 9999,
      "fzfg": false,
      "metar_trigger": false,
      "taf_trigger": false,
      "metar": "METAR BIKF 011830Z 29008KT 270V330 9999 FEW020 SCT056 BKN095 12/08 Q1004",
      "taf": "TAF BIKF 011624Z 0118/0218 29008KT 9999 FEW012 BKN030 TX13/0118Z TN08/0206Z"
    },
    {
      "icao": "BKPR",
      "alert": "OK",
      "vis_m": 9999,
      "fzfg": false,
      "metar_trigger": false,
      "taf_trigger": false,
      "metar": "METAR BKPR 011830Z 34008KT 9999 FEW050 SCT080 18/13 Q1015 NOSIG",
      "taf": "TAF BKPR 011730Z 0118/0218 32008KT 9999 FEW050"
    },
    {
      "icao": "EBCI",
      "alert": "OK",
      "vis_m": 9999,
      "fzfg": false,
      "metar_trigger": false,
      "taf_trigger": false,
      "metar": "METAR EBCI 011820Z 23008KT 9999 FEW048 21/11 Q1014 NOSIG",
      "taf": "TAF EBCI 011700Z 0118/0224 23006KT 9999 FEW045"
    },
    {
      "icao": "EDDB",
      "alert": "OK",
      "vis_m": 9999,
      "fzfg": false,
      "metar_trigger": false,
      "taf_trigger": false,
      "metar": "METAR EDDB 011820Z AUTO 07005KT CAVOK 20/12 Q1014 NOSIG",
      "taf": "TAF EDDB 011700Z 0118/0218 33006KT CAVOK"
    },
    {
      "icao": "EDDH",
      "alert": "OK",
      "vis_m": 9999,
      "fzfg": false,
      "metar_trigger": false,
      "taf_trigger": false,
      "metar": "METAR EDDH 011820Z AUTO 33004KT CAVOK 20/08 Q1014 NOSIG",
      "taf": "TAF EDDH 011700Z 0118/0224 28006KT CAVOK"
    },
    {
      "icao": "EDDK",
      "alert": "OK",
      "vis_m": 9999,
      "fzfg": false,
      "metar_trigger": false,
      "taf_trigger": false,
      "metar": "METAR EDDK 011820Z AUTO 08003KT CAVOK 22/14 Q1014 NOSIG",
      "taf": "TAF EDDK 011700Z 0118/0224 12004KT CAVOK"
    },
    {
      "icao": "EDDN",
      "alert": "OK",
      "vis_m": 9999,
      "fzfg": false,
      "metar_trigger": false,
      "taf_trigger": false,
      "metar": "METAR EDDN 011820Z AUTO 07003KT 040V110 CAVOK 21/12 Q1015 NOSIG",
      "taf": "TAF EDDN 011700Z 0118/0218 02005KT CAVOK"
    },
    {
      "icao": "EDDS",
      "alert": "OK",
      "vis_m": 9999,
      "fzfg": false,
      "metar_trigger": false,
      "taf_trigger": false,
      "metar": "METAR EDDS 011820Z AUTO 06003KT CAVOK 21/11 Q1015 NOSIG",
      "taf": "TAF EDDS 011700Z 0118/0218 01005KT CAVOK"
    },
    {
      "icao": "EDFH",
      "alert": "OK",
      "vis_m": 9999,
      "fzfg": false,
      "metar_trigger": false,
      "taf_trigger": false,
      "metar": "METAR EDFH 011820Z VRB02KT CAVOK 20/10 Q1015",
      "taf": "TAF EDFH 011700Z 0118/0218 29004KT CAVOK"
    },
    {
      "icao": "EDJA",
      "alert": "OK",
      "vis_m": 9999,
      "fzfg": false,
      "metar_trigger": false,
      "taf_trigger": false,
      "metar": "METAR EDJA 011820Z VRB02KT CAVOK 20/10 Q1016",
      "taf": "TAF EDJA 011700Z 0118/0203 VRB03KT 9999 FEW040"
    },
    {
      "icao": "EDLW",
      "alert": "OK",
      "vis_m": 9999,
      "fzfg": false,
      "metar_trigger": false,
      "taf_trigger": false,
      "metar": "METAR EDLW 011820Z 00000KT CAVOK 20/14 Q1013",
      "taf": "TAF EDLW 011700Z 0118/0218 23005KT CAVOK"
    },
    {
      "icao": "EDNY",
      "alert": "OK",
      "vis_m": 9999,
      "fzfg": false,
      "metar_trigger": false,
      "taf_trigger": false,
      "metar": "METAR EDNY 011820Z VRB02KT CAVOK 22/13 Q1015",
      "taf": "TAF EDNY 011700Z 0118/0203 VRB03KT 9999 FEW040"
    },
    {
      "icao": "EDSB",
      "alert": "OK",
      "vis_m": 9999,
      "fzfg": false,
      "metar_trigger": false,
      "taf_trigger": false,
      "metar": "METAR EDSB 011820Z 22003KT CAVOK 23/12 Q1014",
      "taf": "TAF EDSB 011700Z 0118/0218 VRB03KT CAVOK"
    },
    {
      "icao": "EETN",
      "alert": "OK",
      "vis_m": 9999,
      "fzfg": false,
      "metar_trigger": false,
      "taf_trigger": false,
      "metar": "METAR EETN 011820Z 06005KT CAVOK 15/07 Q1013 NOSIG",
      "taf": "TAF EETN 011730Z 0118/0218 VRB02KT 9999 SCT040"
    },
    {
      "icao": "EFTU",
      "alert": "OK",
      "vis_m": 9999,
      "fzfg": false,
      "metar_trigger": false,
      "taf_trigger": false,
      "metar": "METAR EFTU 011820Z AUTO 26007KT CAVOK 15/09 Q1012",
      "taf": "TAF EFTU 011726Z 0118/0218 26010KT 9999 SCT045"
    },
    {
      "icao": "EGBB",
      "alert": "OK",
      "vis_m": 9999,
      "fzfg": false,
      "metar_trigger": false,
      "taf_trigger": false,
      "metar": "METAR EGBB 011820Z 17007KT 9999 BKN015 17/15 Q1008",
      "taf": "TAF EGBB 011659Z 0118/0218 19007KT 9999 SCT010"
    },
    {
      "icao": "EGGP",
      "alert": "OK",
      "vis_m": 9999,
      "fzfg": false,
      "metar_trigger": false,
      "taf_trigger": false,
      "metar": "METAR EGGP 011820Z 16007KT 110V200 9999 -RA SCT013 BKN029 17/15 Q1005",
      "taf": "TAF EGGP 011658Z 0118/0218 18006KT 9999 SCT025"
    },
    {
      "icao": "EGGW",
      "alert": "OK",
      "vis_m": 9999,
      "fzfg": false,
      "metar_trigger": false,
      "taf_trigger": false,
      "metar": "METAR EGGW 011820Z AUTO 21011KT 170V230 9999 -RA BKN017/// //////TCU 17/13 Q1010",
      "taf": "TAF EGGW 011652Z 0118/0218 21012KT 9999 SCT020"
    },
    {
      "icao": "EGKK",
      "alert": "OK",
      "vis_m": 9000,
      "fzfg": false,
      "metar_trigger": false,
      "taf_trigger": false,
      "metar": "METAR EGKK 011820Z 20008KT 9000 VCSH BKN009 SCT038 16/14 Q1012",
      "taf": ""
    },
    {
      "icao": "EGNM",
      "alert": "OK",
      "vis_m": 9999,
      "fzfg": false,
      "metar_trigger": false,
      "taf_trigger": false,
      "metar": "METAR EGNM 011820Z 20012KT 9999 -SHRA SCT017 SCT025 17/14 Q1006",
      "taf": "TAF EGNM 011657Z 0118/0218 21009KT 9999 SCT025"
    },
    {
      "icao": "EGPD",
      "alert": "OK",
      "vis_m": 9999,
      "fzfg": false,
      "metar_trigger": false,
      "taf_trigger": false,
      "metar": "METAR EGPD 011820Z COR AUTO 17010KT 9999 NCD 17/14 Q1002 NOSIG",
      "taf": "TAF EGPD 011659Z 0118/0218 18010KT 9999 FEW020"
    },
    {
      "icao": "EGPF",
      "alert": "OK",
      "vis_m": 1900,
      "fzfg": false,
      "metar_trigger": false,
      "taf_trigger": false,
      "metar": "METAR EGPF 011820Z AUTO VRB01KT 1900 RADZ SCT005/// BKN008/// OVC016/// //////TCU 16/15 Q1002",
      "taf": ""
    },
    {
      "icao": "EHBK",
      "alert": "OK",
      "vis_m": 9999,
      "fzfg": false,
      "metar_trigger": false,
      "taf_trigger": false,
      "metar": "METAR EHBK 011825Z AUTO 25004KT 220V290 9999 NSC 21/12 Q1013 NOSIG",
      "taf": "TAF EHBK 011720Z 0118/0224 21004KT CAVOK"
    },
    {
      "icao": "EHEH",
      "alert": "OK",
      "vis_m": 9999,
      "fzfg": false,
      "metar_trigger": false,
      "taf_trigger": false,
      "metar": "METAR EHEH 011825Z AUTO 22008KT 170V250 9999 SCT190 OVC270 22/12 Q1013 BLU NOSIG RMK TREND REMOTE BY EHWX",
      "taf": "TAF EHEH 011728Z 0118/0224 23007KT CAVOK"
    },
    {
      "icao": "EKBI",
      "alert": "OK",
      "vis_m": 9999,
      "fzfg": false,
      "metar_trigger": false,
      "taf_trigger": false,
      "metar": "METAR EKBI 011820Z AUTO 22006KT 9999 SCT150/// 16/10 Q1013",
      "taf": "TAF EKBI 011727Z 0118/0218 24008KT 9999 SCT040"
    },
    {
      "icao": "EKCH",
      "alert": "OK",
      "vis_m": 9999,
      "fzfg": false,
      "metar_trigger": false,
      "taf_trigger": false,
      "metar": "METAR EKCH 011820Z AUTO 19005KT 9999 NCD 17/12 Q1013 NOSIG",
      "taf": "TAF EKCH 011727Z 0118/0218 20010KT 9999 FEW040"
    },
    {
      "icao": "ENAL",
      "alert": "OK",
      "vis_m": 9999,
      "fzfg": false,
      "metar_trigger": false,
      "taf_trigger": false,
      "metar": "METAR ENAL 011820Z VRB02KT 9999 -DZRA FEW006 SCT009 BKN012 12/11 Q1008",
      "taf": "TAF ENAL 011700Z 0118/0203 27005KT 9999 -RA SCT003 BKN015"
    },
    {
      "icao": "ENBR",
      "alert": "OK",
      "vis_m": 9999,
      "fzfg": false,
      "metar_trigger": false,
      "taf_trigger": false,
      "metar": "METAR ENBR 011820Z 19007KT 9999 SCT006 BKN010 11/10 Q1009 TEMPO SCT010 RMK WIND 1200FT 19008KT",
      "taf": "TAF ENBR 011700Z 0118/0218 18009KT 9999 SCT003 BKN015"
    },
    {
      "icao": "ENGM",
      "alert": "OK",
      "vis_m": 9999,
      "fzfg": false,
      "metar_trigger": false,
      "taf_trigger": false,
      "metar": "METAR ENGM 011820Z 19009KT 9999 FEW011 BKN013 13/11 Q1009 NOSIG",
      "taf": "TAF ENGM 011700Z 0118/0218 18008KT 9999 SCT008 BKN015"
    },
    {
      "icao": "ENHD",
      "alert": "OK",
      "vis_m": 9999,
      "fzfg": false,
      "metar_trigger": false,
      "taf_trigger": false,
      "metar": "METAR ENHD 011820Z 16007KT 9999 FEW004 BKN005 BKN007 12/11 Q1009",
      "taf": "TAF ENHD 011400Z 0115/0122 20008KT 7000 SCT003 BKN012"
    },
    {
      "icao": "ENTC",
      "alert": "OK",
      "vis_m": 9999,
      "fzfg": false,
      "metar_trigger": false,
      "taf_trigger": false,
      "metar": "METAR ENTC 011820Z 04010KT CAVOK 13/03 Q1010 NOSIG RMK WIND 2600FT 03004KT",
      "taf": "TAF ENTC 011700Z 0118/0218 02010KT 9999 FEW040"
    },
    {
      "icao": "ENTO",
      "alert": "OK",
      "vis_m": 9999,
      "fzfg": false,
      "metar_trigger": false,
      "taf_trigger": false,
      "metar": "METAR ENTO 011820Z 19009KT 9999 SCT009 14/12 Q1009 NOSIG",
      "taf": "TAF ENTO 011700Z 0118/0218 19008KT 9999 SCT010 BKN020"
    },
    {
      "icao": "ENVA",
      "alert": "OK",
      "vis_m": 9999,
      "fzfg": false,
      "metar_trigger": false,
      "taf_trigger": false,
      "metar": "METAR ENVA 011820Z 26018KT 9999 FEW022 SCT050CB 13/12 Q1006 BECMG 26008KT RMK WIND 670FT 27023KT",
      "taf": "TAF ENVA 011700Z 0118/0218 26008KT 9999 FEW045"
    },
    {
      "icao": "ENZV",
      "alert": "OK",
      "vis_m": 9999,
      "fzfg": false,
      "metar_trigger": false,
      "taf_trigger": false,
      "metar": "METAR ENZV 011820Z 16009KT 9999 FEW012 13/10 Q1009 NOSIG",
      "taf": "TAF ENZV 011700Z 0118/0218 22007KT 9999 SCT004 BKN020"
    },
    {
      "icao": "EPGD",
      "alert": "OK",
      "vis_m": 9999,
      "fzfg": false,
      "metar_trigger": false,
      "taf_trigger": false,
      "metar": "METAR EPGD 011830Z 06005KT 040V100 CAVOK 13/11 Q1014",
      "taf": "TAF EPGD 011730Z 0118/0218 05010KT CAVOK"
    },
    {
      "icao": "EPKK",
      "alert": "OK",
      "vis_m": 9999,
      "fzfg": false,
      "metar_trigger": false,
      "taf_trigger": false,
      "metar": "METAR EPKK 011830Z 32003KT 9999 FEW045CB BKN052 17/13 Q1014",
      "taf": "TAF EPKK 011730Z 0118/0218 VRB02KT 9999 SCT045"
    },
    {
      "icao": "EPKT",
      "alert": "OK",
      "vis_m": 9999,
      "fzfg": false,
      "metar_trigger": false,
      "taf_trigger": false,
      "metar": "METAR EPKT 011830Z 14006KT 9999 FEW042 16/13 Q1014",
      "taf": "TAF EPKT 011730Z 0118/0218 32006KT 9999 SCT040"
    },
    {
      "icao": "EPLB",
      "alert": "OK",
      "vis_m": 9999,
      "fzfg": false,
      "metar_trigger": false,
      "taf_trigger": false,
      "metar": "METAR EPLB 011830Z 36006KT CAVOK 15/13 Q1013",
      "taf": "TAF EPLB 011730Z 0118/0218 VRB05KT CAVOK"
    },
    {
      "icao": "EPMO",
      "alert": "OK",
      "vis_m": 9999,
      "fzfg": false,
      "metar_trigger": false,
      "taf_trigger": false,
      "metar": "METAR EPMO 011830Z 35003KT 310V010 9999 FEW010 15/14 Q1013",
      "taf": "TAF EPMO 011730Z 0118/0218 VRB05KT 9999 SCT045"
    },
    {
      "icao": "EPPO",
      "alert": "OK",
      "vis_m": 9999,
      "fzfg": false,
      "metar_trigger": false,
      "taf_trigger": false,
      "metar": "METAR EPPO 011830Z VRB01KT CAVOK 19/13 Q1014",
      "taf": "TAF EPPO 011730Z 0118/0218 02004KT CAVOK"
    },
    {
      "icao": "EPRA",
      "alert": "OK",
      "vis_m": 9999,
      "fzfg": false,
      "metar_trigger": false,
      "taf_trigger": false,
      "metar": "METAR EPRA 011830Z 10002KT CAVOK 17/13 Q1013",
      "taf": "TAF EPRA 011730Z 0118/0203 VRB03KT CAVOK"
    },
    {
      "icao": "EPRZ",
      "alert": "OK",
      "vis_m": 9999,
      "fzfg": false,
      "metar_trigger": false,
      "taf_trigger": false,
      "metar": "METAR EPRZ 011830Z 35008KT 9999 FEW043CB 16/14 Q1013",
      "taf": "TAF EPRZ 011730Z 0118/0218 33007KT 9999 SCT030"
    },
    {
      "icao": "EPSC",
      "alert": "OK",
      "vis_m": 9999,
      "fzfg": false,
      "metar_trigger": false,
      "taf_trigger": false,
      "metar": "METAR EPSC 011830Z 33003KT 300V360 9999 FEW044 18/11 Q1014",
      "taf": "TAF EPSC 011730Z 0118/0218 VRB03KT 9999 SCT040"
    },
    {
      "icao": "EPSY",
      "alert": "OK",
      "vis_m": 9999,
      "fzfg": false,
      "metar_trigger": false,
      "taf_trigger": false,
      "metar": "METAR EPSY 011830Z VRB01KT CAVOK 14/14 Q1014",
      "taf": "TAF EPSY 011730Z 0118/0203 VRB02KT 9999 SCT040"
    },
    {
      "icao": "EPWA",
      "alert": "OK",
      "vis_m": 9999,
      "fzfg": false,
      "metar_trigger": false,
      "taf_trigger": false,
      "metar": "METAR EPWA 011830Z 06004KT CAVOK 15/14 Q1013 NOSIG",
      "taf": "TAF EPWA 011730Z 0118/0218 VRB05KT 9999 SCT045"
    },
    {
      "icao": "EPWR",
      "alert": "OK",
      "vis_m": 9999,
      "fzfg": false,
      "metar_trigger": false,
      "taf_trigger": false,
      "metar": "METAR EPWR 011830Z 29007KT CAVOK 20/10 Q1014",
      "taf": "TAF EPWR 011730Z 0118/0218 33010KT CAVOK"
    },
    {
      "icao": "ESGG",
      "alert": "OK",
      "vis_m": 9999,
      "fzfg": false,
      "metar_trigger": false,
      "taf_trigger": false,
      "metar": "METAR ESGG 011820Z 21009KT 9999 SCT032 15/11 Q1012",
      "taf": "TAF ESGG 011730Z 0118/0218 21010KT 9999 SCT025"
    },
    {
      "icao": "ESKN",
      "alert": "OK",
      "vis_m": 9999,
      "fzfg": false,
      "metar_trigger": false,
      "taf_trigger": false,
      "metar": "METAR ESKN 011820Z 13006KT CAVOK 14/10 Q1011",
      "taf": "TAF ESKN 011730Z 0118/0218 15009KT CAVOK"
    },
    {
      "icao": "ESMS",
      "alert": "OK",
      "vis_m": 9999,
      "fzfg": false,
      "metar_trigger": false,
      "taf_trigger": false,
      "metar": "METAR ESMS 011820Z 23007KT CAVOK 17/11 Q1013",
      "taf": "TAF ESMS 011727Z 0118/0218 23008KT 9999 FEW040"
    },
    {
      "icao": "ESSA",
      "alert": "OK",
      "vis_m": 9999,
      "fzfg": false,
      "metar_trigger": false,
      "taf_trigger": false,
      "metar": "METAR ESSA 011820Z 17010KT CAVOK 15/07 Q1011 NOSIG",
      "taf": "TAF ESSA 011730Z 0118/0218 21010KT CAVOK"
    },
    {
      "icao": "EYKA",
      "alert": "OK",
      "vis_m": 9999,
      "fzfg": false,
      "metar_trigger": false,
      "taf_trigger": false,
      "metar": "METAR EYKA 011820Z 15003KT CAVOK 18/08 Q1013",
      "taf": "TAF EYKA 011700Z 0118/0218 VRB03KT 9000 NSC"
    },
    {
      "icao": "EYPA",
      "alert": "OK",
      "vis_m": 9999,
      "fzfg": false,
      "metar_trigger": false,
      "taf_trigger": false,
      "metar": "METAR EYPA 011820Z VRB02KT CAVOK 15/06 Q1013",
      "taf": "TAF EYPA 011700Z 0118/0218 VRB03KT 9000 NSC"
    },
    {
      "icao": "EYVI",
      "alert": "OK",
      "vis_m": 9999,
      "fzfg": false,
      "metar_trigger": false,
      "taf_trigger": false,
      "metar": "METAR EYVI 011820Z 14002KT CAVOK 17/07 Q1014 NOSIG",
      "taf": "TAF EYVI 011700Z 0118/0218 VRB03KT 9000 NSC"
    },
    {
      "icao": "GCFV",
      "alert": "OK",
      "vis_m": 9999,
      "fzfg": false,
      "metar_trigger": false,
      "taf_trigger": false,
      "metar": "METAR GCFV 011830Z 04016KT 9999 FEW020 22/18 Q1018",
      "taf": "TAF GCFV 011400Z 0115/0215 02016KT 9999 FEW025 TX25/0214Z TN19/0206Z"
    },
    {
      "icao": "GCLP",
      "alert": "OK",
      "vis_m": 9999,
      "fzfg": false,
      "metar_trigger": false,
      "taf_trigger": false,
      "metar": "METAR GCLP 011830Z 01027KT 9999 FEW025 23/16 Q1018 NOSIG",
      "taf": "TAF GCLP 011400Z 0115/0215 01024KT 9999 FEW025 TX25/0214Z TN20/0206Z"
    },
    {
      "icao": "GCTS",
      "alert": "OK",
      "vis_m": 9999,
      "fzfg": false,
      "metar_trigger": false,
      "taf_trigger": false,
      "metar": "METAR GCTS 011830Z 09016KT 9999 FEW025 23/16 Q1019 NOSIG",
      "taf": ""
    },
    {
      "icao": "GMAD",
      "alert": "OK",
      "vis_m": 6000,
      "fzfg": false,
      "metar_trigger": false,
      "taf_trigger": false,
      "metar": "METAR GMAD 011830Z 24009KT 6000 SCT006 BKN016 21/17 Q1015 NOSIG",
      "taf": ""
    },
    {
      "icao": "GMMN",
      "alert": "OK",
      "vis_m": 9999,
      "fzfg": false,
      "metar_trigger": false,
      "taf_trigger": false,
      "metar": "METAR GMMN 011830Z 35009KT 330V030 CAVOK 24/18 Q1017 NOSIG",
      "taf": "TAF GMMN 011700Z 0118/0224 36012KT CAVOK"
    },
    {
      "icao": "GMMX",
      "alert": "OK",
      "vis_m": 9999,
      "fzfg": false,
      "metar_trigger": false,
      "taf_trigger": false,
      "metar": "METAR GMMX 011830Z 36012KT 330V040 9999 FEW033 FEW040CB 34/13 Q1015 NOSIG",
      "taf": "TAF GMMX 011700Z 0118/0224 34006KT 9999 FEW033 FEW040CB"
    },
    {
      "icao": "HEGN",
      "alert": "OK",
      "vis_m": 9999,
      "fzfg": false,
      "metar_trigger": false,
      "taf_trigger": false,
      "metar": "METAR HEGN 011800Z 30013KT CAVOK 33/03 Q1012 NOSIG",
      "taf": "TAF HEGN 011700Z 0118/0224 34010G20KT CAVOK"
    },
    {
      "icao": "HEMA",
      "alert": "OK",
      "vis_m": 9999,
      "fzfg": false,
      "metar_trigger": false,
      "taf_trigger": false,
      "metar": "METAR HEMA 011800Z 32015KT CAVOK 31/10 Q1011 NOSIG",
      "taf": "TAF HEMA 011700Z 0118/0224 33010G20KT CAVOK"
    },
    {
      "icao": "HESH",
      "alert": "OK",
      "vis_m": 9999,
      "fzfg": false,
      "metar_trigger": false,
      "taf_trigger": false,
      "metar": "METAR HESH 011800Z 34009KT CAVOK 33/07 Q1011 NOSIG",
      "taf": "TAF HESH 011700Z 0118/0224 36008G20KT CAVOK"
    },
    {
      "icao": "HESX",
      "alert": "OK",
      "vis_m": 9999,
      "fzfg": false,
      "metar_trigger": false,
      "taf_trigger": false,
      "metar": "METAR HESX 011800Z 03011KT CAVOK 28/15 Q1015 NOSIG",
      "taf": "TAF HESX 011700Z 0118/0224 01010KT CAVOK"
    },
    {
      "icao": "LATI",
      "alert": "OK",
      "vis_m": null,
      "fzfg": false,
      "metar_trigger": false,
      "taf_trigger": false,
      "metar": "",
      "taf": "TAF LATI 011700Z 0118/0218 VRB04KT CAVOK TX30/0212Z TN15/0204Z"
    },
    {
      "icao": "LBPD",
      "alert": "OK",
      "vis_m": 9999,
      "fzfg": false,
      "metar_trigger": false,
      "taf_trigger": false,
      "metar": "METAR LBPD 011830Z AUTO 13009KT 9999 BKN110/// BKN150/// 21/16 Q1013 NOSIG",
      "taf": "TAF LBPD 011700Z 0118/0218 29010KT 9999 SCT060"
    },
    {
      "icao": "LBSF",
      "alert": "OK",
      "vis_m": 9000,
      "fzfg": false,
      "metar_trigger": false,
      "taf_trigger": false,
      "metar": "METAR LBSF 011830Z AUTO VRB04KT 9000 TSRA FEW052/// OVC075/// //////CB 15/14 Q1017 RETSRA TEMPO VRB16G32KT 3000 TSRA SCT033CB",
      "taf": "TAF LBSF 011700Z 0118/0218 10010KT 9999 SCT060"
    },
    {
      "icao": "LBWN",
      "alert": "OK",
      "vis_m": 9999,
      "fzfg": false,
      "metar_trigger": false,
      "taf_trigger": false,
      "metar": "METAR LBWN 011830Z AUTO 12006KT 9999 FEW010/// 18/18 Q1015 NOSIG",
      "taf": "TAF LBWN 011700Z 0118/0218 11012KT 9999 SCT020 BKN045"
    },
    {
      "icao": "LCLK",
      "alert": "OK",
      "vis_m": 9999,
      "fzfg": false,
      "metar_trigger": false,
      "taf_trigger": false,
      "metar": "METAR LCLK 011830Z 32009KT 9999 FEW035 24/16 Q1015 NOSIG",
      "taf": "TAF LCLK 011730Z 0118/0218 32007KT CAVOK"
    },
    {
      "icao": "LCPH",
      "alert": "OK",
      "vis_m": 9999,
      "fzfg": false,
      "metar_trigger": false,
      "taf_trigger": false,
      "metar": "METAR LCPH 011830Z AUTO 35005KT 9999 NCD 21/14 Q1015 NOSIG",
      "taf": "TAF LCPH 011730Z 0118/0218 35008KT CAVOK"
    },
    {
      "icao": "LEAL",
      "alert": "OK",
      "vis_m": 9999,
      "fzfg": false,
      "metar_trigger": false,
      "taf_trigger": false,
      "metar": "METAR LEAL 011830Z 12003KT 080V150 CAVOK 26/18 Q1014 NOSIG",
      "taf": "TAF LEAL 011700Z 0118/0218 12007KT 9999 FEW020 TX31/0212Z TN20/0206Z"
    },
    {
      "icao": "LEBB",
      "alert": "OK",
      "vis_m": 9999,
      "fzfg": false,
      "metar_trigger": false,
      "taf_trigger": false,
      "metar": "METAR LEBB 011830Z 35005KT 320V040 9999 SCT023 21/16 Q1018 NOSIG",
      "taf": ""
    },
    {
      "icao": "LEBL",
      "alert": "OK",
      "vis_m": 9999,
      "fzfg": false,
      "metar_trigger": false,
      "taf_trigger": false,
      "metar": "METAR LEBL 011830Z 21008KT 9999 FEW018 24/21 Q1014 NOSIG",
      "taf": "TAF LEBL 011700Z 0118/0218 20010KT 9999 FEW020 TX26/0212Z TN20/0206Z"
    },
    {
      "icao": "LECH",
      "alert": "OK",
      "vis_m": 9000,
      "fzfg": false,
      "metar_trigger": false,
      "taf_trigger": false,
      "metar": "METAR LECH 011830Z AUTO 10006KT 9000 NCD 22/17 Q1015",
      "taf": "TAF LECH 011700Z 0118/0218 VRB04KT 9999 FEW025 TX30/0213Z TN15/0206Z"
    },
    {
      "icao": "LEMD",
      "alert": "OK",
      "vis_m": 9999,
      "fzfg": false,
      "metar_trigger": false,
      "taf_trigger": false,
      "metar": "METAR LEMD 011830Z 24012KT 220V280 CAVOK 33/09 Q1014 NOSIG",
      "taf": "TAF LEMD 011700Z 0118/0224 24010KT CAVOK TX32/0216Z TN18/0206Z"
    },
    {
      "icao": "LEMG",
      "alert": "OK",
      "vis_m": 9999,
      "fzfg": false,
      "metar_trigger": false,
      "taf_trigger": false,
      "metar": "METAR LEMG 011830Z 11011KT CAVOK 25/13 Q1014 NOSIG",
      "taf": "TAF LEMG 011700Z 0118/0218 13010KT CAVOK TX39/0214Z TN20/0206Z"
    },
    {
      "icao": "LEVC",
      "alert": "OK",
      "vis_m": 9999,
      "fzfg": false,
      "metar_trigger": false,
      "taf_trigger": false,
      "metar": "METAR LEVC 011830Z 08008KT 040V100 CAVOK 24/19 Q1014 NOSIG",
      "taf": "TAF LEVC 011700Z 0118/0218 08008KT 9999 FEW020 TX30/0212Z TN19/0206Z"
    },
    {
      "icao": "LEXJ",
      "alert": "OK",
      "vis_m": 9999,
      "fzfg": false,
      "metar_trigger": false,
      "taf_trigger": false,
      "metar": "METAR LEXJ 011830Z 06003KT 340V120 CAVOK 19/15 Q1017",
      "taf": "TAF LEXJ 011400Z 0115/0215 04008KT 9999 FEW040 TX21/0115Z TN16/0201Z"
    },
    {
      "icao": "LEZG",
      "alert": "OK",
      "vis_m": 9999,
      "fzfg": false,
      "metar_trigger": false,
      "taf_trigger": false,
      "metar": "METAR LEZG 011830Z 30005KT 260V340 CAVOK 31/10 Q1012 NOSIG",
      "taf": "TAF LEZG 011700Z 0118/0218 VRB04KT CAVOK TX28/0214Z TN16/0206Z"
    },
    {
      "icao": "LEZL",
      "alert": "OK",
      "vis_m": 9999,
      "fzfg": false,
      "metar_trigger": false,
      "taf_trigger": false,
      "metar": "METAR LEZL 011830Z 22013KT CAVOK 32/16 Q1013 NOSIG",
      "taf": "TAF LEZL 011400Z 0115/0215 22013KT CAVOK TX40/0115Z TN21/0206Z"
    },
    {
      "icao": "LFBD",
      "alert": "OK",
      "vis_m": 9999,
      "fzfg": false,
      "metar_trigger": false,
      "taf_trigger": false,
      "metar": "METAR LFBD 011830Z AUTO 32010KT 9999 FEW031 BKN170 22/16 Q1016 NOSIG",
      "taf": "TAF LFBD 011700Z 0118/0224 30006KT 9999 SCT035 TX22/0118Z TN17/0206Z"
    },
    {
      "icao": "LFLL",
      "alert": "OK",
      "vis_m": 9999,
      "fzfg": false,
      "metar_trigger": false,
      "taf_trigger": false,
      "metar": "METAR LFLL 011830Z 02006KT CAVOK 24/10 Q1014 NOSIG",
      "taf": "TAF LFLL 011700Z 0118/0224 01008KT CAVOK"
    },
    {
      "icao": "LFLS",
      "alert": "OK",
      "vis_m": 9999,
      "fzfg": false,
      "metar_trigger": false,
      "taf_trigger": false,
      "metar": "METAR LFLS 011830Z AUTO 34005KT CAVOK 21/11 Q1015 NOSIG",
      "taf": "TAF LFLS 011400Z 0115/0215 33010KT CAVOK"
    },
    {
      "icao": "LFMN",
      "alert": "OK",
      "vis_m": 9999,
      "fzfg": false,
      "metar_trigger": false,
      "taf_trigger": false,
      "metar": "METAR LFMN 011830Z 12007KT 9999 FEW015 24/20 Q1012 NOSIG",
      "taf": "TAF LFMN 011400Z 0115/0221 10010KT CAVOK"
    },
    {
      "icao": "LFOB",
      "alert": "OK",
      "vis_m": 9999,
      "fzfg": false,
      "metar_trigger": false,
      "taf_trigger": false,
      "metar": "METAR LFOB 011830Z AUTO 20006KT CAVOK 22/13 Q1013 NOSIG",
      "taf": "TAF LFOB 011700Z 0118/0218 23004KT 9999 SCT040"
    },
    {
      "icao": "LFPO",
      "alert": "OK",
      "vis_m": 9999,
      "fzfg": false,
      "metar_trigger": false,
      "taf_trigger": false,
      "metar": "METAR LFPO 011830Z AUTO 26006KT CAVOK 24/12 Q1013 NOSIG",
      "taf": "TAF LFPO 011700Z 0118/0224 24007KT CAVOK"
    },
    {
      "icao": "LFSB",
      "alert": "OK",
      "vis_m": 9999,
      "fzfg": false,
      "metar_trigger": false,
      "taf_trigger": false,
      "metar": "METAR LFSB 011830Z AUTO 26004KT CAVOK 23/13 Q1014 NOSIG",
      "taf": "TAF LFSB 011700Z 0118/0218 VRB03KT CAVOK"
    },
    {
      "icao": "LGAV",
      "alert": "OK",
      "vis_m": 9999,
      "fzfg": false,
      "metar_trigger": false,
      "taf_trigger": false,
      "metar": "METAR LGAV 011820Z 25007KT 9999 FEW030 23/13 Q1014 NOSIG",
      "taf": "TAF LGAV 011700Z 0118/0218 21010KT 9999 FEW030"
    },
    {
      "icao": "LGTS",
      "alert": "OK",
      "vis_m": 9999,
      "fzfg": false,
      "metar_trigger": false,
      "taf_trigger": false,
      "metar": "METAR LGTS 011820Z 19006KT 9999 FEW020 25/19 Q1012 NOSIG",
      "taf": "TAF LGTS 011700Z 0118/0218 VRB03KT 9999 FEW025"
    },
    {
      "icao": "LHBP",
      "alert": "OK",
      "vis_m": 9999,
      "fzfg": false,
      "metar_trigger": false,
      "taf_trigger": false,
      "metar": "METAR LHBP 011830Z 29009KT 9999 VCSH FEW033TCU BKN046 18/15 Q1012 NOSIG",
      "taf": "TAF LHBP 011715Z 0118/0218 30006KT CAVOK"
    },
    {
      "icao": "LHDC",
      "alert": "OK",
      "vis_m": 9999,
      "fzfg": false,
      "metar_trigger": false,
      "taf_trigger": false,
      "metar": "METAR LHDC 011815Z AUTO 30002KT 9999 -RA FEW007 BKN072 17/16 Q1011 NOSIG",
      "taf": ""
    },
    {
      "icao": "LIBD",
      "alert": "OK",
      "vis_m": 9999,
      "fzfg": false,
      "metar_trigger": false,
      "taf_trigger": false,
      "metar": "METAR LIBD 011820Z 32004KT 290V350 CAVOK 25/16 Q1012",
      "taf": "TAF LIBD 011700Z 0118/0218 08013KT CAVOK"
    },
    {
      "icao": "LIBG",
      "alert": "OK",
      "vis_m": 9999,
      "fzfg": false,
      "metar_trigger": false,
      "taf_trigger": false,
      "metar": "METAR LIBG 011750Z AUTO 20004KT 9999 NCD 25/14 Q1013",
      "taf": "TAF LIBG 011700Z 0118/0218 21012KT CAVOK"
    },
    {
      "icao": "LIBP",
      "alert": "OK",
      "vis_m": 9999,
      "fzfg": false,
      "metar_trigger": false,
      "taf_trigger": false,
      "metar": "METAR LIBP 011820Z AUTO 01005KT 340V050 9999 FEW023/// SCT058/// BKN130/// 22/18 Q1015",
      "taf": "TAF LIBP 011700Z 0118/0218 36010KT 9999 SCT025"
    },
    {
      "icao": "LIBR",
      "alert": "OK",
      "vis_m": 9999,
      "fzfg": false,
      "metar_trigger": false,
      "taf_trigger": false,
      "metar": "METAR LIBR 011820Z 21011KT CAVOK 26/14 Q1012",
      "taf": "TAF LIBR 011700Z 0118/0218 07010KT CAVOK"
    },
    {
      "icao": "LICA",
      "alert": "OK",
      "vis_m": 9999,
      "fzfg": false,
      "metar_trigger": false,
      "taf_trigger": false,
      "metar": "METAR LICA 011820Z AUTO 25006KT 9999 NCD 23/18 Q1015",
      "taf": "TAF LICA 011700Z 0118/0218 26010KT 9999 FEW015"
    },
    {
      "icao": "LICC",
      "alert": "OK",
      "vis_m": 9999,
      "fzfg": false,
      "metar_trigger": false,
      "taf_trigger": false,
      "metar": "METAR LICC 011820Z 14003KT CAVOK 25/15 Q1014",
      "taf": "TAF LICC 011700Z 0118/0218 09010KT CAVOK"
    },
    {
      "icao": "LICJ",
      "alert": "OK",
      "vis_m": 9999,
      "fzfg": false,
      "metar_trigger": false,
      "taf_trigger": false,
      "metar": "METAR LICJ 011820Z AUTO 35002KT 9999 NCD 23/20 Q1015",
      "taf": "TAF LICJ 011700Z 0118/0218 VRB05KT CAVOK"
    },
    {
      "icao": "LIMC",
      "alert": "OK",
      "vis_m": 9999,
      "fzfg": false,
      "metar_trigger": false,
      "taf_trigger": false,
      "metar": "METAR LIMC 011820Z 22003KT 150V280 CAVOK 29/10 Q1011 NOSIG",
      "taf": "TAF LIMC 011700Z 0118/0224 10007KT CAVOK"
    },
    {
      "icao": "LIME",
      "alert": "OK",
      "vis_m": 9999,
      "fzfg": false,
      "metar_trigger": false,
      "taf_trigger": false,
      "metar": "METAR LIME 011820Z 13007KT 9999 FEW070 26/16 Q1012 NOSIG",
      "taf": "TAF LIME 011700Z 0118/0218 12010KT CAVOK"
    },
    {
      "icao": "LIMF",
      "alert": "OK",
      "vis_m": 9999,
      "fzfg": false,
      "metar_trigger": false,
      "taf_trigger": false,
      "metar": "METAR LIMF 011820Z 04005KT 9999 SCT070 27/14 Q1011",
      "taf": "TAF LIMF 011700Z 0118/0218 VRB05KT CAVOK"
    },
    {
      "icao": "LIMJ",
      "alert": "OK",
      "vis_m": 9999,
      "fzfg": false,
      "metar_trigger": false,
      "taf_trigger": false,
      "metar": "METAR LIMJ 011820Z VRB02KT 9999 FEW020 23/21 Q1012",
      "taf": "TAF LIMJ 011700Z 0118/0218 17010KT 9999 SCT020"
    },
    {
      "icao": "LIPE",
      "alert": "OK",
      "vis_m": 9999,
      "fzfg": false,
      "metar_trigger": false,
      "taf_trigger": false,
      "metar": "METAR LIPE 011820Z 09012KT CAVOK 25/18 Q1012",
      "taf": "TAF LIPE 011700Z 0118/0218 10010KT 9999 SCT050"
    },
    {
      "icao": "LIPH",
      "alert": "OK",
      "vis_m": 9999,
      "fzfg": false,
      "metar_trigger": false,
      "taf_trigger": false,
      "metar": "METAR LIPH 011820Z 03007KT 350V070 9999 SCT020 21/18 Q1013",
      "taf": "TAF LIPH 011700Z 0118/0218 04006KT 9999 SCT030"
    },
    {
      "icao": "LIPQ",
      "alert": "OK",
      "vis_m": 9999,
      "fzfg": false,
      "metar_trigger": false,
      "taf_trigger": false,
      "metar": "METAR LIPQ 011820Z AUTO 21004KT 160V230 9999 FEW140/// 23/17 Q1014",
      "taf": "TAF LIPQ 011700Z 0118/0218 VRB05KT 9999 SCT090"
    },
    {
      "icao": "LIPR",
      "alert": "OK",
      "vis_m": 9999,
      "fzfg": false,
      "metar_trigger": false,
      "taf_trigger": false,
      "metar": "METAR LIPR 011820Z 14006KT CAVOK 22/18 Q1013",
      "taf": "TAF LIPR 011700Z 0118/0218 VRB05KT 9999 BKN070"
    },
    {
      "icao": "LIPX",
      "alert": "OK",
      "vis_m": 9999,
      "fzfg": false,
      "metar_trigger": false,
      "taf_trigger": false,
      "metar": "METAR LIPX 011820Z 09013KT 9999 FEW025 BKN045 21/17 Q1013",
      "taf": "TAF LIPX 011700Z 0118/0218 10012KT 9999 SCT030"
    },
    {
      "icao": "LIPY",
      "alert": "OK",
      "vis_m": 9999,
      "fzfg": false,
      "metar_trigger": false,
      "taf_trigger": false,
      "metar": "METAR LIPY 011820Z AUTO 18006KT 9999 FEW085/// OVC130/// 20/18 Q1014",
      "taf": "TAF LIPY 011700Z 0118/0218 VRB05KT 9999 SCT025"
    },
    {
      "icao": "LIPZ",
      "alert": "OK",
      "vis_m": 9999,
      "fzfg": false,
      "metar_trigger": false,
      "taf_trigger": false,
      "metar": "METAR LIPZ 011820Z 13005KT 9999 FEW020 22/19 Q1013 NOSIG",
      "taf": "TAF LIPZ 011700Z 0118/0224 17010KT 9999 FEW030"
    },
    {
      "icao": "LIRF",
      "alert": "OK",
      "vis_m": 9999,
      "fzfg": false,
      "metar_trigger": false,
      "taf_trigger": false,
      "metar": "METAR LIRF 011820Z 16004KT CAVOK 24/18 Q1014 NOSIG",
      "taf": "TAF LIRF 011700Z 0118/0224 17010KT CAVOK"
    },
    {
      "icao": "LIRN",
      "alert": "OK",
      "vis_m": 9999,
      "fzfg": false,
      "metar_trigger": false,
      "taf_trigger": false,
      "metar": "METAR LIRN 011820Z 18006KT 140V230 9999 FEW030 23/20 Q1015 NOSIG",
      "taf": "TAF LIRN 011700Z 0118/0218 21010KT 9999 FEW040"
    },
    {
      "icao": "LIRP",
      "alert": "OK",
      "vis_m": 9999,
      "fzfg": false,
      "metar_trigger": false,
      "taf_trigger": false,
      "metar": "METAR LIRP 011815Z 29004KT CAVOK 23/19 Q1012 NOSIG",
      "taf": "TAF LIRP 011700Z 0118/0218 29009KT 9999 SCT030"
    },
    {
      "icao": "LIRZ",
      "alert": "OK",
      "vis_m": 9999,
      "fzfg": false,
      "metar_trigger": false,
      "taf_trigger": false,
      "metar": "METAR LIRZ 011820Z AUTO 35008KT 9999 -TSRA OVC029/// 20/19 Q1015",
      "taf": "TAF LIRZ 011700Z 0118/0218 22010KT 9999 FEW040"
    },
    {
      "icao": "LJLJ",
      "alert": "OK",
      "vis_m": 9999,
      "fzfg": false,
      "metar_trigger": false,
      "taf_trigger": false,
      "metar": "METAR LJLJ 011830Z 10002KT 9999 FEW020 BKN080 18/16 Q1016 NOSIG",
      "taf": "TAF LJLJ 011700Z 0118/0218 12005KT 9999 FEW020 SCT040"
    },
    {
      "icao": "LKMT",
      "alert": "OK",
      "vis_m": 9999,
      "fzfg": false,
      "metar_trigger": false,
      "taf_trigger": false,
      "metar": "METAR LKMT 011830Z VRB02KT CAVOK 17/12 Q1014 NOSIG",
      "taf": "TAF LKMT 011700Z 0118/0218 22004KT CAVOK"
    },
    {
      "icao": "LKPR",
      "alert": "OK",
      "vis_m": 9999,
      "fzfg": false,
      "metar_trigger": false,
      "taf_trigger": false,
      "metar": "METAR LKPR 011830Z 34006KT CAVOK 18/10 Q1015 NOSIG",
      "taf": "TAF LKPR 011700Z 0118/0224 30006KT CAVOK"
    },
    {
      "icao": "LLBG",
      "alert": "OK",
      "vis_m": 9999,
      "fzfg": false,
      "metar_trigger": false,
      "taf_trigger": false,
      "metar": "METAR LLBG 011820Z 35006KT CAVOK 22/16 Q1015 NOSIG",
      "taf": "TAF LLBG 011705Z 0118/0218 34006KT CAVOK TX30/0211Z TN18/0203Z"
    },
    {
      "icao": "LMML",
      "alert": "OK",
      "vis_m": 9999,
      "fzfg": false,
      "metar_trigger": false,
      "taf_trigger": false,
      "metar": "METAR LMML 011845Z 24007KT 9999 FEW015 22/19 Q1016 NOSIG",
      "taf": "TAF LMML 011700Z 0118/0218 27007KT 9999 FEW020"
    },
    {
      "icao": "LOWW",
      "alert": "OK",
      "vis_m": 9999,
      "fzfg": false,
      "metar_trigger": false,
      "taf_trigger": false,
      "metar": "METAR LOWW 011820Z 32009KT CAVOK 18/12 Q1015 NOSIG",
      "taf": "TAF LOWW 011715Z 0118/0224 32010KT CAVOK TX26/0214Z TN13/0203Z"
    },
    {
      "icao": "LPFR",
      "alert": "OK",
      "vis_m": 9999,
      "fzfg": false,
      "metar_trigger": false,
      "taf_trigger": false,
      "metar": "METAR LPFR 011830Z 32015KT CAVOK 31/16 Q1014",
      "taf": "TAF LPFR 011700Z 0118/0218 26015KT CAVOK"
    },
    {
      "icao": "LPMA",
      "alert": "OK",
      "vis_m": 9999,
      "fzfg": false,
      "metar_trigger": false,
      "taf_trigger": false,
      "metar": "METAR LPMA 011830Z 02019KT 330V050 9999 FEW012 21/16 Q1023",
      "taf": "TAF LPMA 011700Z 0118/0218 01018KT 9999 FEW015"
    },
    {
      "icao": "LPPR",
      "alert": "OK",
      "vis_m": 9999,
      "fzfg": false,
      "metar_trigger": false,
      "taf_trigger": false,
      "metar": "METAR LPPR 011830Z 32010KT 9999 BKN009 BKN012 18/15 Q1020",
      "taf": "TAF LPPR 011700Z 0118/0218 32012KT 9999 SCT008"
    },
    {
      "icao": "LPPS",
      "alert": "OK",
      "vis_m": 9999,
      "fzfg": false,
      "metar_trigger": false,
      "taf_trigger": false,
      "metar": "METAR LPPS 011830Z 02015KT 9999 SCT010 SCT025 19/17 Q1023",
      "taf": "TAF LPPS 011700Z 0118/0224 02017KT 9999 SCT012 SCT025"
    },
    {
      "icao": "LPPT",
      "alert": "OK",
      "vis_m": 9999,
      "fzfg": false,
      "metar_trigger": false,
      "taf_trigger": false,
      "metar": "METAR LPPT 011830Z 32016KT 290V350 9999 FEW015 20/15 Q1019",
      "taf": "TAF LPPT 011700Z 0118/0224 33015KT 9999 FEW015"
    },
    {
      "icao": "LQBK",
      "alert": "OK",
      "vis_m": 9999,
      "fzfg": false,
      "metar_trigger": false,
      "taf_trigger": false,
      "metar": "METAR LQBK 011830Z 26004KT 9999 VCSH FEW035TCU SCT045 17/14 Q1016 TEMPO 33012KT 5000 SHRA",
      "taf": "TAF LQBK 011700Z 0118/0218 16005KT 9999 SCT045 TX25/0214Z TN12/0204Z"
    },
    {
      "icao": "LQSA",
      "alert": "OK",
      "vis_m": 9999,
      "fzfg": false,
      "metar_trigger": false,
      "taf_trigger": false,
      "metar": "METAR LQSA 011830Z VRB01KT 9999 FEW016 SCT050 17/15 Q1016 NOSIG",
      "taf": "TAF LQSA 011700Z 0118/0218 VRB02KT 9999 SCT050 TX26/0213Z TN14/0203Z"
    },
    {
      "icao": "LQTZ",
      "alert": "OK",
      "vis_m": 9999,
      "fzfg": false,
      "metar_trigger": false,
      "taf_trigger": false,
      "metar": "METAR LQTZ 011830Z VRB01KT 9999 BKN020 16/15 Q1016",
      "taf": "TAF LQTZ 011700Z 0118/0218 27005KT 9999 SCT050 TX25/0214Z TN11/0203Z"
    },
    {
      "icao": "LRBC",
      "alert": "OK",
      "vis_m": 9999,
      "fzfg": false,
      "metar_trigger": false,
      "taf_trigger": false,
      "metar": "METAR LRBC 011830Z 14009KT 9999 SCT040 19/14 Q1015",
      "taf": "TAF LRBC 011700Z 0118/0203 16008KT 9999 SCT050"
    },
    {
      "icao": "LRBS",
      "alert": "OK",
      "vis_m": 9999,
      "fzfg": false,
      "metar_trigger": false,
      "taf_trigger": false,
      "metar": "METAR LRBS 011830Z 07007KT CAVOK 20/16 Q1013 NOSIG",
      "taf": "TAF LRBS 011700Z 0118/0218 09006KT 9999 SCT045"
    },
    {
      "icao": "LRBV",
      "alert": "OK",
      "vis_m": 9999,
      "fzfg": false,
      "metar_trigger": false,
      "taf_trigger": false,
      "metar": "METAR LRBV 011830Z VRB02KT 9999 -RA SCT051 BKN067 16/13 Q1014",
      "taf": "TAF LRBV 011700Z 0118/0203 VRB04KT 9999 SCT060"
    },
    {
      "icao": "LRCL",
      "alert": "OK",
      "vis_m": 9999,
      "fzfg": false,
      "metar_trigger": false,
      "taf_trigger": false,
      "metar": "METAR LRCL 011830Z 03001KT 9999 -RA FEW030 OVC071 16/15 Q1013",
      "taf": "TAF LRCL 011700Z 0118/0203 VRB04KT 9999 SCT035 BKN055"
    },
    {
      "icao": "LRCV",
      "alert": "OK",
      "vis_m": 9999,
      "fzfg": false,
      "metar_trigger": false,
      "taf_trigger": false,
      "metar": "METAR LRCV 011830Z 22008KT 9999 -SHRA SCT025 SCT040CB 20/17 Q1013",
      "taf": "TAF LRCV 011700Z 0118/0203 12006KT 9999 SCT045"
    },
    {
      "icao": "LRIA",
      "alert": "OK",
      "vis_m": 9999,
      "fzfg": false,
      "metar_trigger": false,
      "taf_trigger": false,
      "metar": "METAR LRIA 011830Z 13006KT CAVOK 18/11 Q1015",
      "taf": "TAF LRIA 011700Z 0118/0203 13008KT CAVOK"
    },
    {
      "icao": "LROP",
      "alert": "OK",
      "vis_m": 9999,
      "fzfg": false,
      "metar_trigger": false,
      "taf_trigger": false,
      "metar": "METAR LROP 011830Z 09007KT CAVOK 20/16 Q1013 NOSIG",
      "taf": "TAF LROP 011700Z 0118/0218 09006KT 9999 SCT045"
    },
    {
      "icao": "LRSB",
      "alert": "OK",
      "vis_m": 7000,
      "fzfg": false,
      "metar_trigger": false,
      "taf_trigger": false,
      "metar": "METAR LRSB 011830Z VRB02KT 7000 SHRA FEW020 SCT040CB BKN053 17/16 Q1013",
      "taf": "TAF LRSB 011700Z 0118/0218 VRB04KT 9999 SCT045"
    },
    {
      "icao": "LRSM",
      "alert": "OK",
      "vis_m": 9000,
      "fzfg": false,
      "metar_trigger": false,
      "taf_trigger": false,
      "metar": "METAR LRSM 011830Z AUTO 10004KT 9000 DZ FEW028/// BKN050/// OVC075/// 17/16 Q1012",
      "taf": "TAF LRSM 011400Z 0115/0124 08008KT 9999 SCT040"
    },
    {
      "icao": "LRSV",
      "alert": "OK",
      "vis_m": 9999,
      "fzfg": false,
      "metar_trigger": false,
      "taf_trigger": false,
      "metar": "METAR LRSV 011830Z 09005KT 9999 BKN041 17/11 Q1014",
      "taf": "TAF LRSV 011700Z 0118/0203 10008KT 9999 BKN040"
    },
    {
      "icao": "LRTM",
      "alert": "OK",
      "vis_m": 9999,
      "fzfg": false,
      "metar_trigger": false,
      "taf_trigger": false,
      "metar": "METAR LRTM 011830Z 07005KT 9999 -RA FEW022 SCT029 BKN035 17/16 Q1013",
      "taf": "TAF LRTM 011700Z 0118/0203 12006KT 9999 SCT030 BKN045"
    },
    {
      "icao": "LRTR",
      "alert": "OK",
      "vis_m": 9999,
      "fzfg": false,
      "metar_trigger": false,
      "taf_trigger": false,
      "metar": "METAR LRTR 011830Z 25005KT 9999 SCT017 BKN048 18/18 Q1013",
      "taf": "TAF LRTR 011700Z 0118/0218 21008KT 9999 BKN040"
    },
    {
      "icao": "LTAC",
      "alert": "OK",
      "vis_m": 9999,
      "fzfg": false,
      "metar_trigger": false,
      "taf_trigger": false,
      "metar": "METAR LTAC 011820Z 05004KT 020V080 9999 SCT040 16/10 Q1018 NOSIG RMK RWY21C VRB02KT RWY03L 05003KT RWY21R VRB02KT RWY03R 02002KT RWY21L VRB02KT",
      "taf": "TAF LTAC 011640Z 0118/0218 VRB02KT 9999 SCT040"
    },
    {
      "icao": "LTFM",
      "alert": "OK",
      "vis_m": 9999,
      "fzfg": false,
      "metar_trigger": false,
      "taf_trigger": false,
      "metar": "METAR LTFM 011820Z 08008KT CAVOK 21/13 Q1015 NOSIG RMK RWY17L 10006KT RWY34L 08008KT RWY16R 11008KT RWY36 VRB04KT RWY18 09007KT",
      "taf": "TAF LTFM 011640Z 0118/0224 08012KT CAVOK"
    },
    {
      "icao": "LUKK",
      "alert": "OK",
      "vis_m": 9999,
      "fzfg": false,
      "metar_trigger": false,
      "taf_trigger": false,
      "metar": "METAR LUKK 011830Z 18005KT CAVOK 15/12 Q1016 NOSIG",
      "taf": "TAF LUKK 011712Z 0118/0218 13008KT CAVOK"
    },
    {
      "icao": "LWOH",
      "alert": "OK",
      "vis_m": null,
      "fzfg": false,
      "metar_trigger": false,
      "taf_trigger": false,
      "metar": "",
      "taf": "TAF LWOH 011710Z 0118/0218 VRB02KT 9999 FEW040"
    },
    {
      "icao": "LWSK",
      "alert": "OK",
      "vis_m": null,
      "fzfg": false,
      "metar_trigger": false,
      "taf_trigger": false,
      "metar": "",
      "taf": "TAF LWSK 011710Z 0118/0218 VRB02KT 9999 FEW050"
    },
    {
      "icao": "LYBE",
      "alert": "OK",
      "vis_m": 9999,
      "fzfg": false,
      "metar_trigger": false,
      "taf_trigger": false,
      "metar": "METAR LYBE 011830Z 27010KT 9999 FEW043 18/15 Q1014 NOSIG",
      "taf": "TAF LYBE 011700Z 0118/0218 26006KT 9999 SCT040 TX26/0213Z TN14/0204Z"
    },
    {
      "icao": "LYNI",
      "alert": "OK",
      "vis_m": 9999,
      "fzfg": false,
      "metar_trigger": false,
      "taf_trigger": false,
      "metar": "METAR LYNI 011830Z 25003KT 9999 FEW010 SCT060 BKN090 16/16 Q1015 NOSIG",
      "taf": "TAF LYNI 011700Z 0118/0218 24004KT 9999 SCT050 TX25/0213Z TN14/0204Z"
    },
    {
      "icao": "LYPG",
      "alert": "OK",
      "vis_m": 9999,
      "fzfg": false,
      "metar_trigger": false,
      "taf_trigger": false,
      "metar": "METAR LYPG 011830Z 11004KT CAVOK 24/10 Q1013 NOSIG",
      "taf": "TAF LYPG 011700Z 0118/0218 36007KT 9999 SCT050 BKN080 TX27/0214Z TN18/0203Z"
    },
    {
      "icao": "LZIB",
      "alert": "OK",
      "vis_m": 9999,
      "fzfg": false,
      "metar_trigger": false,
      "taf_trigger": false,
      "metar": "METAR LZIB 011830Z 30015KT 270V330 9999 -RA FEW024 18/13 Q1013 NOSIG",
      "taf": "TAF LZIB 011715Z 0118/0218 31008KT 9999 FEW030"
    },
    {
      "icao": "LZKZ",
      "alert": "OK",
      "vis_m": 9999,
      "fzfg": false,
      "metar_trigger": false,
      "taf_trigger": false,
      "metar": "METAR LZKZ 011830Z 03006KT 9999 BKN017 BKN025 15/14 Q1013 NOSIG",
      "taf": "TAF LZKZ 011715Z 0118/0218 02009KT 9999 SCT030"
    },
    {
      "icao": "LZTT",
      "alert": "OK",
      "vis_m": 9999,
      "fzfg": false,
      "metar_trigger": false,
      "taf_trigger": false,
      "metar": "METAR LZTT 011830Z VRB02KT 9999 SCT006 BKN030 13/12 Q1014",
      "taf": "TAF LZTT 011715Z 0118/0218 08006KT 9999 FEW040"
    },
    {
      "icao": "OEJN",
      "alert": "OK",
      "vis_m": 9999,
      "fzfg": false,
      "metar_trigger": false,
      "taf_trigger": false,
      "metar": "METAR OEJN 011800Z 35009KT CAVOK 30/19 Q1009 NOSIG",
      "taf": "TAF OEJN 011700Z 0118/0224 03005KT CAVOK"
    },
    {
      "icao": "OEMA",
      "alert": "OK",
      "vis_m": 9999,
      "fzfg": false,
      "metar_trigger": false,
      "taf_trigger": false,
      "metar": "METAR OEMA 011800Z 27006KT CAVOK 38/01 Q1013 NOSIG",
      "taf": "TAF OEMA 011700Z 0118/0224 VRB03KT CAVOK"
    },
    {
      "icao": "OJAI",
      "alert": "OK",
      "vis_m": 5000,
      "fzfg": false,
      "metar_trigger": false,
      "taf_trigger": false,
      "metar": "METAR OJAI 011800Z 28013KT 5000 HZ NSC 22/10 Q1018 NOSIG",
      "taf": "TAF OJAI 011700Z 0118/0224 29010KT 5000 HZ NSC"
    },
    {
      "icao": "OMAA",
      "alert": "OK",
      "vis_m": 9999,
      "fzfg": false,
      "metar_trigger": false,
      "taf_trigger": false,
      "metar": "METAR OMAA 011830Z 22007KT CAVOK 32/22 Q1005 NOSIG",
      "taf": "TAF OMAA 011700Z 0118/0300 22007KT 8000 NSC"
    },
    {
      "icao": "OMDB",
      "alert": "OK",
      "vis_m": 9999,
      "fzfg": false,
      "metar_trigger": false,
      "taf_trigger": false,
      "metar": "METAR OMDB 011830Z 23004KT 160V270 CAVOK 33/23 Q1005 NOSIG",
      "taf": "TAF OMDB 011700Z 0118/0300 19008KT CAVOK"
    },
    {
      "icao": "UAAA",
      "alert": "OK",
      "vis_m": 9999,
      "fzfg": false,
      "metar_trigger": false,
      "taf_trigger": false,
      "metar": "METAR UAAA 011830Z 19004MPS 9999 SCT050CB BKN100 27/10 Q1012 NOSIG",
      "taf": "TAF UAAA 011704Z 0118/0218 20003G08MPS 9999 BKN050CB OVC100 TX30/0210Z TN20/0201Z"
    },
    {
      "icao": "UBBB",
      "alert": "OK",
      "vis_m": 9999,
      "fzfg": false,
      "metar_trigger": false,
      "taf_trigger": false,
      "metar": "METAR UBBB 011830Z 21012KT CAVOK 20/14 Q1010 NOSIG",
      "taf": "TAF UBBB 011702Z 0118/0218 18012KT CAVOK TX20/0210Z TN15/0201Z"
    },
    {
      "icao": "UDSG",
      "alert": "OK",
      "vis_m": 9999,
      "fzfg": false,
      "metar_trigger": false,
      "taf_trigger": false,
      "metar": "METAR UDSG 011830Z 34003KT 9999 SCT043CB 11/08 Q1020 NOSIG",
      "taf": "TAF UDSG 011700Z 0118/0218 24006KT 9999 SCT040"
    },
    {
      "icao": "UDYZ",
      "alert": "OK",
      "vis_m": 9999,
      "fzfg": false,
      "metar_trigger": false,
      "taf_trigger": false,
      "metar": "METAR UDYZ 011830Z 02004KT 9999 VCTS FEW043CB 16/07 Q1015 NOSIG",
      "taf": "TAF UDYZ 011700Z 0118/0218 04006KT 9999 SCT040"
    },
    {
      "icao": "UGKO",
      "alert": "OK",
      "vis_m": 9999,
      "fzfg": false,
      "metar_trigger": false,
      "taf_trigger": false,
      "metar": "METAR UGKO 011830Z 09005KT 060V120 9999 BKN064 16/12 Q1016 NOSIG",
      "taf": "TAF UGKO 011700Z 0118/0218 26007KT 9999 BKN060 TX22/0212Z TN13/0202Z"
    }
  ]
}