{
  "ts_utc": "2026-01-02T11:53:07Z",
  "threshold_m": 150,
  "source": "stations_override.txt (ICAO list) + aviationweather.gov (METAR/TAF raw)",
  "station_count": 159,
  "stations": [
    {
      "icao": "BIKF",
      "alert": "OK",
      "vis_m": 9999,
      "fzfg": false,
      "metar_trigger": false,
      "taf_trigger": false,
      "metar": "METAR BIKF 021130Z 06005KT CAVOK M01/M06 Q1025",
      "taf": "TAF BIKF 021030Z 0212/0312 11006KT CAVOK TXM02/0212Z TNM08/0308Z"
    },
    {
      "icao": "BKPR",
      "alert": "OK",
      "vis_m": 9999,
      "fzfg": false,
      "metar_trigger": false,
      "taf_trigger": false,
      "metar": "METAR BKPR 021130Z 17008KT 9999 FEW030 BKN045 03/M05 Q1011 NOSIG",
      "taf": "TAF BKPR 021130Z 0212/0312 18008KT 9999 BKN040"
    },
    {
      "icao": "EBCI",
      "alert": "OK",
      "vis_m": 9999,
      "fzfg": false,
      "metar_trigger": false,
      "taf_trigger": false,
      "metar": "METAR EBCI 021120Z 25012KT 9999 FEW004 BKN006 01/01 Q1003 TEMPO 2000 SHSN BKN004",
      "taf": "TAF EBCI 021120Z 0212/0318 27009KT 9999 SCT008 SCT015TCU"
    },
    {
      "icao": "EDDB",
      "alert": "OK",
      "vis_m": 3700,
      "fzfg": false,
      "metar_trigger": false,
      "taf_trigger": false,
      "metar": "METAR EDDB 021120Z AUTO 25014KT 3700 SN BR FEW005 BKN012 BKN018 01/00 Q0989 TEMPO 25020G30KT 6000 NSW BKN008",
      "taf": "TAF EDDB 021100Z 0212/0312 24020G30KT 1500 SN BKN008"
    },
    {
      "icao": "EDDH",
      "alert": "OK",
      "vis_m": 9999,
      "fzfg": false,
      "metar_trigger": false,
      "taf_trigger": false,
      "metar": "METAR EDDH 021120Z AUTO 24012KT 210V290 9999 -SHSN FEW006 BKN024 OVC030 FEW///TCU 01/00 Q0986 RESHSN TEMPO 24015G25KT 2000 +TSSN BKN005CB",
      "taf": "TAF EDDH 021100Z 0212/0318 23012KT 9999 SCT005 BKN020"
    },
    {
      "icao": "EDDK",
      "alert": "OK",
      "vis_m": 9999,
      "fzfg": false,
      "metar_trigger": false,
      "taf_trigger": false,
      "metar": "METAR EDDK 021120Z AUTO 27017KT 230V290 9999 SCT028 SCT032 03/M02 Q1000 NOSIG",
      "taf": "TAF EDDK 021100Z 0212/0318 26015G25KT 9999 BKN025"
    },
    {
      "icao": "EDDN",
      "alert": "OK",
      "vis_m": 9999,
      "fzfg": false,
      "metar_trigger": false,
      "taf_trigger": false,
      "metar": "METAR EDDN 021120Z AUTO 26015KT 9999 SCT027 BKN033 01/M03 Q1000 TEMPO 26015G25KT",
      "taf": "TAF EDDN 021100Z 0212/0312 24015G25KT 9999 FEW020"
    },
    {
      "icao": "EDDS",
      "alert": "OK",
      "vis_m": 9999,
      "fzfg": false,
      "metar_trigger": false,
      "taf_trigger": false,
      "metar": "METAR EDDS 021120Z AUTO 25012KT 210V290 9999 FEW027 02/M03 Q1002 NOSIG",
      "taf": "TAF EDDS 021100Z 0212/0312 23010KT 9999 BKN025"
    },
    {
      "icao": "EDFH",
      "alert": "OK",
      "vis_m": 6000,
      "fzfg": false,
      "metar_trigger": false,
      "taf_trigger": false,
      "metar": "METAR EDFH 021120Z 26016G26KT 6000 -SHSN FEW001 BKN005CB OVC010 M01/M02 Q0999",
      "taf": "TAF EDFH 021100Z 0212/0312 26015G25KT 9999 BKN020"
    },
    {
      "icao": "EDJA",
      "alert": "OK",
      "vis_m": 9999,
      "fzfg": false,
      "metar_trigger": false,
      "taf_trigger": false,
      "metar": "METAR EDJA 021120Z 25016G31KT 9999 FEW031 00/M04 Q1003",
      "taf": "TAF EDJA 020800Z 0209/0218 24020G30KT 9999 SCT013 BKN045"
    },
    {
      "icao": "EDLW",
      "alert": "OK",
      "vis_m": 9999,
      "fzfg": false,
      "metar_trigger": false,
      "taf_trigger": false,
      "metar": "METAR EDLW 021120Z COR 24015KT 9999 FEW009 SCT013 OVC015 01/M01 Q0997",
      "taf": "TAF EDLW 021100Z 0212/0312 24015G25KT 9999 SCT012 BKN015"
    },
    {
      "icao": "EDNY",
      "alert": "OK",
      "vis_m": 9999,
      "fzfg": false,
      "metar_trigger": false,
      "taf_trigger": false,
      "metar": "METAR EDNY 021120Z 25014KT 230V290 9999 BKN036 OVC047 02/M04 Q1006",
      "taf": "TAF EDNY 020852Z 0209/0218 25010KT 9999 BKN025"
    },
    {
      "icao": "EDSB",
      "alert": "OK",
      "vis_m": 9999,
      "fzfg": false,
      "metar_trigger": false,
      "taf_trigger": false,
      "metar": "METAR EDSB 021120Z 20014KT 9999 BKN024 02/M01 Q1005",
      "taf": "TAF EDSB 021100Z 0212/0312 20012KT 9999 BKN015"
    },
    {
      "icao": "EETN",
      "alert": "OK",
      "vis_m": 4700,
      "fzfg": false,
      "metar_trigger": false,
      "taf_trigger": false,
      "metar": "METAR EETN 021150Z 11013KT 4700 SN DRSN SCT022 OVC033 M06/M08 Q0983 TEMPO 3000",
      "taf": "TAF EETN 021130Z 0212/0312 11014KT 8000 DRSN SCT015 BKN020 OVC035"
    },
    {
      "icao": "EFTU",
      "alert": "OK",
      "vis_m": 2900,
      "fzfg": false,
      "metar_trigger": false,
      "taf_trigger": false,
      "metar": "METAR EFTU 021150Z AUTO 07011KT 2900 -SN OVC014 M08/M10 Q0983",
      "taf": "TAF EFTU 021128Z 0212/0312 08014KT 2500 -SN OVC015"
    },
    {
      "icao": "EGBB",
      "alert": "OK",
      "vis_m": 9999,
      "fzfg": false,
      "metar_trigger": false,
      "taf_trigger": false,
      "metar": "METAR EGBB 021120Z 31011KT 9999 FEW030 02/M03 Q1007",
      "taf": "TAF EGBB 021056Z 0212/0312 31009KT CAVOK"
    },
    {
      "icao": "EGGP",
      "alert": "OK",
      "vis_m": 9999,
      "fzfg": false,
      "metar_trigger": false,
      "taf_trigger": false,
      "metar": "METAR EGGP 021120Z 32011G21KT 300V360 9999 SCT044 04/M05 Q1008",
      "taf": "TAF EGGP 021055Z 0212/0312 33009KT 9999 SCT030"
    },
    {
      "icao": "EGGW",
      "alert": "OK",
      "vis_m": 9999,
      "fzfg": false,
      "metar_trigger": false,
      "taf_trigger": false,
      "metar": "METAR EGGW 021120Z AUTO 32013KT 9999 NCD 01/M03 Q1005",
      "taf": "TAF EGGW 021056Z 0212/0312 30012KT 9999 FEW030"
    },
    {
      "icao": "EGKK",
      "alert": "OK",
      "vis_m": 9999,
      "fzfg": false,
      "metar_trigger": false,
      "taf_trigger": false,
      "metar": "METAR EGKK 021120Z 31011KT 9999 FEW020 03/M00 Q1006",
      "taf": "TAF EGKK 021053Z 0212/0318 30009KT 9999 FEW025"
    },
    {
      "icao": "EGNM",
      "alert": "OK",
      "vis_m": 9999,
      "fzfg": false,
      "metar_trigger": false,
      "taf_trigger": false,
      "metar": "METAR EGNM 021120Z 29018KT CAVOK 00/M06 Q1004",
      "taf": "TAF EGNM 021055Z 0212/0312 30009KT 9999 FEW030"
    },
    {
      "icao": "EGPD",
      "alert": "OK",
      "vis_m": 9999,
      "fzfg": false,
      "metar_trigger": false,
      "taf_trigger": false,
      "metar": "METAR EGPD 021120Z AUTO 30010KT 9999 BKN018 BKN025 01/M00 Q1005 TEMPO 1800 SHSN",
      "taf": "TAF EGPD 021055Z 0212/0312 31012KT 9999 SCT012"
    },
    {
      "icao": "EGPF",
      "alert": "OK",
      "vis_m": 9999,
      "fzfg": false,
      "metar_trigger": false,
      "taf_trigger": false,
      "metar": "METAR EGPF 021120Z AUTO 31008KT 270V340 9999 FEW037 SCT045 03/M02 Q1008",
      "taf": "TAF EGPF 021102Z 0212/0312 29009KT 9999 FEW035"
    },
    {
      "icao": "EHBK",
      "alert": "OK",
      "vis_m": 9999,
      "fzfg": false,
      "metar_trigger": false,
      "taf_trigger": false,
      "metar": "METAR EHBK 021125Z AUTO 24012KT 190V280 9999 FEW020 03/M01 Q1001 NOSIG",
      "taf": "TAF EHBK 021121Z 0212/0318 25012KT 9999 SCT022"
    },
    {
      "icao": "EHEH",
      "alert": "OK",
      "vis_m": 9999,
      "fzfg": false,
      "metar_trigger": false,
      "taf_trigger": false,
      "metar": "METAR EHEH 021125Z AUTO 26012KT 210V300 9999 FEW017CB BKN080 BKN090 03/M01 Q0999 BLU TEMPO 2000 SHSNRA SCT005 BKN008 SCT015CB",
      "taf": "TAF EHEH 021111Z 0212/0318 27010G20KT 9999 SCT035 BKN040"
    },
    {
      "icao": "EKBI",
      "alert": "OK",
      "vis_m": 9999,
      "fzfg": false,
      "metar_trigger": false,
      "taf_trigger": false,
      "metar": "METAR EKBI 021120Z AUTO 26007KT 9999 FEW058/// BKN073/// M00/M02 Q0983",
      "taf": "TAF EKBI 021127Z 0212/0312 29004KT 9999 SCT030"
    },
    {
      "icao": "EKCH",
      "alert": "OK",
      "vis_m": 9999,
      "fzfg": false,
      "metar_trigger": false,
      "taf_trigger": false,
      "metar": "METAR EKCH 021119Z 27015KT 9999 BKN035 02/M04 Q0981 NOSIG",
      "taf": "TAF EKCH 021127Z 0212/0312 28014KT 9999 BKN035"
    },
    {
      "icao": "ENAL",
      "alert": "OK",
      "vis_m": 9999,
      "fzfg": false,
      "metar_trigger": false,
      "taf_trigger": false,
      "metar": "METAR ENAL 021120Z 04015KT 9999 VCSH FEW009 SCT027CB M02/M06 Q0994",
      "taf": "TAF ENAL 021100Z 0212/0221 04015KT 9999 FEW010 SCT030"
    },
    {
      "icao": "ENBR",
      "alert": "OK",
      "vis_m": 9999,
      "fzfg": false,
      "metar_trigger": false,
      "taf_trigger": false,
      "metar": "METAR ENBR 021120Z 35011KT CAVOK M01/M10 Q0993 NOSIG RMK WIND 1200FT 36015KT",
      "taf": "TAF ENBR 021100Z 0212/0312 35012KT CAVOK"
    },
    {
      "icao": "ENGM",
      "alert": "OK",
      "vis_m": 9999,
      "fzfg": false,
      "metar_trigger": false,
      "taf_trigger": false,
      "metar": "METAR ENGM 021120Z 36015KT 9999 SCT026 M07/M11 Q0988 NOSIG",
      "taf": "TAF ENGM 021100Z 0212/0312 01015KT 9999 SCT035"
    },
    {
      "icao": "ENHD",
      "alert": "OK",
      "vis_m": 9999,
      "fzfg": false,
      "metar_trigger": false,
      "taf_trigger": false,
      "metar": "METAR ENHD 021120Z 01017KT CAVOK 00/M13 Q0991",
      "taf": "TAF ENHD 021100Z 0212/0221 01025KT CAVOK"
    },
    {
      "icao": "ENTC",
      "alert": "OK",
      "vis_m": 3000,
      "fzfg": false,
      "metar_trigger": false,
      "taf_trigger": false,
      "metar": "METAR ENTC 021120Z 19014KT 3000 -SN VV015 M08/M09 Q0999 TEMPO 5000 -SHSN BKN020CB RMK WIND 2600FT 33018KT",
      "taf": "TAF ENTC 021100Z 0212/0315 20015KT 8000 -SHSN SCT010 BKN025"
    },
    {
      "icao": "ENTO",
      "alert": "OK",
      "vis_m": 9999,
      "fzfg": false,
      "metar_trigger": false,
      "taf_trigger": false,
      "metar": "METAR ENTO 021120Z 02018G28KT 9999 -SN FEW036 M05/M10 Q0986 NOSIG",
      "taf": "TAF ENTO 021100Z 0212/0312 01015KT 9999 SCT035"
    },
    {
      "icao": "ENVA",
      "alert": "OK",
      "vis_m": 9999,
      "fzfg": false,
      "metar_trigger": false,
      "taf_trigger": false,
      "metar": "METAR ENVA 021120Z 07007KT 9999 VCSH FEW020 M08/M12 Q0996 NOSIG RMK WIND 670FT 08009KT",
      "taf": "TAF ENVA 021100Z 0212/0312 07008KT 9999 FEW030 BKN055"
    },
    {
      "icao": "ENZV",
      "alert": "OK",
      "vis_m": 9999,
      "fzfg": false,
      "metar_trigger": false,
      "taf_trigger": false,
      "metar": "METAR ENZV 021120Z 01013KT CAVOK 01/M09 Q0991 NOSIG",
      "taf": "TAF ENZV 021100Z 0212/0312 36012KT CAVOK"
    },
    {
      "icao": "EPGD",
      "alert": "OK",
      "vis_m": 9999,
      "fzfg": false,
      "metar_trigger": false,
      "taf_trigger": false,
      "metar": "METAR EPGD 021130Z 24017KT 9999 OVC013 01/M01 Q0981",
      "taf": "TAF EPGD 021130Z 0212/0312 24014KT 9999 SCT012 BKN025"
    },
    {
      "icao": "EPKK",
      "alert": "OK",
      "vis_m": 9999,
      "fzfg": false,
      "metar_trigger": false,
      "taf_trigger": false,
      "metar": "METAR EPKK 021130Z 23010KT 9999 SCT033 03/M03 Q0995",
      "taf": "TAF EPKK 021130Z 0212/0312 23010KT 9999 BKN030"
    },
    {
      "icao": "EPKT",
      "alert": "OK",
      "vis_m": 9999,
      "fzfg": false,
      "metar_trigger": false,
      "taf_trigger": false,
      "metar": "METAR EPKT 021130Z 22015KT 9999 FEW030 BKN039 01/M04 Q0994",
      "taf": "TAF EPKT 021130Z 0212/0312 23015KT 9999 BKN040"
    },
    {
      "icao": "EPLB",
      "alert": "OK",
      "vis_m": 3900,
      "fzfg": false,
      "metar_trigger": false,
      "taf_trigger": false,
      "metar": "METAR EPLB 021130Z 22011KT 3900 -SN BR FEW004 SCT006 BKN015 00/M00 Q0993",
      "taf": "TAF EPLB 021130Z 0212/0312 22014KT 9999 BKN020"
    },
    {
      "icao": "EPMO",
      "alert": "OK",
      "vis_m": 9999,
      "fzfg": false,
      "metar_trigger": false,
      "taf_trigger": false,
      "metar": "METAR EPMO 021130Z 21013KT 9999 BKN032 02/M01 Q0989",
      "taf": "TAF EPMO 021130Z 0212/0312 22015KT 9999 BKN020"
    },
    {
      "icao": "EPPO",
      "alert": "OK",
      "vis_m": 9999,
      "fzfg": false,
      "metar_trigger": false,
      "taf_trigger": false,
      "metar": "METAR EPPO 021130Z 25014KT 9999 -SHSN SCT010CB BKN048 01/M01 Q0988",
      "taf": "TAF EPPO 021130Z 0212/0312 24015KT 9999 BKN025"
    },
    {
      "icao": "EPRA",
      "alert": "OK",
      "vis_m": 9999,
      "fzfg": false,
      "metar_trigger": false,
      "taf_trigger": false,
      "metar": "METAR EPRA 021130Z 23014KT 9999 SCT021 BKN044 02/M02 Q0992",
      "taf": "TAF EPRA 021130Z 0212/0221 24014KT 9999 BKN020"
    },
    {
      "icao": "EPRZ",
      "alert": "OK",
      "vis_m": 9999,
      "fzfg": false,
      "metar_trigger": false,
      "taf_trigger": false,
      "metar": "METAR EPRZ 021130Z 21013KT 9999 FEW035 03/M04 Q0996",
      "taf": "TAF EPRZ 021130Z 0212/0312 22015KT 9999 SCT040"
    },
    {
      "icao": "EPSC",
      "alert": "OK",
      "vis_m": 9999,
      "fzfg": false,
      "metar_trigger": false,
      "taf_trigger": false,
      "metar": "METAR EPSC 021130Z 22007KT 190V250 9999 SCT007 BKN010 01/00 Q0985",
      "taf": "TAF EPSC 021130Z 0212/0312 24012KT 9999 BKN020"
    },
    {
      "icao": "EPSY",
      "alert": "OK",
      "vis_m": 1000,
      "fzfg": false,
      "metar_trigger": false,
      "taf_trigger": false,
      "metar": "METAR EPSY 021130Z 20012KT 1000 R01/1200U +SHSN BKN006CB 00/M00 Q0986",
      "taf": "TAF EPSY 021130Z 0212/0221 21010KT 7000 -SN BKN020"
    },
    {
      "icao": "EPWA",
      "alert": "OK",
      "vis_m": 9999,
      "fzfg": false,
      "metar_trigger": false,
      "taf_trigger": false,
      "metar": "METAR EPWA 021130Z 23011KT 190V250 9999 SCT026 02/M02 Q0990 NOSIG",
      "taf": "TAF EPWA 021130Z 0212/0312 22014KT 9999 SCT015 BKN020"
    },
    {
      "icao": "EPWR",
      "alert": "OK",
      "vis_m": 9999,
      "fzfg": false,
      "metar_trigger": false,
      "taf_trigger": false,
      "metar": "METAR EPWR 021130Z 23014KT 200V260 9999 FEW040 BKN046 03/M03 Q0992",
      "taf": "TAF EPWR 021130Z 0212/0312 24012KT 9999 BKN035"
    },
    {
      "icao": "ESGG",
      "alert": "OK",
      "vis_m": 9999,
      "fzfg": false,
      "metar_trigger": false,
      "taf_trigger": false,
      "metar": "METAR ESGG 021120Z 02017KT 9999 -SN BKN011 OVC032 M02/M04 Q0978",
      "taf": "TAF ESGG 021130Z 0212/0312 36015G25KT 6000 -SN SCT005 BKN015"
    },
    {
      "icao": "ESKN",
      "alert": "OK",
      "vis_m": 1700,
      "fzfg": false,
      "metar_trigger": false,
      "taf_trigger": false,
      "metar": "METAR ESKN 021120Z 33007KT 1700 -SN BR OVC010 M01/M01 Q0977",
      "taf": "TAF ESKN 021130Z 0212/0312 33006KT 7000 -SN BKN004"
    },
    {
      "icao": "ESMS",
      "alert": "OK",
      "vis_m": 9999,
      "fzfg": false,
      "metar_trigger": false,
      "taf_trigger": false,
      "metar": "METAR ESMS 021120Z 27013KT 9999 BKN027 01/M03 Q0979",
      "taf": "TAF ESMS 021127Z 0212/0312 29014KT 9999 BKN020"
    },
    {
      "icao": "ESSA",
      "alert": "OK",
      "vis_m": 2100,
      "fzfg": false,
      "metar_trigger": false,
      "taf_trigger": false,
      "metar": "METAR ESSA 021120Z 02017KT 2100 -SN VV012 M03/M04 Q0979 TEMPO 03015G25KT 1000 SN",
      "taf": "TAF ESSA 021130Z 0212/0312 02010G20KT 7000 -SN BKN006"
    },
    {
      "icao": "EYKA",
      "alert": "OK",
      "vis_m": 9999,
      "fzfg": false,
      "metar_trigger": false,
      "taf_trigger": false,
      "metar": "METAR EYKA 021150Z 22007KT 170V260 9999 BKN015 02/M01 Q0985",
      "taf": "TAF EYKA 021103Z 0212/0312 20011KT 9000 SCT010 OVC015"
    },
    {
      "icao": "EYPA",
      "alert": "OK",
      "vis_m": 9999,
      "fzfg": false,
      "metar_trigger": false,
      "taf_trigger": false,
      "metar": "METAR EYPA 021150Z 19015KT 9999 -SHRASN FEW007 SCT012 BKN018CB 02/00 Q0980",
      "taf": ""
    },
    {
      "icao": "EYVI",
      "alert": "OK",
      "vis_m": 9999,
      "fzfg": false,
      "metar_trigger": false,
      "taf_trigger": false,
      "metar": "METAR EYVI 021150Z 21013KT 9999 OVC008 00/M01 Q0986 NOSIG",
      "taf": "TAF EYVI 021100Z 0212/0312 21012KT 8000 OVC010"
    },
    {
      "icao": "GCFV",
      "alert": "OK",
      "vis_m": 9999,
      "fzfg": false,
      "metar_trigger": false,
      "taf_trigger": false,
      "metar": "METAR GCFV 021130Z 20017KT 180V240 9999 SCT025 23/15 Q1007",
      "taf": "TAF GCFV 020800Z 0209/0309 22012KT 9999 SCT025 TX23/0214Z TN16/0306Z"
    },
    {
      "icao": "GCLP",
      "alert": "OK",
      "vis_m": 9999,
      "fzfg": false,
      "metar_trigger": false,
      "taf_trigger": false,
      "metar": "METAR GCLP 021130Z 22019KT 9999 SCT030 21/15 Q1007 NOSIG",
      "taf": "TAF GCLP 020800Z 0209/0309 23013KT 9999 FEW035 TX23/0214Z TN16/0306Z"
    },
    {
      "icao": "GCTS",
      "alert": "OK",
      "vis_m": 9999,
      "fzfg": false,
      "metar_trigger": false,
      "taf_trigger": false,
      "metar": "METAR GCTS 021130Z 27019KT 9999 SCT030 21/16 Q1008 NOSIG",
      "taf": "TAF GCTS 020800Z 0209/0309 25023KT 9999 SCT030 TX25/0214Z TN16/0306Z"
    },
    {
      "icao": "GMAD",
      "alert": "OK",
      "vis_m": 9999,
      "fzfg": false,
      "metar_trigger": false,
      "taf_trigger": false,
      "metar": "METAR GMAD 021130Z 03005KT CAVOK 21/11 Q1010 NOSIG",
      "taf": "TAF GMAD 021100Z 0212/0318 24016KT 8000 SCT020 BKN080"
    },
    {
      "icao": "GMMN",
      "alert": "OK",
      "vis_m": 9999,
      "fzfg": false,
      "metar_trigger": false,
      "taf_trigger": false,
      "metar": "METAR GMMN 021130Z 16013KT 130V190 CAVOK 18/11 Q1007 NOSIG",
      "taf": "TAF GMMN 021100Z 0212/0318 16012KT CAVOK"
    },
    {
      "icao": "GMMX",
      "alert": "OK",
      "vis_m": 9999,
      "fzfg": false,
      "metar_trigger": false,
      "taf_trigger": false,
      "metar": "METAR GMMX 021130Z 20017G28KT 170V230 9999 SCT020 SCT090 22/04 Q1008 NOSIG",
      "taf": "TAF GMMX 021100Z 0212/0318 22018G32KT 6000 SCT026 SCT100"
    },
    {
      "icao": "HEGN",
      "alert": "OK",
      "vis_m": 9999,
      "fzfg": false,
      "metar_trigger": false,
      "taf_trigger": false,
      "metar": "METAR HEGN 021100Z 36013KT CAVOK 23/09 Q1020 NOSIG",
      "taf": "TAF HEGN 021100Z 0212/0318 34018KT CAVOK"
    },
    {
      "icao": "HEMA",
      "alert": "OK",
      "vis_m": 9999,
      "fzfg": false,
      "metar_trigger": false,
      "taf_trigger": false,
      "metar": "METAR HEMA 021100Z 36015KT 9999 SCT025 23/12 Q1018 NOSIG",
      "taf": "TAF HEMA 021100Z 0212/0318 01015KT CAVOK"
    },
    {
      "icao": "HESH",
      "alert": "OK",
      "vis_m": 9999,
      "fzfg": false,
      "metar_trigger": false,
      "taf_trigger": false,
      "metar": "METAR HESH 021100Z 01010KT CAVOK 24/08 Q1019 NOSIG",
      "taf": "TAF HESH 021100Z 0212/0318 34010KT CAVOK"
    },
    {
      "icao": "HESX",
      "alert": "OK",
      "vis_m": 9999,
      "fzfg": false,
      "metar_trigger": false,
      "taf_trigger": false,
      "metar": "METAR HESX 021100Z 01008KT 9999 FEW020 BKN070 17/06 Q1023 NOSIG",
      "taf": "TAF HESX 021100Z 0212/0318 36010KT 9999 SCT025"
    },
    {
      "icao": "LATI",
      "alert": "OK",
      "vis_m": 9999,
      "fzfg": false,
      "metar_trigger": false,
      "taf_trigger": false,
      "metar": "METAR LATI 021150Z 13010KT 9999 SCT032 BKN065 10/02 Q1014 NOSIG",
      "taf": "TAF LATI 021100Z 0212/0312 16013KT 9999 BKN030 OVC060 TX15/0312Z TN09/0300Z"
    },
    {
      "icao": "LBPD",
      "alert": "OK",
      "vis_m": 9999,
      "fzfg": false,
      "metar_trigger": false,
      "taf_trigger": false,
      "metar": "METAR LBPD 021130Z AUTO 12004KT 010V150 9999 NCD 02/M08 Q1015 NOSIG",
      "taf": "TAF LBPD 021100Z 0212/0312 VRB03KT 9999 SCT070"
    },
    {
      "icao": "LBSF",
      "alert": "OK",
      "vis_m": 9999,
      "fzfg": false,
      "metar_trigger": false,
      "taf_trigger": false,
      "metar": "METAR LBSF 021130Z 12005KT 9999 SCT068 BKN087 02/M09 Q1013 NOSIG",
      "taf": "TAF LBSF 021100Z 0212/0312 06010KT 9999 SCT050"
    },
    {
      "icao": "LBWN",
      "alert": "OK",
      "vis_m": 9999,
      "fzfg": false,
      "metar_trigger": false,
      "taf_trigger": false,
      "metar": "METAR LBWN 021130Z 26007KT 230V290 CAVOK 08/M08 Q1013 NOSIG",
      "taf": "TAF LBWN 021100Z 0212/0312 29010KT CAVOK"
    },
    {
      "icao": "LCLK",
      "alert": "OK",
      "vis_m": 9999,
      "fzfg": false,
      "metar_trigger": false,
      "taf_trigger": false,
      "metar": "METAR LCLK 021130Z 04004KT 360V100 9999 FEW040 SCT060 14/03 Q1021 NOSIG",
      "taf": "TAF LCLK 021130Z 0212/0312 04010KT 9999 FEW040"
    },
    {
      "icao": "LCPH",
      "alert": "OK",
      "vis_m": 9999,
      "fzfg": false,
      "metar_trigger": false,
      "taf_trigger": false,
      "metar": "METAR LCPH 021130Z AUTO 34003KT 9999 BKN050 OVC055 14/03 Q1021 NOSIG",
      "taf": "TAF LCPH 021130Z 0212/0312 29010KT 9999 SCT045"
    },
    {
      "icao": "LEAL",
      "alert": "OK",
      "vis_m": 9999,
      "fzfg": false,
      "metar_trigger": false,
      "taf_trigger": false,
      "metar": "METAR LEAL 021130Z 23008KT 200V260 CAVOK 13/10 Q1013 NOSIG",
      "taf": "TAF LEAL 021100Z 0212/0312 VRB05KT CAVOK TX15/0214Z TN08/0306Z"
    },
    {
      "icao": "LEBB",
      "alert": "OK",
      "vis_m": 9999,
      "fzfg": false,
      "metar_trigger": false,
      "taf_trigger": false,
      "metar": "METAR LEBB 021130Z 08006KT 020V140 CAVOK 11/06 Q1010 NOSIG",
      "taf": "TAF LEBB 021100Z 0212/0312 12007KT 9999 SCT070 TX12/0214Z TN06/0308Z"
    },
    {
      "icao": "LEBL",
      "alert": "OK",
      "vis_m": 9999,
      "fzfg": false,
      "metar_trigger": false,
      "taf_trigger": false,
      "metar": "METAR LEBL 021130Z 33008G18KT 280V030 9999 FEW020 10/03 Q1011 NOSIG",
      "taf": "TAF LEBL 021100Z 0212/0312 34009KT 9999 FEW015 TX13/0212Z TN05/0306Z"
    },
    {
      "icao": "LECH",
      "alert": "OK",
      "vis_m": 9999,
      "fzfg": false,
      "metar_trigger": false,
      "taf_trigger": false,
      "metar": "METAR LECH 021130Z AUTO VRB02KT CAVOK 10/04 Q1011",
      "taf": ""
    },
    {
      "icao": "LEMD",
      "alert": "OK",
      "vis_m": 9999,
      "fzfg": false,
      "metar_trigger": false,
      "taf_trigger": false,
      "metar": "METAR LEMD 021130Z 35005KT 300V030 9999 BKN009 OVC011 07/05 Q1012 NOSIG",
      "taf": "TAF LEMD 021100Z 0212/0318 VRB03KT 9999 FEW020 TX11/0215Z TN04/0307Z"
    },
    {
      "icao": "LEMG",
      "alert": "OK",
      "vis_m": 9999,
      "fzfg": false,
      "metar_trigger": false,
      "taf_trigger": false,
      "metar": "METAR LEMG 021130Z 29006KT 9999 FEW003 12/11 Q1012 NOSIG",
      "taf": ""
    },
    {
      "icao": "LEVC",
      "alert": "OK",
      "vis_m": 9999,
      "fzfg": false,
      "metar_trigger": false,
      "taf_trigger": false,
      "metar": "METAR LEVC 021130Z 07003KT 360V130 CAVOK 13/08 Q1011 NOSIG",
      "taf": "TAF LEVC 021100Z 0212/0312 VRB05KT CAVOK TX15/0214Z TN07/0306Z"
    },
    {
      "icao": "LEXJ",
      "alert": "OK",
      "vis_m": 9000,
      "fzfg": false,
      "metar_trigger": false,
      "taf_trigger": false,
      "metar": "METAR LEXJ 021130Z VRB02KT 9000 NSC 10/06 Q1010",
      "taf": "TAF LEXJ 020800Z 0209/0309 10009KT 9999 SCT070 TX11/0213Z TN06/0308Z"
    },
    {
      "icao": "LEZG",
      "alert": "OK",
      "vis_m": 4000,
      "fzfg": false,
      "metar_trigger": false,
      "taf_trigger": false,
      "metar": "METAR LEZG 021130Z 30003KT 250V360 4000 BR OVC007 04/03 Q1013 NOSIG",
      "taf": "TAF LEZG 021100Z 0212/0312 VRB04KT CAVOK TX08/0215Z TN02/0306Z"
    },
    {
      "icao": "LEZL",
      "alert": "OK",
      "vis_m": 9999,
      "fzfg": false,
      "metar_trigger": false,
      "taf_trigger": false,
      "metar": "METAR LEZL 021130Z 08009KT CAVOK 14/10 Q1009 NOSIG",
      "taf": "TAF LEZL 020800Z 0209/0309 06007KT 9999 FEW040 TX18/0215Z TN12/0307Z"
    },
    {
      "icao": "LFBD",
      "alert": "OK",
      "vis_m": 7000,
      "fzfg": false,
      "metar_trigger": false,
      "taf_trigger": false,
      "metar": "METAR LFBD 021130Z AUTO 06006KT 7000 OVC006 M01/M02 Q1013 BECMG BKN015",
      "taf": "TAF LFBD 021100Z 0212/0318 07005KT 8000 BKN005 TX04/0314Z TNM02/0306Z"
    },
    {
      "icao": "LFLL",
      "alert": "OK",
      "vis_m": 9999,
      "fzfg": false,
      "metar_trigger": false,
      "taf_trigger": false,
      "metar": "METAR LFLL 021130Z VRB02KT CAVOK 03/M03 Q1010 NOSIG",
      "taf": "TAF LFLL 021100Z 0212/0318 VRB03KT CAVOK"
    },
    {
      "icao": "LFLS",
      "alert": "OK",
      "vis_m": 9999,
      "fzfg": false,
      "metar_trigger": false,
      "taf_trigger": false,
      "metar": "METAR LFLS 021130Z AUTO VRB01KT CAVOK 03/M01 Q1009 NOSIG",
      "taf": "TAF LFLS 020800Z 0209/0309 VRB03KT CAVOK"
    },
    {
      "icao": "LFMN",
      "alert": "OK",
      "vis_m": 9999,
      "fzfg": false,
      "metar_trigger": false,
      "taf_trigger": false,
      "metar": "METAR LFMN 021130Z 25015KT CAVOK 13/01 Q1003 NOSIG",
      "taf": "TAF LFMN 020800Z 0209/0315 31010KT CAVOK"
    },
    {
      "icao": "LFOB",
      "alert": "OK",
      "vis_m": 9999,
      "fzfg": false,
      "metar_trigger": false,
      "taf_trigger": false,
      "metar": "METAR LFOB 021130Z AUTO 27007KT 9999 FEW047 BKN070 OVC080 02/02 Q1005 TEMPO 4000 -RA BKN012",
      "taf": "TAF LFOB 021100Z 0212/0312 30010KT 9999 SCT030"
    },
    {
      "icao": "LFPO",
      "alert": "OK",
      "vis_m": 9999,
      "fzfg": false,
      "metar_trigger": false,
      "taf_trigger": false,
      "metar": "METAR LFPO 021130Z AUTO 25014KT 9999 BKN013 BKN070 OVC082 04/01 Q1007 TEMPO 4500 -SHRASN BKN009TCU",
      "taf": "TAF LFPO 021100Z 0212/0318 23010KT 9999 BKN012"
    },
    {
      "icao": "LFSB",
      "alert": "OK",
      "vis_m": 9999,
      "fzfg": false,
      "metar_trigger": false,
      "taf_trigger": false,
      "metar": "METAR LFSB 021130Z AUTO 26010KT 9999 BKN024 BKN030 OVC064 02/M02 Q1007 TEMPO 4000 -SHSN BKN008",
      "taf": "TAF LFSB 021100Z 0212/0312 27010KT 9999 BKN030"
    },
    {
      "icao": "LGAV",
      "alert": "OK",
      "vis_m": 9999,
      "fzfg": false,
      "metar_trigger": false,
      "taf_trigger": false,
      "metar": "METAR LGAV 021120Z 23009KT 210V280 CAVOK 12/M00 Q1021 NOSIG",
      "taf": "TAF LGAV 021100Z 0212/0312 23010KT 9999 FEW025"
    },
    {
      "icao": "LGTS",
      "alert": "OK",
      "vis_m": 9999,
      "fzfg": false,
      "metar_trigger": false,
      "taf_trigger": false,
      "metar": "METAR LGTS 021120Z VRB03KT 9999 FEW025 05/M01 Q1019 NOSIG",
      "taf": "TAF LGTS 021100Z 0212/0312 VRB03KT 9999 FEW030"
    },
    {
      "icao": "LHBP",
      "alert": "OK",
      "vis_m": 9999,
      "fzfg": false,
      "metar_trigger": false,
      "taf_trigger": false,
      "metar": "METAR LHBP 021130Z 13003KT CAVOK 03/01 Q1001 NOSIG",
      "taf": "TAF LHBP 021115Z 0212/0312 19005KT CAVOK"
    },
    {
      "icao": "LHDC",
      "alert": "OK",
      "vis_m": 9999,
      "fzfg": false,
      "metar_trigger": false,
      "taf_trigger": false,
      "metar": "METAR LHDC 021115Z AUTO 18011KT 160V230 CAVOK 01/01 Q1002 NOSIG",
      "taf": "TAF LHDC 021115Z 0212/0221 19013KT 9999 SCT040 BKN080"
    },
    {
      "icao": "LIBD",
      "alert": "OK",
      "vis_m": 9999,
      "fzfg": false,
      "metar_trigger": false,
      "taf_trigger": false,
      "metar": "METAR LIBD 021120Z 19007KT 9999 FEW045 14/06 Q1011",
      "taf": "TAF LIBD 021100Z 0212/0312 22015KT 9999 SCT040"
    },
    {
      "icao": "LIBG",
      "alert": "OK",
      "vis_m": 9999,
      "fzfg": false,
      "metar_trigger": false,
      "taf_trigger": false,
      "metar": "METAR LIBG 021050Z 22013KT 180V240 9999 FEW030 16/10 Q1013",
      "taf": "TAF LIBG 021100Z 0212/0221 22013KT CAVOK"
    },
    {
      "icao": "LIBP",
      "alert": "OK",
      "vis_m": 9999,
      "fzfg": false,
      "metar_trigger": false,
      "taf_trigger": false,
      "metar": "METAR LIBP 021120Z AUTO 22020KT 9999 NCD 16/02 Q1006",
      "taf": "TAF LIBP 021100Z 0212/0312 22012KT 9999 SCT035"
    },
    {
      "icao": "LIBR",
      "alert": "OK",
      "vis_m": 9999,
      "fzfg": false,
      "metar_trigger": false,
      "taf_trigger": false,
      "metar": "METAR LIBR 021120Z 21015KT 9999 FEW025 15/09 Q1013",
      "taf": "TAF LIBR 021100Z 0212/0312 20015KT 9999 SCT040"
    },
    {
      "icao": "LICA",
      "alert": "OK",
      "vis_m": 9999,
      "fzfg": false,
      "metar_trigger": false,
      "taf_trigger": false,
      "metar": "METAR LICA 021120Z AUTO 23009KT 9999 BKN064/// 17/06 Q1015",
      "taf": "TAF LICA 021100Z 0212/0312 23010KT 9999 SCT040"
    },
    {
      "icao": "LICC",
      "alert": "OK",
      "vis_m": 9999,
      "fzfg": false,
      "metar_trigger": false,
      "taf_trigger": false,
      "metar": "METAR LICC 021120Z 27010KT 9999 SCT030 17/15 Q1017",
      "taf": "TAF LICC 021100Z 0212/0312 25012KT 9999 SCT035"
    },
    {
      "icao": "LICJ",
      "alert": "OK",
      "vis_m": 9999,
      "fzfg": false,
      "metar_trigger": false,
      "taf_trigger": false,
      "metar": "METAR LICJ 021120Z 20021G31KT 9999 FEW040 16/07 Q1014",
      "taf": "TAF LICJ 021100Z 0212/0312 20025G40KT 9999 FEW030"
    },
    {
      "icao": "LIMC",
      "alert": "OK",
      "vis_m": 9999,
      "fzfg": false,
      "metar_trigger": false,
      "taf_trigger": false,
      "metar": "METAR LIMC 021120Z 31003KT 200V010 CAVOK 07/M01 Q1003 NOSIG",
      "taf": "TAF LIMC 021100Z 0212/0318 VRB04KT 7000 FEW050"
    },
    {
      "icao": "LIME",
      "alert": "OK",
      "vis_m": 9999,
      "fzfg": false,
      "metar_trigger": false,
      "taf_trigger": false,
      "metar": "METAR LIME 021120Z 21003KT 170V270 9999 1500E FEW001 02/02 Q1003 NOSIG",
      "taf": "TAF LIME 021100Z 0212/0312 VRB04KT 8000 NSC"
    },
    {
      "icao": "LIMF",
      "alert": "OK",
      "vis_m": 9999,
      "fzfg": false,
      "metar_trigger": false,
      "taf_trigger": false,
      "metar": "METAR LIMF 021120Z 21004KT 170V240 CAVOK 05/M03 Q1003",
      "taf": "TAF LIMF 021100Z 0212/0312 VRB04KT CAVOK"
    },
    {
      "icao": "LIMJ",
      "alert": "OK",
      "vis_m": 9999,
      "fzfg": false,
      "metar_trigger": false,
      "taf_trigger": false,
      "metar": "METAR LIMJ 021120Z 14016KT 9999 FEW032 13/07 Q1003",
      "taf": "TAF LIMJ 021100Z 0212/0312 14016KT 9999 SCT030"
    },
    {
      "icao": "LIPE",
      "alert": "OK",
      "vis_m": 8000,
      "fzfg": false,
      "metar_trigger": false,
      "taf_trigger": false,
      "metar": "METAR LIPE 021120Z 29004KT 230V340 8000 NSC 06/01 Q1004",
      "taf": "TAF LIPE 021100Z 0212/0312 VRB05KT 9999 SCT010 BKN050"
    },
    {
      "icao": "LIPH",
      "alert": "OK",
      "vis_m": 9999,
      "fzfg": false,
      "metar_trigger": false,
      "taf_trigger": false,
      "metar": "METAR LIPH 021120Z AUTO VRB02KT 9999 BKN055/// 04/M02 Q1004",
      "taf": "TAF LIPH 021100Z 0212/0312 VRB04KT 9999 BKN035"
    },
    {
      "icao": "LIPQ",
      "alert": "OK",
      "vis_m": 9999,
      "fzfg": false,
      "metar_trigger": false,
      "taf_trigger": false,
      "metar": "METAR LIPQ 021120Z AUTO VRB01KT 9999 BKN023/// OVC051/// 05/03 Q1004",
      "taf": "TAF LIPQ 021100Z 0212/0312 VRB05KT 9999 SCT020"
    },
    {
      "icao": "LIPR",
      "alert": "OK",
      "vis_m": 9999,
      "fzfg": false,
      "metar_trigger": false,
      "taf_trigger": false,
      "metar": "METAR LIPR 021120Z 33007KT 9999 SCT055 06/02 Q1004",
      "taf": "TAF LIPR 021100Z 0212/0312 30007KT 9999 SCT050"
    },
    {
      "icao": "LIPX",
      "alert": "OK",
      "vis_m": 900,
      "fzfg": false,
      "metar_trigger": false,
      "taf_trigger": false,
      "metar": "METAR LIPX 021120Z VRB02KT 0900 R04/1600N FG OVC003 03/02 Q1004",
      "taf": "TAF LIPX 021100Z 0212/0312 VRB04KT 2000 BR SCT030"
    },
    {
      "icao": "LIPY",
      "alert": "OK",
      "vis_m": 9999,
      "fzfg": false,
      "metar_trigger": false,
      "taf_trigger": false,
      "metar": "METAR LIPY 021120Z AUTO 21007KT 170V230 9999 SCT072/// 15/06 Q1005",
      "taf": "TAF LIPY 021100Z 0212/0312 20015KT 9999 BKN045"
    },
    {
      "icao": "LIPZ",
      "alert": "OK",
      "vis_m": 9000,
      "fzfg": false,
      "metar_trigger": false,
      "taf_trigger": false,
      "metar": "METAR LIPZ 021120Z 01004KT 330V050 9000 BKN045 04/M01 Q1005 NOSIG",
      "taf": "TAF LIPZ 021100Z 0212/0318 VRB05KT 9999 BKN030"
    },
    {
      "icao": "LIRF",
      "alert": "OK",
      "vis_m": 9999,
      "fzfg": false,
      "metar_trigger": false,
      "taf_trigger": false,
      "metar": "METAR LIRF 021120Z 23017KT 9999 SCT050 15/07 Q1010 NOSIG",
      "taf": "TAF LIRF 021100Z 0212/0318 23015KT 9999 SCT025"
    },
    {
      "icao": "LIRN",
      "alert": "OK",
      "vis_m": 9999,
      "fzfg": false,
      "metar_trigger": false,
      "taf_trigger": false,
      "metar": "METAR LIRN 021120Z 22006KT 9999 SCT030 13/10 Q1012 NOSIG",
      "taf": "TAF LIRN 021100Z 0212/0312 23012KT 9999 BKN030"
    },
    {
      "icao": "LIRP",
      "alert": "OK",
      "vis_m": 9999,
      "fzfg": false,
      "metar_trigger": false,
      "taf_trigger": false,
      "metar": "METAR LIRP 021115Z 23020G30KT 9999 BKN040 13/09 Q1005 NOSIG",
      "taf": "TAF LIRP 021100Z 0212/0312 24022G32KT 9999 BKN030"
    },
    {
      "icao": "LIRZ",
      "alert": "OK",
      "vis_m": 9999,
      "fzfg": false,
      "metar_trigger": false,
      "taf_trigger": false,
      "metar": "METAR LIRZ 021120Z AUTO 20013KT 9999 SCT021/// BKN064/// 12/08 Q1007",
      "taf": "TAF LIRZ 021100Z 0212/0312 20013KT 9999 SCT030"
    },
    {
      "icao": "LJLJ",
      "alert": "OK",
      "vis_m": 9999,
      "fzfg": false,
      "metar_trigger": false,
      "taf_trigger": false,
      "metar": "METAR LJLJ 021130Z VRB02KT 9999 -DZ FEW017 BKN040 04/00 Q1002 NOSIG",
      "taf": "TAF LJLJ 021100Z 0212/0312 30004KT 9999 BKN027 OVC045"
    },
    {
      "icao": "LKMT",
      "alert": "OK",
      "vis_m": 9999,
      "fzfg": false,
      "metar_trigger": false,
      "taf_trigger": false,
      "metar": "METAR LKMT 021130Z 22024KT 9999 -SN SCT016 02/M03 Q0996 NOSIG",
      "taf": "TAF LKMT 021100Z 0212/0312 22018KT 9999 SCT035"
    },
    {
      "icao": "LKPR",
      "alert": "OK",
      "vis_m": 9999,
      "fzfg": false,
      "metar_trigger": false,
      "taf_trigger": false,
      "metar": "METAR LKPR 021130Z 22023KT 9999 4500W -SHSN FEW024 BKN036 01/M03 Q0995 NOSIG",
      "taf": "TAF LKPR 021100Z 0212/0318 22022KT 9999 SCT030"
    },
    {
      "icao": "LLBG",
      "alert": "OK",
      "vis_m": 9999,
      "fzfg": false,
      "metar_trigger": false,
      "taf_trigger": false,
      "metar": "METAR LLBG 021120Z 28009KT 9999 SCT040 BKN050 16/08 Q1021 NOSIG",
      "taf": "TAF LLBG 021106Z 0212/0312 28012KT 9999 SCT040"
    },
    {
      "icao": "LMML",
      "alert": "OK",
      "vis_m": 9999,
      "fzfg": false,
      "metar_trigger": false,
      "taf_trigger": false,
      "metar": "METAR LMML 021145Z 22017KT 9999 FEW034 16/10 Q1018 NOSIG",
      "taf": "TAF LMML 021100Z 0212/0312 22010KT 9999 FEW020"
    },
    {
      "icao": "LOWW",
      "alert": "OK",
      "vis_m": 9999,
      "fzfg": false,
      "metar_trigger": false,
      "taf_trigger": false,
      "metar": "METAR LOWW 021120Z 27017KT CAVOK 06/M03 Q1001 NOSIG",
      "taf": "TAF LOWW 021115Z 0212/0318 26015G25KT CAVOK TX04/0312Z TNM01/0318Z"
    },
    {
      "icao": "LPFR",
      "alert": "OK",
      "vis_m": 9999,
      "fzfg": false,
      "metar_trigger": false,
      "taf_trigger": false,
      "metar": "METAR LPFR 021130Z 12008KT 9999 FEW012 SCT045 16/14 Q1005",
      "taf": "TAF LPFR 021100Z 0212/0312 15017KT 9999 SCT012 SCT025"
    },
    {
      "icao": "LPMA",
      "alert": "OK",
      "vis_m": 9999,
      "fzfg": false,
      "metar_trigger": false,
      "taf_trigger": false,
      "metar": "METAR LPMA 021130Z 24015KT 220V290 9999 SCT015 16/12 Q0999",
      "taf": "TAF LPMA 021100Z 0212/0312 23015KT 9999 SCT015"
    },
    {
      "icao": "LPPR",
      "alert": "OK",
      "vis_m": 9999,
      "fzfg": false,
      "metar_trigger": false,
      "taf_trigger": false,
      "metar": "METAR LPPR 021130Z 12011KT 9999 FEW025 BKN040 14/10 Q1004",
      "taf": "TAF LPPR 021100Z 0212/0312 12012KT 9999 SCT040"
    },
    {
      "icao": "LPPS",
      "alert": "OK",
      "vis_m": 9999,
      "fzfg": false,
      "metar_trigger": false,
      "taf_trigger": false,
      "metar": "METAR LPPS 021130Z 25017KT 9999 SCT014 SCT030 18/12 Q0998",
      "taf": "TAF LPPS 021100Z 0212/0318 27020KT 9999 SCT015 SCT030"
    },
    {
      "icao": "LPPT",
      "alert": "OK",
      "vis_m": 9999,
      "fzfg": false,
      "metar_trigger": false,
      "taf_trigger": false,
      "metar": "METAR LPPT 021130Z 13009KT 100V170 9999 -RA FEW008 FEW018TCU BKN020 14/13 Q1002",
      "taf": "TAF LPPT 021100Z 0212/0318 15013KT 9999 SCT012 BKN025"
    },
    {
      "icao": "LQBK",
      "alert": "OK",
      "vis_m": 9999,
      "fzfg": false,
      "metar_trigger": false,
      "taf_trigger": false,
      "metar": "METAR LQBK 021130Z 21014KT 170V250 CAVOK 14/03 Q1003 TEMPO 20015G25KT",
      "taf": "TAF LQBK 021100Z 0212/0312 22010KT CAVOK TX15/0213Z TNM00/0308Z"
    },
    {
      "icao": "LQSA",
      "alert": "OK",
      "vis_m": 9999,
      "fzfg": false,
      "metar_trigger": false,
      "taf_trigger": false,
      "metar": "METAR LQSA 021130Z VRB02KT 9999 FEW035 BKN050 07/04 Q1005 NOSIG",
      "taf": "TAF LQSA 021100Z 0212/0312 20006KT 9999 FEW030 BKN050 TX10/0312Z TN01/0301Z"
    },
    {
      "icao": "LQTZ",
      "alert": "OK",
      "vis_m": 9999,
      "fzfg": false,
      "metar_trigger": false,
      "taf_trigger": false,
      "metar": "METAR LQTZ 021130Z 24007KT 150V270 9999 BKN060 14/02 Q1003",
      "taf": "TAF LQTZ 021100Z 0212/0312 16005KT 9999 SCT040 TX14/0213Z TN01/0306Z"
    },
    {
      "icao": "LRBC",
      "alert": "OK",
      "vis_m": 9999,
      "fzfg": false,
      "metar_trigger": false,
      "taf_trigger": false,
      "metar": "METAR LRBC 021130Z 17014KT CAVOK 01/M07 Q1004",
      "taf": "TAF LRBC 021100Z 0212/0221 17010KT CAVOK"
    },
    {
      "icao": "LRBS",
      "alert": "OK",
      "vis_m": 9999,
      "fzfg": false,
      "metar_trigger": false,
      "taf_trigger": false,
      "metar": "METAR LRBS 021130Z 26008KT 240V300 CAVOK 06/M06 Q1010 NOSIG",
      "taf": "TAF LRBS 021100Z 0212/0312 VRB04KT CAVOK"
    },
    {
      "icao": "LRBV",
      "alert": "OK",
      "vis_m": 9999,
      "fzfg": false,
      "metar_trigger": false,
      "taf_trigger": false,
      "metar": "METAR LRBV 021130Z 27006KT 230V320 9999 FEW064 SCT081 05/M03 Q1004",
      "taf": "TAF LRBV 021100Z 0212/0221 22010KT 9999 BKN050"
    },
    {
      "icao": "LRCL",
      "alert": "OK",
      "vis_m": 9999,
      "fzfg": false,
      "metar_trigger": false,
      "taf_trigger": false,
      "metar": "METAR LRCL 021130Z 09004KT 9999 BKN060 02/M01 Q1003",
      "taf": "TAF LRCL 021100Z 0212/0221 VRB04KT 9999 BKN050"
    },
    {
      "icao": "LRCV",
      "alert": "OK",
      "vis_m": 9999,
      "fzfg": false,
      "metar_trigger": false,
      "taf_trigger": false,
      "metar": "METAR LRCV 021130Z 10004KT 070V140 CAVOK 03/M05 Q1009",
      "taf": "TAF LRCV 021100Z 0212/0221 VRB04KT CAVOK"
    },
    {
      "icao": "LRIA",
      "alert": "OK",
      "vis_m": 9999,
      "fzfg": false,
      "metar_trigger": false,
      "taf_trigger": false,
      "metar": "METAR LRIA 021130Z 18007KT 150V210 CAVOK 04/M05 Q1003",
      "taf": "TAF LRIA 021100Z 0212/0221 16008KT CAVOK"
    },
    {
      "icao": "LROP",
      "alert": "OK",
      "vis_m": 9999,
      "fzfg": false,
      "metar_trigger": false,
      "taf_trigger": false,
      "metar": "METAR LROP 021130Z 21008KT CAVOK 07/M11 Q1010 NOSIG",
      "taf": "TAF LROP 021100Z 0212/0312 VRB04KT CAVOK"
    },
    {
      "icao": "LRSB",
      "alert": "OK",
      "vis_m": 9999,
      "fzfg": false,
      "metar_trigger": false,
      "taf_trigger": false,
      "metar": "METAR LRSB 021130Z 04004KT 9999 FEW025 SCT033 BKN055 06/M00 Q1004",
      "taf": "TAF LRSB 021100Z 0212/0312 VRB04KT 9999 BKN045"
    },
    {
      "icao": "LRSM",
      "alert": "OK",
      "vis_m": 9999,
      "fzfg": false,
      "metar_trigger": false,
      "taf_trigger": false,
      "metar": "METAR LRSM 021130Z 22014KT 9999 SCT010 02/00 Q1003",
      "taf": "TAF LRSM 021100Z 0212/0221 22012KT 9999 SCT015 BKN030"
    },
    {
      "icao": "LRSV",
      "alert": "OK",
      "vis_m": 9999,
      "fzfg": false,
      "metar_trigger": false,
      "taf_trigger": false,
      "metar": "METAR LRSV 021130Z 17010KT CAVOK 04/M02 Q1000",
      "taf": "TAF LRSV 021100Z 0212/0221 19008KT CAVOK"
    },
    {
      "icao": "LRTM",
      "alert": "OK",
      "vis_m": 9999,
      "fzfg": false,
      "metar_trigger": false,
      "taf_trigger": false,
      "metar": "METAR LRTM 021130Z 22011KT 9999 SCT035 BKN044 06/M01 Q1004",
      "taf": "TAF LRTM 021100Z 0212/0221 22012KT 9999 BKN050"
    },
    {
      "icao": "LRTR",
      "alert": "OK",
      "vis_m": 9999,
      "fzfg": false,
      "metar_trigger": false,
      "taf_trigger": false,
      "metar": "METAR LRTR 021130Z 19013KT 9999 -RA BKN047 05/M03 Q1004",
      "taf": "TAF LRTR 021100Z 0212/0312 19014KT 9999 BKN045"
    },
    {
      "icao": "LTAC",
      "alert": "OK",
      "vis_m": 9999,
      "fzfg": false,
      "metar_trigger": false,
      "taf_trigger": false,
      "metar": "METAR LTAC 021120Z VRB03KT CAVOK M04/M10 Q1021 NOSIG RMK RWY21C VRB02KT RWY03L 06003KT 010V140 RWY21R VRB01KT RWY03R 01003KT 330V040 RWY21L VRB02KT",
      "taf": "TAF LTAC 021040Z 0212/0312 VRB02KT CAVOK"
    },
    {
      "icao": "LTFM",
      "alert": "OK",
      "vis_m": 9999,
      "fzfg": false,
      "metar_trigger": false,
      "taf_trigger": false,
      "metar": "METAR LTFM 021120Z 21022KT CAVOK 06/M06 Q1018 NOSIG RMK RWY17L 21021G31KT RWY34L 20022KT RWY16R 21019KT RWY36 21019KT RWY18 21023KT",
      "taf": "TAF LTFM 021040Z 0212/0318 20020G30KT CAVOK"
    },
    {
      "icao": "LUKK",
      "alert": "OK",
      "vis_m": 9999,
      "fzfg": false,
      "metar_trigger": false,
      "taf_trigger": false,
      "metar": "METAR LUKK 021130Z 23010KT CAVOK 02/M06 Q1005 TEMPO 22016G26KT",
      "taf": "TAF LUKK 021118Z 0212/0312 22012KT CAVOK"
    },
    {
      "icao": "LWOH",
      "alert": "OK",
      "vis_m": 9999,
      "fzfg": false,
      "metar_trigger": false,
      "taf_trigger": false,
      "metar": "METAR LWOH 021150Z VRB02KT 9999 FEW015 BKN035 04/01 Q1014",
      "taf": "TAF LWOH 021130Z 0212/0312 16010KT 9999 SCT020 BKN040"
    },
    {
      "icao": "LWSK",
      "alert": "OK",
      "vis_m": 9999,
      "fzfg": false,
      "metar_trigger": false,
      "taf_trigger": false,
      "metar": "METAR LWSK 021150Z VRB02KT 9999 BKN060 01/M08 Q1015 NOSIG",
      "taf": "TAF LWSK 021130Z 0212/0312 VRB02KT 9999 SCT040 BKN070"
    },
    {
      "icao": "LYBE",
      "alert": "OK",
      "vis_m": 9999,
      "fzfg": false,
      "metar_trigger": false,
      "taf_trigger": false,
      "metar": "METAR LYBE 021130Z 17010KT CAVOK 12/M01 Q1004 NOSIG",
      "taf": ""
    },
    {
      "icao": "LYNI",
      "alert": "OK",
      "vis_m": 9999,
      "fzfg": false,
      "metar_trigger": false,
      "taf_trigger": false,
      "metar": "METAR LYNI 021130Z 16011KT 110V200 9999 FEW060 09/M07 Q1010 NOSIG",
      "taf": "TAF LYNI 021100Z 0212/0312 16012KT CAVOK TX10/0213Z TN02/0312Z"
    },
    {
      "icao": "LYPG",
      "alert": "OK",
      "vis_m": 1100,
      "fzfg": false,
      "metar_trigger": false,
      "taf_trigger": false,
      "metar": "METAR LYPG 021130Z VRB01KT 1100 R18/2000U R36/1200D -RA BR FEW015 BKN034 OVC070 01/00 Q1014 NOSIG",
      "taf": "TAF LYPG 021100Z 0212/0312 36006KT 5000 RA FEW015 BKN030 OVC070 TX09/0312Z TN01/0212Z"
    },
    {
      "icao": "LZIB",
      "alert": "OK",
      "vis_m": 9999,
      "fzfg": false,
      "metar_trigger": false,
      "taf_trigger": false,
      "metar": "METAR LZIB 021130Z 25016KT 9999 FEW037 06/M04 Q1000 NOSIG",
      "taf": "TAF LZIB 021115Z 0212/0312 22008KT CAVOK"
    },
    {
      "icao": "LZKZ",
      "alert": "OK",
      "vis_m": 9999,
      "fzfg": false,
      "metar_trigger": false,
      "taf_trigger": false,
      "metar": "METAR LZKZ 021130Z 22005KT CAVOK 00/M03 Q0999 NOSIG",
      "taf": "TAF LZKZ 021115Z 0212/0312 22010KT 9999 SCT020"
    },
    {
      "icao": "LZTT",
      "alert": "OK",
      "vis_m": 9999,
      "fzfg": false,
      "metar_trigger": false,
      "taf_trigger": false,
      "metar": "METAR LZTT 021130Z 27017KT 9999 -SN DRSN BKN033 M01/M04 Q0995 NOSIG",
      "taf": "TAF LZTT 021115Z 0212/0312 26015KT 9999 BKN033"
    },
    {
      "icao": "OEJN",
      "alert": "OK",
      "vis_m": 9999,
      "fzfg": false,
      "metar_trigger": false,
      "taf_trigger": false,
      "metar": "METAR OEJN 021100Z 30007KT CAVOK 32/11 Q1014 NOSIG",
      "taf": "TAF OEJN 021100Z 0212/0318 32010KT CAVOK"
    },
    {
      "icao": "OEMA",
      "alert": "OK",
      "vis_m": 9999,
      "fzfg": false,
      "metar_trigger": false,
      "taf_trigger": false,
      "metar": "METAR OEMA 021100Z VRB02KT CAVOK 26/M03 Q1019 NOSIG",
      "taf": "TAF OEMA 021100Z 0212/0318 07008KT CAVOK"
    },
    {
      "icao": "OJAI",
      "alert": "OK",
      "vis_m": 3500,
      "fzfg": false,
      "metar_trigger": false,
      "taf_trigger": false,
      "metar": "METAR OJAI 021100Z 27013KT 3500 HZ FEW015 BKN020 11/07 Q1021 NOSIG",
      "taf": "TAF OJAI 021040Z 0212/0318 25014KT 3000 BR SCT025 BKN035"
    },
    {
      "icao": "OMAA",
      "alert": "OK",
      "vis_m": 9999,
      "fzfg": false,
      "metar_trigger": false,
      "taf_trigger": false,
      "metar": "METAR OMAA 021100Z 34007KT 9999 FEW030 23/14 Q1017 NOSIG",
      "taf": "TAF OMAA 021100Z 0212/0318 31010KT 9999 FEW040"
    },
    {
      "icao": "OMDB",
      "alert": "OK",
      "vis_m": 9999,
      "fzfg": false,
      "metar_trigger": false,
      "taf_trigger": false,
      "metar": "METAR OMDB 021130Z 28009KT 170V310 9999 SCT033 24/15 Q1017 NOSIG",
      "taf": "TAF OMDB 021100Z 0212/0318 29010KT 8000 NSC"
    },
    {
      "icao": "UAAA",
      "alert": "OK",
      "vis_m": 5000,
      "fzfg": false,
      "metar_trigger": false,
      "taf_trigger": false,
      "metar": "METAR UAAA 021130Z VRB01MPS 5000 BR OVC010 01/M01 Q1020 NOSIG",
      "taf": "TAF UAAA 021105Z 0212/0312 16003MPS 1200 BR FU BKN011 OVC030 TX03/0309Z TNM03/0302Z"
    },
    {
      "icao": "UBBB",
      "alert": "OK",
      "vis_m": 9999,
      "fzfg": false,
      "metar_trigger": false,
      "taf_trigger": false,
      "metar": "METAR UBBB 021130Z 32022G32KT 9999 -SHRASN SCT008 BKN029CB OVC029 02/01 Q1024 NOSIG",
      "taf": ""
    },
    {
      "icao": "UDSG",
      "alert": "OK",
      "vis_m": 9999,
      "fzfg": false,
      "metar_trigger": false,
      "taf_trigger": false,
      "metar": "METAR UDSG 021130Z 36005KT 9999 NSC M06/M15 Q1020 NOSIG",
      "taf": "TAF UDSG 021058Z 0212/0312 VRB06KT 9999 FEW040"
    },
    {
      "icao": "UDYZ",
      "alert": "OK",
      "vis_m": 9999,
      "fzfg": false,
      "metar_trigger": false,
      "taf_trigger": false,
      "metar": "METAR UDYZ 021130Z 00000KT 9999 NSC 02/M07 Q1021 NOSIG",
      "taf": "TAF UDYZ 021100Z 0212/0312 VRB06KT 9999 FEW040"
    },
    {
      "icao": "UGKO",
      "alert": "OK",
      "vis_m": 9999,
      "fzfg": false,
      "metar_trigger": false,
      "taf_trigger": false,
      "metar": "METAR UGKO 021130Z AUTO 03005KT CAVOK 06/M07 Q1026 NOSIG",
      "taf": "TAF UGKO 021100Z 0212/0312 08017KT CAVOK TX07/0212Z TNM04/0303Z"
    }
  ]
}