{
  "ts_utc": "2026-02-15T18:52:30Z",
  "threshold_m": 150,
  "source": "stations_override.txt (ICAO list) + aviationweather.gov (METAR/TAF raw)",
  "station_count": 159,
  "stations": [
    {
      "icao": "BIKF",
      "alert": "OK",
      "vis_m": 9999,
      "fzfg": false,
      "metar_trigger": false,
      "taf_trigger": false,
      "metar": "METAR BIKF 151830Z 08004KT 030V120 CAVOK M05/M11 Q1001",
      "taf": "TAF BIKF 151659Z 1518/1618 04008KT CAVOK TXM02/1618Z TNM06/1521Z"
    },
    {
      "icao": "BKPR",
      "alert": "OK",
      "vis_m": 9999,
      "fzfg": false,
      "metar_trigger": false,
      "taf_trigger": false,
      "metar": "METAR BKPR 151830Z 36012KT 9999 FEW020 BKN030 04/03 Q1005 NOSIG",
      "taf": ""
    },
    {
      "icao": "EBCI",
      "alert": "OK",
      "vis_m": 4000,
      "fzfg": false,
      "metar_trigger": false,
      "taf_trigger": false,
      "metar": "METAR EBCI 151820Z 17012KT 4000 -SN FEW005 BKN008 M00/M00 Q0998 TEMPO BKN004",
      "taf": "TAF EBCI 151700Z 1518/1624 18012KT 2000 -SN BKN006"
    },
    {
      "icao": "EDDB",
      "alert": "OK",
      "vis_m": 9999,
      "fzfg": false,
      "metar_trigger": false,
      "taf_trigger": false,
      "metar": "METAR EDDB 151820Z AUTO 11007KT CAVOK M03/M08 Q1013 NOSIG",
      "taf": "TAF EDDB 151700Z 1518/1618 11008KT CAVOK"
    },
    {
      "icao": "EDDH",
      "alert": "OK",
      "vis_m": 9999,
      "fzfg": false,
      "metar_trigger": false,
      "taf_trigger": false,
      "metar": "METAR EDDH 151820Z AUTO 12013KT CAVOK M03/M06 Q1008 NOSIG",
      "taf": "TAF EDDH 151700Z 1518/1624 13013KT CAVOK"
    },
    {
      "icao": "EDDK",
      "alert": "OK",
      "vis_m": 1300,
      "fzfg": false,
      "metar_trigger": false,
      "taf_trigger": false,
      "metar": "METAR EDDK 151820Z AUTO 13012KT 100V160 1300 R13L/1800D R06/1800D +SN BR BKN004 00/M00 Q1002 BECMG 2000 SN",
      "taf": "TAF EDDK 151700Z 1518/1624 14012KT 3500 -SN OVC009"
    },
    {
      "icao": "EDDN",
      "alert": "OK",
      "vis_m": 9999,
      "fzfg": false,
      "metar_trigger": false,
      "taf_trigger": false,
      "metar": "METAR EDDN 151820Z AUTO 12007KT 9999 BKN034 M02/M06 Q1009 NOSIG",
      "taf": "TAF EDDN 151700Z 1518/1618 14005KT 9999 BKN030"
    },
    {
      "icao": "EDDS",
      "alert": "OK",
      "vis_m": 9999,
      "fzfg": false,
      "metar_trigger": false,
      "taf_trigger": false,
      "metar": "METAR EDDS 151820Z AUTO 12005KT CAVOK 01/M02 Q1005 NOSIG",
      "taf": "TAF EDDS 151700Z 1518/1618 13005KT 9999 BKN030"
    },
    {
      "icao": "EDFH",
      "alert": "OK",
      "vis_m": 2300,
      "fzfg": false,
      "metar_trigger": false,
      "taf_trigger": false,
      "metar": "METAR EDFH 151820Z 14018G28KT 2300 SN SCT001 OVC004 M01/M02 Q1001",
      "taf": ""
    },
    {
      "icao": "EDJA",
      "alert": "OK",
      "vis_m": 9999,
      "fzfg": false,
      "metar_trigger": false,
      "taf_trigger": false,
      "metar": "METAR EDJA 151820Z 11006KT 090V150 CAVOK M01/M03 Q1006",
      "taf": "TAF EDJA 151700Z 1518/1603 12005KT 9999 SCT025"
    },
    {
      "icao": "EDLW",
      "alert": "OK",
      "vis_m": 9999,
      "fzfg": false,
      "metar_trigger": false,
      "taf_trigger": false,
      "metar": "METAR EDLW 151820Z 14015G26KT 100V170 9999 FEW031 BKN043 02/M04 Q1002",
      "taf": "TAF EDLW 151700Z 1518/1618 15010KT 9999 BKN030"
    },
    {
      "icao": "EDNY",
      "alert": "OK",
      "vis_m": 9999,
      "fzfg": false,
      "metar_trigger": false,
      "taf_trigger": false,
      "metar": "METAR EDNY 151820Z AUTO 05003KT 9999 // BKN180/// BKN240/// 00/M01 Q1007",
      "taf": "TAF EDNY 151700Z 1518/1603 06004KT 9999 SCT040"
    },
    {
      "icao": "EDSB",
      "alert": "OK",
      "vis_m": 9999,
      "fzfg": false,
      "metar_trigger": false,
      "taf_trigger": false,
      "metar": "METAR EDSB 151820Z 19008KT 140V230 9999 RA FEW019 SCT022 OVC030 04/00 Q1005",
      "taf": "TAF EDSB 151700Z 1518/1618 16005KT 9999 BKN030"
    },
    {
      "icao": "EETN",
      "alert": "OK",
      "vis_m": 9999,
      "fzfg": false,
      "metar_trigger": false,
      "taf_trigger": false,
      "metar": "METAR EETN 151850Z VRB02KT 9999 OVC026 M04/M07 Q1014 NOSIG",
      "taf": "TAF EETN 151730Z 1518/1618 25009KT 9999 OVC025"
    },
    {
      "icao": "EFTU",
      "alert": "OK",
      "vis_m": 9999,
      "fzfg": false,
      "metar_trigger": false,
      "taf_trigger": false,
      "metar": "METAR EFTU 151850Z AUTO 05002KT 9999 FEW001 M14/M16 Q1013",
      "taf": "TAF EFTU 151735Z 1518/1618 VRB02KT CAVOK"
    },
    {
      "icao": "EGBB",
      "alert": "OK",
      "vis_m": 9999,
      "fzfg": false,
      "metar_trigger": false,
      "taf_trigger": false,
      "metar": "METAR EGBB 151820Z 24005KT 200V280 9999 FEW031 06/04 Q0993",
      "taf": "TAF EGBB 151704Z 1518/1618 25009KT 9999 FEW030"
    },
    {
      "icao": "EGGP",
      "alert": "OK",
      "vis_m": 9999,
      "fzfg": false,
      "metar_trigger": false,
      "taf_trigger": false,
      "metar": "METAR EGGP 151820Z 26008KT 9999 FEW039 06/03 Q0992",
      "taf": "TAF EGGP 151703Z 1518/1618 26012KT 9999 FEW025"
    },
    {
      "icao": "EGGW",
      "alert": "OK",
      "vis_m": 9999,
      "fzfg": false,
      "metar_trigger": false,
      "taf_trigger": false,
      "metar": "METAR EGGW 151820Z AUTO 22004KT 180V240 9999 SCT038 BKN045 05/04 Q0993",
      "taf": "TAF EGGW 151656Z 1518/1618 25012KT 9999 BKN003"
    },
    {
      "icao": "EGKK",
      "alert": "OK",
      "vis_m": 9999,
      "fzfg": false,
      "metar_trigger": false,
      "taf_trigger": false,
      "metar": "METAR EGKK 151820Z 24010KT 9999 SCT028 08/06 Q0995",
      "taf": "TAF EGKK 151656Z 1518/1624 24008KT 9999 SCT018"
    },
    {
      "icao": "EGNM",
      "alert": "OK",
      "vis_m": 9999,
      "fzfg": false,
      "metar_trigger": false,
      "taf_trigger": false,
      "metar": "METAR EGNM 151820Z 25011KT 9999 FEW016 SCT030 05/04 Q0990",
      "taf": "TAF EGNM 151702Z 1518/1618 26009KT 9999 SCT015"
    },
    {
      "icao": "EGPD",
      "alert": "OK",
      "vis_m": 9999,
      "fzfg": false,
      "metar_trigger": false,
      "taf_trigger": false,
      "metar": "METAR EGPD 151820Z AUTO 22004KT 9999 -RA SCT039 BKN046 04/03 Q0987 TEMPO BKN012",
      "taf": "TAF EGPD 151655Z 1518/1618 17008KT 9999 SCT020"
    },
    {
      "icao": "EGPF",
      "alert": "OK",
      "vis_m": 9999,
      "fzfg": false,
      "metar_trigger": false,
      "taf_trigger": false,
      "metar": "METAR EGPF 151820Z AUTO VRB01KT 9999 -RA OVC013 04/04 Q0988",
      "taf": "TAF EGPF 151701Z 1518/1618 26005KT 9999 FEW015 SCT030"
    },
    {
      "icao": "EHBK",
      "alert": "OK",
      "vis_m": 2600,
      "fzfg": false,
      "metar_trigger": false,
      "taf_trigger": false,
      "metar": "METAR EHBK 151825Z AUTO 15007KT 2600 -SN FEW005/// SCT006/// BKN008/// 00/00 Q1000 RESN BECMG BR",
      "taf": "TAF EHBK 151719Z 1518/1624 16010KT 1000 SN BKN004"
    },
    {
      "icao": "EHEH",
      "alert": "OK",
      "vis_m": 1600,
      "fzfg": false,
      "metar_trigger": false,
      "taf_trigger": false,
      "metar": "METAR EHEH 151825Z AUTO 13007KT 100V210 1600 R21/2200D -SN FEW004 BKN005 BKN006 00/00 Q1000 YLO TEMPO 0800 SN SCT003 BKN005 RMK LVPB TREND REMOTE BY EHWX",
      "taf": "TAF EHEH 151740Z 1518/1624 16010G20KT 2500 -SN SNRA BKN006 OVC008"
    },
    {
      "icao": "EKBI",
      "alert": "OK",
      "vis_m": 9999,
      "fzfg": false,
      "metar_trigger": false,
      "taf_trigger": false,
      "metar": "METAR EKBI 151820Z AUTO 12014KT 9999 FEW015/// BKN120/// OVC170/// M03/M06 Q1007",
      "taf": "TAF EKBI 151727Z 1518/1618 15015KT CAVOK"
    },
    {
      "icao": "EKCH",
      "alert": "OK",
      "vis_m": 9999,
      "fzfg": false,
      "metar_trigger": false,
      "taf_trigger": false,
      "metar": "METAR EKCH 151820Z AUTO 15017KT 9999 BKN032/// M01/M08 Q1013 NOSIG",
      "taf": "TAF EKCH 151727Z 1518/1618 15012KT CAVOK"
    },
    {
      "icao": "ENAL",
      "alert": "OK",
      "vis_m": 9999,
      "fzfg": false,
      "metar_trigger": false,
      "taf_trigger": false,
      "metar": "METAR ENAL 151820Z 18012KT CAVOK 05/M06 Q0993",
      "taf": "TAF ENAL 151700Z 1518/1603 17018KT CAVOK"
    },
    {
      "icao": "ENBR",
      "alert": "OK",
      "vis_m": 9999,
      "fzfg": false,
      "metar_trigger": false,
      "taf_trigger": false,
      "metar": "METAR ENBR 151820Z 15028G39KT 9999 -RASN FEW020 BKN030 02/M03 Q0997 TEMPO 16025KT RMK WIND 1200FT 15035G47KT",
      "taf": "TAF ENBR 151700Z 1518/1618 14022KT 9999 SCT012 BKN030"
    },
    {
      "icao": "ENGM",
      "alert": "OK",
      "vis_m": 6000,
      "fzfg": false,
      "metar_trigger": false,
      "taf_trigger": false,
      "metar": "METAR ENGM 151820Z 06003KT 030V120 6000 -SN SCT008 BKN015 M10/M11 Q1008 TEMPO 2000",
      "taf": ""
    },
    {
      "icao": "ENHD",
      "alert": "OK",
      "vis_m": 9999,
      "fzfg": false,
      "metar_trigger": false,
      "taf_trigger": false,
      "metar": "METAR ENHD 151820Z 15025G37KT 9999 -SHRA FEW025 SCT038 02/M03 Q0998",
      "taf": "TAF ENHD 151400Z 1515/1523 15018KT 9999 SCT008 BKN018"
    },
    {
      "icao": "ENTC",
      "alert": "OK",
      "vis_m": 9999,
      "fzfg": false,
      "metar_trigger": false,
      "taf_trigger": false,
      "metar": "METAR ENTC 151820Z 18011KT 9999 FEW023 BKN030 M02/M06 Q0999 NOSIG RMK WIND 2600FT 18015KT",
      "taf": "TAF ENTC 151700Z 1518/1618 18010KT 9999 BKN030"
    },
    {
      "icao": "ENTO",
      "alert": "OK",
      "vis_m": 7000,
      "fzfg": false,
      "metar_trigger": false,
      "taf_trigger": false,
      "metar": "METAR ENTO 151820Z 17017KT 7000 -SN BKN006 M02/M02 Q1008 NOSIG",
      "taf": "TAF ENTO 151700Z 1518/1618 18015KT 9999 -SN OVC018"
    },
    {
      "icao": "ENVA",
      "alert": "OK",
      "vis_m": 9999,
      "fzfg": false,
      "metar_trigger": false,
      "taf_trigger": false,
      "metar": "METAR ENVA 151820Z 11012KT CAVOK M03/M12 Q1000 RMK WIND 670FT 15021KT",
      "taf": "TAF ENVA 151700Z 1518/1618 08008KT CAVOK"
    },
    {
      "icao": "ENZV",
      "alert": "OK",
      "vis_m": 9999,
      "fzfg": false,
      "metar_trigger": false,
      "taf_trigger": false,
      "metar": "METAR ENZV 151820Z 15021G33KT 9999 VCSH NSC 02/M04 Q1000 TEMPO 16020KT",
      "taf": "TAF ENZV 151700Z 1518/1618 16022KT 9999 SCT035"
    },
    {
      "icao": "EPGD",
      "alert": "OK",
      "vis_m": 9999,
      "fzfg": false,
      "metar_trigger": false,
      "taf_trigger": false,
      "metar": "METAR EPGD 151830Z 09005KT CAVOK M10/M13 Q1016",
      "taf": "TAF EPGD 151730Z 1518/1618 10008KT CAVOK"
    },
    {
      "icao": "EPKK",
      "alert": "OK",
      "vis_m": 9999,
      "fzfg": false,
      "metar_trigger": false,
      "taf_trigger": false,
      "metar": "METAR EPKK 151830Z 35007KT 9999 OVC021 M04/M09 Q1012",
      "taf": "TAF EPKK 151730Z 1518/1618 35007KT 9999 OVC021"
    },
    {
      "icao": "EPKT",
      "alert": "OK",
      "vis_m": 9999,
      "fzfg": false,
      "metar_trigger": false,
      "taf_trigger": false,
      "metar": "METAR EPKT 151830Z 32003KT 9999 -SN OVC019 M06/M10 Q1012",
      "taf": "TAF EPKT 151730Z 1518/1618 35007KT 9999 OVC022"
    },
    {
      "icao": "EPLB",
      "alert": "OK",
      "vis_m": 7000,
      "fzfg": false,
      "metar_trigger": false,
      "taf_trigger": false,
      "metar": "METAR EPLB 151830Z 31006KT 7000 -SN NSC M09/M10 Q1012",
      "taf": "TAF EPLB 151730Z 1518/1618 36010KT 4000 -SN BR SCT010 BKN025"
    },
    {
      "icao": "EPMO",
      "alert": "OK",
      "vis_m": 9999,
      "fzfg": false,
      "metar_trigger": false,
      "taf_trigger": false,
      "metar": "METAR EPMO 151830Z 35004KT CAVOK M09/M11 Q1014",
      "taf": "TAF EPMO 151730Z 1518/1618 01007KT CAVOK"
    },
    {
      "icao": "EPPO",
      "alert": "OK",
      "vis_m": 9999,
      "fzfg": false,
      "metar_trigger": false,
      "taf_trigger": false,
      "metar": "METAR EPPO 151830Z 04004KT CAVOK M06/M09 Q1015",
      "taf": "TAF EPPO 151730Z 1518/1618 06006KT 9999 FEW025"
    },
    {
      "icao": "EPRA",
      "alert": "OK",
      "vis_m": 9999,
      "fzfg": false,
      "metar_trigger": false,
      "taf_trigger": false,
      "metar": "METAR EPRA 151830Z 33008KT 9999 BKN022 M07/M11 Q1013",
      "taf": "TAF EPRA 151730Z 1518/1603 35008KT 9999 BKN023"
    },
    {
      "icao": "EPRZ",
      "alert": "OK",
      "vis_m": 9999,
      "fzfg": false,
      "metar_trigger": false,
      "taf_trigger": false,
      "metar": "METAR EPRZ 151830Z 34009KT 9999 -SN OVC011 M06/M09 Q1011",
      "taf": "TAF EPRZ 151730Z 1518/1618 34010KT 6000 SCT008 BKN016"
    },
    {
      "icao": "EPSC",
      "alert": "OK",
      "vis_m": 9999,
      "fzfg": false,
      "metar_trigger": false,
      "taf_trigger": false,
      "metar": "METAR EPSC 151830Z 10006KT CAVOK M04/M09 Q1014",
      "taf": "TAF EPSC 151730Z 1518/1618 11006KT CAVOK"
    },
    {
      "icao": "EPSY",
      "alert": "OK",
      "vis_m": 9999,
      "fzfg": false,
      "metar_trigger": false,
      "taf_trigger": false,
      "metar": "METAR EPSY 151830Z 01005KT CAVOK M13/M15 Q1015",
      "taf": "TAF EPSY 151730Z 1518/1603 02008KT CAVOK"
    },
    {
      "icao": "EPWA",
      "alert": "OK",
      "vis_m": 9999,
      "fzfg": false,
      "metar_trigger": false,
      "taf_trigger": false,
      "metar": "METAR EPWA 151830Z 04008KT 360V060 CAVOK M07/M13 Q1014 NOSIG",
      "taf": "TAF EPWA 151730Z 1518/1618 01008KT CAVOK"
    },
    {
      "icao": "EPWR",
      "alert": "OK",
      "vis_m": 9999,
      "fzfg": false,
      "metar_trigger": false,
      "taf_trigger": false,
      "metar": "METAR EPWR 151830Z 32003KT 280V340 9999 BKN034 M04/M10 Q1014",
      "taf": "TAF EPWR 151730Z 1518/1618 04006KT 9999 BKN035"
    },
    {
      "icao": "ESGG",
      "alert": "OK",
      "vis_m": 9999,
      "fzfg": false,
      "metar_trigger": false,
      "taf_trigger": false,
      "metar": "METAR ESGG 151820Z 14007KT CAVOK M06/M10 Q1011",
      "taf": "TAF ESGG 151730Z 1518/1618 16010KT CAVOK"
    },
    {
      "icao": "ESKN",
      "alert": "OK",
      "vis_m": 9000,
      "fzfg": false,
      "metar_trigger": false,
      "taf_trigger": false,
      "metar": "METAR ESKN 151820Z 11003KT 9000 NSC M11/M12 Q1015",
      "taf": "TAF ESKN 151730Z 1518/1618 14005KT CAVOK"
    },
    {
      "icao": "ESMS",
      "alert": "OK",
      "vis_m": 9999,
      "fzfg": false,
      "metar_trigger": false,
      "taf_trigger": false,
      "metar": "METAR ESMS 151820Z 13008KT 9999 BKN030 M04/M09 Q1013",
      "taf": "TAF ESMS 151727Z 1518/1618 15008KT CAVOK"
    },
    {
      "icao": "ESSA",
      "alert": "OK",
      "vis_m": 9999,
      "fzfg": false,
      "metar_trigger": false,
      "taf_trigger": false,
      "metar": "METAR ESSA 151820Z 23008KT 9999 OVC013 M06/M09 Q1014 TEMPO BKN012",
      "taf": "TAF ESSA 151730Z 1518/1618 24009KT 9999 BKN016"
    },
    {
      "icao": "EYKA",
      "alert": "OK",
      "vis_m": 9999,
      "fzfg": false,
      "metar_trigger": false,
      "taf_trigger": false,
      "metar": "METAR EYKA 151850Z 34001KT 9999 1200W NSC M17/M19 Q1017",
      "taf": "TAF EYKA 151700Z 1518/1618 VRB04KT 9000 NSC"
    },
    {
      "icao": "EYPA",
      "alert": "OK",
      "vis_m": 9999,
      "fzfg": false,
      "metar_trigger": false,
      "taf_trigger": false,
      "metar": "METAR EYPA 151850Z 10002KT CAVOK M16/M20 Q1018",
      "taf": "TAF EYPA 151700Z 1518/1618 VRB03KT 9000 NSC"
    },
    {
      "icao": "EYVI",
      "alert": "OK",
      "vis_m": 9999,
      "fzfg": false,
      "metar_trigger": false,
      "taf_trigger": false,
      "metar": "METAR EYVI 151850Z 01007KT CAVOK M15/M18 Q1015 NOSIG",
      "taf": "TAF EYVI 151700Z 1518/1618 01007KT 9000 NSC"
    },
    {
      "icao": "GCFV",
      "alert": "OK",
      "vis_m": 9000,
      "fzfg": false,
      "metar_trigger": false,
      "taf_trigger": false,
      "metar": "METAR GCFV 151830Z 02016KT 9000 FEW020 18/14 Q1025",
      "taf": "TAF GCFV 151400Z 1515/1615 03018KT 9999 FEW040 TX24/1614Z TN17/1606Z"
    },
    {
      "icao": "GCLP",
      "alert": "OK",
      "vis_m": 9999,
      "fzfg": false,
      "metar_trigger": false,
      "taf_trigger": false,
      "metar": "METAR GCLP 151830Z 01018KT 9999 SCT025 19/13 Q1025 NOSIG",
      "taf": "TAF GCLP 151400Z 1515/1615 02025KT 9999 SCT035 TX27/1614Z TN16/1606Z"
    },
    {
      "icao": "GCTS",
      "alert": "OK",
      "vis_m": 9999,
      "fzfg": false,
      "metar_trigger": false,
      "taf_trigger": false,
      "metar": "METAR GCTS 151830Z 06023KT 9999 FEW030 19/11 Q1025 WS R07 NOSIG",
      "taf": "TAF GCTS 151400Z 1515/1615 08028KT 9999 FEW035 TX28/1614Z TN18/1606Z"
    },
    {
      "icao": "GMAD",
      "alert": "OK",
      "vis_m": 9999,
      "fzfg": false,
      "metar_trigger": false,
      "taf_trigger": false,
      "metar": "METAR GMAD 151830Z 21008KT CAVOK 18/09 Q1024 NOSIG",
      "taf": "TAF GMAD 151700Z 1518/1624 20008KT 8000 NSC"
    },
    {
      "icao": "GMMN",
      "alert": "OK",
      "vis_m": 9999,
      "fzfg": false,
      "metar_trigger": false,
      "taf_trigger": false,
      "metar": "METAR GMMN 151830Z 02009KT CAVOK 12/09 Q1031 NOSIG",
      "taf": "TAF GMMN 151100Z 1512/1618 06009KT CAVOK"
    },
    {
      "icao": "GMMX",
      "alert": "OK",
      "vis_m": 9999,
      "fzfg": false,
      "metar_trigger": false,
      "taf_trigger": false,
      "metar": "METAR GMMX 151830Z 09006KT CAVOK 14/04 Q1029 NOSIG",
      "taf": "TAF GMMX 151700Z 1518/1624 24008KT 8000 NSC"
    },
    {
      "icao": "HEGN",
      "alert": "OK",
      "vis_m": 9999,
      "fzfg": false,
      "metar_trigger": false,
      "taf_trigger": false,
      "metar": "METAR HEGN 151800Z 30005KT CAVOK 21/09 Q1016 NOSIG",
      "taf": "TAF HEGN 151700Z 1518/1624 32012KT CAVOK"
    },
    {
      "icao": "HEMA",
      "alert": "OK",
      "vis_m": 9999,
      "fzfg": false,
      "metar_trigger": false,
      "taf_trigger": false,
      "metar": "METAR HEMA 151800Z 31010KT CAVOK 21/01 Q1015 NOSIG",
      "taf": "TAF HEMA 151700Z 1518/1624 30012KT CAVOK"
    },
    {
      "icao": "HESH",
      "alert": "OK",
      "vis_m": 9999,
      "fzfg": false,
      "metar_trigger": false,
      "taf_trigger": false,
      "metar": "METAR HESH 151800Z 31004KT CAVOK 21/05 Q1016 NOSIG",
      "taf": "TAF HESH 151700Z 1518/1624 36012KT CAVOK"
    },
    {
      "icao": "HESX",
      "alert": "OK",
      "vis_m": 9999,
      "fzfg": false,
      "metar_trigger": false,
      "taf_trigger": false,
      "metar": "METAR HESX 151800Z 03006KT CAVOK 21/06 Q1015 NOSIG",
      "taf": "TAF HESX 151700Z 1518/1624 15005KT 6000 NSC"
    },
    {
      "icao": "LATI",
      "alert": "OK",
      "vis_m": 6000,
      "fzfg": false,
      "metar_trigger": false,
      "taf_trigger": false,
      "metar": "METAR LATI 151850Z 11007KT 080V140 6000 -RA SCT025 OVC040 11/08 Q1003 NOSIG",
      "taf": "TAF LATI 151700Z 1518/1618 VRB05KT 9999 RA SCT025 OVC040 TX15/1612Z TN08/1605Z"
    },
    {
      "icao": "LBPD",
      "alert": "OK",
      "vis_m": 9999,
      "fzfg": false,
      "metar_trigger": false,
      "taf_trigger": false,
      "metar": "METAR LBPD 151830Z AUTO 05003KT 340V120 9999 -RA FEW053/// BKN065/// OVC085/// 13/// Q1001 TEMPO 5000 RA SCT020 OVC033",
      "taf": "TAF LBPD 151700Z 1518/1618 25016KT 9999 SCT030 BKN050"
    },
    {
      "icao": "LBSF",
      "alert": "OK",
      "vis_m": 9999,
      "fzfg": false,
      "metar_trigger": false,
      "taf_trigger": false,
      "metar": "METAR LBSF 151830Z AUTO 29013KT 9999 FEW013/// BKN031/// OVC036/// 07/04 Q1002 TEMPO RA",
      "taf": "TAF LBSF 151700Z 1518/1618 29014KT 9999 BKN050"
    },
    {
      "icao": "LBWN",
      "alert": "OK",
      "vis_m": 9999,
      "fzfg": false,
      "metar_trigger": false,
      "taf_trigger": false,
      "metar": "METAR LBWN 151830Z AUTO 30004KT 9999 NSC 09/09 Q0999 NOSIG",
      "taf": "TAF LBWN 151700Z 1518/1618 10010KT 9999 BKN040"
    },
    {
      "icao": "LCLK",
      "alert": "OK",
      "vis_m": 9999,
      "fzfg": false,
      "metar_trigger": false,
      "taf_trigger": false,
      "metar": "METAR LCLK 151830Z 07009KT CAVOK 15/14 Q1020 NOSIG",
      "taf": "TAF LCLK 151730Z 1518/1618 06010KT 9999 FEW025"
    },
    {
      "icao": "LCPH",
      "alert": "OK",
      "vis_m": 9999,
      "fzfg": false,
      "metar_trigger": false,
      "taf_trigger": false,
      "metar": "METAR LCPH 151830Z 09009KT 9999 FEW030 15/11 Q1018 NOSIG",
      "taf": "TAF LCPH 151730Z 1518/1618 14010KT 9999 FEW020"
    },
    {
      "icao": "LEAL",
      "alert": "OK",
      "vis_m": 9999,
      "fzfg": false,
      "metar_trigger": false,
      "taf_trigger": false,
      "metar": "METAR LEAL 151830Z 29014KT 260V320 CAVOK 18/02 Q1021 NOSIG",
      "taf": "TAF LEAL 151700Z 1518/1618 29012KT CAVOK TX22/1613Z TN13/1606Z"
    },
    {
      "icao": "LEBB",
      "alert": "OK",
      "vis_m": 9999,
      "fzfg": false,
      "metar_trigger": false,
      "taf_trigger": false,
      "metar": "METAR LEBB 151830Z 04003KT 320V090 9999 -RA OVC050 12/10 Q1020 NOSIG",
      "taf": "TAF LEBB 151700Z 1518/1618 20008KT 9999 FEW030 BKN050 TX15/1518Z TN10/1520Z"
    },
    {
      "icao": "LEBL",
      "alert": "OK",
      "vis_m": 9999,
      "fzfg": false,
      "metar_trigger": false,
      "taf_trigger": false,
      "metar": "METAR LEBL 151830Z 33001KT CAVOK 14/07 Q1016 NOSIG",
      "taf": "TAF LEBL 151700Z 1518/1618 22009KT 9999 FEW035 TX21/1613Z TN13/1606Z"
    },
    {
      "icao": "LECH",
      "alert": "OK",
      "vis_m": 9999,
      "fzfg": false,
      "metar_trigger": false,
      "taf_trigger": false,
      "metar": "METAR LECH 151830Z AUTO VRB02KT CAVOK 12/03 Q1018",
      "taf": ""
    },
    {
      "icao": "LEMD",
      "alert": "OK",
      "vis_m": 9999,
      "fzfg": false,
      "metar_trigger": false,
      "taf_trigger": false,
      "metar": "METAR LEMD 151830Z 24013KT CAVOK 11/03 Q1024 NOSIG",
      "taf": ""
    },
    {
      "icao": "LEMG",
      "alert": "OK",
      "vis_m": 9999,
      "fzfg": false,
      "metar_trigger": false,
      "taf_trigger": false,
      "metar": "METAR LEMG 151830Z 30014KT CAVOK 13/07 Q1027 NOSIG",
      "taf": "TAF LEMG 151700Z 1518/1618 30012KT CAVOK TX19/1614Z TN12/1607Z"
    },
    {
      "icao": "LEVC",
      "alert": "OK",
      "vis_m": 9999,
      "fzfg": false,
      "metar_trigger": false,
      "taf_trigger": false,
      "metar": "METAR LEVC 151830Z 24011KT CAVOK 16/04 Q1020 NOSIG",
      "taf": "TAF LEVC 151700Z 1518/1618 27014KT CAVOK TX23/1614Z TN13/1606Z"
    },
    {
      "icao": "LEXJ",
      "alert": "OK",
      "vis_m": 9999,
      "fzfg": false,
      "metar_trigger": false,
      "taf_trigger": false,
      "metar": "METAR LEXJ 151830Z 27008KT 9999 -RA FEW030 BKN060 15/08 Q1019",
      "taf": "TAF LEXJ 151400Z 1515/1615 24009KT 9999 SCT050 BKN070 TX16/1515Z TN11/1601Z"
    },
    {
      "icao": "LEZG",
      "alert": "OK",
      "vis_m": 9999,
      "fzfg": false,
      "metar_trigger": false,
      "taf_trigger": false,
      "metar": "METAR LEZG 151830Z 27009KT CAVOK 10/06 Q1020 NOSIG",
      "taf": "TAF LEZG 151700Z 1518/1618 27012KT CAVOK TX17/1612Z TN11/1606Z"
    },
    {
      "icao": "LEZL",
      "alert": "OK",
      "vis_m": 9999,
      "fzfg": false,
      "metar_trigger": false,
      "taf_trigger": false,
      "metar": "METAR LEZL 151830Z 30007KT CAVOK 15/09 Q1030 NOSIG",
      "taf": "TAF LEZL 151400Z 1515/1615 30008KT CAVOK TX18/1515Z TN06/1607Z"
    },
    {
      "icao": "LFBD",
      "alert": "OK",
      "vis_m": 4100,
      "fzfg": false,
      "metar_trigger": false,
      "taf_trigger": false,
      "metar": "METAR LFBD 151830Z AUTO 28020KT 4100 -DZ BR OVC007 13/12 Q1014 TEMPO 27018G30KT RA",
      "taf": "TAF LFBD 151700Z 1518/1624 27015KT 9999 BKN012 TX14/1614Z TN10/1621Z"
    },
    {
      "icao": "LFLL",
      "alert": "OK",
      "vis_m": 7000,
      "fzfg": false,
      "metar_trigger": false,
      "taf_trigger": false,
      "metar": "METAR LFLL 151830Z 16006KT 140V200 7000 -RA BKN043 04/03 Q1009 NOSIG",
      "taf": "TAF LFLL 151700Z 1518/1624 16010KT 9999 OVC040"
    },
    {
      "icao": "LFLS",
      "alert": "OK",
      "vis_m": 7000,
      "fzfg": false,
      "metar_trigger": false,
      "taf_trigger": false,
      "metar": "METAR LFLS 151830Z AUTO 07011KT 7000 RA BKN042/// BKN050/// OVC060/// ///TCU 03/02 Q1010 TEMPO 4000 RA BKN030",
      "taf": ""
    },
    {
      "icao": "LFMN",
      "alert": "OK",
      "vis_m": 9999,
      "fzfg": false,
      "metar_trigger": false,
      "taf_trigger": false,
      "metar": "METAR LFMN 151830Z 01004KT 310V030 CAVOK 11/06 Q1006 NOSIG",
      "taf": "TAF LFMN 151400Z 1515/1621 20008KT CAVOK"
    },
    {
      "icao": "LFOB",
      "alert": "OK",
      "vis_m": 7000,
      "fzfg": false,
      "metar_trigger": false,
      "taf_trigger": false,
      "metar": "METAR LFOB 151830Z AUTO VRB03KT 7000 -RA FEW006/// OVC031/// ///TCU 04/04 Q0999 TEMPO 27018G30KT 4000 SHRA BKN014 BKN020TCU",
      "taf": "TAF LFOB 151700Z 1518/1618 17012KT 9999 BKN006 OVC012"
    },
    {
      "icao": "LFPO",
      "alert": "OK",
      "vis_m": 9999,
      "fzfg": false,
      "metar_trigger": false,
      "taf_trigger": false,
      "metar": "METAR LFPO 151830Z 25008KT 9999 BKN016 BKN025 08/08 Q1000 TEMPO 4000 -SHRA BKN020TCU",
      "taf": "TAF LFPO 151700Z 1518/1624 25010KT 6000 BKN012"
    },
    {
      "icao": "LFSB",
      "alert": "OK",
      "vis_m": 9999,
      "fzfg": false,
      "metar_trigger": false,
      "taf_trigger": false,
      "metar": "METAR LFSB 151830Z AUTO 18004KT 090V250 9999 -RA BKN034/// BKN040/// OVC046/// ///CB 05/01 Q1005 TEMPO 4000 RA BECMG OVC050",
      "taf": "TAF LFSB 151700Z 1518/1618 12008KT 9999 OVC050"
    },
    {
      "icao": "LGAV",
      "alert": "OK",
      "vis_m": 9999,
      "fzfg": false,
      "metar_trigger": false,
      "taf_trigger": false,
      "metar": "METAR LGAV 151820Z VRB03KT 9999 FEW020 14/08 Q1006 NOSIG",
      "taf": "TAF LGAV 151700Z 1518/1618 21012KT 9000 FEW015 SCT025"
    },
    {
      "icao": "LGTS",
      "alert": "OK",
      "vis_m": 9999,
      "fzfg": false,
      "metar_trigger": false,
      "taf_trigger": false,
      "metar": "METAR LGTS 151750Z 20010KT 9999 FEW020 15/08 Q1001 NOSIG",
      "taf": "TAF LGTS 151700Z 1518/1618 20013KT 9999 FEW025"
    },
    {
      "icao": "LHBP",
      "alert": "OK",
      "vis_m": 9999,
      "fzfg": false,
      "metar_trigger": false,
      "taf_trigger": false,
      "metar": "METAR LHBP 151830Z 31013KT 9999 BKN037 M00/M05 Q1008 NOSIG",
      "taf": "TAF LHBP 151715Z 1518/1618 31011KT CAVOK"
    },
    {
      "icao": "LHDC",
      "alert": "OK",
      "vis_m": 9999,
      "fzfg": false,
      "metar_trigger": false,
      "taf_trigger": false,
      "metar": "METAR LHDC 151815Z AUTO 36016KT 320V030 CAVOK M01/M06 Q1006 NOSIG",
      "taf": "TAF LHDC 151715Z 1518/1603 36018G30KT CAVOK"
    },
    {
      "icao": "LIBD",
      "alert": "OK",
      "vis_m": 9999,
      "fzfg": false,
      "metar_trigger": false,
      "taf_trigger": false,
      "metar": "METAR LIBD 151820Z 29009KT 250V310 9999 BKN045 10/06 Q1005",
      "taf": "TAF LIBD 151700Z 1518/1618 27010KT 9999 FEW030"
    },
    {
      "icao": "LIBG",
      "alert": "OK",
      "vis_m": 9999,
      "fzfg": false,
      "metar_trigger": false,
      "taf_trigger": false,
      "metar": "METAR LIBG 151750Z 30006KT 270V330 CAVOK 11/07 Q1004",
      "taf": "TAF LIBG 151700Z 1518/1603 29010KT 9999 FEW040"
    },
    {
      "icao": "LIBP",
      "alert": "OK",
      "vis_m": 9999,
      "fzfg": false,
      "metar_trigger": false,
      "taf_trigger": false,
      "metar": "METAR LIBP 151820Z AUTO 29003KT 260V330 9999 OVC083/// 10/04 Q1009",
      "taf": "TAF LIBP 151700Z 1518/1618 VRB05KT 9999 FEW030 SCT060"
    },
    {
      "icao": "LIBR",
      "alert": "OK",
      "vis_m": 9999,
      "fzfg": false,
      "metar_trigger": false,
      "taf_trigger": false,
      "metar": "METAR LIBR 151820Z 30018G28KT 9999 BKN030 11/08 Q1004",
      "taf": ""
    },
    {
      "icao": "LICA",
      "alert": "OK",
      "vis_m": 9999,
      "fzfg": false,
      "metar_trigger": false,
      "taf_trigger": false,
      "metar": "METAR LICA 151820Z AUTO 28012KT 9999 BKN070/// BKN130/// 13/11 Q1006",
      "taf": "TAF LICA 151700Z 1518/1618 28008KT 9999 OVC060"
    },
    {
      "icao": "LICC",
      "alert": "OK",
      "vis_m": 9999,
      "fzfg": false,
      "metar_trigger": false,
      "taf_trigger": false,
      "metar": "METAR LICC 151820Z 29009KT 9999 FEW030 BKN090 14/11 Q1006",
      "taf": "TAF LICC 151700Z 1518/1618 27006KT 9999 SCT020"
    },
    {
      "icao": "LICJ",
      "alert": "OK",
      "vis_m": 9999,
      "fzfg": false,
      "metar_trigger": false,
      "taf_trigger": false,
      "metar": "METAR LICJ 151820Z 30009KT 9999 SCT020 SCT030 15/12 Q1009",
      "taf": "TAF LICJ 151700Z 1518/1618 31016KT 9999 SCT030"
    },
    {
      "icao": "LIMC",
      "alert": "OK",
      "vis_m": 9999,
      "fzfg": false,
      "metar_trigger": false,
      "taf_trigger": false,
      "metar": "METAR LIMC 151820Z 29006KT 260V340 CAVOK 11/M03 Q1006 NOSIG",
      "taf": "TAF LIMC 151700Z 1518/1624 VRB06KT CAVOK"
    },
    {
      "icao": "LIME",
      "alert": "OK",
      "vis_m": 9999,
      "fzfg": false,
      "metar_trigger": false,
      "taf_trigger": false,
      "metar": "METAR LIME 151820Z 01005KT CAVOK 09/02 Q1006 NOSIG",
      "taf": "TAF LIME 151700Z 1518/1618 VRB05KT CAVOK"
    },
    {
      "icao": "LIMF",
      "alert": "OK",
      "vis_m": null,
      "fzfg": false,
      "metar_trigger": false,
      "taf_trigger": false,
      "metar": "METAR LIMF 151820Z AUTO 29004KT //// // NCD 09/M00 Q1006",
      "taf": ""
    },
    {
      "icao": "LIMJ",
      "alert": "OK",
      "vis_m": 9999,
      "fzfg": false,
      "metar_trigger": false,
      "taf_trigger": false,
      "metar": "METAR LIMJ 151820Z VRB02KT CAVOK 13/06 Q1007",
      "taf": "TAF LIMJ 151700Z 1518/1618 VRB05KT CAVOK"
    },
    {
      "icao": "LIPE",
      "alert": "OK",
      "vis_m": 9999,
      "fzfg": false,
      "metar_trigger": false,
      "taf_trigger": false,
      "metar": "METAR LIPE 151820Z 15004KT CAVOK 09/03 Q1007",
      "taf": "TAF LIPE 151700Z 1518/1618 VRB05KT 9999 FEW060"
    },
    {
      "icao": "LIPH",
      "alert": "OK",
      "vis_m": 9999,
      "fzfg": false,
      "metar_trigger": false,
      "taf_trigger": false,
      "metar": "METAR LIPH 151820Z 08003KT CAVOK 09/04 Q1008",
      "taf": "TAF LIPH 151700Z 1518/1618 04006KT 9999 FEW020 SCT060"
    },
    {
      "icao": "LIPQ",
      "alert": "OK",
      "vis_m": 9999,
      "fzfg": false,
      "metar_trigger": false,
      "taf_trigger": false,
      "metar": "METAR LIPQ 151820Z AUTO 13011KT 9999 FEW075/// 09/M01 Q1008",
      "taf": "TAF LIPQ 151700Z 1518/1618 VRB05KT 9999 FEW060"
    },
    {
      "icao": "LIPR",
      "alert": "OK",
      "vis_m": 9999,
      "fzfg": false,
      "metar_trigger": false,
      "taf_trigger": false,
      "metar": "METAR LIPR 151820Z 15002KT CAVOK 06/05 Q1008",
      "taf": "TAF LIPR 151700Z 1518/1618 VRB05KT CAVOK"
    },
    {
      "icao": "LIPX",
      "alert": "OK",
      "vis_m": 9999,
      "fzfg": false,
      "metar_trigger": false,
      "taf_trigger": false,
      "metar": "METAR LIPX 151820Z 34005KT CAVOK 09/02 Q1007",
      "taf": "TAF LIPX 151700Z 1518/1618 VRB05KT CAVOK"
    },
    {
      "icao": "LIPY",
      "alert": "OK",
      "vis_m": 9999,
      "fzfg": false,
      "metar_trigger": false,
      "taf_trigger": false,
      "metar": "METAR LIPY 151820Z AUTO 18003KT 9999 BKN042/// 09/08 Q1008",
      "taf": "TAF LIPY 151700Z 1518/1618 VRB05KT 9999 FEW020"
    },
    {
      "icao": "LIPZ",
      "alert": "OK",
      "vis_m": 9999,
      "fzfg": false,
      "metar_trigger": false,
      "taf_trigger": false,
      "metar": "METAR LIPZ 151820Z 12004KT 9999 FEW050 09/06 Q1007 NOSIG",
      "taf": "TAF LIPZ 151700Z 1518/1624 VRB05KT 9999 FEW060"
    },
    {
      "icao": "LIRF",
      "alert": "OK",
      "vis_m": 9999,
      "fzfg": false,
      "metar_trigger": false,
      "taf_trigger": false,
      "metar": "METAR LIRF 151820Z 33006KT CAVOK 10/06 Q1007 NOSIG",
      "taf": "TAF LIRF 151700Z 1518/1624 35010KT CAVOK"
    },
    {
      "icao": "LIRN",
      "alert": "OK",
      "vis_m": 9999,
      "fzfg": false,
      "metar_trigger": false,
      "taf_trigger": false,
      "metar": "METAR LIRN 151820Z 36005KT 260V030 9999 SCT080 13/06 Q1006 NOSIG",
      "taf": "TAF LIRN 151700Z 1518/1618 VRB06KT 9999 BKN080"
    },
    {
      "icao": "LIRP",
      "alert": "OK",
      "vis_m": 9999,
      "fzfg": false,
      "metar_trigger": false,
      "taf_trigger": false,
      "metar": "METAR LIRP 151815Z 24004KT CAVOK 10/08 Q1008 NOSIG",
      "taf": "TAF LIRP 151700Z 1518/1618 26005KT 9999 FEW040"
    },
    {
      "icao": "LIRZ",
      "alert": "OK",
      "vis_m": 9999,
      "fzfg": false,
      "metar_trigger": false,
      "taf_trigger": false,
      "metar": "METAR LIRZ 151820Z AUTO 04006KT 9999 NCD 05/04 Q1008",
      "taf": "TAF LIRZ 151700Z 1518/1618 02010KT 9999 BKN030"
    },
    {
      "icao": "LJLJ",
      "alert": "OK",
      "vis_m": 9999,
      "fzfg": false,
      "metar_trigger": false,
      "taf_trigger": false,
      "metar": "METAR LJLJ 151830Z 10002KT 9999 FEW050 01/M02 Q1010 NOSIG",
      "taf": "TAF LJLJ 151700Z 1518/1618 02006KT 9999 FEW065"
    },
    {
      "icao": "LKMT",
      "alert": "OK",
      "vis_m": 9999,
      "fzfg": false,
      "metar_trigger": false,
      "taf_trigger": false,
      "metar": "METAR LKMT 151830Z 02008KT 9999 OVC029 M05/M09 Q1013 NOSIG",
      "taf": "TAF LKMT 151700Z 1518/1618 01012KT 9999 BKN025"
    },
    {
      "icao": "LKPR",
      "alert": "OK",
      "vis_m": 9999,
      "fzfg": false,
      "metar_trigger": false,
      "taf_trigger": false,
      "metar": "METAR LKPR 151830Z 09005KT 9999 FEW035 M05/M09 Q1011 NOSIG",
      "taf": "TAF LKPR 151700Z 1518/1624 14007KT CAVOK"
    },
    {
      "icao": "LLBG",
      "alert": "OK",
      "vis_m": 9000,
      "fzfg": false,
      "metar_trigger": false,
      "taf_trigger": false,
      "metar": "METAR LLBG 151850Z VRB02KT 9000 NSC 15/09 Q1017 NOSIG",
      "taf": "TAF LLBG 151716Z 1518/1618 VRB04KT CAVOK"
    },
    {
      "icao": "LMML",
      "alert": "OK",
      "vis_m": 9999,
      "fzfg": false,
      "metar_trigger": false,
      "taf_trigger": false,
      "metar": "METAR LMML 151845Z 29021KT 9999 FEW016 14/11 Q1010 NOSIG",
      "taf": "TAF LMML 151700Z 1518/1618 29020G30KT 9999 SCT020"
    },
    {
      "icao": "LOWW",
      "alert": "OK",
      "vis_m": 9999,
      "fzfg": false,
      "metar_trigger": false,
      "taf_trigger": false,
      "metar": "METAR LOWW 151820Z 34012KT 9999 FEW032 BKN035 M01/M08 Q1013 NOSIG",
      "taf": "TAF LOWW 151715Z 1518/1624 35011KT 9999 FEW030 BKN035 TXM01/1615Z TNM06/1601Z"
    },
    {
      "icao": "LPFR",
      "alert": "OK",
      "vis_m": 9999,
      "fzfg": false,
      "metar_trigger": false,
      "taf_trigger": false,
      "metar": "METAR LPFR 151830Z 29008KT 9999 FEW030 15/10 Q1031",
      "taf": "TAF LPFR 151700Z 1518/1618 27010KT 9999 SCT025"
    },
    {
      "icao": "LPMA",
      "alert": "OK",
      "vis_m": 9999,
      "fzfg": false,
      "metar_trigger": false,
      "taf_trigger": false,
      "metar": "METAR LPMA 151830Z 02014KT 340V040 9999 FEW016 16/10 Q1031",
      "taf": "TAF LPMA 151700Z 1518/1618 02015KT 9999 SCT015"
    },
    {
      "icao": "LPPR",
      "alert": "OK",
      "vis_m": 9999,
      "fzfg": false,
      "metar_trigger": false,
      "taf_trigger": false,
      "metar": "METAR LPPR 151830Z 22008KT 190V250 9999 FEW012 BKN040 13/12 Q1028",
      "taf": "TAF LPPR 151700Z 1518/1618 22010KT 9999 SCT012 BKN025"
    },
    {
      "icao": "LPPS",
      "alert": "OK",
      "vis_m": 9999,
      "fzfg": false,
      "metar_trigger": false,
      "taf_trigger": false,
      "metar": "METAR LPPS 151830Z 09009KT 060V120 9999 FEW015 16/12 Q1031",
      "taf": "TAF LPPS 151700Z 1518/1624 06012KT 9999 SCT015"
    },
    {
      "icao": "LPPT",
      "alert": "OK",
      "vis_m": 9999,
      "fzfg": false,
      "metar_trigger": false,
      "taf_trigger": false,
      "metar": "METAR LPPT 151830Z 27006KT 9999 FEW014 BKN040 13/10 Q1031",
      "taf": "TAF LPPT 151700Z 1518/1624 29012KT 9999 SCT025"
    },
    {
      "icao": "LQBK",
      "alert": "OK",
      "vis_m": 9999,
      "fzfg": false,
      "metar_trigger": false,
      "taf_trigger": false,
      "metar": "METAR LQBK 151830Z 28005KT CAVOK 02/M02 Q1012 NOSIG",
      "taf": "TAF LQBK 151700Z 1518/1618 26005KT CAVOK TX06/1613Z TNM05/1606Z"
    },
    {
      "icao": "LQSA",
      "alert": "OK",
      "vis_m": 9999,
      "fzfg": false,
      "metar_trigger": false,
      "taf_trigger": false,
      "metar": "METAR LQSA 151830Z 31005KT 9999 FEW018 OVC024 01/M01 Q1009 NOSIG",
      "taf": "TAF LQSA 151700Z 1518/1618 31005KT 9999 SCT020 BKN030 TX08/1614Z TNM04/1605Z"
    },
    {
      "icao": "LQTZ",
      "alert": "OK",
      "vis_m": 6000,
      "fzfg": false,
      "metar_trigger": false,
      "taf_trigger": false,
      "metar": "METAR LQTZ 151830Z 29005KT 6000 -SN FEW004 BKN014 OVC021 00/00 Q1011",
      "taf": "TAF LQTZ 151700Z 1518/1618 27005KT 9999 FEW010 BKN020 TX05/1613Z TNM06/1605Z"
    },
    {
      "icao": "LRBC",
      "alert": "OK",
      "vis_m": 9999,
      "fzfg": false,
      "metar_trigger": false,
      "taf_trigger": false,
      "metar": "METAR LRBC 151830Z 35019KT 9999 FEW015 OVC030 01/M01 Q1001",
      "taf": "TAF LRBC 151700Z 1518/1603 34016KT 5000 -SN BR BKN010 OVC020"
    },
    {
      "icao": "LRBS",
      "alert": "OK",
      "vis_m": 5000,
      "fzfg": false,
      "metar_trigger": false,
      "taf_trigger": false,
      "metar": "METAR LRBS 151830Z 21011KT 5000 -RA BR SCT002 BKN005 OVC008 10/10 Q0996 NOSIG",
      "taf": "TAF LRBS 151700Z 1518/1618 VRB04KT 0600 -RA FG BKN001"
    },
    {
      "icao": "LRBV",
      "alert": "OK",
      "vis_m": 7000,
      "fzfg": false,
      "metar_trigger": false,
      "taf_trigger": false,
      "metar": "METAR LRBV 151830Z 29011KT 260V320 7000 RA FEW016 SCT021 OVC027 06/04 Q0996",
      "taf": "TAF LRBV 151700Z 1518/1603 28010KT 9999 SCT010 BKN050"
    },
    {
      "icao": "LRCL",
      "alert": "OK",
      "vis_m": 9999,
      "fzfg": false,
      "metar_trigger": false,
      "taf_trigger": false,
      "metar": "METAR LRCL 151830Z 26012KT 230V290 9999 -RA BKN011 OVC024 02/M00 Q1000",
      "taf": "TAF LRCL 151700Z 1518/1603 29015KT 9999 BKN010 OVC025"
    },
    {
      "icao": "LRCV",
      "alert": "OK",
      "vis_m": 9999,
      "fzfg": false,
      "metar_trigger": false,
      "taf_trigger": false,
      "metar": "METAR LRCV 151830Z 26019KT 9999 BKN006 BKN009 OVC025 07/07 Q0999",
      "taf": "TAF LRCV 151700Z 1518/1603 26017KT 3000 -RA BR OVC001"
    },
    {
      "icao": "LRIA",
      "alert": "OK",
      "vis_m": 8000,
      "fzfg": false,
      "metar_trigger": false,
      "taf_trigger": false,
      "metar": "METAR LRIA 151830Z 30017KT 8000 -SN OVC005 00/M01 Q1000",
      "taf": "TAF LRIA 151700Z 1518/1603 31012KT 5000 -RA BR OVC005"
    },
    {
      "icao": "LROP",
      "alert": "OK",
      "vis_m": 4100,
      "fzfg": false,
      "metar_trigger": false,
      "taf_trigger": false,
      "metar": "METAR LROP 151830Z 21010KT 4100 -RA BKN003 OVC005 10/10 Q0996 RERA BECMG 5000",
      "taf": "TAF LROP 151700Z 1518/1618 VRB04KT 0600 -RA FG BKN001"
    },
    {
      "icao": "LRSB",
      "alert": "OK",
      "vis_m": 9000,
      "fzfg": false,
      "metar_trigger": false,
      "taf_trigger": false,
      "metar": "METAR LRSB 151830Z 31006KT 9000 -DZRA SCT006 BKN010 OVC014 06/05 Q0999",
      "taf": "TAF LRSB 151700Z 1518/1618 30010KT 5000 -RA BR BKN005 OVC010"
    },
    {
      "icao": "LRSM",
      "alert": "OK",
      "vis_m": 9999,
      "fzfg": false,
      "metar_trigger": false,
      "taf_trigger": false,
      "metar": "METAR LRSM 151830Z AUTO 34013KT 9999 BKN031/// OVC036/// 01/M03 Q1003 RESN",
      "taf": ""
    },
    {
      "icao": "LRSV",
      "alert": "OK",
      "vis_m": 5000,
      "fzfg": false,
      "metar_trigger": false,
      "taf_trigger": false,
      "metar": "METAR LRSV 151830Z 31023G33KT 5000 -SN BR BKN010 BKN040 M03/M04 Q1001",
      "taf": ""
    },
    {
      "icao": "LRTM",
      "alert": "OK",
      "vis_m": 9999,
      "fzfg": false,
      "metar_trigger": false,
      "taf_trigger": false,
      "metar": "METAR LRTM 151830Z AUTO 29011KT 260V320 9999 -RA BKN008/// 04/02 Q0999",
      "taf": "TAF LRTM 151700Z 1518/1603 26005KT 9999 BKN010 OVC025"
    },
    {
      "icao": "LRTR",
      "alert": "OK",
      "vis_m": 9999,
      "fzfg": false,
      "metar_trigger": false,
      "taf_trigger": false,
      "metar": "METAR LRTR 151830Z 34014KT 9999 -SN FEW008 SCT013 OVC023 01/M01 Q1006",
      "taf": "TAF LRTR 151700Z 1518/1618 34014KT 9999 BKN007 BKN030"
    },
    {
      "icao": "LTAC",
      "alert": "OK",
      "vis_m": 9999,
      "fzfg": false,
      "metar_trigger": false,
      "taf_trigger": false,
      "metar": "METAR LTAC 151820Z 11004KT 060V150 CAVOK 12/05 Q1014 NOSIG RMK RWY21C 15006KT RWY03L 12005KT 080V150 RWY21R 14007KT RWY03R 06004KT 030V130 RWY21L VRB02KT",
      "taf": "TAF LTAC 151640Z 1518/1618 VRB02KT CAVOK"
    },
    {
      "icao": "LTFM",
      "alert": "OK",
      "vis_m": 9999,
      "fzfg": false,
      "metar_trigger": false,
      "taf_trigger": false,
      "metar": "METAR LTFM 151820Z 22017KT 9999 FEW040 BKN100 18/06 Q1003 NOSIG RMK RWY17L 22021KT RWY34L 21015KT RWY16R 22017KT RWY36 22017KT RWY18 23020G30KT",
      "taf": "TAF LTFM 151640Z 1518/1624 22023G35KT 9999 SCT040 BKN100"
    },
    {
      "icao": "LUKK",
      "alert": "OK",
      "vis_m": 9000,
      "fzfg": false,
      "metar_trigger": false,
      "taf_trigger": false,
      "metar": "METAR LUKK 151830Z 33007KT 9000 -RA SCT006 OVC017 04/04 Q0998 NOSIG",
      "taf": "TAF LUKK 151723Z 1518/1618 32014KT 3000 -RA BR BKN003"
    },
    {
      "icao": "LWOH",
      "alert": "OK",
      "vis_m": 9999,
      "fzfg": false,
      "metar_trigger": false,
      "taf_trigger": false,
      "metar": "METAR LWOH 151850Z VRB02KT 9999 FEW015 BKN037 06/05 Q1003",
      "taf": "TAF LWOH 151745Z 1518/1618 24010KT 9999 FEW020 BKN040"
    },
    {
      "icao": "LWSK",
      "alert": "OK",
      "vis_m": 9999,
      "fzfg": false,
      "metar_trigger": false,
      "taf_trigger": false,
      "metar": "METAR LWSK 151820Z 04011KT 9999 DZ BKN050 OVC080 11/07 Q1002 NOSIG",
      "taf": "TAF LWSK 151745Z 1518/1618 02010KT 9999 SCT060 BKN080"
    },
    {
      "icao": "LYBE",
      "alert": "OK",
      "vis_m": 7000,
      "fzfg": false,
      "metar_trigger": false,
      "taf_trigger": false,
      "metar": "METAR LYBE 151830Z 29014KT 7000 -SN SCT008 BKN020 01/M00 Q1010 TEMPO 4000 SN BKN008 BKN020",
      "taf": "TAF LYBE 151700Z 1518/1618 28010KT 4000 SN BKN003 OVC025 TX07/1613Z TNM03/1606Z"
    },
    {
      "icao": "LYNI",
      "alert": "OK",
      "vis_m": 9999,
      "fzfg": false,
      "metar_trigger": false,
      "taf_trigger": false,
      "metar": "METAR LYNI 151830Z 32011KT 280V340 9999 -DZ SCT009 BKN015 OVC027 02/02 Q1007 NOSIG",
      "taf": "TAF LYNI 151700Z 1518/1618 33020G30KT 9999 SCT010 BKN040 TX08/1613Z TN01/1606Z"
    },
    {
      "icao": "LYPG",
      "alert": "OK",
      "vis_m": 9999,
      "fzfg": false,
      "metar_trigger": false,
      "taf_trigger": false,
      "metar": "METAR LYPG 151830Z 34011KT 9999 SCT040 BKN080 10/06 Q1004 NOSIG",
      "taf": "TAF LYPG 151700Z 1518/1618 36009KT 9999 SCT040 BKN080 TX13/1612Z TN07/1605Z"
    },
    {
      "icao": "LZIB",
      "alert": "OK",
      "vis_m": 9999,
      "fzfg": false,
      "metar_trigger": false,
      "taf_trigger": false,
      "metar": "METAR LZIB 151830Z 34012KT 310V010 9999 FEW035 M01/M09 Q1012 NOSIG",
      "taf": "TAF LZIB 151715Z 1518/1618 35007KT 9999 FEW025 BKN035"
    },
    {
      "icao": "LZKZ",
      "alert": "OK",
      "vis_m": 9999,
      "fzfg": false,
      "metar_trigger": false,
      "taf_trigger": false,
      "metar": "METAR LZKZ 151830Z 02020KT 9999 SCT028 M02/M07 Q1007 NOSIG",
      "taf": "TAF LZKZ 151715Z 1518/1618 36020KT 9999 FEW025"
    },
    {
      "icao": "LZTT",
      "alert": "OK",
      "vis_m": 9999,
      "fzfg": false,
      "metar_trigger": false,
      "taf_trigger": false,
      "metar": "METAR LZTT 151830Z 21007KT 180V250 9999 FEW020 M06/M09 Q1006 NOSIG",
      "taf": "TAF LZTT 151715Z 1518/1618 16004KT 9999 SCT015 BKN030"
    },
    {
      "icao": "OEJN",
      "alert": "OK",
      "vis_m": 9999,
      "fzfg": false,
      "metar_trigger": false,
      "taf_trigger": false,
      "metar": "METAR OEJN 151800Z 34003KT CAVOK 26/18 Q1013 NOSIG",
      "taf": "TAF OEJN 151700Z 1518/1624 VRB03KT 7000 NSC"
    },
    {
      "icao": "OEMA",
      "alert": "OK",
      "vis_m": 9999,
      "fzfg": false,
      "metar_trigger": false,
      "taf_trigger": false,
      "metar": "METAR OEMA 151800Z 06009KT CAVOK 28/M02 Q1020 NOSIG",
      "taf": "TAF OEMA 151700Z 1518/1624 09010KT 7000 NSC"
    },
    {
      "icao": "OJAI",
      "alert": "OK",
      "vis_m": 3000,
      "fzfg": false,
      "metar_trigger": false,
      "taf_trigger": false,
      "metar": "METAR OJAI 151800Z 09010KT 3000 DU NSC 13/M00 Q1023 NOSIG",
      "taf": "TAF OJAI 151700Z 1518/1624 13010KT 3000 DU NSC"
    },
    {
      "icao": "OMAA",
      "alert": "OK",
      "vis_m": 9999,
      "fzfg": false,
      "metar_trigger": false,
      "taf_trigger": false,
      "metar": "METAR OMAA 151830Z 28009KT CAVOK 24/14 Q1014 NOSIG",
      "taf": "TAF OMAA 151700Z 1518/1700 28010KT 8000 NSC"
    },
    {
      "icao": "OMDB",
      "alert": "OK",
      "vis_m": 9999,
      "fzfg": false,
      "metar_trigger": false,
      "taf_trigger": false,
      "metar": "METAR OMDB 151830Z 26011KT CAVOK 25/15 Q1013 NOSIG",
      "taf": "TAF OMDB 151700Z 1518/1700 28012KT CAVOK"
    },
    {
      "icao": "UAAA",
      "alert": "OK",
      "vis_m": 1100,
      "fzfg": false,
      "metar_trigger": false,
      "taf_trigger": false,
      "metar": "METAR UAAA 151830Z 26004MPS 1100 R23L/P2000N BR BKN100 01/M00 Q1015 NOSIG",
      "taf": "TAF UAAA 151701Z 1518/1618 24003MPS 1100 BR FU BKN003 OVC011 TX03/1609Z TNM02/1602Z"
    },
    {
      "icao": "UBBB",
      "alert": "OK",
      "vis_m": 9999,
      "fzfg": false,
      "metar_trigger": false,
      "taf_trigger": false,
      "metar": "METAR UBBB 151830Z 16006KT CAVOK 07/06 Q1024 NOSIG",
      "taf": "TAF UBBB 151705Z 1518/1618 VRB04KT 9999 FEW030 TX15/1610Z TN06/1700Z"
    },
    {
      "icao": "UDSG",
      "alert": "OK",
      "vis_m": 9999,
      "fzfg": false,
      "metar_trigger": false,
      "taf_trigger": false,
      "metar": "METAR UDSG 151830Z 23001KT 9999 NSC M03/M03 Q1026 NOSIG",
      "taf": "TAF UDSG 151658Z 1518/1618 VRB06KT 9999 FEW040"
    },
    {
      "icao": "UDYZ",
      "alert": "OK",
      "vis_m": 9999,
      "fzfg": false,
      "metar_trigger": false,
      "taf_trigger": false,
      "metar": "METAR UDYZ 151830Z 03005KT 9999 NSC 06/02 Q1024 NOSIG",
      "taf": "TAF UDYZ 151700Z 1518/1618 VRB06KT 9999 FEW050"
    },
    {
      "icao": "UGKO",
      "alert": "OK",
      "vis_m": 9999,
      "fzfg": false,
      "metar_trigger": false,
      "taf_trigger": false,
      "metar": "METAR UGKO 151830Z 10009KT 080V140 CAVOK 12/06 Q1017 NOSIG",
      "taf": "TAF UGKO 151700Z 1518/1618 08020KT CAVOK TX23/1611Z TN11/1603Z"
    }
  ]
}