{
  "ts_utc": "2026-01-03T07:42:19Z",
  "threshold_m": 150,
  "source": "stations_override.txt (ICAO list) + aviationweather.gov (METAR/TAF raw)",
  "station_count": 159,
  "stations": [
    {
      "icao": "BIKF",
      "alert": "OK",
      "vis_m": 9999,
      "fzfg": false,
      "metar_trigger": false,
      "taf_trigger": false,
      "metar": "METAR BIKF 030730Z 36006KT CAVOK M05/M08 Q1028",
      "taf": "TAF BIKF 030447Z 0306/0406 07006KT CAVOK TXM02/0403Z TNM08/0312Z"
    },
    {
      "icao": "BKPR",
      "alert": "OK",
      "vis_m": 9999,
      "fzfg": false,
      "metar_trigger": false,
      "taf_trigger": false,
      "metar": "METAR BKPR 030730Z 20005KT 150V260 9999 FEW015 BKN045 05/02 Q1004 NOSIG",
      "taf": "TAF BKPR 030530Z 0306/0406 17008KT 9999 BKN030"
    },
    {
      "icao": "EBCI",
      "alert": "OK",
      "vis_m": 9999,
      "fzfg": false,
      "metar_trigger": false,
      "taf_trigger": false,
      "metar": "METAR EBCI 030720Z 23013KT 9999 SCT017 BKN030 M00/M03 Q1004 TEMPO 2500 -SHSN BKN004 BKN010CB",
      "taf": "TAF EBCI 030515Z 0306/0412 26010KT 9999 FEW015 SCT035"
    },
    {
      "icao": "EDDB",
      "alert": "OK",
      "vis_m": 9999,
      "fzfg": false,
      "metar_trigger": false,
      "taf_trigger": false,
      "metar": "METAR EDDB 030720Z AUTO 25012KT 9999 BKN023 M01/M03 Q0996 BECMG FM0900 3000 -SN BKN012",
      "taf": "TAF EDDB 030500Z 0306/0406 27012G22KT 9999 BKN015"
    },
    {
      "icao": "EDDH",
      "alert": "OK",
      "vis_m": 9999,
      "fzfg": false,
      "metar_trigger": false,
      "taf_trigger": false,
      "metar": "METAR EDDH 030720Z AUTO 22011KT 9999 SHSN FEW004 BKN034 BKN042 FEW///CB M01/M01 Q0994 BECMG 25003KT NSW",
      "taf": "TAF EDDH 030500Z 0306/0412 24008KT 4500 -SN BKN012"
    },
    {
      "icao": "EDDK",
      "alert": "OK",
      "vis_m": 9999,
      "fzfg": false,
      "metar_trigger": false,
      "taf_trigger": false,
      "metar": "METAR EDDK 030720Z AUTO 22009KT CAVOK 01/M04 Q1003 NOSIG",
      "taf": "TAF EDDK 030500Z 0306/0412 22006KT 9999 BKN030"
    },
    {
      "icao": "EDDN",
      "alert": "OK",
      "vis_m": 9999,
      "fzfg": false,
      "metar_trigger": false,
      "taf_trigger": false,
      "metar": "METAR EDDN 030720Z AUTO 22007KT 9999 BKN016 OVC038 M02/M05 Q1005 NOSIG",
      "taf": "TAF EDDN 030500Z 0306/0406 25010KT 9999 BKN020"
    },
    {
      "icao": "EDDS",
      "alert": "OK",
      "vis_m": 9999,
      "fzfg": false,
      "metar_trigger": false,
      "taf_trigger": false,
      "metar": "METAR EDDS 030720Z AUTO 24007KT 200V260 9999 OVC026 M03/M06 Q1006 NOSIG",
      "taf": "TAF EDDS 030500Z 0306/0406 22005KT 9999 SCT025"
    },
    {
      "icao": "EDFH",
      "alert": "OK",
      "vis_m": 9999,
      "fzfg": false,
      "metar_trigger": false,
      "taf_trigger": false,
      "metar": "METAR EDFH 030720Z 25013KT 9999 SCT023 M03/M06 Q1002",
      "taf": "TAF EDFH 030500Z 0306/0406 26012KT 9999 BKN015"
    },
    {
      "icao": "EDJA",
      "alert": "OK",
      "vis_m": 9999,
      "fzfg": false,
      "metar_trigger": false,
      "taf_trigger": false,
      "metar": "METAR EDJA 030720Z 21005KT 9999 BKN034 M09/M10 Q1006",
      "taf": "TAF EDJA 030500Z 0306/0315 23010KT 9999 FEW025"
    },
    {
      "icao": "EDLW",
      "alert": "OK",
      "vis_m": 9999,
      "fzfg": false,
      "metar_trigger": false,
      "taf_trigger": false,
      "metar": "METAR EDLW 030720Z 22017KT 9999 FEW016 BKN019 00/M02 Q1000",
      "taf": "TAF EDLW 030500Z 0306/0406 24014KT 9999 SCT006 BKN015"
    },
    {
      "icao": "EDNY",
      "alert": "OK",
      "vis_m": 9999,
      "fzfg": false,
      "metar_trigger": false,
      "taf_trigger": false,
      "metar": "METAR EDNY 030720Z 00000KT 9999 FEW019 M07/M07 Q1008",
      "taf": "TAF EDNY 030500Z 0306/0315 02003KT 9999 FEW025"
    },
    {
      "icao": "EDSB",
      "alert": "OK",
      "vis_m": 9999,
      "fzfg": false,
      "metar_trigger": false,
      "taf_trigger": false,
      "metar": "METAR EDSB 030720Z 20009KT 9999 FEW032 BKN040 M02/M04 Q1008",
      "taf": "TAF EDSB 030500Z 0306/0406 20007KT 9999 SCT025"
    },
    {
      "icao": "EETN",
      "alert": "OK",
      "vis_m": 6000,
      "fzfg": false,
      "metar_trigger": false,
      "taf_trigger": false,
      "metar": "METAR EETN 030720Z 08009KT 6000 -SN BKN008 OVC016 M05/M07 Q0987 TEMPO 3000 SN",
      "taf": "TAF EETN 030530Z 0306/0406 09008KT 9000 SCT007 BKN015"
    },
    {
      "icao": "EFTU",
      "alert": "OK",
      "vis_m": 9999,
      "fzfg": false,
      "metar_trigger": false,
      "taf_trigger": false,
      "metar": "METAR EFTU 030720Z AUTO 08013KT 9999 -SHSN OVC009 M08/M10 Q0988",
      "taf": ""
    },
    {
      "icao": "EGBB",
      "alert": "OK",
      "vis_m": 9999,
      "fzfg": false,
      "metar_trigger": false,
      "taf_trigger": false,
      "metar": "METAR EGBB 030720Z 30012KT CAVOK M01/M06 Q1009",
      "taf": "TAF EGBB 030453Z 0306/0406 30008KT CAVOK"
    },
    {
      "icao": "EGGP",
      "alert": "OK",
      "vis_m": 9999,
      "fzfg": false,
      "metar_trigger": false,
      "taf_trigger": false,
      "metar": "METAR EGGP 030720Z 33010KT 9999 FEW044 01/M06 Q1010",
      "taf": "TAF EGGP 030455Z 0306/0406 32009KT 9999 SCT030"
    },
    {
      "icao": "EGGW",
      "alert": "OK",
      "vis_m": 9999,
      "fzfg": false,
      "metar_trigger": false,
      "taf_trigger": false,
      "metar": "METAR EGGW 030720Z AUTO 30014KT 9999 NCD M02/M05 Q1007",
      "taf": "TAF EGGW 030454Z 0306/0406 30009KT 9999 FEW025"
    },
    {
      "icao": "EGKK",
      "alert": "OK",
      "vis_m": 9999,
      "fzfg": false,
      "metar_trigger": false,
      "taf_trigger": false,
      "metar": "METAR EGKK 030720Z 29011KT CAVOK 00/M03 Q1008",
      "taf": "TAF EGKK 030459Z 0306/0412 30010KT 9999 FEW030"
    },
    {
      "icao": "EGNM",
      "alert": "OK",
      "vis_m": 9999,
      "fzfg": false,
      "metar_trigger": false,
      "taf_trigger": false,
      "metar": "METAR EGNM 030720Z 29016KT CAVOK M02/M07 Q1006",
      "taf": "TAF EGNM 030604Z 0306/0406 30015KT 9999 FEW030"
    },
    {
      "icao": "EGPD",
      "alert": "OK",
      "vis_m": 9999,
      "fzfg": false,
      "metar_trigger": false,
      "taf_trigger": false,
      "metar": "METAR EGPD 030720Z AUTO 33016KT 9999 -RASN SCT026 01/M02 Q1007 TEMPO 1800 SHSN",
      "taf": ""
    },
    {
      "icao": "EGPF",
      "alert": "OK",
      "vis_m": 9999,
      "fzfg": false,
      "metar_trigger": false,
      "taf_trigger": false,
      "metar": "METAR EGPF 030720Z AUTO 30007KT 270V340 9999 NCD 00/M03 Q1012",
      "taf": "TAF EGPF 030456Z 0306/0406 30009KT 9999 FEW030"
    },
    {
      "icao": "EHBK",
      "alert": "OK",
      "vis_m": 9999,
      "fzfg": false,
      "metar_trigger": false,
      "taf_trigger": false,
      "metar": "METAR EHBK 030725Z AUTO 22012KT 9999 BKN034/// BKN038/// M00/M03 Q1002 NOSIG",
      "taf": "TAF EHBK 030509Z 0306/0412 22010KT 9999 SCT022"
    },
    {
      "icao": "EHEH",
      "alert": "OK",
      "vis_m": 9999,
      "fzfg": false,
      "metar_trigger": false,
      "taf_trigger": false,
      "metar": "METAR EHEH 030725Z AUTO 23014KT 200V270 9999 FEW015CB SCT029 BKN033 M00/M03 Q1001 BLU TEMPO 1500 -SHSN SCT006 SCT015CB BKN018 RMK TREND REMOTE BY EHWX",
      "taf": "TAF EHEH 030540Z 0306/0412 24010KT SCT020 BKN025"
    },
    {
      "icao": "EKBI",
      "alert": "OK",
      "vis_m": 9999,
      "fzfg": false,
      "metar_trigger": false,
      "taf_trigger": false,
      "metar": "METAR EKBI 030720Z AUTO 21001KT 9999 NCD M09/M10 Q0993",
      "taf": "TAF EKBI 030528Z 0306/0406 VRB03KT 9999 FEW020"
    },
    {
      "icao": "EKCH",
      "alert": "OK",
      "vis_m": 9999,
      "fzfg": false,
      "metar_trigger": false,
      "taf_trigger": false,
      "metar": "METAR EKCH 030720Z 28012KT 9999 -SHSN BKN043 M02/M04 Q0990 TEMPO 3000 BKN012",
      "taf": "TAF EKCH 030528Z 0306/0406 30010KT 9999 BKN020"
    },
    {
      "icao": "ENAL",
      "alert": "OK",
      "vis_m": 9999,
      "fzfg": false,
      "metar_trigger": false,
      "taf_trigger": false,
      "metar": "METAR ENAL 030720Z 08009KT 050V110 CAVOK M05/M09 Q1002",
      "taf": "TAF ENAL 030500Z 0306/0315 06015KT CAVOK"
    },
    {
      "icao": "ENBR",
      "alert": "OK",
      "vis_m": 9999,
      "fzfg": false,
      "metar_trigger": false,
      "taf_trigger": false,
      "metar": "METAR ENBR 030720Z 36012KT CAVOK M06/M14 Q0998 NOSIG RMK WIND 1200FT 03014KT",
      "taf": "TAF ENBR 030500Z 0306/0406 01008KT CAVOK"
    },
    {
      "icao": "ENGM",
      "alert": "OK",
      "vis_m": 9999,
      "fzfg": false,
      "metar_trigger": false,
      "taf_trigger": false,
      "metar": "METAR ENGM 030720Z 02017KT 9999 -SN FEW020 BKN030 M08/M12 Q0994 TEMPO 01017G27KT 4000",
      "taf": "TAF ENGM 030500Z 0306/0406 36015KT 9000 -SN FEW025 BKN040"
    },
    {
      "icao": "ENHD",
      "alert": "OK",
      "vis_m": 9999,
      "fzfg": false,
      "metar_trigger": false,
      "taf_trigger": false,
      "metar": "METAR ENHD 030720Z AUTO 05009KT 9999 NCD M06/M11 Q0996",
      "taf": "TAF ENHD 030500Z 0306/0315 07008KT CAVOK"
    },
    {
      "icao": "ENTC",
      "alert": "OK",
      "vis_m": 9999,
      "fzfg": false,
      "metar_trigger": false,
      "taf_trigger": false,
      "metar": "METAR ENTC 030720Z 17004KT 120V230 9999 FEW018 SCT049 M05/M08 Q1000 NOSIG RMK WIND 2600FT 27012KT",
      "taf": "TAF ENTC 030500Z 0306/0406 29010KT 9999 -SHSN FEW020 BKN025"
    },
    {
      "icao": "ENTO",
      "alert": "OK",
      "vis_m": 9000,
      "fzfg": false,
      "metar_trigger": false,
      "taf_trigger": false,
      "metar": "METAR ENTO 030720Z 36013KT 9000 -SN OVC024 M07/M10 Q0993 TEMPO 4000",
      "taf": ""
    },
    {
      "icao": "ENVA",
      "alert": "OK",
      "vis_m": 9999,
      "fzfg": false,
      "metar_trigger": false,
      "taf_trigger": false,
      "metar": "METAR ENVA 030720Z 11006KT CAVOK M12/M13 Q1003 NOSIG RMK WIND 670FT 15006KT",
      "taf": "TAF ENVA 030500Z 0306/0406 11008KT CAVOK"
    },
    {
      "icao": "ENZV",
      "alert": "OK",
      "vis_m": 9999,
      "fzfg": false,
      "metar_trigger": false,
      "taf_trigger": false,
      "metar": "METAR ENZV 030720Z 03006KT CAVOK M05/M12 Q0996 NOSIG",
      "taf": "TAF ENZV 030500Z 0306/0406 10005KT CAVOK"
    },
    {
      "icao": "EPGD",
      "alert": "OK",
      "vis_m": 2200,
      "fzfg": false,
      "metar_trigger": false,
      "taf_trigger": false,
      "metar": "METAR EPGD 030730Z 24015KT 2200 SN VV017 M02/M03 Q0986",
      "taf": "TAF EPGD 030530Z 0306/0406 24015KT 6000 -SN BKN015"
    },
    {
      "icao": "EPKK",
      "alert": "OK",
      "vis_m": 9999,
      "fzfg": false,
      "metar_trigger": false,
      "taf_trigger": false,
      "metar": "METAR EPKK 030730Z 26020G30KT 9999 -SHSN FEW035TCU SCT045 00/M06 Q0998",
      "taf": ""
    },
    {
      "icao": "EPKT",
      "alert": "OK",
      "vis_m": 9999,
      "fzfg": false,
      "metar_trigger": false,
      "taf_trigger": false,
      "metar": "METAR EPKT 030730Z 24017KT 9999 FEW030 BKN043 M01/M06 Q0998",
      "taf": "TAF EPKT 030530Z 0306/0406 24015KT 9999 SCT040"
    },
    {
      "icao": "EPLB",
      "alert": "OK",
      "vis_m": 9999,
      "fzfg": false,
      "metar_trigger": false,
      "taf_trigger": false,
      "metar": "METAR EPLB 030730Z 23014KT 9999 FEW045 M01/M05 Q0995",
      "taf": "TAF EPLB 030530Z 0306/0406 22010KT 9999 BKN030"
    },
    {
      "icao": "EPMO",
      "alert": "OK",
      "vis_m": 9999,
      "fzfg": false,
      "metar_trigger": false,
      "taf_trigger": false,
      "metar": "METAR EPMO 030730Z 24011KT 9999 DRSN SCT028 BKN036 M01/M03 Q0993",
      "taf": "TAF EPMO 030530Z 0306/0406 23010KT 9999 BKN030"
    },
    {
      "icao": "EPPO",
      "alert": "OK",
      "vis_m": 9999,
      "fzfg": false,
      "metar_trigger": false,
      "taf_trigger": false,
      "metar": "METAR EPPO 030730Z 26015KT 9999 FEW020 M02/M06 Q0995",
      "taf": "TAF EPPO 030530Z 0306/0406 26014KT 9999 FEW017"
    },
    {
      "icao": "EPRA",
      "alert": "OK",
      "vis_m": 9999,
      "fzfg": false,
      "metar_trigger": false,
      "taf_trigger": false,
      "metar": "METAR EPRA 030730Z 24009KT 9999 -SN FEW023 BKN028 OVC038 M01/M03 Q0995",
      "taf": "TAF EPRA 030530Z 0306/0315 25012KT 9999 BKN035"
    },
    {
      "icao": "EPRZ",
      "alert": "OK",
      "vis_m": 9999,
      "fzfg": false,
      "metar_trigger": false,
      "taf_trigger": false,
      "metar": "METAR EPRZ 030730Z 22007KT 9999 FEW044 M01/M07 Q0998",
      "taf": "TAF EPRZ 030530Z 0306/0406 20010KT 9999 SCT040"
    },
    {
      "icao": "EPSC",
      "alert": "OK",
      "vis_m": 9999,
      "fzfg": false,
      "metar_trigger": false,
      "taf_trigger": false,
      "metar": "METAR EPSC 030730Z 25009KT CAVOK M02/M06 Q0993",
      "taf": "TAF EPSC 030530Z 0306/0406 26012KT 9999 SCT035"
    },
    {
      "icao": "EPSY",
      "alert": "OK",
      "vis_m": 9999,
      "fzfg": false,
      "metar_trigger": false,
      "taf_trigger": false,
      "metar": "METAR EPSY 030730Z 24010KT 9999 BKN012 BKN021 M01/M03 Q0989",
      "taf": "TAF EPSY 030530Z 0306/0315 21012KT 9999 BKN014"
    },
    {
      "icao": "EPWA",
      "alert": "OK",
      "vis_m": 9999,
      "fzfg": false,
      "metar_trigger": false,
      "taf_trigger": false,
      "metar": "METAR EPWA 030730Z 25014KT 9999 FEW038 M01/M04 Q0993 TEMPO 4000 SHSN",
      "taf": "TAF EPWA 030530Z 0306/0406 23010KT 9999 BKN030"
    },
    {
      "icao": "EPWR",
      "alert": "OK",
      "vis_m": 9999,
      "fzfg": false,
      "metar_trigger": false,
      "taf_trigger": false,
      "metar": "METAR EPWR 030730Z 27014KT 9999 FEW033TCU M01/M05 Q0998",
      "taf": "TAF EPWR 030530Z 0306/0406 27015KT 9999 FEW030"
    },
    {
      "icao": "ESGG",
      "alert": "OK",
      "vis_m": 2200,
      "fzfg": false,
      "metar_trigger": false,
      "taf_trigger": false,
      "metar": "METAR ESGG 030720Z 34009KT 2200 -SN FEW015 BKN024 M08/M09 Q0988",
      "taf": "TAF ESGG 030530Z 0306/0406 34009KT 9000 -SN OVC009"
    },
    {
      "icao": "ESKN",
      "alert": "OK",
      "vis_m": 9999,
      "fzfg": false,
      "metar_trigger": false,
      "taf_trigger": false,
      "metar": "METAR ESKN 030720Z 36011KT 9999 DRSN BKN009 M03/M04 Q0982",
      "taf": "TAF ESKN 030530Z 0306/0406 01012G22KT 9999 -SN OVC009"
    },
    {
      "icao": "ESMS",
      "alert": "OK",
      "vis_m": 8000,
      "fzfg": false,
      "metar_trigger": false,
      "taf_trigger": false,
      "metar": "METAR ESMS 030720Z 32011KT 8000 -SN BKN025 M03/M05 Q0988",
      "taf": "TAF ESMS 030528Z 0306/0406 32012KT 9999 BKN020"
    },
    {
      "icao": "ESSA",
      "alert": "OK",
      "vis_m": 600,
      "fzfg": false,
      "metar_trigger": false,
      "taf_trigger": false,
      "metar": "METAR ESSA 030720Z 01018KT 0600 R01L/1900N R19R/1900D R01R/P2000N R19L/1900D +SN VV005 M04/M04 Q0984 TEMPO 1200 SN VV015",
      "taf": "TAF ESSA 030530Z 0306/0406 02015KT 6000 -SN BKN007"
    },
    {
      "icao": "EYKA",
      "alert": "OK",
      "vis_m": 9999,
      "fzfg": false,
      "metar_trigger": false,
      "taf_trigger": false,
      "metar": "METAR EYKA 030720Z 19004KT 140V240 9999 -SNRA OVC009 00/M01 Q0988",
      "taf": "TAF EYKA 030500Z 0306/0406 VRB04KT 8000 BKN010 OVC015"
    },
    {
      "icao": "EYPA",
      "alert": "OK",
      "vis_m": 9999,
      "fzfg": false,
      "metar_trigger": false,
      "taf_trigger": false,
      "metar": "METAR EYPA 030720Z 15007KT 9999 -SHSNRA SCT006 BKN009 BKN013CB 00/M00 Q0985",
      "taf": ""
    },
    {
      "icao": "EYVI",
      "alert": "OK",
      "vis_m": 3200,
      "fzfg": false,
      "metar_trigger": false,
      "taf_trigger": false,
      "metar": "METAR EYVI 030720Z 19009KT 3200 SN OVC005 M01/M02 Q0988 TEMPO 0600 +SHSN BKN015CB",
      "taf": "TAF EYVI 030510Z 0306/0406 21010KT 9000 BKN005"
    },
    {
      "icao": "GCFV",
      "alert": "OK",
      "vis_m": 9999,
      "fzfg": false,
      "metar_trigger": false,
      "taf_trigger": false,
      "metar": "METAR GCFV 030730Z 18009KT 9999 FEW020 SCT040 16/14 Q1006",
      "taf": "TAF GCFV 030200Z 0303/0403 27008KT 9999 SCT025 TX22/0314Z TN17/0306Z"
    },
    {
      "icao": "GCLP",
      "alert": "OK",
      "vis_m": 9999,
      "fzfg": false,
      "metar_trigger": false,
      "taf_trigger": false,
      "metar": "METAR GCLP 030730Z 34004KT 290V020 9999 FEW025 SCT045 17/13 Q1006 NOSIG",
      "taf": "TAF GCLP 030200Z 0303/0403 24011KT 9999 SCT035 TX23/0314Z TN17/0306Z"
    },
    {
      "icao": "GCTS",
      "alert": "OK",
      "vis_m": 9999,
      "fzfg": false,
      "metar_trigger": false,
      "taf_trigger": false,
      "metar": "METAR GCTS 030730Z 29012KT 260V320 9999 FEW050 18/13 Q1007 NOSIG",
      "taf": "TAF GCTS 030200Z 0303/0403 28015KT 9999 FEW030 TX24/0314Z TN18/0306Z"
    },
    {
      "icao": "GMAD",
      "alert": "OK",
      "vis_m": 8000,
      "fzfg": false,
      "metar_trigger": false,
      "taf_trigger": false,
      "metar": "METAR GMAD 030730Z 02004KT 8000 SCT020 BKN030 14/14 Q1005 NOSIG",
      "taf": "TAF GMAD 030500Z 0306/0412 24008KT 6000 BKN20TCU BKN080"
    },
    {
      "icao": "GMMN",
      "alert": "OK",
      "vis_m": 9999,
      "fzfg": false,
      "metar_trigger": false,
      "taf_trigger": false,
      "metar": "METAR GMMN 030730Z 18017KT 9999 BKN040 13/10 Q1002 NOSIG",
      "taf": "TAF GMMN 030500Z 0306/0412 18020KT 9999 SCT030 SCT100"
    },
    {
      "icao": "GMMX",
      "alert": "OK",
      "vis_m": 6000,
      "fzfg": false,
      "metar_trigger": false,
      "taf_trigger": false,
      "metar": "METAR GMMX 030730Z 11012KT 6000 SCT016 BKN023 12/11 Q1003 TEMPO 3000 SHRA",
      "taf": "TAF GMMX 030500Z 0306/0412 22004KT 6000 RA SCT016 BKN023"
    },
    {
      "icao": "HEGN",
      "alert": "OK",
      "vis_m": 9999,
      "fzfg": false,
      "metar_trigger": false,
      "taf_trigger": false,
      "metar": "METAR HEGN 030700Z 32015KT CAVOK 16/06 Q1024 NOSIG",
      "taf": "TAF HEGN 030500Z 0306/0412 34018KT CAVOK"
    },
    {
      "icao": "HEMA",
      "alert": "OK",
      "vis_m": 8000,
      "fzfg": false,
      "metar_trigger": false,
      "taf_trigger": false,
      "metar": "METAR HEMA 030700Z 32018KT 8000 SCT025 18/11 Q1022 NOSIG",
      "taf": "TAF HEMA 030500Z 0306/0412 36018KT CAVOK"
    },
    {
      "icao": "HESH",
      "alert": "OK",
      "vis_m": 9999,
      "fzfg": false,
      "metar_trigger": false,
      "taf_trigger": false,
      "metar": "METAR HESH 030700Z 36016KT CAVOK 19/07 Q1023 NOSIG",
      "taf": "TAF HESH 030500Z 0306/0412 03012KT CAVOK"
    },
    {
      "icao": "HESX",
      "alert": "OK",
      "vis_m": 9999,
      "fzfg": false,
      "metar_trigger": false,
      "taf_trigger": false,
      "metar": "METAR HESX 030700Z 00000KT CAVOK 10/04 Q1026 NOSIG",
      "taf": "TAF HESX 030500Z 0306/0412 02008KT 9999 SCT020"
    },
    {
      "icao": "LATI",
      "alert": "OK",
      "vis_m": 9999,
      "fzfg": false,
      "metar_trigger": false,
      "taf_trigger": false,
      "metar": "METAR LATI 030720Z 18015G25KT 9999 SCT030 OVC074 15/07 Q1009 NOSIG",
      "taf": "TAF LATI 030500Z 0306/0406 14013KT 9999 SCT025 BKN070 TX14/0318Z TN12/0403Z"
    },
    {
      "icao": "LBPD",
      "alert": "OK",
      "vis_m": 9999,
      "fzfg": false,
      "metar_trigger": false,
      "taf_trigger": false,
      "metar": "METAR LBPD 030730Z AUTO VRB03KT 9999 FEW100/// M02/M04 Q1008 NOSIG",
      "taf": "TAF LBPD 030500Z 0306/0406 VRB03KT 9999 SCT020 BKN080"
    },
    {
      "icao": "LBSF",
      "alert": "OK",
      "vis_m": 9999,
      "fzfg": false,
      "metar_trigger": false,
      "taf_trigger": false,
      "metar": "METAR LBSF 030730Z VRB11G21KT 9999 FEW054 BKN074 12/00 Q1004 TEMPO 21016G28KT",
      "taf": "TAF LBSF 030500Z 0306/0406 08012KT 9999 SCT025 SCT050"
    },
    {
      "icao": "LBWN",
      "alert": "OK",
      "vis_m": 9999,
      "fzfg": false,
      "metar_trigger": false,
      "taf_trigger": false,
      "metar": "METAR LBWN 030730Z 31007KT 9999 FEW036 10/04 Q1006 NOSIG",
      "taf": "TAF LBWN 030500Z 0306/0406 30010KT CAVOK"
    },
    {
      "icao": "LCLK",
      "alert": "OK",
      "vis_m": 9999,
      "fzfg": false,
      "metar_trigger": false,
      "taf_trigger": false,
      "metar": "METAR LCLK 030730Z 32003KT 280V020 9999 FEW030 BKN050 13/07 Q1028 NOSIG",
      "taf": "TAF LCLK 030530Z 0306/0406 33007KT 9999 FEW040"
    },
    {
      "icao": "LCPH",
      "alert": "OK",
      "vis_m": 9999,
      "fzfg": false,
      "metar_trigger": false,
      "taf_trigger": false,
      "metar": "METAR LCPH 030730Z 08003KT 9999 BKN050 14/05 Q1028 NOSIG",
      "taf": "TAF LCPH 030530Z 0306/0406 04006KT 9999 SCT045"
    },
    {
      "icao": "LEAL",
      "alert": "OK",
      "vis_m": 9999,
      "fzfg": false,
      "metar_trigger": false,
      "taf_trigger": false,
      "metar": "METAR LEAL 030730Z 01007KT 340V060 9999 FEW020 13/09 Q1004 NOSIG",
      "taf": "TAF LEAL 030500Z 0306/0406 VRB05KT CAVOK TX17/0314Z TN09/0306Z"
    },
    {
      "icao": "LEBB",
      "alert": "OK",
      "vis_m": 9999,
      "fzfg": false,
      "metar_trigger": false,
      "taf_trigger": false,
      "metar": "METAR LEBB 030730Z VRB02KT 9999 BKN012 BKN020 07/06 Q1009 TEMPO 3000 RA",
      "taf": "TAF LEBB 030500Z 0306/0406 VRB03KT 9999 SCT010 BKN020 TX07/0314Z TN00/0406Z"
    },
    {
      "icao": "LEBL",
      "alert": "OK",
      "vis_m": 9999,
      "fzfg": false,
      "metar_trigger": false,
      "taf_trigger": false,
      "metar": "METAR LEBL 030730Z 02006G19KT 290V090 9999 SCT015 08/05 Q1007 NOSIG",
      "taf": "TAF LEBL 030500Z 0306/0406 34009KT 9999 FEW015 TX15/0312Z TN05/0306Z"
    },
    {
      "icao": "LECH",
      "alert": "OK",
      "vis_m": 9999,
      "fzfg": false,
      "metar_trigger": false,
      "taf_trigger": false,
      "metar": "METAR LECH 030730Z AUTO 04002KT CAVOK 07/06 Q1006",
      "taf": ""
    },
    {
      "icao": "LEMD",
      "alert": "OK",
      "vis_m": 9999,
      "fzfg": false,
      "metar_trigger": false,
      "taf_trigger": false,
      "metar": "METAR LEMD 030730Z VRB02KT CAVOK 06/06 Q1005 NOSIG",
      "taf": "TAF LEMD 030500Z 0306/0412 VRB03KT CAVOK TX13/0314Z TN05/0307Z"
    },
    {
      "icao": "LEMG",
      "alert": "OK",
      "vis_m": 9999,
      "fzfg": false,
      "metar_trigger": false,
      "taf_trigger": false,
      "metar": "METAR LEMG 030730Z 30006KT 270V330 9999 OVC050 11/10 Q1004 NOSIG",
      "taf": "TAF LEMG 030500Z 0306/0406 29005KT 9999 FEW015 TX18/0314Z TN10/0307Z"
    },
    {
      "icao": "LEVC",
      "alert": "OK",
      "vis_m": 6000,
      "fzfg": false,
      "metar_trigger": false,
      "taf_trigger": false,
      "metar": "METAR LEVC 030730Z 31004KT 290V360 6000 BKN004 08/08 Q1006 NOSIG",
      "taf": "TAF LEVC 030500Z 0306/0406 VRB05KT CAVOK TX16/0314Z TN09/0306Z"
    },
    {
      "icao": "LEXJ",
      "alert": "OK",
      "vis_m": 9000,
      "fzfg": false,
      "metar_trigger": false,
      "taf_trigger": false,
      "metar": "METAR LEXJ 030730Z 09006KT 050V130 9000 -DZ OVC016 08/06 Q1009",
      "taf": "TAF LEXJ 030200Z 0303/0403 08009KT 8000 SCT010 BKN020 TX10/0313Z TN05/0403Z"
    },
    {
      "icao": "LEZG",
      "alert": "OK",
      "vis_m": 200,
      "fzfg": false,
      "metar_trigger": false,
      "taf_trigger": false,
      "metar": "METAR LEZG 030730Z 00000KT 0200 R30R/1500D R12R/0275N R30L/0375N R12L/0450N FG VV001 04/04 Q1008 NOSIG",
      "taf": "TAF LEZG 030500Z 0306/0406 VRB04KT CAVOK TX11/0315Z TN05/0306Z"
    },
    {
      "icao": "LEZL",
      "alert": "OK",
      "vis_m": 9999,
      "fzfg": false,
      "metar_trigger": false,
      "taf_trigger": false,
      "metar": "METAR LEZL 030730Z 13007KT CAVOK 14/12 Q1003 NOSIG",
      "taf": "TAF LEZL 030200Z 0303/0403 08008KT 9999 SCT030 TX19/0315Z TN12/0307Z"
    },
    {
      "icao": "LFBD",
      "alert": "OK",
      "vis_m": 5000,
      "fzfg": true,
      "metar_trigger": false,
      "taf_trigger": false,
      "metar": "METAR LFBD 030730Z AUTO 06005KT 5000 BR OVC005 M02/M02 Q1012",
      "taf": "TAF LFBD 030500Z 0306/0412 VRB03KT 0500 FZFG VV/// TX03/0313Z TNM04/0406Z"
    },
    {
      "icao": "LFLL",
      "alert": "OK",
      "vis_m": 9000,
      "fzfg": false,
      "metar_trigger": false,
      "taf_trigger": false,
      "metar": "METAR LFLL 030730Z 18002KT 9000 MIFG FEW013 M01/M02 Q1010 NOSIG",
      "taf": "TAF LFLL 030500Z 0306/0412 35005KT CAVOK"
    },
    {
      "icao": "LFLS",
      "alert": "OK",
      "vis_m": 9999,
      "fzfg": false,
      "metar_trigger": false,
      "taf_trigger": false,
      "metar": "METAR LFLS 030730Z AUTO 36006KT 9999 OVC009 M00/M02 Q1009 TEMPO 4000 -SN BKN012",
      "taf": "TAF LFLS 030200Z 0303/0403 VRB02KT CAVOK"
    },
    {
      "icao": "LFMN",
      "alert": "OK",
      "vis_m": 9999,
      "fzfg": false,
      "metar_trigger": false,
      "taf_trigger": false,
      "metar": "METAR LFMN 030730Z 32014KT 9999 FEW031 BKN260 04/M06 Q1002 NOSIG",
      "taf": "TAF LFMN 030200Z 0303/0409 33012KT CAVOK"
    },
    {
      "icao": "LFOB",
      "alert": "OK",
      "vis_m": 9999,
      "fzfg": false,
      "metar_trigger": false,
      "taf_trigger": false,
      "metar": "METAR LFOB 030730Z AUTO 26009KT 9999 FEW007 SCT024 BKN056 00/M00 Q1008 TEMPO 2000 -SNRA BKN008",
      "taf": "TAF LFOB 030500Z 0306/0406 28008KT CAVOK"
    },
    {
      "icao": "LFPO",
      "alert": "OK",
      "vis_m": 9999,
      "fzfg": false,
      "metar_trigger": false,
      "taf_trigger": false,
      "metar": "METAR LFPO 030730Z AUTO 24012KT 9999 -SN FEW019 BKN035 BKN052 M01/M03 Q1009",
      "taf": ""
    },
    {
      "icao": "LFSB",
      "alert": "OK",
      "vis_m": 9999,
      "fzfg": false,
      "metar_trigger": false,
      "taf_trigger": false,
      "metar": "METAR LFSB 030730Z AUTO 26008KT CAVOK M04/M05 Q1009 TEMPO BKN008",
      "taf": "TAF LFSB 030511Z 0306/0406 26010KT 9999 FEW010"
    },
    {
      "icao": "LGAV",
      "alert": "OK",
      "vis_m": 9999,
      "fzfg": false,
      "metar_trigger": false,
      "taf_trigger": false,
      "metar": "METAR LGAV 030720Z 21014KT 9999 FEW025 15/11 Q1016 NOSIG",
      "taf": "TAF LGAV 030500Z 0306/0406 21018G30KT 9999 FEW025"
    },
    {
      "icao": "LGTS",
      "alert": "OK",
      "vis_m": 9999,
      "fzfg": false,
      "metar_trigger": false,
      "taf_trigger": false,
      "metar": "METAR LGTS 030720Z VRB03KT 9999 FEW015 SCT025 05/04 Q1011 NOSIG",
      "taf": "TAF LGTS 030500Z 0306/0406 VRB03KT 9999 SCT025"
    },
    {
      "icao": "LHBP",
      "alert": "OK",
      "vis_m": 9999,
      "fzfg": false,
      "metar_trigger": false,
      "taf_trigger": false,
      "metar": "METAR LHBP 030730Z 04003KT 300V080 CAVOK M00/M01 Q1005 BECMG 31012KT",
      "taf": "TAF LHBP 030515Z 0306/0406 25007KT 9999 OVC005"
    },
    {
      "icao": "LHDC",
      "alert": "OK",
      "vis_m": 9999,
      "fzfg": false,
      "metar_trigger": false,
      "taf_trigger": false,
      "metar": "METAR LHDC 030715Z AUTO 22006KT CAVOK 00/M01 Q1004 NOSIG",
      "taf": "TAF LHDC 030515Z 0306/0315 20006KT CAVOK"
    },
    {
      "icao": "LIBD",
      "alert": "OK",
      "vis_m": 9999,
      "fzfg": false,
      "metar_trigger": false,
      "taf_trigger": false,
      "metar": "METAR LIBD 030720Z 15009KT CAVOK 13/07 Q1006",
      "taf": "TAF LIBD 030500Z 0306/0406 23011KT 9999 SCT035"
    },
    {
      "icao": "LIBG",
      "alert": "OK",
      "vis_m": 9999,
      "fzfg": false,
      "metar_trigger": false,
      "taf_trigger": false,
      "metar": "SPECI LIBG 030654Z 21009KT 180V240 9999 SCT040 15/12 Q1007",
      "taf": "TAF LIBG 030702Z 0308/0315 22012KT CAVOK"
    },
    {
      "icao": "LIBP",
      "alert": "OK",
      "vis_m": 9999,
      "fzfg": false,
      "metar_trigger": false,
      "taf_trigger": false,
      "metar": "METAR LIBP 030720Z AUTO 21015KT 190V250 9999 BKN230/// 16/01 Q1003",
      "taf": "TAF LIBP 030500Z 0306/0406 23012KT 9999 SCT020"
    },
    {
      "icao": "LIBR",
      "alert": "OK",
      "vis_m": 9999,
      "fzfg": false,
      "metar_trigger": false,
      "taf_trigger": false,
      "metar": "METAR LIBR 030720Z 20011KT CAVOK 14/09 Q1008",
      "taf": "TAF LIBR 030500Z 0306/0406 21015KT 9999 SCT030"
    },
    {
      "icao": "LICA",
      "alert": "OK",
      "vis_m": 9999,
      "fzfg": false,
      "metar_trigger": false,
      "taf_trigger": false,
      "metar": "METAR LICA 030720Z AUTO 07005KT 9999 OVC075/// 11/09 Q1011",
      "taf": "TAF LICA 030500Z 0306/0406 07010KT 9999 SCT040"
    },
    {
      "icao": "LICC",
      "alert": "OK",
      "vis_m": 9999,
      "fzfg": false,
      "metar_trigger": false,
      "taf_trigger": false,
      "metar": "METAR LICC 030720Z 26010KT 9999 FEW030 14/11 Q1013",
      "taf": "TAF LICC 030500Z 0306/0406 25013KT 9999 SCT030"
    },
    {
      "icao": "LICJ",
      "alert": "OK",
      "vis_m": 9999,
      "fzfg": false,
      "metar_trigger": false,
      "taf_trigger": false,
      "metar": "METAR LICJ 030720Z AUTO 20022KT 9999 NCD 17/09 Q1010",
      "taf": "TAF LICJ 030500Z 0306/0406 19018G30KT CAVOK"
    },
    {
      "icao": "LIMC",
      "alert": "OK",
      "vis_m": 8000,
      "fzfg": false,
      "metar_trigger": false,
      "taf_trigger": false,
      "metar": "METAR LIMC 030720Z 05003KT 8000 MIFG NSC M03/M03 Q1003 NOSIG",
      "taf": "TAF LIMC 030500Z 0306/0412 VRB04KT CAVOK"
    },
    {
      "icao": "LIME",
      "alert": "OK",
      "vis_m": 200,
      "fzfg": true,
      "metar_trigger": false,
      "taf_trigger": false,
      "metar": "METAR LIME 030720Z VRB01KT 0200 R28/0650N FZFG VV002 M01/M01 Q1003 NOSIG",
      "taf": "TAF LIME 030500Z 0306/0406 VRB04KT 0300 FZFG NSC"
    },
    {
      "icao": "LIMF",
      "alert": "OK",
      "vis_m": 9999,
      "fzfg": false,
      "metar_trigger": false,
      "taf_trigger": false,
      "metar": "METAR LIMF 030720Z VRB02KT CAVOK M01/M04 Q1003",
      "taf": "TAF LIMF 030500Z 0306/0406 VRB04KT CAVOK"
    },
    {
      "icao": "LIMJ",
      "alert": "OK",
      "vis_m": 9999,
      "fzfg": false,
      "metar_trigger": false,
      "taf_trigger": false,
      "metar": "METAR LIMJ 030720Z 04016KT CAVOK 06/M00 Q1002",
      "taf": "TAF LIMJ 030500Z 0306/0406 03013KT CAVOK"
    },
    {
      "icao": "LIPE",
      "alert": "OK",
      "vis_m": 1200,
      "fzfg": false,
      "metar_trigger": false,
      "taf_trigger": false,
      "metar": "METAR LIPE 030720Z VRB02KT 1200 R12/P2000N R30/P2000N BR BKN002 01/01 Q1004",
      "taf": "TAF LIPE 030500Z 0306/0406 VRB05KT 0600 FG BKN002"
    },
    {
      "icao": "LIPH",
      "alert": "OK",
      "vis_m": 9999,
      "fzfg": false,
      "metar_trigger": false,
      "taf_trigger": false,
      "metar": "METAR LIPH 030720Z VRB02KT CAVOK M02/M03 Q1004",
      "taf": "TAF LIPH 030500Z 0306/0406 VRB04KT 9999 SCT040"
    },
    {
      "icao": "LIPQ",
      "alert": "OK",
      "vis_m": 3400,
      "fzfg": false,
      "metar_trigger": false,
      "taf_trigger": false,
      "metar": "METAR LIPQ 030720Z AUTO 01003KT 290V050 3400 BR NCD M00/M00 Q1004",
      "taf": "TAF LIPQ 030500Z 0306/0406 VRB05KT 9999 SCT020"
    },
    {
      "icao": "LIPR",
      "alert": "OK",
      "vis_m": 1800,
      "fzfg": false,
      "metar_trigger": false,
      "taf_trigger": false,
      "metar": "METAR LIPR 030720Z VRB01KT 1800 BR FEW070 00/00 Q1004",
      "taf": "TAF LIPR 030500Z 0306/0406 VRB06KT 7000 SCT050"
    },
    {
      "icao": "LIPX",
      "alert": "OK",
      "vis_m": 100,
      "fzfg": false,
      "metar_trigger": false,
      "taf_trigger": false,
      "metar": "METAR LIPX 030720Z VRB02KT 0100 R04/0225N FG VV002 00/00 Q1004",
      "taf": "TAF LIPX 030500Z 0306/0406 VRB04KT 3000 BR FEW020"
    },
    {
      "icao": "LIPY",
      "alert": "OK",
      "vis_m": 1200,
      "fzfg": false,
      "metar_trigger": false,
      "taf_trigger": false,
      "metar": "METAR LIPY 030720Z AUTO 34005KT 1200 R22/1500U BR OVC002/// 05/05 Q1004",
      "taf": ""
    },
    {
      "icao": "LIPZ",
      "alert": "OK",
      "vis_m": 9000,
      "fzfg": false,
      "metar_trigger": false,
      "taf_trigger": false,
      "metar": "METAR LIPZ 030720Z 24004KT 210V280 9000 NSC M00/M02 Q1004 NOSIG",
      "taf": "TAF LIPZ 030500Z 0306/0412 VRB05KT 9999 FEW020"
    },
    {
      "icao": "LIRF",
      "alert": "OK",
      "vis_m": 9000,
      "fzfg": false,
      "metar_trigger": false,
      "taf_trigger": false,
      "metar": "METAR LIRF 030720Z 24010KT 9000 SCT020 BKN040 14/11 Q1005 NOSIG",
      "taf": "TAF LIRF 030500Z 0306/0412 24014KT 9999 SCT020"
    },
    {
      "icao": "LIRN",
      "alert": "OK",
      "vis_m": 9999,
      "fzfg": false,
      "metar_trigger": false,
      "taf_trigger": false,
      "metar": "METAR LIRN 030720Z 22011KT 9999 FEW030 15/12 Q1006 NOSIG",
      "taf": "TAF LIRN 030500Z 0306/0406 23013KT 9999 BKN030"
    },
    {
      "icao": "LIRP",
      "alert": "OK",
      "vis_m": 9999,
      "fzfg": false,
      "metar_trigger": false,
      "taf_trigger": false,
      "metar": "METAR LIRP 030715Z 24012KT 9999 SCT040 11/06 Q1002 NOSIG",
      "taf": "TAF LIRP 030500Z 0306/0406 23012KT 9999 BKN040"
    },
    {
      "icao": "LIRZ",
      "alert": "OK",
      "vis_m": 9999,
      "fzfg": false,
      "metar_trigger": false,
      "taf_trigger": false,
      "metar": "METAR LIRZ 030720Z AUTO 26003KT 9999 SCT031/// 07/06 Q1004",
      "taf": "TAF LIRZ 030500Z 0306/0406 VRB05KT 9999 SCT030"
    },
    {
      "icao": "LJLJ",
      "alert": "OK",
      "vis_m": 9999,
      "fzfg": false,
      "metar_trigger": false,
      "taf_trigger": false,
      "metar": "METAR LJLJ 030730Z 00000KT 9999 MIFG FEW003 BKN012 BKN130 M00/M01 Q1005 NOSIG",
      "taf": ""
    },
    {
      "icao": "LKMT",
      "alert": "OK",
      "vis_m": 9999,
      "fzfg": false,
      "metar_trigger": false,
      "taf_trigger": false,
      "metar": "METAR LKMT 030730Z 22017KT 9999 -SHSN FEW013 SCT029 BKN046 M01/M06 Q1001 NOSIG",
      "taf": "TAF LKMT 030500Z 0306/0406 22015KT 9999 SCT040"
    },
    {
      "icao": "LKPR",
      "alert": "OK",
      "vis_m": 9999,
      "fzfg": false,
      "metar_trigger": false,
      "taf_trigger": false,
      "metar": "METAR LKPR 030730Z 20016KT CAVOK M02/M05 Q1001 NOSIG",
      "taf": "TAF LKPR 030500Z 0306/0412 23012KT 9999 BKN035"
    },
    {
      "icao": "LLBG",
      "alert": "OK",
      "vis_m": 9999,
      "fzfg": false,
      "metar_trigger": false,
      "taf_trigger": false,
      "metar": "METAR LLBG 030720Z VRB02KT 9999 FEW050 13/07 Q1027 NOSIG",
      "taf": "TAF LLBG 030508Z 0306/0406 VRB03KT CAVOK"
    },
    {
      "icao": "LMML",
      "alert": "OK",
      "vis_m": 9999,
      "fzfg": false,
      "metar_trigger": false,
      "taf_trigger": false,
      "metar": "METAR LMML 030715Z 22016KT CAVOK 16/10 Q1015 NOSIG",
      "taf": "TAF LMML 030500Z 0306/0406 24020KT 9999 FEW020"
    },
    {
      "icao": "LOWW",
      "alert": "OK",
      "vis_m": 9999,
      "fzfg": false,
      "metar_trigger": false,
      "taf_trigger": false,
      "metar": "METAR LOWW 030720Z 28019KT 9999 FEW050 01/M07 Q1005 TEMPO 28022G32KT",
      "taf": "TAF LOWW 030515Z 0306/0412 29015G25KT 9999 FEW040 TX03/0312Z TNM01/0318Z"
    },
    {
      "icao": "LPFR",
      "alert": "OK",
      "vis_m": 6000,
      "fzfg": false,
      "metar_trigger": false,
      "taf_trigger": false,
      "metar": "METAR LPFR 030730Z 18014KT 6000 SHRA SCT014 FEW018CB BKN025 16/14 Q0998",
      "taf": "TAF LPFR 030500Z 0306/0406 18015KT 9999 SCT015 SCT030"
    },
    {
      "icao": "LPMA",
      "alert": "OK",
      "vis_m": 9999,
      "fzfg": false,
      "metar_trigger": false,
      "taf_trigger": false,
      "metar": "METAR LPMA 030730Z 32012G24KT 260V010 9999 SCT015 FEW018CB 17/09 Q0997",
      "taf": ""
    },
    {
      "icao": "LPPR",
      "alert": "OK",
      "vis_m": 9999,
      "fzfg": false,
      "metar_trigger": false,
      "taf_trigger": false,
      "metar": "METAR LPPR 030730Z 11007KT 050V130 9999 BKN045 15/09 Q1000",
      "taf": "TAF LPPR 030500Z 0306/0406 08010KT 9999 FEW035"
    },
    {
      "icao": "LPPS",
      "alert": "OK",
      "vis_m": 9999,
      "fzfg": false,
      "metar_trigger": false,
      "taf_trigger": false,
      "metar": "METAR LPPS 030730Z 32023G35KT 9999 SCT014 FEW018TCU 16/11 Q0996",
      "taf": ""
    },
    {
      "icao": "LPPT",
      "alert": "OK",
      "vis_m": 9999,
      "fzfg": false,
      "metar_trigger": false,
      "taf_trigger": false,
      "metar": "METAR LPPT 030730Z 11009KT 9999 FEW002 BKN004 13/13 Q0997",
      "taf": "TAF LPPT 030500Z 0306/0412 13012KT 9999 SCT015 SCT025"
    },
    {
      "icao": "LQBK",
      "alert": "OK",
      "vis_m": 1500,
      "fzfg": false,
      "metar_trigger": false,
      "taf_trigger": false,
      "metar": "METAR LQBK 030730Z 23003KT 200V260 1500 +SN BR BKN003 OVC006 00/00 Q1008 TEMPO 3000 SN",
      "taf": ""
    },
    {
      "icao": "LQSA",
      "alert": "OK",
      "vis_m": 9999,
      "fzfg": false,
      "metar_trigger": false,
      "taf_trigger": false,
      "metar": "METAR LQSA 030730Z 16006KT 110V220 9999 FEW025 SCT040 05/04 Q1003 NOSIG",
      "taf": "TAF LQSA 030500Z 0306/0406 16006KT 9999 BKN045 TX08/0312Z TN01/0319Z"
    },
    {
      "icao": "LQTZ",
      "alert": "OK",
      "vis_m": 9999,
      "fzfg": false,
      "metar_trigger": false,
      "taf_trigger": false,
      "metar": "METAR LQTZ 030730Z VRB04KT 9999 -RA SCT015 BKN023 03/02 Q1007",
      "taf": "TAF LQTZ 030500Z 0306/0406 27005KT 9999 SCT015 BKN030 TX03/0313Z TNM00/0406Z"
    },
    {
      "icao": "LRBC",
      "alert": "OK",
      "vis_m": 9999,
      "fzfg": false,
      "metar_trigger": false,
      "taf_trigger": false,
      "metar": "METAR LRBC 030730Z 19002KT 9999 -RA OVC034 01/M01 Q1002",
      "taf": "TAF LRBC 030500Z 0306/0315 VRB04KT 9999 BKN040"
    },
    {
      "icao": "LRBS",
      "alert": "OK",
      "vis_m": 9999,
      "fzfg": false,
      "metar_trigger": false,
      "taf_trigger": false,
      "metar": "METAR LRBS 030730Z VRB02KT CAVOK 02/M01 Q1002 NOSIG",
      "taf": "TAF LRBS 030500Z 0306/0406 VRB04KT 9999 SCT045"
    },
    {
      "icao": "LRBV",
      "alert": "OK",
      "vis_m": 1400,
      "fzfg": false,
      "metar_trigger": false,
      "taf_trigger": false,
      "metar": "METAR LRBV 030730Z 28008KT 1400 R21/P2000N -SN VV012 M01/M01 Q1003",
      "taf": "TAF LRBV 030500Z 0306/0315 26008KT 5000 -SN BKN010 BKN025"
    },
    {
      "icao": "LRCL",
      "alert": "OK",
      "vis_m": 2000,
      "fzfg": false,
      "metar_trigger": false,
      "taf_trigger": false,
      "metar": "METAR LRCL 030730Z 17001KT 2000 -SN BR BKN025 OVC032 00/M00 Q1004",
      "taf": "TAF LRCL 030500Z 0306/0315 24006KT 9999 SCT030 BKN055"
    },
    {
      "icao": "LRCV",
      "alert": "OK",
      "vis_m": 9999,
      "fzfg": false,
      "metar_trigger": false,
      "taf_trigger": false,
      "metar": "METAR LRCV 030730Z 36006KT CAVOK 01/00 Q1002",
      "taf": "TAF LRCV 030500Z 0306/0315 VRB04KT 9999 SCT045"
    },
    {
      "icao": "LRIA",
      "alert": "OK",
      "vis_m": 9999,
      "fzfg": false,
      "metar_trigger": false,
      "taf_trigger": false,
      "metar": "METAR LRIA 030730Z 23003KT 130V290 CAVOK 03/00 Q1001",
      "taf": "TAF LRIA 030500Z 0306/0315 VRB04KT 9999 BKN045"
    },
    {
      "icao": "LROP",
      "alert": "OK",
      "vis_m": 9999,
      "fzfg": false,
      "metar_trigger": false,
      "taf_trigger": false,
      "metar": "METAR LROP 030730Z VRB01KT CAVOK 01/M01 Q1002 NOSIG",
      "taf": "TAF LROP 030500Z 0306/0406 VRB04KT 9999 SCT045"
    },
    {
      "icao": "LRSB",
      "alert": "OK",
      "vis_m": 1800,
      "fzfg": false,
      "metar_trigger": false,
      "taf_trigger": false,
      "metar": "METAR LRSB 030730Z 25002KT 1800 -SN BR SCT004 BKN010 OVC018 00/00 Q1003 TEMPO 0800 SN",
      "taf": "TAF LRSB 030500Z 0306/0406 VRB04KT 1500 SN BKN005 OVC015"
    },
    {
      "icao": "LRSM",
      "alert": "OK",
      "vis_m": 9999,
      "fzfg": false,
      "metar_trigger": false,
      "taf_trigger": false,
      "metar": "METAR LRSM 030730Z AUTO 21005KT 9999 SCT050/// BKN065/// OVC120/// M00/M01 Q1004",
      "taf": ""
    },
    {
      "icao": "LRSV",
      "alert": "OK",
      "vis_m": 9999,
      "fzfg": false,
      "metar_trigger": false,
      "taf_trigger": false,
      "metar": "METAR LRSV 030730Z 22005KT CAVOK 01/M05 Q1000",
      "taf": "TAF LRSV 030500Z 0306/0315 22010KT CAVOK"
    },
    {
      "icao": "LRTM",
      "alert": "OK",
      "vis_m": 1800,
      "fzfg": false,
      "metar_trigger": false,
      "taf_trigger": false,
      "metar": "METAR LRTM 030730Z 24003KT 1800 -SN BR FEW002 SCT006 BKN016 00/M00 Q1004",
      "taf": "TAF LRTM 030500Z 0306/0315 24006KT 5000 -SN BKN005 OVC015"
    },
    {
      "icao": "LRTR",
      "alert": "OK",
      "vis_m": 9999,
      "fzfg": false,
      "metar_trigger": false,
      "taf_trigger": false,
      "metar": "METAR LRTR 030730Z 10007KT 9999 -RA FEW012 BKN028 OVC049 01/00 Q1005",
      "taf": "TAF LRTR 030500Z 0306/0406 05007KT 5000 -SN SCT005 OVC015"
    },
    {
      "icao": "LTAC",
      "alert": "OK",
      "vis_m": 6000,
      "fzfg": false,
      "metar_trigger": false,
      "taf_trigger": false,
      "metar": "METAR LTAC 030720Z 05003KT 360V110 6000 NSC M10/M13 Q1023 NOSIG RMK RWY21C 04003KT RWY03L 05004KT 020V080 RWY21R 01003KT 330V050 RWY03R 03003KT 350V050 RWY21L 02003KT 350V050",
      "taf": "TAF LTAC 030440Z 0306/0406 VRB02KT CAVOK"
    },
    {
      "icao": "LTFM",
      "alert": "OK",
      "vis_m": 9999,
      "fzfg": false,
      "metar_trigger": false,
      "taf_trigger": false,
      "metar": "METAR LTFM 030720Z 21030KT 9999 BKN025 11/05 Q1011 RESHRA NOSIG RMK RWY17L 21028G42KT RWY34L 20026G37KT RWY16R 21025KT RWY36 21027KT RWY18 21029KT",
      "taf": "TAF LTFM 030440Z 0306/0412 20026G38KT 9999 SCT035 BKN090"
    },
    {
      "icao": "LUKK",
      "alert": "OK",
      "vis_m": 9999,
      "fzfg": false,
      "metar_trigger": false,
      "taf_trigger": false,
      "metar": "METAR LUKK 030730Z 05003KT 020V140 CAVOK 02/M02 Q1001 NOSIG",
      "taf": "TAF LUKK 030508Z 0306/0406 VRB06KT 9999 SCT035"
    },
    {
      "icao": "LWOH",
      "alert": "OK",
      "vis_m": 9999,
      "fzfg": false,
      "metar_trigger": false,
      "taf_trigger": false,
      "metar": "METAR LWOH 030720Z 15013KT 9999 BKN040 11/05 Q1008",
      "taf": "TAF LWOH 030545Z 0306/0406 16012KT 9999 BKN040"
    },
    {
      "icao": "LWSK",
      "alert": "OK",
      "vis_m": 9999,
      "fzfg": false,
      "metar_trigger": false,
      "taf_trigger": false,
      "metar": "METAR LWSK 030720Z 32004KT 9999 SCT040 00/M02 Q1007 NOSIG",
      "taf": "TAF LWSK 030545Z 0306/0406 VRB03KT 9999 BKN070"
    },
    {
      "icao": "LYBE",
      "alert": "OK",
      "vis_m": 2000,
      "fzfg": false,
      "metar_trigger": false,
      "taf_trigger": false,
      "metar": "METAR LYBE 030730Z 04004KT 360V070 2000 SN BKN002 OVC033 00/M00 Q1006 RESN NOSIG",
      "taf": "TAF LYBE 030500Z 0306/0406 02012KT 9999 BKN006 TX02/0313Z TN01/0307Z"
    },
    {
      "icao": "LYNI",
      "alert": "OK",
      "vis_m": 9999,
      "fzfg": false,
      "metar_trigger": false,
      "taf_trigger": false,
      "metar": "METAR LYNI 030730Z 19006KT 140V240 9999 BKN047 09/01 Q1004 NOSIG",
      "taf": "TAF LYNI 030500Z 0306/0406 16008KT 9999 BKN040 TX08/0309Z TN01/0318Z"
    },
    {
      "icao": "LYPG",
      "alert": "OK",
      "vis_m": 9999,
      "fzfg": false,
      "metar_trigger": false,
      "taf_trigger": false,
      "metar": "METAR LYPG 030730Z 14005KT 110V180 9999 -RA FEW020 SCT040 OVC070 10/09 Q1007 NOSIG",
      "taf": "TAF LYPG 030500Z 0306/0406 15008KT 9999 FEW020 BKN040 OVC080 TX13/0315Z TN10/0306Z"
    },
    {
      "icao": "LZIB",
      "alert": "OK",
      "vis_m": 9999,
      "fzfg": false,
      "metar_trigger": false,
      "taf_trigger": false,
      "metar": "METAR LZIB 030730Z 28016KT CAVOK 01/M06 Q1005 NOSIG",
      "taf": "TAF LZIB 030515Z 0306/0406 29013KT CAVOK"
    },
    {
      "icao": "LZKZ",
      "alert": "OK",
      "vis_m": 9999,
      "fzfg": false,
      "metar_trigger": false,
      "taf_trigger": false,
      "metar": "METAR LZKZ 030730Z 20005KT CAVOK M04/M06 Q1001 NOSIG",
      "taf": "TAF LZKZ 030515Z 0306/0406 24008KT CAVOK"
    },
    {
      "icao": "LZTT",
      "alert": "OK",
      "vis_m": 9999,
      "fzfg": false,
      "metar_trigger": false,
      "taf_trigger": false,
      "metar": "METAR LZTT 030730Z 27012KT 9999 VCSH FEW010 M03/M09 Q0998 NOSIG",
      "taf": "TAF LZTT 030515Z 0306/0406 25010KT 9999 FEW040"
    },
    {
      "icao": "OEJN",
      "alert": "OK",
      "vis_m": 9999,
      "fzfg": false,
      "metar_trigger": false,
      "taf_trigger": false,
      "metar": "METAR OEJN 030700Z 35004KT CAVOK 26/16 Q1017 NOSIG",
      "taf": "TAF OEJN 030500Z 0306/0412 32010KT CAVOK"
    },
    {
      "icao": "OEMA",
      "alert": "OK",
      "vis_m": 9999,
      "fzfg": false,
      "metar_trigger": false,
      "taf_trigger": false,
      "metar": "METAR OEMA 030700Z 05008KT CAVOK 21/M01 Q1022 NOSIG",
      "taf": "TAF OEMA 030500Z 0306/0412 06008KT CAVOK"
    },
    {
      "icao": "OJAI",
      "alert": "OK",
      "vis_m": 2500,
      "fzfg": false,
      "metar_trigger": false,
      "taf_trigger": false,
      "metar": "METAR OJAI 030700Z 08003KT 2500 BR FEW025 05/04 Q1028 NOSIG",
      "taf": "TAF OJAI 030443Z 0306/0412 VRB02KT 3000 BR SCT035"
    },
    {
      "icao": "OMAA",
      "alert": "OK",
      "vis_m": 9999,
      "fzfg": false,
      "metar_trigger": false,
      "taf_trigger": false,
      "metar": "METAR OMAA 030700Z 34003KT 270V040 9999 FEW040 22/16 Q1021 NOSIG",
      "taf": "TAF OMAA 030500Z 0306/0412 VRB02KT 7000 NSC"
    },
    {
      "icao": "OMDB",
      "alert": "OK",
      "vis_m": 9999,
      "fzfg": false,
      "metar_trigger": false,
      "taf_trigger": false,
      "metar": "METAR OMDB 030730Z 22006KT 9999 FEW030 23/15 Q1020 BECMG 30010KT",
      "taf": "TAF OMDB 030500Z 0306/0412 19005KT 3000 HZ NSC"
    },
    {
      "icao": "UAAA",
      "alert": "OK",
      "vis_m": 150,
      "fzfg": false,
      "metar_trigger": false,
      "taf_trigger": false,
      "metar": "METAR UAAA 030730Z VRB01MPS 0150 R23L/0200N FG VV001 00/M00 Q1021 NOSIG RMK QBB050",
      "taf": ""
    },
    {
      "icao": "UBBB",
      "alert": "OK",
      "vis_m": 9999,
      "fzfg": false,
      "metar_trigger": false,
      "taf_trigger": false,
      "metar": "METAR UBBB 030730Z 20010KT 9999 FEW030 05/01 Q1027 NOSIG",
      "taf": "TAF UBBB 030501Z 0306/0406 18012KT 9999 SCT030 TX07/0310Z TN02/0401Z"
    },
    {
      "icao": "UDSG",
      "alert": "OK",
      "vis_m": 9999,
      "fzfg": false,
      "metar_trigger": false,
      "taf_trigger": false,
      "metar": "METAR UDSG 030730Z 21001KT 9999 NSC M20/M22 Q1027 NOSIG",
      "taf": "TAF UDSG 030458Z 0306/0406 VRB06KT 9999 FEW040"
    },
    {
      "icao": "UDYZ",
      "alert": "OK",
      "vis_m": 9999,
      "fzfg": false,
      "metar_trigger": false,
      "taf_trigger": false,
      "metar": "METAR UDYZ 030730Z 26001KT 9999 NSC M10/M15 Q1030 NOSIG",
      "taf": "TAF UDYZ 030500Z 0306/0406 VRB06KT 9999 NSC"
    },
    {
      "icao": "UGKO",
      "alert": "OK",
      "vis_m": 9999,
      "fzfg": false,
      "metar_trigger": false,
      "taf_trigger": false,
      "metar": "METAR UGKO 030730Z 09024G34KT CAVOK 03/M06 Q1023 NOSIG",
      "taf": "TAF UGKO 030500Z 0306/0406 08017KT CAVOK TX05/0311Z TNM02/0402Z"
    }
  ]
}