{
  "ts_utc": "2026-07-18T12:39:26Z",
  "threshold_m": 150,
  "source": "stations_override.txt (ICAO list) + aviationweather.gov (METAR/TAF raw)",
  "station_count": 159,
  "stations": [
    {
      "icao": "BIKF",
      "alert": "OK",
      "vis_m": 9999,
      "fzfg": false,
      "metar_trigger": false,
      "taf_trigger": false,
      "metar": "METAR BIKF 181230Z 21010KT 9999 BKN004 OVC016 11/11 Q1025",
      "taf": "TAF BIKF 181049Z 1812/1912 23005KT 3000 -DZ BR OVC004 TX11/1813Z TN10/1906Z"
    },
    {
      "icao": "BKPR",
      "alert": "OK",
      "vis_m": 9999,
      "fzfg": false,
      "metar_trigger": false,
      "taf_trigger": false,
      "metar": "METAR BKPR 181230Z 28007KT 250V050 9999 FEW050 35/15 Q1012 NOSIG",
      "taf": "TAF BKPR 181130Z 1812/1912 35008KT 9999 SCT050"
    },
    {
      "icao": "EBCI",
      "alert": "OK",
      "vis_m": 9999,
      "fzfg": false,
      "metar_trigger": false,
      "taf_trigger": false,
      "metar": "METAR EBCI 181220Z 27004KT 230V010 9999 BKN027 20/13 Q1018 NOSIG",
      "taf": "TAF EBCI 181112Z 1812/1918 32009KT 9999 SCT030 SCT045"
    },
    {
      "icao": "EDDB",
      "alert": "OK",
      "vis_m": 9999,
      "fzfg": false,
      "metar_trigger": false,
      "taf_trigger": false,
      "metar": "METAR EDDB 181220Z AUTO 25015KT 9999 BKN042 24/12 Q1011 TEMPO 28015G25KT",
      "taf": "TAF EDDB 181100Z 1812/1912 29013KT 9999 SCT030"
    },
    {
      "icao": "EDDH",
      "alert": "OK",
      "vis_m": 9999,
      "fzfg": false,
      "metar_trigger": false,
      "taf_trigger": false,
      "metar": "METAR EDDH 181220Z AUTO 28016KT 250V310 9999 FEW027 OVC039 18/12 Q1012 TEMPO 30015G25KT",
      "taf": "TAF EDDH 181100Z 1812/1918 27015G25KT 9999 BKN030"
    },
    {
      "icao": "EDDK",
      "alert": "OK",
      "vis_m": 9999,
      "fzfg": false,
      "metar_trigger": false,
      "taf_trigger": false,
      "metar": "METAR EDDK 181220Z AUTO 31007KT 250V010 9999 BKN038 BKN044 23/13 Q1016 NOSIG",
      "taf": "TAF EDDK 181100Z 1812/1918 32011KT 9999 SCT040"
    },
    {
      "icao": "EDDN",
      "alert": "OK",
      "vis_m": 9999,
      "fzfg": false,
      "metar_trigger": false,
      "taf_trigger": false,
      "metar": "METAR EDDN 181220Z AUTO 29011KT 260V320 CAVOK 26/12 Q1014 NOSIG",
      "taf": "TAF EDDN 181100Z 1812/1912 28010KT 9999 SCT040"
    },
    {
      "icao": "EDDS",
      "alert": "OK",
      "vis_m": 9999,
      "fzfg": false,
      "metar_trigger": false,
      "taf_trigger": false,
      "metar": "METAR EDDS 181220Z AUTO VRB05KT 9999 -SHRA SCT043 FEW///CB 25/14 Q1015 RETSRA TEMPO TSRA",
      "taf": "TAF EDDS 181100Z 1812/1912 27004KT 9999 SCT035"
    },
    {
      "icao": "EDFH",
      "alert": "OK",
      "vis_m": 9999,
      "fzfg": false,
      "metar_trigger": false,
      "taf_trigger": false,
      "metar": "METAR EDFH 181220Z VRB04KT 9999 SCT042 23/12 Q1016",
      "taf": "TAF EDFH 181100Z 1812/1912 31007KT 9999 FEW045"
    },
    {
      "icao": "EDJA",
      "alert": "OK",
      "vis_m": 9999,
      "fzfg": false,
      "metar_trigger": false,
      "taf_trigger": false,
      "metar": "METAR EDJA 181220Z 32006G17KT 290V350 9999 TSRA SCT049CB 22/14 Q1017",
      "taf": "TAF EDJA 181100Z 1812/1821 27009KT 9999 SCT035"
    },
    {
      "icao": "EDLW",
      "alert": "OK",
      "vis_m": 9999,
      "fzfg": false,
      "metar_trigger": false,
      "taf_trigger": false,
      "metar": "METAR EDLW 181220Z 24008KT 200V270 9999 BKN034 OVC042 21/13 Q1015",
      "taf": "TAF EDLW 181100Z 1812/1912 26009KT 9999 BKN030"
    },
    {
      "icao": "EDNY",
      "alert": "OK",
      "vis_m": 9999,
      "fzfg": false,
      "metar_trigger": false,
      "taf_trigger": false,
      "metar": "METAR EDNY 181220Z 21005KT 160V270 CAVOK 26/15 Q1016",
      "taf": "TAF EDNY 181100Z 1812/1821 23007KT 9999 FEW040"
    },
    {
      "icao": "EDSB",
      "alert": "OK",
      "vis_m": 9999,
      "fzfg": false,
      "metar_trigger": false,
      "taf_trigger": false,
      "metar": "METAR EDSB 181220Z VRB03KT 9999 SCT047CB 25/14 Q1015",
      "taf": "TAF EDSB 181100Z 1812/1912 27005KT 9999 FEW030"
    },
    {
      "icao": "EETN",
      "alert": "OK",
      "vis_m": 9999,
      "fzfg": false,
      "metar_trigger": false,
      "taf_trigger": false,
      "metar": "METAR EETN 181220Z 14013KT CAVOK 26/17 Q1004 NOSIG",
      "taf": "TAF EETN 181130Z 1812/1912 16014KT CAVOK"
    },
    {
      "icao": "EFTU",
      "alert": "OK",
      "vis_m": 5000,
      "fzfg": false,
      "metar_trigger": false,
      "taf_trigger": false,
      "metar": "METAR EFTU 181220Z AUTO 09003KT 5000 -SHRA FEW030 //////CB 19/18 Q1004",
      "taf": "TAF EFTU 181131Z 1812/1912 14006KT 9999 -SHRA SCT030CB"
    },
    {
      "icao": "EGBB",
      "alert": "OK",
      "vis_m": 9999,
      "fzfg": false,
      "metar_trigger": false,
      "taf_trigger": false,
      "metar": "METAR EGBB 181220Z VRB03KT 9999 BKN036 20/11 Q1021",
      "taf": "TAF EGBB 181056Z 1812/1912 03008KT 9999 SCT040"
    },
    {
      "icao": "EGGP",
      "alert": "OK",
      "vis_m": 9000,
      "fzfg": false,
      "metar_trigger": false,
      "taf_trigger": false,
      "metar": "METAR EGGP 181220Z 30006KT 9000 -RA OVC016 17/14 Q1021 RERA",
      "taf": ""
    },
    {
      "icao": "EGGW",
      "alert": "OK",
      "vis_m": 9999,
      "fzfg": false,
      "metar_trigger": false,
      "taf_trigger": false,
      "metar": "METAR EGGW 181220Z AUTO 01010KT 340V050 9999 OVC031 18/10 Q1021",
      "taf": "TAF EGGW 181056Z 1812/1912 03006KT 9999 SCT030"
    },
    {
      "icao": "EGKK",
      "alert": "OK",
      "vis_m": 9999,
      "fzfg": false,
      "metar_trigger": false,
      "taf_trigger": false,
      "metar": "METAR EGKK 181220Z 03010KT 360V060 CAVOK 23/09 Q1019",
      "taf": "TAF EGKK 181103Z 1812/1918 01008KT 9999 FEW040"
    },
    {
      "icao": "EGNM",
      "alert": "OK",
      "vis_m": 9999,
      "fzfg": false,
      "metar_trigger": false,
      "taf_trigger": false,
      "metar": "METAR EGNM 181220Z 36005KT 320V050 9999 BKN022 15/10 Q1022",
      "taf": "TAF EGNM 181057Z 1812/1912 03006KT 9999 SCT030"
    },
    {
      "icao": "EGPD",
      "alert": "OK",
      "vis_m": 9999,
      "fzfg": false,
      "metar_trigger": false,
      "taf_trigger": false,
      "metar": "METAR EGPD 181220Z AUTO 33015KT 9999 BKN025 OVC029 15/08 Q1023",
      "taf": "TAF EGPD 181056Z 1812/1912 33014KT 9999 FEW010 SCT025"
    },
    {
      "icao": "EGPF",
      "alert": "OK",
      "vis_m": 9999,
      "fzfg": false,
      "metar_trigger": false,
      "taf_trigger": false,
      "metar": "METAR EGPF 181220Z AUTO 35003KT 270V080 9999 BKN042 22/12 Q1022",
      "taf": "TAF EGPF 181059Z 1812/1912 32006KT 9999 SCT035"
    },
    {
      "icao": "EHBK",
      "alert": "OK",
      "vis_m": 9999,
      "fzfg": false,
      "metar_trigger": false,
      "taf_trigger": false,
      "metar": "METAR EHBK 181225Z AUTO 29005KT 230V010 9999 OVC041 21/13 Q1016 NOSIG",
      "taf": "TAF EHBK 181115Z 1812/1918 28010KT 9999 BKN025"
    },
    {
      "icao": "EHEH",
      "alert": "OK",
      "vis_m": 9999,
      "fzfg": false,
      "metar_trigger": false,
      "taf_trigger": false,
      "metar": "METAR EHEH 181225Z AUTO 34006KT 300V040 9999 SCT031 BKN035 BKN040 21/13 Q1016 BLU NOSIG RMK TREND REMOTE BY EHWX",
      "taf": "TAF EHEH 181119Z 1812/1918 31007KT 9999 SCT028 BKN035"
    },
    {
      "icao": "EKBI",
      "alert": "OK",
      "vis_m": 9999,
      "fzfg": false,
      "metar_trigger": false,
      "taf_trigger": false,
      "metar": "METAR EKBI 181220Z AUTO 28018KT 9999 BKN028/// 17/10 Q1008",
      "taf": "TAF EKBI 181127Z 1812/1912 28012KT 9999 SCT045"
    },
    {
      "icao": "EKCH",
      "alert": "OK",
      "vis_m": 9999,
      "fzfg": false,
      "metar_trigger": false,
      "taf_trigger": false,
      "metar": "METAR EKCH 181220Z AUTO 28012KT 250V330 9999 BKN029/// 20/12 Q1007 NOSIG",
      "taf": "TAF EKCH 181127Z 1812/1912 28009KT 9999 BKN030"
    },
    {
      "icao": "ENAL",
      "alert": "OK",
      "vis_m": 9999,
      "fzfg": false,
      "metar_trigger": false,
      "taf_trigger": false,
      "metar": "METAR ENAL 181220Z 02013KT 9999 SCT034 14/06 Q1017",
      "taf": "TAF ENAL 181100Z 1812/1821 04015KT 9999 FEW020"
    },
    {
      "icao": "ENBR",
      "alert": "OK",
      "vis_m": 9999,
      "fzfg": false,
      "metar_trigger": false,
      "taf_trigger": false,
      "metar": "METAR ENBR 181220Z 31014KT 9999 FEW040TCU 17/07 Q1009 TEMPO 33015G25KT RMK WIND 1200FT 33025KT",
      "taf": "TAF ENBR 181100Z 1812/1912 32010KT 9999 SCT030"
    },
    {
      "icao": "ENGM",
      "alert": "OK",
      "vis_m": 9999,
      "fzfg": false,
      "metar_trigger": false,
      "taf_trigger": false,
      "metar": "METAR ENGM 181220Z 02015KT 9999 -RA FEW013 BKN041 11/09 Q1009 TEMPO 02015G25KT",
      "taf": "TAF ENGM 181100Z 1812/1912 01012KT 9999 -RA FEW020 BKN030"
    },
    {
      "icao": "ENHD",
      "alert": "OK",
      "vis_m": 9999,
      "fzfg": false,
      "metar_trigger": false,
      "taf_trigger": false,
      "metar": "METAR ENHD 181220Z 34022KT CAVOK 15/09 Q1009",
      "taf": "TAF ENHD 181100Z 1812/1821 34018KT CAVOK"
    },
    {
      "icao": "ENTC",
      "alert": "OK",
      "vis_m": 9999,
      "fzfg": false,
      "metar_trigger": false,
      "taf_trigger": false,
      "metar": "METAR ENTC 181220Z 28016KT 9999 FEW039 SCT049 09/01 Q1011 NOSIG RMK WIND 2600FT 30015KT",
      "taf": "TAF ENTC 181100Z 1812/1912 28012KT 9999 -SHRA SCT015TCU BKN020"
    },
    {
      "icao": "ENTO",
      "alert": "OK",
      "vis_m": 9999,
      "fzfg": false,
      "metar_trigger": false,
      "taf_trigger": false,
      "metar": "METAR ENTO 181220Z 01016KT 9999 OVC024 13/09 Q1007 TEMPO 01016G26KT",
      "taf": "TAF ENTO 181100Z 1812/1912 01015KT 9999 SCT020 BKN030"
    },
    {
      "icao": "ENVA",
      "alert": "OK",
      "vis_m": 9999,
      "fzfg": false,
      "metar_trigger": false,
      "taf_trigger": false,
      "metar": "METAR ENVA 181220Z 34010KT 9999 FEW043 BKN050 14/04 Q1016 NOSIG RMK WIND 670FT 33012KT",
      "taf": "TAF ENVA 181100Z 1812/1912 32008KT 9999 BKN050"
    },
    {
      "icao": "ENZV",
      "alert": "OK",
      "vis_m": 9999,
      "fzfg": false,
      "metar_trigger": false,
      "taf_trigger": false,
      "metar": "METAR ENZV 181220Z 30011KT CAVOK 18/12 Q1008 NOSIG",
      "taf": "TAF ENZV 181100Z 1812/1912 34010KT 9999 FEW018"
    },
    {
      "icao": "EPGD",
      "alert": "OK",
      "vis_m": 9999,
      "fzfg": false,
      "metar_trigger": false,
      "taf_trigger": false,
      "metar": "METAR EPGD 181230Z 27014KT 9999 BKN011 19/17 Q1007",
      "taf": "TAF EPGD 181130Z 1812/1912 27012KT 9999 BKN015"
    },
    {
      "icao": "EPKK",
      "alert": "OK",
      "vis_m": 9999,
      "fzfg": false,
      "metar_trigger": false,
      "taf_trigger": false,
      "metar": "METAR EPKK 181230Z 24006KT 9999 -SHRA BKN045CB 22/18 Q1011 RETS",
      "taf": "TAF EPKK 181130Z 1812/1912 25008KT CAVOK"
    },
    {
      "icao": "EPKT",
      "alert": "OK",
      "vis_m": 9999,
      "fzfg": false,
      "metar_trigger": false,
      "taf_trigger": false,
      "metar": "METAR EPKT 181230Z 29009KT 9999 -SHRA FEW035CB 23/15 Q1011",
      "taf": "TAF EPKT 181130Z 1812/1912 28009KT CAVOK"
    },
    {
      "icao": "EPLB",
      "alert": "OK",
      "vis_m": 9999,
      "fzfg": false,
      "metar_trigger": false,
      "taf_trigger": false,
      "metar": "METAR EPLB 181230Z 24007KT 210V280 9999 FEW050TCU 29/16 Q1008",
      "taf": "TAF EPLB 181130Z 1812/1912 24010KT 9999 SCT040"
    },
    {
      "icao": "EPMO",
      "alert": "OK",
      "vis_m": 9999,
      "fzfg": false,
      "metar_trigger": false,
      "taf_trigger": false,
      "metar": "METAR EPMO 181230Z 23014KT 200V270 9999 SCT034TCU 25/17 Q1008",
      "taf": "TAF EPMO 181130Z 1812/1912 26012KT 9999 SCT035"
    },
    {
      "icao": "EPPO",
      "alert": "OK",
      "vis_m": 9999,
      "fzfg": false,
      "metar_trigger": false,
      "taf_trigger": false,
      "metar": "METAR EPPO 181230Z 27012KT 230V300 9999 SCT040 24/14 Q1010",
      "taf": "TAF EPPO 181130Z 1812/1912 27012KT 9999 BKN025"
    },
    {
      "icao": "EPRA",
      "alert": "OK",
      "vis_m": 9999,
      "fzfg": false,
      "metar_trigger": false,
      "taf_trigger": false,
      "metar": "METAR EPRA 181230Z 26011KT 220V290 CAVOK 25/17 Q1010",
      "taf": "TAF EPRA 181130Z 1812/1821 29012KT 9999 SCT040"
    },
    {
      "icao": "EPRZ",
      "alert": "OK",
      "vis_m": 9999,
      "fzfg": false,
      "metar_trigger": false,
      "taf_trigger": false,
      "metar": "METAR EPRZ 181230Z 27009KT 9999 FEW050CB 28/16 Q1010",
      "taf": "TAF EPRZ 181130Z 1812/1912 25010KT CAVOK"
    },
    {
      "icao": "EPSC",
      "alert": "OK",
      "vis_m": 9999,
      "fzfg": false,
      "metar_trigger": false,
      "taf_trigger": false,
      "metar": "METAR EPSC 181230Z 25009KT 200V280 9999 SCT027 BKN031 20/13 Q1010",
      "taf": "TAF EPSC 181130Z 1812/1912 26012KT 9999 BKN040"
    },
    {
      "icao": "EPSY",
      "alert": "OK",
      "vis_m": 9999,
      "fzfg": false,
      "metar_trigger": false,
      "taf_trigger": false,
      "metar": "METAR EPSY 181230Z 24010KT 200V270 9999 -SHRA FEW009 BKN018CB 19/17 Q1007",
      "taf": "TAF EPSY 181130Z 1812/1821 21008KT 9999 BKN040"
    },
    {
      "icao": "EPWA",
      "alert": "OK",
      "vis_m": 9999,
      "fzfg": false,
      "metar_trigger": false,
      "taf_trigger": false,
      "metar": "METAR EPWA 181230Z 26011KT 9999 FEW030TCU SCT033 25/18 Q1008 NOSIG",
      "taf": "TAF EPWA 181130Z 1812/1912 26012KT 9999 SCT035"
    },
    {
      "icao": "EPWR",
      "alert": "OK",
      "vis_m": 9999,
      "fzfg": false,
      "metar_trigger": false,
      "taf_trigger": false,
      "metar": "METAR EPWR 181230Z 31015KT 9999 FEW050TCU 26/14 Q1011",
      "taf": "TAF EPWR 181130Z 1812/1912 27012KT 9999 SCT035"
    },
    {
      "icao": "ESGG",
      "alert": "OK",
      "vis_m": 9999,
      "fzfg": false,
      "metar_trigger": false,
      "taf_trigger": false,
      "metar": "METAR ESGG 181220Z VRB02KT 9999 FEW019CB BKN045 16/16 Q1004",
      "taf": "TAF ESGG 181130Z 1812/1912 30004KT 9999 BKN020"
    },
    {
      "icao": "ESKN",
      "alert": "OK",
      "vis_m": 8000,
      "fzfg": false,
      "metar_trigger": false,
      "taf_trigger": false,
      "metar": "METAR ESKN 181220Z 36008KT 330V030 8000 TSRA FEW040 BKN060CB 18/18 Q1002",
      "taf": ""
    },
    {
      "icao": "ESMS",
      "alert": "OK",
      "vis_m": 9999,
      "fzfg": false,
      "metar_trigger": false,
      "taf_trigger": false,
      "metar": "METAR ESMS 181220Z 27015KT 9999 FEW024 SCT028 BKN039 21/14 Q1006",
      "taf": "TAF ESMS 181127Z 1812/1912 27009KT 9999 BKN035"
    },
    {
      "icao": "ESSA",
      "alert": "OK",
      "vis_m": 9999,
      "fzfg": false,
      "metar_trigger": false,
      "taf_trigger": false,
      "metar": "METAR ESSA 181220Z 35011KT 9999 FEW011CB BKN012 15/13 Q1004 TEMPO BKN025CB",
      "taf": "TAF ESSA 181130Z 1812/1912 01013KT 9999 BKN014"
    },
    {
      "icao": "EYKA",
      "alert": "OK",
      "vis_m": 9999,
      "fzfg": false,
      "metar_trigger": false,
      "taf_trigger": false,
      "metar": "METAR EYKA 181220Z 24008KT 200V280 CAVOK 25/19 Q1006",
      "taf": "TAF EYKA 181101Z 1812/1912 18013KT 9000 SCT010 BKN020"
    },
    {
      "icao": "EYPA",
      "alert": "OK",
      "vis_m": 9999,
      "fzfg": false,
      "metar_trigger": false,
      "taf_trigger": false,
      "metar": "METAR EYPA 181220Z 21006KT 170V280 9999 SCT004 BKN014CB BKN021 20/19 Q1004",
      "taf": "TAF EYPA 181101Z 1812/1912 23010KT 5000 BR BKN005 OVC015"
    },
    {
      "icao": "EYVI",
      "alert": "OK",
      "vis_m": 9999,
      "fzfg": false,
      "metar_trigger": false,
      "taf_trigger": false,
      "metar": "METAR EYVI 181220Z 17013KT 9999 VCSH BKN058CB 26/16 Q1008 NOSIG",
      "taf": "TAF EYVI 181100Z 1812/1912 17012KT 9000 SCT045"
    },
    {
      "icao": "GCFV",
      "alert": "OK",
      "vis_m": 9999,
      "fzfg": false,
      "metar_trigger": false,
      "taf_trigger": false,
      "metar": "METAR GCFV 181230Z 04016KT 9999 FEW018 26/20 Q1015",
      "taf": "TAF GCFV 180800Z 1809/1909 04016KT CAVOK TX27/1814Z TN23/1906Z"
    },
    {
      "icao": "GCLP",
      "alert": "OK",
      "vis_m": 9999,
      "fzfg": false,
      "metar_trigger": false,
      "taf_trigger": false,
      "metar": "METAR GCLP 181230Z 02028KT 9999 FEW020 27/20 Q1016 NOSIG",
      "taf": "TAF GCLP 180800Z 1809/1909 01024KT 9999 FEW020 TX29/1814Z TN23/1906Z"
    },
    {
      "icao": "GCTS",
      "alert": "OK",
      "vis_m": 9999,
      "fzfg": false,
      "metar_trigger": false,
      "taf_trigger": false,
      "metar": "METAR GCTS 181230Z 08022KT 9999 FEW020 28/20 Q1016 WS R07 NOSIG",
      "taf": "TAF GCTS 180800Z 1809/1909 08022KT CAVOK TX30/1814Z TN23/1906Z"
    },
    {
      "icao": "GMAD",
      "alert": "OK",
      "vis_m": 8000,
      "fzfg": false,
      "metar_trigger": false,
      "taf_trigger": false,
      "metar": "METAR GMAD 181230Z 25009KT 8000 NSC 31/19 Q1011 NOSIG",
      "taf": "TAF GMAD 181100Z 1812/1918 25007KT 8000 NSC"
    },
    {
      "icao": "GMMN",
      "alert": "OK",
      "vis_m": 9999,
      "fzfg": false,
      "metar_trigger": false,
      "taf_trigger": false,
      "metar": "METAR GMMN 181230Z 03010KT 340V060 CAVOK 31/17 Q1015 NOSIG",
      "taf": "TAF GMMN 181100Z 1812/1918 01013KT CAVOK"
    },
    {
      "icao": "GMMX",
      "alert": "OK",
      "vis_m": 8000,
      "fzfg": false,
      "metar_trigger": false,
      "taf_trigger": false,
      "metar": "METAR GMMX 181230Z 29006KT 210V340 8000 FEW034 SCT200 34/20 Q1014 NOSIG",
      "taf": "TAF GMMX 181100Z 1812/1918 04006KT 8000 NSC"
    },
    {
      "icao": "HEGN",
      "alert": "OK",
      "vis_m": 9999,
      "fzfg": false,
      "metar_trigger": false,
      "taf_trigger": false,
      "metar": "METAR HEGN 181200Z 11008KT CAVOK 35/12 Q1006 NOSIG",
      "taf": "TAF HEGN 181100Z 1812/1918 05012KT CAVOK"
    },
    {
      "icao": "HEMA",
      "alert": "OK",
      "vis_m": 9999,
      "fzfg": false,
      "metar_trigger": false,
      "taf_trigger": false,
      "metar": "METAR HEMA 181200Z 06010KT CAVOK 36/13 Q1006 NOSIG",
      "taf": "TAF HEMA 181100Z 1812/1918 06012KT CAVOK"
    },
    {
      "icao": "HESH",
      "alert": "OK",
      "vis_m": 9999,
      "fzfg": false,
      "metar_trigger": false,
      "taf_trigger": false,
      "metar": "METAR HESH 181200Z 15010KT CAVOK 36/17 Q1005 NOSIG",
      "taf": "TAF HESH 181100Z 1812/1918 03012KT CAVOK"
    },
    {
      "icao": "HESX",
      "alert": "OK",
      "vis_m": 9999,
      "fzfg": false,
      "metar_trigger": false,
      "taf_trigger": false,
      "metar": "METAR HESX 181200Z 35010KT CAVOK 36/13 Q1007 NOSIG",
      "taf": "TAF HESX 181100Z 1812/1918 30010KT CAVOK"
    },
    {
      "icao": "LATI",
      "alert": "OK",
      "vis_m": 9999,
      "fzfg": false,
      "metar_trigger": false,
      "taf_trigger": false,
      "metar": "METAR LATI 181220Z 24011KT 210V270 CAVOK 36/15 Q1010 NOSIG",
      "taf": "TAF LATI 181100Z 1812/1912 26011KT CAVOK TX39/1912Z TN21/1904Z"
    },
    {
      "icao": "LBPD",
      "alert": "OK",
      "vis_m": 9999,
      "fzfg": false,
      "metar_trigger": false,
      "taf_trigger": false,
      "metar": "METAR LBPD 181230Z AUTO VRB04KT 9999 NCD 34/14 Q1011 NOSIG",
      "taf": "TAF LBPD 181100Z 1812/1912 07010KT 9999 SCT070"
    },
    {
      "icao": "LBSF",
      "alert": "OK",
      "vis_m": 9999,
      "fzfg": false,
      "metar_trigger": false,
      "taf_trigger": false,
      "metar": "METAR LBSF 181230Z VRB03KT 9999 SCT063 33/12 Q1013 NOSIG",
      "taf": "TAF LBSF 181100Z 1812/1912 09010KT 9999 SCT060"
    },
    {
      "icao": "LBWN",
      "alert": "OK",
      "vis_m": 9999,
      "fzfg": false,
      "metar_trigger": false,
      "taf_trigger": false,
      "metar": "METAR LBWN 181230Z 12011KT 090V160 CAVOK 29/17 Q1012 NOSIG",
      "taf": "TAF LBWN 181100Z 1812/1912 12012KT CAVOK"
    },
    {
      "icao": "LCLK",
      "alert": "OK",
      "vis_m": 9999,
      "fzfg": false,
      "metar_trigger": false,
      "taf_trigger": false,
      "metar": "METAR LCLK 181230Z 21017KT 9999 FEW025 33/26 Q1005 NOSIG",
      "taf": "TAF LCLK 181130Z 1812/1912 21018KT 9999 FEW025"
    },
    {
      "icao": "LCPH",
      "alert": "OK",
      "vis_m": 9999,
      "fzfg": false,
      "metar_trigger": false,
      "taf_trigger": false,
      "metar": "METAR LCPH 181230Z 29009KT 250V320 9999 FEW020 FEW030CB 31/25 Q1005 NOSIG",
      "taf": "TAF LCPH 181130Z 1812/1912 29012KT 9999 FEW020"
    },
    {
      "icao": "LEAL",
      "alert": "OK",
      "vis_m": 9999,
      "fzfg": false,
      "metar_trigger": false,
      "taf_trigger": false,
      "metar": "METAR LEAL 181230Z 09013KT CAVOK 33/25 Q1013 NOSIG",
      "taf": "TAF LEAL 181100Z 1812/1912 08010KT 9999 FEW020 TX34/1816Z TN26/1905Z"
    },
    {
      "icao": "LEBB",
      "alert": "OK",
      "vis_m": 9999,
      "fzfg": false,
      "metar_trigger": false,
      "taf_trigger": false,
      "metar": "METAR LEBB 181230Z 04005KT 330V130 9999 BKN021 BKN030 OVC037 26/20 Q1017 NOSIG",
      "taf": "TAF LEBB 181100Z 1812/1912 03009KT 9999 FEW025 SCT035 TX29/1912Z TN19/1901Z"
    },
    {
      "icao": "LEBL",
      "alert": "OK",
      "vis_m": 9999,
      "fzfg": false,
      "metar_trigger": false,
      "taf_trigger": false,
      "metar": "METAR LEBL 181230Z 13008KT 080V160 CAVOK 31/22 Q1014 NOSIG",
      "taf": "TAF LEBL 181100Z 1812/1912 14009KT CAVOK TX31/1812Z TN25/1906Z"
    },
    {
      "icao": "LECH",
      "alert": "OK",
      "vis_m": 9000,
      "fzfg": false,
      "metar_trigger": false,
      "taf_trigger": false,
      "metar": "METAR LECH 181230Z AUTO 12010KT 080V160 9000 NCD 29/22 Q1016",
      "taf": "TAF LECH 181100Z 1812/1912 10010KT 9999 FEW035 TX34/1813Z TN22/1905Z"
    },
    {
      "icao": "LEMD",
      "alert": "OK",
      "vis_m": 9999,
      "fzfg": false,
      "metar_trigger": false,
      "taf_trigger": false,
      "metar": "METAR LEMD 181230Z 19007KT CAVOK 34/02 Q1015 NOSIG",
      "taf": "TAF LEMD 181100Z 1812/1918 22010KT CAVOK TX37/1816Z TN19/1905Z"
    },
    {
      "icao": "LEMG",
      "alert": "OK",
      "vis_m": 9999,
      "fzfg": false,
      "metar_trigger": false,
      "taf_trigger": false,
      "metar": "METAR LEMG 181230Z 13009KT CAVOK 28/15 Q1012 NOSIG",
      "taf": "TAF LEMG 181100Z 1812/1912 15010KT CAVOK TX37/1815Z TN22/1905Z"
    },
    {
      "icao": "LEVC",
      "alert": "OK",
      "vis_m": 9999,
      "fzfg": false,
      "metar_trigger": false,
      "taf_trigger": false,
      "metar": "METAR LEVC 181230Z 09009KT 040V130 9999 FEW025 SCT038 32/23 Q1013 NOSIG",
      "taf": "TAF LEVC 181100Z 1812/1912 09010KT 9999 FEW025 TX33/1813Z TN25/1905Z"
    },
    {
      "icao": "LEXJ",
      "alert": "OK",
      "vis_m": 9999,
      "fzfg": false,
      "metar_trigger": false,
      "taf_trigger": false,
      "metar": "METAR LEXJ 181230Z 06004KT 350V160 9999 FEW020 BKN035 24/19 Q1017",
      "taf": "TAF LEXJ 180800Z 1809/1909 05009KT 9999 BKN025 TX25/1817Z TN20/1902Z"
    },
    {
      "icao": "LEZG",
      "alert": "OK",
      "vis_m": 9999,
      "fzfg": false,
      "metar_trigger": false,
      "taf_trigger": false,
      "metar": "METAR LEZG 181230Z 36002KT CAVOK 32/15 Q1014 NOSIG",
      "taf": "TAF LEZG 181100Z 1812/1912 VRB03KT CAVOK TX37/1814Z TN21/1905Z"
    },
    {
      "icao": "LEZL",
      "alert": "OK",
      "vis_m": 9999,
      "fzfg": false,
      "metar_trigger": false,
      "taf_trigger": false,
      "metar": "METAR LEZL 181230Z 23006KT 170V280 CAVOK 34/09 Q1013 NOSIG",
      "taf": "TAF LEZL 180800Z 1809/1909 VRB02KT CAVOK TX38/1815Z TN20/1905Z"
    },
    {
      "icao": "LFBD",
      "alert": "OK",
      "vis_m": 9999,
      "fzfg": false,
      "metar_trigger": false,
      "taf_trigger": false,
      "metar": "METAR LFBD 181230Z AUTO VRB06KT CAVOK 31/15 Q1016 NOSIG",
      "taf": "TAF LFBD 181100Z 1812/1918 VRB03KT CAVOK TX32/1815Z TN19/1906Z"
    },
    {
      "icao": "LFLL",
      "alert": "OK",
      "vis_m": 9999,
      "fzfg": false,
      "metar_trigger": false,
      "taf_trigger": false,
      "metar": "METAR LFLL 181230Z VRB05KT 9999 FEW060TCU 30/14 Q1016 NOSIG",
      "taf": "TAF LFLL 181100Z 1812/1918 36008KT CAVOK"
    },
    {
      "icao": "LFLS",
      "alert": "OK",
      "vis_m": 9999,
      "fzfg": false,
      "metar_trigger": false,
      "taf_trigger": false,
      "metar": "METAR LFLS 181230Z AUTO 34007KT 300V020 CAVOK 29/15 Q1016 NOSIG",
      "taf": "TAF LFLS 180800Z 1809/1909 36006KT CAVOK"
    },
    {
      "icao": "LFMN",
      "alert": "OK",
      "vis_m": 9999,
      "fzfg": false,
      "metar_trigger": false,
      "taf_trigger": false,
      "metar": "METAR LFMN 181230Z 13006KT 9999 SCT016 30/25 Q1011 NOSIG",
      "taf": "TAF LFMN 180800Z 1809/1915 14005KT CAVOK"
    },
    {
      "icao": "LFOB",
      "alert": "OK",
      "vis_m": 9999,
      "fzfg": false,
      "metar_trigger": false,
      "taf_trigger": false,
      "metar": "METAR LFOB 181230Z AUTO 30008KT 230V360 CAVOK 27/13 Q1016 TEMPO VRB15G25KT 4000 SHRA BKN050TCU",
      "taf": "TAF LFOB 181100Z 1812/1912 27006KT 9999 SCT050"
    },
    {
      "icao": "LFPO",
      "alert": "OK",
      "vis_m": 9999,
      "fzfg": false,
      "metar_trigger": false,
      "taf_trigger": false,
      "metar": "METAR LFPO 181230Z VRB05G17KT CAVOK 28/10 Q1016 NOSIG",
      "taf": "TAF LFPO 181100Z 1812/1918 06005KT CAVOK"
    },
    {
      "icao": "LFSB",
      "alert": "OK",
      "vis_m": 9999,
      "fzfg": false,
      "metar_trigger": false,
      "taf_trigger": false,
      "metar": "METAR LFSB 181230Z AUTO 29011KT 230V320 9999 ///CB 30/12 Q1015 TEMPO VRB15G25KT 4000 TSRA",
      "taf": "TAF LFSB 181100Z 1812/1912 26007KT CAVOK"
    },
    {
      "icao": "LGAV",
      "alert": "OK",
      "vis_m": 9999,
      "fzfg": false,
      "metar_trigger": false,
      "taf_trigger": false,
      "metar": "METAR LGAV 181220Z 05013KT 9999 FEW025 34/12 Q1011 NOSIG",
      "taf": "TAF LGAV 181100Z 1812/1912 02010KT 9999 FEW025"
    },
    {
      "icao": "LGTS",
      "alert": "OK",
      "vis_m": 9999,
      "fzfg": false,
      "metar_trigger": false,
      "taf_trigger": false,
      "metar": "METAR LGTS 181220Z 20011KT 9999 FEW025 35/17 Q1011 NOSIG",
      "taf": "TAF LGTS 181100Z 1812/1912 VRB03KT 9999 FEW030"
    },
    {
      "icao": "LHBP",
      "alert": "OK",
      "vis_m": 9999,
      "fzfg": false,
      "metar_trigger": false,
      "taf_trigger": false,
      "metar": "METAR LHBP 181230Z 30013KT 250V330 CAVOK 32/11 Q1011 NOSIG",
      "taf": "TAF LHBP 181115Z 1812/1912 31012KT CAVOK"
    },
    {
      "icao": "LHDC",
      "alert": "OK",
      "vis_m": 9999,
      "fzfg": false,
      "metar_trigger": false,
      "taf_trigger": false,
      "metar": "METAR LHDC 181215Z AUTO 27009KT 210V320 CAVOK 34/15 Q1009 NOSIG",
      "taf": "TAF LHDC 181115Z 1812/1821 26008KT CAVOK"
    },
    {
      "icao": "LIBD",
      "alert": "OK",
      "vis_m": 9999,
      "fzfg": false,
      "metar_trigger": false,
      "taf_trigger": false,
      "metar": "METAR LIBD 181220Z 03008KT 360V070 CAVOK 31/25 Q1010",
      "taf": "TAF LIBD 181100Z 1812/1912 01010KT CAVOK"
    },
    {
      "icao": "LIBG",
      "alert": "OK",
      "vis_m": 9999,
      "fzfg": false,
      "metar_trigger": false,
      "taf_trigger": false,
      "metar": "METAR LIBG 181220Z 18006KT CAVOK 39/17 Q1009",
      "taf": "TAF LIBG 181100Z 1812/1912 VRB05KT CAVOK"
    },
    {
      "icao": "LIBP",
      "alert": "OK",
      "vis_m": 9999,
      "fzfg": false,
      "metar_trigger": false,
      "taf_trigger": false,
      "metar": "METAR LIBP 181220Z AUTO 05010KT 020V090 9999 NCD 32/22 Q1011",
      "taf": "TAF LIBP 181100Z 1812/1912 07010KT CAVOK"
    },
    {
      "icao": "LIBR",
      "alert": "OK",
      "vis_m": 9999,
      "fzfg": false,
      "metar_trigger": false,
      "taf_trigger": false,
      "metar": "METAR LIBR 181220Z 03007KT 360V060 CAVOK 32/22 Q1010",
      "taf": "TAF LIBR 181100Z 1812/1912 01010KT CAVOK"
    },
    {
      "icao": "LICA",
      "alert": "OK",
      "vis_m": 9999,
      "fzfg": false,
      "metar_trigger": false,
      "taf_trigger": false,
      "metar": "METAR LICA 181220Z AUTO 25010KT 9999 NCD 33/19 Q1012",
      "taf": "TAF LICA 181100Z 1812/1912 27014KT CAVOK"
    },
    {
      "icao": "LICC",
      "alert": "OK",
      "vis_m": 9999,
      "fzfg": false,
      "metar_trigger": false,
      "taf_trigger": false,
      "metar": "METAR LICC 181220Z 08010KT CAVOK 37/17 Q1011",
      "taf": "TAF LICC 181100Z 1812/1912 08012KT CAVOK"
    },
    {
      "icao": "LICJ",
      "alert": "OK",
      "vis_m": 9999,
      "fzfg": false,
      "metar_trigger": false,
      "taf_trigger": false,
      "metar": "METAR LICJ 181220Z AUTO 34003KT 300V020 9999 NCD 31/27 Q1013",
      "taf": "TAF LICJ 181100Z 1812/1912 34011KT CAVOK"
    },
    {
      "icao": "LIMC",
      "alert": "OK",
      "vis_m": 9999,
      "fzfg": false,
      "metar_trigger": false,
      "taf_trigger": false,
      "metar": "METAR LIMC 181220Z 20006KT 150V260 9999 SCT060 33/16 Q1011 NOSIG",
      "taf": "TAF LIMC 181100Z 1812/1918 22010KT 9999 FEW040"
    },
    {
      "icao": "LIME",
      "alert": "OK",
      "vis_m": 9999,
      "fzfg": false,
      "metar_trigger": false,
      "taf_trigger": false,
      "metar": "METAR LIME 181220Z VRB03KT 9999 FEW040 31/21 Q1011 NOSIG",
      "taf": "TAF LIME 181100Z 1812/1912 23010KT 9999 SCT050"
    },
    {
      "icao": "LIMF",
      "alert": "OK",
      "vis_m": 9999,
      "fzfg": false,
      "metar_trigger": false,
      "taf_trigger": false,
      "metar": "METAR LIMF 181220Z 13004KT 070V220 9999 FEW050 33/20 Q1011",
      "taf": "TAF LIMF 181100Z 1812/1912 13007KT 9999 FEW040"
    },
    {
      "icao": "LIMJ",
      "alert": "OK",
      "vis_m": 9999,
      "fzfg": false,
      "metar_trigger": false,
      "taf_trigger": false,
      "metar": "METAR LIMJ 181220Z 16006KT 9999 FEW022 29/25 Q1012",
      "taf": "TAF LIMJ 181100Z 1812/1912 18010KT 9999 SCT030"
    },
    {
      "icao": "LIPE",
      "alert": "OK",
      "vis_m": 9999,
      "fzfg": false,
      "metar_trigger": false,
      "taf_trigger": false,
      "metar": "METAR LIPE 181220Z 07004KT 010V110 9999 FEW025CB 33/22 Q1009",
      "taf": "TAF LIPE 181100Z 1812/1912 VRB05KT 9999 SCT040"
    },
    {
      "icao": "LIPH",
      "alert": "OK",
      "vis_m": 9999,
      "fzfg": false,
      "metar_trigger": false,
      "taf_trigger": false,
      "metar": "METAR LIPH 181220Z 16005KT 130V200 9999 SCT060 33/19 Q1010",
      "taf": "TAF LIPH 181100Z 1812/1912 VRB05KT 9999 FEW040"
    },
    {
      "icao": "LIPQ",
      "alert": "OK",
      "vis_m": 9999,
      "fzfg": false,
      "metar_trigger": false,
      "taf_trigger": false,
      "metar": "METAR LIPQ 181220Z AUTO 24007KT 190V280 9999 NCD 33/19 Q1009",
      "taf": "TAF LIPQ 181100Z 1812/1912 22010KT 9999 FEW040"
    },
    {
      "icao": "LIPR",
      "alert": "OK",
      "vis_m": 9999,
      "fzfg": false,
      "metar_trigger": false,
      "taf_trigger": false,
      "metar": "METAR LIPR 181220Z 07008KT 9999 FEW040 30/26 Q1010",
      "taf": "TAF LIPR 181100Z 1812/1912 07010KT 9999 FEW040"
    },
    {
      "icao": "LIPX",
      "alert": "OK",
      "vis_m": 9999,
      "fzfg": false,
      "metar_trigger": false,
      "taf_trigger": false,
      "metar": "METAR LIPX 181220Z 21005KT 150V260 9999 FEW040 32/21 Q1010",
      "taf": "TAF LIPX 181100Z 1812/1912 24010KT 9999 FEW050"
    },
    {
      "icao": "LIPY",
      "alert": "OK",
      "vis_m": 9999,
      "fzfg": false,
      "metar_trigger": false,
      "taf_trigger": false,
      "metar": "METAR LIPY 181220Z AUTO 04008KT 010V070 9999 FEW190/// SCT240/// 30/24 Q1011",
      "taf": "TAF LIPY 181100Z 1812/1912 03012KT 9999 FEW040"
    },
    {
      "icao": "LIPZ",
      "alert": "OK",
      "vis_m": 9999,
      "fzfg": false,
      "metar_trigger": false,
      "taf_trigger": false,
      "metar": "METAR LIPZ 181220Z 18005KT 150V210 9999 FEW055 32/21 Q1010 NOSIG",
      "taf": "TAF LIPZ 181100Z 1812/1918 18010KT 9999 SCT040"
    },
    {
      "icao": "LIRF",
      "alert": "OK",
      "vis_m": 9999,
      "fzfg": false,
      "metar_trigger": false,
      "taf_trigger": false,
      "metar": "METAR LIRF 181220Z 27009KT 240V310 CAVOK 32/24 Q1012 NOSIG",
      "taf": "TAF LIRF 181100Z 1812/1918 27012KT CAVOK"
    },
    {
      "icao": "LIRN",
      "alert": "OK",
      "vis_m": 9999,
      "fzfg": false,
      "metar_trigger": false,
      "taf_trigger": false,
      "metar": "METAR LIRN 181220Z 19008KT 150V240 CAVOK 33/23 Q1012 NOSIG",
      "taf": "TAF LIRN 181100Z 1812/1912 23010KT CAVOK"
    },
    {
      "icao": "LIRP",
      "alert": "OK",
      "vis_m": 9999,
      "fzfg": false,
      "metar_trigger": false,
      "taf_trigger": false,
      "metar": "METAR LIRP 181215Z 27010KT 9999 SCT030 31/23 Q1012 NOSIG",
      "taf": "TAF LIRP 181100Z 1812/1912 27010KT 9999 FEW020"
    },
    {
      "icao": "LIRZ",
      "alert": "OK",
      "vis_m": 9999,
      "fzfg": false,
      "metar_trigger": false,
      "taf_trigger": false,
      "metar": "METAR LIRZ 181220Z AUTO 26009KT 230V300 9999 NCD 35/17 Q1012",
      "taf": "TAF LIRZ 181100Z 1812/1912 28011KT CAVOK"
    },
    {
      "icao": "LJLJ",
      "alert": "OK",
      "vis_m": 9999,
      "fzfg": false,
      "metar_trigger": false,
      "taf_trigger": false,
      "metar": "METAR LJLJ 181230Z 13009KT 100V160 9999 SCT075 BKN200 31/14 Q1012 NOSIG",
      "taf": "TAF LJLJ 181100Z 1812/1912 12003KT 9999 FEW070"
    },
    {
      "icao": "LKMT",
      "alert": "OK",
      "vis_m": 9999,
      "fzfg": false,
      "metar_trigger": false,
      "taf_trigger": false,
      "metar": "METAR LKMT 181230Z 11009KT 9999 FEW040TCU BKN042 21/16 Q1013 TEMPO FEW030CB",
      "taf": "TAF LKMT 181100Z 1812/1912 22012KT CAVOK"
    },
    {
      "icao": "LKPR",
      "alert": "OK",
      "vis_m": 9999,
      "fzfg": false,
      "metar_trigger": false,
      "taf_trigger": false,
      "metar": "METAR LKPR 181230Z 22012KT 9999 VCTS SCT036CB SCT046 25/14 Q1013 TEMPO TSRA BKN030CB",
      "taf": "TAF LKPR 181100Z 1812/1918 24009KT CAVOK"
    },
    {
      "icao": "LLBG",
      "alert": "OK",
      "vis_m": 9999,
      "fzfg": false,
      "metar_trigger": false,
      "taf_trigger": false,
      "metar": "METAR LLBG 181220Z 29012KT CAVOK 34/15 Q1006 NOSIG",
      "taf": "TAF LLBG 180605Z 1812/1912 29010KT CAVOK TX35/1812Z TN24/1903Z"
    },
    {
      "icao": "LMML",
      "alert": "OK",
      "vis_m": 9999,
      "fzfg": false,
      "metar_trigger": false,
      "taf_trigger": false,
      "metar": "METAR LMML 181215Z 31006KT 270V040 CAVOK 42/11 Q1012 NOSIG",
      "taf": "TAF LMML 181100Z 1812/1912 28010KT CAVOK"
    },
    {
      "icao": "LOWW",
      "alert": "OK",
      "vis_m": 9999,
      "fzfg": false,
      "metar_trigger": false,
      "taf_trigger": false,
      "metar": "METAR LOWW 181220Z 32010KT 290V350 CAVOK 29/13 Q1012 NOSIG",
      "taf": "TAF LOWW 181115Z 1812/1918 28015KT CAVOK TX30/1813Z TN20/1904Z"
    },
    {
      "icao": "LPFR",
      "alert": "OK",
      "vis_m": 9999,
      "fzfg": false,
      "metar_trigger": false,
      "taf_trigger": false,
      "metar": "METAR LPFR 181230Z 23010KT CAVOK 24/17 Q1015",
      "taf": "TAF LPFR 181100Z 1812/1912 24015KT CAVOK"
    },
    {
      "icao": "LPMA",
      "alert": "OK",
      "vis_m": 9999,
      "fzfg": false,
      "metar_trigger": false,
      "taf_trigger": false,
      "metar": "METAR LPMA 181230Z 03016KT 9999 FEW016 26/17 Q1020",
      "taf": "TAF LPMA 181100Z 1812/1912 02010KT 9999 SCT015"
    },
    {
      "icao": "LPPR",
      "alert": "OK",
      "vis_m": 9999,
      "fzfg": false,
      "metar_trigger": false,
      "taf_trigger": false,
      "metar": "METAR LPPR 181230Z VRB07KT 9999 SCT011 23/19 Q1015",
      "taf": "TAF LPPR 181100Z 1812/1912 25010KT 9999 SCT015"
    },
    {
      "icao": "LPPS",
      "alert": "OK",
      "vis_m": 9999,
      "fzfg": false,
      "metar_trigger": false,
      "taf_trigger": false,
      "metar": "METAR LPPS 181230Z 01011KT 350V070 9999 FEW015 24/17 Q1020",
      "taf": "TAF LPPS 181100Z 1812/1918 02010KT 9999 SCT015"
    },
    {
      "icao": "LPPT",
      "alert": "OK",
      "vis_m": 9999,
      "fzfg": false,
      "metar_trigger": false,
      "taf_trigger": false,
      "metar": "METAR LPPT 181230Z 31009KT 270V360 9999 FEW034 SCT040 26/15 Q1016 NOSIG",
      "taf": "TAF LPPT 181100Z 1812/1918 32010KT 9999 SCT030"
    },
    {
      "icao": "LQBK",
      "alert": "OK",
      "vis_m": 9999,
      "fzfg": false,
      "metar_trigger": false,
      "taf_trigger": false,
      "metar": "METAR LQBK 181230Z 33013KT 290V010 9999 FEW041TCU 32/18 Q1011 NOSIG",
      "taf": "TAF LQBK 181100Z 1812/1912 30006KT CAVOK TX34/1814Z TN19/1903Z"
    },
    {
      "icao": "LQSA",
      "alert": "OK",
      "vis_m": 9999,
      "fzfg": false,
      "metar_trigger": false,
      "taf_trigger": false,
      "metar": "METAR LQSA 181230Z 01004KT 310V070 9999 SCT060 34/16 Q1011 NOSIG",
      "taf": "TAF LQSA 181100Z 1812/1912 VRB02KT CAVOK TX34/1813Z TN19/1903Z"
    },
    {
      "icao": "LQTZ",
      "alert": "OK",
      "vis_m": 9999,
      "fzfg": false,
      "metar_trigger": false,
      "taf_trigger": false,
      "metar": "METAR LQTZ 181230Z 16006KT 9999 TS FEW040CB FEW045 32/20 Q1011",
      "taf": "TAF LQTZ 181100Z 1812/1912 27005KT 9999 FEW045 TX33/1813Z TN17/1903Z"
    },
    {
      "icao": "LRBC",
      "alert": "OK",
      "vis_m": 9999,
      "fzfg": false,
      "metar_trigger": false,
      "taf_trigger": false,
      "metar": "METAR LRBC 181230Z 17008KT CAVOK 31/17 Q1011",
      "taf": "TAF LRBC 181100Z 1812/1821 17010KT 9999 SCT050"
    },
    {
      "icao": "LRBS",
      "alert": "OK",
      "vis_m": 9999,
      "fzfg": false,
      "metar_trigger": false,
      "taf_trigger": false,
      "metar": "METAR LRBS 181230Z VRB03KT CAVOK 34/17 Q1011 NOSIG",
      "taf": "TAF LRBS 181100Z 1812/1912 VRB04KT CAVOK"
    },
    {
      "icao": "LRBV",
      "alert": "OK",
      "vis_m": 9999,
      "fzfg": false,
      "metar_trigger": false,
      "taf_trigger": false,
      "metar": "METAR LRBV 181230Z 20018KT 9999 VCSH FEW049 FEW055CB SCT065 28/16 Q1013",
      "taf": "TAF LRBV 181100Z 1812/1821 VRB04KT CAVOK"
    },
    {
      "icao": "LRCL",
      "alert": "OK",
      "vis_m": 9999,
      "fzfg": false,
      "metar_trigger": false,
      "taf_trigger": false,
      "metar": "METAR LRCL 181230Z VRB05KT 9999 FEW050CB 31/17 Q1011",
      "taf": "TAF LRCL 181100Z 1812/1821 VRB04KT CAVOK"
    },
    {
      "icao": "LRCV",
      "alert": "OK",
      "vis_m": 9999,
      "fzfg": false,
      "metar_trigger": false,
      "taf_trigger": false,
      "metar": "METAR LRCV 181230Z 27007KT CAVOK 35/17 Q1011",
      "taf": "TAF LRCV 181100Z 1812/1821 26010KT CAVOK"
    },
    {
      "icao": "LRIA",
      "alert": "OK",
      "vis_m": 9999,
      "fzfg": false,
      "metar_trigger": false,
      "taf_trigger": false,
      "metar": "METAR LRIA 181230Z 13009KT 090V200 CAVOK 31/14 Q1011",
      "taf": "TAF LRIA 181100Z 1812/1821 12010KT CAVOK"
    },
    {
      "icao": "LROP",
      "alert": "OK",
      "vis_m": 9999,
      "fzfg": false,
      "metar_trigger": false,
      "taf_trigger": false,
      "metar": "METAR LROP 181230Z VRB03KT CAVOK 34/14 Q1011 NOSIG",
      "taf": "TAF LROP 181100Z 1812/1912 VRB04KT CAVOK"
    },
    {
      "icao": "LRSB",
      "alert": "OK",
      "vis_m": 9999,
      "fzfg": false,
      "metar_trigger": false,
      "taf_trigger": false,
      "metar": "METAR LRSB 181230Z 19003KT 100V230 9999 FEW048 31/16 Q1012 NOSIG",
      "taf": "TAF LRSB 181100Z 1812/1912 34007KT CAVOK"
    },
    {
      "icao": "LRSM",
      "alert": "OK",
      "vis_m": 9999,
      "fzfg": false,
      "metar_trigger": false,
      "taf_trigger": false,
      "metar": "METAR LRSM 181230Z 20005KT 150V250 9999 FEW040CB 33/18 Q1009",
      "taf": "TAF LRSM 181100Z 1812/1821 18008KT CAVOK"
    },
    {
      "icao": "LRSV",
      "alert": "OK",
      "vis_m": 9999,
      "fzfg": false,
      "metar_trigger": false,
      "taf_trigger": false,
      "metar": "METAR LRSV 181230Z 13009KT 9999 FEW048CB 29/16 Q1012",
      "taf": "TAF LRSV 181100Z 1812/1821 15010KT CAVOK"
    },
    {
      "icao": "LRTM",
      "alert": "OK",
      "vis_m": 9999,
      "fzfg": false,
      "metar_trigger": false,
      "taf_trigger": false,
      "metar": "METAR LRTM 181230Z 23004KT 180V270 9999 SCT035 31/19 Q1011",
      "taf": "TAF LRTM 181100Z 1812/1821 25005KT CAVOK"
    },
    {
      "icao": "LRTR",
      "alert": "OK",
      "vis_m": 9999,
      "fzfg": false,
      "metar_trigger": false,
      "taf_trigger": false,
      "metar": "METAR LRTR 181230Z 27008KT 200V330 CAVOK 35/14 Q1009",
      "taf": "TAF LRTR 181100Z 1812/1912 30009KT CAVOK"
    },
    {
      "icao": "LTAC",
      "alert": "OK",
      "vis_m": 9999,
      "fzfg": false,
      "metar_trigger": false,
      "taf_trigger": false,
      "metar": "METAR LTAC 181150Z VRB05KT 9999 SCT040 28/07 Q1014 NOSIG RMK RWY21C 10011KT 050V120 RWY03L VRB04KT RWY21R 06009G19KT 360V110 RWY03R 34007KT 260V050 RWY21L 06011KT",
      "taf": "TAF LTAC 181040Z 1812/1912 06012KT 9999 SCT040"
    },
    {
      "icao": "LTFM",
      "alert": "OK",
      "vis_m": 9999,
      "fzfg": false,
      "metar_trigger": false,
      "taf_trigger": false,
      "metar": "METAR LTFM 181220Z 05014KT 9999 FEW025 27/18 Q1013 NOSIG RMK RWY17L 04014KT RWY34L 03013KT 360V060 RWY16R 04014KT RWY36 05015KT RWY18 06013KT 020V080",
      "taf": "TAF LTFM 181040Z 1812/1918 05015KT 9999 FEW028"
    },
    {
      "icao": "LUKK",
      "alert": "OK",
      "vis_m": 9999,
      "fzfg": false,
      "metar_trigger": false,
      "taf_trigger": false,
      "metar": "METAR LUKK 181230Z VRB04KT CAVOK 32/14 Q1012 NOSIG",
      "taf": "TAF LUKK 181102Z 1812/1912 14008KT CAVOK"
    },
    {
      "icao": "LWOH",
      "alert": "OK",
      "vis_m": 9999,
      "fzfg": false,
      "metar_trigger": false,
      "taf_trigger": false,
      "metar": "METAR LWOH 181220Z 17005KT 9999 FEW050 29/20 Q1014",
      "taf": "TAF LWOH 181125Z 1812/1912 16008KT 9999 FEW050"
    },
    {
      "icao": "LWSK",
      "alert": "OK",
      "vis_m": 9999,
      "fzfg": false,
      "metar_trigger": false,
      "taf_trigger": false,
      "metar": "METAR LWSK 181220Z 24005KT 150V320 CAVOK 37/18 Q1010 NOSIG",
      "taf": "TAF LWSK 181125Z 1812/1912 VRB02KT CAVOK"
    },
    {
      "icao": "LYBE",
      "alert": "OK",
      "vis_m": 9999,
      "fzfg": false,
      "metar_trigger": false,
      "taf_trigger": false,
      "metar": "METAR LYBE 181230Z 35007KT 290V030 CAVOK 35/18 Q1010 NOSIG",
      "taf": "TAF LYBE 181100Z 1812/1912 33008KT CAVOK TX36/1814Z TN22/1903Z"
    },
    {
      "icao": "LYNI",
      "alert": "OK",
      "vis_m": 9999,
      "fzfg": false,
      "metar_trigger": false,
      "taf_trigger": false,
      "metar": "METAR LYNI 181230Z VRB02KT 9999 FEW043 37/14 Q1010 NOSIG",
      "taf": "TAF LYNI 181100Z 1812/1912 32005KT CAVOK TX36/1814Z TN21/1903Z"
    },
    {
      "icao": "LYPG",
      "alert": "OK",
      "vis_m": 9999,
      "fzfg": false,
      "metar_trigger": false,
      "taf_trigger": false,
      "metar": "METAR LYPG 181230Z 17009KT 140V200 9999 FEW050 38/17 Q1009 NOSIG",
      "taf": "TAF LYPG 181100Z 1812/1912 18009KT 9999 FEW050 TX39/1814Z TN26/1903Z"
    },
    {
      "icao": "LZIB",
      "alert": "OK",
      "vis_m": 9999,
      "fzfg": false,
      "metar_trigger": false,
      "taf_trigger": false,
      "metar": "METAR LZIB 181230Z 26012KT CAVOK 30/13 Q1012 TEMPO FM1300 FEW050TCU",
      "taf": ""
    },
    {
      "icao": "LZKZ",
      "alert": "OK",
      "vis_m": 9999,
      "fzfg": false,
      "metar_trigger": false,
      "taf_trigger": false,
      "metar": "METAR LZKZ 181230Z 25008G19KT 180V340 CAVOK 32/15 Q1009 TEMPO FEW055TCU",
      "taf": ""
    },
    {
      "icao": "LZTT",
      "alert": "OK",
      "vis_m": 9999,
      "fzfg": false,
      "metar_trigger": false,
      "taf_trigger": false,
      "metar": "METAR LZTT 181230Z 26012KT 9999 FEW033 25/13 Q1013 NOSIG",
      "taf": "TAF LZTT 181115Z 1812/1912 27013KT 9999 SCT043"
    },
    {
      "icao": "OEJN",
      "alert": "OK",
      "vis_m": 9999,
      "fzfg": false,
      "metar_trigger": false,
      "taf_trigger": false,
      "metar": "METAR OEJN 181200Z 30009KT CAVOK 39/21 Q1004 NOSIG",
      "taf": "TAF OEJN 181100Z 1812/1918 30012KT CAVOK"
    },
    {
      "icao": "OEMA",
      "alert": "OK",
      "vis_m": 9999,
      "fzfg": false,
      "metar_trigger": false,
      "taf_trigger": false,
      "metar": "METAR OEMA 181200Z 28010KT CAVOK 43/01 Q1008 NOSIG",
      "taf": "TAF OEMA 181100Z 1812/1918 29010KT 9999 FEW040"
    },
    {
      "icao": "OJAI",
      "alert": "OK",
      "vis_m": 5000,
      "fzfg": false,
      "metar_trigger": false,
      "taf_trigger": false,
      "metar": "METAR OJAI 181200Z 26010KT 5000 DU NSC 34/09 Q1011 NOSIG",
      "taf": "TAF OJAI 181038Z 1812/1918 29010KT 5000 HZ NSC"
    },
    {
      "icao": "OMAA",
      "alert": "OK",
      "vis_m": 8000,
      "fzfg": false,
      "metar_trigger": false,
      "taf_trigger": false,
      "metar": "METAR OMAA 181230Z 32012KT 8000 NSC 40/24 Q0997 NOSIG",
      "taf": "TAF OMAA 181100Z 1812/1918 33013KT 7000 NSC"
    },
    {
      "icao": "OMDB",
      "alert": "OK",
      "vis_m": 8000,
      "fzfg": false,
      "metar_trigger": false,
      "taf_trigger": false,
      "metar": "METAR OMDB 181230Z 35009KT 310V020 8000 NSC 39/22 Q0998 NOSIG",
      "taf": "TAF OMDB 181100Z 1812/1918 33013KT 7000 NSC"
    },
    {
      "icao": "UAAA",
      "alert": "OK",
      "vis_m": 9999,
      "fzfg": false,
      "metar_trigger": false,
      "taf_trigger": false,
      "metar": "METAR UAAA 181230Z 06003MPS 010V080 9999 FEW050 SCT100 40/07 Q1006 NOSIG",
      "taf": "TAF UAAA 181104Z 1812/1912 17002MPS 9999 FEW050 SCT100 TX42/1910Z TN23/1900Z"
    },
    {
      "icao": "UBBB",
      "alert": "OK",
      "vis_m": 9999,
      "fzfg": false,
      "metar_trigger": false,
      "taf_trigger": false,
      "metar": "METAR UBBB 181230Z 01012KT CAVOK 30/19 Q1008 NOSIG",
      "taf": "TAF UBBB 181052Z 1812/1912 34016KT CAVOK TX30/1812Z TN25/1901Z"
    },
    {
      "icao": "UDSG",
      "alert": "OK",
      "vis_m": 9999,
      "fzfg": false,
      "metar_trigger": false,
      "taf_trigger": false,
      "metar": "METAR UDSG 181230Z 03011KT 9999 FEW049CB 26/17 Q1014 NOSIG",
      "taf": "TAF UDSG 181058Z 1812/1912 06006KT 9999 SCT050"
    },
    {
      "icao": "UDYZ",
      "alert": "OK",
      "vis_m": 9999,
      "fzfg": false,
      "metar_trigger": false,
      "taf_trigger": false,
      "metar": "METAR UDYZ 181230Z 22006KT 9999 FEW043CB 34/14 Q1007 NOSIG",
      "taf": "TAF UDYZ 181100Z 1812/1912 04006KT 9999 FEW040"
    },
    {
      "icao": "UGKO",
      "alert": "OK",
      "vis_m": 9999,
      "fzfg": false,
      "metar_trigger": false,
      "taf_trigger": false,
      "metar": "METAR UGKO 181230Z 24012KT 220V280 9999 SCT029 BKN084 27/21 Q1010 NOSIG",
      "taf": "TAF UGKO 181100Z 1812/1912 26007KT 9999 SCT023 BKN050 TX28/1812Z TN20/1902Z"
    }
  ]
}