{
  "ts_utc": "2026-01-02T01:42:32Z",
  "threshold_m": 150,
  "source": "stations_override.txt (ICAO list) + aviationweather.gov (METAR/TAF raw)",
  "station_count": 159,
  "stations": [
    {
      "icao": "BIKF",
      "alert": "OK",
      "vis_m": 9999,
      "fzfg": false,
      "metar_trigger": false,
      "taf_trigger": false,
      "metar": "METAR BIKF 020130Z 08002KT CAVOK M01/M04 Q1024",
      "taf": ""
    },
    {
      "icao": "BKPR",
      "alert": "OK",
      "vis_m": 9999,
      "fzfg": false,
      "metar_trigger": false,
      "taf_trigger": false,
      "metar": "METAR BKPR 020130Z 07003KT 040V130 CAVOK M08/M11 Q1017 NOSIG",
      "taf": "TAF BKPR 012330Z 0200/0224 18008KT CAVOK"
    },
    {
      "icao": "EBCI",
      "alert": "OK",
      "vis_m": 9999,
      "fzfg": false,
      "metar_trigger": false,
      "taf_trigger": false,
      "metar": "METAR EBCI 020120Z 26013KT 9999 BKN019 03/M00 Q1002 NOSIG",
      "taf": "TAF EBCI 012308Z 0200/0306 27012KT 9999 SCT015TCU SCT040"
    },
    {
      "icao": "EDDB",
      "alert": "OK",
      "vis_m": 9999,
      "fzfg": false,
      "metar_trigger": false,
      "taf_trigger": false,
      "metar": "METAR EDDB 020120Z AUTO 25018KT 9999 BKN023 BKN031 OVC038 03/M00 Q0989",
      "taf": "TAF EDDB 012300Z 0200/0224 24020G30KT 9999 SCT015 OVC030"
    },
    {
      "icao": "EDDH",
      "alert": "OK",
      "vis_m": 9999,
      "fzfg": false,
      "metar_trigger": false,
      "taf_trigger": false,
      "metar": "METAR EDDH 020120Z AUTO 24018G29KT 200V270 9999 -RA BKN018 BKN023 OVC029 03/00 Q0984 RESHSN TEMPO 25020G30KT 3500 SHSNRA BKN009CB",
      "taf": "TAF EDDH 012300Z 0200/0306 26015G30KT 9999 SCT015 SCT025"
    },
    {
      "icao": "EDDK",
      "alert": "OK",
      "vis_m": 9999,
      "fzfg": false,
      "metar_trigger": false,
      "taf_trigger": false,
      "metar": "METAR EDDK 020120Z AUTO 26015KT 9999 FEW019 03/00 Q0999 RESHRA NOSIG",
      "taf": "TAF EDDK 012300Z 0200/0306 26015G25KT 9999 BKN025"
    },
    {
      "icao": "EDDN",
      "alert": "OK",
      "vis_m": 9999,
      "fzfg": false,
      "metar_trigger": false,
      "taf_trigger": false,
      "metar": "METAR EDDN 020120Z AUTO 23014KT 9999 BKN015 01/M03 Q1001",
      "taf": "TAF EDDN 012300Z 0200/0224 24015G25KT 9999 BKN020"
    },
    {
      "icao": "EDDS",
      "alert": "OK",
      "vis_m": 9999,
      "fzfg": false,
      "metar_trigger": false,
      "taf_trigger": false,
      "metar": "METAR EDDS 020120Z AUTO 23007KT 180V290 9999 FEW021 BKN038 OVC045 01/M05 Q1003",
      "taf": "TAF EDDS 012300Z 0200/0224 22008KT 9999 BKN030"
    },
    {
      "icao": "EDFH",
      "alert": "OK",
      "vis_m": 9999,
      "fzfg": false,
      "metar_trigger": false,
      "taf_trigger": false,
      "metar": "METAR EDFH 020120Z 25019KT 9999 BKN009 OVC019 00/M01 Q0999",
      "taf": "TAF EDFH 012300Z 0200/0224 26015G25KT 9999 BKN010"
    },
    {
      "icao": "EDJA",
      "alert": "OK",
      "vis_m": 9999,
      "fzfg": false,
      "metar_trigger": false,
      "taf_trigger": false,
      "metar": "METAR EDJA 020120Z AUTO 23020KT 9999 // OVC170/// M01/M07 Q1004",
      "taf": "TAF EDJA 011700Z 0118/0203 24020G35KT CAVOK"
    },
    {
      "icao": "EDLW",
      "alert": "OK",
      "vis_m": 4700,
      "fzfg": false,
      "metar_trigger": false,
      "taf_trigger": false,
      "metar": "METAR EDLW 020120Z AUTO 26014G24KT 230V290 4700 // SCT005/// OVC007/// 01/00 Q0996",
      "taf": "TAF EDLW 011700Z 0118/0218 24015G25KT 9999 SCT012 BKN015"
    },
    {
      "icao": "EDNY",
      "alert": "OK",
      "vis_m": 9999,
      "fzfg": false,
      "metar_trigger": false,
      "taf_trigger": false,
      "metar": "METAR EDNY 020120Z AUTO 23014KT 9999 // OVC190/// M00/M07 Q1008",
      "taf": ""
    },
    {
      "icao": "EDSB",
      "alert": "OK",
      "vis_m": 5000,
      "fzfg": false,
      "metar_trigger": false,
      "taf_trigger": false,
      "metar": "METAR EDSB 020120Z AUTO 21012KT 5000 FEW017/// OVC022/// 00/M03 Q1006",
      "taf": "TAF EDSB 012300Z 0200/0224 22013KT 9999 OVC030"
    },
    {
      "icao": "EETN",
      "alert": "OK",
      "vis_m": 9999,
      "fzfg": false,
      "metar_trigger": false,
      "taf_trigger": false,
      "metar": "METAR EETN 020120Z 11013KT 9999 -SN DRSN SCT022 OVC045 M08/M10 Q0983",
      "taf": "TAF EETN 012330Z 0200/0224 12016KT 5000 SN BKN015 OVC030"
    },
    {
      "icao": "EFTU",
      "alert": "OK",
      "vis_m": 3500,
      "fzfg": false,
      "metar_trigger": false,
      "taf_trigger": false,
      "metar": "METAR EFTU 020120Z AUTO 09015KT 3500 -SN OVC015 M06/M08 Q0982",
      "taf": ""
    },
    {
      "icao": "EGBB",
      "alert": "OK",
      "vis_m": 9999,
      "fzfg": false,
      "metar_trigger": false,
      "taf_trigger": false,
      "metar": "METAR EGBB 020120Z 28009KT CAVOK 03/M01 Q1005",
      "taf": "TAF EGBB 012258Z 0200/0224 28010KT 9999 SCT030"
    },
    {
      "icao": "EGGP",
      "alert": "OK",
      "vis_m": 9999,
      "fzfg": false,
      "metar_trigger": false,
      "taf_trigger": false,
      "metar": "METAR EGGP 020120Z 32010KT 9999 -RA FEW015 SCT019 BKN034 03/00 Q1006",
      "taf": "TAF EGGP 012256Z 0200/0224 32012KT 9999 FEW035"
    },
    {
      "icao": "EGGW",
      "alert": "OK",
      "vis_m": 9999,
      "fzfg": false,
      "metar_trigger": false,
      "taf_trigger": false,
      "metar": "METAR EGGW 020120Z AUTO 27017KT 9999 FEW037 01/M01 Q1004",
      "taf": "TAF EGGW 012304Z 0200/0224 29015KT 9999 SCT020"
    },
    {
      "icao": "EGKK",
      "alert": "OK",
      "vis_m": 9999,
      "fzfg": false,
      "metar_trigger": false,
      "taf_trigger": false,
      "metar": "METAR EGKK 020120Z 28009KT CAVOK 02/M01 Q1006",
      "taf": "TAF EGKK 012304Z 0200/0306 29011KT 9999 FEW030"
    },
    {
      "icao": "EGNM",
      "alert": "OK",
      "vis_m": null,
      "fzfg": false,
      "metar_trigger": false,
      "taf_trigger": false,
      "metar": "",
      "taf": "TAF EGNM 012255Z 0200/0224 29015KT 9999 FEW030"
    },
    {
      "icao": "EGPD",
      "alert": "OK",
      "vis_m": 1200,
      "fzfg": false,
      "metar_trigger": false,
      "taf_trigger": false,
      "metar": "METAR EGPD 020120Z AUTO 30020KT 1200 SN SCT008 BKN028 M00/M02 Q1000 TEMPO BKN008",
      "taf": "TAF EGPD 012252Z 0200/0224 31015KT 9999 SCT012"
    },
    {
      "icao": "EGPF",
      "alert": "OK",
      "vis_m": 9999,
      "fzfg": false,
      "metar_trigger": false,
      "taf_trigger": false,
      "metar": "METAR EGPF 020120Z AUTO 12003KT 060V170 9999 NCD M00/M03 Q1006",
      "taf": ""
    },
    {
      "icao": "EHBK",
      "alert": "OK",
      "vis_m": 9999,
      "fzfg": false,
      "metar_trigger": false,
      "taf_trigger": false,
      "metar": "METAR EHBK 020125Z AUTO 25012KT 210V300 9999 FEW013/// SCT021/// 03/01 Q1000",
      "taf": "TAF EHBK 012316Z 0200/0306 25013KT 9999 SCT022"
    },
    {
      "icao": "EHEH",
      "alert": "OK",
      "vis_m": 9999,
      "fzfg": false,
      "metar_trigger": false,
      "taf_trigger": false,
      "metar": "METAR EHEH 020125Z AUTO 26011KT 230V300 9999 FEW019CB SCT027 BKN031 BKN036 04/M01 Q0999 BLU",
      "taf": "TAF EHEH 012337Z 0200/0306 25010G20KT 9999 BKN028"
    },
    {
      "icao": "EKBI",
      "alert": "OK",
      "vis_m": 9999,
      "fzfg": false,
      "metar_trigger": false,
      "taf_trigger": false,
      "metar": "METAR EKBI 020120Z AUTO 33013KT 9999 SCT010/// 01/M01 Q0977",
      "taf": "TAF EKBI 012327Z 0200/0224 26014KT 9999 FEW010 BKN015"
    },
    {
      "icao": "EKCH",
      "alert": "OK",
      "vis_m": 2500,
      "fzfg": false,
      "metar_trigger": false,
      "taf_trigger": false,
      "metar": "METAR EKCH 020120Z 21017KT 2500 SHRASN OVC007 SCT015CB 01/00 Q0975 TEMPO 23015G25KT BECMG 9999 NSW BKN015",
      "taf": "TAF EKCH 012342Z 0200/0224 25015KT 9999 FEW020"
    },
    {
      "icao": "ENAL",
      "alert": "OK",
      "vis_m": 9999,
      "fzfg": false,
      "metar_trigger": false,
      "taf_trigger": false,
      "metar": "METAR ENAL 020120Z AUTO 06020G32KT 9999 -SN FEW004/// SCT016/// BKN025/// M01/M05 Q0992",
      "taf": "TAF ENAL 012300Z 0200/0209 05025KT 9999 FEW010 SCT025"
    },
    {
      "icao": "ENBR",
      "alert": "OK",
      "vis_m": 9999,
      "fzfg": false,
      "metar_trigger": false,
      "taf_trigger": false,
      "metar": "METAR ENBR 020120Z 34017KT CAVOK M00/M07 Q0985 RMK WIND 1200FT 36023KT",
      "taf": "TAF ENBR 012300Z 0200/0224 36012KT CAVOK"
    },
    {
      "icao": "ENGM",
      "alert": "OK",
      "vis_m": 2700,
      "fzfg": false,
      "metar_trigger": false,
      "taf_trigger": false,
      "metar": "METAR ENGM 020120Z 01019KT 2700 -SN SCT014 OVC018 M05/M07 Q0978",
      "taf": "TAF ENGM 012300Z 0200/0224 36018KT 7000 -SN BKN020"
    },
    {
      "icao": "ENHD",
      "alert": "OK",
      "vis_m": 9999,
      "fzfg": false,
      "metar_trigger": false,
      "taf_trigger": false,
      "metar": "METAR ENHD 020120Z AUTO 35024KT 9999 NCD 02/M03 Q0983",
      "taf": "TAF ENHD 011400Z 0115/0123 34020KT 9999 FEW020 SCT040"
    },
    {
      "icao": "ENTC",
      "alert": "OK",
      "vis_m": 9999,
      "fzfg": false,
      "metar_trigger": false,
      "taf_trigger": false,
      "metar": "METAR ENTC 020120Z 19017KT 9999 SCT051 BKN067 M09/M14 Q0999 RMK WIND 2600FT 25011KT",
      "taf": "TAF ENTC 012300Z 0200/0224 21012KT 9999 SCT040 BKN050"
    },
    {
      "icao": "ENTO",
      "alert": "OK",
      "vis_m": 2800,
      "fzfg": false,
      "metar_trigger": false,
      "taf_trigger": false,
      "metar": "METAR ENTO 020120Z AUTO 36017KT 2800 -SN VV015 M02/M04 Q0976",
      "taf": ""
    },
    {
      "icao": "ENVA",
      "alert": "OK",
      "vis_m": 9999,
      "fzfg": false,
      "metar_trigger": false,
      "taf_trigger": false,
      "metar": "METAR ENVA 020120Z AUTO 06006KT 030V090 9999 -SN OVC038/// M05/M08 Q0991 RMK WIND 670FT 08006KT",
      "taf": "TAF ENVA 012300Z 0200/0224 08008KT 8000 -SN FEW010 BKN025"
    },
    {
      "icao": "ENZV",
      "alert": "OK",
      "vis_m": 9999,
      "fzfg": false,
      "metar_trigger": false,
      "taf_trigger": false,
      "metar": "METAR ENZV 020120Z AUTO 36013KT 9999 NCD 02/M02 Q0982",
      "taf": "TAF ENZV 012300Z 0200/0224 36015KT CAVOK"
    },
    {
      "icao": "EPGD",
      "alert": "OK",
      "vis_m": 9999,
      "fzfg": false,
      "metar_trigger": false,
      "taf_trigger": false,
      "metar": "METAR EPGD 020130Z 23015KT 9999 -SNRA BKN007 01/M00 Q0982",
      "taf": "TAF EPGD 012330Z 0200/0224 22015KT 9999 BKN016"
    },
    {
      "icao": "EPKK",
      "alert": "OK",
      "vis_m": 9999,
      "fzfg": false,
      "metar_trigger": false,
      "taf_trigger": false,
      "metar": "METAR EPKK 020130Z 23010KT 9999 OVC034 02/M05 Q0997",
      "taf": "TAF EPKK 012330Z 0200/0224 23012KT 9999 BKN040"
    },
    {
      "icao": "EPKT",
      "alert": "OK",
      "vis_m": 9999,
      "fzfg": false,
      "metar_trigger": false,
      "taf_trigger": false,
      "metar": "METAR EPKT 020130Z 22017KT 9999 -SN FEW018 BKN027 OVC034 01/M05 Q0996",
      "taf": "TAF EPKT 012330Z 0200/0224 23012KT 9999 BKN030"
    },
    {
      "icao": "EPLB",
      "alert": "OK",
      "vis_m": 9999,
      "fzfg": false,
      "metar_trigger": false,
      "taf_trigger": false,
      "metar": "METAR EPLB 020130Z 23015KT 9999 BKN046 01/M03 Q0995",
      "taf": "TAF EPLB 012330Z 0200/0224 22014KT 9999 BKN030"
    },
    {
      "icao": "EPMO",
      "alert": "OK",
      "vis_m": 9999,
      "fzfg": false,
      "metar_trigger": false,
      "taf_trigger": false,
      "metar": "METAR EPMO 020130Z 21016KT 9999 -SN BKN025 02/M01 Q0990",
      "taf": "TAF EPMO 012330Z 0200/0224 23014KT 9999 BKN020"
    },
    {
      "icao": "EPPO",
      "alert": "OK",
      "vis_m": 9999,
      "fzfg": false,
      "metar_trigger": false,
      "taf_trigger": false,
      "metar": "METAR EPPO 020130Z 24013KT 9999 BKN025 02/M02 Q0989",
      "taf": "TAF EPPO 012330Z 0200/0224 24013KT 9999 BKN025"
    },
    {
      "icao": "EPRA",
      "alert": "OK",
      "vis_m": 9999,
      "fzfg": false,
      "metar_trigger": false,
      "taf_trigger": false,
      "metar": "METAR EPRA 020130Z 24015KT 9999 SCT037 01/M03 Q0993",
      "taf": "TAF EPRA 012330Z 0200/0209 22015KT 9999 BKN040"
    },
    {
      "icao": "EPRZ",
      "alert": "OK",
      "vis_m": 9999,
      "fzfg": false,
      "metar_trigger": false,
      "taf_trigger": false,
      "metar": "METAR EPRZ 020130Z 19013KT 9999 OVC045 00/M04 Q0998",
      "taf": "TAF EPRZ 012330Z 0200/0224 20012KT 9999 BKN040"
    },
    {
      "icao": "EPSC",
      "alert": "OK",
      "vis_m": 9999,
      "fzfg": false,
      "metar_trigger": false,
      "taf_trigger": false,
      "metar": "METAR EPSC 020130Z 21011KT 180V240 9999 FEW010 SCT016 BKN026 02/00 Q0985",
      "taf": "TAF EPSC 012330Z 0200/0224 22012KT 9999 BKN016"
    },
    {
      "icao": "EPSY",
      "alert": "OK",
      "vis_m": 9999,
      "fzfg": false,
      "metar_trigger": false,
      "taf_trigger": false,
      "metar": "METAR EPSY 020130Z 22013KT 9999 FEW006 BKN010 OVC015 01/M00 Q0986",
      "taf": "TAF EPSY 012030Z 0121/0206 22014KT 4000 -SNRA BR OVC005"
    },
    {
      "icao": "EPWA",
      "alert": "OK",
      "vis_m": 9999,
      "fzfg": false,
      "metar_trigger": false,
      "taf_trigger": false,
      "metar": "METAR EPWA 020130Z 23013KT 190V260 9999 FEW034 02/M02 Q0991 NOSIG",
      "taf": "TAF EPWA 012330Z 0200/0224 23014KT 9999 BKN020"
    },
    {
      "icao": "EPWR",
      "alert": "OK",
      "vis_m": 9999,
      "fzfg": false,
      "metar_trigger": false,
      "taf_trigger": false,
      "metar": "METAR EPWR 020130Z 23013KT 9999 FEW030 BKN045 02/M03 Q0994",
      "taf": "TAF EPWR 012330Z 0200/0224 23012KT 9999 FEW030 OVC040"
    },
    {
      "icao": "ESGG",
      "alert": "OK",
      "vis_m": 9999,
      "fzfg": false,
      "metar_trigger": false,
      "taf_trigger": false,
      "metar": "METAR ESGG 020120Z 01009KT 9999 -SN SCT007 BKN014 OVC049 M02/M02 Q0972",
      "taf": "TAF ESGG 012330Z 0200/0224 02008KT 7000 -SN BKN017"
    },
    {
      "icao": "ESKN",
      "alert": "OK",
      "vis_m": 600,
      "fzfg": true,
      "metar_trigger": false,
      "taf_trigger": false,
      "metar": "METAR ESKN 020120Z 36003KT 0600 R08/1700U R26/P2000N FZFG OVC002 M00/M00 Q0974",
      "taf": ""
    },
    {
      "icao": "ESMS",
      "alert": "OK",
      "vis_m": 9999,
      "fzfg": false,
      "metar_trigger": false,
      "taf_trigger": false,
      "metar": "METAR ESMS 020120Z 21019KT 9999 SCT017 OVC023 03/00 Q0975",
      "taf": "TAF ESMS 012327Z 0200/0224 24015KT 9999 FEW017"
    },
    {
      "icao": "ESSA",
      "alert": "OK",
      "vis_m": 3800,
      "fzfg": false,
      "metar_trigger": false,
      "taf_trigger": false,
      "metar": "METAR ESSA 020120Z 03009KT 3800 -SN BKN004 M01/M01 Q0974 TEMPO 6000",
      "taf": ""
    },
    {
      "icao": "EYKA",
      "alert": "OK",
      "vis_m": 9000,
      "fzfg": false,
      "metar_trigger": false,
      "taf_trigger": false,
      "metar": "METAR EYKA 020120Z 21007KT 160V240 9000 -FZRA OVC007 00/M00 Q0984",
      "taf": "TAF EYKA 012313Z 0200/0224 21012KT 5000 SNRA BR OVC010"
    },
    {
      "icao": "EYPA",
      "alert": "OK",
      "vis_m": 5000,
      "fzfg": false,
      "metar_trigger": false,
      "taf_trigger": false,
      "metar": "METAR EYPA 020120Z 23011G22KT 170V270 5000 -SHSNRA BKN010 BKN014CB BKN031 01/00 Q0979 RESHRA",
      "taf": "TAF EYPA 012310Z 0200/0224 23009G19KT 5000 SHRASN SCT010 SCT012CB BKN015"
    },
    {
      "icao": "EYVI",
      "alert": "OK",
      "vis_m": 1000,
      "fzfg": false,
      "metar_trigger": false,
      "taf_trigger": false,
      "metar": "METAR EYVI 020120Z 20014KT 1000 R19/P2000N SN OVC004 M01/M02 Q0985 BECMG 3000 SN",
      "taf": "TAF EYVI 012326Z 0200/0224 19013KT 1500 SN OVC005"
    },
    {
      "icao": "GCFV",
      "alert": "OK",
      "vis_m": 9999,
      "fzfg": false,
      "metar_trigger": false,
      "taf_trigger": false,
      "metar": "METAR GCFV 020130Z AUTO 20011G22KT 9999 FEW022 20/16 Q1008",
      "taf": "TAF GCFV 012000Z 0121/0221 20012KT 9999 FEW025 TX23/0214Z TN17/0206Z"
    },
    {
      "icao": "GCLP",
      "alert": "OK",
      "vis_m": 9999,
      "fzfg": false,
      "metar_trigger": false,
      "taf_trigger": false,
      "metar": "METAR GCLP 020130Z 23008KT 9999 FEW040 19/13 Q1008 NOSIG",
      "taf": "TAF GCLP 012000Z 0121/0221 20013KT 9999 SCT030 BKN040 TX23/0214Z TN17/0206Z"
    },
    {
      "icao": "GCTS",
      "alert": "OK",
      "vis_m": 9999,
      "fzfg": false,
      "metar_trigger": false,
      "taf_trigger": false,
      "metar": "METAR GCTS 020130Z 28009KT 9999 SCT020 18/16 Q1008 NOSIG",
      "taf": "TAF GCTS 012000Z 0121/0221 27012KT 9999 SCT015 BKN040 TX25/0214Z TN18/0206Z"
    },
    {
      "icao": "GMAD",
      "alert": "OK",
      "vis_m": 9999,
      "fzfg": false,
      "metar_trigger": false,
      "taf_trigger": false,
      "metar": "METAR GMAD 020130Z 05007KT CAVOK 15/08 Q1010 NOSIG",
      "taf": "TAF GMAD 012300Z 0200/0306 07006KT CAVOK"
    },
    {
      "icao": "GMMN",
      "alert": "OK",
      "vis_m": 9999,
      "fzfg": false,
      "metar_trigger": false,
      "taf_trigger": false,
      "metar": "METAR GMMN 020130Z 13006KT 110V170 CAVOK 12/09 Q1009 NOSIG",
      "taf": "TAF GMMN 012300Z 0200/0306 14006KT CAVOK"
    },
    {
      "icao": "GMMX",
      "alert": "OK",
      "vis_m": 9999,
      "fzfg": false,
      "metar_trigger": false,
      "taf_trigger": false,
      "metar": "METAR GMMX 020130Z 20012KT CAVOK 20/04 Q1008 NOSIG",
      "taf": "TAF GMMX 012300Z 0200/0306 08010KT 8000 NSC TEMP 0200/0223 34018G40KT"
    },
    {
      "icao": "HEGN",
      "alert": "OK",
      "vis_m": 9999,
      "fzfg": false,
      "metar_trigger": false,
      "taf_trigger": false,
      "metar": "METAR HEGN 020100Z 30008KT CAVOK 16/05 Q1019 NOSIG",
      "taf": "TAF HEGN 012300Z 0200/0306 29008KT CAVOK"
    },
    {
      "icao": "HEMA",
      "alert": "OK",
      "vis_m": 9999,
      "fzfg": false,
      "metar_trigger": false,
      "taf_trigger": false,
      "metar": "METAR HEMA 020100Z 27007KT CAVOK 17/10 Q1016 NOSIG",
      "taf": "TAF HEMA 012300Z 0200/0306 26008KT CAVOK"
    },
    {
      "icao": "HESH",
      "alert": "OK",
      "vis_m": 9999,
      "fzfg": false,
      "metar_trigger": false,
      "taf_trigger": false,
      "metar": "METAR HESH 020100Z 31008KT CAVOK 20/02 Q1017 NOSIG",
      "taf": "TAF HESH 012300Z 0200/0306 31008KT CAVOK"
    },
    {
      "icao": "HESX",
      "alert": "OK",
      "vis_m": 9999,
      "fzfg": false,
      "metar_trigger": false,
      "taf_trigger": false,
      "metar": "METAR HESX 020100Z 28003KT CAVOK 10/06 Q1020 NOSIG",
      "taf": "TAF HESX 012300Z 0200/0306 27008KT 6000 FEW025"
    },
    {
      "icao": "LATI",
      "alert": "OK",
      "vis_m": 9999,
      "fzfg": false,
      "metar_trigger": false,
      "taf_trigger": false,
      "metar": "METAR LATI 020120Z 16003KT CAVOK M02/M09 Q1021 NOSIG",
      "taf": "TAF LATI 012300Z 0200/0224 VRB05KT CAVOK TX11/0212Z TNM00/0203Z"
    },
    {
      "icao": "LBPD",
      "alert": "OK",
      "vis_m": 9999,
      "fzfg": false,
      "metar_trigger": false,
      "taf_trigger": false,
      "metar": "METAR LBPD 020130Z AUTO 27003KT 9999 NCD M05/M08 Q1019",
      "taf": "TAF LBPD 012300Z 0200/0224 VRB03KT 9999 SCT070"
    },
    {
      "icao": "LBSF",
      "alert": "OK",
      "vis_m": 9999,
      "fzfg": false,
      "metar_trigger": false,
      "taf_trigger": false,
      "metar": "METAR LBSF 020130Z AUTO 13003KT 9999 NCD M11/M13 Q1017 NOSIG",
      "taf": "TAF LBSF 012300Z 0200/0224 VRB03KT 9999 SCT040"
    },
    {
      "icao": "LBWN",
      "alert": "OK",
      "vis_m": 9999,
      "fzfg": false,
      "metar_trigger": false,
      "taf_trigger": false,
      "metar": "METAR LBWN 020130Z AUTO VRB03KT 9999 NCD M04/M10 Q1018 NOSIG",
      "taf": "TAF LBWN 012300Z 0200/0224 VRB03KT CAVOK"
    },
    {
      "icao": "LCLK",
      "alert": "OK",
      "vis_m": 9999,
      "fzfg": false,
      "metar_trigger": false,
      "taf_trigger": false,
      "metar": "METAR LCLK 020130Z 33008KT 9999 BKN060 08/02 Q1018 NOSIG",
      "taf": "TAF LCLK 012330Z 0200/0300 35009KT 9999 FEW030 SCT040"
    },
    {
      "icao": "LCPH",
      "alert": "OK",
      "vis_m": 9999,
      "fzfg": false,
      "metar_trigger": false,
      "taf_trigger": false,
      "metar": "METAR LCPH 020130Z AUTO 02007KT 9999 R29/P2000 R11/1300 BKN060 08/01 Q1018 NOSIG",
      "taf": "TAF LCPH 012330Z 0200/0300 06008KT 9999 FEW030 SCT050"
    },
    {
      "icao": "LEAL",
      "alert": "OK",
      "vis_m": 9999,
      "fzfg": false,
      "metar_trigger": false,
      "taf_trigger": false,
      "metar": "METAR LEAL 020130Z 25004KT CAVOK 09/09 Q1015 NOSIG",
      "taf": "TAF LEAL 012300Z 0200/0224 26004KT 9999 FEW030 TX16/0214Z TN08/0206Z"
    },
    {
      "icao": "LEBB",
      "alert": "OK",
      "vis_m": 9999,
      "fzfg": false,
      "metar_trigger": false,
      "taf_trigger": false,
      "metar": "METAR LEBB 020130Z AUTO 11006KT 080V140 CAVOK 07/03 Q1011",
      "taf": "TAF LEBB 012300Z 0200/0224 12006KT 9999 FEW070 TX12/0214Z TN05/0200Z"
    },
    {
      "icao": "LEBL",
      "alert": "OK",
      "vis_m": 9999,
      "fzfg": false,
      "metar_trigger": false,
      "taf_trigger": false,
      "metar": "METAR LEBL 020130Z 32010KT 9999 FEW015 06/03 Q1013 NOSIG",
      "taf": "TAF LEBL 012300Z 0200/0224 34006KT 9999 FEW015 TX15/0212Z TN05/0206Z"
    },
    {
      "icao": "LECH",
      "alert": "OK",
      "vis_m": 7000,
      "fzfg": false,
      "metar_trigger": false,
      "taf_trigger": false,
      "metar": "METAR LECH 020130Z AUTO VRB02KT 7000 NCD 05/05 Q1013",
      "taf": ""
    },
    {
      "icao": "LEMD",
      "alert": "OK",
      "vis_m": 9000,
      "fzfg": false,
      "metar_trigger": false,
      "taf_trigger": false,
      "metar": "METAR LEMD 020130Z 33003KT 9000 OVC016 04/03 Q1014 NOSIG",
      "taf": "TAF LEMD 012300Z 0200/0306 VRB03KT 9999 SCT025 TX11/0215Z TN04/0208Z"
    },
    {
      "icao": "LEMG",
      "alert": "OK",
      "vis_m": 4000,
      "fzfg": false,
      "metar_trigger": false,
      "taf_trigger": false,
      "metar": "METAR LEMG 020130Z 29004KT 4000 BR FEW025 11/10 Q1014 NOSIG",
      "taf": ""
    },
    {
      "icao": "LEVC",
      "alert": "OK",
      "vis_m": 9999,
      "fzfg": false,
      "metar_trigger": false,
      "taf_trigger": false,
      "metar": "METAR LEVC 020130Z VRB01KT CAVOK 09/06 Q1013 NOSIG",
      "taf": "TAF LEVC 012300Z 0200/0224 26006KT 9999 FEW035 TX17/0214Z TN07/0206Z"
    },
    {
      "icao": "LEXJ",
      "alert": "OK",
      "vis_m": 6000,
      "fzfg": false,
      "metar_trigger": false,
      "taf_trigger": false,
      "metar": "METAR LEXJ 020130Z AUTO VRB02KT 6000 NSC 05/03 Q1011",
      "taf": "TAF LEXJ 012000Z 0121/0221 10007KT 9999 FEW070 TX12/0213Z TN07/0121Z"
    },
    {
      "icao": "LEZG",
      "alert": "OK",
      "vis_m": 9000,
      "fzfg": false,
      "metar_trigger": false,
      "taf_trigger": false,
      "metar": "METAR LEZG 020130Z 31003KT 260V350 9000 OVC006 03/03 Q1015 NOSIG",
      "taf": "TAF LEZG 012300Z 0200/0224 05004KT 4000 BR OVC005 TX07/0215Z TN01/0203Z"
    },
    {
      "icao": "LEZL",
      "alert": "OK",
      "vis_m": 9999,
      "fzfg": false,
      "metar_trigger": false,
      "taf_trigger": false,
      "metar": "METAR LEZL 020130Z AUTO 06008KT CAVOK 12/10 Q1011",
      "taf": "TAF LEZL 012000Z 0121/0221 05007KT 9999 FEW040 TX18/0215Z TN09/0207Z"
    },
    {
      "icao": "LFBD",
      "alert": "OK",
      "vis_m": 900,
      "fzfg": true,
      "metar_trigger": false,
      "taf_trigger": false,
      "metar": "METAR LFBD 020130Z AUTO 07004KT 040V110 0900 0800 R23/1200U R05/1100U R29/0900U FG VV/// 00/00 Q1014 TEMPO 0300 FZFG",
      "taf": "TAF LFBD 012300Z 0200/0306 VRB03KT 1500 BR OVC002 TX05/0215Z TNM03/0208Z"
    },
    {
      "icao": "LFLL",
      "alert": "OK",
      "vis_m": 5000,
      "fzfg": false,
      "metar_trigger": false,
      "taf_trigger": false,
      "metar": "METAR LFLL 020130Z 23004KT 5000 BR NSC M04/M05 Q1012 NOSIG",
      "taf": "TAF LFLL 012300Z 0200/0306 VRB03KT 6000 NSC"
    },
    {
      "icao": "LFLS",
      "alert": "OK",
      "vis_m": 9999,
      "fzfg": false,
      "metar_trigger": false,
      "taf_trigger": false,
      "metar": "METAR LFLS 020130Z AUTO 06004KT CAVOK M06/M07 Q1011",
      "taf": "TAF LFLS 011400Z 0115/0215 VRB03KT CAVOK"
    },
    {
      "icao": "LFMN",
      "alert": "OK",
      "vis_m": 9999,
      "fzfg": false,
      "metar_trigger": false,
      "taf_trigger": false,
      "metar": "METAR LFMN 020130Z 32014KT 9999 SCT053 06/M01 Q1010 NOSIG",
      "taf": "TAF LFMN 012000Z 0121/0303 33010KT 9999 FEW060"
    },
    {
      "icao": "LFOB",
      "alert": "OK",
      "vis_m": 9999,
      "fzfg": false,
      "metar_trigger": false,
      "taf_trigger": false,
      "metar": "METAR LFOB 020130Z AUTO 25009KT 9999 SCT008 SCT012 BKN022 03/02 Q1007 TEMPO BKN007 BKN011",
      "taf": "TAF LFOB 012300Z 0200/0224 24009KT 9999 BKN025"
    },
    {
      "icao": "LFPO",
      "alert": "OK",
      "vis_m": 9999,
      "fzfg": false,
      "metar_trigger": false,
      "taf_trigger": false,
      "metar": "METAR LFPO 020130Z AUTO 25009KT 9999 SCT009 BKN056 02/01 Q1008 TEMPO BKN008",
      "taf": "TAF LFPO 012300Z 0200/0306 25010KT 9999 BKN030"
    },
    {
      "icao": "LFSB",
      "alert": "OK",
      "vis_m": 9999,
      "fzfg": false,
      "metar_trigger": false,
      "taf_trigger": false,
      "metar": "METAR LFSB 020130Z AUTO 00000KT 9999 SCT046 SCT130 M06/M07 Q1009 NOSIG",
      "taf": "TAF LFSB 012300Z 0200/0224 27005KT 9999 FEW035"
    },
    {
      "icao": "LGAV",
      "alert": "OK",
      "vis_m": 9999,
      "fzfg": false,
      "metar_trigger": false,
      "taf_trigger": false,
      "metar": "METAR LGAV 020120Z VRB03KT CAVOK M03/M05 Q1024 NOSIG",
      "taf": "TAF LGAV 012300Z 0200/0224 VRB05KT 9999 FEW025"
    },
    {
      "icao": "LGTS",
      "alert": "OK",
      "vis_m": 9999,
      "fzfg": false,
      "metar_trigger": false,
      "taf_trigger": false,
      "metar": "METAR LGTS 020120Z VRB02KT CAVOK M02/M06 Q1021 NOSIG",
      "taf": "TAF LGTS 012300Z 0200/0224 VRB03KT 9999 FEW030"
    },
    {
      "icao": "LHBP",
      "alert": "OK",
      "vis_m": 9999,
      "fzfg": false,
      "metar_trigger": false,
      "taf_trigger": false,
      "metar": "METAR LHBP 020130Z 12003KT 090V150 CAVOK M01/M03 Q1005 NOSIG",
      "taf": "TAF LHBP 012315Z 0200/0224 16005KT CAVOK"
    },
    {
      "icao": "LHDC",
      "alert": "OK",
      "vis_m": 9999,
      "fzfg": false,
      "metar_trigger": false,
      "taf_trigger": false,
      "metar": "METAR LHDC 020115Z AUTO 20016KT 170V230 9999 BKN045 01/M04 Q1006",
      "taf": "TAF LHDC 011415Z 0115/0124 18014KT 8000 SN BKN005 BKN025"
    },
    {
      "icao": "LIBD",
      "alert": "OK",
      "vis_m": 9999,
      "fzfg": false,
      "metar_trigger": false,
      "taf_trigger": false,
      "metar": "METAR LIBD 020120Z 19010KT 9999 SCT045 08/M04 Q1016",
      "taf": "TAF LIBD 012300Z 0200/0224 20015KT CAVOK"
    },
    {
      "icao": "LIBG",
      "alert": "OK",
      "vis_m": null,
      "fzfg": false,
      "metar_trigger": false,
      "taf_trigger": false,
      "metar": "",
      "taf": "TAF LIBG 011700Z 0118/0203 VRB05KT CAVOK"
    },
    {
      "icao": "LIBP",
      "alert": "OK",
      "vis_m": 9999,
      "fzfg": false,
      "metar_trigger": false,
      "taf_trigger": false,
      "metar": "METAR LIBP 020120Z AUTO VRB03KT 9999 BKN072/// BKN090/// 12/03 Q1011",
      "taf": "TAF LIBP 012300Z 0200/0224 22020KT CAVOK"
    },
    {
      "icao": "LIBR",
      "alert": "OK",
      "vis_m": 9999,
      "fzfg": false,
      "metar_trigger": false,
      "taf_trigger": false,
      "metar": "METAR LIBR 020120Z 18009KT CAVOK 06/03 Q1018",
      "taf": "TAF LIBR 012300Z 0200/0224 20012KT CAVOK"
    },
    {
      "icao": "LICA",
      "alert": "OK",
      "vis_m": 9999,
      "fzfg": false,
      "metar_trigger": false,
      "taf_trigger": false,
      "metar": "METAR LICA 020120Z AUTO 08007KT 9999 OVC065/// 06/04 Q1020",
      "taf": "TAF LICA 012300Z 0200/0224 07012KT 9999 SCT050"
    },
    {
      "icao": "LICC",
      "alert": "OK",
      "vis_m": 9999,
      "fzfg": false,
      "metar_trigger": false,
      "taf_trigger": false,
      "metar": "METAR LICC 020120Z 21004KT 9999 BKN035 09/06 Q1021",
      "taf": "TAF LICC 012300Z 0200/0224 25010KT 9999 SCT030"
    },
    {
      "icao": "LICJ",
      "alert": "OK",
      "vis_m": 9999,
      "fzfg": false,
      "metar_trigger": false,
      "taf_trigger": false,
      "metar": "METAR LICJ 020120Z 19013KT 9999 FEW040 13/09 Q1018",
      "taf": "TAF LICJ 012300Z 0200/0224 19018G30KT 9999 SCT030"
    },
    {
      "icao": "LIMC",
      "alert": "OK",
      "vis_m": 9999,
      "fzfg": false,
      "metar_trigger": false,
      "taf_trigger": false,
      "metar": "METAR LIMC 020120Z VRB02KT 9999 BKN050 02/01 Q1009 NOSIG",
      "taf": "TAF LIMC 012300Z 0200/0306 VRB04KT 7000 BKN040"
    },
    {
      "icao": "LIME",
      "alert": "OK",
      "vis_m": 2000,
      "fzfg": false,
      "metar_trigger": false,
      "taf_trigger": false,
      "metar": "METAR LIME 020050Z 32003KT 290V010 2000 BR FEW004 BKN045 02/02 Q1009 NOSIG",
      "taf": "TAF LIME 012300Z 0200/0224 VRB04KT 3000 BR BKN040"
    },
    {
      "icao": "LIMF",
      "alert": "OK",
      "vis_m": 6000,
      "fzfg": false,
      "metar_trigger": false,
      "taf_trigger": false,
      "metar": "METAR LIMF 020120Z 23003KT 6000 BKN035 01/M02 Q1009",
      "taf": "TAF LIMF 012300Z 0200/0224 VRB04KT 3000 BR BKN040"
    },
    {
      "icao": "LIMJ",
      "alert": "OK",
      "vis_m": 9999,
      "fzfg": false,
      "metar_trigger": false,
      "taf_trigger": false,
      "metar": "METAR LIMJ 020120Z 14006KT 9999 FEW045 11/04 Q1008",
      "taf": "TAF LIMJ 012300Z 0200/0224 VRB05KT 9999 SCT025"
    },
    {
      "icao": "LIPE",
      "alert": "OK",
      "vis_m": 2500,
      "fzfg": false,
      "metar_trigger": false,
      "taf_trigger": false,
      "metar": "METAR LIPE 020120Z VRB01KT 2500 BR BKN010 01/01 Q1010",
      "taf": "TAF LIPE 012300Z 0200/0224 VRB05KT 9999 SCT010 BKN050"
    },
    {
      "icao": "LIPH",
      "alert": "OK",
      "vis_m": 9999,
      "fzfg": false,
      "metar_trigger": false,
      "taf_trigger": false,
      "metar": "METAR LIPH 020120Z AUTO 21002KT 9999 BKN027/// OVC065/// 02/M01 Q1009",
      "taf": "TAF LIPH 012300Z 0200/0224 VRB04KT 9999 OVC030"
    },
    {
      "icao": "LIPQ",
      "alert": "OK",
      "vis_m": 9999,
      "fzfg": false,
      "metar_trigger": false,
      "taf_trigger": false,
      "metar": "METAR LIPQ 020120Z AUTO VRB01KT 9999 OVC027/// 03/00 Q1009",
      "taf": "TAF LIPQ 012300Z 0200/0224 VRB05KT 9999 FEW030"
    },
    {
      "icao": "LIPR",
      "alert": "OK",
      "vis_m": 9999,
      "fzfg": false,
      "metar_trigger": false,
      "taf_trigger": false,
      "metar": "METAR LIPR 020120Z AUTO 32010KT 9999 BKN063/// 02/00 Q1010",
      "taf": "TAF LIPR 012300Z 0200/0224 18010KT CAVOK"
    },
    {
      "icao": "LIPX",
      "alert": "OK",
      "vis_m": 6000,
      "fzfg": false,
      "metar_trigger": false,
      "taf_trigger": false,
      "metar": "METAR LIPX 020050Z VRB02KT 6000 BKN060 01/M00 Q1010",
      "taf": "TAF LIPX 012300Z 0200/0224 VRB04KT 6000 BKN040"
    },
    {
      "icao": "LIPY",
      "alert": "OK",
      "vis_m": 9999,
      "fzfg": false,
      "metar_trigger": false,
      "taf_trigger": false,
      "metar": "METAR LIPY 020120Z AUTO 17004KT 9999 SCT043/// 07/03 Q1011",
      "taf": "TAF LIPY 012300Z 0200/0224 VRB05KT 9999 OVC030"
    },
    {
      "icao": "LIPZ",
      "alert": "OK",
      "vis_m": 9999,
      "fzfg": false,
      "metar_trigger": false,
      "taf_trigger": false,
      "metar": "METAR LIPZ 020120Z VRB01KT 9999 BKN070 01/M02 Q1009 NOSIG",
      "taf": "TAF LIPZ 012300Z 0200/0306 VRB05KT 9999 BKN030"
    },
    {
      "icao": "LIRF",
      "alert": "OK",
      "vis_m": 9999,
      "fzfg": false,
      "metar_trigger": false,
      "taf_trigger": false,
      "metar": "METAR LIRF 020120Z 08004KT CAVOK 07/07 Q1013 NOSIG",
      "taf": "TAF LIRF 012300Z 0200/0306 14010KT 9999 BKN030"
    },
    {
      "icao": "LIRN",
      "alert": "OK",
      "vis_m": 9999,
      "fzfg": false,
      "metar_trigger": false,
      "taf_trigger": false,
      "metar": "METAR LIRN 020050Z VRB03KT CAVOK 09/06 Q1015 NOSIG",
      "taf": "TAF LIRN 012300Z 0200/0224 VRB05KT 9999 SCT040"
    },
    {
      "icao": "LIRP",
      "alert": "OK",
      "vis_m": 9999,
      "fzfg": false,
      "metar_trigger": false,
      "taf_trigger": false,
      "metar": "METAR LIRP 020115Z 08005KT 9999 SCT020 BKN030 06/05 Q1011 NOSIG",
      "taf": "TAF LIRP 012300Z 0200/0224 10006KT 9999 FEW040 BKN060"
    },
    {
      "icao": "LIRZ",
      "alert": "OK",
      "vis_m": 9999,
      "fzfg": false,
      "metar_trigger": false,
      "taf_trigger": false,
      "metar": "METAR LIRZ 020120Z AUTO 14003KT 9999 FEW016/// SCT030/// 04/03 Q1012",
      "taf": "TAF LIRZ 012300Z 0200/0224 19012KT 9999 BKN040"
    },
    {
      "icao": "LJLJ",
      "alert": "OK",
      "vis_m": 9999,
      "fzfg": false,
      "metar_trigger": false,
      "taf_trigger": false,
      "metar": "METAR LJLJ 020130Z 23006KT 9999 SCT022 OVC033 01/M00 Q1007 NOSIG",
      "taf": "TAF LJLJ 012300Z 0200/0300 30004KT 9999 OVC030"
    },
    {
      "icao": "LKMT",
      "alert": "OK",
      "vis_m": 9999,
      "fzfg": false,
      "metar_trigger": false,
      "taf_trigger": false,
      "metar": "METAR LKMT 020130Z 22022KT 9999 SCT042 01/M05 Q0998 NOSIG",
      "taf": "TAF LKMT 012300Z 0200/0224 21018KT 9999 SCT040"
    },
    {
      "icao": "LKPR",
      "alert": "OK",
      "vis_m": 9999,
      "fzfg": false,
      "metar_trigger": false,
      "taf_trigger": false,
      "metar": "METAR LKPR 020130Z 21021KT 9999 -SN FEW014 SCT020 00/M03 Q0996 NOSIG",
      "taf": "TAF LKPR 012300Z 0200/0306 22018KT 9999 BKN020"
    },
    {
      "icao": "LLBG",
      "alert": "OK",
      "vis_m": 9999,
      "fzfg": false,
      "metar_trigger": false,
      "taf_trigger": false,
      "metar": "METAR LLBG 020120Z VRB03KT 9999 BKN035 14/11 Q1017 TEMPO 6000 RA",
      "taf": "TAF LLBG 012313Z 0200/0224 17006KT 9999 BKN030"
    },
    {
      "icao": "LMML",
      "alert": "OK",
      "vis_m": 9999,
      "fzfg": false,
      "metar_trigger": false,
      "taf_trigger": false,
      "metar": "METAR LMML 020115Z 16009KT 9999 FEW015 14/11 Q1021 NOSIG",
      "taf": "TAF LMML 012300Z 0200/0224 14010KT 9999 SCT025"
    },
    {
      "icao": "LOWW",
      "alert": "OK",
      "vis_m": 9999,
      "fzfg": false,
      "metar_trigger": false,
      "taf_trigger": false,
      "metar": "METAR LOWW 020120Z 30013KT CAVOK 03/M07 Q1003 NOSIG",
      "taf": "TAF LOWW 012315Z 0200/0306 27012KT CAVOK TX05/0212Z TN00/0200Z"
    },
    {
      "icao": "LPFR",
      "alert": "OK",
      "vis_m": 9999,
      "fzfg": false,
      "metar_trigger": false,
      "taf_trigger": false,
      "metar": "METAR LPFR 020130Z 13017KT 9999 FEW010 17/14 Q1007",
      "taf": "TAF LPFR 012300Z 0200/0224 13017KT 9999 FEW010 SCT020"
    },
    {
      "icao": "LPMA",
      "alert": "OK",
      "vis_m": 9999,
      "fzfg": false,
      "metar_trigger": false,
      "taf_trigger": false,
      "metar": "METAR LPMA 020130Z 24008KT 210V270 9999 SCT014 FEW018TCU 17/13 Q1000",
      "taf": "TAF LPMA 012300Z 0200/0224 22015KT 9999 SCT013 SCT030"
    },
    {
      "icao": "LPPR",
      "alert": "OK",
      "vis_m": 9999,
      "fzfg": false,
      "metar_trigger": false,
      "taf_trigger": false,
      "metar": "METAR LPPR 020130Z 11016KT CAVOK 12/07 Q1004",
      "taf": "TAF LPPR 012300Z 0200/0224 11013KT 9999 SCT040"
    },
    {
      "icao": "LPPS",
      "alert": "OK",
      "vis_m": 9999,
      "fzfg": false,
      "metar_trigger": false,
      "taf_trigger": false,
      "metar": "METAR LPPS 020130Z 25011KT 210V270 9999 FEW014 17/12 Q1000",
      "taf": "TAF LPPS 012300Z 0200/0306 27015KT 9999 SCT013 SCT030"
    },
    {
      "icao": "LPPT",
      "alert": "OK",
      "vis_m": 9999,
      "fzfg": false,
      "metar_trigger": false,
      "taf_trigger": false,
      "metar": "METAR LPPT 020130Z 14013KT 9999 SCT012 14/13 Q1004",
      "taf": "TAF LPPT 012300Z 0200/0306 14013KT 9999 SCT012 BKN025"
    },
    {
      "icao": "LQBK",
      "alert": "OK",
      "vis_m": 9999,
      "fzfg": false,
      "metar_trigger": false,
      "taf_trigger": false,
      "metar": "METAR LQBK 020130Z 21014KT CAVOK 09/01 Q1008 NOSIG",
      "taf": "TAF LQBK 012300Z 0200/0224 15005KT CAVOK TX12/0213Z TNM01/0200Z"
    },
    {
      "icao": "LQSA",
      "alert": "OK",
      "vis_m": 9999,
      "fzfg": false,
      "metar_trigger": false,
      "taf_trigger": false,
      "metar": "METAR LQSA 020130Z VRB03KT 9999 BKN060 02/M03 Q1012",
      "taf": "TAF LQSA 012300Z 0200/0224 VRB02KT CAVOK TX08/0213Z TNM01/0200Z"
    },
    {
      "icao": "LQTZ",
      "alert": "OK",
      "vis_m": 9999,
      "fzfg": false,
      "metar_trigger": false,
      "taf_trigger": false,
      "metar": "METAR LQTZ 020130Z VRB03KT 9999 FEW060 00/M04 Q1009",
      "taf": "TAF LQTZ 012300Z 0200/0224 14005KT CAVOK TX13/0213Z TN01/0200Z"
    },
    {
      "icao": "LRBC",
      "alert": "OK",
      "vis_m": 9999,
      "fzfg": false,
      "metar_trigger": false,
      "taf_trigger": false,
      "metar": "METAR LRBC 020130Z 18009KT CAVOK M02/M07 Q1008",
      "taf": "TAF LRBC 012300Z 0200/0209 18010KT CAVOK"
    },
    {
      "icao": "LRBS",
      "alert": "OK",
      "vis_m": 9999,
      "fzfg": false,
      "metar_trigger": false,
      "taf_trigger": false,
      "metar": "METAR LRBS 020130Z VRB02KT CAVOK M04/M09 Q1015 NOSIG",
      "taf": "TAF LRBS 012300Z 0200/0224 25006KT CAVOK"
    },
    {
      "icao": "LRBV",
      "alert": "OK",
      "vis_m": 6000,
      "fzfg": false,
      "metar_trigger": false,
      "taf_trigger": false,
      "metar": "METAR LRBV 020130Z AUTO VRB02KT 6000 NCD M11/M12 Q1010",
      "taf": "TAF LRBV 012000Z 0121/0206 VRB04KT 9999 SCT035 BKN050"
    },
    {
      "icao": "LRCL",
      "alert": "OK",
      "vis_m": 9999,
      "fzfg": false,
      "metar_trigger": false,
      "taf_trigger": false,
      "metar": "METAR LRCL 020130Z 07005KT 9999 OVC060 M00/M06 Q1008",
      "taf": "TAF LRCL 012300Z 0200/0209 VRB04KT 9999 BKN055"
    },
    {
      "icao": "LRCV",
      "alert": "OK",
      "vis_m": 9999,
      "fzfg": false,
      "metar_trigger": false,
      "taf_trigger": false,
      "metar": "METAR LRCV 020130Z 09005KT CAVOK M06/M08 Q1014",
      "taf": "TAF LRCV 012300Z 0200/0209 VRB04KT CAVOK"
    },
    {
      "icao": "LRIA",
      "alert": "OK",
      "vis_m": 9999,
      "fzfg": false,
      "metar_trigger": false,
      "taf_trigger": false,
      "metar": "METAR LRIA 020130Z 11008KT CAVOK M04/M07 Q1008",
      "taf": "TAF LRIA 012300Z 0200/0209 18010KT CAVOK"
    },
    {
      "icao": "LROP",
      "alert": "OK",
      "vis_m": 9999,
      "fzfg": false,
      "metar_trigger": false,
      "taf_trigger": false,
      "metar": "METAR LROP 020130Z 22006KT CAVOK M05/M10 Q1015 NOSIG",
      "taf": "TAF LROP 012300Z 0200/0224 25006KT CAVOK"
    },
    {
      "icao": "LRSB",
      "alert": "OK",
      "vis_m": 9999,
      "fzfg": false,
      "metar_trigger": false,
      "taf_trigger": false,
      "metar": "METAR LRSB 020130Z COR 09003KT 9999 SCT065 M03/M07 Q1008",
      "taf": "TAF LRSB 012300Z 0200/0224 VRB04KT 9999 BKN045"
    },
    {
      "icao": "LRSM",
      "alert": "OK",
      "vis_m": 9999,
      "fzfg": false,
      "metar_trigger": false,
      "taf_trigger": false,
      "metar": "METAR LRSM 020130Z AUTO 20011KT 9999 OVC050/// 01/M04 Q1006",
      "taf": ""
    },
    {
      "icao": "LRSV",
      "alert": "OK",
      "vis_m": 9999,
      "fzfg": false,
      "metar_trigger": false,
      "taf_trigger": false,
      "metar": "METAR LRSV 020130Z 22007KT CAVOK 01/M05 Q1003",
      "taf": "TAF LRSV 012300Z 0200/0209 22012KT CAVOK"
    },
    {
      "icao": "LRTM",
      "alert": "OK",
      "vis_m": 9999,
      "fzfg": false,
      "metar_trigger": false,
      "taf_trigger": false,
      "metar": "METAR LRTM 020130Z AUTO 07006KT 030V110 9999 BKN065/// M02/M06 Q1009",
      "taf": "TAF LRTM 011400Z 0115/0124 21006KT 9999 BKN035"
    },
    {
      "icao": "LRTR",
      "alert": "OK",
      "vis_m": 9999,
      "fzfg": false,
      "metar_trigger": false,
      "taf_trigger": false,
      "metar": "METAR LRTR 020130Z 18012KT CAVOK 03/M08 Q1009 NOSIG",
      "taf": "TAF LRTR 012300Z 0200/0224 18014KT 9999 BKN045"
    },
    {
      "icao": "LTAC",
      "alert": "OK",
      "vis_m": 9999,
      "fzfg": false,
      "metar_trigger": false,
      "taf_trigger": false,
      "metar": "METAR LTAC 020120Z 03004KT CAVOK M14/M16 Q1021 NOSIG RMK RWY21C 01004KT RWY03L 04004KT RWY21R 01004KT RWY03R VRB01KT RWY21L 36003KT",
      "taf": "TAF LTAC 012240Z 0200/0224 VRB02KT CAVOK"
    },
    {
      "icao": "LTFM",
      "alert": "OK",
      "vis_m": 9999,
      "fzfg": false,
      "metar_trigger": false,
      "taf_trigger": false,
      "metar": "METAR LTFM 020120Z 19009KT CAVOK M02/M06 Q1022 NOSIG RMK RWY17L 21012KT RWY34L 20011KT RWY16R 20012KT RWY36 18009KT RWY18 20012KT",
      "taf": "TAF LTFM 012240Z 0200/0306 20008KT CAVOK"
    },
    {
      "icao": "LUKK",
      "alert": "OK",
      "vis_m": 9999,
      "fzfg": false,
      "metar_trigger": false,
      "taf_trigger": false,
      "metar": "METAR LUKK 020130Z 21008KT CAVOK M04/M08 Q1009 NOSIG",
      "taf": "TAF LUKK 012315Z 0200/0224 21010KT CAVOK"
    },
    {
      "icao": "LWOH",
      "alert": "OK",
      "vis_m": null,
      "fzfg": false,
      "metar_trigger": false,
      "taf_trigger": false,
      "metar": "",
      "taf": "TAF LWOH 012310Z 0200/0224 VRB03KT CAVOK"
    },
    {
      "icao": "LWSK",
      "alert": "OK",
      "vis_m": 9999,
      "fzfg": false,
      "metar_trigger": false,
      "taf_trigger": false,
      "metar": "METAR LWSK 020120Z 02003KT CAVOK M10/M13 Q1020 NOSIG",
      "taf": "TAF LWSK 012310Z 0200/0224 VRB02KT CAVOK"
    },
    {
      "icao": "LYBE",
      "alert": "OK",
      "vis_m": 9999,
      "fzfg": false,
      "metar_trigger": false,
      "taf_trigger": false,
      "metar": "METAR LYBE 020130Z 18011KT CAVOK 05/M05 Q1010 NOSIG",
      "taf": "TAF LYBE 012300Z 0200/0224 17010KT CAVOK TX11/0212Z TN03/0200Z"
    },
    {
      "icao": "LYNI",
      "alert": "OK",
      "vis_m": 9999,
      "fzfg": false,
      "metar_trigger": false,
      "taf_trigger": false,
      "metar": "METAR LYNI 020130Z VRB01KT CAVOK M06/M10 Q1017 NOSIG",
      "taf": "TAF LYNI 012300Z 0200/0224 18007KT CAVOK TX09/0212Z TNM05/0200Z"
    },
    {
      "icao": "LYPG",
      "alert": "OK",
      "vis_m": 9999,
      "fzfg": false,
      "metar_trigger": false,
      "taf_trigger": false,
      "metar": "METAR LYPG 020130Z 27003KT 9999 BKN050 M02/M06 Q1021 NOSIG",
      "taf": "TAF LYPG 012300Z 0200/0224 36006KT 9999 FEW030 BKN040 TX06/0218Z TNM02/0200Z"
    },
    {
      "icao": "LZIB",
      "alert": "OK",
      "vis_m": 9999,
      "fzfg": false,
      "metar_trigger": false,
      "taf_trigger": false,
      "metar": "METAR LZIB 020130Z 23006KT 190V260 CAVOK 02/M06 Q1003 NOSIG",
      "taf": "TAF LZIB 012315Z 0200/0300 27015KT CAVOK"
    },
    {
      "icao": "LZKZ",
      "alert": "OK",
      "vis_m": 9999,
      "fzfg": false,
      "metar_trigger": false,
      "taf_trigger": false,
      "metar": "METAR LZKZ 020130Z 21014KT 9999 FEW014 SCT030 M02/M04 Q1002 NOSIG",
      "taf": "TAF LZKZ 012315Z 0200/0300 22009KT 9999 FEW013 SCT030"
    },
    {
      "icao": "LZTT",
      "alert": "OK",
      "vis_m": 9999,
      "fzfg": false,
      "metar_trigger": false,
      "taf_trigger": false,
      "metar": "METAR LZTT 020130Z 26018KT 9999 FEW060 M01/M07 Q0997",
      "taf": "TAF LZTT 012315Z 0200/0300 26015KT 9999 SCT050"
    },
    {
      "icao": "OEJN",
      "alert": "OK",
      "vis_m": 9999,
      "fzfg": false,
      "metar_trigger": false,
      "taf_trigger": false,
      "metar": "METAR OEJN 020100Z VRB02KT CAVOK 21/11 Q1014 NOSIG",
      "taf": "TAF OEJN 012300Z 0200/0306 02006KT CAVOK"
    },
    {
      "icao": "OEMA",
      "alert": "OK",
      "vis_m": 9999,
      "fzfg": false,
      "metar_trigger": false,
      "taf_trigger": false,
      "metar": "METAR OEMA 020100Z 01004KT CAVOK 12/M03 Q1020 NOSIG",
      "taf": "TAF OEMA 012300Z 0200/0306 VRB03KT CAVOK"
    },
    {
      "icao": "OJAI",
      "alert": "OK",
      "vis_m": null,
      "fzfg": false,
      "metar_trigger": false,
      "taf_trigger": false,
      "metar": "",
      "taf": ""
    },
    {
      "icao": "OMAA",
      "alert": "OK",
      "vis_m": 9999,
      "fzfg": false,
      "metar_trigger": false,
      "taf_trigger": false,
      "metar": "METAR OMAA 020100Z 16003KT CAVOK 16/13 Q1017 NOSIG",
      "taf": "TAF OMAA 012300Z 0200/0306 VRB02KT 8000 FEW035"
    },
    {
      "icao": "OMDB",
      "alert": "OK",
      "vis_m": 9999,
      "fzfg": false,
      "metar_trigger": false,
      "taf_trigger": false,
      "metar": "METAR OMDB 020130Z 14002KT CAVOK 16/10 Q1018 NOSIG",
      "taf": "TAF OMDB 012300Z 0200/0306 16005KT 8000 NSC"
    },
    {
      "icao": "UAAA",
      "alert": "OK",
      "vis_m": 4100,
      "fzfg": false,
      "metar_trigger": false,
      "taf_trigger": false,
      "metar": "METAR UAAA 020130Z 21002MPS 4100 BR BKN009 OVC016 M00/M01 Q1020 NOSIG",
      "taf": "TAF UAAA 012300Z 0200/0224 32003MPS 1200 BR BKN004 OVC011 TX02/0209Z TNM03/0202Z"
    },
    {
      "icao": "UBBB",
      "alert": "OK",
      "vis_m": 9999,
      "fzfg": false,
      "metar_trigger": false,
      "taf_trigger": false,
      "metar": "METAR UBBB 020130Z 33024G34KT 9999 SCT015 OVC040 05/01 Q1015 NOSIG",
      "taf": "TAF UBBB 012314Z 0200/0224 32022G32KT 9999 BKN025 TX04/0210Z TN02/0203Z"
    },
    {
      "icao": "UDSG",
      "alert": "OK",
      "vis_m": 9999,
      "fzfg": false,
      "metar_trigger": false,
      "taf_trigger": false,
      "metar": "METAR UDSG 020130Z 31012KT 9999 OVC033 M06/M12 Q1012 NOSIG",
      "taf": "TAF UDSG 012300Z 0200/0224 36006KT 1500 BR OVC020"
    },
    {
      "icao": "UDYZ",
      "alert": "OK",
      "vis_m": 9999,
      "fzfg": false,
      "metar_trigger": false,
      "taf_trigger": false,
      "metar": "METAR UDYZ 020130Z 22008KT 9999 BKN043CB M00/M04 Q1010 NOSIG",
      "taf": "TAF UDYZ 012300Z 0200/0224 32006KT 2000 BR BKN030"
    },
    {
      "icao": "UGKO",
      "alert": "OK",
      "vis_m": 9999,
      "fzfg": false,
      "metar_trigger": false,
      "taf_trigger": false,
      "metar": "METAR UGKO 020130Z 24014KT 9999 BKN053 03/M04 Q1020 NOSIG",
      "taf": "TAF UGKO 012300Z 0200/0224 24010KT 9999 BKN050 TX03/0200Z TNM03/0204Z"
    }
  ]
}