{
  "ts_utc": "2026-01-03T05:30:24Z",
  "threshold_m": 150,
  "source": "stations_override.txt (ICAO list) + aviationweather.gov (METAR/TAF raw)",
  "station_count": 159,
  "stations": [
    {
      "icao": "BIKF",
      "alert": "OK",
      "vis_m": 9999,
      "fzfg": false,
      "metar_trigger": false,
      "taf_trigger": false,
      "metar": "METAR BIKF 030500Z 28002KT CAVOK M04/M06 Q1028",
      "taf": "TAF BIKF 030447Z 0306/0406 07006KT CAVOK TXM02/0403Z TNM08/0312Z"
    },
    {
      "icao": "BKPR",
      "alert": "OK",
      "vis_m": null,
      "fzfg": false,
      "metar_trigger": false,
      "taf_trigger": false,
      "metar": "",
      "taf": "TAF BKPR 030530Z 0306/0406 17008KT 9999 BKN030"
    },
    {
      "icao": "EBCI",
      "alert": "OK",
      "vis_m": 9999,
      "fzfg": false,
      "metar_trigger": false,
      "taf_trigger": false,
      "metar": "METAR EBCI 030520Z 22009KT 9999 FEW023 BKN040 M01/M04 Q1004 NOSIG",
      "taf": "TAF EBCI 030515Z 0306/0412 26010KT 9999 FEW015 SCT035"
    },
    {
      "icao": "EDDB",
      "alert": "OK",
      "vis_m": 9999,
      "fzfg": false,
      "metar_trigger": false,
      "taf_trigger": false,
      "metar": "METAR EDDB 030520Z AUTO 25014KT 9999 BKN017 M01/M03 Q0996 TEMPO BKN014",
      "taf": "TAF EDDB 030500Z 0306/0406 27012G22KT 9999 BKN015"
    },
    {
      "icao": "EDDH",
      "alert": "OK",
      "vis_m": 2400,
      "fzfg": false,
      "metar_trigger": false,
      "taf_trigger": false,
      "metar": "METAR EDDH 030520Z AUTO 25011KT 2400 SHSN BR SCT005 BKN018 FEW///TCU 00/M00 Q0994 TEMPO 1200 BKN007CB",
      "taf": "TAF EDDH 030500Z 0306/0412 24008KT 4500 -SN BKN012"
    },
    {
      "icao": "EDDK",
      "alert": "OK",
      "vis_m": 9999,
      "fzfg": false,
      "metar_trigger": false,
      "taf_trigger": false,
      "metar": "METAR EDDK 030520Z AUTO 23007KT 9999 OVC038 01/M03 Q1003 NOSIG",
      "taf": "TAF EDDK 030500Z 0306/0412 22006KT 9999 BKN030"
    },
    {
      "icao": "EDDN",
      "alert": "OK",
      "vis_m": 9999,
      "fzfg": false,
      "metar_trigger": false,
      "taf_trigger": false,
      "metar": "METAR EDDN 030520Z AUTO 21006KT 9999 BKN018 BKN024 BKN040 M02/M05 Q1004 NOSIG",
      "taf": "TAF EDDN 030500Z 0306/0406 25010KT 9999 BKN020"
    },
    {
      "icao": "EDDS",
      "alert": "OK",
      "vis_m": 9999,
      "fzfg": false,
      "metar_trigger": false,
      "taf_trigger": false,
      "metar": "METAR EDDS 030520Z AUTO 22004KT 160V250 9999 FEW027 M03/M06 Q1005",
      "taf": "TAF EDDS 030500Z 0306/0406 22005KT 9999 SCT025"
    },
    {
      "icao": "EDFH",
      "alert": "OK",
      "vis_m": 9999,
      "fzfg": false,
      "metar_trigger": false,
      "taf_trigger": false,
      "metar": "METAR EDFH 030520Z 26016KT 9999 FEW010 OVC021 M03/M05 Q1003",
      "taf": "TAF EDFH 030500Z 0306/0406 26012KT 9999 BKN015"
    },
    {
      "icao": "EDJA",
      "alert": "OK",
      "vis_m": 9999,
      "fzfg": false,
      "metar_trigger": false,
      "taf_trigger": false,
      "metar": "METAR EDJA 030520Z VRB05KT 9999 SCT027 M07/M09 Q1005",
      "taf": "TAF EDJA 030500Z 0306/0315 23010KT 9999 FEW025"
    },
    {
      "icao": "EDLW",
      "alert": "OK",
      "vis_m": 9999,
      "fzfg": false,
      "metar_trigger": false,
      "taf_trigger": false,
      "metar": "METAR EDLW 030520Z 23017KT 9999 SCT013 BKN015 01/M02 Q1000",
      "taf": "TAF EDLW 030500Z 0306/0406 24014KT 9999 SCT006 BKN015"
    },
    {
      "icao": "EDNY",
      "alert": "OK",
      "vis_m": 9999,
      "fzfg": false,
      "metar_trigger": false,
      "taf_trigger": false,
      "metar": "METAR EDNY 030520Z VRB02KT 9999 SCT030 BKN042 BKN048 M06/M07 Q1007",
      "taf": "TAF EDNY 030500Z 0306/0315 02003KT 9999 FEW025"
    },
    {
      "icao": "EDSB",
      "alert": "OK",
      "vis_m": 9999,
      "fzfg": false,
      "metar_trigger": false,
      "taf_trigger": false,
      "metar": "METAR EDSB 030520Z 22008KT 9999 OVC031 M01/M04 Q1008",
      "taf": "TAF EDSB 030500Z 0306/0406 20007KT 9999 SCT025"
    },
    {
      "icao": "EETN",
      "alert": "OK",
      "vis_m": 9999,
      "fzfg": false,
      "metar_trigger": false,
      "taf_trigger": false,
      "metar": "METAR EETN 030520Z 09010KT 9999 -SN FEW009 SCT024 OVC042 M06/M07 Q0986 TEMPO 3000 SN BKN005",
      "taf": "TAF EETN 022330Z 0300/0324 11010KT 9000 OVC010"
    },
    {
      "icao": "EFTU",
      "alert": "OK",
      "vis_m": 9999,
      "fzfg": false,
      "metar_trigger": false,
      "taf_trigger": false,
      "metar": "METAR EFTU 030520Z AUTO 08013KT 9999 -SHSN OVC009 M08/M10 Q0987",
      "taf": "TAF EFTU 030230Z 0303/0403 08012KT 9999 -SN OVC010"
    },
    {
      "icao": "EGBB",
      "alert": "OK",
      "vis_m": 9999,
      "fzfg": false,
      "metar_trigger": false,
      "taf_trigger": false,
      "metar": "METAR EGBB 030520Z 30009KT CAVOK M01/M05 Q1008",
      "taf": "TAF EGBB 030453Z 0306/0406 30008KT CAVOK"
    },
    {
      "icao": "EGGP",
      "alert": "OK",
      "vis_m": 9999,
      "fzfg": false,
      "metar_trigger": false,
      "taf_trigger": false,
      "metar": "METAR EGGP 030520Z 36005KT 310V030 9999 FEW040 M01/M06 Q1010",
      "taf": "TAF EGGP 030455Z 0306/0406 32009KT 9999 SCT030"
    },
    {
      "icao": "EGGW",
      "alert": "OK",
      "vis_m": 9999,
      "fzfg": false,
      "metar_trigger": false,
      "taf_trigger": false,
      "metar": "METAR EGGW 030520Z AUTO 30012KT 9999 NCD M02/M03 Q1006",
      "taf": "TAF EGGW 030454Z 0306/0406 30009KT 9999 FEW025"
    },
    {
      "icao": "EGKK",
      "alert": "OK",
      "vis_m": 9999,
      "fzfg": false,
      "metar_trigger": false,
      "taf_trigger": false,
      "metar": "METAR EGKK 030520Z 29010KT CAVOK 01/M02 Q1008",
      "taf": "TAF EGKK 030459Z 0306/0412 30010KT 9999 FEW030"
    },
    {
      "icao": "EGNM",
      "alert": "OK",
      "vis_m": 9999,
      "fzfg": false,
      "metar_trigger": false,
      "taf_trigger": false,
      "metar": "METAR EGNM 030520Z 29018KT CAVOK M02/M07 Q1006",
      "taf": "TAF EGNM 022309Z 0300/0324 30009KT 9999 FEW030"
    },
    {
      "icao": "EGPD",
      "alert": "OK",
      "vis_m": 4800,
      "fzfg": false,
      "metar_trigger": false,
      "taf_trigger": false,
      "metar": "METAR EGPD 030520Z AUTO 34015KT 4800 -RASN BKN014/// //////TCU 00/M03 Q1006 TEMPO 1200 SHSN",
      "taf": ""
    },
    {
      "icao": "EGPF",
      "alert": "OK",
      "vis_m": 9999,
      "fzfg": false,
      "metar_trigger": false,
      "taf_trigger": false,
      "metar": "METAR EGPF 030520Z AUTO 30016KT 9999 NCD 00/M03 Q1010",
      "taf": "TAF EGPF 030456Z 0306/0406 30009KT 9999 FEW030"
    },
    {
      "icao": "EHBK",
      "alert": "OK",
      "vis_m": 9999,
      "fzfg": false,
      "metar_trigger": false,
      "taf_trigger": false,
      "metar": "METAR EHBK 030525Z AUTO 22014KT 9999 SCT033/// OVC044/// M00/M02 Q1003 NOSIG",
      "taf": "TAF EHBK 030509Z 0306/0412 22010KT 9999 SCT022"
    },
    {
      "icao": "EHEH",
      "alert": "OK",
      "vis_m": 3700,
      "fzfg": false,
      "metar_trigger": false,
      "taf_trigger": false,
      "metar": "SPECI EHEH 030515Z AUTO 24011KT 210V270 3700 -SN FEW013/// FEW015CB SCT016/// OVC020 00/M02 Q1002 GRN",
      "taf": "TAF EHEH 022324Z 0300/0406 25010KT 9999 SCT035 BKN040"
    },
    {
      "icao": "EKBI",
      "alert": "OK",
      "vis_m": 9999,
      "fzfg": false,
      "metar_trigger": false,
      "taf_trigger": false,
      "metar": "METAR EKBI 030520Z AUTO 00000KT 9999 NCD M09/M10 Q0993",
      "taf": "TAF EKBI 030528Z 0306/0406 VRB03KT 9999 FEW020"
    },
    {
      "icao": "EKCH",
      "alert": "OK",
      "vis_m": 9999,
      "fzfg": false,
      "metar_trigger": false,
      "taf_trigger": false,
      "metar": "METAR EKCH 030520Z 29009KT 9999 BKN037 M01/M05 Q0989 TEMPO 3000 BKN012",
      "taf": "TAF EKCH 030528Z 0306/0406 30010KT 9999 BKN020"
    },
    {
      "icao": "ENAL",
      "alert": "OK",
      "vis_m": 9999,
      "fzfg": false,
      "metar_trigger": false,
      "taf_trigger": false,
      "metar": "METAR ENAL 030520Z AUTO 05013KT 9999 NCD M04/M10 Q1001",
      "taf": "TAF ENAL 030200Z 0303/0312 06015KT 9999 SCT030"
    },
    {
      "icao": "ENBR",
      "alert": "OK",
      "vis_m": 9999,
      "fzfg": false,
      "metar_trigger": false,
      "taf_trigger": false,
      "metar": "METAR ENBR 030520Z 03007KT 360V060 CAVOK M06/M15 Q0997 RMK WIND 1200FT 04015KT",
      "taf": "TAF ENBR 022300Z 0300/0324 VRB03KT CAVOK"
    },
    {
      "icao": "ENGM",
      "alert": "OK",
      "vis_m": 9999,
      "fzfg": false,
      "metar_trigger": false,
      "taf_trigger": false,
      "metar": "METAR ENGM 030520Z 36016KT 9999 -SN FEW029 M08/M12 Q0993 TEMPO 4000",
      "taf": "TAF ENGM 022300Z 0300/0324 36012KT 9999 -SN FEW030 BKN045"
    },
    {
      "icao": "ENHD",
      "alert": "OK",
      "vis_m": 9999,
      "fzfg": false,
      "metar_trigger": false,
      "taf_trigger": false,
      "metar": "METAR ENHD 030520Z AUTO 05010KT 9999 NCD M05/M11 Q0995",
      "taf": "TAF ENHD 030200Z 0303/0312 10008KT CAVOK"
    },
    {
      "icao": "ENTC",
      "alert": "OK",
      "vis_m": 9999,
      "fzfg": false,
      "metar_trigger": false,
      "taf_trigger": false,
      "metar": "METAR ENTC 030520Z VRB02KT 9999 VCSH FEW006 BKN020 M05/M08 Q1000 RMK WIND 2600FT 31015KT",
      "taf": "TAF ENTC 022300Z 0300/0324 33008KT 9999 -SHSN FEW020 BKN025"
    },
    {
      "icao": "ENTO",
      "alert": "OK",
      "vis_m": 3500,
      "fzfg": false,
      "metar_trigger": false,
      "taf_trigger": false,
      "metar": "METAR ENTO 030520Z AUTO 36014KT 3500 -SN VV019 M07/M09 Q0993",
      "taf": ""
    },
    {
      "icao": "ENVA",
      "alert": "OK",
      "vis_m": 9999,
      "fzfg": false,
      "metar_trigger": false,
      "taf_trigger": false,
      "metar": "METAR ENVA 030520Z 11006KT CAVOK M12/M13 Q1003 RMK WIND 670FT 12005KT",
      "taf": "TAF ENVA 022300Z 0300/0324 12008KT CAVOK"
    },
    {
      "icao": "ENZV",
      "alert": "OK",
      "vis_m": 9999,
      "fzfg": false,
      "metar_trigger": false,
      "taf_trigger": false,
      "metar": "METAR ENZV 030520Z VRB02KT CAVOK M06/M12 Q0994",
      "taf": "TAF ENZV 022300Z 0300/0324 VRB05KT CAVOK"
    },
    {
      "icao": "EPGD",
      "alert": "OK",
      "vis_m": 9999,
      "fzfg": false,
      "metar_trigger": false,
      "taf_trigger": false,
      "metar": "METAR EPGD 030500Z 23014KT 9999 -SN VV015 M01/M03 Q0984",
      "taf": "TAF EPGD 030530Z 0306/0406 24015KT 6000 -SN BKN015"
    },
    {
      "icao": "EPKK",
      "alert": "OK",
      "vis_m": 9999,
      "fzfg": false,
      "metar_trigger": false,
      "taf_trigger": false,
      "metar": "METAR EPKK 030500Z 24015KT 9999 BKN054 00/M06 Q0997",
      "taf": "TAF EPKK 030530Z 0306/0406 23015KT 9999 BKN030"
    },
    {
      "icao": "EPKT",
      "alert": "OK",
      "vis_m": 9999,
      "fzfg": false,
      "metar_trigger": false,
      "taf_trigger": false,
      "metar": "METAR EPKT 030500Z 23016KT 9999 -SN FEW025 BKN048 M01/M06 Q0995",
      "taf": "TAF EPKT 030530Z 0306/0406 24015KT 9999 SCT040"
    },
    {
      "icao": "EPLB",
      "alert": "OK",
      "vis_m": 9999,
      "fzfg": false,
      "metar_trigger": false,
      "taf_trigger": false,
      "metar": "METAR EPLB 030500Z 21010KT 9999 FEW048 M03/M06 Q0994",
      "taf": "TAF EPLB 030530Z 0306/0406 22010KT 9999 BKN030"
    },
    {
      "icao": "EPMO",
      "alert": "OK",
      "vis_m": 9999,
      "fzfg": false,
      "metar_trigger": false,
      "taf_trigger": false,
      "metar": "METAR EPMO 030500Z 22015KT 9999 -SN BKN025 M00/M02 Q0991",
      "taf": "TAF EPMO 030530Z 0306/0406 23010KT 9999 BKN030"
    },
    {
      "icao": "EPPO",
      "alert": "OK",
      "vis_m": 9999,
      "fzfg": false,
      "metar_trigger": false,
      "taf_trigger": false,
      "metar": "METAR EPPO 030500Z 27014KT 9999 FEW017 M01/M04 Q0993",
      "taf": "TAF EPPO 030530Z 0306/0406 26014KT 9999 FEW017"
    },
    {
      "icao": "EPRA",
      "alert": "OK",
      "vis_m": 9999,
      "fzfg": false,
      "metar_trigger": false,
      "taf_trigger": false,
      "metar": "METAR EPRA 030500Z 24014KT 9999 SCT047 M01/M06 Q0993",
      "taf": "TAF EPRA 030530Z 0306/0315 25012KT 9999 BKN035"
    },
    {
      "icao": "EPRZ",
      "alert": "OK",
      "vis_m": 9999,
      "fzfg": false,
      "metar_trigger": false,
      "taf_trigger": false,
      "metar": "METAR EPRZ 030500Z 20010KT 9999 BKN043 M01/M07 Q0997",
      "taf": "TAF EPRZ 030530Z 0306/0406 20010KT 9999 SCT040"
    },
    {
      "icao": "EPSC",
      "alert": "OK",
      "vis_m": 9999,
      "fzfg": false,
      "metar_trigger": false,
      "taf_trigger": false,
      "metar": "METAR EPSC 030500Z 25013KT 9999 FEW022 BKN041 M02/M05 Q0991",
      "taf": "TAF EPSC 030530Z 0306/0406 26012KT 9999 SCT035"
    },
    {
      "icao": "EPSY",
      "alert": "OK",
      "vis_m": 9999,
      "fzfg": false,
      "metar_trigger": false,
      "taf_trigger": false,
      "metar": "METAR EPSY 030500Z 21011KT 9999 BKN010 OVC015 M00/M02 Q0988",
      "taf": "TAF EPSY 030230Z 0303/0312 21010KT 9999 BKN014"
    },
    {
      "icao": "EPWA",
      "alert": "OK",
      "vis_m": 9999,
      "fzfg": false,
      "metar_trigger": false,
      "taf_trigger": false,
      "metar": "METAR EPWA 030500Z 22008KT 9999 -SHSN SCT033CB 00/M04 Q0991 TEMPO 2000 SHSN BKN012CB",
      "taf": "TAF EPWA 030530Z 0306/0406 23010KT 9999 BKN030"
    },
    {
      "icao": "EPWR",
      "alert": "OK",
      "vis_m": 9999,
      "fzfg": false,
      "metar_trigger": false,
      "taf_trigger": false,
      "metar": "METAR EPWR 030500Z 27015KT 9999 FEW027 BKN043 00/M05 Q0996",
      "taf": "TAF EPWR 030530Z 0306/0406 27015KT 9999 FEW030"
    },
    {
      "icao": "ESGG",
      "alert": "OK",
      "vis_m": 2000,
      "fzfg": false,
      "metar_trigger": false,
      "taf_trigger": false,
      "metar": "METAR ESGG 030520Z 34010KT 2000 -SN BKN015 M07/M09 Q0987",
      "taf": "TAF ESGG 030530Z 0306/0406 34009KT 9000 -SN OVC009"
    },
    {
      "icao": "ESKN",
      "alert": "OK",
      "vis_m": 9999,
      "fzfg": false,
      "metar_trigger": false,
      "taf_trigger": false,
      "metar": "METAR ESKN 030520Z 36012KT 9999 -SN OVC009 M03/M04 Q0982",
      "taf": "TAF ESKN 030530Z 0306/0406 01012G22KT 9999 -SN OVC009"
    },
    {
      "icao": "ESMS",
      "alert": "OK",
      "vis_m": 2500,
      "fzfg": false,
      "metar_trigger": false,
      "taf_trigger": false,
      "metar": "METAR ESMS 030520Z 32014KT 2500 -SN SCT019 BKN028 M03/M05 Q0987",
      "taf": "TAF ESMS 030227Z 0303/0403 32015KT 9999 BKN020"
    },
    {
      "icao": "ESSA",
      "alert": "OK",
      "vis_m": 3700,
      "fzfg": false,
      "metar_trigger": false,
      "taf_trigger": false,
      "metar": "METAR ESSA 030520Z 02016KT 3700 -SN BKN008 M03/M04 Q0983 TEMPO 0700 SN VV015",
      "taf": "TAF ESSA 030230Z 0303/0403 02015KT 8000 -SN BKN007"
    },
    {
      "icao": "EYKA",
      "alert": "OK",
      "vis_m": 9999,
      "fzfg": false,
      "metar_trigger": false,
      "taf_trigger": false,
      "metar": "METAR EYKA 030520Z 19004KT 150V240 9999 FEW009 OVC021 M00/M01 Q0987",
      "taf": "TAF EYKA 030500Z 0306/0406 VRB04KT 8000 BKN010 OVC015"
    },
    {
      "icao": "EYPA",
      "alert": "OK",
      "vis_m": 9999,
      "fzfg": false,
      "metar_trigger": false,
      "taf_trigger": false,
      "metar": "METAR EYPA 030520Z 19006KT 170V240 9999 -SHSNRA FEW009 SCT030CB BKN042 01/00 Q0984",
      "taf": ""
    },
    {
      "icao": "EYVI",
      "alert": "OK",
      "vis_m": 9999,
      "fzfg": false,
      "metar_trigger": false,
      "taf_trigger": false,
      "metar": "METAR EYVI 030520Z 19007KT 9999 OVC004 M01/M02 Q0988 NOSIG",
      "taf": "TAF EYVI 030510Z 0306/0406 21010KT 9000 BKN005"
    },
    {
      "icao": "GCFV",
      "alert": "OK",
      "vis_m": 9999,
      "fzfg": false,
      "metar_trigger": false,
      "taf_trigger": false,
      "metar": "METAR GCFV 030500Z AUTO 26013KT CAVOK 18/13 Q1005",
      "taf": "TAF GCFV 030200Z 0303/0403 27008KT 9999 SCT025 TX22/0314Z TN17/0306Z"
    },
    {
      "icao": "GCLP",
      "alert": "OK",
      "vis_m": 9999,
      "fzfg": false,
      "metar_trigger": false,
      "taf_trigger": false,
      "metar": "METAR GCLP 030500Z 29007KT 260V320 9999 FEW030 SCT060 19/12 Q1006 NOSIG",
      "taf": "TAF GCLP 030200Z 0303/0403 24011KT 9999 SCT035 TX23/0314Z TN17/0306Z"
    },
    {
      "icao": "GCTS",
      "alert": "OK",
      "vis_m": 9999,
      "fzfg": false,
      "metar_trigger": false,
      "taf_trigger": false,
      "metar": "METAR GCTS 030500Z 29015G26KT 260V320 9999 FEW050 19/10 Q1006 NOSIG",
      "taf": "TAF GCTS 030200Z 0303/0403 28015KT 9999 FEW030 TX24/0314Z TN18/0306Z"
    },
    {
      "icao": "GMAD",
      "alert": "OK",
      "vis_m": 5000,
      "fzfg": false,
      "metar_trigger": false,
      "taf_trigger": false,
      "metar": "METAR GMAD 030500Z 18006KT 150V210 5000 -RA FEW006 SCT016TCU BKN100 14/14 Q1005 NOSIG",
      "taf": "TAF GMAD 030500Z 0306/0412 24008KT 6000 BKN20TCU BKN080"
    },
    {
      "icao": "GMMN",
      "alert": "OK",
      "vis_m": 9999,
      "fzfg": false,
      "metar_trigger": false,
      "taf_trigger": false,
      "metar": "METAR GMMN 030500Z 17016KT 9999 BKN030 12/11 Q1002 NOSIG",
      "taf": "TAF GMMN 030500Z 0306/0412 18020KT 9999 SCT030 SCT100"
    },
    {
      "icao": "GMMX",
      "alert": "OK",
      "vis_m": 5000,
      "fzfg": false,
      "metar_trigger": false,
      "taf_trigger": false,
      "metar": "METAR GMMX 030500Z VRB02KT 5000 RA SCT016 BKN023 11/11 Q1004 TEMPO 1500 SHRA",
      "taf": "TAF GMMX 030500Z 0306/0412 22004KT 6000 RA SCT016 BKN023"
    },
    {
      "icao": "HEGN",
      "alert": "OK",
      "vis_m": 9999,
      "fzfg": false,
      "metar_trigger": false,
      "taf_trigger": false,
      "metar": "METAR HEGN 030500Z 32015KT CAVOK 14/06 Q1023 NOSIG",
      "taf": "TAF HEGN 030500Z 0306/0412 34018KT CAVOK"
    },
    {
      "icao": "HEMA",
      "alert": "OK",
      "vis_m": 9999,
      "fzfg": false,
      "metar_trigger": false,
      "taf_trigger": false,
      "metar": "METAR HEMA 030500Z 31014KT CAVOK 18/10 Q1020 NOSIG",
      "taf": "TAF HEMA 030500Z 0306/0412 36018KT CAVOK"
    },
    {
      "icao": "HESH",
      "alert": "OK",
      "vis_m": 9999,
      "fzfg": false,
      "metar_trigger": false,
      "taf_trigger": false,
      "metar": "METAR HESH 030500Z 35012KT CAVOK 18/08 Q1021 NOSIG",
      "taf": "TAF HESH 030500Z 0306/0412 03012KT CAVOK"
    },
    {
      "icao": "HESX",
      "alert": "OK",
      "vis_m": 9999,
      "fzfg": false,
      "metar_trigger": false,
      "taf_trigger": false,
      "metar": "METAR HESX 030500Z 27002KT CAVOK 05/02 Q1026 NOSIG",
      "taf": "TAF HESX 030500Z 0306/0412 02008KT 9999 SCT020"
    },
    {
      "icao": "LATI",
      "alert": "OK",
      "vis_m": 9999,
      "fzfg": false,
      "metar_trigger": false,
      "taf_trigger": false,
      "metar": "METAR LATI 030520Z 14008KT 9999 BKN076 OVC120 13/08 Q1008 NOSIG",
      "taf": "TAF LATI 030500Z 0306/0406 14013KT 9999 SCT025 BKN070 TX14/0318Z TN12/0403Z"
    },
    {
      "icao": "LBPD",
      "alert": "OK",
      "vis_m": 9999,
      "fzfg": false,
      "metar_trigger": false,
      "taf_trigger": false,
      "metar": "METAR LBPD 030500Z AUTO 16003KT 110V240 9999 BKN120/// M05/M07 Q1008 NOSIG",
      "taf": "TAF LBPD 030500Z 0306/0406 VRB03KT 9999 SCT020 BKN080"
    },
    {
      "icao": "LBSF",
      "alert": "OK",
      "vis_m": 9999,
      "fzfg": false,
      "metar_trigger": false,
      "taf_trigger": false,
      "metar": "METAR LBSF 030500Z VRB12G23KT 9999 SCT060 05/M02 Q1004 NOSIG",
      "taf": "TAF LBSF 030500Z 0306/0406 08012KT 9999 SCT025 SCT050"
    },
    {
      "icao": "LBWN",
      "alert": "OK",
      "vis_m": 9999,
      "fzfg": false,
      "metar_trigger": false,
      "taf_trigger": false,
      "metar": "METAR LBWN 030500Z AUTO 32009KT 9999 NCD 07/03 Q1006 NOSIG",
      "taf": "TAF LBWN 030500Z 0306/0406 30010KT CAVOK"
    },
    {
      "icao": "LCLK",
      "alert": "OK",
      "vis_m": 9999,
      "fzfg": false,
      "metar_trigger": false,
      "taf_trigger": false,
      "metar": "METAR LCLK 030500Z 32004KT 9999 FEW035 BKN050 09/06 Q1026 NOSIG",
      "taf": "TAF LCLK 022330Z 0300/0400 33007KT 9999 FEW030"
    },
    {
      "icao": "LCPH",
      "alert": "OK",
      "vis_m": 9999,
      "fzfg": false,
      "metar_trigger": false,
      "taf_trigger": false,
      "metar": "METAR LCPH 030500Z AUTO 07006KT 010V080 9999 OVC055 11/03 Q1026 NOSIG",
      "taf": "TAF LCPH 022330Z 0300/0400 04009KT 9999 FEW030"
    },
    {
      "icao": "LEAL",
      "alert": "OK",
      "vis_m": 9999,
      "fzfg": false,
      "metar_trigger": false,
      "taf_trigger": false,
      "metar": "METAR LEAL 030500Z VRB02KT CAVOK 10/09 Q1005 NOSIG",
      "taf": "TAF LEAL 030500Z 0306/0406 VRB05KT CAVOK TX17/0314Z TN09/0306Z"
    },
    {
      "icao": "LEBB",
      "alert": "OK",
      "vis_m": 8000,
      "fzfg": false,
      "metar_trigger": false,
      "taf_trigger": false,
      "metar": "METAR LEBB 030500Z VRB02KT 8000 -RA BKN010 BKN022 08/07 Q1009 TEMPO 3000 RA",
      "taf": "TAF LEBB 030500Z 0306/0406 VRB03KT 9999 SCT010 BKN020 TX07/0314Z TN00/0406Z"
    },
    {
      "icao": "LEBL",
      "alert": "OK",
      "vis_m": 9999,
      "fzfg": false,
      "metar_trigger": false,
      "taf_trigger": false,
      "metar": "METAR LEBL 030500Z 34007KT CAVOK 08/05 Q1006 NOSIG",
      "taf": "TAF LEBL 030500Z 0306/0406 34009KT 9999 FEW015 TX15/0312Z TN05/0306Z"
    },
    {
      "icao": "LECH",
      "alert": "OK",
      "vis_m": 9000,
      "fzfg": false,
      "metar_trigger": false,
      "taf_trigger": false,
      "metar": "METAR LECH 030500Z AUTO 00000KT 9000 NSC 07/06 Q1006",
      "taf": ""
    },
    {
      "icao": "LEMD",
      "alert": "OK",
      "vis_m": 9999,
      "fzfg": false,
      "metar_trigger": false,
      "taf_trigger": false,
      "metar": "METAR LEMD 030500Z 33003KT CAVOK 05/05 Q1005 NOSIG",
      "taf": "TAF LEMD 030500Z 0306/0412 VRB03KT CAVOK TX13/0314Z TN05/0307Z"
    },
    {
      "icao": "LEMG",
      "alert": "OK",
      "vis_m": 9999,
      "fzfg": false,
      "metar_trigger": false,
      "taf_trigger": false,
      "metar": "METAR LEMG 030500Z 30005KT 9999 FEW060 11/10 Q1004 NOSIG",
      "taf": "TAF LEMG 030500Z 0306/0406 29005KT 9999 FEW015 TX18/0314Z TN10/0307Z"
    },
    {
      "icao": "LEVC",
      "alert": "OK",
      "vis_m": 9999,
      "fzfg": false,
      "metar_trigger": false,
      "taf_trigger": false,
      "metar": "METAR LEVC 030500Z 29004KT 260V320 CAVOK 09/08 Q1006 NOSIG",
      "taf": "TAF LEVC 030500Z 0306/0406 VRB05KT CAVOK TX16/0314Z TN09/0306Z"
    },
    {
      "icao": "LEXJ",
      "alert": "OK",
      "vis_m": 5000,
      "fzfg": false,
      "metar_trigger": false,
      "taf_trigger": false,
      "metar": "METAR LEXJ 030500Z 07007KT 030V110 5000 -RA OVC012 08/06 Q1008",
      "taf": "TAF LEXJ 030200Z 0303/0403 08009KT 8000 SCT010 BKN020 TX10/0313Z TN05/0403Z"
    },
    {
      "icao": "LEZG",
      "alert": "OK",
      "vis_m": 2500,
      "fzfg": false,
      "metar_trigger": false,
      "taf_trigger": false,
      "metar": "METAR LEZG 030500Z 00000KT 2500 BR -RA SCT002 BKN004 BKN070 04/04 Q1008 NOSIG",
      "taf": "TAF LEZG 030500Z 0306/0406 VRB04KT CAVOK TX11/0315Z TN05/0306Z"
    },
    {
      "icao": "LEZL",
      "alert": "OK",
      "vis_m": 9999,
      "fzfg": false,
      "metar_trigger": false,
      "taf_trigger": false,
      "metar": "METAR LEZL 030500Z 02003KT 350V050 9999 FEW040 12/12 Q1002 NOSIG",
      "taf": "TAF LEZL 030200Z 0303/0403 08008KT 9999 SCT030 TX19/0315Z TN12/0307Z"
    },
    {
      "icao": "LFBD",
      "alert": "OK",
      "vis_m": 650,
      "fzfg": true,
      "metar_trigger": false,
      "taf_trigger": false,
      "metar": "METAR LFBD 030500Z AUTO 08003KT 050V110 0650 0400 R23/0450N R05/0750N R29/0750N FZFG VV/// M03/M03 Q1011 TEMPO 0400 FZFG",
      "taf": "TAF LFBD 030500Z 0306/0412 VRB03KT 0500 FZFG VV/// TX03/0313Z TNM04/0406Z"
    },
    {
      "icao": "LFLL",
      "alert": "OK",
      "vis_m": 9000,
      "fzfg": false,
      "metar_trigger": false,
      "taf_trigger": false,
      "metar": "METAR LFLL 030500Z 30003KT 9000 BKN013 BKN043 00/M01 Q1009 TEMPO 4000 BR BKN006",
      "taf": "TAF LFLL 030500Z 0306/0412 35005KT CAVOK"
    },
    {
      "icao": "LFLS",
      "alert": "OK",
      "vis_m": 9999,
      "fzfg": false,
      "metar_trigger": false,
      "taf_trigger": false,
      "metar": "METAR LFLS 030500Z AUTO VRB01KT 9999 SCT012 BKN018 OVC026 M02/M03 Q1008 TEMPO 4000 -SN OVC006",
      "taf": "TAF LFLS 030200Z 0303/0403 VRB02KT CAVOK"
    },
    {
      "icao": "LFMN",
      "alert": "OK",
      "vis_m": 9999,
      "fzfg": false,
      "metar_trigger": false,
      "taf_trigger": false,
      "metar": "METAR LFMN 030500Z 33010KT CAVOK 03/M05 Q1000 TEMPO 25015KT",
      "taf": "TAF LFMN 030200Z 0303/0409 33012KT CAVOK"
    },
    {
      "icao": "LFOB",
      "alert": "OK",
      "vis_m": 9999,
      "fzfg": false,
      "metar_trigger": false,
      "taf_trigger": false,
      "metar": "METAR LFOB 030500Z AUTO 26007KT 9999 FEW042 SCT058 BKN098 M00/M02 Q1007",
      "taf": ""
    },
    {
      "icao": "LFPO",
      "alert": "OK",
      "vis_m": 9999,
      "fzfg": false,
      "metar_trigger": false,
      "taf_trigger": false,
      "metar": "METAR LFPO 030500Z AUTO 24006KT CAVOK M03/M04 Q1009",
      "taf": ""
    },
    {
      "icao": "LFSB",
      "alert": "OK",
      "vis_m": 9999,
      "fzfg": false,
      "metar_trigger": false,
      "taf_trigger": false,
      "metar": "METAR LFSB 030500Z AUTO 27009KT CAVOK M02/M05 Q1008 TEMPO BKN007",
      "taf": "TAF LFSB 030511Z 0306/0406 26010KT 9999 FEW010"
    },
    {
      "icao": "LGAV",
      "alert": "OK",
      "vis_m": 9999,
      "fzfg": false,
      "metar_trigger": false,
      "taf_trigger": false,
      "metar": "METAR LGAV 030520Z 21020KT 9999 FEW020 15/11 Q1015 NOSIG",
      "taf": "TAF LGAV 030500Z 0306/0406 21018G30KT 9999 FEW025"
    },
    {
      "icao": "LGTS",
      "alert": "OK",
      "vis_m": 8000,
      "fzfg": false,
      "metar_trigger": false,
      "taf_trigger": false,
      "metar": "METAR LGTS 030520Z VRB03KT 8000 FEW015 SCT025 03/03 Q1011 NOSIG",
      "taf": "TAF LGTS 030500Z 0306/0406 VRB03KT 9999 SCT025"
    },
    {
      "icao": "LHBP",
      "alert": "OK",
      "vis_m": 9999,
      "fzfg": false,
      "metar_trigger": false,
      "taf_trigger": false,
      "metar": "METAR LHBP 030500Z 24007KT 9999 -SN OVC005 01/M00 Q1003 BECMG FEW008 BKN070",
      "taf": "TAF LHBP 030515Z 0306/0406 25007KT 9999 OVC005"
    },
    {
      "icao": "LHDC",
      "alert": "OK",
      "vis_m": 9999,
      "fzfg": false,
      "metar_trigger": false,
      "taf_trigger": false,
      "metar": "METAR LHDC 030445Z AUTO 20004KT CAVOK 00/M01 Q1002",
      "taf": "TAF LHDC 030515Z 0306/0315 20006KT CAVOK"
    },
    {
      "icao": "LIBD",
      "alert": "OK",
      "vis_m": 9999,
      "fzfg": false,
      "metar_trigger": false,
      "taf_trigger": false,
      "metar": "METAR LIBD 030520Z 18005KT CAVOK 13/07 Q1005",
      "taf": "TAF LIBD 030500Z 0306/0406 23011KT 9999 SCT035"
    },
    {
      "icao": "LIBG",
      "alert": "OK",
      "vis_m": null,
      "fzfg": false,
      "metar_trigger": false,
      "taf_trigger": false,
      "metar": "",
      "taf": ""
    },
    {
      "icao": "LIBP",
      "alert": "OK",
      "vis_m": 9999,
      "fzfg": false,
      "metar_trigger": false,
      "taf_trigger": false,
      "metar": "METAR LIBP 030520Z AUTO 23008KT 210V270 9999 NCD 15/03 Q1002",
      "taf": "TAF LIBP 030500Z 0306/0406 23012KT 9999 SCT020"
    },
    {
      "icao": "LIBR",
      "alert": "OK",
      "vis_m": 9999,
      "fzfg": false,
      "metar_trigger": false,
      "taf_trigger": false,
      "metar": "METAR LIBR 030520Z 20008KT CAVOK 14/08 Q1007",
      "taf": "TAF LIBR 030500Z 0306/0406 21015KT 9999 SCT030"
    },
    {
      "icao": "LICA",
      "alert": "OK",
      "vis_m": 9999,
      "fzfg": false,
      "metar_trigger": false,
      "taf_trigger": false,
      "metar": "METAR LICA 030520Z AUTO 07004KT 9999 OVC069/// 10/08 Q1010",
      "taf": "TAF LICA 030500Z 0306/0406 07010KT 9999 SCT040"
    },
    {
      "icao": "LICC",
      "alert": "OK",
      "vis_m": 9999,
      "fzfg": false,
      "metar_trigger": false,
      "taf_trigger": false,
      "metar": "METAR LICC 030520Z 23007KT 9999 BKN030 13/10 Q1012",
      "taf": "TAF LICC 030500Z 0306/0406 25013KT 9999 SCT030"
    },
    {
      "icao": "LICJ",
      "alert": "OK",
      "vis_m": 9999,
      "fzfg": false,
      "metar_trigger": false,
      "taf_trigger": false,
      "metar": "METAR LICJ 030520Z 19020KT CAVOK 16/09 Q1009",
      "taf": "TAF LICJ 030500Z 0306/0406 19018G30KT CAVOK"
    },
    {
      "icao": "LIMC",
      "alert": "OK",
      "vis_m": 9999,
      "fzfg": false,
      "metar_trigger": false,
      "taf_trigger": false,
      "metar": "METAR LIMC 030520Z 15004KT 060V210 CAVOK M04/M05 Q1002 NOSIG",
      "taf": "TAF LIMC 030500Z 0306/0412 VRB04KT CAVOK"
    },
    {
      "icao": "LIME",
      "alert": "OK",
      "vis_m": 250,
      "fzfg": true,
      "metar_trigger": false,
      "taf_trigger": false,
      "metar": "METAR LIME 030520Z VRB01KT 0250 R28/0550N FZFG VV020 M00/M00 Q1002 NOSIG",
      "taf": "TAF LIME 030500Z 0306/0406 VRB04KT 0300 FZFG NSC"
    },
    {
      "icao": "LIMF",
      "alert": "OK",
      "vis_m": 9999,
      "fzfg": false,
      "metar_trigger": false,
      "taf_trigger": false,
      "metar": "METAR LIMF 030520Z 25003KT 200V330 CAVOK M01/M05 Q1002",
      "taf": "TAF LIMF 030500Z 0306/0406 VRB04KT CAVOK"
    },
    {
      "icao": "LIMJ",
      "alert": "OK",
      "vis_m": 9999,
      "fzfg": false,
      "metar_trigger": false,
      "taf_trigger": false,
      "metar": "METAR LIMJ 030520Z 03017KT 9999 SCT065 08/01 Q1000",
      "taf": "TAF LIMJ 030500Z 0306/0406 03013KT CAVOK"
    },
    {
      "icao": "LIPE",
      "alert": "OK",
      "vis_m": 1200,
      "fzfg": false,
      "metar_trigger": false,
      "taf_trigger": false,
      "metar": "METAR LIPE 030520Z 23006KT 190V250 1200 R12/1900U R30/P2000N BR VV002 01/01 Q1003",
      "taf": "TAF LIPE 030500Z 0306/0406 VRB05KT 0600 FG BKN002"
    },
    {
      "icao": "LIPH",
      "alert": "OK",
      "vis_m": 9999,
      "fzfg": false,
      "metar_trigger": false,
      "taf_trigger": false,
      "metar": "METAR LIPH 030520Z AUTO 23002KT 9999 NCD M01/M02 Q1002",
      "taf": "TAF LIPH 030500Z 0306/0406 VRB04KT 9999 SCT040"
    },
    {
      "icao": "LIPQ",
      "alert": "OK",
      "vis_m": 4500,
      "fzfg": false,
      "metar_trigger": false,
      "taf_trigger": false,
      "metar": "METAR LIPQ 030520Z AUTO 33003KT 4500 BR BKN019/// 01/00 Q1002",
      "taf": "TAF LIPQ 030500Z 0306/0406 VRB05KT 9999 SCT020"
    },
    {
      "icao": "LIPR",
      "alert": "OK",
      "vis_m": 1700,
      "fzfg": false,
      "metar_trigger": false,
      "taf_trigger": false,
      "metar": "METAR LIPR 030520Z AUTO 27003KT 240V300 1700 BR BKN002/// 00/00 Q1003",
      "taf": "TAF LIPR 030500Z 0306/0406 VRB06KT 7000 SCT050"
    },
    {
      "icao": "LIPX",
      "alert": "OK",
      "vis_m": 200,
      "fzfg": false,
      "metar_trigger": false,
      "taf_trigger": false,
      "metar": "METAR LIPX 030520Z 28003KT 0200 R04/1100D FG VV002 01/01 Q1002",
      "taf": "TAF LIPX 030500Z 0306/0406 VRB04KT 3000 BR FEW020"
    },
    {
      "icao": "LIPY",
      "alert": "OK",
      "vis_m": 400,
      "fzfg": false,
      "metar_trigger": false,
      "taf_trigger": false,
      "metar": "METAR LIPY 030520Z AUTO 34008KT 310V010 0400 R22/0900N FG OVC002/// 06/06 Q1002",
      "taf": ""
    },
    {
      "icao": "LIPZ",
      "alert": "OK",
      "vis_m": 9999,
      "fzfg": false,
      "metar_trigger": false,
      "taf_trigger": false,
      "metar": "METAR LIPZ 030520Z 28003KT 260V320 CAVOK M00/M02 Q1002 NOSIG",
      "taf": "TAF LIPZ 030500Z 0306/0412 VRB05KT 9999 FEW020"
    },
    {
      "icao": "LIRF",
      "alert": "OK",
      "vis_m": 9999,
      "fzfg": false,
      "metar_trigger": false,
      "taf_trigger": false,
      "metar": "METAR LIRF 030520Z 25012KT 9999 FEW025 SCT035 14/10 Q1004 NOSIG",
      "taf": "TAF LIRF 030500Z 0306/0412 24014KT 9999 SCT020"
    },
    {
      "icao": "LIRN",
      "alert": "OK",
      "vis_m": 9999,
      "fzfg": false,
      "metar_trigger": false,
      "taf_trigger": false,
      "metar": "METAR LIRN 030520Z 22010KT 9999 FEW030 15/11 Q1006 NOSIG",
      "taf": "TAF LIRN 030500Z 0306/0406 23013KT 9999 BKN030"
    },
    {
      "icao": "LIRP",
      "alert": "OK",
      "vis_m": 9999,
      "fzfg": false,
      "metar_trigger": false,
      "taf_trigger": false,
      "metar": "METAR LIRP 030515Z 23014KT 9999 BKN040 11/05 Q1000 NOSIG",
      "taf": "TAF LIRP 030500Z 0306/0406 23012KT 9999 BKN040"
    },
    {
      "icao": "LIRZ",
      "alert": "OK",
      "vis_m": 9999,
      "fzfg": false,
      "metar_trigger": false,
      "taf_trigger": false,
      "metar": "METAR LIRZ 030520Z AUTO VRB02KT 9999 NCD 08/07 Q1003",
      "taf": "TAF LIRZ 030500Z 0306/0406 VRB05KT 9999 SCT030"
    },
    {
      "icao": "LJLJ",
      "alert": "OK",
      "vis_m": 9999,
      "fzfg": false,
      "metar_trigger": false,
      "taf_trigger": false,
      "metar": "METAR LJLJ 030500Z 01003KT 9999 FEW005 SCT055 BKN130 M00/M01 Q1002 NOSIG",
      "taf": "TAF LJLJ 030500Z 0306/0406 VRB02KT 9999 SCT050"
    },
    {
      "icao": "LKMT",
      "alert": "OK",
      "vis_m": 9999,
      "fzfg": false,
      "metar_trigger": false,
      "taf_trigger": false,
      "metar": "METAR LKMT 030500Z 22017KT 9999 FEW043 M01/M06 Q0998 NOSIG",
      "taf": "TAF LKMT 030500Z 0306/0406 22015KT 9999 SCT040"
    },
    {
      "icao": "LKPR",
      "alert": "OK",
      "vis_m": 9999,
      "fzfg": false,
      "metar_trigger": false,
      "taf_trigger": false,
      "metar": "METAR LKPR 030500Z 28006KT 9999 FEW015 OVC026 M02/M04 Q1000 NOSIG",
      "taf": "TAF LKPR 030500Z 0306/0412 23012KT 9999 BKN035"
    },
    {
      "icao": "LLBG",
      "alert": "OK",
      "vis_m": 9999,
      "fzfg": false,
      "metar_trigger": false,
      "taf_trigger": false,
      "metar": "METAR LLBG 030520Z VRB02KT 9999 FEW050 09/07 Q1026 NOSIG",
      "taf": "TAF LLBG 030508Z 0306/0406 VRB03KT CAVOK"
    },
    {
      "icao": "LMML",
      "alert": "OK",
      "vis_m": 9999,
      "fzfg": false,
      "metar_trigger": false,
      "taf_trigger": false,
      "metar": "METAR LMML 030515Z 22015KT 9999 FEW026 15/10 Q1014 NOSIG",
      "taf": "TAF LMML 030500Z 0306/0406 24020KT 9999 FEW020"
    },
    {
      "icao": "LOWW",
      "alert": "OK",
      "vis_m": 9999,
      "fzfg": false,
      "metar_trigger": false,
      "taf_trigger": false,
      "metar": "METAR LOWW 030520Z 29025G35KT CAVOK 01/M06 Q1003 NOSIG",
      "taf": "TAF LOWW 030515Z 0306/0412 29015G25KT 9999 FEW040 TX03/0312Z TNM01/0318Z"
    },
    {
      "icao": "LPFR",
      "alert": "OK",
      "vis_m": 9999,
      "fzfg": false,
      "metar_trigger": false,
      "taf_trigger": false,
      "metar": "METAR LPFR 030500Z 18015KT 9999 SCT015 SCT020 16/14 Q0998",
      "taf": "TAF LPFR 030500Z 0306/0406 18015KT 9999 SCT015 SCT030"
    },
    {
      "icao": "LPMA",
      "alert": "OK",
      "vis_m": 9999,
      "fzfg": false,
      "metar_trigger": false,
      "taf_trigger": false,
      "metar": "METAR LPMA 030500Z VRB03KT 9999 SCT015 FEW018CB 15/12 Q0994",
      "taf": "TAF LPMA 030500Z 0306/0406 VRB05KT 9999 SCT015"
    },
    {
      "icao": "LPPR",
      "alert": "OK",
      "vis_m": 9999,
      "fzfg": false,
      "metar_trigger": false,
      "taf_trigger": false,
      "metar": "METAR LPPR 030500Z 11006KT 9999 FEW035 14/09 Q1000",
      "taf": "TAF LPPR 030500Z 0306/0406 08010KT 9999 FEW035"
    },
    {
      "icao": "LPPS",
      "alert": "OK",
      "vis_m": 9999,
      "fzfg": false,
      "metar_trigger": false,
      "taf_trigger": false,
      "metar": "METAR LPPS 030500Z 26027G40KT 9999 SCT014 FEW018TCU SCT030 17/14 Q0993",
      "taf": "TAF LPPS 030500Z 0306/0412 27023G35KT 9999 SCT015 SCT030"
    },
    {
      "icao": "LPPT",
      "alert": "OK",
      "vis_m": 9999,
      "fzfg": false,
      "metar_trigger": false,
      "taf_trigger": false,
      "metar": "METAR LPPT 030500Z 12007G21KT 090V150 9999 FEW007 SCT015 BKN018 FEW025CB 13/13 Q0997",
      "taf": "TAF LPPT 030500Z 0306/0412 13012KT 9999 SCT015 SCT025"
    },
    {
      "icao": "LQBK",
      "alert": "OK",
      "vis_m": 8000,
      "fzfg": false,
      "metar_trigger": false,
      "taf_trigger": false,
      "metar": "METAR LQBK 030500Z 02014KT 8000 RA FEW007 OVC020 02/01 Q1003 NOSIG",
      "taf": "TAF LQBK 030500Z 0306/0406 33005KT 9999 SCT015 BKN030 TX02/0306Z TN00/0406Z"
    },
    {
      "icao": "LQSA",
      "alert": "OK",
      "vis_m": 8000,
      "fzfg": false,
      "metar_trigger": false,
      "taf_trigger": false,
      "metar": "METAR LQSA 030500Z VRB03KT 8000 -DZ SCT020 BKN040 02/02 Q1001 TEMPO 24010KT RA",
      "taf": "TAF LQSA 030500Z 0306/0406 16006KT 9999 BKN045 TX08/0312Z TN01/0319Z"
    },
    {
      "icao": "LQTZ",
      "alert": "OK",
      "vis_m": 9999,
      "fzfg": false,
      "metar_trigger": false,
      "taf_trigger": false,
      "metar": "METAR LQTZ 030500Z 05003KT 340V080 9999 FEW035 BKN050 04/04 Q1001",
      "taf": "TAF LQTZ 030500Z 0306/0406 27005KT 9999 SCT015 BKN030 TX03/0313Z TNM00/0406Z"
    },
    {
      "icao": "LRBC",
      "alert": "OK",
      "vis_m": 9999,
      "fzfg": false,
      "metar_trigger": false,
      "taf_trigger": false,
      "metar": "METAR LRBC 030500Z COR 28004KT 9999 OVC059 01/M02 Q1001",
      "taf": "TAF LRBC 030500Z 0306/0315 VRB04KT 9999 BKN040"
    },
    {
      "icao": "LRBS",
      "alert": "OK",
      "vis_m": 9999,
      "fzfg": false,
      "metar_trigger": false,
      "taf_trigger": false,
      "metar": "METAR LRBS 030500Z 13003KT CAVOK M03/M05 Q1002 NOSIG",
      "taf": "TAF LRBS 030500Z 0306/0406 VRB04KT 9999 SCT045"
    },
    {
      "icao": "LRBV",
      "alert": "OK",
      "vis_m": 2000,
      "fzfg": false,
      "metar_trigger": false,
      "taf_trigger": false,
      "metar": "METAR LRBV 030500Z 29008KT 250V310 2000 SN VV013 M00/M01 Q1000",
      "taf": "TAF LRBV 030500Z 0306/0315 26008KT 5000 -SN BKN010 BKN025"
    },
    {
      "icao": "LRCL",
      "alert": "OK",
      "vis_m": 5000,
      "fzfg": false,
      "metar_trigger": false,
      "taf_trigger": false,
      "metar": "METAR LRCL 030500Z 23003KT 5000 -SN BR OVC037 00/M00 Q1002",
      "taf": "TAF LRCL 030200Z 0303/0312 VRB04KT 5000 -SN BR BKN055"
    },
    {
      "icao": "LRCV",
      "alert": "OK",
      "vis_m": 9999,
      "fzfg": false,
      "metar_trigger": false,
      "taf_trigger": false,
      "metar": "METAR LRCV 030500Z VRB01KT 9999 SCT045 01/M00 Q1001",
      "taf": "TAF LRCV 030500Z 0306/0315 VRB04KT 9999 SCT045"
    },
    {
      "icao": "LRIA",
      "alert": "OK",
      "vis_m": 9999,
      "fzfg": false,
      "metar_trigger": false,
      "taf_trigger": false,
      "metar": "METAR LRIA 030500Z 28004KT 210V320 CAVOK 02/01 Q1001",
      "taf": "TAF LRIA 030500Z 0306/0315 VRB04KT 9999 BKN045"
    },
    {
      "icao": "LROP",
      "alert": "OK",
      "vis_m": 9999,
      "fzfg": false,
      "metar_trigger": false,
      "taf_trigger": false,
      "metar": "METAR LROP 030500Z 16005KT CAVOK M01/M03 Q1002 NOSIG",
      "taf": "TAF LROP 030500Z 0306/0406 VRB04KT 9999 SCT045"
    },
    {
      "icao": "LRSB",
      "alert": "OK",
      "vis_m": 2000,
      "fzfg": false,
      "metar_trigger": false,
      "taf_trigger": false,
      "metar": "METAR LRSB 030500Z COR 01004KT 2000 -SN BR SCT006 OVC014 00/00 Q1001",
      "taf": "TAF LRSB 030500Z 0306/0406 VRB04KT 1500 SN BKN005 OVC015"
    },
    {
      "icao": "LRSM",
      "alert": "OK",
      "vis_m": 9999,
      "fzfg": false,
      "metar_trigger": false,
      "taf_trigger": false,
      "metar": "METAR LRSM 030500Z AUTO 27003KT 9999 OVC120/// M00/M02 Q1002",
      "taf": ""
    },
    {
      "icao": "LRSV",
      "alert": "OK",
      "vis_m": 9999,
      "fzfg": false,
      "metar_trigger": false,
      "taf_trigger": false,
      "metar": "METAR LRSV 030500Z 22009KT CAVOK 02/M05 Q0998",
      "taf": "TAF LRSV 030500Z 0306/0315 22010KT CAVOK"
    },
    {
      "icao": "LRTM",
      "alert": "OK",
      "vis_m": 1600,
      "fzfg": false,
      "metar_trigger": false,
      "taf_trigger": false,
      "metar": "METAR LRTM 030500Z 18001KT 1600 SN BKN001 OVC003 00/M00 Q1002",
      "taf": "TAF LRTM 030200Z 0303/0312 24006KT 5000 -SN BR BKN005 OVC020"
    },
    {
      "icao": "LRTR",
      "alert": "OK",
      "vis_m": 6000,
      "fzfg": false,
      "metar_trigger": false,
      "taf_trigger": false,
      "metar": "METAR LRTR 030500Z 08005KT 6000 -SN FEW006 OVC018 00/00 Q1003",
      "taf": "TAF LRTR 030500Z 0306/0406 05007KT 5000 -SN SCT005 OVC015"
    },
    {
      "icao": "LTAC",
      "alert": "OK",
      "vis_m": 4800,
      "fzfg": false,
      "metar_trigger": false,
      "taf_trigger": false,
      "metar": "METAR LTAC 030520Z 00000KT 4800 BR NSC M13/M15 Q1022 BECMG 6000 RMK RWY21C 10002KT RWY03L 00000KT RWY21R VRB02KT RWY03R 00000KT RWY21L 11003KT",
      "taf": "TAF LTAC 030440Z 0306/0406 VRB02KT CAVOK"
    },
    {
      "icao": "LTFM",
      "alert": "OK",
      "vis_m": 9999,
      "fzfg": false,
      "metar_trigger": false,
      "taf_trigger": false,
      "metar": "METAR LTFM 030520Z 21025KT 9999 SCT035 BKN090 10/04 Q1012 NOSIG RMK RWY17L 21022KT RWY34L 20023G33KT RWY16R 21019G31KT RWY36 21023KT RWY18 21023KT",
      "taf": "TAF LTFM 030440Z 0306/0412 20026G38KT 9999 SCT035 BKN090"
    },
    {
      "icao": "LUKK",
      "alert": "OK",
      "vis_m": 9999,
      "fzfg": false,
      "metar_trigger": false,
      "taf_trigger": false,
      "metar": "METAR LUKK 030500Z 15003KT CAVOK 00/M02 Q1001 NOSIG",
      "taf": "TAF LUKK 030508Z 0306/0406 VRB06KT 9999 SCT035"
    },
    {
      "icao": "LWOH",
      "alert": "OK",
      "vis_m": 9999,
      "fzfg": false,
      "metar_trigger": false,
      "taf_trigger": false,
      "metar": "METAR LWOH 030520Z 13015KT 9999 FEW015 BKN040 10/04 Q1007",
      "taf": "TAF LWOH 030205Z 0303/0403 16012KT 9999 SCT015 OVC035"
    },
    {
      "icao": "LWSK",
      "alert": "OK",
      "vis_m": 9999,
      "fzfg": false,
      "metar_trigger": false,
      "taf_trigger": false,
      "metar": "METAR LWSK 030450Z VRB02KT 9999 FEW039 BKN066 M01/M03 Q1007 NOSIG",
      "taf": ""
    },
    {
      "icao": "LYBE",
      "alert": "OK",
      "vis_m": 9999,
      "fzfg": false,
      "metar_trigger": false,
      "taf_trigger": false,
      "metar": "METAR LYBE 030500Z 02011KT 9999 -RA BKN005 BKN040 01/01 Q1002 TEMPO 5000 RASN",
      "taf": "TAF LYBE 030500Z 0306/0406 02012KT 9999 BKN006 TX02/0313Z TN01/0307Z"
    },
    {
      "icao": "LYNI",
      "alert": "OK",
      "vis_m": 9999,
      "fzfg": false,
      "metar_trigger": false,
      "taf_trigger": false,
      "metar": "METAR LYNI 030500Z 17007KT 140V220 9999 BKN040 08/M00 Q1003 NOSIG",
      "taf": "TAF LYNI 030500Z 0306/0406 16008KT 9999 BKN040 TX08/0309Z TN01/0318Z"
    },
    {
      "icao": "LYPG",
      "alert": "OK",
      "vis_m": 9999,
      "fzfg": false,
      "metar_trigger": false,
      "taf_trigger": false,
      "metar": "METAR LYPG 030500Z 19008KT 9999 -RA FEW020 SCT040 OVC070 12/08 Q1005 NOSIG",
      "taf": "TAF LYPG 030500Z 0306/0406 15008KT 9999 FEW020 BKN040 OVC080 TX13/0315Z TN10/0306Z"
    },
    {
      "icao": "LZIB",
      "alert": "OK",
      "vis_m": 9999,
      "fzfg": false,
      "metar_trigger": false,
      "taf_trigger": false,
      "metar": "METAR LZIB 030500Z 28007KT 240V320 9999 FEW024 01/M04 Q1002 NOSIG",
      "taf": "TAF LZIB 030515Z 0306/0406 29013KT CAVOK"
    },
    {
      "icao": "LZKZ",
      "alert": "OK",
      "vis_m": 9999,
      "fzfg": false,
      "metar_trigger": false,
      "taf_trigger": false,
      "metar": "METAR LZKZ 030500Z 14005KT 110V170 CAVOK M03/M05 Q0999 NOSIG",
      "taf": "TAF LZKZ 030515Z 0306/0406 24008KT CAVOK"
    },
    {
      "icao": "LZTT",
      "alert": "OK",
      "vis_m": 9999,
      "fzfg": false,
      "metar_trigger": false,
      "taf_trigger": false,
      "metar": "METAR LZTT 030500Z 24008KT 9999 -SN FEW013 BKN046 M03/M07 Q0996",
      "taf": "TAF LZTT 030515Z 0306/0406 25010KT 9999 FEW040"
    },
    {
      "icao": "OEJN",
      "alert": "OK",
      "vis_m": 9999,
      "fzfg": false,
      "metar_trigger": false,
      "taf_trigger": false,
      "metar": "METAR OEJN 030500Z 00000KT CAVOK 22/16 Q1017 NOSIG",
      "taf": "TAF OEJN 030500Z 0306/0412 32010KT CAVOK"
    },
    {
      "icao": "OEMA",
      "alert": "OK",
      "vis_m": 9999,
      "fzfg": false,
      "metar_trigger": false,
      "taf_trigger": false,
      "metar": "METAR OEMA 030500Z 03003KT CAVOK 14/M02 Q1022 NOSIG",
      "taf": "TAF OEMA 030500Z 0306/0412 06008KT CAVOK"
    },
    {
      "icao": "OJAI",
      "alert": "OK",
      "vis_m": 600,
      "fzfg": false,
      "metar_trigger": false,
      "taf_trigger": false,
      "metar": "SPECI OJAI 030515Z 26002KT 0600 FG NSC 01/01 Q1027 NOSIG",
      "taf": "TAF OJAI 030443Z 0306/0412 VRB02KT 3000 BR SCT035"
    },
    {
      "icao": "OMAA",
      "alert": "OK",
      "vis_m": 3500,
      "fzfg": false,
      "metar_trigger": false,
      "taf_trigger": false,
      "metar": "METAR OMAA 030500Z 16003KT 3500 HZ NSC 17/15 Q1020 BECMG 6000 NSW",
      "taf": "TAF OMAA 030500Z 0306/0412 VRB02KT 7000 NSC"
    },
    {
      "icao": "OMDB",
      "alert": "OK",
      "vis_m": null,
      "fzfg": false,
      "metar_trigger": false,
      "taf_trigger": false,
      "metar": "",
      "taf": "TAF OMDB 030500Z 0306/0412 19005KT 3000 HZ NSC"
    },
    {
      "icao": "UAAA",
      "alert": "OK",
      "vis_m": 250,
      "fzfg": true,
      "metar_trigger": false,
      "taf_trigger": false,
      "metar": "METAR UAAA 030500Z VRB01MPS 0250 R23L/0350N FZFG VV002 M01/M02 Q1022 NOSIG RMK QBB060",
      "taf": "TAF UAAA 030504Z 0306/0406 05003MPS 1500 BR FU BKN011 OVC030 TX01/0309Z TNM03/0402Z"
    },
    {
      "icao": "UBBB",
      "alert": "OK",
      "vis_m": 9999,
      "fzfg": false,
      "metar_trigger": false,
      "taf_trigger": false,
      "metar": "METAR UBBB 030500Z 17006KT 9999 FEW040 03/01 Q1028 NOSIG",
      "taf": "TAF UBBB 030501Z 0306/0406 18012KT 9999 SCT030 TX07/0310Z TN02/0401Z"
    },
    {
      "icao": "UDSG",
      "alert": "OK",
      "vis_m": 9999,
      "fzfg": false,
      "metar_trigger": false,
      "taf_trigger": false,
      "metar": "METAR UDSG 030500Z 03003KT 9999 NSC M27/M30 Q1026 NOSIG",
      "taf": "TAF UDSG 030458Z 0306/0406 VRB06KT 9999 FEW040"
    },
    {
      "icao": "UDYZ",
      "alert": "OK",
      "vis_m": 9999,
      "fzfg": false,
      "metar_trigger": false,
      "taf_trigger": false,
      "metar": "METAR UDYZ 030500Z VRB02KT 9999 NSC M17/M19 Q1029 NOSIG",
      "taf": "TAF UDYZ 030500Z 0306/0406 VRB06KT 9999 NSC"
    },
    {
      "icao": "UGKO",
      "alert": "OK",
      "vis_m": 9999,
      "fzfg": false,
      "metar_trigger": false,
      "taf_trigger": false,
      "metar": "METAR UGKO 030500Z 08023G35KT CAVOK 02/M07 Q1023 NOSIG",
      "taf": "TAF UGKO 030500Z 0306/0406 08017KT CAVOK TX05/0311Z TNM02/0402Z"
    }
  ]
}