{
  "ts_utc": "2026-07-13T23:33:13Z",
  "threshold_m": 150,
  "source": "stations_override.txt (ICAO list) + aviationweather.gov (METAR/TAF raw)",
  "station_count": 159,
  "stations": [
    {
      "icao": "BIKF",
      "alert": "OK",
      "vis_m": 9999,
      "fzfg": false,
      "metar_trigger": false,
      "taf_trigger": false,
      "metar": "METAR BIKF 132300Z 17018KT 9999 OVC005 11/10 Q1020",
      "taf": "TAF BIKF 132244Z 1400/1500 17018KT 4000 RADZ BKN005 OVC010 TX11/1415Z TN10/1404Z"
    },
    {
      "icao": "BKPR",
      "alert": "OK",
      "vis_m": 9999,
      "fzfg": false,
      "metar_trigger": false,
      "taf_trigger": false,
      "metar": "METAR BKPR 132330Z 31003KT 280V340 CAVOK 16/13 Q1020 NOSIG",
      "taf": "TAF BKPR 132330Z 1400/1424 32006KT 9999 SCT070"
    },
    {
      "icao": "EBCI",
      "alert": "OK",
      "vis_m": 9999,
      "fzfg": false,
      "metar_trigger": false,
      "taf_trigger": false,
      "metar": "METAR EBCI 132320Z 36008KT CAVOK 21/16 Q1018 NOSIG",
      "taf": "TAF EBCI 132310Z 1400/1506 01006KT CAVOK"
    },
    {
      "icao": "EDDB",
      "alert": "OK",
      "vis_m": 9999,
      "fzfg": false,
      "metar_trigger": false,
      "taf_trigger": false,
      "metar": "METAR EDDB 132320Z AUTO 04007KT CAVOK 19/15 Q1020 NOSIG",
      "taf": "TAF EDDB 132300Z 1400/1424 04008KT CAVOK"
    },
    {
      "icao": "EDDH",
      "alert": "OK",
      "vis_m": 9999,
      "fzfg": false,
      "metar_trigger": false,
      "taf_trigger": false,
      "metar": "METAR EDDH 132320Z AUTO 08007KT CAVOK 19/15 Q1021 NOSIG",
      "taf": "TAF EDDH 132300Z 1400/1506 07005KT CAVOK"
    },
    {
      "icao": "EDDK",
      "alert": "OK",
      "vis_m": 9999,
      "fzfg": false,
      "metar_trigger": false,
      "taf_trigger": false,
      "metar": "METAR EDDK 132320Z AUTO VRB01KT CAVOK 21/15 Q1016 NOSIG",
      "taf": "TAF EDDK 132300Z 1400/1506 VRB03KT CAVOK"
    },
    {
      "icao": "EDDN",
      "alert": "OK",
      "vis_m": 9999,
      "fzfg": false,
      "metar_trigger": false,
      "taf_trigger": false,
      "metar": "METAR EDDN 132320Z AUTO 08006KT CAVOK 24/13 Q1017",
      "taf": "TAF EDDN 132300Z 1400/1424 08004KT CAVOK"
    },
    {
      "icao": "EDDS",
      "alert": "OK",
      "vis_m": 9999,
      "fzfg": false,
      "metar_trigger": false,
      "taf_trigger": false,
      "metar": "METAR EDDS 132320Z AUTO 34003KT CAVOK 21/12 Q1015",
      "taf": "TAF EDDS 132300Z 1400/1424 VRB03KT CAVOK"
    },
    {
      "icao": "EDFH",
      "alert": "OK",
      "vis_m": 9999,
      "fzfg": false,
      "metar_trigger": false,
      "taf_trigger": false,
      "metar": "METAR EDFH 132320Z 07005KT 040V100 CAVOK 22/09 Q1017",
      "taf": "TAF EDFH 132300Z 1400/1424 08007KT CAVOK"
    },
    {
      "icao": "EDJA",
      "alert": "OK",
      "vis_m": 9999,
      "fzfg": false,
      "metar_trigger": false,
      "taf_trigger": false,
      "metar": "METAR EDJA 132320Z AUTO 05003KT 9999 // NCD 17/12 Q1017",
      "taf": "TAF EDJA 131700Z 1318/1403 07005KT CAVOK"
    },
    {
      "icao": "EDLW",
      "alert": "OK",
      "vis_m": 9999,
      "fzfg": false,
      "metar_trigger": false,
      "taf_trigger": false,
      "metar": "METAR EDLW 132320Z AUTO 06007KT 9999 // FEW089/// 20/15 Q1018",
      "taf": "TAF EDLW 131700Z 1318/1418 05007KT CAVOK"
    },
    {
      "icao": "EDNY",
      "alert": "OK",
      "vis_m": 9999,
      "fzfg": false,
      "metar_trigger": false,
      "taf_trigger": false,
      "metar": "METAR EDNY 132320Z AUTO 06002KT 9999 // SCT160/// 18/15 Q1016",
      "taf": "TAF EDNY 131700Z 1318/1403 VRB03KT CAVOK"
    },
    {
      "icao": "EDSB",
      "alert": "OK",
      "vis_m": 9999,
      "fzfg": false,
      "metar_trigger": false,
      "taf_trigger": false,
      "metar": "METAR EDSB 132320Z AUTO VRB02KT 9999 NCD 23/15 Q1014",
      "taf": "TAF EDSB 132300Z 1400/1424 VRB03KT CAVOK"
    },
    {
      "icao": "EETN",
      "alert": "OK",
      "vis_m": 9999,
      "fzfg": false,
      "metar_trigger": false,
      "taf_trigger": false,
      "metar": "METAR EETN 132320Z 36005KT 9999 BKN037 18/15 Q1018",
      "taf": "TAF EETN 132330Z 1400/1424 02010KT 9999 BKN025"
    },
    {
      "icao": "EFTU",
      "alert": "OK",
      "vis_m": 9999,
      "fzfg": false,
      "metar_trigger": false,
      "taf_trigger": false,
      "metar": "METAR EFTU 132320Z AUTO 02003KT CAVOK 15/12 Q1020",
      "taf": "TAF EFTU 132027Z 1321/1421 34004KT CAVOK"
    },
    {
      "icao": "EGBB",
      "alert": "OK",
      "vis_m": 9999,
      "fzfg": false,
      "metar_trigger": false,
      "taf_trigger": false,
      "metar": "METAR EGBB 132320Z 06008KT 9999 BKN016 17/12 Q1024",
      "taf": "TAF EGBB 132302Z 1400/1424 05010KT 9999 SCT018"
    },
    {
      "icao": "EGGP",
      "alert": "OK",
      "vis_m": 9999,
      "fzfg": false,
      "metar_trigger": false,
      "taf_trigger": false,
      "metar": "METAR EGGP 132320Z 06007KT CAVOK 16/10 Q1025",
      "taf": "TAF EGGP 132255Z 1400/1424 08007KT 9999 FEW045"
    },
    {
      "icao": "EGGW",
      "alert": "OK",
      "vis_m": 9999,
      "fzfg": false,
      "metar_trigger": false,
      "taf_trigger": false,
      "metar": "METAR EGGW 132320Z AUTO 02011KT 9999 BKN007 15/14 Q1023",
      "taf": "TAF EGGW 132300Z 1400/1424 04012KT 9999 SCT010"
    },
    {
      "icao": "EGKK",
      "alert": "OK",
      "vis_m": 9999,
      "fzfg": false,
      "metar_trigger": false,
      "taf_trigger": false,
      "metar": "METAR EGKK 132320Z 04012KT 9999 FEW020 18/14 Q1021",
      "taf": "TAF EGKK 132254Z 1400/1506 05013KT CAVOK"
    },
    {
      "icao": "EGNM",
      "alert": "OK",
      "vis_m": 9999,
      "fzfg": false,
      "metar_trigger": false,
      "taf_trigger": false,
      "metar": "METAR EGNM 132320Z 02010KT CAVOK 12/11 Q1026",
      "taf": "TAF EGNM 132255Z 1400/1424 02010KT 9999 FEW018"
    },
    {
      "icao": "EGPD",
      "alert": "OK",
      "vis_m": 9999,
      "fzfg": false,
      "metar_trigger": false,
      "taf_trigger": false,
      "metar": "METAR EGPD 132320Z AUTO 36003KT 9999 BKN010 11/10 Q1030",
      "taf": "TAF EGPD 132254Z 1400/1424 VRB03KT 9999 BKN012"
    },
    {
      "icao": "EGPF",
      "alert": "OK",
      "vis_m": 9999,
      "fzfg": false,
      "metar_trigger": false,
      "taf_trigger": false,
      "metar": "METAR EGPF 132320Z AUTO 05006KT 9999 NCD 12/10 Q1029",
      "taf": "TAF EGPF 132256Z 1400/1424 08008KT CAVOK"
    },
    {
      "icao": "EHBK",
      "alert": "OK",
      "vis_m": 9999,
      "fzfg": false,
      "metar_trigger": false,
      "taf_trigger": false,
      "metar": "METAR EHBK 132325Z AUTO 36007KT 330V030 9999 NSC 23/15 Q1017",
      "taf": "TAF EHBK 132315Z 1400/1506 05006KT CAVOK"
    },
    {
      "icao": "EHEH",
      "alert": "OK",
      "vis_m": 9999,
      "fzfg": false,
      "metar_trigger": false,
      "taf_trigger": false,
      "metar": "METAR EHEH 132325Z AUTO 36005KT 340V040 9999 SCT085 SCT095 OVC280 21/17 Q1017 BLU",
      "taf": "TAF EHEH 131724Z 1318/1424 05009KT CAVOK"
    },
    {
      "icao": "EKBI",
      "alert": "OK",
      "vis_m": 9999,
      "fzfg": false,
      "metar_trigger": false,
      "taf_trigger": false,
      "metar": "METAR EKBI 132320Z AUTO 09002KT 9999 NCD 16/14 Q1024",
      "taf": "TAF EKBI 132327Z 1400/1424 08005KT 9999 BCFG FEW040"
    },
    {
      "icao": "EKCH",
      "alert": "OK",
      "vis_m": 9999,
      "fzfg": false,
      "metar_trigger": false,
      "taf_trigger": false,
      "metar": "METAR EKCH 132320Z AUTO 01002KT 9999 BKN150/// 17/16 Q1024 NOSIG",
      "taf": "TAF EKCH 132327Z 1400/1424 35006KT 9999 FEW030"
    },
    {
      "icao": "ENAL",
      "alert": "OK",
      "vis_m": 9999,
      "fzfg": false,
      "metar_trigger": false,
      "taf_trigger": false,
      "metar": "METAR ENAL 132320Z AUTO 04005KT 010V070 9999 OVC008/// 12/10 Q1029",
      "taf": ""
    },
    {
      "icao": "ENBR",
      "alert": "OK",
      "vis_m": 9999,
      "fzfg": false,
      "metar_trigger": false,
      "taf_trigger": false,
      "metar": "METAR ENBR 132320Z AUTO 33008KT 9999 FEW003/// 11/11 Q1026 RMK WIND 1200FT 36010KT",
      "taf": "TAF ENBR 131700Z 1318/1418 33010KT CAVOK"
    },
    {
      "icao": "ENGM",
      "alert": "OK",
      "vis_m": 9999,
      "fzfg": false,
      "metar_trigger": false,
      "taf_trigger": false,
      "metar": "METAR ENGM 132320Z 03006KT CAVOK 16/11 Q1024",
      "taf": "TAF ENGM 131700Z 1318/1418 VRB03KT CAVOK"
    },
    {
      "icao": "ENHD",
      "alert": "OK",
      "vis_m": 150,
      "fzfg": false,
      "metar_trigger": false,
      "taf_trigger": false,
      "metar": "METAR ENHD 132320Z AUTO 35014KT 0150 R13/0600N R31/0750N FG VV001 11/10 Q1026",
      "taf": "TAF ENHD 131400Z 1315/1322 34009KT CAVOK"
    },
    {
      "icao": "ENTC",
      "alert": "OK",
      "vis_m": 9999,
      "fzfg": false,
      "metar_trigger": false,
      "taf_trigger": false,
      "metar": "METAR ENTC 132320Z AUTO 22022KT 9999 OVC037/// 13/08 Q1017 RMK WIND 2600FT 23020KT",
      "taf": "TAF ENTC 131700Z 1318/1418 20025KT 9999 FEW030 BKN060"
    },
    {
      "icao": "ENTO",
      "alert": "OK",
      "vis_m": 3500,
      "fzfg": false,
      "metar_trigger": false,
      "taf_trigger": false,
      "metar": "METAR ENTO 132320Z AUTO 33002KT 3500 // NCD 18/07 Q1024",
      "taf": "TAF ENTO 131700Z 1318/1418 24010KT CAVOK"
    },
    {
      "icao": "ENVA",
      "alert": "OK",
      "vis_m": 9999,
      "fzfg": false,
      "metar_trigger": false,
      "taf_trigger": false,
      "metar": "METAR ENVA 132320Z AUTO 27010KT 9999 OVC016/// 14/11 Q1029 RMK WIND 670FT 26009KT",
      "taf": "TAF ENVA 131700Z 1318/1418 27009KT CAVOK"
    },
    {
      "icao": "ENZV",
      "alert": "OK",
      "vis_m": 9999,
      "fzfg": false,
      "metar_trigger": false,
      "taf_trigger": false,
      "metar": "METAR ENZV 132320Z 20002KT CAVOK 13/11 Q1026",
      "taf": "TAF ENZV 131700Z 1318/1418 30006KT CAVOK"
    },
    {
      "icao": "EPGD",
      "alert": "OK",
      "vis_m": 9999,
      "fzfg": false,
      "metar_trigger": false,
      "taf_trigger": false,
      "metar": "METAR EPGD 132300Z 33003KT CAVOK 13/10 Q1022",
      "taf": "TAF EPGD 132330Z 1400/1424 36010KT CAVOK"
    },
    {
      "icao": "EPKK",
      "alert": "OK",
      "vis_m": 3500,
      "fzfg": false,
      "metar_trigger": false,
      "taf_trigger": false,
      "metar": "METAR EPKK 132300Z 20002KT 3500 MIFG BR FEW036 SCT056 17/17 Q1019",
      "taf": "TAF EPKK 132330Z 1400/1424 VRB02KT 3500 BR FEW030 SCT050"
    },
    {
      "icao": "EPKT",
      "alert": "OK",
      "vis_m": 9999,
      "fzfg": false,
      "metar_trigger": false,
      "taf_trigger": false,
      "metar": "METAR EPKT 132300Z VRB01KT CAVOK 16/16 Q1019",
      "taf": "TAF EPKT 132330Z 1400/1424 VRB02KT CAVOK"
    },
    {
      "icao": "EPLB",
      "alert": "OK",
      "vis_m": 9999,
      "fzfg": false,
      "metar_trigger": false,
      "taf_trigger": false,
      "metar": "METAR EPLB 132300Z 27003KT CAVOK 18/17 Q1017",
      "taf": "TAF EPLB 132330Z 1400/1424 30008KT 9999 BKN040"
    },
    {
      "icao": "EPMO",
      "alert": "OK",
      "vis_m": 9999,
      "fzfg": false,
      "metar_trigger": false,
      "taf_trigger": false,
      "metar": "METAR EPMO 132300Z 36009KT 9999 OVC007 18/17 Q1019",
      "taf": "TAF EPMO 132330Z 1400/1424 35010KT 9999 BKN010"
    },
    {
      "icao": "EPPO",
      "alert": "OK",
      "vis_m": 9999,
      "fzfg": false,
      "metar_trigger": false,
      "taf_trigger": false,
      "metar": "METAR EPPO 132300Z 04004KT CAVOK 19/17 Q1020",
      "taf": "TAF EPPO 132330Z 1400/1424 05004KT CAVOK"
    },
    {
      "icao": "EPRA",
      "alert": "OK",
      "vis_m": 9999,
      "fzfg": false,
      "metar_trigger": false,
      "taf_trigger": false,
      "metar": "METAR EPRA 132300Z 33005KT CAVOK 21/19 Q1018",
      "taf": "TAF EPRA 132330Z 1400/1409 32005KT CAVOK"
    },
    {
      "icao": "EPRZ",
      "alert": "OK",
      "vis_m": 9999,
      "fzfg": false,
      "metar_trigger": false,
      "taf_trigger": false,
      "metar": "METAR EPRZ 132300Z 27003KT 9999 BKN017 18/18 Q1018",
      "taf": "TAF EPRZ 132330Z 1400/1424 26005KT 9999 BKN018"
    },
    {
      "icao": "EPSC",
      "alert": "OK",
      "vis_m": 9999,
      "fzfg": false,
      "metar_trigger": false,
      "taf_trigger": false,
      "metar": "METAR EPSC 132300Z 03004KT 350V070 CAVOK 16/14 Q1021",
      "taf": "TAF EPSC 132330Z 1400/1424 03010KT CAVOK"
    },
    {
      "icao": "EPSY",
      "alert": "OK",
      "vis_m": 9999,
      "fzfg": false,
      "metar_trigger": false,
      "taf_trigger": false,
      "metar": "METAR EPSY 132300Z 34004KT 300V050 9999 BKN006 15/14 Q1019",
      "taf": "TAF EPSY 132330Z 1400/1409 32008KT CAVOK"
    },
    {
      "icao": "EPWA",
      "alert": "OK",
      "vis_m": 9999,
      "fzfg": false,
      "metar_trigger": false,
      "taf_trigger": false,
      "metar": "METAR EPWA 132300Z 33007KT 9999 SCT008 19/17 Q1018 BECMG BKN007",
      "taf": "TAF EPWA 132330Z 1400/1424 33007KT 9999 BKN010"
    },
    {
      "icao": "EPWR",
      "alert": "OK",
      "vis_m": 9999,
      "fzfg": false,
      "metar_trigger": false,
      "taf_trigger": false,
      "metar": "METAR EPWR 132300Z VRB01KT CAVOK 19/16 Q1019",
      "taf": "TAF EPWR 132330Z 1400/1424 VRB02KT CAVOK"
    },
    {
      "icao": "ESGG",
      "alert": "OK",
      "vis_m": 9999,
      "fzfg": false,
      "metar_trigger": false,
      "taf_trigger": false,
      "metar": "METAR ESGG 132320Z 36003KT CAVOK 15/11 Q1024",
      "taf": "TAF ESGG 132330Z 1400/1424 02005KT CAVOK"
    },
    {
      "icao": "ESKN",
      "alert": "OK",
      "vis_m": 9999,
      "fzfg": false,
      "metar_trigger": false,
      "taf_trigger": false,
      "metar": "METAR ESKN 132320Z VRB01KT CAVOK 11/11 Q1023",
      "taf": "TAF ESKN 132330Z 1400/1424 VRB03KT CAVOK"
    },
    {
      "icao": "ESMS",
      "alert": "OK",
      "vis_m": 9999,
      "fzfg": false,
      "metar_trigger": false,
      "taf_trigger": false,
      "metar": "METAR ESMS 132320Z AUTO 09002KT 9999 NCD 13/13 Q1024",
      "taf": "TAF ESMS 132327Z 1400/1424 VRB04KT 9999 FEW035"
    },
    {
      "icao": "ESSA",
      "alert": "OK",
      "vis_m": 9999,
      "fzfg": false,
      "metar_trigger": false,
      "taf_trigger": false,
      "metar": "METAR ESSA 132320Z 33005KT CAVOK 08/05 Q1023 NOSIG",
      "taf": "TAF ESSA 132330Z 1400/1424 34006KT CAVOK"
    },
    {
      "icao": "EYKA",
      "alert": "OK",
      "vis_m": 9999,
      "fzfg": false,
      "metar_trigger": false,
      "taf_trigger": false,
      "metar": "METAR EYKA 132320Z AUTO VRB03KT 9999 NCD 18/16 Q1017",
      "taf": "TAF EYKA 132301Z 1400/1424 VRB03KT 8000 NSC"
    },
    {
      "icao": "EYPA",
      "alert": "OK",
      "vis_m": 9999,
      "fzfg": false,
      "metar_trigger": false,
      "taf_trigger": false,
      "metar": "METAR EYPA 132320Z AUTO 01005KT 330V030 9999 NCD 14/13 Q1019",
      "taf": "TAF EYPA 132301Z 1400/1424 36006KT 5000 BR SCT005 BKN020"
    },
    {
      "icao": "EYVI",
      "alert": "OK",
      "vis_m": 9999,
      "fzfg": false,
      "metar_trigger": false,
      "taf_trigger": false,
      "metar": "METAR EYVI 132320Z 34007KT CAVOK 19/17 Q1016 NOSIG",
      "taf": "TAF EYVI 132301Z 1400/1424 34008KT 8000 BKN005"
    },
    {
      "icao": "GCFV",
      "alert": "OK",
      "vis_m": 9999,
      "fzfg": false,
      "metar_trigger": false,
      "taf_trigger": false,
      "metar": "METAR GCFV 132300Z AUTO 04012KT CAVOK 23/19 Q1017",
      "taf": "TAF GCFV 132000Z 1321/1421 04009KT 9999 SCT025 TX26/1414Z TN21/1406Z"
    },
    {
      "icao": "GCLP",
      "alert": "OK",
      "vis_m": 9999,
      "fzfg": false,
      "metar_trigger": false,
      "taf_trigger": false,
      "metar": "METAR GCLP 132300Z 01011KT 9999 FEW025 23/18 Q1017 NOSIG",
      "taf": "TAF GCLP 132000Z 1321/1421 36007KT 9999 SCT030 TX27/1414Z TN21/1406Z"
    },
    {
      "icao": "GCTS",
      "alert": "OK",
      "vis_m": 9999,
      "fzfg": false,
      "metar_trigger": false,
      "taf_trigger": false,
      "metar": "METAR GCTS 132300Z 04005KT 9999 SCT030 23/18 Q1018 NOSIG",
      "taf": "TAF GCTS 132000Z 1321/1421 05006KT 9999 SCT030 TX27/1414Z TN19/1406Z"
    },
    {
      "icao": "GMAD",
      "alert": "OK",
      "vis_m": 8000,
      "fzfg": false,
      "metar_trigger": false,
      "taf_trigger": false,
      "metar": "METAR GMAD 132300Z 18004KT 8000 NSC 22/19 Q1016 NOSIG",
      "taf": "TAF GMAD 132300Z 1400/1506 18004KT 8000 NSC"
    },
    {
      "icao": "GMMN",
      "alert": "OK",
      "vis_m": 9999,
      "fzfg": false,
      "metar_trigger": false,
      "taf_trigger": false,
      "metar": "METAR GMMN 132300Z 05009KT 020V080 9999 FEW020 21/18 Q1017 NOSIG",
      "taf": "TAF GMMN 132300Z 1400/1506 06008KT 9999 FEW020"
    },
    {
      "icao": "GMMX",
      "alert": "OK",
      "vis_m": 9999,
      "fzfg": false,
      "metar_trigger": false,
      "taf_trigger": false,
      "metar": "METAR GMMX 132300Z 28007KT 250V310 CAVOK 26/17 Q1016 NOSIG",
      "taf": "TAF GMMX 132300Z 1400/1506 30006KT CAVOK"
    },
    {
      "icao": "HEGN",
      "alert": "OK",
      "vis_m": null,
      "fzfg": false,
      "metar_trigger": false,
      "taf_trigger": false,
      "metar": "",
      "taf": "TAF HEGN 132300Z 1400/1506 30012KT CAVOK"
    },
    {
      "icao": "HEMA",
      "alert": "OK",
      "vis_m": null,
      "fzfg": false,
      "metar_trigger": false,
      "taf_trigger": false,
      "metar": "",
      "taf": "TAF HEMA 132300Z 1400/1506 26010KT CAVOK"
    },
    {
      "icao": "HESH",
      "alert": "OK",
      "vis_m": null,
      "fzfg": false,
      "metar_trigger": false,
      "taf_trigger": false,
      "metar": "",
      "taf": "TAF HESH 132300Z 1400/1506 29010KT CAVOK"
    },
    {
      "icao": "HESX",
      "alert": "OK",
      "vis_m": null,
      "fzfg": false,
      "metar_trigger": false,
      "taf_trigger": false,
      "metar": "",
      "taf": "TAF HESX 132300Z 1400/1506 0109KT CAVOK"
    },
    {
      "icao": "LATI",
      "alert": "OK",
      "vis_m": 9999,
      "fzfg": false,
      "metar_trigger": false,
      "taf_trigger": false,
      "metar": "METAR LATI 132320Z VRB02KT CAVOK 21/15 Q1015 NOSIG",
      "taf": "TAF LATI 132300Z 1400/1424 VRB03KT CAVOK TX36/1412Z TN18/1404Z"
    },
    {
      "icao": "LBPD",
      "alert": "OK",
      "vis_m": 9999,
      "fzfg": false,
      "metar_trigger": false,
      "taf_trigger": false,
      "metar": "METAR LBPD 132330Z AUTO VRB02KT 9999 BKN100/// 20/14 Q1016",
      "taf": "TAF LBPD 132300Z 1400/1424 VRB03KT 9999 SCT070"
    },
    {
      "icao": "LBSF",
      "alert": "OK",
      "vis_m": 9999,
      "fzfg": false,
      "metar_trigger": false,
      "taf_trigger": false,
      "metar": "METAR LBSF 132330Z AUTO 29002KT 9999 SCT078/// 15/11 Q1019 NOSIG",
      "taf": "TAF LBSF 132300Z 1400/1424 VRB03KT 9999 SCT050"
    },
    {
      "icao": "LBWN",
      "alert": "OK",
      "vis_m": 9999,
      "fzfg": false,
      "metar_trigger": false,
      "taf_trigger": false,
      "metar": "METAR LBWN 132330Z AUTO VRB02KT 9999 NSC 17/16 Q1014 NOSIG",
      "taf": "TAF LBWN 132300Z 1400/1424 34010KT 9999 SCT050"
    },
    {
      "icao": "LCLK",
      "alert": "OK",
      "vis_m": 9999,
      "fzfg": false,
      "metar_trigger": false,
      "taf_trigger": false,
      "metar": "METAR LCLK 132330Z 11004KT CAVOK 26/23 Q1005 NOSIG",
      "taf": "TAF LCLK 132330Z 1400/1500 34006KT 9999 FEW025"
    },
    {
      "icao": "LCPH",
      "alert": "OK",
      "vis_m": 9999,
      "fzfg": false,
      "metar_trigger": false,
      "taf_trigger": false,
      "metar": "METAR LCPH 132330Z AUTO 02005KT 9999 NCD 24/19 Q1005 NOSIG",
      "taf": "TAF LCPH 132330Z 1400/1500 35007KT 9999 FEW020"
    },
    {
      "icao": "LEAL",
      "alert": "OK",
      "vis_m": 9999,
      "fzfg": false,
      "metar_trigger": false,
      "taf_trigger": false,
      "metar": "METAR LEAL 132300Z 25002KT CAVOK 26/24 Q1014 NOSIG",
      "taf": "TAF LEAL 132300Z 1400/1424 VRB04KT 9999 FEW010 TX33/1412Z TN23/1406Z"
    },
    {
      "icao": "LEBB",
      "alert": "OK",
      "vis_m": 9999,
      "fzfg": false,
      "metar_trigger": false,
      "taf_trigger": false,
      "metar": "METAR LEBB 132300Z AUTO 31003KT 9999 BKN021 OVC049 23/21 Q1016",
      "taf": "TAF LEBB 132300Z 1400/1424 VRB03KT 9999 SCT020 TX31/1413Z TN22/1405Z"
    },
    {
      "icao": "LEBL",
      "alert": "OK",
      "vis_m": 9999,
      "fzfg": false,
      "metar_trigger": false,
      "taf_trigger": false,
      "metar": "METAR LEBL 132300Z 09004KT 9999 FEW010 27/26 Q1014 NOSIG",
      "taf": "TAF LEBL 132300Z 1400/1424 VRB04KT 9999 FEW020 TX31/1412Z TN24/1406Z"
    },
    {
      "icao": "LECH",
      "alert": "OK",
      "vis_m": 9999,
      "fzfg": false,
      "metar_trigger": false,
      "taf_trigger": false,
      "metar": "METAR LECH 132300Z AUTO VRB02KT CAVOK 24/22 Q1015",
      "taf": "TAF LECH 132300Z 1400/1424 VRB03KT 9999 FEW010 TX35/1412Z TN21/1406Z"
    },
    {
      "icao": "LEMD",
      "alert": "OK",
      "vis_m": 9999,
      "fzfg": false,
      "metar_trigger": false,
      "taf_trigger": false,
      "metar": "METAR LEMD 132300Z VRB02KT CAVOK 24/04 Q1016 NOSIG",
      "taf": "TAF LEMD 132300Z 1400/1506 VRB04KT CAVOK TX37/1416Z TN20/1405Z"
    },
    {
      "icao": "LEMG",
      "alert": "OK",
      "vis_m": 9999,
      "fzfg": false,
      "metar_trigger": false,
      "taf_trigger": false,
      "metar": "METAR LEMG 132300Z 30006KT CAVOK 23/15 Q1013 NOSIG",
      "taf": "TAF LEMG 132300Z 1400/1424 29009KT CAVOK TX35/1414Z TN21/1405Z"
    },
    {
      "icao": "LEVC",
      "alert": "OK",
      "vis_m": 9999,
      "fzfg": false,
      "metar_trigger": false,
      "taf_trigger": false,
      "metar": "METAR LEVC 132300Z 02004KT 340V060 CAVOK 27/24 Q1014 NOSIG",
      "taf": "TAF LEVC 132300Z 1400/1424 VRB04KT 9999 FEW015 TX33/1414Z TN24/1406Z"
    },
    {
      "icao": "LEXJ",
      "alert": "OK",
      "vis_m": 8000,
      "fzfg": false,
      "metar_trigger": false,
      "taf_trigger": false,
      "metar": "METAR LEXJ 132300Z AUTO VRB01KT 8000 NCD 20/19 Q1016",
      "taf": "TAF LEXJ 132000Z 1321/1421 VRB03KT 9999 SCT020 TX27/1412Z TN19/1405Z"
    },
    {
      "icao": "LEZG",
      "alert": "OK",
      "vis_m": 9999,
      "fzfg": false,
      "metar_trigger": false,
      "taf_trigger": false,
      "metar": "METAR LEZG 132300Z 32004KT 260V350 CAVOK 28/19 Q1014 NOSIG",
      "taf": "TAF LEZG 132300Z 1400/1424 30010KT CAVOK TX37/1415Z TN24/1406Z"
    },
    {
      "icao": "LEZL",
      "alert": "OK",
      "vis_m": 9999,
      "fzfg": false,
      "metar_trigger": false,
      "taf_trigger": false,
      "metar": "METAR LEZL 132300Z 23007KT CAVOK 23/16 Q1015 NOSIG",
      "taf": "TAF LEZL 132000Z 1321/1421 23010KT CAVOK TX34/1415Z TN20/1405Z"
    },
    {
      "icao": "LFBD",
      "alert": "OK",
      "vis_m": 9999,
      "fzfg": false,
      "metar_trigger": false,
      "taf_trigger": false,
      "metar": "METAR LFBD 132300Z AUTO 30003KT CAVOK 23/19 Q1015 NOSIG",
      "taf": "TAF LFBD 132300Z 1400/1506 VRB03KT CAVOK TX36/1414Z TN21/1405Z"
    },
    {
      "icao": "LFLL",
      "alert": "OK",
      "vis_m": 9999,
      "fzfg": false,
      "metar_trigger": false,
      "taf_trigger": false,
      "metar": "METAR LFLL 132300Z 17007KT CAVOK 29/14 Q1015 NOSIG",
      "taf": "TAF LFLL 132300Z 1400/1506 18009KT CAVOK"
    },
    {
      "icao": "LFLS",
      "alert": "OK",
      "vis_m": 9999,
      "fzfg": false,
      "metar_trigger": false,
      "taf_trigger": false,
      "metar": "METAR LFLS 132300Z AUTO 17004KT CAVOK 25/16 Q1017",
      "taf": "TAF LFLS 131400Z 1315/1415 21008KT CAVOK"
    },
    {
      "icao": "LFMN",
      "alert": "OK",
      "vis_m": 9999,
      "fzfg": false,
      "metar_trigger": false,
      "taf_trigger": false,
      "metar": "METAR LFMN 132300Z 05004KT CAVOK 27/18 Q1016 NOSIG",
      "taf": "TAF LFMN 132000Z 1321/1503 VRB03KT CAVOK"
    },
    {
      "icao": "LFOB",
      "alert": "OK",
      "vis_m": 9999,
      "fzfg": false,
      "metar_trigger": false,
      "taf_trigger": false,
      "metar": "METAR LFOB 132300Z AUTO 35005KT 310V020 CAVOK 22/17 Q1017 NOSIG",
      "taf": "TAF LFOB 131700Z 1318/1418 04015G25KT CAVOK"
    },
    {
      "icao": "LFPO",
      "alert": "OK",
      "vis_m": 9999,
      "fzfg": false,
      "metar_trigger": false,
      "taf_trigger": false,
      "metar": "METAR LFPO 132300Z AUTO 05014KT 9999 ///TCU 27/16 Q1015 BECMG NSC",
      "taf": "TAF LFPO 132300Z 1400/1506 02008KT CAVOK"
    },
    {
      "icao": "LFSB",
      "alert": "OK",
      "vis_m": 9999,
      "fzfg": false,
      "metar_trigger": false,
      "taf_trigger": false,
      "metar": "METAR LFSB 132300Z AUTO 23001KT CAVOK 22/14 Q1015 TEMPO VRB20G35KT 2000 TSRA SCT090CB",
      "taf": "TAF LFSB 132300Z 1400/1424 VRB04KT CAVOK"
    },
    {
      "icao": "LGAV",
      "alert": "OK",
      "vis_m": 9999,
      "fzfg": false,
      "metar_trigger": false,
      "taf_trigger": false,
      "metar": "METAR LGAV 132320Z 00000KT 9999 FEW025 24/15 Q1013 NOSIG",
      "taf": "TAF LGAV 132300Z 1400/1424 VRB05KT 9999 FEW025"
    },
    {
      "icao": "LGTS",
      "alert": "OK",
      "vis_m": 9999,
      "fzfg": false,
      "metar_trigger": false,
      "taf_trigger": false,
      "metar": "METAR LGTS 132320Z 03005KT 9999 FEW025 27/13 Q1015 NOSIG",
      "taf": "TAF LGTS 132300Z 1400/1424 33015KT 9999 FEW030"
    },
    {
      "icao": "LHBP",
      "alert": "OK",
      "vis_m": 9999,
      "fzfg": false,
      "metar_trigger": false,
      "taf_trigger": false,
      "metar": "METAR LHBP 132330Z 08003KT CAVOK 19/12 Q1018 NOSIG",
      "taf": "TAF LHBP 132315Z 1400/1424 VRB03KT CAVOK"
    },
    {
      "icao": "LHDC",
      "alert": "OK",
      "vis_m": 9999,
      "fzfg": false,
      "metar_trigger": false,
      "taf_trigger": false,
      "metar": "METAR LHDC 132245Z AUTO 31004KT CAVOK 19/14 Q1018",
      "taf": "TAF LHDC 131415Z 1315/1324 02009KT CAVOK"
    },
    {
      "icao": "LIBD",
      "alert": "OK",
      "vis_m": 9999,
      "fzfg": false,
      "metar_trigger": false,
      "taf_trigger": false,
      "metar": "METAR LIBD 132320Z 27005KT CAVOK 24/12 Q1017",
      "taf": "TAF LIBD 132300Z 1400/1424 VRB05KT CAVOK"
    },
    {
      "icao": "LIBG",
      "alert": "OK",
      "vis_m": 9999,
      "fzfg": false,
      "metar_trigger": false,
      "taf_trigger": false,
      "metar": "METAR LIBG 132320Z AUTO 33005KT 9999 NCD 24/14 Q1016",
      "taf": "TAF LIBG 132300Z 1400/1424 35010KT CAVOK"
    },
    {
      "icao": "LIBP",
      "alert": "OK",
      "vis_m": 9999,
      "fzfg": false,
      "metar_trigger": false,
      "taf_trigger": false,
      "metar": "METAR LIBP 132320Z AUTO 23004KT 9999 NCD 23/15 Q1017",
      "taf": "TAF LIBP 132300Z 1400/1424 VRB04KT CAVOK"
    },
    {
      "icao": "LIBR",
      "alert": "OK",
      "vis_m": 9999,
      "fzfg": false,
      "metar_trigger": false,
      "taf_trigger": false,
      "metar": "METAR LIBR 132320Z 32010KT CAVOK 26/21 Q1016",
      "taf": "TAF LIBR 132300Z 1400/1424 34012KT CAVOK"
    },
    {
      "icao": "LICA",
      "alert": "OK",
      "vis_m": 9999,
      "fzfg": false,
      "metar_trigger": false,
      "taf_trigger": false,
      "metar": "METAR LICA 132320Z AUTO VRB01KT 9999 NCD 24/21 Q1018",
      "taf": "TAF LICA 132300Z 1400/1424 VRB05KT CAVOK"
    },
    {
      "icao": "LICC",
      "alert": "OK",
      "vis_m": 9999,
      "fzfg": false,
      "metar_trigger": false,
      "taf_trigger": false,
      "metar": "METAR LICC 132320Z 27004KT CAVOK 24/17 Q1018",
      "taf": "TAF LICC 132300Z 1400/1424 26008KT CAVOK"
    },
    {
      "icao": "LICJ",
      "alert": "OK",
      "vis_m": 9999,
      "fzfg": false,
      "metar_trigger": false,
      "taf_trigger": false,
      "metar": "METAR LICJ 132320Z 21002KT CAVOK 26/21 Q1017",
      "taf": "TAF LICJ 132300Z 1400/1424 VRB05KT CAVOK"
    },
    {
      "icao": "LIMC",
      "alert": "OK",
      "vis_m": 9999,
      "fzfg": false,
      "metar_trigger": false,
      "taf_trigger": false,
      "metar": "METAR LIMC 132320Z 03003KT 9999 SCT065 24/19 Q1017 NOSIG",
      "taf": "TAF LIMC 132300Z 1400/1506 02005KT 9999 FEW060"
    },
    {
      "icao": "LIME",
      "alert": "OK",
      "vis_m": 9999,
      "fzfg": false,
      "metar_trigger": false,
      "taf_trigger": false,
      "metar": "METAR LIME 132320Z 01003KT 9999 FEW060 26/19 Q1018 NOSIG",
      "taf": "TAF LIME 132300Z 1400/1424 VRB05KT 9999 FEW060"
    },
    {
      "icao": "LIMF",
      "alert": "OK",
      "vis_m": 9999,
      "fzfg": false,
      "metar_trigger": false,
      "taf_trigger": false,
      "metar": "METAR LIMF 132320Z 34004KT 9999 FEW070 26/20 Q1018",
      "taf": "TAF LIMF 132300Z 1400/1424 VRB05KT 9999 SCT060"
    },
    {
      "icao": "LIMJ",
      "alert": "OK",
      "vis_m": 9999,
      "fzfg": false,
      "metar_trigger": false,
      "taf_trigger": false,
      "metar": "METAR LIMJ 132320Z 06003KT CAVOK 27/19 Q1016",
      "taf": "TAF LIMJ 132300Z 1400/1424 04005KT 9999 FEW030"
    },
    {
      "icao": "LIPE",
      "alert": "OK",
      "vis_m": 9999,
      "fzfg": false,
      "metar_trigger": false,
      "taf_trigger": false,
      "metar": "METAR LIPE 132320Z VRB02KT CAVOK 26/18 Q1016",
      "taf": "TAF LIPE 132300Z 1400/1424 VRB04KT CAVOK"
    },
    {
      "icao": "LIPH",
      "alert": "OK",
      "vis_m": 9999,
      "fzfg": false,
      "metar_trigger": false,
      "taf_trigger": false,
      "metar": "METAR LIPH 132320Z AUTO VRB01KT 9999 SCT210/// 25/21 Q1017",
      "taf": "TAF LIPH 132300Z 1400/1424 VRB05KT CAVOK"
    },
    {
      "icao": "LIPQ",
      "alert": "OK",
      "vis_m": 9999,
      "fzfg": false,
      "metar_trigger": false,
      "taf_trigger": false,
      "metar": "METAR LIPQ 132320Z AUTO 10006KT 060V120 9999 -RA BKN085/// BKN170/// 23/21 Q1017",
      "taf": "TAF LIPQ 132300Z 1400/1424 VRB05KT CAVOK"
    },
    {
      "icao": "LIPR",
      "alert": "OK",
      "vis_m": 9999,
      "fzfg": false,
      "metar_trigger": false,
      "taf_trigger": false,
      "metar": "METAR LIPR 132320Z AUTO VRB01KT 9999 NCD 24/18 Q1016",
      "taf": "TAF LIPR 132300Z 1400/1424 VRB05KT CAVOK"
    },
    {
      "icao": "LIPX",
      "alert": "OK",
      "vis_m": 9999,
      "fzfg": false,
      "metar_trigger": false,
      "taf_trigger": false,
      "metar": "METAR LIPX 132320Z 08004KT CAVOK 27/17 Q1017",
      "taf": "TAF LIPX 132300Z 1400/1424 VRB06KT 9999 FEW060"
    },
    {
      "icao": "LIPY",
      "alert": "OK",
      "vis_m": 9999,
      "fzfg": false,
      "metar_trigger": false,
      "taf_trigger": false,
      "metar": "METAR LIPY 132320Z AUTO 22004KT 9999 NCD 24/14 Q1016",
      "taf": "TAF LIPY 132300Z 1400/1424 VRB05KT CAVOK"
    },
    {
      "icao": "LIPZ",
      "alert": "OK",
      "vis_m": 9999,
      "fzfg": false,
      "metar_trigger": false,
      "taf_trigger": false,
      "metar": "METAR LIPZ 132320Z VRB02KT CAVOK 26/21 Q1017 NOSIG",
      "taf": "TAF LIPZ 132300Z 1400/1506 VRB05KT CAVOK"
    },
    {
      "icao": "LIRF",
      "alert": "OK",
      "vis_m": 9999,
      "fzfg": false,
      "metar_trigger": false,
      "taf_trigger": false,
      "metar": "METAR LIRF 132320Z 12004KT CAVOK 25/23 Q1017 NOSIG",
      "taf": "TAF LIRF 132300Z 1400/1506 VRB05KT CAVOK"
    },
    {
      "icao": "LIRN",
      "alert": "OK",
      "vis_m": 9999,
      "fzfg": false,
      "metar_trigger": false,
      "taf_trigger": false,
      "metar": "METAR LIRN 132320Z 27003KT CAVOK 27/17 Q1018 NOSIG",
      "taf": "TAF LIRN 132300Z 1400/1424 VRB05KT CAVOK"
    },
    {
      "icao": "LIRP",
      "alert": "OK",
      "vis_m": 9999,
      "fzfg": false,
      "metar_trigger": false,
      "taf_trigger": false,
      "metar": "METAR LIRP 132315Z 10002KT CAVOK 24/21 Q1017 NOSIG",
      "taf": "TAF LIRP 132300Z 1400/1424 VRB03KT CAVOK"
    },
    {
      "icao": "LIRZ",
      "alert": "OK",
      "vis_m": 9999,
      "fzfg": false,
      "metar_trigger": false,
      "taf_trigger": false,
      "metar": "METAR LIRZ 132320Z AUTO 03004KT 360V080 9999 NCD 25/18 Q1018",
      "taf": "TAF LIRZ 132300Z 1400/1424 VRB05KT CAVOK"
    },
    {
      "icao": "LJLJ",
      "alert": "OK",
      "vis_m": 9999,
      "fzfg": false,
      "metar_trigger": false,
      "taf_trigger": false,
      "metar": "METAR LJLJ 132230Z VRB02KT CAVOK 21/18 Q1019 NOSIG",
      "taf": "TAF LJLJ 132300Z 1400/1500 VRB02KT 9999 FEW065"
    },
    {
      "icao": "LKMT",
      "alert": "OK",
      "vis_m": 9999,
      "fzfg": false,
      "metar_trigger": false,
      "taf_trigger": false,
      "metar": "METAR LKMT 132300Z 33001KT CAVOK 17/17 Q1019 NOSIG",
      "taf": "TAF LKMT 132300Z 1400/1424 VRB02KT CAVOK"
    },
    {
      "icao": "LKPR",
      "alert": "OK",
      "vis_m": 9999,
      "fzfg": false,
      "metar_trigger": false,
      "taf_trigger": false,
      "metar": "METAR LKPR 132300Z 06008KT CAVOK 20/14 Q1019 NOSIG",
      "taf": "TAF LKPR 132300Z 1400/1506 07005KT CAVOK"
    },
    {
      "icao": "LLBG",
      "alert": "OK",
      "vis_m": 9999,
      "fzfg": false,
      "metar_trigger": false,
      "taf_trigger": false,
      "metar": "METAR LLBG 132320Z 14006KT 9999 FEW023 25/22 Q1007 NOSIG",
      "taf": "TAF LLBG 132304Z 1400/1424 VRB04KT 9999 FEW020 TX31/1411Z TN23/1403Z"
    },
    {
      "icao": "LMML",
      "alert": "OK",
      "vis_m": 9999,
      "fzfg": false,
      "metar_trigger": false,
      "taf_trigger": false,
      "metar": "METAR LMML 132315Z 01003KT CAVOK 25/23 Q1018 NOSIG",
      "taf": "TAF LMML 132300Z 1400/1424 VRB04KT CAVOK"
    },
    {
      "icao": "LOWW",
      "alert": "OK",
      "vis_m": 9999,
      "fzfg": false,
      "metar_trigger": false,
      "taf_trigger": false,
      "metar": "METAR LOWW 132320Z 17004KT CAVOK 19/13 Q1018 NOSIG",
      "taf": "TAF LOWW 132315Z 1400/1506 VRB03KT 9999 FEW050 TX31/1414Z TN18/1403Z"
    },
    {
      "icao": "LPFR",
      "alert": "OK",
      "vis_m": 9999,
      "fzfg": false,
      "metar_trigger": false,
      "taf_trigger": false,
      "metar": "METAR LPFR 132300Z 32008KT CAVOK 22/16 Q1015",
      "taf": "TAF LPFR 132300Z 1400/1424 31007KT CAVOK"
    },
    {
      "icao": "LPMA",
      "alert": "OK",
      "vis_m": 9999,
      "fzfg": false,
      "metar_trigger": false,
      "taf_trigger": false,
      "metar": "METAR LPMA 132300Z 32004KT 290V350 9999 FEW015 21/17 Q1018",
      "taf": "TAF LPMA 132300Z 1400/1424 VRB05KT 9999 SCT015"
    },
    {
      "icao": "LPPR",
      "alert": "OK",
      "vis_m": 9999,
      "fzfg": false,
      "metar_trigger": false,
      "taf_trigger": false,
      "metar": "METAR LPPR 132300Z 00000KT 9999 FEW048 18/17 Q1017",
      "taf": "TAF LPPR 132300Z 1400/1424 VRB02KT 9999 SCT020"
    },
    {
      "icao": "LPPS",
      "alert": "OK",
      "vis_m": 9999,
      "fzfg": false,
      "metar_trigger": false,
      "taf_trigger": false,
      "metar": "METAR LPPS 132300Z 29004KT 9999 FEW014 21/17 Q1018",
      "taf": "TAF LPPS 132300Z 1400/1506 VRB05KT 9999 FEW015 SCT030"
    },
    {
      "icao": "LPPT",
      "alert": "OK",
      "vis_m": 9999,
      "fzfg": false,
      "metar_trigger": false,
      "taf_trigger": false,
      "metar": "METAR LPPT 132300Z 30007KT CAVOK 20/15 Q1016 NOSIG",
      "taf": "TAF LPPT 132300Z 1400/1506 31010KT 9999 FEW025"
    },
    {
      "icao": "LQBK",
      "alert": "OK",
      "vis_m": 9999,
      "fzfg": false,
      "metar_trigger": false,
      "taf_trigger": false,
      "metar": "METAR LQBK 132300Z 14002KT CAVOK 18/14 Q1018 NOSIG",
      "taf": "TAF LQBK 132300Z 1400/1424 16005KT CAVOK TX33/1414Z TN16/1404Z"
    },
    {
      "icao": "LQSA",
      "alert": "OK",
      "vis_m": 9999,
      "fzfg": false,
      "metar_trigger": false,
      "taf_trigger": false,
      "metar": "METAR LQSA 132300Z 00000KT CAVOK 16/14 Q1020",
      "taf": "TAF LQSA 132300Z 1400/1424 VRB02KT CAVOK TX31/1413Z TN13/1403Z"
    },
    {
      "icao": "LQTZ",
      "alert": "OK",
      "vis_m": 9999,
      "fzfg": false,
      "metar_trigger": false,
      "taf_trigger": false,
      "metar": "METAR LQTZ 132300Z VRB02KT CAVOK 15/15 Q1019",
      "taf": "TAF LQTZ 132300Z 1400/1424 27006KT 9999 SCT050 TX33/1414Z TN13/1403Z"
    },
    {
      "icao": "LRBC",
      "alert": "OK",
      "vis_m": 9999,
      "fzfg": false,
      "metar_trigger": false,
      "taf_trigger": false,
      "metar": "METAR LRBC 132300Z AUTO 23001KT 9999 FEW091/// 15/14 Q1015",
      "taf": "TAF LRBC 132300Z 1400/1409 VRB04KT CAVOK"
    },
    {
      "icao": "LRBS",
      "alert": "OK",
      "vis_m": 9999,
      "fzfg": false,
      "metar_trigger": false,
      "taf_trigger": false,
      "metar": "METAR LRBS 132300Z 27003KT CAVOK 17/14 Q1016 NOSIG",
      "taf": "TAF LRBS 132300Z 1400/1424 VRB04KT CAVOK"
    },
    {
      "icao": "LRBV",
      "alert": "OK",
      "vis_m": 9999,
      "fzfg": false,
      "metar_trigger": false,
      "taf_trigger": false,
      "metar": "METAR LRBV 132300Z AUTO 22005KT 9999 BKN049/// 14/13 Q1018",
      "taf": "TAF LRBV 131700Z 1318/1403 VRB04KT 9999 SCT040 SCT060"
    },
    {
      "icao": "LRCL",
      "alert": "OK",
      "vis_m": 9999,
      "fzfg": false,
      "metar_trigger": false,
      "taf_trigger": false,
      "metar": "METAR LRCL 132300Z 28006KT 240V310 CAVOK 19/12 Q1017",
      "taf": "TAF LRCL 132300Z 1400/1409 27007KT 9999 SCT045"
    },
    {
      "icao": "LRCV",
      "alert": "OK",
      "vis_m": 9999,
      "fzfg": false,
      "metar_trigger": false,
      "taf_trigger": false,
      "metar": "METAR LRCV 132300Z 09001KT CAVOK 15/15 Q1017",
      "taf": "TAF LRCV 132300Z 1400/1409 VRB04KT CAVOK"
    },
    {
      "icao": "LRIA",
      "alert": "OK",
      "vis_m": 9999,
      "fzfg": false,
      "metar_trigger": false,
      "taf_trigger": false,
      "metar": "METAR LRIA 132300Z 30005KT CAVOK 17/14 Q1015",
      "taf": "TAF LRIA 132300Z 1400/1409 VRB04KT CAVOK"
    },
    {
      "icao": "LROP",
      "alert": "OK",
      "vis_m": 9999,
      "fzfg": false,
      "metar_trigger": false,
      "taf_trigger": false,
      "metar": "METAR LROP 132300Z 00000KT CAVOK 17/15 Q1016 NOSIG",
      "taf": "TAF LROP 132300Z 1400/1424 VRB04KT CAVOK"
    },
    {
      "icao": "LRSB",
      "alert": "OK",
      "vis_m": 9999,
      "fzfg": false,
      "metar_trigger": false,
      "taf_trigger": false,
      "metar": "METAR LRSB 132300Z VRB01KT CAVOK 15/12 Q1018",
      "taf": "TAF LRSB 132300Z 1400/1424 VRB04KT 9999 SCT050"
    },
    {
      "icao": "LRSM",
      "alert": "OK",
      "vis_m": 9999,
      "fzfg": false,
      "metar_trigger": false,
      "taf_trigger": false,
      "metar": "METAR LRSM 132300Z AUTO 32004KT 9999 FEW095/// OVC130/// 18/15 Q1017",
      "taf": "TAF LRSM 131400Z 1315/1324 30007KT CAVOK"
    },
    {
      "icao": "LRSV",
      "alert": "OK",
      "vis_m": 9999,
      "fzfg": false,
      "metar_trigger": false,
      "taf_trigger": false,
      "metar": "METAR LRSV 132300Z 27009KT 9999 BKN012 17/15 Q1016",
      "taf": "TAF LRSV 132300Z 1400/1409 32010KT 9999 BKN015 OVC040"
    },
    {
      "icao": "LRTM",
      "alert": "OK",
      "vis_m": 9999,
      "fzfg": false,
      "metar_trigger": false,
      "taf_trigger": false,
      "metar": "METAR LRTM 132300Z 23007KT 9999 -RA NSC 18/15 Q1016",
      "taf": "TAF LRTM 132300Z 1400/1409 24008KT 9999 SCT045"
    },
    {
      "icao": "LRTR",
      "alert": "OK",
      "vis_m": 9999,
      "fzfg": false,
      "metar_trigger": false,
      "taf_trigger": false,
      "metar": "METAR LRTR 132300Z 34003KT CAVOK 17/11 Q1017 NOSIG",
      "taf": "TAF LRTR 132300Z 1400/1424 35006KT CAVOK"
    },
    {
      "icao": "LTAC",
      "alert": "OK",
      "vis_m": 9999,
      "fzfg": false,
      "metar_trigger": false,
      "taf_trigger": false,
      "metar": "METAR LTAC 132320Z 04003KT CAVOK 18/12 Q1013 NOSIG RMK RWY21C 02002KT RWY03L 04003KT RWY21R 00000KT RWY03R 00000KT RWY21L 02005KT",
      "taf": "TAF LTAC 132240Z 1400/1424 VRB02KT CAVOK"
    },
    {
      "icao": "LTFM",
      "alert": "OK",
      "vis_m": 9999,
      "fzfg": false,
      "metar_trigger": false,
      "taf_trigger": false,
      "metar": "METAR LTFM 132320Z 21006KT 9999 VCTS SCT013 FEW018CB BKN025 21/16 Q1013 NOSIG RMK RWY17L 26004G14KT RWY34L 21004KT 180V250 RWY16R 27004KT 230V320 RWY36 12008KT 050V150 RWY18 VRB03KT",
      "taf": "TAF LTFM 132240Z 1400/1506 35006KT 9999 -SHRA SCT015 BKN020"
    },
    {
      "icao": "LUKK",
      "alert": "OK",
      "vis_m": 9999,
      "fzfg": false,
      "metar_trigger": false,
      "taf_trigger": false,
      "metar": "METAR LUKK 132300Z 27004KT CAVOK 16/14 Q1014 NOSIG",
      "taf": "TAF LUKK 132318Z 1400/1424 30009KT CAVOK"
    },
    {
      "icao": "LWOH",
      "alert": "OK",
      "vis_m": null,
      "fzfg": false,
      "metar_trigger": false,
      "taf_trigger": false,
      "metar": "",
      "taf": "TAF LWOH 132310Z 1400/1424 35006KT CAVOK"
    },
    {
      "icao": "LWSK",
      "alert": "OK",
      "vis_m": 9999,
      "fzfg": false,
      "metar_trigger": false,
      "taf_trigger": false,
      "metar": "METAR LWSK 132320Z 18004KT 140V220 CAVOK 18/13 Q1018 NOSIG",
      "taf": "TAF LWSK 132310Z 1400/1424 VRB02KT CAVOK"
    },
    {
      "icao": "LYBE",
      "alert": "OK",
      "vis_m": 9999,
      "fzfg": false,
      "metar_trigger": false,
      "taf_trigger": false,
      "metar": "METAR LYBE 132300Z VRB02KT CAVOK 19/14 Q1018 NOSIG",
      "taf": "TAF LYBE 132300Z 1400/1424 03004KT CAVOK TX31/1414Z TN16/1403Z"
    },
    {
      "icao": "LYNI",
      "alert": "OK",
      "vis_m": 9999,
      "fzfg": false,
      "metar_trigger": false,
      "taf_trigger": false,
      "metar": "METAR LYNI 132300Z 09005KT CAVOK 18/13 Q1018 NOSIG",
      "taf": "TAF LYNI 132300Z 1400/1424 33006KT CAVOK TX30/1414Z TN14/1403Z"
    },
    {
      "icao": "LYPG",
      "alert": "OK",
      "vis_m": 9999,
      "fzfg": false,
      "metar_trigger": false,
      "taf_trigger": false,
      "metar": "METAR LYPG 132300Z 32008KT CAVOK 25/11 Q1016 NOSIG",
      "taf": "TAF LYPG 132300Z 1400/1424 36009KT CAVOK TX36/1415Z TN23/1403Z"
    },
    {
      "icao": "LZIB",
      "alert": "OK",
      "vis_m": 9999,
      "fzfg": false,
      "metar_trigger": false,
      "taf_trigger": false,
      "metar": "METAR LZIB 132330Z VRB01KT CAVOK 20/15 Q1018 NOSIG",
      "taf": "TAF LZIB 132315Z 1400/1500 VRB02KT CAVOK"
    },
    {
      "icao": "LZKZ",
      "alert": "OK",
      "vis_m": 9999,
      "fzfg": false,
      "metar_trigger": false,
      "taf_trigger": false,
      "metar": "METAR LZKZ 132330Z 35004KT CAVOK 17/15 Q1018 NOSIG",
      "taf": "TAF LZKZ 132315Z 1400/1500 36005KT CAVOK"
    },
    {
      "icao": "LZTT",
      "alert": "OK",
      "vis_m": 9999,
      "fzfg": false,
      "metar_trigger": false,
      "taf_trigger": false,
      "metar": "METAR LZTT 132330Z VRB03KT CAVOK 13/13 Q1020",
      "taf": "TAF LZTT 132315Z 1400/1500 VRB02KT 9999 FEW060"
    },
    {
      "icao": "OEJN",
      "alert": "OK",
      "vis_m": 9999,
      "fzfg": false,
      "metar_trigger": false,
      "taf_trigger": false,
      "metar": "METAR OEJN 132300Z 25002KT CAVOK 32/21 Q1002 NOSIG",
      "taf": "TAF OEJN 132300Z 1400/1506 VRB03KT 9999 FEW040"
    },
    {
      "icao": "OEMA",
      "alert": "OK",
      "vis_m": 9999,
      "fzfg": false,
      "metar_trigger": false,
      "taf_trigger": false,
      "metar": "METAR OEMA 132300Z VRB03KT CAVOK 36/08 Q1007 NOSIG",
      "taf": "TAF OEMA 132300Z 1400/1506 VRB03KT CAVOK"
    },
    {
      "icao": "OJAI",
      "alert": "OK",
      "vis_m": 5000,
      "fzfg": false,
      "metar_trigger": false,
      "taf_trigger": false,
      "metar": "METAR OJAI 132300Z 23003KT 5000 HZ NSC 20/12 Q1011 NOSIG",
      "taf": "TAF OJAI 132250Z 1400/1506 VRB02KT 6000 NSC"
    },
    {
      "icao": "OMAA",
      "alert": "OK",
      "vis_m": 9999,
      "fzfg": false,
      "metar_trigger": false,
      "taf_trigger": false,
      "metar": "METAR OMAA 132300Z 20003KT CAVOK 32/24 Q0996 NOSIG",
      "taf": "TAF OMAA 132300Z 1400/1506 18005KT 8000 NSC"
    },
    {
      "icao": "OMDB",
      "alert": "OK",
      "vis_m": 9999,
      "fzfg": false,
      "metar_trigger": false,
      "taf_trigger": false,
      "metar": "METAR OMDB 132300Z 19004KT CAVOK 34/24 Q0996 NOSIG",
      "taf": "TAF OMDB 132300Z 1400/1506 20005KT 8000 NSC"
    },
    {
      "icao": "UAAA",
      "alert": "OK",
      "vis_m": 9999,
      "fzfg": false,
      "metar_trigger": false,
      "taf_trigger": false,
      "metar": "METAR UAAA 132300Z 14002MPS 9999 FEW050CB BKN100 23/14 Q1008 NOSIG",
      "taf": "TAF UAAA 132301Z 1400/1424 35003MPS 9999 FEW050CB SCT100 TX33/1410Z TN22/1401Z"
    },
    {
      "icao": "UBBB",
      "alert": "OK",
      "vis_m": 9999,
      "fzfg": false,
      "metar_trigger": false,
      "taf_trigger": false,
      "metar": "METAR UBBB 132330Z 31006KT CAVOK 23/20 Q1007 NOSIG",
      "taf": "TAF UBBB 132256Z 1400/1424 32008KT CAVOK TX33/1410Z TN23/1401Z"
    },
    {
      "icao": "UDSG",
      "alert": "OK",
      "vis_m": 9999,
      "fzfg": false,
      "metar_trigger": false,
      "taf_trigger": false,
      "metar": "METAR UDSG 132300Z 09007KT 9999 FEW049 20/15 Q1015 NOSIG",
      "taf": "TAF UDSG 132258Z 1400/1424 VRB06KT 9999 FEW050"
    },
    {
      "icao": "UDYZ",
      "alert": "OK",
      "vis_m": 9999,
      "fzfg": false,
      "metar_trigger": false,
      "taf_trigger": false,
      "metar": "METAR UDYZ 132300Z 06006KT 9999 NSC 26/16 Q1008 NOSIG",
      "taf": "TAF UDYZ 132300Z 1400/1424 04006KT 9999 FEW040"
    },
    {
      "icao": "UGKO",
      "alert": "OK",
      "vis_m": 6000,
      "fzfg": false,
      "metar_trigger": false,
      "taf_trigger": false,
      "metar": "METAR UGKO 132300Z 22004KT 6000 -RA SCT013 BKN019 21/20 Q1009 NOSIG",
      "taf": "TAF UGKO 132300Z 1400/1424 26007KT 9999 SCT020 BKN040 TX26/1411Z TN20/1402Z"
    }
  ]
}