{
  "ts_utc": "2026-06-07T09:51:11Z",
  "threshold_m": 150,
  "source": "stations_override.txt (ICAO list) + aviationweather.gov (METAR/TAF raw)",
  "station_count": 159,
  "stations": [
    {
      "icao": "BIKF",
      "alert": "OK",
      "vis_m": 9999,
      "fzfg": false,
      "metar_trigger": false,
      "taf_trigger": false,
      "metar": "METAR BIKF 070930Z 09013KT 9999 FEW025CB 10/05 Q0998",
      "taf": "TAF BIKF 070737Z 0709/0809 10008KT 9999 SCT020 BKN037 TX12/0714Z TN08/0805Z"
    },
    {
      "icao": "BKPR",
      "alert": "OK",
      "vis_m": 9999,
      "fzfg": false,
      "metar_trigger": false,
      "taf_trigger": false,
      "metar": "METAR BKPR 070930Z 02008KT 330V050 9999 FEW040 24/15 Q1021 NOSIG",
      "taf": "TAF BKPR 070530Z 0706/0806 36008KT 9999 FEW050"
    },
    {
      "icao": "EBCI",
      "alert": "OK",
      "vis_m": 9999,
      "fzfg": false,
      "metar_trigger": false,
      "taf_trigger": false,
      "metar": "METAR EBCI 070920Z 26012KT 9999 FEW031 BKN035 14/08 Q1024 NOSIG",
      "taf": "TAF EBCI 070500Z 0706/0812 22012KT 9999 FEW025 SCT040"
    },
    {
      "icao": "EDDB",
      "alert": "OK",
      "vis_m": 9999,
      "fzfg": false,
      "metar_trigger": false,
      "taf_trigger": false,
      "metar": "METAR EDDB 070920Z AUTO 26011KT 9999 FEW036 SCT046 20/11 Q1019 NOSIG",
      "taf": "TAF EDDB 070500Z 0706/0806 26008KT CAVOK"
    },
    {
      "icao": "EDDH",
      "alert": "OK",
      "vis_m": 3600,
      "fzfg": false,
      "metar_trigger": false,
      "taf_trigger": false,
      "metar": "METAR EDDH 070920Z AUTO 21013KT 3600 -RADZ BR BKN009 BKN014 OVC020 14/13 Q1017 BECMG 9999 BKN015",
      "taf": ""
    },
    {
      "icao": "EDDK",
      "alert": "OK",
      "vis_m": 9999,
      "fzfg": false,
      "metar_trigger": false,
      "taf_trigger": false,
      "metar": "METAR EDDK 070920Z AUTO 25009KT 200V280 9999 OVC038 17/10 Q1023 NOSIG",
      "taf": "TAF EDDK 070500Z 0706/0812 25010KT 9999 SCT045"
    },
    {
      "icao": "EDDN",
      "alert": "OK",
      "vis_m": 9999,
      "fzfg": false,
      "metar_trigger": false,
      "taf_trigger": false,
      "metar": "METAR EDDN 070920Z AUTO 27012KT 240V300 CAVOK 19/09 Q1023 NOSIG",
      "taf": "TAF EDDN 070500Z 0706/0806 22004KT CAVOK"
    },
    {
      "icao": "EDDS",
      "alert": "OK",
      "vis_m": 9999,
      "fzfg": false,
      "metar_trigger": false,
      "taf_trigger": false,
      "metar": "METAR EDDS 070920Z AUTO 28012KT 240V310 CAVOK 21/08 Q1024 NOSIG",
      "taf": "TAF EDDS 070500Z 0706/0806 VRB03KT CAVOK"
    },
    {
      "icao": "EDFH",
      "alert": "OK",
      "vis_m": 9999,
      "fzfg": false,
      "metar_trigger": false,
      "taf_trigger": false,
      "metar": "METAR EDFH 070920Z 26012KT 230V300 9999 SCT027 14/09 Q1024",
      "taf": "TAF EDFH 070500Z 0706/0806 22005KT 9999 BKN025"
    },
    {
      "icao": "EDJA",
      "alert": "OK",
      "vis_m": 9999,
      "fzfg": false,
      "metar_trigger": false,
      "taf_trigger": false,
      "metar": "METAR EDJA 070920Z VRB06KT 9999 FEW031 BKN037 BKN059 18/10 Q1023",
      "taf": "TAF EDJA 070800Z 0709/0718 25008KT 9999 SCT040"
    },
    {
      "icao": "EDLW",
      "alert": "OK",
      "vis_m": 9999,
      "fzfg": false,
      "metar_trigger": false,
      "taf_trigger": false,
      "metar": "METAR EDLW 070920Z 22015KT 9999 BKN023 BKN038 OVC048 15/10 Q1021",
      "taf": "TAF EDLW 070500Z 0706/0806 22013KT 9999 SCT040"
    },
    {
      "icao": "EDNY",
      "alert": "OK",
      "vis_m": 9999,
      "fzfg": false,
      "metar_trigger": false,
      "taf_trigger": false,
      "metar": "METAR EDNY 070920Z 28005KT 220V350 9999 SCT059 19/10 Q1025",
      "taf": "TAF EDNY 070800Z 0709/0718 24007KT 9999 SCT040"
    },
    {
      "icao": "EDSB",
      "alert": "OK",
      "vis_m": 9999,
      "fzfg": false,
      "metar_trigger": false,
      "taf_trigger": false,
      "metar": "METAR EDSB 070920Z 26005KT 230V310 CAVOK 19/08 Q1024",
      "taf": "TAF EDSB 070500Z 0706/0806 23006KT CAVOK"
    },
    {
      "icao": "EETN",
      "alert": "OK",
      "vis_m": 9999,
      "fzfg": false,
      "metar_trigger": false,
      "taf_trigger": false,
      "metar": "METAR EETN 070920Z 20007KT CAVOK 21/10 Q1018 NOSIG",
      "taf": "TAF EETN 070530Z 0706/0806 18008KT CAVOK"
    },
    {
      "icao": "EFTU",
      "alert": "OK",
      "vis_m": 9999,
      "fzfg": false,
      "metar_trigger": false,
      "taf_trigger": false,
      "metar": "METAR EFTU 070920Z AUTO 19009KT 150V220 CAVOK 17/11 Q1016",
      "taf": "TAF EFTU 070824Z 0709/0809 18009KT CAVOK"
    },
    {
      "icao": "EGBB",
      "alert": "OK",
      "vis_m": 9999,
      "fzfg": false,
      "metar_trigger": false,
      "taf_trigger": false,
      "metar": "METAR EGBB 070920Z 20009KT 170V230 9999 BKN018 15/11 Q1018",
      "taf": "TAF EGBB 070459Z 0706/0806 20008KT 9999 FEW015 SCT025"
    },
    {
      "icao": "EGGP",
      "alert": "OK",
      "vis_m": 9999,
      "fzfg": false,
      "metar_trigger": false,
      "taf_trigger": false,
      "metar": "METAR EGGP 070920Z 21006KT 160V270 9999 FEW038 15/09 Q1015",
      "taf": ""
    },
    {
      "icao": "EGGW",
      "alert": "OK",
      "vis_m": 9999,
      "fzfg": false,
      "metar_trigger": false,
      "taf_trigger": false,
      "metar": "METAR EGGW 070920Z AUTO 22010KT 190V250 9999 FEW018 OVC031 15/11 Q1019",
      "taf": ""
    },
    {
      "icao": "EGKK",
      "alert": "OK",
      "vis_m": 9999,
      "fzfg": false,
      "metar_trigger": false,
      "taf_trigger": false,
      "metar": "METAR EGKK 070920Z 22008KT 180V240 9999 FEW022 SCT030 15/11 Q1021",
      "taf": "TAF EGKK 070452Z 0706/0812 23009KT 9999 SCT020"
    },
    {
      "icao": "EGNM",
      "alert": "OK",
      "vis_m": 9999,
      "fzfg": false,
      "metar_trigger": false,
      "taf_trigger": false,
      "metar": "METAR EGNM 070920Z 23014KT 9999 SCT025 15/10 Q1014",
      "taf": "TAF EGNM 070455Z 0706/0806 23013KT 9999 SCT030"
    },
    {
      "icao": "EGPD",
      "alert": "OK",
      "vis_m": 9999,
      "fzfg": false,
      "metar_trigger": false,
      "taf_trigger": false,
      "metar": "METAR EGPD 070920Z COR AUTO 22013KT 9999 NCD 15/10 Q1008 NOSIG",
      "taf": "TAF EGPD 070456Z 0706/0806 14005KT 9999 FEW030"
    },
    {
      "icao": "EGPF",
      "alert": "OK",
      "vis_m": 9999,
      "fzfg": false,
      "metar_trigger": false,
      "taf_trigger": false,
      "metar": "METAR EGPF 070920Z 21015KT 9999 SCT022 BKN029 14/11 Q1009",
      "taf": "TAF EGPF 070453Z 0706/0806 21010KT 9999 BKN020"
    },
    {
      "icao": "EHBK",
      "alert": "OK",
      "vis_m": 9999,
      "fzfg": false,
      "metar_trigger": false,
      "taf_trigger": false,
      "metar": "METAR EHBK 070925Z AUTO 24012KT 200V290 9999 OVC022 15/09 Q1022 NOSIG",
      "taf": "TAF EHBK 070500Z 0706/0812 22012KT 9999 BKN030"
    },
    {
      "icao": "EHEH",
      "alert": "OK",
      "vis_m": 9999,
      "fzfg": false,
      "metar_trigger": false,
      "taf_trigger": false,
      "metar": "METAR EHEH 070925Z AUTO 23008KT 210V290 9999 OVC021 15/11 Q1021 WHT TEMPO BKN015 RMK TREND REMOTE BY EHWX",
      "taf": "TAF EHEH 070500Z 0706/0812 23012KT 9999 OVC020"
    },
    {
      "icao": "EKBI",
      "alert": "OK",
      "vis_m": 9999,
      "fzfg": false,
      "metar_trigger": false,
      "taf_trigger": false,
      "metar": "METAR EKBI 070920Z 19005KT 170V230 9999 -SHRA FEW011CB BKN040 14/13 Q1014",
      "taf": "TAF EKBI 070827Z 0709/0809 18005KT 9999 BKN045"
    },
    {
      "icao": "EKCH",
      "alert": "OK",
      "vis_m": 9999,
      "fzfg": false,
      "metar_trigger": false,
      "taf_trigger": false,
      "metar": "METAR EKCH 070920Z 20006KT 180V240 9999 FEW020CB BKN080 18/15 Q1016 NOSIG",
      "taf": "TAF EKCH 070827Z 0709/0809 18010KT 9999 FEW025"
    },
    {
      "icao": "ENAL",
      "alert": "OK",
      "vis_m": 9999,
      "fzfg": false,
      "metar_trigger": false,
      "taf_trigger": false,
      "metar": "METAR ENAL 070920Z 31007KT 280V350 9999 FEW030 15/08 Q1012",
      "taf": "TAF ENAL 070800Z 0709/0718 27007KT 9999 FEW030 SCT060"
    },
    {
      "icao": "ENBR",
      "alert": "OK",
      "vis_m": 9999,
      "fzfg": false,
      "metar_trigger": false,
      "taf_trigger": false,
      "metar": "METAR ENBR 070920Z 18005KT 140V210 CAVOK 15/10 Q1012 NOSIG RMK WIND 1200FT 15010KT",
      "taf": "TAF ENBR 070500Z 0706/0806 12005KT 9999 SCT050"
    },
    {
      "icao": "ENGM",
      "alert": "OK",
      "vis_m": 9999,
      "fzfg": false,
      "metar_trigger": false,
      "taf_trigger": false,
      "metar": "METAR ENGM 070920Z 20012KT 170V230 CAVOK 18/08 Q1013 NOSIG",
      "taf": "TAF ENGM 070500Z 0706/0806 20008KT 9999 BKN008"
    },
    {
      "icao": "ENHD",
      "alert": "OK",
      "vis_m": 9999,
      "fzfg": false,
      "metar_trigger": false,
      "taf_trigger": false,
      "metar": "METAR ENHD 070920Z 14010KT CAVOK 18/07 Q1012",
      "taf": "TAF ENHD 070800Z 0709/0718 12008KT 9999 FEW030"
    },
    {
      "icao": "ENTC",
      "alert": "OK",
      "vis_m": 9999,
      "fzfg": false,
      "metar_trigger": false,
      "taf_trigger": false,
      "metar": "METAR ENTC 070920Z 02014KT CAVOK 14/09 Q1015 NOSIG RMK WIND 2600FT 10013KT",
      "taf": "TAF ENTC 070500Z 0706/0806 02009KT 9999 SCT060"
    },
    {
      "icao": "ENTO",
      "alert": "OK",
      "vis_m": 9999,
      "fzfg": false,
      "metar_trigger": false,
      "taf_trigger": false,
      "metar": "METAR ENTO 070920Z 17004KT CAVOK 15/09 Q1014 NOSIG",
      "taf": "TAF ENTO 070500Z 0706/0806 19008KT CAVOK"
    },
    {
      "icao": "ENVA",
      "alert": "OK",
      "vis_m": 9999,
      "fzfg": false,
      "metar_trigger": false,
      "taf_trigger": false,
      "metar": "METAR ENVA 070920Z 30012KT CAVOK 14/09 Q1011 NOSIG RMK WIND 670FT 29011KT",
      "taf": "TAF ENVA 070500Z 0706/0806 VRB05KT CAVOK"
    },
    {
      "icao": "ENZV",
      "alert": "OK",
      "vis_m": 9999,
      "fzfg": false,
      "metar_trigger": false,
      "taf_trigger": false,
      "metar": "METAR ENZV 070920Z 17007KT 130V220 9999 SCT030 19/12 Q1012 NOSIG",
      "taf": "TAF ENZV 070500Z 0706/0806 12005KT 9999 FEW025 BKN050"
    },
    {
      "icao": "EPGD",
      "alert": "OK",
      "vis_m": 9999,
      "fzfg": false,
      "metar_trigger": false,
      "taf_trigger": false,
      "metar": "METAR EPGD 070930Z 18007KT 140V230 9999 FEW047 24/12 Q1017",
      "taf": "TAF EPGD 070530Z 0706/0806 18010KT CAVOK"
    },
    {
      "icao": "EPKK",
      "alert": "OK",
      "vis_m": 9999,
      "fzfg": false,
      "metar_trigger": false,
      "taf_trigger": false,
      "metar": "METAR EPKK 070930Z 20005KT 170V230 9999 FEW046 23/13 Q1020",
      "taf": "TAF EPKK 070830Z 0709/0809 VRB02KT CAVOK"
    },
    {
      "icao": "EPKT",
      "alert": "OK",
      "vis_m": 9999,
      "fzfg": false,
      "metar_trigger": false,
      "taf_trigger": false,
      "metar": "METAR EPKT 070930Z 24007KT 200V270 9999 FEW040 21/12 Q1020",
      "taf": "TAF EPKT 070530Z 0706/0806 VRB02KT CAVOK"
    },
    {
      "icao": "EPLB",
      "alert": "OK",
      "vis_m": 9999,
      "fzfg": false,
      "metar_trigger": false,
      "taf_trigger": false,
      "metar": "METAR EPLB 070930Z 10006KT 070V150 CAVOK 23/12 Q1020",
      "taf": "TAF EPLB 070530Z 0706/0806 VRB04KT CAVOK"
    },
    {
      "icao": "EPMO",
      "alert": "OK",
      "vis_m": 9999,
      "fzfg": false,
      "metar_trigger": false,
      "taf_trigger": false,
      "metar": "METAR EPMO 070930Z 22003KT 160V310 9999 SCT048CB 23/11 Q1019",
      "taf": ""
    },
    {
      "icao": "EPPO",
      "alert": "OK",
      "vis_m": 9999,
      "fzfg": false,
      "metar_trigger": false,
      "taf_trigger": false,
      "metar": "METAR EPPO 070930Z 27010KT 9999 FEW040 22/13 Q1018",
      "taf": "TAF EPPO 070530Z 0706/0806 18004KT CAVOK"
    },
    {
      "icao": "EPRA",
      "alert": "OK",
      "vis_m": 9999,
      "fzfg": false,
      "metar_trigger": false,
      "taf_trigger": false,
      "metar": "METAR EPRA 070930Z VRB03KT CAVOK 24/09 Q1019",
      "taf": "TAF EPRA 070830Z 0709/0718 VRB03KT CAVOK"
    },
    {
      "icao": "EPRZ",
      "alert": "OK",
      "vis_m": 9999,
      "fzfg": false,
      "metar_trigger": false,
      "taf_trigger": false,
      "metar": "METAR EPRZ 070930Z 21004KT 130V300 9999 SCT043 22/11 Q1020",
      "taf": "TAF EPRZ 070530Z 0706/0806 13004KT CAVOK"
    },
    {
      "icao": "EPSC",
      "alert": "OK",
      "vis_m": 9999,
      "fzfg": false,
      "metar_trigger": false,
      "taf_trigger": false,
      "metar": "METAR EPSC 070930Z 24008KT CAVOK 17/12 Q1018",
      "taf": "TAF EPSC 070530Z 0706/0806 24008KT CAVOK"
    },
    {
      "icao": "EPSY",
      "alert": "OK",
      "vis_m": 9999,
      "fzfg": false,
      "metar_trigger": false,
      "taf_trigger": false,
      "metar": "METAR EPSY 070930Z 18006G17KT 110V240 CAVOK 23/11 Q1019",
      "taf": "TAF EPSY 070830Z 0709/0718 VRB02KT CAVOK"
    },
    {
      "icao": "EPWA",
      "alert": "OK",
      "vis_m": 9999,
      "fzfg": false,
      "metar_trigger": false,
      "taf_trigger": false,
      "metar": "METAR EPWA 070930Z 27015KT 9999 -SHRA SCT050CB 19/08 Q1019 TEMPO 2000 TSRA",
      "taf": "TAF EPWA 070830Z 0709/0809 VRB05KT 9999 SCT045"
    },
    {
      "icao": "EPWR",
      "alert": "OK",
      "vis_m": 9999,
      "fzfg": false,
      "metar_trigger": false,
      "taf_trigger": false,
      "metar": "METAR EPWR 070930Z 27012KT 240V300 9999 SCT040 22/12 Q1019",
      "taf": "TAF EPWR 070830Z 0709/0809 28010KT CAVOK"
    },
    {
      "icao": "ESGG",
      "alert": "OK",
      "vis_m": 9999,
      "fzfg": false,
      "metar_trigger": false,
      "taf_trigger": false,
      "metar": "METAR ESGG 070920Z 13006KT 9999 FEW035 15/11 Q1015",
      "taf": "TAF ESGG 070830Z 0709/0809 15004KT CAVOK"
    },
    {
      "icao": "ESKN",
      "alert": "OK",
      "vis_m": 9999,
      "fzfg": false,
      "metar_trigger": false,
      "taf_trigger": false,
      "metar": "METAR ESKN 070920Z 19009KT 160V250 CAVOK 19/09 Q1016",
      "taf": "TAF ESKN 070830Z 0709/0809 20009KT CAVOK"
    },
    {
      "icao": "ESMS",
      "alert": "OK",
      "vis_m": 9999,
      "fzfg": false,
      "metar_trigger": false,
      "taf_trigger": false,
      "metar": "METAR ESMS 070920Z 22008KT 9999 FEW012 SCT030 17/16 Q1016",
      "taf": "TAF ESMS 070827Z 0709/0809 18006KT 9999 FEW025"
    },
    {
      "icao": "ESSA",
      "alert": "OK",
      "vis_m": 9999,
      "fzfg": false,
      "metar_trigger": false,
      "taf_trigger": false,
      "metar": "METAR ESSA 070920Z 23018KT CAVOK 18/07 Q1015 NOSIG",
      "taf": "TAF ESSA 070830Z 0709/0809 24014KT CAVOK"
    },
    {
      "icao": "EYKA",
      "alert": "OK",
      "vis_m": 9999,
      "fzfg": false,
      "metar_trigger": false,
      "taf_trigger": false,
      "metar": "METAR EYKA 070920Z VRB03KT CAVOK 22/12 Q1020",
      "taf": "TAF EYKA 070500Z 0706/0806 VRB03KT 9000 NSC"
    },
    {
      "icao": "EYPA",
      "alert": "OK",
      "vis_m": 9999,
      "fzfg": false,
      "metar_trigger": false,
      "taf_trigger": false,
      "metar": "METAR EYPA 070920Z 16007KT 120V190 9999 FEW038 23/13 Q1019",
      "taf": "TAF EYPA 070500Z 0706/0806 VRB03KT 9000 SCT040"
    },
    {
      "icao": "EYVI",
      "alert": "OK",
      "vis_m": 9999,
      "fzfg": false,
      "metar_trigger": false,
      "taf_trigger": false,
      "metar": "METAR EYVI 070920Z 35006KT 310V010 9999 FEW045 22/11 Q1020 NOSIG",
      "taf": "TAF EYVI 070500Z 0706/0806 VRB03KT 9000 SCT035"
    },
    {
      "icao": "GCFV",
      "alert": "OK",
      "vis_m": 9999,
      "fzfg": false,
      "metar_trigger": false,
      "taf_trigger": false,
      "metar": "METAR GCFV 070930Z 03016KT 9999 FEW017 SCT022 23/17 Q1019",
      "taf": "TAF GCFV 070800Z 0709/0809 35014KT 9999 FEW020 TX26/0714Z TN19/0806Z"
    },
    {
      "icao": "GCLP",
      "alert": "OK",
      "vis_m": 9999,
      "fzfg": false,
      "metar_trigger": false,
      "taf_trigger": false,
      "metar": "METAR GCLP 070930Z 36025KT 330V030 9999 SCT022 23/16 Q1019 NOSIG",
      "taf": "TAF GCLP 070800Z 0709/0809 01024KT 9999 FEW025 TX26/0714Z TN19/0806Z"
    },
    {
      "icao": "GCTS",
      "alert": "OK",
      "vis_m": 9999,
      "fzfg": false,
      "metar_trigger": false,
      "taf_trigger": false,
      "metar": "METAR GCTS 070930Z 08007KT 020V160 9999 FEW025 23/15 Q1020 NOSIG",
      "taf": "TAF GCTS 070800Z 0709/0809 VRB05KT 9999 FEW025 TX26/0714Z TN18/0806Z"
    },
    {
      "icao": "GMAD",
      "alert": "OK",
      "vis_m": 6000,
      "fzfg": false,
      "metar_trigger": false,
      "taf_trigger": false,
      "metar": "METAR GMAD 070930Z 23006KT 180V260 6000 SCT008 22/16 Q1015 NOSIG",
      "taf": "TAF GMAD 070500Z 0706/0812 22005KT 8000 BKN013"
    },
    {
      "icao": "GMMN",
      "alert": "OK",
      "vis_m": 9999,
      "fzfg": false,
      "metar_trigger": false,
      "taf_trigger": false,
      "metar": "METAR GMMN 070930Z 01008KT 310V070 9999 FEW015 26/19 Q1018 NOSIG",
      "taf": "TAF GMMN 070500Z 0706/0812 06003KT 9999 FEW010"
    },
    {
      "icao": "GMMX",
      "alert": "OK",
      "vis_m": 9999,
      "fzfg": false,
      "metar_trigger": false,
      "taf_trigger": false,
      "metar": "METAR GMMX 070930Z VRB04KT CAVOK 25/12 Q1017 NOSIG",
      "taf": "TAF GMMX 070500Z 0706/0812 26006KT CAVOK"
    },
    {
      "icao": "HEGN",
      "alert": "OK",
      "vis_m": 9999,
      "fzfg": false,
      "metar_trigger": false,
      "taf_trigger": false,
      "metar": "METAR HEGN 070900Z 36017KT CAVOK 31/14 Q1011 NOSIG",
      "taf": "TAF HEGN 070500Z 0706/0812 32010G20KT CAVOK"
    },
    {
      "icao": "HEMA",
      "alert": "OK",
      "vis_m": 9999,
      "fzfg": false,
      "metar_trigger": false,
      "taf_trigger": false,
      "metar": "METAR HEMA 070900Z 36016KT CAVOK 31/18 Q1011 NOSIG",
      "taf": "TAF HEMA 070500Z 0706/0812 33010G20KT CAVOK"
    },
    {
      "icao": "HESH",
      "alert": "OK",
      "vis_m": 9999,
      "fzfg": false,
      "metar_trigger": false,
      "taf_trigger": false,
      "metar": "METAR HESH 070900Z 01010KT CAVOK 33/16 Q1011 NOSIG",
      "taf": "TAF HESH 070500Z 0706/0812 36010G20KT CAVOK"
    },
    {
      "icao": "HESX",
      "alert": "OK",
      "vis_m": 9999,
      "fzfg": false,
      "metar_trigger": false,
      "taf_trigger": false,
      "metar": "METAR HESX 070900Z 10005KT CAVOK 27/14 Q1015 NOSIG",
      "taf": "TAF HESX 070500Z 0706/0812 35010KT CAVOK"
    },
    {
      "icao": "LATI",
      "alert": "OK",
      "vis_m": 9999,
      "fzfg": false,
      "metar_trigger": false,
      "taf_trigger": false,
      "metar": "METAR LATI 070950Z 34007KT 320V020 CAVOK 29/15 Q1019 NOSIG",
      "taf": "TAF LATI 070500Z 0706/0806 VRB04KT CAVOK TX32/0712Z TN16/0804Z"
    },
    {
      "icao": "LBPD",
      "alert": "OK",
      "vis_m": 9999,
      "fzfg": false,
      "metar_trigger": false,
      "taf_trigger": false,
      "metar": "METAR LBPD 070930Z AUTO 30005KT 260V010 9999 NCD 28/18 Q1018 NOSIG",
      "taf": "TAF LBPD 070500Z 0706/0806 VRB04KT 9999 SCT050"
    },
    {
      "icao": "LBSF",
      "alert": "OK",
      "vis_m": 9999,
      "fzfg": false,
      "metar_trigger": false,
      "taf_trigger": false,
      "metar": "METAR LBSF 070930Z 31008KT 9999 VCTS FEW036CB SCT064 24/16 Q1020 NOSIG",
      "taf": "TAF LBSF 070500Z 0706/0806 VRB04KT 9999 SCT050 SCT070"
    },
    {
      "icao": "LBWN",
      "alert": "OK",
      "vis_m": 9999,
      "fzfg": false,
      "metar_trigger": false,
      "taf_trigger": false,
      "metar": "METAR LBWN 070930Z 18005KT 130V240 9999 FEW020 SCT030 26/18 Q1017 NOSIG",
      "taf": "TAF LBWN 070500Z 0706/0806 VRB04KT 9999 SCT040"
    },
    {
      "icao": "LCLK",
      "alert": "OK",
      "vis_m": 9999,
      "fzfg": false,
      "metar_trigger": false,
      "taf_trigger": false,
      "metar": "METAR LCLK 070930Z 17011KT 140V200 9999 FEW030 27/20 Q1013 NOSIG",
      "taf": "TAF LCLK 070530Z 0706/0806 16006KT CAVOK"
    },
    {
      "icao": "LCPH",
      "alert": "OK",
      "vis_m": 9999,
      "fzfg": false,
      "metar_trigger": false,
      "taf_trigger": false,
      "metar": "METAR LCPH 070930Z 31015KT 9999 FEW020 26/21 Q1013 NOSIG",
      "taf": "TAF LCPH 070530Z 0706/0806 34008KT 9999 FEW018"
    },
    {
      "icao": "LEAL",
      "alert": "OK",
      "vis_m": 9999,
      "fzfg": false,
      "metar_trigger": false,
      "taf_trigger": false,
      "metar": "METAR LEAL 070930Z 09013KT 060V120 9999 FEW030 27/18 Q1022 NOSIG",
      "taf": "TAF LEAL 070500Z 0706/0806 07013KT 9999 SCT020 TX29/0712Z TN20/0706Z"
    },
    {
      "icao": "LEBB",
      "alert": "OK",
      "vis_m": 9999,
      "fzfg": false,
      "metar_trigger": false,
      "taf_trigger": false,
      "metar": "METAR LEBB 070930Z 07004KT 350V140 9999 FEW028 22/14 Q1022 NOSIG",
      "taf": "TAF LEBB 070500Z 0706/0806 08005KT CAVOK TX25/0714Z TN13/0706Z"
    },
    {
      "icao": "LEBL",
      "alert": "OK",
      "vis_m": 6000,
      "fzfg": false,
      "metar_trigger": false,
      "taf_trigger": false,
      "metar": "METAR LEBL 070930Z 17005KT 120V210 6000 FEW014 24/19 Q1024 NOSIG",
      "taf": "TAF LEBL 070500Z 0706/0806 34005KT 9999 FEW020 TX24/0712Z TN18/0706Z"
    },
    {
      "icao": "LECH",
      "alert": "OK",
      "vis_m": 9999,
      "fzfg": false,
      "metar_trigger": false,
      "taf_trigger": false,
      "metar": "METAR LECH 070930Z AUTO 13007KT 070V170 9999 SCT033 23/15 Q1025",
      "taf": "TAF LECH 070500Z 0706/0806 VRB04KT 9999 FEW020 TX28/0713Z TN16/0706Z"
    },
    {
      "icao": "LEMD",
      "alert": "OK",
      "vis_m": 9999,
      "fzfg": false,
      "metar_trigger": false,
      "taf_trigger": false,
      "metar": "METAR LEMD 070930Z 10003KT CAVOK 25/13 Q1022 NOSIG",
      "taf": "TAF LEMD 070500Z 0706/0812 VRB04KT CAVOK TX33/0716Z TN17/0805Z"
    },
    {
      "icao": "LEMG",
      "alert": "OK",
      "vis_m": 9999,
      "fzfg": false,
      "metar_trigger": false,
      "taf_trigger": false,
      "metar": "METAR LEMG 070930Z 12007KT 090V150 9999 FEW025 SCT030 BKN040 23/19 Q1021 NOSIG",
      "taf": "TAF LEMG 070500Z 0706/0806 VRB03KT 9999 BKN025 TX28/0714Z TN21/0706Z"
    },
    {
      "icao": "LEVC",
      "alert": "OK",
      "vis_m": 9999,
      "fzfg": false,
      "metar_trigger": false,
      "taf_trigger": false,
      "metar": "METAR LEVC 070930Z 07010KT 9999 SCT023 25/17 Q1023 NOSIG",
      "taf": "TAF LEVC 070500Z 0706/0806 VRB04KT 9999 SCT025 TX27/0712Z TN16/0706Z"
    },
    {
      "icao": "LEXJ",
      "alert": "OK",
      "vis_m": 9999,
      "fzfg": false,
      "metar_trigger": false,
      "taf_trigger": false,
      "metar": "METAR LEXJ 070930Z 09004KT 360V160 9999 SCT028 20/13 Q1022",
      "taf": "TAF LEXJ 070800Z 0709/0809 22005KT 9999 FEW040 TX22/0713Z TN16/0805Z"
    },
    {
      "icao": "LEZG",
      "alert": "OK",
      "vis_m": 9999,
      "fzfg": false,
      "metar_trigger": false,
      "taf_trigger": false,
      "metar": "METAR LEZG 070930Z 10005KT 040V150 9999 FEW015 23/15 Q1023 NOSIG",
      "taf": "TAF LEZG 070500Z 0706/0806 30008KT CAVOK TX32/0715Z TN16/0706Z"
    },
    {
      "icao": "LEZL",
      "alert": "OK",
      "vis_m": 9999,
      "fzfg": false,
      "metar_trigger": false,
      "taf_trigger": false,
      "metar": "METAR LEZL 070930Z 27003KT 160V330 CAVOK 27/16 Q1019 NOSIG",
      "taf": "TAF LEZL 070800Z 0709/0809 VRB03KT CAVOK TX36/0715Z TN19/0806Z"
    },
    {
      "icao": "LFBD",
      "alert": "OK",
      "vis_m": 9999,
      "fzfg": false,
      "metar_trigger": false,
      "taf_trigger": false,
      "metar": "METAR LFBD 070930Z AUTO 10008KT 040V140 9999 FEW034 21/11 Q1024 NOSIG",
      "taf": "TAF LFBD 070500Z 0706/0812 VRB03KT CAVOK TX25/0716Z TN13/0706Z"
    },
    {
      "icao": "LFLL",
      "alert": "OK",
      "vis_m": 9999,
      "fzfg": false,
      "metar_trigger": false,
      "taf_trigger": false,
      "metar": "METAR LFLL 070930Z 36007KT 320V040 CAVOK 19/10 Q1025 NOSIG",
      "taf": "TAF LFLL 070500Z 0706/0812 35008KT CAVOK"
    },
    {
      "icao": "LFLS",
      "alert": "OK",
      "vis_m": 9999,
      "fzfg": false,
      "metar_trigger": false,
      "taf_trigger": false,
      "metar": "METAR LFLS 070930Z AUTO 35008KT 320V020 CAVOK 20/10 Q1025 NOSIG",
      "taf": "TAF LFLS 070800Z 0709/0809 34006KT CAVOK"
    },
    {
      "icao": "LFMN",
      "alert": "OK",
      "vis_m": 9999,
      "fzfg": false,
      "metar_trigger": false,
      "taf_trigger": false,
      "metar": "METAR LFMN 070930Z 11007KT 9999 FEW016 22/16 Q1022 NOSIG",
      "taf": "TAF LFMN 070800Z 0709/0815 13010KT 9999 FEW016"
    },
    {
      "icao": "LFOB",
      "alert": "OK",
      "vis_m": 9999,
      "fzfg": false,
      "metar_trigger": false,
      "taf_trigger": false,
      "metar": "METAR LFOB 070930Z AUTO 24007KT 9999 OVC030 15/09 Q1024 NOSIG",
      "taf": "TAF LFOB 070500Z 0706/0806 25007KT 9999 BKN030"
    },
    {
      "icao": "LFPO",
      "alert": "OK",
      "vis_m": 9999,
      "fzfg": false,
      "metar_trigger": false,
      "taf_trigger": false,
      "metar": "METAR LFPO 070930Z 24004KT 160V320 9999 BKN036 SCT260 17/07 Q1025 NOSIG",
      "taf": "TAF LFPO 070500Z 0706/0812 23006KT CAVOK"
    },
    {
      "icao": "LFSB",
      "alert": "OK",
      "vis_m": 9999,
      "fzfg": false,
      "metar_trigger": false,
      "taf_trigger": false,
      "metar": "METAR LFSB 070930Z AUTO 27007KT 190V340 9999 FEW046 21/10 Q1025 NOSIG",
      "taf": "TAF LFSB 070500Z 0706/0806 25005KT CAVOK"
    },
    {
      "icao": "LGAV",
      "alert": "OK",
      "vis_m": 9999,
      "fzfg": false,
      "metar_trigger": false,
      "taf_trigger": false,
      "metar": "METAR LGAV 070920Z 06008KT 020V080 CAVOK 30/11 Q1017 NOSIG",
      "taf": "TAF LGAV 070500Z 0706/0806 VRB03KT 9999 FEW030"
    },
    {
      "icao": "LGTS",
      "alert": "OK",
      "vis_m": 9999,
      "fzfg": false,
      "metar_trigger": false,
      "taf_trigger": false,
      "metar": "METAR LGTS 070920Z 26006KT 9999 FEW025 29/17 Q1017 NOSIG",
      "taf": "TAF LGTS 070500Z 0706/0806 VRB03KT 9999 FEW030"
    },
    {
      "icao": "LHBP",
      "alert": "OK",
      "vis_m": 9999,
      "fzfg": false,
      "metar_trigger": false,
      "taf_trigger": false,
      "metar": "METAR LHBP 070930Z 23007KT 150V300 CAVOK 26/11 Q1020 NOSIG",
      "taf": "TAF LHBP 070515Z 0706/0806 30005KT CAVOK"
    },
    {
      "icao": "LHDC",
      "alert": "OK",
      "vis_m": 9999,
      "fzfg": false,
      "metar_trigger": false,
      "taf_trigger": false,
      "metar": "METAR LHDC 070915Z AUTO VRB05KT 9999 FEW044 25/14 Q1020 NOSIG",
      "taf": "TAF LHDC 070815Z 0709/0718 VRB03KT CAVOK"
    },
    {
      "icao": "LIBD",
      "alert": "OK",
      "vis_m": 9999,
      "fzfg": false,
      "metar_trigger": false,
      "taf_trigger": false,
      "metar": "METAR LIBD 070920Z 33007KT 280V020 CAVOK 25/16 Q1020",
      "taf": "TAF LIBD 070500Z 0706/0806 VRB05KT CAVOK"
    },
    {
      "icao": "LIBG",
      "alert": "OK",
      "vis_m": 9999,
      "fzfg": false,
      "metar_trigger": false,
      "taf_trigger": false,
      "metar": "METAR LIBG 070920Z AUTO 35007KT 300V040 9999 NCD 31/15 Q1019",
      "taf": "TAF LIBG 070500Z 0706/0806 VRB05KT CAVOK"
    },
    {
      "icao": "LIBP",
      "alert": "OK",
      "vis_m": 9999,
      "fzfg": false,
      "metar_trigger": false,
      "taf_trigger": false,
      "metar": "METAR LIBP 070920Z AUTO 04007KT 010V070 9999 NCD 25/16 Q1021",
      "taf": "TAF LIBP 070500Z 0706/0806 VRB05KT 9999 SCT060"
    },
    {
      "icao": "LIBR",
      "alert": "OK",
      "vis_m": 9999,
      "fzfg": false,
      "metar_trigger": false,
      "taf_trigger": false,
      "metar": "METAR LIBR 070920Z 33013KT CAVOK 24/21 Q1019",
      "taf": "TAF LIBR 070500Z 0706/0806 34013KT CAVOK"
    },
    {
      "icao": "LICA",
      "alert": "OK",
      "vis_m": 9999,
      "fzfg": false,
      "metar_trigger": false,
      "taf_trigger": false,
      "metar": "METAR LICA 070920Z AUTO 27012KT 9999 NCD 26/20 Q1021",
      "taf": "TAF LICA 070500Z 0706/0806 VRB05KT 9999 SCT014"
    },
    {
      "icao": "LICC",
      "alert": "OK",
      "vis_m": 9999,
      "fzfg": false,
      "metar_trigger": false,
      "taf_trigger": false,
      "metar": "METAR LICC 070920Z 08010KT CAVOK 27/20 Q1019",
      "taf": "TAF LICC 070500Z 0706/0806 VRB05KT CAVOK"
    },
    {
      "icao": "LICJ",
      "alert": "OK",
      "vis_m": 9999,
      "fzfg": false,
      "metar_trigger": false,
      "taf_trigger": false,
      "metar": "METAR LICJ 070920Z AUTO 03013KT 9999 NCD 24/20 Q1021",
      "taf": "TAF LICJ 070500Z 0706/0806 05013KT CAVOK"
    },
    {
      "icao": "LIMC",
      "alert": "OK",
      "vis_m": 9999,
      "fzfg": false,
      "metar_trigger": false,
      "taf_trigger": false,
      "metar": "METAR LIMC 070920Z VRB02KT CAVOK 25/16 Q1022 NOSIG",
      "taf": "TAF LIMC 070500Z 0706/0812 VRB05KT 9999 SCT060"
    },
    {
      "icao": "LIME",
      "alert": "OK",
      "vis_m": 9999,
      "fzfg": false,
      "metar_trigger": false,
      "taf_trigger": false,
      "metar": "METAR LIME 070920Z VRB03KT CAVOK 24/14 Q1022 NOSIG",
      "taf": "TAF LIME 070500Z 0706/0806 VRB05KT 9999 FEW060"
    },
    {
      "icao": "LIMF",
      "alert": "OK",
      "vis_m": 9999,
      "fzfg": false,
      "metar_trigger": false,
      "taf_trigger": false,
      "metar": "METAR LIMF 070920Z 08004KT 010V150 CAVOK 23/15 Q1022",
      "taf": "TAF LIMF 070500Z 0706/0806 VRB05KT 9999 FEW050"
    },
    {
      "icao": "LIMJ",
      "alert": "OK",
      "vis_m": 9999,
      "fzfg": false,
      "metar_trigger": false,
      "taf_trigger": false,
      "metar": "METAR LIMJ 070920Z 19005KT 9999 FEW023 21/18 Q1022",
      "taf": "TAF LIMJ 070500Z 0706/0806 05005KT 9999 SCT015"
    },
    {
      "icao": "LIPE",
      "alert": "OK",
      "vis_m": 9999,
      "fzfg": false,
      "metar_trigger": false,
      "taf_trigger": false,
      "metar": "METAR LIPE 070920Z 02003KT 300V080 CAVOK 26/14 Q1021",
      "taf": "TAF LIPE 070500Z 0706/0806 20007KT CAVOK"
    },
    {
      "icao": "LIPH",
      "alert": "OK",
      "vis_m": 9999,
      "fzfg": false,
      "metar_trigger": false,
      "taf_trigger": false,
      "metar": "METAR LIPH 070920Z VRB03KT CAVOK 25/18 Q1021",
      "taf": "TAF LIPH 070500Z 0706/0806 VRB05KT CAVOK"
    },
    {
      "icao": "LIPQ",
      "alert": "OK",
      "vis_m": 9999,
      "fzfg": false,
      "metar_trigger": false,
      "taf_trigger": false,
      "metar": "METAR LIPQ 070920Z AUTO 29005KT 240V010 9999 NCD 25/18 Q1021",
      "taf": "TAF LIPQ 070500Z 0706/0806 VRB05KT CAVOK"
    },
    {
      "icao": "LIPR",
      "alert": "OK",
      "vis_m": 9999,
      "fzfg": false,
      "metar_trigger": false,
      "taf_trigger": false,
      "metar": "METAR LIPR 070920Z 05006KT 020V080 CAVOK 23/15 Q1021",
      "taf": "TAF LIPR 070500Z 0706/0806 VRB05KT CAVOK"
    },
    {
      "icao": "LIPX",
      "alert": "OK",
      "vis_m": 9999,
      "fzfg": false,
      "metar_trigger": false,
      "taf_trigger": false,
      "metar": "METAR LIPX 070920Z VRB03KT CAVOK 25/17 Q1021",
      "taf": "TAF LIPX 070500Z 0706/0806 VRB05KT CAVOK"
    },
    {
      "icao": "LIPY",
      "alert": "OK",
      "vis_m": 9999,
      "fzfg": false,
      "metar_trigger": false,
      "taf_trigger": false,
      "metar": "METAR LIPY 070920Z AUTO 01006KT 320V050 9999 NCD 24/16 Q1021",
      "taf": "TAF LIPY 070500Z 0706/0806 VRB05KT CAVOK"
    },
    {
      "icao": "LIPZ",
      "alert": "OK",
      "vis_m": 9999,
      "fzfg": false,
      "metar_trigger": false,
      "taf_trigger": false,
      "metar": "METAR LIPZ 070920Z 16004KT 110V200 9999 FEW040 24/19 Q1021 NOSIG",
      "taf": "TAF LIPZ 070500Z 0706/0812 VRB05KT CAVOK"
    },
    {
      "icao": "LIRF",
      "alert": "OK",
      "vis_m": 9999,
      "fzfg": false,
      "metar_trigger": false,
      "taf_trigger": false,
      "metar": "METAR LIRF 070920Z 27008KT 240V300 CAVOK 25/17 Q1020 NOSIG",
      "taf": "TAF LIRF 070500Z 0706/0812 VRB05KT CAVOK"
    },
    {
      "icao": "LIRN",
      "alert": "OK",
      "vis_m": 9999,
      "fzfg": false,
      "metar_trigger": false,
      "taf_trigger": false,
      "metar": "METAR LIRN 070920Z 20008KT CAVOK 26/16 Q1020 NOSIG",
      "taf": "TAF LIRN 070500Z 0706/0806 VRB05KT CAVOK"
    },
    {
      "icao": "LIRP",
      "alert": "OK",
      "vis_m": 9999,
      "fzfg": false,
      "metar_trigger": false,
      "taf_trigger": false,
      "metar": "METAR LIRP 070915Z 27004KT 9999 FEW020 24/16 Q1022 NOSIG",
      "taf": "TAF LIRP 070500Z 0706/0806 10005KT 9999 SCT020"
    },
    {
      "icao": "LIRZ",
      "alert": "OK",
      "vis_m": 9999,
      "fzfg": false,
      "metar_trigger": false,
      "taf_trigger": false,
      "metar": "METAR LIRZ 070920Z AUTO 03006KT 330V090 9999 NCD 27/12 Q1021",
      "taf": "TAF LIRZ 070500Z 0706/0806 VRB05KT 9999 FEW050"
    },
    {
      "icao": "LJLJ",
      "alert": "OK",
      "vis_m": 9999,
      "fzfg": false,
      "metar_trigger": false,
      "taf_trigger": false,
      "metar": "METAR LJLJ 070930Z 10004KT 050V120 9999 FEW060 24/15 Q1022 NOSIG",
      "taf": "TAF LJLJ 070500Z 0706/0806 VRB02KT 9999 FEW001"
    },
    {
      "icao": "LKMT",
      "alert": "OK",
      "vis_m": 9999,
      "fzfg": false,
      "metar_trigger": false,
      "taf_trigger": false,
      "metar": "METAR LKMT 070930Z 23006KT 190V260 9999 SCT038 23/14 Q1020 NOSIG",
      "taf": "TAF LKMT 070500Z 0706/0806 23008KT CAVOK"
    },
    {
      "icao": "LKPR",
      "alert": "OK",
      "vis_m": 9999,
      "fzfg": false,
      "metar_trigger": false,
      "taf_trigger": false,
      "metar": "METAR LKPR 070930Z 27017KT CAVOK 21/09 Q1021 NOSIG",
      "taf": "TAF LKPR 070800Z 0709/0815 28012KT CAVOK"
    },
    {
      "icao": "LLBG",
      "alert": "OK",
      "vis_m": 9999,
      "fzfg": false,
      "metar_trigger": false,
      "taf_trigger": false,
      "metar": "METAR LLBG 070920Z 29009KT 9999 FEW030 28/15 Q1014 NOSIG",
      "taf": "TAF LLBG 070504Z 0706/0806 VRB03KT CAVOK TX29/0710Z TN20/0803Z"
    },
    {
      "icao": "LMML",
      "alert": "OK",
      "vis_m": 9999,
      "fzfg": false,
      "metar_trigger": false,
      "taf_trigger": false,
      "metar": "METAR LMML 070945Z 04006KT 360V090 9999 FEW018 29/22 Q1020 NOSIG",
      "taf": "TAF LMML 070500Z 0706/0806 VRB06KT CAVOK"
    },
    {
      "icao": "LOWW",
      "alert": "OK",
      "vis_m": 9999,
      "fzfg": false,
      "metar_trigger": false,
      "taf_trigger": false,
      "metar": "METAR LOWW 070920Z 30012KT 270V330 9999 SCT050 25/12 Q1022 NOSIG",
      "taf": "TAF LOWW 070815Z 0709/0815 32011KT CAVOK TX27/0814Z TN14/0803Z"
    },
    {
      "icao": "LPFR",
      "alert": "OK",
      "vis_m": 9999,
      "fzfg": false,
      "metar_trigger": false,
      "taf_trigger": false,
      "metar": "METAR LPFR 070930Z 11011KT CAVOK 25/17 Q1019",
      "taf": "TAF LPFR 070500Z 0706/0806 VRB02KT CAVOK"
    },
    {
      "icao": "LPMA",
      "alert": "OK",
      "vis_m": 9999,
      "fzfg": false,
      "metar_trigger": false,
      "taf_trigger": false,
      "metar": "METAR LPMA 070930Z 02014G24KT 340V050 9999 SCT015 20/13 Q1024",
      "taf": "TAF LPMA 070500Z 0706/0806 02010KT 9999 SCT015"
    },
    {
      "icao": "LPPR",
      "alert": "OK",
      "vis_m": 9999,
      "fzfg": false,
      "metar_trigger": false,
      "taf_trigger": false,
      "metar": "METAR LPPR 070930Z 30006KT 280V340 CAVOK 19/14 Q1021",
      "taf": "TAF LPPR 070500Z 0706/0806 VRB02KT 9999 FEW012"
    },
    {
      "icao": "LPPS",
      "alert": "OK",
      "vis_m": 9999,
      "fzfg": false,
      "metar_trigger": false,
      "taf_trigger": false,
      "metar": "METAR LPPS 070930Z 02014KT 9999 FEW015 BKN030 19/12 Q1025",
      "taf": "TAF LPPS 070500Z 0706/0812 02010KT 9999 SCT012 BKN030"
    },
    {
      "icao": "LPPT",
      "alert": "OK",
      "vis_m": 9999,
      "fzfg": false,
      "metar_trigger": false,
      "taf_trigger": false,
      "metar": "METAR LPPT 070930Z 32007KT 280V360 9999 FEW025 22/14 Q1020",
      "taf": "TAF LPPT 070500Z 0706/0812 32010KT 9999 FEW015"
    },
    {
      "icao": "LQBK",
      "alert": "OK",
      "vis_m": 9999,
      "fzfg": false,
      "metar_trigger": false,
      "taf_trigger": false,
      "metar": "METAR LQBK 070930Z VRB03KT 9999 SCT030 25/16 Q1021 NOSIG",
      "taf": "TAF LQBK 070500Z 0706/0806 03005KT CAVOK TX26/0714Z TN16/0804Z"
    },
    {
      "icao": "LQSA",
      "alert": "OK",
      "vis_m": 9999,
      "fzfg": false,
      "metar_trigger": false,
      "taf_trigger": false,
      "metar": "METAR LQSA 070930Z 32004KT 280V040 9999 SCT050 23/16 Q1021 NOSIG",
      "taf": "TAF LQSA 070500Z 0706/0806 VRB02KT 9999 FEW055 TX28/0714Z TN14/0803Z"
    },
    {
      "icao": "LQTZ",
      "alert": "OK",
      "vis_m": 9999,
      "fzfg": false,
      "metar_trigger": false,
      "taf_trigger": false,
      "metar": "METAR LQTZ 070930Z 28004KT 220V340 9999 SCT026 22/17 Q1022",
      "taf": "TAF LQTZ 070500Z 0706/0806 27005KT 9999 SCT040 TX26/0713Z TN12/0803Z"
    },
    {
      "icao": "LRBC",
      "alert": "OK",
      "vis_m": 9999,
      "fzfg": false,
      "metar_trigger": false,
      "taf_trigger": false,
      "metar": "METAR LRBC 070930Z 02005KT 330V070 9999 BKN025 FEW035CB 23/17 Q1017",
      "taf": "TAF LRBC 070800Z 0709/0718 34009KT 9999 SCT025"
    },
    {
      "icao": "LRBS",
      "alert": "OK",
      "vis_m": 9999,
      "fzfg": false,
      "metar_trigger": false,
      "taf_trigger": false,
      "metar": "METAR LRBS 070930Z VRB02KT 9999 FEW017 BKN030 24/18 Q1018 NOSIG",
      "taf": "TAF LRBS 070500Z 0706/0806 VRB04KT CAVOK"
    },
    {
      "icao": "LRBV",
      "alert": "OK",
      "vis_m": 9999,
      "fzfg": false,
      "metar_trigger": false,
      "taf_trigger": false,
      "metar": "METAR LRBV 070930Z 23004KT 160V300 9999 4500NW -SHRA FEW022 FEW030CB SCT036 BKN070 20/15 Q1020",
      "taf": "TAF LRBV 070800Z 0709/0718 30010KT 9999 BKN035"
    },
    {
      "icao": "LRCL",
      "alert": "OK",
      "vis_m": 9999,
      "fzfg": false,
      "metar_trigger": false,
      "taf_trigger": false,
      "metar": "METAR LRCL 070930Z 32006KT 280V010 9999 SCT036 23/13 Q1020",
      "taf": "TAF LRCL 070800Z 0709/0718 30010KT 9999 SCT050"
    },
    {
      "icao": "LRCV",
      "alert": "OK",
      "vis_m": 9999,
      "fzfg": false,
      "metar_trigger": false,
      "taf_trigger": false,
      "metar": "METAR LRCV 070930Z 29005KT 9999 SCT030 26/17 Q1018",
      "taf": "TAF LRCV 070800Z 0709/0718 VRB04KT CAVOK"
    },
    {
      "icao": "LRIA",
      "alert": "OK",
      "vis_m": 9999,
      "fzfg": false,
      "metar_trigger": false,
      "taf_trigger": false,
      "metar": "METAR LRIA 070930Z 29008KT 260V330 9999 BKN011 18/16 Q1018",
      "taf": "TAF LRIA 070800Z 0709/0718 28007KT 9999 BKN010"
    },
    {
      "icao": "LROP",
      "alert": "OK",
      "vis_m": 9999,
      "fzfg": false,
      "metar_trigger": false,
      "taf_trigger": false,
      "metar": "METAR LROP 070930Z VRB03KT 9999 BKN021 26/19 Q1018 NOSIG",
      "taf": "TAF LROP 070500Z 0706/0806 VRB04KT CAVOK"
    },
    {
      "icao": "LRSB",
      "alert": "OK",
      "vis_m": 9999,
      "fzfg": false,
      "metar_trigger": false,
      "taf_trigger": false,
      "metar": "METAR LRSB 070930Z 35007KT 9999 VCTS VCSH FEW023 SCT030 SCT040CB 20/17 Q1020",
      "taf": "TAF LRSB 070500Z 0706/0806 VRB04KT CAVOK"
    },
    {
      "icao": "LRSM",
      "alert": "OK",
      "vis_m": 9999,
      "fzfg": false,
      "metar_trigger": false,
      "taf_trigger": false,
      "metar": "METAR LRSM 070930Z AUTO 32007KT 270V350 9999 NCD 25/13 Q1019",
      "taf": ""
    },
    {
      "icao": "LRSV",
      "alert": "OK",
      "vis_m": 9999,
      "fzfg": false,
      "metar_trigger": false,
      "taf_trigger": false,
      "metar": "METAR LRSV 070930Z 32012KT 9999 SCT009 18/15 Q1018",
      "taf": "TAF LRSV 070800Z 0709/0718 32011KT 9999 SCT025"
    },
    {
      "icao": "LRTM",
      "alert": "OK",
      "vis_m": 9999,
      "fzfg": false,
      "metar_trigger": false,
      "taf_trigger": false,
      "metar": "METAR LRTM 070930Z 27004KT 220V350 9999 FEW025 FEW037CB 22/18 Q1020",
      "taf": "TAF LRTM 070800Z 0709/0718 VRB04KT 9999 SCT030"
    },
    {
      "icao": "LRTR",
      "alert": "OK",
      "vis_m": 9999,
      "fzfg": false,
      "metar_trigger": false,
      "taf_trigger": false,
      "metar": "METAR LRTR 070930Z 24006KT 140V300 9999 SCT035 25/14 Q1020 NOSIG",
      "taf": "TAF LRTR 070500Z 0706/0806 VRB04KT CAVOK"
    },
    {
      "icao": "LTAC",
      "alert": "OK",
      "vis_m": 9999,
      "fzfg": false,
      "metar_trigger": false,
      "taf_trigger": false,
      "metar": "METAR LTAC 070920Z 19005KT 080V230 9999 SCT040 25/09 Q1019 NOSIG RMK RWY21C 13005KT 070V170 RWY03L 05006KT 330V130 RWY21R VRB02KT RWY03R 05004KT 310V100 RWY21L VRB02KT",
      "taf": "TAF LTAC 070440Z 0706/0806 03008KT 9999 SCT040"
    },
    {
      "icao": "LTFM",
      "alert": "OK",
      "vis_m": 9999,
      "fzfg": false,
      "metar_trigger": false,
      "taf_trigger": false,
      "metar": "METAR LTFM 070920Z 36011KT 330V040 9999 FEW012 23/17 Q1017 NOSIG RMK RWY17L 03010KT RWY34L 01010KT 320V050 RWY16R 36010KT RWY36 03010KT 340V050 RWY18 01010KT",
      "taf": "TAF LTFM 070440Z 0706/0812 04012KT 9999 BKN009"
    },
    {
      "icao": "LUKK",
      "alert": "OK",
      "vis_m": 9999,
      "fzfg": false,
      "metar_trigger": false,
      "taf_trigger": false,
      "metar": "METAR LUKK 070930Z 29014KT 9999 FEW018 21/16 Q1016 TEMPO BKN035CB",
      "taf": "TAF LUKK 070528Z 0706/0806 24008KT 9999 BKN025"
    },
    {
      "icao": "LWOH",
      "alert": "OK",
      "vis_m": 9999,
      "fzfg": false,
      "metar_trigger": false,
      "taf_trigger": false,
      "metar": "METAR LWOH 070950Z 16006KT 110V240 9999 FEW040 23/14 Q1021",
      "taf": "TAF LWOH 070810Z 0709/0809 16008KT 9999 FEW050"
    },
    {
      "icao": "LWSK",
      "alert": "OK",
      "vis_m": 9999,
      "fzfg": false,
      "metar_trigger": false,
      "taf_trigger": false,
      "metar": "METAR LWSK 070950Z VRB05KT 9999 SCT033 29/17 Q1019 NOSIG",
      "taf": "TAF LWSK 070810Z 0709/0809 VRB02KT 9999 FEW050"
    },
    {
      "icao": "LYBE",
      "alert": "OK",
      "vis_m": 9999,
      "fzfg": false,
      "metar_trigger": false,
      "taf_trigger": false,
      "metar": "METAR LYBE 070930Z VRB05KT 9999 SCT038 25/16 Q1021 NOSIG",
      "taf": "TAF LYBE 070500Z 0706/0806 34008KT 9999 SCT040 TX28/0713Z TN17/0804Z"
    },
    {
      "icao": "LYNI",
      "alert": "OK",
      "vis_m": 9999,
      "fzfg": false,
      "metar_trigger": false,
      "taf_trigger": false,
      "metar": "METAR LYNI 070930Z 33007KT 300V020 9999 FEW015 BKN027 24/17 Q1020 NOSIG",
      "taf": "TAF LYNI 070500Z 0706/0806 02004KT 9999 SCT040 TX28/0713Z TN17/0804Z"
    },
    {
      "icao": "LYPG",
      "alert": "OK",
      "vis_m": 9999,
      "fzfg": false,
      "metar_trigger": false,
      "taf_trigger": false,
      "metar": "METAR LYPG 070930Z 17004KT 100V230 9999 FEW034 28/17 Q1018 NOSIG",
      "taf": "TAF LYPG 070500Z 0706/0806 18007KT 9999 FEW040 TX30/0714Z TN19/0803Z"
    },
    {
      "icao": "LZIB",
      "alert": "OK",
      "vis_m": 9999,
      "fzfg": false,
      "metar_trigger": false,
      "taf_trigger": false,
      "metar": "METAR LZIB 070930Z 30010KT 270V330 CAVOK 26/11 Q1021 NOSIG",
      "taf": "TAF LZIB 070515Z 0706/0806 VRB02KT CAVOK"
    },
    {
      "icao": "LZKZ",
      "alert": "OK",
      "vis_m": 9999,
      "fzfg": false,
      "metar_trigger": false,
      "taf_trigger": false,
      "metar": "METAR LZKZ 070930Z 12003KT 050V190 CAVOK 23/13 Q1020 NOSIG",
      "taf": "TAF LZKZ 070515Z 0706/0806 19004KT CAVOK"
    },
    {
      "icao": "LZTT",
      "alert": "OK",
      "vis_m": 9999,
      "fzfg": false,
      "metar_trigger": false,
      "taf_trigger": false,
      "metar": "METAR LZTT 070930Z 28011KT 9999 SCT026 19/10 Q1021 NOSIG",
      "taf": "TAF LZTT 070515Z 0706/0806 VRB02KT 9999 FEW030"
    },
    {
      "icao": "OEJN",
      "alert": "OK",
      "vis_m": 9999,
      "fzfg": false,
      "metar_trigger": false,
      "taf_trigger": false,
      "metar": "METAR OEJN 070900Z 30011KT CAVOK 37/19 Q1009 NOSIG",
      "taf": "TAF OEJN 070500Z 0706/0812 32014KT CAVOK"
    },
    {
      "icao": "OEMA",
      "alert": "OK",
      "vis_m": 9999,
      "fzfg": false,
      "metar_trigger": false,
      "taf_trigger": false,
      "metar": "METAR OEMA 070900Z 27010KT CAVOK 40/M11 Q1014 NOSIG",
      "taf": "TAF OEMA 070500Z 0706/0812 28012KT CAVOK"
    },
    {
      "icao": "OJAI",
      "alert": "OK",
      "vis_m": 5000,
      "fzfg": false,
      "metar_trigger": false,
      "taf_trigger": false,
      "metar": "METAR OJAI 070900Z 30010KT 5000 HZ NSC 28/03 Q1016 NOSIG",
      "taf": "TAF OJAI 070500Z 0706/0812 29008KT 6000 NSC"
    },
    {
      "icao": "OMAA",
      "alert": "OK",
      "vis_m": 9999,
      "fzfg": false,
      "metar_trigger": false,
      "taf_trigger": false,
      "metar": "METAR OMAA 070930Z 21007KT 180V260 CAVOK 44/10 Q1003 NOSIG",
      "taf": "TAF OMAA 070500Z 0706/0812 VRB02KT 8000 NSC"
    },
    {
      "icao": "OMDB",
      "alert": "OK",
      "vis_m": 9000,
      "fzfg": false,
      "metar_trigger": false,
      "taf_trigger": false,
      "metar": "METAR OMDB 070930Z 33013KT 9000 NSC 38/27 Q1003 NOSIG",
      "taf": "TAF OMDB 070500Z 0706/0812 VRB02KT CAVOK"
    },
    {
      "icao": "UAAA",
      "alert": "OK",
      "vis_m": 9999,
      "fzfg": false,
      "metar_trigger": false,
      "taf_trigger": false,
      "metar": "METAR UAAA 070930Z 08004MPS 020V110 9999 SCT050CB BKN100 27/14 Q1016 NOSIG",
      "taf": "TAF UAAA 070503Z 0706/0806 02003MPS 9999 FEW050CB SCT100 TX27/0709Z TN17/0801Z"
    },
    {
      "icao": "UBBB",
      "alert": "OK",
      "vis_m": 9999,
      "fzfg": false,
      "metar_trigger": false,
      "taf_trigger": false,
      "metar": "METAR UBBB 070930Z 07008KT 030V120 9999 FEW020 26/15 Q1014 NOSIG",
      "taf": "TAF UBBB 070458Z 0706/0806 31006KT 9999 FEW050CB TX26/0710Z TN16/0701Z"
    },
    {
      "icao": "UDSG",
      "alert": "OK",
      "vis_m": 9999,
      "fzfg": false,
      "metar_trigger": false,
      "taf_trigger": false,
      "metar": "METAR UDSG 070930Z 23003KT 160V320 9999 FEW049 21/06 Q1020 NOSIG",
      "taf": "TAF UDSG 070500Z 0706/0806 24006KT 9999 SCT050"
    },
    {
      "icao": "UDYZ",
      "alert": "OK",
      "vis_m": 9999,
      "fzfg": false,
      "metar_trigger": false,
      "taf_trigger": false,
      "metar": "METAR UDYZ 070930Z 24006KT 9999 FEW046 27/10 Q1015 NOSIG",
      "taf": "TAF UDYZ 070500Z 0706/0806 24006KT 9999 SCT040"
    },
    {
      "icao": "UGKO",
      "alert": "OK",
      "vis_m": 9999,
      "fzfg": false,
      "metar_trigger": false,
      "taf_trigger": false,
      "metar": "METAR UGKO 070930Z 29008KT 240V320 CAVOK 26/14 Q1015 NOSIG",
      "taf": "TAF UGKO 070500Z 0706/0806 09007KT CAVOK TX27/0711Z TN15/0802Z"
    }
  ]
}