{
  "ts_utc": "2026-01-22T11:39:08Z",
  "threshold_m": 150,
  "source": "stations_override.txt (ICAO list) + aviationweather.gov (METAR/TAF raw)",
  "station_count": 159,
  "stations": [
    {
      "icao": "BIKF",
      "alert": "OK",
      "vis_m": 9999,
      "fzfg": false,
      "metar_trigger": false,
      "taf_trigger": false,
      "metar": "METAR BIKF 221130Z 06019KT 9999 -RA FEW024 BKN035 OVC045 06/01 Q0986",
      "taf": "TAF BIKF 221030Z 2212/2312 07018G28KT 9999 SCT020 BKN030 TX08/2216Z TN04/2312Z"
    },
    {
      "icao": "BKPR",
      "alert": "OK",
      "vis_m": 9999,
      "fzfg": false,
      "metar_trigger": false,
      "taf_trigger": false,
      "metar": "METAR BKPR 221130Z 13003KT 090V150 9999 SCT065 04/01 Q1002 NOSIG",
      "taf": "TAF BKPR 221130Z 2212/2312 VRB03KT 9999 BKN040"
    },
    {
      "icao": "EBCI",
      "alert": "OK",
      "vis_m": 9999,
      "fzfg": false,
      "metar_trigger": false,
      "taf_trigger": false,
      "metar": "METAR EBCI 221120Z 17007KT CAVOK 07/02 Q0993 NOSIG",
      "taf": "TAF EBCI 221120Z 2212/2318 17010KT CAVOK"
    },
    {
      "icao": "EDDB",
      "alert": "OK",
      "vis_m": 9999,
      "fzfg": false,
      "metar_trigger": false,
      "taf_trigger": false,
      "metar": "METAR EDDB 221120Z AUTO 07005KT 040V100 CAVOK M01/M06 Q1002 NOSIG",
      "taf": "TAF EDDB 221100Z 2212/2312 08008KT CAVOK"
    },
    {
      "icao": "EDDH",
      "alert": "OK",
      "vis_m": 9999,
      "fzfg": false,
      "metar_trigger": false,
      "taf_trigger": false,
      "metar": "METAR EDDH 221120Z AUTO 09014KT 050V110 CAVOK M00/M05 Q1003 NOSIG",
      "taf": "TAF EDDH 221100Z 2212/2318 08010KT 9999 FEW025"
    },
    {
      "icao": "EDDK",
      "alert": "OK",
      "vis_m": 9999,
      "fzfg": false,
      "metar_trigger": false,
      "taf_trigger": false,
      "metar": "METAR EDDK 221120Z AUTO 12009KT 090V150 CAVOK 04/M05 Q0997 NOSIG",
      "taf": "TAF EDDK 221100Z 2212/2318 12008KT CAVOK"
    },
    {
      "icao": "EDDN",
      "alert": "OK",
      "vis_m": 9999,
      "fzfg": false,
      "metar_trigger": false,
      "taf_trigger": false,
      "metar": "METAR EDDN 221120Z AUTO 13006KT 090V160 9999 OVC011 M06/M09 Q1000 NOSIG",
      "taf": "TAF EDDN 221100Z 2212/2312 12007KT 9999 OVC010"
    },
    {
      "icao": "EDDS",
      "alert": "OK",
      "vis_m": 9999,
      "fzfg": false,
      "metar_trigger": false,
      "taf_trigger": false,
      "metar": "METAR EDDS 221120Z AUTO VRB02KT CAVOK 01/M04 Q0997 NOSIG",
      "taf": "TAF EDDS 221100Z 2212/2312 VRB02KT CAVOK"
    },
    {
      "icao": "EDFH",
      "alert": "OK",
      "vis_m": 9999,
      "fzfg": false,
      "metar_trigger": false,
      "taf_trigger": false,
      "metar": "METAR EDFH 221120Z 14015KT CAVOK M02/M03 Q0996",
      "taf": "TAF EDFH 221100Z 2212/2312 14014KT CAVOK"
    },
    {
      "icao": "EDJA",
      "alert": "OK",
      "vis_m": 600,
      "fzfg": true,
      "metar_trigger": false,
      "taf_trigger": false,
      "metar": "METAR EDJA 221120Z 26004KT 230V300 0600 R06/1900D FZFG BKN001 OVC004 M03/M04 Q0997",
      "taf": "TAF EDJA 221100Z 2212/2221 VRB03KT 1200 BR OVC003"
    },
    {
      "icao": "EDLW",
      "alert": "OK",
      "vis_m": 9999,
      "fzfg": false,
      "metar_trigger": false,
      "taf_trigger": false,
      "metar": "METAR EDLW 221120Z 03005KT CAVOK 03/M04 Q0996",
      "taf": "TAF EDLW 221100Z 2212/2312 VRB03KT CAVOK"
    },
    {
      "icao": "EDNY",
      "alert": "OK",
      "vis_m": 2900,
      "fzfg": false,
      "metar_trigger": false,
      "taf_trigger": false,
      "metar": "METAR EDNY 221120Z VRB02KT 2900 BR OVC002 M01/M01 Q0999",
      "taf": "TAF EDNY 221100Z 2212/2221 VRB02KT 4000 BR OVC004"
    },
    {
      "icao": "EDSB",
      "alert": "OK",
      "vis_m": 2200,
      "fzfg": false,
      "metar_trigger": false,
      "taf_trigger": false,
      "metar": "METAR EDSB 221120Z 12003KT 080V170 2200 BR OVC002 M01/M02 Q0999",
      "taf": "TAF EDSB 221100Z 2212/2312 VRB02KT 3000 BR OVC005"
    },
    {
      "icao": "EETN",
      "alert": "OK",
      "vis_m": 9999,
      "fzfg": false,
      "metar_trigger": false,
      "taf_trigger": false,
      "metar": "METAR EETN 221120Z 10015KT 9999 OVC016 M07/M10 Q1024 NOSIG",
      "taf": "TAF EETN 221130Z 2212/2312 10012KT 9999 OVC015"
    },
    {
      "icao": "EFTU",
      "alert": "OK",
      "vis_m": 9999,
      "fzfg": false,
      "metar_trigger": false,
      "taf_trigger": false,
      "metar": "METAR EFTU 221120Z AUTO 09012KT 9999 -SHSN OVC012 M06/M09 Q1025",
      "taf": "TAF EFTU 220823Z 2209/2309 09011KT 9999 OVC014"
    },
    {
      "icao": "EGBB",
      "alert": "OK",
      "vis_m": 8000,
      "fzfg": false,
      "metar_trigger": false,
      "taf_trigger": false,
      "metar": "METAR EGBB 221120Z 12010KT 8000 -RA OVC006 08/07 Q0987",
      "taf": "TAF EGBB 221056Z 2212/2312 12012KT 9999 SCT006 BKN010"
    },
    {
      "icao": "EGGP",
      "alert": "OK",
      "vis_m": 8000,
      "fzfg": false,
      "metar_trigger": false,
      "taf_trigger": false,
      "metar": "METAR EGGP 221120Z 10011KT 8000 -DZ FEW005 SCT009 OVC013 08/06 Q0987",
      "taf": "TAF EGGP 221054Z 2212/2312 12012KT 9999 BKN020"
    },
    {
      "icao": "EGGW",
      "alert": "OK",
      "vis_m": 5000,
      "fzfg": false,
      "metar_trigger": false,
      "taf_trigger": false,
      "metar": "METAR EGGW 221120Z AUTO 12010KT 5000 BR OVC002 07/06 Q0988",
      "taf": "TAF EGGW 221100Z 2212/2312 12010KT 9999 SCT020"
    },
    {
      "icao": "EGKK",
      "alert": "OK",
      "vis_m": 9999,
      "fzfg": false,
      "metar_trigger": false,
      "taf_trigger": false,
      "metar": "METAR EGKK 221120Z 13008KT 9999 SCT009 BKN033 09/08 Q0988",
      "taf": "TAF EGKK 221054Z 2212/2318 13008KT 9999 SCT015"
    },
    {
      "icao": "EGNM",
      "alert": "OK",
      "vis_m": 1400,
      "fzfg": false,
      "metar_trigger": false,
      "taf_trigger": false,
      "metar": "METAR EGNM 221120Z 09012KT 1400 R14/P1500N -RA BR OVC001 05/04 Q0989",
      "taf": "TAF EGNM 221100Z 2212/2312 12012KT 6000 BKN008"
    },
    {
      "icao": "EGPD",
      "alert": "OK",
      "vis_m": 7000,
      "fzfg": false,
      "metar_trigger": false,
      "taf_trigger": false,
      "metar": "METAR EGPD 221120Z AUTO 13022G32KT 7000 OVC012 06/03 Q0997 TEMPO BKN015",
      "taf": "TAF EGPD 221054Z 2212/2312 13020G35KT 9999 BKN016"
    },
    {
      "icao": "EGPF",
      "alert": "OK",
      "vis_m": 9999,
      "fzfg": false,
      "metar_trigger": false,
      "taf_trigger": false,
      "metar": "METAR EGPF 221120Z AUTO 07013KT 9999 -RA BKN014/// OVC023/// //////TCU 07/06 Q0989",
      "taf": "TAF EGPF 221057Z 2212/2312 08011KT 9999 FEW012 BKN025"
    },
    {
      "icao": "EHBK",
      "alert": "OK",
      "vis_m": 9999,
      "fzfg": false,
      "metar_trigger": false,
      "taf_trigger": false,
      "metar": "METAR EHBK 221125Z AUTO 10006KT 9999 NSC 05/00 Q0995 NOSIG",
      "taf": "TAF EHBK 221119Z 2212/2318 15007KT CAVOK"
    },
    {
      "icao": "EHEH",
      "alert": "OK",
      "vis_m": 9999,
      "fzfg": false,
      "metar_trigger": false,
      "taf_trigger": false,
      "metar": "METAR EHEH 221125Z AUTO 10006KT 080V180 9999 OVC230 05/M02 Q0995 BLU NOSIG RMK TREND REMOTE BY EHWX",
      "taf": "TAF EHEH 220547Z 2206/2312 09006KT CAVOK"
    },
    {
      "icao": "EKBI",
      "alert": "OK",
      "vis_m": 9999,
      "fzfg": false,
      "metar_trigger": false,
      "taf_trigger": false,
      "metar": "METAR EKBI 221120Z AUTO 08014KT 9999 -SN OVC019/// M01/M05 Q1007",
      "taf": "TAF EKBI 221127Z 2212/2312 08015KT 9999 -SN OVC020"
    },
    {
      "icao": "EKCH",
      "alert": "OK",
      "vis_m": 7000,
      "fzfg": false,
      "metar_trigger": false,
      "taf_trigger": false,
      "metar": "METAR EKCH 221120Z 07013KT 7000 -SN FEW015 BKN018 M00/M04 Q1009 TEMPO BKN014",
      "taf": "TAF EKCH 221127Z 2212/2312 07018KT 9999 BKN020"
    },
    {
      "icao": "ENAL",
      "alert": "OK",
      "vis_m": 9999,
      "fzfg": false,
      "metar_trigger": false,
      "taf_trigger": false,
      "metar": "METAR ENAL 221120Z 13014KT CAVOK 06/M07 Q1012",
      "taf": "TAF ENAL 221100Z 2212/2221 13008KT CAVOK"
    },
    {
      "icao": "ENBR",
      "alert": "OK",
      "vis_m": 9999,
      "fzfg": false,
      "metar_trigger": false,
      "taf_trigger": false,
      "metar": "METAR ENBR 221120Z VRB01KT CAVOK 01/M05 Q1010 NOSIG RMK WIND 1200FT 30003KT",
      "taf": "TAF ENBR 221100Z 2212/2312 07005KT CAVOK"
    },
    {
      "icao": "ENGM",
      "alert": "OK",
      "vis_m": 9999,
      "fzfg": false,
      "metar_trigger": false,
      "taf_trigger": false,
      "metar": "METAR ENGM 221120Z 08006KT 9999 OVC021 M03/M07 Q1019 NOSIG",
      "taf": "TAF ENGM 221100Z 2212/2312 02008KT 9999 OVC020"
    },
    {
      "icao": "ENHD",
      "alert": "OK",
      "vis_m": 9999,
      "fzfg": false,
      "metar_trigger": false,
      "taf_trigger": false,
      "metar": "METAR ENHD 221120Z 10013KT CAVOK 03/M09 Q1010",
      "taf": "TAF ENHD 221100Z 2212/2221 10012KT CAVOK"
    },
    {
      "icao": "ENTC",
      "alert": "OK",
      "vis_m": 9999,
      "fzfg": false,
      "metar_trigger": false,
      "taf_trigger": false,
      "metar": "METAR ENTC 221120Z 10001KT 9999 FEW005 M08/M10 Q1024 NOSIG RMK WIND 2600FT 09009KT",
      "taf": "TAF ENTC 221100Z 2212/2312 VRB02KT 9999 FEW001"
    },
    {
      "icao": "ENTO",
      "alert": "OK",
      "vis_m": 9999,
      "fzfg": false,
      "metar_trigger": false,
      "taf_trigger": false,
      "metar": "METAR ENTO 221120Z 04011KT 9999 OVC025 M01/M05 Q1017 NOSIG",
      "taf": "TAF ENTO 221100Z 2212/2312 04012KT 9999 OVC020"
    },
    {
      "icao": "ENVA",
      "alert": "OK",
      "vis_m": 9999,
      "fzfg": false,
      "metar_trigger": false,
      "taf_trigger": false,
      "metar": "METAR ENVA 221120Z 12013KT 090V150 CAVOK M01/M08 Q1020 TEMPO 14015G25KT RMK WIND 670FT 14021G36KT",
      "taf": "TAF ENVA 221100Z 2212/2312 11010KT CAVOK"
    },
    {
      "icao": "ENZV",
      "alert": "OK",
      "vis_m": 9999,
      "fzfg": false,
      "metar_trigger": false,
      "taf_trigger": false,
      "metar": "METAR ENZV 221120Z 10013KT 060V140 CAVOK 02/M08 Q1010 NOSIG",
      "taf": "TAF ENZV 221100Z 2212/2312 09008KT CAVOK"
    },
    {
      "icao": "EPGD",
      "alert": "OK",
      "vis_m": 5000,
      "fzfg": false,
      "metar_trigger": false,
      "taf_trigger": false,
      "metar": "METAR EPGD 221130Z 11007KT 5000 BR NSC M09/M11 Q1008",
      "taf": "TAF EPGD 221130Z 2212/2312 11007KT 4500 BR NSC"
    },
    {
      "icao": "EPKK",
      "alert": "OK",
      "vis_m": 5000,
      "fzfg": false,
      "metar_trigger": false,
      "taf_trigger": false,
      "metar": "METAR EPKK 221130Z 08003KT 010V100 5000 HZ NSC M05/M10 Q1003",
      "taf": "TAF EPKK 221130Z 2212/2312 07004KT 6000 NSC"
    },
    {
      "icao": "EPKT",
      "alert": "OK",
      "vis_m": 6000,
      "fzfg": false,
      "metar_trigger": false,
      "taf_trigger": false,
      "metar": "METAR EPKT 221130Z VRB02KT 6000 NSC M01/M08 Q1002",
      "taf": "TAF EPKT 221130Z 2212/2312 10004KT 7000 NSC"
    },
    {
      "icao": "EPLB",
      "alert": "OK",
      "vis_m": 4200,
      "fzfg": false,
      "metar_trigger": false,
      "taf_trigger": false,
      "metar": "METAR EPLB 221130Z 07011KT 4200 BR NSC M14/M15 Q1007",
      "taf": "TAF EPLB 221130Z 2212/2312 08008KT 4000 HZ NSC"
    },
    {
      "icao": "EPMO",
      "alert": "OK",
      "vis_m": 6000,
      "fzfg": false,
      "metar_trigger": false,
      "taf_trigger": false,
      "metar": "METAR EPMO 221130Z 07012KT 6000 NSC M07/M10 Q1006",
      "taf": "TAF EPMO 221130Z 2212/2312 08012KT 6000 NSC"
    },
    {
      "icao": "EPPO",
      "alert": "OK",
      "vis_m": 9999,
      "fzfg": false,
      "metar_trigger": false,
      "taf_trigger": false,
      "metar": "METAR EPPO 221130Z 09005KT CAVOK 03/M08 Q1004",
      "taf": "TAF EPPO 221130Z 2212/2312 10006KT CAVOK"
    },
    {
      "icao": "EPRA",
      "alert": "OK",
      "vis_m": 5000,
      "fzfg": false,
      "metar_trigger": false,
      "taf_trigger": false,
      "metar": "METAR EPRA 221130Z 07007KT 5000 BR NSC M11/M14 Q1005",
      "taf": "TAF EPRA 221130Z 2212/2221 09006KT 7000 NSC"
    },
    {
      "icao": "EPRZ",
      "alert": "OK",
      "vis_m": 3800,
      "fzfg": false,
      "metar_trigger": false,
      "taf_trigger": false,
      "metar": "METAR EPRZ 221130Z 08010KT 3800 BR NSC M10/M14 Q1004",
      "taf": "TAF EPRZ 221130Z 2212/2312 09009KT 4000 BR HZ NSC"
    },
    {
      "icao": "EPSC",
      "alert": "OK",
      "vis_m": 5000,
      "fzfg": false,
      "metar_trigger": false,
      "taf_trigger": false,
      "metar": "METAR EPSC 221130Z 03004KT 360V060 5000 BR NSC M03/M06 Q1005",
      "taf": "TAF EPSC 221130Z 2212/2312 09006KT 7000 NSC"
    },
    {
      "icao": "EPSY",
      "alert": "OK",
      "vis_m": 6000,
      "fzfg": false,
      "metar_trigger": false,
      "taf_trigger": false,
      "metar": "METAR EPSY 221130Z 08005KT 040V130 6000 NSC M08/M11 Q1009",
      "taf": "TAF EPSY 221130Z 2212/2221 09008KT 8000 NSC"
    },
    {
      "icao": "EPWA",
      "alert": "OK",
      "vis_m": 9999,
      "fzfg": false,
      "metar_trigger": false,
      "taf_trigger": false,
      "metar": "METAR EPWA 221130Z 10010KT CAVOK M04/M11 Q1006 NOSIG",
      "taf": "TAF EPWA 221130Z 2212/2312 08010KT 9000 NSC"
    },
    {
      "icao": "EPWR",
      "alert": "OK",
      "vis_m": 9999,
      "fzfg": false,
      "metar_trigger": false,
      "taf_trigger": false,
      "metar": "METAR EPWR 221130Z 12005KT CAVOK 02/M07 Q1003",
      "taf": "TAF EPWR 221130Z 2212/2312 12007KT CAVOK"
    },
    {
      "icao": "ESGG",
      "alert": "OK",
      "vis_m": 9999,
      "fzfg": false,
      "metar_trigger": false,
      "taf_trigger": false,
      "metar": "METAR ESGG 221120Z 07014KT 9999 BKN021 M00/M04 Q1012",
      "taf": "TAF ESGG 221130Z 2212/2312 06013G25KT 9999 BKN020"
    },
    {
      "icao": "ESKN",
      "alert": "OK",
      "vis_m": 9999,
      "fzfg": false,
      "metar_trigger": false,
      "taf_trigger": false,
      "metar": "METAR ESKN 221120Z 06015KT 9999 BKN017 M02/M05 Q1019",
      "taf": "TAF ESKN 221130Z 2212/2312 07012KT 9000 -SN SCT012 OVC020"
    },
    {
      "icao": "ESMS",
      "alert": "OK",
      "vis_m": 8000,
      "fzfg": false,
      "metar_trigger": false,
      "taf_trigger": false,
      "metar": "METAR ESMS 221120Z 07018KT 8000 BKN015 M01/M04 Q1007",
      "taf": "TAF ESMS 221127Z 2212/2312 07015KT 9000 BKN020"
    },
    {
      "icao": "ESSA",
      "alert": "OK",
      "vis_m": 9999,
      "fzfg": false,
      "metar_trigger": false,
      "taf_trigger": false,
      "metar": "METAR ESSA 221120Z 08012KT 9999 -SN BKN017 M03/M05 Q1021 NOSIG",
      "taf": "TAF ESSA 221130Z 2212/2312 08012KT 9000 -SN SCT008 OVC015"
    },
    {
      "icao": "EYKA",
      "alert": "OK",
      "vis_m": 9999,
      "fzfg": false,
      "metar_trigger": false,
      "taf_trigger": false,
      "metar": "METAR EYKA 221120Z VRB12KT 9999 -SN OVC012 M09/M11 Q1015",
      "taf": "TAF EYKA 221100Z 2212/2312 09012KT 8000 OVC015"
    },
    {
      "icao": "EYPA",
      "alert": "OK",
      "vis_m": 9999,
      "fzfg": false,
      "metar_trigger": false,
      "taf_trigger": false,
      "metar": "METAR EYPA 221120Z 10014KT 9999 BKN012 M06/M10 Q1014",
      "taf": "TAF EYPA 221100Z 2212/2312 10012KT 9000 OVC015"
    },
    {
      "icao": "EYVI",
      "alert": "OK",
      "vis_m": 9999,
      "fzfg": false,
      "metar_trigger": false,
      "taf_trigger": false,
      "metar": "METAR EYVI 221120Z 09008KT 050V110 9999 -SN OVC009 M10/M12 Q1015 NOSIG",
      "taf": "TAF EYVI 221100Z 2212/2312 08010KT 8000 BKN010"
    },
    {
      "icao": "GCFV",
      "alert": "OK",
      "vis_m": 9999,
      "fzfg": false,
      "metar_trigger": false,
      "taf_trigger": false,
      "metar": "METAR GCFV 221130Z 31006KT 260V020 9999 SCT025 20/15 Q1020",
      "taf": ""
    },
    {
      "icao": "GCLP",
      "alert": "OK",
      "vis_m": 9999,
      "fzfg": false,
      "metar_trigger": false,
      "taf_trigger": false,
      "metar": "METAR GCLP 221130Z VRB04KT 9999 FEW025 20/15 Q1021 NOSIG",
      "taf": ""
    },
    {
      "icao": "GCTS",
      "alert": "OK",
      "vis_m": 9999,
      "fzfg": false,
      "metar_trigger": false,
      "taf_trigger": false,
      "metar": "METAR GCTS 221130Z 12007KT 9999 SCT025 19/14 Q1022 NOSIG",
      "taf": "TAF GCTS 220800Z 2209/2309 VRB06KT 9999 SCT030 TX22/2214Z TN14/2306Z"
    },
    {
      "icao": "GMAD",
      "alert": "OK",
      "vis_m": 6000,
      "fzfg": false,
      "metar_trigger": false,
      "taf_trigger": false,
      "metar": "METAR GMAD 221130Z 31004KT 270V330 6000 BKN006 16/16 Q1017 NOSIG",
      "taf": "TAF GMAD 221100Z 2212/2318 24006KT 6000 SCT010 BKN026"
    },
    {
      "icao": "GMMN",
      "alert": "OK",
      "vis_m": 9999,
      "fzfg": false,
      "metar_trigger": false,
      "taf_trigger": false,
      "metar": "METAR GMMN 221130Z 22008KT 180V240 9999 SCT012 BKN018 16/14 Q1016 NOSIG",
      "taf": "TAF GMMN 221100Z 2212/2318 22012KT 9999 SCT012 BKN018"
    },
    {
      "icao": "GMMX",
      "alert": "OK",
      "vis_m": 9999,
      "fzfg": false,
      "metar_trigger": false,
      "taf_trigger": false,
      "metar": "METAR GMMX 221130Z VRB02KT 9999 SCT010 BKN020 15/14 Q1017 NOSIG",
      "taf": "TAF GMMX 220500Z 2206/2312 24006KT 8000 BKN026 SCT080"
    },
    {
      "icao": "HEGN",
      "alert": "OK",
      "vis_m": 9999,
      "fzfg": false,
      "metar_trigger": false,
      "taf_trigger": false,
      "metar": "METAR HEGN 221100Z 12010KT CAVOK 25/15 Q1012 NOSIG",
      "taf": "TAF HEGN 221100Z 2212/2318 12012KT CAVOK"
    },
    {
      "icao": "HEMA",
      "alert": "OK",
      "vis_m": 9999,
      "fzfg": false,
      "metar_trigger": false,
      "taf_trigger": false,
      "metar": "METAR HEMA 221100Z 36010KT CAVOK 26/15 Q1014 NOSIG",
      "taf": "TAF HEMA 221100Z 2212/2318 13014KT CAVOK"
    },
    {
      "icao": "HESH",
      "alert": "OK",
      "vis_m": 9999,
      "fzfg": false,
      "metar_trigger": false,
      "taf_trigger": false,
      "metar": "METAR HESH 221100Z 01006KT CAVOK 26/11 Q1013 NOSIG",
      "taf": "TAF HESH 221100Z 2212/2318 15012KT CAVOK"
    },
    {
      "icao": "HESX",
      "alert": "OK",
      "vis_m": 9999,
      "fzfg": false,
      "metar_trigger": false,
      "taf_trigger": false,
      "metar": "METAR HESX 221100Z 15003KT CAVOK 19/03 Q1011 NOSIG",
      "taf": "TAF HESX 221100Z 2212/2318 25008KT 6000 SCT020 OVC070"
    },
    {
      "icao": "LATI",
      "alert": "OK",
      "vis_m": 9999,
      "fzfg": false,
      "metar_trigger": false,
      "taf_trigger": false,
      "metar": "METAR LATI 221120Z 25005KT 9999 -RA FEW040 OVC081 12/04 Q1001 NOSIG",
      "taf": "TAF LATI 221100Z 2212/2312 VRB05KT 9999 -RA SCT035 BKN070 TX15/2312Z TN07/2304Z"
    },
    {
      "icao": "LBPD",
      "alert": "OK",
      "vis_m": 6000,
      "fzfg": false,
      "metar_trigger": false,
      "taf_trigger": false,
      "metar": "METAR LBPD 221130Z AUTO 32003KT 260V060 6000 FEW014/// OVC022/// 02/01 Q1005 NOSIG",
      "taf": "TAF LBPD 221100Z 2212/2312 VRB04KT 5000 BR OVC015"
    },
    {
      "icao": "LBSF",
      "alert": "OK",
      "vis_m": 9999,
      "fzfg": false,
      "metar_trigger": false,
      "taf_trigger": false,
      "metar": "METAR LBSF 221130Z 09009KT 9999 SCT020 BKN030 BKN064 03/M01 Q1003 NOSIG",
      "taf": "TAF LBSF 221100Z 2212/2312 12006KT 9999 SCT020 BKN030 OVC040"
    },
    {
      "icao": "LBWN",
      "alert": "OK",
      "vis_m": 7000,
      "fzfg": false,
      "metar_trigger": false,
      "taf_trigger": false,
      "metar": "METAR LBWN 221130Z 09008KT 7000 -RA FEW025 OVC035 06/06 Q1005 TEMPO 4000 RA",
      "taf": "TAF LBWN 221100Z 2212/2312 11010KT 7000 BKN020 OVC040"
    },
    {
      "icao": "LCLK",
      "alert": "OK",
      "vis_m": 9999,
      "fzfg": false,
      "metar_trigger": false,
      "taf_trigger": false,
      "metar": "METAR LCLK 221130Z 05022KT 9999 -RA SCT020 13/10 Q1015 NOSIG",
      "taf": "TAF LCLK 221130Z 2212/2312 04020KT 9999 SCT025"
    },
    {
      "icao": "LCPH",
      "alert": "OK",
      "vis_m": 9999,
      "fzfg": false,
      "metar_trigger": false,
      "taf_trigger": false,
      "metar": "METAR LCPH 221130Z 10012KT 020V160 9999 FEW030 BKN080 16/05 Q1012 NOSIG",
      "taf": "TAF LCPH 221130Z 2212/2312 13020KT 9999 SCT025"
    },
    {
      "icao": "LEAL",
      "alert": "OK",
      "vis_m": 9999,
      "fzfg": false,
      "metar_trigger": false,
      "taf_trigger": false,
      "metar": "METAR LEAL 221130Z 29020KT 250V340 CAVOK 16/04 Q1003 NOSIG",
      "taf": "TAF LEAL 221100Z 2212/2312 29015KT 9999 SCT040 TX17/2213Z TN09/2306Z"
    },
    {
      "icao": "LEBB",
      "alert": "OK",
      "vis_m": 9999,
      "fzfg": false,
      "metar_trigger": false,
      "taf_trigger": false,
      "metar": "METAR LEBB 221130Z 22009KT 160V260 9999 FEW045 13/05 Q1001 NOSIG",
      "taf": "TAF LEBB 221100Z 2212/2312 22009KT 9999 FEW040 TX14/2215Z TN07/2306Z"
    },
    {
      "icao": "LEBL",
      "alert": "OK",
      "vis_m": 9999,
      "fzfg": false,
      "metar_trigger": false,
      "taf_trigger": false,
      "metar": "METAR LEBL 221130Z 28007KT 9999 FEW039 12/09 Q0997 NOSIG",
      "taf": "TAF LEBL 221100Z 2212/2312 32008KT 9999 BKN020 TX15/2213Z TN07/2306Z"
    },
    {
      "icao": "LECH",
      "alert": "OK",
      "vis_m": 9999,
      "fzfg": false,
      "metar_trigger": false,
      "taf_trigger": false,
      "metar": "METAR LECH 221130Z AUTO 30009G19KT 250V020 9999 SCT070 14/01 Q1000",
      "taf": ""
    },
    {
      "icao": "LEMD",
      "alert": "OK",
      "vis_m": 9999,
      "fzfg": false,
      "metar_trigger": false,
      "taf_trigger": false,
      "metar": "METAR LEMD 221130Z 23011KT 9999 FEW060 09/01 Q1004 NOSIG",
      "taf": "TAF LEMD 221100Z 2212/2318 21010KT 9999 FEW030 TX10/2214Z TN03/2308Z"
    },
    {
      "icao": "LEMG",
      "alert": "OK",
      "vis_m": 9999,
      "fzfg": false,
      "metar_trigger": false,
      "taf_trigger": false,
      "metar": "METAR LEMG 221130Z 30007KT 270V340 9999 FEW040 15/05 Q1011 NOSIG",
      "taf": "TAF LEMG 221100Z 2212/2312 30012KT 9999 FEW040 TX17/2214Z TN10/2307Z"
    },
    {
      "icao": "LEVC",
      "alert": "OK",
      "vis_m": 9999,
      "fzfg": false,
      "metar_trigger": false,
      "taf_trigger": false,
      "metar": "METAR LEVC 221130Z 28013KT 9999 FEW040 15/02 Q1001 NOSIG",
      "taf": "TAF LEVC 221100Z 2212/2312 27010KT 9999 SCT040 TX17/2213Z TN07/2305Z"
    },
    {
      "icao": "LEXJ",
      "alert": "OK",
      "vis_m": 9999,
      "fzfg": false,
      "metar_trigger": false,
      "taf_trigger": false,
      "metar": "METAR LEXJ 221130Z 25007KT 220V300 9999 FEW076 13/04 Q1001",
      "taf": ""
    },
    {
      "icao": "LEZG",
      "alert": "OK",
      "vis_m": 9999,
      "fzfg": false,
      "metar_trigger": false,
      "taf_trigger": false,
      "metar": "METAR LEZG 221130Z 30008KT CAVOK 11/06 Q1002 NOSIG",
      "taf": "TAF LEZG 221100Z 2212/2312 28008KT 9999 FEW040 TX13/2215Z TN05/2306Z"
    },
    {
      "icao": "LEZL",
      "alert": "OK",
      "vis_m": 9999,
      "fzfg": false,
      "metar_trigger": false,
      "taf_trigger": false,
      "metar": "METAR LEZL 221130Z 26009KT 9999 FEW030 14/08 Q1012 NOSIG",
      "taf": "TAF LEZL 220800Z 2209/2309 23009KT 9999 FEW030 TX15/2215Z TN08/2307Z"
    },
    {
      "icao": "LFBD",
      "alert": "OK",
      "vis_m": 9999,
      "fzfg": false,
      "metar_trigger": false,
      "taf_trigger": false,
      "metar": "METAR LFBD 221130Z AUTO 27011KT 9999 FEW022/// SCT048/// ///TCU 12/08 Q0997 TEMPO 25015G25KT 3000 SHRA",
      "taf": ""
    },
    {
      "icao": "LFLL",
      "alert": "OK",
      "vis_m": 9999,
      "fzfg": false,
      "metar_trigger": false,
      "taf_trigger": false,
      "metar": "METAR LFLL 221130Z 14010KT 9999 BKN046 BKN110 08/06 Q0998 NOSIG",
      "taf": "TAF LFLL 221100Z 2212/2318 15009KT CAVOK"
    },
    {
      "icao": "LFLS",
      "alert": "OK",
      "vis_m": 9999,
      "fzfg": false,
      "metar_trigger": false,
      "taf_trigger": false,
      "metar": "METAR LFLS 221130Z AUTO 12004KT 090V150 9999 SCT012 BKN048 BKN064 06/05 Q0998 TEMPO BKN014",
      "taf": ""
    },
    {
      "icao": "LFMN",
      "alert": "OK",
      "vis_m": 9999,
      "fzfg": false,
      "metar_trigger": false,
      "taf_trigger": false,
      "metar": "METAR LFMN 221130Z 07010KT 9999 BKN056 11/01 Q0999 NOSIG",
      "taf": "TAF LFMN 220800Z 2209/2315 33010KT 9999 BKN060"
    },
    {
      "icao": "LFOB",
      "alert": "OK",
      "vis_m": 9999,
      "fzfg": false,
      "metar_trigger": false,
      "taf_trigger": false,
      "metar": "METAR LFOB 221130Z AUTO 18012KT 9999 BKN017 OVC023 09/07 Q0991 TEMPO 4000 -SHRA BKN009 BKN014TCU",
      "taf": "TAF LFOB 221100Z 2212/2312 15012KT 9999 BKN015"
    },
    {
      "icao": "LFPO",
      "alert": "OK",
      "vis_m": 9999,
      "fzfg": false,
      "metar_trigger": false,
      "taf_trigger": false,
      "metar": "METAR LFPO 221130Z 19010KT 9999 SCT021 BKN026 10/06 Q0992 NOSIG",
      "taf": "TAF LFPO 221100Z 2212/2318 18012KT 9999 BKN016"
    },
    {
      "icao": "LFSB",
      "alert": "OK",
      "vis_m": 9999,
      "fzfg": false,
      "metar_trigger": false,
      "taf_trigger": false,
      "metar": "METAR LFSB 221130Z AUTO VRB03KT CAVOK 02/M01 Q0998 NOSIG",
      "taf": "TAF LFSB 221100Z 2212/2312 15005KT CAVOK"
    },
    {
      "icao": "LGAV",
      "alert": "OK",
      "vis_m": 9999,
      "fzfg": false,
      "metar_trigger": false,
      "taf_trigger": false,
      "metar": "METAR LGAV 221120Z 12004KT 070V160 9999 SCT010 SCT030 BKN060 13/10 Q1003 NOSIG",
      "taf": "TAF LGAV 221100Z 2212/2312 22010KT 9999 FEW015 SCT025 BKN070"
    },
    {
      "icao": "LGTS",
      "alert": "OK",
      "vis_m": 9999,
      "fzfg": false,
      "metar_trigger": false,
      "taf_trigger": false,
      "metar": "METAR LGTS 221120Z 00000KT 9999 FEW010 BKN025 08/07 Q1003 NOSIG",
      "taf": "TAF LGTS 221100Z 2212/2312 VRB03KT 9999 FEW010 BKN030"
    },
    {
      "icao": "LHBP",
      "alert": "OK",
      "vis_m": 7000,
      "fzfg": false,
      "metar_trigger": false,
      "taf_trigger": false,
      "metar": "METAR LHBP 221130Z 11007KT 7000 BKN013 OVC030 00/M02 Q1004 NOSIG",
      "taf": ""
    },
    {
      "icao": "LHDC",
      "alert": "OK",
      "vis_m": 9999,
      "fzfg": false,
      "metar_trigger": false,
      "taf_trigger": false,
      "metar": "METAR LHDC 221115Z AUTO 03009KT 9999 OVC048 01/M04 Q1004 NOSIG",
      "taf": "TAF LHDC 221115Z 2212/2221 02006KT 9999 -SN OVC045"
    },
    {
      "icao": "LIBD",
      "alert": "OK",
      "vis_m": 9999,
      "fzfg": false,
      "metar_trigger": false,
      "taf_trigger": false,
      "metar": "METAR LIBD 221120Z 27006KT 9999 SCT015 12/09 Q0999",
      "taf": "TAF LIBD 221100Z 2212/2312 25006KT 8000 SCT030"
    },
    {
      "icao": "LIBG",
      "alert": "OK",
      "vis_m": 9999,
      "fzfg": false,
      "metar_trigger": false,
      "taf_trigger": false,
      "metar": "METAR LIBG 221050Z 22003KT 190V250 9999 SCT020 SCT030 13/09 Q0999",
      "taf": "TAF LIBG 221100Z 2212/2221 VRB05KT 9999 SCT020"
    },
    {
      "icao": "LIBP",
      "alert": "OK",
      "vis_m": 9999,
      "fzfg": false,
      "metar_trigger": false,
      "taf_trigger": false,
      "metar": "METAR LIBP 221120Z AUTO 04005KT 9999 OVC020/// 10/07 Q1000",
      "taf": "TAF LIBP 221100Z 2212/2312 VRB05KT 9999 SCT020"
    },
    {
      "icao": "LIBR",
      "alert": "OK",
      "vis_m": 9999,
      "fzfg": false,
      "metar_trigger": false,
      "taf_trigger": false,
      "metar": "METAR LIBR 221120Z 32007KT 9999 BKN015 12/10 Q0999",
      "taf": "TAF LIBR 221100Z 2212/2312 VRB05KT 9999 FEW020"
    },
    {
      "icao": "LICA",
      "alert": "OK",
      "vis_m": 9999,
      "fzfg": false,
      "metar_trigger": false,
      "taf_trigger": false,
      "metar": "METAR LICA 221120Z AUTO 25008KT 9999 FEW045/// 14/10 Q1000",
      "taf": "TAF LICA 221100Z 2212/2312 25012KT 9999 SCT040"
    },
    {
      "icao": "LICC",
      "alert": "OK",
      "vis_m": 9999,
      "fzfg": false,
      "metar_trigger": false,
      "taf_trigger": false,
      "metar": "METAR LICC 221120Z 26010KT 9999 FEW030 SCT090 16/15 Q1000",
      "taf": "TAF LICC 221100Z 2212/2312 26012KT 7000 FEW050"
    },
    {
      "icao": "LICJ",
      "alert": "OK",
      "vis_m": 9999,
      "fzfg": false,
      "metar_trigger": false,
      "taf_trigger": false,
      "metar": "METAR LICJ 221120Z 25008KT 9999 FEW020 14/08 Q1001",
      "taf": "TAF LICJ 221100Z 2212/2312 26013KT 9999 SCT025"
    },
    {
      "icao": "LIMC",
      "alert": "OK",
      "vis_m": 200,
      "fzfg": false,
      "metar_trigger": false,
      "taf_trigger": false,
      "metar": "METAR LIMC 221120Z 24004KT 200V270 0200 R35R/0650U R17L/0650U R35L/0350N FG VV001 01/01 Q1001 NOSIG",
      "taf": "TAF LIMC 221100Z 2212/2318 VRB04KT 3000 BR NSC"
    },
    {
      "icao": "LIME",
      "alert": "OK",
      "vis_m": 9999,
      "fzfg": false,
      "metar_trigger": false,
      "taf_trigger": false,
      "metar": "METAR LIME 221120Z 18003KT 130V240 CAVOK 05/M02 Q1001 NOSIG",
      "taf": "TAF LIME 221100Z 2212/2312 VRB04KT CAVOK"
    },
    {
      "icao": "LIMF",
      "alert": "OK",
      "vis_m": 700,
      "fzfg": false,
      "metar_trigger": false,
      "taf_trigger": false,
      "metar": "METAR LIMF 221120Z VRB02KT 0700 R36/1600U FG BKN003 01/00 Q1001",
      "taf": "TAF LIMF 221100Z 2212/2312 VRB04KT 4000 BR NSC"
    },
    {
      "icao": "LIMJ",
      "alert": "OK",
      "vis_m": 9999,
      "fzfg": false,
      "metar_trigger": false,
      "taf_trigger": false,
      "metar": "METAR LIMJ 221120Z 04011KT CAVOK 09/M00 Q1000",
      "taf": "TAF LIMJ 221100Z 2212/2312 03013KT 9999 FEW040"
    },
    {
      "icao": "LIPE",
      "alert": "OK",
      "vis_m": 6000,
      "fzfg": false,
      "metar_trigger": false,
      "taf_trigger": false,
      "metar": "METAR LIPE 221120Z 33003KT 6000 BKN035 05/01 Q1001",
      "taf": "TAF LIPE 221100Z 2212/2312 VRB05KT 9999 SCT020 SCT040"
    },
    {
      "icao": "LIPH",
      "alert": "OK",
      "vis_m": 9999,
      "fzfg": false,
      "metar_trigger": false,
      "taf_trigger": false,
      "metar": "METAR LIPH 221120Z 26003KT 220V290 9999 BKN060 06/M05 Q1001",
      "taf": "TAF LIPH 221100Z 2212/2312 VRB05KT 9999 SCT060"
    },
    {
      "icao": "LIPQ",
      "alert": "OK",
      "vis_m": 9999,
      "fzfg": false,
      "metar_trigger": false,
      "taf_trigger": false,
      "metar": "METAR LIPQ 221120Z AUTO VRB02KT 9999 FEW050/// BKN061/// 08/M03 Q1001",
      "taf": "TAF LIPQ 221100Z 2212/2312 VRB05KT 9999 SCT050"
    },
    {
      "icao": "LIPR",
      "alert": "OK",
      "vis_m": 8000,
      "fzfg": false,
      "metar_trigger": false,
      "taf_trigger": false,
      "metar": "METAR LIPR 221120Z 28006KT 8000 BKN015 06/02 Q1001",
      "taf": "TAF LIPR 221100Z 2212/2312 30006KT 9999 SCT020"
    },
    {
      "icao": "LIPX",
      "alert": "OK",
      "vis_m": 9999,
      "fzfg": false,
      "metar_trigger": false,
      "taf_trigger": false,
      "metar": "METAR LIPX 221120Z VRB02KT 9999 FEW055 06/M02 Q1001",
      "taf": "TAF LIPX 221100Z 2212/2312 VRB04KT 9999 SCT050"
    },
    {
      "icao": "LIPY",
      "alert": "OK",
      "vis_m": 9999,
      "fzfg": false,
      "metar_trigger": false,
      "taf_trigger": false,
      "metar": "METAR LIPY 221120Z AUTO 29005KT 250V320 9999 BKN016/// OVC029/// 06/03 Q1001",
      "taf": "TAF LIPY 221100Z 2212/2312 25008KT 9999 SCT070"
    },
    {
      "icao": "LIPZ",
      "alert": "OK",
      "vis_m": 9999,
      "fzfg": false,
      "metar_trigger": false,
      "taf_trigger": false,
      "metar": "METAR LIPZ 221120Z 31003KT 250V010 9999 BKN050 06/M04 Q1001 NOSIG",
      "taf": "TAF LIPZ 221100Z 2212/2318 VRB05KT CAVOK"
    },
    {
      "icao": "LIRF",
      "alert": "OK",
      "vis_m": 9999,
      "fzfg": false,
      "metar_trigger": false,
      "taf_trigger": false,
      "metar": "METAR LIRF 221120Z 28007KT 250V310 CAVOK 12/05 Q0999 NOSIG",
      "taf": "TAF LIRF 221100Z 2212/2318 24010KT 9999 FEW040"
    },
    {
      "icao": "LIRN",
      "alert": "OK",
      "vis_m": 9999,
      "fzfg": false,
      "metar_trigger": false,
      "taf_trigger": false,
      "metar": "METAR LIRN 221120Z VRB03KT 9999 FEW030 14/07 Q0999 NOSIG",
      "taf": "TAF LIRN 221100Z 2212/2312 VRB05KT 9999 SCT050"
    },
    {
      "icao": "LIRP",
      "alert": "OK",
      "vis_m": 9999,
      "fzfg": false,
      "metar_trigger": false,
      "taf_trigger": false,
      "metar": "METAR LIRP 221115Z 04003KT CAVOK 09/03 Q1000 NOSIG",
      "taf": "TAF LIRP 221100Z 2212/2312 08005KT CAVOK"
    },
    {
      "icao": "LIRZ",
      "alert": "OK",
      "vis_m": 9999,
      "fzfg": false,
      "metar_trigger": false,
      "taf_trigger": false,
      "metar": "METAR LIRZ 221120Z AUTO 33003KT 280V020 9999 BKN054/// 09/04 Q0999",
      "taf": "TAF LIRZ 221100Z 2212/2312 VRB05KT 9999 BKN045"
    },
    {
      "icao": "LJLJ",
      "alert": "OK",
      "vis_m": 9999,
      "fzfg": false,
      "metar_trigger": false,
      "taf_trigger": false,
      "metar": "METAR LJLJ 221130Z 09004KT 050V150 9999 FEW060 M01/M07 Q1000 NOSIG",
      "taf": "TAF LJLJ 221100Z 2212/2312 12003KT 9999 FEW010 BKN060"
    },
    {
      "icao": "LKMT",
      "alert": "OK",
      "vis_m": 9999,
      "fzfg": false,
      "metar_trigger": false,
      "taf_trigger": false,
      "metar": "METAR LKMT 221130Z VRB02KT CAVOK M00/M07 Q1002 NOSIG",
      "taf": "TAF LKMT 221100Z 2212/2312 VRB02KT CAVOK"
    },
    {
      "icao": "LKPR",
      "alert": "OK",
      "vis_m": 9999,
      "fzfg": false,
      "metar_trigger": false,
      "taf_trigger": false,
      "metar": "METAR LKPR 221130Z 15006KT 110V190 9999 BKN014 M06/M08 Q1001 NOSIG",
      "taf": "TAF LKPR 221100Z 2212/2318 13006KT 9999 BKN015"
    },
    {
      "icao": "LLBG",
      "alert": "OK",
      "vis_m": 9999,
      "fzfg": false,
      "metar_trigger": false,
      "taf_trigger": false,
      "metar": "METAR LLBG 221120Z 07009KT CAVOK 20/03 Q1012 NOSIG RMK OVC100",
      "taf": "TAF LLBG 221105Z 2212/2312 10012KT CAVOK"
    },
    {
      "icao": "LMML",
      "alert": "OK",
      "vis_m": 9999,
      "fzfg": false,
      "metar_trigger": false,
      "taf_trigger": false,
      "metar": "METAR LMML 221115Z 29012KT 9999 FEW024 15/11 Q1002 NOSIG",
      "taf": "TAF LMML 221100Z 2212/2312 29015KT 9999 FEW025"
    },
    {
      "icao": "LOWW",
      "alert": "OK",
      "vis_m": 4100,
      "fzfg": false,
      "metar_trigger": false,
      "taf_trigger": false,
      "metar": "METAR LOWW 221120Z 14009KT 4100 BR SCT006 BKN007 M05/M07 Q1003 BECMG FM1230 5000 BR OVC010",
      "taf": "TAF LOWW 221115Z 2212/2318 13005KT 4000 BR OVC006 TXM01/2314Z TNM06/2305Z"
    },
    {
      "icao": "LPFR",
      "alert": "OK",
      "vis_m": 9999,
      "fzfg": false,
      "metar_trigger": false,
      "taf_trigger": false,
      "metar": "METAR LPFR 221130Z 26006KT 9999 FEW020 15/11 Q1012",
      "taf": "TAF LPFR 221100Z 2212/2312 VRB02KT 9999 FEW020 BKN040"
    },
    {
      "icao": "LPMA",
      "alert": "OK",
      "vis_m": 9999,
      "fzfg": false,
      "metar_trigger": false,
      "taf_trigger": false,
      "metar": "METAR LPMA 221130Z 12004KT 080V140 9999 SCT013 20/15 Q1020",
      "taf": "TAF LPMA 221100Z 2212/2312 VRB05KT 9999 SCT015"
    },
    {
      "icao": "LPPR",
      "alert": "OK",
      "vis_m": 9999,
      "fzfg": false,
      "metar_trigger": false,
      "taf_trigger": false,
      "metar": "METAR LPPR 221130Z 23005KT 160V270 9999 -RA FEW030 BKN040 10/08 Q1006",
      "taf": "TAF LPPR 221100Z 2212/2312 19015KT 6000 -RA SCT008 BKN015"
    },
    {
      "icao": "LPPS",
      "alert": "OK",
      "vis_m": 9999,
      "fzfg": false,
      "metar_trigger": false,
      "taf_trigger": false,
      "metar": "METAR LPPS 221130Z 29013KT 9999 SCT004 BKN010 18/17 Q1019",
      "taf": "TAF LPPS 221100Z 2212/2318 30015KT 9999 SCT015 SCT030"
    },
    {
      "icao": "LPPT",
      "alert": "OK",
      "vis_m": 9999,
      "fzfg": false,
      "metar_trigger": false,
      "taf_trigger": false,
      "metar": "METAR LPPT 221130Z 24011KT 9999 FEW022 14/10 Q1009",
      "taf": "TAF LPPT 221100Z 2212/2318 24010KT 9999 SCT025 BKN040"
    },
    {
      "icao": "LQBK",
      "alert": "OK",
      "vis_m": 4000,
      "fzfg": false,
      "metar_trigger": false,
      "taf_trigger": false,
      "metar": "METAR LQBK 221130Z VRB01KT 4000 BR OVC009 M02/M04 Q1003 NOSIG",
      "taf": "TAF LQBK 221100Z 2212/2312 VRB02KT 4000 BR OVC008 TX01/2312Z TNM04/2224Z"
    },
    {
      "icao": "LQSA",
      "alert": "OK",
      "vis_m": 5000,
      "fzfg": false,
      "metar_trigger": false,
      "taf_trigger": false,
      "metar": "METAR LQSA 221130Z VRB02KT 5000 BR SCT065 01/M05 Q1001 NOSIG",
      "taf": "TAF LQSA 221100Z 2212/2312 VRB02KT 4000 BR FEW010 SCT045 TX05/2312Z TNM02/2305Z"
    },
    {
      "icao": "LQTZ",
      "alert": "OK",
      "vis_m": 4500,
      "fzfg": false,
      "metar_trigger": false,
      "taf_trigger": false,
      "metar": "METAR LQTZ 221130Z VRB02KT 4500 BR BKN005 M01/M04 Q1002",
      "taf": "TAF LQTZ 221100Z 2212/2312 VRB02KT 6000 SCT007 BKN045 TX04/2312Z TNM03/2303Z"
    },
    {
      "icao": "LRBC",
      "alert": "OK",
      "vis_m": 9999,
      "fzfg": false,
      "metar_trigger": false,
      "taf_trigger": false,
      "metar": "METAR LRBC 221130Z 17009KT 9999 OVC015 03/00 Q1006",
      "taf": "TAF LRBC 221100Z 2212/2221 16011KT 9999 BKN015"
    },
    {
      "icao": "LRBS",
      "alert": "OK",
      "vis_m": 2000,
      "fzfg": false,
      "metar_trigger": false,
      "taf_trigger": false,
      "metar": "METAR LRBS 221130Z 07005KT 2000 -RADZ BR OVC002 01/01 Q1005 NOSIG",
      "taf": "TAF LRBS 221100Z 2212/2312 VRB04KT 3000 -RA BR OVC002"
    },
    {
      "icao": "LRBV",
      "alert": "OK",
      "vis_m": 9999,
      "fzfg": false,
      "metar_trigger": false,
      "taf_trigger": false,
      "metar": "METAR LRBV 221130Z 31004KT 9999 FEW039 BKN080 02/M01 Q1002",
      "taf": "TAF LRBV 221100Z 2212/2221 VRB04KT 9999 SCT040"
    },
    {
      "icao": "LRCL",
      "alert": "OK",
      "vis_m": 7000,
      "fzfg": false,
      "metar_trigger": false,
      "taf_trigger": false,
      "metar": "METAR LRCL 221130Z 00000KT 7000 OVC045 M01/M07 Q1004",
      "taf": "TAF LRCL 221100Z 2212/2221 VRB04KT 7000 OVC050"
    },
    {
      "icao": "LRCV",
      "alert": "OK",
      "vis_m": 4000,
      "fzfg": false,
      "metar_trigger": false,
      "taf_trigger": false,
      "metar": "METAR LRCV 221130Z 00000KT 4000 -SN BR OVC004 01/01 Q1005",
      "taf": "TAF LRCV 221100Z 2212/2221 VRB04KT 3000 -SN BR OVC005"
    },
    {
      "icao": "LRIA",
      "alert": "OK",
      "vis_m": 9999,
      "fzfg": false,
      "metar_trigger": false,
      "taf_trigger": false,
      "metar": "METAR LRIA 221130Z COR 11010KT 9999 BKN023 03/00 Q1006",
      "taf": "TAF LRIA 221100Z 2212/2221 12010KT CAVOK"
    },
    {
      "icao": "LROP",
      "alert": "OK",
      "vis_m": 1500,
      "fzfg": false,
      "metar_trigger": false,
      "taf_trigger": false,
      "metar": "METAR LROP 221130Z 08006KT 1500 DZ BR SCT001 OVC002 01/01 Q1005 NOSIG",
      "taf": "TAF LROP 221100Z 2212/2312 VRB04KT 3000 -RA BR OVC002"
    },
    {
      "icao": "LRSB",
      "alert": "OK",
      "vis_m": 9999,
      "fzfg": false,
      "metar_trigger": false,
      "taf_trigger": false,
      "metar": "METAR LRSB 221130Z VRB01KT 9999 BKN055 00/M06 Q1003",
      "taf": "TAF LRSB 221100Z 2212/2312 VRB04KT 9999 BKN050"
    },
    {
      "icao": "LRSM",
      "alert": "OK",
      "vis_m": 9999,
      "fzfg": false,
      "metar_trigger": false,
      "taf_trigger": false,
      "metar": "METAR LRSM 221130Z 06003KT CAVOK 01/M06 Q1005",
      "taf": "TAF LRSM 221100Z 2212/2221 VRB04KT CAVOK"
    },
    {
      "icao": "LRSV",
      "alert": "OK",
      "vis_m": 9999,
      "fzfg": false,
      "metar_trigger": false,
      "taf_trigger": false,
      "metar": "METAR LRSV 221130Z 17008KT 9999 BKN010 01/01 Q1003",
      "taf": "TAF LRSV 221100Z 2212/2221 15008KT 9999 BKN010"
    },
    {
      "icao": "LRTM",
      "alert": "OK",
      "vis_m": 4000,
      "fzfg": false,
      "metar_trigger": false,
      "taf_trigger": false,
      "metar": "METAR LRTM 221130Z 22003KT 4000 BR SCT047 M03/M07 Q1004",
      "taf": "TAF LRTM 221100Z 2212/2221 VRB04KT 3000 BR BKN045"
    },
    {
      "icao": "LRTR",
      "alert": "OK",
      "vis_m": 9999,
      "fzfg": false,
      "metar_trigger": false,
      "taf_trigger": false,
      "metar": "METAR LRTR 221130Z 36003KT 9999 BKN047 02/M04 Q1004",
      "taf": "TAF LRTR 221100Z 2212/2312 VRB04KT 9999 BKN045"
    },
    {
      "icao": "LTAC",
      "alert": "OK",
      "vis_m": 6000,
      "fzfg": false,
      "metar_trigger": false,
      "taf_trigger": false,
      "metar": "METAR LTAC 221120Z 04012KT 6000 -SN SCT011 BKN021 BKN080 M01/M02 Q1011 NOSIG RMK RWY21C 03011KT RWY03L 04010KT RWY21R 03011KT RWY03R 02007KT RWY21L 03009KT",
      "taf": "TAF LTAC 221040Z 2212/2312 VRB02KT 9999 SCT035 BKN090"
    },
    {
      "icao": "LTFM",
      "alert": "OK",
      "vis_m": 9999,
      "fzfg": false,
      "metar_trigger": false,
      "taf_trigger": false,
      "metar": "METAR LTFM 221120Z 20015KT 9999 SCT040 BKN100 11/04 Q1004 NOSIG RMK RWY17L 20016KT RWY34L 19012KT RWY16R 19015KT RWY36 20015KT RWY18 20019KT",
      "taf": "TAF LTFM 221040Z 2212/2318 20012KT 9999 SCT040 BKN100"
    },
    {
      "icao": "LUKK",
      "alert": "OK",
      "vis_m": 4300,
      "fzfg": false,
      "metar_trigger": false,
      "taf_trigger": false,
      "metar": "METAR LUKK 221130Z 11007KT 4300 BR OVC003 01/01 Q1008 NOSIG",
      "taf": "TAF LUKK 221119Z 2212/2312 09009KT 5000 BR OVC008"
    },
    {
      "icao": "LWOH",
      "alert": "OK",
      "vis_m": 9999,
      "fzfg": false,
      "metar_trigger": false,
      "taf_trigger": false,
      "metar": "METAR LWOH 221120Z 16005KT 130V200 9999 FEW020 SCT040 07/02 Q1001",
      "taf": "TAF LWOH 220805Z 2209/2309 VRB02KT 9999 BKN040"
    },
    {
      "icao": "LWSK",
      "alert": "OK",
      "vis_m": 5000,
      "fzfg": false,
      "metar_trigger": false,
      "taf_trigger": false,
      "metar": "METAR LWSK 221120Z VRB02KT 5000 BR SCT007 BKN013 03/01 Q1004 NOSIG",
      "taf": "TAF LWSK 220805Z 2209/2309 VRB02KT 1500 BR FEW010 BKN010 OVC015"
    },
    {
      "icao": "LYBE",
      "alert": "OK",
      "vis_m": 3500,
      "fzfg": false,
      "metar_trigger": false,
      "taf_trigger": false,
      "metar": "METAR LYBE 221130Z VRB02KT 3500 BR FEW005 M02/M03 Q1003 NOSIG",
      "taf": "TAF LYBE 221100Z 2212/2312 30004KT 3000 BR NSC TX00/2212Z TNM03/2306Z"
    },
    {
      "icao": "LYNI",
      "alert": "OK",
      "vis_m": 9999,
      "fzfg": false,
      "metar_trigger": false,
      "taf_trigger": false,
      "metar": "METAR LYNI 221130Z 00000KT 9999 BKN033 BKN085 07/M01 Q1003 NOSIG",
      "taf": "TAF LYNI 221100Z 2212/2312 06006KT 9999 SCT040 BKN090 TX09/2312Z TN00/2305Z"
    },
    {
      "icao": "LYPG",
      "alert": "OK",
      "vis_m": 9999,
      "fzfg": false,
      "metar_trigger": false,
      "taf_trigger": false,
      "metar": "METAR LYPG 221130Z 18003KT 140V220 9999 FEW013 BKN050 BKN070 09/05 Q1001 NOSIG",
      "taf": "TAF LYPG 221100Z 2212/2312 12005KT 9999 FEW013 BKN050 OVC073 TX10/2213Z TN05/2305Z"
    },
    {
      "icao": "LZIB",
      "alert": "OK",
      "vis_m": 4500,
      "fzfg": false,
      "metar_trigger": false,
      "taf_trigger": false,
      "metar": "METAR LZIB 221130Z 08004KT 4500 BR SCT009 BKN011 M04/M06 Q1003 NOSIG",
      "taf": "TAF LZIB 221115Z 2212/2312 12008KT 9999 FEW008 SCT020"
    },
    {
      "icao": "LZKZ",
      "alert": "OK",
      "vis_m": 7000,
      "fzfg": false,
      "metar_trigger": false,
      "taf_trigger": false,
      "metar": "METAR LZKZ 221130Z 10003KT 7000 SCT037 BKN048 M02/M05 Q1005 NOSIG",
      "taf": "TAF LZKZ 221115Z 2212/2312 VRB02KT 8000 BKN035"
    },
    {
      "icao": "LZTT",
      "alert": "OK",
      "vis_m": 9999,
      "fzfg": false,
      "metar_trigger": false,
      "taf_trigger": false,
      "metar": "METAR LZTT 221130Z VRB02KT 9999 -SN FEW043 BKN053 M00/M05 Q1001 TEMPO 5000 -SN BKN020",
      "taf": "TAF LZTT 221115Z 2212/2312 VRB02KT 9999 FEW020 BKN045"
    },
    {
      "icao": "OEJN",
      "alert": "OK",
      "vis_m": 9999,
      "fzfg": false,
      "metar_trigger": false,
      "taf_trigger": false,
      "metar": "METAR OEJN 221100Z 21007KT CAVOK 32/13 Q1011 NOSIG",
      "taf": "TAF OEJN 221100Z 2212/2318 22010KT 7000 FEW040"
    },
    {
      "icao": "OEMA",
      "alert": "OK",
      "vis_m": 9999,
      "fzfg": false,
      "metar_trigger": false,
      "taf_trigger": false,
      "metar": "METAR OEMA 221100Z 10011KT CAVOK 21/M05 Q1020 NOSIG",
      "taf": "TAF OEMA 221100Z 2212/2318 10015KT 7000 NSC"
    },
    {
      "icao": "OJAI",
      "alert": "OK",
      "vis_m": 4000,
      "fzfg": false,
      "metar_trigger": false,
      "taf_trigger": false,
      "metar": "METAR OJAI 221100Z 07012KT 4000 HZ NSC 09/M04 Q1019 NOSIG",
      "taf": "TAF OJAI 221003Z 2212/2318 08012KT 4000 -RA SCT035 BKN035"
    },
    {
      "icao": "OMAA",
      "alert": "OK",
      "vis_m": 9999,
      "fzfg": false,
      "metar_trigger": false,
      "taf_trigger": false,
      "metar": "METAR OMAA 221130Z 34016KT CAVOK 20/00 Q1019 NOSIG",
      "taf": "TAF OMAA 221100Z 2212/2318 33015KT 8000 NSC"
    },
    {
      "icao": "OMDB",
      "alert": "OK",
      "vis_m": 9999,
      "fzfg": false,
      "metar_trigger": false,
      "taf_trigger": false,
      "metar": "METAR OMDB 221130Z 02013KT 340V050 CAVOK 20/M00 Q1019 NOSIG",
      "taf": "TAF OMDB 221100Z 2212/2318 36014KT 8000 NSC"
    },
    {
      "icao": "UAAA",
      "alert": "OK",
      "vis_m": 4900,
      "fzfg": false,
      "metar_trigger": false,
      "taf_trigger": false,
      "metar": "METAR UAAA 221130Z 34004MPS 4900 BR SCT100 BKN200 M08/M11 Q1010 NOSIG",
      "taf": "TAF UAAA 221103Z 2212/2312 32003MPS 3100 BR FU SCT011 BKN050 TXM04/2308Z TNM10/2302Z"
    },
    {
      "icao": "UBBB",
      "alert": "OK",
      "vis_m": 9999,
      "fzfg": false,
      "metar_trigger": false,
      "taf_trigger": false,
      "metar": "METAR UBBB 221130Z 21024KT CAVOK 07/M03 Q1019 NOSIG",
      "taf": "TAF UBBB 221054Z 2212/2312 21014KT CAVOK TX07/2212Z TNM02/2300Z"
    },
    {
      "icao": "UDSG",
      "alert": "OK",
      "vis_m": 9999,
      "fzfg": false,
      "metar_trigger": false,
      "taf_trigger": false,
      "metar": "METAR UDSG 221130Z 27001KT 9999 FEW049 M12/M16 Q1021 NOSIG",
      "taf": "TAF UDSG 221058Z 2212/2312 VRB06KT 9999 SCT040"
    },
    {
      "icao": "UDYZ",
      "alert": "OK",
      "vis_m": 9999,
      "fzfg": false,
      "metar_trigger": false,
      "taf_trigger": false,
      "metar": "METAR UDYZ 221130Z VRB02KT 9999 NSC M02/M10 Q1025 NOSIG",
      "taf": "TAF UDYZ 221100Z 2212/2312 VRB04KT 9999 FEW040"
    },
    {
      "icao": "UGKO",
      "alert": "OK",
      "vis_m": 9999,
      "fzfg": false,
      "metar_trigger": false,
      "taf_trigger": false,
      "metar": "METAR UGKO 221130Z 09020KT CAVOK 08/M06 Q1013 NOSIG",
      "taf": "TAF UGKO 221100Z 2212/2312 08017KT CAVOK TX10/2311Z TN05/2303Z"
    }
  ]
}