{
  "ts_utc": "2026-03-12T09:55:24Z",
  "threshold_m": 150,
  "source": "stations_override.txt (ICAO list) + aviationweather.gov (METAR/TAF raw)",
  "station_count": 159,
  "stations": [
    {
      "icao": "BIKF",
      "alert": "OK",
      "vis_m": 9999,
      "fzfg": false,
      "metar_trigger": false,
      "taf_trigger": false,
      "metar": "METAR BIKF 120930Z 36019KT 9999 SCT020 BKN094 M00/M04 Q0966",
      "taf": "TAF BIKF 120758Z 1209/1309 35018KT 9999 SCT018 BKN028 TX01/1309Z TNM01/1209Z"
    },
    {
      "icao": "BKPR",
      "alert": "OK",
      "vis_m": null,
      "fzfg": false,
      "metar_trigger": false,
      "taf_trigger": false,
      "metar": "",
      "taf": "TAF BKPR 120530Z 1206/1306 VRB05KT CAVOK"
    },
    {
      "icao": "EBCI",
      "alert": "OK",
      "vis_m": 9999,
      "fzfg": false,
      "metar_trigger": false,
      "taf_trigger": false,
      "metar": "METAR EBCI 120920Z 20015KT 9999 FEW014 07/04 Q1022 NOSIG",
      "taf": "TAF EBCI 120516Z 1206/1312 21010KT CAVOK"
    },
    {
      "icao": "EDDB",
      "alert": "OK",
      "vis_m": 9999,
      "fzfg": false,
      "metar_trigger": false,
      "taf_trigger": false,
      "metar": "METAR EDDB 120950Z AUTO 26009KT 230V290 9999 FEW025 12/04 Q1022 NOSIG",
      "taf": "TAF EDDB 120500Z 1206/1306 29009KT CAVOK"
    },
    {
      "icao": "EDDH",
      "alert": "OK",
      "vis_m": 9999,
      "fzfg": false,
      "metar_trigger": false,
      "taf_trigger": false,
      "metar": "METAR EDDH 120950Z AUTO 21012KT CAVOK 10/05 Q1018 TEMPO 22015G25KT",
      "taf": "TAF EDDH 120500Z 1206/1312 22007KT 9999 FEW035"
    },
    {
      "icao": "EDDK",
      "alert": "OK",
      "vis_m": 9999,
      "fzfg": false,
      "metar_trigger": false,
      "taf_trigger": false,
      "metar": "METAR EDDK 120950Z AUTO 21010KT 180V240 CAVOK 10/04 Q1023 NOSIG",
      "taf": "TAF EDDK 120500Z 1206/1312 15005KT CAVOK"
    },
    {
      "icao": "EDDN",
      "alert": "OK",
      "vis_m": 9999,
      "fzfg": false,
      "metar_trigger": false,
      "taf_trigger": false,
      "metar": "METAR EDDN 120950Z AUTO 26005KT 220V310 9999 FEW015 10/05 Q1024 NOSIG",
      "taf": ""
    },
    {
      "icao": "EDDS",
      "alert": "OK",
      "vis_m": 9999,
      "fzfg": false,
      "metar_trigger": false,
      "taf_trigger": false,
      "metar": "METAR EDDS 120950Z AUTO 27007KT 230V300 9999 FEW026 11/03 Q1024 NOSIG",
      "taf": "TAF EDDS 120500Z 1206/1306 27006KT 9999 SCT040"
    },
    {
      "icao": "EDFH",
      "alert": "OK",
      "vis_m": 9999,
      "fzfg": false,
      "metar_trigger": false,
      "taf_trigger": false,
      "metar": "METAR EDFH 120920Z 24008KT 200V270 9999 BKN009 04/02 Q1023",
      "taf": "TAF EDFH 120500Z 1206/1306 24006KT CAVOK"
    },
    {
      "icao": "EDJA",
      "alert": "OK",
      "vis_m": 9999,
      "fzfg": false,
      "metar_trigger": false,
      "taf_trigger": false,
      "metar": "METAR EDJA 120920Z COR 30005KT 270V330 9999 SCT013 BKN035 OVC042 07/04 Q1024",
      "taf": "TAF EDJA 120800Z 1209/1218 25007KT 9999 SCT008 BKN020"
    },
    {
      "icao": "EDLW",
      "alert": "OK",
      "vis_m": 9999,
      "fzfg": false,
      "metar_trigger": false,
      "taf_trigger": false,
      "metar": "METAR EDLW 120920Z 21011KT CAVOK 09/04 Q1021",
      "taf": "TAF EDLW 120500Z 1206/1306 20008KT CAVOK"
    },
    {
      "icao": "EDNY",
      "alert": "OK",
      "vis_m": 9999,
      "fzfg": false,
      "metar_trigger": false,
      "taf_trigger": false,
      "metar": "METAR EDNY 120920Z 25006KT 9999 -DZ FEW011 SCT023 OVC034 08/07 Q1025",
      "taf": "TAF EDNY 120800Z 1209/1218 23005KT 9999 SCT015 BKN040"
    },
    {
      "icao": "EDSB",
      "alert": "OK",
      "vis_m": 9999,
      "fzfg": false,
      "metar_trigger": false,
      "taf_trigger": false,
      "metar": "METAR EDSB 120920Z 23006KT 200V260 9999 SCT020 SCT024 10/05 Q1025",
      "taf": "TAF EDSB 120500Z 1206/1306 21005KT 9999 SCT040"
    },
    {
      "icao": "EETN",
      "alert": "OK",
      "vis_m": 8000,
      "fzfg": false,
      "metar_trigger": false,
      "taf_trigger": false,
      "metar": "METAR EETN 120950Z 20011KT 8000 -RA FEW011 OVC033 07/06 Q1009 TEMPO 4000 RA BKN008",
      "taf": "TAF EETN 120530Z 1206/1306 18012KT 8000 SCT010 BKN030"
    },
    {
      "icao": "EFTU",
      "alert": "OK",
      "vis_m": 4000,
      "fzfg": false,
      "metar_trigger": false,
      "taf_trigger": false,
      "metar": "METAR EFTU 120950Z AUTO 22010KT 4000 -SHRA OVC002 04/03 Q1006 REDZ",
      "taf": ""
    },
    {
      "icao": "EGBB",
      "alert": "OK",
      "vis_m": 9999,
      "fzfg": false,
      "metar_trigger": false,
      "taf_trigger": false,
      "metar": "METAR EGBB 120950Z 19018G30KT 160V230 9999 BKN022 10/05 Q1007",
      "taf": "TAF EGBB 120455Z 1206/1306 21015KT 9999 SCT020"
    },
    {
      "icao": "EGGP",
      "alert": "OK",
      "vis_m": 9999,
      "fzfg": false,
      "metar_trigger": false,
      "taf_trigger": false,
      "metar": "METAR EGGP 120950Z 18013G24KT 9999 BKN031 10/07 Q1000",
      "taf": "TAF EGGP 120458Z 1206/1306 19012KT 9999 SCT025"
    },
    {
      "icao": "EGGW",
      "alert": "OK",
      "vis_m": 9999,
      "fzfg": false,
      "metar_trigger": false,
      "taf_trigger": false,
      "metar": "METAR EGGW 120950Z AUTO 21019G29KT 9999 OVC023 10/05 Q1011",
      "taf": "TAF EGGW 120502Z 1206/1306 21013KT 9999 SCT022"
    },
    {
      "icao": "EGKK",
      "alert": "OK",
      "vis_m": 9999,
      "fzfg": false,
      "metar_trigger": false,
      "taf_trigger": false,
      "metar": "METAR EGKK 120950Z 21013G23KT 9999 -RA SCT015 SCT020 BKN031 09/07 Q1014",
      "taf": "TAF EGKK 120459Z 1206/1312 20010KT 9999 SCT035"
    },
    {
      "icao": "EGNM",
      "alert": "OK",
      "vis_m": 9999,
      "fzfg": false,
      "metar_trigger": false,
      "taf_trigger": false,
      "metar": "METAR EGNM 120950Z 19019G37KT 160V230 9999 BKN018 10/06 Q1000",
      "taf": "TAF EGNM 120458Z 1206/1306 21015G25KT 9999 SCT020"
    },
    {
      "icao": "EGPD",
      "alert": "OK",
      "vis_m": 9999,
      "fzfg": false,
      "metar_trigger": false,
      "taf_trigger": false,
      "metar": "METAR EGPD 120950Z COR AUTO 20029G42KT 9999 BKN020 10/05 Q0984 TEMPO RA",
      "taf": ""
    },
    {
      "icao": "EGPF",
      "alert": "OK",
      "vis_m": 8000,
      "fzfg": false,
      "metar_trigger": false,
      "taf_trigger": false,
      "metar": "METAR EGPF 120950Z 22020G30KT 8000 -SHRA FEW020TCU SCT034 BKN040 08/06 Q0987",
      "taf": "TAF EGPF 120456Z 1206/1306 20028G46KT 9999 SCT030"
    },
    {
      "icao": "EHBK",
      "alert": "OK",
      "vis_m": 9999,
      "fzfg": false,
      "metar_trigger": false,
      "taf_trigger": false,
      "metar": "METAR EHBK 120925Z AUTO 21017KT 180V240 9999 SCT018 SCT021 09/05 Q1022 NOSIG",
      "taf": "TAF EHBK 120504Z 1206/1312 21013KT CAVOK"
    },
    {
      "icao": "EHEH",
      "alert": "OK",
      "vis_m": 9999,
      "fzfg": false,
      "metar_trigger": false,
      "taf_trigger": false,
      "metar": "METAR EHEH 120925Z AUTO 20013KT 170V240 9999 SCT013 BKN016 BKN320 09/06 Q1020 WHT TEMPO SCT012 RMK TREND REMOTE BY EHWX",
      "taf": ""
    },
    {
      "icao": "EKBI",
      "alert": "OK",
      "vis_m": 9999,
      "fzfg": false,
      "metar_trigger": false,
      "taf_trigger": false,
      "metar": "METAR EKBI 120949Z 20013KT 160V230 9999 NSC 09/03 Q1012",
      "taf": "TAF EKBI 120827Z 1209/1309 21010KT 9999 FEW030"
    },
    {
      "icao": "EKCH",
      "alert": "OK",
      "vis_m": 9999,
      "fzfg": false,
      "metar_trigger": false,
      "taf_trigger": false,
      "metar": "METAR EKCH 120950Z AUTO 22014KT 9999 NCD 08/05 Q1016 NOSIG",
      "taf": "TAF EKCH 120827Z 1209/1309 21012KT 9999 FEW012"
    },
    {
      "icao": "ENAL",
      "alert": "OK",
      "vis_m": 9999,
      "fzfg": false,
      "metar_trigger": false,
      "taf_trigger": false,
      "metar": "METAR ENAL 120920Z 20016KT 170V230 9999 FEW050 10/02 Q0984",
      "taf": "TAF ENAL 120800Z 1209/1218 18015KT 9999 SCT050"
    },
    {
      "icao": "ENBR",
      "alert": "OK",
      "vis_m": 9000,
      "fzfg": false,
      "metar_trigger": false,
      "taf_trigger": false,
      "metar": "METAR ENBR 120920Z 17027G39KT 9000 RA SCT009 BKN011 06/04 Q0992 TEMPO 3000 SHRA BR BKN007 SCT018CB RMK WIND 1200FT 18036G59KT",
      "taf": ""
    },
    {
      "icao": "ENGM",
      "alert": "OK",
      "vis_m": 9999,
      "fzfg": false,
      "metar_trigger": false,
      "taf_trigger": false,
      "metar": "METAR ENGM 120920Z 18015KT 9999 BKN007 02/00 Q1002 TEMPO BKN010",
      "taf": "TAF ENGM 120500Z 1206/1306 19008KT 9999 OVC008"
    },
    {
      "icao": "ENHD",
      "alert": "OK",
      "vis_m": 7000,
      "fzfg": false,
      "metar_trigger": false,
      "taf_trigger": false,
      "metar": "METAR ENHD 120920Z 18025G38KT 7000 RA OVC006 06/05 Q0995",
      "taf": "TAF ENHD 120800Z 1209/1218 17030KT 9999 -RA FEW010 BKN020"
    },
    {
      "icao": "ENTC",
      "alert": "OK",
      "vis_m": 9999,
      "fzfg": false,
      "metar_trigger": false,
      "taf_trigger": false,
      "metar": "METAR ENTC 120920Z 19014KT 9999 -RA FEW007 SCT011 BKN023 01/M00 Q0990 TEMPO BKN009 RMK WIND 2600FT 16015KT",
      "taf": ""
    },
    {
      "icao": "ENTO",
      "alert": "OK",
      "vis_m": 4000,
      "fzfg": false,
      "metar_trigger": false,
      "taf_trigger": false,
      "metar": "METAR ENTO 120920Z 19014KT 4000 BR OVC002 03/03 Q1004 TEMPO 20015G25KT 6000 BKN005",
      "taf": ""
    },
    {
      "icao": "ENVA",
      "alert": "OK",
      "vis_m": 9999,
      "fzfg": false,
      "metar_trigger": false,
      "taf_trigger": false,
      "metar": "METAR ENVA 120920Z 14012KT 100V170 CAVOK 07/M03 Q0991 NOSIG RMK WIND 670FT 17022G39KT",
      "taf": "TAF ENVA 120500Z 1206/1306 09005KT CAVOK"
    },
    {
      "icao": "ENZV",
      "alert": "OK",
      "vis_m": 7000,
      "fzfg": false,
      "metar_trigger": false,
      "taf_trigger": false,
      "metar": "METAR ENZV 120920Z 18024KT 7000 RA BKN008 06/05 Q0996 TEMPO 4000 SHRA BR BKN008 SCT020CB",
      "taf": ""
    },
    {
      "icao": "EPGD",
      "alert": "OK",
      "vis_m": 9999,
      "fzfg": false,
      "metar_trigger": false,
      "taf_trigger": false,
      "metar": "METAR EPGD 120930Z 27013KT 9999 BKN012 08/05 Q1018",
      "taf": ""
    },
    {
      "icao": "EPKK",
      "alert": "OK",
      "vis_m": 9999,
      "fzfg": false,
      "metar_trigger": false,
      "taf_trigger": false,
      "metar": "METAR EPKK 120930Z VRB02KT 9999 FEW061 15/03 Q1021",
      "taf": "TAF EPKK 120830Z 1209/1309 VRB02KT CAVOK"
    },
    {
      "icao": "EPKT",
      "alert": "OK",
      "vis_m": 9999,
      "fzfg": false,
      "metar_trigger": false,
      "taf_trigger": false,
      "metar": "METAR EPKT 120930Z 24008KT CAVOK 13/04 Q1021",
      "taf": "TAF EPKT 120530Z 1206/1306 17005KT CAVOK"
    },
    {
      "icao": "EPLB",
      "alert": "OK",
      "vis_m": 9999,
      "fzfg": false,
      "metar_trigger": false,
      "taf_trigger": false,
      "metar": "METAR EPLB 120930Z 22007KT CAVOK 14/03 Q1021",
      "taf": "TAF EPLB 120530Z 1206/1306 VRB02KT CAVOK"
    },
    {
      "icao": "EPMO",
      "alert": "OK",
      "vis_m": 9999,
      "fzfg": false,
      "metar_trigger": false,
      "taf_trigger": false,
      "metar": "METAR EPMO 120930Z 24005KT 190V270 CAVOK 12/06 Q1019",
      "taf": "TAF EPMO 120530Z 1206/1306 17007KT CAVOK"
    },
    {
      "icao": "EPPO",
      "alert": "OK",
      "vis_m": 9999,
      "fzfg": false,
      "metar_trigger": false,
      "taf_trigger": false,
      "metar": "METAR EPPO 120930Z 29012KT 9999 BKN018 10/05 Q1021",
      "taf": ""
    },
    {
      "icao": "EPRA",
      "alert": "OK",
      "vis_m": 9999,
      "fzfg": false,
      "metar_trigger": false,
      "taf_trigger": false,
      "metar": "METAR EPRA 120930Z 23005KT 150V290 CAVOK 15/04 Q1020",
      "taf": "TAF EPRA 120830Z 1209/1218 25010KT CAVOK"
    },
    {
      "icao": "EPRZ",
      "alert": "OK",
      "vis_m": 9999,
      "fzfg": false,
      "metar_trigger": false,
      "taf_trigger": false,
      "metar": "METAR EPRZ 120930Z 21010KT CAVOK 15/01 Q1021",
      "taf": "TAF EPRZ 120530Z 1206/1306 VRB02KT CAVOK"
    },
    {
      "icao": "EPSC",
      "alert": "OK",
      "vis_m": 9999,
      "fzfg": false,
      "metar_trigger": false,
      "taf_trigger": false,
      "metar": "METAR EPSC 120930Z 26008KT 230V290 9999 FEW023 10/04 Q1020",
      "taf": ""
    },
    {
      "icao": "EPSY",
      "alert": "OK",
      "vis_m": 9999,
      "fzfg": false,
      "metar_trigger": false,
      "taf_trigger": false,
      "metar": "METAR EPSY 120930Z 21007KT 190V260 CAVOK 12/05 Q1018",
      "taf": "TAF EPSY 120830Z 1209/1218 24010KT CAVOK"
    },
    {
      "icao": "EPWA",
      "alert": "OK",
      "vis_m": 9999,
      "fzfg": false,
      "metar_trigger": false,
      "taf_trigger": false,
      "metar": "METAR EPWA 120930Z 26006KT 220V330 CAVOK 14/04 Q1020 NOSIG",
      "taf": "TAF EPWA 120830Z 1209/1309 25010KT CAVOK"
    },
    {
      "icao": "EPWR",
      "alert": "OK",
      "vis_m": 9999,
      "fzfg": false,
      "metar_trigger": false,
      "taf_trigger": false,
      "metar": "METAR EPWR 120930Z 28008KT 9999 -RA SCT009 BKN020 10/08 Q1021",
      "taf": "TAF EPWR 120830Z 1209/1309 28010KT 9999 BKN040"
    },
    {
      "icao": "ESGG",
      "alert": "OK",
      "vis_m": 9000,
      "fzfg": false,
      "metar_trigger": false,
      "taf_trigger": false,
      "metar": "METAR ESGG 120950Z 19014KT 9000 OVC005 04/04 Q1010",
      "taf": "TAF ESGG 120830Z 1209/1309 19012KT 4000 BR BKN003"
    },
    {
      "icao": "ESKN",
      "alert": "OK",
      "vis_m": 9999,
      "fzfg": false,
      "metar_trigger": false,
      "taf_trigger": false,
      "metar": "METAR ESKN 120950Z 23016KT 9999 FEW021 08/03 Q1009",
      "taf": "TAF ESKN 120830Z 1209/1309 25012KT 9999 BKN020"
    },
    {
      "icao": "ESMS",
      "alert": "OK",
      "vis_m": 9999,
      "fzfg": false,
      "metar_trigger": false,
      "taf_trigger": false,
      "metar": "METAR ESMS 120950Z 21011KT CAVOK 07/05 Q1016",
      "taf": "TAF ESMS 120827Z 1209/1309 21012KT 8000 BKN005"
    },
    {
      "icao": "ESSA",
      "alert": "OK",
      "vis_m": 9999,
      "fzfg": false,
      "metar_trigger": false,
      "taf_trigger": false,
      "metar": "METAR ESSA 120950Z 25016KT 9999 SCT022 06/01 Q1007 NOSIG",
      "taf": "TAF ESSA 120830Z 1209/1309 25015KT 9999 BKN017"
    },
    {
      "icao": "EYKA",
      "alert": "OK",
      "vis_m": 9999,
      "fzfg": false,
      "metar_trigger": false,
      "taf_trigger": false,
      "metar": "METAR EYKA 120950Z 19007KT 150V220 CAVOK 13/04 Q1017",
      "taf": "TAF EYKA 120518Z 1206/1306 18010KT 9000 NSC"
    },
    {
      "icao": "EYPA",
      "alert": "OK",
      "vis_m": 750,
      "fzfg": false,
      "metar_trigger": false,
      "taf_trigger": false,
      "metar": "METAR EYPA 120950Z 22006KT 180V270 0750 R19/1200D FG OVC002 04/04 Q1016",
      "taf": "TAF EYPA 120517Z 1206/1306 24009KT 6000 BKN025"
    },
    {
      "icao": "EYVI",
      "alert": "OK",
      "vis_m": 9999,
      "fzfg": false,
      "metar_trigger": false,
      "taf_trigger": false,
      "metar": "METAR EYVI 120950Z 18011KT CAVOK 13/03 Q1018 NOSIG",
      "taf": "TAF EYVI 120510Z 1206/1306 18010KT 9000 NSC"
    },
    {
      "icao": "GCFV",
      "alert": "OK",
      "vis_m": 9999,
      "fzfg": false,
      "metar_trigger": false,
      "taf_trigger": false,
      "metar": "METAR GCFV 120930Z 36011KT CAVOK 18/09 Q1019",
      "taf": ""
    },
    {
      "icao": "GCLP",
      "alert": "OK",
      "vis_m": 9999,
      "fzfg": false,
      "metar_trigger": false,
      "taf_trigger": false,
      "metar": "METAR GCLP 120930Z 02014KT 9999 FEW025 BKN040 18/10 Q1020 NOSIG",
      "taf": "TAF GCLP 120800Z 1209/1309 01018KT 9999 FEW035 TX21/1214Z TN16/1306Z"
    },
    {
      "icao": "GCTS",
      "alert": "OK",
      "vis_m": 9999,
      "fzfg": false,
      "metar_trigger": false,
      "taf_trigger": false,
      "metar": "METAR GCTS 120930Z 06018KT 9999 FEW035 18/07 Q1020 NOSIG",
      "taf": "TAF GCTS 120800Z 1209/1309 07016KT 9999 SCT035 TX22/1214Z TN16/1306Z"
    },
    {
      "icao": "GMAD",
      "alert": "OK",
      "vis_m": 8000,
      "fzfg": false,
      "metar_trigger": false,
      "taf_trigger": false,
      "metar": "METAR GMAD 120930Z 00000KT 8000 NSC 18/12 Q1019 NOSIG",
      "taf": "TAF GMAD 120500Z 1206/1312 06008KT 8000 NSC"
    },
    {
      "icao": "GMMN",
      "alert": "OK",
      "vis_m": 9999,
      "fzfg": false,
      "metar_trigger": false,
      "taf_trigger": false,
      "metar": "METAR GMMN 120930Z 01004KT 330V050 CAVOK 13/10 Q1021 NOSIG",
      "taf": "TAF GMMN 120500Z 1206/1312 04005KT 3000 BR SCT005"
    },
    {
      "icao": "GMMX",
      "alert": "OK",
      "vis_m": 9999,
      "fzfg": false,
      "metar_trigger": false,
      "taf_trigger": false,
      "metar": "METAR GMMX 120930Z VRB02KT CAVOK 14/07 Q1020 NOSIG",
      "taf": "TAF GMMX 120500Z 1206/1312 20006KT 8000 SCT020"
    },
    {
      "icao": "HEGN",
      "alert": "OK",
      "vis_m": 9999,
      "fzfg": false,
      "metar_trigger": false,
      "taf_trigger": false,
      "metar": "METAR HEGN 120900Z 34008KT CAVOK 24/01 Q1016 NOSIG",
      "taf": "TAF HEGN 120500Z 1206/1312 34015KT CAVOK"
    },
    {
      "icao": "HEMA",
      "alert": "OK",
      "vis_m": 9999,
      "fzfg": false,
      "metar_trigger": false,
      "taf_trigger": false,
      "metar": "METAR HEMA 120900Z 36016KT CAVOK 25/02 Q1016 NOSIG",
      "taf": "TAF HEMA 120500Z 1206/1312 36015KT CAVOK"
    },
    {
      "icao": "HESH",
      "alert": "OK",
      "vis_m": 9999,
      "fzfg": false,
      "metar_trigger": false,
      "taf_trigger": false,
      "metar": "METAR HESH 120900Z 01008KT CAVOK 25/07 Q1015 NOSIG",
      "taf": "TAF HESH 120500Z 1206/1312 02012KT CAVOK"
    },
    {
      "icao": "HESX",
      "alert": "OK",
      "vis_m": 9999,
      "fzfg": false,
      "metar_trigger": false,
      "taf_trigger": false,
      "metar": "METAR HESX 120900Z 01005KT CAVOK 20/07 Q1017 NOSIG",
      "taf": "TAF HESX 120550Z 1206/1312 02010KT 9999 FEW020"
    },
    {
      "icao": "LATI",
      "alert": "OK",
      "vis_m": 9999,
      "fzfg": false,
      "metar_trigger": false,
      "taf_trigger": false,
      "metar": "METAR LATI 120950Z VRB02KT CAVOK 17/06 Q1023 NOSIG",
      "taf": "TAF LATI 120500Z 1206/1306 VRB05KT CAVOK TX19/1212Z TN05/1305Z"
    },
    {
      "icao": "LBPD",
      "alert": "OK",
      "vis_m": 9999,
      "fzfg": false,
      "metar_trigger": false,
      "taf_trigger": false,
      "metar": "METAR LBPD 120930Z AUTO VRB02KT 9999 FEW190/// 08/04 Q1024 NOSIG",
      "taf": "TAF LBPD 120500Z 1206/1306 VRB03KT 0200 FG OVC002"
    },
    {
      "icao": "LBSF",
      "alert": "OK",
      "vis_m": 9999,
      "fzfg": false,
      "metar_trigger": false,
      "taf_trigger": false,
      "metar": "METAR LBSF 120930Z VRB02KT CAVOK 11/M02 Q1023 NOSIG",
      "taf": "TAF LBSF 120500Z 1206/1306 VRB03KT CAVOK"
    },
    {
      "icao": "LBWN",
      "alert": "OK",
      "vis_m": 9999,
      "fzfg": false,
      "metar_trigger": false,
      "taf_trigger": false,
      "metar": "METAR LBWN 120930Z 11009KT 9999 SCT025 10/04 Q1025 NOSIG",
      "taf": "TAF LBWN 120500Z 1206/1306 VRB03KT 9999 BKN015"
    },
    {
      "icao": "LCLK",
      "alert": "OK",
      "vis_m": 9999,
      "fzfg": false,
      "metar_trigger": false,
      "taf_trigger": false,
      "metar": "METAR LCLK 120930Z 05015KT 9999 FEW030 21/10 Q1017 NOSIG",
      "taf": "TAF LCLK 120530Z 1206/1306 34009KT 9999 FEW030"
    },
    {
      "icao": "LCPH",
      "alert": "OK",
      "vis_m": 9999,
      "fzfg": false,
      "metar_trigger": false,
      "taf_trigger": false,
      "metar": "METAR LCPH 120930Z 27009KT 250V320 9999 FEW030 20/09 Q1017 NOSIG",
      "taf": "TAF LCPH 120530Z 1206/1306 04009KT 9999 FEW030"
    },
    {
      "icao": "LEAL",
      "alert": "OK",
      "vis_m": 9999,
      "fzfg": false,
      "metar_trigger": false,
      "taf_trigger": false,
      "metar": "METAR LEAL 120930Z 10001KT CAVOK 17/10 Q1027 NOSIG",
      "taf": "TAF LEAL 120500Z 1206/1306 VRB04KT 9999 SCT020 TX19/1212Z TN07/1206Z"
    },
    {
      "icao": "LEBB",
      "alert": "OK",
      "vis_m": 9999,
      "fzfg": false,
      "metar_trigger": false,
      "taf_trigger": false,
      "metar": "METAR LEBB 120930Z VRB02KT 9999 FEW038 15/10 Q1026 NOSIG",
      "taf": "TAF LEBB 120500Z 1206/1306 12005KT 9999 SCT035 TX18/1213Z TN06/1306Z"
    },
    {
      "icao": "LEBL",
      "alert": "OK",
      "vis_m": 8000,
      "fzfg": false,
      "metar_trigger": false,
      "taf_trigger": false,
      "metar": "METAR LEBL 120930Z 32004KT 250V360 8000 SCT029 BKN039 BKN050 14/11 Q1026 NOSIG",
      "taf": "TAF LEBL 120500Z 1206/1306 35005KT 9999 SCT020 TX17/1213Z TN10/1207Z"
    },
    {
      "icao": "LECH",
      "alert": "OK",
      "vis_m": 9000,
      "fzfg": false,
      "metar_trigger": false,
      "taf_trigger": false,
      "metar": "METAR LECH 120930Z AUTO 22004KT 170V270 9000 NCD 14/07 Q1027",
      "taf": ""
    },
    {
      "icao": "LEMD",
      "alert": "OK",
      "vis_m": 9999,
      "fzfg": false,
      "metar_trigger": false,
      "taf_trigger": false,
      "metar": "METAR LEMD 120930Z VRB01KT CAVOK 09/06 Q1027 NOSIG",
      "taf": "TAF LEMD 120500Z 1206/1312 VRB04KT CAVOK TX18/1215Z TN03/1207Z"
    },
    {
      "icao": "LEMG",
      "alert": "OK",
      "vis_m": 9999,
      "fzfg": false,
      "metar_trigger": false,
      "taf_trigger": false,
      "metar": "METAR LEMG 120930Z 32003KT 290V360 9999 FEW060 14/08 Q1027 NOSIG",
      "taf": "TAF LEMG 120500Z 1206/1306 29010KT CAVOK TX18/1215Z TN08/1207Z"
    },
    {
      "icao": "LEVC",
      "alert": "OK",
      "vis_m": 9999,
      "fzfg": false,
      "metar_trigger": false,
      "taf_trigger": false,
      "metar": "METAR LEVC 120930Z VRB02KT CAVOK 16/09 Q1027 NOSIG",
      "taf": "TAF LEVC 120500Z 1206/1306 27005KT 9999 SCT015 TX20/1214Z TN08/1206Z"
    },
    {
      "icao": "LEXJ",
      "alert": "OK",
      "vis_m": 9999,
      "fzfg": false,
      "metar_trigger": false,
      "taf_trigger": false,
      "metar": "METAR LEXJ 120930Z 07002KT 9999 FEW040 12/08 Q1026",
      "taf": "TAF LEXJ 120800Z 1209/1309 21006KT 9999 SCT040 TX17/1213Z TN08/1302Z"
    },
    {
      "icao": "LEZG",
      "alert": "OK",
      "vis_m": 9999,
      "fzfg": false,
      "metar_trigger": false,
      "taf_trigger": false,
      "metar": "METAR LEZG 120930Z 28006KT 9999 FEW050 13/08 Q1027 NOSIG",
      "taf": "TAF LEZG 120500Z 1206/1306 27007KT 9999 FEW030 TX20/1214Z TN08/1206Z"
    },
    {
      "icao": "LEZL",
      "alert": "OK",
      "vis_m": 9999,
      "fzfg": false,
      "metar_trigger": false,
      "taf_trigger": false,
      "metar": "METAR LEZL 120930Z 06005KT 030V090 CAVOK 15/11 Q1026 NOSIG",
      "taf": "TAF LEZL 120800Z 1209/1309 06005KT CAVOK TX21/1215Z TN08/1307Z"
    },
    {
      "icao": "LFBD",
      "alert": "OK",
      "vis_m": 9999,
      "fzfg": false,
      "metar_trigger": false,
      "taf_trigger": false,
      "metar": "METAR LFBD 120930Z AUTO 20008KT CAVOK 12/08 Q1026 NOSIG",
      "taf": "TAF LFBD 120500Z 1206/1312 VRB02KT 9999 BKN040 TX16/1214Z TN05/1206Z"
    },
    {
      "icao": "LFLL",
      "alert": "OK",
      "vis_m": 9999,
      "fzfg": false,
      "metar_trigger": false,
      "taf_trigger": false,
      "metar": "METAR LFLL 120930Z 36005KT 320V050 9999 SCT012 10/07 Q1025 BECMG NSC",
      "taf": ""
    },
    {
      "icao": "LFLS",
      "alert": "OK",
      "vis_m": 9999,
      "fzfg": false,
      "metar_trigger": false,
      "taf_trigger": false,
      "metar": "METAR LFLS 120930Z AUTO VRB03KT 9999 FEW021 10/06 Q1025 NOSIG",
      "taf": "TAF LFLS 120800Z 1209/1309 35005KT 9999 BKN012"
    },
    {
      "icao": "LFMN",
      "alert": "OK",
      "vis_m": 9999,
      "fzfg": false,
      "metar_trigger": false,
      "taf_trigger": false,
      "metar": "METAR LFMN 120930Z 10014KT 9999 SCT020 BKN100 15/11 Q1020 NOSIG",
      "taf": "TAF LFMN 120800Z 1209/1315 08010KT 9999 SCT020 BKN100"
    },
    {
      "icao": "LFOB",
      "alert": "OK",
      "vis_m": 9999,
      "fzfg": false,
      "metar_trigger": false,
      "taf_trigger": false,
      "metar": "METAR LFOB 120930Z AUTO 21012KT 180V240 9999 BKN047 10/05 Q1022 BECMG 22015G25KT",
      "taf": "TAF LFOB 120500Z 1206/1306 22009KT CAVOK"
    },
    {
      "icao": "LFPO",
      "alert": "OK",
      "vis_m": 9999,
      "fzfg": false,
      "metar_trigger": false,
      "taf_trigger": false,
      "metar": "METAR LFPO 120930Z 20008KT 170V230 9999 FEW036 09/05 Q1023 NOSIG",
      "taf": "TAF LFPO 120500Z 1206/1312 20005KT CAVOK"
    },
    {
      "icao": "LFSB",
      "alert": "OK",
      "vis_m": 9999,
      "fzfg": false,
      "metar_trigger": false,
      "taf_trigger": false,
      "metar": "METAR LFSB 120930Z AUTO 25005KT 180V310 9999 FEW025 BKN032 BKN039 11/05 Q1026 NOSIG",
      "taf": "TAF LFSB 120500Z 1206/1306 25008KT 9999 FEW030 BKN055"
    },
    {
      "icao": "LGAV",
      "alert": "OK",
      "vis_m": 9999,
      "fzfg": false,
      "metar_trigger": false,
      "taf_trigger": false,
      "metar": "METAR LGAV 120950Z 05009KT 9999 FEW025 15/04 Q1023 NOSIG",
      "taf": "TAF LGAV 120500Z 1206/1306 VRB03KT 9999 FEW025"
    },
    {
      "icao": "LGTS",
      "alert": "OK",
      "vis_m": 9999,
      "fzfg": false,
      "metar_trigger": false,
      "taf_trigger": false,
      "metar": "METAR LGTS 120920Z 28004KT CAVOK 11/05 Q1024 NOSIG",
      "taf": "TAF LGTS 120500Z 1206/1306 VRB03KT CAVOK"
    },
    {
      "icao": "LHBP",
      "alert": "OK",
      "vis_m": 9999,
      "fzfg": false,
      "metar_trigger": false,
      "taf_trigger": false,
      "metar": "METAR LHBP 120930Z 16006KT 120V210 9999 FEW036 16/06 Q1022 NOSIG",
      "taf": "TAF LHBP 120515Z 1206/1306 13004KT CAVOK"
    },
    {
      "icao": "LHDC",
      "alert": "OK",
      "vis_m": 9999,
      "fzfg": false,
      "metar_trigger": false,
      "taf_trigger": false,
      "metar": "METAR LHDC 120915Z AUTO 19006KT CAVOK 12/M00 Q1023 NOSIG",
      "taf": "TAF LHDC 120815Z 1209/1218 13005KT CAVOK"
    },
    {
      "icao": "LIBD",
      "alert": "OK",
      "vis_m": 9999,
      "fzfg": false,
      "metar_trigger": false,
      "taf_trigger": false,
      "metar": "METAR LIBD 120920Z VRB02KT CAVOK 17/08 Q1022",
      "taf": "TAF LIBD 120500Z 1206/1306 VRB05KT 7000 FEW030"
    },
    {
      "icao": "LIBG",
      "alert": "OK",
      "vis_m": 9999,
      "fzfg": false,
      "metar_trigger": false,
      "taf_trigger": false,
      "metar": "METAR LIBG 120850Z 15003KT 070V220 9999 FEW030 16/12 Q1022",
      "taf": "TAF LIBG 120800Z 1209/1218 VRB05KT 9999 FEW030"
    },
    {
      "icao": "LIBP",
      "alert": "OK",
      "vis_m": 9999,
      "fzfg": false,
      "metar_trigger": false,
      "taf_trigger": false,
      "metar": "METAR LIBP 120920Z AUTO VRB02KT 9999 BKN190/// 15/10 Q1022",
      "taf": "TAF LIBP 120500Z 1206/1306 VRB05KT 9999 SCT090"
    },
    {
      "icao": "LIBR",
      "alert": "OK",
      "vis_m": 9999,
      "fzfg": false,
      "metar_trigger": false,
      "taf_trigger": false,
      "metar": "METAR LIBR 120920Z 17004KT 120V220 9999 FEW015 16/12 Q1022",
      "taf": "TAF LIBR 120500Z 1206/1306 VRB05KT 7000 NSC"
    },
    {
      "icao": "LICA",
      "alert": "OK",
      "vis_m": 9999,
      "fzfg": false,
      "metar_trigger": false,
      "taf_trigger": false,
      "metar": "METAR LICA 120920Z AUTO 22008KT 190V250 9999 FEW017/// SCT037/// 16/13 Q1024",
      "taf": "TAF LICA 120500Z 1206/1306 VRB05KT 9999 SCT020"
    },
    {
      "icao": "LICC",
      "alert": "OK",
      "vis_m": 9999,
      "fzfg": false,
      "metar_trigger": false,
      "taf_trigger": false,
      "metar": "METAR LICC 120920Z 23006KT CAVOK 17/14 Q1024",
      "taf": "TAF LICC 120500Z 1206/1306 26007KT CAVOK"
    },
    {
      "icao": "LICJ",
      "alert": "OK",
      "vis_m": 9999,
      "fzfg": false,
      "metar_trigger": false,
      "taf_trigger": false,
      "metar": "METAR LICJ 120920Z 28003KT CAVOK 15/10 Q1024",
      "taf": "TAF LICJ 120500Z 1206/1306 VRB05KT CAVOK"
    },
    {
      "icao": "LIMC",
      "alert": "OK",
      "vis_m": 6000,
      "fzfg": false,
      "metar_trigger": false,
      "taf_trigger": false,
      "metar": "METAR LIMC 120920Z VRB02KT 6000 NSC 12/08 Q1022 NOSIG",
      "taf": "TAF LIMC 120500Z 1206/1312 VRB05KT 7000 SCT030"
    },
    {
      "icao": "LIME",
      "alert": "OK",
      "vis_m": 9999,
      "fzfg": false,
      "metar_trigger": false,
      "taf_trigger": false,
      "metar": "METAR LIME 120920Z VRB01KT 9999 FEW090 13/06 Q1021 NOSIG",
      "taf": "TAF LIME 120500Z 1206/1306 VRB04KT 9999 SCT030"
    },
    {
      "icao": "LIMF",
      "alert": "OK",
      "vis_m": 5000,
      "fzfg": false,
      "metar_trigger": false,
      "taf_trigger": false,
      "metar": "METAR LIMF 120920Z VRB02KT 5000 BR SCT140 12/07 Q1022",
      "taf": ""
    },
    {
      "icao": "LIMJ",
      "alert": "OK",
      "vis_m": 9999,
      "fzfg": false,
      "metar_trigger": false,
      "taf_trigger": false,
      "metar": "METAR LIMJ 120920Z 04014KT 9999 -RA FEW045 BKN060 12/09 Q1021",
      "taf": "TAF LIMJ 120500Z 1206/1306 03008KT 9999 SCT040"
    },
    {
      "icao": "LIPE",
      "alert": "OK",
      "vis_m": 3500,
      "fzfg": false,
      "metar_trigger": false,
      "taf_trigger": false,
      "metar": "METAR LIPE 120920Z 27005KT 240V310 3500 BR BKN009 12/09 Q1021",
      "taf": "TAF LIPE 120500Z 1206/1306 VRB05KT 6000 SCT060"
    },
    {
      "icao": "LIPH",
      "alert": "OK",
      "vis_m": 6000,
      "fzfg": false,
      "metar_trigger": false,
      "taf_trigger": false,
      "metar": "METAR LIPH 120920Z 06005KT 020V090 6000 SCT010 13/10 Q1022",
      "taf": "TAF LIPH 120500Z 1206/1306 VRB04KT 2000 BR BKN005"
    },
    {
      "icao": "LIPQ",
      "alert": "OK",
      "vis_m": 9999,
      "fzfg": false,
      "metar_trigger": false,
      "taf_trigger": false,
      "metar": "METAR LIPQ 120920Z AUTO VRB02KT 9999 FEW120/// 15/09 Q1022",
      "taf": "TAF LIPQ 120500Z 1206/1306 VRB05KT 9000 OVC010"
    },
    {
      "icao": "LIPR",
      "alert": "OK",
      "vis_m": 9999,
      "fzfg": false,
      "metar_trigger": false,
      "taf_trigger": false,
      "metar": "METAR LIPR 120920Z 19004KT 140V220 9999 FEW050 16/09 Q1021",
      "taf": "TAF LIPR 120500Z 1206/1306 22010KT 7000 OVC070"
    },
    {
      "icao": "LIPX",
      "alert": "OK",
      "vis_m": 9000,
      "fzfg": false,
      "metar_trigger": false,
      "taf_trigger": false,
      "metar": "METAR LIPX 120920Z 13003KT 080V180 9000 NSC 13/09 Q1022",
      "taf": "TAF LIPX 120500Z 1206/1306 VRB05KT 9999 BKN040"
    },
    {
      "icao": "LIPY",
      "alert": "OK",
      "vis_m": 9999,
      "fzfg": false,
      "metar_trigger": false,
      "taf_trigger": false,
      "metar": "METAR LIPY 120920Z AUTO 17005KT 130V200 9999 FEW160/// BKN180/// BKN210/// 16/10 Q1021",
      "taf": "TAF LIPY 120500Z 1206/1306 VRB05KT 9999 OVC070"
    },
    {
      "icao": "LIPZ",
      "alert": "OK",
      "vis_m": 9000,
      "fzfg": false,
      "metar_trigger": false,
      "taf_trigger": false,
      "metar": "METAR LIPZ 120920Z 09005KT 9000 FEW010 BKN015 13/10 Q1022 NOSIG",
      "taf": "TAF LIPZ 120500Z 1206/1312 VRB05KT 3000 BR BKN005"
    },
    {
      "icao": "LIRF",
      "alert": "OK",
      "vis_m": 9999,
      "fzfg": false,
      "metar_trigger": false,
      "taf_trigger": false,
      "metar": "METAR LIRF 120920Z 13009KT 9999 FEW015CB BKN025 13/11 Q1022 NOSIG",
      "taf": ""
    },
    {
      "icao": "LIRN",
      "alert": "OK",
      "vis_m": 9999,
      "fzfg": false,
      "metar_trigger": false,
      "taf_trigger": false,
      "metar": "METAR LIRN 120920Z 19006KT 150V240 9999 SCT020 15/11 Q1023 NOSIG",
      "taf": "TAF LIRN 120500Z 1206/1306 VRB05KT 7000 SCT020"
    },
    {
      "icao": "LIRP",
      "alert": "OK",
      "vis_m": 7000,
      "fzfg": false,
      "metar_trigger": false,
      "taf_trigger": false,
      "metar": "METAR LIRP 120915Z 03006KT 7000 SCT030 BKN070 12/12 Q1021 NOSIG",
      "taf": "TAF LIRP 120500Z 1206/1306 11006KT 9999 RA SCT020 BKN030"
    },
    {
      "icao": "LIRZ",
      "alert": "OK",
      "vis_m": 9999,
      "fzfg": false,
      "metar_trigger": false,
      "taf_trigger": false,
      "metar": "METAR LIRZ 120920Z AUTO 16005KT 9999 -RA BKN046/// 12/10 Q1022",
      "taf": "TAF LIRZ 120500Z 1206/1306 VRB05KT 9999 BKN040"
    },
    {
      "icao": "LJLJ",
      "alert": "OK",
      "vis_m": 9999,
      "fzfg": false,
      "metar_trigger": false,
      "taf_trigger": false,
      "metar": "METAR LJLJ 120930Z 28001KT 9999 FEW057 SCT230 13/06 Q1021 NOSIG",
      "taf": "TAF LJLJ 120500Z 1206/1306 28004KT 9999 FEW050"
    },
    {
      "icao": "LKMT",
      "alert": "OK",
      "vis_m": 9999,
      "fzfg": false,
      "metar_trigger": false,
      "taf_trigger": false,
      "metar": "METAR LKMT 120930Z 23009KT 9999 FEW037 14/05 Q1021 NOSIG",
      "taf": "TAF LKMT 120500Z 1206/1306 24008KT CAVOK"
    },
    {
      "icao": "LKPR",
      "alert": "OK",
      "vis_m": 9999,
      "fzfg": false,
      "metar_trigger": false,
      "taf_trigger": false,
      "metar": "METAR LKPR 120930Z 29008KT 250V310 9999 -RA SCT008 BKN014 OVC030 08/07 Q1022 NOSIG",
      "taf": "TAF LKPR 120800Z 1209/1315 23008KT 9999 SCT007 BKN030"
    },
    {
      "icao": "LLBG",
      "alert": "OK",
      "vis_m": 9999,
      "fzfg": false,
      "metar_trigger": false,
      "taf_trigger": false,
      "metar": "METAR LLBG 120950Z 25009KT 220V280 9999 FEW034 22/11 Q1015 NOSIG",
      "taf": "TAF LLBG 120502Z 1206/1306 VRB03KT CAVOK TX22/1212Z TN09/1304Z"
    },
    {
      "icao": "LMML",
      "alert": "OK",
      "vis_m": 9999,
      "fzfg": false,
      "metar_trigger": false,
      "taf_trigger": false,
      "metar": "METAR LMML 120945Z 02004KT 310V100 9999 FEW021 15/11 Q1024 NOSIG",
      "taf": "TAF LMML 120500Z 1206/1306 VRB05KT 9999 FEW015"
    },
    {
      "icao": "LOWW",
      "alert": "OK",
      "vis_m": 9999,
      "fzfg": false,
      "metar_trigger": false,
      "taf_trigger": false,
      "metar": "METAR LOWW 120920Z 02007KT 330V050 CAVOK 14/06 Q1022 NOSIG",
      "taf": "TAF LOWW 120815Z 1209/1315 32012KT CAVOK TX17/1314Z TN02/1305Z"
    },
    {
      "icao": "LPFR",
      "alert": "OK",
      "vis_m": 9999,
      "fzfg": false,
      "metar_trigger": false,
      "taf_trigger": false,
      "metar": "METAR LPFR 120930Z 12004KT CAVOK 16/10 Q1025",
      "taf": "TAF LPFR 120500Z 1206/1306 03005KT CAVOK"
    },
    {
      "icao": "LPMA",
      "alert": "OK",
      "vis_m": 9999,
      "fzfg": false,
      "metar_trigger": false,
      "taf_trigger": false,
      "metar": "METAR LPMA 120930Z 01015KT 9999 SCT016 16/10 Q1025",
      "taf": "TAF LPMA 120500Z 1206/1306 02015KT 9999 SCT015"
    },
    {
      "icao": "LPPR",
      "alert": "OK",
      "vis_m": 9999,
      "fzfg": false,
      "metar_trigger": false,
      "taf_trigger": false,
      "metar": "METAR LPPR 120930Z 33004KT 300V360 9999 BKN012 12/10 Q1028",
      "taf": ""
    },
    {
      "icao": "LPPS",
      "alert": "OK",
      "vis_m": 9999,
      "fzfg": false,
      "metar_trigger": false,
      "taf_trigger": false,
      "metar": "METAR LPPS 120930Z 06015KT 040V100 9999 SCT015 16/09 Q1025",
      "taf": "TAF LPPS 120500Z 1206/1312 06015KT 9999 SCT015"
    },
    {
      "icao": "LPPT",
      "alert": "OK",
      "vis_m": 9999,
      "fzfg": false,
      "metar_trigger": false,
      "taf_trigger": false,
      "metar": "METAR LPPT 120930Z VRB06KT 9999 FEW010 13/11 Q1027",
      "taf": ""
    },
    {
      "icao": "LQBK",
      "alert": "OK",
      "vis_m": 9999,
      "fzfg": false,
      "metar_trigger": false,
      "taf_trigger": false,
      "metar": "METAR LQBK 120930Z VRB03KT 9999 FEW033 15/07 Q1022 NOSIG",
      "taf": "TAF LQBK 120500Z 1206/1306 15005KT 9999 SCT045 TX17/1214Z TN05/1206Z"
    },
    {
      "icao": "LQSA",
      "alert": "OK",
      "vis_m": 9999,
      "fzfg": false,
      "metar_trigger": false,
      "taf_trigger": false,
      "metar": "METAR LQSA 120930Z VRB02KT 9999 FEW065 11/01 Q1022 NOSIG",
      "taf": "TAF LQSA 120500Z 1206/1306 VRB02KT 9999 SCT060 TX16/1214Z TN02/1305Z"
    },
    {
      "icao": "LQTZ",
      "alert": "OK",
      "vis_m": 9999,
      "fzfg": false,
      "metar_trigger": false,
      "taf_trigger": false,
      "metar": "METAR LQTZ 120930Z 30009KT 270V340 CAVOK 15/06 Q1023",
      "taf": "TAF LQTZ 120500Z 1206/1306 30005KT 9999 SCT045 TX18/1212Z TN02/1206Z"
    },
    {
      "icao": "LRBC",
      "alert": "OK",
      "vis_m": 9999,
      "fzfg": false,
      "metar_trigger": false,
      "taf_trigger": false,
      "metar": "METAR LRBC 120930Z 15010KT 9999 OVC008 05/03 Q1026",
      "taf": "TAF LRBC 120800Z 1209/1218 16012KT 9999 OVC005"
    },
    {
      "icao": "LRBS",
      "alert": "OK",
      "vis_m": 9999,
      "fzfg": false,
      "metar_trigger": false,
      "taf_trigger": false,
      "metar": "METAR LRBS 120930Z 08007KT 050V120 9999 OVC008 06/05 Q1026 BECMG BKN015",
      "taf": ""
    },
    {
      "icao": "LRBV",
      "alert": "OK",
      "vis_m": 9999,
      "fzfg": false,
      "metar_trigger": false,
      "taf_trigger": false,
      "metar": "METAR LRBV 120930Z VRB02KT CAVOK 10/M03 Q1023",
      "taf": "TAF LRBV 120800Z 1209/1218 VRB04KT CAVOK"
    },
    {
      "icao": "LRCL",
      "alert": "OK",
      "vis_m": 9999,
      "fzfg": false,
      "metar_trigger": false,
      "taf_trigger": false,
      "metar": "METAR LRCL 120930Z 10003KT 050V150 CAVOK 11/M04 Q1023",
      "taf": "TAF LRCL 120800Z 1209/1218 VRB04KT CAVOK"
    },
    {
      "icao": "LRCV",
      "alert": "OK",
      "vis_m": 9999,
      "fzfg": false,
      "metar_trigger": false,
      "taf_trigger": false,
      "metar": "METAR LRCV 120930Z 09005KT 070V140 CAVOK 10/05 Q1025",
      "taf": "TAF LRCV 120800Z 1209/1218 07006KT CAVOK"
    },
    {
      "icao": "LRIA",
      "alert": "OK",
      "vis_m": 9999,
      "fzfg": false,
      "metar_trigger": false,
      "taf_trigger": false,
      "metar": "METAR LRIA 120930Z 12008KT 090V160 9999 FEW015 08/01 Q1026",
      "taf": "TAF LRIA 120800Z 1209/1218 14009KT 9999 BKN015"
    },
    {
      "icao": "LROP",
      "alert": "OK",
      "vis_m": 9999,
      "fzfg": false,
      "metar_trigger": false,
      "taf_trigger": false,
      "metar": "METAR LROP 120930Z 11008KT 9999 OVC010 06/02 Q1026 BECMG BKN015",
      "taf": ""
    },
    {
      "icao": "LRSB",
      "alert": "OK",
      "vis_m": 9999,
      "fzfg": false,
      "metar_trigger": false,
      "taf_trigger": false,
      "metar": "METAR LRSB 120930Z VRB02KT CAVOK 13/M05 Q1023",
      "taf": "TAF LRSB 120500Z 1206/1306 VRB04KT CAVOK"
    },
    {
      "icao": "LRSM",
      "alert": "OK",
      "vis_m": 9999,
      "fzfg": false,
      "metar_trigger": false,
      "taf_trigger": false,
      "metar": "METAR LRSM 120930Z VRB02KT CAVOK 16/M01 Q1023",
      "taf": "TAF LRSM 120800Z 1209/1218 VRB04KT CAVOK"
    },
    {
      "icao": "LRSV",
      "alert": "OK",
      "vis_m": 9999,
      "fzfg": false,
      "metar_trigger": false,
      "taf_trigger": false,
      "metar": "METAR LRSV 120930Z 11007KT CAVOK 08/02 Q1023",
      "taf": "TAF LRSV 120800Z 1209/1218 VRB04KT CAVOK"
    },
    {
      "icao": "LRTM",
      "alert": "OK",
      "vis_m": 9999,
      "fzfg": false,
      "metar_trigger": false,
      "taf_trigger": false,
      "metar": "METAR LRTM 120930Z VRB03KT CAVOK 11/M04 Q1024",
      "taf": "TAF LRTM 120800Z 1209/1218 VRB04KT CAVOK"
    },
    {
      "icao": "LRTR",
      "alert": "OK",
      "vis_m": 9999,
      "fzfg": false,
      "metar_trigger": false,
      "taf_trigger": false,
      "metar": "METAR LRTR 120930Z 11004KT 060V160 CAVOK 15/01 Q1023",
      "taf": "TAF LRTR 120500Z 1206/1306 10007KT CAVOK"
    },
    {
      "icao": "LTAC",
      "alert": "OK",
      "vis_m": 9999,
      "fzfg": false,
      "metar_trigger": false,
      "taf_trigger": false,
      "metar": "METAR LTAC 120920Z VRB04KT CAVOK 11/M07 Q1019 NOSIG RMK RWY21C 23003KT 150V310 RWY03L VRB03KT RWY21R VRB04KT RWY03R VRB03KT RWY21L VRB04KT",
      "taf": "TAF LTAC 120440Z 1206/1306 VRB02KT CAVOK"
    },
    {
      "icao": "LTFM",
      "alert": "OK",
      "vis_m": 9999,
      "fzfg": false,
      "metar_trigger": false,
      "taf_trigger": false,
      "metar": "METAR LTFM 120920Z 01011KT 9999 BKN020 08/03 Q1024 NOSIG RMK RWY17L 01008KT RWY34L 36009KT RWY16R 01009KT RWY36 01011KT RWY18 02008KT",
      "taf": "TAF LTFM 120440Z 1206/1312 35012KT 9999 BKN017"
    },
    {
      "icao": "LUKK",
      "alert": "OK",
      "vis_m": 9999,
      "fzfg": false,
      "metar_trigger": false,
      "taf_trigger": false,
      "metar": "METAR LUKK 120930Z 15007KT 090V190 CAVOK 11/03 Q1026 NOSIG",
      "taf": "TAF LUKK 120509Z 1206/1306 16008KT 9999 BKN012"
    },
    {
      "icao": "LWOH",
      "alert": "OK",
      "vis_m": 9999,
      "fzfg": false,
      "metar_trigger": false,
      "taf_trigger": false,
      "metar": "METAR LWOH 120950Z 16007KT 130V190 9999 FEW040 09/04 Q1022",
      "taf": "TAF LWOH 120830Z 1206/1306 16008KT CAVOK"
    },
    {
      "icao": "LWSK",
      "alert": "OK",
      "vis_m": 9999,
      "fzfg": false,
      "metar_trigger": false,
      "taf_trigger": false,
      "metar": "METAR LWSK 120920Z VRB02KT CAVOK 12/01 Q1024 NOSIG",
      "taf": "TAF LWSK 120830Z 1206/1306 VRB02KT CAVOK"
    },
    {
      "icao": "LYBE",
      "alert": "OK",
      "vis_m": 9999,
      "fzfg": false,
      "metar_trigger": false,
      "taf_trigger": false,
      "metar": "METAR LYBE 120930Z 26005KT 190V320 CAVOK 15/01 Q1022 NOSIG",
      "taf": "TAF LYBE 120500Z 1206/1306 14005KT CAVOK TX19/1213Z TN05/1305Z"
    },
    {
      "icao": "LYNI",
      "alert": "OK",
      "vis_m": 9999,
      "fzfg": false,
      "metar_trigger": false,
      "taf_trigger": false,
      "metar": "METAR LYNI 120930Z VRB03KT CAVOK 13/01 Q1023 NOSIG",
      "taf": "TAF LYNI 120500Z 1206/1306 14004KT CAVOK TX19/1213Z TN01/1305Z"
    },
    {
      "icao": "LYPG",
      "alert": "OK",
      "vis_m": 9999,
      "fzfg": false,
      "metar_trigger": false,
      "taf_trigger": false,
      "metar": "METAR LYPG 120930Z 21001KT CAVOK 15/05 Q1023 NOSIG",
      "taf": "TAF LYPG 120500Z 1206/1306 16005KT 9999 FEW090 TX18/1214Z TN05/1206Z"
    },
    {
      "icao": "LZIB",
      "alert": "OK",
      "vis_m": 9999,
      "fzfg": false,
      "metar_trigger": false,
      "taf_trigger": false,
      "metar": "METAR LZIB 120930Z 04004KT 350V080 9999 FEW030 13/05 Q1022 NOSIG",
      "taf": "TAF LZIB 120515Z 1206/1306 06005KT CAVOK"
    },
    {
      "icao": "LZKZ",
      "alert": "OK",
      "vis_m": 9999,
      "fzfg": false,
      "metar_trigger": false,
      "taf_trigger": false,
      "metar": "METAR LZKZ 120930Z VRB02KT CAVOK 12/03 Q1023 NOSIG",
      "taf": "TAF LZKZ 120515Z 1206/1306 VRB02KT CAVOK"
    },
    {
      "icao": "LZTT",
      "alert": "OK",
      "vis_m": 9999,
      "fzfg": false,
      "metar_trigger": false,
      "taf_trigger": false,
      "metar": "METAR LZTT 120930Z 16006KT 110V200 9999 FEW043 13/03 Q1021 NOSIG",
      "taf": "TAF LZTT 120515Z 1206/1306 26005KT 9999 FEW050"
    },
    {
      "icao": "OEJN",
      "alert": "OK",
      "vis_m": 9999,
      "fzfg": false,
      "metar_trigger": false,
      "taf_trigger": false,
      "metar": "METAR OEJN 120900Z 31010KT 9999 FEW040 29/14 Q1013 NOSIG",
      "taf": "TAF OEJN 120500Z 1206/1312 34014KT 9999 SCT040"
    },
    {
      "icao": "OEMA",
      "alert": "OK",
      "vis_m": 9999,
      "fzfg": false,
      "metar_trigger": false,
      "taf_trigger": false,
      "metar": "METAR OEMA 120900Z 29010KT CAVOK 29/M01 Q1017 NOSIG",
      "taf": "TAF OEMA 120500Z 1206/1312 32010KT CAVOK"
    },
    {
      "icao": "OJAI",
      "alert": "OK",
      "vis_m": 4000,
      "fzfg": false,
      "metar_trigger": false,
      "taf_trigger": false,
      "metar": "METAR OJAI 120900Z 12006KT 4000 HZ NSC 17/M01 Q1018 NOSIG",
      "taf": "TAF OJAI 120500Z 1206/1312 11010KT 5000 HZ NSC"
    },
    {
      "icao": "OMAA",
      "alert": "OK",
      "vis_m": null,
      "fzfg": false,
      "metar_trigger": false,
      "taf_trigger": false,
      "metar": "",
      "taf": ""
    },
    {
      "icao": "OMDB",
      "alert": "OK",
      "vis_m": null,
      "fzfg": false,
      "metar_trigger": false,
      "taf_trigger": false,
      "metar": "",
      "taf": ""
    },
    {
      "icao": "UAAA",
      "alert": "OK",
      "vis_m": 9999,
      "fzfg": false,
      "metar_trigger": false,
      "taf_trigger": false,
      "metar": "METAR UAAA 120930Z 10002MPS 9999 NSC M00/M09 Q1035 NOSIG",
      "taf": "TAF UAAA 120504Z 1206/1306 03003G08MPS 9999 SCT100 TXM02/1209Z TNM12/1301Z"
    },
    {
      "icao": "UBBB",
      "alert": "OK",
      "vis_m": 9999,
      "fzfg": false,
      "metar_trigger": false,
      "taf_trigger": false,
      "metar": "METAR UBBB 120930Z 16008KT 120V200 9999 FEW030 10/M00 Q1030 NOSIG",
      "taf": "TAF UBBB 120459Z 1206/1306 13008KT 9999 SCT020 TX11/1210Z TN03/1301Z"
    },
    {
      "icao": "UDSG",
      "alert": "OK",
      "vis_m": 9999,
      "fzfg": false,
      "metar_trigger": false,
      "taf_trigger": false,
      "metar": "METAR UDSG 120930Z 26003KT 220V290 9999 BKN036 00/M07 Q1025 NOSIG",
      "taf": "TAF UDSG 120458Z 1206/1306 VRB06KT 9999 SCT040"
    },
    {
      "icao": "UDYZ",
      "alert": "OK",
      "vis_m": 9999,
      "fzfg": false,
      "metar_trigger": false,
      "taf_trigger": false,
      "metar": "METAR UDYZ 120930Z 18005KT 120V230 9999 FEW046 08/M06 Q1025 NOSIG",
      "taf": "TAF UDYZ 120500Z 1206/1306 16006KT 9999 FEW040"
    },
    {
      "icao": "UGKO",
      "alert": "OK",
      "vis_m": 9999,
      "fzfg": false,
      "metar_trigger": false,
      "taf_trigger": false,
      "metar": "METAR UGKO 120930Z 09025G35KT CAVOK 15/M02 Q1022 NOSIG",
      "taf": "TAF UGKO 120500Z 1206/1306 08020KT CAVOK TX17/1212Z TN09/1303Z"
    }
  ]
}