{
  "ts_utc": "2026-01-19T11:12:25Z",
  "threshold_m": 150,
  "source": "stations_override.txt (ICAO list) + aviationweather.gov (METAR/TAF raw)",
  "station_count": 159,
  "stations": [
    {
      "icao": "BIKF",
      "alert": "OK",
      "vis_m": 9999,
      "fzfg": false,
      "metar_trigger": false,
      "taf_trigger": false,
      "metar": "METAR BIKF 191100Z 09008KT 9999 SCT038 02/M00 Q0995",
      "taf": "TAF BIKF 191036Z 1912/2012 15008KT 9999 -SHRA SCT030 TX05/1919Z TN02/1912Z"
    },
    {
      "icao": "BKPR",
      "alert": "OK",
      "vis_m": 9999,
      "fzfg": false,
      "metar_trigger": false,
      "taf_trigger": false,
      "metar": "METAR BKPR 191100Z 02007KT CAVOK M01/M06 Q1031 NOSIG",
      "taf": "TAF BKPR 190530Z 1906/2006 02012KT 9999 SCT030"
    },
    {
      "icao": "EBCI",
      "alert": "OK",
      "vis_m": 8000,
      "fzfg": false,
      "metar_trigger": false,
      "taf_trigger": false,
      "metar": "METAR EBCI 191050Z 17005KT 8000 NSC 05/02 Q1018 NOSIG",
      "taf": "TAF EBCI 190507Z 1906/2012 17004KT CAVOK"
    },
    {
      "icao": "EDDB",
      "alert": "OK",
      "vis_m": 9999,
      "fzfg": false,
      "metar_trigger": false,
      "taf_trigger": false,
      "metar": "METAR EDDB 191050Z AUTO 13009KT CAVOK 03/M06 Q1025 NOSIG",
      "taf": "TAF EDDB 190500Z 1906/2006 12010KT CAVOK"
    },
    {
      "icao": "EDDH",
      "alert": "OK",
      "vis_m": 9999,
      "fzfg": false,
      "metar_trigger": false,
      "taf_trigger": false,
      "metar": "METAR EDDH 191050Z AUTO 12011KT CAVOK 02/M04 Q1021 NOSIG",
      "taf": "TAF EDDH 190500Z 1906/2012 12009KT CAVOK"
    },
    {
      "icao": "EDDK",
      "alert": "OK",
      "vis_m": 9999,
      "fzfg": false,
      "metar_trigger": false,
      "taf_trigger": false,
      "metar": "METAR EDDK 191050Z AUTO 14009KT 9999 OVC010 02/M00 Q1020 NOSIG",
      "taf": "TAF EDDK 190500Z 1906/2012 12007KT 9999 BKN015"
    },
    {
      "icao": "EDDN",
      "alert": "OK",
      "vis_m": 9999,
      "fzfg": false,
      "metar_trigger": false,
      "taf_trigger": false,
      "metar": "METAR EDDN 191050Z AUTO 12011KT CAVOK 06/M07 Q1021 NOSIG",
      "taf": "TAF EDDN 190500Z 1906/2006 10008KT CAVOK"
    },
    {
      "icao": "EDDS",
      "alert": "OK",
      "vis_m": 3600,
      "fzfg": false,
      "metar_trigger": false,
      "taf_trigger": false,
      "metar": "METAR EDDS 191050Z AUTO VRB02KT 3600 BR BKN001 M01/M02 Q1019 BECMG 6000 SCT002",
      "taf": ""
    },
    {
      "icao": "EDFH",
      "alert": "OK",
      "vis_m": 300,
      "fzfg": true,
      "metar_trigger": false,
      "taf_trigger": false,
      "metar": "METAR EDFH 191050Z 15006KT 0300 R21/0350N FZFG VV/// M01/M01 Q1018",
      "taf": "TAF EDFH 190500Z 1906/2006 14010KT 0800 FZFG OVC002"
    },
    {
      "icao": "EDJA",
      "alert": "OK",
      "vis_m": 9999,
      "fzfg": false,
      "metar_trigger": false,
      "taf_trigger": false,
      "metar": "METAR EDJA 191050Z VRB02KT CAVOK M00/M01 Q1019",
      "taf": "TAF EDJA 190800Z 1909/1918 05004KT CAVOK"
    },
    {
      "icao": "EDLW",
      "alert": "OK",
      "vis_m": 9999,
      "fzfg": false,
      "metar_trigger": false,
      "taf_trigger": false,
      "metar": "METAR EDLW 191050Z 16004KT 110V200 CAVOK 03/M01 Q1018",
      "taf": "TAF EDLW 190500Z 1906/2006 14004KT CAVOK"
    },
    {
      "icao": "EDNY",
      "alert": "OK",
      "vis_m": 9999,
      "fzfg": false,
      "metar_trigger": false,
      "taf_trigger": false,
      "metar": "METAR EDNY 191050Z 04003KT 360V080 9999 OVC005 M02/M03 Q1020",
      "taf": "TAF EDNY 190800Z 1909/1918 04003KT 5000 BR OVC002"
    },
    {
      "icao": "EDSB",
      "alert": "OK",
      "vis_m": 6000,
      "fzfg": false,
      "metar_trigger": false,
      "taf_trigger": false,
      "metar": "METAR EDSB 191050Z VRB02KT 6000 OVC006 01/00 Q1020",
      "taf": "TAF EDSB 190500Z 1906/2006 VRB02KT 8000 OVC008"
    },
    {
      "icao": "EETN",
      "alert": "OK",
      "vis_m": 4600,
      "fzfg": false,
      "metar_trigger": false,
      "taf_trigger": false,
      "metar": "METAR EETN 191050Z 18003KT 150V210 4600 BR OVC003 M07/M07 Q1034 NOSIG",
      "taf": ""
    },
    {
      "icao": "EFTU",
      "alert": "OK",
      "vis_m": 9999,
      "fzfg": false,
      "metar_trigger": false,
      "taf_trigger": false,
      "metar": "METAR EFTU 191050Z AUTO 18005KT 9999 OVC008 M01/M02 Q1032",
      "taf": "TAF EFTU 190837Z 1909/2009 17005KT 1400 -FZDZ BR OVC001"
    },
    {
      "icao": "EGBB",
      "alert": "OK",
      "vis_m": 800,
      "fzfg": false,
      "metar_trigger": false,
      "taf_trigger": false,
      "metar": "METAR EGBB 191050Z COR 15005KT 0800 R15/P1500N FG OVC002 08/08 Q1013",
      "taf": "TAF EGBB 191056Z 1912/2012 15005KT 2000 BR BKN003"
    },
    {
      "icao": "EGGP",
      "alert": "OK",
      "vis_m": 8000,
      "fzfg": false,
      "metar_trigger": false,
      "taf_trigger": false,
      "metar": "METAR EGGP 191050Z 16004KT 130V190 8000 BKN007 06/05 Q1012",
      "taf": "TAF EGGP 191055Z 1912/2012 14006KT 9999 FEW008 BKN015"
    },
    {
      "icao": "EGGW",
      "alert": "OK",
      "vis_m": 3500,
      "fzfg": false,
      "metar_trigger": false,
      "taf_trigger": false,
      "metar": "METAR EGGW 191050Z AUTO 16006KT 3500 BR OVC002 08/07 Q1014",
      "taf": "TAF EGGW 191052Z 1912/2012 16010KT 9999 SCT010 BKN020"
    },
    {
      "icao": "EGKK",
      "alert": "OK",
      "vis_m": 9999,
      "fzfg": false,
      "metar_trigger": false,
      "taf_trigger": false,
      "metar": "METAR EGKK 191050Z 13007KT 9999 BKN006 09/09 Q1015",
      "taf": "TAF EGKK 191056Z 1912/2018 14007KT 9999 SCT010"
    },
    {
      "icao": "EGNM",
      "alert": "OK",
      "vis_m": 200,
      "fzfg": false,
      "metar_trigger": false,
      "taf_trigger": false,
      "metar": "METAR EGNM 191050Z 12002KT 0200 R32/0225N FG VV/// 06/06 Q1012",
      "taf": "TAF EGNM 191103Z 1912/2012 14005KT 0300 FG VV///"
    },
    {
      "icao": "EGPD",
      "alert": "OK",
      "vis_m": 9999,
      "fzfg": false,
      "metar_trigger": false,
      "taf_trigger": false,
      "metar": "METAR EGPD 191050Z COR 15004KT 9999 SCT030 03/02 Q1013 NOSIG",
      "taf": "TAF EGPD 191058Z 1912/2012 15006KT 9999 SCT008"
    },
    {
      "icao": "EGPF",
      "alert": "OK",
      "vis_m": 9999,
      "fzfg": false,
      "metar_trigger": false,
      "taf_trigger": false,
      "metar": "METAR EGPF 191050Z AUTO 07007KT 9999 FEW048 06/03 Q1012",
      "taf": "TAF EGPF 191101Z 1912/2012 07006KT 9999 FEW015 SCT030"
    },
    {
      "icao": "EHBK",
      "alert": "OK",
      "vis_m": 9999,
      "fzfg": false,
      "metar_trigger": false,
      "taf_trigger": false,
      "metar": "METAR EHBK 191055Z AUTO 14004KT 110V180 9999 NSC 03/01 Q1018 NOSIG",
      "taf": "TAF EHBK 190511Z 1906/2012 12006KT CAVOK"
    },
    {
      "icao": "EHEH",
      "alert": "OK",
      "vis_m": 9999,
      "fzfg": false,
      "metar_trigger": false,
      "taf_trigger": false,
      "metar": "METAR EHEH 191055Z AUTO 16005KT 130V200 9999 OVC110 02/00 Q1018 BLU NOSIG RMK TREND REMOTE BY EHWX",
      "taf": "TAF EHEH 190556Z 1906/2012 13004KT 3500 BR NSC"
    },
    {
      "icao": "EKBI",
      "alert": "OK",
      "vis_m": 9999,
      "fzfg": false,
      "metar_trigger": false,
      "taf_trigger": false,
      "metar": "METAR EKBI 191050Z AUTO 11008KT 090V150 9999 NCD 01/M02 Q1022",
      "taf": "TAF EKBI 190827Z 1909/2009 12008KT CAVOK"
    },
    {
      "icao": "EKCH",
      "alert": "OK",
      "vis_m": 9999,
      "fzfg": false,
      "metar_trigger": false,
      "taf_trigger": false,
      "metar": "METAR EKCH 191050Z AUTO 13013KT 9999 NCD 02/M01 Q1026 NOSIG",
      "taf": "TAF EKCH 190827Z 1909/2009 13012KT CAVOK"
    },
    {
      "icao": "ENAL",
      "alert": "OK",
      "vis_m": 9999,
      "fzfg": false,
      "metar_trigger": false,
      "taf_trigger": false,
      "metar": "METAR ENAL 191050Z 19005KT 9999 BKN040 05/04 Q1021",
      "taf": "TAF ENAL 190800Z 1909/1918 VRB05KT 9999 -RA FEW010 BKN050"
    },
    {
      "icao": "ENBR",
      "alert": "OK",
      "vis_m": 9999,
      "fzfg": false,
      "metar_trigger": false,
      "taf_trigger": false,
      "metar": "METAR ENBR 191050Z 14004KT 9999 FEW010 SCT028 BKN035 03/03 Q1021 NOSIG RMK WIND 1200FT 16010KT",
      "taf": "TAF ENBR 190500Z 1906/2006 12005KT 9999 FEW030"
    },
    {
      "icao": "ENGM",
      "alert": "OK",
      "vis_m": 9999,
      "fzfg": false,
      "metar_trigger": false,
      "taf_trigger": false,
      "metar": "METAR ENGM 191050Z 15003KT 9999 SCT005 OVC027 M01/M02 Q1027 TEMPO BKN005",
      "taf": ""
    },
    {
      "icao": "ENHD",
      "alert": "OK",
      "vis_m": 9999,
      "fzfg": false,
      "metar_trigger": false,
      "taf_trigger": false,
      "metar": "METAR ENHD 191050Z 18007KT CAVOK 04/01 Q1021",
      "taf": "TAF ENHD 190800Z 1909/1918 15008KT 9999 FEW050"
    },
    {
      "icao": "ENTC",
      "alert": "OK",
      "vis_m": 9999,
      "fzfg": false,
      "metar_trigger": false,
      "taf_trigger": false,
      "metar": "METAR ENTC 191050Z 00000KT 9999 FEW006 M01/M02 Q1028 NOSIG RMK WIND 2600FT 16005KT",
      "taf": ""
    },
    {
      "icao": "ENTO",
      "alert": "OK",
      "vis_m": 9999,
      "fzfg": false,
      "metar_trigger": false,
      "taf_trigger": false,
      "metar": "METAR ENTO 191050Z 11002KT 9999 FEW005 SCT007 OVC010 00/00 Q1027 TEMPO BKN007",
      "taf": ""
    },
    {
      "icao": "ENVA",
      "alert": "OK",
      "vis_m": 9999,
      "fzfg": false,
      "metar_trigger": false,
      "taf_trigger": false,
      "metar": "METAR ENVA 191050Z 05004KT 010V080 CAVOK 06/M01 Q1022 NOSIG RMK WIND 670FT 16011KT",
      "taf": "TAF ENVA 190500Z 1906/2006 10005KT CAVOK"
    },
    {
      "icao": "ENZV",
      "alert": "OK",
      "vis_m": 9999,
      "fzfg": false,
      "metar_trigger": false,
      "taf_trigger": false,
      "metar": "METAR ENZV 191050Z 00000KT CAVOK 05/00 Q1021 NOSIG",
      "taf": "TAF ENZV 190500Z 1906/2006 16008KT 9999 FEW030"
    },
    {
      "icao": "EPGD",
      "alert": "OK",
      "vis_m": 9999,
      "fzfg": false,
      "metar_trigger": false,
      "taf_trigger": false,
      "metar": "METAR EPGD 191100Z 18006KT CAVOK M03/M08 Q1031",
      "taf": "TAF EPGD 190530Z 1906/2006 18007KT 8000 NSC"
    },
    {
      "icao": "EPKK",
      "alert": "OK",
      "vis_m": 6000,
      "fzfg": false,
      "metar_trigger": false,
      "taf_trigger": false,
      "metar": "METAR EPKK 191100Z 09003KT 6000 NSC M06/M11 Q1033",
      "taf": "TAF EPKK 190830Z 1909/2009 06004KT 8000 NSC"
    },
    {
      "icao": "EPKT",
      "alert": "OK",
      "vis_m": 9000,
      "fzfg": false,
      "metar_trigger": false,
      "taf_trigger": false,
      "metar": "METAR EPKT 191100Z 19004KT 9000 NSC M01/M07 Q1032",
      "taf": "TAF EPKT 190530Z 1906/2006 14006KT 5000 BR NSC"
    },
    {
      "icao": "EPLB",
      "alert": "OK",
      "vis_m": 7000,
      "fzfg": false,
      "metar_trigger": false,
      "taf_trigger": false,
      "metar": "METAR EPLB 191100Z 08005KT 7000 NSC M12/M12 Q1036",
      "taf": "TAF EPLB 190530Z 1906/2006 10007KT CAVOK"
    },
    {
      "icao": "EPMO",
      "alert": "OK",
      "vis_m": 6000,
      "fzfg": false,
      "metar_trigger": false,
      "taf_trigger": false,
      "metar": "METAR EPMO 191100Z 07006KT 6000 NSC M10/M11 Q1035",
      "taf": ""
    },
    {
      "icao": "EPPO",
      "alert": "OK",
      "vis_m": 9999,
      "fzfg": false,
      "metar_trigger": false,
      "taf_trigger": false,
      "metar": "METAR EPPO 191100Z 11011KT CAVOK 00/M07 Q1030",
      "taf": "TAF EPPO 190530Z 1906/2006 10010KT CAVOK"
    },
    {
      "icao": "EPRA",
      "alert": "OK",
      "vis_m": 9999,
      "fzfg": false,
      "metar_trigger": false,
      "taf_trigger": false,
      "metar": "METAR EPRA 191100Z 14007KT CAVOK M09/M13 Q1035",
      "taf": "TAF EPRA 190830Z 1909/1918 15008KT CAVOK"
    },
    {
      "icao": "EPRZ",
      "alert": "OK",
      "vis_m": 7000,
      "fzfg": false,
      "metar_trigger": false,
      "taf_trigger": false,
      "metar": "METAR EPRZ 191100Z 08007KT 7000 NSC M09/M14 Q1035",
      "taf": "TAF EPRZ 190530Z 1906/2006 08008KT CAVOK"
    },
    {
      "icao": "EPSC",
      "alert": "OK",
      "vis_m": 9999,
      "fzfg": false,
      "metar_trigger": false,
      "taf_trigger": false,
      "metar": "METAR EPSC 191100Z 13014KT CAVOK M00/M07 Q1028",
      "taf": "TAF EPSC 190530Z 1906/2006 14010KT CAVOK"
    },
    {
      "icao": "EPSY",
      "alert": "OK",
      "vis_m": 9999,
      "fzfg": false,
      "metar_trigger": false,
      "taf_trigger": false,
      "metar": "METAR EPSY 191100Z 15003KT 100V190 CAVOK M11/M14 Q1035",
      "taf": "TAF EPSY 190830Z 1909/1918 15006KT CAVOK"
    },
    {
      "icao": "EPWA",
      "alert": "OK",
      "vis_m": 9000,
      "fzfg": false,
      "metar_trigger": false,
      "taf_trigger": false,
      "metar": "METAR EPWA 191100Z 13006KT 9000 NSC M09/M12 Q1035 NOSIG",
      "taf": "TAF EPWA 190830Z 1909/2009 13007KT CAVOK"
    },
    {
      "icao": "EPWR",
      "alert": "OK",
      "vis_m": 9999,
      "fzfg": false,
      "metar_trigger": false,
      "taf_trigger": false,
      "metar": "METAR EPWR 191100Z 12012KT CAVOK 01/M04 Q1030",
      "taf": "TAF EPWR 190830Z 1909/2009 12010KT CAVOK"
    },
    {
      "icao": "ESGG",
      "alert": "OK",
      "vis_m": 9999,
      "fzfg": false,
      "metar_trigger": false,
      "taf_trigger": false,
      "metar": "METAR ESGG 191050Z 12006KT 100V160 9999 NSC M01/M02 Q1026",
      "taf": ""
    },
    {
      "icao": "ESKN",
      "alert": "OK",
      "vis_m": 9999,
      "fzfg": false,
      "metar_trigger": false,
      "taf_trigger": false,
      "metar": "METAR ESKN 191050Z 16010KT 9999 BKN007 01/M00 Q1030",
      "taf": "TAF ESKN 190830Z 1909/2009 16007KT 8000 OVC004"
    },
    {
      "icao": "ESMS",
      "alert": "OK",
      "vis_m": 9999,
      "fzfg": false,
      "metar_trigger": false,
      "taf_trigger": false,
      "metar": "METAR ESMS 191050Z 12010KT CAVOK 02/M01 Q1026",
      "taf": "TAF ESMS 190827Z 1909/2009 12010KT CAVOK"
    },
    {
      "icao": "ESSA",
      "alert": "OK",
      "vis_m": 9999,
      "fzfg": false,
      "metar_trigger": false,
      "taf_trigger": false,
      "metar": "METAR ESSA 191050Z 18008KT 9999 OVC007 00/M01 Q1030 NOSIG",
      "taf": "TAF ESSA 190830Z 1909/2009 16007KT 9999 OVC007"
    },
    {
      "icao": "EYKA",
      "alert": "OK",
      "vis_m": 9999,
      "fzfg": false,
      "metar_trigger": false,
      "taf_trigger": false,
      "metar": "METAR EYKA 191050Z 18005KT 150V220 CAVOK M10/M14 Q1037",
      "taf": "TAF EYKA 191100Z 1912/2012 VRB04KT 9000 NSC"
    },
    {
      "icao": "EYPA",
      "alert": "OK",
      "vis_m": 9999,
      "fzfg": false,
      "metar_trigger": false,
      "taf_trigger": false,
      "metar": "METAR EYPA 191050Z 15007KT CAVOK M08/M12 Q1034",
      "taf": "TAF EYPA 191100Z 1912/2012 16010KT 9000 NSC"
    },
    {
      "icao": "EYVI",
      "alert": "OK",
      "vis_m": 9999,
      "fzfg": false,
      "metar_trigger": false,
      "taf_trigger": false,
      "metar": "METAR EYVI 191050Z 18008KT CAVOK M13/M15 Q1037 NOSIG",
      "taf": "TAF EYVI 191100Z 1912/2012 18008KT 9000 NSC"
    },
    {
      "icao": "GCFV",
      "alert": "OK",
      "vis_m": 9999,
      "fzfg": false,
      "metar_trigger": false,
      "taf_trigger": false,
      "metar": "METAR GCFV 191100Z 36020KT 9999 FEW030 18/10 Q1022",
      "taf": "TAF GCFV 190800Z 1909/2009 02018KT 9999 SCT035 TX20/1914Z TN14/2006Z"
    },
    {
      "icao": "GCLP",
      "alert": "OK",
      "vis_m": 9999,
      "fzfg": false,
      "metar_trigger": false,
      "taf_trigger": false,
      "metar": "METAR GCLP 191100Z 01022KT 9999 FEW035 18/09 Q1023 NOSIG",
      "taf": "TAF GCLP 190800Z 1909/2009 02023KT 9999 BKN035 TX20/1914Z TN15/2006Z"
    },
    {
      "icao": "GCTS",
      "alert": "OK",
      "vis_m": 9999,
      "fzfg": false,
      "metar_trigger": false,
      "taf_trigger": false,
      "metar": "METAR GCTS 191100Z 07022KT 9999 BKN040 20/08 Q1023 NOSIG",
      "taf": "TAF GCTS 190800Z 1909/2009 05009KT 9999 BKN035 TX23/1914Z TN13/2006Z"
    },
    {
      "icao": "GMAD",
      "alert": "OK",
      "vis_m": 9999,
      "fzfg": false,
      "metar_trigger": false,
      "taf_trigger": false,
      "metar": "METAR GMAD 191100Z 06004KT CAVOK 14/07 Q1017 NOSIG",
      "taf": "TAF GMAD 190500Z 1906/2012 22006KT 8000 SCT020"
    },
    {
      "icao": "GMMN",
      "alert": "OK",
      "vis_m": 9999,
      "fzfg": false,
      "metar_trigger": false,
      "taf_trigger": false,
      "metar": "METAR GMMN 191100Z 25007KT 9999 BKN020 13/10 Q1020 NOSIG",
      "taf": "TAF GMMN 190500Z 1906/2012 20006KT 5000 BKN020"
    },
    {
      "icao": "GMMX",
      "alert": "OK",
      "vis_m": 8000,
      "fzfg": false,
      "metar_trigger": false,
      "taf_trigger": false,
      "metar": "METAR GMMX 191100Z 01003KT 310V040 8000 SCT010 BKN020 08/07 Q1020 NOSIG",
      "taf": "TAF GMMX 190500Z 1906/2012 24006KT 8000 BKN023 SCT080"
    },
    {
      "icao": "HEGN",
      "alert": "OK",
      "vis_m": 9999,
      "fzfg": false,
      "metar_trigger": false,
      "taf_trigger": false,
      "metar": "METAR HEGN 191100Z 36012KT CAVOK 21/07 Q1017 NOSIG",
      "taf": "TAF HEGN 191100Z 1912/2018 35015KT CAVOK"
    },
    {
      "icao": "HEMA",
      "alert": "OK",
      "vis_m": 9999,
      "fzfg": false,
      "metar_trigger": false,
      "taf_trigger": false,
      "metar": "METAR HEMA 191100Z 36015KT 9999 SCT020 22/10 Q1019 NOSIG",
      "taf": "TAF HEMA 191100Z 1912/2018 36015KT CAVOK"
    },
    {
      "icao": "HESH",
      "alert": "OK",
      "vis_m": 9999,
      "fzfg": false,
      "metar_trigger": false,
      "taf_trigger": false,
      "metar": "METAR HESH 191100Z 36011KT CAVOK 22/06 Q1018 NOSIG",
      "taf": "TAF HESH 191100Z 1912/2018 01012KT CAVOK"
    },
    {
      "icao": "HESX",
      "alert": "OK",
      "vis_m": 9999,
      "fzfg": false,
      "metar_trigger": false,
      "taf_trigger": false,
      "metar": "METAR HESX 191100Z 30004KT CAVOK 18/07 Q1019 NOSIG",
      "taf": "TAF HESX 191100Z 1912/2018 28008KT CAVOK"
    },
    {
      "icao": "LATI",
      "alert": "OK",
      "vis_m": 9999,
      "fzfg": false,
      "metar_trigger": false,
      "taf_trigger": false,
      "metar": "METAR LATI 191050Z VRB02KT CAVOK 11/M07 Q1026 NOSIG",
      "taf": "TAF LATI 191100Z 1912/2012 VRB05KT CAVOK TX13/1912Z TNM04/2005Z"
    },
    {
      "icao": "LBPD",
      "alert": "OK",
      "vis_m": 9999,
      "fzfg": false,
      "metar_trigger": false,
      "taf_trigger": false,
      "metar": "METAR LBPD 191100Z AUTO VRB04KT 9999 NCD M01/M08 Q1036 NOSIG",
      "taf": "TAF LBPD 190500Z 1906/2006 VRB03KT 9999 SCT030 OVC045"
    },
    {
      "icao": "LBSF",
      "alert": "OK",
      "vis_m": 9999,
      "fzfg": false,
      "metar_trigger": false,
      "taf_trigger": false,
      "metar": "METAR LBSF 191100Z 13005KT 080V220 CAVOK M02/M10 Q1033 NOSIG",
      "taf": "TAF LBSF 190500Z 1906/2006 VRB03KT 9999 BKN025"
    },
    {
      "icao": "LBWN",
      "alert": "OK",
      "vis_m": 9999,
      "fzfg": false,
      "metar_trigger": false,
      "taf_trigger": false,
      "metar": "METAR LBWN 191100Z 28010KT 250V310 9999 -SN SCT018 OVC037 M04/M08 Q1036 NOSIG",
      "taf": "TAF LBWN 190500Z 1906/2006 28012KT 9999 BKN010 OVC040"
    },
    {
      "icao": "LCLK",
      "alert": "OK",
      "vis_m": 9999,
      "fzfg": false,
      "metar_trigger": false,
      "taf_trigger": false,
      "metar": "METAR LCLK 191100Z 04017KT 9999 FEW020 SCT050 12/00 Q1021 NOSIG",
      "taf": "TAF LCLK 190530Z 1906/2006 03013KT 9999 FEW025"
    },
    {
      "icao": "LCPH",
      "alert": "OK",
      "vis_m": 9999,
      "fzfg": false,
      "metar_trigger": false,
      "taf_trigger": false,
      "metar": "METAR LCPH 191100Z VRB02KT 9999 SCT040 SCT070 BKN085 12/02 Q1021 NOSIG",
      "taf": "TAF LCPH 190530Z 1906/2006 04009KT 9999 SCT025"
    },
    {
      "icao": "LEAL",
      "alert": "OK",
      "vis_m": 9999,
      "fzfg": false,
      "metar_trigger": false,
      "taf_trigger": false,
      "metar": "METAR LEAL 191100Z 36008KT 330V030 9999 BKN040 BKN055 15/06 Q1012 NOSIG",
      "taf": "TAF LEAL 190500Z 1906/2006 30005KT 9999 FEW030 TX16/1913Z TN08/1906Z"
    },
    {
      "icao": "LEBB",
      "alert": "OK",
      "vis_m": 9999,
      "fzfg": false,
      "metar_trigger": false,
      "taf_trigger": false,
      "metar": "METAR LEBB 191100Z VRB02KT 9999 FEW040 13/08 Q1018 NOSIG",
      "taf": "TAF LEBB 190500Z 1906/2006 10005KT 9999 FEW025 SCT040 TX13/1913Z TN02/2006Z"
    },
    {
      "icao": "LEBL",
      "alert": "OK",
      "vis_m": 9999,
      "fzfg": false,
      "metar_trigger": false,
      "taf_trigger": false,
      "metar": "METAR LEBL 191100Z 03012KT 9999 FEW020 SCT045 BKN060 13/10 Q1014 NOSIG",
      "taf": "TAF LEBL 190500Z 1906/2006 03009KT 9999 FEW010 TX14/1912Z TN09/1906Z"
    },
    {
      "icao": "LECH",
      "alert": "OK",
      "vis_m": 9999,
      "fzfg": false,
      "metar_trigger": false,
      "taf_trigger": false,
      "metar": "METAR LECH 191100Z AUTO 01009KT 330V060 9999 BKN060 12/05 Q1014",
      "taf": ""
    },
    {
      "icao": "LEMD",
      "alert": "OK",
      "vis_m": 9999,
      "fzfg": false,
      "metar_trigger": false,
      "taf_trigger": false,
      "metar": "METAR LEMD 191100Z 21002KT 9999 FEW045 07/02 Q1017 NOSIG",
      "taf": "TAF LEMD 190500Z 1906/2012 VRB02KT CAVOK TX10/1914Z TNM02/2006Z"
    },
    {
      "icao": "LEMG",
      "alert": "OK",
      "vis_m": 9999,
      "fzfg": false,
      "metar_trigger": false,
      "taf_trigger": false,
      "metar": "METAR LEMG 191100Z 29017KT 250V320 CAVOK 12/03 Q1016 NOSIG",
      "taf": "TAF LEMG 190500Z 1906/2006 29012KT CAVOK TX13/1914Z TN04/1906Z"
    },
    {
      "icao": "LEVC",
      "alert": "OK",
      "vis_m": 9999,
      "fzfg": false,
      "metar_trigger": false,
      "taf_trigger": false,
      "metar": "METAR LEVC 191100Z 31008KT 9999 FEW018 BKN060 14/06 Q1014 NOSIG",
      "taf": "TAF LEVC 190500Z 1906/2006 30007KT 9999 FEW020 TX16/1913Z TN05/1906Z"
    },
    {
      "icao": "LEXJ",
      "alert": "OK",
      "vis_m": 9999,
      "fzfg": false,
      "metar_trigger": false,
      "taf_trigger": false,
      "metar": "METAR LEXJ 191100Z 28006KT 240V300 9999 FEW050 11/06 Q1018",
      "taf": "TAF LEXJ 190800Z 1909/2009 22009KT 9999 SCT040 TX13/1913Z TN05/2006Z"
    },
    {
      "icao": "LEZG",
      "alert": "OK",
      "vis_m": 9999,
      "fzfg": false,
      "metar_trigger": false,
      "taf_trigger": false,
      "metar": "METAR LEZG 191100Z 30011KT 270V330 9999 BKN060 10/07 Q1016 NOSIG",
      "taf": "TAF LEZG 190500Z 1906/2006 30010KT 9999 BKN030 TX12/1915Z TN06/1906Z"
    },
    {
      "icao": "LEZL",
      "alert": "OK",
      "vis_m": 9999,
      "fzfg": false,
      "metar_trigger": false,
      "taf_trigger": false,
      "metar": "METAR LEZL 191100Z 04004KT 350V080 CAVOK 12/04 Q1019 NOSIG",
      "taf": "TAF LEZL 190800Z 1909/2009 03003KT CAVOK TX15/1915Z TN04/2007Z"
    },
    {
      "icao": "LFBD",
      "alert": "OK",
      "vis_m": 800,
      "fzfg": false,
      "metar_trigger": false,
      "taf_trigger": false,
      "metar": "METAR LFBD 191100Z AUTO VRB03KT 0800 0650 R23/1100U R05/1200U R29/0900N FG VV/// ///TCU 10/09 Q1016 BECMG 9999 NSW SCT030 BKN045",
      "taf": ""
    },
    {
      "icao": "LFLL",
      "alert": "OK",
      "vis_m": 650,
      "fzfg": false,
      "metar_trigger": false,
      "taf_trigger": false,
      "metar": "METAR LFLL 191100Z VRB02KT 0650 R35L/0900U R17R/0800N R35R/0900U R17L/0700N FG VV/// 03/03 Q1019 NOSIG",
      "taf": ""
    },
    {
      "icao": "LFLS",
      "alert": "OK",
      "vis_m": 9999,
      "fzfg": false,
      "metar_trigger": false,
      "taf_trigger": false,
      "metar": "METAR LFLS 191100Z AUTO VRB02KT CAVOK 09/04 Q1018 NOSIG",
      "taf": "TAF LFLS 190800Z 1909/2009 09004KT CAVOK"
    },
    {
      "icao": "LFMN",
      "alert": "OK",
      "vis_m": 9999,
      "fzfg": false,
      "metar_trigger": false,
      "taf_trigger": false,
      "metar": "METAR LFMN 191100Z 09028KT 9999 BKN100 15/05 Q1017 NOSIG",
      "taf": "TAF LFMN 190800Z 1909/2015 07025KT CAVOK"
    },
    {
      "icao": "LFOB",
      "alert": "OK",
      "vis_m": 6000,
      "fzfg": false,
      "metar_trigger": false,
      "taf_trigger": false,
      "metar": "METAR LFOB 191100Z AUTO 13009KT 6000 NSC 05/04 Q1018 TEMPO 4000 BR",
      "taf": ""
    },
    {
      "icao": "LFPO",
      "alert": "OK",
      "vis_m": 9000,
      "fzfg": false,
      "metar_trigger": false,
      "taf_trigger": false,
      "metar": "METAR LFPO 191100Z VRB02KT 9000 NSC 06/03 Q1018 NOSIG",
      "taf": "TAF LFPO 190500Z 1906/2012 13004KT 6000 NSC"
    },
    {
      "icao": "LFSB",
      "alert": "OK",
      "vis_m": 9999,
      "fzfg": false,
      "metar_trigger": false,
      "taf_trigger": false,
      "metar": "METAR LFSB 191100Z AUTO 11004KT 060V140 CAVOK 04/00 Q1019 TEMPO BKN006",
      "taf": ""
    },
    {
      "icao": "LGAV",
      "alert": "OK",
      "vis_m": 9999,
      "fzfg": false,
      "metar_trigger": false,
      "taf_trigger": false,
      "metar": "METAR LGAV 191050Z 03015G26KT 9999 SCT020 BKN040 06/M02 Q1029 NOSIG",
      "taf": "TAF LGAV 191100Z 1912/2012 02017G27KT 9999 SCT020 BKN040"
    },
    {
      "icao": "LGTS",
      "alert": "OK",
      "vis_m": 9999,
      "fzfg": false,
      "metar_trigger": false,
      "taf_trigger": false,
      "metar": "METAR LGTS 191050Z VRB03KT 9999 SCT020 07/M03 Q1034 NOSIG",
      "taf": "TAF LGTS 191100Z 1912/2012 11008KT 9999 FEW015 BKN025"
    },
    {
      "icao": "LHBP",
      "alert": "OK",
      "vis_m": 5000,
      "fzfg": false,
      "metar_trigger": false,
      "taf_trigger": false,
      "metar": "METAR LHBP 191100Z 12004KT 5000 BR OVC006 M05/M06 Q1038 NOSIG",
      "taf": "TAF LHBP 190515Z 1906/2006 10005KT 6000 OVC015"
    },
    {
      "icao": "LHDC",
      "alert": "OK",
      "vis_m": 2800,
      "fzfg": false,
      "metar_trigger": false,
      "taf_trigger": false,
      "metar": "METAR LHDC 191045Z AUTO 28004KT 2800 BR OVC003 M05/M06 Q1038 BECMG 6000 NSW NSC",
      "taf": ""
    },
    {
      "icao": "LIBD",
      "alert": "OK",
      "vis_m": 9999,
      "fzfg": false,
      "metar_trigger": false,
      "taf_trigger": false,
      "metar": "METAR LIBD 191050Z AUTO 12007KT 9999 -RA SCT016/// BKN058/// 11/09 Q1024",
      "taf": "TAF LIBD 190500Z 1906/2006 VRB05KT 9999 SCT040"
    },
    {
      "icao": "LIBG",
      "alert": "OK",
      "vis_m": 9999,
      "fzfg": false,
      "metar_trigger": false,
      "taf_trigger": false,
      "metar": "METAR LIBG 191050Z 11008KT 9999 SCT040 11/11 Q1024",
      "taf": "TAF LIBG 190800Z 1909/1918 VRB06KT 9999 SCT010 BKN040"
    },
    {
      "icao": "LIBP",
      "alert": "OK",
      "vis_m": 9999,
      "fzfg": false,
      "metar_trigger": false,
      "taf_trigger": false,
      "metar": "METAR LIBP 191050Z AUTO 06005KT 030V090 9999 FEW047/// BKN070/// 11/10 Q1023",
      "taf": "TAF LIBP 190500Z 1906/2006 VRB05KT 9999 BKN030"
    },
    {
      "icao": "LIBR",
      "alert": "OK",
      "vis_m": 9999,
      "fzfg": false,
      "metar_trigger": false,
      "taf_trigger": false,
      "metar": "METAR LIBR 191050Z 16008KT 9999 BKN040 11/05 Q1024",
      "taf": "TAF LIBR 190500Z 1906/2006 VRB05KT 9999 BKN040"
    },
    {
      "icao": "LICA",
      "alert": "OK",
      "vis_m": 9999,
      "fzfg": false,
      "metar_trigger": false,
      "taf_trigger": false,
      "metar": "METAR LICA 191050Z AUTO 07018KT 9999 FEW021/// 14/11 Q1019",
      "taf": "TAF LICA 190500Z 1906/2006 08015KT 9999 SCT020 BKN070"
    },
    {
      "icao": "LICC",
      "alert": "OK",
      "vis_m": 7000,
      "fzfg": false,
      "metar_trigger": false,
      "taf_trigger": false,
      "metar": "METAR LICC 191050Z 11016KT 7000 BKN020 OVC060 15/13 Q1017",
      "taf": "TAF LICC 190500Z 1906/2006 08015KT 9999 SCT015 BKN050"
    },
    {
      "icao": "LICJ",
      "alert": "OK",
      "vis_m": 9999,
      "fzfg": false,
      "metar_trigger": false,
      "taf_trigger": false,
      "metar": "METAR LICJ 191050Z VRB11G29KT 9999 FEW030 SCT060 18/07 Q1011 WS R07",
      "taf": "TAF LICJ 190500Z 1906/2006 06015KT 9999 SCT040"
    },
    {
      "icao": "LIMC",
      "alert": "OK",
      "vis_m": 9999,
      "fzfg": false,
      "metar_trigger": false,
      "taf_trigger": false,
      "metar": "METAR LIMC 191050Z VRB01KT 9999 BKN034 07/02 Q1026 NOSIG",
      "taf": "TAF LIMC 190500Z 1906/2012 VRB03KT 9999 BKN040"
    },
    {
      "icao": "LIME",
      "alert": "OK",
      "vis_m": 9999,
      "fzfg": false,
      "metar_trigger": false,
      "taf_trigger": false,
      "metar": "METAR LIME 191050Z VRB01KT 9999 FEW040 BKN060 06/00 Q1026 NOSIG",
      "taf": "TAF LIME 190500Z 1906/2006 VRB03KT 9999 BKN045"
    },
    {
      "icao": "LIMF",
      "alert": "OK",
      "vis_m": 7000,
      "fzfg": false,
      "metar_trigger": false,
      "taf_trigger": false,
      "metar": "METAR LIMF 191050Z VRB02KT 7000 BKN020 06/04 Q1027",
      "taf": "TAF LIMF 190500Z 1906/2006 VRB06KT 8000 DZ BKN050"
    },
    {
      "icao": "LIMJ",
      "alert": "OK",
      "vis_m": 9999,
      "fzfg": false,
      "metar_trigger": false,
      "taf_trigger": false,
      "metar": "METAR LIMJ 191050Z 02016KT CAVOK 11/03 Q1022",
      "taf": "TAF LIMJ 190500Z 1906/2006 02013KT CAVOK"
    },
    {
      "icao": "LIPE",
      "alert": "OK",
      "vis_m": 9999,
      "fzfg": false,
      "metar_trigger": false,
      "taf_trigger": false,
      "metar": "METAR LIPE 191050Z 30004KT 270V330 9999 BKN027 04/01 Q1027",
      "taf": "TAF LIPE 190500Z 1906/2006 VRB05KT 8000 BKN030"
    },
    {
      "icao": "LIPH",
      "alert": "OK",
      "vis_m": 9999,
      "fzfg": false,
      "metar_trigger": false,
      "taf_trigger": false,
      "metar": "METAR LIPH 191050Z 06009KT 020V090 CAVOK 07/M05 Q1028",
      "taf": "TAF LIPH 190500Z 1906/2006 05007KT 9999 FEW070"
    },
    {
      "icao": "LIPQ",
      "alert": "OK",
      "vis_m": 9999,
      "fzfg": false,
      "metar_trigger": false,
      "taf_trigger": false,
      "metar": "METAR LIPQ 191050Z AUTO 10015KT 9999 NCD 06/M07 Q1028",
      "taf": "TAF LIPQ 190500Z 1906/2006 VRB05KT CAVOK"
    },
    {
      "icao": "LIPR",
      "alert": "OK",
      "vis_m": 9999,
      "fzfg": false,
      "metar_trigger": false,
      "taf_trigger": false,
      "metar": "METAR LIPR 191050Z 10011KT 9999 FEW030 SCT060 10/06 Q1025",
      "taf": "TAF LIPR 190500Z 1906/2006 10012KT 9999 BKN030"
    },
    {
      "icao": "LIPX",
      "alert": "OK",
      "vis_m": 9999,
      "fzfg": false,
      "metar_trigger": false,
      "taf_trigger": false,
      "metar": "METAR LIPX 191050Z 09010KT 050V110 9999 FEW070 08/M07 Q1027",
      "taf": "TAF LIPX 190500Z 1906/2006 10007KT 9999 SCT050"
    },
    {
      "icao": "LIPY",
      "alert": "OK",
      "vis_m": 9999,
      "fzfg": false,
      "metar_trigger": false,
      "taf_trigger": false,
      "metar": "METAR LIPY 191050Z AUTO 09009KT 060V140 9999 FEW026/// BKN076/// OVC089/// 12/07 Q1024",
      "taf": "TAF LIPY 190500Z 1906/2006 09012KT 9999 FEW030 SCT070"
    },
    {
      "icao": "LIPZ",
      "alert": "OK",
      "vis_m": 9999,
      "fzfg": false,
      "metar_trigger": false,
      "taf_trigger": false,
      "metar": "METAR LIPZ 191050Z 07013KT CAVOK 06/M04 Q1028 NOSIG",
      "taf": "TAF LIPZ 190500Z 1906/2012 04010KT 9999 FEW070"
    },
    {
      "icao": "LIRF",
      "alert": "OK",
      "vis_m": 9999,
      "fzfg": false,
      "metar_trigger": false,
      "taf_trigger": false,
      "metar": "METAR LIRF 191050Z 07007KT 9999 BKN045 13/07 Q1018 NOSIG",
      "taf": "TAF LIRF 190500Z 1906/2012 06010KT 9999 SCT045"
    },
    {
      "icao": "LIRN",
      "alert": "OK",
      "vis_m": 9999,
      "fzfg": false,
      "metar_trigger": false,
      "taf_trigger": false,
      "metar": "METAR LIRN 191050Z 03009KT 9999 BKN055 10/08 Q1019 NOSIG",
      "taf": "TAF LIRN 190500Z 1906/2006 05010KT 9999 SCT040"
    },
    {
      "icao": "LIRP",
      "alert": "OK",
      "vis_m": 9999,
      "fzfg": false,
      "metar_trigger": false,
      "taf_trigger": false,
      "metar": "METAR LIRP 191045Z 08016KT CAVOK 12/04 Q1020 TEMPO 07015G27KT",
      "taf": "TAF LIRP 190500Z 1906/2006 07012KT 9999 BKN080"
    },
    {
      "icao": "LIRZ",
      "alert": "OK",
      "vis_m": 9999,
      "fzfg": false,
      "metar_trigger": false,
      "taf_trigger": false,
      "metar": "METAR LIRZ 191050Z AUTO 06014KT 9999 NCD 12/04 Q1020",
      "taf": "TAF LIRZ 190500Z 1906/2006 03013KT CAVOK"
    },
    {
      "icao": "LJLJ",
      "alert": "OK",
      "vis_m": 9999,
      "fzfg": false,
      "metar_trigger": false,
      "taf_trigger": false,
      "metar": "METAR LJLJ 191100Z 01003KT 320V100 9999 BKN023 M01/M07 Q1032 NOSIG",
      "taf": "TAF LJLJ 191100Z 1912/2012 12006KT 9999 BKN020"
    },
    {
      "icao": "LKMT",
      "alert": "OK",
      "vis_m": 9999,
      "fzfg": false,
      "metar_trigger": false,
      "taf_trigger": false,
      "metar": "METAR LKMT 191100Z 24013KT CAVOK M02/M04 Q1033 NOSIG",
      "taf": "TAF LKMT 190500Z 1906/2006 22014KT CAVOK"
    },
    {
      "icao": "LKPR",
      "alert": "OK",
      "vis_m": 9999,
      "fzfg": false,
      "metar_trigger": false,
      "taf_trigger": false,
      "metar": "METAR LKPR 191100Z 12010KT CAVOK 00/M07 Q1026 NOSIG",
      "taf": "TAF LKPR 190800Z 1909/2015 12012KT CAVOK"
    },
    {
      "icao": "LLBG",
      "alert": "OK",
      "vis_m": 9999,
      "fzfg": false,
      "metar_trigger": false,
      "taf_trigger": false,
      "metar": "METAR LLBG 191050Z 01014KT 9999 SCT040 15/05 Q1019 NOSIG RMK BKN065",
      "taf": "TAF LLBG 191104Z 1912/2012 35012KT 9999 SCT040"
    },
    {
      "icao": "LMML",
      "alert": "OK",
      "vis_m": 9000,
      "fzfg": false,
      "metar_trigger": false,
      "taf_trigger": false,
      "metar": "METAR LMML 191045Z 10025KT 9000 BKN011 BKN030 16/13 Q1013 NOSIG",
      "taf": "TAF LMML 190500Z 1906/2006 12015KT 9999 SCT015"
    },
    {
      "icao": "LOWW",
      "alert": "OK",
      "vis_m": 9999,
      "fzfg": false,
      "metar_trigger": false,
      "taf_trigger": false,
      "metar": "METAR LOWW 191050Z 14020KT 9999 FEW012 BKN015 M03/M06 Q1034 NOSIG",
      "taf": ""
    },
    {
      "icao": "LPFR",
      "alert": "OK",
      "vis_m": 9999,
      "fzfg": false,
      "metar_trigger": false,
      "taf_trigger": false,
      "metar": "METAR LPFR 191100Z 24006KT CAVOK 11/06 Q1020",
      "taf": "TAF LPFR 190500Z 1906/2006 33005KT CAVOK"
    },
    {
      "icao": "LPMA",
      "alert": "OK",
      "vis_m": 9999,
      "fzfg": false,
      "metar_trigger": false,
      "taf_trigger": false,
      "metar": "METAR LPMA 191100Z 02009G19KT 330V070 9999 FEW015 16/08 Q1026",
      "taf": "TAF LPMA 190500Z 1906/2006 01010KT 9999 SCT015"
    },
    {
      "icao": "LPPR",
      "alert": "OK",
      "vis_m": 4000,
      "fzfg": false,
      "metar_trigger": false,
      "taf_trigger": false,
      "metar": "METAR LPPR 191100Z VRB01KT 4000 -RA BR FEW018 SCT023 BKN035 07/06 Q1021",
      "taf": "TAF LPPR 190500Z 1906/2006 11005KT CAVOK"
    },
    {
      "icao": "LPPS",
      "alert": "OK",
      "vis_m": 9999,
      "fzfg": false,
      "metar_trigger": false,
      "taf_trigger": false,
      "metar": "METAR LPPS 191100Z 04012KT 010V070 9999 SCT015 SCT030 16/11 Q1026",
      "taf": "TAF LPPS 190500Z 1906/2012 01015KT 9999 SCT015"
    },
    {
      "icao": "LPPT",
      "alert": "OK",
      "vis_m": 9999,
      "fzfg": false,
      "metar_trigger": false,
      "taf_trigger": false,
      "metar": "METAR LPPT 191100Z 35009KT 9999 FEW020 12/08 Q1021",
      "taf": "TAF LPPT 190500Z 1906/2012 29005KT 9999 FEW020"
    },
    {
      "icao": "LQBK",
      "alert": "OK",
      "vis_m": 9999,
      "fzfg": false,
      "metar_trigger": false,
      "taf_trigger": false,
      "metar": "METAR LQBK 191100Z 34003KT 300V020 9999 BKN010 OVC017 M04/M06 Q1035 NOSIG",
      "taf": ""
    },
    {
      "icao": "LQSA",
      "alert": "OK",
      "vis_m": 9999,
      "fzfg": false,
      "metar_trigger": false,
      "taf_trigger": false,
      "metar": "METAR LQSA 191100Z VRB02KT 9999 FEW022 M02/M06 Q1030 NOSIG",
      "taf": "TAF LQSA 191100Z 1912/2012 VRB02KT 9999 FEW035 TX01/1913Z TNM07/2006Z"
    },
    {
      "icao": "LQTZ",
      "alert": "OK",
      "vis_m": 9999,
      "fzfg": false,
      "metar_trigger": false,
      "taf_trigger": false,
      "metar": "METAR LQTZ 191100Z 12004KT 080V170 9999 FEW030 M01/M05 Q1033",
      "taf": "TAF LQTZ 191100Z 1912/2012 10006KT 9999 SCT025 TX01/1913Z TNM07/2006Z"
    },
    {
      "icao": "LRBC",
      "alert": "OK",
      "vis_m": 9999,
      "fzfg": false,
      "metar_trigger": false,
      "taf_trigger": false,
      "metar": "METAR LRBC 191100Z 03005KT 360V070 9999 FEW040 BKN061 M03/M09 Q1039",
      "taf": "TAF LRBC 190800Z 1909/1918 VRB04KT 9999 BKN040"
    },
    {
      "icao": "LRBS",
      "alert": "OK",
      "vis_m": 9999,
      "fzfg": false,
      "metar_trigger": false,
      "taf_trigger": false,
      "metar": "METAR LRBS 191100Z 29005KT 250V330 9999 OVC031 M03/M06 Q1039 NOSIG",
      "taf": "TAF LRBS 190500Z 1906/2006 27007KT 9999 BKN035"
    },
    {
      "icao": "LRBV",
      "alert": "OK",
      "vis_m": 9999,
      "fzfg": false,
      "metar_trigger": false,
      "taf_trigger": false,
      "metar": "METAR LRBV 191100Z VRB02KT 9999 FEW050 M04/M09 Q1035",
      "taf": "TAF LRBV 190800Z 1909/1918 VRB04KT 9999 SCT040"
    },
    {
      "icao": "LRCL",
      "alert": "OK",
      "vis_m": 9999,
      "fzfg": false,
      "metar_trigger": false,
      "taf_trigger": false,
      "metar": "METAR LRCL 191100Z 07005KT CAVOK M06/M10 Q1036",
      "taf": "TAF LRCL 190800Z 1909/1918 07005KT 5000 BR NSC"
    },
    {
      "icao": "LRCV",
      "alert": "OK",
      "vis_m": 5000,
      "fzfg": false,
      "metar_trigger": false,
      "taf_trigger": false,
      "metar": "METAR LRCV 191100Z VRB02KT 5000 BR NSC M04/M07 Q1039",
      "taf": "TAF LRCV 190800Z 1909/1918 VRB04KT 5000 BR SCT010 BKN025"
    },
    {
      "icao": "LRIA",
      "alert": "OK",
      "vis_m": 9999,
      "fzfg": false,
      "metar_trigger": false,
      "taf_trigger": false,
      "metar": "METAR LRIA 191100Z 31004KT 270V350 CAVOK M10/M11 Q1040",
      "taf": "TAF LRIA 190800Z 1909/1918 VRB04KT 7000 OVC005"
    },
    {
      "icao": "LROP",
      "alert": "OK",
      "vis_m": 9999,
      "fzfg": false,
      "metar_trigger": false,
      "taf_trigger": false,
      "metar": "METAR LROP 191100Z 29006KT 9999 OVC029 M02/M08 Q1039 NOSIG",
      "taf": "TAF LROP 190500Z 1906/2006 27007KT 9999 BKN035"
    },
    {
      "icao": "LRSB",
      "alert": "OK",
      "vis_m": 9999,
      "fzfg": false,
      "metar_trigger": false,
      "taf_trigger": false,
      "metar": "METAR LRSB 191100Z 25006KT CAVOK M06/M08 Q1035",
      "taf": "TAF LRSB 190500Z 1906/2006 VRB04KT CAVOK"
    },
    {
      "icao": "LRSM",
      "alert": "OK",
      "vis_m": 4000,
      "fzfg": true,
      "metar_trigger": false,
      "taf_trigger": false,
      "metar": "METAR LRSM 191100Z VRB02KT 4000 BR NSC M08/M09 Q1038",
      "taf": "TAF LRSM 190800Z 1909/1918 VRB04KT 0600 FZFG OVC001"
    },
    {
      "icao": "LRSV",
      "alert": "OK",
      "vis_m": 7000,
      "fzfg": false,
      "metar_trigger": false,
      "taf_trigger": false,
      "metar": "METAR LRSV 191100Z 09005KT 7000 NSC M06/M09 Q1036",
      "taf": "TAF LRSV 190800Z 1909/1918 VRB04KT CAVOK"
    },
    {
      "icao": "LRTM",
      "alert": "OK",
      "vis_m": 4000,
      "fzfg": false,
      "metar_trigger": false,
      "taf_trigger": false,
      "metar": "METAR LRTM 191100Z COR 23002KT 4000 BR FEW005 M09/M13 Q1037",
      "taf": "TAF LRTM 190800Z 1909/1918 VRB04KT 3000 BR NSC"
    },
    {
      "icao": "LRTR",
      "alert": "OK",
      "vis_m": 9999,
      "fzfg": false,
      "metar_trigger": false,
      "taf_trigger": false,
      "metar": "METAR LRTR 191100Z 13005KT CAVOK M03/M08 Q1037",
      "taf": "TAF LRTR 190500Z 1906/2006 06006KT CAVOK"
    },
    {
      "icao": "LTAC",
      "alert": "OK",
      "vis_m": 9999,
      "fzfg": false,
      "metar_trigger": false,
      "taf_trigger": false,
      "metar": "METAR LTAC 191050Z 33005KT 270V010 9999 SCT030 M00/M09 Q1022 NOSIG RMK RWY21C 30006KT 260V340 RWY03L 30005KT 240V360 RWY21R 29006KT 240V340 RWY03R 32003KT 230V030 RWY21L 31004KT 250V360",
      "taf": "TAF LTAC 191040Z 1912/2012 VRB02KT 9999 SCT035"
    },
    {
      "icao": "LTFM",
      "alert": "OK",
      "vis_m": 9999,
      "fzfg": false,
      "metar_trigger": false,
      "taf_trigger": false,
      "metar": "METAR LTFM 191050Z 36022KT 9999 BKN010 BKN022 02/M01 Q1032 RESHSN NOSIG RMK RWY17L 35021KT RWY34L 35021KT RWY16R 34018KT RWY36 35023KT RWY18 35025KT",
      "taf": "TAF LTFM 191040Z 1912/2018 35023G37KT 7000 -SHSNRA BKN011 BKN022"
    },
    {
      "icao": "LUKK",
      "alert": "OK",
      "vis_m": 9999,
      "fzfg": false,
      "metar_trigger": false,
      "taf_trigger": false,
      "metar": "METAR LUKK 191100Z 02009KT 350V050 CAVOK M05/M09 Q1038 NOSIG",
      "taf": "TAF LUKK 190512Z 1906/2006 36009KT 9999 OVC012"
    },
    {
      "icao": "LWOH",
      "alert": "OK",
      "vis_m": 9999,
      "fzfg": false,
      "metar_trigger": false,
      "taf_trigger": false,
      "metar": "METAR LWOH 191050Z 08007KT 030V140 9999 FEW033 05/M04 Q1027",
      "taf": "TAF LWOH 190830Z 1909/2009 04006KT 9999 SCT040"
    },
    {
      "icao": "LWSK",
      "alert": "OK",
      "vis_m": 9999,
      "fzfg": false,
      "metar_trigger": false,
      "taf_trigger": false,
      "metar": "METAR LWSK 191050Z VRB01KT CAVOK 04/M06 Q1033 NOSIG",
      "taf": "TAF LWSK 190830Z 1909/2009 VRB03KT CAVOK"
    },
    {
      "icao": "LYBE",
      "alert": "OK",
      "vis_m": 9999,
      "fzfg": false,
      "metar_trigger": false,
      "taf_trigger": false,
      "metar": "METAR LYBE 191100Z 11010KT CAVOK M01/M07 Q1036 NOSIG",
      "taf": "TAF LYBE 190500Z 1906/2006 10014KT CAVOK TX01/1913ZZ TNM07/2005Z"
    },
    {
      "icao": "LYNI",
      "alert": "OK",
      "vis_m": 9999,
      "fzfg": false,
      "metar_trigger": false,
      "taf_trigger": false,
      "metar": "METAR LYNI 191100Z VRB03KT CAVOK 00/M09 Q1035 TEMPO 05013KT",
      "taf": "TAF LYNI 190500Z 1906/2006 05007KT CAVOK TX01/1913Z TNM10/2005Z"
    },
    {
      "icao": "LYPG",
      "alert": "OK",
      "vis_m": 9999,
      "fzfg": false,
      "metar_trigger": false,
      "taf_trigger": false,
      "metar": "METAR LYPG 191100Z VRB03KT CAVOK 08/M04 Q1028 NOSIG",
      "taf": "TAF LYPG 190500Z 1906/2006 35007KT CAVOK TX09/1913Z TNM02/1906Z"
    },
    {
      "icao": "LZIB",
      "alert": "OK",
      "vis_m": 9999,
      "fzfg": false,
      "metar_trigger": false,
      "taf_trigger": false,
      "metar": "METAR LZIB 191100Z 12012KT 9999 SCT017 M03/M06 Q1036 NOSIG",
      "taf": ""
    },
    {
      "icao": "LZKZ",
      "alert": "OK",
      "vis_m": 9999,
      "fzfg": false,
      "metar_trigger": false,
      "taf_trigger": false,
      "metar": "METAR LZKZ 191100Z 00000KT 9999 4500S FEW010 M05/M09 Q1037 NOSIG",
      "taf": ""
    },
    {
      "icao": "LZTT",
      "alert": "OK",
      "vis_m": 9999,
      "fzfg": false,
      "metar_trigger": false,
      "taf_trigger": false,
      "metar": "METAR LZTT 191100Z VRB01KT CAVOK M04/M09 Q1032 NOSIG",
      "taf": ""
    },
    {
      "icao": "OEJN",
      "alert": "OK",
      "vis_m": 9999,
      "fzfg": false,
      "metar_trigger": false,
      "taf_trigger": false,
      "metar": "METAR OEJN 191100Z 33010KT CAVOK 29/07 Q1012 NOSIG",
      "taf": "TAF OEJN 190500Z 1906/2012 33013KT 9999 FEW040"
    },
    {
      "icao": "OEMA",
      "alert": "OK",
      "vis_m": 9999,
      "fzfg": false,
      "metar_trigger": false,
      "taf_trigger": false,
      "metar": "METAR OEMA 191100Z 18003KT CAVOK 24/M03 Q1017 NOSIG",
      "taf": "TAF OEMA 190500Z 1906/2012 VRB03KT CAVOK"
    },
    {
      "icao": "OJAI",
      "alert": "OK",
      "vis_m": 5000,
      "fzfg": false,
      "metar_trigger": false,
      "taf_trigger": false,
      "metar": "METAR OJAI 191000Z 29011KT 5000 HZ SCT030 10/03 Q1019 NOSIG",
      "taf": "TAF OJAI 191013Z 1912/2018 29012KT 5000 HZ SCT035"
    },
    {
      "icao": "OMAA",
      "alert": "OK",
      "vis_m": 9999,
      "fzfg": false,
      "metar_trigger": false,
      "taf_trigger": false,
      "metar": "METAR OMAA 191100Z 32008KT 290V010 CAVOK 24/08 Q1014 NOSIG",
      "taf": "TAF OMAA 191100Z 1912/2018 33010KT 8000 NSC"
    },
    {
      "icao": "OMDB",
      "alert": "OK",
      "vis_m": 9999,
      "fzfg": false,
      "metar_trigger": false,
      "taf_trigger": false,
      "metar": "METAR OMDB 191100Z 33006KT 270V020 CAVOK 24/10 Q1014 NOSIG",
      "taf": "TAF OMDB 191100Z 1912/2018 31010KT 8000 NSC"
    },
    {
      "icao": "UAAA",
      "alert": "OK",
      "vis_m": 5000,
      "fzfg": false,
      "metar_trigger": false,
      "taf_trigger": false,
      "metar": "METAR UAAA 191100Z 35002MPS 310V010 5000 FU BKN200 M10/M15 Q1025 NOSIG",
      "taf": "TAF UAAA 190501Z 1906/2006 31003MPS 6000 SCT050 BKN100 TXM09/1908Z TNM17/2003Z"
    },
    {
      "icao": "UBBB",
      "alert": "OK",
      "vis_m": 9999,
      "fzfg": false,
      "metar_trigger": false,
      "taf_trigger": false,
      "metar": "METAR UBBB 191100Z 03016KT 9999 BKN024 03/M02 Q1026 NOSIG",
      "taf": "TAF UBBB 191055Z 1912/2012 02012KT 9999 BKN020 TX03/1912Z TN00/2001Z"
    },
    {
      "icao": "UDSG",
      "alert": "OK",
      "vis_m": 9999,
      "fzfg": false,
      "metar_trigger": false,
      "taf_trigger": false,
      "metar": "METAR UDSG 191100Z 05014KT 9999 BKN036 M03/M08 Q1013 NOSIG",
      "taf": "TAF UDSG 190458Z 1906/2006 36006KT 5000 BR BKN030"
    },
    {
      "icao": "UDYZ",
      "alert": "OK",
      "vis_m": 9999,
      "fzfg": false,
      "metar_trigger": false,
      "taf_trigger": false,
      "metar": "METAR UDYZ 191100Z 10005KT 9999 BKN023 02/M01 Q1015 NOSIG",
      "taf": "TAF UDYZ 190500Z 1906/2006 VRB04KT 2000 BR BKN020"
    },
    {
      "icao": "UGKO",
      "alert": "OK",
      "vis_m": 9999,
      "fzfg": false,
      "metar_trigger": false,
      "taf_trigger": false,
      "metar": "METAR UGKO 191100Z 25010KT 9999 SCT035 OVC065 05/02 Q1019 NOSIG",
      "taf": "TAF UGKO 191100Z 1912/2012 VRB02KT 9999 SCT020 OVC050 TX06/2012Z TNM01/2002Z"
    }
  ]
}