{
  "ts_utc": "2026-07-23T04:27:03Z",
  "threshold_m": 150,
  "source": "stations_override.txt (ICAO list) + aviationweather.gov (METAR/TAF raw)",
  "station_count": 159,
  "stations": [
    {
      "icao": "BIKF",
      "alert": "OK",
      "vis_m": 9999,
      "fzfg": false,
      "metar_trigger": false,
      "taf_trigger": false,
      "metar": "METAR BIKF 230403Z 22015KT 9999 -DZ BKN007 OVC033 10/10 Q1007",
      "taf": "TAF BIKF 230410Z 2306/2406 22013KT 6000 -RADZ BKN008 TX13/2318Z TN10/2406Z"
    },
    {
      "icao": "BKPR",
      "alert": "OK",
      "vis_m": null,
      "fzfg": false,
      "metar_trigger": false,
      "taf_trigger": false,
      "metar": "",
      "taf": "TAF BKPR 222330Z 2300/2324 VRB05KT 9999 FEW070"
    },
    {
      "icao": "EBCI",
      "alert": "OK",
      "vis_m": 9999,
      "fzfg": false,
      "metar_trigger": false,
      "taf_trigger": false,
      "metar": "METAR EBCI 230420Z 30003KT 260V340 9999 FEW032 BKN038 14/11 Q1023 NOSIG",
      "taf": "TAF EBCI 222303Z 2300/2406 31004KT 9999 SCT020 SCT035"
    },
    {
      "icao": "EDDB",
      "alert": "OK",
      "vis_m": 9999,
      "fzfg": false,
      "metar_trigger": false,
      "taf_trigger": false,
      "metar": "METAR EDDB 230420Z AUTO 28010KT 9999 BKN013 14/12 Q1014 NOSIG",
      "taf": "TAF EDDB 222300Z 2300/2324 27012KT 9999 SCT045"
    },
    {
      "icao": "EDDH",
      "alert": "OK",
      "vis_m": 9999,
      "fzfg": false,
      "metar_trigger": false,
      "taf_trigger": false,
      "metar": "METAR EDDH 230420Z AUTO 31008KT 9999 BKN043 13/10 Q1016 NOSIG",
      "taf": "TAF EDDH 222300Z 2300/2406 29007KT 9999 BKN035"
    },
    {
      "icao": "EDDK",
      "alert": "OK",
      "vis_m": 9999,
      "fzfg": false,
      "metar_trigger": false,
      "taf_trigger": false,
      "metar": "METAR EDDK 230420Z AUTO 32006KT 9999 OVC035 15/10 Q1021 NOSIG",
      "taf": "TAF EDDK 222300Z 2300/2406 32005KT 9999 SCT020 BKN030"
    },
    {
      "icao": "EDDN",
      "alert": "OK",
      "vis_m": 9999,
      "fzfg": false,
      "metar_trigger": false,
      "taf_trigger": false,
      "metar": "METAR EDDN 230420Z AUTO 30004KT 9999 FEW030 13/10 Q1019 NOSIG",
      "taf": "TAF EDDN 222300Z 2300/2324 30004KT CAVOK"
    },
    {
      "icao": "EDDS",
      "alert": "OK",
      "vis_m": 9999,
      "fzfg": false,
      "metar_trigger": false,
      "taf_trigger": false,
      "metar": "METAR EDDS 230420Z AUTO 27003KT 230V350 CAVOK 14/10 Q1020 NOSIG",
      "taf": "TAF EDDS 222300Z 2300/2324 32004KT CAVOK"
    },
    {
      "icao": "EDFH",
      "alert": "OK",
      "vis_m": 9999,
      "fzfg": false,
      "metar_trigger": false,
      "taf_trigger": false,
      "metar": "METAR EDFH 230420Z 31005KT 9999 FEW024 BKN027 12/08 Q1021",
      "taf": "TAF EDFH 222300Z 2300/2324 32005KT 9999 SCT040"
    },
    {
      "icao": "EDJA",
      "alert": "OK",
      "vis_m": 9999,
      "fzfg": false,
      "metar_trigger": false,
      "taf_trigger": false,
      "metar": "METAR EDJA 230420Z VRB02KT 9999 BKN055 12/11 Q1020",
      "taf": "TAF EDJA 230200Z 2303/2312 VRB02KT CAVOK"
    },
    {
      "icao": "EDLW",
      "alert": "OK",
      "vis_m": 9999,
      "fzfg": false,
      "metar_trigger": false,
      "taf_trigger": false,
      "metar": "METAR EDLW 230420Z VRB04KT 9999 OVC037 15/10 Q1020",
      "taf": "TAF EDLW 230320Z 2304/2324 26005KT 9999 SCT045"
    },
    {
      "icao": "EDNY",
      "alert": "OK",
      "vis_m": 9999,
      "fzfg": false,
      "metar_trigger": false,
      "taf_trigger": false,
      "metar": "METAR EDNY 230420Z 06002KT CAVOK 13/10 Q1020",
      "taf": "TAF EDNY 230200Z 2303/2312 01004KT CAVOK"
    },
    {
      "icao": "EDSB",
      "alert": "OK",
      "vis_m": 9999,
      "fzfg": false,
      "metar_trigger": false,
      "taf_trigger": false,
      "metar": "METAR EDSB 230420Z AUTO 35003KT 320V050 9999 FEW030 16/11 Q1020",
      "taf": "TAF EDSB 222300Z 2300/2324 01005KT CAVOK"
    },
    {
      "icao": "EETN",
      "alert": "OK",
      "vis_m": 9999,
      "fzfg": false,
      "metar_trigger": false,
      "taf_trigger": false,
      "metar": "METAR EETN 230420Z 27006KT CAVOK 14/12 Q1007 TEMPO FEW035CB",
      "taf": "TAF EETN 222330Z 2300/2324 27008KT 9999 FEW015 BKN045"
    },
    {
      "icao": "EFTU",
      "alert": "OK",
      "vis_m": 9999,
      "fzfg": false,
      "metar_trigger": false,
      "taf_trigger": false,
      "metar": "METAR EFTU 230420Z AUTO 30004KT CAVOK 13/12 Q1007",
      "taf": "TAF EFTU 230235Z 2303/2403 28006KT CAVOK"
    },
    {
      "icao": "EGBB",
      "alert": "OK",
      "vis_m": 9999,
      "fzfg": false,
      "metar_trigger": false,
      "taf_trigger": false,
      "metar": "METAR EGBB 230420Z 30005KT CAVOK 15/13 Q1024",
      "taf": "TAF EGBB 222255Z 2300/2324 28005KT 9999 FEW040"
    },
    {
      "icao": "EGGP",
      "alert": "OK",
      "vis_m": 9999,
      "fzfg": false,
      "metar_trigger": false,
      "taf_trigger": false,
      "metar": "METAR EGGP 230420Z 27010KT 9999 OVC011 17/15 Q1024",
      "taf": "TAF EGGP 222255Z 2300/2324 30007KT 9999 FEW014 SCT025"
    },
    {
      "icao": "EGGW",
      "alert": "OK",
      "vis_m": 9999,
      "fzfg": false,
      "metar_trigger": false,
      "taf_trigger": false,
      "metar": "METAR EGGW 230420Z AUTO 24004KT 220V280 9999 NCD 14/12 Q1024",
      "taf": "TAF EGGW 222259Z 2300/2324 VRB04KT 9999 FEW045"
    },
    {
      "icao": "EGKK",
      "alert": "OK",
      "vis_m": 9999,
      "fzfg": false,
      "metar_trigger": false,
      "taf_trigger": false,
      "metar": "METAR EGKK 230420Z 24002KT 9999 MIFG NSC 14/12 Q1024",
      "taf": "TAF EGKK 222256Z 2300/2406 VRB02KT 9999 FEW045"
    },
    {
      "icao": "EGNM",
      "alert": "OK",
      "vis_m": 9999,
      "fzfg": false,
      "metar_trigger": false,
      "taf_trigger": false,
      "metar": "METAR EGNM 230420Z 28009KT CAVOK 14/13 Q1023",
      "taf": "TAF EGNM 222256Z 2300/2324 30007KT 9999 FEW045"
    },
    {
      "icao": "EGPD",
      "alert": "OK",
      "vis_m": 9999,
      "fzfg": false,
      "metar_trigger": false,
      "taf_trigger": false,
      "metar": "METAR EGPD 230420Z AUTO 28006KT 9999 SCT016 BKN022 BKN027 15/13 Q1022",
      "taf": ""
    },
    {
      "icao": "EGPF",
      "alert": "OK",
      "vis_m": 9999,
      "fzfg": false,
      "metar_trigger": false,
      "taf_trigger": false,
      "metar": "METAR EGPF 230420Z AUTO 27007KT 9999 NCD 15/12 Q1025",
      "taf": "TAF EGPF 222301Z 2300/2324 29008KT 9999 FEW030"
    },
    {
      "icao": "EHBK",
      "alert": "OK",
      "vis_m": 9999,
      "fzfg": false,
      "metar_trigger": false,
      "taf_trigger": false,
      "metar": "METAR EHBK 230355Z AUTO 25004KT 220V280 9999 OVC035 15/10 Q1021 NOSIG",
      "taf": "TAF EHBK 222315Z 2300/2406 30004KT 9999 BKN035"
    },
    {
      "icao": "EHEH",
      "alert": "OK",
      "vis_m": 9999,
      "fzfg": false,
      "metar_trigger": false,
      "taf_trigger": false,
      "metar": "METAR EHEH 230355Z AUTO 26003KT 230V290 9999 FEW034 OVC038 15/11 Q1021 BLU",
      "taf": "TAF EHEH 222317Z 2300/2406 29003KT 9999 BKN045"
    },
    {
      "icao": "EKBI",
      "alert": "OK",
      "vis_m": 9999,
      "fzfg": false,
      "metar_trigger": false,
      "taf_trigger": false,
      "metar": "METAR EKBI 230420Z AUTO 28004KT 9999 NCD 09/09 Q1016",
      "taf": "TAF EKBI 230227Z 2303/2403 29006KT 9999 BKN020"
    },
    {
      "icao": "EKCH",
      "alert": "OK",
      "vis_m": 9999,
      "fzfg": false,
      "metar_trigger": false,
      "taf_trigger": false,
      "metar": "METAR EKCH 230420Z AUTO 36008KT 340V040 9999 NCD 16/12 Q1013 TEMPO SCT020CB",
      "taf": "TAF EKCH 230227Z 2303/2403 34008KT 9999 SCT020"
    },
    {
      "icao": "ENAL",
      "alert": "OK",
      "vis_m": 9999,
      "fzfg": false,
      "metar_trigger": false,
      "taf_trigger": false,
      "metar": "METAR ENAL 230420Z 16003G15KT 090V220 CAVOK 08/07 Q1017",
      "taf": "TAF ENAL 230200Z 2303/2312 04006KT 9999 BKN025"
    },
    {
      "icao": "ENBR",
      "alert": "OK",
      "vis_m": 9999,
      "fzfg": false,
      "metar_trigger": false,
      "taf_trigger": false,
      "metar": "METAR ENBR 230420Z 34003KT 9999 BKN005 09/08 Q1017 BECMG SCT005 RMK WIND 1200FT 33013KT",
      "taf": "TAF ENBR 222300Z 2300/2324 33010KT CAVOK"
    },
    {
      "icao": "ENGM",
      "alert": "OK",
      "vis_m": 9999,
      "fzfg": false,
      "metar_trigger": false,
      "taf_trigger": false,
      "metar": "METAR ENGM 230420Z VRB01KT CAVOK 10/04 Q1016 NOSIG",
      "taf": "TAF ENGM 222300Z 2300/2324 01008KT CAVOK"
    },
    {
      "icao": "ENHD",
      "alert": "OK",
      "vis_m": 9999,
      "fzfg": false,
      "metar_trigger": false,
      "taf_trigger": false,
      "metar": "METAR ENHD 230420Z AUTO 35015KT 9999 OVC009/// 12/09 Q1017",
      "taf": "TAF ENHD 230200Z 2303/2312 34015KT 9999 SCT012"
    },
    {
      "icao": "ENTC",
      "alert": "OK",
      "vis_m": 9999,
      "fzfg": false,
      "metar_trigger": false,
      "taf_trigger": false,
      "metar": "METAR ENTC 230420Z 22005KT 9999 FEW015 BKN030 09/05 Q1013 REDZ RMK WIND 2600FT 24006KT",
      "taf": "TAF ENTC 222300Z 2300/2324 24006KT 9999 SCT020 BKN035"
    },
    {
      "icao": "ENTO",
      "alert": "OK",
      "vis_m": 9999,
      "fzfg": false,
      "metar_trigger": false,
      "taf_trigger": false,
      "metar": "METAR ENTO 230420Z 01005KT CAVOK 12/05 Q1016 NOSIG",
      "taf": "TAF ENTO 222300Z 2300/2324 36007KT CAVOK"
    },
    {
      "icao": "ENVA",
      "alert": "OK",
      "vis_m": 9999,
      "fzfg": false,
      "metar_trigger": false,
      "taf_trigger": false,
      "metar": "METAR ENVA 230420Z 12006KT 9999 FEW022 BKN035 10/08 Q1017 NOSIG RMK WIND 670FT 19003KT",
      "taf": "TAF ENVA 222300Z 2300/2324 VRB03KT 9999 BKN035"
    },
    {
      "icao": "ENZV",
      "alert": "OK",
      "vis_m": 9999,
      "fzfg": false,
      "metar_trigger": false,
      "taf_trigger": false,
      "metar": "METAR ENZV 230420Z 34008KT 9999 OVC007 11/10 Q1017 NOSIG",
      "taf": ""
    },
    {
      "icao": "EPGD",
      "alert": "OK",
      "vis_m": 9999,
      "fzfg": false,
      "metar_trigger": false,
      "taf_trigger": false,
      "metar": "METAR EPGD 230400Z 21003KT 9999 FEW009 14/13 Q1007",
      "taf": ""
    },
    {
      "icao": "EPKK",
      "alert": "OK",
      "vis_m": 9999,
      "fzfg": false,
      "metar_trigger": false,
      "taf_trigger": false,
      "metar": "METAR EPKK 230400Z 24005KT 9999 BKN044 15/12 Q1013",
      "taf": "TAF EPKK 230230Z 2303/2403 23006KT 9999 BKN050"
    },
    {
      "icao": "EPKT",
      "alert": "OK",
      "vis_m": 9999,
      "fzfg": false,
      "metar_trigger": false,
      "taf_trigger": false,
      "metar": "METAR EPKT 230400Z 23006KT 9999 FEW034TCU BKN042 14/10 Q1013",
      "taf": "TAF EPKT 222330Z 2300/2324 32005KT 9999 BKN045"
    },
    {
      "icao": "EPLB",
      "alert": "OK",
      "vis_m": 9999,
      "fzfg": false,
      "metar_trigger": false,
      "taf_trigger": false,
      "metar": "METAR EPLB 230400Z 28004KT 9999 -RA NSC 14/13 Q1012",
      "taf": "TAF EPLB 222330Z 2300/2324 26007KT CAVOK"
    },
    {
      "icao": "EPMO",
      "alert": "OK",
      "vis_m": 9999,
      "fzfg": false,
      "metar_trigger": false,
      "taf_trigger": false,
      "metar": "METAR EPMO 230400Z 21007KT 9999 FEW045TCU 15/12 Q1010",
      "taf": "TAF EPMO 222330Z 2300/2324 24007KT CAVOK"
    },
    {
      "icao": "EPPO",
      "alert": "OK",
      "vis_m": 9999,
      "fzfg": false,
      "metar_trigger": false,
      "taf_trigger": false,
      "metar": "METAR EPPO 230400Z 25008KT 9999 -RA OVC010 14/13 Q1010",
      "taf": "TAF EPPO 222330Z 2300/2324 24006KT CAVOK"
    },
    {
      "icao": "EPRA",
      "alert": "OK",
      "vis_m": 9999,
      "fzfg": false,
      "metar_trigger": false,
      "taf_trigger": false,
      "metar": "METAR EPRA 230400Z 24005KT CAVOK 15/11 Q1011",
      "taf": "TAF EPRA 230230Z 2303/2312 25010KT CAVOK"
    },
    {
      "icao": "EPRZ",
      "alert": "OK",
      "vis_m": 9999,
      "fzfg": false,
      "metar_trigger": false,
      "taf_trigger": false,
      "metar": "METAR EPRZ 230400Z 25003KT 9999 -SHRA BKN048CB 14/09 Q1013",
      "taf": "TAF EPRZ 222330Z 2300/2324 24005KT CAVOK"
    },
    {
      "icao": "EPSC",
      "alert": "OK",
      "vis_m": 9999,
      "fzfg": false,
      "metar_trigger": false,
      "taf_trigger": false,
      "metar": "METAR EPSC 230400Z 28010KT 9999 -SHRA FEW002 SCT010CB BKN012 15/15 Q1009",
      "taf": "TAF EPSC 222330Z 2300/2324 25005KT 9999 BKN010"
    },
    {
      "icao": "EPSY",
      "alert": "OK",
      "vis_m": 9999,
      "fzfg": false,
      "metar_trigger": false,
      "taf_trigger": false,
      "metar": "METAR EPSY 230400Z 19004KT 9999 SCT034 13/11 Q1009",
      "taf": "TAF EPSY 230230Z 2303/2312 23006KT 9999 SCT040"
    },
    {
      "icao": "EPWA",
      "alert": "OK",
      "vis_m": 9999,
      "fzfg": false,
      "metar_trigger": false,
      "taf_trigger": false,
      "metar": "METAR EPWA 230400Z 21004KT 9999 FEW033CB 15/12 Q1010 NOSIG",
      "taf": "TAF EPWA 230230Z 2303/2403 24007KT 9999 SCT040"
    },
    {
      "icao": "EPWR",
      "alert": "OK",
      "vis_m": 9999,
      "fzfg": false,
      "metar_trigger": false,
      "taf_trigger": false,
      "metar": "METAR EPWR 230400Z 27009KT 9999 FEW020CB BKN033 15/12 Q1013",
      "taf": "TAF EPWR 230230Z 2303/2403 26008KT 9999 SCT032"
    },
    {
      "icao": "ESGG",
      "alert": "OK",
      "vis_m": 9999,
      "fzfg": false,
      "metar_trigger": false,
      "taf_trigger": false,
      "metar": "METAR ESGG 230420Z 36006KT CAVOK 12/10 Q1013",
      "taf": "TAF ESGG 230230Z 2303/2403 01005KT CAVOK"
    },
    {
      "icao": "ESKN",
      "alert": "OK",
      "vis_m": 9999,
      "fzfg": false,
      "metar_trigger": false,
      "taf_trigger": false,
      "metar": "METAR ESKN 230420Z 33005KT CAVOK 11/11 Q1011",
      "taf": "TAF ESKN 230230Z 2303/2403 34005KT CAVOK"
    },
    {
      "icao": "ESMS",
      "alert": "OK",
      "vis_m": 9999,
      "fzfg": false,
      "metar_trigger": false,
      "taf_trigger": false,
      "metar": "METAR ESMS 230420Z 34004KT CAVOK 12/12 Q1012",
      "taf": "TAF ESMS 230227Z 2303/2403 33008KT CAVOK"
    },
    {
      "icao": "ESSA",
      "alert": "OK",
      "vis_m": 9999,
      "fzfg": false,
      "metar_trigger": false,
      "taf_trigger": false,
      "metar": "METAR ESSA 230420Z 34007KT CAVOK 10/09 Q1010 NOSIG",
      "taf": "TAF ESSA 230230Z 2303/2403 29004KT CAVOK"
    },
    {
      "icao": "EYKA",
      "alert": "OK",
      "vis_m": 9999,
      "fzfg": false,
      "metar_trigger": false,
      "taf_trigger": false,
      "metar": "METAR EYKA 230420Z 08003KT 9999 -RA NSC 14/13 Q1009",
      "taf": "TAF EYKA 222304Z 2300/2324 VRB03KT 5000 BR SCT005"
    },
    {
      "icao": "EYPA",
      "alert": "OK",
      "vis_m": 9999,
      "fzfg": false,
      "metar_trigger": false,
      "taf_trigger": false,
      "metar": "METAR EYPA 230420Z 13007KT 9999 FEW045 14/13 Q1007",
      "taf": "TAF EYPA 222305Z 2300/2324 VRB03KT 8000 SCT010 BKN020"
    },
    {
      "icao": "EYVI",
      "alert": "OK",
      "vis_m": 9999,
      "fzfg": false,
      "metar_trigger": false,
      "taf_trigger": false,
      "metar": "METAR EYVI 230420Z 17003KT 130V190 9999 SCT017 13/13 Q1010 NOSIG",
      "taf": "TAF EYVI 222304Z 2300/2324 VRB03KT 5000 BR SCT002"
    },
    {
      "icao": "GCFV",
      "alert": "OK",
      "vis_m": 9999,
      "fzfg": false,
      "metar_trigger": false,
      "taf_trigger": false,
      "metar": "METAR GCFV 230400Z AUTO 36013KT CAVOK 22/18 Q1017",
      "taf": "TAF GCFV 230200Z 2303/2403 35012KT 9999 SCT020 TX28/2314Z TN22/2306Z"
    },
    {
      "icao": "GCLP",
      "alert": "OK",
      "vis_m": 9999,
      "fzfg": false,
      "metar_trigger": false,
      "taf_trigger": false,
      "metar": "METAR GCLP 230400Z 01025KT 9999 FEW020 23/18 Q1017 NOSIG",
      "taf": "TAF GCLP 230200Z 2303/2403 02020KT 9999 FEW025 TX29/2314Z TN23/2306Z"
    },
    {
      "icao": "GCTS",
      "alert": "OK",
      "vis_m": 9999,
      "fzfg": false,
      "metar_trigger": false,
      "taf_trigger": false,
      "metar": "METAR GCTS 230400Z VRB02KT 9999 FEW025 23/18 Q1018 NOSIG",
      "taf": "TAF GCTS 230200Z 2303/2403 04009KT 9999 FEW025 TX30/2314Z TN22/2306Z"
    },
    {
      "icao": "GMAD",
      "alert": "OK",
      "vis_m": 8000,
      "fzfg": false,
      "metar_trigger": false,
      "taf_trigger": false,
      "metar": "METAR GMAD 230400Z 15003KT 120V190 8000 NSC 21/17 Q1013 NOSIG",
      "taf": "TAF GMAD 222300Z 2300/2406 06008KT 8000 NSC"
    },
    {
      "icao": "GMMN",
      "alert": "OK",
      "vis_m": 9999,
      "fzfg": false,
      "metar_trigger": false,
      "taf_trigger": false,
      "metar": "METAR GMMN 230400Z 02006KT CAVOK 21/19 Q1018 NOSIG",
      "taf": "TAF GMMN 222300Z 2300/2406 04006KT 9999 FEW010"
    },
    {
      "icao": "GMMX",
      "alert": "OK",
      "vis_m": 8000,
      "fzfg": false,
      "metar_trigger": false,
      "taf_trigger": false,
      "metar": "METAR GMMX 230400Z 26004KT 8000 NSC 26/18 Q1017 NOSIG",
      "taf": "TAF GMMX 222300Z 2300/2406 28006KT 8000 NSC"
    },
    {
      "icao": "HEGN",
      "alert": "OK",
      "vis_m": 9999,
      "fzfg": false,
      "metar_trigger": false,
      "taf_trigger": false,
      "metar": "METAR HEGN 230400Z 32015KT CAVOK 32/18 Q1005 NOSIG",
      "taf": ""
    },
    {
      "icao": "HEMA",
      "alert": "OK",
      "vis_m": 9999,
      "fzfg": false,
      "metar_trigger": false,
      "taf_trigger": false,
      "metar": "METAR HEMA 230400Z 30010KT CAVOK 31/04 Q1003 NOSIG",
      "taf": ""
    },
    {
      "icao": "HESH",
      "alert": "OK",
      "vis_m": 9999,
      "fzfg": false,
      "metar_trigger": false,
      "taf_trigger": false,
      "metar": "METAR HESH 230400Z 35010KT CAVOK 32/16 Q1004 NOSIG",
      "taf": ""
    },
    {
      "icao": "HESX",
      "alert": "OK",
      "vis_m": 6000,
      "fzfg": false,
      "metar_trigger": false,
      "taf_trigger": false,
      "metar": "METAR HESX 230400Z 28004KT 6000 NSC 24/21 Q1008 NOSIG",
      "taf": ""
    },
    {
      "icao": "LATI",
      "alert": "OK",
      "vis_m": 9999,
      "fzfg": false,
      "metar_trigger": false,
      "taf_trigger": false,
      "metar": "METAR LATI 230420Z VRB02KT CAVOK 20/16 Q1013 NOSIG",
      "taf": "TAF LATI 222300Z 2300/2324 VRB03KT CAVOK TX33/2312Z TN19/2304Z"
    },
    {
      "icao": "LBPD",
      "alert": "OK",
      "vis_m": 9999,
      "fzfg": false,
      "metar_trigger": false,
      "taf_trigger": false,
      "metar": "METAR LBPD 230400Z AUTO 29008KT 9999 NCD 18/10 Q1013 NOSIG",
      "taf": "TAF LBPD 222300Z 2300/2324 29014KT 9999 SCT050"
    },
    {
      "icao": "LBSF",
      "alert": "OK",
      "vis_m": 9999,
      "fzfg": false,
      "metar_trigger": false,
      "taf_trigger": false,
      "metar": "METAR LBSF 230400Z VRB02KT CAVOK 11/08 Q1016 NOSIG",
      "taf": "TAF LBSF 222300Z 2300/2324 29010KT 9999 SCT050"
    },
    {
      "icao": "LBWN",
      "alert": "OK",
      "vis_m": 9999,
      "fzfg": false,
      "metar_trigger": false,
      "taf_trigger": false,
      "metar": "METAR LBWN 230400Z AUTO 32009KT 290V350 9999 SCT012/// OVC015/// 17/15 Q1011 NOSIG",
      "taf": "TAF LBWN 222300Z 2300/2324 33016KT 9999 SCT010 BKN015"
    },
    {
      "icao": "LCLK",
      "alert": "OK",
      "vis_m": 9999,
      "fzfg": false,
      "metar_trigger": false,
      "taf_trigger": false,
      "metar": "METAR LCLK 230400Z 08005KT CAVOK 29/24 Q1003 NOSIG",
      "taf": "TAF LCLK 222330Z 2300/2400 28006KT 9000 FEW025"
    },
    {
      "icao": "LCPH",
      "alert": "OK",
      "vis_m": 9999,
      "fzfg": false,
      "metar_trigger": false,
      "taf_trigger": false,
      "metar": "METAR LCPH 230400Z AUTO 02005KT 9999 NCD 28/10 Q1003 NOSIG",
      "taf": "TAF LCPH 222330Z 2300/2400 01007KT 9999 FEW020"
    },
    {
      "icao": "LEAL",
      "alert": "OK",
      "vis_m": 9999,
      "fzfg": false,
      "metar_trigger": false,
      "taf_trigger": false,
      "metar": "METAR LEAL 230400Z 25005KT 9999 FEW014 28/27 Q1014 NOSIG",
      "taf": "TAF LEAL 222300Z 2300/2324 VRB04KT 9999 SCT020 TX36/2313Z TN25/2305Z"
    },
    {
      "icao": "LEBB",
      "alert": "OK",
      "vis_m": 9999,
      "fzfg": false,
      "metar_trigger": false,
      "taf_trigger": false,
      "metar": "METAR LEBB 230400Z 09005KT CAVOK 18/16 Q1017 NOSIG",
      "taf": "TAF LEBB 222300Z 2300/2324 VRB03KT CAVOK TX31/2313Z TN18/2305Z"
    },
    {
      "icao": "LEBL",
      "alert": "OK",
      "vis_m": 9999,
      "fzfg": false,
      "metar_trigger": false,
      "taf_trigger": false,
      "metar": "METAR LEBL 230400Z 33006KT CAVOK 24/18 Q1014 NOSIG",
      "taf": "TAF LEBL 222300Z 2300/2324 33007KT 9999 FEW020 TX31/2313Z TN24/2306Z"
    },
    {
      "icao": "LECH",
      "alert": "OK",
      "vis_m": 9000,
      "fzfg": false,
      "metar_trigger": false,
      "taf_trigger": false,
      "metar": "METAR LECH 230400Z AUTO 03004KT 9000 FEW005 22/20 Q1016",
      "taf": "TAF LECH 222300Z 2300/2324 VRB03KT 9999 FEW015 TX36/2314Z TN22/2305Z"
    },
    {
      "icao": "LEMD",
      "alert": "OK",
      "vis_m": 9999,
      "fzfg": false,
      "metar_trigger": false,
      "taf_trigger": false,
      "metar": "METAR LEMD 230400Z 34002KT CAVOK 21/05 Q1018 NOSIG",
      "taf": "TAF LEMD 222300Z 2300/2406 VRB04KT CAVOK TX38/2316Z TN22/2305Z"
    },
    {
      "icao": "LEMG",
      "alert": "OK",
      "vis_m": 9999,
      "fzfg": false,
      "metar_trigger": false,
      "taf_trigger": false,
      "metar": "METAR LEMG 230400Z 30007KT CAVOK 23/13 Q1016 NOSIG",
      "taf": "TAF LEMG 222300Z 2300/2324 29005KT CAVOK TX38/2314Z TN22/2305Z"
    },
    {
      "icao": "LEVC",
      "alert": "OK",
      "vis_m": 9999,
      "fzfg": false,
      "metar_trigger": false,
      "taf_trigger": false,
      "metar": "METAR LEVC 230400Z 29003KT 270V330 CAVOK 24/22 Q1014 NOSIG",
      "taf": "TAF LEVC 222300Z 2300/2324 VRB03KT 9999 FEW020 TX37/2313Z TN24/2305Z"
    },
    {
      "icao": "LEXJ",
      "alert": "OK",
      "vis_m": 9999,
      "fzfg": false,
      "metar_trigger": false,
      "taf_trigger": false,
      "metar": "METAR LEXJ 230400Z VRB02KT CAVOK 18/16 Q1017",
      "taf": "TAF LEXJ 230200Z 2303/2403 VRB03KT CAVOK TX29/2312Z TN17/2305Z"
    },
    {
      "icao": "LEZG",
      "alert": "OK",
      "vis_m": 9999,
      "fzfg": false,
      "metar_trigger": false,
      "taf_trigger": false,
      "metar": "METAR LEZG 230400Z 23003KT CAVOK 23/16 Q1016 NOSIG",
      "taf": "TAF LEZG 222300Z 2300/2324 10009KT CAVOK TX42/2315Z TN24/2305Z"
    },
    {
      "icao": "LEZL",
      "alert": "OK",
      "vis_m": 9999,
      "fzfg": false,
      "metar_trigger": false,
      "taf_trigger": false,
      "metar": "METAR LEZL 230400Z VRB01KT CAVOK 23/15 Q1016 NOSIG",
      "taf": "TAF LEZL 230200Z 2303/2403 VRB02KT CAVOK TX40/2315Z TN23/2305Z"
    },
    {
      "icao": "LFBD",
      "alert": "OK",
      "vis_m": 9999,
      "fzfg": false,
      "metar_trigger": false,
      "taf_trigger": false,
      "metar": "METAR LFBD 230400Z AUTO 04006KT CAVOK 20/09 Q1017 NOSIG",
      "taf": "TAF LFBD 222300Z 2300/2406 03010KT CAVOK TX36/2315Z TN20/2306Z"
    },
    {
      "icao": "LFLL",
      "alert": "OK",
      "vis_m": 9999,
      "fzfg": false,
      "metar_trigger": false,
      "taf_trigger": false,
      "metar": "METAR LFLL 230400Z 34007KT CAVOK 16/10 Q1019 NOSIG",
      "taf": "TAF LFLL 222300Z 2300/2406 36005KT CAVOK"
    },
    {
      "icao": "LFLS",
      "alert": "OK",
      "vis_m": 9999,
      "fzfg": false,
      "metar_trigger": false,
      "taf_trigger": false,
      "metar": "METAR LFLS 230400Z AUTO 14003KT CAVOK 11/08 Q1019 NOSIG",
      "taf": "TAF LFLS 230200Z 2303/2403 VRB03KT CAVOK"
    },
    {
      "icao": "LFMN",
      "alert": "OK",
      "vis_m": 9999,
      "fzfg": false,
      "metar_trigger": false,
      "taf_trigger": false,
      "metar": "METAR LFMN 230400Z 33009KT 9999 FEW020 SCT300 24/13 Q1013 NOSIG",
      "taf": "TAF LFMN 230200Z 2303/2409 33005KT CAVOK"
    },
    {
      "icao": "LFOB",
      "alert": "OK",
      "vis_m": 9999,
      "fzfg": false,
      "metar_trigger": false,
      "taf_trigger": false,
      "metar": "METAR LFOB 230400Z AUTO 30005KT CAVOK 11/10 Q1023 NOSIG",
      "taf": "TAF LFOB 222300Z 2300/2324 03008KT CAVOK"
    },
    {
      "icao": "LFPO",
      "alert": "OK",
      "vis_m": 9999,
      "fzfg": false,
      "metar_trigger": false,
      "taf_trigger": false,
      "metar": "METAR LFPO 230400Z AUTO 04007KT CAVOK 16/11 Q1023 NOSIG",
      "taf": "TAF LFPO 222300Z 2300/2406 04008KT CAVOK"
    },
    {
      "icao": "LFSB",
      "alert": "OK",
      "vis_m": 9999,
      "fzfg": false,
      "metar_trigger": false,
      "taf_trigger": false,
      "metar": "METAR LFSB 230400Z AUTO 31008KT CAVOK 14/10 Q1020 NOSIG",
      "taf": "TAF LFSB 222300Z 2300/2324 35008KT CAVOK"
    },
    {
      "icao": "LGAV",
      "alert": "OK",
      "vis_m": 9999,
      "fzfg": false,
      "metar_trigger": false,
      "taf_trigger": false,
      "metar": "METAR LGAV 230420Z 03009KT 9999 FEW025 25/17 Q1011 NOSIG",
      "taf": "TAF LGAV 222300Z 2300/2324 03012KT 9999 FEW025"
    },
    {
      "icao": "LGTS",
      "alert": "OK",
      "vis_m": 9999,
      "fzfg": false,
      "metar_trigger": false,
      "taf_trigger": false,
      "metar": "METAR LGTS 230420Z 34008KT 9999 FEW030 23/10 Q1013 NOSIG",
      "taf": "TAF LGTS 222300Z 2300/2324 34015KT 9999 FEW030"
    },
    {
      "icao": "LHBP",
      "alert": "OK",
      "vis_m": 9999,
      "fzfg": false,
      "metar_trigger": false,
      "taf_trigger": false,
      "metar": "METAR LHBP 230400Z 13002KT CAVOK 11/06 Q1014 NOSIG",
      "taf": "TAF LHBP 222315Z 2300/2324 VRB03KT CAVOK"
    },
    {
      "icao": "LHDC",
      "alert": "OK",
      "vis_m": 9999,
      "fzfg": false,
      "metar_trigger": false,
      "taf_trigger": false,
      "metar": "METAR LHDC 230345Z AUTO 11004KT 080V170 CAVOK 15/06 Q1014 NOSIG",
      "taf": "TAF LHDC 230215Z 2303/2312 VRB03KT CAVOK"
    },
    {
      "icao": "LIBD",
      "alert": "OK",
      "vis_m": 9999,
      "fzfg": false,
      "metar_trigger": false,
      "taf_trigger": false,
      "metar": "METAR LIBD 230420Z 27006KT CAVOK 23/16 Q1014",
      "taf": "TAF LIBD 222300Z 2300/2324 28008KT 9999 FEW030"
    },
    {
      "icao": "LIBG",
      "alert": "OK",
      "vis_m": 9999,
      "fzfg": false,
      "metar_trigger": false,
      "taf_trigger": false,
      "metar": "METAR LIBG 230420Z AUTO VRB02KT 9999 BKN075/// 24/17 Q1013",
      "taf": "TAF LIBG 222300Z 2300/2324 VRB05KT 9999 FEW040"
    },
    {
      "icao": "LIBP",
      "alert": "OK",
      "vis_m": 9999,
      "fzfg": false,
      "metar_trigger": false,
      "taf_trigger": false,
      "metar": "METAR LIBP 230420Z AUTO 25005KT 9999 NCD 18/14 Q1016",
      "taf": "TAF LIBP 222300Z 2300/2324 24005KT 9999 FEW050"
    },
    {
      "icao": "LIBR",
      "alert": "OK",
      "vis_m": 9999,
      "fzfg": false,
      "metar_trigger": false,
      "taf_trigger": false,
      "metar": "METAR LIBR 230420Z 34012KT CAVOK 26/19 Q1013",
      "taf": "TAF LIBR 222300Z 2300/2324 35013KT 9999 FEW040"
    },
    {
      "icao": "LICA",
      "alert": "OK",
      "vis_m": 9999,
      "fzfg": false,
      "metar_trigger": false,
      "taf_trigger": false,
      "metar": "METAR LICA 230420Z AUTO 06004KT 9999 SCT023/// 25/21 Q1013",
      "taf": "TAF LICA 222300Z 2300/2324 08010KT 9999 SCT020"
    },
    {
      "icao": "LICC",
      "alert": "OK",
      "vis_m": 9999,
      "fzfg": false,
      "metar_trigger": false,
      "taf_trigger": false,
      "metar": "METAR LICC 230420Z 26003KT 9999 SCT015 26/21 Q1014",
      "taf": "TAF LICC 222300Z 2300/2324 VRB05KT 9999 FEW020"
    },
    {
      "icao": "LICJ",
      "alert": "OK",
      "vis_m": 9999,
      "fzfg": false,
      "metar_trigger": false,
      "taf_trigger": false,
      "metar": "METAR LICJ 230420Z 17003KT CAVOK 26/24 Q1013",
      "taf": "TAF LICJ 222300Z 2300/2324 VRB05KT CAVOK"
    },
    {
      "icao": "LIMC",
      "alert": "OK",
      "vis_m": 9999,
      "fzfg": false,
      "metar_trigger": false,
      "taf_trigger": false,
      "metar": "METAR LIMC 230420Z 02004KT CAVOK 19/15 Q1015 NOSIG",
      "taf": "TAF LIMC 222300Z 2300/2406 VRB05KT CAVOK"
    },
    {
      "icao": "LIME",
      "alert": "OK",
      "vis_m": 9999,
      "fzfg": false,
      "metar_trigger": false,
      "taf_trigger": false,
      "metar": "METAR LIME 230420Z 36005KT CAVOK 20/15 Q1015 NOSIG",
      "taf": "TAF LIME 222300Z 2300/2324 VRB05KT 9999 FEW060"
    },
    {
      "icao": "LIMF",
      "alert": "OK",
      "vis_m": 9999,
      "fzfg": false,
      "metar_trigger": false,
      "taf_trigger": false,
      "metar": "METAR LIMF 230420Z VRB01KT CAVOK 19/15 Q1016",
      "taf": "TAF LIMF 222300Z 2300/2324 VRB05KT CAVOK"
    },
    {
      "icao": "LIMJ",
      "alert": "OK",
      "vis_m": 9999,
      "fzfg": false,
      "metar_trigger": false,
      "taf_trigger": false,
      "metar": "METAR LIMJ 230420Z 05010KT CAVOK 25/12 Q1013",
      "taf": "TAF LIMJ 222300Z 2300/2324 04007KT CAVOK"
    },
    {
      "icao": "LIPE",
      "alert": "OK",
      "vis_m": 9999,
      "fzfg": false,
      "metar_trigger": false,
      "taf_trigger": false,
      "metar": "METAR LIPE 230420Z 19005KT CAVOK 19/14 Q1014",
      "taf": "TAF LIPE 222300Z 2300/2324 VRB05KT 9999 FEW040"
    },
    {
      "icao": "LIPH",
      "alert": "OK",
      "vis_m": 9999,
      "fzfg": false,
      "metar_trigger": false,
      "taf_trigger": false,
      "metar": "METAR LIPH 230420Z AUTO 05003KT 010V080 9999 BKN064/// 20/15 Q1014",
      "taf": "TAF LIPH 222300Z 2300/2324 VRB05KT 9999 FEW040"
    },
    {
      "icao": "LIPQ",
      "alert": "OK",
      "vis_m": 9999,
      "fzfg": false,
      "metar_trigger": false,
      "taf_trigger": false,
      "metar": "METAR LIPQ 230420Z AUTO 06003KT 030V100 9999 OVC076/// 18/14 Q1015",
      "taf": "TAF LIPQ 222300Z 2300/2324 03005KT 9999 FEW040"
    },
    {
      "icao": "LIPR",
      "alert": "OK",
      "vis_m": 9999,
      "fzfg": false,
      "metar_trigger": false,
      "taf_trigger": false,
      "metar": "METAR LIPR 230420Z AUTO 18001KT 9999 NCD 17/14 Q1014",
      "taf": "TAF LIPR 222300Z 2300/2324 21005KT 9999 SCT040"
    },
    {
      "icao": "LIPX",
      "alert": "OK",
      "vis_m": 9999,
      "fzfg": false,
      "metar_trigger": false,
      "taf_trigger": false,
      "metar": "METAR LIPX 230420Z AUTO 36005KT 9999 NCD 18/13 Q1014",
      "taf": "TAF LIPX 222300Z 2300/2324 VRB05KT CAVOK"
    },
    {
      "icao": "LIPY",
      "alert": "OK",
      "vis_m": 9999,
      "fzfg": false,
      "metar_trigger": false,
      "taf_trigger": false,
      "metar": "METAR LIPY 230420Z AUTO 19003KT 9999 NCD 17/15 Q1015",
      "taf": "TAF LIPY 222300Z 2300/2324 19005KT 9999 FEW040"
    },
    {
      "icao": "LIPZ",
      "alert": "OK",
      "vis_m": 9999,
      "fzfg": false,
      "metar_trigger": false,
      "taf_trigger": false,
      "metar": "METAR LIPZ 230420Z 01004KT 9999 SCT070 20/14 Q1015 NOSIG",
      "taf": "TAF LIPZ 222300Z 2300/2406 VRB05KT 9999 FEW040"
    },
    {
      "icao": "LIRF",
      "alert": "OK",
      "vis_m": 9999,
      "fzfg": false,
      "metar_trigger": false,
      "taf_trigger": false,
      "metar": "METAR LIRF 230420Z 04004KT CAVOK 21/15 Q1013 NOSIG",
      "taf": "TAF LIRF 222300Z 2300/2406 05006KT 9999 FEW030"
    },
    {
      "icao": "LIRN",
      "alert": "OK",
      "vis_m": 9999,
      "fzfg": false,
      "metar_trigger": false,
      "taf_trigger": false,
      "metar": "METAR LIRN 230420Z 01005KT 9999 FEW040 25/14 Q1014 NOSIG",
      "taf": "TAF LIRN 222300Z 2300/2324 04006KT 9999 FEW030"
    },
    {
      "icao": "LIRP",
      "alert": "OK",
      "vis_m": 9999,
      "fzfg": false,
      "metar_trigger": false,
      "taf_trigger": false,
      "metar": "METAR LIRP 230415Z VRB03KT CAVOK 19/15 Q1013 NOSIG",
      "taf": "TAF LIRP 222300Z 2300/2324 12005KT CAVOK"
    },
    {
      "icao": "LIRZ",
      "alert": "OK",
      "vis_m": 9999,
      "fzfg": false,
      "metar_trigger": false,
      "taf_trigger": false,
      "metar": "METAR LIRZ 230420Z AUTO 34007KT 9999 NCD 17/10 Q1015",
      "taf": "TAF LIRZ 222300Z 2300/2324 VRB05KT 9999 SCT040"
    },
    {
      "icao": "LJLJ",
      "alert": "OK",
      "vis_m": 9999,
      "fzfg": false,
      "metar_trigger": false,
      "taf_trigger": false,
      "metar": "METAR LJLJ 230400Z 32002KT 9999 FEW070 SCT120 BKN200 12/11 Q1017 NOSIG",
      "taf": "TAF LJLJ 222300Z 2300/2400 12006KT 9999 FEW090"
    },
    {
      "icao": "LKMT",
      "alert": "OK",
      "vis_m": 9999,
      "fzfg": false,
      "metar_trigger": false,
      "taf_trigger": false,
      "metar": "METAR LKMT 230400Z 23004KT CAVOK 12/11 Q1014 NOSIG",
      "taf": "TAF LKMT 222300Z 2300/2324 23005KT CAVOK"
    },
    {
      "icao": "LKPR",
      "alert": "OK",
      "vis_m": 9999,
      "fzfg": false,
      "metar_trigger": false,
      "taf_trigger": false,
      "metar": "METAR LKPR 230400Z 25005KT 9999 SCT028 13/10 Q1016 TEMPO -SHRA SCT019",
      "taf": "TAF LKPR 230200Z 2303/2409 29008KT CAVOK"
    },
    {
      "icao": "LLBG",
      "alert": "OK",
      "vis_m": 9999,
      "fzfg": false,
      "metar_trigger": false,
      "taf_trigger": false,
      "metar": "METAR LLBG 230420Z 15009KT 9999 FEW015 27/22 Q1006 NOSIG",
      "taf": "TAF LLBG 222310Z 2300/2324 17006KT 9999 SCT017 TX34/2311Z TN25/2303Z"
    },
    {
      "icao": "LMML",
      "alert": "OK",
      "vis_m": 8000,
      "fzfg": false,
      "metar_trigger": false,
      "taf_trigger": false,
      "metar": "METAR LMML 230415Z 06006KT 8000 SCT006 27/26 Q1014 NOSIG",
      "taf": "TAF LMML 222300Z 2300/2324 08006KT CAVOK"
    },
    {
      "icao": "LOWW",
      "alert": "OK",
      "vis_m": 9999,
      "fzfg": false,
      "metar_trigger": false,
      "taf_trigger": false,
      "metar": "METAR LOWW 230420Z 33006KT 300V360 9999 -SHRA FEW024 FEW040TCU 17/12 Q1016 RESHRA TEMPO SHRA",
      "taf": "TAF LOWW 230215Z 2303/2409 24005KT 9999 FEW050 TX24/2314Z TN13/2403Z"
    },
    {
      "icao": "LPFR",
      "alert": "OK",
      "vis_m": 9999,
      "fzfg": false,
      "metar_trigger": false,
      "taf_trigger": false,
      "metar": "METAR LPFR 230400Z 33004KT 290V020 CAVOK 22/15 Q1016",
      "taf": "TAF LPFR 222300Z 2300/2324 31010KT CAVOK"
    },
    {
      "icao": "LPMA",
      "alert": "OK",
      "vis_m": 9999,
      "fzfg": false,
      "metar_trigger": false,
      "taf_trigger": false,
      "metar": "METAR LPMA 230400Z 36013KT 9999 FEW016 22/16 Q1022",
      "taf": "TAF LPMA 222300Z 2300/2324 02012KT 9999 SCT015"
    },
    {
      "icao": "LPPR",
      "alert": "OK",
      "vis_m": 9999,
      "fzfg": false,
      "metar_trigger": false,
      "taf_trigger": false,
      "metar": "METAR LPPR 230400Z 12006KT 9999 FEW032 18/16 Q1018",
      "taf": "TAF LPPR 222300Z 2300/2324 VRB02KT 9999 SCT012"
    },
    {
      "icao": "LPPS",
      "alert": "OK",
      "vis_m": 9999,
      "fzfg": false,
      "metar_trigger": false,
      "taf_trigger": false,
      "metar": "METAR LPPS 230400Z 01007KT 9999 FEW015 21/17 Q1022",
      "taf": "TAF LPPS 222300Z 2300/2406 01012KT 9999 SCT015"
    },
    {
      "icao": "LPPT",
      "alert": "OK",
      "vis_m": 9999,
      "fzfg": false,
      "metar_trigger": false,
      "taf_trigger": false,
      "metar": "METAR LPPT 230400Z VRB02KT 9999 FEW010 19/17 Q1019 NOSIG",
      "taf": "TAF LPPT 222300Z 2300/2406 30010KT 9999 FEW020"
    },
    {
      "icao": "LQBK",
      "alert": "OK",
      "vis_m": 9999,
      "fzfg": false,
      "metar_trigger": false,
      "taf_trigger": false,
      "metar": "METAR LQBK 230400Z VRB01KT CAVOK 10/08 Q1016 NOSIG",
      "taf": "TAF LQBK 222300Z 2300/2324 16005KT CAVOK TX27/2314Z TN11/2303Z"
    },
    {
      "icao": "LQSA",
      "alert": "OK",
      "vis_m": 9999,
      "fzfg": false,
      "metar_trigger": false,
      "taf_trigger": false,
      "metar": "METAR LQSA 230400Z VRB02KT CAVOK 09/09 Q1018 NOSIG",
      "taf": "TAF LQSA 222300Z 2300/2324 VRB02KT CAVOK TX25/2313Z TN10/2304Z"
    },
    {
      "icao": "LQTZ",
      "alert": "OK",
      "vis_m": 9999,
      "fzfg": false,
      "metar_trigger": false,
      "taf_trigger": false,
      "metar": "METAR LQTZ 230400Z 00000KT CAVOK 08/08 Q1017",
      "taf": "TAF LQTZ 222300Z 2300/2324 VRB02KT CAVOK TX26/2314Z TN08/2303Z"
    },
    {
      "icao": "LRBC",
      "alert": "OK",
      "vis_m": 9999,
      "fzfg": false,
      "metar_trigger": false,
      "taf_trigger": false,
      "metar": "METAR LRBC 230400Z 24003KT CAVOK 14/13 Q1014",
      "taf": "TAF LRBC 230200Z 2303/2312 VRB04KT CAVOK"
    },
    {
      "icao": "LRBS",
      "alert": "OK",
      "vis_m": 7000,
      "fzfg": false,
      "metar_trigger": false,
      "taf_trigger": false,
      "metar": "METAR LRBS 230400Z 28004KT 7000 SCT005 BKN042 17/17 Q1013 NOSIG",
      "taf": "TAF LRBS 222300Z 2300/2324 VRB04KT CAVOK"
    },
    {
      "icao": "LRBV",
      "alert": "OK",
      "vis_m": 9999,
      "fzfg": false,
      "metar_trigger": false,
      "taf_trigger": false,
      "metar": "METAR LRBV 230400Z VRB02KT 9999 FEW021 SCT038 BKN048 14/13 Q1015",
      "taf": "TAF LRBV 230200Z 2303/2312 VRB04KT 9999 BKN035"
    },
    {
      "icao": "LRCL",
      "alert": "OK",
      "vis_m": 500,
      "fzfg": false,
      "metar_trigger": false,
      "taf_trigger": false,
      "metar": "METAR LRCL 230400Z 00000KT 0500 R25/0400N FG NSC 09/08 Q1015",
      "taf": "TAF LRCL 230200Z 2303/2312 VRB04KT 3000 BR NSC"
    },
    {
      "icao": "LRCV",
      "alert": "OK",
      "vis_m": 9999,
      "fzfg": false,
      "metar_trigger": false,
      "taf_trigger": false,
      "metar": "METAR LRCV 230400Z 05003KT 340V130 CAVOK 15/15 Q1014",
      "taf": "TAF LRCV 230200Z 2303/2312 VRB04KT 3000 BR NSC"
    },
    {
      "icao": "LRIA",
      "alert": "OK",
      "vis_m": 9999,
      "fzfg": false,
      "metar_trigger": false,
      "taf_trigger": false,
      "metar": "METAR LRIA 230400Z 26003KT 220V310 CAVOK 13/11 Q1013",
      "taf": "TAF LRIA 230200Z 2303/2312 VRB04KT CAVOK"
    },
    {
      "icao": "LROP",
      "alert": "OK",
      "vis_m": 9999,
      "fzfg": false,
      "metar_trigger": false,
      "taf_trigger": false,
      "metar": "METAR LROP 230400Z 28005KT CAVOK 17/17 Q1013 NOSIG",
      "taf": "TAF LROP 222300Z 2300/2324 VRB04KT CAVOK"
    },
    {
      "icao": "LRSB",
      "alert": "OK",
      "vis_m": 9999,
      "fzfg": false,
      "metar_trigger": false,
      "taf_trigger": false,
      "metar": "METAR LRSB 230400Z VRB01KT 9999 1800NE BCFG NSC 12/10 Q1015",
      "taf": "TAF LRSB 222300Z 2300/2324 VRB04KT 9999 SCT060"
    },
    {
      "icao": "LRSM",
      "alert": "OK",
      "vis_m": 9999,
      "fzfg": false,
      "metar_trigger": false,
      "taf_trigger": false,
      "metar": "METAR LRSM 230400Z AUTO 00000KT 9999 SCT090/// 13/08 Q1014",
      "taf": ""
    },
    {
      "icao": "LRSV",
      "alert": "OK",
      "vis_m": 9999,
      "fzfg": false,
      "metar_trigger": false,
      "taf_trigger": false,
      "metar": "METAR LRSV 230400Z 30007KT CAVOK 15/07 Q1014",
      "taf": "TAF LRSV 230200Z 2303/2312 29008KT CAVOK"
    },
    {
      "icao": "LRTM",
      "alert": "OK",
      "vis_m": 250,
      "fzfg": false,
      "metar_trigger": false,
      "taf_trigger": false,
      "metar": "METAR LRTM 230400Z VRB02KT 0250 R07/0450N FG VV001 12/12 Q1015",
      "taf": "TAF LRTM 230200Z 2303/2312 VRB04KT 0300 FG VV001"
    },
    {
      "icao": "LRTR",
      "alert": "OK",
      "vis_m": 9999,
      "fzfg": false,
      "metar_trigger": false,
      "taf_trigger": false,
      "metar": "METAR LRTR 230400Z 11007KT CAVOK 13/13 Q1014",
      "taf": "TAF LRTR 222300Z 2300/2324 VRB04KT CAVOK"
    },
    {
      "icao": "LTAC",
      "alert": "OK",
      "vis_m": 9999,
      "fzfg": false,
      "metar_trigger": false,
      "taf_trigger": false,
      "metar": "METAR LTAC 230420Z 30004KT 9999 SCT030TCU BKN080 18/10 Q1012 NOSIG",
      "taf": "TAF LTAC 222240Z 2300/2324 VRB02KT CAVOK"
    },
    {
      "icao": "LTFM",
      "alert": "OK",
      "vis_m": 9999,
      "fzfg": false,
      "metar_trigger": false,
      "taf_trigger": false,
      "metar": "METAR LTFM 230420Z 34014KT 9999 SCT025 21/15 Q1011 NOSIG",
      "taf": "TAF LTFM 222240Z 2300/2406 32016KT 9999 SCT025 BKN100"
    },
    {
      "icao": "LUKK",
      "alert": "OK",
      "vis_m": 9999,
      "fzfg": false,
      "metar_trigger": false,
      "taf_trigger": false,
      "metar": "METAR LUKK 230400Z 35007KT CAVOK 16/14 Q1012 NOSIG",
      "taf": "TAF LUKK 222308Z 2300/2324 VRB05KT 9999 SCT045"
    },
    {
      "icao": "LWOH",
      "alert": "OK",
      "vis_m": null,
      "fzfg": false,
      "metar_trigger": false,
      "taf_trigger": false,
      "metar": "",
      "taf": "TAF LWOH 230303Z 2303/2403 30008KT CAVOK"
    },
    {
      "icao": "LWSK",
      "alert": "OK",
      "vis_m": 9999,
      "fzfg": false,
      "metar_trigger": false,
      "taf_trigger": false,
      "metar": "METAR LWSK 230420Z VRB02KT CAVOK 14/11 Q1016 NOSIG",
      "taf": "TAF LWSK 230303Z 2303/2403 VRB02KT CAVOK"
    },
    {
      "icao": "LYBE",
      "alert": "OK",
      "vis_m": 9999,
      "fzfg": false,
      "metar_trigger": false,
      "taf_trigger": false,
      "metar": "METAR LYBE 230400Z 23005KT CAVOK 15/10 Q1015 NOSIG",
      "taf": "TAF LYBE 222300Z 2300/2324 24005KT CAVOK TX28/2314Z TN13/2303Z"
    },
    {
      "icao": "LYNI",
      "alert": "OK",
      "vis_m": 9999,
      "fzfg": false,
      "metar_trigger": false,
      "taf_trigger": false,
      "metar": "METAR LYNI 230400Z 11003KT CAVOK 12/11 Q1016 NOSIG",
      "taf": "TAF LYNI 222300Z 2300/2324 09004KT CAVOK TX27/2314Z TN12/2303Z"
    },
    {
      "icao": "LYPG",
      "alert": "OK",
      "vis_m": 9999,
      "fzfg": false,
      "metar_trigger": false,
      "taf_trigger": false,
      "metar": "METAR LYPG 230400Z 33007KT CAVOK 20/09 Q1014 NOSIG",
      "taf": "TAF LYPG 222300Z 2300/2324 35012KT CAVOK TX32/2313Z TN22/2303Z"
    },
    {
      "icao": "LZIB",
      "alert": "OK",
      "vis_m": 9999,
      "fzfg": false,
      "metar_trigger": false,
      "taf_trigger": false,
      "metar": "METAR LZIB 230400Z VRB02KT CAVOK 18/08 Q1014 NOSIG",
      "taf": "TAF LZIB 222315Z 2300/2400 VRB02KT CAVOK"
    },
    {
      "icao": "LZKZ",
      "alert": "OK",
      "vis_m": 9999,
      "fzfg": false,
      "metar_trigger": false,
      "taf_trigger": false,
      "metar": "METAR LZKZ 230400Z 25002KT CAVOK 12/10 Q1014 NOSIG",
      "taf": "TAF LZKZ 222315Z 2300/2400 VRB02KT CAVOK"
    },
    {
      "icao": "LZTT",
      "alert": "OK",
      "vis_m": 9999,
      "fzfg": false,
      "metar_trigger": false,
      "taf_trigger": false,
      "metar": "METAR LZTT 230400Z 03004KT 9999 SCT063 10/08 Q1015",
      "taf": "TAF LZTT 222315Z 2300/2400 VRB02KT 9999 FEW040"
    },
    {
      "icao": "OEJN",
      "alert": "OK",
      "vis_m": 9999,
      "fzfg": false,
      "metar_trigger": false,
      "taf_trigger": false,
      "metar": "METAR OEJN 230400Z VRB01KT CAVOK 31/26 Q1004 NOSIG",
      "taf": "TAF OEJN 222300Z 2300/2406 VRB03KT CAVOK"
    },
    {
      "icao": "OEMA",
      "alert": "OK",
      "vis_m": 9999,
      "fzfg": false,
      "metar_trigger": false,
      "taf_trigger": false,
      "metar": "METAR OEMA 230400Z 28007KT CAVOK 35/00 Q1008 NOSIG",
      "taf": "TAF OEMA 222300Z 2300/2406 24006KT CAVOK"
    },
    {
      "icao": "OJAI",
      "alert": "OK",
      "vis_m": 5000,
      "fzfg": false,
      "metar_trigger": false,
      "taf_trigger": false,
      "metar": "METAR OJAI 230400Z 28006KT 5000 HZ NSC 23/09 Q1011 NOSIG",
      "taf": "TAF OJAI 222300Z 2300/2406 29010KT 5000 HZ NSC"
    },
    {
      "icao": "OMAA",
      "alert": "OK",
      "vis_m": 9999,
      "fzfg": false,
      "metar_trigger": false,
      "taf_trigger": false,
      "metar": "METAR OMAA 230400Z 11003KT CAVOK 32/17 Q0996 NOSIG",
      "taf": "TAF OMAA 222300Z 2300/2406 19005KT 8000 NSC"
    },
    {
      "icao": "OMDB",
      "alert": "OK",
      "vis_m": 9999,
      "fzfg": false,
      "metar_trigger": false,
      "taf_trigger": false,
      "metar": "METAR OMDB 230400Z 19010KT CAVOK 34/17 Q0996 NOSIG",
      "taf": "TAF OMDB 222300Z 2300/2406 17006KT 8000 NSC"
    },
    {
      "icao": "UAAA",
      "alert": "OK",
      "vis_m": 9999,
      "fzfg": false,
      "metar_trigger": false,
      "taf_trigger": false,
      "metar": "METAR UAAA 230400Z 35003MPS 320V020 9999 BKN050CB OVC100 23/17 Q1008 NOSIG",
      "taf": "TAF UAAA 222300Z 2300/2324 26005MPS 9999 SCT050CB BKN100 TX31/2309Z TN19/2300Z"
    },
    {
      "icao": "UBBB",
      "alert": "OK",
      "vis_m": 9999,
      "fzfg": false,
      "metar_trigger": false,
      "taf_trigger": false,
      "metar": "METAR UBBB 230400Z 17006KT CAVOK 29/16 Q1008 NOSIG",
      "taf": "TAF UBBB 222300Z 2300/2324 16005KT CAVOK TX33/2310Z TN22/2301Z"
    },
    {
      "icao": "UDSG",
      "alert": "OK",
      "vis_m": 9999,
      "fzfg": false,
      "metar_trigger": false,
      "taf_trigger": false,
      "metar": "METAR UDSG 230400Z VRB02KT 9999 FEW049 19/13 Q1015 NOSIG",
      "taf": "TAF UDSG 222258Z 2300/2324 06006KT 9999 FEW050"
    },
    {
      "icao": "UDYZ",
      "alert": "OK",
      "vis_m": 9999,
      "fzfg": false,
      "metar_trigger": false,
      "taf_trigger": false,
      "metar": "METAR UDYZ 230400Z 11002KT 9999 NSC 26/14 Q1010 NOSIG",
      "taf": "TAF UDYZ 222300Z 2300/2324 14006KT 9999 FEW040"
    },
    {
      "icao": "UGKO",
      "alert": "OK",
      "vis_m": 9999,
      "fzfg": false,
      "metar_trigger": false,
      "taf_trigger": false,
      "metar": "METAR UGKO 230400Z 10003KT 060V130 CAVOK 23/20 Q1005 NOSIG",
      "taf": "TAF UGKO 222300Z 2300/2324 26007KT 9999 SCT023 BKN050 TX30/2311Z TN20/2302Z"
    }
  ]
}