{
  "ts_utc": "2026-05-27T06:22:33Z",
  "threshold_m": 150,
  "source": "stations_override.txt (ICAO list) + aviationweather.gov (METAR/TAF raw)",
  "station_count": 159,
  "stations": [
    {
      "icao": "BIKF",
      "alert": "OK",
      "vis_m": 9999,
      "fzfg": false,
      "metar_trigger": false,
      "taf_trigger": false,
      "metar": "METAR BIKF 270600Z 22020KT 9999 BKN028 07/03 Q1020",
      "taf": "TAF BIKF 270413Z 2706/2806 24015KT 9999 SCT020 BKN043 TX09/2716Z TN04/2804Z"
    },
    {
      "icao": "BKPR",
      "alert": "OK",
      "vis_m": 9999,
      "fzfg": false,
      "metar_trigger": false,
      "taf_trigger": false,
      "metar": "METAR BKPR 270600Z 06003KT 030V120 CAVOK 18/14 Q1023 NOSIG",
      "taf": "TAF BKPR 270530Z 2706/2806 02007KT 9999 FEW050"
    },
    {
      "icao": "EBCI",
      "alert": "OK",
      "vis_m": 9999,
      "fzfg": false,
      "metar_trigger": false,
      "taf_trigger": false,
      "metar": "METAR EBCI 270550Z 06005KT 020V090 CAVOK 19/13 Q1025 NOSIG",
      "taf": "TAF EBCI 270510Z 2706/2812 06008KT CAVOK"
    },
    {
      "icao": "EDDB",
      "alert": "OK",
      "vis_m": 9999,
      "fzfg": false,
      "metar_trigger": false,
      "taf_trigger": false,
      "metar": "METAR EDDB 270550Z AUTO 33012KT 300V010 CAVOK 18/09 Q1022 NOSIG",
      "taf": "TAF EDDB 270500Z 2706/2806 35012KT CAVOK"
    },
    {
      "icao": "EDDH",
      "alert": "OK",
      "vis_m": 9999,
      "fzfg": false,
      "metar_trigger": false,
      "taf_trigger": false,
      "metar": "METAR EDDH 270550Z AUTO 33011KT 290V010 CAVOK 13/07 Q1025 NOSIG",
      "taf": "TAF EDDH 270500Z 2706/2812 32008KT CAVOK"
    },
    {
      "icao": "EDDK",
      "alert": "OK",
      "vis_m": 9999,
      "fzfg": false,
      "metar_trigger": false,
      "taf_trigger": false,
      "metar": "METAR EDDK 270550Z AUTO 00000KT CAVOK 19/15 Q1024 NOSIG",
      "taf": "TAF EDDK 270500Z 2706/2812 VRB02KT CAVOK"
    },
    {
      "icao": "EDDN",
      "alert": "OK",
      "vis_m": 9999,
      "fzfg": false,
      "metar_trigger": false,
      "taf_trigger": false,
      "metar": "METAR EDDN 270550Z AUTO VRB01KT CAVOK 21/13 Q1022 NOSIG",
      "taf": "TAF EDDN 270500Z 2706/2806 VRB02KT CAVOK"
    },
    {
      "icao": "EDDS",
      "alert": "OK",
      "vis_m": 9999,
      "fzfg": false,
      "metar_trigger": false,
      "taf_trigger": false,
      "metar": "METAR EDDS 270550Z AUTO VRB02KT CAVOK 19/16 Q1023 NOSIG",
      "taf": "TAF EDDS 270500Z 2706/2806 VRB03KT CAVOK"
    },
    {
      "icao": "EDFH",
      "alert": "OK",
      "vis_m": 9999,
      "fzfg": false,
      "metar_trigger": false,
      "taf_trigger": false,
      "metar": "METAR EDFH 270550Z 03003KT 360V080 CAVOK 22/14 Q1025",
      "taf": "TAF EDFH 270500Z 2706/2806 VRB03KT CAVOK"
    },
    {
      "icao": "EDJA",
      "alert": "OK",
      "vis_m": 9999,
      "fzfg": false,
      "metar_trigger": false,
      "taf_trigger": false,
      "metar": "METAR EDJA 270550Z 22005KT CAVOK 19/13 Q1024",
      "taf": "TAF EDJA 270500Z 2706/2715 VRB02KT CAVOK"
    },
    {
      "icao": "EDLW",
      "alert": "OK",
      "vis_m": 9999,
      "fzfg": false,
      "metar_trigger": false,
      "taf_trigger": false,
      "metar": "METAR EDLW 270550Z COR 03006KT 360V060 CAVOK 17/12 Q1026",
      "taf": "TAF EDLW 270500Z 2706/2806 VRB03KT CAVOK"
    },
    {
      "icao": "EDNY",
      "alert": "OK",
      "vis_m": 9999,
      "fzfg": false,
      "metar_trigger": false,
      "taf_trigger": false,
      "metar": "METAR EDNY 270550Z VRB01KT CAVOK 19/15 Q1024",
      "taf": "TAF EDNY 270500Z 2706/2715 VRB02KT CAVOK"
    },
    {
      "icao": "EDSB",
      "alert": "OK",
      "vis_m": 9999,
      "fzfg": false,
      "metar_trigger": false,
      "taf_trigger": false,
      "metar": "METAR EDSB 270550Z 21003KT CAVOK 20/16 Q1023",
      "taf": "TAF EDSB 270500Z 2706/2806 VRB03KT CAVOK"
    },
    {
      "icao": "EETN",
      "alert": "OK",
      "vis_m": 9999,
      "fzfg": false,
      "metar_trigger": false,
      "taf_trigger": false,
      "metar": "METAR EETN 270620Z 30015KT 9999 FEW013 BKN046 10/07 Q1003 NOSIG",
      "taf": "TAF EETN 270530Z 2706/2806 31017G27KT 9999 BKN040"
    },
    {
      "icao": "EFTU",
      "alert": "OK",
      "vis_m": 9999,
      "fzfg": false,
      "metar_trigger": false,
      "taf_trigger": false,
      "metar": "METAR EFTU 270620Z AUTO 32011KT 290V360 9999 SCT018 10/05 Q1006",
      "taf": "TAF EFTU 270533Z 2706/2806 32009KT 9999 -SHRA SCT017 BKN049"
    },
    {
      "icao": "EGBB",
      "alert": "OK",
      "vis_m": 9999,
      "fzfg": false,
      "metar_trigger": false,
      "taf_trigger": false,
      "metar": "METAR EGBB 270550Z 05009KT CAVOK 14/11 Q1027",
      "taf": "TAF EGBB 270454Z 2706/2806 04009KT CAVOK"
    },
    {
      "icao": "EGGP",
      "alert": "OK",
      "vis_m": 9999,
      "fzfg": false,
      "metar_trigger": false,
      "taf_trigger": false,
      "metar": "METAR EGGP 270550Z 09009KT CAVOK 15/11 Q1027",
      "taf": "TAF EGGP 270459Z 2706/2806 09009KT CAVOK"
    },
    {
      "icao": "EGGW",
      "alert": "OK",
      "vis_m": 9999,
      "fzfg": false,
      "metar_trigger": false,
      "taf_trigger": false,
      "metar": "METAR EGGW 270550Z AUTO 05009KT 020V090 9999 NCD 15/13 Q1026",
      "taf": "TAF EGGW 270458Z 2706/2806 06007KT CAVOK"
    },
    {
      "icao": "EGKK",
      "alert": "OK",
      "vis_m": 9999,
      "fzfg": false,
      "metar_trigger": false,
      "taf_trigger": false,
      "metar": "METAR EGKK 270550Z 08004KT CAVOK 17/13 Q1025",
      "taf": "TAF EGKK 270457Z 2706/2812 06008KT CAVOK"
    },
    {
      "icao": "EGNM",
      "alert": "OK",
      "vis_m": 9999,
      "fzfg": false,
      "metar_trigger": false,
      "taf_trigger": false,
      "metar": "METAR EGNM 270550Z 07004KT 030V100 9999 SCT035 11/09 Q1029",
      "taf": "TAF EGNM 270454Z 2706/2806 07007KT 9999 SCT035"
    },
    {
      "icao": "EGPD",
      "alert": "OK",
      "vis_m": 9999,
      "fzfg": false,
      "metar_trigger": false,
      "taf_trigger": false,
      "metar": "METAR EGPD 270550Z COR AUTO 11003KT 9999 OVC030 11/07 Q1031 NOSIG",
      "taf": "TAF EGPD 270453Z 2706/2806 09005KT 9999 BKN030"
    },
    {
      "icao": "EGPF",
      "alert": "OK",
      "vis_m": 9999,
      "fzfg": false,
      "metar_trigger": false,
      "taf_trigger": false,
      "metar": "METAR EGPF 270550Z AUTO 06009KT 9999 OVC036 13/08 Q1030",
      "taf": "TAF EGPF 270457Z 2706/2806 06012KT 9999 BKN030"
    },
    {
      "icao": "EHBK",
      "alert": "OK",
      "vis_m": 9999,
      "fzfg": false,
      "metar_trigger": false,
      "taf_trigger": false,
      "metar": "METAR EHBK 270555Z AUTO 04007KT 010V070 9999 NCD 19/15 Q1025 NOSIG",
      "taf": "TAF EHBK 270447Z 2706/2812 03007KT CAVOK"
    },
    {
      "icao": "EHEH",
      "alert": "OK",
      "vis_m": 9999,
      "fzfg": false,
      "metar_trigger": false,
      "taf_trigger": false,
      "metar": "METAR EHEH 270555Z AUTO 05007KT 020V100 9999 ////// 18/12 Q1025 BLU NOSIG",
      "taf": "TAF EHEH 270520Z 2706/2812 03010KT CAVOK"
    },
    {
      "icao": "EKBI",
      "alert": "OK",
      "vis_m": 9999,
      "fzfg": false,
      "metar_trigger": false,
      "taf_trigger": false,
      "metar": "METAR EKBI 270550Z AUTO 31012KT 9999 NCD 11/07 Q1025",
      "taf": "TAF EKBI 270527Z 2706/2806 31012KT CAVOK"
    },
    {
      "icao": "EKCH",
      "alert": "OK",
      "vis_m": 9999,
      "fzfg": false,
      "metar_trigger": false,
      "taf_trigger": false,
      "metar": "METAR EKCH 270550Z AUTO 32013KT 290V350 9999 NCD 14/07 Q1021 NOSIG",
      "taf": "TAF EKCH 270527Z 2706/2806 33015KT CAVOK"
    },
    {
      "icao": "ENAL",
      "alert": "OK",
      "vis_m": 9999,
      "fzfg": false,
      "metar_trigger": false,
      "taf_trigger": false,
      "metar": "METAR ENAL 270550Z 27006KT 240V300 9999 VCSH FEW015 SCT025 BKN049 09/06 Q1025",
      "taf": "TAF ENAL 270500Z 2706/2715 28008KT 9999 FEW015 BKN030"
    },
    {
      "icao": "ENBR",
      "alert": "OK",
      "vis_m": 9999,
      "fzfg": false,
      "metar_trigger": false,
      "taf_trigger": false,
      "metar": "METAR ENBR 270550Z 31008KT 9999 BKN015 OVC049 09/06 Q1027 NOSIG RMK WIND 1200FT 32014KT",
      "taf": "TAF ENBR 270500Z 2706/2806 31008KT 9999 FEW015 BKN045"
    },
    {
      "icao": "ENGM",
      "alert": "OK",
      "vis_m": 9999,
      "fzfg": false,
      "metar_trigger": false,
      "taf_trigger": false,
      "metar": "METAR ENGM 270550Z 31005KT 250V010 CAVOK 11/M02 Q1020 NOSIG",
      "taf": "TAF ENGM 270500Z 2706/2806 30008KT CAVOK"
    },
    {
      "icao": "ENHD",
      "alert": "OK",
      "vis_m": 9999,
      "fzfg": false,
      "metar_trigger": false,
      "taf_trigger": false,
      "metar": "METAR ENHD 270550Z AUTO 32010KT 280V340 9999 FEW009/// OVC044/// 10/08 Q1028",
      "taf": "TAF ENHD 270500Z 2706/2715 32010KT 9999 BKN045"
    },
    {
      "icao": "ENTC",
      "alert": "OK",
      "vis_m": 9999,
      "fzfg": false,
      "metar_trigger": false,
      "taf_trigger": false,
      "metar": "METAR ENTC 270550Z 26009KT 9999 FEW012 SCT035 BKN048TCU 09/06 Q1010 NOSIG RMK WIND 2600FT 29007KT",
      "taf": "TAF ENTC 270500Z 2706/2806 35005KT 9999 BKN045"
    },
    {
      "icao": "ENTO",
      "alert": "OK",
      "vis_m": 9999,
      "fzfg": false,
      "metar_trigger": false,
      "taf_trigger": false,
      "metar": "METAR ENTO 270550Z 34009KT 300V010 CAVOK 12/00 Q1022 NOSIG",
      "taf": "TAF ENTO 270500Z 2706/2806 30008KT CAVOK"
    },
    {
      "icao": "ENVA",
      "alert": "OK",
      "vis_m": 9999,
      "fzfg": false,
      "metar_trigger": false,
      "taf_trigger": false,
      "metar": "METAR ENVA 270550Z 27025KT 9999 -SHRA FEW015 SCT018CB BKN026 07/06 Q1020 NOSIG RMK WIND 670FT 28028KT",
      "taf": "TAF ENVA 270500Z 2706/2806 26025KT 9999 -SHRA SCT020 BKN030"
    },
    {
      "icao": "ENZV",
      "alert": "OK",
      "vis_m": 9999,
      "fzfg": false,
      "metar_trigger": false,
      "taf_trigger": false,
      "metar": "METAR ENZV 270550Z 33011KT 9999 FEW014 SCT033 10/07 Q1028 NOSIG",
      "taf": "TAF ENZV 270500Z 2706/2806 34009KT 9999 FEW014 SCT035"
    },
    {
      "icao": "EPGD",
      "alert": "OK",
      "vis_m": 9999,
      "fzfg": false,
      "metar_trigger": false,
      "taf_trigger": false,
      "metar": "METAR EPGD 270600Z 30018KT 9999 FEW022 14/08 Q1016",
      "taf": "TAF EPGD 270530Z 2706/2806 31015KT CAVOK"
    },
    {
      "icao": "EPKK",
      "alert": "OK",
      "vis_m": 9999,
      "fzfg": false,
      "metar_trigger": false,
      "taf_trigger": false,
      "metar": "METAR EPKK 270600Z 26010KT CAVOK 22/12 Q1017",
      "taf": "TAF EPKK 270530Z 2706/2806 25010KT CAVOK"
    },
    {
      "icao": "EPKT",
      "alert": "OK",
      "vis_m": 9999,
      "fzfg": false,
      "metar_trigger": false,
      "taf_trigger": false,
      "metar": "METAR EPKT 270600Z 28010KT CAVOK 21/12 Q1018",
      "taf": "TAF EPKT 270530Z 2706/2806 26010KT CAVOK"
    },
    {
      "icao": "EPLB",
      "alert": "OK",
      "vis_m": 9999,
      "fzfg": false,
      "metar_trigger": false,
      "taf_trigger": false,
      "metar": "METAR EPLB 270600Z 30014KT 260V330 9999 FEW036 SCT048 21/13 Q1013",
      "taf": "TAF EPLB 270530Z 2706/2806 31015KT CAVOK"
    },
    {
      "icao": "EPMO",
      "alert": "OK",
      "vis_m": 9999,
      "fzfg": false,
      "metar_trigger": false,
      "taf_trigger": false,
      "metar": "METAR EPMO 270600Z 29015KT 9999 FEW033 17/09 Q1014",
      "taf": "TAF EPMO 270530Z 2706/2806 31015KT CAVOK"
    },
    {
      "icao": "EPPO",
      "alert": "OK",
      "vis_m": 9999,
      "fzfg": false,
      "metar_trigger": false,
      "taf_trigger": false,
      "metar": "METAR EPPO 270600Z 32014KT CAVOK 18/08 Q1019",
      "taf": "TAF EPPO 270530Z 2706/2806 30012KT CAVOK"
    },
    {
      "icao": "EPRA",
      "alert": "OK",
      "vis_m": 9999,
      "fzfg": false,
      "metar_trigger": false,
      "taf_trigger": false,
      "metar": "METAR EPRA 270600Z 31012KT 280V340 9999 SCT041 19/12 Q1015",
      "taf": "TAF EPRA 270530Z 2706/2715 30012KT 9999 SCT040"
    },
    {
      "icao": "EPRZ",
      "alert": "OK",
      "vis_m": 9999,
      "fzfg": false,
      "metar_trigger": false,
      "taf_trigger": false,
      "metar": "METAR EPRZ 270600Z 26016KT CAVOK 23/12 Q1015",
      "taf": "TAF EPRZ 270530Z 2706/2806 30016KT CAVOK"
    },
    {
      "icao": "EPSC",
      "alert": "OK",
      "vis_m": 9999,
      "fzfg": false,
      "metar_trigger": false,
      "taf_trigger": false,
      "metar": "METAR EPSC 270600Z 30013KT CAVOK 15/08 Q1020",
      "taf": "TAF EPSC 270530Z 2706/2806 31012KT CAVOK"
    },
    {
      "icao": "EPSY",
      "alert": "OK",
      "vis_m": 9999,
      "fzfg": false,
      "metar_trigger": false,
      "taf_trigger": false,
      "metar": "METAR EPSY 270600Z 32014KT 290V350 9999 FEW032 15/07 Q1014",
      "taf": "TAF EPSY 270530Z 2706/2715 33012KT 9999 SCT030"
    },
    {
      "icao": "EPWA",
      "alert": "OK",
      "vis_m": 9999,
      "fzfg": false,
      "metar_trigger": false,
      "taf_trigger": false,
      "metar": "METAR EPWA 270600Z 29016KT 9999 FEW030 18/10 Q1014 NOSIG",
      "taf": "TAF EPWA 270530Z 2706/2806 30015KT CAVOK"
    },
    {
      "icao": "EPWR",
      "alert": "OK",
      "vis_m": 9999,
      "fzfg": false,
      "metar_trigger": false,
      "taf_trigger": false,
      "metar": "METAR EPWR 270600Z 30013KT CAVOK 21/13 Q1019",
      "taf": "TAF EPWR 270530Z 2706/2806 30012KT CAVOK"
    },
    {
      "icao": "ESGG",
      "alert": "OK",
      "vis_m": 9999,
      "fzfg": false,
      "metar_trigger": false,
      "taf_trigger": false,
      "metar": "METAR ESGG 270550Z 36010KT CAVOK 12/02 Q1021",
      "taf": "TAF ESGG 270530Z 2706/2806 32009KT CAVOK"
    },
    {
      "icao": "ESKN",
      "alert": "OK",
      "vis_m": 9999,
      "fzfg": false,
      "metar_trigger": false,
      "taf_trigger": false,
      "metar": "METAR ESKN 270550Z 32015G25KT CAVOK 12/01 Q1015",
      "taf": "TAF ESKN 270530Z 2706/2806 32013KT CAVOK"
    },
    {
      "icao": "ESMS",
      "alert": "OK",
      "vis_m": 9999,
      "fzfg": false,
      "metar_trigger": false,
      "taf_trigger": false,
      "metar": "METAR ESMS 270550Z 32017KT CAVOK 13/07 Q1020",
      "taf": "TAF ESMS 270527Z 2706/2806 32015KT CAVOK"
    },
    {
      "icao": "ESSA",
      "alert": "OK",
      "vis_m": 9999,
      "fzfg": false,
      "metar_trigger": false,
      "taf_trigger": false,
      "metar": "METAR ESSA 270550Z 31017KT CAVOK 10/02 Q1013 NOSIG",
      "taf": "TAF ESSA 270530Z 2706/2806 31015KT CAVOK"
    },
    {
      "icao": "EYKA",
      "alert": "OK",
      "vis_m": 9999,
      "fzfg": false,
      "metar_trigger": false,
      "taf_trigger": false,
      "metar": "METAR EYKA 270620Z VRB07KT 9999 FEW025 13/07 Q1010",
      "taf": "TAF EYKA 270500Z 2706/2806 30010KT 9000 SCT045"
    },
    {
      "icao": "EYPA",
      "alert": "OK",
      "vis_m": 9999,
      "fzfg": false,
      "metar_trigger": false,
      "taf_trigger": false,
      "metar": "METAR EYPA 270620Z 34008KT 290V020 CAVOK 13/08 Q1012",
      "taf": "TAF EYPA 270500Z 2706/2806 32010KT 9000 NSC"
    },
    {
      "icao": "EYVI",
      "alert": "OK",
      "vis_m": 9999,
      "fzfg": false,
      "metar_trigger": false,
      "taf_trigger": false,
      "metar": "METAR EYVI 270620Z 31012KT 9999 FEW026 12/06 Q1008 NOSIG",
      "taf": "TAF EYVI 270500Z 2706/2806 32014KT 9000 SCT030"
    },
    {
      "icao": "GCFV",
      "alert": "OK",
      "vis_m": 9999,
      "fzfg": false,
      "metar_trigger": false,
      "taf_trigger": false,
      "metar": "METAR GCFV 270600Z COR 04010KT 9999 FEW020 20/18 Q1018",
      "taf": "TAF GCFV 270200Z 2703/2803 VRB05KT 9999 FEW005 TX34/2714Z TN21/2706Z"
    },
    {
      "icao": "GCLP",
      "alert": "OK",
      "vis_m": 9999,
      "fzfg": false,
      "metar_trigger": false,
      "taf_trigger": false,
      "metar": "METAR GCLP 270600Z 01025KT 9999 FEW015 19/17 Q1018 NOSIG",
      "taf": "TAF GCLP 270200Z 2703/2803 01018KT 9999 FEW015 TX30/2714Z TN19/2706Z"
    },
    {
      "icao": "GCTS",
      "alert": "OK",
      "vis_m": 9999,
      "fzfg": false,
      "metar_trigger": false,
      "taf_trigger": false,
      "metar": "METAR GCTS 270600Z 01005KT 340V060 9999 SCT012 19/17 Q1019 NOSIG",
      "taf": "TAF GCTS 270200Z 2703/2803 06007KT CAVOK TX30/2714Z TN22/2706Z"
    },
    {
      "icao": "GMAD",
      "alert": "OK",
      "vis_m": 5000,
      "fzfg": false,
      "metar_trigger": false,
      "taf_trigger": false,
      "metar": "METAR GMAD 270600Z 07004KT 5000 FEW004 SCT100 18/17 Q1017 NOSIG",
      "taf": "TAF GMAD 270500Z 2706/2812 06008KT 8000 SCT016"
    },
    {
      "icao": "GMMN",
      "alert": "OK",
      "vis_m": 9999,
      "fzfg": false,
      "metar_trigger": false,
      "taf_trigger": false,
      "metar": "METAR GMMN 270600Z 21005KT CAVOK 18/12 Q1016 NOSIG",
      "taf": ""
    },
    {
      "icao": "GMMX",
      "alert": "OK",
      "vis_m": 9999,
      "fzfg": false,
      "metar_trigger": false,
      "taf_trigger": false,
      "metar": "METAR GMMX 270600Z 11003KT 060V140 CAVOK 23/07 Q1018 NOSIG",
      "taf": "TAF GMMX 262300Z 2700/2806 24006KT 8000 NSC"
    },
    {
      "icao": "HEGN",
      "alert": "OK",
      "vis_m": 9999,
      "fzfg": false,
      "metar_trigger": false,
      "taf_trigger": false,
      "metar": "METAR HEGN 270500Z 32009KT CAVOK 24/12 Q1012 NOSIG",
      "taf": "TAF HEGN 270500Z 2706/2812 33010G22KT CAVOK"
    },
    {
      "icao": "HEMA",
      "alert": "OK",
      "vis_m": 9999,
      "fzfg": false,
      "metar_trigger": false,
      "taf_trigger": false,
      "metar": "METAR HEMA 270500Z 32008KT CAVOK 26/10 Q1011 NOSIG",
      "taf": "TAF HEMA 270506Z 2706/2812 33010G22KT CAVOK"
    },
    {
      "icao": "HESH",
      "alert": "OK",
      "vis_m": 9999,
      "fzfg": false,
      "metar_trigger": false,
      "taf_trigger": false,
      "metar": "METAR HESH 270500Z 34010KT CAVOK 26/17 Q1010 NOSIG",
      "taf": "TAF HESH 270500Z 2706/2812 34016KT CAVOK"
    },
    {
      "icao": "HESX",
      "alert": "OK",
      "vis_m": 9999,
      "fzfg": false,
      "metar_trigger": false,
      "taf_trigger": false,
      "metar": "METAR HESX 270500Z 01005KT CAVOK 17/14 Q1016 NOSIG",
      "taf": "TAF HESX 270506Z 2706/2812 36005KT CAVOK"
    },
    {
      "icao": "LATI",
      "alert": "OK",
      "vis_m": 9999,
      "fzfg": false,
      "metar_trigger": false,
      "taf_trigger": false,
      "metar": "METAR LATI 270620Z VRB02KT CAVOK 24/13 Q1018 NOSIG",
      "taf": "TAF LATI 270500Z 2706/2806 VRB04KT CAVOK TX33/2712Z TN16/2804Z"
    },
    {
      "icao": "LBPD",
      "alert": "OK",
      "vis_m": 9999,
      "fzfg": false,
      "metar_trigger": false,
      "taf_trigger": false,
      "metar": "METAR LBPD 270600Z AUTO 32004KT 280V020 9999 NCD 21/15 Q1019 NOSIG",
      "taf": "TAF LBPD 270500Z 2706/2806 VRB03KT 9999 SCT070"
    },
    {
      "icao": "LBSF",
      "alert": "OK",
      "vis_m": 9999,
      "fzfg": false,
      "metar_trigger": false,
      "taf_trigger": false,
      "metar": "METAR LBSF 270600Z VRB01KT CAVOK 18/12 Q1022 NOSIG",
      "taf": "TAF LBSF 270500Z 2706/2806 VRB03KT 9999 SCT060"
    },
    {
      "icao": "LBWN",
      "alert": "OK",
      "vis_m": 9999,
      "fzfg": false,
      "metar_trigger": false,
      "taf_trigger": false,
      "metar": "METAR LBWN 270600Z 25004KT CAVOK 23/16 Q1018 NOSIG",
      "taf": "TAF LBWN 270500Z 2706/2806 VRB04KT CAVOK"
    },
    {
      "icao": "LCLK",
      "alert": "OK",
      "vis_m": 9999,
      "fzfg": false,
      "metar_trigger": false,
      "taf_trigger": false,
      "metar": "METAR LCLK 270600Z 15005KT 060V210 CAVOK 27/16 Q1013 NOSIG",
      "taf": "TAF LCLK 270530Z 2706/2806 18005KT 9999 FEW030"
    },
    {
      "icao": "LCPH",
      "alert": "OK",
      "vis_m": 9999,
      "fzfg": false,
      "metar_trigger": false,
      "taf_trigger": false,
      "metar": "METAR LCPH 270600Z 28006KT 250V320 CAVOK 23/17 Q1014 NOSIG",
      "taf": "TAF LCPH 270530Z 2706/2806 25007KT 9999 FEW030"
    },
    {
      "icao": "LEAL",
      "alert": "OK",
      "vis_m": 9999,
      "fzfg": false,
      "metar_trigger": false,
      "taf_trigger": false,
      "metar": "METAR LEAL 270600Z 00000KT CAVOK 20/11 Q1023 NOSIG",
      "taf": "TAF LEAL 270500Z 2706/2806 VRB04KT CAVOK TX28/2712Z TN15/2706Z"
    },
    {
      "icao": "LEBB",
      "alert": "OK",
      "vis_m": 9999,
      "fzfg": false,
      "metar_trigger": false,
      "taf_trigger": false,
      "metar": "METAR LEBB 270600Z 08003KT 030V130 CAVOK 18/15 Q1021 NOSIG",
      "taf": "TAF LEBB 270500Z 2706/2806 15006KT CAVOK TX37/2713Z TN17/2706Z"
    },
    {
      "icao": "LEBL",
      "alert": "OK",
      "vis_m": 9999,
      "fzfg": false,
      "metar_trigger": false,
      "taf_trigger": false,
      "metar": "METAR LEBL 270600Z 32006KT CAVOK 20/13 Q1023 NOSIG",
      "taf": "TAF LEBL 270500Z 2706/2806 23006KT CAVOK TX27/2712Z TN19/2706Z"
    },
    {
      "icao": "LECH",
      "alert": "OK",
      "vis_m": 9999,
      "fzfg": false,
      "metar_trigger": false,
      "taf_trigger": false,
      "metar": "METAR LECH 270600Z AUTO 19003KT CAVOK 15/08 Q1024",
      "taf": "TAF LECH 270500Z 2706/2806 VRB04KT CAVOK TX30/2713Z TN16/2706Z"
    },
    {
      "icao": "LEMD",
      "alert": "OK",
      "vis_m": 9999,
      "fzfg": false,
      "metar_trigger": false,
      "taf_trigger": false,
      "metar": "METAR LEMD 270600Z 35003KT 320V020 CAVOK 15/08 Q1026 NOSIG",
      "taf": "TAF LEMD 270500Z 2706/2812 VRB04KT CAVOK TX35/2716Z TN14/2706Z"
    },
    {
      "icao": "LEMG",
      "alert": "OK",
      "vis_m": 9999,
      "fzfg": false,
      "metar_trigger": false,
      "taf_trigger": false,
      "metar": "METAR LEMG 270600Z 28008KT CAVOK 17/10 Q1022 NOSIG",
      "taf": "TAF LEMG 270500Z 2706/2806 29005KT CAVOK TX28/2714Z TN17/2706Z"
    },
    {
      "icao": "LEVC",
      "alert": "OK",
      "vis_m": 9999,
      "fzfg": false,
      "metar_trigger": false,
      "taf_trigger": false,
      "metar": "METAR LEVC 270600Z 29003KT 260V320 CAVOK 17/09 Q1023 NOSIG",
      "taf": "TAF LEVC 270500Z 2706/2806 VRB04KT CAVOK TX31/2712Z TN15/2706Z"
    },
    {
      "icao": "LEXJ",
      "alert": "OK",
      "vis_m": 8000,
      "fzfg": false,
      "metar_trigger": false,
      "taf_trigger": false,
      "metar": "METAR LEXJ 270600Z 00000KT 8000 NSC 17/15 Q1021",
      "taf": ""
    },
    {
      "icao": "LEZG",
      "alert": "OK",
      "vis_m": 9999,
      "fzfg": false,
      "metar_trigger": false,
      "taf_trigger": false,
      "metar": "METAR LEZG 270600Z VRB02KT CAVOK 17/08 Q1024 NOSIG",
      "taf": "TAF LEZG 270500Z 2706/2806 VRB04KT CAVOK TX36/2715Z TN17/2706Z"
    },
    {
      "icao": "LEZL",
      "alert": "OK",
      "vis_m": 9999,
      "fzfg": false,
      "metar_trigger": false,
      "taf_trigger": false,
      "metar": "METAR LEZL 270600Z 07006KT CAVOK 21/10 Q1020 NOSIG",
      "taf": "TAF LEZL 270200Z 2703/2803 06010KT CAVOK TX36/2715Z TN20/2706Z"
    },
    {
      "icao": "LFBD",
      "alert": "OK",
      "vis_m": 9999,
      "fzfg": false,
      "metar_trigger": false,
      "taf_trigger": false,
      "metar": "METAR LFBD 270600Z AUTO 15005KT CAVOK 22/12 Q1021 NOSIG",
      "taf": "TAF LFBD 270500Z 2706/2812 16005KT CAVOK TX38/2812Z TN21/2805Z"
    },
    {
      "icao": "LFLL",
      "alert": "OK",
      "vis_m": 9999,
      "fzfg": false,
      "metar_trigger": false,
      "taf_trigger": false,
      "metar": "METAR LFLL 270600Z 00000KT CAVOK 22/16 Q1023 NOSIG",
      "taf": "TAF LFLL 270500Z 2706/2812 VRB02KT CAVOK"
    },
    {
      "icao": "LFLS",
      "alert": "OK",
      "vis_m": 9999,
      "fzfg": false,
      "metar_trigger": false,
      "taf_trigger": false,
      "metar": "METAR LFLS 270600Z AUTO 10006KT CAVOK 21/16 Q1024 NOSIG",
      "taf": "TAF LFLS 270200Z 2703/2803 09005KT CAVOK"
    },
    {
      "icao": "LFMN",
      "alert": "OK",
      "vis_m": 9999,
      "fzfg": false,
      "metar_trigger": false,
      "taf_trigger": false,
      "metar": "METAR LFMN 270530Z VRB02KT CAVOK 24/14 Q1021 NOSIG",
      "taf": "TAF LFMN 270200Z 2703/2809 VRB05KT CAVOK"
    },
    {
      "icao": "LFOB",
      "alert": "OK",
      "vis_m": 9999,
      "fzfg": false,
      "metar_trigger": false,
      "taf_trigger": false,
      "metar": "METAR LFOB 270600Z AUTO 31003KT CAVOK 17/16 Q1024 NOSIG",
      "taf": "TAF LFOB 270500Z 2706/2806 VRB03KT CAVOK"
    },
    {
      "icao": "LFPO",
      "alert": "OK",
      "vis_m": 9999,
      "fzfg": false,
      "metar_trigger": false,
      "taf_trigger": false,
      "metar": "METAR LFPO 270600Z 33003KT 300V020 CAVOK 23/16 Q1024 NOSIG",
      "taf": "TAF LFPO 270500Z 2706/2812 36003KT CAVOK"
    },
    {
      "icao": "LFSB",
      "alert": "OK",
      "vis_m": 9999,
      "fzfg": false,
      "metar_trigger": false,
      "taf_trigger": false,
      "metar": "METAR LFSB 270600Z AUTO 17005KT CAVOK 21/15 Q1023 NOSIG",
      "taf": "TAF LFSB 270500Z 2706/2806 VRB03KT CAVOK"
    },
    {
      "icao": "LGAV",
      "alert": "OK",
      "vis_m": 9999,
      "fzfg": false,
      "metar_trigger": false,
      "taf_trigger": false,
      "metar": "METAR LGAV 270550Z 04013KT CAVOK 26/09 Q1017 NOSIG",
      "taf": "TAF LGAV 270500Z 2706/2806 VRB05KT 9999 FEW025"
    },
    {
      "icao": "LGTS",
      "alert": "OK",
      "vis_m": 9999,
      "fzfg": false,
      "metar_trigger": false,
      "taf_trigger": false,
      "metar": "METAR LGTS 270550Z 30004KT 9999 FEW020 23/16 Q1019 NOSIG",
      "taf": "TAF LGTS 270500Z 2706/2806 VRB03KT 9999 FEW025"
    },
    {
      "icao": "LHBP",
      "alert": "OK",
      "vis_m": 9999,
      "fzfg": false,
      "metar_trigger": false,
      "taf_trigger": false,
      "metar": "METAR LHBP 270600Z 26004KT 200V290 CAVOK 23/12 Q1020 NOSIG",
      "taf": "TAF LHBP 270515Z 2706/2806 24005KT CAVOK"
    },
    {
      "icao": "LHDC",
      "alert": "OK",
      "vis_m": 9999,
      "fzfg": false,
      "metar_trigger": false,
      "taf_trigger": false,
      "metar": "METAR LHDC 270545Z AUTO VRB02KT CAVOK 23/10 Q1019 NOSIG",
      "taf": "TAF LHDC 270515Z 2706/2715 VRB02KT CAVOK"
    },
    {
      "icao": "LIBD",
      "alert": "OK",
      "vis_m": 9999,
      "fzfg": false,
      "metar_trigger": false,
      "taf_trigger": false,
      "metar": "METAR LIBD 270550Z 30004KT 260V360 CAVOK 26/14 Q1019",
      "taf": "TAF LIBD 270500Z 2706/2806 27009KT CAVOK"
    },
    {
      "icao": "LIBG",
      "alert": "OK",
      "vis_m": 9999,
      "fzfg": false,
      "metar_trigger": false,
      "taf_trigger": false,
      "metar": "METAR LIBG 270550Z AUTO 23003KT 200V290 9999 NCD 24/14 Q1018",
      "taf": "TAF LIBG 270500Z 2706/2806 VRB05KT CAVOK"
    },
    {
      "icao": "LIBP",
      "alert": "OK",
      "vis_m": 9999,
      "fzfg": false,
      "metar_trigger": false,
      "taf_trigger": false,
      "metar": "METAR LIBP 270550Z AUTO 24005KT 9999 NCD 23/15 Q1020",
      "taf": "TAF LIBP 270500Z 2706/2806 VRB05KT CAVOK"
    },
    {
      "icao": "LIBR",
      "alert": "OK",
      "vis_m": 9999,
      "fzfg": false,
      "metar_trigger": false,
      "taf_trigger": false,
      "metar": "METAR LIBR 270550Z 33012KT CAVOK 23/16 Q1018",
      "taf": "TAF LIBR 270500Z 2706/2806 33015KT CAVOK"
    },
    {
      "icao": "LICA",
      "alert": "OK",
      "vis_m": 9999,
      "fzfg": false,
      "metar_trigger": false,
      "taf_trigger": false,
      "metar": "METAR LICA 270550Z AUTO VRB01KT 9999 NCD 20/18 Q1021",
      "taf": "TAF LICA 270500Z 2706/2806 VRB05KT 9999 FEW010"
    },
    {
      "icao": "LICC",
      "alert": "OK",
      "vis_m": 9999,
      "fzfg": false,
      "metar_trigger": false,
      "taf_trigger": false,
      "metar": "METAR LICC 270550Z 25005KT CAVOK 20/14 Q1020",
      "taf": "TAF LICC 270500Z 2706/2806 26006KT CAVOK"
    },
    {
      "icao": "LICJ",
      "alert": "OK",
      "vis_m": 8000,
      "fzfg": false,
      "metar_trigger": false,
      "taf_trigger": false,
      "metar": "METAR LICJ 270550Z VRB01KT 8000 FEW007 21/19 Q1021",
      "taf": "TAF LICJ 270500Z 2706/2806 VRB05KT 9999 FEW010"
    },
    {
      "icao": "LIMC",
      "alert": "OK",
      "vis_m": 9999,
      "fzfg": false,
      "metar_trigger": false,
      "taf_trigger": false,
      "metar": "METAR LIMC 270550Z 03005KT CAVOK 24/17 Q1021 NOSIG",
      "taf": "TAF LIMC 270500Z 2706/2812 VRB05KT CAVOK"
    },
    {
      "icao": "LIME",
      "alert": "OK",
      "vis_m": 9999,
      "fzfg": false,
      "metar_trigger": false,
      "taf_trigger": false,
      "metar": "METAR LIME 270550Z 36002KT 9999 FEW085 24/16 Q1021 NOSIG",
      "taf": "TAF LIME 270500Z 2706/2806 VRB05KT CAVOK"
    },
    {
      "icao": "LIMF",
      "alert": "OK",
      "vis_m": 9999,
      "fzfg": false,
      "metar_trigger": false,
      "taf_trigger": false,
      "metar": "METAR LIMF 270550Z VRB02KT CAVOK 24/15 Q1022",
      "taf": "TAF LIMF 270500Z 2706/2806 VRB05KT CAVOK"
    },
    {
      "icao": "LIMJ",
      "alert": "OK",
      "vis_m": 9999,
      "fzfg": false,
      "metar_trigger": false,
      "taf_trigger": false,
      "metar": "METAR LIMJ 270550Z AUTO 06004KT 9999 NCD 24/13 Q1020",
      "taf": "TAF LIMJ 270500Z 2706/2806 VRB05KT CAVOK"
    },
    {
      "icao": "LIPE",
      "alert": "OK",
      "vis_m": 9999,
      "fzfg": false,
      "metar_trigger": false,
      "taf_trigger": false,
      "metar": "METAR LIPE 270550Z 19006KT CAVOK 23/17 Q1020",
      "taf": "TAF LIPE 270500Z 2706/2806 VRB05KT CAVOK"
    },
    {
      "icao": "LIPH",
      "alert": "OK",
      "vis_m": 8000,
      "fzfg": false,
      "metar_trigger": false,
      "taf_trigger": false,
      "metar": "METAR LIPH 270550Z VRB02KT 8000 NSC 24/21 Q1020",
      "taf": "TAF LIPH 270500Z 2706/2806 VRB05KT CAVOK"
    },
    {
      "icao": "LIPQ",
      "alert": "OK",
      "vis_m": 9999,
      "fzfg": false,
      "metar_trigger": false,
      "taf_trigger": false,
      "metar": "METAR LIPQ 270550Z AUTO VRB02KT 9999 FEW160/// 24/18 Q1019",
      "taf": "TAF LIPQ 270500Z 2706/2806 VRB05KT CAVOK"
    },
    {
      "icao": "LIPR",
      "alert": "OK",
      "vis_m": 9999,
      "fzfg": false,
      "metar_trigger": false,
      "taf_trigger": false,
      "metar": "METAR LIPR 270550Z VRB01KT CAVOK 24/16 Q1020",
      "taf": "TAF LIPR 270500Z 2706/2806 VRB05KT CAVOK"
    },
    {
      "icao": "LIPX",
      "alert": "OK",
      "vis_m": 9999,
      "fzfg": false,
      "metar_trigger": false,
      "taf_trigger": false,
      "metar": "METAR LIPX 270550Z VRB02KT CAVOK 23/17 Q1020",
      "taf": "TAF LIPX 270500Z 2706/2806 VRB05KT CAVOK"
    },
    {
      "icao": "LIPY",
      "alert": "OK",
      "vis_m": 9999,
      "fzfg": false,
      "metar_trigger": false,
      "taf_trigger": false,
      "metar": "METAR LIPY 270550Z AUTO 20004KT 170V230 9999 NCD 23/16 Q1020",
      "taf": "TAF LIPY 270500Z 2706/2806 VRB05KT CAVOK"
    },
    {
      "icao": "LIPZ",
      "alert": "OK",
      "vis_m": 9000,
      "fzfg": false,
      "metar_trigger": false,
      "taf_trigger": false,
      "metar": "METAR LIPZ 270550Z 02004KT 9000 NSC 23/20 Q1020 NOSIG",
      "taf": "TAF LIPZ 270500Z 2706/2812 VRB05KT CAVOK"
    },
    {
      "icao": "LIRF",
      "alert": "OK",
      "vis_m": 9999,
      "fzfg": false,
      "metar_trigger": false,
      "taf_trigger": false,
      "metar": "METAR LIRF 270550Z 06007KT CAVOK 23/15 Q1020 NOSIG",
      "taf": "TAF LIRF 270500Z 2706/2812 VRB05KT CAVOK"
    },
    {
      "icao": "LIRN",
      "alert": "OK",
      "vis_m": 9999,
      "fzfg": false,
      "metar_trigger": false,
      "taf_trigger": false,
      "metar": "METAR LIRN 270550Z 33002KT CAVOK 23/14 Q1021 NOSIG",
      "taf": "TAF LIRN 270500Z 2706/2806 VRB04KT CAVOK"
    },
    {
      "icao": "LIRP",
      "alert": "OK",
      "vis_m": 9999,
      "fzfg": false,
      "metar_trigger": false,
      "taf_trigger": false,
      "metar": "METAR LIRP 270545Z 13002KT CAVOK 19/16 Q1021 NOSIG",
      "taf": "TAF LIRP 270500Z 2706/2806 12005KT CAVOK"
    },
    {
      "icao": "LIRZ",
      "alert": "OK",
      "vis_m": 9999,
      "fzfg": false,
      "metar_trigger": false,
      "taf_trigger": false,
      "metar": "METAR LIRZ 270550Z AUTO 02003KT 340V070 9999 NCD 20/16 Q1022",
      "taf": "TAF LIRZ 270500Z 2706/2806 VRB05KT CAVOK"
    },
    {
      "icao": "LJLJ",
      "alert": "OK",
      "vis_m": 9999,
      "fzfg": false,
      "metar_trigger": false,
      "taf_trigger": false,
      "metar": "METAR LJLJ 270600Z VRB01KT 9999 VCTS FEW060CB SCT100 20/16 Q1022 BECMG TSRA",
      "taf": "TAF LJLJ 270500Z 2706/2806 12004KT 9999 FEW060"
    },
    {
      "icao": "LKMT",
      "alert": "OK",
      "vis_m": 9999,
      "fzfg": false,
      "metar_trigger": false,
      "taf_trigger": false,
      "metar": "METAR LKMT 270600Z 23008KT CAVOK 20/14 Q1019 NOSIG",
      "taf": "TAF LKMT 270500Z 2706/2806 22008KT CAVOK"
    },
    {
      "icao": "LKPR",
      "alert": "OK",
      "vis_m": 9999,
      "fzfg": false,
      "metar_trigger": false,
      "taf_trigger": false,
      "metar": "METAR LKPR 270600Z 35005KT CAVOK 21/12 Q1021 NOSIG",
      "taf": "TAF LKPR 270500Z 2706/2812 35005KT CAVOK"
    },
    {
      "icao": "LLBG",
      "alert": "OK",
      "vis_m": 9999,
      "fzfg": false,
      "metar_trigger": false,
      "taf_trigger": false,
      "metar": "METAR LLBG 270620Z VRB03KT 9999 BKN032 24/15 Q1014 NOSIG",
      "taf": "TAF LLBG 270503Z 2706/2806 VRB03KT 9999 SCT030 TX27/2711Z TN20/2803Z"
    },
    {
      "icao": "LMML",
      "alert": "OK",
      "vis_m": 9999,
      "fzfg": false,
      "metar_trigger": false,
      "taf_trigger": false,
      "metar": "METAR LMML 270615Z 32004KT 290V360 CAVOK 25/13 Q1021 NOSIG",
      "taf": "TAF LMML 270500Z 2706/2806 27009KT CAVOK"
    },
    {
      "icao": "LOWW",
      "alert": "OK",
      "vis_m": 9999,
      "fzfg": false,
      "metar_trigger": false,
      "taf_trigger": false,
      "metar": "METAR LOWW 270550Z VRB01KT 9999 FEW040 22/12 Q1020 NOSIG",
      "taf": "TAF LOWW 270515Z 2706/2812 24005KT CAVOK TX31/2714Z TN15/2804Z"
    },
    {
      "icao": "LPFR",
      "alert": "OK",
      "vis_m": 9999,
      "fzfg": false,
      "metar_trigger": false,
      "taf_trigger": false,
      "metar": "METAR LPFR 270600Z 08011G23KT CAVOK 22/11 Q1019",
      "taf": "TAF LPFR 270500Z 2706/2806 07010KT CAVOK"
    },
    {
      "icao": "LPMA",
      "alert": "OK",
      "vis_m": 9999,
      "fzfg": false,
      "metar_trigger": false,
      "taf_trigger": false,
      "metar": "METAR LPMA 270600Z 32006KT 270V340 9999 SCT016 SCT033 18/13 Q1020",
      "taf": "TAF LPMA 270500Z 2706/2806 VRB05KT 9999 SCT015 BKN030"
    },
    {
      "icao": "LPPR",
      "alert": "OK",
      "vis_m": 9999,
      "fzfg": false,
      "metar_trigger": false,
      "taf_trigger": false,
      "metar": "METAR LPPR 270600Z 13005KT 070V190 CAVOK 20/16 Q1019",
      "taf": "TAF LPPR 270500Z 2706/2806 VRB02KT CAVOK"
    },
    {
      "icao": "LPPS",
      "alert": "OK",
      "vis_m": 9999,
      "fzfg": false,
      "metar_trigger": false,
      "taf_trigger": false,
      "metar": "METAR LPPS 270600Z 31011KT 9999 FEW015 SCT030 18/12 Q1019",
      "taf": "TAF LPPS 270500Z 2706/2812 31008KT 9999 SCT015"
    },
    {
      "icao": "LPPT",
      "alert": "OK",
      "vis_m": 9999,
      "fzfg": false,
      "metar_trigger": false,
      "taf_trigger": false,
      "metar": "METAR LPPT 270600Z 05006KT 320V070 CAVOK 19/14 Q1019",
      "taf": "TAF LPPT 270500Z 2706/2812 07005KT CAVOK"
    },
    {
      "icao": "LQBK",
      "alert": "OK",
      "vis_m": 9999,
      "fzfg": false,
      "metar_trigger": false,
      "taf_trigger": false,
      "metar": "METAR LQBK 270600Z VRB01KT CAVOK 22/15 Q1021 NOSIG",
      "taf": "TAF LQBK 270500Z 2706/2806 30005KT CAVOK TX31/2714Z TN16/2803Z"
    },
    {
      "icao": "LQSA",
      "alert": "OK",
      "vis_m": 9999,
      "fzfg": false,
      "metar_trigger": false,
      "taf_trigger": false,
      "metar": "METAR LQSA 270600Z VRB01KT CAVOK 17/12 Q1024 NOSIG",
      "taf": "TAF LQSA 270500Z 2706/2806 29005KT CAVOK TX30/2714Z TN15/2804Z"
    },
    {
      "icao": "LQTZ",
      "alert": "OK",
      "vis_m": 9999,
      "fzfg": false,
      "metar_trigger": false,
      "taf_trigger": false,
      "metar": "METAR LQTZ 270600Z 00000KT CAVOK 19/15 Q1022",
      "taf": "TAF LQTZ 270500Z 2706/2806 06006KT CAVOK TX30/2713Z TN15/2803Z"
    },
    {
      "icao": "LRBC",
      "alert": "OK",
      "vis_m": 9999,
      "fzfg": false,
      "metar_trigger": false,
      "taf_trigger": false,
      "metar": "METAR LRBC 270600Z VRB02KT CAVOK 22/15 Q1018",
      "taf": "TAF LRBC 270500Z 2706/2715 VRB04KT CAVOK"
    },
    {
      "icao": "LRBS",
      "alert": "OK",
      "vis_m": 9999,
      "fzfg": false,
      "metar_trigger": false,
      "taf_trigger": false,
      "metar": "METAR LRBS 270600Z 08004KT 040V110 CAVOK 24/16 Q1018 NOSIG",
      "taf": "TAF LRBS 270500Z 2706/2806 VRB04KT CAVOK"
    },
    {
      "icao": "LRBV",
      "alert": "OK",
      "vis_m": 9999,
      "fzfg": false,
      "metar_trigger": false,
      "taf_trigger": false,
      "metar": "METAR LRBV 270600Z VRB03KT CAVOK 20/13 Q1020",
      "taf": "TAF LRBV 270500Z 2706/2715 22008KT CAVOK"
    },
    {
      "icao": "LRCL",
      "alert": "OK",
      "vis_m": 9999,
      "fzfg": false,
      "metar_trigger": false,
      "taf_trigger": false,
      "metar": "METAR LRCL 270600Z 25005KT 220V280 CAVOK 22/12 Q1019",
      "taf": "TAF LRCL 270500Z 2706/2715 26005KT CAVOK"
    },
    {
      "icao": "LRCV",
      "alert": "OK",
      "vis_m": 9999,
      "fzfg": false,
      "metar_trigger": false,
      "taf_trigger": false,
      "metar": "METAR LRCV 270600Z 35004KT 320V020 CAVOK 24/17 Q1019",
      "taf": "TAF LRCV 270500Z 2706/2715 31007KT CAVOK"
    },
    {
      "icao": "LRIA",
      "alert": "OK",
      "vis_m": 9999,
      "fzfg": false,
      "metar_trigger": false,
      "taf_trigger": false,
      "metar": "METAR LRIA 270600Z 27008KT 240V310 CAVOK 22/11 Q1016",
      "taf": "TAF LRIA 270500Z 2706/2715 VRB04KT CAVOK"
    },
    {
      "icao": "LROP",
      "alert": "OK",
      "vis_m": 9999,
      "fzfg": false,
      "metar_trigger": false,
      "taf_trigger": false,
      "metar": "METAR LROP 270600Z 08004KT 050V110 CAVOK 24/17 Q1018 NOSIG",
      "taf": "TAF LROP 270500Z 2706/2806 VRB04KT CAVOK"
    },
    {
      "icao": "LRSB",
      "alert": "OK",
      "vis_m": 9999,
      "fzfg": false,
      "metar_trigger": false,
      "taf_trigger": false,
      "metar": "METAR LRSB 270600Z COR VRB01KT CAVOK 23/14 Q1020 NOSIG",
      "taf": "TAF LRSB 270500Z 2706/2806 VRB04KT CAVOK"
    },
    {
      "icao": "LRSM",
      "alert": "OK",
      "vis_m": 9999,
      "fzfg": false,
      "metar_trigger": false,
      "taf_trigger": false,
      "metar": "METAR LRSM 270600Z VRB02KT CAVOK 21/11 Q1019",
      "taf": "TAF LRSM 270500Z 2706/2715 VRB04KT CAVOK"
    },
    {
      "icao": "LRSV",
      "alert": "OK",
      "vis_m": 9999,
      "fzfg": false,
      "metar_trigger": false,
      "taf_trigger": false,
      "metar": "METAR LRSV 270600Z 24009KT CAVOK 21/11 Q1017",
      "taf": "TAF LRSV 270500Z 2706/2715 26012KT CAVOK"
    },
    {
      "icao": "LRTM",
      "alert": "OK",
      "vis_m": 9999,
      "fzfg": false,
      "metar_trigger": false,
      "taf_trigger": false,
      "metar": "METAR LRTM 270600Z 06004KT 030V090 CAVOK 19/14 Q1020",
      "taf": "TAF LRTM 270500Z 2706/2715 VRB04KT CAVOK"
    },
    {
      "icao": "LRTR",
      "alert": "OK",
      "vis_m": 9999,
      "fzfg": false,
      "metar_trigger": false,
      "taf_trigger": false,
      "metar": "METAR LRTR 270600Z 13005KT CAVOK 20/16 Q1019",
      "taf": "TAF LRTR 270500Z 2706/2806 VRB04KT CAVOK"
    },
    {
      "icao": "LTAC",
      "alert": "OK",
      "vis_m": 9999,
      "fzfg": false,
      "metar_trigger": false,
      "taf_trigger": false,
      "metar": "METAR LTAC 270550Z VRB02KT CAVOK 17/09 Q1021 NOSIG RMK RWY21C VRB02KT RWY03L VRB02KT RWY21R 00000KT RWY03R VRB01KT RWY21L VRB01KT",
      "taf": "TAF LTAC 270440Z 2706/2806 VRB02KT CAVOK"
    },
    {
      "icao": "LTFM",
      "alert": "OK",
      "vis_m": 9999,
      "fzfg": false,
      "metar_trigger": false,
      "taf_trigger": false,
      "metar": "METAR LTFM 270550Z 04004KT 010V090 CAVOK 21/13 Q1019 NOSIG RMK RWY17L 04003KT 330V080 RWY34L 01003KT 300V060 RWY16R VRB02KT RWY36 02004KT 330V050 RWY18 04003KT 360V070",
      "taf": "TAF LTFM 270440Z 2706/2812 VRB02KT CAVOK"
    },
    {
      "icao": "LUKK",
      "alert": "OK",
      "vis_m": 9999,
      "fzfg": false,
      "metar_trigger": false,
      "taf_trigger": false,
      "metar": "METAR LUKK 270600Z 30009KT 280V340 CAVOK 23/13 Q1016 NOSIG",
      "taf": "TAF LUKK 270412Z 2706/2806 28014KT CAVOK"
    },
    {
      "icao": "LWOH",
      "alert": "OK",
      "vis_m": 9999,
      "fzfg": false,
      "metar_trigger": false,
      "taf_trigger": false,
      "metar": "METAR LWOH 270620Z VRB02KT CAVOK 20/14 Q1022",
      "taf": "TAF LWOH 270510Z 2706/2806 VRB02KT CAVOK"
    },
    {
      "icao": "LWSK",
      "alert": "OK",
      "vis_m": 9999,
      "fzfg": false,
      "metar_trigger": false,
      "taf_trigger": false,
      "metar": "METAR LWSK 270620Z VRB02KT CAVOK 24/16 Q1021 NOSIG",
      "taf": "TAF LWSK 270510Z 2706/2806 VRB02KT CAVOK"
    },
    {
      "icao": "LYBE",
      "alert": "OK",
      "vis_m": 9999,
      "fzfg": false,
      "metar_trigger": false,
      "taf_trigger": false,
      "metar": "METAR LYBE 270600Z 25006KT 220V280 CAVOK 21/16 Q1020 NOSIG",
      "taf": "TAF LYBE 270500Z 2706/2806 28008KT CAVOK TX32/2713Z TN19/2804Z"
    },
    {
      "icao": "LYNI",
      "alert": "OK",
      "vis_m": 9999,
      "fzfg": false,
      "metar_trigger": false,
      "taf_trigger": false,
      "metar": "METAR LYNI 270600Z VRB01KT CAVOK 20/15 Q1021 NOSIG",
      "taf": "TAF LYNI 270500Z 2706/2806 02005KT CAVOK TX31/2714Z TN14/2804Z"
    },
    {
      "icao": "LYPG",
      "alert": "OK",
      "vis_m": 9999,
      "fzfg": false,
      "metar_trigger": false,
      "taf_trigger": false,
      "metar": "METAR LYPG 270600Z 00000KT CAVOK 27/13 Q1019 NOSIG",
      "taf": "TAF LYPG 270500Z 2706/2806 16007KT 9999 FEW040 TX33/2713Z TN19/2804Z"
    },
    {
      "icao": "LZIB",
      "alert": "OK",
      "vis_m": 9999,
      "fzfg": false,
      "metar_trigger": false,
      "taf_trigger": false,
      "metar": "METAR LZIB 270600Z VRB02KT CAVOK 21/13 Q1019 NOSIG",
      "taf": "TAF LZIB 270515Z 2706/2806 23005KT CAVOK"
    },
    {
      "icao": "LZKZ",
      "alert": "OK",
      "vis_m": 9999,
      "fzfg": false,
      "metar_trigger": false,
      "taf_trigger": false,
      "metar": "METAR LZKZ 270600Z VRB02KT CAVOK 20/13 Q1018 NOSIG",
      "taf": "TAF LZKZ 270515Z 2706/2806 21006KT CAVOK"
    },
    {
      "icao": "LZTT",
      "alert": "OK",
      "vis_m": 9999,
      "fzfg": false,
      "metar_trigger": false,
      "taf_trigger": false,
      "metar": "METAR LZTT 270600Z 26015KT 9999 FEW066 19/10 Q1020 NOSIG",
      "taf": "TAF LZTT 270515Z 2706/2806 26013KT CAVOK"
    },
    {
      "icao": "OEJN",
      "alert": "OK",
      "vis_m": 9999,
      "fzfg": false,
      "metar_trigger": false,
      "taf_trigger": false,
      "metar": "METAR OEJN 270600Z 35008KT CAVOK 31/19 Q1009 NOSIG",
      "taf": "TAF OEJN 262300Z 2700/2806 01005KT CAVOK"
    },
    {
      "icao": "OEMA",
      "alert": "OK",
      "vis_m": 9999,
      "fzfg": false,
      "metar_trigger": false,
      "taf_trigger": false,
      "metar": "METAR OEMA 270600Z 22002KT CAVOK 35/M01 Q1015 NOSIG",
      "taf": "TAF OEMA 262300Z 2700/2806 VRB03KT CAVOK"
    },
    {
      "icao": "OJAI",
      "alert": "OK",
      "vis_m": 5000,
      "fzfg": false,
      "metar_trigger": false,
      "taf_trigger": false,
      "metar": "METAR OJAI 270600Z 25005KT 5000 HZ NSC 22/11 Q1016 NOSIG",
      "taf": "TAF OJAI 270439Z 2706/2812 VRB02KT 5000 HZ NSC"
    },
    {
      "icao": "OMAA",
      "alert": "OK",
      "vis_m": 9999,
      "fzfg": false,
      "metar_trigger": false,
      "taf_trigger": false,
      "metar": "METAR OMAA 270600Z 25008KT CAVOK 35/20 Q1008 BECMG 31012KT",
      "taf": "TAF OMAA 270500Z 2706/2812 30012KT 8000 NSC"
    },
    {
      "icao": "OMDB",
      "alert": "OK",
      "vis_m": 9999,
      "fzfg": false,
      "metar_trigger": false,
      "taf_trigger": false,
      "metar": "METAR OMDB 270600Z VRB06KT CAVOK 36/19 Q1007 NOSIG",
      "taf": "TAF OMDB 270500Z 2706/2812 22007KT 8000 NSC"
    },
    {
      "icao": "UAAA",
      "alert": "OK",
      "vis_m": 9999,
      "fzfg": false,
      "metar_trigger": false,
      "taf_trigger": false,
      "metar": "METAR UAAA 270600Z 28002MPS 250V330 9999 FEW100 BKN200 25/12 Q1010 NOSIG",
      "taf": "TAF UAAA 270501Z 2706/2806 22003MPS 9999 SCT050CB BKN100 TX26/2710Z TN11/2801Z"
    },
    {
      "icao": "UBBB",
      "alert": "OK",
      "vis_m": 9999,
      "fzfg": false,
      "metar_trigger": false,
      "taf_trigger": false,
      "metar": "METAR UBBB 270600Z 34008KT CAVOK 24/13 Q1012 NOSIG",
      "taf": "TAF UBBB 270501Z 2706/2806 35010KT 9999 SCT040 TX24/2710Z TN17/2801Z"
    },
    {
      "icao": "UDSG",
      "alert": "OK",
      "vis_m": 9999,
      "fzfg": false,
      "metar_trigger": false,
      "taf_trigger": false,
      "metar": "METAR UDSG 270600Z 19006KT 9999 FEW049 13/04 Q1022 NOSIG",
      "taf": "TAF UDSG 270458Z 2706/2806 24006KT 9999 FEW050"
    },
    {
      "icao": "UDYZ",
      "alert": "OK",
      "vis_m": 9999,
      "fzfg": false,
      "metar_trigger": false,
      "taf_trigger": false,
      "metar": "METAR UDYZ 270600Z VRB02KT 9999 NSC 19/06 Q1019 NOSIG",
      "taf": "TAF UDYZ 270500Z 2706/2806 16006KT 9999 FEW040"
    },
    {
      "icao": "UGKO",
      "alert": "OK",
      "vis_m": 9999,
      "fzfg": false,
      "metar_trigger": false,
      "taf_trigger": false,
      "metar": "METAR UGKO 270600Z 18004KT 9999 BKN046 16/14 Q1019 NOSIG",
      "taf": "TAF UGKO 270500Z 2706/2806 25007KT 9999 SCT040 BKN060 TX25/2711Z TN12/2802Z"
    }
  ]
}