{
  "ts_utc": "2026-02-15T08:53:22Z",
  "threshold_m": 150,
  "source": "stations_override.txt (ICAO list) + aviationweather.gov (METAR/TAF raw)",
  "station_count": 159,
  "stations": [
    {
      "icao": "BIKF",
      "alert": "OK",
      "vis_m": 9999,
      "fzfg": false,
      "metar_trigger": false,
      "taf_trigger": false,
      "metar": "METAR BIKF 150830Z 05008KT CAVOK M05/M12 Q0997",
      "taf": "TAF BIKF 150757Z 1509/1609 06015KT CAVOK TXM02/1515Z TNM06/1522Z"
    },
    {
      "icao": "BKPR",
      "alert": "OK",
      "vis_m": 9999,
      "fzfg": false,
      "metar_trigger": false,
      "taf_trigger": false,
      "metar": "METAR BKPR 150830Z 14005KT 110V250 9999 FEW016 BKN040 07/07 Q0999 NOSIG",
      "taf": "TAF BKPR 150530Z 1506/1606 15006KT 9999 BKN030"
    },
    {
      "icao": "EBCI",
      "alert": "OK",
      "vis_m": 9999,
      "fzfg": false,
      "metar_trigger": false,
      "taf_trigger": false,
      "metar": "METAR EBCI 150820Z 17010KT CAVOK M01/M05 Q1014 NOSIG",
      "taf": "TAF EBCI 150515Z 1506/1612 14005KT CAVOK"
    },
    {
      "icao": "EDDB",
      "alert": "OK",
      "vis_m": 9999,
      "fzfg": false,
      "metar_trigger": false,
      "taf_trigger": false,
      "metar": "METAR EDDB 150820Z AUTO VRB01KT 9999 OVC039 M01/M07 Q1020 NOSIG",
      "taf": "TAF EDDB 150500Z 1506/1606 35004KT 9999 BKN035"
    },
    {
      "icao": "EDDH",
      "alert": "OK",
      "vis_m": 9999,
      "fzfg": false,
      "metar_trigger": false,
      "taf_trigger": false,
      "metar": "METAR EDDH 150820Z AUTO 16007KT CAVOK M05/M08 Q1019 NOSIG",
      "taf": "TAF EDDH 150500Z 1506/1612 VRB02KT 9999 SCT015"
    },
    {
      "icao": "EDDK",
      "alert": "OK",
      "vis_m": 7000,
      "fzfg": false,
      "metar_trigger": false,
      "taf_trigger": false,
      "metar": "METAR EDDK 150820Z AUTO 12006KT 7000 NSC M01/M03 Q1018 NOSIG",
      "taf": "TAF EDDK 150500Z 1506/1612 VRB03KT 9999 FEW030"
    },
    {
      "icao": "EDDN",
      "alert": "OK",
      "vis_m": 9999,
      "fzfg": false,
      "metar_trigger": false,
      "taf_trigger": false,
      "metar": "METAR EDDN 150820Z AUTO 01004KT 350V050 9999 OVC033 M00/M05 Q1017 NOSIG",
      "taf": "TAF EDDN 150500Z 1506/1606 02003KT 9999 BKN020"
    },
    {
      "icao": "EDDS",
      "alert": "OK",
      "vis_m": 9999,
      "fzfg": false,
      "metar_trigger": false,
      "taf_trigger": false,
      "metar": "METAR EDDS 150820Z AUTO 11003KT 070V130 9999 OVC031 00/M02 Q1016 NOSIG",
      "taf": "TAF EDDS 150500Z 1506/1606 36004KT 9999 BKN025"
    },
    {
      "icao": "EDFH",
      "alert": "OK",
      "vis_m": 9999,
      "fzfg": false,
      "metar_trigger": false,
      "taf_trigger": false,
      "metar": "METAR EDFH 150820Z 17005KT 9999 BKN022 M02/M04 Q1016",
      "taf": "TAF EDFH 150500Z 1506/1606 VRB03KT 9999 BKN025"
    },
    {
      "icao": "EDJA",
      "alert": "OK",
      "vis_m": 9999,
      "fzfg": false,
      "metar_trigger": false,
      "taf_trigger": false,
      "metar": "METAR EDJA 150820Z 05006KT 9999 BKN020 OVC026 M02/M03 Q1016",
      "taf": "TAF EDJA 150800Z 1509/1518 VRB03KT 9999 SCT015 BKN025"
    },
    {
      "icao": "EDLW",
      "alert": "OK",
      "vis_m": 9999,
      "fzfg": false,
      "metar_trigger": false,
      "taf_trigger": false,
      "metar": "METAR EDLW 150820Z 12006KT 060V150 CAVOK M03/M05 Q1017",
      "taf": "TAF EDLW 150500Z 1506/1606 14004KT CAVOK"
    },
    {
      "icao": "EDNY",
      "alert": "OK",
      "vis_m": 3000,
      "fzfg": false,
      "metar_trigger": false,
      "taf_trigger": false,
      "metar": "METAR EDNY 150820Z VRB02KT 3000 -SNRA BR FEW004 BKN019 OVC025 00/M00 Q1017",
      "taf": "TAF EDNY 150800Z 1509/1518 VRB03KT 9000 SCT012 BKN025"
    },
    {
      "icao": "EDSB",
      "alert": "OK",
      "vis_m": 9999,
      "fzfg": false,
      "metar_trigger": false,
      "taf_trigger": false,
      "metar": "METAR EDSB 150820Z 03003KT 350V060 9999 BKN043 01/M01 Q1018",
      "taf": "TAF EDSB 150500Z 1506/1606 02004KT 9999 BKN020"
    },
    {
      "icao": "EETN",
      "alert": "OK",
      "vis_m": 9999,
      "fzfg": false,
      "metar_trigger": false,
      "taf_trigger": false,
      "metar": "METAR EETN 150850Z 23008KT CAVOK M11/M14 Q1016 NOSIG",
      "taf": "TAF EETN 150530Z 1506/1606 20008KT 9999 SCT020"
    },
    {
      "icao": "EFTU",
      "alert": "OK",
      "vis_m": 9999,
      "fzfg": false,
      "metar_trigger": false,
      "taf_trigger": false,
      "metar": "METAR EFTU 150850Z AUTO 28004KT 250V310 9999 OVC004 M09/M10 Q1014",
      "taf": "TAF EFTU 150835Z 1509/1609 27005KT 9999 OVC005"
    },
    {
      "icao": "EGBB",
      "alert": "OK",
      "vis_m": 8000,
      "fzfg": false,
      "metar_trigger": false,
      "taf_trigger": false,
      "metar": "METAR EGBB 150820Z 17009KT 8000 -RA BKN007 OVC012 03/02 Q1002",
      "taf": "TAF EGBB 150458Z 1506/1606 17011KT 9999 BKN014"
    },
    {
      "icao": "EGGP",
      "alert": "OK",
      "vis_m": 9999,
      "fzfg": false,
      "metar_trigger": false,
      "taf_trigger": false,
      "metar": "METAR EGGP 150820Z 16008KT 130V190 9999 SCT013 BKN024 04/02 Q0999",
      "taf": "TAF EGGP 150455Z 1506/1606 17011KT 9999 SCT025"
    },
    {
      "icao": "EGGW",
      "alert": "OK",
      "vis_m": 9999,
      "fzfg": false,
      "metar_trigger": false,
      "taf_trigger": false,
      "metar": "METAR EGGW 150820Z AUTO 17010KT 140V210 9999 -RA OVC006/// //////CB 02/02 Q1005",
      "taf": "TAF EGGW 150507Z 1506/1606 18017G27KT 9999 SCT025"
    },
    {
      "icao": "EGKK",
      "alert": "OK",
      "vis_m": 3400,
      "fzfg": false,
      "metar_trigger": false,
      "taf_trigger": false,
      "metar": "METAR EGKK 150820Z 17010KT 140V200 3400 -RADZ BKN006 04/03 Q1006",
      "taf": ""
    },
    {
      "icao": "EGNM",
      "alert": "OK",
      "vis_m": 9999,
      "fzfg": false,
      "metar_trigger": false,
      "taf_trigger": false,
      "metar": "METAR EGNM 150820Z 16007KT 9999 BKN008 01/01 Q1000",
      "taf": ""
    },
    {
      "icao": "EGPD",
      "alert": "OK",
      "vis_m": 9999,
      "fzfg": false,
      "metar_trigger": false,
      "taf_trigger": false,
      "metar": "METAR EGPD 150820Z COR AUTO 18009KT 9999 SCT013 01/M00 Q0994 NOSIG",
      "taf": "TAF EGPD 150454Z 1506/1606 18018G30KT 9999 SCT020"
    },
    {
      "icao": "EGPF",
      "alert": "OK",
      "vis_m": 9000,
      "fzfg": false,
      "metar_trigger": false,
      "taf_trigger": false,
      "metar": "METAR EGPF 150820Z AUTO VRB01KT 9000 -RA BKN008 05/04 Q0994",
      "taf": ""
    },
    {
      "icao": "EHBK",
      "alert": "OK",
      "vis_m": 9999,
      "fzfg": false,
      "metar_trigger": false,
      "taf_trigger": false,
      "metar": "METAR EHBK 150825Z AUTO 17004KT 9999 NSC M01/M05 Q1016 NOSIG",
      "taf": "TAF EHBK 150504Z 1506/1612 15005KT CAVOK"
    },
    {
      "icao": "EHEH",
      "alert": "OK",
      "vis_m": 9999,
      "fzfg": false,
      "metar_trigger": false,
      "taf_trigger": false,
      "metar": "METAR EHEH 150825Z AUTO 16008KT 120V210 9999 OVC320 M02/M05 Q1016 BLU NOSIG RMK TREND REMOTE BY EHWX",
      "taf": "TAF EHEH 150503Z 1506/1612 15005KT CAVOK"
    },
    {
      "icao": "EKBI",
      "alert": "OK",
      "vis_m": 9999,
      "fzfg": false,
      "metar_trigger": false,
      "taf_trigger": false,
      "metar": "METAR EKBI 150820Z AUTO 15007KT 9999 OVC032/// M03/M06 Q1016",
      "taf": "TAF EKBI 150827Z 1509/1609 15005KT 9999 BKN030"
    },
    {
      "icao": "EKCH",
      "alert": "OK",
      "vis_m": 9999,
      "fzfg": false,
      "metar_trigger": false,
      "taf_trigger": false,
      "metar": "METAR EKCH 150820Z AUTO 13008KT 9999 NCD M03/M10 Q1020 NOSIG",
      "taf": "TAF EKCH 150827Z 1509/1609 15012KT CAVOK"
    },
    {
      "icao": "ENAL",
      "alert": "OK",
      "vis_m": 9999,
      "fzfg": false,
      "metar_trigger": false,
      "taf_trigger": false,
      "metar": "METAR ENAL 150820Z 17015KT CAVOK 03/M07 Q1002",
      "taf": "TAF ENAL 150800Z 1509/1518 17012KT CAVOK"
    },
    {
      "icao": "ENBR",
      "alert": "OK",
      "vis_m": 9999,
      "fzfg": false,
      "metar_trigger": false,
      "taf_trigger": false,
      "metar": "METAR ENBR 150820Z 13015KT 9999 BKN032 01/M04 Q1005 NOSIG RMK WIND 1200FT 14032KT",
      "taf": "TAF ENBR 150500Z 1506/1606 14008KT 9999 SCT015"
    },
    {
      "icao": "ENGM",
      "alert": "OK",
      "vis_m": 7000,
      "fzfg": false,
      "metar_trigger": false,
      "taf_trigger": false,
      "metar": "METAR ENGM 150820Z 32003KT 7000 -SN OVC004 M17/M19 Q1014 TEMPO 4000 -SN BKN007",
      "taf": ""
    },
    {
      "icao": "ENHD",
      "alert": "OK",
      "vis_m": 9999,
      "fzfg": false,
      "metar_trigger": false,
      "taf_trigger": false,
      "metar": "METAR ENHD 150820Z 14016KT 9999 FEW012 BKN020 01/M01 Q1006",
      "taf": "TAF ENHD 150800Z 1509/1518 14018KT 9999 BKN030"
    },
    {
      "icao": "ENTC",
      "alert": "OK",
      "vis_m": 9999,
      "fzfg": false,
      "metar_trigger": false,
      "taf_trigger": false,
      "metar": "METAR ENTC 150820Z 20013KT 9999 VCSH SCT012 BKN048 M04/M05 Q1001 TEMPO 0700 SHSN VV007 RMK WIND 2600FT 20014KT",
      "taf": ""
    },
    {
      "icao": "ENTO",
      "alert": "OK",
      "vis_m": 8000,
      "fzfg": false,
      "metar_trigger": false,
      "taf_trigger": false,
      "metar": "METAR ENTO 150820Z 01003KT 8000 -SN SCT006 BKN008 BKN011 M09/M11 Q1014 TEMPO 2000 -SN BKN004",
      "taf": ""
    },
    {
      "icao": "ENVA",
      "alert": "OK",
      "vis_m": 9999,
      "fzfg": false,
      "metar_trigger": false,
      "taf_trigger": false,
      "metar": "METAR ENVA 150820Z 04004KT 010V110 CAVOK M10/M14 Q1006 RMK WIND 670FT 13007KT",
      "taf": "TAF ENVA 150500Z 1506/1606 10008KT 9999 FEW015 SCT025"
    },
    {
      "icao": "ENZV",
      "alert": "OK",
      "vis_m": 9999,
      "fzfg": false,
      "metar_trigger": false,
      "taf_trigger": false,
      "metar": "METAR ENZV 150820Z 14011KT 9999 SCT020 SCT028 BKN040 01/M02 Q1007 RESN TEMPO 1000 SHSN SCT018TCU",
      "taf": ""
    },
    {
      "icao": "EPGD",
      "alert": "OK",
      "vis_m": 9999,
      "fzfg": false,
      "metar_trigger": false,
      "taf_trigger": false,
      "metar": "METAR EPGD 150830Z 12004KT 9999 SCT015 M04/M06 Q1018",
      "taf": "TAF EPGD 150530Z 1506/1606 04005KT CAVOK"
    },
    {
      "icao": "EPKK",
      "alert": "OK",
      "vis_m": 2000,
      "fzfg": false,
      "metar_trigger": false,
      "taf_trigger": false,
      "metar": "METAR EPKK 150830Z 35004KT 260V030 2000 -SN BR FEW007 OVC020 M02/M04 Q1014",
      "taf": "TAF EPKK 150830Z 1509/1609 34003KT 1400 SN BR BKN008 OVC016"
    },
    {
      "icao": "EPKT",
      "alert": "OK",
      "vis_m": 9999,
      "fzfg": false,
      "metar_trigger": false,
      "taf_trigger": false,
      "metar": "METAR EPKT 150830Z 34011KT 9999 OVC009 M04/M06 Q1014",
      "taf": "TAF EPKT 150530Z 1506/1606 34006KT 3000 -SN BR BKN020"
    },
    {
      "icao": "EPLB",
      "alert": "OK",
      "vis_m": 2700,
      "fzfg": false,
      "metar_trigger": false,
      "taf_trigger": false,
      "metar": "METAR EPLB 150830Z 03006KT 2700 -SN BR BKN021 OVC034 M07/M08 Q1013",
      "taf": ""
    },
    {
      "icao": "EPMO",
      "alert": "OK",
      "vis_m": 9999,
      "fzfg": false,
      "metar_trigger": false,
      "taf_trigger": false,
      "metar": "METAR EPMO 150830Z 01006KT 9999 FEW016 M07/M09 Q1016",
      "taf": "TAF EPMO 150530Z 1506/1606 36008KT 9999 BKN012"
    },
    {
      "icao": "EPPO",
      "alert": "OK",
      "vis_m": 9999,
      "fzfg": false,
      "metar_trigger": false,
      "taf_trigger": false,
      "metar": "METAR EPPO 150830Z 36007KT 320V030 9999 -SN BKN034 M03/M11 Q1018",
      "taf": "TAF EPPO 150530Z 1506/1606 35010KT 9999 BKN020"
    },
    {
      "icao": "EPRA",
      "alert": "OK",
      "vis_m": 4500,
      "fzfg": false,
      "metar_trigger": false,
      "taf_trigger": false,
      "metar": "METAR EPRA 150830Z 34008KT 310V010 4500 -SN OVC007 M06/M09 Q1014",
      "taf": "TAF EPRA 150830Z 1509/1518 35010KT 7000 -SN OVC014"
    },
    {
      "icao": "EPRZ",
      "alert": "OK",
      "vis_m": 2500,
      "fzfg": false,
      "metar_trigger": false,
      "taf_trigger": false,
      "metar": "METAR EPRZ 150830Z 31008KT 2500 -SN BR FEW003 SCT009 BKN016 M04/M05 Q1012",
      "taf": ""
    },
    {
      "icao": "EPSC",
      "alert": "OK",
      "vis_m": 9999,
      "fzfg": false,
      "metar_trigger": false,
      "taf_trigger": false,
      "metar": "METAR EPSC 150830Z 32003KT 290V360 9999 BKN041 M02/M06 Q1019",
      "taf": "TAF EPSC 150530Z 1506/1606 35005KT 9999 BKN035"
    },
    {
      "icao": "EPSY",
      "alert": "OK",
      "vis_m": 9999,
      "fzfg": false,
      "metar_trigger": false,
      "taf_trigger": false,
      "metar": "METAR EPSY 150830Z 02009KT CAVOK M10/M12 Q1017",
      "taf": "TAF EPSY 150830Z 1509/1518 01010KT CAVOK"
    },
    {
      "icao": "EPWA",
      "alert": "OK",
      "vis_m": 9999,
      "fzfg": false,
      "metar_trigger": false,
      "taf_trigger": false,
      "metar": "METAR EPWA 150830Z 35009KT 330V040 9999 SCT016 M06/M10 Q1015 NOSIG",
      "taf": "TAF EPWA 150830Z 1509/1609 01010KT 9999 BKN014"
    },
    {
      "icao": "EPWR",
      "alert": "OK",
      "vis_m": 9999,
      "fzfg": false,
      "metar_trigger": false,
      "taf_trigger": false,
      "metar": "METAR EPWR 150830Z 34009KT 9999 -SN OVC025 M02/M07 Q1017",
      "taf": "TAF EPWR 150830Z 1509/1609 34010KT 9999 BKN030"
    },
    {
      "icao": "ESGG",
      "alert": "OK",
      "vis_m": 9999,
      "fzfg": false,
      "metar_trigger": false,
      "taf_trigger": false,
      "metar": "METAR ESGG 150820Z 15009KT CAVOK M08/M11 Q1017",
      "taf": "TAF ESGG 150830Z 1509/1609 16010KT CAVOK"
    },
    {
      "icao": "ESKN",
      "alert": "OK",
      "vis_m": 9999,
      "fzfg": false,
      "metar_trigger": false,
      "taf_trigger": false,
      "metar": "METAR ESKN 150820Z 26002KT CAVOK M13/M15 Q1018",
      "taf": "TAF ESKN 150830Z 1509/1609 24004KT CAVOK"
    },
    {
      "icao": "ESMS",
      "alert": "OK",
      "vis_m": 9999,
      "fzfg": false,
      "metar_trigger": false,
      "taf_trigger": false,
      "metar": "METAR ESMS 150820Z 11002KT CAVOK M12/M13 Q1019",
      "taf": "TAF ESMS 150827Z 1509/1609 15008KT CAVOK"
    },
    {
      "icao": "ESSA",
      "alert": "OK",
      "vis_m": 9999,
      "fzfg": false,
      "metar_trigger": false,
      "taf_trigger": false,
      "metar": "METAR ESSA 150820Z 24011KT CAVOK M11/M13 Q1016 NOSIG",
      "taf": "TAF ESSA 150830Z 1509/1609 24009KT CAVOK"
    },
    {
      "icao": "EYKA",
      "alert": "OK",
      "vis_m": 9999,
      "fzfg": false,
      "metar_trigger": false,
      "taf_trigger": false,
      "metar": "METAR EYKA 150850Z 34004KT CAVOK M15/M18 Q1019",
      "taf": "TAF EYKA 150500Z 1506/1606 VRB04KT 9000 NSC"
    },
    {
      "icao": "EYPA",
      "alert": "OK",
      "vis_m": 9999,
      "fzfg": false,
      "metar_trigger": false,
      "taf_trigger": false,
      "metar": "METAR EYPA 150850Z VRB01KT CAVOK M14/M18 Q1020",
      "taf": "TAF EYPA 150500Z 1506/1606 VRB03KT 9000 NSC"
    },
    {
      "icao": "EYVI",
      "alert": "OK",
      "vis_m": 9999,
      "fzfg": false,
      "metar_trigger": false,
      "taf_trigger": false,
      "metar": "METAR EYVI 150850Z 03008KT CAVOK M12/M15 Q1016 NOSIG",
      "taf": "TAF EYVI 150500Z 1506/1606 VRB05KT 9000 NSC"
    },
    {
      "icao": "GCFV",
      "alert": "OK",
      "vis_m": 9999,
      "fzfg": false,
      "metar_trigger": false,
      "taf_trigger": false,
      "metar": "METAR GCFV 150830Z 02028KT 9999 FEW030 17/10 Q1025",
      "taf": "TAF GCFV 150800Z 1509/1609 03022KT 9999 FEW025 TX20/1514Z TN15/1606Z"
    },
    {
      "icao": "GCLP",
      "alert": "OK",
      "vis_m": 9999,
      "fzfg": false,
      "metar_trigger": false,
      "taf_trigger": false,
      "metar": "METAR GCLP 150830Z 01026KT 9999 FEW035 17/09 Q1026 NOSIG",
      "taf": "TAF GCLP 150800Z 1509/1609 02024KT 9999 FEW025 TX20/1514Z TN16/1606Z"
    },
    {
      "icao": "GCTS",
      "alert": "OK",
      "vis_m": 9999,
      "fzfg": false,
      "metar_trigger": false,
      "taf_trigger": false,
      "metar": "METAR GCTS 150830Z 08027G38KT 9999 FEW030 18/03 Q1025 NOSIG",
      "taf": "TAF GCTS 150800Z 1509/1609 08025KT 9999 FEW025 TX24/1514Z TN18/1606Z"
    },
    {
      "icao": "GMAD",
      "alert": "OK",
      "vis_m": 9999,
      "fzfg": false,
      "metar_trigger": false,
      "taf_trigger": false,
      "metar": "METAR GMAD 150830Z 05004KT CAVOK 09/08 Q1023 NOSIG",
      "taf": "TAF GMAD 150500Z 1506/1612 07004KT CAVOK"
    },
    {
      "icao": "GMMN",
      "alert": "OK",
      "vis_m": 9999,
      "fzfg": false,
      "metar_trigger": false,
      "taf_trigger": false,
      "metar": "METAR GMMN 150830Z 14004KT 090V170 9999 FEW026 08/06 Q1031 NOSIG",
      "taf": "TAF GMMN 150500Z 1506/1612 14004KT 9999 BKN024"
    },
    {
      "icao": "GMMX",
      "alert": "OK",
      "vis_m": 9999,
      "fzfg": false,
      "metar_trigger": false,
      "taf_trigger": false,
      "metar": "METAR GMMX 150830Z 10008KT CAVOK 08/05 Q1029 NOSIG",
      "taf": "TAF GMMX 150500Z 1506/1612 06006KT CAVOK"
    },
    {
      "icao": "HEGN",
      "alert": "OK",
      "vis_m": 9999,
      "fzfg": false,
      "metar_trigger": false,
      "taf_trigger": false,
      "metar": "METAR HEGN 150800Z 33010KT CAVOK 23/M04 Q1020 NOSIG",
      "taf": "TAF HEGN 150500Z 1506/1612 29012KT 6000 NSC"
    },
    {
      "icao": "HEMA",
      "alert": "OK",
      "vis_m": 9999,
      "fzfg": false,
      "metar_trigger": false,
      "taf_trigger": false,
      "metar": "METAR HEMA 150800Z 34015KT CAVOK 24/12 Q1018 NOSIG",
      "taf": "TAF HEMA 150540Z 1506/1612 32012KT 6000 NSC"
    },
    {
      "icao": "HESH",
      "alert": "OK",
      "vis_m": 9999,
      "fzfg": false,
      "metar_trigger": false,
      "taf_trigger": false,
      "metar": "METAR HESH 150800Z 35012KT CAVOK 24/08 Q1018 NOSIG",
      "taf": "TAF HESH 150500Z 1506/1612 35012KT 6000 NSC"
    },
    {
      "icao": "HESX",
      "alert": "OK",
      "vis_m": 9999,
      "fzfg": false,
      "metar_trigger": false,
      "taf_trigger": false,
      "metar": "METAR HESX 150800Z 10008KT CAVOK 21/M01 Q1019 NOSIG",
      "taf": "TAF HESX 150540Z 1506/1612 14008KT 6000 NSC"
    },
    {
      "icao": "LATI",
      "alert": "OK",
      "vis_m": 9999,
      "fzfg": false,
      "metar_trigger": false,
      "taf_trigger": false,
      "metar": "METAR LATI 150850Z 13010KT 110V170 9999 FEW026 SCT053 BKN070 14/08 Q0999 NOSIG",
      "taf": ""
    },
    {
      "icao": "LBPD",
      "alert": "OK",
      "vis_m": 9999,
      "fzfg": false,
      "metar_trigger": false,
      "taf_trigger": false,
      "metar": "METAR LBPD 150830Z AUTO 30007KT 9999 -SHRA BKN059/// OVC074/// 11/11 Q1001 TEMPO 5000 RA",
      "taf": "TAF LBPD 150500Z 1506/1606 10010KT 9999 SCT005 BKN050"
    },
    {
      "icao": "LBSF",
      "alert": "OK",
      "vis_m": 3000,
      "fzfg": false,
      "metar_trigger": false,
      "taf_trigger": false,
      "metar": "METAR LBSF 150830Z 31003KT 3000 RA BR SCT027 OVC059 06/06 Q1000 NOSIG",
      "taf": "TAF LBSF 150500Z 1506/1606 VRB03KT 8000 BKN040"
    },
    {
      "icao": "LBWN",
      "alert": "OK",
      "vis_m": 9999,
      "fzfg": false,
      "metar_trigger": false,
      "taf_trigger": false,
      "metar": "METAR LBWN 150830Z 12010KT 9999 SCT036 12/07 Q1004 NOSIG",
      "taf": "TAF LBWN 150500Z 1506/1606 09010KT 9999 SCT045"
    },
    {
      "icao": "LCLK",
      "alert": "OK",
      "vis_m": 9999,
      "fzfg": false,
      "metar_trigger": false,
      "taf_trigger": false,
      "metar": "METAR LCLK 150830Z 16005KT 130V190 9999 FEW025 19/15 Q1022 NOSIG",
      "taf": "TAF LCLK 150530Z 1506/1606 30007KT 9999 FEW020"
    },
    {
      "icao": "LCPH",
      "alert": "OK",
      "vis_m": 9999,
      "fzfg": false,
      "metar_trigger": false,
      "taf_trigger": false,
      "metar": "METAR LCPH 150830Z 15013KT 100V160 9999 FEW030 19/12 Q1021 NOSIG",
      "taf": "TAF LCPH 150530Z 1506/1606 02007KT 8000 SCT018"
    },
    {
      "icao": "LEAL",
      "alert": "OK",
      "vis_m": 9999,
      "fzfg": false,
      "metar_trigger": false,
      "taf_trigger": false,
      "metar": "METAR LEAL 150830Z 31025KT CAVOK 14/M04 Q1021 WS R28 NOSIG",
      "taf": "TAF LEAL 150500Z 1506/1606 31020KT 9999 FEW040 TX20/1513Z TN09/1506Z"
    },
    {
      "icao": "LEBB",
      "alert": "OK",
      "vis_m": 9999,
      "fzfg": false,
      "metar_trigger": false,
      "taf_trigger": false,
      "metar": "METAR LEBB 150830Z 09003KT 010V150 9999 BKN046 OVC050 09/06 Q1022 NOSIG",
      "taf": "TAF LEBB 150500Z 1506/1606 18005KT 9999 SCT020 BKN030 TX15/1512Z TN09/1506Z"
    },
    {
      "icao": "LEBL",
      "alert": "OK",
      "vis_m": 9999,
      "fzfg": false,
      "metar_trigger": false,
      "taf_trigger": false,
      "metar": "METAR LEBL 150830Z 36008KT 320V030 CAVOK 09/02 Q1018 NOSIG",
      "taf": "TAF LEBL 150500Z 1506/1606 32008KT 9999 FEW035 TX15/1513Z TN07/1506Z"
    },
    {
      "icao": "LECH",
      "alert": "OK",
      "vis_m": 9999,
      "fzfg": false,
      "metar_trigger": false,
      "taf_trigger": false,
      "metar": "METAR LECH 150830Z AUTO 02006G16KT CAVOK 14/01 Q1019",
      "taf": ""
    },
    {
      "icao": "LEMD",
      "alert": "OK",
      "vis_m": 9999,
      "fzfg": false,
      "metar_trigger": false,
      "taf_trigger": false,
      "metar": "METAR LEMD 150830Z VRB01KT CAVOK 01/M01 Q1025 NOSIG",
      "taf": "TAF LEMD 150500Z 1506/1612 VRB04KT 9999 FEW040 TX13/1515Z TNM00/1507Z"
    },
    {
      "icao": "LEMG",
      "alert": "OK",
      "vis_m": 9999,
      "fzfg": false,
      "metar_trigger": false,
      "taf_trigger": false,
      "metar": "METAR LEMG 150830Z 30018KT CAVOK 11/03 Q1027 NOSIG",
      "taf": "TAF LEMG 150500Z 1506/1606 30012KT CAVOK TX18/1514Z TN09/1507Z"
    },
    {
      "icao": "LEVC",
      "alert": "OK",
      "vis_m": 9999,
      "fzfg": false,
      "metar_trigger": false,
      "taf_trigger": false,
      "metar": "METAR LEVC 150830Z 29019KT CAVOK 13/M03 Q1021 NOSIG",
      "taf": ""
    },
    {
      "icao": "LEXJ",
      "alert": "OK",
      "vis_m": 9999,
      "fzfg": false,
      "metar_trigger": false,
      "taf_trigger": false,
      "metar": "METAR LEXJ 150830Z 24008KT 9999 FEW058 BKN086 12/04 Q1021",
      "taf": "TAF LEXJ 150800Z 1509/1609 24009KT 9999 SCT050 BKN080 TX15/1513Z TN11/1601Z"
    },
    {
      "icao": "LEZG",
      "alert": "OK",
      "vis_m": 9999,
      "fzfg": false,
      "metar_trigger": false,
      "taf_trigger": false,
      "metar": "METAR LEZG 150830Z 26015KT 9999 BKN040 BKN070 08/M00 Q1022 NOSIG",
      "taf": ""
    },
    {
      "icao": "LEZL",
      "alert": "OK",
      "vis_m": 9999,
      "fzfg": false,
      "metar_trigger": false,
      "taf_trigger": false,
      "metar": "METAR LEZL 150830Z VRB01KT CAVOK 08/06 Q1030 NOSIG",
      "taf": "TAF LEZL 150800Z 1509/1609 21005KT CAVOK TX18/1515Z TN06/1607Z"
    },
    {
      "icao": "LFBD",
      "alert": "OK",
      "vis_m": 6000,
      "fzfg": false,
      "metar_trigger": false,
      "taf_trigger": false,
      "metar": "METAR LFBD 150830Z AUTO 20011KT 6000 -RA BKN004/// OVC011/// //////CB 07/07 Q1018 TEMPO 4000 RA BKN007 BECMG 24015G25KT",
      "taf": "TAF LFBD 150500Z 1506/1612 19005KT 9999 BKN030 TX13/1612Z TN05/1506Z"
    },
    {
      "icao": "LFLL",
      "alert": "OK",
      "vis_m": 9999,
      "fzfg": false,
      "metar_trigger": false,
      "taf_trigger": false,
      "metar": "METAR LFLL 150830Z 33006KT 290V350 9999 OVC025 01/M02 Q1019 NOSIG",
      "taf": "TAF LFLL 150500Z 1506/1612 34010KT 9999 BKN020"
    },
    {
      "icao": "LFLS",
      "alert": "OK",
      "vis_m": 9999,
      "fzfg": false,
      "metar_trigger": false,
      "taf_trigger": false,
      "metar": "METAR LFLS 150830Z AUTO 31005KT 240V020 9999 OVC014 00/M02 Q1018 BECMG FEW012",
      "taf": "TAF LFLS 150200Z 1503/1603 35018KT 9999 BKN012"
    },
    {
      "icao": "LFMN",
      "alert": "OK",
      "vis_m": 9999,
      "fzfg": false,
      "metar_trigger": false,
      "taf_trigger": false,
      "metar": "METAR LFMN 150830Z 33010KT CAVOK 11/02 Q1006 NOSIG",
      "taf": "TAF LFMN 150800Z 1509/1615 34010KT CAVOK"
    },
    {
      "icao": "LFOB",
      "alert": "OK",
      "vis_m": 9999,
      "fzfg": false,
      "metar_trigger": false,
      "taf_trigger": false,
      "metar": "METAR LFOB 150830Z AUTO 16010KT 9999 SCT014 BKN041 OVC058 01/M01 Q1013 TEMPO 1200 +SN OVC002",
      "taf": "TAF LFOB 150500Z 1506/1606 17012KT 9999 OVC040"
    },
    {
      "icao": "LFPO",
      "alert": "OK",
      "vis_m": 8000,
      "fzfg": false,
      "metar_trigger": false,
      "taf_trigger": false,
      "metar": "METAR LFPO 150830Z 18010KT 8000 -SN BKN043 01/M02 Q1015 BECMG 4000 BKN007",
      "taf": ""
    },
    {
      "icao": "LFSB",
      "alert": "OK",
      "vis_m": 9999,
      "fzfg": false,
      "metar_trigger": false,
      "taf_trigger": false,
      "metar": "METAR LFSB 150830Z AUTO 34003KT 310V010 9999 OVC037 02/M00 Q1017 NOSIG",
      "taf": "TAF LFSB 150530Z 1506/1606 VRB03KT 9999 FEW009 BKN030"
    },
    {
      "icao": "LGAV",
      "alert": "OK",
      "vis_m": 9000,
      "fzfg": false,
      "metar_trigger": false,
      "taf_trigger": false,
      "metar": "METAR LGAV 150820Z 18026G39KT 9000 FEW020 SCT070 20/10 Q1003 NOSIG",
      "taf": "TAF LGAV 150500Z 1506/1606 16012KT 9999 SCT025"
    },
    {
      "icao": "LGTS",
      "alert": "OK",
      "vis_m": 7000,
      "fzfg": false,
      "metar_trigger": false,
      "taf_trigger": false,
      "metar": "METAR LGTS 150820Z 12011KT 7000 -RA FEW006 BKN025 16/14 Q1000 NOSIG",
      "taf": "TAF LGTS 150500Z 1506/1606 13015KT 9999 SCT025"
    },
    {
      "icao": "LHBP",
      "alert": "OK",
      "vis_m": 9999,
      "fzfg": false,
      "metar_trigger": false,
      "taf_trigger": false,
      "metar": "METAR LHBP 150830Z 31016KT 9999 FEW028 BKN040 03/M01 Q1005 NOSIG",
      "taf": "TAF LHBP 150515Z 1506/1606 32007KT 9999 SCT020 BKN050"
    },
    {
      "icao": "LHDC",
      "alert": "OK",
      "vis_m": 9999,
      "fzfg": false,
      "metar_trigger": false,
      "taf_trigger": false,
      "metar": "METAR LHDC 150815Z AUTO 03017KT 350V060 9999 -RA OVC048 03/01 Q1003 NOSIG",
      "taf": "TAF LHDC 150815Z 1509/1518 01020G35KT CAVOK"
    },
    {
      "icao": "LIBD",
      "alert": "OK",
      "vis_m": 9000,
      "fzfg": false,
      "metar_trigger": false,
      "taf_trigger": false,
      "metar": "METAR LIBD 150820Z 25011KT 9000 -DZ BKN030 11/09 Q0998",
      "taf": "TAF LIBD 150500Z 1506/1606 26012KT 9999 BKN030"
    },
    {
      "icao": "LIBG",
      "alert": "OK",
      "vis_m": 9999,
      "fzfg": false,
      "metar_trigger": false,
      "taf_trigger": false,
      "metar": "METAR LIBG 150750Z VRB01KT 9999 FEW040 10/10 Q0999",
      "taf": "TAF LIBG 150800Z 1509/1518 VRB05KT 9999 SCT040"
    },
    {
      "icao": "LIBP",
      "alert": "OK",
      "vis_m": 9999,
      "fzfg": false,
      "metar_trigger": false,
      "taf_trigger": false,
      "metar": "METAR LIBP 150820Z AUTO 23005KT 210V270 9999 -RA FEW016/// BKN040/// OVC052/// 11/11 Q1002",
      "taf": "TAF LIBP 150500Z 1506/1606 31012KT 9999 BKN030"
    },
    {
      "icao": "LIBR",
      "alert": "OK",
      "vis_m": 9999,
      "fzfg": false,
      "metar_trigger": false,
      "taf_trigger": false,
      "metar": "METAR LIBR 150820Z 22005KT 9999 -DZ FEW045 12/09 Q0999",
      "taf": "TAF LIBR 150500Z 1506/1606 24015KT 9999 SCT030"
    },
    {
      "icao": "LICA",
      "alert": "OK",
      "vis_m": 9999,
      "fzfg": false,
      "metar_trigger": false,
      "taf_trigger": false,
      "metar": "METAR LICA 150820Z AUTO 08003KT 9999 OVC064/// 13/10 Q1000",
      "taf": "TAF LICA 150500Z 1506/1606 08008KT 9999 SCT020 SCT050"
    },
    {
      "icao": "LICC",
      "alert": "OK",
      "vis_m": 9999,
      "fzfg": false,
      "metar_trigger": false,
      "taf_trigger": false,
      "metar": "METAR LICC 150820Z 27004KT 9999 FEW025 SCT050 12/09 Q0999",
      "taf": "TAF LICC 150500Z 1506/1606 26007KT 9999 SCT020"
    },
    {
      "icao": "LICJ",
      "alert": "OK",
      "vis_m": 9999,
      "fzfg": false,
      "metar_trigger": false,
      "taf_trigger": false,
      "metar": "METAR LICJ 150820Z 32016KT 9999 FEW017 SCT030 BKN060 14/11 Q1000",
      "taf": "TAF LICJ 150500Z 1506/1606 25018KT 9999 SCT030"
    },
    {
      "icao": "LIMC",
      "alert": "OK",
      "vis_m": 9999,
      "fzfg": false,
      "metar_trigger": false,
      "taf_trigger": false,
      "metar": "METAR LIMC 150820Z 05007KT CAVOK 12/M07 Q1007 NOSIG",
      "taf": "TAF LIMC 150500Z 1506/1612 01012KT CAVOK"
    },
    {
      "icao": "LIME",
      "alert": "OK",
      "vis_m": 9999,
      "fzfg": false,
      "metar_trigger": false,
      "taf_trigger": false,
      "metar": "METAR LIME 150820Z AUTO VRB02KT 9999 NCD 08/03 Q1006",
      "taf": "TAF LIME 150500Z 1506/1606 VRB05KT CAVOK"
    },
    {
      "icao": "LIMF",
      "alert": "OK",
      "vis_m": 9999,
      "fzfg": false,
      "metar_trigger": false,
      "taf_trigger": false,
      "metar": "METAR LIMF 150820Z VRB01KT CAVOK 05/00 Q1007",
      "taf": "TAF LIMF 150500Z 1506/1606 VRB05KT CAVOK"
    },
    {
      "icao": "LIMJ",
      "alert": "OK",
      "vis_m": 9999,
      "fzfg": false,
      "metar_trigger": false,
      "taf_trigger": false,
      "metar": "METAR LIMJ 150820Z VRB06KT CAVOK 14/M05 Q1005 WS R10",
      "taf": "TAF LIMJ 150500Z 1506/1606 03013KT CAVOK"
    },
    {
      "icao": "LIPE",
      "alert": "OK",
      "vis_m": 9999,
      "fzfg": false,
      "metar_trigger": false,
      "taf_trigger": false,
      "metar": "METAR LIPE 150820Z 28008KT 9999 SCT060 10/08 Q1006",
      "taf": "TAF LIPE 150500Z 1506/1606 VRB05KT 8000 SCT030"
    },
    {
      "icao": "LIPH",
      "alert": "OK",
      "vis_m": 9999,
      "fzfg": false,
      "metar_trigger": false,
      "taf_trigger": false,
      "metar": "METAR LIPH 150820Z 28006KT 9999 SCT080 10/07 Q1005",
      "taf": "TAF LIPH 150500Z 1506/1606 04007KT 8000 BKN040"
    },
    {
      "icao": "LIPQ",
      "alert": "OK",
      "vis_m": 9999,
      "fzfg": false,
      "metar_trigger": false,
      "taf_trigger": false,
      "metar": "METAR LIPQ 150820Z AUTO VRB01KT 9999 BKN110/// BKN160/// 10/08 Q1004",
      "taf": ""
    },
    {
      "icao": "LIPR",
      "alert": "OK",
      "vis_m": 8000,
      "fzfg": false,
      "metar_trigger": false,
      "taf_trigger": false,
      "metar": "METAR LIPR 150820Z 33010KT 8000 -RA SCT005 BKN040 10/09 Q1004",
      "taf": "TAF LIPR 150500Z 1506/1606 33013KT 8000 BKN030"
    },
    {
      "icao": "LIPX",
      "alert": "OK",
      "vis_m": 9999,
      "fzfg": false,
      "metar_trigger": false,
      "taf_trigger": false,
      "metar": "METAR LIPX 150820Z 02005KT 330V040 CAVOK 08/06 Q1005",
      "taf": "TAF LIPX 150500Z 1506/1606 VRB05KT 8000 FEW050"
    },
    {
      "icao": "LIPY",
      "alert": "OK",
      "vis_m": 9999,
      "fzfg": false,
      "metar_trigger": false,
      "taf_trigger": false,
      "metar": "METAR LIPY 150820Z AUTO 32012KT 9999 -RA OVC025/// 11/10 Q1003",
      "taf": "TAF LIPY 150500Z 1506/1606 33013KT 8000 BKN040"
    },
    {
      "icao": "LIPZ",
      "alert": "OK",
      "vis_m": 9999,
      "fzfg": false,
      "metar_trigger": false,
      "taf_trigger": false,
      "metar": "METAR LIPZ 150820Z 31007KT CAVOK 10/07 Q1005 NOSIG",
      "taf": "TAF LIPZ 150500Z 1506/1612 VRB05KT 8000 BKN030"
    },
    {
      "icao": "LIRF",
      "alert": "OK",
      "vis_m": 9999,
      "fzfg": false,
      "metar_trigger": false,
      "taf_trigger": false,
      "metar": "METAR LIRF 150820Z 30008KT CAVOK 12/09 Q1001 NOSIG",
      "taf": "TAF LIRF 150500Z 1506/1612 34013KT 9999 FEW040"
    },
    {
      "icao": "LIRN",
      "alert": "OK",
      "vis_m": 9999,
      "fzfg": false,
      "metar_trigger": false,
      "taf_trigger": false,
      "metar": "METAR LIRN 150820Z 05003KT 010V090 9999 SCT070 10/09 Q1000 NOSIG",
      "taf": "TAF LIRN 150500Z 1506/1606 VRB05KT 9999 SCT040"
    },
    {
      "icao": "LIRP",
      "alert": "OK",
      "vis_m": 9999,
      "fzfg": false,
      "metar_trigger": false,
      "taf_trigger": false,
      "metar": "METAR LIRP 150815Z 12002KT 9999 FEW080 10/09 Q1004 NOSIG",
      "taf": "TAF LIRP 150500Z 1506/1606 VRB03KT CAVOK"
    },
    {
      "icao": "LIRZ",
      "alert": "OK",
      "vis_m": 9999,
      "fzfg": false,
      "metar_trigger": false,
      "taf_trigger": false,
      "metar": "METAR LIRZ 150820Z AUTO 33008KT 9999 BKN034/// 10/07 Q1003",
      "taf": "TAF LIRZ 150500Z 1506/1606 02011KT 9999 FEW030"
    },
    {
      "icao": "LJLJ",
      "alert": "OK",
      "vis_m": 9999,
      "fzfg": false,
      "metar_trigger": false,
      "taf_trigger": false,
      "metar": "METAR LJLJ 150830Z VRB02KT 9999 FEW065 BKN110 07/03 Q1005 NOSIG",
      "taf": "TAF LJLJ 150500Z 1506/1606 20004KT 9999 FEW002 SCT045 BKN090"
    },
    {
      "icao": "LKMT",
      "alert": "OK",
      "vis_m": 8000,
      "fzfg": false,
      "metar_trigger": false,
      "taf_trigger": false,
      "metar": "METAR LKMT 150830Z 02011KT 8000 BKN010 OVC020 M03/M03 Q1014 NOSIG",
      "taf": "TAF LKMT 150500Z 1506/1606 01012KT 9999 BKN020"
    },
    {
      "icao": "LKPR",
      "alert": "OK",
      "vis_m": 9999,
      "fzfg": false,
      "metar_trigger": false,
      "taf_trigger": false,
      "metar": "METAR LKPR 150830Z 32008KT 9999 OVC035 M02/M07 Q1017 NOSIG",
      "taf": "TAF LKPR 150800Z 1509/1615 34010KT 9999 OVC035"
    },
    {
      "icao": "LLBG",
      "alert": "OK",
      "vis_m": 7000,
      "fzfg": false,
      "metar_trigger": false,
      "taf_trigger": false,
      "metar": "METAR LLBG 150820Z VRB02KT 7000 NSC 20/06 Q1022 TEMPO 5000 DU",
      "taf": "TAF LLBG 150508Z 1506/1606 VRB04KT 8000 NSC"
    },
    {
      "icao": "LMML",
      "alert": "OK",
      "vis_m": 9999,
      "fzfg": false,
      "metar_trigger": false,
      "taf_trigger": false,
      "metar": "METAR LMML 150845Z 25022G34KT 9999 SCT020 14/10 Q1004 NOSIG",
      "taf": "TAF LMML 150500Z 1506/1606 25018KT 9999 FEW018"
    },
    {
      "icao": "LOWW",
      "alert": "OK",
      "vis_m": 9999,
      "fzfg": false,
      "metar_trigger": false,
      "taf_trigger": false,
      "metar": "METAR LOWW 150820Z 32017KT 9999 FEW015 SCT017 BKN034 00/M03 Q1014 NOSIG",
      "taf": "TAF LOWW 150815Z 1509/1615 34010KT 9999 FEW020 BKN035 TX01/1509Z TNM05/1601Z"
    },
    {
      "icao": "LPFR",
      "alert": "OK",
      "vis_m": 9999,
      "fzfg": false,
      "metar_trigger": false,
      "taf_trigger": false,
      "metar": "METAR LPFR 150830Z 30003KT 260V350 CAVOK 10/08 Q1031",
      "taf": "TAF LPFR 150500Z 1506/1606 VRB02KT CAVOK"
    },
    {
      "icao": "LPMA",
      "alert": "OK",
      "vis_m": 9999,
      "fzfg": false,
      "metar_trigger": false,
      "taf_trigger": false,
      "metar": "METAR LPMA 150830Z 01013KT 340V040 9999 SCT020 15/09 Q1031",
      "taf": "TAF LPMA 150500Z 1506/1606 02012KT 9999 SCT015"
    },
    {
      "icao": "LPPR",
      "alert": "OK",
      "vis_m": 9999,
      "fzfg": false,
      "metar_trigger": false,
      "taf_trigger": false,
      "metar": "METAR LPPR 150830Z VRB02KT 9999 FEW012 BKN045 11/10 Q1029",
      "taf": "TAF LPPR 150500Z 1506/1606 VRB02KT 9999 FEW012 BKN025"
    },
    {
      "icao": "LPPS",
      "alert": "OK",
      "vis_m": 9999,
      "fzfg": false,
      "metar_trigger": false,
      "taf_trigger": false,
      "metar": "METAR LPPS 150830Z 06008KT 9999 SCT015 14/09 Q1032",
      "taf": "TAF LPPS 150500Z 1506/1612 06010KT 9999 SCT015"
    },
    {
      "icao": "LPPT",
      "alert": "OK",
      "vis_m": 9999,
      "fzfg": false,
      "metar_trigger": false,
      "taf_trigger": false,
      "metar": "METAR LPPT 150830Z 23004KT 200V260 9999 FEW015 BKN025 11/10 Q1031",
      "taf": "TAF LPPT 150500Z 1506/1612 29005KT 9999 SCT030"
    },
    {
      "icao": "LQBK",
      "alert": "OK",
      "vis_m": 6000,
      "fzfg": false,
      "metar_trigger": false,
      "taf_trigger": false,
      "metar": "METAR LQBK 150830Z 30013KT 6000 SN BKN010 OVC023 02/01 Q1006 TEMPO 30019G30KT",
      "taf": "TAF LQBK 150500Z 1506/1606 35012KT 9999 RA SCT007 BKN012 OVC020 TX05/1506Z TNM06/1606Z"
    },
    {
      "icao": "LQSA",
      "alert": "OK",
      "vis_m": 7000,
      "fzfg": false,
      "metar_trigger": false,
      "taf_trigger": false,
      "metar": "METAR LQSA 150830Z 11003KT 060V150 7000 RA FEW006 BKN010 OVC035 02/02 Q1001 BECMG 2000 SN",
      "taf": ""
    },
    {
      "icao": "LQTZ",
      "alert": "OK",
      "vis_m": 5000,
      "fzfg": false,
      "metar_trigger": false,
      "taf_trigger": false,
      "metar": "METAR LQTZ 150830Z 28012KT 5000 -RA BR BKN007 OVC015 04/04 Q1002",
      "taf": "TAF LQTZ 150500Z 1506/1606 27005KT 9999 SCT005 BKN012 OVC025 TX06/1506Z TNM06/1606Z"
    },
    {
      "icao": "LRBC",
      "alert": "OK",
      "vis_m": 2200,
      "fzfg": false,
      "metar_trigger": false,
      "taf_trigger": false,
      "metar": "METAR LRBC 150830Z 36004KT 2200 -RA BR OVC006 04/04 Q1005",
      "taf": "TAF LRBC 150800Z 1509/1518 VRB04KT 1500 -RA BR BKN002 OVC020"
    },
    {
      "icao": "LRBS",
      "alert": "OK",
      "vis_m": 3000,
      "fzfg": false,
      "metar_trigger": false,
      "taf_trigger": false,
      "metar": "METAR LRBS 150830Z 04005KT 360V070 3000 -RA FEW002 07/06 Q1002 NOSIG",
      "taf": ""
    },
    {
      "icao": "LRBV",
      "alert": "OK",
      "vis_m": 9999,
      "fzfg": false,
      "metar_trigger": false,
      "taf_trigger": false,
      "metar": "METAR LRBV 150830Z 21002KT 9999 BKN036 OVC074 06/03 Q1001",
      "taf": "TAF LRBV 150800Z 1509/1518 VRB04KT 9999 SCT035 BKN055"
    },
    {
      "icao": "LRCL",
      "alert": "OK",
      "vis_m": 9999,
      "fzfg": false,
      "metar_trigger": false,
      "taf_trigger": false,
      "metar": "METAR LRCL 150830Z VRB01KT 9999 -RA OVC056 04/03 Q1002",
      "taf": "TAF LRCL 150800Z 1509/1518 VRB04KT 9999 BKN045"
    },
    {
      "icao": "LRCV",
      "alert": "OK",
      "vis_m": 6000,
      "fzfg": false,
      "metar_trigger": false,
      "taf_trigger": false,
      "metar": "METAR LRCV 150830Z 08011KT 6000 -RA SCT049 07/07 Q1000",
      "taf": "TAF LRCV 150800Z 1509/1518 08010KT 5000 -RA BR BKN040"
    },
    {
      "icao": "LRIA",
      "alert": "OK",
      "vis_m": 1800,
      "fzfg": false,
      "metar_trigger": false,
      "taf_trigger": false,
      "metar": "METAR LRIA 150830Z 11010KT 1800 -RA BR BKN001 OVC009 05/05 Q1005",
      "taf": "TAF LRIA 150800Z 1509/1518 10010KT 3000 -RA BR OVC003"
    },
    {
      "icao": "LROP",
      "alert": "OK",
      "vis_m": 2500,
      "fzfg": false,
      "metar_trigger": false,
      "taf_trigger": false,
      "metar": "METAR LROP 150830Z 04008KT 2500 -RA BR SCT003 SCT014 06/06 Q1002 NOSIG",
      "taf": ""
    },
    {
      "icao": "LRSB",
      "alert": "OK",
      "vis_m": 9999,
      "fzfg": false,
      "metar_trigger": false,
      "taf_trigger": false,
      "metar": "METAR LRSB 150830Z 08007KT 9999 FEW032 BKN050 06/05 Q1000",
      "taf": "TAF LRSB 150500Z 1506/1606 13005KT 9999 BKN050"
    },
    {
      "icao": "LRSM",
      "alert": "OK",
      "vis_m": 9999,
      "fzfg": false,
      "metar_trigger": false,
      "taf_trigger": false,
      "metar": "METAR LRSM 150830Z 34007KT CAVOK 05/03 Q1002",
      "taf": "TAF LRSM 150800Z 1509/1518 VRB04KT CAVOK"
    },
    {
      "icao": "LRSV",
      "alert": "OK",
      "vis_m": 200,
      "fzfg": false,
      "metar_trigger": false,
      "taf_trigger": false,
      "metar": "METAR LRSV 150830Z 32007KT 0200 R34/0800N FG VV001 02/02 Q1004",
      "taf": "TAF LRSV 150800Z 1509/1518 33010KT 0300 FG VV002"
    },
    {
      "icao": "LRTM",
      "alert": "OK",
      "vis_m": 9999,
      "fzfg": false,
      "metar_trigger": false,
      "taf_trigger": false,
      "metar": "METAR LRTM 150830Z VRB02KT 9999 -RA FEW032 SCT042 BKN046 05/03 Q1002",
      "taf": "TAF LRTM 150800Z 1509/1518 VRB04KT 9999 BKN040"
    },
    {
      "icao": "LRTR",
      "alert": "OK",
      "vis_m": 7000,
      "fzfg": false,
      "metar_trigger": false,
      "taf_trigger": false,
      "metar": "METAR LRTR 150830Z 02007KT 7000 RA FEW025 SCT035 BKN040 08/08 Q1001",
      "taf": "TAF LRTR 150500Z 1506/1606 09006KT 5000 -RA BKN040"
    },
    {
      "icao": "LTAC",
      "alert": "OK",
      "vis_m": 9999,
      "fzfg": false,
      "metar_trigger": false,
      "taf_trigger": false,
      "metar": "METAR LTAC 150820Z VRB02KT CAVOK 05/02 Q1019 NOSIG RMK RWY21C VRB02KT RWY03L VRB01KT RWY21R 00000KT RWY03R 00000KT RWY21L 00000KT",
      "taf": ""
    },
    {
      "icao": "LTFM",
      "alert": "OK",
      "vis_m": 9999,
      "fzfg": false,
      "metar_trigger": false,
      "taf_trigger": false,
      "metar": "METAR LTFM 150820Z 18013KT CAVOK 18/05 Q1007 NOSIG RMK RWY17L 17013KT RWY34L 17016KT RWY16R 17016KT RWY36 17014KT RWY18 18014KT",
      "taf": "TAF LTFM 150440Z 1506/1612 16012KT CAVOK"
    },
    {
      "icao": "LUKK",
      "alert": "OK",
      "vis_m": 400,
      "fzfg": false,
      "metar_trigger": false,
      "taf_trigger": false,
      "metar": "METAR LUKK 150830Z 07007KT 0400 0300SE R08/0550N -RA FG VV001 03/03 Q1005 TEMPO 0800 FG",
      "taf": ""
    },
    {
      "icao": "LWOH",
      "alert": "OK",
      "vis_m": 9999,
      "fzfg": false,
      "metar_trigger": false,
      "taf_trigger": false,
      "metar": "METAR LWOH 150850Z 15006KT 9999 FEW015 BKN035 11/07 Q0999",
      "taf": "TAF LWOH 150840Z 1509/1609 15010KT 9999 -RA BKN015 OVC035"
    },
    {
      "icao": "LWSK",
      "alert": "OK",
      "vis_m": 9999,
      "fzfg": false,
      "metar_trigger": false,
      "taf_trigger": false,
      "metar": "METAR LWSK 150850Z VRB02KT 9999 SCT017 BKN050 10/08 Q0999 NOSIG",
      "taf": "TAF LWSK 150840Z 1509/1609 22008KT 9999 SCT020 BKN050"
    },
    {
      "icao": "LYBE",
      "alert": "OK",
      "vis_m": 8000,
      "fzfg": false,
      "metar_trigger": false,
      "taf_trigger": false,
      "metar": "METAR LYBE 150830Z 06006KT 8000 -RA BKN005 BKN033 08/07 Q0999 RERA BECMG 36015KT",
      "taf": "TAF LYBE 150500Z 1506/1606 06008KT 8000 RA BKN006 BKN025 TX07/1506Z TNM03/1606Z"
    },
    {
      "icao": "LYNI",
      "alert": "OK",
      "vis_m": 9999,
      "fzfg": false,
      "metar_trigger": false,
      "taf_trigger": false,
      "metar": "METAR LYNI 150830Z 11011KT 9999 FEW017 SCT027 BKN090 10/09 Q0998 NOSIG",
      "taf": "TAF LYNI 150500Z 1506/1606 10008KT 9999 FEW017 BKN040 BKN070 TX12/1511Z TN00/1606Z"
    },
    {
      "icao": "LYPG",
      "alert": "OK",
      "vis_m": 9999,
      "fzfg": false,
      "metar_trigger": false,
      "taf_trigger": false,
      "metar": "METAR LYPG 150830Z VRB01KT 9999 -RA FEW010 BKN040 OVC083 10/10 Q0998 NOSIG",
      "taf": "TAF LYPG 150500Z 1506/1606 17005KT 9999 FEW010 BKN034 OVC070 TX11/1512Z TN07/1605Z"
    },
    {
      "icao": "LZIB",
      "alert": "OK",
      "vis_m": 9999,
      "fzfg": false,
      "metar_trigger": false,
      "taf_trigger": false,
      "metar": "METAR LZIB 150830Z 34019KT 9999 BKN026 01/M04 Q1013 NOSIG",
      "taf": "TAF LZIB 150515Z 1506/1606 33017KT 9999 BKN020"
    },
    {
      "icao": "LZKZ",
      "alert": "OK",
      "vis_m": 9999,
      "fzfg": false,
      "metar_trigger": false,
      "taf_trigger": false,
      "metar": "METAR LZKZ 150830Z 01026KT CAVOK 01/M04 Q1006 NOSIG",
      "taf": "TAF LZKZ 150515Z 1506/1606 36023KT CAVOK"
    },
    {
      "icao": "LZTT",
      "alert": "OK",
      "vis_m": 3500,
      "fzfg": false,
      "metar_trigger": false,
      "taf_trigger": false,
      "metar": "METAR LZTT 150830Z 07009KT 3500 -SN BKN008 OVC015 M03/M04 Q1007 TEMPO FEW013",
      "taf": "TAF LZTT 150515Z 1506/1606 07012KT 9999 OVC020"
    },
    {
      "icao": "OEJN",
      "alert": "OK",
      "vis_m": 9999,
      "fzfg": false,
      "metar_trigger": false,
      "taf_trigger": false,
      "metar": "METAR OEJN 150800Z 32007KT CAVOK 29/17 Q1015 NOSIG",
      "taf": "TAF OEJN 150500Z 1506/1612 29010KT CAVOK"
    },
    {
      "icao": "OEMA",
      "alert": "OK",
      "vis_m": 9999,
      "fzfg": false,
      "metar_trigger": false,
      "taf_trigger": false,
      "metar": "METAR OEMA 150800Z 05011KT CAVOK 25/M03 Q1023 NOSIG",
      "taf": "TAF OEMA 150500Z 1506/1612 08015KT 7000 NSC"
    },
    {
      "icao": "OJAI",
      "alert": "OK",
      "vis_m": 2500,
      "fzfg": false,
      "metar_trigger": false,
      "taf_trigger": false,
      "metar": "METAR OJAI 150800Z 12004KT 2500 DU NSC 14/03 Q1025 NOSIG",
      "taf": "TAF OJAI 150500Z 1506/1612 14010KT 2000 DU NSC"
    },
    {
      "icao": "OMAA",
      "alert": "OK",
      "vis_m": 9999,
      "fzfg": false,
      "metar_trigger": false,
      "taf_trigger": false,
      "metar": "METAR OMAA 150830Z 25009KT 220V290 CAVOK 31/02 Q1015 BECMG 31013KT",
      "taf": "TAF OMAA 150500Z 1506/1612 16006KT 8000 NSC"
    },
    {
      "icao": "OMDB",
      "alert": "OK",
      "vis_m": 9999,
      "fzfg": false,
      "metar_trigger": false,
      "taf_trigger": false,
      "metar": "METAR OMDB 150830Z 29009KT CAVOK 29/06 Q1015 NOSIG",
      "taf": "TAF OMDB 150500Z 1506/1612 20005KT CAVOK"
    },
    {
      "icao": "UAAA",
      "alert": "OK",
      "vis_m": 2400,
      "fzfg": false,
      "metar_trigger": false,
      "taf_trigger": false,
      "metar": "METAR UAAA 150830Z 00000MPS 2400 BR SCT010 BKN200 02/01 Q1018 NOSIG",
      "taf": "TAF UAAA 150503Z 1506/1606 VRB01MPS 1100 BR FU OVC004 TX01/1509Z TNM02/1602Z"
    },
    {
      "icao": "UBBB",
      "alert": "OK",
      "vis_m": 9999,
      "fzfg": false,
      "metar_trigger": false,
      "taf_trigger": false,
      "metar": "METAR UBBB 150830Z 33027G38KT 9999 FEW060CB 13/07 Q1017 WS R35 NOSIG",
      "taf": "TAF UBBB 150459Z 1506/1606 32020G30KT 9999 SCT012 BKN035 TX11/1510Z TN05/1601Z"
    },
    {
      "icao": "UDSG",
      "alert": "OK",
      "vis_m": 9999,
      "fzfg": false,
      "metar_trigger": false,
      "taf_trigger": false,
      "metar": "METAR UDSG 150830Z 22004KT 9999 NSC 03/M00 Q1023 NOSIG",
      "taf": "TAF UDSG 150458Z 1506/1606 VRB06KT 9999 SCT040"
    },
    {
      "icao": "UDYZ",
      "alert": "OK",
      "vis_m": 9999,
      "fzfg": false,
      "metar_trigger": false,
      "taf_trigger": false,
      "metar": "METAR UDYZ 150830Z VRB02KT 9999 NSC 10/04 Q1021 NOSIG",
      "taf": "TAF UDYZ 150500Z 1506/1606 20006KT 9999 FEW040"
    },
    {
      "icao": "UGKO",
      "alert": "OK",
      "vis_m": 9999,
      "fzfg": false,
      "metar_trigger": false,
      "taf_trigger": false,
      "metar": "METAR UGKO 150830Z VRB02KT 9999 BKN013 12/09 Q1022 NOSIG",
      "taf": "TAF UGKO 150500Z 1506/1606 30007KT 9999 BKN050 TX18/1511Z TN10/1506Z"
    }
  ]
}