{
  "ts_utc": "2026-02-19T17:32:37Z",
  "threshold_m": 150,
  "source": "stations_override.txt (ICAO list) + aviationweather.gov (METAR/TAF raw)",
  "station_count": 159,
  "stations": [
    {
      "icao": "BIKF",
      "alert": "OK",
      "vis_m": 9999,
      "fzfg": false,
      "metar_trigger": false,
      "taf_trigger": false,
      "metar": "METAR BIKF 191700Z 07008KT CAVOK 00/M06 Q1009",
      "taf": "TAF BIKF 191631Z 1918/2018 05012KT CAVOK TX01/2015Z TNM03/2006Z"
    },
    {
      "icao": "BKPR",
      "alert": "OK",
      "vis_m": 9999,
      "fzfg": false,
      "metar_trigger": false,
      "taf_trigger": false,
      "metar": "METAR BKPR 191730Z 19007KT 9999 BKN065 06/M00 Q1012 NOSIG",
      "taf": "TAF BKPR 191730Z 1918/2018 18006KT 9999 BKN050"
    },
    {
      "icao": "EBCI",
      "alert": "OK",
      "vis_m": 9999,
      "fzfg": false,
      "metar_trigger": false,
      "taf_trigger": false,
      "metar": "METAR EBCI 191720Z 10005KT 9999 SCT011 BKN030 07/05 Q1003 TEMPO BKN010",
      "taf": "TAF EBCI 191718Z 1918/2024 VRB04KT 9999 SCT015 BKN020"
    },
    {
      "icao": "EDDB",
      "alert": "OK",
      "vis_m": 9999,
      "fzfg": false,
      "metar_trigger": false,
      "taf_trigger": false,
      "metar": "METAR EDDB 191720Z AUTO 06006KT CAVOK M03/M08 Q1015 NOSIG",
      "taf": "TAF EDDB 191700Z 1918/2018 06008KT CAVOK"
    },
    {
      "icao": "EDDH",
      "alert": "OK",
      "vis_m": 9999,
      "fzfg": false,
      "metar_trigger": false,
      "taf_trigger": false,
      "metar": "METAR EDDH 191720Z AUTO 09009KT CAVOK M03/M07 Q1015 NOSIG",
      "taf": "TAF EDDH 191700Z 1918/2024 09009KT CAVOK"
    },
    {
      "icao": "EDDK",
      "alert": "OK",
      "vis_m": 9999,
      "fzfg": false,
      "metar_trigger": false,
      "taf_trigger": false,
      "metar": "METAR EDDK 191720Z AUTO 12008KT 090V150 9999 FEW022 BKN037 04/00 Q1006 NOSIG",
      "taf": "TAF EDDK 191700Z 1918/2024 11007KT 9999 BKN030"
    },
    {
      "icao": "EDDN",
      "alert": "OK",
      "vis_m": 4500,
      "fzfg": false,
      "metar_trigger": false,
      "taf_trigger": false,
      "metar": "METAR EDDN 191720Z AUTO VRB02KT 4500 -SN BR FEW021 SCT029 00/M00 Q1006 TEMPO 2500",
      "taf": "TAF EDDN 191700Z 1918/2018 03004KT 4000 -SN SCT010 BKN020"
    },
    {
      "icao": "EDDS",
      "alert": "OK",
      "vis_m": 9999,
      "fzfg": false,
      "metar_trigger": false,
      "taf_trigger": false,
      "metar": "METAR EDDS 191720Z AUTO 08005KT 9999 VCSH FEW009 OVC028 OVC045 FEW///TCU 03/02 Q1003 NOSIG",
      "taf": "TAF EDDS 191700Z 1918/2018 07005KT 9999 FEW010 BKN035"
    },
    {
      "icao": "EDFH",
      "alert": "OK",
      "vis_m": 1800,
      "fzfg": true,
      "metar_trigger": false,
      "taf_trigger": false,
      "metar": "METAR EDFH 191720Z 09009KT 070V160 1800 BR OVC001 M00/M00 Q1003",
      "taf": "TAF EDFH 191700Z 1918/2018 10008KT 0200 FZFG VV001"
    },
    {
      "icao": "EDJA",
      "alert": "OK",
      "vis_m": 4800,
      "fzfg": false,
      "metar_trigger": false,
      "taf_trigger": false,
      "metar": "METAR EDJA 191720Z 06003KT 4800 -DZ BKN004 OVC023 02/01 Q1002",
      "taf": "TAF EDJA 191400Z 1915/1924 VRB03KT 8000 SCT003 BKN015"
    },
    {
      "icao": "EDLW",
      "alert": "OK",
      "vis_m": 9999,
      "fzfg": false,
      "metar_trigger": false,
      "taf_trigger": false,
      "metar": "METAR EDLW 191720Z 05012KT CAVOK 03/M02 Q1006",
      "taf": "TAF EDLW 191700Z 1918/2018 08011KT 9999 SCT030"
    },
    {
      "icao": "EDNY",
      "alert": "OK",
      "vis_m": 9999,
      "fzfg": false,
      "metar_trigger": false,
      "taf_trigger": false,
      "metar": "METAR EDNY 191720Z 13002KT 9999 -RA OVC025 05/04 Q1003",
      "taf": "TAF EDNY 191400Z 1915/1924 10005KT 8000 FEW008 BKN035"
    },
    {
      "icao": "EDSB",
      "alert": "OK",
      "vis_m": 8000,
      "fzfg": false,
      "metar_trigger": false,
      "taf_trigger": false,
      "metar": "METAR EDSB 191720Z 02008KT 8000 -RA FEW007 BKN029 OVC035 05/04 Q1003",
      "taf": "TAF EDSB 191700Z 1918/2018 02008KT 9999 SCT020 BKN035"
    },
    {
      "icao": "EETN",
      "alert": "OK",
      "vis_m": 9999,
      "fzfg": false,
      "metar_trigger": false,
      "taf_trigger": false,
      "metar": "METAR EETN 191720Z 01005KT 340V050 9999 -SN OVC013 M10/M12 Q1011 NOSIG",
      "taf": "TAF EETN 191730Z 1918/2018 01008KT 9999 OVC010"
    },
    {
      "icao": "EFTU",
      "alert": "OK",
      "vis_m": 9999,
      "fzfg": false,
      "metar_trigger": false,
      "taf_trigger": false,
      "metar": "METAR EFTU 191720Z AUTO VRB02KT CAVOK M11/M14 Q1013",
      "taf": "TAF EFTU 191432Z 1915/2015 01003KT CAVOK"
    },
    {
      "icao": "EGBB",
      "alert": "OK",
      "vis_m": 7000,
      "fzfg": false,
      "metar_trigger": false,
      "taf_trigger": false,
      "metar": "METAR EGBB 191720Z 30005KT 7000 OVC014 04/02 Q1008",
      "taf": "TAF EGBB 191657Z 1918/2018 30007KT 9999 BKN004"
    },
    {
      "icao": "EGGP",
      "alert": "OK",
      "vis_m": 9999,
      "fzfg": false,
      "metar_trigger": false,
      "taf_trigger": false,
      "metar": "METAR EGGP 191720Z 28007KT 9999 BKN028 05/02 Q1009",
      "taf": "TAF EGGP 191702Z 1918/2018 VRB04KT 9999 SCT025"
    },
    {
      "icao": "EGGW",
      "alert": "OK",
      "vis_m": 9999,
      "fzfg": false,
      "metar_trigger": false,
      "taf_trigger": false,
      "metar": "METAR EGGW 191720Z AUTO 32007KT 9999 BKN006 BKN015 OVC024 04/03 Q1007",
      "taf": "TAF EGGW 191658Z 1918/2018 30008KT 8000 BKN008"
    },
    {
      "icao": "EGKK",
      "alert": "OK",
      "vis_m": 9999,
      "fzfg": false,
      "metar_trigger": false,
      "taf_trigger": false,
      "metar": "METAR EGKK 191720Z 32006KT 9999 FEW010 BKN018 05/04 Q1007",
      "taf": "TAF EGKK 191655Z 1918/2024 33008KT 9999 SCT010 BKN018"
    },
    {
      "icao": "EGNM",
      "alert": "OK",
      "vis_m": 3000,
      "fzfg": false,
      "metar_trigger": false,
      "taf_trigger": false,
      "metar": "METAR EGNM 191720Z VRB01KT 3000 -DZ BR SCT004 OVC010 03/02 Q1007",
      "taf": "TAF EGNM 191703Z 1918/2018 VRB02KT 3000 -DZ BKN003"
    },
    {
      "icao": "EGPD",
      "alert": "OK",
      "vis_m": 9999,
      "fzfg": false,
      "metar_trigger": false,
      "taf_trigger": false,
      "metar": "METAR EGPD 191720Z COR 16012KT 9999 BKN023 05/01 Q1007 NOSIG",
      "taf": "TAF EGPD 191654Z 1918/2018 17013KT 9999 BKN020"
    },
    {
      "icao": "EGPF",
      "alert": "OK",
      "vis_m": 9999,
      "fzfg": false,
      "metar_trigger": false,
      "taf_trigger": false,
      "metar": "METAR EGPF 191720Z AUTO 17005KT 9999 -RA BKN033 OVC042 06/02 Q1007",
      "taf": "TAF EGPF 191657Z 1918/2018 15007KT 9999 FEW015 SCT025"
    },
    {
      "icao": "EHBK",
      "alert": "OK",
      "vis_m": 9999,
      "fzfg": false,
      "metar_trigger": false,
      "taf_trigger": false,
      "metar": "METAR EHBK 191725Z AUTO 09013KT 9999 SCT037 BKN041 04/02 Q1004 NOSIG",
      "taf": "TAF EHBK 191723Z 1918/2024 09012KT 9999 OVC030"
    },
    {
      "icao": "EHEH",
      "alert": "OK",
      "vis_m": 9999,
      "fzfg": false,
      "metar_trigger": false,
      "taf_trigger": false,
      "metar": "METAR EHEH 191725Z AUTO 10008KT 070V140 9999 FEW040 SCT067 OVC220 05/01 Q1005 BLU NOSIG",
      "taf": "TAF EHEH 191124Z 1912/2018 08011KT 6000 -RA SCT006 BKN008"
    },
    {
      "icao": "EKBI",
      "alert": "OK",
      "vis_m": 9999,
      "fzfg": false,
      "metar_trigger": false,
      "taf_trigger": false,
      "metar": "METAR EKBI 191720Z AUTO 08006KT 9999 NCD M05/M08 Q1017",
      "taf": "TAF EKBI 191727Z 1918/2018 08008KT CAVOK"
    },
    {
      "icao": "EKCH",
      "alert": "OK",
      "vis_m": 9999,
      "fzfg": false,
      "metar_trigger": false,
      "taf_trigger": false,
      "metar": "METAR EKCH 191720Z AUTO 01004KT 9999 NCD M03/M08 Q1018 NOSIG",
      "taf": "TAF EKCH 191727Z 1918/2018 02008KT CAVOK"
    },
    {
      "icao": "ENAL",
      "alert": "OK",
      "vis_m": 9999,
      "fzfg": false,
      "metar_trigger": false,
      "taf_trigger": false,
      "metar": "METAR ENAL 191720Z 21012KT CAVOK 04/M04 Q1009",
      "taf": "TAF ENAL 191400Z 1915/1924 20012KT 9999 FEW040 BKN050"
    },
    {
      "icao": "ENBR",
      "alert": "OK",
      "vis_m": 9999,
      "fzfg": false,
      "metar_trigger": false,
      "taf_trigger": false,
      "metar": "METAR ENBR 191720Z 18014KT CAVOK 00/M05 Q1014 NOSIG RMK WIND 1200FT 16021KT",
      "taf": "TAF ENBR 191100Z 1912/2012 16010KT CAVOK"
    },
    {
      "icao": "ENGM",
      "alert": "OK",
      "vis_m": 9999,
      "fzfg": false,
      "metar_trigger": false,
      "taf_trigger": false,
      "metar": "METAR ENGM 191720Z 00000KT CAVOK M12/M13 Q1015 NOSIG",
      "taf": "TAF ENGM 191100Z 1912/2012 20005KT CAVOK"
    },
    {
      "icao": "ENHD",
      "alert": "OK",
      "vis_m": 9999,
      "fzfg": false,
      "metar_trigger": false,
      "taf_trigger": false,
      "metar": "METAR ENHD 191720Z 15008KT CAVOK M00/M04 Q1015",
      "taf": "TAF ENHD 191400Z 1915/1923 17015KT CAVOK"
    },
    {
      "icao": "ENTC",
      "alert": "OK",
      "vis_m": 9999,
      "fzfg": false,
      "metar_trigger": false,
      "taf_trigger": false,
      "metar": "METAR ENTC 191720Z 21011KT 180V250 9999 FEW050 M06/M10 Q1009 NOSIG RMK WIND 2600FT 18017KT",
      "taf": "TAF ENTC 191100Z 1912/2012 22009KT 9999 FEW015 SCT040"
    },
    {
      "icao": "ENTO",
      "alert": "OK",
      "vis_m": 9999,
      "fzfg": false,
      "metar_trigger": false,
      "taf_trigger": false,
      "metar": "METAR ENTO 191720Z 20007KT CAVOK M06/M07 Q1016 NOSIG",
      "taf": ""
    },
    {
      "icao": "ENVA",
      "alert": "OK",
      "vis_m": 9999,
      "fzfg": false,
      "metar_trigger": false,
      "taf_trigger": false,
      "metar": "METAR ENVA 191720Z 04003KT 350V080 CAVOK 01/M06 Q1009 NOSIG RMK WIND 670FT 19017KT",
      "taf": ""
    },
    {
      "icao": "ENZV",
      "alert": "OK",
      "vis_m": 9999,
      "fzfg": false,
      "metar_trigger": false,
      "taf_trigger": false,
      "metar": "METAR ENZV 191720Z 16006KT CAVOK M01/M08 Q1016 NOSIG",
      "taf": "TAF ENZV 191100Z 1912/2012 15008KT CAVOK"
    },
    {
      "icao": "EPGD",
      "alert": "OK",
      "vis_m": 9999,
      "fzfg": false,
      "metar_trigger": false,
      "taf_trigger": false,
      "metar": "METAR EPGD 191700Z 30006KT 9999 -SN FEW023 SCT038 M06/M08 Q1014",
      "taf": "TAF EPGD 191730Z 1918/2018 30010KT 9999 BKN035"
    },
    {
      "icao": "EPKK",
      "alert": "OK",
      "vis_m": 8000,
      "fzfg": false,
      "metar_trigger": false,
      "taf_trigger": false,
      "metar": "METAR EPKK 191700Z 06009KT 8000 OVC021 M01/M05 Q1011",
      "taf": "TAF EPKK 191730Z 1918/2018 06008KT 8000 OVC020"
    },
    {
      "icao": "EPKT",
      "alert": "OK",
      "vis_m": 9999,
      "fzfg": false,
      "metar_trigger": false,
      "taf_trigger": false,
      "metar": "METAR EPKT 191700Z 06006KT CAVOK M03/M07 Q1011",
      "taf": "TAF EPKT 191730Z 1918/2018 07007KT CAVOK"
    },
    {
      "icao": "EPLB",
      "alert": "OK",
      "vis_m": 9999,
      "fzfg": false,
      "metar_trigger": false,
      "taf_trigger": false,
      "metar": "METAR EPLB 191700Z VRB02KT CAVOK M06/M09 Q1014",
      "taf": "TAF EPLB 191730Z 1918/2018 27004KT CAVOK"
    },
    {
      "icao": "EPMO",
      "alert": "OK",
      "vis_m": 9999,
      "fzfg": false,
      "metar_trigger": false,
      "taf_trigger": false,
      "metar": "METAR EPMO 191700Z 30004KT 9999 BKN031 M04/M07 Q1014",
      "taf": "TAF EPMO 191730Z 1918/2018 30005KT 9999 BKN030"
    },
    {
      "icao": "EPPO",
      "alert": "OK",
      "vis_m": 9999,
      "fzfg": false,
      "metar_trigger": false,
      "taf_trigger": false,
      "metar": "METAR EPPO 191700Z 04003KT 9999 SCT035 M02/M09 Q1015",
      "taf": "TAF EPPO 191730Z 1918/2018 06010KT 9999 SCT030"
    },
    {
      "icao": "EPRA",
      "alert": "OK",
      "vis_m": 9999,
      "fzfg": false,
      "metar_trigger": false,
      "taf_trigger": false,
      "metar": "METAR EPRA 191700Z 35001KT CAVOK M04/M10 Q1014",
      "taf": "TAF EPRA 191730Z 1918/2003 35004KT CAVOK"
    },
    {
      "icao": "EPRZ",
      "alert": "OK",
      "vis_m": 9999,
      "fzfg": false,
      "metar_trigger": false,
      "taf_trigger": false,
      "metar": "METAR EPRZ 191700Z 06005KT 9999 OVC024 M02/M06 Q1012",
      "taf": "TAF EPRZ 191730Z 1918/2018 06005KT 9999 OVC024"
    },
    {
      "icao": "EPSC",
      "alert": "OK",
      "vis_m": 9999,
      "fzfg": false,
      "metar_trigger": false,
      "taf_trigger": false,
      "metar": "METAR EPSC 191700Z 36003KT 340V040 CAVOK M02/M06 Q1016",
      "taf": "TAF EPSC 191730Z 1918/2018 VRB03KT CAVOK"
    },
    {
      "icao": "EPSY",
      "alert": "OK",
      "vis_m": 9999,
      "fzfg": false,
      "metar_trigger": false,
      "taf_trigger": false,
      "metar": "METAR EPSY 191700Z 31003KT 280V340 9999 SCT020 BKN024 M02/M07 Q1013",
      "taf": "TAF EPSY 191730Z 1918/2003 30006KT 9999 BKN025"
    },
    {
      "icao": "EPWA",
      "alert": "OK",
      "vis_m": 9999,
      "fzfg": false,
      "metar_trigger": false,
      "taf_trigger": false,
      "metar": "METAR EPWA 191700Z 30003KT 9999 BKN034 M04/M09 Q1014 NOSIG",
      "taf": "TAF EPWA 191730Z 1918/2018 29004KT 9999 BKN030"
    },
    {
      "icao": "EPWR",
      "alert": "OK",
      "vis_m": 9999,
      "fzfg": false,
      "metar_trigger": false,
      "taf_trigger": false,
      "metar": "METAR EPWR 191700Z 05003KT CAVOK M03/M06 Q1013",
      "taf": "TAF EPWR 191730Z 1918/2018 06008KT CAVOK"
    },
    {
      "icao": "ESGG",
      "alert": "OK",
      "vis_m": 9999,
      "fzfg": false,
      "metar_trigger": false,
      "taf_trigger": false,
      "metar": "METAR ESGG 191720Z 02003KT CAVOK M05/M08 Q1016",
      "taf": "TAF ESGG 191730Z 1918/2018 VRB03KT CAVOK"
    },
    {
      "icao": "ESKN",
      "alert": "OK",
      "vis_m": 9999,
      "fzfg": false,
      "metar_trigger": false,
      "taf_trigger": false,
      "metar": "METAR ESKN 191720Z 30004KT CAVOK M09/M11 Q1016",
      "taf": "TAF ESKN 191730Z 1918/2018 28004KT CAVOK"
    },
    {
      "icao": "ESMS",
      "alert": "OK",
      "vis_m": 9999,
      "fzfg": false,
      "metar_trigger": false,
      "taf_trigger": false,
      "metar": "METAR ESMS 191720Z 36003KT CAVOK M05/M09 Q1017",
      "taf": "TAF ESMS 191727Z 1918/2018 04006KT CAVOK"
    },
    {
      "icao": "ESSA",
      "alert": "OK",
      "vis_m": 9999,
      "fzfg": false,
      "metar_trigger": false,
      "taf_trigger": false,
      "metar": "METAR ESSA 191720Z 29004KT CAVOK M10/M12 Q1015 NOSIG",
      "taf": "TAF ESSA 191730Z 1918/2018 VRB03KT 9999 FEW020"
    },
    {
      "icao": "EYKA",
      "alert": "OK",
      "vis_m": 9999,
      "fzfg": false,
      "metar_trigger": false,
      "taf_trigger": false,
      "metar": "METAR EYKA 191720Z 30006KT 260V350 9999 -SN FEW012 SCT017 BKN027 M04/M07 Q1011",
      "taf": "TAF EYKA 191705Z 1918/2018 VRB04KT 9000 BKN020"
    },
    {
      "icao": "EYPA",
      "alert": "OK",
      "vis_m": 9999,
      "fzfg": false,
      "metar_trigger": false,
      "taf_trigger": false,
      "metar": "METAR EYPA 191720Z 02004KT CAVOK M05/M09 Q1013",
      "taf": "TAF EYPA 191705Z 1918/2018 VRB04KT 9000 BKN035"
    },
    {
      "icao": "EYVI",
      "alert": "OK",
      "vis_m": 5000,
      "fzfg": false,
      "metar_trigger": false,
      "taf_trigger": false,
      "metar": "METAR EYVI 191720Z 29007KT 240V310 5000 -SN BR OVC026 M05/M07 Q1009 TEMPO 1500 SN",
      "taf": "TAF EYVI 191705Z 1918/2018 VRB04KT 9000 BKN020"
    },
    {
      "icao": "GCFV",
      "alert": "OK",
      "vis_m": 9999,
      "fzfg": false,
      "metar_trigger": false,
      "taf_trigger": false,
      "metar": "METAR GCFV 191700Z 04018KT 9999 FEW022 19/13 Q1021",
      "taf": "TAF GCFV 191400Z 1915/2015 04018KT 9999 FEW025 TX21/2014Z TN16/2006Z"
    },
    {
      "icao": "GCLP",
      "alert": "OK",
      "vis_m": 9999,
      "fzfg": false,
      "metar_trigger": false,
      "taf_trigger": false,
      "metar": "METAR GCLP 191700Z 03020KT 9999 FEW025 19/12 Q1021 NOSIG",
      "taf": "TAF GCLP 191400Z 1915/2015 02020KT 9999 SCT025 TX20/2014Z TN16/2006Z"
    },
    {
      "icao": "GCTS",
      "alert": "OK",
      "vis_m": 9999,
      "fzfg": false,
      "metar_trigger": false,
      "taf_trigger": false,
      "metar": "METAR GCTS 191700Z 07021KT 9999 FEW020 20/12 Q1021 WS R07 NOSIG",
      "taf": "TAF GCTS 191400Z 1915/2015 08022KT 9999 FEW020 TX24/2014Z TN16/2006Z"
    },
    {
      "icao": "GMAD",
      "alert": "OK",
      "vis_m": 8000,
      "fzfg": false,
      "metar_trigger": false,
      "taf_trigger": false,
      "metar": "METAR GMAD 191700Z 25009KT 8000 NSC 19/14 Q1018 NOSIG",
      "taf": "TAF GMAD 191700Z 1918/2024 20008KT 8000 NSC"
    },
    {
      "icao": "GMMN",
      "alert": "OK",
      "vis_m": 9999,
      "fzfg": false,
      "metar_trigger": false,
      "taf_trigger": false,
      "metar": "METAR GMMN 191700Z 02015KT 9999 FEW020 15/11 Q1024 NOSIG",
      "taf": "TAF GMMN 191700Z 1918/2024 02014KT 9999 FEW020"
    },
    {
      "icao": "GMMX",
      "alert": "OK",
      "vis_m": 8000,
      "fzfg": false,
      "metar_trigger": false,
      "taf_trigger": false,
      "metar": "METAR GMMX 191700Z 08009KT 050V110 8000 NSC 19/12 Q1022 NOSIG",
      "taf": "TAF GMMX 191700Z 1918/2024 06006KT CAVOK"
    },
    {
      "icao": "HEGN",
      "alert": "OK",
      "vis_m": 9999,
      "fzfg": false,
      "metar_trigger": false,
      "taf_trigger": false,
      "metar": "METAR HEGN 191700Z 34015KT CAVOK 21/05 Q1017 NOSIG",
      "taf": "TAF HEGN 191700Z 1918/2024 29015KT CAVOK"
    },
    {
      "icao": "HEMA",
      "alert": "OK",
      "vis_m": 9999,
      "fzfg": false,
      "metar_trigger": false,
      "taf_trigger": false,
      "metar": "METAR HEMA 191700Z 36012KT CAVOK 21/09 Q1016 NOSIG",
      "taf": "TAF HEMA 191700Z 1918/2024 30015KT CAVOK"
    },
    {
      "icao": "HESH",
      "alert": "OK",
      "vis_m": 9999,
      "fzfg": false,
      "metar_trigger": false,
      "taf_trigger": false,
      "metar": "METAR HESH 191700Z 35010KT CAVOK 20/11 Q1016 NOSIG",
      "taf": "TAF HESH 191700Z 1918/2024 35012KT CAVOK"
    },
    {
      "icao": "HESX",
      "alert": "OK",
      "vis_m": 9999,
      "fzfg": false,
      "metar_trigger": false,
      "taf_trigger": false,
      "metar": "METAR HESX 191700Z 01010KT CAVOK 15/08 Q1021 NOSIG",
      "taf": "TAF HESX 191700Z 1918/2024 02007KT CAVOK"
    },
    {
      "icao": "LATI",
      "alert": "OK",
      "vis_m": 9999,
      "fzfg": false,
      "metar_trigger": false,
      "taf_trigger": false,
      "metar": "METAR LATI 191720Z 16006KT 9999 BKN070 12/04 Q1012 NOSIG",
      "taf": "TAF LATI 191700Z 1918/2018 16010KT 9999 SCT030 BKN070 TX14/2012Z TN09/2004Z"
    },
    {
      "icao": "LBPD",
      "alert": "OK",
      "vis_m": 9999,
      "fzfg": false,
      "metar_trigger": false,
      "taf_trigger": false,
      "metar": "METAR LBPD 191730Z AUTO 25004KT 9999 BKN250/// 07/01 Q1015 NOSIG",
      "taf": "TAF LBPD 191700Z 1918/2018 VRB03KT 9999 SCT080"
    },
    {
      "icao": "LBSF",
      "alert": "OK",
      "vis_m": 9999,
      "fzfg": false,
      "metar_trigger": false,
      "taf_trigger": false,
      "metar": "METAR LBSF 191730Z AUTO 09013KT 9999 SCT080/// 05/M02 Q1014 NOSIG",
      "taf": "TAF LBSF 191700Z 1918/2018 11010KT 9999 SCT070"
    },
    {
      "icao": "LBWN",
      "alert": "OK",
      "vis_m": 9999,
      "fzfg": false,
      "metar_trigger": false,
      "taf_trigger": false,
      "metar": "METAR LBWN 191730Z AUTO 10006KT 9999 NSC 04/M00 Q1018 NOSIG",
      "taf": "TAF LBWN 191700Z 1918/2018 09008KT 9999 SCT045"
    },
    {
      "icao": "LCLK",
      "alert": "OK",
      "vis_m": 9999,
      "fzfg": false,
      "metar_trigger": false,
      "taf_trigger": false,
      "metar": "METAR LCLK 191700Z 06011KT 9999 SCT030 SCT050 17/12 Q1021 NOSIG",
      "taf": "TAF LCLK 191730Z 1918/2018 06010KT 9999 FEW025"
    },
    {
      "icao": "LCPH",
      "alert": "OK",
      "vis_m": 9999,
      "fzfg": false,
      "metar_trigger": false,
      "taf_trigger": false,
      "metar": "METAR LCPH 191700Z 01004KT 9999 FEW035 13/07 Q1021 NOSIG",
      "taf": "TAF LCPH 191730Z 1918/2018 04008KT 9999 FEW025"
    },
    {
      "icao": "LEAL",
      "alert": "OK",
      "vis_m": 9999,
      "fzfg": false,
      "metar_trigger": false,
      "taf_trigger": false,
      "metar": "METAR LEAL 191700Z 28016KT 240V330 CAVOK 18/M02 Q1020 NOSIG",
      "taf": "TAF LEAL 191700Z 1918/2018 30015KT 9999 FEW030 TX18/2013Z TN09/2006Z"
    },
    {
      "icao": "LEBB",
      "alert": "OK",
      "vis_m": 9999,
      "fzfg": false,
      "metar_trigger": false,
      "taf_trigger": false,
      "metar": "METAR LEBB 191700Z 28013G23KT 240V340 9999 SCT033 BKN045 11/06 Q1023 TEMPO RA",
      "taf": "TAF LEBB 191700Z 1918/2018 30009KT 9999 FEW020 BKN025 TX14/2013Z TN07/2005Z"
    },
    {
      "icao": "LEBL",
      "alert": "OK",
      "vis_m": 9999,
      "fzfg": false,
      "metar_trigger": false,
      "taf_trigger": false,
      "metar": "METAR LEBL 191700Z 28013KT 240V320 CAVOK 15/02 Q1013 NOSIG",
      "taf": "TAF LEBL 191700Z 1918/2018 29012KT CAVOK TX18/2013Z TN09/2006Z"
    },
    {
      "icao": "LECH",
      "alert": "OK",
      "vis_m": 9999,
      "fzfg": false,
      "metar_trigger": false,
      "taf_trigger": false,
      "metar": "METAR LECH 191700Z AUTO 30013G24KT 260V360 CAVOK 14/M04 Q1019",
      "taf": ""
    },
    {
      "icao": "LEMD",
      "alert": "OK",
      "vis_m": 9999,
      "fzfg": false,
      "metar_trigger": false,
      "taf_trigger": false,
      "metar": "METAR LEMD 191700Z 29016KT 9999 FEW060 10/M01 Q1023 NOSIG",
      "taf": "TAF LEMD 191700Z 1918/2024 28010KT CAVOK TX14/2015Z TNM00/2006Z"
    },
    {
      "icao": "LEMG",
      "alert": "OK",
      "vis_m": 9999,
      "fzfg": false,
      "metar_trigger": false,
      "taf_trigger": false,
      "metar": "METAR LEMG 191700Z 30017G27KT CAVOK 15/04 Q1023 NOSIG",
      "taf": "TAF LEMG 191700Z 1918/2018 29012KT CAVOK TX18/2014Z TN11/2007Z"
    },
    {
      "icao": "LEVC",
      "alert": "OK",
      "vis_m": 9999,
      "fzfg": false,
      "metar_trigger": false,
      "taf_trigger": false,
      "metar": "METAR LEVC 191700Z 28015KT 9999 FEW035 17/M01 Q1018 NOSIG",
      "taf": "TAF LEVC 191700Z 1918/2018 28013KT 9999 FEW035 TX21/2014Z TN08/2006Z"
    },
    {
      "icao": "LEXJ",
      "alert": "OK",
      "vis_m": 2900,
      "fzfg": false,
      "metar_trigger": false,
      "taf_trigger": false,
      "metar": "SPECI LEXJ 191726Z 29020G30KT 260V330 2900 SHRA SCT022 BKN048TCU 10/07 Q1025",
      "taf": ""
    },
    {
      "icao": "LEZG",
      "alert": "OK",
      "vis_m": 9999,
      "fzfg": false,
      "metar_trigger": false,
      "taf_trigger": false,
      "metar": "METAR LEZG 191700Z 31017KT 280V340 9999 FEW085 13/01 Q1020 NOSIG",
      "taf": "TAF LEZG 191700Z 1918/2018 30015KT 9999 FEW040 TX13/2014Z TN07/2006Z"
    },
    {
      "icao": "LEZL",
      "alert": "OK",
      "vis_m": 9999,
      "fzfg": false,
      "metar_trigger": false,
      "taf_trigger": false,
      "metar": "METAR LEZL 191700Z 03008KT 320V050 CAVOK 17/04 Q1025 NOSIG",
      "taf": "TAF LEZL 191400Z 1915/2015 36007KT CAVOK TX18/1915Z TN06/2007Z"
    },
    {
      "icao": "LFBD",
      "alert": "OK",
      "vis_m": 9999,
      "fzfg": false,
      "metar_trigger": false,
      "taf_trigger": false,
      "metar": "METAR LFBD 191700Z AUTO 29027KT 9999 -RA BKN026/// BKN032/// OVC044/// ///CB 11/07 Q1015 TEMPO 3000 SHRA BECMG 26015G25KT",
      "taf": "TAF LFBD 191700Z 1918/2024 29015G25KT 9999 BKN030 TX13/2013Z TN07/2006Z"
    },
    {
      "icao": "LFLL",
      "alert": "OK",
      "vis_m": 8000,
      "fzfg": false,
      "metar_trigger": false,
      "taf_trigger": false,
      "metar": "METAR LFLL 191700Z 24017KT 8000 3500N SHRA SCT020CB BKN030TCU BKN035 08/06 Q1004 TEMPO 29020G35KT 2000 +SHRA SCT020TCU BKN030TCU",
      "taf": "TAF LFLL 191100Z 1912/2018 20012KT 9999 FEW030TCU OVC035"
    },
    {
      "icao": "LFLS",
      "alert": "OK",
      "vis_m": 9999,
      "fzfg": false,
      "metar_trigger": false,
      "taf_trigger": false,
      "metar": "METAR LFLS 191700Z AUTO 18011KT 9999 -RA BKN039/// BKN046/// OVC060/// ///TCU 08/05 Q1003 TEMPO 27012G25KT 3000 SHRA FEW025CB BKN025TCU",
      "taf": "TAF LFLS 191400Z 1915/2015 20010KT 9999 BKN035"
    },
    {
      "icao": "LFMN",
      "alert": "OK",
      "vis_m": 9999,
      "fzfg": false,
      "metar_trigger": false,
      "taf_trigger": false,
      "metar": "METAR LFMN 191700Z 25030KT 9999 SCT100 13/05 Q1000 NOSIG",
      "taf": ""
    },
    {
      "icao": "LFOB",
      "alert": "OK",
      "vis_m": 9999,
      "fzfg": false,
      "metar_trigger": false,
      "taf_trigger": false,
      "metar": "METAR LFOB 191700Z AUTO 31013KT 9999 BKN008 OVC012 08/07 Q1004 TEMPO 3500 SHRA BKN007 BKN012 SCT030TCU",
      "taf": "TAF LFOB 191100Z 1912/2012 26010KT 9999 SCT016 OVC030"
    },
    {
      "icao": "LFPO",
      "alert": "OK",
      "vis_m": 8000,
      "fzfg": false,
      "metar_trigger": false,
      "taf_trigger": false,
      "metar": "METAR LFPO 191700Z 32012KT 8000 BKN018 09/07 Q1004 TEMPO 4000 -SHRA BKN012TCU",
      "taf": "TAF LFPO 191100Z 1912/2018 28010KT 8000 BKN015 BKN030"
    },
    {
      "icao": "LFSB",
      "alert": "OK",
      "vis_m": 9999,
      "fzfg": false,
      "metar_trigger": false,
      "taf_trigger": false,
      "metar": "METAR LFSB 191700Z AUTO 15005KT 9999 FEW027/// BKN036/// OVC050/// ///TCU 07/05 Q1002 TEMPO SHRA BECMG 23010KT",
      "taf": "TAF LFSB 191700Z 1918/2018 15005KT 9999 SCT025 BKN040"
    },
    {
      "icao": "LGAV",
      "alert": "OK",
      "vis_m": 9999,
      "fzfg": false,
      "metar_trigger": false,
      "taf_trigger": false,
      "metar": "METAR LGAV 191720Z 21007KT CAVOK 11/05 Q1020 NOSIG",
      "taf": "TAF LGAV 191700Z 1918/2018 20010KT 9999 FEW025"
    },
    {
      "icao": "LGTS",
      "alert": "OK",
      "vis_m": 9999,
      "fzfg": false,
      "metar_trigger": false,
      "taf_trigger": false,
      "metar": "METAR LGTS 191720Z 11006KT 9999 FEW020 12/04 Q1017 NOSIG",
      "taf": "TAF LGTS 191700Z 1918/2018 14013KT 9999 FEW030"
    },
    {
      "icao": "LHBP",
      "alert": "OK",
      "vis_m": 5000,
      "fzfg": false,
      "metar_trigger": false,
      "taf_trigger": false,
      "metar": "METAR LHBP 191700Z 06005KT 030V090 5000 RA BKN004 OVC040 02/01 Q1008 TEMPO -RA BKN005 OVC041",
      "taf": "TAF LHBP 191715Z 1918/2018 06009KT 9999 FEW010 BKN060"
    },
    {
      "icao": "LHDC",
      "alert": "OK",
      "vis_m": 9999,
      "fzfg": false,
      "metar_trigger": false,
      "taf_trigger": false,
      "metar": "METAR LHDC 191645Z AUTO 07009KT CAVOK 04/02 Q1009 NOSIG",
      "taf": "TAF LHDC 191415Z 1915/1924 10009KT 9999 RA OVC025"
    },
    {
      "icao": "LIBD",
      "alert": "OK",
      "vis_m": 9999,
      "fzfg": false,
      "metar_trigger": false,
      "taf_trigger": false,
      "metar": "METAR LIBD 191720Z 15016KT CAVOK 14/11 Q1005",
      "taf": "TAF LIBD 191700Z 1918/2018 15015KT 9999 SCT040"
    },
    {
      "icao": "LIBG",
      "alert": "OK",
      "vis_m": 6000,
      "fzfg": false,
      "metar_trigger": false,
      "taf_trigger": false,
      "metar": "METAR LIBG 191650Z 16018KT 6000 SCT010 SCT020 14/12 Q1008",
      "taf": "TAF LIBG 191700Z 1918/2003 17015G30KT 9999 SCT020"
    },
    {
      "icao": "LIBP",
      "alert": "OK",
      "vis_m": 9999,
      "fzfg": false,
      "metar_trigger": false,
      "taf_trigger": false,
      "metar": "METAR LIBP 191720Z AUTO 01011KT 9999 RA OVC062/// 12/10 Q1001",
      "taf": "TAF LIBP 191700Z 1918/2018 VRB05KT 9999 SCT030 SCT060"
    },
    {
      "icao": "LIBR",
      "alert": "OK",
      "vis_m": 9999,
      "fzfg": false,
      "metar_trigger": false,
      "taf_trigger": false,
      "metar": "METAR LIBR 191720Z 17017KT CAVOK 14/10 Q1009",
      "taf": "TAF LIBR 191700Z 1918/2018 17020G30KT 9999 SCT025"
    },
    {
      "icao": "LICA",
      "alert": "OK",
      "vis_m": 9999,
      "fzfg": false,
      "metar_trigger": false,
      "taf_trigger": false,
      "metar": "METAR LICA 191720Z AUTO 02005KT 9999 NCD 15/11 Q1010",
      "taf": "TAF LICA 191700Z 1918/2018 25010KT 9999 SCT030"
    },
    {
      "icao": "LICC",
      "alert": "OK",
      "vis_m": 9999,
      "fzfg": false,
      "metar_trigger": false,
      "taf_trigger": false,
      "metar": "METAR LICC 191720Z 26009KT 9999 FEW035 17/12 Q1011",
      "taf": "TAF LICC 191700Z 1918/2018 26011KT 9999 FEW040"
    },
    {
      "icao": "LICJ",
      "alert": "OK",
      "vis_m": 9999,
      "fzfg": false,
      "metar_trigger": false,
      "taf_trigger": false,
      "metar": "METAR LICJ 191720Z 23019KT 9999 BKN040 16/11 Q1011",
      "taf": "TAF LICJ 191700Z 1918/2018 27020G30KT 9999 SCT035"
    },
    {
      "icao": "LIMC",
      "alert": "OK",
      "vis_m": 9999,
      "fzfg": false,
      "metar_trigger": false,
      "taf_trigger": false,
      "metar": "METAR LIMC 191720Z VRB02KT CAVOK 06/04 Q1000 NOSIG",
      "taf": "TAF LIMC 191700Z 1918/2024 33007KT 9999 BKN025"
    },
    {
      "icao": "LIME",
      "alert": "OK",
      "vis_m": 9999,
      "fzfg": false,
      "metar_trigger": false,
      "taf_trigger": false,
      "metar": "METAR LIME 191720Z AUTO 02001KT 9999 NCD 05/04 Q0999",
      "taf": "TAF LIME 191700Z 1918/2018 VRB05KT 8000 BKN020"
    },
    {
      "icao": "LIMF",
      "alert": "OK",
      "vis_m": 9999,
      "fzfg": false,
      "metar_trigger": false,
      "taf_trigger": false,
      "metar": "METAR LIMF 191720Z 09003KT CAVOK 08/02 Q0999",
      "taf": "TAF LIMF 191700Z 1918/2018 VRB05KT 8000 FEW040"
    },
    {
      "icao": "LIMJ",
      "alert": "OK",
      "vis_m": 9999,
      "fzfg": false,
      "metar_trigger": false,
      "taf_trigger": false,
      "metar": "METAR LIMJ 191720Z 13008KT 9999 SCT030 11/07 Q1001",
      "taf": "TAF LIMJ 191700Z 1918/2018 VRB05KT 9999 SCT030"
    },
    {
      "icao": "LIPE",
      "alert": "OK",
      "vis_m": 9999,
      "fzfg": false,
      "metar_trigger": false,
      "taf_trigger": false,
      "metar": "METAR LIPE 191720Z 21004KT 160V250 9999 FEW060 08/04 Q0999",
      "taf": "TAF LIPE 191700Z 1918/2018 VRB05KT 9999 SCT040"
    },
    {
      "icao": "LIPH",
      "alert": "OK",
      "vis_m": 9999,
      "fzfg": false,
      "metar_trigger": false,
      "taf_trigger": false,
      "metar": "METAR LIPH 191720Z 26006KT 9999 FEW015 08/05 Q0999",
      "taf": "TAF LIPH 191700Z 1918/2018 VRB05KT 7000 SCT020"
    },
    {
      "icao": "LIPQ",
      "alert": "OK",
      "vis_m": 9999,
      "fzfg": false,
      "metar_trigger": false,
      "taf_trigger": false,
      "metar": "METAR LIPQ 191720Z AUTO 16007KT 9999 SCT014/// BKN054/// BKN240/// 11/10 Q0999",
      "taf": "TAF LIPQ 191700Z 1918/2018 VRB05KT 7000 BKN020"
    },
    {
      "icao": "LIPR",
      "alert": "OK",
      "vis_m": 9999,
      "fzfg": false,
      "metar_trigger": false,
      "taf_trigger": false,
      "metar": "METAR LIPR 191720Z VRB01KT 9999 FEW060 08/06 Q1000",
      "taf": "TAF LIPR 191700Z 1918/2018 VRB05KT 9999 FEW015 SCT040"
    },
    {
      "icao": "LIPX",
      "alert": "OK",
      "vis_m": 9999,
      "fzfg": false,
      "metar_trigger": false,
      "taf_trigger": false,
      "metar": "METAR LIPX 191720Z 30009KT 9999 -RA FEW008 BKN040 06/05 Q0999",
      "taf": "TAF LIPX 191700Z 1918/2018 26012KT 8000 BKN020"
    },
    {
      "icao": "LIPY",
      "alert": "OK",
      "vis_m": 9999,
      "fzfg": false,
      "metar_trigger": false,
      "taf_trigger": false,
      "metar": "METAR LIPY 191720Z AUTO 19007KT 9999 OVC100/// 11/07 Q1000",
      "taf": "TAF LIPY 191700Z 1918/2018 VRB05KT 9999 SCT040"
    },
    {
      "icao": "LIPZ",
      "alert": "OK",
      "vis_m": 9999,
      "fzfg": false,
      "metar_trigger": false,
      "taf_trigger": false,
      "metar": "METAR LIPZ 191720Z 23012KT 9999 FEW015 SCT065 08/05 Q0999 NOSIG",
      "taf": "TAF LIPZ 191700Z 1918/2024 23012KT 7000 FEW015 SCT030"
    },
    {
      "icao": "LIRF",
      "alert": "OK",
      "vis_m": 9999,
      "fzfg": false,
      "metar_trigger": false,
      "taf_trigger": false,
      "metar": "METAR LIRF 191720Z 25014KT 9999 SCT030 13/09 Q1002 TEMPO SHRA",
      "taf": "TAF LIRF 191700Z 1918/2024 33012KT 9999 FEW025"
    },
    {
      "icao": "LIRN",
      "alert": "OK",
      "vis_m": 5000,
      "fzfg": false,
      "metar_trigger": false,
      "taf_trigger": false,
      "metar": "METAR LIRN 191720Z 20014G25KT 5000 -RA SCT015 BKN035 14/12 Q1003 NOSIG",
      "taf": "TAF LIRN 191700Z 1918/2018 26018KT 9999 SCT030"
    },
    {
      "icao": "LIRP",
      "alert": "OK",
      "vis_m": 9999,
      "fzfg": false,
      "metar_trigger": false,
      "taf_trigger": false,
      "metar": "METAR LIRP 191715Z 24009KT 9999 SCT035 12/09 Q1001 NOSIG",
      "taf": "TAF LIRP 191700Z 1918/2018 27007KT 9999 BKN030"
    },
    {
      "icao": "LIRZ",
      "alert": "OK",
      "vis_m": 9999,
      "fzfg": false,
      "metar_trigger": false,
      "taf_trigger": false,
      "metar": "METAR LIRZ 191720Z AUTO 14004KT 9999 BKN027/// BKN098/// BKN130/// 08/07 Q1002",
      "taf": "TAF LIRZ 191700Z 1918/2018 19013KT 9999 SCT035"
    },
    {
      "icao": "LJLJ",
      "alert": "OK",
      "vis_m": 4000,
      "fzfg": false,
      "metar_trigger": false,
      "taf_trigger": false,
      "metar": "METAR LJLJ 191700Z 13005KT 100V240 4000 RA BR FEW002 BKN020 BKN035 07/06 Q1000 NOSIG",
      "taf": "TAF LJLJ 191700Z 1918/2018 VRB02KT 4000 RA BR SCT002 BKN020 OVC035"
    },
    {
      "icao": "LKMT",
      "alert": "OK",
      "vis_m": 3000,
      "fzfg": false,
      "metar_trigger": false,
      "taf_trigger": false,
      "metar": "METAR LKMT 191700Z 03006KT 3000 BR OVC047 M02/M02 Q1011 NOSIG",
      "taf": "TAF LKMT 191700Z 1918/2018 03008KT 4000 BR SCT010 OVC040"
    },
    {
      "icao": "LKPR",
      "alert": "OK",
      "vis_m": 9999,
      "fzfg": false,
      "metar_trigger": false,
      "taf_trigger": false,
      "metar": "METAR LKPR 191700Z 08006KT CAVOK M01/M03 Q1008 NOSIG",
      "taf": "TAF LKPR 191700Z 1918/2024 06009KT CAVOK"
    },
    {
      "icao": "LLBG",
      "alert": "OK",
      "vis_m": 9999,
      "fzfg": false,
      "metar_trigger": false,
      "taf_trigger": false,
      "metar": "METAR LLBG 191720Z VRB03KT CAVOK 16/08 Q1022 NOSIG RMK FEW055",
      "taf": "TAF LLBG 191702Z 1918/2018 VRB04KT CAVOK"
    },
    {
      "icao": "LMML",
      "alert": "OK",
      "vis_m": 9999,
      "fzfg": false,
      "metar_trigger": false,
      "taf_trigger": false,
      "metar": "METAR LMML 191715Z 23011KT CAVOK 16/13 Q1013 NOSIG",
      "taf": "TAF LMML 191700Z 1918/2018 21015KT 9999 FEW015"
    },
    {
      "icao": "LOWW",
      "alert": "OK",
      "vis_m": 4000,
      "fzfg": false,
      "metar_trigger": false,
      "taf_trigger": false,
      "metar": "METAR LOWW 191720Z 03005KT 4000 -SN FEW001 BKN002 00/M00 Q1007 TEMPO 1500 SN",
      "taf": "TAF LOWW 191715Z 1918/2024 10009KT 9999 -SN OVC007 TXM00/1918Z TNM06/2024Z"
    },
    {
      "icao": "LPFR",
      "alert": "OK",
      "vis_m": 9999,
      "fzfg": false,
      "metar_trigger": false,
      "taf_trigger": false,
      "metar": "METAR LPFR 191700Z 36008KT 330V040 CAVOK 17/05 Q1026",
      "taf": "TAF LPFR 191700Z 1918/2018 36010KT CAVOK"
    },
    {
      "icao": "LPMA",
      "alert": "OK",
      "vis_m": 9999,
      "fzfg": false,
      "metar_trigger": false,
      "taf_trigger": false,
      "metar": "METAR LPMA 191700Z 04011KT 9999 SCT018 18/10 Q1026",
      "taf": "TAF LPMA 191700Z 1918/2018 04010KT 9999 SCT016"
    },
    {
      "icao": "LPPR",
      "alert": "OK",
      "vis_m": 9999,
      "fzfg": false,
      "metar_trigger": false,
      "taf_trigger": false,
      "metar": "METAR LPPR 191700Z 32008KT 280V350 9999 FEW025 12/06 Q1028",
      "taf": "TAF LPPR 191700Z 1918/2018 35010KT 9999 SCT035"
    },
    {
      "icao": "LPPS",
      "alert": "OK",
      "vis_m": 9999,
      "fzfg": false,
      "metar_trigger": false,
      "taf_trigger": false,
      "metar": "METAR LPPS 191700Z 10009KT 060V150 9999 FEW015 17/10 Q1026",
      "taf": "TAF LPPS 191700Z 1918/2024 09010KT 9999 SCT015"
    },
    {
      "icao": "LPPT",
      "alert": "OK",
      "vis_m": 9999,
      "fzfg": false,
      "metar_trigger": false,
      "taf_trigger": false,
      "metar": "METAR LPPT 191700Z 35012KT 9999 FEW038 13/05 Q1028",
      "taf": "TAF LPPT 191700Z 1918/2024 34010KT CAVOK"
    },
    {
      "icao": "LQBK",
      "alert": "OK",
      "vis_m": 9999,
      "fzfg": false,
      "metar_trigger": false,
      "taf_trigger": false,
      "metar": "METAR LQBK 191700Z 12009KT CAVOK 13/05 Q1002 NOSIG",
      "taf": "TAF LQBK 191700Z 1918/2018 11008KT CAVOK TX11/1918Z TN01/2018Z"
    },
    {
      "icao": "LQSA",
      "alert": "OK",
      "vis_m": 9999,
      "fzfg": false,
      "metar_trigger": false,
      "taf_trigger": false,
      "metar": "METAR LQSA 191700Z 14017KT 9999 SCT045 BKN055 10/05 Q1005 NOSIG",
      "taf": "TAF LQSA 191700Z 1918/2018 14013KT 9999 SCT030 BKN045 TX10/1918Z TN04/2006Z"
    },
    {
      "icao": "LQTZ",
      "alert": "OK",
      "vis_m": 9999,
      "fzfg": false,
      "metar_trigger": false,
      "taf_trigger": false,
      "metar": "METAR LQTZ 191700Z 17005KT 140V220 CAVOK 12/03 Q1004",
      "taf": "TAF LQTZ 191700Z 1918/2018 09006KT CAVOK TX12/1918Z TN05/2018Z"
    },
    {
      "icao": "LRBC",
      "alert": "OK",
      "vis_m": 7000,
      "fzfg": false,
      "metar_trigger": false,
      "taf_trigger": false,
      "metar": "METAR LRBC 191700Z 16012KT 7000 NSC M02/M03 Q1014",
      "taf": "TAF LRBC 191700Z 1918/2003 16012KT 7000 NSC"
    },
    {
      "icao": "LRBS",
      "alert": "OK",
      "vis_m": 9999,
      "fzfg": false,
      "metar_trigger": false,
      "taf_trigger": false,
      "metar": "METAR LRBS 191700Z 08003KT CAVOK 03/M01 Q1016 NOSIG",
      "taf": "TAF LRBS 191700Z 1918/2018 VRB03KT CAVOK"
    },
    {
      "icao": "LRBV",
      "alert": "OK",
      "vis_m": 9999,
      "fzfg": false,
      "metar_trigger": false,
      "taf_trigger": false,
      "metar": "METAR LRBV 191700Z 13006KT 080V150 CAVOK 02/M05 Q1011",
      "taf": "TAF LRBV 191700Z 1918/2003 14006KT CAVOK"
    },
    {
      "icao": "LRCL",
      "alert": "OK",
      "vis_m": 9999,
      "fzfg": false,
      "metar_trigger": false,
      "taf_trigger": false,
      "metar": "METAR LRCL 191700Z 14008KT 9999 OVC071 04/M02 Q1010",
      "taf": "TAF LRCL 191700Z 1918/2003 12006KT CAVOK"
    },
    {
      "icao": "LRCV",
      "alert": "OK",
      "vis_m": 9999,
      "fzfg": false,
      "metar_trigger": false,
      "taf_trigger": false,
      "metar": "METAR LRCV 191700Z 08008KT CAVOK 04/01 Q1013",
      "taf": "TAF LRCV 191700Z 1918/2003 09010KT CAVOK"
    },
    {
      "icao": "LRIA",
      "alert": "OK",
      "vis_m": 9999,
      "fzfg": false,
      "metar_trigger": false,
      "taf_trigger": false,
      "metar": "METAR LRIA 191700Z 11012KT CAVOK 00/M02 Q1014",
      "taf": "TAF LRIA 191700Z 1918/2003 10010KT CAVOK"
    },
    {
      "icao": "LROP",
      "alert": "OK",
      "vis_m": 9999,
      "fzfg": false,
      "metar_trigger": false,
      "taf_trigger": false,
      "metar": "METAR LROP 191700Z 10003KT CAVOK 02/M02 Q1016 NOSIG",
      "taf": "TAF LROP 191700Z 1918/2018 VRB03KT CAVOK"
    },
    {
      "icao": "LRSB",
      "alert": "OK",
      "vis_m": 9999,
      "fzfg": false,
      "metar_trigger": false,
      "taf_trigger": false,
      "metar": "METAR LRSB 191700Z 15006KT CAVOK 05/M02 Q1009",
      "taf": "TAF LRSB 191700Z 1918/2018 VRB04KT CAVOK"
    },
    {
      "icao": "LRSM",
      "alert": "OK",
      "vis_m": 9999,
      "fzfg": false,
      "metar_trigger": false,
      "taf_trigger": false,
      "metar": "METAR LRSM 191700Z 06006KT 9999 -RA OVC032 04/01 Q1010",
      "taf": "TAF LRSM 191400Z 1915/1924 14006KT 9999 BKN035"
    },
    {
      "icao": "LRSV",
      "alert": "OK",
      "vis_m": 9999,
      "fzfg": false,
      "metar_trigger": false,
      "taf_trigger": false,
      "metar": "METAR LRSV 191700Z 09009KT CAVOK M00/M03 Q1011",
      "taf": "TAF LRSV 191700Z 1918/2003 VRB04KT CAVOK"
    },
    {
      "icao": "LRTM",
      "alert": "OK",
      "vis_m": 9999,
      "fzfg": false,
      "metar_trigger": false,
      "taf_trigger": false,
      "metar": "METAR LRTM 191700Z 07005KT CAVOK 02/M01 Q1011",
      "taf": "TAF LRTM 191400Z 1915/1924 08007KT CAVOK"
    },
    {
      "icao": "LRTR",
      "alert": "OK",
      "vis_m": 9999,
      "fzfg": false,
      "metar_trigger": false,
      "taf_trigger": false,
      "metar": "METAR LRTR 191700Z 14007KT CAVOK 08/02 Q1008 NOSIG",
      "taf": "TAF LRTR 191700Z 1918/2018 12010KT CAVOK"
    },
    {
      "icao": "LTAC",
      "alert": "OK",
      "vis_m": 9999,
      "fzfg": false,
      "metar_trigger": false,
      "taf_trigger": false,
      "metar": "METAR LTAC 191720Z 18003KT 150V210 CAVOK 01/M05 Q1022 NOSIG RMK RWY21C 17003KT 140V200 RWY03L VRB02KT RWY21R VRB02KT RWY03R 14003KT RWY21L 19004KT",
      "taf": "TAF LTAC 191640Z 1918/2018 VRB02KT CAVOK"
    },
    {
      "icao": "LTFM",
      "alert": "OK",
      "vis_m": 9999,
      "fzfg": false,
      "metar_trigger": false,
      "taf_trigger": false,
      "metar": "METAR LTFM 191720Z 18008KT CAVOK 09/01 Q1020 NOSIG RMK RWY17L 20010KT RWY34L 17004KT RWY16R 18007KT RWY36 21008KT RWY18 21011KT",
      "taf": "TAF LTFM 191640Z 1918/2024 20012KT CAVOK"
    },
    {
      "icao": "LUKK",
      "alert": "OK",
      "vis_m": 9999,
      "fzfg": false,
      "metar_trigger": false,
      "taf_trigger": false,
      "metar": "METAR LUKK 191700Z 17006KT CAVOK M00/M03 Q1016 NOSIG",
      "taf": "TAF LUKK 191723Z 1918/2018 16006KT 9999 SCT025"
    },
    {
      "icao": "LWOH",
      "alert": "OK",
      "vis_m": 9999,
      "fzfg": false,
      "metar_trigger": false,
      "taf_trigger": false,
      "metar": "METAR LWOH 191720Z 14016KT 9999 BKN040 09/04 Q1014",
      "taf": ""
    },
    {
      "icao": "LWSK",
      "alert": "OK",
      "vis_m": 9999,
      "fzfg": false,
      "metar_trigger": false,
      "taf_trigger": false,
      "metar": "METAR LWSK 191720Z 28003KT 220V300 9999 BKN073 07/01 Q1014 NOSIG",
      "taf": ""
    },
    {
      "icao": "LYBE",
      "alert": "OK",
      "vis_m": 9999,
      "fzfg": false,
      "metar_trigger": false,
      "taf_trigger": false,
      "metar": "METAR LYBE 191700Z 13012KT CAVOK 11/02 Q1006 NOSIG",
      "taf": "TAF LYBE 191700Z 1918/2018 12015KT CAVOK TX10/1918Z TN06/2005Z"
    },
    {
      "icao": "LYNI",
      "alert": "OK",
      "vis_m": 9999,
      "fzfg": false,
      "metar_trigger": false,
      "taf_trigger": false,
      "metar": "METAR LYNI 191700Z 17004KT 140V200 9999 FEW070 08/00 Q1012 NOSIG",
      "taf": "TAF LYNI 191700Z 1918/2018 15005KT CAVOK TX08/2012Z TN04/2004Z"
    },
    {
      "icao": "LYPG",
      "alert": "OK",
      "vis_m": 8000,
      "fzfg": false,
      "metar_trigger": false,
      "taf_trigger": false,
      "metar": "METAR LYPG 191700Z 33005KT 290V360 8000 FEW020 SCT040 OVC070 08/08 Q1012 NOSIG",
      "taf": "TAF LYPG 191700Z 1918/2018 16008KT 9999 FEW025 SCT040 OVC070 TX12/1922Z TN07/2006Z"
    },
    {
      "icao": "LZIB",
      "alert": "OK",
      "vis_m": 6000,
      "fzfg": false,
      "metar_trigger": false,
      "taf_trigger": false,
      "metar": "METAR LZIB 191730Z 03008KT 6000 -SN BKN004 BKN005 00/00 Q1008 TEMPO 1200 SN BR",
      "taf": "TAF LZIB 191715Z 1918/2018 05011KT 4000 -SN SCT003 BKN010"
    },
    {
      "icao": "LZKZ",
      "alert": "OK",
      "vis_m": 3500,
      "fzfg": false,
      "metar_trigger": false,
      "taf_trigger": false,
      "metar": "METAR LZKZ 191730Z 36008KT 3500 -SN BR FEW004 BKN027 OVC045 00/00 Q1010 NOSIG",
      "taf": "TAF LZKZ 191715Z 1918/2018 02008KT 6000 SCT004 BKN020"
    },
    {
      "icao": "LZTT",
      "alert": "OK",
      "vis_m": 8000,
      "fzfg": false,
      "metar_trigger": false,
      "taf_trigger": false,
      "metar": "METAR LZTT 191730Z 10004KT 8000 -SN FEW004 BKN013 OVC036 M02/M02 Q1008 NOSIG",
      "taf": "TAF LZTT 191715Z 1918/2018 08007KT 9999 FEW008 BKN035"
    },
    {
      "icao": "OEJN",
      "alert": "OK",
      "vis_m": 9999,
      "fzfg": false,
      "metar_trigger": false,
      "taf_trigger": false,
      "metar": "METAR OEJN 191700Z 34012KT CAVOK 26/18 Q1012 NOSIG",
      "taf": "TAF OEJN 191700Z 1918/2024 36006KT CAVOK"
    },
    {
      "icao": "OEMA",
      "alert": "OK",
      "vis_m": 9999,
      "fzfg": false,
      "metar_trigger": false,
      "taf_trigger": false,
      "metar": "METAR OEMA 191700Z 32003KT CAVOK 29/00 Q1016 NOSIG",
      "taf": "TAF OEMA 191700Z 1918/2024 30006KT CAVOK"
    },
    {
      "icao": "OJAI",
      "alert": "OK",
      "vis_m": 5000,
      "fzfg": false,
      "metar_trigger": false,
      "taf_trigger": false,
      "metar": "METAR OJAI 191700Z 22004KT 5000 HZ BKN030 12/04 Q1022 NOSIG",
      "taf": "TAF OJAI 191700Z 1918/2024 VRB02KT 5000 HZ BKN030"
    },
    {
      "icao": "OMAA",
      "alert": "OK",
      "vis_m": 9999,
      "fzfg": false,
      "metar_trigger": false,
      "taf_trigger": false,
      "metar": "METAR OMAA 191730Z 01005KT 330V050 CAVOK 24/14 Q1016 NOSIG",
      "taf": "TAF OMAA 191700Z 1918/2100 04007KT 8000 NSC"
    },
    {
      "icao": "OMDB",
      "alert": "OK",
      "vis_m": 9999,
      "fzfg": false,
      "metar_trigger": false,
      "taf_trigger": false,
      "metar": "METAR OMDB 191730Z 05007KT 020V080 CAVOK 25/13 Q1017 NOSIG",
      "taf": "TAF OMDB 191700Z 1918/2100 08005KT CAVOK"
    },
    {
      "icao": "UAAA",
      "alert": "OK",
      "vis_m": 9999,
      "fzfg": false,
      "metar_trigger": false,
      "taf_trigger": false,
      "metar": "METAR UAAA 191700Z 19003MPS 9999 SCT100 15/01 Q1018 NOSIG",
      "taf": "TAF UAAA 191704Z 1918/2018 21003MPS 6000 SCT050CB BKN100 TX12/2009Z TN03/2003Z"
    },
    {
      "icao": "UBBB",
      "alert": "OK",
      "vis_m": 9999,
      "fzfg": false,
      "metar_trigger": false,
      "taf_trigger": false,
      "metar": "METAR UBBB 191730Z 32022G32KT CAVOK 09/05 Q1014 NOSIG",
      "taf": "TAF UBBB 191701Z 1918/2018 32020G30KT 9999 SCT020 TX10/2010Z TN06/2002Z"
    },
    {
      "icao": "UDSG",
      "alert": "OK",
      "vis_m": 9999,
      "fzfg": false,
      "metar_trigger": false,
      "taf_trigger": false,
      "metar": "METAR UDSG 191700Z 34006KT 9999 SCT049 M00/M07 Q1020 NOSIG",
      "taf": "TAF UDSG 191658Z 1918/2018 VRB06KT 9999 SCT040"
    },
    {
      "icao": "UDYZ",
      "alert": "OK",
      "vis_m": 9999,
      "fzfg": false,
      "metar_trigger": false,
      "taf_trigger": false,
      "metar": "METAR UDYZ 191700Z 21004KT 9999 SCT043CB 08/M01 Q1017 NOSIG",
      "taf": "TAF UDYZ 191700Z 1918/2018 22006KT 9999 SCT040"
    },
    {
      "icao": "UGKO",
      "alert": "OK",
      "vis_m": 9999,
      "fzfg": false,
      "metar_trigger": false,
      "taf_trigger": false,
      "metar": "METAR UGKO 191700Z 31006KT 280V340 9999 -RA SCT012 BKN023 04/03 Q1027 NOSIG",
      "taf": "TAF UGKO 191700Z 1918/2018 25007KT 9000 OVC050 TX17/2011Z TN01/2003Z"
    }
  ]
}