{
  "ts_utc": "2026-03-06T12:38:05Z",
  "threshold_m": 150,
  "source": "stations_override.txt (ICAO list) + aviationweather.gov (METAR/TAF raw)",
  "station_count": 159,
  "stations": [
    {
      "icao": "BIKF",
      "alert": "OK",
      "vis_m": 9999,
      "fzfg": false,
      "metar_trigger": false,
      "taf_trigger": false,
      "metar": "METAR BIKF 061230Z 15022KT 9999 VCSH FEW014 BKN024 04/02 Q0977",
      "taf": "TAF BIKF 061053Z 0612/0712 15025KT 9999 -RA BKN014 OVC022 TX05/0612Z TN01/0624Z"
    },
    {
      "icao": "BKPR",
      "alert": "OK",
      "vis_m": 9999,
      "fzfg": false,
      "metar_trigger": false,
      "taf_trigger": false,
      "metar": "METAR BKPR 061230Z VRB01KT CAVOK 14/04 Q1025 NOSIG",
      "taf": "TAF BKPR 061130Z 0612/0712 VRB05KT CAVOK"
    },
    {
      "icao": "EBCI",
      "alert": "OK",
      "vis_m": 9999,
      "fzfg": false,
      "metar_trigger": false,
      "taf_trigger": false,
      "metar": "METAR EBCI 061220Z 24005KT 210V290 CAVOK 18/06 Q1021 NOSIG",
      "taf": "TAF EBCI 061106Z 0612/0718 VRB03KT CAVOK"
    },
    {
      "icao": "EDDB",
      "alert": "OK",
      "vis_m": 9999,
      "fzfg": false,
      "metar_trigger": false,
      "taf_trigger": false,
      "metar": "METAR EDDB 061220Z AUTO 16010KT CAVOK 16/00 Q1024 NOSIG",
      "taf": "TAF EDDB 061100Z 0612/0712 12005KT CAVOK"
    },
    {
      "icao": "EDDH",
      "alert": "OK",
      "vis_m": 9999,
      "fzfg": false,
      "metar_trigger": false,
      "taf_trigger": false,
      "metar": "METAR EDDH 061220Z AUTO 15008KT CAVOK 16/02 Q1022 NOSIG",
      "taf": "TAF EDDH 061100Z 0612/0718 15005KT CAVOK"
    },
    {
      "icao": "EDDK",
      "alert": "OK",
      "vis_m": 9999,
      "fzfg": false,
      "metar_trigger": false,
      "taf_trigger": false,
      "metar": "METAR EDDK 061220Z AUTO 17005KT 060V210 CAVOK 17/04 Q1021 NOSIG",
      "taf": "TAF EDDK 061100Z 0612/0718 12007KT CAVOK"
    },
    {
      "icao": "EDDN",
      "alert": "OK",
      "vis_m": 9999,
      "fzfg": false,
      "metar_trigger": false,
      "taf_trigger": false,
      "metar": "METAR EDDN 061220Z AUTO VRB03KT CAVOK 15/03 Q1022 NOSIG",
      "taf": "TAF EDDN 061100Z 0612/0712 13006KT CAVOK"
    },
    {
      "icao": "EDDS",
      "alert": "OK",
      "vis_m": 9999,
      "fzfg": false,
      "metar_trigger": false,
      "taf_trigger": false,
      "metar": "METAR EDDS 061220Z AUTO 08004KT 040V120 CAVOK 15/05 Q1020 NOSIG",
      "taf": "TAF EDDS 061100Z 0612/0712 VRB03KT CAVOK"
    },
    {
      "icao": "EDFH",
      "alert": "OK",
      "vis_m": 9999,
      "fzfg": false,
      "metar_trigger": false,
      "taf_trigger": false,
      "metar": "METAR EDFH 061220Z 13005KT 080V190 CAVOK 14/04 Q1021",
      "taf": "TAF EDFH 061100Z 0612/0712 13007KT CAVOK"
    },
    {
      "icao": "EDJA",
      "alert": "OK",
      "vis_m": 9999,
      "fzfg": false,
      "metar_trigger": false,
      "taf_trigger": false,
      "metar": "METAR EDJA 061220Z 35006KT 300V030 CAVOK 14/06 Q1021",
      "taf": "TAF EDJA 061100Z 0612/0621 06005KT CAVOK"
    },
    {
      "icao": "EDLW",
      "alert": "OK",
      "vis_m": 9999,
      "fzfg": false,
      "metar_trigger": false,
      "taf_trigger": false,
      "metar": "METAR EDLW 061220Z VRB01KT CAVOK 17/04 Q1021",
      "taf": "TAF EDLW 061100Z 0612/0712 VRB03KT CAVOK"
    },
    {
      "icao": "EDNY",
      "alert": "OK",
      "vis_m": 9999,
      "fzfg": false,
      "metar_trigger": false,
      "taf_trigger": false,
      "metar": "METAR EDNY 061220Z VRB02KT CAVOK 11/05 Q1021",
      "taf": "TAF EDNY 061100Z 0612/0621 24004KT 9999 SCT025"
    },
    {
      "icao": "EDSB",
      "alert": "OK",
      "vis_m": 9999,
      "fzfg": false,
      "metar_trigger": false,
      "taf_trigger": false,
      "metar": "METAR EDSB 061220Z VRB02KT CAVOK 13/05 Q1021",
      "taf": "TAF EDSB 061100Z 0612/0712 VRB03KT CAVOK"
    },
    {
      "icao": "EETN",
      "alert": "OK",
      "vis_m": 9999,
      "fzfg": false,
      "metar_trigger": false,
      "taf_trigger": false,
      "metar": "METAR EETN 061220Z 22010KT CAVOK 08/M01 Q1021 NOSIG",
      "taf": "TAF EETN 061130Z 0612/0712 23010KT CAVOK"
    },
    {
      "icao": "EFTU",
      "alert": "OK",
      "vis_m": 9999,
      "fzfg": false,
      "metar_trigger": false,
      "taf_trigger": false,
      "metar": "METAR EFTU 061220Z AUTO 24009KT CAVOK 07/M01 Q1018",
      "taf": "TAF EFTU 061125Z 0612/0712 22008KT CAVOK"
    },
    {
      "icao": "EGBB",
      "alert": "OK",
      "vis_m": 9999,
      "fzfg": false,
      "metar_trigger": false,
      "taf_trigger": false,
      "metar": "METAR EGBB 061220Z 36008KT 9999 OVC010 06/05 Q1023",
      "taf": "TAF EGBB 061102Z 0612/0712 33009KT 9000 OVC007"
    },
    {
      "icao": "EGGP",
      "alert": "OK",
      "vis_m": 9999,
      "fzfg": false,
      "metar_trigger": false,
      "taf_trigger": false,
      "metar": "METAR EGGP 061220Z 33007KT 9999 VCSH FEW011 BKN019 06/04 Q1025",
      "taf": "TAF EGGP 061100Z 0612/0712 VRB03KT 9999 SCT016"
    },
    {
      "icao": "EGGW",
      "alert": "OK",
      "vis_m": 2800,
      "fzfg": false,
      "metar_trigger": false,
      "taf_trigger": false,
      "metar": "METAR EGGW 061220Z AUTO 35006KT 290V010 2800 R25/1400U BR OVC002 07/07 Q1022",
      "taf": ""
    },
    {
      "icao": "EGKK",
      "alert": "OK",
      "vis_m": 3500,
      "fzfg": false,
      "metar_trigger": false,
      "taf_trigger": false,
      "metar": "METAR EGKK 061220Z VRB06G16KT 3500 -RA BR BKN008 09/08 Q1022",
      "taf": "TAF EGKK 061056Z 0612/0718 35005KT 9999 BKN016"
    },
    {
      "icao": "EGNM",
      "alert": "OK",
      "vis_m": 9999,
      "fzfg": false,
      "metar_trigger": false,
      "taf_trigger": false,
      "metar": "METAR EGNM 061220Z 02007KT 330V040 9999 FEW007 SCT010 BKN027 04/02 Q1023",
      "taf": "TAF EGNM 061057Z 0612/0712 02012KT 9999 SCT008"
    },
    {
      "icao": "EGPD",
      "alert": "OK",
      "vis_m": 9999,
      "fzfg": false,
      "metar_trigger": false,
      "taf_trigger": false,
      "metar": "METAR EGPD 061220Z COR AUTO 33003KT 280V010 9999 NCD 07/01 Q1024 NOSIG",
      "taf": "TAF EGPD 061057Z 0612/0712 30008KT 9999 FEW045"
    },
    {
      "icao": "EGPF",
      "alert": "OK",
      "vis_m": 9999,
      "fzfg": false,
      "metar_trigger": false,
      "taf_trigger": false,
      "metar": "METAR EGPF 061220Z AUTO VRB02KT 9999 NCD 08/M00 Q1025",
      "taf": "TAF EGPF 061056Z 0612/0712 VRB04KT 9999 FEW035"
    },
    {
      "icao": "EHBK",
      "alert": "OK",
      "vis_m": 9999,
      "fzfg": false,
      "metar_trigger": false,
      "taf_trigger": false,
      "metar": "METAR EHBK 061225Z AUTO 02004KT 350V060 9999 NCD 18/06 Q1021 NOSIG",
      "taf": "TAF EHBK 061106Z 0612/0718 VRB02KT CAVOK"
    },
    {
      "icao": "EHEH",
      "alert": "OK",
      "vis_m": 9999,
      "fzfg": false,
      "metar_trigger": false,
      "taf_trigger": false,
      "metar": "METAR EHEH 061225Z AUTO 14004KT 050V210 9999 BKN250 18/06 Q1021 BLU NOSIG RMK TREND REMOTE BY EHWX",
      "taf": ""
    },
    {
      "icao": "EKBI",
      "alert": "OK",
      "vis_m": 9999,
      "fzfg": false,
      "metar_trigger": false,
      "taf_trigger": false,
      "metar": "METAR EKBI 061220Z AUTO 14005KT 090V170 9999 NCD 14/04 Q1022",
      "taf": "TAF EKBI 061127Z 0612/0712 14006KT CAVOK"
    },
    {
      "icao": "EKCH",
      "alert": "OK",
      "vis_m": 9999,
      "fzfg": false,
      "metar_trigger": false,
      "taf_trigger": false,
      "metar": "METAR EKCH 061220Z AUTO 16005KT 9999 NCD 09/M02 Q1025 NOSIG",
      "taf": "TAF EKCH 061127Z 0612/0712 15007KT CAVOK"
    },
    {
      "icao": "ENAL",
      "alert": "OK",
      "vis_m": 9999,
      "fzfg": false,
      "metar_trigger": false,
      "taf_trigger": false,
      "metar": "METAR ENAL 061220Z VRB02KT 9999 FEW020 06/03 Q1023",
      "taf": "TAF ENAL 061100Z 0612/0621 15008KT 9999 FEW030"
    },
    {
      "icao": "ENBR",
      "alert": "OK",
      "vis_m": 3000,
      "fzfg": false,
      "metar_trigger": false,
      "taf_trigger": false,
      "metar": "METAR ENBR 061220Z 15003KT 120V180 3000 -RA BR SCT003 BKN006 05/05 Q1021 TEMPO 2000 DZRA BR BKN003 RMK WIND 1200FT 16004KT",
      "taf": "TAF ENBR 061100Z 0612/0712 15005KT 6000 -RADZ SCT005 BKN015"
    },
    {
      "icao": "ENGM",
      "alert": "OK",
      "vis_m": 1300,
      "fzfg": false,
      "metar_trigger": false,
      "taf_trigger": false,
      "metar": "METAR ENGM 061220Z VRB02KT 1300 0500E R19R/0900N R01R/1400U R19L/1400U R01L/2000U PRFG BKN002 01/M00 Q1021 BECMG 6000 NSW",
      "taf": "TAF ENGM 061100Z 0612/0712 18005KT 0300 FG VV002"
    },
    {
      "icao": "ENHD",
      "alert": "OK",
      "vis_m": 9999,
      "fzfg": false,
      "metar_trigger": false,
      "taf_trigger": false,
      "metar": "METAR ENHD 061220Z 19010KT 9999 BKN021 06/03 Q1021",
      "taf": "TAF ENHD 061100Z 0612/0621 20008KT 9000 -RA BKN018"
    },
    {
      "icao": "ENTC",
      "alert": "OK",
      "vis_m": 9999,
      "fzfg": false,
      "metar_trigger": false,
      "taf_trigger": false,
      "metar": "METAR ENTC 061220Z 23017KT 9999 -SHRASN SCT015 BKN023CB 02/M01 Q1005 TEMPO 24022G32KT RMK WIND 2600FT 26047G68KT",
      "taf": ""
    },
    {
      "icao": "ENTO",
      "alert": "OK",
      "vis_m": 9999,
      "fzfg": false,
      "metar_trigger": false,
      "taf_trigger": false,
      "metar": "METAR ENTO 061220Z 18007KT CAVOK 06/02 Q1023 NOSIG",
      "taf": "TAF ENTO 061100Z 0612/0712 18005KT 9999 FEW040"
    },
    {
      "icao": "ENVA",
      "alert": "OK",
      "vis_m": 9999,
      "fzfg": false,
      "metar_trigger": false,
      "taf_trigger": false,
      "metar": "METAR ENVA 061220Z 26005KT 9999 VCSH SCT029 BKN034 06/03 Q1022 RMK WIND 670FT 27005KT",
      "taf": "TAF ENVA 061100Z 0612/0712 25010KT 9999 SCT018 BKN024"
    },
    {
      "icao": "ENZV",
      "alert": "OK",
      "vis_m": 9000,
      "fzfg": false,
      "metar_trigger": false,
      "taf_trigger": false,
      "metar": "METAR ENZV 061220Z 30008KT 9000 NSC 07/04 Q1021 TEMPO 4000 -DZRA BR BKN010",
      "taf": "TAF ENZV 061100Z 0612/0712 VRB05KT 9999 SCT045"
    },
    {
      "icao": "EPGD",
      "alert": "OK",
      "vis_m": 9999,
      "fzfg": false,
      "metar_trigger": false,
      "taf_trigger": false,
      "metar": "METAR EPGD 061230Z VRB02KT CAVOK 13/M08 Q1026",
      "taf": "TAF EPGD 061130Z 0612/0712 VRB03KT CAVOK"
    },
    {
      "icao": "EPKK",
      "alert": "OK",
      "vis_m": 9999,
      "fzfg": false,
      "metar_trigger": false,
      "taf_trigger": false,
      "metar": "METAR EPKK 061230Z 07006KT 040V100 CAVOK 13/M06 Q1026",
      "taf": "TAF EPKK 061130Z 0612/0712 08007KT CAVOK"
    },
    {
      "icao": "EPKT",
      "alert": "OK",
      "vis_m": 9999,
      "fzfg": false,
      "metar_trigger": false,
      "taf_trigger": false,
      "metar": "METAR EPKT 061230Z VRB02KT CAVOK 14/M06 Q1026",
      "taf": "TAF EPKT 061130Z 0612/0712 14004KT CAVOK"
    },
    {
      "icao": "EPLB",
      "alert": "OK",
      "vis_m": 9999,
      "fzfg": false,
      "metar_trigger": false,
      "taf_trigger": false,
      "metar": "METAR EPLB 061230Z 31008KT CAVOK 10/M01 Q1027",
      "taf": "TAF EPLB 061130Z 0612/0712 32007KT CAVOK"
    },
    {
      "icao": "EPMO",
      "alert": "OK",
      "vis_m": 9999,
      "fzfg": false,
      "metar_trigger": false,
      "taf_trigger": false,
      "metar": "METAR EPMO 061230Z 27005KT 220V330 CAVOK 11/01 Q1027",
      "taf": "TAF EPMO 061130Z 0612/0712 VRB03KT CAVOK"
    },
    {
      "icao": "EPPO",
      "alert": "OK",
      "vis_m": 9999,
      "fzfg": false,
      "metar_trigger": false,
      "taf_trigger": false,
      "metar": "METAR EPPO 061230Z 14007KT 090V150 CAVOK 14/M02 Q1027",
      "taf": "TAF EPPO 061130Z 0612/0712 13006KT CAVOK"
    },
    {
      "icao": "EPRA",
      "alert": "OK",
      "vis_m": 9999,
      "fzfg": false,
      "metar_trigger": false,
      "taf_trigger": false,
      "metar": "METAR EPRA 061230Z VRB03KT CAVOK 11/M04 Q1027",
      "taf": "TAF EPRA 061130Z 0612/0621 VRB02KT CAVOK"
    },
    {
      "icao": "EPRZ",
      "alert": "OK",
      "vis_m": 9999,
      "fzfg": false,
      "metar_trigger": false,
      "taf_trigger": false,
      "metar": "METAR EPRZ 061230Z 23003KT 200V010 CAVOK 13/M01 Q1027",
      "taf": "TAF EPRZ 061130Z 0612/0712 VRB03KT CAVOK"
    },
    {
      "icao": "EPSC",
      "alert": "OK",
      "vis_m": 9999,
      "fzfg": false,
      "metar_trigger": false,
      "taf_trigger": false,
      "metar": "METAR EPSC 061230Z 15011KT CAVOK 13/M01 Q1025",
      "taf": "TAF EPSC 061130Z 0612/0712 14010KT CAVOK"
    },
    {
      "icao": "EPSY",
      "alert": "OK",
      "vis_m": 9999,
      "fzfg": false,
      "metar_trigger": false,
      "taf_trigger": false,
      "metar": "METAR EPSY 061230Z VRB02KT CAVOK 11/M04 Q1027",
      "taf": "TAF EPSY 061130Z 0612/0621 VRB03KT CAVOK"
    },
    {
      "icao": "EPWA",
      "alert": "OK",
      "vis_m": 9999,
      "fzfg": false,
      "metar_trigger": false,
      "taf_trigger": false,
      "metar": "METAR EPWA 061230Z 32005KT 250V020 CAVOK 11/M01 Q1027 NOSIG",
      "taf": "TAF EPWA 061130Z 0612/0712 VRB04KT CAVOK"
    },
    {
      "icao": "EPWR",
      "alert": "OK",
      "vis_m": 9999,
      "fzfg": false,
      "metar_trigger": false,
      "taf_trigger": false,
      "metar": "METAR EPWR 061230Z 13012KT CAVOK 13/M01 Q1026",
      "taf": "TAF EPWR 061130Z 0612/0712 14012KT CAVOK"
    },
    {
      "icao": "ESGG",
      "alert": "OK",
      "vis_m": 9999,
      "fzfg": false,
      "metar_trigger": false,
      "taf_trigger": false,
      "metar": "METAR ESGG 061220Z 22008KT CAVOK 10/00 Q1023",
      "taf": "TAF ESGG 061130Z 0612/0712 18009KT CAVOK"
    },
    {
      "icao": "ESKN",
      "alert": "OK",
      "vis_m": 9999,
      "fzfg": false,
      "metar_trigger": false,
      "taf_trigger": false,
      "metar": "METAR ESKN 061220Z 23007KT CAVOK 11/M01 Q1022",
      "taf": "TAF ESKN 061130Z 0612/0712 23007KT CAVOK"
    },
    {
      "icao": "ESMS",
      "alert": "OK",
      "vis_m": 9999,
      "fzfg": false,
      "metar_trigger": false,
      "taf_trigger": false,
      "metar": "METAR ESMS 061220Z 16009KT CAVOK 10/M00 Q1024",
      "taf": "TAF ESMS 061127Z 0612/0712 14008KT CAVOK"
    },
    {
      "icao": "ESSA",
      "alert": "OK",
      "vis_m": 9999,
      "fzfg": false,
      "metar_trigger": false,
      "taf_trigger": false,
      "metar": "METAR ESSA 061220Z 25016KT CAVOK 09/03 Q1020 NOSIG",
      "taf": "TAF ESSA 061130Z 0612/0712 24011KT CAVOK"
    },
    {
      "icao": "EYKA",
      "alert": "OK",
      "vis_m": 9999,
      "fzfg": false,
      "metar_trigger": false,
      "taf_trigger": false,
      "metar": "METAR EYKA 061220Z 21003KT 130V290 9999 SCT006 01/01 Q1027",
      "taf": ""
    },
    {
      "icao": "EYPA",
      "alert": "OK",
      "vis_m": 9999,
      "fzfg": false,
      "metar_trigger": false,
      "taf_trigger": false,
      "metar": "METAR EYPA 061220Z 19005KT 150V220 CAVOK 04/02 Q1026",
      "taf": ""
    },
    {
      "icao": "EYVI",
      "alert": "OK",
      "vis_m": 9999,
      "fzfg": false,
      "metar_trigger": false,
      "taf_trigger": false,
      "metar": "METAR EYVI 061220Z 29004KT 260V340 CAVOK 05/M00 Q1026 NOSIG",
      "taf": "TAF EYVI 061100Z 0612/0712 VRB04KT 8000 NSC"
    },
    {
      "icao": "GCFV",
      "alert": "OK",
      "vis_m": 9999,
      "fzfg": false,
      "metar_trigger": false,
      "taf_trigger": false,
      "metar": "METAR GCFV 061230Z 02020KT 9999 FEW020 BKN040 19/10 Q1022",
      "taf": "TAF GCFV 060800Z 0609/0709 03020KT 9999 SCT025 TX20/0614Z TN14/0706Z"
    },
    {
      "icao": "GCLP",
      "alert": "OK",
      "vis_m": 9999,
      "fzfg": false,
      "metar_trigger": false,
      "taf_trigger": false,
      "metar": "METAR GCLP 061230Z 03025KT 9999 SCT030 20/11 Q1023 NOSIG",
      "taf": "TAF GCLP 060800Z 0609/0709 03022KT 9999 SCT030 TX18/0614Z TN14/0706Z"
    },
    {
      "icao": "GCTS",
      "alert": "OK",
      "vis_m": 9999,
      "fzfg": false,
      "metar_trigger": false,
      "taf_trigger": false,
      "metar": "METAR GCTS 061230Z 08026KT 9999 FEW040 20/08 Q1023 NOSIG",
      "taf": ""
    },
    {
      "icao": "GMAD",
      "alert": "OK",
      "vis_m": 8000,
      "fzfg": false,
      "metar_trigger": false,
      "taf_trigger": false,
      "metar": "METAR GMAD 061230Z 23004KT 8000 SCT020 20/14 Q1017 NOSIG",
      "taf": "TAF GMAD 061100Z 0612/0718 28012KT 8000 SCT020"
    },
    {
      "icao": "GMMN",
      "alert": "OK",
      "vis_m": 9999,
      "fzfg": false,
      "metar_trigger": false,
      "taf_trigger": false,
      "metar": "METAR GMMN 061230Z 32011KT 290V350 9999 BKN026 14/09 Q1022 NOSIG",
      "taf": "TAF GMMN 061100Z 0612/0718 32014KT 9999 BKN026"
    },
    {
      "icao": "GMMX",
      "alert": "OK",
      "vis_m": 9999,
      "fzfg": false,
      "metar_trigger": false,
      "taf_trigger": false,
      "metar": "METAR GMMX 061230Z 02006KT 320V060 9999 BKN020 15/10 Q1021 NOSIG",
      "taf": ""
    },
    {
      "icao": "HEGN",
      "alert": "OK",
      "vis_m": null,
      "fzfg": false,
      "metar_trigger": false,
      "taf_trigger": false,
      "metar": "",
      "taf": "TAF HEGN 061100Z 0612/0718 36008G20KT CAVOK"
    },
    {
      "icao": "HEMA",
      "alert": "OK",
      "vis_m": null,
      "fzfg": false,
      "metar_trigger": false,
      "taf_trigger": false,
      "metar": "",
      "taf": "TAF HEMA 061100Z 0612/0718 36006G18KT CAVOK"
    },
    {
      "icao": "HESH",
      "alert": "OK",
      "vis_m": null,
      "fzfg": false,
      "metar_trigger": false,
      "taf_trigger": false,
      "metar": "",
      "taf": "TAF HESH 061100Z 0612/0718 12008KT CAVOK"
    },
    {
      "icao": "HESX",
      "alert": "OK",
      "vis_m": null,
      "fzfg": false,
      "metar_trigger": false,
      "taf_trigger": false,
      "metar": "",
      "taf": "TAF HESX 061100Z 0612/0718 35012KT 9999 SCT025"
    },
    {
      "icao": "LATI",
      "alert": "OK",
      "vis_m": 9999,
      "fzfg": false,
      "metar_trigger": false,
      "taf_trigger": false,
      "metar": "METAR LATI 061220Z 01004KT 300V080 CAVOK 20/M01 Q1022 NOSIG",
      "taf": "TAF LATI 061100Z 0612/0712 VRB04KT CAVOK TX21/0712Z TN04/0705Z"
    },
    {
      "icao": "LBPD",
      "alert": "OK",
      "vis_m": 9999,
      "fzfg": false,
      "metar_trigger": false,
      "taf_trigger": false,
      "metar": "METAR LBPD 061230Z AUTO VRB04KT 9999 NCD 18/00 Q1023 NOSIG",
      "taf": "TAF LBPD 061100Z 0612/0712 30010KT 9999 SCT070"
    },
    {
      "icao": "LBSF",
      "alert": "OK",
      "vis_m": 9999,
      "fzfg": false,
      "metar_trigger": false,
      "taf_trigger": false,
      "metar": "METAR LBSF 061230Z 26005KT 210V350 CAVOK 14/01 Q1024 NOSIG",
      "taf": "TAF LBSF 061100Z 0612/0712 32010KT 9999 SCT060"
    },
    {
      "icao": "LBWN",
      "alert": "OK",
      "vis_m": 9999,
      "fzfg": false,
      "metar_trigger": false,
      "taf_trigger": false,
      "metar": "METAR LBWN 061230Z 31009KT 280V350 9999 FEW030 15/00 Q1023 NOSIG",
      "taf": "TAF LBWN 061100Z 0612/0712 33010KT 9999 BKN030"
    },
    {
      "icao": "LCLK",
      "alert": "OK",
      "vis_m": 9999,
      "fzfg": false,
      "metar_trigger": false,
      "taf_trigger": false,
      "metar": "METAR LCLK 061230Z 23015KT 9999 FEW025 FEW030TCU BKN050 20/12 Q1017 NOSIG",
      "taf": "TAF LCLK 061130Z 0612/0712 21014KT 9999 FEW025"
    },
    {
      "icao": "LCPH",
      "alert": "OK",
      "vis_m": 9999,
      "fzfg": false,
      "metar_trigger": false,
      "taf_trigger": false,
      "metar": "METAR LCPH 061230Z 30012KT 250V320 9999 FEW035TCU SCT045 19/11 Q1018 NOSIG",
      "taf": "TAF LCPH 061130Z 0612/0712 29010KT 9999 FEW030 SCT050"
    },
    {
      "icao": "LEAL",
      "alert": "OK",
      "vis_m": 9999,
      "fzfg": false,
      "metar_trigger": false,
      "taf_trigger": false,
      "metar": "METAR LEAL 061230Z 20004KT 140V250 9999 FEW030 17/10 Q1010 NOSIG",
      "taf": "TAF LEAL 061100Z 0612/0712 VRB04KT 9999 SCT030 TX16/0612Z TN09/0706Z"
    },
    {
      "icao": "LEBB",
      "alert": "OK",
      "vis_m": 4800,
      "fzfg": false,
      "metar_trigger": false,
      "taf_trigger": false,
      "metar": "METAR LEBB 061230Z 31012KT 270V340 4800 -RA BKN008 BKN016 BKN030 12/11 Q1020 TEMPO RA",
      "taf": "TAF LEBB 061100Z 0612/0712 31009KT 9000 SCT010 BKN016 TX12/0712Z TN09/0700Z"
    },
    {
      "icao": "LEBL",
      "alert": "OK",
      "vis_m": 2500,
      "fzfg": false,
      "metar_trigger": false,
      "taf_trigger": false,
      "metar": "METAR LEBL 061230Z 07017KT 2500 R24R/1100N R06L/1500N R06R/0800N R24L/1300N BR BKN005 FEW013TCU BKN020 BKN030 15/14 Q1013 NOSIG",
      "taf": "TAF LEBL 061100Z 0612/0712 06012KT 9999 SCT020 TX15/0612Z TN11/0706Z"
    },
    {
      "icao": "LECH",
      "alert": "OK",
      "vis_m": 9999,
      "fzfg": false,
      "metar_trigger": false,
      "taf_trigger": false,
      "metar": "METAR LECH 061230Z AUTO 02005KT 340V060 9999 SCT058 11/10 Q1012",
      "taf": ""
    },
    {
      "icao": "LEMD",
      "alert": "OK",
      "vis_m": 9999,
      "fzfg": false,
      "metar_trigger": false,
      "taf_trigger": false,
      "metar": "METAR LEMD 061230Z 35006KT 310V010 9999 -RA FEW035TCU BKN043 09/09 Q1013 NOSIG",
      "taf": "TAF LEMD 061100Z 0612/0718 04010KT 9999 FEW040 TX14/0714Z TN06/0707Z"
    },
    {
      "icao": "LEMG",
      "alert": "OK",
      "vis_m": 9999,
      "fzfg": false,
      "metar_trigger": false,
      "taf_trigger": false,
      "metar": "METAR LEMG 061230Z 18009KT 140V230 9999 BKN070 12/06 Q1013 NOSIG",
      "taf": "TAF LEMG 061100Z 0612/0712 17007KT 9999 FEW035 TX14/0614Z TN07/0707Z"
    },
    {
      "icao": "LEVC",
      "alert": "OK",
      "vis_m": 9999,
      "fzfg": false,
      "metar_trigger": false,
      "taf_trigger": false,
      "metar": "METAR LEVC 061230Z 05010KT 020V080 9999 FEW011 BKN014 15/12 Q1010 NOSIG",
      "taf": "TAF LEVC 061100Z 0612/0712 07008KT 9999 BKN020 TX15/0612Z TN09/0706Z"
    },
    {
      "icao": "LEXJ",
      "alert": "OK",
      "vis_m": 9999,
      "fzfg": false,
      "metar_trigger": false,
      "taf_trigger": false,
      "metar": "METAR LEXJ 061230Z 31012KT 280V340 9999 -RA SCT013 BKN025 BKN040 10/08 Q1022",
      "taf": "TAF LEXJ 060800Z 0609/0709 30009KT 9000 FEW015 BKN025 TX11/0612Z TN09/0705Z"
    },
    {
      "icao": "LEZG",
      "alert": "OK",
      "vis_m": 7000,
      "fzfg": false,
      "metar_trigger": false,
      "taf_trigger": false,
      "metar": "METAR LEZG 061230Z 30011KT 7000 2000SW RA BKN003 OVC025 11/11 Q1015 NOSIG",
      "taf": "TAF LEZG 061100Z 0612/0712 31010KT 9999 BKN020 TX13/0614Z TN08/0706Z"
    },
    {
      "icao": "LEZL",
      "alert": "OK",
      "vis_m": 9999,
      "fzfg": false,
      "metar_trigger": false,
      "taf_trigger": false,
      "metar": "METAR LEZL 061230Z 33004KT 250V060 9999 SCT020 BKN030 12/07 Q1014 NOSIG",
      "taf": "TAF LEZL 060800Z 0609/0709 26009KT 9999 SCT020 BKN030 TX15/0615Z TN08/0707Z"
    },
    {
      "icao": "LFBD",
      "alert": "OK",
      "vis_m": 9999,
      "fzfg": false,
      "metar_trigger": false,
      "taf_trigger": false,
      "metar": "METAR LFBD 061230Z AUTO 15004KT 100V230 9999 BKN025 BKN031 BKN078 16/11 Q1018 TEMPO 4000 -SHRA BKN030TCU",
      "taf": "TAF LFBD 061100Z 0612/0718 13010KT 9999 BKN025 TX17/0615Z TN10/0705Z"
    },
    {
      "icao": "LFLL",
      "alert": "OK",
      "vis_m": 9999,
      "fzfg": false,
      "metar_trigger": false,
      "taf_trigger": false,
      "metar": "METAR LFLL 061230Z VRB03KT CAVOK 18/07 Q1020 NOSIG",
      "taf": "TAF LFLL 061100Z 0612/0718 36005KT CAVOK"
    },
    {
      "icao": "LFLS",
      "alert": "OK",
      "vis_m": 9999,
      "fzfg": false,
      "metar_trigger": false,
      "taf_trigger": false,
      "metar": "METAR LFLS 061230Z AUTO 26005KT 220V300 9999 SCT045 17/07 Q1020 NOSIG",
      "taf": "TAF LFLS 060800Z 0609/0709 10006KT CAVOK"
    },
    {
      "icao": "LFMN",
      "alert": "OK",
      "vis_m": 9999,
      "fzfg": false,
      "metar_trigger": false,
      "taf_trigger": false,
      "metar": "METAR LFMN 061230Z 08019KT 9999 FEW063 SCT140 BKN260 17/08 Q1020 NOSIG",
      "taf": "TAF LFMN 060800Z 0609/0715 10018KT 9999 SCT070 BKN230"
    },
    {
      "icao": "LFOB",
      "alert": "OK",
      "vis_m": 9999,
      "fzfg": false,
      "metar_trigger": false,
      "taf_trigger": false,
      "metar": "METAR LFOB 061230Z AUTO 30005KT CAVOK 16/11 Q1021 NOSIG",
      "taf": "TAF LFOB 061100Z 0612/0712 VRB03KT CAVOK"
    },
    {
      "icao": "LFPO",
      "alert": "OK",
      "vis_m": 9999,
      "fzfg": false,
      "metar_trigger": false,
      "taf_trigger": false,
      "metar": "METAR LFPO 061230Z VRB02KT CAVOK 16/09 Q1021 NOSIG",
      "taf": "TAF LFPO 061100Z 0612/0718 VRB02KT CAVOK"
    },
    {
      "icao": "LFSB",
      "alert": "OK",
      "vis_m": 9999,
      "fzfg": false,
      "metar_trigger": false,
      "taf_trigger": false,
      "metar": "METAR LFSB 061230Z AUTO VRB03KT CAVOK 16/05 Q1021 NOSIG",
      "taf": "TAF LFSB 061100Z 0612/0712 36004KT CAVOK"
    },
    {
      "icao": "LGAV",
      "alert": "OK",
      "vis_m": 9999,
      "fzfg": false,
      "metar_trigger": false,
      "taf_trigger": false,
      "metar": "METAR LGAV 061220Z 04012KT 9999 SCT030 16/07 Q1024 NOSIG",
      "taf": "TAF LGAV 061100Z 0612/0712 03012KT 9999 SCT025"
    },
    {
      "icao": "LGTS",
      "alert": "OK",
      "vis_m": 9999,
      "fzfg": false,
      "metar_trigger": false,
      "taf_trigger": false,
      "metar": "METAR LGTS 061220Z 26005KT 9999 FEW016 17/08 Q1024 NOSIG",
      "taf": "TAF LGTS 061100Z 0612/0712 VRB03KT 9999 FEW025"
    },
    {
      "icao": "LHBP",
      "alert": "OK",
      "vis_m": 9999,
      "fzfg": false,
      "metar_trigger": false,
      "taf_trigger": false,
      "metar": "METAR LHBP 061230Z 12004KT 030V180 CAVOK 15/00 Q1026 NOSIG",
      "taf": "TAF LHBP 061115Z 0612/0712 10006KT CAVOK"
    },
    {
      "icao": "LHDC",
      "alert": "OK",
      "vis_m": 9999,
      "fzfg": false,
      "metar_trigger": false,
      "taf_trigger": false,
      "metar": "METAR LHDC 061215Z AUTO 35006KT 280V070 CAVOK 15/M03 Q1026 NOSIG",
      "taf": "TAF LHDC 061115Z 0612/0621 03007KT CAVOK"
    },
    {
      "icao": "LIBD",
      "alert": "OK",
      "vis_m": 9999,
      "fzfg": false,
      "metar_trigger": false,
      "taf_trigger": false,
      "metar": "METAR LIBD 061220Z 35006KT 320V020 9999 SCT012 14/11 Q1024",
      "taf": "TAF LIBD 061100Z 0612/0712 VRB04KT 8000 FEW015"
    },
    {
      "icao": "LIBG",
      "alert": "OK",
      "vis_m": 9999,
      "fzfg": false,
      "metar_trigger": false,
      "taf_trigger": false,
      "metar": "METAR LIBG 061150Z 07006KT 030V100 CAVOK 17/08 Q1023",
      "taf": "TAF LIBG 061100Z 0612/0621 VRB05KT 9999 FEW020"
    },
    {
      "icao": "LIBP",
      "alert": "OK",
      "vis_m": 9999,
      "fzfg": false,
      "metar_trigger": false,
      "taf_trigger": false,
      "metar": "METAR LIBP 061220Z AUTO 06007KT 030V090 9999 NCD 14/11 Q1024",
      "taf": "TAF LIBP 061100Z 0612/0712 VRB05KT 9999 FEW025"
    },
    {
      "icao": "LIBR",
      "alert": "OK",
      "vis_m": 9999,
      "fzfg": false,
      "metar_trigger": false,
      "taf_trigger": false,
      "metar": "METAR LIBR 061220Z 02007KT CAVOK 15/11 Q1023",
      "taf": "TAF LIBR 061100Z 0612/0712 02007KT CAVOK"
    },
    {
      "icao": "LICA",
      "alert": "OK",
      "vis_m": 9999,
      "fzfg": false,
      "metar_trigger": false,
      "taf_trigger": false,
      "metar": "METAR LICA 061220Z AUTO 11012KT 9999 FEW120/// 17/09 Q1022",
      "taf": "TAF LICA 061100Z 0612/0712 08016KT CAVOK"
    },
    {
      "icao": "LICC",
      "alert": "OK",
      "vis_m": 9999,
      "fzfg": false,
      "metar_trigger": false,
      "taf_trigger": false,
      "metar": "METAR LICC 061220Z 08012KT 9999 SCT015 BKN040 17/14 Q1021",
      "taf": "TAF LICC 061100Z 0612/0712 08012KT 9999 SCT020 BKN040"
    },
    {
      "icao": "LICJ",
      "alert": "OK",
      "vis_m": 9999,
      "fzfg": false,
      "metar_trigger": false,
      "taf_trigger": false,
      "metar": "METAR LICJ 061220Z 13003KT 080V170 9999 VCSH SCT051 17/10 Q1018",
      "taf": "TAF LICJ 061100Z 0612/0712 04013KT CAVOK"
    },
    {
      "icao": "LIMC",
      "alert": "OK",
      "vis_m": 7000,
      "fzfg": false,
      "metar_trigger": false,
      "taf_trigger": false,
      "metar": "METAR LIMC 061220Z 15004KT 060V210 7000 NSC 14/07 Q1024 NOSIG",
      "taf": "TAF LIMC 061100Z 0612/0718 VRB05KT 6000 SCT030"
    },
    {
      "icao": "LIME",
      "alert": "OK",
      "vis_m": 7000,
      "fzfg": false,
      "metar_trigger": false,
      "taf_trigger": false,
      "metar": "METAR LIME 061220Z 21003KT 150V310 7000 NSC 14/06 Q1024 NOSIG",
      "taf": "TAF LIME 061100Z 0612/0712 VRB05KT 6000 SCT030"
    },
    {
      "icao": "LIMF",
      "alert": "OK",
      "vis_m": 4000,
      "fzfg": false,
      "metar_trigger": false,
      "taf_trigger": false,
      "metar": "METAR LIMF 061220Z 14004KT 080V180 4000 BR NSC 14/06 Q1024",
      "taf": "TAF LIMF 061100Z 0612/0712 VRB04KT 6000 SCT030"
    },
    {
      "icao": "LIMJ",
      "alert": "OK",
      "vis_m": 6000,
      "fzfg": false,
      "metar_trigger": false,
      "taf_trigger": false,
      "metar": "METAR LIMJ 061220Z 03013KT 6000 NSC 15/07 Q1022",
      "taf": "TAF LIMJ 061100Z 0612/0712 35015KT 8000 FEW040"
    },
    {
      "icao": "LIPE",
      "alert": "OK",
      "vis_m": 6000,
      "fzfg": false,
      "metar_trigger": false,
      "taf_trigger": false,
      "metar": "METAR LIPE 061220Z VRB02KT 6000 BKN035 13/08 Q1025",
      "taf": "TAF LIPE 061100Z 0612/0712 VRB04KT 7000 SCT025"
    },
    {
      "icao": "LIPH",
      "alert": "OK",
      "vis_m": 9999,
      "fzfg": false,
      "metar_trigger": false,
      "taf_trigger": false,
      "metar": "METAR LIPH 061220Z VRB02KT CAVOK 16/07 Q1024",
      "taf": "TAF LIPH 061100Z 0612/0712 VRB03KT CAVOK"
    },
    {
      "icao": "LIPQ",
      "alert": "OK",
      "vis_m": 9999,
      "fzfg": false,
      "metar_trigger": false,
      "taf_trigger": false,
      "metar": "METAR LIPQ 061220Z AUTO VRB03KT 9999 NCD 16/07 Q1024",
      "taf": "TAF LIPQ 061100Z 0612/0712 VRB04KT CAVOK"
    },
    {
      "icao": "LIPR",
      "alert": "OK",
      "vis_m": 8000,
      "fzfg": false,
      "metar_trigger": false,
      "taf_trigger": false,
      "metar": "METAR LIPR 061220Z 03007KT 360V060 8000 SCT030 13/10 Q1025",
      "taf": "TAF LIPR 061100Z 0612/0712 VRB04KT 9999 SCT030"
    },
    {
      "icao": "LIPX",
      "alert": "OK",
      "vis_m": 9000,
      "fzfg": false,
      "metar_trigger": false,
      "taf_trigger": false,
      "metar": "METAR LIPX 061220Z 17005KT 130V210 9000 NSC 14/07 Q1024",
      "taf": "TAF LIPX 061100Z 0612/0712 VRB05KT 6000 NSC"
    },
    {
      "icao": "LIPY",
      "alert": "OK",
      "vis_m": 9999,
      "fzfg": false,
      "metar_trigger": false,
      "taf_trigger": false,
      "metar": "METAR LIPY 061220Z AUTO 05009KT 9999 FEW030/// 14/11 Q1024",
      "taf": "TAF LIPY 061100Z 0612/0712 04010KT 7000 SCT020"
    },
    {
      "icao": "LIPZ",
      "alert": "OK",
      "vis_m": 5000,
      "fzfg": false,
      "metar_trigger": false,
      "taf_trigger": false,
      "metar": "METAR LIPZ 061220Z 17004KT 140V200 5000 BR NSC 13/08 Q1025 NOSIG",
      "taf": "TAF LIPZ 061100Z 0612/0718 VRB03KT 7000 NSC"
    },
    {
      "icao": "LIRF",
      "alert": "OK",
      "vis_m": 9999,
      "fzfg": false,
      "metar_trigger": false,
      "taf_trigger": false,
      "metar": "METAR LIRF 061220Z 14006KT 100V190 CAVOK 17/09 Q1021 NOSIG",
      "taf": "TAF LIRF 061100Z 0612/0718 17010KT CAVOK"
    },
    {
      "icao": "LIRN",
      "alert": "OK",
      "vis_m": 9999,
      "fzfg": false,
      "metar_trigger": false,
      "taf_trigger": false,
      "metar": "METAR LIRN 061220Z VRB03KT CAVOK 17/08 Q1022 NOSIG",
      "taf": "TAF LIRN 061100Z 0612/0712 04010KT CAVOK"
    },
    {
      "icao": "LIRP",
      "alert": "OK",
      "vis_m": 9999,
      "fzfg": false,
      "metar_trigger": false,
      "taf_trigger": false,
      "metar": "METAR LIRP 061215Z 09008KT 9999 SCT070 17/08 Q1021 NOSIG",
      "taf": "TAF LIRP 061100Z 0612/0712 VRB04KT 9999 SCT060"
    },
    {
      "icao": "LIRZ",
      "alert": "OK",
      "vis_m": 9999,
      "fzfg": false,
      "metar_trigger": false,
      "taf_trigger": false,
      "metar": "METAR LIRZ 061220Z AUTO 34006KT 300V010 9999 NCD 16/07 Q1022",
      "taf": "TAF LIRZ 061100Z 0612/0712 04008KT CAVOK"
    },
    {
      "icao": "LJLJ",
      "alert": "OK",
      "vis_m": 9999,
      "fzfg": false,
      "metar_trigger": false,
      "taf_trigger": false,
      "metar": "METAR LJLJ 061230Z 06004KT 020V090 CAVOK 16/03 Q1023 NOSIG",
      "taf": "TAF LJLJ 061100Z 0612/0712 12006KT CAVOK"
    },
    {
      "icao": "LKMT",
      "alert": "OK",
      "vis_m": 9999,
      "fzfg": false,
      "metar_trigger": false,
      "taf_trigger": false,
      "metar": "METAR LKMT 061230Z VRB02KT CAVOK 14/M01 Q1026 NOSIG",
      "taf": "TAF LKMT 061100Z 0612/0712 VRB02KT CAVOK"
    },
    {
      "icao": "LKPR",
      "alert": "OK",
      "vis_m": 9999,
      "fzfg": false,
      "metar_trigger": false,
      "taf_trigger": false,
      "metar": "METAR LKPR 061230Z 10005KT CAVOK 12/02 Q1024 NOSIG",
      "taf": "TAF LKPR 061100Z 0612/0718 08006KT CAVOK"
    },
    {
      "icao": "LLBG",
      "alert": "OK",
      "vis_m": 9999,
      "fzfg": false,
      "metar_trigger": false,
      "taf_trigger": false,
      "metar": "METAR LLBG 061220Z 30012KT CAVOK 19/04 Q1018 NOSIG",
      "taf": "TAF LLBG 061103Z 0612/0712 30010KT CAVOK TX20/0612Z TN10/0704Z"
    },
    {
      "icao": "LMML",
      "alert": "OK",
      "vis_m": 9999,
      "fzfg": false,
      "metar_trigger": false,
      "taf_trigger": false,
      "metar": "METAR LMML 061215Z 13011KT 9999 BKN010 15/14 Q1020 NOSIG",
      "taf": ""
    },
    {
      "icao": "LOWW",
      "alert": "OK",
      "vis_m": 9999,
      "fzfg": false,
      "metar_trigger": false,
      "taf_trigger": false,
      "metar": "METAR LOWW 061220Z 13013KT 100V160 CAVOK 16/03 Q1024 NOSIG",
      "taf": "TAF LOWW 061115Z 0612/0718 13012KT CAVOK TX16/0714Z TN05/0705Z"
    },
    {
      "icao": "LPFR",
      "alert": "OK",
      "vis_m": 9999,
      "fzfg": false,
      "metar_trigger": false,
      "taf_trigger": false,
      "metar": "METAR LPFR 061230Z 33017KT 9999 FEW020 SCT038 14/05 Q1016",
      "taf": "TAF LPFR 061100Z 0612/0712 32015KT 9999 SCT030"
    },
    {
      "icao": "LPMA",
      "alert": "OK",
      "vis_m": 9999,
      "fzfg": false,
      "metar_trigger": false,
      "taf_trigger": false,
      "metar": "METAR LPMA 061230Z 01015KT 9999 BKN016 15/06 Q1029",
      "taf": "TAF LPMA 061100Z 0612/0712 01015KT 9999 SCT015"
    },
    {
      "icao": "LPPR",
      "alert": "OK",
      "vis_m": 9999,
      "fzfg": false,
      "metar_trigger": false,
      "taf_trigger": false,
      "metar": "METAR LPPR 061230Z 36019KT 9999 FEW003 12/03 Q1020",
      "taf": "TAF LPPR 061100Z 0612/0712 35015KT 9999 SCT025"
    },
    {
      "icao": "LPPS",
      "alert": "OK",
      "vis_m": 9999,
      "fzfg": false,
      "metar_trigger": false,
      "taf_trigger": false,
      "metar": "METAR LPPS 061230Z 03013KT 350V070 9999 FEW015 BKN030 15/06 Q1029",
      "taf": "TAF LPPS 061100Z 0612/0718 04015KT 9999 FEW015 BKN030"
    },
    {
      "icao": "LPPT",
      "alert": "OK",
      "vis_m": 9999,
      "fzfg": false,
      "metar_trigger": false,
      "taf_trigger": false,
      "metar": "METAR LPPT 061230Z 34023G37KT 9999 SCT028 12/06 Q1018 WS R02",
      "taf": "TAF LPPT 061100Z 0612/0718 33020KT 9999 SCT025"
    },
    {
      "icao": "LQBK",
      "alert": "OK",
      "vis_m": 9999,
      "fzfg": false,
      "metar_trigger": false,
      "taf_trigger": false,
      "metar": "METAR LQBK 061230Z 06006KT 360V150 CAVOK 18/M01 Q1024 NOSIG",
      "taf": "TAF LQBK 061100Z 0612/0712 33005KT CAVOK TX18/0614Z TN00/0706Z"
    },
    {
      "icao": "LQSA",
      "alert": "OK",
      "vis_m": 9999,
      "fzfg": false,
      "metar_trigger": false,
      "taf_trigger": false,
      "metar": "METAR LQSA 061230Z VRB03KT CAVOK 15/01 Q1023 NOSIG",
      "taf": "TAF LQSA 061100Z 0612/0712 VRB02KT CAVOK TX16/0614Z TNM00/0705Z"
    },
    {
      "icao": "LQTZ",
      "alert": "OK",
      "vis_m": 9999,
      "fzfg": false,
      "metar_trigger": false,
      "taf_trigger": false,
      "metar": "METAR LQTZ 061230Z 09009KT 060V120 CAVOK 17/00 Q1024",
      "taf": "TAF LQTZ 061100Z 0612/0712 VRB02KT CAVOK TX18/0614Z TNM02/0706Z"
    },
    {
      "icao": "LRBC",
      "alert": "OK",
      "vis_m": 9999,
      "fzfg": false,
      "metar_trigger": false,
      "taf_trigger": false,
      "metar": "METAR LRBC 061230Z 36014KT 9999 FEW056 13/M01 Q1025",
      "taf": "TAF LRBC 061100Z 0612/0621 36016KT CAVOK"
    },
    {
      "icao": "LRBS",
      "alert": "OK",
      "vis_m": 9999,
      "fzfg": false,
      "metar_trigger": false,
      "taf_trigger": false,
      "metar": "METAR LRBS 061230Z 20005KT 160V270 CAVOK 14/00 Q1024 NOSIG",
      "taf": "TAF LRBS 061100Z 0612/0712 VRB04KT CAVOK"
    },
    {
      "icao": "LRBV",
      "alert": "OK",
      "vis_m": 9999,
      "fzfg": false,
      "metar_trigger": false,
      "taf_trigger": false,
      "metar": "METAR LRBV 061230Z 29009KT 240V320 CAVOK 12/M03 Q1024",
      "taf": "TAF LRBV 061100Z 0612/0621 31010KT CAVOK"
    },
    {
      "icao": "LRCL",
      "alert": "OK",
      "vis_m": 9999,
      "fzfg": false,
      "metar_trigger": false,
      "taf_trigger": false,
      "metar": "METAR LRCL 061230Z VRB04KT CAVOK 14/M06 Q1025",
      "taf": "TAF LRCL 061100Z 0612/0621 VRB04KT CAVOK"
    },
    {
      "icao": "LRCV",
      "alert": "OK",
      "vis_m": 9999,
      "fzfg": false,
      "metar_trigger": false,
      "taf_trigger": false,
      "metar": "METAR LRCV 061230Z 07005KT CAVOK 14/06 Q1024",
      "taf": "TAF LRCV 061100Z 0612/0621 06006KT CAVOK"
    },
    {
      "icao": "LRIA",
      "alert": "OK",
      "vis_m": 9999,
      "fzfg": false,
      "metar_trigger": false,
      "taf_trigger": false,
      "metar": "METAR LRIA 061230Z COR 33017KT 300V360 9999 FEW043 11/M00 Q1025",
      "taf": "TAF LRIA 061100Z 0612/0621 32016KT 9999 SCT035"
    },
    {
      "icao": "LROP",
      "alert": "OK",
      "vis_m": 9999,
      "fzfg": false,
      "metar_trigger": false,
      "taf_trigger": false,
      "metar": "METAR LROP 061230Z 26005KT 220V290 CAVOK 14/M04 Q1024 NOSIG",
      "taf": "TAF LROP 061100Z 0612/0712 VRB04KT CAVOK"
    },
    {
      "icao": "LRSB",
      "alert": "OK",
      "vis_m": 9999,
      "fzfg": false,
      "metar_trigger": false,
      "taf_trigger": false,
      "metar": "METAR LRSB 061230Z 01007KT CAVOK 13/M04 Q1024",
      "taf": "TAF LRSB 061100Z 0612/0712 VRB04KT CAVOK"
    },
    {
      "icao": "LRSM",
      "alert": "OK",
      "vis_m": 9999,
      "fzfg": false,
      "metar_trigger": false,
      "taf_trigger": false,
      "metar": "METAR LRSM 061230Z 36005KT 330V050 CAVOK 14/M02 Q1026",
      "taf": "TAF LRSM 061100Z 0612/0621 VRB04KT CAVOK"
    },
    {
      "icao": "LRSV",
      "alert": "OK",
      "vis_m": 9999,
      "fzfg": false,
      "metar_trigger": false,
      "taf_trigger": false,
      "metar": "METAR LRSV 061230Z 30013KT 270V330 9999 FEW047 10/M02 Q1025",
      "taf": "TAF LRSV 061100Z 0612/0621 32015KT CAVOK"
    },
    {
      "icao": "LRTM",
      "alert": "OK",
      "vis_m": 9999,
      "fzfg": false,
      "metar_trigger": false,
      "taf_trigger": false,
      "metar": "METAR LRTM 061230Z 32004KT 250V010 CAVOK 13/M04 Q1024",
      "taf": "TAF LRTM 061100Z 0612/0621 VRB04KT CAVOK"
    },
    {
      "icao": "LRTR",
      "alert": "OK",
      "vis_m": 9999,
      "fzfg": false,
      "metar_trigger": false,
      "taf_trigger": false,
      "metar": "METAR LRTR 061230Z 36012KT CAVOK 16/00 Q1025",
      "taf": "TAF LRTR 061100Z 0612/0712 01012KT CAVOK"
    },
    {
      "icao": "LTAC",
      "alert": "OK",
      "vis_m": 9999,
      "fzfg": false,
      "metar_trigger": false,
      "taf_trigger": false,
      "metar": "METAR LTAC 061220Z 34009KT 300V010 9999 -SHRA BKN030 BKN080 08/M02 Q1019 NOSIG RMK RWY21C 32010KT RWY03L 33008KT 290V010 RWY21R 32009KT RWY03R 31009KT 270V330 RWY21L 33011KT",
      "taf": "TAF LTAC 061040Z 0612/0712 31012KT 9999 SCT040 SCT100"
    },
    {
      "icao": "LTFM",
      "alert": "OK",
      "vis_m": 9999,
      "fzfg": false,
      "metar_trigger": false,
      "taf_trigger": false,
      "metar": "METAR LTFM 061220Z 03013KT CAVOK 09/05 Q1024 NOSIG RMK RWY17L 02009KT RWY34L 01012KT RWY16R 03008KT RWY36 02012KT RWY18 02008KT 340V050",
      "taf": "TAF LTFM 061040Z 0612/0718 01012KT CAVOK"
    },
    {
      "icao": "LUKK",
      "alert": "OK",
      "vis_m": 9999,
      "fzfg": false,
      "metar_trigger": false,
      "taf_trigger": false,
      "metar": "METAR LUKK 061230Z 36012KT 320V060 9999 SCT048 10/M02 Q1023 TEMPO 35016G26KT",
      "taf": "TAF LUKK 061109Z 0612/0712 33012KT 9999 SCT030"
    },
    {
      "icao": "LWOH",
      "alert": "OK",
      "vis_m": 9999,
      "fzfg": false,
      "metar_trigger": false,
      "taf_trigger": false,
      "metar": "METAR LWOH 061220Z 15008KT CAVOK 11/05 Q1024",
      "taf": "TAF LWOH 061110Z 0612/0712 16008KT 9999 FEW040"
    },
    {
      "icao": "LWSK",
      "alert": "OK",
      "vis_m": 9999,
      "fzfg": false,
      "metar_trigger": false,
      "taf_trigger": false,
      "metar": "METAR LWSK 061220Z VRB02KT CAVOK 16/07 Q1024 NOSIG",
      "taf": "TAF LWSK 061110Z 0612/0712 VRB02KT CAVOK"
    },
    {
      "icao": "LYBE",
      "alert": "OK",
      "vis_m": 9999,
      "fzfg": false,
      "metar_trigger": false,
      "taf_trigger": false,
      "metar": "METAR LYBE 061230Z 04005KT 350V110 CAVOK 16/M03 Q1026 NOSIG",
      "taf": "TAF LYBE 061100Z 0612/0712 05007KT 9999 FEW040 TX17/0712Z TN02/0705Z"
    },
    {
      "icao": "LYNI",
      "alert": "OK",
      "vis_m": 9999,
      "fzfg": false,
      "metar_trigger": false,
      "taf_trigger": false,
      "metar": "METAR LYNI 061230Z VRB05KT 9999 FEW033 15/06 Q1025 NOSIG",
      "taf": "TAF LYNI 061100Z 0612/0712 28005KT CAVOK TX17/0614Z TN01/0706Z"
    },
    {
      "icao": "LYPG",
      "alert": "OK",
      "vis_m": 9999,
      "fzfg": false,
      "metar_trigger": false,
      "taf_trigger": false,
      "metar": "METAR LYPG 061230Z 18006KT 130V220 CAVOK 19/03 Q1022 NOSIG",
      "taf": "TAF LYPG 061100Z 0612/0712 16007KT CAVOK TX19/0614Z TN04/0705Z"
    },
    {
      "icao": "LZIB",
      "alert": "OK",
      "vis_m": 9999,
      "fzfg": false,
      "metar_trigger": false,
      "taf_trigger": false,
      "metar": "METAR LZIB 061230Z 09008KT 040V120 CAVOK 15/03 Q1025 NOSIG",
      "taf": "TAF LZIB 061115Z 0612/0712 11008KT CAVOK"
    },
    {
      "icao": "LZKZ",
      "alert": "OK",
      "vis_m": 9999,
      "fzfg": false,
      "metar_trigger": false,
      "taf_trigger": false,
      "metar": "METAR LZKZ 061230Z VRB03KT CAVOK 14/M04 Q1026 NOSIG",
      "taf": "TAF LZKZ 061115Z 0612/0712 VRB03KT CAVOK"
    },
    {
      "icao": "LZTT",
      "alert": "OK",
      "vis_m": 9999,
      "fzfg": false,
      "metar_trigger": false,
      "taf_trigger": false,
      "metar": "METAR LZTT 061230Z VRB02KT CAVOK 13/M08 Q1025 NOSIG",
      "taf": "TAF LZTT 061115Z 0612/0712 VRB04KT CAVOK"
    },
    {
      "icao": "OEJN",
      "alert": "OK",
      "vis_m": 9999,
      "fzfg": false,
      "metar_trigger": false,
      "taf_trigger": false,
      "metar": "METAR OEJN 061200Z 30012KT CAVOK 29/15 Q1011 NOSIG",
      "taf": "TAF OEJN 061100Z 0612/0718 30012KT 7000 FEW040"
    },
    {
      "icao": "OEMA",
      "alert": "OK",
      "vis_m": 9999,
      "fzfg": false,
      "metar_trigger": false,
      "taf_trigger": false,
      "metar": "METAR OEMA 061200Z 31004KT 9999 FEW040 29/03 Q1014 NOSIG",
      "taf": "TAF OEMA 061100Z 0612/0718 27010KT 7000 FEW045"
    },
    {
      "icao": "OJAI",
      "alert": "OK",
      "vis_m": 5000,
      "fzfg": false,
      "metar_trigger": false,
      "taf_trigger": false,
      "metar": "METAR OJAI 061200Z 26010KT 5000 HZ NSC 18/M03 Q1017 NOSIG",
      "taf": "TAF OJAI 061021Z 0612/0718 28008KT 5000 HZ NSC"
    },
    {
      "icao": "OMAA",
      "alert": "OK",
      "vis_m": null,
      "fzfg": false,
      "metar_trigger": false,
      "taf_trigger": false,
      "metar": "",
      "taf": ""
    },
    {
      "icao": "OMDB",
      "alert": "OK",
      "vis_m": null,
      "fzfg": false,
      "metar_trigger": false,
      "taf_trigger": false,
      "metar": "",
      "taf": ""
    },
    {
      "icao": "UAAA",
      "alert": "OK",
      "vis_m": 9999,
      "fzfg": false,
      "metar_trigger": false,
      "taf_trigger": false,
      "metar": "METAR UAAA 061230Z 03003MPS 9999 OVC012 04/01 Q1023 NOSIG",
      "taf": "TAF UAAA 061101Z 0612/0712 04003MPS 3100 BR FU BKN011 OVC030 TX09/0709Z TNM01/0701Z"
    },
    {
      "icao": "UBBB",
      "alert": "OK",
      "vis_m": 9999,
      "fzfg": false,
      "metar_trigger": false,
      "taf_trigger": false,
      "metar": "METAR UBBB 061230Z 20018G28KT CAVOK 12/01 Q1012 NOSIG",
      "taf": "TAF UBBB 061050Z 0612/0712 19014G24KT CAVOK TX11/0612Z TN05/0701Z"
    },
    {
      "icao": "UDSG",
      "alert": "OK",
      "vis_m": 9999,
      "fzfg": false,
      "metar_trigger": false,
      "taf_trigger": false,
      "metar": "METAR UDSG 061230Z 25002KT 9999 BKN046 M02/M08 Q1016 NOSIG",
      "taf": "TAF UDSG 061100Z 0612/0712 VRB06KT 9999 BKN040"
    },
    {
      "icao": "UDYZ",
      "alert": "OK",
      "vis_m": 9999,
      "fzfg": false,
      "metar_trigger": false,
      "taf_trigger": false,
      "metar": "METAR UDYZ 061230Z VRB01KT 9999 SCT046 07/M06 Q1017 NOSIG",
      "taf": "TAF UDYZ 061100Z 0612/0712 24006KT 9999 SCT040"
    },
    {
      "icao": "UGKO",
      "alert": "OK",
      "vis_m": 8000,
      "fzfg": false,
      "metar_trigger": false,
      "taf_trigger": false,
      "metar": "METAR UGKO 061230Z 33005KT 290V360 8000 -RA SCT021 BKN056 OVC087 06/04 Q1020 NOSIG",
      "taf": "TAF UGKO 061100Z 0612/0712 26012KT 9999 SCT020 BKN050 TX09/0711Z TN02/0703Z"
    }
  ]
}