{
  "ts_utc": "2026-01-11T13:53:22Z",
  "threshold_m": 150,
  "source": "stations_override.txt (ICAO list) + aviationweather.gov (METAR/TAF raw)",
  "station_count": 159,
  "stations": [
    {
      "icao": "BIKF",
      "alert": "OK",
      "vis_m": 9999,
      "fzfg": false,
      "metar_trigger": false,
      "taf_trigger": false,
      "metar": "METAR BIKF 111330Z 01013KT 9999 FEW035 SCT110 BKN220 M02/M07 Q0995",
      "taf": "TAF BIKF 111342Z 1115/1215 36013KT 9999 FEW030 TX00/1203Z TNM02/1215Z"
    },
    {
      "icao": "BKPR",
      "alert": "OK",
      "vis_m": null,
      "fzfg": false,
      "metar_trigger": false,
      "taf_trigger": false,
      "metar": "",
      "taf": "TAF BKPR 111130Z 1112/1212 35008KT 9999 SCT010 BKN030"
    },
    {
      "icao": "EBCI",
      "alert": "OK",
      "vis_m": 9000,
      "fzfg": false,
      "metar_trigger": false,
      "taf_trigger": false,
      "metar": "METAR EBCI 111320Z 17012KT 9000 SCT009 BKN012 M01/M03 Q1021 BECMG SCT012",
      "taf": "TAF EBCI 111100Z 1112/1218 19010KT 9999 BKN013"
    },
    {
      "icao": "EDDB",
      "alert": "OK",
      "vis_m": 9999,
      "fzfg": false,
      "metar_trigger": false,
      "taf_trigger": false,
      "metar": "METAR EDDB 111320Z AUTO 30013KT CAVOK M03/M08 Q1022 NOSIG",
      "taf": "TAF EDDB 111100Z 1112/1212 29011KT CAVOK"
    },
    {
      "icao": "EDDH",
      "alert": "OK",
      "vis_m": 250,
      "fzfg": true,
      "metar_trigger": false,
      "taf_trigger": false,
      "metar": "METAR EDDH 111320Z AUTO VRB02KT 0250 R23/0350N R15/0400N FZFG VV002 M06/M07 Q1025 TEMPO 0800",
      "taf": "TAF EDDH 111100Z 1112/1218 VRB02KT 0500 FZFG BKN001"
    },
    {
      "icao": "EDDK",
      "alert": "OK",
      "vis_m": 9999,
      "fzfg": false,
      "metar_trigger": false,
      "taf_trigger": false,
      "metar": "METAR EDDK 111320Z AUTO 14008KT 110V190 9999 BKN016 M02/M05 Q1024 NOSIG",
      "taf": "TAF EDDK 111100Z 1112/1218 14009KT 9999 SCT020"
    },
    {
      "icao": "EDDN",
      "alert": "OK",
      "vis_m": 9999,
      "fzfg": false,
      "metar_trigger": false,
      "taf_trigger": false,
      "metar": "METAR EDDN 111320Z AUTO VRB01KT CAVOK M02/M07 Q1025 NOSIG",
      "taf": "TAF EDDN 111100Z 1112/1212 VRB03KT CAVOK"
    },
    {
      "icao": "EDDS",
      "alert": "OK",
      "vis_m": 9999,
      "fzfg": false,
      "metar_trigger": false,
      "taf_trigger": false,
      "metar": "METAR EDDS 111320Z AUTO 22003KT 160V280 9999 OVC017 M00/M04 Q1023 NOSIG",
      "taf": "TAF EDDS 111100Z 1112/1212 VRB03KT 9999 SCT015"
    },
    {
      "icao": "EDFH",
      "alert": "OK",
      "vis_m": 9999,
      "fzfg": true,
      "metar_trigger": false,
      "taf_trigger": false,
      "metar": "METAR EDFH 111320Z COR 19006KT 9999 2000W FZFG BKN006 M03/M04 Q1022",
      "taf": "TAF EDFH 111100Z 1112/1212 17008KT 8000 BKN008"
    },
    {
      "icao": "EDJA",
      "alert": "OK",
      "vis_m": 9999,
      "fzfg": false,
      "metar_trigger": false,
      "taf_trigger": false,
      "metar": "METAR EDJA 111320Z COR 27005KT 250V310 9999 SCT012 OVC021 M02/M04 Q1023",
      "taf": "TAF EDJA 111100Z 1112/1121 23005KT 9000 SCT010 BKN015"
    },
    {
      "icao": "EDLW",
      "alert": "OK",
      "vis_m": 9999,
      "fzfg": false,
      "metar_trigger": false,
      "taf_trigger": false,
      "metar": "METAR EDLW 111320Z 17007KT CAVOK M00/M07 Q1023",
      "taf": "TAF EDLW 111120Z 1112/1212 17008KT CAVOK"
    },
    {
      "icao": "EDNY",
      "alert": "OK",
      "vis_m": 9999,
      "fzfg": false,
      "metar_trigger": false,
      "taf_trigger": false,
      "metar": "METAR EDNY 111320Z 06003KT 9999 BKN029 00/M02 Q1024",
      "taf": "TAF EDNY 111100Z 1112/1121 VRB03KT 9999 BKN015"
    },
    {
      "icao": "EDSB",
      "alert": "OK",
      "vis_m": 9999,
      "fzfg": false,
      "metar_trigger": false,
      "taf_trigger": false,
      "metar": "METAR EDSB 111320Z 02003KT 340V080 9999 OVC026 00/M02 Q1025",
      "taf": "TAF EDSB 111100Z 1112/1212 VRB03KT 8000 BKN020"
    },
    {
      "icao": "EETN",
      "alert": "OK",
      "vis_m": 1300,
      "fzfg": false,
      "metar_trigger": false,
      "taf_trigger": false,
      "metar": "METAR EETN 111350Z 06008KT 1300 R08/P2000N SN OVC007 M04/M05 Q1011 NOSIG",
      "taf": "TAF EETN 111130Z 1112/1212 07012KT 2500 SN DRSN BKN010 OVC020"
    },
    {
      "icao": "EFTU",
      "alert": "OK",
      "vis_m": 9999,
      "fzfg": false,
      "metar_trigger": false,
      "taf_trigger": false,
      "metar": "METAR EFTU 111350Z AUTO 03006KT 350V070 9999 -SHSN BKN023 M07/M09 Q1015",
      "taf": ""
    },
    {
      "icao": "EGBB",
      "alert": "OK",
      "vis_m": 9999,
      "fzfg": false,
      "metar_trigger": false,
      "taf_trigger": false,
      "metar": "METAR EGBB 111320Z 16016KT 9999 BKN009 06/04 Q1006",
      "taf": ""
    },
    {
      "icao": "EGGP",
      "alert": "OK",
      "vis_m": 9999,
      "fzfg": false,
      "metar_trigger": false,
      "taf_trigger": false,
      "metar": "METAR EGGP 111320Z 16014KT 140V200 9999 -RA BKN014 07/05 Q1002",
      "taf": "TAF EGGP 111059Z 1112/1212 16015G28KT 9999 BKN012"
    },
    {
      "icao": "EGGW",
      "alert": "OK",
      "vis_m": 9999,
      "fzfg": false,
      "metar_trigger": false,
      "taf_trigger": false,
      "metar": "METAR EGGW 111320Z AUTO 17014KT 9999 OVC012 05/03 Q1010",
      "taf": "TAF EGGW 111103Z 1112/1212 17018G32KT 9999 FEW010 BKN040"
    },
    {
      "icao": "EGKK",
      "alert": "OK",
      "vis_m": 9999,
      "fzfg": false,
      "metar_trigger": false,
      "taf_trigger": false,
      "metar": "METAR EGKK 111320Z 17011KT 140V200 9999 BKN017 07/04 Q1013",
      "taf": "TAF EGKK 111057Z 1112/1218 16010KT 9999 SCT015"
    },
    {
      "icao": "EGNM",
      "alert": "OK",
      "vis_m": 4000,
      "fzfg": false,
      "metar_trigger": false,
      "taf_trigger": false,
      "metar": "METAR EGNM 111320Z 15009KT 120V190 4000 -RA BR SCT003 BKN004 02/02 Q1004",
      "taf": "TAF EGNM 111100Z 1112/1212 15015G28KT 9999 BKN006"
    },
    {
      "icao": "EGPD",
      "alert": "OK",
      "vis_m": 4600,
      "fzfg": false,
      "metar_trigger": false,
      "taf_trigger": false,
      "metar": "METAR EGPD 111320Z AUTO 17018KT 4600 -RADZ BKN008 OVC013 04/02 Q0996 TEMPO BKN006",
      "taf": ""
    },
    {
      "icao": "EGPF",
      "alert": "OK",
      "vis_m": 9999,
      "fzfg": false,
      "metar_trigger": false,
      "taf_trigger": false,
      "metar": "METAR EGPF 111320Z AUTO 16006KT 110V220 9999 -RA OVC015 09/07 Q0994",
      "taf": "TAF EGPF 111103Z 1112/1212 14009KT 9999 FEW015 SCT030"
    },
    {
      "icao": "EHBK",
      "alert": "OK",
      "vis_m": 9999,
      "fzfg": false,
      "metar_trigger": false,
      "taf_trigger": false,
      "metar": "METAR EHBK 111325Z AUTO 20009KT 160V220 9999 OVC012/// M01/M03 Q1023 NOSIG",
      "taf": ""
    },
    {
      "icao": "EHEH",
      "alert": "OK",
      "vis_m": 7000,
      "fzfg": false,
      "metar_trigger": false,
      "taf_trigger": false,
      "metar": "METAR EHEH 111325Z AUTO 19008KT 140V210 7000 BR OVC009 M01/M03 Q1023 GRN NOSIG RMK TREND REMOTE BY EHWX",
      "taf": "TAF EHEH 111136Z 1112/1218 18008KT 9999 OVC014"
    },
    {
      "icao": "EKBI",
      "alert": "OK",
      "vis_m": 9999,
      "fzfg": false,
      "metar_trigger": false,
      "taf_trigger": false,
      "metar": "METAR EKBI 111320Z AUTO 19001KT 9999 NCD M06/M07 Q1024",
      "taf": "TAF EKBI 111127Z 1112/1212 VRB02KT CAVOK"
    },
    {
      "icao": "EKCH",
      "alert": "OK",
      "vis_m": 9999,
      "fzfg": false,
      "metar_trigger": false,
      "taf_trigger": false,
      "metar": "METAR EKCH 111320Z AUTO 34008KT 330V030 9999 NCD M01/M09 Q1022 NOSIG",
      "taf": "TAF EKCH 111127Z 1112/1212 33010KT CAVOK"
    },
    {
      "icao": "ENAL",
      "alert": "OK",
      "vis_m": 9999,
      "fzfg": false,
      "metar_trigger": false,
      "taf_trigger": false,
      "metar": "METAR ENAL 111320Z 13015KT CAVOK 02/M08 Q1012",
      "taf": "TAF ENAL 111100Z 1112/1121 12015KT CAVOK"
    },
    {
      "icao": "ENBR",
      "alert": "OK",
      "vis_m": 9999,
      "fzfg": false,
      "metar_trigger": false,
      "taf_trigger": false,
      "metar": "METAR ENBR 111320Z 14018G32KT 9999 SCT040 02/M06 Q1014 TEMPO 13017KT RMK WIND 1200FT 14042G52KT",
      "taf": "TAF ENBR 111100Z 1112/1212 13012KT 9999 SCT045"
    },
    {
      "icao": "ENGM",
      "alert": "OK",
      "vis_m": 9999,
      "fzfg": false,
      "metar_trigger": false,
      "taf_trigger": false,
      "metar": "METAR ENGM 111320Z 00000KT 9999 BKN004 M16/M18 Q1022 TEMPO SCT005",
      "taf": "TAF ENGM 111100Z 1112/1212 VRB03KT CAVOK"
    },
    {
      "icao": "ENHD",
      "alert": "OK",
      "vis_m": 9999,
      "fzfg": false,
      "metar_trigger": false,
      "taf_trigger": false,
      "metar": "METAR ENHD 111320Z 14023G38KT 9999 BKN040 01/M04 Q1015",
      "taf": "TAF ENHD 111100Z 1112/1121 13025KT 9999 BKN040"
    },
    {
      "icao": "ENTC",
      "alert": "OK",
      "vis_m": 9999,
      "fzfg": false,
      "metar_trigger": false,
      "taf_trigger": false,
      "metar": "METAR ENTC 111320Z VRB01KT CAVOK M11/M13 Q1020 NOSIG RMK WIND 2600FT 18024KT",
      "taf": "TAF ENTC 111100Z 1112/1212 20005KT CAVOK"
    },
    {
      "icao": "ENTO",
      "alert": "OK",
      "vis_m": 9999,
      "fzfg": false,
      "metar_trigger": false,
      "taf_trigger": false,
      "metar": "METAR ENTO 111320Z 01006KT 9999 SCT010 M14/M16 Q1023 NOSIG",
      "taf": ""
    },
    {
      "icao": "ENVA",
      "alert": "OK",
      "vis_m": 9999,
      "fzfg": false,
      "metar_trigger": false,
      "taf_trigger": false,
      "metar": "METAR ENVA 111320Z 11005KT CAVOK M06/M13 Q1018 NOSIG RMK WIND 670FT 13016KT",
      "taf": "TAF ENVA 111100Z 1112/1212 10008KT CAVOK"
    },
    {
      "icao": "ENZV",
      "alert": "OK",
      "vis_m": 9999,
      "fzfg": false,
      "metar_trigger": false,
      "taf_trigger": false,
      "metar": "METAR ENZV 111320Z 14020KT 9999 SCT042 01/M05 Q1016 BECMG 14022G35KT",
      "taf": ""
    },
    {
      "icao": "EPGD",
      "alert": "OK",
      "vis_m": 1200,
      "fzfg": false,
      "metar_trigger": false,
      "taf_trigger": false,
      "metar": "METAR EPGD 111330Z 33015KT 1200 R29/1400D SHSN VV010 M01/M02 Q1010 RESHSN",
      "taf": "TAF EPGD 111130Z 1112/1212 33012KT 9999 SCT016"
    },
    {
      "icao": "EPKK",
      "alert": "OK",
      "vis_m": 5000,
      "fzfg": false,
      "metar_trigger": false,
      "taf_trigger": false,
      "metar": "METAR EPKK 111330Z 27016KT 5000 -SN DRSN BR FEW020 OVC033 M04/M07 Q1012",
      "taf": "TAF EPKK 111130Z 1112/1212 27015KT 5000 -SN BR OVC020"
    },
    {
      "icao": "EPKT",
      "alert": "OK",
      "vis_m": 1700,
      "fzfg": false,
      "metar_trigger": false,
      "taf_trigger": false,
      "metar": "METAR EPKT 111330Z 26013KT 1700 SN DRSN FEW007 BKN013 M05/M06 Q1012",
      "taf": "TAF EPKT 111130Z 1112/1212 28015KT 3000 -SN BR BKN014 BKN016"
    },
    {
      "icao": "EPLB",
      "alert": "OK",
      "vis_m": 9999,
      "fzfg": false,
      "metar_trigger": false,
      "taf_trigger": false,
      "metar": "METAR EPLB 111330Z 30009KT 9999 -SN FEW024 BKN030 M05/M08 Q1007",
      "taf": "TAF EPLB 111130Z 1112/1212 30010KT 8000 -SN BKN030"
    },
    {
      "icao": "EPMO",
      "alert": "OK",
      "vis_m": 9999,
      "fzfg": false,
      "metar_trigger": false,
      "taf_trigger": false,
      "metar": "METAR EPMO 111330Z 29008KT 9999 -SN FEW014 SCT040 M03/M05 Q1009",
      "taf": "TAF EPMO 111130Z 1112/1212 31010KT 7000 -SN BKN025"
    },
    {
      "icao": "EPPO",
      "alert": "OK",
      "vis_m": 9999,
      "fzfg": false,
      "metar_trigger": false,
      "taf_trigger": false,
      "metar": "METAR EPPO 111330Z 29015KT 9999 OVC019 M02/M05 Q1015",
      "taf": "TAF EPPO 111130Z 1112/1212 30012KT 9999 BKN020"
    },
    {
      "icao": "EPRA",
      "alert": "OK",
      "vis_m": 5000,
      "fzfg": false,
      "metar_trigger": false,
      "taf_trigger": false,
      "metar": "METAR EPRA 111330Z 30008KT 5000 -SN SCT011 BKN025 M04/M06 Q1008 RESN",
      "taf": "TAF EPRA 111130Z 1112/1121 30010KT 8000 -SN BKN018"
    },
    {
      "icao": "EPRZ",
      "alert": "OK",
      "vis_m": 2500,
      "fzfg": false,
      "metar_trigger": false,
      "taf_trigger": false,
      "metar": "METAR EPRZ 111330Z 27014KT 2500 -SN BR FEW003 SCT011 BKN030 M03/M04 Q1008",
      "taf": "TAF EPRZ 111130Z 1112/1212 28008KT 3000 -SN BR BKN016"
    },
    {
      "icao": "EPSC",
      "alert": "OK",
      "vis_m": 9999,
      "fzfg": false,
      "metar_trigger": false,
      "taf_trigger": false,
      "metar": "METAR EPSC 111330Z 31014KT 9999 BKN020 M01/M05 Q1018",
      "taf": "TAF EPSC 111130Z 1112/1212 33014KT 9999 BKN020"
    },
    {
      "icao": "EPSY",
      "alert": "OK",
      "vis_m": 9999,
      "fzfg": false,
      "metar_trigger": false,
      "taf_trigger": false,
      "metar": "METAR EPSY 111330Z 27005KT 9999 -SN SCT017 BKN043 M05/M07 Q1008",
      "taf": "TAF EPSY 111130Z 1112/1121 32007KT CAVOK"
    },
    {
      "icao": "EPWA",
      "alert": "OK",
      "vis_m": 9999,
      "fzfg": false,
      "metar_trigger": false,
      "taf_trigger": false,
      "metar": "METAR EPWA 111330Z 30009KT 9999 SCT011 M03/M05 Q1009 NOSIG",
      "taf": "TAF EPWA 111130Z 1112/1212 31008KT 8000 -SN BKN025"
    },
    {
      "icao": "EPWR",
      "alert": "OK",
      "vis_m": 9999,
      "fzfg": false,
      "metar_trigger": false,
      "taf_trigger": false,
      "metar": "METAR EPWR 111330Z 28019KT 9999 -SN DRSN SCT036 BKN045 M04/M07 Q1017",
      "taf": "TAF EPWR 111130Z 1112/1212 29015KT 9999 -SN BKN030"
    },
    {
      "icao": "ESGG",
      "alert": "OK",
      "vis_m": 9999,
      "fzfg": false,
      "metar_trigger": false,
      "taf_trigger": false,
      "metar": "METAR ESGG 111320Z 06002KT CAVOK M11/M13 Q1021",
      "taf": "TAF ESGG 111130Z 1112/1212 03005KT CAVOK"
    },
    {
      "icao": "ESKN",
      "alert": "OK",
      "vis_m": 9999,
      "fzfg": false,
      "metar_trigger": false,
      "taf_trigger": false,
      "metar": "METAR ESKN 111320Z 32012KT CAVOK M07/M09 Q1018",
      "taf": "TAF ESKN 111130Z 1112/1212 33013KT CAVOK"
    },
    {
      "icao": "ESMS",
      "alert": "OK",
      "vis_m": 9999,
      "fzfg": false,
      "metar_trigger": false,
      "taf_trigger": false,
      "metar": "METAR ESMS 111320Z 32008KT CAVOK M05/M10 Q1021",
      "taf": "TAF ESMS 111127Z 1112/1212 32010KT CAVOK"
    },
    {
      "icao": "ESSA",
      "alert": "OK",
      "vis_m": 9999,
      "fzfg": false,
      "metar_trigger": false,
      "taf_trigger": false,
      "metar": "METAR ESSA 111320Z 32015KT CAVOK M07/M08 Q1017 NOSIG",
      "taf": "TAF ESSA 111130Z 1112/1212 33014KT CAVOK"
    },
    {
      "icao": "EYKA",
      "alert": "OK",
      "vis_m": 9999,
      "fzfg": false,
      "metar_trigger": false,
      "taf_trigger": false,
      "metar": "METAR EYKA 111350Z VRB02KT 9999 -SN FEW014 SCT031 M11/M12 Q1007",
      "taf": "TAF EYKA 111110Z 1112/1212 VRB03KT 5000 SN BKN030"
    },
    {
      "icao": "EYPA",
      "alert": "OK",
      "vis_m": 9999,
      "fzfg": false,
      "metar_trigger": false,
      "taf_trigger": false,
      "metar": "METAR EYPA 111350Z 04008KT 9999 SCT019 SCT023 BKN031 M04/M07 Q1009",
      "taf": "TAF EYPA 111102Z 1112/1212 02007KT 7000 BKN030"
    },
    {
      "icao": "EYVI",
      "alert": "OK",
      "vis_m": 9999,
      "fzfg": false,
      "metar_trigger": false,
      "taf_trigger": false,
      "metar": "METAR EYVI 111350Z 32004KT 9999 -SN FEW007 SCT008 BKN030 M13/M14 Q1005 NOSIG",
      "taf": "TAF EYVI 111100Z 1112/1212 VRB04KT 5000 SN BKN025"
    },
    {
      "icao": "GCFV",
      "alert": "OK",
      "vis_m": 9999,
      "fzfg": false,
      "metar_trigger": false,
      "taf_trigger": false,
      "metar": "METAR GCFV 111330Z 06008KT 9999 FEW024 19/12 Q1024",
      "taf": "TAF GCFV 110800Z 1109/1209 05010KT 9999 FEW020 TX20/1114Z TN13/1206Z"
    },
    {
      "icao": "GCLP",
      "alert": "OK",
      "vis_m": 9999,
      "fzfg": false,
      "metar_trigger": false,
      "taf_trigger": false,
      "metar": "METAR GCLP 111330Z 04012KT 9999 FEW030 21/13 Q1024 NOSIG",
      "taf": "TAF GCLP 110800Z 1109/1209 03014KT 9999 FEW025 TX21/1114Z TN14/1206Z"
    },
    {
      "icao": "GCTS",
      "alert": "OK",
      "vis_m": 9999,
      "fzfg": false,
      "metar_trigger": false,
      "taf_trigger": false,
      "metar": "METAR GCTS 111330Z 10017KT 060V120 9999 FEW035 21/13 Q1024 NOSIG",
      "taf": "TAF GCTS 110800Z 1109/1209 09015KT 9999 SCT040 TX23/1114Z TN16/1206Z"
    },
    {
      "icao": "GMAD",
      "alert": "OK",
      "vis_m": 9999,
      "fzfg": false,
      "metar_trigger": false,
      "taf_trigger": false,
      "metar": "METAR GMAD 111330Z 04004KT 010V070 CAVOK 20/07 Q1023 NOSIG",
      "taf": "TAF GMAD 111100Z 1112/1218 06005KT CAVOK"
    },
    {
      "icao": "GMMN",
      "alert": "OK",
      "vis_m": 9999,
      "fzfg": false,
      "metar_trigger": false,
      "taf_trigger": false,
      "metar": "METAR GMMN 111330Z 04008KT CAVOK 15/10 Q1025 NOSIG",
      "taf": "TAF GMMN 111100Z 1112/1218 05012KT 9999 FEW020"
    },
    {
      "icao": "GMMX",
      "alert": "OK",
      "vis_m": 9999,
      "fzfg": false,
      "metar_trigger": false,
      "taf_trigger": false,
      "metar": "METAR GMMX 111330Z 30003KT 210V020 CAVOK 16/09 Q1024 NOSIG",
      "taf": "TAF GMMX 111100Z 1112/1218 06006KT CAVOK"
    },
    {
      "icao": "HEGN",
      "alert": "OK",
      "vis_m": 9999,
      "fzfg": false,
      "metar_trigger": false,
      "taf_trigger": false,
      "metar": "METAR HEGN 111300Z 06005KT CAVOK 23/11 Q1016 NOSIG",
      "taf": "TAF HEGN 111100Z 1112/1218 36013KT CAVOK"
    },
    {
      "icao": "HEMA",
      "alert": "OK",
      "vis_m": 9999,
      "fzfg": false,
      "metar_trigger": false,
      "taf_trigger": false,
      "metar": "METAR HEMA 111300Z 02011KT CAVOK 22/15 Q1015 NOSIG",
      "taf": "TAF HEMA 111100Z 1112/1218 36015KT CAVOK"
    },
    {
      "icao": "HESH",
      "alert": "OK",
      "vis_m": 9999,
      "fzfg": false,
      "metar_trigger": false,
      "taf_trigger": false,
      "metar": "METAR HESH 111300Z 14005KT CAVOK 24/09 Q1016 NOSIG",
      "taf": "TAF HESH 111100Z 1112/1218 01012KT CAVOK"
    },
    {
      "icao": "HESX",
      "alert": "OK",
      "vis_m": 9999,
      "fzfg": false,
      "metar_trigger": false,
      "taf_trigger": false,
      "metar": "METAR HESX 111300Z 26010KT CAVOK 20/03 Q1016 NOSIG",
      "taf": "TAF HESX 111100Z 1112/1218 22010KT 9999 FEW020"
    },
    {
      "icao": "LATI",
      "alert": "OK",
      "vis_m": 9999,
      "fzfg": false,
      "metar_trigger": false,
      "taf_trigger": false,
      "metar": "METAR LATI 111350Z 31015KT 9999 FEW040 08/M02 Q1010 NOSIG",
      "taf": "TAF LATI 111100Z 1112/1212 34012KT CAVOK TX12/1112Z TNM04/1205Z"
    },
    {
      "icao": "LBPD",
      "alert": "OK",
      "vis_m": 6000,
      "fzfg": false,
      "metar_trigger": false,
      "taf_trigger": false,
      "metar": "METAR LBPD 111330Z AUTO 29018KT 6000 -SN FEW026/// SCT030/// OVC036/// 01/M01 Q1009 TEMPO 4000 SN",
      "taf": "TAF LBPD 111100Z 1112/1212 28020KT 9999 SCT020 BKN050"
    },
    {
      "icao": "LBSF",
      "alert": "OK",
      "vis_m": 9999,
      "fzfg": false,
      "metar_trigger": false,
      "taf_trigger": false,
      "metar": "METAR LBSF 111330Z 28020G30KT 9999 OVC024 M04/M09 Q1011 NOSIG",
      "taf": "TAF LBSF 111100Z 1112/1212 28018KT 7000 BKN012 OVC040"
    },
    {
      "icao": "LBWN",
      "alert": "OK",
      "vis_m": 9999,
      "fzfg": false,
      "metar_trigger": false,
      "taf_trigger": false,
      "metar": "METAR LBWN 111330Z 31008KT 290V020 9999 BKN014 M03/M05 Q1011 NOSIG",
      "taf": "TAF LBWN 111100Z 1112/1212 33010KT 9999 SCT010 BKN015 OVC030"
    },
    {
      "icao": "LCLK",
      "alert": "OK",
      "vis_m": 9999,
      "fzfg": false,
      "metar_trigger": false,
      "taf_trigger": false,
      "metar": "METAR LCLK 111330Z 20018KT 9999 FEW020 FEW025TCU FEW030CB SCT050 19/13 Q1012 NOSIG RMK CB TO N W",
      "taf": "TAF LCLK 111130Z 1112/1212 21021KT 9999 FEW025TCU FEW030CB SCT035"
    },
    {
      "icao": "LCPH",
      "alert": "OK",
      "vis_m": 9999,
      "fzfg": false,
      "metar_trigger": false,
      "taf_trigger": false,
      "metar": "METAR LCPH 111330Z 24011KT 9999 FEW030 FEW035CB 19/12 Q1012 NOSIG",
      "taf": "TAF LCPH 111130Z 1112/1212 24019KT 9999 FEW025TCU SCT030 FEW035CB"
    },
    {
      "icao": "LEAL",
      "alert": "OK",
      "vis_m": 9999,
      "fzfg": false,
      "metar_trigger": false,
      "taf_trigger": false,
      "metar": "METAR LEAL 111330Z 10006KT 060V140 CAVOK 16/05 Q1024 NOSIG",
      "taf": "TAF LEAL 111100Z 1112/1212 28008KT CAVOK TX16/1113Z TN07/1206Z"
    },
    {
      "icao": "LEBB",
      "alert": "OK",
      "vis_m": 9999,
      "fzfg": false,
      "metar_trigger": false,
      "taf_trigger": false,
      "metar": "METAR LEBB 111330Z 19004KT 120V290 9999 SCT050 BKN070 15/07 Q1021 NOSIG",
      "taf": "TAF LEBB 111100Z 1112/1212 18008KT 9999 FEW040 TX14/1114Z TN12/1207Z"
    },
    {
      "icao": "LEBL",
      "alert": "OK",
      "vis_m": 9999,
      "fzfg": false,
      "metar_trigger": false,
      "taf_trigger": false,
      "metar": "METAR LEBL 111330Z 19006KT 130V220 CAVOK 12/05 Q1023 NOSIG",
      "taf": ""
    },
    {
      "icao": "LECH",
      "alert": "OK",
      "vis_m": 9000,
      "fzfg": false,
      "metar_trigger": false,
      "taf_trigger": false,
      "metar": "METAR LECH 111330Z AUTO 14008KT 9000 NCD 13/02 Q1023",
      "taf": ""
    },
    {
      "icao": "LEMD",
      "alert": "OK",
      "vis_m": 9999,
      "fzfg": false,
      "metar_trigger": false,
      "taf_trigger": false,
      "metar": "METAR LEMD 111330Z 14002KT CAVOK 08/00 Q1025 NOSIG",
      "taf": "TAF LEMD 111100Z 1112/1218 VRB03KT CAVOK TX10/1114Z TN02/1200Z"
    },
    {
      "icao": "LEMG",
      "alert": "OK",
      "vis_m": 9999,
      "fzfg": false,
      "metar_trigger": false,
      "taf_trigger": false,
      "metar": "METAR LEMG 111330Z 13001KT CAVOK 16/05 Q1025 NOSIG",
      "taf": "TAF LEMG 111100Z 1112/1212 26006KT CAVOK TX17/1114Z TN07/1207Z"
    },
    {
      "icao": "LEVC",
      "alert": "OK",
      "vis_m": 9999,
      "fzfg": false,
      "metar_trigger": false,
      "taf_trigger": false,
      "metar": "METAR LEVC 111330Z 20004KT 160V250 CAVOK 17/01 Q1023 NOSIG",
      "taf": "TAF LEVC 111100Z 1112/1212 27008KT CAVOK TX16/1114Z TN05/1206Z"
    },
    {
      "icao": "LEXJ",
      "alert": "OK",
      "vis_m": 9999,
      "fzfg": false,
      "metar_trigger": false,
      "taf_trigger": false,
      "metar": "METAR LEXJ 111330Z 19004KT 130V270 9999 SCT066 BKN074 16/06 Q1019",
      "taf": "TAF LEXJ 110800Z 1109/1209 22009KT 9999 FEW040 SCT070 TX16/1113Z TN12/1208Z"
    },
    {
      "icao": "LEZG",
      "alert": "OK",
      "vis_m": 9999,
      "fzfg": false,
      "metar_trigger": false,
      "taf_trigger": false,
      "metar": "METAR LEZG 111330Z 25009KT 220V280 CAVOK 14/04 Q1023 NOSIG",
      "taf": "TAF LEZG 111100Z 1112/1212 24009KT 9999 FEW050 TX13/1115Z TN04/1206Z"
    },
    {
      "icao": "LEZL",
      "alert": "OK",
      "vis_m": 9999,
      "fzfg": false,
      "metar_trigger": false,
      "taf_trigger": false,
      "metar": "METAR LEZL 111330Z 06003KT 360V160 CAVOK 14/07 Q1027 NOSIG",
      "taf": "TAF LEZL 110800Z 1109/1209 06004KT CAVOK TX16/1115Z TN05/1207Z"
    },
    {
      "icao": "LFBD",
      "alert": "OK",
      "vis_m": 9999,
      "fzfg": false,
      "metar_trigger": false,
      "taf_trigger": false,
      "metar": "METAR LFBD 111330Z AUTO 13009KT 9999 OVC003 05/05 Q1021",
      "taf": ""
    },
    {
      "icao": "LFLL",
      "alert": "OK",
      "vis_m": 9999,
      "fzfg": false,
      "metar_trigger": false,
      "taf_trigger": false,
      "metar": "METAR LFLL 111330Z 35005KT 320V030 9999 FEW026 SCT260 04/M02 Q1024 NOSIG",
      "taf": "TAF LFLL 111100Z 1112/1218 35008KT 9999 SCT020"
    },
    {
      "icao": "LFLS",
      "alert": "OK",
      "vis_m": 9999,
      "fzfg": false,
      "metar_trigger": false,
      "taf_trigger": false,
      "metar": "METAR LFLS 111330Z AUTO 06004KT 9999 OVC019 02/M01 Q1023",
      "taf": "TAF LFLS 110200Z 1103/1203 33008KT 9999 FEW013 BKN030"
    },
    {
      "icao": "LFMN",
      "alert": "OK",
      "vis_m": 9999,
      "fzfg": false,
      "metar_trigger": false,
      "taf_trigger": false,
      "metar": "METAR LFMN 111330Z 22010KT CAVOK 14/02 Q1019 NOSIG",
      "taf": "TAF LFMN 110800Z 1109/1215 33010KT CAVOK"
    },
    {
      "icao": "LFOB",
      "alert": "OK",
      "vis_m": 9999,
      "fzfg": false,
      "metar_trigger": false,
      "taf_trigger": false,
      "metar": "METAR LFOB 111330Z AUTO 16011KT 9999 FEW013 OVC140 04/M00 Q1020 NOSIG",
      "taf": "TAF LFOB 111100Z 1112/1212 18012KT 9999 BKN020"
    },
    {
      "icao": "LFPO",
      "alert": "OK",
      "vis_m": 9999,
      "fzfg": false,
      "metar_trigger": false,
      "taf_trigger": false,
      "metar": "METAR LFPO 111330Z AUTO 17009KT CAVOK 04/M01 Q1021",
      "taf": "TAF LFPO 110500Z 1106/1212 19005KT CAVOK"
    },
    {
      "icao": "LFSB",
      "alert": "OK",
      "vis_m": 9999,
      "fzfg": false,
      "metar_trigger": false,
      "taf_trigger": false,
      "metar": "METAR LFSB 111330Z AUTO VRB02KT 9999 OVC010 01/M00 Q1024 BECMG NSC",
      "taf": ""
    },
    {
      "icao": "LGAV",
      "alert": "OK",
      "vis_m": 9999,
      "fzfg": false,
      "metar_trigger": false,
      "taf_trigger": false,
      "metar": "METAR LGAV 111320Z 29012KT 260V330 9999 FEW020 13/02 Q1005 NOSIG",
      "taf": "TAF LGAV 111100Z 1112/1212 30013G23KT 9999 SCT025 SCT070"
    },
    {
      "icao": "LGTS",
      "alert": "OK",
      "vis_m": 9999,
      "fzfg": false,
      "metar_trigger": false,
      "taf_trigger": false,
      "metar": "METAR LGTS 111320Z 32023G33KT 9999 FEW025 06/M00 Q1008 NOSIG",
      "taf": "TAF LGTS 111100Z 1112/1212 34015KT 9999 SCT030"
    },
    {
      "icao": "LHBP",
      "alert": "OK",
      "vis_m": 9999,
      "fzfg": false,
      "metar_trigger": false,
      "taf_trigger": false,
      "metar": "METAR LHBP 111330Z 30021KT 9999 DRSN FEW027 M03/M07 Q1016 NOSIG",
      "taf": "TAF LHBP 111115Z 1112/1212 30020G30KT 9999 DRSN FEW020 SCT080"
    },
    {
      "icao": "LHDC",
      "alert": "OK",
      "vis_m": null,
      "fzfg": false,
      "metar_trigger": false,
      "taf_trigger": false,
      "metar": "",
      "taf": "TAF LHDC 111115Z 1112/1121 21007KT CAVOK"
    },
    {
      "icao": "LIBD",
      "alert": "OK",
      "vis_m": 9999,
      "fzfg": false,
      "metar_trigger": false,
      "taf_trigger": false,
      "metar": "METAR LIBD 111320Z 32014G25KT 9999 SCT020 10/M01 Q1014",
      "taf": "TAF LIBD 111100Z 1112/1212 34018G28KT 9999 FEW040"
    },
    {
      "icao": "LIBG",
      "alert": "OK",
      "vis_m": 9999,
      "fzfg": false,
      "metar_trigger": false,
      "taf_trigger": false,
      "metar": "METAR LIBG 111250Z 34007KT 9999 SCT020 SCT030 10/07 Q1012",
      "taf": "TAF LIBG 111100Z 1112/1121 32012KT 9999 SCT040"
    },
    {
      "icao": "LIBP",
      "alert": "OK",
      "vis_m": 9999,
      "fzfg": false,
      "metar_trigger": false,
      "taf_trigger": false,
      "metar": "METAR LIBP 111320Z AUTO 22005KT 9999 -RA OVC022/// 05/04 Q1019",
      "taf": "TAF LIBP 111100Z 1112/1212 35010KT 9999 SCT040"
    },
    {
      "icao": "LIBR",
      "alert": "OK",
      "vis_m": 9999,
      "fzfg": false,
      "metar_trigger": false,
      "taf_trigger": false,
      "metar": "METAR LIBR 111320Z 36019KT 9999 FEW045 10/M00 Q1011",
      "taf": "TAF LIBR 111100Z 1112/1212 34018G30KT 9999 SCT040"
    },
    {
      "icao": "LICA",
      "alert": "OK",
      "vis_m": 9999,
      "fzfg": false,
      "metar_trigger": false,
      "taf_trigger": false,
      "metar": "METAR LICA 111320Z AUTO 29007KT 9999 NCD 13/01 Q1013",
      "taf": "TAF LICA 111100Z 1112/1212 28010KT 9999 FEW030"
    },
    {
      "icao": "LICC",
      "alert": "OK",
      "vis_m": 9999,
      "fzfg": false,
      "metar_trigger": false,
      "taf_trigger": false,
      "metar": "METAR LICC 111320Z 06004KT 360V120 9999 FEW040 SCT100 14/09 Q1013",
      "taf": "TAF LICC 111100Z 1112/1212 26016KT 9999 SCT040"
    },
    {
      "icao": "LICJ",
      "alert": "OK",
      "vis_m": 9999,
      "fzfg": false,
      "metar_trigger": false,
      "taf_trigger": false,
      "metar": "METAR LICJ 111320Z 06007KT 9999 BKN050 12/06 Q1015",
      "taf": "TAF LICJ 111100Z 1112/1212 35011KT 9999 SCT030"
    },
    {
      "icao": "LIMC",
      "alert": "OK",
      "vis_m": 9999,
      "fzfg": false,
      "metar_trigger": false,
      "taf_trigger": false,
      "metar": "METAR LIMC 111320Z 07007KT 040V110 CAVOK 12/M10 Q1018 NOSIG",
      "taf": "TAF LIMC 111100Z 1112/1218 01006KT CAVOK"
    },
    {
      "icao": "LIME",
      "alert": "OK",
      "vis_m": 9999,
      "fzfg": false,
      "metar_trigger": false,
      "taf_trigger": false,
      "metar": "METAR LIME 111320Z 14005KT CAVOK 08/M07 Q1018 NOSIG",
      "taf": "TAF LIME 111100Z 1112/1212 VRB05KT CAVOK"
    },
    {
      "icao": "LIMF",
      "alert": "OK",
      "vis_m": 9999,
      "fzfg": false,
      "metar_trigger": false,
      "taf_trigger": false,
      "metar": "METAR LIMF 111320Z 01003KT 310V050 CAVOK 10/M10 Q1019",
      "taf": "TAF LIMF 111100Z 1112/1212 VRB05KT CAVOK"
    },
    {
      "icao": "LIMJ",
      "alert": "OK",
      "vis_m": 9999,
      "fzfg": false,
      "metar_trigger": false,
      "taf_trigger": false,
      "metar": "METAR LIMJ 111320Z 01010G21KT 330V050 CAVOK 13/M11 Q1018",
      "taf": "TAF LIMJ 111100Z 1112/1212 03012KT CAVOK"
    },
    {
      "icao": "LIPE",
      "alert": "OK",
      "vis_m": 9999,
      "fzfg": false,
      "metar_trigger": false,
      "taf_trigger": false,
      "metar": "METAR LIPE 111320Z 29007KT 270V340 CAVOK 10/M03 Q1019",
      "taf": "TAF LIPE 111100Z 1112/1212 VRB06KT CAVOK"
    },
    {
      "icao": "LIPH",
      "alert": "OK",
      "vis_m": 9999,
      "fzfg": false,
      "metar_trigger": false,
      "taf_trigger": false,
      "metar": "METAR LIPH 111320Z 16006KT 140V200 9999 FEW030 08/03 Q1019",
      "taf": "TAF LIPH 111100Z 1112/1212 VRB05KT CAVOK"
    },
    {
      "icao": "LIPQ",
      "alert": "OK",
      "vis_m": 9999,
      "fzfg": false,
      "metar_trigger": false,
      "taf_trigger": false,
      "metar": "METAR LIPQ 111320Z AUTO 34004KT 9999 NCD 04/M03 Q1019",
      "taf": "TAF LIPQ 111100Z 1112/1212 VRB05KT CAVOK"
    },
    {
      "icao": "LIPR",
      "alert": "OK",
      "vis_m": 9999,
      "fzfg": false,
      "metar_trigger": false,
      "taf_trigger": false,
      "metar": "METAR LIPR 111320Z VRB02KT 9999 SCT030 06/M03 Q1019",
      "taf": "TAF LIPR 111100Z 1112/1212 VRB05KT 9999 FEW040"
    },
    {
      "icao": "LIPX",
      "alert": "OK",
      "vis_m": 9999,
      "fzfg": false,
      "metar_trigger": false,
      "taf_trigger": false,
      "metar": "METAR LIPX 111320Z 34005KT 280V030 CAVOK 12/M13 Q1018",
      "taf": "TAF LIPX 111100Z 1112/1212 VRB05KT CAVOK"
    },
    {
      "icao": "LIPY",
      "alert": "OK",
      "vis_m": 9999,
      "fzfg": false,
      "metar_trigger": false,
      "taf_trigger": false,
      "metar": "METAR LIPY 111320Z AUTO VRB03KT 9999 BKN037/// OVC048/// 08/01 Q1019",
      "taf": "TAF LIPY 111100Z 1112/1212 VRB05KT 9999 SCT030"
    },
    {
      "icao": "LIPZ",
      "alert": "OK",
      "vis_m": 9999,
      "fzfg": false,
      "metar_trigger": false,
      "taf_trigger": false,
      "metar": "METAR LIPZ 111320Z 17005KT 9999 FEW025 07/02 Q1019 NOSIG",
      "taf": "TAF LIPZ 111100Z 1112/1218 VRB06KT CAVOK"
    },
    {
      "icao": "LIRF",
      "alert": "OK",
      "vis_m": 9999,
      "fzfg": false,
      "metar_trigger": false,
      "taf_trigger": false,
      "metar": "METAR LIRF 111320Z 36008KT 330V030 CAVOK 12/M01 Q1016 NOSIG",
      "taf": "TAF LIRF 111100Z 1112/1218 02009KT CAVOK"
    },
    {
      "icao": "LIRN",
      "alert": "OK",
      "vis_m": 9999,
      "fzfg": false,
      "metar_trigger": false,
      "taf_trigger": false,
      "metar": "METAR LIRN 111320Z 06011KT 030V090 CAVOK 10/M02 Q1015 NOSIG",
      "taf": "TAF LIRN 111100Z 1112/1212 03012KT 9999 SCT030"
    },
    {
      "icao": "LIRP",
      "alert": "OK",
      "vis_m": 9999,
      "fzfg": false,
      "metar_trigger": false,
      "taf_trigger": false,
      "metar": "METAR LIRP 111315Z 12003KT CAVOK 12/M01 Q1018 NOSIG",
      "taf": "TAF LIRP 111100Z 1112/1212 12005KT CAVOK"
    },
    {
      "icao": "LIRZ",
      "alert": "OK",
      "vis_m": 9999,
      "fzfg": false,
      "metar_trigger": false,
      "taf_trigger": false,
      "metar": "METAR LIRZ 111320Z AUTO 05012KT 9999 SCT092/// 09/M01 Q1017",
      "taf": "TAF LIRZ 111100Z 1112/1212 02013KT 9999 FEW030"
    },
    {
      "icao": "LJLJ",
      "alert": "OK",
      "vis_m": 9999,
      "fzfg": false,
      "metar_trigger": false,
      "taf_trigger": false,
      "metar": "METAR LJLJ 111330Z VRB01KT 9999 FEW017 M04/M07 Q1019 NOSIG",
      "taf": "TAF LJLJ 111100Z 1112/1212 11008KT 9999 SCT010 BKN018"
    },
    {
      "icao": "LKMT",
      "alert": "OK",
      "vis_m": 1600,
      "fzfg": false,
      "metar_trigger": false,
      "taf_trigger": false,
      "metar": "METAR LKMT 111330Z 26010KT 1600 SN FEW007 OVC022 M04/M06 Q1016 NOSIG",
      "taf": ""
    },
    {
      "icao": "LKPR",
      "alert": "OK",
      "vis_m": 9999,
      "fzfg": false,
      "metar_trigger": false,
      "taf_trigger": false,
      "metar": "METAR LKPR 111330Z 26014KT CAVOK M05/M12 Q1021 NOSIG",
      "taf": "TAF LKPR 111100Z 1112/1218 28012KT CAVOK"
    },
    {
      "icao": "LLBG",
      "alert": "OK",
      "vis_m": 9999,
      "fzfg": false,
      "metar_trigger": false,
      "taf_trigger": false,
      "metar": "METAR LLBG 111320Z 29008KT CAVOK 20/10 Q1015 NOSIG",
      "taf": "TAF LLBG 111116Z 1112/1212 25010KT CAVOK"
    },
    {
      "icao": "LMML",
      "alert": "OK",
      "vis_m": 9999,
      "fzfg": false,
      "metar_trigger": false,
      "taf_trigger": false,
      "metar": "METAR LMML 111345Z 31018KT 9999 -SHRA SCT025 13/06 Q1015 NOSIG",
      "taf": "TAF LMML 111100Z 1112/1212 30021G32KT 9999 FEW020"
    },
    {
      "icao": "LOWW",
      "alert": "OK",
      "vis_m": 9999,
      "fzfg": false,
      "metar_trigger": false,
      "taf_trigger": false,
      "metar": "METAR LOWW 111320Z 30022KT 9999 FEW050 M02/M10 Q1019 NOSIG",
      "taf": "TAF LOWW 111115Z 1112/1218 30020G30KT 9999 FEW030 TXM02/1112Z TNM09/1207Z"
    },
    {
      "icao": "LPFR",
      "alert": "OK",
      "vis_m": 9999,
      "fzfg": false,
      "metar_trigger": false,
      "taf_trigger": false,
      "metar": "METAR LPFR 111330Z 21006KT 180V240 9999 FEW020 15/09 Q1027",
      "taf": "TAF LPFR 111106Z 1112/1212 VRB05KT CAVOK"
    },
    {
      "icao": "LPMA",
      "alert": "OK",
      "vis_m": 9999,
      "fzfg": false,
      "metar_trigger": false,
      "taf_trigger": false,
      "metar": "METAR LPMA 111330Z 04006KT 010V100 9999 FEW015 18/13 Q1026",
      "taf": "TAF LPMA 111106Z 1112/1212 VRB05KT 9999 SCT015"
    },
    {
      "icao": "LPPR",
      "alert": "OK",
      "vis_m": 8000,
      "fzfg": false,
      "metar_trigger": false,
      "taf_trigger": false,
      "metar": "METAR LPPR 111330Z 18013KT 8000 -DZRA FEW003 BKN005 13/12 Q1024",
      "taf": "TAF LPPR 111106Z 1112/1212 18013KT 9999 SCT006 BKN015"
    },
    {
      "icao": "LPPS",
      "alert": "OK",
      "vis_m": 9999,
      "fzfg": false,
      "metar_trigger": false,
      "taf_trigger": false,
      "metar": "METAR LPPS 111330Z 09004KT 050V140 9999 SCT015 18/12 Q1026",
      "taf": "TAF LPPS 111106Z 1112/1218 VRB05KT 9999 SCT015"
    },
    {
      "icao": "LPPT",
      "alert": "OK",
      "vis_m": 9999,
      "fzfg": false,
      "metar_trigger": false,
      "taf_trigger": false,
      "metar": "METAR LPPT 111330Z 21011KT 9999 FEW003 BKN010 14/14 Q1026",
      "taf": ""
    },
    {
      "icao": "LQBK",
      "alert": "OK",
      "vis_m": 9999,
      "fzfg": false,
      "metar_trigger": false,
      "taf_trigger": false,
      "metar": "METAR LQBK 111330Z VRB02KT CAVOK 00/M08 Q1020 NOSIG",
      "taf": "TAF LQBK 111100Z 1112/1212 30006KT CAVOK TXM01/1112Z TNM12/1206Z"
    },
    {
      "icao": "LQSA",
      "alert": "OK",
      "vis_m": 9999,
      "fzfg": false,
      "metar_trigger": false,
      "taf_trigger": false,
      "metar": "METAR LQSA 111330Z 28005KT 250V310 9999 BKN050 M04/M10 Q1017 NOSIG",
      "taf": "TAF LQSA 111100Z 1112/1212 29006KT 9999 BKN030 TXM04/1212Z TNM14/1206Z"
    },
    {
      "icao": "LQTZ",
      "alert": "OK",
      "vis_m": 9999,
      "fzfg": false,
      "metar_trigger": false,
      "taf_trigger": false,
      "metar": "METAR LQTZ 111330Z 29008KT 9999 FEW019 BKN037 M02/M07 Q1019",
      "taf": "TAF LQTZ 111100Z 1112/1212 34007KT 9999 BKN030 TXM02/1113Z TNM13/1206Z"
    },
    {
      "icao": "LRBC",
      "alert": "OK",
      "vis_m": 9999,
      "fzfg": false,
      "metar_trigger": false,
      "taf_trigger": false,
      "metar": "METAR LRBC 111330Z 10003KT CAVOK M02/M12 Q1009",
      "taf": "TAF LRBC 111100Z 1112/1121 VRB04KT 9999 BKN045"
    },
    {
      "icao": "LRBS",
      "alert": "OK",
      "vis_m": 8000,
      "fzfg": false,
      "metar_trigger": false,
      "taf_trigger": false,
      "metar": "METAR LRBS 111330Z 00000KT 8000 OVC025 M04/M07 Q1012 NOSIG",
      "taf": "TAF LRBS 111100Z 1112/1212 07008KT 5000 BR BKN035"
    },
    {
      "icao": "LRBV",
      "alert": "OK",
      "vis_m": 9999,
      "fzfg": false,
      "metar_trigger": false,
      "taf_trigger": false,
      "metar": "METAR LRBV 111330Z 30007KT 270V330 9999 FEW008 OVC030 M06/M11 Q1011",
      "taf": "TAF LRBV 111100Z 1112/1121 30015KT 9999 BKN025 BKN050"
    },
    {
      "icao": "LRCL",
      "alert": "OK",
      "vis_m": 9999,
      "fzfg": false,
      "metar_trigger": false,
      "taf_trigger": false,
      "metar": "METAR LRCL 111330Z COR 07005KT 040V100 9999 FEW038 OVC058 M04/M09 Q1012",
      "taf": "TAF LRCL 111100Z 1112/1121 30008KT CAVOK"
    },
    {
      "icao": "LRCV",
      "alert": "OK",
      "vis_m": 2000,
      "fzfg": false,
      "metar_trigger": false,
      "taf_trigger": false,
      "metar": "METAR LRCV 111330Z 11004KT 2000 -SN BR OVC004 M03/M04 Q1012",
      "taf": ""
    },
    {
      "icao": "LRIA",
      "alert": "OK",
      "vis_m": 9999,
      "fzfg": false,
      "metar_trigger": false,
      "taf_trigger": false,
      "metar": "METAR LRIA 111330Z 30007KT 270V330 CAVOK M03/M09 Q1009",
      "taf": "TAF LRIA 111100Z 1112/1121 30006KT CAVOK"
    },
    {
      "icao": "LROP",
      "alert": "OK",
      "vis_m": 6000,
      "fzfg": false,
      "metar_trigger": false,
      "taf_trigger": false,
      "metar": "METAR LROP 111330Z 00000KT 6000 OVC026 M05/M07 Q1012 NOSIG",
      "taf": "TAF LROP 111100Z 1112/1212 07008KT 5000 BR BKN035"
    },
    {
      "icao": "LRSB",
      "alert": "OK",
      "vis_m": 9999,
      "fzfg": false,
      "metar_trigger": false,
      "taf_trigger": false,
      "metar": "METAR LRSB 111330Z 28002KT 9999 FEW030 BKN045 M04/M09 Q1012",
      "taf": "TAF LRSB 111100Z 1112/1212 35008KT 9999 BKN025 OVC040"
    },
    {
      "icao": "LRSM",
      "alert": "OK",
      "vis_m": 9999,
      "fzfg": false,
      "metar_trigger": false,
      "taf_trigger": false,
      "metar": "METAR LRSM 111330Z 27013KT 9999 SCT040 M06/M09 Q1014",
      "taf": "TAF LRSM 111100Z 1112/1121 VRB04KT 9999 BKN040"
    },
    {
      "icao": "LRSV",
      "alert": "OK",
      "vis_m": 9999,
      "fzfg": false,
      "metar_trigger": false,
      "taf_trigger": false,
      "metar": "METAR LRSV 111330Z 27007KT CAVOK M03/M12 Q1006",
      "taf": "TAF LRSV 111100Z 1112/1121 VRB04KT 9999 SCT040"
    },
    {
      "icao": "LRTM",
      "alert": "OK",
      "vis_m": 9999,
      "fzfg": false,
      "metar_trigger": false,
      "taf_trigger": false,
      "metar": "METAR LRTM 111330Z 17003KT 9999 FEW035 BKN044 M05/M10 Q1013",
      "taf": "TAF LRTM 111100Z 1112/1121 VRB04KT CAVOK"
    },
    {
      "icao": "LRTR",
      "alert": "OK",
      "vis_m": 9999,
      "fzfg": false,
      "metar_trigger": false,
      "taf_trigger": false,
      "metar": "METAR LRTR 111330Z 27004KT 9999 OVC025 M06/M09 Q1017",
      "taf": "TAF LRTR 111100Z 1112/1212 28010KT CAVOK"
    },
    {
      "icao": "LTAC",
      "alert": "OK",
      "vis_m": 1800,
      "fzfg": false,
      "metar_trigger": false,
      "taf_trigger": false,
      "metar": "METAR LTAC 111320Z 29001KT 1800 -SN BR SCT003 BKN025 BKN080 01/M00 Q1005 RERASN NOSIG RMK RWY21C 00000KT RWY03L 00000KT RWY21R 00000KT RWY03R 24002KT RWY21L 28002KT",
      "taf": "TAF LTAC 111040Z 1112/1212 VRB02KT 6000 SCT035 BKN090"
    },
    {
      "icao": "LTFM",
      "alert": "OK",
      "vis_m": 6000,
      "fzfg": false,
      "metar_trigger": false,
      "taf_trigger": false,
      "metar": "METAR LTFM 111320Z 02019KT 6000 -RA BKN012 BKN020 05/03 Q1007 NOSIG RMK RWY17L 02019KT RWY34L 01018KT RWY16R 02018KT RWY36 02020KT RWY18 03018KT",
      "taf": "TAF LTFM 111040Z 1112/1218 03015KT 9999 -RA BKN012 BKN020"
    },
    {
      "icao": "LUKK",
      "alert": "OK",
      "vis_m": 9999,
      "fzfg": false,
      "metar_trigger": false,
      "taf_trigger": false,
      "metar": "METAR LUKK 111330Z 33008KT 290V360 CAVOK M03/M10 Q1008 NOSIG",
      "taf": "TAF LUKK 111116Z 1112/1212 28009KT CAVOK"
    },
    {
      "icao": "LWOH",
      "alert": "OK",
      "vis_m": 9999,
      "fzfg": false,
      "metar_trigger": false,
      "taf_trigger": false,
      "metar": "METAR LWOH 111350Z 31008KT 280V360 9999 SCT015 BKN040 01/M02 Q1009",
      "taf": "TAF LWOH 111140Z 1112/1212 36010KT 9999 SCT050"
    },
    {
      "icao": "LWSK",
      "alert": "OK",
      "vis_m": 9999,
      "fzfg": false,
      "metar_trigger": false,
      "taf_trigger": false,
      "metar": "METAR LWSK 111350Z 36018KT 9999 SCT025 BKN043 BKN075 M00/M09 Q1014 NOSIG",
      "taf": "TAF LWSK 111140Z 1112/1212 35015KT 9999 SCT025 OVC040"
    },
    {
      "icao": "LYBE",
      "alert": "OK",
      "vis_m": 9999,
      "fzfg": false,
      "metar_trigger": false,
      "taf_trigger": false,
      "metar": "METAR LYBE 111330Z 28013KT 9999 BKN043 M03/M06 Q1019 NOSIG",
      "taf": "TAF LYBE 111100Z 1112/1212 28015KT 9999 BKN020 TXM02/1212Z TNM10/1206Z"
    },
    {
      "icao": "LYNI",
      "alert": "OK",
      "vis_m": 9999,
      "fzfg": false,
      "metar_trigger": false,
      "taf_trigger": false,
      "metar": "METAR LYNI 111330Z 29004KT 230V320 9999 BKN015 BKN020 M03/M05 Q1017 NOSIG",
      "taf": "TAF LYNI 111100Z 1112/1212 32010KT 9999 SCT015 BKN025 TXM02/1212Z TNM07/1206Z"
    },
    {
      "icao": "LYPG",
      "alert": "OK",
      "vis_m": 9999,
      "fzfg": false,
      "metar_trigger": false,
      "taf_trigger": false,
      "metar": "METAR LYPG 111330Z 36025G39KT 9999 FEW040 05/M10 Q1013 NOSIG",
      "taf": "TAF LYPG 111100Z 1112/1212 36015G25KT CAVOK TX08/1112Z TNM01/1205Z"
    },
    {
      "icao": "LZIB",
      "alert": "OK",
      "vis_m": 9999,
      "fzfg": false,
      "metar_trigger": false,
      "taf_trigger": false,
      "metar": "METAR LZIB 111330Z 29016G28KT CAVOK M02/M09 Q1018 NOSIG",
      "taf": "TAF LZIB 111115Z 1112/1212 29015KT 9999 SCT030"
    },
    {
      "icao": "LZKZ",
      "alert": "OK",
      "vis_m": 9999,
      "fzfg": false,
      "metar_trigger": false,
      "taf_trigger": false,
      "metar": "METAR LZKZ 111330Z 15003KT 110V180 CAVOK M06/M09 Q1012 NOSIG",
      "taf": "TAF LZKZ 111115Z 1112/1212 23005KT 9999 SCT045"
    },
    {
      "icao": "LZTT",
      "alert": "OK",
      "vis_m": 9999,
      "fzfg": false,
      "metar_trigger": false,
      "taf_trigger": false,
      "metar": "METAR LZTT 111330Z 24007KT 210V270 9999 FEW011 BKN046 M06/M10 Q1008 NOSIG",
      "taf": "TAF LZTT 111115Z 1112/1212 25012KT 9999 -SN DRSN FEW013 OVC040"
    },
    {
      "icao": "OEJN",
      "alert": "OK",
      "vis_m": 9999,
      "fzfg": false,
      "metar_trigger": false,
      "taf_trigger": false,
      "metar": "METAR OEJN 111300Z 25008KT CAVOK 29/14 Q1013 NOSIG",
      "taf": "TAF OEJN 111100Z 1112/1218 22010KT 7000 FEW040"
    },
    {
      "icao": "OEMA",
      "alert": "OK",
      "vis_m": 9999,
      "fzfg": false,
      "metar_trigger": false,
      "taf_trigger": false,
      "metar": "METAR OEMA 111300Z 11007KT CAVOK 26/02 Q1019 NOSIG",
      "taf": "TAF OEMA 111100Z 1112/1218 12012KT 7000 NSC"
    },
    {
      "icao": "OJAI",
      "alert": "OK",
      "vis_m": 5000,
      "fzfg": false,
      "metar_trigger": false,
      "taf_trigger": false,
      "metar": "METAR OJAI 111300Z 17010KT 5000 HZ NSC 16/04 Q1017 NOSIG",
      "taf": "TAF OJAI 111047Z 1112/1218 24012KT 5000HZ"
    },
    {
      "icao": "OMAA",
      "alert": "OK",
      "vis_m": 9999,
      "fzfg": false,
      "metar_trigger": false,
      "taf_trigger": false,
      "metar": "METAR OMAA 111300Z 31012KT CAVOK 23/12 Q1019 NOSIG",
      "taf": "TAF OMAA 111100Z 1112/1218 33012KT 8000 NSC"
    },
    {
      "icao": "OMDB",
      "alert": "OK",
      "vis_m": 9999,
      "fzfg": false,
      "metar_trigger": false,
      "taf_trigger": false,
      "metar": "METAR OMDB 111330Z 32010KT CAVOK 24/12 Q1020 NOSIG",
      "taf": "TAF OMDB 111100Z 1112/1218 30010KT 8000 NSC"
    },
    {
      "icao": "UAAA",
      "alert": "OK",
      "vis_m": 700,
      "fzfg": false,
      "metar_trigger": false,
      "taf_trigger": false,
      "metar": "METAR UAAA 111330Z 12002MPS 0700 R05R/1900 BR FU BKN200 M00/M03 Q1019 NOSIG",
      "taf": "TAF UAAA 111103Z 1112/1212 21002MPS 1200 BR FU SCT050 BKN100 TX07/1209Z TNM04/1201Z"
    },
    {
      "icao": "UBBB",
      "alert": "OK",
      "vis_m": 9999,
      "fzfg": false,
      "metar_trigger": false,
      "taf_trigger": false,
      "metar": "METAR UBBB 111330Z 19024G35KT CAVOK 11/00 Q1011 NOSIG",
      "taf": "TAF UBBB 111054Z 1112/1212 19024G34KT 9999 SCT030 TX11/1112Z TN05/1202Z"
    },
    {
      "icao": "UDSG",
      "alert": "OK",
      "vis_m": 9999,
      "fzfg": false,
      "metar_trigger": false,
      "taf_trigger": false,
      "metar": "METAR UDSG 111330Z 29006KT 9999 BKN043 M02/M06 Q1019 NOSIG",
      "taf": "TAF UDSG 111058Z 1112/1212 VRB06KT 9999 SCT040"
    },
    {
      "icao": "UDYZ",
      "alert": "OK",
      "vis_m": 4200,
      "fzfg": false,
      "metar_trigger": false,
      "taf_trigger": false,
      "metar": "METAR UDYZ 111330Z 04002KT 4200 BR BKN046 01/M03 Q1021 NOSIG",
      "taf": "TAF UDYZ 111100Z 1112/1212 VRB06KT 3500 BR SCT040"
    },
    {
      "icao": "UGKO",
      "alert": "OK",
      "vis_m": 9999,
      "fzfg": false,
      "metar_trigger": false,
      "taf_trigger": false,
      "metar": "METAR UGKO 111330Z 08019KT CAVOK 13/M03 Q1010 NOSIG",
      "taf": "TAF UGKO 111100Z 1112/1212 08012KT CAVOK TX14/1212Z TN09/1202Z"
    }
  ]
}