{
  "ts_utc": "2026-03-28T00:57:36Z",
  "threshold_m": 150,
  "source": "stations_override.txt (ICAO list) + aviationweather.gov (METAR/TAF raw)",
  "station_count": 159,
  "stations": [
    {
      "icao": "BIKF",
      "alert": "OK",
      "vis_m": 9999,
      "fzfg": false,
      "metar_trigger": false,
      "taf_trigger": false,
      "metar": "METAR BIKF 280030Z 34014KT 9999 SCT029 M02/M07 Q1009",
      "taf": "TAF BIKF 272257Z 2800/2900 36015KT 9999 -SHRASN FEW035 TX01/2818Z TNM08/2808Z"
    },
    {
      "icao": "BKPR",
      "alert": "OK",
      "vis_m": 9999,
      "fzfg": false,
      "metar_trigger": false,
      "taf_trigger": false,
      "metar": "METAR BKPR 280030Z 36007KT 9999 FEW020 BKN070 05/03 Q1003 NOSIG",
      "taf": "TAF BKPR 272330Z 2800/2824 34008KT 9999 SCT020 BKN040"
    },
    {
      "icao": "EBCI",
      "alert": "OK",
      "vis_m": 4000,
      "fzfg": false,
      "metar_trigger": false,
      "taf_trigger": false,
      "metar": "METAR EBCI 280050Z 20014KT 4000 RADZ BKN011 BKN022 04/02 Q1018 TEMPO 2500 RADZ SCT004 BKN006",
      "taf": "TAF EBCI 272302Z 2800/2906 20011KT 9999 BKN018"
    },
    {
      "icao": "EDDB",
      "alert": "OK",
      "vis_m": 9999,
      "fzfg": false,
      "metar_trigger": false,
      "taf_trigger": false,
      "metar": "METAR EDDB 280050Z AUTO 19003KT CAVOK M00/M04 Q1020 NOSIG",
      "taf": "TAF EDDB 272300Z 2800/2824 19004KT CAVOK"
    },
    {
      "icao": "EDDH",
      "alert": "OK",
      "vis_m": 9999,
      "fzfg": false,
      "metar_trigger": false,
      "taf_trigger": false,
      "metar": "METAR EDDH 280050Z AUTO 20012KT 9999 -RA OVC031 06/00 Q1016 TEMPO 4000 RADZ BKN012",
      "taf": "TAF EDDH 272300Z 2800/2906 20009KT 9999 BKN040"
    },
    {
      "icao": "EDDK",
      "alert": "OK",
      "vis_m": 9999,
      "fzfg": false,
      "metar_trigger": false,
      "taf_trigger": false,
      "metar": "METAR EDDK 280050Z AUTO 15006KT 9999 -RA OVC030 05/00 Q1019 TEMPO RA",
      "taf": "TAF EDDK 272300Z 2800/2906 16006KT 9999 SCT040"
    },
    {
      "icao": "EDDN",
      "alert": "OK",
      "vis_m": 9999,
      "fzfg": false,
      "metar_trigger": false,
      "taf_trigger": false,
      "metar": "METAR EDDN 280050Z AUTO 11007KT CAVOK M03/M06 Q1021",
      "taf": "TAF EDDN 272300Z 2800/2824 11005KT CAVOK"
    },
    {
      "icao": "EDDS",
      "alert": "OK",
      "vis_m": 9999,
      "fzfg": false,
      "metar_trigger": false,
      "taf_trigger": false,
      "metar": "METAR EDDS 280050Z AUTO 31001KT CAVOK M03/M06 Q1021",
      "taf": "TAF EDDS 272300Z 2800/2824 VRB02KT CAVOK"
    },
    {
      "icao": "EDFH",
      "alert": "OK",
      "vis_m": 9999,
      "fzfg": false,
      "metar_trigger": false,
      "taf_trigger": false,
      "metar": "METAR EDFH 280050Z 21008KT 9999 BKN033 02/M04 Q1019",
      "taf": "TAF EDFH 272300Z 2800/2824 22008KT 9999 BKN040"
    },
    {
      "icao": "EDJA",
      "alert": "OK",
      "vis_m": 9999,
      "fzfg": false,
      "metar_trigger": false,
      "taf_trigger": false,
      "metar": "METAR EDJA 280050Z AUTO VRB02KT 9999 // FEW140/// M04/M04 Q1020",
      "taf": "TAF EDJA 271700Z 2718/2803 03006KT 9999 BKN060"
    },
    {
      "icao": "EDLW",
      "alert": "OK",
      "vis_m": 9999,
      "fzfg": false,
      "metar_trigger": false,
      "taf_trigger": false,
      "metar": "METAR EDLW 280050Z AUTO 19011KT 9999 // FEW057/// BKN066/// OVC077/// 05/01 Q1017",
      "taf": "TAF EDLW 271700Z 2718/2818 19008KT 9999 SCT040"
    },
    {
      "icao": "EDNY",
      "alert": "OK",
      "vis_m": 9999,
      "fzfg": false,
      "metar_trigger": false,
      "taf_trigger": false,
      "metar": "METAR EDNY 280050Z AUTO 08004KT 9999 // NCD M04/M05 Q1022",
      "taf": "TAF EDNY 271700Z 2718/2803 02006KT 9999 SCT045"
    },
    {
      "icao": "EDSB",
      "alert": "OK",
      "vis_m": 9999,
      "fzfg": false,
      "metar_trigger": false,
      "taf_trigger": false,
      "metar": "METAR EDSB 280050Z AUTO 18002KT 9999 R21///// // NCD M01/M03 Q1022",
      "taf": "TAF EDSB 272300Z 2800/2824 VRB02KT CAVOK"
    },
    {
      "icao": "EETN",
      "alert": "OK",
      "vis_m": 9999,
      "fzfg": false,
      "metar_trigger": false,
      "taf_trigger": false,
      "metar": "METAR EETN 280050Z 19003KT 140V220 CAVOK M00/M01 Q1017",
      "taf": "TAF EETN 272330Z 2800/2824 20005KT CAVOK"
    },
    {
      "icao": "EFTU",
      "alert": "OK",
      "vis_m": 9999,
      "fzfg": false,
      "metar_trigger": false,
      "taf_trigger": false,
      "metar": "METAR EFTU 280050Z AUTO 16005KT CAVOK 00/M01 Q1013",
      "taf": "TAF EFTU 272332Z 2800/2824 18007KT CAVOK"
    },
    {
      "icao": "EGBB",
      "alert": "OK",
      "vis_m": 9999,
      "fzfg": false,
      "metar_trigger": false,
      "taf_trigger": false,
      "metar": "METAR EGBB 280050Z 30009KT CAVOK 05/00 Q1021",
      "taf": "TAF EGBB 272254Z 2800/2824 28009KT 9999 FEW025"
    },
    {
      "icao": "EGGP",
      "alert": "OK",
      "vis_m": 9999,
      "fzfg": false,
      "metar_trigger": false,
      "taf_trigger": false,
      "metar": "METAR EGGP 280020Z 29015KT 9999 FEW035 SCT042 06/00 Q1020",
      "taf": "TAF EGGP 272255Z 2800/2824 29012KT 9999 FEW030"
    },
    {
      "icao": "EGGW",
      "alert": "OK",
      "vis_m": 9999,
      "fzfg": false,
      "metar_trigger": false,
      "taf_trigger": false,
      "metar": "METAR EGGW 280050Z AUTO 32011KT 9999 NCD 05/02 Q1020",
      "taf": "TAF EGGW 272300Z 2800/2824 30009KT 9999 FEW040"
    },
    {
      "icao": "EGKK",
      "alert": "OK",
      "vis_m": 9999,
      "fzfg": false,
      "metar_trigger": false,
      "taf_trigger": false,
      "metar": "METAR EGKK 280050Z 30007KT CAVOK 07/02 Q1020",
      "taf": ""
    },
    {
      "icao": "EGNM",
      "alert": "OK",
      "vis_m": 9999,
      "fzfg": false,
      "metar_trigger": false,
      "taf_trigger": false,
      "metar": "METAR EGNM 280020Z 26012KT CAVOK 03/M00 Q1017",
      "taf": "TAF EGNM 272255Z 2800/2824 28012KT 9999 SCT025"
    },
    {
      "icao": "EGPD",
      "alert": "OK",
      "vis_m": 9999,
      "fzfg": false,
      "metar_trigger": false,
      "taf_trigger": false,
      "metar": "METAR EGPD 280050Z COR AUTO 21010KT 9999 NCD 03/M03 Q1008 NOSIG",
      "taf": "TAF EGPD 272253Z 2800/2824 24012KT 9999 FEW025"
    },
    {
      "icao": "EGPF",
      "alert": "OK",
      "vis_m": 9999,
      "fzfg": false,
      "metar_trigger": false,
      "taf_trigger": false,
      "metar": "METAR EGPF 280050Z AUTO 26012G22KT 9999 -RA SCT025/// BKN034/// //////TCU 05/01 Q1014",
      "taf": "TAF EGPF 272254Z 2800/2824 26013KT 9999 FEW035"
    },
    {
      "icao": "EHBK",
      "alert": "OK",
      "vis_m": 9999,
      "fzfg": false,
      "metar_trigger": false,
      "taf_trigger": false,
      "metar": "METAR EHBK 280025Z AUTO 20012KT 9999 OVC020 06/01 Q1018",
      "taf": "TAF EHBK 272303Z 2800/2906 19011KT 9999 -RADZ OVC025"
    },
    {
      "icao": "EHEH",
      "alert": "OK",
      "vis_m": 7000,
      "fzfg": false,
      "metar_trigger": false,
      "taf_trigger": false,
      "metar": "METAR EHEH 280025Z AUTO 20012KT 170V230 7000 RA BKN022 OVC026 06/04 Q1017 RERA REDZ WHT",
      "taf": ""
    },
    {
      "icao": "EKBI",
      "alert": "OK",
      "vis_m": 3100,
      "fzfg": false,
      "metar_trigger": false,
      "taf_trigger": false,
      "metar": "METAR EKBI 280050Z AUTO 20014KT 3100 -RA BR OVC005/// 05/04 Q1011",
      "taf": "TAF EKBI 272327Z 2800/2824 20012KT 9999 BKN014"
    },
    {
      "icao": "EKCH",
      "alert": "OK",
      "vis_m": 9999,
      "fzfg": false,
      "metar_trigger": false,
      "taf_trigger": false,
      "metar": "METAR EKCH 280050Z AUTO 19012KT 9999 OVC046/// 05/01 Q1015 NOSIG",
      "taf": "TAF EKCH 272327Z 2800/2824 20012KT 9999 BKN030"
    },
    {
      "icao": "ENAL",
      "alert": "OK",
      "vis_m": 9999,
      "fzfg": false,
      "metar_trigger": false,
      "taf_trigger": false,
      "metar": "METAR ENAL 280050Z AUTO 19011KT 9999 DZRA BKN037/// BKN052/// 04/01 Q1000 RERA",
      "taf": "TAF ENAL 272300Z 2800/2809 19015KT 9999 -SHRA FEW040"
    },
    {
      "icao": "ENBR",
      "alert": "OK",
      "vis_m": 9999,
      "fzfg": false,
      "metar_trigger": false,
      "taf_trigger": false,
      "metar": "METAR ENBR 280050Z 15007KT 9999 VCSH FEW006 SCT024 BKN053 03/01 Q1004 RMK WIND 1200FT 22015KT",
      "taf": "TAF ENBR 272300Z 2800/2824 17012KT 9999 FEW004 BKN025"
    },
    {
      "icao": "ENGM",
      "alert": "OK",
      "vis_m": 9999,
      "fzfg": false,
      "metar_trigger": false,
      "taf_trigger": false,
      "metar": "METAR ENGM 280050Z 18006KT 9999 OVC002 02/01 Q1005",
      "taf": "TAF ENGM 272300Z 2800/2824 18008KT 9999 BKN005"
    },
    {
      "icao": "ENHD",
      "alert": "OK",
      "vis_m": 9999,
      "fzfg": false,
      "metar_trigger": false,
      "taf_trigger": false,
      "metar": "METAR ENHD 280050Z AUTO 17010KT 9999 FEW005/// SCT008/// 05/03 Q1006",
      "taf": ""
    },
    {
      "icao": "ENTC",
      "alert": "OK",
      "vis_m": 9999,
      "fzfg": false,
      "metar_trigger": false,
      "taf_trigger": false,
      "metar": "METAR ENTC 280050Z AUTO 00000KT 9999 NCD M06/M09 Q1002 RMK WIND 2600FT 18027KT",
      "taf": "TAF ENTC 272300Z 2800/2824 VRB03KT CAVOK"
    },
    {
      "icao": "ENTO",
      "alert": "OK",
      "vis_m": 8000,
      "fzfg": false,
      "metar_trigger": false,
      "taf_trigger": false,
      "metar": "METAR ENTO 280050Z AUTO 21005KT 8000 SCT001/// BKN002/// BKN004/// 04/04 Q1006",
      "taf": "TAF ENTO 272300Z 2800/2824 20015KT 9000 BKN003"
    },
    {
      "icao": "ENVA",
      "alert": "OK",
      "vis_m": 9999,
      "fzfg": false,
      "metar_trigger": false,
      "taf_trigger": false,
      "metar": "METAR ENVA 280050Z AUTO 09004KT 9999 NCD 02/M01 Q1000 RMK WIND 670FT 15012KT",
      "taf": "TAF ENVA 272300Z 2800/2824 10008KT CAVOK"
    },
    {
      "icao": "ENZV",
      "alert": "OK",
      "vis_m": 9999,
      "fzfg": false,
      "metar_trigger": false,
      "taf_trigger": false,
      "metar": "METAR ENZV 280050Z AUTO 17007KT 9999 SCT009/// 05/04 Q1006",
      "taf": "TAF ENZV 272300Z 2800/2824 17005KT 9999 SCT007"
    },
    {
      "icao": "EPGD",
      "alert": "OK",
      "vis_m": 7000,
      "fzfg": false,
      "metar_trigger": false,
      "taf_trigger": false,
      "metar": "METAR EPGD 280030Z 16003KT 7000 NSC M02/M02 Q1020",
      "taf": ""
    },
    {
      "icao": "EPKK",
      "alert": "OK",
      "vis_m": 6000,
      "fzfg": false,
      "metar_trigger": false,
      "taf_trigger": false,
      "metar": "METAR EPKK 280030Z 23008KT 6000 OVC032 01/01 Q1015",
      "taf": "TAF EPKK 272330Z 2800/2824 24007KT 9999 -RA BKN030"
    },
    {
      "icao": "EPKT",
      "alert": "OK",
      "vis_m": 9999,
      "fzfg": false,
      "metar_trigger": false,
      "taf_trigger": false,
      "metar": "METAR EPKT 280030Z 34010KT 9999 -RA FEW028 BKN033 03/M00 Q1016",
      "taf": "TAF EPKT 272330Z 2800/2824 36008KT 9999 BKN030"
    },
    {
      "icao": "EPLB",
      "alert": "OK",
      "vis_m": 9999,
      "fzfg": false,
      "metar_trigger": false,
      "taf_trigger": false,
      "metar": "METAR EPLB 280030Z 03007KT CAVOK 07/03 Q1013",
      "taf": "TAF EPLB 272330Z 2800/2824 01008KT CAVOK"
    },
    {
      "icao": "EPMO",
      "alert": "OK",
      "vis_m": 9999,
      "fzfg": false,
      "metar_trigger": false,
      "taf_trigger": false,
      "metar": "METAR EPMO 280030Z 36010KT CAVOK 05/M01 Q1018",
      "taf": "TAF EPMO 272330Z 2800/2824 36007KT CAVOK"
    },
    {
      "icao": "EPPO",
      "alert": "OK",
      "vis_m": 9999,
      "fzfg": false,
      "metar_trigger": false,
      "taf_trigger": false,
      "metar": "METAR EPPO 280030Z 33003KT CAVOK M01/M02 Q1020",
      "taf": "TAF EPPO 272330Z 2800/2824 33003KT CAVOK"
    },
    {
      "icao": "EPRA",
      "alert": "OK",
      "vis_m": 9999,
      "fzfg": false,
      "metar_trigger": false,
      "taf_trigger": false,
      "metar": "METAR EPRA 280030Z 35009KT CAVOK 06/M01 Q1015",
      "taf": "TAF EPRA 272330Z 2800/2809 35008KT CAVOK"
    },
    {
      "icao": "EPRZ",
      "alert": "OK",
      "vis_m": 9999,
      "fzfg": false,
      "metar_trigger": false,
      "taf_trigger": false,
      "metar": "METAR EPRZ 280030Z 30005KT 9999 FEW047 05/04 Q1012",
      "taf": "TAF EPRZ 272330Z 2800/2824 32008KT 9999 BKN025"
    },
    {
      "icao": "EPSC",
      "alert": "OK",
      "vis_m": 9999,
      "fzfg": false,
      "metar_trigger": false,
      "taf_trigger": false,
      "metar": "METAR EPSC 280030Z 12005KT CAVOK M01/M02 Q1020",
      "taf": "TAF EPSC 272330Z 2800/2824 VRB03KT CAVOK"
    },
    {
      "icao": "EPSY",
      "alert": "OK",
      "vis_m": 9999,
      "fzfg": false,
      "metar_trigger": false,
      "taf_trigger": false,
      "metar": "METAR EPSY 280030Z 35005KT CAVOK 03/M02 Q1019",
      "taf": "TAF EPSY 272330Z 2800/2809 36008KT CAVOK"
    },
    {
      "icao": "EPWA",
      "alert": "OK",
      "vis_m": 9999,
      "fzfg": false,
      "metar_trigger": false,
      "taf_trigger": false,
      "metar": "METAR EPWA 280030Z 01008KT CAVOK 06/M01 Q1017 NOSIG",
      "taf": "TAF EPWA 272330Z 2800/2824 01008KT CAVOK"
    },
    {
      "icao": "EPWR",
      "alert": "OK",
      "vis_m": 9999,
      "fzfg": false,
      "metar_trigger": false,
      "taf_trigger": false,
      "metar": "METAR EPWR 280030Z 29006KT CAVOK 02/M02 Q1020",
      "taf": "TAF EPWR 272330Z 2800/2824 31007KT CAVOK"
    },
    {
      "icao": "ESGG",
      "alert": "OK",
      "vis_m": 4700,
      "fzfg": false,
      "metar_trigger": false,
      "taf_trigger": false,
      "metar": "METAR ESGG 280050Z 19017KT 4700 -RA BKN005 OVC007 03/02 Q1010",
      "taf": "TAF ESGG 272330Z 2800/2824 19010KT 9999 -RA BKN013"
    },
    {
      "icao": "ESKN",
      "alert": "OK",
      "vis_m": 9999,
      "fzfg": false,
      "metar_trigger": false,
      "taf_trigger": false,
      "metar": "METAR ESKN 280050Z VRB01KT CAVOK M01/M02 Q1013",
      "taf": "TAF ESKN 272330Z 2800/2824 17003KT CAVOK"
    },
    {
      "icao": "ESMS",
      "alert": "OK",
      "vis_m": 9999,
      "fzfg": false,
      "metar_trigger": false,
      "taf_trigger": false,
      "metar": "METAR ESMS 280020Z 18009KT CAVOK 01/M01 Q1016",
      "taf": "TAF ESMS 272327Z 2800/2824 20008KT 9999 BKN035"
    },
    {
      "icao": "ESSA",
      "alert": "OK",
      "vis_m": 9999,
      "fzfg": false,
      "metar_trigger": false,
      "taf_trigger": false,
      "metar": "METAR ESSA 280050Z 17007KT CAVOK 00/M03 Q1012 NOSIG",
      "taf": "TAF ESSA 272330Z 2800/2824 18006KT CAVOK"
    },
    {
      "icao": "EYKA",
      "alert": "OK",
      "vis_m": 9999,
      "fzfg": false,
      "metar_trigger": false,
      "taf_trigger": false,
      "metar": "METAR EYKA 280050Z 34004KT CAVOK 02/M01 Q1019",
      "taf": "TAF EYKA 272300Z 2800/2824 VRB03KT 9000 NSC"
    },
    {
      "icao": "EYPA",
      "alert": "OK",
      "vis_m": 6000,
      "fzfg": false,
      "metar_trigger": false,
      "taf_trigger": false,
      "metar": "METAR EYPA 280050Z 21004KT 180V250 6000 OVC002 M00/M01 Q1020",
      "taf": "TAF EYPA 272300Z 2800/2824 VRB03KT 5000 BR OVC002"
    },
    {
      "icao": "EYVI",
      "alert": "OK",
      "vis_m": 9999,
      "fzfg": false,
      "metar_trigger": false,
      "taf_trigger": false,
      "metar": "METAR EYVI 280050Z 36005KT CAVOK 00/M03 Q1017 NOSIG",
      "taf": "TAF EYVI 272300Z 2800/2824 VRB04KT 9000 NSC"
    },
    {
      "icao": "GCFV",
      "alert": "OK",
      "vis_m": 9999,
      "fzfg": false,
      "metar_trigger": false,
      "taf_trigger": false,
      "metar": "METAR GCFV 280030Z AUTO 35012KT 9999 FEW022 OVC028 18/13 Q1016",
      "taf": "TAF GCFV 272000Z 2721/2821 33014KT 9999 SCT030 TX22/2814Z TN16/2806Z"
    },
    {
      "icao": "GCLP",
      "alert": "OK",
      "vis_m": 9999,
      "fzfg": false,
      "metar_trigger": false,
      "taf_trigger": false,
      "metar": "METAR GCLP 280030Z 36014KT 330V030 9999 FEW025 17/12 Q1017 NOSIG",
      "taf": "TAF GCLP 272000Z 2721/2821 36018KT 9999 SCT030 TX22/2814Z TN16/2806Z"
    },
    {
      "icao": "GCTS",
      "alert": "OK",
      "vis_m": 9999,
      "fzfg": false,
      "metar_trigger": false,
      "taf_trigger": false,
      "metar": "METAR GCTS 280030Z VRB02KT 9999 FEW025 16/12 Q1018 NOSIG",
      "taf": "TAF GCTS 272000Z 2721/2821 29006KT 9999 SCT035 TX23/2814Z TN16/2806Z"
    },
    {
      "icao": "GMAD",
      "alert": "OK",
      "vis_m": 6000,
      "fzfg": false,
      "metar_trigger": false,
      "taf_trigger": false,
      "metar": "METAR GMAD 280030Z 10003KT 6000 BKN020 14/13 Q1013 NOSIG",
      "taf": "TAF GMAD 272300Z 2800/2906 18006KT 6000 BKN020"
    },
    {
      "icao": "GMMN",
      "alert": "OK",
      "vis_m": 9999,
      "fzfg": false,
      "metar_trigger": false,
      "taf_trigger": false,
      "metar": "METAR GMMN 280030Z 34003KT 310V010 9999 FEW020 11/10 Q1015 NOSIG",
      "taf": "TAF GMMN 272300Z 2800/2906 17004KT 8000 SCT010"
    },
    {
      "icao": "GMMX",
      "alert": "OK",
      "vis_m": null,
      "fzfg": false,
      "metar_trigger": false,
      "taf_trigger": false,
      "metar": "METAR GMMX 280030Z 34003KT 300V020 16/14 Q1014",
      "taf": "TAF GMMX 272300Z 2800/2906 24006KT 8000 SCT016"
    },
    {
      "icao": "HEGN",
      "alert": "OK",
      "vis_m": 9999,
      "fzfg": false,
      "metar_trigger": false,
      "taf_trigger": false,
      "metar": "METAR HEGN 280000Z 00000KT CAVOK 17/08 Q1015 NOSIG",
      "taf": "TAF HEGN 272300Z 2800/2906 25010KT 9999 SCT025"
    },
    {
      "icao": "HEMA",
      "alert": "OK",
      "vis_m": 9999,
      "fzfg": false,
      "metar_trigger": false,
      "taf_trigger": false,
      "metar": "METAR HEMA 280000Z 24006KT CAVOK 16/09 Q1015 NOSIG",
      "taf": "TAF HEMA 272300Z 2800/2906 24010KT CAVOK"
    },
    {
      "icao": "HESH",
      "alert": "OK",
      "vis_m": 9999,
      "fzfg": false,
      "metar_trigger": false,
      "taf_trigger": false,
      "metar": "METAR HESH 280000Z 25003KT CAVOK 19/08 Q1015 NOSIG",
      "taf": "TAF HESH 272300Z 2800/2906 26010KT 9999 SCT025"
    },
    {
      "icao": "HESX",
      "alert": "OK",
      "vis_m": 9999,
      "fzfg": false,
      "metar_trigger": false,
      "taf_trigger": false,
      "metar": "METAR HESX 280000Z 15006KT CAVOK 14/05 Q1014 NOSIG",
      "taf": "TAF HESX 272300Z 2800/2906 18010KT 9999 FEW020"
    },
    {
      "icao": "LATI",
      "alert": "OK",
      "vis_m": 9999,
      "fzfg": false,
      "metar_trigger": false,
      "taf_trigger": false,
      "metar": "METAR LATI 280050Z 16003KT 9999 BKN055 OVC080 08/06 Q1003 NOSIG",
      "taf": "TAF LATI 272300Z 2800/2824 VRB03KT 9999 BKN070 TX15/2812Z TN05/2805Z"
    },
    {
      "icao": "LBPD",
      "alert": "OK",
      "vis_m": 9999,
      "fzfg": false,
      "metar_trigger": false,
      "taf_trigger": false,
      "metar": "METAR LBPD 280030Z AUTO 00000KT 9999 BKN029/// 07/07 Q1001",
      "taf": "TAF LBPD 272300Z 2800/2824 VRB03KT 9999 BKN020 OVC040"
    },
    {
      "icao": "LBSF",
      "alert": "OK",
      "vis_m": 9999,
      "fzfg": false,
      "metar_trigger": false,
      "taf_trigger": false,
      "metar": "METAR LBSF 280030Z AUTO 27008KT 9999 -RA OVC009/// 03/02 Q1001 RERA TEMPO 4000 RA",
      "taf": "TAF LBSF 272300Z 2800/2824 VRB03KT 9999 SCT015 BKN025 OVC040"
    },
    {
      "icao": "LBWN",
      "alert": "OK",
      "vis_m": 9999,
      "fzfg": false,
      "metar_trigger": false,
      "taf_trigger": false,
      "metar": "METAR LBWN 280030Z AUTO 11009KT 9999 -RA NSC 10/10 Q1005 TEMPO 5000 RA",
      "taf": "TAF LBWN 272300Z 2800/2824 10014KT 9999 SCT010 OVC025"
    },
    {
      "icao": "LCLK",
      "alert": "OK",
      "vis_m": 9999,
      "fzfg": false,
      "metar_trigger": false,
      "taf_trigger": false,
      "metar": "METAR LCLK 280030Z 31002KT CAVOK 12/09 Q1012 NOSIG",
      "taf": "TAF LCLK 272330Z 2800/2900 24007KT 9999 FEW025"
    },
    {
      "icao": "LCPH",
      "alert": "OK",
      "vis_m": 9999,
      "fzfg": false,
      "metar_trigger": false,
      "taf_trigger": false,
      "metar": "METAR LCPH 280030Z AUTO 01005KT 9999 BKN024 OVC029 13/10 Q1013 NOSIG",
      "taf": "TAF LCPH 272330Z 2800/2900 08009KT 9999 FEW020"
    },
    {
      "icao": "LEAL",
      "alert": "OK",
      "vis_m": 9999,
      "fzfg": false,
      "metar_trigger": false,
      "taf_trigger": false,
      "metar": "METAR LEAL 280030Z 30003KT CAVOK 11/09 Q1019 NOSIG",
      "taf": "TAF LEAL 272300Z 2800/2824 VRB04KT 9999 FEW025 TX17/2812Z TN07/2806Z"
    },
    {
      "icao": "LEBB",
      "alert": "OK",
      "vis_m": 9999,
      "fzfg": false,
      "metar_trigger": false,
      "taf_trigger": false,
      "metar": "METAR LEBB 280030Z AUTO 09003KT 9999 BKN041 BKN057 05/04 Q1027",
      "taf": "TAF LEBB 272300Z 2800/2824 29009KT 9999 FEW020 BKN035 TX12/2812Z TN05/2800Z"
    },
    {
      "icao": "LEBL",
      "alert": "OK",
      "vis_m": 9999,
      "fzfg": false,
      "metar_trigger": false,
      "taf_trigger": false,
      "metar": "METAR LEBL 280030Z 24014KT 9999 FEW025 SCT040 13/08 Q1018 NOSIG",
      "taf": "TAF LEBL 272300Z 2800/2824 24010KT 9999 FEW020 TX17/2812Z TN08/2806Z"
    },
    {
      "icao": "LECH",
      "alert": "OK",
      "vis_m": 9999,
      "fzfg": false,
      "metar_trigger": false,
      "taf_trigger": false,
      "metar": "METAR LECH 280030Z AUTO 00000KT CAVOK 07/04 Q1019",
      "taf": "TAF LECH 272300Z 2800/2824 VRB04KT 9999 FEW030 TX19/2813Z TN03/2806Z"
    },
    {
      "icao": "LEMD",
      "alert": "OK",
      "vis_m": 9999,
      "fzfg": false,
      "metar_trigger": false,
      "taf_trigger": false,
      "metar": "METAR LEMD 280030Z VRB02KT CAVOK 06/M01 Q1020 NOSIG",
      "taf": "TAF LEMD 272300Z 2800/2906 03008KT CAVOK TX19/2816Z TN01/2807Z"
    },
    {
      "icao": "LEMG",
      "alert": "OK",
      "vis_m": 9999,
      "fzfg": false,
      "metar_trigger": false,
      "taf_trigger": false,
      "metar": "METAR LEMG 280030Z VRB01KT 9999 FEW025 BKN050 14/08 Q1019 NOSIG",
      "taf": "TAF LEMG 272300Z 2800/2824 12010KT 9999 SCT025 BKN045 TX17/2813Z TN13/2806Z"
    },
    {
      "icao": "LEVC",
      "alert": "OK",
      "vis_m": 9999,
      "fzfg": false,
      "metar_trigger": false,
      "taf_trigger": false,
      "metar": "METAR LEVC 280030Z 32005KT CAVOK 09/05 Q1019 NOSIG",
      "taf": "TAF LEVC 272300Z 2800/2824 VRB03KT 9999 FEW025 TX20/2813Z TN06/2806Z"
    },
    {
      "icao": "LEXJ",
      "alert": "OK",
      "vis_m": 9999,
      "fzfg": false,
      "metar_trigger": false,
      "taf_trigger": false,
      "metar": "METAR LEXJ 280030Z AUTO 26001KT 9999 BKN042 07/05 Q1027",
      "taf": "TAF LEXJ 272000Z 2721/2821 20006KT 9999 BKN030 TX12/2812Z TN07/2722Z"
    },
    {
      "icao": "LEZG",
      "alert": "OK",
      "vis_m": 9999,
      "fzfg": false,
      "metar_trigger": false,
      "taf_trigger": false,
      "metar": "METAR LEZG 280030Z 29024G34KT CAVOK 08/01 Q1020 NOSIG",
      "taf": ""
    },
    {
      "icao": "LEZL",
      "alert": "OK",
      "vis_m": 9999,
      "fzfg": false,
      "metar_trigger": false,
      "taf_trigger": false,
      "metar": "METAR LEZL 280030Z AUTO 22006KT 190V250 CAVOK 14/10 Q1017",
      "taf": "TAF LEZL 272000Z 2721/2821 VRB03KT CAVOK TX25/2815Z TN09/2807Z"
    },
    {
      "icao": "LFBD",
      "alert": "OK",
      "vis_m": 9999,
      "fzfg": false,
      "metar_trigger": false,
      "taf_trigger": false,
      "metar": "METAR LFBD 280030Z AUTO 24002KT CAVOK 05/02 Q1025 TEMPO 4000 BR",
      "taf": "TAF LFBD 272300Z 2800/2906 VRB03KT CAVOK TX12/2815Z TN03/2803Z"
    },
    {
      "icao": "LFLL",
      "alert": "OK",
      "vis_m": 9999,
      "fzfg": false,
      "metar_trigger": false,
      "taf_trigger": false,
      "metar": "METAR LFLL 280030Z 34006KT CAVOK 01/M04 Q1022 NOSIG",
      "taf": "TAF LFLL 272300Z 2800/2906 36007KT CAVOK"
    },
    {
      "icao": "LFLS",
      "alert": "OK",
      "vis_m": 9999,
      "fzfg": false,
      "metar_trigger": false,
      "taf_trigger": false,
      "metar": "METAR LFLS 280030Z AUTO 01005KT CAVOK M00/M05 Q1020",
      "taf": "TAF LFLS 271400Z 2715/2815 34010KT 9999 BKN055"
    },
    {
      "icao": "LFMN",
      "alert": "OK",
      "vis_m": 9999,
      "fzfg": false,
      "metar_trigger": false,
      "taf_trigger": false,
      "metar": "METAR LFMN 280030Z 35009KT CAVOK 10/M01 Q1012 NOSIG",
      "taf": "TAF LFMN 272000Z 2721/2903 35010KT CAVOK"
    },
    {
      "icao": "LFOB",
      "alert": "OK",
      "vis_m": 7000,
      "fzfg": false,
      "metar_trigger": false,
      "taf_trigger": false,
      "metar": "METAR LFOB 280030Z AUTO 22007KT 7000 -RA OVC005/// ///TCU 09/08 Q1019 TEMPO 3000 RA OVC004",
      "taf": ""
    },
    {
      "icao": "LFPO",
      "alert": "OK",
      "vis_m": 9999,
      "fzfg": false,
      "metar_trigger": false,
      "taf_trigger": false,
      "metar": "METAR LFPO 280030Z 20007KT 9999 -RA BKN040 08/05 Q1021 TEMPO BKN012",
      "taf": "TAF LFPO 272300Z 2800/2906 20006KT 9999 -RA SCT012 BKN040"
    },
    {
      "icao": "LFSB",
      "alert": "OK",
      "vis_m": 9999,
      "fzfg": false,
      "metar_trigger": false,
      "taf_trigger": false,
      "metar": "METAR LFSB 280030Z AUTO 13002KT CAVOK M03/M04 Q1022 NOSIG",
      "taf": "TAF LFSB 272300Z 2800/2824 VRB03KT CAVOK"
    },
    {
      "icao": "LGAV",
      "alert": "OK",
      "vis_m": 9999,
      "fzfg": false,
      "metar_trigger": false,
      "taf_trigger": false,
      "metar": "METAR LGAV 280050Z VRB02KT 9999 FEW025 04/03 Q1004 NOSIG",
      "taf": "TAF LGAV 272300Z 2800/2824 VRB05KT 9999 FEW025 SCT030"
    },
    {
      "icao": "LGTS",
      "alert": "OK",
      "vis_m": 9999,
      "fzfg": false,
      "metar_trigger": false,
      "taf_trigger": false,
      "metar": "METAR LGTS 280050Z 10006KT 9999 FEW020 05/05 Q1002 NOSIG",
      "taf": "TAF LGTS 272300Z 2800/2824 34013KT 9999 SCT025"
    },
    {
      "icao": "LHBP",
      "alert": "OK",
      "vis_m": 9999,
      "fzfg": false,
      "metar_trigger": false,
      "taf_trigger": false,
      "metar": "METAR LHBP 280030Z 35010KT 9999 -SHRA NSC 08/M00 Q1008 NOSIG",
      "taf": "TAF LHBP 272315Z 2800/2824 34011KT CAVOK"
    },
    {
      "icao": "LHDC",
      "alert": "OK",
      "vis_m": 9999,
      "fzfg": false,
      "metar_trigger": false,
      "taf_trigger": false,
      "metar": "METAR LHDC 280015Z AUTO 03016KT CAVOK 07/03 Q1006",
      "taf": "TAF LHDC 271415Z 2715/2724 02022G32KT CAVOK"
    },
    {
      "icao": "LIBD",
      "alert": "OK",
      "vis_m": 9999,
      "fzfg": false,
      "metar_trigger": false,
      "taf_trigger": false,
      "metar": "METAR LIBD 280050Z 27010KT 9999 BKN045 06/05 Q1005",
      "taf": "TAF LIBD 272300Z 2800/2824 28012KT 9999 FEW010 BKN020"
    },
    {
      "icao": "LIBG",
      "alert": "OK",
      "vis_m": null,
      "fzfg": false,
      "metar_trigger": false,
      "taf_trigger": false,
      "metar": "",
      "taf": "TAF LIBG 271700Z 2718/2803 30006KT 9999 SCT030"
    },
    {
      "icao": "LIBP",
      "alert": "OK",
      "vis_m": 9999,
      "fzfg": false,
      "metar_trigger": false,
      "taf_trigger": false,
      "metar": "METAR LIBP 280050Z AUTO 30010KT 270V330 9999 -RA OVC024/// 07/06 Q1010 RERA",
      "taf": "TAF LIBP 272300Z 2800/2824 33012KT 9999 BKN015 BKN050"
    },
    {
      "icao": "LIBR",
      "alert": "OK",
      "vis_m": 9999,
      "fzfg": false,
      "metar_trigger": false,
      "taf_trigger": false,
      "metar": "METAR LIBR 280050Z 30013KT 9999 BKN020 BKN040 09/06 Q1003",
      "taf": "TAF LIBR 272300Z 2800/2824 33015KT 9999 BKN040"
    },
    {
      "icao": "LICA",
      "alert": "OK",
      "vis_m": 9999,
      "fzfg": false,
      "metar_trigger": false,
      "taf_trigger": false,
      "metar": "METAR LICA 280050Z AUTO 08004KT 9999 NCD 03/02 Q1005",
      "taf": "TAF LICA 272300Z 2800/2824 VRB06KT 9999 BKN030"
    },
    {
      "icao": "LICC",
      "alert": "OK",
      "vis_m": 9999,
      "fzfg": false,
      "metar_trigger": false,
      "taf_trigger": false,
      "metar": "METAR LICC 280050Z 28013KT CAVOK 08/03 Q1005",
      "taf": "TAF LICC 272300Z 2800/2824 26012KT CAVOK"
    },
    {
      "icao": "LICJ",
      "alert": "OK",
      "vis_m": 9999,
      "fzfg": false,
      "metar_trigger": false,
      "taf_trigger": false,
      "metar": "METAR LICJ 280050Z 32010KT CAVOK 12/06 Q1007",
      "taf": "TAF LICJ 272300Z 2800/2824 31016KT 9999 SCT030"
    },
    {
      "icao": "LIMC",
      "alert": "OK",
      "vis_m": 9999,
      "fzfg": false,
      "metar_trigger": false,
      "taf_trigger": false,
      "metar": "METAR LIMC 280050Z 01003KT 330V040 CAVOK 05/M06 Q1012 NOSIG",
      "taf": "TAF LIMC 272300Z 2800/2906 VRB05KT CAVOK"
    },
    {
      "icao": "LIME",
      "alert": "OK",
      "vis_m": 9999,
      "fzfg": false,
      "metar_trigger": false,
      "taf_trigger": false,
      "metar": "METAR LIME 280050Z AUTO 01004KT 9999 NCD 06/M04 Q1012",
      "taf": "TAF LIME 272300Z 2800/2824 36006KT CAVOK"
    },
    {
      "icao": "LIMF",
      "alert": "OK",
      "vis_m": 9999,
      "fzfg": false,
      "metar_trigger": false,
      "taf_trigger": false,
      "metar": "METAR LIMF 280050Z 33005KT CAVOK 02/M06 Q1012",
      "taf": "TAF LIMF 272300Z 2800/2824 VRB05KT CAVOK"
    },
    {
      "icao": "LIMJ",
      "alert": "OK",
      "vis_m": 9999,
      "fzfg": false,
      "metar_trigger": false,
      "taf_trigger": false,
      "metar": "METAR LIMJ 280050Z AUTO 01007KT 290V040 9999 NCD 12/M08 Q1011",
      "taf": "TAF LIMJ 272300Z 2800/2824 02012KT CAVOK"
    },
    {
      "icao": "LIPE",
      "alert": "OK",
      "vis_m": 9999,
      "fzfg": false,
      "metar_trigger": false,
      "taf_trigger": false,
      "metar": "METAR LIPE 280050Z AUTO 23002KT 9999 NCD 05/M00 Q1012",
      "taf": "TAF LIPE 272300Z 2800/2824 VRB05KT CAVOK"
    },
    {
      "icao": "LIPH",
      "alert": "OK",
      "vis_m": 9999,
      "fzfg": false,
      "metar_trigger": false,
      "taf_trigger": false,
      "metar": "METAR LIPH 280050Z AUTO VRB01KT 9999 NCD 04/01 Q1012",
      "taf": "TAF LIPH 272300Z 2800/2824 VRB05KT CAVOK"
    },
    {
      "icao": "LIPQ",
      "alert": "OK",
      "vis_m": 9999,
      "fzfg": false,
      "metar_trigger": false,
      "taf_trigger": false,
      "metar": "METAR LIPQ 280050Z AUTO VRB02KT 9999 BKN140/// 04/M01 Q1011",
      "taf": "TAF LIPQ 272300Z 2800/2824 VRB05KT CAVOK"
    },
    {
      "icao": "LIPR",
      "alert": "OK",
      "vis_m": 9999,
      "fzfg": false,
      "metar_trigger": false,
      "taf_trigger": false,
      "metar": "METAR LIPR 280050Z AUTO VRB02KT 9999 FEW085/// BKN099/// 07/04 Q1011",
      "taf": "TAF LIPR 272300Z 2800/2824 VRB05KT 9999 SCT070"
    },
    {
      "icao": "LIPX",
      "alert": "OK",
      "vis_m": 9999,
      "fzfg": false,
      "metar_trigger": false,
      "taf_trigger": false,
      "metar": "METAR LIPX 280050Z AUTO 35005KT 9999 NCD 08/M08 Q1012",
      "taf": "TAF LIPX 272300Z 2800/2824 03010KT CAVOK"
    },
    {
      "icao": "LIPY",
      "alert": "OK",
      "vis_m": 9999,
      "fzfg": false,
      "metar_trigger": false,
      "taf_trigger": false,
      "metar": "METAR LIPY 280050Z AUTO 04008KT 9999 OVC065/// 11/03 Q1011",
      "taf": "TAF LIPY 272300Z 2800/2824 01017KT 9999 OVC050"
    },
    {
      "icao": "LIPZ",
      "alert": "OK",
      "vis_m": 9999,
      "fzfg": false,
      "metar_trigger": false,
      "taf_trigger": false,
      "metar": "METAR LIPZ 280050Z 06004KT CAVOK 08/M03 Q1012 NOSIG",
      "taf": "TAF LIPZ 272300Z 2800/2906 07008KT CAVOK"
    },
    {
      "icao": "LIRF",
      "alert": "OK",
      "vis_m": 9999,
      "fzfg": false,
      "metar_trigger": false,
      "taf_trigger": false,
      "metar": "METAR LIRF 280050Z 01012KT CAVOK 09/01 Q1008 NOSIG",
      "taf": "TAF LIRF 272300Z 2800/2906 01015KT CAVOK"
    },
    {
      "icao": "LIRN",
      "alert": "OK",
      "vis_m": 9999,
      "fzfg": false,
      "metar_trigger": false,
      "taf_trigger": false,
      "metar": "METAR LIRN 280050Z 03006KT 9999 FEW060 08/02 Q1007 NOSIG",
      "taf": "TAF LIRN 272300Z 2800/2824 04008KT 9999 FEW080"
    },
    {
      "icao": "LIRP",
      "alert": "OK",
      "vis_m": 9999,
      "fzfg": false,
      "metar_trigger": false,
      "taf_trigger": false,
      "metar": "METAR LIRP 280045Z VRB01KT CAVOK 03/01 Q1011 NOSIG",
      "taf": "TAF LIRP 272300Z 2800/2824 12003KT CAVOK"
    },
    {
      "icao": "LIRZ",
      "alert": "OK",
      "vis_m": 9999,
      "fzfg": false,
      "metar_trigger": false,
      "taf_trigger": false,
      "metar": "METAR LIRZ 280050Z AUTO 04007KT 9999 BKN056/// BKN096/// 08/01 Q1010",
      "taf": "TAF LIRZ 272300Z 2800/2824 VRB05KT 9999 BKN050"
    },
    {
      "icao": "LJLJ",
      "alert": "OK",
      "vis_m": 9999,
      "fzfg": false,
      "metar_trigger": false,
      "taf_trigger": false,
      "metar": "METAR LJLJ 280030Z 33013KT 9999 SCT075 07/M08 Q1011 NOSIG",
      "taf": "TAF LJLJ 272300Z 2800/2900 33010KT 9999 FEW060"
    },
    {
      "icao": "LKMT",
      "alert": "OK",
      "vis_m": 9999,
      "fzfg": false,
      "metar_trigger": false,
      "taf_trigger": false,
      "metar": "METAR LKMT 280030Z 36008KT 9999 -RASN FEW010 BKN034 OVC044 02/00 Q1017 NOSIG",
      "taf": "TAF LKMT 272300Z 2800/2824 02010KT 9999 BKN040"
    },
    {
      "icao": "LKPR",
      "alert": "OK",
      "vis_m": 9999,
      "fzfg": false,
      "metar_trigger": false,
      "taf_trigger": false,
      "metar": "METAR LKPR 280030Z 24006KT CAVOK M02/M05 Q1020 NOSIG",
      "taf": "TAF LKPR 272300Z 2800/2906 28006KT CAVOK"
    },
    {
      "icao": "LLBG",
      "alert": "OK",
      "vis_m": 9999,
      "fzfg": false,
      "metar_trigger": false,
      "taf_trigger": false,
      "metar": "METAR LLBG 280050Z 17004KT CAVOK 12/08 Q1015 NOSIG",
      "taf": "TAF LLBG 272355Z 2800/2824 VRB04KT CAVOK TX23/2811Z TN09/2804Z"
    },
    {
      "icao": "LMML",
      "alert": "OK",
      "vis_m": 9999,
      "fzfg": false,
      "metar_trigger": false,
      "taf_trigger": false,
      "metar": "METAR LMML 280045Z 27012KT CAVOK 09/05 Q1008 NOSIG",
      "taf": "TAF LMML 272300Z 2800/2824 31014KT 9999 FEW020"
    },
    {
      "icao": "LOWW",
      "alert": "OK",
      "vis_m": 9999,
      "fzfg": false,
      "metar_trigger": false,
      "taf_trigger": false,
      "metar": "METAR LOWW 280050Z 33016KT 9999 FEW036 SCT040 BKN044 04/M02 Q1017 NOSIG",
      "taf": ""
    },
    {
      "icao": "LPFR",
      "alert": "OK",
      "vis_m": 9999,
      "fzfg": false,
      "metar_trigger": false,
      "taf_trigger": false,
      "metar": "METAR LPFR 280030Z 09005KT 360V140 CAVOK 15/08 Q1017",
      "taf": "TAF LPFR 272300Z 2800/2824 04008KT CAVOK"
    },
    {
      "icao": "LPMA",
      "alert": "OK",
      "vis_m": 9999,
      "fzfg": false,
      "metar_trigger": false,
      "taf_trigger": false,
      "metar": "METAR LPMA 280030Z 02014KT 320V040 9999 FEW015 16/10 Q1020",
      "taf": "TAF LPMA 272300Z 2800/2824 02015KT 9999 SCT015"
    },
    {
      "icao": "LPPR",
      "alert": "OK",
      "vis_m": 9999,
      "fzfg": false,
      "metar_trigger": false,
      "taf_trigger": false,
      "metar": "METAR LPPR 280030Z 00000KT CAVOK 10/09 Q1020",
      "taf": "TAF LPPR 272300Z 2800/2824 VRB02KT CAVOK"
    },
    {
      "icao": "LPPS",
      "alert": "OK",
      "vis_m": 9999,
      "fzfg": false,
      "metar_trigger": false,
      "taf_trigger": false,
      "metar": "METAR LPPS 280030Z 03009KT 9999 SCT014 SCT030 15/12 Q1021",
      "taf": "TAF LPPS 272300Z 2800/2906 02013KT 9999 SCT015 SCT030"
    },
    {
      "icao": "LPPT",
      "alert": "OK",
      "vis_m": 9999,
      "fzfg": false,
      "metar_trigger": false,
      "taf_trigger": false,
      "metar": "METAR LPPT 280030Z 33008KT CAVOK 14/07 Q1018",
      "taf": "TAF LPPT 272300Z 2800/2906 34010KT CAVOK"
    },
    {
      "icao": "LQBK",
      "alert": "OK",
      "vis_m": 8000,
      "fzfg": false,
      "metar_trigger": false,
      "taf_trigger": false,
      "metar": "METAR LQBK 280030Z 30013KT 8000 RA BKN013 OVC023 04/01 Q1010 NOSIG",
      "taf": "TAF LQBK 272300Z 2800/2824 30011KT 7000 SCT010 BKN015 OVC030 TX05/2813Z TN02/2806Z"
    },
    {
      "icao": "LQSA",
      "alert": "OK",
      "vis_m": 2500,
      "fzfg": false,
      "metar_trigger": false,
      "taf_trigger": false,
      "metar": "METAR LQSA 280030Z 00000KT 2500 -SN BR SCT005 BKN020 00/00 Q1006",
      "taf": "TAF LQSA 272300Z 2800/2824 31007KT 4000 -SN SCT010 BKN030 TX04/2813Z TN00/2806Z"
    },
    {
      "icao": "LQTZ",
      "alert": "OK",
      "vis_m": 2700,
      "fzfg": false,
      "metar_trigger": false,
      "taf_trigger": false,
      "metar": "METAR LQTZ 280030Z 29007KT 2700 -SN BR OVC002 00/00 Q1008",
      "taf": "TAF LQTZ 272300Z 2800/2824 28007KT 3000 -SN BKN005 OVC015 TX02/2814Z TNM01/2805Z"
    },
    {
      "icao": "LRBC",
      "alert": "OK",
      "vis_m": 9999,
      "fzfg": false,
      "metar_trigger": false,
      "taf_trigger": false,
      "metar": "METAR LRBC 280030Z 35009KT 9999 SCT034 07/03 Q1010",
      "taf": "TAF LRBC 272300Z 2800/2809 34007KT 9999 BKN035"
    },
    {
      "icao": "LRBS",
      "alert": "OK",
      "vis_m": 3000,
      "fzfg": false,
      "metar_trigger": false,
      "taf_trigger": false,
      "metar": "METAR LRBS 280030Z 05015KT 3000 RA BR BKN004 BKN010 OVC022 08/07 Q1004 NOSIG",
      "taf": "TAF LRBS 272300Z 2800/2824 06012KT 9999 BKN015 OVC040"
    },
    {
      "icao": "LRBV",
      "alert": "OK",
      "vis_m": 9999,
      "fzfg": false,
      "metar_trigger": false,
      "taf_trigger": false,
      "metar": "METAR LRBV 280030Z AUTO 06010KT 9999 SCT030/// BKN046/// OVC067/// 06/03 Q1005 RERA",
      "taf": "TAF LRBV 272000Z 2721/2806 07015KT 9999 BKN075"
    },
    {
      "icao": "LRCL",
      "alert": "OK",
      "vis_m": 9999,
      "fzfg": false,
      "metar_trigger": false,
      "taf_trigger": false,
      "metar": "METAR LRCL 280030Z 02002KT CAVOK 06/01 Q1006",
      "taf": "TAF LRCL 272300Z 2800/2809 06005KT 9999 BKN045"
    },
    {
      "icao": "LRCV",
      "alert": "OK",
      "vis_m": 5000,
      "fzfg": false,
      "metar_trigger": false,
      "taf_trigger": false,
      "metar": "METAR LRCV 280030Z 06020KT 5000 RA BR OVC006 07/07 Q1002",
      "taf": "TAF LRCV 272300Z 2800/2809 07016KT 5000 -RA BR BKN010 OVC020"
    },
    {
      "icao": "LRIA",
      "alert": "OK",
      "vis_m": 9999,
      "fzfg": false,
      "metar_trigger": false,
      "taf_trigger": false,
      "metar": "METAR LRIA 280030Z 24003KT 210V270 CAVOK 05/02 Q1010",
      "taf": "TAF LRIA 272300Z 2800/2809 VRB04KT CAVOK"
    },
    {
      "icao": "LROP",
      "alert": "OK",
      "vis_m": 4100,
      "fzfg": false,
      "metar_trigger": false,
      "taf_trigger": false,
      "metar": "METAR LROP 280030Z COR 07020KT 4100 -RA OVC008 08/07 Q1005 RERA NOSIG",
      "taf": "TAF LROP 272300Z 2800/2824 07017KT 9999 SCT020 OVC040"
    },
    {
      "icao": "LRSB",
      "alert": "OK",
      "vis_m": 9999,
      "fzfg": false,
      "metar_trigger": false,
      "taf_trigger": false,
      "metar": "METAR LRSB 280030Z 29005KT 9999 BKN050 06/05 Q1004",
      "taf": "TAF LRSB 272300Z 2800/2824 VRB04KT 9999 BKN050"
    },
    {
      "icao": "LRSM",
      "alert": "OK",
      "vis_m": 9999,
      "fzfg": false,
      "metar_trigger": false,
      "taf_trigger": false,
      "metar": "METAR LRSM 280030Z AUTO 04003KT 9999 BKN085/// BKN100/// 08/01 Q1007",
      "taf": "TAF LRSM 271400Z 2715/2724 08014KT CAVOK"
    },
    {
      "icao": "LRSV",
      "alert": "OK",
      "vis_m": 9999,
      "fzfg": false,
      "metar_trigger": false,
      "taf_trigger": false,
      "metar": "METAR LRSV 280030Z 31006KT CAVOK 05/02 Q1010",
      "taf": "TAF LRSV 272300Z 2800/2809 VRB04KT 9999 BKN030"
    },
    {
      "icao": "LRTM",
      "alert": "OK",
      "vis_m": 9999,
      "fzfg": false,
      "metar_trigger": false,
      "taf_trigger": false,
      "metar": "METAR LRTM 280030Z AUTO 09004KT 9999 NCD 07/04 Q1006",
      "taf": "TAF LRTM 271700Z 2718/2803 09013KT CAVOK"
    },
    {
      "icao": "LRTR",
      "alert": "OK",
      "vis_m": 7000,
      "fzfg": false,
      "metar_trigger": false,
      "taf_trigger": false,
      "metar": "METAR LRTR 280030Z 35007KT 7000 NSC 08/08 Q1004 NOSIG",
      "taf": "TAF LRTR 272300Z 2800/2824 VRB04KT 5000 BR SCT010 BKN045"
    },
    {
      "icao": "LTAC",
      "alert": "OK",
      "vis_m": 9999,
      "fzfg": false,
      "metar_trigger": false,
      "taf_trigger": false,
      "metar": "METAR LTAC 280050Z 14005KT CAVOK 04/01 Q1009 NOSIG",
      "taf": "TAF LTAC 272240Z 2800/2824 VRB02KT CAVOK"
    },
    {
      "icao": "LTFM",
      "alert": "OK",
      "vis_m": 9999,
      "fzfg": false,
      "metar_trigger": false,
      "taf_trigger": false,
      "metar": "METAR LTFM 280050Z 18019KT 9999 -SHRA BKN035 BKN080 11/08 Q1005 NOSIG",
      "taf": "TAF LTFM 272240Z 2800/2906 20012KT 9999 BKN035 BKN080"
    },
    {
      "icao": "LUKK",
      "alert": "OK",
      "vis_m": 9999,
      "fzfg": false,
      "metar_trigger": false,
      "taf_trigger": false,
      "metar": "METAR LUKK 280030Z 00000KT CAVOK 06/04 Q1009 NOSIG",
      "taf": "TAF LUKK 272314Z 2800/2824 VRB04KT CAVOK"
    },
    {
      "icao": "LWOH",
      "alert": "OK",
      "vis_m": null,
      "fzfg": false,
      "metar_trigger": false,
      "taf_trigger": false,
      "metar": "",
      "taf": "TAF LWOH 272335Z 2800/2824 34005KT 9999 SCT035 BKN050"
    },
    {
      "icao": "LWSK",
      "alert": "OK",
      "vis_m": 9999,
      "fzfg": false,
      "metar_trigger": false,
      "taf_trigger": false,
      "metar": "METAR LWSK 280050Z VRB01KT 9999 BKN040 04/03 Q1003 NOSIG",
      "taf": "TAF LWSK 272335Z 2800/2824 VRB02KT 9999 SCT040 BKN060"
    },
    {
      "icao": "LYBE",
      "alert": "OK",
      "vis_m": 5000,
      "fzfg": false,
      "metar_trigger": false,
      "taf_trigger": false,
      "metar": "METAR LYBE 280030Z 20009KT 5000 RA BKN003 04/04 Q1005 NOSIG",
      "taf": "TAF LYBE 272300Z 2800/2824 22010KT 8000 BKN005 BKN027 TX08/2812Z TN04/2824Z"
    },
    {
      "icao": "LYNI",
      "alert": "OK",
      "vis_m": 9999,
      "fzfg": false,
      "metar_trigger": false,
      "taf_trigger": false,
      "metar": "METAR LYNI 280030Z 32010KT 280V340 9999 SCT015 BKN033 06/04 Q1004 NOSIG",
      "taf": "TAF LYNI 272300Z 2800/2824 32010KT 9999 SCT010 BKN030 TX05/2812Z TN03/2824Z"
    },
    {
      "icao": "LYPG",
      "alert": "OK",
      "vis_m": 9999,
      "fzfg": false,
      "metar_trigger": false,
      "taf_trigger": false,
      "metar": "METAR LYPG 280030Z 31005KT CAVOK 07/01 Q1003 NOSIG",
      "taf": "TAF LYPG 272300Z 2800/2824 36008KT 9999 FEW060 TX14/2812Z TN06/2805Z"
    },
    {
      "icao": "LZIB",
      "alert": "OK",
      "vis_m": 9999,
      "fzfg": false,
      "metar_trigger": false,
      "taf_trigger": false,
      "metar": "METAR LZIB 280030Z 34017KT 9999 FEW010 BKN040 04/00 Q1015 NOSIG",
      "taf": "TAF LZIB 272315Z 2800/2900 35016KT 9999 FEW016 BKN035"
    },
    {
      "icao": "LZKZ",
      "alert": "OK",
      "vis_m": 9999,
      "fzfg": false,
      "metar_trigger": false,
      "taf_trigger": false,
      "metar": "METAR LZKZ 280030Z 36020KT CAVOK 06/02 Q1009 NOSIG",
      "taf": "TAF LZKZ 272315Z 2800/2900 01020KT 9999 FEW025 BKN040"
    },
    {
      "icao": "LZTT",
      "alert": "OK",
      "vis_m": 9999,
      "fzfg": false,
      "metar_trigger": false,
      "taf_trigger": false,
      "metar": "METAR LZTT 280030Z 04005KT 310V080 9999 OVC022 02/M01 Q1011",
      "taf": "TAF LZTT 272315Z 2800/2900 05010KT 9999 FEW010 BKN030"
    },
    {
      "icao": "OEJN",
      "alert": "OK",
      "vis_m": 9999,
      "fzfg": false,
      "metar_trigger": false,
      "taf_trigger": false,
      "metar": "METAR OEJN 280000Z 02005KT CAVOK 21/10 Q1012 NOSIG",
      "taf": "TAF OEJN 272300Z 2800/2906 VRB03KT CAVOK"
    },
    {
      "icao": "OEMA",
      "alert": "OK",
      "vis_m": 9999,
      "fzfg": false,
      "metar_trigger": false,
      "taf_trigger": false,
      "metar": "METAR OEMA 280000Z 11003KT CAVOK 17/06 Q1016 NOSIG",
      "taf": "TAF OEMA 272300Z 2800/2906 VRB03KT CAVOK"
    },
    {
      "icao": "OJAI",
      "alert": "OK",
      "vis_m": 4000,
      "fzfg": false,
      "metar_trigger": false,
      "taf_trigger": false,
      "metar": "METAR OJAI 280000Z 28003KT 4000 HZ NSC 06/02 Q1016 NOSIG",
      "taf": "TAF OJAI 272248Z 2800/2906 26010KT 5000 HZ NSC"
    },
    {
      "icao": "OMAA",
      "alert": "OK",
      "vis_m": null,
      "fzfg": false,
      "metar_trigger": false,
      "taf_trigger": false,
      "metar": "",
      "taf": ""
    },
    {
      "icao": "OMDB",
      "alert": "OK",
      "vis_m": null,
      "fzfg": false,
      "metar_trigger": false,
      "taf_trigger": false,
      "metar": "",
      "taf": ""
    },
    {
      "icao": "UAAA",
      "alert": "OK",
      "vis_m": 9999,
      "fzfg": false,
      "metar_trigger": false,
      "taf_trigger": false,
      "metar": "METAR UAAA 280030Z 18003MPS 9999 FEW100 06/M00 Q1010 NOSIG",
      "taf": "TAF UAAA 272303Z 2800/2824 28002G07MPS 9999 FEW100 TX19/2810Z TN05/2801Z"
    },
    {
      "icao": "UBBB",
      "alert": "OK",
      "vis_m": 9999,
      "fzfg": false,
      "metar_trigger": false,
      "taf_trigger": false,
      "metar": "METAR UBBB 280030Z 23010KT 9999 -SHRA BKN048CB 12/10 Q0997 NOSIG",
      "taf": "TAF UBBB 272257Z 2800/2824 22014KT 6000 -SHRA SCT010 SCT040CB OVC040 TX14/2810Z TN11/2802Z"
    },
    {
      "icao": "UDSG",
      "alert": "OK",
      "vis_m": 9999,
      "fzfg": false,
      "metar_trigger": false,
      "taf_trigger": false,
      "metar": "METAR UDSG 280030Z 32006G17KT 240V010 9999 SCT040CB OVC049 04/02 Q1006 NOSIG",
      "taf": "TAF UDSG 272258Z 2800/2824 33006KT 9999 BKN040"
    },
    {
      "icao": "UDYZ",
      "alert": "OK",
      "vis_m": 3600,
      "fzfg": false,
      "metar_trigger": false,
      "taf_trigger": false,
      "metar": "METAR UDYZ 280030Z 06003KT 3600 -SHRA BR FEW006 OVC023CB 08/07 Q1004 NOSIG",
      "taf": "TAF UDYZ 272300Z 2800/2824 16006KT 6000 BKN030"
    },
    {
      "icao": "UGKO",
      "alert": "OK",
      "vis_m": 9999,
      "fzfg": false,
      "metar_trigger": false,
      "taf_trigger": false,
      "metar": "METAR UGKO 280030Z 33003KT 9999 OVC068 08/07 Q1008 NOSIG",
      "taf": "TAF UGKO 272300Z 2800/2824 26006KT 9999 OVC050 TX18/2811Z TN07/2824Z"
    }
  ]
}