{
  "ts_utc": "2026-02-08T11:27:20Z",
  "threshold_m": 150,
  "source": "stations_override.txt (ICAO list) + aviationweather.gov (METAR/TAF raw)",
  "station_count": 159,
  "stations": [
    {
      "icao": "BIKF",
      "alert": "OK",
      "vis_m": 9999,
      "fzfg": false,
      "metar_trigger": false,
      "taf_trigger": false,
      "metar": "METAR BIKF 081100Z 04009KT CAVOK 00/M04 Q1010",
      "taf": "TAF BIKF 081005Z 0812/0912 05008KT 9999 FEW034 TX02/0815Z TNM02/0909Z"
    },
    {
      "icao": "BKPR",
      "alert": "OK",
      "vis_m": null,
      "fzfg": false,
      "metar_trigger": false,
      "taf_trigger": false,
      "metar": "",
      "taf": ""
    },
    {
      "icao": "EBCI",
      "alert": "OK",
      "vis_m": 9999,
      "fzfg": false,
      "metar_trigger": false,
      "taf_trigger": false,
      "metar": "METAR EBCI 081120Z 15006KT 110V190 CAVOK 10/06 Q1007 NOSIG",
      "taf": "TAF EBCI 081112Z 0812/0918 14004KT 9999 SCT025"
    },
    {
      "icao": "EDDB",
      "alert": "OK",
      "vis_m": 6000,
      "fzfg": false,
      "metar_trigger": false,
      "taf_trigger": false,
      "metar": "METAR EDDB 081120Z AUTO 06006KT 6000 BKN007 01/M00 Q1012 NOSIG",
      "taf": "TAF EDDB 081100Z 0812/0912 08007KT 6000 OVC006"
    },
    {
      "icao": "EDDH",
      "alert": "OK",
      "vis_m": 9999,
      "fzfg": false,
      "metar_trigger": false,
      "taf_trigger": false,
      "metar": "METAR EDDH 081120Z AUTO 10008KT 060V130 9999 OVC009 01/M00 Q1013 TEMPO BKN010",
      "taf": "TAF EDDH 080500Z 0806/0912 08007KT 8000 OVC008"
    },
    {
      "icao": "EDDK",
      "alert": "OK",
      "vis_m": 9999,
      "fzfg": false,
      "metar_trigger": false,
      "taf_trigger": false,
      "metar": "METAR EDDK 081120Z AUTO 13007KT 9999 OVC011 07/04 Q1009 BECMG BKN015",
      "taf": "TAF EDDK 081100Z 0812/0918 12008KT 9999 OVC010"
    },
    {
      "icao": "EDDN",
      "alert": "OK",
      "vis_m": 9999,
      "fzfg": false,
      "metar_trigger": false,
      "taf_trigger": false,
      "metar": "METAR EDDN 081120Z AUTO 34003KT 9999 BKN005 OVC008 04/03 Q1009 TEMPO BKN004",
      "taf": "TAF EDDN 081100Z 0812/0912 06003KT 9999 OVC005"
    },
    {
      "icao": "EDDS",
      "alert": "OK",
      "vis_m": 9999,
      "fzfg": false,
      "metar_trigger": false,
      "taf_trigger": false,
      "metar": "METAR EDDS 081120Z AUTO 07003KT 030V130 CAVOK 06/03 Q1007 NOSIG",
      "taf": "TAF EDDS 081100Z 0812/0912 07004KT 9000 SCT012"
    },
    {
      "icao": "EDFH",
      "alert": "OK",
      "vis_m": 300,
      "fzfg": false,
      "metar_trigger": false,
      "taf_trigger": false,
      "metar": "METAR EDFH 081120Z 11006KT 0300 R21/0400N FG VV/// 03/03 Q1008",
      "taf": "TAF EDFH 081100Z 0812/0912 13010KT 0300 FG VV000"
    },
    {
      "icao": "EDJA",
      "alert": "OK",
      "vis_m": 1900,
      "fzfg": false,
      "metar_trigger": false,
      "taf_trigger": false,
      "metar": "METAR EDJA 081120Z COR 07007KT 1900 BR OVC002 02/02 Q1006",
      "taf": "TAF EDJA 081100Z 0812/0821 06007KT 0900 FG OVC002"
    },
    {
      "icao": "EDLW",
      "alert": "OK",
      "vis_m": 9999,
      "fzfg": false,
      "metar_trigger": false,
      "taf_trigger": false,
      "metar": "METAR EDLW 081050Z 08005KT CAVOK 06/04 Q1008",
      "taf": "TAF EDLW 081100Z 0812/0912 09005KT CAVOK"
    },
    {
      "icao": "EDNY",
      "alert": "OK",
      "vis_m": 9999,
      "fzfg": false,
      "metar_trigger": false,
      "taf_trigger": false,
      "metar": "METAR EDNY 081120Z VRB02KT 9999 FEW007 06/04 Q1006",
      "taf": "TAF EDNY 081100Z 0812/0821 05003KT 9999 BKN005"
    },
    {
      "icao": "EDSB",
      "alert": "OK",
      "vis_m": 650,
      "fzfg": false,
      "metar_trigger": false,
      "taf_trigger": false,
      "metar": "METAR EDSB 081120Z 02008KT 0650 R21/0900U FG VV/// 02/02 Q1008",
      "taf": "TAF EDSB 081100Z 0812/0912 03008KT 0600 FG VV003"
    },
    {
      "icao": "EETN",
      "alert": "OK",
      "vis_m": 9999,
      "fzfg": false,
      "metar_trigger": false,
      "taf_trigger": false,
      "metar": "METAR EETN 081120Z 11006KT 9999 OVC006 M08/M09 Q1025 NOSIG",
      "taf": "TAF EETN 080530Z 0806/0906 08009KT 9999 OVC006"
    },
    {
      "icao": "EFTU",
      "alert": "OK",
      "vis_m": 9999,
      "fzfg": false,
      "metar_trigger": false,
      "taf_trigger": false,
      "metar": "METAR EFTU 081120Z AUTO 26005KT 9999 -SHSN SCT007 M12/M14 Q1025",
      "taf": "TAF EFTU 080836Z 0809/0909 26004KT 4000 -SN BKN006"
    },
    {
      "icao": "EGBB",
      "alert": "OK",
      "vis_m": 9999,
      "fzfg": false,
      "metar_trigger": false,
      "taf_trigger": false,
      "metar": "METAR EGBB 081120Z 16007KT 9999 BKN008 09/08 Q1003",
      "taf": "TAF EGBB 081103Z 0812/0912 17008KT 9999 SCT025"
    },
    {
      "icao": "EGGP",
      "alert": "OK",
      "vis_m": 9999,
      "fzfg": false,
      "metar_trigger": false,
      "taf_trigger": false,
      "metar": "METAR EGGP 081120Z 17008KT 9999 FEW012 BKN033 BKN040 09/07 Q1001",
      "taf": "TAF EGGP 081104Z 0812/0912 16008KT 9999 FEW012 SCT030"
    },
    {
      "icao": "EGGW",
      "alert": "OK",
      "vis_m": 9999,
      "fzfg": false,
      "metar_trigger": false,
      "taf_trigger": false,
      "metar": "METAR EGGW 081120Z AUTO 17007KT 140V210 9999 OVC007 08/07 Q1004",
      "taf": "TAF EGGW 081102Z 0812/0912 18008KT 9999 SCT004"
    },
    {
      "icao": "EGKK",
      "alert": "OK",
      "vis_m": 9999,
      "fzfg": false,
      "metar_trigger": false,
      "taf_trigger": false,
      "metar": "METAR EGKK 081120Z 17006KT 9999 BKN011 10/08 Q1004",
      "taf": "TAF EGKK 081057Z 0812/0918 14006KT 9999 SCT015"
    },
    {
      "icao": "EGNM",
      "alert": "OK",
      "vis_m": 9999,
      "fzfg": false,
      "metar_trigger": false,
      "taf_trigger": false,
      "metar": "METAR EGNM 081120Z 13005KT 100V160 9999 SCT004 SCT034 08/07 Q1002",
      "taf": "TAF EGNM 081105Z 0812/0912 16008KT 9999 FEW012 SCT020"
    },
    {
      "icao": "EGPD",
      "alert": "OK",
      "vis_m": 9000,
      "fzfg": false,
      "metar_trigger": false,
      "taf_trigger": false,
      "metar": "METAR EGPD 081120Z AUTO 15016KT 9000 BKN004 OVC009 08/07 Q1000 RERA TEMPO RA",
      "taf": "TAF EGPD 081054Z 0812/0912 15009KT 9999 SCT002 BKN010"
    },
    {
      "icao": "EGPF",
      "alert": "OK",
      "vis_m": 9999,
      "fzfg": false,
      "metar_trigger": false,
      "taf_trigger": false,
      "metar": "METAR EGPF 081120Z AUTO 18009KT 9999 BKN009 OVC031 08/06 Q0998",
      "taf": "TAF EGPF 081100Z 0812/0912 VRB03KT 9999 BKN030"
    },
    {
      "icao": "EHBK",
      "alert": "OK",
      "vis_m": 9999,
      "fzfg": false,
      "metar_trigger": false,
      "taf_trigger": false,
      "metar": "METAR EHBK 081055Z AUTO 06005KT 9999 NSC 07/05 Q1008 NOSIG",
      "taf": "TAF EHBK 081120Z 0812/0918 07007KT CAVOK"
    },
    {
      "icao": "EHEH",
      "alert": "OK",
      "vis_m": 900,
      "fzfg": false,
      "metar_trigger": false,
      "taf_trigger": false,
      "metar": "METAR EHEH 081055Z AUTO 12006KT 050V210 0900 R21/1100N FG OVC001 04/04 Q1008 RED TEMPO 0400 FG RMK LVP BRAVO TREND REMOTE BY EHWX",
      "taf": ""
    },
    {
      "icao": "EKBI",
      "alert": "OK",
      "vis_m": 9999,
      "fzfg": false,
      "metar_trigger": false,
      "taf_trigger": false,
      "metar": "METAR EKBI 081120Z AUTO 08012KT 9999 OVC010/// M01/M03 Q1016",
      "taf": ""
    },
    {
      "icao": "EKCH",
      "alert": "OK",
      "vis_m": 5000,
      "fzfg": false,
      "metar_trigger": false,
      "taf_trigger": false,
      "metar": "METAR EKCH 081120Z 06010KT 5000 -SN BKN018 M00/M02 Q1017 TEMPO BKN012",
      "taf": "TAF EKCH 080827Z 0809/0909 05013KT 9999 FEW014 BKN025"
    },
    {
      "icao": "ENAL",
      "alert": "OK",
      "vis_m": 9999,
      "fzfg": false,
      "metar_trigger": false,
      "taf_trigger": false,
      "metar": "METAR ENAL 081120Z 16008KT CAVOK 04/M07 Q1016",
      "taf": "TAF ENAL 080800Z 0809/0818 15008KT CAVOK"
    },
    {
      "icao": "ENBR",
      "alert": "OK",
      "vis_m": 9999,
      "fzfg": false,
      "metar_trigger": false,
      "taf_trigger": false,
      "metar": "METAR ENBR 081120Z VRB01KT CAVOK 02/M05 Q1016 NOSIG RMK WIND 1200FT 12006KT",
      "taf": "TAF ENBR 080500Z 0806/0906 VRB03KT CAVOK"
    },
    {
      "icao": "ENGM",
      "alert": "OK",
      "vis_m": 9999,
      "fzfg": false,
      "metar_trigger": false,
      "taf_trigger": false,
      "metar": "METAR ENGM 081120Z 06005KT 020V100 9999 -SN OVC009 M09/M12 Q1024 TEMPO BKN012",
      "taf": "TAF ENGM 080500Z 0806/0906 01005KT 9999 -SN BKN012"
    },
    {
      "icao": "ENHD",
      "alert": "OK",
      "vis_m": 9999,
      "fzfg": false,
      "metar_trigger": false,
      "taf_trigger": false,
      "metar": "METAR ENHD 081120Z 11011KT CAVOK 03/M16 Q1016",
      "taf": "TAF ENHD 080800Z 0809/0818 13008KT CAVOK"
    },
    {
      "icao": "ENTC",
      "alert": "OK",
      "vis_m": 9999,
      "fzfg": false,
      "metar_trigger": false,
      "taf_trigger": false,
      "metar": "METAR ENTC 081120Z 20016KT 9999 BKN022 M02/M06 Q1016 NOSIG RMK WIND 2600FT 28010KT",
      "taf": "TAF ENTC 080500Z 0806/0906 20012KT 9999 BKN030"
    },
    {
      "icao": "ENTO",
      "alert": "OK",
      "vis_m": 9999,
      "fzfg": false,
      "metar_trigger": false,
      "taf_trigger": false,
      "metar": "METAR ENTO 081120Z 01012KT 9999 BKN010 OVC012 M07/M09 Q1024 NOSIG",
      "taf": "TAF ENTO 080500Z 0806/0906 01010KT 9999 -SN BKN012"
    },
    {
      "icao": "ENVA",
      "alert": "OK",
      "vis_m": 9999,
      "fzfg": false,
      "metar_trigger": false,
      "taf_trigger": false,
      "metar": "METAR ENVA 081120Z 12003KT CAVOK M03/M14 Q1018 NOSIG RMK WIND 670FT 16002KT",
      "taf": "TAF ENVA 080500Z 0806/0906 08008KT CAVOK"
    },
    {
      "icao": "ENZV",
      "alert": "OK",
      "vis_m": 9999,
      "fzfg": false,
      "metar_trigger": false,
      "taf_trigger": false,
      "metar": "METAR ENZV 081120Z 11009KT CAVOK 01/M16 Q1016 NOSIG",
      "taf": "TAF ENZV 080500Z 0806/0906 09008KT 9999 SCT050"
    },
    {
      "icao": "EPGD",
      "alert": "OK",
      "vis_m": 9999,
      "fzfg": false,
      "metar_trigger": false,
      "taf_trigger": false,
      "metar": "METAR EPGD 081100Z 06010KT 040V100 9999 OVC005 M03/M04 Q1015",
      "taf": ""
    },
    {
      "icao": "EPKK",
      "alert": "OK",
      "vis_m": 7000,
      "fzfg": false,
      "metar_trigger": false,
      "taf_trigger": false,
      "metar": "METAR EPKK 081100Z 05003KT 7000 -RASN FEW003 BKN004 BKN012 02/01 Q1009",
      "taf": ""
    },
    {
      "icao": "EPKT",
      "alert": "OK",
      "vis_m": 5000,
      "fzfg": false,
      "metar_trigger": false,
      "taf_trigger": false,
      "metar": "METAR EPKT 081100Z 03004KT 5000 -RASN BR SCT003 BKN008 00/M00 Q1009",
      "taf": ""
    },
    {
      "icao": "EPLB",
      "alert": "OK",
      "vis_m": 2000,
      "fzfg": false,
      "metar_trigger": false,
      "taf_trigger": false,
      "metar": "METAR EPLB 081100Z 06007KT 2000 -SN BR SCT024 BKN028 OVC036 M04/M05 Q1011",
      "taf": ""
    },
    {
      "icao": "EPMO",
      "alert": "OK",
      "vis_m": 4700,
      "fzfg": false,
      "metar_trigger": false,
      "taf_trigger": false,
      "metar": "METAR EPMO 081100Z 07010KT 4700 -SN BR BKN014 M02/M03 Q1012",
      "taf": ""
    },
    {
      "icao": "EPPO",
      "alert": "OK",
      "vis_m": 3500,
      "fzfg": false,
      "metar_trigger": false,
      "taf_trigger": false,
      "metar": "METAR EPPO 081100Z 05005KT 3500 -SN BR OVC006 M01/M03 Q1012",
      "taf": ""
    },
    {
      "icao": "EPRA",
      "alert": "OK",
      "vis_m": 8000,
      "fzfg": false,
      "metar_trigger": false,
      "taf_trigger": false,
      "metar": "METAR EPRA 081100Z 08007KT 8000 BKN010 OVC016 M02/M04 Q1011",
      "taf": "TAF EPRA 080830Z 0809/0818 09010KT 7000 BKN008 OVC014"
    },
    {
      "icao": "EPRZ",
      "alert": "OK",
      "vis_m": 7000,
      "fzfg": false,
      "metar_trigger": false,
      "taf_trigger": false,
      "metar": "METAR EPRZ 081100Z 07004KT 7000 -SN BKN005 OVC014 M00/M01 Q1009 REFZDZ",
      "taf": ""
    },
    {
      "icao": "EPSC",
      "alert": "OK",
      "vis_m": 9999,
      "fzfg": false,
      "metar_trigger": false,
      "taf_trigger": false,
      "metar": "METAR EPSC 081100Z 06007KT 010V080 9999 BKN013 00/M03 Q1013",
      "taf": ""
    },
    {
      "icao": "EPSY",
      "alert": "OK",
      "vis_m": 9000,
      "fzfg": false,
      "metar_trigger": false,
      "taf_trigger": false,
      "metar": "METAR EPSY 081100Z 07007KT 030V110 9000 BKN007 OVC010 M02/M04 Q1014",
      "taf": "TAF EPSY 080830Z 0809/0818 04006KT 5000 -SN BR BKN020"
    },
    {
      "icao": "EPWA",
      "alert": "OK",
      "vis_m": 8000,
      "fzfg": false,
      "metar_trigger": false,
      "taf_trigger": false,
      "metar": "METAR EPWA 081100Z 10008KT 060V120 8000 -SN BKN011 BKN030 M02/M04 Q1012 TEMPO 4000 -SN BR",
      "taf": "TAF EPWA 080830Z 0809/0909 06007KT 6000 -SN OVC012 BKN020"
    },
    {
      "icao": "EPWR",
      "alert": "OK",
      "vis_m": 3500,
      "fzfg": false,
      "metar_trigger": false,
      "taf_trigger": false,
      "metar": "METAR EPWR 081100Z 01004KT 3500 -SN BR BKN004 BKN006 01/00 Q1011",
      "taf": "TAF EPWR 080830Z 0809/0909 35005KT 3000 -SN BR BKN005"
    },
    {
      "icao": "ESGG",
      "alert": "OK",
      "vis_m": 9999,
      "fzfg": false,
      "metar_trigger": false,
      "taf_trigger": false,
      "metar": "METAR ESGG 081120Z 08011KT CAVOK M02/M07 Q1020",
      "taf": "TAF ESGG 080830Z 0809/0909 05010KT CAVOK"
    },
    {
      "icao": "ESKN",
      "alert": "OK",
      "vis_m": 9999,
      "fzfg": false,
      "metar_trigger": false,
      "taf_trigger": false,
      "metar": "METAR ESKN 081120Z 02006KT 330V060 9999 BKN031 M04/M06 Q1024",
      "taf": "TAF ESKN 080830Z 0809/0909 03008KT 9999 BKN020"
    },
    {
      "icao": "ESMS",
      "alert": "OK",
      "vis_m": 9999,
      "fzfg": false,
      "metar_trigger": false,
      "taf_trigger": false,
      "metar": "METAR ESMS 081120Z 08018KT 9999 OVC007 00/M01 Q1016",
      "taf": ""
    },
    {
      "icao": "ESSA",
      "alert": "OK",
      "vis_m": 9999,
      "fzfg": false,
      "metar_trigger": false,
      "taf_trigger": false,
      "metar": "METAR ESSA 081120Z 32004KT 9999 BKN005 M07/M08 Q1025 TEMPO BKN010",
      "taf": "TAF ESSA 080830Z 0809/0909 10004KT 9999 OVC004"
    },
    {
      "icao": "EYKA",
      "alert": "OK",
      "vis_m": 9999,
      "fzfg": false,
      "metar_trigger": false,
      "taf_trigger": false,
      "metar": "METAR EYKA 081120Z 04009KT 010V080 CAVOK M08/M13 Q1019",
      "taf": "TAF EYKA 081100Z 0812/0912 VRB04KT 9000 NSC"
    },
    {
      "icao": "EYPA",
      "alert": "OK",
      "vis_m": 9999,
      "fzfg": false,
      "metar_trigger": false,
      "taf_trigger": false,
      "metar": "METAR EYPA 081120Z 08014KT 050V110 CAVOK M09/M14 Q1020",
      "taf": "TAF EYPA 081100Z 0812/0912 07012KT 9000 NSC"
    },
    {
      "icao": "EYVI",
      "alert": "OK",
      "vis_m": 9999,
      "fzfg": false,
      "metar_trigger": false,
      "taf_trigger": false,
      "metar": "METAR EYVI 081120Z COR 06012KT 9999 -SN SCT012 M09/M13 Q1017 NOSIG",
      "taf": "TAF EYVI 081100Z 0812/0912 04012KT 9000 SCT010"
    },
    {
      "icao": "GCFV",
      "alert": "OK",
      "vis_m": 9999,
      "fzfg": false,
      "metar_trigger": false,
      "taf_trigger": false,
      "metar": "METAR GCFV 081100Z 34008KT 290V010 9999 SCT035 20/10 Q1027",
      "taf": "TAF GCFV 080800Z 0809/0909 33007KT 9999 FEW030 TX21/0814Z TN13/0906Z"
    },
    {
      "icao": "GCLP",
      "alert": "OK",
      "vis_m": 9999,
      "fzfg": false,
      "metar_trigger": false,
      "taf_trigger": false,
      "metar": "METAR GCLP 081100Z 36011KT 320V030 9999 FEW030 20/11 Q1027 NOSIG",
      "taf": "TAF GCLP 080800Z 0809/0909 33008KT 9999 FEW035 TX21/0814Z TN15/0906Z"
    },
    {
      "icao": "GCTS",
      "alert": "OK",
      "vis_m": 9999,
      "fzfg": false,
      "metar_trigger": false,
      "taf_trigger": false,
      "metar": "METAR GCTS 081100Z 17005KT 080V220 9999 FEW030 19/11 Q1027 NOSIG",
      "taf": "TAF GCTS 080800Z 0809/0909 22010KT 9999 SCT035 TX22/0814Z TN14/0906Z"
    },
    {
      "icao": "GMAD",
      "alert": "OK",
      "vis_m": 8000,
      "fzfg": false,
      "metar_trigger": false,
      "taf_trigger": false,
      "metar": "METAR GMAD 081100Z 22013KT 8000 FEW006 BKN016 18/17 Q1023 NOSIG",
      "taf": "TAF GMAD 081100Z 0812/0918 26012KT 8000 SCT016 BKN080"
    },
    {
      "icao": "GMMN",
      "alert": "OK",
      "vis_m": 9999,
      "fzfg": false,
      "metar_trigger": false,
      "taf_trigger": false,
      "metar": "METAR GMMN 081100Z 26011KT 9999 BKN016 16/13 Q1023 NOSIG",
      "taf": "TAF GMMN 080500Z 0806/0912 24008KT 9999 SCT008 BKN017"
    },
    {
      "icao": "GMMX",
      "alert": "OK",
      "vis_m": 9999,
      "fzfg": false,
      "metar_trigger": false,
      "taf_trigger": false,
      "metar": "METAR GMMX 081100Z 24004KT 220V290 9999 BKN026 16/13 Q1025 NOSIG",
      "taf": "TAF GMMX 080500Z 0806/0912 24006KT 8000 SCT026 SCT090"
    },
    {
      "icao": "HEGN",
      "alert": "OK",
      "vis_m": 9999,
      "fzfg": false,
      "metar_trigger": false,
      "taf_trigger": false,
      "metar": "METAR HEGN 081000Z 12007KT CAVOK 27/05 Q1015 NOSIG",
      "taf": "TAF HEGN 081100Z 0812/0918 12008KT CAVOK"
    },
    {
      "icao": "HEMA",
      "alert": "OK",
      "vis_m": 9999,
      "fzfg": false,
      "metar_trigger": false,
      "taf_trigger": false,
      "metar": "METAR HEMA 081000Z 03004KT CAVOK 28/03 Q1016 NOSIG",
      "taf": "TAF HEMA 081100Z 0812/0918 09008KT CAVOK"
    },
    {
      "icao": "HESH",
      "alert": "OK",
      "vis_m": 9999,
      "fzfg": false,
      "metar_trigger": false,
      "taf_trigger": false,
      "metar": "METAR HESH 081000Z 00000KT 9999 SCT025 26/18 Q1016 NOSIG",
      "taf": "TAF HESH 081100Z 0812/0918 16008KT CAVOK"
    },
    {
      "icao": "HESX",
      "alert": "OK",
      "vis_m": 9999,
      "fzfg": false,
      "metar_trigger": false,
      "taf_trigger": false,
      "metar": "METAR HESX 081000Z 18020KT CAVOK 27/01 Q1012 NOSIG",
      "taf": ""
    },
    {
      "icao": "LATI",
      "alert": "OK",
      "vis_m": 9999,
      "fzfg": false,
      "metar_trigger": false,
      "taf_trigger": false,
      "metar": "METAR LATI 081120Z VRB03KT 9999 SCT039 BKN055 13/08 Q1008 NOSIG",
      "taf": "TAF LATI 081100Z 0812/0912 VRB05KT 9999 FEW018 BKN040 OVC060 TX14/0905Z TN09/0905Z"
    },
    {
      "icao": "LBPD",
      "alert": "OK",
      "vis_m": 9999,
      "fzfg": false,
      "metar_trigger": false,
      "taf_trigger": false,
      "metar": "METAR LBPD 081100Z AUTO 06003KT 020V100 9999 BKN090/// BKN230/// 11/08 Q1005 NOSIG",
      "taf": "TAF LBPD 081100Z 0812/0912 VRB03KT 9999 SCT010 BKN040"
    },
    {
      "icao": "LBSF",
      "alert": "OK",
      "vis_m": 9999,
      "fzfg": false,
      "metar_trigger": false,
      "taf_trigger": false,
      "metar": "METAR LBSF 081100Z 27011KT 9999 FEW023 OVC048 09/05 Q1006 NOSIG",
      "taf": "TAF LBSF 081100Z 0812/0912 29010KT 9999 SCT050"
    },
    {
      "icao": "LBWN",
      "alert": "OK",
      "vis_m": 9999,
      "fzfg": false,
      "metar_trigger": false,
      "taf_trigger": false,
      "metar": "METAR LBWN 081100Z VRB02KT 9999 SCT019 BKN023 12/08 Q1005 NOSIG",
      "taf": "TAF LBWN 081100Z 0812/0912 11010KT 9999 BKN020 OVC030"
    },
    {
      "icao": "LCLK",
      "alert": "OK",
      "vis_m": 9999,
      "fzfg": false,
      "metar_trigger": false,
      "taf_trigger": false,
      "metar": "METAR LCLK 081100Z 21017KT 9999 FEW012 21/17 Q1007 NOSIG",
      "taf": "TAF LCLK 080530Z 0806/0906 30006KT 9999 FEW025 SCT040"
    },
    {
      "icao": "LCPH",
      "alert": "OK",
      "vis_m": 9999,
      "fzfg": false,
      "metar_trigger": false,
      "taf_trigger": false,
      "metar": "METAR LCPH 081100Z 15009KT 090V160 9999 FEW012 20/15 Q1007 NOSIG",
      "taf": "TAF LCPH 080530Z 0806/0906 01007KT 9999 FEW018 SCT030"
    },
    {
      "icao": "LEAL",
      "alert": "OK",
      "vis_m": 9999,
      "fzfg": false,
      "metar_trigger": false,
      "taf_trigger": false,
      "metar": "METAR LEAL 081100Z 25011KT 210V280 9999 FEW020 OVC050 15/04 Q1007 BECMG 29020G30KT",
      "taf": "TAF LEAL 081100Z 0812/0912 28018KT 9999 FEW040 TX17/0814Z TN06/0906Z"
    },
    {
      "icao": "LEBB",
      "alert": "OK",
      "vis_m": 9999,
      "fzfg": false,
      "metar_trigger": false,
      "taf_trigger": false,
      "metar": "METAR LEBB 081100Z 28011KT 230V310 9999 SCT029 OVC060 12/07 Q1008 NOSIG",
      "taf": "TAF LEBB 081100Z 0812/0912 29012KT 9999 SCT030 TX13/0912Z TN05/0823Z"
    },
    {
      "icao": "LEBL",
      "alert": "OK",
      "vis_m": 9999,
      "fzfg": false,
      "metar_trigger": false,
      "taf_trigger": false,
      "metar": "METAR LEBL 081100Z 34009KT 290V060 9999 FEW025 13/07 Q1001 NOSIG",
      "taf": "TAF LEBL 081100Z 0812/0912 34009KT 9999 FEW025 TX16/0813Z TN06/0906Z"
    },
    {
      "icao": "LECH",
      "alert": "OK",
      "vis_m": 9999,
      "fzfg": false,
      "metar_trigger": false,
      "taf_trigger": false,
      "metar": "METAR LECH 081100Z AUTO 30010KT 250V340 9999 BKN050 13/01 Q1004",
      "taf": ""
    },
    {
      "icao": "LEMD",
      "alert": "OK",
      "vis_m": 9999,
      "fzfg": false,
      "metar_trigger": false,
      "taf_trigger": false,
      "metar": "METAR LEMD 081100Z 28015KT 9999 FEW033 SCT065 07/02 Q1010 NOSIG",
      "taf": "TAF LEMD 081100Z 0812/0918 28012KT 9999 FEW040 TX11/0815Z TN05/0907Z"
    },
    {
      "icao": "LEMG",
      "alert": "OK",
      "vis_m": 9999,
      "fzfg": false,
      "metar_trigger": false,
      "taf_trigger": false,
      "metar": "METAR LEMG 081100Z 30010KT 9999 SCT045 14/07 Q1017 NOSIG",
      "taf": "TAF LEMG 081100Z 0812/0912 29012KT 9999 FEW040 TX17/0814Z TN13/0907Z"
    },
    {
      "icao": "LEVC",
      "alert": "OK",
      "vis_m": 9999,
      "fzfg": false,
      "metar_trigger": false,
      "taf_trigger": false,
      "metar": "METAR LEVC 081100Z 30019KT CAVOK 14/02 Q1005 NOSIG",
      "taf": "TAF LEVC 081100Z 0812/0912 27010KT 9999 FEW040 TX19/0814Z TN07/0906Z"
    },
    {
      "icao": "LEXJ",
      "alert": "OK",
      "vis_m": 9999,
      "fzfg": false,
      "metar_trigger": false,
      "taf_trigger": false,
      "metar": "METAR LEXJ 081100Z 28015KT 260V320 9999 FEW020 BKN045 11/07 Q1009",
      "taf": ""
    },
    {
      "icao": "LEZG",
      "alert": "OK",
      "vis_m": 9999,
      "fzfg": false,
      "metar_trigger": false,
      "taf_trigger": false,
      "metar": "METAR LEZG 081100Z 30014KT 270V330 9999 FEW020 SCT070 11/07 Q1006 NOSIG",
      "taf": "TAF LEZG 081100Z 0812/0912 30008KT 9999 FEW020 TX13/0815Z TN05/0906Z"
    },
    {
      "icao": "LEZL",
      "alert": "OK",
      "vis_m": 9999,
      "fzfg": false,
      "metar_trigger": false,
      "taf_trigger": false,
      "metar": "METAR LEZL 081100Z 29010KT 260V330 CAVOK 13/08 Q1018 NOSIG",
      "taf": "TAF LEZL 080800Z 0809/0909 27010KT 9999 FEW030 TX16/0815Z TN12/0907Z"
    },
    {
      "icao": "LFBD",
      "alert": "OK",
      "vis_m": 9999,
      "fzfg": false,
      "metar_trigger": false,
      "taf_trigger": false,
      "metar": "METAR LFBD 081100Z AUTO VRB01KT CAVOK 12/07 Q1004 NOSIG",
      "taf": "TAF LFBD 080500Z 0806/0912 05005KT CAVOK TX14/0814Z TN07/0806Z"
    },
    {
      "icao": "LFLL",
      "alert": "OK",
      "vis_m": 9999,
      "fzfg": false,
      "metar_trigger": false,
      "taf_trigger": false,
      "metar": "METAR LFLL 081100Z VRB03KT 9999 FEW008 SCT180 OVC260 06/05 Q1006 NOSIG",
      "taf": "TAF LFLL 081100Z 0812/0918 VRB03KT 9999 SCT010"
    },
    {
      "icao": "LFLS",
      "alert": "OK",
      "vis_m": 9999,
      "fzfg": false,
      "metar_trigger": false,
      "taf_trigger": false,
      "metar": "METAR LFLS 081100Z AUTO 07010KT CAVOK 09/03 Q1005 NOSIG",
      "taf": "TAF LFLS 080800Z 0809/0909 09008KT CAVOK"
    },
    {
      "icao": "LFMN",
      "alert": "OK",
      "vis_m": 9999,
      "fzfg": false,
      "metar_trigger": false,
      "taf_trigger": false,
      "metar": "METAR LFMN 081100Z 08018KT 9999 -SHRA SCT016 FEW026CB SCT033TCU 12/09 Q1005 TEMPO 4000 SHRA SCT040",
      "taf": "TAF LFMN 080800Z 0809/0915 08015KT 9999 SCT030 BKN130"
    },
    {
      "icao": "LFOB",
      "alert": "OK",
      "vis_m": 9999,
      "fzfg": false,
      "metar_trigger": false,
      "taf_trigger": false,
      "metar": "METAR LFOB 081100Z AUTO VRB03KT CAVOK 10/07 Q1006 NOSIG",
      "taf": "TAF LFOB 080500Z 0806/0906 18010KT 9999 SCT030"
    },
    {
      "icao": "LFPO",
      "alert": "OK",
      "vis_m": 9999,
      "fzfg": false,
      "metar_trigger": false,
      "taf_trigger": false,
      "metar": "METAR LFPO 081100Z AUTO VRB03KT CAVOK 11/05 Q1006 NOSIG",
      "taf": "TAF LFPO 081100Z 0812/0918 11004KT CAVOK"
    },
    {
      "icao": "LFSB",
      "alert": "OK",
      "vis_m": 5000,
      "fzfg": false,
      "metar_trigger": false,
      "taf_trigger": false,
      "metar": "METAR LFSB 081100Z AUTO VRB02KT 5000 BR OVC003 03/03 Q1007 TEMPO VV///",
      "taf": "TAF LFSB 081100Z 0812/0912 34005KT 5000 BR OVC003"
    },
    {
      "icao": "LGAV",
      "alert": "OK",
      "vis_m": 9999,
      "fzfg": false,
      "metar_trigger": false,
      "taf_trigger": false,
      "metar": "METAR LGAV 081120Z 27012G22KT 230V320 9999 FEW020 18/06 Q1006 NOSIG",
      "taf": "TAF LGAV 081100Z 0812/0912 VRB03KT 9999 FEW020"
    },
    {
      "icao": "LGTS",
      "alert": "OK",
      "vis_m": 9999,
      "fzfg": false,
      "metar_trigger": false,
      "taf_trigger": false,
      "metar": "METAR LGTS 081120Z 32007KT 9999 FEW025 15/08 Q1005 NOSIG",
      "taf": "TAF LGTS 081100Z 0812/0912 33010KT 9999 FEW025"
    },
    {
      "icao": "LHBP",
      "alert": "OK",
      "vis_m": 9999,
      "fzfg": false,
      "metar_trigger": false,
      "taf_trigger": false,
      "metar": "METAR LHBP 081100Z 29008KT 210V330 9999 SCT023 09/03 Q1007 NOSIG",
      "taf": "TAF LHBP 081115Z 0812/0912 33007KT 9999 SCT026"
    },
    {
      "icao": "LHDC",
      "alert": "OK",
      "vis_m": 6000,
      "fzfg": false,
      "metar_trigger": false,
      "taf_trigger": false,
      "metar": "METAR LHDC 081045Z AUTO VRB03KT 6000 OVC028 06/04 Q1007 TEMPO -RA BKN012",
      "taf": "TAF LHDC 081115Z 0812/0821 VRB03KT 8000 OVC025"
    },
    {
      "icao": "LIBD",
      "alert": "OK",
      "vis_m": 9999,
      "fzfg": false,
      "metar_trigger": false,
      "taf_trigger": false,
      "metar": "METAR LIBD 081120Z 33005KT 290V030 CAVOK 15/09 Q1008",
      "taf": "TAF LIBD 081100Z 0812/0912 30010KT 9999 SCT040"
    },
    {
      "icao": "LIBG",
      "alert": "OK",
      "vis_m": 9999,
      "fzfg": false,
      "metar_trigger": false,
      "taf_trigger": false,
      "metar": "METAR LIBG 081050Z 23008KT 190V270 9999 FEW045 16/08 Q1008",
      "taf": "TAF LIBG 081100Z 0812/0821 23010KT 9999 SCT040"
    },
    {
      "icao": "LIBP",
      "alert": "OK",
      "vis_m": 9999,
      "fzfg": false,
      "metar_trigger": false,
      "taf_trigger": false,
      "metar": "METAR LIBP 081120Z AUTO 03004KT 350V110 9999 BKN190/// 14/07 Q1008",
      "taf": "TAF LIBP 081100Z 0812/0912 VRB05KT 9999 FEW040"
    },
    {
      "icao": "LIBR",
      "alert": "OK",
      "vis_m": 9999,
      "fzfg": false,
      "metar_trigger": false,
      "taf_trigger": false,
      "metar": "METAR LIBR 081120Z 32014KT CAVOK 15/07 Q1008",
      "taf": "TAF LIBR 081100Z 0812/0912 32010KT 9999 SCT040"
    },
    {
      "icao": "LICA",
      "alert": "OK",
      "vis_m": 9999,
      "fzfg": false,
      "metar_trigger": false,
      "taf_trigger": false,
      "metar": "METAR LICA 081120Z AUTO 26009KT 9999 -RA SCT023/// BKN064/// 15/12 Q1011",
      "taf": "TAF LICA 081100Z 0812/0912 28015KT 9999 SCT040"
    },
    {
      "icao": "LICC",
      "alert": "OK",
      "vis_m": 9999,
      "fzfg": false,
      "metar_trigger": false,
      "taf_trigger": false,
      "metar": "METAR LICC 081120Z 25014KT CAVOK 18/13 Q1011",
      "taf": "TAF LICC 081100Z 0812/0912 26013KT 9999 SCT040"
    },
    {
      "icao": "LICJ",
      "alert": "OK",
      "vis_m": 9999,
      "fzfg": false,
      "metar_trigger": false,
      "taf_trigger": false,
      "metar": "METAR LICJ 081120Z 21015KT 9999 FEW040 16/08 Q1011",
      "taf": "TAF LICJ 081100Z 0812/0912 20016KT 9999 SCT040"
    },
    {
      "icao": "LIMC",
      "alert": "OK",
      "vis_m": 9999,
      "fzfg": false,
      "metar_trigger": false,
      "taf_trigger": false,
      "metar": "METAR LIMC 081120Z 06004KT 360V110 CAVOK 11/07 Q1007 NOSIG",
      "taf": "TAF LIMC 081100Z 0812/0918 VRB04KT 7000 BKN030"
    },
    {
      "icao": "LIME",
      "alert": "OK",
      "vis_m": 9000,
      "fzfg": false,
      "metar_trigger": false,
      "taf_trigger": false,
      "metar": "METAR LIME 081120Z VRB02KT 9000 SCT050 11/07 Q1007 NOSIG",
      "taf": "TAF LIME 081100Z 0812/0912 VRB04KT 7000 BKN030"
    },
    {
      "icao": "LIMF",
      "alert": "OK",
      "vis_m": 9999,
      "fzfg": false,
      "metar_trigger": false,
      "taf_trigger": false,
      "metar": "METAR LIMF 081120Z 22004KT 9999 SCT030 BKN050 09/04 Q1007",
      "taf": "TAF LIMF 081100Z 0812/0912 VRB04KT 8000 BKN040"
    },
    {
      "icao": "LIMJ",
      "alert": "OK",
      "vis_m": 9999,
      "fzfg": false,
      "metar_trigger": false,
      "taf_trigger": false,
      "metar": "METAR LIMJ 081120Z 13007KT 9999 FEW017 FEW024TCU SCT060 12/09 Q1007",
      "taf": "TAF LIMJ 081100Z 0812/0912 02010KT 9999 SCT025"
    },
    {
      "icao": "LIPE",
      "alert": "OK",
      "vis_m": 5000,
      "fzfg": false,
      "metar_trigger": false,
      "taf_trigger": false,
      "metar": "METAR LIPE 081120Z VRB02KT 5000 BR SCT015 BKN060 11/09 Q1007",
      "taf": "TAF LIPE 081100Z 0812/0912 VRB05KT 7000 SCT010"
    },
    {
      "icao": "LIPH",
      "alert": "OK",
      "vis_m": 9999,
      "fzfg": false,
      "metar_trigger": false,
      "taf_trigger": false,
      "metar": "METAR LIPH 081120Z VRB01KT 9999 BKN070 11/08 Q1008",
      "taf": "TAF LIPH 081100Z 0812/0912 VRB05KT 7000 SCT060"
    },
    {
      "icao": "LIPQ",
      "alert": "OK",
      "vis_m": 9999,
      "fzfg": false,
      "metar_trigger": false,
      "taf_trigger": false,
      "metar": "METAR LIPQ 081120Z AUTO VRB02KT 9999 OVC072/// 12/08 Q1007",
      "taf": "TAF LIPQ 081100Z 0812/0912 VRB05KT 9999 BKN050"
    },
    {
      "icao": "LIPR",
      "alert": "OK",
      "vis_m": 9999,
      "fzfg": false,
      "metar_trigger": false,
      "taf_trigger": false,
      "metar": "METAR LIPR 081120Z 04006KT 9999 BKN065 11/09 Q1007",
      "taf": "TAF LIPR 081100Z 0812/0912 VRB05KT 7000 SCT060"
    },
    {
      "icao": "LIPX",
      "alert": "OK",
      "vis_m": 500,
      "fzfg": false,
      "metar_trigger": false,
      "taf_trigger": false,
      "metar": "METAR LIPX 081120Z VRB02KT 0500 R04/0700D FG BKN001 07/07 Q1008",
      "taf": "TAF LIPX 081100Z 0812/0912 VRB04KT 7000 BKN030"
    },
    {
      "icao": "LIPY",
      "alert": "OK",
      "vis_m": 9999,
      "fzfg": false,
      "metar_trigger": false,
      "taf_trigger": false,
      "metar": "METAR LIPY 081120Z AUTO 04006KT 9999 FEW070/// BKN200/// 12/09 Q1007",
      "taf": "TAF LIPY 081100Z 0812/0912 VRB05KT 9999 SCT060"
    },
    {
      "icao": "LIPZ",
      "alert": "OK",
      "vis_m": 9999,
      "fzfg": false,
      "metar_trigger": false,
      "taf_trigger": false,
      "metar": "METAR LIPZ 081120Z VRB02KT 9999 BKN070 11/07 Q1008 NOSIG",
      "taf": "TAF LIPZ 081100Z 0812/0918 VRB05KT 9999 SCT060"
    },
    {
      "icao": "LIRF",
      "alert": "OK",
      "vis_m": 9999,
      "fzfg": false,
      "metar_trigger": false,
      "taf_trigger": false,
      "metar": "METAR LIRF 081120Z 22011KT 9999 SCT020 14/10 Q1008 NOSIG",
      "taf": "TAF LIRF 081100Z 0812/0918 20010KT 9999 SCT020 BKN040"
    },
    {
      "icao": "LIRN",
      "alert": "OK",
      "vis_m": 9999,
      "fzfg": false,
      "metar_trigger": false,
      "taf_trigger": false,
      "metar": "METAR LIRN 081120Z AUTO 19007KT 120V230 9999 SCT024/// SCT061/// BKN190/// 15/10 Q1009",
      "taf": "TAF LIRN 081100Z 0812/0912 22010KT 9999 SCT020 SCT045"
    },
    {
      "icao": "LIRP",
      "alert": "OK",
      "vis_m": 9999,
      "fzfg": false,
      "metar_trigger": false,
      "taf_trigger": false,
      "metar": "METAR LIRP 081045Z 11009KT 9999 FEW030 SCT060 12/10 Q1008 NOSIG",
      "taf": "TAF LIRP 081100Z 0812/0912 11005KT 9999 FEW020 SCT050"
    },
    {
      "icao": "LIRZ",
      "alert": "OK",
      "vis_m": 9999,
      "fzfg": false,
      "metar_trigger": false,
      "taf_trigger": false,
      "metar": "METAR LIRZ 081120Z AUTO 27004KT 190V340 9999 FEW017/// 12/09 Q1007",
      "taf": "TAF LIRZ 081100Z 0812/0912 VRB05KT 9999 BKN020"
    },
    {
      "icao": "LJLJ",
      "alert": "OK",
      "vis_m": 9999,
      "fzfg": false,
      "metar_trigger": false,
      "taf_trigger": false,
      "metar": "METAR LJLJ 081100Z VRB02KT 9999 BKN005 BKN055 04/04 Q1008 NOSIG",
      "taf": "TAF LJLJ 081100Z 0812/0912 VRB02KT 9999 BKN005 BKN055"
    },
    {
      "icao": "LKMT",
      "alert": "OK",
      "vis_m": 3500,
      "fzfg": false,
      "metar_trigger": false,
      "taf_trigger": false,
      "metar": "METAR LKMT 081100Z 02004KT 3500 -RASN BR BKN006 OVC016 02/01 Q1009 NOSIG",
      "taf": "TAF LKMT 081100Z 0812/0912 02005KT 3500 BR BKN006 OVC012"
    },
    {
      "icao": "LKPR",
      "alert": "OK",
      "vis_m": 9000,
      "fzfg": false,
      "metar_trigger": false,
      "taf_trigger": false,
      "metar": "METAR LKPR 081100Z 32006KT 270V340 9000 FEW004 SCT006 BKN015 03/02 Q1009 NOSIG",
      "taf": "TAF LKPR 081100Z 0812/0918 35005KT 8000 SCT005 BKN015"
    },
    {
      "icao": "LLBG",
      "alert": "OK",
      "vis_m": 9000,
      "fzfg": false,
      "metar_trigger": false,
      "taf_trigger": false,
      "metar": "METAR LLBG 081120Z 23010KT 9000 NSC 27/07 Q1010 NOSIG",
      "taf": "TAF LLBG 081118Z 0812/0912 23012KT CAVOK"
    },
    {
      "icao": "LMML",
      "alert": "OK",
      "vis_m": 9999,
      "fzfg": false,
      "metar_trigger": false,
      "taf_trigger": false,
      "metar": "METAR LMML 081115Z 25008KT 210V280 9999 FEW025 16/10 Q1013 NOSIG",
      "taf": "TAF LMML 081100Z 0812/0912 26014KT 9999 FEW017"
    },
    {
      "icao": "LOWW",
      "alert": "OK",
      "vis_m": 7000,
      "fzfg": false,
      "metar_trigger": false,
      "taf_trigger": false,
      "metar": "METAR LOWW 081120Z 04005KT 7000 FEW003 BKN014 06/05 Q1008 TEMPO SCT014 BKN020",
      "taf": "TAF LOWW 081115Z 0812/0918 36008KT 9999 FEW014 BKN030 TX07/0812Z TN02/0906Z"
    },
    {
      "icao": "LPFR",
      "alert": "OK",
      "vis_m": 9999,
      "fzfg": false,
      "metar_trigger": false,
      "taf_trigger": false,
      "metar": "METAR LPFR 081100Z 25005KT CAVOK 13/10 Q1018",
      "taf": "TAF LPFR 081110Z 0812/0912 24012KT 9999 SCT025"
    },
    {
      "icao": "LPMA",
      "alert": "OK",
      "vis_m": 9999,
      "fzfg": false,
      "metar_trigger": false,
      "taf_trigger": false,
      "metar": "METAR LPMA 081100Z VRB03KT 9999 FEW015 20/13 Q1024",
      "taf": "TAF LPMA 081110Z 0812/0912 VRB05KT 9999 SCT015"
    },
    {
      "icao": "LPPR",
      "alert": "OK",
      "vis_m": 9999,
      "fzfg": false,
      "metar_trigger": false,
      "taf_trigger": false,
      "metar": "METAR LPPR 081100Z 21007KT 9999 FEW030 13/06 Q1013",
      "taf": "TAF LPPR 081110Z 0812/0912 21010KT 9999 SCT025"
    },
    {
      "icao": "LPPS",
      "alert": "OK",
      "vis_m": 9999,
      "fzfg": false,
      "metar_trigger": false,
      "taf_trigger": false,
      "metar": "METAR LPPS 081100Z 27014KT 9999 FEW011 19/16 Q1024",
      "taf": "TAF LPPS 081100Z 0812/0918 27015KT 9999 SCT012 SCT030"
    },
    {
      "icao": "LPPT",
      "alert": "OK",
      "vis_m": 9999,
      "fzfg": false,
      "metar_trigger": false,
      "taf_trigger": false,
      "metar": "METAR LPPT 081100Z 23008KT 200V260 9999 FEW025 13/09 Q1016",
      "taf": "TAF LPPT 081100Z 0812/0918 23007KT 9999 SCT025"
    },
    {
      "icao": "LQBK",
      "alert": "OK",
      "vis_m": 9000,
      "fzfg": false,
      "metar_trigger": false,
      "taf_trigger": false,
      "metar": "METAR LQBK 081100Z 32005KT 290V350 9000 FEW003 SCT015 08/07 Q1008 NOSIG",
      "taf": "TAF LQBK 081100Z 0812/0912 30005KT 8000 FEW007 TX11/0814Z TN05/0906Z"
    },
    {
      "icao": "LQSA",
      "alert": "OK",
      "vis_m": 9999,
      "fzfg": false,
      "metar_trigger": false,
      "taf_trigger": false,
      "metar": "METAR LQSA 081100Z 30003KT 210V330 9999 BKN015 07/05 Q1007 NOSIG",
      "taf": "TAF LQSA 081100Z 0812/0912 VRB02KT 9999 SCT018 BKN045 TX11/0813Z TN02/0905Z"
    },
    {
      "icao": "LQTZ",
      "alert": "OK",
      "vis_m": 6000,
      "fzfg": false,
      "metar_trigger": false,
      "taf_trigger": false,
      "metar": "METAR LQTZ 081100Z 00000KT 6000 FEW004 SCT015 07/07 Q1008",
      "taf": "TAF LQTZ 081100Z 0812/0912 06005KT 8000 SCT020 SCT045 TX10/0813Z TN04/0906Z"
    },
    {
      "icao": "LRBC",
      "alert": "OK",
      "vis_m": 5000,
      "fzfg": false,
      "metar_trigger": false,
      "taf_trigger": false,
      "metar": "METAR LRBC 081100Z 34008KT 5000 -RASN BR SCT004 BKN013 OVC024 02/02 Q1007",
      "taf": "TAF LRBC 080800Z 0809/0818 VRB04KT 1500 -RA BR OVC005"
    },
    {
      "icao": "LRBS",
      "alert": "OK",
      "vis_m": 3000,
      "fzfg": false,
      "metar_trigger": false,
      "taf_trigger": false,
      "metar": "METAR LRBS 081100Z 20003KT 160V240 3000 BR BKN003 06/05 Q1006 NOSIG",
      "taf": "TAF LRBS 080500Z 0806/0906 26008KT 3000 BR OVC005"
    },
    {
      "icao": "LRBV",
      "alert": "OK",
      "vis_m": 9999,
      "fzfg": false,
      "metar_trigger": false,
      "taf_trigger": false,
      "metar": "METAR LRBV 081100Z 30006KT 250V350 9999 FEW015 SCT020 BKN051 06/03 Q1005",
      "taf": "TAF LRBV 080800Z 0809/0818 30010KT 9999 SCT020 BKN035"
    },
    {
      "icao": "LRCL",
      "alert": "OK",
      "vis_m": 9999,
      "fzfg": false,
      "metar_trigger": false,
      "taf_trigger": false,
      "metar": "METAR LRCL 081100Z 31007KT 280V340 9999 FEW014 OVC030 06/03 Q1006",
      "taf": "TAF LRCL 080800Z 0809/0818 32006KT 9999 SCT015 BKN035"
    },
    {
      "icao": "LRCV",
      "alert": "OK",
      "vis_m": 3000,
      "fzfg": false,
      "metar_trigger": false,
      "taf_trigger": false,
      "metar": "METAR LRCV 081100Z 30006KT 260V340 3000 BR OVC002 06/06 Q1005",
      "taf": "TAF LRCV 080800Z 0809/0818 VRB04KT 0150 FG VV001"
    },
    {
      "icao": "LRIA",
      "alert": "OK",
      "vis_m": 3000,
      "fzfg": false,
      "metar_trigger": false,
      "taf_trigger": false,
      "metar": "METAR LRIA 081100Z 32007KT 3000 -SN BR OVC004 00/M01 Q1007",
      "taf": "TAF LRIA 080800Z 0809/0818 VRB04KT 5000 -RASN BR BKN015 OVC040"
    },
    {
      "icao": "LROP",
      "alert": "OK",
      "vis_m": 5000,
      "fzfg": false,
      "metar_trigger": false,
      "taf_trigger": false,
      "metar": "METAR LROP 081100Z VRB02KT 5000 BR OVC005 06/05 Q1005 NOSIG",
      "taf": "TAF LROP 080500Z 0806/0906 VRB04KT 1500 BR BKN002"
    },
    {
      "icao": "LRSB",
      "alert": "OK",
      "vis_m": 9999,
      "fzfg": false,
      "metar_trigger": false,
      "taf_trigger": false,
      "metar": "METAR LRSB 081100Z COR 30006KT 270V330 9999 SCT021 SCT035 BKN050 09/05 Q1005 NOSIG",
      "taf": "TAF LRSB 080500Z 0806/0906 VRB04KT 9999 SCT035 BKN050"
    },
    {
      "icao": "LRSM",
      "alert": "OK",
      "vis_m": 7000,
      "fzfg": false,
      "metar_trigger": false,
      "taf_trigger": false,
      "metar": "METAR LRSM 081100Z 25008KT 7000 BKN010 06/05 Q1007",
      "taf": "TAF LRSM 080800Z 0809/0818 VRB04KT 3000 BR OVC002"
    },
    {
      "icao": "LRSV",
      "alert": "OK",
      "vis_m": 150,
      "fzfg": true,
      "metar_trigger": false,
      "taf_trigger": false,
      "metar": "METAR LRSV 081100Z 02006KT 350V060 0150 R34/0300N FZFG VV001 M01/M01 Q1006",
      "taf": "TAF LRSV 080800Z 0809/0818 36010KT 0800 FZFG OVC002"
    },
    {
      "icao": "LRTM",
      "alert": "OK",
      "vis_m": 9000,
      "fzfg": false,
      "metar_trigger": false,
      "taf_trigger": false,
      "metar": "METAR LRTM 081100Z 24003KT 9000 SCT005 BKN010 BKN017 06/05 Q1006",
      "taf": "TAF LRTM 080800Z 0809/0818 VRB04KT 3000 -RADZ BR BKN010 OVC020"
    },
    {
      "icao": "LRTR",
      "alert": "OK",
      "vis_m": 4000,
      "fzfg": false,
      "metar_trigger": false,
      "taf_trigger": false,
      "metar": "METAR LRTR 081100Z 28004KT 240V320 4000 BR SCT001 BKN002 OVC006 05/05 Q1008",
      "taf": ""
    },
    {
      "icao": "LTAC",
      "alert": "OK",
      "vis_m": 9999,
      "fzfg": false,
      "metar_trigger": false,
      "taf_trigger": false,
      "metar": "METAR LTAC 081120Z 30007KT 9999 BKN026 BKN080 10/04 Q1004 NOSIG",
      "taf": "TAF LTAC 081040Z 0812/0912 25009KT 9999 SCT035 BKN080"
    },
    {
      "icao": "LTFM",
      "alert": "OK",
      "vis_m": 1200,
      "fzfg": false,
      "metar_trigger": false,
      "taf_trigger": false,
      "metar": "METAR LTFM 081120Z 02006KT 1200 0550N R35R/1500U R17L/0700N R34L/P1500N R36/1500U -SHRA BCFG BKN002 BKN020 08/08 Q1005 NOSIG",
      "taf": "TAF LTFM 081040Z 0812/0918 34008KT 1200 BCFG BKN002 BKN022"
    },
    {
      "icao": "LUKK",
      "alert": "OK",
      "vis_m": 6000,
      "fzfg": false,
      "metar_trigger": false,
      "taf_trigger": false,
      "metar": "METAR LUKK 081100Z 36004KT 330V030 6000 OVC009 M00/M01 Q1006 NOSIG",
      "taf": "TAF LUKK 081119Z 0812/0912 35008KT 9999 BKN008"
    },
    {
      "icao": "LWOH",
      "alert": "OK",
      "vis_m": 9999,
      "fzfg": false,
      "metar_trigger": false,
      "taf_trigger": false,
      "metar": "METAR LWOH 081120Z 15003KT 120V180 9999 SCT030 OVC045 08/05 Q1007",
      "taf": "TAF LWOH 080840Z 0809/0909 VRB02KT 9999 SCT015 BKN040"
    },
    {
      "icao": "LWSK",
      "alert": "OK",
      "vis_m": 9999,
      "fzfg": false,
      "metar_trigger": false,
      "taf_trigger": false,
      "metar": "METAR LWSK 081120Z 29005KT 210V330 9999 SCT050 BKN070 11/08 Q1007 NOSIG",
      "taf": "TAF LWSK 080840Z 0809/0909 VRB02KT 9999 SCT030 BKN060"
    },
    {
      "icao": "LYBE",
      "alert": "OK",
      "vis_m": 7000,
      "fzfg": false,
      "metar_trigger": false,
      "taf_trigger": false,
      "metar": "METAR LYBE 081100Z VRB01KT 7000 SCT008 BKN040 10/08 Q1008 NOSIG",
      "taf": "TAF LYBE 081100Z 0812/0912 05004KT 8000 BKN013 TX11/0813Z TN03/0906Z"
    },
    {
      "icao": "LYNI",
      "alert": "OK",
      "vis_m": 9999,
      "fzfg": false,
      "metar_trigger": false,
      "taf_trigger": false,
      "metar": "METAR LYNI 081100Z VRB02KT 9999 SCT015 BKN023 10/08 Q1008 NOSIG",
      "taf": "TAF LYNI 081100Z 0812/0912 32004KT 9999 SCT030 TX12/0813Z TN03/0905Z"
    },
    {
      "icao": "LYPG",
      "alert": "OK",
      "vis_m": 9999,
      "fzfg": false,
      "metar_trigger": false,
      "taf_trigger": false,
      "metar": "METAR LYPG 081100Z VRB01KT 9999 FEW027 14/08 Q1008 NOSIG",
      "taf": "TAF LYPG 081100Z 0812/0912 36005KT 9999 SCT030 TX15/0813Z TN07/0823Z"
    },
    {
      "icao": "LZIB",
      "alert": "OK",
      "vis_m": 9999,
      "fzfg": false,
      "metar_trigger": false,
      "taf_trigger": false,
      "metar": "METAR LZIB 081100Z 02003KT 330V060 9999 -RA FEW019 SCT023 08/04 Q1008 NOSIG",
      "taf": "TAF LZIB 081115Z 0812/0912 30010KT 9999 FEW012 BKN020"
    },
    {
      "icao": "LZKZ",
      "alert": "OK",
      "vis_m": 9999,
      "fzfg": false,
      "metar_trigger": false,
      "taf_trigger": false,
      "metar": "METAR LZKZ 081100Z 02009KT 9999 -RA BKN027 OVC034 05/03 Q1007 NOSIG",
      "taf": "TAF LZKZ 081115Z 0812/0912 02012KT 9999 SCT025 BKN045"
    },
    {
      "icao": "LZTT",
      "alert": "OK",
      "vis_m": 8000,
      "fzfg": false,
      "metar_trigger": false,
      "taf_trigger": false,
      "metar": "METAR LZTT 081100Z VRB03KT 8000 BKN008 OVC022 03/02 Q1006 NOSIG",
      "taf": "TAF LZTT 081115Z 0812/0912 04005KT 8000 SCT003 BKN012"
    },
    {
      "icao": "OEJN",
      "alert": "OK",
      "vis_m": 9999,
      "fzfg": false,
      "metar_trigger": false,
      "taf_trigger": false,
      "metar": "METAR OEJN 081100Z 28009KT CAVOK 32/06 Q1013 NOSIG",
      "taf": "TAF OEJN 081100Z 0812/0918 30012KT CAVOK"
    },
    {
      "icao": "OEMA",
      "alert": "OK",
      "vis_m": 9999,
      "fzfg": false,
      "metar_trigger": false,
      "taf_trigger": false,
      "metar": "METAR OEMA 081100Z 23005KT CAVOK 28/M02 Q1017 NOSIG",
      "taf": "TAF OEMA 081100Z 0812/0918 30009KT CAVOK"
    },
    {
      "icao": "OJAI",
      "alert": "OK",
      "vis_m": 5000,
      "fzfg": false,
      "metar_trigger": false,
      "taf_trigger": false,
      "metar": "METAR OJAI 081100Z 21009KT 5000 HZ NSC 21/07 Q1014 NOSIG",
      "taf": "TAF OJAI 081033Z 0812/0918 22012KT 5000 HZ NSC"
    },
    {
      "icao": "OMAA",
      "alert": "OK",
      "vis_m": 9999,
      "fzfg": false,
      "metar_trigger": false,
      "taf_trigger": false,
      "metar": "METAR OMAA 081100Z 27009KT 240V300 CAVOK 30/04 Q1012 NOSIG",
      "taf": "TAF OMAA 081100Z 0812/0918 32011KT 8000 NSC"
    },
    {
      "icao": "OMDB",
      "alert": "OK",
      "vis_m": 9999,
      "fzfg": false,
      "metar_trigger": false,
      "taf_trigger": false,
      "metar": "METAR OMDB 081100Z 32011KT 280V350 CAVOK 28/14 Q1012 NOSIG",
      "taf": "TAF OMDB 081100Z 0812/0918 31011KT CAVOK"
    },
    {
      "icao": "UAAA",
      "alert": "OK",
      "vis_m": 9999,
      "fzfg": false,
      "metar_trigger": false,
      "taf_trigger": false,
      "metar": "METAR UAAA 081100Z 04004MPS 9999 FEW100 SCT200 00/M03 Q1021 NOSIG",
      "taf": "TAF UAAA 081109Z 0812/0912 03003G08MPS 3100 BR FU SCT011 BKN030 TX04/0909Z TNM05/0902Z"
    },
    {
      "icao": "UBBB",
      "alert": "OK",
      "vis_m": 9999,
      "fzfg": false,
      "metar_trigger": false,
      "taf_trigger": false,
      "metar": "METAR UBBB 081100Z 01006KT 340V040 CAVOK 08/04 Q1000 NOSIG",
      "taf": "TAF UBBB 081053Z 0812/0912 36005KT 9999 SCT020 TX07/0812Z TN03/0902Z"
    },
    {
      "icao": "UDSG",
      "alert": "OK",
      "vis_m": 6000,
      "fzfg": false,
      "metar_trigger": false,
      "taf_trigger": false,
      "metar": "METAR UDSG 081100Z 28005KT 6000 FEW006 BKN033 01/01 Q1005 NOSIG",
      "taf": "TAF UDSG 081058Z 0812/0912 VRB06KT 3000 BR BKN030"
    },
    {
      "icao": "UDYZ",
      "alert": "OK",
      "vis_m": 9999,
      "fzfg": false,
      "metar_trigger": false,
      "taf_trigger": false,
      "metar": "METAR UDYZ 081100Z VRB02KT 9999 SCT026 09/03 Q1005 NOSIG",
      "taf": "TAF UDYZ 081100Z 0812/0912 VRB06KT 6000 BKN020"
    },
    {
      "icao": "UGKO",
      "alert": "OK",
      "vis_m": 8000,
      "fzfg": false,
      "metar_trigger": false,
      "taf_trigger": false,
      "metar": "METAR UGKO 081100Z VRB02KT 8000 -RA SCT006 BKN025 OVC033 09/08 Q1005 NOSIG",
      "taf": "TAF UGKO 081100Z 0812/0912 25007KT 9999 SCT030 OVC050 TX09/0812Z TN07/0903Z"
    }
  ]
}