{
  "ts_utc": "2026-01-06T08:59:05Z",
  "threshold_m": 150,
  "source": "stations_override.txt (ICAO list) + aviationweather.gov (METAR/TAF raw)",
  "station_count": 159,
  "stations": [
    {
      "icao": "BIKF",
      "alert": "OK",
      "vis_m": 9999,
      "fzfg": false,
      "metar_trigger": false,
      "taf_trigger": false,
      "metar": "METAR BIKF 060830Z 10008KT CAVOK M05/M10 Q1020",
      "taf": "TAF BIKF 060742Z 0609/0709 07010KT CAVOK TXM01/0703Z TNM06/0610Z"
    },
    {
      "icao": "BKPR",
      "alert": "OK",
      "vis_m": null,
      "fzfg": false,
      "metar_trigger": false,
      "taf_trigger": false,
      "metar": "",
      "taf": "TAF BKPR 060530Z 0606/0706 17008KT 9999 SCT020 BKN040"
    },
    {
      "icao": "EBCI",
      "alert": "OK",
      "vis_m": 4000,
      "fzfg": false,
      "metar_trigger": false,
      "taf_trigger": false,
      "metar": "METAR EBCI 060850Z 23007KT 4000 BR FEW009 M03/M03 Q1017 BECMG 7000 NSW",
      "taf": "TAF EBCI 060500Z 0606/0712 26007KT 9999 SCT006 BKN010"
    },
    {
      "icao": "EDDB",
      "alert": "OK",
      "vis_m": 9999,
      "fzfg": false,
      "metar_trigger": false,
      "taf_trigger": false,
      "metar": "METAR EDDB 060850Z AUTO VRB02KT 9999 -SN FEW009 BKN014 OVC045 M08/M09 Q1014 TEMPO BKN009",
      "taf": "TAF EDDB 060500Z 0606/0706 09004KT CAVOK"
    },
    {
      "icao": "EDDH",
      "alert": "OK",
      "vis_m": 8000,
      "fzfg": false,
      "metar_trigger": false,
      "taf_trigger": false,
      "metar": "METAR EDDH 060850Z AUTO 23006KT 8000 BKN008 OVC016 M01/M02 Q1013 TEMPO 4500 -SN BKN010",
      "taf": "TAF EDDH 060500Z 0606/0712 20005KT 8000 OVC007"
    },
    {
      "icao": "EDDK",
      "alert": "OK",
      "vis_m": 9999,
      "fzfg": false,
      "metar_trigger": false,
      "taf_trigger": false,
      "metar": "METAR EDDK 060850Z AUTO 15003KT 9999 BKN007 M02/M04 Q1016 TEMPO BKN011",
      "taf": "TAF EDDK 060500Z 0606/0712 21004KT 9999 BKN010"
    },
    {
      "icao": "EDDN",
      "alert": "OK",
      "vis_m": 9999,
      "fzfg": false,
      "metar_trigger": false,
      "taf_trigger": false,
      "metar": "METAR EDDN 060850Z AUTO 12004KT 9999 OVC018 M08/M11 Q1015 TEMPO BKN014",
      "taf": "TAF EDDN 060500Z 0606/0706 12006KT 9999 BKN020"
    },
    {
      "icao": "EDDS",
      "alert": "OK",
      "vis_m": 1800,
      "fzfg": false,
      "metar_trigger": false,
      "taf_trigger": false,
      "metar": "METAR EDDS 060850Z AUTO 09002KT 1800 -SN BR SCT008 BKN023 OVC031 M06/M08 Q1014 NOSIG",
      "taf": ""
    },
    {
      "icao": "EDFH",
      "alert": "OK",
      "vis_m": 2700,
      "fzfg": false,
      "metar_trigger": false,
      "taf_trigger": false,
      "metar": "METAR EDFH 060850Z 26006KT 2700 -SN OVC002 M05/M05 Q1014",
      "taf": ""
    },
    {
      "icao": "EDJA",
      "alert": "OK",
      "vis_m": 9999,
      "fzfg": false,
      "metar_trigger": false,
      "taf_trigger": false,
      "metar": "METAR EDJA 060850Z COR 25005KT CAVOK M11/M14 Q1013",
      "taf": "TAF EDJA 060800Z 0609/0618 VRB03KT CAVOK"
    },
    {
      "icao": "EDLW",
      "alert": "OK",
      "vis_m": 8000,
      "fzfg": false,
      "metar_trigger": false,
      "taf_trigger": false,
      "metar": "METAR EDLW 060850Z 23009KT 8000 R24///// OVC007 M01/M03 Q1014",
      "taf": "TAF EDLW 060500Z 0606/0706 21008KT 9999 BKN012"
    },
    {
      "icao": "EDNY",
      "alert": "OK",
      "vis_m": 9999,
      "fzfg": false,
      "metar_trigger": false,
      "taf_trigger": false,
      "metar": "METAR EDNY 060850Z 06002KT 9999 OVC012 M07/M08 Q1015",
      "taf": "TAF EDNY 060800Z 0609/0618 VRB03KT 9999 OVC012"
    },
    {
      "icao": "EDSB",
      "alert": "OK",
      "vis_m": 9999,
      "fzfg": false,
      "metar_trigger": false,
      "taf_trigger": false,
      "metar": "METAR EDSB 060850Z 18006KT 9999 OVC012 M04/M06 Q1017",
      "taf": ""
    },
    {
      "icao": "EETN",
      "alert": "OK",
      "vis_m": 9999,
      "fzfg": false,
      "metar_trigger": false,
      "taf_trigger": false,
      "metar": "METAR EETN 060850Z 11012KT 9999 OVC004 M11/M12 Q1018 TEMPO BKN005",
      "taf": ""
    },
    {
      "icao": "EFTU",
      "alert": "OK",
      "vis_m": 9999,
      "fzfg": false,
      "metar_trigger": false,
      "taf_trigger": false,
      "metar": "METAR EFTU 060850Z AUTO 08009KT 9999 BKN021 BKN033 M09/M11 Q1017",
      "taf": "TAF EFTU 060830Z 0609/0709 10010KT 9999 BKN020"
    },
    {
      "icao": "EGBB",
      "alert": "OK",
      "vis_m": 9999,
      "fzfg": false,
      "metar_trigger": false,
      "taf_trigger": false,
      "metar": "METAR EGBB 060850Z 21006KT 180V240 9999 BKN033 M01/M02 Q1016",
      "taf": ""
    },
    {
      "icao": "EGGP",
      "alert": "OK",
      "vis_m": 8000,
      "fzfg": false,
      "metar_trigger": false,
      "taf_trigger": false,
      "metar": "METAR EGGP 060850Z 24005KT 8000 -RA BKN016 OVC022 02/01 Q1015",
      "taf": "TAF EGGP 060454Z 0606/0706 31005KT 9999 FEW030"
    },
    {
      "icao": "EGGW",
      "alert": "OK",
      "vis_m": 9999,
      "fzfg": false,
      "metar_trigger": false,
      "taf_trigger": false,
      "metar": "METAR EGGW 060850Z AUTO 26008KT 9999 BKN037 M02/M03 Q1016",
      "taf": ""
    },
    {
      "icao": "EGKK",
      "alert": "OK",
      "vis_m": 9999,
      "fzfg": false,
      "metar_trigger": false,
      "taf_trigger": false,
      "metar": "METAR EGKK 060850Z 23003KT 170V270 CAVOK M05/M05 Q1018",
      "taf": "TAF EGKK 060455Z 0606/0712 24005KT CAVOK"
    },
    {
      "icao": "EGNM",
      "alert": "OK",
      "vis_m": 9999,
      "fzfg": false,
      "metar_trigger": false,
      "taf_trigger": false,
      "metar": "METAR EGNM 060850Z 21007KT 190V250 9999 SCT016 SCT022 M01/M02 Q1013",
      "taf": "TAF EGNM 060454Z 0606/0706 27009KT 9999 FEW040"
    },
    {
      "icao": "EGPD",
      "alert": "OK",
      "vis_m": 6000,
      "fzfg": false,
      "metar_trigger": false,
      "taf_trigger": false,
      "metar": "METAR EGPD 060850Z 15006KT 6000 VCSH FEW016 SCT024 M01/M02 Q1008 TEMPO 4000 SHSN",
      "taf": "TAF EGPD 060456Z 0606/0706 20004KT 9999 FEW012"
    },
    {
      "icao": "EGPF",
      "alert": "OK",
      "vis_m": 7000,
      "fzfg": false,
      "metar_trigger": false,
      "taf_trigger": false,
      "metar": "METAR EGPF 060850Z VRB02KT 7000 SCT018TCU BKN025 BKN033 M00/M01 Q1010",
      "taf": ""
    },
    {
      "icao": "EHBK",
      "alert": "OK",
      "vis_m": 9000,
      "fzfg": false,
      "metar_trigger": false,
      "taf_trigger": false,
      "metar": "METAR EHBK 060855Z AUTO 22007KT 9000 FEW004 BKN005 BKN009 M02/M03 Q1016 NOSIG",
      "taf": "TAF EHBK 060523Z 0606/0712 20008KT 6000 BKN018"
    },
    {
      "icao": "EHEH",
      "alert": "OK",
      "vis_m": 4400,
      "fzfg": false,
      "metar_trigger": false,
      "taf_trigger": false,
      "metar": "METAR EHEH 060825Z AUTO 22007KT 200V260 4400 BR SCT000/// BKN007/// BKN008/// M03/M04 Q1016 GRN BECMG 6000 NSW FEW015 SCT030 RMK TREND REMOTE BY EHWX",
      "taf": "TAF EHEH 060550Z 0606/0712 29003KT 3000 BR BKN002 OVC003"
    },
    {
      "icao": "EKBI",
      "alert": "OK",
      "vis_m": 150,
      "fzfg": true,
      "metar_trigger": false,
      "taf_trigger": false,
      "metar": "METAR EKBI 060850Z AUTO 14003KT 0150 R09/0400N R27/0350N -SN FZFG VV002 M06/M06 Q1011",
      "taf": "TAF EKBI 060827Z 0609/0709 VRB02KT 0200 FZFG VV002"
    },
    {
      "icao": "EKCH",
      "alert": "OK",
      "vis_m": 2000,
      "fzfg": false,
      "metar_trigger": false,
      "taf_trigger": false,
      "metar": "METAR EKCH 060853Z 28001KT 2000 R22L/P1500U R04L/0175N R12/0375U BCFG SCT040 M06/M07 Q1012 BECMG 3000",
      "taf": "TAF EKCH 060827Z 0609/0709 22004KT 8000 SCT040"
    },
    {
      "icao": "ENAL",
      "alert": "OK",
      "vis_m": 9999,
      "fzfg": false,
      "metar_trigger": false,
      "taf_trigger": false,
      "metar": "METAR ENAL 060850Z 14013KT CAVOK M05/M12 Q1011",
      "taf": "TAF ENAL 060800Z 0609/0618 14012KT CAVOK"
    },
    {
      "icao": "ENBR",
      "alert": "OK",
      "vis_m": 9999,
      "fzfg": false,
      "metar_trigger": false,
      "taf_trigger": false,
      "metar": "METAR ENBR 060850Z 07004KT CAVOK M08/M13 Q1011 NOSIG RMK WIND 1200FT 12011KT",
      "taf": "TAF ENBR 060500Z 0606/0706 07005KT CAVOK"
    },
    {
      "icao": "ENGM",
      "alert": "OK",
      "vis_m": 2000,
      "fzfg": false,
      "metar_trigger": false,
      "taf_trigger": false,
      "metar": "METAR ENGM 060850Z 01008KT 2000 -SN BR FEW021 BKN041 M09/M10 Q1012 NOSIG",
      "taf": "TAF ENGM 060500Z 0606/0706 01009KT 8000 -SN FEW008 BKN020"
    },
    {
      "icao": "ENHD",
      "alert": "OK",
      "vis_m": 9999,
      "fzfg": false,
      "metar_trigger": false,
      "taf_trigger": false,
      "metar": "METAR ENHD 060850Z 10006KT 9999 FEW042 M07/M10 Q1010",
      "taf": "TAF ENHD 060800Z 0609/0618 09008KT 9999 FEW030"
    },
    {
      "icao": "ENTC",
      "alert": "OK",
      "vis_m": 9999,
      "fzfg": false,
      "metar_trigger": false,
      "taf_trigger": false,
      "metar": "METAR ENTC 060850Z VRB02KT CAVOK M12/M14 Q1018 NOSIG RMK WIND 2600FT 19005KT",
      "taf": "TAF ENTC 060500Z 0606/0706 22005KT CAVOK"
    },
    {
      "icao": "ENTO",
      "alert": "OK",
      "vis_m": 9999,
      "fzfg": false,
      "metar_trigger": false,
      "taf_trigger": false,
      "metar": "METAR ENTO 060850Z 35008KT 9999 OVC012 M09/M12 Q1013 NOSIG",
      "taf": ""
    },
    {
      "icao": "ENVA",
      "alert": "OK",
      "vis_m": 9999,
      "fzfg": false,
      "metar_trigger": false,
      "taf_trigger": false,
      "metar": "METAR ENVA 060850Z 10005KT CAVOK M17/M20 Q1016 NOSIG RMK WIND 670FT 09012KT",
      "taf": "TAF ENVA 060500Z 0606/0706 12008KT CAVOK"
    },
    {
      "icao": "ENZV",
      "alert": "OK",
      "vis_m": 9999,
      "fzfg": false,
      "metar_trigger": false,
      "taf_trigger": false,
      "metar": "METAR ENZV 060850Z VRB02KT 9999 -SHSN BKN029 M03/M05 Q1010 NOSIG",
      "taf": "TAF ENZV 060500Z 0606/0706 06008KT 9999 FEW010 BKN035"
    },
    {
      "icao": "EPGD",
      "alert": "OK",
      "vis_m": 2700,
      "fzfg": false,
      "metar_trigger": false,
      "taf_trigger": false,
      "metar": "METAR EPGD 060830Z 26002KT 2700 BR NSC M07/M07 Q1012",
      "taf": ""
    },
    {
      "icao": "EPKK",
      "alert": "OK",
      "vis_m": 7000,
      "fzfg": false,
      "metar_trigger": false,
      "taf_trigger": false,
      "metar": "METAR EPKK 060830Z 25007KT 7000 FEW058 M04/M08 Q1014",
      "taf": "TAF EPKK 060830Z 0609/0709 27010KT 7000 SCT060"
    },
    {
      "icao": "EPKT",
      "alert": "OK",
      "vis_m": 5000,
      "fzfg": false,
      "metar_trigger": false,
      "taf_trigger": false,
      "metar": "METAR EPKT 060830Z 25004KT 5000 BR NSC M09/M10 Q1013",
      "taf": "TAF EPKT 060530Z 0606/0706 27005KT 3500 BR NSC"
    },
    {
      "icao": "EPLB",
      "alert": "OK",
      "vis_m": 9999,
      "fzfg": false,
      "metar_trigger": false,
      "taf_trigger": false,
      "metar": "METAR EPLB 060830Z 31005KT 9999 OVC005 M03/M04 Q1012",
      "taf": "TAF EPLB 060530Z 0606/0706 08006KT 6000 -SN BKN018"
    },
    {
      "icao": "EPMO",
      "alert": "OK",
      "vis_m": 2500,
      "fzfg": false,
      "metar_trigger": false,
      "taf_trigger": false,
      "metar": "METAR EPMO 060830Z 27002KT 2500 BR FEW025 M13/M13 Q1013",
      "taf": "TAF EPMO 060530Z 0606/0706 30003KT 3000 BR SCT025"
    },
    {
      "icao": "EPPO",
      "alert": "OK",
      "vis_m": 1900,
      "fzfg": false,
      "metar_trigger": false,
      "taf_trigger": false,
      "metar": "METAR EPPO 060830Z 00000KT 1900 BR NSC M09/M11 Q1014",
      "taf": ""
    },
    {
      "icao": "EPRA",
      "alert": "OK",
      "vis_m": 8000,
      "fzfg": false,
      "metar_trigger": false,
      "taf_trigger": false,
      "metar": "METAR EPRA 060830Z 27004KT 250V310 8000 NSC M09/M10 Q1012",
      "taf": "TAF EPRA 060830Z 0609/0618 29005KT 8000 NSC"
    },
    {
      "icao": "EPRZ",
      "alert": "OK",
      "vis_m": 9999,
      "fzfg": false,
      "metar_trigger": false,
      "taf_trigger": false,
      "metar": "METAR EPRZ 060830Z 25008KT 9999 OVC023 M03/M05 Q1012",
      "taf": "TAF EPRZ 060530Z 0606/0706 26010KT 7000 -SN FEW005 OVC017"
    },
    {
      "icao": "EPSC",
      "alert": "OK",
      "vis_m": 9999,
      "fzfg": false,
      "metar_trigger": false,
      "taf_trigger": false,
      "metar": "METAR EPSC 060830Z 16004KT 9999 BKN049 M06/M08 Q1013",
      "taf": "TAF EPSC 060530Z 0606/0706 18006KT 9999 SCT035"
    },
    {
      "icao": "EPSY",
      "alert": "OK",
      "vis_m": 6000,
      "fzfg": false,
      "metar_trigger": false,
      "taf_trigger": false,
      "metar": "METAR EPSY 060830Z 00000KT 6000 BKN025 M08/M09 Q1013",
      "taf": "TAF EPSY 060830Z 0609/0618 VRB02KT 9999 SCT030"
    },
    {
      "icao": "EPWA",
      "alert": "OK",
      "vis_m": 5000,
      "fzfg": false,
      "metar_trigger": false,
      "taf_trigger": false,
      "metar": "METAR EPWA 060830Z 26004KT 5000 BR BKN026 M10/M11 Q1013 NOSIG",
      "taf": "TAF EPWA 060830Z 0609/0709 27005KT 8000 SCT025"
    },
    {
      "icao": "EPWR",
      "alert": "OK",
      "vis_m": 9999,
      "fzfg": false,
      "metar_trigger": false,
      "taf_trigger": false,
      "metar": "METAR EPWR 060830Z 26002KT 9999 BKN033 M04/M08 Q1015",
      "taf": "TAF EPWR 060830Z 0609/0709 28003KT 9999 BKN033"
    },
    {
      "icao": "ESGG",
      "alert": "OK",
      "vis_m": 350,
      "fzfg": true,
      "metar_trigger": false,
      "taf_trigger": false,
      "metar": "METAR ESGG 060850Z 06003KT 0350 R03/0650N R21/1500D FZFG VV003 M08/M09 Q1011",
      "taf": "TAF ESGG 060830Z 0609/0709 09004KT 6000 MIFG FEW002"
    },
    {
      "icao": "ESKN",
      "alert": "OK",
      "vis_m": 1000,
      "fzfg": false,
      "metar_trigger": false,
      "taf_trigger": false,
      "metar": "METAR ESKN 060850Z 32007KT 1000 R08/P2000D R26/1500U SN VV009 M04/M05 Q1009",
      "taf": "TAF ESKN 060830Z 0609/0709 VRB03KT 9000 -SN SCT006 BKN030"
    },
    {
      "icao": "ESMS",
      "alert": "CRITICAL",
      "vis_m": 100,
      "fzfg": true,
      "metar_trigger": true,
      "taf_trigger": false,
      "metar": "METAR ESMS 060850Z VRB01KT 0100 R17/0125N R35/P2000N FZFG VV001 M06/M07 Q1011",
      "taf": ""
    },
    {
      "icao": "ESSA",
      "alert": "OK",
      "vis_m": 9999,
      "fzfg": false,
      "metar_trigger": false,
      "taf_trigger": false,
      "metar": "METAR ESSA 060850Z 08008KT 9999 BKN042 M02/M04 Q1011 TEMPO 2500 SHSN BKN014",
      "taf": "TAF ESSA 060830Z 0609/0709 09008KT 9999 BKN035"
    },
    {
      "icao": "EYKA",
      "alert": "OK",
      "vis_m": 1600,
      "fzfg": false,
      "metar_trigger": false,
      "taf_trigger": false,
      "metar": "METAR EYKA 060850Z 07005KT 1600 R08/1400N SHSN BKN017CB OVC022 M08/M09 Q1015",
      "taf": "TAF EYKA 060526Z 0606/0706 09007KT 9000 NSC"
    },
    {
      "icao": "EYPA",
      "alert": "OK",
      "vis_m": 9999,
      "fzfg": false,
      "metar_trigger": false,
      "taf_trigger": false,
      "metar": "METAR EYPA 060850Z 14010KT CAVOK M04/M06 Q1013",
      "taf": "TAF EYPA 060515Z 0606/0706 15010KT 7000 BKN035"
    },
    {
      "icao": "EYVI",
      "alert": "OK",
      "vis_m": 3300,
      "fzfg": false,
      "metar_trigger": false,
      "taf_trigger": false,
      "metar": "METAR EYVI 060850Z 10008KT 3300 -SN BR OVC047 M06/M08 Q1014 TEMPO 1500 BKN015",
      "taf": "TAF EYVI 060509Z 0606/0706 VRB04KT 9000 BKN020"
    },
    {
      "icao": "GCFV",
      "alert": "OK",
      "vis_m": 9999,
      "fzfg": false,
      "metar_trigger": false,
      "taf_trigger": false,
      "metar": "METAR GCFV 060830Z 33010KT 9999 SCT035 16/07 Q1022",
      "taf": "TAF GCFV 060800Z 0609/0709 02018KT 9999 SCT035 TX21/0614Z TN15/0706Z"
    },
    {
      "icao": "GCLP",
      "alert": "OK",
      "vis_m": 9999,
      "fzfg": false,
      "metar_trigger": false,
      "taf_trigger": false,
      "metar": "METAR GCLP 060830Z 04018KT 9999 SCT035 BKN045 17/12 Q1022 NOSIG",
      "taf": "TAF GCLP 060800Z 0609/0709 36019KT 9999 FEW030 SCT045 TX21/0614Z TN15/0706Z"
    },
    {
      "icao": "GCTS",
      "alert": "OK",
      "vis_m": 9999,
      "fzfg": false,
      "metar_trigger": false,
      "taf_trigger": false,
      "metar": "METAR GCTS 060830Z 05011KT 9999 SCT045 16/06 Q1023 NOSIG",
      "taf": "TAF GCTS 060800Z 0609/0709 08018KT 9999 SCT045 TX23/0614Z TN16/0706Z"
    },
    {
      "icao": "GMAD",
      "alert": "OK",
      "vis_m": 9999,
      "fzfg": false,
      "metar_trigger": false,
      "taf_trigger": false,
      "metar": "METAR GMAD 060830Z 16003KT 080V220 9999 FEW026 09/09 Q1016 NOSIG",
      "taf": "TAF GMAD 060500Z 0606/0712 24006KT 8000 SCT023"
    },
    {
      "icao": "GMMN",
      "alert": "OK",
      "vis_m": 9999,
      "fzfg": false,
      "metar_trigger": false,
      "taf_trigger": false,
      "metar": "METAR GMMN 060830Z 20005KT 9999 BKN024 07/06 Q1019 NOSIG",
      "taf": "TAF GMMN 060500Z 0606/0712 25006KT 9999 BKN030"
    },
    {
      "icao": "GMMX",
      "alert": "OK",
      "vis_m": 8000,
      "fzfg": false,
      "metar_trigger": false,
      "taf_trigger": false,
      "metar": "METAR GMMX 060830Z 24004KT 8000 SCT023 BKN080 09/07 Q1019 NOSIG",
      "taf": ""
    },
    {
      "icao": "HEGN",
      "alert": "OK",
      "vis_m": 9999,
      "fzfg": false,
      "metar_trigger": false,
      "taf_trigger": false,
      "metar": "METAR HEGN 060800Z 33012KT CAVOK 21/04 Q1021 NOSIG",
      "taf": "TAF HEGN 060500Z 0606/0712 32013KT CAVOK"
    },
    {
      "icao": "HEMA",
      "alert": "OK",
      "vis_m": 6000,
      "fzfg": false,
      "metar_trigger": false,
      "taf_trigger": false,
      "metar": "METAR HEMA 060800Z 33016KT 6000 NSC 23/14 Q1020 NOSIG",
      "taf": "TAF HEMA 060500Z 0606/0712 33014KT CAVOK"
    },
    {
      "icao": "HESH",
      "alert": "OK",
      "vis_m": 9999,
      "fzfg": false,
      "metar_trigger": false,
      "taf_trigger": false,
      "metar": "METAR HESH 060800Z 36012KT CAVOK 24/12 Q1020 NOSIG",
      "taf": "TAF HESH 060500Z 0606/0712 35011KT CAVOK"
    },
    {
      "icao": "HESX",
      "alert": "OK",
      "vis_m": 9999,
      "fzfg": false,
      "metar_trigger": false,
      "taf_trigger": false,
      "metar": "METAR HESX 060800Z VRB04KT CAVOK 13/02 Q1020 NOSIG",
      "taf": "TAF HESX 060500Z 0606/0712 VRB02KT 6000 NSC"
    },
    {
      "icao": "LATI",
      "alert": "OK",
      "vis_m": 2700,
      "fzfg": false,
      "metar_trigger": false,
      "taf_trigger": false,
      "metar": "METAR LATI 060850Z 13005KT 2700 +TSRA FEW010 BKN027CB OVC045 12/11 Q1007 NOSIG",
      "taf": "TAF LATI 060500Z 0606/0706 VRB04KT 9999 RA BKN030 OVC060 TX16/0612Z TN12/0705Z"
    },
    {
      "icao": "LBPD",
      "alert": "OK",
      "vis_m": 9999,
      "fzfg": false,
      "metar_trigger": false,
      "taf_trigger": false,
      "metar": "METAR LBPD 060830Z AUTO 30005KT 270V330 9999 FEW150/// 09/09 Q1011 NOSIG",
      "taf": ""
    },
    {
      "icao": "LBSF",
      "alert": "OK",
      "vis_m": 9999,
      "fzfg": false,
      "metar_trigger": false,
      "taf_trigger": false,
      "metar": "METAR LBSF 060830Z VRB03KT 9999 FEW045 BKN070 12/06 Q1010 NOSIG",
      "taf": "TAF LBSF 060500Z 0606/0706 10012KT 9999 SCT040 BKN060"
    },
    {
      "icao": "LBWN",
      "alert": "OK",
      "vis_m": 9999,
      "fzfg": false,
      "metar_trigger": false,
      "taf_trigger": false,
      "metar": "METAR LBWN 060830Z 11005KT 9999 FEW014 SCT028 14/11 Q1012 NOSIG",
      "taf": "TAF LBWN 060500Z 0606/0706 11008KT 9999 SCT030"
    },
    {
      "icao": "LCLK",
      "alert": "OK",
      "vis_m": 9999,
      "fzfg": false,
      "metar_trigger": false,
      "taf_trigger": false,
      "metar": "METAR LCLK 060830Z 03010KT CAVOK 19/12 Q1022 NOSIG",
      "taf": "TAF LCLK 060530Z 0606/0706 35010KT CAVOK"
    },
    {
      "icao": "LCPH",
      "alert": "OK",
      "vis_m": 9999,
      "fzfg": false,
      "metar_trigger": false,
      "taf_trigger": false,
      "metar": "METAR LCPH 060830Z VRB02KT 9999 SCT035 19/06 Q1021 NOSIG",
      "taf": "TAF LCPH 060530Z 0606/0706 06008KT 9999 FEW040"
    },
    {
      "icao": "LEAL",
      "alert": "OK",
      "vis_m": 9999,
      "fzfg": false,
      "metar_trigger": false,
      "taf_trigger": false,
      "metar": "METAR LEAL 060830Z 31012KT 9999 FEW030 SCT062 06/M01 Q1012 NOSIG",
      "taf": "TAF LEAL 060500Z 0606/0706 VRB04KT 9999 SCT020 TX12/0614Z TN04/0606Z"
    },
    {
      "icao": "LEBB",
      "alert": "OK",
      "vis_m": 3500,
      "fzfg": false,
      "metar_trigger": false,
      "taf_trigger": false,
      "metar": "METAR LEBB 060830Z 32016G29KT 290V350 3500 -RA SCT017 BKN024 OVC039 05/03 Q1020 RERA NOSIG",
      "taf": ""
    },
    {
      "icao": "LEBL",
      "alert": "OK",
      "vis_m": 9999,
      "fzfg": false,
      "metar_trigger": false,
      "taf_trigger": false,
      "metar": "METAR LEBL 060830Z 33020KT CAVOK 02/M03 Q1011 NOSIG",
      "taf": "TAF LEBL 060500Z 0606/0706 34013KT 9999 FEW025 TX11/0613Z TN00/0706Z"
    },
    {
      "icao": "LECH",
      "alert": "OK",
      "vis_m": 9000,
      "fzfg": false,
      "metar_trigger": false,
      "taf_trigger": false,
      "metar": "METAR LECH 060830Z AUTO 35015G27KT 280V060 9000 NCD 05/M04 Q1011",
      "taf": ""
    },
    {
      "icao": "LEMD",
      "alert": "OK",
      "vis_m": 9999,
      "fzfg": false,
      "metar_trigger": false,
      "taf_trigger": false,
      "metar": "METAR LEMD 060830Z 36014G25KT CAVOK 01/M07 Q1015 NOSIG",
      "taf": "TAF LEMD 060500Z 0606/0712 VRB05KT 9999 SCT025 TX06/0614Z TNM03/0607Z"
    },
    {
      "icao": "LEMG",
      "alert": "OK",
      "vis_m": 9999,
      "fzfg": false,
      "metar_trigger": false,
      "taf_trigger": false,
      "metar": "METAR LEMG 060830Z 30021G33KT CAVOK 06/M05 Q1014 NOSIG",
      "taf": ""
    },
    {
      "icao": "LEVC",
      "alert": "OK",
      "vis_m": 9999,
      "fzfg": false,
      "metar_trigger": false,
      "taf_trigger": false,
      "metar": "METAR LEVC 060830Z 26004KT 230V300 CAVOK 03/M02 Q1013 NOSIG",
      "taf": "TAF LEVC 060500Z 0606/0706 30006KT 9999 BKN040 TX12/0614Z TN01/0606Z"
    },
    {
      "icao": "LEXJ",
      "alert": "OK",
      "vis_m": 9999,
      "fzfg": false,
      "metar_trigger": false,
      "taf_trigger": false,
      "metar": "METAR LEXJ 060830Z 36009G19KT 290V050 9999 SCT050 SCT055 BKN070 07/M02 Q1023",
      "taf": "TAF LEXJ 060800Z 0609/0709 35012KT 9999 SCT045 TX09/0614Z TN04/0619Z"
    },
    {
      "icao": "LEZG",
      "alert": "OK",
      "vis_m": 9999,
      "fzfg": false,
      "metar_trigger": false,
      "taf_trigger": false,
      "metar": "METAR LEZG 060830Z 30016KT 260V320 9999 FEW035 03/M02 Q1014 NOSIG",
      "taf": "TAF LEZG 060500Z 0606/0706 31012KT 9999 FEW050 TX07/0615Z TN00/0606Z"
    },
    {
      "icao": "LEZL",
      "alert": "OK",
      "vis_m": 9999,
      "fzfg": false,
      "metar_trigger": false,
      "taf_trigger": false,
      "metar": "METAR LEZL 060830Z 33005KT 290V350 CAVOK 04/M01 Q1019 NOSIG",
      "taf": "TAF LEZL 060800Z 0609/0709 VRB03KT CAVOK TX13/0615Z TN02/0707Z"
    },
    {
      "icao": "LFBD",
      "alert": "OK",
      "vis_m": 9999,
      "fzfg": false,
      "metar_trigger": false,
      "taf_trigger": false,
      "metar": "METAR LFBD 060830Z AUTO 04005KT 9999 FEW028/// SCT044/// BKN054/// ///TCU 00/M03 Q1019",
      "taf": "TAF LFBD 060500Z 0606/0712 03010KT 9999 BKN045 TX04/0614Z TNM03/0700Z"
    },
    {
      "icao": "LFLL",
      "alert": "OK",
      "vis_m": 6000,
      "fzfg": false,
      "metar_trigger": false,
      "taf_trigger": false,
      "metar": "METAR LFLL 060830Z COR 03004KT 360V070 6000 BKN009 M05/M06 Q1017 NOSIG",
      "taf": "TAF LFLL 060500Z 0606/0712 34005KT 9999 BKN012 BKN035"
    },
    {
      "icao": "LFLS",
      "alert": "OK",
      "vis_m": 9999,
      "fzfg": false,
      "metar_trigger": false,
      "taf_trigger": false,
      "metar": "METAR LFLS 060830Z AUTO VRB03KT CAVOK M07/M09 Q1015 TEMPO BKN009",
      "taf": "TAF LFLS 060800Z 0609/0709 36007KT 9999 FEW010"
    },
    {
      "icao": "LFMN",
      "alert": "OK",
      "vis_m": 9999,
      "fzfg": false,
      "metar_trigger": false,
      "taf_trigger": false,
      "metar": "METAR LFMN 060830Z 34009KT CAVOK 05/M03 Q1005 BECMG 21005KT",
      "taf": "TAF LFMN 060800Z 0609/0715 33010KT CAVOK"
    },
    {
      "icao": "LFOB",
      "alert": "OK",
      "vis_m": 5000,
      "fzfg": true,
      "metar_trigger": false,
      "taf_trigger": false,
      "metar": "METAR LFOB 060830Z AUTO 31003KT 5000 0300 R30/0400N R12/P5000 BCFG FEW002 M09/M10 Q1019 TEMPO 0500 FZFG VV///",
      "taf": "TAF LFOB 060500Z 0606/0706 27005KT 6000 NSC"
    },
    {
      "icao": "LFPO",
      "alert": "OK",
      "vis_m": 6000,
      "fzfg": false,
      "metar_trigger": false,
      "taf_trigger": false,
      "metar": "METAR LFPO 060830Z 25005KT 6000 NSC M06/M07 Q1019 NOSIG",
      "taf": "TAF LFPO 060500Z 0606/0712 30005KT 6000 FEW003"
    },
    {
      "icao": "LFSB",
      "alert": "OK",
      "vis_m": 9999,
      "fzfg": false,
      "metar_trigger": false,
      "taf_trigger": false,
      "metar": "METAR LFSB 060830Z AUTO 17003KT 150V210 9999 BKN017 OVC040 M06/M09 Q1017 TEMPO 3000 -SN BR BKN009",
      "taf": "TAF LFSB 060500Z 0606/0706 VRB03KT CAVOK"
    },
    {
      "icao": "LGAV",
      "alert": "OK",
      "vis_m": 9999,
      "fzfg": false,
      "metar_trigger": false,
      "taf_trigger": false,
      "metar": "METAR LGAV 060850Z 18013KT 9999 FEW018 SCT030 17/12 Q1015 NOSIG",
      "taf": "TAF LGAV 060500Z 0606/0706 18015KT 9999 FEW018 SCT030"
    },
    {
      "icao": "LGTS",
      "alert": "OK",
      "vis_m": 9999,
      "fzfg": false,
      "metar_trigger": false,
      "taf_trigger": false,
      "metar": "METAR LGTS 060850Z 12006KT 9999 FEW020 SCT035 17/11 Q1012 NOSIG",
      "taf": "TAF LGTS 060500Z 0606/0706 14010KT 9999 SCT030"
    },
    {
      "icao": "LHBP",
      "alert": "OK",
      "vis_m": 9999,
      "fzfg": false,
      "metar_trigger": false,
      "taf_trigger": false,
      "metar": "METAR LHBP 060830Z 32004KT CAVOK M03/M05 Q1012 NOSIG",
      "taf": "TAF LHBP 060515Z 0606/0706 34009KT 9999 BKN045"
    },
    {
      "icao": "LHDC",
      "alert": "OK",
      "vis_m": 9999,
      "fzfg": false,
      "metar_trigger": false,
      "taf_trigger": false,
      "metar": "METAR LHDC 060815Z AUTO 03006KT 9999 OVC007 M01/M02 Q1012 NOSIG",
      "taf": "TAF LHDC 060815Z 0609/0618 01007KT 6000 SCT012 OVC030"
    },
    {
      "icao": "LIBD",
      "alert": "OK",
      "vis_m": 4000,
      "fzfg": false,
      "metar_trigger": false,
      "taf_trigger": false,
      "metar": "METAR LIBD 060850Z VRB01KT 4000 BR OVC003 11/11 Q1005",
      "taf": ""
    },
    {
      "icao": "LIBG",
      "alert": "OK",
      "vis_m": 8000,
      "fzfg": false,
      "metar_trigger": false,
      "taf_trigger": false,
      "metar": "METAR LIBG 060750Z 07005KT 8000 SCT020 14/14 Q1005",
      "taf": "TAF LIBG 060800Z 0609/0618 15008KT 9999 SCT015"
    },
    {
      "icao": "LIBP",
      "alert": "OK",
      "vis_m": 9000,
      "fzfg": false,
      "metar_trigger": false,
      "taf_trigger": false,
      "metar": "METAR LIBP 060850Z AUTO VRB02KT 9000 RA OVC005/// 07/07 Q1006",
      "taf": "TAF LIBP 060500Z 0606/0706 VRB05KT 4000 RA OVC005"
    },
    {
      "icao": "LIBR",
      "alert": "OK",
      "vis_m": 9999,
      "fzfg": false,
      "metar_trigger": false,
      "taf_trigger": false,
      "metar": "METAR LIBR 060850Z 18006KT 150V210 9999 BKN015 15/14 Q1005",
      "taf": "TAF LIBR 060500Z 0606/0706 VRB05KT 9999 BKN012"
    },
    {
      "icao": "LICA",
      "alert": "OK",
      "vis_m": 9999,
      "fzfg": false,
      "metar_trigger": false,
      "taf_trigger": false,
      "metar": "METAR LICA 060850Z AUTO 07014KT 9999 NCD 16/12 Q1005",
      "taf": "TAF LICA 060500Z 0606/0706 07010KT 9999 SCT050"
    },
    {
      "icao": "LICC",
      "alert": "OK",
      "vis_m": 9999,
      "fzfg": false,
      "metar_trigger": false,
      "taf_trigger": false,
      "metar": "METAR LICC 060850Z 21007KT CAVOK 13/11 Q1006",
      "taf": "TAF LICC 060500Z 0606/0706 26013KT 9999 FEW030"
    },
    {
      "icao": "LICJ",
      "alert": "OK",
      "vis_m": 9999,
      "fzfg": false,
      "metar_trigger": false,
      "taf_trigger": false,
      "metar": "METAR LICJ 060850Z 19017KT 9999 FEW030 18/12 Q1002",
      "taf": "TAF LICJ 060500Z 0606/0706 21016KT 9999 FEW030"
    },
    {
      "icao": "LIMC",
      "alert": "OK",
      "vis_m": 9999,
      "fzfg": false,
      "metar_trigger": false,
      "taf_trigger": false,
      "metar": "METAR LIMC 060850Z 02005KT CAVOK M03/M05 Q1009 NOSIG",
      "taf": "TAF LIMC 060500Z 0606/0712 VRB03KT CAVOK"
    },
    {
      "icao": "LIME",
      "alert": "OK",
      "vis_m": 9999,
      "fzfg": false,
      "metar_trigger": false,
      "taf_trigger": false,
      "metar": "METAR LIME 060850Z 35002KT CAVOK M01/M06 Q1009 NOSIG",
      "taf": "TAF LIME 060500Z 0606/0706 VRB03KT CAVOK"
    },
    {
      "icao": "LIMF",
      "alert": "OK",
      "vis_m": 9999,
      "fzfg": false,
      "metar_trigger": false,
      "taf_trigger": false,
      "metar": "METAR LIMF 060850Z VRB01KT CAVOK M01/M10 Q1008",
      "taf": "TAF LIMF 060500Z 0606/0706 VRB03KT CAVOK"
    },
    {
      "icao": "LIMJ",
      "alert": "OK",
      "vis_m": 9999,
      "fzfg": false,
      "metar_trigger": false,
      "taf_trigger": false,
      "metar": "METAR LIMJ 060850Z 05013KT 030V090 CAVOK 03/M06 Q1006",
      "taf": "TAF LIMJ 060500Z 0606/0706 03015KT CAVOK"
    },
    {
      "icao": "LIPE",
      "alert": "OK",
      "vis_m": 900,
      "fzfg": false,
      "metar_trigger": false,
      "taf_trigger": false,
      "metar": "METAR LIPE 060850Z 28005KT 0900 R12/1400D R30/1200N -SN FG VV005 00/00 Q1010",
      "taf": "TAF LIPE 060500Z 0606/0706 28007KT 9999 BKN020"
    },
    {
      "icao": "LIPH",
      "alert": "OK",
      "vis_m": 9999,
      "fzfg": false,
      "metar_trigger": false,
      "taf_trigger": false,
      "metar": "METAR LIPH 060850Z 04004KT 9999 BKN080 03/M05 Q1009",
      "taf": "TAF LIPH 060500Z 0606/0706 03006KT 9999 SCT070"
    },
    {
      "icao": "LIPQ",
      "alert": "OK",
      "vis_m": 9999,
      "fzfg": false,
      "metar_trigger": false,
      "taf_trigger": false,
      "metar": "METAR LIPQ 060850Z AUTO 10013KT 9999 OVC036/// 03/M05 Q1010",
      "taf": "TAF LIPQ 060500Z 0606/0706 08008KT 9999 BKN030"
    },
    {
      "icao": "LIPR",
      "alert": "OK",
      "vis_m": 1300,
      "fzfg": false,
      "metar_trigger": false,
      "taf_trigger": false,
      "metar": "METAR LIPR 060850Z 29011KT 1300 R30/1700U SN BR FEW004 BKN013 00/00 Q1008",
      "taf": "TAF LIPR 060500Z 0606/0706 30012KT 1200 SN BKN020"
    },
    {
      "icao": "LIPX",
      "alert": "OK",
      "vis_m": 9999,
      "fzfg": false,
      "metar_trigger": false,
      "taf_trigger": false,
      "metar": "METAR LIPX 060850Z 28003KT 9999 FEW060 BKN090 00/M05 Q1009",
      "taf": "TAF LIPX 060500Z 0606/0706 VRB04KT CAVOK"
    },
    {
      "icao": "LIPY",
      "alert": "OK",
      "vis_m": 7000,
      "fzfg": false,
      "metar_trigger": false,
      "taf_trigger": false,
      "metar": "METAR LIPY 060850Z AUTO 26005KT 7000 -RA OVC007/// 02/02 Q1007",
      "taf": "TAF LIPY 060500Z 0606/0706 VRB05KT 4000 RA BKN010"
    },
    {
      "icao": "LIPZ",
      "alert": "OK",
      "vis_m": 9999,
      "fzfg": false,
      "metar_trigger": false,
      "taf_trigger": false,
      "metar": "METAR LIPZ 060850Z 04007KT 010V070 9999 BKN050 02/M03 Q1009 NOSIG",
      "taf": "TAF LIPZ 060500Z 0606/0712 02008KT 9999 SCT070"
    },
    {
      "icao": "LIRF",
      "alert": "OK",
      "vis_m": 9999,
      "fzfg": false,
      "metar_trigger": false,
      "taf_trigger": false,
      "metar": "METAR LIRF 060850Z 07005KT 030V110 9999 FEW015 SCT040 12/11 Q1000 NOSIG",
      "taf": "TAF LIRF 060500Z 0606/0712 05005KT 9999 SCT020"
    },
    {
      "icao": "LIRN",
      "alert": "OK",
      "vis_m": 7000,
      "fzfg": false,
      "metar_trigger": false,
      "taf_trigger": false,
      "metar": "METAR LIRN 060850Z VRB02KT 7000 -RA FEW015 BKN060 14/12 Q1003 NOSIG",
      "taf": "TAF LIRN 060500Z 0606/0706 VRB06KT 9999 SCT020 SCT050"
    },
    {
      "icao": "LIRP",
      "alert": "OK",
      "vis_m": 9999,
      "fzfg": false,
      "metar_trigger": false,
      "taf_trigger": false,
      "metar": "METAR LIRP 060845Z 09005KT 9999 -RA SCT030 BKN060 04/03 Q1005 NOSIG",
      "taf": "TAF LIRP 060500Z 0606/0706 12005KT 9999 FEW030"
    },
    {
      "icao": "LIRZ",
      "alert": "OK",
      "vis_m": 9999,
      "fzfg": false,
      "metar_trigger": false,
      "taf_trigger": false,
      "metar": "METAR LIRZ 060850Z AUTO 36011KT 9999 -RA OVC041/// 05/03 Q1002",
      "taf": "TAF LIRZ 060500Z 0606/0706 01010KT 6000 RA BKN020"
    },
    {
      "icao": "LJLJ",
      "alert": "OK",
      "vis_m": 3000,
      "fzfg": false,
      "metar_trigger": false,
      "taf_trigger": false,
      "metar": "METAR LJLJ 060830Z 36002KT 3000 -SN BR BKN010 OVC020 M03/M04 Q1013 TEMPO 1500 SN BKN005 OVC010",
      "taf": "TAF LJLJ 060500Z 0606/0706 VRB02KT 8000 BKN016 OVC025"
    },
    {
      "icao": "LKMT",
      "alert": "OK",
      "vis_m": 9999,
      "fzfg": false,
      "metar_trigger": false,
      "taf_trigger": false,
      "metar": "METAR LKMT 060830Z 23002KT CAVOK M06/M09 Q1014 NOSIG",
      "taf": "TAF LKMT 060500Z 0606/0706 VRB02KT CAVOK"
    },
    {
      "icao": "LKPR",
      "alert": "OK",
      "vis_m": 9999,
      "fzfg": false,
      "metar_trigger": false,
      "taf_trigger": false,
      "metar": "METAR LKPR 060830Z 22007KT CAVOK M08/M10 Q1014 NOSIG",
      "taf": "TAF LKPR 060800Z 0609/0715 21007KT CAVOK"
    },
    {
      "icao": "LLBG",
      "alert": "OK",
      "vis_m": 9999,
      "fzfg": false,
      "metar_trigger": false,
      "taf_trigger": false,
      "metar": "METAR LLBG 060850Z 30005KT CAVOK 19/13 Q1021 NOSIG",
      "taf": "TAF LLBG 060501Z 0606/0706 13004KT CAVOK"
    },
    {
      "icao": "LMML",
      "alert": "OK",
      "vis_m": 8000,
      "fzfg": false,
      "metar_trigger": false,
      "taf_trigger": false,
      "metar": "METAR LMML 060845Z 18012KT 8000 NSC 19/15 Q1007 NOSIG",
      "taf": "TAF LMML 060500Z 0606/0706 20015KT 8000 NSC"
    },
    {
      "icao": "LOWW",
      "alert": "OK",
      "vis_m": 9999,
      "fzfg": false,
      "metar_trigger": false,
      "taf_trigger": false,
      "metar": "METAR LOWW 060850Z 32011KT CAVOK M02/M10 Q1016 NOSIG",
      "taf": "TAF LOWW 060815Z 0609/0715 32012KT 9999 FEW050 TXM02/0613Z TNM04/0707Z"
    },
    {
      "icao": "LPFR",
      "alert": "OK",
      "vis_m": 9999,
      "fzfg": false,
      "metar_trigger": false,
      "taf_trigger": false,
      "metar": "METAR LPFR 060830Z 36010KT 320V020 CAVOK 08/M03 Q1020",
      "taf": "TAF LPFR 060500Z 0606/0706 VRB02KT CAVOK"
    },
    {
      "icao": "LPMA",
      "alert": "OK",
      "vis_m": 9999,
      "fzfg": false,
      "metar_trigger": false,
      "taf_trigger": false,
      "metar": "METAR LPMA 060830Z 02012KT 340V040 9999 SCT015 FEW018TCU 15/09 Q1026",
      "taf": "TAF LPMA 060500Z 0606/0706 02015KT 9999 SCT015"
    },
    {
      "icao": "LPPR",
      "alert": "OK",
      "vis_m": 9999,
      "fzfg": false,
      "metar_trigger": false,
      "taf_trigger": false,
      "metar": "METAR LPPR 060830Z 01008KT CAVOK 04/M00 Q1024",
      "taf": "TAF LPPR 060500Z 0606/0706 01008KT CAVOK"
    },
    {
      "icao": "LPPS",
      "alert": "OK",
      "vis_m": 9999,
      "fzfg": false,
      "metar_trigger": false,
      "taf_trigger": false,
      "metar": "METAR LPPS 060830Z 02016KT 9999 SCT015 15/08 Q1027",
      "taf": "TAF LPPS 060500Z 0606/0712 03013KT 9999 SCT015 SCT030"
    },
    {
      "icao": "LPPT",
      "alert": "OK",
      "vis_m": 9999,
      "fzfg": false,
      "metar_trigger": false,
      "taf_trigger": false,
      "metar": "METAR LPPT 060830Z 33008KT 280V020 9999 FEW025 07/03 Q1022",
      "taf": "TAF LPPT 060500Z 0606/0712 36010KT CAVOK"
    },
    {
      "icao": "LQBK",
      "alert": "OK",
      "vis_m": 3000,
      "fzfg": false,
      "metar_trigger": false,
      "taf_trigger": false,
      "metar": "METAR LQBK 060830Z 34003KT 3000 SN BKN012 OVC017 M02/M03 Q1014 NOSIG",
      "taf": "TAF LQBK 060500Z 0606/0706 33007KT 7000 -SN SCT010 OVC020 TXM00/0613Z TNM05/0705Z"
    },
    {
      "icao": "LQSA",
      "alert": "OK",
      "vis_m": 8000,
      "fzfg": false,
      "metar_trigger": false,
      "taf_trigger": false,
      "metar": "METAR LQSA 060830Z VRB02KT 8000 BKN007 M01/M01 Q1010 NOSIG",
      "taf": "TAF LQSA 060500Z 0606/0706 29005KT 7000 SCT010 OVC030 TX00/0606Z TNM04/0706Z"
    },
    {
      "icao": "LQTZ",
      "alert": "OK",
      "vis_m": 6000,
      "fzfg": false,
      "metar_trigger": false,
      "taf_trigger": false,
      "metar": "METAR LQTZ 060830Z 27004KT 6000 OVC012 M01/M01 Q1013",
      "taf": ""
    },
    {
      "icao": "LRBC",
      "alert": "OK",
      "vis_m": 350,
      "fzfg": false,
      "metar_trigger": false,
      "taf_trigger": false,
      "metar": "METAR LRBC 060830Z 19006KT 0350 R16/0400N FG VV002 01/01 Q1010",
      "taf": "TAF LRBC 060800Z 0609/0618 19006KT 0300 FG VV002"
    },
    {
      "icao": "LRBS",
      "alert": "OK",
      "vis_m": 1100,
      "fzfg": false,
      "metar_trigger": false,
      "taf_trigger": false,
      "metar": "METAR LRBS 060830Z VRB02KT 1100 R07/P2000 BR OVC001 03/03 Q1012 NOSIG",
      "taf": "TAF LRBS 060500Z 0606/0706 VRB04KT 0300 FG VV001"
    },
    {
      "icao": "LRBV",
      "alert": "OK",
      "vis_m": 9999,
      "fzfg": false,
      "metar_trigger": false,
      "taf_trigger": false,
      "metar": "METAR LRBV 060830Z VRB03KT 9999 BKN062 05/02 Q1009",
      "taf": "TAF LRBV 060800Z 0609/0618 VRB04KT 9999 SCT045"
    },
    {
      "icao": "LRCL",
      "alert": "OK",
      "vis_m": 8000,
      "fzfg": false,
      "metar_trigger": false,
      "taf_trigger": false,
      "metar": "METAR LRCL 060830Z 27003KT 8000 -RA OVC012 02/01 Q1010",
      "taf": "TAF LRCL 060800Z 0609/0618 29005KT 9999 BKN010 OVC040"
    },
    {
      "icao": "LRCV",
      "alert": "OK",
      "vis_m": 8000,
      "fzfg": false,
      "metar_trigger": false,
      "taf_trigger": false,
      "metar": "METAR LRCV 060830Z 00000KT 8000 RA BKN003 OVC040 02/02 Q1012",
      "taf": "TAF LRCV 060800Z 0609/0618 VRB04KT 5000 -RA BR BKN005 OVC045"
    },
    {
      "icao": "LRIA",
      "alert": "OK",
      "vis_m": 150,
      "fzfg": false,
      "metar_trigger": false,
      "taf_trigger": false,
      "metar": "METAR LRIA 060830Z 09004KT 0150 R14/0325N FG VV001 01/01 Q1011",
      "taf": "TAF LRIA 060800Z 0609/0618 09004KT 0150 FG VV001"
    },
    {
      "icao": "LROP",
      "alert": "OK",
      "vis_m": 7000,
      "fzfg": false,
      "metar_trigger": false,
      "taf_trigger": false,
      "metar": "METAR LROP 060830Z 25003KT 210V290 7000 OVC002 03/03 Q1012 NOSIG",
      "taf": ""
    },
    {
      "icao": "LRSB",
      "alert": "OK",
      "vis_m": 4000,
      "fzfg": false,
      "metar_trigger": false,
      "taf_trigger": false,
      "metar": "METAR LRSB 060830Z 33003KT 4000 -RA BR FEW033 BKN046 OVC070 01/01 Q1010 BECMG 3000 -RA BR",
      "taf": "TAF LRSB 060500Z 0606/0706 VRB04KT 5000 BR SCT015 SCT060"
    },
    {
      "icao": "LRSM",
      "alert": "OK",
      "vis_m": 1500,
      "fzfg": false,
      "metar_trigger": false,
      "taf_trigger": false,
      "metar": "METAR LRSM 060830Z 24003KT 1500 -RA BR FEW001 BKN012 01/00 Q1012",
      "taf": "TAF LRSM 060800Z 0609/0618 VRB04KT 1500 -RADZ BR OVC015"
    },
    {
      "icao": "LRSV",
      "alert": "OK",
      "vis_m": 3000,
      "fzfg": false,
      "metar_trigger": false,
      "taf_trigger": false,
      "metar": "METAR LRSV 060830Z 22008KT 3000 BR FEW003 M01/M01 Q1008",
      "taf": "TAF LRSV 060800Z 0609/0618 21006KT 3000 BR NSC"
    },
    {
      "icao": "LRTM",
      "alert": "OK",
      "vis_m": 1700,
      "fzfg": false,
      "metar_trigger": false,
      "taf_trigger": false,
      "metar": "METAR LRTM 060830Z 23004KT 1700 -RA BR SCT005 BKN010 OVC030 01/00 Q1011",
      "taf": "TAF LRTM 060800Z 0609/0618 VRB04KT 3000 BR BKN015 BKN035"
    },
    {
      "icao": "LRTR",
      "alert": "OK",
      "vis_m": 3000,
      "fzfg": false,
      "metar_trigger": false,
      "taf_trigger": false,
      "metar": "METAR LRTR 060830Z 23002KT 3000 -FZDZ BR SCT002 BKN003 OVC005 M00/M00 Q1013",
      "taf": "TAF LRTR 060500Z 0606/0706 26006KT 3000 -FZDZ BR BKN005 OVC010"
    },
    {
      "icao": "LTAC",
      "alert": "OK",
      "vis_m": 600,
      "fzfg": true,
      "metar_trigger": false,
      "taf_trigger": false,
      "metar": "METAR LTAC 060850Z 16004KT 140V220 0600 R03C/0550U R21C/0600U R03L/1200U R03R/0325N BCFG BKN001 M01/M01 Q1022 BECMG 2000 RMK RWY21C 16004KT RWY03L 17003KT 120V210 RWY21R 16003KT 130V190 RWY03R 13003KT 100V160 RWY21L 15004KT",
      "taf": "TAF LTAC 060440Z 0606/0706 VRB02KT 0200 FZFG VV001"
    },
    {
      "icao": "LTFM",
      "alert": "OK",
      "vis_m": 9999,
      "fzfg": false,
      "metar_trigger": false,
      "taf_trigger": false,
      "metar": "METAR LTFM 060850Z 20020KT 9999 FEW035 BKN100 16/06 Q1016 NOSIG RMK RWY17L 21017KT RWY34L 19018KT RWY16R 20017KT RWY36 21019KT RWY18 21021KT",
      "taf": "TAF LTFM 060440Z 0606/0712 19012KT 9999 SCT040 BKN090"
    },
    {
      "icao": "LUKK",
      "alert": "OK",
      "vis_m": 300,
      "fzfg": false,
      "metar_trigger": false,
      "taf_trigger": false,
      "metar": "METAR LUKK 060830Z 16005KT 0300 0250S R08/0550N FG VV002 02/02 Q1011 NOSIG",
      "taf": "TAF LUKK 060526Z 0606/0706 VRB05KT 0300 -DZ FG VV002"
    },
    {
      "icao": "LWOH",
      "alert": "OK",
      "vis_m": 6000,
      "fzfg": false,
      "metar_trigger": false,
      "taf_trigger": false,
      "metar": "METAR LWOH 060850Z 14011KT 100V180 6000 RA SCT010 OVC035 09/08 Q1010",
      "taf": "TAF LWOH 060830Z 0609/0709 15010KT 9999 -RA SCT020 OVC040"
    },
    {
      "icao": "LWSK",
      "alert": "OK",
      "vis_m": 9999,
      "fzfg": false,
      "metar_trigger": false,
      "taf_trigger": false,
      "metar": "METAR LWSK 060850Z 29003KT 260V360 9999 -DZ SCT019 BKN040 BKN075 10/08 Q1010 RERA NOSIG",
      "taf": "TAF LWSK 060830Z 0609/0709 VRB02KT 9999 SCT020 BKN045 BKN075"
    },
    {
      "icao": "LYBE",
      "alert": "OK",
      "vis_m": 4000,
      "fzfg": false,
      "metar_trigger": false,
      "taf_trigger": false,
      "metar": "METAR LYBE 060830Z 27006KT 4000 -FZDZ BR BKN005 BKN017 M01/M02 Q1014 NOSIG",
      "taf": ""
    },
    {
      "icao": "LYNI",
      "alert": "OK",
      "vis_m": 9999,
      "fzfg": false,
      "metar_trigger": false,
      "taf_trigger": false,
      "metar": "METAR LYNI 060830Z 34017KT 9999 -RA SCT005 BKN013 BKN020 01/00 Q1012 NOSIG",
      "taf": "TAF LYNI 060500Z 0606/0706 33010KT 9999 SCT010 BKN030 OVC070 TX03/0606Z TNM01/0706Z"
    },
    {
      "icao": "LYPG",
      "alert": "OK",
      "vis_m": 8000,
      "fzfg": false,
      "metar_trigger": false,
      "taf_trigger": false,
      "metar": "METAR LYPG 060830Z 29002KT 8000 -RA FEW006 SCT030 BKN034 11/10 Q1007 RERA TEMPO 4000 RA",
      "taf": "TAF LYPG 060500Z 0606/0706 14005KT 8000 RA FEW010 BKN030 OVC070 TX14/0613Z TN09/0705Z"
    },
    {
      "icao": "LZIB",
      "alert": "OK",
      "vis_m": 9999,
      "fzfg": false,
      "metar_trigger": false,
      "taf_trigger": false,
      "metar": "METAR LZIB 060830Z 31009KT 280V340 CAVOK M02/M10 Q1014 NOSIG",
      "taf": "TAF LZIB 060515Z 0606/0706 31015KT CAVOK"
    },
    {
      "icao": "LZKZ",
      "alert": "OK",
      "vis_m": 9999,
      "fzfg": false,
      "metar_trigger": false,
      "taf_trigger": false,
      "metar": "METAR LZKZ 060830Z 03009KT 9999 SCT042 M02/M05 Q1011 NOSIG",
      "taf": ""
    },
    {
      "icao": "LZTT",
      "alert": "OK",
      "vis_m": 9999,
      "fzfg": false,
      "metar_trigger": false,
      "taf_trigger": false,
      "metar": "METAR LZTT 060830Z 28008KT 9999 FEW010 SCT045 M04/M08 Q1009 NOSIG",
      "taf": ""
    },
    {
      "icao": "OEJN",
      "alert": "OK",
      "vis_m": 7000,
      "fzfg": false,
      "metar_trigger": false,
      "taf_trigger": false,
      "metar": "METAR OEJN 060800Z VRB02KT 7000 NSC 31/05 Q1017 NOSIG",
      "taf": "TAF OEJN 060500Z 0606/0712 VRB03KT 7000 NSC"
    },
    {
      "icao": "OEMA",
      "alert": "OK",
      "vis_m": 5000,
      "fzfg": false,
      "metar_trigger": false,
      "taf_trigger": false,
      "metar": "METAR OEMA 060800Z 09007KT 5000 DU NSC 21/01 Q1024 NOSIG",
      "taf": "TAF OEMA 060500Z 0606/0712 09010KT 7000 FEW045"
    },
    {
      "icao": "OJAI",
      "alert": "OK",
      "vis_m": 5000,
      "fzfg": false,
      "metar_trigger": false,
      "taf_trigger": false,
      "metar": "METAR OJAI 060800Z 06011KT 5000 HZ NSC 10/02 Q1025 NOSIG",
      "taf": "TAF OJAI 060446Z 0606/0712 12012KT 5000 HZ NSC"
    },
    {
      "icao": "OMAA",
      "alert": "OK",
      "vis_m": 9999,
      "fzfg": false,
      "metar_trigger": false,
      "taf_trigger": false,
      "metar": "METAR OMAA 060800Z 05007KT 340V080 CAVOK 25/10 Q1021 BECMG 33012KT",
      "taf": "TAF OMAA 060500Z 0606/0712 07005KT 8000 FEW025"
    },
    {
      "icao": "OMDB",
      "alert": "OK",
      "vis_m": 9999,
      "fzfg": false,
      "metar_trigger": false,
      "taf_trigger": false,
      "metar": "METAR OMDB 060830Z VRB03KT 9999 FEW040 26/06 Q1021 BECMG 35012KT",
      "taf": "TAF OMDB 060500Z 0606/0712 07007KT 8000 NSC"
    },
    {
      "icao": "UAAA",
      "alert": "OK",
      "vis_m": 5000,
      "fzfg": false,
      "metar_trigger": false,
      "taf_trigger": false,
      "metar": "METAR UAAA 060830Z VRB01MPS 5000 BR FEW100 03/M04 Q1029 NOSIG",
      "taf": "TAF UAAA 060503Z 0606/0706 04003MPS 6000 SCT011 BKN050 TX01/0609Z TNM04/0701Z"
    },
    {
      "icao": "UBBB",
      "alert": "OK",
      "vis_m": 9999,
      "fzfg": false,
      "metar_trigger": false,
      "taf_trigger": false,
      "metar": "METAR UBBB 060830Z VRB02KT 9999 BKN020 10/07 Q1026 NOSIG",
      "taf": "TAF UBBB 060458Z 0606/0706 35005KT 6000 NSC TX12/0610Z TN04/0702Z"
    },
    {
      "icao": "UDSG",
      "alert": "OK",
      "vis_m": 6000,
      "fzfg": false,
      "metar_trigger": false,
      "taf_trigger": false,
      "metar": "METAR UDSG 060830Z 13002KT 6000 NSC M11/M15 Q1030 NOSIG",
      "taf": "TAF UDSG 060458Z 0606/0706 VRB06KT 9999 FEW040"
    },
    {
      "icao": "UDYZ",
      "alert": "OK",
      "vis_m": 2400,
      "fzfg": false,
      "metar_trigger": false,
      "taf_trigger": false,
      "metar": "METAR UDYZ 060830Z 00000KT 2400 BR NSC M06/M10 Q1033 NOSIG",
      "taf": "TAF UDYZ 060500Z 0606/0706 VRB06KT 6000 FEW040"
    },
    {
      "icao": "UGKO",
      "alert": "OK",
      "vis_m": 9999,
      "fzfg": false,
      "metar_trigger": false,
      "taf_trigger": false,
      "metar": "METAR UGKO 060830Z 09017KT CAVOK 14/01 Q1018 NOSIG",
      "taf": "TAF UGKO 060500Z 0606/0706 08007KT CAVOK TX16/0611Z TN02/0703Z"
    }
  ]
}