{
  "ts_utc": "2026-02-14T17:34:45Z",
  "threshold_m": 150,
  "source": "stations_override.txt (ICAO list) + aviationweather.gov (METAR/TAF raw)",
  "station_count": 159,
  "stations": [
    {
      "icao": "BIKF",
      "alert": "OK",
      "vis_m": 9999,
      "fzfg": false,
      "metar_trigger": false,
      "taf_trigger": false,
      "metar": "METAR BIKF 141730Z 07020KT 9999 FEW027 BKN260 M01/M08 Q0999",
      "taf": "TAF BIKF 141654Z 1418/1518 09015G25KT CAVOK TXM00/1418Z TNM05/1506Z"
    },
    {
      "icao": "BKPR",
      "alert": "OK",
      "vis_m": 9999,
      "fzfg": false,
      "metar_trigger": false,
      "taf_trigger": false,
      "metar": "METAR BKPR 141730Z 17006KT 9999 -RA SCT015 BKN035 07/06 Q1004 NOSIG",
      "taf": "TAF BKPR 141730Z 1418/1518 17012KT 9999 BKN030"
    },
    {
      "icao": "EBCI",
      "alert": "OK",
      "vis_m": 9999,
      "fzfg": false,
      "metar_trigger": false,
      "taf_trigger": false,
      "metar": "METAR EBCI 141720Z 36006KT 9999 FEW024 00/M05 Q1016 NOSIG",
      "taf": "TAF EBCI 141700Z 1418/1524 02006KT 9999 FEW025"
    },
    {
      "icao": "EDDB",
      "alert": "OK",
      "vis_m": 9999,
      "fzfg": false,
      "metar_trigger": false,
      "taf_trigger": false,
      "metar": "METAR EDDB 141720Z AUTO 35009KT 9999 FEW017 SCT026 OVC038 M00/M03 Q1013 NOSIG",
      "taf": "TAF EDDB 141700Z 1418/1518 36009KT 9999 FEW020 BKN035"
    },
    {
      "icao": "EDDH",
      "alert": "OK",
      "vis_m": 9999,
      "fzfg": false,
      "metar_trigger": false,
      "taf_trigger": false,
      "metar": "METAR EDDH 141720Z AUTO 36004KT 320V050 9999 OVC025 M02/M07 Q1016 NOSIG",
      "taf": "TAF EDDH 141700Z 1418/1524 VRB03KT 9999 FEW025"
    },
    {
      "icao": "EDDK",
      "alert": "OK",
      "vis_m": 9999,
      "fzfg": false,
      "metar_trigger": false,
      "taf_trigger": false,
      "metar": "METAR EDDK 141720Z AUTO 36006KT 9999 OVC014 00/M02 Q1015 TEMPO BKN015",
      "taf": "TAF EDDK 141700Z 1418/1524 35008KT 9999 OVC013"
    },
    {
      "icao": "EDDN",
      "alert": "OK",
      "vis_m": 9999,
      "fzfg": false,
      "metar_trigger": false,
      "taf_trigger": false,
      "metar": "METAR EDDN 141720Z AUTO 36013KT 330V030 9999 OVC016 01/M02 Q1009 NOSIG",
      "taf": "TAF EDDN 141700Z 1418/1518 35010KT 9999 BKN015"
    },
    {
      "icao": "EDDS",
      "alert": "OK",
      "vis_m": 9999,
      "fzfg": false,
      "metar_trigger": false,
      "taf_trigger": false,
      "metar": "METAR EDDS 141720Z AUTO 35011KT 320V020 9999 -SNRA SCT009 BKN018 OVC022 02/00 Q1009 NOSIG",
      "taf": "TAF EDDS 141700Z 1418/1518 34010KT 9999 SCT007 BKN015"
    },
    {
      "icao": "EDFH",
      "alert": "OK",
      "vis_m": 3500,
      "fzfg": false,
      "metar_trigger": false,
      "taf_trigger": false,
      "metar": "METAR EDFH 141720Z 36008KT 320V040 3500 -SN BR OVC001 M02/M02 Q1012",
      "taf": "TAF EDFH 141700Z 1418/1518 36010KT 8000 BKN005"
    },
    {
      "icao": "EDJA",
      "alert": "OK",
      "vis_m": 8000,
      "fzfg": false,
      "metar_trigger": false,
      "taf_trigger": false,
      "metar": "METAR EDJA 141720Z 36008KT 8000 -RASN OVC005 01/01 Q1006",
      "taf": "TAF EDJA 141700Z 1418/1503 36008KT 7000 SNRA BKN006"
    },
    {
      "icao": "EDLW",
      "alert": "OK",
      "vis_m": 9999,
      "fzfg": false,
      "metar_trigger": false,
      "taf_trigger": false,
      "metar": "METAR EDLW 141720Z 35005KT 9999 OVC017 M00/M03 Q1015",
      "taf": "TAF EDLW 141700Z 1418/1518 35007KT 9999 OVC013"
    },
    {
      "icao": "EDNY",
      "alert": "OK",
      "vis_m": 9999,
      "fzfg": false,
      "metar_trigger": false,
      "taf_trigger": false,
      "metar": "METAR EDNY 141720Z 03005KT 340V080 9999 -RA FEW015 BKN043 OVC056 04/03 Q1006",
      "taf": "TAF EDNY 141700Z 1418/1503 02006KT 9000 SCT012 BKN025"
    },
    {
      "icao": "EDSB",
      "alert": "OK",
      "vis_m": 8000,
      "fzfg": false,
      "metar_trigger": false,
      "taf_trigger": false,
      "metar": "METAR EDSB 141720Z 01013KT 8000 -RA SCT008 OVC010 02/01 Q1011",
      "taf": "TAF EDSB 141700Z 1418/1518 02010KT 9999 SCT010 BKN020"
    },
    {
      "icao": "EETN",
      "alert": "OK",
      "vis_m": 9999,
      "fzfg": false,
      "metar_trigger": false,
      "taf_trigger": false,
      "metar": "METAR EETN 141720Z 02004KT CAVOK M11/M15 Q1014 NOSIG",
      "taf": "TAF EETN 141730Z 1418/1518 VRB02KT CAVOK"
    },
    {
      "icao": "EFTU",
      "alert": "OK",
      "vis_m": 9999,
      "fzfg": false,
      "metar_trigger": false,
      "taf_trigger": false,
      "metar": "METAR EFTU 141720Z AUTO VRB01KT CAVOK M18/M20 Q1014",
      "taf": "TAF EFTU 141429Z 1415/1515 10002KT CAVOK"
    },
    {
      "icao": "EGBB",
      "alert": "OK",
      "vis_m": 9999,
      "fzfg": false,
      "metar_trigger": false,
      "taf_trigger": false,
      "metar": "METAR EGBB 141720Z 21004KT 180V250 CAVOK 04/M02 Q1017",
      "taf": "TAF EGBB 141657Z 1418/1518 24005KT 9999 FEW030"
    },
    {
      "icao": "EGGP",
      "alert": "OK",
      "vis_m": 9999,
      "fzfg": false,
      "metar_trigger": false,
      "taf_trigger": false,
      "metar": "METAR EGGP 141720Z 20005KT 9999 FEW035 04/M00 Q1016",
      "taf": "TAF EGGP 141653Z 1418/1518 VRB03KT 9999 SCT025"
    },
    {
      "icao": "EGGW",
      "alert": "OK",
      "vis_m": 9999,
      "fzfg": false,
      "metar_trigger": false,
      "taf_trigger": false,
      "metar": "METAR EGGW 141720Z AUTO 23003KT 9999 NCD 03/M02 Q1017",
      "taf": "TAF EGGW 141704Z 1418/1518 24004KT 9999 FEW035"
    },
    {
      "icao": "EGKK",
      "alert": "OK",
      "vis_m": 9999,
      "fzfg": false,
      "metar_trigger": false,
      "taf_trigger": false,
      "metar": "METAR EGKK 141720Z 24004KT 9999 FEW048 04/M03 Q1018",
      "taf": "TAF EGKK 141700Z 1418/1524 20005KT 9999 SCT045"
    },
    {
      "icao": "EGNM",
      "alert": "OK",
      "vis_m": 9999,
      "fzfg": false,
      "metar_trigger": false,
      "taf_trigger": false,
      "metar": "METAR EGNM 141720Z 23003KT CAVOK 02/M01 Q1015",
      "taf": "TAF EGNM 141652Z 1418/1518 29006KT 9999 FEW030"
    },
    {
      "icao": "EGPD",
      "alert": "OK",
      "vis_m": 9999,
      "fzfg": false,
      "metar_trigger": false,
      "taf_trigger": false,
      "metar": "METAR EGPD 141720Z COR AUTO 15006KT 9999 NCD 01/M03 Q1011 NOSIG",
      "taf": "TAF EGPD 141657Z 1418/1518 18008KT 9999 FEW020"
    },
    {
      "icao": "EGPF",
      "alert": "OK",
      "vis_m": 9999,
      "fzfg": false,
      "metar_trigger": false,
      "taf_trigger": false,
      "metar": "METAR EGPF 141720Z AUTO 14007KT 9999 NCD 04/M00 Q1012",
      "taf": "TAF EGPF 141654Z 1418/1518 13010KT 9999 FEW035"
    },
    {
      "icao": "EHBK",
      "alert": "OK",
      "vis_m": 9999,
      "fzfg": false,
      "metar_trigger": false,
      "taf_trigger": false,
      "metar": "METAR EHBK 141725Z AUTO 02009KT 350V050 9999 OVC016/// M00/M03 Q1016 NOSIG",
      "taf": "TAF EHBK 141708Z 1418/1524 02007KT 9999 BKN016"
    },
    {
      "icao": "EHEH",
      "alert": "OK",
      "vis_m": 9999,
      "fzfg": false,
      "metar_trigger": false,
      "taf_trigger": false,
      "metar": "METAR EHEH 141725Z AUTO 34004KT 300V010 9999 NCD M00/M05 Q1017 BLU BECMG SCT025",
      "taf": "TAF EHEH 141141Z 1412/1518 02012KT 9999 BKN018"
    },
    {
      "icao": "EKBI",
      "alert": "OK",
      "vis_m": 9999,
      "fzfg": false,
      "metar_trigger": false,
      "taf_trigger": false,
      "metar": "METAR EKBI 141720Z AUTO 12002KT 9999 OVC050/// M04/M08 Q1016",
      "taf": "TAF EKBI 141727Z 1418/1518 10004KT 9999 BKN045"
    },
    {
      "icao": "EKCH",
      "alert": "OK",
      "vis_m": 9999,
      "fzfg": false,
      "metar_trigger": false,
      "taf_trigger": false,
      "metar": "METAR EKCH 141720Z AUTO 06004KT 9999 OVC040/// M02/M10 Q1016 NOSIG",
      "taf": "TAF EKCH 141727Z 1418/1518 05008KT 9999 BKN040"
    },
    {
      "icao": "ENAL",
      "alert": "OK",
      "vis_m": 9999,
      "fzfg": false,
      "metar_trigger": false,
      "taf_trigger": false,
      "metar": "METAR ENAL 141720Z 14010KT CAVOK M01/M07 Q1011",
      "taf": "TAF ENAL 141400Z 1415/1424 15008KT CAVOK"
    },
    {
      "icao": "ENBR",
      "alert": "OK",
      "vis_m": 9999,
      "fzfg": false,
      "metar_trigger": false,
      "taf_trigger": false,
      "metar": "METAR ENBR 141720Z 11006KT 9999 VCSH FEW015 BKN020 M01/M02 Q1012 NOSIG RMK WIND 1200FT 15012KT",
      "taf": "TAF ENBR 141100Z 1412/1512 VRB05KT 9999 SCT015"
    },
    {
      "icao": "ENGM",
      "alert": "OK",
      "vis_m": 9999,
      "fzfg": false,
      "metar_trigger": false,
      "taf_trigger": false,
      "metar": "METAR ENGM 141720Z VRB02KT CAVOK M14/M16 Q1014 NOSIG",
      "taf": "TAF ENGM 141100Z 1412/1512 35003KT CAVOK"
    },
    {
      "icao": "ENHD",
      "alert": "OK",
      "vis_m": 9999,
      "fzfg": false,
      "metar_trigger": false,
      "taf_trigger": false,
      "metar": "METAR ENHD 141720Z 14006KT 9999 BKN030 M01/M02 Q1013",
      "taf": "TAF ENHD 141400Z 1415/1423 10008KT 9999 FEW006 BKN025"
    },
    {
      "icao": "ENTC",
      "alert": "OK",
      "vis_m": 9999,
      "fzfg": false,
      "metar_trigger": false,
      "taf_trigger": false,
      "metar": "METAR ENTC 141720Z 18015KT 9999 FEW020 BKN060 M02/M07 Q0998 TEMPO 2000 -SHSN BKN013 RMK WIND 2600FT 20015KT",
      "taf": ""
    },
    {
      "icao": "ENTO",
      "alert": "OK",
      "vis_m": 9999,
      "fzfg": false,
      "metar_trigger": false,
      "taf_trigger": false,
      "metar": "METAR ENTO 141720Z 23001KT CAVOK M10/M13 Q1016 NOSIG",
      "taf": "TAF ENTO 141100Z 1412/1512 35003KT 9999 BKN030"
    },
    {
      "icao": "ENVA",
      "alert": "OK",
      "vis_m": 2200,
      "fzfg": false,
      "metar_trigger": false,
      "taf_trigger": false,
      "metar": "METAR ENVA 141720Z 11005KT 2200 VCSH FEW015 SCT022 M07/M08 Q1011 RMK WIND 670FT 16008KT",
      "taf": "TAF ENVA 141100Z 1412/1512 10009KT 9999 FEW020 SCT035"
    },
    {
      "icao": "ENZV",
      "alert": "OK",
      "vis_m": 9999,
      "fzfg": false,
      "metar_trigger": false,
      "taf_trigger": false,
      "metar": "METAR ENZV 141720Z 04003KT 9999 SCT028 OVC041 M01/M04 Q1013 NOSIG",
      "taf": ""
    },
    {
      "icao": "EPGD",
      "alert": "OK",
      "vis_m": 9999,
      "fzfg": false,
      "metar_trigger": false,
      "taf_trigger": false,
      "metar": "METAR EPGD 141730Z 02005KT 9999 SCT012 BKN017 M04/M05 Q1010",
      "taf": "TAF EPGD 141730Z 1418/1518 36005KT 9999 BKN018"
    },
    {
      "icao": "EPKK",
      "alert": "OK",
      "vis_m": 1800,
      "fzfg": false,
      "metar_trigger": false,
      "taf_trigger": false,
      "metar": "METAR EPKK 141730Z 03008KT 360V060 1800 SN BR SCT005 BKN013 00/M01 Q1006",
      "taf": "TAF EPKK 141730Z 1418/1518 04008KT 3500 -RASN BR SCT005 OVC013"
    },
    {
      "icao": "EPKT",
      "alert": "OK",
      "vis_m": 3800,
      "fzfg": false,
      "metar_trigger": false,
      "taf_trigger": false,
      "metar": "METAR EPKT 141730Z 36006KT 3800 -SN BR FEW011 BKN014 M01/M02 Q1007",
      "taf": "TAF EPKT 141730Z 1418/1518 01010KT 5000 -SN BR SCT009 OVC014"
    },
    {
      "icao": "EPLB",
      "alert": "OK",
      "vis_m": 5000,
      "fzfg": false,
      "metar_trigger": false,
      "taf_trigger": false,
      "metar": "METAR EPLB 141730Z 32007KT 5000 BR OVC005 M01/M02 Q1007",
      "taf": "TAF EPLB 141730Z 1418/1518 33010KT 7000 -SN SCT005 BKN012"
    },
    {
      "icao": "EPMO",
      "alert": "OK",
      "vis_m": 9999,
      "fzfg": false,
      "metar_trigger": false,
      "taf_trigger": false,
      "metar": "METAR EPMO 141730Z 31005KT 270V330 9999 BKN009 M05/M06 Q1009",
      "taf": "TAF EPMO 141730Z 1418/1518 34007KT 9999 BKN012"
    },
    {
      "icao": "EPPO",
      "alert": "OK",
      "vis_m": 9999,
      "fzfg": false,
      "metar_trigger": false,
      "taf_trigger": false,
      "metar": "METAR EPPO 141730Z 01004KT 9999 OVC020 M01/M04 Q1010",
      "taf": "TAF EPPO 141730Z 1418/1518 36007KT 9999 BKN020"
    },
    {
      "icao": "EPRA",
      "alert": "OK",
      "vis_m": 5000,
      "fzfg": false,
      "metar_trigger": false,
      "taf_trigger": false,
      "metar": "METAR EPRA 141730Z 34007KT 5000 BR OVC004 M02/M03 Q1008",
      "taf": "TAF EPRA 141730Z 1418/1503 35008KT 6000 OVC005"
    },
    {
      "icao": "EPRZ",
      "alert": "OK",
      "vis_m": 9999,
      "fzfg": false,
      "metar_trigger": false,
      "taf_trigger": false,
      "metar": "METAR EPRZ 141730Z 02006KT 9999 -RA OVC015 02/M00 Q1006",
      "taf": "TAF EPRZ 141730Z 1418/1518 02010KT 9999 -RA OVC015"
    },
    {
      "icao": "EPSC",
      "alert": "OK",
      "vis_m": 9999,
      "fzfg": false,
      "metar_trigger": false,
      "taf_trigger": false,
      "metar": "METAR EPSC 141730Z 33005KT 9999 -SN FEW019 OVC035 M01/M04 Q1013",
      "taf": "TAF EPSC 141730Z 1418/1518 33005KT 9999 SCT020 BKN035"
    },
    {
      "icao": "EPSY",
      "alert": "OK",
      "vis_m": 9999,
      "fzfg": false,
      "metar_trigger": false,
      "taf_trigger": false,
      "metar": "METAR EPSY 141730Z 03008KT 9999 OVC008 M07/M08 Q1009",
      "taf": "TAF EPSY 141730Z 1418/1503 35008KT 9999 OVC008"
    },
    {
      "icao": "EPWA",
      "alert": "OK",
      "vis_m": 9999,
      "fzfg": false,
      "metar_trigger": false,
      "taf_trigger": false,
      "metar": "METAR EPWA 141730Z 36006KT 9999 BKN010 M04/M06 Q1009 NOSIG",
      "taf": "TAF EPWA 141730Z 1418/1518 34008KT 9999 BKN012"
    },
    {
      "icao": "EPWR",
      "alert": "OK",
      "vis_m": 9999,
      "fzfg": false,
      "metar_trigger": false,
      "taf_trigger": false,
      "metar": "METAR EPWR 141730Z 32007KT 9999 -RA SCT009 BKN013 M00/M01 Q1010",
      "taf": "TAF EPWR 141730Z 1418/1518 35006KT 9999 BKN015"
    },
    {
      "icao": "ESGG",
      "alert": "OK",
      "vis_m": 9999,
      "fzfg": false,
      "metar_trigger": false,
      "taf_trigger": false,
      "metar": "METAR ESGG 141720Z 06003KT 050V210 CAVOK M06/M11 Q1015",
      "taf": "TAF ESGG 141730Z 1418/1518 08003KT CAVOK"
    },
    {
      "icao": "ESKN",
      "alert": "OK",
      "vis_m": 9999,
      "fzfg": false,
      "metar_trigger": false,
      "taf_trigger": false,
      "metar": "METAR ESKN 141720Z 29004KT CAVOK M14/M15 Q1016",
      "taf": "TAF ESKN 141730Z 1418/1518 29003KT CAVOK"
    },
    {
      "icao": "ESMS",
      "alert": "OK",
      "vis_m": 9999,
      "fzfg": false,
      "metar_trigger": false,
      "taf_trigger": false,
      "metar": "METAR ESMS 141720Z 00000KT 9999 FEW042 M06/M11 Q1015",
      "taf": "TAF ESMS 141727Z 1418/1518 05006KT 9999 BKN038"
    },
    {
      "icao": "ESSA",
      "alert": "OK",
      "vis_m": 9999,
      "fzfg": false,
      "metar_trigger": false,
      "taf_trigger": false,
      "metar": "METAR ESSA 141720Z 25005KT CAVOK M11/M14 Q1015 NOSIG",
      "taf": "TAF ESSA 141730Z 1418/1518 25004KT CAVOK"
    },
    {
      "icao": "EYKA",
      "alert": "OK",
      "vis_m": 9999,
      "fzfg": false,
      "metar_trigger": false,
      "taf_trigger": false,
      "metar": "METAR EYKA 141720Z VRB01KT 9999 OVC024 M12/M14 Q1009",
      "taf": "TAF EYKA 141704Z 1418/1518 VRB04KT 8000 NSC"
    },
    {
      "icao": "EYPA",
      "alert": "OK",
      "vis_m": 9999,
      "fzfg": false,
      "metar_trigger": false,
      "taf_trigger": false,
      "metar": "METAR EYPA 141720Z 05008KT CAVOK M08/M15 Q1012",
      "taf": "TAF EYPA 141703Z 1418/1518 VRB05KT 8000 NSC"
    },
    {
      "icao": "EYVI",
      "alert": "OK",
      "vis_m": 9000,
      "fzfg": false,
      "metar_trigger": false,
      "taf_trigger": false,
      "metar": "METAR EYVI 141720Z 35009KT 9000 -SN OVC013 M10/M12 Q1007 NOSIG",
      "taf": "TAF EYVI 141706Z 1418/1518 VRB05KT 6000 BKN015"
    },
    {
      "icao": "GCFV",
      "alert": "OK",
      "vis_m": 9999,
      "fzfg": false,
      "metar_trigger": false,
      "taf_trigger": false,
      "metar": "METAR GCFV 141700Z 03025KT 9999 FEW040 19/11 Q1025",
      "taf": "TAF GCFV 141400Z 1415/1515 03025KT 9999 FEW040 TX20/1514Z TN16/1506Z"
    },
    {
      "icao": "GCLP",
      "alert": "OK",
      "vis_m": 9999,
      "fzfg": false,
      "metar_trigger": false,
      "taf_trigger": false,
      "metar": "METAR GCLP 141700Z 02022KT 9999 BKN030 19/12 Q1025 NOSIG",
      "taf": "TAF GCLP 141400Z 1415/1515 02025KT 9999 SCT035 TX20/1514Z TN16/1506Z"
    },
    {
      "icao": "GCTS",
      "alert": "OK",
      "vis_m": 9999,
      "fzfg": false,
      "metar_trigger": false,
      "taf_trigger": false,
      "metar": "METAR GCTS 141700Z 07026KT 9999 FEW030 20/09 Q1025 NOSIG",
      "taf": "TAF GCTS 141400Z 1415/1515 08025KT 9999 FEW035 TX24/1514Z TN17/1506Z"
    },
    {
      "icao": "GMAD",
      "alert": "OK",
      "vis_m": 9999,
      "fzfg": false,
      "metar_trigger": false,
      "taf_trigger": false,
      "metar": "METAR GMAD 141730Z 18008KT 140V200 CAVOK 21/06 Q1017 NOSIG",
      "taf": "TAF GMAD 141700Z 1418/1524 26008KT CAVOK"
    },
    {
      "icao": "GMMN",
      "alert": "OK",
      "vis_m": 9999,
      "fzfg": false,
      "metar_trigger": false,
      "taf_trigger": false,
      "metar": "METAR GMMN 141730Z 01008KT 9999 SCT030 12/07 Q1028 NOSIG",
      "taf": "TAF GMMN 141100Z 1412/1518 36014KT 9999 SCT030"
    },
    {
      "icao": "GMMX",
      "alert": "OK",
      "vis_m": 9999,
      "fzfg": false,
      "metar_trigger": false,
      "taf_trigger": false,
      "metar": "METAR GMMX 141730Z 06011KT 9999 SCT023 14/07 Q1025 NOSIG",
      "taf": "TAF GMMX 141100Z 1412/1518 06008KT 8000 SCT023 SCT090"
    },
    {
      "icao": "HEGN",
      "alert": "OK",
      "vis_m": null,
      "fzfg": false,
      "metar_trigger": false,
      "taf_trigger": false,
      "metar": "",
      "taf": "TAF HEGN 141100Z 1412/1518 35010G20KT 6000 NSC"
    },
    {
      "icao": "HEMA",
      "alert": "OK",
      "vis_m": null,
      "fzfg": false,
      "metar_trigger": false,
      "taf_trigger": false,
      "metar": "",
      "taf": "TAF HEMA 141100Z 1412/1518 34010G20KT 6000 NSC"
    },
    {
      "icao": "HESH",
      "alert": "OK",
      "vis_m": null,
      "fzfg": false,
      "metar_trigger": false,
      "taf_trigger": false,
      "metar": "",
      "taf": "TAF HESH 141100Z 1412/1518 36010G20KT 6000 NSC"
    },
    {
      "icao": "HESX",
      "alert": "OK",
      "vis_m": null,
      "fzfg": false,
      "metar_trigger": false,
      "taf_trigger": false,
      "metar": "",
      "taf": "TAF HESX 141100Z 1412/1518 30008KT CAVOK"
    },
    {
      "icao": "LATI",
      "alert": "OK",
      "vis_m": 9999,
      "fzfg": false,
      "metar_trigger": false,
      "taf_trigger": false,
      "metar": "METAR LATI 141720Z 13005KT 9999 RA BKN060 OVC080 11/08 Q1001 NOSIG",
      "taf": "TAF LATI 141700Z 1418/1518 16012KT 9999 SCT060 BKN080 TX15/1513Z TN11/1506Z"
    },
    {
      "icao": "LBPD",
      "alert": "OK",
      "vis_m": 9999,
      "fzfg": false,
      "metar_trigger": false,
      "taf_trigger": false,
      "metar": "METAR LBPD 141730Z AUTO 24004KT 210V310 9999 OVC120/// 08/07 Q1006 NOSIG",
      "taf": "TAF LBPD 141700Z 1418/1518 10010KT 9999 SCT060"
    },
    {
      "icao": "LBSF",
      "alert": "OK",
      "vis_m": 9999,
      "fzfg": false,
      "metar_trigger": false,
      "taf_trigger": false,
      "metar": "METAR LBSF 141730Z AUTO 11007KT 9999 OVC077/// 09/04 Q1006 TEMPO 5000 RA",
      "taf": "TAF LBSF 141700Z 1418/1518 12010KT 9999 SCT060"
    },
    {
      "icao": "LBWN",
      "alert": "OK",
      "vis_m": 9999,
      "fzfg": false,
      "metar_trigger": false,
      "taf_trigger": false,
      "metar": "METAR LBWN 141730Z AUTO 09005KT 9999 NSC 09/06 Q1008 NOSIG",
      "taf": "TAF LBWN 141700Z 1418/1518 10010KT 9999 SCT045"
    },
    {
      "icao": "LCLK",
      "alert": "OK",
      "vis_m": 9999,
      "fzfg": false,
      "metar_trigger": false,
      "taf_trigger": false,
      "metar": "METAR LCLK 141730Z VRB02KT 9999 FEW030 16/14 Q1015 NOSIG",
      "taf": "TAF LCLK 141730Z 1418/1518 23010KT 9999 FEW025"
    },
    {
      "icao": "LCPH",
      "alert": "OK",
      "vis_m": 8000,
      "fzfg": false,
      "metar_trigger": false,
      "taf_trigger": false,
      "metar": "METAR LCPH 141730Z 27007KT 250V320 8000 SCT016 BKN022 17/14 Q1016 NOSIG",
      "taf": "TAF LCPH 141730Z 1418/1518 30010KT 9999 FEW025"
    },
    {
      "icao": "LEAL",
      "alert": "OK",
      "vis_m": 9999,
      "fzfg": false,
      "metar_trigger": false,
      "taf_trigger": false,
      "metar": "METAR LEAL 141700Z 30024KT 9999 FEW012 17/00 Q1010 NOSIG",
      "taf": "TAF LEAL 141700Z 1418/1518 31020KT 9999 FEW012 TX20/1513Z TN09/1506Z"
    },
    {
      "icao": "LEBB",
      "alert": "OK",
      "vis_m": 9999,
      "fzfg": false,
      "metar_trigger": false,
      "taf_trigger": false,
      "metar": "METAR LEBB 141700Z 31015KT 280V340 9999 FEW020 FEW032TCU BKN065 10/05 Q1022 TEMPO 3000 SHRA SCT030TCU",
      "taf": "TAF LEBB 141700Z 1418/1518 30009KT 9999 SCT020 BKN030 TX15/1512Z TN07/1501Z"
    },
    {
      "icao": "LEBL",
      "alert": "OK",
      "vis_m": 9999,
      "fzfg": false,
      "metar_trigger": false,
      "taf_trigger": false,
      "metar": "METAR LEBL 141700Z 32012G22KT 9999 FEW020 17/01 Q1004 NOSIG",
      "taf": "TAF LEBL 141700Z 1418/1518 32012KT 9999 FEW035 TX15/1513Z TN07/1506Z"
    },
    {
      "icao": "LECH",
      "alert": "OK",
      "vis_m": 9999,
      "fzfg": false,
      "metar_trigger": false,
      "taf_trigger": false,
      "metar": "METAR LECH 141700Z AUTO 33035G59KT 280V010 CAVOK 12/M01 Q1007",
      "taf": ""
    },
    {
      "icao": "LEMD",
      "alert": "OK",
      "vis_m": 9999,
      "fzfg": false,
      "metar_trigger": false,
      "taf_trigger": false,
      "metar": "METAR LEMD 141700Z 33011KT 290V360 9999 FEW060 09/M02 Q1018 NOSIG",
      "taf": "TAF LEMD 141700Z 1418/1524 35010KT 9999 SCT060 TX13/1515Z TNM00/1507Z"
    },
    {
      "icao": "LEMG",
      "alert": "OK",
      "vis_m": 9999,
      "fzfg": false,
      "metar_trigger": false,
      "taf_trigger": false,
      "metar": "METAR LEMG 141700Z 30017G29KT 9999 FEW040 14/01 Q1021 NOSIG",
      "taf": "TAF LEMG 141700Z 1418/1518 30012KT 9999 FEW040 TX18/1514Z TN09/1507Z"
    },
    {
      "icao": "LEVC",
      "alert": "OK",
      "vis_m": 9999,
      "fzfg": false,
      "metar_trigger": false,
      "taf_trigger": false,
      "metar": "METAR LEVC 141700Z 33032G47KT 9999 FEW060 17/M01 Q1009 NOSIG",
      "taf": "TAF LEVC 141700Z 1418/1518 33020KT 9999 FEW060 TX19/1514Z TN10/1506Z"
    },
    {
      "icao": "LEXJ",
      "alert": "OK",
      "vis_m": 9999,
      "fzfg": false,
      "metar_trigger": false,
      "taf_trigger": false,
      "metar": "METAR LEXJ 141700Z 34012KT 300V030 9999 -RA SCT015 FEW032TCU BKN035 09/05 Q1024",
      "taf": "TAF LEXJ 141400Z 1415/1515 30019KT 9999 SCT020 BKN035 TX15/1514Z TN08/1423Z"
    },
    {
      "icao": "LEZG",
      "alert": "OK",
      "vis_m": 9999,
      "fzfg": false,
      "metar_trigger": false,
      "taf_trigger": false,
      "metar": "METAR LEZG 141700Z 30023KT 9999 SCT030 SCT040 09/06 Q1015 NOSIG",
      "taf": "TAF LEZG 141700Z 1418/1518 30020KT 9999 FEW030 SCT060 TX16/1512Z TN06/1506Z"
    },
    {
      "icao": "LEZL",
      "alert": "OK",
      "vis_m": 9999,
      "fzfg": false,
      "metar_trigger": false,
      "taf_trigger": false,
      "metar": "METAR LEZL 141700Z 34012KT CAVOK 16/02 Q1023 NOSIG",
      "taf": "TAF LEZL 141400Z 1415/1515 31012KT 9999 FEW040 TX18/1515Z TN06/1507Z"
    },
    {
      "icao": "LFBD",
      "alert": "OK",
      "vis_m": 9999,
      "fzfg": false,
      "metar_trigger": false,
      "taf_trigger": false,
      "metar": "METAR LFBD 141730Z AUTO 35011KT 9999 OVC029 07/02 Q1019 NOSIG",
      "taf": "TAF LFBD 141700Z 1418/1524 34010KT 9999 BKN020 TX13/1516Z TN04/1504Z"
    },
    {
      "icao": "LFLL",
      "alert": "OK",
      "vis_m": 9999,
      "fzfg": false,
      "metar_trigger": false,
      "taf_trigger": false,
      "metar": "METAR LFLL 141730Z 34022KT 9999 BKN012 04/01 Q1010 TEMPO 35025G35KT -RADZ",
      "taf": ""
    },
    {
      "icao": "LFLS",
      "alert": "OK",
      "vis_m": 7000,
      "fzfg": false,
      "metar_trigger": false,
      "taf_trigger": false,
      "metar": "METAR LFLS 141730Z AUTO 34022KT 7000 -RA OVC010 03/02 Q1008 TEMPO 34022G35KT 4000 -RADZ",
      "taf": ""
    },
    {
      "icao": "LFMN",
      "alert": "OK",
      "vis_m": 9999,
      "fzfg": false,
      "metar_trigger": false,
      "taf_trigger": false,
      "metar": "METAR LFMN 141730Z 21004KT CAVOK 14/09 Q0996 NOSIG",
      "taf": "TAF LFMN 141400Z 1415/1521 20008KT CAVOK"
    },
    {
      "icao": "LFOB",
      "alert": "OK",
      "vis_m": 9999,
      "fzfg": false,
      "metar_trigger": false,
      "taf_trigger": false,
      "metar": "METAR LFOB 141730Z AUTO 35005KT CAVOK 02/M03 Q1017 NOSIG",
      "taf": "TAF LFOB 141700Z 1418/1518 35006KT CAVOK"
    },
    {
      "icao": "LFPO",
      "alert": "OK",
      "vis_m": 9999,
      "fzfg": false,
      "metar_trigger": false,
      "taf_trigger": false,
      "metar": "METAR LFPO 141730Z 03005KT CAVOK 01/M03 Q1017 NOSIG",
      "taf": "TAF LFPO 141100Z 1412/1518 01015KT 9999 BKN020"
    },
    {
      "icao": "LFSB",
      "alert": "OK",
      "vis_m": 9999,
      "fzfg": false,
      "metar_trigger": false,
      "taf_trigger": false,
      "metar": "METAR LFSB 141730Z AUTO 36011KT 330V040 9999 -RA OVC008 03/02 Q1010 TEMPO 36015G25KT",
      "taf": "TAF LFSB 141700Z 1418/1518 36012KT 9999 SCT015 BKN025"
    },
    {
      "icao": "LGAV",
      "alert": "OK",
      "vis_m": 9999,
      "fzfg": false,
      "metar_trigger": false,
      "taf_trigger": false,
      "metar": "METAR LGAV 141720Z 19007KT 9999 SCT018 15/09 Q1008 NOSIG",
      "taf": "TAF LGAV 141700Z 1418/1518 19012KT 9999 SCT025"
    },
    {
      "icao": "LGTS",
      "alert": "OK",
      "vis_m": 9999,
      "fzfg": false,
      "metar_trigger": false,
      "taf_trigger": false,
      "metar": "METAR LGTS 141720Z VRB03KT 9999 SCT025 12/12 Q1007 NOSIG",
      "taf": "TAF LGTS 141700Z 1418/1518 13010KT 9999 SCT030"
    },
    {
      "icao": "LHBP",
      "alert": "OK",
      "vis_m": 9999,
      "fzfg": false,
      "metar_trigger": false,
      "taf_trigger": false,
      "metar": "METAR LHBP 141730Z 10006KT CAVOK 08/04 Q1002 NOSIG",
      "taf": "TAF LHBP 141715Z 1418/1518 08008KT CAVOK"
    },
    {
      "icao": "LHDC",
      "alert": "OK",
      "vis_m": 9999,
      "fzfg": false,
      "metar_trigger": false,
      "taf_trigger": false,
      "metar": "METAR LHDC 141715Z AUTO 06006KT CAVOK 09/04 Q1003 NOSIG",
      "taf": "TAF LHDC 141415Z 1415/1424 16004KT CAVOK"
    },
    {
      "icao": "LIBD",
      "alert": "OK",
      "vis_m": 7000,
      "fzfg": false,
      "metar_trigger": false,
      "taf_trigger": false,
      "metar": "METAR LIBD 141720Z 15008KT 7000 RA OVC049 11/09 Q0998",
      "taf": "TAF LIBD 141700Z 1418/1518 16013KT 9999 BKN030"
    },
    {
      "icao": "LIBG",
      "alert": "OK",
      "vis_m": 5000,
      "fzfg": false,
      "metar_trigger": false,
      "taf_trigger": false,
      "metar": "METAR LIBG 141650Z 07005KT 030V130 5000 -RA SCT010 BKN020 12/12 Q0997",
      "taf": "TAF LIBG 141700Z 1418/1503 31016KT 9999 BKN030"
    },
    {
      "icao": "LIBP",
      "alert": "OK",
      "vis_m": 9999,
      "fzfg": false,
      "metar_trigger": false,
      "taf_trigger": false,
      "metar": "METAR LIBP 141720Z AUTO VRB01KT 9999 OVC130/// 12/09 Q0995",
      "taf": "TAF LIBP 141700Z 1418/1518 VRB05KT 9999 BKN030"
    },
    {
      "icao": "LIBR",
      "alert": "OK",
      "vis_m": 8000,
      "fzfg": false,
      "metar_trigger": false,
      "taf_trigger": false,
      "metar": "METAR LIBR 141720Z 14011KT 8000 RA BKN030 12/09 Q0996",
      "taf": "TAF LIBR 141700Z 1418/1518 16018G32KT 9999 BKN030"
    },
    {
      "icao": "LICA",
      "alert": "OK",
      "vis_m": 9999,
      "fzfg": false,
      "metar_trigger": false,
      "taf_trigger": false,
      "metar": "METAR LICA 141720Z AUTO 28019KT 9999 -RA OVC038/// 13/10 Q0996",
      "taf": "TAF LICA 141700Z 1418/1518 26010KT 9999 FEW020 SCT050"
    },
    {
      "icao": "LICC",
      "alert": "OK",
      "vis_m": 9999,
      "fzfg": false,
      "metar_trigger": false,
      "taf_trigger": false,
      "metar": "METAR LICC 141720Z 27008KT 230V310 9999 FEW030 BKN070 16/12 Q0995",
      "taf": "TAF LICC 141700Z 1418/1518 VRB05KT 9999 SCT020"
    },
    {
      "icao": "LICJ",
      "alert": "OK",
      "vis_m": 9999,
      "fzfg": false,
      "metar_trigger": false,
      "taf_trigger": false,
      "metar": "METAR LICJ 141720Z 29005KT 9999 FEW035 SCT060 13/09 Q0997",
      "taf": "TAF LICJ 141700Z 1418/1518 20014KT 9999 SCT030"
    },
    {
      "icao": "LIMC",
      "alert": "OK",
      "vis_m": 9999,
      "fzfg": false,
      "metar_trigger": false,
      "taf_trigger": false,
      "metar": "METAR LIMC 141720Z 20003KT 170V240 9999 FEW080 09/07 Q0998 NOSIG",
      "taf": "TAF LIMC 141700Z 1418/1524 VRB05KT 8000 SCT040"
    },
    {
      "icao": "LIME",
      "alert": "OK",
      "vis_m": 8000,
      "fzfg": false,
      "metar_trigger": false,
      "taf_trigger": false,
      "metar": "METAR LIME 141720Z 23004KT 200V260 8000 -DZ FEW008 SCT035 BKN065 10/08 Q0998 NOSIG",
      "taf": "TAF LIME 141700Z 1418/1518 33007KT 8000 SCT040"
    },
    {
      "icao": "LIMF",
      "alert": "OK",
      "vis_m": 9999,
      "fzfg": false,
      "metar_trigger": false,
      "taf_trigger": false,
      "metar": "METAR LIMF 141720Z 21005KT 9999 BKN110 09/05 Q0998",
      "taf": "TAF LIMF 141700Z 1418/1518 VRB05KT 9999 SCT030"
    },
    {
      "icao": "LIMJ",
      "alert": "OK",
      "vis_m": 9999,
      "fzfg": false,
      "metar_trigger": false,
      "taf_trigger": false,
      "metar": "METAR LIMJ 141720Z 03016G28KT 360V070 9999 SCT050 BKN075 12/05 Q0996",
      "taf": "TAF LIMJ 141700Z 1418/1518 03014KT 7000 SCT020"
    },
    {
      "icao": "LIPE",
      "alert": "OK",
      "vis_m": 3000,
      "fzfg": false,
      "metar_trigger": false,
      "taf_trigger": false,
      "metar": "METAR LIPE 141720Z 03006KT 360V060 3000 RA BR SCT005 BKN010 10/10 Q0997",
      "taf": "TAF LIPE 141700Z 1418/1518 29008KT 6000 BKN030"
    },
    {
      "icao": "LIPH",
      "alert": "OK",
      "vis_m": 9999,
      "fzfg": false,
      "metar_trigger": false,
      "taf_trigger": false,
      "metar": "METAR LIPH 141720Z 04010KT 9999 BKN035 10/07 Q0998",
      "taf": "TAF LIPH 141700Z 1418/1518 05010KT 7000 BKN040"
    },
    {
      "icao": "LIPQ",
      "alert": "OK",
      "vis_m": 9999,
      "fzfg": false,
      "metar_trigger": false,
      "taf_trigger": false,
      "metar": "METAR LIPQ 141720Z AUTO 08005KT 050V120 9999 -RA OVC055/// 10/08 Q0999",
      "taf": "TAF LIPQ 141700Z 1418/1518 02012KT 9999 BKN030"
    },
    {
      "icao": "LIPR",
      "alert": "OK",
      "vis_m": 9999,
      "fzfg": false,
      "metar_trigger": false,
      "taf_trigger": false,
      "metar": "METAR LIPR 141720Z 29004KT 270V330 9999 SCT070 09/08 Q0996",
      "taf": "TAF LIPR 141700Z 1418/1518 VRB06KT 8000 BKN030"
    },
    {
      "icao": "LIPX",
      "alert": "OK",
      "vis_m": 9999,
      "fzfg": false,
      "metar_trigger": false,
      "taf_trigger": false,
      "metar": "METAR LIPX 141720Z 09009KT 060V120 9999 FEW030 BKN060 10/07 Q0997",
      "taf": "TAF LIPX 141700Z 1418/1518 30005KT 7000 SCT050"
    },
    {
      "icao": "LIPY",
      "alert": "OK",
      "vis_m": 9999,
      "fzfg": false,
      "metar_trigger": false,
      "taf_trigger": false,
      "metar": "METAR LIPY 141720Z AUTO 22003KT 9999 BKN130/// BKN230/// 09/08 Q0996",
      "taf": "TAF LIPY 141700Z 1418/1518 VRB05KT 7000 SCT040"
    },
    {
      "icao": "LIPZ",
      "alert": "OK",
      "vis_m": 9000,
      "fzfg": false,
      "metar_trigger": false,
      "taf_trigger": false,
      "metar": "METAR LIPZ 141720Z 05015KT 9000 -RA FEW007 BKN020 09/08 Q0998 NOSIG",
      "taf": "TAF LIPZ 141700Z 1418/1524 04016KT 7000 BKN025"
    },
    {
      "icao": "LIRF",
      "alert": "OK",
      "vis_m": 9999,
      "fzfg": false,
      "metar_trigger": false,
      "taf_trigger": false,
      "metar": "METAR LIRF 141720Z 13007KT 9999 FEW020 14/11 Q0993 NOSIG",
      "taf": "TAF LIRF 141700Z 1418/1524 10010KT 9999 SCT020"
    },
    {
      "icao": "LIRN",
      "alert": "OK",
      "vis_m": 9999,
      "fzfg": false,
      "metar_trigger": false,
      "taf_trigger": false,
      "metar": "METAR LIRN 141720Z 16005KT 100V230 9999 BKN030 12/10 Q0996 NOSIG",
      "taf": "TAF LIRN 141700Z 1418/1518 VRB05KT 9999 SCT015 SCT030"
    },
    {
      "icao": "LIRP",
      "alert": "OK",
      "vis_m": 9999,
      "fzfg": false,
      "metar_trigger": false,
      "taf_trigger": false,
      "metar": "METAR LIRP 141715Z 11004KT 9999 SCT030 BKN070 12/09 Q0993 NOSIG",
      "taf": "TAF LIRP 141700Z 1418/1518 07008KT 9999 -RA SCT020 BKN040"
    },
    {
      "icao": "LIRZ",
      "alert": "OK",
      "vis_m": 9999,
      "fzfg": false,
      "metar_trigger": false,
      "taf_trigger": false,
      "metar": "METAR LIRZ 141720Z AUTO 01006KT 9999 SCT054/// BKN100/// 10/08 Q0995",
      "taf": "TAF LIRZ 141700Z 1418/1518 VRB06KT 9000 SCT030"
    },
    {
      "icao": "LJLJ",
      "alert": "OK",
      "vis_m": 3000,
      "fzfg": false,
      "metar_trigger": false,
      "taf_trigger": false,
      "metar": "METAR LJLJ 141730Z 00000KT 3000 -RA BR BKN014 OVC035 07/06 Q1000 NOSIG",
      "taf": "TAF LJLJ 141700Z 1418/1518 VRB02KT 9999 FEW010 SCT030 BKN040"
    },
    {
      "icao": "LKMT",
      "alert": "OK",
      "vis_m": 2000,
      "fzfg": false,
      "metar_trigger": false,
      "taf_trigger": false,
      "metar": "METAR LKMT 141730Z 02008KT 2000 -SN BR OVC004 00/00 Q1007 TEMPO 1200 SN BR",
      "taf": "TAF LKMT 141700Z 1418/1518 01010KT 3500 -SN BR OVC005"
    },
    {
      "icao": "LKPR",
      "alert": "OK",
      "vis_m": 9999,
      "fzfg": false,
      "metar_trigger": false,
      "taf_trigger": false,
      "metar": "METAR LKPR 141730Z 35013KT 9999 FEW008 OVC012 M01/M02 Q1008 TEMPO BKN009",
      "taf": "TAF LKPR 141700Z 1418/1524 01006KT 9999 BKN017"
    },
    {
      "icao": "LLBG",
      "alert": "OK",
      "vis_m": 4000,
      "fzfg": false,
      "metar_trigger": false,
      "taf_trigger": false,
      "metar": "METAR LLBG 141720Z VRB01KT 4000 DU NSC 17/13 Q1018 BECMG 5000 DU",
      "taf": "TAF LLBG 141706Z 1418/1518 14005KT 4000 DU NSC"
    },
    {
      "icao": "LMML",
      "alert": "OK",
      "vis_m": 9999,
      "fzfg": false,
      "metar_trigger": false,
      "taf_trigger": false,
      "metar": "METAR LMML 141715Z 29005KT 9999 -RA NSC 15/12 Q0997 NOSIG",
      "taf": "TAF LMML 141700Z 1418/1518 32010KT 9999 FEW018"
    },
    {
      "icao": "LOWW",
      "alert": "OK",
      "vis_m": 9999,
      "fzfg": false,
      "metar_trigger": false,
      "taf_trigger": false,
      "metar": "METAR LOWW 141720Z 35010KT 9999 FEW010 BKN011 05/03 Q1003 TEMPO BKN020",
      "taf": "TAF LOWW 141715Z 1418/1524 35010KT 9999 BKN020 TX05/1418Z TNM04/1524Z"
    },
    {
      "icao": "LPFR",
      "alert": "OK",
      "vis_m": 9999,
      "fzfg": false,
      "metar_trigger": false,
      "taf_trigger": false,
      "metar": "METAR LPFR 141700Z 30017KT 9999 FEW040 15/06 Q1026",
      "taf": "TAF LPFR 141700Z 1418/1518 32013KT 9999 SCT035"
    },
    {
      "icao": "LPMA",
      "alert": "OK",
      "vis_m": 9999,
      "fzfg": false,
      "metar_trigger": false,
      "taf_trigger": false,
      "metar": "METAR LPMA 141700Z 01010KT 340V050 9999 FEW018 18/08 Q1031",
      "taf": "TAF LPMA 141700Z 1418/1518 02010KT 9999 SCT016"
    },
    {
      "icao": "LPPR",
      "alert": "OK",
      "vis_m": 9999,
      "fzfg": false,
      "metar_trigger": false,
      "taf_trigger": false,
      "metar": "METAR LPPR 141700Z 32009KT 290V360 9999 FEW025 12/06 Q1027",
      "taf": "TAF LPPR 141700Z 1418/1518 34010KT 9999 FEW030"
    },
    {
      "icao": "LPPS",
      "alert": "OK",
      "vis_m": 9999,
      "fzfg": false,
      "metar_trigger": false,
      "taf_trigger": false,
      "metar": "METAR LPPS 141700Z 06009KT 030V090 9999 SCT015 16/09 Q1031",
      "taf": "TAF LPPS 141700Z 1418/1524 06015KT 9999 SCT015"
    },
    {
      "icao": "LPPT",
      "alert": "OK",
      "vis_m": 9999,
      "fzfg": false,
      "metar_trigger": false,
      "taf_trigger": false,
      "metar": "METAR LPPT 141700Z 32012KT 290V350 9999 FEW020 13/05 Q1028",
      "taf": "TAF LPPT 141700Z 1418/1524 33012KT 9999 SCT040"
    },
    {
      "icao": "LQBK",
      "alert": "OK",
      "vis_m": 9999,
      "fzfg": false,
      "metar_trigger": false,
      "taf_trigger": false,
      "metar": "METAR LQBK 141730Z 28003KT 250V310 CAVOK 08/08 Q1000 NOSIG",
      "taf": "TAF LQBK 141700Z 1418/1518 26004KT 9999 SCT045 TX07/1418Z TNM00/1518Z"
    },
    {
      "icao": "LQSA",
      "alert": "OK",
      "vis_m": 9999,
      "fzfg": false,
      "metar_trigger": false,
      "taf_trigger": false,
      "metar": "METAR LQSA 141730Z 15013KT 9999 -RA BKN045 09/05 Q1000 NOSIG",
      "taf": "TAF LQSA 141700Z 1418/1518 14005KT 9999 BKN045 TX07/1418Z TNM01/1518Z"
    },
    {
      "icao": "LQTZ",
      "alert": "OK",
      "vis_m": 9999,
      "fzfg": false,
      "metar_trigger": false,
      "taf_trigger": false,
      "metar": "METAR LQTZ 141730Z 10007KT 9999 BKN055 11/05 Q1000",
      "taf": "TAF LQTZ 141700Z 1418/1518 16005KT 9999 SCT050 TX10/1418Z TN01/1518Z"
    },
    {
      "icao": "LRBC",
      "alert": "OK",
      "vis_m": 9999,
      "fzfg": false,
      "metar_trigger": false,
      "taf_trigger": false,
      "metar": "METAR LRBC 141700Z 17011KT CAVOK 07/06 Q1006",
      "taf": "TAF LRBC 141700Z 1418/1503 16008KT CAVOK"
    },
    {
      "icao": "LRBS",
      "alert": "OK",
      "vis_m": 7000,
      "fzfg": false,
      "metar_trigger": false,
      "taf_trigger": false,
      "metar": "METAR LRBS 141700Z 05005KT 7000 NSC 07/05 Q1006 BECMG 3000 BR",
      "taf": "TAF LRBS 141700Z 1418/1518 VRB04KT 3000 BR NSC"
    },
    {
      "icao": "LRBV",
      "alert": "OK",
      "vis_m": 9999,
      "fzfg": false,
      "metar_trigger": false,
      "taf_trigger": false,
      "metar": "METAR LRBV 141700Z 15005KT CAVOK 07/02 Q1005",
      "taf": "TAF LRBV 141700Z 1418/1503 VRB04KT CAVOK"
    },
    {
      "icao": "LRCL",
      "alert": "OK",
      "vis_m": 9999,
      "fzfg": false,
      "metar_trigger": false,
      "taf_trigger": false,
      "metar": "METAR LRCL 141700Z VRB02KT CAVOK 08/02 Q1004",
      "taf": "TAF LRCL 141700Z 1418/1503 VRB04KT CAVOK"
    },
    {
      "icao": "LRCV",
      "alert": "OK",
      "vis_m": 9999,
      "fzfg": false,
      "metar_trigger": false,
      "taf_trigger": false,
      "metar": "METAR LRCV 141700Z 09007KT CAVOK 07/06 Q1004",
      "taf": "TAF LRCV 141700Z 1418/1503 09006KT CAVOK"
    },
    {
      "icao": "LRIA",
      "alert": "OK",
      "vis_m": 9999,
      "fzfg": false,
      "metar_trigger": false,
      "taf_trigger": false,
      "metar": "METAR LRIA 141700Z 08006KT CAVOK 08/08 Q1006",
      "taf": "TAF LRIA 141700Z 1418/1503 08006KT CAVOK"
    },
    {
      "icao": "LROP",
      "alert": "OK",
      "vis_m": 5000,
      "fzfg": false,
      "metar_trigger": false,
      "taf_trigger": false,
      "metar": "METAR LROP 141700Z 06006KT 5000 BR NSC 06/05 Q1006 BECMG 3000 BR",
      "taf": "TAF LROP 141700Z 1418/1518 VRB04KT 3000 BR NSC"
    },
    {
      "icao": "LRSB",
      "alert": "OK",
      "vis_m": 9999,
      "fzfg": false,
      "metar_trigger": false,
      "taf_trigger": false,
      "metar": "METAR LRSB 141700Z 10004KT CAVOK 07/02 Q1003",
      "taf": "TAF LRSB 141700Z 1418/1518 VRB04KT CAVOK"
    },
    {
      "icao": "LRSM",
      "alert": "OK",
      "vis_m": 9999,
      "fzfg": false,
      "metar_trigger": false,
      "taf_trigger": false,
      "metar": "METAR LRSM 141700Z AUTO 07007KT 9999 BKN170/// 08/05 Q1004",
      "taf": ""
    },
    {
      "icao": "LRSV",
      "alert": "OK",
      "vis_m": 8000,
      "fzfg": false,
      "metar_trigger": false,
      "taf_trigger": false,
      "metar": "METAR LRSV 141700Z 01005KT 8000 NSC 04/03 Q1005",
      "taf": "TAF LRSV 141700Z 1418/1503 03006KT 7000 NSC"
    },
    {
      "icao": "LRTM",
      "alert": "OK",
      "vis_m": 9999,
      "fzfg": false,
      "metar_trigger": false,
      "taf_trigger": false,
      "metar": "METAR LRTM 141700Z 08003KT CAVOK 06/03 Q1004",
      "taf": "TAF LRTM 141700Z 1418/1503 VRB04KT CAVOK"
    },
    {
      "icao": "LRTR",
      "alert": "OK",
      "vis_m": 9999,
      "fzfg": false,
      "metar_trigger": false,
      "taf_trigger": false,
      "metar": "METAR LRTR 141700Z 11005KT CAVOK 09/06 Q1002",
      "taf": "TAF LRTR 141700Z 1418/1518 10007KT CAVOK"
    },
    {
      "icao": "LTAC",
      "alert": "OK",
      "vis_m": 9999,
      "fzfg": false,
      "metar_trigger": false,
      "taf_trigger": false,
      "metar": "METAR LTAC 141720Z 26005KT 9999 FEW040 SCT180 06/02 Q1014 NOSIG RMK RWY21C 18004KT 130V240 RWY03L 26006KT 230V290 RWY21R 22004KT RWY03R 24004KT RWY21L 15004KT 120V270",
      "taf": "TAF LTAC 141640Z 1418/1518 26012KT 9999 SCT040"
    },
    {
      "icao": "LTFM",
      "alert": "OK",
      "vis_m": 9999,
      "fzfg": false,
      "metar_trigger": false,
      "taf_trigger": false,
      "metar": "METAR LTFM 141720Z 17005KT CAVOK 12/07 Q1010 NOSIG RMK RWY17L 17008KT RWY34L 20003KT RWY16R 16008KT RWY36 17007KT RWY18 17007KT",
      "taf": "TAF LTFM 141640Z 1418/1524 16012KT CAVOK"
    },
    {
      "icao": "LUKK",
      "alert": "OK",
      "vis_m": 9999,
      "fzfg": false,
      "metar_trigger": false,
      "taf_trigger": false,
      "metar": "METAR LUKK 141730Z 17007KT CAVOK 05/03 Q1008 NOSIG",
      "taf": "TAF LUKK 141710Z 1418/1518 14006KT CAVOK"
    },
    {
      "icao": "LWOH",
      "alert": "OK",
      "vis_m": 9999,
      "fzfg": false,
      "metar_trigger": false,
      "taf_trigger": false,
      "metar": "METAR LWOH 141650Z 33006KT 300V360 9999 -RA FEW015 BKN040 08/06 Q1003",
      "taf": "TAF LWOH 141430Z 1415/1515 18010KT 9999 RA SCT015 OVC035"
    },
    {
      "icao": "LWSK",
      "alert": "OK",
      "vis_m": 6000,
      "fzfg": false,
      "metar_trigger": false,
      "taf_trigger": false,
      "metar": "METAR LWSK 141720Z VRB01KT 6000 -RA FEW025 OVC065 08/07 Q1006 NOSIG",
      "taf": "TAF LWSK 141430Z 1415/1515 VRB02KT 9999 SCT040 OVC070"
    },
    {
      "icao": "LYBE",
      "alert": "OK",
      "vis_m": 9999,
      "fzfg": false,
      "metar_trigger": false,
      "taf_trigger": false,
      "metar": "METAR LYBE 141730Z 12008KT CAVOK 09/05 Q1001 NOSIG",
      "taf": "TAF LYBE 141700Z 1418/1518 10007KT CAVOK TX09/1418Z TN02/1518Z"
    },
    {
      "icao": "LYNI",
      "alert": "OK",
      "vis_m": 9999,
      "fzfg": false,
      "metar_trigger": false,
      "taf_trigger": false,
      "metar": "METAR LYNI 141730Z 16004KT 120V190 9999 -RA OVC083 11/04 Q1004 NOSIG",
      "taf": "TAF LYNI 141700Z 1418/1518 10005KT 9999 BKN070 TX11/1510Z TN03/1518Z"
    },
    {
      "icao": "LYPG",
      "alert": "OK",
      "vis_m": 8000,
      "fzfg": false,
      "metar_trigger": false,
      "taf_trigger": false,
      "metar": "METAR LYPG 141730Z 08003KT 010V120 8000 RA FEW010 BKN040 OVC070 10/09 Q1003 TEMPO 4000",
      "taf": "TAF LYPG 141700Z 1418/1518 12008KT 8000 FEW010 BKN034 OVC070 TX11/1512Z TN07/1518Z"
    },
    {
      "icao": "LZIB",
      "alert": "OK",
      "vis_m": 9999,
      "fzfg": false,
      "metar_trigger": false,
      "taf_trigger": false,
      "metar": "METAR LZIB 141730Z 28008KT CAVOK 08/05 Q1002 NOSIG",
      "taf": "TAF LZIB 141715Z 1418/1518 35006KT 9999 SCT035"
    },
    {
      "icao": "LZKZ",
      "alert": "OK",
      "vis_m": 9999,
      "fzfg": false,
      "metar_trigger": false,
      "taf_trigger": false,
      "metar": "METAR LZKZ 141730Z 01005KT CAVOK 05/04 Q1004 NOSIG",
      "taf": "TAF LZKZ 141715Z 1418/1518 01006KT 9999 FEW008 SCT040"
    },
    {
      "icao": "LZTT",
      "alert": "OK",
      "vis_m": 9999,
      "fzfg": false,
      "metar_trigger": false,
      "taf_trigger": false,
      "metar": "METAR LZTT 141730Z VRB02KT 9999 SCT006 BKN033 02/02 Q1003 NOSIG",
      "taf": "TAF LZTT 141715Z 1418/1518 08005KT 9999 FEW006 BKN035"
    },
    {
      "icao": "OEJN",
      "alert": "OK",
      "vis_m": 9999,
      "fzfg": false,
      "metar_trigger": false,
      "taf_trigger": false,
      "metar": "METAR OEJN 141700Z 32007KT CAVOK 28/13 Q1013 NOSIG",
      "taf": "TAF OEJN 141700Z 1418/1524 03005KT CAVOK"
    },
    {
      "icao": "OEMA",
      "alert": "OK",
      "vis_m": 9999,
      "fzfg": false,
      "metar_trigger": false,
      "taf_trigger": false,
      "metar": "METAR OEMA 141700Z 29007KT CAVOK 28/M08 Q1017 NOSIG",
      "taf": "TAF OEMA 141700Z 1418/1524 31008KT CAVOK"
    },
    {
      "icao": "OJAI",
      "alert": "OK",
      "vis_m": 2500,
      "fzfg": false,
      "metar_trigger": false,
      "taf_trigger": false,
      "metar": "METAR OJAI 141700Z 24012KT 2500 DU NSC 13/04 Q1019 NOSIG",
      "taf": "TAF OJAI 141700Z 1418/1524 25014KT 1500 DU NSC"
    },
    {
      "icao": "OMAA",
      "alert": "OK",
      "vis_m": 9999,
      "fzfg": false,
      "metar_trigger": false,
      "taf_trigger": false,
      "metar": "METAR OMAA 141730Z 01007KT CAVOK 24/13 Q1015 NOSIG",
      "taf": "TAF OMAA 141700Z 1418/1600 03006KT 8000 NSC"
    },
    {
      "icao": "OMDB",
      "alert": "OK",
      "vis_m": 9999,
      "fzfg": false,
      "metar_trigger": false,
      "taf_trigger": false,
      "metar": "METAR OMDB 141730Z 33005KT 300V030 CAVOK 25/14 Q1015 NOSIG",
      "taf": "TAF OMDB 141700Z 1418/1600 14005KT CAVOK"
    },
    {
      "icao": "UAAA",
      "alert": "OK",
      "vis_m": 1600,
      "fzfg": false,
      "metar_trigger": false,
      "taf_trigger": false,
      "metar": "METAR UAAA 141700Z 12003MPS 1600 R23L/P2000U BR BKN050CB OVC100 01/M00 Q1023 NOSIG",
      "taf": "TAF UAAA 141702Z 1418/1518 34003MPS 1200 BR FU BKN011 OVC020 TX03/1509Z TNM04/1502Z"
    },
    {
      "icao": "UBBB",
      "alert": "OK",
      "vis_m": 9999,
      "fzfg": false,
      "metar_trigger": false,
      "taf_trigger": false,
      "metar": "METAR UBBB 141730Z 18010KT CAVOK 14/06 Q1000 NOSIG",
      "taf": "TAF UBBB 141700Z 1418/1518 31020G30KT 8000 BKN008 BKN025 TX12/1510Z TN07/1501Z"
    },
    {
      "icao": "UDSG",
      "alert": "OK",
      "vis_m": 400,
      "fzfg": false,
      "metar_trigger": false,
      "taf_trigger": false,
      "metar": "METAR UDSG 141700Z 30002KT 0400 R02/1200U FG VV005 01/01 Q1013 NOSIG",
      "taf": "TAF UDSG 141700Z 1418/1518 VRB06KT 1200 BR BKN010"
    },
    {
      "icao": "UDYZ",
      "alert": "OK",
      "vis_m": 5000,
      "fzfg": false,
      "metar_trigger": false,
      "taf_trigger": false,
      "metar": "METAR UDYZ 141700Z 07002KT 5000 BR FEW046 05/04 Q1011 NOSIG",
      "taf": "TAF UDYZ 141700Z 1418/1518 VRB04KT 3500 BR FEW040"
    },
    {
      "icao": "UGKO",
      "alert": "OK",
      "vis_m": 9999,
      "fzfg": false,
      "metar_trigger": false,
      "taf_trigger": false,
      "metar": "METAR UGKO 141700Z 25007KT 220V280 9999 BKN072 14/08 Q1009 NOSIG",
      "taf": "TAF UGKO 141700Z 1418/1518 25007KT 9999 BKN050 TX18/1511Z TN10/1504Z"
    }
  ]
}