{
  "ts_utc": "2026-02-19T05:13:28Z",
  "threshold_m": 150,
  "source": "stations_override.txt (ICAO list) + aviationweather.gov (METAR/TAF raw)",
  "station_count": 159,
  "stations": [
    {
      "icao": "BIKF",
      "alert": "OK",
      "vis_m": 9999,
      "fzfg": false,
      "metar_trigger": false,
      "taf_trigger": false,
      "metar": "METAR BIKF 190500Z 04017KT CAVOK M04/M08 Q1011",
      "taf": "TAF BIKF 190436Z 1906/2006 04022G32KT 9999 FEW040 TX01/1915Z TNM04/1906Z"
    },
    {
      "icao": "BKPR",
      "alert": "OK",
      "vis_m": 9999,
      "fzfg": false,
      "metar_trigger": false,
      "taf_trigger": false,
      "metar": "METAR BKPR 190500Z 03004KT CAVOK M03/M04 Q1016 NOSIG",
      "taf": ""
    },
    {
      "icao": "EBCI",
      "alert": "OK",
      "vis_m": 9999,
      "fzfg": false,
      "metar_trigger": false,
      "taf_trigger": false,
      "metar": "METAR EBCI 190450Z 11008KT 9999 -RA FEW011 BKN024 04/03 Q0993 TEMPO BKN008",
      "taf": "TAF EBCI 182300Z 1900/2006 12011KT 9999 SCT011 BKN018"
    },
    {
      "icao": "EDDB",
      "alert": "OK",
      "vis_m": 9999,
      "fzfg": false,
      "metar_trigger": false,
      "taf_trigger": false,
      "metar": "METAR EDDB 190450Z AUTO 07006KT CAVOK M10/M11 Q1012 NOSIG",
      "taf": "TAF EDDB 182300Z 1900/1924 09004KT CAVOK"
    },
    {
      "icao": "EDDH",
      "alert": "OK",
      "vis_m": 9999,
      "fzfg": false,
      "metar_trigger": false,
      "taf_trigger": false,
      "metar": "METAR EDDH 190450Z AUTO 09010KT 060V120 CAVOK M06/M09 Q1011 NOSIG",
      "taf": "TAF EDDH 182300Z 1900/2006 10007KT CAVOK"
    },
    {
      "icao": "EDDK",
      "alert": "OK",
      "vis_m": 9999,
      "fzfg": false,
      "metar_trigger": false,
      "taf_trigger": false,
      "metar": "METAR EDDK 190450Z AUTO 11012KT 080V140 9999 -SHSNRA BKN016 BKN034 BKN047 FEW///TCU 02/00 Q0999 TEMPO 4000 SNRA BKN014",
      "taf": "TAF EDDK 182300Z 1900/2006 12012KT 9999 OVC020"
    },
    {
      "icao": "EDDN",
      "alert": "OK",
      "vis_m": 6000,
      "fzfg": false,
      "metar_trigger": false,
      "taf_trigger": false,
      "metar": "METAR EDDN 190450Z AUTO 11007KT 6000 -SN FEW026 SCT031 BKN041 M01/M02 Q1003",
      "taf": "TAF EDDN 182300Z 1900/1924 09007KT 9999 BKN020"
    },
    {
      "icao": "EDDS",
      "alert": "OK",
      "vis_m": 9999,
      "fzfg": false,
      "metar_trigger": false,
      "taf_trigger": false,
      "metar": "METAR EDDS 190450Z AUTO 10004KT 070V130 9999 -SHRA BKN032 OVC043 FEW///TCU 02/01 Q0999 RESHRA",
      "taf": "TAF EDDS 182300Z 1900/1924 09007KT 9999 BKN020"
    },
    {
      "icao": "EDFH",
      "alert": "OK",
      "vis_m": 5000,
      "fzfg": false,
      "metar_trigger": false,
      "taf_trigger": false,
      "metar": "METAR EDFH 190450Z 13019KT 5000 -SN BKN002 M01/M01 Q0997",
      "taf": ""
    },
    {
      "icao": "EDJA",
      "alert": "OK",
      "vis_m": 7000,
      "fzfg": false,
      "metar_trigger": false,
      "taf_trigger": false,
      "metar": "METAR EDJA 190450Z 08004KT 050V120 7000 OVC003 00/M00 Q0999",
      "taf": ""
    },
    {
      "icao": "EDLW",
      "alert": "OK",
      "vis_m": 9999,
      "fzfg": false,
      "metar_trigger": false,
      "taf_trigger": false,
      "metar": "METAR EDLW 190450Z COR 03010KT 9999 FEW032 OVC036 00/M02 Q1001",
      "taf": "TAF EDLW 190420Z 1905/1924 07012KT 6000 BKN020"
    },
    {
      "icao": "EDNY",
      "alert": "OK",
      "vis_m": 9999,
      "fzfg": false,
      "metar_trigger": false,
      "taf_trigger": false,
      "metar": "METAR EDNY 190450Z 27004KT 220V350 9999 OVC007 02/02 Q1001",
      "taf": "TAF EDNY 190200Z 1903/1912 04004KT 9000 FEW010 BKN050"
    },
    {
      "icao": "EDSB",
      "alert": "OK",
      "vis_m": 5000,
      "fzfg": false,
      "metar_trigger": false,
      "taf_trigger": false,
      "metar": "METAR EDSB 190450Z 20003KT 5000 RA BKN003 04/03 Q1000",
      "taf": ""
    },
    {
      "icao": "EETN",
      "alert": "OK",
      "vis_m": 2500,
      "fzfg": false,
      "metar_trigger": false,
      "taf_trigger": false,
      "metar": "METAR EETN 190450Z 08006KT 2500 SN OVC030 M10/M12 Q1009 NOSIG",
      "taf": "TAF EETN 182330Z 1900/1924 2008KT 9999 SCT035 BKN045"
    },
    {
      "icao": "EFTU",
      "alert": "OK",
      "vis_m": 9999,
      "fzfg": false,
      "metar_trigger": false,
      "taf_trigger": false,
      "metar": "METAR EFTU 190450Z AUTO 07004KT 9999 -SN FEW030 M13/M15 Q1011",
      "taf": "TAF EFTU 190236Z 1903/2003 07005KT 9999 -SN NSC"
    },
    {
      "icao": "EGBB",
      "alert": "OK",
      "vis_m": 5000,
      "fzfg": false,
      "metar_trigger": false,
      "taf_trigger": false,
      "metar": "METAR EGBB 190450Z 04008KT 5000 RADZ OVC005 02/01 Q0995",
      "taf": "TAF EGBB 190457Z 1906/2006 04010KT 9999 BKN009"
    },
    {
      "icao": "EGGP",
      "alert": "OK",
      "vis_m": 9999,
      "fzfg": false,
      "metar_trigger": false,
      "taf_trigger": false,
      "metar": "METAR EGGP 190450Z 05007KT 9999 -RA FEW014 SCT019 BKN037 02/01 Q0997",
      "taf": "TAF EGGP 190459Z 1906/2006 06008KT 9999 SCT020"
    },
    {
      "icao": "EGGW",
      "alert": "OK",
      "vis_m": 4800,
      "fzfg": false,
      "metar_trigger": false,
      "taf_trigger": false,
      "metar": "METAR EGGW 190450Z AUTO 06009KT 4800 BR OVC002 04/03 Q0992",
      "taf": "TAF EGGW 190504Z 1906/2006 05010KT 9999 OVC002"
    },
    {
      "icao": "EGKK",
      "alert": "OK",
      "vis_m": 6000,
      "fzfg": false,
      "metar_trigger": false,
      "taf_trigger": false,
      "metar": "METAR EGKK 190450Z 05007KT 6000 -RA BKN002 06/06 Q0991",
      "taf": "TAF EGKK 190454Z 1906/2012 03006KT 9999 BKN006"
    },
    {
      "icao": "EGNM",
      "alert": "OK",
      "vis_m": 4000,
      "fzfg": false,
      "metar_trigger": false,
      "taf_trigger": false,
      "metar": "METAR EGNM 190450Z 07010KT 4000 BR SCT008 BKN016 01/01 Q0997",
      "taf": "TAF EGNM 190500Z 1906/2006 06010KT 9999 SCT010 BKN016"
    },
    {
      "icao": "EGPD",
      "alert": "OK",
      "vis_m": 9999,
      "fzfg": false,
      "metar_trigger": false,
      "taf_trigger": false,
      "metar": "METAR EGPD 190450Z COR AUTO 15011KT 9999 SCT026 OVC030 04/M01 Q1004 NOSIG",
      "taf": "TAF EGPD 190500Z 1906/2006 16012KT 9999 SCT030"
    },
    {
      "icao": "EGPF",
      "alert": "OK",
      "vis_m": 9999,
      "fzfg": false,
      "metar_trigger": false,
      "taf_trigger": false,
      "metar": "METAR EGPF 190450Z AUTO 06013KT 9999 NCD 03/M00 Q1001",
      "taf": "TAF EGPF 190458Z 1906/2006 09009KT 9999 SCT040"
    },
    {
      "icao": "EHBK",
      "alert": "OK",
      "vis_m": 9999,
      "fzfg": false,
      "metar_trigger": false,
      "taf_trigger": false,
      "metar": "METAR EHBK 190455Z AUTO 09011KT 050V130 9999 DZ OVC039 02/01 Q0996",
      "taf": "TAF EHBK 182320Z 1900/2006 09012KT 9999 -RA BKN030"
    },
    {
      "icao": "EHEH",
      "alert": "OK",
      "vis_m": 5000,
      "fzfg": false,
      "metar_trigger": false,
      "taf_trigger": false,
      "metar": "METAR EHEH 190455Z AUTO 09014KT 050V130 5000 -RA SCT007 OVC008 02/00 Q0997 GRN RMK TREND REMOTE BY EHWX",
      "taf": ""
    },
    {
      "icao": "EKBI",
      "alert": "OK",
      "vis_m": 9999,
      "fzfg": false,
      "metar_trigger": false,
      "taf_trigger": false,
      "metar": "METAR EKBI 190450Z AUTO 05004KT 010V070 9999 BKN026/// M05/M05 Q1012",
      "taf": "TAF EKBI 190227Z 1903/2003 VRB03KT 9999 BKN025"
    },
    {
      "icao": "EKCH",
      "alert": "OK",
      "vis_m": 6000,
      "fzfg": false,
      "metar_trigger": false,
      "taf_trigger": false,
      "metar": "METAR EKCH 190450Z 03010KT 6000 SCT007 M03/M04 Q1013 TEMPO BKN008",
      "taf": "TAF EKCH 190227Z 1903/2003 31008KT 9999 BKN015"
    },
    {
      "icao": "ENAL",
      "alert": "OK",
      "vis_m": 9999,
      "fzfg": false,
      "metar_trigger": false,
      "taf_trigger": false,
      "metar": "METAR ENAL 190450Z 22015KT 9999 FEW029 SCT042 BKN051 03/M02 Q1009",
      "taf": "TAF ENAL 190200Z 1903/1912 19012KT 9999 SCT010 BKN020"
    },
    {
      "icao": "ENBR",
      "alert": "OK",
      "vis_m": 9999,
      "fzfg": false,
      "metar_trigger": false,
      "taf_trigger": false,
      "metar": "METAR ENBR 190450Z 11006KT CAVOK M03/M05 Q1012 RMK WIND 1200FT 14011KT",
      "taf": "TAF ENBR 182300Z 1900/1924 11005KT 9999 FEW040"
    },
    {
      "icao": "ENGM",
      "alert": "OK",
      "vis_m": 1000,
      "fzfg": true,
      "metar_trigger": false,
      "taf_trigger": false,
      "metar": "METAR ENGM 190450Z VRB01KT 1000 0550SW R19R/P2000N R01R/1100U R19L/0800D R01L/1000D FZFG VV002 M17/M19 Q1012 TEMPO 0700",
      "taf": "TAF ENGM 182300Z 1900/1924 VRB03KT 9999 BKN005"
    },
    {
      "icao": "ENHD",
      "alert": "OK",
      "vis_m": 9999,
      "fzfg": false,
      "metar_trigger": false,
      "taf_trigger": false,
      "metar": "METAR ENHD 190450Z AUTO 10010KT 9999 NCD M03/M05 Q1012",
      "taf": "TAF ENHD 190200Z 1903/1912 12008KT 9999 FEW010"
    },
    {
      "icao": "ENTC",
      "alert": "OK",
      "vis_m": 9999,
      "fzfg": false,
      "metar_trigger": false,
      "taf_trigger": false,
      "metar": "METAR ENTC 190450Z 22010KT 9999 VCSH BKN015 M05/M08 Q1008 RMK WIND 2600FT 13013KT",
      "taf": ""
    },
    {
      "icao": "ENTO",
      "alert": "OK",
      "vis_m": 9999,
      "fzfg": false,
      "metar_trigger": false,
      "taf_trigger": false,
      "metar": "METAR ENTO 190450Z VRB01KT CAVOK M11/M12 Q1013",
      "taf": "TAF ENTO 182300Z 1900/1924 34005KT 9999 FEW005"
    },
    {
      "icao": "ENVA",
      "alert": "OK",
      "vis_m": 9999,
      "fzfg": false,
      "metar_trigger": false,
      "taf_trigger": false,
      "metar": "METAR ENVA 190450Z 10004KT 9999 FEW046 M09/M10 Q1009 RMK WIND 670FT 15004KT",
      "taf": "TAF ENVA 182300Z 1900/1924 10005KT 9999 FEW015 BKN030"
    },
    {
      "icao": "ENZV",
      "alert": "OK",
      "vis_m": 9999,
      "fzfg": false,
      "metar_trigger": false,
      "taf_trigger": false,
      "metar": "METAR ENZV 190450Z 12009KT CAVOK M05/M08 Q1012",
      "taf": "TAF ENZV 182300Z 1900/1924 14005KT 9999 FEW002 SCT020"
    },
    {
      "icao": "EPGD",
      "alert": "OK",
      "vis_m": 9999,
      "fzfg": false,
      "metar_trigger": false,
      "taf_trigger": false,
      "metar": "METAR EPGD 190500Z 22003KT 9999 -SN BKN028 M06/M08 Q1011",
      "taf": "TAF EPGD 182330Z 1900/1924 24005KT 9999 BKN025"
    },
    {
      "icao": "EPKK",
      "alert": "OK",
      "vis_m": 5000,
      "fzfg": false,
      "metar_trigger": false,
      "taf_trigger": false,
      "metar": "METAR EPKK 190500Z 03004KT 350V050 5000 BR OVC011 M02/M05 Q1011",
      "taf": "TAF EPKK 190230Z 1903/2003 VRB02KT 6000 BKN012"
    },
    {
      "icao": "EPKT",
      "alert": "OK",
      "vis_m": 4400,
      "fzfg": false,
      "metar_trigger": false,
      "taf_trigger": false,
      "metar": "METAR EPKT 190500Z 02001KT 4400 BR OVC032 M05/M07 Q1011",
      "taf": "TAF EPKT 182330Z 1900/1924 34007KT 9999 BKN035"
    },
    {
      "icao": "EPLB",
      "alert": "OK",
      "vis_m": 3200,
      "fzfg": false,
      "metar_trigger": false,
      "taf_trigger": false,
      "metar": "METAR EPLB 190500Z 27007KT 3200 BR FEW006 BKN039 M10/M10 Q1012",
      "taf": ""
    },
    {
      "icao": "EPMO",
      "alert": "OK",
      "vis_m": 4500,
      "fzfg": false,
      "metar_trigger": false,
      "taf_trigger": false,
      "metar": "METAR EPMO 190500Z 26005KT 4500 BR SCT024 BKN044 M07/M07 Q1012",
      "taf": "TAF EPMO 182330Z 1900/1924 26004KT 6000 SCT030"
    },
    {
      "icao": "EPPO",
      "alert": "OK",
      "vis_m": 7000,
      "fzfg": false,
      "metar_trigger": false,
      "taf_trigger": false,
      "metar": "METAR EPPO 190500Z VRB01KT 7000 NSC M11/M13 Q1013",
      "taf": "TAF EPPO 182330Z 1900/1924 VRB02KT CAVOK"
    },
    {
      "icao": "EPRA",
      "alert": "OK",
      "vis_m": 6000,
      "fzfg": false,
      "metar_trigger": false,
      "taf_trigger": false,
      "metar": "METAR EPRA 190500Z 23006KT 6000 NSC M10/M11 Q1012",
      "taf": "TAF EPRA 190230Z 1903/1912 26004KT 7000 NSC"
    },
    {
      "icao": "EPRZ",
      "alert": "OK",
      "vis_m": 8000,
      "fzfg": false,
      "metar_trigger": false,
      "taf_trigger": false,
      "metar": "METAR EPRZ 190500Z 06004KT 8000 OVC025 M04/M07 Q1012",
      "taf": "TAF EPRZ 182330Z 1900/1924 35005KT 9999 BKN016"
    },
    {
      "icao": "EPSC",
      "alert": "OK",
      "vis_m": 9999,
      "fzfg": false,
      "metar_trigger": false,
      "taf_trigger": false,
      "metar": "METAR EPSC 190500Z 14002KT CAVOK M09/M10 Q1013",
      "taf": "TAF EPSC 182330Z 1900/1924 VRB02KT 9000 SCT030"
    },
    {
      "icao": "EPSY",
      "alert": "OK",
      "vis_m": 9000,
      "fzfg": false,
      "metar_trigger": false,
      "taf_trigger": false,
      "metar": "METAR EPSY 190500Z 22002KT 9000 NSC M13/M15 Q1011",
      "taf": "TAF EPSY 190230Z 1903/1912 25006KT 9999 SCT040"
    },
    {
      "icao": "EPWA",
      "alert": "OK",
      "vis_m": 7000,
      "fzfg": false,
      "metar_trigger": false,
      "taf_trigger": false,
      "metar": "METAR EPWA 190500Z 26004KT 7000 -SN FEW008 OVC046 M05/M06 Q1012 NOSIG",
      "taf": "TAF EPWA 190230Z 1903/2003 27004KT 6000 SCT030"
    },
    {
      "icao": "EPWR",
      "alert": "OK",
      "vis_m": 3000,
      "fzfg": false,
      "metar_trigger": false,
      "taf_trigger": false,
      "metar": "METAR EPWR 190500Z VRB01KT 3000 BR FEW031 M09/M10 Q1012",
      "taf": "TAF EPWR 190230Z 1903/2003 VRB02KT 3000 BR NSC"
    },
    {
      "icao": "ESGG",
      "alert": "OK",
      "vis_m": 3700,
      "fzfg": true,
      "metar_trigger": false,
      "taf_trigger": false,
      "metar": "METAR ESGG 190450Z 04004KT 3700 FZFG BKN003 M08/M09 Q1012",
      "taf": "TAF ESGG 190230Z 1903/2003 VRB03KT CAVOK"
    },
    {
      "icao": "ESKN",
      "alert": "OK",
      "vis_m": 9999,
      "fzfg": false,
      "metar_trigger": false,
      "taf_trigger": false,
      "metar": "METAR ESKN 190450Z 32002KT CAVOK M16/M18 Q1011",
      "taf": "TAF ESKN 190230Z 1903/2003 33005KT 9999 FEW035"
    },
    {
      "icao": "ESMS",
      "alert": "OK",
      "vis_m": 9999,
      "fzfg": false,
      "metar_trigger": false,
      "taf_trigger": false,
      "metar": "METAR ESMS 190450Z 05008KT 9999 FEW007 OVC009 M03/M04 Q1012",
      "taf": ""
    },
    {
      "icao": "ESSA",
      "alert": "OK",
      "vis_m": 9999,
      "fzfg": false,
      "metar_trigger": false,
      "taf_trigger": false,
      "metar": "METAR ESSA 190450Z 26003KT 9999 FEW031 M13/M15 Q1011 NOSIG",
      "taf": "TAF ESSA 190230Z 1903/2003 35005KT 9999 BKN030"
    },
    {
      "icao": "EYKA",
      "alert": "OK",
      "vis_m": 4100,
      "fzfg": false,
      "metar_trigger": false,
      "taf_trigger": false,
      "metar": "METAR EYKA 190450Z 20004KT 150V240 4100 -SN BR OVC007 M07/M08 Q1008",
      "taf": "TAF EYKA 190500Z 1906/2006 VRB04KT 5000 BR OVC010"
    },
    {
      "icao": "EYPA",
      "alert": "OK",
      "vis_m": 9999,
      "fzfg": false,
      "metar_trigger": false,
      "taf_trigger": false,
      "metar": "METAR EYPA 190450Z VRB01KT 9999 SCT046 M09/M10 Q1008",
      "taf": "TAF EYPA 190500Z 1906/2006 VRB04KT 6000 SCT015 BKN020"
    },
    {
      "icao": "EYVI",
      "alert": "OK",
      "vis_m": 8000,
      "fzfg": false,
      "metar_trigger": false,
      "taf_trigger": false,
      "metar": "METAR EYVI 190450Z 18004KT 8000 -SN FEW019 BKN043 M11/M12 Q1007 NOSIG",
      "taf": "TAF EYVI 182315Z 1900/1924 VRB04KT 5000 BR OVC005"
    },
    {
      "icao": "GCFV",
      "alert": "OK",
      "vis_m": 9999,
      "fzfg": false,
      "metar_trigger": false,
      "taf_trigger": false,
      "metar": "METAR GCFV 190500Z AUTO 03018KT 9999 OVC021 16/11 Q1023",
      "taf": "TAF GCFV 190200Z 1903/2003 04016KT 9999 SCT020 TX19/1914Z TN16/1906Z"
    },
    {
      "icao": "GCLP",
      "alert": "OK",
      "vis_m": 9999,
      "fzfg": false,
      "metar_trigger": false,
      "taf_trigger": false,
      "metar": "METAR GCLP 190500Z 01017KT 9999 BKN022 16/11 Q1022 NOSIG",
      "taf": "TAF GCLP 190200Z 1903/2003 01018KT 9999 SCT020 TX20/1914Z TN14/1906Z"
    },
    {
      "icao": "GCTS",
      "alert": "OK",
      "vis_m": 9999,
      "fzfg": false,
      "metar_trigger": false,
      "taf_trigger": false,
      "metar": "METAR GCTS 190500Z 06013KT CAVOK 15/11 Q1022 NOSIG",
      "taf": "TAF GCTS 190200Z 1903/2003 08020KT 9999 FEW015 TX24/1914Z TN16/1906Z"
    },
    {
      "icao": "GMAD",
      "alert": "OK",
      "vis_m": 600,
      "fzfg": false,
      "metar_trigger": false,
      "taf_trigger": false,
      "metar": "METAR GMAD 190500Z 00000KT 0600 R27/0900N FG OVC003 11/09 Q1020 NOSIG",
      "taf": ""
    },
    {
      "icao": "GMMN",
      "alert": "OK",
      "vis_m": 9999,
      "fzfg": false,
      "metar_trigger": false,
      "taf_trigger": false,
      "metar": "METAR GMMN 190500Z 08004KT 9999 SCT016 07/06 Q1025 NOSIG",
      "taf": "TAF GMMN 182300Z 1900/2006 04006KT 9999 BKN016"
    },
    {
      "icao": "GMMX",
      "alert": "OK",
      "vis_m": 2000,
      "fzfg": false,
      "metar_trigger": false,
      "taf_trigger": false,
      "metar": "METAR GMMX 190500Z 24003KT 2000 BR BKN008 09/09 Q1023 TEMPO 0800 FG",
      "taf": "TAF GMMX 182300Z 1900/2006 04006KT 4000 BR BKN010"
    },
    {
      "icao": "HEGN",
      "alert": "OK",
      "vis_m": null,
      "fzfg": false,
      "metar_trigger": false,
      "taf_trigger": false,
      "metar": "",
      "taf": "TAF HEGN 190500Z 1906/2012 34012G22KT CAVOK"
    },
    {
      "icao": "HEMA",
      "alert": "OK",
      "vis_m": 9999,
      "fzfg": false,
      "metar_trigger": false,
      "taf_trigger": false,
      "metar": "METAR HEMA 190400Z 32013KT CAVOK 18/08 Q1016 NOSIG",
      "taf": "TAF HEMA 190500Z 1906/2012 35012G22KT CAVOK"
    },
    {
      "icao": "HESH",
      "alert": "OK",
      "vis_m": 9999,
      "fzfg": false,
      "metar_trigger": false,
      "taf_trigger": false,
      "metar": "METAR HESH 190400Z 35010KT CAVOK 17/07 Q1016 NOSIG",
      "taf": "TAF HESH 190500Z 1906/2012 02014KT CAVOK"
    },
    {
      "icao": "HESX",
      "alert": "OK",
      "vis_m": 9999,
      "fzfg": false,
      "metar_trigger": false,
      "taf_trigger": false,
      "metar": "METAR HESX 190400Z 24006KT CAVOK 08/05 Q1021 NOSIG",
      "taf": "TAF HESX 190500Z 1906/2012 02010KT CAVOK"
    },
    {
      "icao": "LATI",
      "alert": "OK",
      "vis_m": 9999,
      "fzfg": false,
      "metar_trigger": false,
      "taf_trigger": false,
      "metar": "METAR LATI 190450Z 19006KT 9999 FEW055 06/M02 Q1017 NOSIG",
      "taf": "TAF LATI 190500Z 1906/2006 VRB06KT 9999 FEW040 BKN070 TX17/1912Z TN08/2005Z"
    },
    {
      "icao": "LBPD",
      "alert": "OK",
      "vis_m": 9999,
      "fzfg": false,
      "metar_trigger": false,
      "taf_trigger": false,
      "metar": "METAR LBPD 190500Z AUTO 18003KT 150V220 9999 NCD 02/M06 Q1017 NOSIG",
      "taf": "TAF LBPD 182300Z 1900/1924 29016KT CAVOK"
    },
    {
      "icao": "LBSF",
      "alert": "OK",
      "vis_m": 9999,
      "fzfg": false,
      "metar_trigger": false,
      "taf_trigger": false,
      "metar": "METAR LBSF 190500Z 15003KT 120V180 CAVOK M04/M05 Q1017 NOSIG",
      "taf": "TAF LBSF 182300Z 1900/1924 VRB03KT 9999 SCT040"
    },
    {
      "icao": "LBWN",
      "alert": "OK",
      "vis_m": 9999,
      "fzfg": false,
      "metar_trigger": false,
      "taf_trigger": false,
      "metar": "METAR LBWN 190500Z AUTO 34003KT 9999 NCD M00/M01 Q1017 NOSIG",
      "taf": "TAF LBWN 182300Z 1900/1924 VRB03KT 9999 SCT040"
    },
    {
      "icao": "LCLK",
      "alert": "OK",
      "vis_m": 9999,
      "fzfg": false,
      "metar_trigger": false,
      "taf_trigger": false,
      "metar": "METAR LCLK 190500Z 27004KT 220V340 9999 FEW030 12/07 Q1017 NOSIG",
      "taf": "TAF LCLK 182330Z 1900/2000 22011KT 9999 FEW025"
    },
    {
      "icao": "LCPH",
      "alert": "OK",
      "vis_m": 9999,
      "fzfg": false,
      "metar_trigger": false,
      "taf_trigger": false,
      "metar": "METAR LCPH 190500Z 31016KT 250V320 9999 SCT032 BKN045 15/10 Q1017 NOSIG",
      "taf": "TAF LCPH 182330Z 1900/2000 29021KT 9999 FEW025 SCT035"
    },
    {
      "icao": "LEAL",
      "alert": "OK",
      "vis_m": 9999,
      "fzfg": false,
      "metar_trigger": false,
      "taf_trigger": false,
      "metar": "METAR LEAL 190500Z 31018G29KT 270V340 CAVOK 15/02 Q1016 NOSIG",
      "taf": "TAF LEAL 182300Z 1900/1924 23007KT 9999 FEW030 TX19/1913Z TN12/1906Z"
    },
    {
      "icao": "LEBB",
      "alert": "OK",
      "vis_m": 9999,
      "fzfg": false,
      "metar_trigger": false,
      "taf_trigger": false,
      "metar": "METAR LEBB 190500Z 26010KT 210V290 9999 -RA BKN032 08/05 Q1015 TEMPO 3000 SHRA SCT035TCU",
      "taf": "TAF LEBB 182300Z 1900/1924 28009KT 9999 FEW020 SCT040 TX11/1913Z TN06/1905Z"
    },
    {
      "icao": "LEBL",
      "alert": "OK",
      "vis_m": 9999,
      "fzfg": false,
      "metar_trigger": false,
      "taf_trigger": false,
      "metar": "METAR LEBL 190500Z 28020KT CAVOK 13/01 Q1008 NOSIG",
      "taf": "TAF LEBL 182300Z 1900/1924 22009KT 9999 FEW015 TX18/1913Z TN11/1906Z"
    },
    {
      "icao": "LECH",
      "alert": "OK",
      "vis_m": 9999,
      "fzfg": false,
      "metar_trigger": false,
      "taf_trigger": false,
      "metar": "METAR LECH 190500Z AUTO 29014KT 270V330 CAVOK 10/M01 Q1013",
      "taf": ""
    },
    {
      "icao": "LEMD",
      "alert": "OK",
      "vis_m": 9999,
      "fzfg": false,
      "metar_trigger": false,
      "taf_trigger": false,
      "metar": "METAR LEMD 190500Z 28015G25KT 250V310 CAVOK 06/M02 Q1018 NOSIG",
      "taf": ""
    },
    {
      "icao": "LEMG",
      "alert": "OK",
      "vis_m": 9999,
      "fzfg": false,
      "metar_trigger": false,
      "taf_trigger": false,
      "metar": "METAR LEMG 190500Z 30017G28KT 9999 FEW032 13/07 Q1021 NOSIG",
      "taf": "TAF LEMG 182300Z 1900/1924 30006KT CAVOK TX17/1914Z TN11/1907Z"
    },
    {
      "icao": "LEVC",
      "alert": "OK",
      "vis_m": 9999,
      "fzfg": false,
      "metar_trigger": false,
      "taf_trigger": false,
      "metar": "METAR LEVC 190500Z 28014KT CAVOK 13/01 Q1015 NOSIG",
      "taf": "TAF LEVC 182300Z 1900/1924 27013KT 9999 FEW035 TX20/1914Z TN12/1906Z"
    },
    {
      "icao": "LEXJ",
      "alert": "OK",
      "vis_m": 6000,
      "fzfg": false,
      "metar_trigger": false,
      "taf_trigger": false,
      "metar": "METAR LEXJ 190500Z 27014G24KT 230V300 6000 -RA SCT040 BKN050 08/04 Q1015",
      "taf": "TAF LEXJ 190200Z 1903/2003 28009KT 9999 BKN020 TX12/1915Z TN07/1904Z"
    },
    {
      "icao": "LEZG",
      "alert": "OK",
      "vis_m": 9999,
      "fzfg": false,
      "metar_trigger": false,
      "taf_trigger": false,
      "metar": "METAR LEZG 190500Z 24007KT 9999 FEW050 06/03 Q1014 NOSIG",
      "taf": ""
    },
    {
      "icao": "LEZL",
      "alert": "OK",
      "vis_m": 9999,
      "fzfg": false,
      "metar_trigger": false,
      "taf_trigger": false,
      "metar": "METAR LEZL 190500Z 30002KT 9999 SCT046 09/09 Q1024 NOSIG",
      "taf": "TAF LEZL 190200Z 1903/2003 29006KT 9999 FEW020 TX18/1915Z TN08/1907Z"
    },
    {
      "icao": "LFBD",
      "alert": "OK",
      "vis_m": 5000,
      "fzfg": false,
      "metar_trigger": false,
      "taf_trigger": false,
      "metar": "METAR LFBD 190500Z AUTO 29020G30KT 260V320 5000 RA BR FEW016/// BKN027/// BKN041/// ///CB 09/07 Q1006 TEMPO 29020G45KT 1500 TSRA BKN014 BKN020CB",
      "taf": ""
    },
    {
      "icao": "LFLL",
      "alert": "OK",
      "vis_m": 9999,
      "fzfg": false,
      "metar_trigger": false,
      "taf_trigger": false,
      "metar": "METAR LFLL 190500Z 18013KT CAVOK 09/04 Q1001 NOSIG",
      "taf": "TAF LFLL 182300Z 1900/2006 19012KT CAVOK"
    },
    {
      "icao": "LFLS",
      "alert": "OK",
      "vis_m": 9999,
      "fzfg": false,
      "metar_trigger": false,
      "taf_trigger": false,
      "metar": "METAR LFLS 190500Z AUTO 09004KT 040V130 9999 SCT056 BKN150 OVC180 06/03 Q1002 NOSIG",
      "taf": "TAF LFLS 190200Z 1903/2003 21010KT 9999 BKN040"
    },
    {
      "icao": "LFMN",
      "alert": "OK",
      "vis_m": 9999,
      "fzfg": false,
      "metar_trigger": false,
      "taf_trigger": false,
      "metar": "METAR LFMN 190510Z 05004KT 350V110 9999 -RA FEW066 BKN100 11/06 Q0999 BECMG 24015KT",
      "taf": "TAF LFMN 190200Z 1903/2009 34010KT 9999 BKN020"
    },
    {
      "icao": "LFOB",
      "alert": "OK",
      "vis_m": 4300,
      "fzfg": false,
      "metar_trigger": false,
      "taf_trigger": false,
      "metar": "METAR LFOB 190500Z AUTO 13003KT 4300 -RA BR SCT009/// BKN014/// BKN021/// ///TCU 07/07 Q0990 TEMPO RADZ BKN008",
      "taf": "TAF LFOB 182300Z 1900/1924 12010KT 9999 BKN015"
    },
    {
      "icao": "LFPO",
      "alert": "OK",
      "vis_m": 9999,
      "fzfg": false,
      "metar_trigger": false,
      "taf_trigger": false,
      "metar": "METAR LFPO 190500Z 21005KT 9999 SCT007 OVC014 08/07 Q0991 TEMPO 4000 -SHRA BKN012TCU",
      "taf": "TAF LFPO 182300Z 1900/2006 18008KT 9999 SCT013 BKN040 OVC200"
    },
    {
      "icao": "LFSB",
      "alert": "OK",
      "vis_m": 9999,
      "fzfg": false,
      "metar_trigger": false,
      "taf_trigger": false,
      "metar": "METAR LFSB 190500Z AUTO 13005KT CAVOK 04/03 Q0999 NOSIG",
      "taf": "TAF LFSB 182300Z 1900/1924 12007KT 9999 FEW010 OVC070"
    },
    {
      "icao": "LGAV",
      "alert": "OK",
      "vis_m": 9999,
      "fzfg": false,
      "metar_trigger": false,
      "taf_trigger": false,
      "metar": "METAR LGAV 190450Z 01004KT 9999 FEW025 03/M00 Q1021 NOSIG",
      "taf": "TAF LGAV 190500Z 1906/2006 VRB05KT 9999 FEW025"
    },
    {
      "icao": "LGTS",
      "alert": "OK",
      "vis_m": 9999,
      "fzfg": false,
      "metar_trigger": false,
      "taf_trigger": false,
      "metar": "METAR LGTS 190450Z 09004KT CAVOK 01/M03 Q1020 NOSIG",
      "taf": "TAF LGTS 190500Z 1906/2006 VRB03KT 9999 FEW030"
    },
    {
      "icao": "LHBP",
      "alert": "OK",
      "vis_m": 9999,
      "fzfg": false,
      "metar_trigger": false,
      "taf_trigger": false,
      "metar": "METAR LHBP 190500Z 08009KT 9999 FEW025 BKN056 02/M04 Q1010 NOSIG",
      "taf": "TAF LHBP 182315Z 1900/1924 VRB03KT CAVOK"
    },
    {
      "icao": "LHDC",
      "alert": "OK",
      "vis_m": 9999,
      "fzfg": false,
      "metar_trigger": false,
      "taf_trigger": false,
      "metar": "METAR LHDC 190445Z AUTO 16004KT 140V200 CAVOK M00/M02 Q1013 NOSIG",
      "taf": ""
    },
    {
      "icao": "LIBD",
      "alert": "OK",
      "vis_m": 9999,
      "fzfg": false,
      "metar_trigger": false,
      "taf_trigger": false,
      "metar": "METAR LIBD 190450Z 19008KT CAVOK 08/04 Q1014",
      "taf": "TAF LIBD 182300Z 1900/1924 17008KT CAVOK"
    },
    {
      "icao": "LIBG",
      "alert": "OK",
      "vis_m": null,
      "fzfg": false,
      "metar_trigger": false,
      "taf_trigger": false,
      "metar": "",
      "taf": ""
    },
    {
      "icao": "LIBP",
      "alert": "OK",
      "vis_m": 9999,
      "fzfg": false,
      "metar_trigger": false,
      "taf_trigger": false,
      "metar": "METAR LIBP 190450Z AUTO 15004KT 130V190 9999 SCT240/// 13/04 Q1009",
      "taf": "TAF LIBP 182300Z 1900/1924 VRB05KT CAVOK"
    },
    {
      "icao": "LIBR",
      "alert": "OK",
      "vis_m": 9999,
      "fzfg": false,
      "metar_trigger": false,
      "taf_trigger": false,
      "metar": "METAR LIBR 190450Z 21005KT CAVOK 07/05 Q1016",
      "taf": "TAF LIBR 182300Z 1900/1924 18010KT CAVOK"
    },
    {
      "icao": "LICA",
      "alert": "OK",
      "vis_m": 9999,
      "fzfg": false,
      "metar_trigger": false,
      "taf_trigger": false,
      "metar": "METAR LICA 190450Z AUTO 08007KT 9999 NCD 06/06 Q1017",
      "taf": "TAF LICA 182300Z 1900/1924 VRB06KT 9999 FEW025"
    },
    {
      "icao": "LICC",
      "alert": "OK",
      "vis_m": 9999,
      "fzfg": false,
      "metar_trigger": false,
      "taf_trigger": false,
      "metar": "METAR LICC 190450Z 27010KT CAVOK 08/05 Q1018",
      "taf": "TAF LICC 182300Z 1900/1924 26011KT CAVOK"
    },
    {
      "icao": "LICJ",
      "alert": "OK",
      "vis_m": 9999,
      "fzfg": false,
      "metar_trigger": false,
      "taf_trigger": false,
      "metar": "METAR LICJ 190450Z 18022KT CAVOK 16/06 Q1013",
      "taf": "TAF LICJ 182300Z 1900/1924 19015KT 9999 SCT035"
    },
    {
      "icao": "LIMC",
      "alert": "OK",
      "vis_m": 7000,
      "fzfg": false,
      "metar_trigger": false,
      "taf_trigger": false,
      "metar": "METAR LIMC 190450Z 02006KT 7000 RA BKN015 06/04 Q1004 NOSIG",
      "taf": "TAF LIMC 182300Z 1900/2006 01010KT 9999 BKN060"
    },
    {
      "icao": "LIME",
      "alert": "OK",
      "vis_m": 8000,
      "fzfg": false,
      "metar_trigger": false,
      "taf_trigger": false,
      "metar": "METAR LIME 190450Z 10005KT 8000 -RA BKN030 05/04 Q1003 NOSIG",
      "taf": "TAF LIME 182300Z 1900/1924 05007KT 9999 BKN070"
    },
    {
      "icao": "LIMF",
      "alert": "OK",
      "vis_m": null,
      "fzfg": false,
      "metar_trigger": false,
      "taf_trigger": false,
      "metar": "METAR LIMF 190450Z AUTO VRB04KT //// // OVC014/// 04/01 Q1005",
      "taf": ""
    },
    {
      "icao": "LIMJ",
      "alert": "OK",
      "vis_m": 7000,
      "fzfg": false,
      "metar_trigger": false,
      "taf_trigger": false,
      "metar": "METAR LIMJ 190450Z 15007KT 7000 RA SCT015 BKN028 12/10 Q1000",
      "taf": "TAF LIMJ 182300Z 1900/1924 12010KT 9999 FEW020 SCT050"
    },
    {
      "icao": "LIPE",
      "alert": "OK",
      "vis_m": 9999,
      "fzfg": false,
      "metar_trigger": false,
      "taf_trigger": false,
      "metar": "METAR LIPE 190450Z 05004KT 9999 BKN074 07/05 Q1003",
      "taf": "TAF LIPE 182300Z 1900/1924 VRB05KT 9999 FEW060"
    },
    {
      "icao": "LIPH",
      "alert": "OK",
      "vis_m": 9999,
      "fzfg": false,
      "metar_trigger": false,
      "taf_trigger": false,
      "metar": "METAR LIPH 190450Z AUTO 03005KT 9999 -RA OVC026/// 07/03 Q1006",
      "taf": "TAF LIPH 182300Z 1900/1924 VRB05KT 9999 FEW050"
    },
    {
      "icao": "LIPQ",
      "alert": "OK",
      "vis_m": 9999,
      "fzfg": false,
      "metar_trigger": false,
      "taf_trigger": false,
      "metar": "METAR LIPQ 190450Z AUTO 02004KT 9999 -RA FEW018/// OVC041/// 07/07 Q1006",
      "taf": "TAF LIPQ 182300Z 1900/1924 VRB05KT CAVOK"
    },
    {
      "icao": "LIPR",
      "alert": "OK",
      "vis_m": 9999,
      "fzfg": false,
      "metar_trigger": false,
      "taf_trigger": false,
      "metar": "METAR LIPR 190450Z AUTO 14005KT 9999 BKN033/// BKN069/// 11/06 Q1005",
      "taf": "TAF LIPR 182300Z 1900/1924 16005KT 9999 FEW050"
    },
    {
      "icao": "LIPX",
      "alert": "OK",
      "vis_m": 9999,
      "fzfg": false,
      "metar_trigger": false,
      "taf_trigger": false,
      "metar": "METAR LIPX 190450Z 06005KT 9999 BKN035 07/04 Q1005",
      "taf": "TAF LIPX 182300Z 1900/1924 05007KT 9999 BKN060"
    },
    {
      "icao": "LIPY",
      "alert": "OK",
      "vis_m": 9999,
      "fzfg": false,
      "metar_trigger": false,
      "taf_trigger": false,
      "metar": "METAR LIPY 190450Z AUTO 15005KT 110V190 9999 ///////// 13/03 Q1007",
      "taf": "TAF LIPY 182300Z 1900/1924 16006KT CAVOK"
    },
    {
      "icao": "LIPZ",
      "alert": "OK",
      "vis_m": 9999,
      "fzfg": false,
      "metar_trigger": false,
      "taf_trigger": false,
      "metar": "METAR LIPZ 190450Z 05008KT 9999 -RA BKN035 06/04 Q1006 NOSIG",
      "taf": "TAF LIPZ 182300Z 1900/2006 VRB05KT CAVOK"
    },
    {
      "icao": "LIRF",
      "alert": "OK",
      "vis_m": 9999,
      "fzfg": false,
      "metar_trigger": false,
      "taf_trigger": false,
      "metar": "METAR LIRF 190450Z 15014KT 9999 FEW015 SCT025 14/13 Q1009 NOSIG",
      "taf": "TAF LIRF 182300Z 1900/2006 17012KT 9999 FEW025"
    },
    {
      "icao": "LIRN",
      "alert": "OK",
      "vis_m": 9999,
      "fzfg": false,
      "metar_trigger": false,
      "taf_trigger": false,
      "metar": "METAR LIRN 190450Z 19011KT 9999 SCT050 13/10 Q1013 NOSIG",
      "taf": "TAF LIRN 182300Z 1900/1924 VRB05KT 9999 SCT030"
    },
    {
      "icao": "LIRP",
      "alert": "OK",
      "vis_m": 9999,
      "fzfg": false,
      "metar_trigger": false,
      "taf_trigger": false,
      "metar": "METAR LIRP 190445Z 12009KT 9999 SCT025 SCT060 11/10 Q1003 NOSIG",
      "taf": "TAF LIRP 182300Z 1900/1924 12007KT 9999 SCT020 BKN030"
    },
    {
      "icao": "LIRZ",
      "alert": "OK",
      "vis_m": 9999,
      "fzfg": false,
      "metar_trigger": false,
      "taf_trigger": false,
      "metar": "METAR LIRZ 190450Z AUTO 18009KT 9999 BKN023/// 12/08 Q1007",
      "taf": "TAF LIRZ 182300Z 1900/1924 VRB05KT 9999 SCT035"
    },
    {
      "icao": "LJLJ",
      "alert": "OK",
      "vis_m": 8000,
      "fzfg": false,
      "metar_trigger": false,
      "taf_trigger": false,
      "metar": "METAR LJLJ 190500Z VRB01KT 8000 -RA FEW003 OVC020 02/02 Q1006 NOSIG",
      "taf": "TAF LJLJ 190500Z 1906/2006 VRB02KT 9999 FEW003 OVC020"
    },
    {
      "icao": "LKMT",
      "alert": "OK",
      "vis_m": 4000,
      "fzfg": false,
      "metar_trigger": false,
      "taf_trigger": false,
      "metar": "METAR LKMT 190500Z 05003KT 4000 BR MIFG NSC M05/M05 Q1011 NOSIG",
      "taf": ""
    },
    {
      "icao": "LKPR",
      "alert": "OK",
      "vis_m": 8000,
      "fzfg": false,
      "metar_trigger": false,
      "taf_trigger": false,
      "metar": "METAR LKPR 190500Z 07007KT 8000 FEW008 M04/M05 Q1008 NOSIG",
      "taf": "TAF LKPR 190200Z 1903/2009 04006KT 9999 SCT020 BKN035"
    },
    {
      "icao": "LLBG",
      "alert": "OK",
      "vis_m": 9999,
      "fzfg": false,
      "metar_trigger": false,
      "taf_trigger": false,
      "metar": "METAR LLBG 190450Z 17007KT 9999 SCT035 13/09 Q1020 NOSIG RMK SCT071",
      "taf": "TAF LLBG 190501Z 1906/2006 27008KT 9999 SCT030"
    },
    {
      "icao": "LMML",
      "alert": "OK",
      "vis_m": 9999,
      "fzfg": false,
      "metar_trigger": false,
      "taf_trigger": false,
      "metar": "METAR LMML 190445Z 19011KT 160V220 CAVOK 14/12 Q1018 NOSIG",
      "taf": "TAF LMML 190500Z 1906/2006 19012KT CAVOK"
    },
    {
      "icao": "LOWW",
      "alert": "OK",
      "vis_m": 9999,
      "fzfg": false,
      "metar_trigger": false,
      "taf_trigger": false,
      "metar": "METAR LOWW 190450Z 08003KT 9999 SCT046 M02/M04 Q1009 NOSIG",
      "taf": "TAF LOWW 190215Z 1903/2009 VRB02KT 9999 FEW050 TX01/1912Z TNM02/1903Z"
    },
    {
      "icao": "LPFR",
      "alert": "OK",
      "vis_m": 9999,
      "fzfg": false,
      "metar_trigger": false,
      "taf_trigger": false,
      "metar": "METAR LPFR 190500Z VRB02KT CAVOK 10/09 Q1025",
      "taf": "TAF LPFR 182300Z 1900/1924 31008KT 9999 SCT030"
    },
    {
      "icao": "LPMA",
      "alert": "OK",
      "vis_m": 9999,
      "fzfg": false,
      "metar_trigger": false,
      "taf_trigger": false,
      "metar": "METAR LPMA 190500Z 01009KT 9999 BKN014 16/12 Q1026",
      "taf": "TAF LPMA 182300Z 1900/1924 02010KT 9999 SCT014"
    },
    {
      "icao": "LPPR",
      "alert": "OK",
      "vis_m": 9999,
      "fzfg": false,
      "metar_trigger": false,
      "taf_trigger": false,
      "metar": "METAR LPPR 190500Z 34006KT 300V360 9999 -SHRA FEW025 BKN032 09/05 Q1024",
      "taf": "TAF LPPR 182300Z 1900/1924 33010KT 9999 SCT030"
    },
    {
      "icao": "LPPS",
      "alert": "OK",
      "vis_m": 9999,
      "fzfg": false,
      "metar_trigger": false,
      "taf_trigger": false,
      "metar": "METAR LPPS 190500Z 04008KT 9999 BKN012 SCT030 15/13 Q1026",
      "taf": "TAF LPPS 182300Z 1900/2006 04007KT 9999 SCT012 BKN020"
    },
    {
      "icao": "LPPT",
      "alert": "OK",
      "vis_m": 9999,
      "fzfg": false,
      "metar_trigger": false,
      "taf_trigger": false,
      "metar": "METAR LPPT 190500Z 30003KT 280V340 9999 FEW028 11/07 Q1025",
      "taf": "TAF LPPT 182300Z 1900/2006 29007KT 9999 SCT020"
    },
    {
      "icao": "LQBK",
      "alert": "OK",
      "vis_m": 9999,
      "fzfg": false,
      "metar_trigger": false,
      "taf_trigger": false,
      "metar": "METAR LQBK 190500Z 00000KT CAVOK 05/M00 Q1009 NOSIG",
      "taf": "TAF LQBK 190500Z 1906/2006 13007KT CAVOK TX13/1913Z TN05/2006Z"
    },
    {
      "icao": "LQSA",
      "alert": "OK",
      "vis_m": 7000,
      "fzfg": false,
      "metar_trigger": false,
      "taf_trigger": false,
      "metar": "METAR LQSA 190500Z COR 29004KT 230V010 7000 NSC M02/M02 Q1012 NOSIG",
      "taf": "TAF LQSA 190500Z 1906/2006 VRB02KT CAVOK TX10/1913Z TNM04/1906Z"
    },
    {
      "icao": "LQTZ",
      "alert": "OK",
      "vis_m": 9999,
      "fzfg": false,
      "metar_trigger": false,
      "taf_trigger": false,
      "metar": "METAR LQTZ 190500Z 11004KT 090V260 CAVOK M01/M03 Q1011",
      "taf": "TAF LQTZ 190500Z 1906/2006 VRB02KT CAVOK TX13/1914Z TNM00/1906Z"
    },
    {
      "icao": "LRBC",
      "alert": "OK",
      "vis_m": 300,
      "fzfg": true,
      "metar_trigger": false,
      "taf_trigger": false,
      "metar": "METAR LRBC 190500Z 18003KT 120V210 0300 R34/0350N FZFG BKN002 M11/M12 Q1013",
      "taf": ""
    },
    {
      "icao": "LRBS",
      "alert": "OK",
      "vis_m": 9999,
      "fzfg": false,
      "metar_trigger": false,
      "taf_trigger": false,
      "metar": "METAR LRBS 190500Z 25004KT CAVOK M02/M03 Q1015 NOSIG",
      "taf": "TAF LRBS 182300Z 1900/1924 VRB04KT 5000 BR NSC"
    },
    {
      "icao": "LRBV",
      "alert": "OK",
      "vis_m": 9999,
      "fzfg": false,
      "metar_trigger": false,
      "taf_trigger": false,
      "metar": "METAR LRBV 190500Z 22007KT 9999 SCT055 M06/M09 Q1013",
      "taf": "TAF LRBV 190200Z 1903/1912 VRB04KT 9999 BKN015 BKN030"
    },
    {
      "icao": "LRCL",
      "alert": "OK",
      "vis_m": 9999,
      "fzfg": false,
      "metar_trigger": false,
      "taf_trigger": false,
      "metar": "METAR LRCL 190500Z VRB01KT 9999 BKN057 M03/M05 Q1013",
      "taf": "TAF LRCL 190200Z 1903/1912 VRB04KT CAVOK"
    },
    {
      "icao": "LRCV",
      "alert": "OK",
      "vis_m": 9999,
      "fzfg": false,
      "metar_trigger": false,
      "taf_trigger": false,
      "metar": "METAR LRCV 190500Z 27008KT CAVOK M01/M03 Q1016",
      "taf": "TAF LRCV 190200Z 1903/1912 VRB04KT CAVOK"
    },
    {
      "icao": "LRIA",
      "alert": "OK",
      "vis_m": 9999,
      "fzfg": false,
      "metar_trigger": false,
      "taf_trigger": false,
      "metar": "METAR LRIA 190500Z 24004KT 9999 FEW027 BKN048 M05/M06 Q1013",
      "taf": "TAF LRIA 190200Z 1903/1912 VRB04KT CAVOK"
    },
    {
      "icao": "LROP",
      "alert": "OK",
      "vis_m": 9999,
      "fzfg": false,
      "metar_trigger": false,
      "taf_trigger": false,
      "metar": "METAR LROP 190500Z 25004KT CAVOK M05/M05 Q1015 NOSIG",
      "taf": "TAF LROP 182300Z 1900/1924 VRB04KT 5000 BR NSC"
    },
    {
      "icao": "LRSB",
      "alert": "OK",
      "vis_m": 9999,
      "fzfg": false,
      "metar_trigger": false,
      "taf_trigger": false,
      "metar": "METAR LRSB 190500Z 30003KT 260V320 CAVOK M03/M06 Q1013",
      "taf": "TAF LRSB 182300Z 1900/1924 29010KT 9999 BKN050"
    },
    {
      "icao": "LRSM",
      "alert": "OK",
      "vis_m": 9999,
      "fzfg": false,
      "metar_trigger": false,
      "taf_trigger": false,
      "metar": "METAR LRSM 190500Z 00000KT 9999 FEW030 M02/M04 Q1013",
      "taf": "TAF LRSM 190200Z 1903/1912 14006KT 5000 BR BKN015"
    },
    {
      "icao": "LRSV",
      "alert": "OK",
      "vis_m": 6000,
      "fzfg": false,
      "metar_trigger": false,
      "taf_trigger": false,
      "metar": "METAR LRSV 190500Z 29011KT 6000 -SN BKN037 M01/M03 Q1010",
      "taf": "TAF LRSV 190200Z 1903/1912 28005KT 9999 BKN040"
    },
    {
      "icao": "LRTM",
      "alert": "OK",
      "vis_m": 9999,
      "fzfg": false,
      "metar_trigger": false,
      "taf_trigger": false,
      "metar": "METAR LRTM 190500Z 04004KT 9999 FEW045 M05/M06 Q1014",
      "taf": "TAF LRTM 190200Z 1903/1912 VRB04KT CAVOK"
    },
    {
      "icao": "LRTR",
      "alert": "OK",
      "vis_m": 9999,
      "fzfg": false,
      "metar_trigger": false,
      "taf_trigger": false,
      "metar": "METAR LRTR 190500Z 10009KT CAVOK 00/M00 Q1013",
      "taf": "TAF LRTR 182300Z 1900/1924 11008KT CAVOK"
    },
    {
      "icao": "LTAC",
      "alert": "OK",
      "vis_m": 9999,
      "fzfg": false,
      "metar_trigger": false,
      "taf_trigger": false,
      "metar": "METAR LTAC 190450Z 21006KT 9999 SCT035 BKN080 M00/M03 Q1017 NOSIG RMK RWY21C 21010KT RWY03L 21007KT RWY21R 21012KT RWY03R 19008KT RWY21L 20010KT",
      "taf": "TAF LTAC 190440Z 1906/2006 25012KT 9999 SCT040 BKN100"
    },
    {
      "icao": "LTFM",
      "alert": "OK",
      "vis_m": 9999,
      "fzfg": false,
      "metar_trigger": false,
      "taf_trigger": false,
      "metar": "METAR LTFM 190450Z 19008KT CAVOK 02/M01 Q1020 NOSIG RMK RWY17L 23009KT RWY34L 20004KT RWY16R 23007KT RWY36 22008KT RWY18 23009KT",
      "taf": "TAF LTFM 190440Z 1906/2012 22012KT CAVOK"
    },
    {
      "icao": "LUKK",
      "alert": "OK",
      "vis_m": 9999,
      "fzfg": false,
      "metar_trigger": false,
      "taf_trigger": false,
      "metar": "METAR LUKK 190500Z VRB02KT CAVOK M07/M11 Q1012 NOSIG",
      "taf": "TAF LUKK 182323Z 1900/1924 30010KT CAVOK"
    },
    {
      "icao": "LWOH",
      "alert": "OK",
      "vis_m": null,
      "fzfg": false,
      "metar_trigger": false,
      "taf_trigger": false,
      "metar": "",
      "taf": ""
    },
    {
      "icao": "LWSK",
      "alert": "OK",
      "vis_m": 9999,
      "fzfg": false,
      "metar_trigger": false,
      "taf_trigger": false,
      "metar": "METAR LWSK 190450Z VRB01KT CAVOK M04/M06 Q1019 NOSIG",
      "taf": ""
    },
    {
      "icao": "LYBE",
      "alert": "OK",
      "vis_m": 9999,
      "fzfg": false,
      "metar_trigger": false,
      "taf_trigger": false,
      "metar": "METAR LYBE 190500Z 16007KT CAVOK 00/M03 Q1012 NOSIG",
      "taf": "TAF LYBE 182300Z 1900/1924 15008KT CAVOK TX14/1913Z TN00/1906Z"
    },
    {
      "icao": "LYNI",
      "alert": "OK",
      "vis_m": 9999,
      "fzfg": false,
      "metar_trigger": false,
      "taf_trigger": false,
      "metar": "METAR LYNI 190500Z 09003KT CAVOK M02/M03 Q1017 NOSIG",
      "taf": "TAF LYNI 182300Z 1900/1924 09004KT CAVOK TX13/1913Z TNM03/1906Z"
    },
    {
      "icao": "LYPG",
      "alert": "OK",
      "vis_m": 9999,
      "fzfg": false,
      "metar_trigger": false,
      "taf_trigger": false,
      "metar": "METAR LYPG 190500Z 35004KT 9999 SCT050 BKN080 05/01 Q1018 NOSIG",
      "taf": "TAF LYPG 182300Z 1900/1924 36005KT 9999 SCT040 SCT080 TX13/1918Z TN02/1902Z"
    },
    {
      "icao": "LZIB",
      "alert": "OK",
      "vis_m": 9999,
      "fzfg": false,
      "metar_trigger": false,
      "taf_trigger": false,
      "metar": "METAR LZIB 190500Z 02008KT 9999 SCT049 M01/M03 Q1010 NOSIG",
      "taf": "TAF LZIB 182315Z 1900/2000 VRB02KT 9999 FEW035"
    },
    {
      "icao": "LZKZ",
      "alert": "OK",
      "vis_m": 800,
      "fzfg": true,
      "metar_trigger": false,
      "taf_trigger": false,
      "metar": "METAR LZKZ 190500Z VRB01KT 0800 R01/1300N FZFG OVC002 M02/M02 Q1012 NOSIG",
      "taf": "TAF LZKZ 182315Z 1900/2000 VRB02KT 9999 FEW005 SCT020"
    },
    {
      "icao": "LZTT",
      "alert": "OK",
      "vis_m": 9999,
      "fzfg": false,
      "metar_trigger": false,
      "taf_trigger": false,
      "metar": "METAR LZTT 190500Z 27003KT 220V320 9999 FEW013 M07/M09 Q1009",
      "taf": ""
    },
    {
      "icao": "OEJN",
      "alert": "OK",
      "vis_m": 7000,
      "fzfg": false,
      "metar_trigger": false,
      "taf_trigger": false,
      "metar": "METAR OEJN 190500Z 36003KT 7000 NSC 23/20 Q1013 NOSIG",
      "taf": "TAF OEJN 190500Z 1906/2012 32014KT 7000 NSC"
    },
    {
      "icao": "OEMA",
      "alert": "OK",
      "vis_m": 9999,
      "fzfg": false,
      "metar_trigger": false,
      "taf_trigger": false,
      "metar": "METAR OEMA 190500Z 36004KT CAVOK 21/06 Q1018 NOSIG",
      "taf": "TAF OEMA 190500Z 1906/2012 30010KT CAVOK"
    },
    {
      "icao": "OJAI",
      "alert": "OK",
      "vis_m": 4000,
      "fzfg": false,
      "metar_trigger": false,
      "taf_trigger": false,
      "metar": "METAR OJAI 190500Z 27009KT 4000 BR SCT030 08/06 Q1020 NOSIG",
      "taf": "TAF OJAI 190500Z 1906/2012 27010KT 5000 HZ FEW030"
    },
    {
      "icao": "OMAA",
      "alert": "OK",
      "vis_m": 9999,
      "fzfg": false,
      "metar_trigger": false,
      "taf_trigger": false,
      "metar": "METAR OMAA 190500Z 08009KT 050V110 CAVOK 21/08 Q1018 NOSIG",
      "taf": "TAF OMAA 190500Z 1906/2012 11007KT 8000 NSC"
    },
    {
      "icao": "OMDB",
      "alert": "OK",
      "vis_m": 9999,
      "fzfg": false,
      "metar_trigger": false,
      "taf_trigger": false,
      "metar": "METAR OMDB 190500Z 09004KT CAVOK 24/08 Q1018 NOSIG",
      "taf": "TAF OMDB 190500Z 1906/2012 08005KT CAVOK"
    },
    {
      "icao": "UAAA",
      "alert": "OK",
      "vis_m": 9999,
      "fzfg": false,
      "metar_trigger": false,
      "taf_trigger": false,
      "metar": "METAR UAAA 190500Z VRB01MPS 9999 SCT100 BKN200 12/03 Q1014 NOSIG",
      "taf": "TAF UAAA 182301Z 1900/1924 22002MPS 3100 BR FU SCT030 BKN100 TX20/1909Z TN00/1903Z"
    },
    {
      "icao": "UBBB",
      "alert": "OK",
      "vis_m": 1000,
      "fzfg": false,
      "metar_trigger": false,
      "taf_trigger": false,
      "metar": "METAR UBBB 190500Z 13010KT 1000 R17/1000 BR BKN002 09/09 Q1005 NOSIG",
      "taf": ""
    },
    {
      "icao": "UDSG",
      "alert": "OK",
      "vis_m": 9999,
      "fzfg": false,
      "metar_trigger": false,
      "taf_trigger": false,
      "metar": "METAR UDSG 190500Z 26003KT 180V320 9999 SCT049 03/M01 Q1012 NOSIG",
      "taf": "TAF UDSG 182300Z 1900/1924 VRB06KT 9999 BKN040"
    },
    {
      "icao": "UDYZ",
      "alert": "OK",
      "vis_m": null,
      "fzfg": false,
      "metar_trigger": false,
      "taf_trigger": false,
      "metar": "",
      "taf": "TAF UDYZ 182300Z 1900/1924 14006KT 9999 SCT040"
    },
    {
      "icao": "UGKO",
      "alert": "OK",
      "vis_m": 5000,
      "fzfg": false,
      "metar_trigger": false,
      "taf_trigger": false,
      "metar": "METAR UGKO 190500Z 26020G30KT 5000 SHRA SCT009 BKN013CB OVC051 07/06 Q1014 NOSIG",
      "taf": "TAF UGKO 190500Z 1906/2006 25010KT 9999 BKN050 TX07/1906Z TN02/2003Z"
    }
  ]
}