{
  "ts_utc": "2026-04-18T08:33:03Z",
  "threshold_m": 150,
  "source": "stations_override.txt (ICAO list) + aviationweather.gov (METAR/TAF raw)",
  "station_count": 159,
  "stations": [
    {
      "icao": "BIKF",
      "alert": "OK",
      "vis_m": 9999,
      "fzfg": false,
      "metar_trigger": false,
      "taf_trigger": false,
      "metar": "METAR BIKF 180800Z 28008KT 250V310 9999 SCT045 03/M06 Q1012",
      "taf": "TAF BIKF 180756Z 1809/1909 28007KT 9999 SCT020 BKN040 TX07/1815Z TN01/1902Z"
    },
    {
      "icao": "BKPR",
      "alert": "OK",
      "vis_m": 9999,
      "fzfg": false,
      "metar_trigger": false,
      "taf_trigger": false,
      "metar": "METAR BKPR 180830Z 02013KT 9999 FEW040 SCT070 17/03 Q1016 NOSIG",
      "taf": "TAF BKPR 180530Z 1806/1906 36008KT 9999 FEW050"
    },
    {
      "icao": "EBCI",
      "alert": "OK",
      "vis_m": 9999,
      "fzfg": false,
      "metar_trigger": false,
      "taf_trigger": false,
      "metar": "METAR EBCI 180820Z 32005KT 280V340 9999 BKN045 13/10 Q1022 NOSIG",
      "taf": "TAF EBCI 180501Z 1806/1912 18003KT 9999 BKN045"
    },
    {
      "icao": "EDDB",
      "alert": "OK",
      "vis_m": 9999,
      "fzfg": false,
      "metar_trigger": false,
      "taf_trigger": false,
      "metar": "METAR EDDB 180820Z AUTO 09006KT 070V130 CAVOK 16/05 Q1021 NOSIG",
      "taf": "TAF EDDB 180500Z 1806/1906 11004KT CAVOK"
    },
    {
      "icao": "EDDH",
      "alert": "OK",
      "vis_m": 9999,
      "fzfg": false,
      "metar_trigger": false,
      "taf_trigger": false,
      "metar": "METAR EDDH 180820Z AUTO 18005KT CAVOK 15/07 Q1019 NOSIG",
      "taf": "TAF EDDH 180500Z 1806/1912 11005KT CAVOK"
    },
    {
      "icao": "EDDK",
      "alert": "OK",
      "vis_m": 9999,
      "fzfg": false,
      "metar_trigger": false,
      "taf_trigger": false,
      "metar": "METAR EDDK 180820Z AUTO VRB03KT CAVOK 17/10 Q1021 NOSIG",
      "taf": "TAF EDDK 180500Z 1806/1912 VRB02KT CAVOK"
    },
    {
      "icao": "EDDN",
      "alert": "OK",
      "vis_m": 9999,
      "fzfg": false,
      "metar_trigger": false,
      "taf_trigger": false,
      "metar": "METAR EDDN 180820Z AUTO 13003KT 020V180 CAVOK 17/08 Q1020 NOSIG",
      "taf": "TAF EDDN 180500Z 1806/1906 12003KT CAVOK"
    },
    {
      "icao": "EDDS",
      "alert": "OK",
      "vis_m": 9999,
      "fzfg": false,
      "metar_trigger": false,
      "taf_trigger": false,
      "metar": "METAR EDDS 180820Z AUTO 11003KT 070V160 CAVOK 16/09 Q1020 NOSIG",
      "taf": "TAF EDDS 180500Z 1806/1906 VRB03KT CAVOK"
    },
    {
      "icao": "EDFH",
      "alert": "OK",
      "vis_m": 9999,
      "fzfg": false,
      "metar_trigger": false,
      "taf_trigger": false,
      "metar": "METAR EDFH 180820Z 35004KT 310V050 CAVOK 14/08 Q1021",
      "taf": "TAF EDFH 180500Z 1806/1906 VRB03KT CAVOK"
    },
    {
      "icao": "EDJA",
      "alert": "OK",
      "vis_m": 9999,
      "fzfg": false,
      "metar_trigger": false,
      "taf_trigger": false,
      "metar": "METAR EDJA 180820Z 23006KT CAVOK 15/08 Q1021",
      "taf": "TAF EDJA 180800Z 1809/1818 27004KT CAVOK"
    },
    {
      "icao": "EDLW",
      "alert": "OK",
      "vis_m": 9999,
      "fzfg": false,
      "metar_trigger": false,
      "taf_trigger": false,
      "metar": "METAR EDLW 180820Z VRB03KT CAVOK 17/09 Q1020",
      "taf": "TAF EDLW 180500Z 1806/1906 17007KT CAVOK"
    },
    {
      "icao": "EDNY",
      "alert": "OK",
      "vis_m": 9999,
      "fzfg": false,
      "metar_trigger": false,
      "taf_trigger": false,
      "metar": "METAR EDNY 180820Z VRB01KT CAVOK 14/08 Q1021",
      "taf": "TAF EDNY 180800Z 1809/1818 23004KT CAVOK"
    },
    {
      "icao": "EDSB",
      "alert": "OK",
      "vis_m": 9999,
      "fzfg": false,
      "metar_trigger": false,
      "taf_trigger": false,
      "metar": "METAR EDSB 180820Z 23005KT 190V270 CAVOK 15/09 Q1020",
      "taf": "TAF EDSB 180500Z 1806/1906 VRB03KT CAVOK"
    },
    {
      "icao": "EETN",
      "alert": "OK",
      "vis_m": 9999,
      "fzfg": false,
      "metar_trigger": false,
      "taf_trigger": false,
      "metar": "METAR EETN 180820Z 08012KT 040V100 CAVOK 11/M03 Q1023 NOSIG",
      "taf": "TAF EETN 180530Z 1806/1906 07007KT CAVOK"
    },
    {
      "icao": "EFTU",
      "alert": "OK",
      "vis_m": 9999,
      "fzfg": false,
      "metar_trigger": false,
      "taf_trigger": false,
      "metar": "METAR EFTU 180820Z AUTO 15004KT 100V200 CAVOK 12/M01 Q1023",
      "taf": "TAF EFTU 180525Z 1806/1906 07003KT CAVOK"
    },
    {
      "icao": "EGBB",
      "alert": "OK",
      "vis_m": 9999,
      "fzfg": false,
      "metar_trigger": false,
      "taf_trigger": false,
      "metar": "METAR EGBB 180750Z 27006KT CAVOK 10/07 Q1021",
      "taf": "TAF EGBB 180500Z 1806/1906 21009KT 9999 FEW018 SCT030"
    },
    {
      "icao": "EGGP",
      "alert": "OK",
      "vis_m": 9999,
      "fzfg": false,
      "metar_trigger": false,
      "taf_trigger": false,
      "metar": "METAR EGGP 180820Z 27015KT 9999 SCT031 11/05 Q1020",
      "taf": "TAF EGGP 180505Z 1806/1906 25012KT 9999 SCT035"
    },
    {
      "icao": "EGGW",
      "alert": "OK",
      "vis_m": 9999,
      "fzfg": false,
      "metar_trigger": false,
      "taf_trigger": false,
      "metar": "METAR EGGW 180820Z AUTO 27010KT 9999 NCD 11/06 Q1021",
      "taf": "TAF EGGW 180456Z 1806/1906 25006KT CAVOK"
    },
    {
      "icao": "EGKK",
      "alert": "OK",
      "vis_m": 9999,
      "fzfg": false,
      "metar_trigger": false,
      "taf_trigger": false,
      "metar": "METAR EGKK 180820Z 32010KT 9999 FEW025 12/06 Q1022",
      "taf": "TAF EGKK 180504Z 1806/1912 24005KT 9999 SCT035"
    },
    {
      "icao": "EGNM",
      "alert": "OK",
      "vis_m": 9999,
      "fzfg": false,
      "metar_trigger": false,
      "taf_trigger": false,
      "metar": "METAR EGNM 180820Z 27012KT 9999 -DZ SCT014 SCT021 08/06 Q1018",
      "taf": ""
    },
    {
      "icao": "EGPD",
      "alert": "OK",
      "vis_m": 9999,
      "fzfg": false,
      "metar_trigger": false,
      "taf_trigger": false,
      "metar": "METAR EGPD 180820Z COR AUTO 23006KT 190V280 9999 NCD 11/06 Q1011 NOSIG",
      "taf": "TAF EGPD 180457Z 1806/1906 21010KT 9999 SCT030"
    },
    {
      "icao": "EGPF",
      "alert": "OK",
      "vis_m": 9999,
      "fzfg": false,
      "metar_trigger": false,
      "taf_trigger": false,
      "metar": "METAR EGPF 180820Z AUTO 25013KT 9999 FEW020/// SCT030/// BKN048/// //////TCU 10/07 Q1015",
      "taf": "TAF EGPF 180454Z 1806/1906 21009KT 9999 SCT030"
    },
    {
      "icao": "EHBK",
      "alert": "OK",
      "vis_m": 9999,
      "fzfg": false,
      "metar_trigger": false,
      "taf_trigger": false,
      "metar": "METAR EHBK 180825Z AUTO 23005KT 9999 NSC 16/10 Q1021 NOSIG",
      "taf": "TAF EHBK 180505Z 1806/1912 23005KT CAVOK"
    },
    {
      "icao": "EHEH",
      "alert": "OK",
      "vis_m": 9999,
      "fzfg": false,
      "metar_trigger": false,
      "taf_trigger": false,
      "metar": "METAR EHEH 180825Z AUTO 27003KT 240V320 9999 OVC048 16/09 Q1021 BLU NOSIG RMK TREND REMOTE BY EHWX",
      "taf": "TAF EHEH 180516Z 1806/1912 VRB02KT 9999 SCT050"
    },
    {
      "icao": "EKBI",
      "alert": "OK",
      "vis_m": 9999,
      "fzfg": false,
      "metar_trigger": false,
      "taf_trigger": false,
      "metar": "METAR EKBI 180820Z AUTO 14005KT 100V180 9999 FEW086/// BKN140/// 12/07 Q1019",
      "taf": "TAF EKBI 180827Z 1809/1909 12006KT 9999 BKN020"
    },
    {
      "icao": "EKCH",
      "alert": "OK",
      "vis_m": 9999,
      "fzfg": false,
      "metar_trigger": false,
      "taf_trigger": false,
      "metar": "METAR EKCH 180820Z AUTO 14008KT 9999 OVC074/// 09/03 Q1022 NOSIG",
      "taf": "TAF EKCH 180827Z 1809/1909 14008KT CAVOK"
    },
    {
      "icao": "ENAL",
      "alert": "OK",
      "vis_m": 9999,
      "fzfg": false,
      "metar_trigger": false,
      "taf_trigger": false,
      "metar": "METAR ENAL 180820Z 14007KT 9999 SCT056 13/03 Q1014",
      "taf": "TAF ENAL 180500Z 1806/1815 13008KT 9999 -RA BKN050"
    },
    {
      "icao": "ENBR",
      "alert": "OK",
      "vis_m": 9999,
      "fzfg": false,
      "metar_trigger": false,
      "taf_trigger": false,
      "metar": "METAR ENBR 180820Z 17013KT 9999 -SHRA FEW003 SCT008 BKN020 09/07 Q1015 TEMPO 4000 SHRA BR BKN008 SCT025CB RMK WIND 1200FT 18016KT",
      "taf": "TAF ENBR 180500Z 1806/1906 14012KT 9999 FEW012 BKN025"
    },
    {
      "icao": "ENGM",
      "alert": "OK",
      "vis_m": 9999,
      "fzfg": false,
      "metar_trigger": false,
      "taf_trigger": false,
      "metar": "METAR ENGM 180820Z 09003KT 040V160 CAVOK 09/02 Q1021 NOSIG",
      "taf": "TAF ENGM 180500Z 1806/1906 03005KT CAVOK"
    },
    {
      "icao": "ENHD",
      "alert": "OK",
      "vis_m": 9999,
      "fzfg": false,
      "metar_trigger": false,
      "taf_trigger": false,
      "metar": "METAR ENHD 180820Z 16012KT 130V190 9999 BKN006 10/08 Q1015 REDZ",
      "taf": "TAF ENHD 180500Z 1806/1815 15012KT 9999 -RA FEW012 BKN025"
    },
    {
      "icao": "ENTC",
      "alert": "OK",
      "vis_m": 9999,
      "fzfg": false,
      "metar_trigger": false,
      "taf_trigger": false,
      "metar": "METAR ENTC 180820Z 27004KT CAVOK 06/M01 Q1025 NOSIG RMK WIND 2600FT 16014KT",
      "taf": "TAF ENTC 180500Z 1806/1906 VRB03KT CAVOK"
    },
    {
      "icao": "ENTO",
      "alert": "OK",
      "vis_m": 9999,
      "fzfg": false,
      "metar_trigger": false,
      "taf_trigger": false,
      "metar": "METAR ENTO 180820Z 13003KT 080V160 CAVOK 09/06 Q1021 TEMPO 4000 -RA BR",
      "taf": "TAF ENTO 180500Z 1806/1906 03005KT CAVOK"
    },
    {
      "icao": "ENVA",
      "alert": "OK",
      "vis_m": 9999,
      "fzfg": false,
      "metar_trigger": false,
      "taf_trigger": false,
      "metar": "METAR ENVA 180750Z 15009KT CAVOK 12/02 Q1017 NOSIG RMK WIND 670FT 16015KT",
      "taf": "TAF ENVA 180500Z 1806/1906 12008KT CAVOK"
    },
    {
      "icao": "ENZV",
      "alert": "OK",
      "vis_m": 9999,
      "fzfg": false,
      "metar_trigger": false,
      "taf_trigger": false,
      "metar": "METAR ENZV 180820Z 14009KT 9999 -RA SCT020 BKN023 OVC028 10/08 Q1016 TEMPO 4000 SHRA BKN008 SCT020CB",
      "taf": ""
    },
    {
      "icao": "EPGD",
      "alert": "OK",
      "vis_m": 9999,
      "fzfg": false,
      "metar_trigger": false,
      "taf_trigger": false,
      "metar": "METAR EPGD 180800Z 36005KT 340V040 CAVOK 12/01 Q1023",
      "taf": "TAF EPGD 180530Z 1806/1906 36005KT CAVOK"
    },
    {
      "icao": "EPKK",
      "alert": "OK",
      "vis_m": 9999,
      "fzfg": false,
      "metar_trigger": false,
      "taf_trigger": false,
      "metar": "METAR EPKK 180800Z 16003KT 100V220 9999 FEW025 13/04 Q1021",
      "taf": "TAF EPKK 180830Z 1809/1909 VRB05KT CAVOK"
    },
    {
      "icao": "EPKT",
      "alert": "OK",
      "vis_m": 9999,
      "fzfg": false,
      "metar_trigger": false,
      "taf_trigger": false,
      "metar": "METAR EPKT 180800Z 36008KT 310V030 CAVOK 13/03 Q1021",
      "taf": ""
    },
    {
      "icao": "EPLB",
      "alert": "OK",
      "vis_m": 9999,
      "fzfg": false,
      "metar_trigger": false,
      "taf_trigger": false,
      "metar": "METAR EPLB 180800Z 29010KT CAVOK 09/06 Q1020",
      "taf": ""
    },
    {
      "icao": "EPMO",
      "alert": "OK",
      "vis_m": 9999,
      "fzfg": false,
      "metar_trigger": false,
      "taf_trigger": false,
      "metar": "METAR EPMO 180800Z 36004KT 330V030 9999 SCT037 BKN044 10/06 Q1021",
      "taf": "TAF EPMO 180530Z 1806/1906 31005KT CAVOK"
    },
    {
      "icao": "EPPO",
      "alert": "OK",
      "vis_m": 9999,
      "fzfg": false,
      "metar_trigger": false,
      "taf_trigger": false,
      "metar": "METAR EPPO 180800Z 08003KT 060V170 CAVOK 14/05 Q1022",
      "taf": "TAF EPPO 180530Z 1806/1906 08004KT CAVOK"
    },
    {
      "icao": "EPRA",
      "alert": "OK",
      "vis_m": 9999,
      "fzfg": false,
      "metar_trigger": false,
      "taf_trigger": false,
      "metar": "METAR EPRA 180800Z 32009KT 300V010 CAVOK 10/04 Q1021",
      "taf": "TAF EPRA 180830Z 1809/1818 33010KT CAVOK"
    },
    {
      "icao": "EPRZ",
      "alert": "OK",
      "vis_m": 9999,
      "fzfg": false,
      "metar_trigger": false,
      "taf_trigger": false,
      "metar": "METAR EPRZ 180800Z 28009KT 250V310 9999 FEW026 12/04 Q1020",
      "taf": ""
    },
    {
      "icao": "EPSC",
      "alert": "OK",
      "vis_m": 9999,
      "fzfg": false,
      "metar_trigger": false,
      "taf_trigger": false,
      "metar": "METAR EPSC 180800Z 16003KT 110V200 CAVOK 14/05 Q1022",
      "taf": "TAF EPSC 180530Z 1806/1906 10005KT CAVOK"
    },
    {
      "icao": "EPSY",
      "alert": "OK",
      "vis_m": 9999,
      "fzfg": false,
      "metar_trigger": false,
      "taf_trigger": false,
      "metar": "METAR EPSY 180800Z VRB05KT CAVOK 09/05 Q1021",
      "taf": "TAF EPSY 180830Z 1809/1818 35006KT CAVOK"
    },
    {
      "icao": "EPWA",
      "alert": "OK",
      "vis_m": 9999,
      "fzfg": false,
      "metar_trigger": false,
      "taf_trigger": false,
      "metar": "METAR EPWA 180800Z 33006KT 280V010 9999 BKN044 09/05 Q1021 NOSIG",
      "taf": "TAF EPWA 180830Z 1809/1909 34010KT 9999 SCT045"
    },
    {
      "icao": "EPWR",
      "alert": "OK",
      "vis_m": 9999,
      "fzfg": false,
      "metar_trigger": false,
      "taf_trigger": false,
      "metar": "METAR EPWR 180800Z 06003KT 030V090 CAVOK 14/01 Q1022",
      "taf": "TAF EPWR 180830Z 1809/1909 VRB02KT CAVOK"
    },
    {
      "icao": "ESGG",
      "alert": "OK",
      "vis_m": 9999,
      "fzfg": false,
      "metar_trigger": false,
      "taf_trigger": false,
      "metar": "METAR ESGG 180820Z 18006KT CAVOK 10/06 Q1021",
      "taf": "TAF ESGG 180830Z 1809/1909 18006KT CAVOK"
    },
    {
      "icao": "ESKN",
      "alert": "OK",
      "vis_m": 9999,
      "fzfg": false,
      "metar_trigger": false,
      "taf_trigger": false,
      "metar": "METAR ESKN 180820Z 04004KT 340V080 CAVOK 12/00 Q1022",
      "taf": "TAF ESKN 180830Z 1809/1909 03005KT CAVOK"
    },
    {
      "icao": "ESMS",
      "alert": "OK",
      "vis_m": 9999,
      "fzfg": false,
      "metar_trigger": false,
      "taf_trigger": false,
      "metar": "METAR ESMS 180820Z 15008KT CAVOK 12/02 Q1022",
      "taf": "TAF ESMS 180827Z 1809/1909 15008KT CAVOK"
    },
    {
      "icao": "ESSA",
      "alert": "OK",
      "vis_m": 9999,
      "fzfg": false,
      "metar_trigger": false,
      "taf_trigger": false,
      "metar": "METAR ESSA 180820Z 35003KT 260V040 CAVOK 11/M01 Q1022 NOSIG",
      "taf": "TAF ESSA 180830Z 1809/1909 04004KT CAVOK"
    },
    {
      "icao": "EYKA",
      "alert": "OK",
      "vis_m": 9999,
      "fzfg": false,
      "metar_trigger": false,
      "taf_trigger": false,
      "metar": "METAR EYKA 180820Z 02007KT 310V080 CAVOK 12/M00 Q1020",
      "taf": "TAF EYKA 180506Z 1806/1906 01010KT 9000 NSC"
    },
    {
      "icao": "EYPA",
      "alert": "OK",
      "vis_m": 9999,
      "fzfg": false,
      "metar_trigger": false,
      "taf_trigger": false,
      "metar": "METAR EYPA 180820Z 31003KT 230V360 CAVOK 11/03 Q1022",
      "taf": "TAF EYPA 180500Z 1806/1906 VRB04KT 8000 NSC"
    },
    {
      "icao": "EYVI",
      "alert": "OK",
      "vis_m": 9999,
      "fzfg": false,
      "metar_trigger": false,
      "taf_trigger": false,
      "metar": "METAR EYVI 180820Z 36013KT CAVOK 12/M00 Q1018 NOSIG",
      "taf": "TAF EYVI 180501Z 1806/1906 VRB03KT 9000 NSC"
    },
    {
      "icao": "GCFV",
      "alert": "OK",
      "vis_m": 9999,
      "fzfg": false,
      "metar_trigger": false,
      "taf_trigger": false,
      "metar": "METAR GCFV 180800Z 34005KT 290V030 CAVOK 22/11 Q1013",
      "taf": "TAF GCFV 180800Z 1809/1909 01010KT 8000 NSC TX29/1814Z TN20/1906Z"
    },
    {
      "icao": "GCLP",
      "alert": "OK",
      "vis_m": 9999,
      "fzfg": false,
      "metar_trigger": false,
      "taf_trigger": false,
      "metar": "METAR GCLP 180800Z VRB04KT CAVOK 26/07 Q1012 NOSIG",
      "taf": "TAF GCLP 180800Z 1809/1909 18007KT 8000 NSC TX29/1814Z TN22/1906Z"
    },
    {
      "icao": "GCTS",
      "alert": "OK",
      "vis_m": 9999,
      "fzfg": false,
      "metar_trigger": false,
      "taf_trigger": false,
      "metar": "METAR GCTS 180800Z 06011KT CAVOK 24/07 Q1011 NOSIG",
      "taf": "TAF GCTS 180800Z 1809/1909 09016KT 8000 NSC TX30/1814Z TN22/1906Z"
    },
    {
      "icao": "GMAD",
      "alert": "OK",
      "vis_m": 8000,
      "fzfg": false,
      "metar_trigger": false,
      "taf_trigger": false,
      "metar": "METAR GMAD 180800Z 06010KT 8000 NSC 23/07 Q1014 NOSIG",
      "taf": "TAF GMAD 180500Z 1806/1912 22004KT 8000 NSC"
    },
    {
      "icao": "GMMN",
      "alert": "OK",
      "vis_m": 9999,
      "fzfg": false,
      "metar_trigger": false,
      "taf_trigger": false,
      "metar": "METAR GMMN 180800Z VRB02KT 6000 FEW010 16/13 Q1017 BECMG CAVOK",
      "taf": "TAF GMMN 180500Z 1806/1912 30003KT 8000 BKN004"
    },
    {
      "icao": "GMMX",
      "alert": "OK",
      "vis_m": 9999,
      "fzfg": false,
      "metar_trigger": false,
      "taf_trigger": false,
      "metar": "METAR GMMX 180800Z 07003KT 040V100 CAVOK 21/15 Q1017 NOSIG",
      "taf": "TAF GMMX 180500Z 1806/1912 12006KT CAVOK"
    },
    {
      "icao": "HEGN",
      "alert": "OK",
      "vis_m": null,
      "fzfg": false,
      "metar_trigger": false,
      "taf_trigger": false,
      "metar": "",
      "taf": "TAF HEGN 180500Z 1806/1912 29015G25KT 6000 SCT025"
    },
    {
      "icao": "HEMA",
      "alert": "OK",
      "vis_m": null,
      "fzfg": false,
      "metar_trigger": false,
      "taf_trigger": false,
      "metar": "",
      "taf": "TAF HEMA 180500Z 1806/1912 29012G25KT 6000 SCT025"
    },
    {
      "icao": "HESH",
      "alert": "OK",
      "vis_m": null,
      "fzfg": false,
      "metar_trigger": false,
      "taf_trigger": false,
      "metar": "",
      "taf": "TAF HESH 180500Z 1806/1912 29010G22KT 6000 SCT025"
    },
    {
      "icao": "HESX",
      "alert": "OK",
      "vis_m": null,
      "fzfg": false,
      "metar_trigger": false,
      "taf_trigger": false,
      "metar": "",
      "taf": "TAF HESX 180500Z 1806/1912 26014KT 6000 NSC"
    },
    {
      "icao": "LATI",
      "alert": "OK",
      "vis_m": 9999,
      "fzfg": false,
      "metar_trigger": false,
      "taf_trigger": false,
      "metar": "METAR LATI 180820Z VRB06KT CAVOK 24/01 Q1011 BECMG 01010KT",
      "taf": "TAF LATI 180500Z 1806/1906 VRB05KT CAVOK TX27/1812Z TN08/1904Z"
    },
    {
      "icao": "LBPD",
      "alert": "OK",
      "vis_m": 9999,
      "fzfg": false,
      "metar_trigger": false,
      "taf_trigger": false,
      "metar": "METAR LBPD 180830Z AUTO VRB03KT 9999 FEW064/// 18/10 Q1014 NOSIG",
      "taf": "TAF LBPD 180500Z 1806/1906 VRB04KT 9999 SCT033 BKN050"
    },
    {
      "icao": "LBSF",
      "alert": "OK",
      "vis_m": 9999,
      "fzfg": false,
      "metar_trigger": false,
      "taf_trigger": false,
      "metar": "METAR LBSF 180830Z 20006KT 9999 SCT030 BKN038 BKN081 12/08 Q1016 NOSIG",
      "taf": ""
    },
    {
      "icao": "LBWN",
      "alert": "OK",
      "vis_m": 9999,
      "fzfg": false,
      "metar_trigger": false,
      "taf_trigger": false,
      "metar": "METAR LBWN 180830Z 36014KT 330V040 9999 SCT026 16/09 Q1013 NOSIG",
      "taf": "TAF LBWN 180500Z 1806/1906 35012KT 9999 SCT040"
    },
    {
      "icao": "LCLK",
      "alert": "OK",
      "vis_m": 1500,
      "fzfg": false,
      "metar_trigger": false,
      "taf_trigger": false,
      "metar": "METAR LCLK 180800Z 21014KT 1500 DU FEW020TCU 22/18 Q1001 TEMPO 1000 DU SHRA SCT020TCU FEW025CB",
      "taf": "TAF LCLK 180530Z 1806/1906 35008KT 8000 FEW030"
    },
    {
      "icao": "LCPH",
      "alert": "OK",
      "vis_m": 1500,
      "fzfg": false,
      "metar_trigger": false,
      "taf_trigger": false,
      "metar": "METAR LCPH 180800Z 17012G22KT 160V240 1500 TSRA DU FEW030 FEW040CB BKN050 18/15 Q1001 TEMPO 1000 TSRA DU SCT020CB",
      "taf": "TAF LCPH 180530Z 1806/1906 13017KT 8000 FEW030"
    },
    {
      "icao": "LEAL",
      "alert": "OK",
      "vis_m": 9999,
      "fzfg": false,
      "metar_trigger": false,
      "taf_trigger": false,
      "metar": "METAR LEAL 180800Z VRB02KT CAVOK 20/08 Q1020 NOSIG",
      "taf": "TAF LEAL 180500Z 1806/1906 VRB04KT CAVOK TX23/1812Z TN12/1905Z"
    },
    {
      "icao": "LEBB",
      "alert": "OK",
      "vis_m": 9999,
      "fzfg": false,
      "metar_trigger": false,
      "taf_trigger": false,
      "metar": "METAR LEBB 180800Z VRB02KT 9999 FEW012 BKN030 15/13 Q1023 NOSIG",
      "taf": "TAF LEBB 180500Z 1806/1906 VRB03KT 9999 BKN016 TX19/1815Z TN10/1902Z"
    },
    {
      "icao": "LEBL",
      "alert": "OK",
      "vis_m": 9999,
      "fzfg": false,
      "metar_trigger": false,
      "taf_trigger": false,
      "metar": "METAR LEBL 180800Z 30003KT 240V340 CAVOK 19/14 Q1020 NOSIG",
      "taf": "TAF LEBL 180500Z 1806/1906 31007KT CAVOK TX21/1812Z TN12/1806Z"
    },
    {
      "icao": "LECH",
      "alert": "OK",
      "vis_m": 9999,
      "fzfg": false,
      "metar_trigger": false,
      "taf_trigger": false,
      "metar": "METAR LECH 180800Z AUTO VRB02KT CAVOK 15/09 Q1020",
      "taf": "TAF LECH 180500Z 1806/1906 VRB04KT CAVOK TX25/1813Z TN11/1905Z"
    },
    {
      "icao": "LEMD",
      "alert": "OK",
      "vis_m": 9999,
      "fzfg": false,
      "metar_trigger": false,
      "taf_trigger": false,
      "metar": "METAR LEMD 180800Z 30001KT CAVOK 16/08 Q1020 NOSIG",
      "taf": "TAF LEMD 180500Z 1806/1912 VRB04KT CAVOK TX28/1816Z TN10/1906Z"
    },
    {
      "icao": "LEMG",
      "alert": "OK",
      "vis_m": 9999,
      "fzfg": false,
      "metar_trigger": false,
      "taf_trigger": false,
      "metar": "METAR LEMG 180800Z 29006KT CAVOK 15/08 Q1019 NOSIG",
      "taf": "TAF LEMG 180500Z 1806/1906 29007KT CAVOK TX23/1814Z TN09/1806Z"
    },
    {
      "icao": "LEVC",
      "alert": "OK",
      "vis_m": 9999,
      "fzfg": false,
      "metar_trigger": false,
      "taf_trigger": false,
      "metar": "METAR LEVC 180800Z 31004KT 250V360 CAVOK 18/12 Q1020 NOSIG",
      "taf": "TAF LEVC 180500Z 1806/1906 VRB04KT CAVOK TX25/1812Z TN12/1905Z"
    },
    {
      "icao": "LEXJ",
      "alert": "OK",
      "vis_m": 9999,
      "fzfg": false,
      "metar_trigger": false,
      "taf_trigger": false,
      "metar": "METAR LEXJ 180800Z VRB01KT 9999 BKN025 OVC040 14/12 Q1023",
      "taf": "TAF LEXJ 180800Z 1809/1909 04009KT 9999 FEW020 TX17/1813Z TN12/1903Z"
    },
    {
      "icao": "LEZG",
      "alert": "OK",
      "vis_m": 9999,
      "fzfg": false,
      "metar_trigger": false,
      "taf_trigger": false,
      "metar": "METAR LEZG 180800Z 29008KT 260V320 CAVOK 16/11 Q1020 NOSIG",
      "taf": "TAF LEZG 180500Z 1806/1906 29008KT CAVOK TX30/1814Z TN14/1905Z"
    },
    {
      "icao": "LEZL",
      "alert": "OK",
      "vis_m": 9999,
      "fzfg": false,
      "metar_trigger": false,
      "taf_trigger": false,
      "metar": "METAR LEZL 180800Z 04004KT CAVOK 19/09 Q1017 NOSIG",
      "taf": "TAF LEZL 180800Z 1809/1909 VRB03KT CAVOK TX32/1815Z TN13/1906Z"
    },
    {
      "icao": "LFBD",
      "alert": "OK",
      "vis_m": 9999,
      "fzfg": false,
      "metar_trigger": false,
      "taf_trigger": false,
      "metar": "METAR LFBD 180800Z AUTO 36005KT 330V040 CAVOK 15/11 Q1022 NOSIG",
      "taf": "TAF LFBD 180500Z 1806/1912 31005KT CAVOK TX25/1815Z TN11/1806Z"
    },
    {
      "icao": "LFLL",
      "alert": "OK",
      "vis_m": 9999,
      "fzfg": false,
      "metar_trigger": false,
      "taf_trigger": false,
      "metar": "METAR LFLL 180800Z 35004KT 310V030 CAVOK 14/10 Q1021 NOSIG",
      "taf": "TAF LFLL 180500Z 1806/1912 VRB02KT CAVOK"
    },
    {
      "icao": "LFLS",
      "alert": "OK",
      "vis_m": 9999,
      "fzfg": false,
      "metar_trigger": false,
      "taf_trigger": false,
      "metar": "METAR LFLS 180800Z AUTO VRB02KT CAVOK 15/09 Q1021 NOSIG",
      "taf": "TAF LFLS 180800Z 1809/1909 VRB03KT CAVOK"
    },
    {
      "icao": "LFMN",
      "alert": "OK",
      "vis_m": 9999,
      "fzfg": false,
      "metar_trigger": false,
      "taf_trigger": false,
      "metar": "METAR LFMN 180800Z 10003KT CAVOK 21/11 Q1018 NOSIG",
      "taf": "TAF LFMN 180200Z 1803/1909 01005KT CAVOK"
    },
    {
      "icao": "LFOB",
      "alert": "OK",
      "vis_m": 9999,
      "fzfg": false,
      "metar_trigger": false,
      "taf_trigger": false,
      "metar": "METAR LFOB 180800Z AUTO VRB01KT CAVOK 14/12 Q1021 TEMPO 4500 -SHRA BKN013",
      "taf": "TAF LFOB 180500Z 1806/1906 VRB05KT 9999 SCT040"
    },
    {
      "icao": "LFPO",
      "alert": "OK",
      "vis_m": 9999,
      "fzfg": false,
      "metar_trigger": false,
      "taf_trigger": false,
      "metar": "METAR LFPO 180730Z 19003KT 140V240 CAVOK 14/09 Q1021 NOSIG",
      "taf": "TAF LFPO 180500Z 1806/1912 24003KT CAVOK"
    },
    {
      "icao": "LFSB",
      "alert": "OK",
      "vis_m": 9999,
      "fzfg": false,
      "metar_trigger": false,
      "taf_trigger": false,
      "metar": "METAR LFSB 180800Z AUTO 15004KT 110V190 CAVOK 15/09 Q1021 NOSIG",
      "taf": "TAF LFSB 180500Z 1806/1906 VRB03KT CAVOK"
    },
    {
      "icao": "LGAV",
      "alert": "OK",
      "vis_m": 9999,
      "fzfg": false,
      "metar_trigger": false,
      "taf_trigger": false,
      "metar": "METAR LGAV 180820Z 03018KT 9999 FEW025 19/03 Q1011 NOSIG",
      "taf": "TAF LGAV 180500Z 1806/1906 01018KT 9999 FEW025"
    },
    {
      "icao": "LGTS",
      "alert": "OK",
      "vis_m": 9999,
      "fzfg": false,
      "metar_trigger": false,
      "taf_trigger": false,
      "metar": "METAR LGTS 180820Z VRB02KT 9999 SCT030 19/10 Q1012 NOSIG",
      "taf": "TAF LGTS 180500Z 1806/1906 35013KT 9999 SCT025 BKN050"
    },
    {
      "icao": "LHBP",
      "alert": "OK",
      "vis_m": 9999,
      "fzfg": false,
      "metar_trigger": false,
      "taf_trigger": false,
      "metar": "METAR LHBP 180830Z VRB03KT CAVOK 17/01 Q1020 NOSIG",
      "taf": "TAF LHBP 180515Z 1806/1906 36005KT CAVOK"
    },
    {
      "icao": "LHDC",
      "alert": "OK",
      "vis_m": 9999,
      "fzfg": false,
      "metar_trigger": false,
      "taf_trigger": false,
      "metar": "METAR LHDC 180745Z AUTO 03013KT 330V070 CAVOK 14/03 Q1019 NOSIG",
      "taf": "TAF LHDC 180815Z 1809/1818 01012G22KT CAVOK"
    },
    {
      "icao": "LIBD",
      "alert": "OK",
      "vis_m": 9999,
      "fzfg": false,
      "metar_trigger": false,
      "taf_trigger": false,
      "metar": "METAR LIBD 180820Z 32011KT 290V010 CAVOK 19/11 Q1015",
      "taf": "TAF LIBD 180500Z 1806/1906 27008KT CAVOK"
    },
    {
      "icao": "LIBG",
      "alert": "OK",
      "vis_m": 9999,
      "fzfg": false,
      "metar_trigger": false,
      "taf_trigger": false,
      "metar": "METAR LIBG 180750Z 35014KT CAVOK 20/11 Q1013",
      "taf": "TAF LIBG 180800Z 1809/1818 35013KT CAVOK"
    },
    {
      "icao": "LIBP",
      "alert": "OK",
      "vis_m": 9999,
      "fzfg": false,
      "metar_trigger": false,
      "taf_trigger": false,
      "metar": "METAR LIBP 180820Z AUTO 03006KT 320V120 9999 NCD 21/08 Q1018",
      "taf": "TAF LIBP 180500Z 1806/1906 24005KT CAVOK"
    },
    {
      "icao": "LIBR",
      "alert": "OK",
      "vis_m": 9999,
      "fzfg": false,
      "metar_trigger": false,
      "taf_trigger": false,
      "metar": "METAR LIBR 180820Z 32016KT CAVOK 18/14 Q1013",
      "taf": "TAF LIBR 180500Z 1806/1906 33016KT CAVOK"
    },
    {
      "icao": "LICA",
      "alert": "OK",
      "vis_m": 9999,
      "fzfg": false,
      "metar_trigger": false,
      "taf_trigger": false,
      "metar": "METAR LICA 180820Z AUTO 23011KT 9999 BKN011/// 18/16 Q1015",
      "taf": "TAF LICA 180500Z 1806/1906 24010KT 9999 SCT014"
    },
    {
      "icao": "LICC",
      "alert": "OK",
      "vis_m": 9999,
      "fzfg": false,
      "metar_trigger": false,
      "taf_trigger": false,
      "metar": "METAR LICC 180820Z 08004KT 050V200 CAVOK 20/18 Q1014",
      "taf": "TAF LICC 180500Z 1806/1906 VRB05KT 9999 FEW020"
    },
    {
      "icao": "LICJ",
      "alert": "OK",
      "vis_m": 9999,
      "fzfg": false,
      "metar_trigger": false,
      "taf_trigger": false,
      "metar": "METAR LICJ 180820Z 27006KT CAVOK 17/14 Q1016",
      "taf": "TAF LICJ 180500Z 1806/1906 VRB05KT 9999 SCT010"
    },
    {
      "icao": "LIMC",
      "alert": "OK",
      "vis_m": 9999,
      "fzfg": false,
      "metar_trigger": false,
      "taf_trigger": false,
      "metar": "METAR LIMC 180820Z VRB02KT 9999 SCT050 20/13 Q1019 NOSIG",
      "taf": "TAF LIMC 180500Z 1806/1912 VRB05KT 9999 SCT050"
    },
    {
      "icao": "LIME",
      "alert": "OK",
      "vis_m": 9999,
      "fzfg": false,
      "metar_trigger": false,
      "taf_trigger": false,
      "metar": "METAR LIME 180820Z VRB01KT 9999 SCT050 20/12 Q1019 NOSIG",
      "taf": "TAF LIME 180500Z 1806/1906 VRB05KT 9999 SCT050"
    },
    {
      "icao": "LIMF",
      "alert": "OK",
      "vis_m": 9999,
      "fzfg": false,
      "metar_trigger": false,
      "taf_trigger": false,
      "metar": "METAR LIMF 180820Z 11003KT 060V150 9999 BKN050 19/14 Q1020",
      "taf": "TAF LIMF 180500Z 1806/1906 VRB05KT 9999 SCT040"
    },
    {
      "icao": "LIMJ",
      "alert": "OK",
      "vis_m": 9999,
      "fzfg": false,
      "metar_trigger": false,
      "taf_trigger": false,
      "metar": "METAR LIMJ 180820Z 25003KT 230V300 CAVOK 21/11 Q1018",
      "taf": "TAF LIMJ 180500Z 1806/1906 VRB05KT CAVOK"
    },
    {
      "icao": "LIPE",
      "alert": "OK",
      "vis_m": 9999,
      "fzfg": false,
      "metar_trigger": false,
      "taf_trigger": false,
      "metar": "METAR LIPE 180820Z VRB02KT CAVOK 20/11 Q1019",
      "taf": "TAF LIPE 180500Z 1806/1906 VRB05KT CAVOK"
    },
    {
      "icao": "LIPH",
      "alert": "OK",
      "vis_m": 9999,
      "fzfg": false,
      "metar_trigger": false,
      "taf_trigger": false,
      "metar": "METAR LIPH 180820Z 11004KT 070V150 CAVOK 22/09 Q1019",
      "taf": "TAF LIPH 180500Z 1806/1906 VRB05KT CAVOK"
    },
    {
      "icao": "LIPQ",
      "alert": "OK",
      "vis_m": 9999,
      "fzfg": false,
      "metar_trigger": false,
      "taf_trigger": false,
      "metar": "METAR LIPQ 180820Z AUTO VRB02KT 9999 FEW100/// 22/09 Q1019",
      "taf": "TAF LIPQ 180500Z 1806/1906 VRB04KT 9999 SCT060"
    },
    {
      "icao": "LIPR",
      "alert": "OK",
      "vis_m": 9999,
      "fzfg": false,
      "metar_trigger": false,
      "taf_trigger": false,
      "metar": "METAR LIPR 180820Z 36003KT 310V040 CAVOK 19/11 Q1019",
      "taf": "TAF LIPR 180500Z 1806/1906 VRB05KT CAVOK"
    },
    {
      "icao": "LIPX",
      "alert": "OK",
      "vis_m": 9999,
      "fzfg": false,
      "metar_trigger": false,
      "taf_trigger": false,
      "metar": "METAR LIPX 180820Z 11005KT 060V140 9999 BKN090 20/09 Q1019",
      "taf": "TAF LIPX 180500Z 1806/1906 VRB05KT 9999 FEW050"
    },
    {
      "icao": "LIPY",
      "alert": "OK",
      "vis_m": 9999,
      "fzfg": false,
      "metar_trigger": false,
      "taf_trigger": false,
      "metar": "METAR LIPY 180820Z AUTO 34007KT 9999 NCD 19/13 Q1019",
      "taf": "TAF LIPY 180500Z 1806/1906 24006KT CAVOK"
    },
    {
      "icao": "LIPZ",
      "alert": "OK",
      "vis_m": 9999,
      "fzfg": false,
      "metar_trigger": false,
      "taf_trigger": false,
      "metar": "METAR LIPZ 180820Z 09005KT 050V130 CAVOK 20/10 Q1019 NOSIG",
      "taf": "TAF LIPZ 180500Z 1806/1912 05008KT CAVOK"
    },
    {
      "icao": "LIRF",
      "alert": "OK",
      "vis_m": 9999,
      "fzfg": false,
      "metar_trigger": false,
      "taf_trigger": false,
      "metar": "METAR LIRF 180820Z 06005KT 030V090 CAVOK 21/10 Q1016 NOSIG",
      "taf": "TAF LIRF 180500Z 1806/1912 04007KT 9999 FEW050"
    },
    {
      "icao": "LIRN",
      "alert": "OK",
      "vis_m": 9999,
      "fzfg": false,
      "metar_trigger": false,
      "taf_trigger": false,
      "metar": "METAR LIRN 180820Z 07008KT 040V110 CAVOK 22/06 Q1016 NOSIG",
      "taf": "TAF LIRN 180500Z 1806/1906 VRB05KT 9999 SCT060"
    },
    {
      "icao": "LIRP",
      "alert": "OK",
      "vis_m": 9999,
      "fzfg": false,
      "metar_trigger": false,
      "taf_trigger": false,
      "metar": "METAR LIRP 180815Z 12003KT CAVOK 19/12 Q1018 NOSIG",
      "taf": "TAF LIRP 180500Z 1806/1906 VRB03KT CAVOK"
    },
    {
      "icao": "LIRZ",
      "alert": "OK",
      "vis_m": 9999,
      "fzfg": false,
      "metar_trigger": false,
      "taf_trigger": false,
      "metar": "METAR LIRZ 180820Z AUTO 02009KT 9999 NCD 20/08 Q1018",
      "taf": "TAF LIRZ 180500Z 1806/1906 VRB05KT CAVOK"
    },
    {
      "icao": "LJLJ",
      "alert": "OK",
      "vis_m": 9999,
      "fzfg": false,
      "metar_trigger": false,
      "taf_trigger": false,
      "metar": "METAR LJLJ 180800Z VRB01KT 9999 FEW070 15/06 Q1021 NOSIG",
      "taf": "TAF LJLJ 180500Z 1806/1906 30003KT 9999 FEW070"
    },
    {
      "icao": "LKMT",
      "alert": "OK",
      "vis_m": 9999,
      "fzfg": false,
      "metar_trigger": false,
      "taf_trigger": false,
      "metar": "METAR LKMT 180800Z 05003KT 340V130 9999 FEW036 12/04 Q1022 NOSIG",
      "taf": "TAF LKMT 180500Z 1806/1906 22004KT CAVOK"
    },
    {
      "icao": "LKPR",
      "alert": "OK",
      "vis_m": 9999,
      "fzfg": false,
      "metar_trigger": false,
      "taf_trigger": false,
      "metar": "METAR LKPR 180800Z 02003KT 350V090 CAVOK 14/04 Q1021 NOSIG",
      "taf": "TAF LKPR 180800Z 1809/1915 07006KT CAVOK"
    },
    {
      "icao": "LLBG",
      "alert": "OK",
      "vis_m": 5000,
      "fzfg": false,
      "metar_trigger": false,
      "taf_trigger": false,
      "metar": "METAR LLBG 180820Z 24020KT 5000 DU NSC 26/08 Q1005 NOSIG",
      "taf": ""
    },
    {
      "icao": "LMML",
      "alert": "OK",
      "vis_m": 9999,
      "fzfg": false,
      "metar_trigger": false,
      "taf_trigger": false,
      "metar": "METAR LMML 180815Z 34005KT 310V020 9999 FEW015 21/15 Q1015 NOSIG",
      "taf": "TAF LMML 180500Z 1806/1906 31010KT 9999 FEW012"
    },
    {
      "icao": "LOWW",
      "alert": "OK",
      "vis_m": 9999,
      "fzfg": false,
      "metar_trigger": false,
      "taf_trigger": false,
      "metar": "METAR LOWW 180820Z 01005KT 330V060 CAVOK 15/04 Q1022 NOSIG",
      "taf": "TAF LOWW 180815Z 1809/1915 35007KT CAVOK TX20/1814Z TN08/1903Z"
    },
    {
      "icao": "LPFR",
      "alert": "OK",
      "vis_m": 9999,
      "fzfg": false,
      "metar_trigger": false,
      "taf_trigger": false,
      "metar": "METAR LPFR 180800Z 08007KT CAVOK 22/06 Q1016",
      "taf": "TAF LPFR 180500Z 1806/1906 06007KT CAVOK"
    },
    {
      "icao": "LPMA",
      "alert": "OK",
      "vis_m": 9999,
      "fzfg": false,
      "metar_trigger": false,
      "taf_trigger": false,
      "metar": "METAR LPMA 180800Z 02016KT 9999 BKN015 16/11 Q1016",
      "taf": "TAF LPMA 180500Z 1806/1906 03015KT 9999 BKN015"
    },
    {
      "icao": "LPPR",
      "alert": "OK",
      "vis_m": 9999,
      "fzfg": false,
      "metar_trigger": false,
      "taf_trigger": false,
      "metar": "METAR LPPR 180800Z VRB03KT CAVOK 15/12 Q1018",
      "taf": "TAF LPPR 180500Z 1806/1906 VRB02KT 9999 FEW012"
    },
    {
      "icao": "LPPS",
      "alert": "OK",
      "vis_m": 9999,
      "fzfg": false,
      "metar_trigger": false,
      "taf_trigger": false,
      "metar": "METAR LPPS 180800Z 07010KT 040V100 9999 SCT014 BKN030 16/12 Q1017",
      "taf": "TAF LPPS 180500Z 1806/1912 06012KT 9999 SCT014 BKN030"
    },
    {
      "icao": "LPPT",
      "alert": "OK",
      "vis_m": 9999,
      "fzfg": false,
      "metar_trigger": false,
      "taf_trigger": false,
      "metar": "METAR LPPT 180800Z 36005KT 330V040 CAVOK 15/11 Q1017",
      "taf": "TAF LPPT 180500Z 1806/1912 33007KT CAVOK"
    },
    {
      "icao": "LQBK",
      "alert": "OK",
      "vis_m": 9999,
      "fzfg": false,
      "metar_trigger": false,
      "taf_trigger": false,
      "metar": "METAR LQBK 180800Z 36006KT 320V030 CAVOK 16/06 Q1019 NOSIG",
      "taf": "TAF LQBK 180500Z 1806/1906 32005KT CAVOK TX20/1813Z TN07/1904Z"
    },
    {
      "icao": "LQSA",
      "alert": "OK",
      "vis_m": 9999,
      "fzfg": false,
      "metar_trigger": false,
      "taf_trigger": false,
      "metar": "METAR LQSA 180800Z VRB01KT 9999 FEW050 13/06 Q1018 NOSIG",
      "taf": "TAF LQSA 180500Z 1806/1906 29005KT CAVOK TX20/1814Z TN03/1904Z"
    },
    {
      "icao": "LQTZ",
      "alert": "OK",
      "vis_m": 9999,
      "fzfg": false,
      "metar_trigger": false,
      "taf_trigger": false,
      "metar": "METAR LQTZ 180800Z 29006KT 250V340 CAVOK 15/08 Q1018",
      "taf": "TAF LQTZ 180500Z 1806/1906 33005KT CAVOK TX18/1813Z TN05/1904Z"
    },
    {
      "icao": "LRBC",
      "alert": "OK",
      "vis_m": 9999,
      "fzfg": false,
      "metar_trigger": false,
      "taf_trigger": false,
      "metar": "METAR LRBC 180800Z 33015KT 9999 FEW037 BKN057 12/04 Q1017",
      "taf": "TAF LRBC 180800Z 1809/1818 35015KT 9999 BKN050"
    },
    {
      "icao": "LRBS",
      "alert": "OK",
      "vis_m": 9999,
      "fzfg": false,
      "metar_trigger": false,
      "taf_trigger": false,
      "metar": "METAR LRBS 180800Z 06007KT 360V100 9999 FEW030 16/08 Q1015 NOSIG",
      "taf": "TAF LRBS 180500Z 1806/1906 VRB04KT 5000 BR NSC"
    },
    {
      "icao": "LRBV",
      "alert": "OK",
      "vis_m": 9999,
      "fzfg": false,
      "metar_trigger": false,
      "taf_trigger": false,
      "metar": "METAR LRBV 180800Z 11003KT 030V180 9999 FEW022 11/04 Q1016",
      "taf": "TAF LRBV 180800Z 1809/1818 VRB04KT 9999 SCT025 SCT040"
    },
    {
      "icao": "LRCL",
      "alert": "OK",
      "vis_m": 9999,
      "fzfg": false,
      "metar_trigger": false,
      "taf_trigger": false,
      "metar": "METAR LRCL 180800Z 36006KT 320V060 CAVOK 13/03 Q1017",
      "taf": "TAF LRCL 180800Z 1809/1818 36006KT CAVOK"
    },
    {
      "icao": "LRCV",
      "alert": "OK",
      "vis_m": 9999,
      "fzfg": false,
      "metar_trigger": false,
      "taf_trigger": false,
      "metar": "METAR LRCV 180800Z 16008KT 9999 SCT023 16/10 Q1016",
      "taf": "TAF LRCV 180800Z 1809/1818 16008KT 9999 SCT025 SCT040"
    },
    {
      "icao": "LRIA",
      "alert": "OK",
      "vis_m": 9999,
      "fzfg": false,
      "metar_trigger": false,
      "taf_trigger": false,
      "metar": "METAR LRIA 180800Z 32017KT 290V350 9999 BKN030 12/05 Q1016",
      "taf": "TAF LRIA 180800Z 1809/1818 31016KT 9999 SCT040"
    },
    {
      "icao": "LROP",
      "alert": "OK",
      "vis_m": 9999,
      "fzfg": false,
      "metar_trigger": false,
      "taf_trigger": false,
      "metar": "METAR LROP 180800Z 09007KT 030V120 CAVOK 16/06 Q1016 NOSIG",
      "taf": "TAF LROP 180500Z 1806/1906 VRB04KT 5000 BR NSC"
    },
    {
      "icao": "LRSB",
      "alert": "OK",
      "vis_m": 9999,
      "fzfg": false,
      "metar_trigger": false,
      "taf_trigger": false,
      "metar": "METAR LRSB 180800Z COR 32004KT 260V060 9999 FEW045 13/05 Q1016",
      "taf": "TAF LRSB 180500Z 1806/1906 29008KT CAVOK"
    },
    {
      "icao": "LRSM",
      "alert": "OK",
      "vis_m": 9999,
      "fzfg": false,
      "metar_trigger": false,
      "taf_trigger": false,
      "metar": "METAR LRSM 180800Z 05009KT CAVOK 14/01 Q1018",
      "taf": "TAF LRSM 180800Z 1809/1818 02010KT CAVOK"
    },
    {
      "icao": "LRSV",
      "alert": "OK",
      "vis_m": 9999,
      "fzfg": false,
      "metar_trigger": false,
      "taf_trigger": false,
      "metar": "METAR LRSV 180800Z 32018KT 9999 SCT029 BKN035 10/04 Q1017",
      "taf": "TAF LRSV 180800Z 1809/1818 32018KT 9999 BKN035"
    },
    {
      "icao": "LRTM",
      "alert": "OK",
      "vis_m": 9999,
      "fzfg": false,
      "metar_trigger": false,
      "taf_trigger": false,
      "metar": "METAR LRTM 180800Z 31004KT 230V020 CAVOK 13/05 Q1017",
      "taf": "TAF LRTM 180800Z 1809/1818 33007KT CAVOK"
    },
    {
      "icao": "LRTR",
      "alert": "OK",
      "vis_m": 9999,
      "fzfg": false,
      "metar_trigger": false,
      "taf_trigger": false,
      "metar": "METAR LRTR 180800Z 36014KT CAVOK 15/03 Q1018",
      "taf": "TAF LRTR 180500Z 1806/1906 36012KT CAVOK"
    },
    {
      "icao": "LTAC",
      "alert": "OK",
      "vis_m": 9999,
      "fzfg": false,
      "metar_trigger": false,
      "taf_trigger": false,
      "metar": "METAR LTAC 180820Z 36003KT 300V040 9999 FEW005 BKN030 BKN080 11/09 Q1004 RESHRA NOSIG RMK RWY21C 35003KT 290V080 RWY03L 34003KT 270V050 RWY21R VRB02KT RWY03R VRB02KT RWY21L VRB02KT",
      "taf": "TAF LTAC 180440Z 1806/1906 04008KT 9999 SCT035 BKN100"
    },
    {
      "icao": "LTFM",
      "alert": "OK",
      "vis_m": 9999,
      "fzfg": false,
      "metar_trigger": false,
      "taf_trigger": false,
      "metar": "METAR LTFM 180820Z 01018KT CAVOK 12/09 Q1011 NOSIG RMK RWY17L 36013KT RWY34L 36017KT RWY16R 36017KT RWY36 01018KT RWY18 01014KT",
      "taf": "TAF LTFM 180440Z 1806/1912 02018G28KT 9999 FEW012 BKN120"
    },
    {
      "icao": "LUKK",
      "alert": "OK",
      "vis_m": 9999,
      "fzfg": false,
      "metar_trigger": false,
      "taf_trigger": false,
      "metar": "METAR LUKK 180800Z 35016KT 300V010 9999 BKN036 11/03 Q1014 TEMPO 34015G25KT",
      "taf": "TAF LUKK 180507Z 1806/1906 34014KT CAVOK"
    },
    {
      "icao": "LWOH",
      "alert": "OK",
      "vis_m": 9999,
      "fzfg": false,
      "metar_trigger": false,
      "taf_trigger": false,
      "metar": "METAR LWOH 180820Z 35012KT 310V040 9999 FEW040 18/03 Q1014",
      "taf": "TAF LWOH 180525Z 1806/1906 34008KT 9999 FEW050 SCT080"
    },
    {
      "icao": "LWSK",
      "alert": "OK",
      "vis_m": 9999,
      "fzfg": false,
      "metar_trigger": false,
      "taf_trigger": false,
      "metar": "METAR LWSK 180820Z 22003KT 140V290 9999 SCT045 18/08 Q1015 NOSIG",
      "taf": "TAF LWSK 180525Z 1806/1906 VRB02KT CAVOK"
    },
    {
      "icao": "LYBE",
      "alert": "OK",
      "vis_m": 9999,
      "fzfg": false,
      "metar_trigger": false,
      "taf_trigger": false,
      "metar": "METAR LYBE 180800Z 01007KT 340V040 CAVOK 15/05 Q1018 NOSIG",
      "taf": "TAF LYBE 180500Z 1806/1906 35004KT CAVOK TX21/1813Z TN04/1904Z"
    },
    {
      "icao": "LYNI",
      "alert": "OK",
      "vis_m": 9999,
      "fzfg": false,
      "metar_trigger": false,
      "taf_trigger": false,
      "metar": "METAR LYNI 180800Z 33012KT 300V360 9999 FEW050 16/06 Q1015 NOSIG",
      "taf": "TAF LYNI 180500Z 1806/1906 33008KT CAVOK TX21/1812Z TN05/1904Z"
    },
    {
      "icao": "LYPG",
      "alert": "OK",
      "vis_m": 9999,
      "fzfg": false,
      "metar_trigger": false,
      "taf_trigger": false,
      "metar": "METAR LYPG 180800Z 05010KT 010V090 CAVOK 23/00 Q1013 TEMPO 36020KT",
      "taf": "TAF LYPG 180500Z 1806/1906 36012KT CAVOK TX27/1813Z TN12/1904Z"
    },
    {
      "icao": "LZIB",
      "alert": "OK",
      "vis_m": 9999,
      "fzfg": false,
      "metar_trigger": false,
      "taf_trigger": false,
      "metar": "METAR LZIB 180830Z 01006KT 330V060 CAVOK 17/01 Q1021 NOSIG",
      "taf": "TAF LZIB 180515Z 1806/1906 36005KT CAVOK"
    },
    {
      "icao": "LZKZ",
      "alert": "OK",
      "vis_m": 9999,
      "fzfg": false,
      "metar_trigger": false,
      "taf_trigger": false,
      "metar": "METAR LZKZ 180830Z 01013KT 340V040 CAVOK 13/03 Q1020 NOSIG",
      "taf": ""
    },
    {
      "icao": "LZTT",
      "alert": "OK",
      "vis_m": 9999,
      "fzfg": false,
      "metar_trigger": false,
      "taf_trigger": false,
      "metar": "METAR LZTT 180830Z VRB03KT CAVOK 11/M01 Q1020 NOSIG",
      "taf": "TAF LZTT 180515Z 1806/1906 30005KT CAVOK"
    },
    {
      "icao": "OEJN",
      "alert": "OK",
      "vis_m": 800,
      "fzfg": false,
      "metar_trigger": false,
      "taf_trigger": false,
      "metar": "SPECI OEJN 180829Z 16017G27KT 0800 BLDU NSC 40/11 Q1005 TEMPO 0500",
      "taf": "TAF OEJN 180500Z 1806/1912 18022KT 7000 NSC"
    },
    {
      "icao": "OEMA",
      "alert": "OK",
      "vis_m": 9999,
      "fzfg": false,
      "metar_trigger": false,
      "taf_trigger": false,
      "metar": "METAR OEMA 180800Z 17011KT CAVOK 36/06 Q1012 NOSIG",
      "taf": "TAF OEMA 180500Z 1806/1912 14010KT CAVOK"
    },
    {
      "icao": "OJAI",
      "alert": "OK",
      "vis_m": 2200,
      "fzfg": false,
      "metar_trigger": false,
      "taf_trigger": false,
      "metar": "METAR OJAI 180800Z 23014KT 2200 DU NSC 21/06 Q1008 NOSIG",
      "taf": "TAF OJAI 180440Z 1806/1912 15010KT 3000 DU SCT040"
    },
    {
      "icao": "OMAA",
      "alert": "OK",
      "vis_m": null,
      "fzfg": false,
      "metar_trigger": false,
      "taf_trigger": false,
      "metar": "",
      "taf": ""
    },
    {
      "icao": "OMDB",
      "alert": "OK",
      "vis_m": null,
      "fzfg": false,
      "metar_trigger": false,
      "taf_trigger": false,
      "metar": "",
      "taf": ""
    },
    {
      "icao": "UAAA",
      "alert": "OK",
      "vis_m": 9999,
      "fzfg": false,
      "metar_trigger": false,
      "taf_trigger": false,
      "metar": "METAR UAAA 180800Z 03003MPS 360V060 9999 BKN024 OVC100 09/03 Q1024 NOSIG",
      "taf": "TAF UAAA 180501Z 1806/1906 01003MPS 9999 SCT040CB BKN100 TX12/1809Z TN04/1901Z"
    },
    {
      "icao": "UBBB",
      "alert": "OK",
      "vis_m": 9999,
      "fzfg": false,
      "metar_trigger": false,
      "taf_trigger": false,
      "metar": "METAR UBBB 180830Z 18020G30KT CAVOK 16/09 Q1013 NOSIG",
      "taf": "TAF UBBB 180505Z 1806/1906 16018KT 9999 SCT025 TX17/1810Z TN10/1901Z"
    },
    {
      "icao": "UDSG",
      "alert": "OK",
      "vis_m": 9999,
      "fzfg": false,
      "metar_trigger": false,
      "taf_trigger": false,
      "metar": "METAR UDSG 180800Z 30002KT 9999 FEW043CB BKN049 12/M00 Q1015 NOSIG",
      "taf": "TAF UDSG 180500Z 1806/1906 24006KT 9999 BKN040"
    },
    {
      "icao": "UDYZ",
      "alert": "OK",
      "vis_m": 9999,
      "fzfg": false,
      "metar_trigger": false,
      "taf_trigger": false,
      "metar": "METAR UDYZ 180800Z VRB02KT 9999 SCT043CB 17/03 Q1013 NOSIG",
      "taf": "TAF UDYZ 180500Z 1806/1906 28006KT 9999 SCT040"
    },
    {
      "icao": "UGKO",
      "alert": "OK",
      "vis_m": 9999,
      "fzfg": false,
      "metar_trigger": false,
      "taf_trigger": false,
      "metar": "METAR UGKO 180800Z 08030G45KT CAVOK 20/04 Q1003 NOSIG",
      "taf": "TAF UGKO 180500Z 1806/1906 08020G35KT CAVOK TX20/1811Z TN11/1903Z"
    }
  ]
}