{
  "ts_utc": "2026-05-17T20:37:33Z",
  "threshold_m": 150,
  "source": "stations_override.txt (ICAO list) + aviationweather.gov (METAR/TAF raw)",
  "station_count": 159,
  "stations": [
    {
      "icao": "BIKF",
      "alert": "OK",
      "vis_m": 9999,
      "fzfg": false,
      "metar_trigger": false,
      "taf_trigger": false,
      "metar": "METAR BIKF 172030Z 13011KT 9999 FEW027 SCT059 08/02 Q1010",
      "taf": "TAF BIKF 171959Z 1721/1821 14015KT 9999 SCT045 TX11/1815Z TN02/1805Z"
    },
    {
      "icao": "BKPR",
      "alert": "OK",
      "vis_m": 9999,
      "fzfg": false,
      "metar_trigger": false,
      "taf_trigger": false,
      "metar": "METAR BKPR 172030Z 35009KT 9999 BKN035 11/07 Q1015 NOSIG",
      "taf": "TAF BKPR 171730Z 1718/1818 33005KT 9999 SCT030 BKN050"
    },
    {
      "icao": "EBCI",
      "alert": "OK",
      "vis_m": 6000,
      "fzfg": false,
      "metar_trigger": false,
      "taf_trigger": false,
      "metar": "METAR EBCI 172020Z 16003KT 6000 -SHRA SCT018TCU 10/09 Q1012 TEMPO 2500 SHRA",
      "taf": "TAF EBCI 171702Z 1718/1824 22006KT 9999 FEW020TCU SCT030"
    },
    {
      "icao": "EDDB",
      "alert": "OK",
      "vis_m": 9999,
      "fzfg": false,
      "metar_trigger": false,
      "taf_trigger": false,
      "metar": "METAR EDDB 172020Z AUTO 12005KT 090V150 CAVOK 13/04 Q1015 NOSIG",
      "taf": "TAF EDDB 171700Z 1718/1818 14004KT CAVOK"
    },
    {
      "icao": "EDDH",
      "alert": "OK",
      "vis_m": 9999,
      "fzfg": false,
      "metar_trigger": false,
      "taf_trigger": false,
      "metar": "METAR EDDH 172020Z AUTO 23003KT 130V290 9999 VCSH FEW///TCU 13/07 Q1014 NOSIG",
      "taf": "TAF EDDH 171700Z 1718/1824 14006KT 9999 BKN045"
    },
    {
      "icao": "EDDK",
      "alert": "OK",
      "vis_m": 9999,
      "fzfg": false,
      "metar_trigger": false,
      "taf_trigger": false,
      "metar": "METAR EDDK 172020Z AUTO 10004KT 070V140 9999 SHRA FEW///CB 12/11 Q1013 BECMG NSW",
      "taf": "TAF EDDK 171700Z 1718/1824 14005KT CAVOK"
    },
    {
      "icao": "EDDN",
      "alert": "OK",
      "vis_m": 9999,
      "fzfg": false,
      "metar_trigger": false,
      "taf_trigger": false,
      "metar": "METAR EDDN 172020Z AUTO VRB01KT CAVOK 09/04 Q1015 NOSIG",
      "taf": "TAF EDDN 171700Z 1718/1818 VRB03KT CAVOK"
    },
    {
      "icao": "EDDS",
      "alert": "OK",
      "vis_m": 9999,
      "fzfg": false,
      "metar_trigger": false,
      "taf_trigger": false,
      "metar": "METAR EDDS 172020Z AUTO VRB01KT CAVOK 10/04 Q1014",
      "taf": "TAF EDDS 171700Z 1718/1818 VRB03KT CAVOK"
    },
    {
      "icao": "EDFH",
      "alert": "OK",
      "vis_m": 9999,
      "fzfg": false,
      "metar_trigger": false,
      "taf_trigger": false,
      "metar": "METAR EDFH 172020Z 14004KT CAVOK 11/07 Q1013",
      "taf": "TAF EDFH 171700Z 1718/1818 18004KT 9999 SCT030"
    },
    {
      "icao": "EDJA",
      "alert": "OK",
      "vis_m": 9999,
      "fzfg": false,
      "metar_trigger": false,
      "taf_trigger": false,
      "metar": "METAR EDJA 172020Z VRB02KT CAVOK 07/03 Q1015",
      "taf": "TAF EDJA 171700Z 1718/1803 VRB03KT CAVOK"
    },
    {
      "icao": "EDLW",
      "alert": "OK",
      "vis_m": 9999,
      "fzfg": false,
      "metar_trigger": false,
      "taf_trigger": false,
      "metar": "METAR EDLW 172020Z AUTO 18007KT 9999 // OVC057/// 13/09 Q1013",
      "taf": "TAF EDLW 171700Z 1718/1818 17006KT 9999 BKN040"
    },
    {
      "icao": "EDNY",
      "alert": "OK",
      "vis_m": 9999,
      "fzfg": false,
      "metar_trigger": false,
      "taf_trigger": false,
      "metar": "METAR EDNY 172020Z AUTO 00000KT 9999 // BKN096/// BKN120/// 08/04 Q1015",
      "taf": "TAF EDNY 171700Z 1718/1803 VRB02KT CAVOK"
    },
    {
      "icao": "EDSB",
      "alert": "OK",
      "vis_m": 9999,
      "fzfg": false,
      "metar_trigger": false,
      "taf_trigger": false,
      "metar": "METAR EDSB 172020Z 00000KT CAVOK 11/06 Q1014",
      "taf": "TAF EDSB 171700Z 1718/1818 VRB03KT CAVOK"
    },
    {
      "icao": "EETN",
      "alert": "OK",
      "vis_m": 9999,
      "fzfg": false,
      "metar_trigger": false,
      "taf_trigger": false,
      "metar": "METAR EETN 172020Z VRB02KT CAVOK 07/06 Q1018 NOSIG",
      "taf": "TAF EETN 171730Z 1718/1818 34005KT CAVOK"
    },
    {
      "icao": "EFTU",
      "alert": "OK",
      "vis_m": 9999,
      "fzfg": false,
      "metar_trigger": false,
      "taf_trigger": false,
      "metar": "METAR EFTU 172020Z AUTO VRB02KT CAVOK 05/04 Q1018",
      "taf": "TAF EFTU 171734Z 1718/1818 19005KT CAVOK"
    },
    {
      "icao": "EGBB",
      "alert": "OK",
      "vis_m": 9999,
      "fzfg": false,
      "metar_trigger": false,
      "taf_trigger": false,
      "metar": "METAR EGBB 172020Z 19005KT 160V220 9999 SCT046CB 10/05 Q1010",
      "taf": "TAF EGBB 171701Z 1718/1818 22008KT 9999 SCT040"
    },
    {
      "icao": "EGGP",
      "alert": "OK",
      "vis_m": 9999,
      "fzfg": false,
      "metar_trigger": false,
      "taf_trigger": false,
      "metar": "METAR EGGP 172020Z 21007KT 180V240 9999 FEW043 10/05 Q1008",
      "taf": "TAF EGGP 171704Z 1718/1818 25012KT 9999 SCT020"
    },
    {
      "icao": "EGGW",
      "alert": "OK",
      "vis_m": 9999,
      "fzfg": false,
      "metar_trigger": false,
      "taf_trigger": false,
      "metar": "METAR EGGW 172020Z 19003KT 150V220 9999 VCSH BKN036 BKN048 10/06 Q1010",
      "taf": "TAF EGGW 171655Z 1718/1818 26012KT 9999 SCT035"
    },
    {
      "icao": "EGKK",
      "alert": "OK",
      "vis_m": 9999,
      "fzfg": false,
      "metar_trigger": false,
      "taf_trigger": false,
      "metar": "METAR EGKK 172020Z 23004KT CAVOK 10/06 Q1011",
      "taf": "TAF EGKK 171656Z 1718/1824 24012KT 9999 SCT030"
    },
    {
      "icao": "EGNM",
      "alert": "OK",
      "vis_m": 9999,
      "fzfg": false,
      "metar_trigger": false,
      "taf_trigger": false,
      "metar": "METAR EGNM 172020Z 25004KT 9999 VCSH FEW020 SCT035CB 08/06 Q1008",
      "taf": ""
    },
    {
      "icao": "EGPD",
      "alert": "OK",
      "vis_m": 9999,
      "fzfg": false,
      "metar_trigger": false,
      "taf_trigger": false,
      "metar": "METAR EGPD 172020Z AUTO 12003KT 090V160 9999 BKN043/// //////CB 08/06 Q1005",
      "taf": "TAF EGPD 171658Z 1718/1818 VRB03KT 9999 FEW030"
    },
    {
      "icao": "EGPF",
      "alert": "OK",
      "vis_m": 9999,
      "fzfg": false,
      "metar_trigger": false,
      "taf_trigger": false,
      "metar": "METAR EGPF 172020Z AUTO 17005KT 140V200 9999 -RA SCT033 BKN046 09/05 Q1005",
      "taf": ""
    },
    {
      "icao": "EHBK",
      "alert": "OK",
      "vis_m": 9999,
      "fzfg": false,
      "metar_trigger": false,
      "taf_trigger": false,
      "metar": "METAR EHBK 172025Z AUTO 21001KT 9999 FEW026 BKN034 OVC038 11/10 Q1012 TEMPO 6000 SHRA FEW018CB",
      "taf": "TAF EHBK 171715Z 1718/1824 20008KT 9999 BKN045"
    },
    {
      "icao": "EHEH",
      "alert": "OK",
      "vis_m": 9999,
      "fzfg": false,
      "metar_trigger": false,
      "taf_trigger": false,
      "metar": "METAR EHEH 172025Z AUTO 16003KT 120V220 9999 OVC059 11/10 Q1012 BLU BECMG SCT020 BKN025",
      "taf": "TAF EHEH 171751Z 1718/1824 21004KT 9999 SCT022 BKN030"
    },
    {
      "icao": "EKBI",
      "alert": "OK",
      "vis_m": 9999,
      "fzfg": false,
      "metar_trigger": false,
      "taf_trigger": false,
      "metar": "METAR EKBI 172020Z AUTO 12004KT 9999 BKN035/// 10/09 Q1014",
      "taf": "TAF EKBI 172027Z 1721/1821 13006KT 9999 BKN030"
    },
    {
      "icao": "EKCH",
      "alert": "OK",
      "vis_m": 9999,
      "fzfg": false,
      "metar_trigger": false,
      "taf_trigger": false,
      "metar": "METAR EKCH 172020Z AUTO 13012KT 9999 OVC063/// 11/05 Q1016 NOSIG",
      "taf": "TAF EKCH 172027Z 1721/1821 14012KT CAVOK"
    },
    {
      "icao": "ENAL",
      "alert": "OK",
      "vis_m": 9999,
      "fzfg": false,
      "metar_trigger": false,
      "taf_trigger": false,
      "metar": "METAR ENAL 172020Z VRB01KT 9999 FEW020 SCT055 08/06 Q1011",
      "taf": "TAF ENAL 172000Z 1721/1806 28008KT 9999 FEW025 SCT045"
    },
    {
      "icao": "ENBR",
      "alert": "OK",
      "vis_m": 9999,
      "fzfg": false,
      "metar_trigger": false,
      "taf_trigger": false,
      "metar": "METAR ENBR 172020Z VRB01KT 9999 BKN048 10/03 Q1009 RMK WIND 1200FT 09003KT",
      "taf": "TAF ENBR 171700Z 1718/1818 21004KT 9999 FEW020 BKN045"
    },
    {
      "icao": "ENGM",
      "alert": "OK",
      "vis_m": 9999,
      "fzfg": false,
      "metar_trigger": false,
      "taf_trigger": false,
      "metar": "METAR ENGM 172020Z 19010KT CAVOK 07/03 Q1014 NOSIG",
      "taf": "TAF ENGM 171700Z 1718/1818 19012KT 9999 BKN030"
    },
    {
      "icao": "ENHD",
      "alert": "OK",
      "vis_m": 9999,
      "fzfg": false,
      "metar_trigger": false,
      "taf_trigger": false,
      "metar": "METAR ENHD 172020Z 13013KT 9999 VCSH SCT045 09/06 Q1009",
      "taf": "TAF ENHD 171400Z 1715/1722 19015KT 9999 SCT040"
    },
    {
      "icao": "ENTC",
      "alert": "OK",
      "vis_m": 9999,
      "fzfg": false,
      "metar_trigger": false,
      "taf_trigger": false,
      "metar": "METAR ENTC 172020Z 02013KT 9999 BKN060 06/01 Q1010 NOSIG RMK WIND 2600FT 11010KT",
      "taf": "TAF ENTC 171700Z 1718/1818 04010KT 9999 FEW030 BKN050"
    },
    {
      "icao": "ENTO",
      "alert": "OK",
      "vis_m": 9999,
      "fzfg": false,
      "metar_trigger": false,
      "taf_trigger": false,
      "metar": "METAR ENTO 172020Z 17006KT CAVOK 09/05 Q1014 NOSIG",
      "taf": "TAF ENTO 171700Z 1718/1818 20012KT 9999 BKN040"
    },
    {
      "icao": "ENVA",
      "alert": "OK",
      "vis_m": 9999,
      "fzfg": false,
      "metar_trigger": false,
      "taf_trigger": false,
      "metar": "METAR ENVA 172020Z VRB02KT 9999 VCSH FEW025 BKN050 09/07 Q1012 RMK WIND 670FT VRB01KT",
      "taf": "TAF ENVA 171700Z 1718/1818 24010KT 9999 SCT050"
    },
    {
      "icao": "ENZV",
      "alert": "OK",
      "vis_m": 9999,
      "fzfg": false,
      "metar_trigger": false,
      "taf_trigger": false,
      "metar": "METAR ENZV 172020Z 13008KT 9999 -RA BKN037 09/07 Q1009",
      "taf": "TAF ENZV 171700Z 1718/1818 16012KT 9999 FEW020 SCT040"
    },
    {
      "icao": "EPGD",
      "alert": "OK",
      "vis_m": 9999,
      "fzfg": false,
      "metar_trigger": false,
      "taf_trigger": false,
      "metar": "METAR EPGD 172030Z 01003KT 340V040 CAVOK 09/07 Q1018",
      "taf": "TAF EPGD 171730Z 1718/1818 05008KT CAVOK"
    },
    {
      "icao": "EPKK",
      "alert": "OK",
      "vis_m": 8000,
      "fzfg": false,
      "metar_trigger": false,
      "taf_trigger": false,
      "metar": "METAR EPKK 172030Z 25006KT 8000 -DZ SCT006 BKN011 08/08 Q1015",
      "taf": "TAF EPKK 172030Z 1721/1821 25007KT 8000 SCT007 BKN013"
    },
    {
      "icao": "EPKT",
      "alert": "OK",
      "vis_m": 9000,
      "fzfg": false,
      "metar_trigger": false,
      "taf_trigger": false,
      "metar": "METAR EPKT 172030Z 30004KT 260V340 9000 -DZ BKN004 OVC007 07/06 Q1015",
      "taf": "TAF EPKT 171730Z 1718/1818 31006KT 9999 OVC007"
    },
    {
      "icao": "EPLB",
      "alert": "OK",
      "vis_m": 4000,
      "fzfg": false,
      "metar_trigger": false,
      "taf_trigger": false,
      "metar": "METAR EPLB 172030Z 32008KT 4000 BR OVC004 12/11 Q1012",
      "taf": ""
    },
    {
      "icao": "EPMO",
      "alert": "OK",
      "vis_m": 9999,
      "fzfg": false,
      "metar_trigger": false,
      "taf_trigger": false,
      "metar": "METAR EPMO 172030Z 01007KT 9999 BKN024 12/05 Q1015",
      "taf": "TAF EPMO 171730Z 1718/1818 01012KT 9999 BKN025"
    },
    {
      "icao": "EPPO",
      "alert": "OK",
      "vis_m": 9999,
      "fzfg": false,
      "metar_trigger": false,
      "taf_trigger": false,
      "metar": "METAR EPPO 172030Z 14006KT 9999 -RA NSC 11/07 Q1017",
      "taf": "TAF EPPO 171730Z 1718/1818 15006KT 9999 BKN050"
    },
    {
      "icao": "EPRA",
      "alert": "OK",
      "vis_m": 9999,
      "fzfg": false,
      "metar_trigger": false,
      "taf_trigger": false,
      "metar": "METAR EPRA 172030Z 34008KT 9999 OVC007 10/08 Q1014",
      "taf": "TAF EPRA 172030Z 1721/1806 34006KT 9999 OVC007"
    },
    {
      "icao": "EPRZ",
      "alert": "OK",
      "vis_m": 3000,
      "fzfg": false,
      "metar_trigger": false,
      "taf_trigger": false,
      "metar": "METAR EPRZ 172030Z 26009KT 3000 -DZ BR OVC002 10/10 Q1013",
      "taf": "TAF EPRZ 171730Z 1718/1818 29007KT 5000 BR OVC002"
    },
    {
      "icao": "EPSC",
      "alert": "OK",
      "vis_m": 9999,
      "fzfg": false,
      "metar_trigger": false,
      "taf_trigger": false,
      "metar": "METAR EPSC 172030Z 04004KT CAVOK 11/04 Q1016",
      "taf": ""
    },
    {
      "icao": "EPSY",
      "alert": "OK",
      "vis_m": 9999,
      "fzfg": false,
      "metar_trigger": false,
      "taf_trigger": false,
      "metar": "METAR EPSY 172030Z 34008KT 310V010 CAVOK 11/04 Q1016",
      "taf": "TAF EPSY 172030Z 1721/1806 35010KT 9999 BKN040"
    },
    {
      "icao": "EPWA",
      "alert": "OK",
      "vis_m": 9999,
      "fzfg": false,
      "metar_trigger": false,
      "taf_trigger": false,
      "metar": "METAR EPWA 172030Z 36006KT 320V040 9999 BKN020 12/05 Q1014 NOSIG",
      "taf": "TAF EPWA 172030Z 1721/1821 36005KT 9999 BKN020"
    },
    {
      "icao": "EPWR",
      "alert": "OK",
      "vis_m": 9999,
      "fzfg": false,
      "metar_trigger": false,
      "taf_trigger": false,
      "metar": "METAR EPWR 172030Z 17002KT 9999 -RA FEW029 09/08 Q1017",
      "taf": "TAF EPWR 172030Z 1721/1821 15010KT 9999 BKN017"
    },
    {
      "icao": "ESGG",
      "alert": "OK",
      "vis_m": 9999,
      "fzfg": false,
      "metar_trigger": false,
      "taf_trigger": false,
      "metar": "METAR ESGG 172020Z 14005KT CAVOK 09/04 Q1015",
      "taf": "TAF ESGG 172030Z 1721/1821 15005KT CAVOK"
    },
    {
      "icao": "ESKN",
      "alert": "OK",
      "vis_m": 9999,
      "fzfg": false,
      "metar_trigger": false,
      "taf_trigger": false,
      "metar": "METAR ESKN 172020Z VRB02KT CAVOK 08/07 Q1017",
      "taf": "TAF ESKN 172030Z 1721/1821 17005KT CAVOK"
    },
    {
      "icao": "ESMS",
      "alert": "OK",
      "vis_m": 9999,
      "fzfg": false,
      "metar_trigger": false,
      "taf_trigger": false,
      "metar": "METAR ESMS 172020Z 13006KT CAVOK 09/05 Q1016",
      "taf": "TAF ESMS 172027Z 1721/1821 12008KT CAVOK"
    },
    {
      "icao": "ESSA",
      "alert": "OK",
      "vis_m": 9999,
      "fzfg": false,
      "metar_trigger": false,
      "taf_trigger": false,
      "metar": "METAR ESSA 172020Z 18006KT CAVOK 10/05 Q1016 NOSIG",
      "taf": "TAF ESSA 172030Z 1721/1821 19005KT CAVOK"
    },
    {
      "icao": "EYKA",
      "alert": "OK",
      "vis_m": 9999,
      "fzfg": false,
      "metar_trigger": false,
      "taf_trigger": false,
      "metar": "METAR EYKA 172020Z 36009KT CAVOK 12/05 Q1015",
      "taf": "TAF EYKA 171700Z 1718/1818 36010KT 9000 SCT020"
    },
    {
      "icao": "EYPA",
      "alert": "OK",
      "vis_m": 9999,
      "fzfg": false,
      "metar_trigger": false,
      "taf_trigger": false,
      "metar": "METAR EYPA 172020Z 03004KT CAVOK 07/06 Q1018",
      "taf": "TAF EYPA 171700Z 1718/1818 VRB03KT 8000 NSC"
    },
    {
      "icao": "EYVI",
      "alert": "OK",
      "vis_m": 9999,
      "fzfg": false,
      "metar_trigger": false,
      "taf_trigger": false,
      "metar": "METAR EYVI 172020Z 01011KT CAVOK 15/12 Q1013 NOSIG",
      "taf": "TAF EYVI 171700Z 1718/1818 35012KT 9000 NSC"
    },
    {
      "icao": "GCFV",
      "alert": "OK",
      "vis_m": 9999,
      "fzfg": false,
      "metar_trigger": false,
      "taf_trigger": false,
      "metar": "METAR GCFV 172030Z 36019KT 9999 SCT035 20/11 Q1020",
      "taf": "TAF GCFV 172000Z 1721/1821 36014KT 9999 BKN030 TX23/1814Z TN17/1806Z"
    },
    {
      "icao": "GCLP",
      "alert": "OK",
      "vis_m": 9999,
      "fzfg": false,
      "metar_trigger": false,
      "taf_trigger": false,
      "metar": "METAR GCLP 172030Z 01019KT 9999 FEW035 SCT045 19/11 Q1021 NOSIG",
      "taf": "TAF GCLP 172000Z 1721/1821 01017KT 9999 SCT030 TX23/1814Z TN18/1806Z"
    },
    {
      "icao": "GCTS",
      "alert": "OK",
      "vis_m": 9999,
      "fzfg": false,
      "metar_trigger": false,
      "taf_trigger": false,
      "metar": "METAR GCTS 172030Z 08016KT 9999 SCT042 20/09 Q1021 NOSIG",
      "taf": "TAF GCTS 172000Z 1721/1821 05018KT 9999 SCT040 TX24/1814Z TN16/1806Z"
    },
    {
      "icao": "GMAD",
      "alert": "OK",
      "vis_m": 9999,
      "fzfg": false,
      "metar_trigger": false,
      "taf_trigger": false,
      "metar": "METAR GMAD 172030Z 17015KT CAVOK 18/12 Q1015 NOSIG",
      "taf": "TAF GMAD 171700Z 1718/1824 18006KT 8000 FEW020"
    },
    {
      "icao": "GMMN",
      "alert": "OK",
      "vis_m": 9999,
      "fzfg": false,
      "metar_trigger": false,
      "taf_trigger": false,
      "metar": "METAR GMMN 172030Z 35005KT 9999 SCT020 14/11 Q1020 NOSIG",
      "taf": "TAF GMMN 171700Z 1718/1824 34014KT 9999 SCT026"
    },
    {
      "icao": "GMMX",
      "alert": "OK",
      "vis_m": 9999,
      "fzfg": false,
      "metar_trigger": false,
      "taf_trigger": false,
      "metar": "METAR GMMX 172030Z 03011KT 360V060 9999 SCT026 BKN080 18/11 Q1018 NOSIG",
      "taf": "TAF GMMX 171700Z 1718/1824 04006KT 8000 SCT026 SCT090"
    },
    {
      "icao": "HEGN",
      "alert": "OK",
      "vis_m": 9999,
      "fzfg": false,
      "metar_trigger": false,
      "taf_trigger": false,
      "metar": "METAR HEGN 172000Z 00000KT CAVOK 28/11 Q1009 NOSIG",
      "taf": "TAF HEGN 171700Z 1718/1824 29010KT CAVOK"
    },
    {
      "icao": "HEMA",
      "alert": "OK",
      "vis_m": 9999,
      "fzfg": false,
      "metar_trigger": false,
      "taf_trigger": false,
      "metar": "METAR HEMA 172000Z 05004KT CAVOK 29/09 Q1010 NOSIG",
      "taf": "TAF HEMA 171700Z 1718/1824 30012KT CAVOK"
    },
    {
      "icao": "HESH",
      "alert": "OK",
      "vis_m": 9999,
      "fzfg": false,
      "metar_trigger": false,
      "taf_trigger": false,
      "metar": "METAR HESH 172000Z 07004KT CAVOK 29/18 Q1009 NOSIG",
      "taf": "TAF HESH 171700Z 1718/1824 18010KT CAVOK"
    },
    {
      "icao": "HESX",
      "alert": "OK",
      "vis_m": 9999,
      "fzfg": false,
      "metar_trigger": false,
      "taf_trigger": false,
      "metar": "METAR HESX 172000Z 01008KT CAVOK 29/11 Q1008 NOSIG",
      "taf": "TAF HESX 171700Z 1718/1824 36012KT 9999 FEW025"
    },
    {
      "icao": "LATI",
      "alert": "OK",
      "vis_m": 9999,
      "fzfg": false,
      "metar_trigger": false,
      "taf_trigger": false,
      "metar": "METAR LATI 172020Z VRB02KT 9999 BKN062 16/11 Q1014 NOSIG",
      "taf": "TAF LATI 171700Z 1718/1818 VRB03KT 9999 SCT040 TX24/1811Z TN09/1804Z"
    },
    {
      "icao": "LBPD",
      "alert": "OK",
      "vis_m": 9999,
      "fzfg": false,
      "metar_trigger": false,
      "taf_trigger": false,
      "metar": "METAR LBPD 172030Z AUTO 28014KT 9999 BKN110/// 14/08 Q1010",
      "taf": "TAF LBPD 171700Z 1718/1818 29018KT 9999 SCT020 BKN050"
    },
    {
      "icao": "LBSF",
      "alert": "OK",
      "vis_m": 9999,
      "fzfg": false,
      "metar_trigger": false,
      "taf_trigger": false,
      "metar": "METAR LBSF 172030Z AUTO 29012KT 9999 BKN015/// BKN020/// OVC043/// 10/07 Q1013 NOSIG",
      "taf": "TAF LBSF 171700Z 1718/1818 29012KT 9999 SCT015 BKN025 OVC040"
    },
    {
      "icao": "LBWN",
      "alert": "OK",
      "vis_m": 9999,
      "fzfg": false,
      "metar_trigger": false,
      "taf_trigger": false,
      "metar": "METAR LBWN 172030Z AUTO 31007KT 270V340 9999 FEW015/// 13/13 Q1007 NOSIG",
      "taf": "TAF LBWN 171700Z 1718/1818 30010KT 9999 SCT020 BKN045"
    },
    {
      "icao": "LCLK",
      "alert": "OK",
      "vis_m": 9999,
      "fzfg": false,
      "metar_trigger": false,
      "taf_trigger": false,
      "metar": "METAR LCLK 172030Z 29005KT CAVOK 20/15 Q1005 NOSIG",
      "taf": "TAF LCLK 171730Z 1718/1818 20011KT 9999 FEW015"
    },
    {
      "icao": "LCPH",
      "alert": "OK",
      "vis_m": 9999,
      "fzfg": false,
      "metar_trigger": false,
      "taf_trigger": false,
      "metar": "METAR LCPH 172030Z 34003KT CAVOK 21/17 Q1006 NOSIG",
      "taf": "TAF LCPH 171730Z 1718/1818 16007KT 9999 SCT015"
    },
    {
      "icao": "LEAL",
      "alert": "OK",
      "vis_m": 9999,
      "fzfg": false,
      "metar_trigger": false,
      "taf_trigger": false,
      "metar": "METAR LEAL 172030Z 27004KT CAVOK 18/13 Q1017 NOSIG",
      "taf": ""
    },
    {
      "icao": "LEBB",
      "alert": "OK",
      "vis_m": 9999,
      "fzfg": false,
      "metar_trigger": false,
      "taf_trigger": false,
      "metar": "METAR LEBB 172030Z 00000KT 9999 FEW023 SCT035 BKN060 15/12 Q1019 NOSIG",
      "taf": "TAF LEBB 171700Z 1718/1818 VRB03KT 9999 SCT025 TX19/1814Z TN10/1805Z"
    },
    {
      "icao": "LEBL",
      "alert": "OK",
      "vis_m": 9999,
      "fzfg": false,
      "metar_trigger": false,
      "taf_trigger": false,
      "metar": "METAR LEBL 172030Z 26004KT 9999 FEW040 17/13 Q1017 NOSIG",
      "taf": "TAF LEBL 171700Z 1718/1818 22010KT 9999 FEW040 TX21/1812Z TN15/1806Z"
    },
    {
      "icao": "LECH",
      "alert": "OK",
      "vis_m": 9000,
      "fzfg": false,
      "metar_trigger": false,
      "taf_trigger": false,
      "metar": "METAR LECH 172030Z AUTO 27003KT 240V310 9000 NSC 14/13 Q1017",
      "taf": ""
    },
    {
      "icao": "LEMD",
      "alert": "OK",
      "vis_m": 9999,
      "fzfg": false,
      "metar_trigger": false,
      "taf_trigger": false,
      "metar": "METAR LEMD 172030Z 20004KT 160V250 9999 FEW075 16/08 Q1015 NOSIG",
      "taf": "TAF LEMD 171700Z 1718/1824 36006KT CAVOK TX25/1816Z TN07/1805Z"
    },
    {
      "icao": "LEMG",
      "alert": "OK",
      "vis_m": 9999,
      "fzfg": false,
      "metar_trigger": false,
      "taf_trigger": false,
      "metar": "METAR LEMG 172030Z 29006KT CAVOK 18/12 Q1016 NOSIG",
      "taf": "TAF LEMG 171700Z 1718/1818 VRB03KT 9999 FEW030 TX27/1814Z TN12/1806Z"
    },
    {
      "icao": "LEVC",
      "alert": "OK",
      "vis_m": 9999,
      "fzfg": false,
      "metar_trigger": false,
      "taf_trigger": false,
      "metar": "METAR LEVC 172030Z 31008KT 270V340 9999 FEW030 16/14 Q1016 NOSIG",
      "taf": ""
    },
    {
      "icao": "LEXJ",
      "alert": "OK",
      "vis_m": 9999,
      "fzfg": false,
      "metar_trigger": false,
      "taf_trigger": false,
      "metar": "METAR LEXJ 172030Z 24004KT 9999 BKN045 13/11 Q1019",
      "taf": "TAF LEXJ 172000Z 1721/1821 23005KT 9999 FEW020 SCT040 TX19/1813Z TN10/1805Z"
    },
    {
      "icao": "LEZG",
      "alert": "OK",
      "vis_m": 9999,
      "fzfg": false,
      "metar_trigger": false,
      "taf_trigger": false,
      "metar": "METAR LEZG 172030Z 25007KT CAVOK 17/09 Q1016 NOSIG",
      "taf": ""
    },
    {
      "icao": "LEZL",
      "alert": "OK",
      "vis_m": 9999,
      "fzfg": false,
      "metar_trigger": false,
      "taf_trigger": false,
      "metar": "METAR LEZL 172030Z 22007KT 190V250 CAVOK 19/11 Q1016 NOSIG",
      "taf": "TAF LEZL 172000Z 1721/1821 24012KT CAVOK TX28/1815Z TN13/1806Z"
    },
    {
      "icao": "LFBD",
      "alert": "OK",
      "vis_m": 9999,
      "fzfg": false,
      "metar_trigger": false,
      "taf_trigger": false,
      "metar": "METAR LFBD 172030Z AUTO 27004KT 250V310 9999 FEW030 BKN072 13/09 Q1018 NOSIG",
      "taf": "TAF LFBD 171700Z 1718/1824 30010KT CAVOK TX19/1813Z TN09/1806Z"
    },
    {
      "icao": "LFLL",
      "alert": "OK",
      "vis_m": 9999,
      "fzfg": false,
      "metar_trigger": false,
      "taf_trigger": false,
      "metar": "METAR LFLL 172030Z 14004KT CAVOK 16/05 Q1014 NOSIG",
      "taf": "TAF LFLL 171700Z 1718/1824 VRB04KT CAVOK"
    },
    {
      "icao": "LFLS",
      "alert": "OK",
      "vis_m": 9999,
      "fzfg": false,
      "metar_trigger": false,
      "taf_trigger": false,
      "metar": "METAR LFLS 172030Z AUTO 09005KT CAVOK 09/07 Q1015",
      "taf": "TAF LFLS 171400Z 1715/1815 09007KT 9999 FEW060 SCT120"
    },
    {
      "icao": "LFMN",
      "alert": "OK",
      "vis_m": 9999,
      "fzfg": false,
      "metar_trigger": false,
      "taf_trigger": false,
      "metar": "METAR LFMN 172030Z 21003KT CAVOK 16/11 Q1015 NOSIG",
      "taf": "TAF LFMN 172000Z 1721/1903 VRB03KT CAVOK"
    },
    {
      "icao": "LFOB",
      "alert": "OK",
      "vis_m": 9999,
      "fzfg": false,
      "metar_trigger": false,
      "taf_trigger": false,
      "metar": "METAR LFOB 172030Z AUTO 25002KT CAVOK 10/09 Q1013 NOSIG",
      "taf": "TAF LFOB 171700Z 1718/1818 VRB03KT 9999 SCT025"
    },
    {
      "icao": "LFPO",
      "alert": "OK",
      "vis_m": 9999,
      "fzfg": false,
      "metar_trigger": false,
      "taf_trigger": false,
      "metar": "METAR LFPO 172030Z AUTO 27005KT 230V310 9999 -RA ///CB 12/10 Q1013 TEMPO 4000 -SHRA BECMG NSC",
      "taf": "TAF LFPO 171700Z 1718/1824 29010KT 9999 SCT025"
    },
    {
      "icao": "LFSB",
      "alert": "OK",
      "vis_m": 9999,
      "fzfg": false,
      "metar_trigger": false,
      "taf_trigger": false,
      "metar": "METAR LFSB 172030Z AUTO 12002KT CAVOK 11/07 Q1014 NOSIG",
      "taf": "TAF LFSB 171700Z 1718/1818 24005KT 9999 FEW050 BKN080"
    },
    {
      "icao": "LGAV",
      "alert": "OK",
      "vis_m": 9999,
      "fzfg": false,
      "metar_trigger": false,
      "taf_trigger": false,
      "metar": "METAR LGAV 172020Z VRB02KT 9999 FEW030 14/09 Q1010 NOSIG",
      "taf": "TAF LGAV 171700Z 1718/1818 VRB05KT 9999 FEW030"
    },
    {
      "icao": "LGTS",
      "alert": "OK",
      "vis_m": 9999,
      "fzfg": false,
      "metar_trigger": false,
      "taf_trigger": false,
      "metar": "METAR LGTS 172020Z 33022KT 9999 FEW025 20/09 Q1009 NOSIG",
      "taf": "TAF LGTS 171700Z 1718/1818 33015KT 9999 FEW030"
    },
    {
      "icao": "LHBP",
      "alert": "OK",
      "vis_m": 9999,
      "fzfg": false,
      "metar_trigger": false,
      "taf_trigger": false,
      "metar": "METAR LHBP 172030Z 32008KT 9999 -SHRA FEW023TCU BKN043 10/08 Q1012 NOSIG",
      "taf": "TAF LHBP 171715Z 1718/1818 32013KT 9999 FEW015 BKN050"
    },
    {
      "icao": "LHDC",
      "alert": "OK",
      "vis_m": 9999,
      "fzfg": false,
      "metar_trigger": false,
      "taf_trigger": false,
      "metar": "METAR LHDC 172015Z AUTO 35006KT 320V040 CAVOK 15/09 Q1010 NOSIG",
      "taf": "TAF LHDC 172015Z 1721/1806 VRB03KT 9999 BKN030"
    },
    {
      "icao": "LIBD",
      "alert": "OK",
      "vis_m": 9999,
      "fzfg": false,
      "metar_trigger": false,
      "taf_trigger": false,
      "metar": "METAR LIBD 172020Z 21005KT CAVOK 11/09 Q1015",
      "taf": "TAF LIBD 171700Z 1718/1818 28007KT CAVOK"
    },
    {
      "icao": "LIBG",
      "alert": "OK",
      "vis_m": null,
      "fzfg": false,
      "metar_trigger": false,
      "taf_trigger": false,
      "metar": "",
      "taf": "TAF LIBG 171400Z 1715/1724 33012KT 9999 FEW040"
    },
    {
      "icao": "LIBP",
      "alert": "OK",
      "vis_m": 9999,
      "fzfg": false,
      "metar_trigger": false,
      "taf_trigger": false,
      "metar": "METAR LIBP 172020Z AUTO 32002KT 9999 OVC083/// 17/07 Q1015",
      "taf": "TAF LIBP 171700Z 1718/1818 VRB05KT CAVOK"
    },
    {
      "icao": "LIBR",
      "alert": "OK",
      "vis_m": 9999,
      "fzfg": false,
      "metar_trigger": false,
      "taf_trigger": false,
      "metar": "METAR LIBR 172020Z 33007KT CAVOK 17/11 Q1014",
      "taf": "TAF LIBR 171700Z 1718/1818 33013KT CAVOK"
    },
    {
      "icao": "LICA",
      "alert": "OK",
      "vis_m": 9999,
      "fzfg": false,
      "metar_trigger": false,
      "taf_trigger": false,
      "metar": "METAR LICA 172020Z AUTO 26004KT 9999 NCD 16/11 Q1016",
      "taf": "TAF LICA 171700Z 1718/1818 26012KT 9999 FEW040"
    },
    {
      "icao": "LICC",
      "alert": "OK",
      "vis_m": 9999,
      "fzfg": false,
      "metar_trigger": false,
      "taf_trigger": false,
      "metar": "METAR LICC 172020Z 06008KT 9999 SCT050 19/11 Q1015",
      "taf": "TAF LICC 171700Z 1718/1818 VRB05KT 9999 SCT040"
    },
    {
      "icao": "LICJ",
      "alert": "OK",
      "vis_m": 9999,
      "fzfg": false,
      "metar_trigger": false,
      "taf_trigger": false,
      "metar": "METAR LICJ 172020Z 03008KT 9999 FEW030 18/11 Q1016",
      "taf": "TAF LICJ 171700Z 1718/1818 VRB05KT CAVOK"
    },
    {
      "icao": "LIMC",
      "alert": "OK",
      "vis_m": 9999,
      "fzfg": false,
      "metar_trigger": false,
      "taf_trigger": false,
      "metar": "METAR LIMC 172020Z 19006KT CAVOK 13/07 Q1014 NOSIG",
      "taf": "TAF LIMC 171700Z 1718/1824 VRB05KT 9999 FEW060"
    },
    {
      "icao": "LIME",
      "alert": "OK",
      "vis_m": 9999,
      "fzfg": false,
      "metar_trigger": false,
      "taf_trigger": false,
      "metar": "METAR LIME 172020Z AUTO 01006KT 9999 NCD 14/05 Q1014",
      "taf": "TAF LIME 171700Z 1718/1818 VRB06KT 9999 SCT065"
    },
    {
      "icao": "LIMF",
      "alert": "OK",
      "vis_m": 9999,
      "fzfg": false,
      "metar_trigger": false,
      "taf_trigger": false,
      "metar": "METAR LIMF 172020Z 31004KT 9999 SCT110 16/05 Q1014",
      "taf": "TAF LIMF 171700Z 1718/1818 VRB05KT 9999 SCT070"
    },
    {
      "icao": "LIMJ",
      "alert": "OK",
      "vis_m": 9999,
      "fzfg": false,
      "metar_trigger": false,
      "taf_trigger": false,
      "metar": "METAR LIMJ 172020Z VRB01KT CAVOK 17/09 Q1015",
      "taf": "TAF LIMJ 171700Z 1718/1818 18007KT 9999 SCT020"
    },
    {
      "icao": "LIPE",
      "alert": "OK",
      "vis_m": 9999,
      "fzfg": false,
      "metar_trigger": false,
      "taf_trigger": false,
      "metar": "METAR LIPE 172020Z 19005KT CAVOK 18/08 Q1014",
      "taf": "TAF LIPE 171700Z 1718/1818 VRB05KT 9999 FEW040"
    },
    {
      "icao": "LIPH",
      "alert": "OK",
      "vis_m": 9999,
      "fzfg": false,
      "metar_trigger": false,
      "taf_trigger": false,
      "metar": "METAR LIPH 172020Z 36003KT CAVOK 15/11 Q1014",
      "taf": "TAF LIPH 171700Z 1718/1818 VRB05KT 9999 SCT030"
    },
    {
      "icao": "LIPQ",
      "alert": "OK",
      "vis_m": 9999,
      "fzfg": false,
      "metar_trigger": false,
      "taf_trigger": false,
      "metar": "METAR LIPQ 172020Z AUTO 08002KT 9999 NCD 12/10 Q1014",
      "taf": "TAF LIPQ 171700Z 1718/1818 VRB05KT CAVOK"
    },
    {
      "icao": "LIPR",
      "alert": "OK",
      "vis_m": 9999,
      "fzfg": false,
      "metar_trigger": false,
      "taf_trigger": false,
      "metar": "METAR LIPR 172020Z AUTO VRB01KT 9999 FEW100/// 14/12 Q1014",
      "taf": "TAF LIPR 171700Z 1718/1818 VRB05KT 9999 FEW040"
    },
    {
      "icao": "LIPX",
      "alert": "OK",
      "vis_m": 9999,
      "fzfg": false,
      "metar_trigger": false,
      "taf_trigger": false,
      "metar": "METAR LIPX 172020Z 22002KT CAVOK 15/08 Q1013",
      "taf": "TAF LIPX 171700Z 1718/1818 VRB06KT 9999 FEW040"
    },
    {
      "icao": "LIPY",
      "alert": "OK",
      "vis_m": 9999,
      "fzfg": false,
      "metar_trigger": false,
      "taf_trigger": false,
      "metar": "METAR LIPY 172020Z AUTO 20004KT 9999 SCT096/// BKN110/// 15/09 Q1014",
      "taf": "TAF LIPY 171700Z 1718/1818 VRB05KT 9999 FEW040"
    },
    {
      "icao": "LIPZ",
      "alert": "OK",
      "vis_m": 9999,
      "fzfg": false,
      "metar_trigger": false,
      "taf_trigger": false,
      "metar": "METAR LIPZ 172020Z 17003KT CAVOK 16/12 Q1014 NOSIG",
      "taf": "TAF LIPZ 171700Z 1718/1824 VRB05KT 9999 SCT030"
    },
    {
      "icao": "LIRF",
      "alert": "OK",
      "vis_m": 9999,
      "fzfg": false,
      "metar_trigger": false,
      "taf_trigger": false,
      "metar": "METAR LIRF 172020Z 04002KT CAVOK 15/10 Q1015 NOSIG",
      "taf": "TAF LIRF 171700Z 1718/1824 VRB05KT CAVOK"
    },
    {
      "icao": "LIRN",
      "alert": "OK",
      "vis_m": 9999,
      "fzfg": false,
      "metar_trigger": false,
      "taf_trigger": false,
      "metar": "METAR LIRN 172020Z 29004KT 260V330 CAVOK 16/10 Q1016 NOSIG",
      "taf": "TAF LIRN 171700Z 1718/1818 VRB05KT CAVOK"
    },
    {
      "icao": "LIRP",
      "alert": "OK",
      "vis_m": 9999,
      "fzfg": false,
      "metar_trigger": false,
      "taf_trigger": false,
      "metar": "METAR LIRP 172015Z 28004KT CAVOK 14/10 Q1015 NOSIG",
      "taf": "TAF LIRP 171700Z 1718/1818 VRB03KT 9999 FEW060"
    },
    {
      "icao": "LIRZ",
      "alert": "OK",
      "vis_m": 9999,
      "fzfg": false,
      "metar_trigger": false,
      "taf_trigger": false,
      "metar": "METAR LIRZ 172020Z AUTO VRB02KT 9999 FEW078/// 13/09 Q1015",
      "taf": "TAF LIRZ 171700Z 1718/1818 VRB05KT 9999 SCT040"
    },
    {
      "icao": "LJLJ",
      "alert": "OK",
      "vis_m": 9999,
      "fzfg": false,
      "metar_trigger": false,
      "taf_trigger": false,
      "metar": "METAR LJLJ 172030Z 14005KT 9999 SCT080 11/06 Q1015 NOSIG",
      "taf": "TAF LJLJ 171700Z 1718/1818 VRB02KT 9999 FEW070"
    },
    {
      "icao": "LKMT",
      "alert": "OK",
      "vis_m": 9000,
      "fzfg": false,
      "metar_trigger": false,
      "taf_trigger": false,
      "metar": "METAR LKMT 172030Z 07003KT 9000 -RA FEW009 OVC026 07/07 Q1017 NOSIG",
      "taf": "TAF LKMT 171700Z 1718/1818 01005KT 9999 -RA BKN020 OVC030"
    },
    {
      "icao": "LKPR",
      "alert": "OK",
      "vis_m": 9999,
      "fzfg": false,
      "metar_trigger": false,
      "taf_trigger": false,
      "metar": "METAR LKPR 172030Z 24001KT CAVOK 09/03 Q1015 NOSIG",
      "taf": "TAF LKPR 172000Z 1721/1903 27004KT CAVOK"
    },
    {
      "icao": "LLBG",
      "alert": "OK",
      "vis_m": 9999,
      "fzfg": false,
      "metar_trigger": false,
      "taf_trigger": false,
      "metar": "METAR LLBG 172020Z VRB01KT CAVOK 29/10 Q1008 NOSIG",
      "taf": "TAF LLBG 171701Z 1718/1818 VRB03KT CAVOK TX36/1812Z TN22/1803Z"
    },
    {
      "icao": "LMML",
      "alert": "OK",
      "vis_m": 9999,
      "fzfg": false,
      "metar_trigger": false,
      "taf_trigger": false,
      "metar": "METAR LMML 172015Z 30005KT CAVOK 16/10 Q1016 NOSIG",
      "taf": "TAF LMML 171700Z 1718/1818 30008KT 9999 FEW015"
    },
    {
      "icao": "LOWW",
      "alert": "OK",
      "vis_m": 9999,
      "fzfg": false,
      "metar_trigger": false,
      "taf_trigger": false,
      "metar": "METAR LOWW 172020Z 02007KT CAVOK 08/05 Q1016 NOSIG",
      "taf": "TAF LOWW 172015Z 1721/1903 32005KT CAVOK TX19/1814Z TN06/1803Z"
    },
    {
      "icao": "LPFR",
      "alert": "OK",
      "vis_m": 9999,
      "fzfg": false,
      "metar_trigger": false,
      "taf_trigger": false,
      "metar": "METAR LPFR 172030Z 30014KT CAVOK 17/10 Q1018",
      "taf": "TAF LPFR 171700Z 1718/1818 26015KT CAVOK"
    },
    {
      "icao": "LPMA",
      "alert": "OK",
      "vis_m": 9999,
      "fzfg": false,
      "metar_trigger": false,
      "taf_trigger": false,
      "metar": "METAR LPMA 172030Z 35010KT 310V030 9999 FEW016 17/10 Q1024",
      "taf": "TAF LPMA 171700Z 1718/1818 01010KT 9999 SCT015"
    },
    {
      "icao": "LPPR",
      "alert": "OK",
      "vis_m": 9999,
      "fzfg": false,
      "metar_trigger": false,
      "taf_trigger": false,
      "metar": "METAR LPPR 172030Z 33010KT 300V360 9999 FEW020 14/10 Q1019",
      "taf": "TAF LPPR 171700Z 1718/1818 32015KT 9999 SCT020"
    },
    {
      "icao": "LPPS",
      "alert": "OK",
      "vis_m": 9999,
      "fzfg": false,
      "metar_trigger": false,
      "taf_trigger": false,
      "metar": "METAR LPPS 172030Z 34012KT 9999 FEW015 SCT030 17/12 Q1024",
      "taf": "TAF LPPS 171700Z 1718/1824 35012KT 9999 FEW015 BKN030"
    },
    {
      "icao": "LPPT",
      "alert": "OK",
      "vis_m": 9999,
      "fzfg": false,
      "metar_trigger": false,
      "taf_trigger": false,
      "metar": "METAR LPPT 172030Z 32011KT 9999 FEW025 14/10 Q1019",
      "taf": "TAF LPPT 171700Z 1718/1824 30013KT 9999 SCT025"
    },
    {
      "icao": "LQBK",
      "alert": "OK",
      "vis_m": 9999,
      "fzfg": false,
      "metar_trigger": false,
      "taf_trigger": false,
      "metar": "METAR LQBK 172030Z VRB02KT CAVOK 09/07 Q1015 NOSIG",
      "taf": "TAF LQBK 171700Z 1718/1818 20004KT CAVOK TX20/1814Z TN05/1804Z"
    },
    {
      "icao": "LQSA",
      "alert": "OK",
      "vis_m": 9999,
      "fzfg": false,
      "metar_trigger": false,
      "taf_trigger": false,
      "metar": "METAR LQSA 172030Z 09002KT CAVOK 07/07 Q1016 NOSIG",
      "taf": "TAF LQSA 171700Z 1718/1818 VRB02KT 9999 SCT050 TX21/1814Z TN04/1804Z"
    },
    {
      "icao": "LQTZ",
      "alert": "OK",
      "vis_m": 9999,
      "fzfg": false,
      "metar_trigger": false,
      "taf_trigger": false,
      "metar": "METAR LQTZ 172030Z VRB02KT CAVOK 09/09 Q1015",
      "taf": "TAF LQTZ 171700Z 1718/1818 28005KT 9999 SCT040 TX20/1814Z TN03/1804Z"
    },
    {
      "icao": "LRBC",
      "alert": "OK",
      "vis_m": 9999,
      "fzfg": false,
      "metar_trigger": false,
      "taf_trigger": false,
      "metar": "METAR LRBC 172030Z 01004KT CAVOK 15/07 Q1008",
      "taf": "TAF LRBC 172000Z 1721/1806 32006KT CAVOK"
    },
    {
      "icao": "LRBS",
      "alert": "OK",
      "vis_m": 9999,
      "fzfg": false,
      "metar_trigger": false,
      "taf_trigger": false,
      "metar": "METAR LRBS 172030Z 29004KT 230V340 CAVOK 13/11 Q1009 NOSIG",
      "taf": "TAF LRBS 171700Z 1718/1818 27009KT CAVOK"
    },
    {
      "icao": "LRBV",
      "alert": "OK",
      "vis_m": 9999,
      "fzfg": false,
      "metar_trigger": false,
      "taf_trigger": false,
      "metar": "METAR LRBV 172030Z AUTO 22012KT 9999 NCD 10/06 Q1010",
      "taf": "TAF LRBV 172000Z 1721/1806 22010KT CAVOK"
    },
    {
      "icao": "LRCL",
      "alert": "OK",
      "vis_m": 9999,
      "fzfg": false,
      "metar_trigger": false,
      "taf_trigger": false,
      "metar": "METAR LRCL 172030Z 27004KT 230V300 CAVOK 16/10 Q1009",
      "taf": "TAF LRCL 172000Z 1721/1806 VRB04KT 9999 SCT055"
    },
    {
      "icao": "LRCV",
      "alert": "OK",
      "vis_m": 9999,
      "fzfg": false,
      "metar_trigger": false,
      "taf_trigger": false,
      "metar": "METAR LRCV 172030Z 34003KT 9999 FEW007 11/11 Q1011",
      "taf": ""
    },
    {
      "icao": "LRIA",
      "alert": "OK",
      "vis_m": 9999,
      "fzfg": false,
      "metar_trigger": false,
      "taf_trigger": false,
      "metar": "METAR LRIA 172030Z 27007KT 240V300 CAVOK 17/06 Q1006",
      "taf": "TAF LRIA 172000Z 1721/1806 31008KT CAVOK"
    },
    {
      "icao": "LROP",
      "alert": "OK",
      "vis_m": 9999,
      "fzfg": false,
      "metar_trigger": false,
      "taf_trigger": false,
      "metar": "METAR LROP 172030Z 28008KT CAVOK 12/12 Q1009 NOSIG",
      "taf": "TAF LROP 171700Z 1718/1818 27009KT CAVOK"
    },
    {
      "icao": "LRSB",
      "alert": "OK",
      "vis_m": 9999,
      "fzfg": false,
      "metar_trigger": false,
      "taf_trigger": false,
      "metar": "METAR LRSB 172030Z VRB02KT CAVOK 10/08 Q1010",
      "taf": "TAF LRSB 171700Z 1718/1818 VRB04KT 9999 SCT050"
    },
    {
      "icao": "LRSM",
      "alert": "OK",
      "vis_m": 9999,
      "fzfg": false,
      "metar_trigger": false,
      "taf_trigger": false,
      "metar": "METAR LRSM 172030Z AUTO 28006KT 9999 FEW090/// BKN130/// 13/11 Q1009 RERA",
      "taf": ""
    },
    {
      "icao": "LRSV",
      "alert": "OK",
      "vis_m": 9999,
      "fzfg": false,
      "metar_trigger": false,
      "taf_trigger": false,
      "metar": "METAR LRSV 172030Z 27010KT CAVOK 16/06 Q1008",
      "taf": "TAF LRSV 172000Z 1721/1806 26006KT CAVOK"
    },
    {
      "icao": "LRTM",
      "alert": "OK",
      "vis_m": 9999,
      "fzfg": false,
      "metar_trigger": false,
      "taf_trigger": false,
      "metar": "METAR LRTM 172030Z VRB01KT CAVOK 14/09 Q1009",
      "taf": "TAF LRTM 172000Z 1721/1806 VRB04KT CAVOK"
    },
    {
      "icao": "LRTR",
      "alert": "OK",
      "vis_m": 9999,
      "fzfg": false,
      "metar_trigger": false,
      "taf_trigger": false,
      "metar": "METAR LRTR 172030Z 28007KT 9999 SCT011 BKN013 13/12 Q1012",
      "taf": "TAF LRTR 171700Z 1718/1818 30010KT 9999 BKN010 BKN045"
    },
    {
      "icao": "LTAC",
      "alert": "OK",
      "vis_m": 9999,
      "fzfg": false,
      "metar_trigger": false,
      "taf_trigger": false,
      "metar": "METAR LTAC 172020Z 25004KT 9999 FEW040 08/04 Q1007 NOSIG RMK RWY21C 18003KT RWY03L VRB02KT RWY21R VRB02KT RWY03R 20002KT RWY21L 12002KT",
      "taf": "TAF LTAC 171640Z 1718/1818 VRB02KT 9999 SCT040 SCT100"
    },
    {
      "icao": "LTFM",
      "alert": "OK",
      "vis_m": 9999,
      "fzfg": false,
      "metar_trigger": false,
      "taf_trigger": false,
      "metar": "METAR LTFM 172020Z 25006KT 9999 FEW040 15/09 Q1007 NOSIG RMK RWY17L 27005KT RWY34L 28007KT 250V320 RWY16R 26006KT RWY36 29006KT RWY18 28007KT",
      "taf": "TAF LTFM 171640Z 1718/1824 21005KT 9999 SCT035"
    },
    {
      "icao": "LUKK",
      "alert": "OK",
      "vis_m": 9999,
      "fzfg": false,
      "metar_trigger": false,
      "taf_trigger": false,
      "metar": "METAR LUKK 172030Z 28007KT CAVOK 15/12 Q1005 NOSIG",
      "taf": "TAF LUKK 171702Z 1718/1818 VRB05KT CAVOK"
    },
    {
      "icao": "LWOH",
      "alert": "OK",
      "vis_m": null,
      "fzfg": false,
      "metar_trigger": false,
      "taf_trigger": false,
      "metar": "",
      "taf": "TAF LWOH 172020Z 1721/1821 VRB02KT 9999 FEW020 BKN040"
    },
    {
      "icao": "LWSK",
      "alert": "OK",
      "vis_m": 9999,
      "fzfg": false,
      "metar_trigger": false,
      "taf_trigger": false,
      "metar": "METAR LWSK 172020Z 01010KT 9999 BKN056 13/09 Q1014 NOSIG",
      "taf": "TAF LWSK 172020Z 1721/1821 02010KT 9999 BKN050"
    },
    {
      "icao": "LYBE",
      "alert": "OK",
      "vis_m": 9999,
      "fzfg": false,
      "metar_trigger": false,
      "taf_trigger": false,
      "metar": "METAR LYBE 172030Z 25005KT 9999 BKN025 12/10 Q1014 NOSIG",
      "taf": "TAF LYBE 171700Z 1718/1818 27010KT 9999 SCT015 BKN025 TX20/1813Z TN08/1804Z"
    },
    {
      "icao": "LYNI",
      "alert": "OK",
      "vis_m": 9999,
      "fzfg": false,
      "metar_trigger": false,
      "taf_trigger": false,
      "metar": "METAR LYNI 172030Z 33003KT 290V350 9999 -RA SCT010 BKN017 OVC025 11/11 Q1014 NOSIG",
      "taf": "TAF LYNI 171700Z 1718/1818 30006KT 9999 SCT015 BKN025 TX21/1813Z TN09/1804Z"
    },
    {
      "icao": "LYPG",
      "alert": "OK",
      "vis_m": 9999,
      "fzfg": false,
      "metar_trigger": false,
      "taf_trigger": false,
      "metar": "METAR LYPG 172030Z 30008KT 270V330 9999 FEW060 17/09 Q1013 NOSIG",
      "taf": "TAF LYPG 171700Z 1718/1818 36005KT 9999 FEW040 SCT080 TX22/1813Z TN13/1804Z"
    },
    {
      "icao": "LZIB",
      "alert": "OK",
      "vis_m": 9999,
      "fzfg": false,
      "metar_trigger": false,
      "taf_trigger": false,
      "metar": "METAR LZIB 172030Z 34007KT CAVOK 11/05 Q1015 NOSIG",
      "taf": "TAF LZIB 171715Z 1718/1818 35014KT 9999 FEW045"
    },
    {
      "icao": "LZKZ",
      "alert": "OK",
      "vis_m": 9999,
      "fzfg": false,
      "metar_trigger": false,
      "taf_trigger": false,
      "metar": "METAR LZKZ 172030Z 01008KT CAVOK 12/07 Q1011 NOSIG",
      "taf": "TAF LZKZ 171715Z 1718/1818 36018KT 9999 FEW045"
    },
    {
      "icao": "LZTT",
      "alert": "OK",
      "vis_m": 9999,
      "fzfg": false,
      "metar_trigger": false,
      "taf_trigger": false,
      "metar": "METAR LZTT 172030Z 24004KT 220V280 9999 FEW016 SCT040 06/05 Q1013",
      "taf": "TAF LZTT 171715Z 1718/1818 27008KT 9999 FEW010 BKN040"
    },
    {
      "icao": "OEJN",
      "alert": "OK",
      "vis_m": 9999,
      "fzfg": false,
      "metar_trigger": false,
      "taf_trigger": false,
      "metar": "METAR OEJN 172000Z 33010KT CAVOK 31/16 Q1006 NOSIG",
      "taf": "TAF OEJN 171700Z 1718/1824 36010KT CAVOK"
    },
    {
      "icao": "OEMA",
      "alert": "OK",
      "vis_m": 9999,
      "fzfg": false,
      "metar_trigger": false,
      "taf_trigger": false,
      "metar": "METAR OEMA 172000Z 34007KT CAVOK 33/M02 Q1014 NOSIG",
      "taf": "TAF OEMA 171700Z 1718/1824 02014KT CAVOK"
    },
    {
      "icao": "OJAI",
      "alert": "OK",
      "vis_m": 5000,
      "fzfg": false,
      "metar_trigger": false,
      "taf_trigger": false,
      "metar": "METAR OJAI 172000Z 20005KT 5000 HZ NSC 26/06 Q1013 NOSIG",
      "taf": "TAF OJAI 171700Z 1718/1824 25012KT 4000 DU NSC"
    },
    {
      "icao": "OMAA",
      "alert": "OK",
      "vis_m": 9999,
      "fzfg": false,
      "metar_trigger": false,
      "taf_trigger": false,
      "metar": "METAR OMAA 172030Z 31009KT CAVOK 29/21 Q1005 NOSIG",
      "taf": "TAF OMAA 171700Z 1718/1900 33011KT 8000 FEW015"
    },
    {
      "icao": "OMDB",
      "alert": "OK",
      "vis_m": 9999,
      "fzfg": false,
      "metar_trigger": false,
      "taf_trigger": false,
      "metar": "METAR OMDB 172030Z 28007KT 200V320 9999 FEW015 30/24 Q1004 NOSIG",
      "taf": ""
    },
    {
      "icao": "UAAA",
      "alert": "OK",
      "vis_m": 9999,
      "fzfg": false,
      "metar_trigger": false,
      "taf_trigger": false,
      "metar": "METAR UAAA 172030Z 21002MPS 9999 FEW100 12/07 Q1009 NOSIG",
      "taf": "TAF UAAA 171701Z 1718/1818 21003MPS 9999 SCT100 TX26/1810Z TN08/1801Z"
    },
    {
      "icao": "UBBB",
      "alert": "OK",
      "vis_m": 9999,
      "fzfg": false,
      "metar_trigger": false,
      "taf_trigger": false,
      "metar": "METAR UBBB 172030Z 27002KT 9999 FEW020 FEW060CB 16/15 Q1002 NOSIG",
      "taf": "TAF UBBB 171718Z 1718/1818 30010KT 8000 SCT010 SCT040CB BKN040 TX20/1810Z TN14/1801Z"
    },
    {
      "icao": "UDSG",
      "alert": "OK",
      "vis_m": 9999,
      "fzfg": false,
      "metar_trigger": false,
      "taf_trigger": false,
      "metar": "METAR UDSG 172030Z 31001KT 9999 FEW049 07/02 Q1009 NOSIG",
      "taf": "TAF UDSG 171700Z 1718/1818 06006KT 9999 SCT040"
    },
    {
      "icao": "UDYZ",
      "alert": "OK",
      "vis_m": 9999,
      "fzfg": false,
      "metar_trigger": false,
      "taf_trigger": false,
      "metar": "METAR UDYZ 172030Z VRB02KT 9999 SCT043CB 15/09 Q1005 NOSIG",
      "taf": "TAF UDYZ 171700Z 1718/1818 04006KT 9999 SCT040"
    },
    {
      "icao": "UGKO",
      "alert": "OK",
      "vis_m": 9999,
      "fzfg": false,
      "metar_trigger": false,
      "taf_trigger": false,
      "metar": "METAR UGKO 172030Z 09007KT CAVOK 11/08 Q1002 NOSIG",
      "taf": "TAF UGKO 171700Z 1718/1818 26007KT CAVOK TX19/1811Z TN10/1802Z"
    }
  ]
}