{
  "ts_utc": "2026-01-22T12:50:01Z",
  "threshold_m": 150,
  "source": "stations_override.txt (ICAO list) + aviationweather.gov (METAR/TAF raw)",
  "station_count": 159,
  "stations": [
    {
      "icao": "BIKF",
      "alert": "OK",
      "vis_m": 9999,
      "fzfg": false,
      "metar_trigger": false,
      "taf_trigger": false,
      "metar": "METAR BIKF 221230Z 07019KT 9999 -RA FEW017 OVC029 06/01 Q0985",
      "taf": "TAF BIKF 221030Z 2212/2312 07018G28KT 9999 SCT020 BKN030 TX08/2216Z TN04/2312Z"
    },
    {
      "icao": "BKPR",
      "alert": "OK",
      "vis_m": 9999,
      "fzfg": false,
      "metar_trigger": false,
      "taf_trigger": false,
      "metar": "METAR BKPR 221230Z 13004KT 090V150 9999 FEW065 05/01 Q1001 NOSIG",
      "taf": "TAF BKPR 221130Z 2212/2312 VRB03KT 9999 BKN040"
    },
    {
      "icao": "EBCI",
      "alert": "OK",
      "vis_m": 9999,
      "fzfg": false,
      "metar_trigger": false,
      "taf_trigger": false,
      "metar": "METAR EBCI 221220Z 18007KT CAVOK 08/03 Q0993 NOSIG",
      "taf": "TAF EBCI 221120Z 2212/2318 17010KT CAVOK"
    },
    {
      "icao": "EDDB",
      "alert": "OK",
      "vis_m": 9999,
      "fzfg": false,
      "metar_trigger": false,
      "taf_trigger": false,
      "metar": "METAR EDDB 221220Z AUTO 09007KT CAVOK M00/M06 Q1002 NOSIG",
      "taf": "TAF EDDB 221100Z 2212/2312 08008KT CAVOK"
    },
    {
      "icao": "EDDH",
      "alert": "OK",
      "vis_m": 9999,
      "fzfg": false,
      "metar_trigger": false,
      "taf_trigger": false,
      "metar": "METAR EDDH 221220Z AUTO 07014KT CAVOK 00/M05 Q1003 NOSIG",
      "taf": "TAF EDDH 221100Z 2212/2318 08010KT 9999 FEW025"
    },
    {
      "icao": "EDDK",
      "alert": "OK",
      "vis_m": 9999,
      "fzfg": false,
      "metar_trigger": false,
      "taf_trigger": false,
      "metar": "METAR EDDK 221220Z AUTO 13010KT 100V160 CAVOK 06/M04 Q0996 NOSIG",
      "taf": "TAF EDDK 221100Z 2212/2318 12008KT CAVOK"
    },
    {
      "icao": "EDDN",
      "alert": "OK",
      "vis_m": 9999,
      "fzfg": false,
      "metar_trigger": false,
      "taf_trigger": false,
      "metar": "METAR EDDN 221220Z AUTO 12006KT 100V160 9999 BKN015 M04/M09 Q1000 NOSIG",
      "taf": ""
    },
    {
      "icao": "EDDS",
      "alert": "OK",
      "vis_m": 9999,
      "fzfg": false,
      "metar_trigger": false,
      "taf_trigger": false,
      "metar": "METAR EDDS 221220Z AUTO 09003KT 050V120 CAVOK 03/M03 Q0997 NOSIG",
      "taf": "TAF EDDS 221100Z 2212/2312 VRB02KT CAVOK"
    },
    {
      "icao": "EDFH",
      "alert": "OK",
      "vis_m": 9999,
      "fzfg": false,
      "metar_trigger": false,
      "taf_trigger": false,
      "metar": "METAR EDFH 221220Z 14013KT 9999 FEW014 M01/M03 Q0996",
      "taf": "TAF EDFH 221100Z 2212/2312 14014KT CAVOK"
    },
    {
      "icao": "EDJA",
      "alert": "OK",
      "vis_m": 700,
      "fzfg": true,
      "metar_trigger": false,
      "taf_trigger": false,
      "metar": "METAR EDJA 221220Z 28003KT 240V330 0700 R06/1600U FZFG BKN002 OVC005 M03/M04 Q0997",
      "taf": ""
    },
    {
      "icao": "EDLW",
      "alert": "OK",
      "vis_m": 9999,
      "fzfg": false,
      "metar_trigger": false,
      "taf_trigger": false,
      "metar": "METAR EDLW 221220Z 03004KT 360V070 CAVOK 04/M03 Q0996",
      "taf": "TAF EDLW 221100Z 2212/2312 VRB03KT CAVOK"
    },
    {
      "icao": "EDNY",
      "alert": "OK",
      "vis_m": 4500,
      "fzfg": false,
      "metar_trigger": false,
      "taf_trigger": false,
      "metar": "METAR EDNY 221220Z VRB01KT 4500 BR OVC002 M01/M01 Q0998",
      "taf": "TAF EDNY 221100Z 2212/2221 VRB02KT 4000 BR OVC004"
    },
    {
      "icao": "EDSB",
      "alert": "OK",
      "vis_m": 2700,
      "fzfg": false,
      "metar_trigger": false,
      "taf_trigger": false,
      "metar": "METAR EDSB 221220Z 21004KT 170V250 2700 BR OVC002 M01/M01 Q0999",
      "taf": "TAF EDSB 221100Z 2212/2312 VRB02KT 3000 BR OVC005"
    },
    {
      "icao": "EETN",
      "alert": "OK",
      "vis_m": 9999,
      "fzfg": false,
      "metar_trigger": false,
      "taf_trigger": false,
      "metar": "METAR EETN 221220Z 11013KT 9999 -SN OVC018 M07/M11 Q1024 NOSIG",
      "taf": "TAF EETN 221130Z 2212/2312 10012KT 9999 OVC015"
    },
    {
      "icao": "EFTU",
      "alert": "OK",
      "vis_m": 9999,
      "fzfg": false,
      "metar_trigger": false,
      "taf_trigger": false,
      "metar": "METAR EFTU 221220Z AUTO 10012KT 9999 -SHSN OVC012 M06/M08 Q1025",
      "taf": "TAF EFTU 221124Z 2212/2312 09012KT 9999 OVC012"
    },
    {
      "icao": "EGBB",
      "alert": "OK",
      "vis_m": 7000,
      "fzfg": false,
      "metar_trigger": false,
      "taf_trigger": false,
      "metar": "METAR EGBB 221220Z 12010KT 7000 OVC006 08/07 Q0987",
      "taf": "TAF EGBB 221056Z 2212/2312 12012KT 9999 SCT006 BKN010"
    },
    {
      "icao": "EGGP",
      "alert": "OK",
      "vis_m": 9999,
      "fzfg": false,
      "metar_trigger": false,
      "taf_trigger": false,
      "metar": "METAR EGGP 221220Z 11010KT 9999 -DZ SCT010 BKN019 08/07 Q0986",
      "taf": "TAF EGGP 221054Z 2212/2312 12012KT 9999 BKN020"
    },
    {
      "icao": "EGGW",
      "alert": "OK",
      "vis_m": 8000,
      "fzfg": false,
      "metar_trigger": false,
      "taf_trigger": false,
      "metar": "METAR EGGW 221220Z AUTO 12009KT 8000 OVC003 07/06 Q0987",
      "taf": "TAF EGGW 221100Z 2212/2312 12010KT 9999 SCT020"
    },
    {
      "icao": "EGKK",
      "alert": "OK",
      "vis_m": 9999,
      "fzfg": false,
      "metar_trigger": false,
      "taf_trigger": false,
      "metar": "METAR EGKK 221220Z 12008KT 9999 -RA FEW008 BKN028 09/08 Q0987",
      "taf": ""
    },
    {
      "icao": "EGNM",
      "alert": "OK",
      "vis_m": 1400,
      "fzfg": false,
      "metar_trigger": false,
      "taf_trigger": false,
      "metar": "METAR EGNM 221220Z 09013KT 1400 R14/P1500N -RA BR OVC002 05/05 Q0989",
      "taf": "TAF EGNM 221100Z 2212/2312 12012KT 6000 BKN008"
    },
    {
      "icao": "EGPD",
      "alert": "OK",
      "vis_m": 8000,
      "fzfg": false,
      "metar_trigger": false,
      "taf_trigger": false,
      "metar": "METAR EGPD 221220Z AUTO 13020G30KT 8000 OVC013 06/03 Q0997 TEMPO BKN015",
      "taf": "TAF EGPD 221054Z 2212/2312 13020G35KT 9999 BKN016"
    },
    {
      "icao": "EGPF",
      "alert": "OK",
      "vis_m": 8000,
      "fzfg": false,
      "metar_trigger": false,
      "taf_trigger": false,
      "metar": "METAR EGPF 221220Z AUTO 07015KT 8000 -RA SCT015/// SCT027/// OVC033/// //////TCU 07/06 Q0989",
      "taf": "TAF EGPF 221057Z 2212/2312 08011KT 9999 FEW012 BKN025"
    },
    {
      "icao": "EHBK",
      "alert": "OK",
      "vis_m": 9999,
      "fzfg": false,
      "metar_trigger": false,
      "taf_trigger": false,
      "metar": "METAR EHBK 221225Z AUTO 10008KT 9999 NSC 07/02 Q0995 NOSIG",
      "taf": "TAF EHBK 221119Z 2212/2318 15007KT CAVOK"
    },
    {
      "icao": "EHEH",
      "alert": "OK",
      "vis_m": 9999,
      "fzfg": false,
      "metar_trigger": false,
      "taf_trigger": false,
      "metar": "METAR EHEH 221225Z AUTO 10006KT 9999 OVC230 05/M02 Q0995 BLU NOSIG RMK TREND REMOTE BY EHWX",
      "taf": "TAF EHEH 221133Z 2212/2318 11006KT CAVOK"
    },
    {
      "icao": "EKBI",
      "alert": "OK",
      "vis_m": 8000,
      "fzfg": false,
      "metar_trigger": false,
      "taf_trigger": false,
      "metar": "METAR EKBI 221219Z 07018KT 8000 -SG OVC015 M01/M04 Q1007",
      "taf": "TAF EKBI 221127Z 2212/2312 08015KT 9999 -SN OVC020"
    },
    {
      "icao": "EKCH",
      "alert": "OK",
      "vis_m": 9999,
      "fzfg": false,
      "metar_trigger": false,
      "taf_trigger": false,
      "metar": "METAR EKCH 221220Z 07017KT 9999 -SN BKN020 M00/M04 Q1008 NOSIG",
      "taf": "TAF EKCH 221127Z 2212/2312 07018KT 9999 BKN020"
    },
    {
      "icao": "ENAL",
      "alert": "OK",
      "vis_m": 9999,
      "fzfg": false,
      "metar_trigger": false,
      "taf_trigger": false,
      "metar": "METAR ENAL 221220Z 13011KT CAVOK 06/M09 Q1012",
      "taf": "TAF ENAL 221100Z 2212/2221 13008KT CAVOK"
    },
    {
      "icao": "ENBR",
      "alert": "OK",
      "vis_m": 9999,
      "fzfg": false,
      "metar_trigger": false,
      "taf_trigger": false,
      "metar": "METAR ENBR 221220Z 05003KT 010V100 CAVOK 03/M08 Q1010 NOSIG RMK WIND 1200FT 00000KT",
      "taf": "TAF ENBR 221100Z 2212/2312 07005KT CAVOK"
    },
    {
      "icao": "ENGM",
      "alert": "OK",
      "vis_m": 9999,
      "fzfg": false,
      "metar_trigger": false,
      "taf_trigger": false,
      "metar": "METAR ENGM 221220Z 06010KT 9999 BKN020 M03/M07 Q1019 NOSIG",
      "taf": "TAF ENGM 221100Z 2212/2312 02008KT 9999 OVC020"
    },
    {
      "icao": "ENHD",
      "alert": "OK",
      "vis_m": 9999,
      "fzfg": false,
      "metar_trigger": false,
      "taf_trigger": false,
      "metar": "METAR ENHD 221220Z 10014KT CAVOK 03/M09 Q1010",
      "taf": "TAF ENHD 221100Z 2212/2221 10012KT CAVOK"
    },
    {
      "icao": "ENTC",
      "alert": "OK",
      "vis_m": 9999,
      "fzfg": false,
      "metar_trigger": false,
      "taf_trigger": false,
      "metar": "METAR ENTC 221220Z VRB02KT 9999 FEW005 M09/M10 Q1024 NOSIG RMK WIND 2600FT 11008KT",
      "taf": "TAF ENTC 221100Z 2212/2312 VRB02KT 9999 FEW001"
    },
    {
      "icao": "ENTO",
      "alert": "OK",
      "vis_m": 9999,
      "fzfg": false,
      "metar_trigger": false,
      "taf_trigger": false,
      "metar": "METAR ENTO 221220Z 04011KT 9999 OVC025 M01/M05 Q1018 NOSIG",
      "taf": "TAF ENTO 221100Z 2212/2312 04012KT 9999 OVC020"
    },
    {
      "icao": "ENVA",
      "alert": "OK",
      "vis_m": 9999,
      "fzfg": false,
      "metar_trigger": false,
      "taf_trigger": false,
      "metar": "METAR ENVA 221220Z 12012KT 090V160 CAVOK M01/M08 Q1020 NOSIG RMK WIND 670FT 14021KT",
      "taf": "TAF ENVA 221100Z 2212/2312 11010KT CAVOK"
    },
    {
      "icao": "ENZV",
      "alert": "OK",
      "vis_m": 9999,
      "fzfg": false,
      "metar_trigger": false,
      "taf_trigger": false,
      "metar": "METAR ENZV 221220Z 10014KT CAVOK 02/M08 Q1010 NOSIG",
      "taf": "TAF ENZV 221100Z 2212/2312 09008KT CAVOK"
    },
    {
      "icao": "EPGD",
      "alert": "OK",
      "vis_m": 6000,
      "fzfg": false,
      "metar_trigger": false,
      "taf_trigger": false,
      "metar": "METAR EPGD 221230Z 11005KT 6000 NSC M07/M10 Q1007",
      "taf": "TAF EPGD 221130Z 2212/2312 11007KT 4500 BR NSC"
    },
    {
      "icao": "EPKK",
      "alert": "OK",
      "vis_m": 6000,
      "fzfg": false,
      "metar_trigger": false,
      "taf_trigger": false,
      "metar": "METAR EPKK 221230Z VRB02KT 6000 NSC M04/M10 Q1003",
      "taf": "TAF EPKK 221130Z 2212/2312 07004KT 6000 NSC"
    },
    {
      "icao": "EPKT",
      "alert": "OK",
      "vis_m": 6000,
      "fzfg": false,
      "metar_trigger": false,
      "taf_trigger": false,
      "metar": "METAR EPKT 221230Z VRB01KT 6000 NSC 01/M09 Q1002",
      "taf": "TAF EPKT 221130Z 2212/2312 10004KT 7000 NSC"
    },
    {
      "icao": "EPLB",
      "alert": "OK",
      "vis_m": 4700,
      "fzfg": false,
      "metar_trigger": false,
      "taf_trigger": false,
      "metar": "METAR EPLB 221230Z 09012KT 4700 BR NSC M14/M15 Q1007",
      "taf": "TAF EPLB 221130Z 2212/2312 08008KT 4000 HZ NSC"
    },
    {
      "icao": "EPMO",
      "alert": "OK",
      "vis_m": 7000,
      "fzfg": false,
      "metar_trigger": false,
      "taf_trigger": false,
      "metar": "METAR EPMO 221230Z 07013KT 7000 NSC M06/M10 Q1006",
      "taf": "TAF EPMO 221130Z 2212/2312 08012KT 6000 NSC"
    },
    {
      "icao": "EPPO",
      "alert": "OK",
      "vis_m": 9999,
      "fzfg": false,
      "metar_trigger": false,
      "taf_trigger": false,
      "metar": "METAR EPPO 221230Z 08006KT CAVOK 04/M08 Q1003",
      "taf": "TAF EPPO 221130Z 2212/2312 10006KT CAVOK"
    },
    {
      "icao": "EPRA",
      "alert": "OK",
      "vis_m": 6000,
      "fzfg": false,
      "metar_trigger": false,
      "taf_trigger": false,
      "metar": "METAR EPRA 221230Z 07008KT 6000 NSC M09/M14 Q1005",
      "taf": "TAF EPRA 221130Z 2212/2221 09006KT 7000 NSC"
    },
    {
      "icao": "EPRZ",
      "alert": "OK",
      "vis_m": 4300,
      "fzfg": false,
      "metar_trigger": false,
      "taf_trigger": false,
      "metar": "METAR EPRZ 221230Z 07010KT 4300 BR NSC M09/M14 Q1004",
      "taf": "TAF EPRZ 221130Z 2212/2312 09009KT 4000 BR HZ NSC"
    },
    {
      "icao": "EPSC",
      "alert": "OK",
      "vis_m": 6000,
      "fzfg": false,
      "metar_trigger": false,
      "taf_trigger": false,
      "metar": "METAR EPSC 221230Z 03004KT 360V060 6000 NSC M02/M06 Q1004",
      "taf": "TAF EPSC 221130Z 2212/2312 09006KT 7000 NSC"
    },
    {
      "icao": "EPSY",
      "alert": "OK",
      "vis_m": 6000,
      "fzfg": false,
      "metar_trigger": false,
      "taf_trigger": false,
      "metar": "METAR EPSY 221230Z 08007KT 050V120 6000 NSC M08/M12 Q1009",
      "taf": "TAF EPSY 221130Z 2212/2221 09008KT 8000 NSC"
    },
    {
      "icao": "EPWA",
      "alert": "OK",
      "vis_m": 9999,
      "fzfg": false,
      "metar_trigger": false,
      "taf_trigger": false,
      "metar": "METAR EPWA 221230Z 09009KT CAVOK M03/M10 Q1006 NOSIG",
      "taf": "TAF EPWA 221130Z 2212/2312 08010KT 9000 NSC"
    },
    {
      "icao": "EPWR",
      "alert": "OK",
      "vis_m": 9999,
      "fzfg": false,
      "metar_trigger": false,
      "taf_trigger": false,
      "metar": "METAR EPWR 221230Z 14004KT CAVOK 03/M07 Q1002",
      "taf": "TAF EPWR 221130Z 2212/2312 12007KT CAVOK"
    },
    {
      "icao": "ESGG",
      "alert": "OK",
      "vis_m": 9999,
      "fzfg": false,
      "metar_trigger": false,
      "taf_trigger": false,
      "metar": "METAR ESGG 221220Z 07016KT 9999 BKN022 M00/M05 Q1012",
      "taf": "TAF ESGG 221130Z 2212/2312 06013G25KT 9999 BKN020"
    },
    {
      "icao": "ESKN",
      "alert": "OK",
      "vis_m": 9999,
      "fzfg": false,
      "metar_trigger": false,
      "taf_trigger": false,
      "metar": "METAR ESKN 221220Z 05013KT 9999 DRSN BKN011 M02/M04 Q1019",
      "taf": ""
    },
    {
      "icao": "ESMS",
      "alert": "OK",
      "vis_m": 6000,
      "fzfg": false,
      "metar_trigger": false,
      "taf_trigger": false,
      "metar": "METAR ESMS 221220Z 07015KT 6000 OVC015 M01/M04 Q1007",
      "taf": "TAF ESMS 221127Z 2212/2312 07015KT 9000 BKN020"
    },
    {
      "icao": "ESSA",
      "alert": "OK",
      "vis_m": 9999,
      "fzfg": false,
      "metar_trigger": false,
      "taf_trigger": false,
      "metar": "METAR ESSA 221220Z 08011KT 9999 -SN BKN017 M03/M05 Q1021 NOSIG",
      "taf": "TAF ESSA 221130Z 2212/2312 08012KT 9000 -SN SCT008 OVC015"
    },
    {
      "icao": "EYKA",
      "alert": "OK",
      "vis_m": 9999,
      "fzfg": false,
      "metar_trigger": false,
      "taf_trigger": false,
      "metar": "METAR EYKA 221220Z VRB13KT 9999 OVC013 M08/M11 Q1015",
      "taf": "TAF EYKA 221100Z 2212/2312 09012KT 8000 OVC015"
    },
    {
      "icao": "EYPA",
      "alert": "OK",
      "vis_m": 9999,
      "fzfg": false,
      "metar_trigger": false,
      "taf_trigger": false,
      "metar": "METAR EYPA 221220Z 10013KT 080V150 9999 OVC013 M06/M09 Q1014",
      "taf": "TAF EYPA 221100Z 2212/2312 10012KT 9000 OVC015"
    },
    {
      "icao": "EYVI",
      "alert": "OK",
      "vis_m": 9999,
      "fzfg": false,
      "metar_trigger": false,
      "taf_trigger": false,
      "metar": "METAR EYVI 221220Z 09009KT 070V130 9999 -SN OVC008 M10/M11 Q1015 NOSIG",
      "taf": "TAF EYVI 221100Z 2212/2312 08010KT 8000 BKN010"
    },
    {
      "icao": "GCFV",
      "alert": "OK",
      "vis_m": 9999,
      "fzfg": false,
      "metar_trigger": false,
      "taf_trigger": false,
      "metar": "METAR GCFV 221230Z VRB11KT 9999 SCT024 BKN030 22/15 Q1020",
      "taf": ""
    },
    {
      "icao": "GCLP",
      "alert": "OK",
      "vis_m": 9999,
      "fzfg": false,
      "metar_trigger": false,
      "taf_trigger": false,
      "metar": "METAR GCLP 221230Z 14007KT 100V190 9999 FEW025 BKN030 20/15 Q1021 NOSIG",
      "taf": ""
    },
    {
      "icao": "GCTS",
      "alert": "OK",
      "vis_m": 9999,
      "fzfg": false,
      "metar_trigger": false,
      "taf_trigger": false,
      "metar": "METAR GCTS 221230Z 16008KT 130V200 9999 BKN025 20/14 Q1021 NOSIG",
      "taf": "TAF GCTS 220800Z 2209/2309 VRB06KT 9999 SCT030 TX22/2214Z TN14/2306Z"
    },
    {
      "icao": "GMAD",
      "alert": "OK",
      "vis_m": 6000,
      "fzfg": false,
      "metar_trigger": false,
      "taf_trigger": false,
      "metar": "METAR GMAD 221230Z 26005KT 230V290 6000 BKN006 16/16 Q1017 NOSIG",
      "taf": "TAF GMAD 221100Z 2212/2318 24006KT 6000 SCT010 BKN026"
    },
    {
      "icao": "GMMN",
      "alert": "OK",
      "vis_m": 9999,
      "fzfg": false,
      "metar_trigger": false,
      "taf_trigger": false,
      "metar": "METAR GMMN 221230Z 23009KT 200V270 9999 BKN020 17/13 Q1015 NOSIG",
      "taf": "TAF GMMN 221100Z 2212/2318 22012KT 9999 SCT012 BKN018"
    },
    {
      "icao": "GMMX",
      "alert": "OK",
      "vis_m": 9999,
      "fzfg": false,
      "metar_trigger": false,
      "taf_trigger": false,
      "metar": "METAR GMMX 221230Z 33003KT 280V090 9999 SCT010 BKN020 16/14 Q1016 NOSIG",
      "taf": "TAF GMMX 221100Z 2212/2318 24014KT 8000 SCT020 SCT080"
    },
    {
      "icao": "HEGN",
      "alert": "OK",
      "vis_m": 9999,
      "fzfg": false,
      "metar_trigger": false,
      "taf_trigger": false,
      "metar": "METAR HEGN 221200Z 12011KT CAVOK 24/16 Q1010 NOSIG",
      "taf": "TAF HEGN 221100Z 2212/2318 12012KT CAVOK"
    },
    {
      "icao": "HEMA",
      "alert": "OK",
      "vis_m": 9999,
      "fzfg": false,
      "metar_trigger": false,
      "taf_trigger": false,
      "metar": "METAR HEMA 221200Z 11012KT CAVOK 25/15 Q1011 NOSIG",
      "taf": "TAF HEMA 221100Z 2212/2318 13014KT CAVOK"
    },
    {
      "icao": "HESH",
      "alert": "OK",
      "vis_m": 9999,
      "fzfg": false,
      "metar_trigger": false,
      "taf_trigger": false,
      "metar": "METAR HESH 221200Z 03007KT CAVOK 26/11 Q1012 NOSIG",
      "taf": "TAF HESH 221100Z 2212/2318 15012KT CAVOK"
    },
    {
      "icao": "HESX",
      "alert": "OK",
      "vis_m": 9999,
      "fzfg": false,
      "metar_trigger": false,
      "taf_trigger": false,
      "metar": "METAR HESX 221200Z 29007KT CAVOK 20/02 Q1011 NOSIG",
      "taf": "TAF HESX 221100Z 2212/2318 25008KT 6000 SCT020 OVC070"
    },
    {
      "icao": "LATI",
      "alert": "OK",
      "vis_m": null,
      "fzfg": false,
      "metar_trigger": false,
      "taf_trigger": false,
      "metar": "",
      "taf": "TAF LATI 221100Z 2212/2312 VRB05KT 9999 -RA SCT035 BKN070 TX15/2312Z TN07/2304Z"
    },
    {
      "icao": "LBPD",
      "alert": "OK",
      "vis_m": 8000,
      "fzfg": false,
      "metar_trigger": false,
      "taf_trigger": false,
      "metar": "METAR LBPD 221230Z AUTO 31006KT 8000 FEW011/// OVC023/// 02/01 Q1005 NOSIG",
      "taf": "TAF LBPD 221100Z 2212/2312 VRB04KT 5000 BR OVC015"
    },
    {
      "icao": "LBSF",
      "alert": "OK",
      "vis_m": 9999,
      "fzfg": false,
      "metar_trigger": false,
      "taf_trigger": false,
      "metar": "METAR LBSF 221230Z 10009KT 9999 SCT017 SCT027 BKN084 03/M01 Q1002 NOSIG",
      "taf": "TAF LBSF 221100Z 2212/2312 12006KT 9999 SCT020 BKN030 OVC040"
    },
    {
      "icao": "LBWN",
      "alert": "OK",
      "vis_m": 9999,
      "fzfg": false,
      "metar_trigger": false,
      "taf_trigger": false,
      "metar": "METAR LBWN 221230Z 13004KT 9999 FEW017 BKN043 07/05 Q1004 NOSIG",
      "taf": "TAF LBWN 221100Z 2212/2312 11010KT 7000 BKN020 OVC040"
    },
    {
      "icao": "LCLK",
      "alert": "OK",
      "vis_m": 9999,
      "fzfg": false,
      "metar_trigger": false,
      "taf_trigger": false,
      "metar": "METAR LCLK 221230Z 05023KT 9999 -RA BKN018 13/10 Q1014 NOSIG",
      "taf": "TAF LCLK 221130Z 2212/2312 04020KT 9999 SCT025"
    },
    {
      "icao": "LCPH",
      "alert": "OK",
      "vis_m": 9000,
      "fzfg": false,
      "metar_trigger": false,
      "taf_trigger": false,
      "metar": "METAR LCPH 221230Z 14010KT 090V160 9000 -RA FEW030 BKN080 16/07 Q1011 NOSIG RMK SEV WS FINAL RWY11 OBS AT 1140",
      "taf": "TAF LCPH 221130Z 2212/2312 13020KT 9999 SCT025"
    },
    {
      "icao": "LEAL",
      "alert": "OK",
      "vis_m": 9999,
      "fzfg": false,
      "metar_trigger": false,
      "taf_trigger": false,
      "metar": "METAR LEAL 221230Z 30014G26KT 240V340 CAVOK 16/02 Q1004 NOSIG",
      "taf": "TAF LEAL 221100Z 2212/2312 29015KT 9999 SCT040 TX17/2213Z TN09/2306Z"
    },
    {
      "icao": "LEBB",
      "alert": "OK",
      "vis_m": 9999,
      "fzfg": false,
      "metar_trigger": false,
      "taf_trigger": false,
      "metar": "METAR LEBB 221230Z 22008KT 140V260 9999 FEW045 SCT065 14/05 Q1001 NOSIG",
      "taf": "TAF LEBB 221100Z 2212/2312 22009KT 9999 FEW040 TX14/2215Z TN07/2306Z"
    },
    {
      "icao": "LEBL",
      "alert": "OK",
      "vis_m": 9999,
      "fzfg": false,
      "metar_trigger": false,
      "taf_trigger": false,
      "metar": "METAR LEBL 221230Z 26007KT 240V310 9999 FEW020 13/10 Q0998 NOSIG",
      "taf": "TAF LEBL 221100Z 2212/2312 32008KT 9999 BKN020 TX15/2213Z TN07/2306Z"
    },
    {
      "icao": "LECH",
      "alert": "OK",
      "vis_m": 9999,
      "fzfg": false,
      "metar_trigger": false,
      "taf_trigger": false,
      "metar": "METAR LECH 221230Z AUTO 34010KT 300V050 CAVOK 14/M00 Q1000",
      "taf": ""
    },
    {
      "icao": "LEMD",
      "alert": "OK",
      "vis_m": 9999,
      "fzfg": false,
      "metar_trigger": false,
      "taf_trigger": false,
      "metar": "METAR LEMD 221230Z 21012KT 9999 SCT055 09/01 Q1004 NOSIG",
      "taf": "TAF LEMD 221100Z 2212/2318 21010KT 9999 FEW030 TX10/2214Z TN03/2308Z"
    },
    {
      "icao": "LEMG",
      "alert": "OK",
      "vis_m": 9999,
      "fzfg": false,
      "metar_trigger": false,
      "taf_trigger": false,
      "metar": "METAR LEMG 221230Z 31011KT 9999 FEW045 15/05 Q1010 NOSIG",
      "taf": "TAF LEMG 221100Z 2212/2312 30012KT 9999 FEW040 TX17/2214Z TN10/2307Z"
    },
    {
      "icao": "LEVC",
      "alert": "OK",
      "vis_m": 9999,
      "fzfg": false,
      "metar_trigger": false,
      "taf_trigger": false,
      "metar": "METAR LEVC 221230Z 29014KT 250V320 9999 FEW040 16/02 Q1001 NOSIG",
      "taf": "TAF LEVC 221100Z 2212/2312 27010KT 9999 SCT040 TX17/2213Z TN07/2305Z"
    },
    {
      "icao": "LEXJ",
      "alert": "OK",
      "vis_m": 9999,
      "fzfg": false,
      "metar_trigger": false,
      "taf_trigger": false,
      "metar": "METAR LEXJ 221230Z 25008KT 210V300 9999 FEW070 13/02 Q1001",
      "taf": ""
    },
    {
      "icao": "LEZG",
      "alert": "OK",
      "vis_m": 9999,
      "fzfg": false,
      "metar_trigger": false,
      "taf_trigger": false,
      "metar": "METAR LEZG 221230Z 32009KT CAVOK 11/05 Q1001 NOSIG",
      "taf": "TAF LEZG 221100Z 2212/2312 28008KT 9999 FEW040 TX13/2215Z TN05/2306Z"
    },
    {
      "icao": "LEZL",
      "alert": "OK",
      "vis_m": 9999,
      "fzfg": false,
      "metar_trigger": false,
      "taf_trigger": false,
      "metar": "METAR LEZL 221230Z 26011KT 230V290 9999 FEW030 15/09 Q1011 NOSIG",
      "taf": "TAF LEZL 220800Z 2209/2309 23009KT 9999 FEW030 TX15/2215Z TN08/2307Z"
    },
    {
      "icao": "LFBD",
      "alert": "OK",
      "vis_m": 9999,
      "fzfg": false,
      "metar_trigger": false,
      "taf_trigger": false,
      "metar": "METAR LFBD 221230Z AUTO 30011KT 280V340 9999 4800 SCT016/// SCT031/// BKN046/// ///CB 10/09 Q0998 TEMPO 25015G25KT 3000 SHRA",
      "taf": ""
    },
    {
      "icao": "LFLL",
      "alert": "OK",
      "vis_m": 9999,
      "fzfg": false,
      "metar_trigger": false,
      "taf_trigger": false,
      "metar": "METAR LFLL 221230Z 15011KT 9999 FEW046 BKN110 09/05 Q0997 NOSIG",
      "taf": "TAF LFLL 221100Z 2212/2318 15009KT CAVOK"
    },
    {
      "icao": "LFLS",
      "alert": "OK",
      "vis_m": 9999,
      "fzfg": false,
      "metar_trigger": false,
      "taf_trigger": false,
      "metar": "METAR LFLS 221230Z AUTO 11005KT 9999 FEW011 SCT043 BKN062 07/04 Q0998 TEMPO BKN014",
      "taf": ""
    },
    {
      "icao": "LFMN",
      "alert": "OK",
      "vis_m": 9999,
      "fzfg": false,
      "metar_trigger": false,
      "taf_trigger": false,
      "metar": "METAR LFMN 221230Z 05007KT 360V120 9999 BKN053 BKN076 11/M00 Q0999 NOSIG",
      "taf": "TAF LFMN 220800Z 2209/2315 33010KT 9999 BKN060"
    },
    {
      "icao": "LFOB",
      "alert": "OK",
      "vis_m": 9999,
      "fzfg": false,
      "metar_trigger": false,
      "taf_trigger": false,
      "metar": "METAR LFOB 221230Z AUTO 17013KT 9999 SCT020 BKN031 OVC040 10/07 Q0991 TEMPO 4000 -SHRA BKN009 BKN014TCU",
      "taf": "TAF LFOB 221100Z 2212/2312 15012KT 9999 BKN015"
    },
    {
      "icao": "LFPO",
      "alert": "OK",
      "vis_m": 9999,
      "fzfg": false,
      "metar_trigger": false,
      "taf_trigger": false,
      "metar": "METAR LFPO 221230Z 19011KT 150V220 9999 BKN020 10/06 Q0992 NOSIG",
      "taf": "TAF LFPO 221100Z 2212/2318 18012KT 9999 BKN016"
    },
    {
      "icao": "LFSB",
      "alert": "OK",
      "vis_m": 9999,
      "fzfg": false,
      "metar_trigger": false,
      "taf_trigger": false,
      "metar": "METAR LFSB 221230Z AUTO 17005KT 140V210 CAVOK 03/M00 Q0998 NOSIG",
      "taf": "TAF LFSB 221100Z 2212/2312 15005KT CAVOK"
    },
    {
      "icao": "LGAV",
      "alert": "OK",
      "vis_m": 9999,
      "fzfg": false,
      "metar_trigger": false,
      "taf_trigger": false,
      "metar": "METAR LGAV 221220Z VRB03KT 9999 FEW016 SCT025 BKN060 14/10 Q1002 NOSIG",
      "taf": "TAF LGAV 221100Z 2212/2312 22010KT 9999 FEW015 SCT025 BKN070"
    },
    {
      "icao": "LGTS",
      "alert": "OK",
      "vis_m": 9999,
      "fzfg": false,
      "metar_trigger": false,
      "taf_trigger": false,
      "metar": "METAR LGTS 221220Z 23004KT 9999 FEW010 BKN025 08/07 Q1003 NOSIG",
      "taf": "TAF LGTS 221100Z 2212/2312 VRB03KT 9999 FEW010 BKN030"
    },
    {
      "icao": "LHBP",
      "alert": "OK",
      "vis_m": 6000,
      "fzfg": false,
      "metar_trigger": false,
      "taf_trigger": false,
      "metar": "METAR LHBP 221230Z 11007KT 6000 SCT009 BKN030 BKN075 01/M02 Q1004 TEMPO 5000 BR BKN009 BKN030",
      "taf": ""
    },
    {
      "icao": "LHDC",
      "alert": "OK",
      "vis_m": 9999,
      "fzfg": false,
      "metar_trigger": false,
      "taf_trigger": false,
      "metar": "METAR LHDC 221215Z AUTO 03008KT 360V060 CAVOK 02/M03 Q1004 NOSIG",
      "taf": "TAF LHDC 221115Z 2212/2221 02006KT 9999 -SN OVC045"
    },
    {
      "icao": "LIBD",
      "alert": "OK",
      "vis_m": 9999,
      "fzfg": false,
      "metar_trigger": false,
      "taf_trigger": false,
      "metar": "METAR LIBD 221220Z 25006KT 230V290 9999 SCT015 12/09 Q0999",
      "taf": "TAF LIBD 221100Z 2212/2312 25006KT 8000 SCT030"
    },
    {
      "icao": "LIBG",
      "alert": "OK",
      "vis_m": 9999,
      "fzfg": false,
      "metar_trigger": false,
      "taf_trigger": false,
      "metar": "METAR LIBG 221150Z 27004KT 210V310 9999 SCT020 SCT030 13/08 Q0999",
      "taf": "TAF LIBG 221100Z 2212/2221 VRB05KT 9999 SCT020"
    },
    {
      "icao": "LIBP",
      "alert": "OK",
      "vis_m": 9999,
      "fzfg": false,
      "metar_trigger": false,
      "taf_trigger": false,
      "metar": "METAR LIBP 221220Z AUTO 02007KT 340V050 9999 BKN031/// 10/07 Q1000",
      "taf": "TAF LIBP 221100Z 2212/2312 VRB05KT 9999 SCT020"
    },
    {
      "icao": "LIBR",
      "alert": "OK",
      "vis_m": 9999,
      "fzfg": false,
      "metar_trigger": false,
      "taf_trigger": false,
      "metar": "METAR LIBR 221220Z 36004KT 330V040 9999 FEW020 BKN035 13/09 Q0999",
      "taf": "TAF LIBR 221100Z 2212/2312 VRB05KT 9999 FEW020"
    },
    {
      "icao": "LICA",
      "alert": "OK",
      "vis_m": 9999,
      "fzfg": false,
      "metar_trigger": false,
      "taf_trigger": false,
      "metar": "METAR LICA 221220Z AUTO 24008KT 9999 FEW018/// BKN052/// 14/10 Q1000",
      "taf": "TAF LICA 221100Z 2212/2312 25012KT 9999 SCT040"
    },
    {
      "icao": "LICC",
      "alert": "OK",
      "vis_m": 9999,
      "fzfg": false,
      "metar_trigger": false,
      "taf_trigger": false,
      "metar": "METAR LICC 221220Z 27011KT 9999 SCT040 SCT070 17/16 Q0999",
      "taf": "TAF LICC 221100Z 2212/2312 26012KT 7000 FEW050"
    },
    {
      "icao": "LICJ",
      "alert": "OK",
      "vis_m": 9999,
      "fzfg": false,
      "metar_trigger": false,
      "taf_trigger": false,
      "metar": "METAR LICJ 221220Z 23005KT 180V250 9999 FEW025 15/09 Q1001",
      "taf": "TAF LICJ 221100Z 2212/2312 26013KT 9999 SCT025"
    },
    {
      "icao": "LIMC",
      "alert": "OK",
      "vis_m": 200,
      "fzfg": false,
      "metar_trigger": false,
      "taf_trigger": false,
      "metar": "METAR LIMC 221220Z 21004KT 170V250 0200 R35R/0400D R17L/0400N R35L/0275N FG VV002 01/01 Q1001 NOSIG",
      "taf": "TAF LIMC 221100Z 2212/2318 VRB04KT 3000 BR NSC"
    },
    {
      "icao": "LIME",
      "alert": "OK",
      "vis_m": 9999,
      "fzfg": false,
      "metar_trigger": false,
      "taf_trigger": false,
      "metar": "METAR LIME 221220Z VRB02KT CAVOK 07/M02 Q1000 NOSIG",
      "taf": "TAF LIME 221100Z 2212/2312 VRB04KT CAVOK"
    },
    {
      "icao": "LIMF",
      "alert": "OK",
      "vis_m": 3000,
      "fzfg": false,
      "metar_trigger": false,
      "taf_trigger": false,
      "metar": "METAR LIMF 221220Z VRB02KT 3000 BCFG FEW004 BKN150 03/02 Q1001",
      "taf": "TAF LIMF 221100Z 2212/2312 VRB04KT 4000 BR NSC"
    },
    {
      "icao": "LIMJ",
      "alert": "OK",
      "vis_m": 9999,
      "fzfg": false,
      "metar_trigger": false,
      "taf_trigger": false,
      "metar": "METAR LIMJ 221220Z 06008KT 030V120 CAVOK 10/00 Q0999",
      "taf": "TAF LIMJ 221100Z 2212/2312 03013KT 9999 FEW040"
    },
    {
      "icao": "LIPE",
      "alert": "OK",
      "vis_m": 6000,
      "fzfg": false,
      "metar_trigger": false,
      "taf_trigger": false,
      "metar": "METAR LIPE 221220Z VRB02KT 6000 BKN030 06/02 Q1001",
      "taf": "TAF LIPE 221100Z 2212/2312 VRB05KT 9999 SCT020 SCT040"
    },
    {
      "icao": "LIPH",
      "alert": "OK",
      "vis_m": 9999,
      "fzfg": false,
      "metar_trigger": false,
      "taf_trigger": false,
      "metar": "METAR LIPH 221220Z 26003KT 210V320 9999 BKN060 07/M06 Q1000",
      "taf": "TAF LIPH 221100Z 2212/2312 VRB05KT 9999 SCT060"
    },
    {
      "icao": "LIPQ",
      "alert": "OK",
      "vis_m": 9999,
      "fzfg": false,
      "metar_trigger": false,
      "taf_trigger": false,
      "metar": "METAR LIPQ 221220Z AUTO 30003KT 260V340 9999 OVC061/// 08/M03 Q1000",
      "taf": "TAF LIPQ 221100Z 2212/2312 VRB05KT 9999 SCT050"
    },
    {
      "icao": "LIPR",
      "alert": "OK",
      "vis_m": 8000,
      "fzfg": false,
      "metar_trigger": false,
      "taf_trigger": false,
      "metar": "METAR LIPR 221220Z 30004KT 8000 BKN020 06/01 Q1001",
      "taf": "TAF LIPR 221100Z 2212/2312 30006KT 9999 SCT020"
    },
    {
      "icao": "LIPX",
      "alert": "OK",
      "vis_m": 9999,
      "fzfg": false,
      "metar_trigger": false,
      "taf_trigger": false,
      "metar": "METAR LIPX 221220Z 29003KT 240V360 CAVOK 08/M04 Q1001",
      "taf": "TAF LIPX 221100Z 2212/2312 VRB04KT 9999 SCT050"
    },
    {
      "icao": "LIPY",
      "alert": "OK",
      "vis_m": 9999,
      "fzfg": false,
      "metar_trigger": false,
      "taf_trigger": false,
      "metar": "METAR LIPY 221220Z AUTO 29006KT 260V320 9999 OVC018/// 07/03 Q1001",
      "taf": "TAF LIPY 221100Z 2212/2312 25008KT 9999 SCT070"
    },
    {
      "icao": "LIPZ",
      "alert": "OK",
      "vis_m": 9999,
      "fzfg": false,
      "metar_trigger": false,
      "taf_trigger": false,
      "metar": "METAR LIPZ 221220Z 33004KT 210V350 9999 SCT055 07/M06 Q1001 NOSIG",
      "taf": "TAF LIPZ 221100Z 2212/2318 VRB05KT CAVOK"
    },
    {
      "icao": "LIRF",
      "alert": "OK",
      "vis_m": 9999,
      "fzfg": false,
      "metar_trigger": false,
      "taf_trigger": false,
      "metar": "METAR LIRF 221220Z 27006KT 240V300 CAVOK 12/06 Q0999 NOSIG",
      "taf": "TAF LIRF 221100Z 2212/2318 24010KT 9999 FEW040"
    },
    {
      "icao": "LIRN",
      "alert": "OK",
      "vis_m": 9999,
      "fzfg": false,
      "metar_trigger": false,
      "taf_trigger": false,
      "metar": "METAR LIRN 221220Z 21004KT 120V270 9999 R06/1400N R24/P2000N FEW030 14/07 Q0999 NOSIG",
      "taf": "TAF LIRN 221100Z 2212/2312 VRB05KT 9999 SCT050"
    },
    {
      "icao": "LIRP",
      "alert": "OK",
      "vis_m": 9999,
      "fzfg": false,
      "metar_trigger": false,
      "taf_trigger": false,
      "metar": "METAR LIRP 221215Z VRB03KT CAVOK 10/03 Q0999 NOSIG",
      "taf": "TAF LIRP 221100Z 2212/2312 08005KT CAVOK"
    },
    {
      "icao": "LIRZ",
      "alert": "OK",
      "vis_m": 9999,
      "fzfg": false,
      "metar_trigger": false,
      "taf_trigger": false,
      "metar": "METAR LIRZ 221220Z AUTO VRB01KT 9999 FEW054/// 11/04 Q0998",
      "taf": "TAF LIRZ 221100Z 2212/2312 VRB05KT 9999 BKN045"
    },
    {
      "icao": "LJLJ",
      "alert": "OK",
      "vis_m": 9999,
      "fzfg": false,
      "metar_trigger": false,
      "taf_trigger": false,
      "metar": "METAR LJLJ 221230Z 11003KT 070V140 9999 BKN050 M01/M06 Q1000 NOSIG",
      "taf": "TAF LJLJ 221100Z 2212/2312 12003KT 9999 FEW010 BKN060"
    },
    {
      "icao": "LKMT",
      "alert": "OK",
      "vis_m": 9999,
      "fzfg": false,
      "metar_trigger": false,
      "taf_trigger": false,
      "metar": "METAR LKMT 221230Z VRB01KT CAVOK 01/M08 Q1002 NOSIG",
      "taf": "TAF LKMT 221100Z 2212/2312 VRB02KT CAVOK"
    },
    {
      "icao": "LKPR",
      "alert": "OK",
      "vis_m": 9999,
      "fzfg": false,
      "metar_trigger": false,
      "taf_trigger": false,
      "metar": "METAR LKPR 221230Z 14005KT 110V170 9999 OVC014 M06/M08 Q1001 NOSIG",
      "taf": "TAF LKPR 221100Z 2212/2318 13006KT 9999 BKN015"
    },
    {
      "icao": "LLBG",
      "alert": "OK",
      "vis_m": 9999,
      "fzfg": false,
      "metar_trigger": false,
      "taf_trigger": false,
      "metar": "METAR LLBG 221220Z 12013KT CAVOK 21/02 Q1012 NOSIG RMK OVC095",
      "taf": "TAF LLBG 221105Z 2212/2312 10012KT CAVOK"
    },
    {
      "icao": "LMML",
      "alert": "OK",
      "vis_m": 9999,
      "fzfg": false,
      "metar_trigger": false,
      "taf_trigger": false,
      "metar": "METAR LMML 221245Z 28017KT 240V300 9999 SCT023 15/10 Q1002 NOSIG",
      "taf": "TAF LMML 221100Z 2212/2312 29015KT 9999 FEW025"
    },
    {
      "icao": "LOWW",
      "alert": "OK",
      "vis_m": 5000,
      "fzfg": false,
      "metar_trigger": false,
      "taf_trigger": false,
      "metar": "METAR LOWW 221220Z 14009KT 5000 BR BKN007 M05/M07 Q1002 BECMG OVC010",
      "taf": "TAF LOWW 221115Z 2212/2318 13005KT 4000 BR OVC006 TXM01/2314Z TNM06/2305Z"
    },
    {
      "icao": "LPFR",
      "alert": "OK",
      "vis_m": 9999,
      "fzfg": false,
      "metar_trigger": false,
      "taf_trigger": false,
      "metar": "METAR LPFR 221230Z 24013KT 9999 FEW020 16/11 Q1012",
      "taf": "TAF LPFR 221100Z 2212/2312 VRB02KT 9999 FEW020 BKN040"
    },
    {
      "icao": "LPMA",
      "alert": "OK",
      "vis_m": 9999,
      "fzfg": false,
      "metar_trigger": false,
      "taf_trigger": false,
      "metar": "METAR LPMA 221230Z 15004KT 110V180 9999 SCT012 20/15 Q1019",
      "taf": "TAF LPMA 221100Z 2212/2312 VRB05KT 9999 SCT015"
    },
    {
      "icao": "LPPR",
      "alert": "OK",
      "vis_m": 9999,
      "fzfg": false,
      "metar_trigger": false,
      "taf_trigger": false,
      "metar": "METAR LPPR 221230Z 14011KT 9999 -RA SCT025 BKN040 10/08 Q1004",
      "taf": "TAF LPPR 221100Z 2212/2312 19015KT 6000 -RA SCT008 BKN015"
    },
    {
      "icao": "LPPS",
      "alert": "OK",
      "vis_m": 9999,
      "fzfg": false,
      "metar_trigger": false,
      "taf_trigger": false,
      "metar": "METAR LPPS 221230Z 28013KT 9999 SCT006 BKN010 18/17 Q1019",
      "taf": "TAF LPPS 221100Z 2212/2318 30015KT 9999 SCT015 SCT030"
    },
    {
      "icao": "LPPT",
      "alert": "OK",
      "vis_m": 9999,
      "fzfg": false,
      "metar_trigger": false,
      "taf_trigger": false,
      "metar": "METAR LPPT 221230Z 22012KT 9999 -RA FEW022 14/10 Q1009",
      "taf": "TAF LPPT 221100Z 2212/2318 24010KT 9999 SCT025 BKN040"
    },
    {
      "icao": "LQBK",
      "alert": "OK",
      "vis_m": 5000,
      "fzfg": false,
      "metar_trigger": false,
      "taf_trigger": false,
      "metar": "METAR LQBK 221230Z VRB02KT 5000 BR FEW010 M01/M04 Q1003 NOSIG",
      "taf": "TAF LQBK 221100Z 2212/2312 VRB02KT 4000 BR OVC008 TX01/2312Z TNM04/2224Z"
    },
    {
      "icao": "LQSA",
      "alert": "OK",
      "vis_m": 6000,
      "fzfg": false,
      "metar_trigger": false,
      "taf_trigger": false,
      "metar": "METAR LQSA 221230Z 29001KT 6000 NSC 02/M04 Q1000 NOSIG",
      "taf": "TAF LQSA 221100Z 2212/2312 VRB02KT 4000 BR FEW010 SCT045 TX05/2312Z TNM02/2305Z"
    },
    {
      "icao": "LQTZ",
      "alert": "OK",
      "vis_m": 5000,
      "fzfg": false,
      "metar_trigger": false,
      "taf_trigger": false,
      "metar": "METAR LQTZ 221230Z VRB02KT 5000 BR BKN070 M00/M03 Q1002",
      "taf": "TAF LQTZ 221100Z 2212/2312 VRB02KT 6000 SCT007 BKN045 TX04/2312Z TNM03/2303Z"
    },
    {
      "icao": "LRBC",
      "alert": "OK",
      "vis_m": 9999,
      "fzfg": false,
      "metar_trigger": false,
      "taf_trigger": false,
      "metar": "METAR LRBC 221230Z 17009KT 9999 OVC015 04/00 Q1005",
      "taf": "TAF LRBC 221100Z 2212/2221 16011KT 9999 BKN015"
    },
    {
      "icao": "LRBS",
      "alert": "OK",
      "vis_m": 2000,
      "fzfg": false,
      "metar_trigger": false,
      "taf_trigger": false,
      "metar": "METAR LRBS 221230Z 06004KT 020V090 2000 -RADZ BR OVC002 01/01 Q1005 NOSIG",
      "taf": "TAF LRBS 221100Z 2212/2312 VRB04KT 3000 -RA BR OVC002"
    },
    {
      "icao": "LRBV",
      "alert": "OK",
      "vis_m": 9999,
      "fzfg": false,
      "metar_trigger": false,
      "taf_trigger": false,
      "metar": "METAR LRBV 221230Z 32006KT 9999 BKN042 BKN074 02/M00 Q1002",
      "taf": "TAF LRBV 221100Z 2212/2221 VRB04KT 9999 SCT040"
    },
    {
      "icao": "LRCL",
      "alert": "OK",
      "vis_m": 5000,
      "fzfg": false,
      "metar_trigger": false,
      "taf_trigger": false,
      "metar": "METAR LRCL 221230Z 00000KT 5000 -SN BR OVC038 M01/M06 Q1004",
      "taf": "TAF LRCL 221100Z 2212/2221 VRB04KT 7000 OVC050"
    },
    {
      "icao": "LRCV",
      "alert": "OK",
      "vis_m": 3000,
      "fzfg": false,
      "metar_trigger": false,
      "taf_trigger": false,
      "metar": "METAR LRCV 221230Z 08002KT 3000 SN BR OVC003 01/01 Q1004",
      "taf": "TAF LRCV 221100Z 2212/2221 VRB04KT 3000 -SN BR OVC005"
    },
    {
      "icao": "LRIA",
      "alert": "OK",
      "vis_m": 9999,
      "fzfg": false,
      "metar_trigger": false,
      "taf_trigger": false,
      "metar": "METAR LRIA 221230Z 11012KT 9999 BKN023 04/00 Q1006",
      "taf": "TAF LRIA 221100Z 2212/2221 12010KT CAVOK"
    },
    {
      "icao": "LROP",
      "alert": "OK",
      "vis_m": 2500,
      "fzfg": false,
      "metar_trigger": false,
      "taf_trigger": false,
      "metar": "METAR LROP 221230Z 08007KT 2500 -RA BR BKN002 OVC003 01/01 Q1005 NOSIG",
      "taf": "TAF LROP 221100Z 2212/2312 VRB04KT 3000 -RA BR OVC002"
    },
    {
      "icao": "LRSB",
      "alert": "OK",
      "vis_m": 9999,
      "fzfg": false,
      "metar_trigger": false,
      "taf_trigger": false,
      "metar": "METAR LRSB 221230Z 35003KT 9999 SCT050 BKN065 00/M06 Q1003",
      "taf": "TAF LRSB 221100Z 2212/2312 VRB04KT 9999 BKN050"
    },
    {
      "icao": "LRSM",
      "alert": "OK",
      "vis_m": 9999,
      "fzfg": false,
      "metar_trigger": false,
      "taf_trigger": false,
      "metar": "METAR LRSM 221230Z 07003KT CAVOK 01/M06 Q1004",
      "taf": "TAF LRSM 221100Z 2212/2221 VRB04KT CAVOK"
    },
    {
      "icao": "LRSV",
      "alert": "OK",
      "vis_m": 9999,
      "fzfg": false,
      "metar_trigger": false,
      "taf_trigger": false,
      "metar": "METAR LRSV 221230Z 13007KT 9999 BKN010 01/00 Q1003",
      "taf": "TAF LRSV 221100Z 2212/2221 15008KT 9999 BKN010"
    },
    {
      "icao": "LRTM",
      "alert": "OK",
      "vis_m": 4200,
      "fzfg": false,
      "metar_trigger": false,
      "taf_trigger": false,
      "metar": "METAR LRTM 221230Z 24002KT 4200 BR BKN045 M02/M07 Q1004",
      "taf": "TAF LRTM 221100Z 2212/2221 VRB04KT 3000 BR BKN045"
    },
    {
      "icao": "LRTR",
      "alert": "OK",
      "vis_m": 9999,
      "fzfg": false,
      "metar_trigger": false,
      "taf_trigger": false,
      "metar": "METAR LRTR 221230Z 36005KT 9999 BKN044 02/M03 Q1003",
      "taf": "TAF LRTR 221100Z 2212/2312 VRB04KT 9999 BKN045"
    },
    {
      "icao": "LTAC",
      "alert": "OK",
      "vis_m": 8000,
      "fzfg": false,
      "metar_trigger": false,
      "taf_trigger": false,
      "metar": "SPECI LTAC 221241Z 05011KT 8000 -RASN SCT013 BKN025 BKN080 M01/M03 Q1010 NOSIG",
      "taf": "TAF LTAC 221040Z 2212/2312 VRB02KT 9999 SCT035 BKN090"
    },
    {
      "icao": "LTFM",
      "alert": "OK",
      "vis_m": 9999,
      "fzfg": false,
      "metar_trigger": false,
      "taf_trigger": false,
      "metar": "METAR LTFM 221220Z 20020KT 9999 FEW040 BKN100 11/04 Q1004 NOSIG RMK RWY17L 20018KT RWY34L 19018KT RWY16R 20016KT RWY36 20020KT RWY18 21020KT",
      "taf": "TAF LTFM 221040Z 2212/2318 20012KT 9999 SCT040 BKN100"
    },
    {
      "icao": "LUKK",
      "alert": "OK",
      "vis_m": 5000,
      "fzfg": false,
      "metar_trigger": false,
      "taf_trigger": false,
      "metar": "METAR LUKK 221230Z 11006KT 5000 BR OVC006 01/01 Q1008 NOSIG",
      "taf": "TAF LUKK 221119Z 2212/2312 09009KT 5000 BR OVC008"
    },
    {
      "icao": "LWOH",
      "alert": "OK",
      "vis_m": null,
      "fzfg": false,
      "metar_trigger": false,
      "taf_trigger": false,
      "metar": "",
      "taf": "TAF LWOH 221140Z 2212/2312 14006KT 9999 FEW020 BKN040"
    },
    {
      "icao": "LWSK",
      "alert": "OK",
      "vis_m": null,
      "fzfg": false,
      "metar_trigger": false,
      "taf_trigger": false,
      "metar": "",
      "taf": "TAF LWSK 221140Z 2212/2312 VRB02KT 3000 BR SCT007 BKN013"
    },
    {
      "icao": "LYBE",
      "alert": "OK",
      "vis_m": 5000,
      "fzfg": false,
      "metar_trigger": false,
      "taf_trigger": false,
      "metar": "METAR LYBE 221230Z 28004KT 240V320 5000 BR NSC 01/M03 Q1003 BECMG 7000 NSW",
      "taf": "TAF LYBE 221100Z 2212/2312 30004KT 3000 BR NSC TX00/2212Z TNM03/2306Z"
    },
    {
      "icao": "LYNI",
      "alert": "OK",
      "vis_m": 9999,
      "fzfg": false,
      "metar_trigger": false,
      "taf_trigger": false,
      "metar": "METAR LYNI 221230Z VRB01KT 9999 FEW085 09/M00 Q1002 NOSIG",
      "taf": "TAF LYNI 221100Z 2212/2312 06006KT 9999 SCT040 BKN090 TX09/2312Z TN00/2305Z"
    },
    {
      "icao": "LYPG",
      "alert": "OK",
      "vis_m": 9999,
      "fzfg": false,
      "metar_trigger": false,
      "taf_trigger": false,
      "metar": "METAR LYPG 221230Z 00000KT 9999 FEW010 BKN043 BKN070 09/06 Q1001 NOSIG",
      "taf": "TAF LYPG 221100Z 2212/2312 12005KT 9999 FEW013 BKN050 OVC073 TX10/2213Z TN05/2305Z"
    },
    {
      "icao": "LZIB",
      "alert": "OK",
      "vis_m": 5000,
      "fzfg": false,
      "metar_trigger": false,
      "taf_trigger": false,
      "metar": "METAR LZIB 221230Z 09007KT 5000 BR BKN015 M02/M05 Q1003 NOSIG",
      "taf": "TAF LZIB 221115Z 2212/2312 12008KT 9999 FEW008 SCT020"
    },
    {
      "icao": "LZKZ",
      "alert": "OK",
      "vis_m": 9000,
      "fzfg": false,
      "metar_trigger": false,
      "taf_trigger": false,
      "metar": "METAR LZKZ 221230Z 10003KT 9000 SCT046 M02/M05 Q1004 NOSIG",
      "taf": "TAF LZKZ 221115Z 2212/2312 VRB02KT 8000 BKN035"
    },
    {
      "icao": "LZTT",
      "alert": "OK",
      "vis_m": 4500,
      "fzfg": false,
      "metar_trigger": false,
      "taf_trigger": false,
      "metar": "METAR LZTT 221230Z 18004KT 150V210 4500 -SN FEW020 OVC040 M00/M03 Q1001 NOSIG",
      "taf": "TAF LZTT 221115Z 2212/2312 VRB02KT 9999 FEW020 BKN045"
    },
    {
      "icao": "OEJN",
      "alert": "OK",
      "vis_m": 9999,
      "fzfg": false,
      "metar_trigger": false,
      "taf_trigger": false,
      "metar": "METAR OEJN 221200Z 23009KT CAVOK 31/16 Q1010 NOSIG",
      "taf": "TAF OEJN 221100Z 2212/2318 22010KT 7000 FEW040"
    },
    {
      "icao": "OEMA",
      "alert": "OK",
      "vis_m": 9999,
      "fzfg": false,
      "metar_trigger": false,
      "taf_trigger": false,
      "metar": "METAR OEMA 221200Z 11009KT CAVOK 22/M03 Q1019 NOSIG",
      "taf": "TAF OEMA 221100Z 2212/2318 10015KT 7000 NSC"
    },
    {
      "icao": "OJAI",
      "alert": "OK",
      "vis_m": 3500,
      "fzfg": false,
      "metar_trigger": false,
      "taf_trigger": false,
      "metar": "METAR OJAI 221200Z 09012KT 3500 HZ NSC 10/M04 Q1018 NOSIG",
      "taf": "TAF OJAI 221003Z 2212/2318 08012KT 4000 -RA SCT035 BKN035"
    },
    {
      "icao": "OMAA",
      "alert": "OK",
      "vis_m": 9999,
      "fzfg": false,
      "metar_trigger": false,
      "taf_trigger": false,
      "metar": "METAR OMAA 221230Z 34015KT CAVOK 19/00 Q1020 NOSIG",
      "taf": "TAF OMAA 221100Z 2212/2318 33015KT 8000 NSC"
    },
    {
      "icao": "OMDB",
      "alert": "OK",
      "vis_m": 9999,
      "fzfg": false,
      "metar_trigger": false,
      "taf_trigger": false,
      "metar": "METAR OMDB 221230Z 01011KT 340V040 CAVOK 19/02 Q1020 NOSIG",
      "taf": "TAF OMDB 221100Z 2212/2318 36014KT 8000 NSC"
    },
    {
      "icao": "UAAA",
      "alert": "OK",
      "vis_m": 5000,
      "fzfg": false,
      "metar_trigger": false,
      "taf_trigger": false,
      "metar": "METAR UAAA 221230Z 27004MPS 5000 BR BKN100 OVC200 M10/M12 Q1013 NOSIG",
      "taf": "TAF UAAA 221103Z 2212/2312 32003MPS 3100 BR FU SCT011 BKN050 TXM04/2308Z TNM10/2302Z"
    },
    {
      "icao": "UBBB",
      "alert": "OK",
      "vis_m": 9999,
      "fzfg": false,
      "metar_trigger": false,
      "taf_trigger": false,
      "metar": "METAR UBBB 221230Z 19015KT CAVOK 07/M04 Q1018 NOSIG",
      "taf": "TAF UBBB 221054Z 2212/2312 21014KT CAVOK TX07/2212Z TNM02/2300Z"
    },
    {
      "icao": "UDSG",
      "alert": "OK",
      "vis_m": 9999,
      "fzfg": false,
      "metar_trigger": false,
      "taf_trigger": false,
      "metar": "METAR UDSG 221230Z 21002KT 9999 FEW049 M11/M15 Q1021 NOSIG",
      "taf": "TAF UDSG 221058Z 2212/2312 VRB06KT 9999 SCT040"
    },
    {
      "icao": "UDYZ",
      "alert": "OK",
      "vis_m": 9999,
      "fzfg": false,
      "metar_trigger": false,
      "taf_trigger": false,
      "metar": "METAR UDYZ 221230Z 16003KT 9999 NSC M03/M10 Q1024 NOSIG",
      "taf": "TAF UDYZ 221100Z 2212/2312 VRB04KT 9999 FEW040"
    },
    {
      "icao": "UGKO",
      "alert": "OK",
      "vis_m": 9999,
      "fzfg": false,
      "metar_trigger": false,
      "taf_trigger": false,
      "metar": "METAR UGKO 221230Z 10018KT CAVOK 08/M06 Q1013 NOSIG",
      "taf": "TAF UGKO 221100Z 2212/2312 08017KT CAVOK TX10/2311Z TN05/2303Z"
    }
  ]
}