{
  "ts_utc": "2026-02-20T15:08:43Z",
  "threshold_m": 150,
  "source": "stations_override.txt (ICAO list) + aviationweather.gov (METAR/TAF raw)",
  "station_count": 159,
  "stations": [
    {
      "icao": "BIKF",
      "alert": "OK",
      "vis_m": 9999,
      "fzfg": false,
      "metar_trigger": false,
      "taf_trigger": false,
      "metar": "METAR BIKF 201500Z 02007KT CAVOK 01/M06 Q1008",
      "taf": "TAF BIKF 201337Z 2015/2115 05008KT CAVOK TX02/2015Z TNM06/2106Z"
    },
    {
      "icao": "BKPR",
      "alert": "OK",
      "vis_m": 9999,
      "fzfg": false,
      "metar_trigger": false,
      "taf_trigger": false,
      "metar": "METAR BKPR 201500Z 10007KT 090V150 9999 BKN030 09/06 Q1011 NOSIG",
      "taf": "TAF BKPR 201130Z 2012/2112 18008KT 9999 FEW015 BKN030"
    },
    {
      "icao": "EBCI",
      "alert": "OK",
      "vis_m": 9999,
      "fzfg": false,
      "metar_trigger": false,
      "taf_trigger": false,
      "metar": "METAR EBCI 201450Z 21012KT 9999 FEW010 SCT015 BKN025 07/04 Q1020 NOSIG",
      "taf": "TAF EBCI 201120Z 2012/2118 23008KT 9999 SCT018 SCT040"
    },
    {
      "icao": "EDDB",
      "alert": "OK",
      "vis_m": 9999,
      "fzfg": false,
      "metar_trigger": false,
      "taf_trigger": false,
      "metar": "METAR EDDB 201450Z AUTO 13011KT 100V160 CAVOK 01/M06 Q1023 NOSIG",
      "taf": "TAF EDDB 201100Z 2012/2112 15008KT CAVOK"
    },
    {
      "icao": "EDDH",
      "alert": "OK",
      "vis_m": 9999,
      "fzfg": false,
      "metar_trigger": false,
      "taf_trigger": false,
      "metar": "METAR EDDH 201450Z AUTO 15013KT 9999 OVC023 01/M06 Q1018 TEMPO 4500 -FZDZ",
      "taf": "TAF EDDH 201100Z 2012/2118 15015KT CAVOK"
    },
    {
      "icao": "EDDK",
      "alert": "OK",
      "vis_m": 9999,
      "fzfg": false,
      "metar_trigger": false,
      "taf_trigger": false,
      "metar": "METAR EDDK 201450Z AUTO 14005KT 070V160 9999 BKN021 BKN027 06/03 Q1020 NOSIG",
      "taf": "TAF EDDK 201100Z 2012/2118 15007KT 9999 FEW014 BKN025"
    },
    {
      "icao": "EDDN",
      "alert": "OK",
      "vis_m": 9999,
      "fzfg": false,
      "metar_trigger": false,
      "taf_trigger": false,
      "metar": "METAR EDDN 201450Z AUTO 21008KT 180V240 9999 OVC013 02/M01 Q1023 NOSIG",
      "taf": "TAF EDDN 201100Z 2012/2112 15005KT 9999 SCT015"
    },
    {
      "icao": "EDDS",
      "alert": "OK",
      "vis_m": 9999,
      "fzfg": false,
      "metar_trigger": false,
      "taf_trigger": false,
      "metar": "METAR EDDS 201450Z AUTO VRB01KT 9999 BKN017 BKN041 06/02 Q1021 NOSIG",
      "taf": ""
    },
    {
      "icao": "EDFH",
      "alert": "OK",
      "vis_m": 6000,
      "fzfg": false,
      "metar_trigger": false,
      "taf_trigger": false,
      "metar": "METAR EDFH 201450Z 20008KT 6000 -DZ SCT003 OVC005 02/02 Q1020",
      "taf": "TAF EDFH 201100Z 2012/2112 20007KT 8000 SCT003 BKN010"
    },
    {
      "icao": "EDJA",
      "alert": "OK",
      "vis_m": 9999,
      "fzfg": false,
      "metar_trigger": false,
      "taf_trigger": false,
      "metar": "METAR EDJA 201450Z 23008KT 9999 OVC009 03/01 Q1022",
      "taf": "TAF EDJA 201400Z 2015/2024 22006KT 9999 BKN006"
    },
    {
      "icao": "EDLW",
      "alert": "OK",
      "vis_m": 9999,
      "fzfg": false,
      "metar_trigger": false,
      "taf_trigger": false,
      "metar": "METAR EDLW 201420Z 20011KT 9999 FEW016 BKN021 OVC031 05/02 Q1019",
      "taf": "TAF EDLW 201100Z 2012/2112 17009KT 9999 SCT014 BKN020"
    },
    {
      "icao": "EDNY",
      "alert": "OK",
      "vis_m": 8000,
      "fzfg": false,
      "metar_trigger": false,
      "taf_trigger": false,
      "metar": "METAR EDNY 201420Z VRB01KT 8000 FEW007 BKN010 OVC028 04/02 Q1023",
      "taf": "TAF EDNY 201400Z 2015/2024 VRB03KT 8000 FEW010 BKN015"
    },
    {
      "icao": "EDSB",
      "alert": "OK",
      "vis_m": 9999,
      "fzfg": false,
      "metar_trigger": false,
      "taf_trigger": false,
      "metar": "METAR EDSB 201420Z 20009KT 9999 -RA BKN014 OVC016 06/03 Q1023",
      "taf": "TAF EDSB 201100Z 2012/2112 22007KT 9999 SCT012 BKN015"
    },
    {
      "icao": "EETN",
      "alert": "OK",
      "vis_m": 9999,
      "fzfg": false,
      "metar_trigger": false,
      "taf_trigger": false,
      "metar": "METAR EETN 201450Z 23008KT 9999 BKN019 M02/M05 Q1015 NOSIG",
      "taf": "TAF EETN 201130Z 2012/2112 25010KT 9999 SCT020"
    },
    {
      "icao": "EFTU",
      "alert": "OK",
      "vis_m": 9999,
      "fzfg": false,
      "metar_trigger": false,
      "taf_trigger": false,
      "metar": "METAR EFTU 201450Z AUTO 23006KT CAVOK M04/M09 Q1013",
      "taf": "TAF EFTU 201428Z 2015/2115 22008KT CAVOK"
    },
    {
      "icao": "EGBB",
      "alert": "OK",
      "vis_m": 9999,
      "fzfg": false,
      "metar_trigger": false,
      "taf_trigger": false,
      "metar": "METAR EGBB 201450Z 21009KT 170V250 9999 -RA SCT022 BKN035 10/09 Q1008",
      "taf": ""
    },
    {
      "icao": "EGGP",
      "alert": "OK",
      "vis_m": 9999,
      "fzfg": false,
      "metar_trigger": false,
      "taf_trigger": false,
      "metar": "METAR EGGP 201450Z 23017G27KT 9999 6000SE -SHRA FEW016 SCT025 BKN032 09/07 Q1005 RESHRA",
      "taf": ""
    },
    {
      "icao": "EGGW",
      "alert": "OK",
      "vis_m": 9999,
      "fzfg": false,
      "metar_trigger": false,
      "taf_trigger": false,
      "metar": "METAR EGGW 201450Z AUTO 21014KT 180V250 9999 BKN008 BKN015 09/08 Q1011",
      "taf": ""
    },
    {
      "icao": "EGKK",
      "alert": "OK",
      "vis_m": 4400,
      "fzfg": false,
      "metar_trigger": false,
      "taf_trigger": false,
      "metar": "METAR EGKK 201450Z 22014KT 4400 -RADZ BKN006 10/09 Q1015",
      "taf": ""
    },
    {
      "icao": "EGNM",
      "alert": "OK",
      "vis_m": 9999,
      "fzfg": false,
      "metar_trigger": false,
      "taf_trigger": false,
      "metar": "METAR EGNM 201450Z 23013KT 9999 SCT010 SCT018 09/07 Q1004",
      "taf": "TAF EGNM 201055Z 2012/2112 22012KT 9999 BKN016"
    },
    {
      "icao": "EGPD",
      "alert": "OK",
      "vis_m": 9999,
      "fzfg": false,
      "metar_trigger": false,
      "taf_trigger": false,
      "metar": "METAR EGPD 201450Z COR AUTO 17010KT 9999 NCD 08/05 Q0997 NOSIG",
      "taf": ""
    },
    {
      "icao": "EGPF",
      "alert": "OK",
      "vis_m": 9999,
      "fzfg": false,
      "metar_trigger": false,
      "taf_trigger": false,
      "metar": "METAR EGPF 201450Z AUTO 22016KT 9999 SCT023/// SCT029/// BKN038/// //////TCU 09/07 Q1001",
      "taf": "TAF EGPF 201056Z 2012/2112 23012KT 9999 FEW012 SCT025"
    },
    {
      "icao": "EHBK",
      "alert": "OK",
      "vis_m": 9999,
      "fzfg": false,
      "metar_trigger": false,
      "taf_trigger": false,
      "metar": "METAR EHBK 201455Z AUTO 22013KT 9999 FEW019 SCT028 BKN033 07/04 Q1019 NOSIG",
      "taf": "TAF EHBK 201118Z 2012/2118 22010KT 9999 BKN015"
    },
    {
      "icao": "EHEH",
      "alert": "OK",
      "vis_m": 9999,
      "fzfg": false,
      "metar_trigger": false,
      "taf_trigger": false,
      "metar": "METAR EHEH 201455Z AUTO 20011KT 170V230 9999 BKN022 BKN028 OVC035 07/04 Q1019 WHT TEMPO SCT015",
      "taf": "TAF EHEH 201116Z 2012/2118 22010KT 9999 FEW012 BKN025"
    },
    {
      "icao": "EKBI",
      "alert": "OK",
      "vis_m": 2600,
      "fzfg": false,
      "metar_trigger": false,
      "taf_trigger": false,
      "metar": "METAR EKBI 201450Z 17012KT 2600 -SN FEW010 BKN018 M02/M04 Q1014",
      "taf": "TAF EKBI 201427Z 2015/2115 17015KT 5000 -SN BKN020"
    },
    {
      "icao": "EKCH",
      "alert": "OK",
      "vis_m": 9999,
      "fzfg": false,
      "metar_trigger": false,
      "taf_trigger": false,
      "metar": "METAR EKCH 201450Z AUTO 16019KT 9999 BKN130/// M01/M06 Q1020 NOSIG",
      "taf": "TAF EKCH 201427Z 2015/2115 18018KT CAVOK"
    },
    {
      "icao": "ENAL",
      "alert": "OK",
      "vis_m": 9999,
      "fzfg": false,
      "metar_trigger": false,
      "taf_trigger": false,
      "metar": "METAR ENAL 201450Z 19012KT 9999 BKN048 04/M02 Q0996",
      "taf": "TAF ENAL 201400Z 2015/2024 18015KT 9999 FEW030 BKN040"
    },
    {
      "icao": "ENBR",
      "alert": "OK",
      "vis_m": 9999,
      "fzfg": false,
      "metar_trigger": false,
      "taf_trigger": false,
      "metar": "METAR ENBR 201450Z 14018KT 9999 -SHRASN BKN015 02/M01 Q1001 TEMPO 17018G28KT 3000 -RASN BKN012 RMK WIND 1200FT 14029KT",
      "taf": "TAF ENBR 201100Z 2012/2112 16015KT 9999 BKN025"
    },
    {
      "icao": "ENGM",
      "alert": "OK",
      "vis_m": 9000,
      "fzfg": false,
      "metar_trigger": false,
      "taf_trigger": false,
      "metar": "METAR ENGM 201450Z 20018KT 9000 -SN OVC017 M03/M06 Q1009 TEMPO 4000 OVC012",
      "taf": "TAF ENGM 201100Z 2012/2112 19012KT 9999 BKN015"
    },
    {
      "icao": "ENHD",
      "alert": "OK",
      "vis_m": 6000,
      "fzfg": false,
      "metar_trigger": false,
      "taf_trigger": false,
      "metar": "METAR ENHD 201450Z 15015KT 6000 -RA FEW002 OVC005 03/02 Q1002",
      "taf": "TAF ENHD 201400Z 2015/2023 15015KT 7000 -RA SCT005 BKN010"
    },
    {
      "icao": "ENTC",
      "alert": "OK",
      "vis_m": 9999,
      "fzfg": false,
      "metar_trigger": false,
      "taf_trigger": false,
      "metar": "METAR ENTC 201450Z 17009KT CAVOK M05/M13 Q1000 NOSIG RMK WIND 2600FT 17027KT",
      "taf": "TAF ENTC 201100Z 2012/2112 18012KT CAVOK"
    },
    {
      "icao": "ENTO",
      "alert": "OK",
      "vis_m": 9000,
      "fzfg": false,
      "metar_trigger": false,
      "taf_trigger": false,
      "metar": "METAR ENTO 201450Z 19015KT 9000 -SN BKN013 M01/M03 Q1010 TEMPO 4000 BKN008",
      "taf": "TAF ENTO 201100Z 2012/2112 18015KT CAVOK"
    },
    {
      "icao": "ENVA",
      "alert": "OK",
      "vis_m": 9999,
      "fzfg": false,
      "metar_trigger": false,
      "taf_trigger": false,
      "metar": "METAR ENVA 201450Z 33002KT CAVOK 02/M11 Q0998 TEMPO 17020G30KT RMK WIND 670FT 18024KT",
      "taf": "TAF ENVA 201100Z 2012/2112 17010KT 9999 FEW025 BKN040"
    },
    {
      "icao": "ENZV",
      "alert": "OK",
      "vis_m": 9000,
      "fzfg": false,
      "metar_trigger": false,
      "taf_trigger": false,
      "metar": "METAR ENZV 201450Z 13012KT 9000 RA FEW006 BKN009 02/01 Q1003 TEMPO 3000 RADZ",
      "taf": ""
    },
    {
      "icao": "EPGD",
      "alert": "OK",
      "vis_m": 9999,
      "fzfg": false,
      "metar_trigger": false,
      "taf_trigger": false,
      "metar": "METAR EPGD 201500Z 17006KT CAVOK M02/M08 Q1025",
      "taf": "TAF EPGD 201130Z 2012/2112 28005KT 9999 BKN025"
    },
    {
      "icao": "EPKK",
      "alert": "OK",
      "vis_m": 9999,
      "fzfg": false,
      "metar_trigger": false,
      "taf_trigger": false,
      "metar": "METAR EPKK 201500Z 05009KT CAVOK M02/M09 Q1025",
      "taf": "TAF EPKK 201430Z 2015/2115 06012KT CAVOK"
    },
    {
      "icao": "EPKT",
      "alert": "OK",
      "vis_m": 9999,
      "fzfg": false,
      "metar_trigger": false,
      "taf_trigger": false,
      "metar": "METAR EPKT 201500Z 07010KT CAVOK M02/M09 Q1024",
      "taf": "TAF EPKT 201130Z 2012/2112 08014KT CAVOK"
    },
    {
      "icao": "EPLB",
      "alert": "OK",
      "vis_m": 9999,
      "fzfg": false,
      "metar_trigger": false,
      "taf_trigger": false,
      "metar": "METAR EPLB 201500Z 03003KT CAVOK M03/M09 Q1027",
      "taf": "TAF EPLB 201130Z 2012/2112 08010KT CAVOK"
    },
    {
      "icao": "EPMO",
      "alert": "OK",
      "vis_m": 9999,
      "fzfg": false,
      "metar_trigger": false,
      "taf_trigger": false,
      "metar": "METAR EPMO 201500Z VRB02KT CAVOK M02/M07 Q1028",
      "taf": "TAF EPMO 201130Z 2012/2112 04010KT CAVOK"
    },
    {
      "icao": "EPPO",
      "alert": "OK",
      "vis_m": 9999,
      "fzfg": false,
      "metar_trigger": false,
      "taf_trigger": false,
      "metar": "METAR EPPO 201500Z 16006KT CAVOK M01/M08 Q1026",
      "taf": "TAF EPPO 201130Z 2012/2112 10010KT CAVOK"
    },
    {
      "icao": "EPRA",
      "alert": "OK",
      "vis_m": 9999,
      "fzfg": false,
      "metar_trigger": false,
      "taf_trigger": false,
      "metar": "METAR EPRA 201500Z 14003KT CAVOK M02/M10 Q1027",
      "taf": "TAF EPRA 201430Z 2015/2024 12006KT CAVOK"
    },
    {
      "icao": "EPRZ",
      "alert": "OK",
      "vis_m": 9999,
      "fzfg": false,
      "metar_trigger": false,
      "taf_trigger": false,
      "metar": "METAR EPRZ 201500Z 07009KT CAVOK M01/M09 Q1026",
      "taf": "TAF EPRZ 201130Z 2012/2112 08010KT CAVOK"
    },
    {
      "icao": "EPSC",
      "alert": "OK",
      "vis_m": 9999,
      "fzfg": false,
      "metar_trigger": false,
      "taf_trigger": false,
      "metar": "METAR EPSC 201500Z 15012KT CAVOK 00/M08 Q1024",
      "taf": "TAF EPSC 201130Z 2012/2112 15012KT CAVOK"
    },
    {
      "icao": "EPSY",
      "alert": "OK",
      "vis_m": 9999,
      "fzfg": false,
      "metar_trigger": false,
      "taf_trigger": false,
      "metar": "METAR EPSY 201500Z VRB01KT CAVOK M02/M08 Q1027",
      "taf": "TAF EPSY 201430Z 2015/2024 VRB02KT CAVOK"
    },
    {
      "icao": "EPWA",
      "alert": "OK",
      "vis_m": 9999,
      "fzfg": false,
      "metar_trigger": false,
      "taf_trigger": false,
      "metar": "METAR EPWA 201500Z VRB02KT CAVOK M01/M08 Q1028 NOSIG",
      "taf": "TAF EPWA 201430Z 2015/2115 VRB04KT CAVOK"
    },
    {
      "icao": "EPWR",
      "alert": "OK",
      "vis_m": 9999,
      "fzfg": false,
      "metar_trigger": false,
      "taf_trigger": false,
      "metar": "METAR EPWR 201500Z 20004KT 160V230 CAVOK M01/M08 Q1026",
      "taf": "TAF EPWR 201430Z 2015/2115 14010KT CAVOK"
    },
    {
      "icao": "ESGG",
      "alert": "OK",
      "vis_m": 9999,
      "fzfg": false,
      "metar_trigger": false,
      "taf_trigger": false,
      "metar": "METAR ESGG 201450Z 18018KT CAVOK M01/M09 Q1014",
      "taf": "TAF ESGG 201430Z 2015/2115 18015G25KT CAVOK"
    },
    {
      "icao": "ESKN",
      "alert": "OK",
      "vis_m": 9999,
      "fzfg": false,
      "metar_trigger": false,
      "taf_trigger": false,
      "metar": "METAR ESKN 201450Z VRB04G15KT CAVOK 00/M11 Q1017",
      "taf": "TAF ESKN 201430Z 2015/2115 19012KT CAVOK"
    },
    {
      "icao": "ESMS",
      "alert": "OK",
      "vis_m": 9999,
      "fzfg": false,
      "metar_trigger": false,
      "taf_trigger": false,
      "metar": "METAR ESMS 201450Z 16013KT CAVOK M02/M08 Q1020",
      "taf": "TAF ESMS 201427Z 2015/2115 16016KT CAVOK"
    },
    {
      "icao": "ESSA",
      "alert": "OK",
      "vis_m": 9999,
      "fzfg": false,
      "metar_trigger": false,
      "taf_trigger": false,
      "metar": "METAR ESSA 201450Z 23011KT CAVOK M02/M12 Q1015 NOSIG",
      "taf": "TAF ESSA 201430Z 2015/2115 20014KT CAVOK"
    },
    {
      "icao": "EYKA",
      "alert": "OK",
      "vis_m": 9999,
      "fzfg": false,
      "metar_trigger": false,
      "taf_trigger": false,
      "metar": "METAR EYKA 201450Z 26011KT CAVOK M02/M07 Q1025",
      "taf": "TAF EYKA 201104Z 2012/2112 27010KT 9000 BKN025"
    },
    {
      "icao": "EYPA",
      "alert": "OK",
      "vis_m": 9999,
      "fzfg": false,
      "metar_trigger": false,
      "taf_trigger": false,
      "metar": "METAR EYPA 201450Z 26004KT 230V310 CAVOK M00/M03 Q1025",
      "taf": "TAF EYPA 201104Z 2012/2112 VRB04KT 9000 BKN020"
    },
    {
      "icao": "EYVI",
      "alert": "OK",
      "vis_m": 9999,
      "fzfg": false,
      "metar_trigger": false,
      "taf_trigger": false,
      "metar": "METAR EYVI 201450Z 26008KT 220V300 9999 BKN024 M04/M09 Q1024 NOSIG",
      "taf": "TAF EYVI 201100Z 2012/2112 26010KT 8000 BKN020"
    },
    {
      "icao": "GCFV",
      "alert": "OK",
      "vis_m": 9999,
      "fzfg": false,
      "metar_trigger": false,
      "taf_trigger": false,
      "metar": "METAR GCFV 201430Z 03011KT 9999 FEW018 19/13 Q1022",
      "taf": "TAF GCFV 201400Z 2015/2115 03010KT 9999 FEW020 TX23/2114Z TN15/2106Z"
    },
    {
      "icao": "GCLP",
      "alert": "OK",
      "vis_m": 9999,
      "fzfg": false,
      "metar_trigger": false,
      "taf_trigger": false,
      "metar": "METAR GCLP 201430Z 03019KT 9999 FEW030 20/13 Q1022 NOSIG",
      "taf": "TAF GCLP 201400Z 2015/2115 03018KT 9999 FEW025 TX23/2114Z TN15/2106Z"
    },
    {
      "icao": "GCTS",
      "alert": "OK",
      "vis_m": 9999,
      "fzfg": false,
      "metar_trigger": false,
      "taf_trigger": false,
      "metar": "METAR GCTS 201430Z 08021KT CAVOK 22/13 Q1022 NOSIG",
      "taf": "TAF GCTS 201400Z 2015/2115 08020KT CAVOK TX26/2114Z TN16/2106Z"
    },
    {
      "icao": "GMAD",
      "alert": "OK",
      "vis_m": 6000,
      "fzfg": false,
      "metar_trigger": false,
      "taf_trigger": false,
      "metar": "METAR GMAD 201500Z 26009KT 220V290 6000 FEW016 22/16 Q1020 NOSIG",
      "taf": "TAF GMAD 201100Z 2012/2118 27010KT 6000 BKN010"
    },
    {
      "icao": "GMMN",
      "alert": "OK",
      "vis_m": 9999,
      "fzfg": false,
      "metar_trigger": false,
      "taf_trigger": false,
      "metar": "METAR GMMN 201500Z 02011KT 350V060 CAVOK 17/11 Q1023 NOSIG",
      "taf": "TAF GMMN 201100Z 2012/2118 02010KT CAVOK"
    },
    {
      "icao": "GMMX",
      "alert": "OK",
      "vis_m": 9999,
      "fzfg": false,
      "metar_trigger": false,
      "taf_trigger": false,
      "metar": "METAR GMMX 201500Z VRB03KT CAVOK 25/12 Q1021 NOSIG",
      "taf": "TAF GMMX 201100Z 2012/2118 06006KT 8000 NSC"
    },
    {
      "icao": "HEGN",
      "alert": "OK",
      "vis_m": 9999,
      "fzfg": false,
      "metar_trigger": false,
      "taf_trigger": false,
      "metar": "METAR HEGN 201400Z 35010KT CAVOK 24/12 Q1016 NOSIG",
      "taf": "TAF HEGN 201100Z 2012/2118 35014KT CAVOK"
    },
    {
      "icao": "HEMA",
      "alert": "OK",
      "vis_m": 9999,
      "fzfg": false,
      "metar_trigger": false,
      "taf_trigger": false,
      "metar": "METAR HEMA 201400Z 35016KT CAVOK 23/14 Q1015 NOSIG",
      "taf": "TAF HEMA 201100Z 2012/2118 34015KT CAVOK"
    },
    {
      "icao": "HESH",
      "alert": "OK",
      "vis_m": 9999,
      "fzfg": false,
      "metar_trigger": false,
      "taf_trigger": false,
      "metar": "METAR HESH 201400Z 01008KT CAVOK 26/11 Q1016 NOSIG",
      "taf": "TAF HESH 201100Z 2012/2118 02014KT CAVOK"
    },
    {
      "icao": "HESX",
      "alert": "OK",
      "vis_m": 9999,
      "fzfg": false,
      "metar_trigger": false,
      "taf_trigger": false,
      "metar": "METAR HESX 201400Z 04009KT CAVOK 18/06 Q1019 NOSIG",
      "taf": "TAF HESX 201100Z 2012/2118 04010KT 9999 SCT025"
    },
    {
      "icao": "LATI",
      "alert": "OK",
      "vis_m": 9999,
      "fzfg": false,
      "metar_trigger": false,
      "taf_trigger": false,
      "metar": "METAR LATI 201450Z 28004KT 240V300 9999 FEW025CB SCT045 BKN065 14/07 Q1012 NOSIG",
      "taf": "TAF LATI 201100Z 2012/2112 14014KT 9999 SCT030 BKN060 TX14/2014Z TN05/2105Z"
    },
    {
      "icao": "LBPD",
      "alert": "OK",
      "vis_m": 9999,
      "fzfg": false,
      "metar_trigger": false,
      "taf_trigger": false,
      "metar": "METAR LBPD 201500Z AUTO 29006KT 9999 FEW065/// SCT160/// BKN210/// 10/06 Q1012 NOSIG",
      "taf": "TAF LBPD 201100Z 2012/2112 08010KT 9999 SCT040 BKN060"
    },
    {
      "icao": "LBSF",
      "alert": "OK",
      "vis_m": 9999,
      "fzfg": false,
      "metar_trigger": false,
      "taf_trigger": false,
      "metar": "METAR LBSF 201500Z 06005KT 030V090 9999 -RA BKN037 OVC052 10/05 Q1011 NOSIG",
      "taf": "TAF LBSF 201100Z 2012/2112 11012KT 9999 SCT050 BKN070"
    },
    {
      "icao": "LBWN",
      "alert": "OK",
      "vis_m": 9999,
      "fzfg": false,
      "metar_trigger": false,
      "taf_trigger": false,
      "metar": "METAR LBWN 201500Z 13007KT 9999 SCT033 BKN043 10/06 Q1015 NOSIG",
      "taf": "TAF LBWN 201100Z 2012/2112 10010KT 9999 SCT050"
    },
    {
      "icao": "LCLK",
      "alert": "OK",
      "vis_m": 9999,
      "fzfg": false,
      "metar_trigger": false,
      "taf_trigger": false,
      "metar": "METAR LCLK 201500Z 05013KT 9999 FEW025 18/11 Q1021 NOSIG",
      "taf": "TAF LCLK 201130Z 2012/2112 08010KT 9999 FEW025 SCT045"
    },
    {
      "icao": "LCPH",
      "alert": "OK",
      "vis_m": 9999,
      "fzfg": false,
      "metar_trigger": false,
      "taf_trigger": false,
      "metar": "METAR LCPH 201500Z 16006KT 9999 FEW025 BKN050 18/10 Q1021 NOSIG",
      "taf": "TAF LCPH 201130Z 2012/2112 15014KT 9999 FEW025 SCT045"
    },
    {
      "icao": "LEAL",
      "alert": "OK",
      "vis_m": 9999,
      "fzfg": false,
      "metar_trigger": false,
      "taf_trigger": false,
      "metar": "METAR LEAL 201430Z 08009KT CAVOK 18/05 Q1025 NOSIG",
      "taf": "TAF LEAL 201100Z 2012/2112 VRB04KT CAVOK TX19/2013Z TN07/2106Z"
    },
    {
      "icao": "LEBB",
      "alert": "OK",
      "vis_m": 9999,
      "fzfg": false,
      "metar_trigger": false,
      "taf_trigger": false,
      "metar": "METAR LEBB 201430Z 33007KT 280V020 9999 FEW038 SCT055 14/06 Q1031 NOSIG",
      "taf": "TAF LEBB 201100Z 2012/2112 12005KT 9999 SCT040 TX15/2112Z TN03/2107Z"
    },
    {
      "icao": "LEBL",
      "alert": "OK",
      "vis_m": 9999,
      "fzfg": false,
      "metar_trigger": false,
      "taf_trigger": false,
      "metar": "METAR LEBL 201430Z 25004KT 210V330 9999 FEW020 SCT050 15/06 Q1023 NOSIG",
      "taf": ""
    },
    {
      "icao": "LECH",
      "alert": "OK",
      "vis_m": 9999,
      "fzfg": false,
      "metar_trigger": false,
      "taf_trigger": false,
      "metar": "METAR LECH 201430Z AUTO 04007KT 350V090 CAVOK 17/M00 Q1024",
      "taf": ""
    },
    {
      "icao": "LEMD",
      "alert": "OK",
      "vis_m": 9999,
      "fzfg": false,
      "metar_trigger": false,
      "taf_trigger": false,
      "metar": "METAR LEMD 201430Z 25002KT CAVOK 13/M00 Q1028 NOSIG",
      "taf": "TAF LEMD 201100Z 2012/2118 VRB03KT CAVOK TX14/2015Z TNM00/2106Z"
    },
    {
      "icao": "LEMG",
      "alert": "OK",
      "vis_m": 9999,
      "fzfg": false,
      "metar_trigger": false,
      "taf_trigger": false,
      "metar": "METAR LEMG 201430Z 12007KT 100V170 CAVOK 16/05 Q1026 NOSIG",
      "taf": "TAF LEMG 201100Z 2012/2112 13010KT CAVOK TX18/2014Z TN11/2107Z"
    },
    {
      "icao": "LEVC",
      "alert": "OK",
      "vis_m": 9999,
      "fzfg": false,
      "metar_trigger": false,
      "taf_trigger": false,
      "metar": "METAR LEVC 201430Z VRB03KT CAVOK 21/M03 Q1024 NOSIG",
      "taf": "TAF LEVC 201100Z 2012/2112 VRB03KT CAVOK TX20/2014Z TN06/2106Z"
    },
    {
      "icao": "LEXJ",
      "alert": "OK",
      "vis_m": 9999,
      "fzfg": false,
      "metar_trigger": false,
      "taf_trigger": false,
      "metar": "METAR LEXJ 201430Z 33006KT 290V030 CAVOK 14/04 Q1031",
      "taf": "TAF LEXJ 201400Z 2015/2115 22007KT 9999 FEW040 TX15/2114Z TN06/2107Z"
    },
    {
      "icao": "LEZG",
      "alert": "OK",
      "vis_m": 9999,
      "fzfg": false,
      "metar_trigger": false,
      "taf_trigger": false,
      "metar": "METAR LEZG 201430Z 29024KT 9999 FEW035 14/04 Q1027 NOSIG",
      "taf": "TAF LEZG 201100Z 2012/2112 30015KT CAVOK TX13/2014Z TN05/2106Z"
    },
    {
      "icao": "LEZL",
      "alert": "OK",
      "vis_m": 9999,
      "fzfg": false,
      "metar_trigger": false,
      "taf_trigger": false,
      "metar": "METAR LEZL 201430Z 04006KT 020V080 CAVOK 19/07 Q1026 NOSIG",
      "taf": "TAF LEZL 201400Z 2015/2115 05007KT CAVOK TX19/2015Z TN05/2107Z"
    },
    {
      "icao": "LFBD",
      "alert": "OK",
      "vis_m": 9999,
      "fzfg": false,
      "metar_trigger": false,
      "taf_trigger": false,
      "metar": "METAR LFBD 201500Z AUTO 28011KT 9999 FEW037 BKN054 13/06 Q1029 TEMPO 4500 -SHRA BKN025TCU",
      "taf": "TAF LFBD 201100Z 2012/2118 27005KT 9999 BKN030 TX14/2113Z TN07/2103Z"
    },
    {
      "icao": "LFLL",
      "alert": "OK",
      "vis_m": 9999,
      "fzfg": false,
      "metar_trigger": false,
      "taf_trigger": false,
      "metar": "METAR LFLL 201500Z 36011KT 9999 FEW026 OVC031 08/04 Q1025 NOSIG",
      "taf": ""
    },
    {
      "icao": "LFLS",
      "alert": "OK",
      "vis_m": 9999,
      "fzfg": false,
      "metar_trigger": false,
      "taf_trigger": false,
      "metar": "METAR LFLS 201500Z AUTO 35008KT 310V020 9999 SCT022 OVC033 07/03 Q1025 NOSIG",
      "taf": "TAF LFLS 201400Z 2015/2115 35009KT 9999 BKN030"
    },
    {
      "icao": "LFMN",
      "alert": "OK",
      "vis_m": 9999,
      "fzfg": false,
      "metar_trigger": false,
      "taf_trigger": false,
      "metar": "METAR LFMN 201500Z 10012KT CAVOK 15/11 Q1012 NOSIG",
      "taf": "TAF LFMN 201400Z 2015/2121 09005KT CAVOK"
    },
    {
      "icao": "LFOB",
      "alert": "OK",
      "vis_m": 9999,
      "fzfg": false,
      "metar_trigger": false,
      "taf_trigger": false,
      "metar": "METAR LFOB 201500Z AUTO 23010KT 200V260 9999 SCT028 BKN034 BKN042 11/06 Q1021 TEMPO BKN012",
      "taf": "TAF LFOB 201100Z 2012/2112 24011KT 9999 OVC025"
    },
    {
      "icao": "LFPO",
      "alert": "OK",
      "vis_m": 9999,
      "fzfg": false,
      "metar_trigger": false,
      "taf_trigger": false,
      "metar": "METAR LFPO 201500Z 24011KT 9999 SCT030 BKN040 BKN160 12/05 Q1023 NOSIG",
      "taf": "TAF LFPO 201100Z 2012/2118 25010KT 9999 BKN025"
    },
    {
      "icao": "LFSB",
      "alert": "OK",
      "vis_m": 9999,
      "fzfg": false,
      "metar_trigger": false,
      "taf_trigger": false,
      "metar": "METAR LFSB 201500Z AUTO 25008KT 9999 FEW026/// BKN036/// OVC043/// ///TCU 08/06 Q1023 BECMG BKN020",
      "taf": "TAF LFSB 201100Z 2012/2112 VRB03KT 8000 OVC007"
    },
    {
      "icao": "LGAV",
      "alert": "OK",
      "vis_m": 9999,
      "fzfg": false,
      "metar_trigger": false,
      "taf_trigger": false,
      "metar": "METAR LGAV 201450Z 18018KT 9999 SCT020 16/08 Q1014 NOSIG",
      "taf": "TAF LGAV 201100Z 2012/2112 21020KT 9999 FEW018 SCT020"
    },
    {
      "icao": "LGTS",
      "alert": "OK",
      "vis_m": 9999,
      "fzfg": false,
      "metar_trigger": false,
      "taf_trigger": false,
      "metar": "METAR LGTS 201450Z 15008KT 9999 FEW008 SCT020 16/10 Q1012 NOSIG",
      "taf": "TAF LGTS 201100Z 2012/2112 VRB03KT 9999 BKN030"
    },
    {
      "icao": "LHBP",
      "alert": "OK",
      "vis_m": 9999,
      "fzfg": false,
      "metar_trigger": false,
      "taf_trigger": false,
      "metar": "METAR LHBP 201500Z 35009KT CAVOK 05/M06 Q1017 NOSIG",
      "taf": "TAF LHBP 201115Z 2012/2112 35008KT CAVOK"
    },
    {
      "icao": "LHDC",
      "alert": "OK",
      "vis_m": 9999,
      "fzfg": false,
      "metar_trigger": false,
      "taf_trigger": false,
      "metar": "METAR LHDC 201445Z AUTO 03017KT CAVOK 04/M02 Q1016 NOSIG",
      "taf": "TAF LHDC 201415Z 2015/2024 03020G30KT CAVOK"
    },
    {
      "icao": "LIBD",
      "alert": "OK",
      "vis_m": 9999,
      "fzfg": false,
      "metar_trigger": false,
      "taf_trigger": false,
      "metar": "METAR LIBD 201450Z 08008KT CAVOK 14/09 Q1010",
      "taf": "TAF LIBD 201100Z 2012/2112 VRB06KT CAVOK"
    },
    {
      "icao": "LIBG",
      "alert": "OK",
      "vis_m": 9999,
      "fzfg": false,
      "metar_trigger": false,
      "taf_trigger": false,
      "metar": "METAR LIBG 201350Z 19003KT 110V230 CAVOK 15/08 Q1009",
      "taf": "TAF LIBG 201400Z 2015/2024 23008KT 9999 SCT020"
    },
    {
      "icao": "LIBP",
      "alert": "OK",
      "vis_m": 9999,
      "fzfg": false,
      "metar_trigger": false,
      "taf_trigger": false,
      "metar": "METAR LIBP 201450Z AUTO 36009KT 330V030 9999 OVC042/// 12/06 Q1012",
      "taf": "TAF LIBP 201100Z 2012/2112 02010KT 9999 BKN080"
    },
    {
      "icao": "LIBR",
      "alert": "OK",
      "vis_m": 9999,
      "fzfg": false,
      "metar_trigger": false,
      "taf_trigger": false,
      "metar": "METAR LIBR 201450Z 19005KT 9999 FEW035 15/07 Q1010",
      "taf": "TAF LIBR 201100Z 2012/2112 24012KT CAVOK"
    },
    {
      "icao": "LICA",
      "alert": "OK",
      "vis_m": 5000,
      "fzfg": false,
      "metar_trigger": false,
      "taf_trigger": false,
      "metar": "METAR LICA 201450Z AUTO VRB02KT 5000 -RA FEW023/// BKN041/// OVC052/// 11/10 Q1013",
      "taf": "TAF LICA 201100Z 2012/2112 26012KT 9999 SCT030 BKN050"
    },
    {
      "icao": "LICC",
      "alert": "OK",
      "vis_m": 9999,
      "fzfg": false,
      "metar_trigger": false,
      "taf_trigger": false,
      "metar": "METAR LICC 201450Z 27009KT 9999 FEW020 SCT060 BKN120 12/08 Q1012",
      "taf": ""
    },
    {
      "icao": "LICJ",
      "alert": "OK",
      "vis_m": 5000,
      "fzfg": false,
      "metar_trigger": false,
      "taf_trigger": false,
      "metar": "METAR LICJ 201450Z 33018KT 5000 -RA SCT015 BKN030CB 13/10 Q1013",
      "taf": "TAF LICJ 201100Z 2012/2112 27016G26KT 9999 SCT035"
    },
    {
      "icao": "LIMC",
      "alert": "OK",
      "vis_m": 9999,
      "fzfg": false,
      "metar_trigger": false,
      "taf_trigger": false,
      "metar": "METAR LIMC 201450Z 06010KT 030V090 CAVOK 19/M04 Q1013 NOSIG",
      "taf": "TAF LIMC 201100Z 2012/2118 34010KT 9999 BKN025"
    },
    {
      "icao": "LIME",
      "alert": "OK",
      "vis_m": 9999,
      "fzfg": false,
      "metar_trigger": false,
      "taf_trigger": false,
      "metar": "METAR LIME 201450Z 19005KT CAVOK 14/06 Q1013 NOSIG",
      "taf": "TAF LIME 201100Z 2012/2112 VRB05KT 8000 FEW020"
    },
    {
      "icao": "LIMF",
      "alert": "OK",
      "vis_m": null,
      "fzfg": false,
      "metar_trigger": false,
      "taf_trigger": false,
      "metar": "METAR LIMF 201450Z AUTO 11005KT //// // NCD 18/M01 Q1013",
      "taf": "TAF LIMF 201100Z 2012/2112 VRB05KT 9999 FEW040"
    },
    {
      "icao": "LIMJ",
      "alert": "OK",
      "vis_m": 9999,
      "fzfg": false,
      "metar_trigger": false,
      "taf_trigger": false,
      "metar": "METAR LIMJ 201450Z 03006KT 320V080 CAVOK 21/M04 Q1012",
      "taf": "TAF LIMJ 201100Z 2012/2112 03008KT 9999 SCT030"
    },
    {
      "icao": "LIPE",
      "alert": "OK",
      "vis_m": 9999,
      "fzfg": false,
      "metar_trigger": false,
      "taf_trigger": false,
      "metar": "METAR LIPE 201450Z 10009KT CAVOK 12/05 Q1014",
      "taf": "TAF LIPE 201100Z 2012/2112 10005KT CAVOK"
    },
    {
      "icao": "LIPH",
      "alert": "OK",
      "vis_m": 9999,
      "fzfg": false,
      "metar_trigger": false,
      "taf_trigger": false,
      "metar": "METAR LIPH 201450Z 18005KT 130V210 9999 FEW020 11/05 Q1015",
      "taf": "TAF LIPH 201100Z 2012/2112 VRB06KT CAVOK"
    },
    {
      "icao": "LIPQ",
      "alert": "OK",
      "vis_m": 9999,
      "fzfg": false,
      "metar_trigger": false,
      "taf_trigger": false,
      "metar": "METAR LIPQ 201450Z AUTO 15003KT 050V190 9999 FEW160/// SCT200/// 11/02 Q1015",
      "taf": "TAF LIPQ 201100Z 2012/2112 VRB06KT 9999 OVC060"
    },
    {
      "icao": "LIPR",
      "alert": "OK",
      "vis_m": 9999,
      "fzfg": false,
      "metar_trigger": false,
      "taf_trigger": false,
      "metar": "METAR LIPR 201450Z 30006KT 9999 BKN070 09/06 Q1014",
      "taf": "TAF LIPR 201100Z 2012/2112 33012KT 9999 BKN070"
    },
    {
      "icao": "LIPX",
      "alert": "OK",
      "vis_m": 9999,
      "fzfg": false,
      "metar_trigger": false,
      "taf_trigger": false,
      "metar": "METAR LIPX 201450Z 13004KT 9999 FEW020 SCT080 12/08 Q1014",
      "taf": "TAF LIPX 201100Z 2012/2112 VRB06KT 9999 FEW040"
    },
    {
      "icao": "LIPY",
      "alert": "OK",
      "vis_m": 9999,
      "fzfg": false,
      "metar_trigger": false,
      "taf_trigger": false,
      "metar": "METAR LIPY 201450Z AUTO 36011KT 9999 BKN035/// BKN089/// 09/05 Q1014",
      "taf": "TAF LIPY 201100Z 2012/2112 35015KT 9999 FEW010"
    },
    {
      "icao": "LIPZ",
      "alert": "OK",
      "vis_m": 9999,
      "fzfg": false,
      "metar_trigger": false,
      "taf_trigger": false,
      "metar": "METAR LIPZ 201450Z 13005KT CAVOK 11/05 Q1015 NOSIG",
      "taf": "TAF LIPZ 201100Z 2012/2118 VRB05KT CAVOK"
    },
    {
      "icao": "LIRF",
      "alert": "OK",
      "vis_m": 9999,
      "fzfg": false,
      "metar_trigger": false,
      "taf_trigger": false,
      "metar": "METAR LIRF 201450Z 27012KT 9999 SCT025 15/10 Q1011 NOSIG",
      "taf": ""
    },
    {
      "icao": "LIRN",
      "alert": "OK",
      "vis_m": 9999,
      "fzfg": false,
      "metar_trigger": false,
      "taf_trigger": false,
      "metar": "METAR LIRN 201450Z 24004KT 9999 FEW040 15/06 Q1010 NOSIG",
      "taf": "TAF LIRN 201100Z 2012/2112 24008KT 9999 SCT020"
    },
    {
      "icao": "LIRP",
      "alert": "OK",
      "vis_m": 9999,
      "fzfg": false,
      "metar_trigger": false,
      "taf_trigger": false,
      "metar": "METAR LIRP 201445Z 27004KT CAVOK 16/10 Q1012 NOSIG",
      "taf": "TAF LIRP 200500Z 2006/2106 11005KT 9999 FEW020 SCT060"
    },
    {
      "icao": "LIRZ",
      "alert": "OK",
      "vis_m": 9999,
      "fzfg": false,
      "metar_trigger": false,
      "taf_trigger": false,
      "metar": "METAR LIRZ 201450Z AUTO 02012KT 9999 SCT042/// BKN079/// 11/04 Q1012",
      "taf": ""
    },
    {
      "icao": "LJLJ",
      "alert": "OK",
      "vis_m": 9999,
      "fzfg": false,
      "metar_trigger": false,
      "taf_trigger": false,
      "metar": "METAR LJLJ 201430Z 14006KT 9999 FEW006 SCT033 BKN050 04/02 Q1016 NOSIG",
      "taf": "TAF LJLJ 201100Z 2012/2112 VRB02KT 9000 FEW003 SCT017 BKN025"
    },
    {
      "icao": "LKMT",
      "alert": "OK",
      "vis_m": 9999,
      "fzfg": false,
      "metar_trigger": false,
      "taf_trigger": false,
      "metar": "METAR LKMT 201500Z 05013KT CAVOK M02/M07 Q1023 NOSIG",
      "taf": "TAF LKMT 201100Z 2012/2112 03018KT CAVOK"
    },
    {
      "icao": "LKPR",
      "alert": "OK",
      "vis_m": 9999,
      "fzfg": false,
      "metar_trigger": false,
      "taf_trigger": false,
      "metar": "METAR LKPR 201500Z 06005KT 020V090 CAVOK 01/M07 Q1023 NOSIG",
      "taf": "TAF LKPR 201400Z 2015/2121 16006KT CAVOK"
    },
    {
      "icao": "LLBG",
      "alert": "OK",
      "vis_m": 9999,
      "fzfg": false,
      "metar_trigger": false,
      "taf_trigger": false,
      "metar": "METAR LLBG 201450Z 32005KT CAVOK 22/09 Q1018 NOSIG",
      "taf": ""
    },
    {
      "icao": "LMML",
      "alert": "OK",
      "vis_m": 9999,
      "fzfg": false,
      "metar_trigger": false,
      "taf_trigger": false,
      "metar": "METAR LMML 201445Z 28026G42KT 240V310 9999 FEW025TCU 15/07 Q1016 TEMPO 8000 SHRA",
      "taf": "TAF LMML 201100Z 2012/2112 29024G38KT 9999 SCT018"
    },
    {
      "icao": "LOWW",
      "alert": "OK",
      "vis_m": 9999,
      "fzfg": false,
      "metar_trigger": false,
      "taf_trigger": false,
      "metar": "METAR LOWW 201450Z 32011KT 300V360 9999 FEW038 BKN040 M01/M05 Q1023 NOSIG",
      "taf": "TAF LOWW 201416Z 2015/2121 34013KT 9999 BKN040 TX05/2121Z TNM05/2104Z"
    },
    {
      "icao": "LPFR",
      "alert": "OK",
      "vis_m": 9999,
      "fzfg": false,
      "metar_trigger": false,
      "taf_trigger": false,
      "metar": "METAR LPFR 201430Z 19006KT CAVOK 17/06 Q1027",
      "taf": "TAF LPFR 201100Z 2012/2112 14007KT CAVOK"
    },
    {
      "icao": "LPMA",
      "alert": "OK",
      "vis_m": 9999,
      "fzfg": false,
      "metar_trigger": false,
      "taf_trigger": false,
      "metar": "METAR LPMA 201430Z 04014KT 9999 FEW016 SCT025 19/10 Q1026",
      "taf": "TAF LPMA 201100Z 2012/2112 03013KT 9999 SCT015"
    },
    {
      "icao": "LPPR",
      "alert": "OK",
      "vis_m": 9999,
      "fzfg": false,
      "metar_trigger": false,
      "taf_trigger": false,
      "metar": "METAR LPPR 201430Z 31011KT 280V340 9999 FEW030 13/07 Q1030",
      "taf": "TAF LPPR 201100Z 2012/2112 07007KT CAVOK"
    },
    {
      "icao": "LPPS",
      "alert": "OK",
      "vis_m": 9999,
      "fzfg": false,
      "metar_trigger": false,
      "taf_trigger": false,
      "metar": "METAR LPPS 201430Z 08013KT 020V120 9999 FEW015 BKN030 18/11 Q1026",
      "taf": "TAF LPPS 201100Z 2012/2118 07012KT 9999 FEW015 BKN030"
    },
    {
      "icao": "LPPT",
      "alert": "OK",
      "vis_m": 9999,
      "fzfg": false,
      "metar_trigger": false,
      "taf_trigger": false,
      "metar": "METAR LPPT 201430Z 07006KT 040V110 CAVOK 16/08 Q1028",
      "taf": "TAF LPPT 201100Z 2012/2118 03008KT CAVOK"
    },
    {
      "icao": "LQBK",
      "alert": "OK",
      "vis_m": 6000,
      "fzfg": false,
      "metar_trigger": false,
      "taf_trigger": false,
      "metar": "METAR LQBK 201430Z 27012KT 230V300 6000 -SN SCT007 BKN012 OVC017 03/01 Q1015 BECMG 30015G25KT 4000 SN OVC007",
      "taf": ""
    },
    {
      "icao": "LQSA",
      "alert": "OK",
      "vis_m": 9999,
      "fzfg": false,
      "metar_trigger": false,
      "taf_trigger": false,
      "metar": "METAR LQSA 201430Z 32012KT 9999 FEW025 SCT035TCU BKN050 09/06 Q1010 TEMPO TSRA FEW030CB BKN040",
      "taf": "TAF LQSA 201100Z 2012/2112 VRB02KT 9999 BKN045 TX11/2013Z TN00/2105Z"
    },
    {
      "icao": "LQTZ",
      "alert": "OK",
      "vis_m": 9999,
      "fzfg": false,
      "metar_trigger": false,
      "taf_trigger": false,
      "metar": "METAR LQTZ 201430Z 30011KT 9999 -RA BKN015 OVC025 05/04 Q1013",
      "taf": "TAF LQTZ 201100Z 2012/2112 27007KT 9999 BKN030 TX07/2012Z TNM01/2106Z"
    },
    {
      "icao": "LRBC",
      "alert": "OK",
      "vis_m": 9999,
      "fzfg": false,
      "metar_trigger": false,
      "taf_trigger": false,
      "metar": "METAR LRBC 201430Z 35014KT 9999 FEW022 OVC048 01/M03 Q1024",
      "taf": "TAF LRBC 201400Z 2015/2024 31010KT 9999 BKN040"
    },
    {
      "icao": "LRBS",
      "alert": "OK",
      "vis_m": 9999,
      "fzfg": false,
      "metar_trigger": false,
      "taf_trigger": false,
      "metar": "METAR LRBS 201430Z 07020KT CAVOK 03/M01 Q1017 NOSIG",
      "taf": "TAF LRBS 201100Z 2012/2112 07020KT CAVOK"
    },
    {
      "icao": "LRBV",
      "alert": "OK",
      "vis_m": 9999,
      "fzfg": false,
      "metar_trigger": false,
      "taf_trigger": false,
      "metar": "METAR LRBV 201430Z 09013KT 060V140 9999 SCT080 03/M02 Q1016",
      "taf": "TAF LRBV 201400Z 2015/2024 10015KT 9999 BKN055"
    },
    {
      "icao": "LRCL",
      "alert": "OK",
      "vis_m": 9999,
      "fzfg": false,
      "metar_trigger": false,
      "taf_trigger": false,
      "metar": "METAR LRCL 201430Z 08009KT CAVOK 10/02 Q1015",
      "taf": "TAF LRCL 201400Z 2015/2024 08012KT 9999 BKN050"
    },
    {
      "icao": "LRCV",
      "alert": "OK",
      "vis_m": 9999,
      "fzfg": false,
      "metar_trigger": false,
      "taf_trigger": false,
      "metar": "METAR LRCV 201430Z 10017KT 9999 -RA OVC049 04/01 Q1015",
      "taf": "TAF LRCV 201400Z 2015/2024 08020KT 9999 BKN040"
    },
    {
      "icao": "LRIA",
      "alert": "OK",
      "vis_m": 9999,
      "fzfg": false,
      "metar_trigger": false,
      "taf_trigger": false,
      "metar": "METAR LRIA 201430Z 33013KT 9999 FEW018 00/M03 Q1025",
      "taf": "TAF LRIA 201400Z 2015/2024 31010KT 9999 SCT015"
    },
    {
      "icao": "LROP",
      "alert": "OK",
      "vis_m": 9999,
      "fzfg": false,
      "metar_trigger": false,
      "taf_trigger": false,
      "metar": "METAR LROP 201430Z 08023KT CAVOK 03/M03 Q1017 NOSIG",
      "taf": "TAF LROP 201100Z 2012/2112 07020KT CAVOK"
    },
    {
      "icao": "LRSB",
      "alert": "OK",
      "vis_m": 9999,
      "fzfg": false,
      "metar_trigger": false,
      "taf_trigger": false,
      "metar": "METAR LRSB 201430Z 14004KT 110V170 9999 FEW060 SCT086 08/02 Q1013",
      "taf": "TAF LRSB 201100Z 2012/2112 12010KT 9999 BKN060"
    },
    {
      "icao": "LRSM",
      "alert": "OK",
      "vis_m": 9999,
      "fzfg": false,
      "metar_trigger": false,
      "taf_trigger": false,
      "metar": "METAR LRSM 201430Z 04012KT CAVOK 08/00 Q1016",
      "taf": "TAF LRSM 201400Z 2015/2024 04014KT CAVOK"
    },
    {
      "icao": "LRSV",
      "alert": "OK",
      "vis_m": 9999,
      "fzfg": false,
      "metar_trigger": false,
      "taf_trigger": false,
      "metar": "METAR LRSV 201430Z 33010KT CAVOK M02/M05 Q1023",
      "taf": "TAF LRSV 201400Z 2015/2024 31010KT CAVOK"
    },
    {
      "icao": "LRTM",
      "alert": "OK",
      "vis_m": 9999,
      "fzfg": false,
      "metar_trigger": false,
      "taf_trigger": false,
      "metar": "METAR LRTM 201430Z 01005KT 340V050 CAVOK 10/03 Q1014",
      "taf": "TAF LRTM 201400Z 2015/2024 08012KT 9999 BKN050"
    },
    {
      "icao": "LRTR",
      "alert": "OK",
      "vis_m": 6000,
      "fzfg": false,
      "metar_trigger": false,
      "taf_trigger": false,
      "metar": "METAR LRTR 201430Z 34007KT 6000 RA FEW041 OVC048 07/07 Q1013",
      "taf": "TAF LRTR 201100Z 2012/2112 08010KT 9999 BKN035"
    },
    {
      "icao": "LTAC",
      "alert": "OK",
      "vis_m": 9999,
      "fzfg": false,
      "metar_trigger": false,
      "taf_trigger": false,
      "metar": "METAR LTAC 201450Z 17007KT CAVOK 10/M02 Q1020 NOSIG RMK RWY21C VRB05KT RWY03L 17006KT RWY21R 04007KT 020V080 RWY03R 15007KT RWY21L 17008KT",
      "taf": "TAF LTAC 201040Z 2012/2112 VRB02KT CAVOK"
    },
    {
      "icao": "LTFM",
      "alert": "OK",
      "vis_m": 9999,
      "fzfg": false,
      "metar_trigger": false,
      "taf_trigger": false,
      "metar": "METAR LTFM 201450Z 21014KT CAVOK 16/05 Q1017 NOSIG RMK RWY17L 21013KT RWY34L 20012KT RWY16R 21013KT RWY36 22013KT RWY18 22014KT",
      "taf": "TAF LTFM 201040Z 2012/2118 21019G30KT CAVOK"
    },
    {
      "icao": "LUKK",
      "alert": "OK",
      "vis_m": 9999,
      "fzfg": false,
      "metar_trigger": false,
      "taf_trigger": false,
      "metar": "METAR LUKK 201500Z 02015KT 9999 FEW020 01/M04 Q1023 NOSIG",
      "taf": "TAF LUKK 201115Z 2012/2112 01012KT CAVOK"
    },
    {
      "icao": "LWOH",
      "alert": "OK",
      "vis_m": 9999,
      "fzfg": false,
      "metar_trigger": false,
      "taf_trigger": false,
      "metar": "METAR LWOH 201450Z 14003KT 100V190 9999 SCT040 10/04 Q1011",
      "taf": "TAF LWOH 201455Z 2015/2115 14008KT 9999 SCT040"
    },
    {
      "icao": "LWSK",
      "alert": "OK",
      "vis_m": 9999,
      "fzfg": false,
      "metar_trigger": false,
      "taf_trigger": false,
      "metar": "METAR LWSK 201450Z VRB02KT 9999 SCT035 13/06 Q1011 NOSIG",
      "taf": "TAF LWSK 201455Z 2015/2115 24006KT 9999 FEW040 SCT070"
    },
    {
      "icao": "LYBE",
      "alert": "OK",
      "vis_m": 9999,
      "fzfg": false,
      "metar_trigger": false,
      "taf_trigger": false,
      "metar": "METAR LYBE 201430Z 05007KT 9999 -RA BKN030 08/03 Q1011 NOSIG",
      "taf": "TAF LYBE 201100Z 2012/2112 13012KT 9999 BKN040 TX08/2012Z TN01/2106Z"
    },
    {
      "icao": "LYNI",
      "alert": "OK",
      "vis_m": 9999,
      "fzfg": false,
      "metar_trigger": false,
      "taf_trigger": false,
      "metar": "METAR LYNI 201430Z 09006KT 9999 -RA BKN040 OVC083 10/08 Q1011 NOSIG",
      "taf": "TAF LYNI 201100Z 2012/2112 08008KT 9999 BKN040 BKN080 TX09/2012Z TN01/2106Z"
    },
    {
      "icao": "LYPG",
      "alert": "OK",
      "vis_m": 9999,
      "fzfg": false,
      "metar_trigger": false,
      "taf_trigger": false,
      "metar": "METAR LYPG 201430Z 31004KT 250V350 9999 SCT034 BKN080 11/07 Q1012 NOSIG",
      "taf": "TAF LYPG 201100Z 2012/2112 15008KT 9000 FEW010 SCT040 BKN080 TX14/2112Z TN05/2024Z"
    },
    {
      "icao": "LZIB",
      "alert": "OK",
      "vis_m": 9999,
      "fzfg": false,
      "metar_trigger": false,
      "taf_trigger": false,
      "metar": "METAR LZIB 201500Z 32013KT CAVOK 01/M06 Q1021 NOSIG",
      "taf": "TAF LZIB 201115Z 2012/2112 30010KT 9999 FEW015 SCT040"
    },
    {
      "icao": "LZKZ",
      "alert": "OK",
      "vis_m": 9999,
      "fzfg": false,
      "metar_trigger": false,
      "taf_trigger": false,
      "metar": "METAR LZKZ 201500Z 36024KT CAVOK 00/M10 Q1019 NOSIG",
      "taf": "TAF LZKZ 201115Z 2012/2112 01020KT CAVOK"
    },
    {
      "icao": "LZTT",
      "alert": "OK",
      "vis_m": 9999,
      "fzfg": false,
      "metar_trigger": false,
      "taf_trigger": false,
      "metar": "METAR LZTT 201500Z 05014KT CAVOK M02/M13 Q1020 NOSIG",
      "taf": "TAF LZTT 201115Z 2012/2112 07012KT 9999 FEW010 SCT030"
    },
    {
      "icao": "OEJN",
      "alert": "OK",
      "vis_m": 9999,
      "fzfg": false,
      "metar_trigger": false,
      "taf_trigger": false,
      "metar": "METAR OEJN 201500Z 29007KT CAVOK 27/19 Q1012 NOSIG",
      "taf": "TAF OEJN 201100Z 2012/2118 27008KT CAVOK"
    },
    {
      "icao": "OEMA",
      "alert": "OK",
      "vis_m": 9999,
      "fzfg": false,
      "metar_trigger": false,
      "taf_trigger": false,
      "metar": "METAR OEMA 201500Z 10009KT CAVOK 31/M06 Q1018 NOSIG",
      "taf": "TAF OEMA 201100Z 2012/2118 10012KT 7000 NSC"
    },
    {
      "icao": "OJAI",
      "alert": "OK",
      "vis_m": 5000,
      "fzfg": false,
      "metar_trigger": false,
      "taf_trigger": false,
      "metar": "METAR OJAI 201400Z 11014KT 5000 HZ NSC 21/03 Q1020 NOSIG",
      "taf": "TAF OJAI 201037Z 2012/2118 12012KT 5000 HZ NSC"
    },
    {
      "icao": "OMAA",
      "alert": "OK",
      "vis_m": 9999,
      "fzfg": false,
      "metar_trigger": false,
      "taf_trigger": false,
      "metar": "METAR OMAA 201500Z 35009KT CAVOK 26/14 Q1016 NOSIG",
      "taf": "TAF OMAA 201100Z 2012/2118 13005KT 8000 NSC"
    },
    {
      "icao": "OMDB",
      "alert": "OK",
      "vis_m": 9999,
      "fzfg": false,
      "metar_trigger": false,
      "taf_trigger": false,
      "metar": "METAR OMDB 201500Z 01007KT 350V060 CAVOK 27/11 Q1017 NOSIG",
      "taf": "TAF OMDB 201100Z 2012/2118 34012KT 8000 NSC"
    },
    {
      "icao": "UAAA",
      "alert": "OK",
      "vis_m": 9999,
      "fzfg": false,
      "metar_trigger": false,
      "taf_trigger": false,
      "metar": "METAR UAAA 201430Z 01002MPS 9999 OVC007 05/04 Q1021 NOSIG",
      "taf": "TAF UAAA 201107Z 2012/2112 22003MPS 1200 BR FU BKN011CB OVC100 TX07/2109Z TN01/2103Z"
    },
    {
      "icao": "UBBB",
      "alert": "OK",
      "vis_m": 9999,
      "fzfg": false,
      "metar_trigger": false,
      "taf_trigger": false,
      "metar": "METAR UBBB 201500Z 12008KT CAVOK 07/01 Q1030 NOSIG",
      "taf": "TAF UBBB 201056Z 2012/2112 13010KT 9999 SCT020 TX10/2012Z TN06/2100Z"
    },
    {
      "icao": "UDSG",
      "alert": "OK",
      "vis_m": 9999,
      "fzfg": false,
      "metar_trigger": false,
      "taf_trigger": false,
      "metar": "METAR UDSG 201430Z 28001KT 9999 NSC 02/M05 Q1028 NOSIG",
      "taf": "TAF UDSG 201058Z 2012/2112 VRB06KT 9999 FEW040"
    },
    {
      "icao": "UDYZ",
      "alert": "OK",
      "vis_m": 9999,
      "fzfg": false,
      "metar_trigger": false,
      "taf_trigger": false,
      "metar": "METAR UDYZ 201430Z 28002KT 9999 NSC 11/M04 Q1027 NOSIG",
      "taf": "TAF UDYZ 201100Z 2012/2112 VRB06KT 9999 FEW050"
    },
    {
      "icao": "UGKO",
      "alert": "OK",
      "vis_m": 9999,
      "fzfg": false,
      "metar_trigger": false,
      "taf_trigger": false,
      "metar": "METAR UGKO 201430Z 09015KT CAVOK 14/M02 Q1022 NOSIG",
      "taf": "TAF UGKO 201100Z 2012/2112 08017KT CAVOK TX22/2111Z TN08/2102Z"
    }
  ]
}