{
  "ts_utc": "2026-03-17T14:35:33Z",
  "threshold_m": 150,
  "source": "stations_override.txt (ICAO list) + aviationweather.gov (METAR/TAF raw)",
  "station_count": 159,
  "stations": [
    {
      "icao": "BIKF",
      "alert": "OK",
      "vis_m": 9999,
      "fzfg": false,
      "metar_trigger": false,
      "taf_trigger": false,
      "metar": "METAR BIKF 171430Z 02028KT 9999 FEW020 BKN070 BKN100 01/M03 Q0981",
      "taf": "TAF BIKF 171333Z 1715/1815 02025G35KT 9999 FEW020 SCT030 TX02/1715Z TNM01/1808Z"
    },
    {
      "icao": "BKPR",
      "alert": "OK",
      "vis_m": 9999,
      "fzfg": false,
      "metar_trigger": false,
      "taf_trigger": false,
      "metar": "METAR BKPR 171430Z 01015KT 9999 -DZ BKN045 10/01 Q1012 NOSIG",
      "taf": "TAF BKPR 171130Z 1712/1812 03008KT 9999 SCT025 BKN050"
    },
    {
      "icao": "EBCI",
      "alert": "OK",
      "vis_m": 9999,
      "fzfg": false,
      "metar_trigger": false,
      "taf_trigger": false,
      "metar": "METAR EBCI 171420Z 17006KT 120V220 9999 FEW030 15/06 Q1019 NOSIG",
      "taf": "TAF EBCI 171113Z 1712/1818 19006KT 9999 FEW035"
    },
    {
      "icao": "EDDB",
      "alert": "OK",
      "vis_m": 9999,
      "fzfg": false,
      "metar_trigger": false,
      "taf_trigger": false,
      "metar": "METAR EDDB 171420Z AUTO VRB04KT CAVOK 12/M00 Q1024 NOSIG",
      "taf": "TAF EDDB 171100Z 1712/1812 VRB03KT 9999 FEW040"
    },
    {
      "icao": "EDDH",
      "alert": "OK",
      "vis_m": 9999,
      "fzfg": false,
      "metar_trigger": false,
      "taf_trigger": false,
      "metar": "METAR EDDH 171420Z AUTO 16011KT CAVOK 10/04 Q1022 NOSIG",
      "taf": "TAF EDDH 171100Z 1712/1818 15008KT CAVOK"
    },
    {
      "icao": "EDDK",
      "alert": "OK",
      "vis_m": 9999,
      "fzfg": false,
      "metar_trigger": false,
      "taf_trigger": false,
      "metar": "METAR EDDK 171420Z AUTO 13006KT 080V180 9999 SCT027 BKN032 13/07 Q1021 NOSIG",
      "taf": "TAF EDDK 171100Z 1712/1818 12006KT 9999 BKN020"
    },
    {
      "icao": "EDDN",
      "alert": "OK",
      "vis_m": 9999,
      "fzfg": false,
      "metar_trigger": false,
      "taf_trigger": false,
      "metar": "METAR EDDN 171420Z AUTO 11004KT 050V170 9999 FEW031 10/02 Q1022 NOSIG",
      "taf": "TAF EDDN 171100Z 1712/1812 09004KT 9999 BKN025"
    },
    {
      "icao": "EDDS",
      "alert": "OK",
      "vis_m": 9999,
      "fzfg": false,
      "metar_trigger": false,
      "taf_trigger": false,
      "metar": "METAR EDDS 171420Z AUTO 12004KT 080V190 9999 SCT026 SCT045 11/04 Q1020 NOSIG",
      "taf": "TAF EDDS 171100Z 1712/1812 05004KT 9999 BKN030"
    },
    {
      "icao": "EDFH",
      "alert": "OK",
      "vis_m": 9999,
      "fzfg": false,
      "metar_trigger": false,
      "taf_trigger": false,
      "metar": "METAR EDFH 171420Z 14007KT 120V190 9999 FEW020 OVC025 09/06 Q1021",
      "taf": "TAF EDFH 171100Z 1712/1812 20004KT 9999 BKN005"
    },
    {
      "icao": "EDJA",
      "alert": "OK",
      "vis_m": 9999,
      "fzfg": false,
      "metar_trigger": false,
      "taf_trigger": false,
      "metar": "METAR EDJA 171420Z 06007KT 010V090 9999 SCT019 07/03 Q1020",
      "taf": "TAF EDJA 171400Z 1715/1724 05006KT 9999 SCT015"
    },
    {
      "icao": "EDLW",
      "alert": "OK",
      "vis_m": 9999,
      "fzfg": false,
      "metar_trigger": false,
      "taf_trigger": false,
      "metar": "METAR EDLW 171420Z 19006KT 150V230 9999 SCT018 BKN021 OVC038 10/08 Q1021",
      "taf": "TAF EDLW 171100Z 1712/1812 18008KT 9999 BKN020"
    },
    {
      "icao": "EDNY",
      "alert": "OK",
      "vis_m": 9999,
      "fzfg": false,
      "metar_trigger": false,
      "taf_trigger": false,
      "metar": "METAR EDNY 171420Z VRB02KT 9999 SCT037 SCT044 OVC057 10/03 Q1020",
      "taf": "TAF EDNY 171400Z 1715/1724 22005KT 9999 FEW040"
    },
    {
      "icao": "EDSB",
      "alert": "OK",
      "vis_m": 9999,
      "fzfg": false,
      "metar_trigger": false,
      "taf_trigger": false,
      "metar": "METAR EDSB 171420Z 01004KT 320V050 9999 FEW037 13/05 Q1021",
      "taf": "TAF EDSB 171100Z 1712/1812 02006KT 9999 SCT035"
    },
    {
      "icao": "EETN",
      "alert": "OK",
      "vis_m": 9999,
      "fzfg": false,
      "metar_trigger": false,
      "taf_trigger": false,
      "metar": "METAR EETN 171420Z 29009KT 9999 OVC005 04/03 Q1024 TEMPO 4000 BR OVC003",
      "taf": "TAF EETN 171130Z 1712/1812 29007KT 9999 BKN005 BKN012"
    },
    {
      "icao": "EFTU",
      "alert": "OK",
      "vis_m": 9999,
      "fzfg": false,
      "metar_trigger": false,
      "taf_trigger": false,
      "metar": "METAR EFTU 171420Z AUTO 22007KT 190V250 9999 -SHRA OVC003 01/01 Q1023",
      "taf": "TAF EFTU 171135Z 1712/1812 20009KT 9999 OVC003"
    },
    {
      "icao": "EGBB",
      "alert": "OK",
      "vis_m": 9999,
      "fzfg": false,
      "metar_trigger": false,
      "taf_trigger": false,
      "metar": "METAR EGBB 171420Z 17012KT CAVOK 15/06 Q1011",
      "taf": "TAF EGBB 171056Z 1712/1812 18012KT 9999 FEW020"
    },
    {
      "icao": "EGGP",
      "alert": "OK",
      "vis_m": 9999,
      "fzfg": false,
      "metar_trigger": false,
      "taf_trigger": false,
      "metar": "METAR EGGP 171420Z 18008KT 160V220 CAVOK 16/07 Q1009",
      "taf": "TAF EGGP 171057Z 1712/1812 18013KT 9999 FEW045"
    },
    {
      "icao": "EGGW",
      "alert": "OK",
      "vis_m": 9999,
      "fzfg": false,
      "metar_trigger": false,
      "taf_trigger": false,
      "metar": "METAR EGGW 171420Z AUTO 18011KT 150V210 9999 NCD 14/08 Q1014",
      "taf": "TAF EGGW 171100Z 1712/1812 19012KT 9999 BKN014"
    },
    {
      "icao": "EGKK",
      "alert": "OK",
      "vis_m": 9999,
      "fzfg": false,
      "metar_trigger": false,
      "taf_trigger": false,
      "metar": "METAR EGKK 171420Z 20012KT CAVOK 13/06 Q1015",
      "taf": "TAF EGKK 171053Z 1712/1818 20010KT 9999 FEW025"
    },
    {
      "icao": "EGNM",
      "alert": "OK",
      "vis_m": 9999,
      "fzfg": false,
      "metar_trigger": false,
      "taf_trigger": false,
      "metar": "METAR EGNM 171420Z 19013KT 160V230 CAVOK 16/03 Q1009",
      "taf": "TAF EGNM 171055Z 1712/1812 21010KT 9999 SCT025"
    },
    {
      "icao": "EGPD",
      "alert": "OK",
      "vis_m": 9999,
      "fzfg": false,
      "metar_trigger": false,
      "taf_trigger": false,
      "metar": "METAR EGPD 171420Z COR 20021G32KT 9999 BKN029 13/07 Q1000 NOSIG",
      "taf": "TAF EGPD 171053Z 1712/1812 19018G32KT 9999 SCT025"
    },
    {
      "icao": "EGPF",
      "alert": "OK",
      "vis_m": 9000,
      "fzfg": false,
      "metar_trigger": false,
      "taf_trigger": false,
      "metar": "METAR EGPF 171420Z AUTO 20024KT 9000 FEW029 BKN033 12/08 Q1002",
      "taf": ""
    },
    {
      "icao": "EHBK",
      "alert": "OK",
      "vis_m": 9999,
      "fzfg": false,
      "metar_trigger": false,
      "taf_trigger": false,
      "metar": "METAR EHBK 171425Z AUTO 14003KT 080V190 9999 BKN030/// 15/08 Q1019 NOSIG",
      "taf": "TAF EHBK 171052Z 1712/1818 20008KT 9999 BKN030"
    },
    {
      "icao": "EHEH",
      "alert": "OK",
      "vis_m": 9999,
      "fzfg": false,
      "metar_trigger": false,
      "taf_trigger": false,
      "metar": "METAR EHEH 171425Z AUTO 19009KT 150V230 9999 OVC032 15/07 Q1019 BLU NOSIG",
      "taf": "TAF EHEH 171138Z 1712/1818 20009KT 9999 FEW020 BKN025"
    },
    {
      "icao": "EKBI",
      "alert": "OK",
      "vis_m": 9999,
      "fzfg": false,
      "metar_trigger": false,
      "taf_trigger": false,
      "metar": "METAR EKBI 171420Z AUTO 17009KT 140V200 9999 OVC020/// 10/05 Q1020",
      "taf": "TAF EKBI 171427Z 1715/1815 16010KT 9999 BKN030"
    },
    {
      "icao": "EKCH",
      "alert": "OK",
      "vis_m": 9999,
      "fzfg": false,
      "metar_trigger": false,
      "taf_trigger": false,
      "metar": "METAR EKCH 171420Z AUTO 16011KT 9999 NCD 06/03 Q1024 NOSIG",
      "taf": "TAF EKCH 171427Z 1715/1815 18008KT 9999 FEW020"
    },
    {
      "icao": "ENAL",
      "alert": "OK",
      "vis_m": 9999,
      "fzfg": false,
      "metar_trigger": false,
      "taf_trigger": false,
      "metar": "METAR ENAL 171420Z 20021G32KT 9999 BKN052 13/04 Q1000",
      "taf": "TAF ENAL 171100Z 1712/1721 19018KT 9999 BKN045"
    },
    {
      "icao": "ENBR",
      "alert": "OK",
      "vis_m": 9999,
      "fzfg": false,
      "metar_trigger": false,
      "taf_trigger": false,
      "metar": "METAR ENBR 171420Z 15017KT 9999 BKN013 08/06 Q1008 TEMPO BKN009 RMK WIND 1200FT 16034G46KT",
      "taf": "TAF ENBR 171100Z 1712/1812 16018KT 9999 SCT005 BKN015"
    },
    {
      "icao": "ENGM",
      "alert": "OK",
      "vis_m": 6000,
      "fzfg": false,
      "metar_trigger": false,
      "taf_trigger": false,
      "metar": "METAR ENGM 171420Z 19012KT 6000 -DZ OVC003 03/02 Q1017 TEMPO 4000 -DZ BR",
      "taf": "TAF ENGM 171100Z 1712/1812 20015KT 9999 BKN008"
    },
    {
      "icao": "ENHD",
      "alert": "OK",
      "vis_m": 9999,
      "fzfg": false,
      "metar_trigger": false,
      "taf_trigger": false,
      "metar": "METAR ENHD 171420Z 15022G34KT 9999 OVC005 08/07 Q1010",
      "taf": "TAF ENHD 171100Z 1712/1721 15020G32KT 8000 BKN004"
    },
    {
      "icao": "ENTC",
      "alert": "OK",
      "vis_m": 9999,
      "fzfg": false,
      "metar_trigger": false,
      "taf_trigger": false,
      "metar": "METAR ENTC 171420Z 27003KT CAVOK 03/M00 Q1004 NOSIG RMK WIND 2600FT 17025KT",
      "taf": "TAF ENTC 171100Z 1712/1812 21008KT 9999 SCT045"
    },
    {
      "icao": "ENTO",
      "alert": "OK",
      "vis_m": 900,
      "fzfg": false,
      "metar_trigger": false,
      "taf_trigger": false,
      "metar": "METAR ENTO 171420Z 18017KT 0900 FG VV002 03/03 Q1018 REDZRA TEMPO 2000 -DZ BR",
      "taf": ""
    },
    {
      "icao": "ENVA",
      "alert": "OK",
      "vis_m": 9999,
      "fzfg": false,
      "metar_trigger": false,
      "taf_trigger": false,
      "metar": "METAR ENVA 171420Z 14012KT 100V170 CAVOK 10/M01 Q1004 TEMPO 16015G25KT RMK WIND 670FT 17024KT",
      "taf": ""
    },
    {
      "icao": "ENZV",
      "alert": "OK",
      "vis_m": 9999,
      "fzfg": false,
      "metar_trigger": false,
      "taf_trigger": false,
      "metar": "METAR ENZV 171420Z 16019KT 9999 FEW010 SCT013 10/07 Q1011 TEMPO BKN011",
      "taf": ""
    },
    {
      "icao": "EPGD",
      "alert": "OK",
      "vis_m": 9999,
      "fzfg": false,
      "metar_trigger": false,
      "taf_trigger": false,
      "metar": "METAR EPGD 171430Z 26008KT 9999 SCT020 07/01 Q1025",
      "taf": ""
    },
    {
      "icao": "EPKK",
      "alert": "OK",
      "vis_m": 9999,
      "fzfg": false,
      "metar_trigger": false,
      "taf_trigger": false,
      "metar": "METAR EPKK 171430Z 03009KT 9999 FEW036 08/01 Q1022",
      "taf": "TAF EPKK 171430Z 1715/1815 04006KT 9999 SCT025"
    },
    {
      "icao": "EPKT",
      "alert": "OK",
      "vis_m": 9999,
      "fzfg": false,
      "metar_trigger": false,
      "taf_trigger": false,
      "metar": "METAR EPKT 171430Z 01010KT 9999 BKN021 07/02 Q1022",
      "taf": "TAF EPKT 171130Z 1712/1812 34007KT 9999 BKN020"
    },
    {
      "icao": "EPLB",
      "alert": "OK",
      "vis_m": 9999,
      "fzfg": false,
      "metar_trigger": false,
      "taf_trigger": false,
      "metar": "METAR EPLB 171430Z 03006KT 9999 FEW043 11/03 Q1022",
      "taf": "TAF EPLB 171130Z 1712/1812 36010KT 9999 SCT035"
    },
    {
      "icao": "EPMO",
      "alert": "OK",
      "vis_m": 9999,
      "fzfg": false,
      "metar_trigger": false,
      "taf_trigger": false,
      "metar": "METAR EPMO 171430Z 01003KT 350V050 9999 SCT039 10/01 Q1024",
      "taf": "TAF EPMO 171130Z 1712/1812 34010KT 9999 BKN035"
    },
    {
      "icao": "EPPO",
      "alert": "OK",
      "vis_m": 9999,
      "fzfg": false,
      "metar_trigger": false,
      "taf_trigger": false,
      "metar": "METAR EPPO 171430Z 27001KT CAVOK 09/M03 Q1025",
      "taf": "TAF EPPO 171130Z 1712/1812 33006KT 9999 SCT030"
    },
    {
      "icao": "EPRA",
      "alert": "OK",
      "vis_m": 9999,
      "fzfg": false,
      "metar_trigger": false,
      "taf_trigger": false,
      "metar": "METAR EPRA 171430Z 33008KT 9999 SCT039 10/01 Q1023",
      "taf": "TAF EPRA 171430Z 1715/1724 01006KT 9999 BKN045"
    },
    {
      "icao": "EPRZ",
      "alert": "OK",
      "vis_m": 9999,
      "fzfg": false,
      "metar_trigger": false,
      "taf_trigger": false,
      "metar": "METAR EPRZ 171430Z 35007KT 9999 BKN043 11/01 Q1021",
      "taf": "TAF EPRZ 171130Z 1712/1812 35009KT 9999 SCT030"
    },
    {
      "icao": "EPSC",
      "alert": "OK",
      "vis_m": 9999,
      "fzfg": false,
      "metar_trigger": false,
      "taf_trigger": false,
      "metar": "METAR EPSC 171430Z 15004KT 100V200 9999 FEW048 10/M02 Q1024",
      "taf": "TAF EPSC 171130Z 1712/1812 VRB03KT 9999 SCT035"
    },
    {
      "icao": "EPSY",
      "alert": "OK",
      "vis_m": 9999,
      "fzfg": false,
      "metar_trigger": false,
      "taf_trigger": false,
      "metar": "METAR EPSY 171430Z 35004KT 260V050 9999 FEW039 10/M00 Q1024",
      "taf": "TAF EPSY 171430Z 1715/1724 35005KT 9999 SCT040"
    },
    {
      "icao": "EPWA",
      "alert": "OK",
      "vis_m": 9999,
      "fzfg": false,
      "metar_trigger": false,
      "taf_trigger": false,
      "metar": "METAR EPWA 171430Z 01008KT 340V040 9999 FEW044 11/01 Q1023 NOSIG",
      "taf": "TAF EPWA 171430Z 1715/1815 35010KT 9999 SCT040"
    },
    {
      "icao": "EPWR",
      "alert": "OK",
      "vis_m": 9999,
      "fzfg": false,
      "metar_trigger": false,
      "taf_trigger": false,
      "metar": "METAR EPWR 171430Z 34006KT 300V020 9999 FEW036 09/00 Q1024",
      "taf": "TAF EPWR 171430Z 1715/1815 36010KT 9999 SCT040"
    },
    {
      "icao": "ESGG",
      "alert": "OK",
      "vis_m": 9999,
      "fzfg": false,
      "metar_trigger": false,
      "taf_trigger": false,
      "metar": "METAR ESGG 171420Z 18012KT 9999 FEW018 06/02 Q1021",
      "taf": "TAF ESGG 171430Z 1715/1815 18012KT 9999 SCT020"
    },
    {
      "icao": "ESKN",
      "alert": "OK",
      "vis_m": 9999,
      "fzfg": false,
      "metar_trigger": false,
      "taf_trigger": false,
      "metar": "METAR ESKN 171420Z 15010KT CAVOK 07/02 Q1022",
      "taf": "TAF ESKN 171430Z 1715/1815 16008KT CAVOK"
    },
    {
      "icao": "ESMS",
      "alert": "OK",
      "vis_m": 9999,
      "fzfg": false,
      "metar_trigger": false,
      "taf_trigger": false,
      "metar": "METAR ESMS 171420Z 15006KT 9999 FEW010 05/03 Q1024",
      "taf": "TAF ESMS 171427Z 1715/1815 17008KT 8000 FEW007"
    },
    {
      "icao": "ESSA",
      "alert": "OK",
      "vis_m": 9999,
      "fzfg": false,
      "metar_trigger": false,
      "taf_trigger": false,
      "metar": "METAR ESSA 171420Z 20010KT CAVOK 06/01 Q1021 NOSIG",
      "taf": "TAF ESSA 171430Z 1715/1815 20010KT CAVOK"
    },
    {
      "icao": "EYKA",
      "alert": "OK",
      "vis_m": 9999,
      "fzfg": false,
      "metar_trigger": false,
      "taf_trigger": false,
      "metar": "METAR EYKA 171420Z 36004KT 330V030 9999 BKN034 10/04 Q1024",
      "taf": "TAF EYKA 171100Z 1712/1812 VRB04KT 9000 BKN025"
    },
    {
      "icao": "EYPA",
      "alert": "OK",
      "vis_m": 5000,
      "fzfg": false,
      "metar_trigger": false,
      "taf_trigger": false,
      "metar": "METAR EYPA 171420Z VRB02KT 5000 BR OVC008 05/03 Q1026",
      "taf": "TAF EYPA 171100Z 1712/1812 VRB04KT 5000 BR OVC005"
    },
    {
      "icao": "EYVI",
      "alert": "OK",
      "vis_m": 9999,
      "fzfg": false,
      "metar_trigger": false,
      "taf_trigger": false,
      "metar": "METAR EYVI 171420Z VRB01KT CAVOK 13/00 Q1023 NOSIG",
      "taf": "TAF EYVI 171100Z 1712/1812 VRB04KT 8000 SCT045"
    },
    {
      "icao": "GCFV",
      "alert": "OK",
      "vis_m": 9999,
      "fzfg": false,
      "metar_trigger": false,
      "taf_trigger": false,
      "metar": "METAR GCFV 171400Z 29010KT 240V330 9999 FEW035 24/08 Q1010",
      "taf": "TAF GCFV 171400Z 1715/1815 23013KT 9999 FEW030 TX20/1814Z TN16/1806Z"
    },
    {
      "icao": "GCLP",
      "alert": "OK",
      "vis_m": 9999,
      "fzfg": false,
      "metar_trigger": false,
      "taf_trigger": false,
      "metar": "METAR GCLP 171400Z 03015KT 9999 FEW020 SCT050 22/13 Q1010 NOSIG",
      "taf": "TAF GCLP 171400Z 1715/1815 01009KT 9999 SCT025 TX20/1814Z TN14/1806Z"
    },
    {
      "icao": "GCTS",
      "alert": "OK",
      "vis_m": 9999,
      "fzfg": false,
      "metar_trigger": false,
      "taf_trigger": false,
      "metar": "METAR GCTS 171400Z 28020KT 9999 FEW030 BKN050 22/12 Q1011 NOSIG",
      "taf": "TAF GCTS 171400Z 1715/1815 25018KT 9999 BKN030 TX23/1814Z TN14/1806Z"
    },
    {
      "icao": "GMAD",
      "alert": "OK",
      "vis_m": 6000,
      "fzfg": false,
      "metar_trigger": false,
      "taf_trigger": false,
      "metar": "METAR GMAD 171430Z 35005KT 6000 FEW020 SCT030TCU BKN100 21/17 Q1009 NOSIG",
      "taf": "TAF GMAD 171100Z 1712/1818 27014KT 8000 SCT030 BKN080"
    },
    {
      "icao": "GMMN",
      "alert": "OK",
      "vis_m": 8000,
      "fzfg": false,
      "metar_trigger": false,
      "taf_trigger": false,
      "metar": "METAR GMMN 171430Z 32011KT 8000 NSC 18/15 Q1009 NOSIG",
      "taf": "TAF GMMN 171100Z 1712/1818 08008KT CAVOK"
    },
    {
      "icao": "GMMX",
      "alert": "OK",
      "vis_m": 6000,
      "fzfg": false,
      "metar_trigger": false,
      "taf_trigger": false,
      "metar": "METAR GMMX 171430Z 12004KT 060V180 6000 BKN023 FEW030TCU 24/08 Q1008 TEMPO SHRA",
      "taf": "TAF GMMX 171100Z 1712/1818 06006KT 8000 SCT033 SCT100"
    },
    {
      "icao": "HEGN",
      "alert": "OK",
      "vis_m": 9999,
      "fzfg": false,
      "metar_trigger": false,
      "taf_trigger": false,
      "metar": "METAR HEGN 171400Z 06005KT CAVOK 25/03 Q1008 NOSIG",
      "taf": "TAF HEGN 171100Z 1712/1818 11012KT CAVOK"
    },
    {
      "icao": "HEMA",
      "alert": "OK",
      "vis_m": 9999,
      "fzfg": false,
      "metar_trigger": false,
      "taf_trigger": false,
      "metar": "METAR HEMA 171400Z 02010KT CAVOK 23/08 Q1008 NOSIG",
      "taf": "TAF HEMA 171100Z 1712/1818 12014KT CAVOK"
    },
    {
      "icao": "HESH",
      "alert": "OK",
      "vis_m": null,
      "fzfg": false,
      "metar_trigger": false,
      "taf_trigger": false,
      "metar": "",
      "taf": "TAF HESH 171100Z 1712/1818 01012KT CAVOK"
    },
    {
      "icao": "HESX",
      "alert": "OK",
      "vis_m": 9999,
      "fzfg": false,
      "metar_trigger": false,
      "taf_trigger": false,
      "metar": "METAR HESX 171400Z 08012KT CAVOK 23/01 Q1009 NOSIG",
      "taf": "TAF HESX 171100Z 1712/1818 07009KT CAVOK"
    },
    {
      "icao": "LATI",
      "alert": "OK",
      "vis_m": 9999,
      "fzfg": false,
      "metar_trigger": false,
      "taf_trigger": false,
      "metar": "METAR LATI 171420Z 33008KT 9999 -RA SCT049 BKN070 15/07 Q1011 NOSIG",
      "taf": "TAF LATI 171100Z 1712/1812 32005KT 9999 BKN090 TX20/1812Z TN09/1805Z"
    },
    {
      "icao": "LBPD",
      "alert": "OK",
      "vis_m": 9999,
      "fzfg": false,
      "metar_trigger": false,
      "taf_trigger": false,
      "metar": "METAR LBPD 171430Z AUTO 09014KT 9999 BKN067/// 13/M01 Q1016 NOSIG",
      "taf": "TAF LBPD 171100Z 1712/1812 09010KT 9999 SCT070"
    },
    {
      "icao": "LBSF",
      "alert": "OK",
      "vis_m": 9999,
      "fzfg": false,
      "metar_trigger": false,
      "taf_trigger": false,
      "metar": "METAR LBSF 171430Z 09015KT 9999 BKN068 12/00 Q1014 NOSIG",
      "taf": "TAF LBSF 171100Z 1712/1812 10010KT 9999 SCT070"
    },
    {
      "icao": "LBWN",
      "alert": "OK",
      "vis_m": 9999,
      "fzfg": false,
      "metar_trigger": false,
      "taf_trigger": false,
      "metar": "METAR LBWN 171430Z 15010KT CAVOK 10/03 Q1018 NOSIG",
      "taf": "TAF LBWN 171100Z 1712/1812 11014KT 9999 SCT045"
    },
    {
      "icao": "LCLK",
      "alert": "OK",
      "vis_m": 9999,
      "fzfg": false,
      "metar_trigger": false,
      "taf_trigger": false,
      "metar": "METAR LCLK 171430Z VRB02KT 9999 FEW025 18/11 Q1012 NOSIG",
      "taf": "TAF LCLK 171130Z 1712/1812 17008KT 9999 SCT025"
    },
    {
      "icao": "LCPH",
      "alert": "OK",
      "vis_m": 9999,
      "fzfg": false,
      "metar_trigger": false,
      "taf_trigger": false,
      "metar": "METAR LCPH 171430Z 16004KT 110V170 9999 FEW030 17/10 Q1012 NOSIG",
      "taf": "TAF LCPH 171130Z 1712/1812 18010KT 9999 FEW030"
    },
    {
      "icao": "LEAL",
      "alert": "OK",
      "vis_m": 9999,
      "fzfg": false,
      "metar_trigger": false,
      "taf_trigger": false,
      "metar": "METAR LEAL 171400Z 17010KT 120V210 CAVOK 20/07 Q1016 NOSIG",
      "taf": "TAF LEAL 171100Z 1712/1812 18010KT CAVOK TX19/1712Z TN09/1806Z"
    },
    {
      "icao": "LEBB",
      "alert": "OK",
      "vis_m": 9999,
      "fzfg": false,
      "metar_trigger": false,
      "taf_trigger": false,
      "metar": "METAR LEBB 171400Z 27011KT 240V300 CAVOK 22/07 Q1010 NOSIG",
      "taf": "TAF LEBB 171100Z 1712/1812 12009KT CAVOK TX27/1714Z TN09/1806Z"
    },
    {
      "icao": "LEBL",
      "alert": "OK",
      "vis_m": 9999,
      "fzfg": false,
      "metar_trigger": false,
      "taf_trigger": false,
      "metar": "METAR LEBL 171400Z 16005KT 120V210 CAVOK 16/11 Q1015 NOSIG",
      "taf": "TAF LEBL 171100Z 1712/1812 14008KT CAVOK TX18/1713Z TN08/1806Z"
    },
    {
      "icao": "LECH",
      "alert": "OK",
      "vis_m": 9999,
      "fzfg": false,
      "metar_trigger": false,
      "taf_trigger": false,
      "metar": "METAR LECH 171400Z AUTO 12008KT 090V150 CAVOK 17/07 Q1015",
      "taf": ""
    },
    {
      "icao": "LEMD",
      "alert": "OK",
      "vis_m": 9999,
      "fzfg": false,
      "metar_trigger": false,
      "taf_trigger": false,
      "metar": "METAR LEMD 171400Z 27001KT CAVOK 21/05 Q1013 NOSIG",
      "taf": "TAF LEMD 171100Z 1712/1818 VRB04KT CAVOK TX22/1715Z TN04/1806Z"
    },
    {
      "icao": "LEMG",
      "alert": "OK",
      "vis_m": 9999,
      "fzfg": false,
      "metar_trigger": false,
      "taf_trigger": false,
      "metar": "METAR LEMG 171400Z 11010KT 080V160 CAVOK 17/08 Q1015 NOSIG",
      "taf": "TAF LEMG 171100Z 1712/1812 12010KT CAVOK TX19/1714Z TN08/1807Z"
    },
    {
      "icao": "LEVC",
      "alert": "OK",
      "vis_m": 9999,
      "fzfg": false,
      "metar_trigger": false,
      "taf_trigger": false,
      "metar": "METAR LEVC 171400Z 11008KT 070V150 CAVOK 19/06 Q1014 NOSIG",
      "taf": "TAF LEVC 171100Z 1712/1812 VRB04KT CAVOK TX21/1712Z TN06/1805Z"
    },
    {
      "icao": "LEXJ",
      "alert": "OK",
      "vis_m": 9999,
      "fzfg": false,
      "metar_trigger": false,
      "taf_trigger": false,
      "metar": "METAR LEXJ 171400Z 07004KT 020V120 CAVOK 15/08 Q1010",
      "taf": "TAF LEXJ 171400Z 1715/1815 VRB03KT CAVOK TX22/1815Z TN11/1722Z"
    },
    {
      "icao": "LEZG",
      "alert": "OK",
      "vis_m": 9999,
      "fzfg": false,
      "metar_trigger": false,
      "taf_trigger": false,
      "metar": "METAR LEZG 171400Z 09008KT 060V120 CAVOK 20/04 Q1013 NOSIG",
      "taf": "TAF LEZG 171100Z 1712/1812 10010KT CAVOK TX21/1714Z TN07/1806Z"
    },
    {
      "icao": "LEZL",
      "alert": "OK",
      "vis_m": 9999,
      "fzfg": false,
      "metar_trigger": false,
      "taf_trigger": false,
      "metar": "METAR LEZL 171400Z 07004KT 030V120 CAVOK 25/03 Q1010 NOSIG",
      "taf": "TAF LEZL 171400Z 1715/1815 VRB03KT CAVOK TX25/1715Z TN10/1807Z"
    },
    {
      "icao": "LFBD",
      "alert": "OK",
      "vis_m": 9999,
      "fzfg": false,
      "metar_trigger": false,
      "taf_trigger": false,
      "metar": "METAR LFBD 171430Z AUTO 10011KT CAVOK 22/06 Q1012 NOSIG",
      "taf": "TAF LFBD 171100Z 1712/1818 12008KT CAVOK TX21/1815Z TN07/1806Z"
    },
    {
      "icao": "LFLL",
      "alert": "OK",
      "vis_m": 9999,
      "fzfg": false,
      "metar_trigger": false,
      "taf_trigger": false,
      "metar": "METAR LFLL 171430Z 01004KT 300V040 CAVOK 15/03 Q1017 NOSIG",
      "taf": "TAF LFLL 171100Z 1712/1818 34005KT CAVOK"
    },
    {
      "icao": "LFLS",
      "alert": "OK",
      "vis_m": 9999,
      "fzfg": false,
      "metar_trigger": false,
      "taf_trigger": false,
      "metar": "METAR LFLS 171430Z AUTO 02006KT 330V050 CAVOK 14/04 Q1016 NOSIG",
      "taf": "TAF LFLS 170800Z 1709/1809 02005KT CAVOK"
    },
    {
      "icao": "LFMN",
      "alert": "OK",
      "vis_m": 9999,
      "fzfg": false,
      "metar_trigger": false,
      "taf_trigger": false,
      "metar": "METAR LFMN 171430Z 20006KT CAVOK 18/07 Q1015 NOSIG",
      "taf": ""
    },
    {
      "icao": "LFOB",
      "alert": "OK",
      "vis_m": 9999,
      "fzfg": false,
      "metar_trigger": false,
      "taf_trigger": false,
      "metar": "METAR LFOB 171430Z AUTO 16009KT 130V190 CAVOK 16/07 Q1017 NOSIG",
      "taf": "TAF LFOB 171100Z 1712/1812 17010KT CAVOK"
    },
    {
      "icao": "LFPO",
      "alert": "OK",
      "vis_m": 9999,
      "fzfg": false,
      "metar_trigger": false,
      "taf_trigger": false,
      "metar": "METAR LFPO 171430Z 15007KT 090V210 CAVOK 17/05 Q1018 NOSIG",
      "taf": "TAF LFPO 171100Z 1712/1818 15007KT CAVOK"
    },
    {
      "icao": "LFSB",
      "alert": "OK",
      "vis_m": 9999,
      "fzfg": false,
      "metar_trigger": false,
      "taf_trigger": false,
      "metar": "METAR LFSB 171430Z AUTO 04007KT 010V090 9999 FEW045 BKN058 15/03 Q1019 NOSIG",
      "taf": "TAF LFSB 171100Z 1712/1812 01006KT 9999 FEW040"
    },
    {
      "icao": "LGAV",
      "alert": "OK",
      "vis_m": 9999,
      "fzfg": false,
      "metar_trigger": false,
      "taf_trigger": false,
      "metar": "METAR LGAV 171420Z 02015KT 9999 FEW025 SCT070 13/03 Q1012 NOSIG",
      "taf": "TAF LGAV 171100Z 1712/1812 03012KT 9999 SCT020 BKN070"
    },
    {
      "icao": "LGTS",
      "alert": "OK",
      "vis_m": 9999,
      "fzfg": false,
      "metar_trigger": false,
      "taf_trigger": false,
      "metar": "METAR LGTS 171420Z 15006KT 9999 BKN030 14/05 Q1015 NOSIG",
      "taf": "TAF LGTS 171100Z 1712/1812 14013KT 9999 SCT025"
    },
    {
      "icao": "LHBP",
      "alert": "OK",
      "vis_m": 9999,
      "fzfg": false,
      "metar_trigger": false,
      "taf_trigger": false,
      "metar": "METAR LHBP 171430Z VRB02KT 9999 FEW035TCU SCT042 BKN070 12/02 Q1018 TEMPO -SHRA SCT035TCU BKN070",
      "taf": "TAF LHBP 171115Z 1712/1812 01007KT 9999 SCT040 BKN080"
    },
    {
      "icao": "LHDC",
      "alert": "OK",
      "vis_m": 9999,
      "fzfg": false,
      "metar_trigger": false,
      "taf_trigger": false,
      "metar": "METAR LHDC 171415Z AUTO 14004KT 090V200 9999 BKN071 //////CB 14/M01 Q1017 NOSIG",
      "taf": "TAF LHDC 171415Z 1715/1724 12006KT CAVOK"
    },
    {
      "icao": "LIBD",
      "alert": "OK",
      "vis_m": 6000,
      "fzfg": false,
      "metar_trigger": false,
      "taf_trigger": false,
      "metar": "METAR LIBD 171420Z 26005KT 6000 -RA SCT006 BKN040 10/10 Q1012",
      "taf": "TAF LIBD 171100Z 1712/1812 33008KT 8000 RA SCT015 BKN040"
    },
    {
      "icao": "LIBG",
      "alert": "OK",
      "vis_m": 9000,
      "fzfg": false,
      "metar_trigger": false,
      "taf_trigger": false,
      "metar": "METAR LIBG 171350Z 35004KT 9000 -RA SCT015 SCT030 13/11 Q1011",
      "taf": "TAF LIBG 171400Z 1715/1724 35006KT 8000 RA FEW015 BKN030"
    },
    {
      "icao": "LIBP",
      "alert": "OK",
      "vis_m": 9999,
      "fzfg": false,
      "metar_trigger": false,
      "taf_trigger": false,
      "metar": "METAR LIBP 171420Z AUTO 02014KT 9999 BKN094/// 13/05 Q1015",
      "taf": "TAF LIBP 171100Z 1712/1812 35012KT 9999 FEW015 SCT040"
    },
    {
      "icao": "LIBR",
      "alert": "OK",
      "vis_m": 5000,
      "fzfg": false,
      "metar_trigger": false,
      "taf_trigger": false,
      "metar": "METAR LIBR 171420Z 34007KT 5000 -RA BR BKN008 OVC035 12/11 Q1011 RERA",
      "taf": "TAF LIBR 171100Z 1712/1812 02012KT 7000 RA SCT010 BKN030"
    },
    {
      "icao": "LICA",
      "alert": "OK",
      "vis_m": 9999,
      "fzfg": false,
      "metar_trigger": false,
      "taf_trigger": false,
      "metar": "METAR LICA 171420Z AUTO 08008KT 9999 SCT068/// BKN099/// 16/10 Q1009",
      "taf": "TAF LICA 171100Z 1712/1812 08010KT 9999 SCT040"
    },
    {
      "icao": "LICC",
      "alert": "OK",
      "vis_m": 7000,
      "fzfg": false,
      "metar_trigger": false,
      "taf_trigger": false,
      "metar": "METAR LICC 171420Z 03012KT 7000 -RA SCT020 BKN070 13/11 Q1008 RERA",
      "taf": "TAF LICC 171100Z 1712/1812 06015KT 9999 BKN030"
    },
    {
      "icao": "LICJ",
      "alert": "OK",
      "vis_m": 9999,
      "fzfg": false,
      "metar_trigger": false,
      "taf_trigger": false,
      "metar": "METAR LICJ 171420Z 05021KT 9999 DZ SCT020 BKN050 15/13 Q1008",
      "taf": "TAF LICJ 171100Z 1712/1812 04013KT 9999 SCT020"
    },
    {
      "icao": "LIMC",
      "alert": "OK",
      "vis_m": 9999,
      "fzfg": false,
      "metar_trigger": false,
      "taf_trigger": false,
      "metar": "METAR LIMC 171420Z VRB03KT 9999 SCT055 17/04 Q1015 NOSIG",
      "taf": "TAF LIMC 171100Z 1712/1818 VRB05KT CAVOK"
    },
    {
      "icao": "LIME",
      "alert": "OK",
      "vis_m": 9999,
      "fzfg": false,
      "metar_trigger": false,
      "taf_trigger": false,
      "metar": "METAR LIME 171420Z 15006KT 110V170 9999 SCT060 14/03 Q1016 NOSIG",
      "taf": "TAF LIME 171100Z 1712/1812 16010KT CAVOK"
    },
    {
      "icao": "LIMF",
      "alert": "OK",
      "vis_m": 9999,
      "fzfg": false,
      "metar_trigger": false,
      "taf_trigger": false,
      "metar": "METAR LIMF 171420Z 09004KT 040V170 CAVOK 16/04 Q1016",
      "taf": "TAF LIMF 171100Z 1712/1812 VRB05KT CAVOK"
    },
    {
      "icao": "LIMJ",
      "alert": "OK",
      "vis_m": 9999,
      "fzfg": false,
      "metar_trigger": false,
      "taf_trigger": false,
      "metar": "METAR LIMJ 171420Z 35016KT CAVOK 20/01 Q1013",
      "taf": "TAF LIMJ 171100Z 1712/1812 35012KT CAVOK"
    },
    {
      "icao": "LIPE",
      "alert": "OK",
      "vis_m": 9999,
      "fzfg": false,
      "metar_trigger": false,
      "taf_trigger": false,
      "metar": "METAR LIPE 171420Z 12009KT 070V140 9999 FEW050 16/01 Q1016",
      "taf": "TAF LIPE 171100Z 1712/1812 VRB05KT 9999 FEW030"
    },
    {
      "icao": "LIPH",
      "alert": "OK",
      "vis_m": 9999,
      "fzfg": false,
      "metar_trigger": false,
      "taf_trigger": false,
      "metar": "METAR LIPH 171420Z 15007KT 110V180 9999 SCT030 BKN060 14/04 Q1017",
      "taf": "TAF LIPH 171100Z 1712/1812 VRB06KT 9999 FEW030"
    },
    {
      "icao": "LIPQ",
      "alert": "OK",
      "vis_m": 9999,
      "fzfg": false,
      "metar_trigger": false,
      "taf_trigger": false,
      "metar": "METAR LIPQ 171420Z AUTO 23006KT 9999 BKN100/// 14/01 Q1016",
      "taf": "TAF LIPQ 171100Z 1712/1812 10010KT 9999 FEW060"
    },
    {
      "icao": "LIPR",
      "alert": "OK",
      "vis_m": 9999,
      "fzfg": false,
      "metar_trigger": false,
      "taf_trigger": false,
      "metar": "METAR LIPR 171420Z 02007KT 9999 FEW030 13/07 Q1017",
      "taf": "TAF LIPR 171100Z 1712/1812 05012KT CAVOK"
    },
    {
      "icao": "LIPX",
      "alert": "OK",
      "vis_m": 9999,
      "fzfg": false,
      "metar_trigger": false,
      "taf_trigger": false,
      "metar": "METAR LIPX 171420Z 13006KT 100V170 9999 FEW050 BKN080 15/00 Q1016",
      "taf": "TAF LIPX 171100Z 1712/1812 10010KT CAVOK"
    },
    {
      "icao": "LIPY",
      "alert": "OK",
      "vis_m": 9999,
      "fzfg": false,
      "metar_trigger": false,
      "taf_trigger": false,
      "metar": "METAR LIPY 171420Z AUTO 03012KT 9999 NCD 13/06 Q1016",
      "taf": "TAF LIPY 171100Z 1712/1812 02012KT CAVOK"
    },
    {
      "icao": "LIPZ",
      "alert": "OK",
      "vis_m": 9999,
      "fzfg": false,
      "metar_trigger": false,
      "taf_trigger": false,
      "metar": "METAR LIPZ 171420Z 13007KT 9999 FEW040 14/01 Q1017 NOSIG",
      "taf": "TAF LIPZ 171100Z 1712/1818 12010KT 9999 FEW030"
    },
    {
      "icao": "LIRF",
      "alert": "OK",
      "vis_m": 9999,
      "fzfg": false,
      "metar_trigger": false,
      "taf_trigger": false,
      "metar": "METAR LIRF 171420Z 23012KT CAVOK 17/12 Q1011 BECMG 01013KT",
      "taf": ""
    },
    {
      "icao": "LIRN",
      "alert": "OK",
      "vis_m": 9999,
      "fzfg": false,
      "metar_trigger": false,
      "taf_trigger": false,
      "metar": "METAR LIRN 171420Z 05011KT 020V090 9999 FEW050 16/04 Q1011 NOSIG",
      "taf": "TAF LIRN 171100Z 1712/1812 03012KT 9999 SCT040"
    },
    {
      "icao": "LIRP",
      "alert": "OK",
      "vis_m": 9999,
      "fzfg": false,
      "metar_trigger": false,
      "taf_trigger": false,
      "metar": "METAR LIRP 171415Z 09014KT 9999 FEW030 18/02 Q1013 TEMPO 09017G30KT",
      "taf": "TAF LIRP 171100Z 1712/1812 09012KT CAVOK"
    },
    {
      "icao": "LIRZ",
      "alert": "OK",
      "vis_m": 9999,
      "fzfg": false,
      "metar_trigger": false,
      "taf_trigger": false,
      "metar": "METAR LIRZ 171420Z AUTO 05014KT 9999 NCD 15/M00 Q1014",
      "taf": "TAF LIRZ 171100Z 1712/1812 02013KT CAVOK"
    },
    {
      "icao": "LJLJ",
      "alert": "OK",
      "vis_m": 9999,
      "fzfg": false,
      "metar_trigger": false,
      "taf_trigger": false,
      "metar": "METAR LJLJ 171400Z 07012KT 040V100 9999 VCSH FEW043TCU SCT075 09/M03 Q1018 NOSIG",
      "taf": ""
    },
    {
      "icao": "LKMT",
      "alert": "OK",
      "vis_m": 9999,
      "fzfg": false,
      "metar_trigger": false,
      "taf_trigger": false,
      "metar": "METAR LKMT 171430Z 02011KT 9999 SCT020 BKN049 06/02 Q1022 NOSIG",
      "taf": "TAF LKMT 171100Z 1712/1812 01009KT 9999 FEW009 BKN015"
    },
    {
      "icao": "LKPR",
      "alert": "OK",
      "vis_m": 9999,
      "fzfg": false,
      "metar_trigger": false,
      "taf_trigger": false,
      "metar": "METAR LKPR 171430Z VRB03KT CAVOK 08/M05 Q1023 NOSIG",
      "taf": "TAF LKPR 171400Z 1715/1821 03005KT CAVOK"
    },
    {
      "icao": "LLBG",
      "alert": "OK",
      "vis_m": 9999,
      "fzfg": false,
      "metar_trigger": false,
      "taf_trigger": false,
      "metar": "METAR LLBG 171420Z 33011KT CAVOK 21/10 Q1010 NOSIG",
      "taf": "TAF LLBG 171102Z 1712/1812 33010KT CAVOK TX23/1712Z TN09/1803Z"
    },
    {
      "icao": "LMML",
      "alert": "OK",
      "vis_m": 9999,
      "fzfg": false,
      "metar_trigger": false,
      "taf_trigger": false,
      "metar": "METAR LMML 171415Z 03018KT 9999 FEW012 16/12 Q1004 NOSIG",
      "taf": "TAF LMML 171100Z 1712/1812 06020G30KT 9999 FEW020"
    },
    {
      "icao": "LOWW",
      "alert": "OK",
      "vis_m": 9999,
      "fzfg": false,
      "metar_trigger": false,
      "taf_trigger": false,
      "metar": "METAR LOWW 171420Z 33012KT 310V010 9999 FEW017 FEW038TCU 07/02 Q1021 NOSIG",
      "taf": "TAF LOWW 171415Z 1715/1821 34013KT 9999 BKN030 TX16/1815Z TN04/1802Z"
    },
    {
      "icao": "LPFR",
      "alert": "OK",
      "vis_m": 9999,
      "fzfg": false,
      "metar_trigger": false,
      "taf_trigger": false,
      "metar": "METAR LPFR 171400Z 11013KT 9999 FEW016 SCT020 18/13 Q1011",
      "taf": "TAF LPFR 171100Z 1712/1812 12018KT CAVOK"
    },
    {
      "icao": "LPMA",
      "alert": "OK",
      "vis_m": 9999,
      "fzfg": false,
      "metar_trigger": false,
      "taf_trigger": false,
      "metar": "METAR LPMA 171400Z 20015KT 9999 SCT015 FEW018CB 19/13 Q1007",
      "taf": "TAF LPMA 171100Z 1712/1812 22018KT 9999 SCT015"
    },
    {
      "icao": "LPPR",
      "alert": "OK",
      "vis_m": 9999,
      "fzfg": false,
      "metar_trigger": false,
      "taf_trigger": false,
      "metar": "METAR LPPR 171400Z 21007KT 150V240 CAVOK 23/06 Q1007",
      "taf": "TAF LPPR 171100Z 1712/1812 12012KT CAVOK"
    },
    {
      "icao": "LPPS",
      "alert": "OK",
      "vis_m": 9999,
      "fzfg": false,
      "metar_trigger": false,
      "taf_trigger": false,
      "metar": "METAR LPPS 171400Z 29008KT 260V330 9999 SCT013 18/13 Q1008",
      "taf": "TAF LPPS 171100Z 1712/1818 24010KT 9999 SCT015"
    },
    {
      "icao": "LPPT",
      "alert": "OK",
      "vis_m": 9999,
      "fzfg": false,
      "metar_trigger": false,
      "taf_trigger": false,
      "metar": "METAR LPPT 171400Z 14008KT 110V170 CAVOK 20/07 Q1008",
      "taf": "TAF LPPT 171100Z 1712/1818 12012KT CAVOK"
    },
    {
      "icao": "LQBK",
      "alert": "OK",
      "vis_m": 9999,
      "fzfg": false,
      "metar_trigger": false,
      "taf_trigger": false,
      "metar": "METAR LQBK 171430Z 24006KT 9999 -RA FEW017 OVC035 05/03 Q1018 NOSIG",
      "taf": "TAF LQBK 171100Z 1712/1812 30007KT 7000 -RA SCT015 BKN025 TX11/1812Z TN03/1806Z"
    },
    {
      "icao": "LQSA",
      "alert": "OK",
      "vis_m": 8000,
      "fzfg": false,
      "metar_trigger": false,
      "taf_trigger": false,
      "metar": "METAR LQSA 171430Z 29010KT 8000 RA BKN020 BKN035 04/03 Q1014 NOSIG",
      "taf": "TAF LQSA 171100Z 1712/1812 28007KT 9999 SCT025 BKN040 TX08/1812Z TN00/1804Z"
    },
    {
      "icao": "LQTZ",
      "alert": "OK",
      "vis_m": 9999,
      "fzfg": false,
      "metar_trigger": false,
      "taf_trigger": false,
      "metar": "METAR LQTZ 171430Z VRB02KT 9999 -RA OVC025 06/04 Q1017",
      "taf": "TAF LQTZ 171100Z 1712/1812 32006KT 9999 BKN030 TX11/1812Z TN02/1806Z"
    },
    {
      "icao": "LRBC",
      "alert": "OK",
      "vis_m": 9999,
      "fzfg": false,
      "metar_trigger": false,
      "taf_trigger": false,
      "metar": "METAR LRBC 171400Z 18008KT CAVOK 14/M01 Q1019",
      "taf": "TAF LRBC 171400Z 1715/1724 17008KT CAVOK"
    },
    {
      "icao": "LRBS",
      "alert": "OK",
      "vis_m": 9999,
      "fzfg": false,
      "metar_trigger": false,
      "taf_trigger": false,
      "metar": "METAR LRBS 171400Z 08009KT 050V120 CAVOK 14/01 Q1018 NOSIG",
      "taf": "TAF LRBS 171100Z 1712/1812 VRB04KT 9999 SCT045"
    },
    {
      "icao": "LRBV",
      "alert": "OK",
      "vis_m": 9999,
      "fzfg": false,
      "metar_trigger": false,
      "taf_trigger": false,
      "metar": "METAR LRBV 171400Z 09007KT 060V130 9999 BKN075 13/M04 Q1016",
      "taf": "TAF LRBV 171400Z 1715/1724 08008KT 9999 BKN050"
    },
    {
      "icao": "LRCL",
      "alert": "OK",
      "vis_m": 9999,
      "fzfg": false,
      "metar_trigger": false,
      "taf_trigger": false,
      "metar": "METAR LRCL 171400Z 14007KT 100V190 CAVOK 14/M08 Q1016",
      "taf": "TAF LRCL 171400Z 1715/1724 13008KT CAVOK"
    },
    {
      "icao": "LRCV",
      "alert": "OK",
      "vis_m": 9999,
      "fzfg": false,
      "metar_trigger": false,
      "taf_trigger": false,
      "metar": "METAR LRCV 171400Z 09011KT CAVOK 12/01 Q1017",
      "taf": "TAF LRCV 171400Z 1715/1724 10012KT 9999 SCT045"
    },
    {
      "icao": "LRIA",
      "alert": "OK",
      "vis_m": 9999,
      "fzfg": false,
      "metar_trigger": false,
      "taf_trigger": false,
      "metar": "METAR LRIA 171400Z 08005KT 040V150 CAVOK 14/M03 Q1019",
      "taf": "TAF LRIA 171400Z 1715/1724 08006KT CAVOK"
    },
    {
      "icao": "LROP",
      "alert": "OK",
      "vis_m": 9999,
      "fzfg": false,
      "metar_trigger": false,
      "taf_trigger": false,
      "metar": "METAR LROP 171400Z 09009KT CAVOK 14/M03 Q1018 NOSIG",
      "taf": "TAF LROP 171100Z 1712/1812 VRB04KT 9999 SCT045"
    },
    {
      "icao": "LRSB",
      "alert": "OK",
      "vis_m": 9999,
      "fzfg": false,
      "metar_trigger": false,
      "taf_trigger": false,
      "metar": "METAR LRSB 171400Z 12009KT 9999 FEW055 14/M03 Q1015",
      "taf": "TAF LRSB 171100Z 1712/1812 10008KT 9999 SCT050"
    },
    {
      "icao": "LRSM",
      "alert": "OK",
      "vis_m": 9999,
      "fzfg": false,
      "metar_trigger": false,
      "taf_trigger": false,
      "metar": "METAR LRSM 171400Z 02006KT 330V060 CAVOK 15/M01 Q1017",
      "taf": "TAF LRSM 171400Z 1715/1724 04008KT CAVOK"
    },
    {
      "icao": "LRSV",
      "alert": "OK",
      "vis_m": 9999,
      "fzfg": false,
      "metar_trigger": false,
      "taf_trigger": false,
      "metar": "METAR LRSV 171400Z 10004KT 030V140 CAVOK 13/M02 Q1019",
      "taf": "TAF LRSV 171400Z 1715/1724 09007KT CAVOK"
    },
    {
      "icao": "LRTM",
      "alert": "OK",
      "vis_m": 9999,
      "fzfg": false,
      "metar_trigger": false,
      "taf_trigger": false,
      "metar": "METAR LRTM 171400Z VRB03KT 9999 FEW037 15/M03 Q1016",
      "taf": "TAF LRTM 171400Z 1715/1724 VRB04KT CAVOK"
    },
    {
      "icao": "LRTR",
      "alert": "OK",
      "vis_m": 9999,
      "fzfg": false,
      "metar_trigger": false,
      "taf_trigger": false,
      "metar": "METAR LRTR 171400Z 34005KT 310V010 CAVOK 14/01 Q1016",
      "taf": "TAF LRTR 171100Z 1712/1812 VRB04KT 9999 SCT045"
    },
    {
      "icao": "LTAC",
      "alert": "OK",
      "vis_m": 9999,
      "fzfg": false,
      "metar_trigger": false,
      "taf_trigger": false,
      "metar": "METAR LTAC 171420Z 32006KT 280V360 9999 FEW040 SCT100 15/M02 Q1012 NOSIG RMK RWY21C 27007KT 220V310 RWY03L 29004KT 240V330 RWY21R 28007KT 240V310 RWY03R 24005KT 190V280 RWY21L 27007KT 220V290",
      "taf": "TAF LTAC 171040Z 1712/1812 VRB02KT 9999 SCT040 SCT100"
    },
    {
      "icao": "LTFM",
      "alert": "OK",
      "vis_m": 9999,
      "fzfg": false,
      "metar_trigger": false,
      "taf_trigger": false,
      "metar": "METAR LTFM 171420Z 04017KT 9999 SCT012 SCT022 09/05 Q1017 NOSIG RMK RWY17L 04013KT RWY34L 04015KT RWY16R 04014KT RWY36 04016KT RWY18 05013KT",
      "taf": "TAF LTFM 171040Z 1712/1818 05015KT 9999 SCT025"
    },
    {
      "icao": "LUKK",
      "alert": "OK",
      "vis_m": 9999,
      "fzfg": false,
      "metar_trigger": false,
      "taf_trigger": false,
      "metar": "METAR LUKK 171430Z VRB06KT CAVOK 13/M03 Q1020 NOSIG",
      "taf": "TAF LUKK 171112Z 1712/1812 VRB06KT CAVOK"
    },
    {
      "icao": "LWOH",
      "alert": "OK",
      "vis_m": 9999,
      "fzfg": false,
      "metar_trigger": false,
      "taf_trigger": false,
      "metar": "METAR LWOH 171420Z 16007KT 9999 FEW040 SCT090 13/03 Q1011",
      "taf": "TAF LWOH 171130Z 1712/1812 19008KT 9999 SCT040 BKN090"
    },
    {
      "icao": "LWSK",
      "alert": "OK",
      "vis_m": 9999,
      "fzfg": false,
      "metar_trigger": false,
      "taf_trigger": false,
      "metar": "METAR LWSK 171420Z VRB02KT 9999 FEW040 BKN082 15/06 Q1012 NOSIG",
      "taf": "TAF LWSK 171130Z 1712/1812 VRB02KT 9999 SCT035 BKN090"
    },
    {
      "icao": "LYBE",
      "alert": "OK",
      "vis_m": 9999,
      "fzfg": false,
      "metar_trigger": false,
      "taf_trigger": false,
      "metar": "METAR LYBE 171430Z 05007KT 020V080 CAVOK 13/M00 Q1015 NOSIG",
      "taf": "TAF LYBE 171100Z 1712/1812 05008KT CAVOK TX14/1713Z TN07/1802Z"
    },
    {
      "icao": "LYNI",
      "alert": "OK",
      "vis_m": 9999,
      "fzfg": false,
      "metar_trigger": false,
      "taf_trigger": false,
      "metar": "METAR LYNI 171430Z 34008KT 300V030 CAVOK 14/00 Q1013 BECMG 04014KT",
      "taf": "TAF LYNI 171100Z 1712/1812 33014KT 9999 SCT050 BKN080 TX13/1714Z TN06/1805Z"
    },
    {
      "icao": "LYPG",
      "alert": "OK",
      "vis_m": 9999,
      "fzfg": false,
      "metar_trigger": false,
      "taf_trigger": false,
      "metar": "METAR LYPG 171430Z 34012KT 9999 -RA SCT040 OVC070 09/08 Q1012 NOSIG",
      "taf": "TAF LYPG 171100Z 1712/1812 36008KT 9999 SCT040 OVC080 TX15/1812Z TN09/1804Z"
    },
    {
      "icao": "LZIB",
      "alert": "OK",
      "vis_m": 9999,
      "fzfg": false,
      "metar_trigger": false,
      "taf_trigger": false,
      "metar": "METAR LZIB 171430Z 33016KT 9999 SCT045 10/00 Q1020 NOSIG",
      "taf": "TAF LZIB 171115Z 1712/1812 01011KT 9999 SCT025"
    },
    {
      "icao": "LZKZ",
      "alert": "OK",
      "vis_m": 9999,
      "fzfg": false,
      "metar_trigger": false,
      "taf_trigger": false,
      "metar": "METAR LZKZ 171430Z 35013KT CAVOK 09/03 Q1019 NOSIG",
      "taf": "TAF LZKZ 171115Z 1712/1812 01015KT CAVOK"
    },
    {
      "icao": "LZTT",
      "alert": "OK",
      "vis_m": 9999,
      "fzfg": false,
      "metar_trigger": false,
      "taf_trigger": false,
      "metar": "METAR LZTT 171430Z 06014KT 9999 -RA SCT025 BKN045 04/00 Q1019 NOSIG",
      "taf": "TAF LZTT 171115Z 1712/1812 07011KT 9999 SCT018 BKN035"
    },
    {
      "icao": "OEJN",
      "alert": "OK",
      "vis_m": 9999,
      "fzfg": false,
      "metar_trigger": false,
      "taf_trigger": false,
      "metar": "METAR OEJN 171400Z 34009KT 9999 SCT040 28/15 Q1007 NOSIG",
      "taf": "TAF OEJN 171100Z 1712/1818 30013KT 9999 BKN040"
    },
    {
      "icao": "OEMA",
      "alert": "OK",
      "vis_m": 9999,
      "fzfg": false,
      "metar_trigger": false,
      "taf_trigger": false,
      "metar": "METAR OEMA 171400Z 21011KT CAVOK 32/07 Q1010 NOSIG",
      "taf": "TAF OEMA 171100Z 1712/1818 24016KT 7000 SCT040"
    },
    {
      "icao": "OJAI",
      "alert": "OK",
      "vis_m": 5000,
      "fzfg": false,
      "metar_trigger": false,
      "taf_trigger": false,
      "metar": "METAR OJAI 171400Z 22003KT 5000 HZ NSC 22/01 Q1012 NOSIG",
      "taf": "TAF OJAI 171100Z 1712/1818 14010KT 5000 HZ NSC"
    },
    {
      "icao": "OMAA",
      "alert": "OK",
      "vis_m": null,
      "fzfg": false,
      "metar_trigger": false,
      "taf_trigger": false,
      "metar": "",
      "taf": ""
    },
    {
      "icao": "OMDB",
      "alert": "OK",
      "vis_m": null,
      "fzfg": false,
      "metar_trigger": false,
      "taf_trigger": false,
      "metar": "",
      "taf": ""
    },
    {
      "icao": "UAAA",
      "alert": "OK",
      "vis_m": 9999,
      "fzfg": false,
      "metar_trigger": false,
      "taf_trigger": false,
      "metar": "METAR UAAA 171400Z 35004MPS 9999 SCT040 BKN100 05/M02 Q1016 NOSIG",
      "taf": "TAF UAAA 171102Z 1712/1812 22003MPS 9999 SCT100 TX11/1809Z TNM01/1801Z"
    },
    {
      "icao": "UBBB",
      "alert": "OK",
      "vis_m": 9999,
      "fzfg": false,
      "metar_trigger": false,
      "taf_trigger": false,
      "metar": "METAR UBBB 171430Z 32014KT 9999 FEW045CB BKN045 09/05 Q1016 NOSIG",
      "taf": "TAF UBBB 171058Z 1712/1812 32016G26KT 9999 BKN030 TX11/1712Z TN05/1801Z"
    },
    {
      "icao": "UDSG",
      "alert": "OK",
      "vis_m": 9999,
      "fzfg": false,
      "metar_trigger": false,
      "taf_trigger": false,
      "metar": "METAR UDSG 171400Z 36005KT 9999 FEW049 07/M02 Q1015 NOSIG",
      "taf": "TAF UDSG 171058Z 1712/1812 VRB04KT 9999 FEW050"
    },
    {
      "icao": "UDYZ",
      "alert": "OK",
      "vis_m": 9999,
      "fzfg": false,
      "metar_trigger": false,
      "taf_trigger": false,
      "metar": "METAR UDYZ 171400Z 25011KT 9999 FEW046 16/M01 Q1012 NOSIG",
      "taf": "TAF UDYZ 171100Z 1712/1812 VRB06KT 9999 FEW040"
    },
    {
      "icao": "UGKO",
      "alert": "OK",
      "vis_m": 9999,
      "fzfg": false,
      "metar_trigger": false,
      "taf_trigger": false,
      "metar": "METAR UGKO 171400Z 27006KT 9999 BKN041 11/07 Q1018 NOSIG",
      "taf": "TAF UGKO 171100Z 1712/1812 26007KT 9999 SCT025 BKN040 TX19/1812Z TN03/1803Z"
    }
  ]
}