{
  "ts_utc": "2026-03-23T02:06:33Z",
  "threshold_m": 150,
  "source": "stations_override.txt (ICAO list) + aviationweather.gov (METAR/TAF raw)",
  "station_count": 159,
  "stations": [
    {
      "icao": "BIKF",
      "alert": "OK",
      "vis_m": 9999,
      "fzfg": false,
      "metar_trigger": false,
      "taf_trigger": false,
      "metar": "METAR BIKF 230130Z 24013KT 9999 -SHSN FEW021TCU OVC029 M01/M06 Q0999",
      "taf": "TAF BIKF 230116Z 2303/2403 24010KT 9999 -SHSN SCT010 BKN025 TX01/2316Z TNM03/2303Z"
    },
    {
      "icao": "BKPR",
      "alert": "OK",
      "vis_m": 9999,
      "fzfg": false,
      "metar_trigger": false,
      "taf_trigger": false,
      "metar": "METAR BKPR 230200Z 35008KT 9999 BKN070 05/01 Q1013 NOSIG",
      "taf": "TAF BKPR 222330Z 2300/2324 36008KT 9999 BKN050"
    },
    {
      "icao": "EBCI",
      "alert": "OK",
      "vis_m": 9999,
      "fzfg": false,
      "metar_trigger": false,
      "taf_trigger": false,
      "metar": "METAR EBCI 230150Z 03001KT CAVOK 06/01 Q1016 NOSIG",
      "taf": "TAF EBCI 222300Z 2300/2406 35003KT CAVOK"
    },
    {
      "icao": "EDDB",
      "alert": "OK",
      "vis_m": 9999,
      "fzfg": false,
      "metar_trigger": false,
      "taf_trigger": false,
      "metar": "METAR EDDB 230150Z AUTO 06002KT CAVOK 01/M00 Q1016 NOSIG",
      "taf": "TAF EDDB 222300Z 2300/2324 07004KT CAVOK"
    },
    {
      "icao": "EDDH",
      "alert": "OK",
      "vis_m": 9999,
      "fzfg": false,
      "metar_trigger": false,
      "taf_trigger": false,
      "metar": "METAR EDDH 230150Z AUTO 07003KT 9999 4300 BR NCD 01/M01 Q1017 NOSIG",
      "taf": "TAF EDDH 222300Z 2300/2406 08002KT CAVOK"
    },
    {
      "icao": "EDDK",
      "alert": "OK",
      "vis_m": 9999,
      "fzfg": false,
      "metar_trigger": false,
      "taf_trigger": false,
      "metar": "METAR EDDK 230150Z AUTO VRB02KT CAVOK 05/02 Q1016 NOSIG",
      "taf": "TAF EDDK 222300Z 2300/2406 VRB02KT CAVOK"
    },
    {
      "icao": "EDDN",
      "alert": "OK",
      "vis_m": 9999,
      "fzfg": false,
      "metar_trigger": false,
      "taf_trigger": false,
      "metar": "METAR EDDN 230150Z AUTO 05003KT CAVOK 04/M00 Q1014",
      "taf": "TAF EDDN 222300Z 2300/2324 VRB03KT CAVOK"
    },
    {
      "icao": "EDDS",
      "alert": "OK",
      "vis_m": 9999,
      "fzfg": false,
      "metar_trigger": false,
      "taf_trigger": false,
      "metar": "METAR EDDS 230150Z AUTO VRB01KT CAVOK 02/M01 Q1014",
      "taf": "TAF EDDS 222300Z 2300/2324 VRB02KT CAVOK"
    },
    {
      "icao": "EDFH",
      "alert": "OK",
      "vis_m": 9999,
      "fzfg": false,
      "metar_trigger": false,
      "taf_trigger": false,
      "metar": "METAR EDFH 230150Z VRB01KT CAVOK 05/M02 Q1014",
      "taf": "TAF EDFH 222300Z 2300/2324 09004KT CAVOK"
    },
    {
      "icao": "EDJA",
      "alert": "OK",
      "vis_m": 9999,
      "fzfg": false,
      "metar_trigger": false,
      "taf_trigger": false,
      "metar": "METAR EDJA 230150Z AUTO VRB02KT 9999 // FEW063/// M01/M03 Q1013",
      "taf": "TAF EDJA 221700Z 2218/2303 06006KT CAVOK"
    },
    {
      "icao": "EDLW",
      "alert": "OK",
      "vis_m": 9999,
      "fzfg": false,
      "metar_trigger": false,
      "taf_trigger": false,
      "metar": "METAR EDLW 230150Z AUTO VRB02KT 9999 // NCD 05/00 Q1015",
      "taf": "TAF EDLW 221700Z 2218/2318 06006KT CAVOK"
    },
    {
      "icao": "EDNY",
      "alert": "OK",
      "vis_m": 9999,
      "fzfg": false,
      "metar_trigger": false,
      "taf_trigger": false,
      "metar": "METAR EDNY 230150Z AUTO VRB01KT 9999 // NCD 00/M01 Q1014",
      "taf": "TAF EDNY 221700Z 2218/2303 03009KT CAVOK"
    },
    {
      "icao": "EDSB",
      "alert": "OK",
      "vis_m": 9000,
      "fzfg": false,
      "metar_trigger": false,
      "taf_trigger": false,
      "metar": "METAR EDSB 230150Z AUTO 14001KT 9000 FEW003/// 02/01 Q1014",
      "taf": "TAF EDSB 222300Z 2300/2324 VRB03KT CAVOK"
    },
    {
      "icao": "EETN",
      "alert": "OK",
      "vis_m": 9999,
      "fzfg": false,
      "metar_trigger": false,
      "taf_trigger": false,
      "metar": "METAR EETN 230150Z 20010KT CAVOK 02/M02 Q1015",
      "taf": "TAF EETN 221730Z 2218/2318 20008KT CAVOK"
    },
    {
      "icao": "EFTU",
      "alert": "OK",
      "vis_m": 9999,
      "fzfg": false,
      "metar_trigger": false,
      "taf_trigger": false,
      "metar": "METAR EFTU 230150Z AUTO 22008KT CAVOK 02/M01 Q1011",
      "taf": "TAF EFTU 222322Z 2300/2324 21009KT CAVOK"
    },
    {
      "icao": "EGBB",
      "alert": "OK",
      "vis_m": 9999,
      "fzfg": false,
      "metar_trigger": false,
      "taf_trigger": false,
      "metar": "METAR EGBB 230150Z 30005KT 9999 SCT024 OVC029 08/05 Q1019",
      "taf": "TAF EGBB 222313Z 2300/2324 33008KT 9999 SCT025"
    },
    {
      "icao": "EGGP",
      "alert": "OK",
      "vis_m": 9999,
      "fzfg": false,
      "metar_trigger": false,
      "taf_trigger": false,
      "metar": "METAR EGGP 230150Z AUTO 35006KT 9999 NCD 06/03 Q1020",
      "taf": "TAF EGGP 222257Z 2300/2324 33008KT 9999 FEW020"
    },
    {
      "icao": "EGGW",
      "alert": "OK",
      "vis_m": 9999,
      "fzfg": false,
      "metar_trigger": false,
      "taf_trigger": false,
      "metar": "METAR EGGW 230150Z AUTO 00000KT 9999 NCD 05/02 Q1018",
      "taf": ""
    },
    {
      "icao": "EGKK",
      "alert": "OK",
      "vis_m": 9000,
      "fzfg": false,
      "metar_trigger": false,
      "taf_trigger": false,
      "metar": "METAR EGKK 230150Z 19002KT 9000 NSC 04/03 Q1018",
      "taf": ""
    },
    {
      "icao": "EGNM",
      "alert": "OK",
      "vis_m": null,
      "fzfg": false,
      "metar_trigger": false,
      "taf_trigger": false,
      "metar": "",
      "taf": "TAF EGNM 222257Z 2300/2324 30010KT 9999 FEW020 SCT040"
    },
    {
      "icao": "EGPD",
      "alert": "OK",
      "vis_m": 9999,
      "fzfg": false,
      "metar_trigger": false,
      "taf_trigger": false,
      "metar": "METAR EGPD 230150Z COR AUTO 26004KT 210V350 9999 NCD 05/M01 Q1018 NOSIG",
      "taf": "TAF EGPD 222259Z 2300/2324 27009KT 9999 FEW040"
    },
    {
      "icao": "EGPF",
      "alert": "OK",
      "vis_m": 9999,
      "fzfg": false,
      "metar_trigger": false,
      "taf_trigger": false,
      "metar": "METAR EGPF 230150Z AUTO VRB02KT 9999 NCD 02/01 Q1020",
      "taf": "TAF EGPF 222258Z 2300/2324 VRB03KT 9999 FEW030"
    },
    {
      "icao": "EHBK",
      "alert": "OK",
      "vis_m": 9999,
      "fzfg": false,
      "metar_trigger": false,
      "taf_trigger": false,
      "metar": "METAR EHBK 230155Z AUTO 20004KT 9999 NCD 04/01 Q1015",
      "taf": "TAF EHBK 222319Z 2300/2406 30005KT CAVOK"
    },
    {
      "icao": "EHEH",
      "alert": "OK",
      "vis_m": 6000,
      "fzfg": false,
      "metar_trigger": false,
      "taf_trigger": false,
      "metar": "METAR EHEH 230155Z AUTO 31002KT 6000 BR BKN260 01/01 Q1016 WHT RMK TREND REMOTE BY EHWX",
      "taf": "TAF EHEH 222313Z 2300/2406 VRB02KT CAVOK"
    },
    {
      "icao": "EKBI",
      "alert": "OK",
      "vis_m": 7000,
      "fzfg": false,
      "metar_trigger": false,
      "taf_trigger": false,
      "metar": "METAR EKBI 230150Z AUTO 09001KT 7000 FEW100/// SCT200/// M01/M02 Q1016",
      "taf": "TAF EKBI 222327Z 2300/2324 16005KT CAVOK"
    },
    {
      "icao": "EKCH",
      "alert": "OK",
      "vis_m": 4200,
      "fzfg": false,
      "metar_trigger": false,
      "taf_trigger": false,
      "metar": "METAR EKCH 230150Z AUTO 18002KT 4200 BR NCD 01/00 Q1017 NOSIG",
      "taf": "TAF EKCH 222327Z 2300/2324 17005KT CAVOK"
    },
    {
      "icao": "ENAL",
      "alert": "OK",
      "vis_m": 9999,
      "fzfg": false,
      "metar_trigger": false,
      "taf_trigger": false,
      "metar": "METAR ENAL 230150Z AUTO 26024G34KT 240V300 9999 -RA SQ FEW005/// BKN028/// BKN033/// 03/M00 Q1003 REDZRA",
      "taf": "TAF ENAL 222300Z 2300/2309 24028KT 9999 -SHRA FEW015 BKN030"
    },
    {
      "icao": "ENBR",
      "alert": "OK",
      "vis_m": 9999,
      "fzfg": false,
      "metar_trigger": false,
      "taf_trigger": false,
      "metar": "METAR ENBR 230150Z AUTO 23011KT 210V280 9999 -SN FEW008/// SCT036/// BKN049/// 03/M00 Q1011 RERA REDZ RMK WIND 1200FT 27023KT",
      "taf": "TAF ENBR 222300Z 2300/2324 25015KT 9999 -SHRA FEW015 SCT025"
    },
    {
      "icao": "ENGM",
      "alert": "OK",
      "vis_m": 9000,
      "fzfg": false,
      "metar_trigger": false,
      "taf_trigger": false,
      "metar": "METAR ENGM 230150Z 21010KT 9000 BKN008 02/00 Q1008",
      "taf": "TAF ENGM 222300Z 2300/2324 22008KT 9999 BKN012"
    },
    {
      "icao": "ENHD",
      "alert": "OK",
      "vis_m": 9999,
      "fzfg": false,
      "metar_trigger": false,
      "taf_trigger": false,
      "metar": "METAR ENHD 230150Z AUTO 26013KT 9999 SCT026/// BKN032/// 05/02 Q1013",
      "taf": ""
    },
    {
      "icao": "ENTC",
      "alert": "OK",
      "vis_m": 9999,
      "fzfg": false,
      "metar_trigger": false,
      "taf_trigger": false,
      "metar": "METAR ENTC 230150Z 20018KT 9999 -RA FEW020 SCT034 BKN040 03/M01 Q0982 RMK WIND 2600FT 20043KT",
      "taf": "TAF ENTC 222300Z 2300/2324 20018KT 9999 SCT020 BKN035"
    },
    {
      "icao": "ENTO",
      "alert": "OK",
      "vis_m": 5000,
      "fzfg": false,
      "metar_trigger": false,
      "taf_trigger": false,
      "metar": "METAR ENTO 230150Z AUTO 22008KT 5000 BR OVC005/// 04/04 Q1011",
      "taf": "TAF ENTO 222300Z 2300/2324 21008KT 4000 BR OVC004"
    },
    {
      "icao": "ENVA",
      "alert": "OK",
      "vis_m": 9999,
      "fzfg": false,
      "metar_trigger": false,
      "taf_trigger": false,
      "metar": "METAR ENVA 230150Z AUTO 23017KT 9999 NCD 04/M02 Q1000 RMK WIND 670FT 23020G34KT",
      "taf": "TAF ENVA 222300Z 2300/2324 23012KT 9999 FEW020 SCT050"
    },
    {
      "icao": "ENZV",
      "alert": "OK",
      "vis_m": 9999,
      "fzfg": false,
      "metar_trigger": false,
      "taf_trigger": false,
      "metar": "METAR ENZV 230150Z AUTO 23005KT 9999 NCD 04/02 Q1014",
      "taf": "TAF ENZV 222300Z 2300/2324 21008KT 9999 FEW020 SCT035"
    },
    {
      "icao": "EPGD",
      "alert": "OK",
      "vis_m": 9000,
      "fzfg": false,
      "metar_trigger": false,
      "taf_trigger": false,
      "metar": "METAR EPGD 230130Z 27002KT 9000 NSC 03/00 Q1018",
      "taf": "TAF EPGD 222330Z 2300/2324 VRB02KT CAVOK"
    },
    {
      "icao": "EPKK",
      "alert": "OK",
      "vis_m": 9999,
      "fzfg": false,
      "metar_trigger": false,
      "taf_trigger": false,
      "metar": "METAR EPKK 230130Z 03005KT CAVOK 02/M02 Q1016",
      "taf": "TAF EPKK 222330Z 2300/2324 05006KT CAVOK"
    },
    {
      "icao": "EPKT",
      "alert": "OK",
      "vis_m": 9999,
      "fzfg": false,
      "metar_trigger": false,
      "taf_trigger": false,
      "metar": "METAR EPKT 230130Z 06004KT CAVOK 02/M02 Q1016",
      "taf": "TAF EPKT 222330Z 2300/2324 10010KT CAVOK"
    },
    {
      "icao": "EPLB",
      "alert": "OK",
      "vis_m": 9000,
      "fzfg": false,
      "metar_trigger": false,
      "taf_trigger": false,
      "metar": "METAR EPLB 230130Z 08002KT 9000 NSC M01/M03 Q1019",
      "taf": "TAF EPLB 222330Z 2300/2324 VRB03KT CAVOK"
    },
    {
      "icao": "EPMO",
      "alert": "OK",
      "vis_m": 9999,
      "fzfg": false,
      "metar_trigger": false,
      "taf_trigger": false,
      "metar": "METAR EPMO 230130Z 10008KT CAVOK 03/M01 Q1019",
      "taf": "TAF EPMO 222330Z 2300/2324 VRB04KT CAVOK"
    },
    {
      "icao": "EPPO",
      "alert": "OK",
      "vis_m": 9999,
      "fzfg": false,
      "metar_trigger": false,
      "taf_trigger": false,
      "metar": "METAR EPPO 230130Z 09004KT CAVOK 07/02 Q1016",
      "taf": "TAF EPPO 222330Z 2300/2324 10005KT CAVOK"
    },
    {
      "icao": "EPRA",
      "alert": "OK",
      "vis_m": 9999,
      "fzfg": false,
      "metar_trigger": false,
      "taf_trigger": false,
      "metar": "METAR EPRA 230130Z 11002KT CAVOK 01/M04 Q1018",
      "taf": "TAF EPRA 222330Z 2300/2309 13006KT CAVOK"
    },
    {
      "icao": "EPRZ",
      "alert": "OK",
      "vis_m": 9999,
      "fzfg": false,
      "metar_trigger": false,
      "taf_trigger": false,
      "metar": "METAR EPRZ 230130Z 09003KT CAVOK 02/M03 Q1017",
      "taf": "TAF EPRZ 222330Z 2300/2324 07007KT CAVOK"
    },
    {
      "icao": "EPSC",
      "alert": "OK",
      "vis_m": 9999,
      "fzfg": false,
      "metar_trigger": false,
      "taf_trigger": false,
      "metar": "METAR EPSC 230130Z VRB01KT CAVOK 00/M02 Q1017",
      "taf": "TAF EPSC 222330Z 2300/2324 VRB02KT CAVOK"
    },
    {
      "icao": "EPSY",
      "alert": "OK",
      "vis_m": 9999,
      "fzfg": false,
      "metar_trigger": false,
      "taf_trigger": false,
      "metar": "METAR EPSY 230130Z 00000KT CAVOK M02/M03 Q1019",
      "taf": "TAF EPSY 222330Z 2300/2309 VRB02KT CAVOK"
    },
    {
      "icao": "EPWA",
      "alert": "OK",
      "vis_m": 9999,
      "fzfg": false,
      "metar_trigger": false,
      "taf_trigger": false,
      "metar": "METAR EPWA 230130Z 09003KT CAVOK 02/M02 Q1019 NOSIG",
      "taf": "TAF EPWA 222330Z 2300/2324 11005KT CAVOK"
    },
    {
      "icao": "EPWR",
      "alert": "OK",
      "vis_m": 9999,
      "fzfg": false,
      "metar_trigger": false,
      "taf_trigger": false,
      "metar": "METAR EPWR 230130Z 09001KT CAVOK 04/02 Q1016",
      "taf": "TAF EPWR 222330Z 2300/2324 VRB02KT CAVOK"
    },
    {
      "icao": "ESGG",
      "alert": "OK",
      "vis_m": 4200,
      "fzfg": false,
      "metar_trigger": false,
      "taf_trigger": false,
      "metar": "METAR ESGG 230150Z 20007KT 4200 BR NSC 00/M00 Q1014",
      "taf": "TAF ESGG 222330Z 2300/2324 19008KT CAVOK"
    },
    {
      "icao": "ESKN",
      "alert": "OK",
      "vis_m": 9999,
      "fzfg": false,
      "metar_trigger": false,
      "taf_trigger": false,
      "metar": "METAR ESKN 230150Z 21008KT CAVOK 03/M01 Q1013",
      "taf": "TAF ESKN 222330Z 2300/2324 24008KT CAVOK"
    },
    {
      "icao": "ESMS",
      "alert": "OK",
      "vis_m": 9999,
      "fzfg": false,
      "metar_trigger": false,
      "taf_trigger": false,
      "metar": "METAR ESMS 230150Z 10003KT CAVOK M01/M01 Q1017",
      "taf": "TAF ESMS 222327Z 2300/2324 13005KT CAVOK"
    },
    {
      "icao": "ESSA",
      "alert": "OK",
      "vis_m": 9999,
      "fzfg": false,
      "metar_trigger": false,
      "taf_trigger": false,
      "metar": "METAR ESSA 230150Z 23012KT CAVOK 03/M01 Q1011 NOSIG",
      "taf": "TAF ESSA 222330Z 2300/2324 24012KT CAVOK"
    },
    {
      "icao": "EYKA",
      "alert": "OK",
      "vis_m": 9999,
      "fzfg": false,
      "metar_trigger": false,
      "taf_trigger": false,
      "metar": "METAR EYKA 230150Z 10002KT CAVOK M01/M02 Q1020",
      "taf": "TAF EYKA 222300Z 2300/2324 VRB04KT 9000 NSC"
    },
    {
      "icao": "EYPA",
      "alert": "OK",
      "vis_m": 9999,
      "fzfg": false,
      "metar_trigger": false,
      "taf_trigger": false,
      "metar": "METAR EYPA 230150Z 17004KT CAVOK 03/M01 Q1019",
      "taf": "TAF EYPA 222300Z 2300/2324 VRB05KT 9000 NSC"
    },
    {
      "icao": "EYVI",
      "alert": "OK",
      "vis_m": 9999,
      "fzfg": false,
      "metar_trigger": false,
      "taf_trigger": false,
      "metar": "METAR EYVI 230150Z 00000KT CAVOK 03/M03 Q1020 NOSIG",
      "taf": "TAF EYVI 222300Z 2300/2324 VRB05KT 5000 MIFG BR NSC"
    },
    {
      "icao": "GCFV",
      "alert": "OK",
      "vis_m": 9999,
      "fzfg": false,
      "metar_trigger": false,
      "taf_trigger": false,
      "metar": "METAR GCFV 230130Z AUTO VRB04KT 9999 BKN022 18/14 Q1006",
      "taf": ""
    },
    {
      "icao": "GCLP",
      "alert": "OK",
      "vis_m": 6000,
      "fzfg": false,
      "metar_trigger": false,
      "taf_trigger": false,
      "metar": "SPECI GCLP 230151Z VRB01KT 6000 +SHRA SCT018 BKN030TCU BKN055 16/14 Q1005 NOSIG",
      "taf": "TAF GCLP 222000Z 2221/2321 20017KT 9999 SCT025 TX21/2314Z TN15/2306Z"
    },
    {
      "icao": "GCTS",
      "alert": "OK",
      "vis_m": 3000,
      "fzfg": false,
      "metar_trigger": false,
      "taf_trigger": false,
      "metar": "SPECI GCTS 230131Z 03008KT 3000 SHRA FEW020 BKN040TCU 15/13 Q1004 NOSIG",
      "taf": "TAF GCTS 222000Z 2221/2321 25008KT 9999 BKN030 TX20/2314Z TN15/2306Z"
    },
    {
      "icao": "GMAD",
      "alert": "OK",
      "vis_m": 9999,
      "fzfg": false,
      "metar_trigger": false,
      "taf_trigger": false,
      "metar": "METAR GMAD 230130Z 07008KT 040V100 9999 FEW023TCU BKN083 15/13 Q1008 NOSIG",
      "taf": "TAF GMAD 222300Z 2300/2406 20008KT 8000 SCT020TCU BKN080"
    },
    {
      "icao": "GMMN",
      "alert": "OK",
      "vis_m": 9999,
      "fzfg": false,
      "metar_trigger": false,
      "taf_trigger": false,
      "metar": "METAR GMMN 230130Z 24004KT 200V270 9999 FEW040 SCT100 13/11 Q1010 NOSIG",
      "taf": "TAF GMMN 221700Z 2218/2324 26012KT 9999 SCT020TCU BKN080"
    },
    {
      "icao": "GMMX",
      "alert": "OK",
      "vis_m": 3000,
      "fzfg": false,
      "metar_trigger": false,
      "taf_trigger": false,
      "metar": "METAR GMMX 230130Z 30004KT 270V360 3000 TSRA BKN023 FEW030CB 14/12 Q1010 NOSIG",
      "taf": "TAF GMMX 222300Z 2300/2406 24008KT 8000 SCT026"
    },
    {
      "icao": "HEGN",
      "alert": "OK",
      "vis_m": 9999,
      "fzfg": false,
      "metar_trigger": false,
      "taf_trigger": false,
      "metar": "METAR HEGN 230100Z 20007KT CAVOK 17/04 Q1008 NOSIG",
      "taf": "TAF HEGN 222300Z 2300/2406 27010KT CAVOK"
    },
    {
      "icao": "HEMA",
      "alert": "OK",
      "vis_m": 9999,
      "fzfg": false,
      "metar_trigger": false,
      "taf_trigger": false,
      "metar": "METAR HEMA 230100Z 26005KT CAVOK 19/14 Q1008 NOSIG",
      "taf": "TAF HEMA 222300Z 2300/2406 13010KT CAVOK"
    },
    {
      "icao": "HESH",
      "alert": "OK",
      "vis_m": 9999,
      "fzfg": false,
      "metar_trigger": false,
      "taf_trigger": false,
      "metar": "METAR HESH 230100Z 34006KT CAVOK 19/10 Q1009 NOSIG",
      "taf": "TAF HESH 222300Z 2300/2406 18008KT CAVOK"
    },
    {
      "icao": "HESX",
      "alert": "OK",
      "vis_m": 9999,
      "fzfg": false,
      "metar_trigger": false,
      "taf_trigger": false,
      "metar": "METAR HESX 230100Z 05006KT CAVOK 11/08 Q1010 NOSIG",
      "taf": "TAF HESX 222300Z 2300/2406 04007KT CAVOK"
    },
    {
      "icao": "LATI",
      "alert": "OK",
      "vis_m": 9999,
      "fzfg": false,
      "metar_trigger": false,
      "taf_trigger": false,
      "metar": "METAR LATI 230150Z 15003KT 9999 BKN072 OVC120 09/05 Q1012 NOSIG",
      "taf": "TAF LATI 222300Z 2300/2324 VRB05KT 9999 FEW050 BKN080 TX17/2312Z TN07/2304Z"
    },
    {
      "icao": "LBPD",
      "alert": "OK",
      "vis_m": 9999,
      "fzfg": false,
      "metar_trigger": false,
      "taf_trigger": false,
      "metar": "METAR LBPD 230130Z AUTO 00000KT 9999 BKN039/// OVC099/// 07/04 Q1014",
      "taf": "TAF LBPD 222300Z 2300/2324 VRB03KT 9999 SCT030 BKN050"
    },
    {
      "icao": "LBSF",
      "alert": "OK",
      "vis_m": 9999,
      "fzfg": false,
      "metar_trigger": false,
      "taf_trigger": false,
      "metar": "METAR LBSF 230130Z AUTO 35004KT 300V020 9999 FEW031/// SCT059/// 04/01 Q1014 NOSIG",
      "taf": "TAF LBSF 222300Z 2300/2324 VRB03KT 9999 SCT030 BKN050"
    },
    {
      "icao": "LBWN",
      "alert": "OK",
      "vis_m": 9999,
      "fzfg": false,
      "metar_trigger": false,
      "taf_trigger": false,
      "metar": "METAR LBWN 230130Z AUTO 35007KT 9999 BKN032/// OVC043/// 07/04 Q1013 NOSIG",
      "taf": "TAF LBWN 222300Z 2300/2324 30010KT 9999 BKN020 OVC040"
    },
    {
      "icao": "LCLK",
      "alert": "OK",
      "vis_m": 9999,
      "fzfg": false,
      "metar_trigger": false,
      "taf_trigger": false,
      "metar": "METAR LCLK 230130Z 29003KT 240V310 9999 BKN070 11/10 Q1008 NOSIG",
      "taf": "TAF LCLK 222330Z 2300/2400 30005KT 9999 FEW030"
    },
    {
      "icao": "LCPH",
      "alert": "OK",
      "vis_m": 9999,
      "fzfg": false,
      "metar_trigger": false,
      "taf_trigger": false,
      "metar": "METAR LCPH 230130Z AUTO 06005KT 010V080 9999 BKN025 BKN038 OVC065 12/11 Q1008 NOSIG",
      "taf": "TAF LCPH 222330Z 2300/2400 03008KT 9999 FEW020 SCT030 BKN050"
    },
    {
      "icao": "LEAL",
      "alert": "OK",
      "vis_m": 9999,
      "fzfg": false,
      "metar_trigger": false,
      "taf_trigger": false,
      "metar": "METAR LEAL 230130Z 28003KT CAVOK 10/10 Q1011 NOSIG",
      "taf": "TAF LEAL 222300Z 2300/2324 VRB04KT 9999 FEW030 TX18/2312Z TN07/2306Z"
    },
    {
      "icao": "LEBB",
      "alert": "OK",
      "vis_m": 9999,
      "fzfg": false,
      "metar_trigger": false,
      "taf_trigger": false,
      "metar": "METAR LEBB 230130Z AUTO 32005KT 9999 SCT028 10/07 Q1017",
      "taf": "TAF LEBB 222300Z 2300/2324 31008KT 9999 FEW020 BKN030 TX16/2315Z TN06/2324Z"
    },
    {
      "icao": "LEBL",
      "alert": "OK",
      "vis_m": 8000,
      "fzfg": false,
      "metar_trigger": false,
      "taf_trigger": false,
      "metar": "METAR LEBL 230130Z 07004KT 040V100 8000 SCT014 BKN022 13/13 Q1012 NOSIG",
      "taf": "TAF LEBL 222300Z 2300/2324 VRB04KT 9999 FEW010 TX16/2312Z TN10/2306Z"
    },
    {
      "icao": "LECH",
      "alert": "OK",
      "vis_m": 9000,
      "fzfg": false,
      "metar_trigger": false,
      "taf_trigger": false,
      "metar": "METAR LECH 230130Z AUTO 23002KT 9000 NCD 12/00 Q1011",
      "taf": "TAF LECH 222300Z 2300/2324 VRB04KT 9999 FEW030 TX16/2312Z TN05/2306Z"
    },
    {
      "icao": "LEMD",
      "alert": "OK",
      "vis_m": 9999,
      "fzfg": false,
      "metar_trigger": false,
      "taf_trigger": false,
      "metar": "METAR LEMD 230130Z 05006KT 320V110 CAVOK 08/01 Q1013 NOSIG",
      "taf": "TAF LEMD 222300Z 2300/2406 VRB04KT CAVOK TX17/2316Z TN03/2306Z"
    },
    {
      "icao": "LEMG",
      "alert": "OK",
      "vis_m": 9999,
      "fzfg": false,
      "metar_trigger": false,
      "taf_trigger": false,
      "metar": "METAR LEMG 230130Z 28005KT CAVOK 09/08 Q1012 NOSIG",
      "taf": "TAF LEMG 222300Z 2300/2324 29005KT 9999 SCT015 TX19/2313Z TN11/2306Z"
    },
    {
      "icao": "LEVC",
      "alert": "OK",
      "vis_m": 9999,
      "fzfg": false,
      "metar_trigger": false,
      "taf_trigger": false,
      "metar": "METAR LEVC 230130Z 25003KT CAVOK 08/06 Q1011 NOSIG",
      "taf": "TAF LEVC 222300Z 2300/2324 30005KT CAVOK TX18/2312Z TN06/2306Z"
    },
    {
      "icao": "LEXJ",
      "alert": "OK",
      "vis_m": 9999,
      "fzfg": false,
      "metar_trigger": false,
      "taf_trigger": false,
      "metar": "METAR LEXJ 230130Z AUTO 33003KT 290V010 9999 BKN036 10/04 Q1017",
      "taf": "TAF LEXJ 222000Z 2221/2321 30008KT 9999 FEW015 SCT025 TX16/2314Z TN09/2307Z"
    },
    {
      "icao": "LEZG",
      "alert": "OK",
      "vis_m": 9999,
      "fzfg": false,
      "metar_trigger": false,
      "taf_trigger": false,
      "metar": "METAR LEZG 230130Z 27010KT CAVOK 10/04 Q1013 NOSIG",
      "taf": "TAF LEZG 222300Z 2300/2324 30015KT CAVOK TX18/2314Z TN08/2306Z"
    },
    {
      "icao": "LEZL",
      "alert": "OK",
      "vis_m": 8000,
      "fzfg": false,
      "metar_trigger": false,
      "taf_trigger": false,
      "metar": "METAR LEZL 230130Z AUTO VRB02KT 8000 NCD 12/12 Q1011",
      "taf": "TAF LEZL 222000Z 2221/2321 18005KT CAVOK TX25/2315Z TN10/2307Z"
    },
    {
      "icao": "LFBD",
      "alert": "OK",
      "vis_m": 9999,
      "fzfg": false,
      "metar_trigger": false,
      "taf_trigger": false,
      "metar": "METAR LFBD 230130Z AUTO VRB02KT CAVOK 06/03 Q1015 NOSIG",
      "taf": "TAF LFBD 222300Z 2300/2406 03005KT CAVOK TX18/2314Z TN05/2306Z"
    },
    {
      "icao": "LFLL",
      "alert": "OK",
      "vis_m": 9999,
      "fzfg": false,
      "metar_trigger": false,
      "taf_trigger": false,
      "metar": "METAR LFLL 230130Z VRB02KT CAVOK 05/03 Q1016 NOSIG",
      "taf": "TAF LFLL 222300Z 2300/2406 VRB02KT CAVOK"
    },
    {
      "icao": "LFLS",
      "alert": "OK",
      "vis_m": 3400,
      "fzfg": false,
      "metar_trigger": false,
      "taf_trigger": false,
      "metar": "METAR LFLS 230130Z AUTO 10007KT 3400 BR SCT004 SCT019 02/02 Q1015",
      "taf": ""
    },
    {
      "icao": "LFMN",
      "alert": "OK",
      "vis_m": 9999,
      "fzfg": false,
      "metar_trigger": false,
      "taf_trigger": false,
      "metar": "METAR LFMN 230130Z 33009KT 9999 BKN100 09/04 Q1014 NOSIG",
      "taf": "TAF LFMN 222000Z 2221/2403 34010KT 9999 OVC100"
    },
    {
      "icao": "LFOB",
      "alert": "OK",
      "vis_m": 3700,
      "fzfg": false,
      "metar_trigger": false,
      "taf_trigger": false,
      "metar": "METAR LFOB 230130Z AUTO 30006KT 3700 BR NSC 03/03 Q1017 TEMPO OVC002",
      "taf": "TAF LFOB 222300Z 2300/2324 02006KT CAVOK"
    },
    {
      "icao": "LFPO",
      "alert": "OK",
      "vis_m": 9000,
      "fzfg": false,
      "metar_trigger": false,
      "taf_trigger": false,
      "metar": "METAR LFPO 230130Z AUTO VRB01KT 9000 NSC 07/04 Q1016 NOSIG",
      "taf": "TAF LFPO 222300Z 2300/2406 36008KT CAVOK"
    },
    {
      "icao": "LFSB",
      "alert": "OK",
      "vis_m": 7000,
      "fzfg": false,
      "metar_trigger": false,
      "taf_trigger": false,
      "metar": "METAR LFSB 230130Z AUTO 00000KT 7000 NSC 02/00 Q1014 NOSIG",
      "taf": "TAF LFSB 222300Z 2300/2324 VRB03KT CAVOK"
    },
    {
      "icao": "LGAV",
      "alert": "OK",
      "vis_m": 9999,
      "fzfg": false,
      "metar_trigger": false,
      "taf_trigger": false,
      "metar": "METAR LGAV 230150Z 35004KT 9999 FEW020 BKN070 10/05 Q1012 NOSIG",
      "taf": "TAF LGAV 222300Z 2300/2324 01013KT 9999 SCT020 SCT070"
    },
    {
      "icao": "LGTS",
      "alert": "OK",
      "vis_m": 9999,
      "fzfg": false,
      "metar_trigger": false,
      "taf_trigger": false,
      "metar": "METAR LGTS 230150Z VRB03KT 9999 -RA FEW012 BKN025 10/07 Q1014 NOSIG",
      "taf": "TAF LGTS 222300Z 2300/2324 VRB03KT 9999 SCT025"
    },
    {
      "icao": "LHBP",
      "alert": "OK",
      "vis_m": 9999,
      "fzfg": false,
      "metar_trigger": false,
      "taf_trigger": false,
      "metar": "METAR LHBP 230130Z 12003KT 060V160 CAVOK 10/M01 Q1015 NOSIG",
      "taf": "TAF LHBP 222315Z 2300/2324 VRB03KT CAVOK"
    },
    {
      "icao": "LHDC",
      "alert": "OK",
      "vis_m": 9999,
      "fzfg": false,
      "metar_trigger": false,
      "taf_trigger": false,
      "metar": "METAR LHDC 230115Z AUTO 09006KT CAVOK 05/M02 Q1015",
      "taf": "TAF LHDC 221715Z 2218/2303 08005KT CAVOK"
    },
    {
      "icao": "LIBD",
      "alert": "OK",
      "vis_m": 9999,
      "fzfg": false,
      "metar_trigger": false,
      "taf_trigger": false,
      "metar": "METAR LIBD 230150Z 25005KT CAVOK 06/04 Q1012",
      "taf": "TAF LIBD 222300Z 2300/2324 22005KT 9999 FEW050"
    },
    {
      "icao": "LIBG",
      "alert": "OK",
      "vis_m": null,
      "fzfg": false,
      "metar_trigger": false,
      "taf_trigger": false,
      "metar": "",
      "taf": "TAF LIBG 221700Z 2218/2303 VRB05KT 9999 SCT040"
    },
    {
      "icao": "LIBP",
      "alert": "OK",
      "vis_m": 9999,
      "fzfg": false,
      "metar_trigger": false,
      "taf_trigger": false,
      "metar": "METAR LIBP 230150Z AUTO 23004KT 9999 OVC073/// 08/07 Q1013",
      "taf": "TAF LIBP 222300Z 2300/2324 24005KT 9999 SCT060"
    },
    {
      "icao": "LIBR",
      "alert": "OK",
      "vis_m": 9999,
      "fzfg": false,
      "metar_trigger": false,
      "taf_trigger": false,
      "metar": "METAR LIBR 230120Z 29003KT CAVOK 09/07 Q1012",
      "taf": "TAF LIBR 222300Z 2300/2324 VRB05KT 9999 FEW050"
    },
    {
      "icao": "LICA",
      "alert": "OK",
      "vis_m": 9999,
      "fzfg": false,
      "metar_trigger": false,
      "taf_trigger": false,
      "metar": "METAR LICA 230150Z AUTO 06004KT 9999 OVC120/// 07/06 Q1012",
      "taf": "TAF LICA 222300Z 2300/2324 VRB06KT 9999 SCT030"
    },
    {
      "icao": "LICC",
      "alert": "OK",
      "vis_m": 9999,
      "fzfg": false,
      "metar_trigger": false,
      "taf_trigger": false,
      "metar": "METAR LICC 230150Z 27004KT 9999 FEW020 SCT060 09/07 Q1012",
      "taf": "TAF LICC 222300Z 2300/2324 VRB05KT 9999 SCT020"
    },
    {
      "icao": "LICJ",
      "alert": "OK",
      "vis_m": 9999,
      "fzfg": false,
      "metar_trigger": false,
      "taf_trigger": false,
      "metar": "METAR LICJ 230150Z 16003KT CAVOK 10/05 Q1011",
      "taf": "TAF LICJ 222300Z 2300/2324 VRB05KT 9999 BKN060"
    },
    {
      "icao": "LIMC",
      "alert": "OK",
      "vis_m": 9999,
      "fzfg": false,
      "metar_trigger": false,
      "taf_trigger": false,
      "metar": "METAR LIMC 230150Z 35004KT CAVOK 04/02 Q1015 NOSIG",
      "taf": "TAF LIMC 222300Z 2300/2406 36005KT 9999 SCT060"
    },
    {
      "icao": "LIME",
      "alert": "OK",
      "vis_m": 9999,
      "fzfg": false,
      "metar_trigger": false,
      "taf_trigger": false,
      "metar": "METAR LIME 230150Z AUTO 01003KT 9999 FEW085/// 07/01 Q1014",
      "taf": "TAF LIME 222300Z 2300/2324 01005KT 9999 SCT070"
    },
    {
      "icao": "LIMF",
      "alert": "OK",
      "vis_m": 9999,
      "fzfg": false,
      "metar_trigger": false,
      "taf_trigger": false,
      "metar": "METAR LIMF 230150Z 29004KT 9999 OVC090 06/01 Q1015",
      "taf": "TAF LIMF 222300Z 2300/2324 VRB05KT 9999 SCT070"
    },
    {
      "icao": "LIMJ",
      "alert": "OK",
      "vis_m": 9999,
      "fzfg": false,
      "metar_trigger": false,
      "taf_trigger": false,
      "metar": "METAR LIMJ 230150Z AUTO 04015KT 9999 NCD 09/02 Q1014",
      "taf": "TAF LIMJ 222300Z 2300/2324 03012KT CAVOK"
    },
    {
      "icao": "LIPE",
      "alert": "OK",
      "vis_m": 9999,
      "fzfg": false,
      "metar_trigger": false,
      "taf_trigger": false,
      "metar": "METAR LIPE 230150Z 23003KT CAVOK 08/04 Q1014",
      "taf": "TAF LIPE 222300Z 2300/2324 VRB05KT 9999 FEW050"
    },
    {
      "icao": "LIPH",
      "alert": "OK",
      "vis_m": 9999,
      "fzfg": false,
      "metar_trigger": false,
      "taf_trigger": false,
      "metar": "METAR LIPH 230150Z AUTO 01003KT 9999 NCD 08/M00 Q1014",
      "taf": "TAF LIPH 222300Z 2300/2324 VRB05KT 9999 SCT060"
    },
    {
      "icao": "LIPQ",
      "alert": "OK",
      "vis_m": 9999,
      "fzfg": false,
      "metar_trigger": false,
      "taf_trigger": false,
      "metar": "METAR LIPQ 230150Z AUTO VRB02KT 9999 BKN140/// 07/00 Q1014",
      "taf": "TAF LIPQ 222300Z 2300/2324 03005KT 9999 FEW060"
    },
    {
      "icao": "LIPR",
      "alert": "OK",
      "vis_m": 9999,
      "fzfg": false,
      "metar_trigger": false,
      "taf_trigger": false,
      "metar": "METAR LIPR 230150Z AUTO 27006KT 9999 BKN062/// 08/06 Q1014",
      "taf": "TAF LIPR 222300Z 2300/2324 VRB05KT 9999 FEW060"
    },
    {
      "icao": "LIPX",
      "alert": "OK",
      "vis_m": 9999,
      "fzfg": false,
      "metar_trigger": false,
      "taf_trigger": false,
      "metar": "METAR LIPX 230150Z 32003KT 9999 SCT080 06/M01 Q1014",
      "taf": "TAF LIPX 222300Z 2300/2324 VRB05KT CAVOK"
    },
    {
      "icao": "LIPY",
      "alert": "OK",
      "vis_m": 9999,
      "fzfg": false,
      "metar_trigger": false,
      "taf_trigger": false,
      "metar": "METAR LIPY 230150Z AUTO 23002KT 9999 BKN048/// BKN079/// BKN110/// 07/07 Q1013",
      "taf": "TAF LIPY 222300Z 2300/2324 VRB05KT 9999 SCT060"
    },
    {
      "icao": "LIPZ",
      "alert": "OK",
      "vis_m": 9999,
      "fzfg": false,
      "metar_trigger": false,
      "taf_trigger": false,
      "metar": "METAR LIPZ 230150Z 02006KT CAVOK 07/00 Q1014 NOSIG",
      "taf": "TAF LIPZ 222300Z 2300/2406 03006KT 9999 SCT060"
    },
    {
      "icao": "LIRF",
      "alert": "OK",
      "vis_m": 9999,
      "fzfg": false,
      "metar_trigger": false,
      "taf_trigger": false,
      "metar": "METAR LIRF 230150Z 36002KT CAVOK 05/04 Q1012 NOSIG",
      "taf": "TAF LIRF 222300Z 2300/2406 VRB05KT 9999 SCT050"
    },
    {
      "icao": "LIRN",
      "alert": "OK",
      "vis_m": 9999,
      "fzfg": false,
      "metar_trigger": false,
      "taf_trigger": false,
      "metar": "METAR LIRN 230150Z 29006KT 9999 FEW040 10/06 Q1012 NOSIG",
      "taf": "TAF LIRN 222300Z 2300/2324 VRB05KT 9999 FEW040"
    },
    {
      "icao": "LIRP",
      "alert": "OK",
      "vis_m": 9999,
      "fzfg": false,
      "metar_trigger": false,
      "taf_trigger": false,
      "metar": "METAR LIRP 230145Z 11004KT CAVOK 04/01 Q1013 NOSIG",
      "taf": "TAF LIRP 222300Z 2300/2324 14004KT 9999 SCT080"
    },
    {
      "icao": "LIRZ",
      "alert": "OK",
      "vis_m": 9999,
      "fzfg": false,
      "metar_trigger": false,
      "taf_trigger": false,
      "metar": "METAR LIRZ 230150Z AUTO 02005KT 9999 NCD 03/01 Q1013",
      "taf": "TAF LIRZ 222300Z 2300/2324 VRB06KT 9999 SCT050"
    },
    {
      "icao": "LJLJ",
      "alert": "OK",
      "vis_m": 9999,
      "fzfg": false,
      "metar_trigger": false,
      "taf_trigger": false,
      "metar": "METAR LJLJ 230130Z VRB02KT 9999 BKN046 01/M01 Q1014 NOSIG",
      "taf": "TAF LJLJ 222300Z 2300/2400 35005KT 9999 FEW050"
    },
    {
      "icao": "LKMT",
      "alert": "OK",
      "vis_m": 9999,
      "fzfg": false,
      "metar_trigger": false,
      "taf_trigger": false,
      "metar": "METAR LKMT 230130Z VRB02KT CAVOK M00/M02 Q1016 NOSIG",
      "taf": "TAF LKMT 222300Z 2300/2324 VRB02KT CAVOK"
    },
    {
      "icao": "LKPR",
      "alert": "OK",
      "vis_m": 9999,
      "fzfg": false,
      "metar_trigger": false,
      "taf_trigger": false,
      "metar": "METAR LKPR 230130Z 00000KT CAVOK 03/M01 Q1015 NOSIG",
      "taf": "TAF LKPR 222300Z 2300/2406 14004KT CAVOK"
    },
    {
      "icao": "LLBG",
      "alert": "OK",
      "vis_m": 9999,
      "fzfg": false,
      "metar_trigger": false,
      "taf_trigger": false,
      "metar": "METAR LLBG 230150Z 12004KT CAVOK 12/07 Q1010 NOSIG RMK BKN075",
      "taf": "TAF LLBG 222301Z 2300/2324 VRB03KT 9999 FEW040 TX20/2312Z TN09/2303Z"
    },
    {
      "icao": "LMML",
      "alert": "OK",
      "vis_m": 9999,
      "fzfg": false,
      "metar_trigger": false,
      "taf_trigger": false,
      "metar": "METAR LMML 230145Z 26003KT 9999 FEW049 10/10 Q1011 NOSIG",
      "taf": "TAF LMML 222300Z 2300/2324 VRB05KT 9999 SCT018"
    },
    {
      "icao": "LOWW",
      "alert": "OK",
      "vis_m": 9999,
      "fzfg": false,
      "metar_trigger": false,
      "taf_trigger": false,
      "metar": "METAR LOWW 230150Z 17003KT CAVOK 01/M02 Q1015 NOSIG",
      "taf": "TAF LOWW 222315Z 2300/2406 VRB04KT 9999 FEW050 TX15/2314Z TN01/2304Z"
    },
    {
      "icao": "LPFR",
      "alert": "OK",
      "vis_m": 9999,
      "fzfg": false,
      "metar_trigger": false,
      "taf_trigger": false,
      "metar": "METAR LPFR 230130Z VRB02KT CAVOK 12/11 Q1011",
      "taf": "TAF LPFR 222300Z 2300/2324 01005KT 9999 FEW030"
    },
    {
      "icao": "LPMA",
      "alert": "OK",
      "vis_m": 9999,
      "fzfg": false,
      "metar_trigger": false,
      "taf_trigger": false,
      "metar": "METAR LPMA 230130Z 02015KT 9999 -SHRA BKN015 FEW018CB 16/13 Q1008",
      "taf": "TAF LPMA 222300Z 2300/2324 02015KT 9999 SCT015"
    },
    {
      "icao": "LPPR",
      "alert": "OK",
      "vis_m": 5000,
      "fzfg": false,
      "metar_trigger": false,
      "taf_trigger": false,
      "metar": "METAR LPPR 230130Z VRB01KT 5000 BR NSC 09/09 Q1013",
      "taf": "TAF LPPR 222300Z 2300/2324 VRB02KT CAVOK"
    },
    {
      "icao": "LPPS",
      "alert": "OK",
      "vis_m": 9999,
      "fzfg": false,
      "metar_trigger": false,
      "taf_trigger": false,
      "metar": "METAR LPPS 230130Z 05018KT 9999 SCT013 FEW018CB 16/13 Q1008",
      "taf": "TAF LPPS 222300Z 2300/2406 06015KT 9999 SCT013"
    },
    {
      "icao": "LPPT",
      "alert": "OK",
      "vis_m": 9999,
      "fzfg": false,
      "metar_trigger": false,
      "taf_trigger": false,
      "metar": "METAR LPPT 230130Z VRB02KT CAVOK 13/10 Q1012",
      "taf": "TAF LPPT 222300Z 2300/2406 33007KT 9999 FEW018"
    },
    {
      "icao": "LQBK",
      "alert": "OK",
      "vis_m": 9999,
      "fzfg": false,
      "metar_trigger": false,
      "taf_trigger": false,
      "metar": "METAR LQBK 230130Z 00000KT CAVOK 02/M01 Q1013 NOSIG",
      "taf": "TAF LQBK 222300Z 2300/2324 34005KT CAVOK TX15/2313Z TN01/2305Z"
    },
    {
      "icao": "LQSA",
      "alert": "OK",
      "vis_m": 9999,
      "fzfg": false,
      "metar_trigger": false,
      "taf_trigger": false,
      "metar": "METAR LQSA 230130Z 15002KT CAVOK 06/01 Q1012",
      "taf": "TAF LQSA 222300Z 2300/2324 VRB02KT 9999 SCT060 TX10/2314Z TN03/2305Z"
    },
    {
      "icao": "LQTZ",
      "alert": "OK",
      "vis_m": 8000,
      "fzfg": false,
      "metar_trigger": false,
      "taf_trigger": false,
      "metar": "METAR LQTZ 230130Z 00000KT 8000 NSC 03/02 Q1013",
      "taf": "TAF LQTZ 222300Z 2300/2324 32005KT 9999 SCT060 TX15/2313Z TN01/2305Z"
    },
    {
      "icao": "LRBC",
      "alert": "OK",
      "vis_m": 9999,
      "fzfg": false,
      "metar_trigger": false,
      "taf_trigger": false,
      "metar": "METAR LRBC 230130Z 35005KT CAVOK 06/01 Q1017",
      "taf": "TAF LRBC 222300Z 2300/2309 VRB04KT 9999 SCT050"
    },
    {
      "icao": "LRBS",
      "alert": "OK",
      "vis_m": 9999,
      "fzfg": false,
      "metar_trigger": false,
      "taf_trigger": false,
      "metar": "METAR LRBS 230130Z 29004KT 9999 OVC044 07/03 Q1015 NOSIG",
      "taf": "TAF LRBS 222300Z 2300/2324 36006KT 9999 BKN045"
    },
    {
      "icao": "LRBV",
      "alert": "OK",
      "vis_m": 9999,
      "fzfg": false,
      "metar_trigger": false,
      "taf_trigger": false,
      "metar": "METAR LRBV 230130Z AUTO 22004KT 9999 OVC049/// 03/01 Q1016",
      "taf": "TAF LRBV 222000Z 2221/2306 08006KT 9999 SCT035 BKN060"
    },
    {
      "icao": "LRCL",
      "alert": "OK",
      "vis_m": 9999,
      "fzfg": false,
      "metar_trigger": false,
      "taf_trigger": false,
      "metar": "METAR LRCL 230130Z 09003KT CAVOK M01/M04 Q1017",
      "taf": "TAF LRCL 222300Z 2300/2309 VRB04KT CAVOK"
    },
    {
      "icao": "LRCV",
      "alert": "OK",
      "vis_m": 9999,
      "fzfg": false,
      "metar_trigger": false,
      "taf_trigger": false,
      "metar": "METAR LRCV 230130Z 34004KT 9999 -RA SCT031 OVC040 06/05 Q1017",
      "taf": "TAF LRCV 222300Z 2300/2309 12006KT 9999 SCT020 BKN030"
    },
    {
      "icao": "LRIA",
      "alert": "OK",
      "vis_m": 9999,
      "fzfg": false,
      "metar_trigger": false,
      "taf_trigger": false,
      "metar": "METAR LRIA 230130Z COR 04005KT CAVOK 08/M01 Q1017",
      "taf": "TAF LRIA 222300Z 2300/2309 VRB04KT CAVOK"
    },
    {
      "icao": "LROP",
      "alert": "OK",
      "vis_m": 9999,
      "fzfg": false,
      "metar_trigger": false,
      "taf_trigger": false,
      "metar": "METAR LROP 230130Z 30004KT 9999 BKN046 07/01 Q1015 NOSIG",
      "taf": "TAF LROP 222300Z 2300/2324 36006KT 9999 BKN045"
    },
    {
      "icao": "LRSB",
      "alert": "OK",
      "vis_m": 9999,
      "fzfg": false,
      "metar_trigger": false,
      "taf_trigger": false,
      "metar": "METAR LRSB 230130Z 27005KT 9999 SCT080 03/M01 Q1016",
      "taf": "TAF LRSB 222300Z 2300/2324 VRB04KT 9999 BKN055"
    },
    {
      "icao": "LRSM",
      "alert": "OK",
      "vis_m": 9999,
      "fzfg": false,
      "metar_trigger": false,
      "taf_trigger": false,
      "metar": "METAR LRSM 230130Z AUTO 10006KT 9999 NCD 06/M04 Q1016",
      "taf": ""
    },
    {
      "icao": "LRSV",
      "alert": "OK",
      "vis_m": 9999,
      "fzfg": false,
      "metar_trigger": false,
      "taf_trigger": false,
      "metar": "METAR LRSV 230130Z 35004KT CAVOK 04/M02 Q1017",
      "taf": "TAF LRSV 222300Z 2300/2309 VRB04KT CAVOK"
    },
    {
      "icao": "LRTM",
      "alert": "OK",
      "vis_m": 9999,
      "fzfg": false,
      "metar_trigger": false,
      "taf_trigger": false,
      "metar": "METAR LRTM 230130Z AUTO 32001KT 9999 NCD 01/M02 Q1017",
      "taf": ""
    },
    {
      "icao": "LRTR",
      "alert": "OK",
      "vis_m": 9999,
      "fzfg": false,
      "metar_trigger": false,
      "taf_trigger": false,
      "metar": "METAR LRTR 230130Z 06003KT CAVOK 05/04 Q1016",
      "taf": "TAF LRTR 222300Z 2300/2324 09006KT 9999 SCT040"
    },
    {
      "icao": "LTAC",
      "alert": "OK",
      "vis_m": 6000,
      "fzfg": false,
      "metar_trigger": false,
      "taf_trigger": false,
      "metar": "METAR LTAC 230150Z 14003KT 6000 SCT040 BKN100 05/04 Q1008 NOSIG RMK RWY21C 00000KT RWY03L 11003KT 070V150 RWY21R VRB01KT RWY03R 06001KT RWY21L 11003KT",
      "taf": "TAF LTAC 222240Z 2300/2324 VRB02KT 9999 SCT040 BKN100"
    },
    {
      "icao": "LTFM",
      "alert": "OK",
      "vis_m": 1800,
      "fzfg": false,
      "metar_trigger": false,
      "taf_trigger": false,
      "metar": "METAR LTFM 230150Z 33014KT 1800 0600NW R35R/P1500N R17L/P1500N R34L/0600N R36/P1500N -RA BCFG BKN002 BKN018 07/07 Q1012 NOSIG RMK RWY17L 34013KT RWY34L 31008KT RWY16R 33009KT RWY36 34014KT RWY18 35012KT",
      "taf": "TAF LTFM 222240Z 2300/2406 03014KT 1600 BR BKN004 BKN020"
    },
    {
      "icao": "LUKK",
      "alert": "OK",
      "vis_m": 9999,
      "fzfg": false,
      "metar_trigger": false,
      "taf_trigger": false,
      "metar": "METAR LUKK 230130Z 01008KT CAVOK 06/00 Q1017 NOSIG",
      "taf": "TAF LUKK 222303Z 2300/2324 03006KT 9999 SCT045"
    },
    {
      "icao": "LWOH",
      "alert": "OK",
      "vis_m": null,
      "fzfg": false,
      "metar_trigger": false,
      "taf_trigger": false,
      "metar": "",
      "taf": "TAF LWOH 222330Z 2300/2324 34006KT 9999 BKN040"
    },
    {
      "icao": "LWSK",
      "alert": "OK",
      "vis_m": 9999,
      "fzfg": false,
      "metar_trigger": false,
      "taf_trigger": false,
      "metar": "METAR LWSK 230150Z 16002KT 9999 -RA SCT036 BKN070 07/06 Q1014 NOSIG",
      "taf": "TAF LWSK 222330Z 2300/2324 VRB02KT 9999 SCT040 BKN070"
    },
    {
      "icao": "LYBE",
      "alert": "OK",
      "vis_m": 9999,
      "fzfg": false,
      "metar_trigger": false,
      "taf_trigger": false,
      "metar": "METAR LYBE 230130Z 11008KT CAVOK 07/02 Q1015 NOSIG",
      "taf": "TAF LYBE 222300Z 2300/2324 10010KT CAVOK TX15/2313Z TN06/2305Z"
    },
    {
      "icao": "LYNI",
      "alert": "OK",
      "vis_m": 9999,
      "fzfg": false,
      "metar_trigger": false,
      "taf_trigger": false,
      "metar": "METAR LYNI 230130Z 23001KT CAVOK 05/02 Q1014 NOSIG",
      "taf": "TAF LYNI 222300Z 2300/2324 05004KT CAVOK TX14/2313Z TN03/2305Z"
    },
    {
      "icao": "LYPG",
      "alert": "OK",
      "vis_m": 9999,
      "fzfg": false,
      "metar_trigger": false,
      "taf_trigger": false,
      "metar": "METAR LYPG 230130Z VRB02KT 9999 BKN080 10/03 Q1012 NOSIG",
      "taf": "TAF LYPG 222300Z 2300/2324 35005KT 9999 BKN090 TX17/2313Z TN08/2304Z"
    },
    {
      "icao": "LZIB",
      "alert": "OK",
      "vis_m": 9999,
      "fzfg": false,
      "metar_trigger": false,
      "taf_trigger": false,
      "metar": "METAR LZIB 230130Z 04003KT CAVOK 05/M01 Q1015 NOSIG",
      "taf": "TAF LZIB 222315Z 2300/2400 05007KT CAVOK"
    },
    {
      "icao": "LZKZ",
      "alert": "OK",
      "vis_m": 9999,
      "fzfg": false,
      "metar_trigger": false,
      "taf_trigger": false,
      "metar": "METAR LZKZ 230130Z 36009KT CAVOK 07/M02 Q1016 NOSIG",
      "taf": "TAF LZKZ 222315Z 2300/2400 01005KT CAVOK"
    },
    {
      "icao": "LZTT",
      "alert": "OK",
      "vis_m": 9999,
      "fzfg": false,
      "metar_trigger": false,
      "taf_trigger": false,
      "metar": "METAR LZTT 230130Z 30006KT CAVOK M02/M04 Q1016",
      "taf": "TAF LZTT 222315Z 2300/2400 26005KT 9999 FEW060"
    },
    {
      "icao": "OEJN",
      "alert": "OK",
      "vis_m": 9999,
      "fzfg": false,
      "metar_trigger": false,
      "taf_trigger": false,
      "metar": "METAR OEJN 230100Z 00000KT CAVOK 24/05 Q1008 NOSIG",
      "taf": "TAF OEJN 222300Z 2300/2406 VRB03KT CAVOK"
    },
    {
      "icao": "OEMA",
      "alert": "OK",
      "vis_m": 9999,
      "fzfg": false,
      "metar_trigger": false,
      "taf_trigger": false,
      "metar": "METAR OEMA 230100Z 16003KT CAVOK 21/M02 Q1012 NOSIG",
      "taf": "TAF OEMA 222300Z 2300/2406 VRB03KT CAVOK"
    },
    {
      "icao": "OJAI",
      "alert": "OK",
      "vis_m": 4000,
      "fzfg": false,
      "metar_trigger": false,
      "taf_trigger": false,
      "metar": "METAR OJAI 230100Z 36004KT 4000 BR NSC 05/04 Q1012 NOSIG",
      "taf": "TAF OJAI 222300Z 2300/2406 24012KT 4000 BR FEW025TCU SCT030"
    },
    {
      "icao": "OMAA",
      "alert": "OK",
      "vis_m": null,
      "fzfg": false,
      "metar_trigger": false,
      "taf_trigger": false,
      "metar": "",
      "taf": ""
    },
    {
      "icao": "OMDB",
      "alert": "OK",
      "vis_m": null,
      "fzfg": false,
      "metar_trigger": false,
      "taf_trigger": false,
      "metar": "",
      "taf": ""
    },
    {
      "icao": "UAAA",
      "alert": "OK",
      "vis_m": 9999,
      "fzfg": false,
      "metar_trigger": false,
      "taf_trigger": false,
      "metar": "METAR UAAA 230130Z 25002MPS 9999 FEW100 SCT200 08/01 Q1016 NOSIG",
      "taf": "TAF UAAA 222301Z 2300/2324 28003G08MPS 9999 SCT050CB BKN100 TX18/2309Z TN06/2301Z"
    },
    {
      "icao": "UBBB",
      "alert": "OK",
      "vis_m": 9999,
      "fzfg": false,
      "metar_trigger": false,
      "taf_trigger": false,
      "metar": "METAR UBBB 230130Z 33006KT 9999 FEW060CB 08/07 Q1012 NOSIG",
      "taf": "TAF UBBB 222317Z 2300/2324 34008KT 9999 FEW050CB TX14/2310Z TN06/2301Z"
    },
    {
      "icao": "UDSG",
      "alert": "OK",
      "vis_m": 9000,
      "fzfg": false,
      "metar_trigger": false,
      "taf_trigger": false,
      "metar": "METAR UDSG 230130Z 08006KT 9000 -RA OVC030 01/01 Q1012 NOSIG",
      "taf": "TAF UDSG 222300Z 2300/2324 03006KT 9999 BKN040"
    },
    {
      "icao": "UDYZ",
      "alert": "OK",
      "vis_m": 9999,
      "fzfg": false,
      "metar_trigger": false,
      "taf_trigger": false,
      "metar": "METAR UDYZ 230130Z 23004KT 9999 -SHRA BKN033CB 09/07 Q1010 NOSIG",
      "taf": "TAF UDYZ 222300Z 2300/2324 14006KT 9999 SCT040"
    },
    {
      "icao": "UGKO",
      "alert": "OK",
      "vis_m": 3200,
      "fzfg": false,
      "metar_trigger": false,
      "taf_trigger": false,
      "metar": "METAR UGKO 230130Z 30003KT 3200 RA FEW008 SCT014 BKN016 09/08 Q1009 NOSIG",
      "taf": "TAF UGKO 222300Z 2300/2324 26006KT 9999 SCT012 BKN022 TX16/2311Z TN08/2303Z"
    }
  ]
}