{
  "ts_utc": "2026-05-12T23:19:00Z",
  "threshold_m": 150,
  "source": "stations_override.txt (ICAO list) + aviationweather.gov (METAR/TAF raw)",
  "station_count": 159,
  "stations": [
    {
      "icao": "BIKF",
      "alert": "OK",
      "vis_m": 9999,
      "fzfg": false,
      "metar_trigger": false,
      "taf_trigger": false,
      "metar": "METAR BIKF 122300Z 02014KT 9999 SCT031 04/00 Q1016",
      "taf": "TAF BIKF 122225Z 1300/1400 36015KT 9999 FEW020 SCT035 TX06/1316Z TN02/1302Z"
    },
    {
      "icao": "BKPR",
      "alert": "OK",
      "vis_m": 9999,
      "fzfg": false,
      "metar_trigger": false,
      "taf_trigger": false,
      "metar": "METAR BKPR 122300Z 31008KT 270V340 9999 BKN050 12/10 Q1007 NOSIG",
      "taf": ""
    },
    {
      "icao": "EBCI",
      "alert": "OK",
      "vis_m": 9999,
      "fzfg": false,
      "metar_trigger": false,
      "taf_trigger": false,
      "metar": "METAR EBCI 122250Z 23011KT CAVOK 09/05 Q1009 NOSIG",
      "taf": "TAF EBCI 121700Z 1218/1324 26007KT 9999 BKN045"
    },
    {
      "icao": "EDDB",
      "alert": "OK",
      "vis_m": 9999,
      "fzfg": false,
      "metar_trigger": false,
      "taf_trigger": false,
      "metar": "METAR EDDB 122250Z AUTO 24007KT 9999 FEW030 07/06 Q1006 NOSIG",
      "taf": "TAF EDDB 121700Z 1218/1318 27010KT 9999 SCT014 BKN020"
    },
    {
      "icao": "EDDH",
      "alert": "OK",
      "vis_m": 9999,
      "fzfg": false,
      "metar_trigger": false,
      "taf_trigger": false,
      "metar": "METAR EDDH 122250Z AUTO 23009KT 9999 -RA SCT037 07/03 Q1005 BECMG 17006KT",
      "taf": "TAF EDDH 121700Z 1218/1324 28010KT 9999 FEW030"
    },
    {
      "icao": "EDDK",
      "alert": "OK",
      "vis_m": 9999,
      "fzfg": false,
      "metar_trigger": false,
      "taf_trigger": false,
      "metar": "METAR EDDK 122250Z AUTO 19006KT CAVOK 10/04 Q1008 NOSIG",
      "taf": "TAF EDDK 121700Z 1218/1324 28008KT 9999 SCT040"
    },
    {
      "icao": "EDDN",
      "alert": "OK",
      "vis_m": 9999,
      "fzfg": false,
      "metar_trigger": false,
      "taf_trigger": false,
      "metar": "METAR EDDN 122250Z AUTO 22005KT CAVOK 06/01 Q1011",
      "taf": "TAF EDDN 121700Z 1218/1318 28010KT 9999 FEW040"
    },
    {
      "icao": "EDDS",
      "alert": "OK",
      "vis_m": 9999,
      "fzfg": false,
      "metar_trigger": false,
      "taf_trigger": false,
      "metar": "METAR EDDS 122250Z AUTO 26003KT CAVOK 04/01 Q1011",
      "taf": "TAF EDDS 121700Z 1218/1318 28008KT 9999 FEW045"
    },
    {
      "icao": "EDFH",
      "alert": "OK",
      "vis_m": 9999,
      "fzfg": false,
      "metar_trigger": false,
      "taf_trigger": false,
      "metar": "METAR EDFH 122250Z 24008KT 200V260 CAVOK 06/02 Q1010",
      "taf": "TAF EDFH 121700Z 1218/1318 25008KT 9999 SCT035"
    },
    {
      "icao": "EDJA",
      "alert": "OK",
      "vis_m": 9999,
      "fzfg": false,
      "metar_trigger": false,
      "taf_trigger": false,
      "metar": "METAR EDJA 122250Z AUTO 16002KT 9999 // FEW088/// OVC100/// 02/00 Q1012",
      "taf": "TAF EDJA 121700Z 1218/1303 28008KT 9999 BKN050"
    },
    {
      "icao": "EDLW",
      "alert": "OK",
      "vis_m": 9999,
      "fzfg": false,
      "metar_trigger": false,
      "taf_trigger": false,
      "metar": "METAR EDLW 122250Z AUTO 21014KT 9999 // BKN037/// BKN075/// OVC088/// 09/04 Q1007",
      "taf": "TAF EDLW 121700Z 1218/1318 28010KT 9999 SCT040"
    },
    {
      "icao": "EDNY",
      "alert": "OK",
      "vis_m": 9999,
      "fzfg": false,
      "metar_trigger": false,
      "taf_trigger": false,
      "metar": "METAR EDNY 122250Z AUTO 03004KT 9999 // BKN100/// 04/02 Q1012",
      "taf": "TAF EDNY 121700Z 1218/1303 VRB03KT CAVOK"
    },
    {
      "icao": "EDSB",
      "alert": "OK",
      "vis_m": 9999,
      "fzfg": false,
      "metar_trigger": false,
      "taf_trigger": false,
      "metar": "METAR EDSB 122250Z AUTO 21004KT 9999 FEW085/// 07/03 Q1012",
      "taf": "TAF EDSB 121700Z 1218/1318 23004KT CAVOK"
    },
    {
      "icao": "EETN",
      "alert": "OK",
      "vis_m": 9999,
      "fzfg": false,
      "metar_trigger": false,
      "taf_trigger": false,
      "metar": "METAR EETN 122250Z 18002KT CAVOK 12/11 Q0997",
      "taf": "TAF EETN 121730Z 1218/1318 11005KT 9999 SCT045"
    },
    {
      "icao": "EFTU",
      "alert": "OK",
      "vis_m": 9999,
      "fzfg": false,
      "metar_trigger": false,
      "taf_trigger": false,
      "metar": "METAR EFTU 122250Z AUTO 06002KT 9999 -RA OVC025 09/09 Q0997",
      "taf": "TAF EFTU 122030Z 1221/1321 08004KT 9000 -SHRA FEW003 SCT030"
    },
    {
      "icao": "EGBB",
      "alert": "OK",
      "vis_m": 9999,
      "fzfg": false,
      "metar_trigger": false,
      "taf_trigger": false,
      "metar": "METAR EGBB 122250Z 25005KT 210V270 CAVOK 09/03 Q1009",
      "taf": "TAF EGBB 122255Z 1300/1324 25007KT 9999 FEW045"
    },
    {
      "icao": "EGGP",
      "alert": "OK",
      "vis_m": 9999,
      "fzfg": false,
      "metar_trigger": false,
      "taf_trigger": false,
      "metar": "METAR EGGP 122250Z 24010KT 9999 SCT036 BKN046 09/05 Q1008 RESHRA",
      "taf": "TAF EGGP 122255Z 1300/1324 25010KT 9999 SCT040"
    },
    {
      "icao": "EGGW",
      "alert": "OK",
      "vis_m": 9999,
      "fzfg": false,
      "metar_trigger": false,
      "taf_trigger": false,
      "metar": "METAR EGGW 122250Z AUTO 26007KT 9999 FEW047 06/02 Q1009",
      "taf": "TAF EGGW 122257Z 1300/1324 25010KT 9999 FEW040"
    },
    {
      "icao": "EGKK",
      "alert": "OK",
      "vis_m": 9999,
      "fzfg": false,
      "metar_trigger": false,
      "taf_trigger": false,
      "metar": "METAR EGKK 122250Z 25006KT CAVOK 09/02 Q1011",
      "taf": "TAF EGKK 122302Z 1300/1406 23007KT 9999 SCT035"
    },
    {
      "icao": "EGNM",
      "alert": "OK",
      "vis_m": 9999,
      "fzfg": false,
      "metar_trigger": false,
      "taf_trigger": false,
      "metar": "METAR EGNM 122250Z 25006KT CAVOK 06/04 Q1006",
      "taf": "TAF EGNM 122253Z 1300/1324 25008KT 9999 SCT040"
    },
    {
      "icao": "EGPD",
      "alert": "OK",
      "vis_m": 9999,
      "fzfg": false,
      "metar_trigger": false,
      "taf_trigger": false,
      "metar": "METAR EGPD 122250Z COR AUTO 24005KT 9999 NCD 06/01 Q1000 NOSIG",
      "taf": "TAF EGPD 122254Z 1300/1324 27003KT 9999 FEW045"
    },
    {
      "icao": "EGPF",
      "alert": "OK",
      "vis_m": 9999,
      "fzfg": false,
      "metar_trigger": false,
      "taf_trigger": false,
      "metar": "METAR EGPF 122250Z AUTO 23005KT 9999 FEW032 SCT041 07/05 Q1002",
      "taf": "TAF EGPF 122257Z 1300/1324 24006KT 9999 SCT020"
    },
    {
      "icao": "EHBK",
      "alert": "OK",
      "vis_m": 9999,
      "fzfg": false,
      "metar_trigger": false,
      "taf_trigger": false,
      "metar": "METAR EHBK 122255Z AUTO 23013KT 9999 BKN042/// OVC048/// 10/04 Q1008",
      "taf": "TAF EHBK 121710Z 1218/1324 23010KT 9999 BKN045"
    },
    {
      "icao": "EHEH",
      "alert": "OK",
      "vis_m": 9999,
      "fzfg": false,
      "metar_trigger": false,
      "taf_trigger": false,
      "metar": "METAR EHEH 122255Z AUTO 24005KT 210V270 9999 FEW015CB SCT065 OVC075 09/07 Q1007 RERA BLU",
      "taf": "TAF EHEH 121751Z 1218/1324 23008KT 9999 BKN045"
    },
    {
      "icao": "EKBI",
      "alert": "OK",
      "vis_m": 9999,
      "fzfg": false,
      "metar_trigger": false,
      "taf_trigger": false,
      "metar": "METAR EKBI 122250Z AUTO 12004KT 9999 FEW018/// SCT064/// BKN100/// 05/02 Q1002",
      "taf": "TAF EKBI 122027Z 1221/1321 29009KT 9999 SCT040"
    },
    {
      "icao": "EKCH",
      "alert": "OK",
      "vis_m": 9999,
      "fzfg": false,
      "metar_trigger": false,
      "taf_trigger": false,
      "metar": "METAR EKCH 122250Z AUTO 28009KT 9999 OVC075/// 09/06 Q1002 NOSIG",
      "taf": "TAF EKCH 122027Z 1221/1321 29006KT 9999 BKN025"
    },
    {
      "icao": "ENAL",
      "alert": "OK",
      "vis_m": 9999,
      "fzfg": false,
      "metar_trigger": false,
      "taf_trigger": false,
      "metar": "METAR ENAL 122250Z AUTO 27001KT 9999 NCD 03/02 Q1000",
      "taf": "TAF ENAL 122000Z 1221/1306 28006KT 9999 FEW020"
    },
    {
      "icao": "ENBR",
      "alert": "OK",
      "vis_m": 9999,
      "fzfg": false,
      "metar_trigger": false,
      "taf_trigger": false,
      "metar": "METAR ENBR 122250Z 16005KT 9999 -RA FEW021 OVC030 05/03 Q1000 RMK WIND 1200FT 15013KT",
      "taf": ""
    },
    {
      "icao": "ENGM",
      "alert": "OK",
      "vis_m": 9999,
      "fzfg": false,
      "metar_trigger": false,
      "taf_trigger": false,
      "metar": "METAR ENGM 122250Z 21004KT 180V250 CAVOK 08/00 Q1000",
      "taf": "TAF ENGM 121700Z 1218/1318 VRB05KT CAVOK"
    },
    {
      "icao": "ENHD",
      "alert": "OK",
      "vis_m": 9999,
      "fzfg": false,
      "metar_trigger": false,
      "taf_trigger": false,
      "metar": "METAR ENHD 122250Z AUTO 13009KT 9999 BKN010/// OVC023/// 06/04 Q0999",
      "taf": "TAF ENHD 121400Z 1215/1222 18010KT 9999 -RA SCT020"
    },
    {
      "icao": "ENTC",
      "alert": "OK",
      "vis_m": 9999,
      "fzfg": false,
      "metar_trigger": false,
      "taf_trigger": false,
      "metar": "METAR ENTC 122250Z 21013KT 9999 SCT018 BKN020 06/03 Q1001 REDZ RERA RMK WIND 2600FT 24015KT",
      "taf": ""
    },
    {
      "icao": "ENTO",
      "alert": "OK",
      "vis_m": 9999,
      "fzfg": false,
      "metar_trigger": false,
      "taf_trigger": false,
      "metar": "METAR ENTO 122250Z AUTO 21002KT 9999 NCD 07/02 Q1000",
      "taf": "TAF ENTO 121700Z 1218/1318 26010KT 9999 FEW040"
    },
    {
      "icao": "ENVA",
      "alert": "OK",
      "vis_m": 9999,
      "fzfg": false,
      "metar_trigger": false,
      "taf_trigger": false,
      "metar": "METAR ENVA 122250Z AUTO 11007KT 9999 NCD 04/M04 Q1001 RMK WIND 670FT 10010KT",
      "taf": "TAF ENVA 121700Z 1218/1318 06008KT CAVOK"
    },
    {
      "icao": "ENZV",
      "alert": "OK",
      "vis_m": 9999,
      "fzfg": false,
      "metar_trigger": false,
      "taf_trigger": false,
      "metar": "METAR ENZV 122250Z 17006KT 9999 -RA FEW016 BKN026 06/04 Q1000",
      "taf": ""
    },
    {
      "icao": "EPGD",
      "alert": "OK",
      "vis_m": 9999,
      "fzfg": false,
      "metar_trigger": false,
      "taf_trigger": false,
      "metar": "METAR EPGD 122300Z 22007KT 9999 BKN030 07/05 Q1001",
      "taf": "TAF EPGD 121730Z 1218/1318 27015KT 9999 BKN030"
    },
    {
      "icao": "EPKK",
      "alert": "OK",
      "vis_m": 9999,
      "fzfg": false,
      "metar_trigger": false,
      "taf_trigger": false,
      "metar": "METAR EPKK 122300Z 27011KT 9999 FEW050 07/01 Q1006",
      "taf": "TAF EPKK 122030Z 1221/1321 27010KT 9999 BKN050"
    },
    {
      "icao": "EPKT",
      "alert": "OK",
      "vis_m": 9999,
      "fzfg": false,
      "metar_trigger": false,
      "taf_trigger": false,
      "metar": "METAR EPKT 122300Z 27008KT CAVOK 04/01 Q1006",
      "taf": "TAF EPKT 121730Z 1218/1318 30007KT 9999 SCT045"
    },
    {
      "icao": "EPLB",
      "alert": "OK",
      "vis_m": 9999,
      "fzfg": false,
      "metar_trigger": false,
      "taf_trigger": false,
      "metar": "METAR EPLB 122300Z 28006KT CAVOK 09/05 Q1002",
      "taf": "TAF EPLB 121730Z 1218/1318 30012KT 9999 BKN030"
    },
    {
      "icao": "EPMO",
      "alert": "OK",
      "vis_m": 9999,
      "fzfg": false,
      "metar_trigger": false,
      "taf_trigger": false,
      "metar": "METAR EPMO 122300Z 25008KT CAVOK 07/03 Q1003",
      "taf": "TAF EPMO 121730Z 1218/1318 27010KT CAVOK"
    },
    {
      "icao": "EPPO",
      "alert": "OK",
      "vis_m": 9999,
      "fzfg": false,
      "metar_trigger": false,
      "taf_trigger": false,
      "metar": "METAR EPPO 122300Z 24007KT CAVOK 05/03 Q1005",
      "taf": "TAF EPPO 121730Z 1218/1318 28012KT CAVOK"
    },
    {
      "icao": "EPRA",
      "alert": "OK",
      "vis_m": 9999,
      "fzfg": false,
      "metar_trigger": false,
      "taf_trigger": false,
      "metar": "METAR EPRA 122300Z 28007KT CAVOK 08/00 Q1004",
      "taf": "TAF EPRA 122030Z 1221/1306 26008KT CAVOK"
    },
    {
      "icao": "EPRZ",
      "alert": "OK",
      "vis_m": 9999,
      "fzfg": false,
      "metar_trigger": false,
      "taf_trigger": false,
      "metar": "METAR EPRZ 122300Z 26008KT CAVOK 08/06 Q1004",
      "taf": "TAF EPRZ 121730Z 1218/1318 29005KT 9999 BKN040"
    },
    {
      "icao": "EPSC",
      "alert": "OK",
      "vis_m": 2700,
      "fzfg": false,
      "metar_trigger": false,
      "taf_trigger": false,
      "metar": "METAR EPSC 122300Z 26011KT 2700 -SHRA FEW003 SCT027 BKN037CB 07/07 Q1003",
      "taf": ""
    },
    {
      "icao": "EPSY",
      "alert": "OK",
      "vis_m": 450,
      "fzfg": false,
      "metar_trigger": false,
      "taf_trigger": false,
      "metar": "METAR EPSY 122300Z 20004KT 0450 R01/0700U FG BKN002 06/06 Q1001",
      "taf": "TAF EPSY 122030Z 1221/1306 23004KT 6000 NSC"
    },
    {
      "icao": "EPWA",
      "alert": "OK",
      "vis_m": 9999,
      "fzfg": false,
      "metar_trigger": false,
      "taf_trigger": false,
      "metar": "METAR EPWA 122300Z 26009KT CAVOK 08/02 Q1003 NOSIG",
      "taf": "TAF EPWA 122030Z 1221/1321 26010KT CAVOK"
    },
    {
      "icao": "EPWR",
      "alert": "OK",
      "vis_m": 9999,
      "fzfg": false,
      "metar_trigger": false,
      "taf_trigger": false,
      "metar": "METAR EPWR 122300Z 27005KT 9999 SCT034 05/03 Q1007",
      "taf": "TAF EPWR 122030Z 1221/1321 27010KT CAVOK"
    },
    {
      "icao": "ESGG",
      "alert": "OK",
      "vis_m": 9999,
      "fzfg": false,
      "metar_trigger": false,
      "taf_trigger": false,
      "metar": "METAR ESGG 122250Z 30005KT CAVOK 06/04 Q1000",
      "taf": "TAF ESGG 122030Z 1221/1321 32005KT CAVOK"
    },
    {
      "icao": "ESKN",
      "alert": "OK",
      "vis_m": 5000,
      "fzfg": false,
      "metar_trigger": false,
      "taf_trigger": false,
      "metar": "METAR ESKN 122250Z 33008KT 5000 BR OVC003 06/06 Q0998 REDZ",
      "taf": "TAF ESKN 122030Z 1221/1321 35010KT 8000 OVC006"
    },
    {
      "icao": "ESMS",
      "alert": "OK",
      "vis_m": 9999,
      "fzfg": false,
      "metar_trigger": false,
      "taf_trigger": false,
      "metar": "METAR ESMS 122250Z 29003KT CAVOK 06/05 Q1001",
      "taf": "TAF ESMS 122027Z 1221/1321 31007KT 9999 BKN025"
    },
    {
      "icao": "ESSA",
      "alert": "OK",
      "vis_m": 4000,
      "fzfg": false,
      "metar_trigger": false,
      "taf_trigger": false,
      "metar": "METAR ESSA 122250Z 35010KT 4000 -DZ OVC003 05/05 Q0997 TEMPO 2000",
      "taf": "TAF ESSA 122030Z 1221/1321 36010KT 8000 OVC003"
    },
    {
      "icao": "EYKA",
      "alert": "OK",
      "vis_m": 6000,
      "fzfg": false,
      "metar_trigger": false,
      "taf_trigger": false,
      "metar": "METAR EYKA 122250Z AUTO 29008KT 6000 -SHRA OVC005/// 07/07 Q0999",
      "taf": "TAF EYKA 121720Z 1218/1318 29008KT 5000 RA OVC005"
    },
    {
      "icao": "EYPA",
      "alert": "OK",
      "vis_m": 3600,
      "fzfg": false,
      "metar_trigger": false,
      "taf_trigger": false,
      "metar": "METAR EYPA 122250Z AUTO VRB02KT 3600 -DZ OVC001/// 07/07 Q0999",
      "taf": "TAF EYPA 121719Z 1218/1318 25005KT 5000 BR OVC005"
    },
    {
      "icao": "EYVI",
      "alert": "OK",
      "vis_m": 9000,
      "fzfg": false,
      "metar_trigger": false,
      "taf_trigger": false,
      "metar": "METAR EYVI 122250Z 30008KT 260V340 9000 -RA OVC004 08/07 Q0998 NOSIG",
      "taf": "TAF EYVI 121733Z 1218/1318 30010KT 5000 -RA OVC002"
    },
    {
      "icao": "GCFV",
      "alert": "OK",
      "vis_m": 9999,
      "fzfg": false,
      "metar_trigger": false,
      "taf_trigger": false,
      "metar": "METAR GCFV 122300Z AUTO 04011KT 9999 FEW019 BKN034 20/15 Q1022",
      "taf": "TAF GCFV 122000Z 1221/1321 35009KT 9999 SCT025 TX23/1314Z TN17/1306Z"
    },
    {
      "icao": "GCLP",
      "alert": "OK",
      "vis_m": 9999,
      "fzfg": false,
      "metar_trigger": false,
      "taf_trigger": false,
      "metar": "METAR GCLP 122300Z 36008KT 9999 FEW035 19/13 Q1022 NOSIG",
      "taf": "TAF GCLP 122000Z 1221/1321 01013KT 9999 SCT030 TX23/1314Z TN17/1306Z"
    },
    {
      "icao": "GCTS",
      "alert": "OK",
      "vis_m": 9999,
      "fzfg": false,
      "metar_trigger": false,
      "taf_trigger": false,
      "metar": "METAR GCTS 122300Z 06009KT 9999 SCT040 19/12 Q1022 NOSIG",
      "taf": "TAF GCTS 122000Z 1221/1321 04009KT 9999 SCT040 TX24/1314Z TN16/1306Z"
    },
    {
      "icao": "GMAD",
      "alert": "OK",
      "vis_m": 8000,
      "fzfg": false,
      "metar_trigger": false,
      "taf_trigger": false,
      "metar": "METAR GMAD 122300Z 18013KT 8000 NSC 18/13 Q1019 NOSIG",
      "taf": "TAF GMAD 122300Z 1300/1406 06012KT 8000 SCT020"
    },
    {
      "icao": "GMMN",
      "alert": "OK",
      "vis_m": 9999,
      "fzfg": false,
      "metar_trigger": false,
      "taf_trigger": false,
      "metar": "METAR GMMN 122300Z 04008KT 9999 FEW016 15/12 Q1021 NOSIG",
      "taf": "TAF GMMN 122300Z 1300/1406 04006KT CAVOK"
    },
    {
      "icao": "GMMX",
      "alert": "OK",
      "vis_m": 9999,
      "fzfg": false,
      "metar_trigger": false,
      "taf_trigger": false,
      "metar": "METAR GMMX 122300Z 04004KT 9999 FEW026 SCT200 19/10 Q1020 NOSIG",
      "taf": "TAF GMMX 121700Z 1218/1324 26006KT 9999 SCT090 SCT200"
    },
    {
      "icao": "HEGN",
      "alert": "OK",
      "vis_m": 9999,
      "fzfg": false,
      "metar_trigger": false,
      "taf_trigger": false,
      "metar": "METAR HEGN 122200Z 28007KT CAVOK 31/M03 Q1008 NOSIG",
      "taf": "TAF HEGN 122300Z 1300/1406 29010KT CAVOK"
    },
    {
      "icao": "HEMA",
      "alert": "OK",
      "vis_m": 9999,
      "fzfg": false,
      "metar_trigger": false,
      "taf_trigger": false,
      "metar": "METAR HEMA 122200Z 22007KT CAVOK 28/M05 Q1008 NOSIG",
      "taf": "TAF HEMA 122300Z 1300/1406 30014KT CAVOK"
    },
    {
      "icao": "HESH",
      "alert": "OK",
      "vis_m": 9999,
      "fzfg": false,
      "metar_trigger": false,
      "taf_trigger": false,
      "metar": "METAR HESH 122200Z 35006KT CAVOK 32/03 Q1008 NOSIG",
      "taf": "TAF HESH 122300Z 1300/1406 32010KT CAVOK"
    },
    {
      "icao": "HESX",
      "alert": "OK",
      "vis_m": 9999,
      "fzfg": false,
      "metar_trigger": false,
      "taf_trigger": false,
      "metar": "METAR HESX 122200Z 33006KT CAVOK 18/13 Q1012 NOSIG",
      "taf": "TAF HESX 122300Z 1300/1406 36007KT CAVOK"
    },
    {
      "icao": "LATI",
      "alert": "OK",
      "vis_m": null,
      "fzfg": false,
      "metar_trigger": false,
      "taf_trigger": false,
      "metar": "",
      "taf": "TAF LATI 122300Z 1300/1324 VRB05KT 9999 SCT040 BKN080 TX23/1311Z TN15/1304Z"
    },
    {
      "icao": "LBPD",
      "alert": "OK",
      "vis_m": 9999,
      "fzfg": false,
      "metar_trigger": false,
      "taf_trigger": false,
      "metar": "METAR LBPD 122300Z AUTO 17003KT 150V210 9999 FEW093/// 12/12 Q1004",
      "taf": "TAF LBPD 122300Z 1300/1324 VRB04KT 9999 SCT040 BKN060"
    },
    {
      "icao": "LBSF",
      "alert": "OK",
      "vis_m": 9999,
      "fzfg": false,
      "metar_trigger": false,
      "taf_trigger": false,
      "metar": "METAR LBSF 122300Z AUTO 05003KT 020V080 9999 NSC 10/09 Q1006 NOSIG",
      "taf": "TAF LBSF 122300Z 1300/1324 32012KT 9999 SCT040 BKN060"
    },
    {
      "icao": "LBWN",
      "alert": "OK",
      "vis_m": 9999,
      "fzfg": false,
      "metar_trigger": false,
      "taf_trigger": false,
      "metar": "METAR LBWN 122300Z AUTO VRB01KT 9999 NCD 13/13 Q1002 NOSIG",
      "taf": "TAF LBWN 122300Z 1300/1324 30008KT 9999 SCT040"
    },
    {
      "icao": "LCLK",
      "alert": "OK",
      "vis_m": 9999,
      "fzfg": false,
      "metar_trigger": false,
      "taf_trigger": false,
      "metar": "METAR LCLK 122300Z 31011KT CAVOK 20/16 Q1006 NOSIG",
      "taf": "TAF LCLK 121730Z 1218/1318 21010KT 9999 FEW010"
    },
    {
      "icao": "LCPH",
      "alert": "OK",
      "vis_m": 9000,
      "fzfg": false,
      "metar_trigger": false,
      "taf_trigger": false,
      "metar": "METAR LCPH 122300Z 33011KT 9000 BKN005 19/18 Q1008 TEMPO SCT005",
      "taf": "TAF LCPH 121730Z 1218/1318 32009KT 9999 FEW010"
    },
    {
      "icao": "LEAL",
      "alert": "OK",
      "vis_m": 9999,
      "fzfg": false,
      "metar_trigger": false,
      "taf_trigger": false,
      "metar": "METAR LEAL 122300Z 26006KT CAVOK 19/08 Q1017 NOSIG",
      "taf": "TAF LEAL 121700Z 1218/1318 29010KT 9999 FEW015 TX27/1312Z TN15/1305Z"
    },
    {
      "icao": "LEBB",
      "alert": "OK",
      "vis_m": 9999,
      "fzfg": false,
      "metar_trigger": false,
      "taf_trigger": false,
      "metar": "METAR LEBB 122300Z 11003KT 080V140 9999 BKN028 12/10 Q1020 NOSIG",
      "taf": "TAF LEBB 121700Z 1218/1318 32009KT 9999 SCT025 BKN050 TX17/1314Z TN11/1305Z"
    },
    {
      "icao": "LEBL",
      "alert": "OK",
      "vis_m": 9999,
      "fzfg": false,
      "metar_trigger": false,
      "taf_trigger": false,
      "metar": "METAR LEBL 122300Z COR 32005KT 9999 FEW050 16/13 Q1013 NOSIG",
      "taf": "TAF LEBL 121700Z 1218/1318 VRB04KT 9999 SCT040 TX21/1312Z TN13/1305Z"
    },
    {
      "icao": "LECH",
      "alert": "OK",
      "vis_m": 9999,
      "fzfg": false,
      "metar_trigger": false,
      "taf_trigger": false,
      "metar": "METAR LECH 122300Z AUTO 19002KT CAVOK 14/08 Q1015",
      "taf": "TAF LECH 121700Z 1218/1318 02010KT CAVOK TX22/1314Z TN11/1305Z"
    },
    {
      "icao": "LEMD",
      "alert": "OK",
      "vis_m": 9999,
      "fzfg": false,
      "metar_trigger": false,
      "taf_trigger": false,
      "metar": "METAR LEMD 122300Z 25008KT 210V270 9999 FEW073 SCT080 13/06 Q1018 NOSIG",
      "taf": "TAF LEMD 121700Z 1218/1324 26010KT 9999 SCT050 TX21/1313Z TN07/1305Z"
    },
    {
      "icao": "LEMG",
      "alert": "OK",
      "vis_m": 9999,
      "fzfg": false,
      "metar_trigger": false,
      "taf_trigger": false,
      "metar": "METAR LEMG 122300Z 28007KT CAVOK 16/09 Q1020 NOSIG",
      "taf": "TAF LEMG 121700Z 1218/1318 29008KT 9999 FEW060 TX26/1314Z TN15/1306Z"
    },
    {
      "icao": "LEVC",
      "alert": "OK",
      "vis_m": 9999,
      "fzfg": false,
      "metar_trigger": false,
      "taf_trigger": false,
      "metar": "METAR LEVC 122300Z 25009KT CAVOK 18/08 Q1015 NOSIG",
      "taf": "TAF LEVC 121700Z 1218/1318 29010KT CAVOK TX28/1312Z TN15/1305Z"
    },
    {
      "icao": "LEXJ",
      "alert": "OK",
      "vis_m": 9999,
      "fzfg": false,
      "metar_trigger": false,
      "taf_trigger": false,
      "metar": "METAR LEXJ 122300Z AUTO 27008KT 9999 BKN066 13/10 Q1020",
      "taf": "TAF LEXJ 122000Z 1221/1321 22005KT 9999 FEW025 BKN030 TX17/1314Z TN12/1305Z"
    },
    {
      "icao": "LEZG",
      "alert": "OK",
      "vis_m": 9999,
      "fzfg": false,
      "metar_trigger": false,
      "taf_trigger": false,
      "metar": "METAR LEZG 122300Z 29016KT 270V330 9999 FEW030 13/09 Q1016 NOSIG",
      "taf": "TAF LEZG 121700Z 1218/1318 30012KT 9999 FEW025 TX20/1318Z TN10/1305Z"
    },
    {
      "icao": "LEZL",
      "alert": "OK",
      "vis_m": 9999,
      "fzfg": false,
      "metar_trigger": false,
      "taf_trigger": false,
      "metar": "METAR LEZL 122300Z 23005KT 200V280 CAVOK 17/14 Q1021 NOSIG",
      "taf": "TAF LEZL 122000Z 1221/1321 VRB03KT CAVOK TX26/1315Z TN11/1306Z"
    },
    {
      "icao": "LFBD",
      "alert": "OK",
      "vis_m": 9999,
      "fzfg": false,
      "metar_trigger": false,
      "taf_trigger": false,
      "metar": "METAR LFBD 122300Z AUTO 27004KT 9999 FEW035 BKN140 BKN190 12/09 Q1017 BECMG 34010KT",
      "taf": "TAF LFBD 121700Z 1218/1324 34010KT 9999 BKN040 TX19/1314Z TN11/1306Z"
    },
    {
      "icao": "LFLL",
      "alert": "OK",
      "vis_m": 9999,
      "fzfg": false,
      "metar_trigger": false,
      "taf_trigger": false,
      "metar": "METAR LFLL 122300Z 34004KT CAVOK 11/06 Q1013 NOSIG",
      "taf": "TAF LFLL 121700Z 1218/1324 36008KT 9999 FEW046"
    },
    {
      "icao": "LFLS",
      "alert": "OK",
      "vis_m": 9999,
      "fzfg": false,
      "metar_trigger": false,
      "taf_trigger": false,
      "metar": "METAR LFLS 122300Z AUTO VRB02KT CAVOK 10/03 Q1012",
      "taf": ""
    },
    {
      "icao": "LFMN",
      "alert": "OK",
      "vis_m": 9999,
      "fzfg": false,
      "metar_trigger": false,
      "taf_trigger": false,
      "metar": "METAR LFMN 122300Z 31006KT 9999 SCT080 18/13 Q1006 NOSIG",
      "taf": ""
    },
    {
      "icao": "LFOB",
      "alert": "OK",
      "vis_m": 9999,
      "fzfg": false,
      "metar_trigger": false,
      "taf_trigger": false,
      "metar": "METAR LFOB 122300Z AUTO 25007KT CAVOK 09/06 Q1011 NOSIG",
      "taf": "TAF LFOB 121700Z 1218/1318 25008KT CAVOK"
    },
    {
      "icao": "LFPO",
      "alert": "OK",
      "vis_m": 9999,
      "fzfg": false,
      "metar_trigger": false,
      "taf_trigger": false,
      "metar": "METAR LFPO 122300Z AUTO 29006KT CAVOK 12/05 Q1012 NOSIG",
      "taf": "TAF LFPO 121700Z 1218/1324 26010KT CAVOK"
    },
    {
      "icao": "LFSB",
      "alert": "OK",
      "vis_m": 9999,
      "fzfg": false,
      "metar_trigger": false,
      "taf_trigger": false,
      "metar": "METAR LFSB 122300Z AUTO 00000KT CAVOK 05/04 Q1012 NOSIG",
      "taf": "TAF LFSB 121700Z 1218/1318 26007KT CAVOK"
    },
    {
      "icao": "LGAV",
      "alert": "OK",
      "vis_m": 9999,
      "fzfg": false,
      "metar_trigger": false,
      "taf_trigger": false,
      "metar": "METAR LGAV 122250Z VRB03KT CAVOK 22/08 Q1006 NOSIG",
      "taf": "TAF LGAV 122300Z 1300/1324 25010KT 9999 FEW025"
    },
    {
      "icao": "LGTS",
      "alert": "OK",
      "vis_m": 9999,
      "fzfg": false,
      "metar_trigger": false,
      "taf_trigger": false,
      "metar": "METAR LGTS 122250Z 26006KT 9999 FEW020 22/08 Q1004 NOSIG",
      "taf": "TAF LGTS 122300Z 1300/1324 33010KT 9999 FEW030"
    },
    {
      "icao": "LHBP",
      "alert": "OK",
      "vis_m": 9999,
      "fzfg": false,
      "metar_trigger": false,
      "taf_trigger": false,
      "metar": "METAR LHBP 122300Z 32017KT CAVOK 09/M00 Q1008 NOSIG",
      "taf": "TAF LHBP 121715Z 1218/1318 31012KT CAVOK"
    },
    {
      "icao": "LHDC",
      "alert": "OK",
      "vis_m": 9999,
      "fzfg": false,
      "metar_trigger": false,
      "taf_trigger": false,
      "metar": "METAR LHDC 122245Z AUTO 30013KT 260V330 9999 -RA FEW006 BKN038 09/08 Q1004",
      "taf": "TAF LHDC 121415Z 1215/1224 02012KT 9999 SCT030 BKN060"
    },
    {
      "icao": "LIBD",
      "alert": "OK",
      "vis_m": 9999,
      "fzfg": false,
      "metar_trigger": false,
      "taf_trigger": false,
      "metar": "METAR LIBD 122250Z 29003KT 260V320 CAVOK 17/13 Q1009",
      "taf": "TAF LIBD 121700Z 1218/1318 27014KT CAVOK"
    },
    {
      "icao": "LIBG",
      "alert": "OK",
      "vis_m": null,
      "fzfg": false,
      "metar_trigger": false,
      "taf_trigger": false,
      "metar": "",
      "taf": "TAF LIBG 121400Z 1215/1224 25012KT CAVOK"
    },
    {
      "icao": "LIBP",
      "alert": "OK",
      "vis_m": 9999,
      "fzfg": false,
      "metar_trigger": false,
      "taf_trigger": false,
      "metar": "METAR LIBP 122250Z AUTO 06008KT 9999 BKN019/// OVC032/// 15/12 Q1010",
      "taf": "TAF LIBP 121700Z 1218/1318 01010KT 9999 SCT025"
    },
    {
      "icao": "LIBR",
      "alert": "OK",
      "vis_m": 9999,
      "fzfg": false,
      "metar_trigger": false,
      "taf_trigger": false,
      "metar": "METAR LIBR 122250Z 29011KT CAVOK 19/11 Q1008",
      "taf": "TAF LIBR 121700Z 1218/1318 VRB06KT CAVOK"
    },
    {
      "icao": "LICA",
      "alert": "OK",
      "vis_m": 9999,
      "fzfg": false,
      "metar_trigger": false,
      "taf_trigger": false,
      "metar": "METAR LICA 122250Z AUTO 26008KT 9999 BKN014/// 18/16 Q1011",
      "taf": "TAF LICA 121700Z 1218/1318 27013KT 9999 SCT025"
    },
    {
      "icao": "LICC",
      "alert": "OK",
      "vis_m": 9999,
      "fzfg": false,
      "metar_trigger": false,
      "taf_trigger": false,
      "metar": "METAR LICC 122250Z 30004KT CAVOK 18/12 Q1010",
      "taf": "TAF LICC 121700Z 1218/1318 VRB05KT CAVOK"
    },
    {
      "icao": "LICJ",
      "alert": "OK",
      "vis_m": 9999,
      "fzfg": false,
      "metar_trigger": false,
      "taf_trigger": false,
      "metar": "METAR LICJ 122250Z 22005KT CAVOK 19/10 Q1011",
      "taf": "TAF LICJ 121700Z 1218/1318 26016KT CAVOK"
    },
    {
      "icao": "LIMC",
      "alert": "OK",
      "vis_m": 9999,
      "fzfg": false,
      "metar_trigger": false,
      "taf_trigger": false,
      "metar": "METAR LIMC 122250Z 07007KT CAVOK 12/M01 Q1010 NOSIG",
      "taf": "TAF LIMC 121700Z 1218/1324 03008KT CAVOK"
    },
    {
      "icao": "LIME",
      "alert": "OK",
      "vis_m": 9999,
      "fzfg": false,
      "metar_trigger": false,
      "taf_trigger": false,
      "metar": "METAR LIME 122250Z 01006KT 9999 FEW050 11/M01 Q1010 NOSIG",
      "taf": "TAF LIME 121700Z 1218/1318 04006KT CAVOK"
    },
    {
      "icao": "LIMF",
      "alert": "OK",
      "vis_m": 9999,
      "fzfg": false,
      "metar_trigger": false,
      "taf_trigger": false,
      "metar": "METAR LIMF 122250Z 34007KT 9999 SCT080 14/02 Q1009",
      "taf": "TAF LIMF 121700Z 1218/1318 VRB05KT CAVOK"
    },
    {
      "icao": "LIMJ",
      "alert": "OK",
      "vis_m": 9999,
      "fzfg": false,
      "metar_trigger": false,
      "taf_trigger": false,
      "metar": "METAR LIMJ 122250Z 02003KT 350V090 9999 SCT070 17/15 Q1008",
      "taf": ""
    },
    {
      "icao": "LIPE",
      "alert": "OK",
      "vis_m": 9999,
      "fzfg": false,
      "metar_trigger": false,
      "taf_trigger": false,
      "metar": "METAR LIPE 122250Z 10012KT CAVOK 13/10 Q1009",
      "taf": "TAF LIPE 121700Z 1218/1318 10009KT 9999 FEW030"
    },
    {
      "icao": "LIPH",
      "alert": "OK",
      "vis_m": 9999,
      "fzfg": false,
      "metar_trigger": false,
      "taf_trigger": false,
      "metar": "METAR LIPH 122250Z AUTO 00000KT 9999 SCT072/// 10/09 Q1011",
      "taf": "TAF LIPH 121700Z 1218/1318 10010KT 9999 FEW030"
    },
    {
      "icao": "LIPQ",
      "alert": "OK",
      "vis_m": 9999,
      "fzfg": false,
      "metar_trigger": false,
      "taf_trigger": false,
      "metar": "METAR LIPQ 122250Z AUTO 06003KT 9999 FEW085/// 08/03 Q1011",
      "taf": "TAF LIPQ 121700Z 1218/1318 08010KT CAVOK"
    },
    {
      "icao": "LIPR",
      "alert": "OK",
      "vis_m": 9999,
      "fzfg": false,
      "metar_trigger": false,
      "taf_trigger": false,
      "metar": "METAR LIPR 122250Z AUTO 15004KT 110V180 9999 OVC081/// 13/10 Q1010",
      "taf": "TAF LIPR 121700Z 1218/1318 VRB05KT 9999 SCT050"
    },
    {
      "icao": "LIPX",
      "alert": "OK",
      "vis_m": 9999,
      "fzfg": false,
      "metar_trigger": false,
      "taf_trigger": false,
      "metar": "METAR LIPX 122250Z 08007KT 050V110 9999 FEW025 14/09 Q1010",
      "taf": "TAF LIPX 121700Z 1218/1318 10010KT CAVOK"
    },
    {
      "icao": "LIPY",
      "alert": "OK",
      "vis_m": 9999,
      "fzfg": false,
      "metar_trigger": false,
      "taf_trigger": false,
      "metar": "METAR LIPY 122250Z AUTO VRB02KT 9999 BKN058/// 13/12 Q1010",
      "taf": "TAF LIPY 121700Z 1218/1318 VRB05KT 9999 SCT020"
    },
    {
      "icao": "LIPZ",
      "alert": "OK",
      "vis_m": 9999,
      "fzfg": false,
      "metar_trigger": false,
      "taf_trigger": false,
      "metar": "METAR LIPZ 122250Z 14005KT CAVOK 14/05 Q1011 NOSIG",
      "taf": "TAF LIPZ 121700Z 1218/1324 10012KT 9999 FEW035"
    },
    {
      "icao": "LIRF",
      "alert": "OK",
      "vis_m": 9999,
      "fzfg": false,
      "metar_trigger": false,
      "taf_trigger": false,
      "metar": "METAR LIRF 122250Z 23004KT 190V260 CAVOK 15/14 Q1008 NOSIG",
      "taf": "TAF LIRF 121700Z 1218/1324 26010KT 9999 FEW030"
    },
    {
      "icao": "LIRN",
      "alert": "OK",
      "vis_m": 9999,
      "fzfg": false,
      "metar_trigger": false,
      "taf_trigger": false,
      "metar": "METAR LIRN 122250Z 20004KT CAVOK 17/14 Q1010 NOSIG",
      "taf": "TAF LIRN 121700Z 1218/1318 25010KT 9999 SCT025"
    },
    {
      "icao": "LIRP",
      "alert": "OK",
      "vis_m": 9999,
      "fzfg": false,
      "metar_trigger": false,
      "taf_trigger": false,
      "metar": "METAR LIRP 122245Z 27008KT 9999 FEW040 16/12 Q1009 NOSIG",
      "taf": "TAF LIRP 121700Z 1218/1318 26016KT 9999 SCT025"
    },
    {
      "icao": "LIRZ",
      "alert": "OK",
      "vis_m": 9999,
      "fzfg": false,
      "metar_trigger": false,
      "taf_trigger": false,
      "metar": "METAR LIRZ 122250Z AUTO 34004KT 9999 NCD 11/09 Q1009",
      "taf": "TAF LIRZ 121700Z 1218/1318 27015KT 9999 SCT030"
    },
    {
      "icao": "LJLJ",
      "alert": "OK",
      "vis_m": 9999,
      "fzfg": false,
      "metar_trigger": false,
      "taf_trigger": false,
      "metar": "METAR LJLJ 122230Z 27003KT 120V290 9999 MIFG FEW001 01/01 Q1012 NOSIG",
      "taf": "TAF LJLJ 122300Z 1300/1400 15006KT 9999 FEW015 SCT020"
    },
    {
      "icao": "LKMT",
      "alert": "OK",
      "vis_m": 9999,
      "fzfg": false,
      "metar_trigger": false,
      "taf_trigger": false,
      "metar": "METAR LKMT 122300Z 22010KT CAVOK 05/02 Q1008 NOSIG",
      "taf": "TAF LKMT 121700Z 1218/1318 24007KT CAVOK"
    },
    {
      "icao": "LKPR",
      "alert": "OK",
      "vis_m": 9999,
      "fzfg": false,
      "metar_trigger": false,
      "taf_trigger": false,
      "metar": "METAR LKPR 122300Z 24008KT CAVOK 04/01 Q1009 NOSIG",
      "taf": "TAF LKPR 122000Z 1221/1403 24009KT 9999 SCT040"
    },
    {
      "icao": "LLBG",
      "alert": "OK",
      "vis_m": 9999,
      "fzfg": false,
      "metar_trigger": false,
      "taf_trigger": false,
      "metar": "METAR LLBG 122250Z 24006KT 9999 FEW013 21/18 Q1010 TEMPO 5000 BR BKN008",
      "taf": "TAF LLBG 122302Z 1300/1324 25006KT 9000 SCT013 TX27/1313Z TN19/1303Z"
    },
    {
      "icao": "LMML",
      "alert": "OK",
      "vis_m": 9999,
      "fzfg": false,
      "metar_trigger": false,
      "taf_trigger": false,
      "metar": "METAR LMML 122315Z 30011KT CAVOK 19/09 Q1012 NOSIG",
      "taf": "TAF LMML 122300Z 1300/1324 29015KT 9999 FEW015"
    },
    {
      "icao": "LOWW",
      "alert": "OK",
      "vis_m": 9999,
      "fzfg": false,
      "metar_trigger": false,
      "taf_trigger": false,
      "metar": "METAR LOWW 122250Z 29015KT CAVOK 09/M00 Q1011 NOSIG",
      "taf": "TAF LOWW 122315Z 1300/1406 22006KT 9999 SCT050 TX16/1315Z TN06/1303Z"
    },
    {
      "icao": "LPFR",
      "alert": "OK",
      "vis_m": 9999,
      "fzfg": false,
      "metar_trigger": false,
      "taf_trigger": false,
      "metar": "METAR LPFR 122300Z 29004KT 270V330 CAVOK 17/14 Q1021",
      "taf": "TAF LPFR 122300Z 1300/1324 VRB02KT 9999 SCT020"
    },
    {
      "icao": "LPMA",
      "alert": "OK",
      "vis_m": 9999,
      "fzfg": false,
      "metar_trigger": false,
      "taf_trigger": false,
      "metar": "METAR LPMA 122300Z 34007KT 9999 FEW015 16/11 Q1023",
      "taf": "TAF LPMA 122300Z 1300/1324 VRB05KT 9999 SCT015"
    },
    {
      "icao": "LPPR",
      "alert": "OK",
      "vis_m": 9999,
      "fzfg": false,
      "metar_trigger": false,
      "taf_trigger": false,
      "metar": "METAR LPPR 122300Z 00000KT 9999 FEW015 14/13 Q1020",
      "taf": "TAF LPPR 122300Z 1300/1324 VRB02KT 9999 SCT004"
    },
    {
      "icao": "LPPS",
      "alert": "OK",
      "vis_m": 9999,
      "fzfg": false,
      "metar_trigger": false,
      "taf_trigger": false,
      "metar": "METAR LPPS 122300Z 33004KT 9999 FEW015 16/12 Q1023",
      "taf": "TAF LPPS 122300Z 1300/1406 33008KT 9999 SCT015"
    },
    {
      "icao": "LPPT",
      "alert": "OK",
      "vis_m": 9999,
      "fzfg": false,
      "metar_trigger": false,
      "taf_trigger": false,
      "metar": "METAR LPPT 122300Z VRB01KT 9999 FEW012 14/12 Q1020",
      "taf": "TAF LPPT 122300Z 1300/1406 VRB02KT 9999 SCT015"
    },
    {
      "icao": "LQBK",
      "alert": "OK",
      "vis_m": 9999,
      "fzfg": false,
      "metar_trigger": false,
      "taf_trigger": false,
      "metar": "METAR LQBK 122300Z VRB02KT CAVOK 05/02 Q1014 NOSIG",
      "taf": "TAF LQBK 122300Z 1300/1324 15005KT CAVOK TX17/1313Z TN03/1304Z"
    },
    {
      "icao": "LQSA",
      "alert": "OK",
      "vis_m": 9999,
      "fzfg": false,
      "metar_trigger": false,
      "taf_trigger": false,
      "metar": "METAR LQSA 122300Z 30003KT 9999 FEW020 BKN040 06/03 Q1013",
      "taf": "TAF LQSA 122300Z 1300/1324 33006KT 9999 SCT050 TX18/1314Z TN02/1304Z"
    },
    {
      "icao": "LQTZ",
      "alert": "OK",
      "vis_m": 9999,
      "fzfg": false,
      "metar_trigger": false,
      "taf_trigger": false,
      "metar": "METAR LQTZ 122300Z VRB01KT 9999 BKN055 06/06 Q1013",
      "taf": "TAF LQTZ 122300Z 1300/1324 30005KT 9999 SCT040 TX16/1313Z TN02/1304Z"
    },
    {
      "icao": "LRBC",
      "alert": "OK",
      "vis_m": 9999,
      "fzfg": false,
      "metar_trigger": false,
      "taf_trigger": false,
      "metar": "METAR LRBC 122300Z 34007KT 9999 BKN016 BKN042 13/12 Q1000",
      "taf": "TAF LRBC 122000Z 1221/1306 VRB04KT 9999 SCT045"
    },
    {
      "icao": "LRBS",
      "alert": "OK",
      "vis_m": 9999,
      "fzfg": false,
      "metar_trigger": false,
      "taf_trigger": false,
      "metar": "METAR LRBS 122300Z 27007KT 240V300 CAVOK 14/11 Q1001 NOSIG",
      "taf": "TAF LRBS 121700Z 1218/1318 25014KT CAVOK"
    },
    {
      "icao": "LRBV",
      "alert": "OK",
      "vis_m": 9999,
      "fzfg": false,
      "metar_trigger": false,
      "taf_trigger": false,
      "metar": "METAR LRBV 122300Z AUTO 22009KT 200V260 9999 FEW220/// 09/08 Q1001",
      "taf": "TAF LRBV 121700Z 1218/1303 26006KT 9999 FEW040CB BKN065"
    },
    {
      "icao": "LRCL",
      "alert": "OK",
      "vis_m": 9999,
      "fzfg": false,
      "metar_trigger": false,
      "taf_trigger": false,
      "metar": "METAR LRCL 122300Z VRB02KT 9999 OVC019 12/10 Q1001",
      "taf": "TAF LRCL 122000Z 1221/1306 VRB04KT 9999 BKN040"
    },
    {
      "icao": "LRCV",
      "alert": "OK",
      "vis_m": 9999,
      "fzfg": false,
      "metar_trigger": false,
      "taf_trigger": false,
      "metar": "METAR LRCV 122300Z 28015KT 9999 FEW018 13/11 Q1003",
      "taf": "TAF LRCV 122000Z 1221/1306 27010KT CAVOK"
    },
    {
      "icao": "LRIA",
      "alert": "OK",
      "vis_m": 9999,
      "fzfg": false,
      "metar_trigger": false,
      "taf_trigger": false,
      "metar": "METAR LRIA 122300Z 31011KT 9999 -SHRA BKN006 FEW025CB 13/11 Q1000",
      "taf": ""
    },
    {
      "icao": "LROP",
      "alert": "OK",
      "vis_m": 9999,
      "fzfg": false,
      "metar_trigger": false,
      "taf_trigger": false,
      "metar": "METAR LROP 122300Z 26009KT CAVOK 13/11 Q1001 NOSIG",
      "taf": "TAF LROP 121700Z 1218/1318 25014KT CAVOK"
    },
    {
      "icao": "LRSB",
      "alert": "OK",
      "vis_m": 9999,
      "fzfg": false,
      "metar_trigger": false,
      "taf_trigger": false,
      "metar": "METAR LRSB 122300Z 25005KT CAVOK 08/08 Q1001",
      "taf": "TAF LRSB 121700Z 1218/1318 30006KT 9999 BKN070"
    },
    {
      "icao": "LRSM",
      "alert": "OK",
      "vis_m": 9999,
      "fzfg": false,
      "metar_trigger": false,
      "taf_trigger": false,
      "metar": "METAR LRSM 122300Z AUTO 31006KT 9999 SCT030/// BKN035/// OVC040/// 10/08 Q1002",
      "taf": "TAF LRSM 121400Z 1215/1224 32010KT 9999 SCT045"
    },
    {
      "icao": "LRSV",
      "alert": "OK",
      "vis_m": 9999,
      "fzfg": false,
      "metar_trigger": false,
      "taf_trigger": false,
      "metar": "METAR LRSV 122300Z 31014KT 9999 SCT008 BKN039 09/08 Q1000",
      "taf": "TAF LRSV 122000Z 1221/1306 31010KT 9999 SCT045"
    },
    {
      "icao": "LRTM",
      "alert": "OK",
      "vis_m": 9999,
      "fzfg": false,
      "metar_trigger": false,
      "taf_trigger": false,
      "metar": "METAR LRTM 122300Z VRB01KT 9999 FEW022 SCT035 BKN042 13/12 Q1001",
      "taf": "TAF LRTM 122000Z 1221/1306 VRB04KT 9999 SCT040"
    },
    {
      "icao": "LRTR",
      "alert": "OK",
      "vis_m": 9999,
      "fzfg": false,
      "metar_trigger": false,
      "taf_trigger": false,
      "metar": "METAR LRTR 122300Z 30011KT 9999 -RA SCT010 SCT017 BKN040 07/07 Q1007 RESHRA",
      "taf": "TAF LRTR 121700Z 1218/1318 29004KT 9999 BKN035"
    },
    {
      "icao": "LTAC",
      "alert": "OK",
      "vis_m": 9999,
      "fzfg": false,
      "metar_trigger": false,
      "taf_trigger": false,
      "metar": "METAR LTAC 122250Z 07008KT 050V110 9999 SCT035 BKN100 11/10 Q1007 RETSRA NOSIG RMK RWY21C 11006KT 070V130 RWY03L 07008KT 040V120 RWY21R 10005KT 010V140 RWY03R 05006KT 360V120 RWY21L 09006KT 050V120",
      "taf": "TAF LTAC 122240Z 1300/1324 VRB02KT 9999 SCT040 SCT100"
    },
    {
      "icao": "LTFM",
      "alert": "OK",
      "vis_m": 9999,
      "fzfg": false,
      "metar_trigger": false,
      "taf_trigger": false,
      "metar": "METAR LTFM 122250Z 21008KT 9999 -SHRA FEW025TCU SCT035 BKN080 16/13 Q1004 NOSIG RMK RWY17L 21011G22KT 180V240 RWY34L 21006KT RWY16R 24008KT 200V270 RWY36 20008KT RWY18 21010KT",
      "taf": "TAF LTFM 122240Z 1300/1406 21014KT 9999 SCT035 BKN100"
    },
    {
      "icao": "LUKK",
      "alert": "OK",
      "vis_m": 9000,
      "fzfg": false,
      "metar_trigger": false,
      "taf_trigger": false,
      "metar": "METAR LUKK 122300Z 18004KT 150V210 9000 OVC004 13/13 Q0999 TEMPO 3000 BR",
      "taf": "TAF LUKK 121715Z 1218/1318 16008KT 9999 SCT035"
    },
    {
      "icao": "LWOH",
      "alert": "OK",
      "vis_m": null,
      "fzfg": false,
      "metar_trigger": false,
      "taf_trigger": false,
      "metar": "",
      "taf": "TAF LWOH 122025Z 1221/1321 22010KT 9999 SCT040"
    },
    {
      "icao": "LWSK",
      "alert": "OK",
      "vis_m": null,
      "fzfg": false,
      "metar_trigger": false,
      "taf_trigger": false,
      "metar": "",
      "taf": "TAF LWSK 122025Z 1221/1321 VRB02KT 9999 FEW050"
    },
    {
      "icao": "LYBE",
      "alert": "OK",
      "vis_m": 9999,
      "fzfg": false,
      "metar_trigger": false,
      "taf_trigger": false,
      "metar": "METAR LYBE 122300Z 27013KT 9999 SCT010 07/06 Q1011 NOSIG",
      "taf": "TAF LYBE 121700Z 1218/1318 30015KT 9999 BKN030 TX17/1313Z TN06/1304Z"
    },
    {
      "icao": "LYNI",
      "alert": "OK",
      "vis_m": 9999,
      "fzfg": false,
      "metar_trigger": false,
      "taf_trigger": false,
      "metar": "METAR LYNI 122300Z 33022G34KT 9999 -RA BKN010 OVC033 08/07 Q1009 NOSIG",
      "taf": "TAF LYNI 121700Z 1218/1318 27007KT 9999 BKN040 TX18/1314Z TN06/1304Z"
    },
    {
      "icao": "LYPG",
      "alert": "OK",
      "vis_m": 9999,
      "fzfg": false,
      "metar_trigger": false,
      "taf_trigger": false,
      "metar": "METAR LYPG 122300Z 22004KT 190V250 9999 FEW033 BKN080 18/16 Q1007 NOSIG",
      "taf": "TAF LYPG 121700Z 1218/1318 36005KT 9999 FEW030 SCT083 TX22/1313Z TN13/1304Z"
    },
    {
      "icao": "LZIB",
      "alert": "OK",
      "vis_m": 9999,
      "fzfg": false,
      "metar_trigger": false,
      "taf_trigger": false,
      "metar": "METAR LZIB 122300Z 30010KT CAVOK 08/01 Q1010 NOSIG",
      "taf": "TAF LZIB 122315Z 1300/1400 30013KT CAVOK"
    },
    {
      "icao": "LZKZ",
      "alert": "OK",
      "vis_m": 9999,
      "fzfg": false,
      "metar_trigger": false,
      "taf_trigger": false,
      "metar": "METAR LZKZ 122300Z 33010KT 9999 -RA SCT040 08/05 Q1005 NOSIG",
      "taf": "TAF LZKZ 122315Z 1300/1400 35008KT CAVOK"
    },
    {
      "icao": "LZTT",
      "alert": "OK",
      "vis_m": 9999,
      "fzfg": false,
      "metar_trigger": false,
      "taf_trigger": false,
      "metar": "METAR LZTT 122300Z 28015KT 9999 -RA FEW020 BKN040 04/01 Q1004",
      "taf": "TAF LZTT 122315Z 1300/1400 27013KT 9999 FEW035"
    },
    {
      "icao": "OEJN",
      "alert": "OK",
      "vis_m": 9999,
      "fzfg": false,
      "metar_trigger": false,
      "taf_trigger": false,
      "metar": "METAR OEJN 122300Z 35003KT CAVOK 28/22 Q1006 NOSIG",
      "taf": "TAF OEJN 122300Z 1300/1406 VRB03KT 7000 FEW040"
    },
    {
      "icao": "OEMA",
      "alert": "OK",
      "vis_m": 9999,
      "fzfg": false,
      "metar_trigger": false,
      "taf_trigger": false,
      "metar": "METAR OEMA 122300Z 04011KT CAVOK 32/01 Q1012 NOSIG",
      "taf": "TAF OEMA 122300Z 1300/1406 VRB03KT CAVOK"
    },
    {
      "icao": "OJAI",
      "alert": "OK",
      "vis_m": 5000,
      "fzfg": false,
      "metar_trigger": false,
      "taf_trigger": false,
      "metar": "METAR OJAI 122300Z 00000KT 5000 HZ NSC 16/04 Q1012 NOSIG",
      "taf": "TAF OJAI 122227Z 1300/1406 25008KT 5000 HZ NSC"
    },
    {
      "icao": "OMAA",
      "alert": "OK",
      "vis_m": 9999,
      "fzfg": false,
      "metar_trigger": false,
      "taf_trigger": false,
      "metar": "METAR OMAA 122300Z 19005KT CAVOK 27/19 Q1002 NOSIG",
      "taf": "TAF OMAA 122300Z 1300/1406 19009KT 8000 NSC"
    },
    {
      "icao": "OMDB",
      "alert": "OK",
      "vis_m": 9999,
      "fzfg": false,
      "metar_trigger": false,
      "taf_trigger": false,
      "metar": "METAR OMDB 122300Z VRB02KT CAVOK 29/21 Q1001 NOSIG",
      "taf": "TAF OMDB 122300Z 1300/1406 13005KT 8000 NSC"
    },
    {
      "icao": "UAAA",
      "alert": "OK",
      "vis_m": 9999,
      "fzfg": false,
      "metar_trigger": false,
      "taf_trigger": false,
      "metar": "METAR UAAA 122300Z 22001MPS 9999 FEW100 04/03 Q1023 NOSIG",
      "taf": "TAF UAAA 121701Z 1218/1318 03003G08MPS 9999 SCT100 TX17/1306Z TN05/1302Z"
    },
    {
      "icao": "UBBB",
      "alert": "OK",
      "vis_m": 9999,
      "fzfg": false,
      "metar_trigger": false,
      "taf_trigger": false,
      "metar": "METAR UBBB 122300Z 09006KT CAVOK 20/11 Q1003 NOSIG",
      "taf": "TAF UBBB 122301Z 1300/1324 VRB04KT 9999 FEW040 TX25/1310Z TN15/1301Z"
    },
    {
      "icao": "UDSG",
      "alert": "OK",
      "vis_m": 5000,
      "fzfg": false,
      "metar_trigger": false,
      "taf_trigger": false,
      "metar": "METAR UDSG 122300Z 15002KT 5000 BR FEW049 06/06 Q1012 NOSIG",
      "taf": "TAF UDSG 121700Z 1218/1318 22006KT 9999 BKN040"
    },
    {
      "icao": "UDYZ",
      "alert": "OK",
      "vis_m": 9999,
      "fzfg": false,
      "metar_trigger": false,
      "taf_trigger": false,
      "metar": "METAR UDYZ 122300Z 30005KT 9999 BKN043CB 13/12 Q1009 NOSIG",
      "taf": "TAF UDYZ 121700Z 1218/1318 06004KT 9999 SCT040CB"
    },
    {
      "icao": "UGKO",
      "alert": "OK",
      "vis_m": 9999,
      "fzfg": false,
      "metar_trigger": false,
      "taf_trigger": false,
      "metar": "METAR UGKO 122300Z 09009KT CAVOK 17/11 Q1002 NOSIG",
      "taf": "TAF UGKO 122300Z 1300/1324 26010KT 9999 SCT022 BKN050 TX23/1311Z TN16/1302Z"
    }
  ]
}