{
  "ts_utc": "2026-03-12T13:43:00Z",
  "threshold_m": 150,
  "source": "stations_override.txt (ICAO list) + aviationweather.gov (METAR/TAF raw)",
  "station_count": 159,
  "stations": [
    {
      "icao": "BIKF",
      "alert": "OK",
      "vis_m": 9999,
      "fzfg": false,
      "metar_trigger": false,
      "taf_trigger": false,
      "metar": "METAR BIKF 121330Z 34027KT 9999 BKN020 BKN078 00/M03 Q0966",
      "taf": ""
    },
    {
      "icao": "BKPR",
      "alert": "OK",
      "vis_m": 9999,
      "fzfg": false,
      "metar_trigger": false,
      "taf_trigger": false,
      "metar": "METAR BKPR 121330Z 11005KT 030V130 9999 FEW050 17/M03 Q1020 NOSIG",
      "taf": "TAF BKPR 121130Z 1212/1312 13006KT 9999 FEW050"
    },
    {
      "icao": "EBCI",
      "alert": "OK",
      "vis_m": 9999,
      "fzfg": false,
      "metar_trigger": false,
      "taf_trigger": false,
      "metar": "METAR EBCI 121320Z 22019KT 9999 SCT035 11/03 Q1019 NOSIG",
      "taf": "TAF EBCI 121103Z 1212/1318 20015G25KT 9999 FEW030"
    },
    {
      "icao": "EDDB",
      "alert": "OK",
      "vis_m": 9999,
      "fzfg": false,
      "metar_trigger": false,
      "taf_trigger": false,
      "metar": "METAR EDDB 121320Z AUTO 26007KT CAVOK 13/01 Q1020 NOSIG",
      "taf": "TAF EDDB 121100Z 1212/1312 24010KT 9999 FEW040"
    },
    {
      "icao": "EDDH",
      "alert": "OK",
      "vis_m": 9999,
      "fzfg": false,
      "metar_trigger": false,
      "taf_trigger": false,
      "metar": "METAR EDDH 121320Z AUTO 21017KT 9999 SCT039 12/03 Q1017 TEMPO 21020G30KT",
      "taf": ""
    },
    {
      "icao": "EDDK",
      "alert": "OK",
      "vis_m": 9999,
      "fzfg": false,
      "metar_trigger": false,
      "taf_trigger": false,
      "metar": "METAR EDDK 121320Z AUTO 19010KT 9999 BKN042 11/02 Q1020 NOSIG",
      "taf": "TAF EDDK 121100Z 1212/1318 21012KT 9999 SCT030"
    },
    {
      "icao": "EDDN",
      "alert": "OK",
      "vis_m": 9999,
      "fzfg": false,
      "metar_trigger": false,
      "taf_trigger": false,
      "metar": "METAR EDDN 121320Z AUTO 28006KT 250V310 9999 FEW038 BKN048 11/03 Q1023 NOSIG",
      "taf": "TAF EDDN 121100Z 1212/1312 26005KT 9999 FEW015"
    },
    {
      "icao": "EDDS",
      "alert": "OK",
      "vis_m": 9999,
      "fzfg": false,
      "metar_trigger": false,
      "taf_trigger": false,
      "metar": "METAR EDDS 121320Z AUTO VRB04KT 9999 BKN047 13/01 Q1022 NOSIG",
      "taf": "TAF EDDS 121100Z 1212/1312 23005KT 9999 SCT030"
    },
    {
      "icao": "EDFH",
      "alert": "OK",
      "vis_m": 9999,
      "fzfg": false,
      "metar_trigger": false,
      "taf_trigger": false,
      "metar": "METAR EDFH 121320Z 22012KT 200V260 9999 BKN027 08/02 Q1021",
      "taf": "TAF EDFH 121100Z 1212/1312 23011KT 9999 SCT020"
    },
    {
      "icao": "EDJA",
      "alert": "OK",
      "vis_m": 9999,
      "fzfg": false,
      "metar_trigger": false,
      "taf_trigger": false,
      "metar": "METAR EDJA 121320Z 21005KT 160V260 9999 FEW027 SCT062 10/03 Q1023",
      "taf": "TAF EDJA 121100Z 1212/1221 25007KT 9999 SCT020 BKN045"
    },
    {
      "icao": "EDLW",
      "alert": "OK",
      "vis_m": 9999,
      "fzfg": false,
      "metar_trigger": false,
      "taf_trigger": false,
      "metar": "METAR EDLW 121320Z 21017KT 9999 SCT041 11/02 Q1019",
      "taf": "TAF EDLW 121100Z 1212/1312 21012KT 9999 SCT030"
    },
    {
      "icao": "EDNY",
      "alert": "OK",
      "vis_m": 9999,
      "fzfg": false,
      "metar_trigger": false,
      "taf_trigger": false,
      "metar": "METAR EDNY 121320Z 22005KT 180V250 9999 FEW045 11/04 Q1024",
      "taf": "TAF EDNY 121100Z 1212/1221 23005KT 9999 SCT015 BKN040"
    },
    {
      "icao": "EDSB",
      "alert": "OK",
      "vis_m": 9999,
      "fzfg": false,
      "metar_trigger": false,
      "taf_trigger": false,
      "metar": "METAR EDSB 121320Z 22006KT 180V260 9999 FEW041 13/03 Q1023",
      "taf": "TAF EDSB 121100Z 1212/1312 24006KT 9999 SCT025"
    },
    {
      "icao": "EETN",
      "alert": "OK",
      "vis_m": 4400,
      "fzfg": false,
      "metar_trigger": false,
      "taf_trigger": false,
      "metar": "METAR EETN 121320Z 23013KT 4400 BR OVC003 06/06 Q1011 NOSIG",
      "taf": "TAF EETN 121130Z 1212/1312 21012KT 8000 SCT010 BKN025"
    },
    {
      "icao": "EFTU",
      "alert": "OK",
      "vis_m": 9999,
      "fzfg": false,
      "metar_trigger": false,
      "taf_trigger": false,
      "metar": "METAR EFTU 121320Z AUTO 23010KT 9999 OVC013 05/03 Q1008",
      "taf": "TAF EFTU 121131Z 1212/1312 23008KT 5000 OVC003"
    },
    {
      "icao": "EGBB",
      "alert": "OK",
      "vis_m": 9999,
      "fzfg": false,
      "metar_trigger": false,
      "taf_trigger": false,
      "metar": "METAR EGBB 121320Z 20018G35KT 170V240 9999 -RA BKN016 12/09 Q1003",
      "taf": "TAF EGBB 121054Z 1212/1312 20020G32KT 9999 SCT020"
    },
    {
      "icao": "EGGP",
      "alert": "OK",
      "vis_m": 9999,
      "fzfg": false,
      "metar_trigger": false,
      "taf_trigger": false,
      "metar": "METAR EGGP 121320Z 21019G32KT 9999 -RA BKN029 BKN037 14/09 Q0996",
      "taf": "TAF EGGP 121057Z 1212/1312 19017G28KT 9999 SCT030"
    },
    {
      "icao": "EGGW",
      "alert": "OK",
      "vis_m": 9999,
      "fzfg": false,
      "metar_trigger": false,
      "taf_trigger": false,
      "metar": "METAR EGGW 121320Z AUTO 21024G37KT 170V230 9999 OVC014 10/07 Q1008",
      "taf": "TAF EGGW 121057Z 1212/1312 21020G30KT 9999 SCT025"
    },
    {
      "icao": "EGKK",
      "alert": "OK",
      "vis_m": 9999,
      "fzfg": false,
      "metar_trigger": false,
      "taf_trigger": false,
      "metar": "METAR EGKK 121320Z 21016KT 170V240 9999 VCSH BKN018 11/07 Q1012",
      "taf": "TAF EGKK 121100Z 1212/1318 21015G25KT 9999 SCT025"
    },
    {
      "icao": "EGNM",
      "alert": "OK",
      "vis_m": 9999,
      "fzfg": false,
      "metar_trigger": false,
      "taf_trigger": false,
      "metar": "METAR EGNM 121320Z 20025G38KT 9999 -SHRA BKN018 11/09 Q0994",
      "taf": "TAF EGNM 121056Z 1212/1312 21025G35KT 9999 SCT018"
    },
    {
      "icao": "EGPD",
      "alert": "OK",
      "vis_m": 9999,
      "fzfg": false,
      "metar_trigger": false,
      "taf_trigger": false,
      "metar": "METAR EGPD 121320Z COR AUTO 21020G30KT 9999 NCD 09/04 Q0982 NOSIG",
      "taf": "TAF EGPD 121059Z 1212/1312 20022G35KT 9999 SCT020"
    },
    {
      "icao": "EGPF",
      "alert": "OK",
      "vis_m": 9999,
      "fzfg": false,
      "metar_trigger": false,
      "taf_trigger": false,
      "metar": "METAR EGPF 121320Z AUTO 22020KT 9999 NCD 08/03 Q0986",
      "taf": ""
    },
    {
      "icao": "EHBK",
      "alert": "OK",
      "vis_m": 9999,
      "fzfg": false,
      "metar_trigger": false,
      "taf_trigger": false,
      "metar": "METAR EHBK 121325Z AUTO 21019KT 9999 BKN037/// 11/03 Q1018 NOSIG",
      "taf": "TAF EHBK 121102Z 1212/1318 22016G26KT 9999 SCT030"
    },
    {
      "icao": "EHEH",
      "alert": "OK",
      "vis_m": 9999,
      "fzfg": false,
      "metar_trigger": false,
      "taf_trigger": false,
      "metar": "METAR EHEH 121325Z AUTO 22017KT 170V260 9999 BKN038 12/03 Q1017 BLU TEMPO 21017G27KT",
      "taf": "TAF EHEH 121108Z 1212/1318 21015G27KT SCT024"
    },
    {
      "icao": "EKBI",
      "alert": "OK",
      "vis_m": 9999,
      "fzfg": false,
      "metar_trigger": false,
      "taf_trigger": false,
      "metar": "METAR EKBI 121320Z AUTO 20019G30KT 160V230 9999 BKN020/// 08/04 Q1011",
      "taf": "TAF EKBI 121127Z 1212/1312 21018KT 9999 FEW020"
    },
    {
      "icao": "EKCH",
      "alert": "OK",
      "vis_m": 9999,
      "fzfg": false,
      "metar_trigger": false,
      "taf_trigger": false,
      "metar": "METAR EKCH 121320Z AUTO 18014KT 9999 NCD 07/04 Q1015 NOSIG",
      "taf": "TAF EKCH 121127Z 1212/1312 21014KT CAVOK"
    },
    {
      "icao": "ENAL",
      "alert": "OK",
      "vis_m": 9999,
      "fzfg": false,
      "metar_trigger": false,
      "taf_trigger": false,
      "metar": "METAR ENAL 121320Z 20018KT 9999 VCSH FEW050 09/02 Q0981",
      "taf": ""
    },
    {
      "icao": "ENBR",
      "alert": "OK",
      "vis_m": 7000,
      "fzfg": false,
      "metar_trigger": false,
      "taf_trigger": false,
      "metar": "METAR ENBR 121320Z 16035G45KT 7000 RA SCT005 BKN009 05/04 Q0988 TEMPO 3000 SHRA BR BKN007 SCT018CB RMK WIND 1200FT 16045G58KT",
      "taf": "TAF ENBR 121100Z 1212/1312 16028KT 9999 -RA SCT008 BKN012"
    },
    {
      "icao": "ENGM",
      "alert": "OK",
      "vis_m": 9999,
      "fzfg": false,
      "metar_trigger": false,
      "taf_trigger": false,
      "metar": "METAR ENGM 121320Z 19022KT 9999 BKN013 04/01 Q0999 WS R19 TEMPO 19022G32KT",
      "taf": "TAF ENGM 121100Z 1212/1312 18018KT 9999 OVC004"
    },
    {
      "icao": "ENHD",
      "alert": "OK",
      "vis_m": 9000,
      "fzfg": false,
      "metar_trigger": false,
      "taf_trigger": false,
      "metar": "METAR ENHD 121320Z 17026G40KT 140V200 9000 OVC007 06/04 Q0992",
      "taf": "TAF ENHD 121100Z 1212/1221 17030KT 9999 -RA SCT008 BKN012"
    },
    {
      "icao": "ENTC",
      "alert": "OK",
      "vis_m": 9999,
      "fzfg": false,
      "metar_trigger": false,
      "taf_trigger": false,
      "metar": "METAR ENTC 121320Z 20012KT 9999 FEW030 SCT040 03/00 Q0990 TEMPO 27008KT RMK WIND 2600FT 19023KT",
      "taf": "TAF ENTC 121100Z 1212/1312 20015KT 9999 -RA BKN040"
    },
    {
      "icao": "ENTO",
      "alert": "OK",
      "vis_m": 9999,
      "fzfg": false,
      "metar_trigger": false,
      "taf_trigger": false,
      "metar": "METAR ENTO 121320Z 20023G34KT 9999 BKN008 OVC010 04/04 Q1002 NOSIG",
      "taf": "TAF ENTO 121100Z 1212/1312 21025KT 9999 BKN006"
    },
    {
      "icao": "ENVA",
      "alert": "OK",
      "vis_m": 9999,
      "fzfg": false,
      "metar_trigger": false,
      "taf_trigger": false,
      "metar": "METAR ENVA 121320Z 16017G33KT 130V200 CAVOK 08/M01 Q0988 NOSIG RMK WIND 670FT 17030G53KT",
      "taf": ""
    },
    {
      "icao": "ENZV",
      "alert": "OK",
      "vis_m": 9999,
      "fzfg": false,
      "metar_trigger": false,
      "taf_trigger": false,
      "metar": "METAR ENZV 121320Z 17025G38KT 9999 -DZ OVC010CB 06/05 Q0994 TEMPO 4000 SHRA BR BKN008 SCT020CB",
      "taf": "TAF ENZV 121100Z 1212/1312 17028KT 9999 -RA BKN012"
    },
    {
      "icao": "EPGD",
      "alert": "OK",
      "vis_m": 9999,
      "fzfg": false,
      "metar_trigger": false,
      "taf_trigger": false,
      "metar": "METAR EPGD 121330Z 26008KT 230V290 9999 FEW036 11/02 Q1019",
      "taf": "TAF EPGD 121130Z 1212/1312 27012KT 9999 SCT030"
    },
    {
      "icao": "EPKK",
      "alert": "OK",
      "vis_m": 9999,
      "fzfg": false,
      "metar_trigger": false,
      "taf_trigger": false,
      "metar": "METAR EPKK 121330Z 23008KT 9999 SCT049TCU 17/04 Q1020",
      "taf": "TAF EPKK 121130Z 1212/1312 23010KT CAVOK"
    },
    {
      "icao": "EPKT",
      "alert": "OK",
      "vis_m": 9999,
      "fzfg": false,
      "metar_trigger": false,
      "taf_trigger": false,
      "metar": "METAR EPKT 121330Z 30007KT 9999 FEW038 SCT043CB 14/05 Q1021",
      "taf": "TAF EPKT 121130Z 1212/1312 24007KT CAVOK"
    },
    {
      "icao": "EPLB",
      "alert": "OK",
      "vis_m": 9999,
      "fzfg": false,
      "metar_trigger": false,
      "taf_trigger": false,
      "metar": "METAR EPLB 121330Z 23005KT 160V270 CAVOK 17/05 Q1021",
      "taf": "TAF EPLB 121130Z 1212/1312 21010KT CAVOK"
    },
    {
      "icao": "EPMO",
      "alert": "OK",
      "vis_m": 9999,
      "fzfg": false,
      "metar_trigger": false,
      "taf_trigger": false,
      "metar": "METAR EPMO 121330Z 25011KT 9999 FEW040 15/07 Q1020",
      "taf": "TAF EPMO 121130Z 1212/1312 29010KT CAVOK"
    },
    {
      "icao": "EPPO",
      "alert": "OK",
      "vis_m": 9999,
      "fzfg": false,
      "metar_trigger": false,
      "taf_trigger": false,
      "metar": "METAR EPPO 121330Z 31009KT 260V320 9999 FEW035 13/02 Q1021",
      "taf": "TAF EPPO 121130Z 1212/1312 29010KT 9999 SCT030"
    },
    {
      "icao": "EPRA",
      "alert": "OK",
      "vis_m": 9999,
      "fzfg": false,
      "metar_trigger": false,
      "taf_trigger": false,
      "metar": "METAR EPRA 121330Z 24008KT CAVOK 15/05 Q1020",
      "taf": "TAF EPRA 121130Z 1212/1221 22006KT 9999 SCT040"
    },
    {
      "icao": "EPRZ",
      "alert": "OK",
      "vis_m": 9999,
      "fzfg": false,
      "metar_trigger": false,
      "taf_trigger": false,
      "metar": "METAR EPRZ 121330Z 22004KT 150V300 CAVOK 18/01 Q1021",
      "taf": "TAF EPRZ 121130Z 1212/1312 23008KT CAVOK"
    },
    {
      "icao": "EPSC",
      "alert": "OK",
      "vis_m": 9999,
      "fzfg": false,
      "metar_trigger": false,
      "taf_trigger": false,
      "metar": "METAR EPSC 121330Z 24007KT 9999 FEW043 13/01 Q1019",
      "taf": "TAF EPSC 121130Z 1212/1312 26008KT 9999 SCT040"
    },
    {
      "icao": "EPSY",
      "alert": "OK",
      "vis_m": 9999,
      "fzfg": false,
      "metar_trigger": false,
      "taf_trigger": false,
      "metar": "METAR EPSY 121330Z 27008KT 220V290 9999 SCT030 13/06 Q1019",
      "taf": "TAF EPSY 121130Z 1212/1221 25008KT 9999 SCT025"
    },
    {
      "icao": "EPWA",
      "alert": "OK",
      "vis_m": 9999,
      "fzfg": false,
      "metar_trigger": false,
      "taf_trigger": false,
      "metar": "METAR EPWA 121330Z 27008KT 9999 BKN042 15/06 Q1020 NOSIG",
      "taf": "TAF EPWA 121130Z 1212/1312 29010KT CAVOK"
    },
    {
      "icao": "EPWR",
      "alert": "OK",
      "vis_m": 9999,
      "fzfg": false,
      "metar_trigger": false,
      "taf_trigger": false,
      "metar": "METAR EPWR 121330Z 24004KT 210V290 9999 FEW023 12/06 Q1022",
      "taf": "TAF EPWR 121130Z 1212/1312 29010KT 9999 BKN020"
    },
    {
      "icao": "ESGG",
      "alert": "OK",
      "vis_m": 9999,
      "fzfg": false,
      "metar_trigger": false,
      "taf_trigger": false,
      "metar": "METAR ESGG 121320Z 19017KT 9999 FEW016 06/03 Q1009",
      "taf": "TAF ESGG 121113Z 1212/1312 20015KT 9999 BKN008"
    },
    {
      "icao": "ESKN",
      "alert": "OK",
      "vis_m": 9999,
      "fzfg": false,
      "metar_trigger": false,
      "taf_trigger": false,
      "metar": "METAR ESKN 121320Z 22016KT 9999 FEW041 10/01 Q1010",
      "taf": "TAF ESKN 121130Z 1212/1312 24015KT 9999 SCT025"
    },
    {
      "icao": "ESMS",
      "alert": "OK",
      "vis_m": 9999,
      "fzfg": false,
      "metar_trigger": false,
      "taf_trigger": false,
      "metar": "METAR ESMS 121320Z 21016KT CAVOK 09/04 Q1015",
      "taf": "TAF ESMS 121127Z 1212/1312 21012KT 9999 FEW015"
    },
    {
      "icao": "ESSA",
      "alert": "OK",
      "vis_m": 9999,
      "fzfg": false,
      "metar_trigger": false,
      "taf_trigger": false,
      "metar": "METAR ESSA 121320Z 21015KT CAVOK 09/01 Q1008 NOSIG",
      "taf": "TAF ESSA 121130Z 1212/1312 25015KT 9999 FEW025"
    },
    {
      "icao": "EYKA",
      "alert": "OK",
      "vis_m": 9999,
      "fzfg": false,
      "metar_trigger": false,
      "taf_trigger": false,
      "metar": "METAR EYKA 121320Z 24009KT CAVOK 16/05 Q1018",
      "taf": "TAF EYKA 121122Z 1212/1312 VRB03KT 9000 BKN035"
    },
    {
      "icao": "EYPA",
      "alert": "OK",
      "vis_m": 9999,
      "fzfg": false,
      "metar_trigger": false,
      "taf_trigger": false,
      "metar": "METAR EYPA 121320Z 23007KT 190V270 9999 FEW005 SCT022 05/03 Q1018",
      "taf": ""
    },
    {
      "icao": "EYVI",
      "alert": "OK",
      "vis_m": 9999,
      "fzfg": false,
      "metar_trigger": false,
      "taf_trigger": false,
      "metar": "METAR EYVI 121320Z 21011KT CAVOK 16/03 Q1018 NOSIG",
      "taf": "TAF EYVI 121125Z 1212/1312 20012KT 9000 NSC"
    },
    {
      "icao": "GCFV",
      "alert": "OK",
      "vis_m": 9999,
      "fzfg": false,
      "metar_trigger": false,
      "taf_trigger": false,
      "metar": "METAR GCFV 121330Z 04008KT CAVOK 21/10 Q1018",
      "taf": ""
    },
    {
      "icao": "GCLP",
      "alert": "OK",
      "vis_m": 9999,
      "fzfg": false,
      "metar_trigger": false,
      "taf_trigger": false,
      "metar": "METAR GCLP 121330Z 04020KT 010V080 9999 FEW035 20/10 Q1019 NOSIG",
      "taf": "TAF GCLP 120800Z 1209/1309 01018KT 9999 FEW035 TX21/1214Z TN16/1306Z"
    },
    {
      "icao": "GCTS",
      "alert": "OK",
      "vis_m": 9999,
      "fzfg": false,
      "metar_trigger": false,
      "taf_trigger": false,
      "metar": "METAR GCTS 121330Z 09021KT 9999 FEW045 21/09 Q1019 WS R07 NOSIG",
      "taf": "TAF GCTS 120800Z 1209/1309 07016KT 9999 SCT035 TX22/1214Z TN16/1306Z"
    },
    {
      "icao": "GMAD",
      "alert": "OK",
      "vis_m": 8000,
      "fzfg": false,
      "metar_trigger": false,
      "taf_trigger": false,
      "metar": "METAR GMAD 121330Z 26012KT 8000 NSC 25/11 Q1017 NOSIG",
      "taf": "TAF GMAD 121100Z 1212/1318 27010KT 8000 NSC"
    },
    {
      "icao": "GMMN",
      "alert": "OK",
      "vis_m": 9999,
      "fzfg": false,
      "metar_trigger": false,
      "taf_trigger": false,
      "metar": "METAR GMMN 121330Z VRB04KT CAVOK 20/13 Q1019 NOSIG",
      "taf": "TAF GMMN 121100Z 1212/1318 36010KT CAVOK"
    },
    {
      "icao": "GMMX",
      "alert": "OK",
      "vis_m": 9999,
      "fzfg": false,
      "metar_trigger": false,
      "taf_trigger": false,
      "metar": "METAR GMMX 121330Z VRB04KT CAVOK 22/06 Q1018 NOSIG",
      "taf": "TAF GMMX 121100Z 1212/1318 06006KT 8000 SCT026"
    },
    {
      "icao": "HEGN",
      "alert": "OK",
      "vis_m": 9999,
      "fzfg": false,
      "metar_trigger": false,
      "taf_trigger": false,
      "metar": "METAR HEGN 121300Z 03006KT CAVOK 26/06 Q1013 NOSIG",
      "taf": "TAF HEGN 121100Z 1212/1318 36012KT CAVOK"
    },
    {
      "icao": "HEMA",
      "alert": "OK",
      "vis_m": 9999,
      "fzfg": false,
      "metar_trigger": false,
      "taf_trigger": false,
      "metar": "METAR HEMA 121300Z 03007KT CAVOK 24/13 Q1013 NOSIG",
      "taf": "TAF HEMA 121100Z 1212/1318 01010G20KT CAVOK"
    },
    {
      "icao": "HESH",
      "alert": "OK",
      "vis_m": 9999,
      "fzfg": false,
      "metar_trigger": false,
      "taf_trigger": false,
      "metar": "METAR HESH 121300Z 05006KT CAVOK 27/07 Q1013 NOSIG",
      "taf": "TAF HESH 121100Z 1212/1318 03010KT CAVOK"
    },
    {
      "icao": "HESX",
      "alert": "OK",
      "vis_m": 9999,
      "fzfg": false,
      "metar_trigger": false,
      "taf_trigger": false,
      "metar": "METAR HESX 121300Z 02010KT CAVOK 23/07 Q1015 NOSIG",
      "taf": "TAF HESX 121100Z 1212/1318 35007KT 9999 FEW020"
    },
    {
      "icao": "LATI",
      "alert": "OK",
      "vis_m": 9999,
      "fzfg": false,
      "metar_trigger": false,
      "taf_trigger": false,
      "metar": "METAR LATI 121320Z 33009KT 290V010 CAVOK 18/07 Q1021 NOSIG",
      "taf": "TAF LATI 121100Z 1212/1312 33008KT CAVOK TX20/1311Z TN04/1305Z"
    },
    {
      "icao": "LBPD",
      "alert": "OK",
      "vis_m": 9999,
      "fzfg": false,
      "metar_trigger": false,
      "taf_trigger": false,
      "metar": "METAR LBPD 121330Z AUTO 12008KT 080V140 9999 SCT200/// 15/03 Q1022 NOSIG",
      "taf": "TAF LBPD 121100Z 1212/1312 VRB04KT CAVOK"
    },
    {
      "icao": "LBSF",
      "alert": "OK",
      "vis_m": 9999,
      "fzfg": false,
      "metar_trigger": false,
      "taf_trigger": false,
      "metar": "METAR LBSF 121330Z VRB03KT CAVOK 17/M03 Q1020 NOSIG",
      "taf": "TAF LBSF 121100Z 1212/1312 VRB04KT CAVOK"
    },
    {
      "icao": "LBWN",
      "alert": "OK",
      "vis_m": 9999,
      "fzfg": false,
      "metar_trigger": false,
      "taf_trigger": false,
      "metar": "METAR LBWN 121330Z 15012KT 9999 FEW030 11/05 Q1024 NOSIG",
      "taf": "TAF LBWN 121100Z 1212/1312 12012KT 9999 SCT020"
    },
    {
      "icao": "LCLK",
      "alert": "OK",
      "vis_m": 9999,
      "fzfg": false,
      "metar_trigger": false,
      "taf_trigger": false,
      "metar": "METAR LCLK 121330Z 05013KT 9999 FEW030 21/09 Q1016 NOSIG",
      "taf": "TAF LCLK 121130Z 1212/1312 04016KT 9999 FEW030"
    },
    {
      "icao": "LCPH",
      "alert": "OK",
      "vis_m": 9999,
      "fzfg": false,
      "metar_trigger": false,
      "taf_trigger": false,
      "metar": "METAR LCPH 121330Z 30012KT 250V320 9999 FEW030 21/10 Q1015 NOSIG",
      "taf": "TAF LCPH 121130Z 1212/1312 27012KT 9999 FEW030 SCT050"
    },
    {
      "icao": "LEAL",
      "alert": "OK",
      "vis_m": 9999,
      "fzfg": false,
      "metar_trigger": false,
      "taf_trigger": false,
      "metar": "METAR LEAL 121330Z 18005KT 120V230 CAVOK 19/12 Q1025 NOSIG",
      "taf": "TAF LEAL 121100Z 1212/1312 VRB04KT 9999 FEW035 TX16/1212Z TN07/1306Z"
    },
    {
      "icao": "LEBB",
      "alert": "OK",
      "vis_m": 9999,
      "fzfg": false,
      "metar_trigger": false,
      "taf_trigger": false,
      "metar": "METAR LEBB 121330Z VRB04KT 9999 FEW038 20/10 Q1024 NOSIG",
      "taf": ""
    },
    {
      "icao": "LEBL",
      "alert": "OK",
      "vis_m": 8000,
      "fzfg": false,
      "metar_trigger": false,
      "taf_trigger": false,
      "metar": "METAR LEBL 121330Z 18008KT 150V220 8000 SCT020 16/13 Q1024 NOSIG",
      "taf": "TAF LEBL 121100Z 1212/1312 20010KT 9999 SCT020 TX17/1213Z TN10/1307Z"
    },
    {
      "icao": "LECH",
      "alert": "OK",
      "vis_m": 9999,
      "fzfg": false,
      "metar_trigger": false,
      "taf_trigger": false,
      "metar": "METAR LECH 121330Z AUTO 15009KT CAVOK 17/08 Q1024",
      "taf": ""
    },
    {
      "icao": "LEMD",
      "alert": "OK",
      "vis_m": 9999,
      "fzfg": false,
      "metar_trigger": false,
      "taf_trigger": false,
      "metar": "METAR LEMD 121330Z 19004KT 110V240 9999 FEW030 17/06 Q1025 NOSIG",
      "taf": "TAF LEMD 121100Z 1212/1318 VRB04KT CAVOK TX18/1215Z TN02/1307Z"
    },
    {
      "icao": "LEMG",
      "alert": "OK",
      "vis_m": 9999,
      "fzfg": false,
      "metar_trigger": false,
      "taf_trigger": false,
      "metar": "METAR LEMG 121330Z 12006KT 080V190 9999 FEW040 16/10 Q1026 NOSIG",
      "taf": "TAF LEMG 121100Z 1212/1312 14007KT CAVOK TX18/1215Z TN07/1307Z"
    },
    {
      "icao": "LEVC",
      "alert": "OK",
      "vis_m": 9999,
      "fzfg": false,
      "metar_trigger": false,
      "taf_trigger": false,
      "metar": "METAR LEVC 121330Z 12009KT 080V160 9999 FEW040 20/10 Q1024 NOSIG",
      "taf": "TAF LEVC 121100Z 1212/1312 27005KT 9999 FEW035 TX17/1214Z TN08/1306Z"
    },
    {
      "icao": "LEXJ",
      "alert": "OK",
      "vis_m": 9999,
      "fzfg": false,
      "metar_trigger": false,
      "taf_trigger": false,
      "metar": "METAR LEXJ 121330Z 04007KT 020V080 9999 FEW040 14/07 Q1025",
      "taf": "TAF LEXJ 120800Z 1209/1309 21006KT 9999 SCT040 TX17/1213Z TN08/1302Z"
    },
    {
      "icao": "LEZG",
      "alert": "OK",
      "vis_m": 9999,
      "fzfg": false,
      "metar_trigger": false,
      "taf_trigger": false,
      "metar": "METAR LEZG 121330Z 33003KT CAVOK 18/09 Q1024 NOSIG",
      "taf": "TAF LEZG 121100Z 1212/1312 27007KT 9999 FEW030 TX17/1214Z TN08/1306Z"
    },
    {
      "icao": "LEZL",
      "alert": "OK",
      "vis_m": 9999,
      "fzfg": false,
      "metar_trigger": false,
      "taf_trigger": false,
      "metar": "METAR LEZL 121330Z 06006KT 010V130 CAVOK 21/12 Q1024 NOSIG",
      "taf": "TAF LEZL 120800Z 1209/1309 06005KT CAVOK TX21/1215Z TN08/1307Z"
    },
    {
      "icao": "LFBD",
      "alert": "OK",
      "vis_m": 9999,
      "fzfg": false,
      "metar_trigger": false,
      "taf_trigger": false,
      "metar": "METAR LFBD 121330Z AUTO 27010KT 240V300 9999 SCT042 OVC049 16/06 Q1024 NOSIG",
      "taf": "TAF LFBD 121100Z 1212/1318 23005KT 9999 BKN030 TX16/1214Z TN06/1306Z"
    },
    {
      "icao": "LFLL",
      "alert": "OK",
      "vis_m": 9999,
      "fzfg": false,
      "metar_trigger": false,
      "taf_trigger": false,
      "metar": "METAR LFLL 121330Z 34007KT 300V010 9999 FEW040 13/03 Q1024 NOSIG",
      "taf": "TAF LFLL 121100Z 1212/1318 36008KT CAVOK"
    },
    {
      "icao": "LFLS",
      "alert": "OK",
      "vis_m": 9999,
      "fzfg": false,
      "metar_trigger": false,
      "taf_trigger": false,
      "metar": "METAR LFLS 121330Z AUTO 36009KT 330V030 9999 BKN041 12/04 Q1023 NOSIG",
      "taf": "TAF LFLS 120800Z 1209/1309 35005KT 9999 BKN012"
    },
    {
      "icao": "LFMN",
      "alert": "OK",
      "vis_m": 9999,
      "fzfg": false,
      "metar_trigger": false,
      "taf_trigger": false,
      "metar": "METAR LFMN 121330Z 20008KT 9999 FEW016 SCT043 BKN230 15/10 Q1019 NOSIG",
      "taf": "TAF LFMN 120800Z 1209/1315 08010KT 9999 SCT020 BKN100"
    },
    {
      "icao": "LFOB",
      "alert": "OK",
      "vis_m": 9999,
      "fzfg": false,
      "metar_trigger": false,
      "taf_trigger": false,
      "metar": "METAR LFOB 121330Z AUTO 22017KT 9999 OVC041 12/04 Q1019 BECMG 22015G25KT",
      "taf": "TAF LFOB 121100Z 1212/1312 22015G25KT 9999 BKN030"
    },
    {
      "icao": "LFPO",
      "alert": "OK",
      "vis_m": 9999,
      "fzfg": false,
      "metar_trigger": false,
      "taf_trigger": false,
      "metar": "METAR LFPO 121330Z 21014KT 180V250 9999 SCT035 BKN042 12/05 Q1021 NOSIG",
      "taf": "TAF LFPO 121100Z 1212/1318 22012KT 9999 BKN030"
    },
    {
      "icao": "LFSB",
      "alert": "OK",
      "vis_m": 9999,
      "fzfg": false,
      "metar_trigger": false,
      "taf_trigger": false,
      "metar": "METAR LFSB 121330Z AUTO 22004KT 180V310 9999 FEW044 14/04 Q1023 NOSIG",
      "taf": "TAF LFSB 121100Z 1212/1312 29005KT 9999 FEW028"
    },
    {
      "icao": "LGAV",
      "alert": "OK",
      "vis_m": 9999,
      "fzfg": false,
      "metar_trigger": false,
      "taf_trigger": false,
      "metar": "METAR LGAV 121320Z 06007KT 010V080 9999 FEW025 16/06 Q1021 NOSIG",
      "taf": "TAF LGAV 121100Z 1212/1312 04010KT 9999 FEW025"
    },
    {
      "icao": "LGTS",
      "alert": "OK",
      "vis_m": 9999,
      "fzfg": false,
      "metar_trigger": false,
      "taf_trigger": false,
      "metar": "METAR LGTS 121320Z 20008KT 9999 FEW025 17/02 Q1021 NOSIG",
      "taf": "TAF LGTS 121100Z 1212/1312 VRB03KT 9999 FEW030"
    },
    {
      "icao": "LHBP",
      "alert": "OK",
      "vis_m": 9999,
      "fzfg": false,
      "metar_trigger": false,
      "taf_trigger": false,
      "metar": "METAR LHBP 121330Z 21008KT 140V240 9999 VCSH SCT050TCU BKN080 18/06 Q1021 TEMPO SHRA FEW045CB BKN060",
      "taf": "TAF LHBP 121115Z 1212/1312 19007KT CAVOK"
    },
    {
      "icao": "LHDC",
      "alert": "OK",
      "vis_m": 9999,
      "fzfg": false,
      "metar_trigger": false,
      "taf_trigger": false,
      "metar": "METAR LHDC 121315Z AUTO 00000KT CAVOK 17/03 Q1022 NOSIG",
      "taf": "TAF LHDC 121115Z 1212/1221 20006KT CAVOK"
    },
    {
      "icao": "LIBD",
      "alert": "OK",
      "vis_m": 9999,
      "fzfg": false,
      "metar_trigger": false,
      "taf_trigger": false,
      "metar": "METAR LIBD 121320Z 06008KT CAVOK 16/11 Q1020",
      "taf": "TAF LIBD 121100Z 1212/1312 10010KT 9999 FEW030"
    },
    {
      "icao": "LIBG",
      "alert": "OK",
      "vis_m": 9999,
      "fzfg": false,
      "metar_trigger": false,
      "taf_trigger": false,
      "metar": "METAR LIBG 121250Z 25004KT 190V330 9999 VCTS SCT020CB SCT030 19/10 Q1020 RETS",
      "taf": "TAF LIBG 121100Z 1212/1221 VRB05KT 9999 FEW030"
    },
    {
      "icao": "LIBP",
      "alert": "OK",
      "vis_m": 9999,
      "fzfg": false,
      "metar_trigger": false,
      "taf_trigger": false,
      "metar": "METAR LIBP 121320Z AUTO 07009KT 9999 FEW190/// 16/10 Q1020",
      "taf": "TAF LIBP 121100Z 1212/1312 06010KT 9999 SCT090"
    },
    {
      "icao": "LIBR",
      "alert": "OK",
      "vis_m": 9999,
      "fzfg": false,
      "metar_trigger": false,
      "taf_trigger": false,
      "metar": "METAR LIBR 121320Z 08009KT 9999 FEW020 15/12 Q1020",
      "taf": "TAF LIBR 121100Z 1212/1312 12010KT 9999 FEW030"
    },
    {
      "icao": "LICA",
      "alert": "OK",
      "vis_m": 9999,
      "fzfg": false,
      "metar_trigger": false,
      "taf_trigger": false,
      "metar": "METAR LICA 121320Z AUTO 26012KT 9999 SCT041/// 17/13 Q1021",
      "taf": "TAF LICA 121100Z 1212/1312 26012KT 9999 SCT020"
    },
    {
      "icao": "LICC",
      "alert": "OK",
      "vis_m": 9999,
      "fzfg": false,
      "metar_trigger": false,
      "taf_trigger": false,
      "metar": "METAR LICC 121320Z 10010KT 9999 FEW025 18/15 Q1021",
      "taf": "TAF LICC 121100Z 1212/1312 11010KT 9999 SCT030"
    },
    {
      "icao": "LICJ",
      "alert": "OK",
      "vis_m": 9999,
      "fzfg": false,
      "metar_trigger": false,
      "taf_trigger": false,
      "metar": "METAR LICJ 121320Z 31006KT 9999 FEW019 16/12 Q1022",
      "taf": "TAF LICJ 121100Z 1212/1312 33010KT 9999 SCT030"
    },
    {
      "icao": "LIMC",
      "alert": "OK",
      "vis_m": 9999,
      "fzfg": false,
      "metar_trigger": false,
      "taf_trigger": false,
      "metar": "METAR LIMC 121320Z 23005KT 170V260 CAVOK 16/07 Q1020 NOSIG",
      "taf": "TAF LIMC 121100Z 1212/1318 VRB05KT 7000 NSC"
    },
    {
      "icao": "LIME",
      "alert": "OK",
      "vis_m": 9999,
      "fzfg": false,
      "metar_trigger": false,
      "taf_trigger": false,
      "metar": "METAR LIME 121320Z 27005KT 210V300 9999 SCT035 16/06 Q1020 NOSIG",
      "taf": "TAF LIME 121100Z 1212/1312 VRB04KT CAVOK"
    },
    {
      "icao": "LIMF",
      "alert": "OK",
      "vis_m": 6000,
      "fzfg": false,
      "metar_trigger": false,
      "taf_trigger": false,
      "metar": "METAR LIMF 121320Z 15003KT 110V200 6000 FEW030 16/05 Q1020",
      "taf": "TAF LIMF 121100Z 1212/1312 VRB04KT 7000 NSC"
    },
    {
      "icao": "LIMJ",
      "alert": "OK",
      "vis_m": 9999,
      "fzfg": false,
      "metar_trigger": false,
      "taf_trigger": false,
      "metar": "METAR LIMJ 121320Z 23006KT 9999 SCT027 SCT050 14/09 Q1020",
      "taf": "TAF LIMJ 121100Z 1212/1312 03008KT 9999 SCT040"
    },
    {
      "icao": "LIPE",
      "alert": "OK",
      "vis_m": 7000,
      "fzfg": false,
      "metar_trigger": false,
      "taf_trigger": false,
      "metar": "METAR LIPE 121320Z 06006KT 010V080 7000 FEW025 SCT050 16/10 Q1020",
      "taf": "TAF LIPE 121100Z 1212/1312 VRB05KT 7000 SCT060"
    },
    {
      "icao": "LIPH",
      "alert": "OK",
      "vis_m": 9999,
      "fzfg": false,
      "metar_trigger": false,
      "taf_trigger": false,
      "metar": "METAR LIPH 121320Z VRB02KT 9999 SCT030 17/10 Q1021",
      "taf": "TAF LIPH 121100Z 1212/1312 VRB04KT 8000 SCT015"
    },
    {
      "icao": "LIPQ",
      "alert": "OK",
      "vis_m": 9999,
      "fzfg": false,
      "metar_trigger": false,
      "taf_trigger": false,
      "metar": "METAR LIPQ 121320Z AUTO 30004KT 250V350 9999 FEW200/// 17/09 Q1020",
      "taf": "TAF LIPQ 121100Z 1212/1312 VRB05KT 9999 SCT050"
    },
    {
      "icao": "LIPR",
      "alert": "OK",
      "vis_m": 9999,
      "fzfg": false,
      "metar_trigger": false,
      "taf_trigger": false,
      "metar": "METAR LIPR 121320Z 09007KT 9999 -RA SCT035 SCT060 14/12 Q1020 RERA",
      "taf": "TAF LIPR 121100Z 1212/1312 13010KT 7000 OVC070"
    },
    {
      "icao": "LIPX",
      "alert": "OK",
      "vis_m": 9000,
      "fzfg": false,
      "metar_trigger": false,
      "taf_trigger": false,
      "metar": "METAR LIPX 121320Z VRB03KT 9000 SCT035 BKN070 16/09 Q1020",
      "taf": "TAF LIPX 121100Z 1212/1312 VRB05KT 9999 BKN040"
    },
    {
      "icao": "LIPY",
      "alert": "OK",
      "vis_m": 9999,
      "fzfg": false,
      "metar_trigger": false,
      "taf_trigger": false,
      "metar": "METAR LIPY 121320Z AUTO 13007KT 090V170 9999 SCT066/// 17/09 Q1020",
      "taf": "TAF LIPY 121100Z 1212/1312 VRB05KT 9999 OVC070"
    },
    {
      "icao": "LIPZ",
      "alert": "OK",
      "vis_m": 9999,
      "fzfg": false,
      "metar_trigger": false,
      "taf_trigger": false,
      "metar": "METAR LIPZ 121320Z 15004KT 9999 FEW020 14/12 Q1021 NOSIG",
      "taf": "TAF LIPZ 121100Z 1212/1318 05010KT 8000 BKN015"
    },
    {
      "icao": "LIRF",
      "alert": "OK",
      "vis_m": 8000,
      "fzfg": false,
      "metar_trigger": false,
      "taf_trigger": false,
      "metar": "METAR LIRF 121320Z 05007KT 8000 -RA FEW010CB SCT030 BKN040 11/11 Q1021 RERA NOSIG",
      "taf": "TAF LIRF 121100Z 1212/1318 10012KT 9999 SCT020"
    },
    {
      "icao": "LIRN",
      "alert": "OK",
      "vis_m": 9999,
      "fzfg": false,
      "metar_trigger": false,
      "taf_trigger": false,
      "metar": "METAR LIRN 121320Z 19009KT 160V230 9999 FEW040 17/11 Q1021 NOSIG",
      "taf": "TAF LIRN 121100Z 1212/1312 22010KT 7000 SCT020"
    },
    {
      "icao": "LIRP",
      "alert": "OK",
      "vis_m": 9999,
      "fzfg": false,
      "metar_trigger": false,
      "taf_trigger": false,
      "metar": "METAR LIRP 121315Z 10008KT 9999 SCT040 BKN080 14/13 Q1019 NOSIG",
      "taf": "TAF LIRP 121100Z 1212/1312 VRB04KT 9999 SCT030 BKN070"
    },
    {
      "icao": "LIRZ",
      "alert": "OK",
      "vis_m": 9999,
      "fzfg": false,
      "metar_trigger": false,
      "taf_trigger": false,
      "metar": "METAR LIRZ 121320Z AUTO 14005KT 110V170 9999 -RA OVC055/// 12/09 Q1021",
      "taf": "TAF LIRZ 121100Z 1212/1312 VRB05KT 9999 BKN040"
    },
    {
      "icao": "LJLJ",
      "alert": "OK",
      "vis_m": 9999,
      "fzfg": false,
      "metar_trigger": false,
      "taf_trigger": false,
      "metar": "METAR LJLJ 121330Z 07004KT 9999 FEW045TCU FEW090 15/05 Q1020 NOSIG",
      "taf": "TAF LJLJ 121100Z 1212/1312 09005KT 9999 FEW050"
    },
    {
      "icao": "LKMT",
      "alert": "OK",
      "vis_m": 9999,
      "fzfg": false,
      "metar_trigger": false,
      "taf_trigger": false,
      "metar": "METAR LKMT 121330Z 01008KT 9999 SCT048 14/07 Q1021 NOSIG",
      "taf": "TAF LKMT 121100Z 1212/1312 22008KT 9999 SCT035"
    },
    {
      "icao": "LKPR",
      "alert": "OK",
      "vis_m": 9999,
      "fzfg": false,
      "metar_trigger": false,
      "taf_trigger": false,
      "metar": "METAR LKPR 121330Z VRB03KT 9999 SCT018 10/05 Q1022 NOSIG",
      "taf": "TAF LKPR 121100Z 1212/1318 01005KT 9999 SCT010 BKN030"
    },
    {
      "icao": "LLBG",
      "alert": "OK",
      "vis_m": 9999,
      "fzfg": false,
      "metar_trigger": false,
      "taf_trigger": false,
      "metar": "METAR LLBG 121320Z 30011KT CAVOK 21/07 Q1015 NOSIG",
      "taf": "TAF LLBG 121103Z 1212/1312 29010KT 9999 FEW040 TX22/1212Z TN09/1304Z"
    },
    {
      "icao": "LMML",
      "alert": "OK",
      "vis_m": 9999,
      "fzfg": false,
      "metar_trigger": false,
      "taf_trigger": false,
      "metar": "METAR LMML 121315Z 02003KT 340V080 9999 FEW024 16/11 Q1022 NOSIG",
      "taf": "TAF LMML 121100Z 1212/1312 VRB07KT 9999 SCT017"
    },
    {
      "icao": "LOWW",
      "alert": "OK",
      "vis_m": 9999,
      "fzfg": false,
      "metar_trigger": false,
      "taf_trigger": false,
      "metar": "METAR LOWW 121320Z 31011KT 9999 FEW038 SCT050 16/06 Q1022 NOSIG",
      "taf": "TAF LOWW 121115Z 1212/1318 32014KT CAVOK TX17/1314Z TN03/1305Z"
    },
    {
      "icao": "LPFR",
      "alert": "OK",
      "vis_m": 9999,
      "fzfg": false,
      "metar_trigger": false,
      "taf_trigger": false,
      "metar": "METAR LPFR 121330Z 10012KT 9999 FEW025 19/12 Q1024",
      "taf": "TAF LPFR 121100Z 1212/1312 10012KT CAVOK"
    },
    {
      "icao": "LPMA",
      "alert": "OK",
      "vis_m": 9999,
      "fzfg": false,
      "metar_trigger": false,
      "taf_trigger": false,
      "metar": "METAR LPMA 121330Z 04018KT 9999 SCT016 18/10 Q1024",
      "taf": "TAF LPMA 121100Z 1212/1312 02015KT 9999 SCT015"
    },
    {
      "icao": "LPPR",
      "alert": "OK",
      "vis_m": 9999,
      "fzfg": false,
      "metar_trigger": false,
      "taf_trigger": false,
      "metar": "METAR LPPR 121330Z 26006KT 190V300 9999 BKN020 15/10 Q1027",
      "taf": "TAF LPPR 121100Z 1212/1312 31008KT 9999 SCT020"
    },
    {
      "icao": "LPPS",
      "alert": "OK",
      "vis_m": 9999,
      "fzfg": false,
      "metar_trigger": false,
      "taf_trigger": false,
      "metar": "METAR LPPS 121330Z 06014KT 9999 SCT015 17/10 Q1024",
      "taf": "TAF LPPS 121100Z 1212/1318 06015KT 9999 SCT015"
    },
    {
      "icao": "LPPT",
      "alert": "OK",
      "vis_m": 9999,
      "fzfg": false,
      "metar_trigger": false,
      "taf_trigger": false,
      "metar": "METAR LPPT 121330Z 07005KT 330V140 9999 FEW018 17/13 Q1025",
      "taf": "TAF LPPT 121100Z 1212/1318 08005KT 9999 FEW020"
    },
    {
      "icao": "LQBK",
      "alert": "OK",
      "vis_m": 9999,
      "fzfg": false,
      "metar_trigger": false,
      "taf_trigger": false,
      "metar": "METAR LQBK 121330Z 15010KT 9999 FEW035TCU SCT045 14/07 Q1021 NOSIG",
      "taf": "TAF LQBK 121100Z 1212/1312 15005KT 9999 SCT045 TX17/1214Z TN07/1306Z"
    },
    {
      "icao": "LQSA",
      "alert": "OK",
      "vis_m": 9999,
      "fzfg": false,
      "metar_trigger": false,
      "taf_trigger": false,
      "metar": "METAR LQSA 121330Z 31007KT CAVOK 14/04 Q1020 NOSIG",
      "taf": "TAF LQSA 121100Z 1212/1312 33005KT 9999 SCT060 TX16/1214Z TN03/1305Z"
    },
    {
      "icao": "LQTZ",
      "alert": "OK",
      "vis_m": 9999,
      "fzfg": false,
      "metar_trigger": false,
      "taf_trigger": false,
      "metar": "METAR LQTZ 121330Z 10005KT 050V140 CAVOK 16/05 Q1021",
      "taf": "TAF LQTZ 121100Z 1212/1312 03007KT 9999 SCT055 TX17/1212Z TN02/1306Z"
    },
    {
      "icao": "LRBC",
      "alert": "OK",
      "vis_m": 9999,
      "fzfg": false,
      "metar_trigger": false,
      "taf_trigger": false,
      "metar": "METAR LRBC 121330Z 18011KT CAVOK 10/02 Q1024",
      "taf": "TAF LRBC 121100Z 1212/1221 16012KT CAVOK"
    },
    {
      "icao": "LRBS",
      "alert": "OK",
      "vis_m": 9999,
      "fzfg": false,
      "metar_trigger": false,
      "taf_trigger": false,
      "metar": "METAR LRBS 121330Z 06006KT 360V100 CAVOK 12/05 Q1024 NOSIG",
      "taf": "TAF LRBS 121100Z 1212/1312 08008KT CAVOK"
    },
    {
      "icao": "LRBV",
      "alert": "OK",
      "vis_m": 9999,
      "fzfg": false,
      "metar_trigger": false,
      "taf_trigger": false,
      "metar": "METAR LRBV 121330Z 07004KT 020V130 CAVOK 16/M07 Q1021",
      "taf": "TAF LRBV 121100Z 1212/1221 VRB04KT CAVOK"
    },
    {
      "icao": "LRCL",
      "alert": "OK",
      "vis_m": 9999,
      "fzfg": false,
      "metar_trigger": false,
      "taf_trigger": false,
      "metar": "METAR LRCL 121330Z 10005KT 050V160 CAVOK 17/M05 Q1021",
      "taf": "TAF LRCL 121100Z 1212/1221 VRB04KT CAVOK"
    },
    {
      "icao": "LRCV",
      "alert": "OK",
      "vis_m": 9999,
      "fzfg": false,
      "metar_trigger": false,
      "taf_trigger": false,
      "metar": "METAR LRCV 121330Z 10008KT CAVOK 12/06 Q1023",
      "taf": "TAF LRCV 121100Z 1212/1221 09006KT CAVOK"
    },
    {
      "icao": "LRIA",
      "alert": "OK",
      "vis_m": 9999,
      "fzfg": false,
      "metar_trigger": false,
      "taf_trigger": false,
      "metar": "METAR LRIA 121330Z 13006KT 070V160 CAVOK 13/M01 Q1025",
      "taf": "TAF LRIA 121100Z 1212/1221 14009KT CAVOK"
    },
    {
      "icao": "LROP",
      "alert": "OK",
      "vis_m": 9999,
      "fzfg": false,
      "metar_trigger": false,
      "taf_trigger": false,
      "metar": "METAR LROP 121330Z 05005KT 010V090 CAVOK 11/03 Q1024 NOSIG",
      "taf": "TAF LROP 121100Z 1212/1312 08008KT CAVOK"
    },
    {
      "icao": "LRSB",
      "alert": "OK",
      "vis_m": 9999,
      "fzfg": false,
      "metar_trigger": false,
      "taf_trigger": false,
      "metar": "METAR LRSB 121330Z COR VRB02KT CAVOK 17/M06 Q1021",
      "taf": "TAF LRSB 121100Z 1212/1312 VRB04KT CAVOK"
    },
    {
      "icao": "LRSM",
      "alert": "OK",
      "vis_m": 9999,
      "fzfg": false,
      "metar_trigger": false,
      "taf_trigger": false,
      "metar": "METAR LRSM 121330Z 30004KT 200V360 CAVOK 19/M03 Q1022",
      "taf": "TAF LRSM 121100Z 1212/1221 VRB04KT CAVOK"
    },
    {
      "icao": "LRSV",
      "alert": "OK",
      "vis_m": 9999,
      "fzfg": false,
      "metar_trigger": false,
      "taf_trigger": false,
      "metar": "METAR LRSV 121330Z 12009KT CAVOK 12/02 Q1023",
      "taf": "TAF LRSV 121100Z 1212/1221 10008KT CAVOK"
    },
    {
      "icao": "LRTM",
      "alert": "OK",
      "vis_m": 9999,
      "fzfg": false,
      "metar_trigger": false,
      "taf_trigger": false,
      "metar": "METAR LRTM 121330Z VRB04KT CAVOK 18/M05 Q1021",
      "taf": "TAF LRTM 121100Z 1212/1221 VRB04KT CAVOK"
    },
    {
      "icao": "LRTR",
      "alert": "OK",
      "vis_m": 9999,
      "fzfg": false,
      "metar_trigger": false,
      "taf_trigger": false,
      "metar": "METAR LRTR 121330Z 35003KT 290V050 CAVOK 19/00 Q1021",
      "taf": "TAF LRTR 121100Z 1212/1312 VRB04KT CAVOK"
    },
    {
      "icao": "LTAC",
      "alert": "OK",
      "vis_m": 9999,
      "fzfg": false,
      "metar_trigger": false,
      "taf_trigger": false,
      "metar": "METAR LTAC 121320Z VRB03KT CAVOK 14/M08 Q1017 NOSIG RMK RWY21C 36005KT 310V030 RWY03L VRB03KT RWY21R 02005KT 350V050 RWY03R 23003KT 150V280 RWY21L 32005KT 280V350",
      "taf": "TAF LTAC 121040Z 1212/1312 VRB02KT CAVOK"
    },
    {
      "icao": "LTFM",
      "alert": "OK",
      "vis_m": 9999,
      "fzfg": false,
      "metar_trigger": false,
      "taf_trigger": false,
      "metar": "METAR LTFM 121320Z 01011KT 9999 BKN020 08/04 Q1023 NOSIG RMK RWY17L 35009KT RWY34L 36012KT RWY16R 35009KT RWY36 36009KT 320V020 RWY18 36009KT 310V010",
      "taf": "TAF LTFM 121040Z 1212/1318 35012KT 9999 BKN016"
    },
    {
      "icao": "LUKK",
      "alert": "OK",
      "vis_m": 9999,
      "fzfg": false,
      "metar_trigger": false,
      "taf_trigger": false,
      "metar": "METAR LUKK 121330Z 19004KT 110V270 CAVOK 15/M00 Q1025 NOSIG",
      "taf": "TAF LUKK 121117Z 1212/1312 16010KT CAVOK"
    },
    {
      "icao": "LWOH",
      "alert": "OK",
      "vis_m": 9999,
      "fzfg": false,
      "metar_trigger": false,
      "taf_trigger": false,
      "metar": "METAR LWOH 121320Z 16004KT 9999 FEW040 13/04 Q1020",
      "taf": "TAF LWOH 121110Z 1212/1312 16008KT 9999 FEW040"
    },
    {
      "icao": "LWSK",
      "alert": "OK",
      "vis_m": 9999,
      "fzfg": false,
      "metar_trigger": false,
      "taf_trigger": false,
      "metar": "METAR LWSK 121250Z VRB02KT CAVOK 20/M01 Q1020 NOSIG",
      "taf": "TAF LWSK 121110Z 1212/1312 VRB02KT CAVOK"
    },
    {
      "icao": "LYBE",
      "alert": "OK",
      "vis_m": 9999,
      "fzfg": false,
      "metar_trigger": false,
      "taf_trigger": false,
      "metar": "METAR LYBE 121330Z VRB02KT CAVOK 19/02 Q1021 NOSIG",
      "taf": "TAF LYBE 121100Z 1212/1312 32005KT CAVOK TX20/1213Z TN05/1305Z"
    },
    {
      "icao": "LYNI",
      "alert": "OK",
      "vis_m": 9999,
      "fzfg": false,
      "metar_trigger": false,
      "taf_trigger": false,
      "metar": "METAR LYNI 121330Z VRB03KT 9999 FEW050 20/M03 Q1020 NOSIG",
      "taf": "TAF LYNI 121100Z 1212/1312 11005KT CAVOK TX20/1214Z TN03/1305Z"
    },
    {
      "icao": "LYPG",
      "alert": "OK",
      "vis_m": 9999,
      "fzfg": false,
      "metar_trigger": false,
      "taf_trigger": false,
      "metar": "METAR LYPG 121330Z 13004KT 070V200 9999 FEW040 19/01 Q1020 NOSIG",
      "taf": "TAF LYPG 121100Z 1212/1312 18005KT 9999 FEW040 SCT090 TX18/1214Z TN07/1305Z"
    },
    {
      "icao": "LZIB",
      "alert": "OK",
      "vis_m": 9999,
      "fzfg": false,
      "metar_trigger": false,
      "taf_trigger": false,
      "metar": "METAR LZIB 121330Z 31009KT 9999 BKN048 16/06 Q1021 NOSIG",
      "taf": "TAF LZIB 121115Z 1212/1312 06005KT CAVOK"
    },
    {
      "icao": "LZKZ",
      "alert": "OK",
      "vis_m": 9999,
      "fzfg": false,
      "metar_trigger": false,
      "taf_trigger": false,
      "metar": "METAR LZKZ 121330Z 18008KT CAVOK 16/05 Q1021 NOSIG",
      "taf": "TAF LZKZ 121115Z 1212/1312 VRB02KT CAVOK"
    },
    {
      "icao": "LZTT",
      "alert": "OK",
      "vis_m": 9999,
      "fzfg": false,
      "metar_trigger": false,
      "taf_trigger": false,
      "metar": "METAR LZTT 121330Z VRB05KT 9999 VCSH FEW036 BKN056 12/03 Q1021 NOSIG",
      "taf": "TAF LZTT 121115Z 1212/1312 26005KT 9999 FEW050"
    },
    {
      "icao": "OEJN",
      "alert": "OK",
      "vis_m": 9999,
      "fzfg": false,
      "metar_trigger": false,
      "taf_trigger": false,
      "metar": "METAR OEJN 121300Z 31010KT 9999 FEW040 29/12 Q1011 NOSIG",
      "taf": "TAF OEJN 121100Z 1212/1312 30012KT 9999 FEW040"
    },
    {
      "icao": "OEMA",
      "alert": "OK",
      "vis_m": 9999,
      "fzfg": false,
      "metar_trigger": false,
      "taf_trigger": false,
      "metar": "METAR OEMA 121300Z 27010KT CAVOK 30/M07 Q1014 NOSIG",
      "taf": "TAF OEMA 121100Z 1212/1312 30012KT CAVOK"
    },
    {
      "icao": "OJAI",
      "alert": "OK",
      "vis_m": 4000,
      "fzfg": false,
      "metar_trigger": false,
      "taf_trigger": false,
      "metar": "METAR OJAI 121300Z 28010KT 4000 HZ NSC 20/M05 Q1016 NOSIG",
      "taf": "TAF OJAI 121100Z 1212/1318 26012KT 4000 DU"
    },
    {
      "icao": "OMAA",
      "alert": "OK",
      "vis_m": null,
      "fzfg": false,
      "metar_trigger": false,
      "taf_trigger": false,
      "metar": "",
      "taf": ""
    },
    {
      "icao": "OMDB",
      "alert": "OK",
      "vis_m": null,
      "fzfg": false,
      "metar_trigger": false,
      "taf_trigger": false,
      "metar": "",
      "taf": ""
    },
    {
      "icao": "UAAA",
      "alert": "OK",
      "vis_m": 9999,
      "fzfg": false,
      "metar_trigger": false,
      "taf_trigger": false,
      "metar": "METAR UAAA 121330Z VRB01MPS 9999 NSC M02/M08 Q1035 NOSIG",
      "taf": "TAF UAAA 121106Z 1212/1312 19003MPS 5000 BR FU SCT011 TX04/1309Z TNM12/1301Z"
    },
    {
      "icao": "UBBB",
      "alert": "OK",
      "vis_m": 9999,
      "fzfg": false,
      "metar_trigger": false,
      "taf_trigger": false,
      "metar": "METAR UBBB 121330Z 16012KT 9999 FEW011 SCT021 09/01 Q1029 NOSIG",
      "taf": "TAF UBBB 121053Z 1212/1312 12005KT 9999 SCT020 TX09/1212Z TN03/1301Z"
    },
    {
      "icao": "UDSG",
      "alert": "OK",
      "vis_m": 9999,
      "fzfg": false,
      "metar_trigger": false,
      "taf_trigger": false,
      "metar": "METAR UDSG 121330Z 26004KT 9999 FEW049 01/M06 Q1023 NOSIG",
      "taf": "TAF UDSG 121058Z 1212/1312 VRB06KT 9999 SCT040"
    },
    {
      "icao": "UDYZ",
      "alert": "OK",
      "vis_m": 9999,
      "fzfg": false,
      "metar_trigger": false,
      "taf_trigger": false,
      "metar": "METAR UDYZ 121330Z 24005KT 9999 SCT046 09/M06 Q1023 NOSIG",
      "taf": "TAF UDYZ 121100Z 1212/1312 06006KT 9999 BKN040"
    },
    {
      "icao": "UGKO",
      "alert": "OK",
      "vis_m": 9999,
      "fzfg": false,
      "metar_trigger": false,
      "taf_trigger": false,
      "metar": "METAR UGKO 121330Z 08021G31KT CAVOK 16/M02 Q1020 NOSIG",
      "taf": "TAF UGKO 121100Z 1212/1312 08020KT CAVOK TX17/1212Z TN09/1303Z"
    }
  ]
}