{
  "ts_utc": "2026-04-28T17:14:40Z",
  "threshold_m": 150,
  "source": "stations_override.txt (ICAO list) + aviationweather.gov (METAR/TAF raw)",
  "station_count": 159,
  "stations": [
    {
      "icao": "BIKF",
      "alert": "OK",
      "vis_m": 9999,
      "fzfg": false,
      "metar_trigger": false,
      "taf_trigger": false,
      "metar": "METAR BIKF 281700Z 20025KT 9999 VCSH BKN030 OVC036 07/02 Q1007",
      "taf": "TAF BIKF 281657Z 2818/2918 20023G33KT 9999 -SHRA FEW010 BKN025 TX07/2818Z TN05/2906Z"
    },
    {
      "icao": "BKPR",
      "alert": "OK",
      "vis_m": 9999,
      "fzfg": false,
      "metar_trigger": false,
      "taf_trigger": false,
      "metar": "METAR BKPR 281700Z 35014KT 9999 SCT090 20/06 Q1015 NOSIG",
      "taf": ""
    },
    {
      "icao": "EBCI",
      "alert": "OK",
      "vis_m": 9999,
      "fzfg": false,
      "metar_trigger": false,
      "taf_trigger": false,
      "metar": "METAR EBCI 281650Z 05017KT CAVOK 19/04 Q1018 NOSIG",
      "taf": "TAF EBCI 281100Z 2812/2918 05012KT CAVOK"
    },
    {
      "icao": "EDDB",
      "alert": "OK",
      "vis_m": 9999,
      "fzfg": false,
      "metar_trigger": false,
      "taf_trigger": false,
      "metar": "METAR EDDB 281650Z AUTO 04010KT CAVOK 14/M04 Q1024 NOSIG",
      "taf": "TAF EDDB 281100Z 2812/2912 05010KT CAVOK"
    },
    {
      "icao": "EDDH",
      "alert": "OK",
      "vis_m": 9999,
      "fzfg": false,
      "metar_trigger": false,
      "taf_trigger": false,
      "metar": "METAR EDDH 281650Z AUTO 05011KT 010V070 CAVOK 14/M01 Q1027 NOSIG",
      "taf": "TAF EDDH 281100Z 2812/2918 06012KT CAVOK"
    },
    {
      "icao": "EDDK",
      "alert": "OK",
      "vis_m": 9999,
      "fzfg": false,
      "metar_trigger": false,
      "taf_trigger": false,
      "metar": "METAR EDDK 281650Z AUTO 10008KT 050V140 CAVOK 20/02 Q1019 NOSIG",
      "taf": "TAF EDDK 281100Z 2812/2918 06010KT CAVOK"
    },
    {
      "icao": "EDDN",
      "alert": "OK",
      "vis_m": 9999,
      "fzfg": false,
      "metar_trigger": false,
      "taf_trigger": false,
      "metar": "METAR EDDN 281650Z AUTO 04008KT 350V080 CAVOK 18/02 Q1018 NOSIG",
      "taf": "TAF EDDN 281100Z 2812/2912 08010KT CAVOK"
    },
    {
      "icao": "EDDS",
      "alert": "OK",
      "vis_m": 9999,
      "fzfg": false,
      "metar_trigger": false,
      "taf_trigger": false,
      "metar": "METAR EDDS 281650Z AUTO 07010KT CAVOK 19/01 Q1016 NOSIG",
      "taf": "TAF EDDS 281100Z 2812/2912 06008KT CAVOK"
    },
    {
      "icao": "EDFH",
      "alert": "OK",
      "vis_m": 9999,
      "fzfg": false,
      "metar_trigger": false,
      "taf_trigger": false,
      "metar": "METAR EDFH 281650Z 06009KT 020V100 CAVOK 17/04 Q1018",
      "taf": "TAF EDFH 281100Z 2812/2912 08011KT CAVOK"
    },
    {
      "icao": "EDJA",
      "alert": "OK",
      "vis_m": 9999,
      "fzfg": false,
      "metar_trigger": false,
      "taf_trigger": false,
      "metar": "METAR EDJA 281650Z 05011KT CAVOK 17/01 Q1016",
      "taf": "TAF EDJA 281400Z 2815/2824 05010KT CAVOK"
    },
    {
      "icao": "EDLW",
      "alert": "OK",
      "vis_m": 9999,
      "fzfg": false,
      "metar_trigger": false,
      "taf_trigger": false,
      "metar": "METAR EDLW 281650Z 06013KT 030V090 CAVOK 16/01 Q1021",
      "taf": "TAF EDLW 281100Z 2812/2912 06012KT CAVOK"
    },
    {
      "icao": "EDNY",
      "alert": "OK",
      "vis_m": 9999,
      "fzfg": false,
      "metar_trigger": false,
      "taf_trigger": false,
      "metar": "METAR EDNY 281650Z 05005KT 020V080 9999 FEW042 19/02 Q1015",
      "taf": "TAF EDNY 281400Z 2815/2824 04007KT CAVOK"
    },
    {
      "icao": "EDSB",
      "alert": "OK",
      "vis_m": 9999,
      "fzfg": false,
      "metar_trigger": false,
      "taf_trigger": false,
      "metar": "METAR EDSB 281650Z 03011KT CAVOK 21/03 Q1015",
      "taf": "TAF EDSB 281100Z 2812/2912 03012KT CAVOK"
    },
    {
      "icao": "EETN",
      "alert": "OK",
      "vis_m": 9999,
      "fzfg": false,
      "metar_trigger": false,
      "taf_trigger": false,
      "metar": "METAR EETN 281650Z 01008KT 340V040 CAVOK 05/M05 Q1020 NOSIG",
      "taf": "TAF EETN 281130Z 2812/2912 34012KT 9999 SCT045"
    },
    {
      "icao": "EFTU",
      "alert": "OK",
      "vis_m": 9999,
      "fzfg": false,
      "metar_trigger": false,
      "taf_trigger": false,
      "metar": "METAR EFTU 281650Z AUTO 02012KT 340V050 CAVOK 06/M09 Q1022",
      "taf": "TAF EFTU 281430Z 2815/2915 02013KT CAVOK"
    },
    {
      "icao": "EGBB",
      "alert": "OK",
      "vis_m": 9999,
      "fzfg": false,
      "metar_trigger": false,
      "taf_trigger": false,
      "metar": "METAR EGBB 281650Z 05015KT CAVOK 13/03 Q1026",
      "taf": "TAF EGBB 281702Z 2818/2918 05013KT 9999 FEW030"
    },
    {
      "icao": "EGGP",
      "alert": "OK",
      "vis_m": 9999,
      "fzfg": false,
      "metar_trigger": false,
      "taf_trigger": false,
      "metar": "METAR EGGP 281650Z 05013KT 9999 FEW040 14/05 Q1028",
      "taf": "TAF EGGP 281702Z 2818/2918 04009KT CAVOK"
    },
    {
      "icao": "EGGW",
      "alert": "OK",
      "vis_m": 9999,
      "fzfg": false,
      "metar_trigger": false,
      "taf_trigger": false,
      "metar": "METAR EGGW 281650Z AUTO 04017G28KT 9999 NCD 14/M00 Q1024",
      "taf": "TAF EGGW 281711Z 2818/2918 03012KT CAVOK"
    },
    {
      "icao": "EGKK",
      "alert": "OK",
      "vis_m": 9999,
      "fzfg": false,
      "metar_trigger": false,
      "taf_trigger": false,
      "metar": "METAR EGKK 281650Z 06019KT CAVOK 15/04 Q1022",
      "taf": "TAF EGKK 281653Z 2818/2924 06013KT CAVOK"
    },
    {
      "icao": "EGNM",
      "alert": "OK",
      "vis_m": 9999,
      "fzfg": false,
      "metar_trigger": false,
      "taf_trigger": false,
      "metar": "METAR EGNM 281650Z 04008G18KT 020V090 9999 FEW035 11/03 Q1029",
      "taf": "TAF EGNM 281703Z 2818/2918 04009KT 9999 FEW030"
    },
    {
      "icao": "EGPD",
      "alert": "OK",
      "vis_m": 9999,
      "fzfg": false,
      "metar_trigger": false,
      "taf_trigger": false,
      "metar": "METAR EGPD 281650Z COR AUTO 14008KT 9999 NCD 10/04 Q1032 NOSIG",
      "taf": "TAF EGPD 281654Z 2818/2918 14005KT 9999 FEW025"
    },
    {
      "icao": "EGPF",
      "alert": "OK",
      "vis_m": 9999,
      "fzfg": false,
      "metar_trigger": false,
      "taf_trigger": false,
      "metar": "METAR EGPF 281650Z AUTO 06008KT 020V090 9999 NCD 14/06 Q1031",
      "taf": "TAF EGPF 281656Z 2818/2918 09006KT CAVOK"
    },
    {
      "icao": "EHBK",
      "alert": "OK",
      "vis_m": 9999,
      "fzfg": false,
      "metar_trigger": false,
      "taf_trigger": false,
      "metar": "METAR EHBK 281655Z AUTO 05015KT 9999 NCD 18/04 Q1019 NOSIG",
      "taf": "TAF EHBK 281105Z 2812/2918 05014KT CAVOK"
    },
    {
      "icao": "EHEH",
      "alert": "OK",
      "vis_m": 9999,
      "fzfg": false,
      "metar_trigger": false,
      "taf_trigger": false,
      "metar": "METAR EHEH 281655Z AUTO 06013KT 030V110 9999 NCD 18/00 Q1020 BLU NOSIG",
      "taf": "TAF EHEH 281113Z 2812/2918 05011KT CAVOK"
    },
    {
      "icao": "EKBI",
      "alert": "OK",
      "vis_m": 9999,
      "fzfg": false,
      "metar_trigger": false,
      "taf_trigger": false,
      "metar": "METAR EKBI 281650Z AUTO 04005KT 360V070 9999 NCD 15/M01 Q1028",
      "taf": "TAF EKBI 281427Z 2815/2915 02007KT CAVOK"
    },
    {
      "icao": "EKCH",
      "alert": "OK",
      "vis_m": 9999,
      "fzfg": false,
      "metar_trigger": false,
      "taf_trigger": false,
      "metar": "METAR EKCH 281650Z AUTO 35016KT 9999 NCD 11/M01 Q1027 NOSIG",
      "taf": "TAF EKCH 281427Z 2815/2915 34015KT CAVOK"
    },
    {
      "icao": "ENAL",
      "alert": "OK",
      "vis_m": 9999,
      "fzfg": false,
      "metar_trigger": false,
      "taf_trigger": false,
      "metar": "METAR ENAL 281650Z 24011KT 9999 SCT010 BKN013 09/06 Q1030",
      "taf": "TAF ENAL 281400Z 2815/2824 24008KT 9999 FEW010 BKN015"
    },
    {
      "icao": "ENBR",
      "alert": "OK",
      "vis_m": 9999,
      "fzfg": false,
      "metar_trigger": false,
      "taf_trigger": false,
      "metar": "METAR ENBR 281650Z 32010KT 9999 FEW020 SCT035 09/06 Q1031 NOSIG RMK WIND 1200FT 32012KT",
      "taf": "TAF ENBR 281100Z 2812/2912 34008KT CAVOK"
    },
    {
      "icao": "ENGM",
      "alert": "OK",
      "vis_m": 9999,
      "fzfg": false,
      "metar_trigger": false,
      "taf_trigger": false,
      "metar": "METAR ENGM 281650Z 05006KT 020V090 CAVOK 13/M05 Q1027 NOSIG",
      "taf": "TAF ENGM 281100Z 2812/2912 01005KT CAVOK"
    },
    {
      "icao": "ENHD",
      "alert": "OK",
      "vis_m": 9999,
      "fzfg": false,
      "metar_trigger": false,
      "taf_trigger": false,
      "metar": "METAR ENHD 281650Z 32011KT 290V350 9999 FEW012 09/05 Q1031",
      "taf": "TAF ENHD 281400Z 2815/2822 33012KT CAVOK"
    },
    {
      "icao": "ENTC",
      "alert": "OK",
      "vis_m": 9999,
      "fzfg": false,
      "metar_trigger": false,
      "taf_trigger": false,
      "metar": "METAR ENTC 281650Z VRB02KT 9999 BKN040 03/M05 Q1028 NOSIG RMK WIND 2600FT 26003KT",
      "taf": "TAF ENTC 281100Z 2812/2912 20003KT 9999 FEW010 BKN035"
    },
    {
      "icao": "ENTO",
      "alert": "OK",
      "vis_m": 9999,
      "fzfg": false,
      "metar_trigger": false,
      "taf_trigger": false,
      "metar": "METAR ENTO 281650Z 21010KT CAVOK 09/M02 Q1028 NOSIG",
      "taf": "TAF ENTO 281100Z 2812/2912 20010KT CAVOK"
    },
    {
      "icao": "ENVA",
      "alert": "OK",
      "vis_m": 9999,
      "fzfg": false,
      "metar_trigger": false,
      "taf_trigger": false,
      "metar": "METAR ENVA 281650Z 25005KT CAVOK 09/00 Q1029 NOSIG RMK WIND 670FT 29010KT",
      "taf": "TAF ENVA 281100Z 2812/2912 28010KT CAVOK"
    },
    {
      "icao": "ENZV",
      "alert": "OK",
      "vis_m": 9999,
      "fzfg": false,
      "metar_trigger": false,
      "taf_trigger": false,
      "metar": "METAR ENZV 281650Z 31015KT CAVOK 09/04 Q1031 NOSIG",
      "taf": "TAF ENZV 281100Z 2812/2912 31010KT CAVOK"
    },
    {
      "icao": "EPGD",
      "alert": "OK",
      "vis_m": 9999,
      "fzfg": false,
      "metar_trigger": false,
      "taf_trigger": false,
      "metar": "METAR EPGD 281700Z 02008KT CAVOK 06/M06 Q1026",
      "taf": "TAF EPGD 281130Z 2812/2912 34012KT 9999 SCT045"
    },
    {
      "icao": "EPKK",
      "alert": "OK",
      "vis_m": 9999,
      "fzfg": false,
      "metar_trigger": false,
      "taf_trigger": false,
      "metar": "METAR EPKK 281700Z 05007KT 020V080 CAVOK 10/M09 Q1022",
      "taf": "TAF EPKK 281430Z 2815/2915 06010KT CAVOK"
    },
    {
      "icao": "EPKT",
      "alert": "OK",
      "vis_m": 9999,
      "fzfg": false,
      "metar_trigger": false,
      "taf_trigger": false,
      "metar": "METAR EPKT 281700Z 02007KT CAVOK 10/M09 Q1022",
      "taf": "TAF EPKT 281130Z 2812/2912 02010KT CAVOK"
    },
    {
      "icao": "EPLB",
      "alert": "OK",
      "vis_m": 9999,
      "fzfg": false,
      "metar_trigger": false,
      "taf_trigger": false,
      "metar": "METAR EPLB 281700Z 02008KT 350V050 9999 FEW065TCU 08/M05 Q1022",
      "taf": "TAF EPLB 281130Z 2812/2912 33010KT CAVOK"
    },
    {
      "icao": "EPMO",
      "alert": "OK",
      "vis_m": 9999,
      "fzfg": false,
      "metar_trigger": false,
      "taf_trigger": false,
      "metar": "METAR EPMO 281700Z 01009KT CAVOK 09/M04 Q1023",
      "taf": "TAF EPMO 281130Z 2812/2912 34010KT CAVOK"
    },
    {
      "icao": "EPPO",
      "alert": "OK",
      "vis_m": 9999,
      "fzfg": false,
      "metar_trigger": false,
      "taf_trigger": false,
      "metar": "METAR EPPO 281700Z 35003KT 290V010 CAVOK 13/M06 Q1024",
      "taf": "TAF EPPO 281130Z 2812/2912 06005KT CAVOK"
    },
    {
      "icao": "EPRA",
      "alert": "OK",
      "vis_m": 9999,
      "fzfg": false,
      "metar_trigger": false,
      "taf_trigger": false,
      "metar": "METAR EPRA 281700Z 01010KT CAVOK 10/M07 Q1023",
      "taf": "TAF EPRA 281430Z 2815/2824 34010KT CAVOK"
    },
    {
      "icao": "EPRZ",
      "alert": "OK",
      "vis_m": 9999,
      "fzfg": false,
      "metar_trigger": false,
      "taf_trigger": false,
      "metar": "METAR EPRZ 281700Z 33008KT CAVOK 10/M09 Q1022",
      "taf": "TAF EPRZ 281130Z 2812/2912 36010KT CAVOK"
    },
    {
      "icao": "EPSC",
      "alert": "OK",
      "vis_m": 9999,
      "fzfg": false,
      "metar_trigger": false,
      "taf_trigger": false,
      "metar": "METAR EPSC 281700Z 03007KT 350V080 CAVOK 11/M05 Q1026",
      "taf": "TAF EPSC 281130Z 2812/2912 01010KT CAVOK"
    },
    {
      "icao": "EPSY",
      "alert": "OK",
      "vis_m": 9999,
      "fzfg": false,
      "metar_trigger": false,
      "taf_trigger": false,
      "metar": "METAR EPSY 281700Z 01011KT CAVOK 07/M10 Q1023",
      "taf": "TAF EPSY 281430Z 2815/2824 33010KT CAVOK"
    },
    {
      "icao": "EPWA",
      "alert": "OK",
      "vis_m": 9999,
      "fzfg": false,
      "metar_trigger": false,
      "taf_trigger": false,
      "metar": "METAR EPWA 281700Z 01010KT 9999 SCT050TCU 10/M06 Q1023 NOSIG",
      "taf": "TAF EPWA 281430Z 2815/2915 35010KT CAVOK"
    },
    {
      "icao": "EPWR",
      "alert": "OK",
      "vis_m": 9999,
      "fzfg": false,
      "metar_trigger": false,
      "taf_trigger": false,
      "metar": "METAR EPWR 281700Z 03008KT CAVOK 13/M08 Q1023",
      "taf": "TAF EPWR 281430Z 2815/2915 07007KT CAVOK"
    },
    {
      "icao": "ESGG",
      "alert": "OK",
      "vis_m": 9999,
      "fzfg": false,
      "metar_trigger": false,
      "taf_trigger": false,
      "metar": "METAR ESGG 281650Z 02008KT CAVOK 11/M05 Q1027",
      "taf": "TAF ESGG 281430Z 2815/2915 03013KT CAVOK"
    },
    {
      "icao": "ESKN",
      "alert": "OK",
      "vis_m": 9999,
      "fzfg": false,
      "metar_trigger": false,
      "taf_trigger": false,
      "metar": "METAR ESKN 281650Z 35006KT 320V030 CAVOK 09/M08 Q1026",
      "taf": "TAF ESKN 281430Z 2815/2915 34009KT CAVOK"
    },
    {
      "icao": "ESMS",
      "alert": "OK",
      "vis_m": 9999,
      "fzfg": false,
      "metar_trigger": false,
      "taf_trigger": false,
      "metar": "METAR ESMS 281650Z 17008KT CAVOK 10/M02 Q1026",
      "taf": "TAF ESMS 281427Z 2815/2915 16008KT CAVOK"
    },
    {
      "icao": "ESSA",
      "alert": "OK",
      "vis_m": 9999,
      "fzfg": false,
      "metar_trigger": false,
      "taf_trigger": false,
      "metar": "METAR ESSA 281650Z 04010KT CAVOK 07/M11 Q1027 NOSIG",
      "taf": "TAF ESSA 281430Z 2815/2915 01015KT CAVOK"
    },
    {
      "icao": "EYKA",
      "alert": "OK",
      "vis_m": 9999,
      "fzfg": false,
      "metar_trigger": false,
      "taf_trigger": false,
      "metar": "METAR EYKA 281650Z 30006KT 270V350 CAVOK 06/M04 Q1021",
      "taf": "TAF EYKA 281705Z 2818/2918 32007KT 9000 SCT040"
    },
    {
      "icao": "EYPA",
      "alert": "OK",
      "vis_m": 9999,
      "fzfg": false,
      "metar_trigger": false,
      "taf_trigger": false,
      "metar": "METAR EYPA 281650Z 35009KT 300V030 CAVOK 05/M02 Q1025",
      "taf": "TAF EYPA 281700Z 2818/2918 35006KT 9000 FEW030"
    },
    {
      "icao": "EYVI",
      "alert": "OK",
      "vis_m": 9999,
      "fzfg": false,
      "metar_trigger": false,
      "taf_trigger": false,
      "metar": "METAR EYVI 281650Z 32010KT 280V340 9999 FEW072CB 06/M07 Q1019 NOSIG",
      "taf": "TAF EYVI 281713Z 2818/2918 33008KT 9000 NSC"
    },
    {
      "icao": "GCFV",
      "alert": "OK",
      "vis_m": 9999,
      "fzfg": false,
      "metar_trigger": false,
      "taf_trigger": false,
      "metar": "METAR GCFV 281700Z 31011KT 270V350 9999 FEW020 SCT030 BKN040 21/14 Q1013",
      "taf": "TAF GCFV 281400Z 2815/2915 32010KT 9999 BKN025 TX21/2914Z TN17/2906Z"
    },
    {
      "icao": "GCLP",
      "alert": "OK",
      "vis_m": 9999,
      "fzfg": false,
      "metar_trigger": false,
      "taf_trigger": false,
      "metar": "METAR GCLP 281700Z 02017KT 350V050 9999 FEW025 BKN035 20/14 Q1014 NOSIG",
      "taf": "TAF GCLP 281400Z 2815/2915 03017KT 9999 SCT030 TX23/2914Z TN16/2906Z"
    },
    {
      "icao": "GCTS",
      "alert": "OK",
      "vis_m": 9999,
      "fzfg": false,
      "metar_trigger": false,
      "taf_trigger": false,
      "metar": "METAR GCTS 281700Z 12006KT 070V160 9999 BKN025 20/13 Q1015 NOSIG",
      "taf": "TAF GCTS 281400Z 2815/2915 09007KT 9999 BKN030 TX23/2914Z TN15/2906Z"
    },
    {
      "icao": "GMAD",
      "alert": "OK",
      "vis_m": 8000,
      "fzfg": false,
      "metar_trigger": false,
      "taf_trigger": false,
      "metar": "METAR GMAD 281700Z 26014KT 8000 BKN026 22/14 Q1010 NOSIG",
      "taf": "TAF GMAD 281100Z 2812/2918 28008KT 6000 SCT016 SCT080"
    },
    {
      "icao": "GMMN",
      "alert": "OK",
      "vis_m": 9999,
      "fzfg": false,
      "metar_trigger": false,
      "taf_trigger": false,
      "metar": "METAR GMMN 281700Z 33009KT 300V360 9999 BKN016 19/15 Q1010 NOSIG",
      "taf": "TAF GMMN 281100Z 2812/2918 24012KT 9999 BKN030"
    },
    {
      "icao": "GMMX",
      "alert": "OK",
      "vis_m": 9999,
      "fzfg": false,
      "metar_trigger": false,
      "taf_trigger": false,
      "metar": "METAR GMMX 281700Z 24005KT 190V300 9999 FEW026 BKN033 21/14 Q1011 NOSIG",
      "taf": "TAF GMMX 281100Z 2812/2918 06006KT 8000 SCT016 BKN023"
    },
    {
      "icao": "HEGN",
      "alert": "OK",
      "vis_m": 9999,
      "fzfg": false,
      "metar_trigger": false,
      "taf_trigger": false,
      "metar": "METAR HEGN 281600Z 36012KT CAVOK 26/08 Q1010 NOSIG",
      "taf": "TAF HEGN 281700Z 2818/2924 34006G18KT CAVOK"
    },
    {
      "icao": "HEMA",
      "alert": "OK",
      "vis_m": 9999,
      "fzfg": false,
      "metar_trigger": false,
      "taf_trigger": false,
      "metar": "METAR HEMA 281600Z 35010KT CAVOK 24/13 Q1010 NOSIG",
      "taf": "TAF HEMA 281700Z 2818/2924 34006G18KT CAVOK"
    },
    {
      "icao": "HESH",
      "alert": "OK",
      "vis_m": 9999,
      "fzfg": false,
      "metar_trigger": false,
      "taf_trigger": false,
      "metar": "METAR HESH 281600Z 17012KT CAVOK 28/12 Q1009 NOSIG",
      "taf": "TAF HESH 281700Z 2818/2924 36013KT CAVOK"
    },
    {
      "icao": "HESX",
      "alert": "OK",
      "vis_m": 9999,
      "fzfg": false,
      "metar_trigger": false,
      "taf_trigger": false,
      "metar": "METAR HESX 281600Z 34007KT CAVOK 26/06 Q1013 NOSIG",
      "taf": "TAF HESX 281700Z 2818/2924 34010KT CAVOK"
    },
    {
      "icao": "LATI",
      "alert": "OK",
      "vis_m": 9999,
      "fzfg": false,
      "metar_trigger": false,
      "taf_trigger": false,
      "metar": "METAR LATI 281650Z 25005KT CAVOK 23/09 Q1015 NOSIG",
      "taf": "TAF LATI 281700Z 2818/2918 VRB03KT CAVOK TX27/2912Z TN10/2904Z"
    },
    {
      "icao": "LBPD",
      "alert": "OK",
      "vis_m": 9999,
      "fzfg": false,
      "metar_trigger": false,
      "taf_trigger": false,
      "metar": "METAR LBPD 281700Z AUTO 08006KT 9999 FEW140/// 18/08 Q1015 NOSIG",
      "taf": "TAF LBPD 281100Z 2812/2912 09010KT CAVOK"
    },
    {
      "icao": "LBSF",
      "alert": "OK",
      "vis_m": 9999,
      "fzfg": false,
      "metar_trigger": false,
      "taf_trigger": false,
      "metar": "METAR LBSF 281700Z AUTO 04003KT 350V090 9999 NCD 18/05 Q1016 NOSIG",
      "taf": ""
    },
    {
      "icao": "LBWN",
      "alert": "OK",
      "vis_m": 9999,
      "fzfg": false,
      "metar_trigger": false,
      "taf_trigger": false,
      "metar": "METAR LBWN 281700Z AUTO 13006KT 9999 NSC 10/05 Q1018 NOSIG",
      "taf": "TAF LBWN 281100Z 2812/2912 12012KT CAVOK"
    },
    {
      "icao": "LCLK",
      "alert": "OK",
      "vis_m": 9999,
      "fzfg": false,
      "metar_trigger": false,
      "taf_trigger": false,
      "metar": "METAR LCLK 281700Z 23009KT CAVOK 20/18 Q1010 NOSIG",
      "taf": "TAF LCLK 281130Z 2812/2912 21018KT 9999 FEW020"
    },
    {
      "icao": "LCPH",
      "alert": "OK",
      "vis_m": 9999,
      "fzfg": false,
      "metar_trigger": false,
      "taf_trigger": false,
      "metar": "METAR LCPH 281700Z AUTO 31009KT 250V320 9999 BKN013 19/16 Q1012 NOSIG",
      "taf": "TAF LCPH 281130Z 2812/2912 29014KT 9999 FEW020"
    },
    {
      "icao": "LEAL",
      "alert": "OK",
      "vis_m": 9999,
      "fzfg": false,
      "metar_trigger": false,
      "taf_trigger": false,
      "metar": "METAR LEAL 281700Z 10006KT 050V150 CAVOK 21/15 Q1009 NOSIG",
      "taf": "TAF LEAL 281100Z 2812/2912 08012KT 9999 FEW060 TX22/2812Z TN13/2906Z"
    },
    {
      "icao": "LEBB",
      "alert": "OK",
      "vis_m": 9999,
      "fzfg": false,
      "metar_trigger": false,
      "taf_trigger": false,
      "metar": "METAR LEBB 281700Z 28007KT 250V320 9999 FEW012 BKN027 18/15 Q1012 NOSIG",
      "taf": "TAF LEBB 281100Z 2812/2912 30007KT 9999 FEW015 SCT025 TX21/2812Z TN14/2906Z"
    },
    {
      "icao": "LEBL",
      "alert": "OK",
      "vis_m": 9999,
      "fzfg": false,
      "metar_trigger": false,
      "taf_trigger": false,
      "metar": "METAR LEBL 281700Z 16005KT 110V190 9999 FEW020 20/15 Q1012 NOSIG",
      "taf": "TAF LEBL 281100Z 2812/2912 19009KT CAVOK TX21/2812Z TN16/2905Z"
    },
    {
      "icao": "LECH",
      "alert": "OK",
      "vis_m": 9999,
      "fzfg": false,
      "metar_trigger": false,
      "taf_trigger": false,
      "metar": "METAR LECH 281700Z AUTO 10004KT 060V140 CAVOK 19/06 Q1011",
      "taf": "TAF LECH 281100Z 2812/2912 12008KT CAVOK TX25/2813Z TN11/2906Z"
    },
    {
      "icao": "LEMD",
      "alert": "OK",
      "vis_m": 9999,
      "fzfg": false,
      "metar_trigger": false,
      "taf_trigger": false,
      "metar": "METAR LEMD 281700Z 13003KT 100V170 9999 FEW080TCU 24/06 Q1008 NOSIG",
      "taf": ""
    },
    {
      "icao": "LEMG",
      "alert": "OK",
      "vis_m": 9999,
      "fzfg": false,
      "metar_trigger": false,
      "taf_trigger": false,
      "metar": "METAR LEMG 281700Z 15008KT 120V190 9999 FEW025 19/12 Q1010 NOSIG",
      "taf": "TAF LEMG 281100Z 2812/2912 18010KT 9999 SCT025 TX22/2814Z TN16/2906Z"
    },
    {
      "icao": "LEVC",
      "alert": "OK",
      "vis_m": 9999,
      "fzfg": false,
      "metar_trigger": false,
      "taf_trigger": false,
      "metar": "METAR LEVC 281700Z 09005KT 040V140 CAVOK 21/08 Q1010 NOSIG",
      "taf": "TAF LEVC 281100Z 2812/2912 10010KT CAVOK TX24/2812Z TN12/2906Z"
    },
    {
      "icao": "LEXJ",
      "alert": "OK",
      "vis_m": 9999,
      "fzfg": false,
      "metar_trigger": false,
      "taf_trigger": false,
      "metar": "METAR LEXJ 281700Z 36004KT 320V070 9999 FEW013 BKN025 16/14 Q1012",
      "taf": "TAF LEXJ 281400Z 2815/2915 02005KT 9999 FEW015 SCT060 TX19/2815Z TN14/2907Z"
    },
    {
      "icao": "LEZG",
      "alert": "OK",
      "vis_m": 9999,
      "fzfg": false,
      "metar_trigger": false,
      "taf_trigger": false,
      "metar": "METAR LEZG 281700Z 09009KT CAVOK 26/05 Q1007 NOSIG",
      "taf": "TAF LEZG 281100Z 2812/2912 10007KT CAVOK TX29/2814Z TN14/2906Z"
    },
    {
      "icao": "LEZL",
      "alert": "OK",
      "vis_m": 9999,
      "fzfg": false,
      "metar_trigger": false,
      "taf_trigger": false,
      "metar": "METAR LEZL 281700Z 24012KT 210V270 9999 SCT030 BKN035 23/16 Q1008 NOSIG",
      "taf": "TAF LEZL 281400Z 2815/2915 21012KT 9999 SCT040 TX26/2815Z TN15/2906Z"
    },
    {
      "icao": "LFBD",
      "alert": "OK",
      "vis_m": 9999,
      "fzfg": false,
      "metar_trigger": false,
      "taf_trigger": false,
      "metar": "METAR LFBD 281700Z AUTO 19010KT 9999 FEW047 OVC130 21/12 Q1011 TEMPO 4000 -SHRA BKN060TCU",
      "taf": ""
    },
    {
      "icao": "LFLL",
      "alert": "OK",
      "vis_m": 4500,
      "fzfg": false,
      "metar_trigger": false,
      "taf_trigger": false,
      "metar": "METAR LFLL 281704Z COR 05005KT 4500 RA FEW026 FEW040CB SCT053TCU OVC073 15/13 Q1015 NOSIG",
      "taf": "TAF LFLL 281100Z 2812/2918 17007KT CAVOK"
    },
    {
      "icao": "LFLS",
      "alert": "OK",
      "vis_m": 6000,
      "fzfg": false,
      "metar_trigger": false,
      "taf_trigger": false,
      "metar": "METAR LFLS 281700Z AUTO VRB02KT 6000 +RA FEW013/// SCT041/// BKN054/// ///CB 15/13 Q1015 TEMPO 2000 TSRA",
      "taf": "TAF LFLS 281400Z 2815/2915 24005KT 9999 FEW035 BKN050"
    },
    {
      "icao": "LFMN",
      "alert": "OK",
      "vis_m": 9999,
      "fzfg": false,
      "metar_trigger": false,
      "taf_trigger": false,
      "metar": "METAR LFMN 281700Z 12003KT CAVOK 18/14 Q1014 NOSIG",
      "taf": "TAF LFMN 281400Z 2815/2921 15010KT 9999 FEW016"
    },
    {
      "icao": "LFOB",
      "alert": "OK",
      "vis_m": 9999,
      "fzfg": false,
      "metar_trigger": false,
      "taf_trigger": false,
      "metar": "METAR LFOB 281700Z AUTO 03013KT CAVOK 19/07 Q1016 NOSIG",
      "taf": "TAF LFOB 281100Z 2812/2912 05013G23KT CAVOK"
    },
    {
      "icao": "LFPO",
      "alert": "OK",
      "vis_m": 9999,
      "fzfg": false,
      "metar_trigger": false,
      "taf_trigger": false,
      "metar": "METAR LFPO 281700Z 04012KT 010V070 CAVOK 20/06 Q1015 NOSIG",
      "taf": "TAF LFPO 281100Z 2812/2918 03010KT CAVOK"
    },
    {
      "icao": "LFSB",
      "alert": "OK",
      "vis_m": 9999,
      "fzfg": false,
      "metar_trigger": false,
      "taf_trigger": false,
      "metar": "METAR LFSB 281700Z AUTO 06003KT CAVOK 20/08 Q1015 NOSIG",
      "taf": "TAF LFSB 281100Z 2812/2912 36005KT CAVOK"
    },
    {
      "icao": "LGAV",
      "alert": "OK",
      "vis_m": 9999,
      "fzfg": false,
      "metar_trigger": false,
      "taf_trigger": false,
      "metar": "METAR LGAV 281650Z 04004KT CAVOK 17/05 Q1017 NOSIG",
      "taf": "TAF LGAV 281700Z 2818/2918 VRB05KT 9999 FEW030"
    },
    {
      "icao": "LGTS",
      "alert": "OK",
      "vis_m": 9999,
      "fzfg": false,
      "metar_trigger": false,
      "taf_trigger": false,
      "metar": "METAR LGTS 281650Z 17008KT 9999 FEW020 18/12 Q1016 NOSIG",
      "taf": "TAF LGTS 281700Z 2818/2918 VRB03KT 9999 FEW030"
    },
    {
      "icao": "LHBP",
      "alert": "OK",
      "vis_m": 9999,
      "fzfg": false,
      "metar_trigger": false,
      "taf_trigger": false,
      "metar": "METAR LHBP 281700Z VRB02KT CAVOK 19/M00 Q1017 NOSIG",
      "taf": "TAF LHBP 281115Z 2812/2912 08005KT CAVOK"
    },
    {
      "icao": "LHDC",
      "alert": "OK",
      "vis_m": 9999,
      "fzfg": false,
      "metar_trigger": false,
      "taf_trigger": false,
      "metar": "METAR LHDC 281645Z AUTO 04010KT 020V080 CAVOK 16/M01 Q1018 NOSIG",
      "taf": "TAF LHDC 281415Z 2815/2824 04007KT CAVOK"
    },
    {
      "icao": "LIBD",
      "alert": "OK",
      "vis_m": 9999,
      "fzfg": false,
      "metar_trigger": false,
      "taf_trigger": false,
      "metar": "METAR LIBD 281650Z 07007KT CAVOK 19/15 Q1014",
      "taf": "TAF LIBD 281100Z 2812/2912 07010KT 9999 FEW040"
    },
    {
      "icao": "LIBG",
      "alert": "OK",
      "vis_m": 9999,
      "fzfg": false,
      "metar_trigger": false,
      "taf_trigger": false,
      "metar": "METAR LIBG 281650Z 18004KT CAVOK 22/11 Q1015",
      "taf": "TAF LIBG 281400Z 2815/2824 17010KT 9999 FEW030"
    },
    {
      "icao": "LIBP",
      "alert": "OK",
      "vis_m": 9999,
      "fzfg": false,
      "metar_trigger": false,
      "taf_trigger": false,
      "metar": "METAR LIBP 281650Z AUTO 03005KT 350V060 9999 SCT120/// 19/13 Q1014",
      "taf": "TAF LIBP 281100Z 2812/2912 07010KT CAVOK"
    },
    {
      "icao": "LIBR",
      "alert": "OK",
      "vis_m": 9999,
      "fzfg": false,
      "metar_trigger": false,
      "taf_trigger": false,
      "metar": "METAR LIBR 281650Z 14005KT CAVOK 23/12 Q1014",
      "taf": "TAF LIBR 281100Z 2812/2912 08010KT CAVOK"
    },
    {
      "icao": "LICA",
      "alert": "OK",
      "vis_m": 9999,
      "fzfg": false,
      "metar_trigger": false,
      "taf_trigger": false,
      "metar": "METAR LICA 281650Z AUTO 26003KT 230V290 9999 NCD 20/17 Q1015",
      "taf": "TAF LICA 281100Z 2812/2912 27012KT CAVOK"
    },
    {
      "icao": "LICC",
      "alert": "OK",
      "vis_m": 9999,
      "fzfg": false,
      "metar_trigger": false,
      "taf_trigger": false,
      "metar": "METAR LICC 281650Z 05013KT CAVOK 20/14 Q1015",
      "taf": "TAF LICC 281100Z 2812/2912 07013KT CAVOK"
    },
    {
      "icao": "LICJ",
      "alert": "OK",
      "vis_m": 9999,
      "fzfg": false,
      "metar_trigger": false,
      "taf_trigger": false,
      "metar": "METAR LICJ 281650Z 23008KT CAVOK 20/16 Q1015",
      "taf": "TAF LICJ 281100Z 2812/2912 04012KT CAVOK"
    },
    {
      "icao": "LIMC",
      "alert": "OK",
      "vis_m": 9999,
      "fzfg": false,
      "metar_trigger": false,
      "taf_trigger": false,
      "metar": "METAR LIMC 281650Z 35006KT 320V020 9999 SCT070 20/13 Q1014 NOSIG",
      "taf": "TAF LIMC 281100Z 2812/2918 VRB05KT 9999 FEW020 SCT060"
    },
    {
      "icao": "LIME",
      "alert": "OK",
      "vis_m": 9999,
      "fzfg": false,
      "metar_trigger": false,
      "taf_trigger": false,
      "metar": "METAR LIME 281650Z 07003KT 040V110 9999 SCT095 22/10 Q1014 NOSIG",
      "taf": "TAF LIME 281100Z 2812/2912 VRB05KT 9999 FEW030 SCT060"
    },
    {
      "icao": "LIMF",
      "alert": "OK",
      "vis_m": 9999,
      "fzfg": false,
      "metar_trigger": false,
      "taf_trigger": false,
      "metar": "METAR LIMF 281650Z 05005KT 9999 VCSH BKN060 20/13 Q1014",
      "taf": "TAF LIMF 281100Z 2812/2912 VRB05KT 9999 SCT030 SCT060"
    },
    {
      "icao": "LIMJ",
      "alert": "OK",
      "vis_m": 9999,
      "fzfg": false,
      "metar_trigger": false,
      "taf_trigger": false,
      "metar": "METAR LIMJ 281650Z 22003KT CAVOK 19/11 Q1014",
      "taf": "TAF LIMJ 281100Z 2812/2912 20006KT CAVOK"
    },
    {
      "icao": "LIPE",
      "alert": "OK",
      "vis_m": 9999,
      "fzfg": false,
      "metar_trigger": false,
      "taf_trigger": false,
      "metar": "METAR LIPE 281650Z 07009KT CAVOK 23/14 Q1013",
      "taf": "TAF LIPE 281100Z 2812/2912 06010KT CAVOK"
    },
    {
      "icao": "LIPH",
      "alert": "OK",
      "vis_m": 9999,
      "fzfg": false,
      "metar_trigger": false,
      "taf_trigger": false,
      "metar": "METAR LIPH 281650Z 14004KT 100V170 CAVOK 22/10 Q1014",
      "taf": "TAF LIPH 281100Z 2812/2912 07006KT 9999 FEW050"
    },
    {
      "icao": "LIPQ",
      "alert": "OK",
      "vis_m": 9999,
      "fzfg": false,
      "metar_trigger": false,
      "taf_trigger": false,
      "metar": "METAR LIPQ 281650Z AUTO 13004KT 050V150 9999 FEW071/// BKN082/// 20/11 Q1015",
      "taf": "TAF LIPQ 281100Z 2812/2912 VRB05KT 9999 FEW050"
    },
    {
      "icao": "LIPR",
      "alert": "OK",
      "vis_m": 9999,
      "fzfg": false,
      "metar_trigger": false,
      "taf_trigger": false,
      "metar": "METAR LIPR 281650Z 09007KT 060V120 9999 FEW050 20/15 Q1013",
      "taf": "TAF LIPR 281100Z 2812/2912 07010KT CAVOK"
    },
    {
      "icao": "LIPX",
      "alert": "OK",
      "vis_m": 9999,
      "fzfg": false,
      "metar_trigger": false,
      "taf_trigger": false,
      "metar": "METAR LIPX 281650Z 10005KT 050V130 9999 FEW090 24/10 Q1013",
      "taf": "TAF LIPX 281100Z 2812/2912 10010KT 9999 SCT060"
    },
    {
      "icao": "LIPY",
      "alert": "OK",
      "vis_m": 9999,
      "fzfg": false,
      "metar_trigger": false,
      "taf_trigger": false,
      "metar": "METAR LIPY 281650Z AUTO 16003KT 120V200 9999 -RA OVC095/// 21/14 Q1014",
      "taf": "TAF LIPY 281100Z 2812/2912 07010KT CAVOK"
    },
    {
      "icao": "LIPZ",
      "alert": "OK",
      "vis_m": 9999,
      "fzfg": false,
      "metar_trigger": false,
      "taf_trigger": false,
      "metar": "METAR LIPZ 281650Z 14005KT CAVOK 20/10 Q1014 NOSIG",
      "taf": "TAF LIPZ 281100Z 2812/2918 14010KT 9999 SCT050"
    },
    {
      "icao": "LIRF",
      "alert": "OK",
      "vis_m": 9999,
      "fzfg": false,
      "metar_trigger": false,
      "taf_trigger": false,
      "metar": "METAR LIRF 281650Z 27006KT CAVOK 19/11 Q1015 NOSIG",
      "taf": "TAF LIRF 281100Z 2812/2918 26010KT CAVOK"
    },
    {
      "icao": "LIRN",
      "alert": "OK",
      "vis_m": 9999,
      "fzfg": false,
      "metar_trigger": false,
      "taf_trigger": false,
      "metar": "METAR LIRN 281650Z 14006KT CAVOK 21/11 Q1015 NOSIG",
      "taf": "TAF LIRN 281100Z 2812/2912 25010KT CAVOK"
    },
    {
      "icao": "LIRP",
      "alert": "OK",
      "vis_m": 9999,
      "fzfg": false,
      "metar_trigger": false,
      "taf_trigger": false,
      "metar": "METAR LIRP 281615Z 25008KT CAVOK 21/11 Q1015 NOSIG",
      "taf": "TAF LIRP 281100Z 2812/2912 VRB04KT CAVOK"
    },
    {
      "icao": "LIRZ",
      "alert": "OK",
      "vis_m": 9999,
      "fzfg": false,
      "metar_trigger": false,
      "taf_trigger": false,
      "metar": "METAR LIRZ 281650Z AUTO 23009KT 9999 NCD 24/06 Q1014",
      "taf": "TAF LIRZ 281100Z 2812/2912 22010KT CAVOK"
    },
    {
      "icao": "LJLJ",
      "alert": "OK",
      "vis_m": 9999,
      "fzfg": false,
      "metar_trigger": false,
      "taf_trigger": false,
      "metar": "METAR LJLJ 281700Z 13006KT 9999 FEW053 BKN075 BKN090 18/06 Q1016 BECMG -SHRA",
      "taf": "TAF LJLJ 281700Z 2818/2918 10005KT 9999 FEW045 BKN080"
    },
    {
      "icao": "LKMT",
      "alert": "OK",
      "vis_m": 9999,
      "fzfg": false,
      "metar_trigger": false,
      "taf_trigger": false,
      "metar": "METAR LKMT 281700Z 36011KT CAVOK 12/M05 Q1021 NOSIG",
      "taf": "TAF LKMT 281100Z 2812/2912 04008KT CAVOK"
    },
    {
      "icao": "LKPR",
      "alert": "OK",
      "vis_m": 9999,
      "fzfg": false,
      "metar_trigger": false,
      "taf_trigger": false,
      "metar": "METAR LKPR 281700Z 01013KT CAVOK 14/00 Q1020 NOSIG",
      "taf": "TAF LKPR 281400Z 2815/2921 06007KT CAVOK"
    },
    {
      "icao": "LLBG",
      "alert": "OK",
      "vis_m": 9999,
      "fzfg": false,
      "metar_trigger": false,
      "taf_trigger": false,
      "metar": "METAR LLBG 281650Z 33006KT 9999 FEW020 20/14 Q1013 NOSIG",
      "taf": "TAF LLBG 281705Z 2818/2918 VRB04KT 9999 SCT017 TX25/2911Z TN15/2903Z"
    },
    {
      "icao": "LMML",
      "alert": "OK",
      "vis_m": 9999,
      "fzfg": false,
      "metar_trigger": false,
      "taf_trigger": false,
      "metar": "METAR LMML 281645Z 11010KT CAVOK 20/15 Q1015 NOSIG",
      "taf": "TAF LMML 281700Z 2818/2918 11012KT 9999 FEW020"
    },
    {
      "icao": "LOWW",
      "alert": "OK",
      "vis_m": 9999,
      "fzfg": false,
      "metar_trigger": false,
      "taf_trigger": false,
      "metar": "METAR LOWW 281650Z 03009KT CAVOK 17/01 Q1018 NOSIG",
      "taf": "TAF LOWW 281415Z 2815/2921 07010KT CAVOK TX19/2815Z TN05/2921Z"
    },
    {
      "icao": "LPFR",
      "alert": "OK",
      "vis_m": 9999,
      "fzfg": false,
      "metar_trigger": false,
      "taf_trigger": false,
      "metar": "METAR LPFR 281700Z 11007KT 9999 BKN012 20/17 Q1008",
      "taf": "TAF LPFR 281100Z 2812/2912 12013KT 9999 SCT020"
    },
    {
      "icao": "LPMA",
      "alert": "OK",
      "vis_m": 9999,
      "fzfg": false,
      "metar_trigger": false,
      "taf_trigger": false,
      "metar": "METAR LPMA 281700Z 35008KT 290V030 9999 BKN016 BKN033 18/10 Q1015",
      "taf": "TAF LPMA 281100Z 2812/2912 36010KT 9999 SCT015 SCT030"
    },
    {
      "icao": "LPPR",
      "alert": "OK",
      "vis_m": 9999,
      "fzfg": false,
      "metar_trigger": false,
      "taf_trigger": false,
      "metar": "METAR LPPR 281700Z 35010KT CAVOK 24/13 Q1007",
      "taf": "TAF LPPR 281100Z 2812/2912 26007KT 9999 FEW025"
    },
    {
      "icao": "LPPS",
      "alert": "OK",
      "vis_m": 9999,
      "fzfg": false,
      "metar_trigger": false,
      "taf_trigger": false,
      "metar": "METAR LPPS 281700Z 35009KT 310V020 9999 SCT015 BKN030 18/11 Q1015",
      "taf": "TAF LPPS 281100Z 2812/2918 36012KT 9999 SCT015 BKN030"
    },
    {
      "icao": "LPPT",
      "alert": "OK",
      "vis_m": 9999,
      "fzfg": false,
      "metar_trigger": false,
      "taf_trigger": false,
      "metar": "METAR LPPT 281700Z 33011KT 290V030 9999 FEW032 21/15 Q1007",
      "taf": "TAF LPPT 281100Z 2812/2918 11010KT 9999 FEW020"
    },
    {
      "icao": "LQBK",
      "alert": "OK",
      "vis_m": 9999,
      "fzfg": false,
      "metar_trigger": false,
      "taf_trigger": false,
      "metar": "METAR LQBK 281700Z 05004KT CAVOK 19/04 Q1016 NOSIG",
      "taf": "TAF LQBK 281700Z 2818/2918 35005KT CAVOK TX15/2912Z TN05/2905Z"
    },
    {
      "icao": "LQSA",
      "alert": "OK",
      "vis_m": 9999,
      "fzfg": false,
      "metar_trigger": false,
      "taf_trigger": false,
      "metar": "METAR LQSA 281700Z 30007KT 9999 FEW055 19/06 Q1014 NOSIG",
      "taf": "TAF LQSA 281700Z 2818/2918 29006KT 9999 SCT050 TX18/2913Z TN07/2904Z"
    },
    {
      "icao": "LQTZ",
      "alert": "OK",
      "vis_m": 9999,
      "fzfg": false,
      "metar_trigger": false,
      "taf_trigger": false,
      "metar": "METAR LQTZ 281700Z 07004KT 030V100 CAVOK 19/04 Q1016",
      "taf": "TAF LQTZ 281700Z 2818/2918 03006KT CAVOK TX17/2818Z TN06/2904Z"
    },
    {
      "icao": "LRBC",
      "alert": "OK",
      "vis_m": 9999,
      "fzfg": false,
      "metar_trigger": false,
      "taf_trigger": false,
      "metar": "METAR LRBC 281700Z 03004KT CAVOK 14/M01 Q1018",
      "taf": "TAF LRBC 281400Z 2815/2824 02007KT CAVOK"
    },
    {
      "icao": "LRBS",
      "alert": "OK",
      "vis_m": 9999,
      "fzfg": false,
      "metar_trigger": false,
      "taf_trigger": false,
      "metar": "METAR LRBS 281700Z 12006KT CAVOK 18/04 Q1016 NOSIG",
      "taf": "TAF LRBS 281100Z 2812/2912 VRB04KT CAVOK"
    },
    {
      "icao": "LRBV",
      "alert": "OK",
      "vis_m": 9999,
      "fzfg": false,
      "metar_trigger": false,
      "taf_trigger": false,
      "metar": "METAR LRBV 281700Z 30004KT CAVOK 12/01 Q1017",
      "taf": "TAF LRBV 281400Z 2815/2824 33010KT CAVOK"
    },
    {
      "icao": "LRCL",
      "alert": "OK",
      "vis_m": 9999,
      "fzfg": false,
      "metar_trigger": false,
      "taf_trigger": false,
      "metar": "METAR LRCL 281700Z 34008KT CAVOK 14/M01 Q1017",
      "taf": "TAF LRCL 281400Z 2815/2824 33010KT CAVOK"
    },
    {
      "icao": "LRCV",
      "alert": "OK",
      "vis_m": 9999,
      "fzfg": false,
      "metar_trigger": false,
      "taf_trigger": false,
      "metar": "METAR LRCV 281700Z 16005KT CAVOK 18/05 Q1015",
      "taf": "TAF LRCV 281400Z 2815/2824 VRB04KT CAVOK"
    },
    {
      "icao": "LRIA",
      "alert": "OK",
      "vis_m": 9999,
      "fzfg": false,
      "metar_trigger": false,
      "taf_trigger": false,
      "metar": "METAR LRIA 281700Z 33009KT CAVOK 13/M02 Q1019",
      "taf": "TAF LRIA 281400Z 2815/2824 32012KT CAVOK"
    },
    {
      "icao": "LROP",
      "alert": "OK",
      "vis_m": 9999,
      "fzfg": false,
      "metar_trigger": false,
      "taf_trigger": false,
      "metar": "METAR LROP 281700Z 12005KT CAVOK 17/05 Q1016 NOSIG",
      "taf": "TAF LROP 281100Z 2812/2912 VRB04KT CAVOK"
    },
    {
      "icao": "LRSB",
      "alert": "OK",
      "vis_m": 9999,
      "fzfg": false,
      "metar_trigger": false,
      "taf_trigger": false,
      "metar": "METAR LRSB 281700Z 02005KT CAVOK 15/M01 Q1017",
      "taf": "TAF LRSB 281100Z 2812/2912 VRB04KT CAVOK"
    },
    {
      "icao": "LRSM",
      "alert": "OK",
      "vis_m": 9999,
      "fzfg": false,
      "metar_trigger": false,
      "taf_trigger": false,
      "metar": "METAR LRSM 281700Z 32008KT CAVOK 15/M03 Q1018",
      "taf": "TAF LRSM 281400Z 2815/2824 35012KT CAVOK"
    },
    {
      "icao": "LRSV",
      "alert": "OK",
      "vis_m": 9999,
      "fzfg": false,
      "metar_trigger": false,
      "taf_trigger": false,
      "metar": "METAR LRSV 281700Z 33011KT CAVOK 10/M04 Q1019",
      "taf": "TAF LRSV 281400Z 2815/2824 33010KT CAVOK"
    },
    {
      "icao": "LRTM",
      "alert": "OK",
      "vis_m": 9999,
      "fzfg": false,
      "metar_trigger": false,
      "taf_trigger": false,
      "metar": "METAR LRTM 281700Z 32005KT 290V360 CAVOK 15/M00 Q1017",
      "taf": "TAF LRTM 281400Z 2815/2824 VRB04KT CAVOK"
    },
    {
      "icao": "LRTR",
      "alert": "OK",
      "vis_m": 9999,
      "fzfg": false,
      "metar_trigger": false,
      "taf_trigger": false,
      "metar": "METAR LRTR 281700Z 01005KT CAVOK 15/05 Q1017 NOSIG",
      "taf": "TAF LRTR 281100Z 2812/2912 01008KT CAVOK"
    },
    {
      "icao": "LTAC",
      "alert": "OK",
      "vis_m": 9999,
      "fzfg": false,
      "metar_trigger": false,
      "taf_trigger": false,
      "metar": "METAR LTAC 281650Z 07006KT 040V100 9999 SCT040 14/05 Q1014 NOSIG RMK RWY21C 07006KT RWY03L 07005KT RWY21R 05005KT RWY03R 06007KT RWY21L 09006KT",
      "taf": "TAF LTAC 281640Z 2818/2918 VRB02KT 9999 SCT040"
    },
    {
      "icao": "LTFM",
      "alert": "OK",
      "vis_m": 9999,
      "fzfg": false,
      "metar_trigger": false,
      "taf_trigger": false,
      "metar": "METAR LTFM 281650Z 08011KT 020V100 CAVOK 11/06 Q1018 NOSIG RMK RWY17L 08010KT RWY34L 06011KT RWY16R 07011KT RWY36 07011KT RWY18 08010KT",
      "taf": "TAF LTFM 281640Z 2818/2924 07008KT CAVOK"
    },
    {
      "icao": "LUKK",
      "alert": "OK",
      "vis_m": 9999,
      "fzfg": false,
      "metar_trigger": false,
      "taf_trigger": false,
      "metar": "METAR LUKK 281700Z 34009KT CAVOK 14/M04 Q1018 NOSIG",
      "taf": "TAF LUKK 281701Z 2818/2918 36009KT CAVOK"
    },
    {
      "icao": "LWOH",
      "alert": "OK",
      "vis_m": 9999,
      "fzfg": false,
      "metar_trigger": false,
      "taf_trigger": false,
      "metar": "METAR LWOH 281650Z 21005KT 160V260 9999 FEW035 18/08 Q1016",
      "taf": "TAF LWOH 281710Z 2818/2918 VRB02KT 9999 FEW040"
    },
    {
      "icao": "LWSK",
      "alert": "OK",
      "vis_m": 9999,
      "fzfg": false,
      "metar_trigger": false,
      "taf_trigger": false,
      "metar": "METAR LWSK 281650Z 03004KT 9999 FEW059 25/07 Q1013 NOSIG",
      "taf": "TAF LWSK 281710Z 2818/2918 VRB02KT CAVOK"
    },
    {
      "icao": "LYBE",
      "alert": "OK",
      "vis_m": 9999,
      "fzfg": false,
      "metar_trigger": false,
      "taf_trigger": false,
      "metar": "METAR LYBE 281700Z 03004KT CAVOK 18/02 Q1017 NOSIG",
      "taf": "TAF LYBE 281100Z 2812/2912 02007KT CAVOK TX22/2813Z TN09/2904Z"
    },
    {
      "icao": "LYNI",
      "alert": "OK",
      "vis_m": 9999,
      "fzfg": false,
      "metar_trigger": false,
      "taf_trigger": false,
      "metar": "METAR LYNI 281700Z 31006KT CAVOK 20/02 Q1015 NOSIG",
      "taf": "TAF LYNI 281100Z 2812/2912 32011KT CAVOK TX24/2813Z TN10/2904Z"
    },
    {
      "icao": "LYPG",
      "alert": "OK",
      "vis_m": 9999,
      "fzfg": false,
      "metar_trigger": false,
      "taf_trigger": false,
      "metar": "METAR LYPG 281700Z 14007KT 9999 FEW050 23/13 Q1014 NOSIG",
      "taf": "TAF LYPG 281100Z 2812/2912 16008KT 9999 FEW050 TX27/2814Z TN11/2904Z"
    },
    {
      "icao": "LZIB",
      "alert": "OK",
      "vis_m": 9999,
      "fzfg": false,
      "metar_trigger": false,
      "taf_trigger": false,
      "metar": "METAR LZIB 281700Z 01009KT 340V040 CAVOK 18/M01 Q1018 NOSIG",
      "taf": ""
    },
    {
      "icao": "LZKZ",
      "alert": "OK",
      "vis_m": 9999,
      "fzfg": false,
      "metar_trigger": false,
      "taf_trigger": false,
      "metar": "METAR LZKZ 281700Z 02014KT CAVOK 12/M05 Q1020 NOSIG",
      "taf": ""
    },
    {
      "icao": "LZTT",
      "alert": "OK",
      "vis_m": 9999,
      "fzfg": false,
      "metar_trigger": false,
      "taf_trigger": false,
      "metar": "METAR LZTT 281700Z 08013KT 9999 BKN063 08/M05 Q1019 NOSIG",
      "taf": ""
    },
    {
      "icao": "OEJN",
      "alert": "OK",
      "vis_m": 9999,
      "fzfg": false,
      "metar_trigger": false,
      "taf_trigger": false,
      "metar": "METAR OEJN 281700Z 35012KT CAVOK 28/13 Q1008 NOSIG",
      "taf": "TAF OEJN 281700Z 2818/2924 01005KT CAVOK"
    },
    {
      "icao": "OEMA",
      "alert": "OK",
      "vis_m": 9999,
      "fzfg": false,
      "metar_trigger": false,
      "taf_trigger": false,
      "metar": "METAR OEMA 281700Z 22011KT CAVOK 30/M02 Q1011 NOSIG",
      "taf": "TAF OEMA 281700Z 2818/2924 VRB03KT 7000 NSC"
    },
    {
      "icao": "OJAI",
      "alert": "OK",
      "vis_m": 5000,
      "fzfg": false,
      "metar_trigger": false,
      "taf_trigger": false,
      "metar": "METAR OJAI 281700Z 27008KT 5000 HZ NSC 18/09 Q1014 NOSIG",
      "taf": "TAF OJAI 281700Z 2818/2924 29012KT 5000 HZ FEW035"
    },
    {
      "icao": "OMAA",
      "alert": "OK",
      "vis_m": 9999,
      "fzfg": false,
      "metar_trigger": false,
      "taf_trigger": false,
      "metar": "METAR OMAA 281700Z 35009KT CAVOK 33/17 Q1006 NOSIG",
      "taf": "TAF OMAA 281700Z 2818/3000 01007KT 8000 NSC"
    },
    {
      "icao": "OMDB",
      "alert": "OK",
      "vis_m": 9999,
      "fzfg": false,
      "metar_trigger": false,
      "taf_trigger": false,
      "metar": "METAR OMDB 281700Z 31010KT CAVOK 33/19 Q1006 NOSIG",
      "taf": "TAF OMDB 281700Z 2818/3000 29010KT CAVOK"
    },
    {
      "icao": "UAAA",
      "alert": "OK",
      "vis_m": 9999,
      "fzfg": false,
      "metar_trigger": false,
      "taf_trigger": false,
      "metar": "METAR UAAA 281700Z 21002MPS 9999 SCT200 15/08 Q1016 NOSIG",
      "taf": "TAF UAAA 281102Z 2812/2912 19003MPS 9999 SCT050CB BKN100 TX25/2909Z TN12/2901Z"
    },
    {
      "icao": "UBBB",
      "alert": "OK",
      "vis_m": 9999,
      "fzfg": false,
      "metar_trigger": false,
      "taf_trigger": false,
      "metar": "METAR UBBB 281700Z 33016KT CAVOK 11/02 Q1020 NOSIG",
      "taf": "TAF UBBB 281702Z 2818/2918 33014KT 9999 SCT040 TX13/2910Z TN09/2901Z"
    },
    {
      "icao": "UDSG",
      "alert": "OK",
      "vis_m": 9999,
      "fzfg": false,
      "metar_trigger": false,
      "taf_trigger": false,
      "metar": "METAR UDSG 281700Z 07017KT 9999 FEW049CB 08/02 Q1017 NOSIG",
      "taf": "TAF UDSG 281058Z 2812/2912 06006KT 9999 FEW050"
    },
    {
      "icao": "UDYZ",
      "alert": "OK",
      "vis_m": 9999,
      "fzfg": false,
      "metar_trigger": false,
      "taf_trigger": false,
      "metar": "METAR UDYZ 281700Z 07011KT 9999 FEW046 15/04 Q1014 TEMPO 04026G36KT",
      "taf": "TAF UDYZ 281100Z 2812/2912 22006KT 9999 FEW040"
    },
    {
      "icao": "UGKO",
      "alert": "OK",
      "vis_m": 9999,
      "fzfg": false,
      "metar_trigger": false,
      "taf_trigger": false,
      "metar": "METAR UGKO 281700Z 27007KT CAVOK 11/04 Q1017 NOSIG",
      "taf": "TAF UGKO 281700Z 2818/2918 25006KT CAVOK TX18/2911Z TN06/2902Z"
    }
  ]
}