{
  "ts_utc": "2026-03-24T10:29:27Z",
  "threshold_m": 150,
  "source": "stations_override.txt (ICAO list) + aviationweather.gov (METAR/TAF raw)",
  "station_count": 159,
  "stations": [
    {
      "icao": "BIKF",
      "alert": "OK",
      "vis_m": 9999,
      "fzfg": false,
      "metar_trigger": false,
      "taf_trigger": false,
      "metar": "METAR BIKF 241000Z 08011KT 9999 FEW011 BKN026 OVC084 M02/M03 Q0988",
      "taf": "TAF BIKF 240748Z 2409/2509 08012KT 9999 FEW020 SCT050 TX01/2413Z TNM06/2506Z"
    },
    {
      "icao": "BKPR",
      "alert": "OK",
      "vis_m": null,
      "fzfg": false,
      "metar_trigger": false,
      "taf_trigger": false,
      "metar": "",
      "taf": "TAF BKPR 240530Z 2406/2506 01008KT 9999 SCT030 BKN070"
    },
    {
      "icao": "EBCI",
      "alert": "OK",
      "vis_m": 8000,
      "fzfg": false,
      "metar_trigger": false,
      "taf_trigger": false,
      "metar": "METAR EBCI 241020Z 22013KT 8000 NSC 13/04 Q1019 NOSIG",
      "taf": "TAF EBCI 240516Z 2406/2512 24012KT 9999 FEW030"
    },
    {
      "icao": "EDDB",
      "alert": "OK",
      "vis_m": 9999,
      "fzfg": false,
      "metar_trigger": false,
      "taf_trigger": false,
      "metar": "METAR EDDB 241020Z AUTO 22009KT 180V250 CAVOK 13/03 Q1018 NOSIG",
      "taf": "TAF EDDB 240500Z 2406/2506 20007KT CAVOK"
    },
    {
      "icao": "EDDH",
      "alert": "OK",
      "vis_m": 9999,
      "fzfg": false,
      "metar_trigger": false,
      "taf_trigger": false,
      "metar": "METAR EDDH 241020Z AUTO 23014KT CAVOK 12/05 Q1014 NOSIG",
      "taf": "TAF EDDH 240500Z 2406/2512 21006KT CAVOK"
    },
    {
      "icao": "EDDK",
      "alert": "OK",
      "vis_m": 9999,
      "fzfg": false,
      "metar_trigger": false,
      "taf_trigger": false,
      "metar": "METAR EDDK 241020Z AUTO 19008KT 160V240 CAVOK 14/03 Q1019 NOSIG",
      "taf": "TAF EDDK 240500Z 2406/2512 14004KT CAVOK"
    },
    {
      "icao": "EDDN",
      "alert": "OK",
      "vis_m": 9999,
      "fzfg": false,
      "metar_trigger": false,
      "taf_trigger": false,
      "metar": "METAR EDDN 241020Z AUTO VRB03KT CAVOK 13/02 Q1021 NOSIG",
      "taf": "TAF EDDN 240500Z 2406/2506 13005KT CAVOK"
    },
    {
      "icao": "EDDS",
      "alert": "OK",
      "vis_m": 9999,
      "fzfg": false,
      "metar_trigger": false,
      "taf_trigger": false,
      "metar": "METAR EDDS 241020Z AUTO 12004KT 050V190 CAVOK 12/02 Q1022 NOSIG",
      "taf": "TAF EDDS 240500Z 2406/2506 VRB03KT CAVOK"
    },
    {
      "icao": "EDFH",
      "alert": "OK",
      "vis_m": 9999,
      "fzfg": false,
      "metar_trigger": false,
      "taf_trigger": false,
      "metar": "METAR EDFH 241020Z 27009KT CAVOK 12/01 Q1020",
      "taf": "TAF EDFH 240500Z 2406/2506 21005KT CAVOK"
    },
    {
      "icao": "EDJA",
      "alert": "OK",
      "vis_m": 9999,
      "fzfg": false,
      "metar_trigger": false,
      "taf_trigger": false,
      "metar": "METAR EDJA 241020Z VRB03KT CAVOK 11/M01 Q1022",
      "taf": "TAF EDJA 240800Z 2409/2418 24005KT CAVOK"
    },
    {
      "icao": "EDLW",
      "alert": "OK",
      "vis_m": 9999,
      "fzfg": false,
      "metar_trigger": false,
      "taf_trigger": false,
      "metar": "METAR EDLW 241020Z 22015KT CAVOK 14/03 Q1017",
      "taf": "TAF EDLW 240500Z 2406/2506 18009KT CAVOK"
    },
    {
      "icao": "EDNY",
      "alert": "OK",
      "vis_m": 9999,
      "fzfg": false,
      "metar_trigger": false,
      "taf_trigger": false,
      "metar": "METAR EDNY 241020Z 23004KT 170V270 CAVOK 10/05 Q1023",
      "taf": "TAF EDNY 240800Z 2409/2418 VRB02KT CAVOK"
    },
    {
      "icao": "EDSB",
      "alert": "OK",
      "vis_m": 9999,
      "fzfg": false,
      "metar_trigger": false,
      "taf_trigger": false,
      "metar": "METAR EDSB 241020Z 21007KT 180V260 CAVOK 13/03 Q1022",
      "taf": "TAF EDSB 240500Z 2406/2506 VRB03KT CAVOK"
    },
    {
      "icao": "EETN",
      "alert": "OK",
      "vis_m": 9999,
      "fzfg": false,
      "metar_trigger": false,
      "taf_trigger": false,
      "metar": "METAR EETN 241020Z 24014KT 210V270 CAVOK 10/M02 Q1010 NOSIG",
      "taf": "TAF EETN 240530Z 2406/2506 21012KT CAVOK"
    },
    {
      "icao": "EFTU",
      "alert": "OK",
      "vis_m": 9999,
      "fzfg": false,
      "metar_trigger": false,
      "taf_trigger": false,
      "metar": "METAR EFTU 241020Z AUTO 22012KT 190V250 CAVOK 07/M04 Q1006",
      "taf": "TAF EFTU 240829Z 2409/2509 20011KT CAVOK"
    },
    {
      "icao": "EGBB",
      "alert": "OK",
      "vis_m": 9999,
      "fzfg": false,
      "metar_trigger": false,
      "taf_trigger": false,
      "metar": "METAR EGBB 241020Z 21008KT 9999 SCT019 12/08 Q1012",
      "taf": ""
    },
    {
      "icao": "EGGP",
      "alert": "OK",
      "vis_m": 9999,
      "fzfg": false,
      "metar_trigger": false,
      "taf_trigger": false,
      "metar": "METAR EGGP 241020Z 22015G25KT 180V240 9999 FEW022 BKN028 12/08 Q1008",
      "taf": "TAF EGGP 240500Z 2406/2506 21010KT 9999 FEW012 SCT022"
    },
    {
      "icao": "EGGW",
      "alert": "OK",
      "vis_m": 9999,
      "fzfg": false,
      "metar_trigger": false,
      "taf_trigger": false,
      "metar": "METAR EGGW 241020Z AUTO 22010KT 190V250 9999 OVC013 11/08 Q1014",
      "taf": "TAF EGGW 240458Z 2406/2506 23012KT 8000 SCT030"
    },
    {
      "icao": "EGKK",
      "alert": "OK",
      "vis_m": 9999,
      "fzfg": false,
      "metar_trigger": false,
      "taf_trigger": false,
      "metar": "METAR EGKK 241020Z 23013KT 9999 BKN016 12/08 Q1016",
      "taf": ""
    },
    {
      "icao": "EGNM",
      "alert": "OK",
      "vis_m": 9999,
      "fzfg": false,
      "metar_trigger": false,
      "taf_trigger": false,
      "metar": "METAR EGNM 241020Z 22015G29KT 9999 -DZ BKN011 10/09 Q1006",
      "taf": ""
    },
    {
      "icao": "EGPD",
      "alert": "OK",
      "vis_m": 9999,
      "fzfg": false,
      "metar_trigger": false,
      "taf_trigger": false,
      "metar": "METAR EGPD 241020Z COR AUTO 24016G27KT 9999 NCD 12/02 Q0996 NOSIG",
      "taf": "TAF EGPD 240458Z 2406/2506 25018G28KT 9999 FEW040"
    },
    {
      "icao": "EGPF",
      "alert": "OK",
      "vis_m": 9000,
      "fzfg": false,
      "metar_trigger": false,
      "taf_trigger": false,
      "metar": "METAR EGPF 241020Z AUTO 23015KT 9000 NCD 10/06 Q1001",
      "taf": ""
    },
    {
      "icao": "EHBK",
      "alert": "OK",
      "vis_m": 9999,
      "fzfg": false,
      "metar_trigger": false,
      "taf_trigger": false,
      "metar": "METAR EHBK 241025Z AUTO 23015KT 200V280 9999 NSC 13/05 Q1018 NOSIG",
      "taf": "TAF EHBK 240507Z 2406/2512 19004KT CAVOK"
    },
    {
      "icao": "EHEH",
      "alert": "OK",
      "vis_m": 9000,
      "fzfg": false,
      "metar_trigger": false,
      "taf_trigger": false,
      "metar": "METAR EHEH 240955Z AUTO 22013KT 190V250 9000 HZ OVC140 12/05 Q1018 BLU NOSIG RMK TREND REMOTE BY EHWX",
      "taf": "TAF EHEH 240530Z 2406/2512 21007KT 6000 NSC"
    },
    {
      "icao": "EKBI",
      "alert": "OK",
      "vis_m": 4600,
      "fzfg": false,
      "metar_trigger": false,
      "taf_trigger": false,
      "metar": "METAR EKBI 241020Z AUTO 22016G27KT 190V250 4600 BR BKN011/// 09/06 Q1008",
      "taf": "TAF EKBI 240827Z 2409/2509 20012KT 2000 BR BKN004"
    },
    {
      "icao": "EKCH",
      "alert": "OK",
      "vis_m": 6000,
      "fzfg": false,
      "metar_trigger": false,
      "taf_trigger": false,
      "metar": "METAR EKCH 241020Z AUTO 18011KT 6000 FEW076/// SCT099/// 07/04 Q1011 TEMPO 4500 BR",
      "taf": "TAF EKCH 240827Z 2409/2509 20010KT 4000 BR SCT005"
    },
    {
      "icao": "ENAL",
      "alert": "OK",
      "vis_m": 9999,
      "fzfg": false,
      "metar_trigger": false,
      "taf_trigger": false,
      "metar": "METAR ENAL 241020Z 20019G30KT 9999 -RA FEW015 SCT024 BKN044 07/04 Q0981",
      "taf": "TAF ENAL 240800Z 2409/2418 18020G30KT 9999 SCT025 BKN040"
    },
    {
      "icao": "ENBR",
      "alert": "OK",
      "vis_m": 9999,
      "fzfg": false,
      "metar_trigger": false,
      "taf_trigger": false,
      "metar": "METAR ENBR 241020Z 21018KT 9999 VCSH SCT011 SCT019 BKN034 08/04 Q0992 NOSIG RMK WIND 1200FT 24023G33KT",
      "taf": "TAF ENBR 240500Z 2406/2506 17025G35KT 3000 RA BR BKN006"
    },
    {
      "icao": "ENGM",
      "alert": "OK",
      "vis_m": 3200,
      "fzfg": false,
      "metar_trigger": false,
      "taf_trigger": false,
      "metar": "METAR ENGM 241020Z 19019KT 3200 -DZ BR OVC003 04/03 Q0994 TEMPO 2500",
      "taf": ""
    },
    {
      "icao": "ENHD",
      "alert": "OK",
      "vis_m": 8000,
      "fzfg": false,
      "metar_trigger": false,
      "taf_trigger": false,
      "metar": "METAR ENHD 241020Z 20015KT 8000 FEW008 08/06 Q0995",
      "taf": "TAF ENHD 240800Z 2409/2418 21018KT 8000 -DZ BKN007"
    },
    {
      "icao": "ENTC",
      "alert": "OK",
      "vis_m": 9000,
      "fzfg": false,
      "metar_trigger": false,
      "taf_trigger": false,
      "metar": "METAR ENTC 241020Z 25006KT 9000 -SN SCT014 BKN032 M00/M02 Q0989 TEMPO 20016KT RMK WIND 2600FT 19021KT",
      "taf": "TAF ENTC 240500Z 2406/2506 22010KT 9999 FEW015 BKN025"
    },
    {
      "icao": "ENTO",
      "alert": "OK",
      "vis_m": 1600,
      "fzfg": false,
      "metar_trigger": false,
      "taf_trigger": false,
      "metar": "METAR ENTO 241020Z 21020KT 1600 BR OVC002 05/05 Q0997 TEMPO 3000",
      "taf": ""
    },
    {
      "icao": "ENVA",
      "alert": "OK",
      "vis_m": 9999,
      "fzfg": false,
      "metar_trigger": false,
      "taf_trigger": false,
      "metar": "METAR ENVA 241020Z 17024G36KT CAVOK 07/M01 Q0984 TEMPO 16020KT RMK WIND 670FT 18032G49KT",
      "taf": ""
    },
    {
      "icao": "ENZV",
      "alert": "OK",
      "vis_m": 9999,
      "fzfg": false,
      "metar_trigger": false,
      "taf_trigger": false,
      "metar": "METAR ENZV 241020Z 22013KT 9999 FEW007 08/07 Q0997 NOSIG",
      "taf": ""
    },
    {
      "icao": "EPGD",
      "alert": "OK",
      "vis_m": 9999,
      "fzfg": false,
      "metar_trigger": false,
      "taf_trigger": false,
      "metar": "METAR EPGD 241000Z 24015KT CAVOK 13/00 Q1015",
      "taf": "TAF EPGD 240530Z 2406/2506 24002KT CAVOK"
    },
    {
      "icao": "EPKK",
      "alert": "OK",
      "vis_m": 9999,
      "fzfg": false,
      "metar_trigger": false,
      "taf_trigger": false,
      "metar": "METAR EPKK 241000Z 25003KT 220V290 9999 FEW044 12/01 Q1020",
      "taf": "TAF EPKK 240830Z 2409/2509 25006KT CAVOK"
    },
    {
      "icao": "EPKT",
      "alert": "OK",
      "vis_m": 9999,
      "fzfg": false,
      "metar_trigger": false,
      "taf_trigger": false,
      "metar": "METAR EPKT 241000Z 31006KT 270V340 CAVOK 12/M02 Q1019",
      "taf": "TAF EPKT 240530Z 2406/2506 26004KT CAVOK"
    },
    {
      "icao": "EPLB",
      "alert": "OK",
      "vis_m": 9999,
      "fzfg": false,
      "metar_trigger": false,
      "taf_trigger": false,
      "metar": "METAR EPLB 241000Z 31004KT 260V340 CAVOK 13/M01 Q1019",
      "taf": "TAF EPLB 240530Z 2406/2506 VRB02KT CAVOK"
    },
    {
      "icao": "EPMO",
      "alert": "OK",
      "vis_m": 9999,
      "fzfg": false,
      "metar_trigger": false,
      "taf_trigger": false,
      "metar": "METAR EPMO 241000Z 25009KT 220V290 CAVOK 14/01 Q1018",
      "taf": ""
    },
    {
      "icao": "EPPO",
      "alert": "OK",
      "vis_m": 9999,
      "fzfg": false,
      "metar_trigger": false,
      "taf_trigger": false,
      "metar": "METAR EPPO 241000Z 22006KT 200V260 CAVOK 13/02 Q1019",
      "taf": "TAF EPPO 240530Z 2406/2506 VRB02KT 7000 NSC"
    },
    {
      "icao": "EPRA",
      "alert": "OK",
      "vis_m": 9999,
      "fzfg": false,
      "metar_trigger": false,
      "taf_trigger": false,
      "metar": "METAR EPRA 241000Z 23004KT 170V270 CAVOK 14/M03 Q1019",
      "taf": "TAF EPRA 240830Z 2409/2418 25006KT CAVOK"
    },
    {
      "icao": "EPRZ",
      "alert": "OK",
      "vis_m": 9999,
      "fzfg": false,
      "metar_trigger": false,
      "taf_trigger": false,
      "metar": "METAR EPRZ 241000Z 10005KT 060V170 9999 FEW040 15/M03 Q1019",
      "taf": "TAF EPRZ 240530Z 2406/2506 VRB02KT CAVOK"
    },
    {
      "icao": "EPSC",
      "alert": "OK",
      "vis_m": 9999,
      "fzfg": false,
      "metar_trigger": false,
      "taf_trigger": false,
      "metar": "METAR EPSC 241000Z 21010KT 180V240 CAVOK 12/02 Q1016",
      "taf": "TAF EPSC 240530Z 2406/2506 15003KT CAVOK"
    },
    {
      "icao": "EPSY",
      "alert": "OK",
      "vis_m": 9999,
      "fzfg": false,
      "metar_trigger": false,
      "taf_trigger": false,
      "metar": "METAR EPSY 241000Z 25010KT 200V290 CAVOK 14/M01 Q1017",
      "taf": "TAF EPSY 240830Z 2409/2418 VRB02KT CAVOK"
    },
    {
      "icao": "EPWA",
      "alert": "OK",
      "vis_m": 9999,
      "fzfg": false,
      "metar_trigger": false,
      "taf_trigger": false,
      "metar": "METAR EPWA 241000Z 27006KT 230V310 CAVOK 15/M01 Q1018 NOSIG",
      "taf": "TAF EPWA 240830Z 2409/2509 25007KT CAVOK"
    },
    {
      "icao": "EPWR",
      "alert": "OK",
      "vis_m": 9999,
      "fzfg": false,
      "metar_trigger": false,
      "taf_trigger": false,
      "metar": "METAR EPWR 241000Z 30006KT 270V330 CAVOK 14/02 Q1020",
      "taf": "TAF EPWR 240830Z 2409/2509 VRB02KT CAVOK"
    },
    {
      "icao": "ESGG",
      "alert": "OK",
      "vis_m": 3400,
      "fzfg": false,
      "metar_trigger": false,
      "taf_trigger": false,
      "metar": "METAR ESGG 241020Z 20020KT 3400 -RA OVC004 05/04 Q1005",
      "taf": "TAF ESGG 240830Z 2409/2509 18012KT 5000 BKN003"
    },
    {
      "icao": "ESKN",
      "alert": "OK",
      "vis_m": 9999,
      "fzfg": false,
      "metar_trigger": false,
      "taf_trigger": false,
      "metar": "METAR ESKN 241020Z 18013KT 150V230 CAVOK 07/M00 Q1005",
      "taf": "TAF ESKN 240830Z 2409/2509 22010KT CAVOK"
    },
    {
      "icao": "ESMS",
      "alert": "OK",
      "vis_m": 7000,
      "fzfg": false,
      "metar_trigger": false,
      "taf_trigger": false,
      "metar": "METAR ESMS 241020Z 22013KT 7000 NSC 09/04 Q1012",
      "taf": "TAF ESMS 240827Z 2409/2509 23010KT 6000 SCT005"
    },
    {
      "icao": "ESSA",
      "alert": "OK",
      "vis_m": 9999,
      "fzfg": false,
      "metar_trigger": false,
      "taf_trigger": false,
      "metar": "METAR ESSA 241020Z 17016KT CAVOK 06/M03 Q1004 BECMG 20016G26KT",
      "taf": "TAF ESSA 240830Z 2409/2509 22012KT CAVOK"
    },
    {
      "icao": "EYKA",
      "alert": "OK",
      "vis_m": 9999,
      "fzfg": false,
      "metar_trigger": false,
      "taf_trigger": false,
      "metar": "METAR EYKA 241020Z 25009KT 210V280 CAVOK 12/M00 Q1016",
      "taf": "TAF EYKA 240508Z 2406/2506 VRB03KT 9000 NSC"
    },
    {
      "icao": "EYPA",
      "alert": "OK",
      "vis_m": 9999,
      "fzfg": false,
      "metar_trigger": false,
      "taf_trigger": false,
      "metar": "METAR EYPA 241020Z 21007KT 180V260 CAVOK 07/01 Q1015",
      "taf": ""
    },
    {
      "icao": "EYVI",
      "alert": "OK",
      "vis_m": 9999,
      "fzfg": false,
      "metar_trigger": false,
      "taf_trigger": false,
      "metar": "METAR EYVI 241020Z 25010KT 210V280 CAVOK 12/M01 Q1016 NOSIG",
      "taf": "TAF EYVI 240500Z 2406/2506 VRB05KT 9000 NSC"
    },
    {
      "icao": "GCFV",
      "alert": "OK",
      "vis_m": 9999,
      "fzfg": false,
      "metar_trigger": false,
      "taf_trigger": false,
      "metar": "METAR GCFV 241000Z 12004KT 080V160 9999 FEW015 SCT040 19/16 Q1012",
      "taf": "TAF GCFV 240800Z 2409/2509 12008KT 9999 SCT025 TX22/2414Z TN16/2506Z"
    },
    {
      "icao": "GCLP",
      "alert": "OK",
      "vis_m": 9999,
      "fzfg": false,
      "metar_trigger": false,
      "taf_trigger": false,
      "metar": "METAR GCLP 241000Z VRB04KT 9999 VCTS SCT010 BKN015 SCT020CB 18/16 Q1010 NOSIG",
      "taf": "TAF GCLP 240800Z 2409/2509 15016KT 9999 SCT020 TX22/2414Z TN15/2506Z"
    },
    {
      "icao": "GCTS",
      "alert": "OK",
      "vis_m": 9999,
      "fzfg": false,
      "metar_trigger": false,
      "taf_trigger": false,
      "metar": "METAR GCTS 241000Z 07009KT 9999 FEW025 SCT060 20/14 Q1010 NOSIG",
      "taf": "TAF GCTS 240800Z 2409/2509 05006KT 9999 SCT020 BKN030 TX22/2414Z TN15/2506Z"
    },
    {
      "icao": "GMAD",
      "alert": "OK",
      "vis_m": 9999,
      "fzfg": false,
      "metar_trigger": false,
      "taf_trigger": false,
      "metar": "METAR GMAD 241000Z 08008KT 040V100 9999 FEW023 23/15 Q1012 NOSIG",
      "taf": "TAF GMAD 240500Z 2406/2512 24006KT 8000 SCT020"
    },
    {
      "icao": "GMMN",
      "alert": "OK",
      "vis_m": 6000,
      "fzfg": false,
      "metar_trigger": false,
      "taf_trigger": false,
      "metar": "METAR GMMN 241000Z 36005KT 320V030 6000 SCT004 SCT100 16/15 Q1015 NOSIG",
      "taf": "TAF GMMN 232300Z 2400/2506 06004KT 1200 BR BKN001"
    },
    {
      "icao": "GMMX",
      "alert": "OK",
      "vis_m": 9999,
      "fzfg": false,
      "metar_trigger": false,
      "taf_trigger": false,
      "metar": "METAR GMMX 241000Z 05003KT 350V160 9999 FEW020 SCT080 20/15 Q1014 NOSIG",
      "taf": "TAF GMMX 240500Z 2406/2512 24008KT 8000 SCT020 SCT080"
    },
    {
      "icao": "HEGN",
      "alert": "OK",
      "vis_m": 9999,
      "fzfg": false,
      "metar_trigger": false,
      "taf_trigger": false,
      "metar": "METAR HEGN 241000Z 01010KT 9999 BKN025 24/05 Q1005 NOSIG",
      "taf": "TAF HEGN 240500Z 2406/2512 30010KT 9999 SCT025"
    },
    {
      "icao": "HEMA",
      "alert": "OK",
      "vis_m": 9999,
      "fzfg": false,
      "metar_trigger": false,
      "taf_trigger": false,
      "metar": "METAR HEMA 241000Z 01012KT 9999 FEW020 BKN100 24/12 Q1006 NOSIG",
      "taf": "TAF HEMA 240500Z 2406/2512 32010KT 9999 SCT025"
    },
    {
      "icao": "HESH",
      "alert": "OK",
      "vis_m": 9999,
      "fzfg": false,
      "metar_trigger": false,
      "taf_trigger": false,
      "metar": "METAR HESH 241000Z 02008KT CAVOK 24/08 Q1006 NOSIG",
      "taf": "TAF HESH 240500Z 2406/2512 36010KT 9999 SCT025"
    },
    {
      "icao": "HESX",
      "alert": "OK",
      "vis_m": 9999,
      "fzfg": false,
      "metar_trigger": false,
      "taf_trigger": false,
      "metar": "METAR HESX 241000Z 31004KT 9999 SCT020 21/07 Q1008 NOSIG",
      "taf": "TAF HESX 240500Z 2406/2512 05008KT 9999 FEW030 SCT070"
    },
    {
      "icao": "LATI",
      "alert": "OK",
      "vis_m": 9999,
      "fzfg": false,
      "metar_trigger": false,
      "taf_trigger": false,
      "metar": "METAR LATI 241020Z 34007KT 280V040 9999 FEW065 18/05 Q1013 NOSIG",
      "taf": "TAF LATI 240500Z 2406/2506 VRB03KT CAVOK TX19/2412Z TN04/2505Z"
    },
    {
      "icao": "LBPD",
      "alert": "OK",
      "vis_m": 9999,
      "fzfg": false,
      "metar_trigger": false,
      "taf_trigger": false,
      "metar": "METAR LBPD 241000Z AUTO 25007KT 9999 -RA SCT041/// OVC047/// 08/06 Q1016 NOSIG",
      "taf": "TAF LBPD 240500Z 2406/2506 28010KT 9999 BKN030 BKN060"
    },
    {
      "icao": "LBSF",
      "alert": "OK",
      "vis_m": 9999,
      "fzfg": false,
      "metar_trigger": false,
      "taf_trigger": false,
      "metar": "METAR LBSF 241000Z 06005KT 030V090 9999 BKN033 OVC040 08/03 Q1016 NOSIG",
      "taf": "TAF LBSF 240500Z 2406/2506 VRB03KT 9999 BKN025 BKN040"
    },
    {
      "icao": "LBWN",
      "alert": "OK",
      "vis_m": 9999,
      "fzfg": false,
      "metar_trigger": false,
      "taf_trigger": false,
      "metar": "METAR LBWN 241000Z 04011KT 010V070 9999 OVC049 12/05 Q1014 TEMPO RA",
      "taf": "TAF LBWN 240500Z 2406/2506 33010KT 9999 BKN045"
    },
    {
      "icao": "LCLK",
      "alert": "OK",
      "vis_m": 9999,
      "fzfg": false,
      "metar_trigger": false,
      "taf_trigger": false,
      "metar": "METAR LCLK 241000Z 20010KT 170V230 9999 FEW018 FEW025CB 19/13 Q1007 NOSIG RMK CB TO N NE W",
      "taf": ""
    },
    {
      "icao": "LCPH",
      "alert": "OK",
      "vis_m": 9999,
      "fzfg": false,
      "metar_trigger": false,
      "taf_trigger": false,
      "metar": "METAR LCPH 241000Z AUTO 15009KT 9999 NCD 18/11 Q1006 NOSIG",
      "taf": ""
    },
    {
      "icao": "LEAL",
      "alert": "OK",
      "vis_m": 9999,
      "fzfg": false,
      "metar_trigger": false,
      "taf_trigger": false,
      "metar": "METAR LEAL 241000Z 09007KT 040V110 CAVOK 16/07 Q1025 NOSIG",
      "taf": "TAF LEAL 240500Z 2406/2506 32007KT CAVOK TX18/2412Z TN07/2506Z"
    },
    {
      "icao": "LEBB",
      "alert": "OK",
      "vis_m": 9999,
      "fzfg": false,
      "metar_trigger": false,
      "taf_trigger": false,
      "metar": "METAR LEBB 241000Z 12004KT 070V160 CAVOK 15/06 Q1023 NOSIG",
      "taf": "TAF LEBB 240500Z 2406/2506 10006KT 9000 FEW020 SCT030 TX20/2414Z TN06/2504Z"
    },
    {
      "icao": "LEBL",
      "alert": "OK",
      "vis_m": 9999,
      "fzfg": false,
      "metar_trigger": false,
      "taf_trigger": false,
      "metar": "METAR LEBL 241000Z 28003KT 9999 FEW030 16/10 Q1024 NOSIG",
      "taf": ""
    },
    {
      "icao": "LECH",
      "alert": "OK",
      "vis_m": 9999,
      "fzfg": false,
      "metar_trigger": false,
      "taf_trigger": false,
      "metar": "METAR LECH 241000Z AUTO 22004KT 180V250 CAVOK 14/05 Q1024",
      "taf": "TAF LECH 240500Z 2406/2506 VRB04KT CAVOK TX19/2413Z TN05/2506Z"
    },
    {
      "icao": "LEMD",
      "alert": "OK",
      "vis_m": 9999,
      "fzfg": false,
      "metar_trigger": false,
      "taf_trigger": false,
      "metar": "METAR LEMD 241000Z 07002KT CAVOK 13/04 Q1024 NOSIG",
      "taf": "TAF LEMD 240500Z 2406/2512 VRB04KT CAVOK TX18/2416Z TN02/2506Z"
    },
    {
      "icao": "LEMG",
      "alert": "OK",
      "vis_m": 9999,
      "fzfg": false,
      "metar_trigger": false,
      "taf_trigger": false,
      "metar": "METAR LEMG 241000Z 12012KT 080V150 9999 FEW025 BKN060 17/09 Q1023 NOSIG",
      "taf": "TAF LEMG 240500Z 2406/2506 13009KT 9999 FEW020 SCT045 TX18/2413Z TN11/2406Z"
    },
    {
      "icao": "LEVC",
      "alert": "OK",
      "vis_m": 9999,
      "fzfg": false,
      "metar_trigger": false,
      "taf_trigger": false,
      "metar": "METAR LEVC 241000Z VRB02KT CAVOK 16/06 Q1025 NOSIG",
      "taf": "TAF LEVC 240500Z 2406/2506 VRB04KT CAVOK TX20/2412Z TN06/2506Z"
    },
    {
      "icao": "LEXJ",
      "alert": "OK",
      "vis_m": 9999,
      "fzfg": false,
      "metar_trigger": false,
      "taf_trigger": false,
      "metar": "METAR LEXJ 241000Z VRB02KT CAVOK 12/05 Q1023",
      "taf": "TAF LEXJ 240800Z 2409/2509 05008KT 8000 FEW020 TX19/2413Z TN11/2509Z"
    },
    {
      "icao": "LEZG",
      "alert": "OK",
      "vis_m": 9999,
      "fzfg": false,
      "metar_trigger": false,
      "taf_trigger": false,
      "metar": "METAR LEZG 241000Z 31001KT CAVOK 13/04 Q1024 NOSIG",
      "taf": "TAF LEZG 240500Z 2406/2506 30010KT CAVOK TX21/2414Z TN07/2506Z"
    },
    {
      "icao": "LEZL",
      "alert": "OK",
      "vis_m": 9999,
      "fzfg": false,
      "metar_trigger": false,
      "taf_trigger": false,
      "metar": "METAR LEZL 241000Z 09008KT 050V130 CAVOK 19/11 Q1020 NOSIG",
      "taf": "TAF LEZL 240800Z 2409/2509 08009KT CAVOK TX23/2415Z TN11/2507Z"
    },
    {
      "icao": "LFBD",
      "alert": "OK",
      "vis_m": 9999,
      "fzfg": false,
      "metar_trigger": false,
      "taf_trigger": false,
      "metar": "METAR LFBD 241000Z AUTO 05004KT 360V110 CAVOK 17/05 Q1024 NOSIG",
      "taf": "TAF LFBD 240500Z 2406/2512 VRB03KT CAVOK TX19/2415Z TN04/2406Z"
    },
    {
      "icao": "LFLL",
      "alert": "OK",
      "vis_m": 9999,
      "fzfg": false,
      "metar_trigger": false,
      "taf_trigger": false,
      "metar": "METAR LFLL 241000Z VRB03KT CAVOK 11/05 Q1023 NOSIG",
      "taf": "TAF LFLL 240500Z 2406/2512 35006KT CAVOK"
    },
    {
      "icao": "LFLS",
      "alert": "OK",
      "vis_m": 9999,
      "fzfg": false,
      "metar_trigger": false,
      "taf_trigger": false,
      "metar": "METAR LFLS 241000Z AUTO 09003KT 040V200 CAVOK 13/06 Q1023 NOSIG",
      "taf": "TAF LFLS 240800Z 2409/2509 VRB03KT CAVOK"
    },
    {
      "icao": "LFMN",
      "alert": "OK",
      "vis_m": 9999,
      "fzfg": false,
      "metar_trigger": false,
      "taf_trigger": false,
      "metar": "METAR LFMN 241000Z 15003KT 110V180 CAVOK 17/02 Q1021 NOSIG",
      "taf": "TAF LFMN 240800Z 2409/2515 33010KT CAVOK"
    },
    {
      "icao": "LFOB",
      "alert": "OK",
      "vis_m": 9000,
      "fzfg": false,
      "metar_trigger": false,
      "taf_trigger": false,
      "metar": "METAR LFOB 241000Z AUTO 23010KT 200V260 9000 NSC 14/05 Q1020 NOSIG",
      "taf": "TAF LFOB 240500Z 2406/2506 VRB03KT 8000 NSC"
    },
    {
      "icao": "LFPO",
      "alert": "OK",
      "vis_m": 9999,
      "fzfg": false,
      "metar_trigger": false,
      "taf_trigger": false,
      "metar": "METAR LFPO 241000Z 24006KT 200V270 CAVOK 14/06 Q1022 NOSIG",
      "taf": "TAF LFPO 240500Z 2406/2512 23005KT CAVOK"
    },
    {
      "icao": "LFSB",
      "alert": "OK",
      "vis_m": 9999,
      "fzfg": false,
      "metar_trigger": false,
      "taf_trigger": false,
      "metar": "METAR LFSB 241000Z AUTO 15004KT 120V210 CAVOK 13/04 Q1023 NOSIG",
      "taf": ""
    },
    {
      "icao": "LGAV",
      "alert": "OK",
      "vis_m": 9999,
      "fzfg": false,
      "metar_trigger": false,
      "taf_trigger": false,
      "metar": "METAR LGAV 241020Z 34007KT 320V020 9999 -RA FEW020 SCT040 BKN070 11/07 Q1011 NOSIG",
      "taf": "TAF LGAV 240500Z 2406/2506 VRB05KT 9999 FEW025 SCT030 BKN070"
    },
    {
      "icao": "LGTS",
      "alert": "OK",
      "vis_m": 9999,
      "fzfg": false,
      "metar_trigger": false,
      "taf_trigger": false,
      "metar": "METAR LGTS 241020Z 33005KT 9999 -DZ FEW015 BKN030 13/07 Q1014 NOSIG",
      "taf": "TAF LGTS 240500Z 2406/2506 34011KT 9999 BKN030"
    },
    {
      "icao": "LHBP",
      "alert": "OK",
      "vis_m": 9999,
      "fzfg": false,
      "metar_trigger": false,
      "taf_trigger": false,
      "metar": "METAR LHBP 241000Z 22005KT 130V270 CAVOK 17/M01 Q1019 NOSIG",
      "taf": "TAF LHBP 240515Z 2406/2506 34009KT CAVOK"
    },
    {
      "icao": "LHDC",
      "alert": "OK",
      "vis_m": 9999,
      "fzfg": false,
      "metar_trigger": false,
      "taf_trigger": false,
      "metar": "METAR LHDC 240945Z AUTO 03011KT 320V070 CAVOK 16/M02 Q1018 NOSIG",
      "taf": "TAF LHDC 240815Z 2409/2418 01007KT CAVOK"
    },
    {
      "icao": "LIBD",
      "alert": "OK",
      "vis_m": 9999,
      "fzfg": false,
      "metar_trigger": false,
      "taf_trigger": false,
      "metar": "METAR LIBD 241020Z 32011KT 280V350 9999 FEW020 15/09 Q1016",
      "taf": "TAF LIBD 240500Z 2406/2506 28008KT 9999 SCT030"
    },
    {
      "icao": "LIBG",
      "alert": "OK",
      "vis_m": 9999,
      "fzfg": false,
      "metar_trigger": false,
      "taf_trigger": false,
      "metar": "METAR LIBG 240950Z 35014KT 9999 SCT030 16/09 Q1014",
      "taf": "TAF LIBG 240800Z 2409/2418 35015G26KT 9999 SCT025"
    },
    {
      "icao": "LIBP",
      "alert": "OK",
      "vis_m": 9999,
      "fzfg": false,
      "metar_trigger": false,
      "taf_trigger": false,
      "metar": "METAR LIBP 241020Z AUTO 36012KT 330V030 9999 NCD 16/07 Q1019",
      "taf": "TAF LIBP 240500Z 2406/2506 27008KT 9999 SCT030"
    },
    {
      "icao": "LIBR",
      "alert": "OK",
      "vis_m": 9999,
      "fzfg": false,
      "metar_trigger": false,
      "taf_trigger": false,
      "metar": "METAR LIBR 241020Z 32015KT CAVOK 15/12 Q1014",
      "taf": "TAF LIBR 240500Z 2406/2506 34016KT 9999 FEW040"
    },
    {
      "icao": "LICA",
      "alert": "OK",
      "vis_m": 9999,
      "fzfg": false,
      "metar_trigger": false,
      "taf_trigger": false,
      "metar": "METAR LICA 241020Z AUTO 23009KT 200V260 9999 SCT075/// 14/08 Q1015",
      "taf": "TAF LICA 240500Z 2406/2506 VRB05KT 9999 BKN080"
    },
    {
      "icao": "LICC",
      "alert": "OK",
      "vis_m": 9999,
      "fzfg": false,
      "metar_trigger": false,
      "taf_trigger": false,
      "metar": "METAR LICC 241020Z 30007KT 9999 BKN050 14/12 Q1015",
      "taf": "TAF LICC 240500Z 2406/2506 VRB05KT 9999 FEW050"
    },
    {
      "icao": "LICJ",
      "alert": "OK",
      "vis_m": 9999,
      "fzfg": false,
      "metar_trigger": false,
      "taf_trigger": false,
      "metar": "METAR LICJ 241020Z 01003KT 320V110 9999 VCTS SCT020CB BKN030 14/08 Q1017",
      "taf": ""
    },
    {
      "icao": "LIMC",
      "alert": "OK",
      "vis_m": 9999,
      "fzfg": false,
      "metar_trigger": false,
      "taf_trigger": false,
      "metar": "METAR LIMC 241020Z VRB03KT CAVOK 15/04 Q1021 NOSIG",
      "taf": "TAF LIMC 240500Z 2406/2512 VRB05KT CAVOK"
    },
    {
      "icao": "LIME",
      "alert": "OK",
      "vis_m": 9999,
      "fzfg": false,
      "metar_trigger": false,
      "taf_trigger": false,
      "metar": "METAR LIME 241020Z 15004KT 050V220 9999 FEW090 15/02 Q1021 NOSIG",
      "taf": "TAF LIME 240500Z 2406/2506 VRB05KT 9999 FEW090"
    },
    {
      "icao": "LIMF",
      "alert": "OK",
      "vis_m": 9999,
      "fzfg": false,
      "metar_trigger": false,
      "taf_trigger": false,
      "metar": "METAR LIMF 241020Z 08003KT 010V160 CAVOK 14/02 Q1022",
      "taf": "TAF LIMF 240500Z 2406/2506 VRB05KT CAVOK"
    },
    {
      "icao": "LIMJ",
      "alert": "OK",
      "vis_m": 9999,
      "fzfg": false,
      "metar_trigger": false,
      "taf_trigger": false,
      "metar": "METAR LIMJ 241020Z 25006KT CAVOK 15/07 Q1021",
      "taf": "TAF LIMJ 240500Z 2406/2506 04010KT CAVOK"
    },
    {
      "icao": "LIPE",
      "alert": "OK",
      "vis_m": 9999,
      "fzfg": false,
      "metar_trigger": false,
      "taf_trigger": false,
      "metar": "METAR LIPE 241020Z 35003KT 290V070 CAVOK 15/03 Q1021",
      "taf": "TAF LIPE 240500Z 2406/2506 VRB05KT 9999 SCT050"
    },
    {
      "icao": "LIPH",
      "alert": "OK",
      "vis_m": 9999,
      "fzfg": false,
      "metar_trigger": false,
      "taf_trigger": false,
      "metar": "METAR LIPH 241020Z VRB03KT CAVOK 18/02 Q1021",
      "taf": "TAF LIPH 240500Z 2406/2506 VRB05KT CAVOK"
    },
    {
      "icao": "LIPQ",
      "alert": "OK",
      "vis_m": 9999,
      "fzfg": false,
      "metar_trigger": false,
      "taf_trigger": false,
      "metar": "METAR LIPQ 241020Z AUTO 02006KT 9999 NCD 18/M00 Q1020",
      "taf": "TAF LIPQ 240500Z 2406/2506 04005KT 9999 FEW060"
    },
    {
      "icao": "LIPR",
      "alert": "OK",
      "vis_m": 9999,
      "fzfg": false,
      "metar_trigger": false,
      "taf_trigger": false,
      "metar": "METAR LIPR 241020Z 33010KT 9999 FEW020 15/08 Q1021",
      "taf": "TAF LIPR 240500Z 2406/2506 VRB06KT 9999 SCT050"
    },
    {
      "icao": "LIPX",
      "alert": "OK",
      "vis_m": 9999,
      "fzfg": false,
      "metar_trigger": false,
      "taf_trigger": false,
      "metar": "METAR LIPX 241020Z VRB03KT CAVOK 16/01 Q1021",
      "taf": "TAF LIPX 240500Z 2406/2506 VRB05KT 9999 FEW090"
    },
    {
      "icao": "LIPY",
      "alert": "OK",
      "vis_m": 9999,
      "fzfg": false,
      "metar_trigger": false,
      "taf_trigger": false,
      "metar": "METAR LIPY 241020Z AUTO 33013KT 9999 NCD 14/10 Q1020",
      "taf": "TAF LIPY 240500Z 2406/2506 25007KT 9999 SCT040"
    },
    {
      "icao": "LIPZ",
      "alert": "OK",
      "vis_m": 9999,
      "fzfg": false,
      "metar_trigger": false,
      "taf_trigger": false,
      "metar": "METAR LIPZ 241020Z VRB04KT CAVOK 17/00 Q1021 NOSIG",
      "taf": "TAF LIPZ 240500Z 2406/2512 03006KT CAVOK"
    },
    {
      "icao": "LIRF",
      "alert": "OK",
      "vis_m": 9999,
      "fzfg": false,
      "metar_trigger": false,
      "taf_trigger": false,
      "metar": "METAR LIRF 241020Z 05008KT 360V080 CAVOK 16/04 Q1018 NOSIG",
      "taf": "TAF LIRF 240500Z 2406/2512 03010KT CAVOK"
    },
    {
      "icao": "LIRN",
      "alert": "OK",
      "vis_m": 9999,
      "fzfg": false,
      "metar_trigger": false,
      "taf_trigger": false,
      "metar": "METAR LIRN 241020Z 03010KT 9999 FEW050 16/05 Q1017 NOSIG",
      "taf": "TAF LIRN 240500Z 2406/2506 03008KT 9999 SCT070"
    },
    {
      "icao": "LIRP",
      "alert": "OK",
      "vis_m": 9999,
      "fzfg": false,
      "metar_trigger": false,
      "taf_trigger": false,
      "metar": "METAR LIRP 241015Z 20003KT CAVOK 15/M05 Q1020 NOSIG",
      "taf": "TAF LIRP 240500Z 2406/2506 VRB03KT CAVOK"
    },
    {
      "icao": "LIRZ",
      "alert": "OK",
      "vis_m": 9999,
      "fzfg": false,
      "metar_trigger": false,
      "taf_trigger": false,
      "metar": "METAR LIRZ 241020Z AUTO 03012KT 9999 FEW056/// 15/03 Q1019",
      "taf": "TAF LIRZ 240500Z 2406/2506 VRB05KT CAVOK"
    },
    {
      "icao": "LJLJ",
      "alert": "OK",
      "vis_m": 9999,
      "fzfg": false,
      "metar_trigger": false,
      "taf_trigger": false,
      "metar": "METAR LJLJ 241000Z 11004KT 070V200 9999 FEW070 14/01 Q1020 NOSIG",
      "taf": "TAF LJLJ 240500Z 2406/2506 29003KT 9999 FEW060"
    },
    {
      "icao": "LKMT",
      "alert": "OK",
      "vis_m": 9999,
      "fzfg": false,
      "metar_trigger": false,
      "taf_trigger": false,
      "metar": "METAR LKMT 241000Z VRB02KT CAVOK 14/M00 Q1020 NOSIG",
      "taf": "TAF LKMT 240500Z 2406/2506 22003KT CAVOK"
    },
    {
      "icao": "LKPR",
      "alert": "OK",
      "vis_m": 9999,
      "fzfg": false,
      "metar_trigger": false,
      "taf_trigger": false,
      "metar": "METAR LKPR 241000Z 23011KT CAVOK 12/M01 Q1020 NOSIG",
      "taf": "TAF LKPR 240800Z 2409/2515 21008KT CAVOK"
    },
    {
      "icao": "LLBG",
      "alert": "OK",
      "vis_m": 9999,
      "fzfg": false,
      "metar_trigger": false,
      "taf_trigger": false,
      "metar": "METAR LLBG 241020Z 28007KT 240V340 9999 SCT035 SCT040 19/09 Q1006 NOSIG",
      "taf": "TAF LLBG 240501Z 2406/2506 VRB03KT 9999 FEW035 TX18/2411Z TN09/2504Z"
    },
    {
      "icao": "LMML",
      "alert": "OK",
      "vis_m": 9999,
      "fzfg": false,
      "metar_trigger": false,
      "taf_trigger": false,
      "metar": "METAR LMML 241015Z 31007KT 270V350 9999 FEW025TCU 16/09 Q1015 TEMPO 8000 SHRA",
      "taf": "TAF LMML 240500Z 2406/2506 35010KT 9999 SCT018"
    },
    {
      "icao": "LOWW",
      "alert": "OK",
      "vis_m": 9999,
      "fzfg": false,
      "metar_trigger": false,
      "taf_trigger": false,
      "metar": "METAR LOWW 241020Z 31008KT 280V350 CAVOK 16/01 Q1020 NOSIG",
      "taf": "TAF LOWW 240815Z 2409/2515 32010KT 9999 FEW050 TX19/2514Z TN03/2504Z"
    },
    {
      "icao": "LPFR",
      "alert": "OK",
      "vis_m": 9999,
      "fzfg": false,
      "metar_trigger": false,
      "taf_trigger": false,
      "metar": "METAR LPFR 241000Z 08012KT CAVOK 18/10 Q1020",
      "taf": "TAF LPFR 240500Z 2406/2506 06007KT CAVOK"
    },
    {
      "icao": "LPMA",
      "alert": "OK",
      "vis_m": 9999,
      "fzfg": false,
      "metar_trigger": false,
      "taf_trigger": false,
      "metar": "METAR LPMA 241000Z 01015KT 340V050 9999 SCT015 17/12 Q1017",
      "taf": "TAF LPMA 240500Z 2406/2506 03015KT 9999 SCT015"
    },
    {
      "icao": "LPPR",
      "alert": "OK",
      "vis_m": 9999,
      "fzfg": false,
      "metar_trigger": false,
      "taf_trigger": false,
      "metar": "METAR LPPR 241000Z 11007KT 080V150 CAVOK 18/05 Q1021",
      "taf": "TAF LPPR 240500Z 2406/2506 11010KT CAVOK"
    },
    {
      "icao": "LPPS",
      "alert": "OK",
      "vis_m": 9999,
      "fzfg": false,
      "metar_trigger": false,
      "taf_trigger": false,
      "metar": "METAR LPPS 241000Z 04012KT 010V080 9999 FEW014 SCT030 18/13 Q1017",
      "taf": "TAF LPPS 240500Z 2406/2512 06015KT 9999 SCT012"
    },
    {
      "icao": "LPPT",
      "alert": "OK",
      "vis_m": 9999,
      "fzfg": false,
      "metar_trigger": false,
      "taf_trigger": false,
      "metar": "METAR LPPT 241000Z 06009KT CAVOK 15/09 Q1020",
      "taf": "TAF LPPT 240500Z 2406/2512 03007KT CAVOK"
    },
    {
      "icao": "LQBK",
      "alert": "OK",
      "vis_m": 9999,
      "fzfg": false,
      "metar_trigger": false,
      "taf_trigger": false,
      "metar": "METAR LQBK 241000Z VRB02KT 9999 FEW030 15/04 Q1020 NOSIG",
      "taf": "TAF LQBK 240500Z 2406/2506 32005KT CAVOK TX17/2414Z TN05/2505Z"
    },
    {
      "icao": "LQSA",
      "alert": "OK",
      "vis_m": 9999,
      "fzfg": false,
      "metar_trigger": false,
      "taf_trigger": false,
      "metar": "METAR LQSA 241000Z 25004KT 200V290 9999 BKN050 09/03 Q1019 NOSIG",
      "taf": "TAF LQSA 240500Z 2406/2506 28005KT 9999 BKN055 TX13/2413Z TN02/2505Z"
    },
    {
      "icao": "LQTZ",
      "alert": "OK",
      "vis_m": 9999,
      "fzfg": false,
      "metar_trigger": false,
      "taf_trigger": false,
      "metar": "METAR LQTZ 241000Z 26007KT 9999 FEW050 13/04 Q1019",
      "taf": "TAF LQTZ 240500Z 2406/2506 VRB02KT 9999 SCT050 TX15/2414Z TN02/2505Z"
    },
    {
      "icao": "LRBC",
      "alert": "OK",
      "vis_m": 9999,
      "fzfg": false,
      "metar_trigger": false,
      "taf_trigger": false,
      "metar": "METAR LRBC 241000Z 36007KT 320V040 CAVOK 14/01 Q1017",
      "taf": "TAF LRBC 240800Z 2409/2418 35006KT CAVOK"
    },
    {
      "icao": "LRBS",
      "alert": "OK",
      "vis_m": 9999,
      "fzfg": false,
      "metar_trigger": false,
      "taf_trigger": false,
      "metar": "METAR LRBS 241000Z 04011KT 360V080 CAVOK 15/01 Q1016 NOSIG",
      "taf": ""
    },
    {
      "icao": "LRBV",
      "alert": "OK",
      "vis_m": 9999,
      "fzfg": false,
      "metar_trigger": false,
      "taf_trigger": false,
      "metar": "METAR LRBV 241000Z 05005KT 360V100 9999 SCT048 12/M00 Q1017",
      "taf": "TAF LRBV 240800Z 2409/2418 VRB04KT CAVOK"
    },
    {
      "icao": "LRCL",
      "alert": "OK",
      "vis_m": 9999,
      "fzfg": false,
      "metar_trigger": false,
      "taf_trigger": false,
      "metar": "METAR LRCL 241000Z VRB05KT 9999 SCT058 14/M02 Q1017",
      "taf": "TAF LRCL 240800Z 2409/2418 28005KT CAVOK"
    },
    {
      "icao": "LRCV",
      "alert": "OK",
      "vis_m": 9999,
      "fzfg": false,
      "metar_trigger": false,
      "taf_trigger": false,
      "metar": "METAR LRCV 241000Z 08005KT 050V110 CAVOK 15/02 Q1017",
      "taf": "TAF LRCV 240800Z 2409/2418 34008KT CAVOK"
    },
    {
      "icao": "LRIA",
      "alert": "OK",
      "vis_m": 9999,
      "fzfg": false,
      "metar_trigger": false,
      "taf_trigger": false,
      "metar": "METAR LRIA 241000Z VRB05KT CAVOK 14/M00 Q1018",
      "taf": "TAF LRIA 240800Z 2409/2418 32006KT CAVOK"
    },
    {
      "icao": "LROP",
      "alert": "OK",
      "vis_m": 9999,
      "fzfg": false,
      "metar_trigger": false,
      "taf_trigger": false,
      "metar": "METAR LROP 241000Z 05013KT CAVOK 15/M03 Q1016 NOSIG",
      "taf": ""
    },
    {
      "icao": "LRSB",
      "alert": "OK",
      "vis_m": 9999,
      "fzfg": false,
      "metar_trigger": false,
      "taf_trigger": false,
      "metar": "METAR LRSB 241000Z 04003KT 350V110 9999 FEW042 SCT080 12/01 Q1017",
      "taf": "TAF LRSB 240500Z 2406/2506 VRB04KT 9999 BKN065"
    },
    {
      "icao": "LRSM",
      "alert": "OK",
      "vis_m": 9999,
      "fzfg": false,
      "metar_trigger": false,
      "taf_trigger": false,
      "metar": "METAR LRSM 241000Z 32007KT CAVOK 14/00 Q1018",
      "taf": "TAF LRSM 240800Z 2409/2418 VRB04KT CAVOK"
    },
    {
      "icao": "LRSV",
      "alert": "OK",
      "vis_m": 9999,
      "fzfg": false,
      "metar_trigger": false,
      "taf_trigger": false,
      "metar": "METAR LRSV 241000Z VRB04KT CAVOK 12/M01 Q1017",
      "taf": "TAF LRSV 240800Z 2409/2418 02006KT CAVOK"
    },
    {
      "icao": "LRTM",
      "alert": "OK",
      "vis_m": 9999,
      "fzfg": false,
      "metar_trigger": false,
      "taf_trigger": false,
      "metar": "METAR LRTM 241000Z VRB03KT 9999 FEW036 14/02 Q1017",
      "taf": "TAF LRTM 240800Z 2409/2418 VRB04KT CAVOK"
    },
    {
      "icao": "LRTR",
      "alert": "OK",
      "vis_m": 9999,
      "fzfg": false,
      "metar_trigger": false,
      "taf_trigger": false,
      "metar": "METAR LRTR 241000Z 07004KT 020V100 CAVOK 14/03 Q1018 NOSIG",
      "taf": "TAF LRTR 240500Z 2406/2506 11007KT CAVOK"
    },
    {
      "icao": "LTAC",
      "alert": "OK",
      "vis_m": 9999,
      "fzfg": false,
      "metar_trigger": false,
      "taf_trigger": false,
      "metar": "METAR LTAC 241020Z 07008KT 9999 -TSRA FEW018CB SCT030 BKN080 08/05 Q1007 TEMPO TSRA RMK RWY21C 05006KT 010V080 RWY03L 06008KT RWY21R 05006KT RWY03R 04009KT RWY21L 05006KT",
      "taf": ""
    },
    {
      "icao": "LTFM",
      "alert": "OK",
      "vis_m": 7000,
      "fzfg": false,
      "metar_trigger": false,
      "taf_trigger": false,
      "metar": "METAR LTFM 241020Z 04008KT 010V070 7000 -RA BKN006 BKN020 09/07 Q1012 NOSIG RMK RWY17L 01007KT RWY34L 01008KT RWY16R 03007KT RWY36 03008KT RWY18 04007KT",
      "taf": ""
    },
    {
      "icao": "LUKK",
      "alert": "OK",
      "vis_m": 9999,
      "fzfg": false,
      "metar_trigger": false,
      "taf_trigger": false,
      "metar": "METAR LUKK 241000Z 03013KT 350V060 CAVOK 15/01 Q1017 NOSIG",
      "taf": "TAF LUKK 240504Z 2406/2506 01009KT CAVOK"
    },
    {
      "icao": "LWOH",
      "alert": "OK",
      "vis_m": 9999,
      "fzfg": false,
      "metar_trigger": false,
      "taf_trigger": false,
      "metar": "METAR LWOH 241020Z 34012KT 9999 FEW040 12/02 Q1013",
      "taf": "TAF LWOH 240830Z 2409/2509 01010KT 9999 SCT040"
    },
    {
      "icao": "LWSK",
      "alert": "OK",
      "vis_m": 9999,
      "fzfg": false,
      "metar_trigger": false,
      "taf_trigger": false,
      "metar": "METAR LWSK 241020Z 28005KT 210V340 9999 BKN042 12/03 Q1016 NOSIG",
      "taf": "TAF LWSK 240830Z 2409/2509 32005KT 9999 BKN035"
    },
    {
      "icao": "LYBE",
      "alert": "OK",
      "vis_m": 9999,
      "fzfg": false,
      "metar_trigger": false,
      "taf_trigger": false,
      "metar": "METAR LYBE 241000Z 28005KT 200V330 CAVOK 15/04 Q1019 NOSIG",
      "taf": "TAF LYBE 240500Z 2406/2506 24005KT 9999 SCT045 TX17/2413Z TN05/2505Z"
    },
    {
      "icao": "LYNI",
      "alert": "OK",
      "vis_m": 9999,
      "fzfg": false,
      "metar_trigger": false,
      "taf_trigger": false,
      "metar": "METAR LYNI 241000Z 31005KT 260V350 9999 FEW033 BKN043 12/04 Q1017 BECMG FM1030 01011KT",
      "taf": "TAF LYNI 240500Z 2406/2506 34011KT 9999 SCT040 BKN070 TX14/2413Z TN04/2505Z"
    },
    {
      "icao": "LYPG",
      "alert": "OK",
      "vis_m": 9999,
      "fzfg": false,
      "metar_trigger": false,
      "taf_trigger": false,
      "metar": "METAR LYPG 241000Z 36016KT 9999 FEW046 17/02 Q1014 BECMG 02026KT",
      "taf": "TAF LYPG 240500Z 2406/2506 36008KT 9999 FEW040 TX19/2413Z TN07/2504Z"
    },
    {
      "icao": "LZIB",
      "alert": "OK",
      "vis_m": 9999,
      "fzfg": false,
      "metar_trigger": false,
      "taf_trigger": false,
      "metar": "METAR LZIB 241000Z 29009KT CAVOK 15/01 Q1020 NOSIG",
      "taf": "TAF LZIB 240517Z 2406/2506 30007KT CAVOK"
    },
    {
      "icao": "LZKZ",
      "alert": "OK",
      "vis_m": 9999,
      "fzfg": false,
      "metar_trigger": false,
      "taf_trigger": false,
      "metar": "METAR LZKZ 241000Z 02009KT CAVOK 14/M02 Q1019 NOSIG",
      "taf": "TAF LZKZ 240517Z 2406/2506 35006KT CAVOK"
    },
    {
      "icao": "LZTT",
      "alert": "OK",
      "vis_m": 9999,
      "fzfg": false,
      "metar_trigger": false,
      "taf_trigger": false,
      "metar": "METAR LZTT 241000Z VRB03KT 9999 SCT066 10/M04 Q1019 NOSIG",
      "taf": ""
    },
    {
      "icao": "OEJN",
      "alert": "OK",
      "vis_m": 9999,
      "fzfg": false,
      "metar_trigger": false,
      "taf_trigger": false,
      "metar": "METAR OEJN 241000Z 24010KT 9999 SCT040 30/19 Q1005 NOSIG",
      "taf": "TAF OEJN 240500Z 2406/2512 26012KT 7000 FEW040"
    },
    {
      "icao": "OEMA",
      "alert": "OK",
      "vis_m": 9999,
      "fzfg": false,
      "metar_trigger": false,
      "taf_trigger": false,
      "metar": "METAR OEMA 241000Z 29012KT 9999 FEW035 29/02 Q1007 NOSIG",
      "taf": "TAF OEMA 240500Z 2406/2512 27015KT 7000 SCT040"
    },
    {
      "icao": "OJAI",
      "alert": "OK",
      "vis_m": 3000,
      "fzfg": false,
      "metar_trigger": false,
      "taf_trigger": false,
      "metar": "METAR OJAI 240900Z 27005KT 3000 HZ SCT035 SCT080 14/05 Q1008 NOSIG",
      "taf": "TAF OJAI 240456Z 2406/2512 VRB02KT 2000 BR FEW030"
    },
    {
      "icao": "OMAA",
      "alert": "OK",
      "vis_m": null,
      "fzfg": false,
      "metar_trigger": false,
      "taf_trigger": false,
      "metar": "",
      "taf": ""
    },
    {
      "icao": "OMDB",
      "alert": "OK",
      "vis_m": null,
      "fzfg": false,
      "metar_trigger": false,
      "taf_trigger": false,
      "metar": "",
      "taf": ""
    },
    {
      "icao": "UAAA",
      "alert": "OK",
      "vis_m": 9999,
      "fzfg": false,
      "metar_trigger": false,
      "taf_trigger": false,
      "metar": "METAR UAAA 241000Z 28005MPS 260V320 9999 SCT050CB BKN100 15/02 Q1022 NOSIG",
      "taf": "TAF UAAA 240506Z 2406/2506 28003G08MPS 9999 BKN040CB OVC100 TX15/2409Z TN03/2501Z"
    },
    {
      "icao": "UBBB",
      "alert": "OK",
      "vis_m": 9999,
      "fzfg": false,
      "metar_trigger": false,
      "taf_trigger": false,
      "metar": "METAR UBBB 241000Z 32010KT 300V360 CAVOK 15/07 Q1009 NOSIG",
      "taf": "TAF UBBB 240458Z 2406/2506 31014KT 9999 SCT012 SCT020 TX15/2410Z TN07/2500Z"
    },
    {
      "icao": "UDSG",
      "alert": "OK",
      "vis_m": 9999,
      "fzfg": false,
      "metar_trigger": false,
      "taf_trigger": false,
      "metar": "METAR UDSG 241000Z 28004KT 9999 BKN049 10/M00 Q1011 NOSIG",
      "taf": "TAF UDSG 240458Z 2406/2506 36006KT 9999 SCT040"
    },
    {
      "icao": "UDYZ",
      "alert": "OK",
      "vis_m": 9999,
      "fzfg": false,
      "metar_trigger": false,
      "taf_trigger": false,
      "metar": "METAR UDYZ 241000Z VRB02KT 9999 FEW046 15/02 Q1010 NOSIG",
      "taf": "TAF UDYZ 240500Z 2406/2506 16006KT 9999 FEW040"
    },
    {
      "icao": "UGKO",
      "alert": "OK",
      "vis_m": 9999,
      "fzfg": false,
      "metar_trigger": false,
      "taf_trigger": false,
      "metar": "METAR UGKO 241000Z 26007KT 230V290 CAVOK 17/09 Q1007 NOSIG",
      "taf": "TAF UGKO 240500Z 2406/2506 VRB02KT 9999 SCT023 BKN060 TX19/2411Z TN08/2503Z"
    }
  ]
}