{
  "ts_utc": "2026-04-15T14:16:02Z",
  "threshold_m": 150,
  "source": "stations_override.txt (ICAO list) + aviationweather.gov (METAR/TAF raw)",
  "station_count": 159,
  "stations": [
    {
      "icao": "BIKF",
      "alert": "OK",
      "vis_m": 9999,
      "fzfg": false,
      "metar_trigger": false,
      "taf_trigger": false,
      "metar": "METAR BIKF 151400Z 14017KT 9999 SCT017 BKN041 09/05 Q0993",
      "taf": "TAF BIKF 151337Z 1515/1615 14017KT 9999 SCT016 BKN025 TX08/1515Z TN03/1606Z"
    },
    {
      "icao": "BKPR",
      "alert": "OK",
      "vis_m": null,
      "fzfg": false,
      "metar_trigger": false,
      "taf_trigger": false,
      "metar": "",
      "taf": "TAF BKPR 151130Z 1512/1612 13009KT 9999 FEW050 BKN080"
    },
    {
      "icao": "EBCI",
      "alert": "OK",
      "vis_m": 9999,
      "fzfg": false,
      "metar_trigger": false,
      "taf_trigger": false,
      "metar": "METAR EBCI 151350Z 21012KT CAVOK 18/03 Q1019 NOSIG",
      "taf": "TAF EBCI 151100Z 1512/1618 22010KT CAVOK"
    },
    {
      "icao": "EDDB",
      "alert": "OK",
      "vis_m": 9999,
      "fzfg": false,
      "metar_trigger": false,
      "taf_trigger": false,
      "metar": "METAR EDDB 151350Z AUTO VRB03KT CAVOK 17/03 Q1022 NOSIG",
      "taf": "TAF EDDB 151100Z 1512/1612 VRB03KT CAVOK"
    },
    {
      "icao": "EDDH",
      "alert": "OK",
      "vis_m": 9999,
      "fzfg": false,
      "metar_trigger": false,
      "taf_trigger": false,
      "metar": "METAR EDDH 151350Z AUTO 22006KT 150V280 CAVOK 18/04 Q1021 NOSIG",
      "taf": "TAF EDDH 151100Z 1512/1618 21008KT CAVOK"
    },
    {
      "icao": "EDDK",
      "alert": "OK",
      "vis_m": 9999,
      "fzfg": false,
      "metar_trigger": false,
      "taf_trigger": false,
      "metar": "METAR EDDK 151350Z AUTO VRB05KT CAVOK 18/03 Q1020 NOSIG",
      "taf": "TAF EDDK 151100Z 1512/1618 15009KT CAVOK"
    },
    {
      "icao": "EDDN",
      "alert": "OK",
      "vis_m": 9999,
      "fzfg": false,
      "metar_trigger": false,
      "taf_trigger": false,
      "metar": "METAR EDDN 151350Z AUTO VRB02KT 9999 OVC035 15/08 Q1021 NOSIG",
      "taf": "TAF EDDN 151100Z 1512/1612 14006KT 9999 FEW020 OVC030"
    },
    {
      "icao": "EDDS",
      "alert": "OK",
      "vis_m": 9999,
      "fzfg": false,
      "metar_trigger": false,
      "taf_trigger": false,
      "metar": "METAR EDDS 151350Z AUTO VRB02KT 9999 BKN036 14/07 Q1020 NOSIG",
      "taf": "TAF EDDS 151100Z 1512/1612 07004KT 9999 BKN040"
    },
    {
      "icao": "EDFH",
      "alert": "OK",
      "vis_m": 9999,
      "fzfg": false,
      "metar_trigger": false,
      "taf_trigger": false,
      "metar": "METAR EDFH 151350Z 13007KT 090V160 9999 FEW044 15/05 Q1021",
      "taf": "TAF EDFH 151100Z 1512/1612 14007KT 9999 FEW040"
    },
    {
      "icao": "EDJA",
      "alert": "OK",
      "vis_m": 9999,
      "fzfg": false,
      "metar_trigger": false,
      "taf_trigger": false,
      "metar": "METAR EDJA 151350Z 04007KT 9999 FEW014 BKN023 OVC027 10/07 Q1021",
      "taf": "TAF EDJA 151100Z 1512/1521 05005KT 9999 FEW013 BKN020"
    },
    {
      "icao": "EDLW",
      "alert": "OK",
      "vis_m": 9999,
      "fzfg": false,
      "metar_trigger": false,
      "taf_trigger": false,
      "metar": "METAR EDLW 151350Z 21005KT 120V260 CAVOK 18/03 Q1019",
      "taf": "TAF EDLW 151100Z 1512/1612 19006KT CAVOK"
    },
    {
      "icao": "EDNY",
      "alert": "OK",
      "vis_m": 9999,
      "fzfg": false,
      "metar_trigger": false,
      "taf_trigger": false,
      "metar": "METAR EDNY 151350Z 22005KT 190V250 9999 BKN027 OVC033 12/07 Q1021",
      "taf": "TAF EDNY 151100Z 1512/1521 VRB03KT 9999 BKN030"
    },
    {
      "icao": "EDSB",
      "alert": "OK",
      "vis_m": 9999,
      "fzfg": false,
      "metar_trigger": false,
      "taf_trigger": false,
      "metar": "METAR EDSB 151350Z 31003KT 260V010 9999 SCT047 17/07 Q1021",
      "taf": "TAF EDSB 151100Z 1512/1612 36005KT 9999 SCT045"
    },
    {
      "icao": "EETN",
      "alert": "OK",
      "vis_m": 9999,
      "fzfg": false,
      "metar_trigger": false,
      "taf_trigger": false,
      "metar": "METAR EETN 151350Z 04012KT CAVOK 11/M04 Q1023 NOSIG",
      "taf": "TAF EETN 151130Z 1512/1612 03007KT CAVOK"
    },
    {
      "icao": "EFTU",
      "alert": "OK",
      "vis_m": 9999,
      "fzfg": false,
      "metar_trigger": false,
      "taf_trigger": false,
      "metar": "METAR EFTU 151350Z AUTO VRB04KT CAVOK 16/M06 Q1024",
      "taf": "TAF EFTU 151121Z 1512/1612 11006KT CAVOK"
    },
    {
      "icao": "EGBB",
      "alert": "OK",
      "vis_m": 6000,
      "fzfg": false,
      "metar_trigger": false,
      "taf_trigger": false,
      "metar": "METAR EGBB 151350Z 19009KT 140V220 6000 -RA SCT033 13/10 Q1011",
      "taf": "TAF EGBB 151104Z 1512/1612 18010KT 9999 SCT030"
    },
    {
      "icao": "EGGP",
      "alert": "OK",
      "vis_m": 9999,
      "fzfg": false,
      "metar_trigger": false,
      "taf_trigger": false,
      "metar": "METAR EGGP 151350Z 17012KT 9999 SCT026 BKN039 14/09 Q1008",
      "taf": "TAF EGGP 151101Z 1512/1612 18010KT 9999 SCT020"
    },
    {
      "icao": "EGGW",
      "alert": "OK",
      "vis_m": 9999,
      "fzfg": false,
      "metar_trigger": false,
      "taf_trigger": false,
      "metar": "METAR EGGW 151350Z AUTO 21016KT 9999 FEW027 SCT047 15/10 Q1013",
      "taf": "TAF EGGW 151101Z 1512/1612 19012KT 9999 BKN011"
    },
    {
      "icao": "EGKK",
      "alert": "OK",
      "vis_m": 9999,
      "fzfg": false,
      "metar_trigger": false,
      "taf_trigger": false,
      "metar": "METAR EGKK 151350Z 21015KT 9999 SCT028 16/09 Q1015",
      "taf": ""
    },
    {
      "icao": "EGNM",
      "alert": "OK",
      "vis_m": 9999,
      "fzfg": false,
      "metar_trigger": false,
      "taf_trigger": false,
      "metar": "METAR EGNM 151350Z 19015G28KT 9999 -SHRA SCT025 SCT038 14/08 Q1009",
      "taf": "TAF EGNM 151101Z 1512/1612 18012KT 9999 SCT020"
    },
    {
      "icao": "EGPD",
      "alert": "OK",
      "vis_m": 8000,
      "fzfg": false,
      "metar_trigger": false,
      "taf_trigger": false,
      "metar": "METAR EGPD 151350Z 16019KT 8000 VCSH FEW008 SCT036 12/10 Q1006 TEMPO RA SHRA",
      "taf": ""
    },
    {
      "icao": "EGPF",
      "alert": "OK",
      "vis_m": 9999,
      "fzfg": false,
      "metar_trigger": false,
      "taf_trigger": false,
      "metar": "METAR EGPF 151350Z AUTO 15010KT 9999 BKN022 14/10 Q1003",
      "taf": "TAF EGPF 151108Z 1512/1612 16014KT 9999 SCT016"
    },
    {
      "icao": "EHBK",
      "alert": "OK",
      "vis_m": 9999,
      "fzfg": false,
      "metar_trigger": false,
      "taf_trigger": false,
      "metar": "METAR EHBK 151355Z AUTO 17007KT 110V220 9999 NSC 18/04 Q1019 NOSIG",
      "taf": "TAF EHBK 151114Z 1512/1618 19010KT CAVOK"
    },
    {
      "icao": "EHEH",
      "alert": "OK",
      "vis_m": 9999,
      "fzfg": false,
      "metar_trigger": false,
      "taf_trigger": false,
      "metar": "METAR EHEH 151355Z AUTO 20012KT 170V240 9999 BKN350 20/03 Q1019 BLU NOSIG",
      "taf": "TAF EHEH 151102Z 1512/1618 19015KT CAVOK"
    },
    {
      "icao": "EKBI",
      "alert": "OK",
      "vis_m": 9999,
      "fzfg": false,
      "metar_trigger": false,
      "taf_trigger": false,
      "metar": "METAR EKBI 151350Z AUTO VRB04KT 9999 SCT100/// 13/02 Q1022",
      "taf": "TAF EKBI 151127Z 1512/1612 12005KT 9999 FEW030"
    },
    {
      "icao": "EKCH",
      "alert": "OK",
      "vis_m": 9999,
      "fzfg": false,
      "metar_trigger": false,
      "taf_trigger": false,
      "metar": "METAR EKCH 151350Z AUTO 14006KT 100V180 9999 SCT033/// 11/05 Q1022 NOSIG",
      "taf": ""
    },
    {
      "icao": "ENAL",
      "alert": "OK",
      "vis_m": 9999,
      "fzfg": false,
      "metar_trigger": false,
      "taf_trigger": false,
      "metar": "METAR ENAL 151350Z 10004KT 070V130 CAVOK 14/M02 Q1019",
      "taf": "TAF ENAL 151100Z 1512/1521 13008KT CAVOK"
    },
    {
      "icao": "ENBR",
      "alert": "OK",
      "vis_m": 9999,
      "fzfg": false,
      "metar_trigger": false,
      "taf_trigger": false,
      "metar": "METAR ENBR 151350Z 16017KT CAVOK 13/M01 Q1019 NOSIG RMK WIND 1200FT 14020KT",
      "taf": "TAF ENBR 151100Z 1512/1612 14010KT CAVOK"
    },
    {
      "icao": "ENGM",
      "alert": "OK",
      "vis_m": 9999,
      "fzfg": false,
      "metar_trigger": false,
      "taf_trigger": false,
      "metar": "METAR ENGM 151350Z VRB03KT 9999 SCT039 BKN045 11/01 Q1023 NOSIG",
      "taf": "TAF ENGM 151100Z 1512/1612 04008KT 9999 BKN030"
    },
    {
      "icao": "ENHD",
      "alert": "OK",
      "vis_m": 9999,
      "fzfg": false,
      "metar_trigger": false,
      "taf_trigger": false,
      "metar": "METAR ENHD 151350Z 14015KT CAVOK 12/02 Q1019",
      "taf": "TAF ENHD 151100Z 1512/1521 13015KT CAVOK"
    },
    {
      "icao": "ENTC",
      "alert": "OK",
      "vis_m": 9999,
      "fzfg": false,
      "metar_trigger": false,
      "taf_trigger": false,
      "metar": "METAR ENTC 151350Z 24005KT CAVOK 10/M04 Q1024 NOSIG RMK WIND 2600FT 20017KT",
      "taf": "TAF ENTC 151100Z 1512/1612 22008KT CAVOK"
    },
    {
      "icao": "ENTO",
      "alert": "OK",
      "vis_m": 9999,
      "fzfg": false,
      "metar_trigger": false,
      "taf_trigger": false,
      "metar": "METAR ENTO 151350Z 36003KT 320V040 9999 SCT026 BKN033 OVC043 10/04 Q1023 NOSIG",
      "taf": "TAF ENTO 151100Z 1512/1612 03008KT 9999 BKN020"
    },
    {
      "icao": "ENVA",
      "alert": "OK",
      "vis_m": 9999,
      "fzfg": false,
      "metar_trigger": false,
      "taf_trigger": false,
      "metar": "METAR ENVA 151350Z 16015KT 130V190 CAVOK 13/M01 Q1024 NOSIG RMK WIND 670FT 17025KT",
      "taf": "TAF ENVA 151100Z 1512/1612 14012KT CAVOK"
    },
    {
      "icao": "ENZV",
      "alert": "OK",
      "vis_m": 9999,
      "fzfg": false,
      "metar_trigger": false,
      "taf_trigger": false,
      "metar": "METAR ENZV 151350Z 12015KT CAVOK 11/01 Q1020 NOSIG",
      "taf": "TAF ENZV 151100Z 1512/1612 13015KT CAVOK"
    },
    {
      "icao": "EPGD",
      "alert": "OK",
      "vis_m": 9999,
      "fzfg": false,
      "metar_trigger": false,
      "taf_trigger": false,
      "metar": "METAR EPGD 151400Z 32012KT 300V360 9999 BKN040 11/02 Q1022",
      "taf": "TAF EPGD 151130Z 1512/1612 29010KT 9999 BKN030"
    },
    {
      "icao": "EPKK",
      "alert": "OK",
      "vis_m": 9999,
      "fzfg": false,
      "metar_trigger": false,
      "taf_trigger": false,
      "metar": "METAR EPKK 151400Z 28004KT 230V310 9999 FEW020 BKN043 13/09 Q1022",
      "taf": "TAF EPKK 151130Z 1512/1612 29010KT 9999 BKN030"
    },
    {
      "icao": "EPKT",
      "alert": "OK",
      "vis_m": 9999,
      "fzfg": false,
      "metar_trigger": false,
      "taf_trigger": false,
      "metar": "METAR EPKT 151400Z 32004KT 280V350 9999 FEW024 BKN028 13/07 Q1022",
      "taf": "TAF EPKT 151130Z 1512/1612 29003KT 9999 BKN025"
    },
    {
      "icao": "EPLB",
      "alert": "OK",
      "vis_m": 9999,
      "fzfg": false,
      "metar_trigger": false,
      "taf_trigger": false,
      "metar": "METAR EPLB 151400Z 35004KT 310V020 CAVOK 16/03 Q1021",
      "taf": "TAF EPLB 151130Z 1512/1612 VRB03KT CAVOK"
    },
    {
      "icao": "EPMO",
      "alert": "OK",
      "vis_m": 9999,
      "fzfg": false,
      "metar_trigger": false,
      "taf_trigger": false,
      "metar": "METAR EPMO 151400Z 28007KT 9999 BKN042 14/08 Q1021",
      "taf": "TAF EPMO 151130Z 1512/1612 27008KT CAVOK"
    },
    {
      "icao": "EPPO",
      "alert": "OK",
      "vis_m": 9999,
      "fzfg": false,
      "metar_trigger": false,
      "taf_trigger": false,
      "metar": "METAR EPPO 151400Z VRB04KT CAVOK 16/03 Q1022",
      "taf": "TAF EPPO 151130Z 1512/1612 32008KT CAVOK"
    },
    {
      "icao": "EPRA",
      "alert": "OK",
      "vis_m": 9999,
      "fzfg": false,
      "metar_trigger": false,
      "taf_trigger": false,
      "metar": "METAR EPRA 151400Z 26006KT CAVOK 15/07 Q1021",
      "taf": "TAF EPRA 151130Z 1512/1521 30006KT 9999 SCT040"
    },
    {
      "icao": "EPRZ",
      "alert": "OK",
      "vis_m": 9999,
      "fzfg": false,
      "metar_trigger": false,
      "taf_trigger": false,
      "metar": "METAR EPRZ 151400Z 28006KT 260V330 9999 SCT047 16/05 Q1021",
      "taf": "TAF EPRZ 151130Z 1512/1612 30005KT 9999 BKN040"
    },
    {
      "icao": "EPSC",
      "alert": "OK",
      "vis_m": 9999,
      "fzfg": false,
      "metar_trigger": false,
      "taf_trigger": false,
      "metar": "METAR EPSC 151400Z 33007KT 310V020 CAVOK 14/M01 Q1023",
      "taf": "TAF EPSC 151130Z 1512/1612 VRB04KT 9999 SCT040"
    },
    {
      "icao": "EPSY",
      "alert": "OK",
      "vis_m": 9999,
      "fzfg": false,
      "metar_trigger": false,
      "taf_trigger": false,
      "metar": "METAR EPSY 151400Z 28005KT 250V320 9999 FEW017 BKN027 11/07 Q1021",
      "taf": "TAF EPSY 151130Z 1512/1521 30005KT 9999 BKN035"
    },
    {
      "icao": "EPWA",
      "alert": "OK",
      "vis_m": 9999,
      "fzfg": false,
      "metar_trigger": false,
      "taf_trigger": false,
      "metar": "METAR EPWA 151400Z 27010KT 9999 BKN040 15/07 Q1021 NOSIG",
      "taf": "TAF EPWA 151130Z 1512/1612 28010KT CAVOK"
    },
    {
      "icao": "EPWR",
      "alert": "OK",
      "vis_m": 9999,
      "fzfg": false,
      "metar_trigger": false,
      "taf_trigger": false,
      "metar": "METAR EPWR 151400Z 10003KT 070V160 9999 FEW044 16/05 Q1022",
      "taf": "TAF EPWR 151130Z 1512/1612 30005KT 9999 BKN035"
    },
    {
      "icao": "ESGG",
      "alert": "OK",
      "vis_m": 9999,
      "fzfg": false,
      "metar_trigger": false,
      "taf_trigger": false,
      "metar": "METAR ESGG 151350Z 04006KT 9999 BKN017 08/04 Q1021",
      "taf": "TAF ESGG 151130Z 1512/1612 02004KT 9999 BKN020"
    },
    {
      "icao": "ESKN",
      "alert": "OK",
      "vis_m": 9999,
      "fzfg": false,
      "metar_trigger": false,
      "taf_trigger": false,
      "metar": "METAR ESKN 151350Z 11014KT CAVOK 12/02 Q1022",
      "taf": "TAF ESKN 151130Z 1512/1612 09010KT CAVOK"
    },
    {
      "icao": "ESMS",
      "alert": "OK",
      "vis_m": 9999,
      "fzfg": false,
      "metar_trigger": false,
      "taf_trigger": false,
      "metar": "METAR ESMS 151350Z 29010KT 250V320 9999 FEW037 SCT046 11/03 Q1022",
      "taf": "TAF ESMS 151127Z 1512/1612 27006KT 9999 SCT020"
    },
    {
      "icao": "ESSA",
      "alert": "OK",
      "vis_m": 9999,
      "fzfg": false,
      "metar_trigger": false,
      "taf_trigger": false,
      "metar": "METAR ESSA 151350Z 09012KT CAVOK 13/M02 Q1024 NOSIG",
      "taf": "TAF ESSA 151130Z 1512/1612 11010KT CAVOK"
    },
    {
      "icao": "EYKA",
      "alert": "OK",
      "vis_m": 9999,
      "fzfg": false,
      "metar_trigger": false,
      "taf_trigger": false,
      "metar": "METAR EYKA 151350Z VRB02KT CAVOK 18/00 Q1020",
      "taf": "TAF EYKA 151102Z 1512/1612 VRB03KT 9000 NSC"
    },
    {
      "icao": "EYPA",
      "alert": "OK",
      "vis_m": 9999,
      "fzfg": false,
      "metar_trigger": false,
      "taf_trigger": false,
      "metar": "METAR EYPA 151350Z VRB02KT 9999 FEW006 07/05 Q1022",
      "taf": "TAF EYPA 151101Z 1512/1612 VRB03KT 9000 OVC040"
    },
    {
      "icao": "EYVI",
      "alert": "OK",
      "vis_m": 9999,
      "fzfg": false,
      "metar_trigger": false,
      "taf_trigger": false,
      "metar": "METAR EYVI 151350Z VRB05KT CAVOK 17/M04 Q1020 NOSIG",
      "taf": "TAF EYVI 151100Z 1512/1612 VRB04KT 9000 NSC"
    },
    {
      "icao": "GCFV",
      "alert": "OK",
      "vis_m": 9999,
      "fzfg": false,
      "metar_trigger": false,
      "taf_trigger": false,
      "metar": "METAR GCFV 151400Z 03014KT 9999 FEW020 20/15 Q1018",
      "taf": "TAF GCFV 150800Z 1509/1609 03012KT 9999 FEW025 TX23/1514Z TN16/1606Z"
    },
    {
      "icao": "GCLP",
      "alert": "OK",
      "vis_m": 9999,
      "fzfg": false,
      "metar_trigger": false,
      "taf_trigger": false,
      "metar": "METAR GCLP 151400Z 02024KT 350V050 9999 FEW020 22/14 Q1018 NOSIG",
      "taf": "TAF GCLP 150800Z 1509/1609 01021KT 9999 FEW025 TX23/1514Z TN16/1606Z"
    },
    {
      "icao": "GCTS",
      "alert": "OK",
      "vis_m": 9999,
      "fzfg": false,
      "metar_trigger": false,
      "taf_trigger": false,
      "metar": "METAR GCTS 151400Z 09021KT 9999 FEW030 23/13 Q1018 NOSIG",
      "taf": "TAF GCTS 150800Z 1509/1609 08020KT 9999 FEW030 TX24/1514Z TN17/1606Z"
    },
    {
      "icao": "GMAD",
      "alert": "OK",
      "vis_m": 8000,
      "fzfg": false,
      "metar_trigger": false,
      "taf_trigger": false,
      "metar": "METAR GMAD 151400Z 27010KT 8000 NSC 33/05 Q1015 NOSIG",
      "taf": "TAF GMAD 151100Z 1512/1618 27010KT CAVOK"
    },
    {
      "icao": "GMMN",
      "alert": "OK",
      "vis_m": 9999,
      "fzfg": false,
      "metar_trigger": false,
      "taf_trigger": false,
      "metar": "METAR GMMN 151400Z 02013KT 350V070 CAVOK 23/16 Q1020 NOSIG",
      "taf": "TAF GMMN 151100Z 1512/1618 02012KT CAVOK"
    },
    {
      "icao": "GMMX",
      "alert": "OK",
      "vis_m": 9999,
      "fzfg": false,
      "metar_trigger": false,
      "taf_trigger": false,
      "metar": "METAR GMMX 151400Z 31004KT 220V010 CAVOK 29/08 Q1017 NOSIG",
      "taf": "TAF GMMX 151100Z 1512/1618 06006KT CAVOK"
    },
    {
      "icao": "HEGN",
      "alert": "OK",
      "vis_m": null,
      "fzfg": false,
      "metar_trigger": false,
      "taf_trigger": false,
      "metar": "",
      "taf": "TAF HEGN 150500Z 1506/1612 01014KT CAVOK"
    },
    {
      "icao": "HEMA",
      "alert": "OK",
      "vis_m": null,
      "fzfg": false,
      "metar_trigger": false,
      "taf_trigger": false,
      "metar": "",
      "taf": "TAF HEMA 150500Z 1506/1612 02015KT CAVOK"
    },
    {
      "icao": "HESH",
      "alert": "OK",
      "vis_m": null,
      "fzfg": false,
      "metar_trigger": false,
      "taf_trigger": false,
      "metar": "",
      "taf": "TAF HESH 150500Z 1506/1612 02014KT CAVOK"
    },
    {
      "icao": "HESX",
      "alert": "OK",
      "vis_m": null,
      "fzfg": false,
      "metar_trigger": false,
      "taf_trigger": false,
      "metar": "",
      "taf": "TAF HESX 150500Z 1506/1612 03011KT CAVOK"
    },
    {
      "icao": "LATI",
      "alert": "OK",
      "vis_m": 9999,
      "fzfg": false,
      "metar_trigger": false,
      "taf_trigger": false,
      "metar": "METAR LATI 151350Z 31004KT 270V350 9999 BKN076 20/11 Q1016 NOSIG",
      "taf": "TAF LATI 151100Z 1512/1612 35010KT 9999 SCT040 BKN080 TX26/1612Z TN12/1604Z"
    },
    {
      "icao": "LBPD",
      "alert": "OK",
      "vis_m": 9999,
      "fzfg": false,
      "metar_trigger": false,
      "taf_trigger": false,
      "metar": "METAR LBPD 151400Z AUTO 30003KT 270V330 9999 OVC093/// 13/07 Q1021 NOSIG",
      "taf": "TAF LBPD 151100Z 1512/1612 VRB03KT 9999 SCT070"
    },
    {
      "icao": "LBSF",
      "alert": "OK",
      "vis_m": 9999,
      "fzfg": false,
      "metar_trigger": false,
      "taf_trigger": false,
      "metar": "METAR LBSF 151400Z 15006KT 9999 -RA SCT057 OVC075 16/08 Q1020 NOSIG",
      "taf": "TAF LBSF 151100Z 1512/1612 11010KT 9999 SCT050 BKN070"
    },
    {
      "icao": "LBWN",
      "alert": "OK",
      "vis_m": 9999,
      "fzfg": false,
      "metar_trigger": false,
      "taf_trigger": false,
      "metar": "METAR LBWN 151400Z 12012KT 9999 FEW016 12/07 Q1022 NOSIG",
      "taf": "TAF LBWN 151100Z 1512/1612 12012KT 9999 SCT020"
    },
    {
      "icao": "LCLK",
      "alert": "OK",
      "vis_m": 9999,
      "fzfg": false,
      "metar_trigger": false,
      "taf_trigger": false,
      "metar": "METAR LCLK 151400Z 04010KT CAVOK 24/12 Q1013 NOSIG",
      "taf": "TAF LCLK 151130Z 1512/1612 05014KT CAVOK"
    },
    {
      "icao": "LCPH",
      "alert": "OK",
      "vis_m": 9999,
      "fzfg": false,
      "metar_trigger": false,
      "taf_trigger": false,
      "metar": "METAR LCPH 151400Z VRB03KT CAVOK 20/15 Q1013 NOSIG",
      "taf": "TAF LCPH 151130Z 1512/1612 30010KT CAVOK"
    },
    {
      "icao": "LEAL",
      "alert": "OK",
      "vis_m": 9999,
      "fzfg": false,
      "metar_trigger": false,
      "taf_trigger": false,
      "metar": "METAR LEAL 151400Z 10008KT 070V160 9999 FEW055 20/13 Q1020 NOSIG",
      "taf": "TAF LEAL 151100Z 1512/1612 11010KT 9999 FEW030 TX21/1513Z TN12/1606Z"
    },
    {
      "icao": "LEBB",
      "alert": "OK",
      "vis_m": 9999,
      "fzfg": false,
      "metar_trigger": false,
      "taf_trigger": false,
      "metar": "METAR LEBB 151400Z 28011KT 240V320 9999 FEW050 19/14 Q1022 NOSIG",
      "taf": ""
    },
    {
      "icao": "LEBL",
      "alert": "OK",
      "vis_m": 9999,
      "fzfg": false,
      "metar_trigger": false,
      "taf_trigger": false,
      "metar": "METAR LEBL 151400Z 20009KT 9999 FEW023 17/11 Q1019 NOSIG",
      "taf": "TAF LEBL 151100Z 1512/1612 20008KT CAVOK TX18/1513Z TN11/1606Z"
    },
    {
      "icao": "LECH",
      "alert": "OK",
      "vis_m": 9000,
      "fzfg": false,
      "metar_trigger": false,
      "taf_trigger": false,
      "metar": "METAR LECH 151400Z AUTO 13012KT 100V160 9000 NCD 20/07 Q1019",
      "taf": "TAF LECH 151100Z 1512/1612 VRB03KT 9999 FEW030 TX23/1513Z TN08/1606Z"
    },
    {
      "icao": "LEMD",
      "alert": "OK",
      "vis_m": 9999,
      "fzfg": false,
      "metar_trigger": false,
      "taf_trigger": false,
      "metar": "METAR LEMD 151400Z 21006G16KT 150V300 CAVOK 23/07 Q1021 NOSIG",
      "taf": "TAF LEMD 151100Z 1512/1618 VRB04KT CAVOK TX24/1516Z TN08/1606Z"
    },
    {
      "icao": "LEMG",
      "alert": "OK",
      "vis_m": 9999,
      "fzfg": false,
      "metar_trigger": false,
      "taf_trigger": false,
      "metar": "METAR LEMG 151400Z 13009KT 100V160 CAVOK 23/10 Q1020 NOSIG",
      "taf": "TAF LEMG 151100Z 1512/1612 13010KT CAVOK TX26/1514Z TN15/1607Z"
    },
    {
      "icao": "LEVC",
      "alert": "OK",
      "vis_m": 9999,
      "fzfg": false,
      "metar_trigger": false,
      "taf_trigger": false,
      "metar": "METAR LEVC 151400Z 12013KT 9999 FEW040 22/10 Q1018 NOSIG",
      "taf": "TAF LEVC 151100Z 1512/1612 VRB04KT 9999 FEW030 TX24/1513Z TN10/1606Z"
    },
    {
      "icao": "LEXJ",
      "alert": "OK",
      "vis_m": 9999,
      "fzfg": false,
      "metar_trigger": false,
      "taf_trigger": false,
      "metar": "METAR LEXJ 151400Z 06005KT 010V120 9999 FEW030 17/13 Q1022",
      "taf": "TAF LEXJ 150800Z 1509/1609 VRB03KT 9999 FEW030 TX20/1514Z TN10/1603Z"
    },
    {
      "icao": "LEZG",
      "alert": "OK",
      "vis_m": 9999,
      "fzfg": false,
      "metar_trigger": false,
      "taf_trigger": false,
      "metar": "METAR LEZG 151400Z 32011KT 290V010 9999 FEW080 25/07 Q1019 NOSIG",
      "taf": "TAF LEZG 151100Z 1512/1612 31015KT 9999 FEW040 TX25/1513Z TN11/1606Z"
    },
    {
      "icao": "LEZL",
      "alert": "OK",
      "vis_m": 9999,
      "fzfg": false,
      "metar_trigger": false,
      "taf_trigger": false,
      "metar": "METAR LEZL 151400Z 08001KT CAVOK 26/09 Q1020 NOSIG",
      "taf": "TAF LEZL 150800Z 1509/1609 04004KT CAVOK TX28/1515Z TN13/1607Z"
    },
    {
      "icao": "LFBD",
      "alert": "OK",
      "vis_m": 9999,
      "fzfg": false,
      "metar_trigger": false,
      "taf_trigger": false,
      "metar": "METAR LFBD 151400Z AUTO 27006KT 220V300 9999 FEW027 OVC080 20/13 Q1022 TEMPO 4000 -SHRA BKN025TCU",
      "taf": "TAF LFBD 151100Z 1512/1618 VRB03KT 9999 BKN015 TX23/1615Z TN08/1605Z"
    },
    {
      "icao": "LFLL",
      "alert": "OK",
      "vis_m": 9999,
      "fzfg": false,
      "metar_trigger": false,
      "taf_trigger": false,
      "metar": "METAR LFLL 151400Z 36005KT 320V070 9999 FEW041 17/07 Q1020 NOSIG",
      "taf": "TAF LFLL 151100Z 1512/1618 36010KT 9999 FEW030"
    },
    {
      "icao": "LFLS",
      "alert": "OK",
      "vis_m": 9999,
      "fzfg": false,
      "metar_trigger": false,
      "taf_trigger": false,
      "metar": "METAR LFLS 151400Z AUTO 04006KT 350V080 9999 BKN035 16/09 Q1020 NOSIG",
      "taf": "TAF LFLS 150800Z 1509/1609 VRB02KT 9999 BKN030"
    },
    {
      "icao": "LFMN",
      "alert": "OK",
      "vis_m": 9999,
      "fzfg": false,
      "metar_trigger": false,
      "taf_trigger": false,
      "metar": "METAR LFMN 151400Z 20007KT 180V240 9999 FEW100 19/13 Q1016 NOSIG",
      "taf": "TAF LFMN 150800Z 1509/1615 19010KT CAVOK"
    },
    {
      "icao": "LFOB",
      "alert": "OK",
      "vis_m": 9999,
      "fzfg": false,
      "metar_trigger": false,
      "taf_trigger": false,
      "metar": "METAR LFOB 151400Z AUTO 21012KT 9999 OVC026 16/11 Q1019 NOSIG",
      "taf": "TAF LFOB 151100Z 1512/1612 19012KT CAVOK"
    },
    {
      "icao": "LFPO",
      "alert": "OK",
      "vis_m": 9999,
      "fzfg": false,
      "metar_trigger": false,
      "taf_trigger": false,
      "metar": "METAR LFPO 151400Z 23011KT 200V260 9999 BKN043 17/08 Q1020 NOSIG",
      "taf": "TAF LFPO 151100Z 1512/1618 21010KT 9999 BKN030"
    },
    {
      "icao": "LFSB",
      "alert": "OK",
      "vis_m": 9999,
      "fzfg": false,
      "metar_trigger": false,
      "taf_trigger": false,
      "metar": "METAR LFSB 151400Z AUTO VRB02KT 9999 OVC039 14/06 Q1021 NOSIG",
      "taf": "TAF LFSB 151100Z 1512/1612 01005KT 9999 BKN040"
    },
    {
      "icao": "LGAV",
      "alert": "OK",
      "vis_m": 9999,
      "fzfg": false,
      "metar_trigger": false,
      "taf_trigger": false,
      "metar": "METAR LGAV 151350Z 05011KT 010V080 9999 FEW020 18/12 Q1017 NOSIG",
      "taf": "TAF LGAV 151100Z 1512/1612 04016KT 9999 FEW020 SCT070"
    },
    {
      "icao": "LGTS",
      "alert": "OK",
      "vis_m": 9999,
      "fzfg": false,
      "metar_trigger": false,
      "taf_trigger": false,
      "metar": "METAR LGTS 151350Z 26005KT 9999 FEW025 18/11 Q1019 NOSIG",
      "taf": "TAF LGTS 151100Z 1512/1612 VRB03KT 9999 SCT025"
    },
    {
      "icao": "LHBP",
      "alert": "OK",
      "vis_m": 9999,
      "fzfg": false,
      "metar_trigger": false,
      "taf_trigger": false,
      "metar": "METAR LHBP 151400Z 06004KT CAVOK 20/08 Q1020 NOSIG",
      "taf": "TAF LHBP 151115Z 1512/1612 VRB03KT CAVOK"
    },
    {
      "icao": "LHDC",
      "alert": "OK",
      "vis_m": 9999,
      "fzfg": false,
      "metar_trigger": false,
      "taf_trigger": false,
      "metar": "METAR LHDC 151345Z AUTO VRB06KT CAVOK 22/03 Q1019 NOSIG",
      "taf": "TAF LHDC 151115Z 1512/1521 01006KT CAVOK"
    },
    {
      "icao": "LIBD",
      "alert": "OK",
      "vis_m": 7000,
      "fzfg": false,
      "metar_trigger": false,
      "taf_trigger": false,
      "metar": "METAR LIBD 151350Z 08009KT 7000 SCT025 BKN045 15/15 Q1016",
      "taf": "TAF LIBD 151100Z 1512/1612 10012KT 7000 SCT020"
    },
    {
      "icao": "LIBG",
      "alert": "OK",
      "vis_m": 8000,
      "fzfg": false,
      "metar_trigger": false,
      "taf_trigger": false,
      "metar": "METAR LIBG 151350Z 07006KT 8000 -RA FEW020 SCT040 17/17 Q1015 RETSRA",
      "taf": ""
    },
    {
      "icao": "LIBP",
      "alert": "OK",
      "vis_m": 9999,
      "fzfg": false,
      "metar_trigger": false,
      "taf_trigger": false,
      "metar": "METAR LIBP 151350Z AUTO VRB01KT 9999 -RA FEW006/// BKN037/// 17/16 Q1016",
      "taf": "TAF LIBP 151100Z 1512/1612 08010KT 9999 BKN015"
    },
    {
      "icao": "LIBR",
      "alert": "OK",
      "vis_m": 9999,
      "fzfg": false,
      "metar_trigger": false,
      "taf_trigger": false,
      "metar": "METAR LIBR 151350Z 06005KT CAVOK 16/15 Q1016",
      "taf": "TAF LIBR 151100Z 1512/1612 09011KT 9999 SCT030"
    },
    {
      "icao": "LICA",
      "alert": "OK",
      "vis_m": 9999,
      "fzfg": false,
      "metar_trigger": false,
      "taf_trigger": false,
      "metar": "METAR LICA 151350Z AUTO 08018KT 9999 BKN017/// 19/15 Q1012",
      "taf": "TAF LICA 151100Z 1512/1612 08022G32KT 9999 SCT030"
    },
    {
      "icao": "LICC",
      "alert": "OK",
      "vis_m": 5000,
      "fzfg": false,
      "metar_trigger": false,
      "taf_trigger": false,
      "metar": "METAR LICC 151350Z 04014KT 5000 -RA BR SCT005 BKN030 19/16 Q1010",
      "taf": "TAF LICC 151100Z 1512/1612 07013KT 7000 SCT015 BKN030"
    },
    {
      "icao": "LICJ",
      "alert": "OK",
      "vis_m": 9999,
      "fzfg": false,
      "metar_trigger": false,
      "taf_trigger": false,
      "metar": "METAR LICJ 151350Z 19006KT 170V230 9999 FEW014 15/13 Q1010",
      "taf": "TAF LICJ 151100Z 1512/1612 23010KT 9999 BKN020"
    },
    {
      "icao": "LIMC",
      "alert": "OK",
      "vis_m": 9999,
      "fzfg": false,
      "metar_trigger": false,
      "taf_trigger": false,
      "metar": "METAR LIMC 151350Z 23006KT 190V330 9999 FEW040 21/12 Q1018 NOSIG",
      "taf": "TAF LIMC 151100Z 1512/1618 VRB05KT 9999 SCT030"
    },
    {
      "icao": "LIME",
      "alert": "OK",
      "vis_m": 9999,
      "fzfg": false,
      "metar_trigger": false,
      "taf_trigger": false,
      "metar": "METAR LIME 151350Z 22007KT 120V260 9999 FEW020 SCT035 21/10 Q1018 NOSIG",
      "taf": "TAF LIME 151100Z 1512/1612 VRB05KT 7000 BKN030"
    },
    {
      "icao": "LIMF",
      "alert": "OK",
      "vis_m": 9999,
      "fzfg": false,
      "metar_trigger": false,
      "taf_trigger": false,
      "metar": "METAR LIMF 151350Z VRB03KT 9999 FEW035 21/11 Q1018",
      "taf": "TAF LIMF 151100Z 1512/1612 VRB05KT 8000 SCT040"
    },
    {
      "icao": "LIMJ",
      "alert": "OK",
      "vis_m": 9999,
      "fzfg": false,
      "metar_trigger": false,
      "taf_trigger": false,
      "metar": "METAR LIMJ 151350Z 34010KT 9999 FEW032 24/10 Q1016",
      "taf": "TAF LIMJ 151100Z 1512/1612 02014KT 9999 SCT060"
    },
    {
      "icao": "LIPE",
      "alert": "OK",
      "vis_m": 8000,
      "fzfg": false,
      "metar_trigger": false,
      "taf_trigger": false,
      "metar": "METAR LIPE 151350Z 26007KT 8000 BKN040 16/14 Q1019",
      "taf": "TAF LIPE 151100Z 1512/1612 VRB05KT 7000 BKN015"
    },
    {
      "icao": "LIPH",
      "alert": "OK",
      "vis_m": 9999,
      "fzfg": false,
      "metar_trigger": false,
      "taf_trigger": false,
      "metar": "METAR LIPH 151350Z 05007KT 010V100 9999 FEW080 21/13 Q1018",
      "taf": "TAF LIPH 151100Z 1512/1612 VRB05KT 9999 SCT050"
    },
    {
      "icao": "LIPQ",
      "alert": "OK",
      "vis_m": 9999,
      "fzfg": false,
      "metar_trigger": false,
      "taf_trigger": false,
      "metar": "METAR LIPQ 151350Z AUTO 13009KT 9999 FEW064/// SCT100/// 21/11 Q1018",
      "taf": "TAF LIPQ 151100Z 1512/1612 10012KT 9999 SCT070"
    },
    {
      "icao": "LIPR",
      "alert": "OK",
      "vis_m": 8000,
      "fzfg": false,
      "metar_trigger": false,
      "taf_trigger": false,
      "metar": "METAR LIPR 151350Z 34006KT 8000 -RA SCT008 BKN030 15/14 Q1018",
      "taf": "TAF LIPR 151100Z 1512/1612 05010KT 6000 BKN030"
    },
    {
      "icao": "LIPX",
      "alert": "OK",
      "vis_m": 9999,
      "fzfg": false,
      "metar_trigger": false,
      "taf_trigger": false,
      "metar": "METAR LIPX 151350Z 16005KT 090V220 9999 SCT035 21/13 Q1018",
      "taf": "TAF LIPX 151100Z 1512/1612 VRB05KT 7000 BKN050"
    },
    {
      "icao": "LIPY",
      "alert": "OK",
      "vis_m": 9999,
      "fzfg": false,
      "metar_trigger": false,
      "taf_trigger": false,
      "metar": "METAR LIPY 151350Z AUTO 34004KT 300V020 9999 OVC008/// 15/15 Q1017",
      "taf": "TAF LIPY 151100Z 1512/1612 06010KT 9999 BKN020"
    },
    {
      "icao": "LIPZ",
      "alert": "OK",
      "vis_m": 9999,
      "fzfg": false,
      "metar_trigger": false,
      "taf_trigger": false,
      "metar": "METAR LIPZ 151350Z 08008KT CAVOK 20/12 Q1018 NOSIG",
      "taf": "TAF LIPZ 151100Z 1512/1618 12007KT 9999 SCT040"
    },
    {
      "icao": "LIRF",
      "alert": "OK",
      "vis_m": 9999,
      "fzfg": false,
      "metar_trigger": false,
      "taf_trigger": false,
      "metar": "METAR LIRF 151350Z 24013KT 9999 -TSRA VCSH FEW025CB SCT055 18/14 Q1013 TEMPO TSRA",
      "taf": "TAF LIRF 151100Z 1512/1618 27012KT 9999 SCT030"
    },
    {
      "icao": "LIRN",
      "alert": "OK",
      "vis_m": 9999,
      "fzfg": false,
      "metar_trigger": false,
      "taf_trigger": false,
      "metar": "METAR LIRN 151350Z 07012KT 040V110 9999 BKN070 21/11 Q1012 TEMPO TSRA",
      "taf": "TAF LIRN 151100Z 1512/1612 04010KT 9999 SCT040"
    },
    {
      "icao": "LIRP",
      "alert": "OK",
      "vis_m": 9999,
      "fzfg": false,
      "metar_trigger": false,
      "taf_trigger": false,
      "metar": "METAR LIRP 151345Z 07011KT 9999 FEW040 23/10 Q1015 NOSIG",
      "taf": "TAF LIRP 151100Z 1512/1612 07012KT 9999 FEW030 SCT060"
    },
    {
      "icao": "LIRZ",
      "alert": "OK",
      "vis_m": 9999,
      "fzfg": false,
      "metar_trigger": false,
      "taf_trigger": false,
      "metar": "METAR LIRZ 151350Z AUTO 03015KT 010V070 9999 FEW064/// 18/13 Q1014",
      "taf": "TAF LIRZ 151100Z 1512/1612 03014KT 9999 SCT040"
    },
    {
      "icao": "LJLJ",
      "alert": "OK",
      "vis_m": 9999,
      "fzfg": false,
      "metar_trigger": false,
      "taf_trigger": false,
      "metar": "METAR LJLJ 151400Z VRB02KT 9999 FEW017 SCT025 BKN075 16/09 Q1020 NOSIG",
      "taf": "TAF LJLJ 151100Z 1512/1612 VRB02KT 9999 SCT013 BKN045"
    },
    {
      "icao": "LKMT",
      "alert": "OK",
      "vis_m": 9999,
      "fzfg": false,
      "metar_trigger": false,
      "taf_trigger": false,
      "metar": "METAR LKMT 151400Z 03005KT 360V060 9999 BKN019 OVC046 12/08 Q1022 NOSIG",
      "taf": "TAF LKMT 151100Z 1512/1612 03006KT 9999 BKN020"
    },
    {
      "icao": "LKPR",
      "alert": "OK",
      "vis_m": 9999,
      "fzfg": false,
      "metar_trigger": false,
      "taf_trigger": false,
      "metar": "METAR LKPR 151400Z VRB03KT 9999 FEW030 BKN045 14/06 Q1022 NOSIG",
      "taf": "TAF LKPR 151100Z 1512/1618 36008KT 9000 BKN040"
    },
    {
      "icao": "LLBG",
      "alert": "OK",
      "vis_m": 9999,
      "fzfg": false,
      "metar_trigger": false,
      "taf_trigger": false,
      "metar": "METAR LLBG 151350Z 11012KT CAVOK 35/05 Q1009 NOSIG",
      "taf": "TAF LLBG 151100Z 1512/1612 12007KT CAVOK TX35/1512Z TN25/1604Z"
    },
    {
      "icao": "LMML",
      "alert": "OK",
      "vis_m": 9999,
      "fzfg": false,
      "metar_trigger": false,
      "taf_trigger": false,
      "metar": "METAR LMML 151345Z 24014KT 220V280 9999 SCT015 19/13 Q1010 NOSIG",
      "taf": "TAF LMML 151100Z 1512/1612 26014KT 9999 SCT020"
    },
    {
      "icao": "LOWW",
      "alert": "OK",
      "vis_m": 9999,
      "fzfg": false,
      "metar_trigger": false,
      "taf_trigger": false,
      "metar": "METAR LOWW 151350Z 03007KT 310V070 9999 FEW032 BKN038 17/09 Q1021 NOSIG",
      "taf": "TAF LOWW 151115Z 1512/1618 34007KT 9999 BKN040 TX19/1614Z TN09/1604Z"
    },
    {
      "icao": "LPFR",
      "alert": "OK",
      "vis_m": 9999,
      "fzfg": false,
      "metar_trigger": false,
      "taf_trigger": false,
      "metar": "METAR LPFR 151400Z 22008KT CAVOK 20/13 Q1022",
      "taf": "TAF LPFR 151100Z 1512/1612 19008KT CAVOK"
    },
    {
      "icao": "LPMA",
      "alert": "OK",
      "vis_m": 9999,
      "fzfg": false,
      "metar_trigger": false,
      "taf_trigger": false,
      "metar": "METAR LPMA 151400Z 03019KT 9999 SCT015 19/11 Q1023",
      "taf": "TAF LPMA 151100Z 1512/1612 02015KT 9999 SCT016"
    },
    {
      "icao": "LPPR",
      "alert": "OK",
      "vis_m": 9999,
      "fzfg": false,
      "metar_trigger": false,
      "taf_trigger": false,
      "metar": "METAR LPPR 151400Z 24007KT 200V300 9999 FEW020 17/12 Q1024",
      "taf": "TAF LPPR 151100Z 1512/1612 21008KT 9999 SCT020"
    },
    {
      "icao": "LPPS",
      "alert": "OK",
      "vis_m": 9999,
      "fzfg": false,
      "metar_trigger": false,
      "taf_trigger": false,
      "metar": "METAR LPPS 151400Z 06010KT 030V090 9999 FEW015 BKN030 16/12 Q1024",
      "taf": "TAF LPPS 151100Z 1512/1618 04012KT 9999 FEW015 BKN030"
    },
    {
      "icao": "LPPT",
      "alert": "OK",
      "vis_m": 9999,
      "fzfg": false,
      "metar_trigger": false,
      "taf_trigger": false,
      "metar": "METAR LPPT 151400Z 32006KT 260V030 9999 SCT028 18/12 Q1024",
      "taf": "TAF LPPT 151100Z 1512/1618 33008KT 9999 BKN025"
    },
    {
      "icao": "LQBK",
      "alert": "OK",
      "vis_m": 9999,
      "fzfg": false,
      "metar_trigger": false,
      "taf_trigger": false,
      "metar": "METAR LQBK 151400Z VRB03KT 9999 SCT033 BKN045 16/10 Q1020 NOSIG",
      "taf": "TAF LQBK 151100Z 1512/1612 32005KT 9999 SCT020 BKN045 TX19/1612Z TN11/1604Z"
    },
    {
      "icao": "LQSA",
      "alert": "OK",
      "vis_m": 9999,
      "fzfg": false,
      "metar_trigger": false,
      "taf_trigger": false,
      "metar": "METAR LQSA 151400Z VRB03KT 9999 FEW045 SCT055 16/12 Q1017 NOSIG",
      "taf": "TAF LQSA 151100Z 1512/1612 VRB02KT 9999 BKN050 TX21/1513Z TN10/1604Z"
    },
    {
      "icao": "LQTZ",
      "alert": "OK",
      "vis_m": 9999,
      "fzfg": false,
      "metar_trigger": false,
      "taf_trigger": false,
      "metar": "METAR LQTZ 151400Z 26004KT 210V330 9999 BKN040 19/12 Q1019",
      "taf": "TAF LQTZ 151100Z 1512/1612 33005KT 9999 SCT040 TX19/1513Z TN08/1604Z"
    },
    {
      "icao": "LRBC",
      "alert": "OK",
      "vis_m": 9999,
      "fzfg": false,
      "metar_trigger": false,
      "taf_trigger": false,
      "metar": "METAR LRBC 151400Z 16010KT CAVOK 18/04 Q1020",
      "taf": "TAF LRBC 151100Z 1512/1521 17010KT CAVOK"
    },
    {
      "icao": "LRBS",
      "alert": "OK",
      "vis_m": 9999,
      "fzfg": false,
      "metar_trigger": false,
      "taf_trigger": false,
      "metar": "METAR LRBS 151400Z 08006KT 040V140 CAVOK 19/08 Q1020 NOSIG",
      "taf": "TAF LRBS 151100Z 1512/1612 07006KT CAVOK"
    },
    {
      "icao": "LRBV",
      "alert": "OK",
      "vis_m": 9999,
      "fzfg": false,
      "metar_trigger": false,
      "taf_trigger": false,
      "metar": "METAR LRBV 151400Z VRB03KT 9999 FEW060 21/03 Q1018",
      "taf": "TAF LRBV 151100Z 1512/1521 VRB04KT CAVOK"
    },
    {
      "icao": "LRCL",
      "alert": "OK",
      "vis_m": 9999,
      "fzfg": false,
      "metar_trigger": false,
      "taf_trigger": false,
      "metar": "METAR LRCL 151400Z VRB02KT CAVOK 20/04 Q1018",
      "taf": "TAF LRCL 151100Z 1512/1521 VRB04KT CAVOK"
    },
    {
      "icao": "LRCV",
      "alert": "OK",
      "vis_m": 9999,
      "fzfg": false,
      "metar_trigger": false,
      "taf_trigger": false,
      "metar": "METAR LRCV 151400Z 14004KT 090V180 CAVOK 18/08 Q1020",
      "taf": "TAF LRCV 151100Z 1512/1521 09006KT CAVOK"
    },
    {
      "icao": "LRIA",
      "alert": "OK",
      "vis_m": 9999,
      "fzfg": false,
      "metar_trigger": false,
      "taf_trigger": false,
      "metar": "METAR LRIA 151400Z 13004KT 080V180 CAVOK 19/02 Q1020",
      "taf": "TAF LRIA 151100Z 1512/1521 VRB04KT CAVOK"
    },
    {
      "icao": "LROP",
      "alert": "OK",
      "vis_m": 9999,
      "fzfg": false,
      "metar_trigger": false,
      "taf_trigger": false,
      "metar": "METAR LROP 151400Z 11006KT 080V140 CAVOK 18/04 Q1020 NOSIG",
      "taf": "TAF LROP 151100Z 1512/1612 07006KT CAVOK"
    },
    {
      "icao": "LRSB",
      "alert": "OK",
      "vis_m": 9999,
      "fzfg": false,
      "metar_trigger": false,
      "taf_trigger": false,
      "metar": "METAR LRSB 151400Z VRB02KT CAVOK 21/04 Q1017",
      "taf": "TAF LRSB 151100Z 1512/1612 VRB04KT CAVOK"
    },
    {
      "icao": "LRSM",
      "alert": "OK",
      "vis_m": 9999,
      "fzfg": false,
      "metar_trigger": false,
      "taf_trigger": false,
      "metar": "METAR LRSM 151400Z 32006KT 270V360 CAVOK 20/05 Q1019",
      "taf": "TAF LRSM 151100Z 1512/1521 VRB04KT CAVOK"
    },
    {
      "icao": "LRSV",
      "alert": "OK",
      "vis_m": 9999,
      "fzfg": false,
      "metar_trigger": false,
      "taf_trigger": false,
      "metar": "METAR LRSV 151400Z 08005KT 010V130 CAVOK 17/05 Q1019",
      "taf": "TAF LRSV 151100Z 1512/1521 11007KT CAVOK"
    },
    {
      "icao": "LRTM",
      "alert": "OK",
      "vis_m": 9999,
      "fzfg": false,
      "metar_trigger": false,
      "taf_trigger": false,
      "metar": "METAR LRTM 151400Z 29007KT 230V350 CAVOK 21/05 Q1018",
      "taf": "TAF LRTM 151100Z 1512/1521 VRB04KT CAVOK"
    },
    {
      "icao": "LRTR",
      "alert": "OK",
      "vis_m": 9999,
      "fzfg": false,
      "metar_trigger": false,
      "taf_trigger": false,
      "metar": "METAR LRTR 151400Z 36007KT 330V030 CAVOK 21/08 Q1018 NOSIG",
      "taf": "TAF LRTR 151100Z 1512/1612 36006KT CAVOK"
    },
    {
      "icao": "LTAC",
      "alert": "OK",
      "vis_m": 9999,
      "fzfg": false,
      "metar_trigger": false,
      "taf_trigger": false,
      "metar": "METAR LTAC 151350Z 23010KT 200V260 9999 FEW040 SCT100 BKN180 20/06 Q1018 NOSIG RMK RWY21C 25010KT 220V280 RWY03L 24007KT 210V280 RWY21R 23010KT RWY03R 23009KT 200V280 RWY21L 24010KT 210V270",
      "taf": "TAF LTAC 151040Z 1512/1612 VRB02KT 9999 FEW040 BKN180"
    },
    {
      "icao": "LTFM",
      "alert": "OK",
      "vis_m": 9999,
      "fzfg": false,
      "metar_trigger": false,
      "taf_trigger": false,
      "metar": "METAR LTFM 151350Z 04013KT 020V080 9999 SCT012 BKN180 11/07 Q1021 NOSIG RMK RWY17L 06011KT RWY34L 04012KT RWY16R 05013KT RWY36 06013KT RWY18 06012KT",
      "taf": "TAF LTFM 151040Z 1512/1618 06013KT 9999 SCT012 BKN180"
    },
    {
      "icao": "LUKK",
      "alert": "OK",
      "vis_m": 9999,
      "fzfg": false,
      "metar_trigger": false,
      "taf_trigger": false,
      "metar": "METAR LUKK 151400Z 20008KT 160V230 CAVOK 17/02 Q1021 NOSIG",
      "taf": "TAF LUKK 151101Z 1512/1612 18006KT CAVOK"
    },
    {
      "icao": "LWOH",
      "alert": "OK",
      "vis_m": 9999,
      "fzfg": false,
      "metar_trigger": false,
      "taf_trigger": false,
      "metar": "METAR LWOH 151350Z 35004KT 300V020 9999 BKN040 14/10 Q1019",
      "taf": "TAF LWOH 151115Z 1512/1612 19005KT 9999 FEW015 BKN035"
    },
    {
      "icao": "LWSK",
      "alert": "OK",
      "vis_m": 9999,
      "fzfg": false,
      "metar_trigger": false,
      "taf_trigger": false,
      "metar": "METAR LWSK 151350Z 15005KT 120V180 9999 FEW013 SCT030 BKN090 17/11 Q1019 NOSIG",
      "taf": "TAF LWSK 151115Z 1512/1612 15006KT 9999 FEW020 BKN035"
    },
    {
      "icao": "LYBE",
      "alert": "OK",
      "vis_m": 9999,
      "fzfg": false,
      "metar_trigger": false,
      "taf_trigger": false,
      "metar": "METAR LYBE 151400Z 09006KT 040V140 CAVOK 21/09 Q1018 NOSIG",
      "taf": "TAF LYBE 151100Z 1512/1612 07007KT CAVOK TX22/1612Z TN11/1604Z"
    },
    {
      "icao": "LYNI",
      "alert": "OK",
      "vis_m": 9999,
      "fzfg": false,
      "metar_trigger": false,
      "taf_trigger": false,
      "metar": "METAR LYNI 151400Z VRB01KT CAVOK 22/08 Q1017 NOSIG",
      "taf": "TAF LYNI 151100Z 1512/1612 07007KT CAVOK TX23/1612Z TN11/1604Z"
    },
    {
      "icao": "LYPG",
      "alert": "OK",
      "vis_m": 9999,
      "fzfg": false,
      "metar_trigger": false,
      "taf_trigger": false,
      "metar": "METAR LYPG 151400Z 17005KT 9999 BKN090 23/11 Q1015 NOSIG",
      "taf": "TAF LYPG 151100Z 1512/1612 16005KT 9999 FEW040 BKN090 TX24/1512Z TN13/1604Z"
    },
    {
      "icao": "LZIB",
      "alert": "OK",
      "vis_m": 9999,
      "fzfg": false,
      "metar_trigger": false,
      "taf_trigger": false,
      "metar": "METAR LZIB 151400Z VRB02KT 9999 FEW039 BKN044 19/10 Q1020 NOSIG",
      "taf": "TAF LZIB 151115Z 1512/1612 33008KT CAVOK"
    },
    {
      "icao": "LZKZ",
      "alert": "OK",
      "vis_m": 9999,
      "fzfg": false,
      "metar_trigger": false,
      "taf_trigger": false,
      "metar": "METAR LZKZ 151400Z 01006KT CAVOK 19/07 Q1020 NOSIG",
      "taf": "TAF LZKZ 151115Z 1512/1612 01008KT CAVOK"
    },
    {
      "icao": "LZTT",
      "alert": "OK",
      "vis_m": 9999,
      "fzfg": false,
      "metar_trigger": false,
      "taf_trigger": false,
      "metar": "METAR LZTT 151400Z VRB02KT 9999 FEW033 OVC046 13/07 Q1021 NOSIG",
      "taf": "TAF LZTT 151115Z 1512/1612 VRB02KT 9999 BKN040"
    },
    {
      "icao": "OEJN",
      "alert": "OK",
      "vis_m": 9999,
      "fzfg": false,
      "metar_trigger": false,
      "taf_trigger": false,
      "metar": "METAR OEJN 151400Z 20009KT 9999 FEW040 34/18 Q1006 NOSIG",
      "taf": "TAF OEJN 151100Z 1512/1618 20010KT 7000 NSC"
    },
    {
      "icao": "OEMA",
      "alert": "OK",
      "vis_m": 9999,
      "fzfg": false,
      "metar_trigger": false,
      "taf_trigger": false,
      "metar": "METAR OEMA 151400Z 11007KT 9999 TS FEW035CB BKN040 32/12 Q1012 NOSIG",
      "taf": "TAF OEMA 151100Z 1512/1618 12015KT 7000 SCT040"
    },
    {
      "icao": "OJAI",
      "alert": "OK",
      "vis_m": null,
      "fzfg": false,
      "metar_trigger": false,
      "taf_trigger": false,
      "metar": "",
      "taf": "TAF OJAI 151100Z 1512/1618 13010KT 4000 DU NSC"
    },
    {
      "icao": "OMAA",
      "alert": "OK",
      "vis_m": null,
      "fzfg": false,
      "metar_trigger": false,
      "taf_trigger": false,
      "metar": "",
      "taf": ""
    },
    {
      "icao": "OMDB",
      "alert": "OK",
      "vis_m": null,
      "fzfg": false,
      "metar_trigger": false,
      "taf_trigger": false,
      "metar": "",
      "taf": ""
    },
    {
      "icao": "UAAA",
      "alert": "OK",
      "vis_m": 5000,
      "fzfg": false,
      "metar_trigger": false,
      "taf_trigger": false,
      "metar": "SPECI UAAA 151406Z 26007MPS 5000 BLDU SCT050CB OVC100 21/06 Q1014 NOSIG",
      "taf": "TAF UAAA 151105Z 1512/1612 20003G08MPS 9999 SCT050CB BKN100 TX18/1609Z TN08/1601Z"
    },
    {
      "icao": "UBBB",
      "alert": "OK",
      "vis_m": 9999,
      "fzfg": false,
      "metar_trigger": false,
      "taf_trigger": false,
      "metar": "METAR UBBB 151400Z 18008KT CAVOK 14/05 Q1021 NOSIG",
      "taf": ""
    },
    {
      "icao": "UDSG",
      "alert": "OK",
      "vis_m": 9999,
      "fzfg": false,
      "metar_trigger": false,
      "taf_trigger": false,
      "metar": "METAR UDSG 151400Z 28011KT 9999 NSC 08/M17 Q1021 NOSIG",
      "taf": "TAF UDSG 151100Z 1512/1612 VRB06KT 9999 FEW050"
    },
    {
      "icao": "UDYZ",
      "alert": "OK",
      "vis_m": 9999,
      "fzfg": false,
      "metar_trigger": false,
      "taf_trigger": false,
      "metar": "METAR UDYZ 151400Z 14007KT 9999 NSC 13/M05 Q1020 NOSIG",
      "taf": "TAF UDYZ 151100Z 1512/1612 23006KT 9999 FEW040"
    },
    {
      "icao": "UGKO",
      "alert": "OK",
      "vis_m": 9999,
      "fzfg": false,
      "metar_trigger": false,
      "taf_trigger": false,
      "metar": "METAR UGKO 151400Z 30008KT 260V320 CAVOK 16/M01 Q1022 NOSIG",
      "taf": "TAF UGKO 151100Z 1512/1612 26007KT CAVOK TX19/1611Z TN01/1603Z"
    }
  ]
}