{
  "ts_utc": "2026-03-08T18:47:43Z",
  "threshold_m": 150,
  "source": "stations_override.txt (ICAO list) + aviationweather.gov (METAR/TAF raw)",
  "station_count": 159,
  "stations": [
    {
      "icao": "BIKF",
      "alert": "OK",
      "vis_m": 9999,
      "fzfg": false,
      "metar_trigger": false,
      "taf_trigger": false,
      "metar": "METAR BIKF 081830Z 22013G23KT 9999 -SHSN SCT006CB BKN047 M01/M01 Q0998",
      "taf": "TAF BIKF 081700Z 0818/0918 20010KT 9999 SCT015 BKN035 TX05/0916Z TNM01/0901Z"
    },
    {
      "icao": "BKPR",
      "alert": "OK",
      "vis_m": 9999,
      "fzfg": false,
      "metar_trigger": false,
      "taf_trigger": false,
      "metar": "METAR BKPR 081830Z 03003KT 360V090 9999 BKN085 10/03 Q1026 NOSIG",
      "taf": "TAF BKPR 081730Z 0818/0918 05007KT 9999 SCT050"
    },
    {
      "icao": "EBCI",
      "alert": "OK",
      "vis_m": 9999,
      "fzfg": false,
      "metar_trigger": false,
      "taf_trigger": false,
      "metar": "METAR EBCI 081820Z 32003KT CAVOK 13/08 Q1022 NOSIG",
      "taf": "TAF EBCI 081700Z 0818/0924 VRB03KT CAVOK"
    },
    {
      "icao": "EDDB",
      "alert": "OK",
      "vis_m": 9999,
      "fzfg": false,
      "metar_trigger": false,
      "taf_trigger": false,
      "metar": "METAR EDDB 081820Z AUTO 10007KT CAVOK 10/M00 Q1027 NOSIG",
      "taf": "TAF EDDB 081700Z 0818/0918 12007KT CAVOK"
    },
    {
      "icao": "EDDH",
      "alert": "OK",
      "vis_m": 9999,
      "fzfg": false,
      "metar_trigger": false,
      "taf_trigger": false,
      "metar": "METAR EDDH 081820Z AUTO 10006KT 070V140 CAVOK 13/04 Q1025 NOSIG",
      "taf": "TAF EDDH 081700Z 0818/0924 12006KT CAVOK"
    },
    {
      "icao": "EDDK",
      "alert": "OK",
      "vis_m": 9999,
      "fzfg": false,
      "metar_trigger": false,
      "taf_trigger": false,
      "metar": "METAR EDDK 081820Z AUTO 12004KT CAVOK 15/02 Q1022 NOSIG",
      "taf": "TAF EDDK 081700Z 0818/0924 13004KT CAVOK"
    },
    {
      "icao": "EDDN",
      "alert": "OK",
      "vis_m": 9999,
      "fzfg": false,
      "metar_trigger": false,
      "taf_trigger": false,
      "metar": "METAR EDDN 081820Z AUTO 10005KT CAVOK 12/04 Q1024 NOSIG",
      "taf": "TAF EDDN 081700Z 0818/0918 10004KT CAVOK"
    },
    {
      "icao": "EDDS",
      "alert": "OK",
      "vis_m": 9999,
      "fzfg": false,
      "metar_trigger": false,
      "taf_trigger": false,
      "metar": "METAR EDDS 081820Z AUTO 35004KT CAVOK 12/01 Q1022 NOSIG",
      "taf": "TAF EDDS 081700Z 0818/0918 VRB03KT CAVOK"
    },
    {
      "icao": "EDFH",
      "alert": "OK",
      "vis_m": 9999,
      "fzfg": false,
      "metar_trigger": false,
      "taf_trigger": false,
      "metar": "METAR EDFH 081820Z 12009KT CAVOK 10/04 Q1023",
      "taf": "TAF EDFH 081700Z 0818/0918 15006KT CAVOK"
    },
    {
      "icao": "EDJA",
      "alert": "OK",
      "vis_m": 9999,
      "fzfg": false,
      "metar_trigger": false,
      "taf_trigger": false,
      "metar": "METAR EDJA 081820Z 00000KT CAVOK 08/05 Q1023",
      "taf": "TAF EDJA 081700Z 0818/0903 VRB03KT CAVOK"
    },
    {
      "icao": "EDLW",
      "alert": "OK",
      "vis_m": 9999,
      "fzfg": false,
      "metar_trigger": false,
      "taf_trigger": false,
      "metar": "METAR EDLW 081820Z 07004KT CAVOK 14/05 Q1022",
      "taf": "TAF EDLW 081700Z 0818/0918 05004KT CAVOK"
    },
    {
      "icao": "EDNY",
      "alert": "OK",
      "vis_m": 9999,
      "fzfg": false,
      "metar_trigger": false,
      "taf_trigger": false,
      "metar": "METAR EDNY 081820Z COR 05001KT CAVOK 08/04 Q1023",
      "taf": "TAF EDNY 081700Z 0818/0903 VRB03KT CAVOK"
    },
    {
      "icao": "EDSB",
      "alert": "OK",
      "vis_m": 9999,
      "fzfg": false,
      "metar_trigger": false,
      "taf_trigger": false,
      "metar": "METAR EDSB 081820Z 04002KT CAVOK 12/07 Q1022",
      "taf": "TAF EDSB 081700Z 0818/0918 VRB03KT CAVOK"
    },
    {
      "icao": "EETN",
      "alert": "OK",
      "vis_m": 9999,
      "fzfg": false,
      "metar_trigger": false,
      "taf_trigger": false,
      "metar": "METAR EETN 081820Z 25008KT CAVOK 03/M01 Q1028 NOSIG",
      "taf": "TAF EETN 081730Z 0818/0918 24010KT CAVOK"
    },
    {
      "icao": "EFTU",
      "alert": "OK",
      "vis_m": 9999,
      "fzfg": false,
      "metar_trigger": false,
      "taf_trigger": false,
      "metar": "METAR EFTU 081820Z AUTO 20003KT 170V240 CAVOK 02/M00 Q1027",
      "taf": "TAF EFTU 081734Z 0818/0918 26008KT CAVOK"
    },
    {
      "icao": "EGBB",
      "alert": "OK",
      "vis_m": 6000,
      "fzfg": false,
      "metar_trigger": false,
      "taf_trigger": false,
      "metar": "METAR EGBB 081820Z 18004KT 6000 OVC010 09/07 Q1021",
      "taf": "TAF EGBB 081708Z 0818/0918 14006KT 6000 BKN008"
    },
    {
      "icao": "EGGP",
      "alert": "OK",
      "vis_m": 7000,
      "fzfg": false,
      "metar_trigger": false,
      "taf_trigger": false,
      "metar": "METAR EGGP 081820Z 16007KT 130V200 7000 -DZ BKN010 OVC014 09/08 Q1020",
      "taf": "TAF EGGP 081704Z 0818/0918 16007KT 7000 SCT012 BKN025"
    },
    {
      "icao": "EGGW",
      "alert": "OK",
      "vis_m": 1100,
      "fzfg": false,
      "metar_trigger": false,
      "taf_trigger": false,
      "metar": "METAR EGGW 081820Z AUTO 14005KT 110V180 1100 R07/P1500N BR OVC002 07/07 Q1021",
      "taf": "TAF EGGW 081658Z 0818/0918 15005KT 2000 BR OVC002"
    },
    {
      "icao": "EGKK",
      "alert": "OK",
      "vis_m": 5000,
      "fzfg": false,
      "metar_trigger": false,
      "taf_trigger": false,
      "metar": "METAR EGKK 081820Z VRB02KT 5000 HZ BKN007 09/08 Q1021",
      "taf": "TAF EGKK 081659Z 0818/0924 13005KT 6000 BKN007"
    },
    {
      "icao": "EGNM",
      "alert": "OK",
      "vis_m": 1800,
      "fzfg": false,
      "metar_trigger": false,
      "taf_trigger": false,
      "metar": "METAR EGNM 081820Z 13006KT 080V160 1800 BR FEW002 OVC003 08/07 Q1020",
      "taf": ""
    },
    {
      "icao": "EGPD",
      "alert": "OK",
      "vis_m": 9999,
      "fzfg": false,
      "metar_trigger": false,
      "taf_trigger": false,
      "metar": "METAR EGPD 081820Z COR AUTO 19012KT 9999 NCD 06/02 Q1018 NOSIG",
      "taf": "TAF EGPD 081654Z 0818/0918 19009KT 9999 FEW030"
    },
    {
      "icao": "EGPF",
      "alert": "OK",
      "vis_m": 9999,
      "fzfg": false,
      "metar_trigger": false,
      "taf_trigger": false,
      "metar": "METAR EGPF 081820Z AUTO VRB02KT 9999 BKN032 06/02 Q1019",
      "taf": "TAF EGPF 081652Z 0818/0918 18008KT 9999 FEW035"
    },
    {
      "icao": "EHBK",
      "alert": "OK",
      "vis_m": 9999,
      "fzfg": false,
      "metar_trigger": false,
      "taf_trigger": false,
      "metar": "METAR EHBK 081825Z AUTO 35004KT 9999 NSC 14/08 Q1022 NOSIG",
      "taf": "TAF EHBK 081709Z 0818/0924 VRB02KT CAVOK"
    },
    {
      "icao": "EHEH",
      "alert": "OK",
      "vis_m": 7000,
      "fzfg": false,
      "metar_trigger": false,
      "taf_trigger": false,
      "metar": "METAR EHEH 081825Z AUTO 04003KT 7000 HZ BKN340 09/06 Q1022 WHT NOSIG RMK TREND REMOTE BY EHWX",
      "taf": "TAF EHEH 081722Z 0818/0924 03003KT CAVOK"
    },
    {
      "icao": "EKBI",
      "alert": "OK",
      "vis_m": 900,
      "fzfg": false,
      "metar_trigger": false,
      "taf_trigger": false,
      "metar": "METAR EKBI 081825Z 07002KT 0900 R09/0650D R27/0400N BCFG FEW007 05/05 Q1026",
      "taf": ""
    },
    {
      "icao": "EKCH",
      "alert": "OK",
      "vis_m": 9000,
      "fzfg": false,
      "metar_trigger": false,
      "taf_trigger": false,
      "metar": "METAR EKCH 081820Z AUTO 14003KT 9000 BKN110/// 06/01 Q1028 NOSIG",
      "taf": "TAF EKCH 081727Z 0818/0918 13006KT CAVOK"
    },
    {
      "icao": "ENAL",
      "alert": "OK",
      "vis_m": 9999,
      "fzfg": false,
      "metar_trigger": false,
      "taf_trigger": false,
      "metar": "METAR ENAL 081820Z 06005KT 9999 FEW012 SCT039 BKN049 06/04 Q1020",
      "taf": "TAF ENAL 081700Z 0818/0903 33008KT 9999 FEW030 BKN060"
    },
    {
      "icao": "ENBR",
      "alert": "OK",
      "vis_m": 6000,
      "fzfg": false,
      "metar_trigger": false,
      "taf_trigger": false,
      "metar": "METAR ENBR 081820Z 15011KT 6000 -RADZ BKN006 04/03 Q1022 TEMPO 3000 -DZRA BR BKN003 RMK WIND 1200FT 17016KT",
      "taf": ""
    },
    {
      "icao": "ENGM",
      "alert": "OK",
      "vis_m": 1900,
      "fzfg": false,
      "metar_trigger": false,
      "taf_trigger": false,
      "metar": "METAR ENGM 081820Z 20006KT 1900 1000NW -DZ BCFG FEW001 BKN003 02/01 Q1024 TEMPO 0500 FG",
      "taf": ""
    },
    {
      "icao": "ENHD",
      "alert": "OK",
      "vis_m": 9000,
      "fzfg": false,
      "metar_trigger": false,
      "taf_trigger": false,
      "metar": "METAR ENHD 081820Z 16008KT 9000 -DZ SCT004 SCT009 BKN020 04/04 Q1023",
      "taf": ""
    },
    {
      "icao": "ENTC",
      "alert": "OK",
      "vis_m": 9999,
      "fzfg": false,
      "metar_trigger": false,
      "taf_trigger": false,
      "metar": "METAR ENTC 081820Z 27006KT 9999 -RA SCT022 BKN028 03/00 Q1016 TEMPO RA BKN014 RMK WIND 2600FT 22007KT",
      "taf": "TAF ENTC 081700Z 0818/0918 21005KT 9999 FEW015 BKN020"
    },
    {
      "icao": "ENTO",
      "alert": "OK",
      "vis_m": 100,
      "fzfg": false,
      "metar_trigger": false,
      "taf_trigger": false,
      "metar": "METAR ENTO 081820Z 13004KT 0100 R18/0500N R36/0550N -RA FG VV001 02/02 Q1024 NOSIG",
      "taf": ""
    },
    {
      "icao": "ENVA",
      "alert": "OK",
      "vis_m": 9999,
      "fzfg": false,
      "metar_trigger": false,
      "taf_trigger": false,
      "metar": "METAR ENVA 081820Z 12008KT CAVOK M00/M02 Q1021 RMK WIND 670FT 15010KT",
      "taf": "TAF ENVA 081700Z 0818/0918 27008KT CAVOK"
    },
    {
      "icao": "ENZV",
      "alert": "OK",
      "vis_m": 9000,
      "fzfg": false,
      "metar_trigger": false,
      "taf_trigger": false,
      "metar": "METAR ENZV 081820Z 16008KT 9000 SCT004 OVC005 04/03 Q1024 TEMPO BKN010",
      "taf": ""
    },
    {
      "icao": "EPGD",
      "alert": "OK",
      "vis_m": 9999,
      "fzfg": false,
      "metar_trigger": false,
      "taf_trigger": false,
      "metar": "METAR EPGD 081830Z 18006KT CAVOK 08/M03 Q1030",
      "taf": "TAF EPGD 081730Z 0818/0918 15006KT CAVOK"
    },
    {
      "icao": "EPKK",
      "alert": "OK",
      "vis_m": 9999,
      "fzfg": false,
      "metar_trigger": false,
      "taf_trigger": false,
      "metar": "METAR EPKK 081830Z 06008KT CAVOK 07/M01 Q1030",
      "taf": "TAF EPKK 081730Z 0818/0918 06009KT CAVOK"
    },
    {
      "icao": "EPKT",
      "alert": "OK",
      "vis_m": 9999,
      "fzfg": false,
      "metar_trigger": false,
      "taf_trigger": false,
      "metar": "METAR EPKT 081830Z 09007KT CAVOK 05/M02 Q1029",
      "taf": "TAF EPKT 081730Z 0818/0918 08008KT CAVOK"
    },
    {
      "icao": "EPLB",
      "alert": "OK",
      "vis_m": 9999,
      "fzfg": false,
      "metar_trigger": false,
      "taf_trigger": false,
      "metar": "METAR EPLB 081830Z 07003KT CAVOK 05/M00 Q1032",
      "taf": "TAF EPLB 081730Z 0818/0918 08002KT CAVOK"
    },
    {
      "icao": "EPMO",
      "alert": "OK",
      "vis_m": 9999,
      "fzfg": false,
      "metar_trigger": false,
      "taf_trigger": false,
      "metar": "METAR EPMO 081830Z 08004KT CAVOK 07/M03 Q1032",
      "taf": "TAF EPMO 081730Z 0818/0918 11004KT CAVOK"
    },
    {
      "icao": "EPPO",
      "alert": "OK",
      "vis_m": 9999,
      "fzfg": false,
      "metar_trigger": false,
      "taf_trigger": false,
      "metar": "METAR EPPO 081830Z 09007KT CAVOK 08/M02 Q1030",
      "taf": "TAF EPPO 081730Z 0818/0918 09005KT CAVOK"
    },
    {
      "icao": "EPRA",
      "alert": "OK",
      "vis_m": 9999,
      "fzfg": false,
      "metar_trigger": false,
      "taf_trigger": false,
      "metar": "METAR EPRA 081830Z 11006KT CAVOK 07/M03 Q1032",
      "taf": "TAF EPRA 081730Z 0818/0903 10008KT CAVOK"
    },
    {
      "icao": "EPRZ",
      "alert": "OK",
      "vis_m": 9999,
      "fzfg": false,
      "metar_trigger": false,
      "taf_trigger": false,
      "metar": "METAR EPRZ 081830Z 05004KT CAVOK 05/M01 Q1031",
      "taf": "TAF EPRZ 081730Z 0818/0918 06007KT CAVOK"
    },
    {
      "icao": "EPSC",
      "alert": "OK",
      "vis_m": 9999,
      "fzfg": false,
      "metar_trigger": false,
      "taf_trigger": false,
      "metar": "METAR EPSC 081830Z 10005KT CAVOK 06/M01 Q1028",
      "taf": "TAF EPSC 081730Z 0818/0918 12005KT CAVOK"
    },
    {
      "icao": "EPSY",
      "alert": "OK",
      "vis_m": 9999,
      "fzfg": false,
      "metar_trigger": false,
      "taf_trigger": false,
      "metar": "METAR EPSY 081830Z 06001KT CAVOK 02/M05 Q1032",
      "taf": "TAF EPSY 081730Z 0818/0903 VRB02KT CAVOK"
    },
    {
      "icao": "EPWA",
      "alert": "OK",
      "vis_m": 9999,
      "fzfg": false,
      "metar_trigger": false,
      "taf_trigger": false,
      "metar": "METAR EPWA 081830Z 10004KT 070V130 CAVOK 07/M02 Q1032 NOSIG",
      "taf": "TAF EPWA 081730Z 0818/0918 11004KT CAVOK"
    },
    {
      "icao": "EPWR",
      "alert": "OK",
      "vis_m": 9999,
      "fzfg": false,
      "metar_trigger": false,
      "taf_trigger": false,
      "metar": "METAR EPWR 081830Z 09008KT CAVOK 09/M01 Q1028",
      "taf": "TAF EPWR 081730Z 0818/0918 08005KT CAVOK"
    },
    {
      "icao": "ESGG",
      "alert": "OK",
      "vis_m": 4500,
      "fzfg": false,
      "metar_trigger": false,
      "taf_trigger": false,
      "metar": "METAR ESGG 081820Z 19005KT 150V220 4500 BR FEW025 05/05 Q1026",
      "taf": "TAF ESGG 081730Z 0818/0918 18008KT 9999 SCT007"
    },
    {
      "icao": "ESKN",
      "alert": "OK",
      "vis_m": 9999,
      "fzfg": false,
      "metar_trigger": false,
      "taf_trigger": false,
      "metar": "METAR ESKN 081820Z 12004KT CAVOK 02/01 Q1027",
      "taf": "TAF ESKN 081730Z 0818/0918 13004KT CAVOK"
    },
    {
      "icao": "ESMS",
      "alert": "OK",
      "vis_m": 9999,
      "fzfg": false,
      "metar_trigger": false,
      "taf_trigger": false,
      "metar": "METAR ESMS 081820Z 12005KT CAVOK 06/M00 Q1027",
      "taf": "TAF ESMS 081727Z 0818/0918 13008KT CAVOK"
    },
    {
      "icao": "ESSA",
      "alert": "OK",
      "vis_m": 9999,
      "fzfg": false,
      "metar_trigger": false,
      "taf_trigger": false,
      "metar": "METAR ESSA 081820Z 17008KT CAVOK 04/M02 Q1026 NOSIG",
      "taf": ""
    },
    {
      "icao": "EYKA",
      "alert": "OK",
      "vis_m": 9999,
      "fzfg": false,
      "metar_trigger": false,
      "taf_trigger": false,
      "metar": "METAR EYKA 081820Z 00000KT CAVOK 02/M02 Q1032",
      "taf": "TAF EYKA 081700Z 0818/0918 VRB02KT 9000 NSC"
    },
    {
      "icao": "EYPA",
      "alert": "OK",
      "vis_m": 9999,
      "fzfg": false,
      "metar_trigger": false,
      "taf_trigger": false,
      "metar": "METAR EYPA 081820Z 15002KT CAVOK 01/M02 Q1031",
      "taf": "TAF EYPA 081700Z 0818/0918 VRB02KT 9000 NSC"
    },
    {
      "icao": "EYVI",
      "alert": "OK",
      "vis_m": 9999,
      "fzfg": false,
      "metar_trigger": false,
      "taf_trigger": false,
      "metar": "METAR EYVI 081820Z 18002KT CAVOK 06/M04 Q1032 NOSIG",
      "taf": "TAF EYVI 081700Z 0818/0918 VRB03KT 9000 NSC"
    },
    {
      "icao": "GCFV",
      "alert": "OK",
      "vis_m": 9999,
      "fzfg": false,
      "metar_trigger": false,
      "taf_trigger": false,
      "metar": "METAR GCFV 081830Z 01017KT 9999 SCT035 BKN045 18/11 Q1021",
      "taf": "TAF GCFV 081400Z 0815/0915 04017KT 9999 SCT035 TX20/0914Z TN15/0906Z"
    },
    {
      "icao": "GCLP",
      "alert": "OK",
      "vis_m": 9999,
      "fzfg": false,
      "metar_trigger": false,
      "taf_trigger": false,
      "metar": "METAR GCLP 081830Z 01017KT 9999 FEW030 SCT045 17/10 Q1021 NOSIG",
      "taf": "TAF GCLP 081400Z 0815/0915 02023KT 9999 BKN040 TX20/0914Z TN15/0906Z"
    },
    {
      "icao": "GCTS",
      "alert": "OK",
      "vis_m": 9999,
      "fzfg": false,
      "metar_trigger": false,
      "taf_trigger": false,
      "metar": "METAR GCTS 081830Z 06023KT 9999 FEW045 18/06 Q1022 NOSIG",
      "taf": "TAF GCTS 081400Z 0815/0915 09026KT 9999 SCT045 TX22/0914Z TN14/0906Z"
    },
    {
      "icao": "GMAD",
      "alert": "OK",
      "vis_m": 9999,
      "fzfg": false,
      "metar_trigger": false,
      "taf_trigger": false,
      "metar": "METAR GMAD 081830Z 17007KT CAVOK 17/13 Q1016 NOSIG",
      "taf": "TAF GMAD 081700Z 0818/0924 22010KT CAVOK"
    },
    {
      "icao": "GMMN",
      "alert": "OK",
      "vis_m": 9999,
      "fzfg": false,
      "metar_trigger": false,
      "taf_trigger": false,
      "metar": "METAR GMMN 081830Z 35009KT 9999 SCT030 12/10 Q1022 NOSIG",
      "taf": "TAF GMMN 081700Z 0818/0924 34010KT 9999 SCT030"
    },
    {
      "icao": "GMMX",
      "alert": "OK",
      "vis_m": 9999,
      "fzfg": false,
      "metar_trigger": false,
      "taf_trigger": false,
      "metar": "METAR GMMX 081830Z 02008KT 340V050 9999 BKN023 16/05 Q1020 NOSIG",
      "taf": "TAF GMMX 081700Z 0818/0924 06006KT 9999 BKN023"
    },
    {
      "icao": "HEGN",
      "alert": "OK",
      "vis_m": 9999,
      "fzfg": false,
      "metar_trigger": false,
      "taf_trigger": false,
      "metar": "METAR HEGN 081800Z 34015KT CAVOK 20/07 Q1017 NOSIG",
      "taf": "TAF HEGN 081700Z 0818/0924 33008G20KT CAVOK"
    },
    {
      "icao": "HEMA",
      "alert": "OK",
      "vis_m": 9999,
      "fzfg": false,
      "metar_trigger": false,
      "taf_trigger": false,
      "metar": "METAR HEMA 081800Z 31010KT CAVOK 19/08 Q1016 NOSIG",
      "taf": "TAF HEMA 081700Z 0818/0924 34008G20KT CAVOK"
    },
    {
      "icao": "HESH",
      "alert": "OK",
      "vis_m": 9999,
      "fzfg": false,
      "metar_trigger": false,
      "taf_trigger": false,
      "metar": "METAR HESH 081800Z 33009KT CAVOK 20/08 Q1016 NOSIG",
      "taf": "TAF HESH 081700Z 0818/0924 35006G18KT CAVOK"
    },
    {
      "icao": "HESX",
      "alert": "OK",
      "vis_m": 9999,
      "fzfg": false,
      "metar_trigger": false,
      "taf_trigger": false,
      "metar": "METAR HESX 081800Z 01009KT CAVOK 16/08 Q1020 NOSIG",
      "taf": "TAF HESX 081700Z 0818/0924 35007KT CAVOK"
    },
    {
      "icao": "LATI",
      "alert": "OK",
      "vis_m": null,
      "fzfg": false,
      "metar_trigger": false,
      "taf_trigger": false,
      "metar": "",
      "taf": "TAF LATI 081700Z 0818/0918 VRB04KT 9999 SCT080 TX17/0912Z TN08/0905Z"
    },
    {
      "icao": "LBPD",
      "alert": "OK",
      "vis_m": 9999,
      "fzfg": false,
      "metar_trigger": false,
      "taf_trigger": false,
      "metar": "METAR LBPD 081830Z AUTO 12009KT 9999 NCD 07/00 Q1030 NOSIG",
      "taf": "TAF LBPD 081700Z 0818/0918 11010KT CAVOK"
    },
    {
      "icao": "LBSF",
      "alert": "OK",
      "vis_m": 9999,
      "fzfg": false,
      "metar_trigger": false,
      "taf_trigger": false,
      "metar": "METAR LBSF 081830Z AUTO 08009KT 9999 NSC 07/00 Q1028 NOSIG",
      "taf": "TAF LBSF 081700Z 0818/0918 10012KT CAVOK"
    },
    {
      "icao": "LBWN",
      "alert": "OK",
      "vis_m": 9999,
      "fzfg": false,
      "metar_trigger": false,
      "taf_trigger": false,
      "metar": "METAR LBWN 081830Z AUTO 05004KT 9999 NSC 03/M00 Q1032 NOSIG",
      "taf": "TAF LBWN 081700Z 0818/0918 10010KT CAVOK"
    },
    {
      "icao": "LCLK",
      "alert": "OK",
      "vis_m": 9999,
      "fzfg": false,
      "metar_trigger": false,
      "taf_trigger": false,
      "metar": "METAR LCLK 081830Z 29006KT CAVOK 09/06 Q1020 NOSIG",
      "taf": "TAF LCLK 081730Z 0818/0918 34007KT 9999 FEW025"
    },
    {
      "icao": "LCPH",
      "alert": "OK",
      "vis_m": 9999,
      "fzfg": false,
      "metar_trigger": false,
      "taf_trigger": false,
      "metar": "METAR LCPH 081830Z 02006KT CAVOK 11/02 Q1020 NOSIG",
      "taf": "TAF LCPH 081730Z 0818/0918 02007KT 9999 FEW020"
    },
    {
      "icao": "LEAL",
      "alert": "OK",
      "vis_m": 9999,
      "fzfg": false,
      "metar_trigger": false,
      "taf_trigger": false,
      "metar": "METAR LEAL 081830Z 10003KT 080V140 9999 FEW020 SCT067 14/10 Q1021 NOSIG",
      "taf": "TAF LEAL 081700Z 0818/0918 VRB04KT 9999 SCT025 TX17/0913Z TN07/0906Z"
    },
    {
      "icao": "LEBB",
      "alert": "OK",
      "vis_m": 9999,
      "fzfg": false,
      "metar_trigger": false,
      "taf_trigger": false,
      "metar": "METAR LEBB 081830Z 29004KT CAVOK 12/10 Q1021 NOSIG",
      "taf": "TAF LEBB 081700Z 0818/0918 14006KT 9999 FEW040 TX15/0911Z TN06/0907Z"
    },
    {
      "icao": "LEBL",
      "alert": "OK",
      "vis_m": 9999,
      "fzfg": false,
      "metar_trigger": false,
      "taf_trigger": false,
      "metar": "METAR LEBL 081830Z 13003KT 9999 FEW015 14/11 Q1022 NOSIG",
      "taf": "TAF LEBL 081700Z 0818/0918 11008KT 9999 FEW015 SCT025 TX15/0912Z TN09/0906Z"
    },
    {
      "icao": "LECH",
      "alert": "OK",
      "vis_m": 9999,
      "fzfg": false,
      "metar_trigger": false,
      "taf_trigger": false,
      "metar": "METAR LECH 081830Z AUTO 36003KT CAVOK 10/09 Q1022",
      "taf": ""
    },
    {
      "icao": "LEMD",
      "alert": "OK",
      "vis_m": 9999,
      "fzfg": false,
      "metar_trigger": false,
      "taf_trigger": false,
      "metar": "METAR LEMD 081830Z VRB01KT 9999 FEW060TCU SCT065 BKN080 09/06 Q1020 NOSIG",
      "taf": "TAF LEMD 081700Z 0818/0924 02006KT 9999 SCT040 TX13/0915Z TN02/0904Z"
    },
    {
      "icao": "LEMG",
      "alert": "OK",
      "vis_m": 9999,
      "fzfg": false,
      "metar_trigger": false,
      "taf_trigger": false,
      "metar": "METAR LEMG 081830Z 01002KT 9999 FEW015 BKN065 14/12 Q1021 NOSIG",
      "taf": "TAF LEMG 081700Z 0818/0918 29004KT 9999 FEW030 TX16/0914Z TN08/0907Z"
    },
    {
      "icao": "LEVC",
      "alert": "OK",
      "vis_m": 9999,
      "fzfg": false,
      "metar_trigger": false,
      "taf_trigger": false,
      "metar": "METAR LEVC 081830Z 09004KT 9999 FEW030 13/09 Q1021 NOSIG",
      "taf": "TAF LEVC 081700Z 0818/0918 VRB04KT 9999 SCT025 TX18/0913Z TN06/0906Z"
    },
    {
      "icao": "LEXJ",
      "alert": "OK",
      "vis_m": 9999,
      "fzfg": false,
      "metar_trigger": false,
      "taf_trigger": false,
      "metar": "METAR LEXJ 081830Z VRB01KT 9999 SCT020 BKN038 11/08 Q1021",
      "taf": ""
    },
    {
      "icao": "LEZG",
      "alert": "OK",
      "vis_m": 9999,
      "fzfg": false,
      "metar_trigger": false,
      "taf_trigger": false,
      "metar": "METAR LEZG 081830Z 26003KT 230V290 9999 SCT040 BKN070 12/09 Q1021 NOSIG",
      "taf": "TAF LEZG 081700Z 0818/0918 VRB04KT 9999 SCT025 SCT040 TX15/0914Z TN06/0906Z"
    },
    {
      "icao": "LEZL",
      "alert": "OK",
      "vis_m": 9999,
      "fzfg": false,
      "metar_trigger": false,
      "taf_trigger": false,
      "metar": "METAR LEZL 081830Z 25003KT 9999 FEW040 16/10 Q1021 NOSIG",
      "taf": "TAF LEZL 081400Z 0815/0915 29005KT 9999 FEW030 TX19/0815Z TN12/0907Z"
    },
    {
      "icao": "LFBD",
      "alert": "OK",
      "vis_m": 9999,
      "fzfg": false,
      "metar_trigger": false,
      "taf_trigger": false,
      "metar": "METAR LFBD 081830Z AUTO 19003KT 9999 FEW013/// BKN076/// ///CB 12/10 Q1021 TEMPO 29010KT 3000 BR BKN005",
      "taf": "TAF LFBD 081700Z 0818/0924 VRB03KT 9999 BKN040 TX16/0914Z TN05/0905Z"
    },
    {
      "icao": "LFLL",
      "alert": "OK",
      "vis_m": 9999,
      "fzfg": false,
      "metar_trigger": false,
      "taf_trigger": false,
      "metar": "METAR LFLL 081830Z 00000KT CAVOK 15/03 Q1022 TEMPO 18010KT",
      "taf": "TAF LFLL 081700Z 0818/0924 17005KT CAVOK"
    },
    {
      "icao": "LFLS",
      "alert": "OK",
      "vis_m": 9999,
      "fzfg": false,
      "metar_trigger": false,
      "taf_trigger": false,
      "metar": "METAR LFLS 081830Z AUTO 20010KT 170V230 CAVOK 12/07 Q1023 TEMPO SCT035TCU BKN050 BECMG 09006KT",
      "taf": "TAF LFLS 081400Z 0815/0915 VRB04KT CAVOK"
    },
    {
      "icao": "LFMN",
      "alert": "OK",
      "vis_m": 9999,
      "fzfg": false,
      "metar_trigger": false,
      "taf_trigger": false,
      "metar": "METAR LFMN 081830Z 08006KT 9999 FEW015 14/11 Q1025 NOSIG",
      "taf": "TAF LFMN 081400Z 0815/0921 09008KT 9999 FEW110 SCT260"
    },
    {
      "icao": "LFOB",
      "alert": "OK",
      "vis_m": 4800,
      "fzfg": false,
      "metar_trigger": false,
      "taf_trigger": false,
      "metar": "METAR LFOB 081830Z AUTO 05004KT 030V090 4800 BR NSC 09/08 Q1022 NOSIG",
      "taf": "TAF LFOB 081700Z 0818/0918 VRB03KT 7000 NSC"
    },
    {
      "icao": "LFPO",
      "alert": "OK",
      "vis_m": 9999,
      "fzfg": false,
      "metar_trigger": false,
      "taf_trigger": false,
      "metar": "METAR LFPO 081830Z VRB02KT CAVOK 13/09 Q1021 NOSIG",
      "taf": "TAF LFPO 081700Z 0818/0924 VRB02KT CAVOK"
    },
    {
      "icao": "LFSB",
      "alert": "OK",
      "vis_m": 9999,
      "fzfg": false,
      "metar_trigger": false,
      "taf_trigger": false,
      "metar": "METAR LFSB 081830Z AUTO 25004KT 220V330 CAVOK 11/06 Q1022 NOSIG",
      "taf": "TAF LFSB 081700Z 0818/0918 VRB03KT CAVOK"
    },
    {
      "icao": "LGAV",
      "alert": "OK",
      "vis_m": 9999,
      "fzfg": false,
      "metar_trigger": false,
      "taf_trigger": false,
      "metar": "METAR LGAV 081820Z 03008KT 9999 FEW030 11/05 Q1025 NOSIG",
      "taf": "TAF LGAV 081700Z 0818/0918 02015KT 9999 FEW025"
    },
    {
      "icao": "LGTS",
      "alert": "OK",
      "vis_m": 9999,
      "fzfg": false,
      "metar_trigger": false,
      "taf_trigger": false,
      "metar": "METAR LGTS 081820Z 07003KT 9999 SCT025 10/08 Q1028 NOSIG",
      "taf": "TAF LGTS 081700Z 0818/0918 14013KT 9999 SCT025"
    },
    {
      "icao": "LHBP",
      "alert": "OK",
      "vis_m": 9999,
      "fzfg": false,
      "metar_trigger": false,
      "taf_trigger": false,
      "metar": "METAR LHBP 081830Z 08004KT CAVOK 12/M02 Q1028 NOSIG",
      "taf": "TAF LHBP 081715Z 0818/0918 07006KT CAVOK"
    },
    {
      "icao": "LHDC",
      "alert": "OK",
      "vis_m": 9999,
      "fzfg": false,
      "metar_trigger": false,
      "taf_trigger": false,
      "metar": "METAR LHDC 081815Z AUTO 04008KT CAVOK 10/M01 Q1028 NOSIG",
      "taf": "TAF LHDC 081715Z 0818/0903 04005KT CAVOK"
    },
    {
      "icao": "LIBD",
      "alert": "OK",
      "vis_m": 9999,
      "fzfg": false,
      "metar_trigger": false,
      "taf_trigger": false,
      "metar": "METAR LIBD 081820Z VRB01KT 9999 FEW020 13/11 Q1025",
      "taf": "TAF LIBD 081700Z 0818/0918 VRB05KT 8000 SCT020"
    },
    {
      "icao": "LIBG",
      "alert": "OK",
      "vis_m": 9999,
      "fzfg": false,
      "metar_trigger": false,
      "taf_trigger": false,
      "metar": "METAR LIBG 081750Z 06004KT CAVOK 13/11 Q1024",
      "taf": "TAF LIBG 081700Z 0818/0903 VRB03KT 7000 SCT015"
    },
    {
      "icao": "LIBP",
      "alert": "OK",
      "vis_m": 9999,
      "fzfg": false,
      "metar_trigger": false,
      "taf_trigger": false,
      "metar": "METAR LIBP 081820Z AUTO VRB01KT 9999 BKN034/// OVC110/// 13/11 Q1026",
      "taf": "TAF LIBP 081700Z 0818/0918 VRB04KT 8000 SCT030"
    },
    {
      "icao": "LIBR",
      "alert": "OK",
      "vis_m": 9999,
      "fzfg": false,
      "metar_trigger": false,
      "taf_trigger": false,
      "metar": "METAR LIBR 081820Z 09003KT 050V110 9999 BKN025 13/11 Q1025",
      "taf": "TAF LIBR 081700Z 0818/0918 VRB06KT 8000 SCT018"
    },
    {
      "icao": "LICA",
      "alert": "OK",
      "vis_m": 9999,
      "fzfg": false,
      "metar_trigger": false,
      "taf_trigger": false,
      "metar": "METAR LICA 081820Z AUTO 03004KT 9999 NCD 14/12 Q1024",
      "taf": "TAF LICA 081700Z 0818/0918 VRB06KT 9999 FEW030"
    },
    {
      "icao": "LICC",
      "alert": "OK",
      "vis_m": 9999,
      "fzfg": false,
      "metar_trigger": false,
      "taf_trigger": false,
      "metar": "METAR LICC 081820Z 09003KT 9999 FEW030 16/14 Q1024",
      "taf": "TAF LICC 081700Z 0818/0918 VRB05KT 9999 SCT015"
    },
    {
      "icao": "LICJ",
      "alert": "OK",
      "vis_m": 9999,
      "fzfg": false,
      "metar_trigger": false,
      "taf_trigger": false,
      "metar": "METAR LICJ 081820Z 26004KT CAVOK 15/13 Q1023",
      "taf": "TAF LICJ 081700Z 0818/0918 05012KT 9999 FEW030"
    },
    {
      "icao": "LIMC",
      "alert": "OK",
      "vis_m": 9999,
      "fzfg": false,
      "metar_trigger": false,
      "taf_trigger": false,
      "metar": "METAR LIMC 081820Z 16002KT CAVOK 12/03 Q1025 NOSIG",
      "taf": "TAF LIMC 081700Z 0818/0924 VRB05KT CAVOK"
    },
    {
      "icao": "LIME",
      "alert": "OK",
      "vis_m": 9999,
      "fzfg": false,
      "metar_trigger": false,
      "taf_trigger": false,
      "metar": "METAR LIME 081820Z 12003KT 090V160 CAVOK 12/04 Q1026 NOSIG",
      "taf": "TAF LIME 081700Z 0818/0918 VRB05KT 9999 FEW030"
    },
    {
      "icao": "LIMF",
      "alert": "OK",
      "vis_m": 9999,
      "fzfg": false,
      "metar_trigger": false,
      "taf_trigger": false,
      "metar": "METAR LIMF 081820Z 06004KT CAVOK 12/03 Q1025",
      "taf": "TAF LIMF 081700Z 0818/0918 VRB04KT CAVOK"
    },
    {
      "icao": "LIMJ",
      "alert": "OK",
      "vis_m": 9999,
      "fzfg": false,
      "metar_trigger": false,
      "taf_trigger": false,
      "metar": "METAR LIMJ 081820Z 28003KT 9999 SCT080 14/12 Q1025",
      "taf": "TAF LIMJ 081700Z 0818/0918 VRB05KT 9999 SCT030"
    },
    {
      "icao": "LIPE",
      "alert": "OK",
      "vis_m": 9999,
      "fzfg": false,
      "metar_trigger": false,
      "taf_trigger": false,
      "metar": "METAR LIPE 081820Z 09002KT CAVOK 11/09 Q1026",
      "taf": "TAF LIPE 081700Z 0818/0918 VRB04KT 8000 FEW050"
    },
    {
      "icao": "LIPH",
      "alert": "OK",
      "vis_m": 9999,
      "fzfg": false,
      "metar_trigger": false,
      "taf_trigger": false,
      "metar": "METAR LIPH 081820Z 23002KT CAVOK 13/05 Q1026",
      "taf": "TAF LIPH 081700Z 0818/0918 VRB04KT 8000 FEW050"
    },
    {
      "icao": "LIPQ",
      "alert": "OK",
      "vis_m": 3100,
      "fzfg": false,
      "metar_trigger": false,
      "taf_trigger": false,
      "metar": "METAR LIPQ 081820Z AUTO 13005KT 3100 BR NCD 10/09 Q1026",
      "taf": "TAF LIPQ 081700Z 0818/0918 VRB04KT 7000 SCT060"
    },
    {
      "icao": "LIPR",
      "alert": "OK",
      "vis_m": 6000,
      "fzfg": false,
      "metar_trigger": false,
      "taf_trigger": false,
      "metar": "METAR LIPR 081820Z 24002KT 6000 NSC 09/08 Q1026",
      "taf": "TAF LIPR 081700Z 0818/0918 VRB04KT 7000 NSC"
    },
    {
      "icao": "LIPX",
      "alert": "OK",
      "vis_m": 7000,
      "fzfg": false,
      "metar_trigger": false,
      "taf_trigger": false,
      "metar": "METAR LIPX 081820Z 25002KT 7000 NSC 11/09 Q1026",
      "taf": "TAF LIPX 081700Z 0818/0918 VRB05KT CAVOK"
    },
    {
      "icao": "LIPY",
      "alert": "OK",
      "vis_m": 4700,
      "fzfg": false,
      "metar_trigger": false,
      "taf_trigger": false,
      "metar": "METAR LIPY 081820Z AUTO VRB01KT 4700 BR FEW036/// 10/10 Q1026",
      "taf": "TAF LIPY 081700Z 0818/0918 VRB05KT 7000 FEW020"
    },
    {
      "icao": "LIPZ",
      "alert": "OK",
      "vis_m": 9999,
      "fzfg": false,
      "metar_trigger": false,
      "taf_trigger": false,
      "metar": "METAR LIPZ 081820Z 23004KT CAVOK 11/09 Q1026 NOSIG",
      "taf": "TAF LIPZ 081700Z 0818/0924 VRB04KT 8000 FEW050"
    },
    {
      "icao": "LIRF",
      "alert": "OK",
      "vis_m": 9999,
      "fzfg": false,
      "metar_trigger": false,
      "taf_trigger": false,
      "metar": "METAR LIRF 081820Z 28004KT CAVOK 14/11 Q1024 NOSIG",
      "taf": "TAF LIRF 081700Z 0818/0924 VRB06KT 9999 FEW030"
    },
    {
      "icao": "LIRN",
      "alert": "OK",
      "vis_m": 9999,
      "fzfg": false,
      "metar_trigger": false,
      "taf_trigger": false,
      "metar": "METAR LIRN 081820Z 03005KT CAVOK 14/09 Q1024 NOSIG",
      "taf": "TAF LIRN 081700Z 0818/0918 VRB05KT 9999 SCT040"
    },
    {
      "icao": "LIRP",
      "alert": "OK",
      "vis_m": 9999,
      "fzfg": false,
      "metar_trigger": false,
      "taf_trigger": false,
      "metar": "METAR LIRP 081815Z 33002KT 9999 FEW050 13/11 Q1025 NOSIG",
      "taf": "TAF LIRP 081700Z 0818/0918 28006KT 9999 SCT030 SCT060"
    },
    {
      "icao": "LIRZ",
      "alert": "OK",
      "vis_m": 9999,
      "fzfg": false,
      "metar_trigger": false,
      "taf_trigger": false,
      "metar": "METAR LIRZ 081820Z AUTO 35005KT 9999 BKN089/// 11/09 Q1024",
      "taf": "TAF LIRZ 081700Z 0818/0918 VRB05KT 9999 SCT030"
    },
    {
      "icao": "LJLJ",
      "alert": "OK",
      "vis_m": 9999,
      "fzfg": false,
      "metar_trigger": false,
      "taf_trigger": false,
      "metar": "METAR LJLJ 081830Z VRB01KT 9999 FEW070 07/04 Q1026 NOSIG",
      "taf": "TAF LJLJ 081700Z 0818/0918 10004KT 9999 FEW060"
    },
    {
      "icao": "LKMT",
      "alert": "OK",
      "vis_m": 9999,
      "fzfg": false,
      "metar_trigger": false,
      "taf_trigger": false,
      "metar": "METAR LKMT 081830Z 01004KT CAVOK 06/M01 Q1028 NOSIG",
      "taf": "TAF LKMT 081700Z 0818/0918 03005KT CAVOK"
    },
    {
      "icao": "LKPR",
      "alert": "OK",
      "vis_m": 9999,
      "fzfg": false,
      "metar_trigger": false,
      "taf_trigger": false,
      "metar": "METAR LKPR 081830Z 14007KT CAVOK 10/00 Q1026 NOSIG",
      "taf": "TAF LKPR 081700Z 0818/0924 11006KT CAVOK"
    },
    {
      "icao": "LLBG",
      "alert": "OK",
      "vis_m": 9999,
      "fzfg": false,
      "metar_trigger": false,
      "taf_trigger": false,
      "metar": "METAR LLBG 081820Z VRB02KT 9999 SCT050 13/03 Q1020 NOSIG",
      "taf": "TAF LLBG 081700Z 0818/0918 VRB04KT 9999 FEW035 TX19/0911Z TN06/0903Z"
    },
    {
      "icao": "LMML",
      "alert": "OK",
      "vis_m": 9999,
      "fzfg": false,
      "metar_trigger": false,
      "taf_trigger": false,
      "metar": "METAR LMML 081845Z 07011KT 9999 FEW014 15/13 Q1022 NOSIG",
      "taf": "TAF LMML 081700Z 0818/0918 09015KT 9999 SCT013"
    },
    {
      "icao": "LOWW",
      "alert": "OK",
      "vis_m": 9999,
      "fzfg": false,
      "metar_trigger": false,
      "taf_trigger": false,
      "metar": "METAR LOWW 081820Z 11005KT CAVOK 11/01 Q1026 NOSIG",
      "taf": "TAF LOWW 081715Z 0818/0924 13007KT CAVOK TX15/0914Z TN05/0905Z"
    },
    {
      "icao": "LPFR",
      "alert": "OK",
      "vis_m": 9999,
      "fzfg": false,
      "metar_trigger": false,
      "taf_trigger": false,
      "metar": "METAR LPFR 081830Z 26010KT 9999 SCT040 16/12 Q1021",
      "taf": "TAF LPFR 081700Z 0818/0918 25012KT 9999 SCT035"
    },
    {
      "icao": "LPMA",
      "alert": "OK",
      "vis_m": 9999,
      "fzfg": false,
      "metar_trigger": false,
      "taf_trigger": false,
      "metar": "METAR LPMA 081830Z 36012G22KT 310V050 9999 BKN015 SCT030 14/08 Q1026",
      "taf": "TAF LPMA 081700Z 0818/0918 01012KT 9999 SCT015 SCT030"
    },
    {
      "icao": "LPPR",
      "alert": "OK",
      "vis_m": 9999,
      "fzfg": false,
      "metar_trigger": false,
      "taf_trigger": false,
      "metar": "METAR LPPR 081830Z 35008KT 9999 FEW015 12/09 Q1022",
      "taf": "TAF LPPR 081700Z 0818/0918 30010KT 9999 SCT018"
    },
    {
      "icao": "LPPS",
      "alert": "OK",
      "vis_m": 9999,
      "fzfg": false,
      "metar_trigger": false,
      "taf_trigger": false,
      "metar": "METAR LPPS 081830Z 03013KT 360V060 9999 SCT014 SCT030 15/08 Q1026",
      "taf": "TAF LPPS 081700Z 0818/0924 02013KT 9999 FEW013 BKN030"
    },
    {
      "icao": "LPPT",
      "alert": "OK",
      "vis_m": 9999,
      "fzfg": false,
      "metar_trigger": false,
      "taf_trigger": false,
      "metar": "METAR LPPT 081830Z 32011KT 9999 FEW020 13/09 Q1022",
      "taf": "TAF LPPT 081700Z 0818/0924 33012KT 9999 SCT030"
    },
    {
      "icao": "LQBK",
      "alert": "OK",
      "vis_m": 9999,
      "fzfg": false,
      "metar_trigger": false,
      "taf_trigger": false,
      "metar": "METAR LQBK 081830Z 30002KT CAVOK 08/01 Q1026 NOSIG",
      "taf": "TAF LQBK 081700Z 0818/0918 14005KT CAVOK TX17/0914Z TN00/0905Z"
    },
    {
      "icao": "LQSA",
      "alert": "OK",
      "vis_m": 9999,
      "fzfg": false,
      "metar_trigger": false,
      "taf_trigger": false,
      "metar": "METAR LQSA 081830Z VRB03KT CAVOK 10/04 Q1025 NOSIG",
      "taf": "TAF LQSA 081700Z 0818/0918 VRB02KT 9999 SCT055 TX17/0914Z TN01/0905Z"
    },
    {
      "icao": "LQTZ",
      "alert": "OK",
      "vis_m": 9999,
      "fzfg": false,
      "metar_trigger": false,
      "taf_trigger": false,
      "metar": "METAR LQTZ 081830Z VRB02KT CAVOK 09/01 Q1026",
      "taf": "TAF LQTZ 081700Z 0818/0918 VRB02KT CAVOK TX17/0914Z TNM01/0905Z"
    },
    {
      "icao": "LRBC",
      "alert": "OK",
      "vis_m": 9999,
      "fzfg": false,
      "metar_trigger": false,
      "taf_trigger": false,
      "metar": "METAR LRBC 081830Z 32005KT CAVOK 05/M02 Q1032",
      "taf": "TAF LRBC 081700Z 0818/0903 34007KT CAVOK"
    },
    {
      "icao": "LRBS",
      "alert": "OK",
      "vis_m": 9999,
      "fzfg": false,
      "metar_trigger": false,
      "taf_trigger": false,
      "metar": "METAR LRBS 081830Z 04003KT CAVOK 06/01 Q1032 NOSIG",
      "taf": "TAF LRBS 081700Z 0818/0918 VRB04KT CAVOK"
    },
    {
      "icao": "LRBV",
      "alert": "OK",
      "vis_m": 9999,
      "fzfg": false,
      "metar_trigger": false,
      "taf_trigger": false,
      "metar": "METAR LRBV 081830Z 08011KT CAVOK 04/M02 Q1030",
      "taf": "TAF LRBV 081700Z 0818/0903 07010KT CAVOK"
    },
    {
      "icao": "LRCL",
      "alert": "OK",
      "vis_m": 9999,
      "fzfg": false,
      "metar_trigger": false,
      "taf_trigger": false,
      "metar": "METAR LRCL 081830Z 27002KT CAVOK 06/M03 Q1028",
      "taf": "TAF LRCL 081700Z 0818/0903 10004KT CAVOK"
    },
    {
      "icao": "LRCV",
      "alert": "OK",
      "vis_m": 9999,
      "fzfg": false,
      "metar_trigger": false,
      "taf_trigger": false,
      "metar": "METAR LRCV 081830Z 08008KT CAVOK 05/02 Q1031",
      "taf": "TAF LRCV 081700Z 0818/0903 09008KT CAVOK"
    },
    {
      "icao": "LRIA",
      "alert": "OK",
      "vis_m": 9999,
      "fzfg": false,
      "metar_trigger": false,
      "taf_trigger": false,
      "metar": "METAR LRIA 081830Z 35006KT CAVOK 08/M01 Q1033",
      "taf": "TAF LRIA 081700Z 0818/0903 01007KT CAVOK"
    },
    {
      "icao": "LROP",
      "alert": "OK",
      "vis_m": 9999,
      "fzfg": false,
      "metar_trigger": false,
      "taf_trigger": false,
      "metar": "METAR LROP 081830Z 07004KT CAVOK 06/M01 Q1032 NOSIG",
      "taf": "TAF LROP 081700Z 0818/0918 VRB04KT CAVOK"
    },
    {
      "icao": "LRSB",
      "alert": "OK",
      "vis_m": 9999,
      "fzfg": false,
      "metar_trigger": false,
      "taf_trigger": false,
      "metar": "METAR LRSB 081830Z 10005KT CAVOK 09/00 Q1028",
      "taf": "TAF LRSB 081700Z 0818/0918 VRB04KT CAVOK"
    },
    {
      "icao": "LRSM",
      "alert": "OK",
      "vis_m": 9999,
      "fzfg": false,
      "metar_trigger": false,
      "taf_trigger": false,
      "metar": "METAR LRSM 081830Z AUTO 11005KT 9999 NCD 08/M01 Q1028",
      "taf": "TAF LRSM 081400Z 0815/0824 VRB04KT CAVOK"
    },
    {
      "icao": "LRSV",
      "alert": "OK",
      "vis_m": 9999,
      "fzfg": false,
      "metar_trigger": false,
      "taf_trigger": false,
      "metar": "METAR LRSV 081830Z 06002KT CAVOK 06/M02 Q1032",
      "taf": "TAF LRSV 081700Z 0818/0903 VRB04KT CAVOK"
    },
    {
      "icao": "LRTM",
      "alert": "OK",
      "vis_m": 9999,
      "fzfg": false,
      "metar_trigger": false,
      "taf_trigger": false,
      "metar": "METAR LRTM 081830Z AUTO 06005KT 9999 NCD 07/M02 Q1029",
      "taf": "TAF LRTM 081400Z 0815/0824 VRB04KT CAVOK"
    },
    {
      "icao": "LRTR",
      "alert": "OK",
      "vis_m": 9999,
      "fzfg": false,
      "metar_trigger": false,
      "taf_trigger": false,
      "metar": "METAR LRTR 081830Z 34005KT CAVOK 08/00 Q1027",
      "taf": "TAF LRTR 081700Z 0818/0918 VRB04KT CAVOK"
    },
    {
      "icao": "LTAC",
      "alert": "OK",
      "vis_m": 9999,
      "fzfg": false,
      "metar_trigger": false,
      "taf_trigger": false,
      "metar": "METAR LTAC 081820Z 03006KT CAVOK 00/M07 Q1024 NOSIG RMK RWY21C 03005KT RWY03L 03005KT RWY21R 03004KT RWY03R VRB01KT RWY21L 02004KT",
      "taf": "TAF LTAC 081640Z 0818/0918 03008KT CAVOK"
    },
    {
      "icao": "LTFM",
      "alert": "OK",
      "vis_m": 9999,
      "fzfg": false,
      "metar_trigger": false,
      "taf_trigger": false,
      "metar": "METAR LTFM 081820Z 06015KT 9999 BKN028 07/02 Q1030 NOSIG RMK RWY17L 07013KT RWY34L 05011KT RWY16R 06014KT RWY36 06014KT RWY18 07014KT",
      "taf": "TAF LTFM 081640Z 0818/0924 05014KT 9999 BKN028"
    },
    {
      "icao": "LUKK",
      "alert": "OK",
      "vis_m": 9999,
      "fzfg": false,
      "metar_trigger": false,
      "taf_trigger": false,
      "metar": "METAR LUKK 081830Z 10001KT CAVOK 07/02 Q1032 NOSIG",
      "taf": "TAF LUKK 081716Z 0818/0918 VRB04KT CAVOK"
    },
    {
      "icao": "LWOH",
      "alert": "OK",
      "vis_m": null,
      "fzfg": false,
      "metar_trigger": false,
      "taf_trigger": false,
      "metar": "",
      "taf": "TAF LWOH 081740Z 0818/0918 VRB02KT 9999 SCT040 BKN090"
    },
    {
      "icao": "LWSK",
      "alert": "OK",
      "vis_m": null,
      "fzfg": false,
      "metar_trigger": false,
      "taf_trigger": false,
      "metar": "",
      "taf": "TAF LWSK 081740Z 0818/0918 VRB02KT 9999 SCT050 SCT100"
    },
    {
      "icao": "LYBE",
      "alert": "OK",
      "vis_m": 9999,
      "fzfg": false,
      "metar_trigger": false,
      "taf_trigger": false,
      "metar": "METAR LYBE 081830Z 11012KT CAVOK 13/M00 Q1027 NOSIG",
      "taf": "TAF LYBE 081700Z 0818/0918 10008KT CAVOK TX16/0913Z TN06/0905Z"
    },
    {
      "icao": "LYNI",
      "alert": "OK",
      "vis_m": 9999,
      "fzfg": false,
      "metar_trigger": false,
      "taf_trigger": false,
      "metar": "METAR LYNI 081830Z 05007KT 9999 SCT085 12/01 Q1027 NOSIG",
      "taf": "TAF LYNI 081700Z 0818/0918 06011KT CAVOK TX16/0913Z TN05/0905Z"
    },
    {
      "icao": "LYPG",
      "alert": "OK",
      "vis_m": 9999,
      "fzfg": false,
      "metar_trigger": false,
      "taf_trigger": false,
      "metar": "METAR LYPG 081830Z 27005KT 9999 FEW050 BKN090 15/05 Q1024 NOSIG",
      "taf": "TAF LYPG 081700Z 0818/0918 35008KT CAVOK TX18/0913Z TN07/0905Z"
    },
    {
      "icao": "LZIB",
      "alert": "OK",
      "vis_m": 9999,
      "fzfg": false,
      "metar_trigger": false,
      "taf_trigger": false,
      "metar": "METAR LZIB 081830Z 02003KT CAVOK 10/M00 Q1027 NOSIG",
      "taf": "TAF LZIB 081715Z 0818/0918 10005KT CAVOK"
    },
    {
      "icao": "LZKZ",
      "alert": "OK",
      "vis_m": 9999,
      "fzfg": false,
      "metar_trigger": false,
      "taf_trigger": false,
      "metar": "METAR LZKZ 081830Z 35007KT CAVOK 10/M04 Q1029 NOSIG",
      "taf": "TAF LZKZ 081715Z 0818/0918 35006KT CAVOK"
    },
    {
      "icao": "LZTT",
      "alert": "OK",
      "vis_m": 9999,
      "fzfg": false,
      "metar_trigger": false,
      "taf_trigger": false,
      "metar": "METAR LZTT 081830Z 29004KT CAVOK 01/M04 Q1029 NOSIG",
      "taf": "TAF LZTT 081715Z 0818/0918 VRB02KT CAVOK"
    },
    {
      "icao": "OEJN",
      "alert": "OK",
      "vis_m": 9999,
      "fzfg": false,
      "metar_trigger": false,
      "taf_trigger": false,
      "metar": "METAR OEJN 081800Z 33010KT CAVOK 24/14 Q1013 NOSIG",
      "taf": "TAF OEJN 081700Z 0818/0924 35006KT CAVOK"
    },
    {
      "icao": "OEMA",
      "alert": "OK",
      "vis_m": 9999,
      "fzfg": false,
      "metar_trigger": false,
      "taf_trigger": false,
      "metar": "METAR OEMA 081800Z 27007KT CAVOK 24/M06 Q1015 NOSIG",
      "taf": "TAF OEMA 081700Z 0818/0924 VRB03KT CAVOK"
    },
    {
      "icao": "OJAI",
      "alert": "OK",
      "vis_m": 5000,
      "fzfg": false,
      "metar_trigger": false,
      "taf_trigger": false,
      "metar": "METAR OJAI 081800Z 27007KT 5000 HZ NSC 06/M01 Q1020 NOSIG",
      "taf": "TAF OJAI 081700Z 0818/0924 30010KT 5000 HZ FEW030"
    },
    {
      "icao": "OMAA",
      "alert": "OK",
      "vis_m": null,
      "fzfg": false,
      "metar_trigger": false,
      "taf_trigger": false,
      "metar": "",
      "taf": ""
    },
    {
      "icao": "OMDB",
      "alert": "OK",
      "vis_m": null,
      "fzfg": false,
      "metar_trigger": false,
      "taf_trigger": false,
      "metar": "",
      "taf": ""
    },
    {
      "icao": "UAAA",
      "alert": "OK",
      "vis_m": 3200,
      "fzfg": false,
      "metar_trigger": false,
      "taf_trigger": false,
      "metar": "METAR UAAA 081830Z 13003MPS 3200 BR FU FEW100 BKN200 05/01 Q1019 NOSIG",
      "taf": "TAF UAAA 081704Z 0818/0918 17003MPS 3100 BR FU SCT050 BKN100 TX16/0909Z TN02/0902Z"
    },
    {
      "icao": "UBBB",
      "alert": "OK",
      "vis_m": 9999,
      "fzfg": false,
      "metar_trigger": false,
      "taf_trigger": false,
      "metar": "METAR UBBB 081830Z 35004KT 9999 SCT037 06/02 Q1025 NOSIG",
      "taf": "TAF UBBB 081702Z 0818/0918 02006KT 9999 BKN035 TX08/0910Z TN04/0901Z"
    },
    {
      "icao": "UDSG",
      "alert": "OK",
      "vis_m": 9999,
      "fzfg": false,
      "metar_trigger": false,
      "taf_trigger": false,
      "metar": "METAR UDSG 081830Z 01012KT 9999 BKN049 M04/M10 Q1020 NOSIG",
      "taf": "TAF UDSG 081658Z 0818/0918 VRB06KT 9999 BKN040"
    },
    {
      "icao": "UDYZ",
      "alert": "OK",
      "vis_m": 9999,
      "fzfg": false,
      "metar_trigger": false,
      "taf_trigger": false,
      "metar": "METAR UDYZ 081830Z VRB02KT 9999 FEW046 02/M02 Q1020 NOSIG",
      "taf": ""
    },
    {
      "icao": "UGKO",
      "alert": "OK",
      "vis_m": 9999,
      "fzfg": false,
      "metar_trigger": false,
      "taf_trigger": false,
      "metar": "METAR UGKO 081830Z VRB02KT 9999 SCT024 BKN055 05/02 Q1028 NOSIG",
      "taf": "TAF UGKO 081700Z 0818/0918 25010KT 9999 SCT024 BKN050 TX08/0911Z TN02/0903Z"
    }
  ]
}