{
  "ts_utc": "2025-12-26T14:18:30Z",
  "threshold_m": 150,
  "source": "stations_override.txt (ICAO list) + aviationweather.gov (METAR/TAF raw)",
  "station_count": 159,
  "stations": [
    {
      "icao": "BIKF",
      "alert": "OK",
      "vis_m": 9999,
      "fzfg": false,
      "metar_trigger": false,
      "taf_trigger": false,
      "metar": "METAR BIKF 261400Z 27020KT 9999 BKN036 04/M02 Q1036",
      "taf": "TAF BIKF 261342Z 2615/2715 27020KT 9999 FEW015 BKN035 TX05/2715Z TNM01/2703Z"
    },
    {
      "icao": "BKPR",
      "alert": "OK",
      "vis_m": 9999,
      "fzfg": false,
      "metar_trigger": false,
      "taf_trigger": false,
      "metar": "METAR BKPR 261400Z 35009KT 9999 SCT015 BKN030 01/M00 Q1025 NOSIG",
      "taf": ""
    },
    {
      "icao": "EBCI",
      "alert": "OK",
      "vis_m": 9999,
      "fzfg": false,
      "metar_trigger": false,
      "taf_trigger": false,
      "metar": "METAR EBCI 261350Z 07007KT CAVOK 01/M03 Q1027 NOSIG",
      "taf": "TAF EBCI 261100Z 2612/2718 05008KT CAVOK"
    },
    {
      "icao": "EDDB",
      "alert": "OK",
      "vis_m": 9999,
      "fzfg": false,
      "metar_trigger": false,
      "taf_trigger": false,
      "metar": "METAR EDDB 261350Z AUTO VRB01KT 9999 FEW013 M00/M06 Q1034 BECMG BKN007",
      "taf": "TAF EDDB 261100Z 2612/2712 27003KT CAVOK"
    },
    {
      "icao": "EDDH",
      "alert": "OK",
      "vis_m": 9999,
      "fzfg": false,
      "metar_trigger": false,
      "taf_trigger": false,
      "metar": "METAR EDDH 261350Z AUTO 03003KT 350V080 9999 FEW009 02/M01 Q1034 BECMG BKN004",
      "taf": "TAF EDDH 261100Z 2612/2718 VRB03KT CAVOK"
    },
    {
      "icao": "EDDK",
      "alert": "OK",
      "vis_m": 9999,
      "fzfg": false,
      "metar_trigger": false,
      "taf_trigger": false,
      "metar": "METAR EDDK 261350Z AUTO VRB02KT CAVOK 04/M03 Q1030 NOSIG",
      "taf": ""
    },
    {
      "icao": "EDDN",
      "alert": "OK",
      "vis_m": 9999,
      "fzfg": false,
      "metar_trigger": false,
      "taf_trigger": false,
      "metar": "METAR EDDN 261350Z AUTO 09008KT 060V120 CAVOK 05/M02 Q1028 NOSIG",
      "taf": "TAF EDDN 261100Z 2612/2712 10008KT CAVOK"
    },
    {
      "icao": "EDDS",
      "alert": "OK",
      "vis_m": 9999,
      "fzfg": false,
      "metar_trigger": false,
      "taf_trigger": false,
      "metar": "METAR EDDS 261350Z AUTO 08007KT 060V120 CAVOK 03/M02 Q1025 NOSIG",
      "taf": "TAF EDDS 261100Z 2612/2712 05006KT CAVOK"
    },
    {
      "icao": "EDFH",
      "alert": "OK",
      "vis_m": 9999,
      "fzfg": false,
      "metar_trigger": false,
      "taf_trigger": false,
      "metar": "METAR EDFH 261350Z 09006KT 040V120 CAVOK 01/M03 Q1026",
      "taf": "TAF EDFH 261100Z 2612/2712 10010KT CAVOK"
    },
    {
      "icao": "EDJA",
      "alert": "OK",
      "vis_m": 7000,
      "fzfg": false,
      "metar_trigger": false,
      "taf_trigger": false,
      "metar": "METAR EDJA 261350Z 08006KT 050V110 7000 OVC005 M03/M03 Q1025",
      "taf": "TAF EDJA 261100Z 2612/2621 06009KT 4000 BR OVC003"
    },
    {
      "icao": "EDLW",
      "alert": "OK",
      "vis_m": 9999,
      "fzfg": false,
      "metar_trigger": false,
      "taf_trigger": false,
      "metar": "METAR EDLW 261350Z 03007KT 350V050 CAVOK 03/M03 Q1030",
      "taf": "TAF EDLW 261100Z 2612/2712 06008KT CAVOK"
    },
    {
      "icao": "EDNY",
      "alert": "OK",
      "vis_m": 9999,
      "fzfg": false,
      "metar_trigger": false,
      "taf_trigger": false,
      "metar": "METAR EDNY 261350Z 02010KT 9999 OVC013 M00/M03 Q1025",
      "taf": ""
    },
    {
      "icao": "EDSB",
      "alert": "OK",
      "vis_m": 9999,
      "fzfg": false,
      "metar_trigger": false,
      "taf_trigger": false,
      "metar": "METAR EDSB 261350Z 03010KT CAVOK 04/M02 Q1026",
      "taf": "TAF EDSB 261100Z 2612/2712 03010KT CAVOK"
    },
    {
      "icao": "EETN",
      "alert": "OK",
      "vis_m": 9999,
      "fzfg": false,
      "metar_trigger": false,
      "taf_trigger": false,
      "metar": "METAR EETN 261350Z 33009KT 9999 BKN005 05/04 Q1021 NOSIG",
      "taf": "TAF EETN 261130Z 2612/2712 33012KT 9999 BKN005"
    },
    {
      "icao": "EFTU",
      "alert": "OK",
      "vis_m": 9999,
      "fzfg": false,
      "metar_trigger": false,
      "taf_trigger": false,
      "metar": "METAR EFTU 261350Z AUTO 30005KT CAVOK 03/03 Q1023",
      "taf": "TAF EFTU 261135Z 2612/2712 33005KT CAVOK"
    },
    {
      "icao": "EGBB",
      "alert": "OK",
      "vis_m": 9999,
      "fzfg": false,
      "metar_trigger": false,
      "taf_trigger": false,
      "metar": "METAR EGBB 261350Z 03011KT CAVOK 06/M00 Q1030",
      "taf": "TAF EGBB 261053Z 2612/2712 06010KT 9999 FEW030"
    },
    {
      "icao": "EGGP",
      "alert": "OK",
      "vis_m": 9999,
      "fzfg": false,
      "metar_trigger": false,
      "taf_trigger": false,
      "metar": "METAR EGGP 261350Z 06010KT CAVOK 06/00 Q1033",
      "taf": "TAF EGGP 261054Z 2612/2712 06008KT CAVOK"
    },
    {
      "icao": "EGGW",
      "alert": "OK",
      "vis_m": 9999,
      "fzfg": false,
      "metar_trigger": false,
      "taf_trigger": false,
      "metar": "METAR EGGW 261350Z AUTO 05008KT 020V080 9999 NCD 05/01 Q1029",
      "taf": "TAF EGGW 261052Z 2612/2712 05013KT 9999 FEW015"
    },
    {
      "icao": "EGKK",
      "alert": "OK",
      "vis_m": 9999,
      "fzfg": false,
      "metar_trigger": false,
      "taf_trigger": false,
      "metar": "METAR EGKK 261350Z 06012KT 9999 BKN017 06/03 Q1028",
      "taf": "TAF EGKK 261052Z 2612/2718 05009KT 9999 SCT018"
    },
    {
      "icao": "EGNM",
      "alert": "OK",
      "vis_m": 9999,
      "fzfg": false,
      "metar_trigger": false,
      "taf_trigger": false,
      "metar": "METAR EGNM 261350Z 06011KT 9999 FEW016 05/02 Q1033",
      "taf": "TAF EGNM 261057Z 2612/2712 05008KT 9999 SCT018"
    },
    {
      "icao": "EGPD",
      "alert": "OK",
      "vis_m": 9999,
      "fzfg": false,
      "metar_trigger": false,
      "taf_trigger": false,
      "metar": "METAR EGPD 261350Z COR AUTO 01003KT 9999 OVC021 06/04 Q1037 NOSIG",
      "taf": ""
    },
    {
      "icao": "EGPF",
      "alert": "OK",
      "vis_m": 9999,
      "fzfg": false,
      "metar_trigger": false,
      "taf_trigger": false,
      "metar": "METAR EGPF 261350Z AUTO 07009KT 340V120 9999 BKN026 07/02 Q1037",
      "taf": "TAF EGPF 261100Z 2612/2712 06005KT 9999 SCT025"
    },
    {
      "icao": "EHBK",
      "alert": "OK",
      "vis_m": 9999,
      "fzfg": false,
      "metar_trigger": false,
      "taf_trigger": false,
      "metar": "METAR EHBK 261355Z AUTO 06012KT 9999 NCD 02/M02 Q1028 NOSIG",
      "taf": "TAF EHBK 261109Z 2612/2718 07011KT CAVOK"
    },
    {
      "icao": "EHEH",
      "alert": "OK",
      "vis_m": 9999,
      "fzfg": false,
      "metar_trigger": false,
      "taf_trigger": false,
      "metar": "METAR EHEH 261355Z AUTO 06007KT 020V080 9999 NCD 03/M03 Q1030 BLU NOSIG RMK TREND REMOTE BY EHWX",
      "taf": "TAF EHEH 261113Z 2612/2718 06008KT CAVOK"
    },
    {
      "icao": "EKBI",
      "alert": "OK",
      "vis_m": 9999,
      "fzfg": false,
      "metar_trigger": false,
      "taf_trigger": false,
      "metar": "METAR EKBI 261350Z AUTO 27006KT 9999 BKN010/// 03/02 Q1034",
      "taf": ""
    },
    {
      "icao": "EKCH",
      "alert": "OK",
      "vis_m": 9999,
      "fzfg": false,
      "metar_trigger": false,
      "taf_trigger": false,
      "metar": "METAR EKCH 261350Z VRB08G21KT 9999 OVC007 05/04 Q1033 NOSIG",
      "taf": "TAF EKCH 261127Z 2612/2712 32008KT 9999 OVC006"
    },
    {
      "icao": "ENAL",
      "alert": "OK",
      "vis_m": 9999,
      "fzfg": false,
      "metar_trigger": false,
      "taf_trigger": false,
      "metar": "METAR ENAL 261350Z 16008KT 9999 FEW012 BKN016 05/03 Q1033",
      "taf": "TAF ENAL 261100Z 2612/2621 16005KT 9999 FEW012 BKN018"
    },
    {
      "icao": "ENBR",
      "alert": "OK",
      "vis_m": 9999,
      "fzfg": false,
      "metar_trigger": false,
      "taf_trigger": false,
      "metar": "METAR ENBR 261350Z 21002KT CAVOK 04/01 Q1034 NOSIG RMK WIND 1200FT 20005KT",
      "taf": "TAF ENBR 261100Z 2612/2712 VRB03KT CAVOK"
    },
    {
      "icao": "ENGM",
      "alert": "OK",
      "vis_m": 9999,
      "fzfg": false,
      "metar_trigger": false,
      "taf_trigger": false,
      "metar": "METAR ENGM 261350Z 35001KT CAVOK M01/M03 Q1032 NOSIG",
      "taf": "TAF ENGM 261100Z 2612/2712 VRB03KT CAVOK"
    },
    {
      "icao": "ENHD",
      "alert": "OK",
      "vis_m": 9999,
      "fzfg": false,
      "metar_trigger": false,
      "taf_trigger": false,
      "metar": "METAR ENHD 261350Z 32003KT 290V350 CAVOK 05/03 Q1034",
      "taf": "TAF ENHD 261100Z 2612/2621 10005KT CAVOK"
    },
    {
      "icao": "ENTC",
      "alert": "OK",
      "vis_m": 9999,
      "fzfg": false,
      "metar_trigger": false,
      "taf_trigger": false,
      "metar": "METAR ENTC 261350Z 23008KT 9999 FEW055 SCT064 06/02 Q1017 NOSIG RMK WIND 2600FT 28015G26KT",
      "taf": ""
    },
    {
      "icao": "ENTO",
      "alert": "OK",
      "vis_m": 9999,
      "fzfg": false,
      "metar_trigger": false,
      "taf_trigger": false,
      "metar": "METAR ENTO 261350Z 00000KT CAVOK 02/M01 Q1032 NOSIG",
      "taf": "TAF ENTO 261100Z 2612/2712 20008KT CAVOK"
    },
    {
      "icao": "ENVA",
      "alert": "OK",
      "vis_m": 9999,
      "fzfg": false,
      "metar_trigger": false,
      "taf_trigger": false,
      "metar": "METAR ENVA 261350Z 18004KT 9999 SCT017 BKN022 05/04 Q1032 NOSIG RMK WIND 670FT 21015KT",
      "taf": "TAF ENVA 261100Z 2612/2712 23008KT 9999 SCT012 BKN025"
    },
    {
      "icao": "ENZV",
      "alert": "OK",
      "vis_m": 9999,
      "fzfg": false,
      "metar_trigger": false,
      "taf_trigger": false,
      "metar": "METAR ENZV 261350Z 15003KT CAVOK 03/00 Q1034 NOSIG",
      "taf": "TAF ENZV 261100Z 2612/2712 VRB03KT CAVOK"
    },
    {
      "icao": "EPGD",
      "alert": "OK",
      "vis_m": 9999,
      "fzfg": false,
      "metar_trigger": false,
      "taf_trigger": false,
      "metar": "METAR EPGD 261400Z 32009KT 9999 OVC005 05/04 Q1029",
      "taf": ""
    },
    {
      "icao": "EPKK",
      "alert": "OK",
      "vis_m": 6000,
      "fzfg": false,
      "metar_trigger": false,
      "taf_trigger": false,
      "metar": "METAR EPKK 261400Z 24006KT 6000 FEW060 M02/M06 Q1030",
      "taf": "TAF EPKK 261130Z 2612/2712 25010KT 8000 BKN050"
    },
    {
      "icao": "EPKT",
      "alert": "OK",
      "vis_m": 9999,
      "fzfg": false,
      "metar_trigger": false,
      "taf_trigger": false,
      "metar": "METAR EPKT 261400Z 32007KT 9999 FEW015 M02/M06 Q1029",
      "taf": "TAF EPKT 261130Z 2612/2712 26008KT 8000 BKN045"
    },
    {
      "icao": "EPLB",
      "alert": "OK",
      "vis_m": 1900,
      "fzfg": false,
      "metar_trigger": false,
      "taf_trigger": false,
      "metar": "METAR EPLB 261400Z 29010KT 1900 -FZDZ BR OVC003 M02/M03 Q1026",
      "taf": ""
    },
    {
      "icao": "EPMO",
      "alert": "OK",
      "vis_m": 2200,
      "fzfg": false,
      "metar_trigger": false,
      "taf_trigger": false,
      "metar": "METAR EPMO 261400Z 27009KT 2200 BR OVC004 M02/M02 Q1028",
      "taf": "TAF EPMO 261130Z 2612/2712 27008KT 2000 BR OVC003"
    },
    {
      "icao": "EPPO",
      "alert": "OK",
      "vis_m": 1100,
      "fzfg": false,
      "metar_trigger": false,
      "taf_trigger": false,
      "metar": "METAR EPPO 261400Z 29005KT 1100 R28/1700N -FZDZ BR OVC001 M02/M03 Q1032",
      "taf": ""
    },
    {
      "icao": "EPRA",
      "alert": "OK",
      "vis_m": 3000,
      "fzfg": false,
      "metar_trigger": false,
      "taf_trigger": false,
      "metar": "METAR EPRA 261400Z 28010KT 3000 BR OVC004 M02/M03 Q1027",
      "taf": "TAF EPRA 261130Z 2612/2621 29008KT 4000 BR OVC005"
    },
    {
      "icao": "EPRZ",
      "alert": "OK",
      "vis_m": 9999,
      "fzfg": false,
      "metar_trigger": false,
      "taf_trigger": false,
      "metar": "METAR EPRZ 261400Z 28012KT 9999 FEW007 OVC011 M02/M05 Q1027",
      "taf": "TAF EPRZ 261130Z 2612/2712 28012KT 9999 BKN017"
    },
    {
      "icao": "EPSC",
      "alert": "OK",
      "vis_m": 9999,
      "fzfg": false,
      "metar_trigger": false,
      "taf_trigger": false,
      "metar": "METAR EPSC 261400Z 25002KT 9999 OVC005 00/M00 Q1032",
      "taf": "TAF EPSC 261130Z 2612/2712 25005KT 9999 OVC006"
    },
    {
      "icao": "EPSY",
      "alert": "OK",
      "vis_m": 4700,
      "fzfg": false,
      "metar_trigger": false,
      "taf_trigger": false,
      "metar": "METAR EPSY 261400Z 32008KT 4700 -DZ BR OVC002 03/03 Q1027",
      "taf": ""
    },
    {
      "icao": "EPWA",
      "alert": "OK",
      "vis_m": 2000,
      "fzfg": false,
      "metar_trigger": false,
      "taf_trigger": false,
      "metar": "METAR EPWA 261400Z 27010KT 2000 -FZDZ BR OVC003 M02/M03 Q1028 NOSIG",
      "taf": "TAF EPWA 261130Z 2612/2712 28008KT 2000 BR OVC003"
    },
    {
      "icao": "EPWR",
      "alert": "OK",
      "vis_m": 9999,
      "fzfg": false,
      "metar_trigger": false,
      "taf_trigger": false,
      "metar": "METAR EPWR 261400Z 28006KT CAVOK M02/M05 Q1032",
      "taf": "TAF EPWR 261130Z 2612/2712 29006KT 8000 NSC"
    },
    {
      "icao": "ESGG",
      "alert": "OK",
      "vis_m": 9999,
      "fzfg": false,
      "metar_trigger": false,
      "taf_trigger": false,
      "metar": "METAR ESGG 261350Z 24002KT CAVOK 03/02 Q1032",
      "taf": "TAF ESGG 261130Z 2612/2712 09003KT 8000 SCT002"
    },
    {
      "icao": "ESKN",
      "alert": "OK",
      "vis_m": 9999,
      "fzfg": false,
      "metar_trigger": false,
      "taf_trigger": false,
      "metar": "METAR ESKN 261350Z 28006KT CAVOK 03/01 Q1030",
      "taf": "TAF ESKN 261130Z 2612/2712 30008KT CAVOK"
    },
    {
      "icao": "ESMS",
      "alert": "OK",
      "vis_m": 200,
      "fzfg": false,
      "metar_trigger": false,
      "taf_trigger": false,
      "metar": "METAR ESMS 261350Z 34009KT 0200 R17/0550N R35/0550N FG VV002 02/02 Q1032",
      "taf": ""
    },
    {
      "icao": "ESSA",
      "alert": "OK",
      "vis_m": 9999,
      "fzfg": false,
      "metar_trigger": false,
      "taf_trigger": false,
      "metar": "METAR ESSA 261350Z 27005KT CAVOK 02/01 Q1028 NOSIG",
      "taf": "TAF ESSA 261130Z 2612/2712 28006KT CAVOK"
    },
    {
      "icao": "EYKA",
      "alert": "OK",
      "vis_m": 9999,
      "fzfg": false,
      "metar_trigger": false,
      "taf_trigger": false,
      "metar": "METAR EYKA 261350Z 30004KT 260V350 CAVOK 04/01 Q1023",
      "taf": "TAF EYKA 261100Z 2612/2712 34010KT 8000 BKN015"
    },
    {
      "icao": "EYPA",
      "alert": "OK",
      "vis_m": 9999,
      "fzfg": false,
      "metar_trigger": false,
      "taf_trigger": false,
      "metar": "METAR EYPA 261350Z 35006KT 320V040 9999 OVC007 07/05 Q1027",
      "taf": "TAF EYPA 261100Z 2612/2712 36007KT 8000 BKN010"
    },
    {
      "icao": "EYVI",
      "alert": "OK",
      "vis_m": 9999,
      "fzfg": false,
      "metar_trigger": false,
      "taf_trigger": false,
      "metar": "METAR EYVI 261350Z 33009KT CAVOK 03/01 Q1020 NOSIG",
      "taf": "TAF EYVI 261100Z 2612/2712 32012KT 9000 FEW010"
    },
    {
      "icao": "GCFV",
      "alert": "OK",
      "vis_m": 9999,
      "fzfg": false,
      "metar_trigger": false,
      "taf_trigger": false,
      "metar": "METAR GCFV 261400Z 28006KT 230V340 9999 FEW025 SCT035 19/13 Q1019",
      "taf": "TAF GCFV 260800Z 2609/2709 30006KT 9999 SCT035 TX22/2614Z TN15/2706Z"
    },
    {
      "icao": "GCLP",
      "alert": "OK",
      "vis_m": 9999,
      "fzfg": false,
      "metar_trigger": false,
      "taf_trigger": false,
      "metar": "METAR GCLP 261400Z 36017G28KT 9999 FEW030 BKN045 19/14 Q1019 WS ALL RWY NOSIG",
      "taf": "TAF GCLP 260800Z 2609/2709 33005KT 9999 FEW040 TX22/2614Z TN15/2706Z"
    },
    {
      "icao": "GCTS",
      "alert": "OK",
      "vis_m": 9999,
      "fzfg": false,
      "metar_trigger": false,
      "taf_trigger": false,
      "metar": "METAR GCTS 261400Z 24010KT 200V290 9999 SCT040 22/08 Q1020 NOSIG",
      "taf": "TAF GCTS 260800Z 2609/2709 36005KT 9999 SCT040 TX23/2614Z TN15/2706Z"
    },
    {
      "icao": "GMAD",
      "alert": "OK",
      "vis_m": 9999,
      "fzfg": false,
      "metar_trigger": false,
      "taf_trigger": false,
      "metar": "METAR GMAD 261400Z 00000KT 9999 FEW026 BKN083 16/10 Q1016 NOSIG",
      "taf": "TAF GMAD 261100Z 2612/2718 06008KT 8000 SCT020"
    },
    {
      "icao": "GMMN",
      "alert": "OK",
      "vis_m": 8000,
      "fzfg": false,
      "metar_trigger": false,
      "taf_trigger": false,
      "metar": "SPECI GMMN 261405Z 21011KT 8000 -RA SCT020 SCT030TCU 13/10 Q1015 TEMPO 3000 RA",
      "taf": ""
    },
    {
      "icao": "GMMX",
      "alert": "OK",
      "vis_m": 9999,
      "fzfg": false,
      "metar_trigger": false,
      "taf_trigger": false,
      "metar": "METAR GMMX 261400Z 25008KT 220V280 9999 SCT023 BKN080 14/10 Q1015 NOSIG",
      "taf": "TAF GMMX 261100Z 2612/2718 18008KT 8000 SCT020"
    },
    {
      "icao": "HEGN",
      "alert": "OK",
      "vis_m": 9999,
      "fzfg": false,
      "metar_trigger": false,
      "taf_trigger": false,
      "metar": "METAR HEGN 261400Z 35016KT CAVOK 22/08 Q1012 NOSIG",
      "taf": "TAF HEGN 261100Z 2612/2718 34016KT CAVOK"
    },
    {
      "icao": "HEMA",
      "alert": "OK",
      "vis_m": 9999,
      "fzfg": false,
      "metar_trigger": false,
      "taf_trigger": false,
      "metar": "METAR HEMA 261400Z 33015KT CAVOK 22/11 Q1012 NOSIG",
      "taf": "TAF HEMA 261100Z 2612/2718 35016KT CAVOK"
    },
    {
      "icao": "HESH",
      "alert": "OK",
      "vis_m": 9999,
      "fzfg": false,
      "metar_trigger": false,
      "taf_trigger": false,
      "metar": "METAR HESH 261400Z 01013KT CAVOK 23/09 Q1012 NOSIG",
      "taf": "TAF HESH 261100Z 2612/2718 01014KT CAVOK"
    },
    {
      "icao": "HESX",
      "alert": "OK",
      "vis_m": 9999,
      "fzfg": false,
      "metar_trigger": false,
      "taf_trigger": false,
      "metar": "METAR HESX 261400Z 01009KT 9999 SCT020 20/10 Q1015 NOSIG",
      "taf": "TAF HESX 261100Z 2612/2718 02008KT CAVOK"
    },
    {
      "icao": "LATI",
      "alert": "OK",
      "vis_m": null,
      "fzfg": false,
      "metar_trigger": false,
      "taf_trigger": false,
      "metar": "",
      "taf": "TAF LATI 261100Z 2612/2712 VRB05KT CAVOK TX18/2612Z TN02/2705Z"
    },
    {
      "icao": "LBPD",
      "alert": "OK",
      "vis_m": 9999,
      "fzfg": false,
      "metar_trigger": false,
      "taf_trigger": false,
      "metar": "METAR LBPD 261400Z AUTO 10003KT 9999 NCD 07/04 Q1021 NOSIG",
      "taf": "TAF LBPD 261100Z 2612/2712 28010KT 9999 SCT010 BKN020 OVC045"
    },
    {
      "icao": "LBSF",
      "alert": "OK",
      "vis_m": 9999,
      "fzfg": false,
      "metar_trigger": false,
      "taf_trigger": false,
      "metar": "METAR LBSF 261400Z 30013KT 9999 SCT015 BKN060 01/M01 Q1023 NOSIG",
      "taf": "TAF LBSF 261100Z 2612/2712 30008KT 9999 SCT010 BKN025 OVC040"
    },
    {
      "icao": "LBWN",
      "alert": "OK",
      "vis_m": 9999,
      "fzfg": false,
      "metar_trigger": false,
      "taf_trigger": false,
      "metar": "METAR LBWN 261400Z AUTO 27010KT 9999 FEW019/// 02/M01 Q1020 NOSIG",
      "taf": "TAF LBWN 261100Z 2612/2712 27014KT 9999 BKN010 BKN030"
    },
    {
      "icao": "LCLK",
      "alert": "OK",
      "vis_m": 9999,
      "fzfg": false,
      "metar_trigger": false,
      "taf_trigger": false,
      "metar": "METAR LCLK 261400Z VRB03KT 9999 FEW020 FEW025CB FEW030TCU 19/12 Q1013 NOSIG RMK CB TO SE",
      "taf": "TAF LCLK 261130Z 2612/2712 21010KT 9999 FEW025CB FEW030TCU SCT045"
    },
    {
      "icao": "LCPH",
      "alert": "OK",
      "vis_m": 9999,
      "fzfg": false,
      "metar_trigger": false,
      "taf_trigger": false,
      "metar": "METAR LCPH 261400Z 32009KT 9999 FEW025 SCT030 FEW035CB 18/13 Q1013 NOSIG",
      "taf": "TAF LCPH 261130Z 2612/2712 31015KT 9999 FEW025TCU FEW030CB SCT040"
    },
    {
      "icao": "LEAL",
      "alert": "OK",
      "vis_m": 9999,
      "fzfg": false,
      "metar_trigger": false,
      "taf_trigger": false,
      "metar": "METAR LEAL 261400Z 01006KT 350V050 9999 SCT054 16/07 Q1010 NOSIG",
      "taf": ""
    },
    {
      "icao": "LEBB",
      "alert": "OK",
      "vis_m": 9999,
      "fzfg": false,
      "metar_trigger": false,
      "taf_trigger": false,
      "metar": "METAR LEBB 261400Z VRB02KT 9999 FEW024 10/05 Q1014 NOSIG",
      "taf": "TAF LEBB 261100Z 2612/2712 11004KT 9999 FEW060 TX12/2712Z TN03/2706Z"
    },
    {
      "icao": "LEBL",
      "alert": "OK",
      "vis_m": 9999,
      "fzfg": false,
      "metar_trigger": false,
      "taf_trigger": false,
      "metar": "METAR LEBL 261400Z 10010KT 9999 FEW018 SCT060 14/13 Q1012 NOSIG",
      "taf": "TAF LEBL 261100Z 2612/2712 06014KT 9999 SCT014 TX13/2612Z TN11/2706Z"
    },
    {
      "icao": "LECH",
      "alert": "OK",
      "vis_m": 9999,
      "fzfg": false,
      "metar_trigger": false,
      "taf_trigger": false,
      "metar": "METAR LECH 261400Z AUTO 01008KT 340V050 9999 OVC037 11/05 Q1010",
      "taf": ""
    },
    {
      "icao": "LEMD",
      "alert": "OK",
      "vis_m": 9999,
      "fzfg": false,
      "metar_trigger": false,
      "taf_trigger": false,
      "metar": "METAR LEMD 261400Z 33003KT 260V040 9999 SCT080 09/02 Q1011 NOSIG",
      "taf": "TAF LEMD 261100Z 2612/2718 VRB04KT 9999 FEW035 TX11/2715Z TN00/2706Z"
    },
    {
      "icao": "LEMG",
      "alert": "OK",
      "vis_m": 9999,
      "fzfg": false,
      "metar_trigger": false,
      "taf_trigger": false,
      "metar": "METAR LEMG 261400Z 26005KT 200V300 9999 SCT050 16/05 Q1011 NOSIG",
      "taf": "TAF LEMG 261100Z 2612/2712 29006KT 9999 FEW040 TX16/2614Z TN05/2706Z"
    },
    {
      "icao": "LEVC",
      "alert": "OK",
      "vis_m": 9999,
      "fzfg": false,
      "metar_trigger": false,
      "taf_trigger": false,
      "metar": "METAR LEVC 261400Z VRB02KT 9999 FEW022 SCT046 13/08 Q1011 NOSIG",
      "taf": "TAF LEVC 261100Z 2612/2712 VRB04KT 9999 FEW025 BKN040 TX14/2613Z TN07/2706Z"
    },
    {
      "icao": "LEXJ",
      "alert": "OK",
      "vis_m": 9999,
      "fzfg": false,
      "metar_trigger": false,
      "taf_trigger": false,
      "metar": "METAR LEXJ 261400Z VRB02KT 9999 FEW080 09/05 Q1014",
      "taf": "TAF LEXJ 260800Z 2609/2709 VRB03KT 9999 SCT080 TX10/2614Z TN03/2609Z"
    },
    {
      "icao": "LEZG",
      "alert": "OK",
      "vis_m": 6000,
      "fzfg": false,
      "metar_trigger": false,
      "taf_trigger": false,
      "metar": "METAR LEZG 261400Z 29009KT 6000 RA FEW008 SCT035 BKN055 06/06 Q1013 NOSIG",
      "taf": "TAF LEZG 261100Z 2612/2712 28009KT 9999 FEW020 BKN035 TX08/2614Z TN06/2706Z"
    },
    {
      "icao": "LEZL",
      "alert": "OK",
      "vis_m": 9999,
      "fzfg": false,
      "metar_trigger": false,
      "taf_trigger": false,
      "metar": "METAR LEZL 261400Z VRB02KT 9999 FEW035 14/05 Q1013 NOSIG",
      "taf": "TAF LEZL 260800Z 2609/2709 VRB03KT CAVOK TX15/2615Z TN06/2707Z"
    },
    {
      "icao": "LFBD",
      "alert": "OK",
      "vis_m": 9999,
      "fzfg": false,
      "metar_trigger": false,
      "taf_trigger": false,
      "metar": "METAR LFBD 261400Z AUTO 09010KT 9999 FEW044 BKN078 13/05 Q1016 TEMPO 4500 -SHRA BKN070TCU",
      "taf": "TAF LFBD 261100Z 2612/2718 06005KT CAVOK TX12/2714Z TN03/2707Z"
    },
    {
      "icao": "LFLL",
      "alert": "OK",
      "vis_m": 6000,
      "fzfg": false,
      "metar_trigger": false,
      "taf_trigger": false,
      "metar": "METAR LFLL 261400Z AUTO 01004KT 330V040 6000 OVC008 02/00 Q1023",
      "taf": "TAF LFLL 260500Z 2606/2712 VRB03KT 8000 OVC008"
    },
    {
      "icao": "LFLS",
      "alert": "OK",
      "vis_m": 9999,
      "fzfg": false,
      "metar_trigger": false,
      "taf_trigger": false,
      "metar": "METAR LFLS 261400Z AUTO 35007KT CAVOK 05/02 Q1021 NOSIG",
      "taf": "TAF LFLS 260800Z 2609/2709 07006KT 9999 FEW015"
    },
    {
      "icao": "LFMN",
      "alert": "OK",
      "vis_m": 9999,
      "fzfg": false,
      "metar_trigger": false,
      "taf_trigger": false,
      "metar": "METAR LFMN 261400Z 09027KT 9999 FEW100 16/06 Q1019 NOSIG",
      "taf": "TAF LFMN 260800Z 2609/2715 08020G30KT CAVOK"
    },
    {
      "icao": "LFOB",
      "alert": "OK",
      "vis_m": 9999,
      "fzfg": false,
      "metar_trigger": false,
      "taf_trigger": false,
      "metar": "METAR LFOB 261400Z AUTO 05008KT CAVOK 02/M01 Q1025 NOSIG",
      "taf": "TAF LFOB 261100Z 2612/2712 07008KT CAVOK"
    },
    {
      "icao": "LFPO",
      "alert": "OK",
      "vis_m": 9999,
      "fzfg": false,
      "metar_trigger": false,
      "taf_trigger": false,
      "metar": "METAR LFPO 261400Z AUTO 04008KT CAVOK 04/M01 Q1024 NOSIG",
      "taf": "TAF LFPO 261100Z 2612/2718 04008KT CAVOK"
    },
    {
      "icao": "LFSB",
      "alert": "OK",
      "vis_m": 8000,
      "fzfg": false,
      "metar_trigger": false,
      "taf_trigger": false,
      "metar": "METAR LFSB 261400Z AUTO 36010KT 8000 OVC017 M00/M01 Q1026 NOSIG",
      "taf": "TAF LFSB 261100Z 2612/2712 35008KT 8000 BKN015"
    },
    {
      "icao": "LGAV",
      "alert": "OK",
      "vis_m": 9999,
      "fzfg": false,
      "metar_trigger": false,
      "taf_trigger": false,
      "metar": "METAR LGAV 261350Z 02015KT 9999 FEW020 SCT040 BKN070 13/08 Q1021 NOSIG",
      "taf": "TAF LGAV 261100Z 2612/2712 02014KT 9999 FEW018 SCT030"
    },
    {
      "icao": "LGTS",
      "alert": "OK",
      "vis_m": 9999,
      "fzfg": false,
      "metar_trigger": false,
      "taf_trigger": false,
      "metar": "METAR LGTS 261350Z 29010KT 9999 SCT025 12/07 Q1023 NOSIG",
      "taf": "TAF LGTS 261100Z 2612/2712 VRB03KT 9999 FEW012 BKN025"
    },
    {
      "icao": "LHBP",
      "alert": "OK",
      "vis_m": 9999,
      "fzfg": false,
      "metar_trigger": false,
      "taf_trigger": false,
      "metar": "METAR LHBP 261400Z 25007KT CAVOK 07/00 Q1027 NOSIG",
      "taf": "TAF LHBP 261115Z 2612/2712 27007KT CAVOK"
    },
    {
      "icao": "LHDC",
      "alert": "OK",
      "vis_m": 9999,
      "fzfg": false,
      "metar_trigger": false,
      "taf_trigger": false,
      "metar": "METAR LHDC 261345Z AUTO 24004KT 220V280 CAVOK 03/M01 Q1028",
      "taf": ""
    },
    {
      "icao": "LIBD",
      "alert": "OK",
      "vis_m": 9999,
      "fzfg": false,
      "metar_trigger": false,
      "taf_trigger": false,
      "metar": "METAR LIBD 261350Z 32005KT 280V360 CAVOK 13/11 Q1021",
      "taf": "TAF LIBD 261100Z 2612/2712 VRB05KT 9999 SCT020"
    },
    {
      "icao": "LIBG",
      "alert": "OK",
      "vis_m": 9999,
      "fzfg": false,
      "metar_trigger": false,
      "taf_trigger": false,
      "metar": "METAR LIBG 261350Z 04008KT 9999 FEW040 15/12 Q1021",
      "taf": "TAF LIBG 261100Z 2612/2621 02010KT 9999 SCT020"
    },
    {
      "icao": "LIBP",
      "alert": "OK",
      "vis_m": 9999,
      "fzfg": false,
      "metar_trigger": false,
      "taf_trigger": false,
      "metar": "METAR LIBP 261350Z AUTO 35005KT 320V020 9999 OVC031/// 11/07 Q1024",
      "taf": "TAF LIBP 261100Z 2612/2712 35010KT 9999 OVC020"
    },
    {
      "icao": "LIBR",
      "alert": "OK",
      "vis_m": 9999,
      "fzfg": false,
      "metar_trigger": false,
      "taf_trigger": false,
      "metar": "METAR LIBR 261350Z 04008KT 9999 FEW030 15/09 Q1021",
      "taf": "TAF LIBR 261100Z 2612/2712 04010KT 9999 SCT040"
    },
    {
      "icao": "LICA",
      "alert": "OK",
      "vis_m": 9999,
      "fzfg": false,
      "metar_trigger": false,
      "taf_trigger": false,
      "metar": "METAR LICA 261350Z AUTO 08014KT 9999 NCD 16/10 Q1019",
      "taf": "TAF LICA 261100Z 2612/2712 09013KT CAVOK"
    },
    {
      "icao": "LICC",
      "alert": "OK",
      "vis_m": 9999,
      "fzfg": false,
      "metar_trigger": false,
      "taf_trigger": false,
      "metar": "METAR LICC 261350Z 08013KT 9999 -TSRA FEW010CB BKN050 16/14 Q1018",
      "taf": "TAF LICC 261100Z 2612/2712 07012KT 9999 SCT040"
    },
    {
      "icao": "LICJ",
      "alert": "OK",
      "vis_m": 9999,
      "fzfg": false,
      "metar_trigger": false,
      "taf_trigger": false,
      "metar": "METAR LICJ 261350Z 02003KT 330V060 CAVOK 17/11 Q1016",
      "taf": "TAF LICJ 261100Z 2612/2712 07008KT 9999 SCT040"
    },
    {
      "icao": "LIMC",
      "alert": "OK",
      "vis_m": 9999,
      "fzfg": false,
      "metar_trigger": false,
      "taf_trigger": false,
      "metar": "METAR LIMC 261350Z 22006KT 9999 FEW025 09/04 Q1026 NOSIG",
      "taf": "TAF LIMC 261100Z 2612/2718 VRB05KT 9999 FEW040"
    },
    {
      "icao": "LIME",
      "alert": "OK",
      "vis_m": 9999,
      "fzfg": false,
      "metar_trigger": false,
      "taf_trigger": false,
      "metar": "METAR LIME 261350Z VRB02KT 9999 BKN020 07/04 Q1026 NOSIG",
      "taf": "TAF LIME 261100Z 2612/2712 VRB05KT 9999 SCT020"
    },
    {
      "icao": "LIMF",
      "alert": "OK",
      "vis_m": 9999,
      "fzfg": false,
      "metar_trigger": false,
      "taf_trigger": false,
      "metar": "METAR LIMF 261350Z 21007KT CAVOK 09/02 Q1025",
      "taf": "TAF LIMF 261100Z 2612/2712 VRB05KT 6000 SCT040"
    },
    {
      "icao": "LIMJ",
      "alert": "OK",
      "vis_m": 9999,
      "fzfg": false,
      "metar_trigger": false,
      "taf_trigger": false,
      "metar": "METAR LIMJ 261350Z 03015KT CAVOK 11/01 Q1023",
      "taf": "TAF LIMJ 261100Z 2612/2712 01018G28KT 9999 FEW040"
    },
    {
      "icao": "LIPE",
      "alert": "OK",
      "vis_m": 9999,
      "fzfg": false,
      "metar_trigger": false,
      "taf_trigger": false,
      "metar": "METAR LIPE 261350Z 25008KT 9999 BKN028 08/03 Q1027",
      "taf": "TAF LIPE 261100Z 2612/2712 28007KT 9999 SCT020"
    },
    {
      "icao": "LIPH",
      "alert": "OK",
      "vis_m": 9999,
      "fzfg": false,
      "metar_trigger": false,
      "taf_trigger": false,
      "metar": "METAR LIPH 261350Z 07005KT 040V140 CAVOK 10/00 Q1027",
      "taf": "TAF LIPH 261100Z 2612/2712 VRB04KT CAVOK"
    },
    {
      "icao": "LIPQ",
      "alert": "OK",
      "vis_m": 9999,
      "fzfg": false,
      "metar_trigger": false,
      "taf_trigger": false,
      "metar": "METAR LIPQ 261350Z AUTO 10012KT 9999 NCD 09/M00 Q1026",
      "taf": "TAF LIPQ 261100Z 2612/2712 08010KT CAVOK"
    },
    {
      "icao": "LIPR",
      "alert": "OK",
      "vis_m": 9999,
      "fzfg": false,
      "metar_trigger": false,
      "taf_trigger": false,
      "metar": "METAR LIPR 261350Z 31010KT 9999 BKN035 07/04 Q1026",
      "taf": "TAF LIPR 261100Z 2612/2712 31010KT 9999 BKN030"
    },
    {
      "icao": "LIPX",
      "alert": "OK",
      "vis_m": 9999,
      "fzfg": false,
      "metar_trigger": false,
      "taf_trigger": false,
      "metar": "METAR LIPX 261350Z 22002KT 9999 FEW020 SCT030 09/02 Q1027",
      "taf": "TAF LIPX 261100Z 2612/2712 VRB05KT 9999 FEW040"
    },
    {
      "icao": "LIPY",
      "alert": "OK",
      "vis_m": 9999,
      "fzfg": false,
      "metar_trigger": false,
      "taf_trigger": false,
      "metar": "METAR LIPY 261350Z AUTO 32011KT 9999 OVC033/// 09/06 Q1025",
      "taf": "TAF LIPY 261100Z 2612/2712 35011KT 9999 SCT020"
    },
    {
      "icao": "LIPZ",
      "alert": "OK",
      "vis_m": 9999,
      "fzfg": false,
      "metar_trigger": false,
      "taf_trigger": false,
      "metar": "METAR LIPZ 261350Z 06006KT 9999 FEW015 09/01 Q1027 NOSIG",
      "taf": "TAF LIPZ 261100Z 2612/2718 04010KT CAVOK"
    },
    {
      "icao": "LIRF",
      "alert": "OK",
      "vis_m": 9999,
      "fzfg": false,
      "metar_trigger": false,
      "taf_trigger": false,
      "metar": "METAR LIRF 261350Z 04005KT CAVOK 16/07 Q1019 NOSIG",
      "taf": "TAF LIRF 261100Z 2612/2718 05012KT CAVOK"
    },
    {
      "icao": "LIRN",
      "alert": "OK",
      "vis_m": 9999,
      "fzfg": false,
      "metar_trigger": false,
      "taf_trigger": false,
      "metar": "METAR LIRN 261350Z 06008KT 030V090 CAVOK 16/06 Q1019 NOSIG",
      "taf": "TAF LIRN 261100Z 2612/2712 06012KT CAVOK"
    },
    {
      "icao": "LIRP",
      "alert": "OK",
      "vis_m": 9999,
      "fzfg": false,
      "metar_trigger": false,
      "taf_trigger": false,
      "metar": "METAR LIRP 261345Z 11015KT CAVOK 12/04 Q1022 NOSIG",
      "taf": "TAF LIRP 261100Z 2612/2712 13012KT CAVOK"
    },
    {
      "icao": "LIRZ",
      "alert": "OK",
      "vis_m": 9999,
      "fzfg": false,
      "metar_trigger": false,
      "taf_trigger": false,
      "metar": "METAR LIRZ 261350Z AUTO 03014KT 9999 NCD 11/05 Q1022",
      "taf": "TAF LIRZ 261100Z 2612/2712 04015KT 9999 FEW030"
    },
    {
      "icao": "LJLJ",
      "alert": "OK",
      "vis_m": 9999,
      "fzfg": false,
      "metar_trigger": false,
      "taf_trigger": false,
      "metar": "METAR LJLJ 261400Z VRB01KT 9999 SCT013 BKN037 04/01 Q1028 NOSIG",
      "taf": "TAF LJLJ 261100Z 2612/2712 VRB02KT 9999 SCT007 BKN040"
    },
    {
      "icao": "LKMT",
      "alert": "OK",
      "vis_m": 4000,
      "fzfg": false,
      "metar_trigger": false,
      "taf_trigger": false,
      "metar": "METAR LKMT 261400Z 08004KT 4000 BR FEW006 M01/M04 Q1031 NOSIG",
      "taf": "TAF LKMT 261100Z 2612/2712 VRB02KT 1800 BR BKN004"
    },
    {
      "icao": "LKPR",
      "alert": "OK",
      "vis_m": 9999,
      "fzfg": false,
      "metar_trigger": false,
      "taf_trigger": false,
      "metar": "METAR LKPR 261400Z 22004KT CAVOK 01/M03 Q1030 NOSIG",
      "taf": "TAF LKPR 261100Z 2612/2718 30004KT CAVOK"
    },
    {
      "icao": "LLBG",
      "alert": "OK",
      "vis_m": 6000,
      "fzfg": false,
      "metar_trigger": false,
      "taf_trigger": false,
      "metar": "METAR LLBG 261350Z 36016KT 6000 RA SCT030TCU 18/14 Q1015 NOSIG",
      "taf": ""
    },
    {
      "icao": "LMML",
      "alert": "OK",
      "vis_m": 9999,
      "fzfg": false,
      "metar_trigger": false,
      "taf_trigger": false,
      "metar": "METAR LMML 261415Z 11017KT 9999 FEW031 17/12 Q1016 NOSIG",
      "taf": "TAF LMML 261100Z 2612/2712 12017KT 9999 FEW030"
    },
    {
      "icao": "LOWW",
      "alert": "OK",
      "vis_m": 9999,
      "fzfg": false,
      "metar_trigger": false,
      "taf_trigger": false,
      "metar": "METAR LOWW 261350Z 35003KT 320V020 CAVOK 03/M02 Q1030 NOSIG",
      "taf": "TAF LOWW 261415Z 2615/2721 01004KT CAVOK TX02/2615Z TNM02/2703Z"
    },
    {
      "icao": "LPFR",
      "alert": "OK",
      "vis_m": 9999,
      "fzfg": false,
      "metar_trigger": false,
      "taf_trigger": false,
      "metar": "METAR LPFR 261400Z 22005KT 170V250 9999 FEW020 13/05 Q1013",
      "taf": "TAF LPFR 261100Z 2612/2712 25007KT CAVOK"
    },
    {
      "icao": "LPMA",
      "alert": "OK",
      "vis_m": 9999,
      "fzfg": false,
      "metar_trigger": false,
      "taf_trigger": false,
      "metar": "METAR LPMA 261400Z 03007KT 360V070 9999 VCSH BKN015 18/10 Q1018",
      "taf": "TAF LPMA 261100Z 2612/2712 VRB05KT 9999 SCT015"
    },
    {
      "icao": "LPPR",
      "alert": "OK",
      "vis_m": 9999,
      "fzfg": false,
      "metar_trigger": false,
      "taf_trigger": false,
      "metar": "METAR LPPR 261400Z 14007KT 120V190 9999 FEW034 SCT042 11/04 Q1012",
      "taf": "TAF LPPR 261100Z 2612/2712 12010KT CAVOK"
    },
    {
      "icao": "LPPS",
      "alert": "OK",
      "vis_m": 9999,
      "fzfg": false,
      "metar_trigger": false,
      "taf_trigger": false,
      "metar": "METAR LPPS 261400Z 31015KT 9999 VCSH SCT015 FEW018TCU SCT030 18/11 Q1017",
      "taf": "TAF LPPS 261100Z 2612/2718 29013KT 9999 SCT015"
    },
    {
      "icao": "LPPT",
      "alert": "OK",
      "vis_m": 9999,
      "fzfg": false,
      "metar_trigger": false,
      "taf_trigger": false,
      "metar": "METAR LPPT 261400Z VRB05KT 9999 FEW025 11/07 Q1013",
      "taf": "TAF LPPT 261100Z 2612/2718 08005KT 9999 SCT030"
    },
    {
      "icao": "LQBK",
      "alert": "OK",
      "vis_m": 9999,
      "fzfg": false,
      "metar_trigger": false,
      "taf_trigger": false,
      "metar": "METAR LQBK 261400Z 19002KT 9999 SCT008 OVC013 02/00 Q1029 NOSIG",
      "taf": "TAF LQBK 261100Z 2612/2712 02005KT 8000 SCT012 BKN025 TX03/2613Z TNM03/2705Z"
    },
    {
      "icao": "LQSA",
      "alert": "OK",
      "vis_m": 9999,
      "fzfg": false,
      "metar_trigger": false,
      "taf_trigger": false,
      "metar": "METAR LQSA 261400Z 32003KT 9999 FEW013 OVC022 03/00 Q1026 NOSIG",
      "taf": "TAF LQSA 261100Z 2612/2712 VRB02KT 9999 SCT015 BKN025 TX03/2613Z TNM00/2705Z"
    },
    {
      "icao": "LQTZ",
      "alert": "OK",
      "vis_m": 4600,
      "fzfg": false,
      "metar_trigger": false,
      "taf_trigger": false,
      "metar": "METAR LQTZ 261400Z 29004KT 4600 BR FEW007 BKN013 OVC031 02/01 Q1028",
      "taf": "TAF LQTZ 261100Z 2612/2712 29004KT 8000 SCT012 BKN025 TX03/2613Z TNM04/2705Z"
    },
    {
      "icao": "LRBC",
      "alert": "OK",
      "vis_m": 9999,
      "fzfg": false,
      "metar_trigger": false,
      "taf_trigger": false,
      "metar": "METAR LRBC 261400Z 09002KT 9999 OVC050 M02/M04 Q1019",
      "taf": "TAF LRBC 261100Z 2612/2621 VRB04KT 9999 SCT035"
    },
    {
      "icao": "LRBS",
      "alert": "OK",
      "vis_m": 9999,
      "fzfg": false,
      "metar_trigger": false,
      "taf_trigger": false,
      "metar": "METAR LRBS 261400Z 26012KT 9999 FEW013 00/M02 Q1021 NOSIG",
      "taf": "TAF LRBS 261100Z 2612/2712 25015KT CAVOK"
    },
    {
      "icao": "LRBV",
      "alert": "OK",
      "vis_m": 9999,
      "fzfg": false,
      "metar_trigger": false,
      "taf_trigger": false,
      "metar": "METAR LRBV 261400Z 31013KT 9999 SCT018 SCT028 BKN072 02/M02 Q1021",
      "taf": "TAF LRBV 261100Z 2612/2621 30012KT 9999 BKN050"
    },
    {
      "icao": "LRCL",
      "alert": "OK",
      "vis_m": 9999,
      "fzfg": false,
      "metar_trigger": false,
      "taf_trigger": false,
      "metar": "METAR LRCL 261400Z 31014KT CAVOK 04/M06 Q1024",
      "taf": "TAF LRCL 261100Z 2612/2621 28012KT CAVOK"
    },
    {
      "icao": "LRCV",
      "alert": "OK",
      "vis_m": 9999,
      "fzfg": false,
      "metar_trigger": false,
      "taf_trigger": false,
      "metar": "METAR LRCV 261400Z 27018KT 9999 OVC004 M02/M02 Q1022",
      "taf": ""
    },
    {
      "icao": "LRIA",
      "alert": "OK",
      "vis_m": 9999,
      "fzfg": false,
      "metar_trigger": false,
      "taf_trigger": false,
      "metar": "METAR LRIA 261400Z 30018KT 9999 -FZDZ BKN009 OVC033 M01/M02 Q1019",
      "taf": ""
    },
    {
      "icao": "LROP",
      "alert": "OK",
      "vis_m": 9999,
      "fzfg": false,
      "metar_trigger": false,
      "taf_trigger": false,
      "metar": "METAR LROP 261400Z 25009KT CAVOK 01/M03 Q1021 NOSIG",
      "taf": "TAF LROP 261100Z 2612/2712 25015KT CAVOK"
    },
    {
      "icao": "LRSB",
      "alert": "OK",
      "vis_m": 9999,
      "fzfg": false,
      "metar_trigger": false,
      "taf_trigger": false,
      "metar": "METAR LRSB 261400Z 31008KT 280V340 9999 SCT012 SCT021 03/01 Q1023",
      "taf": "TAF LRSB 261100Z 2612/2712 VRB04KT 9999 BKN050"
    },
    {
      "icao": "LRSM",
      "alert": "OK",
      "vis_m": 9999,
      "fzfg": false,
      "metar_trigger": false,
      "taf_trigger": false,
      "metar": "METAR LRSM 261400Z 30005KT 270V330 CAVOK 02/M02 Q1026",
      "taf": "TAF LRSM 261100Z 2612/2621 29008KT CAVOK"
    },
    {
      "icao": "LRSV",
      "alert": "OK",
      "vis_m": 9999,
      "fzfg": false,
      "metar_trigger": false,
      "taf_trigger": false,
      "metar": "METAR LRSV 261400Z 32022KT 9999 FEW010 OVC019 M02/M03 Q1019",
      "taf": "TAF LRSV 261100Z 2612/2621 30023KT 9999 -SN BKN015 BKN045"
    },
    {
      "icao": "LRTM",
      "alert": "OK",
      "vis_m": 9999,
      "fzfg": false,
      "metar_trigger": false,
      "taf_trigger": false,
      "metar": "METAR LRTM 261400Z 28012KT CAVOK 04/M03 Q1023",
      "taf": "TAF LRTM 261100Z 2612/2621 26009KT CAVOK"
    },
    {
      "icao": "LRTR",
      "alert": "OK",
      "vis_m": 9999,
      "fzfg": false,
      "metar_trigger": false,
      "taf_trigger": false,
      "metar": "METAR LRTR 261400Z 33005KT 9999 SCT008 OVC010 02/02 Q1028",
      "taf": "TAF LRTR 261100Z 2612/2712 31006KT 9999 OVC010"
    },
    {
      "icao": "LTAC",
      "alert": "OK",
      "vis_m": 9999,
      "fzfg": false,
      "metar_trigger": false,
      "taf_trigger": false,
      "metar": "METAR LTAC 261350Z 28007KT 9999 BKN021 BKN080 06/02 Q1014 NOSIG RMK RWY21C 25008KT RWY03L 28006KT RWY21R 25008KT RWY03R 27007KT RWY21L 27008KT",
      "taf": "TAF LTAC 261040Z 2612/2712 29012KT 9999 BKN025 BKN080"
    },
    {
      "icao": "LTFM",
      "alert": "OK",
      "vis_m": 9999,
      "fzfg": false,
      "metar_trigger": false,
      "taf_trigger": false,
      "metar": "METAR LTFM 261350Z 33006KT 300V360 9999 SCT032 06/01 Q1020 NOSIG RMK RWY17L 32005KT 280V340 RWY34L 32005KT RWY16R 35003KT 320V020 RWY36 34006KT RWY18 VRB06KT",
      "taf": "TAF LTFM 261040Z 2612/2718 35012KT 9999 BKN032"
    },
    {
      "icao": "LUKK",
      "alert": "OK",
      "vis_m": 9999,
      "fzfg": false,
      "metar_trigger": false,
      "taf_trigger": false,
      "metar": "METAR LUKK 261400Z 33013KT 300V360 9999 BKN016 OVC033 M02/M05 Q1017 TEMPO 35018G30KT",
      "taf": "TAF LUKK 261121Z 2612/2712 30014KT 9999 BKN015"
    },
    {
      "icao": "LWOH",
      "alert": "OK",
      "vis_m": null,
      "fzfg": false,
      "metar_trigger": false,
      "taf_trigger": false,
      "metar": "",
      "taf": "TAF LWOH 261111Z 2612/2712 31010KT 9999 FEW020 BKN035"
    },
    {
      "icao": "LWSK",
      "alert": "OK",
      "vis_m": null,
      "fzfg": false,
      "metar_trigger": false,
      "taf_trigger": false,
      "metar": "",
      "taf": "TAF LWSK 261111Z 2612/2712 VRB03KT 9999 SCT015 OVC030"
    },
    {
      "icao": "LYBE",
      "alert": "OK",
      "vis_m": 9999,
      "fzfg": false,
      "metar_trigger": false,
      "taf_trigger": false,
      "metar": "METAR LYBE 261400Z 25007KT 9999 SCT017 BKN033 02/M01 Q1029 NOSIG",
      "taf": "TAF LYBE 261100Z 2612/2712 27005KT 9999 BKN015 BKN030 TX03/2612Z TNM00/2706Z"
    },
    {
      "icao": "LYNI",
      "alert": "OK",
      "vis_m": 9999,
      "fzfg": false,
      "metar_trigger": false,
      "taf_trigger": false,
      "metar": "METAR LYNI 261400Z 23004KT 170V260 9999 SCT009 OVC014 01/M01 Q1028 NOSIG",
      "taf": ""
    },
    {
      "icao": "LYPG",
      "alert": "OK",
      "vis_m": 9999,
      "fzfg": false,
      "metar_trigger": false,
      "taf_trigger": false,
      "metar": "METAR LYPG 261400Z 14004KT 110V170 CAVOK 11/04 Q1022 NOSIG",
      "taf": "TAF LYPG 261100Z 2612/2712 18005KT CAVOK TX13/2613Z TN05/2705Z"
    },
    {
      "icao": "LZIB",
      "alert": "OK",
      "vis_m": 9999,
      "fzfg": false,
      "metar_trigger": false,
      "taf_trigger": false,
      "metar": "METAR LZIB 261400Z 27007KT CAVOK 06/M02 Q1028 NOSIG",
      "taf": "TAF LZIB 261115Z 2612/2712 21006KT 9999 FEW045"
    },
    {
      "icao": "LZKZ",
      "alert": "OK",
      "vis_m": 9999,
      "fzfg": false,
      "metar_trigger": false,
      "taf_trigger": false,
      "metar": "METAR LZKZ 261400Z 26002KT CAVOK 02/M02 Q1027 NOSIG",
      "taf": "TAF LZKZ 261115Z 2612/2712 VRB02KT CAVOK"
    },
    {
      "icao": "LZTT",
      "alert": "OK",
      "vis_m": 9999,
      "fzfg": false,
      "metar_trigger": false,
      "taf_trigger": false,
      "metar": "METAR LZTT 261400Z 28007KT 9999 FEW043 01/M06 Q1025 NOSIG",
      "taf": "TAF LZTT 261115Z 2612/2712 28005KT 9999 SCT070"
    },
    {
      "icao": "OEJN",
      "alert": "OK",
      "vis_m": 9999,
      "fzfg": false,
      "metar_trigger": false,
      "taf_trigger": false,
      "metar": "METAR OEJN 261400Z 31009KT 9999 FEW035 27/23 Q1010 NOSIG",
      "taf": "TAF OEJN 261100Z 2612/2718 30010KT 9999 SCT040"
    },
    {
      "icao": "OEMA",
      "alert": "OK",
      "vis_m": 9999,
      "fzfg": false,
      "metar_trigger": false,
      "taf_trigger": false,
      "metar": "METAR OEMA 261400Z 25007KT 9999 SCT040 26/10 Q1012 NOSIG",
      "taf": "TAF OEMA 261100Z 2612/2718 26010KT 9999 SCT045"
    },
    {
      "icao": "OJAI",
      "alert": "OK",
      "vis_m": 4000,
      "fzfg": false,
      "metar_trigger": false,
      "taf_trigger": false,
      "metar": "METAR OJAI 261400Z 31011KT 4000 HZ NSC 15/05 Q1015 NOSIG",
      "taf": "TAF OJAI 261045Z 2612/2718 28010KT 4000 HZ NSC"
    },
    {
      "icao": "OMAA",
      "alert": "OK",
      "vis_m": 9999,
      "fzfg": false,
      "metar_trigger": false,
      "taf_trigger": false,
      "metar": "METAR OMAA 261400Z 30009KT 9999 SCT025 23/17 Q1014 NOSIG",
      "taf": "TAF OMAA 261100Z 2612/2718 32013KT 8000 FEW030"
    },
    {
      "icao": "OMDB",
      "alert": "OK",
      "vis_m": 9999,
      "fzfg": false,
      "metar_trigger": false,
      "taf_trigger": false,
      "metar": "METAR OMDB 261400Z 02007KT 350V050 CAVOK 23/13 Q1014 NOSIG",
      "taf": "TAF OMDB 261100Z 2612/2718 33010KT 8000 FEW040"
    },
    {
      "icao": "UAAA",
      "alert": "OK",
      "vis_m": 1000,
      "fzfg": false,
      "metar_trigger": false,
      "taf_trigger": false,
      "metar": "METAR UAAA 261400Z VRB01MPS 1000 R23L/P2000 -RA BR BKN012 OVC020 01/M00 Q1025 NOSIG",
      "taf": "TAF UAAA 261106Z 2612/2712 24003G08MPS 1500 BR SCT007 BKN015CB OVC030 TX00/2709Z TNM04/2701Z"
    },
    {
      "icao": "UBBB",
      "alert": "OK",
      "vis_m": 9999,
      "fzfg": false,
      "metar_trigger": false,
      "taf_trigger": false,
      "metar": "METAR UBBB 261400Z 14008KT 9999 FEW015 OVC025 07/05 Q1014 NOSIG",
      "taf": "TAF UBBB 261057Z 2612/2712 17005KT 9999 BKN008 OVC017 TX06/2612Z TN03/2701Z"
    },
    {
      "icao": "UDSG",
      "alert": "OK",
      "vis_m": 3800,
      "fzfg": false,
      "metar_trigger": false,
      "taf_trigger": false,
      "metar": "METAR UDSG 261400Z 31002KT 3800 BR OVC033 M01/M03 Q1012 NOSIG",
      "taf": "TAF UDSG 261058Z 2612/2712 VRB06KT 3000 BR OVC020"
    },
    {
      "icao": "UDYZ",
      "alert": "OK",
      "vis_m": 5000,
      "fzfg": false,
      "metar_trigger": false,
      "taf_trigger": false,
      "metar": "METAR UDYZ 261400Z 24003KT 5000 BR BKN046 03/M01 Q1014 NOSIG",
      "taf": "TAF UDYZ 261100Z 2612/2712 VRB04KT 3500 BR BKN030"
    },
    {
      "icao": "UGKO",
      "alert": "OK",
      "vis_m": 9999,
      "fzfg": false,
      "metar_trigger": false,
      "taf_trigger": false,
      "metar": "METAR UGKO 261400Z 24005KT 9999 BKN065 08/05 Q1014 NOSIG",
      "taf": "TAF UGKO 261100Z 2612/2712 09006KT 9999 OVC050 TX10/2612Z TN03/2703Z"
    }
  ]
}