{
  "ts_utc": "2026-01-30T21:03:16Z",
  "threshold_m": 150,
  "source": "stations_override.txt (ICAO list) + aviationweather.gov (METAR/TAF raw)",
  "station_count": 159,
  "stations": [
    {
      "icao": "BIKF",
      "alert": "OK",
      "vis_m": 9999,
      "fzfg": false,
      "metar_trigger": false,
      "taf_trigger": false,
      "metar": "METAR BIKF 302030Z 05004KT CAVOK 02/01 Q1001",
      "taf": "TAF BIKF 301923Z 3021/3121 02008KT 9999 SCT040 TX03/3115Z TNM02/3023Z"
    },
    {
      "icao": "BKPR",
      "alert": "OK",
      "vis_m": 8000,
      "fzfg": false,
      "metar_trigger": false,
      "taf_trigger": false,
      "metar": "METAR BKPR 302100Z 33004KT 8000 FEW008 SCT050 04/04 Q1001 TEMPO 4000 BR",
      "taf": "TAF BKPR 301730Z 3018/3118 VRB05KT 9999 SCT015 BKN030"
    },
    {
      "icao": "EBCI",
      "alert": "OK",
      "vis_m": 9999,
      "fzfg": false,
      "metar_trigger": false,
      "taf_trigger": false,
      "metar": "METAR EBCI 302050Z 14009KT 9999 SCT010 05/04 Q0994 TEMPO BKN008",
      "taf": "TAF EBCI 301720Z 3018/3124 16007KT 9999 BKN008"
    },
    {
      "icao": "EDDB",
      "alert": "OK",
      "vis_m": 6000,
      "fzfg": false,
      "metar_trigger": false,
      "taf_trigger": false,
      "metar": "METAR EDDB 302050Z AUTO 09010KT 6000 -SN BKN010 M02/M04 Q1007 TEMPO 4000 BR BKN009",
      "taf": "TAF EDDB 301700Z 3018/3118 08012KT 6000 SCT004 OVC009"
    },
    {
      "icao": "EDDH",
      "alert": "OK",
      "vis_m": 9000,
      "fzfg": false,
      "metar_trigger": false,
      "taf_trigger": false,
      "metar": "METAR EDDH 302050Z AUTO 11012KT 070V130 9000 OVC010 M01/M03 Q1004 TEMPO OVC008",
      "taf": "TAF EDDH 301700Z 3018/3124 10012KT 9000 OVC012"
    },
    {
      "icao": "EDDK",
      "alert": "OK",
      "vis_m": 9999,
      "fzfg": false,
      "metar_trigger": false,
      "taf_trigger": false,
      "metar": "METAR EDDK 302050Z AUTO 14007KT 100V170 9999 SCT012 OVC045 03/01 Q0998 TEMPO BKN012",
      "taf": "TAF EDDK 301700Z 3018/3124 12009KT 9999 OVC014"
    },
    {
      "icao": "EDDN",
      "alert": "OK",
      "vis_m": 9999,
      "fzfg": false,
      "metar_trigger": false,
      "taf_trigger": false,
      "metar": "METAR EDDN 302050Z AUTO 11008KT 9999 OVC016 01/M01 Q1001 NOSIG",
      "taf": "TAF EDDN 301700Z 3018/3118 13005KT 9999 OVC012"
    },
    {
      "icao": "EDDS",
      "alert": "OK",
      "vis_m": 3700,
      "fzfg": false,
      "metar_trigger": false,
      "taf_trigger": false,
      "metar": "METAR EDDS 302050Z AUTO 09002KT 3700 BR BKN016 BKN027 02/02 Q0999 TEMPO 2000",
      "taf": "TAF EDDS 301700Z 3018/3118 12004KT 9999 BKN015"
    },
    {
      "icao": "EDFH",
      "alert": "OK",
      "vis_m": 500,
      "fzfg": false,
      "metar_trigger": false,
      "taf_trigger": false,
      "metar": "METAR EDFH 302050Z 14012KT 0500 R21/0600N -RA FG OVC001 00/00 Q0997",
      "taf": "TAF EDFH 301700Z 3018/3118 14011KT 0600 FG VV002"
    },
    {
      "icao": "EDJA",
      "alert": "OK",
      "vis_m": 9999,
      "fzfg": false,
      "metar_trigger": false,
      "taf_trigger": false,
      "metar": "METAR EDJA 302050Z 20004KT 9999 BKN026 BKN035 01/00 Q1000",
      "taf": "TAF EDJA 301700Z 3018/3103 17004KT 9999 BKN020"
    },
    {
      "icao": "EDLW",
      "alert": "OK",
      "vis_m": 9999,
      "fzfg": false,
      "metar_trigger": false,
      "taf_trigger": false,
      "metar": "METAR EDLW 302050Z 11006KT 080V150 9999 FEW031 02/M00 Q0998",
      "taf": "TAF EDLW 301700Z 3018/3118 11007KT CAVOK"
    },
    {
      "icao": "EDNY",
      "alert": "OK",
      "vis_m": 2100,
      "fzfg": false,
      "metar_trigger": false,
      "taf_trigger": false,
      "metar": "METAR EDNY 302050Z VRB01KT 2100 RA BR FEW001 BKN026 M00/M00 Q1001",
      "taf": "TAF EDNY 301700Z 3018/3103 VRB02KT 6000 SCT008 BKN015"
    },
    {
      "icao": "EDSB",
      "alert": "OK",
      "vis_m": 5000,
      "fzfg": false,
      "metar_trigger": false,
      "taf_trigger": false,
      "metar": "METAR EDSB 302050Z 02002KT 5000 BR FEW018 OVC045 03/02 Q0999",
      "taf": ""
    },
    {
      "icao": "EETN",
      "alert": "OK",
      "vis_m": 200,
      "fzfg": true,
      "metar_trigger": false,
      "taf_trigger": false,
      "metar": "METAR EETN 302050Z 12001KT 0200 R08/0650U FZFG VV001 M19/M21 Q1028 TEMPO 0800",
      "taf": ""
    },
    {
      "icao": "EFTU",
      "alert": "OK",
      "vis_m": 9999,
      "fzfg": false,
      "metar_trigger": false,
      "taf_trigger": false,
      "metar": "METAR EFTU 302050Z AUTO 08003KT CAVOK M18/M19 Q1028",
      "taf": "TAF EFTU 302022Z 3021/3121 08003KT CAVOK"
    },
    {
      "icao": "EGBB",
      "alert": "OK",
      "vis_m": 6000,
      "fzfg": false,
      "metar_trigger": false,
      "taf_trigger": false,
      "metar": "METAR EGBB 302050Z 13015KT 6000 -RA BKN007 OVC011 08/06 Q0982 RERA REDZ",
      "taf": "TAF EGBB 301704Z 3018/3118 12010KT 9999 SCT025"
    },
    {
      "icao": "EGGP",
      "alert": "OK",
      "vis_m": 8000,
      "fzfg": false,
      "metar_trigger": false,
      "taf_trigger": false,
      "metar": "METAR EGGP 302050Z 08014KT 8000 -RA FEW023 BKN034 07/05 Q0983",
      "taf": ""
    },
    {
      "icao": "EGGW",
      "alert": "OK",
      "vis_m": 9999,
      "fzfg": false,
      "metar_trigger": false,
      "taf_trigger": false,
      "metar": "METAR EGGW 302050Z AUTO 16011KT 140V200 9999 FEW005 BKN011 BKN018 07/06 Q0985",
      "taf": ""
    },
    {
      "icao": "EGKK",
      "alert": "OK",
      "vis_m": 9999,
      "fzfg": false,
      "metar_trigger": false,
      "taf_trigger": false,
      "metar": "METAR EGKK 302050Z 20006KT 9999 FEW022 08/05 Q0987",
      "taf": ""
    },
    {
      "icao": "EGNM",
      "alert": "OK",
      "vis_m": 1400,
      "fzfg": false,
      "metar_trigger": false,
      "taf_trigger": false,
      "metar": "METAR EGNM 302050Z 10015KT 1400 R14/P1500N -DZ FG OVC002 05/05 Q0987",
      "taf": "TAF EGNM 301701Z 3018/3118 10009KT 6000 BKN003"
    },
    {
      "icao": "EGPD",
      "alert": "OK",
      "vis_m": 5000,
      "fzfg": false,
      "metar_trigger": false,
      "taf_trigger": false,
      "metar": "METAR EGPD 302050Z AUTO 13011KT 090V160 5000 -RA BKN010/// BKN016/// OVC028/// //////TCU 04/02 Q0995 RERA TEMPO 4000 RADZ BKN009",
      "taf": ""
    },
    {
      "icao": "EGPF",
      "alert": "OK",
      "vis_m": 9999,
      "fzfg": false,
      "metar_trigger": false,
      "taf_trigger": false,
      "metar": "METAR EGPF 302050Z AUTO 07015KT 9999 BKN016 OVC022 05/03 Q0990",
      "taf": "TAF EGPF 301658Z 3018/3118 08012KT 9999 FEW018 SCT030"
    },
    {
      "icao": "EHBK",
      "alert": "OK",
      "vis_m": 9999,
      "fzfg": false,
      "metar_trigger": false,
      "taf_trigger": false,
      "metar": "METAR EHBK 302055Z AUTO 13007KT 9999 NCD 04/02 Q0996 NOSIG",
      "taf": "TAF EHBK 301708Z 3018/3124 15007KT 9999 BKN016"
    },
    {
      "icao": "EHEH",
      "alert": "OK",
      "vis_m": null,
      "fzfg": false,
      "metar_trigger": false,
      "taf_trigger": false,
      "metar": "",
      "taf": "TAF EHEH 301800Z 3019/0101 12007KT 9999 SCT016 BKN040"
    },
    {
      "icao": "EKBI",
      "alert": "OK",
      "vis_m": 9999,
      "fzfg": false,
      "metar_trigger": false,
      "taf_trigger": false,
      "metar": "METAR EKBI 302050Z AUTO 10016KT 9999 BKN014/// OVC035/// M00/M03 Q1007",
      "taf": "TAF EKBI 302027Z 3021/3121 10018KT 9999 BKN015"
    },
    {
      "icao": "EKCH",
      "alert": "OK",
      "vis_m": 9999,
      "fzfg": false,
      "metar_trigger": false,
      "taf_trigger": false,
      "metar": "METAR EKCH 302050Z AUTO 09020KT 9999 FEW015/// OVC049/// M00/M03 Q1011 TEMPO 09020G30KT",
      "taf": "TAF EKCH 302027Z 3021/3121 09018KT 9999 -SN BKN015"
    },
    {
      "icao": "ENAL",
      "alert": "OK",
      "vis_m": 9999,
      "fzfg": false,
      "metar_trigger": false,
      "taf_trigger": false,
      "metar": "METAR ENAL 302050Z 14012KT CAVOK M01/M12 Q1011",
      "taf": "TAF ENAL 302000Z 3021/3106 14012KT CAVOK"
    },
    {
      "icao": "ENBR",
      "alert": "OK",
      "vis_m": 9999,
      "fzfg": false,
      "metar_trigger": false,
      "taf_trigger": false,
      "metar": "METAR ENBR 302050Z VRB02KT CAVOK M05/M15 Q1011 RMK WIND 1200FT 10005KT",
      "taf": "TAF ENBR 301700Z 3018/3118 VRB03KT CAVOK"
    },
    {
      "icao": "ENGM",
      "alert": "OK",
      "vis_m": 9999,
      "fzfg": false,
      "metar_trigger": false,
      "taf_trigger": false,
      "metar": "METAR ENGM 302050Z 07007KT 9999 -SN OVC035 M07/M10 Q1020 NOSIG",
      "taf": "TAF ENGM 301700Z 3018/3118 03008KT 9999 -SN FEW020 BKN030"
    },
    {
      "icao": "ENHD",
      "alert": "OK",
      "vis_m": 9999,
      "fzfg": false,
      "metar_trigger": false,
      "taf_trigger": false,
      "metar": "METAR ENHD 302050Z AUTO 09016KT 9999 NCD M02/M11 Q1010",
      "taf": "TAF ENHD 301400Z 3015/3023 10015KT CAVOK"
    },
    {
      "icao": "ENTC",
      "alert": "OK",
      "vis_m": 9999,
      "fzfg": false,
      "metar_trigger": false,
      "taf_trigger": false,
      "metar": "METAR ENTC 302050Z 17010KT CAVOK M06/M14 Q1020 NOSIG RMK WIND 2600FT 18032KT",
      "taf": "TAF ENTC 301700Z 3018/3118 19014KT CAVOK"
    },
    {
      "icao": "ENTO",
      "alert": "OK",
      "vis_m": 9999,
      "fzfg": false,
      "metar_trigger": false,
      "taf_trigger": false,
      "metar": "METAR ENTO 302050Z 07005KT 040V100 9999 -SHSN FEW025 BKN034 M04/M09 Q1018 NOSIG",
      "taf": "TAF ENTO 301700Z 3018/3118 07010KT 9999 -SN FEW020 BKN030"
    },
    {
      "icao": "ENVA",
      "alert": "OK",
      "vis_m": 9999,
      "fzfg": false,
      "metar_trigger": false,
      "taf_trigger": false,
      "metar": "METAR ENVA 302050Z 09008KT 050V140 CAVOK M05/M14 Q1016 RMK WIND 670FT 16023G42KT",
      "taf": "TAF ENVA 301700Z 3018/3118 12010KT CAVOK"
    },
    {
      "icao": "ENZV",
      "alert": "OK",
      "vis_m": 9999,
      "fzfg": false,
      "metar_trigger": false,
      "taf_trigger": false,
      "metar": "METAR ENZV 302050Z 09014KT CAVOK M01/M11 Q1010",
      "taf": "TAF ENZV 301700Z 3018/3118 10015KT 9999 BKN045"
    },
    {
      "icao": "EPGD",
      "alert": "OK",
      "vis_m": 9999,
      "fzfg": false,
      "metar_trigger": false,
      "taf_trigger": false,
      "metar": "METAR EPGD 302100Z 09008KT CAVOK M13/M15 Q1016",
      "taf": "TAF EPGD 301730Z 3018/3118 10012KT CAVOK"
    },
    {
      "icao": "EPKK",
      "alert": "OK",
      "vis_m": 4700,
      "fzfg": false,
      "metar_trigger": false,
      "taf_trigger": false,
      "metar": "METAR EPKK 302100Z 07014KT 4700 -FZDZ BR BKN005 OVC006 M02/M03 Q1006",
      "taf": "TAF EPKK 302030Z 3021/3121 06015KT 3000 BR OVC006"
    },
    {
      "icao": "EPKT",
      "alert": "OK",
      "vis_m": 5000,
      "fzfg": false,
      "metar_trigger": false,
      "taf_trigger": false,
      "metar": "METAR EPKT 302100Z 06012KT 5000 -FZDZ BR BKN004 OVC006 M03/M04 Q1006",
      "taf": "TAF EPKT 301730Z 3018/3118 06012KT 9999 OVC010"
    },
    {
      "icao": "EPLB",
      "alert": "OK",
      "vis_m": 9999,
      "fzfg": false,
      "metar_trigger": false,
      "taf_trigger": false,
      "metar": "METAR EPLB 302100Z 06015KT 9999 OVC011 M10/M11 Q1012",
      "taf": "TAF EPLB 301730Z 3018/3118 08011KT 9999 BKN012"
    },
    {
      "icao": "EPMO",
      "alert": "OK",
      "vis_m": 9999,
      "fzfg": false,
      "metar_trigger": false,
      "taf_trigger": false,
      "metar": "METAR EPMO 302100Z 07014KT CAVOK M11/M13 Q1014",
      "taf": "TAF EPMO 301730Z 3018/3118 07013KT 9999 FEW013"
    },
    {
      "icao": "EPPO",
      "alert": "OK",
      "vis_m": 9999,
      "fzfg": false,
      "metar_trigger": false,
      "taf_trigger": false,
      "metar": "METAR EPPO 302100Z 08011KT 9999 BKN013 OVC040 M05/M08 Q1010",
      "taf": "TAF EPPO 301730Z 3018/3118 09010KT 9999 BKN015"
    },
    {
      "icao": "EPRA",
      "alert": "OK",
      "vis_m": 9999,
      "fzfg": false,
      "metar_trigger": false,
      "taf_trigger": false,
      "metar": "METAR EPRA 302100Z 07013KT 9999 OVC012 M08/M11 Q1011",
      "taf": "TAF EPRA 302030Z 3021/3106 07012KT 9999 OVC012"
    },
    {
      "icao": "EPRZ",
      "alert": "OK",
      "vis_m": 9999,
      "fzfg": false,
      "metar_trigger": false,
      "taf_trigger": false,
      "metar": "METAR EPRZ 302100Z 06011KT 9999 OVC010 M04/M06 Q1008",
      "taf": "TAF EPRZ 301730Z 3018/3118 06012KT 8000 OVC006"
    },
    {
      "icao": "EPSC",
      "alert": "OK",
      "vis_m": 8000,
      "fzfg": false,
      "metar_trigger": false,
      "taf_trigger": false,
      "metar": "METAR EPSC 302100Z 09009KT 8000 OVC009 M04/M06 Q1010",
      "taf": "TAF EPSC 301730Z 3018/3118 08012KT 9999 BKN008 BKN012"
    },
    {
      "icao": "EPSY",
      "alert": "OK",
      "vis_m": 9999,
      "fzfg": false,
      "metar_trigger": false,
      "taf_trigger": false,
      "metar": "METAR EPSY 302100Z 09004KT 030V130 CAVOK M13/M15 Q1016",
      "taf": "TAF EPSY 302030Z 3021/3106 07006KT CAVOK"
    },
    {
      "icao": "EPWA",
      "alert": "OK",
      "vis_m": 9999,
      "fzfg": false,
      "metar_trigger": false,
      "taf_trigger": false,
      "metar": "METAR EPWA 302100Z 08012KT 9999 FEW015 M09/M12 Q1013 NOSIG",
      "taf": "TAF EPWA 302030Z 3021/3121 08011KT CAVOK"
    },
    {
      "icao": "EPWR",
      "alert": "OK",
      "vis_m": 8000,
      "fzfg": false,
      "metar_trigger": false,
      "taf_trigger": false,
      "metar": "METAR EPWR 302100Z 08011KT 8000 SCT012 OVC026 M02/M04 Q1007",
      "taf": "TAF EPWR 302030Z 3021/3121 07012KT 9999 OVC020"
    },
    {
      "icao": "ESGG",
      "alert": "OK",
      "vis_m": 9999,
      "fzfg": false,
      "metar_trigger": false,
      "taf_trigger": false,
      "metar": "METAR ESGG 302050Z 10010KT 9999 BKN028 M04/M10 Q1015",
      "taf": "TAF ESGG 302030Z 3021/3121 10010KT 9999 BKN030"
    },
    {
      "icao": "ESKN",
      "alert": "OK",
      "vis_m": 9999,
      "fzfg": false,
      "metar_trigger": false,
      "taf_trigger": false,
      "metar": "METAR ESKN 302050Z 13011KT 9999 SCT034 M03/M09 Q1022",
      "taf": "TAF ESKN 302030Z 3021/3121 12010KT 9999 BKN030"
    },
    {
      "icao": "ESMS",
      "alert": "OK",
      "vis_m": 9999,
      "fzfg": false,
      "metar_trigger": false,
      "taf_trigger": false,
      "metar": "METAR ESMS 302050Z 09017KT 9999 BKN013 M01/M03 Q1011",
      "taf": "TAF ESMS 302027Z 3021/3121 09018KT 9999 OVC012"
    },
    {
      "icao": "ESSA",
      "alert": "OK",
      "vis_m": 9999,
      "fzfg": false,
      "metar_trigger": false,
      "taf_trigger": false,
      "metar": "METAR ESSA 302050Z 07007KT 9999 FEW035 M07/M11 Q1024 NOSIG",
      "taf": "TAF ESSA 302030Z 3021/3121 08009KT 9999 BKN030"
    },
    {
      "icao": "EYKA",
      "alert": "OK",
      "vis_m": 9999,
      "fzfg": false,
      "metar_trigger": false,
      "taf_trigger": false,
      "metar": "METAR EYKA 302050Z 08006KT CAVOK M17/M19 Q1022",
      "taf": "TAF EYKA 301706Z 3018/3118 05005KT 9000 NSC"
    },
    {
      "icao": "EYPA",
      "alert": "OK",
      "vis_m": 9999,
      "fzfg": false,
      "metar_trigger": false,
      "taf_trigger": false,
      "metar": "METAR EYPA 302050Z 10008KT CAVOK M13/M20 Q1022",
      "taf": "TAF EYPA 301705Z 3018/3118 09008KT 9000 NSC"
    },
    {
      "icao": "EYVI",
      "alert": "OK",
      "vis_m": 9999,
      "fzfg": false,
      "metar_trigger": false,
      "taf_trigger": false,
      "metar": "METAR EYVI 302050Z 06008KT CAVOK M15/M18 Q1020 NOSIG",
      "taf": "TAF EYVI 301706Z 3018/3118 06008KT 9000 NSC"
    },
    {
      "icao": "GCFV",
      "alert": "OK",
      "vis_m": 9999,
      "fzfg": false,
      "metar_trigger": false,
      "taf_trigger": false,
      "metar": "METAR GCFV 302030Z 36011KT 9999 BKN022 19/13 Q1025",
      "taf": "TAF GCFV 302000Z 3021/3121 01014KT 9999 BKN022 TX23/3114Z TN18/3106Z"
    },
    {
      "icao": "GCLP",
      "alert": "OK",
      "vis_m": 9999,
      "fzfg": false,
      "metar_trigger": false,
      "taf_trigger": false,
      "metar": "METAR GCLP 302030Z 36016KT 9999 BKN025 19/13 Q1024 NOSIG",
      "taf": "TAF GCLP 302000Z 3021/3121 36018KT 9999 BKN025 TX22/3114Z TN17/3106Z"
    },
    {
      "icao": "GCTS",
      "alert": "OK",
      "vis_m": 9999,
      "fzfg": false,
      "metar_trigger": false,
      "taf_trigger": false,
      "metar": "METAR GCTS 302030Z VRB02KT 9999 BKN025 20/14 Q1025 NOSIG",
      "taf": "TAF GCTS 302000Z 3021/3121 03007KT 9999 SCT020 TX23/3114Z TN14/3106Z"
    },
    {
      "icao": "GMAD",
      "alert": "OK",
      "vis_m": 8000,
      "fzfg": false,
      "metar_trigger": false,
      "taf_trigger": false,
      "metar": "METAR GMAD 302100Z 15005KT 8000 FEW020 16/16 Q1022 NOSIG",
      "taf": "TAF GMAD 301700Z 3018/3124 20008KT 8000 SCT016"
    },
    {
      "icao": "GMMN",
      "alert": "OK",
      "vis_m": 8000,
      "fzfg": false,
      "metar_trigger": false,
      "taf_trigger": false,
      "metar": "METAR GMMN 302100Z 23009KT 8000 -DZ BKN004 16/14 Q1023 NOSIG",
      "taf": "TAF GMMN 301700Z 3018/3124 24010KT 9999 BKN016"
    },
    {
      "icao": "GMMX",
      "alert": "OK",
      "vis_m": 9999,
      "fzfg": false,
      "metar_trigger": false,
      "taf_trigger": false,
      "metar": "METAR GMMX 302100Z 35005KT 320V020 9999 BKN020 16/13 Q1023 NOSIG",
      "taf": "TAF GMMX 301700Z 3018/3124 28006KT 9999 BKN020"
    },
    {
      "icao": "HEGN",
      "alert": "OK",
      "vis_m": 9999,
      "fzfg": false,
      "metar_trigger": false,
      "taf_trigger": false,
      "metar": "METAR HEGN 302000Z 20002KT CAVOK 18/12 Q1016 NOSIG",
      "taf": "TAF HEGN 301700Z 3018/3124 13008KT CAVOK"
    },
    {
      "icao": "HEMA",
      "alert": "OK",
      "vis_m": 9999,
      "fzfg": false,
      "metar_trigger": false,
      "taf_trigger": false,
      "metar": "METAR HEMA 302000Z 21005KT CAVOK 18/08 Q1016 NOSIG",
      "taf": "TAF HEMA 301700Z 3018/3124 07008KT CAVOK"
    },
    {
      "icao": "HESH",
      "alert": "OK",
      "vis_m": 9999,
      "fzfg": false,
      "metar_trigger": false,
      "taf_trigger": false,
      "metar": "METAR HESH 302000Z 32003KT CAVOK 18/10 Q1015 NOSIG",
      "taf": "TAF HESH 301700Z 3018/3124 30008KT CAVOK"
    },
    {
      "icao": "HESX",
      "alert": "OK",
      "vis_m": 9999,
      "fzfg": false,
      "metar_trigger": false,
      "taf_trigger": false,
      "metar": "METAR HESX 302000Z 20005KT CAVOK 16/03 Q1014 NOSIG",
      "taf": "TAF HESX 301700Z 3018/3124 28012KT 7000 NSC"
    },
    {
      "icao": "LATI",
      "alert": "OK",
      "vis_m": 9999,
      "fzfg": false,
      "metar_trigger": false,
      "taf_trigger": false,
      "metar": "METAR LATI 301950Z 17007KT 9999 SCT046 BKN080 08/05 Q1002 NOSIG",
      "taf": "TAF LATI 301700Z 3018/3118 VRB05KT 9999 RA FEW030CB BKN050 TX14/3112Z TN05/3105Z"
    },
    {
      "icao": "LBPD",
      "alert": "OK",
      "vis_m": 9999,
      "fzfg": false,
      "metar_trigger": false,
      "taf_trigger": false,
      "metar": "METAR LBPD 302100Z AUTO 00000KT 9999 OVC065/// 07/06 Q1002",
      "taf": "TAF LBPD 301700Z 3018/3118 27010KT 9999 SCT030 BKN050"
    },
    {
      "icao": "LBSF",
      "alert": "OK",
      "vis_m": 7000,
      "fzfg": false,
      "metar_trigger": false,
      "taf_trigger": false,
      "metar": "METAR LBSF 302100Z AUTO 13004KT 7000 OVC086/// 02/01 Q1002 TEMPO 5000 BR",
      "taf": "TAF LBSF 301700Z 3018/3118 28010KT 9999 SCT030 BKN050"
    },
    {
      "icao": "LBWN",
      "alert": "OK",
      "vis_m": 9999,
      "fzfg": false,
      "metar_trigger": false,
      "taf_trigger": false,
      "metar": "METAR LBWN 302100Z AUTO 32008KT 290V350 9999 -SHRA NSC 03/02 Q1003 NOSIG",
      "taf": "TAF LBWN 301700Z 3018/3118 28010KT 9999 BKN020 OVC030"
    },
    {
      "icao": "LCLK",
      "alert": "OK",
      "vis_m": 9999,
      "fzfg": false,
      "metar_trigger": false,
      "taf_trigger": false,
      "metar": "METAR LCLK 302100Z 23010KT CAVOK 15/12 Q1010 NOSIG",
      "taf": "TAF LCLK 301730Z 3018/3118 22009KT 9999 FEW030"
    },
    {
      "icao": "LCPH",
      "alert": "OK",
      "vis_m": 9999,
      "fzfg": false,
      "metar_trigger": false,
      "taf_trigger": false,
      "metar": "METAR LCPH 302100Z 26012KT 250V310 9999 FEW029 SCT033 17/12 Q1010 NOSIG",
      "taf": "TAF LCPH 301730Z 3018/3118 27018KT 9999 FEW025"
    },
    {
      "icao": "LEAL",
      "alert": "OK",
      "vis_m": 9999,
      "fzfg": false,
      "metar_trigger": false,
      "taf_trigger": false,
      "metar": "METAR LEAL 302030Z 27007KT CAVOK 12/05 Q1004 NOSIG",
      "taf": "TAF LEAL 301700Z 3018/3118 26009KT CAVOK TX18/3114Z TN11/3106Z"
    },
    {
      "icao": "LEBB",
      "alert": "OK",
      "vis_m": 9999,
      "fzfg": false,
      "metar_trigger": false,
      "taf_trigger": false,
      "metar": "METAR LEBB 302030Z 07003KT 010V100 9999 FEW050 09/06 Q0998 NOSIG",
      "taf": "TAF LEBB 301700Z 3018/3118 28009KT 9999 FEW035 TX13/3114Z TN07/3022Z"
    },
    {
      "icao": "LEBL",
      "alert": "OK",
      "vis_m": 9999,
      "fzfg": false,
      "metar_trigger": false,
      "taf_trigger": false,
      "metar": "METAR LEBL 302030Z 26006KT 200V310 9999 SCT025 13/06 Q1000 NOSIG",
      "taf": "TAF LEBL 301700Z 3018/3118 32009KT 9999 FEW050 TX15/3112Z TN09/3106Z"
    },
    {
      "icao": "LECH",
      "alert": "OK",
      "vis_m": 9000,
      "fzfg": false,
      "metar_trigger": false,
      "taf_trigger": false,
      "metar": "METAR LECH 302030Z AUTO 28003KT 240V320 9000 BKN060 OVC070 11/03 Q1001",
      "taf": ""
    },
    {
      "icao": "LEMD",
      "alert": "OK",
      "vis_m": 9999,
      "fzfg": false,
      "metar_trigger": false,
      "taf_trigger": false,
      "metar": "METAR LEMD 302030Z 25016KT 230V290 9999 FEW050 BKN070 09/06 Q1002 NOSIG",
      "taf": ""
    },
    {
      "icao": "LEMG",
      "alert": "OK",
      "vis_m": 9999,
      "fzfg": false,
      "metar_trigger": false,
      "taf_trigger": false,
      "metar": "METAR LEMG 302030Z 29017G28KT 260V320 9999 FEW070 17/08 Q1012 NOSIG",
      "taf": ""
    },
    {
      "icao": "LEVC",
      "alert": "OK",
      "vis_m": 9999,
      "fzfg": false,
      "metar_trigger": false,
      "taf_trigger": false,
      "metar": "METAR LEVC 302030Z 27021G32KT 230V300 9999 -RA FEW015 BKN050 13/07 Q1002 NOSIG",
      "taf": ""
    },
    {
      "icao": "LEXJ",
      "alert": "OK",
      "vis_m": 3900,
      "fzfg": false,
      "metar_trigger": false,
      "taf_trigger": false,
      "metar": "SPECI LEXJ 302046Z 29022KT 3900 SHRA SCT034TCU BKN043 OVC049 09/04 Q0998",
      "taf": "TAF LEXJ 302000Z 3021/3121 27009KT 9999 SCT040 TX13/3114Z TN08/3105Z"
    },
    {
      "icao": "LEZG",
      "alert": "OK",
      "vis_m": 9999,
      "fzfg": false,
      "metar_trigger": false,
      "taf_trigger": false,
      "metar": "METAR LEZG 302030Z 21008KT 170V230 9999 FEW060 10/05 Q0999 NOSIG",
      "taf": ""
    },
    {
      "icao": "LEZL",
      "alert": "OK",
      "vis_m": 9999,
      "fzfg": false,
      "metar_trigger": false,
      "taf_trigger": false,
      "metar": "METAR LEZL 302030Z 26013KT 220V280 CAVOK 16/11 Q1013 NOSIG",
      "taf": "TAF LEZL 302000Z 3021/3121 24015KT 9999 BKN020 TX17/3115Z TN10/3107Z"
    },
    {
      "icao": "LFBD",
      "alert": "OK",
      "vis_m": 9999,
      "fzfg": false,
      "metar_trigger": false,
      "taf_trigger": false,
      "metar": "METAR LFBD 302100Z AUTO 20009KT 9999 FEW023/// BKN034/// BKN230/// ///CB 08/07 Q0996 TEMPO 24015G30KT 3000 SHRA BKN010",
      "taf": "TAF LFBD 301700Z 3018/3124 21010KT 9999 BKN020 TX12/3114Z TN06/3106Z"
    },
    {
      "icao": "LFLL",
      "alert": "OK",
      "vis_m": 9999,
      "fzfg": false,
      "metar_trigger": false,
      "taf_trigger": false,
      "metar": "METAR LFLL 302100Z 14009KT CAVOK 06/03 Q0999 NOSIG",
      "taf": "TAF LFLL 301700Z 3018/3124 16008KT CAVOK"
    },
    {
      "icao": "LFLS",
      "alert": "OK",
      "vis_m": 9999,
      "fzfg": false,
      "metar_trigger": false,
      "taf_trigger": false,
      "metar": "METAR LFLS 302100Z AUTO 07012KT CAVOK 04/03 Q0999",
      "taf": "TAF LFLS 301400Z 3015/3115 09008KT 9999 SCT040"
    },
    {
      "icao": "LFMN",
      "alert": "OK",
      "vis_m": 9999,
      "fzfg": false,
      "metar_trigger": false,
      "taf_trigger": false,
      "metar": "METAR LFMN 302100Z 34008KT CAVOK 08/06 Q1000 NOSIG",
      "taf": "TAF LFMN 302000Z 3021/0103 33010KT 9999 FEW050"
    },
    {
      "icao": "LFOB",
      "alert": "OK",
      "vis_m": 9999,
      "fzfg": false,
      "metar_trigger": false,
      "taf_trigger": false,
      "metar": "METAR LFOB 302100Z AUTO 19012KT 9999 BKN015 BKN020 BKN028 08/07 Q0991 TEMPO 16015G25KT 4000 RA BKN012 SCT020TCU OVC045",
      "taf": "TAF LFOB 301700Z 3018/3118 13010KT 9999 BKN020 OVC045"
    },
    {
      "icao": "LFPO",
      "alert": "OK",
      "vis_m": 9999,
      "fzfg": false,
      "metar_trigger": false,
      "taf_trigger": false,
      "metar": "METAR LFPO 302100Z 19008KT 9999 FEW020 BKN040 09/07 Q0993 NOSIG",
      "taf": ""
    },
    {
      "icao": "LFSB",
      "alert": "OK",
      "vis_m": 9999,
      "fzfg": false,
      "metar_trigger": false,
      "taf_trigger": false,
      "metar": "METAR LFSB 302100Z AUTO 16006KT CAVOK 02/01 Q0999 NOSIG",
      "taf": ""
    },
    {
      "icao": "LGAV",
      "alert": "OK",
      "vis_m": 9999,
      "fzfg": false,
      "metar_trigger": false,
      "taf_trigger": false,
      "metar": "METAR LGAV 302050Z 00000KT 9999 FEW025 12/08 Q1002 NOSIG",
      "taf": "TAF LGAV 301700Z 3018/3118 VRB05KT 9999 FEW020"
    },
    {
      "icao": "LGTS",
      "alert": "OK",
      "vis_m": 9999,
      "fzfg": false,
      "metar_trigger": false,
      "taf_trigger": false,
      "metar": "METAR LGTS 302050Z 09005KT 9999 FEW025 07/06 Q1001 NOSIG",
      "taf": "TAF LGTS 301700Z 3018/3118 34008KT 9999 SCT025"
    },
    {
      "icao": "LHBP",
      "alert": "OK",
      "vis_m": 6000,
      "fzfg": false,
      "metar_trigger": false,
      "taf_trigger": false,
      "metar": "METAR LHBP 302100Z 36003KT 6000 -RA FEW005 SCT014 OVC018 03/02 Q1003 NOSIG",
      "taf": "TAF LHBP 301715Z 3018/3118 33005KT 5000 -RADZ BR SCT004 OVC015"
    },
    {
      "icao": "LHDC",
      "alert": "OK",
      "vis_m": 3400,
      "fzfg": false,
      "metar_trigger": false,
      "taf_trigger": false,
      "metar": "METAR LHDC 302045Z AUTO 07004KT 3400 -RA BR OVC004 04/03 Q1002",
      "taf": "TAF LHDC 301415Z 3015/3024 03008KT 7000 -DZ OVC012"
    },
    {
      "icao": "LIBD",
      "alert": "OK",
      "vis_m": 9999,
      "fzfg": false,
      "metar_trigger": false,
      "taf_trigger": false,
      "metar": "METAR LIBD 302050Z 23005KT CAVOK 04/04 Q1002",
      "taf": "TAF LIBD 301700Z 3018/3118 VRB05KT CAVOK"
    },
    {
      "icao": "LIBG",
      "alert": "OK",
      "vis_m": null,
      "fzfg": false,
      "metar_trigger": false,
      "taf_trigger": false,
      "metar": "",
      "taf": "TAF LIBG 301700Z 3018/3103 VRB05KT CAVOK"
    },
    {
      "icao": "LIBP",
      "alert": "OK",
      "vis_m": 8000,
      "fzfg": false,
      "metar_trigger": false,
      "taf_trigger": false,
      "metar": "METAR LIBP 301950Z AUTO 21003KT 8000 SCT023/// BKN230/// 06/06 Q1002",
      "taf": "TAF LIBP 301700Z 3018/3118 VRB05KT 7000 FEW050"
    },
    {
      "icao": "LIBR",
      "alert": "OK",
      "vis_m": 9999,
      "fzfg": false,
      "metar_trigger": false,
      "taf_trigger": false,
      "metar": "METAR LIBR 302050Z 27005KT CAVOK 08/06 Q1001",
      "taf": "TAF LIBR 301700Z 3018/3118 VRB05KT CAVOK"
    },
    {
      "icao": "LICA",
      "alert": "OK",
      "vis_m": 9999,
      "fzfg": false,
      "metar_trigger": false,
      "taf_trigger": false,
      "metar": "METAR LICA 301950Z AUTO 26009KT 9999 SCT045/// 11/08 Q1003",
      "taf": "TAF LICA 301700Z 3018/3118 26010KT 8000 SCT015"
    },
    {
      "icao": "LICC",
      "alert": "OK",
      "vis_m": 9999,
      "fzfg": false,
      "metar_trigger": false,
      "taf_trigger": false,
      "metar": "METAR LICC 302050Z 27012KT CAVOK 11/08 Q1003",
      "taf": "TAF LICC 301700Z 3018/3118 27010KT 9999 SCT020"
    },
    {
      "icao": "LICJ",
      "alert": "OK",
      "vis_m": 9999,
      "fzfg": false,
      "metar_trigger": false,
      "taf_trigger": false,
      "metar": "METAR LICJ 302050Z 28013KT 9999 FEW030 15/10 Q1005",
      "taf": "TAF LICJ 301700Z 3018/3118 27018KT 9999 FEW025"
    },
    {
      "icao": "LIMC",
      "alert": "OK",
      "vis_m": 5000,
      "fzfg": false,
      "metar_trigger": false,
      "taf_trigger": false,
      "metar": "METAR LIMC 302050Z VRB01KT 5000 BR BKN005 05/04 Q1002 NOSIG",
      "taf": "TAF LIMC 301700Z 3018/3124 VRB05KT 8000 BKN020"
    },
    {
      "icao": "LIME",
      "alert": "OK",
      "vis_m": 2500,
      "fzfg": false,
      "metar_trigger": false,
      "taf_trigger": false,
      "metar": "METAR LIME 302050Z 22003KT 190V280 2500 BR NSC 05/04 Q1001 NOSIG",
      "taf": "TAF LIME 301700Z 3018/3118 VRB04KT 4000 BR SCT015"
    },
    {
      "icao": "LIMF",
      "alert": "OK",
      "vis_m": 3000,
      "fzfg": false,
      "metar_trigger": false,
      "taf_trigger": false,
      "metar": "METAR LIMF 302050Z VRB01KT 3000 BCFG FEW001 03/01 Q1001",
      "taf": "TAF LIMF 301700Z 3018/3118 VRB04KT 4000 BR NSC"
    },
    {
      "icao": "LIMJ",
      "alert": "OK",
      "vis_m": 9999,
      "fzfg": false,
      "metar_trigger": false,
      "taf_trigger": false,
      "metar": "METAR LIMJ 302050Z 04008KT 9999 BKN050 10/04 Q1001",
      "taf": "TAF LIMJ 301700Z 3018/3118 04010KT 9999 SCT030"
    },
    {
      "icao": "LIPE",
      "alert": "OK",
      "vis_m": 500,
      "fzfg": false,
      "metar_trigger": false,
      "taf_trigger": false,
      "metar": "METAR LIPE 302050Z VRB02KT 0500 R12/1600N R30/1800D FG BKN001 05/05 Q1002",
      "taf": "TAF LIPE 301700Z 3018/3118 VRB04KT 4000 BR BKN012"
    },
    {
      "icao": "LIPH",
      "alert": "OK",
      "vis_m": 100,
      "fzfg": false,
      "metar_trigger": false,
      "taf_trigger": false,
      "metar": "METAR LIPH 302050Z 23006KT 0100 R07/0325N FG VV001 04/04 Q1002",
      "taf": "TAF LIPH 301700Z 3018/3118 VRB04KT 3000 BR BKN020"
    },
    {
      "icao": "LIPQ",
      "alert": "OK",
      "vis_m": 6000,
      "fzfg": false,
      "metar_trigger": false,
      "taf_trigger": false,
      "metar": "METAR LIPQ 302050Z AUTO VRB01KT 6000 FEW013/// BKN026/// OVC044/// 07/06 Q1002",
      "taf": "TAF LIPQ 301700Z 3018/3118 VRB04KT 9999 SCT030"
    },
    {
      "icao": "LIPR",
      "alert": "OK",
      "vis_m": 2000,
      "fzfg": false,
      "metar_trigger": false,
      "taf_trigger": false,
      "metar": "METAR LIPR 302050Z 25002KT 2000 BR BKN003 04/04 Q1002",
      "taf": "TAF LIPR 301700Z 3018/3118 VRB05KT 1400 BR BKN012"
    },
    {
      "icao": "LIPX",
      "alert": "OK",
      "vis_m": 300,
      "fzfg": false,
      "metar_trigger": false,
      "taf_trigger": false,
      "metar": "METAR LIPX 302050Z 25004KT 200V260 0300 R04/0550N FG VV002 05/05 Q1002",
      "taf": "TAF LIPX 301700Z 3018/3118 VRB05KT 0300 FG OVC003"
    },
    {
      "icao": "LIPY",
      "alert": "OK",
      "vis_m": 9000,
      "fzfg": false,
      "metar_trigger": false,
      "taf_trigger": false,
      "metar": "METAR LIPY 301950Z AUTO 26002KT 9000 OVC007/// 07/06 Q1002",
      "taf": "TAF LIPY 301700Z 3018/3118 VRB05KT 4000 BR BKN010"
    },
    {
      "icao": "LIPZ",
      "alert": "OK",
      "vis_m": 2000,
      "fzfg": false,
      "metar_trigger": false,
      "taf_trigger": false,
      "metar": "METAR LIPZ 302050Z 25005KT 230V300 2000 BR OVC003 05/05 Q1002 BECMG 1400 BR",
      "taf": "TAF LIPZ 301700Z 3018/3124 VRB04KT 3000 BR BKN020"
    },
    {
      "icao": "LIRF",
      "alert": "OK",
      "vis_m": 9999,
      "fzfg": false,
      "metar_trigger": false,
      "taf_trigger": false,
      "metar": "METAR LIRF 302050Z 12004KT 090V150 9999 FEW030 11/07 Q1001 NOSIG",
      "taf": "TAF LIRF 301700Z 3018/3124 07007KT 9999 FEW020"
    },
    {
      "icao": "LIRN",
      "alert": "OK",
      "vis_m": 8000,
      "fzfg": false,
      "metar_trigger": false,
      "taf_trigger": false,
      "metar": "METAR LIRN 302050Z 07003KT 8000 FEW020 SCT050 10/08 Q1002 NOSIG",
      "taf": "TAF LIRN 301700Z 3018/3118 VRB06KT 8000 FEW020"
    },
    {
      "icao": "LIRP",
      "alert": "OK",
      "vis_m": 9999,
      "fzfg": false,
      "metar_trigger": false,
      "taf_trigger": false,
      "metar": "METAR LIRP 302045Z 09008KT 9999 SCT015 SCT040 10/10 Q1000 NOSIG",
      "taf": "TAF LIRP 301700Z 3018/3118 12008KT 9999 FEW015 SCT030 BKN050"
    },
    {
      "icao": "LIRZ",
      "alert": "OK",
      "vis_m": 9999,
      "fzfg": false,
      "metar_trigger": false,
      "taf_trigger": false,
      "metar": "METAR LIRZ 301950Z AUTO 01003KT 9999 SCT060/// BKN085/// 08/05 Q1001",
      "taf": "TAF LIRZ 301700Z 3018/3118 VRB05KT 9999 FEW050"
    },
    {
      "icao": "LJLJ",
      "alert": "OK",
      "vis_m": 9999,
      "fzfg": false,
      "metar_trigger": false,
      "taf_trigger": false,
      "metar": "METAR LJLJ 302030Z 29003KT 9999 FEW020 BKN033 04/02 Q1002 NOSIG",
      "taf": "TAF LJLJ 301700Z 3018/3118 VRB02KT 9999 BKN020"
    },
    {
      "icao": "LKMT",
      "alert": "OK",
      "vis_m": 6000,
      "fzfg": false,
      "metar_trigger": false,
      "taf_trigger": false,
      "metar": "METAR LKMT 302100Z 04007KT 6000 OVC006 M01/M01 Q1004 NOSIG",
      "taf": "TAF LKMT 301700Z 3018/3118 02010KT 8000 OVC012"
    },
    {
      "icao": "LKPR",
      "alert": "OK",
      "vis_m": 3300,
      "fzfg": false,
      "metar_trigger": false,
      "taf_trigger": false,
      "metar": "METAR LKPR 302100Z 09006KT 3300 BR FEW003 OVC004 M01/M01 Q1003 NOSIG",
      "taf": "TAF LKPR 302000Z 3021/0103 07004KT 3000 BR BKN002 OVC005"
    },
    {
      "icao": "LLBG",
      "alert": "OK",
      "vis_m": 8000,
      "fzfg": false,
      "metar_trigger": false,
      "taf_trigger": false,
      "metar": "METAR LLBG 302050Z 16008KT 8000 NSC 15/10 Q1013 NOSIG",
      "taf": "TAF LLBG 301702Z 3018/3118 VRB03KT CAVOK"
    },
    {
      "icao": "LMML",
      "alert": "OK",
      "vis_m": 9999,
      "fzfg": false,
      "metar_trigger": false,
      "taf_trigger": false,
      "metar": "METAR LMML 301945Z 26018G28KT 9999 FEW016 15/11 Q1007 NOSIG",
      "taf": "TAF LMML 301700Z 3018/3118 28018G28KT 9999 FEW015"
    },
    {
      "icao": "LOWW",
      "alert": "OK",
      "vis_m": 9000,
      "fzfg": false,
      "metar_trigger": false,
      "taf_trigger": false,
      "metar": "METAR LOWW 302050Z 34004KT 9000 FEW034 BKN036 00/M01 Q1004 NOSIG",
      "taf": "TAF LOWW 302015Z 3021/0103 35005KT 8000 FEW010 OVC020 TX02/3113Z TNM00/3106Z"
    },
    {
      "icao": "LPFR",
      "alert": "OK",
      "vis_m": 9999,
      "fzfg": false,
      "metar_trigger": false,
      "taf_trigger": false,
      "metar": "METAR LPFR 302030Z 27022KT 9999 FEW018 15/12 Q1015",
      "taf": "TAF LPFR 301700Z 3018/3118 27017KT 9999 SCT012"
    },
    {
      "icao": "LPMA",
      "alert": "OK",
      "vis_m": 9999,
      "fzfg": false,
      "metar_trigger": false,
      "taf_trigger": false,
      "metar": "METAR LPMA 302030Z VRB02KT 9999 SCT015 19/16 Q1024",
      "taf": "TAF LPMA 301700Z 3018/3118 VRB05KT 9999 SCT015"
    },
    {
      "icao": "LPPR",
      "alert": "OK",
      "vis_m": 9999,
      "fzfg": false,
      "metar_trigger": false,
      "taf_trigger": false,
      "metar": "METAR LPPR 302030Z 30012G23KT 270V330 9999 SCT038 13/05 Q1008",
      "taf": ""
    },
    {
      "icao": "LPPS",
      "alert": "OK",
      "vis_m": 9999,
      "fzfg": false,
      "metar_trigger": false,
      "taf_trigger": false,
      "metar": "METAR LPPS 302030Z 32012KT 9999 SCT010 SCT030 17/17 Q1024",
      "taf": "TAF LPPS 301700Z 3018/3124 30010KT 9999 SCT013 BKN030"
    },
    {
      "icao": "LPPT",
      "alert": "OK",
      "vis_m": 9999,
      "fzfg": false,
      "metar_trigger": false,
      "taf_trigger": false,
      "metar": "METAR LPPT 302030Z 28012KT 9999 FEW012 SCT022 13/10 Q1014 WS R20",
      "taf": "TAF LPPT 301700Z 3018/3124 26015KT 9999 FEW008 SCT020"
    },
    {
      "icao": "LQBK",
      "alert": "OK",
      "vis_m": 9999,
      "fzfg": false,
      "metar_trigger": false,
      "taf_trigger": false,
      "metar": "METAR LQBK 302030Z 31003KT CAVOK 04/03 Q1003 NOSIG",
      "taf": "TAF LQBK 301700Z 3018/3118 07004KT CAVOK TX08/3113Z TN02/3105Z"
    },
    {
      "icao": "LQSA",
      "alert": "OK",
      "vis_m": 8000,
      "fzfg": false,
      "metar_trigger": false,
      "taf_trigger": false,
      "metar": "METAR LQSA 302030Z 00000KT 8000 SCT030 BKN040 04/04 Q1001 NOSIG",
      "taf": "TAF LQSA 301700Z 3018/3118 VRB02KT 9999 SCT012 BKN040 TX06/3113Z TN01/3106Z"
    },
    {
      "icao": "LQTZ",
      "alert": "OK",
      "vis_m": 9999,
      "fzfg": false,
      "metar_trigger": false,
      "taf_trigger": false,
      "metar": "METAR LQTZ 302030Z VRB02KT 9999 BKN030 04/03 Q1003",
      "taf": "TAF LQTZ 301700Z 3018/3118 VRB02KT 9999 BKN030 TX06/3113Z TN02/3105Z"
    },
    {
      "icao": "LRBC",
      "alert": "OK",
      "vis_m": 9999,
      "fzfg": false,
      "metar_trigger": false,
      "taf_trigger": false,
      "metar": "METAR LRBC 302030Z 34015KT 9999 -SN FEW012 OVC034 M01/M03 Q1005",
      "taf": "TAF LRBC 302000Z 3021/3106 35012KT 9999 BKN010 OVC030"
    },
    {
      "icao": "LRBS",
      "alert": "OK",
      "vis_m": 9999,
      "fzfg": false,
      "metar_trigger": false,
      "taf_trigger": false,
      "metar": "METAR LRBS 302030Z 12004KT 9999 -DZ BKN008 OVC012 05/04 Q1003 NOSIG",
      "taf": "TAF LRBS 301700Z 3018/3118 23006KT 9999 BKN010 OVC030"
    },
    {
      "icao": "LRBV",
      "alert": "OK",
      "vis_m": 9999,
      "fzfg": false,
      "metar_trigger": false,
      "taf_trigger": false,
      "metar": "METAR LRBV 302030Z 02003KT 9999 FEW020 OVC026 01/00 Q1001",
      "taf": "TAF LRBV 302000Z 3021/3106 VRB04KT 9999 SCT020 OVC035"
    },
    {
      "icao": "LRCL",
      "alert": "OK",
      "vis_m": 1500,
      "fzfg": false,
      "metar_trigger": false,
      "taf_trigger": false,
      "metar": "METAR LRCL 302030Z 07003KT 1500 -DZRA BR BKN016 BKN024 03/02 Q1002",
      "taf": "TAF LRCL 302000Z 3021/3106 VRB04KT 1500 -DZRA BR BKN015 OVC030"
    },
    {
      "icao": "LRCV",
      "alert": "OK",
      "vis_m": 6000,
      "fzfg": false,
      "metar_trigger": false,
      "taf_trigger": false,
      "metar": "METAR LRCV 302030Z 23003KT 6000 NSC 03/03 Q1002",
      "taf": "TAF LRCV 302000Z 3021/3106 VRB04KT 3000 BR NSC"
    },
    {
      "icao": "LRIA",
      "alert": "OK",
      "vis_m": 7000,
      "fzfg": false,
      "metar_trigger": false,
      "taf_trigger": false,
      "metar": "METAR LRIA 302030Z 34012KT 7000 -SN BKN010 BKN015 M03/M05 Q1006",
      "taf": "TAF LRIA 302000Z 3021/3106 34012KT 9999 BKN010 OVC030"
    },
    {
      "icao": "LROP",
      "alert": "OK",
      "vis_m": 8000,
      "fzfg": false,
      "metar_trigger": false,
      "taf_trigger": false,
      "metar": "METAR LROP 302030Z 14004KT 8000 -DZ OVC009 05/05 Q1003 NOSIG",
      "taf": "TAF LROP 301700Z 3018/3118 23006KT 9999 BKN010 OVC030"
    },
    {
      "icao": "LRSB",
      "alert": "OK",
      "vis_m": 3000,
      "fzfg": false,
      "metar_trigger": false,
      "taf_trigger": false,
      "metar": "METAR LRSB 302030Z 16002KT 3000 BR OVC013 04/04 Q1001",
      "taf": "TAF LRSB 301700Z 3018/3118 VRB04KT 7000 -RA BKN015 OVC030"
    },
    {
      "icao": "LRSM",
      "alert": "OK",
      "vis_m": 8000,
      "fzfg": false,
      "metar_trigger": false,
      "taf_trigger": false,
      "metar": "METAR LRSM 302030Z AUTO VRB01KT 8000 BKN037/// OVC046/// 04/03 Q1002 REDZ",
      "taf": "TAF LRSM 301400Z 3015/3024 VRB04KT 9999 OVC025"
    },
    {
      "icao": "LRSV",
      "alert": "OK",
      "vis_m": 4000,
      "fzfg": false,
      "metar_trigger": false,
      "taf_trigger": false,
      "metar": "METAR LRSV 302030Z 36009KT 4000 -SN BR OVC004 M04/M04 Q1005",
      "taf": "TAF LRSV 302000Z 3021/3106 35010KT 7000 -SN BKN010 OVC030"
    },
    {
      "icao": "LRTM",
      "alert": "OK",
      "vis_m": 900,
      "fzfg": false,
      "metar_trigger": false,
      "taf_trigger": false,
      "metar": "METAR LRTM 302030Z AUTO 09002KT 0900 R07/1300U -RA FG FEW020/// SCT025/// BKN029/// 02/01 Q1002",
      "taf": ""
    },
    {
      "icao": "LRTR",
      "alert": "OK",
      "vis_m": 5000,
      "fzfg": false,
      "metar_trigger": false,
      "taf_trigger": false,
      "metar": "METAR LRTR 302030Z 26002KT 5000 -DZ BR BKN008 OVC013 03/03 Q1003 TEMPO 3000 DZ BR OVC005",
      "taf": "TAF LRTR 301700Z 3018/3118 VRB04KT 3000 -DZ BR SCT003 OVC005"
    },
    {
      "icao": "LTAC",
      "alert": "OK",
      "vis_m": 9999,
      "fzfg": false,
      "metar_trigger": false,
      "taf_trigger": false,
      "metar": "METAR LTAC 302050Z 23012KT 9999 SCT040 BKN090 07/03 Q1004 NOSIG RMK RWY21C 23012KT RWY03L 23011KT RWY21R 22014KT RWY03R 22010KT RWY21L 23012KT",
      "taf": "TAF LTAC 301640Z 3018/3118 VRB02KT 9999 SCT040 SCT100"
    },
    {
      "icao": "LTFM",
      "alert": "OK",
      "vis_m": 9999,
      "fzfg": false,
      "metar_trigger": false,
      "taf_trigger": false,
      "metar": "METAR LTFM 302050Z 31006KT 280V350 9999 BKN014 BKN025 06/04 Q1004 NOSIG RMK RWY17L 28004KT RWY34L 30005KT 270V340 RWY16R 28004KT RWY36 32005KT RWY18 30004KT",
      "taf": "TAF LTFM 301640Z 3018/3124 32012KT 9999 BKN012 BKN025"
    },
    {
      "icao": "LUKK",
      "alert": "OK",
      "vis_m": 9999,
      "fzfg": false,
      "metar_trigger": false,
      "taf_trigger": false,
      "metar": "METAR LUKK 302030Z 36013KT 9999 -SN BKN013 OVC025 M03/M06 Q1003 NOSIG",
      "taf": "TAF LUKK 301726Z 3018/3118 36014KT 5000 -SN BKN010"
    },
    {
      "icao": "LWOH",
      "alert": "OK",
      "vis_m": 9999,
      "fzfg": false,
      "metar_trigger": false,
      "taf_trigger": false,
      "metar": "METAR LWOH 301950Z VRB03KT 9999 SCT040 03/02 Q1002",
      "taf": "TAF LWOH 302010Z 3021/3121 VRB02KT 9999 FEW040"
    },
    {
      "icao": "LWSK",
      "alert": "OK",
      "vis_m": 9999,
      "fzfg": false,
      "metar_trigger": false,
      "taf_trigger": false,
      "metar": "METAR LWSK 302050Z VRB02KT 9999 FEW060 03/02 Q1002 NOSIG",
      "taf": "TAF LWSK 302010Z 3021/3121 VRB02KT 9999 FEW040"
    },
    {
      "icao": "LYBE",
      "alert": "OK",
      "vis_m": 8000,
      "fzfg": false,
      "metar_trigger": false,
      "taf_trigger": false,
      "metar": "METAR LYBE 302030Z 32003KT 8000 OVC009 05/04 Q1003 NOSIG",
      "taf": "TAF LYBE 301700Z 3018/3118 04005KT 9999 BKN012 BKN023 TX07/3113Z TN03/3106Z"
    },
    {
      "icao": "LYNI",
      "alert": "OK",
      "vis_m": 9999,
      "fzfg": false,
      "metar_trigger": false,
      "taf_trigger": false,
      "metar": "METAR LYNI 302030Z 34004KT 9999 FEW015 BKN021 05/05 Q1003 NOSIG",
      "taf": "TAF LYNI 301700Z 3018/3118 VRB02KT 9999 SCT015 BKN040 TX08/3113Z TN02/3106Z"
    },
    {
      "icao": "LYPG",
      "alert": "OK",
      "vis_m": 7000,
      "fzfg": false,
      "metar_trigger": false,
      "taf_trigger": false,
      "metar": "METAR LYPG 302030Z 22001KT 7000 FEW010 SCT040 BKN070 07/07 Q1002 NOSIG",
      "taf": "TAF LYPG 301700Z 3018/3118 35005KT 9999 FEW010 SCT050 TX13/3112Z TN05/3106Z"
    },
    {
      "icao": "LZIB",
      "alert": "OK",
      "vis_m": 9000,
      "fzfg": false,
      "metar_trigger": false,
      "taf_trigger": false,
      "metar": "METAR LZIB 302100Z 26003KT 9000 FEW012 01/M00 Q1003 NOSIG",
      "taf": "TAF LZIB 301715Z 3018/3118 30005KT 7000 FEW010 SCT040"
    },
    {
      "icao": "LZKZ",
      "alert": "OK",
      "vis_m": 9999,
      "fzfg": false,
      "metar_trigger": false,
      "taf_trigger": false,
      "metar": "METAR LZKZ 302100Z 36013KT 9999 BKN024 OVC027 02/M01 Q1003 NOSIG",
      "taf": "TAF LZKZ 301715Z 3018/3118 01013KT 9999 FEW020 BKN030"
    },
    {
      "icao": "LZTT",
      "alert": "OK",
      "vis_m": 5000,
      "fzfg": false,
      "metar_trigger": false,
      "taf_trigger": false,
      "metar": "METAR LZTT 302100Z 06009KT 5000 -SN BR BKN003 OVC015 M02/M03 Q1002",
      "taf": "TAF LZTT 301715Z 3018/3118 06007KT 4000 BR BKN002 OVC004"
    },
    {
      "icao": "OEJN",
      "alert": "OK",
      "vis_m": 9999,
      "fzfg": false,
      "metar_trigger": false,
      "taf_trigger": false,
      "metar": "METAR OEJN 302100Z 01004KT CAVOK 24/17 Q1014 NOSIG",
      "taf": "TAF OEJN 301700Z 3018/3124 36006KT CAVOK"
    },
    {
      "icao": "OEMA",
      "alert": "OK",
      "vis_m": 9999,
      "fzfg": false,
      "metar_trigger": false,
      "taf_trigger": false,
      "metar": "METAR OEMA 302100Z 28007KT CAVOK 23/07 Q1018 NOSIG",
      "taf": "TAF OEMA 301700Z 3018/3124 27006KT CAVOK"
    },
    {
      "icao": "OJAI",
      "alert": "OK",
      "vis_m": 5000,
      "fzfg": false,
      "metar_trigger": false,
      "taf_trigger": false,
      "metar": "METAR OJAI 302000Z 25007KT 5000 HZ NSC 10/06 Q1015 NOSIG",
      "taf": "TAF OJAI 301617Z 3018/3124 23006KT 5000 HZ NSC"
    },
    {
      "icao": "OMAA",
      "alert": "OK",
      "vis_m": 9999,
      "fzfg": false,
      "metar_trigger": false,
      "taf_trigger": false,
      "metar": "METAR OMAA 302100Z 21003KT CAVOK 17/10 Q1018 NOSIG",
      "taf": "TAF OMAA 301700Z 3018/0100 27010KT 8000 FEW030"
    },
    {
      "icao": "OMDB",
      "alert": "OK",
      "vis_m": 9999,
      "fzfg": false,
      "metar_trigger": false,
      "taf_trigger": false,
      "metar": "METAR OMDB 302100Z 16006KT 9999 FEW030 19/13 Q1017 WS ALL RWY NOSIG",
      "taf": "TAF OMDB 301700Z 3018/0100 28010KT 8000 NSC"
    },
    {
      "icao": "UAAA",
      "alert": "OK",
      "vis_m": 1600,
      "fzfg": false,
      "metar_trigger": false,
      "taf_trigger": false,
      "metar": "METAR UAAA 302030Z 00000MPS 1600 R23L/P2000N BR OVC003 M04/M05 Q1018 WS R23L NOSIG RMK QBB100",
      "taf": "TAF UAAA 301702Z 3018/3118 22003MPS 1000 BR FU OVC004 TX01/3109Z TNM06/3102Z"
    },
    {
      "icao": "UBBB",
      "alert": "OK",
      "vis_m": 1500,
      "fzfg": false,
      "metar_trigger": false,
      "taf_trigger": false,
      "metar": "METAR UBBB 302100Z 18018KT 1500 BR OVC002 08/08 Q1008 NOSIG",
      "taf": ""
    },
    {
      "icao": "UDSG",
      "alert": "OK",
      "vis_m": 4200,
      "fzfg": false,
      "metar_trigger": false,
      "taf_trigger": false,
      "metar": "METAR UDSG 302030Z 29001KT 4200 BR BKN023 M07/M07 Q1014 NOSIG",
      "taf": "TAF UDSG 301658Z 3018/3118 VRB06KT 2000 BR OVC020"
    },
    {
      "icao": "UDYZ",
      "alert": "OK",
      "vis_m": 2600,
      "fzfg": false,
      "metar_trigger": false,
      "taf_trigger": false,
      "metar": "METAR UDYZ 302030Z 21001KT 2600 BR BKN014 M02/M04 Q1016 NOSIG",
      "taf": "TAF UDYZ 301700Z 3018/3118 VRB04KT 2300 BR BKN015"
    },
    {
      "icao": "UGKO",
      "alert": "OK",
      "vis_m": 9999,
      "fzfg": false,
      "metar_trigger": false,
      "taf_trigger": false,
      "metar": "METAR UGKO 302030Z 09016KT CAVOK 14/M02 Q1004 NOSIG",
      "taf": "TAF UGKO 301700Z 3018/3118 08007KT CAVOK TX15/3112Z TN10/3118Z"
    }
  ]
}