{
  "ts_utc": "2026-01-25T05:07:27Z",
  "threshold_m": 150,
  "source": "stations_override.txt (ICAO list) + aviationweather.gov (METAR/TAF raw)",
  "station_count": 159,
  "stations": [
    {
      "icao": "BIKF",
      "alert": "OK",
      "vis_m": 9999,
      "fzfg": false,
      "metar_trigger": false,
      "taf_trigger": false,
      "metar": "METAR BIKF 250500Z 08017KT CAVOK 04/M00 Q1005",
      "taf": "TAF BIKF 250406Z 2506/2606 09015KT 9999 FEW025 TX05/2513Z TN01/2602Z"
    },
    {
      "icao": "BKPR",
      "alert": "OK",
      "vis_m": 9999,
      "fzfg": false,
      "metar_trigger": false,
      "taf_trigger": false,
      "metar": "METAR BKPR 250500Z 19010KT 9999 BKN055 05/04 Q1010 NOSIG",
      "taf": "TAF BKPR 242330Z 2500/2524 18010KT 9999 BKN040"
    },
    {
      "icao": "EBCI",
      "alert": "OK",
      "vis_m": 6000,
      "fzfg": false,
      "metar_trigger": false,
      "taf_trigger": false,
      "metar": "METAR EBCI 250450Z 15007KT 6000 NSC 00/M02 Q0997 TEMPO 3000 BR BKN008",
      "taf": "TAF EBCI 242303Z 2500/2606 16005KT CAVOK"
    },
    {
      "icao": "EDDB",
      "alert": "OK",
      "vis_m": 5000,
      "fzfg": false,
      "metar_trigger": false,
      "taf_trigger": false,
      "metar": "METAR EDDB 250450Z AUTO 09007KT 5000 BR OVC009 M03/M05 Q1007 NOSIG",
      "taf": "TAF EDDB 242300Z 2500/2524 07008KT 6000 OVC011"
    },
    {
      "icao": "EDDH",
      "alert": "OK",
      "vis_m": 6000,
      "fzfg": false,
      "metar_trigger": false,
      "taf_trigger": false,
      "metar": "METAR EDDH 250450Z AUTO 11010KT 6000 OVC009 M02/M04 Q1006 NOSIG",
      "taf": "TAF EDDH 242300Z 2500/2606 08009KT 6000 OVC008"
    },
    {
      "icao": "EDDK",
      "alert": "OK",
      "vis_m": 9999,
      "fzfg": false,
      "metar_trigger": false,
      "taf_trigger": false,
      "metar": "METAR EDDK 250450Z AUTO 13009KT CAVOK M02/M06 Q1000 NOSIG",
      "taf": "TAF EDDK 242300Z 2500/2606 11006KT CAVOK"
    },
    {
      "icao": "EDDN",
      "alert": "OK",
      "vis_m": 7000,
      "fzfg": false,
      "metar_trigger": false,
      "taf_trigger": false,
      "metar": "METAR EDDN 250450Z AUTO 08004KT 060V130 7000 BKN010 M03/M05 Q1000",
      "taf": "TAF EDDN 242300Z 2500/2524 10004KT 7000 OVC012"
    },
    {
      "icao": "EDDS",
      "alert": "OK",
      "vis_m": 8000,
      "fzfg": false,
      "metar_trigger": false,
      "taf_trigger": false,
      "metar": "METAR EDDS 250450Z AUTO VRB01KT 8000 NSC M03/M04 Q0998",
      "taf": "TAF EDDS 242300Z 2500/2524 VRB03KT 6000 NSC"
    },
    {
      "icao": "EDFH",
      "alert": "OK",
      "vis_m": 5000,
      "fzfg": false,
      "metar_trigger": false,
      "taf_trigger": false,
      "metar": "METAR EDFH 250450Z 14009KT 5000 BR NSC M05/M06 Q0998",
      "taf": "TAF EDFH 242300Z 2500/2524 13012KT 8000 NSC"
    },
    {
      "icao": "EDJA",
      "alert": "OK",
      "vis_m": 3000,
      "fzfg": false,
      "metar_trigger": false,
      "taf_trigger": false,
      "metar": "METAR EDJA 250450Z VRB01KT 3000 BR OVC003 M03/M03 Q0998",
      "taf": "TAF EDJA 250200Z 2503/2512 VRB03KT 4000 BR OVC003"
    },
    {
      "icao": "EDLW",
      "alert": "OK",
      "vis_m": 3900,
      "fzfg": false,
      "metar_trigger": false,
      "taf_trigger": false,
      "metar": "METAR EDLW 250450Z 01002KT 3900 BR NSC M04/M04 Q1000",
      "taf": "TAF EDLW 250420Z 2505/2524 08005KT CAVOK"
    },
    {
      "icao": "EDNY",
      "alert": "OK",
      "vis_m": 6000,
      "fzfg": false,
      "metar_trigger": false,
      "taf_trigger": false,
      "metar": "METAR EDNY 250450Z 04003KT 6000 OVC006 M00/M01 Q0999",
      "taf": "TAF EDNY 250200Z 2503/2512 VRB03KT 6000 OVC007"
    },
    {
      "icao": "EDSB",
      "alert": "OK",
      "vis_m": 4800,
      "fzfg": false,
      "metar_trigger": false,
      "taf_trigger": false,
      "metar": "METAR EDSB 250450Z 03005KT 4800 BR FEW008 OVC011 M02/M03 Q1001",
      "taf": ""
    },
    {
      "icao": "EETN",
      "alert": "OK",
      "vis_m": 9999,
      "fzfg": false,
      "metar_trigger": false,
      "taf_trigger": false,
      "metar": "METAR EETN 250450Z 12003KT 080V170 CAVOK M18/M20 Q1023 NOSIG",
      "taf": "TAF EETN 242330Z 2500/2524 10005KT 9999 FEW003"
    },
    {
      "icao": "EFTU",
      "alert": "OK",
      "vis_m": 9999,
      "fzfg": false,
      "metar_trigger": false,
      "taf_trigger": false,
      "metar": "METAR EFTU 250450Z AUTO 13003KT 9999 FEW011 M14/M15 Q1021",
      "taf": "TAF EFTU 250224Z 2503/2603 14004KT 9999 SCT025"
    },
    {
      "icao": "EGBB",
      "alert": "OK",
      "vis_m": 9999,
      "fzfg": false,
      "metar_trigger": false,
      "taf_trigger": false,
      "metar": "METAR EGBB 250450Z 13008KT 9999 -RA FEW008 OVC015 06/05 Q0990",
      "taf": "TAF EGBB 250459Z 2506/2606 13010KT 9999 SCT008 BKN030"
    },
    {
      "icao": "EGGP",
      "alert": "OK",
      "vis_m": 9999,
      "fzfg": false,
      "metar_trigger": false,
      "taf_trigger": false,
      "metar": "METAR EGGP 250450Z AUTO 13013KT 9999 OVC014/// 06/04 Q0989",
      "taf": "TAF EGGP 250458Z 2506/2606 12010KT 9999 OVC030"
    },
    {
      "icao": "EGGW",
      "alert": "OK",
      "vis_m": 6000,
      "fzfg": false,
      "metar_trigger": false,
      "taf_trigger": false,
      "metar": "METAR EGGW 250450Z AUTO 13009KT 6000 -RADZ BKN003/// //////TCU 06/05 Q0991",
      "taf": "TAF EGGW 250458Z 2506/2606 13010KT 9999 BKN005"
    },
    {
      "icao": "EGKK",
      "alert": "OK",
      "vis_m": 9999,
      "fzfg": false,
      "metar_trigger": false,
      "taf_trigger": false,
      "metar": "METAR EGKK 250450Z 13005KT 100V180 9999 SCT008 BKN014 07/07 Q0992",
      "taf": "TAF EGKK 250502Z 2506/2612 14010KT 9999 FEW008 SCT020"
    },
    {
      "icao": "EGNM",
      "alert": "OK",
      "vis_m": null,
      "fzfg": false,
      "metar_trigger": false,
      "taf_trigger": false,
      "metar": "",
      "taf": "TAF EGNM 242254Z 2500/2524 11012KT 9999 BKN013"
    },
    {
      "icao": "EGPD",
      "alert": "OK",
      "vis_m": 9999,
      "fzfg": false,
      "metar_trigger": false,
      "taf_trigger": false,
      "metar": "METAR EGPD 250450Z COR AUTO 12010KT 9999 BKN013 OVC037 06/03 Q1000 NOSIG",
      "taf": "TAF EGPD 250500Z 2506/2606 11012KT 9999 SCT014 BKN025"
    },
    {
      "icao": "EGPF",
      "alert": "OK",
      "vis_m": 8000,
      "fzfg": false,
      "metar_trigger": false,
      "taf_trigger": false,
      "metar": "METAR EGPF 250450Z AUTO 07020KT 8000 -RA BKN022 BKN028 BKN038 06/04 Q0992",
      "taf": "TAF EGPF 250456Z 2506/2606 08018G28KT 9999 SCT016 BKN030"
    },
    {
      "icao": "EHBK",
      "alert": "OK",
      "vis_m": 8000,
      "fzfg": false,
      "metar_trigger": false,
      "taf_trigger": false,
      "metar": "METAR EHBK 250455Z AUTO 10008KT 8000 NSC M01/M03 Q0998 NOSIG",
      "taf": "TAF EHBK 242332Z 2500/2606 08005KT 9999 NSC"
    },
    {
      "icao": "EHEH",
      "alert": "OK",
      "vis_m": null,
      "fzfg": false,
      "metar_trigger": false,
      "taf_trigger": false,
      "metar": "",
      "taf": "TAF EHEH 242342Z 2500/2606 08004KT 5000 HZ NSC"
    },
    {
      "icao": "EKBI",
      "alert": "OK",
      "vis_m": 7000,
      "fzfg": false,
      "metar_trigger": false,
      "taf_trigger": false,
      "metar": "METAR EKBI 250450Z AUTO 07010KT 7000 -RA OVC006/// M00/M01 Q1007",
      "taf": "TAF EKBI 250227Z 2503/2603 08014KT 6000 OVC007"
    },
    {
      "icao": "EKCH",
      "alert": "OK",
      "vis_m": 9999,
      "fzfg": false,
      "metar_trigger": false,
      "taf_trigger": false,
      "metar": "METAR EKCH 250450Z 10012KT 9999 OVC012 00/M02 Q1010 NOSIG",
      "taf": "TAF EKCH 250227Z 2503/2603 09013KT 9999 OVC012"
    },
    {
      "icao": "ENAL",
      "alert": "OK",
      "vis_m": 9999,
      "fzfg": false,
      "metar_trigger": false,
      "taf_trigger": false,
      "metar": "METAR ENAL 250450Z AUTO 14013KT 9999 SCT036/// SCT049/// OVC060/// M01/M08 Q1013",
      "taf": "TAF ENAL 250200Z 2503/2512 14012KT 9999 BKN040"
    },
    {
      "icao": "ENBR",
      "alert": "OK",
      "vis_m": 9999,
      "fzfg": false,
      "metar_trigger": false,
      "taf_trigger": false,
      "metar": "METAR ENBR 250450Z 03003KT 9999 BKN051 M06/M10 Q1012 RMK WIND 1200FT 12008KT",
      "taf": "TAF ENBR 242300Z 2500/2524 08005KT 9999 BKN040"
    },
    {
      "icao": "ENGM",
      "alert": "OK",
      "vis_m": 9999,
      "fzfg": false,
      "metar_trigger": false,
      "taf_trigger": false,
      "metar": "METAR ENGM 250450Z 02002KT 9999 -SN BKN049 M07/M09 Q1016 NOSIG",
      "taf": "TAF ENGM 242300Z 2500/2524 03008KT 9999 -SN SCT012 BKN020"
    },
    {
      "icao": "ENHD",
      "alert": "OK",
      "vis_m": 9999,
      "fzfg": false,
      "metar_trigger": false,
      "taf_trigger": false,
      "metar": "METAR ENHD 250450Z AUTO 24014KT 9999 NCD 00/M10 Q1011",
      "taf": ""
    },
    {
      "icao": "ENTC",
      "alert": "OK",
      "vis_m": 5000,
      "fzfg": false,
      "metar_trigger": false,
      "taf_trigger": false,
      "metar": "METAR ENTC 250450Z 19012KT 5000 -SHSN VV015 M01/M02 Q1008 RMK WIND 2600FT 30014KT",
      "taf": "TAF ENTC 242300Z 2500/2524 20012KT 6000 SCT010 BKN020"
    },
    {
      "icao": "ENTO",
      "alert": "OK",
      "vis_m": 9999,
      "fzfg": false,
      "metar_trigger": false,
      "taf_trigger": false,
      "metar": "METAR ENTO 250450Z AUTO 04005KT 9999 -SN OVC048/// M04/M07 Q1015",
      "taf": "TAF ENTO 242300Z 2500/2524 02008KT 9999 -SN SCT010 BKN020"
    },
    {
      "icao": "ENVA",
      "alert": "OK",
      "vis_m": 9999,
      "fzfg": false,
      "metar_trigger": false,
      "taf_trigger": false,
      "metar": "METAR ENVA 250450Z AUTO 12006KT 9999 FEW047/// M10/M14 Q1015 RMK WIND 670FT 11008KT",
      "taf": "TAF ENVA 242300Z 2500/2524 10008KT 9999 BKN050"
    },
    {
      "icao": "ENZV",
      "alert": "OK",
      "vis_m": 9999,
      "fzfg": false,
      "metar_trigger": false,
      "taf_trigger": false,
      "metar": "METAR ENZV 250450Z 08009KT 040V100 CAVOK 00/M09 Q1011",
      "taf": "TAF ENZV 242300Z 2500/2524 08008KT 9999 BKN050"
    },
    {
      "icao": "EPGD",
      "alert": "OK",
      "vis_m": 9000,
      "fzfg": false,
      "metar_trigger": false,
      "taf_trigger": false,
      "metar": "METAR EPGD 250500Z 12008KT 9000 FEW011 BKN038 M08/M10 Q1012",
      "taf": "TAF EPGD 242330Z 2500/2524 10010KT 9999 OVC045"
    },
    {
      "icao": "EPKK",
      "alert": "OK",
      "vis_m": 2000,
      "fzfg": false,
      "metar_trigger": false,
      "taf_trigger": false,
      "metar": "METAR EPKK 250500Z 06008KT 2000 -FZRA BR OVC003 M01/M02 Q1007",
      "taf": "TAF EPKK 250230Z 2503/2603 06008KT 3000 BR OVC006"
    },
    {
      "icao": "EPKT",
      "alert": "OK",
      "vis_m": 2900,
      "fzfg": false,
      "metar_trigger": false,
      "taf_trigger": false,
      "metar": "METAR EPKT 250500Z 07006KT 2900 -FZRA BR BKN004 OVC030 M01/M01 Q1006",
      "taf": "TAF EPKT 242330Z 2500/2524 09006KT 4000 BR BKN006"
    },
    {
      "icao": "EPLB",
      "alert": "OK",
      "vis_m": 5000,
      "fzfg": false,
      "metar_trigger": false,
      "taf_trigger": false,
      "metar": "METAR EPLB 250500Z 10009KT 5000 BR BKN004 OVC006 M06/M07 Q1012",
      "taf": ""
    },
    {
      "icao": "EPMO",
      "alert": "OK",
      "vis_m": 9999,
      "fzfg": false,
      "metar_trigger": false,
      "taf_trigger": false,
      "metar": "METAR EPMO 250500Z 08012KT 9999 OVC009 M06/M07 Q1012",
      "taf": "TAF EPMO 242330Z 2500/2524 08012KT 8000 BKN022"
    },
    {
      "icao": "EPPO",
      "alert": "OK",
      "vis_m": 6000,
      "fzfg": false,
      "metar_trigger": false,
      "taf_trigger": false,
      "metar": "METAR EPPO 250500Z 09012KT 6000 OVC009 M04/M06 Q1008",
      "taf": "TAF EPPO 242330Z 2500/2524 09010KT 6000 OVC012"
    },
    {
      "icao": "EPRA",
      "alert": "OK",
      "vis_m": 4500,
      "fzfg": false,
      "metar_trigger": false,
      "taf_trigger": false,
      "metar": "METAR EPRA 250500Z 10009KT 4500 -SN OVC003 M04/M06 Q1010",
      "taf": "TAF EPRA 250230Z 2503/2512 09010KT 5000 -SN OVC004"
    },
    {
      "icao": "EPRZ",
      "alert": "OK",
      "vis_m": 4800,
      "fzfg": false,
      "metar_trigger": false,
      "taf_trigger": false,
      "metar": "METAR EPRZ 250500Z 09011KT 4800 -FZRA BR BKN005 M02/M03 Q1009",
      "taf": "TAF EPRZ 242330Z 2500/2524 09008KT 6000 OVC006"
    },
    {
      "icao": "EPSC",
      "alert": "OK",
      "vis_m": 6000,
      "fzfg": false,
      "metar_trigger": false,
      "taf_trigger": false,
      "metar": "METAR EPSC 250500Z 10008KT 6000 FEW013 BKN016 M04/M07 Q1009",
      "taf": "TAF EPSC 242330Z 2500/2524 09010KT 9999 OVC020"
    },
    {
      "icao": "EPSY",
      "alert": "OK",
      "vis_m": 9999,
      "fzfg": false,
      "metar_trigger": false,
      "taf_trigger": false,
      "metar": "METAR EPSY 250500Z 09006KT 060V130 9999 -SG SCT010 OVC023 M07/M09 Q1013",
      "taf": "TAF EPSY 250230Z 2503/2512 10008KT 8000 OVC033"
    },
    {
      "icao": "EPWA",
      "alert": "OK",
      "vis_m": 9999,
      "fzfg": false,
      "metar_trigger": false,
      "taf_trigger": false,
      "metar": "METAR EPWA 250500Z 10011KT 9999 OVC009 M05/M07 Q1011 NOSIG",
      "taf": "TAF EPWA 250230Z 2503/2603 08010KT 8000 BKN012"
    },
    {
      "icao": "EPWR",
      "alert": "OK",
      "vis_m": 4200,
      "fzfg": false,
      "metar_trigger": false,
      "taf_trigger": false,
      "metar": "METAR EPWR 250500Z 08006KT 4200 BR OVC010 M02/M03 Q1007",
      "taf": "TAF EPWR 250230Z 2503/2603 08006KT 6000 OVC011"
    },
    {
      "icao": "ESGG",
      "alert": "OK",
      "vis_m": 9999,
      "fzfg": false,
      "metar_trigger": false,
      "taf_trigger": false,
      "metar": "METAR ESGG 250450Z 09009KT 9999 -SN OVC034 M04/M07 Q1012",
      "taf": "TAF ESGG 250230Z 2503/2603 09009KT 9999 -SN SCT020 OVC040"
    },
    {
      "icao": "ESKN",
      "alert": "OK",
      "vis_m": 9999,
      "fzfg": false,
      "metar_trigger": false,
      "taf_trigger": false,
      "metar": "METAR ESKN 250450Z 10010KT 080V140 9999 -SN BKN032 M03/M08 Q1017",
      "taf": "TAF ESKN 250230Z 2503/2603 08006KT 9999 -SN BKN030"
    },
    {
      "icao": "ESMS",
      "alert": "OK",
      "vis_m": 6000,
      "fzfg": false,
      "metar_trigger": false,
      "taf_trigger": false,
      "metar": "METAR ESMS 250450Z 09017KT 6000 OVC009 M00/M02 Q1009",
      "taf": "TAF ESMS 250227Z 2503/2603 10015KT 8000 OVC012"
    },
    {
      "icao": "ESSA",
      "alert": "OK",
      "vis_m": 7000,
      "fzfg": false,
      "metar_trigger": false,
      "taf_trigger": false,
      "metar": "METAR ESSA 250450Z 07011KT 7000 -SN OVC041 M05/M07 Q1018 TEMPO 4000 -SN",
      "taf": "TAF ESSA 250230Z 2503/2603 07007KT 9999 -SN BKN040"
    },
    {
      "icao": "EYKA",
      "alert": "OK",
      "vis_m": 9999,
      "fzfg": false,
      "metar_trigger": false,
      "taf_trigger": false,
      "metar": "METAR EYKA 250450Z 11008KT 070V130 9999 -SN OVC045 M10/M13 Q1018",
      "taf": "TAF EYKA 242317Z 2500/2524 10009KT 8000 OVC020"
    },
    {
      "icao": "EYPA",
      "alert": "OK",
      "vis_m": 9999,
      "fzfg": false,
      "metar_trigger": false,
      "taf_trigger": false,
      "metar": "METAR EYPA 250450Z 09007KT 060V120 CAVOK M10/M14 Q1017",
      "taf": "TAF EYPA 242321Z 2500/2524 10008KT 8000 SCT010 BKN015"
    },
    {
      "icao": "EYVI",
      "alert": "OK",
      "vis_m": 9999,
      "fzfg": false,
      "metar_trigger": false,
      "taf_trigger": false,
      "metar": "METAR EYVI 250450Z 10008KT 9999 -SN NSC M13/M16 Q1018 NOSIG",
      "taf": "TAF EYVI 250500Z 2506/2606 12012KT 9000 OVC035"
    },
    {
      "icao": "GCFV",
      "alert": "OK",
      "vis_m": 9999,
      "fzfg": false,
      "metar_trigger": false,
      "taf_trigger": false,
      "metar": "METAR GCFV 250500Z AUTO 29006KT 9999 BKN039 14/08 Q1027",
      "taf": "TAF GCFV 250200Z 2503/2603 33005KT 9999 FEW030 TX20/2514Z TN14/2506Z"
    },
    {
      "icao": "GCLP",
      "alert": "OK",
      "vis_m": 9999,
      "fzfg": false,
      "metar_trigger": false,
      "taf_trigger": false,
      "metar": "METAR GCLP 250500Z 34007KT 9999 FEW035 16/10 Q1027 NOSIG",
      "taf": "TAF GCLP 250200Z 2503/2603 33006KT 9999 FEW035 TX20/2514Z TN13/2506Z"
    },
    {
      "icao": "GCTS",
      "alert": "OK",
      "vis_m": 9999,
      "fzfg": false,
      "metar_trigger": false,
      "taf_trigger": false,
      "metar": "METAR GCTS 250500Z 04009KT 9999 FEW040 16/08 Q1028 NOSIG",
      "taf": "TAF GCTS 250200Z 2503/2603 01007KT 9999 SCT040 TX22/2514Z TN14/2506Z"
    },
    {
      "icao": "GMAD",
      "alert": "OK",
      "vis_m": 9999,
      "fzfg": false,
      "metar_trigger": false,
      "taf_trigger": false,
      "metar": "METAR GMAD 250500Z 06003KT 040V100 9999 FEW020 06/05 Q1023 NOSIG",
      "taf": ""
    },
    {
      "icao": "GMMN",
      "alert": "OK",
      "vis_m": 9999,
      "fzfg": false,
      "metar_trigger": false,
      "taf_trigger": false,
      "metar": "METAR GMMN 250500Z 20008KT 9999 SCT016TCU SCT030 09/07 Q1024 NOSIG",
      "taf": "TAF GMMN 242300Z 2500/2606 23005KT 8000 FEW010 BKN020TCU"
    },
    {
      "icao": "GMMX",
      "alert": "OK",
      "vis_m": 8000,
      "fzfg": false,
      "metar_trigger": false,
      "taf_trigger": false,
      "metar": "METAR GMMX 250500Z 09005KT 8000 SCT010 SCT020 05/04 Q1025 NOSIG",
      "taf": "TAF GMMX 242300Z 2500/2606 20006KT 8000 SCT020"
    },
    {
      "icao": "HEGN",
      "alert": "OK",
      "vis_m": 9999,
      "fzfg": false,
      "metar_trigger": false,
      "taf_trigger": false,
      "metar": "METAR HEGN 250400Z 00000KT CAVOK 12/00 Q1020 NOSIG",
      "taf": "TAF HEGN 250500Z 2506/2612 01012KT CAVOK"
    },
    {
      "icao": "HEMA",
      "alert": "OK",
      "vis_m": 9999,
      "fzfg": false,
      "metar_trigger": false,
      "taf_trigger": false,
      "metar": "METAR HEMA 250400Z 32012KT CAVOK 18/05 Q1019 NOSIG",
      "taf": "TAF HEMA 250500Z 2506/2612 02014KT CAVOK"
    },
    {
      "icao": "HESH",
      "alert": "OK",
      "vis_m": 9999,
      "fzfg": false,
      "metar_trigger": false,
      "taf_trigger": false,
      "metar": "METAR HESH 250400Z 31010KT CAVOK 17/01 Q1020 NOSIG",
      "taf": "TAF HESH 250500Z 2506/2612 03012KT CAVOK"
    },
    {
      "icao": "HESX",
      "alert": "OK",
      "vis_m": 9999,
      "fzfg": false,
      "metar_trigger": false,
      "taf_trigger": false,
      "metar": "METAR HESX 250400Z 16003KT CAVOK 08/03 Q1020 NOSIG",
      "taf": "TAF HESX 250500Z 2506/2612 15007KT 6000 NSC"
    },
    {
      "icao": "LATI",
      "alert": "OK",
      "vis_m": 9999,
      "fzfg": false,
      "metar_trigger": false,
      "taf_trigger": false,
      "metar": "METAR LATI 250450Z 14004KT 9999 OVC110 09/06 Q1009 NOSIG",
      "taf": "TAF LATI 250500Z 2506/2606 17008KT 9999 BKN080 TX18/2512Z TN06/2604Z"
    },
    {
      "icao": "LBPD",
      "alert": "OK",
      "vis_m": 9999,
      "fzfg": false,
      "metar_trigger": false,
      "taf_trigger": false,
      "metar": "METAR LBPD 250500Z AUTO 00000KT 9999 OVC007/// 03/03 Q1015 NOSIG",
      "taf": "TAF LBPD 242300Z 2500/2524 VRB04KT 0800 FG BKN003"
    },
    {
      "icao": "LBSF",
      "alert": "OK",
      "vis_m": 600,
      "fzfg": true,
      "metar_trigger": false,
      "taf_trigger": false,
      "metar": "METAR LBSF 250500Z VRB02KT 0600 R27/0800N FZFG VV002 M01/M01 Q1014 NOSIG",
      "taf": "TAF LBSF 242300Z 2500/2524 VRB04KT 0800 FZFG BKN002"
    },
    {
      "icao": "LBWN",
      "alert": "OK",
      "vis_m": 6000,
      "fzfg": false,
      "metar_trigger": false,
      "taf_trigger": false,
      "metar": "METAR LBWN 250500Z AUTO 11005KT 6000 BKN018/// 04/04 Q1014 TEMPO 3000 BR",
      "taf": "TAF LBWN 242300Z 2500/2524 VRB03KT 3000 BR BKN005 OVC008"
    },
    {
      "icao": "LCLK",
      "alert": "OK",
      "vis_m": 9999,
      "fzfg": false,
      "metar_trigger": false,
      "taf_trigger": false,
      "metar": "METAR LCLK 250500Z 33006KT 9999 FEW020 10/08 Q1022 NOSIG",
      "taf": "TAF LCLK 242330Z 2500/2600 35008KT 9999 FEW030"
    },
    {
      "icao": "LCPH",
      "alert": "OK",
      "vis_m": 7000,
      "fzfg": false,
      "metar_trigger": false,
      "taf_trigger": false,
      "metar": "METAR LCPH 250500Z 07008KT 010V080 7000 NSC 10/07 Q1021 NOSIG",
      "taf": "TAF LCPH 242330Z 2500/2600 07008KT 9999 FEW030"
    },
    {
      "icao": "LEAL",
      "alert": "OK",
      "vis_m": 9999,
      "fzfg": false,
      "metar_trigger": false,
      "taf_trigger": false,
      "metar": "METAR LEAL 250500Z 26014KT CAVOK 12/01 Q1009 NOSIG",
      "taf": ""
    },
    {
      "icao": "LEBB",
      "alert": "OK",
      "vis_m": 9999,
      "fzfg": false,
      "metar_trigger": false,
      "taf_trigger": false,
      "metar": "METAR LEBB 250500Z 21018G33KT 160V280 CAVOK 10/02 Q1001 NOSIG",
      "taf": "TAF LEBB 242300Z 2500/2524 21009KT 9999 SCT050 TX13/2511Z TN07/2515Z"
    },
    {
      "icao": "LEBL",
      "alert": "OK",
      "vis_m": 9999,
      "fzfg": false,
      "metar_trigger": false,
      "taf_trigger": false,
      "metar": "METAR LEBL 250500Z 36006KT 340V040 9999 FEW030 07/04 Q1003 NOSIG",
      "taf": ""
    },
    {
      "icao": "LECH",
      "alert": "OK",
      "vis_m": 9999,
      "fzfg": false,
      "metar_trigger": false,
      "taf_trigger": false,
      "metar": "METAR LECH 250500Z AUTO 24003KT 140V290 CAVOK 06/M02 Q1005",
      "taf": ""
    },
    {
      "icao": "LEMD",
      "alert": "OK",
      "vis_m": 9000,
      "fzfg": false,
      "metar_trigger": false,
      "taf_trigger": false,
      "metar": "METAR LEMD 250500Z 24011KT 200V260 9000 RA SCT035 BKN040 BKN050 04/03 Q1009 WS ALL RWY NOSIG",
      "taf": "TAF LEMD 242300Z 2500/2606 23010KT 9999 FEW030 TX10/2516Z TN02/2504Z"
    },
    {
      "icao": "LEMG",
      "alert": "OK",
      "vis_m": 9999,
      "fzfg": false,
      "metar_trigger": false,
      "taf_trigger": false,
      "metar": "METAR LEMG 250500Z 29008KT 9999 FEW050 10/04 Q1017 NOSIG",
      "taf": "TAF LEMG 242300Z 2500/2524 29010KT CAVOK TX16/2514Z TN10/2507Z"
    },
    {
      "icao": "LEVC",
      "alert": "OK",
      "vis_m": 9999,
      "fzfg": false,
      "metar_trigger": false,
      "taf_trigger": false,
      "metar": "METAR LEVC 250500Z 25011KT 220V280 CAVOK 09/02 Q1008 NOSIG",
      "taf": "TAF LEVC 242300Z 2500/2524 27018KT CAVOK TX17/2513Z TN08/2506Z"
    },
    {
      "icao": "LEXJ",
      "alert": "OK",
      "vis_m": 9999,
      "fzfg": false,
      "metar_trigger": false,
      "taf_trigger": false,
      "metar": "METAR LEXJ 250500Z 21012KT 150V250 9999 BKN080 10/01 Q1000",
      "taf": "TAF LEXJ 250200Z 2503/2603 20009KT 9999 BKN050 TX12/2514Z TN07/2603Z"
    },
    {
      "icao": "LEZG",
      "alert": "OK",
      "vis_m": 9999,
      "fzfg": false,
      "metar_trigger": false,
      "taf_trigger": false,
      "metar": "METAR LEZG 250500Z 24016KT 9999 FEW080 08/01 Q1005 NOSIG",
      "taf": "TAF LEZG 242300Z 2500/2524 26015KT 9999 FEW050 TX14/2513Z TN06/2506Z"
    },
    {
      "icao": "LEZL",
      "alert": "OK",
      "vis_m": 9999,
      "fzfg": false,
      "metar_trigger": false,
      "taf_trigger": false,
      "metar": "METAR LEZL 250500Z 23010KT 9999 SCT045 11/08 Q1017 NOSIG",
      "taf": "TAF LEZL 250200Z 2503/2603 24010KT CAVOK TX18/2515Z TN09/2507Z"
    },
    {
      "icao": "LFBD",
      "alert": "OK",
      "vis_m": 8000,
      "fzfg": false,
      "metar_trigger": false,
      "taf_trigger": false,
      "metar": "METAR LFBD 250500Z AUTO 20011KT 8000 -RA FEW009/// BKN033/// BKN040/// ///TCU 08/07 Q0998 TEMPO 24020G30KT 2000 TSRA BKN010 BKN025CB",
      "taf": "TAF LFBD 242300Z 2500/2606 22005KT 9999 BKN030 TX09/2512Z TN05/2502Z"
    },
    {
      "icao": "LFLL",
      "alert": "OK",
      "vis_m": 4400,
      "fzfg": false,
      "metar_trigger": false,
      "taf_trigger": false,
      "metar": "METAR LFLL 250500Z 15003KT 120V190 4400 -RA BR BKN002 BKN030 02/02 Q1000 NOSIG",
      "taf": ""
    },
    {
      "icao": "LFLS",
      "alert": "OK",
      "vis_m": 4600,
      "fzfg": false,
      "metar_trigger": false,
      "taf_trigger": false,
      "metar": "METAR LFLS 250500Z AUTO 13004KT 4600 -RA BR SCT020 BKN027 BKN034 02/02 Q1000 TEMPO BKN008 BKN030",
      "taf": "TAF LFLS 250200Z 2503/2603 VRB04KT 9999 SCT020 BKN040"
    },
    {
      "icao": "LFMN",
      "alert": "OK",
      "vis_m": 9999,
      "fzfg": false,
      "metar_trigger": false,
      "taf_trigger": false,
      "metar": "METAR LFMN 250500Z 35006KT 320V040 9999 FEW026CB SCT033 BKN060 07/03 Q0999 TEMPO 4000 -TSRA",
      "taf": "TAF LFMN 250200Z 2503/2609 34010KT 9999 BKN060"
    },
    {
      "icao": "LFOB",
      "alert": "OK",
      "vis_m": 6000,
      "fzfg": false,
      "metar_trigger": false,
      "taf_trigger": false,
      "metar": "METAR LFOB 250500Z AUTO 12006KT 6000 OVC008 02/02 Q0995 TEMPO 4000 -DZ OVC004",
      "taf": "TAF LFOB 242300Z 2500/2524 13007KT 9999 BKN040"
    },
    {
      "icao": "LFPO",
      "alert": "OK",
      "vis_m": 9999,
      "fzfg": false,
      "metar_trigger": false,
      "taf_trigger": false,
      "metar": "METAR LFPO 250500Z AUTO 17003KT 140V200 9999 OVC009 05/03 Q0996 TEMPO 3000 BR BKN002",
      "taf": "TAF LFPO 242300Z 2500/2606 16004KT 9999 BKN040"
    },
    {
      "icao": "LFSB",
      "alert": "OK",
      "vis_m": 4200,
      "fzfg": true,
      "metar_trigger": false,
      "taf_trigger": false,
      "metar": "METAR LFSB 250500Z AUTO 26003KT 4200 BR OVC003 02/01 Q0999 TEMPO 0300 FZFG VV///",
      "taf": "TAF LFSB 242300Z 2500/2524 VRB03KT 3000 BR OVC005"
    },
    {
      "icao": "LGAV",
      "alert": "OK",
      "vis_m": 9999,
      "fzfg": false,
      "metar_trigger": false,
      "taf_trigger": false,
      "metar": "METAR LGAV 250450Z 00000KT 9999 FEW015 07/06 Q1016 NOSIG",
      "taf": "TAF LGAV 242300Z 2500/2524 20012KT 9999 FEW015 SCT020"
    },
    {
      "icao": "LGTS",
      "alert": "OK",
      "vis_m": 7000,
      "fzfg": false,
      "metar_trigger": false,
      "taf_trigger": false,
      "metar": "METAR LGTS 250450Z 31003KT 7000 SCT007 BKN025 10/08 Q1015 NOSIG",
      "taf": "TAF LGTS 242300Z 2500/2524 VRB03KT 9999 FEW010 BKN025"
    },
    {
      "icao": "LHBP",
      "alert": "OK",
      "vis_m": 7000,
      "fzfg": false,
      "metar_trigger": false,
      "taf_trigger": false,
      "metar": "METAR LHBP 250500Z 03003KT 7000 NSC 01/M00 Q1007 NOSIG",
      "taf": "TAF LHBP 242315Z 2500/2524 06006KT 5000 BR SCT020 BKN050"
    },
    {
      "icao": "LHDC",
      "alert": "OK",
      "vis_m": 5000,
      "fzfg": false,
      "metar_trigger": false,
      "taf_trigger": false,
      "metar": "METAR LHDC 250445Z AUTO 05003KT 020V080 5000 -SHRA BR OVC048 02/01 Q1009",
      "taf": ""
    },
    {
      "icao": "LIBD",
      "alert": "OK",
      "vis_m": 9999,
      "fzfg": false,
      "metar_trigger": false,
      "taf_trigger": false,
      "metar": "METAR LIBD 250450Z 17010G21KT CAVOK 15/11 Q1003",
      "taf": "TAF LIBD 242300Z 2500/2524 15012KT 9999 SCT020"
    },
    {
      "icao": "LIBG",
      "alert": "OK",
      "vis_m": null,
      "fzfg": false,
      "metar_trigger": false,
      "taf_trigger": false,
      "metar": "",
      "taf": ""
    },
    {
      "icao": "LIBP",
      "alert": "OK",
      "vis_m": 100,
      "fzfg": false,
      "metar_trigger": false,
      "taf_trigger": false,
      "metar": "METAR LIBP 250450Z AUTO 25003KT 220V310 0100 R22/0450D FG SCT002/// BKN130/// 08/08 Q0999",
      "taf": ""
    },
    {
      "icao": "LIBR",
      "alert": "OK",
      "vis_m": 9999,
      "fzfg": false,
      "metar_trigger": false,
      "taf_trigger": false,
      "metar": "METAR LIBR 250450Z 18011KT 9999 BKN020 15/12 Q1006",
      "taf": "TAF LIBR 242300Z 2500/2524 15016KT 9999 SCT020"
    },
    {
      "icao": "LICA",
      "alert": "OK",
      "vis_m": 9999,
      "fzfg": false,
      "metar_trigger": false,
      "taf_trigger": false,
      "metar": "METAR LICA 250450Z AUTO 08019KT 9999 BKN150/// 16/12 Q1004",
      "taf": ""
    },
    {
      "icao": "LICC",
      "alert": "OK",
      "vis_m": 8000,
      "fzfg": false,
      "metar_trigger": false,
      "taf_trigger": false,
      "metar": "METAR LICC 250450Z 02006KT 8000 NSC 15/12 Q1002",
      "taf": "TAF LICC 242300Z 2500/2524 VRB06KT 9999 SCT030"
    },
    {
      "icao": "LICJ",
      "alert": "OK",
      "vis_m": 9999,
      "fzfg": false,
      "metar_trigger": false,
      "taf_trigger": false,
      "metar": "METAR LICJ 250450Z 22007KT 9999 -RA BKN040 12/08 Q1004",
      "taf": "TAF LICJ 242300Z 2500/2524 22010KT 9999 SCT030"
    },
    {
      "icao": "LIMC",
      "alert": "OK",
      "vis_m": 8000,
      "fzfg": false,
      "metar_trigger": false,
      "taf_trigger": false,
      "metar": "METAR LIMC 250450Z 03003KT 8000 -RA BKN008 04/04 Q1001 NOSIG",
      "taf": "TAF LIMC 242300Z 2500/2606 VRB05KT 4000 RA BKN012"
    },
    {
      "icao": "LIME",
      "alert": "OK",
      "vis_m": 1200,
      "fzfg": false,
      "metar_trigger": false,
      "taf_trigger": false,
      "metar": "METAR LIME 250450Z 22003KT 1200 R28/P2000N BR BKN002 05/05 Q1000 NOSIG",
      "taf": ""
    },
    {
      "icao": "LIMF",
      "alert": "OK",
      "vis_m": 8000,
      "fzfg": false,
      "metar_trigger": false,
      "taf_trigger": false,
      "metar": "METAR LIMF 250450Z 29005KT 8000 SCT011 BKN035 04/02 Q1000",
      "taf": "TAF LIMF 242300Z 2500/2524 VRB03KT 4000 RA SCT020 BKN040"
    },
    {
      "icao": "LIMJ",
      "alert": "OK",
      "vis_m": 9999,
      "fzfg": false,
      "metar_trigger": false,
      "taf_trigger": false,
      "metar": "METAR LIMJ 250450Z 04014KT CAVOK 06/02 Q0999",
      "taf": "TAF LIMJ 242300Z 2500/2524 03012KT 9999 SCT030"
    },
    {
      "icao": "LIPE",
      "alert": "OK",
      "vis_m": 1200,
      "fzfg": false,
      "metar_trigger": false,
      "taf_trigger": false,
      "metar": "METAR LIPE 250450Z 28005KT 260V320 1200 R12/P2000N R30/P2000N -RA BR SCT002 BKN006 05/05 Q1000",
      "taf": "TAF LIPE 242300Z 2500/2524 VRB05KT 2000 -RA BR BKN004"
    },
    {
      "icao": "LIPH",
      "alert": "OK",
      "vis_m": 8000,
      "fzfg": false,
      "metar_trigger": false,
      "taf_trigger": false,
      "metar": "METAR LIPH 250450Z AUTO 05003KT 010V120 8000 RA OVC022/// 08/08 Q1000",
      "taf": "TAF LIPH 242300Z 2500/2524 VRB05KT 4000 RA BKN010"
    },
    {
      "icao": "LIPQ",
      "alert": "OK",
      "vis_m": 9999,
      "fzfg": false,
      "metar_trigger": false,
      "taf_trigger": false,
      "metar": "METAR LIPQ 250450Z AUTO VRB02KT 9999 BKN030/// OVC049/// 08/07 Q1000 RERA",
      "taf": "TAF LIPQ 242300Z 2500/2524 08007KT 9999 BKN020"
    },
    {
      "icao": "LIPR",
      "alert": "OK",
      "vis_m": 8000,
      "fzfg": false,
      "metar_trigger": false,
      "taf_trigger": false,
      "metar": "METAR LIPR 250450Z AUTO 06001KT 8000 -RA OVC049/// 08/08 Q0999",
      "taf": "TAF LIPR 242300Z 2500/2524 VRB05KT 2000 RA BKN004"
    },
    {
      "icao": "LIPX",
      "alert": "OK",
      "vis_m": 9999,
      "fzfg": false,
      "metar_trigger": false,
      "taf_trigger": false,
      "metar": "METAR LIPX 250450Z 30007KT 230V040 9999 SCT009 BKN070 07/06 Q1000",
      "taf": "TAF LIPX 242300Z 2500/2524 09007KT 7000 BKN040"
    },
    {
      "icao": "LIPY",
      "alert": "OK",
      "vis_m": 1700,
      "fzfg": false,
      "metar_trigger": false,
      "taf_trigger": false,
      "metar": "METAR LIPY 250450Z AUTO 26003KT 1700 RA BR BKN011/// OVC046/// 09/09 Q0999",
      "taf": "TAF LIPY 242300Z 2500/2524 VRB05KT 2000 BR BKN010"
    },
    {
      "icao": "LIPZ",
      "alert": "OK",
      "vis_m": 8000,
      "fzfg": false,
      "metar_trigger": false,
      "taf_trigger": false,
      "metar": "METAR LIPZ 250450Z 04008KT 8000 -RA BKN018 07/07 Q1000 NOSIG",
      "taf": "TAF LIPZ 242300Z 2500/2606 04008KT 4000 RA BKN004"
    },
    {
      "icao": "LIRF",
      "alert": "OK",
      "vis_m": 8000,
      "fzfg": false,
      "metar_trigger": false,
      "taf_trigger": false,
      "metar": "METAR LIRF 250450Z 08006KT 8000 -RA FEW040 08/07 Q1001 RERA NOSIG",
      "taf": ""
    },
    {
      "icao": "LIRN",
      "alert": "OK",
      "vis_m": 9999,
      "fzfg": false,
      "metar_trigger": false,
      "taf_trigger": false,
      "metar": "METAR LIRN 250450Z AUTO 21013G23KT 9999 -RA OVC018/// 14/11 Q1000",
      "taf": "TAF LIRN 242300Z 2500/2524 19008KT 9999 SCT030"
    },
    {
      "icao": "LIRP",
      "alert": "OK",
      "vis_m": 9999,
      "fzfg": false,
      "metar_trigger": false,
      "taf_trigger": false,
      "metar": "METAR LIRP 250445Z 12009KT 9999 -RA SCT025 SCT040 09/09 Q0999 NOSIG",
      "taf": "TAF LIRP 242300Z 2500/2524 12006KT 9999 SCT015 BKN030"
    },
    {
      "icao": "LIRZ",
      "alert": "OK",
      "vis_m": 9999,
      "fzfg": false,
      "metar_trigger": false,
      "taf_trigger": false,
      "metar": "METAR LIRZ 250450Z AUTO 29004KT 9999 -RA OVC036/// 07/06 Q1000",
      "taf": "TAF LIRZ 242300Z 2500/2524 VRB05KT 9999 BKN030"
    },
    {
      "icao": "LJLJ",
      "alert": "OK",
      "vis_m": 1500,
      "fzfg": false,
      "metar_trigger": false,
      "taf_trigger": false,
      "metar": "METAR LJLJ 250500Z VRB02KT 1500 -RA BR FEW001 SCT007 BKN027 02/02 Q1002 NOSIG",
      "taf": "TAF LJLJ 250500Z 2506/2606 VRB02KT 2000 BR FEW001 SCT007 OVC030"
    },
    {
      "icao": "LKMT",
      "alert": "OK",
      "vis_m": 1500,
      "fzfg": false,
      "metar_trigger": false,
      "taf_trigger": false,
      "metar": "METAR LKMT 250500Z 03005KT 1500 BR OVC005 M01/M01 Q1005 TEMPO -FZDZ",
      "taf": "TAF LKMT 242300Z 2500/2524 02004KT 1600 BR OVC006"
    },
    {
      "icao": "LKPR",
      "alert": "OK",
      "vis_m": 800,
      "fzfg": true,
      "metar_trigger": false,
      "taf_trigger": false,
      "metar": "METAR LKPR 250500Z 34002KT 0800 R24/0900N R30/0700D -SG FZFG VV002 M02/M02 Q1003 NOSIG",
      "taf": "TAF LKPR 250200Z 2503/2609 VRB02KT 5000 BR OVC012"
    },
    {
      "icao": "LLBG",
      "alert": "OK",
      "vis_m": 9999,
      "fzfg": false,
      "metar_trigger": false,
      "taf_trigger": false,
      "metar": "METAR LLBG 250450Z VRB02KT CAVOK 08/05 Q1022 NOSIG",
      "taf": "TAF LLBG 250501Z 2506/2606 VRB04KT CAVOK"
    },
    {
      "icao": "LMML",
      "alert": "OK",
      "vis_m": 9999,
      "fzfg": false,
      "metar_trigger": false,
      "taf_trigger": false,
      "metar": "METAR LMML 250445Z 20006KT CAVOK 15/14 Q1002 NOSIG",
      "taf": "TAF LMML 250500Z 2506/2606 30015KT 9999 FEW017"
    },
    {
      "icao": "LOWW",
      "alert": "OK",
      "vis_m": 500,
      "fzfg": false,
      "metar_trigger": false,
      "taf_trigger": false,
      "metar": "METAR LOWW 250450Z 14011KT 0500 R11/0550N R16/0600N FG FEW000 BKN001 01/01 Q1003 TEMPO VV001",
      "taf": ""
    },
    {
      "icao": "LPFR",
      "alert": "OK",
      "vis_m": 8000,
      "fzfg": false,
      "metar_trigger": false,
      "taf_trigger": false,
      "metar": "METAR LPFR 250500Z 26018KT 8000 -SHRA SCT012 BKN020 13/11 Q1018",
      "taf": ""
    },
    {
      "icao": "LPMA",
      "alert": "OK",
      "vis_m": 9999,
      "fzfg": false,
      "metar_trigger": false,
      "taf_trigger": false,
      "metar": "METAR LPMA 250500Z VRB03KT 9999 FEW016 13/08 Q1026",
      "taf": "TAF LPMA 242300Z 2500/2524 VRB05KT 9999 SCT015"
    },
    {
      "icao": "LPPR",
      "alert": "OK",
      "vis_m": 7000,
      "fzfg": false,
      "metar_trigger": false,
      "taf_trigger": false,
      "metar": "METAR LPPR 250500Z 26006KT 210V310 7000 SCT015 FEW018CB SCT022 13/11 Q1010",
      "taf": "TAF LPPR 242300Z 2500/2524 24012KT 9999 SCT008 BKN018"
    },
    {
      "icao": "LPPS",
      "alert": "OK",
      "vis_m": 9999,
      "fzfg": false,
      "metar_trigger": false,
      "taf_trigger": false,
      "metar": "METAR LPPS 250500Z 28010KT 9999 FEW015 16/09 Q1025",
      "taf": "TAF LPPS 242300Z 2500/2606 29010KT 9999 SCT015"
    },
    {
      "icao": "LPPT",
      "alert": "OK",
      "vis_m": 7000,
      "fzfg": false,
      "metar_trigger": false,
      "taf_trigger": false,
      "metar": "METAR LPPT 250500Z 26014KT 7000 FEW006 BKN012 13/12 Q1015",
      "taf": "TAF LPPT 242300Z 2500/2606 26012KT 9999 SCT012 BKN025"
    },
    {
      "icao": "LQBK",
      "alert": "OK",
      "vis_m": 2000,
      "fzfg": false,
      "metar_trigger": false,
      "taf_trigger": false,
      "metar": "METAR LQBK 250500Z VRB02KT 2000 BR FEW003 00/00 Q1004 NOSIG",
      "taf": "TAF LQBK 250500Z 2506/2606 VRB02KT 2000 BR BKN040 TX09/2513Z TN00/2506Z"
    },
    {
      "icao": "LQSA",
      "alert": "OK",
      "vis_m": 5000,
      "fzfg": false,
      "metar_trigger": false,
      "taf_trigger": false,
      "metar": "METAR LQSA 250500Z 15006KT 090V170 5000 RA BR FEW010 SCT035 BKN055 02/02 Q1004 NOSIG",
      "taf": ""
    },
    {
      "icao": "LQTZ",
      "alert": "OK",
      "vis_m": 2300,
      "fzfg": false,
      "metar_trigger": false,
      "taf_trigger": false,
      "metar": "METAR LQTZ 250500Z 23001KT 2300 BR NSC 01/01 Q1005",
      "taf": "TAF LQTZ 250500Z 2506/2606 06006KT 2000 BR BKN050 TX11/2514Z TN00/2506Z"
    },
    {
      "icao": "LRBC",
      "alert": "OK",
      "vis_m": 400,
      "fzfg": true,
      "metar_trigger": false,
      "taf_trigger": false,
      "metar": "METAR LRBC 250500Z 18006KT 0400 R16/1000N FZFG VV002 M00/M00 Q1014",
      "taf": "TAF LRBC 250200Z 2503/2512 16010KT 1500 BR OVC002"
    },
    {
      "icao": "LRBS",
      "alert": "OK",
      "vis_m": 7000,
      "fzfg": false,
      "metar_trigger": false,
      "taf_trigger": false,
      "metar": "METAR LRBS 250500Z 24006KT 180V270 7000 OVC003 M00/M00 Q1015 NOSIG",
      "taf": ""
    },
    {
      "icao": "LRBV",
      "alert": "OK",
      "vis_m": 7000,
      "fzfg": false,
      "metar_trigger": false,
      "taf_trigger": false,
      "metar": "METAR LRBV 250500Z 14004KT 7000 SCT084 M02/M03 Q1011",
      "taf": "TAF LRBV 250200Z 2503/2512 VRB04KT 5000 BR BKN005"
    },
    {
      "icao": "LRCL",
      "alert": "OK",
      "vis_m": 800,
      "fzfg": true,
      "metar_trigger": false,
      "taf_trigger": false,
      "metar": "METAR LRCL 250500Z 00000KT 0800 R25/2000D FZFG SCT002 M03/M03 Q1011",
      "taf": "TAF LRCL 250200Z 2503/2512 VRB04KT 0800 FZFG BKN005"
    },
    {
      "icao": "LRCV",
      "alert": "OK",
      "vis_m": 450,
      "fzfg": true,
      "metar_trigger": false,
      "taf_trigger": false,
      "metar": "METAR LRCV 250500Z 17001KT 0450 R26/0550N FZFG VV002 M01/M01 Q1014",
      "taf": "TAF LRCV 250200Z 2503/2512 VRB04KT 0600 FZFG OVC002"
    },
    {
      "icao": "LRIA",
      "alert": "OK",
      "vis_m": 1600,
      "fzfg": false,
      "metar_trigger": false,
      "taf_trigger": false,
      "metar": "METAR LRIA 250500Z 11011KT 1600 BR OVC001 M01/M01 Q1014",
      "taf": "TAF LRIA 250200Z 2503/2512 12012KT 1500 BR OVC001"
    },
    {
      "icao": "LROP",
      "alert": "OK",
      "vis_m": 7000,
      "fzfg": false,
      "metar_trigger": false,
      "taf_trigger": false,
      "metar": "METAR LROP 250500Z 24006KT 7000 OVC004 M00/M00 Q1015 NOSIG",
      "taf": ""
    },
    {
      "icao": "LRSB",
      "alert": "OK",
      "vis_m": 9999,
      "fzfg": false,
      "metar_trigger": false,
      "taf_trigger": false,
      "metar": "METAR LRSB 250500Z VRB02KT 9999 FEW050 SCT070 00/M01 Q1010",
      "taf": "TAF LRSB 242300Z 2500/2524 VRB04KT 3000 BR NSC"
    },
    {
      "icao": "LRSM",
      "alert": "OK",
      "vis_m": 7000,
      "fzfg": false,
      "metar_trigger": false,
      "taf_trigger": false,
      "metar": "METAR LRSM 250500Z VRB02KT 7000 NSC 01/M00 Q1010",
      "taf": "TAF LRSM 250200Z 2503/2512 VRB04KT 5000 BR BKN010"
    },
    {
      "icao": "LRSV",
      "alert": "OK",
      "vis_m": 650,
      "fzfg": true,
      "metar_trigger": false,
      "taf_trigger": false,
      "metar": "METAR LRSV 250500Z 17004KT 0650 R34/0750N FZFG VV002 M02/M02 Q1011",
      "taf": ""
    },
    {
      "icao": "LRTM",
      "alert": "OK",
      "vis_m": 3400,
      "fzfg": false,
      "metar_trigger": false,
      "taf_trigger": false,
      "metar": "METAR LRTM 250500Z VRB02KT 3400 BR FEW010 BKN045 M02/M02 Q1011",
      "taf": "TAF LRTM 250200Z 2503/2512 VRB04KT 1500 BR OVC002"
    },
    {
      "icao": "LRTR",
      "alert": "OK",
      "vis_m": 9999,
      "fzfg": false,
      "metar_trigger": false,
      "taf_trigger": false,
      "metar": "METAR LRTR 250500Z 10011KT CAVOK 03/01 Q1008",
      "taf": "TAF LRTR 242300Z 2500/2524 08006KT 9999 BKN045"
    },
    {
      "icao": "LTAC",
      "alert": "OK",
      "vis_m": 550,
      "fzfg": false,
      "metar_trigger": false,
      "taf_trigger": false,
      "metar": "METAR LTAC 250450Z VRB02KT 0550 R03C/0800U R21C/0650D R03L/0600D R03R/0800D FG BKN001 03/02 Q1019 BECMG 1200 BCFG",
      "taf": "TAF LTAC 250440Z 2506/2606 VRB02KT 1200 BCFG BKN001"
    },
    {
      "icao": "LTFM",
      "alert": "OK",
      "vis_m": 4800,
      "fzfg": false,
      "metar_trigger": false,
      "taf_trigger": false,
      "metar": "METAR LTFM 250450Z 19007KT 4800 BR SCT018 BKN028 06/06 Q1016 NOSIG",
      "taf": "TAF LTFM 250440Z 2506/2612 22014KT 9999 BKN035"
    },
    {
      "icao": "LUKK",
      "alert": "OK",
      "vis_m": 3100,
      "fzfg": true,
      "metar_trigger": false,
      "taf_trigger": false,
      "metar": "METAR LUKK 250500Z 10008KT 3100 -FZDZ BR OVC001 M03/M03 Q1016 TEMPO 0800 -FZDZ FZFG",
      "taf": "TAF LUKK 242323Z 2500/2524 12008KT 1000 FZDZ BR OVC001"
    },
    {
      "icao": "LWOH",
      "alert": "OK",
      "vis_m": null,
      "fzfg": false,
      "metar_trigger": false,
      "taf_trigger": false,
      "metar": "",
      "taf": "TAF LWOH 250225Z 2503/2603 VRB02KT 9999 SCT015 OVC030"
    },
    {
      "icao": "LWSK",
      "alert": "OK",
      "vis_m": 4000,
      "fzfg": false,
      "metar_trigger": false,
      "taf_trigger": false,
      "metar": "METAR LWSK 250450Z VRB02KT 4000 BR OVC023 04/03 Q1014 NOSIG",
      "taf": "TAF LWSK 250225Z 2503/2603 VRB02KT 4000 BR OVC025"
    },
    {
      "icao": "LYBE",
      "alert": "OK",
      "vis_m": 9999,
      "fzfg": false,
      "metar_trigger": false,
      "taf_trigger": false,
      "metar": "METAR LYBE 250500Z 12006KT CAVOK 06/03 Q1007 NOSIG",
      "taf": "TAF LYBE 242300Z 2500/2524 13012KT CAVOK TX13/2513Z TN04/2503Z"
    },
    {
      "icao": "LYNI",
      "alert": "OK",
      "vis_m": 9999,
      "fzfg": false,
      "metar_trigger": false,
      "taf_trigger": false,
      "metar": "METAR LYNI 250500Z 00000KT 9999 FEW070 04/02 Q1012 NOSIG",
      "taf": "TAF LYNI 242300Z 2500/2524 10006KT 9999 SCT080 TX12/2513Z TN03/2505Z"
    },
    {
      "icao": "LYPG",
      "alert": "OK",
      "vis_m": 9999,
      "fzfg": false,
      "metar_trigger": false,
      "taf_trigger": false,
      "metar": "METAR LYPG 250500Z 31003KT 280V020 9999 -RA FEW030 SCT050 OVC070 11/09 Q1009 NOSIG",
      "taf": "TAF LYPG 242300Z 2500/2524 36005KT 9999 FEW010 BKN040 OVC070 TX13/2513Z TN08/2505Z"
    },
    {
      "icao": "LZIB",
      "alert": "OK",
      "vis_m": 4200,
      "fzfg": false,
      "metar_trigger": false,
      "taf_trigger": false,
      "metar": "METAR LZIB 250500Z 05006KT 4200 BR OVC004 02/02 Q1005 TEMPO OVC002",
      "taf": ""
    },
    {
      "icao": "LZKZ",
      "alert": "OK",
      "vis_m": 8000,
      "fzfg": false,
      "metar_trigger": false,
      "taf_trigger": false,
      "metar": "METAR LZKZ 250500Z 33001KT 8000 NSC 01/01 Q1009 NOSIG",
      "taf": "TAF LZKZ 242315Z 2500/2600 23005KT 2500 BR SCT003 OVC015"
    },
    {
      "icao": "LZTT",
      "alert": "OK",
      "vis_m": 6000,
      "fzfg": false,
      "metar_trigger": false,
      "taf_trigger": false,
      "metar": "METAR LZTT 250500Z VRB02KT 6000 BKN001 OVC023 01/00 Q1006",
      "taf": "TAF LZTT 242315Z 2500/2600 15004KT 5000 BR SCT005 BKN030"
    },
    {
      "icao": "OEJN",
      "alert": "OK",
      "vis_m": 9999,
      "fzfg": false,
      "metar_trigger": false,
      "taf_trigger": false,
      "metar": "METAR OEJN 250500Z 02005KT CAVOK 23/09 Q1016 NOSIG",
      "taf": "TAF OEJN 250500Z 2506/2612 34012KT 9999 FEW040"
    },
    {
      "icao": "OEMA",
      "alert": "OK",
      "vis_m": 9999,
      "fzfg": false,
      "metar_trigger": false,
      "taf_trigger": false,
      "metar": "METAR OEMA 250500Z 04007KT CAVOK 14/01 Q1023 NOSIG",
      "taf": "TAF OEMA 250500Z 2506/2612 09012KT 7000 NSC"
    },
    {
      "icao": "OJAI",
      "alert": "OK",
      "vis_m": 3000,
      "fzfg": false,
      "metar_trigger": false,
      "taf_trigger": false,
      "metar": "METAR OJAI 250400Z 05003KT 3000 BR NSC 02/01 Q1024 NOSIG",
      "taf": "TAF OJAI 242203Z 2500/2606 VRB02KT 3000 BR FEW030"
    },
    {
      "icao": "OMAA",
      "alert": "OK",
      "vis_m": 9999,
      "fzfg": false,
      "metar_trigger": false,
      "taf_trigger": false,
      "metar": "METAR OMAA 250500Z 13011KT CAVOK 19/04 Q1017 NOSIG",
      "taf": "TAF OMAA 250500Z 2506/2612 16010KT 8000 FEW045"
    },
    {
      "icao": "OMDB",
      "alert": "OK",
      "vis_m": 9999,
      "fzfg": false,
      "metar_trigger": false,
      "taf_trigger": false,
      "metar": "METAR OMDB 250500Z 12007KT CAVOK 20/11 Q1017 NOSIG",
      "taf": "TAF OMDB 250500Z 2506/2612 16012KT 8000 NSC"
    },
    {
      "icao": "UAAA",
      "alert": "OK",
      "vis_m": 5000,
      "fzfg": false,
      "metar_trigger": false,
      "taf_trigger": false,
      "metar": "METAR UAAA 250500Z VRB01MPS 5000 BR FU OVC100 M05/M09 Q1020 NOSIG",
      "taf": "TAF UAAA 242301Z 2500/2524 23003MPS 3100 BR FU SCT011 BKN020 TXM01/2508Z TNM09/2502Z"
    },
    {
      "icao": "UBBB",
      "alert": "OK",
      "vis_m": 9999,
      "fzfg": false,
      "metar_trigger": false,
      "taf_trigger": false,
      "metar": "METAR UBBB 250500Z 32008KT 9999 BKN006 OVC024 04/03 Q1020 NOSIG",
      "taf": "TAF UBBB 250502Z 2506/2606 33006KT 9999 SCT009 BKN025 TX07/2510Z TN02/2601Z"
    },
    {
      "icao": "UDSG",
      "alert": "CRITICAL",
      "vis_m": 100,
      "fzfg": true,
      "metar_trigger": true,
      "taf_trigger": false,
      "metar": "METAR UDSG 250500Z 24002KT 0100 R02/0125N FZFG VV001 M10/M10 Q1021 NOSIG",
      "taf": "TAF UDSG 242258Z 2500/2524 VRB06KT 2000 BR BKN030"
    },
    {
      "icao": "UDYZ",
      "alert": "OK",
      "vis_m": 2300,
      "fzfg": false,
      "metar_trigger": false,
      "taf_trigger": false,
      "metar": "METAR UDYZ 250500Z 02003KT 2300 BR BKN005 M04/M05 Q1024 NOSIG",
      "taf": "TAF UDYZ 242300Z 2500/2524 VRB04KT 1200 BR SCT020"
    },
    {
      "icao": "UGKO",
      "alert": "OK",
      "vis_m": 4500,
      "fzfg": false,
      "metar_trigger": false,
      "taf_trigger": false,
      "metar": "METAR UGKO 250500Z 17003KT 100V230 4500 RA BR SCT022 OVC052 05/05 Q1020 NOSIG",
      "taf": "TAF UGKO 250500Z 2506/2606 09007KT 9999 BKN080 TX09/2511Z TN03/2604Z"
    }
  ]
}