{
  "ts_utc": "2026-02-22T16:25:39Z",
  "threshold_m": 150,
  "source": "stations_override.txt (ICAO list) + aviationweather.gov (METAR/TAF raw)",
  "station_count": 159,
  "stations": [
    {
      "icao": "BIKF",
      "alert": "OK",
      "vis_m": 9999,
      "fzfg": false,
      "metar_trigger": false,
      "taf_trigger": false,
      "metar": "METAR BIKF 221600Z 07012KT 9999 -RASN SCT013 BKN024 OVC044 03/M01 Q0991",
      "taf": "TAF BIKF 221356Z 2215/2315 07015KT 9999 BKN035 TX07/2312Z TN02/2220Z"
    },
    {
      "icao": "BKPR",
      "alert": "OK",
      "vis_m": 9999,
      "fzfg": false,
      "metar_trigger": false,
      "taf_trigger": false,
      "metar": "METAR BKPR 221600Z 02008KT 9999 BKN045 06/02 Q1024 NOSIG",
      "taf": "TAF BKPR 221130Z 2212/2312 35008KT 9999 BKN050"
    },
    {
      "icao": "EBCI",
      "alert": "OK",
      "vis_m": 2800,
      "fzfg": false,
      "metar_trigger": false,
      "taf_trigger": false,
      "metar": "METAR EBCI 221550Z 25014KT 2800 RADZ SCT006 BKN009 11/10 Q1018 TEMPO 23015G25KT",
      "taf": "TAF EBCI 221120Z 2212/2318 24014KT 9999 -RADZ SCT004 BKN007"
    },
    {
      "icao": "EDDB",
      "alert": "OK",
      "vis_m": 9999,
      "fzfg": false,
      "metar_trigger": false,
      "taf_trigger": false,
      "metar": "METAR EDDB 221550Z AUTO 24013KT 9999 -SHRA SCT009 BKN013 BKN018 FEW///TCU 10/10 Q1009 TEMPO RA BKN007",
      "taf": "TAF EDDB 221100Z 2212/2312 24012KT 9000 SCT008 OVC015"
    },
    {
      "icao": "EDDH",
      "alert": "OK",
      "vis_m": 2600,
      "fzfg": false,
      "metar_trigger": false,
      "taf_trigger": false,
      "metar": "METAR EDDH 221550Z COR AUTO 25011KT 220V280 2600 -SHRA BR BKN006 FEW///TCU 10/10 Q1007 TEMPO 27015G25KT 3500 DZRA BKN004",
      "taf": "TAF EDDH 221100Z 2212/2318 26008KT 8000 OVC006"
    },
    {
      "icao": "EDDK",
      "alert": "OK",
      "vis_m": 9999,
      "fzfg": false,
      "metar_trigger": false,
      "taf_trigger": false,
      "metar": "METAR EDDK 221550Z AUTO 25009KT 9999 -RA FEW007 BKN015 OVC021 12/11 Q1016 TEMPO RA",
      "taf": "TAF EDDK 221100Z 2212/2318 25012KT 9999 BKN020"
    },
    {
      "icao": "EDDN",
      "alert": "OK",
      "vis_m": 9999,
      "fzfg": false,
      "metar_trigger": false,
      "taf_trigger": false,
      "metar": "METAR EDDN 221550Z AUTO 25012KT 9999 -SHRA OVC017 FEW///TCU 10/08 Q1018 TEMPO SHRA BKN012",
      "taf": "TAF EDDN 221100Z 2212/2312 25012KT 9999 SCT012 BKN020"
    },
    {
      "icao": "EDDS",
      "alert": "OK",
      "vis_m": 9999,
      "fzfg": false,
      "metar_trigger": false,
      "taf_trigger": false,
      "metar": "METAR EDDS 221550Z AUTO 24011KT 200V260 9999 BKN026 11/07 Q1020 NOSIG",
      "taf": "TAF EDDS 221100Z 2212/2312 22008KT 9999 BKN025"
    },
    {
      "icao": "EDFH",
      "alert": "OK",
      "vis_m": 6000,
      "fzfg": false,
      "metar_trigger": false,
      "taf_trigger": false,
      "metar": "METAR EDFH 221550Z 25017G27KT 6000 -RA OVC005 09/09 Q1018",
      "taf": "TAF EDFH 221100Z 2212/2312 26012KT 9999 SCT002 BKN010"
    },
    {
      "icao": "EDJA",
      "alert": "OK",
      "vis_m": 9999,
      "fzfg": false,
      "metar_trigger": false,
      "taf_trigger": false,
      "metar": "METAR EDJA 221550Z 23014KT 9999 FEW050 BKN060 09/05 Q1022",
      "taf": "TAF EDJA 221400Z 2215/2224 23013KT 9999 SCT040"
    },
    {
      "icao": "EDLW",
      "alert": "OK",
      "vis_m": 4500,
      "fzfg": false,
      "metar_trigger": false,
      "taf_trigger": false,
      "metar": "METAR EDLW 221550Z 24013KT 4500 -DZ BR SCT006 BKN008 OVC014 11/11 Q1014",
      "taf": "TAF EDLW 221100Z 2212/2312 24015G25KT 9999 BKN012"
    },
    {
      "icao": "EDNY",
      "alert": "OK",
      "vis_m": 9999,
      "fzfg": false,
      "metar_trigger": false,
      "taf_trigger": false,
      "metar": "METAR EDNY 221520Z 25006KT 9999 OVC031 11/06 Q1024",
      "taf": "TAF EDNY 221400Z 2215/2224 24007KT 9999 SCT045"
    },
    {
      "icao": "EDSB",
      "alert": "OK",
      "vis_m": 9999,
      "fzfg": false,
      "metar_trigger": false,
      "taf_trigger": false,
      "metar": "METAR EDSB 221550Z 21013KT 9999 OVC027 12/09 Q1021",
      "taf": "TAF EDSB 221100Z 2212/2312 21012KT 9999 BKN025"
    },
    {
      "icao": "EETN",
      "alert": "OK",
      "vis_m": 9999,
      "fzfg": false,
      "metar_trigger": false,
      "taf_trigger": false,
      "metar": "METAR EETN 221550Z 28012KT 9999 FEW017 M04/M06 Q1007 NOSIG",
      "taf": "TAF EETN 221130Z 2212/2312 30018G30KT 9999 DRSN BKN013"
    },
    {
      "icao": "EFTU",
      "alert": "OK",
      "vis_m": 9999,
      "fzfg": false,
      "metar_trigger": false,
      "taf_trigger": false,
      "metar": "METAR EFTU 221550Z AUTO 27004KT CAVOK M05/M06 Q1008",
      "taf": ""
    },
    {
      "icao": "EGBB",
      "alert": "OK",
      "vis_m": 9999,
      "fzfg": false,
      "metar_trigger": false,
      "taf_trigger": false,
      "metar": "METAR EGBB 221550Z 25011KT 190V290 9999 SCT037 13/05 Q1013",
      "taf": "TAF EGBB 221102Z 2212/2312 23012KT 9999 FEW025"
    },
    {
      "icao": "EGGP",
      "alert": "OK",
      "vis_m": 9999,
      "fzfg": false,
      "metar_trigger": false,
      "taf_trigger": false,
      "metar": "METAR EGGP 221550Z 24017KT CAVOK 11/05 Q1011",
      "taf": ""
    },
    {
      "icao": "EGGW",
      "alert": "OK",
      "vis_m": 9999,
      "fzfg": false,
      "metar_trigger": false,
      "taf_trigger": false,
      "metar": "METAR EGGW 221550Z AUTO 24017KT 9999 FEW027 11/07 Q1014",
      "taf": "TAF EGGW 221055Z 2212/2312 25013KT 9999 FEW030"
    },
    {
      "icao": "EGKK",
      "alert": "OK",
      "vis_m": 9999,
      "fzfg": false,
      "metar_trigger": false,
      "taf_trigger": false,
      "metar": "METAR EGKK 221550Z 23010KT 9999 FEW014 12/10 Q1016",
      "taf": ""
    },
    {
      "icao": "EGNM",
      "alert": "OK",
      "vis_m": 9999,
      "fzfg": false,
      "metar_trigger": false,
      "taf_trigger": false,
      "metar": "METAR EGNM 221550Z 25019G31KT 9999 FEW028 11/02 Q1009",
      "taf": "TAF EGNM 221055Z 2212/2312 26014KT 9999 SCT030"
    },
    {
      "icao": "EGPD",
      "alert": "OK",
      "vis_m": 9999,
      "fzfg": false,
      "metar_trigger": false,
      "taf_trigger": false,
      "metar": "METAR EGPD 221550Z COR AUTO 25009KT 9999 NCD 10/02 Q1001 NOSIG",
      "taf": "TAF EGPD 221057Z 2212/2312 23009KT 9999 FEW035"
    },
    {
      "icao": "EGPF",
      "alert": "OK",
      "vis_m": 9999,
      "fzfg": false,
      "metar_trigger": false,
      "taf_trigger": false,
      "metar": "METAR EGPF 221550Z AUTO 22015KT 9999 -RA FEW046/// //////CB 10/06 Q1003",
      "taf": "TAF EGPF 221057Z 2212/2312 22009KT 9999 FEW020 SCT035"
    },
    {
      "icao": "EHBK",
      "alert": "OK",
      "vis_m": 9999,
      "fzfg": false,
      "metar_trigger": false,
      "taf_trigger": false,
      "metar": "METAR EHBK 221555Z AUTO 25010KT 210V290 9999 -SHRA FEW006 BKN007 BKN009 BKN015CB 11/11 Q1017 RERA TEMPO 7000 RA",
      "taf": "TAF EHBK 221115Z 2212/2318 25015KT 7000 -RADZ SCT008 BKN012"
    },
    {
      "icao": "EHEH",
      "alert": "OK",
      "vis_m": 2900,
      "fzfg": false,
      "metar_trigger": false,
      "taf_trigger": false,
      "metar": "METAR EHEH 221555Z AUTO 24012KT 200V280 2900 R21/P3000N +DZ FEW005 BKN007 OVC009 11/11 Q1015 YLO NOSIG RMK TREND REMOTE BY EHWX",
      "taf": "TAF EHEH 221124Z 2212/2318 24012G22KT 8000 -RA FEW006 BKN008 OVC012"
    },
    {
      "icao": "EKBI",
      "alert": "OK",
      "vis_m": 7000,
      "fzfg": false,
      "metar_trigger": false,
      "taf_trigger": false,
      "metar": "METAR EKBI 221550Z AUTO 20005KT 180V240 7000 RA BKN003/// OVC037/// 05/05 Q1004",
      "taf": "TAF EKBI 221427Z 2215/2315 14010KT 5000 SCT003 BKN010"
    },
    {
      "icao": "EKCH",
      "alert": "OK",
      "vis_m": 1100,
      "fzfg": false,
      "metar_trigger": false,
      "taf_trigger": false,
      "metar": "METAR EKCH 221550Z 13011KT 1100 R22L/P1500N R04L/P1500N R12/P1500N BR -RA OVC002 01/01 Q1006 BECMG 0600 FG",
      "taf": ""
    },
    {
      "icao": "ENAL",
      "alert": "OK",
      "vis_m": 9999,
      "fzfg": false,
      "metar_trigger": false,
      "taf_trigger": false,
      "metar": "METAR ENAL 221550Z 13015KT 9999 BKN049 02/M04 Q0998",
      "taf": "TAF ENAL 221400Z 2215/2224 14012KT 9999 SCT030"
    },
    {
      "icao": "ENBR",
      "alert": "OK",
      "vis_m": 6000,
      "fzfg": false,
      "metar_trigger": false,
      "taf_trigger": false,
      "metar": "METAR ENBR 221550Z 13011KT 6000 RASN BKN012 02/01 Q0997 TEMPO 3000 RA VV008 RMK WIND 1200FT 14021KT",
      "taf": ""
    },
    {
      "icao": "ENGM",
      "alert": "OK",
      "vis_m": 4500,
      "fzfg": false,
      "metar_trigger": false,
      "taf_trigger": false,
      "metar": "METAR ENGM 221550Z 28003KT 4500 -SN BKN024 M05/M07 Q1006 TEMPO 2500 -SN",
      "taf": "TAF ENGM 221100Z 2212/2312 01005KT 9999 FEW040"
    },
    {
      "icao": "ENHD",
      "alert": "OK",
      "vis_m": 9999,
      "fzfg": false,
      "metar_trigger": false,
      "taf_trigger": false,
      "metar": "METAR ENHD 221550Z 13014KT 9999 -SHRA FEW007 SCT012 BKN018 03/01 Q0999",
      "taf": "TAF ENHD 221400Z 2215/2223 13015KT 8000 -RA SCT005 BKN020"
    },
    {
      "icao": "ENTC",
      "alert": "OK",
      "vis_m": 9999,
      "fzfg": false,
      "metar_trigger": false,
      "taf_trigger": false,
      "metar": "METAR ENTC 221550Z VRB02KT 9999 VCSH SCT008 BKN014 M03/M05 Q1002 TEMPO 0800 SHSN VV006 RMK WIND 2600FT 17009KT",
      "taf": "TAF ENTC 221100Z 2212/2312 22009KT 0700 SHSN VV006"
    },
    {
      "icao": "ENTO",
      "alert": "OK",
      "vis_m": 9999,
      "fzfg": false,
      "metar_trigger": false,
      "taf_trigger": false,
      "metar": "METAR ENTO 221550Z 03005KT 9999 FEW014 SCT030 BKN037 M03/M04 Q1006 TEMPO 4000 -FZDZ BKN008",
      "taf": ""
    },
    {
      "icao": "ENVA",
      "alert": "OK",
      "vis_m": 9999,
      "fzfg": false,
      "metar_trigger": false,
      "taf_trigger": false,
      "metar": "METAR ENVA 221550Z 08010KT CAVOK 00/M06 Q1003 RMK WIND 670FT 11011KT",
      "taf": "TAF ENVA 221100Z 2212/2312 12008KT 9999 FEW010 BKN020"
    },
    {
      "icao": "ENZV",
      "alert": "OK",
      "vis_m": 9999,
      "fzfg": false,
      "metar_trigger": false,
      "taf_trigger": false,
      "metar": "METAR ENZV 221550Z 14013KT 9999 BKN039 04/M00 Q1000 NOSIG",
      "taf": "TAF ENZV 221100Z 2212/2312 15015KT 9999 FEW020 BKN030"
    },
    {
      "icao": "EPGD",
      "alert": "OK",
      "vis_m": 9999,
      "fzfg": false,
      "metar_trigger": false,
      "taf_trigger": false,
      "metar": "METAR EPGD 221530Z 14006KT 9999 -RA BKN025 02/M00 Q1010",
      "taf": ""
    },
    {
      "icao": "EPKK",
      "alert": "OK",
      "vis_m": 9999,
      "fzfg": false,
      "metar_trigger": false,
      "taf_trigger": false,
      "metar": "METAR EPKK 221530Z 24005KT 9999 BKN020 06/02 Q1015",
      "taf": "TAF EPKK 221430Z 2215/2315 24010KT 9999 BKN025"
    },
    {
      "icao": "EPKT",
      "alert": "OK",
      "vis_m": 9999,
      "fzfg": false,
      "metar_trigger": false,
      "taf_trigger": false,
      "metar": "METAR EPKT 221530Z 22014KT 9999 OVC008 05/04 Q1014",
      "taf": ""
    },
    {
      "icao": "EPLB",
      "alert": "OK",
      "vis_m": 9999,
      "fzfg": false,
      "metar_trigger": false,
      "taf_trigger": false,
      "metar": "METAR EPLB 221530Z 22006KT 9999 -RA OVC022 04/03 Q1015",
      "taf": "TAF EPLB 221130Z 2212/2312 22008KT 6000 -RA BKN015"
    },
    {
      "icao": "EPMO",
      "alert": "OK",
      "vis_m": 900,
      "fzfg": false,
      "metar_trigger": false,
      "taf_trigger": false,
      "metar": "METAR EPMO 221530Z 15005KT 0900 R08/1100N -RA FG OVC003 04/04 Q1013",
      "taf": ""
    },
    {
      "icao": "EPPO",
      "alert": "OK",
      "vis_m": 1300,
      "fzfg": false,
      "metar_trigger": false,
      "taf_trigger": false,
      "metar": "METAR EPPO 221530Z 22005KT 1300 R28/P2000U -RA BR BKN001 07/07 Q1009",
      "taf": "TAF EPPO 221130Z 2212/2312 19006KT 1400 -DZ BR OVC001"
    },
    {
      "icao": "EPRA",
      "alert": "OK",
      "vis_m": 9999,
      "fzfg": false,
      "metar_trigger": false,
      "taf_trigger": false,
      "metar": "METAR EPRA 221530Z 18005KT 9999 OVC015 06/03 Q1013",
      "taf": "TAF EPRA 221430Z 2215/2224 19008KT 8000 OVC015"
    },
    {
      "icao": "EPRZ",
      "alert": "OK",
      "vis_m": 9999,
      "fzfg": false,
      "metar_trigger": false,
      "taf_trigger": false,
      "metar": "METAR EPRZ 221530Z 21011KT 9999 BKN036 04/M00 Q1016",
      "taf": "TAF EPRZ 221130Z 2212/2312 21014KT 9999 BKN040"
    },
    {
      "icao": "EPSC",
      "alert": "OK",
      "vis_m": 2200,
      "fzfg": false,
      "metar_trigger": false,
      "taf_trigger": false,
      "metar": "METAR EPSC 221530Z 20003KT 170V230 2200 -RA BR OVC001 07/07 Q1007",
      "taf": ""
    },
    {
      "icao": "EPSY",
      "alert": "OK",
      "vis_m": 9999,
      "fzfg": false,
      "metar_trigger": false,
      "taf_trigger": false,
      "metar": "METAR EPSY 221530Z 19005KT 9999 SCT022 BKN032 03/M01 Q1012",
      "taf": "TAF EPSY 221430Z 2215/2224 20006KT 9999 SCT020"
    },
    {
      "icao": "EPWA",
      "alert": "OK",
      "vis_m": 1900,
      "fzfg": false,
      "metar_trigger": false,
      "taf_trigger": false,
      "metar": "METAR EPWA 221530Z 15006KT 1900 1200SE -RA BR OVC002 04/04 Q1013 TEMPO 1300 RADZ BR",
      "taf": "TAF EPWA 221430Z 2215/2315 16005KT 5000 BR OVC005"
    },
    {
      "icao": "EPWR",
      "alert": "OK",
      "vis_m": 9999,
      "fzfg": false,
      "metar_trigger": false,
      "taf_trigger": false,
      "metar": "METAR EPWR 221530Z 21008KT 9999 -RA OVC020 09/06 Q1012",
      "taf": "TAF EPWR 221430Z 2215/2315 19008KT 9999 BKN018"
    },
    {
      "icao": "ESGG",
      "alert": "OK",
      "vis_m": 2800,
      "fzfg": false,
      "metar_trigger": false,
      "taf_trigger": false,
      "metar": "METAR ESGG 221550Z 12007KT 2800 -RASN FEW005 BKN018 OVC032 M00/M01 Q1005",
      "taf": "TAF ESGG 221430Z 2215/2315 14006KT 9999 -SN SCT030 BKN040"
    },
    {
      "icao": "ESKN",
      "alert": "OK",
      "vis_m": 9999,
      "fzfg": false,
      "metar_trigger": false,
      "taf_trigger": false,
      "metar": "METAR ESKN 221550Z 12005KT CAVOK M00/M05 Q1009",
      "taf": "TAF ESKN 221430Z 2215/2315 27005KT CAVOK"
    },
    {
      "icao": "ESMS",
      "alert": "OK",
      "vis_m": 1600,
      "fzfg": false,
      "metar_trigger": false,
      "taf_trigger": false,
      "metar": "METAR ESMS 221550Z 11010KT 1600 BR OVC003 01/01 Q1006",
      "taf": ""
    },
    {
      "icao": "ESSA",
      "alert": "OK",
      "vis_m": 9999,
      "fzfg": false,
      "metar_trigger": false,
      "taf_trigger": false,
      "metar": "METAR ESSA 221550Z 19004KT CAVOK M03/M05 Q1009 NOSIG",
      "taf": "TAF ESSA 221430Z 2215/2315 VRB03KT CAVOK"
    },
    {
      "icao": "EYKA",
      "alert": "OK",
      "vis_m": 9999,
      "fzfg": false,
      "metar_trigger": false,
      "taf_trigger": false,
      "metar": "METAR EYKA 221550Z 23004KT CAVOK M00/M04 Q1013",
      "taf": "TAF EYKA 221104Z 2212/2312 VRB04KT 9000 SCT025"
    },
    {
      "icao": "EYPA",
      "alert": "OK",
      "vis_m": 9999,
      "fzfg": false,
      "metar_trigger": false,
      "taf_trigger": false,
      "metar": "METAR EYPA 221550Z 17003KT CAVOK M02/M04 Q1012",
      "taf": "TAF EYPA 221104Z 2212/2312 VRB04KT 9000 SCT030"
    },
    {
      "icao": "EYVI",
      "alert": "OK",
      "vis_m": 9999,
      "fzfg": false,
      "metar_trigger": false,
      "taf_trigger": false,
      "metar": "METAR EYVI 221550Z 25007KT 9999 BKN020 M00/M04 Q1012 NOSIG",
      "taf": "TAF EYVI 221100Z 2212/2312 27012KT 9000 BKN020"
    },
    {
      "icao": "GCFV",
      "alert": "OK",
      "vis_m": 9999,
      "fzfg": false,
      "metar_trigger": false,
      "taf_trigger": false,
      "metar": "METAR GCFV 221530Z 04006KT CAVOK 23/17 Q1022",
      "taf": "TAF GCFV 221400Z 2215/2315 02010KT 8000 NSC TX24/2314Z TN18/2306Z"
    },
    {
      "icao": "GCLP",
      "alert": "OK",
      "vis_m": 9999,
      "fzfg": false,
      "metar_trigger": false,
      "taf_trigger": false,
      "metar": "METAR GCLP 221530Z 16007KT 100V200 CAVOK 23/13 Q1021 NOSIG",
      "taf": "TAF GCLP 221400Z 2215/2315 16005KT 8000 NSC TX25/2314Z TN19/2306Z"
    },
    {
      "icao": "GCTS",
      "alert": "OK",
      "vis_m": 9999,
      "fzfg": false,
      "metar_trigger": false,
      "taf_trigger": false,
      "metar": "METAR GCTS 221530Z 13007KT 090V160 CAVOK 29/10 Q1021 NOSIG",
      "taf": "TAF GCTS 221400Z 2215/2315 10013KT 8000 NSC TX27/2314Z TN19/2306Z"
    },
    {
      "icao": "GMAD",
      "alert": "OK",
      "vis_m": 9999,
      "fzfg": false,
      "metar_trigger": false,
      "taf_trigger": false,
      "metar": "METAR GMAD 221530Z 27012KT CAVOK 31/03 Q1021 NOSIG",
      "taf": "TAF GMAD 221100Z 2212/2318 08010KT CAVOK"
    },
    {
      "icao": "GMMN",
      "alert": "OK",
      "vis_m": 9999,
      "fzfg": false,
      "metar_trigger": false,
      "taf_trigger": false,
      "metar": "METAR GMMN 221530Z VRB02KT CAVOK 30/11 Q1024 NOSIG",
      "taf": "TAF GMMN 221100Z 2212/2318 12006KT CAVOK"
    },
    {
      "icao": "GMMX",
      "alert": "OK",
      "vis_m": 9999,
      "fzfg": false,
      "metar_trigger": false,
      "taf_trigger": false,
      "metar": "METAR GMMX 221530Z 05005KT 360V110 CAVOK 30/01 Q1024 NOSIG",
      "taf": "TAF GMMX 221100Z 2212/2318 06006KT 8000 NSC"
    },
    {
      "icao": "HEGN",
      "alert": "OK",
      "vis_m": 9999,
      "fzfg": false,
      "metar_trigger": false,
      "taf_trigger": false,
      "metar": "METAR HEGN 221600Z 34016KT CAVOK 22/08 Q1012 NOSIG",
      "taf": "TAF HEGN 221100Z 2212/2318 34012G22KT CAVOK"
    },
    {
      "icao": "HEMA",
      "alert": "OK",
      "vis_m": 9999,
      "fzfg": false,
      "metar_trigger": false,
      "taf_trigger": false,
      "metar": "METAR HEMA 221600Z 01014KT CAVOK 23/12 Q1011 NOSIG",
      "taf": "TAF HEMA 221100Z 2212/2318 35012G25KT CAVOK"
    },
    {
      "icao": "HESH",
      "alert": "OK",
      "vis_m": 9999,
      "fzfg": false,
      "metar_trigger": false,
      "taf_trigger": false,
      "metar": "METAR HESH 221600Z 34009KT CAVOK 24/08 Q1011 NOSIG",
      "taf": "TAF HESH 221100Z 2212/2318 01014KT CAVOK"
    },
    {
      "icao": "HESX",
      "alert": "OK",
      "vis_m": 9999,
      "fzfg": false,
      "metar_trigger": false,
      "taf_trigger": false,
      "metar": "METAR HESX 221600Z 27009KT CAVOK 19/03 Q1015 NOSIG",
      "taf": "TAF HESX 221113Z 2212/2318 30009KT CAVOK"
    },
    {
      "icao": "LATI",
      "alert": "OK",
      "vis_m": 9999,
      "fzfg": false,
      "metar_trigger": false,
      "taf_trigger": false,
      "metar": "METAR LATI 221620Z 33013KT CAVOK 13/01 Q1021 NOSIG",
      "taf": "TAF LATI 221100Z 2212/2312 34010KT CAVOK TX16/2312Z TN04/2305Z"
    },
    {
      "icao": "LBPD",
      "alert": "OK",
      "vis_m": 9999,
      "fzfg": false,
      "metar_trigger": false,
      "taf_trigger": false,
      "metar": "METAR LBPD 221530Z AUTO 29012KT 9999 NCD 09/01 Q1021 NOSIG",
      "taf": "TAF LBPD 221100Z 2212/2312 27016KT 9999 SCT040 BKN060"
    },
    {
      "icao": "LBSF",
      "alert": "OK",
      "vis_m": 9999,
      "fzfg": false,
      "metar_trigger": false,
      "taf_trigger": false,
      "metar": "METAR LBSF 221530Z 29007KT 9999 SCT016 OVC019 02/M01 Q1023 NOSIG",
      "taf": "TAF LBSF 221100Z 2212/2312 29012KT 9999 SCT025 BKN050"
    },
    {
      "icao": "LBWN",
      "alert": "OK",
      "vis_m": 9999,
      "fzfg": false,
      "metar_trigger": false,
      "taf_trigger": false,
      "metar": "METAR LBWN 221530Z 31012KT 9999 FEW032 04/00 Q1021 NOSIG",
      "taf": "TAF LBWN 221100Z 2212/2312 31016KT 9999 OVC015"
    },
    {
      "icao": "LCLK",
      "alert": "OK",
      "vis_m": 9999,
      "fzfg": false,
      "metar_trigger": false,
      "taf_trigger": false,
      "metar": "METAR LCLK 221530Z 22009KT 9999 FEW025 FEW030TCU BKN050 17/12 Q1012 NOSIG",
      "taf": "TAF LCLK 221130Z 2212/2312 22016KT 9999 FEW025"
    },
    {
      "icao": "LCPH",
      "alert": "OK",
      "vis_m": 9999,
      "fzfg": false,
      "metar_trigger": false,
      "taf_trigger": false,
      "metar": "METAR LCPH 221530Z 32006KT 9999 SCT025 FEW030TCU 16/10 Q1013 NOSIG",
      "taf": "TAF LCPH 221130Z 2212/2312 28012KT 9999 SCT020"
    },
    {
      "icao": "LEAL",
      "alert": "OK",
      "vis_m": null,
      "fzfg": false,
      "metar_trigger": false,
      "taf_trigger": false,
      "metar": "",
      "taf": "TAF LEAL 221100Z 2212/2312 19009KT CAVOK TX20/2212Z TN08/2306Z"
    },
    {
      "icao": "LEBB",
      "alert": "OK",
      "vis_m": null,
      "fzfg": false,
      "metar_trigger": false,
      "taf_trigger": false,
      "metar": "",
      "taf": "TAF LEBB 221100Z 2212/2312 10005KT CAVOK TX17/2212Z TN04/2307Z"
    },
    {
      "icao": "LEBL",
      "alert": "OK",
      "vis_m": null,
      "fzfg": false,
      "metar_trigger": false,
      "taf_trigger": false,
      "metar": "",
      "taf": "TAF LEBL 221100Z 2212/2312 20010KT CAVOK TX18/2312Z TN07/2306Z"
    },
    {
      "icao": "LECH",
      "alert": "OK",
      "vis_m": null,
      "fzfg": false,
      "metar_trigger": false,
      "taf_trigger": false,
      "metar": "",
      "taf": ""
    },
    {
      "icao": "LEMD",
      "alert": "OK",
      "vis_m": null,
      "fzfg": false,
      "metar_trigger": false,
      "taf_trigger": false,
      "metar": "",
      "taf": "TAF LEMD 221100Z 2212/2318 VRB04KT CAVOK TX20/2216Z TN02/2307Z"
    },
    {
      "icao": "LEMG",
      "alert": "OK",
      "vis_m": null,
      "fzfg": false,
      "metar_trigger": false,
      "taf_trigger": false,
      "metar": "",
      "taf": "TAF LEMG 221100Z 2212/2312 13006KT CAVOK TX17/2214Z TN06/2307Z"
    },
    {
      "icao": "LEVC",
      "alert": "OK",
      "vis_m": null,
      "fzfg": false,
      "metar_trigger": false,
      "taf_trigger": false,
      "metar": "",
      "taf": "TAF LEVC 221100Z 2212/2312 VRB04KT CAVOK TX23/2212Z TN07/2306Z"
    },
    {
      "icao": "LEXJ",
      "alert": "OK",
      "vis_m": null,
      "fzfg": false,
      "metar_trigger": false,
      "taf_trigger": false,
      "metar": "",
      "taf": "TAF LEXJ 221400Z 2215/2315 VRB03KT CAVOK TX19/2314Z TN05/2306Z"
    },
    {
      "icao": "LEZG",
      "alert": "OK",
      "vis_m": null,
      "fzfg": false,
      "metar_trigger": false,
      "taf_trigger": false,
      "metar": "",
      "taf": "TAF LEZG 221100Z 2212/2312 30009KT CAVOK TX19/2214Z TN05/2306Z"
    },
    {
      "icao": "LEZL",
      "alert": "OK",
      "vis_m": null,
      "fzfg": false,
      "metar_trigger": false,
      "taf_trigger": false,
      "metar": "",
      "taf": "TAF LEZL 221400Z 2215/2315 05005KT CAVOK TX23/2215Z TN08/2307Z"
    },
    {
      "icao": "LFBD",
      "alert": "OK",
      "vis_m": 9999,
      "fzfg": false,
      "metar_trigger": false,
      "taf_trigger": false,
      "metar": "METAR LFBD 221530Z AUTO 27009KT 240V300 CAVOK 16/08 Q1027 NOSIG",
      "taf": "TAF LFBD 221100Z 2212/2318 VRB03KT CAVOK TX16/2315Z TN08/2307Z"
    },
    {
      "icao": "LFLL",
      "alert": "OK",
      "vis_m": 9999,
      "fzfg": false,
      "metar_trigger": false,
      "taf_trigger": false,
      "metar": "METAR LFLL 221530Z 35005KT CAVOK 14/06 Q1025 NOSIG",
      "taf": "TAF LFLL 221100Z 2212/2318 VRB02KT CAVOK"
    },
    {
      "icao": "LFLS",
      "alert": "OK",
      "vis_m": 9999,
      "fzfg": false,
      "metar_trigger": false,
      "taf_trigger": false,
      "metar": "METAR LFLS 221530Z AUTO 36005KT 320V020 CAVOK 14/08 Q1025 NOSIG",
      "taf": "TAF LFLS 221400Z 2215/2315 09005KT CAVOK"
    },
    {
      "icao": "LFMN",
      "alert": "OK",
      "vis_m": 9999,
      "fzfg": false,
      "metar_trigger": false,
      "taf_trigger": false,
      "metar": "METAR LFMN 221530Z 14004KT 9999 BKN025 BKN230 14/10 Q1024 NOSIG",
      "taf": "TAF LFMN 221400Z 2215/2321 12005KT 9999 SCT028 SCT230"
    },
    {
      "icao": "LFOB",
      "alert": "OK",
      "vis_m": 6000,
      "fzfg": false,
      "metar_trigger": false,
      "taf_trigger": false,
      "metar": "METAR LFOB 221530Z AUTO 23011KT 200V260 6000 -RA FEW023/// BKN029/// BKN039/// ///TCU 12/11 Q1021 TEMPO 4000 -RA SCT008 BKN011",
      "taf": "TAF LFOB 221100Z 2212/2312 23012KT 9999 BKN016 OVC030"
    },
    {
      "icao": "LFPO",
      "alert": "OK",
      "vis_m": 9999,
      "fzfg": false,
      "metar_trigger": false,
      "taf_trigger": false,
      "metar": "METAR LFPO 221530Z 24014KT 210V270 9999 -RA BKN021 13/09 Q1023 NOSIG",
      "taf": "TAF LFPO 221100Z 2212/2318 23012KT 9999 BKN014"
    },
    {
      "icao": "LFSB",
      "alert": "OK",
      "vis_m": 9999,
      "fzfg": false,
      "metar_trigger": false,
      "taf_trigger": false,
      "metar": "METAR LFSB 221530Z AUTO 23003KT 190V280 9999 BKN027 OVC110 12/08 Q1024 NOSIG",
      "taf": ""
    },
    {
      "icao": "LGAV",
      "alert": "OK",
      "vis_m": 9999,
      "fzfg": false,
      "metar_trigger": false,
      "taf_trigger": false,
      "metar": "METAR LGAV 221550Z 35011KT 9999 FEW018 BKN025 09/05 Q1020 NOSIG",
      "taf": "TAF LGAV 221100Z 2212/2312 02013KT 9999 FEW020 SCT040"
    },
    {
      "icao": "LGTS",
      "alert": "OK",
      "vis_m": 9999,
      "fzfg": false,
      "metar_trigger": false,
      "taf_trigger": false,
      "metar": "METAR LGTS 221550Z 32012KT 9999 FEW030 11/03 Q1022 NOSIG",
      "taf": "TAF LGTS 221100Z 2212/2312 34015KT 9999 FEW030"
    },
    {
      "icao": "LHBP",
      "alert": "OK",
      "vis_m": 9999,
      "fzfg": false,
      "metar_trigger": false,
      "taf_trigger": false,
      "metar": "METAR LHBP 221530Z 21004KT 9999 BKN039 09/05 Q1021 NOSIG",
      "taf": ""
    },
    {
      "icao": "LHDC",
      "alert": "OK",
      "vis_m": 8000,
      "fzfg": false,
      "metar_trigger": false,
      "taf_trigger": false,
      "metar": "METAR LHDC 221515Z AUTO 17008KT 8000 BKN017 OVC027 06/04 Q1022 NOSIG",
      "taf": "TAF LHDC 221415Z 2215/2224 20006KT 9999 OVC015"
    },
    {
      "icao": "LIBD",
      "alert": "OK",
      "vis_m": 9999,
      "fzfg": false,
      "metar_trigger": false,
      "taf_trigger": false,
      "metar": "METAR LIBD 221550Z 33007KT 290V360 CAVOK 13/05 Q1024",
      "taf": "TAF LIBD 221100Z 2212/2312 34016KT 9999 FEW020"
    },
    {
      "icao": "LIBG",
      "alert": "OK",
      "vis_m": 9999,
      "fzfg": false,
      "metar_trigger": false,
      "taf_trigger": false,
      "metar": "METAR LIBG 221550Z 34013KT CAVOK 13/03 Q1023",
      "taf": "TAF LIBG 221400Z 2215/2224 35010KT CAVOK"
    },
    {
      "icao": "LIBP",
      "alert": "OK",
      "vis_m": 9999,
      "fzfg": false,
      "metar_trigger": false,
      "taf_trigger": false,
      "metar": "METAR LIBP 221550Z AUTO 04007KT 9999 NCD 14/06 Q1023",
      "taf": "TAF LIBP 221100Z 2212/2312 VRB06KT CAVOK"
    },
    {
      "icao": "LIBR",
      "alert": "OK",
      "vis_m": 9999,
      "fzfg": false,
      "metar_trigger": false,
      "taf_trigger": false,
      "metar": "METAR LIBR 221550Z 34011KT CAVOK 13/03 Q1023",
      "taf": "TAF LIBR 221100Z 2212/2312 36016KT 9999 SCT020"
    },
    {
      "icao": "LICA",
      "alert": "OK",
      "vis_m": 9999,
      "fzfg": false,
      "metar_trigger": false,
      "taf_trigger": false,
      "metar": "METAR LICA 221550Z AUTO 27013KT 9999 NCD 14/09 Q1024",
      "taf": "TAF LICA 221100Z 2212/2312 28013KT 9999 FEW020"
    },
    {
      "icao": "LICC",
      "alert": "OK",
      "vis_m": 9999,
      "fzfg": false,
      "metar_trigger": false,
      "taf_trigger": false,
      "metar": "METAR LICC 221550Z COR 12013KT CAVOK 17/13 Q1023 WS R08",
      "taf": "TAF LICC 221100Z 2212/2312 11010KT CAVOK"
    },
    {
      "icao": "LICJ",
      "alert": "OK",
      "vis_m": 9999,
      "fzfg": false,
      "metar_trigger": false,
      "taf_trigger": false,
      "metar": "METAR LICJ 221550Z 31005KT 9999 FEW018 15/11 Q1027",
      "taf": "TAF LICJ 221100Z 2212/2312 33014KT 9999 FEW030"
    },
    {
      "icao": "LIMC",
      "alert": "OK",
      "vis_m": 9999,
      "fzfg": false,
      "metar_trigger": false,
      "taf_trigger": false,
      "metar": "METAR LIMC 221550Z 23004KT 200V270 CAVOK 14/07 Q1022 NOSIG",
      "taf": "TAF LIMC 221100Z 2212/2318 VRB05KT CAVOK"
    },
    {
      "icao": "LIME",
      "alert": "OK",
      "vis_m": 7000,
      "fzfg": false,
      "metar_trigger": false,
      "taf_trigger": false,
      "metar": "METAR LIME 221550Z VRB02KT 7000 NSC 12/07 Q1022 NOSIG",
      "taf": "TAF LIME 221100Z 2212/2312 VRB05KT CAVOK"
    },
    {
      "icao": "LIMF",
      "alert": "OK",
      "vis_m": 7000,
      "fzfg": false,
      "metar_trigger": false,
      "taf_trigger": false,
      "metar": "METAR LIMF 221550Z VRB01KT 7000 NSC 14/04 Q1022",
      "taf": "TAF LIMF 221100Z 2212/2312 VRB05KT CAVOK"
    },
    {
      "icao": "LIMJ",
      "alert": "OK",
      "vis_m": 9999,
      "fzfg": false,
      "metar_trigger": false,
      "taf_trigger": false,
      "metar": "METAR LIMJ 221550Z 13009KT 9999 FEW012 SCT040 14/11 Q1024",
      "taf": "TAF LIMJ 221100Z 2212/2312 15010KT 9999 FEW020"
    },
    {
      "icao": "LIPE",
      "alert": "OK",
      "vis_m": 9999,
      "fzfg": false,
      "metar_trigger": false,
      "taf_trigger": false,
      "metar": "METAR LIPE 221550Z 09004KT CAVOK 14/07 Q1023",
      "taf": "TAF LIPE 221100Z 2212/2312 VRB05KT CAVOK"
    },
    {
      "icao": "LIPH",
      "alert": "OK",
      "vis_m": 9999,
      "fzfg": false,
      "metar_trigger": false,
      "taf_trigger": false,
      "metar": "METAR LIPH 221550Z 15004KT CAVOK 11/07 Q1023",
      "taf": "TAF LIPH 221100Z 2212/2312 VRB05KT CAVOK"
    },
    {
      "icao": "LIPQ",
      "alert": "OK",
      "vis_m": 9999,
      "fzfg": false,
      "metar_trigger": false,
      "taf_trigger": false,
      "metar": "METAR LIPQ 221550Z AUTO 17003KT 9999 BKN190/// BKN220/// 10/07 Q1023",
      "taf": "TAF LIPQ 221100Z 2212/2312 VRB06KT CAVOK"
    },
    {
      "icao": "LIPR",
      "alert": "OK",
      "vis_m": 9999,
      "fzfg": false,
      "metar_trigger": false,
      "taf_trigger": false,
      "metar": "METAR LIPR 221550Z 06004KT CAVOK 11/09 Q1023",
      "taf": "TAF LIPR 221100Z 2212/2312 VRB05KT CAVOK"
    },
    {
      "icao": "LIPX",
      "alert": "OK",
      "vis_m": 9999,
      "fzfg": false,
      "metar_trigger": false,
      "taf_trigger": false,
      "metar": "METAR LIPX 221550Z 13003KT 9999 FEW080 13/05 Q1023",
      "taf": "TAF LIPX 221100Z 2212/2312 VRB05KT CAVOK"
    },
    {
      "icao": "LIPY",
      "alert": "OK",
      "vis_m": 9999,
      "fzfg": false,
      "metar_trigger": false,
      "taf_trigger": false,
      "metar": "METAR LIPY 221550Z AUTO 14004KT 110V190 9999 NCD 16/05 Q1023",
      "taf": "TAF LIPY 221100Z 2212/2312 VRB05KT CAVOK"
    },
    {
      "icao": "LIPZ",
      "alert": "OK",
      "vis_m": 9999,
      "fzfg": false,
      "metar_trigger": false,
      "taf_trigger": false,
      "metar": "METAR LIPZ 221550Z VRB02KT CAVOK 10/07 Q1024 NOSIG",
      "taf": "TAF LIPZ 221100Z 2212/2318 VRB05KT 9999 FEW060"
    },
    {
      "icao": "LIRF",
      "alert": "OK",
      "vis_m": 9999,
      "fzfg": false,
      "metar_trigger": false,
      "taf_trigger": false,
      "metar": "METAR LIRF 221550Z 25007KT CAVOK 15/10 Q1025 NOSIG",
      "taf": "TAF LIRF 221100Z 2212/2318 28008KT CAVOK"
    },
    {
      "icao": "LIRN",
      "alert": "OK",
      "vis_m": 9999,
      "fzfg": false,
      "metar_trigger": false,
      "taf_trigger": false,
      "metar": "METAR LIRN 221550Z AUTO 30010KT 9999 NCD 16/02 Q1025",
      "taf": "TAF LIRN 221100Z 2212/2312 29008KT CAVOK"
    },
    {
      "icao": "LIRP",
      "alert": "OK",
      "vis_m": 9999,
      "fzfg": false,
      "metar_trigger": false,
      "taf_trigger": false,
      "metar": "METAR LIRP 221545Z 26007KT CAVOK 14/11 Q1025 NOSIG",
      "taf": "TAF LIRP 221100Z 2212/2312 26004KT CAVOK"
    },
    {
      "icao": "LIRZ",
      "alert": "OK",
      "vis_m": 9999,
      "fzfg": false,
      "metar_trigger": false,
      "taf_trigger": false,
      "metar": "METAR LIRZ 221550Z AUTO 16003KT 9999 NCD 17/06 Q1024",
      "taf": "TAF LIRZ 221100Z 2212/2312 VRB05KT 9999 FEW030"
    },
    {
      "icao": "LJLJ",
      "alert": "OK",
      "vis_m": 9999,
      "fzfg": false,
      "metar_trigger": false,
      "taf_trigger": false,
      "metar": "METAR LJLJ 221530Z VRB01KT CAVOK 07/04 Q1022 NOSIG",
      "taf": "TAF LJLJ 221100Z 2212/2312 VRB02KT 9999 FEW005"
    },
    {
      "icao": "LKMT",
      "alert": "OK",
      "vis_m": 8000,
      "fzfg": false,
      "metar_trigger": false,
      "taf_trigger": false,
      "metar": "METAR LKMT 221530Z 21013KT 8000 -RA BKN012 BKN023 05/05 Q1016 NOSIG",
      "taf": "TAF LKMT 221100Z 2212/2312 24012KT 8000 BKN040"
    },
    {
      "icao": "LKPR",
      "alert": "OK",
      "vis_m": 9999,
      "fzfg": false,
      "metar_trigger": false,
      "taf_trigger": false,
      "metar": "METAR LKPR 221530Z 21018KT 9999 -RA FEW013 BKN016 09/07 Q1015 NOSIG",
      "taf": "TAF LKPR 221400Z 2215/2321 22018KT 9999 BKN040"
    },
    {
      "icao": "LLBG",
      "alert": "OK",
      "vis_m": 9999,
      "fzfg": false,
      "metar_trigger": false,
      "taf_trigger": false,
      "metar": "METAR LLBG 221550Z 31005KT 9999 FEW030 17/11 Q1015 NOSIG",
      "taf": "TAF LLBG 221105Z 2212/2312 28010KT 9999 SCT030"
    },
    {
      "icao": "LMML",
      "alert": "OK",
      "vis_m": 9999,
      "fzfg": false,
      "metar_trigger": false,
      "taf_trigger": false,
      "metar": "METAR LMML 221615Z 28008KT 230V320 9999 FEW025 16/08 Q1025 NOSIG",
      "taf": "TAF LMML 221100Z 2212/2312 34016KT CAVOK"
    },
    {
      "icao": "LOWW",
      "alert": "OK",
      "vis_m": 8000,
      "fzfg": false,
      "metar_trigger": false,
      "taf_trigger": false,
      "metar": "METAR LOWW 221550Z 18007KT 8000 4400S -RA BR FEW024 BKN030 BKN040 04/03 Q1020 NOSIG",
      "taf": "TAF LOWW 221415Z 2215/2321 20006KT 9999 FEW040 BKN050 TX12/2314Z TN02/2218Z"
    },
    {
      "icao": "LPFR",
      "alert": "OK",
      "vis_m": 9999,
      "fzfg": false,
      "metar_trigger": false,
      "taf_trigger": false,
      "metar": "METAR LPFR 221530Z 09010KT CAVOK 20/02 Q1026",
      "taf": "TAF LPFR 221100Z 2212/2312 10010KT CAVOK"
    },
    {
      "icao": "LPMA",
      "alert": "OK",
      "vis_m": null,
      "fzfg": false,
      "metar_trigger": false,
      "taf_trigger": false,
      "metar": "",
      "taf": "TAF LPMA 221100Z 2212/2312 02010KT 9999 SCT015"
    },
    {
      "icao": "LPPR",
      "alert": "OK",
      "vis_m": 9999,
      "fzfg": false,
      "metar_trigger": false,
      "taf_trigger": false,
      "metar": "METAR LPPR 221530Z 32008KT CAVOK 15/10 Q1027",
      "taf": "TAF LPPR 221100Z 2212/2312 VRB02KT CAVOK"
    },
    {
      "icao": "LPPS",
      "alert": "OK",
      "vis_m": 9999,
      "fzfg": false,
      "metar_trigger": false,
      "taf_trigger": false,
      "metar": "METAR LPPS 221530Z 13007KT 9999 FEW015 17/12 Q1024",
      "taf": "TAF LPPS 221100Z 2212/2318 09008KT 9999 SCT015 SCT030"
    },
    {
      "icao": "LPPT",
      "alert": "OK",
      "vis_m": 9999,
      "fzfg": false,
      "metar_trigger": false,
      "taf_trigger": false,
      "metar": "METAR LPPT 221530Z 07004KT 340V110 CAVOK 21/08 Q1026",
      "taf": "TAF LPPT 221100Z 2212/2318 06007KT CAVOK"
    },
    {
      "icao": "LQBK",
      "alert": "OK",
      "vis_m": 9999,
      "fzfg": false,
      "metar_trigger": false,
      "taf_trigger": false,
      "metar": "METAR LQBK 221600Z 11003KT CAVOK 14/05 Q1022 NOSIG",
      "taf": "TAF LQBK 221100Z 2212/2312 22005KT CAVOK TX14/2312Z TN02/2306Z"
    },
    {
      "icao": "LQSA",
      "alert": "OK",
      "vis_m": 9999,
      "fzfg": false,
      "metar_trigger": false,
      "taf_trigger": false,
      "metar": "METAR LQSA 221530Z 14005KT CAVOK 09/00 Q1024 NOSIG",
      "taf": "TAF LQSA 221100Z 2212/2312 VRB02KT 9999 BKN030 TX12/2312Z TN01/2304Z"
    },
    {
      "icao": "LQTZ",
      "alert": "OK",
      "vis_m": 9999,
      "fzfg": false,
      "metar_trigger": false,
      "taf_trigger": false,
      "metar": "METAR LQTZ 221600Z 11005KT CAVOK 10/03 Q1023",
      "taf": "TAF LQTZ 221100Z 2212/2312 VRB02KT 9999 SCT050 TX11/2213Z TNM01/2305Z"
    },
    {
      "icao": "LRBC",
      "alert": "OK",
      "vis_m": null,
      "fzfg": false,
      "metar_trigger": false,
      "taf_trigger": false,
      "metar": "",
      "taf": "TAF LRBC 221400Z 2215/2224 VRB04KT CAVOK"
    },
    {
      "icao": "LRBS",
      "alert": "OK",
      "vis_m": 9999,
      "fzfg": false,
      "metar_trigger": false,
      "taf_trigger": false,
      "metar": "METAR LRBS 221530Z 27007KT 240V300 CAVOK 00/M02 Q1022 NOSIG",
      "taf": "TAF LRBS 221100Z 2212/2312 25009KT CAVOK"
    },
    {
      "icao": "LRBV",
      "alert": "OK",
      "vis_m": null,
      "fzfg": false,
      "metar_trigger": false,
      "taf_trigger": false,
      "metar": "",
      "taf": "TAF LRBV 221400Z 2215/2224 29006KT 9999 SCT015 BKN025"
    },
    {
      "icao": "LRCL",
      "alert": "OK",
      "vis_m": null,
      "fzfg": false,
      "metar_trigger": false,
      "taf_trigger": false,
      "metar": "",
      "taf": "TAF LRCL 221400Z 2215/2224 VRB03KT 9999 SCT025 BKN055"
    },
    {
      "icao": "LRCV",
      "alert": "OK",
      "vis_m": null,
      "fzfg": false,
      "metar_trigger": false,
      "taf_trigger": false,
      "metar": "",
      "taf": ""
    },
    {
      "icao": "LRIA",
      "alert": "OK",
      "vis_m": null,
      "fzfg": false,
      "metar_trigger": false,
      "taf_trigger": false,
      "metar": "",
      "taf": "TAF LRIA 221400Z 2215/2224 30006KT 9999 SCT025"
    },
    {
      "icao": "LROP",
      "alert": "OK",
      "vis_m": 6000,
      "fzfg": false,
      "metar_trigger": false,
      "taf_trigger": false,
      "metar": "METAR LROP 221530Z 26008KT 6000 NSC 01/M03 Q1022 NOSIG",
      "taf": "TAF LROP 221100Z 2212/2312 25009KT CAVOK"
    },
    {
      "icao": "LRSB",
      "alert": "OK",
      "vis_m": null,
      "fzfg": false,
      "metar_trigger": false,
      "taf_trigger": false,
      "metar": "",
      "taf": "TAF LRSB 221100Z 2212/2312 VRB03KT 9999 SCT010 BKN035"
    },
    {
      "icao": "LRSM",
      "alert": "OK",
      "vis_m": null,
      "fzfg": false,
      "metar_trigger": false,
      "taf_trigger": false,
      "metar": "",
      "taf": "TAF LRSM 221400Z 2215/2224 VRB04KT 9999 OVC015"
    },
    {
      "icao": "LRSV",
      "alert": "OK",
      "vis_m": null,
      "fzfg": false,
      "metar_trigger": false,
      "taf_trigger": false,
      "metar": "",
      "taf": "TAF LRSV 221400Z 2215/2224 VRB04KT CAVOK"
    },
    {
      "icao": "LRTM",
      "alert": "OK",
      "vis_m": 9999,
      "fzfg": false,
      "metar_trigger": false,
      "taf_trigger": false,
      "metar": "METAR LRTM 221530Z 18004KT 140V230 9999 FEW025 OVC034 04/01 Q1023",
      "taf": "TAF LRTM 221400Z 2215/2224 24004KT 9999 SCT020 BKN030"
    },
    {
      "icao": "LRTR",
      "alert": "OK",
      "vis_m": 9999,
      "fzfg": false,
      "metar_trigger": false,
      "taf_trigger": false,
      "metar": "METAR LRTR 221530Z 14005KT 9999 BKN024 07/05 Q1024 NOSIG",
      "taf": "TAF LRTR 221100Z 2212/2312 VRB04KT 9999 OVC010"
    },
    {
      "icao": "LTAC",
      "alert": "OK",
      "vis_m": 9999,
      "fzfg": false,
      "metar_trigger": false,
      "taf_trigger": false,
      "metar": "METAR LTAC 221550Z 32009KT 9999 SCT040 BKN080 05/00 Q1013 NOSIG RMK RWY21C 29008KT RWY03L 31006KT RWY21R 29006KT 250V310 RWY03R 30009KT RWY21L 29010KT",
      "taf": "TAF LTAC 221040Z 2212/2312 VRB02KT 9999 SCT030 BKN100"
    },
    {
      "icao": "LTFM",
      "alert": "OK",
      "vis_m": 9999,
      "fzfg": false,
      "metar_trigger": false,
      "taf_trigger": false,
      "metar": "METAR LTFM 221550Z 35012KT 9999 BKN012 BKN028 04/01 Q1022 NOSIG RMK RWY17L 35010KT RWY34L 34009KT RWY16R 35009KT RWY36 35010KT RWY18 35012KT",
      "taf": "TAF LTFM 221040Z 2212/2318 36017KT 9999 BKN009 BKN025"
    },
    {
      "icao": "LUKK",
      "alert": "OK",
      "vis_m": 9999,
      "fzfg": false,
      "metar_trigger": false,
      "taf_trigger": false,
      "metar": "METAR LUKK 221530Z 32005KT 280V360 CAVOK 02/M02 Q1020 NOSIG",
      "taf": "TAF LUKK 221101Z 2212/2312 34009KT CAVOK"
    },
    {
      "icao": "LWOH",
      "alert": "OK",
      "vis_m": 9999,
      "fzfg": false,
      "metar_trigger": false,
      "taf_trigger": false,
      "metar": "METAR LWOH 221620Z 34009KT 290V360 CAVOK 07/M01 Q1021",
      "taf": "TAF LWOH 221425Z 2215/2315 01012KT 9999 FEW040"
    },
    {
      "icao": "LWSK",
      "alert": "OK",
      "vis_m": 9999,
      "fzfg": false,
      "metar_trigger": false,
      "taf_trigger": false,
      "metar": "METAR LWSK 221620Z 02011KT 9999 SCT045 05/01 Q1025 NOSIG",
      "taf": "TAF LWSK 221425Z 2215/2315 01012KT 9999 SCT040"
    },
    {
      "icao": "LYBE",
      "alert": "OK",
      "vis_m": 9999,
      "fzfg": false,
      "metar_trigger": false,
      "taf_trigger": false,
      "metar": "METAR LYBE 221530Z 27010KT 9999 FEW025 11/04 Q1024 NOSIG",
      "taf": "TAF LYBE 221100Z 2212/2312 27008KT 9999 SCT020 TX13/2312Z TN04/2306Z"
    },
    {
      "icao": "LYNI",
      "alert": "OK",
      "vis_m": 9999,
      "fzfg": false,
      "metar_trigger": false,
      "taf_trigger": false,
      "metar": "METAR LYNI 221530Z 19004KT 140V270 9999 SCT017 BKN030 04/03 Q1025 NOSIG",
      "taf": "TAF LYNI 221100Z 2212/2312 32010KT 9999 SCT012 BKN023 TX12/2312Z TNM01/2305Z"
    },
    {
      "icao": "LYPG",
      "alert": "OK",
      "vis_m": 9999,
      "fzfg": false,
      "metar_trigger": false,
      "taf_trigger": false,
      "metar": "METAR LYPG 221530Z 01013KT CAVOK 14/M01 Q1022 NOSIG",
      "taf": "TAF LYPG 221100Z 2212/2312 36009KT CAVOK TX16/2213Z TN02/2305Z"
    },
    {
      "icao": "LZIB",
      "alert": "OK",
      "vis_m": 900,
      "fzfg": false,
      "metar_trigger": false,
      "taf_trigger": false,
      "metar": "METAR LZIB 221530Z 00000KT 0900 R31/1700D R22/1600D -RA FG FEW005 OVC040 02/02 Q1020 BECMG 0500 -RA FG",
      "taf": ""
    },
    {
      "icao": "LZKZ",
      "alert": "OK",
      "vis_m": 3500,
      "fzfg": false,
      "metar_trigger": false,
      "taf_trigger": false,
      "metar": "METAR LZKZ 221530Z 20009KT 3500 -RA BR OVC006 01/00 Q1020 TEMPO 2800 BR OVC004",
      "taf": ""
    },
    {
      "icao": "LZTT",
      "alert": "OK",
      "vis_m": 9999,
      "fzfg": false,
      "metar_trigger": false,
      "taf_trigger": false,
      "metar": "METAR LZTT 221530Z 26010KT 9999 FEW016 BKN050 04/02 Q1016 NOSIG",
      "taf": "TAF LZTT 221115Z 2212/2312 25008KT 9999 FEW030 SCT060"
    },
    {
      "icao": "OEJN",
      "alert": "OK",
      "vis_m": null,
      "fzfg": false,
      "metar_trigger": false,
      "taf_trigger": false,
      "metar": "",
      "taf": "TAF OEJN 221100Z 2212/2318 30010KT CAVOK"
    },
    {
      "icao": "OEMA",
      "alert": "OK",
      "vis_m": null,
      "fzfg": false,
      "metar_trigger": false,
      "taf_trigger": false,
      "metar": "",
      "taf": "TAF OEMA 221100Z 2212/2318 12010KT 7000 NSC"
    },
    {
      "icao": "OJAI",
      "alert": "OK",
      "vis_m": 5000,
      "fzfg": false,
      "metar_trigger": false,
      "taf_trigger": false,
      "metar": "METAR OJAI 221600Z 26006KT 5000 HZ FEW030 12/06 Q1016 NOSIG",
      "taf": "TAF OJAI 221100Z 2212/2318 29012KT 5000 HZ SCT030"
    },
    {
      "icao": "OMAA",
      "alert": "OK",
      "vis_m": 9999,
      "fzfg": false,
      "metar_trigger": false,
      "taf_trigger": false,
      "metar": "METAR OMAA 221600Z 31007KT CAVOK 23/20 Q1011 NOSIG",
      "taf": "TAF OMAA 221100Z 2212/2318 31011KT 8000 NSC"
    },
    {
      "icao": "OMDB",
      "alert": "OK",
      "vis_m": 9999,
      "fzfg": false,
      "metar_trigger": false,
      "taf_trigger": false,
      "metar": "METAR OMDB 221600Z 26005KT 220V290 CAVOK 25/18 Q1010 NOSIG",
      "taf": "TAF OMDB 221100Z 2212/2318 29010KT 8000 NSC"
    },
    {
      "icao": "UAAA",
      "alert": "OK",
      "vis_m": 2000,
      "fzfg": false,
      "metar_trigger": false,
      "taf_trigger": false,
      "metar": "METAR UAAA 221600Z 14002MPS 2000 R05R/P2000U BR FU BKN200 03/01 Q1016 NOSIG",
      "taf": "TAF UAAA 221102Z 2212/2312 23003MPS 3100 BR FU SCT030 BKN100 TX08/2309Z TN00/2301Z"
    },
    {
      "icao": "UBBB",
      "alert": "OK",
      "vis_m": 9999,
      "fzfg": false,
      "metar_trigger": false,
      "taf_trigger": false,
      "metar": "METAR UBBB 221530Z 33016KT CAVOK 06/03 Q1017 NOSIG",
      "taf": "TAF UBBB 221048Z 2212/2312 34016G26KT 9999 BKN010 BKN025 TX09/2212Z TN04/2301Z"
    },
    {
      "icao": "UDSG",
      "alert": "OK",
      "vis_m": 9999,
      "fzfg": false,
      "metar_trigger": false,
      "taf_trigger": false,
      "metar": "METAR UDSG 221530Z 14004KT 9999 BKN049 03/M01 Q1013 NOSIG",
      "taf": "TAF UDSG 221100Z 2212/2312 VRB06KT 9999 SCT050"
    },
    {
      "icao": "UDYZ",
      "alert": "OK",
      "vis_m": 9999,
      "fzfg": false,
      "metar_trigger": false,
      "taf_trigger": false,
      "metar": "METAR UDYZ 221530Z 25004KT 9999 -SHRA SCT043CB 12/00 Q1010 NOSIG",
      "taf": "TAF UDYZ 221100Z 2212/2312 24006KT 9999 SCT040"
    },
    {
      "icao": "UGKO",
      "alert": "OK",
      "vis_m": 9999,
      "fzfg": false,
      "metar_trigger": false,
      "taf_trigger": false,
      "metar": "METAR UGKO 221600Z 24008KT 9999 BKN098 11/05 Q1011 NOSIG",
      "taf": "TAF UGKO 221100Z 2212/2312 08017KT 9999 BKN050 TX17/2212Z TN07/2303Z"
    }
  ]
}