{
  "ts_utc": "2026-06-14T19:24:52Z",
  "threshold_m": 150,
  "source": "stations_override.txt (ICAO list) + aviationweather.gov (METAR/TAF raw)",
  "station_count": 159,
  "stations": [
    {
      "icao": "BIKF",
      "alert": "OK",
      "vis_m": 9999,
      "fzfg": false,
      "metar_trigger": false,
      "taf_trigger": false,
      "metar": "METAR BIKF 141900Z 23005KT 170V280 9999 SCT018 13/09 Q1024",
      "taf": "TAF BIKF 141651Z 1418/1518 27007KT 9999 SCT020 BKN040 TX14/1418Z TN08/1504Z"
    },
    {
      "icao": "BKPR",
      "alert": "OK",
      "vis_m": null,
      "fzfg": false,
      "metar_trigger": false,
      "taf_trigger": false,
      "metar": "",
      "taf": "TAF BKPR 141730Z 1418/1518 24010KT CAVOK"
    },
    {
      "icao": "EBCI",
      "alert": "OK",
      "vis_m": 9999,
      "fzfg": false,
      "metar_trigger": false,
      "taf_trigger": false,
      "metar": "METAR EBCI 141850Z 35006KT 320V020 9999 FEW040 15/07 Q1019 NOSIG",
      "taf": "TAF EBCI 141700Z 1418/1524 33008KT 9999 FEW035"
    },
    {
      "icao": "EDDB",
      "alert": "OK",
      "vis_m": 9999,
      "fzfg": false,
      "metar_trigger": false,
      "taf_trigger": false,
      "metar": "METAR EDDB 141920Z AUTO 30011KT 270V330 CAVOK 15/08 Q1009 NOSIG",
      "taf": "TAF EDDB 141700Z 1418/1518 28015G25KT CAVOK"
    },
    {
      "icao": "EDDH",
      "alert": "OK",
      "vis_m": 9999,
      "fzfg": false,
      "metar_trigger": false,
      "taf_trigger": false,
      "metar": "METAR EDDH 141920Z AUTO 29009KT 260V320 9999 FEW010 BKN026 BKN034 12/10 Q1011 TEMPO 29015G25KT 4500 SHRA BKN020TCU",
      "taf": ""
    },
    {
      "icao": "EDDK",
      "alert": "OK",
      "vis_m": 9999,
      "fzfg": false,
      "metar_trigger": false,
      "taf_trigger": false,
      "metar": "METAR EDDK 141920Z AUTO 31012KT 9999 FEW043 15/08 Q1016 NOSIG",
      "taf": "TAF EDDK 141700Z 1418/1524 30013KT CAVOK"
    },
    {
      "icao": "EDDN",
      "alert": "OK",
      "vis_m": 9999,
      "fzfg": false,
      "metar_trigger": false,
      "taf_trigger": false,
      "metar": "METAR EDDN 141920Z AUTO 31010KT CAVOK 16/06 Q1015 NOSIG",
      "taf": "TAF EDDN 141700Z 1418/1518 30010KT 9999 SCT045"
    },
    {
      "icao": "EDDS",
      "alert": "OK",
      "vis_m": 9999,
      "fzfg": false,
      "metar_trigger": false,
      "taf_trigger": false,
      "metar": "METAR EDDS 141920Z AUTO 34006KT CAVOK 17/08 Q1015 NOSIG",
      "taf": "TAF EDDS 141700Z 1418/1518 30010KT CAVOK"
    },
    {
      "icao": "EDFH",
      "alert": "OK",
      "vis_m": 9999,
      "fzfg": false,
      "metar_trigger": false,
      "taf_trigger": false,
      "metar": "METAR EDFH 141850Z 31007KT 9999 FEW041 14/07 Q1017",
      "taf": "TAF EDFH 141700Z 1418/1518 30010KT CAVOK"
    },
    {
      "icao": "EDJA",
      "alert": "OK",
      "vis_m": 9999,
      "fzfg": false,
      "metar_trigger": false,
      "taf_trigger": false,
      "metar": "METAR EDJA 141850Z 33008KT CAVOK 18/08 Q1016",
      "taf": "TAF EDJA 141700Z 1418/1503 32010KT CAVOK"
    },
    {
      "icao": "EDLW",
      "alert": "OK",
      "vis_m": 9999,
      "fzfg": false,
      "metar_trigger": false,
      "taf_trigger": false,
      "metar": "METAR EDLW 141850Z 27007KT 220V310 9999 SCT036 15/09 Q1016",
      "taf": "TAF EDLW 141700Z 1418/1518 27007KT CAVOK"
    },
    {
      "icao": "EDNY",
      "alert": "OK",
      "vis_m": 9999,
      "fzfg": false,
      "metar_trigger": false,
      "taf_trigger": false,
      "metar": "METAR EDNY 141850Z AUTO VRB02KT 9999 // BKN170/// 20/08 Q1015",
      "taf": "TAF EDNY 141700Z 1418/1503 26010KT CAVOK"
    },
    {
      "icao": "EDSB",
      "alert": "OK",
      "vis_m": 9999,
      "fzfg": false,
      "metar_trigger": false,
      "taf_trigger": false,
      "metar": "METAR EDSB 141850Z 32004KT 280V010 CAVOK 20/08 Q1016",
      "taf": "TAF EDSB 141700Z 1418/1518 29006KT CAVOK"
    },
    {
      "icao": "EETN",
      "alert": "OK",
      "vis_m": 9999,
      "fzfg": false,
      "metar_trigger": false,
      "taf_trigger": false,
      "metar": "METAR EETN 141920Z 11005KT CAVOK 13/11 Q0999 NOSIG",
      "taf": "TAF EETN 141730Z 1418/1518 10007KT 9999 SCT025"
    },
    {
      "icao": "EFTU",
      "alert": "OK",
      "vis_m": 9999,
      "fzfg": false,
      "metar_trigger": false,
      "taf_trigger": false,
      "metar": "METAR EFTU 141920Z AUTO 09006KT 9999 FEW019 BKN050 12/11 Q1000",
      "taf": "TAF EFTU 141724Z 1418/1518 12007KT 9999 SCT040"
    },
    {
      "icao": "EGBB",
      "alert": "OK",
      "vis_m": 9999,
      "fzfg": false,
      "metar_trigger": false,
      "taf_trigger": false,
      "metar": "METAR EGBB 141850Z 04006KT 010V070 CAVOK 18/08 Q1019",
      "taf": "TAF EGBB 141655Z 1418/1518 01006KT 9999 FEW045"
    },
    {
      "icao": "EGGP",
      "alert": "OK",
      "vis_m": 9999,
      "fzfg": false,
      "metar_trigger": false,
      "taf_trigger": false,
      "metar": "METAR EGGP 141850Z 25003KT CAVOK 16/09 Q1019",
      "taf": "TAF EGGP 141657Z 1418/1518 28005KT 9999 SCT030"
    },
    {
      "icao": "EGGW",
      "alert": "OK",
      "vis_m": 9999,
      "fzfg": false,
      "metar_trigger": false,
      "taf_trigger": false,
      "metar": "METAR EGGW 141850Z AUTO 04004KT 360V070 9999 NCD 17/09 Q1019",
      "taf": "TAF EGGW 141657Z 1418/1518 04007KT 9999 FEW030"
    },
    {
      "icao": "EGKK",
      "alert": "OK",
      "vis_m": 9999,
      "fzfg": false,
      "metar_trigger": false,
      "taf_trigger": false,
      "metar": "METAR EGKK 141850Z 02006KT 9999 FEW040 19/09 Q1018",
      "taf": "TAF EGKK 141701Z 1418/1524 31010KT 9999 FEW035"
    },
    {
      "icao": "EGNM",
      "alert": "OK",
      "vis_m": 9999,
      "fzfg": false,
      "metar_trigger": false,
      "taf_trigger": false,
      "metar": "METAR EGNM 141850Z 04008KT 9999 FEW030 13/08 Q1020",
      "taf": "TAF EGNM 141658Z 1418/1518 03008KT 9999 FEW030"
    },
    {
      "icao": "EGPD",
      "alert": "OK",
      "vis_m": 9999,
      "fzfg": false,
      "metar_trigger": false,
      "taf_trigger": false,
      "metar": "METAR EGPD 141850Z COR AUTO 34012KT 9999 OVC025 11/07 Q1021 NOSIG",
      "taf": "TAF EGPD 141655Z 1418/1518 34012KT 9999 SCT020"
    },
    {
      "icao": "EGPF",
      "alert": "OK",
      "vis_m": 9999,
      "fzfg": false,
      "metar_trigger": false,
      "taf_trigger": false,
      "metar": "METAR EGPF 141850Z AUTO 06005KT 9999 NCD 17/09 Q1019",
      "taf": "TAF EGPF 141701Z 1418/1518 08008KT 9999 SCT045"
    },
    {
      "icao": "EHBK",
      "alert": "OK",
      "vis_m": 9999,
      "fzfg": false,
      "metar_trigger": false,
      "taf_trigger": false,
      "metar": "METAR EHBK 141855Z AUTO 32007KT 270V360 9999 NSC 16/08 Q1018 NOSIG",
      "taf": "TAF EHBK 141702Z 1418/1524 30010KT CAVOK"
    },
    {
      "icao": "EHEH",
      "alert": "OK",
      "vis_m": 9999,
      "fzfg": false,
      "metar_trigger": false,
      "taf_trigger": false,
      "metar": "METAR EHEH 141855Z AUTO 32003KT 260V360 9999 FEW035 BKN049 15/09 Q1018 BLU NOSIG RMK TREND REMOTE BY EHWX",
      "taf": "TAF EHEH 141712Z 1418/1524 29008KT 9999 FEW035 BKN050"
    },
    {
      "icao": "EKBI",
      "alert": "OK",
      "vis_m": 9999,
      "fzfg": false,
      "metar_trigger": false,
      "taf_trigger": false,
      "metar": "METAR EKBI 141920Z AUTO 28012KT 9999 BKN019/// 13/10 Q1008",
      "taf": "TAF EKBI 141727Z 1418/1518 28015KT 9999 BKN025"
    },
    {
      "icao": "EKCH",
      "alert": "OK",
      "vis_m": 9999,
      "fzfg": false,
      "metar_trigger": false,
      "taf_trigger": false,
      "metar": "METAR EKCH 141920Z AUTO 30011KT 9999 FEW040/// FEW058/// BKN091/// BKN190/// 16/10 Q1004 TEMPO SCT020CB",
      "taf": "TAF EKCH 141727Z 1418/1518 30013KT 9999 BKN020"
    },
    {
      "icao": "ENAL",
      "alert": "OK",
      "vis_m": 9999,
      "fzfg": false,
      "metar_trigger": false,
      "taf_trigger": false,
      "metar": "METAR ENAL 141850Z 02013KT 9999 -DZ SCT015 BKN024 10/07 Q1015",
      "taf": "TAF ENAL 141700Z 1418/1503 02012KT 9999 FEW020 BKN030"
    },
    {
      "icao": "ENBR",
      "alert": "OK",
      "vis_m": 9999,
      "fzfg": false,
      "metar_trigger": false,
      "taf_trigger": false,
      "metar": "METAR ENBR 141850Z 33015KT CAVOK 14/06 Q1008 NOSIG RMK WIND 1200FT 33033KT",
      "taf": "TAF ENBR 141700Z 1418/1518 32015KT CAVOK"
    },
    {
      "icao": "ENGM",
      "alert": "OK",
      "vis_m": 9999,
      "fzfg": false,
      "metar_trigger": false,
      "taf_trigger": false,
      "metar": "METAR ENGM 141850Z 36013KT CAVOK 14/02 Q1003 NOSIG",
      "taf": "TAF ENGM 141700Z 1418/1518 34008KT 9999 SCT040"
    },
    {
      "icao": "ENHD",
      "alert": "OK",
      "vis_m": 9999,
      "fzfg": false,
      "metar_trigger": false,
      "taf_trigger": false,
      "metar": "METAR ENHD 141850Z 34026G39KT CAVOK 13/08 Q1008",
      "taf": ""
    },
    {
      "icao": "ENTC",
      "alert": "OK",
      "vis_m": 9999,
      "fzfg": false,
      "metar_trigger": false,
      "taf_trigger": false,
      "metar": "METAR ENTC 141850Z 03013KT CAVOK 13/05 Q1014 TEMPO 09005KT RMK WIND 2600FT 10019KT",
      "taf": "TAF ENTC 141700Z 1418/1518 03012KT 9999 FEW050"
    },
    {
      "icao": "ENTO",
      "alert": "OK",
      "vis_m": 7000,
      "fzfg": false,
      "metar_trigger": false,
      "taf_trigger": false,
      "metar": "METAR ENTO 141850Z 28003KT 240V330 7000 FEW020 14/12 Q1003 NOSIG",
      "taf": "TAF ENTO 141700Z 1418/1518 34008KT 9999 SCT040"
    },
    {
      "icao": "ENVA",
      "alert": "OK",
      "vis_m": 9999,
      "fzfg": false,
      "metar_trigger": false,
      "taf_trigger": false,
      "metar": "METAR ENVA 141850Z 29013KT 9999 BKN033 11/06 Q1011 RMK WIND 670FT 31022KT",
      "taf": "TAF ENVA 141700Z 1418/1518 29015KT 9999 BKN035"
    },
    {
      "icao": "ENZV",
      "alert": "OK",
      "vis_m": 9999,
      "fzfg": false,
      "metar_trigger": false,
      "taf_trigger": false,
      "metar": "METAR ENZV 141850Z 32019KT CAVOK 14/09 Q1007 NOSIG",
      "taf": "TAF ENZV 141700Z 1418/1518 32015KT CAVOK"
    },
    {
      "icao": "EPGD",
      "alert": "OK",
      "vis_m": 9999,
      "fzfg": false,
      "metar_trigger": false,
      "taf_trigger": false,
      "metar": "METAR EPGD 141900Z 26014KT 9999 SCT023 14/09 Q1001",
      "taf": "TAF EPGD 141730Z 1418/1518 26015KT 9999 SCT030"
    },
    {
      "icao": "EPKK",
      "alert": "OK",
      "vis_m": 9999,
      "fzfg": false,
      "metar_trigger": false,
      "taf_trigger": false,
      "metar": "METAR EPKK 141900Z 25004KT 9999 FEW040CB SCT056 11/09 Q1010",
      "taf": "TAF EPKK 141730Z 1418/1518 25010KT 9999 BKN050"
    },
    {
      "icao": "EPKT",
      "alert": "OK",
      "vis_m": 9999,
      "fzfg": false,
      "metar_trigger": false,
      "taf_trigger": false,
      "metar": "METAR EPKT 141900Z 23006KT 9999 -SHRA FEW030CB SCT045 11/10 Q1010",
      "taf": "TAF EPKT 141730Z 1418/1518 27012KT 9999 SCT040"
    },
    {
      "icao": "EPLB",
      "alert": "OK",
      "vis_m": 9999,
      "fzfg": false,
      "metar_trigger": false,
      "taf_trigger": false,
      "metar": "METAR EPLB 141900Z 22008KT CAVOK 11/09 Q1007",
      "taf": "TAF EPLB 141730Z 1418/1518 27010KT 9999 SCT030"
    },
    {
      "icao": "EPMO",
      "alert": "OK",
      "vis_m": 9999,
      "fzfg": false,
      "metar_trigger": false,
      "taf_trigger": false,
      "metar": "METAR EPMO 141900Z 21008KT 9999 FEW054CB 11/10 Q1005",
      "taf": "TAF EPMO 141730Z 1418/1518 25010KT 9999 SCT040"
    },
    {
      "icao": "EPPO",
      "alert": "OK",
      "vis_m": 9999,
      "fzfg": false,
      "metar_trigger": false,
      "taf_trigger": false,
      "metar": "METAR EPPO 141900Z 26013KT 9999 FEW037 13/11 Q1006",
      "taf": "TAF EPPO 141730Z 1418/1518 27012KT 9999 SCT025"
    },
    {
      "icao": "EPRA",
      "alert": "OK",
      "vis_m": 9999,
      "fzfg": false,
      "metar_trigger": false,
      "taf_trigger": false,
      "metar": "METAR EPRA 141900Z 27014KT 9999 FEW045 12/08 Q1007",
      "taf": "TAF EPRA 141730Z 1418/1503 25012KT 9999 SCT040"
    },
    {
      "icao": "EPRZ",
      "alert": "OK",
      "vis_m": 9999,
      "fzfg": false,
      "metar_trigger": false,
      "taf_trigger": false,
      "metar": "METAR EPRZ 141900Z 23008KT 210V270 9999 FEW030CB 12/08 Q1009",
      "taf": "TAF EPRZ 141730Z 1418/1518 27012KT 9999 SCT040"
    },
    {
      "icao": "EPSC",
      "alert": "OK",
      "vis_m": 9999,
      "fzfg": false,
      "metar_trigger": false,
      "taf_trigger": false,
      "metar": "METAR EPSC 141900Z 25010KT 9999 SCT015 BKN020TCU 13/12 Q1005",
      "taf": "TAF EPSC 141730Z 1418/1518 26012KT 9999 BKN035"
    },
    {
      "icao": "EPSY",
      "alert": "OK",
      "vis_m": 9999,
      "fzfg": false,
      "metar_trigger": false,
      "taf_trigger": false,
      "metar": "METAR EPSY 141900Z 22006KT CAVOK 13/09 Q1003",
      "taf": "TAF EPSY 141730Z 1418/1503 25008KT 9999 SCT040"
    },
    {
      "icao": "EPWA",
      "alert": "OK",
      "vis_m": 9999,
      "fzfg": false,
      "metar_trigger": false,
      "taf_trigger": false,
      "metar": "METAR EPWA 141900Z 22005KT 180V250 9999 FEW040 11/10 Q1005 NOSIG",
      "taf": "TAF EPWA 141730Z 1418/1518 25010KT 9999 BKN030"
    },
    {
      "icao": "EPWR",
      "alert": "OK",
      "vis_m": 9999,
      "fzfg": false,
      "metar_trigger": false,
      "taf_trigger": false,
      "metar": "METAR EPWR 141900Z 27010KT 9999 FEW023CB BKN040 13/11 Q1009",
      "taf": "TAF EPWR 141730Z 1418/1518 27013KT 9999 SCT040"
    },
    {
      "icao": "ESGG",
      "alert": "OK",
      "vis_m": 9999,
      "fzfg": false,
      "metar_trigger": false,
      "taf_trigger": false,
      "metar": "METAR ESGG 141850Z 28007KT 250V310 9999 FEW044 11/10 Q1002",
      "taf": "TAF ESGG 141730Z 1418/1518 32005KT CAVOK"
    },
    {
      "icao": "ESKN",
      "alert": "OK",
      "vis_m": 5000,
      "fzfg": false,
      "metar_trigger": false,
      "taf_trigger": false,
      "metar": "METAR ESKN 141850Z VRB02KT 5000 RA FEW004 SCT010 BKN013 10/10 Q0996",
      "taf": ""
    },
    {
      "icao": "ESMS",
      "alert": "OK",
      "vis_m": 9999,
      "fzfg": false,
      "metar_trigger": false,
      "taf_trigger": false,
      "metar": "METAR ESMS 141850Z 31014KT 9999 -RA FEW030 15/10 Q1003",
      "taf": "TAF ESMS 141727Z 1418/1518 31008KT 9999 BKN020"
    },
    {
      "icao": "ESSA",
      "alert": "OK",
      "vis_m": 9999,
      "fzfg": false,
      "metar_trigger": false,
      "taf_trigger": false,
      "metar": "METAR ESSA 141850Z 16008KT 9999 SCT023 BKN059 12/07 Q0996 TEMPO 4000 SHRA BKN025CB",
      "taf": "TAF ESSA 141730Z 1418/1518 22010KT 9999 -RA SCT014 BKN045"
    },
    {
      "icao": "EYKA",
      "alert": "OK",
      "vis_m": 9999,
      "fzfg": false,
      "metar_trigger": false,
      "taf_trigger": false,
      "metar": "METAR EYKA 141920Z 22006KT 9999 -SHRA FEW046CB 11/10 Q1001",
      "taf": "TAF EYKA 141710Z 1418/1518 VRB03KT 9000 BKN025"
    },
    {
      "icao": "EYPA",
      "alert": "OK",
      "vis_m": 9999,
      "fzfg": false,
      "metar_trigger": false,
      "taf_trigger": false,
      "metar": "METAR EYPA 141920Z 27003KT 210V330 9999 VCSH SCT013 BKN018CB BKN024 14/11 Q0999",
      "taf": "TAF EYPA 141710Z 1418/1518 VRB03KT 9000 BKN025"
    },
    {
      "icao": "EYVI",
      "alert": "OK",
      "vis_m": 9999,
      "fzfg": false,
      "metar_trigger": false,
      "taf_trigger": false,
      "metar": "METAR EYVI 141920Z 20007KT 9999 -SHRA SCT047CB 10/09 Q1002 NOSIG",
      "taf": "TAF EYVI 141712Z 1418/1518 VRB03KT 9000 BKN025"
    },
    {
      "icao": "GCFV",
      "alert": "OK",
      "vis_m": 9999,
      "fzfg": false,
      "metar_trigger": false,
      "taf_trigger": false,
      "metar": "METAR GCFV 141900Z 35017KT 320V020 9999 FEW020 23/16 Q1018",
      "taf": "TAF GCFV 141400Z 1415/1515 02014KT 9999 FEW020 TX24/1514Z TN19/1506Z"
    },
    {
      "icao": "GCLP",
      "alert": "OK",
      "vis_m": 9999,
      "fzfg": false,
      "metar_trigger": false,
      "taf_trigger": false,
      "metar": "METAR GCLP 141900Z 01026KT 9999 FEW022 22/16 Q1018 NOSIG",
      "taf": "TAF GCLP 141400Z 1415/1515 01023KT 9999 FEW030 TX24/1514Z TN18/1506Z"
    },
    {
      "icao": "GCTS",
      "alert": "OK",
      "vis_m": 9999,
      "fzfg": false,
      "metar_trigger": false,
      "taf_trigger": false,
      "metar": "METAR GCTS 141900Z 09017KT 9999 FEW025 22/16 Q1019 NOSIG",
      "taf": "TAF GCTS 141400Z 1415/1515 10020KT 9999 FEW020 TX25/1514Z TN18/1506Z"
    },
    {
      "icao": "GMAD",
      "alert": "OK",
      "vis_m": 8000,
      "fzfg": false,
      "metar_trigger": false,
      "taf_trigger": false,
      "metar": "METAR GMAD 141900Z 20014KT 8000 NSC 21/16 Q1015 NOSIG",
      "taf": "TAF GMAD 141700Z 1418/1524 19014KT 8000 NSC"
    },
    {
      "icao": "GMMN",
      "alert": "OK",
      "vis_m": 9999,
      "fzfg": false,
      "metar_trigger": false,
      "taf_trigger": false,
      "metar": "METAR GMMN 141900Z 33009KT 9999 FEW016 22/17 Q1018 NOSIG",
      "taf": "TAF GMMN 141700Z 1418/1524 32010KT CAVOK"
    },
    {
      "icao": "GMMX",
      "alert": "OK",
      "vis_m": 9999,
      "fzfg": false,
      "metar_trigger": false,
      "taf_trigger": false,
      "metar": "METAR GMMX 141900Z 34007KT 290V030 9999 FEW033 32/10 Q1016 NOSIG",
      "taf": "TAF GMMX 141700Z 1418/1524 06006KT 8000 NSC"
    },
    {
      "icao": "HEGN",
      "alert": "OK",
      "vis_m": 9999,
      "fzfg": false,
      "metar_trigger": false,
      "taf_trigger": false,
      "metar": "METAR HEGN 141900Z 33008KT CAVOK 35/06 Q1007 NOSIG",
      "taf": "TAF HEGN 141700Z 1418/1524 31014KT CAVOK"
    },
    {
      "icao": "HEMA",
      "alert": "OK",
      "vis_m": 9999,
      "fzfg": false,
      "metar_trigger": false,
      "taf_trigger": false,
      "metar": "METAR HEMA 141900Z 28003KT CAVOK 32/07 Q1007 NOSIG",
      "taf": "TAF HEMA 141700Z 1418/1524 30014KT CAVOK"
    },
    {
      "icao": "HESH",
      "alert": "OK",
      "vis_m": 9999,
      "fzfg": false,
      "metar_trigger": false,
      "taf_trigger": false,
      "metar": "METAR HESH 141900Z 17008KT CAVOK 31/16 Q1006 NOSIG",
      "taf": "TAF HESH 141700Z 1418/1524 35012KT CAVOK"
    },
    {
      "icao": "HESX",
      "alert": "OK",
      "vis_m": 9999,
      "fzfg": false,
      "metar_trigger": false,
      "taf_trigger": false,
      "metar": "METAR HESX 141900Z 34011KT CAVOK 24/14 Q1012 NOSIG",
      "taf": "TAF HESX 141700Z 1418/1524 35010KT CAVOK"
    },
    {
      "icao": "LATI",
      "alert": "OK",
      "vis_m": 9999,
      "fzfg": false,
      "metar_trigger": false,
      "taf_trigger": false,
      "metar": "METAR LATI 141920Z 17006KT CAVOK 22/14 Q1013 NOSIG",
      "taf": "TAF LATI 141700Z 1418/1518 VRB05KT CAVOK TX32/1512Z TN15/1504Z"
    },
    {
      "icao": "LBPD",
      "alert": "OK",
      "vis_m": 9999,
      "fzfg": false,
      "metar_trigger": false,
      "taf_trigger": false,
      "metar": "METAR LBPD 141900Z AUTO 15006KT 9999 NCD 23/10 Q1011 NOSIG",
      "taf": "TAF LBPD 141700Z 1418/1518 28013KT 9999 SCT070"
    },
    {
      "icao": "LBSF",
      "alert": "OK",
      "vis_m": 9999,
      "fzfg": false,
      "metar_trigger": false,
      "taf_trigger": false,
      "metar": "METAR LBSF 141900Z AUTO 22006KT 9999 NCD 21/10 Q1013 NOSIG",
      "taf": "TAF LBSF 141700Z 1418/1518 10010KT 9999 SCT060"
    },
    {
      "icao": "LBWN",
      "alert": "OK",
      "vis_m": 9999,
      "fzfg": false,
      "metar_trigger": false,
      "taf_trigger": false,
      "metar": "METAR LBWN 141900Z AUTO VRB01KT 9999 NCD 20/15 Q1011 NOSIG",
      "taf": "TAF LBWN 141700Z 1418/1518 VRB03KT CAVOK"
    },
    {
      "icao": "LCLK",
      "alert": "OK",
      "vis_m": 9999,
      "fzfg": false,
      "metar_trigger": false,
      "taf_trigger": false,
      "metar": "METAR LCLK 141900Z 22006KT CAVOK 24/21 Q1009 NOSIG",
      "taf": "TAF LCLK 141730Z 1418/1518 21010KT 9999 FEW020"
    },
    {
      "icao": "LCPH",
      "alert": "OK",
      "vis_m": 9999,
      "fzfg": false,
      "metar_trigger": false,
      "taf_trigger": false,
      "metar": "METAR LCPH 141900Z 32007KT 9999 FEW020 24/20 Q1009 NOSIG",
      "taf": "TAF LCPH 141730Z 1418/1518 33010KT 9999 SCT017"
    },
    {
      "icao": "LEAL",
      "alert": "OK",
      "vis_m": 9999,
      "fzfg": false,
      "metar_trigger": false,
      "taf_trigger": false,
      "metar": "METAR LEAL 141900Z 13003KT 100V170 9999 FEW018 SCT070 24/19 Q1013 NOSIG",
      "taf": "TAF LEAL 141700Z 1418/1518 14010KT CAVOK TX30/1512Z TN21/1506Z"
    },
    {
      "icao": "LEBB",
      "alert": "OK",
      "vis_m": 9999,
      "fzfg": false,
      "metar_trigger": false,
      "taf_trigger": false,
      "metar": "METAR LEBB 141900Z 30005KT CAVOK 26/15 Q1014 NOSIG",
      "taf": "TAF LEBB 141700Z 1418/1518 29009KT CAVOK TX28/1418Z TN18/1505Z"
    },
    {
      "icao": "LEBL",
      "alert": "OK",
      "vis_m": 9999,
      "fzfg": false,
      "metar_trigger": false,
      "taf_trigger": false,
      "metar": "METAR LEBL 141900Z 36002KT 9999 FEW060 27/12 Q1013 NOSIG",
      "taf": "TAF LEBL 141700Z 1418/1518 12008KT 9999 FEW025 TX29/1512Z TN21/1506Z"
    },
    {
      "icao": "LECH",
      "alert": "OK",
      "vis_m": 9999,
      "fzfg": false,
      "metar_trigger": false,
      "taf_trigger": false,
      "metar": "METAR LECH 141900Z AUTO VRB02KT CAVOK 25/11 Q1015",
      "taf": "TAF LECH 141700Z 1418/1518 15010KT CAVOK TX32/1513Z TN16/1506Z"
    },
    {
      "icao": "LEMD",
      "alert": "OK",
      "vis_m": 7000,
      "fzfg": false,
      "metar_trigger": false,
      "taf_trigger": false,
      "metar": "SPECI LEMD 141915Z 19009G20KT 070V230 7000 TSRA FEW030 SCT080CB 26/11 Q1015 NOSIG",
      "taf": "TAF LEMD 141700Z 1418/1524 VRB04KT 9999 FEW080 TX32/1516Z TN16/1505Z"
    },
    {
      "icao": "LEMG",
      "alert": "OK",
      "vis_m": 9999,
      "fzfg": false,
      "metar_trigger": false,
      "taf_trigger": false,
      "metar": "METAR LEMG 141900Z 04009KT CAVOK 25/18 Q1013 NOSIG",
      "taf": "TAF LEMG 141700Z 1418/1518 13010KT 9999 FEW040 TX35/1513Z TN21/1505Z"
    },
    {
      "icao": "LEVC",
      "alert": "OK",
      "vis_m": 9999,
      "fzfg": false,
      "metar_trigger": false,
      "taf_trigger": false,
      "metar": "METAR LEVC 141900Z 08005KT CAVOK 27/12 Q1013 NOSIG",
      "taf": "TAF LEVC 141700Z 1418/1518 12010KT CAVOK TX32/1512Z TN19/1506Z"
    },
    {
      "icao": "LEXJ",
      "alert": "OK",
      "vis_m": 9999,
      "fzfg": false,
      "metar_trigger": false,
      "taf_trigger": false,
      "metar": "METAR LEXJ 141900Z VRB02KT 9999 FEW080CB 25/16 Q1013",
      "taf": "TAF LEXJ 141400Z 1415/1515 29009KT CAVOK TX30/1415Z TN17/1506Z"
    },
    {
      "icao": "LEZG",
      "alert": "OK",
      "vis_m": 9999,
      "fzfg": false,
      "metar_trigger": false,
      "taf_trigger": false,
      "metar": "METAR LEZG 141900Z 32007KT CAVOK 30/09 Q1012 NOSIG",
      "taf": "TAF LEZG 141700Z 1418/1518 09005KT CAVOK TX37/1515Z TN21/1506Z"
    },
    {
      "icao": "LEZL",
      "alert": "OK",
      "vis_m": 9999,
      "fzfg": false,
      "metar_trigger": false,
      "taf_trigger": false,
      "metar": "METAR LEZL 141900Z 22011KT 190V260 CAVOK 25/17 Q1015 NOSIG",
      "taf": "TAF LEZL 141400Z 1415/1515 22009KT CAVOK TX35/1515Z TN18/1506Z"
    },
    {
      "icao": "LFBD",
      "alert": "OK",
      "vis_m": 9999,
      "fzfg": false,
      "metar_trigger": false,
      "taf_trigger": false,
      "metar": "METAR LFBD 141900Z AUTO 10008KT 070V130 CAVOK 31/06 Q1013 NOSIG",
      "taf": "TAF LFBD 141700Z 1418/1524 10008KT CAVOK TX35/1514Z TN21/1504Z"
    },
    {
      "icao": "LFLL",
      "alert": "OK",
      "vis_m": 9999,
      "fzfg": false,
      "metar_trigger": false,
      "taf_trigger": false,
      "metar": "METAR LFLL 141900Z 02007KT CAVOK 25/12 Q1015 NOSIG",
      "taf": "TAF LFLL 141700Z 1418/1524 36010KT CAVOK"
    },
    {
      "icao": "LFLS",
      "alert": "OK",
      "vis_m": 9999,
      "fzfg": false,
      "metar_trigger": false,
      "taf_trigger": false,
      "metar": "METAR LFLS 141900Z AUTO 36011KT CAVOK 24/08 Q1015 BECMG 09005KT",
      "taf": "TAF LFLS 141400Z 1415/1515 36012KT CAVOK"
    },
    {
      "icao": "LFMN",
      "alert": "OK",
      "vis_m": 9999,
      "fzfg": false,
      "metar_trigger": false,
      "taf_trigger": false,
      "metar": "METAR LFMN 141900Z 11003KT 080V140 9999 FEW016 BKN019 21/17 Q1012 NOSIG",
      "taf": "TAF LFMN 141400Z 1415/1521 11008KT 9999 SCT020"
    },
    {
      "icao": "LFOB",
      "alert": "OK",
      "vis_m": 9999,
      "fzfg": false,
      "metar_trigger": false,
      "taf_trigger": false,
      "metar": "METAR LFOB 141900Z AUTO 36005KT CAVOK 18/11 Q1018 NOSIG",
      "taf": "TAF LFOB 141700Z 1418/1518 35008KT CAVOK"
    },
    {
      "icao": "LFPO",
      "alert": "OK",
      "vis_m": 9999,
      "fzfg": false,
      "metar_trigger": false,
      "taf_trigger": false,
      "metar": "METAR LFPO 141900Z AUTO 35008KT 320V070 CAVOK 24/06 Q1017 NOSIG",
      "taf": "TAF LFPO 141700Z 1418/1524 34006KT CAVOK"
    },
    {
      "icao": "LFSB",
      "alert": "OK",
      "vis_m": 9999,
      "fzfg": false,
      "metar_trigger": false,
      "taf_trigger": false,
      "metar": "METAR LFSB 141900Z AUTO 26008KT CAVOK 22/07 Q1015 NOSIG",
      "taf": ""
    },
    {
      "icao": "LGAV",
      "alert": "OK",
      "vis_m": 9999,
      "fzfg": false,
      "metar_trigger": false,
      "taf_trigger": false,
      "metar": "METAR LGAV 141850Z 24004KT CAVOK 21/15 Q1014 NOSIG",
      "taf": "TAF LGAV 141700Z 1418/1518 VRB05KT 9999 FEW020"
    },
    {
      "icao": "LGTS",
      "alert": "OK",
      "vis_m": 9999,
      "fzfg": false,
      "metar_trigger": false,
      "taf_trigger": false,
      "metar": "METAR LGTS 141850Z 16006KT 9999 FEW025 24/16 Q1012 NOSIG",
      "taf": "TAF LGTS 141700Z 1418/1518 VRB03KT CAVOK"
    },
    {
      "icao": "LHBP",
      "alert": "OK",
      "vis_m": 9999,
      "fzfg": false,
      "metar_trigger": false,
      "taf_trigger": false,
      "metar": "METAR LHBP 141900Z 30009KT CAVOK 19/05 Q1011 NOSIG",
      "taf": "TAF LHBP 141715Z 1418/1518 32012KT CAVOK"
    },
    {
      "icao": "LHDC",
      "alert": "OK",
      "vis_m": 9999,
      "fzfg": false,
      "metar_trigger": false,
      "taf_trigger": false,
      "metar": "METAR LHDC 141845Z AUTO 25007KT CAVOK 20/11 Q1009 NOSIG",
      "taf": ""
    },
    {
      "icao": "LIBD",
      "alert": "OK",
      "vis_m": 9999,
      "fzfg": false,
      "metar_trigger": false,
      "taf_trigger": false,
      "metar": "METAR LIBD 141850Z 22013KT CAVOK 29/10 Q1011",
      "taf": "TAF LIBD 141700Z 1418/1518 12012KT CAVOK"
    },
    {
      "icao": "LIBG",
      "alert": "OK",
      "vis_m": 9999,
      "fzfg": false,
      "metar_trigger": false,
      "taf_trigger": false,
      "metar": "METAR LIBG 141850Z AUTO VRB02KT 9999 NCD 24/15 Q1013",
      "taf": "TAF LIBG 141700Z 1418/1518 VRB05KT CAVOK"
    },
    {
      "icao": "LIBP",
      "alert": "OK",
      "vis_m": 9999,
      "fzfg": false,
      "metar_trigger": false,
      "taf_trigger": false,
      "metar": "METAR LIBP 141850Z AUTO VRB01KT 9999 NCD 26/12 Q1011",
      "taf": "TAF LIBP 141700Z 1418/1518 VRB05KT CAVOK"
    },
    {
      "icao": "LIBR",
      "alert": "OK",
      "vis_m": 9999,
      "fzfg": false,
      "metar_trigger": false,
      "taf_trigger": false,
      "metar": "METAR LIBR 141850Z 19009KT CAVOK 25/11 Q1012",
      "taf": "TAF LIBR 141700Z 1418/1518 12010KT CAVOK"
    },
    {
      "icao": "LICA",
      "alert": "OK",
      "vis_m": 9999,
      "fzfg": false,
      "metar_trigger": false,
      "taf_trigger": false,
      "metar": "METAR LICA 141850Z AUTO 22003KT 170V240 9999 NCD 22/19 Q1014",
      "taf": "TAF LICA 141700Z 1418/1518 25010KT CAVOK"
    },
    {
      "icao": "LICC",
      "alert": "OK",
      "vis_m": 9999,
      "fzfg": false,
      "metar_trigger": false,
      "taf_trigger": false,
      "metar": "METAR LICC 141850Z 03008KT CAVOK 26/17 Q1014",
      "taf": "TAF LICC 141700Z 1418/1518 08010KT CAVOK"
    },
    {
      "icao": "LICJ",
      "alert": "OK",
      "vis_m": 9999,
      "fzfg": false,
      "metar_trigger": false,
      "taf_trigger": false,
      "metar": "METAR LICJ 141850Z 27003KT 210V330 CAVOK 25/21 Q1014",
      "taf": "TAF LICJ 141700Z 1418/1518 VRB05KT CAVOK"
    },
    {
      "icao": "LIMC",
      "alert": "OK",
      "vis_m": 9999,
      "fzfg": false,
      "metar_trigger": false,
      "taf_trigger": false,
      "metar": "METAR LIMC 141850Z 21006KT CAVOK 26/18 Q1010 NOSIG",
      "taf": "TAF LIMC 141700Z 1418/1524 22010KT CAVOK"
    },
    {
      "icao": "LIME",
      "alert": "OK",
      "vis_m": 9999,
      "fzfg": false,
      "metar_trigger": false,
      "taf_trigger": false,
      "metar": "METAR LIME 141850Z 28014KT CAVOK 27/14 Q1009 NOSIG",
      "taf": "TAF LIME 141700Z 1418/1518 26010KT CAVOK"
    },
    {
      "icao": "LIMF",
      "alert": "OK",
      "vis_m": 9999,
      "fzfg": false,
      "metar_trigger": false,
      "taf_trigger": false,
      "metar": "METAR LIMF 141850Z 15005KT CAVOK 28/18 Q1010",
      "taf": "TAF LIMF 141700Z 1418/1518 VRB05KT CAVOK"
    },
    {
      "icao": "LIMJ",
      "alert": "OK",
      "vis_m": 9999,
      "fzfg": false,
      "metar_trigger": false,
      "taf_trigger": false,
      "metar": "METAR LIMJ 141850Z VRB02KT 9999 FEW030 22/18 Q1013",
      "taf": "TAF LIMJ 141700Z 1418/1518 17011KT CAVOK"
    },
    {
      "icao": "LIPE",
      "alert": "OK",
      "vis_m": 9999,
      "fzfg": false,
      "metar_trigger": false,
      "taf_trigger": false,
      "metar": "METAR LIPE 141850Z 19006KT 160V220 CAVOK 28/09 Q1008",
      "taf": "TAF LIPE 141700Z 1418/1518 23010KT CAVOK"
    },
    {
      "icao": "LIPH",
      "alert": "OK",
      "vis_m": 9999,
      "fzfg": false,
      "metar_trigger": false,
      "taf_trigger": false,
      "metar": "METAR LIPH 141850Z 11005KT CAVOK 24/19 Q1009",
      "taf": "TAF LIPH 141700Z 1418/1518 14008KT 9999 FEW030"
    },
    {
      "icao": "LIPQ",
      "alert": "OK",
      "vis_m": 9999,
      "fzfg": false,
      "metar_trigger": false,
      "taf_trigger": false,
      "metar": "METAR LIPQ 141850Z 17003KT 150V210 CAVOK 23/19 Q1009",
      "taf": "TAF LIPQ 141700Z 1418/1518 VRB05KT 9999 FEW060"
    },
    {
      "icao": "LIPR",
      "alert": "OK",
      "vis_m": 9999,
      "fzfg": false,
      "metar_trigger": false,
      "taf_trigger": false,
      "metar": "METAR LIPR 141850Z 22008KT CAVOK 29/11 Q1009",
      "taf": "TAF LIPR 141700Z 1418/1518 24012KT CAVOK"
    },
    {
      "icao": "LIPX",
      "alert": "OK",
      "vis_m": 9999,
      "fzfg": false,
      "metar_trigger": false,
      "taf_trigger": false,
      "metar": "METAR LIPX 141850Z 22005KT CAVOK 27/17 Q1008",
      "taf": "TAF LIPX 141700Z 1418/1518 26012KT CAVOK"
    },
    {
      "icao": "LIPY",
      "alert": "OK",
      "vis_m": 9999,
      "fzfg": false,
      "metar_trigger": false,
      "taf_trigger": false,
      "metar": "METAR LIPY 141850Z AUTO 21007KT 9999 NCD 27/08 Q1010",
      "taf": "TAF LIPY 141700Z 1418/1518 25013KT CAVOK"
    },
    {
      "icao": "LIPZ",
      "alert": "OK",
      "vis_m": 9999,
      "fzfg": false,
      "metar_trigger": false,
      "taf_trigger": false,
      "metar": "METAR LIPZ 141850Z 12007KT CAVOK 24/20 Q1008 NOSIG",
      "taf": "TAF LIPZ 141700Z 1418/1524 15010KT 9999 FEW020"
    },
    {
      "icao": "LIRF",
      "alert": "OK",
      "vis_m": 9999,
      "fzfg": false,
      "metar_trigger": false,
      "taf_trigger": false,
      "metar": "METAR LIRF 141850Z 20006KT CAVOK 24/12 Q1014 NOSIG",
      "taf": "TAF LIRF 141700Z 1418/1524 17010KT CAVOK"
    },
    {
      "icao": "LIRN",
      "alert": "OK",
      "vis_m": 9999,
      "fzfg": false,
      "metar_trigger": false,
      "taf_trigger": false,
      "metar": "METAR LIRN 141850Z 20006KT 170V240 CAVOK 23/19 Q1014 NOSIG",
      "taf": "TAF LIRN 141700Z 1418/1518 20010KT CAVOK"
    },
    {
      "icao": "LIRP",
      "alert": "OK",
      "vis_m": 9999,
      "fzfg": false,
      "metar_trigger": false,
      "taf_trigger": false,
      "metar": "METAR LIRP 141845Z 29006KT CAVOK 25/10 Q1013 NOSIG",
      "taf": "TAF LIRP 141700Z 1418/1518 29012KT CAVOK"
    },
    {
      "icao": "LIRZ",
      "alert": "OK",
      "vis_m": 9999,
      "fzfg": false,
      "metar_trigger": false,
      "taf_trigger": false,
      "metar": "METAR LIRZ 141850Z AUTO 23008KT 9999 NCD 24/08 Q1013",
      "taf": "TAF LIRZ 141700Z 1418/1518 22012KT CAVOK"
    },
    {
      "icao": "LJLJ",
      "alert": "OK",
      "vis_m": 9999,
      "fzfg": false,
      "metar_trigger": false,
      "taf_trigger": false,
      "metar": "METAR LJLJ 141900Z 06006KT 9999 FEW038 FEW050CB 21/15 Q1010 NOSIG",
      "taf": "TAF LJLJ 141700Z 1418/1518 26005KT 9999 FEW050"
    },
    {
      "icao": "LKMT",
      "alert": "OK",
      "vis_m": 9999,
      "fzfg": false,
      "metar_trigger": false,
      "taf_trigger": false,
      "metar": "METAR LKMT 141900Z 24008KT 9999 VCSH FEW020 15/07 Q1011 NOSIG",
      "taf": "TAF LKMT 141700Z 1418/1518 24008KT CAVOK"
    },
    {
      "icao": "LKPR",
      "alert": "OK",
      "vis_m": 9999,
      "fzfg": false,
      "metar_trigger": false,
      "taf_trigger": false,
      "metar": "METAR LKPR 141900Z 29013KT 9999 FEW049 14/06 Q1012 NOSIG",
      "taf": "TAF LKPR 141700Z 1418/1524 27010KT CAVOK"
    },
    {
      "icao": "LLBG",
      "alert": "OK",
      "vis_m": 9999,
      "fzfg": false,
      "metar_trigger": false,
      "taf_trigger": false,
      "metar": "METAR LLBG 141920Z 29007KT 9999 SCT025 24/19 Q1011 NOSIG",
      "taf": "TAF LLBG 141701Z 1418/1518 32006KT 9999 SCT025 TX29/1511Z TN21/1503Z"
    },
    {
      "icao": "LMML",
      "alert": "OK",
      "vis_m": 9999,
      "fzfg": false,
      "metar_trigger": false,
      "taf_trigger": false,
      "metar": "METAR LMML 141915Z 20004KT 160V230 CAVOK 22/20 Q1016 NOSIG",
      "taf": "TAF LMML 141700Z 1418/1518 22008KT 9999 FEW015"
    },
    {
      "icao": "LOWW",
      "alert": "OK",
      "vis_m": 9999,
      "fzfg": false,
      "metar_trigger": false,
      "taf_trigger": false,
      "metar": "METAR LOWW 141850Z 34008KT CAVOK 18/06 Q1012 NOSIG",
      "taf": "TAF LOWW 141715Z 1418/1524 29015KT 9999 FEW050 TX22/1514Z TN14/1503Z"
    },
    {
      "icao": "LPFR",
      "alert": "OK",
      "vis_m": 9999,
      "fzfg": false,
      "metar_trigger": false,
      "taf_trigger": false,
      "metar": "METAR LPFR 141900Z 25009KT 9999 FEW010 21/19 Q1016",
      "taf": "TAF LPFR 141700Z 1418/1518 21010KT 9999 SCT020"
    },
    {
      "icao": "LPMA",
      "alert": "OK",
      "vis_m": 9999,
      "fzfg": false,
      "metar_trigger": false,
      "taf_trigger": false,
      "metar": "METAR LPMA 141900Z 01008KT 270V060 9999 FEW016 23/13 Q1021",
      "taf": "TAF LPMA 141700Z 1418/1518 34012KT 9999 FEW015"
    },
    {
      "icao": "LPPR",
      "alert": "OK",
      "vis_m": 9000,
      "fzfg": false,
      "metar_trigger": false,
      "taf_trigger": false,
      "metar": "METAR LPPR 141900Z 34006KT 300V010 9000 BKN005 19/17 Q1016",
      "taf": "TAF LPPR 141700Z 1418/1518 28005KT 0400 FG VV001"
    },
    {
      "icao": "LPPS",
      "alert": "OK",
      "vis_m": 9999,
      "fzfg": false,
      "metar_trigger": false,
      "taf_trigger": false,
      "metar": "METAR LPPS 141900Z 34014KT 9999 FEW014 21/16 Q1022",
      "taf": "TAF LPPS 141700Z 1418/1524 36012KT 9999 FEW015 BKN030"
    },
    {
      "icao": "LPPT",
      "alert": "OK",
      "vis_m": 9999,
      "fzfg": false,
      "metar_trigger": false,
      "taf_trigger": false,
      "metar": "METAR LPPT 141900Z 30009KT 280V340 9999 FEW015 20/15 Q1016",
      "taf": "TAF LPPT 141700Z 1418/1524 30010KT CAVOK"
    },
    {
      "icao": "LQBK",
      "alert": "OK",
      "vis_m": 9999,
      "fzfg": false,
      "metar_trigger": false,
      "taf_trigger": false,
      "metar": "METAR LQBK 141900Z 36008KT 330V030 CAVOK 23/12 Q1010 NOSIG",
      "taf": "TAF LQBK 141700Z 1418/1518 28006KT CAVOK TX27/1418Z TN15/1503Z"
    },
    {
      "icao": "LQSA",
      "alert": "OK",
      "vis_m": 9999,
      "fzfg": false,
      "metar_trigger": false,
      "taf_trigger": false,
      "metar": "METAR LQSA 141900Z 19003KT 160V240 CAVOK 22/09 Q1013 NOSIG",
      "taf": "TAF LQSA 141700Z 1418/1518 VRB02KT CAVOK TX26/1512Z TN13/1503Z"
    },
    {
      "icao": "LQTZ",
      "alert": "OK",
      "vis_m": 9999,
      "fzfg": false,
      "metar_trigger": false,
      "taf_trigger": false,
      "metar": "METAR LQTZ 141900Z 31006KT 9999 FEW060 24/12 Q1010",
      "taf": "TAF LQTZ 141700Z 1418/1518 03005KT 9999 SCT040 TX26/1418Z TN15/1503Z"
    },
    {
      "icao": "LRBC",
      "alert": "OK",
      "vis_m": 9999,
      "fzfg": false,
      "metar_trigger": false,
      "taf_trigger": false,
      "metar": "METAR LRBC 141900Z 25013KT 9999 -SHRA FEW050CB 20/12 Q1008",
      "taf": ""
    },
    {
      "icao": "LRBS",
      "alert": "OK",
      "vis_m": 9999,
      "fzfg": false,
      "metar_trigger": false,
      "taf_trigger": false,
      "metar": "METAR LRBS 141900Z 07008KT CAVOK 19/13 Q1011 NOSIG",
      "taf": "TAF LRBS 141700Z 1418/1518 27006KT CAVOK"
    },
    {
      "icao": "LRBV",
      "alert": "OK",
      "vis_m": 9999,
      "fzfg": false,
      "metar_trigger": false,
      "taf_trigger": false,
      "metar": "METAR LRBV 141900Z 36003KT 9999 SCT084 15/14 Q1013",
      "taf": ""
    },
    {
      "icao": "LRCL",
      "alert": "OK",
      "vis_m": 9999,
      "fzfg": false,
      "metar_trigger": false,
      "taf_trigger": false,
      "metar": "METAR LRCL 141900Z 26008KT 230V290 9999 -SHRA FEW040CB SCT069 17/12 Q1011",
      "taf": ""
    },
    {
      "icao": "LRCV",
      "alert": "OK",
      "vis_m": 9999,
      "fzfg": false,
      "metar_trigger": false,
      "taf_trigger": false,
      "metar": "METAR LRCV 141900Z 18006KT CAVOK 23/14 Q1009",
      "taf": ""
    },
    {
      "icao": "LRIA",
      "alert": "OK",
      "vis_m": 9999,
      "fzfg": false,
      "metar_trigger": false,
      "taf_trigger": false,
      "metar": "METAR LRIA 141900Z 19005KT 170V230 CAVOK 20/13 Q1007",
      "taf": ""
    },
    {
      "icao": "LROP",
      "alert": "OK",
      "vis_m": 9999,
      "fzfg": false,
      "metar_trigger": false,
      "taf_trigger": false,
      "metar": "METAR LROP 141900Z 09006KT CAVOK 19/15 Q1011 NOSIG",
      "taf": "TAF LROP 141700Z 1418/1518 27006KT CAVOK"
    },
    {
      "icao": "LRSB",
      "alert": "OK",
      "vis_m": 9999,
      "fzfg": false,
      "metar_trigger": false,
      "taf_trigger": false,
      "metar": "METAR LRSB 141900Z 12004KT 100V160 9999 -RA FEW050 BKN075 15/15 Q1012",
      "taf": "TAF LRSB 141700Z 1418/1518 VRB04KT 9999 SCT045 SCT070"
    },
    {
      "icao": "LRSM",
      "alert": "OK",
      "vis_m": 9999,
      "fzfg": false,
      "metar_trigger": false,
      "taf_trigger": false,
      "metar": "METAR LRSM 141900Z AUTO 22006KT 9999 FEW060/// BKN075/// 19/11 Q1008",
      "taf": ""
    },
    {
      "icao": "LRSV",
      "alert": "OK",
      "vis_m": 9999,
      "fzfg": false,
      "metar_trigger": false,
      "taf_trigger": false,
      "metar": "METAR LRSV 141900Z 32010KT 9999 FEW040CB 15/13 Q1008",
      "taf": ""
    },
    {
      "icao": "LRTM",
      "alert": "OK",
      "vis_m": 9999,
      "fzfg": false,
      "metar_trigger": false,
      "taf_trigger": false,
      "metar": "METAR LRTM 141900Z VRB02KT 9999 FEW035 18/16 Q1011",
      "taf": ""
    },
    {
      "icao": "LRTR",
      "alert": "OK",
      "vis_m": 9999,
      "fzfg": false,
      "metar_trigger": false,
      "taf_trigger": false,
      "metar": "METAR LRTR 141900Z VRB02KT 9999 -SHRA SCT045CB 18/18 Q1012",
      "taf": "TAF LRTR 141700Z 1418/1518 02012KT 9999 SCT010 SCT045CB"
    },
    {
      "icao": "LTAC",
      "alert": "OK",
      "vis_m": 9999,
      "fzfg": false,
      "metar_trigger": false,
      "taf_trigger": false,
      "metar": "METAR LTAC 141850Z 04006KT 9999 SCT040 15/10 Q1015 NOSIG RMK RWY21C 03004KT RWY03L 04005KT RWY21R 02006KT RWY03R 03006KT RWY21L 04004KT 360V060",
      "taf": "TAF LTAC 141640Z 1418/1518 VRB02KT 9999 SCT040"
    },
    {
      "icao": "LTFM",
      "alert": "OK",
      "vis_m": 9999,
      "fzfg": false,
      "metar_trigger": false,
      "taf_trigger": false,
      "metar": "METAR LTFM 141850Z 21006KT CAVOK 21/11 Q1013 NOSIG RMK RWY17L 21006KT RWY34L 20005KT RWY16R 21004KT 170V230 RWY36 21006KT RWY18 20009KT",
      "taf": "TAF LTFM 141640Z 1418/1524 21008KT CAVOK"
    },
    {
      "icao": "LUKK",
      "alert": "OK",
      "vis_m": 9999,
      "fzfg": false,
      "metar_trigger": false,
      "taf_trigger": false,
      "metar": "METAR LUKK 141900Z 24007KT CAVOK 17/12 Q1008 NOSIG",
      "taf": "TAF LUKK 141717Z 1418/1518 26009KT 9999 SCT040"
    },
    {
      "icao": "LWOH",
      "alert": "OK",
      "vis_m": 9999,
      "fzfg": false,
      "metar_trigger": false,
      "taf_trigger": false,
      "metar": "METAR LWOH 141820Z VRB02KT 9999 FEW040 20/15 Q1016",
      "taf": "TAF LWOH 141730Z 1418/1518 32006KT CAVOK"
    },
    {
      "icao": "LWSK",
      "alert": "OK",
      "vis_m": 9999,
      "fzfg": false,
      "metar_trigger": false,
      "taf_trigger": false,
      "metar": "METAR LWSK 141920Z 03006KT CAVOK 22/12 Q1012 NOSIG",
      "taf": "TAF LWSK 141730Z 1418/1518 VRB02KT CAVOK"
    },
    {
      "icao": "LYBE",
      "alert": "OK",
      "vis_m": 8000,
      "fzfg": false,
      "metar_trigger": false,
      "taf_trigger": false,
      "metar": "METAR LYBE 141900Z 03012KT 010V070 8000 -TSRA SCT025CB BKN033 17/16 Q1012 RESHRA TEMPO 33015G25KT 3000 TSRA",
      "taf": "TAF LYBE 141700Z 1418/1518 01012KT 9999 SCT045 TX27/1418Z TN16/1503Z"
    },
    {
      "icao": "LYNI",
      "alert": "OK",
      "vis_m": 9999,
      "fzfg": false,
      "metar_trigger": false,
      "taf_trigger": false,
      "metar": "METAR LYNI 141900Z 15002KT 9999 FEW050 24/11 Q1010 NOSIG",
      "taf": "TAF LYNI 141700Z 1418/1518 17007KT CAVOK TX27/1513Z TN15/1504Z"
    },
    {
      "icao": "LYPG",
      "alert": "OK",
      "vis_m": 9999,
      "fzfg": false,
      "metar_trigger": false,
      "taf_trigger": false,
      "metar": "METAR LYPG 141900Z 14006KT CAVOK 23/15 Q1012 NOSIG",
      "taf": "TAF LYPG 141700Z 1418/1518 VRB02KT CAVOK TX30/1514Z TN19/1503Z"
    },
    {
      "icao": "LZIB",
      "alert": "OK",
      "vis_m": 9999,
      "fzfg": false,
      "metar_trigger": false,
      "taf_trigger": false,
      "metar": "METAR LZIB 141900Z 33009KT 290V360 CAVOK 19/04 Q1012 NOSIG",
      "taf": "TAF LZIB 141715Z 1418/1518 31012KT CAVOK"
    },
    {
      "icao": "LZKZ",
      "alert": "OK",
      "vis_m": 9999,
      "fzfg": false,
      "metar_trigger": false,
      "taf_trigger": false,
      "metar": "METAR LZKZ 141900Z 03007KT CAVOK 16/08 Q1009 NOSIG",
      "taf": "TAF LZKZ 141715Z 1418/1518 36008KT CAVOK"
    },
    {
      "icao": "LZTT",
      "alert": "OK",
      "vis_m": 9999,
      "fzfg": false,
      "metar_trigger": false,
      "taf_trigger": false,
      "metar": "METAR LZTT 141900Z 27013KT 9999 FEW060 12/03 Q1010",
      "taf": "TAF LZTT 141715Z 1418/1518 28014KT 9999 FEW060"
    },
    {
      "icao": "OEJN",
      "alert": "OK",
      "vis_m": 9999,
      "fzfg": false,
      "metar_trigger": false,
      "taf_trigger": false,
      "metar": "METAR OEJN 141900Z 36006KT CAVOK 32/16 Q1005 NOSIG",
      "taf": "TAF OEJN 141700Z 1418/1524 01005KT CAVOK"
    },
    {
      "icao": "OEMA",
      "alert": "OK",
      "vis_m": 9999,
      "fzfg": false,
      "metar_trigger": false,
      "taf_trigger": false,
      "metar": "METAR OEMA 141900Z 27005KT CAVOK 39/M03 Q1010 NOSIG",
      "taf": "TAF OEMA 141700Z 1418/1524 VRB03KT CAVOK"
    },
    {
      "icao": "OJAI",
      "alert": "OK",
      "vis_m": 5000,
      "fzfg": false,
      "metar_trigger": false,
      "taf_trigger": false,
      "metar": "METAR OJAI 141900Z 28005KT 5000 HZ NSC 21/11 Q1014 NOSIG",
      "taf": "TAF OJAI 141700Z 1418/1524 31012KT 5000 HZ NSC"
    },
    {
      "icao": "OMAA",
      "alert": "OK",
      "vis_m": 9999,
      "fzfg": false,
      "metar_trigger": false,
      "taf_trigger": false,
      "metar": "METAR OMAA 141900Z 06005KT 340V120 CAVOK 31/26 Q1002 NOSIG",
      "taf": "TAF OMAA 141700Z 1418/1600 02007KT 8000 NSC"
    },
    {
      "icao": "OMDB",
      "alert": "OK",
      "vis_m": 8000,
      "fzfg": false,
      "metar_trigger": false,
      "taf_trigger": false,
      "metar": "METAR OMDB 141900Z 07004KT 360V120 8000 NSC 33/26 Q1002 NOSIG",
      "taf": "TAF OMDB 141700Z 1418/1600 VRB02KT 8000 NSC"
    },
    {
      "icao": "UAAA",
      "alert": "OK",
      "vis_m": 9999,
      "fzfg": false,
      "metar_trigger": false,
      "taf_trigger": false,
      "metar": "METAR UAAA 141900Z 16002MPS 130V210 9999 SCT050CB BKN200 24/12 Q1008 NOSIG",
      "taf": "TAF UAAA 141702Z 1418/1518 18002G07MPS 9999 SCT050CB BKN100 TX35/1509Z TN20/1500Z"
    },
    {
      "icao": "UBBB",
      "alert": "OK",
      "vis_m": 9999,
      "fzfg": false,
      "metar_trigger": false,
      "taf_trigger": false,
      "metar": "METAR UBBB 141900Z 23012KT 9999 SCT060CB 26/14 Q1006 TEMPO TS RMK OBS TS SE 20KM MOV NE 20KMH NC",
      "taf": "TAF UBBB 141716Z 1418/1518 31010KT 9999 FEW050CB TX25/1510Z TN19/1500Z"
    },
    {
      "icao": "UDSG",
      "alert": "OK",
      "vis_m": 9999,
      "fzfg": false,
      "metar_trigger": false,
      "taf_trigger": false,
      "metar": "METAR UDSG 141900Z 20001KT 9999 SCT049CB 11/10 Q1016 NOSIG",
      "taf": "TAF UDSG 141700Z 1418/1518 03006KT 9999 SCT040"
    },
    {
      "icao": "UDYZ",
      "alert": "OK",
      "vis_m": 9999,
      "fzfg": false,
      "metar_trigger": false,
      "taf_trigger": false,
      "metar": "METAR UDYZ 141900Z 27002KT 9999 FEW043CB 17/11 Q1011 NOSIG",
      "taf": "TAF UDYZ 141700Z 1418/1518 04006KT 9999 SCT040"
    },
    {
      "icao": "UGKO",
      "alert": "OK",
      "vis_m": 9999,
      "fzfg": false,
      "metar_trigger": false,
      "taf_trigger": false,
      "metar": "METAR UGKO 141900Z 23010KT 9999 -SHRA SCT042CB BKN064 18/17 Q1011 NOSIG",
      "taf": "TAF UGKO 141700Z 1418/1518 26010KT 9999 BKN050 TX24/1511Z TN17/1501Z"
    }
  ]
}