{
  "ts_utc": "2026-01-10T20:40:16Z",
  "threshold_m": 150,
  "source": "stations_override.txt (ICAO list) + aviationweather.gov (METAR/TAF raw)",
  "station_count": 159,
  "stations": [
    {
      "icao": "BIKF",
      "alert": "OK",
      "vis_m": 9999,
      "fzfg": false,
      "metar_trigger": false,
      "taf_trigger": false,
      "metar": "METAR BIKF 102030Z 05005KT CAVOK M05/M06 Q1006",
      "taf": "TAF BIKF 101957Z 1021/1121 01010KT 9999 FEW030 TXM02/1113Z TNM06/1103Z"
    },
    {
      "icao": "BKPR",
      "alert": "OK",
      "vis_m": 2500,
      "fzfg": false,
      "metar_trigger": false,
      "taf_trigger": false,
      "metar": "METAR BKPR 102030Z 01013KT 2500 -SN BR BKN005 OVC012 00/00 Q0999 TEMPO 1000 SN",
      "taf": ""
    },
    {
      "icao": "EBCI",
      "alert": "OK",
      "vis_m": 6000,
      "fzfg": false,
      "metar_trigger": false,
      "taf_trigger": false,
      "metar": "METAR EBCI 102020Z 01004KT 340V040 6000 SCT009 BKN014 M03/M04 Q1019 TEMPO BKN008",
      "taf": "TAF EBCI 101700Z 1018/1124 01006KT 8000 BKN010"
    },
    {
      "icao": "EDDB",
      "alert": "OK",
      "vis_m": 9999,
      "fzfg": false,
      "metar_trigger": false,
      "taf_trigger": false,
      "metar": "METAR EDDB 102020Z AUTO 31007KT CAVOK M03/M05 Q1017 NOSIG",
      "taf": "TAF EDDB 101700Z 1018/1118 30010KT 9999 SCT020"
    },
    {
      "icao": "EDDH",
      "alert": "OK",
      "vis_m": 9999,
      "fzfg": false,
      "metar_trigger": false,
      "taf_trigger": false,
      "metar": "METAR EDDH 102020Z AUTO 33006KT 9999 0550 R05/P2000N R33/P2000N BCFG NSC M06/M07 Q1021 NOSIG",
      "taf": "TAF EDDH 101700Z 1018/1124 VRB03KT CAVOK"
    },
    {
      "icao": "EDDK",
      "alert": "OK",
      "vis_m": 9999,
      "fzfg": false,
      "metar_trigger": false,
      "taf_trigger": false,
      "metar": "METAR EDDK 102020Z AUTO 05003KT 9999 OVC047 M02/M04 Q1019 NOSIG",
      "taf": "TAF EDDK 101700Z 1018/1124 VRB03KT 9999 SCT025"
    },
    {
      "icao": "EDDN",
      "alert": "OK",
      "vis_m": 9999,
      "fzfg": false,
      "metar_trigger": false,
      "taf_trigger": false,
      "metar": "METAR EDDN 102020Z AUTO 35006KT 9999 BKN037 M04/M06 Q1015 NOSIG",
      "taf": "TAF EDDN 101700Z 1018/1118 35006KT 7000 SCT009 OVC020"
    },
    {
      "icao": "EDDS",
      "alert": "OK",
      "vis_m": 9999,
      "fzfg": false,
      "metar_trigger": false,
      "taf_trigger": false,
      "metar": "METAR EDDS 102020Z AUTO 30010KT 9999 FEW005 BKN020 OVC032 M01/M02 Q1013 TEMPO 4000 -SN BKN008",
      "taf": "TAF EDDS 101700Z 1018/1118 32007KT 9999 SCT010 BKN015"
    },
    {
      "icao": "EDFH",
      "alert": "OK",
      "vis_m": 9000,
      "fzfg": false,
      "metar_trigger": false,
      "taf_trigger": false,
      "metar": "METAR EDFH 102020Z 01007KT 9000 BKN004 M05/M06 Q1015",
      "taf": ""
    },
    {
      "icao": "EDJA",
      "alert": "OK",
      "vis_m": 9999,
      "fzfg": false,
      "metar_trigger": false,
      "taf_trigger": false,
      "metar": "METAR EDJA 102020Z 24010KT 9999 -SN FEW010 BKN024 OVC035 M01/M03 Q1012",
      "taf": "TAF EDJA 101700Z 1018/1103 25010KT 6000 SCT008 OVC015"
    },
    {
      "icao": "EDLW",
      "alert": "OK",
      "vis_m": 9999,
      "fzfg": false,
      "metar_trigger": false,
      "taf_trigger": false,
      "metar": "METAR EDLW 102020Z 05004KT CAVOK M06/M09 Q1020",
      "taf": "TAF EDLW 101700Z 1018/1118 05008KT CAVOK"
    },
    {
      "icao": "EDNY",
      "alert": "OK",
      "vis_m": 9999,
      "fzfg": false,
      "metar_trigger": false,
      "taf_trigger": false,
      "metar": "METAR EDNY 102020Z 25008KT 9999 -SN OVC011 00/M01 Q1014",
      "taf": ""
    },
    {
      "icao": "EDSB",
      "alert": "OK",
      "vis_m": 8000,
      "fzfg": false,
      "metar_trigger": false,
      "taf_trigger": false,
      "metar": "METAR EDSB 102020Z 04008KT 8000 OVC011 M00/M02 Q1017",
      "taf": "TAF EDSB 101700Z 1018/1118 34004KT 9999 SCT005 BKN020"
    },
    {
      "icao": "EETN",
      "alert": "OK",
      "vis_m": 1500,
      "fzfg": false,
      "metar_trigger": false,
      "taf_trigger": false,
      "metar": "METAR EETN 102020Z 04015G25KT 360V060 1500 SN BLSN OVC011 M05/M07 Q1006 TEMPO 0800 +SN",
      "taf": "TAF EETN 101730Z 1018/1118 04015G25KT 2500 SN BLSN BKN012 OVC020"
    },
    {
      "icao": "EFTU",
      "alert": "OK",
      "vis_m": 9999,
      "fzfg": false,
      "metar_trigger": false,
      "taf_trigger": false,
      "metar": "METAR EFTU 102020Z AUTO 03008KT 360V070 CAVOK M08/M11 Q1012",
      "taf": "TAF EFTU 101734Z 1018/1118 02010KT CAVOK"
    },
    {
      "icao": "EGBB",
      "alert": "OK",
      "vis_m": 9999,
      "fzfg": false,
      "metar_trigger": false,
      "taf_trigger": false,
      "metar": "METAR EGBB 102020Z 14004KT CAVOK M03/M03 Q1020",
      "taf": "TAF EGBB 101657Z 1018/1118 21003KT 9999 FEW025"
    },
    {
      "icao": "EGGP",
      "alert": "OK",
      "vis_m": 9999,
      "fzfg": false,
      "metar_trigger": false,
      "taf_trigger": false,
      "metar": "METAR EGGP 102020Z 15006KT CAVOK 01/M01 Q1019",
      "taf": "TAF EGGP 101657Z 1018/1118 17004KT 9999 SCT040"
    },
    {
      "icao": "EGGW",
      "alert": "OK",
      "vis_m": 9999,
      "fzfg": false,
      "metar_trigger": false,
      "taf_trigger": false,
      "metar": "METAR EGGW 102020Z AUTO 00000KT 9999 NCD M01/M02 Q1021",
      "taf": ""
    },
    {
      "icao": "EGKK",
      "alert": "OK",
      "vis_m": 9999,
      "fzfg": false,
      "metar_trigger": false,
      "taf_trigger": false,
      "metar": "METAR EGKK 102020Z 11002KT CAVOK M02/M02 Q1021",
      "taf": "TAF EGKK 101652Z 1018/1124 VRB03KT 9999 SCT020"
    },
    {
      "icao": "EGNM",
      "alert": "OK",
      "vis_m": 9999,
      "fzfg": false,
      "metar_trigger": false,
      "taf_trigger": false,
      "metar": "METAR EGNM 102020Z 15005KT CAVOK M02/M03 Q1018",
      "taf": "TAF EGNM 101656Z 1018/1118 17003KT 9999 FEW040"
    },
    {
      "icao": "EGPD",
      "alert": "OK",
      "vis_m": 9999,
      "fzfg": false,
      "metar_trigger": false,
      "taf_trigger": false,
      "metar": "METAR EGPD 102020Z AUTO 18009KT 9999 BKN012 02/00 Q1013 TEMPO SCT015",
      "taf": "TAF EGPD 101654Z 1018/1118 17010KT 9999 FEW015 SCT025"
    },
    {
      "icao": "EGPF",
      "alert": "OK",
      "vis_m": 9999,
      "fzfg": false,
      "metar_trigger": false,
      "taf_trigger": false,
      "metar": "METAR EGPF 102020Z AUTO 07005KT 040V110 9999 NCD 03/02 Q1014",
      "taf": "TAF EGPF 101704Z 1018/1118 12003KT 9999 FEW015 SCT030"
    },
    {
      "icao": "EHBK",
      "alert": "OK",
      "vis_m": 9999,
      "fzfg": false,
      "metar_trigger": false,
      "taf_trigger": false,
      "metar": "METAR EHBK 102025Z AUTO 33004KT 290V010 9999 FEW014/// OVC016/// M03/M05 Q1019 TEMPO BKN014",
      "taf": "TAF EHBK 101706Z 1018/1124 VRB02KT 9999 BKN020"
    },
    {
      "icao": "EHEH",
      "alert": "OK",
      "vis_m": 9999,
      "fzfg": false,
      "metar_trigger": false,
      "taf_trigger": false,
      "metar": "METAR EHEH 102025Z AUTO 05006KT 9999 OVC018 M02/M07 Q1021 WHT BECMG SCT014 BKN018",
      "taf": "TAF EHEH 101723Z 1018/1124 03006KT 9999 OVC020"
    },
    {
      "icao": "EKBI",
      "alert": "OK",
      "vis_m": 9999,
      "fzfg": false,
      "metar_trigger": false,
      "taf_trigger": false,
      "metar": "METAR EKBI 102020Z AUTO 35001KT 9999 NCD M09/M10 Q1023",
      "taf": "TAF EKBI 102027Z 1021/1121 36006KT CAVOK"
    },
    {
      "icao": "EKCH",
      "alert": "OK",
      "vis_m": 9999,
      "fzfg": false,
      "metar_trigger": false,
      "taf_trigger": false,
      "metar": "METAR EKCH 102020Z AUTO 35017KT 9999 NCD M03/M08 Q1020 TEMPO 35017G27KT",
      "taf": "TAF EKCH 102027Z 1021/1121 36015KT CAVOK"
    },
    {
      "icao": "ENAL",
      "alert": "OK",
      "vis_m": 9999,
      "fzfg": false,
      "metar_trigger": false,
      "taf_trigger": false,
      "metar": "METAR ENAL 102020Z 15009KT CAVOK M02/M10 Q1021",
      "taf": "TAF ENAL 102000Z 1021/1106 16008KT CAVOK"
    },
    {
      "icao": "ENBR",
      "alert": "OK",
      "vis_m": 9999,
      "fzfg": false,
      "metar_trigger": false,
      "taf_trigger": false,
      "metar": "METAR ENBR 102020Z 12010KT CAVOK M02/M10 Q1022 RMK WIND 1200FT 13016KT",
      "taf": "TAF ENBR 101700Z 1018/1118 11005KT CAVOK"
    },
    {
      "icao": "ENGM",
      "alert": "OK",
      "vis_m": 9999,
      "fzfg": false,
      "metar_trigger": false,
      "taf_trigger": false,
      "metar": "METAR ENGM 102020Z 01004KT 330V050 9999 BKN007 M16/M18 Q1023 TEMPO BKN004",
      "taf": "TAF ENGM 101700Z 1018/1118 34005KT CAVOK"
    },
    {
      "icao": "ENHD",
      "alert": "OK",
      "vis_m": 9999,
      "fzfg": false,
      "metar_trigger": false,
      "taf_trigger": false,
      "metar": "METAR ENHD 102020Z 11015KT 9999 BKN042 M01/M07 Q1023",
      "taf": "TAF ENHD 101400Z 1015/1023 12012KT 9999 SCT040"
    },
    {
      "icao": "ENTC",
      "alert": "OK",
      "vis_m": 9999,
      "fzfg": false,
      "metar_trigger": false,
      "taf_trigger": false,
      "metar": "METAR ENTC 102020Z VRB02KT CAVOK M12/M13 Q1018 RMK WIND 2600FT 19020KT",
      "taf": "TAF ENTC 101700Z 1018/1118 20005KT CAVOK"
    },
    {
      "icao": "ENTO",
      "alert": "OK",
      "vis_m": 9999,
      "fzfg": false,
      "metar_trigger": false,
      "taf_trigger": false,
      "metar": "METAR ENTO 102020Z 34004KT 9999 R18/P2000N R36///// NCD M12/M14 Q1024 NOSIG",
      "taf": "TAF ENTO 101700Z 1018/1118 36003KT CAVOK"
    },
    {
      "icao": "ENVA",
      "alert": "OK",
      "vis_m": 9999,
      "fzfg": false,
      "metar_trigger": false,
      "taf_trigger": false,
      "metar": "METAR ENVA 102020Z 12006KT CAVOK M11/M14 Q1023 RMK WIND 670FT 15010KT",
      "taf": "TAF ENVA 101700Z 1018/1118 10006KT CAVOK"
    },
    {
      "icao": "ENZV",
      "alert": "OK",
      "vis_m": 9999,
      "fzfg": false,
      "metar_trigger": false,
      "taf_trigger": false,
      "metar": "METAR ENZV 102020Z 10010KT 9999 BKN042 M02/M09 Q1023 NOSIG",
      "taf": "TAF ENZV 101700Z 1018/1118 10012KT 9999 BKN040"
    },
    {
      "icao": "EPGD",
      "alert": "OK",
      "vis_m": 100,
      "fzfg": false,
      "metar_trigger": false,
      "taf_trigger": false,
      "metar": "METAR EPGD 102030Z 34018G32KT 0100 R29///// +SHSN DRSN BKN001 BKN009CB M02/M03 Q1006",
      "taf": ""
    },
    {
      "icao": "EPKK",
      "alert": "OK",
      "vis_m": 9999,
      "fzfg": false,
      "metar_trigger": false,
      "taf_trigger": false,
      "metar": "METAR EPKK 102030Z 25008KT 9999 -SN OVC013 M08/M11 Q1008",
      "taf": "TAF EPKK 102030Z 1021/1121 24009KT 9999 -SN BKN013"
    },
    {
      "icao": "EPKT",
      "alert": "OK",
      "vis_m": 7000,
      "fzfg": false,
      "metar_trigger": false,
      "taf_trigger": false,
      "metar": "METAR EPKT 102030Z 26013KT 7000 3300N SN OVC011 M07/M10 Q1008",
      "taf": ""
    },
    {
      "icao": "EPLB",
      "alert": "OK",
      "vis_m": 2400,
      "fzfg": false,
      "metar_trigger": false,
      "taf_trigger": false,
      "metar": "METAR EPLB 102030Z 25010KT 2400 SN BR SCT024 OVC035 M09/M10 Q1003",
      "taf": "TAF EPLB 101730Z 1018/1118 26008KT 8000 -SN BKN020"
    },
    {
      "icao": "EPMO",
      "alert": "OK",
      "vis_m": 2200,
      "fzfg": false,
      "metar_trigger": false,
      "taf_trigger": false,
      "metar": "METAR EPMO 102030Z 30004KT 2200 -SN BR FEW006 BKN017 M06/M06 Q1004",
      "taf": "TAF EPMO 101730Z 1018/1118 30010KT 6000 -SN BKN020"
    },
    {
      "icao": "EPPO",
      "alert": "OK",
      "vis_m": 9999,
      "fzfg": false,
      "metar_trigger": false,
      "taf_trigger": false,
      "metar": "METAR EPPO 102030Z 30009KT 9999 FEW032 M04/M06 Q1010",
      "taf": "TAF EPPO 101730Z 1018/1118 32008KT 9999 SCT030"
    },
    {
      "icao": "EPRA",
      "alert": "OK",
      "vis_m": 9000,
      "fzfg": false,
      "metar_trigger": false,
      "taf_trigger": false,
      "metar": "METAR EPRA 102030Z 29008KT 9000 -SN BKN010 M06/M09 Q1004",
      "taf": "TAF EPRA 102030Z 1021/1106 29010KT 7000 -SN BKN010"
    },
    {
      "icao": "EPRZ",
      "alert": "OK",
      "vis_m": 9999,
      "fzfg": false,
      "metar_trigger": false,
      "taf_trigger": false,
      "metar": "METAR EPRZ 102030Z 25014KT 9999 -SN SCT015 OVC029 M09/M12 Q1006",
      "taf": "TAF EPRZ 101730Z 1018/1118 27008KT 9999 BKN020"
    },
    {
      "icao": "EPSC",
      "alert": "OK",
      "vis_m": 9999,
      "fzfg": false,
      "metar_trigger": false,
      "taf_trigger": false,
      "metar": "METAR EPSC 102030Z 32011KT 9999 OVC030 M01/M05 Q1014",
      "taf": "TAF EPSC 101730Z 1018/1118 33010KT 9999 BKN025"
    },
    {
      "icao": "EPSY",
      "alert": "OK",
      "vis_m": 5000,
      "fzfg": false,
      "metar_trigger": false,
      "taf_trigger": false,
      "metar": "METAR EPSY 102030Z 31005KT 5000 -SN BR BKN025 M06/M08 Q1003",
      "taf": "TAF EPSY 102030Z 1021/1106 32007KT 9999 BKN025"
    },
    {
      "icao": "EPWA",
      "alert": "OK",
      "vis_m": 5000,
      "fzfg": false,
      "metar_trigger": false,
      "taf_trigger": false,
      "metar": "METAR EPWA 102030Z 29011KT 5000 -SN BKN030 M05/M07 Q1004 TEMPO 1500 SN",
      "taf": "TAF EPWA 102030Z 1021/1121 29008KT 7000 -SN BKN020"
    },
    {
      "icao": "EPWR",
      "alert": "OK",
      "vis_m": 9999,
      "fzfg": false,
      "metar_trigger": false,
      "taf_trigger": false,
      "metar": "METAR EPWR 102030Z 29017KT 9999 FEW035 M06/M09 Q1011",
      "taf": "TAF EPWR 102030Z 1021/1121 29010KT 7000 -SN BKN030"
    },
    {
      "icao": "ESGG",
      "alert": "OK",
      "vis_m": 9999,
      "fzfg": false,
      "metar_trigger": false,
      "taf_trigger": false,
      "metar": "METAR ESGG 102020Z 35005KT CAVOK M10/M12 Q1021",
      "taf": "TAF ESGG 102030Z 1021/1121 01005KT CAVOK"
    },
    {
      "icao": "ESKN",
      "alert": "OK",
      "vis_m": 9999,
      "fzfg": false,
      "metar_trigger": false,
      "taf_trigger": false,
      "metar": "METAR ESKN 102020Z 33015KT 9999 SCT013 M07/M09 Q1017",
      "taf": "TAF ESKN 102030Z 1021/1121 35013G23KT 9999 SCT013"
    },
    {
      "icao": "ESMS",
      "alert": "OK",
      "vis_m": 9999,
      "fzfg": false,
      "metar_trigger": false,
      "taf_trigger": false,
      "metar": "METAR ESMS 102020Z 33009KT CAVOK M08/M12 Q1018",
      "taf": "TAF ESMS 102027Z 1021/1121 34012KT CAVOK"
    },
    {
      "icao": "ESSA",
      "alert": "OK",
      "vis_m": 9999,
      "fzfg": false,
      "metar_trigger": false,
      "taf_trigger": false,
      "metar": "METAR ESSA 102020Z 32014KT 9999 FEW015 SCT030 M06/M08 Q1016 NOSIG",
      "taf": "TAF ESSA 102030Z 1021/1121 35012G22KT 9999 FEW015 SCT030"
    },
    {
      "icao": "EYKA",
      "alert": "OK",
      "vis_m": 7000,
      "fzfg": false,
      "metar_trigger": false,
      "taf_trigger": false,
      "metar": "METAR EYKA 102020Z 31002KT 7000 -SN FEW021 SCT026 BKN041 M12/M13 Q1002",
      "taf": "TAF EYKA 101706Z 1018/1118 VRB04KT 8000 SCT010 BKN020"
    },
    {
      "icao": "EYPA",
      "alert": "OK",
      "vis_m": 9999,
      "fzfg": false,
      "metar_trigger": false,
      "taf_trigger": false,
      "metar": "METAR EYPA 102020Z 02013KT CAVOK M05/M09 Q1004",
      "taf": "TAF EYPA 101707Z 1018/1118 01010KT 9000 SCT030"
    },
    {
      "icao": "EYVI",
      "alert": "OK",
      "vis_m": 9000,
      "fzfg": false,
      "metar_trigger": false,
      "taf_trigger": false,
      "metar": "METAR EYVI 102020Z 31004KT 9000 -SN SCT031 M12/M14 Q0999 NOSIG",
      "taf": "TAF EYVI 101711Z 1018/1118 VRB04KT 8000 SCT010 BKN020"
    },
    {
      "icao": "GCFV",
      "alert": "OK",
      "vis_m": 9999,
      "fzfg": false,
      "metar_trigger": false,
      "taf_trigger": false,
      "metar": "METAR GCFV 102030Z 01015KT 9999 FEW025 SCT030 18/12 Q1026",
      "taf": "TAF GCFV 102000Z 1021/1121 04014KT 9999 BKN025 TX20/1114Z TN14/1106Z"
    },
    {
      "icao": "GCLP",
      "alert": "OK",
      "vis_m": 9999,
      "fzfg": false,
      "metar_trigger": false,
      "taf_trigger": false,
      "metar": "METAR GCLP 102030Z 01013KT 9999 BKN040 18/10 Q1026 NOSIG",
      "taf": "TAF GCLP 102000Z 1021/1121 02013KT 9999 SCT030 TX21/1114Z TN15/1106Z"
    },
    {
      "icao": "GCTS",
      "alert": "OK",
      "vis_m": 9999,
      "fzfg": false,
      "metar_trigger": false,
      "taf_trigger": false,
      "metar": "METAR GCTS 102030Z 05008KT 020V080 9999 BKN045 17/10 Q1026 NOSIG",
      "taf": "TAF GCTS 102000Z 1021/1121 03008KT 9999 SCT035 TX23/1114Z TN16/1106Z"
    },
    {
      "icao": "GMAD",
      "alert": "OK",
      "vis_m": 9999,
      "fzfg": false,
      "metar_trigger": false,
      "taf_trigger": false,
      "metar": "METAR GMAD 102030Z 00000KT CAVOK 11/09 Q1025 NOSIG",
      "taf": "TAF GMAD 101700Z 1018/1124 25008KT CAVOK"
    },
    {
      "icao": "GMMN",
      "alert": "OK",
      "vis_m": 9999,
      "fzfg": false,
      "metar_trigger": false,
      "taf_trigger": false,
      "metar": "METAR GMMN 102030Z 04006KT 9999 SCT013 11/10 Q1028 NOSIG",
      "taf": "TAF GMMN 101700Z 1018/1124 02006KT 9999 SCT030"
    },
    {
      "icao": "GMMX",
      "alert": "OK",
      "vis_m": 9999,
      "fzfg": false,
      "metar_trigger": false,
      "taf_trigger": false,
      "metar": "METAR GMMX 102030Z 09006KT CAVOK 12/09 Q1026 NOSIG",
      "taf": "TAF GMMX 101700Z 1018/1124 08006KT 8000 NSC"
    },
    {
      "icao": "HEGN",
      "alert": "OK",
      "vis_m": null,
      "fzfg": false,
      "metar_trigger": false,
      "taf_trigger": false,
      "metar": "",
      "taf": "TAF HEGN 101700Z 1018/1124 33013KT CAVOK"
    },
    {
      "icao": "HEMA",
      "alert": "OK",
      "vis_m": 9999,
      "fzfg": false,
      "metar_trigger": false,
      "taf_trigger": false,
      "metar": "METAR HEMA 102000Z 29009KT CAVOK 16/08 Q1019 NOSIG",
      "taf": "TAF HEMA 101700Z 1018/1124 32015KT CAVOK"
    },
    {
      "icao": "HESH",
      "alert": "OK",
      "vis_m": 9999,
      "fzfg": false,
      "metar_trigger": false,
      "taf_trigger": false,
      "metar": "METAR HESH 102000Z 34010KT CAVOK 18/08 Q1019 NOSIG",
      "taf": "TAF HESH 101700Z 1018/1124 36012KT CAVOK"
    },
    {
      "icao": "HESX",
      "alert": "OK",
      "vis_m": 9999,
      "fzfg": false,
      "metar_trigger": false,
      "taf_trigger": false,
      "metar": "METAR HESX 102000Z 20004KT CAVOK 14/07 Q1020 NOSIG",
      "taf": "TAF HESX 101700Z 1018/1124 22008KT 9999 SCT025"
    },
    {
      "icao": "LATI",
      "alert": "OK",
      "vis_m": 6000,
      "fzfg": false,
      "metar_trigger": false,
      "taf_trigger": false,
      "metar": "METAR LATI 102020Z 13012KT 6000 RA FEW013 SCT021CB OVC032 07/05 Q0998 TEMPO 3000 TSRA",
      "taf": "TAF LATI 101700Z 1018/1118 14014KT 9999 SCT030 BKN060 TX12/1112Z TN03/1105Z"
    },
    {
      "icao": "LBPD",
      "alert": "OK",
      "vis_m": 9999,
      "fzfg": false,
      "metar_trigger": false,
      "taf_trigger": false,
      "metar": "METAR LBPD 102030Z AUTO 30003KT 230V330 9999 SCT190/// 02/02 Q0997",
      "taf": "TAF LBPD 101700Z 1018/1118 28010KT 9999 SCT020 BKN050"
    },
    {
      "icao": "LBSF",
      "alert": "OK",
      "vis_m": 6000,
      "fzfg": false,
      "metar_trigger": false,
      "taf_trigger": false,
      "metar": "METAR LBSF 102030Z AUTO 28005KT 200V320 6000 RA SCT004/// BKN013/// OVC019/// 02/01 Q0997 TEMPO 3000 RA BKN002",
      "taf": "TAF LBSF 101700Z 1018/1118 28015G28KT 5000 RA BKN015 OVC040"
    },
    {
      "icao": "LBWN",
      "alert": "OK",
      "vis_m": 7000,
      "fzfg": false,
      "metar_trigger": false,
      "taf_trigger": false,
      "metar": "METAR LBWN 102030Z AUTO VRB06KT 7000 -RASN SCT014/// BKN016/// OVC029/// 04/04 Q0997 RERA NOSIG",
      "taf": "TAF LBWN 101700Z 1018/1118 06008KT 9999 SCT020 BKN040"
    },
    {
      "icao": "LCLK",
      "alert": "OK",
      "vis_m": 9999,
      "fzfg": false,
      "metar_trigger": false,
      "taf_trigger": false,
      "metar": "METAR LCLK 102030Z 27006KT 9999 -SHRA FEW033 BKN060 15/13 Q1016 NOSIG RMK RAIN",
      "taf": "TAF LCLK 101730Z 1018/1118 23007KT 9999 FEW030"
    },
    {
      "icao": "LCPH",
      "alert": "OK",
      "vis_m": 9999,
      "fzfg": false,
      "metar_trigger": false,
      "taf_trigger": false,
      "metar": "METAR LCPH 102030Z 07005KT 9999 FEW025 FEW030TCU BKN040 16/13 Q1016 NOSIG",
      "taf": "TAF LCPH 101730Z 1018/1118 24016KT 9999 SCT030 SCT050"
    },
    {
      "icao": "LEAL",
      "alert": "OK",
      "vis_m": 9999,
      "fzfg": false,
      "metar_trigger": false,
      "taf_trigger": false,
      "metar": "METAR LEAL 102030Z 26006KT 220V290 CAVOK 13/02 Q1024 NOSIG",
      "taf": "TAF LEAL 101700Z 1018/1118 28008KT CAVOK TX16/1114Z TN07/1106Z"
    },
    {
      "icao": "LEBB",
      "alert": "OK",
      "vis_m": 9999,
      "fzfg": false,
      "metar_trigger": false,
      "taf_trigger": false,
      "metar": "METAR LEBB 102030Z 13005KT 9999 -SHRA FEW020 FEW025TCU SCT034 08/08 Q1027 TEMPO SHRA",
      "taf": "TAF LEBB 101700Z 1018/1118 24008KT 9999 FEW020 BKN040 TX14/1114Z TN04/1105Z"
    },
    {
      "icao": "LEBL",
      "alert": "OK",
      "vis_m": 9999,
      "fzfg": false,
      "metar_trigger": false,
      "taf_trigger": false,
      "metar": "METAR LEBL 102030Z 32008KT 290V010 9999 FEW036 10/03 Q1019 NOSIG",
      "taf": "TAF LEBL 101700Z 1018/1118 30010KT 9999 FEW020 TX13/1113Z TN05/1106Z"
    },
    {
      "icao": "LECH",
      "alert": "OK",
      "vis_m": 9000,
      "fzfg": false,
      "metar_trigger": false,
      "taf_trigger": false,
      "metar": "METAR LECH 102030Z AUTO 31013KT 280V340 9000 NCD 10/M01 Q1023",
      "taf": ""
    },
    {
      "icao": "LEMD",
      "alert": "OK",
      "vis_m": 9999,
      "fzfg": false,
      "metar_trigger": false,
      "taf_trigger": false,
      "metar": "METAR LEMD 102030Z VRB01KT CAVOK 04/M01 Q1026 NOSIG",
      "taf": "TAF LEMD 101700Z 1018/1124 VRB03KT CAVOK TX10/1114Z TNM03/1106Z"
    },
    {
      "icao": "LEMG",
      "alert": "OK",
      "vis_m": 9999,
      "fzfg": false,
      "metar_trigger": false,
      "taf_trigger": false,
      "metar": "METAR LEMG 102030Z 30015KT CAVOK 11/04 Q1027 NOSIG",
      "taf": "TAF LEMG 101700Z 1018/1118 29014KT CAVOK TX17/1114Z TN06/1107Z"
    },
    {
      "icao": "LEVC",
      "alert": "OK",
      "vis_m": 9999,
      "fzfg": false,
      "metar_trigger": false,
      "taf_trigger": false,
      "metar": "METAR LEVC 102030Z 24007KT CAVOK 09/00 Q1024 NOSIG",
      "taf": "TAF LEVC 101700Z 1018/1118 29008KT CAVOK TX16/1114Z TN04/1106Z"
    },
    {
      "icao": "LEXJ",
      "alert": "OK",
      "vis_m": 9999,
      "fzfg": false,
      "metar_trigger": false,
      "taf_trigger": false,
      "metar": "METAR LEXJ 102030Z 24005KT 9999 SCT030 BKN050 10/05 Q1027",
      "taf": "TAF LEXJ 102000Z 1021/1121 22009KT 9999 BKN050 TX15/1113Z TN07/1101Z"
    },
    {
      "icao": "LEZG",
      "alert": "OK",
      "vis_m": 9999,
      "fzfg": false,
      "metar_trigger": false,
      "taf_trigger": false,
      "metar": "METAR LEZG 102030Z 29018KT 9999 BKN050 09/03 Q1025 NOSIG",
      "taf": "TAF LEZG 101700Z 1018/1118 28009KT 9999 SCT040 TX12/1115Z TN03/1106Z"
    },
    {
      "icao": "LEZL",
      "alert": "OK",
      "vis_m": 9999,
      "fzfg": false,
      "metar_trigger": false,
      "taf_trigger": false,
      "metar": "METAR LEZL 102030Z 10003KT CAVOK 10/08 Q1028 NOSIG",
      "taf": "TAF LEZL 102000Z 1021/1121 03004KT CAVOK TX15/1115Z TN04/1107Z"
    },
    {
      "icao": "LFBD",
      "alert": "OK",
      "vis_m": 6000,
      "fzfg": false,
      "metar_trigger": false,
      "taf_trigger": false,
      "metar": "METAR LFBD 102030Z AUTO 25004KT 6000 1400 R23/1400U R05/P2300 R29/P2300 FEW045 SCT074 05/04 Q1025",
      "taf": "TAF LFBD 101700Z 1018/1124 30005KT 9999 SCT030 TX07/1115Z TN00/1106Z"
    },
    {
      "icao": "LFLL",
      "alert": "OK",
      "vis_m": 9999,
      "fzfg": false,
      "metar_trigger": false,
      "taf_trigger": false,
      "metar": "METAR LFLL 102030Z 36003KT 9999 -RASN BKN026 BKN033 01/00 Q1020 NOSIG",
      "taf": "TAF LFLL 101700Z 1018/1124 31008KT 9999 BKN035"
    },
    {
      "icao": "LFLS",
      "alert": "OK",
      "vis_m": 4800,
      "fzfg": false,
      "metar_trigger": false,
      "taf_trigger": false,
      "metar": "METAR LFLS 102030Z AUTO VRB02KT 4800 -SN BR BKN013 BKN023 OVC034 01/00 Q1019",
      "taf": ""
    },
    {
      "icao": "LFMN",
      "alert": "OK",
      "vis_m": 9999,
      "fzfg": false,
      "metar_trigger": false,
      "taf_trigger": false,
      "metar": "METAR LFMN 102030Z 34011KT CAVOK 10/M11 Q1008 NOSIG",
      "taf": "TAF LFMN 102000Z 1021/1203 33013KT CAVOK"
    },
    {
      "icao": "LFOB",
      "alert": "OK",
      "vis_m": 9999,
      "fzfg": false,
      "metar_trigger": false,
      "taf_trigger": false,
      "metar": "METAR LFOB 102030Z AUTO 31006KT 9999 BKN038 01/M00 Q1021 NOSIG",
      "taf": ""
    },
    {
      "icao": "LFPO",
      "alert": "OK",
      "vis_m": 9999,
      "fzfg": false,
      "metar_trigger": false,
      "taf_trigger": false,
      "metar": "METAR LFPO 102030Z AUTO 30008KT 9999 FEW024 OVC047 03/M01 Q1021 NOSIG",
      "taf": "TAF LFPO 101700Z 1018/1124 30010G20KT 9999 BKN025"
    },
    {
      "icao": "LFSB",
      "alert": "OK",
      "vis_m": 9999,
      "fzfg": false,
      "metar_trigger": false,
      "taf_trigger": false,
      "metar": "METAR LFSB 102030Z AUTO 26011KT 9999 BKN029 OVC035 01/M01 Q1016 TEMPO 4000 -SN BKN005",
      "taf": "TAF LFSB 101700Z 1018/1118 25012KT 9999 BKN025"
    },
    {
      "icao": "LGAV",
      "alert": "OK",
      "vis_m": 9999,
      "fzfg": false,
      "metar_trigger": false,
      "taf_trigger": false,
      "metar": "METAR LGAV 102020Z 24010KT 9999 SCT025 13/05 Q1003 WS R21R NOSIG",
      "taf": "TAF LGAV 101700Z 1018/1118 25015KT 9999 SCT025 BKN070"
    },
    {
      "icao": "LGTS",
      "alert": "OK",
      "vis_m": 9999,
      "fzfg": false,
      "metar_trigger": false,
      "taf_trigger": false,
      "metar": "METAR LGTS 102020Z 11004KT 9999 FEW015 06/06 Q0998 NOSIG",
      "taf": "TAF LGTS 101700Z 1018/1118 22010KT 9999 SCT030"
    },
    {
      "icao": "LHBP",
      "alert": "OK",
      "vis_m": 3500,
      "fzfg": false,
      "metar_trigger": false,
      "taf_trigger": false,
      "metar": "METAR LHBP 102030Z 27004KT 3500 BR OVC014 M04/M05 Q1007 NOSIG",
      "taf": "TAF LHBP 101715Z 1018/1118 VRB02KT 5000 BR BKN015"
    },
    {
      "icao": "LHDC",
      "alert": "OK",
      "vis_m": 9999,
      "fzfg": false,
      "metar_trigger": false,
      "taf_trigger": false,
      "metar": "METAR LHDC 102015Z AUTO 02017KT 9999 OVC038 M07/M13 Q1006",
      "taf": "TAF LHDC 101415Z 1015/1024 VRB03KT 7000 BKN025 BKN060"
    },
    {
      "icao": "LIBD",
      "alert": "OK",
      "vis_m": 9999,
      "fzfg": false,
      "metar_trigger": false,
      "taf_trigger": false,
      "metar": "METAR LIBD 102020Z 27014KT 9999 BKN045 07/03 Q1001",
      "taf": "TAF LIBD 101700Z 1018/1118 28015G25KT 9999 FEW040"
    },
    {
      "icao": "LIBG",
      "alert": "OK",
      "vis_m": null,
      "fzfg": false,
      "metar_trigger": false,
      "taf_trigger": false,
      "metar": "",
      "taf": "TAF LIBG 101700Z 1018/1103 29012KT 9999 SCT040"
    },
    {
      "icao": "LIBP",
      "alert": "OK",
      "vis_m": 9999,
      "fzfg": false,
      "metar_trigger": false,
      "taf_trigger": false,
      "metar": "METAR LIBP 102020Z AUTO 23004KT 9999 FEW042/// 05/02 Q1006",
      "taf": "TAF LIBP 101700Z 1018/1118 30010KT 9999 SCT040"
    },
    {
      "icao": "LIBR",
      "alert": "OK",
      "vis_m": 9999,
      "fzfg": false,
      "metar_trigger": false,
      "taf_trigger": false,
      "metar": "METAR LIBR 102020Z 28013KT 9999 -RA BKN020 08/05 Q1000",
      "taf": "TAF LIBR 101700Z 1018/1118 28015KT 9999 SCT040"
    },
    {
      "icao": "LICA",
      "alert": "OK",
      "vis_m": 9999,
      "fzfg": false,
      "metar_trigger": false,
      "taf_trigger": false,
      "metar": "METAR LICA 102020Z AUTO 29008KT 240V320 9999 -RA BKN039/// 09/06 Q1004",
      "taf": "TAF LICA 101700Z 1018/1118 25025G37KT 9999 SCT020"
    },
    {
      "icao": "LICC",
      "alert": "OK",
      "vis_m": 9999,
      "fzfg": false,
      "metar_trigger": false,
      "taf_trigger": false,
      "metar": "METAR LICC 102020Z 27017KT 9999 -RA SCT040 BKN080 08/04 Q1008",
      "taf": "TAF LICC 101700Z 1018/1118 26018G30KT 9999 FEW050"
    },
    {
      "icao": "LICJ",
      "alert": "OK",
      "vis_m": 9999,
      "fzfg": false,
      "metar_trigger": false,
      "taf_trigger": false,
      "metar": "METAR LICJ 102020Z 28032KT 9999 BKN050 13/05 Q1010",
      "taf": "TAF LICJ 101700Z 1018/1118 29030G40KT 9999 SCT030"
    },
    {
      "icao": "LIMC",
      "alert": "OK",
      "vis_m": 9999,
      "fzfg": false,
      "metar_trigger": false,
      "taf_trigger": false,
      "metar": "METAR LIMC 102020Z 04008KT CAVOK 03/M06 Q1008 NOSIG",
      "taf": "TAF LIMC 101700Z 1018/1124 01012KT CAVOK"
    },
    {
      "icao": "LIME",
      "alert": "OK",
      "vis_m": 9999,
      "fzfg": false,
      "metar_trigger": false,
      "taf_trigger": false,
      "metar": "METAR LIME 102020Z VRB01KT CAVOK 03/M07 Q1006 NOSIG",
      "taf": "TAF LIME 101700Z 1018/1118 VRB04KT 9999 SCT050"
    },
    {
      "icao": "LIMF",
      "alert": "OK",
      "vis_m": 9999,
      "fzfg": false,
      "metar_trigger": false,
      "taf_trigger": false,
      "metar": "METAR LIMF 102020Z VRB01KT CAVOK 05/M12 Q1008",
      "taf": "TAF LIMF 101700Z 1018/1118 30012KT 8000 NSC"
    },
    {
      "icao": "LIMJ",
      "alert": "OK",
      "vis_m": 9999,
      "fzfg": false,
      "metar_trigger": false,
      "taf_trigger": false,
      "metar": "METAR LIMJ 102020Z 35007G18KT 300V050 CAVOK 10/M11 Q1007",
      "taf": "TAF LIMJ 101700Z 1018/1118 35013KT CAVOK"
    },
    {
      "icao": "LIPE",
      "alert": "OK",
      "vis_m": 9999,
      "fzfg": false,
      "metar_trigger": false,
      "taf_trigger": false,
      "metar": "METAR LIPE 102020Z VRB02KT CAVOK 01/M03 Q1006",
      "taf": "TAF LIPE 101700Z 1018/1118 28007KT 7000 NSC"
    },
    {
      "icao": "LIPH",
      "alert": "OK",
      "vis_m": 9999,
      "fzfg": false,
      "metar_trigger": false,
      "taf_trigger": false,
      "metar": "METAR LIPH 102020Z VRB01KT CAVOK 02/00 Q1006",
      "taf": "TAF LIPH 101700Z 1018/1118 VRB05KT CAVOK"
    },
    {
      "icao": "LIPQ",
      "alert": "OK",
      "vis_m": 9999,
      "fzfg": false,
      "metar_trigger": false,
      "taf_trigger": false,
      "metar": "METAR LIPQ 102020Z AUTO 08002KT 9999 FEW100/// BKN150/// 01/00 Q1006",
      "taf": "TAF LIPQ 101700Z 1018/1118 VRB05KT CAVOK"
    },
    {
      "icao": "LIPR",
      "alert": "OK",
      "vis_m": 9999,
      "fzfg": false,
      "metar_trigger": false,
      "taf_trigger": false,
      "metar": "METAR LIPR 102020Z 19003KT CAVOK M00/M01 Q1006",
      "taf": "TAF LIPR 101700Z 1018/1118 28010KT 7000 FEW040"
    },
    {
      "icao": "LIPX",
      "alert": "OK",
      "vis_m": 9999,
      "fzfg": false,
      "metar_trigger": false,
      "taf_trigger": false,
      "metar": "METAR LIPX 102020Z VRB02KT CAVOK 00/M01 Q1005",
      "taf": "TAF LIPX 101700Z 1018/1118 VRB05KT 8000 NSC"
    },
    {
      "icao": "LIPY",
      "alert": "OK",
      "vis_m": 9999,
      "fzfg": false,
      "metar_trigger": false,
      "taf_trigger": false,
      "metar": "METAR LIPY 102020Z AUTO 16004KT 9999 NCD 03/M01 Q1007",
      "taf": "TAF LIPY 101700Z 1018/1118 28007KT 9999 FEW040"
    },
    {
      "icao": "LIPZ",
      "alert": "OK",
      "vis_m": 9999,
      "fzfg": false,
      "metar_trigger": false,
      "taf_trigger": false,
      "metar": "METAR LIPZ 102020Z 04004KT 9999 SCT060 02/01 Q1006 NOSIG",
      "taf": "TAF LIPZ 101700Z 1018/1124 VRB05KT CAVOK"
    },
    {
      "icao": "LIRF",
      "alert": "OK",
      "vis_m": 9999,
      "fzfg": false,
      "metar_trigger": false,
      "taf_trigger": false,
      "metar": "METAR LIRF 102020Z VRB01KT CAVOK 06/03 Q1006 NOSIG",
      "taf": "TAF LIRF 101700Z 1018/1124 02007KT 9999 SCT030"
    },
    {
      "icao": "LIRN",
      "alert": "OK",
      "vis_m": 9999,
      "fzfg": false,
      "metar_trigger": false,
      "taf_trigger": false,
      "metar": "METAR LIRN 102020Z 33004KT CAVOK 05/03 Q1004 NOSIG",
      "taf": "TAF LIRN 101700Z 1018/1118 VRB05KT 9999 SCT030"
    },
    {
      "icao": "LIRP",
      "alert": "OK",
      "vis_m": 9999,
      "fzfg": false,
      "metar_trigger": false,
      "taf_trigger": false,
      "metar": "METAR LIRP 102015Z 10003KT CAVOK 04/01 Q1006 NOSIG",
      "taf": "TAF LIRP 101700Z 1018/1118 27007KT CAVOK"
    },
    {
      "icao": "LIRZ",
      "alert": "OK",
      "vis_m": 9999,
      "fzfg": false,
      "metar_trigger": false,
      "taf_trigger": false,
      "metar": "METAR LIRZ 102020Z AUTO 01003KT 9999 NCD 00/M01 Q1007",
      "taf": "TAF LIRZ 101700Z 1018/1118 VRB05KT 9999 FEW030"
    },
    {
      "icao": "LJLJ",
      "alert": "OK",
      "vis_m": 400,
      "fzfg": true,
      "metar_trigger": false,
      "taf_trigger": false,
      "metar": "METAR LJLJ 102030Z VRB02KT 0400 R30/0700U FZFG VV001 M01/M01 Q1006 NOSIG",
      "taf": "TAF LJLJ 101700Z 1018/1118 VRB02KT 0200 FZFG VV001"
    },
    {
      "icao": "LKMT",
      "alert": "OK",
      "vis_m": 9999,
      "fzfg": false,
      "metar_trigger": false,
      "taf_trigger": false,
      "metar": "METAR LKMT 102030Z 19002KT 9999 -SN FEW049 M08/M11 Q1010 NOSIG",
      "taf": "TAF LKMT 101700Z 1018/1118 36012KT 8000 BKN030"
    },
    {
      "icao": "LKPR",
      "alert": "OK",
      "vis_m": 9999,
      "fzfg": false,
      "metar_trigger": false,
      "taf_trigger": false,
      "metar": "METAR LKPR 102030Z 23005KT 9999 BKN042 M08/M10 Q1014 NOSIG",
      "taf": "TAF LKPR 102000Z 1021/1203 26008KT CAVOK"
    },
    {
      "icao": "LLBG",
      "alert": "OK",
      "vis_m": 9999,
      "fzfg": false,
      "metar_trigger": false,
      "taf_trigger": false,
      "metar": "METAR LLBG 102020Z 12006KT CAVOK 13/10 Q1020 NOSIG RMK FEW075",
      "taf": "TAF LLBG 101706Z 1018/1118 15005KT CAVOK"
    },
    {
      "icao": "LMML",
      "alert": "OK",
      "vis_m": 9999,
      "fzfg": false,
      "metar_trigger": false,
      "taf_trigger": false,
      "metar": "METAR LMML 102015Z 28026G40KT 250V320 9999 SCT028 SCT047 12/05 Q1012 NOSIG",
      "taf": "TAF LMML 101700Z 1018/1118 29028G38KT 9999 FEW020TCU"
    },
    {
      "icao": "LOWW",
      "alert": "OK",
      "vis_m": 9999,
      "fzfg": false,
      "metar_trigger": false,
      "taf_trigger": false,
      "metar": "METAR LOWW 102020Z 35006KT CAVOK M08/M12 Q1012 NOSIG",
      "taf": "TAF LOWW 102015Z 1021/1203 36010KT CAVOK TXM03/1113Z TNM08/1203Z"
    },
    {
      "icao": "LPFR",
      "alert": "OK",
      "vis_m": 9999,
      "fzfg": false,
      "metar_trigger": false,
      "taf_trigger": false,
      "metar": "METAR LPFR 102030Z 01004KT 310V040 CAVOK 11/07 Q1029",
      "taf": "TAF LPFR 101700Z 1018/1118 33008KT 9999 SCT030"
    },
    {
      "icao": "LPMA",
      "alert": "OK",
      "vis_m": 9999,
      "fzfg": false,
      "metar_trigger": false,
      "taf_trigger": false,
      "metar": "METAR LPMA 102030Z 32006KT 9999 FEW015 15/10 Q1029",
      "taf": "TAF LPMA 101700Z 1018/1118 04008KT 9999 SCT015"
    },
    {
      "icao": "LPPR",
      "alert": "OK",
      "vis_m": 9999,
      "fzfg": false,
      "metar_trigger": false,
      "taf_trigger": false,
      "metar": "METAR LPPR 102030Z 17008KT 9999 FEW015 BKN048 12/08 Q1028",
      "taf": "TAF LPPR 101700Z 1018/1118 20007KT 9999 FEW015 BKN035"
    },
    {
      "icao": "LPPS",
      "alert": "OK",
      "vis_m": 9999,
      "fzfg": false,
      "metar_trigger": false,
      "taf_trigger": false,
      "metar": "METAR LPPS 102030Z VRB02KT 9999 FEW015 15/12 Q1029",
      "taf": "TAF LPPS 101700Z 1018/1124 09007KT 9999 SCT015 SCT030"
    },
    {
      "icao": "LPPT",
      "alert": "OK",
      "vis_m": 9999,
      "fzfg": false,
      "metar_trigger": false,
      "taf_trigger": false,
      "metar": "METAR LPPT 102030Z 26003KT 230V310 9999 FEW035 10/08 Q1029",
      "taf": "TAF LPPT 101700Z 1018/1124 29005KT 9999 FEW020 SCT035"
    },
    {
      "icao": "LQBK",
      "alert": "OK",
      "vis_m": 5000,
      "fzfg": false,
      "metar_trigger": false,
      "taf_trigger": false,
      "metar": "METAR LQBK 102030Z VRB01KT 5000 BR BKN005 OVC010 00/M00 Q1007 NOSIG",
      "taf": ""
    },
    {
      "icao": "LQSA",
      "alert": "OK",
      "vis_m": 9999,
      "fzfg": false,
      "metar_trigger": false,
      "taf_trigger": false,
      "metar": "METAR LQSA 102030Z 30006KT 9999 BKN015 01/00 Q1003 NOSIG",
      "taf": "TAF LQSA 101700Z 1018/1118 29006KT 6000 SCT010 BKN025 TX00/1018Z TNM07/1118Z"
    },
    {
      "icao": "LQTZ",
      "alert": "OK",
      "vis_m": 7000,
      "fzfg": false,
      "metar_trigger": false,
      "taf_trigger": false,
      "metar": "METAR LQTZ 102030Z COR 31006KT 7000 -SN FEW005 OVC015 00/00 Q1006",
      "taf": ""
    },
    {
      "icao": "LRBC",
      "alert": "OK",
      "vis_m": 9999,
      "fzfg": false,
      "metar_trigger": false,
      "taf_trigger": false,
      "metar": "METAR LRBC 102030Z 34017KT 9999 OVC035 M06/M10 Q1003",
      "taf": "TAF LRBC 102000Z 1021/1106 35014KT CAVOK"
    },
    {
      "icao": "LRBS",
      "alert": "OK",
      "vis_m": 1200,
      "fzfg": false,
      "metar_trigger": false,
      "taf_trigger": false,
      "metar": "METAR LRBS 102030Z 05012KT 1200 R07/2000N -SN FEW007 OVC020 M01/M02 Q1000 TEMPO 0800 SN",
      "taf": "TAF LRBS 101700Z 1018/1118 06013KT 7000 OVC010"
    },
    {
      "icao": "LRBV",
      "alert": "OK",
      "vis_m": 7000,
      "fzfg": false,
      "metar_trigger": false,
      "taf_trigger": false,
      "metar": "METAR LRBV 102030Z VRB02KT 7000 OVC020 M02/M04 Q0999",
      "taf": "TAF LRBV 102000Z 1021/1106 29007KT 7000 SCT010 OVC020"
    },
    {
      "icao": "LRCL",
      "alert": "OK",
      "vis_m": 6000,
      "fzfg": false,
      "metar_trigger": false,
      "taf_trigger": false,
      "metar": "METAR LRCL 102030Z 26004KT 6000 -SN OVC011 M03/M04 Q1002",
      "taf": "TAF LRCL 102000Z 1021/1106 VRB03KT 9999 OVC010"
    },
    {
      "icao": "LRCV",
      "alert": "OK",
      "vis_m": 1300,
      "fzfg": false,
      "metar_trigger": false,
      "taf_trigger": false,
      "metar": "METAR LRCV 102030Z 06003KT 1300 R26/P2000 SN BR SCT003 OVC014 00/00 Q1000",
      "taf": "TAF LRCV 102000Z 1021/1106 VRB04KT 1500 SN BR BKN005 OVC010"
    },
    {
      "icao": "LRIA",
      "alert": "OK",
      "vis_m": 9999,
      "fzfg": false,
      "metar_trigger": false,
      "taf_trigger": false,
      "metar": "METAR LRIA 102030Z 33011KT 9999 BKN042 M08/M10 Q1005",
      "taf": "TAF LRIA 102000Z 1021/1106 33012KT 9999 BKN040"
    },
    {
      "icao": "LROP",
      "alert": "OK",
      "vis_m": 3000,
      "fzfg": false,
      "metar_trigger": false,
      "taf_trigger": false,
      "metar": "METAR LROP 102030Z 06015KT 3000 -SN BR OVC032 M00/M02 Q1000 TEMPO 1500 SN BR",
      "taf": "TAF LROP 101700Z 1018/1118 06013KT 7000 OVC010"
    },
    {
      "icao": "LRSB",
      "alert": "OK",
      "vis_m": 6000,
      "fzfg": false,
      "metar_trigger": false,
      "taf_trigger": false,
      "metar": "METAR LRSB 102030Z 34005KT 6000 OVC012 M03/M04 Q1001",
      "taf": "TAF LRSB 101700Z 1018/1118 VRB04KT 9999 OVC010"
    },
    {
      "icao": "LRSM",
      "alert": "OK",
      "vis_m": 9999,
      "fzfg": false,
      "metar_trigger": false,
      "taf_trigger": false,
      "metar": "METAR LRSM 102030Z AUTO 33009KT 290V010 9999 BKN045/// OVC055/// M07/M11 Q1005",
      "taf": ""
    },
    {
      "icao": "LRSV",
      "alert": "OK",
      "vis_m": 8000,
      "fzfg": false,
      "metar_trigger": false,
      "taf_trigger": false,
      "metar": "METAR LRSV 102030Z 34011KT 8000 SCT010 BKN024 M09/M12 Q1003",
      "taf": "TAF LRSV 102000Z 1021/1106 34010KT CAVOK"
    },
    {
      "icao": "LRTM",
      "alert": "OK",
      "vis_m": 9999,
      "fzfg": false,
      "metar_trigger": false,
      "taf_trigger": false,
      "metar": "METAR LRTM 102030Z AUTO 23006KT 9999 BKN019/// OVC025/// M03/M04 Q1002",
      "taf": "TAF LRTM 101400Z 1015/1024 VRB04KT 9999 SCT020 BKN030"
    },
    {
      "icao": "LRTR",
      "alert": "OK",
      "vis_m": 3000,
      "fzfg": false,
      "metar_trigger": false,
      "taf_trigger": false,
      "metar": "METAR LRTR 102030Z 34005KT 3000 BR FEW008 OVC020 M03/M03 Q1004",
      "taf": "TAF LRTR 101700Z 1018/1118 35010KT 7000 OVC015"
    },
    {
      "icao": "LTAC",
      "alert": "OK",
      "vis_m": 6000,
      "fzfg": false,
      "metar_trigger": false,
      "taf_trigger": false,
      "metar": "METAR LTAC 102020Z 04006KT 010V080 6000 FEW010 BKN040 BKN090 03/01 Q1006 NOSIG RMK RWY21C VRB02KT RWY03L VRB04KT RWY21R VRB01KT RWY03R 05004KT 360V100 RWY21L VRB04KT",
      "taf": "TAF LTAC 101640Z 1018/1118 20009KT 7000 SCT040 BKN100"
    },
    {
      "icao": "LTFM",
      "alert": "OK",
      "vis_m": 8000,
      "fzfg": false,
      "metar_trigger": false,
      "taf_trigger": false,
      "metar": "METAR LTFM 102020Z 24020KT 8000 3800N -SHRA FEW020CB BKN030 BKN080 11/09 Q0996 RETSRA NOSIG RMK RWY17L 24023G34KT RWY34L 23018KT RWY16R 24020KT RWY36 24018KT RWY18 25024KT",
      "taf": "TAF LTFM 101640Z 1018/1124 21023G35KT 9999 -SHRA SCT040 BKN090"
    },
    {
      "icao": "LUKK",
      "alert": "OK",
      "vis_m": 9999,
      "fzfg": false,
      "metar_trigger": false,
      "taf_trigger": false,
      "metar": "METAR LUKK 102030Z 01013KT CAVOK M07/M09 Q1002 NOSIG",
      "taf": "TAF LUKK 101727Z 1018/1118 VRB05KT 9999 SCT030"
    },
    {
      "icao": "LWOH",
      "alert": "OK",
      "vis_m": 6000,
      "fzfg": false,
      "metar_trigger": false,
      "taf_trigger": false,
      "metar": "METAR LWOH 101950Z 16011KT 6000 RA SCT015 OVC025 03/02 Q0998",
      "taf": "TAF LWOH 101735Z 1018/1118 17010KT 9999 -RA SCT020 OVC035"
    },
    {
      "icao": "LWSK",
      "alert": "OK",
      "vis_m": 200,
      "fzfg": false,
      "metar_trigger": false,
      "taf_trigger": false,
      "metar": "METAR LWSK 102020Z VRB02KT 0200 R34/0550N FG VV002 00/M00 Q0999 NOSIG",
      "taf": "TAF LWSK 101735Z 1018/1118 VRB02KT 1500 BR BKN005 OVC015"
    },
    {
      "icao": "LYBE",
      "alert": "OK",
      "vis_m": 5000,
      "fzfg": false,
      "metar_trigger": false,
      "taf_trigger": false,
      "metar": "METAR LYBE 102030Z 31007KT 5000 BR OVC010 M02/M03 Q1005 NOSIG",
      "taf": "TAF LYBE 101700Z 1018/1118 36008KT 4000 BR BKN002 BKN022 TXM01/1018Z TNM05/1106Z"
    },
    {
      "icao": "LYNI",
      "alert": "OK",
      "vis_m": 2500,
      "fzfg": false,
      "metar_trigger": false,
      "taf_trigger": false,
      "metar": "METAR LYNI 102030Z 32011KT 290V350 2500 SN SCT004 BKN008 OVC025 00/00 Q1001 TEMPO BKN004",
      "taf": "TAF LYNI 101700Z 1018/1118 35012KT 8000 SCT015 BKN030 TXM00/1018Z TNM07/1118Z"
    },
    {
      "icao": "LYPG",
      "alert": "OK",
      "vis_m": 9999,
      "fzfg": false,
      "metar_trigger": false,
      "taf_trigger": false,
      "metar": "METAR LYPG 102030Z 05004KT 9999 -RA FEW026 SCT040 OVC070 06/03 Q0998 NOSIG",
      "taf": "TAF LYPG 101700Z 1018/1118 36012KT 9999 SCT040 SCT070 TX08/1021Z TN04/1105Z"
    },
    {
      "icao": "LZIB",
      "alert": "OK",
      "vis_m": 9999,
      "fzfg": false,
      "metar_trigger": false,
      "taf_trigger": false,
      "metar": "METAR LZIB 102030Z 36012KT CAVOK M06/M12 Q1011 NOSIG",
      "taf": "TAF LZIB 101715Z 1018/1118 32013KT 9999 BKN040"
    },
    {
      "icao": "LZKZ",
      "alert": "OK",
      "vis_m": 9999,
      "fzfg": false,
      "metar_trigger": false,
      "taf_trigger": false,
      "metar": "METAR LZKZ 102030Z 03010KT CAVOK M10/M14 Q1006 NOSIG",
      "taf": "TAF LZKZ 101715Z 1018/1118 02013KT 9999 BKN035"
    },
    {
      "icao": "LZTT",
      "alert": "OK",
      "vis_m": 9999,
      "fzfg": false,
      "metar_trigger": false,
      "taf_trigger": false,
      "metar": "METAR LZTT 102030Z 26004KT 9999 SCT030 M13/M16 Q1003",
      "taf": "TAF LZTT 101715Z 1018/1118 10006KT 9999 SCT010 BKN025"
    },
    {
      "icao": "OEJN",
      "alert": "OK",
      "vis_m": 9999,
      "fzfg": false,
      "metar_trigger": false,
      "taf_trigger": false,
      "metar": "METAR OEJN 102000Z 35004KT CAVOK 24/17 Q1015 NOSIG",
      "taf": "TAF OEJN 101700Z 1018/1124 36005KT 7000 NSC"
    },
    {
      "icao": "OEMA",
      "alert": "OK",
      "vis_m": 9999,
      "fzfg": false,
      "metar_trigger": false,
      "taf_trigger": false,
      "metar": "METAR OEMA 102000Z 07009KT CAVOK 20/00 Q1021 NOSIG",
      "taf": "TAF OEMA 101700Z 1018/1124 08008KT CAVOK"
    },
    {
      "icao": "OJAI",
      "alert": "OK",
      "vis_m": 5000,
      "fzfg": false,
      "metar_trigger": false,
      "taf_trigger": false,
      "metar": "METAR OJAI 102000Z 12004KT 5000 BR NSC 07/07 Q1022 NOSIG",
      "taf": "TAF OJAI 101700Z 1018/1124 14006KT 5000 BR NSC"
    },
    {
      "icao": "OMAA",
      "alert": "OK",
      "vis_m": 9999,
      "fzfg": false,
      "metar_trigger": false,
      "taf_trigger": false,
      "metar": "METAR OMAA 102000Z 09006KT 070V130 CAVOK 19/10 Q1019 NOSIG",
      "taf": "TAF OMAA 101700Z 1018/1200 06005KT 8000 NSC"
    },
    {
      "icao": "OMDB",
      "alert": "OK",
      "vis_m": 9999,
      "fzfg": false,
      "metar_trigger": false,
      "taf_trigger": false,
      "metar": "METAR OMDB 102030Z 12004KT 090V160 CAVOK 21/12 Q1020 NOSIG",
      "taf": "TAF OMDB 101700Z 1018/1200 33010KT 8000 NSC"
    },
    {
      "icao": "UAAA",
      "alert": "OK",
      "vis_m": 1400,
      "fzfg": true,
      "metar_trigger": false,
      "taf_trigger": false,
      "metar": "METAR UAAA 102030Z VRB01MPS 1400 R23L/P2000D BR FEW100 M05/M07 Q1017 NOSIG",
      "taf": "TAF UAAA 101700Z 1018/1118 24003MPS 0800 FZFG SCT011 BKN100 TX05/1109Z TNM07/1101Z"
    },
    {
      "icao": "UBBB",
      "alert": "OK",
      "vis_m": 9999,
      "fzfg": false,
      "metar_trigger": false,
      "taf_trigger": false,
      "metar": "METAR UBBB 102030Z 31006KT 9999 OVC029 06/05 Q1017 NOSIG",
      "taf": "TAF UBBB 101659Z 1018/1118 33010KT 8000 BKN007 BKN025 TX12/1110Z TN04/1102Z"
    },
    {
      "icao": "UDSG",
      "alert": "OK",
      "vis_m": 9999,
      "fzfg": false,
      "metar_trigger": false,
      "taf_trigger": false,
      "metar": "METAR UDSG 102030Z 04004KT 9999 FEW049 M16/M18 Q1018 NOSIG",
      "taf": "TAF UDSG 101658Z 1018/1118 VRB06KT 9999 FEW040"
    },
    {
      "icao": "UDYZ",
      "alert": "OK",
      "vis_m": 4300,
      "fzfg": true,
      "metar_trigger": false,
      "taf_trigger": false,
      "metar": "METAR UDYZ 102030Z VRB01KT 4300 BR FEW046 M04/M06 Q1019 NOSIG",
      "taf": "TAF UDYZ 101700Z 1018/1118 VRB04KT 0800 FZFG FEW020"
    },
    {
      "icao": "UGKO",
      "alert": "OK",
      "vis_m": 9999,
      "fzfg": false,
      "metar_trigger": false,
      "taf_trigger": false,
      "metar": "METAR UGKO 102030Z 08012KT CAVOK 03/M00 Q1013 NOSIG",
      "taf": "TAF UGKO 101700Z 1018/1118 08017G27KT CAVOK TX15/1111Z TN03/1022Z"
    }
  ]
}