{
  "ts_utc": "2026-05-02T15:30:49Z",
  "threshold_m": 150,
  "source": "stations_override.txt (ICAO list) + aviationweather.gov (METAR/TAF raw)",
  "station_count": 159,
  "stations": [
    {
      "icao": "BIKF",
      "alert": "OK",
      "vis_m": 9999,
      "fzfg": false,
      "metar_trigger": false,
      "taf_trigger": false,
      "metar": "METAR BIKF 021500Z 24020KT 9999 BKN040 08/00 Q1016",
      "taf": "TAF BIKF 021351Z 0215/0315 25020KT 9999 SCT018 BKN028 TX08/0315Z TN03/0302Z"
    },
    {
      "icao": "BKPR",
      "alert": "OK",
      "vis_m": 9999,
      "fzfg": false,
      "metar_trigger": false,
      "taf_trigger": false,
      "metar": "METAR BKPR 021530Z 02009KT 9999 FEW035 BKN070 14/M00 Q1019 NOSIG",
      "taf": "TAF BKPR 021130Z 0212/0312 01008KT 9999 FEW050"
    },
    {
      "icao": "EBCI",
      "alert": "OK",
      "vis_m": 9999,
      "fzfg": false,
      "metar_trigger": false,
      "taf_trigger": false,
      "metar": "METAR EBCI 021520Z 20009KT 9999 SCT048 23/11 Q1015 TEMPO 20015G25KT 4000 SHRA",
      "taf": "TAF EBCI 021110Z 0212/0318 22005KT 9999 SCT035"
    },
    {
      "icao": "EDDB",
      "alert": "OK",
      "vis_m": 9999,
      "fzfg": false,
      "metar_trigger": false,
      "taf_trigger": false,
      "metar": "METAR EDDB 021520Z AUTO 20008KT CAVOK 26/04 Q1017 NOSIG",
      "taf": "TAF EDDB 021100Z 0212/0312 19010KT CAVOK"
    },
    {
      "icao": "EDDH",
      "alert": "OK",
      "vis_m": 9999,
      "fzfg": false,
      "metar_trigger": false,
      "taf_trigger": false,
      "metar": "METAR EDDH 021520Z AUTO 23011KT CAVOK 26/08 Q1014 NOSIG",
      "taf": "TAF EDDH 021100Z 0212/0318 23010KT CAVOK"
    },
    {
      "icao": "EDDK",
      "alert": "OK",
      "vis_m": 9999,
      "fzfg": false,
      "metar_trigger": false,
      "taf_trigger": false,
      "metar": "METAR EDDK 021520Z AUTO 33005KT 290V050 9999 SHRA FEW///CB 21/15 Q1016 TEMPO 4000 TSRA",
      "taf": ""
    },
    {
      "icao": "EDDN",
      "alert": "OK",
      "vis_m": 9999,
      "fzfg": false,
      "metar_trigger": false,
      "taf_trigger": false,
      "metar": "METAR EDDN 021520Z AUTO 18006KT 140V260 CAVOK 26/02 Q1018 NOSIG",
      "taf": "TAF EDDN 021100Z 0212/0312 15008KT CAVOK"
    },
    {
      "icao": "EDDS",
      "alert": "OK",
      "vis_m": 9999,
      "fzfg": false,
      "metar_trigger": false,
      "taf_trigger": false,
      "metar": "METAR EDDS 021520Z AUTO 34003KT 270V040 CAVOK 25/03 Q1017 NOSIG",
      "taf": "TAF EDDS 021100Z 0212/0312 VRB03KT CAVOK"
    },
    {
      "icao": "EDFH",
      "alert": "OK",
      "vis_m": 9999,
      "fzfg": false,
      "metar_trigger": false,
      "taf_trigger": false,
      "metar": "METAR EDFH 021520Z 19012KT CAVOK 22/10 Q1017",
      "taf": "TAF EDFH 021100Z 0212/0312 18009KT CAVOK"
    },
    {
      "icao": "EDJA",
      "alert": "OK",
      "vis_m": 9999,
      "fzfg": false,
      "metar_trigger": false,
      "taf_trigger": false,
      "metar": "METAR EDJA 021520Z 23005KT 190V280 CAVOK 24/04 Q1019",
      "taf": "TAF EDJA 021400Z 0215/0224 25005KT CAVOK"
    },
    {
      "icao": "EDLW",
      "alert": "OK",
      "vis_m": 9999,
      "fzfg": false,
      "metar_trigger": false,
      "taf_trigger": false,
      "metar": "METAR EDLW 021520Z COR 22004KT 9999 -SHRA FEW037CB 20/12 Q1016",
      "taf": "TAF EDLW 021100Z 0212/0312 22009KT CAVOK"
    },
    {
      "icao": "EDNY",
      "alert": "OK",
      "vis_m": 9999,
      "fzfg": false,
      "metar_trigger": false,
      "taf_trigger": false,
      "metar": "METAR EDNY 021520Z 23005KT 190V260 CAVOK 24/07 Q1018",
      "taf": "TAF EDNY 021400Z 0215/0224 23005KT CAVOK"
    },
    {
      "icao": "EDSB",
      "alert": "OK",
      "vis_m": 9999,
      "fzfg": false,
      "metar_trigger": false,
      "taf_trigger": false,
      "metar": "METAR EDSB 021520Z VRB04KT CAVOK 27/09 Q1016",
      "taf": "TAF EDSB 021100Z 0212/0312 23005KT CAVOK"
    },
    {
      "icao": "EETN",
      "alert": "OK",
      "vis_m": 9999,
      "fzfg": false,
      "metar_trigger": false,
      "taf_trigger": false,
      "metar": "METAR EETN 021520Z 26019KT CAVOK 17/04 Q1011 NOSIG",
      "taf": "TAF EETN 021130Z 0212/0312 26015KT CAVOK"
    },
    {
      "icao": "EFTU",
      "alert": "OK",
      "vis_m": 9999,
      "fzfg": false,
      "metar_trigger": false,
      "taf_trigger": false,
      "metar": "METAR EFTU 021520Z AUTO 22010KT CAVOK 18/03 Q1008",
      "taf": "TAF EFTU 021428Z 0215/0315 26010KT CAVOK"
    },
    {
      "icao": "EGBB",
      "alert": "OK",
      "vis_m": 9999,
      "fzfg": false,
      "metar_trigger": false,
      "taf_trigger": false,
      "metar": "METAR EGBB 021520Z VRB02KT CAVOK 17/08 Q1013",
      "taf": "TAF EGBB 021104Z 0212/0312 21006KT 9999 SCT035"
    },
    {
      "icao": "EGGP",
      "alert": "OK",
      "vis_m": 9999,
      "fzfg": false,
      "metar_trigger": false,
      "taf_trigger": false,
      "metar": "METAR EGGP 021520Z 14003KT 100V220 9999 FEW041 16/06 Q1013",
      "taf": "TAF EGGP 021100Z 0212/0312 VRB03KT 9999 SCT035"
    },
    {
      "icao": "EGGW",
      "alert": "OK",
      "vis_m": 9999,
      "fzfg": false,
      "metar_trigger": false,
      "taf_trigger": false,
      "metar": "METAR EGGW 021520Z AUTO 14004KT 090V210 9999 NCD 20/08 Q1013",
      "taf": "TAF EGGW 021103Z 0212/0312 20004KT 9999 FEW045"
    },
    {
      "icao": "EGKK",
      "alert": "OK",
      "vis_m": 9999,
      "fzfg": false,
      "metar_trigger": false,
      "taf_trigger": false,
      "metar": "METAR EGKK 021520Z 14009KT 9999 FEW044 20/09 Q1013",
      "taf": "TAF EGKK 021058Z 0212/0318 20004KT 9999 FEW045"
    },
    {
      "icao": "EGNM",
      "alert": "OK",
      "vis_m": 9999,
      "fzfg": false,
      "metar_trigger": false,
      "taf_trigger": false,
      "metar": "METAR EGNM 021520Z 34005KT 290V020 9999 SCT034 15/07 Q1014",
      "taf": ""
    },
    {
      "icao": "EGPD",
      "alert": "OK",
      "vis_m": 9999,
      "fzfg": false,
      "metar_trigger": false,
      "taf_trigger": false,
      "metar": "METAR EGPD 021520Z AUTO 02009KT 9999 BKN017 12/08 Q1014 BECMG BKN014",
      "taf": "TAF EGPD 021054Z 0212/0312 34008KT 9999 SCT040"
    },
    {
      "icao": "EGPF",
      "alert": "OK",
      "vis_m": 9999,
      "fzfg": false,
      "metar_trigger": false,
      "taf_trigger": false,
      "metar": "METAR EGPF 021520Z 33003KT 270V030 9999 BKN025CB 14/10 Q1013",
      "taf": "TAF EGPF 021104Z 0212/0312 24004KT 9999 BKN030"
    },
    {
      "icao": "EHBK",
      "alert": "OK",
      "vis_m": 9999,
      "fzfg": false,
      "metar_trigger": false,
      "taf_trigger": false,
      "metar": "METAR EHBK 021525Z AUTO 25003KT 200V320 9999 -RA OVC048/// 24/14 Q1015 TEMPO 3000 TSRA FEW050CB",
      "taf": "TAF EHBK 021120Z 0212/0318 21010KT 9999 FEW030"
    },
    {
      "icao": "EHEH",
      "alert": "OK",
      "vis_m": 9999,
      "fzfg": false,
      "metar_trigger": false,
      "taf_trigger": false,
      "metar": "METAR EHEH 021455Z AUTO 18004KT 110V280 9999 SCT049 SCT057 BKN330 24/12 Q1015 BLU NOSIG RMK TREND REMOTE BY EHWX",
      "taf": ""
    },
    {
      "icao": "EKBI",
      "alert": "OK",
      "vis_m": 9999,
      "fzfg": false,
      "metar_trigger": false,
      "taf_trigger": false,
      "metar": "METAR EKBI 021520Z AUTO 23013KT 190V250 9999 SCT130/// 20/03 Q1014",
      "taf": "TAF EKBI 021427Z 0215/0315 19011KT CAVOK"
    },
    {
      "icao": "EKCH",
      "alert": "OK",
      "vis_m": 9999,
      "fzfg": false,
      "metar_trigger": false,
      "taf_trigger": false,
      "metar": "METAR EKCH 021520Z AUTO 19015KT 9999 NCD 20/06 Q1015 NOSIG",
      "taf": "TAF EKCH 021427Z 0215/0315 19012KT CAVOK"
    },
    {
      "icao": "ENAL",
      "alert": "OK",
      "vis_m": 9999,
      "fzfg": false,
      "metar_trigger": false,
      "taf_trigger": false,
      "metar": "METAR ENAL 021520Z 14003KT 9999 SCT021 BKN044 06/00 Q1015",
      "taf": "TAF ENAL 021400Z 0215/0224 34008KT 9999 -RA SCT020 BKN030"
    },
    {
      "icao": "ENBR",
      "alert": "OK",
      "vis_m": 9999,
      "fzfg": false,
      "metar_trigger": false,
      "taf_trigger": false,
      "metar": "METAR ENBR 021520Z VRB02KT 9999 BKN030 09/05 Q1013 BECMG 34010KT RMK WIND 1200FT 26003KT",
      "taf": ""
    },
    {
      "icao": "ENGM",
      "alert": "OK",
      "vis_m": 9999,
      "fzfg": false,
      "metar_trigger": false,
      "taf_trigger": false,
      "metar": "METAR ENGM 021520Z VRB02KT 9999 -RA NSC 12/01 Q1009 NOSIG",
      "taf": "TAF ENGM 021100Z 0212/0312 21008KT CAVOK"
    },
    {
      "icao": "ENHD",
      "alert": "OK",
      "vis_m": 9999,
      "fzfg": false,
      "metar_trigger": false,
      "taf_trigger": false,
      "metar": "METAR ENHD 021520Z 36004KT 320V030 9999 BKN030 09/07 Q1012",
      "taf": "TAF ENHD 021400Z 0215/0222 34008KT 9999 -RA FEW020 BKN035"
    },
    {
      "icao": "ENTC",
      "alert": "OK",
      "vis_m": 9999,
      "fzfg": false,
      "metar_trigger": false,
      "taf_trigger": false,
      "metar": "METAR ENTC 021520Z 27018G29KT 9999 -SHRASN FEW018CB SCT029 BKN043 02/M03 Q1000 TEMPO 26015KT 4000 SHSNRAGS BKN012 RMK WIND 2600FT 29027G43KT",
      "taf": ""
    },
    {
      "icao": "ENTO",
      "alert": "OK",
      "vis_m": 9999,
      "fzfg": false,
      "metar_trigger": false,
      "taf_trigger": false,
      "metar": "METAR ENTO 021450Z 19010KT CAVOK 15/07 Q1010 NOSIG",
      "taf": ""
    },
    {
      "icao": "ENVA",
      "alert": "OK",
      "vis_m": 9999,
      "fzfg": false,
      "metar_trigger": false,
      "taf_trigger": false,
      "metar": "METAR ENVA 021520Z 28014KT 9999 -SHRA SCT022 BKN031 05/01 Q1013 RMK WIND 670FT 27011KT",
      "taf": "TAF ENVA 021100Z 0212/0312 27012KT 9999 FEW015 BKN030"
    },
    {
      "icao": "ENZV",
      "alert": "OK",
      "vis_m": 9999,
      "fzfg": false,
      "metar_trigger": false,
      "taf_trigger": false,
      "metar": "METAR ENZV 021520Z 36008KT CAVOK 12/06 Q1011 NOSIG",
      "taf": "TAF ENZV 021100Z 0212/0312 34008KT 9999 FEW015 SCT025"
    },
    {
      "icao": "EPGD",
      "alert": "OK",
      "vis_m": 9999,
      "fzfg": false,
      "metar_trigger": false,
      "taf_trigger": false,
      "metar": "METAR EPGD 021500Z 05011KT CAVOK 20/01 Q1018",
      "taf": "TAF EPGD 021130Z 0212/0312 26008KT CAVOK"
    },
    {
      "icao": "EPKK",
      "alert": "OK",
      "vis_m": 9999,
      "fzfg": false,
      "metar_trigger": false,
      "taf_trigger": false,
      "metar": "METAR EPKK 021500Z 08007KT CAVOK 20/02 Q1022",
      "taf": "TAF EPKK 021430Z 0215/0315 07007KT CAVOK"
    },
    {
      "icao": "EPKT",
      "alert": "OK",
      "vis_m": 9999,
      "fzfg": false,
      "metar_trigger": false,
      "taf_trigger": false,
      "metar": "METAR EPKT 021500Z 06006KT 010V080 CAVOK 22/02 Q1021",
      "taf": "TAF EPKT 021130Z 0212/0312 07008KT CAVOK"
    },
    {
      "icao": "EPLB",
      "alert": "OK",
      "vis_m": 9999,
      "fzfg": false,
      "metar_trigger": false,
      "taf_trigger": false,
      "metar": "METAR EPLB 021500Z 17003KT 140V230 CAVOK 21/06 Q1021",
      "taf": "TAF EPLB 021130Z 0212/0312 VRB05KT CAVOK"
    },
    {
      "icao": "EPMO",
      "alert": "OK",
      "vis_m": 9999,
      "fzfg": false,
      "metar_trigger": false,
      "taf_trigger": false,
      "metar": "METAR EPMO 021500Z 29004KT 230V340 CAVOK 25/00 Q1020",
      "taf": "TAF EPMO 021130Z 0212/0312 28010KT CAVOK"
    },
    {
      "icao": "EPPO",
      "alert": "OK",
      "vis_m": 9999,
      "fzfg": false,
      "metar_trigger": false,
      "taf_trigger": false,
      "metar": "METAR EPPO 021500Z 24006KT 190V260 CAVOK 25/04 Q1020",
      "taf": "TAF EPPO 021130Z 0212/0312 18010KT CAVOK"
    },
    {
      "icao": "EPRA",
      "alert": "OK",
      "vis_m": 9999,
      "fzfg": false,
      "metar_trigger": false,
      "taf_trigger": false,
      "metar": "METAR EPRA 021500Z 28004KT 240V340 CAVOK 23/01 Q1021",
      "taf": "TAF EPRA 021430Z 0215/0224 VRB03KT CAVOK"
    },
    {
      "icao": "EPRZ",
      "alert": "OK",
      "vis_m": 9999,
      "fzfg": false,
      "metar_trigger": false,
      "taf_trigger": false,
      "metar": "METAR EPRZ 021500Z VRB02KT CAVOK 20/03 Q1022",
      "taf": "TAF EPRZ 021130Z 0212/0312 10007KT CAVOK"
    },
    {
      "icao": "EPSC",
      "alert": "OK",
      "vis_m": 9999,
      "fzfg": false,
      "metar_trigger": false,
      "taf_trigger": false,
      "metar": "METAR EPSC 021500Z 17008KT 140V210 CAVOK 26/04 Q1017",
      "taf": "TAF EPSC 021130Z 0212/0312 22010KT CAVOK"
    },
    {
      "icao": "EPSY",
      "alert": "OK",
      "vis_m": 9999,
      "fzfg": false,
      "metar_trigger": false,
      "taf_trigger": false,
      "metar": "METAR EPSY 021500Z VRB03KT CAVOK 25/M02 Q1019",
      "taf": "TAF EPSY 021430Z 0215/0224 VRB02KT CAVOK"
    },
    {
      "icao": "EPWA",
      "alert": "OK",
      "vis_m": 9999,
      "fzfg": false,
      "metar_trigger": false,
      "taf_trigger": false,
      "metar": "METAR EPWA 021500Z 25004KT 130V300 CAVOK 24/01 Q1020 NOSIG",
      "taf": "TAF EPWA 021430Z 0215/0315 27010KT CAVOK"
    },
    {
      "icao": "EPWR",
      "alert": "OK",
      "vis_m": 9999,
      "fzfg": false,
      "metar_trigger": false,
      "taf_trigger": false,
      "metar": "METAR EPWR 021500Z 15007KT 120V180 CAVOK 24/M00 Q1020",
      "taf": "TAF EPWR 021430Z 0215/0315 16006KT CAVOK"
    },
    {
      "icao": "ESGG",
      "alert": "OK",
      "vis_m": 9999,
      "fzfg": false,
      "metar_trigger": false,
      "taf_trigger": false,
      "metar": "METAR ESGG 021520Z 20015KT 9999 FEW061 19/07 Q1012",
      "taf": "TAF ESGG 021430Z 0215/0315 22014KT CAVOK"
    },
    {
      "icao": "ESKN",
      "alert": "OK",
      "vis_m": 9999,
      "fzfg": false,
      "metar_trigger": false,
      "taf_trigger": false,
      "metar": "METAR ESKN 021520Z 24019KT CAVOK 24/03 Q1010",
      "taf": "TAF ESKN 021430Z 0215/0315 26018G28KT CAVOK"
    },
    {
      "icao": "ESMS",
      "alert": "OK",
      "vis_m": 9999,
      "fzfg": false,
      "metar_trigger": false,
      "taf_trigger": false,
      "metar": "METAR ESMS 021520Z 21015KT CAVOK 23/05 Q1015",
      "taf": "TAF ESMS 021427Z 0215/0315 21012KT CAVOK"
    },
    {
      "icao": "ESSA",
      "alert": "OK",
      "vis_m": 9999,
      "fzfg": false,
      "metar_trigger": false,
      "taf_trigger": false,
      "metar": "METAR ESSA 021520Z 26018KT CAVOK 22/03 Q1008 NOSIG",
      "taf": "TAF ESSA 021430Z 0215/0315 26015G25KT CAVOK"
    },
    {
      "icao": "EYKA",
      "alert": "OK",
      "vis_m": 9999,
      "fzfg": false,
      "metar_trigger": false,
      "taf_trigger": false,
      "metar": "METAR EYKA 021520Z 29010KT CAVOK 23/02 Q1017",
      "taf": "TAF EYKA 021100Z 0212/0312 VRB03KT CAVOK"
    },
    {
      "icao": "EYPA",
      "alert": "OK",
      "vis_m": 9999,
      "fzfg": false,
      "metar_trigger": false,
      "taf_trigger": false,
      "metar": "METAR EYPA 021520Z VRB04KT CAVOK 14/03 Q1018",
      "taf": "TAF EYPA 021100Z 0212/0312 VRB03KT CAVOK"
    },
    {
      "icao": "EYVI",
      "alert": "OK",
      "vis_m": 9999,
      "fzfg": false,
      "metar_trigger": false,
      "taf_trigger": false,
      "metar": "METAR EYVI 021520Z 28011KT 260V320 CAVOK 23/01 Q1017 NOSIG",
      "taf": "TAF EYVI 021100Z 0212/0312 29011KT CAVOK"
    },
    {
      "icao": "GCFV",
      "alert": "OK",
      "vis_m": 9999,
      "fzfg": false,
      "metar_trigger": false,
      "taf_trigger": false,
      "metar": "METAR GCFV 021500Z 04008KT 020V080 9999 FEW030 21/16 Q1018",
      "taf": "TAF GCFV 021400Z 0215/0315 05010KT 9999 FEW030 TX22/0314Z TN17/0306Z"
    },
    {
      "icao": "GCLP",
      "alert": "OK",
      "vis_m": 9999,
      "fzfg": false,
      "metar_trigger": false,
      "taf_trigger": false,
      "metar": "METAR GCLP 021500Z 03012KT 360V060 9999 FEW030 23/16 Q1018 NOSIG",
      "taf": "TAF GCLP 021400Z 0215/0315 03014KT 9999 FEW030 TX23/0314Z TN18/0306Z"
    },
    {
      "icao": "GCTS",
      "alert": "OK",
      "vis_m": 9999,
      "fzfg": false,
      "metar_trigger": false,
      "taf_trigger": false,
      "metar": "METAR GCTS 021500Z 11012KT 9999 FEW025 SCT030 22/15 Q1019 NOSIG",
      "taf": "TAF GCTS 021400Z 0215/0315 10015KT 9999 SCT030 TX24/0314Z TN17/0306Z"
    },
    {
      "icao": "GMAD",
      "alert": "OK",
      "vis_m": 9999,
      "fzfg": false,
      "metar_trigger": false,
      "taf_trigger": false,
      "metar": "METAR GMAD 021500Z 24012KT 200V270 CAVOK 25/13 Q1013 NOSIG",
      "taf": "TAF GMAD 021100Z 0212/0318 26014KT 9999 SCT026"
    },
    {
      "icao": "GMMN",
      "alert": "OK",
      "vis_m": 9999,
      "fzfg": false,
      "metar_trigger": false,
      "taf_trigger": false,
      "metar": "METAR GMMN 021500Z 35011KT 310V050 CAVOK 23/15 Q1016 NOSIG",
      "taf": "TAF GMMN 021100Z 0212/0318 02006KT 9999 BKN022"
    },
    {
      "icao": "GMMX",
      "alert": "OK",
      "vis_m": 9999,
      "fzfg": false,
      "metar_trigger": false,
      "taf_trigger": false,
      "metar": "METAR GMMX 021500Z VRB03KT 9999 SCT026 SCT200 26/13 Q1015 NOSIG",
      "taf": "TAF GMMX 021100Z 0212/0318 34006KT 8000 SCT026"
    },
    {
      "icao": "HEGN",
      "alert": "OK",
      "vis_m": null,
      "fzfg": false,
      "metar_trigger": false,
      "taf_trigger": false,
      "metar": "",
      "taf": "TAF HEGN 021100Z 0212/0318 10015KT CAVOK"
    },
    {
      "icao": "HEMA",
      "alert": "OK",
      "vis_m": null,
      "fzfg": false,
      "metar_trigger": false,
      "taf_trigger": false,
      "metar": "",
      "taf": "TAF HEMA 021100Z 0212/0318 11015KT CAVOK"
    },
    {
      "icao": "HESH",
      "alert": "OK",
      "vis_m": null,
      "fzfg": false,
      "metar_trigger": false,
      "taf_trigger": false,
      "metar": "",
      "taf": "TAF HESH 021100Z 0212/0318 17011KT CAVOK"
    },
    {
      "icao": "HESX",
      "alert": "OK",
      "vis_m": null,
      "fzfg": false,
      "metar_trigger": false,
      "taf_trigger": false,
      "metar": "",
      "taf": "TAF HESX 021100Z 0212/0318 02010KT CAVOK"
    },
    {
      "icao": "LATI",
      "alert": "OK",
      "vis_m": 9999,
      "fzfg": false,
      "metar_trigger": false,
      "taf_trigger": false,
      "metar": "METAR LATI 021520Z 33015KT 9999 SCT110 19/03 Q1018 NOSIG",
      "taf": "TAF LATI 021100Z 0212/0312 34014KT 9999 BKN090 TX23/0312Z TN05/0304Z"
    },
    {
      "icao": "LBPD",
      "alert": "OK",
      "vis_m": 9999,
      "fzfg": false,
      "metar_trigger": false,
      "taf_trigger": false,
      "metar": "METAR LBPD 021500Z AUTO 09007KT 040V120 9999 BKN067/// 13/02 Q1019 NOSIG",
      "taf": "TAF LBPD 021100Z 0212/0312 VRB04KT 9999 BKN060"
    },
    {
      "icao": "LBSF",
      "alert": "OK",
      "vis_m": 9999,
      "fzfg": false,
      "metar_trigger": false,
      "taf_trigger": false,
      "metar": "METAR LBSF 021500Z AUTO 21006KT 180V250 9999 SCT070/// BKN079/// 11/02 Q1019 NOSIG",
      "taf": "TAF LBSF 021100Z 0212/0312 02010KT 9999 FEW030 BKN050"
    },
    {
      "icao": "LBWN",
      "alert": "OK",
      "vis_m": 9999,
      "fzfg": false,
      "metar_trigger": false,
      "taf_trigger": false,
      "metar": "METAR LBWN 021500Z 03010G22KT 340V070 9999 -SHRA FEW030TCU SCT037 10/01 Q1021 TEMPO 5000 SHRA",
      "taf": "TAF LBWN 021100Z 0212/0312 07012KT 9999 SCT045"
    },
    {
      "icao": "LCLK",
      "alert": "OK",
      "vis_m": 9999,
      "fzfg": false,
      "metar_trigger": false,
      "taf_trigger": false,
      "metar": "METAR LCLK 021500Z 23007KT 9999 FEW030 21/18 Q1010 NOSIG",
      "taf": "TAF LCLK 021130Z 0212/0312 22016KT 9999 FEW020"
    },
    {
      "icao": "LCPH",
      "alert": "OK",
      "vis_m": 9999,
      "fzfg": false,
      "metar_trigger": false,
      "taf_trigger": false,
      "metar": "METAR LCPH 021500Z 30004KT 250V320 9999 -SHRA FEW020 20/16 Q1010 NOSIG",
      "taf": "TAF LCPH 021130Z 0212/0312 17010KT 9999 FEW020"
    },
    {
      "icao": "LEAL",
      "alert": "OK",
      "vis_m": 9999,
      "fzfg": false,
      "metar_trigger": false,
      "taf_trigger": false,
      "metar": "METAR LEAL 021500Z 08007KT 030V110 9999 SCT012 BKN050 21/16 Q1018 NOSIG",
      "taf": "TAF LEAL 021100Z 0212/0312 08010KT 9999 SCT025 SCT030 TX22/0213Z TN15/0306Z"
    },
    {
      "icao": "LEBB",
      "alert": "OK",
      "vis_m": 4000,
      "fzfg": false,
      "metar_trigger": false,
      "taf_trigger": false,
      "metar": "METAR LEBB 021500Z 19003KT 150V220 4000 RA FEW019 SCT048 BKN070 17/15 Q1015 TEMPO TS SCT045CB",
      "taf": "TAF LEBB 021100Z 0212/0312 14009KT 9999 SCT045 TX21/0215Z TN11/0304Z"
    },
    {
      "icao": "LEBL",
      "alert": "OK",
      "vis_m": 9000,
      "fzfg": false,
      "metar_trigger": false,
      "taf_trigger": false,
      "metar": "METAR LEBL 021500Z 09008KT 060V130 9000 FEW015 SCT050 19/15 Q1021 NOSIG",
      "taf": "TAF LEBL 021100Z 0212/0312 07008KT 9999 SCT020 TX21/0212Z TN16/0306Z"
    },
    {
      "icao": "LECH",
      "alert": "OK",
      "vis_m": 8000,
      "fzfg": false,
      "metar_trigger": false,
      "taf_trigger": false,
      "metar": "METAR LECH 021500Z AUTO 13008KT 8000 SCT008 BKN021 OVC026 16/15 Q1020",
      "taf": "TAF LECH 021100Z 0212/0312 13007KT 9999 SCT015 BKN025 TX20/0212Z TN13/0306Z"
    },
    {
      "icao": "LEMD",
      "alert": "OK",
      "vis_m": 9999,
      "fzfg": false,
      "metar_trigger": false,
      "taf_trigger": false,
      "metar": "METAR LEMD 021500Z 22008G18KT 140V290 9999 FEW020 FEW025CB BKN035 21/14 Q1015 NOSIG",
      "taf": ""
    },
    {
      "icao": "LEMG",
      "alert": "OK",
      "vis_m": 9999,
      "fzfg": false,
      "metar_trigger": false,
      "taf_trigger": false,
      "metar": "METAR LEMG 021500Z 13007KT 090V170 9999 FEW025 SCT039 20/15 Q1017 NOSIG",
      "taf": "TAF LEMG 021100Z 0212/0312 14010KT 9999 SCT020 TX22/0214Z TN16/0306Z"
    },
    {
      "icao": "LEVC",
      "alert": "OK",
      "vis_m": 9999,
      "fzfg": false,
      "metar_trigger": false,
      "taf_trigger": false,
      "metar": "METAR LEVC 021500Z 11009KT 070V150 9999 SCT019 BKN030 21/15 Q1018 NOSIG",
      "taf": "TAF LEVC 021100Z 0212/0312 11008KT 9999 SCT020 SCT030 TX21/0213Z TN15/0306Z"
    },
    {
      "icao": "LEXJ",
      "alert": "OK",
      "vis_m": 7000,
      "fzfg": false,
      "metar_trigger": false,
      "taf_trigger": false,
      "metar": "METAR LEXJ 021500Z 30011KT 270V330 7000 -RA SCT025 BKN084 17/15 Q1014",
      "taf": "TAF LEXJ 021400Z 0215/0315 29007KT 9999 SCT010 BKN020 TX19/0312Z TN12/0305Z"
    },
    {
      "icao": "LEZG",
      "alert": "OK",
      "vis_m": 3000,
      "fzfg": false,
      "metar_trigger": false,
      "taf_trigger": false,
      "metar": "METAR LEZG 021500Z 08011KT 050V120 3000 TSRA SCT040CB BKN045 OVC085 18/14 Q1016 NOSIG",
      "taf": ""
    },
    {
      "icao": "LEZL",
      "alert": "OK",
      "vis_m": 9999,
      "fzfg": false,
      "metar_trigger": false,
      "taf_trigger": false,
      "metar": "METAR LEZL 021500Z 31009KT 280V350 9999 FEW035 SCT048 23/15 Q1016 NOSIG",
      "taf": "TAF LEZL 021400Z 0215/0315 29010KT 9999 FEW040 TX27/0315Z TN15/0306Z"
    },
    {
      "icao": "LFBD",
      "alert": "OK",
      "vis_m": 9999,
      "fzfg": false,
      "metar_trigger": false,
      "taf_trigger": false,
      "metar": "METAR LFBD 021500Z AUTO 23007G22KT 180V290 9999 -RA VCTS FEW033/// BKN047/// BKN056/// ///CB 19/15 Q1016 TEMPO 2000 TSRA",
      "taf": "TAF LFBD 021100Z 0212/0318 VRB03KT CAVOK TX21/0215Z TN13/0305Z"
    },
    {
      "icao": "LFLL",
      "alert": "OK",
      "vis_m": 9999,
      "fzfg": false,
      "metar_trigger": false,
      "taf_trigger": false,
      "metar": "METAR LFLL 021500Z 20014KT CAVOK 23/04 Q1019 NOSIG",
      "taf": "TAF LFLL 021100Z 0212/0318 18015G25KT CAVOK"
    },
    {
      "icao": "LFLS",
      "alert": "OK",
      "vis_m": 9999,
      "fzfg": false,
      "metar_trigger": false,
      "taf_trigger": false,
      "metar": "METAR LFLS 021500Z AUTO 22012KT 180V260 CAVOK 23/06 Q1019 NOSIG",
      "taf": "TAF LFLS 021400Z 0215/0315 23010KT CAVOK"
    },
    {
      "icao": "LFMN",
      "alert": "OK",
      "vis_m": 9999,
      "fzfg": false,
      "metar_trigger": false,
      "taf_trigger": false,
      "metar": "METAR LFMN 021500Z 15004KT CAVOK 20/09 Q1023 NOSIG",
      "taf": "TAF LFMN 021400Z 0215/0321 12008KT CAVOK"
    },
    {
      "icao": "LFOB",
      "alert": "OK",
      "vis_m": 9999,
      "fzfg": false,
      "metar_trigger": false,
      "taf_trigger": false,
      "metar": "METAR LFOB 021500Z AUTO 21015KT 180V240 9999 ///CB 23/12 Q1014 BECMG SCT030",
      "taf": "TAF LFOB 021100Z 0212/0312 16010KT 9999 SCT030"
    },
    {
      "icao": "LFPO",
      "alert": "OK",
      "vis_m": 9999,
      "fzfg": false,
      "metar_trigger": false,
      "taf_trigger": false,
      "metar": "METAR LFPO 021500Z 21008KT 170V270 CAVOK 24/11 Q1014 NOSIG",
      "taf": "TAF LFPO 021100Z 0212/0318 19008KT 9999 NSC"
    },
    {
      "icao": "LFSB",
      "alert": "OK",
      "vis_m": 9999,
      "fzfg": false,
      "metar_trigger": false,
      "taf_trigger": false,
      "metar": "METAR LFSB 021500Z AUTO 01005KT 300V050 CAVOK 27/09 Q1017 NOSIG",
      "taf": "TAF LFSB 021100Z 0212/0312 36004KT CAVOK"
    },
    {
      "icao": "LGAV",
      "alert": "OK",
      "vis_m": 9999,
      "fzfg": false,
      "metar_trigger": false,
      "taf_trigger": false,
      "metar": "METAR LGAV 021520Z 01014G24KT 9999 SCT020 14/M01 Q1017 NOSIG",
      "taf": "TAF LGAV 021100Z 0212/0312 03022KT 9999 SCT020 BKN060"
    },
    {
      "icao": "LGTS",
      "alert": "OK",
      "vis_m": 9999,
      "fzfg": false,
      "metar_trigger": false,
      "taf_trigger": false,
      "metar": "METAR LGTS 021520Z 28006KT 9999 -RA FEW016 SCT025 15/03 Q1019 NOSIG",
      "taf": "TAF LGTS 021100Z 0212/0312 VRB03KT 9999 SCT025"
    },
    {
      "icao": "LHBP",
      "alert": "OK",
      "vis_m": 9999,
      "fzfg": false,
      "metar_trigger": false,
      "taf_trigger": false,
      "metar": "METAR LHBP 021500Z 01006KT 340V070 CAVOK 23/02 Q1020 NOSIG",
      "taf": "TAF LHBP 021115Z 0212/0312 04009KT CAVOK"
    },
    {
      "icao": "LHDC",
      "alert": "OK",
      "vis_m": 9999,
      "fzfg": false,
      "metar_trigger": false,
      "taf_trigger": false,
      "metar": "METAR LHDC 021445Z AUTO 05010KT 340V100 CAVOK 20/M00 Q1020 NOSIG",
      "taf": "TAF LHDC 021415Z 0215/0224 06011KT CAVOK"
    },
    {
      "icao": "LIBD",
      "alert": "OK",
      "vis_m": 9999,
      "fzfg": false,
      "metar_trigger": false,
      "taf_trigger": false,
      "metar": "METAR LIBD 021520Z 34007KT 290V020 CAVOK 18/02 Q1021",
      "taf": "TAF LIBD 021100Z 0212/0312 36015KT CAVOK"
    },
    {
      "icao": "LIBG",
      "alert": "OK",
      "vis_m": 9999,
      "fzfg": false,
      "metar_trigger": false,
      "taf_trigger": false,
      "metar": "METAR LIBG 021450Z 35009KT CAVOK 19/00 Q1020",
      "taf": "TAF LIBG 021400Z 0215/0224 03016KT CAVOK"
    },
    {
      "icao": "LIBP",
      "alert": "OK",
      "vis_m": 9999,
      "fzfg": false,
      "metar_trigger": false,
      "taf_trigger": false,
      "metar": "METAR LIBP 021520Z AUTO 05003KT 010V100 9999 NCD 20/03 Q1022",
      "taf": "TAF LIBP 021100Z 0212/0312 03012KT 9999 FEW050"
    },
    {
      "icao": "LIBR",
      "alert": "OK",
      "vis_m": 9999,
      "fzfg": false,
      "metar_trigger": false,
      "taf_trigger": false,
      "metar": "METAR LIBR 021520Z 34013KT CAVOK 18/05 Q1020",
      "taf": "TAF LIBR 021100Z 0212/0312 03018KT CAVOK"
    },
    {
      "icao": "LICA",
      "alert": "OK",
      "vis_m": 9999,
      "fzfg": false,
      "metar_trigger": false,
      "taf_trigger": false,
      "metar": "METAR LICA 021520Z AUTO 31012KT 9999 BKN089/// 22/00 Q1019",
      "taf": "TAF LICA 021100Z 0212/0312 29014KT CAVOK"
    },
    {
      "icao": "LICC",
      "alert": "OK",
      "vis_m": 9999,
      "fzfg": false,
      "metar_trigger": false,
      "taf_trigger": false,
      "metar": "METAR LICC 021520Z 13009KT 090V150 9999 FEW080 19/13 Q1020",
      "taf": "TAF LICC 021100Z 0212/0312 06015KT CAVOK"
    },
    {
      "icao": "LICJ",
      "alert": "OK",
      "vis_m": 9999,
      "fzfg": false,
      "metar_trigger": false,
      "taf_trigger": false,
      "metar": "METAR LICJ 021520Z 04014KT CAVOK 18/09 Q1021",
      "taf": "TAF LICJ 021100Z 0212/0312 06016KT CAVOK"
    },
    {
      "icao": "LIMC",
      "alert": "OK",
      "vis_m": 9999,
      "fzfg": false,
      "metar_trigger": false,
      "taf_trigger": false,
      "metar": "METAR LIMC 021520Z 24006KT 200V280 CAVOK 23/04 Q1021 NOSIG",
      "taf": "TAF LIMC 021100Z 0212/0318 VRB05KT CAVOK"
    },
    {
      "icao": "LIME",
      "alert": "OK",
      "vis_m": 9999,
      "fzfg": false,
      "metar_trigger": false,
      "taf_trigger": false,
      "metar": "METAR LIME 021520Z VRB05KT CAVOK 23/03 Q1021 NOSIG",
      "taf": "TAF LIME 021100Z 0212/0312 VRB05KT CAVOK"
    },
    {
      "icao": "LIMF",
      "alert": "OK",
      "vis_m": 9999,
      "fzfg": false,
      "metar_trigger": false,
      "taf_trigger": false,
      "metar": "METAR LIMF 021520Z VRB04KT CAVOK 22/07 Q1021",
      "taf": "TAF LIMF 021100Z 0212/0312 VRB05KT CAVOK"
    },
    {
      "icao": "LIMJ",
      "alert": "OK",
      "vis_m": 9999,
      "fzfg": false,
      "metar_trigger": false,
      "taf_trigger": false,
      "metar": "METAR LIMJ 021520Z 26005KT CAVOK 19/11 Q1022",
      "taf": "TAF LIMJ 021100Z 0212/0312 21010KT CAVOK"
    },
    {
      "icao": "LIPE",
      "alert": "OK",
      "vis_m": 9999,
      "fzfg": false,
      "metar_trigger": false,
      "taf_trigger": false,
      "metar": "METAR LIPE 021520Z 08006KT 040V110 CAVOK 23/04 Q1021",
      "taf": "TAF LIPE 021100Z 0212/0312 VRB05KT CAVOK"
    },
    {
      "icao": "LIPH",
      "alert": "OK",
      "vis_m": 9999,
      "fzfg": false,
      "metar_trigger": false,
      "taf_trigger": false,
      "metar": "METAR LIPH 021520Z 23006KT 180V300 CAVOK 25/04 Q1020",
      "taf": "TAF LIPH 021100Z 0212/0312 23010KT CAVOK"
    },
    {
      "icao": "LIPQ",
      "alert": "OK",
      "vis_m": 9999,
      "fzfg": false,
      "metar_trigger": false,
      "taf_trigger": false,
      "metar": "METAR LIPQ 021520Z AUTO 22009KT 9999 NCD 23/04 Q1021",
      "taf": "TAF LIPQ 021100Z 0212/0312 24010KT CAVOK"
    },
    {
      "icao": "LIPR",
      "alert": "OK",
      "vis_m": 9999,
      "fzfg": false,
      "metar_trigger": false,
      "taf_trigger": false,
      "metar": "METAR LIPR 021520Z 07005KT 040V100 CAVOK 20/05 Q1022",
      "taf": "TAF LIPR 021100Z 0212/0312 04010KT CAVOK"
    },
    {
      "icao": "LIPX",
      "alert": "OK",
      "vis_m": 9999,
      "fzfg": false,
      "metar_trigger": false,
      "taf_trigger": false,
      "metar": "METAR LIPX 021520Z 23006KT 190V260 CAVOK 24/03 Q1021",
      "taf": "TAF LIPX 021100Z 0212/0312 VRB05KT 9999 FEW060"
    },
    {
      "icao": "LIPY",
      "alert": "OK",
      "vis_m": 9999,
      "fzfg": false,
      "metar_trigger": false,
      "taf_trigger": false,
      "metar": "METAR LIPY 021520Z AUTO 36007KT 9999 NCD 20/06 Q1022",
      "taf": "TAF LIPY 021100Z 0212/0312 34010KT CAVOK"
    },
    {
      "icao": "LIPZ",
      "alert": "OK",
      "vis_m": 9999,
      "fzfg": false,
      "metar_trigger": false,
      "taf_trigger": false,
      "metar": "METAR LIPZ 021520Z 18007KT CAVOK 22/08 Q1021 NOSIG",
      "taf": "TAF LIPZ 021100Z 0212/0318 19012KT CAVOK"
    },
    {
      "icao": "LIRF",
      "alert": "OK",
      "vis_m": 9999,
      "fzfg": false,
      "metar_trigger": false,
      "taf_trigger": false,
      "metar": "METAR LIRF 021520Z 27013KT CAVOK 19/09 Q1021 NOSIG",
      "taf": "TAF LIRF 021100Z 0212/0318 28012KT CAVOK"
    },
    {
      "icao": "LIRN",
      "alert": "OK",
      "vis_m": 9999,
      "fzfg": false,
      "metar_trigger": false,
      "taf_trigger": false,
      "metar": "METAR LIRN 021520Z 29009KT 250V340 9999 FEW080 21/04 Q1021 NOSIG",
      "taf": "TAF LIRN 021100Z 0212/0312 03015KT CAVOK"
    },
    {
      "icao": "LIRP",
      "alert": "OK",
      "vis_m": 9999,
      "fzfg": false,
      "metar_trigger": false,
      "taf_trigger": false,
      "metar": "METAR LIRP 021515Z 30013KT CAVOK 22/06 Q1022 NOSIG",
      "taf": "TAF LIRP 021100Z 0212/0312 30008KT CAVOK"
    },
    {
      "icao": "LIRZ",
      "alert": "OK",
      "vis_m": 9999,
      "fzfg": false,
      "metar_trigger": false,
      "taf_trigger": false,
      "metar": "METAR LIRZ 021520Z AUTO 36010KT 340V040 9999 NCD 22/04 Q1021",
      "taf": "TAF LIRZ 021100Z 0212/0312 04012KT CAVOK"
    },
    {
      "icao": "LJLJ",
      "alert": "OK",
      "vis_m": 9999,
      "fzfg": false,
      "metar_trigger": false,
      "taf_trigger": false,
      "metar": "METAR LJLJ 021500Z 14004KT 9999 FEW060 23/04 Q1020 NOSIG",
      "taf": "TAF LJLJ 021100Z 0212/0312 10005KT 9999 FEW060"
    },
    {
      "icao": "LKMT",
      "alert": "OK",
      "vis_m": 9999,
      "fzfg": false,
      "metar_trigger": false,
      "taf_trigger": false,
      "metar": "METAR LKMT 021500Z 01008KT CAVOK 22/04 Q1021 NOSIG",
      "taf": "TAF LKMT 021100Z 0212/0312 04008KT CAVOK"
    },
    {
      "icao": "LKPR",
      "alert": "OK",
      "vis_m": 9999,
      "fzfg": false,
      "metar_trigger": false,
      "taf_trigger": false,
      "metar": "METAR LKPR 021500Z VRB03KT CAVOK 24/M00 Q1020 NOSIG",
      "taf": "TAF LKPR 021400Z 0215/0321 16006KT CAVOK"
    },
    {
      "icao": "LLBG",
      "alert": "OK",
      "vis_m": 9999,
      "fzfg": false,
      "metar_trigger": false,
      "taf_trigger": false,
      "metar": "METAR LLBG 021520Z 36011KT CAVOK 25/11 Q1007 NOSIG",
      "taf": "TAF LLBG 021102Z 0212/0312 32012KT CAVOK TX27/0212Z TN18/0303Z"
    },
    {
      "icao": "LMML",
      "alert": "OK",
      "vis_m": 9999,
      "fzfg": false,
      "metar_trigger": false,
      "taf_trigger": false,
      "metar": "METAR LMML 021515Z 04009KT 010V070 9999 FEW045 19/06 Q1020 NOSIG",
      "taf": "TAF LMML 021100Z 0212/0312 04010KT 9999 FEW030"
    },
    {
      "icao": "LOWW",
      "alert": "OK",
      "vis_m": 9999,
      "fzfg": false,
      "metar_trigger": false,
      "taf_trigger": false,
      "metar": "METAR LOWW 021520Z 33003KT 210V020 CAVOK 24/04 Q1020 NOSIG",
      "taf": "TAF LOWW 021415Z 0215/0321 08005KT CAVOK TX24/0314Z TN10/0303Z"
    },
    {
      "icao": "LPFR",
      "alert": "OK",
      "vis_m": 9999,
      "fzfg": false,
      "metar_trigger": false,
      "taf_trigger": false,
      "metar": "METAR LPFR 021500Z 25013KT 9999 FEW025 20/13 Q1016",
      "taf": "TAF LPFR 021100Z 0212/0312 19007KT 9999 FEW030"
    },
    {
      "icao": "LPMA",
      "alert": "OK",
      "vis_m": 9999,
      "fzfg": false,
      "metar_trigger": false,
      "taf_trigger": false,
      "metar": "METAR LPMA 021500Z VRB07KT 9999 BKN015 SCT030 19/15 Q1019",
      "taf": "TAF LPMA 021100Z 0212/0312 VRB05KT 9999 SCT015"
    },
    {
      "icao": "LPPR",
      "alert": "OK",
      "vis_m": 9999,
      "fzfg": false,
      "metar_trigger": false,
      "taf_trigger": false,
      "metar": "METAR LPPR 021500Z 21013KT 9999 FEW014 FEW025CB 17/14 Q1015",
      "taf": "TAF LPPR 021100Z 0212/0312 21010KT 9999 BKN030"
    },
    {
      "icao": "LPPS",
      "alert": "OK",
      "vis_m": 9999,
      "fzfg": false,
      "metar_trigger": false,
      "taf_trigger": false,
      "metar": "METAR LPPS 021500Z 28010KT 250V310 9999 FEW015 20/15 Q1020",
      "taf": "TAF LPPS 021100Z 0212/0318 28008KT 9999 SCT015"
    },
    {
      "icao": "LPPT",
      "alert": "OK",
      "vis_m": 9999,
      "fzfg": false,
      "metar_trigger": false,
      "taf_trigger": false,
      "metar": "METAR LPPT 021500Z 23011KT 200V270 9999 FEW018 SCT024 20/13 Q1016",
      "taf": "TAF LPPT 021100Z 0212/0318 23010KT 9999 SCT030"
    },
    {
      "icao": "LQBK",
      "alert": "OK",
      "vis_m": 9999,
      "fzfg": false,
      "metar_trigger": false,
      "taf_trigger": false,
      "metar": "METAR LQBK 021500Z VRB03KT CAVOK 21/04 Q1021 NOSIG",
      "taf": "TAF LQBK 021100Z 0212/0312 33007KT CAVOK TX22/0213Z TN04/0303Z"
    },
    {
      "icao": "LQSA",
      "alert": "OK",
      "vis_m": 9999,
      "fzfg": false,
      "metar_trigger": false,
      "taf_trigger": false,
      "metar": "METAR LQSA 021500Z 36007KT 320V050 9999 FEW065 18/M01 Q1020 NOSIG",
      "taf": "TAF LQSA 021100Z 0212/0312 31005KT 9999 SCT060 TX18/0214Z TN04/0304Z"
    },
    {
      "icao": "LQTZ",
      "alert": "OK",
      "vis_m": 9999,
      "fzfg": false,
      "metar_trigger": false,
      "taf_trigger": false,
      "metar": "METAR LQTZ 021500Z 35006KT 310V010 CAVOK 19/02 Q1021",
      "taf": "TAF LQTZ 021100Z 0212/0312 26005KT 9999 FEW050 TX18/0213Z TN04/0304Z"
    },
    {
      "icao": "LRBC",
      "alert": "OK",
      "vis_m": 9999,
      "fzfg": false,
      "metar_trigger": false,
      "taf_trigger": false,
      "metar": "METAR LRBC 021500Z 10006KT 030V140 9999 SCT051 13/M01 Q1023",
      "taf": "TAF LRBC 021400Z 0215/0224 VRB04KT CAVOK"
    },
    {
      "icao": "LRBS",
      "alert": "OK",
      "vis_m": 9999,
      "fzfg": false,
      "metar_trigger": false,
      "taf_trigger": false,
      "metar": "METAR LRBS 021500Z 03008KT 350V060 9999 SCT040 12/03 Q1021 NOSIG",
      "taf": "TAF LRBS 021100Z 0212/0312 07010KT 9999 SCT035"
    },
    {
      "icao": "LRBV",
      "alert": "OK",
      "vis_m": 9999,
      "fzfg": false,
      "metar_trigger": false,
      "taf_trigger": false,
      "metar": "METAR LRBV 021500Z 10012KT 9999 2000W -SHRA FEW016 SCT027 SCT030CB OVC040 06/02 Q1023",
      "taf": "TAF LRBV 021400Z 0215/0224 10010KT 9999 SCT040"
    },
    {
      "icao": "LRCL",
      "alert": "OK",
      "vis_m": 9999,
      "fzfg": false,
      "metar_trigger": false,
      "taf_trigger": false,
      "metar": "METAR LRCL 021500Z VRB02KT 9999 SCT067 16/M02 Q1020",
      "taf": "TAF LRCL 021400Z 0215/0224 VRB03KT CAVOK"
    },
    {
      "icao": "LRCV",
      "alert": "OK",
      "vis_m": 9999,
      "fzfg": false,
      "metar_trigger": false,
      "taf_trigger": false,
      "metar": "METAR LRCV 021500Z 13014KT 9999 FEW035 FEW055CB 11/06 Q1021",
      "taf": "TAF LRCV 021400Z 0215/0224 08010KT CAVOK"
    },
    {
      "icao": "LRIA",
      "alert": "OK",
      "vis_m": 9999,
      "fzfg": false,
      "metar_trigger": false,
      "taf_trigger": false,
      "metar": "METAR LRIA 021500Z 05007KT 330V100 CAVOK 13/M05 Q1023",
      "taf": "TAF LRIA 021400Z 0215/0224 08010KT CAVOK"
    },
    {
      "icao": "LROP",
      "alert": "OK",
      "vis_m": 9999,
      "fzfg": false,
      "metar_trigger": false,
      "taf_trigger": false,
      "metar": "METAR LROP 021500Z 04011KT CAVOK 12/02 Q1022 NOSIG",
      "taf": "TAF LROP 021100Z 0212/0312 07010KT 9999 SCT035"
    },
    {
      "icao": "LRSB",
      "alert": "OK",
      "vis_m": 9999,
      "fzfg": false,
      "metar_trigger": false,
      "taf_trigger": false,
      "metar": "METAR LRSB 021500Z 16004KT 090V230 9999 FEW045TCU SCT065 13/M00 Q1020",
      "taf": "TAF LRSB 021100Z 0212/0312 VRB04KT 9999 SCT065"
    },
    {
      "icao": "LRSM",
      "alert": "OK",
      "vis_m": 9999,
      "fzfg": false,
      "metar_trigger": false,
      "taf_trigger": false,
      "metar": "METAR LRSM 021500Z 02004KT 350V050 CAVOK 19/01 Q1020",
      "taf": "TAF LRSM 021400Z 0215/0224 07008KT CAVOK"
    },
    {
      "icao": "LRSV",
      "alert": "OK",
      "vis_m": 9999,
      "fzfg": false,
      "metar_trigger": false,
      "taf_trigger": false,
      "metar": "METAR LRSV 021500Z 03007KT 360V060 CAVOK 11/M00 Q1022",
      "taf": "TAF LRSV 021400Z 0215/0224 03010KT CAVOK"
    },
    {
      "icao": "LRTM",
      "alert": "OK",
      "vis_m": 9999,
      "fzfg": false,
      "metar_trigger": false,
      "taf_trigger": false,
      "metar": "METAR LRTM 021500Z 05006KT 350V080 9999 SCT043 15/M01 Q1020",
      "taf": "TAF LRTM 021400Z 0215/0224 VRB03KT CAVOK"
    },
    {
      "icao": "LRTR",
      "alert": "OK",
      "vis_m": 9999,
      "fzfg": false,
      "metar_trigger": false,
      "taf_trigger": false,
      "metar": "METAR LRTR 021500Z 35006KT 310V030 CAVOK 20/01 Q1019 NOSIG",
      "taf": "TAF LRTR 021100Z 0212/0312 36012KT CAVOK"
    },
    {
      "icao": "LTAC",
      "alert": "OK",
      "vis_m": 9999,
      "fzfg": false,
      "metar_trigger": false,
      "taf_trigger": false,
      "metar": "METAR LTAC 021520Z 09010KT 050V110 9999 FEW015 BKN025 BKN080 06/03 Q1012 RESHRA NOSIG RMK RWY21C 05009KT RWY03L 07010KT RWY21R 04010KT RWY03R 06009KT RWY21L 07011KT",
      "taf": "TAF LTAC 021040Z 0212/0312 06015KT 9999 BKN030 BKN080"
    },
    {
      "icao": "LTFM",
      "alert": "OK",
      "vis_m": 9999,
      "fzfg": false,
      "metar_trigger": false,
      "taf_trigger": false,
      "metar": "METAR LTFM 021520Z 04022KT 9999 SCT030 BKN080 11/03 Q1018 NOSIG RMK RWY17L 05019KT RWY34L 04020KT RWY16R 04020KT RWY36 04021KT RWY18 05019KT",
      "taf": "TAF LTFM 021040Z 0212/0318 04020G30KT 9999 SCT030 BKN080"
    },
    {
      "icao": "LUKK",
      "alert": "OK",
      "vis_m": 9999,
      "fzfg": false,
      "metar_trigger": false,
      "taf_trigger": false,
      "metar": "METAR LUKK 021500Z 08010KT CAVOK 12/M05 Q1023 NOSIG",
      "taf": "TAF LUKK 021103Z 0212/0312 06012KT CAVOK"
    },
    {
      "icao": "LWOH",
      "alert": "OK",
      "vis_m": 9999,
      "fzfg": false,
      "metar_trigger": false,
      "taf_trigger": false,
      "metar": "METAR LWOH 021520Z 34010KT 310V010 9999 FEW035 SCT090 14/M02 Q1018",
      "taf": "TAF LWOH 021410Z 0215/0315 01010KT 9999 SCT040 SCT090"
    },
    {
      "icao": "LWSK",
      "alert": "OK",
      "vis_m": 9999,
      "fzfg": false,
      "metar_trigger": false,
      "taf_trigger": false,
      "metar": "METAR LWSK 021450Z 36014KT 9999 BKN060 16/M01 Q1019 NOSIG",
      "taf": "TAF LWSK 021410Z 0215/0315 35012KT 9999 SCT050 BKN080"
    },
    {
      "icao": "LYBE",
      "alert": "OK",
      "vis_m": 9999,
      "fzfg": false,
      "metar_trigger": false,
      "taf_trigger": false,
      "metar": "METAR LYBE 021500Z 33008KT CAVOK 20/04 Q1020 NOSIG",
      "taf": "TAF LYBE 021100Z 0212/0312 01010KT CAVOK TX20/0213Z TN07/0304Z"
    },
    {
      "icao": "LYNI",
      "alert": "OK",
      "vis_m": 9999,
      "fzfg": false,
      "metar_trigger": false,
      "taf_trigger": false,
      "metar": "METAR LYNI 021500Z 08005KT 020V120 9999 FEW037 SCT050 BKN075 15/03 Q1019 NOSIG",
      "taf": "TAF LYNI 021100Z 0212/0312 33011KT 9999 SCT070 TX17/0213Z TN05/0304Z"
    },
    {
      "icao": "LYPG",
      "alert": "OK",
      "vis_m": 9999,
      "fzfg": false,
      "metar_trigger": false,
      "taf_trigger": false,
      "metar": "METAR LYPG 021500Z 17008KT 140V220 9999 FEW050 SCT060 20/03 Q1018 NOSIG",
      "taf": "TAF LYPG 021100Z 0212/0312 36010KT 9999 FEW050 TX21/0214Z TN10/0304Z"
    },
    {
      "icao": "LZIB",
      "alert": "OK",
      "vis_m": 9999,
      "fzfg": false,
      "metar_trigger": false,
      "taf_trigger": false,
      "metar": "METAR LZIB 021500Z VRB04KT CAVOK 24/04 Q1020 NOSIG",
      "taf": "TAF LZIB 021115Z 0212/0312 VRB02KT CAVOK"
    },
    {
      "icao": "LZKZ",
      "alert": "OK",
      "vis_m": 9999,
      "fzfg": false,
      "metar_trigger": false,
      "taf_trigger": false,
      "metar": "METAR LZKZ 021500Z 02013KT CAVOK 20/02 Q1021 NOSIG",
      "taf": "TAF LZKZ 021115Z 0212/0312 01008KT CAVOK"
    },
    {
      "icao": "LZTT",
      "alert": "OK",
      "vis_m": 9999,
      "fzfg": false,
      "metar_trigger": false,
      "taf_trigger": false,
      "metar": "METAR LZTT 021500Z 06016KT 9999 FEW063 18/00 Q1021 NOSIG",
      "taf": "TAF LZTT 021115Z 0212/0312 08012KT 9999 FEW050"
    },
    {
      "icao": "OEJN",
      "alert": "OK",
      "vis_m": 9999,
      "fzfg": false,
      "metar_trigger": false,
      "taf_trigger": false,
      "metar": "METAR OEJN 021500Z 31009KT CAVOK 32/12 Q1007 NOSIG",
      "taf": "TAF OEJN 021100Z 0212/0318 34013KT CAVOK"
    },
    {
      "icao": "OEMA",
      "alert": "OK",
      "vis_m": 9999,
      "fzfg": false,
      "metar_trigger": false,
      "taf_trigger": false,
      "metar": "METAR OEMA 021500Z 31009KT CAVOK 36/M04 Q1011 NOSIG",
      "taf": "TAF OEMA 021100Z 0212/0318 32010KT CAVOK"
    },
    {
      "icao": "OJAI",
      "alert": "OK",
      "vis_m": 5000,
      "fzfg": false,
      "metar_trigger": false,
      "taf_trigger": false,
      "metar": "METAR OJAI 021500Z 27004KT 5000 HZ NSC 25/03 Q1011 NOSIG",
      "taf": "TAF OJAI 021054Z 0212/0318 25012KT 5000 HZ NSC"
    },
    {
      "icao": "OMAA",
      "alert": "OK",
      "vis_m": 9999,
      "fzfg": false,
      "metar_trigger": false,
      "taf_trigger": false,
      "metar": "METAR OMAA 021530Z 32003KT 290V350 CAVOK 34/13 Q1006 NOSIG",
      "taf": "TAF OMAA 021100Z 0212/0318 33011KT CAVOK"
    },
    {
      "icao": "OMDB",
      "alert": "OK",
      "vis_m": 9999,
      "fzfg": false,
      "metar_trigger": false,
      "taf_trigger": false,
      "metar": "METAR OMDB 021530Z 22005KT 190V260 CAVOK 36/11 Q1006 NOSIG",
      "taf": "TAF OMDB 021100Z 0212/0318 30013KT CAVOK"
    },
    {
      "icao": "UAAA",
      "alert": "OK",
      "vis_m": 5000,
      "fzfg": false,
      "metar_trigger": false,
      "taf_trigger": false,
      "metar": "METAR UAAA 021500Z 19002MPS 5000 FU SCT050CB OVC100 21/11 Q1010 NOSIG",
      "taf": "TAF UAAA 021104Z 0212/0312 20003G08MPS 9999 SCT050CB BKN100 TX24/0309Z TN15/0301Z"
    },
    {
      "icao": "UBBB",
      "alert": "OK",
      "vis_m": 9999,
      "fzfg": false,
      "metar_trigger": false,
      "taf_trigger": false,
      "metar": "METAR UBBB 021500Z 33016KT 9999 SCT010 13/11 Q1014 NOSIG",
      "taf": "TAF UBBB 021051Z 0212/0312 32016G26KT 9999 BKN023 TX16/0212Z TN11/0301Z"
    },
    {
      "icao": "UDSG",
      "alert": "OK",
      "vis_m": 9999,
      "fzfg": false,
      "metar_trigger": false,
      "taf_trigger": false,
      "metar": "METAR UDSG 021500Z 17012KT 9999 BKN043CB 13/06 Q1015 NOSIG",
      "taf": "TAF UDSG 021058Z 0212/0312 06006KT 9999 BKN040"
    },
    {
      "icao": "UDYZ",
      "alert": "OK",
      "vis_m": 9999,
      "fzfg": false,
      "metar_trigger": false,
      "taf_trigger": false,
      "metar": "METAR UDYZ 021500Z 32004KT 9999 SCT043CB 20/08 Q1012 NOSIG",
      "taf": "TAF UDYZ 021100Z 0212/0312 22006KT 9999 FEW040"
    },
    {
      "icao": "UGKO",
      "alert": "OK",
      "vis_m": 9999,
      "fzfg": false,
      "metar_trigger": false,
      "taf_trigger": false,
      "metar": "METAR UGKO 021500Z 26007KT 9999 OVC044 12/10 Q1015 NOSIG",
      "taf": "TAF UGKO 021100Z 0212/0312 26007KT 9000 SCT030 OVC045 TX15/0311Z TN08/0302Z"
    }
  ]
}