{
  "ts_utc": "2026-07-03T23:12:32Z",
  "threshold_m": 150,
  "source": "stations_override.txt (ICAO list) + aviationweather.gov (METAR/TAF raw)",
  "station_count": 159,
  "stations": [
    {
      "icao": "BIKF",
      "alert": "OK",
      "vis_m": 9999,
      "fzfg": false,
      "metar_trigger": false,
      "taf_trigger": false,
      "metar": "METAR BIKF 032300Z 32010KT CAVOK 09/04 Q1007",
      "taf": "TAF BIKF 032300Z 0400/0500 33012KT 9999 FEW025 TX12/0415Z TN05/0404Z"
    },
    {
      "icao": "BKPR",
      "alert": "OK",
      "vis_m": 9999,
      "fzfg": false,
      "metar_trigger": false,
      "taf_trigger": false,
      "metar": "METAR BKPR 032300Z 34006KT CAVOK 17/14 Q1020 NOSIG",
      "taf": "TAF BKPR 031730Z 0318/0418 33008KT 9999 FEW050"
    },
    {
      "icao": "EBCI",
      "alert": "OK",
      "vis_m": 9999,
      "fzfg": false,
      "metar_trigger": false,
      "taf_trigger": false,
      "metar": "METAR EBCI 032250Z 07003KT CAVOK 15/08 Q1028 NOSIG",
      "taf": "TAF EBCI 031701Z 0318/0424 34007KT CAVOK"
    },
    {
      "icao": "EDDB",
      "alert": "OK",
      "vis_m": 9999,
      "fzfg": false,
      "metar_trigger": false,
      "taf_trigger": false,
      "metar": "METAR EDDB 032250Z AUTO 30009KT CAVOK 16/09 Q1022 NOSIG",
      "taf": "TAF EDDB 031700Z 0318/0418 30015G25KT CAVOK"
    },
    {
      "icao": "EDDH",
      "alert": "OK",
      "vis_m": 9999,
      "fzfg": false,
      "metar_trigger": false,
      "taf_trigger": false,
      "metar": "METAR EDDH 032250Z AUTO 29006KT 260V320 9999 FEW026 OVC039 15/11 Q1023 NOSIG",
      "taf": "TAF EDDH 031700Z 0318/0424 30015G25KT 9999 SCT030"
    },
    {
      "icao": "EDDK",
      "alert": "OK",
      "vis_m": 9999,
      "fzfg": false,
      "metar_trigger": false,
      "taf_trigger": false,
      "metar": "METAR EDDK 032250Z AUTO 34003KT 310V010 CAVOK 15/09 Q1027 NOSIG",
      "taf": "TAF EDDK 031700Z 0318/0424 32009KT CAVOK"
    },
    {
      "icao": "EDDN",
      "alert": "OK",
      "vis_m": 9999,
      "fzfg": false,
      "metar_trigger": false,
      "taf_trigger": false,
      "metar": "METAR EDDN 032250Z AUTO VRB02KT CAVOK 13/09 Q1025",
      "taf": "TAF EDDN 031700Z 0318/0418 32008KT CAVOK"
    },
    {
      "icao": "EDDS",
      "alert": "OK",
      "vis_m": 9999,
      "fzfg": false,
      "metar_trigger": false,
      "taf_trigger": false,
      "metar": "METAR EDDS 032250Z AUTO VRB02KT CAVOK 16/07 Q1026",
      "taf": "TAF EDDS 031700Z 0318/0418 33007KT CAVOK"
    },
    {
      "icao": "EDFH",
      "alert": "OK",
      "vis_m": 9999,
      "fzfg": false,
      "metar_trigger": false,
      "taf_trigger": false,
      "metar": "METAR EDFH 032250Z VRB02KT CAVOK 14/07 Q1027",
      "taf": "TAF EDFH 031700Z 0318/0418 32006KT CAVOK"
    },
    {
      "icao": "EDJA",
      "alert": "OK",
      "vis_m": null,
      "fzfg": false,
      "metar_trigger": false,
      "taf_trigger": false,
      "metar": "",
      "taf": "TAF EDJA 031700Z 0318/0403 35004KT CAVOK"
    },
    {
      "icao": "EDLW",
      "alert": "OK",
      "vis_m": 9999,
      "fzfg": false,
      "metar_trigger": false,
      "taf_trigger": false,
      "metar": "METAR EDLW 032250Z AUTO 25003KT 9999 // NCD 12/09 Q1026",
      "taf": "TAF EDLW 031700Z 0318/0418 30007KT CAVOK"
    },
    {
      "icao": "EDNY",
      "alert": "OK",
      "vis_m": 9999,
      "fzfg": false,
      "metar_trigger": false,
      "taf_trigger": false,
      "metar": "METAR EDNY 032250Z AUTO VRB02KT 9999 // SCT082/// 16/07 Q1026",
      "taf": "TAF EDNY 031700Z 0318/0403 VRB03KT CAVOK"
    },
    {
      "icao": "EDSB",
      "alert": "OK",
      "vis_m": 9999,
      "fzfg": false,
      "metar_trigger": false,
      "taf_trigger": false,
      "metar": "METAR EDSB 032250Z AUTO VRB02KT 9999 // NCD 16/10 Q1025",
      "taf": "TAF EDSB 031700Z 0318/0418 02004KT CAVOK"
    },
    {
      "icao": "EETN",
      "alert": "OK",
      "vis_m": 9999,
      "fzfg": false,
      "metar_trigger": false,
      "taf_trigger": false,
      "metar": "METAR EETN 032250Z 19003KT 9999 FEW019 13/12 Q1003",
      "taf": "TAF EETN 031730Z 0318/0418 15005KT 9999 SCT030"
    },
    {
      "icao": "EFTU",
      "alert": "OK",
      "vis_m": 1100,
      "fzfg": false,
      "metar_trigger": false,
      "taf_trigger": false,
      "metar": "METAR EFTU 032250Z AUTO 12003KT 1100 R26/1100U BCFG NSC 11/11 Q1003",
      "taf": ""
    },
    {
      "icao": "EGBB",
      "alert": "OK",
      "vis_m": 9999,
      "fzfg": false,
      "metar_trigger": false,
      "taf_trigger": false,
      "metar": "METAR EGBB 032250Z 26006KT CAVOK 18/10 Q1027",
      "taf": "TAF EGBB 032300Z 0400/0424 21005KT CAVOK"
    },
    {
      "icao": "EGGP",
      "alert": "OK",
      "vis_m": 9999,
      "fzfg": false,
      "metar_trigger": false,
      "taf_trigger": false,
      "metar": "METAR EGGP 032250Z 23005KT 190V250 9999 FEW040 BKN048 17/12 Q1026",
      "taf": "TAF EGGP 032302Z 0400/0424 21005KT 9999 FEW035"
    },
    {
      "icao": "EGGW",
      "alert": "OK",
      "vis_m": 9999,
      "fzfg": false,
      "metar_trigger": false,
      "taf_trigger": false,
      "metar": "METAR EGGW 032250Z AUTO 26013KT 9999 NCD 18/12 Q1027",
      "taf": "TAF EGGW 032301Z 0400/0424 24008KT 9999 FEW040"
    },
    {
      "icao": "EGKK",
      "alert": "OK",
      "vis_m": 9999,
      "fzfg": false,
      "metar_trigger": false,
      "taf_trigger": false,
      "metar": "METAR EGKK 032250Z 21004KT CAVOK 18/11 Q1028",
      "taf": "TAF EGKK 032253Z 0400/0506 25008KT 9999 FEW030"
    },
    {
      "icao": "EGNM",
      "alert": "OK",
      "vis_m": 9999,
      "fzfg": false,
      "metar_trigger": false,
      "taf_trigger": false,
      "metar": "METAR EGNM 032250Z 25012KT 9999 FEW037 16/11 Q1024",
      "taf": "TAF EGNM 032301Z 0400/0424 25012KT 9999 SCT020"
    },
    {
      "icao": "EGPD",
      "alert": "OK",
      "vis_m": 9999,
      "fzfg": false,
      "metar_trigger": false,
      "taf_trigger": false,
      "metar": "METAR EGPD 032250Z AUTO VRB02KT 9999 NCD 16/08 Q1019",
      "taf": "TAF EGPD 032254Z 0400/0424 VRB03KT 9999 FEW040"
    },
    {
      "icao": "EGPF",
      "alert": "OK",
      "vis_m": 3900,
      "fzfg": false,
      "metar_trigger": false,
      "taf_trigger": false,
      "metar": "METAR EGPF 032250Z AUTO 22005KT 3900 -DZ BKN005 OVC012 14/13 Q1021",
      "taf": "TAF EGPF 032256Z 0400/0424 25009KT 9999 BKN012"
    },
    {
      "icao": "EHBK",
      "alert": "OK",
      "vis_m": 9999,
      "fzfg": false,
      "metar_trigger": false,
      "taf_trigger": false,
      "metar": "METAR EHBK 032255Z AUTO 26003KT 9999 NSC 14/08 Q1028",
      "taf": "TAF EHBK 031713Z 0318/0424 32010KT CAVOK"
    },
    {
      "icao": "EHEH",
      "alert": "OK",
      "vis_m": 9999,
      "fzfg": false,
      "metar_trigger": false,
      "taf_trigger": false,
      "metar": "METAR EHEH 032255Z AUTO VRB02KT 9999 NCD 10/09 Q1027 BLU RMK TREND REMOTE BY EHWX",
      "taf": "TAF EHEH 031717Z 0318/0424 32008KT CAVOK"
    },
    {
      "icao": "EKBI",
      "alert": "OK",
      "vis_m": 9999,
      "fzfg": false,
      "metar_trigger": false,
      "taf_trigger": false,
      "metar": "METAR EKBI 032250Z AUTO 28011KT 9999 NCD 12/08 Q1021",
      "taf": "TAF EKBI 032027Z 0321/0421 28022KT 9999 SCT025"
    },
    {
      "icao": "EKCH",
      "alert": "OK",
      "vis_m": 9999,
      "fzfg": false,
      "metar_trigger": false,
      "taf_trigger": false,
      "metar": "METAR EKCH 032250Z AUTO 28017KT 9999 NCD 14/09 Q1017 TEMPO 28022G30KT",
      "taf": "TAF EKCH 032027Z 0321/0421 28020KT 9999 BKN025"
    },
    {
      "icao": "ENAL",
      "alert": "OK",
      "vis_m": 9999,
      "fzfg": false,
      "metar_trigger": false,
      "taf_trigger": false,
      "metar": "METAR ENAL 032250Z 22011KT 9999 -RA BKN030 13/09 Q1014",
      "taf": "TAF ENAL 032000Z 0321/0406 22008KT 9999 SCT009 BKN020"
    },
    {
      "icao": "ENBR",
      "alert": "OK",
      "vis_m": 9999,
      "fzfg": false,
      "metar_trigger": false,
      "taf_trigger": false,
      "metar": "METAR ENBR 032250Z 16004KT 130V190 9999 VCSH FEW008 BKN012 11/11 Q1019 RMK WIND 1200FT 24009KT",
      "taf": "TAF ENBR 031700Z 0318/0418 24007KT 9999 FEW010 BKN025"
    },
    {
      "icao": "ENGM",
      "alert": "OK",
      "vis_m": 9999,
      "fzfg": false,
      "metar_trigger": false,
      "taf_trigger": false,
      "metar": "METAR ENGM 032250Z 02004KT CAVOK 14/09 Q1014",
      "taf": "TAF ENGM 031700Z 0318/0418 32006KT 9999 FEW030"
    },
    {
      "icao": "ENHD",
      "alert": "OK",
      "vis_m": 9999,
      "fzfg": false,
      "metar_trigger": false,
      "taf_trigger": false,
      "metar": "METAR ENHD 032250Z 00000KT 9999 BKN012 BKN045 12/10 Q1020",
      "taf": "TAF ENHD 031400Z 0315/0322 32015KT 9999 SCT022 BKN035"
    },
    {
      "icao": "ENTC",
      "alert": "OK",
      "vis_m": 9999,
      "fzfg": false,
      "metar_trigger": false,
      "taf_trigger": false,
      "metar": "METAR ENTC 032250Z AUTO 05005KT 9999 NCD 10/08 Q1008 RMK WIND 2600FT 22008KT",
      "taf": "TAF ENTC 031700Z 0318/0418 02010KT 9999 FEW060"
    },
    {
      "icao": "ENTO",
      "alert": "OK",
      "vis_m": 9999,
      "fzfg": false,
      "metar_trigger": false,
      "taf_trigger": false,
      "metar": "METAR ENTO 032250Z AUTO 32007KT 9999 NCD 15/06 Q1014",
      "taf": "TAF ENTO 031700Z 0318/0418 32012KT 9999 FEW040"
    },
    {
      "icao": "ENVA",
      "alert": "OK",
      "vis_m": 9999,
      "fzfg": false,
      "metar_trigger": false,
      "taf_trigger": false,
      "metar": "METAR ENVA 032250Z AUTO VRB02KT 9999 BKN029/// BKN037/// OVC046/// 11/08 Q1015 RMK WIND 670FT 25005KT",
      "taf": "TAF ENVA 031700Z 0318/0418 26020KT 9999 SCT015 BKN018"
    },
    {
      "icao": "ENZV",
      "alert": "OK",
      "vis_m": 9999,
      "fzfg": false,
      "metar_trigger": false,
      "taf_trigger": false,
      "metar": "METAR ENZV 032250Z 31005KT 9999 FEW029 BKN037 13/10 Q1020",
      "taf": "TAF ENZV 031700Z 0318/0418 31012KT 9999 FEW015 BKN035"
    },
    {
      "icao": "EPGD",
      "alert": "OK",
      "vis_m": 7000,
      "fzfg": false,
      "metar_trigger": false,
      "taf_trigger": false,
      "metar": "METAR EPGD 032300Z 27019KT 7000 -SHRA FEW017 SCT032TCU BKN037 13/12 Q1014",
      "taf": "TAF EPGD 031730Z 0318/0418 25015KT 9999 SCT015"
    },
    {
      "icao": "EPKK",
      "alert": "OK",
      "vis_m": 9999,
      "fzfg": false,
      "metar_trigger": false,
      "taf_trigger": false,
      "metar": "METAR EPKK 032300Z 25005KT CAVOK 13/08 Q1021",
      "taf": "TAF EPKK 032030Z 0321/0421 25003KT CAVOK"
    },
    {
      "icao": "EPKT",
      "alert": "OK",
      "vis_m": 9999,
      "fzfg": false,
      "metar_trigger": false,
      "taf_trigger": false,
      "metar": "METAR EPKT 032300Z 27007KT CAVOK 12/08 Q1021",
      "taf": "TAF EPKT 031730Z 0318/0418 30015KT CAVOK"
    },
    {
      "icao": "EPLB",
      "alert": "OK",
      "vis_m": 9999,
      "fzfg": false,
      "metar_trigger": false,
      "taf_trigger": false,
      "metar": "METAR EPLB 032300Z 28010KT CAVOK 17/08 Q1017",
      "taf": "TAF EPLB 031730Z 0318/0418 29014KT CAVOK"
    },
    {
      "icao": "EPMO",
      "alert": "OK",
      "vis_m": 9999,
      "fzfg": false,
      "metar_trigger": false,
      "taf_trigger": false,
      "metar": "METAR EPMO 032300Z 26011KT CAVOK 17/08 Q1017",
      "taf": "TAF EPMO 031730Z 0318/0418 29012KT CAVOK"
    },
    {
      "icao": "EPPO",
      "alert": "OK",
      "vis_m": 9999,
      "fzfg": false,
      "metar_trigger": false,
      "taf_trigger": false,
      "metar": "METAR EPPO 032300Z 29012KT CAVOK 14/08 Q1019",
      "taf": "TAF EPPO 031730Z 0318/0418 29016KT CAVOK"
    },
    {
      "icao": "EPRA",
      "alert": "OK",
      "vis_m": 9999,
      "fzfg": false,
      "metar_trigger": false,
      "taf_trigger": false,
      "metar": "METAR EPRA 032300Z 28009KT CAVOK 16/08 Q1018",
      "taf": "TAF EPRA 032030Z 0321/0406 27008KT CAVOK"
    },
    {
      "icao": "EPRZ",
      "alert": "OK",
      "vis_m": 9999,
      "fzfg": false,
      "metar_trigger": false,
      "taf_trigger": false,
      "metar": "METAR EPRZ 032300Z 26008KT CAVOK 13/08 Q1019",
      "taf": "TAF EPRZ 031730Z 0318/0418 30012KT CAVOK"
    },
    {
      "icao": "EPSC",
      "alert": "OK",
      "vis_m": 9999,
      "fzfg": false,
      "metar_trigger": false,
      "taf_trigger": false,
      "metar": "METAR EPSC 032300Z 27013KT 9999 BKN029 15/09 Q1019",
      "taf": "TAF EPSC 031730Z 0318/0418 28015KT 9999 SCT040"
    },
    {
      "icao": "EPSY",
      "alert": "OK",
      "vis_m": 9999,
      "fzfg": false,
      "metar_trigger": false,
      "taf_trigger": false,
      "metar": "METAR EPSY 032300Z 27011G22KT 230V310 9999 BKN027 15/10 Q1015",
      "taf": "TAF EPSY 032030Z 0321/0406 27012KT 9999 SCT040"
    },
    {
      "icao": "EPWA",
      "alert": "OK",
      "vis_m": 9999,
      "fzfg": false,
      "metar_trigger": false,
      "taf_trigger": false,
      "metar": "METAR EPWA 032300Z 30008KT CAVOK 17/08 Q1017 NOSIG",
      "taf": "TAF EPWA 032030Z 0321/0421 28010KT 9999 BKN040"
    },
    {
      "icao": "EPWR",
      "alert": "OK",
      "vis_m": 9999,
      "fzfg": false,
      "metar_trigger": false,
      "taf_trigger": false,
      "metar": "METAR EPWR 032300Z 27008KT 9999 FEW047 16/09 Q1021",
      "taf": "TAF EPWR 032030Z 0321/0421 28008KT CAVOK"
    },
    {
      "icao": "ESGG",
      "alert": "OK",
      "vis_m": 9999,
      "fzfg": false,
      "metar_trigger": false,
      "taf_trigger": false,
      "metar": "METAR ESGG 032250Z 24005KT CAVOK 15/12 Q1013",
      "taf": "TAF ESGG 032030Z 0321/0421 28007KT CAVOK"
    },
    {
      "icao": "ESKN",
      "alert": "OK",
      "vis_m": 9999,
      "fzfg": false,
      "metar_trigger": false,
      "taf_trigger": false,
      "metar": "METAR ESKN 032250Z 30006KT 270V340 CAVOK 14/14 Q1008",
      "taf": "TAF ESKN 032030Z 0321/0421 30010KT 9999 SCT015 BKN040"
    },
    {
      "icao": "ESMS",
      "alert": "OK",
      "vis_m": 9999,
      "fzfg": false,
      "metar_trigger": false,
      "taf_trigger": false,
      "metar": "METAR ESMS 032250Z 28016KT 9999 BKN042 14/10 Q1017",
      "taf": "TAF ESMS 032027Z 0321/0421 28020KT 9999 BKN025"
    },
    {
      "icao": "ESSA",
      "alert": "OK",
      "vis_m": 9999,
      "fzfg": false,
      "metar_trigger": false,
      "taf_trigger": false,
      "metar": "METAR ESSA 032250Z 30007KT 9999 -DZ SCT011 BKN014 13/12 Q1006 TEMPO BKN015 SCT050CB",
      "taf": "TAF ESSA 032030Z 0321/0421 33012KT 9999 BKN030"
    },
    {
      "icao": "EYKA",
      "alert": "OK",
      "vis_m": 9999,
      "fzfg": false,
      "metar_trigger": false,
      "taf_trigger": false,
      "metar": "METAR EYKA 032250Z AUTO 25010KT 9999 OVC011/// 14/13 Q1009",
      "taf": "TAF EYKA 032300Z 0400/0424 25010KT 8000 BKN010 BKN015"
    },
    {
      "icao": "EYPA",
      "alert": "OK",
      "vis_m": 9999,
      "fzfg": false,
      "metar_trigger": false,
      "taf_trigger": false,
      "metar": "METAR EYPA 032250Z 28008G18KT 220V330 9999 SCT012 SCT019 BKN039 16/15 Q1006",
      "taf": "TAF EYPA 032300Z 0400/0424 29008G18KT 8000 SCT010 BKN015"
    },
    {
      "icao": "EYVI",
      "alert": "OK",
      "vis_m": 9999,
      "fzfg": false,
      "metar_trigger": false,
      "taf_trigger": false,
      "metar": "METAR EYVI 032250Z 24011G22KT 9999 OVC019 15/11 Q1010 NOSIG",
      "taf": "TAF EYVI 032300Z 0400/0424 24010KT 8000 SCT010 BKN015"
    },
    {
      "icao": "GCFV",
      "alert": "OK",
      "vis_m": 9999,
      "fzfg": false,
      "metar_trigger": false,
      "taf_trigger": false,
      "metar": "METAR GCFV 032300Z AUTO 26007KT 210V300 CAVOK 23/17 Q1016",
      "taf": "TAF GCFV 032000Z 0321/0421 VRB04KT 9999 FEW020 TX28/0414Z TN21/0406Z"
    },
    {
      "icao": "GCLP",
      "alert": "OK",
      "vis_m": 9999,
      "fzfg": false,
      "metar_trigger": false,
      "taf_trigger": false,
      "metar": "METAR GCLP 032300Z 03008KT 360V060 9999 BKN022 23/19 Q1017 NOSIG",
      "taf": "TAF GCLP 032000Z 0321/0421 35005KT 9999 SCT018 TX27/0414Z TN21/0406Z"
    },
    {
      "icao": "GCTS",
      "alert": "OK",
      "vis_m": 9999,
      "fzfg": false,
      "metar_trigger": false,
      "taf_trigger": false,
      "metar": "METAR GCTS 032300Z 12004KT 100V160 9999 SCT025 23/19 Q1017 NOSIG",
      "taf": "TAF GCTS 032000Z 0321/0421 06006KT 9999 SCT020 TX28/0414Z TN22/0406Z"
    },
    {
      "icao": "GMAD",
      "alert": "OK",
      "vis_m": 6000,
      "fzfg": false,
      "metar_trigger": false,
      "taf_trigger": false,
      "metar": "METAR GMAD 032300Z 05007KT 350V090 6000 FEW020 FEW030CB 30/16 Q1014 NOSIG",
      "taf": "TAF GMAD 031700Z 0318/0424 22008KT 6000 SCT020 SCT100"
    },
    {
      "icao": "GMMN",
      "alert": "OK",
      "vis_m": 9999,
      "fzfg": false,
      "metar_trigger": false,
      "taf_trigger": false,
      "metar": "METAR GMMN 032300Z 16004KT CAVOK 26/16 Q1016 NOSIG",
      "taf": "TAF GMMN 031700Z 0318/0424 35008KT CAVOK"
    },
    {
      "icao": "GMMX",
      "alert": "OK",
      "vis_m": 8000,
      "fzfg": false,
      "metar_trigger": false,
      "taf_trigger": false,
      "metar": "METAR GMMX 032300Z 22004KT 190V260 8000 FEW033 33/12 Q1018 NOSIG",
      "taf": "TAF GMMX 031700Z 0318/0424 24006KT 8000 SCT033 SCT080"
    },
    {
      "icao": "HEGN",
      "alert": "OK",
      "vis_m": 9999,
      "fzfg": false,
      "metar_trigger": false,
      "taf_trigger": false,
      "metar": "METAR HEGN 032200Z 29010KT CAVOK 30/07 Q1007 NOSIG",
      "taf": "TAF HEGN 032300Z 0400/0506 30012KT CAVOK"
    },
    {
      "icao": "HEMA",
      "alert": "OK",
      "vis_m": 9999,
      "fzfg": false,
      "metar_trigger": false,
      "taf_trigger": false,
      "metar": "METAR HEMA 032200Z 29009KT CAVOK 30/08 Q1007 NOSIG",
      "taf": "TAF HEMA 032300Z 0400/0506 31012KT CAVOK"
    },
    {
      "icao": "HESH",
      "alert": "OK",
      "vis_m": 9999,
      "fzfg": false,
      "metar_trigger": false,
      "taf_trigger": false,
      "metar": "METAR HESH 032200Z 35012KT CAVOK 33/12 Q1006 NOSIG",
      "taf": "TAF HESH 032300Z 0400/0506 33015KT CAVOK"
    },
    {
      "icao": "HESX",
      "alert": "OK",
      "vis_m": 9999,
      "fzfg": false,
      "metar_trigger": false,
      "taf_trigger": false,
      "metar": "METAR HESX 032200Z 34005KT CAVOK 24/19 Q1011 NOSIG",
      "taf": "TAF HESX 032300Z 0400/0506 34010KT CAVOK"
    },
    {
      "icao": "LATI",
      "alert": "OK",
      "vis_m": 9999,
      "fzfg": false,
      "metar_trigger": false,
      "taf_trigger": false,
      "metar": "METAR LATI 032250Z VRB02KT CAVOK 22/17 Q1013 NOSIG",
      "taf": "TAF LATI 031700Z 0318/0418 VRB05KT CAVOK TX36/0412Z TN21/0404Z"
    },
    {
      "icao": "LBPD",
      "alert": "OK",
      "vis_m": 9999,
      "fzfg": false,
      "metar_trigger": false,
      "taf_trigger": false,
      "metar": "METAR LBPD 032300Z AUTO 28009KT 9999 FEW079/// BKN170/// OVC230/// 23/18 Q1014",
      "taf": ""
    },
    {
      "icao": "LBSF",
      "alert": "OK",
      "vis_m": 9999,
      "fzfg": false,
      "metar_trigger": false,
      "taf_trigger": false,
      "metar": "METAR LBSF 032300Z AUTO 29009KT 9999 NCD 20/14 Q1017 NOSIG",
      "taf": "TAF LBSF 031700Z 0318/0418 30012KT 9999 SCT050"
    },
    {
      "icao": "LBWN",
      "alert": "OK",
      "vis_m": 9999,
      "fzfg": false,
      "metar_trigger": false,
      "taf_trigger": false,
      "metar": "METAR LBWN 032300Z AUTO 26007KT 210V310 9999 NSC 22/18 Q1011 NOSIG",
      "taf": "TAF LBWN 031700Z 0318/0418 34010KT 9999 SCT030 SCT045"
    },
    {
      "icao": "LCLK",
      "alert": "OK",
      "vis_m": 9999,
      "fzfg": false,
      "metar_trigger": false,
      "taf_trigger": false,
      "metar": "METAR LCLK 032300Z 21004KT CAVOK 25/24 Q1006 NOSIG",
      "taf": "TAF LCLK 031730Z 0318/0418 22006KT CAVOK"
    },
    {
      "icao": "LCPH",
      "alert": "OK",
      "vis_m": 9999,
      "fzfg": false,
      "metar_trigger": false,
      "taf_trigger": false,
      "metar": "METAR LCPH 032300Z 01004KT 010V080 9999 SCT014 24/21 Q1006 TEMPO BKN014",
      "taf": "TAF LCPH 031730Z 0318/0418 34007KT 9999 SCT016"
    },
    {
      "icao": "LEAL",
      "alert": "OK",
      "vis_m": 9999,
      "fzfg": false,
      "metar_trigger": false,
      "taf_trigger": false,
      "metar": "METAR LEAL 032300Z 28004KT CAVOK 25/15 Q1023 NOSIG",
      "taf": "TAF LEAL 031700Z 0318/0418 15009KT CAVOK TX33/0412Z TN21/0406Z"
    },
    {
      "icao": "LEBB",
      "alert": "OK",
      "vis_m": 9999,
      "fzfg": false,
      "metar_trigger": false,
      "taf_trigger": false,
      "metar": "METAR LEBB 032300Z VRB01KT 9999 FEW020 BKN034 22/19 Q1028 NOSIG",
      "taf": "TAF LEBB 031700Z 0318/0418 VRB03KT 9999 SCT025 BKN030 TX29/0412Z TN18/0401Z"
    },
    {
      "icao": "LEBL",
      "alert": "OK",
      "vis_m": 9999,
      "fzfg": false,
      "metar_trigger": false,
      "taf_trigger": false,
      "metar": "METAR LEBL 032300Z 33005KT CAVOK 26/16 Q1023 NOSIG",
      "taf": "TAF LEBL 031700Z 0318/0418 20009KT CAVOK TX30/0413Z TN24/0406Z"
    },
    {
      "icao": "LECH",
      "alert": "OK",
      "vis_m": 9999,
      "fzfg": false,
      "metar_trigger": false,
      "taf_trigger": false,
      "metar": "METAR LECH 032300Z AUTO 02003KT 350V050 CAVOK 22/15 Q1025",
      "taf": "TAF LECH 031700Z 0318/0418 22008KT CAVOK TX33/0412Z TN19/0406Z"
    },
    {
      "icao": "LEMD",
      "alert": "OK",
      "vis_m": 9999,
      "fzfg": false,
      "metar_trigger": false,
      "taf_trigger": false,
      "metar": "METAR LEMD 032300Z 34005KT 260V040 CAVOK 28/10 Q1024 NOSIG",
      "taf": "TAF LEMD 031700Z 0318/0424 VRB04KT CAVOK TX39/0416Z TN20/0405Z"
    },
    {
      "icao": "LEMG",
      "alert": "OK",
      "vis_m": 9999,
      "fzfg": false,
      "metar_trigger": false,
      "taf_trigger": false,
      "metar": "METAR LEMG 032300Z 22003KT CAVOK 24/15 Q1023 NOSIG",
      "taf": "TAF LEMG 031700Z 0318/0418 12011KT 9999 FEW035 TX31/0414Z TN21/0405Z"
    },
    {
      "icao": "LEVC",
      "alert": "OK",
      "vis_m": 9999,
      "fzfg": false,
      "metar_trigger": false,
      "taf_trigger": false,
      "metar": "METAR LEVC 032300Z 34006KT CAVOK 27/16 Q1022 NOSIG",
      "taf": "TAF LEVC 031700Z 0318/0418 13009KT CAVOK TX34/0412Z TN22/0406Z"
    },
    {
      "icao": "LEXJ",
      "alert": "OK",
      "vis_m": 9999,
      "fzfg": false,
      "metar_trigger": false,
      "taf_trigger": false,
      "metar": "METAR LEXJ 032300Z AUTO 13004KT 9999 OVC027 21/18 Q1028",
      "taf": "TAF LEXJ 032000Z 0321/0421 VRB03KT 9999 FEW015 SCT020 TX26/0412Z TN16/0405Z"
    },
    {
      "icao": "LEZG",
      "alert": "OK",
      "vis_m": 9999,
      "fzfg": false,
      "metar_trigger": false,
      "taf_trigger": false,
      "metar": "METAR LEZG 032300Z 29021KT 250V320 CAVOK 23/15 Q1024 NOSIG",
      "taf": "TAF LEZG 031700Z 0318/0418 30015KT CAVOK TX36/0414Z TN19/0406Z"
    },
    {
      "icao": "LEZL",
      "alert": "OK",
      "vis_m": 9999,
      "fzfg": false,
      "metar_trigger": false,
      "taf_trigger": false,
      "metar": "METAR LEZL 032300Z 04003KT 010V080 CAVOK 30/10 Q1019 NOSIG",
      "taf": "TAF LEZL 032000Z 0321/0421 21010KT CAVOK TX42/0415Z TN25/0405Z"
    },
    {
      "icao": "LFBD",
      "alert": "OK",
      "vis_m": 9999,
      "fzfg": false,
      "metar_trigger": false,
      "taf_trigger": false,
      "metar": "METAR LFBD 032300Z AUTO 30003KT CAVOK 20/16 Q1027 NOSIG",
      "taf": "TAF LFBD 031700Z 0318/0424 30010KT CAVOK TX35/0415Z TN17/0405Z"
    },
    {
      "icao": "LFLL",
      "alert": "OK",
      "vis_m": 9999,
      "fzfg": false,
      "metar_trigger": false,
      "taf_trigger": false,
      "metar": "METAR LFLL 032300Z 33008KT CAVOK 22/09 Q1025 NOSIG",
      "taf": "TAF LFLL 031700Z 0318/0424 35012KT CAVOK"
    },
    {
      "icao": "LFLS",
      "alert": "OK",
      "vis_m": 9999,
      "fzfg": false,
      "metar_trigger": false,
      "taf_trigger": false,
      "metar": "METAR LFLS 032300Z AUTO 36012KT CAVOK 22/08 Q1025",
      "taf": "TAF LFLS 031400Z 0315/0415 35015KT CAVOK"
    },
    {
      "icao": "LFMN",
      "alert": "OK",
      "vis_m": 9999,
      "fzfg": false,
      "metar_trigger": false,
      "taf_trigger": false,
      "metar": "METAR LFMN 032300Z 32007KT 9999 FEW100 27/13 Q1019 NOSIG",
      "taf": "TAF LFMN 032000Z 0321/0503 VRB05KT CAVOK"
    },
    {
      "icao": "LFOB",
      "alert": "OK",
      "vis_m": 9999,
      "fzfg": false,
      "metar_trigger": false,
      "taf_trigger": false,
      "metar": "METAR LFOB 032300Z AUTO 31005KT CAVOK 11/08 Q1029 NOSIG",
      "taf": "TAF LFOB 031700Z 0318/0418 33010KT CAVOK"
    },
    {
      "icao": "LFPO",
      "alert": "OK",
      "vis_m": 9999,
      "fzfg": false,
      "metar_trigger": false,
      "taf_trigger": false,
      "metar": "METAR LFPO 032300Z AUTO 33007KT CAVOK 19/06 Q1028 NOSIG",
      "taf": "TAF LFPO 031700Z 0318/0424 33008KT CAVOK"
    },
    {
      "icao": "LFSB",
      "alert": "OK",
      "vis_m": 9999,
      "fzfg": false,
      "metar_trigger": false,
      "taf_trigger": false,
      "metar": "METAR LFSB 032300Z AUTO 24004KT CAVOK 16/09 Q1026 NOSIG",
      "taf": "TAF LFSB 031700Z 0318/0418 35008KT CAVOK"
    },
    {
      "icao": "LGAV",
      "alert": "OK",
      "vis_m": 9999,
      "fzfg": false,
      "metar_trigger": false,
      "taf_trigger": false,
      "metar": "METAR LGAV 032250Z VRB02KT 9999 FEW025 26/17 Q1012 NOSIG",
      "taf": "TAF LGAV 032300Z 0400/0424 VRB05KT 9999 FEW025"
    },
    {
      "icao": "LGTS",
      "alert": "OK",
      "vis_m": 9999,
      "fzfg": false,
      "metar_trigger": false,
      "taf_trigger": false,
      "metar": "METAR LGTS 032250Z 32015KT 9999 FEW025 27/16 Q1012 NOSIG",
      "taf": "TAF LGTS 032300Z 0400/0424 33015KT 9999 FEW030"
    },
    {
      "icao": "LHBP",
      "alert": "OK",
      "vis_m": 9999,
      "fzfg": false,
      "metar_trigger": false,
      "taf_trigger": false,
      "metar": "METAR LHBP 032300Z 35006KT CAVOK 18/07 Q1021 NOSIG",
      "taf": "TAF LHBP 031715Z 0318/0418 31014G26KT CAVOK"
    },
    {
      "icao": "LHDC",
      "alert": "OK",
      "vis_m": 9999,
      "fzfg": false,
      "metar_trigger": false,
      "taf_trigger": false,
      "metar": "METAR LHDC 032245Z AUTO 01009KT 340V040 CAVOK 20/08 Q1019",
      "taf": "TAF LHDC 031415Z 0315/0324 35012G22KT CAVOK"
    },
    {
      "icao": "LIBD",
      "alert": "OK",
      "vis_m": 9999,
      "fzfg": false,
      "metar_trigger": false,
      "taf_trigger": false,
      "metar": "METAR LIBD 032250Z 28007KT CAVOK 26/15 Q1015",
      "taf": "TAF LIBD 031700Z 0318/0418 35010KT 9999 FEW030"
    },
    {
      "icao": "LIBG",
      "alert": "OK",
      "vis_m": 9999,
      "fzfg": false,
      "metar_trigger": false,
      "taf_trigger": false,
      "metar": "METAR LIBG 032250Z AUTO 33007KT 9999 NCD 26/17 Q1014",
      "taf": "TAF LIBG 031700Z 0318/0418 35015KT 9999 FEW030"
    },
    {
      "icao": "LIBP",
      "alert": "OK",
      "vis_m": 9999,
      "fzfg": false,
      "metar_trigger": false,
      "taf_trigger": false,
      "metar": "METAR LIBP 032250Z AUTO 25005KT 9999 NCD 21/15 Q1019",
      "taf": "TAF LIBP 031700Z 0318/0418 01010KT 9999 FEW040"
    },
    {
      "icao": "LIBR",
      "alert": "OK",
      "vis_m": 9999,
      "fzfg": false,
      "metar_trigger": false,
      "taf_trigger": false,
      "metar": "METAR LIBR 032250Z 33012KT CAVOK 27/22 Q1014",
      "taf": "TAF LIBR 031700Z 0318/0418 33013KT 9999 FEW030"
    },
    {
      "icao": "LICA",
      "alert": "OK",
      "vis_m": 9999,
      "fzfg": false,
      "metar_trigger": false,
      "taf_trigger": false,
      "metar": "METAR LICA 032250Z AUTO 28003KT 9999 BKN024/// 25/22 Q1016",
      "taf": "TAF LICA 031700Z 0318/0418 25010KT 9999 FEW030"
    },
    {
      "icao": "LICC",
      "alert": "OK",
      "vis_m": 9999,
      "fzfg": false,
      "metar_trigger": false,
      "taf_trigger": false,
      "metar": "METAR LICC 032220Z 27005KT CAVOK 24/18 Q1015",
      "taf": "TAF LICC 031700Z 0318/0418 VRB05KT 9999 FEW040"
    },
    {
      "icao": "LICJ",
      "alert": "OK",
      "vis_m": 9999,
      "fzfg": false,
      "metar_trigger": false,
      "taf_trigger": false,
      "metar": "METAR LICJ 032250Z 06005KT 9999 FEW030 26/21 Q1017",
      "taf": "TAF LICJ 031700Z 0318/0418 01010KT 9999 FEW030"
    },
    {
      "icao": "LIMC",
      "alert": "OK",
      "vis_m": 9999,
      "fzfg": false,
      "metar_trigger": false,
      "taf_trigger": false,
      "metar": "METAR LIMC 032250Z 36003KT CAVOK 24/14 Q1020 NOSIG",
      "taf": "TAF LIMC 031700Z 0318/0424 VRB05KT 9999 FEW070"
    },
    {
      "icao": "LIME",
      "alert": "OK",
      "vis_m": 9999,
      "fzfg": false,
      "metar_trigger": false,
      "taf_trigger": false,
      "metar": "METAR LIME 032250Z 01006KT CAVOK 24/15 Q1020 NOSIG",
      "taf": "TAF LIME 031700Z 0318/0418 VRB05KT 9999 FEW070"
    },
    {
      "icao": "LIMF",
      "alert": "OK",
      "vis_m": 9999,
      "fzfg": false,
      "metar_trigger": false,
      "taf_trigger": false,
      "metar": "METAR LIMF 032250Z 16003KT CAVOK 23/14 Q1020",
      "taf": "TAF LIMF 031700Z 0318/0418 VRB05KT 9999 FEW090"
    },
    {
      "icao": "LIMJ",
      "alert": "OK",
      "vis_m": 9999,
      "fzfg": false,
      "metar_trigger": false,
      "taf_trigger": false,
      "metar": "METAR LIMJ 032250Z 06006KT CAVOK 27/15 Q1018",
      "taf": "TAF LIMJ 031700Z 0318/0418 VRB05KT CAVOK"
    },
    {
      "icao": "LIPE",
      "alert": "OK",
      "vis_m": 9999,
      "fzfg": false,
      "metar_trigger": false,
      "taf_trigger": false,
      "metar": "METAR LIPE 032250Z 19008KT CAVOK 24/15 Q1019",
      "taf": "TAF LIPE 031700Z 0318/0418 VRB05KT CAVOK"
    },
    {
      "icao": "LIPH",
      "alert": "OK",
      "vis_m": 9999,
      "fzfg": false,
      "metar_trigger": false,
      "taf_trigger": false,
      "metar": "METAR LIPH 032250Z AUTO VRB01KT 9999 BKN092/// 25/18 Q1019",
      "taf": "TAF LIPH 031700Z 0318/0418 VRB05KT 9999 FEW030"
    },
    {
      "icao": "LIPQ",
      "alert": "OK",
      "vis_m": 9999,
      "fzfg": false,
      "metar_trigger": false,
      "taf_trigger": false,
      "metar": "METAR LIPQ 032250Z AUTO 11010KT 9999 BKN077/// 25/14 Q1019",
      "taf": "TAF LIPQ 031700Z 0318/0418 VRB05KT CAVOK"
    },
    {
      "icao": "LIPR",
      "alert": "OK",
      "vis_m": 9999,
      "fzfg": false,
      "metar_trigger": false,
      "taf_trigger": false,
      "metar": "METAR LIPR 032250Z AUTO 22003KT 9999 NCD 22/14 Q1019",
      "taf": "TAF LIPR 031700Z 0318/0418 VRB05KT CAVOK"
    },
    {
      "icao": "LIPX",
      "alert": "OK",
      "vis_m": 9999,
      "fzfg": false,
      "metar_trigger": false,
      "taf_trigger": false,
      "metar": "METAR LIPX 032250Z 34003KT 300V360 CAVOK 25/18 Q1019",
      "taf": "TAF LIPX 031700Z 0318/0418 VRB05KT 9999 FEW080"
    },
    {
      "icao": "LIPY",
      "alert": "OK",
      "vis_m": 9999,
      "fzfg": false,
      "metar_trigger": false,
      "taf_trigger": false,
      "metar": "METAR LIPY 032250Z AUTO 22003KT 9999 NCD 21/17 Q1019",
      "taf": "TAF LIPY 031700Z 0318/0418 35010KT CAVOK"
    },
    {
      "icao": "LIPZ",
      "alert": "OK",
      "vis_m": 9999,
      "fzfg": false,
      "metar_trigger": false,
      "taf_trigger": false,
      "metar": "METAR LIPZ 032250Z VRB01KT CAVOK 25/21 Q1019 NOSIG",
      "taf": "TAF LIPZ 031700Z 0318/0424 VRB05KT CAVOK"
    },
    {
      "icao": "LIRF",
      "alert": "OK",
      "vis_m": 9999,
      "fzfg": false,
      "metar_trigger": false,
      "taf_trigger": false,
      "metar": "METAR LIRF 032250Z 04005KT CAVOK 24/15 Q1016 NOSIG",
      "taf": "TAF LIRF 031700Z 0318/0424 30014KT CAVOK"
    },
    {
      "icao": "LIRN",
      "alert": "OK",
      "vis_m": 9999,
      "fzfg": false,
      "metar_trigger": false,
      "taf_trigger": false,
      "metar": "METAR LIRN 032250Z 03006KT CAVOK 26/12 Q1017 NOSIG",
      "taf": "TAF LIRN 031700Z 0318/0418 VRB05KT 9999 FEW030"
    },
    {
      "icao": "LIRP",
      "alert": "OK",
      "vis_m": 9999,
      "fzfg": false,
      "metar_trigger": false,
      "taf_trigger": false,
      "metar": "METAR LIRP 032245Z 17004KT CAVOK 21/17 Q1019 NOSIG",
      "taf": "TAF LIRP 031700Z 0318/0418 32012KT 9999 FEW035"
    },
    {
      "icao": "LIRZ",
      "alert": "OK",
      "vis_m": 9999,
      "fzfg": false,
      "metar_trigger": false,
      "taf_trigger": false,
      "metar": "METAR LIRZ 032250Z AUTO 29004KT 250V010 9999 NCD 21/13 Q1020",
      "taf": "TAF LIRZ 031700Z 0318/0418 02013KT CAVOK"
    },
    {
      "icao": "LJLJ",
      "alert": "OK",
      "vis_m": 9999,
      "fzfg": false,
      "metar_trigger": false,
      "taf_trigger": false,
      "metar": "METAR LJLJ 032300Z 36004KT 320V030 9999 FEW070 16/13 Q1023 NOSIG",
      "taf": "TAF LJLJ 032300Z 0400/0500 32004KT CAVOK"
    },
    {
      "icao": "LKMT",
      "alert": "OK",
      "vis_m": 9999,
      "fzfg": false,
      "metar_trigger": false,
      "taf_trigger": false,
      "metar": "METAR LKMT 032300Z 20005KT CAVOK 14/08 Q1022 NOSIG",
      "taf": "TAF LKMT 031700Z 0318/0418 32008KT CAVOK"
    },
    {
      "icao": "LKPR",
      "alert": "OK",
      "vis_m": 9999,
      "fzfg": false,
      "metar_trigger": false,
      "taf_trigger": false,
      "metar": "METAR LKPR 032300Z 26007KT CAVOK 12/09 Q1024 NOSIG",
      "taf": "TAF LKPR 032000Z 0321/0503 31010KT CAVOK"
    },
    {
      "icao": "LLBG",
      "alert": "OK",
      "vis_m": 9999,
      "fzfg": false,
      "metar_trigger": false,
      "taf_trigger": false,
      "metar": "METAR LLBG 032250Z 15006KT 9999 BKN020 25/22 Q1009 NOSIG",
      "taf": "TAF LLBG 032307Z 0400/0424 VRB04KT 9999 SCT020 TX30/0412Z TN24/0403Z"
    },
    {
      "icao": "LMML",
      "alert": "OK",
      "vis_m": 9999,
      "fzfg": false,
      "metar_trigger": false,
      "taf_trigger": false,
      "metar": "METAR LMML 032245Z 28005KT 250V320 9999 FEW020 23/20 Q1016 NOSIG",
      "taf": "TAF LMML 032300Z 0400/0424 32009KT 9999 FEW020"
    },
    {
      "icao": "LOWW",
      "alert": "OK",
      "vis_m": 9999,
      "fzfg": false,
      "metar_trigger": false,
      "taf_trigger": false,
      "metar": "METAR LOWW 032250Z 32008KT CAVOK 18/07 Q1023 NOSIG",
      "taf": "TAF LOWW 032015Z 0321/0503 36007KT CAVOK TX26/0414Z TN15/0403Z"
    },
    {
      "icao": "LPFR",
      "alert": "OK",
      "vis_m": 9999,
      "fzfg": false,
      "metar_trigger": false,
      "taf_trigger": false,
      "metar": "METAR LPFR 032300Z 07010KT CAVOK 29/11 Q1019",
      "taf": "TAF LPFR 031700Z 0318/0418 09010KT CAVOK"
    },
    {
      "icao": "LPMA",
      "alert": "OK",
      "vis_m": 9999,
      "fzfg": false,
      "metar_trigger": false,
      "taf_trigger": false,
      "metar": "METAR LPMA 032300Z 23003KT CAVOK 22/18 Q1016",
      "taf": "TAF LPMA 031700Z 0318/0418 VRB05KT 9999 FEW015"
    },
    {
      "icao": "LPPR",
      "alert": "OK",
      "vis_m": 9999,
      "fzfg": false,
      "metar_trigger": false,
      "taf_trigger": false,
      "metar": "METAR LPPR 032300Z VRB02KT CAVOK 26/14 Q1019",
      "taf": "TAF LPPR 031700Z 0318/0418 33010KT CAVOK"
    },
    {
      "icao": "LPPS",
      "alert": "OK",
      "vis_m": 9999,
      "fzfg": false,
      "metar_trigger": false,
      "taf_trigger": false,
      "metar": "METAR LPPS 032300Z 33006KT CAVOK 22/20 Q1017",
      "taf": "TAF LPPS 031700Z 0318/0424 35013KT 9999 SCT008 SCT015"
    },
    {
      "icao": "LPPT",
      "alert": "OK",
      "vis_m": 9999,
      "fzfg": false,
      "metar_trigger": false,
      "taf_trigger": false,
      "metar": "METAR LPPT 032300Z 30009KT CAVOK 27/15 Q1019 NOSIG",
      "taf": "TAF LPPT 031700Z 0318/0424 32010KT CAVOK"
    },
    {
      "icao": "LQBK",
      "alert": "OK",
      "vis_m": 9999,
      "fzfg": false,
      "metar_trigger": false,
      "taf_trigger": false,
      "metar": "METAR LQBK 032300Z VRB02KT CAVOK 17/14 Q1021 NOSIG",
      "taf": "TAF LQBK 032300Z 0400/0424 19005KT CAVOK TX28/0413Z TN13/0403Z"
    },
    {
      "icao": "LQSA",
      "alert": "OK",
      "vis_m": 9999,
      "fzfg": false,
      "metar_trigger": false,
      "taf_trigger": false,
      "metar": "METAR LQSA 032300Z 30006KT CAVOK 19/15 Q1022",
      "taf": "TAF LQSA 032300Z 0400/0424 29005KT 9999 SCT055 TX27/0413Z TN13/0403Z"
    },
    {
      "icao": "LQTZ",
      "alert": "OK",
      "vis_m": 9999,
      "fzfg": false,
      "metar_trigger": false,
      "taf_trigger": false,
      "metar": "METAR LQTZ 032300Z VRB01KT CAVOK 18/15 Q1021",
      "taf": "TAF LQTZ 032300Z 0400/0424 27005KT CAVOK TX27/0413Z TN14/0403Z"
    },
    {
      "icao": "LRBC",
      "alert": "OK",
      "vis_m": 9999,
      "fzfg": false,
      "metar_trigger": false,
      "taf_trigger": false,
      "metar": "METAR LRBC 032300Z 33015KT 9999 OVC039 19/15 Q1015",
      "taf": "TAF LRBC 032000Z 0321/0406 35014KT 9999 SCT040"
    },
    {
      "icao": "LRBS",
      "alert": "OK",
      "vis_m": 9999,
      "fzfg": false,
      "metar_trigger": false,
      "taf_trigger": false,
      "metar": "METAR LRBS 032300Z 18005KT 150V220 9999 -TSRA FEW025 FEW045CB 21/20 Q1013 RESHRA NOSIG",
      "taf": "TAF LRBS 031700Z 0318/0418 VRB04KT 9999 SCT045"
    },
    {
      "icao": "LRBV",
      "alert": "OK",
      "vis_m": 9999,
      "fzfg": false,
      "metar_trigger": false,
      "taf_trigger": false,
      "metar": "METAR LRBV 032300Z AUTO VRB03KT 9999 FEW014/// SCT022/// BKN052/// 17/16 Q1017",
      "taf": "TAF LRBV 032000Z 0321/0406 30009KT 9999 BKN050"
    },
    {
      "icao": "LRCL",
      "alert": "OK",
      "vis_m": 9999,
      "fzfg": false,
      "metar_trigger": false,
      "taf_trigger": false,
      "metar": "METAR LRCL 032300Z COR 25009KT 220V280 9999 BKN062 20/13 Q1017",
      "taf": "TAF LRCL 032000Z 0321/0406 31010KT 9999 SCT045"
    },
    {
      "icao": "LRCV",
      "alert": "OK",
      "vis_m": 9999,
      "fzfg": false,
      "metar_trigger": false,
      "taf_trigger": false,
      "metar": "METAR LRCV 032300Z 30005KT 9999 FEW049 22/18 Q1014",
      "taf": "TAF LRCV 032000Z 0321/0406 32007KT 9999 SCT045"
    },
    {
      "icao": "LRIA",
      "alert": "OK",
      "vis_m": 9999,
      "fzfg": false,
      "metar_trigger": false,
      "taf_trigger": false,
      "metar": "METAR LRIA 032300Z 29012KT CAVOK 18/16 Q1014",
      "taf": "TAF LRIA 032000Z 0321/0406 31016KT 9999 SCT045"
    },
    {
      "icao": "LROP",
      "alert": "OK",
      "vis_m": 9999,
      "fzfg": false,
      "metar_trigger": false,
      "taf_trigger": false,
      "metar": "METAR LROP 032300Z 22003KT 9999 VCTS FEW050CB 21/20 Q1013 NOSIG",
      "taf": "TAF LROP 031700Z 0318/0418 VRB04KT 9999 SCT045"
    },
    {
      "icao": "LRSB",
      "alert": "OK",
      "vis_m": 9999,
      "fzfg": false,
      "metar_trigger": false,
      "taf_trigger": false,
      "metar": "METAR LRSB 032300Z 27004KT CAVOK 17/16 Q1017",
      "taf": "TAF LRSB 031700Z 0318/0418 27007KT 9999 FEW040CB"
    },
    {
      "icao": "LRSM",
      "alert": "OK",
      "vis_m": 9999,
      "fzfg": false,
      "metar_trigger": false,
      "taf_trigger": false,
      "metar": "METAR LRSM 032300Z AUTO 34009KT 9999 NCD 17/09 Q1018",
      "taf": "TAF LRSM 031400Z 0315/0324 34015KT CAVOK"
    },
    {
      "icao": "LRSV",
      "alert": "OK",
      "vis_m": 9999,
      "fzfg": false,
      "metar_trigger": false,
      "taf_trigger": false,
      "metar": "METAR LRSV 032300Z 29006KT 9999 FEW045 16/14 Q1017",
      "taf": "TAF LRSV 032000Z 0321/0406 27015KT 9999 SCT035"
    },
    {
      "icao": "LRTM",
      "alert": "OK",
      "vis_m": 9999,
      "fzfg": false,
      "metar_trigger": false,
      "taf_trigger": false,
      "metar": "METAR LRTM 032300Z 25003KT 9999 FEW045 18/17 Q1017",
      "taf": "TAF LRTM 032000Z 0321/0406 VRB04KT 9999 SCT040"
    },
    {
      "icao": "LRTR",
      "alert": "OK",
      "vis_m": 9999,
      "fzfg": false,
      "metar_trigger": false,
      "taf_trigger": false,
      "metar": "METAR LRTR 032300Z 01012KT CAVOK 22/13 Q1016",
      "taf": "TAF LRTR 031700Z 0318/0418 35008KT CAVOK"
    },
    {
      "icao": "LTAC",
      "alert": "OK",
      "vis_m": 9999,
      "fzfg": false,
      "metar_trigger": false,
      "taf_trigger": false,
      "metar": "METAR LTAC 032250Z 06004KT 030V090 CAVOK 17/09 Q1013 NOSIG",
      "taf": "TAF LTAC 032240Z 0400/0424 VRB02KT CAVOK"
    },
    {
      "icao": "LTFM",
      "alert": "OK",
      "vis_m": 9999,
      "fzfg": false,
      "metar_trigger": false,
      "taf_trigger": false,
      "metar": "METAR LTFM 032250Z 32006KT 280V340 CAVOK 25/19 Q1011 NOSIG",
      "taf": "TAF LTFM 032240Z 0400/0506 VRB02KT 9999 FEW040"
    },
    {
      "icao": "LUKK",
      "alert": "OK",
      "vis_m": 9999,
      "fzfg": false,
      "metar_trigger": false,
      "taf_trigger": false,
      "metar": "METAR LUKK 032300Z 35019KT CAVOK 20/14 Q1012 TEMPO 34028G30KT SCT030CB",
      "taf": "TAF LUKK 031704Z 0318/0418 33012KT 9999 SCT030"
    },
    {
      "icao": "LWOH",
      "alert": "OK",
      "vis_m": 9999,
      "fzfg": false,
      "metar_trigger": false,
      "taf_trigger": false,
      "metar": "METAR LWOH 032250Z 36006KT 320V040 9999 FEW035 19/14 Q1019",
      "taf": "TAF LWOH 032020Z 0321/0421 34010KT 9999 FEW035 SCT070"
    },
    {
      "icao": "LWSK",
      "alert": "OK",
      "vis_m": 9999,
      "fzfg": false,
      "metar_trigger": false,
      "taf_trigger": false,
      "metar": "METAR LWSK 032250Z VRB01KT CAVOK 20/15 Q1017 NOSIG",
      "taf": "TAF LWSK 032020Z 0321/0421 02008KT 9999 SCT070"
    },
    {
      "icao": "LYBE",
      "alert": "OK",
      "vis_m": 9999,
      "fzfg": false,
      "metar_trigger": false,
      "taf_trigger": false,
      "metar": "METAR LYBE 032300Z 32009KT CAVOK 22/07 Q1019 NOSIG",
      "taf": "TAF LYBE 031700Z 0318/0418 32008KT CAVOK TX28/0318Z TN16/0403Z"
    },
    {
      "icao": "LYNI",
      "alert": "OK",
      "vis_m": 9999,
      "fzfg": false,
      "metar_trigger": false,
      "taf_trigger": false,
      "metar": "METAR LYNI 032300Z 10003KT 070V130 CAVOK 18/17 Q1017 NOSIG",
      "taf": "TAF LYNI 031700Z 0318/0418 30008KT 9999 SCT030 BKN050 TX26/0413Z TN18/0403Z"
    },
    {
      "icao": "LYPG",
      "alert": "OK",
      "vis_m": 9999,
      "fzfg": false,
      "metar_trigger": false,
      "taf_trigger": false,
      "metar": "METAR LYPG 032300Z 35010KT CAVOK 27/11 Q1015 NOSIG",
      "taf": "TAF LYPG 031700Z 0318/0418 36017KT CAVOK TX33/0413Z TN25/0403Z"
    },
    {
      "icao": "LZIB",
      "alert": "OK",
      "vis_m": 9999,
      "fzfg": false,
      "metar_trigger": false,
      "taf_trigger": false,
      "metar": "METAR LZIB 032300Z 32007KT CAVOK 19/07 Q1022 NOSIG",
      "taf": ""
    },
    {
      "icao": "LZKZ",
      "alert": "OK",
      "vis_m": 9999,
      "fzfg": false,
      "metar_trigger": false,
      "taf_trigger": false,
      "metar": "METAR LZKZ 032300Z 30004KT CAVOK 16/07 Q1020 NOSIG",
      "taf": ""
    },
    {
      "icao": "LZTT",
      "alert": "OK",
      "vis_m": 9999,
      "fzfg": false,
      "metar_trigger": false,
      "taf_trigger": false,
      "metar": "METAR LZTT 032300Z VRB02KT 9999 FEW056 10/05 Q1021",
      "taf": ""
    },
    {
      "icao": "OEJN",
      "alert": "OK",
      "vis_m": 9999,
      "fzfg": false,
      "metar_trigger": false,
      "taf_trigger": false,
      "metar": "METAR OEJN 032300Z 33004KT CAVOK 30/20 Q1003 NOSIG",
      "taf": "TAF OEJN 032300Z 0400/0506 02006KT CAVOK"
    },
    {
      "icao": "OEMA",
      "alert": "OK",
      "vis_m": 9999,
      "fzfg": false,
      "metar_trigger": false,
      "taf_trigger": false,
      "metar": "METAR OEMA 032300Z 28011KT CAVOK 37/M01 Q1009 NOSIG",
      "taf": "TAF OEMA 032300Z 0400/0506 VRB03KT CAVOK"
    },
    {
      "icao": "OJAI",
      "alert": "OK",
      "vis_m": 4000,
      "fzfg": false,
      "metar_trigger": false,
      "taf_trigger": false,
      "metar": "METAR OJAI 032300Z 31004KT 4000 HZ NSC 18/13 Q1012 NOSIG",
      "taf": "TAF OJAI 032217Z 0400/0506 28010KT 4000 DU NSC"
    },
    {
      "icao": "OMAA",
      "alert": "OK",
      "vis_m": 8000,
      "fzfg": false,
      "metar_trigger": false,
      "taf_trigger": false,
      "metar": "METAR OMAA 032300Z 33003KT 280V020 8000 NSC 32/29 Q0998 NOSIG",
      "taf": "TAF OMAA 032300Z 0400/0506 VRB02KT 7000 NSC"
    },
    {
      "icao": "OMDB",
      "alert": "OK",
      "vis_m": 9999,
      "fzfg": false,
      "metar_trigger": false,
      "taf_trigger": false,
      "metar": "METAR OMDB 032300Z 05007KT 010V080 CAVOK 37/21 Q0998 NOSIG",
      "taf": "TAF OMDB 032300Z 0400/0506 04005KT 8000 NSC"
    },
    {
      "icao": "UAAA",
      "alert": "OK",
      "vis_m": 5000,
      "fzfg": false,
      "metar_trigger": false,
      "taf_trigger": false,
      "metar": "METAR UAAA 032300Z 01002MPS 5000 BR SCT050 BKN200 13/13 Q1009 NOSIG",
      "taf": ""
    },
    {
      "icao": "UBBB",
      "alert": "OK",
      "vis_m": 9999,
      "fzfg": false,
      "metar_trigger": false,
      "taf_trigger": false,
      "metar": "METAR UBBB 032300Z 11004KT CAVOK 23/20 Q1006 NOSIG",
      "taf": "TAF UBBB 032257Z 0400/0424 VRB04KT 9999 SCT040 TX31/0410Z TN21/0401Z"
    },
    {
      "icao": "UDSG",
      "alert": "OK",
      "vis_m": 9999,
      "fzfg": false,
      "metar_trigger": false,
      "taf_trigger": false,
      "metar": "METAR UDSG 032300Z 36006KT 9999 SCT046CB 15/11 Q1015 NOSIG",
      "taf": "TAF UDSG 031700Z 0318/0418 03006KT 9999 SCT040"
    },
    {
      "icao": "UDYZ",
      "alert": "OK",
      "vis_m": 9999,
      "fzfg": false,
      "metar_trigger": false,
      "taf_trigger": false,
      "metar": "METAR UDYZ 032300Z 36003KT 310V050 9999 VCTS -SHRA BKN043CB 19/16 Q1010 NOSIG",
      "taf": "TAF UDYZ 031700Z 0318/0418 04006KT 9999 SCT040"
    },
    {
      "icao": "UGKO",
      "alert": "OK",
      "vis_m": 9999,
      "fzfg": false,
      "metar_trigger": false,
      "taf_trigger": false,
      "metar": "METAR UGKO 032300Z VRB02KT 9999 BKN076 21/20 Q1008 NOSIG",
      "taf": "TAF UGKO 032300Z 0400/0424 26007KT 9999 BKN060 TX28/0412Z TN20/0402Z"
    }
  ]
}