{
  "ts_utc": "2026-07-19T06:30:46Z",
  "threshold_m": 150,
  "source": "stations_override.txt (ICAO list) + aviationweather.gov (METAR/TAF raw)",
  "station_count": 159,
  "stations": [
    {
      "icao": "BIKF",
      "alert": "OK",
      "vis_m": 4000,
      "fzfg": false,
      "metar_trigger": false,
      "taf_trigger": false,
      "metar": "METAR BIKF 190600Z 23011KT 4000 BR OVC002 10/10 Q1025",
      "taf": "TAF BIKF 190433Z 1906/2006 24012KT 9999 -DZ OVC010 TX12/1915Z TN10/1906Z"
    },
    {
      "icao": "BKPR",
      "alert": "OK",
      "vis_m": null,
      "fzfg": false,
      "metar_trigger": false,
      "taf_trigger": false,
      "metar": "",
      "taf": "TAF BKPR 190530Z 1906/2006 27008KT 9999 SCT050"
    },
    {
      "icao": "EBCI",
      "alert": "OK",
      "vis_m": 9999,
      "fzfg": false,
      "metar_trigger": false,
      "taf_trigger": false,
      "metar": "METAR EBCI 190620Z 31003KT 270V350 9999 BKN039 14/12 Q1021 NOSIG",
      "taf": "TAF EBCI 190500Z 1906/2012 33008KT 9999 SCT045"
    },
    {
      "icao": "EDDB",
      "alert": "OK",
      "vis_m": 9999,
      "fzfg": false,
      "metar_trigger": false,
      "taf_trigger": false,
      "metar": "METAR EDDB 190620Z AUTO 26006KT CAVOK 17/11 Q1013 NOSIG",
      "taf": "TAF EDDB 190500Z 1906/2006 27006KT CAVOK"
    },
    {
      "icao": "EDDH",
      "alert": "OK",
      "vis_m": 9999,
      "fzfg": false,
      "metar_trigger": false,
      "taf_trigger": false,
      "metar": "METAR EDDH 190620Z AUTO 27005KT 240V300 9999 BKN006 BKN030 15/13 Q1012 BECMG SCT006",
      "taf": "TAF EDDH 190500Z 1906/2012 32007KT 9999 SCT030"
    },
    {
      "icao": "EDDK",
      "alert": "OK",
      "vis_m": 9999,
      "fzfg": false,
      "metar_trigger": false,
      "taf_trigger": false,
      "metar": "METAR EDDK 190620Z AUTO 32009KT 290V360 9999 FEW022 SCT038 BKN048 16/10 Q1018 NOSIG",
      "taf": "TAF EDDK 190500Z 1906/2012 32006KT CAVOK"
    },
    {
      "icao": "EDDN",
      "alert": "OK",
      "vis_m": 9999,
      "fzfg": false,
      "metar_trigger": false,
      "taf_trigger": false,
      "metar": "METAR EDDN 190620Z AUTO 30008KT 9999 BKN008 OVC044 16/15 Q1016 BECMG BKN012",
      "taf": "TAF EDDN 190500Z 1906/2006 31006KT 9999 FEW012 SCT025"
    },
    {
      "icao": "EDDS",
      "alert": "OK",
      "vis_m": 9999,
      "fzfg": false,
      "metar_trigger": false,
      "taf_trigger": false,
      "metar": "METAR EDDS 190620Z AUTO 29008KT 9999 SHRA FEW010 BKN030 BKN045 FEW///TCU 15/13 Q1017 NOSIG",
      "taf": "TAF EDDS 190500Z 1906/2006 30005KT 9999 BKN010"
    },
    {
      "icao": "EDFH",
      "alert": "OK",
      "vis_m": 9999,
      "fzfg": false,
      "metar_trigger": false,
      "taf_trigger": false,
      "metar": "METAR EDFH 190620Z 31008KT 280V350 9999 FEW010 13/10 Q1019",
      "taf": "TAF EDFH 190500Z 1906/2006 32007KT 9999 SCT020"
    },
    {
      "icao": "EDJA",
      "alert": "OK",
      "vis_m": 9999,
      "fzfg": false,
      "metar_trigger": false,
      "taf_trigger": false,
      "metar": "METAR EDJA 190620Z 26007KT 9999 SCT011 BKN024 BKN048 16/14 Q1017",
      "taf": "TAF EDJA 190500Z 1906/1915 27007KT 9999 SCT025 BKN045"
    },
    {
      "icao": "EDLW",
      "alert": "OK",
      "vis_m": 9999,
      "fzfg": false,
      "metar_trigger": false,
      "taf_trigger": false,
      "metar": "METAR EDLW 190620Z 23009KT CAVOK 14/12 Q1017",
      "taf": "TAF EDLW 190500Z 1906/2006 25005KT 9999 FEW030"
    },
    {
      "icao": "EDNY",
      "alert": "OK",
      "vis_m": 9999,
      "fzfg": false,
      "metar_trigger": false,
      "taf_trigger": false,
      "metar": "METAR EDNY 190620Z 28005KT 200V340 9999 FEW020 BKN032 18/15 Q1017",
      "taf": "TAF EDNY 190500Z 1906/1915 VRB03KT 9999 FEW020 BKN045"
    },
    {
      "icao": "EDSB",
      "alert": "OK",
      "vis_m": 9999,
      "fzfg": false,
      "metar_trigger": false,
      "taf_trigger": false,
      "metar": "METAR EDSB 190620Z 07005KT 9999 FEW027 SCT036 OVC047 17/14 Q1017",
      "taf": "TAF EDSB 190500Z 1906/2006 02005KT 9999 BKN025"
    },
    {
      "icao": "EETN",
      "alert": "OK",
      "vis_m": 9999,
      "fzfg": false,
      "metar_trigger": false,
      "taf_trigger": false,
      "metar": "METAR EETN 190620Z 26013KT 9999 OVC011 18/16 Q1004 BECMG BKN015",
      "taf": "TAF EETN 190530Z 1906/2006 25014KT 9999 BKN010 OVC020"
    },
    {
      "icao": "EFTU",
      "alert": "OK",
      "vis_m": 9999,
      "fzfg": false,
      "metar_trigger": false,
      "taf_trigger": false,
      "metar": "METAR EFTU 190620Z AUTO 34007KT 300V020 9999 OVC009 13/12 Q1005",
      "taf": "TAF EFTU 190536Z 1906/2006 33008KT 9999 BKN004"
    },
    {
      "icao": "EGBB",
      "alert": "OK",
      "vis_m": 9999,
      "fzfg": false,
      "metar_trigger": false,
      "taf_trigger": false,
      "metar": "METAR EGBB 190620Z 36005KT 330V040 9999 SCT036 14/09 Q1025",
      "taf": "TAF EGBB 190501Z 1906/2006 VRB03KT 9999 SCT040"
    },
    {
      "icao": "EGGP",
      "alert": "OK",
      "vis_m": 9999,
      "fzfg": false,
      "metar_trigger": false,
      "taf_trigger": false,
      "metar": "METAR EGGP 190620Z 13005KT 090V150 9999 BKN021 14/09 Q1025",
      "taf": "TAF EGGP 190459Z 1906/2006 08006KT 9999 SCT025"
    },
    {
      "icao": "EGGW",
      "alert": "OK",
      "vis_m": 9999,
      "fzfg": false,
      "metar_trigger": false,
      "taf_trigger": false,
      "metar": "METAR EGGW 190620Z AUTO 35009KT 9999 NCD 13/08 Q1024",
      "taf": "TAF EGGW 190457Z 1906/2006 35010KT 9999 FEW040"
    },
    {
      "icao": "EGKK",
      "alert": "OK",
      "vis_m": 9999,
      "fzfg": false,
      "metar_trigger": false,
      "taf_trigger": false,
      "metar": "METAR EGKK 190620Z 03011KT CAVOK 15/09 Q1024",
      "taf": "TAF EGKK 190453Z 1906/2012 01008KT 9999 FEW040"
    },
    {
      "icao": "EGNM",
      "alert": "OK",
      "vis_m": 9999,
      "fzfg": false,
      "metar_trigger": false,
      "taf_trigger": false,
      "metar": "METAR EGNM 190620Z 36007KT 9999 SCT028 11/07 Q1025",
      "taf": "TAF EGNM 190500Z 1906/2006 01010KT 9999 SCT025"
    },
    {
      "icao": "EGPD",
      "alert": "OK",
      "vis_m": 9999,
      "fzfg": false,
      "metar_trigger": false,
      "taf_trigger": false,
      "metar": "METAR EGPD 190620Z AUTO 31010KT 9999 SCT017 11/08 Q1025",
      "taf": "TAF EGPD 190455Z 1906/2006 33012KT 9999 SCT030"
    },
    {
      "icao": "EGPF",
      "alert": "OK",
      "vis_m": 9999,
      "fzfg": false,
      "metar_trigger": false,
      "taf_trigger": false,
      "metar": "METAR EGPF 190620Z AUTO VRB02KT 9999 NCD 11/10 Q1026",
      "taf": "TAF EGPF 190455Z 1906/2006 24004KT 9999 FEW035"
    },
    {
      "icao": "EHBK",
      "alert": "OK",
      "vis_m": 9999,
      "fzfg": false,
      "metar_trigger": false,
      "taf_trigger": false,
      "metar": "METAR EHBK 190625Z AUTO 25004KT 210V280 9999 FEW031 15/11 Q1019 NOSIG",
      "taf": "TAF EHBK 190512Z 1906/2012 28007KT 9999 SCT040"
    },
    {
      "icao": "EHEH",
      "alert": "OK",
      "vis_m": 9999,
      "fzfg": false,
      "metar_trigger": false,
      "taf_trigger": false,
      "metar": "METAR EHEH 190555Z AUTO 27004KT 230V310 9999 SCT029 SCT032 BKN038 14/11 Q1019 BLU BECMG 32008KT",
      "taf": "TAF EHEH 190516Z 1906/2012 28005KT 9999 FEW025 SCT030"
    },
    {
      "icao": "EKBI",
      "alert": "OK",
      "vis_m": 9999,
      "fzfg": false,
      "metar_trigger": false,
      "taf_trigger": false,
      "metar": "METAR EKBI 190620Z AUTO 31013KT 9999 FEW024/// 15/11 Q1011",
      "taf": "TAF EKBI 190527Z 1906/2006 32012KT 9999 BKN020"
    },
    {
      "icao": "EKCH",
      "alert": "OK",
      "vis_m": 9999,
      "fzfg": false,
      "metar_trigger": false,
      "taf_trigger": false,
      "metar": "METAR EKCH 190620Z AUTO 28011KT 9999 SCT017/// BKN045/// BKN050/// 17/12 Q1008 TEMPO BKN012",
      "taf": ""
    },
    {
      "icao": "ENAL",
      "alert": "OK",
      "vis_m": 9999,
      "fzfg": false,
      "metar_trigger": false,
      "taf_trigger": false,
      "metar": "METAR ENAL 190550Z 06010KT CAVOK 12/06 Q1020",
      "taf": "TAF ENAL 190500Z 1906/1915 06012KT CAVOK"
    },
    {
      "icao": "ENBR",
      "alert": "OK",
      "vis_m": 9999,
      "fzfg": false,
      "metar_trigger": false,
      "taf_trigger": false,
      "metar": "METAR ENBR 190620Z 32005KT CAVOK 12/07 Q1015 NOSIG RMK WIND 1200FT 03005KT",
      "taf": "TAF ENBR 190500Z 1906/2006 VRB03KT CAVOK"
    },
    {
      "icao": "ENGM",
      "alert": "OK",
      "vis_m": 9999,
      "fzfg": false,
      "metar_trigger": false,
      "taf_trigger": false,
      "metar": "METAR ENGM 190620Z 02016KT CAVOK 10/03 Q1015 NOSIG",
      "taf": ""
    },
    {
      "icao": "ENHD",
      "alert": "OK",
      "vis_m": 9999,
      "fzfg": false,
      "metar_trigger": false,
      "taf_trigger": false,
      "metar": "METAR ENHD 190620Z AUTO 03004KT 350V050 9999 NCD 14/09 Q1014",
      "taf": "TAF ENHD 190500Z 1906/1915 36005KT CAVOK"
    },
    {
      "icao": "ENTC",
      "alert": "OK",
      "vis_m": 9999,
      "fzfg": false,
      "metar_trigger": false,
      "taf_trigger": false,
      "metar": "METAR ENTC 190550Z 23011KT 9999 FEW030 SCT047 BKN056 08/02 Q1013 RMK WIND 2600FT 25016KT",
      "taf": "TAF ENTC 190500Z 1906/2006 24012KT 9999 -SHRA SCT015TCU BKN030"
    },
    {
      "icao": "ENTO",
      "alert": "OK",
      "vis_m": 9999,
      "fzfg": false,
      "metar_trigger": false,
      "taf_trigger": false,
      "metar": "METAR ENTO 190620Z 36013KT 9999 -RA OVC045 09/09 Q1014 NOSIG",
      "taf": ""
    },
    {
      "icao": "ENVA",
      "alert": "OK",
      "vis_m": 9999,
      "fzfg": false,
      "metar_trigger": false,
      "taf_trigger": false,
      "metar": "METAR ENVA 190620Z 33006KT CAVOK 13/06 Q1020 NOSIG RMK WIND 670FT 33006KT",
      "taf": "TAF ENVA 190500Z 1906/2006 VRB03KT 9999 FEW045"
    },
    {
      "icao": "ENZV",
      "alert": "OK",
      "vis_m": 9999,
      "fzfg": false,
      "metar_trigger": false,
      "taf_trigger": false,
      "metar": "METAR ENZV 190620Z VRB01KT CAVOK 16/10 Q1014 NOSIG",
      "taf": "TAF ENZV 190500Z 1906/2006 VRB03KT 9999 FEW040"
    },
    {
      "icao": "EPGD",
      "alert": "OK",
      "vis_m": 9999,
      "fzfg": false,
      "metar_trigger": false,
      "taf_trigger": false,
      "metar": "METAR EPGD 190600Z 23008KT 9999 BKN040 16/13 Q1012",
      "taf": "TAF EPGD 190530Z 1906/2006 23010KT CAVOK"
    },
    {
      "icao": "EPKK",
      "alert": "OK",
      "vis_m": 9999,
      "fzfg": false,
      "metar_trigger": false,
      "taf_trigger": false,
      "metar": "METAR EPKK 190600Z VRB02KT CAVOK 20/17 Q1013",
      "taf": "TAF EPKK 190530Z 1906/2006 VRB02KT 2000 BR BKN001"
    },
    {
      "icao": "EPKT",
      "alert": "OK",
      "vis_m": 9999,
      "fzfg": false,
      "metar_trigger": false,
      "taf_trigger": false,
      "metar": "METAR EPKT 190600Z VRB02KT CAVOK 21/17 Q1013",
      "taf": "TAF EPKT 190530Z 1906/2006 VRB02KT CAVOK"
    },
    {
      "icao": "EPLB",
      "alert": "OK",
      "vis_m": 9999,
      "fzfg": false,
      "metar_trigger": false,
      "taf_trigger": false,
      "metar": "METAR EPLB 190600Z 06003KT CAVOK 21/18 Q1013",
      "taf": "TAF EPLB 190530Z 1906/2006 VRB02KT 9999 FEW040"
    },
    {
      "icao": "EPMO",
      "alert": "OK",
      "vis_m": 9999,
      "fzfg": false,
      "metar_trigger": false,
      "taf_trigger": false,
      "metar": "METAR EPMO 190600Z 22003KT 160V260 CAVOK 20/16 Q1013",
      "taf": "TAF EPMO 190530Z 1906/2006 VRB02KT 9999 FEW040"
    },
    {
      "icao": "EPPO",
      "alert": "OK",
      "vis_m": 9999,
      "fzfg": false,
      "metar_trigger": false,
      "taf_trigger": false,
      "metar": "METAR EPPO 190600Z 29005KT CAVOK 17/12 Q1013",
      "taf": "TAF EPPO 190530Z 1906/2006 VRB02KT CAVOK"
    },
    {
      "icao": "EPRA",
      "alert": "OK",
      "vis_m": 9999,
      "fzfg": false,
      "metar_trigger": false,
      "taf_trigger": false,
      "metar": "METAR EPRA 190600Z 36004KT 320V030 CAVOK 20/15 Q1013",
      "taf": "TAF EPRA 190530Z 1906/1915 VRB02KT CAVOK"
    },
    {
      "icao": "EPRZ",
      "alert": "OK",
      "vis_m": 9999,
      "fzfg": false,
      "metar_trigger": false,
      "taf_trigger": false,
      "metar": "METAR EPRZ 190600Z 26005KT CAVOK 20/18 Q1013",
      "taf": "TAF EPRZ 190530Z 1906/2006 25005KT CAVOK"
    },
    {
      "icao": "EPSC",
      "alert": "OK",
      "vis_m": 9999,
      "fzfg": false,
      "metar_trigger": false,
      "taf_trigger": false,
      "metar": "METAR EPSC 190600Z 24009KT 9999 FEW023 16/10 Q1012",
      "taf": "TAF EPSC 190530Z 1906/2006 24008KT CAVOK"
    },
    {
      "icao": "EPSY",
      "alert": "OK",
      "vis_m": 9999,
      "fzfg": false,
      "metar_trigger": false,
      "taf_trigger": false,
      "metar": "METAR EPSY 190600Z 20003KT 170V230 CAVOK 16/16 Q1012",
      "taf": "TAF EPSY 190530Z 1906/1915 VRB02KT 9999 SCT040"
    },
    {
      "icao": "EPWA",
      "alert": "OK",
      "vis_m": 9999,
      "fzfg": false,
      "metar_trigger": false,
      "taf_trigger": false,
      "metar": "METAR EPWA 190600Z VRB02KT CAVOK 21/17 Q1013 NOSIG",
      "taf": "TAF EPWA 190530Z 1906/2006 VRB02KT CAVOK"
    },
    {
      "icao": "EPWR",
      "alert": "OK",
      "vis_m": 9999,
      "fzfg": false,
      "metar_trigger": false,
      "taf_trigger": false,
      "metar": "METAR EPWR 190600Z 32003KT 290V010 CAVOK 17/14 Q1013",
      "taf": "TAF EPWR 190530Z 1906/2006 27004KT CAVOK"
    },
    {
      "icao": "ESGG",
      "alert": "OK",
      "vis_m": 4300,
      "fzfg": false,
      "metar_trigger": false,
      "taf_trigger": false,
      "metar": "METAR ESGG 190620Z 03015KT 4300 DZ SCT005 BKN012 OVC014 12/11 Q1008",
      "taf": "TAF ESGG 190530Z 1906/2006 03012G22KT 9999 -RA BKN015"
    },
    {
      "icao": "ESKN",
      "alert": "OK",
      "vis_m": 9999,
      "fzfg": false,
      "metar_trigger": false,
      "taf_trigger": false,
      "metar": "METAR ESKN 190620Z 35006KT 320V030 9999 FEW007 SCT009 BKN013 13/13 Q1007",
      "taf": "TAF ESKN 190530Z 1906/2006 01008KT 9999 -RA SCT006 BKN015"
    },
    {
      "icao": "ESMS",
      "alert": "OK",
      "vis_m": 9999,
      "fzfg": false,
      "metar_trigger": false,
      "taf_trigger": false,
      "metar": "METAR ESMS 190620Z 26007KT 9999 FEW014 SCT044 16/13 Q1008",
      "taf": "TAF ESMS 190527Z 1906/2006 24008KT 9999 BKN020"
    },
    {
      "icao": "ESSA",
      "alert": "OK",
      "vis_m": 9999,
      "fzfg": false,
      "metar_trigger": false,
      "taf_trigger": false,
      "metar": "METAR ESSA 190620Z 01014KT 9999 -RA BKN043 OVC057 13/10 Q1008 NOSIG",
      "taf": "TAF ESSA 190530Z 1906/2006 01012KT 9999 -RA BKN045"
    },
    {
      "icao": "EYKA",
      "alert": "OK",
      "vis_m": 9999,
      "fzfg": false,
      "metar_trigger": false,
      "taf_trigger": false,
      "metar": "METAR EYKA 190620Z 28009KT 9999 SCT020 19/14 Q1012",
      "taf": "TAF EYKA 190500Z 1906/2006 25010KT 9000 SCT010 BKN015"
    },
    {
      "icao": "EYPA",
      "alert": "OK",
      "vis_m": 9999,
      "fzfg": false,
      "metar_trigger": false,
      "taf_trigger": false,
      "metar": "METAR EYPA 190620Z 23007KT 200V290 9999 BKN011 OVC043 18/15 Q1009",
      "taf": "TAF EYPA 190500Z 1906/2006 23014G24KT 9000 SCT015 BKN030"
    },
    {
      "icao": "EYVI",
      "alert": "OK",
      "vis_m": 9999,
      "fzfg": false,
      "metar_trigger": false,
      "taf_trigger": false,
      "metar": "METAR EYVI 190620Z 27010KT 240V300 9999 FEW017 19/14 Q1012 NOSIG",
      "taf": "TAF EYVI 190501Z 1906/2006 27010KT 9000 BKN030"
    },
    {
      "icao": "GCFV",
      "alert": "OK",
      "vis_m": 9999,
      "fzfg": false,
      "metar_trigger": false,
      "taf_trigger": false,
      "metar": "METAR GCFV 190600Z 01011KT CAVOK 22/18 Q1014",
      "taf": "TAF GCFV 190200Z 1903/2003 02013KT 9999 FEW015 TX27/1914Z TN22/1906Z"
    },
    {
      "icao": "GCLP",
      "alert": "OK",
      "vis_m": 9999,
      "fzfg": false,
      "metar_trigger": false,
      "taf_trigger": false,
      "metar": "METAR GCLP 190600Z 35021KT 9999 FEW020 23/18 Q1014 NOSIG",
      "taf": "TAF GCLP 190200Z 1903/2003 01022KT 9999 FEW020 TX29/1914Z TN23/1906Z"
    },
    {
      "icao": "GCTS",
      "alert": "OK",
      "vis_m": 9999,
      "fzfg": false,
      "metar_trigger": false,
      "taf_trigger": false,
      "metar": "METAR GCTS 190600Z 02004KT 350V080 9999 FEW020 23/18 Q1015 NOSIG",
      "taf": "TAF GCTS 190200Z 1903/2003 08022KT 9999 FEW020 TX29/1914Z TN22/1906Z"
    },
    {
      "icao": "GMAD",
      "alert": "OK",
      "vis_m": 8000,
      "fzfg": false,
      "metar_trigger": false,
      "taf_trigger": false,
      "metar": "METAR GMAD 190600Z 25010KT 8000 NSC 21/19 Q1010 NOSIG",
      "taf": "TAF GMAD 190500Z 1906/2012 06008KT 8000 NSC"
    },
    {
      "icao": "GMMN",
      "alert": "OK",
      "vis_m": 9999,
      "fzfg": false,
      "metar_trigger": false,
      "taf_trigger": false,
      "metar": "METAR GMMN 190600Z 03008KT 360V060 9999 BKN010 21/18 Q1015 NOSIG",
      "taf": "TAF GMMN 190500Z 1906/2012 04008KT 9999 BKN010"
    },
    {
      "icao": "GMMX",
      "alert": "OK",
      "vis_m": 9999,
      "fzfg": false,
      "metar_trigger": false,
      "taf_trigger": false,
      "metar": "METAR GMMX 190600Z 27008KT 9999 SCT033 SCT100 23/18 Q1014 NOSIG",
      "taf": "TAF GMMX 190500Z 1906/2012 28006KT 8000 SCT030 SCT100"
    },
    {
      "icao": "HEGN",
      "alert": "OK",
      "vis_m": 9999,
      "fzfg": false,
      "metar_trigger": false,
      "taf_trigger": false,
      "metar": "METAR HEGN 190600Z 33008KT CAVOK 33/13 Q1009 NOSIG",
      "taf": "TAF HEGN 182300Z 1900/2006 22010KT CAVOK"
    },
    {
      "icao": "HEMA",
      "alert": "OK",
      "vis_m": 9999,
      "fzfg": false,
      "metar_trigger": false,
      "taf_trigger": false,
      "metar": "METAR HEMA 190600Z 10003KT CAVOK 36/09 Q1007 NOSIG",
      "taf": "TAF HEMA 190500Z 1906/2012 06010KT CAVOK"
    },
    {
      "icao": "HESH",
      "alert": "OK",
      "vis_m": 9999,
      "fzfg": false,
      "metar_trigger": false,
      "taf_trigger": false,
      "metar": "METAR HESH 190600Z 36006KT CAVOK 33/18 Q1008 NOSIG",
      "taf": "TAF HESH 182300Z 1900/2006 26010KT CAVOK"
    },
    {
      "icao": "HESX",
      "alert": "OK",
      "vis_m": 9999,
      "fzfg": false,
      "metar_trigger": false,
      "taf_trigger": false,
      "metar": "METAR HESX 190600Z 03005KT CAVOK 27/22 Q1009 NOSIG",
      "taf": "TAF HESX 190500Z 1906/2012 01008KT CAVOK"
    },
    {
      "icao": "LATI",
      "alert": "OK",
      "vis_m": 9999,
      "fzfg": false,
      "metar_trigger": false,
      "taf_trigger": false,
      "metar": "METAR LATI 190620Z 00000KT CAVOK 28/17 Q1012 NOSIG",
      "taf": "TAF LATI 190500Z 1906/2006 VRB05KT CAVOK TX38/1912Z TN22/2004Z"
    },
    {
      "icao": "LBPD",
      "alert": "OK",
      "vis_m": 9999,
      "fzfg": false,
      "metar_trigger": false,
      "taf_trigger": false,
      "metar": "METAR LBPD 190600Z AUTO VRB02KT 9999 NCD 24/16 Q1014 NOSIG",
      "taf": "TAF LBPD 190500Z 1906/2006 VRB04KT 9999 SCT070"
    },
    {
      "icao": "LBSF",
      "alert": "OK",
      "vis_m": 9999,
      "fzfg": false,
      "metar_trigger": false,
      "taf_trigger": false,
      "metar": "METAR LBSF 190600Z VRB02KT CAVOK 22/17 Q1016 NOSIG",
      "taf": "TAF LBSF 190500Z 1906/2006 VRB04KT 9999 SCT060"
    },
    {
      "icao": "LBWN",
      "alert": "OK",
      "vis_m": 9999,
      "fzfg": false,
      "metar_trigger": false,
      "taf_trigger": false,
      "metar": "METAR LBWN 190600Z AUTO 15005KT 9999 NSC 26/19 Q1013 NOSIG",
      "taf": "TAF LBWN 190500Z 1906/2006 VRB03KT CAVOK"
    },
    {
      "icao": "LCLK",
      "alert": "OK",
      "vis_m": 9999,
      "fzfg": false,
      "metar_trigger": false,
      "taf_trigger": false,
      "metar": "METAR LCLK 190600Z VRB02KT 9999 FEW020 31/24 Q1008 NOSIG",
      "taf": "TAF LCLK 190530Z 1906/2006 30006KT 9999 FEW025"
    },
    {
      "icao": "LCPH",
      "alert": "OK",
      "vis_m": 9999,
      "fzfg": false,
      "metar_trigger": false,
      "taf_trigger": false,
      "metar": "METAR LCPH 190600Z 25005KT 230V320 9999 FEW010 29/24 Q1008 NOSIG",
      "taf": "TAF LCPH 190530Z 1906/2006 23006KT 9999 FEW020"
    },
    {
      "icao": "LEAL",
      "alert": "OK",
      "vis_m": 9999,
      "fzfg": false,
      "metar_trigger": false,
      "taf_trigger": false,
      "metar": "METAR LEAL 190600Z 27004KT 230V310 CAVOK 27/26 Q1012 NOSIG",
      "taf": "TAF LEAL 190500Z 1906/2006 VRB04KT 9999 FEW025 TX33/1916Z TN26/2005Z"
    },
    {
      "icao": "LEBB",
      "alert": "OK",
      "vis_m": 9999,
      "fzfg": false,
      "metar_trigger": false,
      "taf_trigger": false,
      "metar": "METAR LEBB 190600Z 08003KT 040V140 9999 FEW017 SCT022 22/20 Q1016 NOSIG",
      "taf": "TAF LEBB 190500Z 1906/2006 VRB03KT 9999 FEW020 SCT030 TX29/1912Z TN20/1906Z"
    },
    {
      "icao": "LEBL",
      "alert": "OK",
      "vis_m": 9000,
      "fzfg": false,
      "metar_trigger": false,
      "taf_trigger": false,
      "metar": "METAR LEBL 190600Z 33006KT 9000 NSC 26/21 Q1013 NOSIG",
      "taf": "TAF LEBL 190500Z 1906/2006 35007KT CAVOK TX33/1912Z TN25/1906Z"
    },
    {
      "icao": "LECH",
      "alert": "OK",
      "vis_m": 7000,
      "fzfg": false,
      "metar_trigger": false,
      "taf_trigger": false,
      "metar": "METAR LECH 190600Z AUTO VRB02KT 7000 FEW007 OVC021 24/23 Q1014",
      "taf": "TAF LECH 190500Z 1906/2006 VRB04KT 9999 FEW035 TX35/1913Z TN25/2005Z"
    },
    {
      "icao": "LEMD",
      "alert": "OK",
      "vis_m": 9999,
      "fzfg": false,
      "metar_trigger": false,
      "taf_trigger": false,
      "metar": "METAR LEMD 190600Z 02004KT CAVOK 18/03 Q1016 NOSIG",
      "taf": "TAF LEMD 190500Z 1906/2012 VRB03KT CAVOK TX37/1916Z TN17/2005Z"
    },
    {
      "icao": "LEMG",
      "alert": "OK",
      "vis_m": 9999,
      "fzfg": false,
      "metar_trigger": false,
      "taf_trigger": false,
      "metar": "METAR LEMG 190600Z 30007KT 9999 FEW070 24/11 Q1012 NOSIG",
      "taf": "TAF LEMG 190500Z 1906/2006 29005KT CAVOK TX33/1915Z TN23/2005Z"
    },
    {
      "icao": "LEVC",
      "alert": "OK",
      "vis_m": 9999,
      "fzfg": false,
      "metar_trigger": false,
      "taf_trigger": false,
      "metar": "METAR LEVC 190600Z 32003KT 290V020 9999 BKN018 OVC025 27/23 Q1012 NOSIG",
      "taf": "TAF LEVC 190500Z 1906/2006 VRB04KT 9999 FEW020 TX34/1913Z TN24/2005Z"
    },
    {
      "icao": "LEXJ",
      "alert": "OK",
      "vis_m": 9000,
      "fzfg": false,
      "metar_trigger": false,
      "taf_trigger": false,
      "metar": "METAR LEXJ 190600Z VRB01KT 9000 BKN055 20/19 Q1016",
      "taf": "TAF LEXJ 190200Z 1903/2003 VRB03KT 9999 FEW025 TX29/1913Z TN19/1905Z"
    },
    {
      "icao": "LEZG",
      "alert": "OK",
      "vis_m": 9999,
      "fzfg": false,
      "metar_trigger": false,
      "taf_trigger": false,
      "metar": "METAR LEZG 190600Z 28009KT 250V320 CAVOK 22/16 Q1015 NOSIG",
      "taf": "TAF LEZG 190500Z 1906/2006 30010KT CAVOK TX39/1914Z TN23/2005Z"
    },
    {
      "icao": "LEZL",
      "alert": "OK",
      "vis_m": 9999,
      "fzfg": false,
      "metar_trigger": false,
      "taf_trigger": false,
      "metar": "METAR LEZL 190600Z 00000KT CAVOK 20/16 Q1013 NOSIG",
      "taf": "TAF LEZL 190200Z 1903/2003 VRB03KT CAVOK TX37/1915Z TN20/1905Z"
    },
    {
      "icao": "LFBD",
      "alert": "OK",
      "vis_m": 9999,
      "fzfg": false,
      "metar_trigger": false,
      "taf_trigger": false,
      "metar": "METAR LFBD 190600Z AUTO 05005KT CAVOK 22/16 Q1015 NOSIG",
      "taf": "TAF LFBD 190500Z 1906/2012 VRB03KT CAVOK TX36/1915Z TN20/1906Z"
    },
    {
      "icao": "LFLL",
      "alert": "OK",
      "vis_m": 9999,
      "fzfg": false,
      "metar_trigger": false,
      "taf_trigger": false,
      "metar": "METAR LFLL 190600Z 35006KT CAVOK 21/15 Q1016 NOSIG",
      "taf": "TAF LFLL 190500Z 1906/2012 36008KT CAVOK"
    },
    {
      "icao": "LFLS",
      "alert": "OK",
      "vis_m": 9999,
      "fzfg": false,
      "metar_trigger": false,
      "taf_trigger": false,
      "metar": "METAR LFLS 190600Z AUTO VRB01KT CAVOK 20/16 Q1016 NOSIG",
      "taf": "TAF LFLS 190200Z 1903/2003 07005KT CAVOK"
    },
    {
      "icao": "LFMN",
      "alert": "OK",
      "vis_m": 9999,
      "fzfg": false,
      "metar_trigger": false,
      "taf_trigger": false,
      "metar": "METAR LFMN 190600Z 34007KT 9999 SCT012 SCT260 27/12 Q1011 NOSIG",
      "taf": "TAF LFMN 190200Z 1903/2009 33006KT CAVOK"
    },
    {
      "icao": "LFOB",
      "alert": "OK",
      "vis_m": 9999,
      "fzfg": false,
      "metar_trigger": false,
      "taf_trigger": false,
      "metar": "METAR LFOB 190600Z AUTO 34005KT CAVOK 14/12 Q1021 NOSIG",
      "taf": "TAF LFOB 190500Z 1906/2006 35009KT 9999 SCT030"
    },
    {
      "icao": "LFPO",
      "alert": "OK",
      "vis_m": 9999,
      "fzfg": false,
      "metar_trigger": false,
      "taf_trigger": false,
      "metar": "METAR LFPO 190600Z 04010KT 9999 FEW016 16/11 Q1021 NOSIG",
      "taf": "TAF LFPO 190500Z 1906/2012 02008KT CAVOK"
    },
    {
      "icao": "LFSB",
      "alert": "OK",
      "vis_m": 9999,
      "fzfg": false,
      "metar_trigger": false,
      "taf_trigger": false,
      "metar": "METAR LFSB 190600Z AUTO 20004KT 9999 ///CB 17/13 Q1017 TEMPO 4000 TSRA BKN013",
      "taf": "TAF LFSB 190500Z 1906/2006 33006KT 9999 FEW035 BKN080"
    },
    {
      "icao": "LGAV",
      "alert": "OK",
      "vis_m": 9999,
      "fzfg": false,
      "metar_trigger": false,
      "taf_trigger": false,
      "metar": "METAR LGAV 190620Z 04008KT 360V060 CAVOK 30/14 Q1012 NOSIG",
      "taf": "TAF LGAV 190500Z 1906/2006 02010KT 9999 FEW025"
    },
    {
      "icao": "LGTS",
      "alert": "OK",
      "vis_m": 9999,
      "fzfg": false,
      "metar_trigger": false,
      "taf_trigger": false,
      "metar": "METAR LGTS 190620Z VRB03KT CAVOK 27/23 Q1012 NOSIG",
      "taf": "TAF LGTS 190500Z 1906/2006 VRB03KT 9999 FEW030"
    },
    {
      "icao": "LHBP",
      "alert": "OK",
      "vis_m": 9999,
      "fzfg": false,
      "metar_trigger": false,
      "taf_trigger": false,
      "metar": "METAR LHBP 190600Z 18004KT 150V220 9999 -SHRA FEW050TCU BKN070 24/15 Q1013 NOSIG",
      "taf": "TAF LHBP 190515Z 1906/2006 VRB03KT CAVOK"
    },
    {
      "icao": "LHDC",
      "alert": "OK",
      "vis_m": 9999,
      "fzfg": false,
      "metar_trigger": false,
      "taf_trigger": false,
      "metar": "METAR LHDC 190545Z AUTO 01006KT 330V050 CAVOK 24/16 Q1012 NOSIG",
      "taf": "TAF LHDC 190515Z 1906/1915 33008KT CAVOK"
    },
    {
      "icao": "LIBD",
      "alert": "OK",
      "vis_m": 9999,
      "fzfg": false,
      "metar_trigger": false,
      "taf_trigger": false,
      "metar": "METAR LIBD 190620Z 14003KT 050V210 CAVOK 31/17 Q1011",
      "taf": "TAF LIBD 190500Z 1906/2006 VRB05KT CAVOK"
    },
    {
      "icao": "LIBG",
      "alert": "OK",
      "vis_m": 9999,
      "fzfg": false,
      "metar_trigger": false,
      "taf_trigger": false,
      "metar": "METAR LIBG 190620Z 11003KT 070V150 CAVOK 32/16 Q1012",
      "taf": "TAF LIBG 190500Z 1906/2006 VRB05KT CAVOK"
    },
    {
      "icao": "LIBP",
      "alert": "OK",
      "vis_m": 9999,
      "fzfg": false,
      "metar_trigger": false,
      "taf_trigger": false,
      "metar": "METAR LIBP 190620Z AUTO 23005KT 9999 NCD 27/21 Q1011",
      "taf": "TAF LIBP 190500Z 1906/2006 23005KT CAVOK"
    },
    {
      "icao": "LIBR",
      "alert": "OK",
      "vis_m": 9999,
      "fzfg": false,
      "metar_trigger": false,
      "taf_trigger": false,
      "metar": "METAR LIBR 190620Z VRB02KT CAVOK 29/25 Q1012",
      "taf": "TAF LIBR 190500Z 1906/2006 VRB05KT CAVOK"
    },
    {
      "icao": "LICA",
      "alert": "OK",
      "vis_m": 9999,
      "fzfg": false,
      "metar_trigger": false,
      "taf_trigger": false,
      "metar": "METAR LICA 190620Z AUTO VRB01KT 9999 NCD 27/22 Q1013",
      "taf": "TAF LICA 190500Z 1906/2006 VRB05KT CAVOK"
    },
    {
      "icao": "LICC",
      "alert": "OK",
      "vis_m": 9999,
      "fzfg": false,
      "metar_trigger": false,
      "taf_trigger": false,
      "metar": "METAR LICC 190620Z 22003KT CAVOK 31/17 Q1012",
      "taf": "TAF LICC 190500Z 1906/2006 VRB05KT CAVOK"
    },
    {
      "icao": "LICJ",
      "alert": "OK",
      "vis_m": 9999,
      "fzfg": false,
      "metar_trigger": false,
      "taf_trigger": false,
      "metar": "METAR LICJ 190620Z 04004KT 350V090 CAVOK 30/24 Q1012",
      "taf": "TAF LICJ 190500Z 1906/2006 VRB05KT CAVOK"
    },
    {
      "icao": "LIMC",
      "alert": "OK",
      "vis_m": 9999,
      "fzfg": false,
      "metar_trigger": false,
      "taf_trigger": false,
      "metar": "METAR LIMC 190620Z 06004KT 030V100 CAVOK 23/18 Q1014 NOSIG",
      "taf": "TAF LIMC 190500Z 1906/2012 VRB05KT 9999 SCT040"
    },
    {
      "icao": "LIME",
      "alert": "OK",
      "vis_m": 9999,
      "fzfg": false,
      "metar_trigger": false,
      "taf_trigger": false,
      "metar": "METAR LIME 190620Z VRB02KT 9999 FEW055 22/18 Q1013 NOSIG",
      "taf": "TAF LIME 190500Z 1906/2006 VRB05KT 9999 SCT050"
    },
    {
      "icao": "LIMF",
      "alert": "OK",
      "vis_m": 9999,
      "fzfg": false,
      "metar_trigger": false,
      "taf_trigger": false,
      "metar": "METAR LIMF 190620Z 04007KT CAVOK 24/17 Q1014",
      "taf": "TAF LIMF 190500Z 1906/2006 VRB05KT 9999 FEW040"
    },
    {
      "icao": "LIMJ",
      "alert": "OK",
      "vis_m": 9999,
      "fzfg": false,
      "metar_trigger": false,
      "taf_trigger": false,
      "metar": "METAR LIMJ 190620Z 06004KT CAVOK 29/22 Q1011",
      "taf": "TAF LIMJ 190500Z 1906/2006 VRB05KT 9999 SCT030"
    },
    {
      "icao": "LIPE",
      "alert": "OK",
      "vis_m": 9999,
      "fzfg": false,
      "metar_trigger": false,
      "taf_trigger": false,
      "metar": "METAR LIPE 190620Z VRB02KT CAVOK 23/18 Q1012",
      "taf": "TAF LIPE 190500Z 1906/2006 VRB05KT 9999 SCT030"
    },
    {
      "icao": "LIPH",
      "alert": "OK",
      "vis_m": 9999,
      "fzfg": false,
      "metar_trigger": false,
      "taf_trigger": false,
      "metar": "METAR LIPH 190620Z 34003KT 300V030 CAVOK 25/19 Q1012",
      "taf": "TAF LIPH 190500Z 1906/2006 VRB05KT CAVOK"
    },
    {
      "icao": "LIPQ",
      "alert": "OK",
      "vis_m": 9999,
      "fzfg": false,
      "metar_trigger": false,
      "taf_trigger": false,
      "metar": "METAR LIPQ 190620Z AUTO VRB02KT 9999 FEW140/// 24/18 Q1011",
      "taf": "TAF LIPQ 190500Z 1906/2006 VRB05KT CAVOK"
    },
    {
      "icao": "LIPR",
      "alert": "OK",
      "vis_m": 9999,
      "fzfg": false,
      "metar_trigger": false,
      "taf_trigger": false,
      "metar": "METAR LIPR 190620Z 17004KT 140V200 CAVOK 26/21 Q1011",
      "taf": "TAF LIPR 190500Z 1906/2006 VRB05KT CAVOK"
    },
    {
      "icao": "LIPX",
      "alert": "OK",
      "vis_m": 9999,
      "fzfg": false,
      "metar_trigger": false,
      "taf_trigger": false,
      "metar": "METAR LIPX 190620Z VRB02KT CAVOK 23/20 Q1012",
      "taf": "TAF LIPX 190500Z 1906/2006 VRB05KT 9999 FEW050"
    },
    {
      "icao": "LIPY",
      "alert": "OK",
      "vis_m": 9999,
      "fzfg": false,
      "metar_trigger": false,
      "taf_trigger": false,
      "metar": "METAR LIPY 190620Z AUTO 26003KT 220V320 9999 NCD 28/21 Q1011",
      "taf": "TAF LIPY 190500Z 1906/2006 VRB06KT CAVOK"
    },
    {
      "icao": "LIPZ",
      "alert": "OK",
      "vis_m": 9999,
      "fzfg": false,
      "metar_trigger": false,
      "taf_trigger": false,
      "metar": "METAR LIPZ 190620Z 01005KT 330V030 CAVOK 25/18 Q1011 NOSIG",
      "taf": "TAF LIPZ 190500Z 1906/2012 VRB05KT 9999 SCT040"
    },
    {
      "icao": "LIRF",
      "alert": "OK",
      "vis_m": 7000,
      "fzfg": false,
      "metar_trigger": false,
      "taf_trigger": false,
      "metar": "METAR LIRF 190620Z 14007KT 110V180 7000 SCT007 28/26 Q1011 NOSIG",
      "taf": "TAF LIRF 190500Z 1906/2012 VRB05KT CAVOK"
    },
    {
      "icao": "LIRN",
      "alert": "OK",
      "vis_m": 9000,
      "fzfg": false,
      "metar_trigger": false,
      "taf_trigger": false,
      "metar": "METAR LIRN 190550Z VRB02KT 9000 FEW030 28/24 Q1013 NOSIG",
      "taf": "TAF LIRN 190500Z 1906/2006 VRB05KT CAVOK"
    },
    {
      "icao": "LIRP",
      "alert": "OK",
      "vis_m": 9999,
      "fzfg": false,
      "metar_trigger": false,
      "taf_trigger": false,
      "metar": "METAR LIRP 190615Z 12002KT 9999 FEW020 SCT030 25/22 Q1011 NOSIG",
      "taf": "TAF LIRP 190500Z 1906/2006 VRB03KT 9999 FEW025 SCT030"
    },
    {
      "icao": "LIRZ",
      "alert": "OK",
      "vis_m": 9999,
      "fzfg": false,
      "metar_trigger": false,
      "taf_trigger": false,
      "metar": "METAR LIRZ 190620Z AUTO 02003KT 340V040 9999 NCD 27/20 Q1013",
      "taf": "TAF LIRZ 190500Z 1906/2006 VRB05KT CAVOK"
    },
    {
      "icao": "LJLJ",
      "alert": "OK",
      "vis_m": 9999,
      "fzfg": false,
      "metar_trigger": false,
      "taf_trigger": false,
      "metar": "METAR LJLJ 190600Z VRB02KT 9999 FEW002 18/16 Q1015 NOSIG",
      "taf": "TAF LJLJ 190500Z 1906/2006 30004KT 9999 FEW010"
    },
    {
      "icao": "LKMT",
      "alert": "OK",
      "vis_m": 9999,
      "fzfg": false,
      "metar_trigger": false,
      "taf_trigger": false,
      "metar": "METAR LKMT 190600Z VRB02KT CAVOK 18/15 Q1013 NOSIG",
      "taf": "TAF LKMT 190500Z 1906/2006 20004KT CAVOK"
    },
    {
      "icao": "LKPR",
      "alert": "OK",
      "vis_m": 8000,
      "fzfg": false,
      "metar_trigger": false,
      "taf_trigger": false,
      "metar": "METAR LKPR 190600Z 25007KT 8000 -SHRA FEW015 SCT030CB 14/14 Q1014 BECMG 9999 NSW SCT035",
      "taf": "TAF LKPR 190500Z 1906/2012 32008KT 9999 SCT020 BKN030"
    },
    {
      "icao": "LLBG",
      "alert": "OK",
      "vis_m": 9999,
      "fzfg": false,
      "metar_trigger": false,
      "taf_trigger": false,
      "metar": "METAR LLBG 190620Z VRB03KT CAVOK 31/14 Q1009 NOSIG",
      "taf": "TAF LLBG 190500Z 1906/2006 VRB04KT CAVOK TX36/1911Z TN23/2003Z"
    },
    {
      "icao": "LMML",
      "alert": "OK",
      "vis_m": 9999,
      "fzfg": false,
      "metar_trigger": false,
      "taf_trigger": false,
      "metar": "METAR LMML 190615Z 33005KT CAVOK 32/23 Q1012 NOSIG",
      "taf": "TAF LMML 190500Z 1906/2006 VRB05KT CAVOK"
    },
    {
      "icao": "LOWW",
      "alert": "OK",
      "vis_m": 9999,
      "fzfg": false,
      "metar_trigger": false,
      "taf_trigger": false,
      "metar": "METAR LOWW 190620Z 32006KT 280V350 CAVOK 24/13 Q1013 NOSIG",
      "taf": "TAF LOWW 190515Z 1906/2012 29012KT CAVOK TX26/1910Z TN14/2003Z"
    },
    {
      "icao": "LPFR",
      "alert": "OK",
      "vis_m": 9999,
      "fzfg": false,
      "metar_trigger": false,
      "taf_trigger": false,
      "metar": "METAR LPFR 190600Z 28003KT CAVOK 20/16 Q1014",
      "taf": "TAF LPFR 190500Z 1906/2006 VRB02KT CAVOK"
    },
    {
      "icao": "LPMA",
      "alert": "OK",
      "vis_m": 9999,
      "fzfg": false,
      "metar_trigger": false,
      "taf_trigger": false,
      "metar": "METAR LPMA 190600Z 01009KT 320V040 9999 FEW015 22/16 Q1019",
      "taf": "TAF LPMA 190500Z 1906/2006 02010KT 9999 SCT015"
    },
    {
      "icao": "LPPR",
      "alert": "OK",
      "vis_m": 9000,
      "fzfg": false,
      "metar_trigger": false,
      "taf_trigger": false,
      "metar": "METAR LPPR 190600Z 21006KT 9000 SCT007 BKN018 20/19 Q1015",
      "taf": "TAF LPPR 190500Z 1906/2006 19007KT 9999 SCT020"
    },
    {
      "icao": "LPPS",
      "alert": "OK",
      "vis_m": 9999,
      "fzfg": false,
      "metar_trigger": false,
      "taf_trigger": false,
      "metar": "METAR LPPS 190600Z 02009KT 9999 FEW012 22/18 Q1019",
      "taf": "TAF LPPS 190500Z 1906/2012 02010KT 9999 SCT015"
    },
    {
      "icao": "LPPT",
      "alert": "OK",
      "vis_m": 9999,
      "fzfg": false,
      "metar_trigger": false,
      "taf_trigger": false,
      "metar": "METAR LPPT 190600Z VRB02KT 9999 FEW012 19/16 Q1016 NOSIG",
      "taf": "TAF LPPT 190500Z 1906/2012 32010KT 9999 SCT030"
    },
    {
      "icao": "LQBK",
      "alert": "OK",
      "vis_m": 9999,
      "fzfg": false,
      "metar_trigger": false,
      "taf_trigger": false,
      "metar": "METAR LQBK 190600Z VRB02KT 9999 FEW023 BKN043 23/18 Q1013 NOSIG",
      "taf": ""
    },
    {
      "icao": "LQSA",
      "alert": "OK",
      "vis_m": 9999,
      "fzfg": false,
      "metar_trigger": false,
      "taf_trigger": false,
      "metar": "METAR LQSA 190600Z VRB04KT 9999 FEW010 SCT040 19/17 Q1015 NOSIG",
      "taf": "TAF LQSA 190500Z 1906/2006 VRB02KT CAVOK TX34/1913Z TN18/2004Z"
    },
    {
      "icao": "LQTZ",
      "alert": "OK",
      "vis_m": 1300,
      "fzfg": false,
      "metar_trigger": false,
      "taf_trigger": false,
      "metar": "METAR LQTZ 190600Z 27004KT 1300 R09/P2000U BR BKN002 18/18 Q1014",
      "taf": "TAF LQTZ 190500Z 1906/2006 27005KT 9999 SCT045 TX31/1912Z TN14/2003Z"
    },
    {
      "icao": "LRBC",
      "alert": "OK",
      "vis_m": 9999,
      "fzfg": false,
      "metar_trigger": false,
      "taf_trigger": false,
      "metar": "METAR LRBC 190600Z 35003KT 240V050 CAVOK 24/19 Q1013",
      "taf": "TAF LRBC 190500Z 1906/1915 VRB04KT CAVOK"
    },
    {
      "icao": "LRBS",
      "alert": "OK",
      "vis_m": 9999,
      "fzfg": false,
      "metar_trigger": false,
      "taf_trigger": false,
      "metar": "METAR LRBS 190600Z VRB01KT CAVOK 27/20 Q1012 NOSIG",
      "taf": "TAF LRBS 190500Z 1906/2006 VRB04KT CAVOK"
    },
    {
      "icao": "LRBV",
      "alert": "OK",
      "vis_m": 9999,
      "fzfg": false,
      "metar_trigger": false,
      "taf_trigger": false,
      "metar": "METAR LRBV 190600Z VRB02KT 9999 FEW004 20/17 Q1015",
      "taf": "TAF LRBV 190500Z 1906/1915 VRB04KT CAVOK"
    },
    {
      "icao": "LRCL",
      "alert": "OK",
      "vis_m": 9999,
      "fzfg": false,
      "metar_trigger": false,
      "taf_trigger": false,
      "metar": "METAR LRCL 190600Z VRB01KT CAVOK 22/18 Q1013",
      "taf": "TAF LRCL 190500Z 1906/1915 VRB04KT CAVOK"
    },
    {
      "icao": "LRCV",
      "alert": "OK",
      "vis_m": 9999,
      "fzfg": false,
      "metar_trigger": false,
      "taf_trigger": false,
      "metar": "METAR LRCV 190600Z 17004KT 9999 VCTS FEW045CB 22/20 Q1012",
      "taf": "TAF LRCV 190500Z 1906/1915 24006KT 9999 FEW040CB"
    },
    {
      "icao": "LRIA",
      "alert": "OK",
      "vis_m": 9999,
      "fzfg": false,
      "metar_trigger": false,
      "taf_trigger": false,
      "metar": "METAR LRIA 190600Z 15004KT 090V200 CAVOK 25/17 Q1012",
      "taf": "TAF LRIA 190500Z 1906/1915 15006KT CAVOK"
    },
    {
      "icao": "LROP",
      "alert": "OK",
      "vis_m": 9999,
      "fzfg": false,
      "metar_trigger": false,
      "taf_trigger": false,
      "metar": "METAR LROP 190600Z VRB01KT CAVOK 26/21 Q1012 NOSIG",
      "taf": "TAF LROP 190500Z 1906/2006 VRB04KT CAVOK"
    },
    {
      "icao": "LRSB",
      "alert": "OK",
      "vis_m": 9999,
      "fzfg": false,
      "metar_trigger": false,
      "taf_trigger": false,
      "metar": "METAR LRSB 190600Z 13004KT 090V170 CAVOK 25/18 Q1014",
      "taf": "TAF LRSB 190500Z 1906/2006 VRB04KT CAVOK"
    },
    {
      "icao": "LRSM",
      "alert": "OK",
      "vis_m": 9999,
      "fzfg": false,
      "metar_trigger": false,
      "taf_trigger": false,
      "metar": "METAR LRSM 190600Z AUTO 21004KT 190V250 9999 SCT170/// 21/18 Q1012",
      "taf": "TAF LRSM 182000Z 1821/1906 12006KT CAVOK"
    },
    {
      "icao": "LRSV",
      "alert": "OK",
      "vis_m": 9999,
      "fzfg": false,
      "metar_trigger": false,
      "taf_trigger": false,
      "metar": "METAR LRSV 190600Z 33006KT 300V010 CAVOK 23/18 Q1013",
      "taf": "TAF LRSV 190500Z 1906/1915 34006KT CAVOK"
    },
    {
      "icao": "LRTM",
      "alert": "OK",
      "vis_m": 9999,
      "fzfg": false,
      "metar_trigger": false,
      "taf_trigger": false,
      "metar": "METAR LRTM 190600Z 07005KT CAVOK 23/19 Q1013",
      "taf": "TAF LRTM 190500Z 1906/1915 VRB04KT CAVOK"
    },
    {
      "icao": "LRTR",
      "alert": "OK",
      "vis_m": 9999,
      "fzfg": false,
      "metar_trigger": false,
      "taf_trigger": false,
      "metar": "METAR LRTR 190600Z 25005KT CAVOK 23/21 Q1013",
      "taf": "TAF LRTR 190500Z 1906/2006 VRB04KT 9999 FEW045"
    },
    {
      "icao": "LTAC",
      "alert": "OK",
      "vis_m": 9999,
      "fzfg": false,
      "metar_trigger": false,
      "taf_trigger": false,
      "metar": "METAR LTAC 190620Z VRB04KT CAVOK 24/12 Q1016 NOSIG RMK RWY21C 04003KT 310V110 RWY03L 01003KT 280V070 RWY21R VRB02KT RWY03R VRB02KT RWY21L 35004KT 280V060",
      "taf": "TAF LTAC 190440Z 1906/2006 04012KT CAVOK"
    },
    {
      "icao": "LTFM",
      "alert": "OK",
      "vis_m": 9999,
      "fzfg": false,
      "metar_trigger": false,
      "taf_trigger": false,
      "metar": "METAR LTFM 190620Z 07011KT 050V110 9999 SCT023 26/19 Q1013 NOSIG RMK RWY17L 08012KT RWY34L 07011KT RWY16R 08011KT RWY36 09010KT 040V100 RWY18 09011KT",
      "taf": "TAF LTFM 190440Z 1906/2012 09006KT 9999 FEW020"
    },
    {
      "icao": "LUKK",
      "alert": "OK",
      "vis_m": 9999,
      "fzfg": false,
      "metar_trigger": false,
      "taf_trigger": false,
      "metar": "METAR LUKK 190600Z 18007KT 140V230 CAVOK 26/19 Q1013 NOSIG",
      "taf": "TAF LUKK 190501Z 1906/2006 17010KT CAVOK"
    },
    {
      "icao": "LWOH",
      "alert": "OK",
      "vis_m": 9999,
      "fzfg": false,
      "metar_trigger": false,
      "taf_trigger": false,
      "metar": "METAR LWOH 190620Z VRB01KT CAVOK 24/17 Q1017",
      "taf": "TAF LWOH 190530Z 1906/2006 15008KT CAVOK"
    },
    {
      "icao": "LWSK",
      "alert": "OK",
      "vis_m": 9999,
      "fzfg": false,
      "metar_trigger": false,
      "taf_trigger": false,
      "metar": "METAR LWSK 190620Z VRB02KT CAVOK 25/19 Q1014 NOSIG",
      "taf": "TAF LWSK 190530Z 1906/2006 VRB02KT CAVOK"
    },
    {
      "icao": "LYBE",
      "alert": "OK",
      "vis_m": 9999,
      "fzfg": false,
      "metar_trigger": false,
      "taf_trigger": false,
      "metar": "METAR LYBE 190600Z 30004KT 260V340 CAVOK 24/18 Q1013 NOSIG",
      "taf": "TAF LYBE 190500Z 1906/2006 29005KT CAVOK TX32/1914Z TN19/2003Z"
    },
    {
      "icao": "LYNI",
      "alert": "OK",
      "vis_m": 9999,
      "fzfg": false,
      "metar_trigger": false,
      "taf_trigger": false,
      "metar": "METAR LYNI 190600Z VRB02KT 9999 FEW009 23/21 Q1014 NOSIG",
      "taf": "TAF LYNI 190500Z 1906/2006 32004KT CAVOK TX36/1914Z TN19/2003Z"
    },
    {
      "icao": "LYPG",
      "alert": "OK",
      "vis_m": 9999,
      "fzfg": false,
      "metar_trigger": false,
      "taf_trigger": false,
      "metar": "METAR LYPG 190600Z 32004KT 290V350 CAVOK 28/15 Q1012 NOSIG",
      "taf": "TAF LYPG 190500Z 1906/2006 18007KT CAVOK TX38/1914Z TN24/2003Z"
    },
    {
      "icao": "LZIB",
      "alert": "OK",
      "vis_m": 9999,
      "fzfg": false,
      "metar_trigger": false,
      "taf_trigger": false,
      "metar": "METAR LZIB 190600Z 28006KT CAVOK 23/15 Q1012 NOSIG",
      "taf": "TAF LZIB 190515Z 1906/2006 29012KT CAVOK"
    },
    {
      "icao": "LZKZ",
      "alert": "OK",
      "vis_m": 9999,
      "fzfg": false,
      "metar_trigger": false,
      "taf_trigger": false,
      "metar": "METAR LZKZ 190600Z 02004KT CAVOK 22/16 Q1013 NOSIG",
      "taf": "TAF LZKZ 190515Z 1906/2006 01005KT CAVOK"
    },
    {
      "icao": "LZTT",
      "alert": "OK",
      "vis_m": 9999,
      "fzfg": false,
      "metar_trigger": false,
      "taf_trigger": false,
      "metar": "METAR LZTT 190600Z 28004KT CAVOK 16/15 Q1015 NOSIG",
      "taf": "TAF LZTT 190515Z 1906/2006 VRB02KT CAVOK"
    },
    {
      "icao": "OEJN",
      "alert": "OK",
      "vis_m": 9999,
      "fzfg": false,
      "metar_trigger": false,
      "taf_trigger": false,
      "metar": "METAR OEJN 190600Z 35014KT CAVOK 34/21 Q1006 NOSIG",
      "taf": "TAF OEJN 190500Z 1906/2012 32015KT 9999 FEW040"
    },
    {
      "icao": "OEMA",
      "alert": "OK",
      "vis_m": 9999,
      "fzfg": false,
      "metar_trigger": false,
      "taf_trigger": false,
      "metar": "METAR OEMA 190600Z 30011KT CAVOK 37/M09 Q1012 NOSIG",
      "taf": "TAF OEMA 190500Z 1906/2012 30015KT CAVOK"
    },
    {
      "icao": "OJAI",
      "alert": "OK",
      "vis_m": 5000,
      "fzfg": false,
      "metar_trigger": false,
      "taf_trigger": false,
      "metar": "METAR OJAI 190600Z 25004KT 5000 HZ NSC 26/08 Q1014 NOSIG",
      "taf": "TAF OJAI 190500Z 1906/2012 29010KT 5000 HZ NSC"
    },
    {
      "icao": "OMAA",
      "alert": "OK",
      "vis_m": null,
      "fzfg": false,
      "metar_trigger": false,
      "taf_trigger": false,
      "metar": "",
      "taf": "TAF OMAA 190500Z 1906/2012 VRB02KT 8000 NSC"
    },
    {
      "icao": "OMDB",
      "alert": "OK",
      "vis_m": null,
      "fzfg": false,
      "metar_trigger": false,
      "taf_trigger": false,
      "metar": "",
      "taf": "TAF OMDB 190500Z 1906/2012 22005KT 8000 NSC"
    },
    {
      "icao": "UAAA",
      "alert": "OK",
      "vis_m": 9999,
      "fzfg": false,
      "metar_trigger": false,
      "taf_trigger": false,
      "metar": "METAR UAAA 190600Z 02005MPS 340V050 9999 BKN100 40/12 Q1006 NOSIG",
      "taf": "TAF UAAA 190501Z 1906/2006 04005G10MPS 9999 FEW050 SCT100 TX42/1910Z TN25/2000Z"
    },
    {
      "icao": "UBBB",
      "alert": "OK",
      "vis_m": 9999,
      "fzfg": false,
      "metar_trigger": false,
      "taf_trigger": false,
      "metar": "METAR UBBB 190600Z 34014KT CAVOK 29/21 Q1009 NOSIG",
      "taf": "TAF UBBB 190511Z 1906/2006 33018G28KT CAVOK TX30/1910Z TN23/2001Z"
    },
    {
      "icao": "UDSG",
      "alert": "OK",
      "vis_m": 9999,
      "fzfg": false,
      "metar_trigger": false,
      "taf_trigger": false,
      "metar": "METAR UDSG 190600Z VRB01KT 9999 FEW049 21/14 Q1018 NOSIG",
      "taf": "TAF UDSG 190500Z 1906/2006 24006KT 9999 SCT050"
    },
    {
      "icao": "UDYZ",
      "alert": "OK",
      "vis_m": 9999,
      "fzfg": false,
      "metar_trigger": false,
      "taf_trigger": false,
      "metar": "METAR UDYZ 190600Z 17004KT 110V200 9999 NSC 26/16 Q1012 NOSIG",
      "taf": "TAF UDYZ 190500Z 1906/2006 23006KT 9999 FEW040"
    },
    {
      "icao": "UGKO",
      "alert": "OK",
      "vis_m": 9999,
      "fzfg": false,
      "metar_trigger": false,
      "taf_trigger": false,
      "metar": "METAR UGKO 190600Z VRB02KT 9999 SCT031 BKN054 24/21 Q1012 NOSIG",
      "taf": "TAF UGKO 190500Z 1906/2006 26007KT 9999 SCT023 BKN050 TX26/1911Z TN19/2002Z"
    }
  ]
}