{
  "ts_utc": "2026-06-12T18:31:00Z",
  "threshold_m": 150,
  "source": "stations_override.txt (ICAO list) + aviationweather.gov (METAR/TAF raw)",
  "station_count": 159,
  "stations": [
    {
      "icao": "BIKF",
      "alert": "OK",
      "vis_m": 9999,
      "fzfg": false,
      "metar_trigger": false,
      "taf_trigger": false,
      "metar": "METAR BIKF 121800Z 02017KT CAVOK 15/07 Q1008",
      "taf": "TAF BIKF 121641Z 1218/1318 03015KT CAVOK TX15/1218Z TN08/1303Z"
    },
    {
      "icao": "BKPR",
      "alert": "OK",
      "vis_m": 9999,
      "fzfg": false,
      "metar_trigger": false,
      "taf_trigger": false,
      "metar": "METAR BKPR 121830Z 34005KT CAVOK 15/07 Q1021 NOSIG",
      "taf": "TAF BKPR 121730Z 1218/1318 02008KT 9999 FEW050"
    },
    {
      "icao": "EBCI",
      "alert": "OK",
      "vis_m": 9999,
      "fzfg": false,
      "metar_trigger": false,
      "taf_trigger": false,
      "metar": "METAR EBCI 121820Z 25013KT 9999 OVC011 16/14 Q1022 NOSIG",
      "taf": "TAF EBCI 121713Z 1218/1324 24013KT 9999 SCT013 BKN022"
    },
    {
      "icao": "EDDB",
      "alert": "OK",
      "vis_m": 9999,
      "fzfg": false,
      "metar_trigger": false,
      "taf_trigger": false,
      "metar": "METAR EDDB 121820Z AUTO 20007KT 170V230 9999 -SHRA BKN011 BKN017 OVC033 FEW///TCU 16/15 Q1015 RESHRA TEMPO SHRA",
      "taf": "TAF EDDB 121700Z 1218/1318 25008KT 9999 SCT014 BKN020"
    },
    {
      "icao": "EDDH",
      "alert": "OK",
      "vis_m": 9999,
      "fzfg": false,
      "metar_trigger": false,
      "taf_trigger": false,
      "metar": "METAR EDDH 121820Z AUTO 29013KT 250V320 9999 FEW035 SCT048 16/09 Q1015 BECMG 28008KT",
      "taf": "TAF EDDH 121700Z 1218/1324 27010KT 9999 BKN025"
    },
    {
      "icao": "EDDK",
      "alert": "OK",
      "vis_m": 9999,
      "fzfg": false,
      "metar_trigger": false,
      "taf_trigger": false,
      "metar": "METAR EDDK 121820Z AUTO 25011KT 210V270 9999 BKN022 BKN027 OVC041 18/15 Q1020 NOSIG",
      "taf": "TAF EDDK 121700Z 1218/1324 27012KT 9999 SCT015 BKN025"
    },
    {
      "icao": "EDDN",
      "alert": "OK",
      "vis_m": 9999,
      "fzfg": false,
      "metar_trigger": false,
      "taf_trigger": false,
      "metar": "METAR EDDN 121820Z AUTO 26009KT 240V300 9999 BKN016 17/14 Q1021 TEMPO 3500 RADZ BKN008",
      "taf": "TAF EDDN 121700Z 1218/1318 26008KT 9999 BKN012"
    },
    {
      "icao": "EDDS",
      "alert": "OK",
      "vis_m": 9999,
      "fzfg": false,
      "metar_trigger": false,
      "taf_trigger": false,
      "metar": "METAR EDDS 121820Z AUTO 25008KT 220V280 9999 FEW027 OVC045 18/13 Q1023 NOSIG",
      "taf": "TAF EDDS 121700Z 1218/1318 24009KT 9999 BKN025"
    },
    {
      "icao": "EDFH",
      "alert": "OK",
      "vis_m": 9999,
      "fzfg": false,
      "metar_trigger": false,
      "taf_trigger": false,
      "metar": "METAR EDFH 121820Z 26014KT 230V290 9999 VCSH BKN013 BKN017 16/13 Q1022",
      "taf": "TAF EDFH 121700Z 1218/1318 26010KT 9999 BKN012"
    },
    {
      "icao": "EDJA",
      "alert": "OK",
      "vis_m": 9999,
      "fzfg": false,
      "metar_trigger": false,
      "taf_trigger": false,
      "metar": "METAR EDJA 121820Z 23013KT 9999 BKN036 BKN050 15/12 Q1025",
      "taf": "TAF EDJA 121700Z 1218/1303 23015G25KT 9999 SCT015 BKN035"
    },
    {
      "icao": "EDLW",
      "alert": "OK",
      "vis_m": 9000,
      "fzfg": false,
      "metar_trigger": false,
      "taf_trigger": false,
      "metar": "METAR EDLW 121820Z 23009KT 9000 -SHRA FEW016TCU BKN022 OVC034 17/15 Q1018",
      "taf": "TAF EDLW 121700Z 1218/1318 24010KT 9999 SCT010 BKN020"
    },
    {
      "icao": "EDNY",
      "alert": "OK",
      "vis_m": 9999,
      "fzfg": false,
      "metar_trigger": false,
      "taf_trigger": false,
      "metar": "METAR EDNY 121820Z 21005KT 180V240 9999 SCT047 17/14 Q1026",
      "taf": "TAF EDNY 121700Z 1218/1303 23005KT 9999 SCT030"
    },
    {
      "icao": "EDSB",
      "alert": "OK",
      "vis_m": 9999,
      "fzfg": false,
      "metar_trigger": false,
      "taf_trigger": false,
      "metar": "METAR EDSB 121820Z 20007KT 9999 OVC031 18/15 Q1024",
      "taf": "TAF EDSB 121700Z 1218/1318 20010KT 9999 SCT030"
    },
    {
      "icao": "EETN",
      "alert": "OK",
      "vis_m": 9999,
      "fzfg": false,
      "metar_trigger": false,
      "taf_trigger": false,
      "metar": "METAR EETN 121820Z 32005KT CAVOK 15/11 Q1015 NOSIG",
      "taf": "TAF EETN 121730Z 1218/1318 26007KT CAVOK"
    },
    {
      "icao": "EFTU",
      "alert": "OK",
      "vis_m": 9999,
      "fzfg": false,
      "metar_trigger": false,
      "taf_trigger": false,
      "metar": "METAR EFTU 121820Z AUTO 18005KT 150V210 CAVOK 15/09 Q1014",
      "taf": "TAF EFTU 121729Z 1218/1318 23007KT 9999 BKN045"
    },
    {
      "icao": "EGBB",
      "alert": "OK",
      "vis_m": 9999,
      "fzfg": false,
      "metar_trigger": false,
      "taf_trigger": false,
      "metar": "METAR EGBB 121750Z 27012KT 240V300 9999 FEW048 20/09 Q1019",
      "taf": "TAF EGBB 121702Z 1218/1318 26012KT 9999 SCT045"
    },
    {
      "icao": "EGGP",
      "alert": "OK",
      "vis_m": 9999,
      "fzfg": false,
      "metar_trigger": false,
      "taf_trigger": false,
      "metar": "METAR EGGP 121820Z 28015KT CAVOK 17/09 Q1018",
      "taf": "TAF EGGP 121659Z 1218/1318 28015KT 9999 SCT035"
    },
    {
      "icao": "EGGW",
      "alert": "OK",
      "vis_m": 9999,
      "fzfg": false,
      "metar_trigger": false,
      "taf_trigger": false,
      "metar": "METAR EGGW 121820Z 25017KT 9999 FEW032 18/12 Q1019",
      "taf": "TAF EGGW 121656Z 1218/1318 25009KT 9999 SCT025"
    },
    {
      "icao": "EGKK",
      "alert": "OK",
      "vis_m": 9999,
      "fzfg": false,
      "metar_trigger": false,
      "taf_trigger": false,
      "metar": "METAR EGKK 121820Z 23012KT 9999 FEW020 20/15 Q1020",
      "taf": "TAF EGKK 121655Z 1218/1324 26010KT 9999 SCT025"
    },
    {
      "icao": "EGNM",
      "alert": "OK",
      "vis_m": 9999,
      "fzfg": false,
      "metar_trigger": false,
      "taf_trigger": false,
      "metar": "METAR EGNM 121820Z 27017G29KT 9999 SCT035 15/08 Q1016",
      "taf": "TAF EGNM 121658Z 1218/1318 27014KT 9999 SCT025"
    },
    {
      "icao": "EGPD",
      "alert": "OK",
      "vis_m": 9999,
      "fzfg": false,
      "metar_trigger": false,
      "taf_trigger": false,
      "metar": "METAR EGPD 121820Z COR AUTO 25011KT 9999 NCD 15/07 Q1008 NOSIG",
      "taf": ""
    },
    {
      "icao": "EGPF",
      "alert": "OK",
      "vis_m": 9999,
      "fzfg": false,
      "metar_trigger": false,
      "taf_trigger": false,
      "metar": "METAR EGPF 121820Z AUTO 24017KT 9999 -RA FEW019 SCT029 BKN044 11/09 Q1013",
      "taf": "TAF EGPF 121656Z 1218/1318 26016G26KT 9999 BKN020"
    },
    {
      "icao": "EHBK",
      "alert": "OK",
      "vis_m": 9999,
      "fzfg": false,
      "metar_trigger": false,
      "taf_trigger": false,
      "metar": "METAR EHBK 121825Z AUTO 24008KT 200V280 9999 FEW013 OVC016 17/14 Q1020 TEMPO 7000 -RADZ BKN012",
      "taf": "TAF EHBK 121722Z 1218/1324 25012KT 9999 BKN018"
    },
    {
      "icao": "EHEH",
      "alert": "OK",
      "vis_m": 9999,
      "fzfg": false,
      "metar_trigger": false,
      "taf_trigger": false,
      "metar": "METAR EHEH 121755Z AUTO 23010KT 200V280 9999 +DZ BKN016 OVC021 17/15 Q1019 WHT TEMPO 2500 DZRA SCT005 BKN007",
      "taf": "TAF EHEH 121701Z 1218/1324 26009KT 9999 SCT012 BKN018"
    },
    {
      "icao": "EKBI",
      "alert": "OK",
      "vis_m": 9999,
      "fzfg": false,
      "metar_trigger": false,
      "taf_trigger": false,
      "metar": "METAR EKBI 121820Z AUTO 26011KT 9999 FEW009/// OVC040/// 13/12 Q1012",
      "taf": "TAF EKBI 121727Z 1218/1318 25009KT 9999 BKN020"
    },
    {
      "icao": "EKCH",
      "alert": "OK",
      "vis_m": 9999,
      "fzfg": false,
      "metar_trigger": false,
      "taf_trigger": false,
      "metar": "METAR EKCH 121820Z AUTO 19012KT 9999 SCT026/// BKN047/// OVC072/// 15/12 Q1012 TEMPO BKN012",
      "taf": "TAF EKCH 121727Z 1218/1318 19012KT 9999 BKN025"
    },
    {
      "icao": "ENAL",
      "alert": "OK",
      "vis_m": 9999,
      "fzfg": false,
      "metar_trigger": false,
      "taf_trigger": false,
      "metar": "METAR ENAL 121820Z 06008KT CAVOK 13/09 Q1003",
      "taf": "TAF ENAL 121700Z 1218/1303 06015KT 9999 SCT060"
    },
    {
      "icao": "ENBR",
      "alert": "OK",
      "vis_m": 4500,
      "fzfg": false,
      "metar_trigger": false,
      "taf_trigger": false,
      "metar": "METAR ENBR 121820Z 25003KT 220V010 4500 DZ BR SCT004 BKN009 10/09 Q1005 TEMPO SHRA RMK WIND 1200FT 28014KT",
      "taf": "TAF ENBR 121700Z 1218/1318 14008KT 9999 -SHRA FEW006 SCT012 BKN020"
    },
    {
      "icao": "ENGM",
      "alert": "OK",
      "vis_m": 9999,
      "fzfg": false,
      "metar_trigger": false,
      "taf_trigger": false,
      "metar": "METAR ENGM 121820Z 22008KT 9999 -SHRA FEW036 BKN048 12/08 Q1009 NOSIG",
      "taf": "TAF ENGM 121700Z 1218/1318 18010KT 9999 -RA FEW015 BKN025"
    },
    {
      "icao": "ENHD",
      "alert": "OK",
      "vis_m": 9999,
      "fzfg": false,
      "metar_trigger": false,
      "taf_trigger": false,
      "metar": "METAR ENHD 121820Z 26012KT 9999 -SHRA FEW010TCU SCT015 BKN038 12/09 Q1007",
      "taf": "TAF ENHD 121400Z 1215/1222 13012KT 4000 SHRA BR BKN006 SCT020CB"
    },
    {
      "icao": "ENTC",
      "alert": "OK",
      "vis_m": 9999,
      "fzfg": false,
      "metar_trigger": false,
      "taf_trigger": false,
      "metar": "METAR ENTC 121820Z 04011KT CAVOK 13/06 Q1009 NOSIG RMK WIND 2600FT 02008KT",
      "taf": "TAF ENTC 121700Z 1218/1318 04010KT CAVOK"
    },
    {
      "icao": "ENTO",
      "alert": "OK",
      "vis_m": 9999,
      "fzfg": false,
      "metar_trigger": false,
      "taf_trigger": false,
      "metar": "METAR ENTO 121820Z 15009KT 9999 -RA BKN009 12/12 Q1008 TEMPO RA SCT010",
      "taf": ""
    },
    {
      "icao": "ENVA",
      "alert": "OK",
      "vis_m": 9999,
      "fzfg": false,
      "metar_trigger": false,
      "taf_trigger": false,
      "metar": "METAR ENVA 121820Z 07003KT 360V110 9999 FEW045TCU 20/05 Q1004 TEMPO SHRA SCT040CB RMK WIND 670FT 13006KT",
      "taf": "TAF ENVA 121700Z 1218/1318 VRB05KT 9999 FEW045"
    },
    {
      "icao": "ENZV",
      "alert": "OK",
      "vis_m": 9999,
      "fzfg": false,
      "metar_trigger": false,
      "taf_trigger": false,
      "metar": "METAR ENZV 121820Z 27007KT 9999 VCSH FEW012 SCT020 12/10 Q1007 TEMPO SHRA BKN012 SCT020CB",
      "taf": "TAF ENZV 121700Z 1218/1318 26012KT 9999 FEW015 BKN030"
    },
    {
      "icao": "EPGD",
      "alert": "OK",
      "vis_m": 9999,
      "fzfg": false,
      "metar_trigger": false,
      "taf_trigger": false,
      "metar": "METAR EPGD 121800Z 19005KT CAVOK 16/08 Q1016",
      "taf": "TAF EPGD 121730Z 1218/1318 VRB04KT CAVOK"
    },
    {
      "icao": "EPKK",
      "alert": "OK",
      "vis_m": 9999,
      "fzfg": false,
      "metar_trigger": false,
      "taf_trigger": false,
      "metar": "METAR EPKK 121800Z 25005KT CAVOK 16/08 Q1019",
      "taf": "TAF EPKK 121730Z 1218/1318 27007KT CAVOK"
    },
    {
      "icao": "EPKT",
      "alert": "OK",
      "vis_m": 9999,
      "fzfg": false,
      "metar_trigger": false,
      "taf_trigger": false,
      "metar": "METAR EPKT 121800Z 26012KT CAVOK 16/09 Q1019",
      "taf": "TAF EPKT 121730Z 1218/1318 24007KT CAVOK"
    },
    {
      "icao": "EPLB",
      "alert": "OK",
      "vis_m": 9999,
      "fzfg": false,
      "metar_trigger": false,
      "taf_trigger": false,
      "metar": "METAR EPLB 121800Z 09003KT CAVOK 14/12 Q1018",
      "taf": "TAF EPLB 121730Z 1218/1318 VRB04KT CAVOK"
    },
    {
      "icao": "EPMO",
      "alert": "OK",
      "vis_m": 9999,
      "fzfg": false,
      "metar_trigger": false,
      "taf_trigger": false,
      "metar": "METAR EPMO 121800Z 29002KT CAVOK 19/09 Q1017",
      "taf": "TAF EPMO 121730Z 1218/1318 27005KT CAVOK"
    },
    {
      "icao": "EPPO",
      "alert": "OK",
      "vis_m": 9999,
      "fzfg": false,
      "metar_trigger": false,
      "taf_trigger": false,
      "metar": "METAR EPPO 121800Z 21008KT CAVOK 17/10 Q1016",
      "taf": "TAF EPPO 121730Z 1218/1318 21008KT CAVOK"
    },
    {
      "icao": "EPRA",
      "alert": "OK",
      "vis_m": 9999,
      "fzfg": false,
      "metar_trigger": false,
      "taf_trigger": false,
      "metar": "METAR EPRA 121800Z 23003KT 210V270 CAVOK 17/07 Q1018",
      "taf": "TAF EPRA 121730Z 1218/1303 VRB02KT CAVOK"
    },
    {
      "icao": "EPRZ",
      "alert": "OK",
      "vis_m": 9999,
      "fzfg": false,
      "metar_trigger": false,
      "taf_trigger": false,
      "metar": "METAR EPRZ 121800Z 09005KT CAVOK 16/09 Q1019",
      "taf": "TAF EPRZ 121730Z 1218/1318 VRB02KT CAVOK"
    },
    {
      "icao": "EPSC",
      "alert": "OK",
      "vis_m": 9999,
      "fzfg": false,
      "metar_trigger": false,
      "taf_trigger": false,
      "metar": "METAR EPSC 121800Z 19006KT 150V220 9999 FEW028 BKN033 16/11 Q1014",
      "taf": "TAF EPSC 121730Z 1218/1318 18010KT 9999 BKN040"
    },
    {
      "icao": "EPSY",
      "alert": "OK",
      "vis_m": 9999,
      "fzfg": false,
      "metar_trigger": false,
      "taf_trigger": false,
      "metar": "METAR EPSY 121800Z 13004KT CAVOK 17/10 Q1017",
      "taf": "TAF EPSY 121730Z 1218/1303 13006KT CAVOK"
    },
    {
      "icao": "EPWA",
      "alert": "OK",
      "vis_m": 9999,
      "fzfg": false,
      "metar_trigger": false,
      "taf_trigger": false,
      "metar": "METAR EPWA 121800Z 22007KT 170V260 9999 FEW053CB 18/09 Q1017 NOSIG",
      "taf": "TAF EPWA 121730Z 1218/1318 25005KT CAVOK"
    },
    {
      "icao": "EPWR",
      "alert": "OK",
      "vis_m": 9999,
      "fzfg": false,
      "metar_trigger": false,
      "taf_trigger": false,
      "metar": "METAR EPWR 121800Z 23007KT 9999 FEW030 BKN041 17/11 Q1017",
      "taf": "TAF EPWR 121730Z 1218/1318 23006KT 9999 SCT030"
    },
    {
      "icao": "ESGG",
      "alert": "OK",
      "vis_m": 9999,
      "fzfg": false,
      "metar_trigger": false,
      "taf_trigger": false,
      "metar": "METAR ESGG 121820Z 16008KT 9999 -RA FEW017 SCT023 BKN035 12/11 Q1009",
      "taf": "TAF ESGG 121730Z 1218/1318 17007KT 9999 -RA BKN030"
    },
    {
      "icao": "ESKN",
      "alert": "OK",
      "vis_m": 9999,
      "fzfg": false,
      "metar_trigger": false,
      "taf_trigger": false,
      "metar": "METAR ESKN 121820Z 14009KT CAVOK 15/09 Q1012",
      "taf": "TAF ESKN 121730Z 1218/1318 15011KT CAVOK"
    },
    {
      "icao": "ESMS",
      "alert": "OK",
      "vis_m": 9999,
      "fzfg": false,
      "metar_trigger": false,
      "taf_trigger": false,
      "metar": "METAR ESMS 121820Z 18009KT 9999 SCT032 15/11 Q1012",
      "taf": "TAF ESMS 121727Z 1218/1318 17010KT 9999 BKN030"
    },
    {
      "icao": "ESSA",
      "alert": "OK",
      "vis_m": 9999,
      "fzfg": false,
      "metar_trigger": false,
      "taf_trigger": false,
      "metar": "METAR ESSA 121820Z 17013KT CAVOK 15/04 Q1011 NOSIG",
      "taf": "TAF ESSA 121730Z 1218/1318 17010KT CAVOK"
    },
    {
      "icao": "EYKA",
      "alert": "OK",
      "vis_m": 9999,
      "fzfg": false,
      "metar_trigger": false,
      "taf_trigger": false,
      "metar": "METAR EYKA 121820Z 17004KT 120V190 CAVOK 14/11 Q1017",
      "taf": "TAF EYKA 121700Z 1218/1318 VRB03KT 9000 SCT030"
    },
    {
      "icao": "EYPA",
      "alert": "OK",
      "vis_m": 9999,
      "fzfg": false,
      "metar_trigger": false,
      "taf_trigger": false,
      "metar": "METAR EYPA 121820Z VRB01KT CAVOK 14/11 Q1016",
      "taf": "TAF EYPA 121700Z 1218/1318 VRB03KT 9000 NSC"
    },
    {
      "icao": "EYVI",
      "alert": "OK",
      "vis_m": 9999,
      "fzfg": false,
      "metar_trigger": false,
      "taf_trigger": false,
      "metar": "METAR EYVI 121820Z 30003KT 270V330 9999 -RA NSC 11/11 Q1017 NOSIG",
      "taf": "TAF EYVI 121709Z 1218/1318 VRB03KT 5000 RA SCT045"
    },
    {
      "icao": "GCFV",
      "alert": "OK",
      "vis_m": 9999,
      "fzfg": false,
      "metar_trigger": false,
      "taf_trigger": false,
      "metar": "METAR GCFV 121800Z 04009KT 9999 FEW035 21/17 Q1017",
      "taf": "TAF GCFV 121400Z 1215/1315 06010KT 9999 FEW020 TX26/1314Z TN19/1306Z"
    },
    {
      "icao": "GCLP",
      "alert": "OK",
      "vis_m": 9999,
      "fzfg": false,
      "metar_trigger": false,
      "taf_trigger": false,
      "metar": "METAR GCLP 121800Z 03019KT 9999 FEW020 22/17 Q1017 NOSIG",
      "taf": "TAF GCLP 121400Z 1215/1315 02018KT 9999 FEW020 TX26/1314Z TN20/1306Z"
    },
    {
      "icao": "GCTS",
      "alert": "OK",
      "vis_m": 9999,
      "fzfg": false,
      "metar_trigger": false,
      "taf_trigger": false,
      "metar": "METAR GCTS 121800Z 11011KT 070V140 9999 FEW017 22/16 Q1018 NOSIG",
      "taf": "TAF GCTS 121400Z 1215/1315 11012KT 9999 FEW025 TX27/1314Z TN19/1306Z"
    },
    {
      "icao": "GMAD",
      "alert": "OK",
      "vis_m": 8000,
      "fzfg": false,
      "metar_trigger": false,
      "taf_trigger": false,
      "metar": "METAR GMAD 121800Z 24011KT 8000 NSC 22/17 Q1015 NOSIG",
      "taf": "TAF GMAD 121700Z 1218/1324 20008KT 8000 NSC"
    },
    {
      "icao": "GMMN",
      "alert": "OK",
      "vis_m": 9999,
      "fzfg": false,
      "metar_trigger": false,
      "taf_trigger": false,
      "metar": "METAR GMMN 121800Z 30009KT 270V330 CAVOK 23/18 Q1017 NOSIG",
      "taf": "TAF GMMN 121700Z 1218/1324 32010KT CAVOK"
    },
    {
      "icao": "GMMX",
      "alert": "OK",
      "vis_m": 9999,
      "fzfg": false,
      "metar_trigger": false,
      "taf_trigger": false,
      "metar": "METAR GMMX 121800Z 28010G23KT 240V320 9999 FEW040 35/14 Q1016 NOSIG",
      "taf": "TAF GMMX 121700Z 1218/1324 28006KT 8000 NSC"
    },
    {
      "icao": "HEGN",
      "alert": "OK",
      "vis_m": 9999,
      "fzfg": false,
      "metar_trigger": false,
      "taf_trigger": false,
      "metar": "METAR HEGN 121800Z 33012KT CAVOK 33/05 Q1009 NOSIG",
      "taf": "TAF HEGN 121700Z 1218/1324 32015KT CAVOK"
    },
    {
      "icao": "HEMA",
      "alert": "OK",
      "vis_m": 9999,
      "fzfg": false,
      "metar_trigger": false,
      "taf_trigger": false,
      "metar": "METAR HEMA 121800Z 31007KT CAVOK 32/06 Q1009 NOSIG",
      "taf": "TAF HEMA 121700Z 1218/1324 31015KT CAVOK"
    },
    {
      "icao": "HESH",
      "alert": "OK",
      "vis_m": 9999,
      "fzfg": false,
      "metar_trigger": false,
      "taf_trigger": false,
      "metar": "METAR HESH 121800Z 35010KT CAVOK 35/10 Q1008 NOSIG",
      "taf": "TAF HESH 121700Z 1218/1324 35012KT CAVOK"
    },
    {
      "icao": "HESX",
      "alert": "OK",
      "vis_m": 9999,
      "fzfg": false,
      "metar_trigger": false,
      "taf_trigger": false,
      "metar": "METAR HESX 121800Z 36007KT CAVOK 27/14 Q1013 NOSIG",
      "taf": "TAF HESX 121700Z 1218/1324 36010KT CAVOK"
    },
    {
      "icao": "LATI",
      "alert": "OK",
      "vis_m": 9999,
      "fzfg": false,
      "metar_trigger": false,
      "taf_trigger": false,
      "metar": "METAR LATI 121820Z 32010KT CAVOK 23/10 Q1015 NOSIG",
      "taf": "TAF LATI 121700Z 1218/1318 VRB05KT CAVOK TX30/1312Z TN14/1304Z"
    },
    {
      "icao": "LBPD",
      "alert": "OK",
      "vis_m": 9999,
      "fzfg": false,
      "metar_trigger": false,
      "taf_trigger": false,
      "metar": "METAR LBPD 121800Z AUTO 21003KT 180V240 9999 BKN041/// OVC069/// 18/18 Q1017 NOSIG",
      "taf": "TAF LBPD 121700Z 1218/1318 VRB03KT 9999 SCT060"
    },
    {
      "icao": "LBSF",
      "alert": "OK",
      "vis_m": 9999,
      "fzfg": false,
      "metar_trigger": false,
      "taf_trigger": false,
      "metar": "METAR LBSF 121800Z AUTO VRB02KT 9999 BKN050/// OVC072/// 17/09 Q1019 NOSIG",
      "taf": "TAF LBSF 121700Z 1218/1318 29012KT 9999 SCT040 BKN060"
    },
    {
      "icao": "LBWN",
      "alert": "OK",
      "vis_m": 9999,
      "fzfg": false,
      "metar_trigger": false,
      "taf_trigger": false,
      "metar": "METAR LBWN 121800Z AUTO 30013KT 270V330 9999 SCT030/// 17/17 Q1016 NOSIG",
      "taf": "TAF LBWN 121700Z 1218/1318 27014KT 9999 SCT045"
    },
    {
      "icao": "LCLK",
      "alert": "OK",
      "vis_m": 9999,
      "fzfg": false,
      "metar_trigger": false,
      "taf_trigger": false,
      "metar": "METAR LCLK 121800Z 22009KT CAVOK 25/23 Q1010 NOSIG",
      "taf": "TAF LCLK 121730Z 1218/1318 22009KT 9999 FEW025"
    },
    {
      "icao": "LCPH",
      "alert": "OK",
      "vis_m": 9999,
      "fzfg": false,
      "metar_trigger": false,
      "taf_trigger": false,
      "metar": "METAR LCPH 121800Z 32008KT 9999 FEW013 24/21 Q1011 NOSIG",
      "taf": "TAF LCPH 121730Z 1218/1318 35009KT 9999 FEW013"
    },
    {
      "icao": "LEAL",
      "alert": "OK",
      "vis_m": 9999,
      "fzfg": false,
      "metar_trigger": false,
      "taf_trigger": false,
      "metar": "METAR LEAL 121800Z 08009KT CAVOK 25/16 Q1024 NOSIG",
      "taf": "TAF LEAL 121700Z 1218/1318 08010KT CAVOK TX27/1312Z TN19/1306Z"
    },
    {
      "icao": "LEBB",
      "alert": "OK",
      "vis_m": 9999,
      "fzfg": false,
      "metar_trigger": false,
      "taf_trigger": false,
      "metar": "METAR LEBB 121800Z VRB04KT CAVOK 26/16 Q1025 NOSIG",
      "taf": "TAF LEBB 121700Z 1218/1318 10009KT CAVOK TX35/1312Z TN14/1306Z"
    },
    {
      "icao": "LEBL",
      "alert": "OK",
      "vis_m": 9999,
      "fzfg": false,
      "metar_trigger": false,
      "taf_trigger": false,
      "metar": "METAR LEBL 121800Z 23013KT CAVOK 24/19 Q1023 NOSIG",
      "taf": "TAF LEBL 121700Z 1218/1318 23011KT 9999 FEW020 TX29/1312Z TN20/1305Z"
    },
    {
      "icao": "LECH",
      "alert": "OK",
      "vis_m": 9999,
      "fzfg": false,
      "metar_trigger": false,
      "taf_trigger": false,
      "metar": "METAR LECH 121800Z AUTO 16003KT CAVOK 27/09 Q1025",
      "taf": "TAF LECH 121700Z 1218/1318 VRB04KT 9999 FEW040 TX27/1313Z TN14/1306Z"
    },
    {
      "icao": "LEMD",
      "alert": "OK",
      "vis_m": 9999,
      "fzfg": false,
      "metar_trigger": false,
      "taf_trigger": false,
      "metar": "METAR LEMD 121800Z 09003KT CAVOK 33/06 Q1022 NOSIG",
      "taf": "TAF LEMD 121700Z 1218/1324 VRB04KT CAVOK TX35/1316Z TN17/1305Z"
    },
    {
      "icao": "LEMG",
      "alert": "OK",
      "vis_m": 9999,
      "fzfg": false,
      "metar_trigger": false,
      "taf_trigger": false,
      "metar": "METAR LEMG 121800Z 16008KT 130V220 CAVOK 23/16 Q1021 NOSIG",
      "taf": "TAF LEMG 121700Z 1218/1318 14010KT CAVOK TX26/1314Z TN21/1306Z"
    },
    {
      "icao": "LEVC",
      "alert": "OK",
      "vis_m": 9999,
      "fzfg": false,
      "metar_trigger": false,
      "taf_trigger": false,
      "metar": "METAR LEVC 121800Z 13009KT CAVOK 26/11 Q1024 NOSIG",
      "taf": "TAF LEVC 121700Z 1218/1318 13010KT CAVOK TX27/1312Z TN17/1306Z"
    },
    {
      "icao": "LEXJ",
      "alert": "OK",
      "vis_m": 9999,
      "fzfg": false,
      "metar_trigger": false,
      "taf_trigger": false,
      "metar": "METAR LEXJ 121800Z 04013KT CAVOK 22/15 Q1025",
      "taf": "TAF LEXJ 121400Z 1215/1315 07009KT CAVOK TX33/1313Z TN13/1305Z"
    },
    {
      "icao": "LEZG",
      "alert": "OK",
      "vis_m": 9999,
      "fzfg": false,
      "metar_trigger": false,
      "taf_trigger": false,
      "metar": "METAR LEZG 121800Z 35002KT CAVOK 33/05 Q1022 NOSIG",
      "taf": "TAF LEZG 121700Z 1218/1318 30006KT CAVOK TX33/1315Z TN18/1306Z"
    },
    {
      "icao": "LEZL",
      "alert": "OK",
      "vis_m": 9999,
      "fzfg": false,
      "metar_trigger": false,
      "taf_trigger": false,
      "metar": "METAR LEZL 121800Z 13011KT 090V160 CAVOK 35/02 Q1017 NOSIG",
      "taf": "TAF LEZL 121400Z 1215/1315 12012KT CAVOK TX37/1215Z TN22/1306Z"
    },
    {
      "icao": "LFBD",
      "alert": "OK",
      "vis_m": 9999,
      "fzfg": false,
      "metar_trigger": false,
      "taf_trigger": false,
      "metar": "METAR LFBD 121800Z AUTO 36008KT CAVOK 26/12 Q1026 NOSIG",
      "taf": "TAF LFBD 121700Z 1218/1324 01005KT CAVOK TX35/1315Z TN15/1305Z"
    },
    {
      "icao": "LFLL",
      "alert": "OK",
      "vis_m": 9999,
      "fzfg": false,
      "metar_trigger": false,
      "taf_trigger": false,
      "metar": "METAR LFLL 121800Z 02007KT CAVOK 25/12 Q1026 NOSIG",
      "taf": "TAF LFLL 121700Z 1218/1324 04007KT CAVOK"
    },
    {
      "icao": "LFLS",
      "alert": "OK",
      "vis_m": 9999,
      "fzfg": false,
      "metar_trigger": false,
      "taf_trigger": false,
      "metar": "METAR LFLS 121800Z AUTO 35011KT CAVOK 23/12 Q1026 BECMG 09006KT",
      "taf": "TAF LFLS 121400Z 1215/1315 36009KT CAVOK"
    },
    {
      "icao": "LFMN",
      "alert": "OK",
      "vis_m": 9999,
      "fzfg": false,
      "metar_trigger": false,
      "taf_trigger": false,
      "metar": "METAR LFMN 121800Z 13003KT CAVOK 23/17 Q1021 NOSIG",
      "taf": "TAF LFMN 121400Z 1215/1321 18007KT CAVOK"
    },
    {
      "icao": "LFOB",
      "alert": "OK",
      "vis_m": 9999,
      "fzfg": false,
      "metar_trigger": false,
      "taf_trigger": false,
      "metar": "METAR LFOB 121800Z AUTO 29012KT 9999 FEW033 22/16 Q1023 NOSIG",
      "taf": "TAF LFOB 121700Z 1218/1318 27012KT 9999 BKN030"
    },
    {
      "icao": "LFPO",
      "alert": "OK",
      "vis_m": 9999,
      "fzfg": false,
      "metar_trigger": false,
      "taf_trigger": false,
      "metar": "METAR LFPO 121800Z AUTO 26010KT 9999 SCT048 SCT056 26/14 Q1024 NOSIG",
      "taf": "TAF LFPO 121700Z 1218/1324 27010KT 9999 SCT040"
    },
    {
      "icao": "LFSB",
      "alert": "OK",
      "vis_m": 9999,
      "fzfg": false,
      "metar_trigger": false,
      "taf_trigger": false,
      "metar": "METAR LFSB 121800Z AUTO VRB03KT CAVOK 21/14 Q1025 NOSIG",
      "taf": "TAF LFSB 121700Z 1218/1318 27010KT 9999 BKN040"
    },
    {
      "icao": "LGAV",
      "alert": "OK",
      "vis_m": 9999,
      "fzfg": false,
      "metar_trigger": false,
      "taf_trigger": false,
      "metar": "METAR LGAV 121820Z 33004KT 9999 SCT020TCU 25/11 Q1013 NOSIG",
      "taf": "TAF LGAV 121700Z 1218/1318 03010KT 9999 FEW025"
    },
    {
      "icao": "LGTS",
      "alert": "OK",
      "vis_m": 9999,
      "fzfg": false,
      "metar_trigger": false,
      "taf_trigger": false,
      "metar": "METAR LGTS 121820Z 33018KT 9999 FEW025 24/11 Q1015 NOSIG",
      "taf": "TAF LGTS 121700Z 1218/1318 34015KT 9999 FEW025"
    },
    {
      "icao": "LHBP",
      "alert": "OK",
      "vis_m": 9999,
      "fzfg": false,
      "metar_trigger": false,
      "taf_trigger": false,
      "metar": "METAR LHBP 121800Z 31009KT CAVOK 20/07 Q1020 NOSIG",
      "taf": "TAF LHBP 121715Z 1218/1318 29008KT CAVOK"
    },
    {
      "icao": "LHDC",
      "alert": "OK",
      "vis_m": 9999,
      "fzfg": false,
      "metar_trigger": false,
      "taf_trigger": false,
      "metar": "METAR LHDC 121745Z AUTO 07005KT 040V100 CAVOK 19/10 Q1019 NOSIG",
      "taf": "TAF LHDC 121415Z 1215/1224 30007KT CAVOK"
    },
    {
      "icao": "LIBD",
      "alert": "OK",
      "vis_m": 9999,
      "fzfg": false,
      "metar_trigger": false,
      "taf_trigger": false,
      "metar": "METAR LIBD 121820Z 32009KT 290V360 CAVOK 22/12 Q1019",
      "taf": "TAF LIBD 121700Z 1218/1318 34013KT CAVOK"
    },
    {
      "icao": "LIBG",
      "alert": "OK",
      "vis_m": 9999,
      "fzfg": false,
      "metar_trigger": false,
      "taf_trigger": false,
      "metar": "METAR LIBG 121820Z AUTO 34015KT 9999 NCD 21/12 Q1018",
      "taf": "TAF LIBG 121700Z 1218/1318 34014KT CAVOK"
    },
    {
      "icao": "LIBP",
      "alert": "OK",
      "vis_m": 9999,
      "fzfg": false,
      "metar_trigger": false,
      "taf_trigger": false,
      "metar": "METAR LIBP 121820Z AUTO 36006KT 9999 NCD 22/13 Q1021",
      "taf": "TAF LIBP 121700Z 1218/1318 03010KT CAVOK"
    },
    {
      "icao": "LIBR",
      "alert": "OK",
      "vis_m": 9999,
      "fzfg": false,
      "metar_trigger": false,
      "taf_trigger": false,
      "metar": "METAR LIBR 121820Z 34015KT CAVOK 22/14 Q1017",
      "taf": "TAF LIBR 121700Z 1218/1318 35015KT CAVOK"
    },
    {
      "icao": "LICA",
      "alert": "OK",
      "vis_m": 9999,
      "fzfg": false,
      "metar_trigger": false,
      "taf_trigger": false,
      "metar": "METAR LICA 121820Z AUTO 25009KT 9999 FEW026/// BKN088/// 24/18 Q1018",
      "taf": "TAF LICA 121700Z 1218/1318 26012KT 9999 FEW030"
    },
    {
      "icao": "LICC",
      "alert": "OK",
      "vis_m": 9999,
      "fzfg": false,
      "metar_trigger": false,
      "taf_trigger": false,
      "metar": "METAR LICC 121820Z 08010KT 9999 SCT060 24/17 Q1017",
      "taf": "TAF LICC 121700Z 1218/1318 08012KT 9999 FEW040"
    },
    {
      "icao": "LICJ",
      "alert": "OK",
      "vis_m": 9999,
      "fzfg": false,
      "metar_trigger": false,
      "taf_trigger": false,
      "metar": "METAR LICJ 121820Z AUTO 02008KT 9999 FEW027/// 24/18 Q1019",
      "taf": "TAF LICJ 121700Z 1218/1318 01012KT 9999 FEW030"
    },
    {
      "icao": "LIMC",
      "alert": "OK",
      "vis_m": 9999,
      "fzfg": false,
      "metar_trigger": false,
      "taf_trigger": false,
      "metar": "METAR LIMC 121820Z 26004KT CAVOK 26/10 Q1021 NOSIG",
      "taf": "TAF LIMC 121700Z 1218/1324 VRB05KT CAVOK"
    },
    {
      "icao": "LIME",
      "alert": "OK",
      "vis_m": 9999,
      "fzfg": false,
      "metar_trigger": false,
      "taf_trigger": false,
      "metar": "METAR LIME 121820Z 18004KT 150V240 CAVOK 25/12 Q1020 NOSIG",
      "taf": "TAF LIME 121700Z 1218/1318 VRB05KT CAVOK"
    },
    {
      "icao": "LIMF",
      "alert": "OK",
      "vis_m": 9999,
      "fzfg": false,
      "metar_trigger": false,
      "taf_trigger": false,
      "metar": "METAR LIMF 121820Z 04004KT CAVOK 25/13 Q1021",
      "taf": "TAF LIMF 121700Z 1218/1318 VRB05KT CAVOK"
    },
    {
      "icao": "LIMJ",
      "alert": "OK",
      "vis_m": 9999,
      "fzfg": false,
      "metar_trigger": false,
      "taf_trigger": false,
      "metar": "METAR LIMJ 121820Z AUTO 26002KT 9999 NCD 23/16 Q1021",
      "taf": "TAF LIMJ 121700Z 1218/1318 VRB05KT CAVOK"
    },
    {
      "icao": "LIPE",
      "alert": "OK",
      "vis_m": 9999,
      "fzfg": false,
      "metar_trigger": false,
      "taf_trigger": false,
      "metar": "METAR LIPE 121820Z 10009KT CAVOK 25/09 Q1019",
      "taf": "TAF LIPE 121700Z 1218/1318 09010KT CAVOK"
    },
    {
      "icao": "LIPH",
      "alert": "OK",
      "vis_m": 9999,
      "fzfg": false,
      "metar_trigger": false,
      "taf_trigger": false,
      "metar": "METAR LIPH 121820Z 12006KT CAVOK 22/13 Q1020",
      "taf": "TAF LIPH 121700Z 1218/1318 VRB05KT 9999 FEW050"
    },
    {
      "icao": "LIPQ",
      "alert": "OK",
      "vis_m": 9999,
      "fzfg": false,
      "metar_trigger": false,
      "taf_trigger": false,
      "metar": "METAR LIPQ 121820Z 21006KT CAVOK 21/12 Q1021",
      "taf": "TAF LIPQ 121700Z 1218/1318 24010KT 9999 FEW060"
    },
    {
      "icao": "LIPR",
      "alert": "OK",
      "vis_m": 9999,
      "fzfg": false,
      "metar_trigger": false,
      "taf_trigger": false,
      "metar": "METAR LIPR 121820Z 12006KT CAVOK 23/11 Q1021",
      "taf": "TAF LIPR 121700Z 1218/1318 09010KT CAVOK"
    },
    {
      "icao": "LIPX",
      "alert": "OK",
      "vis_m": 9999,
      "fzfg": false,
      "metar_trigger": false,
      "taf_trigger": false,
      "metar": "METAR LIPX 121820Z 25004KT CAVOK 26/12 Q1020",
      "taf": "TAF LIPX 121700Z 1218/1318 VRB05KT CAVOK"
    },
    {
      "icao": "LIPY",
      "alert": "OK",
      "vis_m": 9999,
      "fzfg": false,
      "metar_trigger": false,
      "taf_trigger": false,
      "metar": "METAR LIPY 121820Z AUTO 08004KT 060V120 9999 NCD 22/09 Q1021",
      "taf": "TAF LIPY 121700Z 1218/1318 21006KT CAVOK"
    },
    {
      "icao": "LIPZ",
      "alert": "OK",
      "vis_m": 9999,
      "fzfg": false,
      "metar_trigger": false,
      "taf_trigger": false,
      "metar": "METAR LIPZ 121820Z 15007KT CAVOK 22/14 Q1020 NOSIG",
      "taf": "TAF LIPZ 121700Z 1218/1324 16013KT 9999 FEW070"
    },
    {
      "icao": "LIRF",
      "alert": "OK",
      "vis_m": 9999,
      "fzfg": false,
      "metar_trigger": false,
      "taf_trigger": false,
      "metar": "METAR LIRF 121820Z 30007KT CAVOK 26/13 Q1018 NOSIG",
      "taf": "TAF LIRF 121700Z 1218/1324 33013KT CAVOK"
    },
    {
      "icao": "LIRN",
      "alert": "OK",
      "vis_m": 9999,
      "fzfg": false,
      "metar_trigger": false,
      "taf_trigger": false,
      "metar": "METAR LIRN 121820Z 05008KT CAVOK 25/05 Q1019 NOSIG",
      "taf": "TAF LIRN 121700Z 1218/1318 VRB05KT CAVOK"
    },
    {
      "icao": "LIRP",
      "alert": "OK",
      "vis_m": 9999,
      "fzfg": false,
      "metar_trigger": false,
      "taf_trigger": false,
      "metar": "METAR LIRP 121815Z 27008KT CAVOK 23/16 Q1021 NOSIG",
      "taf": "TAF LIRP 121700Z 1218/1318 29007KT CAVOK"
    },
    {
      "icao": "LIRZ",
      "alert": "OK",
      "vis_m": 9999,
      "fzfg": false,
      "metar_trigger": false,
      "taf_trigger": false,
      "metar": "METAR LIRZ 121820Z AUTO 04007KT 9999 NCD 24/07 Q1020",
      "taf": "TAF LIRZ 121700Z 1218/1318 03012KT CAVOK"
    },
    {
      "icao": "LJLJ",
      "alert": "OK",
      "vis_m": 9999,
      "fzfg": false,
      "metar_trigger": false,
      "taf_trigger": false,
      "metar": "METAR LJLJ 121800Z 03009KT 9999 FEW065 SCT100 21/11 Q1021 NOSIG",
      "taf": "TAF LJLJ 121700Z 1218/1318 32005KT 9999 FEW065"
    },
    {
      "icao": "LKMT",
      "alert": "OK",
      "vis_m": 9999,
      "fzfg": false,
      "metar_trigger": false,
      "taf_trigger": false,
      "metar": "METAR LKMT 121800Z 23008KT 9999 BKN048 16/10 Q1019 NOSIG",
      "taf": "TAF LKMT 121700Z 1218/1318 22008KT 9999 SCT040"
    },
    {
      "icao": "LKPR",
      "alert": "OK",
      "vis_m": 9999,
      "fzfg": false,
      "metar_trigger": false,
      "taf_trigger": false,
      "metar": "METAR LKPR 121800Z 24009KT 9999 FEW010 BKN025 BKN046 15/13 Q1019 NOSIG",
      "taf": "TAF LKPR 121700Z 1218/1324 24010KT 9999 BKN030"
    },
    {
      "icao": "LLBG",
      "alert": "OK",
      "vis_m": 9999,
      "fzfg": false,
      "metar_trigger": false,
      "taf_trigger": false,
      "metar": "METAR LLBG 121820Z 36005KT 9999 SCT025 25/19 Q1013 NOSIG",
      "taf": "TAF LLBG 121704Z 1218/1318 VRB04KT 9999 SCT025 TX29/1311Z TN21/1303Z"
    },
    {
      "icao": "LMML",
      "alert": "OK",
      "vis_m": 9999,
      "fzfg": false,
      "metar_trigger": false,
      "taf_trigger": false,
      "metar": "METAR LMML 121815Z 28008KT 9999 FEW025 23/19 Q1018 NOSIG",
      "taf": "TAF LMML 121700Z 1218/1318 VRB05KT 9999 FEW012"
    },
    {
      "icao": "LOWW",
      "alert": "OK",
      "vis_m": 9999,
      "fzfg": false,
      "metar_trigger": false,
      "taf_trigger": false,
      "metar": "METAR LOWW 121820Z 28009KT 9999 -RA FEW020 16/13 Q1021 NOSIG",
      "taf": "TAF LOWW 121715Z 1218/1324 25005KT 9999 FEW020 BKN040 TX24/1315Z TN15/1303Z"
    },
    {
      "icao": "LPFR",
      "alert": "OK",
      "vis_m": 9999,
      "fzfg": false,
      "metar_trigger": false,
      "taf_trigger": false,
      "metar": "METAR LPFR 121800Z 09010KT CAVOK 26/16 Q1017",
      "taf": "TAF LPFR 121700Z 1218/1318 12010KT CAVOK"
    },
    {
      "icao": "LPMA",
      "alert": "OK",
      "vis_m": 9999,
      "fzfg": false,
      "metar_trigger": false,
      "taf_trigger": false,
      "metar": "METAR LPMA 121800Z 03006KT 320V100 9999 SCT015 BKN030 21/16 Q1018",
      "taf": "TAF LPMA 121700Z 1218/1318 VRB05KT 9999 SCT015 SCT030"
    },
    {
      "icao": "LPPR",
      "alert": "OK",
      "vis_m": 9999,
      "fzfg": false,
      "metar_trigger": false,
      "taf_trigger": false,
      "metar": "METAR LPPR 121800Z 33008KT CAVOK 29/10 Q1018",
      "taf": "TAF LPPR 121700Z 1218/1318 32008KT CAVOK"
    },
    {
      "icao": "LPPS",
      "alert": "OK",
      "vis_m": 9999,
      "fzfg": false,
      "metar_trigger": false,
      "taf_trigger": false,
      "metar": "METAR LPPS 121800Z 35008KT 330V030 9999 SCT015 SCT030 21/15 Q1018",
      "taf": "TAF LPPS 121700Z 1218/1324 34008KT 9999 SCT015"
    },
    {
      "icao": "LPPT",
      "alert": "OK",
      "vis_m": 9999,
      "fzfg": false,
      "metar_trigger": false,
      "taf_trigger": false,
      "metar": "METAR LPPT 121800Z 32013KT CAVOK 30/14 Q1016",
      "taf": "TAF LPPT 121700Z 1218/1324 31015KT CAVOK"
    },
    {
      "icao": "LQBK",
      "alert": "OK",
      "vis_m": 9999,
      "fzfg": false,
      "metar_trigger": false,
      "taf_trigger": false,
      "metar": "METAR LQBK 121800Z 29004KT CAVOK 20/09 Q1021 NOSIG",
      "taf": "TAF LQBK 121700Z 1218/1318 19005KT CAVOK TX25/1314Z TN10/1304Z"
    },
    {
      "icao": "LQSA",
      "alert": "OK",
      "vis_m": 9999,
      "fzfg": false,
      "metar_trigger": false,
      "taf_trigger": false,
      "metar": "METAR LQSA 121800Z 34004KT 300V010 CAVOK 18/07 Q1022 NOSIG",
      "taf": "TAF LQSA 121700Z 1218/1318 28005KT 9999 FEW065 TX25/1314Z TN08/1304Z"
    },
    {
      "icao": "LQTZ",
      "alert": "OK",
      "vis_m": 9999,
      "fzfg": false,
      "metar_trigger": false,
      "taf_trigger": false,
      "metar": "METAR LQTZ 121800Z 04003KT 9999 FEW050 19/09 Q1022",
      "taf": "TAF LQTZ 121700Z 1218/1318 VRB02KT CAVOK TX24/1313Z TN08/1303Z"
    },
    {
      "icao": "LRBC",
      "alert": "OK",
      "vis_m": 9999,
      "fzfg": false,
      "metar_trigger": false,
      "taf_trigger": false,
      "metar": "METAR LRBC 121800Z 34007KT CAVOK 15/11 Q1019",
      "taf": "TAF LRBC 121700Z 1218/1303 35010KT 9999 BKN055"
    },
    {
      "icao": "LRBS",
      "alert": "OK",
      "vis_m": 9999,
      "fzfg": false,
      "metar_trigger": false,
      "taf_trigger": false,
      "metar": "METAR LRBS 121800Z 06003KT 9999 -RA FEW006 15/14 Q1018 NOSIG",
      "taf": "TAF LRBS 121700Z 1218/1318 07010KT 9999 BKN020 BKN045"
    },
    {
      "icao": "LRBV",
      "alert": "OK",
      "vis_m": 9999,
      "fzfg": false,
      "metar_trigger": false,
      "taf_trigger": false,
      "metar": "METAR LRBV 121800Z 27003KT 220V340 9999 FEW037 SCT076 15/11 Q1019",
      "taf": "TAF LRBV 121700Z 1218/1303 VRB04KT 9999 SCT035"
    },
    {
      "icao": "LRCL",
      "alert": "OK",
      "vis_m": 9999,
      "fzfg": false,
      "metar_trigger": false,
      "taf_trigger": false,
      "metar": "METAR LRCL 121800Z 30006KT CAVOK 18/08 Q1019",
      "taf": ""
    },
    {
      "icao": "LRCV",
      "alert": "OK",
      "vis_m": 9999,
      "fzfg": false,
      "metar_trigger": false,
      "taf_trigger": false,
      "metar": "METAR LRCV 121800Z 15006KT 9999 FEW050CB 19/16 Q1017",
      "taf": "TAF LRCV 121700Z 1218/1303 12010KT 9999 SCT040"
    },
    {
      "icao": "LRIA",
      "alert": "OK",
      "vis_m": 9999,
      "fzfg": false,
      "metar_trigger": false,
      "taf_trigger": false,
      "metar": "METAR LRIA 121800Z 31009KT CAVOK 14/10 Q1018",
      "taf": "TAF LRIA 121700Z 1218/1303 30010KT 9999 BKN040"
    },
    {
      "icao": "LROP",
      "alert": "OK",
      "vis_m": 9999,
      "fzfg": false,
      "metar_trigger": false,
      "taf_trigger": false,
      "metar": "METAR LROP 121800Z 10006KT 9999 -RA NSC 15/15 Q1018 NOSIG",
      "taf": "TAF LROP 121700Z 1218/1318 07010KT 9999 BKN020 BKN045"
    },
    {
      "icao": "LRSB",
      "alert": "OK",
      "vis_m": 9999,
      "fzfg": false,
      "metar_trigger": false,
      "taf_trigger": false,
      "metar": "METAR LRSB 121800Z 24010KT 9999 -RA BKN057 14/12 Q1019",
      "taf": "TAF LRSB 121700Z 1218/1318 VRB04KT 9999 SCT020 SCT045"
    },
    {
      "icao": "LRSM",
      "alert": "OK",
      "vis_m": 9999,
      "fzfg": false,
      "metar_trigger": false,
      "taf_trigger": false,
      "metar": "METAR LRSM 121800Z AUTO 30005KT 9999 NCD 17/11 Q1019",
      "taf": "TAF LRSM 121400Z 1215/1224 35010KT CAVOK"
    },
    {
      "icao": "LRSV",
      "alert": "OK",
      "vis_m": 9999,
      "fzfg": false,
      "metar_trigger": false,
      "taf_trigger": false,
      "metar": "METAR LRSV 121800Z 29005KT 9999 FEW023 12/10 Q1019",
      "taf": "TAF LRSV 121700Z 1218/1303 33010KT CAVOK"
    },
    {
      "icao": "LRTM",
      "alert": "OK",
      "vis_m": 9999,
      "fzfg": false,
      "metar_trigger": false,
      "taf_trigger": false,
      "metar": "METAR LRTM 121800Z 30005KT 260V340 CAVOK 18/11 Q1018",
      "taf": ""
    },
    {
      "icao": "LRTR",
      "alert": "OK",
      "vis_m": 9999,
      "fzfg": false,
      "metar_trigger": false,
      "taf_trigger": false,
      "metar": "METAR LRTR 121800Z 36003KT CAVOK 20/12 Q1019",
      "taf": "TAF LRTR 121700Z 1218/1318 VRB04KT CAVOK"
    },
    {
      "icao": "LTAC",
      "alert": "OK",
      "vis_m": 9999,
      "fzfg": false,
      "metar_trigger": false,
      "taf_trigger": false,
      "metar": "METAR LTAC 121820Z 05008KT 9999 FEW040 SCT100 21/09 Q1014 NOSIG RMK RWY21C 06005KT 010V080 RWY03L 04006KT RWY21R 04006KT RWY03R 05005KT RWY21L 06008KT",
      "taf": "TAF LTAC 121640Z 1218/1318 VRB02KT 9999 SCT040 BKN100"
    },
    {
      "icao": "LTFM",
      "alert": "OK",
      "vis_m": 9999,
      "fzfg": false,
      "metar_trigger": false,
      "taf_trigger": false,
      "metar": "METAR LTFM 121820Z 01019KT 9999 FEW014 SCT020 20/17 Q1015 NOSIG RMK RWY17L 01017KT RWY34L 36019KT RWY16R 36018KT RWY36 01018KT RWY18 01016KT",
      "taf": "TAF LTFM 121640Z 1218/1324 05012KT 9999 SCT016"
    },
    {
      "icao": "LUKK",
      "alert": "OK",
      "vis_m": 9999,
      "fzfg": false,
      "metar_trigger": false,
      "taf_trigger": false,
      "metar": "METAR LUKK 121800Z 32009KT 300V360 9999 SCT018 14/11 Q1017 NOSIG",
      "taf": "TAF LUKK 121707Z 1218/1318 35012KT 9999 SCT030"
    },
    {
      "icao": "LWOH",
      "alert": "OK",
      "vis_m": 9999,
      "fzfg": false,
      "metar_trigger": false,
      "taf_trigger": false,
      "metar": "METAR LWOH 121820Z 36007KT 320V050 9999 BKN040 16/09 Q1019",
      "taf": "TAF LWOH 121715Z 1218/1318 34010KT 9999 SCT040"
    },
    {
      "icao": "LWSK",
      "alert": "OK",
      "vis_m": 9999,
      "fzfg": false,
      "metar_trigger": false,
      "taf_trigger": false,
      "metar": "METAR LWSK 121820Z 35010KT CAVOK 18/08 Q1019 NOSIG",
      "taf": "TAF LWSK 121715Z 1218/1318 36012KT 9999 FEW050 SCT100"
    },
    {
      "icao": "LYBE",
      "alert": "OK",
      "vis_m": 9999,
      "fzfg": false,
      "metar_trigger": false,
      "taf_trigger": false,
      "metar": "METAR LYBE 121800Z 28007KT CAVOK 19/10 Q1021 NOSIG",
      "taf": "TAF LYBE 121700Z 1218/1318 27006KT CAVOK TX24/1314Z TN11/1303Z"
    },
    {
      "icao": "LYNI",
      "alert": "OK",
      "vis_m": 9999,
      "fzfg": false,
      "metar_trigger": false,
      "taf_trigger": false,
      "metar": "METAR LYNI 121800Z 32008KT CAVOK 19/09 Q1019 NOSIG",
      "taf": "TAF LYNI 121700Z 1218/1318 32005KT CAVOK TX24/1313Z TN08/1304Z"
    },
    {
      "icao": "LYPG",
      "alert": "OK",
      "vis_m": 9999,
      "fzfg": false,
      "metar_trigger": false,
      "taf_trigger": false,
      "metar": "METAR LYPG 121800Z 36010KT 330V040 CAVOK 25/06 Q1016 NOSIG",
      "taf": "TAF LYPG 121700Z 1218/1318 35014KT CAVOK TX29/1314Z TN18/1303Z"
    },
    {
      "icao": "LZIB",
      "alert": "OK",
      "vis_m": 9999,
      "fzfg": false,
      "metar_trigger": false,
      "taf_trigger": false,
      "metar": "METAR LZIB 121800Z 29014KT 9999 -RA FEW030 17/12 Q1020 NOSIG",
      "taf": "TAF LZIB 121715Z 1218/1318 28013KT 9999 FEW045"
    },
    {
      "icao": "LZKZ",
      "alert": "OK",
      "vis_m": 9999,
      "fzfg": false,
      "metar_trigger": false,
      "taf_trigger": false,
      "metar": "METAR LZKZ 121800Z 34006KT 9999 -SHRA NSC 15/13 Q1019 NOSIG",
      "taf": ""
    },
    {
      "icao": "LZTT",
      "alert": "OK",
      "vis_m": 9999,
      "fzfg": false,
      "metar_trigger": false,
      "taf_trigger": false,
      "metar": "METAR LZTT 121800Z 34004KT 9999 BKN060 14/10 Q1020",
      "taf": "TAF LZTT 121715Z 1218/1318 06005KT 9999 FEW045"
    },
    {
      "icao": "OEJN",
      "alert": "OK",
      "vis_m": 9999,
      "fzfg": false,
      "metar_trigger": false,
      "taf_trigger": false,
      "metar": "METAR OEJN 121800Z 26003KT CAVOK 32/23 Q1006 NOSIG",
      "taf": "TAF OEJN 121700Z 1218/1324 36006KT CAVOK"
    },
    {
      "icao": "OEMA",
      "alert": "OK",
      "vis_m": 9999,
      "fzfg": false,
      "metar_trigger": false,
      "taf_trigger": false,
      "metar": "METAR OEMA 121800Z 32007KT CAVOK 40/M04 Q1011 NOSIG",
      "taf": "TAF OEMA 121700Z 1218/1324 30008KT CAVOK"
    },
    {
      "icao": "OJAI",
      "alert": "OK",
      "vis_m": 5000,
      "fzfg": false,
      "metar_trigger": false,
      "taf_trigger": false,
      "metar": "METAR OJAI 121800Z 28004KT 5000 HZ NSC 23/13 Q1015 NOSIG",
      "taf": "TAF OJAI 121659Z 1218/1324 29012KT 5000 HZ NSC"
    },
    {
      "icao": "OMAA",
      "alert": "OK",
      "vis_m": 9999,
      "fzfg": false,
      "metar_trigger": false,
      "taf_trigger": false,
      "metar": "METAR OMAA 121830Z 32003KT 260V010 CAVOK 31/26 Q1001 NOSIG",
      "taf": "TAF OMAA 121700Z 1218/1400 18005KT 8000 NSC"
    },
    {
      "icao": "OMDB",
      "alert": "OK",
      "vis_m": 9999,
      "fzfg": false,
      "metar_trigger": false,
      "taf_trigger": false,
      "metar": "METAR OMDB 121830Z 33006KT 290V020 CAVOK 33/26 Q1001 NOSIG",
      "taf": "TAF OMDB 121700Z 1218/1400 19005KT CAVOK"
    },
    {
      "icao": "UAAA",
      "alert": "OK",
      "vis_m": 9999,
      "fzfg": false,
      "metar_trigger": false,
      "taf_trigger": false,
      "metar": "METAR UAAA 121800Z 16003MPS 9999 SCT050CB BKN100 20/12 Q1012 NOSIG",
      "taf": "TAF UAAA 121703Z 1218/1318 17002MPS 9999 FEW050CB SCT100 TX33/1310Z TN17/1301Z"
    },
    {
      "icao": "UBBB",
      "alert": "OK",
      "vis_m": 9999,
      "fzfg": false,
      "metar_trigger": false,
      "taf_trigger": false,
      "metar": "METAR UBBB 121800Z 33012KT CAVOK 22/16 Q1008 NOSIG",
      "taf": "TAF UBBB 121647Z 1218/1318 33010KT 9999 FEW060CB TX27/1310Z TN18/1300Z"
    },
    {
      "icao": "UDSG",
      "alert": "OK",
      "vis_m": 9999,
      "fzfg": false,
      "metar_trigger": false,
      "taf_trigger": false,
      "metar": "METAR UDSG 121800Z 00000KT 9999 FEW049CB 13/11 Q1018 NOSIG",
      "taf": "TAF UDSG 121658Z 1218/1318 24006KT 9999 SCT040"
    },
    {
      "icao": "UDYZ",
      "alert": "OK",
      "vis_m": 9999,
      "fzfg": false,
      "metar_trigger": false,
      "taf_trigger": false,
      "metar": "METAR UDYZ 121800Z 35004KT 9999 SCT043CB 21/13 Q1012 NOSIG",
      "taf": "TAF UDYZ 121700Z 1218/1318 34006KT 9999 SCT040"
    },
    {
      "icao": "UGKO",
      "alert": "OK",
      "vis_m": 9999,
      "fzfg": false,
      "metar_trigger": false,
      "taf_trigger": false,
      "metar": "METAR UGKO 121800Z AUTO 20003KT 180V240 CAVOK 20/18 Q1012 NOSIG",
      "taf": "TAF UGKO 121700Z 1218/1318 25007KT CAVOK TX29/1311Z TN16/1302Z"
    }
  ]
}