{
  "ts_utc": "2025-12-28T21:23:55Z",
  "threshold_m": 150,
  "source": "stations_override.txt (ICAO list) + aviationweather.gov (METAR/TAF raw)",
  "station_count": 159,
  "stations": [
    {
      "icao": "BIKF",
      "alert": "OK",
      "vis_m": 250,
      "fzfg": false,
      "metar_trigger": false,
      "taf_trigger": false,
      "metar": "METAR BIKF 282100Z 27005KT 0250 R19/0600N FG SCT001 BKN024 05/05 Q1037",
      "taf": "TAF BIKF 281939Z 2821/2921 20005KT 8000 -DZRA SCT007 BKN015 TX06/2824Z TN03/2908Z"
    },
    {
      "icao": "BKPR",
      "alert": "OK",
      "vis_m": null,
      "fzfg": false,
      "metar_trigger": false,
      "taf_trigger": false,
      "metar": "",
      "taf": "TAF BKPR 281730Z 2818/2918 35008KT CAVOK"
    },
    {
      "icao": "EBCI",
      "alert": "OK",
      "vis_m": 9999,
      "fzfg": false,
      "metar_trigger": false,
      "taf_trigger": false,
      "metar": "METAR EBCI 282050Z 06008KT CAVOK M00/M02 Q1027 NOSIG",
      "taf": "TAF EBCI 281700Z 2818/2924 06008KT CAVOK"
    },
    {
      "icao": "EDDB",
      "alert": "OK",
      "vis_m": 6000,
      "fzfg": false,
      "metar_trigger": false,
      "taf_trigger": false,
      "metar": "METAR EDDB 282050Z AUTO 25010KT 6000 OVC002 M02/M02 Q1025 TEMPO 1400 BR BKN002",
      "taf": ""
    },
    {
      "icao": "EDDH",
      "alert": "OK",
      "vis_m": 3100,
      "fzfg": false,
      "metar_trigger": false,
      "taf_trigger": false,
      "metar": "METAR EDDH 282050Z AUTO 26009KT 3100 BR OVC002 00/00 Q1025 TEMPO 1200",
      "taf": ""
    },
    {
      "icao": "EDDK",
      "alert": "OK",
      "vis_m": 9999,
      "fzfg": false,
      "metar_trigger": false,
      "taf_trigger": false,
      "metar": "METAR EDDK 282050Z AUTO 06003KT CAVOK M03/M05 Q1028 NOSIG",
      "taf": "TAF EDDK 281700Z 2818/2924 VRB02KT 6000 FEW004"
    },
    {
      "icao": "EDDN",
      "alert": "OK",
      "vis_m": 9999,
      "fzfg": false,
      "metar_trigger": false,
      "taf_trigger": false,
      "metar": "METAR EDDN 282050Z AUTO VRB01KT CAVOK M05/M06 Q1026 NOSIG",
      "taf": ""
    },
    {
      "icao": "EDDS",
      "alert": "OK",
      "vis_m": 9999,
      "fzfg": false,
      "metar_trigger": false,
      "taf_trigger": false,
      "metar": "METAR EDDS 282050Z AUTO 03002KT CAVOK M04/M05 Q1024 NOSIG",
      "taf": "TAF EDDS 281700Z 2818/2918 36003KT CAVOK"
    },
    {
      "icao": "EDFH",
      "alert": "OK",
      "vis_m": 9999,
      "fzfg": false,
      "metar_trigger": false,
      "taf_trigger": false,
      "metar": "METAR EDFH 282050Z 08007KT CAVOK M02/M07 Q1025",
      "taf": "TAF EDFH 281700Z 2818/2918 08008KT CAVOK"
    },
    {
      "icao": "EDJA",
      "alert": "OK",
      "vis_m": 6000,
      "fzfg": false,
      "metar_trigger": false,
      "taf_trigger": false,
      "metar": "METAR EDJA 282050Z 07008KT 6000 OVC003 M04/M05 Q1023",
      "taf": "TAF EDJA 281700Z 2818/2903 07009KT 9999 BKN006"
    },
    {
      "icao": "EDLW",
      "alert": "OK",
      "vis_m": 800,
      "fzfg": true,
      "metar_trigger": false,
      "taf_trigger": false,
      "metar": "METAR EDLW 282050Z 00000KT 0800 R06/1800U FZFG BKN004 M05/M06 Q1028",
      "taf": "TAF EDLW 281700Z 2818/2918 VRB02KT 0200 FZFG VV000"
    },
    {
      "icao": "EDNY",
      "alert": "OK",
      "vis_m": 9999,
      "fzfg": false,
      "metar_trigger": false,
      "taf_trigger": false,
      "metar": "METAR EDNY 282050Z AUTO 03006KT 9999 // OVC012/// M02/M04 Q1024",
      "taf": "TAF EDNY 281400Z 2815/2824 04008KT CAVOK"
    },
    {
      "icao": "EDSB",
      "alert": "OK",
      "vis_m": 9999,
      "fzfg": false,
      "metar_trigger": false,
      "taf_trigger": false,
      "metar": "METAR EDSB 282050Z 03011KT CAVOK 01/M04 Q1025",
      "taf": "TAF EDSB 281700Z 2818/2918 04015KT CAVOK"
    },
    {
      "icao": "EETN",
      "alert": "OK",
      "vis_m": 9999,
      "fzfg": false,
      "metar_trigger": false,
      "taf_trigger": false,
      "metar": "METAR EETN 282120Z 28008KT 9999 -SHRA FEW019CB BKN027 03/00 Q1001 NOSIG",
      "taf": "TAF EETN 281730Z 2818/2918 27010KT 9999 BKN025"
    },
    {
      "icao": "EFTU",
      "alert": "OK",
      "vis_m": 9999,
      "fzfg": false,
      "metar_trigger": false,
      "taf_trigger": false,
      "metar": "METAR EFTU 282120Z AUTO 29009KT 9999 OVC036 03/00 Q1000",
      "taf": "TAF EFTU 282036Z 2821/2921 30009KT 9999 BKN040"
    },
    {
      "icao": "EGBB",
      "alert": "OK",
      "vis_m": 9999,
      "fzfg": false,
      "metar_trigger": false,
      "taf_trigger": false,
      "metar": "METAR EGBB 282050Z 07007KT 9999 OVC016 05/02 Q1031",
      "taf": "TAF EGBB 281657Z 2818/2918 07008KT 9999 BKN018"
    },
    {
      "icao": "EGGP",
      "alert": "OK",
      "vis_m": 9999,
      "fzfg": false,
      "metar_trigger": false,
      "taf_trigger": false,
      "metar": "METAR EGGP 282050Z 10004KT 9999 BKN021 05/01 Q1033",
      "taf": "TAF EGGP 281654Z 2818/2918 08008KT 9999 BKN020"
    },
    {
      "icao": "EGGW",
      "alert": "OK",
      "vis_m": 9999,
      "fzfg": false,
      "metar_trigger": false,
      "taf_trigger": false,
      "metar": "METAR EGGW 282050Z AUTO 04009KT 9999 OVC020 04/02 Q1030",
      "taf": "TAF EGGW 281655Z 2818/2918 06010KT 9999 SCT016"
    },
    {
      "icao": "EGKK",
      "alert": "OK",
      "vis_m": 9999,
      "fzfg": false,
      "metar_trigger": false,
      "taf_trigger": false,
      "metar": "METAR EGKK 282050Z 04009KT 9999 BKN020 06/03 Q1029",
      "taf": "TAF EGKK 281701Z 2818/2924 04009KT 9999 BKN022"
    },
    {
      "icao": "EGNM",
      "alert": "OK",
      "vis_m": 9999,
      "fzfg": false,
      "metar_trigger": false,
      "taf_trigger": false,
      "metar": "METAR EGNM 282050Z 07003KT 9999 OVC016 04/02 Q1032",
      "taf": "TAF EGNM 281655Z 2818/2918 04007KT 9999 BKN018"
    },
    {
      "icao": "EGPD",
      "alert": "OK",
      "vis_m": 9999,
      "fzfg": false,
      "metar_trigger": false,
      "taf_trigger": false,
      "metar": "METAR EGPD 282050Z COR AUTO 28008KT 260V330 9999 OVC018 03/M00 Q1035 NOSIG",
      "taf": "TAF EGPD 281655Z 2818/2918 29005KT 9999 SCT018"
    },
    {
      "icao": "EGPF",
      "alert": "OK",
      "vis_m": 9999,
      "fzfg": false,
      "metar_trigger": false,
      "taf_trigger": false,
      "metar": "METAR EGPF 282050Z AUTO 09002KT 9999 OVC021 05/02 Q1035",
      "taf": ""
    },
    {
      "icao": "EHBK",
      "alert": "OK",
      "vis_m": 5000,
      "fzfg": false,
      "metar_trigger": false,
      "taf_trigger": false,
      "metar": "METAR EHBK 282055Z AUTO 08006KT 5000 BR NCD M02/M02 Q1028 TEMPO 2000 MIFG",
      "taf": "TAF EHBK 281721Z 2818/2924 03005KT CAVOK"
    },
    {
      "icao": "EHEH",
      "alert": "OK",
      "vis_m": 250,
      "fzfg": true,
      "metar_trigger": false,
      "taf_trigger": false,
      "metar": "METAR EHEH 282055Z AUTO 16002KT 0250 R21/0600N FZFG BKN000 M04/M05 Q1029 RED TEMPO 0300 FZFG RMK LVP BRAVO TREND REMOTE BY EHWX",
      "taf": "TAF EHEH 281717Z 2818/2924 05005KT CAVOK"
    },
    {
      "icao": "EKBI",
      "alert": "OK",
      "vis_m": 9999,
      "fzfg": false,
      "metar_trigger": false,
      "taf_trigger": false,
      "metar": "METAR EKBI 282050Z AUTO 29013KT 9999 NCD 04/02 Q1022",
      "taf": "TAF EKBI 282027Z 2821/2921 30010KT CAVOK"
    },
    {
      "icao": "EKCH",
      "alert": "OK",
      "vis_m": 9999,
      "fzfg": false,
      "metar_trigger": false,
      "taf_trigger": false,
      "metar": "METAR EKCH 282050Z 28009KT 9999 BKN010 04/02 Q1019 BECMG CAVOK",
      "taf": "TAF EKCH 282027Z 2821/2921 27010KT 9999 BKN014"
    },
    {
      "icao": "ENAL",
      "alert": "OK",
      "vis_m": 9999,
      "fzfg": false,
      "metar_trigger": false,
      "taf_trigger": false,
      "metar": "METAR ENAL 282050Z 35012KT 310V020 9999 FEW029 SCT036 BKN048 05/M01 Q1024",
      "taf": "TAF ENAL 282000Z 2821/2906 34015KT 9999 FEW025 BKN035"
    },
    {
      "icao": "ENBR",
      "alert": "OK",
      "vis_m": 9999,
      "fzfg": false,
      "metar_trigger": false,
      "taf_trigger": false,
      "metar": "METAR ENBR 282050Z VRB02KT 9999 -DZ SCT007 BKN014 BKN022 02/02 Q1025 RMK WIND 1200FT 34015KT",
      "taf": "TAF ENBR 281700Z 2818/2918 VRB05KT 9999 -SHRA FEW004 BKN020"
    },
    {
      "icao": "ENGM",
      "alert": "OK",
      "vis_m": 9999,
      "fzfg": false,
      "metar_trigger": false,
      "taf_trigger": false,
      "metar": "METAR ENGM 282050Z VRB02KT CAVOK M05/M08 Q1014 NOSIG",
      "taf": "TAF ENGM 281700Z 2818/2918 VRB03KT CAVOK"
    },
    {
      "icao": "ENHD",
      "alert": "OK",
      "vis_m": 9999,
      "fzfg": false,
      "metar_trigger": false,
      "taf_trigger": false,
      "metar": "METAR ENHD 282050Z 32015KT 9999 -RA FEW016 SCT038 BKN046 07/05 Q1025",
      "taf": "TAF ENHD 281400Z 2815/2823 36015KT 9999 SCT040"
    },
    {
      "icao": "ENTC",
      "alert": "OK",
      "vis_m": 400,
      "fzfg": false,
      "metar_trigger": false,
      "taf_trigger": false,
      "metar": "METAR ENTC 282050Z 33016KT 0400 R36/1300D R18/1300D SN VV009 M04/M06 Q0998 TEMPO 34018G28KT 9999 -SHSN FEW010 BKN025 RMK WIND 2600FT 33038KT",
      "taf": "TAF ENTC 281700Z 2818/2918 35015KT 9999 -SHSN FEW015CB BKN030"
    },
    {
      "icao": "ENTO",
      "alert": "OK",
      "vis_m": 9999,
      "fzfg": false,
      "metar_trigger": false,
      "taf_trigger": false,
      "metar": "METAR ENTO 282050Z 28007KT CAVOK 04/M05 Q1017 NOSIG",
      "taf": "TAF ENTO 281700Z 2818/2918 28005KT CAVOK"
    },
    {
      "icao": "ENVA",
      "alert": "OK",
      "vis_m": 9999,
      "fzfg": false,
      "metar_trigger": false,
      "taf_trigger": false,
      "metar": "METAR ENVA 282050Z 29027G39KT 9999 VCSH FEW009CB BKN014 02/M00 Q1016 RMK WIND 670FT 30031KT",
      "taf": ""
    },
    {
      "icao": "ENZV",
      "alert": "OK",
      "vis_m": 9999,
      "fzfg": false,
      "metar_trigger": false,
      "taf_trigger": false,
      "metar": "METAR ENZV 282050Z 35007KT CAVOK 04/03 Q1025 NOSIG",
      "taf": ""
    },
    {
      "icao": "EPGD",
      "alert": "OK",
      "vis_m": 9999,
      "fzfg": false,
      "metar_trigger": false,
      "taf_trigger": false,
      "metar": "METAR EPGD 282100Z 26007KT CAVOK M00/M02 Q1015",
      "taf": "TAF EPGD 281730Z 2818/2918 30012KT CAVOK"
    },
    {
      "icao": "EPKK",
      "alert": "OK",
      "vis_m": 9999,
      "fzfg": false,
      "metar_trigger": false,
      "taf_trigger": false,
      "metar": "METAR EPKK 282100Z 28013KT 9999 OVC022 M00/M04 Q1021",
      "taf": "TAF EPKK 282030Z 2821/2921 27014KT 9999 BKN020"
    },
    {
      "icao": "EPKT",
      "alert": "OK",
      "vis_m": 9999,
      "fzfg": false,
      "metar_trigger": false,
      "taf_trigger": false,
      "metar": "METAR EPKT 282100Z 29010KT 9999 OVC016 M01/M04 Q1021",
      "taf": "TAF EPKT 281730Z 2818/2918 28010KT 9999 BKN016 OVC020"
    },
    {
      "icao": "EPLB",
      "alert": "OK",
      "vis_m": 9999,
      "fzfg": false,
      "metar_trigger": false,
      "taf_trigger": false,
      "metar": "METAR EPLB 282100Z 30013KT 9999 FEW028 BKN038 OVC046 01/M02 Q1014",
      "taf": "TAF EPLB 281730Z 2818/2918 29015KT 9999 BKN030"
    },
    {
      "icao": "EPMO",
      "alert": "OK",
      "vis_m": 9999,
      "fzfg": false,
      "metar_trigger": false,
      "taf_trigger": false,
      "metar": "METAR EPMO 282100Z 29012KT 9999 BKN023 01/M03 Q1017",
      "taf": "TAF EPMO 281730Z 2818/2918 29012KT 9999 BKN030"
    },
    {
      "icao": "EPPO",
      "alert": "OK",
      "vis_m": 9999,
      "fzfg": false,
      "metar_trigger": false,
      "taf_trigger": false,
      "metar": "METAR EPPO 282100Z 26009KT 9999 FEW013 M02/M04 Q1021",
      "taf": "TAF EPPO 281730Z 2818/2918 29010KT CAVOK"
    },
    {
      "icao": "EPRA",
      "alert": "OK",
      "vis_m": 9999,
      "fzfg": false,
      "metar_trigger": false,
      "taf_trigger": false,
      "metar": "METAR EPRA 282100Z 32015KT 9999 BKN022 00/M04 Q1017",
      "taf": "TAF EPRA 282030Z 2821/2906 29012KT 9999 BKN022"
    },
    {
      "icao": "EPRZ",
      "alert": "OK",
      "vis_m": 9999,
      "fzfg": false,
      "metar_trigger": false,
      "taf_trigger": false,
      "metar": "METAR EPRZ 282100Z 29016KT 9999 OVC026 01/M05 Q1017",
      "taf": "TAF EPRZ 281730Z 2818/2918 29014KT 9999 BKN030"
    },
    {
      "icao": "EPSC",
      "alert": "OK",
      "vis_m": 9999,
      "fzfg": false,
      "metar_trigger": false,
      "taf_trigger": false,
      "metar": "METAR EPSC 282100Z 19003KT 160V230 9999 FEW018 M02/M03 Q1020",
      "taf": "TAF EPSC 281730Z 2818/2918 24002KT CAVOK"
    },
    {
      "icao": "EPSY",
      "alert": "OK",
      "vis_m": 9999,
      "fzfg": false,
      "metar_trigger": false,
      "taf_trigger": false,
      "metar": "METAR EPSY 282100Z 32009KT 270V350 9999 FEW017 BKN024 OVC030 02/M02 Q1014",
      "taf": "TAF EPSY 282030Z 2821/2906 32012KT 9999 BKN025"
    },
    {
      "icao": "EPWA",
      "alert": "OK",
      "vis_m": 9999,
      "fzfg": false,
      "metar_trigger": false,
      "taf_trigger": false,
      "metar": "METAR EPWA 282100Z 31015KT 9999 OVC024 01/M03 Q1017 NOSIG",
      "taf": "TAF EPWA 282030Z 2821/2921 28012KT 9999 BKN030"
    },
    {
      "icao": "EPWR",
      "alert": "OK",
      "vis_m": 9999,
      "fzfg": false,
      "metar_trigger": false,
      "taf_trigger": false,
      "metar": "METAR EPWR 282100Z 28012KT CAVOK M02/M03 Q1023",
      "taf": "TAF EPWR 282030Z 2821/2921 29012KT CAVOK"
    },
    {
      "icao": "ESGG",
      "alert": "OK",
      "vis_m": 9999,
      "fzfg": false,
      "metar_trigger": false,
      "taf_trigger": false,
      "metar": "METAR ESGG 282050Z 36003KT CAVOK M00/M01 Q1017",
      "taf": "TAF ESGG 282030Z 2821/2921 VRB02KT CAVOK"
    },
    {
      "icao": "ESKN",
      "alert": "OK",
      "vis_m": 9999,
      "fzfg": false,
      "metar_trigger": false,
      "taf_trigger": false,
      "metar": "METAR ESKN 282050Z 28009KT CAVOK 00/M06 Q1011",
      "taf": "TAF ESKN 282030Z 2821/2921 28012KT CAVOK"
    },
    {
      "icao": "ESMS",
      "alert": "OK",
      "vis_m": 9999,
      "fzfg": false,
      "metar_trigger": false,
      "taf_trigger": false,
      "metar": "METAR ESMS 282050Z 30011KT 9999 BKN013 OVC017 04/02 Q1017",
      "taf": "TAF ESMS 282027Z 2821/2921 28009KT 9999 BKN015"
    },
    {
      "icao": "ESSA",
      "alert": "OK",
      "vis_m": 9999,
      "fzfg": false,
      "metar_trigger": false,
      "taf_trigger": false,
      "metar": "METAR ESSA 282050Z 28010KT CAVOK 00/M06 Q1008 NOSIG",
      "taf": "TAF ESSA 282030Z 2821/2921 29012KT CAVOK"
    },
    {
      "icao": "EYKA",
      "alert": "OK",
      "vis_m": 9999,
      "fzfg": false,
      "metar_trigger": false,
      "taf_trigger": false,
      "metar": "METAR EYKA 282120Z 28007KT 220V330 9999 OVC014 01/M01 Q1009",
      "taf": "TAF EYKA 281701Z 2818/2918 30010KT 9000 SCT030"
    },
    {
      "icao": "EYPA",
      "alert": "OK",
      "vis_m": 9999,
      "fzfg": false,
      "metar_trigger": false,
      "taf_trigger": false,
      "metar": "METAR EYPA 282120Z 31007KT 260V010 9999 SCT027 BKN038 04/M01 Q1011",
      "taf": "TAF EYPA 281701Z 2818/2918 31010KT 9000 SCT025"
    },
    {
      "icao": "EYVI",
      "alert": "OK",
      "vis_m": 9999,
      "fzfg": false,
      "metar_trigger": false,
      "taf_trigger": false,
      "metar": "METAR EYVI 282120Z 32009KT 280V350 9999 BKN034 M01/M04 Q1007 NOSIG",
      "taf": "TAF EYVI 281701Z 2818/2918 31012KT 9000 BKN030"
    },
    {
      "icao": "GCFV",
      "alert": "OK",
      "vis_m": 9999,
      "fzfg": false,
      "metar_trigger": false,
      "taf_trigger": false,
      "metar": "METAR GCFV 282100Z 33006KT 290V350 CAVOK 18/11 Q1019",
      "taf": "TAF GCFV 282000Z 2821/2921 32005KT 9999 FEW030 TX21/2914Z TN14/2906Z"
    },
    {
      "icao": "GCLP",
      "alert": "OK",
      "vis_m": 9999,
      "fzfg": false,
      "metar_trigger": false,
      "taf_trigger": false,
      "metar": "METAR GCLP 282100Z 33005KT 300V020 9999 BKN035 18/13 Q1019 NOSIG",
      "taf": "TAF GCLP 282000Z 2821/2921 32005KT 9999 BKN030 TX21/2914Z TN15/2906Z"
    },
    {
      "icao": "GCTS",
      "alert": "OK",
      "vis_m": 9999,
      "fzfg": false,
      "metar_trigger": false,
      "taf_trigger": false,
      "metar": "METAR GCTS 282100Z 09005KT 9999 SCT050 18/12 Q1020 NOSIG",
      "taf": "TAF GCTS 282000Z 2821/2921 02005KT 9999 SCT030 TX23/2914Z TN16/2906Z"
    },
    {
      "icao": "GMAD",
      "alert": "OK",
      "vis_m": 9999,
      "fzfg": false,
      "metar_trigger": false,
      "taf_trigger": false,
      "metar": "METAR GMAD 282100Z 19008KT 9999 FEW020 SCT200 13/12 Q1018 NOSIG",
      "taf": "TAF GMAD 281700Z 2818/2924 26008KT 8000 SCT020 SCT080"
    },
    {
      "icao": "GMMN",
      "alert": "OK",
      "vis_m": 8000,
      "fzfg": false,
      "metar_trigger": false,
      "taf_trigger": false,
      "metar": "METAR GMMN 282100Z 24013KT 8000 BKN016 SCT023TCU 12/10 Q1015 TEMPO 5000 RA",
      "taf": "TAF GMMN 281700Z 2818/2924 24016KT 8000 BKN016 BKN020TCU"
    },
    {
      "icao": "GMMX",
      "alert": "OK",
      "vis_m": 8000,
      "fzfg": false,
      "metar_trigger": false,
      "taf_trigger": false,
      "metar": "METAR GMMX 282100Z 23007KT 8000 SCT026 SCT100 11/09 Q1018 NOSIG",
      "taf": ""
    },
    {
      "icao": "HEGN",
      "alert": "OK",
      "vis_m": 9999,
      "fzfg": false,
      "metar_trigger": false,
      "taf_trigger": false,
      "metar": "METAR HEGN 282100Z 28007KT CAVOK 16/07 Q1015 NOSIG",
      "taf": "TAF HEGN 281700Z 2818/2924 28010KT CAVOK"
    },
    {
      "icao": "HEMA",
      "alert": "OK",
      "vis_m": 9999,
      "fzfg": false,
      "metar_trigger": false,
      "taf_trigger": false,
      "metar": "METAR HEMA 282100Z 22008KT CAVOK 16/07 Q1014 NOSIG",
      "taf": "TAF HEMA 281700Z 2818/2924 29010KT CAVOK"
    },
    {
      "icao": "HESH",
      "alert": "OK",
      "vis_m": 9999,
      "fzfg": false,
      "metar_trigger": false,
      "taf_trigger": false,
      "metar": "METAR HESH 282100Z 29006KT CAVOK 18/09 Q1013 NOSIG",
      "taf": "TAF HESH 281700Z 2818/2924 35008KT CAVOK"
    },
    {
      "icao": "HESX",
      "alert": "OK",
      "vis_m": 9999,
      "fzfg": false,
      "metar_trigger": false,
      "taf_trigger": false,
      "metar": "METAR HESX 282100Z 21003KT CAVOK 11/06 Q1015 NOSIG",
      "taf": "TAF HESX 281700Z 2818/2924 30010KT 9999 SCT025"
    },
    {
      "icao": "LATI",
      "alert": "OK",
      "vis_m": 9999,
      "fzfg": false,
      "metar_trigger": false,
      "taf_trigger": false,
      "metar": "METAR LATI 282120Z VRB03KT CAVOK 03/M01 Q1017 NOSIG",
      "taf": "TAF LATI 281700Z 2818/2918 VRB05KT CAVOK TX15/2912Z TNM01/2905Z"
    },
    {
      "icao": "LBPD",
      "alert": "OK",
      "vis_m": 9999,
      "fzfg": false,
      "metar_trigger": false,
      "taf_trigger": false,
      "metar": "METAR LBPD 282100Z AUTO 28023KT 9999 NCD 03/M06 Q1016",
      "taf": "TAF LBPD 281700Z 2818/2918 28020G32KT 9999 SCT050"
    },
    {
      "icao": "LBSF",
      "alert": "OK",
      "vis_m": 9999,
      "fzfg": false,
      "metar_trigger": false,
      "taf_trigger": false,
      "metar": "METAR LBSF 282100Z AUTO 28013KT 9999 OVC030/// M00/M06 Q1018 NOSIG",
      "taf": "TAF LBSF 281700Z 2818/2918 29018G30KT 9999 SCT025"
    },
    {
      "icao": "LBWN",
      "alert": "OK",
      "vis_m": 9999,
      "fzfg": false,
      "metar_trigger": false,
      "taf_trigger": false,
      "metar": "METAR LBWN 282100Z AUTO 27012KT 9999 NSC 01/M03 Q1012 NOSIG",
      "taf": "TAF LBWN 281700Z 2818/2918 29018G34KT 9999 SCT045"
    },
    {
      "icao": "LCLK",
      "alert": "OK",
      "vis_m": 9999,
      "fzfg": false,
      "metar_trigger": false,
      "taf_trigger": false,
      "metar": "METAR LCLK 282100Z 21011KT 9999 FEW020 10/06 Q1007 NOSIG",
      "taf": "TAF LCLK 281730Z 2818/2918 30008KT 9999 FEW030 SCT060"
    },
    {
      "icao": "LCPH",
      "alert": "OK",
      "vis_m": 9999,
      "fzfg": false,
      "metar_trigger": false,
      "taf_trigger": false,
      "metar": "METAR LCPH 282100Z 31019KT 250V320 9999 FEW030 BKN040 BKN050 16/09 Q1007 NOSIG",
      "taf": "TAF LCPH 281730Z 2818/2918 30014KT 9999 FEW030 SCT060"
    },
    {
      "icao": "LEAL",
      "alert": "OK",
      "vis_m": 9999,
      "fzfg": false,
      "metar_trigger": false,
      "taf_trigger": false,
      "metar": "METAR LEAL 282100Z 07010KT 9999 FEW015 SCT025 16/11 Q1016 NOSIG",
      "taf": "TAF LEAL 281700Z 2818/2918 07012KT 9999 BKN020 TX16/2913Z TN08/2906Z"
    },
    {
      "icao": "LEBB",
      "alert": "OK",
      "vis_m": 9999,
      "fzfg": false,
      "metar_trigger": false,
      "taf_trigger": false,
      "metar": "METAR LEBB 282100Z VRB03KT CAVOK 07/06 Q1020 NOSIG",
      "taf": "TAF LEBB 281700Z 2818/2918 11008KT 9999 FEW040 TX15/2914Z TN04/2908Z"
    },
    {
      "icao": "LEBL",
      "alert": "OK",
      "vis_m": 9999,
      "fzfg": false,
      "metar_trigger": false,
      "taf_trigger": false,
      "metar": "METAR LEBL 282100Z 05009KT 9999 SCT016 BKN023 13/12 Q1020 NOSIG",
      "taf": "TAF LEBL 281700Z 2818/2918 07009KT 9999 FEW020 TX15/2912Z TN08/2907Z"
    },
    {
      "icao": "LECH",
      "alert": "OK",
      "vis_m": 9000,
      "fzfg": false,
      "metar_trigger": false,
      "taf_trigger": false,
      "metar": "METAR LECH 282100Z AUTO 04005KT 350V080 9000 BKN017 BKN022 OVC029 09/08 Q1019",
      "taf": ""
    },
    {
      "icao": "LEMD",
      "alert": "OK",
      "vis_m": 9999,
      "fzfg": false,
      "metar_trigger": false,
      "taf_trigger": false,
      "metar": "METAR LEMD 282100Z 33003KT 280V020 9999 BKN050 08/04 Q1017 NOSIG",
      "taf": "TAF LEMD 281700Z 2818/2924 02006KT 9999 SCT040 TX11/2915Z TN03/2907Z"
    },
    {
      "icao": "LEMG",
      "alert": "OK",
      "vis_m": 9999,
      "fzfg": false,
      "metar_trigger": false,
      "taf_trigger": false,
      "metar": "METAR LEMG 282100Z 31007KT 9999 FEW025 09/08 Q1014 NOSIG",
      "taf": "TAF LEMG 281700Z 2818/2918 29006KT 9999 FEW025 SCT040 TX16/2914Z TN09/2906Z"
    },
    {
      "icao": "LEVC",
      "alert": "OK",
      "vis_m": 9999,
      "fzfg": false,
      "metar_trigger": false,
      "taf_trigger": false,
      "metar": "METAR LEVC 282100Z 32011KT 9999 SHRA VCTS FEW020 SCT025CB BKN048 09/08 Q1019 NOSIG",
      "taf": "TAF LEVC 281700Z 2818/2918 05010KT 7000 FEW015 OVC030 TX15/2913Z TN06/2906Z"
    },
    {
      "icao": "LEXJ",
      "alert": "OK",
      "vis_m": 9999,
      "fzfg": false,
      "metar_trigger": false,
      "taf_trigger": false,
      "metar": "METAR LEXJ 282100Z 19001KT CAVOK 08/07 Q1019",
      "taf": "TAF LEXJ 282000Z 2821/2921 19009KT CAVOK TX15/2913Z TN07/2906Z"
    },
    {
      "icao": "LEZG",
      "alert": "OK",
      "vis_m": 9999,
      "fzfg": false,
      "metar_trigger": false,
      "taf_trigger": false,
      "metar": "METAR LEZG 282100Z 22005KT 9999 FEW020 SCT045 08/08 Q1020 NOSIG",
      "taf": "TAF LEZG 281700Z 2818/2918 28006KT 9999 FEW060 TX12/2914Z TN06/2906Z"
    },
    {
      "icao": "LEZL",
      "alert": "OK",
      "vis_m": 9999,
      "fzfg": false,
      "metar_trigger": false,
      "taf_trigger": false,
      "metar": "METAR LEZL 282100Z 03006KT CAVOK 10/09 Q1014 NOSIG",
      "taf": "TAF LEZL 282000Z 2821/2921 03006KT 9999 FEW030 TX16/2915Z TN05/2906Z"
    },
    {
      "icao": "LFBD",
      "alert": "OK",
      "vis_m": 9999,
      "fzfg": false,
      "metar_trigger": false,
      "taf_trigger": false,
      "metar": "METAR LFBD 282100Z AUTO 04006KT CAVOK 04/02 Q1020 NOSIG",
      "taf": "TAF LFBD 281700Z 2818/2924 02005KT CAVOK TX09/2913Z TN00/2908Z"
    },
    {
      "icao": "LFLL",
      "alert": "OK",
      "vis_m": 9000,
      "fzfg": false,
      "metar_trigger": false,
      "taf_trigger": false,
      "metar": "METAR LFLL 282100Z VRB02KT 9000 OVC006 M01/M02 Q1024 NOSIG",
      "taf": "TAF LFLL 281700Z 2818/2924 VRB03KT 6000 OVC006"
    },
    {
      "icao": "LFLS",
      "alert": "OK",
      "vis_m": 5000,
      "fzfg": false,
      "metar_trigger": false,
      "taf_trigger": false,
      "metar": "METAR LFLS 282100Z AUTO 18002KT 5000 BR NSC M04/M04 Q1022",
      "taf": "TAF LFLS 281400Z 2815/2915 03007KT CAVOK"
    },
    {
      "icao": "LFMN",
      "alert": "OK",
      "vis_m": 9999,
      "fzfg": false,
      "metar_trigger": false,
      "taf_trigger": false,
      "metar": "METAR LFMN 282100Z 33012KT CAVOK 07/00 Q1021 NOSIG",
      "taf": "TAF LFMN 282000Z 2821/3003 33012KT CAVOK"
    },
    {
      "icao": "LFOB",
      "alert": "OK",
      "vis_m": 7000,
      "fzfg": false,
      "metar_trigger": false,
      "taf_trigger": false,
      "metar": "METAR LFOB 282100Z AUTO 24002KT 7000 NSC M02/M03 Q1026",
      "taf": ""
    },
    {
      "icao": "LFPO",
      "alert": "OK",
      "vis_m": 9999,
      "fzfg": false,
      "metar_trigger": false,
      "taf_trigger": false,
      "metar": "METAR LFPO 282100Z 01005KT 330V040 CAVOK 00/M01 Q1025 NOSIG",
      "taf": "TAF LFPO 281700Z 2818/2924 03006KT CAVOK"
    },
    {
      "icao": "LFSB",
      "alert": "OK",
      "vis_m": 400,
      "fzfg": true,
      "metar_trigger": false,
      "taf_trigger": false,
      "metar": "METAR LFSB 282100Z AUTO 32003KT 0400 0300 R15/0500D R33/0550N FZFG VV/// M03/M03 Q1024 NOSIG",
      "taf": ""
    },
    {
      "icao": "LGAV",
      "alert": "OK",
      "vis_m": 9999,
      "fzfg": false,
      "metar_trigger": false,
      "taf_trigger": false,
      "metar": "METAR LGAV 282050Z 35010KT CAVOK 11/M00 Q1015 NOSIG",
      "taf": "TAF LGAV 281700Z 2818/2918 34012KT 9999 FEW020"
    },
    {
      "icao": "LGTS",
      "alert": "OK",
      "vis_m": 9999,
      "fzfg": false,
      "metar_trigger": false,
      "taf_trigger": false,
      "metar": "METAR LGTS 282050Z 33018G29KT CAVOK 06/M04 Q1017 NOSIG",
      "taf": "TAF LGTS 281700Z 2818/2918 33015G25KT 9999 FEW030"
    },
    {
      "icao": "LHBP",
      "alert": "OK",
      "vis_m": 9999,
      "fzfg": false,
      "metar_trigger": false,
      "taf_trigger": false,
      "metar": "METAR LHBP 282100Z 31016KT CAVOK 00/M05 Q1020 NOSIG",
      "taf": "TAF LHBP 281715Z 2818/2918 31015KT CAVOK"
    },
    {
      "icao": "LHDC",
      "alert": "OK",
      "vis_m": 9999,
      "fzfg": false,
      "metar_trigger": false,
      "taf_trigger": false,
      "metar": "METAR LHDC 282045Z AUTO 25003KT CAVOK M02/M06 Q1019",
      "taf": "TAF LHDC 281115Z 2812/2821 30014KT CAVOK"
    },
    {
      "icao": "LIBD",
      "alert": "OK",
      "vis_m": 9999,
      "fzfg": false,
      "metar_trigger": false,
      "taf_trigger": false,
      "metar": "METAR LIBD 282050Z 28008KT 250V310 CAVOK 09/05 Q1019",
      "taf": "TAF LIBD 281700Z 2818/2918 28012KT CAVOK"
    },
    {
      "icao": "LIBG",
      "alert": "OK",
      "vis_m": null,
      "fzfg": false,
      "metar_trigger": false,
      "taf_trigger": false,
      "metar": "",
      "taf": "TAF LIBG 281700Z 2818/2903 35012KT CAVOK"
    },
    {
      "icao": "LIBP",
      "alert": "OK",
      "vis_m": 9999,
      "fzfg": false,
      "metar_trigger": false,
      "taf_trigger": false,
      "metar": "METAR LIBP 282050Z AUTO 22006KT 9999 NCD 02/00 Q1022",
      "taf": "TAF LIBP 281700Z 2818/2918 VRB05KT CAVOK"
    },
    {
      "icao": "LIBR",
      "alert": "OK",
      "vis_m": 9999,
      "fzfg": false,
      "metar_trigger": false,
      "taf_trigger": false,
      "metar": "METAR LIBR 282050Z 35012KT 9999 SCT030 14/06 Q1017",
      "taf": "TAF LIBR 281700Z 2818/2918 33015KT 9999 FEW025"
    },
    {
      "icao": "LICA",
      "alert": "OK",
      "vis_m": 9999,
      "fzfg": false,
      "metar_trigger": false,
      "taf_trigger": false,
      "metar": "METAR LICA 282050Z AUTO VRB01KT 9999 SCT040/// 08/06 Q1020",
      "taf": "TAF LICA 281700Z 2818/2918 27010KT CAVOK"
    },
    {
      "icao": "LICC",
      "alert": "OK",
      "vis_m": 9999,
      "fzfg": false,
      "metar_trigger": false,
      "taf_trigger": false,
      "metar": "METAR LICC 282050Z 25003KT CAVOK 08/06 Q1019",
      "taf": "TAF LICC 281700Z 2818/2918 VRB05KT 9999 FEW030"
    },
    {
      "icao": "LICJ",
      "alert": "OK",
      "vis_m": 9999,
      "fzfg": false,
      "metar_trigger": false,
      "taf_trigger": false,
      "metar": "METAR LICJ 282050Z AUTO 08007KT 9999 NCD 11/07 Q1020",
      "taf": "TAF LICJ 281700Z 2818/2918 04010KT CAVOK"
    },
    {
      "icao": "LIMC",
      "alert": "OK",
      "vis_m": 9999,
      "fzfg": false,
      "metar_trigger": false,
      "taf_trigger": false,
      "metar": "METAR LIMC 282050Z 02006KT CAVOK 01/M01 Q1023 NOSIG",
      "taf": "TAF LIMC 281700Z 2818/2924 VRB05KT CAVOK"
    },
    {
      "icao": "LIME",
      "alert": "OK",
      "vis_m": 9999,
      "fzfg": false,
      "metar_trigger": false,
      "taf_trigger": false,
      "metar": "METAR LIME 282050Z VRB02KT CAVOK 02/M00 Q1023 NOSIG",
      "taf": "TAF LIME 281700Z 2818/2918 VRB05KT CAVOK"
    },
    {
      "icao": "LIMF",
      "alert": "OK",
      "vis_m": 9999,
      "fzfg": false,
      "metar_trigger": false,
      "taf_trigger": false,
      "metar": "METAR LIMF 282050Z 29004KT CAVOK 04/M02 Q1023",
      "taf": "TAF LIMF 281700Z 2818/2918 VRB05KT CAVOK"
    },
    {
      "icao": "LIMJ",
      "alert": "OK",
      "vis_m": 9999,
      "fzfg": false,
      "metar_trigger": false,
      "taf_trigger": false,
      "metar": "METAR LIMJ 282050Z 03008KT CAVOK 10/01 Q1021",
      "taf": "TAF LIMJ 281700Z 2818/2918 03005KT 9999 FEW020"
    },
    {
      "icao": "LIPE",
      "alert": "OK",
      "vis_m": 9999,
      "fzfg": false,
      "metar_trigger": false,
      "taf_trigger": false,
      "metar": "METAR LIPE 282050Z VRB02KT CAVOK 01/01 Q1023",
      "taf": "TAF LIPE 281700Z 2818/2918 VRB06KT CAVOK"
    },
    {
      "icao": "LIPH",
      "alert": "OK",
      "vis_m": 9999,
      "fzfg": false,
      "metar_trigger": false,
      "taf_trigger": false,
      "metar": "METAR LIPH 282050Z VRB01KT CAVOK 04/01 Q1023",
      "taf": "TAF LIPH 281700Z 2818/2918 VRB05KT CAVOK"
    },
    {
      "icao": "LIPQ",
      "alert": "OK",
      "vis_m": 9999,
      "fzfg": false,
      "metar_trigger": false,
      "taf_trigger": false,
      "metar": "METAR LIPQ 282050Z AUTO VRB02KT 9999 NCD 01/M01 Q1023",
      "taf": "TAF LIPQ 281700Z 2818/2918 VRB05KT CAVOK"
    },
    {
      "icao": "LIPR",
      "alert": "OK",
      "vis_m": 9999,
      "fzfg": false,
      "metar_trigger": false,
      "taf_trigger": false,
      "metar": "METAR LIPR 282050Z 21003KT CAVOK 02/01 Q1023",
      "taf": "TAF LIPR 281700Z 2818/2918 VRB06KT CAVOK"
    },
    {
      "icao": "LIPX",
      "alert": "OK",
      "vis_m": 9999,
      "fzfg": false,
      "metar_trigger": false,
      "taf_trigger": false,
      "metar": "METAR LIPX 282050Z 01003KT CAVOK 00/M01 Q1023",
      "taf": "TAF LIPX 281700Z 2818/2918 VRB05KT CAVOK"
    },
    {
      "icao": "LIPY",
      "alert": "OK",
      "vis_m": 9999,
      "fzfg": false,
      "metar_trigger": false,
      "taf_trigger": false,
      "metar": "METAR LIPY 282050Z AUTO 21004KT 9999 NCD 04/03 Q1023",
      "taf": "TAF LIPY 281700Z 2818/2918 VRB05KT CAVOK"
    },
    {
      "icao": "LIPZ",
      "alert": "OK",
      "vis_m": 9999,
      "fzfg": false,
      "metar_trigger": false,
      "taf_trigger": false,
      "metar": "METAR LIPZ 282050Z 04006KT CAVOK 04/01 Q1023 NOSIG",
      "taf": "TAF LIPZ 281700Z 2818/2924 VRB05KT CAVOK"
    },
    {
      "icao": "LIRF",
      "alert": "OK",
      "vis_m": 9999,
      "fzfg": false,
      "metar_trigger": false,
      "taf_trigger": false,
      "metar": "METAR LIRF 282050Z 06003KT CAVOK 04/03 Q1020 NOSIG",
      "taf": "TAF LIRF 281700Z 2818/2924 VRB05KT CAVOK"
    },
    {
      "icao": "LIRN",
      "alert": "OK",
      "vis_m": 9999,
      "fzfg": false,
      "metar_trigger": false,
      "taf_trigger": false,
      "metar": "METAR LIRN 282050Z 31004KT 270V360 CAVOK 09/03 Q1020 NOSIG",
      "taf": "TAF LIRN 281700Z 2818/2918 VRB05KT CAVOK"
    },
    {
      "icao": "LIRP",
      "alert": "OK",
      "vis_m": 9999,
      "fzfg": false,
      "metar_trigger": false,
      "taf_trigger": false,
      "metar": "METAR LIRP 282045Z VRB01KT CAVOK 04/04 Q1021 NOSIG",
      "taf": "TAF LIRP 281700Z 2818/2918 12005KT CAVOK"
    },
    {
      "icao": "LIRZ",
      "alert": "OK",
      "vis_m": 9999,
      "fzfg": false,
      "metar_trigger": false,
      "taf_trigger": false,
      "metar": "METAR LIRZ 282050Z AUTO 11004KT 050V180 9999 NCD M01/M02 Q1021",
      "taf": "TAF LIRZ 281700Z 2818/2918 02010KT CAVOK"
    },
    {
      "icao": "LJLJ",
      "alert": "OK",
      "vis_m": 9999,
      "fzfg": false,
      "metar_trigger": false,
      "taf_trigger": false,
      "metar": "METAR LJLJ 282100Z 29004KT 250V340 9999 OVC007 00/M01 Q1025 NOSIG",
      "taf": "TAF LJLJ 281700Z 2818/2918 VRB02KT 7000 FEW003 OVC012"
    },
    {
      "icao": "LKMT",
      "alert": "OK",
      "vis_m": 9999,
      "fzfg": false,
      "metar_trigger": false,
      "taf_trigger": false,
      "metar": "METAR LKMT 282100Z VRB02KT CAVOK M03/M04 Q1023 NOSIG",
      "taf": "TAF LKMT 281700Z 2818/2918 35008KT 9999 BKN030"
    },
    {
      "icao": "LKPR",
      "alert": "OK",
      "vis_m": 9999,
      "fzfg": false,
      "metar_trigger": false,
      "taf_trigger": false,
      "metar": "METAR LKPR 282100Z 21005KT CAVOK M05/M07 Q1024 NOSIG",
      "taf": "TAF LKPR 282000Z 2821/3003 23008KT CAVOK"
    },
    {
      "icao": "LLBG",
      "alert": "OK",
      "vis_m": 9999,
      "fzfg": false,
      "metar_trigger": false,
      "taf_trigger": false,
      "metar": "METAR LLBG 282120Z 19008KT 160V260 9999 BKN048 16/08 Q1011 TEMPO 27015G25KT 7000 RA FEW025TCU",
      "taf": "TAF LLBG 281705Z 2818/2918 22012KT 9999 SCT035"
    },
    {
      "icao": "LMML",
      "alert": "OK",
      "vis_m": 9999,
      "fzfg": false,
      "metar_trigger": false,
      "taf_trigger": false,
      "metar": "METAR LMML 282115Z 25005KT CAVOK 10/09 Q1020 NOSIG",
      "taf": "TAF LMML 281700Z 2818/2918 29007KT 9999 SCT019"
    },
    {
      "icao": "LOWW",
      "alert": "OK",
      "vis_m": 9999,
      "fzfg": false,
      "metar_trigger": false,
      "taf_trigger": false,
      "metar": "METAR LOWW 282050Z 29007KT CAVOK 00/M05 Q1025 NOSIG",
      "taf": "TAF LOWW 282015Z 2821/3003 32012KT CAVOK TX03/2913Z TNM04/2906Z"
    },
    {
      "icao": "LPFR",
      "alert": "OK",
      "vis_m": 9999,
      "fzfg": false,
      "metar_trigger": false,
      "taf_trigger": false,
      "metar": "METAR LPFR 282100Z 02007KT 9999 FEW025 11/08 Q1014",
      "taf": "TAF LPFR 281700Z 2818/2918 06008KT 9999 SCT020"
    },
    {
      "icao": "LPMA",
      "alert": "OK",
      "vis_m": 9999,
      "fzfg": false,
      "metar_trigger": false,
      "taf_trigger": false,
      "metar": "METAR LPMA 282100Z 33005KT 9999 SCT016 16/10 Q1019",
      "taf": "TAF LPMA 281700Z 2818/2918 34008KT 9999 SCT015"
    },
    {
      "icao": "LPPR",
      "alert": "OK",
      "vis_m": 9999,
      "fzfg": false,
      "metar_trigger": false,
      "taf_trigger": false,
      "metar": "METAR LPPR 282100Z 05003KT 340V120 CAVOK 07/06 Q1017",
      "taf": "TAF LPPR 281700Z 2818/2918 VRB02KT CAVOK"
    },
    {
      "icao": "LPPS",
      "alert": "OK",
      "vis_m": 9999,
      "fzfg": false,
      "metar_trigger": false,
      "taf_trigger": false,
      "metar": "METAR LPPS 282100Z 01003KT 340V040 9999 FEW015 14/08 Q1019",
      "taf": "TAF LPPS 281700Z 2818/2924 35008KT 9999 SCT015"
    },
    {
      "icao": "LPPT",
      "alert": "OK",
      "vis_m": 9999,
      "fzfg": false,
      "metar_trigger": false,
      "taf_trigger": false,
      "metar": "METAR LPPT 282100Z 32005KT 9999 FEW025 11/08 Q1016",
      "taf": "TAF LPPT 281700Z 2818/2924 02007KT 9999 FEW020"
    },
    {
      "icao": "LQBK",
      "alert": "OK",
      "vis_m": 9999,
      "fzfg": false,
      "metar_trigger": false,
      "taf_trigger": false,
      "metar": "METAR LQBK 282100Z 15003KT CAVOK M03/M03 Q1026 NOSIG",
      "taf": "TAF LQBK 281700Z 2818/2918 18005KT CAVOK TX04/2913Z TNM05/2905Z"
    },
    {
      "icao": "LQSA",
      "alert": "OK",
      "vis_m": 9999,
      "fzfg": false,
      "metar_trigger": false,
      "taf_trigger": false,
      "metar": "METAR LQSA 282100Z VRB01KT CAVOK M04/M05 Q1024 NOSIG",
      "taf": "TAF LQSA 281700Z 2818/2918 VRB02KT CAVOK TX04/2913Z TNM07/2905Z"
    },
    {
      "icao": "LQTZ",
      "alert": "OK",
      "vis_m": 9999,
      "fzfg": false,
      "metar_trigger": false,
      "taf_trigger": false,
      "metar": "METAR LQTZ 282100Z VRB01KT 9999 FEW030 M03/M03 Q1025",
      "taf": "TAF LQTZ 281700Z 2818/2918 35005KT 9999 SCT035 TX05/2913Z TNM05/2905Z"
    },
    {
      "icao": "LRBC",
      "alert": "OK",
      "vis_m": 9999,
      "fzfg": false,
      "metar_trigger": false,
      "taf_trigger": false,
      "metar": "METAR LRBC 282100Z 35008KT 9999 OVC049 02/M04 Q1009",
      "taf": "TAF LRBC 282000Z 2821/2906 32010KT 9999 OVC050"
    },
    {
      "icao": "LRBS",
      "alert": "OK",
      "vis_m": 9999,
      "fzfg": false,
      "metar_trigger": false,
      "taf_trigger": false,
      "metar": "METAR LRBS 282100Z 27012KT 240V300 CAVOK 02/M06 Q1012 NOSIG",
      "taf": "TAF LRBS 281700Z 2818/2918 27009KT CAVOK"
    },
    {
      "icao": "LRBV",
      "alert": "OK",
      "vis_m": 9999,
      "fzfg": false,
      "metar_trigger": false,
      "taf_trigger": false,
      "metar": "METAR LRBV 282100Z 29015G26KT 260V320 9999 OVC030 M01/M07 Q1012",
      "taf": "TAF LRBV 282000Z 2821/2906 30018G30KT 9999 OVC030"
    },
    {
      "icao": "LRCL",
      "alert": "OK",
      "vis_m": 9999,
      "fzfg": false,
      "metar_trigger": false,
      "taf_trigger": false,
      "metar": "METAR LRCL 282100Z 29016KT 9999 FEW038 BKN057 01/M07 Q1016",
      "taf": "TAF LRCL 282000Z 2821/2906 30017KT 9999 SCT025 BKN045"
    },
    {
      "icao": "LRCV",
      "alert": "OK",
      "vis_m": 9999,
      "fzfg": false,
      "metar_trigger": false,
      "taf_trigger": false,
      "metar": "METAR LRCV 282100Z 28013KT CAVOK 00/M03 Q1015",
      "taf": "TAF LRCV 282000Z 2821/2906 28014KT CAVOK"
    },
    {
      "icao": "LRIA",
      "alert": "OK",
      "vis_m": 9999,
      "fzfg": false,
      "metar_trigger": false,
      "taf_trigger": false,
      "metar": "METAR LRIA 282100Z 30018KT 270V330 9999 FEW007 BKN027 01/M02 Q1007",
      "taf": "TAF LRIA 282000Z 2821/2906 30020KT 9999 SCT010 OVC030"
    },
    {
      "icao": "LROP",
      "alert": "OK",
      "vis_m": 9999,
      "fzfg": false,
      "metar_trigger": false,
      "taf_trigger": false,
      "metar": "METAR LROP 282100Z 25014KT CAVOK 01/M08 Q1012 NOSIG",
      "taf": "TAF LROP 281700Z 2818/2918 27010KT CAVOK"
    },
    {
      "icao": "LRSB",
      "alert": "OK",
      "vis_m": 9999,
      "fzfg": false,
      "metar_trigger": false,
      "taf_trigger": false,
      "metar": "METAR LRSB 282100Z 29019KT 9999 BKN052 01/M06 Q1015",
      "taf": "TAF LRSB 281700Z 2818/2918 29020KT 9999 BKN040 BKN060"
    },
    {
      "icao": "LRSM",
      "alert": "OK",
      "vis_m": 9999,
      "fzfg": false,
      "metar_trigger": false,
      "taf_trigger": false,
      "metar": "METAR LRSM 282100Z AUTO 30014KT 9999 OVC055/// 01/M05 Q1017",
      "taf": "TAF LRSM 281100Z 2812/2821 31015KT 9999 BKN030"
    },
    {
      "icao": "LRSV",
      "alert": "OK",
      "vis_m": 9999,
      "fzfg": false,
      "metar_trigger": false,
      "taf_trigger": false,
      "metar": "METAR LRSV 282100Z 31023KT 9999 -SN DRSN FEW030 BKN042 M00/M06 Q1007",
      "taf": "TAF LRSV 282000Z 2821/2906 31020KT 9999 BKN030"
    },
    {
      "icao": "LRTM",
      "alert": "OK",
      "vis_m": 9999,
      "fzfg": false,
      "metar_trigger": false,
      "taf_trigger": false,
      "metar": "METAR LRTM 282100Z AUTO 28016KT 9999 R25////// SCT035/// OVC055/// 01/M06 Q1015",
      "taf": "TAF LRTM 281400Z 2815/2824 28018KT 9999 BKN035"
    },
    {
      "icao": "LRTR",
      "alert": "OK",
      "vis_m": 9999,
      "fzfg": false,
      "metar_trigger": false,
      "taf_trigger": false,
      "metar": "METAR LRTR 282100Z 28007KT CAVOK M03/M04 Q1021",
      "taf": "TAF LRTR 281700Z 2818/2918 29008KT CAVOK"
    },
    {
      "icao": "LTAC",
      "alert": "OK",
      "vis_m": 9999,
      "fzfg": false,
      "metar_trigger": false,
      "taf_trigger": false,
      "metar": "METAR LTAC 282050Z VRB02KT 9999 FEW015 BKN030 BKN080 M03/M05 Q1005 NOSIG RMK RWY21C 23004KT RWY03L 23003KT 200V260 RWY21R 22003KT 190V250 RWY03R 21004KT 170V230 RWY21L 25005KT",
      "taf": "TAF LTAC 281640Z 2818/2918 26012KT 9999 SCT030 BKN080"
    },
    {
      "icao": "LTFM",
      "alert": "OK",
      "vis_m": 9999,
      "fzfg": false,
      "metar_trigger": false,
      "taf_trigger": false,
      "metar": "METAR LTFM 282050Z 28010KT 250V310 9999 SCT035 03/M03 Q1013 NOSIG RMK RWY17L 28013KT RWY34L 27008KT 200V290 RWY16R 28011KT RWY36 28011KT RWY18 29014KT",
      "taf": "TAF LTFM 281640Z 2818/2924 30012KT 9999 SCT035"
    },
    {
      "icao": "LUKK",
      "alert": "OK",
      "vis_m": 4900,
      "fzfg": false,
      "metar_trigger": false,
      "taf_trigger": false,
      "metar": "METAR LUKK 282100Z 33014G26KT 280V010 4900 SHSN SCT014 OVC019CB 00/M01 Q1004 TEMPO 33022G34KT 3000 SHSN BKN010 SCT025CB",
      "taf": "TAF LUKK 281708Z 2818/2918 32018G28KT 9999 BKN020"
    },
    {
      "icao": "LWOH",
      "alert": "OK",
      "vis_m": null,
      "fzfg": false,
      "metar_trigger": false,
      "taf_trigger": false,
      "metar": "",
      "taf": "TAF LWOH 282030Z 2821/2921 33008KT CAVOK"
    },
    {
      "icao": "LWSK",
      "alert": "OK",
      "vis_m": 9999,
      "fzfg": false,
      "metar_trigger": false,
      "taf_trigger": false,
      "metar": "METAR LWSK 282120Z 32008KT 250V340 CAVOK 01/M06 Q1022 NOSIG",
      "taf": "TAF LWSK 282030Z 2821/2921 36012KT CAVOK"
    },
    {
      "icao": "LYBE",
      "alert": "OK",
      "vis_m": 9999,
      "fzfg": false,
      "metar_trigger": false,
      "taf_trigger": false,
      "metar": "METAR LYBE 282100Z 28011KT 9999 SCT035 01/M03 Q1023 NOSIG",
      "taf": "TAF LYBE 281700Z 2818/2918 29012KT CAVOK TX06/2912Z TNM03/2906Z"
    },
    {
      "icao": "LYNI",
      "alert": "OK",
      "vis_m": 9999,
      "fzfg": false,
      "metar_trigger": false,
      "taf_trigger": false,
      "metar": "METAR LYNI 282100Z 28005KT 240V320 9999 BKN033 02/M04 Q1022 NOSIG",
      "taf": "TAF LYNI 281700Z 2818/2918 30007KT 9999 BKN033 TX06/2912Z TNM03/2906Z"
    },
    {
      "icao": "LYPG",
      "alert": "OK",
      "vis_m": 9999,
      "fzfg": false,
      "metar_trigger": false,
      "taf_trigger": false,
      "metar": "METAR LYPG 282100Z 34017KT CAVOK 07/M09 Q1020 NOSIG",
      "taf": "TAF LYPG 281700Z 2818/2918 36017G27KT CAVOK TX12/2913Z TN01/2906Z"
    },
    {
      "icao": "LZIB",
      "alert": "OK",
      "vis_m": 9999,
      "fzfg": false,
      "metar_trigger": false,
      "taf_trigger": false,
      "metar": "METAR LZIB 282100Z 30009KT 260V320 9999 FEW029 01/M05 Q1024 NOSIG",
      "taf": "TAF LZIB 281715Z 2818/2918 33015KT CAVOK"
    },
    {
      "icao": "LZKZ",
      "alert": "OK",
      "vis_m": 9999,
      "fzfg": false,
      "metar_trigger": false,
      "taf_trigger": false,
      "metar": "METAR LZKZ 282100Z 00000KT CAVOK M03/M07 Q1018 NOSIG",
      "taf": "TAF LZKZ 281715Z 2818/2918 33010KT CAVOK"
    },
    {
      "icao": "LZTT",
      "alert": "OK",
      "vis_m": 9999,
      "fzfg": false,
      "metar_trigger": false,
      "taf_trigger": false,
      "metar": "METAR LZTT 282100Z 27021KT CAVOK M02/M09 Q1015",
      "taf": "TAF LZTT 281715Z 2818/2918 28018KT 9999 FEW030"
    },
    {
      "icao": "OEJN",
      "alert": "OK",
      "vis_m": 9999,
      "fzfg": false,
      "metar_trigger": false,
      "taf_trigger": false,
      "metar": "METAR OEJN 282100Z 01005KT CAVOK 22/17 Q1013 NOSIG",
      "taf": "TAF OEJN 281700Z 2818/2924 04008KT 7000 NSC"
    },
    {
      "icao": "OEMA",
      "alert": "OK",
      "vis_m": 9999,
      "fzfg": false,
      "metar_trigger": false,
      "taf_trigger": false,
      "metar": "METAR OEMA 282100Z 23007KT CAVOK 19/07 Q1017 NOSIG",
      "taf": "TAF OEMA 281700Z 2818/2924 26008KT 7000 NSC"
    },
    {
      "icao": "OJAI",
      "alert": "OK",
      "vis_m": 3500,
      "fzfg": false,
      "metar_trigger": false,
      "taf_trigger": false,
      "metar": "METAR OJAI 282100Z 27018KT 3500 DZRA SCT030 SCT035 09/08 Q1011 NOSIG",
      "taf": "TAF OJAI 281700Z 2818/2924 29018G36KT 3000 RA BR SCT025TCU BKN030"
    },
    {
      "icao": "OMAA",
      "alert": "OK",
      "vis_m": 9999,
      "fzfg": false,
      "metar_trigger": false,
      "taf_trigger": false,
      "metar": "METAR OMAA 282100Z 11005KT CAVOK 22/13 Q1011 NOSIG",
      "taf": "TAF OMAA 281700Z 2818/3000 15005KT 8000 NSC"
    },
    {
      "icao": "OMDB",
      "alert": "OK",
      "vis_m": 9999,
      "fzfg": false,
      "metar_trigger": false,
      "taf_trigger": false,
      "metar": "METAR OMDB 282100Z 14007KT CAVOK 23/16 Q1011 NOSIG",
      "taf": "TAF OMDB 281700Z 2818/3000 16008KT 8000 NSC"
    },
    {
      "icao": "UAAA",
      "alert": "OK",
      "vis_m": 1900,
      "fzfg": false,
      "metar_trigger": false,
      "taf_trigger": false,
      "metar": "METAR UAAA 282100Z 26002MPS 180V310 1900 R05R/P2000 BR BKN100 M02/M03 Q1014 NOSIG",
      "taf": "TAF UAAA 281701Z 2818/2918 23003MPS 1500 BR FU SCT050 BKN100 TX05/2909Z TNM04/2901Z"
    },
    {
      "icao": "UBBB",
      "alert": "OK",
      "vis_m": 9999,
      "fzfg": false,
      "metar_trigger": false,
      "taf_trigger": false,
      "metar": "METAR UBBB 282100Z VRB02KT CAVOK 03/01 Q0999 NOSIG",
      "taf": "TAF UBBB 281712Z 2818/2918 28010KT 9999 SCT012 BKN020 TX09/2910Z TN02/2902Z"
    },
    {
      "icao": "UDSG",
      "alert": "OK",
      "vis_m": 9999,
      "fzfg": false,
      "metar_trigger": false,
      "taf_trigger": false,
      "metar": "METAR UDSG 282100Z 20001KT 9999 NSC M14/M17 Q1001 NOSIG",
      "taf": "TAF UDSG 281700Z 2818/2918 VRB06KT 9999 SCT040"
    },
    {
      "icao": "UDYZ",
      "alert": "OK",
      "vis_m": 9999,
      "fzfg": false,
      "metar_trigger": false,
      "taf_trigger": false,
      "metar": "METAR UDYZ 282100Z 07003KT 9999 NSC M07/M10 Q1004 NOSIG",
      "taf": "TAF UDYZ 281700Z 2818/2918 06006KT 6000 FEW040"
    },
    {
      "icao": "UGKO",
      "alert": "OK",
      "vis_m": 9999,
      "fzfg": false,
      "metar_trigger": false,
      "taf_trigger": false,
      "metar": "METAR UGKO 282100Z 09005KT 9999 SCT060 00/M00 Q1002 NOSIG",
      "taf": "TAF UGKO 281700Z 2818/2918 08007KT 9999 SCT015 OVC045 TX02/2911Z TNM01/2904Z"
    }
  ]
}