{
  "ts_utc": "2026-03-05T04:27:17Z",
  "threshold_m": 150,
  "source": "stations_override.txt (ICAO list) + aviationweather.gov (METAR/TAF raw)",
  "station_count": 159,
  "stations": [
    {
      "icao": "BIKF",
      "alert": "OK",
      "vis_m": 9999,
      "fzfg": false,
      "metar_trigger": false,
      "taf_trigger": false,
      "metar": "METAR BIKF 050400Z 22010KT 9999 SCT025 00/M03 Q0996",
      "taf": "TAF BIKF 050414Z 0506/0606 22012KT 9999 -SHSN FEW014CB BKN025 TX04/0604Z TNM01/0507Z"
    },
    {
      "icao": "BKPR",
      "alert": "OK",
      "vis_m": null,
      "fzfg": false,
      "metar_trigger": false,
      "taf_trigger": false,
      "metar": "",
      "taf": "TAF BKPR 042330Z 0500/0524 35008KT 9999 BKN040"
    },
    {
      "icao": "EBCI",
      "alert": "OK",
      "vis_m": 9999,
      "fzfg": false,
      "metar_trigger": false,
      "taf_trigger": false,
      "metar": "METAR EBCI 050420Z 15005KT CAVOK 08/02 Q1020 NOSIG",
      "taf": "TAF EBCI 042300Z 0500/0606 14006KT CAVOK"
    },
    {
      "icao": "EDDB",
      "alert": "OK",
      "vis_m": 9999,
      "fzfg": false,
      "metar_trigger": false,
      "taf_trigger": false,
      "metar": "METAR EDDB 050420Z AUTO 10004KT CAVOK M03/M04 Q1028 NOSIG",
      "taf": "TAF EDDB 042300Z 0500/0524 VRB03KT CAVOK"
    },
    {
      "icao": "EDDH",
      "alert": "OK",
      "vis_m": 9999,
      "fzfg": false,
      "metar_trigger": false,
      "taf_trigger": false,
      "metar": "METAR EDDH 050420Z AUTO 12005KT CAVOK 02/M02 Q1026 NOSIG",
      "taf": "TAF EDDH 042300Z 0500/0606 11003KT CAVOK"
    },
    {
      "icao": "EDDK",
      "alert": "OK",
      "vis_m": 9999,
      "fzfg": false,
      "metar_trigger": false,
      "taf_trigger": false,
      "metar": "METAR EDDK 050420Z AUTO 08003KT 060V120 CAVOK 07/03 Q1023 NOSIG",
      "taf": "TAF EDDK 042300Z 0500/0606 11005KT CAVOK"
    },
    {
      "icao": "EDDN",
      "alert": "OK",
      "vis_m": 5000,
      "fzfg": false,
      "metar_trigger": false,
      "taf_trigger": false,
      "metar": "METAR EDDN 050420Z AUTO 11002KT 5000 BR NCD M00/M01 Q1025",
      "taf": "TAF EDDN 042300Z 0500/0524 10005KT CAVOK"
    },
    {
      "icao": "EDDS",
      "alert": "OK",
      "vis_m": 9999,
      "fzfg": false,
      "metar_trigger": false,
      "taf_trigger": false,
      "metar": "METAR EDDS 050420Z AUTO 28003KT CAVOK M01/M03 Q1022",
      "taf": "TAF EDDS 042300Z 0500/0524 VRB03KT CAVOK"
    },
    {
      "icao": "EDFH",
      "alert": "OK",
      "vis_m": 9999,
      "fzfg": false,
      "metar_trigger": false,
      "taf_trigger": false,
      "metar": "METAR EDFH 050420Z 13013KT CAVOK 05/01 Q1022",
      "taf": "TAF EDFH 042300Z 0500/0524 13010KT CAVOK"
    },
    {
      "icao": "EDJA",
      "alert": "OK",
      "vis_m": 200,
      "fzfg": true,
      "metar_trigger": false,
      "taf_trigger": false,
      "metar": "METAR EDJA 050420Z AUTO 03004KT 0200 R06/0325N // VV/// M02/M03 Q1023",
      "taf": "TAF EDJA 050200Z 0503/0512 05004KT 0400 FZFG NSC"
    },
    {
      "icao": "EDLW",
      "alert": "OK",
      "vis_m": 9999,
      "fzfg": false,
      "metar_trigger": false,
      "taf_trigger": false,
      "metar": "METAR EDLW 050420Z 10007KT CAVOK 07/03 Q1022",
      "taf": "TAF EDLW 050420Z 0505/0524 13006KT CAVOK"
    },
    {
      "icao": "EDNY",
      "alert": "OK",
      "vis_m": 4700,
      "fzfg": false,
      "metar_trigger": false,
      "taf_trigger": false,
      "metar": "METAR EDNY 050420Z AUTO 04005KT 010V070 4700 // NCD 01/00 Q1023",
      "taf": "TAF EDNY 050200Z 0503/0512 04004KT 6000 NSC"
    },
    {
      "icao": "EDSB",
      "alert": "OK",
      "vis_m": 9999,
      "fzfg": false,
      "metar_trigger": false,
      "taf_trigger": false,
      "metar": "METAR EDSB 050420Z 20002KT 9999 BCFG NSC 01/M00 Q1022",
      "taf": "TAF EDSB 042300Z 0500/0524 05004KT CAVOK"
    },
    {
      "icao": "EETN",
      "alert": "OK",
      "vis_m": 9999,
      "fzfg": false,
      "metar_trigger": false,
      "taf_trigger": false,
      "metar": "METAR EETN 050420Z 30013KT CAVOK 02/M01 Q1015 NOSIG",
      "taf": "TAF EETN 042330Z 0500/0524 29010KT CAVOK"
    },
    {
      "icao": "EFTU",
      "alert": "OK",
      "vis_m": 9999,
      "fzfg": false,
      "metar_trigger": false,
      "taf_trigger": false,
      "metar": "METAR EFTU 050420Z AUTO 29005KT CAVOK 01/M02 Q1016",
      "taf": "TAF EFTU 050231Z 0503/0603 30007KT CAVOK"
    },
    {
      "icao": "EGBB",
      "alert": "OK",
      "vis_m": 3500,
      "fzfg": false,
      "metar_trigger": false,
      "taf_trigger": false,
      "metar": "METAR EGBB 050420Z 15006KT 3500 BR NSC 04/04 Q1016",
      "taf": ""
    },
    {
      "icao": "EGGP",
      "alert": "OK",
      "vis_m": 3000,
      "fzfg": false,
      "metar_trigger": false,
      "taf_trigger": false,
      "metar": "METAR EGGP 050420Z AUTO 10005KT 3000 HZ NCD 06/05 Q1015",
      "taf": ""
    },
    {
      "icao": "EGGW",
      "alert": "OK",
      "vis_m": 50,
      "fzfg": false,
      "metar_trigger": false,
      "taf_trigger": false,
      "metar": "METAR EGGW 050420Z AUTO 12002KT 0050 FG OVC001 04/04 Q1017",
      "taf": ""
    },
    {
      "icao": "EGKK",
      "alert": "OK",
      "vis_m": 3000,
      "fzfg": false,
      "metar_trigger": false,
      "taf_trigger": false,
      "metar": "METAR EGKK 050420Z 07003KT 3000 BR VCFG NSC 05/05 Q1017",
      "taf": "TAF EGKK 042258Z 0500/0606 11005KT 4000 BR FEW045"
    },
    {
      "icao": "EGNM",
      "alert": "OK",
      "vis_m": null,
      "fzfg": false,
      "metar_trigger": false,
      "taf_trigger": false,
      "metar": "",
      "taf": "TAF EGNM 042256Z 0500/0524 14008KT 0300 FG BKN000"
    },
    {
      "icao": "EGPD",
      "alert": "OK",
      "vis_m": 6000,
      "fzfg": false,
      "metar_trigger": false,
      "taf_trigger": false,
      "metar": "METAR EGPD 050420Z COR AUTO 17007KT 6000 OVC006 07/06 Q1012 NOSIG",
      "taf": "TAF EGPD 042257Z 0500/0524 16009KT 9999 FEW040"
    },
    {
      "icao": "EGPF",
      "alert": "OK",
      "vis_m": 8000,
      "fzfg": false,
      "metar_trigger": false,
      "taf_trigger": false,
      "metar": "METAR EGPF 050420Z AUTO 17005KT 130V210 8000 -RA OVC018 10/07 Q1011",
      "taf": "TAF EGPF 042257Z 0500/0524 12007KT 9999 FEW035"
    },
    {
      "icao": "EHBK",
      "alert": "OK",
      "vis_m": 9999,
      "fzfg": false,
      "metar_trigger": false,
      "taf_trigger": false,
      "metar": "METAR EHBK 050355Z AUTO 10006KT 9999 NCD 06/03 Q1021",
      "taf": "TAF EHBK 042306Z 0500/0606 12005KT CAVOK"
    },
    {
      "icao": "EHEH",
      "alert": "OK",
      "vis_m": 8000,
      "fzfg": false,
      "metar_trigger": false,
      "taf_trigger": false,
      "metar": "METAR EHEH 050355Z AUTO 11003KT 090V160 8000 BR NCD 04/03 Q1021 BLU",
      "taf": "TAF EHEH 042346Z 0500/0606 13005KT 9000 NSC"
    },
    {
      "icao": "EKBI",
      "alert": "OK",
      "vis_m": 9999,
      "fzfg": false,
      "metar_trigger": false,
      "taf_trigger": false,
      "metar": "METAR EKBI 050420Z AUTO 12004KT 9999 NCD 00/M01 Q1026",
      "taf": "TAF EKBI 050227Z 0503/0603 11003KT CAVOK"
    },
    {
      "icao": "EKCH",
      "alert": "OK",
      "vis_m": 9999,
      "fzfg": false,
      "metar_trigger": false,
      "taf_trigger": false,
      "metar": "METAR EKCH 050420Z 00000KT 9999 R22L/0700N R04L/0500D R12/P1500N MIFG NSC M01/M02 Q1027 NOSIG",
      "taf": "TAF EKCH 050227Z 0503/0603 25006KT 9999 FEW030"
    },
    {
      "icao": "ENAL",
      "alert": "OK",
      "vis_m": 9999,
      "fzfg": false,
      "metar_trigger": false,
      "taf_trigger": false,
      "metar": "METAR ENAL 050420Z AUTO 21008KT 9999 -RA OVC035/// 08/03 Q1016",
      "taf": "TAF ENAL 050200Z 0503/0512 17008KT 9999 BKN030"
    },
    {
      "icao": "ENBR",
      "alert": "OK",
      "vis_m": 9999,
      "fzfg": false,
      "metar_trigger": false,
      "taf_trigger": false,
      "metar": "METAR ENBR 050420Z AUTO 14011KT 9999 NCD 04/M03 Q1021 RMK WIND 1200FT 15023KT",
      "taf": "TAF ENBR 042300Z 0500/0524 16012KT 9999 BKN040"
    },
    {
      "icao": "ENGM",
      "alert": "OK",
      "vis_m": 9999,
      "fzfg": false,
      "metar_trigger": false,
      "taf_trigger": false,
      "metar": "METAR ENGM 050420Z VRB01KT CAVOK M04/M06 Q1021",
      "taf": "TAF ENGM 042300Z 0500/0524 VRB03KT CAVOK"
    },
    {
      "icao": "ENHD",
      "alert": "OK",
      "vis_m": 9999,
      "fzfg": false,
      "metar_trigger": false,
      "taf_trigger": false,
      "metar": "METAR ENHD 050420Z AUTO 13014KT 9999 NCD 03/M02 Q1022",
      "taf": "TAF ENHD 050200Z 0503/0512 15010KT 9999 FEW030"
    },
    {
      "icao": "ENTC",
      "alert": "OK",
      "vis_m": 9999,
      "fzfg": false,
      "metar_trigger": false,
      "taf_trigger": false,
      "metar": "METAR ENTC 050420Z 16006KT 9999 -RA SCT017 BKN021 OVC026 02/00 Q1009 RMK WIND 2600FT 30017KT",
      "taf": "TAF ENTC 042300Z 0500/0524 27014KT 9999 -SHRA BKN030"
    },
    {
      "icao": "ENTO",
      "alert": "OK",
      "vis_m": 9999,
      "fzfg": false,
      "metar_trigger": false,
      "taf_trigger": false,
      "metar": "METAR ENTO 050420Z AUTO 22002KT 9999 // NCD M02/M04 Q1022",
      "taf": "TAF ENTO 042300Z 0500/0524 28005KT CAVOK"
    },
    {
      "icao": "ENVA",
      "alert": "OK",
      "vis_m": 9999,
      "fzfg": false,
      "metar_trigger": false,
      "taf_trigger": false,
      "metar": "METAR ENVA 050420Z 12005KT 9999 BKN046 02/01 Q1019 RMK WIND 670FT 14010KT",
      "taf": "TAF ENVA 042300Z 0500/0524 08008KT 9999 BKN030"
    },
    {
      "icao": "ENZV",
      "alert": "OK",
      "vis_m": 9999,
      "fzfg": false,
      "metar_trigger": false,
      "taf_trigger": false,
      "metar": "METAR ENZV 050420Z 13008KT CAVOK 03/M04 Q1023",
      "taf": "TAF ENZV 042300Z 0500/0524 16006KT CAVOK"
    },
    {
      "icao": "EPGD",
      "alert": "OK",
      "vis_m": 2700,
      "fzfg": false,
      "metar_trigger": false,
      "taf_trigger": false,
      "metar": "METAR EPGD 050400Z 27007KT 2700 BR OVC002 01/01 Q1025",
      "taf": ""
    },
    {
      "icao": "EPKK",
      "alert": "OK",
      "vis_m": 9000,
      "fzfg": false,
      "metar_trigger": false,
      "taf_trigger": false,
      "metar": "METAR EPKK 050400Z 01001KT 9000 NSC M01/M03 Q1026",
      "taf": "TAF EPKK 050230Z 0503/0603 VRB02KT CAVOK"
    },
    {
      "icao": "EPKT",
      "alert": "OK",
      "vis_m": 9000,
      "fzfg": false,
      "metar_trigger": false,
      "taf_trigger": false,
      "metar": "METAR EPKT 050400Z 32001KT 9000 0600NE BCFG NSC M05/M05 Q1026",
      "taf": ""
    },
    {
      "icao": "EPLB",
      "alert": "OK",
      "vis_m": 9999,
      "fzfg": false,
      "metar_trigger": false,
      "taf_trigger": false,
      "metar": "METAR EPLB 050400Z 29006KT CAVOK M02/M02 Q1025",
      "taf": "TAF EPLB 042330Z 0500/0524 28006KT CAVOK"
    },
    {
      "icao": "EPMO",
      "alert": "OK",
      "vis_m": 9999,
      "fzfg": false,
      "metar_trigger": false,
      "taf_trigger": false,
      "metar": "METAR EPMO 050400Z 25006KT CAVOK M01/M02 Q1025",
      "taf": ""
    },
    {
      "icao": "EPPO",
      "alert": "OK",
      "vis_m": 9999,
      "fzfg": false,
      "metar_trigger": false,
      "taf_trigger": false,
      "metar": "METAR EPPO 050400Z 26001KT CAVOK M05/M05 Q1027",
      "taf": ""
    },
    {
      "icao": "EPRA",
      "alert": "OK",
      "vis_m": 9999,
      "fzfg": false,
      "metar_trigger": false,
      "taf_trigger": false,
      "metar": "METAR EPRA 050400Z 27006KT CAVOK M01/M03 Q1025",
      "taf": "TAF EPRA 050230Z 0503/0512 28006KT CAVOK"
    },
    {
      "icao": "EPRZ",
      "alert": "OK",
      "vis_m": 9999,
      "fzfg": false,
      "metar_trigger": false,
      "taf_trigger": false,
      "metar": "METAR EPRZ 050400Z 27007KT CAVOK M00/M01 Q1025",
      "taf": "TAF EPRZ 042330Z 0500/0524 27005KT CAVOK"
    },
    {
      "icao": "EPSC",
      "alert": "OK",
      "vis_m": 9000,
      "fzfg": false,
      "metar_trigger": false,
      "taf_trigger": false,
      "metar": "METAR EPSC 050400Z 08001KT 9000 MIFG NSC M03/M03 Q1028",
      "taf": "TAF EPSC 042330Z 0500/0524 VRB02KT 4000 BR NSC"
    },
    {
      "icao": "EPSY",
      "alert": "OK",
      "vis_m": 9999,
      "fzfg": false,
      "metar_trigger": false,
      "taf_trigger": false,
      "metar": "METAR EPSY 050400Z VRB02KT CAVOK M02/M02 Q1024",
      "taf": "TAF EPSY 050230Z 0503/0512 28005KT CAVOK"
    },
    {
      "icao": "EPWA",
      "alert": "OK",
      "vis_m": 9999,
      "fzfg": false,
      "metar_trigger": false,
      "taf_trigger": false,
      "metar": "METAR EPWA 050400Z 28005KT CAVOK M01/M02 Q1025 NOSIG",
      "taf": "TAF EPWA 050230Z 0503/0603 28005KT CAVOK"
    },
    {
      "icao": "EPWR",
      "alert": "OK",
      "vis_m": 8000,
      "fzfg": false,
      "metar_trigger": false,
      "taf_trigger": false,
      "metar": "METAR EPWR 050400Z VRB01KT 8000 NSC M02/M03 Q1028",
      "taf": "TAF EPWR 050230Z 0503/0603 VRB02KT CAVOK"
    },
    {
      "icao": "ESGG",
      "alert": "OK",
      "vis_m": 9999,
      "fzfg": false,
      "metar_trigger": false,
      "taf_trigger": false,
      "metar": "METAR ESGG 050420Z 22007KT CAVOK M01/M01 Q1024",
      "taf": "TAF ESGG 050230Z 0503/0603 20006KT CAVOK"
    },
    {
      "icao": "ESKN",
      "alert": "OK",
      "vis_m": 9999,
      "fzfg": false,
      "metar_trigger": false,
      "taf_trigger": false,
      "metar": "METAR ESKN 050420Z 27005KT CAVOK M00/M01 Q1022",
      "taf": "TAF ESKN 050230Z 0503/0603 27005KT CAVOK"
    },
    {
      "icao": "ESMS",
      "alert": "OK",
      "vis_m": 150,
      "fzfg": true,
      "metar_trigger": false,
      "taf_trigger": false,
      "metar": "METAR ESMS 050420Z 13002KT 0150 R17/0400N R35/0700N FZFG NSC M03/M03 Q1026",
      "taf": ""
    },
    {
      "icao": "ESSA",
      "alert": "OK",
      "vis_m": 9999,
      "fzfg": false,
      "metar_trigger": false,
      "taf_trigger": false,
      "metar": "METAR ESSA 050420Z 26004KT CAVOK M02/M03 Q1021 NOSIG",
      "taf": "TAF ESSA 050230Z 0503/0603 27004KT CAVOK"
    },
    {
      "icao": "EYKA",
      "alert": "OK",
      "vis_m": 9999,
      "fzfg": false,
      "metar_trigger": false,
      "taf_trigger": false,
      "metar": "METAR EYKA 050420Z 28007KT CAVOK M01/M02 Q1020",
      "taf": "TAF EYKA 041704Z 0418/0518 27010KT 9000 NSC"
    },
    {
      "icao": "EYPA",
      "alert": "OK",
      "vis_m": 9999,
      "fzfg": false,
      "metar_trigger": false,
      "taf_trigger": false,
      "metar": "METAR EYPA 050420Z 33003KT 270V040 CAVOK 01/00 Q1022",
      "taf": "TAF EYPA 041702Z 0418/0518 VRB05KT 9000 NSC"
    },
    {
      "icao": "EYVI",
      "alert": "OK",
      "vis_m": 9999,
      "fzfg": false,
      "metar_trigger": false,
      "taf_trigger": false,
      "metar": "METAR EYVI 050420Z 28006KT 9999 SCT005 M01/M02 Q1018 NOSIG",
      "taf": "TAF EYVI 041704Z 0418/0518 27008KT 9000 NSC"
    },
    {
      "icao": "GCFV",
      "alert": "OK",
      "vis_m": 9999,
      "fzfg": false,
      "metar_trigger": false,
      "taf_trigger": false,
      "metar": "METAR GCFV 050400Z AUTO 34008KT 9999 SCT049 16/12 Q1021",
      "taf": "TAF GCFV 050200Z 0503/0603 35005KT 9999 SCT030 TX20/0514Z TN15/0506Z"
    },
    {
      "icao": "GCLP",
      "alert": "OK",
      "vis_m": 9999,
      "fzfg": false,
      "metar_trigger": false,
      "taf_trigger": false,
      "metar": "METAR GCLP 050400Z 01013KT 9999 SCT025 16/13 Q1021 NOSIG",
      "taf": "TAF GCLP 050200Z 0503/0603 36013KT 9999 SCT025 TX21/0514Z TN15/0506Z"
    },
    {
      "icao": "GCTS",
      "alert": "OK",
      "vis_m": 9999,
      "fzfg": false,
      "metar_trigger": false,
      "taf_trigger": false,
      "metar": "METAR GCTS 050400Z 02006KT 9999 FEW030 16/10 Q1021 NOSIG",
      "taf": "TAF GCTS 050200Z 0503/0603 03009KT 9999 SCT025 TX22/0514Z TN15/0506Z"
    },
    {
      "icao": "GMAD",
      "alert": "OK",
      "vis_m": 6000,
      "fzfg": false,
      "metar_trigger": false,
      "taf_trigger": false,
      "metar": "METAR GMAD 050400Z 25011KT 6000 FEW023 BKN100 13/11 Q1016 NOSIG",
      "taf": "TAF GMAD 042300Z 0500/0606 22009KT 6000 FEW023 BKN100"
    },
    {
      "icao": "GMMN",
      "alert": "OK",
      "vis_m": 500,
      "fzfg": false,
      "metar_trigger": false,
      "taf_trigger": false,
      "metar": "METAR GMMN 050400Z 24004KT 0500 R35L/0450V0550U FG BKN001 07/06 Q1016 NOSIG",
      "taf": "TAF GMMN 042300Z 0500/0606 20004KT 9999 BKN020"
    },
    {
      "icao": "GMMX",
      "alert": "OK",
      "vis_m": 6000,
      "fzfg": false,
      "metar_trigger": false,
      "taf_trigger": false,
      "metar": "METAR GMMX 050400Z 25006KT 6000 SCT010 BKN016 11/11 Q1016 TEMPO 3000 SHRA",
      "taf": "TAF GMMX 042300Z 0500/0606 26005KT 6000 SCT010 BKN016"
    },
    {
      "icao": "HEGN",
      "alert": "OK",
      "vis_m": 9999,
      "fzfg": false,
      "metar_trigger": false,
      "taf_trigger": false,
      "metar": "METAR HEGN 050400Z 31010KT CAVOK 14/04 Q1020 NOSIG",
      "taf": "TAF HEGN 042300Z 0500/0606 29015KT CAVOK"
    },
    {
      "icao": "HEMA",
      "alert": "OK",
      "vis_m": 9999,
      "fzfg": false,
      "metar_trigger": false,
      "taf_trigger": false,
      "metar": "METAR HEMA 050300Z 30011KT CAVOK 16/07 Q1018 NOSIG",
      "taf": "TAF HEMA 042300Z 0500/0606 30006G18KT CAVOK"
    },
    {
      "icao": "HESH",
      "alert": "OK",
      "vis_m": 9999,
      "fzfg": false,
      "metar_trigger": false,
      "taf_trigger": false,
      "metar": "METAR HESH 050400Z 35015KT CAVOK 17/06 Q1019 NOSIG",
      "taf": "TAF HESH 042300Z 0500/0606 31011KT CAVOK"
    },
    {
      "icao": "HESX",
      "alert": "OK",
      "vis_m": 3000,
      "fzfg": false,
      "metar_trigger": false,
      "taf_trigger": false,
      "metar": "METAR HESX 050400Z 34002KT 3000 BR NSC 08/07 Q1022 NOSIG",
      "taf": "TAF HESX 042300Z 0500/0606 01009KT CAVOK"
    },
    {
      "icao": "LATI",
      "alert": "OK",
      "vis_m": 7000,
      "fzfg": false,
      "metar_trigger": false,
      "taf_trigger": false,
      "metar": "METAR LATI 050420Z 36004KT 290V050 7000 BKN098 10/07 Q1026 NOSIG",
      "taf": "TAF LATI 042300Z 0500/0524 VRB04KT 6000 SCT010 BKN090 TX16/0512Z TN07/0504Z"
    },
    {
      "icao": "LBPD",
      "alert": "OK",
      "vis_m": 9999,
      "fzfg": false,
      "metar_trigger": false,
      "taf_trigger": false,
      "metar": "METAR LBPD 050400Z AUTO 00000KT 9999 OVC120/// 05/04 Q1023 NOSIG",
      "taf": "TAF LBPD 042300Z 0500/0524 VRB03KT 9999 BKN080"
    },
    {
      "icao": "LBSF",
      "alert": "OK",
      "vis_m": 9999,
      "fzfg": false,
      "metar_trigger": false,
      "taf_trigger": false,
      "metar": "METAR LBSF 050400Z AUTO VRB02KT 9999 -RA FEW043/// OVC055/// 05/03 Q1024 TEMPO 5000 RA",
      "taf": "TAF LBSF 042300Z 0500/0524 VRB03KT 9999 BKN070"
    },
    {
      "icao": "LBWN",
      "alert": "OK",
      "vis_m": 6000,
      "fzfg": false,
      "metar_trigger": false,
      "taf_trigger": false,
      "metar": "METAR LBWN 050400Z AUTO 27003KT 6000 NSC 03/03 Q1022 TEMPO 4000 BR",
      "taf": "TAF LBWN 042300Z 0500/0524 VRB04KT 3000 BR SCT005 BKN010"
    },
    {
      "icao": "LCLK",
      "alert": "OK",
      "vis_m": 9999,
      "fzfg": false,
      "metar_trigger": false,
      "taf_trigger": false,
      "metar": "METAR LCLK 050400Z 30004KT 9999 FEW030 07/03 Q1022 NOSIG",
      "taf": "TAF LCLK 042330Z 0500/0600 32008KT 9999 FEW040"
    },
    {
      "icao": "LCPH",
      "alert": "OK",
      "vis_m": 9999,
      "fzfg": false,
      "metar_trigger": false,
      "taf_trigger": false,
      "metar": "METAR LCPH 050400Z 05008KT 010V080 CAVOK 10/M02 Q1022 NOSIG",
      "taf": "TAF LCPH 042330Z 0500/0600 05008KT 9999 FEW030"
    },
    {
      "icao": "LEAL",
      "alert": "OK",
      "vis_m": 9999,
      "fzfg": false,
      "metar_trigger": false,
      "taf_trigger": false,
      "metar": "METAR LEAL 050400Z 36009KT 320V030 CAVOK 17/09 Q1010 NOSIG",
      "taf": "TAF LEAL 042300Z 0500/0524 02010KT 9999 BKN030 TX17/0513Z TN10/0506Z"
    },
    {
      "icao": "LEBB",
      "alert": "OK",
      "vis_m": 9999,
      "fzfg": false,
      "metar_trigger": false,
      "taf_trigger": false,
      "metar": "METAR LEBB 050400Z COR 14005G15KT 110V200 CAVOK 16/08 Q1013 NOSIG",
      "taf": "TAF LEBB 042300Z 0500/0524 14009KT CAVOK TX20/0515Z TN10/0507Z"
    },
    {
      "icao": "LEBL",
      "alert": "OK",
      "vis_m": 6000,
      "fzfg": false,
      "metar_trigger": false,
      "taf_trigger": false,
      "metar": "METAR LEBL 050400Z 06020KT 6000 VCSH SCT020 FEW030CB SCT050 15/11 Q1016 BECMG 4000 TSRA FEW030CB",
      "taf": ""
    },
    {
      "icao": "LECH",
      "alert": "OK",
      "vis_m": 4500,
      "fzfg": false,
      "metar_trigger": false,
      "taf_trigger": false,
      "metar": "METAR LECH 050400Z AUTO 03007KT 350V070 4500 BR OVC008 11/10 Q1015 RERA",
      "taf": ""
    },
    {
      "icao": "LEMD",
      "alert": "OK",
      "vis_m": 9999,
      "fzfg": false,
      "metar_trigger": false,
      "taf_trigger": false,
      "metar": "METAR LEMD 050400Z 35005KT 9999 FEW060 SCT076 09/09 Q1014 NOSIG",
      "taf": "TAF LEMD 042300Z 0500/0606 VRB04KT 9999 FEW060 TX16/0514Z TN08/0507Z"
    },
    {
      "icao": "LEMG",
      "alert": "OK",
      "vis_m": 9999,
      "fzfg": false,
      "metar_trigger": false,
      "taf_trigger": false,
      "metar": "METAR LEMG 050400Z 30004KT CAVOK 05/04 Q1014 NOSIG",
      "taf": "TAF LEMG 042300Z 0500/0524 30012KT CAVOK TX19/0514Z TN09/0507Z"
    },
    {
      "icao": "LEVC",
      "alert": "OK",
      "vis_m": 9999,
      "fzfg": false,
      "metar_trigger": false,
      "taf_trigger": false,
      "metar": "METAR LEVC 050400Z 01007KT 340V040 9999 BKN017 14/11 Q1014 NOSIG",
      "taf": "TAF LEVC 042300Z 0500/0524 04010KT 9999 OVC020 TX14/0513Z TN11/0506Z"
    },
    {
      "icao": "LEXJ",
      "alert": "OK",
      "vis_m": 9999,
      "fzfg": false,
      "metar_trigger": false,
      "taf_trigger": false,
      "metar": "METAR LEXJ 050400Z AUTO 24008KT 170V290 CAVOK 15/05 Q1012",
      "taf": "TAF LEXJ 050200Z 0503/0603 10005KT 9999 SCT015 TX15/0503Z TN10/0507Z"
    },
    {
      "icao": "LEZG",
      "alert": "OK",
      "vis_m": 9000,
      "fzfg": false,
      "metar_trigger": false,
      "taf_trigger": false,
      "metar": "METAR LEZG 050400Z 10004KT 9000 OVC050 12/11 Q1016 NOSIG",
      "taf": "TAF LEZG 042300Z 0500/0524 VRB04KT 9999 SCT030 TX15/0514Z TN10/0506Z"
    },
    {
      "icao": "LEZL",
      "alert": "OK",
      "vis_m": 9999,
      "fzfg": false,
      "metar_trigger": false,
      "taf_trigger": false,
      "metar": "METAR LEZL 050400Z AUTO VRB01KT CAVOK 10/10 Q1015",
      "taf": "TAF LEZL 050200Z 0503/0603 22005KT 9999 FEW015 SCT040 TX18/0515Z TN09/0507Z"
    },
    {
      "icao": "LFBD",
      "alert": "OK",
      "vis_m": 9999,
      "fzfg": false,
      "metar_trigger": false,
      "taf_trigger": false,
      "metar": "METAR LFBD 050400Z AUTO 14007KT CAVOK 11/08 Q1014 NOSIG",
      "taf": "TAF LFBD 042300Z 0500/0606 11010KT CAVOK TX20/0514Z TN08/0506Z"
    },
    {
      "icao": "LFLL",
      "alert": "OK",
      "vis_m": 9999,
      "fzfg": false,
      "metar_trigger": false,
      "taf_trigger": false,
      "metar": "METAR LFLL 050400Z 14010KT CAVOK 09/04 Q1020 NOSIG",
      "taf": "TAF LFLL 042300Z 0500/0606 15007KT CAVOK"
    },
    {
      "icao": "LFLS",
      "alert": "OK",
      "vis_m": 9999,
      "fzfg": false,
      "metar_trigger": false,
      "taf_trigger": false,
      "metar": "METAR LFLS 050400Z AUTO 08009KT CAVOK 05/03 Q1020 NOSIG",
      "taf": "TAF LFLS 050200Z 0503/0603 09008KT CAVOK"
    },
    {
      "icao": "LFMN",
      "alert": "OK",
      "vis_m": 9999,
      "fzfg": false,
      "metar_trigger": false,
      "taf_trigger": false,
      "metar": "METAR LFMN 050400Z 34006KT CAVOK 11/05 Q1021 NOSIG",
      "taf": "TAF LFMN 050200Z 0503/0609 33010KT CAVOK"
    },
    {
      "icao": "LFOB",
      "alert": "OK",
      "vis_m": 9999,
      "fzfg": false,
      "metar_trigger": false,
      "taf_trigger": false,
      "metar": "METAR LFOB 050400Z AUTO 11001KT CAVOK 04/02 Q1018 TEMPO 4000 BR",
      "taf": "TAF LFOB 042300Z 0500/0524 09004KT CAVOK"
    },
    {
      "icao": "LFPO",
      "alert": "OK",
      "vis_m": 9999,
      "fzfg": false,
      "metar_trigger": false,
      "taf_trigger": false,
      "metar": "METAR LFPO 050400Z AUTO VRB02KT CAVOK 07/03 Q1018 NOSIG",
      "taf": "TAF LFPO 042300Z 0500/0606 09006KT CAVOK"
    },
    {
      "icao": "LFSB",
      "alert": "OK",
      "vis_m": 9999,
      "fzfg": false,
      "metar_trigger": false,
      "taf_trigger": false,
      "metar": "METAR LFSB 050400Z AUTO 00000KT CAVOK 01/00 Q1022 NOSIG",
      "taf": "TAF LFSB 042300Z 0500/0524 11005KT CAVOK"
    },
    {
      "icao": "LGAV",
      "alert": "OK",
      "vis_m": 9999,
      "fzfg": false,
      "metar_trigger": false,
      "taf_trigger": false,
      "metar": "METAR LGAV 050420Z 27003KT 9999 FEW025 04/01 Q1024 NOSIG",
      "taf": "TAF LGAV 042300Z 0500/0524 VRB03KT 9999 FEW020"
    },
    {
      "icao": "LGTS",
      "alert": "OK",
      "vis_m": 9999,
      "fzfg": false,
      "metar_trigger": false,
      "taf_trigger": false,
      "metar": "METAR LGTS 050420Z VRB02KT CAVOK 06/06 Q1025 NOSIG",
      "taf": "TAF LGTS 042300Z 0500/0524 VRB03KT 9999 SCT030"
    },
    {
      "icao": "LHBP",
      "alert": "OK",
      "vis_m": 8000,
      "fzfg": false,
      "metar_trigger": false,
      "taf_trigger": false,
      "metar": "METAR LHBP 050400Z VRB01KT 8000 NSC 02/01 Q1024 NOSIG",
      "taf": "TAF LHBP 042315Z 0500/0524 32005KT CAVOK"
    },
    {
      "icao": "LHDC",
      "alert": "OK",
      "vis_m": 9000,
      "fzfg": false,
      "metar_trigger": false,
      "taf_trigger": false,
      "metar": "METAR LHDC 050345Z AUTO 06002KT 9000 NSC 03/01 Q1024",
      "taf": ""
    },
    {
      "icao": "LIBD",
      "alert": "OK",
      "vis_m": 6000,
      "fzfg": false,
      "metar_trigger": false,
      "taf_trigger": false,
      "metar": "METAR LIBD 050420Z 25004KT 6000 SCT010 11/11 Q1025",
      "taf": "TAF LIBD 042300Z 0500/0524 VRB05KT 6000 SCT015"
    },
    {
      "icao": "LIBG",
      "alert": "OK",
      "vis_m": null,
      "fzfg": false,
      "metar_trigger": false,
      "taf_trigger": false,
      "metar": "",
      "taf": "TAF LIBG 041700Z 0418/0503 VRB06KT 9999 FEW020"
    },
    {
      "icao": "LIBP",
      "alert": "OK",
      "vis_m": 1700,
      "fzfg": false,
      "metar_trigger": false,
      "taf_trigger": false,
      "metar": "METAR LIBP 050420Z AUTO 20003KT 1700 BR FEW006/// OVC011/// 10/10 Q1026",
      "taf": "TAF LIBP 042300Z 0500/0524 VRB05KT 3000 BR BKN015"
    },
    {
      "icao": "LIBR",
      "alert": "OK",
      "vis_m": 2700,
      "fzfg": false,
      "metar_trigger": false,
      "taf_trigger": false,
      "metar": "METAR LIBR 050420Z AUTO 27003KT 2700 BR SCT010/// 10/10 Q1025",
      "taf": "TAF LIBR 042300Z 0500/0524 VRB05KT 4000 BR SCT020"
    },
    {
      "icao": "LICA",
      "alert": "OK",
      "vis_m": 9999,
      "fzfg": false,
      "metar_trigger": false,
      "taf_trigger": false,
      "metar": "METAR LICA 050420Z AUTO 07008KT 9999 NCD 11/09 Q1024",
      "taf": "TAF LICA 042300Z 0500/0524 06013KT CAVOK"
    },
    {
      "icao": "LICC",
      "alert": "OK",
      "vis_m": 7000,
      "fzfg": false,
      "metar_trigger": false,
      "taf_trigger": false,
      "metar": "METAR LICC 050420Z 25005KT 7000 FEW030 08/06 Q1024",
      "taf": "TAF LICC 042300Z 0500/0524 10010KT 9999 SCT020"
    },
    {
      "icao": "LICJ",
      "alert": "OK",
      "vis_m": 9999,
      "fzfg": false,
      "metar_trigger": false,
      "taf_trigger": false,
      "metar": "METAR LICJ 050420Z 18005KT CAVOK 11/09 Q1022",
      "taf": "TAF LICJ 042300Z 0500/0524 VRB05KT 9999 SCT030"
    },
    {
      "icao": "LIMC",
      "alert": "OK",
      "vis_m": 5000,
      "fzfg": false,
      "metar_trigger": false,
      "taf_trigger": false,
      "metar": "METAR LIMC 050420Z 12002KT 5000 BR SCT050 07/07 Q1026 NOSIG",
      "taf": "TAF LIMC 042300Z 0500/0606 VRB05KT 8000 SCT030"
    },
    {
      "icao": "LIME",
      "alert": "OK",
      "vis_m": 1500,
      "fzfg": false,
      "metar_trigger": false,
      "taf_trigger": false,
      "metar": "METAR LIME 050420Z 15003KT 1500 BR BKN002 08/08 Q1026 NOSIG",
      "taf": "TAF LIME 042300Z 0500/0524 VRB05KT 7000 SCT025"
    },
    {
      "icao": "LIMF",
      "alert": "OK",
      "vis_m": 9000,
      "fzfg": false,
      "metar_trigger": false,
      "taf_trigger": false,
      "metar": "METAR LIMF 050420Z VRB01KT 9000 BKN035 09/05 Q1026",
      "taf": "TAF LIMF 042300Z 0500/0524 VRB04KT 7000 BKN030"
    },
    {
      "icao": "LIMJ",
      "alert": "OK",
      "vis_m": 9999,
      "fzfg": false,
      "metar_trigger": false,
      "taf_trigger": false,
      "metar": "METAR LIMJ 050420Z 04015KT 9999 SCT070 12/07 Q1024",
      "taf": "TAF LIMJ 042300Z 0500/0524 VRB05KT 9999 FEW040"
    },
    {
      "icao": "LIPE",
      "alert": "OK",
      "vis_m": 4000,
      "fzfg": false,
      "metar_trigger": false,
      "taf_trigger": false,
      "metar": "METAR LIPE 050420Z VRB01KT 4000 BR BKN016 08/06 Q1027",
      "taf": "TAF LIPE 042300Z 0500/0524 VRB04KT 2000 MIFG SCT015"
    },
    {
      "icao": "LIPH",
      "alert": "OK",
      "vis_m": 3200,
      "fzfg": false,
      "metar_trigger": false,
      "taf_trigger": false,
      "metar": "METAR LIPH 050420Z AUTO VRB01KT 3200 // OVC013/// 08/08 Q1027",
      "taf": "TAF LIPH 042300Z 0500/0524 VRB04KT 1200 BCFG BKN010"
    },
    {
      "icao": "LIPQ",
      "alert": "OK",
      "vis_m": 100,
      "fzfg": false,
      "metar_trigger": false,
      "taf_trigger": false,
      "metar": "METAR LIPQ 050420Z AUTO 22003KT 0100 R09/0500U FG VV008 06/06 Q1027",
      "taf": "TAF LIPQ 042300Z 0500/0524 VRB05KT 2000 BR SCT015"
    },
    {
      "icao": "LIPR",
      "alert": "OK",
      "vis_m": 5000,
      "fzfg": false,
      "metar_trigger": false,
      "taf_trigger": false,
      "metar": "METAR LIPR 050420Z AUTO VRB02KT 5000 DZRA OVC012/// 10/09 Q1027",
      "taf": "TAF LIPR 042300Z 0500/0524 VRB05KT 6000 BKN015"
    },
    {
      "icao": "LIPX",
      "alert": "OK",
      "vis_m": 2500,
      "fzfg": false,
      "metar_trigger": false,
      "taf_trigger": false,
      "metar": "METAR LIPX 050420Z VRB02KT 2500 BR OVC009 08/08 Q1027",
      "taf": "TAF LIPX 042300Z 0500/0524 VRB05KT 5000 BR FEW020"
    },
    {
      "icao": "LIPY",
      "alert": "OK",
      "vis_m": 6000,
      "fzfg": false,
      "metar_trigger": false,
      "taf_trigger": false,
      "metar": "METAR LIPY 050420Z AUTO VRB02KT 6000 OVC031/// 11/10 Q1026",
      "taf": "TAF LIPY 042300Z 0500/0524 VRB05KT 7000 SCT015"
    },
    {
      "icao": "LIPZ",
      "alert": "OK",
      "vis_m": 9999,
      "fzfg": false,
      "metar_trigger": false,
      "taf_trigger": false,
      "metar": "METAR LIPZ 050420Z 02003KT 9999 BKN015 09/07 Q1027 NOSIG",
      "taf": "TAF LIPZ 042300Z 0500/0606 VRB04KT 4000 BR SCT015"
    },
    {
      "icao": "LIRF",
      "alert": "OK",
      "vis_m": 7000,
      "fzfg": false,
      "metar_trigger": false,
      "taf_trigger": false,
      "metar": "METAR LIRF 050420Z 01003KT 7000 NSC 08/08 Q1024 NOSIG",
      "taf": "TAF LIRF 042300Z 0500/0606 05006KT 9000 NSC"
    },
    {
      "icao": "LIRN",
      "alert": "OK",
      "vis_m": 8000,
      "fzfg": false,
      "metar_trigger": false,
      "taf_trigger": false,
      "metar": "METAR LIRN 050420Z 34004KT 8000 NSC 11/09 Q1024 NOSIG",
      "taf": "TAF LIRN 042300Z 0500/0524 VRB05KT 7000 NSC"
    },
    {
      "icao": "LIRP",
      "alert": "OK",
      "vis_m": 9999,
      "fzfg": false,
      "metar_trigger": false,
      "taf_trigger": false,
      "metar": "METAR LIRP 050415Z 18001KT CAVOK 08/08 Q1024 NOSIG",
      "taf": "TAF LIRP 042300Z 0500/0524 10005KT 9999 SCT060"
    },
    {
      "icao": "LIRZ",
      "alert": "OK",
      "vis_m": 9999,
      "fzfg": false,
      "metar_trigger": false,
      "taf_trigger": false,
      "metar": "METAR LIRZ 050420Z AUTO 35004KT 9999 NCD 06/05 Q1025",
      "taf": "TAF LIRZ 042300Z 0500/0524 VRB05KT 9999 FEW060"
    },
    {
      "icao": "LJLJ",
      "alert": "OK",
      "vis_m": 9999,
      "fzfg": false,
      "metar_trigger": false,
      "taf_trigger": false,
      "metar": "METAR LJLJ 050400Z VRB02KT CAVOK M01/M01 Q1026 NOSIG",
      "taf": "TAF LJLJ 042300Z 0500/0600 VRB02KT CAVOK"
    },
    {
      "icao": "LKMT",
      "alert": "OK",
      "vis_m": 9999,
      "fzfg": false,
      "metar_trigger": false,
      "taf_trigger": false,
      "metar": "METAR LKMT 050400Z 00000KT CAVOK M00/M00 Q1027 NOSIG",
      "taf": "TAF LKMT 042300Z 0500/0524 03003KT CAVOK"
    },
    {
      "icao": "LKPR",
      "alert": "OK",
      "vis_m": 7000,
      "fzfg": false,
      "metar_trigger": false,
      "taf_trigger": false,
      "metar": "METAR LKPR 050400Z 23003KT 7000 NSC M00/M01 Q1026 NOSIG",
      "taf": "TAF LKPR 050200Z 0503/0609 VRB02KT 5000 BR NSC"
    },
    {
      "icao": "LLBG",
      "alert": "OK",
      "vis_m": 9999,
      "fzfg": false,
      "metar_trigger": false,
      "taf_trigger": false,
      "metar": "METAR LLBG 050420Z VRB02KT CAVOK 11/09 Q1022 NOSIG",
      "taf": "TAF LLBG 042316Z 0500/0524 VRB04KT 9999 SCT035 TX19/0511Z TN10/0504Z"
    },
    {
      "icao": "LMML",
      "alert": "OK",
      "vis_m": 9999,
      "fzfg": false,
      "metar_trigger": false,
      "taf_trigger": false,
      "metar": "METAR LMML 050415Z 11008KT 9999 FEW018 12/10 Q1023 NOSIG",
      "taf": "TAF LMML 042300Z 0500/0524 14014KT 9999 SCT017"
    },
    {
      "icao": "LOWW",
      "alert": "OK",
      "vis_m": 9000,
      "fzfg": false,
      "metar_trigger": false,
      "taf_trigger": false,
      "metar": "METAR LOWW 050420Z 33004KT 9000 3400S BR FEW000 03/02 Q1027 TEMPO 4000 BR",
      "taf": "TAF LOWW 050215Z 0503/0609 32003KT 9000 NSC TX14/0514Z TN00/0503Z"
    },
    {
      "icao": "LPFR",
      "alert": "OK",
      "vis_m": 9999,
      "fzfg": false,
      "metar_trigger": false,
      "taf_trigger": false,
      "metar": "METAR LPFR 050400Z 28008KT 9999 FEW015 13/11 Q1014",
      "taf": "TAF LPFR 042300Z 0500/0524 VRB02KT 9999 SCT012"
    },
    {
      "icao": "LPMA",
      "alert": "OK",
      "vis_m": 9999,
      "fzfg": false,
      "metar_trigger": false,
      "taf_trigger": false,
      "metar": "METAR LPMA 050400Z 35005KT 300V040 9999 FEW015 15/10 Q1023",
      "taf": "TAF LPMA 042300Z 0500/0524 34010KT 9999 SCT015"
    },
    {
      "icao": "LPPR",
      "alert": "OK",
      "vis_m": 9999,
      "fzfg": false,
      "metar_trigger": false,
      "taf_trigger": false,
      "metar": "METAR LPPR 050400Z VRB02KT 9999 BKN010 12/10 Q1015",
      "taf": "TAF LPPR 042300Z 0500/0524 VRB02KT 9999 SCT008"
    },
    {
      "icao": "LPPS",
      "alert": "OK",
      "vis_m": 9999,
      "fzfg": false,
      "metar_trigger": false,
      "taf_trigger": false,
      "metar": "METAR LPPS 050400Z 33007KT 9999 SCT010 BKN030 14/13 Q1023",
      "taf": "TAF LPPS 042300Z 0500/0606 33013KT 9999 SCT014"
    },
    {
      "icao": "LPPT",
      "alert": "OK",
      "vis_m": 9999,
      "fzfg": false,
      "metar_trigger": false,
      "taf_trigger": false,
      "metar": "METAR LPPT 050400Z 30012KT 9999 FEW010 12/10 Q1014",
      "taf": "TAF LPPT 042300Z 0500/0606 31010KT 9999 FEW012"
    },
    {
      "icao": "LQBK",
      "alert": "OK",
      "vis_m": 9999,
      "fzfg": false,
      "metar_trigger": false,
      "taf_trigger": false,
      "metar": "METAR LQBK 050400Z VRB02KT CAVOK 04/02 Q1026 NOSIG",
      "taf": "TAF LQBK 042300Z 0500/0524 26005KT CAVOK TX16/0514Z TN03/0506Z"
    },
    {
      "icao": "LQSA",
      "alert": "OK",
      "vis_m": 9999,
      "fzfg": false,
      "metar_trigger": false,
      "taf_trigger": false,
      "metar": "METAR LQSA 050400Z 00000KT 9999 BKN045 06/06 Q1025",
      "taf": "TAF LQSA 042300Z 0500/0524 VRB02KT 9999 BKN050 TX13/0514Z TN02/0505Z"
    },
    {
      "icao": "LQTZ",
      "alert": "OK",
      "vis_m": 9999,
      "fzfg": false,
      "metar_trigger": false,
      "taf_trigger": false,
      "metar": "METAR LQTZ 050400Z 03005KT 9999 SCT057 07/05 Q1025",
      "taf": "TAF LQTZ 042300Z 0500/0524 03005KT 9999 SCT050 TX14/0514Z TN04/0524Z"
    },
    {
      "icao": "LRBC",
      "alert": "OK",
      "vis_m": 9999,
      "fzfg": false,
      "metar_trigger": false,
      "taf_trigger": false,
      "metar": "METAR LRBC 050400Z 34004KT CAVOK 01/M00 Q1022",
      "taf": "TAF LRBC 050200Z 0503/0512 VRB04KT CAVOK"
    },
    {
      "icao": "LRBS",
      "alert": "OK",
      "vis_m": 5000,
      "fzfg": false,
      "metar_trigger": false,
      "taf_trigger": false,
      "metar": "METAR LRBS 050400Z 27003KT 5000 BR NSC 06/04 Q1022 NOSIG",
      "taf": ""
    },
    {
      "icao": "LRBV",
      "alert": "OK",
      "vis_m": 7000,
      "fzfg": false,
      "metar_trigger": false,
      "taf_trigger": false,
      "metar": "METAR LRBV 050400Z AUTO 01004KT 7000 BKN055/// OVC066/// 02/01 Q1023",
      "taf": "TAF LRBV 050200Z 0503/0512 23006KT 9999 SCT060"
    },
    {
      "icao": "LRCL",
      "alert": "OK",
      "vis_m": 9999,
      "fzfg": false,
      "metar_trigger": false,
      "taf_trigger": false,
      "metar": "METAR LRCL 050400Z 25001KT CAVOK 04/00 Q1023",
      "taf": "TAF LRCL 050200Z 0503/0512 VRB04KT CAVOK"
    },
    {
      "icao": "LRCV",
      "alert": "OK",
      "vis_m": 1800,
      "fzfg": false,
      "metar_trigger": false,
      "taf_trigger": false,
      "metar": "METAR LRCV 050400Z 28004KT 1800 BR NSC 04/04 Q1022",
      "taf": "TAF LRCV 050200Z 0503/0512 VRB04KT 3000 BR NSC"
    },
    {
      "icao": "LRIA",
      "alert": "OK",
      "vis_m": 9999,
      "fzfg": false,
      "metar_trigger": false,
      "taf_trigger": false,
      "metar": "METAR LRIA 050400Z 31006KT CAVOK 06/01 Q1022",
      "taf": "TAF LRIA 050200Z 0503/0512 VRB04KT CAVOK"
    },
    {
      "icao": "LROP",
      "alert": "OK",
      "vis_m": 5000,
      "fzfg": false,
      "metar_trigger": false,
      "taf_trigger": false,
      "metar": "METAR LROP 050400Z 27004KT 5000 BR NSC 04/04 Q1022 NOSIG",
      "taf": ""
    },
    {
      "icao": "LRSB",
      "alert": "OK",
      "vis_m": 9999,
      "fzfg": false,
      "metar_trigger": false,
      "taf_trigger": false,
      "metar": "METAR LRSB 050400Z 26005KT 9999 BKN060 05/03 Q1023",
      "taf": "TAF LRSB 042300Z 0500/0524 VRB04KT CAVOK"
    },
    {
      "icao": "LRSM",
      "alert": "OK",
      "vis_m": 9999,
      "fzfg": false,
      "metar_trigger": false,
      "taf_trigger": false,
      "metar": "METAR LRSM 050400Z AUTO 23004KT 9999 BKN100/// 05/03 Q1024",
      "taf": "TAF LRSM 050200Z 0503/0512 VRB04KT CAVOK"
    },
    {
      "icao": "LRSV",
      "alert": "OK",
      "vis_m": 9999,
      "fzfg": false,
      "metar_trigger": false,
      "taf_trigger": false,
      "metar": "METAR LRSV 050400Z 32013KT 9999 SCT043 05/00 Q1022",
      "taf": "TAF LRSV 050200Z 0503/0512 32010KT CAVOK"
    },
    {
      "icao": "LRTM",
      "alert": "OK",
      "vis_m": 8000,
      "fzfg": false,
      "metar_trigger": false,
      "taf_trigger": false,
      "metar": "METAR LRTM 050400Z AUTO 08002KT 8000 NCD 00/M01 Q1024",
      "taf": "TAF LRTM 050200Z 0503/0512 VRB04KT CAVOK"
    },
    {
      "icao": "LRTR",
      "alert": "OK",
      "vis_m": 9999,
      "fzfg": false,
      "metar_trigger": false,
      "taf_trigger": false,
      "metar": "METAR LRTR 050400Z 08004KT CAVOK 04/04 Q1024",
      "taf": "TAF LRTR 042300Z 0500/0524 08005KT CAVOK"
    },
    {
      "icao": "LTAC",
      "alert": "OK",
      "vis_m": 9999,
      "fzfg": false,
      "metar_trigger": false,
      "taf_trigger": false,
      "metar": "METAR LTAC 050420Z 12003KT 050V150 CAVOK M05/M09 Q1025 NOSIG",
      "taf": "TAF LTAC 041640Z 0418/0518 VRB02KT CAVOK"
    },
    {
      "icao": "LTFM",
      "alert": "OK",
      "vis_m": 8000,
      "fzfg": false,
      "metar_trigger": false,
      "taf_trigger": false,
      "metar": "METAR LTFM 050420Z 20008KT 8000 NSC 05/02 Q1024 NOSIG",
      "taf": "TAF LTFM 041640Z 0418/0524 VRB02KT CAVOK"
    },
    {
      "icao": "LUKK",
      "alert": "OK",
      "vis_m": 9999,
      "fzfg": false,
      "metar_trigger": false,
      "taf_trigger": false,
      "metar": "METAR LUKK 050400Z VRB01KT CAVOK 04/01 Q1021 NOSIG",
      "taf": "TAF LUKK 042328Z 0500/0524 31008KT CAVOK"
    },
    {
      "icao": "LWOH",
      "alert": "OK",
      "vis_m": null,
      "fzfg": false,
      "metar_trigger": false,
      "taf_trigger": false,
      "metar": "",
      "taf": "TAF LWOH 050230Z 0503/0603 32006KT 9999 FEW060 BKN080"
    },
    {
      "icao": "LWSK",
      "alert": "OK",
      "vis_m": 7000,
      "fzfg": false,
      "metar_trigger": false,
      "taf_trigger": false,
      "metar": "METAR LWSK 050420Z VRB01KT 7000 BKN060 07/05 Q1025 NOSIG",
      "taf": "TAF LWSK 050230Z 0503/0603 VRB02KT 9999 SCT050 BKN070"
    },
    {
      "icao": "LYBE",
      "alert": "OK",
      "vis_m": 7000,
      "fzfg": false,
      "metar_trigger": false,
      "taf_trigger": false,
      "metar": "METAR LYBE 050400Z 24006KT 200V260 7000 BKN040 06/03 Q1025 NOSIG",
      "taf": "TAF LYBE 042300Z 0500/0524 24005KT CAVOK TX15/0513Z TN07/0506Z"
    },
    {
      "icao": "LYNI",
      "alert": "OK",
      "vis_m": 7000,
      "fzfg": false,
      "metar_trigger": false,
      "taf_trigger": false,
      "metar": "METAR LYNI 050400Z 12005KT 7000 RA BKN030 OVC070 07/07 Q1025 NOSIG",
      "taf": "TAF LYNI 042300Z 0500/0524 10004KT 9999 SCT040 BKN070 TX13/0513Z TN07/0506Z"
    },
    {
      "icao": "LYPG",
      "alert": "OK",
      "vis_m": 8000,
      "fzfg": false,
      "metar_trigger": false,
      "taf_trigger": false,
      "metar": "METAR LYPG 050400Z 07003KT 8000 BKN070 10/09 Q1025 NOSIG",
      "taf": "TAF LYPG 042300Z 0500/0524 VRB02KT 8000 FEW040 BKN070 TX17/0514Z TN08/0506Z"
    },
    {
      "icao": "LZIB",
      "alert": "OK",
      "vis_m": 6000,
      "fzfg": false,
      "metar_trigger": false,
      "taf_trigger": false,
      "metar": "METAR LZIB 050400Z 00000KT 6000 NSC 03/02 Q1026 NOSIG",
      "taf": "TAF LZIB 042315Z 0500/0600 28005KT CAVOK"
    },
    {
      "icao": "LZKZ",
      "alert": "OK",
      "vis_m": 9999,
      "fzfg": false,
      "metar_trigger": false,
      "taf_trigger": false,
      "metar": "METAR LZKZ 050400Z 03011KT CAVOK 06/01 Q1024 NOSIG",
      "taf": "TAF LZKZ 042315Z 0500/0600 17006KT CAVOK"
    },
    {
      "icao": "LZTT",
      "alert": "OK",
      "vis_m": 9999,
      "fzfg": false,
      "metar_trigger": false,
      "taf_trigger": false,
      "metar": "METAR LZTT 050400Z 30004KT 250V330 9999 SCT016 M02/M03 Q1024",
      "taf": "TAF LZTT 042315Z 0500/0600 27008KT 9999 BKN048"
    },
    {
      "icao": "OEJN",
      "alert": "OK",
      "vis_m": 9999,
      "fzfg": false,
      "metar_trigger": false,
      "taf_trigger": false,
      "metar": "METAR OEJN 050400Z 34009KT 9999 FEW040 20/M01 Q1012 NOSIG",
      "taf": "TAF OEJN 042300Z 0500/0606 02014KT 7000 NSC"
    },
    {
      "icao": "OEMA",
      "alert": "OK",
      "vis_m": 9999,
      "fzfg": false,
      "metar_trigger": false,
      "taf_trigger": false,
      "metar": "METAR OEMA 050400Z 05005KT CAVOK 13/M10 Q1021 NOSIG",
      "taf": "TAF OEMA 042300Z 0500/0606 09012KT 7000 NSC"
    },
    {
      "icao": "OJAI",
      "alert": "OK",
      "vis_m": 4000,
      "fzfg": false,
      "metar_trigger": false,
      "taf_trigger": false,
      "metar": "METAR OJAI 050400Z 27007KT 4000 BR SCT035 06/05 Q1022 NOSIG",
      "taf": "TAF OJAI 042300Z 0500/0606 29012KT 5000 HZ SCT030"
    },
    {
      "icao": "OMAA",
      "alert": "OK",
      "vis_m": 9999,
      "fzfg": false,
      "metar_trigger": false,
      "taf_trigger": false,
      "metar": "METAR OMAA 050400Z 31010KT 9999 FEW015 23/19 Q1017 NOSIG",
      "taf": "TAF OMAA 041700Z 0418/0600 33012KT 8000 NSC"
    },
    {
      "icao": "OMDB",
      "alert": "OK",
      "vis_m": null,
      "fzfg": false,
      "metar_trigger": false,
      "taf_trigger": false,
      "metar": "",
      "taf": "TAF OMDB 042300Z 0500/0606 30010KT 8000 NSC"
    },
    {
      "icao": "UAAA",
      "alert": "OK",
      "vis_m": 5000,
      "fzfg": false,
      "metar_trigger": false,
      "taf_trigger": false,
      "metar": "SPECI UAAA 050422Z 02002MPS 340V050 5000 BR SCT007 BKN200 02/01 Q1018 NOSIG",
      "taf": "TAF UAAA 042302Z 0500/0524 16003MPS 3100 BR FU SCT011 BKN050 TX05/0511Z TNM02/0501Z"
    },
    {
      "icao": "UBBB",
      "alert": "OK",
      "vis_m": 9999,
      "fzfg": false,
      "metar_trigger": false,
      "taf_trigger": false,
      "metar": "METAR UBBB 050400Z 32006KT 9999 FEW045 07/03 Q1024 NOSIG",
      "taf": "TAF UBBB 042302Z 0500/0524 35008KT 9999 BKN040 TX10/0510Z TN04/0503Z"
    },
    {
      "icao": "UDSG",
      "alert": "OK",
      "vis_m": 9999,
      "fzfg": false,
      "metar_trigger": false,
      "taf_trigger": false,
      "metar": "METAR UDSG 050400Z 10002KT 9999 NSC M15/M17 Q1022 NOSIG",
      "taf": "TAF UDSG 042258Z 0500/0524 VRB06KT 9999 SCT040"
    },
    {
      "icao": "UDYZ",
      "alert": "OK",
      "vis_m": 9999,
      "fzfg": false,
      "metar_trigger": false,
      "taf_trigger": false,
      "metar": "METAR UDYZ 050400Z 10003KT 9999 FEW046 M01/M05 Q1022 NOSIG",
      "taf": "TAF UDYZ 042300Z 0500/0524 VRB06KT 9999 SCT030"
    },
    {
      "icao": "UGKO",
      "alert": "OK",
      "vis_m": 9999,
      "fzfg": false,
      "metar_trigger": false,
      "taf_trigger": false,
      "metar": "METAR UGKO 050400Z VRB02KT 9999 SCT025 OVC036 03/02 Q1028 NOSIG",
      "taf": "TAF UGKO 041700Z 0418/0518 25007KT 9999 SCT030 OVC050 TX10/0511Z TN01/0503Z"
    }
  ]
}