{
  "ts_utc": "2026-01-11T21:36:38Z",
  "threshold_m": 150,
  "source": "stations_override.txt (ICAO list) + aviationweather.gov (METAR/TAF raw)",
  "station_count": 159,
  "stations": [
    {
      "icao": "BIKF",
      "alert": "OK",
      "vis_m": 9999,
      "fzfg": false,
      "metar_trigger": false,
      "taf_trigger": false,
      "metar": "METAR BIKF 112130Z 02020KT CAVOK M01/M06 Q0993",
      "taf": "TAF BIKF 111955Z 1121/1221 02022KT 9999 FEW030 TX00/1203Z TNM03/1218Z"
    },
    {
      "icao": "BKPR",
      "alert": "OK",
      "vis_m": 9999,
      "fzfg": false,
      "metar_trigger": false,
      "taf_trigger": false,
      "metar": "METAR BKPR 112130Z 33006KT 9999 SCT060 M06/M10 Q1019 NOSIG",
      "taf": ""
    },
    {
      "icao": "EBCI",
      "alert": "OK",
      "vis_m": 9999,
      "fzfg": false,
      "metar_trigger": false,
      "taf_trigger": false,
      "metar": "METAR EBCI 112120Z 17013KT 9999 FEW014 01/M02 Q1015 NOSIG",
      "taf": "TAF EBCI 111700Z 1118/1224 17012KT 9999 BKN014"
    },
    {
      "icao": "EDDB",
      "alert": "OK",
      "vis_m": 8000,
      "fzfg": false,
      "metar_trigger": false,
      "taf_trigger": false,
      "metar": "METAR EDDB 112120Z AUTO 25006KT 8000 2200 BR NCD M10/M11 Q1022 NOSIG",
      "taf": "TAF EDDB 111700Z 1118/1218 28009KT CAVOK"
    },
    {
      "icao": "EDDH",
      "alert": "OK",
      "vis_m": 9999,
      "fzfg": false,
      "metar_trigger": false,
      "taf_trigger": false,
      "metar": "METAR EDDH 112120Z AUTO 12005KT 100V160 CAVOK M08/M09 Q1021 NOSIG",
      "taf": "TAF EDDH 111700Z 1118/1224 VRB03KT 6000 NSC"
    },
    {
      "icao": "EDDK",
      "alert": "OK",
      "vis_m": 9999,
      "fzfg": false,
      "metar_trigger": false,
      "taf_trigger": false,
      "metar": "METAR EDDK 112120Z AUTO 13010KT 090V150 9999 OVC019 M00/M03 Q1020 NOSIG",
      "taf": "TAF EDDK 111700Z 1118/1224 14009KT 9999 BKN020"
    },
    {
      "icao": "EDDN",
      "alert": "OK",
      "vis_m": 9999,
      "fzfg": false,
      "metar_trigger": false,
      "taf_trigger": false,
      "metar": "METAR EDDN 112120Z AUTO 11004KT 9999 OVC015 M06/M08 Q1024",
      "taf": ""
    },
    {
      "icao": "EDDS",
      "alert": "OK",
      "vis_m": 9999,
      "fzfg": false,
      "metar_trigger": false,
      "taf_trigger": false,
      "metar": "METAR EDDS 112120Z AUTO 19003KT CAVOK M03/M05 Q1021",
      "taf": "TAF EDDS 111700Z 1118/1218 18004KT 9999 BKN020"
    },
    {
      "icao": "EDFH",
      "alert": "OK",
      "vis_m": 9999,
      "fzfg": false,
      "metar_trigger": false,
      "taf_trigger": false,
      "metar": "METAR EDFH 112120Z 18012KT 9999 OVC005 M03/M04 Q1019",
      "taf": "TAF EDFH 111700Z 1118/1218 16008KT 8000 BKN005"
    },
    {
      "icao": "EDJA",
      "alert": "OK",
      "vis_m": 9999,
      "fzfg": false,
      "metar_trigger": false,
      "taf_trigger": false,
      "metar": "METAR EDJA 112120Z 15004KT CAVOK M08/M10 Q1022",
      "taf": "TAF EDJA 111700Z 1118/1203 19004KT CAVOK"
    },
    {
      "icao": "EDLW",
      "alert": "OK",
      "vis_m": 9999,
      "fzfg": false,
      "metar_trigger": false,
      "taf_trigger": false,
      "metar": "METAR EDLW 112120Z AUTO 17009KT 9999 R24///// // OVC110/// M01/M04 Q1019",
      "taf": "TAF EDLW 111700Z 1118/1218 17008KT 9999 FEW015"
    },
    {
      "icao": "EDNY",
      "alert": "OK",
      "vis_m": 9000,
      "fzfg": false,
      "metar_trigger": false,
      "taf_trigger": false,
      "metar": "METAR EDNY 112120Z AUTO 07005KT 9000 // NCD M06/M06 Q1023",
      "taf": "TAF EDNY 111700Z 1118/1203 06003KT 9999 BKN020"
    },
    {
      "icao": "EDSB",
      "alert": "OK",
      "vis_m": 4000,
      "fzfg": false,
      "metar_trigger": false,
      "taf_trigger": false,
      "metar": "METAR EDSB 112120Z 00000KT 4000 BR BCFG FEW004 M02/M02 Q1023",
      "taf": "TAF EDSB 111700Z 1118/1218 08004KT 9999 BKN025"
    },
    {
      "icao": "EETN",
      "alert": "OK",
      "vis_m": 4100,
      "fzfg": false,
      "metar_trigger": false,
      "taf_trigger": false,
      "metar": "METAR EETN 112120Z 07004KT 4100 SN SCT026 OVC037 M05/M06 Q1013 NOSIG",
      "taf": "TAF EETN 111730Z 1118/1218 03012KT 5000 SN SCT015 OVC020"
    },
    {
      "icao": "EFTU",
      "alert": "OK",
      "vis_m": 9999,
      "fzfg": false,
      "metar_trigger": false,
      "taf_trigger": false,
      "metar": "METAR EFTU 112120Z AUTO 04006KT 9999 -SHSN NSC M07/M09 Q1017",
      "taf": "TAF EFTU 112032Z 1121/1221 03007KT 9999 -SN SCT025"
    },
    {
      "icao": "EGBB",
      "alert": "OK",
      "vis_m": 8000,
      "fzfg": false,
      "metar_trigger": false,
      "taf_trigger": false,
      "metar": "METAR EGBB 112120Z 17012KT 8000 -RA OVC007 10/09 Q0997 RERA",
      "taf": ""
    },
    {
      "icao": "EGGP",
      "alert": "OK",
      "vis_m": 9999,
      "fzfg": false,
      "metar_trigger": false,
      "taf_trigger": false,
      "metar": "METAR EGGP 112120Z 20008KT 180V240 9999 FEW026 BKN031 BKN043 09/08 Q0993",
      "taf": ""
    },
    {
      "icao": "EGGW",
      "alert": "OK",
      "vis_m": 3400,
      "fzfg": false,
      "metar_trigger": false,
      "taf_trigger": false,
      "metar": "METAR EGGW 112120Z AUTO 18014KT 3400 -RADZ OVC003 07/07 Q1001",
      "taf": ""
    },
    {
      "icao": "EGKK",
      "alert": "OK",
      "vis_m": 3200,
      "fzfg": false,
      "metar_trigger": false,
      "taf_trigger": false,
      "metar": "METAR EGKK 112120Z 19015G25KT 3200 -RADZ BKN007 08/08 Q1004",
      "taf": "TAF EGKK 111657Z 1118/1224 16013KT 9999 BKN010"
    },
    {
      "icao": "EGNM",
      "alert": "OK",
      "vis_m": 9999,
      "fzfg": false,
      "metar_trigger": false,
      "taf_trigger": false,
      "metar": "METAR EGNM 112120Z 18018G29KT 9999 -RADZ FEW005 BKN012 08/07 Q0992",
      "taf": "TAF EGNM 111657Z 1118/1218 15015G28KT 9999 BKN006"
    },
    {
      "icao": "EGPD",
      "alert": "OK",
      "vis_m": 9000,
      "fzfg": false,
      "metar_trigger": false,
      "taf_trigger": false,
      "metar": "METAR EGPD 112120Z AUTO 16028KT 9000 OVC006 06/05 Q0984 TEMPO BKN010",
      "taf": "TAF EGPD 111703Z 1118/1218 16020G32KT 9999 BKN010"
    },
    {
      "icao": "EGPF",
      "alert": "OK",
      "vis_m": 9000,
      "fzfg": false,
      "metar_trigger": false,
      "taf_trigger": false,
      "metar": "METAR EGPF 112120Z AUTO 19020G30KT 160V230 9000 -RA BKN017/// //////TCU 11/09 Q0981",
      "taf": "TAF EGPF 111702Z 1118/1218 15015G25KT 9999 FEW015 SCT030"
    },
    {
      "icao": "EHBK",
      "alert": "OK",
      "vis_m": 9999,
      "fzfg": false,
      "metar_trigger": false,
      "taf_trigger": false,
      "metar": "METAR EHBK 112125Z AUTO 18012KT 9999 NSC 00/M02 Q1017 NOSIG",
      "taf": "TAF EHBK 111712Z 1118/1224 18008KT 9999 BKN016"
    },
    {
      "icao": "EHEH",
      "alert": "OK",
      "vis_m": 9999,
      "fzfg": false,
      "metar_trigger": false,
      "taf_trigger": false,
      "metar": "METAR EHEH 112125Z AUTO 16012KT 140V200 9999 OVC082 01/M02 Q1016 BLU NOSIG RMK TREND REMOTE BY EHWX",
      "taf": "TAF EHEH 112114Z 1122/1304 17011KT CAVOK"
    },
    {
      "icao": "EKBI",
      "alert": "OK",
      "vis_m": 9999,
      "fzfg": false,
      "metar_trigger": false,
      "taf_trigger": false,
      "metar": "METAR EKBI 112120Z AUTO 13006KT 9999 OVC130/// M05/M07 Q1019",
      "taf": "TAF EKBI 112027Z 1121/1221 12008KT CAVOK"
    },
    {
      "icao": "EKCH",
      "alert": "OK",
      "vis_m": 9999,
      "fzfg": false,
      "metar_trigger": false,
      "taf_trigger": false,
      "metar": "METAR EKCH 112120Z AUTO 25002KT 9999 NCD M08/M10 Q1022 NOSIG",
      "taf": "TAF EKCH 112027Z 1121/1221 33010KT CAVOK"
    },
    {
      "icao": "ENAL",
      "alert": "OK",
      "vis_m": 9999,
      "fzfg": false,
      "metar_trigger": false,
      "taf_trigger": false,
      "metar": "METAR ENAL 112120Z 15005KT 100V220 CAVOK 03/M08 Q1005",
      "taf": ""
    },
    {
      "icao": "ENBR",
      "alert": "OK",
      "vis_m": 9999,
      "fzfg": false,
      "metar_trigger": false,
      "taf_trigger": false,
      "metar": "METAR ENBR 112120Z 14027G41KT 9999 -SN SCT020 BKN045 03/M08 Q1006 RMK WIND 1200FT 14052G65KT",
      "taf": "TAF ENBR 111700Z 1118/1218 13022KT 9999 SCT045"
    },
    {
      "icao": "ENGM",
      "alert": "OK",
      "vis_m": 9999,
      "fzfg": false,
      "metar_trigger": false,
      "taf_trigger": false,
      "metar": "METAR ENGM 112120Z VRB01KT 9999 OVC004 M18/M21 Q1021 NOSIG",
      "taf": ""
    },
    {
      "icao": "ENHD",
      "alert": "OK",
      "vis_m": 9999,
      "fzfg": false,
      "metar_trigger": false,
      "taf_trigger": false,
      "metar": "METAR ENHD 112120Z 14025G37KT 9999 SCT045 02/M07 Q1007",
      "taf": "TAF ENHD 111400Z 1115/1123 14025KT 9999 BKN040"
    },
    {
      "icao": "ENTC",
      "alert": "OK",
      "vis_m": 9999,
      "fzfg": false,
      "metar_trigger": false,
      "taf_trigger": false,
      "metar": "METAR ENTC 112120Z VRB02KT CAVOK M08/M10 Q1020 NOSIG RMK WIND 2600FT 18024KT",
      "taf": "TAF ENTC 111700Z 1118/1218 20005KT CAVOK"
    },
    {
      "icao": "ENTO",
      "alert": "OK",
      "vis_m": 9999,
      "fzfg": false,
      "metar_trigger": false,
      "taf_trigger": false,
      "metar": "METAR ENTO 112120Z 36009KT 9999 OVC004 M13/M15 Q1021 NOSIG",
      "taf": ""
    },
    {
      "icao": "ENVA",
      "alert": "OK",
      "vis_m": 9999,
      "fzfg": false,
      "metar_trigger": false,
      "taf_trigger": false,
      "metar": "METAR ENVA 112120Z 09012G23KT CAVOK M02/M13 Q1015 RMK WIND 670FT 12021G34KT",
      "taf": "TAF ENVA 111700Z 1118/1218 10008KT CAVOK"
    },
    {
      "icao": "ENZV",
      "alert": "OK",
      "vis_m": 9999,
      "fzfg": false,
      "metar_trigger": false,
      "taf_trigger": false,
      "metar": "METAR ENZV 112120Z 14027G42KT CAVOK 01/M09 Q1008",
      "taf": "TAF ENZV 111700Z 1118/1218 14022G35KT 9999 SCT045"
    },
    {
      "icao": "EPGD",
      "alert": "OK",
      "vis_m": 9999,
      "fzfg": false,
      "metar_trigger": false,
      "taf_trigger": false,
      "metar": "METAR EPGD 112130Z 32009KT 9999 -SHSN FEW010 FEW020CB M02/M03 Q1012 RESHSN",
      "taf": "TAF EPGD 111730Z 1118/1218 33012KT 9999 SCT015"
    },
    {
      "icao": "EPKK",
      "alert": "OK",
      "vis_m": 4500,
      "fzfg": false,
      "metar_trigger": false,
      "taf_trigger": false,
      "metar": "METAR EPKK 112130Z 28017KT 4500 SN DRSN OVC015 M05/M08 Q1015",
      "taf": "TAF EPKK 112030Z 1121/1221 27015KT 6000 -SN BKN020"
    },
    {
      "icao": "EPKT",
      "alert": "OK",
      "vis_m": 9999,
      "fzfg": false,
      "metar_trigger": false,
      "taf_trigger": false,
      "metar": "METAR EPKT 112130Z 28015KT 9999 -SN DRSN FEW010 BKN012 M06/M08 Q1015 RESN",
      "taf": ""
    },
    {
      "icao": "EPLB",
      "alert": "OK",
      "vis_m": 2500,
      "fzfg": false,
      "metar_trigger": false,
      "taf_trigger": false,
      "metar": "METAR EPLB 112130Z 28005KT 2500 -SN BR FEW018 SCT036 OVC041 M05/M05 Q1009",
      "taf": "TAF EPLB 111730Z 1118/1218 30008KT 8000 -SN BKN020"
    },
    {
      "icao": "EPMO",
      "alert": "OK",
      "vis_m": 9999,
      "fzfg": false,
      "metar_trigger": false,
      "taf_trigger": false,
      "metar": "METAR EPMO 112130Z 31008KT 9999 -SN FEW016 SCT039 M04/M05 Q1011",
      "taf": "TAF EPMO 111730Z 1118/1218 30006KT 7000 -SN SCT009 BKN015"
    },
    {
      "icao": "EPPO",
      "alert": "OK",
      "vis_m": 9999,
      "fzfg": false,
      "metar_trigger": false,
      "taf_trigger": false,
      "metar": "METAR EPPO 112130Z 28010KT 9999 BKN040 M04/M08 Q1017",
      "taf": "TAF EPPO 111730Z 1118/1218 30012KT 9999 BKN020"
    },
    {
      "icao": "EPRA",
      "alert": "OK",
      "vis_m": 2000,
      "fzfg": false,
      "metar_trigger": false,
      "taf_trigger": false,
      "metar": "METAR EPRA 112130Z 31011KT 2000 SN SCT006 OVC012 M02/M04 Q1010",
      "taf": "TAF EPRA 112030Z 1121/1206 28010KT 7000 -SN BKN016 OVC027"
    },
    {
      "icao": "EPRZ",
      "alert": "OK",
      "vis_m": 2500,
      "fzfg": false,
      "metar_trigger": false,
      "taf_trigger": false,
      "metar": "METAR EPRZ 112130Z 26018KT 2500 SN BR SCT002 OVC014 M04/M05 Q1011",
      "taf": "TAF EPRZ 111730Z 1118/1218 28012KT 3000 -SN BR BKN014"
    },
    {
      "icao": "EPSC",
      "alert": "OK",
      "vis_m": 9999,
      "fzfg": false,
      "metar_trigger": false,
      "taf_trigger": false,
      "metar": "METAR EPSC 112130Z 29007KT CAVOK M07/M09 Q1019",
      "taf": "TAF EPSC 111730Z 1118/1218 28010KT CAVOK"
    },
    {
      "icao": "EPSY",
      "alert": "OK",
      "vis_m": 9999,
      "fzfg": false,
      "metar_trigger": false,
      "taf_trigger": false,
      "metar": "METAR EPSY 112130Z 35008KT 9999 SCT011 BKN015 BKN021 M06/M08 Q1011",
      "taf": "TAF EPSY 112030Z 1121/1206 35005KT 9999 BKN014"
    },
    {
      "icao": "EPWA",
      "alert": "OK",
      "vis_m": 9999,
      "fzfg": false,
      "metar_trigger": false,
      "taf_trigger": false,
      "metar": "METAR EPWA 112130Z 33010KT 9999 SCT012 BKN043 M03/M05 Q1011 NOSIG",
      "taf": "TAF EPWA 112030Z 1121/1221 31008KT 9999 -SN SCT012 BKN016"
    },
    {
      "icao": "EPWR",
      "alert": "OK",
      "vis_m": 9999,
      "fzfg": false,
      "metar_trigger": false,
      "taf_trigger": false,
      "metar": "METAR EPWR 112130Z 29018KT 9999 BKN032 M05/M07 Q1019",
      "taf": "TAF EPWR 112030Z 1121/1221 28018KT 9999 BKN040"
    },
    {
      "icao": "ESGG",
      "alert": "OK",
      "vis_m": 9999,
      "fzfg": false,
      "metar_trigger": false,
      "taf_trigger": false,
      "metar": "METAR ESGG 112120Z 10001KT CAVOK M12/M14 Q1020",
      "taf": "TAF ESGG 112030Z 1121/1221 VRB02KT CAVOK"
    },
    {
      "icao": "ESKN",
      "alert": "OK",
      "vis_m": 9999,
      "fzfg": false,
      "metar_trigger": false,
      "taf_trigger": false,
      "metar": "METAR ESKN 112120Z 31007KT 280V340 9999 OVC027 M08/M09 Q1018",
      "taf": "TAF ESKN 112030Z 1121/1221 33012KT 9999 BKN025"
    },
    {
      "icao": "ESMS",
      "alert": "OK",
      "vis_m": 9999,
      "fzfg": false,
      "metar_trigger": false,
      "taf_trigger": false,
      "metar": "METAR ESMS 112120Z 00000KT CAVOK M13/M15 Q1020",
      "taf": "TAF ESMS 112027Z 1121/1221 VRB04KT CAVOK"
    },
    {
      "icao": "ESSA",
      "alert": "OK",
      "vis_m": 9999,
      "fzfg": false,
      "metar_trigger": false,
      "taf_trigger": false,
      "metar": "METAR ESSA 112120Z 31008KT 9999 OVC020 M05/M07 Q1018 NOSIG",
      "taf": "TAF ESSA 112030Z 1121/1221 32012KT 9999 -SN BKN017"
    },
    {
      "icao": "EYKA",
      "alert": "OK",
      "vis_m": 7000,
      "fzfg": false,
      "metar_trigger": false,
      "taf_trigger": false,
      "metar": "METAR EYKA 112120Z 32003KT 300V360 7000 -SN FEW019 M10/M12 Q1010",
      "taf": "TAF EYKA 111706Z 1118/1218 VRB04KT 5000 BR SCT010 BKN015"
    },
    {
      "icao": "EYPA",
      "alert": "OK",
      "vis_m": 9999,
      "fzfg": false,
      "metar_trigger": false,
      "taf_trigger": false,
      "metar": "METAR EYPA 112120Z 05004KT CAVOK M07/M09 Q1012",
      "taf": "TAF EYPA 111704Z 1118/1218 VRB05KT 5000 BR SCT015"
    },
    {
      "icao": "EYVI",
      "alert": "OK",
      "vis_m": 4500,
      "fzfg": false,
      "metar_trigger": false,
      "taf_trigger": false,
      "metar": "METAR EYVI 112120Z 31003KT 280V350 4500 SN FEW004 BKN021 M13/M15 Q1008 TEMPO 1500 SN BKN002",
      "taf": "TAF EYVI 111707Z 1118/1218 VRB04KT 5000 BR SCT010 BKN015"
    },
    {
      "icao": "GCFV",
      "alert": "OK",
      "vis_m": 9999,
      "fzfg": false,
      "metar_trigger": false,
      "taf_trigger": false,
      "metar": "METAR GCFV 112130Z 03010KT 9999 SCT020 17/12 Q1024",
      "taf": "TAF GCFV 112000Z 1121/1221 03006KT 9999 FEW020 TX21/1214Z TN14/1206Z"
    },
    {
      "icao": "GCLP",
      "alert": "OK",
      "vis_m": 9999,
      "fzfg": false,
      "metar_trigger": false,
      "taf_trigger": false,
      "metar": "METAR GCLP 112130Z 34007KT 290V010 9999 SCT027 17/12 Q1024 NOSIG",
      "taf": "TAF GCLP 112000Z 1121/1221 33007KT 9999 SCT025 TX21/1214Z TN15/1206Z"
    },
    {
      "icao": "GCTS",
      "alert": "OK",
      "vis_m": 9999,
      "fzfg": false,
      "metar_trigger": false,
      "taf_trigger": false,
      "metar": "METAR GCTS 112130Z 05009KT 9999 FEW035 17/12 Q1024 NOSIG",
      "taf": "TAF GCTS 112000Z 1121/1221 03008KT 9999 FEW030 TX23/1214Z TN16/1206Z"
    },
    {
      "icao": "GMAD",
      "alert": "OK",
      "vis_m": 9999,
      "fzfg": false,
      "metar_trigger": false,
      "taf_trigger": false,
      "metar": "METAR GMAD 112130Z 15006KT CAVOK 11/10 Q1024 NOSIG",
      "taf": "TAF GMAD 111700Z 1118/1224 20008KT CAVOK"
    },
    {
      "icao": "GMMN",
      "alert": "OK",
      "vis_m": 9999,
      "fzfg": false,
      "metar_trigger": false,
      "taf_trigger": false,
      "metar": "METAR GMMN 112130Z 07005KT CAVOK 10/08 Q1025 NOSIG",
      "taf": "TAF GMMN 111700Z 1118/1224 04008KT CAVOK"
    },
    {
      "icao": "GMMX",
      "alert": "OK",
      "vis_m": 7000,
      "fzfg": false,
      "metar_trigger": false,
      "taf_trigger": false,
      "metar": "METAR GMMX 112130Z 11003KT 7000 NSC 10/07 Q1025 NOSIG",
      "taf": "TAF GMMX 111700Z 1118/1224 06006KT CAVOK"
    },
    {
      "icao": "HEGN",
      "alert": "OK",
      "vis_m": 9999,
      "fzfg": false,
      "metar_trigger": false,
      "taf_trigger": false,
      "metar": "METAR HEGN 112100Z 33003KT CAVOK 16/09 Q1016 NOSIG",
      "taf": "TAF HEGN 111700Z 1118/1224 03008KT CAVOK"
    },
    {
      "icao": "HEMA",
      "alert": "OK",
      "vis_m": 9999,
      "fzfg": false,
      "metar_trigger": false,
      "taf_trigger": false,
      "metar": "METAR HEMA 112100Z 21003KT CAVOK 18/14 Q1015 NOSIG",
      "taf": "TAF HEMA 111700Z 1118/1224 32008G20KT CAVOK"
    },
    {
      "icao": "HESH",
      "alert": "OK",
      "vis_m": 9999,
      "fzfg": false,
      "metar_trigger": false,
      "taf_trigger": false,
      "metar": "METAR HESH 112100Z 00000KT CAVOK 17/06 Q1016 NOSIG",
      "taf": "TAF HESH 111700Z 1118/1224 01011KT CAVOK"
    },
    {
      "icao": "HESX",
      "alert": "OK",
      "vis_m": 9999,
      "fzfg": false,
      "metar_trigger": false,
      "taf_trigger": false,
      "metar": "METAR HESX 112100Z 21005KT CAVOK 13/04 Q1017 NOSIG",
      "taf": "TAF HESX 111700Z 1118/1224 26008KT CAVOK"
    },
    {
      "icao": "LATI",
      "alert": "OK",
      "vis_m": 9999,
      "fzfg": false,
      "metar_trigger": false,
      "taf_trigger": false,
      "metar": "METAR LATI 112120Z 31006KT 9999 FEW073 01/M08 Q1015 NOSIG",
      "taf": ""
    },
    {
      "icao": "LBPD",
      "alert": "OK",
      "vis_m": 9999,
      "fzfg": false,
      "metar_trigger": false,
      "taf_trigger": false,
      "metar": "METAR LBPD 112130Z AUTO 28017KT 9999 OVC074/// M01/M08 Q1016",
      "taf": "TAF LBPD 111700Z 1118/1218 28020KT 9999 SCT030 BKN050"
    },
    {
      "icao": "LBSF",
      "alert": "OK",
      "vis_m": 9999,
      "fzfg": false,
      "metar_trigger": false,
      "taf_trigger": false,
      "metar": "METAR LBSF 112130Z AUTO 29008KT 9999 FEW026/// M06/M10 Q1017 NOSIG",
      "taf": "TAF LBSF 111700Z 1118/1218 28014KT 9999 BKN025 OVC045"
    },
    {
      "icao": "LBWN",
      "alert": "OK",
      "vis_m": 9999,
      "fzfg": false,
      "metar_trigger": false,
      "taf_trigger": false,
      "metar": "METAR LBWN 112130Z AUTO 28010KT 9999 NSC M02/M04 Q1016 NOSIG",
      "taf": "TAF LBWN 111700Z 1118/1218 31010KT 9999 SCT020 OVC040"
    },
    {
      "icao": "LCLK",
      "alert": "OK",
      "vis_m": 9999,
      "fzfg": false,
      "metar_trigger": false,
      "taf_trigger": false,
      "metar": "METAR LCLK 112130Z 25024KT 200V270 9999 -SHRA FEW025 FEW030TCU SCT040 17/13 Q1011 BECMG 2000 +SHRA",
      "taf": "TAF LCLK 111730Z 1118/1218 22023KT 9999 -SHRA FEW025TCU FEW030CB SCT040"
    },
    {
      "icao": "LCPH",
      "alert": "OK",
      "vis_m": 7000,
      "fzfg": false,
      "metar_trigger": false,
      "taf_trigger": false,
      "metar": "METAR LCPH 112130Z 24012KT 7000 -RA FEW020 BKN050 15/12 Q1011 BECMG 9999",
      "taf": "TAF LCPH 111730Z 1118/1218 26021KT 9999 -SHRA FEW025TCU FEW030CB SCT040"
    },
    {
      "icao": "LEAL",
      "alert": "OK",
      "vis_m": 9999,
      "fzfg": false,
      "metar_trigger": false,
      "taf_trigger": false,
      "metar": "METAR LEAL 112130Z 27003KT 250V320 CAVOK 09/06 Q1025 NOSIG",
      "taf": "TAF LEAL 111700Z 1118/1218 28008KT CAVOK TX16/1213Z TN07/1206Z"
    },
    {
      "icao": "LEBB",
      "alert": "OK",
      "vis_m": 9999,
      "fzfg": false,
      "metar_trigger": false,
      "taf_trigger": false,
      "metar": "METAR LEBB 112130Z VRB03KT CAVOK 15/07 Q1019 NOSIG",
      "taf": "TAF LEBB 111700Z 1118/1218 18008KT 9999 SCT060 TX15/1214Z TN12/1207Z"
    },
    {
      "icao": "LEBL",
      "alert": "OK",
      "vis_m": 9999,
      "fzfg": false,
      "metar_trigger": false,
      "taf_trigger": false,
      "metar": "METAR LEBL 112130Z 33003KT 250V040 CAVOK 07/04 Q1024 NOSIG",
      "taf": "TAF LEBL 111700Z 1118/1218 VRB04KT 9999 FEW020 TX15/1213Z TN05/1206Z"
    },
    {
      "icao": "LECH",
      "alert": "OK",
      "vis_m": 9999,
      "fzfg": false,
      "metar_trigger": false,
      "taf_trigger": false,
      "metar": "METAR LECH 112130Z AUTO 19004KT CAVOK 06/02 Q1024",
      "taf": ""
    },
    {
      "icao": "LEMD",
      "alert": "OK",
      "vis_m": 9999,
      "fzfg": false,
      "metar_trigger": false,
      "taf_trigger": false,
      "metar": "METAR LEMD 112130Z 00000KT CAVOK 04/02 Q1025 NOSIG",
      "taf": "TAF LEMD 111700Z 1118/1224 VRB03KT CAVOK TX08/1215Z TN02/1200Z"
    },
    {
      "icao": "LEMG",
      "alert": "OK",
      "vis_m": 9999,
      "fzfg": false,
      "metar_trigger": false,
      "taf_trigger": false,
      "metar": "METAR LEMG 112130Z 30004KT CAVOK 08/05 Q1026 NOSIG",
      "taf": "TAF LEMG 111700Z 1118/1218 27006KT CAVOK TX17/1214Z TN07/1207Z"
    },
    {
      "icao": "LEVC",
      "alert": "OK",
      "vis_m": 9999,
      "fzfg": false,
      "metar_trigger": false,
      "taf_trigger": false,
      "metar": "METAR LEVC 112130Z 30005KT 230V330 CAVOK 07/05 Q1024 NOSIG",
      "taf": "TAF LEVC 111700Z 1118/1218 26008KT CAVOK TX19/1214Z TN05/1206Z"
    },
    {
      "icao": "LEXJ",
      "alert": "OK",
      "vis_m": 9999,
      "fzfg": false,
      "metar_trigger": false,
      "taf_trigger": false,
      "metar": "METAR LEXJ 112130Z 22012G24KT 150V260 CAVOK 16/06 Q1017",
      "taf": "TAF LEXJ 112000Z 1121/1221 22009KT 9999 SCT060 TX15/1213Z TN12/1208Z"
    },
    {
      "icao": "LEZG",
      "alert": "OK",
      "vis_m": 9999,
      "fzfg": false,
      "metar_trigger": false,
      "taf_trigger": false,
      "metar": "METAR LEZG 112130Z 03003KT CAVOK 07/05 Q1023 NOSIG",
      "taf": "TAF LEZG 111700Z 1118/1218 24009KT 9999 FEW050 TX14/1215Z TN04/1206Z"
    },
    {
      "icao": "LEZL",
      "alert": "OK",
      "vis_m": 9999,
      "fzfg": false,
      "metar_trigger": false,
      "taf_trigger": false,
      "metar": "METAR LEZL 112130Z VRB02KT CAVOK 09/08 Q1026 NOSIG",
      "taf": "TAF LEZL 112000Z 1121/1221 06004KT CAVOK TX16/1215Z TN05/1207Z"
    },
    {
      "icao": "LFBD",
      "alert": "OK",
      "vis_m": 9999,
      "fzfg": false,
      "metar_trigger": false,
      "taf_trigger": false,
      "metar": "METAR LFBD 112130Z AUTO 14006KT CAVOK 06/05 Q1019",
      "taf": ""
    },
    {
      "icao": "LFLL",
      "alert": "OK",
      "vis_m": 9999,
      "fzfg": false,
      "metar_trigger": false,
      "taf_trigger": false,
      "metar": "METAR LFLL 112130Z 15006KT CAVOK 01/M01 Q1023 NOSIG",
      "taf": ""
    },
    {
      "icao": "LFLS",
      "alert": "OK",
      "vis_m": 9999,
      "fzfg": false,
      "metar_trigger": false,
      "taf_trigger": false,
      "metar": "METAR LFLS 112130Z AUTO 11005KT CAVOK M02/M03 Q1022",
      "taf": "TAF LFLS 111400Z 1115/1215 09005KT CAVOK"
    },
    {
      "icao": "LFMN",
      "alert": "OK",
      "vis_m": 9999,
      "fzfg": false,
      "metar_trigger": false,
      "taf_trigger": false,
      "metar": "METAR LFMN 112130Z 32007KT CAVOK 06/M04 Q1023 NOSIG",
      "taf": "TAF LFMN 112000Z 1121/1303 33012KT CAVOK"
    },
    {
      "icao": "LFOB",
      "alert": "OK",
      "vis_m": 9999,
      "fzfg": false,
      "metar_trigger": false,
      "taf_trigger": false,
      "metar": "METAR LFOB 112130Z AUTO 16015KT 9999 -RA BKN028/// OVC062/// ///TCU 04/00 Q1013 BECMG 18015G25KT 4000 RA BKN009 OVC014",
      "taf": ""
    },
    {
      "icao": "LFPO",
      "alert": "OK",
      "vis_m": 9999,
      "fzfg": false,
      "metar_trigger": false,
      "taf_trigger": false,
      "metar": "METAR LFPO 112130Z AUTO 18008KT 9999 OVC034 04/M01 Q1016",
      "taf": ""
    },
    {
      "icao": "LFSB",
      "alert": "OK",
      "vis_m": 9999,
      "fzfg": false,
      "metar_trigger": false,
      "taf_trigger": false,
      "metar": "METAR LFSB 112130Z AUTO 12008KT CAVOK M00/M02 Q1023 NOSIG",
      "taf": "TAF LFSB 111700Z 1118/1218 VRB03KT 9999 OVC025"
    },
    {
      "icao": "LGAV",
      "alert": "OK",
      "vis_m": 9999,
      "fzfg": false,
      "metar_trigger": false,
      "taf_trigger": false,
      "metar": "METAR LGAV 112120Z 35009KT 9999 FEW020 SCT035 08/01 Q1011 NOSIG",
      "taf": "TAF LGAV 111700Z 1118/1218 VRB05KT 9999 FEW018 SCT025"
    },
    {
      "icao": "LGTS",
      "alert": "OK",
      "vis_m": 9999,
      "fzfg": false,
      "metar_trigger": false,
      "taf_trigger": false,
      "metar": "METAR LGTS 112120Z 34020G30KT 9999 FEW015 SCT025 02/M07 Q1016 NOSIG",
      "taf": "TAF LGTS 111700Z 1118/1218 34015G30KT 9999 FEW025"
    },
    {
      "icao": "LHBP",
      "alert": "OK",
      "vis_m": 9999,
      "fzfg": false,
      "metar_trigger": false,
      "taf_trigger": false,
      "metar": "METAR LHBP 112130Z 31020KT 9999 DRSN NSC M05/M10 Q1018 NOSIG",
      "taf": "TAF LHBP 111715Z 1118/1218 30020G30KT 9999 DRSN NSC"
    },
    {
      "icao": "LHDC",
      "alert": "OK",
      "vis_m": 8000,
      "fzfg": false,
      "metar_trigger": false,
      "taf_trigger": false,
      "metar": "METAR LHDC 112015Z AUTO 16006KT 8000 NSC M09/M11 Q1017 NOSIG",
      "taf": "TAF LHDC 111715Z 1118/1203 20008KT CAVOK"
    },
    {
      "icao": "LIBD",
      "alert": "OK",
      "vis_m": 9999,
      "fzfg": false,
      "metar_trigger": false,
      "taf_trigger": false,
      "metar": "METAR LIBD 112120Z 32015G26KT 290V350 9999 SCT045 06/M04 Q1020",
      "taf": "TAF LIBD 111700Z 1118/1218 34015KT 9999 FEW040"
    },
    {
      "icao": "LIBG",
      "alert": "OK",
      "vis_m": null,
      "fzfg": false,
      "metar_trigger": false,
      "taf_trigger": false,
      "metar": "",
      "taf": "TAF LIBG 111700Z 1118/1203 33015KT 9999 FEW040"
    },
    {
      "icao": "LIBP",
      "alert": "OK",
      "vis_m": 9999,
      "fzfg": false,
      "metar_trigger": false,
      "taf_trigger": false,
      "metar": "METAR LIBP 112120Z AUTO 22003KT 9999 BKN061/// 01/01 Q1025",
      "taf": "TAF LIBP 111700Z 1118/1218 22006KT 9999 SCT040"
    },
    {
      "icao": "LIBR",
      "alert": "OK",
      "vis_m": 9999,
      "fzfg": false,
      "metar_trigger": false,
      "taf_trigger": false,
      "metar": "METAR LIBR 112120Z 35021G34KT CAVOK 06/M03 Q1017",
      "taf": "TAF LIBR 111700Z 1118/1218 35020G35KT 9999 SCT040"
    },
    {
      "icao": "LICA",
      "alert": "OK",
      "vis_m": 9999,
      "fzfg": false,
      "metar_trigger": false,
      "taf_trigger": false,
      "metar": "METAR LICA 112120Z AUTO 04005KT 350V100 9999 NCD 05/M01 Q1019",
      "taf": "TAF LICA 111700Z 1118/1218 VRB05KT CAVOK"
    },
    {
      "icao": "LICC",
      "alert": "OK",
      "vis_m": 9999,
      "fzfg": false,
      "metar_trigger": false,
      "taf_trigger": false,
      "metar": "METAR LICC 112120Z 15004KT 090V230 9999 BKN070 08/04 Q1020",
      "taf": "TAF LICC 111700Z 1118/1218 VRB05KT 9999 FEW040"
    },
    {
      "icao": "LICJ",
      "alert": "OK",
      "vis_m": 9999,
      "fzfg": false,
      "metar_trigger": false,
      "taf_trigger": false,
      "metar": "METAR LICJ 112120Z VRB05KT 9999 -RA SCT055 10/05 Q1021",
      "taf": "TAF LICJ 111700Z 1118/1218 34010KT 9999 FEW030"
    },
    {
      "icao": "LIMC",
      "alert": "OK",
      "vis_m": 9999,
      "fzfg": false,
      "metar_trigger": false,
      "taf_trigger": false,
      "metar": "METAR LIMC 112120Z 03003KT CAVOK M02/M08 Q1022 NOSIG",
      "taf": "TAF LIMC 111700Z 1118/1224 VRB05KT CAVOK"
    },
    {
      "icao": "LIME",
      "alert": "OK",
      "vis_m": 9999,
      "fzfg": false,
      "metar_trigger": false,
      "taf_trigger": false,
      "metar": "METAR LIME 112120Z 34004KT CAVOK 00/M08 Q1022 NOSIG",
      "taf": "TAF LIME 111700Z 1118/1218 VRB05KT CAVOK"
    },
    {
      "icao": "LIMF",
      "alert": "OK",
      "vis_m": 9999,
      "fzfg": false,
      "metar_trigger": false,
      "taf_trigger": false,
      "metar": "METAR LIMF 112120Z VRB02KT CAVOK 01/M08 Q1022",
      "taf": "TAF LIMF 111700Z 1118/1218 VRB05KT CAVOK"
    },
    {
      "icao": "LIMJ",
      "alert": "OK",
      "vis_m": 9999,
      "fzfg": false,
      "metar_trigger": false,
      "taf_trigger": false,
      "metar": "METAR LIMJ 112120Z 05008KT CAVOK 07/M10 Q1022",
      "taf": "TAF LIMJ 111700Z 1118/1218 VRB05KT CAVOK"
    },
    {
      "icao": "LIPE",
      "alert": "OK",
      "vis_m": 9999,
      "fzfg": false,
      "metar_trigger": false,
      "taf_trigger": false,
      "metar": "METAR LIPE 112120Z 19004KT 160V220 CAVOK 00/M06 Q1023",
      "taf": "TAF LIPE 111700Z 1118/1218 VRB05KT CAVOK"
    },
    {
      "icao": "LIPH",
      "alert": "OK",
      "vis_m": 9999,
      "fzfg": false,
      "metar_trigger": false,
      "taf_trigger": false,
      "metar": "METAR LIPH 112120Z 01004KT CAVOK 01/M02 Q1023",
      "taf": "TAF LIPH 111700Z 1118/1218 VRB05KT 9999 FEW030"
    },
    {
      "icao": "LIPQ",
      "alert": "OK",
      "vis_m": 9999,
      "fzfg": false,
      "metar_trigger": false,
      "taf_trigger": false,
      "metar": "METAR LIPQ 112120Z AUTO VRB01KT 9999 FEW033/// M02/M05 Q1023",
      "taf": "TAF LIPQ 111700Z 1118/1218 VRB05KT 9999 SCT040"
    },
    {
      "icao": "LIPR",
      "alert": "OK",
      "vis_m": 9999,
      "fzfg": false,
      "metar_trigger": false,
      "taf_trigger": false,
      "metar": "METAR LIPR 112120Z 16003KT CAVOK 01/M01 Q1023",
      "taf": "TAF LIPR 111700Z 1118/1218 21006KT CAVOK"
    },
    {
      "icao": "LIPX",
      "alert": "OK",
      "vis_m": 9999,
      "fzfg": false,
      "metar_trigger": false,
      "taf_trigger": false,
      "metar": "METAR LIPX 112120Z VRB02KT CAVOK M02/M05 Q1022",
      "taf": "TAF LIPX 111700Z 1118/1218 VRB05KT CAVOK"
    },
    {
      "icao": "LIPY",
      "alert": "OK",
      "vis_m": 9999,
      "fzfg": false,
      "metar_trigger": false,
      "taf_trigger": false,
      "metar": "METAR LIPY 112120Z AUTO 18003KT 9999 NCD 01/M01 Q1024",
      "taf": "TAF LIPY 111700Z 1118/1218 21006KT 9999 FEW040"
    },
    {
      "icao": "LIPZ",
      "alert": "OK",
      "vis_m": 9999,
      "fzfg": false,
      "metar_trigger": false,
      "taf_trigger": false,
      "metar": "METAR LIPZ 112120Z 07004KT CAVOK 00/M02 Q1023 NOSIG",
      "taf": "TAF LIPZ 111700Z 1118/1224 VRB05KT 9999 FEW030"
    },
    {
      "icao": "LIRF",
      "alert": "OK",
      "vis_m": 9999,
      "fzfg": false,
      "metar_trigger": false,
      "taf_trigger": false,
      "metar": "METAR LIRF 112120Z 35008KT CAVOK 04/M02 Q1022 NOSIG",
      "taf": "TAF LIRF 111700Z 1118/1224 02010KT CAVOK"
    },
    {
      "icao": "LIRN",
      "alert": "OK",
      "vis_m": 9999,
      "fzfg": false,
      "metar_trigger": false,
      "taf_trigger": false,
      "metar": "METAR LIRN 112120Z 04005KT CAVOK 03/M02 Q1022 NOSIG",
      "taf": "TAF LIRN 111700Z 1118/1218 05010KT CAVOK"
    },
    {
      "icao": "LIRP",
      "alert": "OK",
      "vis_m": 9999,
      "fzfg": false,
      "metar_trigger": false,
      "taf_trigger": false,
      "metar": "METAR LIRP 112115Z 10006KT CAVOK 00/M01 Q1023 NOSIG",
      "taf": "TAF LIRP 111700Z 1118/1218 12005KT CAVOK"
    },
    {
      "icao": "LIRZ",
      "alert": "OK",
      "vis_m": 9999,
      "fzfg": false,
      "metar_trigger": false,
      "taf_trigger": false,
      "metar": "METAR LIRZ 112120Z AUTO VRB03KT 9999 NCD M00/M02 Q1023",
      "taf": "TAF LIRZ 111700Z 1118/1218 VRB05KT 9999 FEW050"
    },
    {
      "icao": "LJLJ",
      "alert": "OK",
      "vis_m": 9999,
      "fzfg": false,
      "metar_trigger": false,
      "taf_trigger": false,
      "metar": "METAR LJLJ 112130Z 28001KT 9999 MIFG NSC M12/M13 Q1023 NOSIG",
      "taf": "TAF LJLJ 111700Z 1118/1218 29003KT CAVOK"
    },
    {
      "icao": "LKMT",
      "alert": "OK",
      "vis_m": 9999,
      "fzfg": false,
      "metar_trigger": false,
      "taf_trigger": false,
      "metar": "METAR LKMT 112130Z 22010KT 9999 -SN OVC027 M06/M09 Q1018 NOSIG",
      "taf": "TAF LKMT 111700Z 1118/1218 22008KT 9999 BKN025"
    },
    {
      "icao": "LKPR",
      "alert": "OK",
      "vis_m": 9999,
      "fzfg": false,
      "metar_trigger": false,
      "taf_trigger": false,
      "metar": "METAR LKPR 112130Z 22010KT CAVOK M10/M12 Q1022 NOSIG",
      "taf": "TAF LKPR 112000Z 1121/1303 25010KT CAVOK"
    },
    {
      "icao": "LLBG",
      "alert": "OK",
      "vis_m": 9999,
      "fzfg": false,
      "metar_trigger": false,
      "taf_trigger": false,
      "metar": "METAR LLBG 112120Z 13005KT CAVOK 13/10 Q1016 NOSIG",
      "taf": "TAF LLBG 111703Z 1118/1218 14005KT CAVOK"
    },
    {
      "icao": "LMML",
      "alert": "OK",
      "vis_m": 9999,
      "fzfg": false,
      "metar_trigger": false,
      "taf_trigger": false,
      "metar": "METAR LMML 112115Z COR 30012KT 9999 FEW020 10/06 Q1021 RESHRA NOSIG",
      "taf": ""
    },
    {
      "icao": "LOWW",
      "alert": "OK",
      "vis_m": 9999,
      "fzfg": false,
      "metar_trigger": false,
      "taf_trigger": false,
      "metar": "METAR LOWW 112120Z 29011KT CAVOK M04/M11 Q1022 NOSIG",
      "taf": "TAF LOWW 112015Z 1121/1303 30010KT CAVOK TXM03/1303Z TNM08/1207Z"
    },
    {
      "icao": "LPFR",
      "alert": "OK",
      "vis_m": 9999,
      "fzfg": false,
      "metar_trigger": false,
      "taf_trigger": false,
      "metar": "METAR LPFR 112130Z 01004KT CAVOK 11/09 Q1026",
      "taf": "TAF LPFR 111700Z 1118/1218 VRB02KT 9999 FEW025"
    },
    {
      "icao": "LPMA",
      "alert": "OK",
      "vis_m": 9999,
      "fzfg": false,
      "metar_trigger": false,
      "taf_trigger": false,
      "metar": "METAR LPMA 112130Z VRB02KT 9999 -SHRA BKN015 15/13 Q1026",
      "taf": "TAF LPMA 111700Z 1118/1218 VRB05KT 9999 SCT015"
    },
    {
      "icao": "LPPR",
      "alert": "OK",
      "vis_m": 6000,
      "fzfg": false,
      "metar_trigger": false,
      "taf_trigger": false,
      "metar": "METAR LPPR 112130Z 18014KT 6000 -DZRA BKN005 BKN010 13/12 Q1022",
      "taf": "TAF LPPR 111700Z 1118/1218 18013KT 9999 SCT006 BKN012"
    },
    {
      "icao": "LPPS",
      "alert": "OK",
      "vis_m": 9999,
      "fzfg": false,
      "metar_trigger": false,
      "taf_trigger": false,
      "metar": "METAR LPPS 112130Z 29005KT 250V310 9999 FEW010 BKN030 15/13 Q1026",
      "taf": "TAF LPPS 111700Z 1118/1224 17005KT 9999 SCT015 SCT030"
    },
    {
      "icao": "LPPT",
      "alert": "OK",
      "vis_m": 9999,
      "fzfg": false,
      "metar_trigger": false,
      "taf_trigger": false,
      "metar": "METAR LPPT 112130Z 20012KT 9999 FEW006 BKN018 13/12 Q1025",
      "taf": "TAF LPPT 111700Z 1118/1224 21008KT 9999 SCT008 BKN015"
    },
    {
      "icao": "LQBK",
      "alert": "OK",
      "vis_m": 9999,
      "fzfg": false,
      "metar_trigger": false,
      "taf_trigger": false,
      "metar": "METAR LQBK 112130Z VRB02KT CAVOK M11/M12 Q1024 NOSIG",
      "taf": "TAF LQBK 111700Z 1118/1218 16005KT CAVOK TX00/1212Z TNM12/1206Z"
    },
    {
      "icao": "LQSA",
      "alert": "OK",
      "vis_m": 9999,
      "fzfg": false,
      "metar_trigger": false,
      "taf_trigger": false,
      "metar": "METAR LQSA 112130Z 12003KT 9999 SCT065 M08/M09 Q1021 NOSIG",
      "taf": "TAF LQSA 111700Z 1118/1218 29005KT 9999 SCT045 TXM03/1214Z TNM13/1206Z"
    },
    {
      "icao": "LQTZ",
      "alert": "OK",
      "vis_m": 9999,
      "fzfg": false,
      "metar_trigger": false,
      "taf_trigger": false,
      "metar": "METAR LQTZ 112130Z 33003KT CAVOK M05/M07 Q1022",
      "taf": "TAF LQTZ 111700Z 1118/1218 30005KT 9999 SCT045 TXM01/1213Z TNM13/1206Z"
    },
    {
      "icao": "LRBC",
      "alert": "OK",
      "vis_m": 9999,
      "fzfg": false,
      "metar_trigger": false,
      "taf_trigger": false,
      "metar": "METAR LRBC 112130Z 26015KT CAVOK M03/M12 Q1013",
      "taf": "TAF LRBC 112000Z 1121/1206 28006KT CAVOK"
    },
    {
      "icao": "LRBS",
      "alert": "OK",
      "vis_m": 5000,
      "fzfg": false,
      "metar_trigger": false,
      "taf_trigger": false,
      "metar": "METAR LRBS 112130Z 30004KT 260V350 5000 BR NSC M07/M08 Q1017 NOSIG",
      "taf": "TAF LRBS 111700Z 1118/1218 VRB04KT 5000 BR SCT025"
    },
    {
      "icao": "LRBV",
      "alert": "OK",
      "vis_m": 9999,
      "fzfg": false,
      "metar_trigger": false,
      "taf_trigger": false,
      "metar": "METAR LRBV 112130Z AUTO VRB02KT 9999 SCT060/// M07/M11 Q1014",
      "taf": "TAF LRBV 112000Z 1121/1206 28006KT 9999 BKN050"
    },
    {
      "icao": "LRCL",
      "alert": "OK",
      "vis_m": 9999,
      "fzfg": false,
      "metar_trigger": false,
      "taf_trigger": false,
      "metar": "METAR LRCL 112130Z VRB01KT 9999 BKN069 M07/M09 Q1016",
      "taf": "TAF LRCL 112000Z 1121/1206 VRB04KT 9999 BKN055"
    },
    {
      "icao": "LRCV",
      "alert": "OK",
      "vis_m": 9999,
      "fzfg": false,
      "metar_trigger": false,
      "taf_trigger": false,
      "metar": "METAR LRCV 112130Z 28005KT CAVOK M07/M09 Q1017",
      "taf": "TAF LRCV 112000Z 1121/1206 28010KT CAVOK"
    },
    {
      "icao": "LRIA",
      "alert": "OK",
      "vis_m": 9999,
      "fzfg": false,
      "metar_trigger": false,
      "taf_trigger": false,
      "metar": "METAR LRIA 112130Z 27005KT 9999 FEW042 M04/M11 Q1013",
      "taf": "TAF LRIA 112000Z 1121/1206 VRB04KT CAVOK"
    },
    {
      "icao": "LROP",
      "alert": "OK",
      "vis_m": 4000,
      "fzfg": false,
      "metar_trigger": false,
      "taf_trigger": false,
      "metar": "METAR LROP 112130Z 28007KT 4000 BR NSC M09/M10 Q1017 NOSIG",
      "taf": "TAF LROP 111700Z 1118/1218 VRB04KT 3000 BR SCT025"
    },
    {
      "icao": "LRSB",
      "alert": "OK",
      "vis_m": 9999,
      "fzfg": false,
      "metar_trigger": false,
      "taf_trigger": false,
      "metar": "METAR LRSB 112130Z 30003KT 250V330 9999 BKN063 M08/M10 Q1015",
      "taf": "TAF LRSB 111700Z 1118/1218 31006KT 9999 BKN045"
    },
    {
      "icao": "LRSM",
      "alert": "OK",
      "vis_m": 9999,
      "fzfg": false,
      "metar_trigger": false,
      "taf_trigger": false,
      "metar": "METAR LRSM 112130Z AUTO 24005KT 220V280 9999 -SN FEW022/// OVC060/// M06/M08 Q1017",
      "taf": "TAF LRSM 111400Z 1115/1124 27014KT 9999 BKN040"
    },
    {
      "icao": "LRSV",
      "alert": "OK",
      "vis_m": 9999,
      "fzfg": false,
      "metar_trigger": false,
      "taf_trigger": false,
      "metar": "METAR LRSV 112130Z 27009KT CAVOK M05/M13 Q1010",
      "taf": "TAF LRSV 112000Z 1121/1206 27008KT CAVOK"
    },
    {
      "icao": "LRTM",
      "alert": "OK",
      "vis_m": 9999,
      "fzfg": false,
      "metar_trigger": false,
      "taf_trigger": false,
      "metar": "METAR LRTM 112130Z AUTO 21004KT 9999 -SN SCT050/// OVC085/// M06/M09 Q1016",
      "taf": "TAF LRTM 111400Z 1115/1124 VRB04KT 9999 OVC045"
    },
    {
      "icao": "LRTR",
      "alert": "OK",
      "vis_m": 9999,
      "fzfg": false,
      "metar_trigger": false,
      "taf_trigger": false,
      "metar": "METAR LRTR 112130Z 00000KT 9999 BKN036 M08/M10 Q1020",
      "taf": "TAF LRTR 111700Z 1118/1218 24006KT 9999 BKN030"
    },
    {
      "icao": "LTAC",
      "alert": "OK",
      "vis_m": 3900,
      "fzfg": false,
      "metar_trigger": false,
      "taf_trigger": false,
      "metar": "METAR LTAC 112120Z 35003KT 3900 BR FEW010 BKN025 BKN080 00/00 Q1005 RERASN NOSIG RMK RWY21C VRB02KT RWY03L 35003KT RWY21R 31001KT RWY03R 27002KT RWY21L 30003KT",
      "taf": "TAF LTAC 111640Z 1118/1218 VRB02KT 6000 SCT035 BKN090"
    },
    {
      "icao": "LTFM",
      "alert": "OK",
      "vis_m": 9999,
      "fzfg": false,
      "metar_trigger": false,
      "taf_trigger": false,
      "metar": "METAR LTFM 112120Z 36022KT 9999 -SHSNRA BKN012 BKN020 03/01 Q1012 NOSIG RMK RWY17L 36020KT RWY34L 36022KT RWY16R 36019KT RWY36 01021KT RWY18 02020KT",
      "taf": "TAF LTFM 111640Z 1118/1224 02020G30KT 9999 -SHRA BKN012 BKN020"
    },
    {
      "icao": "LUKK",
      "alert": "OK",
      "vis_m": 9999,
      "fzfg": false,
      "metar_trigger": false,
      "taf_trigger": false,
      "metar": "METAR LUKK 112130Z 26009KT CAVOK M06/M11 Q1012 NOSIG",
      "taf": "TAF LUKK 111716Z 1118/1218 26008KT CAVOK"
    },
    {
      "icao": "LWOH",
      "alert": "OK",
      "vis_m": null,
      "fzfg": false,
      "metar_trigger": false,
      "taf_trigger": false,
      "metar": "",
      "taf": "TAF LWOH 112010Z 1121/1221 34012KT 9999 FEW040"
    },
    {
      "icao": "LWSK",
      "alert": "OK",
      "vis_m": 9999,
      "fzfg": false,
      "metar_trigger": false,
      "taf_trigger": false,
      "metar": "METAR LWSK 112120Z 34008KT 9999 BKN048 M02/M09 Q1020 NOSIG",
      "taf": "TAF LWSK 112010Z 1121/1221 01010KT 9999 SCT050"
    },
    {
      "icao": "LYBE",
      "alert": "OK",
      "vis_m": 9999,
      "fzfg": false,
      "metar_trigger": false,
      "taf_trigger": false,
      "metar": "METAR LYBE 112130Z 28008KT 9999 BKN040 M04/M07 Q1021 NOSIG",
      "taf": "TAF LYBE 111700Z 1118/1218 27010KT 9999 SCT035 TXM01/1212Z TNM10/1206Z"
    },
    {
      "icao": "LYNI",
      "alert": "OK",
      "vis_m": 9999,
      "fzfg": false,
      "metar_trigger": false,
      "taf_trigger": false,
      "metar": "METAR LYNI 112130Z 00000KT 9999 -SN SCT015 BKN030 M04/M05 Q1021 NOSIG",
      "taf": "TAF LYNI 111700Z 1118/1218 30005KT 9999 SCT015 BKN025 TXM02/1212Z TNM07/1206Z"
    },
    {
      "icao": "LYPG",
      "alert": "OK",
      "vis_m": 9999,
      "fzfg": false,
      "metar_trigger": false,
      "taf_trigger": false,
      "metar": "METAR LYPG 112130Z 35023KT CAVOK 01/M14 Q1020 NOSIG",
      "taf": "TAF LYPG 111700Z 1118/1218 36015G25KT CAVOK TX05/1212Z TNM02/1205Z"
    },
    {
      "icao": "LZIB",
      "alert": "OK",
      "vis_m": 9999,
      "fzfg": false,
      "metar_trigger": false,
      "taf_trigger": false,
      "metar": "METAR LZIB 112130Z 29009KT CAVOK M04/M12 Q1022 NOSIG",
      "taf": "TAF LZIB 111715Z 1118/1218 29014KT CAVOK"
    },
    {
      "icao": "LZKZ",
      "alert": "OK",
      "vis_m": 7000,
      "fzfg": false,
      "metar_trigger": false,
      "taf_trigger": false,
      "metar": "METAR LZKZ 112130Z VRB03KT 7000 NSC M07/M09 Q1015 NOSIG",
      "taf": "TAF LZKZ 111715Z 1118/1218 VRB02KT 9999 FEW045"
    },
    {
      "icao": "LZTT",
      "alert": "OK",
      "vis_m": 7000,
      "fzfg": false,
      "metar_trigger": false,
      "taf_trigger": false,
      "metar": "METAR LZTT 112130Z 25010KT 230V290 7000 -SN DRSN OVC033 M07/M10 Q1011",
      "taf": "TAF LZTT 111715Z 1118/1218 25015KT 9999 -SN DRSN FEW013 OVC040"
    },
    {
      "icao": "OEJN",
      "alert": "OK",
      "vis_m": 9999,
      "fzfg": false,
      "metar_trigger": false,
      "taf_trigger": false,
      "metar": "METAR OEJN 112100Z 03003KT CAVOK 25/17 Q1015 NOSIG",
      "taf": "TAF OEJN 111700Z 1118/1224 36005KT CAVOK"
    },
    {
      "icao": "OEMA",
      "alert": "OK",
      "vis_m": 9999,
      "fzfg": false,
      "metar_trigger": false,
      "taf_trigger": false,
      "metar": "METAR OEMA 112100Z 34004KT CAVOK 17/01 Q1019 NOSIG",
      "taf": "TAF OEMA 111700Z 1118/1224 09008KT CAVOK"
    },
    {
      "icao": "OJAI",
      "alert": "OK",
      "vis_m": 5000,
      "fzfg": false,
      "metar_trigger": false,
      "taf_trigger": false,
      "metar": "METAR OJAI 112100Z 29003KT 5000 HZ NSC 07/04 Q1017 NOSIG",
      "taf": "TAF OJAI 111700Z 1118/1224 24014KT 5000 HZ NSC"
    },
    {
      "icao": "OMAA",
      "alert": "OK",
      "vis_m": 8000,
      "fzfg": false,
      "metar_trigger": false,
      "taf_trigger": false,
      "metar": "METAR OMAA 112100Z 35003KT 8000 NSC 18/14 Q1021 NOSIG",
      "taf": "TAF OMAA 111700Z 1118/1300 32005KT 8000 NSC"
    },
    {
      "icao": "OMDB",
      "alert": "OK",
      "vis_m": 9999,
      "fzfg": false,
      "metar_trigger": false,
      "taf_trigger": false,
      "metar": "METAR OMDB 112130Z 17003KT CAVOK 20/13 Q1021 NOSIG",
      "taf": "TAF OMDB 111700Z 1118/1300 14005KT 8000 NSC"
    },
    {
      "icao": "UAAA",
      "alert": "OK",
      "vis_m": 3200,
      "fzfg": false,
      "metar_trigger": false,
      "taf_trigger": false,
      "metar": "METAR UAAA 112130Z VRB01MPS 3200 BR FU FEW100 BKN200 M01/M05 Q1021 NOSIG",
      "taf": "TAF UAAA 111707Z 1118/1218 22003MPS 1400 BR FU SCT030 BKN100 TX07/1209Z TNM03/1201Z"
    },
    {
      "icao": "UBBB",
      "alert": "OK",
      "vis_m": 9999,
      "fzfg": false,
      "metar_trigger": false,
      "taf_trigger": false,
      "metar": "METAR UBBB 112130Z 20026G36KT CAVOK 09/02 Q1010 NOSIG",
      "taf": "TAF UBBB 111704Z 1118/1218 19024G34KT CAVOK TX14/1209Z TN07/1200Z"
    },
    {
      "icao": "UDSG",
      "alert": "OK",
      "vis_m": 9999,
      "fzfg": false,
      "metar_trigger": false,
      "taf_trigger": false,
      "metar": "METAR UDSG 112130Z 33003KT 9999 BKN049 M03/M06 Q1018 NOSIG",
      "taf": "TAF UDSG 111658Z 1118/1218 VRB04KT 9999 BKN040"
    },
    {
      "icao": "UDYZ",
      "alert": "OK",
      "vis_m": 1000,
      "fzfg": false,
      "metar_trigger": false,
      "taf_trigger": false,
      "metar": "METAR UDYZ 112130Z 29003KT 240V310 1000 R08/2000U BR FEW046 M03/M04 Q1019 NOSIG",
      "taf": "TAF UDYZ 111700Z 1118/1218 VRB06KT 2000 BR SCT040"
    },
    {
      "icao": "UGKO",
      "alert": "OK",
      "vis_m": 9999,
      "fzfg": false,
      "metar_trigger": false,
      "taf_trigger": false,
      "metar": "METAR UGKO 112130Z 09019KT CAVOK 12/M01 Q1008 NOSIG",
      "taf": "TAF UGKO 111700Z 1118/1218 08010KT CAVOK TX14/1212Z TN09/1202Z"
    }
  ]
}