{
  "ts_utc": "2026-01-12T22:13:34Z",
  "threshold_m": 150,
  "source": "stations_override.txt (ICAO list) + aviationweather.gov (METAR/TAF raw)",
  "station_count": 159,
  "stations": [
    {
      "icao": "BIKF",
      "alert": "OK",
      "vis_m": 9999,
      "fzfg": false,
      "metar_trigger": false,
      "taf_trigger": false,
      "metar": "METAR BIKF 122200Z 36024KT 9999 VCSH BKN026 BKN050 M02/M07 Q0997",
      "taf": "TAF BIKF 121929Z 1221/1321 01027G37KT 9999 BKN025 TXM02/1221Z TNM03/1316Z"
    },
    {
      "icao": "BKPR",
      "alert": "OK",
      "vis_m": 9999,
      "fzfg": false,
      "metar_trigger": false,
      "taf_trigger": false,
      "metar": "METAR BKPR 122200Z VRB02KT CAVOK M08/M10 Q1022 NOSIG",
      "taf": "TAF BKPR 121730Z 1218/1318 28007KT CAVOK"
    },
    {
      "icao": "EBCI",
      "alert": "OK",
      "vis_m": 9999,
      "fzfg": false,
      "metar_trigger": false,
      "taf_trigger": false,
      "metar": "METAR EBCI 122150Z 21012KT 9999 BKN017 09/07 Q1009 NOSIG",
      "taf": "TAF EBCI 121714Z 1218/1324 21011KT 9999 SCT004 BKN008"
    },
    {
      "icao": "EDDB",
      "alert": "OK",
      "vis_m": 9999,
      "fzfg": false,
      "metar_trigger": false,
      "taf_trigger": false,
      "metar": "METAR EDDB 122150Z AUTO 14007KT 9999 OVC015 OVC048 M02/M03 Q1011 REFZDZ TEMPO 4500 FZDZ BR BKN009",
      "taf": "TAF EDDB 121700Z 1218/1318 14007KT 8000 BKN015"
    },
    {
      "icao": "EDDH",
      "alert": "OK",
      "vis_m": 5000,
      "fzfg": false,
      "metar_trigger": false,
      "taf_trigger": false,
      "metar": "METAR EDDH 122150Z AUTO 14006KT 5000 -SHSNRA BR BKN003 FEW///TCU 01/01 Q1007 RESHSN TEMPO 2500 BR OVC005",
      "taf": "TAF EDDH 121700Z 1218/1324 15009KT 4500 BR OVC003"
    },
    {
      "icao": "EDDK",
      "alert": "OK",
      "vis_m": 9999,
      "fzfg": false,
      "metar_trigger": false,
      "taf_trigger": false,
      "metar": "METAR EDDK 122150Z AUTO 19005KT 9999 VCSH OVC022 FEW///TCU 08/07 Q1009 RESHRA NOSIG",
      "taf": "TAF EDDK 121700Z 1218/1324 14007KT 9999 BKN020"
    },
    {
      "icao": "EDDN",
      "alert": "OK",
      "vis_m": 4600,
      "fzfg": false,
      "metar_trigger": false,
      "taf_trigger": false,
      "metar": "METAR EDDN 122150Z AUTO 12007KT 4600 -DZ BR NSC 02/01 Q1013",
      "taf": ""
    },
    {
      "icao": "EDDS",
      "alert": "OK",
      "vis_m": 9999,
      "fzfg": false,
      "metar_trigger": false,
      "taf_trigger": false,
      "metar": "METAR EDDS 122150Z AUTO 20006KT 170V250 CAVOK 07/05 Q1012",
      "taf": "TAF EDDS 121700Z 1218/1318 23008KT 9999 BKN040"
    },
    {
      "icao": "EDFH",
      "alert": "OK",
      "vis_m": 9999,
      "fzfg": false,
      "metar_trigger": false,
      "taf_trigger": false,
      "metar": "METAR EDFH 122150Z 23009KT 200V270 9999 -RA OVC016 07/05 Q1010",
      "taf": ""
    },
    {
      "icao": "EDJA",
      "alert": "OK",
      "vis_m": 9999,
      "fzfg": false,
      "metar_trigger": false,
      "taf_trigger": false,
      "metar": "METAR EDJA 122150Z 22008KT 9999 FEW062 03/02 Q1015",
      "taf": "TAF EDJA 121700Z 1218/1303 22011KT 9999 FEW020 OVC035"
    },
    {
      "icao": "EDLW",
      "alert": "OK",
      "vis_m": 7000,
      "fzfg": false,
      "metar_trigger": false,
      "taf_trigger": false,
      "metar": "METAR EDLW 122150Z AUTO 21013KT 7000 // SCT009/// BKN012/// OVC024/// 07/07 Q1008",
      "taf": "TAF EDLW 121700Z 1218/1318 19010KT 9999 BKN020"
    },
    {
      "icao": "EDNY",
      "alert": "OK",
      "vis_m": 5000,
      "fzfg": false,
      "metar_trigger": false,
      "taf_trigger": false,
      "metar": "METAR EDNY 122150Z AUTO 00000KT 5000 FEW140/// OVC180/// 00/00 Q1016",
      "taf": "TAF EDNY 121700Z 1218/1303 VRB03KT 9999 OVC035"
    },
    {
      "icao": "EDSB",
      "alert": "OK",
      "vis_m": 9999,
      "fzfg": false,
      "metar_trigger": false,
      "taf_trigger": false,
      "metar": "METAR EDSB 122150Z 20012KT CAVOK 08/05 Q1013",
      "taf": "TAF EDSB 121700Z 1218/1318 20010KT 9999 BKN040"
    },
    {
      "icao": "EETN",
      "alert": "OK",
      "vis_m": 9999,
      "fzfg": false,
      "metar_trigger": false,
      "taf_trigger": false,
      "metar": "METAR EETN 122150Z 09010KT 9999 SCT010 M04/M05 Q1018 TEMPO BKN010",
      "taf": "TAF EETN 121730Z 1218/1318 09008KT 9999 SCT015 BKN025"
    },
    {
      "icao": "EFTU",
      "alert": "OK",
      "vis_m": 9999,
      "fzfg": false,
      "metar_trigger": false,
      "taf_trigger": false,
      "metar": "METAR EFTU 122150Z AUTO 08005KT CAVOK M10/M12 Q1019",
      "taf": "TAF EFTU 122031Z 1221/1321 08004KT CAVOK"
    },
    {
      "icao": "EGBB",
      "alert": "OK",
      "vis_m": 9999,
      "fzfg": false,
      "metar_trigger": false,
      "taf_trigger": false,
      "metar": "METAR EGBB 122150Z 19008KT 170V230 CAVOK 09/07 Q1001",
      "taf": "TAF EGBB 121659Z 1218/1318 18008KT 9999 SCT040"
    },
    {
      "icao": "EGGP",
      "alert": "OK",
      "vis_m": 9999,
      "fzfg": false,
      "metar_trigger": false,
      "taf_trigger": false,
      "metar": "METAR EGGP 122150Z 16005KT 130V190 9999 SCT032 BKN038 BKN048 09/06 Q0999",
      "taf": "TAF EGGP 121700Z 1218/1318 17009KT 9999 SCT030"
    },
    {
      "icao": "EGGW",
      "alert": "OK",
      "vis_m": 9999,
      "fzfg": false,
      "metar_trigger": false,
      "taf_trigger": false,
      "metar": "METAR EGGW 122150Z AUTO 22010KT 9999 BKN013 09/07 Q1003",
      "taf": "TAF EGGW 121656Z 1218/1318 20010KT 9999 SCT012"
    },
    {
      "icao": "EGKK",
      "alert": "OK",
      "vis_m": 9999,
      "fzfg": false,
      "metar_trigger": false,
      "taf_trigger": false,
      "metar": "METAR EGKK 122150Z 21007KT 9999 FEW007 SCT014 10/09 Q1005",
      "taf": "TAF EGKK 121656Z 1218/1324 21001KT 9999 SCT010"
    },
    {
      "icao": "EGNM",
      "alert": "OK",
      "vis_m": 9999,
      "fzfg": false,
      "metar_trigger": false,
      "taf_trigger": false,
      "metar": "METAR EGNM 122150Z 22011KT 9999 SCT020 BKN045 08/06 Q0998",
      "taf": "TAF EGNM 121702Z 1218/1318 21009KT 9999 SCT025"
    },
    {
      "icao": "EGPD",
      "alert": "OK",
      "vis_m": 9999,
      "fzfg": false,
      "metar_trigger": false,
      "taf_trigger": false,
      "metar": "METAR EGPD 122150Z COR AUTO VRB02KT 9999 NCD 05/04 Q0992 NOSIG",
      "taf": "TAF EGPD 121659Z 1218/1318 19010KT 9999 FEW035"
    },
    {
      "icao": "EGPF",
      "alert": "OK",
      "vis_m": 6000,
      "fzfg": false,
      "metar_trigger": false,
      "taf_trigger": false,
      "metar": "METAR EGPF 122150Z AUTO 25002KT 6000 -RA SCT015 OVC020 07/06 Q0993 RERA REDZ",
      "taf": ""
    },
    {
      "icao": "EHBK",
      "alert": "OK",
      "vis_m": 9999,
      "fzfg": false,
      "metar_trigger": false,
      "taf_trigger": false,
      "metar": "METAR EHBK 122155Z COR AUTO 23011KT 9999 OVC016 09/07 Q1009",
      "taf": "TAF EHBK 121704Z 1218/1324 20018KT 9999 -RA BKN018"
    },
    {
      "icao": "EHEH",
      "alert": "OK",
      "vis_m": 9999,
      "fzfg": false,
      "metar_trigger": false,
      "taf_trigger": false,
      "metar": "METAR EHEH 122155Z AUTO 21009KT 9999 FEW006 SCT008 BKN009 09/08 Q1007 GRN TEMPO SCT006 BKN010 RMK TREND REMOTE BY EHHWX",
      "taf": ""
    },
    {
      "icao": "EKBI",
      "alert": "OK",
      "vis_m": 1000,
      "fzfg": false,
      "metar_trigger": false,
      "taf_trigger": false,
      "metar": "METAR EKBI 122150Z AUTO 14007KT 110V170 1000 R09/P1500N R27/P1500N FZDZ BR OVC002/// 00/00 Q1005 REFZRA",
      "taf": ""
    },
    {
      "icao": "EKCH",
      "alert": "OK",
      "vis_m": 2000,
      "fzfg": false,
      "metar_trigger": false,
      "taf_trigger": false,
      "metar": "METAR EKCH 122150Z 14015KT 2000 -SN BKN006 OVC010 M00/M00 Q1010 TEMPO 3000 BKN010",
      "taf": ""
    },
    {
      "icao": "ENAL",
      "alert": "OK",
      "vis_m": 9999,
      "fzfg": false,
      "metar_trigger": false,
      "taf_trigger": false,
      "metar": "METAR ENAL 122150Z 14013KT CAVOK 07/M03 Q0994",
      "taf": "TAF ENAL 122000Z 1221/1306 14015KT 9999 FEW060"
    },
    {
      "icao": "ENBR",
      "alert": "OK",
      "vis_m": 9999,
      "fzfg": false,
      "metar_trigger": false,
      "taf_trigger": false,
      "metar": "METAR ENBR 122150Z 13014KT 9999 OVC037 05/M03 Q0997 RMK WIND 1200FT 13031KT",
      "taf": "TAF ENBR 121700Z 1218/1318 13015KT 9999 BKN040"
    },
    {
      "icao": "ENGM",
      "alert": "OK",
      "vis_m": 9999,
      "fzfg": false,
      "metar_trigger": false,
      "taf_trigger": false,
      "metar": "METAR ENGM 122150Z 05005KT 9999 OVC012 M08/M09 Q1012 NOSIG",
      "taf": ""
    },
    {
      "icao": "ENHD",
      "alert": "OK",
      "vis_m": 9999,
      "fzfg": false,
      "metar_trigger": false,
      "taf_trigger": false,
      "metar": "METAR ENHD 122150Z AUTO 11028G40KT 9999 BKN037/// 04/M04 Q0998 RESN",
      "taf": "TAF ENHD 121400Z 1215/1223 13025KT 9999 BKN040"
    },
    {
      "icao": "ENTC",
      "alert": "OK",
      "vis_m": 9999,
      "fzfg": false,
      "metar_trigger": false,
      "taf_trigger": false,
      "metar": "METAR ENTC 122150Z 19015KT CAVOK M01/M13 Q1012 NOSIG RMK WIND 2600FT 17037KT",
      "taf": ""
    },
    {
      "icao": "ENTO",
      "alert": "OK",
      "vis_m": 9999,
      "fzfg": false,
      "metar_trigger": false,
      "taf_trigger": false,
      "metar": "METAR ENTO 122150Z AUTO 02007KT 9999 SCT012/// SCT014/// BKN045/// M05/M06 Q1011",
      "taf": ""
    },
    {
      "icao": "ENVA",
      "alert": "OK",
      "vis_m": 9999,
      "fzfg": false,
      "metar_trigger": false,
      "taf_trigger": false,
      "metar": "METAR ENVA 122150Z 14019G30KT CAVOK M01/M09 Q1004 RMK WIND 670FT 16030G44KT",
      "taf": "TAF ENVA 121700Z 1218/1318 13015KT CAVOK"
    },
    {
      "icao": "ENZV",
      "alert": "OK",
      "vis_m": 9999,
      "fzfg": false,
      "metar_trigger": false,
      "taf_trigger": false,
      "metar": "METAR ENZV 122150Z 12023KT 9999 BKN043 03/M04 Q0999",
      "taf": "TAF ENZV 121700Z 1218/1318 13025G35KT 9999 SCT040"
    },
    {
      "icao": "EPGD",
      "alert": "OK",
      "vis_m": 9999,
      "fzfg": false,
      "metar_trigger": false,
      "taf_trigger": false,
      "metar": "METAR EPGD 122200Z 19004KT CAVOK M03/M06 Q1015",
      "taf": "TAF EPGD 121730Z 1218/1318 VRB02KT 9999 BKN030"
    },
    {
      "icao": "EPKK",
      "alert": "OK",
      "vis_m": 5000,
      "fzfg": false,
      "metar_trigger": false,
      "taf_trigger": false,
      "metar": "METAR EPKK 122200Z 06004KT 020V080 5000 BR NSC M10/M12 Q1017",
      "taf": "TAF EPKK 122030Z 1221/1321 VRB02KT 7000 NSC"
    },
    {
      "icao": "EPKT",
      "alert": "OK",
      "vis_m": 9000,
      "fzfg": false,
      "metar_trigger": false,
      "taf_trigger": false,
      "metar": "METAR EPKT 122200Z 15008KT 9000 NSC M08/M11 Q1015",
      "taf": "TAF EPKT 121730Z 1218/1318 18010KT CAVOK"
    },
    {
      "icao": "EPLB",
      "alert": "OK",
      "vis_m": 5000,
      "fzfg": false,
      "metar_trigger": false,
      "taf_trigger": false,
      "metar": "METAR EPLB 122200Z 26004KT 5000 BR OVC007 M06/M06 Q1018",
      "taf": ""
    },
    {
      "icao": "EPMO",
      "alert": "OK",
      "vis_m": 6000,
      "fzfg": false,
      "metar_trigger": false,
      "taf_trigger": false,
      "metar": "METAR EPMO 122200Z 17004KT 6000 OVC037 M06/M06 Q1017",
      "taf": "TAF EPMO 121730Z 1218/1318 VRB02KT 6000 BKN043"
    },
    {
      "icao": "EPPO",
      "alert": "OK",
      "vis_m": 9999,
      "fzfg": false,
      "metar_trigger": false,
      "taf_trigger": false,
      "metar": "METAR EPPO 122200Z 14007KT 9999 FEW026 M04/M09 Q1014",
      "taf": "TAF EPPO 121730Z 1218/1318 14010KT CAVOK"
    },
    {
      "icao": "EPRA",
      "alert": "OK",
      "vis_m": 7000,
      "fzfg": false,
      "metar_trigger": false,
      "taf_trigger": false,
      "metar": "METAR EPRA 122200Z VRB02KT 7000 BKN024 M08/M09 Q1017",
      "taf": "TAF EPRA 122030Z 1221/1306 15005KT 8000 BKN030"
    },
    {
      "icao": "EPRZ",
      "alert": "OK",
      "vis_m": 8000,
      "fzfg": false,
      "metar_trigger": false,
      "taf_trigger": false,
      "metar": "METAR EPRZ 122200Z 22004KT 8000 BKN030 M06/M09 Q1018",
      "taf": "TAF EPRZ 121730Z 1218/1318 27008KT 9999 BKN013"
    },
    {
      "icao": "EPSC",
      "alert": "OK",
      "vis_m": 9999,
      "fzfg": false,
      "metar_trigger": false,
      "taf_trigger": false,
      "metar": "METAR EPSC 122200Z 13013KT 9999 BKN044 M03/M09 Q1012",
      "taf": ""
    },
    {
      "icao": "EPSY",
      "alert": "OK",
      "vis_m": 7000,
      "fzfg": false,
      "metar_trigger": false,
      "taf_trigger": false,
      "metar": "METAR EPSY 122200Z 03001KT 7000 FEW002 M13/M15 Q1016",
      "taf": "TAF EPSY 122030Z 1221/1306 20005KT 9999 SCT040"
    },
    {
      "icao": "EPWA",
      "alert": "OK",
      "vis_m": 6000,
      "fzfg": false,
      "metar_trigger": false,
      "taf_trigger": false,
      "metar": "METAR EPWA 122200Z VRB02KT 6000 FEW024 BKN038 M09/M09 Q1017 TEMPO 4000 BR",
      "taf": "TAF EPWA 122030Z 1221/1321 VRB02KT 9999 BKN040"
    },
    {
      "icao": "EPWR",
      "alert": "OK",
      "vis_m": 9999,
      "fzfg": false,
      "metar_trigger": false,
      "taf_trigger": false,
      "metar": "METAR EPWR 122200Z 12007KT 9999 FEW028 BKN035 M03/M06 Q1014",
      "taf": "TAF EPWR 122030Z 1221/1321 13010KT 9999 BKN030"
    },
    {
      "icao": "ESGG",
      "alert": "OK",
      "vis_m": 9999,
      "fzfg": false,
      "metar_trigger": false,
      "taf_trigger": false,
      "metar": "METAR ESGG 122150Z 12010KT 9999 OVC039 M04/M06 Q1009",
      "taf": "TAF ESGG 122030Z 1221/1321 12010KT 9999 -SN BKN030"
    },
    {
      "icao": "ESKN",
      "alert": "OK",
      "vis_m": 9999,
      "fzfg": false,
      "metar_trigger": false,
      "taf_trigger": false,
      "metar": "METAR ESKN 122150Z 07008KT 9999 OVC041 M02/M04 Q1015",
      "taf": "TAF ESKN 122030Z 1221/1321 04005KT 9000 -SN SCT007 BKN030"
    },
    {
      "icao": "ESMS",
      "alert": "OK",
      "vis_m": 9999,
      "fzfg": false,
      "metar_trigger": false,
      "taf_trigger": false,
      "metar": "METAR ESMS 122150Z 14011KT 9999 BKN020 BKN055 01/M04 Q1010",
      "taf": ""
    },
    {
      "icao": "ESSA",
      "alert": "OK",
      "vis_m": 9999,
      "fzfg": false,
      "metar_trigger": false,
      "taf_trigger": false,
      "metar": "METAR ESSA 122150Z 08005KT 9999 BKN031 M04/M06 Q1017 NOSIG",
      "taf": "TAF ESSA 122030Z 1221/1321 07007KT 9999 BKN020"
    },
    {
      "icao": "EYKA",
      "alert": "OK",
      "vis_m": 3700,
      "fzfg": false,
      "metar_trigger": false,
      "taf_trigger": false,
      "metar": "METAR EYKA 122150Z 27001KT 3700 BR OVC001 M17/M19 Q1018",
      "taf": ""
    },
    {
      "icao": "EYPA",
      "alert": "OK",
      "vis_m": 9999,
      "fzfg": false,
      "metar_trigger": false,
      "taf_trigger": false,
      "metar": "METAR EYPA 122150Z VRB02KT 9999 OVC006 M10/M11 Q1018",
      "taf": ""
    },
    {
      "icao": "EYVI",
      "alert": "OK",
      "vis_m": 5000,
      "fzfg": true,
      "metar_trigger": false,
      "taf_trigger": false,
      "metar": "METAR EYVI 122150Z 31004KT 280V340 5000 -SN BR OVC004 M12/M13 Q1015 TEMPO 0800 FZFG",
      "taf": "TAF EYVI 121704Z 1218/1318 VRB05KT 5000 BR BKN005"
    },
    {
      "icao": "GCFV",
      "alert": "OK",
      "vis_m": 9999,
      "fzfg": false,
      "metar_trigger": false,
      "taf_trigger": false,
      "metar": "METAR GCFV 122200Z 30004KT 260V320 9999 FEW025 15/10 Q1020",
      "taf": "TAF GCFV 122000Z 1221/1321 27006KT 9999 SCT020 TX21/1314Z TN12/1306Z"
    },
    {
      "icao": "GCLP",
      "alert": "OK",
      "vis_m": 9999,
      "fzfg": false,
      "metar_trigger": false,
      "taf_trigger": false,
      "metar": "METAR GCLP 122200Z 31005KT 280V340 CAVOK 16/13 Q1020 NOSIG",
      "taf": "TAF GCLP 122000Z 1221/1321 28005KT 9999 FEW025 TX21/1314Z TN14/1306Z"
    },
    {
      "icao": "GCTS",
      "alert": "OK",
      "vis_m": 9999,
      "fzfg": false,
      "metar_trigger": false,
      "taf_trigger": false,
      "metar": "METAR GCTS 122200Z 02006KT 9999 FEW030 15/11 Q1021 NOSIG",
      "taf": "TAF GCTS 122000Z 1221/1321 34007KT 9999 FEW030 TX23/1314Z TN14/1306Z"
    },
    {
      "icao": "GMAD",
      "alert": "OK",
      "vis_m": 9999,
      "fzfg": false,
      "metar_trigger": false,
      "taf_trigger": false,
      "metar": "METAR GMAD 122200Z 05006KT CAVOK 11/05 Q1020 NOSIG",
      "taf": "TAF GMAD 121700Z 1218/1324 18006KT CAVOK"
    },
    {
      "icao": "GMMN",
      "alert": "OK",
      "vis_m": 9999,
      "fzfg": false,
      "metar_trigger": false,
      "taf_trigger": false,
      "metar": "METAR GMMN 122200Z 15007KT CAVOK 07/05 Q1020 NOSIG",
      "taf": "TAF GMMN 121700Z 1218/1324 20006KT CAVOK"
    },
    {
      "icao": "GMMX",
      "alert": "OK",
      "vis_m": 9999,
      "fzfg": false,
      "metar_trigger": false,
      "taf_trigger": false,
      "metar": "METAR GMMX 122200Z VRB01KT CAVOK 12/05 Q1020 NOSIG",
      "taf": "TAF GMMX 121700Z 1218/1324 14006KT 8000 NSC"
    },
    {
      "icao": "HEGN",
      "alert": "OK",
      "vis_m": 9999,
      "fzfg": false,
      "metar_trigger": false,
      "taf_trigger": false,
      "metar": "METAR HEGN 122200Z 31014KT CAVOK 16/01 Q1019 NOSIG",
      "taf": "TAF HEGN 121700Z 1218/1324 30010G20KT 6000 SCT025"
    },
    {
      "icao": "HEMA",
      "alert": "OK",
      "vis_m": 9999,
      "fzfg": false,
      "metar_trigger": false,
      "taf_trigger": false,
      "metar": "METAR HEMA 122200Z 26010KT CAVOK 18/04 Q1018 NOSIG",
      "taf": "TAF HEMA 121700Z 1218/1324 29010G20KT 9999 FEW025"
    },
    {
      "icao": "HESH",
      "alert": "OK",
      "vis_m": 8000,
      "fzfg": false,
      "metar_trigger": false,
      "taf_trigger": false,
      "metar": "METAR HESH 122200Z 27019KT 8000 NSC 18/03 Q1015 NOSIG",
      "taf": "TAF HESH 121700Z 1218/1324 36010G20KT 9999 SCT025"
    },
    {
      "icao": "HESX",
      "alert": "OK",
      "vis_m": 9999,
      "fzfg": false,
      "metar_trigger": false,
      "taf_trigger": false,
      "metar": "METAR HESX 122200Z 25008KT CAVOK 11/03 Q1018 NOSIG",
      "taf": "TAF HESX 121700Z 1218/1324 24012G22KT 6000 NSC"
    },
    {
      "icao": "LATI",
      "alert": "OK",
      "vis_m": 9999,
      "fzfg": false,
      "metar_trigger": false,
      "taf_trigger": false,
      "metar": "METAR LATI 122150Z 16006KT 9999 FEW098 M02/M07 Q1026 NOSIG",
      "taf": "TAF LATI 121700Z 1218/1318 VRB05KT CAVOK TX10/1312Z TNM03/1223Z"
    },
    {
      "icao": "LBPD",
      "alert": "OK",
      "vis_m": 9999,
      "fzfg": false,
      "metar_trigger": false,
      "taf_trigger": false,
      "metar": "METAR LBPD 122200Z AUTO 29009KT 9999 NCD M03/M13 Q1022",
      "taf": "TAF LBPD 121700Z 1218/1318 29016KT 9999 SCT050"
    },
    {
      "icao": "LBSF",
      "alert": "OK",
      "vis_m": 9999,
      "fzfg": false,
      "metar_trigger": false,
      "taf_trigger": false,
      "metar": "METAR LBSF 122200Z AUTO 35005KT 9999 NCD M08/M11 Q1021 NOSIG",
      "taf": "TAF LBSF 121700Z 1218/1318 30010KT 9999 SCT030"
    },
    {
      "icao": "LBWN",
      "alert": "OK",
      "vis_m": 9999,
      "fzfg": false,
      "metar_trigger": false,
      "taf_trigger": false,
      "metar": "METAR LBWN 122200Z AUTO 28007KT 9999 NCD M05/M08 Q1021 NOSIG",
      "taf": "TAF LBWN 121700Z 1218/1318 29010KT 9999 SCT050"
    },
    {
      "icao": "LCLK",
      "alert": "OK",
      "vis_m": 9999,
      "fzfg": false,
      "metar_trigger": false,
      "taf_trigger": false,
      "metar": "METAR LCLK 122200Z VRB03KT 9999 FEW025 SCT045 10/07 Q1006 NOSIG",
      "taf": "TAF LCLK 121730Z 1218/1318 25008KT 9999 FEW020CB SCT025"
    },
    {
      "icao": "LCPH",
      "alert": "OK",
      "vis_m": 9999,
      "fzfg": false,
      "metar_trigger": false,
      "taf_trigger": false,
      "metar": "METAR LCPH 122200Z 29021KT 250V320 9999 FEW035 SCT080 14/06 Q1007 NOSIG",
      "taf": "TAF LCPH 121730Z 1218/1318 30023KT 9999 -SHRA FEW025CB SCT040"
    },
    {
      "icao": "LEAL",
      "alert": "OK",
      "vis_m": 6000,
      "fzfg": false,
      "metar_trigger": false,
      "taf_trigger": false,
      "metar": "METAR LEAL 122200Z 32002KT 6000 NSC 08/08 Q1020 NOSIG",
      "taf": "TAF LEAL 121700Z 1218/1318 20006KT CAVOK TX16/1313Z TN06/1306Z"
    },
    {
      "icao": "LEBB",
      "alert": "OK",
      "vis_m": 9999,
      "fzfg": false,
      "metar_trigger": false,
      "taf_trigger": false,
      "metar": "METAR LEBB 122200Z 16011KT 100V260 CAVOK 17/06 Q1012 NOSIG",
      "taf": "TAF LEBB 121700Z 1218/1318 17009KT 9999 FEW040 TX17/1218Z TN11/1306Z"
    },
    {
      "icao": "LEBL",
      "alert": "OK",
      "vis_m": 8000,
      "fzfg": false,
      "metar_trigger": false,
      "taf_trigger": false,
      "metar": "METAR LEBL 122200Z 33005KT 8000 FEW013 BKN020 08/08 Q1019 NOSIG",
      "taf": "TAF LEBL 121700Z 1218/1318 22007KT 9999 FEW020 TX16/1312Z TN07/1306Z"
    },
    {
      "icao": "LECH",
      "alert": "OK",
      "vis_m": 7000,
      "fzfg": false,
      "metar_trigger": false,
      "taf_trigger": false,
      "metar": "METAR LECH 122200Z AUTO VRB01KT 7000 NCD 06/06 Q1019",
      "taf": ""
    },
    {
      "icao": "LEMD",
      "alert": "OK",
      "vis_m": 9999,
      "fzfg": false,
      "metar_trigger": false,
      "taf_trigger": false,
      "metar": "METAR LEMD 122200Z 09001KT CAVOK 04/04 Q1018 NOSIG",
      "taf": "TAF LEMD 121700Z 1218/1324 VRB03KT 9999 FEW020 TX12/1314Z TN01/1306Z"
    },
    {
      "icao": "LEMG",
      "alert": "OK",
      "vis_m": 9999,
      "fzfg": false,
      "metar_trigger": false,
      "taf_trigger": false,
      "metar": "METAR LEMG 122200Z 32003KT 9999 SCT017 07/06 Q1020 NOSIG",
      "taf": ""
    },
    {
      "icao": "LEVC",
      "alert": "OK",
      "vis_m": 9999,
      "fzfg": false,
      "metar_trigger": false,
      "taf_trigger": false,
      "metar": "METAR LEVC 122200Z 31003KT 270V350 CAVOK 07/06 Q1019 NOSIG",
      "taf": "TAF LEVC 121700Z 1218/1318 09005KT CAVOK TX17/1314Z TN04/1306Z"
    },
    {
      "icao": "LEXJ",
      "alert": "OK",
      "vis_m": 9000,
      "fzfg": false,
      "metar_trigger": false,
      "taf_trigger": false,
      "metar": "METAR LEXJ 122200Z 19020G34KT 9000 NSC 16/06 Q1010",
      "taf": ""
    },
    {
      "icao": "LEZG",
      "alert": "OK",
      "vis_m": 9999,
      "fzfg": false,
      "metar_trigger": false,
      "taf_trigger": false,
      "metar": "METAR LEZG 122200Z 08005KT CAVOK 07/05 Q1018 NOSIG",
      "taf": "TAF LEZG 121700Z 1218/1318 VRB04KT CAVOK TX13/1315Z TN05/1306Z"
    },
    {
      "icao": "LEZL",
      "alert": "OK",
      "vis_m": 8000,
      "fzfg": false,
      "metar_trigger": false,
      "taf_trigger": false,
      "metar": "METAR LEZL 122200Z 12004KT 8000 FEW015 BKN040 10/10 Q1018 NOSIG",
      "taf": "TAF LEZL 122000Z 1221/1321 23006KT 9999 SCT030 TX18/1315Z TN10/1307Z"
    },
    {
      "icao": "LFBD",
      "alert": "OK",
      "vis_m": 9999,
      "fzfg": false,
      "metar_trigger": false,
      "taf_trigger": false,
      "metar": "METAR LFBD 122200Z AUTO 15008KT CAVOK 08/06 Q1014 NOSIG",
      "taf": ""
    },
    {
      "icao": "LFLL",
      "alert": "OK",
      "vis_m": 9999,
      "fzfg": false,
      "metar_trigger": false,
      "taf_trigger": false,
      "metar": "METAR LFLL 122200Z 17016KT CAVOK 10/06 Q1017 TEMPO 18016G27KT",
      "taf": "TAF LFLL 121700Z 1219/1324 17015KT CAVOK"
    },
    {
      "icao": "LFLS",
      "alert": "OK",
      "vis_m": 9999,
      "fzfg": false,
      "metar_trigger": false,
      "taf_trigger": false,
      "metar": "METAR LFLS 122200Z AUTO 07003KT 020V100 CAVOK 04/01 Q1018",
      "taf": "TAF LFLS 121925Z 1219/1315 VRB03KT CAVOK"
    },
    {
      "icao": "LFMN",
      "alert": "OK",
      "vis_m": 9999,
      "fzfg": false,
      "metar_trigger": false,
      "taf_trigger": false,
      "metar": "METAR LFMN 122200Z 33012KT CAVOK 07/M02 Q1022 NOSIG",
      "taf": "TAF LFMN 122000Z 1221/1403 32010KT 9999 FEW030"
    },
    {
      "icao": "LFOB",
      "alert": "OK",
      "vis_m": 9999,
      "fzfg": false,
      "metar_trigger": false,
      "taf_trigger": false,
      "metar": "METAR LFOB 122200Z AUTO 21008KT 9999 BKN010 OVC023 10/09 Q1009 TEMPO 4000 SHRA BKN009 BKN013TCU OVC020",
      "taf": "TAF LFOB 121700Z 1218/1318 20011KT 9999 BKN025"
    },
    {
      "icao": "LFPO",
      "alert": "OK",
      "vis_m": 9999,
      "fzfg": false,
      "metar_trigger": false,
      "taf_trigger": false,
      "metar": "METAR LFPO 122200Z 22007KT 180V250 9999 -RA BKN030 10/07 Q1011 TEMPO 4000 -RA",
      "taf": "TAF LFPO 121700Z 1218/1324 21012KT CAVOK"
    },
    {
      "icao": "LFSB",
      "alert": "OK",
      "vis_m": 9999,
      "fzfg": false,
      "metar_trigger": false,
      "taf_trigger": false,
      "metar": "METAR LFSB 122200Z AUTO 21005KT CAVOK 03/01 Q1016 TEMPO 4500 BR",
      "taf": "TAF LFSB 121700Z 1218/1318 19004KT 9999 SCT045 BKN100"
    },
    {
      "icao": "LGAV",
      "alert": "OK",
      "vis_m": 9999,
      "fzfg": false,
      "metar_trigger": false,
      "taf_trigger": false,
      "metar": "METAR LGAV 122150Z 33011KT 9999 FEW025 04/M09 Q1022 NOSIG",
      "taf": "TAF LGAV 121700Z 1218/1318 35015KT 9999 FEW020"
    },
    {
      "icao": "LGTS",
      "alert": "OK",
      "vis_m": 9999,
      "fzfg": false,
      "metar_trigger": false,
      "taf_trigger": false,
      "metar": "METAR LGTS 122150Z 32020KT CAVOK 02/M09 Q1024 NOSIG",
      "taf": "TAF LGTS 121700Z 1218/1318 34015G30KT 9999 FEW025"
    },
    {
      "icao": "LHBP",
      "alert": "OK",
      "vis_m": 9999,
      "fzfg": false,
      "metar_trigger": false,
      "taf_trigger": false,
      "metar": "METAR LHBP 122200Z VRB02KT 9999 BKN027 OVC090 M05/M10 Q1020 NOSIG",
      "taf": "TAF LHBP 121715Z 1218/1318 VRB03KT CAVOK"
    },
    {
      "icao": "LHDC",
      "alert": "OK",
      "vis_m": 9999,
      "fzfg": false,
      "metar_trigger": false,
      "taf_trigger": false,
      "metar": "METAR LHDC 122145Z AUTO 18006KT 150V210 CAVOK M11/M14 Q1022",
      "taf": "TAF LHDC 121115Z 1212/1221 19009KT CAVOK"
    },
    {
      "icao": "LIBD",
      "alert": "OK",
      "vis_m": 9999,
      "fzfg": false,
      "metar_trigger": false,
      "taf_trigger": false,
      "metar": "METAR LIBD 122150Z 20004KT CAVOK 01/M04 Q1025",
      "taf": "TAF LIBD 121700Z 1218/1318 VRB05KT 9999 FEW035"
    },
    {
      "icao": "LIBG",
      "alert": "OK",
      "vis_m": null,
      "fzfg": false,
      "metar_trigger": false,
      "taf_trigger": false,
      "metar": "",
      "taf": "TAF LIBG 121700Z 1218/1303 VRB05KT 9999 FEW040"
    },
    {
      "icao": "LIBP",
      "alert": "OK",
      "vis_m": 9999,
      "fzfg": false,
      "metar_trigger": false,
      "taf_trigger": false,
      "metar": "METAR LIBP 122150Z AUTO 23008KT 9999 NCD 08/00 Q1023",
      "taf": "TAF LIBP 121700Z 1218/1318 VRB05KT CAVOK"
    },
    {
      "icao": "LIBR",
      "alert": "OK",
      "vis_m": 9999,
      "fzfg": false,
      "metar_trigger": false,
      "taf_trigger": false,
      "metar": "METAR LIBR 122150Z 24006KT CAVOK 02/M02 Q1025",
      "taf": "TAF LIBR 121700Z 1218/1318 35016KT 9999 FEW035"
    },
    {
      "icao": "LICA",
      "alert": "OK",
      "vis_m": 9999,
      "fzfg": false,
      "metar_trigger": false,
      "taf_trigger": false,
      "metar": "METAR LICA 122150Z AUTO 09006KT 9999 FEW047/// 01/M00 Q1028",
      "taf": "TAF LICA 121700Z 1218/1318 28010KT CAVOK"
    },
    {
      "icao": "LICC",
      "alert": "OK",
      "vis_m": 9999,
      "fzfg": false,
      "metar_trigger": false,
      "taf_trigger": false,
      "metar": "METAR LICC 122150Z 25007KT CAVOK 02/M02 Q1028",
      "taf": "TAF LICC 121700Z 1218/1318 VRB05KT CAVOK"
    },
    {
      "icao": "LICJ",
      "alert": "OK",
      "vis_m": 9999,
      "fzfg": false,
      "metar_trigger": false,
      "taf_trigger": false,
      "metar": "METAR LICJ 122150Z 17008KT CAVOK 08/03 Q1027",
      "taf": "TAF LICJ 121700Z 1218/1318 19010KT CAVOK"
    },
    {
      "icao": "LIMC",
      "alert": "OK",
      "vis_m": 9999,
      "fzfg": false,
      "metar_trigger": false,
      "taf_trigger": false,
      "metar": "METAR LIMC 122150Z 02007KT CAVOK M00/M03 Q1021 NOSIG",
      "taf": "TAF LIMC 121700Z 1218/1324 VRB05KT CAVOK"
    },
    {
      "icao": "LIME",
      "alert": "OK",
      "vis_m": 9999,
      "fzfg": false,
      "metar_trigger": false,
      "taf_trigger": false,
      "metar": "METAR LIME 122150Z AUTO 02005KT 9999 NCD 03/M04 Q1021",
      "taf": "TAF LIME 121700Z 1218/1318 VRB05KT CAVOK"
    },
    {
      "icao": "LIMF",
      "alert": "OK",
      "vis_m": 9999,
      "fzfg": false,
      "metar_trigger": false,
      "taf_trigger": false,
      "metar": "METAR LIMF 122150Z 32004KT CAVOK 02/M06 Q1021",
      "taf": "TAF LIMF 121700Z 1218/1318 VRB05KT CAVOK"
    },
    {
      "icao": "LIMJ",
      "alert": "OK",
      "vis_m": 9999,
      "fzfg": false,
      "metar_trigger": false,
      "taf_trigger": false,
      "metar": "METAR LIMJ 122150Z 16011KT 9999 SCT028 SCT042 13/11 Q1021",
      "taf": "TAF LIMJ 121700Z 1218/1318 16014KT 9999 BKN030"
    },
    {
      "icao": "LIPE",
      "alert": "OK",
      "vis_m": 9999,
      "fzfg": false,
      "metar_trigger": false,
      "taf_trigger": false,
      "metar": "METAR LIPE 122150Z VRB01KT CAVOK 01/M02 Q1022",
      "taf": "TAF LIPE 121700Z 1218/1318 VRB04KT 9999 FEW035"
    },
    {
      "icao": "LIPH",
      "alert": "OK",
      "vis_m": 9999,
      "fzfg": false,
      "metar_trigger": false,
      "taf_trigger": false,
      "metar": "METAR LIPH 122150Z VRB01KT CAVOK 00/M02 Q1022",
      "taf": "TAF LIPH 121700Z 1218/1318 VRB05KT 9999 FEW025"
    },
    {
      "icao": "LIPQ",
      "alert": "OK",
      "vis_m": 9000,
      "fzfg": false,
      "metar_trigger": false,
      "taf_trigger": false,
      "metar": "METAR LIPQ 122150Z AUTO 10001KT 9000 BKN120/// M00/M01 Q1022",
      "taf": "TAF LIPQ 121700Z 1218/1318 VRB04KT 9999 SCT025"
    },
    {
      "icao": "LIPR",
      "alert": "OK",
      "vis_m": 9999,
      "fzfg": false,
      "metar_trigger": false,
      "taf_trigger": false,
      "metar": "METAR LIPR 122150Z VRB01KT CAVOK M01/M02 Q1022",
      "taf": "TAF LIPR 121700Z 1218/1318 VRB05KT 9999 FEW035"
    },
    {
      "icao": "LIPX",
      "alert": "OK",
      "vis_m": 9999,
      "fzfg": false,
      "metar_trigger": false,
      "taf_trigger": false,
      "metar": "METAR LIPX 122150Z 06002KT CAVOK M00/M02 Q1021",
      "taf": "TAF LIPX 121700Z 1218/1318 VRB05KT 9999 SCT080"
    },
    {
      "icao": "LIPY",
      "alert": "OK",
      "vis_m": 9999,
      "fzfg": false,
      "metar_trigger": false,
      "taf_trigger": false,
      "metar": "METAR LIPY 122150Z AUTO 16002KT 9999 NCD 03/01 Q1023",
      "taf": "TAF LIPY 121700Z 1218/1318 19007KT 9999 FEW045"
    },
    {
      "icao": "LIPZ",
      "alert": "OK",
      "vis_m": 9999,
      "fzfg": false,
      "metar_trigger": false,
      "taf_trigger": false,
      "metar": "METAR LIPZ 122150Z 29004KT 230V300 CAVOK 02/M02 Q1022 NOSIG",
      "taf": "TAF LIPZ 121700Z 1218/1324 VRB04KT 9999 FEW025"
    },
    {
      "icao": "LIRF",
      "alert": "OK",
      "vis_m": 9999,
      "fzfg": false,
      "metar_trigger": false,
      "taf_trigger": false,
      "metar": "METAR LIRF 122150Z 09005KT 070V130 9999 SCT040 08/M01 Q1026 NOSIG",
      "taf": "TAF LIRF 121700Z 1218/1324 09008KT 9999 SCT050"
    },
    {
      "icao": "LIRN",
      "alert": "OK",
      "vis_m": 9999,
      "fzfg": false,
      "metar_trigger": false,
      "taf_trigger": false,
      "metar": "METAR LIRN 122150Z 04003KT 360V070 9999 SCT060 06/00 Q1026 NOSIG",
      "taf": "TAF LIRN 121700Z 1218/1318 VRB05KT 9999 FEW040"
    },
    {
      "icao": "LIRP",
      "alert": "OK",
      "vis_m": 9999,
      "fzfg": false,
      "metar_trigger": false,
      "taf_trigger": false,
      "metar": "METAR LIRP 122145Z 13004KT 9999 SCT030 BKN040 06/06 Q1024 NOSIG",
      "taf": "TAF LIRP 121700Z 1218/1318 14005KT 9999 SCT030 BKN050"
    },
    {
      "icao": "LIRZ",
      "alert": "OK",
      "vis_m": 9999,
      "fzfg": false,
      "metar_trigger": false,
      "taf_trigger": false,
      "metar": "METAR LIRZ 122150Z AUTO 28003KT 9999 OVC052/// 05/02 Q1025",
      "taf": "TAF LIRZ 121700Z 1218/1318 VRB04KT 9999 SCT050"
    },
    {
      "icao": "LJLJ",
      "alert": "OK",
      "vis_m": 9999,
      "fzfg": false,
      "metar_trigger": false,
      "taf_trigger": false,
      "metar": "METAR LJLJ 122200Z VRB02KT 9999 BKN100 M04/M05 Q1019 NOSIG",
      "taf": "TAF LJLJ 121700Z 1218/1318 VRB02KT 9999 FEW070"
    },
    {
      "icao": "LKMT",
      "alert": "OK",
      "vis_m": 9999,
      "fzfg": false,
      "metar_trigger": false,
      "taf_trigger": false,
      "metar": "METAR LKMT 122200Z 23014KT CAVOK M05/M09 Q1017 NOSIG",
      "taf": "TAF LKMT 121700Z 1218/1318 23010KT CAVOK"
    },
    {
      "icao": "LKPR",
      "alert": "OK",
      "vis_m": 2800,
      "fzfg": false,
      "metar_trigger": false,
      "taf_trigger": false,
      "metar": "METAR LKPR 122200Z 34003KT 2800 -FZRA BR BKN002 OVC004 M05/M06 Q1013 TEMPO 1200 FZRA BR",
      "taf": "TAF LKPR 122000Z 1221/1403 31003KT 7000 BKN012 OVC020"
    },
    {
      "icao": "LLBG",
      "alert": "OK",
      "vis_m": 9999,
      "fzfg": false,
      "metar_trigger": false,
      "taf_trigger": false,
      "metar": "METAR LLBG 122150Z 22010KT 9999 -RA SCT035 BKN050 12/09 Q1013 RERA TEMPO 27020G35KT 5000 TSRA FEW025CB",
      "taf": "TAF LLBG 121710Z 1218/1318 23020G30KT 9999 SCT030 BKN040"
    },
    {
      "icao": "LMML",
      "alert": "OK",
      "vis_m": 9999,
      "fzfg": false,
      "metar_trigger": false,
      "taf_trigger": false,
      "metar": "METAR LMML 122145Z 25006KT CAVOK 08/03 Q1028 NOSIG",
      "taf": "TAF LMML 121700Z 1218/1318 VRB04KT 9999 FEW027"
    },
    {
      "icao": "LOWW",
      "alert": "OK",
      "vis_m": 3200,
      "fzfg": false,
      "metar_trigger": false,
      "taf_trigger": false,
      "metar": "METAR LOWW 122150Z 14007KT 3200 -SN BR FEW003 BKN010 M04/M05 Q1018 TEMPO 2000 SN BKN015",
      "taf": ""
    },
    {
      "icao": "LPFR",
      "alert": "OK",
      "vis_m": 9999,
      "fzfg": false,
      "metar_trigger": false,
      "taf_trigger": false,
      "metar": "METAR LPFR 122200Z 17011KT 9999 SCT020 BKN040 15/11 Q1016",
      "taf": "TAF LPFR 121700Z 1218/1318 12008KT 9999 BKN025"
    },
    {
      "icao": "LPMA",
      "alert": "OK",
      "vis_m": 9999,
      "fzfg": false,
      "metar_trigger": false,
      "taf_trigger": false,
      "metar": "METAR LPMA 122200Z VRB03KT 9999 FEW015 16/13 Q1016",
      "taf": "TAF LPMA 121700Z 1218/1318 22018KT 9999 SCT015 SCT030"
    },
    {
      "icao": "LPPR",
      "alert": "OK",
      "vis_m": 9999,
      "fzfg": false,
      "metar_trigger": false,
      "taf_trigger": false,
      "metar": "METAR LPPR 122200Z 16021KT 9999 FEW020 BKN035 14/09 Q1009",
      "taf": "TAF LPPR 121700Z 1218/1318 17018KT 9999 BKN030"
    },
    {
      "icao": "LPPS",
      "alert": "OK",
      "vis_m": 9999,
      "fzfg": false,
      "metar_trigger": false,
      "taf_trigger": false,
      "metar": "METAR LPPS 122200Z 28014G37KT 260V330 9999 SCT014 SCT030 17/15 Q1015",
      "taf": "TAF LPPS 121700Z 1218/1324 22012KT 9999 SCT012 SCT030"
    },
    {
      "icao": "LPPT",
      "alert": "OK",
      "vis_m": 9999,
      "fzfg": false,
      "metar_trigger": false,
      "taf_trigger": false,
      "metar": "METAR LPPT 122200Z 17014KT 9999 FEW020 BKN042 14/11 Q1012",
      "taf": "TAF LPPT 121700Z 1218/1324 18015KT 9999 SCT020 BKN035"
    },
    {
      "icao": "LQBK",
      "alert": "OK",
      "vis_m": 9999,
      "fzfg": false,
      "metar_trigger": false,
      "taf_trigger": false,
      "metar": "METAR LQBK 122200Z VRB02KT CAVOK M05/M06 Q1020 NOSIG",
      "taf": "TAF LQBK 121700Z 1218/1318 20006KT CAVOK TX06/1313Z TNM04/1306Z"
    },
    {
      "icao": "LQSA",
      "alert": "OK",
      "vis_m": 5000,
      "fzfg": false,
      "metar_trigger": false,
      "taf_trigger": false,
      "metar": "METAR LQSA 122200Z VRB03KT 5000 BR NSC M08/M09 Q1022 NOSIG",
      "taf": "TAF LQSA 121700Z 1218/1318 VRB02KT 6000 NSC TX01/1312Z TNM06/1306Z"
    },
    {
      "icao": "LQTZ",
      "alert": "OK",
      "vis_m": 4600,
      "fzfg": false,
      "metar_trigger": false,
      "taf_trigger": false,
      "metar": "METAR LQTZ 122200Z VRB02KT 4600 BR NSC M06/M06 Q1020",
      "taf": "TAF LQTZ 121700Z 1218/1318 09005KT CAVOK TX05/1313Z TNM07/1223Z"
    },
    {
      "icao": "LRBC",
      "alert": "OK",
      "vis_m": 9999,
      "fzfg": false,
      "metar_trigger": false,
      "taf_trigger": false,
      "metar": "METAR LRBC 122200Z 33004KT 9999 SCT068 M06/M09 Q1020",
      "taf": "TAF LRBC 122000Z 1221/1306 30006KT 9999 BKN045"
    },
    {
      "icao": "LRBS",
      "alert": "OK",
      "vis_m": 9999,
      "fzfg": false,
      "metar_trigger": false,
      "taf_trigger": false,
      "metar": "METAR LRBS 122200Z VRB01KT CAVOK M08/M09 Q1021 NOSIG",
      "taf": "TAF LRBS 121700Z 1218/1318 25006KT CAVOK"
    },
    {
      "icao": "LRBV",
      "alert": "OK",
      "vis_m": 9999,
      "fzfg": false,
      "metar_trigger": false,
      "taf_trigger": false,
      "metar": "METAR LRBV 122200Z AUTO VRB03KT 9999 FEW022/// OVC069/// M09/M12 Q1019",
      "taf": "TAF LRBV 122000Z 1221/1306 30008KT 9999 SCT015 BKN035"
    },
    {
      "icao": "LRCL",
      "alert": "OK",
      "vis_m": 6000,
      "fzfg": false,
      "metar_trigger": false,
      "taf_trigger": false,
      "metar": "METAR LRCL 122200Z COR 00000KT 6000 NSC M09/M10 Q1020",
      "taf": "TAF LRCL 122000Z 1221/1306 VRB02KT 7000 BKN045"
    },
    {
      "icao": "LRCV",
      "alert": "OK",
      "vis_m": 9999,
      "fzfg": false,
      "metar_trigger": false,
      "taf_trigger": false,
      "metar": "METAR LRCV 122200Z 27005KT CAVOK M08/M11 Q1021",
      "taf": "TAF LRCV 122000Z 1221/1306 29008KT CAVOK"
    },
    {
      "icao": "LRIA",
      "alert": "OK",
      "vis_m": 9999,
      "fzfg": false,
      "metar_trigger": false,
      "taf_trigger": false,
      "metar": "METAR LRIA 122200Z 29004KT 250V020 9999 -SN BKN044 M05/M08 Q1020",
      "taf": "TAF LRIA 122000Z 1221/1306 32008KT 9999 BKN040"
    },
    {
      "icao": "LROP",
      "alert": "OK",
      "vis_m": 8000,
      "fzfg": false,
      "metar_trigger": false,
      "taf_trigger": false,
      "metar": "METAR LROP 122200Z VRB01KT 8000 NSC M09/M11 Q1021 NOSIG",
      "taf": "TAF LROP 121700Z 1218/1318 25006KT CAVOK"
    },
    {
      "icao": "LRSB",
      "alert": "OK",
      "vis_m": 8000,
      "fzfg": false,
      "metar_trigger": false,
      "taf_trigger": false,
      "metar": "METAR LRSB 122200Z 24005KT 8000 NSC M15/M16 Q1020",
      "taf": "TAF LRSB 121700Z 1218/1318 VRB04KT CAVOK"
    },
    {
      "icao": "LRSM",
      "alert": "OK",
      "vis_m": 8000,
      "fzfg": false,
      "metar_trigger": false,
      "taf_trigger": false,
      "metar": "METAR LRSM 122200Z AUTO 09004KT 8000 NCD M13/M15 Q1022",
      "taf": "TAF LRSM 121400Z 1215/1224 25007KT 9999 SCT045"
    },
    {
      "icao": "LRSV",
      "alert": "OK",
      "vis_m": 9999,
      "fzfg": false,
      "metar_trigger": false,
      "taf_trigger": false,
      "metar": "METAR LRSV 122200Z 33006KT 9999 -SN OVC045 M07/M09 Q1017",
      "taf": "TAF LRSV 122000Z 1221/1306 33008KT 9999 SCT040"
    },
    {
      "icao": "LRTM",
      "alert": "OK",
      "vis_m": 9999,
      "fzfg": false,
      "metar_trigger": false,
      "taf_trigger": false,
      "metar": "METAR LRTM 122200Z AUTO 10002KT 9999 FEW046/// BKN080/// M08/M11 Q1021",
      "taf": "TAF LRTM 121400Z 1215/1224 VRB04KT 9999 BKN040"
    },
    {
      "icao": "LRTR",
      "alert": "OK",
      "vis_m": 9999,
      "fzfg": false,
      "metar_trigger": false,
      "taf_trigger": false,
      "metar": "METAR LRTR 122200Z 11008KT CAVOK M15/M16 Q1022",
      "taf": "TAF LRTR 121700Z 1218/1318 VRB04KT CAVOK"
    },
    {
      "icao": "LTAC",
      "alert": "OK",
      "vis_m": 9999,
      "fzfg": false,
      "metar_trigger": false,
      "taf_trigger": false,
      "metar": "METAR LTAC 122150Z 04006KT 9999 SCT036 BKN100 M02/M05 Q1010 NOSIG",
      "taf": "TAF LTAC 121640Z 1218/1318 02008KT 9999 SCT040 BKN100"
    },
    {
      "icao": "LTFM",
      "alert": "OK",
      "vis_m": 6000,
      "fzfg": false,
      "metar_trigger": false,
      "taf_trigger": false,
      "metar": "METAR LTFM 122150Z 33014KT 6000 -SHSN BKN022 BKN070 00/M02 Q1020 NOSIG",
      "taf": "TAF LTFM 121640Z 1218/1324 36012KT 9999 -SHSN BKN028 BKN080"
    },
    {
      "icao": "LUKK",
      "alert": "OK",
      "vis_m": 9999,
      "fzfg": false,
      "metar_trigger": false,
      "taf_trigger": false,
      "metar": "METAR LUKK 122200Z 31007KT 280V340 CAVOK M05/M09 Q1019 NOSIG",
      "taf": "TAF LUKK 121717Z 1218/1318 33006KT 9999 SCT030"
    },
    {
      "icao": "LWOH",
      "alert": "OK",
      "vis_m": null,
      "fzfg": false,
      "metar_trigger": false,
      "taf_trigger": false,
      "metar": "",
      "taf": "TAF LWOH 122030Z 1218/1318 33005KT 9999 FEW035"
    },
    {
      "icao": "LWSK",
      "alert": "OK",
      "vis_m": 9999,
      "fzfg": false,
      "metar_trigger": false,
      "taf_trigger": false,
      "metar": "METAR LWSK 122150Z VRB02KT CAVOK M08/M11 Q1025 NOSIG",
      "taf": "TAF LWSK 122030Z 1218/1318 VRB02KT 9999 FEW060"
    },
    {
      "icao": "LYBE",
      "alert": "OK",
      "vis_m": 9999,
      "fzfg": false,
      "metar_trigger": false,
      "taf_trigger": false,
      "metar": "METAR LYBE 122200Z 15002KT CAVOK M04/M09 Q1021 NOSIG",
      "taf": "TAF LYBE 121700Z 1218/1318 12005KT CAVOK TX03/1313Z TNM06/1222Z"
    },
    {
      "icao": "LYNI",
      "alert": "OK",
      "vis_m": 9999,
      "fzfg": false,
      "metar_trigger": false,
      "taf_trigger": false,
      "metar": "METAR LYNI 122200Z 10003KT CAVOK M06/M08 Q1024 NOSIG",
      "taf": "TAF LYNI 121700Z 1218/1318 VRB02KT CAVOK TX00/1312Z TNM09/1301Z"
    },
    {
      "icao": "LYPG",
      "alert": "OK",
      "vis_m": 9999,
      "fzfg": false,
      "metar_trigger": false,
      "taf_trigger": false,
      "metar": "METAR LYPG 122200Z 33002KT 9999 FEW090 M01/M07 Q1026 NOSIG",
      "taf": "TAF LYPG 121700Z 1218/1318 36005KT 9999 FEW050 SCT080 TX05/1313Z TNM04/1301Z"
    },
    {
      "icao": "LZIB",
      "alert": "OK",
      "vis_m": 4000,
      "fzfg": false,
      "metar_trigger": false,
      "taf_trigger": false,
      "metar": "METAR LZIB 122200Z 07003KT 4000 -SN FEW004 SCT016 OVC032 M04/M05 Q1019 TEMPO SN BKN009",
      "taf": "TAF LZIB 121715Z 1218/1318 09006KT CAVOK"
    },
    {
      "icao": "LZKZ",
      "alert": "OK",
      "vis_m": 9999,
      "fzfg": false,
      "metar_trigger": false,
      "taf_trigger": false,
      "metar": "METAR LZKZ 122200Z 35001KT CAVOK M12/M14 Q1020 NOSIG",
      "taf": "TAF LZKZ 121715Z 1218/1318 23005KT CAVOK"
    },
    {
      "icao": "LZTT",
      "alert": "OK",
      "vis_m": 9999,
      "fzfg": false,
      "metar_trigger": false,
      "taf_trigger": false,
      "metar": "METAR LZTT 122200Z VRB03KT CAVOK M13/M16 Q1015",
      "taf": "TAF LZTT 121715Z 1218/1318 25008KT 9999 FEW020 SCT050"
    },
    {
      "icao": "OEJN",
      "alert": "OK",
      "vis_m": 9999,
      "fzfg": false,
      "metar_trigger": false,
      "taf_trigger": false,
      "metar": "METAR OEJN 122200Z 35004KT CAVOK 25/18 Q1015 NOSIG",
      "taf": "TAF OEJN 121700Z 1218/1324 36005KT 7000 SCT040"
    },
    {
      "icao": "OEMA",
      "alert": "OK",
      "vis_m": 9999,
      "fzfg": false,
      "metar_trigger": false,
      "taf_trigger": false,
      "metar": "METAR OEMA 122200Z 25010KT CAVOK 22/14 Q1018 NOSIG",
      "taf": "TAF OEMA 121700Z 1218/1324 27012KT 7000 FEW045"
    },
    {
      "icao": "OJAI",
      "alert": "OK",
      "vis_m": 2000,
      "fzfg": false,
      "metar_trigger": false,
      "taf_trigger": false,
      "metar": "METAR OJAI 122100Z 26032KT 2000 BLDU NSC 09/02 Q1012 NOSIG",
      "taf": "TAF OJAI 121650Z 1218/1324 25014KT 4000 HZ SCT035"
    },
    {
      "icao": "OMAA",
      "alert": "OK",
      "vis_m": 6000,
      "fzfg": false,
      "metar_trigger": false,
      "taf_trigger": false,
      "metar": "METAR OMAA 122200Z 09004KT 6000 NSC 17/14 Q1020 TEMPO 4000 HZ",
      "taf": "TAF OMAA 121700Z 1218/1400 35004KT 8000 NSC"
    },
    {
      "icao": "OMDB",
      "alert": "OK",
      "vis_m": 7000,
      "fzfg": false,
      "metar_trigger": false,
      "taf_trigger": false,
      "metar": "METAR OMDB 122200Z 21003KT 140V240 7000 NSC 19/14 Q1020 NOSIG",
      "taf": "TAF OMDB 121700Z 1218/1400 12005KT 8000 NSC"
    },
    {
      "icao": "UAAA",
      "alert": "OK",
      "vis_m": 9999,
      "fzfg": false,
      "metar_trigger": false,
      "taf_trigger": false,
      "metar": "METAR UAAA 122200Z 12002MPS 9999 SCT100 01/M02 Q1029 NOSIG",
      "taf": "TAF UAAA 121703Z 1218/1318 05003MPS 9999 SCT050CB BKN100 TX06/1309Z TNM02/1301Z"
    },
    {
      "icao": "UBBB",
      "alert": "OK",
      "vis_m": 9999,
      "fzfg": false,
      "metar_trigger": false,
      "taf_trigger": false,
      "metar": "METAR UBBB 122200Z 32006KT 9999 BKN010 07/05 Q1011 NOSIG",
      "taf": "TAF UBBB 121703Z 1218/1318 20010KT 9999 SCT020 TX14/1212Z TN07/1302Z"
    },
    {
      "icao": "UDSG",
      "alert": "OK",
      "vis_m": 9999,
      "fzfg": false,
      "metar_trigger": false,
      "taf_trigger": false,
      "metar": "METAR UDSG 122200Z 09004KT 040V160 9999 BKN049 M04/M06 Q1011 NOSIG",
      "taf": "TAF UDSG 121700Z 1218/1318 VRB06KT 5000 BR BKN030"
    },
    {
      "icao": "UDYZ",
      "alert": "OK",
      "vis_m": 9999,
      "fzfg": false,
      "metar_trigger": false,
      "taf_trigger": false,
      "metar": "METAR UDYZ 122200Z 05005KT 020V090 9999 FEW046 03/M02 Q1010 NOSIG",
      "taf": "TAF UDYZ 121700Z 1218/1318 30004KT 1200 BR FEW040"
    },
    {
      "icao": "UGKO",
      "alert": "OK",
      "vis_m": 9999,
      "fzfg": false,
      "metar_trigger": false,
      "taf_trigger": false,
      "metar": "METAR UGKO 122200Z 23007KT 9999 SCT011 OVC025 08/07 Q1009 NOSIG",
      "taf": "TAF UGKO 121700Z 1218/1318 VRB02KT 9999 SCT019 OVC050 TX08/1218Z TN05/1303Z"
    }
  ]
}