{
  "ts_utc": "2026-03-22T10:59:17Z",
  "threshold_m": 150,
  "source": "stations_override.txt (ICAO list) + aviationweather.gov (METAR/TAF raw)",
  "station_count": 159,
  "stations": [
    {
      "icao": "BIKF",
      "alert": "OK",
      "vis_m": 8000,
      "fzfg": false,
      "metar_trigger": false,
      "taf_trigger": false,
      "metar": "METAR BIKF 221030Z 25011G24KT 8000 -SHSN DRSN FEW010 BKN023CB M02/M06 Q0993",
      "taf": "TAF BIKF 221015Z 2212/2312 26025G35KT 9999 -SHSN SCT015 BKN025 TX00/2310Z TNM03/2212Z"
    },
    {
      "icao": "BKPR",
      "alert": "OK",
      "vis_m": null,
      "fzfg": false,
      "metar_trigger": false,
      "taf_trigger": false,
      "metar": "",
      "taf": "TAF BKPR 220530Z 2206/2306 03008KT 9999 SCT060"
    },
    {
      "icao": "EBCI",
      "alert": "OK",
      "vis_m": 9999,
      "fzfg": false,
      "metar_trigger": false,
      "taf_trigger": false,
      "metar": "METAR EBCI 221050Z 03006KT 350V090 CAVOK 10/06 Q1015 NOSIG",
      "taf": "TAF EBCI 220500Z 2206/2312 07006KT 0800 BCFG BKN002"
    },
    {
      "icao": "EDDB",
      "alert": "OK",
      "vis_m": 9999,
      "fzfg": false,
      "metar_trigger": false,
      "taf_trigger": false,
      "metar": "METAR EDDB 221050Z AUTO 10009KT 060V140 CAVOK 13/M01 Q1020 NOSIG",
      "taf": "TAF EDDB 220500Z 2206/2306 09008KT CAVOK"
    },
    {
      "icao": "EDDH",
      "alert": "OK",
      "vis_m": 9999,
      "fzfg": false,
      "metar_trigger": false,
      "taf_trigger": false,
      "metar": "METAR EDDH 221050Z AUTO 12008KT 090V160 CAVOK 12/01 Q1020 NOSIG",
      "taf": "TAF EDDH 220500Z 2206/2312 07004KT CAVOK"
    },
    {
      "icao": "EDDK",
      "alert": "OK",
      "vis_m": 9999,
      "fzfg": false,
      "metar_trigger": false,
      "taf_trigger": false,
      "metar": "METAR EDDK 221050Z AUTO 09007KT 060V150 CAVOK 13/02 Q1015 NOSIG",
      "taf": "TAF EDDK 220500Z 2206/2312 10004KT CAVOK"
    },
    {
      "icao": "EDDN",
      "alert": "OK",
      "vis_m": 9999,
      "fzfg": false,
      "metar_trigger": false,
      "taf_trigger": false,
      "metar": "METAR EDDN 221050Z AUTO 11014KT 060V140 CAVOK 13/M00 Q1013 NOSIG",
      "taf": "TAF EDDN 220500Z 2206/2306 07005KT CAVOK"
    },
    {
      "icao": "EDDS",
      "alert": "OK",
      "vis_m": 9999,
      "fzfg": false,
      "metar_trigger": false,
      "taf_trigger": false,
      "metar": "METAR EDDS 221050Z AUTO 08006KT 030V160 9999 FEW022 09/02 Q1012 NOSIG",
      "taf": "TAF EDDS 220500Z 2206/2306 06007KT 9999 BKN015"
    },
    {
      "icao": "EDFH",
      "alert": "OK",
      "vis_m": 9999,
      "fzfg": false,
      "metar_trigger": false,
      "taf_trigger": false,
      "metar": "METAR EDFH 221020Z 09009KT 030V150 CAVOK 09/01 Q1013",
      "taf": "TAF EDFH 220500Z 2206/2306 09009KT 9999 BKN008"
    },
    {
      "icao": "EDJA",
      "alert": "OK",
      "vis_m": 9999,
      "fzfg": false,
      "metar_trigger": false,
      "taf_trigger": false,
      "metar": "METAR EDJA 221020Z 05007KT 020V090 9999 FEW015 06/02 Q1011",
      "taf": "TAF EDJA 220800Z 2209/2218 05007KT 9999 OVC009"
    },
    {
      "icao": "EDLW",
      "alert": "OK",
      "vis_m": 9999,
      "fzfg": false,
      "metar_trigger": false,
      "taf_trigger": false,
      "metar": "METAR EDLW 221020Z 06006KT 010V100 CAVOK 10/04 Q1016",
      "taf": "TAF EDLW 220500Z 2206/2306 07004KT CAVOK"
    },
    {
      "icao": "EDNY",
      "alert": "OK",
      "vis_m": 9999,
      "fzfg": false,
      "metar_trigger": false,
      "taf_trigger": false,
      "metar": "METAR EDNY 221020Z 04008KT CAVOK 09/03 Q1011",
      "taf": "TAF EDNY 220800Z 2209/2218 02007KT CAVOK"
    },
    {
      "icao": "EDSB",
      "alert": "OK",
      "vis_m": 9999,
      "fzfg": false,
      "metar_trigger": false,
      "taf_trigger": false,
      "metar": "METAR EDSB 221020Z 03013KT CAVOK 09/03 Q1013",
      "taf": "TAF EDSB 220500Z 2206/2306 02009KT CAVOK"
    },
    {
      "icao": "EETN",
      "alert": "OK",
      "vis_m": 9999,
      "fzfg": false,
      "metar_trigger": false,
      "taf_trigger": false,
      "metar": "METAR EETN 221050Z 23013KT CAVOK 10/M00 Q1020 NOSIG",
      "taf": "TAF EETN 220530Z 2206/2306 21010KT CAVOK"
    },
    {
      "icao": "EFTU",
      "alert": "OK",
      "vis_m": 9999,
      "fzfg": false,
      "metar_trigger": false,
      "taf_trigger": false,
      "metar": "METAR EFTU 221050Z AUTO 23013KT 200V260 CAVOK 08/01 Q1016",
      "taf": "TAF EFTU 220825Z 2209/2309 21012KT CAVOK"
    },
    {
      "icao": "EGBB",
      "alert": "OK",
      "vis_m": 9999,
      "fzfg": false,
      "metar_trigger": false,
      "taf_trigger": false,
      "metar": "METAR EGBB 221050Z VRB01KT CAVOK 12/05 Q1016",
      "taf": "TAF EGBB 220457Z 2206/2306 16004KT 9999 FEW035"
    },
    {
      "icao": "EGGP",
      "alert": "OK",
      "vis_m": 9000,
      "fzfg": false,
      "metar_trigger": false,
      "taf_trigger": false,
      "metar": "METAR EGGP 221050Z 29011KT 9000 FEW020 09/05 Q1017",
      "taf": "TAF EGGP 220457Z 2206/2306 VRB03KT 8000 NSC"
    },
    {
      "icao": "EGGW",
      "alert": "OK",
      "vis_m": 9000,
      "fzfg": false,
      "metar_trigger": false,
      "taf_trigger": false,
      "metar": "METAR EGGW 221050Z AUTO 10005KT 060V140 9000 BKN009 06/04 Q1016",
      "taf": ""
    },
    {
      "icao": "EGKK",
      "alert": "OK",
      "vis_m": 9999,
      "fzfg": false,
      "metar_trigger": false,
      "taf_trigger": false,
      "metar": "METAR EGKK 221050Z 13003KT 050V190 9999 SCT014 SCT020 08/05 Q1016",
      "taf": ""
    },
    {
      "icao": "EGNM",
      "alert": "OK",
      "vis_m": 8000,
      "fzfg": false,
      "metar_trigger": false,
      "taf_trigger": false,
      "metar": "METAR EGNM 221050Z 28007KT 8000 NSC 10/04 Q1016",
      "taf": ""
    },
    {
      "icao": "EGPD",
      "alert": "OK",
      "vis_m": 9999,
      "fzfg": false,
      "metar_trigger": false,
      "taf_trigger": false,
      "metar": "METAR EGPD 221050Z AUTO 28010G26KT 9999 BKN032 BKN043 13/06 Q1011",
      "taf": "TAF EGPD 220455Z 2206/2306 20009KT 9999 SCT040"
    },
    {
      "icao": "EGPF",
      "alert": "OK",
      "vis_m": 9999,
      "fzfg": false,
      "metar_trigger": false,
      "taf_trigger": false,
      "metar": "METAR EGPF 221050Z AUTO 25011KT 220V290 9999 SCT021 BKN032 10/07 Q1014",
      "taf": ""
    },
    {
      "icao": "EHBK",
      "alert": "OK",
      "vis_m": 9999,
      "fzfg": false,
      "metar_trigger": false,
      "taf_trigger": false,
      "metar": "METAR EHBK 221025Z AUTO 07009KT 040V100 9999 NCD 11/04 Q1015 NOSIG",
      "taf": "TAF EHBK 220518Z 2206/2312 08006KT CAVOK"
    },
    {
      "icao": "EHEH",
      "alert": "OK",
      "vis_m": 9999,
      "fzfg": false,
      "metar_trigger": false,
      "taf_trigger": false,
      "metar": "METAR EHEH 221025Z AUTO 09007KT 030V090 9999 NCD 11/04 Q1016 BLU NOSIG RMK TREND REMOTE BY EHWX",
      "taf": "TAF EHEH 220526Z 2206/2312 07006KT 6000 NSC"
    },
    {
      "icao": "EKBI",
      "alert": "OK",
      "vis_m": 9999,
      "fzfg": false,
      "metar_trigger": false,
      "taf_trigger": false,
      "metar": "METAR EKBI 221050Z AUTO 18007KT 150V240 9999 NCD 10/01 Q1020",
      "taf": "TAF EKBI 220827Z 2209/2309 16006KT 1200 BR BKN003"
    },
    {
      "icao": "EKCH",
      "alert": "OK",
      "vis_m": 9999,
      "fzfg": false,
      "metar_trigger": false,
      "taf_trigger": false,
      "metar": "METAR EKCH 221050Z AUTO 18009KT 9999 NCD 08/01 Q1023 NOSIG",
      "taf": "TAF EKCH 220827Z 2209/2309 17005KT CAVOK"
    },
    {
      "icao": "ENAL",
      "alert": "OK",
      "vis_m": 9999,
      "fzfg": false,
      "metar_trigger": false,
      "taf_trigger": false,
      "metar": "METAR ENAL 221020Z 21021G32KT 9999 -RA SCT037 BKN047 09/04 Q1000",
      "taf": "TAF ENAL 220800Z 2209/2218 20020G30KT 9999 -RA FEW025 BKN040"
    },
    {
      "icao": "ENBR",
      "alert": "OK",
      "vis_m": 9000,
      "fzfg": false,
      "metar_trigger": false,
      "taf_trigger": false,
      "metar": "METAR ENBR 221020Z 16024KT 9000 -SHRA SCT008 BKN010 03/02 Q1011 TEMPO 16025G35KT 3000 RADZ BKN007 RMK WIND 1200FT 17029G39KT",
      "taf": ""
    },
    {
      "icao": "ENGM",
      "alert": "OK",
      "vis_m": 9999,
      "fzfg": false,
      "metar_trigger": false,
      "taf_trigger": false,
      "metar": "METAR ENGM 221020Z 19013KT 9999 BKN016 04/M01 Q1014 NOSIG",
      "taf": "TAF ENGM 220500Z 2206/2306 20010KT 9999 BKN012"
    },
    {
      "icao": "ENHD",
      "alert": "OK",
      "vis_m": 9999,
      "fzfg": false,
      "metar_trigger": false,
      "taf_trigger": false,
      "metar": "METAR ENHD 221020Z 17018KT 9999 OVC011 05/03 Q1013",
      "taf": "TAF ENHD 220800Z 2209/2218 17018KT 9999 SCT005 BKN012"
    },
    {
      "icao": "ENTC",
      "alert": "OK",
      "vis_m": 9999,
      "fzfg": false,
      "metar_trigger": false,
      "taf_trigger": false,
      "metar": "METAR ENTC 221020Z 17018KT 9999 -RA FEW007 SCT015 BKN023 03/M00 Q0994 NOSIG RMK WIND 2600FT 18027KT",
      "taf": "TAF ENTC 220500Z 2206/2306 21015KT 9999 FEW008 SCT010 BKN020"
    },
    {
      "icao": "ENTO",
      "alert": "OK",
      "vis_m": 9999,
      "fzfg": false,
      "metar_trigger": false,
      "taf_trigger": false,
      "metar": "METAR ENTO 221020Z 20019KT 9999 BKN012 03/M00 Q1016 TEMPO SCT012 20018G28KT",
      "taf": "TAF ENTO 220500Z 2206/2306 18012KT 9999 FEW008"
    },
    {
      "icao": "ENVA",
      "alert": "OK",
      "vis_m": 9999,
      "fzfg": false,
      "metar_trigger": false,
      "taf_trigger": false,
      "metar": "METAR ENVA 221020Z 10004KT 060V130 CAVOK 10/02 Q1001 NOSIG RMK WIND 670FT 17016KT",
      "taf": "TAF ENVA 220500Z 2206/2306 11008KT 9999 FEW012 BKN030"
    },
    {
      "icao": "ENZV",
      "alert": "OK",
      "vis_m": 9999,
      "fzfg": false,
      "metar_trigger": false,
      "taf_trigger": false,
      "metar": "METAR ENZV 221020Z 18021G31KT 9999 BKN017 06/01 Q1015 TEMPO BKN010",
      "taf": "TAF ENZV 220500Z 2206/2306 17018KT 9999 SCT008 BKN015"
    },
    {
      "icao": "EPGD",
      "alert": "OK",
      "vis_m": 9999,
      "fzfg": false,
      "metar_trigger": false,
      "taf_trigger": false,
      "metar": "METAR EPGD 221030Z 13009KT 080V160 9999 FEW038 10/M01 Q1024",
      "taf": "TAF EPGD 220530Z 2206/2306 VRB03KT CAVOK"
    },
    {
      "icao": "EPKK",
      "alert": "OK",
      "vis_m": 9999,
      "fzfg": false,
      "metar_trigger": false,
      "taf_trigger": false,
      "metar": "METAR EPKK 221030Z 07009KT 030V100 CAVOK 10/01 Q1019",
      "taf": "TAF EPKK 220830Z 2209/2309 09010KT CAVOK"
    },
    {
      "icao": "EPKT",
      "alert": "OK",
      "vis_m": 9999,
      "fzfg": false,
      "metar_trigger": false,
      "taf_trigger": false,
      "metar": "METAR EPKT 221030Z 10014KT 030V110 9999 FEW042 12/00 Q1019",
      "taf": "TAF EPKT 220530Z 2206/2306 07003KT CAVOK"
    },
    {
      "icao": "EPLB",
      "alert": "OK",
      "vis_m": 9999,
      "fzfg": false,
      "metar_trigger": false,
      "taf_trigger": false,
      "metar": "METAR EPLB 221030Z 10009KT 080V140 CAVOK 13/02 Q1022",
      "taf": "TAF EPLB 220530Z 2206/2306 08006KT CAVOK"
    },
    {
      "icao": "EPMO",
      "alert": "OK",
      "vis_m": 9999,
      "fzfg": false,
      "metar_trigger": false,
      "taf_trigger": false,
      "metar": "METAR EPMO 221030Z 06010KT CAVOK 13/01 Q1023",
      "taf": "TAF EPMO 220530Z 2206/2306 06004KT CAVOK"
    },
    {
      "icao": "EPPO",
      "alert": "OK",
      "vis_m": 9999,
      "fzfg": false,
      "metar_trigger": false,
      "taf_trigger": false,
      "metar": "METAR EPPO 221030Z 09009KT CAVOK 13/01 Q1022",
      "taf": "TAF EPPO 220530Z 2206/2306 10006KT CAVOK"
    },
    {
      "icao": "EPRA",
      "alert": "OK",
      "vis_m": 9999,
      "fzfg": false,
      "metar_trigger": false,
      "taf_trigger": false,
      "metar": "METAR EPRA 221030Z 09009KT 060V130 CAVOK 12/01 Q1022",
      "taf": "TAF EPRA 220830Z 2209/2218 10010KT CAVOK"
    },
    {
      "icao": "EPRZ",
      "alert": "OK",
      "vis_m": 9999,
      "fzfg": false,
      "metar_trigger": false,
      "taf_trigger": false,
      "metar": "METAR EPRZ 221030Z 09015KT 9999 FEW036 11/02 Q1021",
      "taf": ""
    },
    {
      "icao": "EPSC",
      "alert": "OK",
      "vis_m": 9999,
      "fzfg": false,
      "metar_trigger": false,
      "taf_trigger": false,
      "metar": "METAR EPSC 221030Z 14010KT CAVOK 12/M03 Q1022",
      "taf": "TAF EPSC 220530Z 2206/2306 VRB03KT CAVOK"
    },
    {
      "icao": "EPSY",
      "alert": "OK",
      "vis_m": 9999,
      "fzfg": false,
      "metar_trigger": false,
      "taf_trigger": false,
      "metar": "METAR EPSY 221030Z VRB05KT 9999 FEW044 11/M00 Q1024",
      "taf": "TAF EPSY 220830Z 2209/2218 09006KT CAVOK"
    },
    {
      "icao": "EPWA",
      "alert": "OK",
      "vis_m": 9999,
      "fzfg": false,
      "metar_trigger": false,
      "taf_trigger": false,
      "metar": "METAR EPWA 221030Z 09007KT 060V120 CAVOK 12/01 Q1023 NOSIG",
      "taf": "TAF EPWA 220830Z 2209/2309 10008KT CAVOK"
    },
    {
      "icao": "EPWR",
      "alert": "OK",
      "vis_m": 9999,
      "fzfg": false,
      "metar_trigger": false,
      "taf_trigger": false,
      "metar": "METAR EPWR 221030Z 10008KT 060V120 CAVOK 12/01 Q1020",
      "taf": "TAF EPWR 220830Z 2209/2309 11010KT CAVOK"
    },
    {
      "icao": "ESGG",
      "alert": "OK",
      "vis_m": 9999,
      "fzfg": false,
      "metar_trigger": false,
      "taf_trigger": false,
      "metar": "METAR ESGG 221050Z 22015KT CAVOK 06/01 Q1020",
      "taf": "TAF ESGG 220830Z 2209/2309 19009KT CAVOK"
    },
    {
      "icao": "ESKN",
      "alert": "OK",
      "vis_m": 9999,
      "fzfg": false,
      "metar_trigger": false,
      "taf_trigger": false,
      "metar": "METAR ESKN 221050Z 23014KT CAVOK 10/M04 Q1018",
      "taf": "TAF ESKN 220830Z 2209/2309 23009KT CAVOK"
    },
    {
      "icao": "ESMS",
      "alert": "OK",
      "vis_m": 9999,
      "fzfg": false,
      "metar_trigger": false,
      "taf_trigger": false,
      "metar": "METAR ESMS 221050Z 19008KT CAVOK 10/00 Q1022",
      "taf": "TAF ESMS 220827Z 2209/2309 14006KT CAVOK"
    },
    {
      "icao": "ESSA",
      "alert": "OK",
      "vis_m": 9999,
      "fzfg": false,
      "metar_trigger": false,
      "taf_trigger": false,
      "metar": "METAR ESSA 221050Z 24016KT CAVOK 08/M00 Q1016 NOSIG",
      "taf": "TAF ESSA 220830Z 2209/2309 22010KT CAVOK"
    },
    {
      "icao": "EYKA",
      "alert": "OK",
      "vis_m": 9999,
      "fzfg": false,
      "metar_trigger": false,
      "taf_trigger": false,
      "metar": "METAR EYKA 221050Z 29004KT 230V320 CAVOK 12/M00 Q1025",
      "taf": "TAF EYKA 220500Z 2206/2306 VRB04KT 9000 NSC"
    },
    {
      "icao": "EYPA",
      "alert": "OK",
      "vis_m": 9999,
      "fzfg": false,
      "metar_trigger": false,
      "taf_trigger": false,
      "metar": "METAR EYPA 221050Z 22007KT 180V260 CAVOK 08/01 Q1025",
      "taf": "TAF EYPA 220500Z 2206/2306 VRB04KT CAVOK"
    },
    {
      "icao": "EYVI",
      "alert": "OK",
      "vis_m": 9999,
      "fzfg": false,
      "metar_trigger": false,
      "taf_trigger": false,
      "metar": "METAR EYVI 221050Z VRB03KT CAVOK 13/M02 Q1025 NOSIG",
      "taf": "TAF EYVI 220500Z 2206/2306 VRB04KT 9000 NSC"
    },
    {
      "icao": "GCFV",
      "alert": "OK",
      "vis_m": 9999,
      "fzfg": false,
      "metar_trigger": false,
      "taf_trigger": false,
      "metar": "METAR GCFV 221030Z 20016KT 170V230 9999 FEW025 SCT035 21/14 Q1005",
      "taf": "TAF GCFV 220800Z 2209/2309 20015KT 9999 SCT020 TX22/2214Z TN16/2306Z"
    },
    {
      "icao": "GCLP",
      "alert": "OK",
      "vis_m": 9999,
      "fzfg": false,
      "metar_trigger": false,
      "taf_trigger": false,
      "metar": "METAR GCLP 221030Z 21016KT 9999 SCT025 21/13 Q1003 NOSIG",
      "taf": "TAF GCLP 220800Z 2209/2309 22016KT 9999 SCT030 TX22/2214Z TN15/2306Z"
    },
    {
      "icao": "GCTS",
      "alert": "OK",
      "vis_m": 9999,
      "fzfg": false,
      "metar_trigger": false,
      "taf_trigger": false,
      "metar": "METAR GCTS 221030Z COR 25015KT 9999 FEW020TCU SCT040 20/14 Q1003 NOSIG",
      "taf": "TAF GCTS 220800Z 2209/2309 25018KT 9999 SCT020 BKN040 TX22/2214Z TN15/2306Z"
    },
    {
      "icao": "GMAD",
      "alert": "OK",
      "vis_m": 9999,
      "fzfg": false,
      "metar_trigger": false,
      "taf_trigger": false,
      "metar": "METAR GMAD 221030Z 04006KT 360V080 9999 FEW026 21/18 Q1007 NOSIG",
      "taf": "TAF GMAD 220500Z 2206/2312 06008KT 8000 SCT020 SCT080"
    },
    {
      "icao": "GMMN",
      "alert": "OK",
      "vis_m": 9999,
      "fzfg": false,
      "metar_trigger": false,
      "taf_trigger": false,
      "metar": "METAR GMMN 221030Z VRB02KT 9999 FEW040 BKN080 21/17 Q1009 NOSIG",
      "taf": "TAF GMMN 220500Z 2206/2312 22004KT 9999 BKN040"
    },
    {
      "icao": "GMMX",
      "alert": "OK",
      "vis_m": 9999,
      "fzfg": false,
      "metar_trigger": false,
      "taf_trigger": false,
      "metar": "METAR GMMX 221030Z 04005KT 350V080 9999 FEW026 20/12 Q1007 NOSIG",
      "taf": "TAF GMMX 220500Z 2206/2312 06005KT 8000 SCT020 SCT080"
    },
    {
      "icao": "HEGN",
      "alert": "OK",
      "vis_m": 9999,
      "fzfg": false,
      "metar_trigger": false,
      "taf_trigger": false,
      "metar": "METAR HEGN 221000Z 03007KT 9999 SCT020 BKN025 22/12 Q1009 NOSIG",
      "taf": ""
    },
    {
      "icao": "HEMA",
      "alert": "OK",
      "vis_m": 9999,
      "fzfg": false,
      "metar_trigger": false,
      "taf_trigger": false,
      "metar": "METAR HEMA 221000Z 02015KT 9999 FEW020 23/14 Q1010 NOSIG",
      "taf": ""
    },
    {
      "icao": "HESH",
      "alert": "OK",
      "vis_m": 9999,
      "fzfg": false,
      "metar_trigger": false,
      "taf_trigger": false,
      "metar": "METAR HESH 221000Z 13006KT CAVOK 23/08 Q1009 NOSIG",
      "taf": ""
    },
    {
      "icao": "HESX",
      "alert": "OK",
      "vis_m": 9999,
      "fzfg": false,
      "metar_trigger": false,
      "taf_trigger": false,
      "metar": "METAR HESX 221000Z 22006KT 9999 FEW025 18/05 Q1010 NOSIG",
      "taf": ""
    },
    {
      "icao": "LATI",
      "alert": "OK",
      "vis_m": 9999,
      "fzfg": false,
      "metar_trigger": false,
      "taf_trigger": false,
      "metar": "METAR LATI 221050Z VRB04KT 9999 SCT060 18/M03 Q1012 BECMG 22008KT",
      "taf": "TAF LATI 220500Z 2206/2306 VRB03KT 9999 OVC100 TX19/2213Z TN09/2305Z"
    },
    {
      "icao": "LBPD",
      "alert": "OK",
      "vis_m": 9999,
      "fzfg": false,
      "metar_trigger": false,
      "taf_trigger": false,
      "metar": "METAR LBPD 221030Z AUTO 21004KT 140V260 9999 FEW042/// BKN056/// 10/04 Q1015 NOSIG",
      "taf": "TAF LBPD 220500Z 2206/2306 VRB04KT 9999 SCT030 OVC050"
    },
    {
      "icao": "LBSF",
      "alert": "OK",
      "vis_m": 9999,
      "fzfg": false,
      "metar_trigger": false,
      "taf_trigger": false,
      "metar": "METAR LBSF 221030Z 36007KT 320V040 9999 SCT033 BKN043 08/02 Q1015 NOSIG",
      "taf": "TAF LBSF 220500Z 2206/2306 VRB03KT 9999 SCT020 OVC030"
    },
    {
      "icao": "LBWN",
      "alert": "OK",
      "vis_m": 9999,
      "fzfg": false,
      "metar_trigger": false,
      "taf_trigger": false,
      "metar": "METAR LBWN 221030Z 01009KT 340V050 9999 SCT020 OVC024 09/04 Q1015 NOSIG",
      "taf": "TAF LBWN 220500Z 2206/2306 01012KT 9999 SCT020 OVC040"
    },
    {
      "icao": "LCLK",
      "alert": "OK",
      "vis_m": 9999,
      "fzfg": false,
      "metar_trigger": false,
      "taf_trigger": false,
      "metar": "METAR LCLK 221030Z 20012KT 9999 FEW020 FEW025TCU FEW030CB 18/12 Q1006 NOSIG RMK CB TO NE",
      "taf": "TAF LCLK 220530Z 2206/2306 24007KT 9999 FEW030 SCT045"
    },
    {
      "icao": "LCPH",
      "alert": "OK",
      "vis_m": 9999,
      "fzfg": false,
      "metar_trigger": false,
      "taf_trigger": false,
      "metar": "METAR LCPH 221030Z 23008KT 170V260 9999 FEW025 SCT050 18/11 Q1007 NOSIG",
      "taf": "TAF LCPH 220530Z 2206/2306 25009KT 9999 FEW020 SCT030 BKN040"
    },
    {
      "icao": "LEAL",
      "alert": "OK",
      "vis_m": 9999,
      "fzfg": false,
      "metar_trigger": false,
      "taf_trigger": false,
      "metar": "METAR LEAL 221030Z 08003KT 330V140 CAVOK 16/09 Q1012 NOSIG",
      "taf": "TAF LEAL 220500Z 2206/2306 VRB03KT 9999 FEW020 TX17/2212Z TN05/2206Z"
    },
    {
      "icao": "LEBB",
      "alert": "OK",
      "vis_m": 9999,
      "fzfg": false,
      "metar_trigger": false,
      "taf_trigger": false,
      "metar": "METAR LEBB 221030Z VRB03KT CAVOK 16/08 Q1014 NOSIG",
      "taf": "TAF LEBB 220500Z 2206/2306 31009KT 9999 SCT030 TX16/2213Z TN06/2207Z"
    },
    {
      "icao": "LEBL",
      "alert": "OK",
      "vis_m": 9999,
      "fzfg": false,
      "metar_trigger": false,
      "taf_trigger": false,
      "metar": "METAR LEBL 221030Z 22017KT 9999 FEW020 14/11 Q1011 NOSIG",
      "taf": "TAF LEBL 220500Z 2206/2306 VRB04KT 9999 FEW020 TX16/2212Z TN07/2206Z"
    },
    {
      "icao": "LECH",
      "alert": "OK",
      "vis_m": 9999,
      "fzfg": false,
      "metar_trigger": false,
      "taf_trigger": false,
      "metar": "METAR LECH 221030Z AUTO 23001KT CAVOK 15/04 Q1011",
      "taf": "TAF LECH 220500Z 2206/2306 25004KT 9999 SCT020 TX18/2212Z TN03/2206Z"
    },
    {
      "icao": "LEMD",
      "alert": "OK",
      "vis_m": 9999,
      "fzfg": false,
      "metar_trigger": false,
      "taf_trigger": false,
      "metar": "METAR LEMD 221030Z 21001KT CAVOK 12/06 Q1012 NOSIG",
      "taf": "TAF LEMD 220500Z 2206/2312 VRB03KT CAVOK TX18/2212Z TN02/2305Z"
    },
    {
      "icao": "LEMG",
      "alert": "OK",
      "vis_m": 9999,
      "fzfg": false,
      "metar_trigger": false,
      "taf_trigger": false,
      "metar": "METAR LEMG 221030Z 08006KT 9999 FEW028 16/10 Q1012 NOSIG",
      "taf": "TAF LEMG 220500Z 2206/2306 11008KT 9999 FEW025 BKN055 TX17/2213Z TN12/2206Z"
    },
    {
      "icao": "LEVC",
      "alert": "OK",
      "vis_m": 9999,
      "fzfg": false,
      "metar_trigger": false,
      "taf_trigger": false,
      "metar": "METAR LEVC 221030Z VRB02KT CAVOK 15/06 Q1012 NOSIG",
      "taf": "TAF LEVC 220500Z 2206/2306 04004KT 9999 FEW020 TX20/2212Z TN04/2206Z"
    },
    {
      "icao": "LEXJ",
      "alert": "OK",
      "vis_m": 9999,
      "fzfg": false,
      "metar_trigger": false,
      "taf_trigger": false,
      "metar": "METAR LEXJ 221030Z 28005KT 230V340 9999 FEW015 13/07 Q1014",
      "taf": "TAF LEXJ 220800Z 2209/2309 29009KT 9999 FEW010 TX17/2214Z TN09/2307Z"
    },
    {
      "icao": "LEZG",
      "alert": "OK",
      "vis_m": 9999,
      "fzfg": false,
      "metar_trigger": false,
      "taf_trigger": false,
      "metar": "METAR LEZG 221030Z 28012KT 250V320 CAVOK 14/03 Q1012 NOSIG",
      "taf": ""
    },
    {
      "icao": "LEZL",
      "alert": "OK",
      "vis_m": 9999,
      "fzfg": false,
      "metar_trigger": false,
      "taf_trigger": false,
      "metar": "METAR LEZL 221030Z 08004KT 030V140 CAVOK 19/11 Q1011 NOSIG",
      "taf": "TAF LEZL 220800Z 2209/2309 08005KT CAVOK TX23/2215Z TN10/2307Z"
    },
    {
      "icao": "LFBD",
      "alert": "OK",
      "vis_m": 9999,
      "fzfg": false,
      "metar_trigger": false,
      "taf_trigger": false,
      "metar": "METAR LFBD 221030Z AUTO 34009KT CAVOK 17/05 Q1011 NOSIG",
      "taf": "TAF LFBD 220500Z 2206/2312 34005KT CAVOK TX18/2214Z TN05/2206Z"
    },
    {
      "icao": "LFLL",
      "alert": "OK",
      "vis_m": 9999,
      "fzfg": false,
      "metar_trigger": false,
      "taf_trigger": false,
      "metar": "METAR LFLL 221030Z 15008KT 9999 -SHRA FEW009 FEW030TCU BKN040 BKN073 09/06 Q1010 NOSIG",
      "taf": "TAF LFLL 220500Z 2206/2312 VRB04KT CAVOK"
    },
    {
      "icao": "LFLS",
      "alert": "OK",
      "vis_m": 9999,
      "fzfg": false,
      "metar_trigger": false,
      "taf_trigger": false,
      "metar": "METAR LFLS 221030Z AUTO 03007KT 9999 BKN032/// OVC038/// ///TCU 07/05 Q1010 TEMPO 16010KT 4000 RA BKN013",
      "taf": "TAF LFLS 220800Z 2209/2309 09005KT 9999 OVC033"
    },
    {
      "icao": "LFMN",
      "alert": "OK",
      "vis_m": 8000,
      "fzfg": false,
      "metar_trigger": false,
      "taf_trigger": false,
      "metar": "METAR LFMN 221030Z 33010KT 8000 -RA BKN040 09/07 Q1014 NOSIG",
      "taf": "TAF LFMN 220800Z 2209/2315 36010KT 9999 BKN040"
    },
    {
      "icao": "LFOB",
      "alert": "OK",
      "vis_m": 6000,
      "fzfg": false,
      "metar_trigger": false,
      "taf_trigger": false,
      "metar": "METAR LFOB 221030Z AUTO 04006KT 350V080 6000 NSC 10/06 Q1014 NOSIG",
      "taf": "TAF LFOB 220500Z 2206/2306 36006KT 9000 NSC"
    },
    {
      "icao": "LFPO",
      "alert": "OK",
      "vis_m": 9999,
      "fzfg": false,
      "metar_trigger": false,
      "taf_trigger": false,
      "metar": "METAR LFPO 221030Z 06010KT 9999 FEW030 12/05 Q1013 NOSIG",
      "taf": "TAF LFPO 220500Z 2206/2312 03008KT CAVOK"
    },
    {
      "icao": "LFSB",
      "alert": "OK",
      "vis_m": 9999,
      "fzfg": false,
      "metar_trigger": false,
      "taf_trigger": false,
      "metar": "METAR LFSB 221030Z AUTO 12006KT 060V160 9999 FEW025 11/05 Q1011 NOSIG",
      "taf": ""
    },
    {
      "icao": "LGAV",
      "alert": "OK",
      "vis_m": 9999,
      "fzfg": false,
      "metar_trigger": false,
      "taf_trigger": false,
      "metar": "METAR LGAV 221050Z 01011KT 9999 SCT020 SCT060 13/06 Q1012 NOSIG",
      "taf": "TAF LGAV 220500Z 2206/2306 03013KT 9999 SCT025"
    },
    {
      "icao": "LGTS",
      "alert": "OK",
      "vis_m": 9999,
      "fzfg": false,
      "metar_trigger": false,
      "taf_trigger": false,
      "metar": "METAR LGTS 221050Z 28005KT 9999 SCT030 14/04 Q1014 NOSIG",
      "taf": "TAF LGTS 220500Z 2206/2306 VRB03KT 9999 SCT025"
    },
    {
      "icao": "LHBP",
      "alert": "OK",
      "vis_m": 9999,
      "fzfg": false,
      "metar_trigger": false,
      "taf_trigger": false,
      "metar": "METAR LHBP 221030Z 10010KT 070V130 CAVOK 14/M01 Q1017 NOSIG",
      "taf": "TAF LHBP 220515Z 2206/2306 04008KT CAVOK"
    },
    {
      "icao": "LHDC",
      "alert": "OK",
      "vis_m": 9999,
      "fzfg": false,
      "metar_trigger": false,
      "taf_trigger": false,
      "metar": "METAR LHDC 221015Z AUTO VRB04KT CAVOK 14/03 Q1018 NOSIG",
      "taf": "TAF LHDC 220815Z 2209/2218 09009KT CAVOK"
    },
    {
      "icao": "LIBD",
      "alert": "OK",
      "vis_m": 9999,
      "fzfg": false,
      "metar_trigger": false,
      "taf_trigger": false,
      "metar": "METAR LIBD 221020Z 08008KT 050V120 CAVOK 14/03 Q1012",
      "taf": "TAF LIBD 220500Z 2206/2306 25005KT 9999 SCT040"
    },
    {
      "icao": "LIBG",
      "alert": "OK",
      "vis_m": 9999,
      "fzfg": false,
      "metar_trigger": false,
      "taf_trigger": false,
      "metar": "METAR LIBG 220950Z VRB02KT CAVOK 15/04 Q1012",
      "taf": "TAF LIBG 220800Z 2209/2218 VRB05KT 9999 SCT040"
    },
    {
      "icao": "LIBP",
      "alert": "OK",
      "vis_m": 9999,
      "fzfg": false,
      "metar_trigger": false,
      "taf_trigger": false,
      "metar": "METAR LIBP 221020Z AUTO 04006KT 360V080 9999 FEW100/// BKN200/// 14/03 Q1012",
      "taf": "TAF LIBP 220500Z 2206/2306 23006KT 9999 SCT060"
    },
    {
      "icao": "LIBR",
      "alert": "OK",
      "vis_m": 9999,
      "fzfg": false,
      "metar_trigger": false,
      "taf_trigger": false,
      "metar": "METAR LIBR 221020Z 02006KT 360V060 CAVOK 13/06 Q1013",
      "taf": "TAF LIBR 220500Z 2206/2306 35010KT 9999 FEW030"
    },
    {
      "icao": "LICA",
      "alert": "OK",
      "vis_m": 9999,
      "fzfg": false,
      "metar_trigger": false,
      "taf_trigger": false,
      "metar": "METAR LICA 221020Z AUTO 07008KT 040V120 9999 SCT097/// 16/06 Q1012",
      "taf": "TAF LICA 220500Z 2206/2306 09012KT 9999 SCT040"
    },
    {
      "icao": "LICC",
      "alert": "OK",
      "vis_m": 9999,
      "fzfg": false,
      "metar_trigger": false,
      "taf_trigger": false,
      "metar": "METAR LICC 221020Z 08009KT 9999 FEW020 SCT040 14/12 Q1012",
      "taf": "TAF LICC 220500Z 2206/2306 VRB05KT 9999 SCT040"
    },
    {
      "icao": "LICJ",
      "alert": "OK",
      "vis_m": 9999,
      "fzfg": false,
      "metar_trigger": false,
      "taf_trigger": false,
      "metar": "METAR LICJ 221020Z 03008KT 9999 BKN075 15/05 Q1011",
      "taf": "TAF LICJ 220500Z 2206/2306 VRB05KT 9999 SCT040"
    },
    {
      "icao": "LIMC",
      "alert": "OK",
      "vis_m": 9999,
      "fzfg": false,
      "metar_trigger": false,
      "taf_trigger": false,
      "metar": "METAR LIMC 221020Z VRB03KT 9999 BKN040 12/03 Q1015 NOSIG",
      "taf": "TAF LIMC 220500Z 2206/2312 02007KT 9999 BKN050"
    },
    {
      "icao": "LIME",
      "alert": "OK",
      "vis_m": 9999,
      "fzfg": false,
      "metar_trigger": false,
      "taf_trigger": false,
      "metar": "METAR LIME 221020Z VRB03KT 9999 SCT060 SCT100 13/00 Q1014 NOSIG",
      "taf": "TAF LIME 220500Z 2206/2306 05008KT 9999 BKN060"
    },
    {
      "icao": "LIMF",
      "alert": "OK",
      "vis_m": 6000,
      "fzfg": false,
      "metar_trigger": false,
      "taf_trigger": false,
      "metar": "METAR LIMF 221020Z 32009KT 6000 -RA OVC030 06/04 Q1015",
      "taf": ""
    },
    {
      "icao": "LIMJ",
      "alert": "OK",
      "vis_m": 9999,
      "fzfg": false,
      "metar_trigger": false,
      "taf_trigger": false,
      "metar": "METAR LIMJ 221020Z 04009KT 340V070 CAVOK 14/03 Q1013",
      "taf": "TAF LIMJ 220500Z 2206/2306 VRB05KT 9999 SCT050"
    },
    {
      "icao": "LIPE",
      "alert": "OK",
      "vis_m": 9999,
      "fzfg": false,
      "metar_trigger": false,
      "taf_trigger": false,
      "metar": "METAR LIPE 221020Z VRB03KT 9999 FEW050 13/02 Q1014",
      "taf": "TAF LIPE 220500Z 2206/2306 VRB05KT 9999 FEW050"
    },
    {
      "icao": "LIPH",
      "alert": "OK",
      "vis_m": 9999,
      "fzfg": false,
      "metar_trigger": false,
      "taf_trigger": false,
      "metar": "METAR LIPH 221020Z 06011KT 010V090 9999 FEW040 15/02 Q1014",
      "taf": "TAF LIPH 220500Z 2206/2306 03006KT 9999 SCT060"
    },
    {
      "icao": "LIPQ",
      "alert": "OK",
      "vis_m": 9999,
      "fzfg": false,
      "metar_trigger": false,
      "taf_trigger": false,
      "metar": "METAR LIPQ 221020Z AUTO 09011KT 060V120 9999 OVC098/// 15/M01 Q1014",
      "taf": ""
    },
    {
      "icao": "LIPR",
      "alert": "OK",
      "vis_m": 9999,
      "fzfg": false,
      "metar_trigger": false,
      "taf_trigger": false,
      "metar": "METAR LIPR 221020Z 30009KT 9999 SCT045 12/05 Q1013",
      "taf": "TAF LIPR 220500Z 2206/2306 VRB04KT 9999 FEW040"
    },
    {
      "icao": "LIPX",
      "alert": "OK",
      "vis_m": 9999,
      "fzfg": false,
      "metar_trigger": false,
      "taf_trigger": false,
      "metar": "METAR LIPX 221020Z 08009KT 050V110 9999 FEW060 SCT090 14/M01 Q1014",
      "taf": "TAF LIPX 220500Z 2206/2306 VRB06KT 9999 SCT060"
    },
    {
      "icao": "LIPY",
      "alert": "OK",
      "vis_m": 9999,
      "fzfg": false,
      "metar_trigger": false,
      "taf_trigger": false,
      "metar": "METAR LIPY 221020Z AUTO 33011KT 9999 BKN081/// 13/06 Q1013",
      "taf": "TAF LIPY 220500Z 2206/2306 VRB04KT 9999 SCT060"
    },
    {
      "icao": "LIPZ",
      "alert": "OK",
      "vis_m": 9999,
      "fzfg": false,
      "metar_trigger": false,
      "taf_trigger": false,
      "metar": "METAR LIPZ 221020Z 07015KT 9999 FEW030 14/01 Q1014 NOSIG",
      "taf": ""
    },
    {
      "icao": "LIRF",
      "alert": "OK",
      "vis_m": 9999,
      "fzfg": false,
      "metar_trigger": false,
      "taf_trigger": false,
      "metar": "METAR LIRF 221020Z 13012KT 9999 -RA FEW030 12/05 Q1012 NOSIG",
      "taf": "TAF LIRF 220500Z 2206/2312 05007KT 9999 SCT060"
    },
    {
      "icao": "LIRN",
      "alert": "OK",
      "vis_m": 9999,
      "fzfg": false,
      "metar_trigger": false,
      "taf_trigger": false,
      "metar": "METAR LIRN 221020Z 18005KT 130V220 9999 SCT050 14/04 Q1012 NOSIG",
      "taf": "TAF LIRN 220500Z 2206/2306 VRB06KT 9999 FEW040"
    },
    {
      "icao": "LIRP",
      "alert": "OK",
      "vis_m": 9999,
      "fzfg": false,
      "metar_trigger": false,
      "taf_trigger": false,
      "metar": "METAR LIRP 221015Z 12011KT 9999 FEW035 14/00 Q1012 NOSIG",
      "taf": "TAF LIRP 220500Z 2206/2306 10006KT 9999 FEW080"
    },
    {
      "icao": "LIRZ",
      "alert": "OK",
      "vis_m": 9999,
      "fzfg": false,
      "metar_trigger": false,
      "taf_trigger": false,
      "metar": "METAR LIRZ 221020Z AUTO 18004KT 140V220 9999 BKN083/// 12/M01 Q1012",
      "taf": "TAF LIRZ 220500Z 2206/2306 VRB06KT 9999 SCT040"
    },
    {
      "icao": "LJLJ",
      "alert": "OK",
      "vis_m": 9999,
      "fzfg": false,
      "metar_trigger": false,
      "taf_trigger": false,
      "metar": "METAR LJLJ 221030Z 12008KT 070V160 9999 VCSH FEW045TCU BKN055 BKN100 11/M02 Q1015 NOSIG",
      "taf": "TAF LJLJ 220500Z 2206/2306 30005KT 9999 SCT060 BKN080"
    },
    {
      "icao": "LKMT",
      "alert": "OK",
      "vis_m": 9999,
      "fzfg": false,
      "metar_trigger": false,
      "taf_trigger": false,
      "metar": "METAR LKMT 221030Z 03007KT 350V060 CAVOK 10/02 Q1018 NOSIG",
      "taf": "TAF LKMT 220500Z 2206/2306 04005KT CAVOK"
    },
    {
      "icao": "LKPR",
      "alert": "OK",
      "vis_m": 9999,
      "fzfg": false,
      "metar_trigger": false,
      "taf_trigger": false,
      "metar": "METAR LKPR 221030Z 07005KT 010V110 9999 FEW038 11/01 Q1017 NOSIG",
      "taf": "TAF LKPR 220800Z 2209/2315 09006KT CAVOK"
    },
    {
      "icao": "LLBG",
      "alert": "OK",
      "vis_m": 9999,
      "fzfg": false,
      "metar_trigger": false,
      "taf_trigger": false,
      "metar": "METAR LLBG 221050Z 25012KT 9999 FEW035 19/09 Q1009 NOSIG",
      "taf": "TAF LLBG 220507Z 2206/2306 16008KT 9999 SCT035 TX18/2211Z TN09/2303Z"
    },
    {
      "icao": "LMML",
      "alert": "OK",
      "vis_m": 9999,
      "fzfg": false,
      "metar_trigger": false,
      "taf_trigger": false,
      "metar": "METAR LMML 221045Z 18009KT 9999 FEW020TCU 15/10 Q1011 NOSIG",
      "taf": "TAF LMML 220500Z 2206/2306 VRB07KT 9999 SCT020 BKN040"
    },
    {
      "icao": "LOWW",
      "alert": "OK",
      "vis_m": 9999,
      "fzfg": false,
      "metar_trigger": false,
      "taf_trigger": false,
      "metar": "METAR LOWW 221050Z 14007KT 100V180 CAVOK 12/01 Q1017 NOSIG",
      "taf": "TAF LOWW 220815Z 2209/2315 13010KT 9999 FEW050 TX15/2314Z TN02/2304Z"
    },
    {
      "icao": "LPFR",
      "alert": "OK",
      "vis_m": 9999,
      "fzfg": false,
      "metar_trigger": false,
      "taf_trigger": false,
      "metar": "METAR LPFR 221030Z 09009KT 9999 FEW018 17/11 Q1011",
      "taf": "TAF LPFR 220500Z 2206/2306 06010KT 9999 SCT018"
    },
    {
      "icao": "LPMA",
      "alert": "OK",
      "vis_m": 9999,
      "fzfg": false,
      "metar_trigger": false,
      "taf_trigger": false,
      "metar": "METAR LPMA 221030Z 03021KT 9999 BKN012 FEW018CB 16/14 Q1002",
      "taf": "TAF LPMA 220500Z 2206/2306 04010KT 9999 SCT016 SCT030"
    },
    {
      "icao": "LPPR",
      "alert": "OK",
      "vis_m": 7000,
      "fzfg": false,
      "metar_trigger": false,
      "taf_trigger": false,
      "metar": "METAR LPPR 221030Z 27004KT 220V310 7000 3000W BCFG FEW002 15/13 Q1012",
      "taf": ""
    },
    {
      "icao": "LPPS",
      "alert": "OK",
      "vis_m": 9999,
      "fzfg": false,
      "metar_trigger": false,
      "taf_trigger": false,
      "metar": "METAR LPPS 221030Z 07019KT 9999 VCSH SCT013 FEW018CB 15/13 Q1003",
      "taf": "TAF LPPS 220500Z 2206/2312 09012KT 9999 SCT012 SCT030"
    },
    {
      "icao": "LPPT",
      "alert": "OK",
      "vis_m": 9999,
      "fzfg": false,
      "metar_trigger": false,
      "taf_trigger": false,
      "metar": "METAR LPPT 221030Z 06007G17KT 020V100 CAVOK 15/11 Q1012",
      "taf": "TAF LPPT 220500Z 2206/2312 04005KT 9999 FEW035"
    },
    {
      "icao": "LQBK",
      "alert": "OK",
      "vis_m": 9999,
      "fzfg": false,
      "metar_trigger": false,
      "taf_trigger": false,
      "metar": "METAR LQBK 221030Z 09008KT 030V120 CAVOK 14/M03 Q1014 NOSIG",
      "taf": "TAF LQBK 220500Z 2206/2306 34005KT 9999 SCT050 TX14/2213Z TN05/2305Z"
    },
    {
      "icao": "LQSA",
      "alert": "OK",
      "vis_m": 9999,
      "fzfg": false,
      "metar_trigger": false,
      "taf_trigger": false,
      "metar": "METAR LQSA 221030Z VRB03KT 9999 FEW050 12/M05 Q1012 NOSIG",
      "taf": "TAF LQSA 220500Z 2206/2306 VRB02KT 9999 SCT060 TX14/2214Z TN03/2206Z"
    },
    {
      "icao": "LQTZ",
      "alert": "OK",
      "vis_m": 9999,
      "fzfg": false,
      "metar_trigger": false,
      "taf_trigger": false,
      "metar": "METAR LQTZ 221030Z 11010KT 9999 FEW055 14/00 Q1014",
      "taf": "TAF LQTZ 220500Z 2206/2306 16005KT 9999 SCT060 TX14/2213Z TN03/2305Z"
    },
    {
      "icao": "LRBC",
      "alert": "OK",
      "vis_m": 9999,
      "fzfg": false,
      "metar_trigger": false,
      "taf_trigger": false,
      "metar": "METAR LRBC 221030Z AUTO 01012KT 9999 FEW033/// BKN088/// 10/02 Q1020",
      "taf": "TAF LRBC 220800Z 2209/2218 36012KT 9999 SCT015 BKN040"
    },
    {
      "icao": "LRBS",
      "alert": "OK",
      "vis_m": 9999,
      "fzfg": false,
      "metar_trigger": false,
      "taf_trigger": false,
      "metar": "METAR LRBS 221030Z 06010KT 9999 -RA SCT024 BKN044 09/04 Q1017 NOSIG",
      "taf": "TAF LRBS 220500Z 2206/2306 04012KT 9999 SCT045"
    },
    {
      "icao": "LRBV",
      "alert": "OK",
      "vis_m": 9999,
      "fzfg": false,
      "metar_trigger": false,
      "taf_trigger": false,
      "metar": "METAR LRBV 221030Z 07016KT 9999 SCT044 SCT083 09/M01 Q1018",
      "taf": "TAF LRBV 220800Z 2209/2218 VRB04KT 9999 SCT020 BKN045"
    },
    {
      "icao": "LRCL",
      "alert": "OK",
      "vis_m": 9999,
      "fzfg": false,
      "metar_trigger": false,
      "taf_trigger": false,
      "metar": "METAR LRCL 221030Z 10008KT 070V160 9999 FEW050 12/M00 Q1018",
      "taf": "TAF LRCL 220800Z 2209/2218 12006KT CAVOK"
    },
    {
      "icao": "LRCV",
      "alert": "OK",
      "vis_m": 9999,
      "fzfg": false,
      "metar_trigger": false,
      "taf_trigger": false,
      "metar": "METAR LRCV 221030Z 09006KT 060V120 9999 FEW026 11/05 Q1018",
      "taf": "TAF LRCV 220800Z 2209/2218 05008KT 9999 BKN035"
    },
    {
      "icao": "LRIA",
      "alert": "OK",
      "vis_m": 9999,
      "fzfg": false,
      "metar_trigger": false,
      "taf_trigger": false,
      "metar": "METAR LRIA 221030Z 35009KT CAVOK 10/01 Q1020",
      "taf": "TAF LRIA 220800Z 2209/2218 34008KT CAVOK"
    },
    {
      "icao": "LROP",
      "alert": "OK",
      "vis_m": 9999,
      "fzfg": false,
      "metar_trigger": false,
      "taf_trigger": false,
      "metar": "METAR LROP 221030Z 07015KT 9999 -RA OVC043 10/02 Q1018 NOSIG",
      "taf": "TAF LROP 220500Z 2206/2306 04012KT 9999 SCT045"
    },
    {
      "icao": "LRSB",
      "alert": "OK",
      "vis_m": 9999,
      "fzfg": false,
      "metar_trigger": false,
      "taf_trigger": false,
      "metar": "METAR LRSB 221030Z 09011KT 9999 BKN042 11/M01 Q1017",
      "taf": "TAF LRSB 220500Z 2206/2306 VRB04KT 9999 SCT025 BKN055"
    },
    {
      "icao": "LRSM",
      "alert": "OK",
      "vis_m": 9999,
      "fzfg": false,
      "metar_trigger": false,
      "taf_trigger": false,
      "metar": "METAR LRSM 221030Z 10007KT 060V150 CAVOK 15/01 Q1018",
      "taf": "TAF LRSM 220800Z 2209/2218 08007KT CAVOK"
    },
    {
      "icao": "LRSV",
      "alert": "OK",
      "vis_m": 9999,
      "fzfg": false,
      "metar_trigger": false,
      "taf_trigger": false,
      "metar": "METAR LRSV 221030Z 36008KT 320V040 9999 BKN033 08/M00 Q1020",
      "taf": "TAF LRSV 220800Z 2209/2218 02009KT 9999 SCT030"
    },
    {
      "icao": "LRTM",
      "alert": "OK",
      "vis_m": 9999,
      "fzfg": false,
      "metar_trigger": false,
      "taf_trigger": false,
      "metar": "METAR LRTM 221030Z VRB03KT 9999 SCT035 SCT047 13/01 Q1018",
      "taf": "TAF LRTM 220800Z 2209/2218 VRB04KT CAVOK"
    },
    {
      "icao": "LRTR",
      "alert": "OK",
      "vis_m": 9999,
      "fzfg": false,
      "metar_trigger": false,
      "taf_trigger": false,
      "metar": "METAR LRTR 221030Z VRB05KT CAVOK 14/01 Q1017",
      "taf": "TAF LRTR 220500Z 2206/2306 10006KT CAVOK"
    },
    {
      "icao": "LTAC",
      "alert": "OK",
      "vis_m": 9999,
      "fzfg": false,
      "metar_trigger": false,
      "taf_trigger": false,
      "metar": "METAR LTAC 221050Z VRB05KT 9999 BKN030 BKN100 11/03 Q1006 RESHRA NOSIG",
      "taf": "TAF LTAC 220440Z 2206/2306 VRB02KT 9999 SCT040 BKN100"
    },
    {
      "icao": "LTFM",
      "alert": "OK",
      "vis_m": 800,
      "fzfg": false,
      "metar_trigger": false,
      "taf_trigger": false,
      "metar": "METAR LTFM 221050Z 03017KT 0800 0550S R35R/0800U R17L/1000N R34L/1400N R36/0800N -DZ BCFG OVC002 08/07 Q1012 NOSIG",
      "taf": ""
    },
    {
      "icao": "LUKK",
      "alert": "OK",
      "vis_m": 9999,
      "fzfg": false,
      "metar_trigger": false,
      "taf_trigger": false,
      "metar": "METAR LUKK 221030Z 03012KT CAVOK 10/02 Q1019 NOSIG",
      "taf": "TAF LUKK 220516Z 2206/2306 03010KT CAVOK"
    },
    {
      "icao": "LWOH",
      "alert": "OK",
      "vis_m": 9999,
      "fzfg": false,
      "metar_trigger": false,
      "taf_trigger": false,
      "metar": "METAR LWOH 221050Z VRB03KT 9999 BKN050 11/M01 Q1012",
      "taf": "TAF LWOH 220830Z 2209/2309 34006KT 9999 BKN050"
    },
    {
      "icao": "LWSK",
      "alert": "OK",
      "vis_m": 9999,
      "fzfg": false,
      "metar_trigger": false,
      "taf_trigger": false,
      "metar": "METAR LWSK 221050Z 05004KT 330V120 CAVOK 15/01 Q1013 NOSIG",
      "taf": "TAF LWSK 220830Z 2209/2309 VRB02KT 9999 FEW050 SCT080"
    },
    {
      "icao": "LYBE",
      "alert": "OK",
      "vis_m": 9999,
      "fzfg": false,
      "metar_trigger": false,
      "taf_trigger": false,
      "metar": "METAR LYBE 221030Z 12011KT 9999 BKN040 12/03 Q1016 NOSIG",
      "taf": "TAF LYBE 220500Z 2206/2306 12014KT 9999 SCT040 TX14/2213Z TN05/2305Z"
    },
    {
      "icao": "LYNI",
      "alert": "OK",
      "vis_m": 9999,
      "fzfg": false,
      "metar_trigger": false,
      "taf_trigger": false,
      "metar": "METAR LYNI 221030Z 06010KT 010V110 9999 SCT044 BKN067 13/02 Q1015 NOSIG",
      "taf": "TAF LYNI 220500Z 2206/2306 06012KT 9999 SCT040 BKN080 TX13/2213Z TN03/2305Z"
    },
    {
      "icao": "LYPG",
      "alert": "OK",
      "vis_m": 9999,
      "fzfg": false,
      "metar_trigger": false,
      "taf_trigger": false,
      "metar": "METAR LYPG 221030Z 17004KT 110V250 9999 FEW050 17/M01 Q1012 NOSIG",
      "taf": "TAF LYPG 220500Z 2206/2306 VRB02KT 9999 BKN090 TX17/2213Z TN08/2304Z"
    },
    {
      "icao": "LZIB",
      "alert": "OK",
      "vis_m": 9999,
      "fzfg": false,
      "metar_trigger": false,
      "taf_trigger": false,
      "metar": "METAR LZIB 221030Z 05009KT 020V090 CAVOK 13/M01 Q1017 NOSIG",
      "taf": "TAF LZIB 220515Z 2206/2306 03007KT CAVOK"
    },
    {
      "icao": "LZKZ",
      "alert": "OK",
      "vis_m": 9999,
      "fzfg": false,
      "metar_trigger": false,
      "taf_trigger": false,
      "metar": "METAR LZKZ 221030Z 08010KT 040V120 CAVOK 13/M00 Q1019 NOSIG",
      "taf": "TAF LZKZ 220515Z 2206/2306 04008KT CAVOK"
    },
    {
      "icao": "LZTT",
      "alert": "OK",
      "vis_m": 9999,
      "fzfg": false,
      "metar_trigger": false,
      "taf_trigger": false,
      "metar": "METAR LZTT 221030Z 14004KT 070V210 9999 SCT053 SCT066 08/M01 Q1018 NOSIG",
      "taf": "TAF LZTT 220515Z 2206/2306 08005KT 9999 SCT030"
    },
    {
      "icao": "OEJN",
      "alert": "OK",
      "vis_m": null,
      "fzfg": false,
      "metar_trigger": false,
      "taf_trigger": false,
      "metar": "",
      "taf": "TAF OEJN 220500Z 2206/2312 30012KT 7000 NSC"
    },
    {
      "icao": "OEMA",
      "alert": "OK",
      "vis_m": null,
      "fzfg": false,
      "metar_trigger": false,
      "taf_trigger": false,
      "metar": "",
      "taf": "TAF OEMA 220500Z 2206/2312 20012KT CAVOK"
    },
    {
      "icao": "OJAI",
      "alert": "OK",
      "vis_m": 5000,
      "fzfg": false,
      "metar_trigger": false,
      "taf_trigger": false,
      "metar": "METAR OJAI 221000Z 24009KT 5000 HZ SCT030 13/06 Q1011 NOSIG",
      "taf": "TAF OJAI 220500Z 2206/2312 24014KT 4000 BR SCT020 BKN025"
    },
    {
      "icao": "OMAA",
      "alert": "OK",
      "vis_m": null,
      "fzfg": false,
      "metar_trigger": false,
      "taf_trigger": false,
      "metar": "",
      "taf": ""
    },
    {
      "icao": "OMDB",
      "alert": "OK",
      "vis_m": null,
      "fzfg": false,
      "metar_trigger": false,
      "taf_trigger": false,
      "metar": "",
      "taf": ""
    },
    {
      "icao": "UAAA",
      "alert": "OK",
      "vis_m": 9999,
      "fzfg": false,
      "metar_trigger": false,
      "taf_trigger": false,
      "metar": "METAR UAAA 221030Z 03004MPS 340V100 9999 FEW050 20/M00 Q1013 NOSIG",
      "taf": "TAF UAAA 220502Z 2206/2306 02002G07MPS 9999 SCT100 TX20/2209Z TN06/2301Z"
    },
    {
      "icao": "UBBB",
      "alert": "OK",
      "vis_m": 9999,
      "fzfg": false,
      "metar_trigger": false,
      "taf_trigger": false,
      "metar": "METAR UBBB 221030Z 02008KT CAVOK 15/08 Q1012 NOSIG",
      "taf": "TAF UBBB 221052Z 2212/2312 03012KT CAVOK TX15/2212Z TN06/2301Z"
    },
    {
      "icao": "UDSG",
      "alert": "OK",
      "vis_m": 9999,
      "fzfg": false,
      "metar_trigger": false,
      "taf_trigger": false,
      "metar": "METAR UDSG 221030Z 33008KT 9999 BKN043CB 08/04 Q1012 NOSIG",
      "taf": "TAF UDSG 220500Z 2206/2306 27006KT 9999 BKN040"
    },
    {
      "icao": "UDYZ",
      "alert": "OK",
      "vis_m": 9999,
      "fzfg": false,
      "metar_trigger": false,
      "taf_trigger": false,
      "metar": "METAR UDYZ 221030Z 12014KT 9999 FEW043CB 15/03 Q1009 NOSIG",
      "taf": "TAF UDYZ 220500Z 2206/2306 24006KT 9999 SCT040"
    },
    {
      "icao": "UGKO",
      "alert": "OK",
      "vis_m": 9999,
      "fzfg": false,
      "metar_trigger": false,
      "taf_trigger": false,
      "metar": "METAR UGKO 221030Z 24010KT CAVOK 17/09 Q1006 NOSIG",
      "taf": "TAF UGKO 220500Z 2206/2306 26007KT 9999 SCT030 BKN060 TX18/2212Z TN08/2303Z"
    }
  ]
}