{
  "ts_utc": "2026-01-22T01:23:30Z",
  "threshold_m": 150,
  "source": "stations_override.txt (ICAO list) + aviationweather.gov (METAR/TAF raw)",
  "station_count": 159,
  "stations": [
    {
      "icao": "BIKF",
      "alert": "OK",
      "vis_m": 9999,
      "fzfg": false,
      "metar_trigger": false,
      "taf_trigger": false,
      "metar": "METAR BIKF 220100Z 07019KT 9999 BKN034 06/02 Q0989",
      "taf": "TAF BIKF 212242Z 2200/2300 07018G28KT 9999 FEW020 BKN045 TX08/2218Z TN04/2205Z"
    },
    {
      "icao": "BKPR",
      "alert": "OK",
      "vis_m": 9999,
      "fzfg": false,
      "metar_trigger": false,
      "taf_trigger": false,
      "metar": "METAR BKPR 220100Z 36004KT 320V040 9999 SCT020 BKN095 M01/M02 Q1005 NOSIG",
      "taf": "TAF BKPR 212330Z 2200/2224 VRB03KT 9999 BKN020 OVC050"
    },
    {
      "icao": "EBCI",
      "alert": "OK",
      "vis_m": 9999,
      "fzfg": false,
      "metar_trigger": false,
      "taf_trigger": false,
      "metar": "METAR EBCI 220050Z 15009KT CAVOK 05/M02 Q0994 NOSIG",
      "taf": "TAF EBCI 212307Z 2200/2306 14008KT CAVOK"
    },
    {
      "icao": "EDDB",
      "alert": "OK",
      "vis_m": 9999,
      "fzfg": false,
      "metar_trigger": false,
      "taf_trigger": false,
      "metar": "METAR EDDB 220050Z AUTO 09007KT CAVOK M07/M08 Q1004 NOSIG",
      "taf": "TAF EDDB 212300Z 2200/2224 07006KT CAVOK"
    },
    {
      "icao": "EDDH",
      "alert": "OK",
      "vis_m": 9999,
      "fzfg": false,
      "metar_trigger": false,
      "taf_trigger": false,
      "metar": "METAR EDDH 220050Z AUTO 08008KT CAVOK M04/M06 Q1004 NOSIG",
      "taf": "TAF EDDH 212300Z 2200/2306 09010KT CAVOK"
    },
    {
      "icao": "EDDK",
      "alert": "OK",
      "vis_m": 9999,
      "fzfg": false,
      "metar_trigger": false,
      "taf_trigger": false,
      "metar": "METAR EDDK 220050Z AUTO 12006KT CAVOK 01/M05 Q0998 NOSIG",
      "taf": "TAF EDDK 212300Z 2200/2306 12008KT CAVOK"
    },
    {
      "icao": "EDDN",
      "alert": "OK",
      "vis_m": 9000,
      "fzfg": false,
      "metar_trigger": false,
      "taf_trigger": false,
      "metar": "METAR EDDN 220050Z AUTO 11006KT 9000 NCD M08/M10 Q1000",
      "taf": "TAF EDDN 212300Z 2200/2224 11006KT CAVOK"
    },
    {
      "icao": "EDDS",
      "alert": "OK",
      "vis_m": 9999,
      "fzfg": false,
      "metar_trigger": false,
      "taf_trigger": false,
      "metar": "METAR EDDS 220050Z AUTO VRB02KT CAVOK M04/M06 Q0997",
      "taf": "TAF EDDS 212300Z 2200/2224 VRB02KT CAVOK"
    },
    {
      "icao": "EDFH",
      "alert": "OK",
      "vis_m": 9000,
      "fzfg": false,
      "metar_trigger": false,
      "taf_trigger": false,
      "metar": "METAR EDFH 220050Z 14015KT 9000 NSC M04/M04 Q0996",
      "taf": "TAF EDFH 212300Z 2200/2224 14013KT CAVOK"
    },
    {
      "icao": "EDJA",
      "alert": "OK",
      "vis_m": 6000,
      "fzfg": false,
      "metar_trigger": false,
      "taf_trigger": false,
      "metar": "METAR EDJA 220050Z AUTO 36004KT 6000 // FEW140/// M05/M06 Q0997",
      "taf": "TAF EDJA 211700Z 2118/2203 VRB03KT CAVOK"
    },
    {
      "icao": "EDLW",
      "alert": "OK",
      "vis_m": 9999,
      "fzfg": false,
      "metar_trigger": false,
      "taf_trigger": false,
      "metar": "METAR EDLW 220050Z AUTO VRB01KT 9999 // NCD M00/M02 Q0998",
      "taf": "TAF EDLW 211700Z 2118/2218 08006KT CAVOK"
    },
    {
      "icao": "EDNY",
      "alert": "OK",
      "vis_m": 600,
      "fzfg": false,
      "metar_trigger": false,
      "taf_trigger": false,
      "metar": "METAR EDNY 220050Z AUTO VRB01KT 0600 0550 R24/1100U // VV/// M05/M05 Q0998",
      "taf": "TAF EDNY 211700Z 2118/2203 VRB03KT 2500 BR OVC002"
    },
    {
      "icao": "EDSB",
      "alert": "OK",
      "vis_m": 3200,
      "fzfg": false,
      "metar_trigger": false,
      "taf_trigger": false,
      "metar": "METAR EDSB 220050Z AUTO 20003KT 3200 // OVC002/// M01/M02 Q0999",
      "taf": "TAF EDSB 212300Z 2200/2224 VRB02KT 3500 BR SCT002 OVC005"
    },
    {
      "icao": "EETN",
      "alert": "OK",
      "vis_m": 9999,
      "fzfg": false,
      "metar_trigger": false,
      "taf_trigger": false,
      "metar": "METAR EETN 220120Z 09014KT 9999 -SN OVC017 M06/M09 Q1023",
      "taf": "TAF EETN 212330Z 2200/2224 09010KT 9999 SCT010 BKN013"
    },
    {
      "icao": "EFTU",
      "alert": "OK",
      "vis_m": 9999,
      "fzfg": false,
      "metar_trigger": false,
      "taf_trigger": false,
      "metar": "METAR EFTU 220120Z AUTO 09011KT 9999 OVC009 M05/M06 Q1024",
      "taf": "TAF EFTU 212335Z 2200/2224 09009KT 9999 OVC008"
    },
    {
      "icao": "EGBB",
      "alert": "OK",
      "vis_m": 9999,
      "fzfg": false,
      "metar_trigger": false,
      "taf_trigger": false,
      "metar": "METAR EGBB 220050Z 13012KT 9999 BKN008 09/08 Q0986",
      "taf": "TAF EGBB 212259Z 2200/2224 13014KT 9999 SCT010 BKN016"
    },
    {
      "icao": "EGGP",
      "alert": "OK",
      "vis_m": 9999,
      "fzfg": false,
      "metar_trigger": false,
      "taf_trigger": false,
      "metar": "METAR EGGP 220050Z AUTO 12014KT 9999 OVC015/// 09/07 Q0985",
      "taf": ""
    },
    {
      "icao": "EGGW",
      "alert": "OK",
      "vis_m": 9999,
      "fzfg": false,
      "metar_trigger": false,
      "taf_trigger": false,
      "metar": "METAR EGGW 220050Z AUTO 13011KT 9999 -RA BKN007 OVC012 08/07 Q0988",
      "taf": "TAF EGGW 212256Z 2200/2224 14012KT 9999 SCT005 BKN020"
    },
    {
      "icao": "EGKK",
      "alert": "OK",
      "vis_m": 6000,
      "fzfg": false,
      "metar_trigger": false,
      "taf_trigger": false,
      "metar": "METAR EGKK 220050Z 14008KT 100V170 6000 -DZRA BKN010 BKN020 09/09 Q0988",
      "taf": "TAF EGKK 212256Z 2200/2306 14009KT 9999 SCT010"
    },
    {
      "icao": "EGNM",
      "alert": "OK",
      "vis_m": null,
      "fzfg": false,
      "metar_trigger": false,
      "taf_trigger": false,
      "metar": "",
      "taf": "TAF EGNM 212259Z 2200/2224 12012KT 6000 BKN005"
    },
    {
      "icao": "EGPD",
      "alert": "OK",
      "vis_m": 6000,
      "fzfg": false,
      "metar_trigger": false,
      "taf_trigger": false,
      "metar": "METAR EGPD 220050Z AUTO 13022G36KT 6000 OVC010 07/05 Q0994 TEMPO BKN008",
      "taf": "TAF EGPD 212254Z 2200/2224 13022G36KT 9999 SCT010 BKN015"
    },
    {
      "icao": "EGPF",
      "alert": "OK",
      "vis_m": 9999,
      "fzfg": false,
      "metar_trigger": false,
      "taf_trigger": false,
      "metar": "METAR EGPF 220050Z AUTO 10013KT 9999 OVC019 09/07 Q0986",
      "taf": "TAF EGPF 212301Z 2200/2224 08016G28KT 9999 FEW012 BKN025"
    },
    {
      "icao": "EHBK",
      "alert": "OK",
      "vis_m": 9999,
      "fzfg": false,
      "metar_trigger": false,
      "taf_trigger": false,
      "metar": "METAR EHBK 220055Z AUTO 10008KT 070V130 9999 NSC 02/M01 Q0996",
      "taf": "TAF EHBK 212340Z 2200/2306 09007KT CAVOK"
    },
    {
      "icao": "EHEH",
      "alert": "OK",
      "vis_m": 9999,
      "fzfg": false,
      "metar_trigger": false,
      "taf_trigger": false,
      "metar": "METAR EHEH 220055Z AUTO 11005KT 080V140 9999 OVC290 02/M01 Q0996 BLU",
      "taf": "TAF EHEH 212326Z 2200/2306 12007KT CAVOK"
    },
    {
      "icao": "EKBI",
      "alert": "OK",
      "vis_m": 9999,
      "fzfg": false,
      "metar_trigger": false,
      "taf_trigger": false,
      "metar": "METAR EKBI 220050Z AUTO 07013KT 9999 FEW014/// OVC032/// 00/M02 Q1008",
      "taf": "TAF EKBI 212327Z 2200/2224 08015KT 9999 OVC022"
    },
    {
      "icao": "EKCH",
      "alert": "OK",
      "vis_m": 9999,
      "fzfg": false,
      "metar_trigger": false,
      "taf_trigger": false,
      "metar": "METAR EKCH 220050Z AUTO 05013KT 9999 OVC019/// 00/M03 Q1010 TEMPO BKN014",
      "taf": "TAF EKCH 212327Z 2200/2224 06015KT 9999 BKN020"
    },
    {
      "icao": "ENAL",
      "alert": "OK",
      "vis_m": 9999,
      "fzfg": false,
      "metar_trigger": false,
      "taf_trigger": false,
      "metar": "METAR ENAL 220050Z AUTO 13016KT 9999 NCD 05/M07 Q1010",
      "taf": "TAF ENAL 212300Z 2200/2209 14015KT CAVOK"
    },
    {
      "icao": "ENBR",
      "alert": "OK",
      "vis_m": 9999,
      "fzfg": false,
      "metar_trigger": false,
      "taf_trigger": false,
      "metar": "METAR ENBR 220050Z VRB01KT CAVOK M00/M05 Q1009 RMK WIND 1200FT 27003KT",
      "taf": "TAF ENBR 212300Z 2200/2224 09005KT CAVOK"
    },
    {
      "icao": "ENGM",
      "alert": "OK",
      "vis_m": 9999,
      "fzfg": false,
      "metar_trigger": false,
      "taf_trigger": false,
      "metar": "METAR ENGM 220050Z 02005KT 9999 BKN016 M02/M04 Q1020",
      "taf": "TAF ENGM 212300Z 2200/2224 02008KT 9999 OVC020"
    },
    {
      "icao": "ENHD",
      "alert": "OK",
      "vis_m": 9999,
      "fzfg": false,
      "metar_trigger": false,
      "taf_trigger": false,
      "metar": "METAR ENHD 220050Z AUTO 10017KT 9999 NCD 03/M10 Q1009",
      "taf": "TAF ENHD 211400Z 2115/2123 10018KT CAVOK"
    },
    {
      "icao": "ENTC",
      "alert": "OK",
      "vis_m": 9999,
      "fzfg": false,
      "metar_trigger": false,
      "taf_trigger": false,
      "metar": "METAR ENTC 220050Z AUTO 06002KT 9999 NCD M09/M10 Q1024 RMK WIND 2600FT 09007KT",
      "taf": "TAF ENTC 212300Z 2200/2224 VRB02KT 9999 FEW001"
    },
    {
      "icao": "ENTO",
      "alert": "OK",
      "vis_m": 9999,
      "fzfg": false,
      "metar_trigger": false,
      "taf_trigger": false,
      "metar": "METAR ENTO 220050Z AUTO 03011KT 9999 -SN FEW015/// SCT018/// BKN026/// M01/M03 Q1018",
      "taf": ""
    },
    {
      "icao": "ENVA",
      "alert": "OK",
      "vis_m": 9999,
      "fzfg": false,
      "metar_trigger": false,
      "taf_trigger": false,
      "metar": "METAR ENVA 220050Z AUTO 11013KT 9999 NCD M01/M07 Q1019 RMK WIND 670FT 13019KT",
      "taf": "TAF ENVA 212300Z 2200/2224 11010KT CAVOK"
    },
    {
      "icao": "ENZV",
      "alert": "OK",
      "vis_m": 9999,
      "fzfg": false,
      "metar_trigger": false,
      "taf_trigger": false,
      "metar": "METAR ENZV 220050Z 09014KT CAVOK 02/M09 Q1010",
      "taf": "TAF ENZV 212300Z 2200/2224 09009KT CAVOK"
    },
    {
      "icao": "EPGD",
      "alert": "OK",
      "vis_m": 1500,
      "fzfg": false,
      "metar_trigger": false,
      "taf_trigger": false,
      "metar": "METAR EPGD 220100Z VRB02KT 1500 BR BKN007 M15/M17 Q1007",
      "taf": "TAF EPGD 212330Z 2200/2224 VRB02KT 1000 BR NSC"
    },
    {
      "icao": "EPKK",
      "alert": "OK",
      "vis_m": 3800,
      "fzfg": false,
      "metar_trigger": false,
      "taf_trigger": false,
      "metar": "METAR EPKK 220100Z 16001KT 3800 BR NSC M11/M13 Q1006",
      "taf": "TAF EPKK 212330Z 2200/2224 07003KT 4000 BR NSC"
    },
    {
      "icao": "EPKT",
      "alert": "OK",
      "vis_m": 4600,
      "fzfg": false,
      "metar_trigger": false,
      "taf_trigger": false,
      "metar": "METAR EPKT 220100Z VRB02KT 4600 BR NSC M13/M14 Q1005",
      "taf": "TAF EPKT 212330Z 2200/2224 05004KT 6000 NSC"
    },
    {
      "icao": "EPLB",
      "alert": "OK",
      "vis_m": 1000,
      "fzfg": false,
      "metar_trigger": false,
      "taf_trigger": false,
      "metar": "METAR EPLB 220100Z 06004KT 1000 R25/1400U BR NSC M17/M18 Q1008",
      "taf": "TAF EPLB 212330Z 2200/2224 10002KT 2500 BR NSC"
    },
    {
      "icao": "EPMO",
      "alert": "OK",
      "vis_m": 4000,
      "fzfg": false,
      "metar_trigger": false,
      "taf_trigger": false,
      "metar": "METAR EPMO 220100Z 08007KT 4000 BR NSC M11/M12 Q1008",
      "taf": "TAF EPMO 212330Z 2200/2224 10008KT 3000 BR NSC"
    },
    {
      "icao": "EPPO",
      "alert": "OK",
      "vis_m": 6000,
      "fzfg": false,
      "metar_trigger": false,
      "taf_trigger": false,
      "metar": "METAR EPPO 220100Z 10004KT 6000 NSC M08/M10 Q1005",
      "taf": "TAF EPPO 212330Z 2200/2224 10005KT 6000 NSC"
    },
    {
      "icao": "EPRA",
      "alert": "OK",
      "vis_m": 7000,
      "fzfg": false,
      "metar_trigger": false,
      "taf_trigger": false,
      "metar": "METAR EPRA 220100Z 15007KT 7000 NSC M10/M12 Q1007",
      "taf": "TAF EPRA 212330Z 2200/2209 13006KT 7000 NSC"
    },
    {
      "icao": "EPRZ",
      "alert": "OK",
      "vis_m": 3500,
      "fzfg": false,
      "metar_trigger": false,
      "taf_trigger": false,
      "metar": "METAR EPRZ 220100Z 07004KT 3500 BR NSC M10/M13 Q1007",
      "taf": "TAF EPRZ 212330Z 2200/2224 08003KT 7000 NSC"
    },
    {
      "icao": "EPSC",
      "alert": "OK",
      "vis_m": 4600,
      "fzfg": false,
      "metar_trigger": false,
      "taf_trigger": false,
      "metar": "METAR EPSC 220100Z 01003KT 340V040 4600 BR NSC M07/M08 Q1006",
      "taf": "TAF EPSC 212330Z 2200/2224 08008KT 8000 NSC"
    },
    {
      "icao": "EPSY",
      "alert": "OK",
      "vis_m": 2500,
      "fzfg": false,
      "metar_trigger": false,
      "taf_trigger": false,
      "metar": "METAR EPSY 220100Z VRB02KT 2500 BR NSC M14/M15 Q1008",
      "taf": "TAF EPSY 212330Z 2200/2209 VRB02KT 4000 BR NSC"
    },
    {
      "icao": "EPWA",
      "alert": "OK",
      "vis_m": 5000,
      "fzfg": false,
      "metar_trigger": false,
      "taf_trigger": false,
      "metar": "METAR EPWA 220100Z 12004KT 5000 BR NSC M10/M10 Q1008 TEMPO 4000 BR",
      "taf": "TAF EPWA 212330Z 2200/2224 10006KT 8000 NSC"
    },
    {
      "icao": "EPWR",
      "alert": "OK",
      "vis_m": 9999,
      "fzfg": false,
      "metar_trigger": false,
      "taf_trigger": false,
      "metar": "METAR EPWR 220100Z 15007KT CAVOK M03/M08 Q1004",
      "taf": "TAF EPWR 212330Z 2200/2224 13004KT CAVOK"
    },
    {
      "icao": "ESGG",
      "alert": "OK",
      "vis_m": 9999,
      "fzfg": false,
      "metar_trigger": false,
      "taf_trigger": false,
      "metar": "METAR ESGG 220050Z 08013KT 050V110 9999 OVC025 M01/M06 Q1012",
      "taf": "TAF ESGG 212330Z 2200/2224 07012KT 9999 OVC018"
    },
    {
      "icao": "ESKN",
      "alert": "OK",
      "vis_m": 9999,
      "fzfg": false,
      "metar_trigger": false,
      "taf_trigger": false,
      "metar": "METAR ESKN 220050Z 06011KT 9999 BKN012 OVC027 M01/M02 Q1018",
      "taf": "TAF ESKN 212330Z 2200/2224 08009KT 9000 -SN SCT007 OVC015"
    },
    {
      "icao": "ESMS",
      "alert": "OK",
      "vis_m": 9000,
      "fzfg": false,
      "metar_trigger": false,
      "taf_trigger": false,
      "metar": "METAR ESMS 220050Z 05012KT 9000 OVC015 M00/M03 Q1009",
      "taf": "TAF ESMS 212327Z 2200/2224 06012KT 9000 BKN020"
    },
    {
      "icao": "ESSA",
      "alert": "OK",
      "vis_m": null,
      "fzfg": false,
      "metar_trigger": false,
      "taf_trigger": false,
      "metar": "",
      "taf": "TAF ESSA 212330Z 2200/2224 07010KT 9000 -SN SCT008 OVC020"
    },
    {
      "icao": "EYKA",
      "alert": "OK",
      "vis_m": 6000,
      "fzfg": false,
      "metar_trigger": false,
      "taf_trigger": false,
      "metar": "METAR EYKA 220120Z AUTO 07006KT 6000 NCD M14/M16 Q1014",
      "taf": "TAF EYKA 212314Z 2200/2224 08009KT 5000 BR NSC"
    },
    {
      "icao": "EYPA",
      "alert": "OK",
      "vis_m": 8000,
      "fzfg": false,
      "metar_trigger": false,
      "taf_trigger": false,
      "metar": "METAR EYPA 220120Z 09009KT 8000 NSC M12/M15 Q1013",
      "taf": "TAF EYPA 212313Z 2200/2224 09012KT 5000 BR FEW010"
    },
    {
      "icao": "EYVI",
      "alert": "OK",
      "vis_m": 7000,
      "fzfg": false,
      "metar_trigger": false,
      "taf_trigger": false,
      "metar": "METAR EYVI 220120Z 08008KT 7000 FEW003 M15/M17 Q1014 BECMG BKN002",
      "taf": "TAF EYVI 212316Z 2200/2224 08009KT 5000 BR NSC"
    },
    {
      "icao": "GCFV",
      "alert": "OK",
      "vis_m": 9999,
      "fzfg": false,
      "metar_trigger": false,
      "taf_trigger": false,
      "metar": "METAR GCFV 220100Z AUTO 32008KT 9999 OVC027 18/13 Q1020",
      "taf": "TAF GCFV 212000Z 2121/2221 30007KT 9999 SCT030 TX21/2214Z TN15/2206Z"
    },
    {
      "icao": "GCLP",
      "alert": "OK",
      "vis_m": 9999,
      "fzfg": false,
      "metar_trigger": false,
      "taf_trigger": false,
      "metar": "METAR GCLP 220100Z 31005KT 280V340 9999 FEW030 16/12 Q1021 NOSIG",
      "taf": "TAF GCLP 212000Z 2121/2221 34007KT 9999 SCT035 TX21/2214Z TN15/2206Z"
    },
    {
      "icao": "GCTS",
      "alert": "OK",
      "vis_m": 9999,
      "fzfg": false,
      "metar_trigger": false,
      "taf_trigger": false,
      "metar": "METAR GCTS 220100Z 33007KT 9999 FEW035 15/11 Q1021 NOSIG",
      "taf": "TAF GCTS 212000Z 2121/2221 06006KT 9999 SCT035 TX22/2214Z TN14/2206Z"
    },
    {
      "icao": "GMAD",
      "alert": "OK",
      "vis_m": 9999,
      "fzfg": false,
      "metar_trigger": false,
      "taf_trigger": false,
      "metar": "METAR GMAD 220100Z 00000KT 9999 BKN016 12/12 Q1018 NOSIG",
      "taf": "TAF GMAD 212300Z 2200/2306 14006KT 6000 SCT008 SCT026"
    },
    {
      "icao": "GMMN",
      "alert": "OK",
      "vis_m": 8000,
      "fzfg": false,
      "metar_trigger": false,
      "taf_trigger": false,
      "metar": "METAR GMMN 220100Z 22017KT 8000 BKN005 BKN016 12/11 Q1014 NOSIG",
      "taf": "TAF GMMN 212300Z 2200/2306 21015KT 5000 -RA SCT006 BKN020"
    },
    {
      "icao": "GMMX",
      "alert": "OK",
      "vis_m": 9999,
      "fzfg": false,
      "metar_trigger": false,
      "taf_trigger": false,
      "metar": "METAR GMMX 220100Z VRB02KT 9999 FEW026 SCT080 12/08 Q1016 NOSIG",
      "taf": "TAF GMMX 212300Z 2200/2306 26006KT 8000 SCT026 SCT080"
    },
    {
      "icao": "HEGN",
      "alert": "OK",
      "vis_m": 9999,
      "fzfg": false,
      "metar_trigger": false,
      "taf_trigger": false,
      "metar": "METAR HEGN 220000Z 00000KT CAVOK 17/10 Q1015 NOSIG",
      "taf": "TAF HEGN 212300Z 2200/2306 16010KT CAVOK"
    },
    {
      "icao": "HEMA",
      "alert": "OK",
      "vis_m": 9999,
      "fzfg": false,
      "metar_trigger": false,
      "taf_trigger": false,
      "metar": "METAR HEMA 220000Z 29011KT CAVOK 17/12 Q1015 NOSIG",
      "taf": "TAF HEMA 212300Z 2200/2306 28010KT CAVOK"
    },
    {
      "icao": "HESH",
      "alert": "OK",
      "vis_m": 9999,
      "fzfg": false,
      "metar_trigger": false,
      "taf_trigger": false,
      "metar": "METAR HESH 220000Z 35010KT CAVOK 20/10 Q1016 NOSIG",
      "taf": "TAF HESH 212300Z 2200/2306 35010KT CAVOK"
    },
    {
      "icao": "HESX",
      "alert": "OK",
      "vis_m": 6000,
      "fzfg": false,
      "metar_trigger": false,
      "taf_trigger": false,
      "metar": "METAR HESX 220000Z 27003KT 6000 NSC 15/05 Q1012 NOSIG",
      "taf": "TAF HESX 212300Z 2200/2306 21010KT 6000 SCT020 OVC070"
    },
    {
      "icao": "LATI",
      "alert": "OK",
      "vis_m": 9999,
      "fzfg": false,
      "metar_trigger": false,
      "taf_trigger": false,
      "metar": "METAR LATI 220120Z VRB01KT 9999 OVC061 06/04 Q1002 NOSIG",
      "taf": "TAF LATI 212300Z 2200/2224 VRB05KT 9999 OVC060 TX14/2212Z TN04/2205Z"
    },
    {
      "icao": "LBPD",
      "alert": "OK",
      "vis_m": 7000,
      "fzfg": false,
      "metar_trigger": false,
      "taf_trigger": false,
      "metar": "METAR LBPD 220100Z AUTO 29003KT 7000 -FZRA OVC015/// M02/M02 Q1010",
      "taf": "TAF LBPD 212300Z 2200/2224 VRB03KT 5000 SN BKN020 OVC030"
    },
    {
      "icao": "LBSF",
      "alert": "OK",
      "vis_m": 3400,
      "fzfg": false,
      "metar_trigger": false,
      "taf_trigger": false,
      "metar": "METAR LBSF 220100Z AUTO 09005KT 3400 -SN FEW017/// OVC026/// M02/M03 Q1008 TEMPO 1500 -SN BKN005",
      "taf": "TAF LBSF 212300Z 2200/2224 12010KT 8000 SCT015 BKN020 OVC040"
    },
    {
      "icao": "LBWN",
      "alert": "OK",
      "vis_m": 9999,
      "fzfg": false,
      "metar_trigger": false,
      "taf_trigger": false,
      "metar": "METAR LBWN 220100Z AUTO 12006KT 9999 NSC 05/05 Q1011 NOSIG",
      "taf": "TAF LBWN 212300Z 2200/2224 11010KT 8000 RA BKN020 OVC040"
    },
    {
      "icao": "LCLK",
      "alert": "OK",
      "vis_m": 9999,
      "fzfg": false,
      "metar_trigger": false,
      "taf_trigger": false,
      "metar": "METAR LCLK 220100Z 06016KT CAVOK 15/07 Q1017 NOSIG",
      "taf": "TAF LCLK 212330Z 2200/2300 05018KT CAVOK"
    },
    {
      "icao": "LCPH",
      "alert": "OK",
      "vis_m": 9999,
      "fzfg": false,
      "metar_trigger": false,
      "taf_trigger": false,
      "metar": "METAR LCPH 220100Z AUTO 10019KT 080V140 9999 NCD 15/05 Q1015 NOSIG",
      "taf": "TAF LCPH 212330Z 2200/2300 11022G32KT CAVOK"
    },
    {
      "icao": "LEAL",
      "alert": "OK",
      "vis_m": 9999,
      "fzfg": false,
      "metar_trigger": false,
      "taf_trigger": false,
      "metar": "METAR LEAL 220100Z 31007KT 9999 SCT047 BKN055 11/10 Q0999 NOSIG",
      "taf": "TAF LEAL 212300Z 2200/2224 VRB04KT 9999 BKN040 TX18/2213Z TN10/2206Z"
    },
    {
      "icao": "LEBB",
      "alert": "OK",
      "vis_m": 9999,
      "fzfg": false,
      "metar_trigger": false,
      "taf_trigger": false,
      "metar": "METAR LEBB 220100Z AUTO 07002KT 9999 FEW055 SCT066 07/06 Q0996",
      "taf": "TAF LEBB 212300Z 2200/2224 22009KT 9999 FEW010 BKN030 TX13/2215Z TN07/2209Z"
    },
    {
      "icao": "LEBL",
      "alert": "OK",
      "vis_m": 8000,
      "fzfg": false,
      "metar_trigger": false,
      "taf_trigger": false,
      "metar": "METAR LEBL 220100Z 26009KT 8000 FEW016 SCT025 BKN041 12/12 Q0995 NOSIG",
      "taf": "TAF LEBL 212300Z 2200/2224 23010KT 9999 BKN020 TX15/2213Z TN07/2206Z"
    },
    {
      "icao": "LECH",
      "alert": "OK",
      "vis_m": 7000,
      "fzfg": false,
      "metar_trigger": false,
      "taf_trigger": false,
      "metar": "METAR LECH 220100Z AUTO 26005KT 220V300 7000 FEW068 07/07 Q0996",
      "taf": ""
    },
    {
      "icao": "LEMD",
      "alert": "OK",
      "vis_m": 9999,
      "fzfg": false,
      "metar_trigger": false,
      "taf_trigger": false,
      "metar": "METAR LEMD 220100Z 26012KT 9999 FEW066 08/03 Q0999 NOSIG",
      "taf": "TAF LEMD 212300Z 2200/2306 20008KT 9999 SCT010 SCT030 TX10/2215Z TN04/2207Z"
    },
    {
      "icao": "LEMG",
      "alert": "OK",
      "vis_m": 9999,
      "fzfg": false,
      "metar_trigger": false,
      "taf_trigger": false,
      "metar": "METAR LEMG 220100Z 31008KT 9999 SCT059 12/08 Q1005 NOSIG",
      "taf": "TAF LEMG 212300Z 2200/2224 30009KT 9999 SCT030 TX17/2214Z TN11/2207Z"
    },
    {
      "icao": "LEVC",
      "alert": "OK",
      "vis_m": 9999,
      "fzfg": false,
      "metar_trigger": false,
      "taf_trigger": false,
      "metar": "METAR LEVC 220100Z 36004KT 9999 FEW038 10/08 Q0996 NOSIG",
      "taf": "TAF LEVC 212300Z 2200/2224 VRB03KT 9999 BKN040 TX18/2213Z TN09/2205Z"
    },
    {
      "icao": "LEXJ",
      "alert": "OK",
      "vis_m": 7000,
      "fzfg": false,
      "metar_trigger": false,
      "taf_trigger": false,
      "metar": "METAR LEXJ 220100Z AUTO 27019G29KT 240V300 7000 SCT050 BKN060 BKN070 11/04 Q0996",
      "taf": "TAF LEXJ 212000Z 2121/2221 23009KT 9999 BKN040 TX13/2214Z TN08/2206Z"
    },
    {
      "icao": "LEZG",
      "alert": "OK",
      "vis_m": 9999,
      "fzfg": false,
      "metar_trigger": false,
      "taf_trigger": false,
      "metar": "METAR LEZG 220100Z 35004KT 310V010 9999 SCT070 07/07 Q0996 NOSIG",
      "taf": "TAF LEZG 212300Z 2200/2224 28008KT 9999 FEW040 TX13/2215Z TN05/2206Z"
    },
    {
      "icao": "LEZL",
      "alert": "OK",
      "vis_m": 8000,
      "fzfg": false,
      "metar_trigger": false,
      "taf_trigger": false,
      "metar": "METAR LEZL 220100Z AUTO 25009KT 8000 NCD 13/10 Q1007",
      "taf": "TAF LEZL 212000Z 2121/2221 25009KT 9999 FEW020 SCT030 TX15/2215Z TN09/2207Z"
    },
    {
      "icao": "LFBD",
      "alert": "OK",
      "vis_m": 9999,
      "fzfg": false,
      "metar_trigger": false,
      "taf_trigger": false,
      "metar": "METAR LFBD 220100Z AUTO 21011KT 9999 -RA BKN026/// BKN035/// BKN043/// ///CB 08/08 Q0992 TEMPO 2000 -TSRA",
      "taf": "TAF LFBD 212300Z 2200/2306 20010KT CAVOK TX12/2214Z TN07/2221Z"
    },
    {
      "icao": "LFLL",
      "alert": "OK",
      "vis_m": 9999,
      "fzfg": false,
      "metar_trigger": false,
      "taf_trigger": false,
      "metar": "METAR LFLL 220100Z 17005KT 9999 FEW050 SCT180 07/03 Q0996 NOSIG",
      "taf": "TAF LFLL 212300Z 2200/2306 17008KT CAVOK"
    },
    {
      "icao": "LFLS",
      "alert": "OK",
      "vis_m": 9999,
      "fzfg": false,
      "metar_trigger": false,
      "taf_trigger": false,
      "metar": "METAR LFLS 220100Z AUTO 15004KT 130V200 9999 SCT058 BKN074 OVC088 05/03 Q0996",
      "taf": "TAF LFLS 211400Z 2115/2215 23010KT CAVOK"
    },
    {
      "icao": "LFMN",
      "alert": "OK",
      "vis_m": 9999,
      "fzfg": false,
      "metar_trigger": false,
      "taf_trigger": false,
      "metar": "METAR LFMN 220100Z 34006KT 9999 SCT036 SCT260 08/03 Q1001 NOSIG",
      "taf": "TAF LFMN 212000Z 2121/2303 34010KT CAVOK"
    },
    {
      "icao": "LFOB",
      "alert": "OK",
      "vis_m": 9999,
      "fzfg": false,
      "metar_trigger": false,
      "taf_trigger": false,
      "metar": "METAR LFOB 220100Z AUTO 12009KT CAVOK 07/06 Q0991 NOSIG",
      "taf": "TAF LFOB 212300Z 2200/2224 14010KT 9999 FEW010"
    },
    {
      "icao": "LFPO",
      "alert": "OK",
      "vis_m": 9999,
      "fzfg": false,
      "metar_trigger": false,
      "taf_trigger": false,
      "metar": "METAR LFPO 220100Z 12005KT CAVOK 08/05 Q0991 NOSIG",
      "taf": "TAF LFPO 212300Z 2200/2306 13010KT CAVOK"
    },
    {
      "icao": "LFSB",
      "alert": "OK",
      "vis_m": 2200,
      "fzfg": true,
      "metar_trigger": false,
      "taf_trigger": false,
      "metar": "METAR LFSB 220100Z AUTO VRB01KT 2200 BR VV/// M02/M02 Q0998 TEMPO 0300 FZFG",
      "taf": "TAF LFSB 212300Z 2200/2224 VRB03KT 1500 BR OVC002"
    },
    {
      "icao": "LGAV",
      "alert": "OK",
      "vis_m": 9999,
      "fzfg": false,
      "metar_trigger": false,
      "taf_trigger": false,
      "metar": "METAR LGAV 220050Z 27005KT 230V330 9999 -RA FEW015 SCT030 08/07 Q1005 NOSIG",
      "taf": "TAF LGAV 212300Z 2200/2224 04008KT 9999 FEW012 BKN025 BKN070"
    },
    {
      "icao": "LGTS",
      "alert": "OK",
      "vis_m": 9999,
      "fzfg": false,
      "metar_trigger": false,
      "taf_trigger": false,
      "metar": "METAR LGTS 220050Z 30013KT 9999 SCT006 BKN030 06/06 Q1006 NOSIG",
      "taf": "TAF LGTS 212300Z 2200/2224 34013KT 9999 FEW010 BKN030"
    },
    {
      "icao": "LHBP",
      "alert": "OK",
      "vis_m": 6000,
      "fzfg": false,
      "metar_trigger": false,
      "taf_trigger": false,
      "metar": "METAR LHBP 220100Z 08002KT 6000 NSC M04/M06 Q1007 NOSIG",
      "taf": "TAF LHBP 212315Z 2200/2224 VRB03KT CAVOK"
    },
    {
      "icao": "LHDC",
      "alert": "OK",
      "vis_m": 9999,
      "fzfg": false,
      "metar_trigger": false,
      "taf_trigger": false,
      "metar": "METAR LHDC 220045Z AUTO 09003KT 9999 OVC039 M04/M07 Q1008",
      "taf": ""
    },
    {
      "icao": "LIBD",
      "alert": "OK",
      "vis_m": 4500,
      "fzfg": false,
      "metar_trigger": false,
      "taf_trigger": false,
      "metar": "METAR LIBD 220050Z 16001KT 4500 BR SCT015 08/07 Q1000",
      "taf": "TAF LIBD 212300Z 2200/2224 12010KT 7000 SCT005 BKN014"
    },
    {
      "icao": "LIBG",
      "alert": "OK",
      "vis_m": null,
      "fzfg": false,
      "metar_trigger": false,
      "taf_trigger": false,
      "metar": "",
      "taf": "TAF LIBG 211700Z 2118/2203 07012KT 7000 SCT015 BKN030"
    },
    {
      "icao": "LIBP",
      "alert": "OK",
      "vis_m": 6000,
      "fzfg": false,
      "metar_trigger": false,
      "taf_trigger": false,
      "metar": "METAR LIBP 220050Z AUTO 25002KT 6000 OVC022/// 07/07 Q1002",
      "taf": "TAF LIBP 212300Z 2200/2224 VRB05KT 9999 BKN040"
    },
    {
      "icao": "LIBR",
      "alert": "OK",
      "vis_m": 8000,
      "fzfg": false,
      "metar_trigger": false,
      "taf_trigger": false,
      "metar": "METAR LIBR 220050Z 18004KT 130V200 8000 RA OVC045 10/09 Q1000",
      "taf": "TAF LIBR 212300Z 2200/2224 17010KT 9999 SCT040"
    },
    {
      "icao": "LICA",
      "alert": "OK",
      "vis_m": 9999,
      "fzfg": false,
      "metar_trigger": false,
      "taf_trigger": false,
      "metar": "METAR LICA 220050Z AUTO 05009KT 9999 FEW057/// 09/08 Q0999",
      "taf": "TAF LICA 212300Z 2200/2224 08012KT 9999 SCT040"
    },
    {
      "icao": "LICC",
      "alert": "OK",
      "vis_m": 9999,
      "fzfg": false,
      "metar_trigger": false,
      "taf_trigger": false,
      "metar": "METAR LICC 220050Z 24003KT CAVOK 07/06 Q0999",
      "taf": "TAF LICC 212300Z 2200/2224 VRB05KT 7000 SCT050"
    },
    {
      "icao": "LICJ",
      "alert": "OK",
      "vis_m": 9999,
      "fzfg": false,
      "metar_trigger": false,
      "taf_trigger": false,
      "metar": "METAR LICJ 220050Z 35015KT 9999 SCT018 SCT035 14/11 Q0999",
      "taf": "TAF LICJ 212300Z 2200/2224 34012KT 9999 SCT030"
    },
    {
      "icao": "LIMC",
      "alert": "OK",
      "vis_m": 4000,
      "fzfg": false,
      "metar_trigger": false,
      "taf_trigger": false,
      "metar": "METAR LIMC 220050Z 01004KT 4000 BR NSC M02/M03 Q1004 NOSIG",
      "taf": "TAF LIMC 212300Z 2200/2306 VRB04KT 4000 BR NSC"
    },
    {
      "icao": "LIME",
      "alert": "OK",
      "vis_m": 9999,
      "fzfg": false,
      "metar_trigger": false,
      "taf_trigger": false,
      "metar": "METAR LIME 220050Z 01005KT CAVOK M01/M02 Q1003 NOSIG",
      "taf": "TAF LIME 212300Z 2200/2224 VRB04KT CAVOK"
    },
    {
      "icao": "LIMF",
      "alert": "OK",
      "vis_m": 4000,
      "fzfg": false,
      "metar_trigger": false,
      "taf_trigger": false,
      "metar": "METAR LIMF 220050Z VRB01KT 4000 BR NSC M00/M02 Q1003",
      "taf": "TAF LIMF 212300Z 2200/2224 VRB04KT 4000 BR NSC"
    },
    {
      "icao": "LIMJ",
      "alert": "OK",
      "vis_m": 9000,
      "fzfg": false,
      "metar_trigger": false,
      "taf_trigger": false,
      "metar": "METAR LIMJ 220050Z 04015KT 9000 NSC 05/M00 Q1002",
      "taf": "TAF LIMJ 212300Z 2200/2224 04013KT CAVOK"
    },
    {
      "icao": "LIPE",
      "alert": "OK",
      "vis_m": 9999,
      "fzfg": false,
      "metar_trigger": false,
      "taf_trigger": false,
      "metar": "METAR LIPE 220050Z 28002KT 9999 BKN035 04/01 Q1004",
      "taf": "TAF LIPE 212300Z 2200/2224 VRB05KT 9999 SCT040 BKN060"
    },
    {
      "icao": "LIPH",
      "alert": "OK",
      "vis_m": 9999,
      "fzfg": false,
      "metar_trigger": false,
      "taf_trigger": false,
      "metar": "METAR LIPH 220050Z AUTO VRB01KT 9999 BKN056/// BKN072/// M02/M05 Q1004",
      "taf": "TAF LIPH 212300Z 2200/2224 VRB05KT CAVOK"
    },
    {
      "icao": "LIPQ",
      "alert": "OK",
      "vis_m": 9999,
      "fzfg": false,
      "metar_trigger": false,
      "taf_trigger": false,
      "metar": "METAR LIPQ 220050Z AUTO 33004KT 9999 BKN061/// OVC076/// M00/M06 Q1003",
      "taf": "TAF LIPQ 212300Z 2200/2224 VRB05KT CAVOK"
    },
    {
      "icao": "LIPR",
      "alert": "OK",
      "vis_m": 9999,
      "fzfg": false,
      "metar_trigger": false,
      "taf_trigger": false,
      "metar": "METAR LIPR 220050Z AUTO 27006KT 9999 OVC019/// 04/01 Q1003",
      "taf": "TAF LIPR 212300Z 2200/2224 29010KT 9999 BKN020"
    },
    {
      "icao": "LIPX",
      "alert": "OK",
      "vis_m": 9999,
      "fzfg": false,
      "metar_trigger": false,
      "taf_trigger": false,
      "metar": "METAR LIPX 220050Z 27003KT 220V290 9999 BKN060 M01/M04 Q1004",
      "taf": "TAF LIPX 212300Z 2200/2224 VRB04KT 9999 SCT050"
    },
    {
      "icao": "LIPY",
      "alert": "OK",
      "vis_m": 5000,
      "fzfg": false,
      "metar_trigger": false,
      "taf_trigger": false,
      "metar": "METAR LIPY 220050Z AUTO VRB02KT 5000 -RA OVC008/// 05/04 Q1003 REDZ",
      "taf": "TAF LIPY 212300Z 2200/2224 25008KT 9999 BKN014 OVC015"
    },
    {
      "icao": "LIPZ",
      "alert": "OK",
      "vis_m": 9999,
      "fzfg": false,
      "metar_trigger": false,
      "taf_trigger": false,
      "metar": "METAR LIPZ 220050Z 35004KT CAVOK M00/M06 Q1004 NOSIG",
      "taf": "TAF LIPZ 212300Z 2200/2306 VRB05KT CAVOK"
    },
    {
      "icao": "LIRF",
      "alert": "OK",
      "vis_m": 9999,
      "fzfg": false,
      "metar_trigger": false,
      "taf_trigger": false,
      "metar": "METAR LIRF 220050Z 07002KT CAVOK 07/04 Q1000 NOSIG",
      "taf": "TAF LIRF 212300Z 2200/2306 34007KT 9999 SCT050"
    },
    {
      "icao": "LIRN",
      "alert": "OK",
      "vis_m": 9999,
      "fzfg": false,
      "metar_trigger": false,
      "taf_trigger": false,
      "metar": "METAR LIRN 220050Z 33003KT CAVOK 08/05 Q0999 NOSIG",
      "taf": "TAF LIRN 212300Z 2200/2224 VRB05KT 9999 SCT050"
    },
    {
      "icao": "LIRP",
      "alert": "OK",
      "vis_m": 9999,
      "fzfg": false,
      "metar_trigger": false,
      "taf_trigger": false,
      "metar": "METAR LIRP 220045Z 09004KT CAVOK 03/02 Q1002 NOSIG",
      "taf": "TAF LIRP 212300Z 2200/2224 11004KT CAVOK"
    },
    {
      "icao": "LIRZ",
      "alert": "OK",
      "vis_m": 9999,
      "fzfg": false,
      "metar_trigger": false,
      "taf_trigger": false,
      "metar": "METAR LIRZ 220050Z AUTO 34005KT 9999 OVC059/// 05/02 Q1001",
      "taf": "TAF LIRZ 212300Z 2200/2224 VRB05KT 9999 BKN045"
    },
    {
      "icao": "LJLJ",
      "alert": "OK",
      "vis_m": 5000,
      "fzfg": false,
      "metar_trigger": false,
      "taf_trigger": false,
      "metar": "METAR LJLJ 220100Z VRB01KT 5000 BR OVC010 M06/M08 Q1005 NOSIG",
      "taf": "TAF LJLJ 212300Z 2200/2300 12003KT 9999 OVC010"
    },
    {
      "icao": "LKMT",
      "alert": "OK",
      "vis_m": 9999,
      "fzfg": false,
      "metar_trigger": false,
      "taf_trigger": false,
      "metar": "METAR LKMT 220100Z 00000KT CAVOK M07/M11 Q1005 NOSIG",
      "taf": "TAF LKMT 212300Z 2200/2224 23005KT CAVOK"
    },
    {
      "icao": "LKPR",
      "alert": "OK",
      "vis_m": 5000,
      "fzfg": false,
      "metar_trigger": false,
      "taf_trigger": false,
      "metar": "METAR LKPR 220100Z 22003KT 5000 BR SCT017 M10/M11 Q1003 BECMG BKN014",
      "taf": "TAF LKPR 212300Z 2200/2306 VRB02KT 6000 NSC"
    },
    {
      "icao": "LLBG",
      "alert": "OK",
      "vis_m": 9999,
      "fzfg": false,
      "metar_trigger": false,
      "taf_trigger": false,
      "metar": "METAR LLBG 220120Z 15004KT 070V230 CAVOK 15/M02 Q1015 NOSIG RMK FEW140 FCST 1500FT-WIND 100/30KT",
      "taf": "TAF LLBG 212308Z 2200/2224 10010KT CAVOK"
    },
    {
      "icao": "LMML",
      "alert": "OK",
      "vis_m": 9999,
      "fzfg": false,
      "metar_trigger": false,
      "taf_trigger": false,
      "metar": "METAR LMML 220115Z 33003KT CAVOK 10/10 Q0998 NOSIG",
      "taf": "TAF LMML 212300Z 2200/2224 VRB05KT 9999 FEW016"
    },
    {
      "icao": "LOWW",
      "alert": "OK",
      "vis_m": 6000,
      "fzfg": false,
      "metar_trigger": false,
      "taf_trigger": false,
      "metar": "METAR LOWW 220050Z 14010KT 6000 OVC008 M06/M08 Q1005 NOSIG",
      "taf": "TAF LOWW 212315Z 2200/2306 14013KT 5000 BR OVC006 TXM03/2214Z TNM06/2204Z"
    },
    {
      "icao": "LPFR",
      "alert": "OK",
      "vis_m": 9999,
      "fzfg": false,
      "metar_trigger": false,
      "taf_trigger": false,
      "metar": "METAR LPFR 220100Z 30010KT 9999 FEW020 13/09 Q1009",
      "taf": "TAF LPFR 212300Z 2200/2224 29010KT 9999 SCT035"
    },
    {
      "icao": "LPMA",
      "alert": "OK",
      "vis_m": 9999,
      "fzfg": false,
      "metar_trigger": false,
      "taf_trigger": false,
      "metar": "METAR LPMA 220100Z 31003KT 280V340 9999 FEW013 17/13 Q1019",
      "taf": "TAF LPMA 212300Z 2200/2224 VRB05KT 9999 SCT015"
    },
    {
      "icao": "LPPR",
      "alert": "OK",
      "vis_m": 9999,
      "fzfg": false,
      "metar_trigger": false,
      "taf_trigger": false,
      "metar": "METAR LPPR 220100Z 33009KT 9999 FEW016 FEW025CB BKN035 11/07 Q1005",
      "taf": "TAF LPPR 212300Z 2200/2224 32010KT 9999 BKN030"
    },
    {
      "icao": "LPPS",
      "alert": "OK",
      "vis_m": 9999,
      "fzfg": false,
      "metar_trigger": false,
      "taf_trigger": false,
      "metar": "METAR LPPS 220100Z 31017KT 9999 FEW005 SCT010 17/16 Q1019",
      "taf": "TAF LPPS 212300Z 2200/2306 30015KT 9999 SCT015"
    },
    {
      "icao": "LPPT",
      "alert": "OK",
      "vis_m": 9999,
      "fzfg": false,
      "metar_trigger": false,
      "taf_trigger": false,
      "metar": "METAR LPPT 220100Z 32006KT 200V010 9999 FEW025 BKN036 12/08 Q1009 WS R20",
      "taf": "TAF LPPT 212300Z 2200/2306 30010KT 9999 SCT020"
    },
    {
      "icao": "LQBK",
      "alert": "OK",
      "vis_m": 9999,
      "fzfg": false,
      "metar_trigger": false,
      "taf_trigger": false,
      "metar": "METAR LQBK 220100Z 10004KT 070V120 9999 OVC010 M04/M05 Q1007 NOSIG",
      "taf": "TAF LQBK 212300Z 2200/2224 VRB02KT 7000 BKN012 OVC025 TX01/2213Z TNM04/2205Z"
    },
    {
      "icao": "LQSA",
      "alert": "OK",
      "vis_m": 3000,
      "fzfg": false,
      "metar_trigger": false,
      "taf_trigger": false,
      "metar": "METAR LQSA 220100Z VRB01KT 3000 BR BKN045 M04/M05 Q1004",
      "taf": "TAF LQSA 212300Z 2200/2224 VRB02KT 3000 BR SCT010 BKN020 TXM00/2214Z TNM06/2200Z"
    },
    {
      "icao": "LQTZ",
      "alert": "OK",
      "vis_m": 3900,
      "fzfg": false,
      "metar_trigger": false,
      "taf_trigger": false,
      "metar": "METAR LQTZ 220100Z 00000KT 3900 BR OVC010 M05/M05 Q1006",
      "taf": "TAF LQTZ 212300Z 2200/2224 VRB02KT 5000 BR BKN013 OVC030 TX01/2213Z TNM05/2200Z"
    },
    {
      "icao": "LRBC",
      "alert": "OK",
      "vis_m": 9999,
      "fzfg": false,
      "metar_trigger": false,
      "taf_trigger": false,
      "metar": "METAR LRBC 220100Z 17009KT CAVOK M00/M01 Q1010",
      "taf": "TAF LRBC 212300Z 2200/2209 18012KT 5000 BR SCT005"
    },
    {
      "icao": "LRBS",
      "alert": "OK",
      "vis_m": 6000,
      "fzfg": false,
      "metar_trigger": false,
      "taf_trigger": false,
      "metar": "METAR LRBS 220100Z 04005KT 6000 BKN003 BKN045 M01/M02 Q1011 TEMPO 5000 -RASN",
      "taf": "TAF LRBS 212300Z 2200/2224 05006KT 5000 BR BKN040"
    },
    {
      "icao": "LRBV",
      "alert": "OK",
      "vis_m": 7000,
      "fzfg": false,
      "metar_trigger": false,
      "taf_trigger": false,
      "metar": "METAR LRBV 220100Z AUTO VRB02KT 7000 NCD M04/M07 Q1007",
      "taf": "TAF LRBV 212000Z 2121/2206 VRB04KT 7000 NSC"
    },
    {
      "icao": "LRCL",
      "alert": "OK",
      "vis_m": 5000,
      "fzfg": false,
      "metar_trigger": false,
      "taf_trigger": false,
      "metar": "METAR LRCL 220100Z 00000KT 5000 BR NSC M07/M09 Q1008",
      "taf": "TAF LRCL 212300Z 2200/2209 VRB04KT 5000 BR NSC"
    },
    {
      "icao": "LRCV",
      "alert": "OK",
      "vis_m": 4000,
      "fzfg": false,
      "metar_trigger": false,
      "taf_trigger": false,
      "metar": "METAR LRCV 220100Z 00000KT 4000 -SN BR OVC008 M01/M02 Q1010",
      "taf": "TAF LRCV 212300Z 2200/2209 VRB04KT 5000 -SN BR SCT010 OVC025"
    },
    {
      "icao": "LRIA",
      "alert": "OK",
      "vis_m": 9999,
      "fzfg": false,
      "metar_trigger": false,
      "taf_trigger": false,
      "metar": "METAR LRIA 220100Z 13010KT 110V170 9999 BKN013 01/M01 Q1011",
      "taf": "TAF LRIA 212300Z 2200/2209 14008KT 5000 BR SCT015"
    },
    {
      "icao": "LROP",
      "alert": "OK",
      "vis_m": 5000,
      "fzfg": false,
      "metar_trigger": false,
      "taf_trigger": false,
      "metar": "METAR LROP 220100Z 05006KT 5000 BR FEW005 BKN045 M01/M01 Q1011 BECMG 3000 -RASN BR BKN005",
      "taf": "TAF LROP 212300Z 2200/2224 05006KT 5000 BR BKN040"
    },
    {
      "icao": "LRSB",
      "alert": "OK",
      "vis_m": 9999,
      "fzfg": false,
      "metar_trigger": false,
      "taf_trigger": false,
      "metar": "METAR LRSB 220100Z COR 30003KT 270V350 9999 SCT085 M05/M08 Q1006",
      "taf": "TAF LRSB 212300Z 2200/2224 VRB04KT 7000 NSC"
    },
    {
      "icao": "LRSM",
      "alert": "OK",
      "vis_m": 9999,
      "fzfg": false,
      "metar_trigger": false,
      "taf_trigger": false,
      "metar": "METAR LRSM 220100Z AUTO 12003KT 9999 BKN240/// M09/M11 Q1008",
      "taf": "TAF LRSM 211400Z 2115/2124 VRB04KT CAVOK"
    },
    {
      "icao": "LRSV",
      "alert": "CRITICAL",
      "vis_m": 100,
      "fzfg": true,
      "metar_trigger": true,
      "taf_trigger": true,
      "metar": "METAR LRSV 220100Z 14003KT 0100 R34/0300N FZFG VV001 M07/M07 Q1008",
      "taf": "TAF LRSV 212300Z 2200/2209 VRB04KT 0100 FZFG VV001"
    },
    {
      "icao": "LRTM",
      "alert": "OK",
      "vis_m": 2600,
      "fzfg": false,
      "metar_trigger": false,
      "taf_trigger": false,
      "metar": "METAR LRTM 220100Z AUTO VRB01KT 2600 BR NCD M08/M10 Q1008",
      "taf": "TAF LRTM 211400Z 2115/2124 VRB04KT 1500 BR BKN002"
    },
    {
      "icao": "LRTR",
      "alert": "OK",
      "vis_m": 9999,
      "fzfg": false,
      "metar_trigger": false,
      "taf_trigger": false,
      "metar": "METAR LRTR 220100Z 30004KT 9999 SCT048 M02/M03 Q1007",
      "taf": "TAF LRTR 212300Z 2200/2224 10006KT 5000 BR BKN045"
    },
    {
      "icao": "LTAC",
      "alert": "OK",
      "vis_m": 9999,
      "fzfg": false,
      "metar_trigger": false,
      "taf_trigger": false,
      "metar": "METAR LTAC 220050Z 01003KT 9999 SCT040 BKN080 M03/M07 Q1016 NOSIG RMK RWY21C 15003KT RWY03L 02005KT RWY21R 07003KT 020V120 RWY03R 06002KT RWY21L 17004KT",
      "taf": "TAF LTAC 212240Z 2200/2224 VRB02KT 9999 SCT040 BKN100"
    },
    {
      "icao": "LTFM",
      "alert": "OK",
      "vis_m": 9999,
      "fzfg": false,
      "metar_trigger": false,
      "taf_trigger": false,
      "metar": "METAR LTFM 220050Z 09007KT 9999 -RA BKN035 BKN090 05/01 Q1011 NOSIG RMK RWY17L 10005KT RWY34L 09005KT RWY16R 11005KT RWY36 12004KT RWY18 11006KT",
      "taf": "TAF LTFM 212240Z 2200/2306 VRB02KT 9999 -RA BKN032 BKN080"
    },
    {
      "icao": "LUKK",
      "alert": "OK",
      "vis_m": 9999,
      "fzfg": false,
      "metar_trigger": false,
      "taf_trigger": false,
      "metar": "METAR LUKK 220100Z 17009KT 9999 SCT018 M00/M02 Q1013 NOSIG",
      "taf": "TAF LUKK 212324Z 2200/2224 16008KT 7000 BKN012"
    },
    {
      "icao": "LWOH",
      "alert": "OK",
      "vis_m": null,
      "fzfg": false,
      "metar_trigger": false,
      "taf_trigger": false,
      "metar": "",
      "taf": "TAF LWOH 212340Z 2200/2224 04008KT 9999 SCT020 BKN040"
    },
    {
      "icao": "LWSK",
      "alert": "OK",
      "vis_m": 1300,
      "fzfg": false,
      "metar_trigger": false,
      "taf_trigger": false,
      "metar": "METAR LWSK 220120Z 00000KT 1300 R34/P2000N BR -SN SCT003 SCT015 OVC030 M00/M01 Q1008 NOSIG",
      "taf": "TAF LWSK 212340Z 2200/2224 VRB02KT 1000 BR SCT003 BKN008 OVC020"
    },
    {
      "icao": "LYBE",
      "alert": "OK",
      "vis_m": 5000,
      "fzfg": false,
      "metar_trigger": false,
      "taf_trigger": false,
      "metar": "METAR LYBE 220100Z 34003KT 5000 BR NSC M05/M06 Q1008 NOSIG",
      "taf": "TAF LYBE 212300Z 2200/2224 28004KT 5000 BR SCT005 SCT040 TX02/2212Z TNM06/2205Z"
    },
    {
      "icao": "LYNI",
      "alert": "OK",
      "vis_m": 9999,
      "fzfg": false,
      "metar_trigger": false,
      "taf_trigger": false,
      "metar": "METAR LYNI 220100Z 09010KT CAVOK 03/M03 Q1007 NOSIG",
      "taf": "TAF LYNI 212300Z 2200/2224 10015KT 9999 SCT040 BKN080 TX05/2213Z TNM01/2205Z"
    },
    {
      "icao": "LYPG",
      "alert": "OK",
      "vis_m": 1500,
      "fzfg": false,
      "metar_trigger": false,
      "taf_trigger": false,
      "metar": "METAR LYPG 220100Z 00000KT 1500 0600S R18/1800U R36/0650D BCFG BR FEW013 SCT050 OVC076 04/03 Q1003 NOSIG",
      "taf": ""
    },
    {
      "icao": "LZIB",
      "alert": "OK",
      "vis_m": 9999,
      "fzfg": false,
      "metar_trigger": false,
      "taf_trigger": false,
      "metar": "METAR LZIB 220100Z 06005KT 9999 FEW008 M06/M08 Q1006 NOSIG",
      "taf": "TAF LZIB 212317Z 2200/2300 06005KT 9999 FEW010"
    },
    {
      "icao": "LZKZ",
      "alert": "OK",
      "vis_m": 9999,
      "fzfg": false,
      "metar_trigger": false,
      "taf_trigger": false,
      "metar": "METAR LZKZ 220100Z 13004KT CAVOK M10/M12 Q1007 NOSIG",
      "taf": "TAF LZKZ 212317Z 2200/2300 VRB02KT CAVOK"
    },
    {
      "icao": "LZTT",
      "alert": "OK",
      "vis_m": 9999,
      "fzfg": false,
      "metar_trigger": false,
      "taf_trigger": false,
      "metar": "METAR LZTT 220100Z VRB02KT CAVOK M07/M13 Q1004",
      "taf": "TAF LZTT 212317Z 2200/2300 VRB02KT CAVOK"
    },
    {
      "icao": "OEJN",
      "alert": "OK",
      "vis_m": 7000,
      "fzfg": false,
      "metar_trigger": false,
      "taf_trigger": false,
      "metar": "METAR OEJN 220100Z 06010KT 7000 NSC 26/M02 Q1011 NOSIG",
      "taf": "TAF OEJN 212300Z 2200/2306 09016KT 7000 NSC"
    },
    {
      "icao": "OEMA",
      "alert": "OK",
      "vis_m": 9999,
      "fzfg": false,
      "metar_trigger": false,
      "taf_trigger": false,
      "metar": "METAR OEMA 220100Z 07012KT CAVOK 12/M06 Q1024 NOSIG",
      "taf": "TAF OEMA 212300Z 2200/2306 08016KT 7000 NSC"
    },
    {
      "icao": "OJAI",
      "alert": "OK",
      "vis_m": 4000,
      "fzfg": false,
      "metar_trigger": false,
      "taf_trigger": false,
      "metar": "METAR OJAI 220000Z 09019KT 4000 BLDU NSC 06/M01 Q1022 NOSIG",
      "taf": "TAF OJAI 212300Z 2200/2306 11014KT 5000 HZ FEW035"
    },
    {
      "icao": "OMAA",
      "alert": "OK",
      "vis_m": 9999,
      "fzfg": false,
      "metar_trigger": false,
      "taf_trigger": false,
      "metar": "METAR OMAA 220100Z 30016KT 9999 SCT045 17/07 Q1019 NOSIG",
      "taf": "TAF OMAA 212300Z 2200/2306 30015KT 8000 FEW040"
    },
    {
      "icao": "OMDB",
      "alert": "OK",
      "vis_m": 9999,
      "fzfg": false,
      "metar_trigger": false,
      "taf_trigger": false,
      "metar": "METAR OMDB 220100Z 29016KT 250V310 9999 SCT045 17/06 Q1018 NOSIG",
      "taf": "TAF OMDB 212300Z 2200/2306 28016KT 8000 FEW045"
    },
    {
      "icao": "UAAA",
      "alert": "OK",
      "vis_m": 3100,
      "fzfg": false,
      "metar_trigger": false,
      "taf_trigger": false,
      "metar": "METAR UAAA 220100Z 00000MPS 3100 BR BKN003 OVC100 M13/M14 Q1010 NOSIG RMK QBB110",
      "taf": "TAF UAAA 212300Z 2200/2224 24003MPS 1400 BR FU SCT011 BKN050 TXM04/2208Z TNM14/2202Z"
    },
    {
      "icao": "UBBB",
      "alert": "OK",
      "vis_m": 9999,
      "fzfg": false,
      "metar_trigger": false,
      "taf_trigger": false,
      "metar": "METAR UBBB 220100Z 16008KT CAVOK 02/00 Q1024 NOSIG",
      "taf": "TAF UBBB 212300Z 2200/2224 19012KT CAVOK TX06/2210Z TN00/2201Z"
    },
    {
      "icao": "UDSG",
      "alert": "OK",
      "vis_m": 9999,
      "fzfg": false,
      "metar_trigger": false,
      "taf_trigger": false,
      "metar": "METAR UDSG 220100Z 17001KT 9999 NSC M19/M21 Q1024 NOSIG",
      "taf": "TAF UDSG 212300Z 2200/2224 VRB06KT 9999 FEW050"
    },
    {
      "icao": "UDYZ",
      "alert": "OK",
      "vis_m": 3200,
      "fzfg": false,
      "metar_trigger": false,
      "taf_trigger": false,
      "metar": "METAR UDYZ 220100Z 16001KT 3200 BR NSC M09/M10 Q1028 NOSIG",
      "taf": "TAF UDYZ 212300Z 2200/2224 VRB04KT 6000 NSC"
    },
    {
      "icao": "UGKO",
      "alert": "OK",
      "vis_m": 9999,
      "fzfg": false,
      "metar_trigger": false,
      "taf_trigger": false,
      "metar": "METAR UGKO 220100Z 08015KT CAVOK 00/M04 Q1021 NOSIG",
      "taf": "TAF UGKO 212300Z 2200/2224 08010KT CAVOK TX08/2211Z TNM01/2204Z"
    }
  ]
}