{
  "ts_utc": "2026-02-16T20:41:19Z",
  "threshold_m": 150,
  "source": "stations_override.txt (ICAO list) + aviationweather.gov (METAR/TAF raw)",
  "station_count": 159,
  "stations": [
    {
      "icao": "BIKF",
      "alert": "OK",
      "vis_m": 9999,
      "fzfg": false,
      "metar_trigger": false,
      "taf_trigger": false,
      "metar": "METAR BIKF 162030Z 07005KT CAVOK M04/M10 Q1013",
      "taf": "TAF BIKF 161933Z 1621/1721 02010KT 9999 FEW025 TXM01/1714Z TNM06/1623Z"
    },
    {
      "icao": "BKPR",
      "alert": "OK",
      "vis_m": 9000,
      "fzfg": false,
      "metar_trigger": false,
      "taf_trigger": false,
      "metar": "METAR BKPR 162030Z 14007KT 9000 BKN045 07/02 Q1001 NOSIG",
      "taf": "TAF BKPR 161730Z 1618/1718 23010KT 9999 SCT030 BKN080"
    },
    {
      "icao": "EBCI",
      "alert": "OK",
      "vis_m": 9999,
      "fzfg": false,
      "metar_trigger": false,
      "taf_trigger": false,
      "metar": "METAR EBCI 162020Z 28006KT 240V320 9999 FEW009 BKN029 03/02 Q1000 NOSIG",
      "taf": "TAF EBCI 161710Z 1618/1724 26013KT 9999 FEW015TCU SCT030"
    },
    {
      "icao": "EDDB",
      "alert": "OK",
      "vis_m": 9999,
      "fzfg": false,
      "metar_trigger": false,
      "taf_trigger": false,
      "metar": "METAR EDDB 162020Z AUTO 10007KT 9999 BKN012 BKN016 BKN031 M04/M06 Q0997 NOSIG",
      "taf": "TAF EDDB 161700Z 1618/1718 09006KT 8000 BKN012"
    },
    {
      "icao": "EDDH",
      "alert": "OK",
      "vis_m": 7000,
      "fzfg": false,
      "metar_trigger": false,
      "taf_trigger": false,
      "metar": "METAR EDDH 162020Z AUTO 11008KT 090V150 7000 -SN OVC015 M03/M04 Q0996 TEMPO 1400 SN BKN008",
      "taf": "TAF EDDH 161700Z 1618/1724 11010KT 8000 OVC013"
    },
    {
      "icao": "EDDK",
      "alert": "OK",
      "vis_m": 9999,
      "fzfg": false,
      "metar_trigger": false,
      "taf_trigger": false,
      "metar": "METAR EDDK 162020Z AUTO 16005KT 9999 -RA FEW020 BKN035 BKN045 03/03 Q0997 TEMPO SHRA BKN015TCU",
      "taf": ""
    },
    {
      "icao": "EDDN",
      "alert": "OK",
      "vis_m": 9999,
      "fzfg": false,
      "metar_trigger": false,
      "taf_trigger": false,
      "metar": "METAR EDDN 162020Z AUTO 27013KT 9999 BKN016 BKN033 03/01 Q0998 BECMG 25008KT",
      "taf": ""
    },
    {
      "icao": "EDDS",
      "alert": "OK",
      "vis_m": 9999,
      "fzfg": false,
      "metar_trigger": false,
      "taf_trigger": false,
      "metar": "METAR EDDS 162020Z AUTO 19003KT 9999 FEW045 03/02 Q1000 NOSIG",
      "taf": "TAF EDDS 161700Z 1618/1718 24010KT 9999 BKN020"
    },
    {
      "icao": "EDFH",
      "alert": "OK",
      "vis_m": 9999,
      "fzfg": false,
      "metar_trigger": false,
      "taf_trigger": false,
      "metar": "METAR EDFH 162020Z 25012KT 9999 -RA BKN009 BKN021 03/02 Q0997",
      "taf": "TAF EDFH 161700Z 1618/1718 27012KT 9999 BKN006"
    },
    {
      "icao": "EDJA",
      "alert": "OK",
      "vis_m": 9999,
      "fzfg": false,
      "metar_trigger": false,
      "taf_trigger": false,
      "metar": "METAR EDJA 162020Z 22013KT 9999 FEW009 BKN026 BKN036 01/M00 Q1001",
      "taf": "TAF EDJA 161700Z 1618/1703 24010KT 9999 SCT007 BKN015"
    },
    {
      "icao": "EDLW",
      "alert": "OK",
      "vis_m": 9999,
      "fzfg": false,
      "metar_trigger": false,
      "taf_trigger": false,
      "metar": "METAR EDLW 162020Z 22009KT 9999 FEW018 BKN030 03/02 Q0996",
      "taf": "TAF EDLW 161700Z 1618/1718 23009KT 9999 SCT012 BKN020"
    },
    {
      "icao": "EDNY",
      "alert": "OK",
      "vis_m": 9999,
      "fzfg": false,
      "metar_trigger": false,
      "taf_trigger": false,
      "metar": "METAR EDNY 162020Z 15004KT 120V190 9999 FEW014 BKN041 03/02 Q1003",
      "taf": "TAF EDNY 161700Z 1618/1703 24012KT 9999 SCT012 BKN015"
    },
    {
      "icao": "EDSB",
      "alert": "OK",
      "vis_m": 7000,
      "fzfg": false,
      "metar_trigger": false,
      "taf_trigger": false,
      "metar": "METAR EDSB 162020Z 25008KT 210V310 7000 RA FEW014 BKN027 OVC048 05/03 Q1002",
      "taf": "TAF EDSB 161700Z 1618/1718 23009KT 9999 BKN020"
    },
    {
      "icao": "EETN",
      "alert": "OK",
      "vis_m": 9999,
      "fzfg": false,
      "metar_trigger": false,
      "taf_trigger": false,
      "metar": "METAR EETN 162020Z 14003KT 100V220 9999 OVC022 M07/M10 Q1013 NOSIG",
      "taf": "TAF EETN 161730Z 1618/1718 VRB02KT 9999 OVC020"
    },
    {
      "icao": "EFTU",
      "alert": "OK",
      "vis_m": 6000,
      "fzfg": false,
      "metar_trigger": false,
      "taf_trigger": false,
      "metar": "METAR EFTU 162020Z AUTO 12004KT 6000 OVC001 M11/M11 Q1013 REFZDZ",
      "taf": ""
    },
    {
      "icao": "EGBB",
      "alert": "OK",
      "vis_m": 9999,
      "fzfg": false,
      "metar_trigger": false,
      "taf_trigger": false,
      "metar": "METAR EGBB 162020Z 31017KT 9999 BKN025 06/02 Q1002",
      "taf": "TAF EGBB 161656Z 1618/1718 27011KT 9999 SCT025"
    },
    {
      "icao": "EGGP",
      "alert": "OK",
      "vis_m": 9999,
      "fzfg": false,
      "metar_trigger": false,
      "taf_trigger": false,
      "metar": "METAR EGGP 162020Z 31016KT 280V340 9999 FEW040 05/M00 Q1003",
      "taf": "TAF EGGP 161702Z 1618/1718 31016KT 9999 SCT020"
    },
    {
      "icao": "EGGW",
      "alert": "OK",
      "vis_m": 9999,
      "fzfg": false,
      "metar_trigger": false,
      "taf_trigger": false,
      "metar": "METAR EGGW 162020Z AUTO 29013KT 9999 BKN037 05/03 Q1001",
      "taf": "TAF EGGW 161651Z 1618/1718 29012KT 9999 SCT030"
    },
    {
      "icao": "EGKK",
      "alert": "OK",
      "vis_m": 9999,
      "fzfg": false,
      "metar_trigger": false,
      "taf_trigger": false,
      "metar": "METAR EGKK 162020Z 28008KT 9999 FEW015 SCT033 07/04 Q1002",
      "taf": "TAF EGKK 161659Z 1618/1724 28012KT 9999 FEW040"
    },
    {
      "icao": "EGNM",
      "alert": "OK",
      "vis_m": 9999,
      "fzfg": false,
      "metar_trigger": false,
      "taf_trigger": false,
      "metar": "METAR EGNM 162020Z 28016KT 9999 -SHRA SCT012 BKN030 04/02 Q0999",
      "taf": "TAF EGNM 161701Z 1618/1718 29015KT 9999 FEW015 SCT025"
    },
    {
      "icao": "EGPD",
      "alert": "OK",
      "vis_m": 9999,
      "fzfg": false,
      "metar_trigger": false,
      "taf_trigger": false,
      "metar": "METAR EGPD 162020Z COR AUTO 30015KT 9999 NCD 02/M03 Q0998 NOSIG",
      "taf": ""
    },
    {
      "icao": "EGPF",
      "alert": "OK",
      "vis_m": 9999,
      "fzfg": false,
      "metar_trigger": false,
      "taf_trigger": false,
      "metar": "METAR EGPF 162020Z AUTO 26005KT 9999 NCD 01/M03 Q1003",
      "taf": ""
    },
    {
      "icao": "EHBK",
      "alert": "OK",
      "vis_m": 9999,
      "fzfg": false,
      "metar_trigger": false,
      "taf_trigger": false,
      "metar": "METAR EHBK 162025Z AUTO 23007KT 9999 -RA SCT001/// BKN003/// OVC008/// 01/01 Q0998 REDZRA TEMPO 7000 SHRA BKN008 SCT015CB",
      "taf": "TAF EHBK 161720Z 1618/1724 24007KT 9999 BKN025"
    },
    {
      "icao": "EHEH",
      "alert": "OK",
      "vis_m": 9999,
      "fzfg": false,
      "metar_trigger": false,
      "taf_trigger": false,
      "metar": "METAR EHEH 162025Z AUTO 24008KT 210V280 9999 FEW027 SCT085 OVC120 03/02 Q0998 REDZ BLU TEMPO 4500 SHRAGS SCT008 SCT012CB BKN018 RMK TREND REMOTE BY EHWX",
      "taf": "TAF EHEH 161815Z 1618/1800 26008KT 9999 SCT016 BKN025"
    },
    {
      "icao": "EKBI",
      "alert": "OK",
      "vis_m": 9999,
      "fzfg": false,
      "metar_trigger": false,
      "taf_trigger": false,
      "metar": "METAR EKBI 162018Z 11010KT 080V140 9999 -SN DRSN OVC016 M04/M07 Q0998",
      "taf": "TAF EKBI 162027Z 1621/1721 11012KT 9999 -SN BKN016"
    },
    {
      "icao": "EKCH",
      "alert": "OK",
      "vis_m": 9999,
      "fzfg": false,
      "metar_trigger": false,
      "taf_trigger": false,
      "metar": "METAR EKCH 162020Z AUTO 11016KT 9999 BKN032/// M03/M08 Q1001 NOSIG",
      "taf": "TAF EKCH 162027Z 1621/1721 11018KT 9999 FEW030"
    },
    {
      "icao": "ENAL",
      "alert": "OK",
      "vis_m": 9999,
      "fzfg": false,
      "metar_trigger": false,
      "taf_trigger": false,
      "metar": "METAR ENAL 162020Z 21007KT CAVOK 02/M09 Q0997",
      "taf": "TAF ENAL 162000Z 1621/1706 19009KT 9999 BKN050"
    },
    {
      "icao": "ENBR",
      "alert": "OK",
      "vis_m": 9999,
      "fzfg": false,
      "metar_trigger": false,
      "taf_trigger": false,
      "metar": "METAR ENBR 162020Z 13009KT 9999 SCT038 00/M09 Q0998 TEMPO 4500 -SN VV014 RMK WIND 1200FT 12019KT",
      "taf": ""
    },
    {
      "icao": "ENGM",
      "alert": "OK",
      "vis_m": 9999,
      "fzfg": false,
      "metar_trigger": false,
      "taf_trigger": false,
      "metar": "METAR ENGM 162020Z 02003KT CAVOK M10/M12 Q1005 NOSIG",
      "taf": "TAF ENGM 161700Z 1618/1718 04005KT 9999 FEW020"
    },
    {
      "icao": "ENHD",
      "alert": "OK",
      "vis_m": 9000,
      "fzfg": false,
      "metar_trigger": false,
      "taf_trigger": false,
      "metar": "METAR ENHD 162020Z 10016KT 9000 -SN OVC033 M02/M05 Q0997",
      "taf": "TAF ENHD 161400Z 1615/1623 11015KT 9999 BKN040"
    },
    {
      "icao": "ENTC",
      "alert": "OK",
      "vis_m": 9999,
      "fzfg": false,
      "metar_trigger": false,
      "taf_trigger": false,
      "metar": "METAR ENTC 162020Z 21010KT CAVOK M05/M09 Q0996 NOSIG RMK WIND 2600FT 18009KT",
      "taf": "TAF ENTC 161700Z 1618/1718 20006KT 9999 SCT050"
    },
    {
      "icao": "ENTO",
      "alert": "OK",
      "vis_m": 9999,
      "fzfg": false,
      "metar_trigger": false,
      "taf_trigger": false,
      "metar": "METAR ENTO 162020Z 01004KT CAVOK M06/M11 Q1004 NOSIG",
      "taf": "TAF ENTO 161700Z 1618/1718 08005KT 9999 FEW020"
    },
    {
      "icao": "ENVA",
      "alert": "OK",
      "vis_m": 9999,
      "fzfg": false,
      "metar_trigger": false,
      "taf_trigger": false,
      "metar": "METAR ENVA 162020Z 09007KT 040V120 CAVOK M04/M13 Q0999 TEMPO 16015G25KT RMK WIND 670FT 16018KT",
      "taf": ""
    },
    {
      "icao": "ENZV",
      "alert": "OK",
      "vis_m": 9999,
      "fzfg": false,
      "metar_trigger": false,
      "taf_trigger": false,
      "metar": "METAR ENZV 162020Z 11010KT 080V140 9999 FEW038 M00/M09 Q0997 NOSIG",
      "taf": ""
    },
    {
      "icao": "EPGD",
      "alert": "OK",
      "vis_m": 9999,
      "fzfg": false,
      "metar_trigger": false,
      "taf_trigger": false,
      "metar": "METAR EPGD 162030Z 09012KT CAVOK M10/M16 Q1004",
      "taf": "TAF EPGD 161730Z 1618/1718 09010KT CAVOK"
    },
    {
      "icao": "EPKK",
      "alert": "OK",
      "vis_m": 4000,
      "fzfg": false,
      "metar_trigger": false,
      "taf_trigger": false,
      "metar": "METAR EPKK 162030Z 05005KT 4000 -SN BR OVC028 M05/M06 Q0999 RESN",
      "taf": "TAF EPKK 162030Z 1621/1721 05005KT 5000 BR FEW012 BKN030"
    },
    {
      "icao": "EPKT",
      "alert": "OK",
      "vis_m": 4300,
      "fzfg": false,
      "metar_trigger": false,
      "taf_trigger": false,
      "metar": "METAR EPKT 162030Z 13006KT 4300 -SN BR BKN013 M05/M06 Q0998",
      "taf": ""
    },
    {
      "icao": "EPLB",
      "alert": "OK",
      "vis_m": 9999,
      "fzfg": false,
      "metar_trigger": false,
      "taf_trigger": false,
      "metar": "METAR EPLB 162030Z 10011KT 9999 OVC036 M09/M12 Q1004",
      "taf": "TAF EPLB 161730Z 1618/1718 10012KT CAVOK"
    },
    {
      "icao": "EPMO",
      "alert": "OK",
      "vis_m": 9999,
      "fzfg": false,
      "metar_trigger": false,
      "taf_trigger": false,
      "metar": "METAR EPMO 162030Z 08012KT CAVOK M07/M11 Q1003",
      "taf": "TAF EPMO 161730Z 1618/1718 10012KT CAVOK"
    },
    {
      "icao": "EPPO",
      "alert": "OK",
      "vis_m": 9999,
      "fzfg": false,
      "metar_trigger": false,
      "taf_trigger": false,
      "metar": "METAR EPPO 162030Z 09011KT 9999 -SN BKN016 M06/M09 Q0999",
      "taf": "TAF EPPO 161730Z 1618/1718 09008KT 9999 BKN020"
    },
    {
      "icao": "EPRA",
      "alert": "OK",
      "vis_m": 8000,
      "fzfg": false,
      "metar_trigger": false,
      "taf_trigger": false,
      "metar": "METAR EPRA 162030Z 10010KT 8000 -SN BKN036 M07/M11 Q1002",
      "taf": "TAF EPRA 162030Z 1621/1706 10008KT 5000 -SN BKN025"
    },
    {
      "icao": "EPRZ",
      "alert": "OK",
      "vis_m": 9999,
      "fzfg": false,
      "metar_trigger": false,
      "taf_trigger": false,
      "metar": "METAR EPRZ 162030Z 08011KT 9999 FEW027 M06/M09 Q1001",
      "taf": "TAF EPRZ 161730Z 1618/1718 09010KT 9999 BKN020"
    },
    {
      "icao": "EPSC",
      "alert": "OK",
      "vis_m": 9999,
      "fzfg": false,
      "metar_trigger": false,
      "taf_trigger": false,
      "metar": "METAR EPSC 162030Z 09007KT CAVOK M06/M13 Q1000",
      "taf": "TAF EPSC 161730Z 1618/1718 11010KT CAVOK"
    },
    {
      "icao": "EPSY",
      "alert": "OK",
      "vis_m": 9999,
      "fzfg": false,
      "metar_trigger": false,
      "taf_trigger": false,
      "metar": "METAR EPSY 162030Z 09005KT 340V150 CAVOK M10/M20 Q1005",
      "taf": "TAF EPSY 162030Z 1621/1706 09008KT CAVOK"
    },
    {
      "icao": "EPWA",
      "alert": "OK",
      "vis_m": 9999,
      "fzfg": false,
      "metar_trigger": false,
      "taf_trigger": false,
      "metar": "METAR EPWA 162030Z 10012KT CAVOK M07/M12 Q1003 NOSIG",
      "taf": "TAF EPWA 162030Z 1621/1721 09012KT CAVOK"
    },
    {
      "icao": "EPWR",
      "alert": "OK",
      "vis_m": 6000,
      "fzfg": false,
      "metar_trigger": false,
      "taf_trigger": false,
      "metar": "METAR EPWR 162030Z 11006KT 6000 BKN026 M03/M04 Q0997",
      "taf": "TAF EPWR 162030Z 1621/1721 11006KT 8000 -SN FEW012 OVC025"
    },
    {
      "icao": "ESGG",
      "alert": "OK",
      "vis_m": 9999,
      "fzfg": false,
      "metar_trigger": false,
      "taf_trigger": false,
      "metar": "METAR ESGG 162020Z 12014KT CAVOK M05/M10 Q1003",
      "taf": "TAF ESGG 162030Z 1621/1721 11012KT CAVOK"
    },
    {
      "icao": "ESKN",
      "alert": "OK",
      "vis_m": 9999,
      "fzfg": false,
      "metar_trigger": false,
      "taf_trigger": false,
      "metar": "METAR ESKN 162020Z 14012KT 9999 BKN027 M03/M08 Q1009",
      "taf": "TAF ESKN 162030Z 1621/1721 14011KT 9999 BKN025"
    },
    {
      "icao": "ESMS",
      "alert": "OK",
      "vis_m": 9999,
      "fzfg": false,
      "metar_trigger": false,
      "taf_trigger": false,
      "metar": "METAR ESMS 162020Z 11012KT 9999 FEW028 M04/M10 Q1001",
      "taf": "TAF ESMS 162027Z 1621/1721 12012KT CAVOK"
    },
    {
      "icao": "ESSA",
      "alert": "OK",
      "vis_m": 9999,
      "fzfg": false,
      "metar_trigger": false,
      "taf_trigger": false,
      "metar": "METAR ESSA 162020Z 08003KT 9999 FEW027 M08/M11 Q1010 NOSIG",
      "taf": "TAF ESSA 162030Z 1621/1721 10004KT 9999 SCT025"
    },
    {
      "icao": "EYKA",
      "alert": "OK",
      "vis_m": 9999,
      "fzfg": false,
      "metar_trigger": false,
      "taf_trigger": false,
      "metar": "METAR EYKA 162020Z 08006KT CAVOK M15/M19 Q1010",
      "taf": "TAF EYKA 161707Z 1618/1718 08006KT 9000 NSC"
    },
    {
      "icao": "EYPA",
      "alert": "OK",
      "vis_m": 9999,
      "fzfg": false,
      "metar_trigger": false,
      "taf_trigger": false,
      "metar": "METAR EYPA 162020Z 10007KT CAVOK M10/M14 Q1010",
      "taf": "TAF EYPA 161706Z 1618/1718 11007KT 9000 NSC"
    },
    {
      "icao": "EYVI",
      "alert": "OK",
      "vis_m": 9999,
      "fzfg": false,
      "metar_trigger": false,
      "taf_trigger": false,
      "metar": "METAR EYVI 162020Z 09007KT CAVOK M13/M20 Q1009 NOSIG",
      "taf": "TAF EYVI 161707Z 1618/1718 08008KT 9000 NSC"
    },
    {
      "icao": "GCFV",
      "alert": "OK",
      "vis_m": 9999,
      "fzfg": false,
      "metar_trigger": false,
      "taf_trigger": false,
      "metar": "METAR GCFV 162030Z 36006KT 9999 FEW009 18/15 Q1027",
      "taf": "TAF GCFV 162000Z 1621/1721 34005KT 9999 FEW010 TX23/1714Z TN16/1706Z"
    },
    {
      "icao": "GCLP",
      "alert": "OK",
      "vis_m": 6000,
      "fzfg": false,
      "metar_trigger": false,
      "taf_trigger": false,
      "metar": "METAR GCLP 162030Z 34007KT 310V020 6000 NSC 18/11 Q1027 NOSIG",
      "taf": "TAF GCLP 162000Z 1621/1721 36005KT 6000 NSC TX24/1714Z TN17/1706Z"
    },
    {
      "icao": "GCTS",
      "alert": "OK",
      "vis_m": 3000,
      "fzfg": false,
      "metar_trigger": false,
      "taf_trigger": false,
      "metar": "METAR GCTS 162030Z 08007KT 3000 HZ NSC 20/02 Q1027 NOSIG",
      "taf": "TAF GCTS 162000Z 1621/1721 05005KT 4000 HZ NSC TX27/1714Z TN18/1706Z"
    },
    {
      "icao": "GMAD",
      "alert": "OK",
      "vis_m": 9999,
      "fzfg": false,
      "metar_trigger": false,
      "taf_trigger": false,
      "metar": "METAR GMAD 162030Z 14003KT CAVOK 13/08 Q1026 NOSIG",
      "taf": "TAF GMAD 161700Z 1618/1724 20010KT CAVOK"
    },
    {
      "icao": "GMMN",
      "alert": "OK",
      "vis_m": 9999,
      "fzfg": false,
      "metar_trigger": false,
      "taf_trigger": false,
      "metar": "METAR GMMN 162030Z 04010KT 9999 3000N NSC 12/10 Q1030 TEMPO 4000 BR",
      "taf": "TAF GMMN 161700Z 1618/1724 03010KT CAVOK"
    },
    {
      "icao": "GMMX",
      "alert": "OK",
      "vis_m": 9999,
      "fzfg": false,
      "metar_trigger": false,
      "taf_trigger": false,
      "metar": "METAR GMMX 162030Z 10007KT CAVOK 14/05 Q1028 NOSIG",
      "taf": "TAF GMMX 161700Z 1618/1724 06006KT CAVOK"
    },
    {
      "icao": "HEGN",
      "alert": "OK",
      "vis_m": 4000,
      "fzfg": false,
      "metar_trigger": false,
      "taf_trigger": false,
      "metar": "METAR HEGN 162000Z 17006KT 4000 HZ NSC 21/15 Q1011 NOSIG",
      "taf": ""
    },
    {
      "icao": "HEMA",
      "alert": "OK",
      "vis_m": 9999,
      "fzfg": false,
      "metar_trigger": false,
      "taf_trigger": false,
      "metar": "METAR HEMA 162000Z 16003KT CAVOK 22/20 Q1011 NOSIG",
      "taf": "TAF HEMA 161700Z 1618/1724 29010KT CAVOK"
    },
    {
      "icao": "HESH",
      "alert": "OK",
      "vis_m": 9999,
      "fzfg": false,
      "metar_trigger": false,
      "taf_trigger": false,
      "metar": "METAR HESH 162000Z 27004KT CAVOK 23/04 Q1012 NOSIG",
      "taf": "TAF HESH 161700Z 1618/1724 35010KT CAVOK"
    },
    {
      "icao": "HESX",
      "alert": "OK",
      "vis_m": 9999,
      "fzfg": false,
      "metar_trigger": false,
      "taf_trigger": false,
      "metar": "METAR HESX 162000Z 32009KT CAVOK 17/12 Q1014 NOSIG",
      "taf": "TAF HESX 161700Z 1618/1724 18010KT CAVOK"
    },
    {
      "icao": "LATI",
      "alert": "OK",
      "vis_m": 9999,
      "fzfg": false,
      "metar_trigger": false,
      "taf_trigger": false,
      "metar": "METAR LATI 162020Z 16007KT 9999 BKN072 10/05 Q1002 NOSIG",
      "taf": "TAF LATI 161700Z 1618/1718 VRB03KT 9999 SCT040 BKN070 TX14/1712Z TN07/1718Z"
    },
    {
      "icao": "LBPD",
      "alert": "OK",
      "vis_m": 9999,
      "fzfg": false,
      "metar_trigger": false,
      "taf_trigger": false,
      "metar": "METAR LBPD 162030Z AUTO 11008KT 9999 FEW005/// 06/06 Q1003",
      "taf": "TAF LBPD 161700Z 1618/1718 VRB04KT 9999 SCT020 BKN040"
    },
    {
      "icao": "LBSF",
      "alert": "OK",
      "vis_m": 3500,
      "fzfg": false,
      "metar_trigger": false,
      "taf_trigger": false,
      "metar": "METAR LBSF 162030Z AUTO 13003KT 090V200 3500 BR NSC 01/01 Q1002 NOSIG",
      "taf": ""
    },
    {
      "icao": "LBWN",
      "alert": "OK",
      "vis_m": 7000,
      "fzfg": false,
      "metar_trigger": false,
      "taf_trigger": false,
      "metar": "METAR LBWN 162030Z AUTO 26003KT 7000 FEW011/// OVC020/// 04/04 Q1005 NOSIG",
      "taf": "TAF LBWN 161700Z 1618/1718 12008KT 9999 SCT010 OVC025"
    },
    {
      "icao": "LCLK",
      "alert": "OK",
      "vis_m": 7000,
      "fzfg": false,
      "metar_trigger": false,
      "taf_trigger": false,
      "metar": "METAR LCLK 162030Z 30006KT 7000 FEW060 16/14 Q1010 NOSIG",
      "taf": "TAF LCLK 161730Z 1618/1718 33005KT 8000 FEW035"
    },
    {
      "icao": "LCPH",
      "alert": "OK",
      "vis_m": 9000,
      "fzfg": false,
      "metar_trigger": false,
      "taf_trigger": false,
      "metar": "METAR LCPH 162030Z 13007KT 090V160 9000 NSC 18/11 Q1009 NOSIG",
      "taf": "TAF LCPH 161730Z 1618/1718 10010KT 7000 FEW020"
    },
    {
      "icao": "LEAL",
      "alert": "OK",
      "vis_m": 9999,
      "fzfg": false,
      "metar_trigger": false,
      "taf_trigger": false,
      "metar": "METAR LEAL 162030Z 27020KT 9999 FEW010 19/09 Q1020 NOSIG",
      "taf": "TAF LEAL 161700Z 1618/1718 29012KT 9999 FEW040 TX24/1713Z TN15/1706Z"
    },
    {
      "icao": "LEBB",
      "alert": "OK",
      "vis_m": 6000,
      "fzfg": false,
      "metar_trigger": false,
      "taf_trigger": false,
      "metar": "METAR LEBB 162030Z 26009KT 200V300 6000 RA SCT016 BKN026 OVC040 11/10 Q1023 TEMPO 3000",
      "taf": "TAF LEBB 161700Z 1618/1718 29009KT 9999 SCT010 BKN020 TX14/1715Z TN10/1706Z"
    },
    {
      "icao": "LEBL",
      "alert": "OK",
      "vis_m": 9999,
      "fzfg": false,
      "metar_trigger": false,
      "taf_trigger": false,
      "metar": "METAR LEBL 162000Z 03003KT 9999 FEW060 17/11 Q1012 NOSIG",
      "taf": "TAF LEBL 161700Z 1618/1718 29008KT 9999 FEW030 TX19/1713Z TN10/1706Z"
    },
    {
      "icao": "LECH",
      "alert": "OK",
      "vis_m": 9999,
      "fzfg": false,
      "metar_trigger": false,
      "taf_trigger": false,
      "metar": "METAR LECH 162030Z AUTO 23005KT 190V290 9999 OVC060 19/07 Q1016",
      "taf": ""
    },
    {
      "icao": "LEMD",
      "alert": "OK",
      "vis_m": 9999,
      "fzfg": false,
      "metar_trigger": false,
      "taf_trigger": false,
      "metar": "METAR LEMD 162030Z 21018KT 9999 FEW070 14/09 Q1023 NOSIG",
      "taf": ""
    },
    {
      "icao": "LEMG",
      "alert": "OK",
      "vis_m": 9999,
      "fzfg": false,
      "metar_trigger": false,
      "taf_trigger": false,
      "metar": "METAR LEMG 162030Z 28015KT 250V320 9999 FEW040 14/08 Q1027 NOSIG",
      "taf": "TAF LEMG 161700Z 1618/1718 29015KT 9999 FEW040 TX24/1714Z TN11/1707Z"
    },
    {
      "icao": "LEVC",
      "alert": "OK",
      "vis_m": 9999,
      "fzfg": false,
      "metar_trigger": false,
      "taf_trigger": false,
      "metar": "METAR LEVC 162030Z 25023KT 210V270 CAVOK 17/09 Q1018 NOSIG",
      "taf": "TAF LEVC 161700Z 1618/1718 27012KT 9999 FEW040 TX24/1714Z TN16/1706Z"
    },
    {
      "icao": "LEXJ",
      "alert": "OK",
      "vis_m": 2900,
      "fzfg": false,
      "metar_trigger": false,
      "taf_trigger": false,
      "metar": "METAR LEXJ 162030Z 27009KT 240V300 2900 RA BR SCT020 BKN030 OVC036 12/10 Q1023",
      "taf": "TAF LEXJ 162000Z 1621/1721 27009KT 9000 SCT020 BKN030 TX15/1714Z TN11/1706Z"
    },
    {
      "icao": "LEZG",
      "alert": "OK",
      "vis_m": 9999,
      "fzfg": false,
      "metar_trigger": false,
      "taf_trigger": false,
      "metar": "METAR LEZG 162030Z 27011KT 9999 BKN060 BKN070 14/13 Q1019 NOSIG",
      "taf": "TAF LEZG 161700Z 1618/1718 29014KT 9999 SCT040 TX18/1714Z TN10/1706Z"
    },
    {
      "icao": "LEZL",
      "alert": "OK",
      "vis_m": 9999,
      "fzfg": false,
      "metar_trigger": false,
      "taf_trigger": false,
      "metar": "METAR LEZL 162030Z 30007KT 9999 FEW040 15/11 Q1030 NOSIG",
      "taf": "TAF LEZL 162000Z 1621/1721 VRB02KT CAVOK TX19/1715Z TN08/1707Z"
    },
    {
      "icao": "LFBD",
      "alert": "OK",
      "vis_m": 9999,
      "fzfg": false,
      "metar_trigger": false,
      "taf_trigger": false,
      "metar": "METAR LFBD 162030Z AUTO 30012KT CAVOK 10/06 Q1017 TEMPO 29020G30KT 4000 SHRA BKN008 BKN020TCU",
      "taf": "TAF LFBD 161700Z 1618/1724 28015KT 9999 BKN020 TX13/1713Z TN07/1706Z"
    },
    {
      "icao": "LFLL",
      "alert": "OK",
      "vis_m": 9999,
      "fzfg": false,
      "metar_trigger": false,
      "taf_trigger": false,
      "metar": "METAR LFLL 162030Z 29008KT 250V320 9999 FEW030TCU SCT030 BKN050 08/03 Q1008 TEMPO 30015G25KT 4000 SHRA FEW040CB",
      "taf": "TAF LFLL 161700Z 1618/1724 27008KT 9999 SCT046 BKN240"
    },
    {
      "icao": "LFLS",
      "alert": "OK",
      "vis_m": 9999,
      "fzfg": false,
      "metar_trigger": false,
      "taf_trigger": false,
      "metar": "METAR LFLS 162030Z AUTO 23006KT 9999 FEW038/// BKN047/// BKN060/// ///TCU 06/04 Q1009",
      "taf": "TAF LFLS 161400Z 1615/1715 VRB05KT 9999 FEW030TCU BKN050"
    },
    {
      "icao": "LFMN",
      "alert": "OK",
      "vis_m": 9999,
      "fzfg": false,
      "metar_trigger": false,
      "taf_trigger": false,
      "metar": "METAR LFMN 162030Z 26021KT CAVOK 12/03 Q1003 NOSIG",
      "taf": "TAF LFMN 162000Z 1621/1803 27020KT CAVOK"
    },
    {
      "icao": "LFOB",
      "alert": "OK",
      "vis_m": 9999,
      "fzfg": false,
      "metar_trigger": false,
      "taf_trigger": false,
      "metar": "METAR LFOB 162030Z AUTO 28016KT 9999 SCT029 SCT041 BKN066 07/04 Q1004 TEMPO 30015G25KT 2500 -TSRA BKN012 BKN020CB",
      "taf": "TAF LFOB 161700Z 1618/1718 30012KT 9999 BKN030"
    },
    {
      "icao": "LFPO",
      "alert": "OK",
      "vis_m": 9999,
      "fzfg": false,
      "metar_trigger": false,
      "taf_trigger": false,
      "metar": "METAR LFPO 162030Z 26011KT 9999 FEW034 SCT045 07/04 Q1005 NOSIG",
      "taf": ""
    },
    {
      "icao": "LFSB",
      "alert": "OK",
      "vis_m": 9999,
      "fzfg": false,
      "metar_trigger": false,
      "taf_trigger": false,
      "metar": "METAR LFSB 162030Z AUTO 23006KT 9999 FEW030/// BKN062/// BKN100/// ///TCU 05/03 Q1004 TEMPO 26015G25KT 4000 SHRA SCT025CB",
      "taf": "TAF LFSB 161700Z 1618/1718 25012KT 9999 SCT030 BKN050"
    },
    {
      "icao": "LGAV",
      "alert": "OK",
      "vis_m": 9999,
      "fzfg": false,
      "metar_trigger": false,
      "taf_trigger": false,
      "metar": "METAR LGAV 162020Z 25010KT 9999 FEW025 13/06 Q1006 NOSIG",
      "taf": "TAF LGAV 161700Z 1618/1718 26014KT 9999 SCT020"
    },
    {
      "icao": "LGTS",
      "alert": "OK",
      "vis_m": 9999,
      "fzfg": false,
      "metar_trigger": false,
      "taf_trigger": false,
      "metar": "METAR LGTS 162020Z VRB03KT 9999 FEW025 09/08 Q1002 NOSIG",
      "taf": "TAF LGTS 161700Z 1618/1718 VRB03KT 9999 FEW025"
    },
    {
      "icao": "LHBP",
      "alert": "OK",
      "vis_m": 9000,
      "fzfg": false,
      "metar_trigger": false,
      "taf_trigger": false,
      "metar": "METAR LHBP 162030Z 06003KT 020V090 9000 FEW006 OVC014 M01/M02 Q1002 TEMPO BKN006 BKN014",
      "taf": "TAF LHBP 161715Z 1618/1718 10005KT 8000 BKN030 OVC050"
    },
    {
      "icao": "LHDC",
      "alert": "OK",
      "vis_m": 9000,
      "fzfg": false,
      "metar_trigger": false,
      "taf_trigger": false,
      "metar": "METAR LHDC 162015Z AUTO 10003KT 070V130 9000 BKN018 BKN045 M00/M03 Q1003 NOSIG",
      "taf": "TAF LHDC 161715Z 1618/1703 VRB03KT 9999 BKN025 OVC050"
    },
    {
      "icao": "LIBD",
      "alert": "OK",
      "vis_m": 9999,
      "fzfg": false,
      "metar_trigger": false,
      "taf_trigger": false,
      "metar": "METAR LIBD 162020Z 22013KT 9999 -RA BKN045 12/10 Q0999",
      "taf": "TAF LIBD 161700Z 1618/1718 19013KT 9999 FEW030"
    },
    {
      "icao": "LIBG",
      "alert": "OK",
      "vis_m": null,
      "fzfg": false,
      "metar_trigger": false,
      "taf_trigger": false,
      "metar": "",
      "taf": "TAF LIBG 161700Z 1618/1703 16014KT 9999 FEW020 SCT040"
    },
    {
      "icao": "LIBP",
      "alert": "OK",
      "vis_m": 9999,
      "fzfg": false,
      "metar_trigger": false,
      "taf_trigger": false,
      "metar": "METAR LIBP 162020Z AUTO VRB04KT 9999 -RA OVC059/// 10/10 Q0998 RERA",
      "taf": ""
    },
    {
      "icao": "LIBR",
      "alert": "OK",
      "vis_m": 9999,
      "fzfg": false,
      "metar_trigger": false,
      "taf_trigger": false,
      "metar": "METAR LIBR 162020Z 20014KT CAVOK 13/09 Q1000",
      "taf": "TAF LIBR 161700Z 1618/1718 21015KT 9999 FEW030"
    },
    {
      "icao": "LICA",
      "alert": "OK",
      "vis_m": 9999,
      "fzfg": false,
      "metar_trigger": false,
      "taf_trigger": false,
      "metar": "METAR LICA 162020Z AUTO 24015KT 9999 -RA BKN014/// OVC060/// 14/13 Q1006",
      "taf": "TAF LICA 161700Z 1618/1718 26022G33KT 9999 SCT015"
    },
    {
      "icao": "LICC",
      "alert": "OK",
      "vis_m": 9999,
      "fzfg": false,
      "metar_trigger": false,
      "taf_trigger": false,
      "metar": "METAR LICC 162020Z 26009KT CAVOK 12/09 Q1009",
      "taf": "TAF LICC 161700Z 1618/1718 26015KT 9999 SCT030"
    },
    {
      "icao": "LICJ",
      "alert": "OK",
      "vis_m": 9999,
      "fzfg": false,
      "metar_trigger": false,
      "taf_trigger": false,
      "metar": "METAR LICJ 162020Z 22018KT 9999 SCT028 15/11 Q1009",
      "taf": "TAF LICJ 161700Z 1618/1718 25025KT 9999 SCT020"
    },
    {
      "icao": "LIMC",
      "alert": "OK",
      "vis_m": 9999,
      "fzfg": false,
      "metar_trigger": false,
      "taf_trigger": false,
      "metar": "METAR LIMC 162020Z 36007KT CAVOK 05/02 Q0999 NOSIG",
      "taf": "TAF LIMC 161700Z 1618/1724 31007KT 9999 FEW090"
    },
    {
      "icao": "LIME",
      "alert": "OK",
      "vis_m": 9999,
      "fzfg": false,
      "metar_trigger": false,
      "taf_trigger": false,
      "metar": "METAR LIME 162020Z VRB02KT CAVOK 05/02 Q0999 NOSIG",
      "taf": "TAF LIME 161700Z 1618/1718 VRB05KT CAVOK"
    },
    {
      "icao": "LIMF",
      "alert": "OK",
      "vis_m": null,
      "fzfg": false,
      "metar_trigger": false,
      "taf_trigger": false,
      "metar": "METAR LIMF 162020Z AUTO VRB02KT //// // FEW100/// BKN140/// 07/01 Q1001",
      "taf": "TAF LIMF 161700Z 1618/1718 VRB05KT 9999 FEW100"
    },
    {
      "icao": "LIMJ",
      "alert": "OK",
      "vis_m": 9999,
      "fzfg": false,
      "metar_trigger": false,
      "taf_trigger": false,
      "metar": "METAR LIMJ 162020Z 04013KT CAVOK 11/03 Q1000",
      "taf": "TAF LIMJ 161700Z 1618/1718 VRB05KT CAVOK"
    },
    {
      "icao": "LIPE",
      "alert": "OK",
      "vis_m": 9999,
      "fzfg": false,
      "metar_trigger": false,
      "taf_trigger": false,
      "metar": "METAR LIPE 162020Z 23004KT 210V280 CAVOK 07/05 Q0999",
      "taf": "TAF LIPE 161700Z 1618/1718 30005KT 9999 FEW040"
    },
    {
      "icao": "LIPH",
      "alert": "OK",
      "vis_m": 9999,
      "fzfg": false,
      "metar_trigger": false,
      "taf_trigger": false,
      "metar": "METAR LIPH 162020Z 29005KT CAVOK 05/03 Q0999",
      "taf": "TAF LIPH 161700Z 1618/1718 06006KT 9999 FEW030"
    },
    {
      "icao": "LIPQ",
      "alert": "OK",
      "vis_m": 9999,
      "fzfg": false,
      "metar_trigger": false,
      "taf_trigger": false,
      "metar": "METAR LIPQ 162020Z AUTO 05004KT 360V090 9999 FEW020/// BKN046/// BKN220/// 07/04 Q0998",
      "taf": "TAF LIPQ 161700Z 1618/1718 VRB05KT 9999 FEW040"
    },
    {
      "icao": "LIPR",
      "alert": "OK",
      "vis_m": 8000,
      "fzfg": false,
      "metar_trigger": false,
      "taf_trigger": false,
      "metar": "METAR LIPR 162020Z 26007KT 8000 FEW040 07/07 Q0999",
      "taf": "TAF LIPR 161700Z 1618/1718 VRB05KT 9999 SCT040"
    },
    {
      "icao": "LIPX",
      "alert": "OK",
      "vis_m": 9999,
      "fzfg": false,
      "metar_trigger": false,
      "taf_trigger": false,
      "metar": "METAR LIPX 162020Z 07003KT 050V110 CAVOK 03/02 Q0999",
      "taf": "TAF LIPX 161700Z 1618/1718 VRB05KT CAVOK"
    },
    {
      "icao": "LIPY",
      "alert": "OK",
      "vis_m": 9999,
      "fzfg": false,
      "metar_trigger": false,
      "taf_trigger": false,
      "metar": "METAR LIPY 162020Z AUTO 31006KT 9999 BKN037/// BKN049/// 10/09 Q0998",
      "taf": "TAF LIPY 161700Z 1618/1718 VRB05KT 9999 SCT050"
    },
    {
      "icao": "LIPZ",
      "alert": "OK",
      "vis_m": 9999,
      "fzfg": false,
      "metar_trigger": false,
      "taf_trigger": false,
      "metar": "METAR LIPZ 162020Z VRB05KT CAVOK 06/03 Q0999 NOSIG",
      "taf": "TAF LIPZ 161700Z 1618/1724 VRB05KT 9999 FEW050"
    },
    {
      "icao": "LIRF",
      "alert": "OK",
      "vis_m": 9999,
      "fzfg": false,
      "metar_trigger": false,
      "taf_trigger": false,
      "metar": "METAR LIRF 162020Z 30019KT CAVOK 15/08 Q1000 NOSIG",
      "taf": "TAF LIRF 161700Z 1618/1724 31020G33KT 9999 SCT020"
    },
    {
      "icao": "LIRN",
      "alert": "OK",
      "vis_m": 9999,
      "fzfg": false,
      "metar_trigger": false,
      "taf_trigger": false,
      "metar": "METAR LIRN 162020Z 25017G32KT 220V280 9999 BKN020 15/10 Q1000 NOSIG",
      "taf": ""
    },
    {
      "icao": "LIRP",
      "alert": "OK",
      "vis_m": 9999,
      "fzfg": false,
      "metar_trigger": false,
      "taf_trigger": false,
      "metar": "METAR LIRP 162015Z 32004KT 9999 FEW020 11/10 Q0999 NOSIG",
      "taf": "TAF LIRP 161700Z 1618/1718 28007KT CAVOK"
    },
    {
      "icao": "LIRZ",
      "alert": "OK",
      "vis_m": 9999,
      "fzfg": false,
      "metar_trigger": false,
      "taf_trigger": false,
      "metar": "METAR LIRZ 162020Z AUTO 36002KT 9999 FEW025/// BKN045/// BKN140/// 09/07 Q0999",
      "taf": "TAF LIRZ 161700Z 1618/1718 VRB05KT 9999 SCT025"
    },
    {
      "icao": "LJLJ",
      "alert": "OK",
      "vis_m": 9999,
      "fzfg": false,
      "metar_trigger": false,
      "taf_trigger": false,
      "metar": "METAR LJLJ 162030Z VRB01KT 9999 FEW045 M01/M02 Q0999 NOSIG",
      "taf": "TAF LJLJ 161700Z 1618/1718 VRB02KT 9999 FEW030 SCT045 BKN055"
    },
    {
      "icao": "LKMT",
      "alert": "OK",
      "vis_m": 9999,
      "fzfg": false,
      "metar_trigger": false,
      "taf_trigger": false,
      "metar": "METAR LKMT 162030Z 22012KT 9999 BKN021 M00/M03 Q0998 NOSIG",
      "taf": "TAF LKMT 161700Z 1618/1718 22008KT 9999 BKN035"
    },
    {
      "icao": "LKPR",
      "alert": "OK",
      "vis_m": 500,
      "fzfg": true,
      "metar_trigger": false,
      "taf_trigger": false,
      "metar": "METAR LKPR 162030Z 02003KT 360V060 0500 R24/0900U R30/0350N -SN FZFG VV001 M05/M05 Q0996 NOSIG",
      "taf": "TAF LKPR 162000Z 1621/1803 VRB02KT 0400 FZFG VV001"
    },
    {
      "icao": "LLBG",
      "alert": "OK",
      "vis_m": 9000,
      "fzfg": false,
      "metar_trigger": false,
      "taf_trigger": false,
      "metar": "METAR LLBG 162020Z VRB03KT 9000 NSC 19/08 Q1010 NOSIG",
      "taf": "TAF LLBG 161703Z 1618/1718 VRB03KT 9000 NSC"
    },
    {
      "icao": "LMML",
      "alert": "OK",
      "vis_m": 9999,
      "fzfg": false,
      "metar_trigger": false,
      "taf_trigger": false,
      "metar": "METAR LMML 162015Z 27015KT 230V290 9999 FEW020 BKN042 14/11 Q1013 NOSIG",
      "taf": "TAF LMML 161700Z 1618/1718 28019G29KT 9999 SCT017"
    },
    {
      "icao": "LOWW",
      "alert": "OK",
      "vis_m": 9000,
      "fzfg": false,
      "metar_trigger": false,
      "taf_trigger": false,
      "metar": "METAR LOWW 162020Z 14006KT 9000 4000W SN PL FEW008 BKN026 M01/M02 Q1000 TEMPO 2000 -FZRA -PL BKN010",
      "taf": "TAF LOWW 162015Z 1621/1803 15008KT 9999 FEW010 BKN030 TX05/1714Z TNM01/1701Z"
    },
    {
      "icao": "LPFR",
      "alert": "OK",
      "vis_m": 9999,
      "fzfg": false,
      "metar_trigger": false,
      "taf_trigger": false,
      "metar": "METAR LPFR 162030Z 33005KT 9999 SCT030 14/10 Q1031",
      "taf": "TAF LPFR 161700Z 1618/1718 24010KT 9999 SCT015"
    },
    {
      "icao": "LPMA",
      "alert": "OK",
      "vis_m": 9999,
      "fzfg": false,
      "metar_trigger": false,
      "taf_trigger": false,
      "metar": "METAR LPMA 162030Z 10007KT 050V140 9999 SCT014 17/13 Q1029",
      "taf": "TAF LPMA 161700Z 1618/1718 09008KT 9999 SCT014"
    },
    {
      "icao": "LPPR",
      "alert": "OK",
      "vis_m": 8000,
      "fzfg": false,
      "metar_trigger": false,
      "taf_trigger": false,
      "metar": "METAR LPPR 162030Z 26005KT 210V300 8000 SCT003 BKN005 14/13 Q1028",
      "taf": "TAF LPPR 161700Z 1618/1718 26008KT 8000 SCT004 BKN008"
    },
    {
      "icao": "LPPS",
      "alert": "OK",
      "vis_m": 9999,
      "fzfg": false,
      "metar_trigger": false,
      "taf_trigger": false,
      "metar": "METAR LPPS 162030Z 12015KT 9999 SCT012 16/13 Q1029",
      "taf": "TAF LPPS 161700Z 1618/1724 11013KT 9999 SCT015"
    },
    {
      "icao": "LPPT",
      "alert": "OK",
      "vis_m": 9999,
      "fzfg": false,
      "metar_trigger": false,
      "taf_trigger": false,
      "metar": "METAR LPPT 162030Z 28005KT 250V320 9999 BKN015 14/11 Q1031",
      "taf": "TAF LPPT 161700Z 1618/1724 29008KT 9999 BKN025"
    },
    {
      "icao": "LQBK",
      "alert": "OK",
      "vis_m": 4000,
      "fzfg": false,
      "metar_trigger": false,
      "taf_trigger": false,
      "metar": "METAR LQBK 162030Z VRB02KT 4000 RA BR BKN007 OVC027 03/03 Q1001 NOSIG",
      "taf": "TAF LQBK 161700Z 1618/1718 14004KT 9999 SCT040 TX05/1713Z TN01/1706Z"
    },
    {
      "icao": "LQSA",
      "alert": "OK",
      "vis_m": 9999,
      "fzfg": false,
      "metar_trigger": false,
      "taf_trigger": false,
      "metar": "METAR LQSA 162030Z VRB02KT 9999 FEW018 BKN045 03/03 Q0999 NOSIG",
      "taf": ""
    },
    {
      "icao": "LQTZ",
      "alert": "OK",
      "vis_m": 1500,
      "fzfg": false,
      "metar_trigger": false,
      "taf_trigger": false,
      "metar": "METAR LQTZ 162030Z VRB01KT 1500 -RA BR OVC025 04/04 Q1001",
      "taf": "TAF LQTZ 161700Z 1618/1718 09005KT 7000 SCT055 TX04/1618Z TN00/1706Z"
    },
    {
      "icao": "LRBC",
      "alert": "OK",
      "vis_m": 9999,
      "fzfg": false,
      "metar_trigger": false,
      "taf_trigger": false,
      "metar": "METAR LRBC 162030Z 18004KT 9999 OVC008 M01/M02 Q1005",
      "taf": "TAF LRBC 162000Z 1621/1706 VRB04KT 9999 OVC010"
    },
    {
      "icao": "LRBS",
      "alert": "OK",
      "vis_m": 5000,
      "fzfg": false,
      "metar_trigger": false,
      "taf_trigger": false,
      "metar": "METAR LRBS 162030Z 03004KT 360V060 5000 BR BKN003 OVC016 02/01 Q1005 NOSIG",
      "taf": "TAF LRBS 161700Z 1618/1718 04006KT 5000 BR BKN003"
    },
    {
      "icao": "LRBV",
      "alert": "OK",
      "vis_m": 9999,
      "fzfg": false,
      "metar_trigger": false,
      "taf_trigger": false,
      "metar": "METAR LRBV 162030Z 12002KT CAVOK M02/M03 Q1002",
      "taf": "TAF LRBV 162000Z 1621/1706 VRB04KT CAVOK"
    },
    {
      "icao": "LRCL",
      "alert": "OK",
      "vis_m": 9999,
      "fzfg": false,
      "metar_trigger": false,
      "taf_trigger": false,
      "metar": "METAR LRCL 162030Z 07004KT CAVOK M00/M03 Q1002",
      "taf": "TAF LRCL 162000Z 1621/1706 VRB04KT 9999 BKN065"
    },
    {
      "icao": "LRCV",
      "alert": "OK",
      "vis_m": 1300,
      "fzfg": false,
      "metar_trigger": false,
      "taf_trigger": false,
      "metar": "METAR LRCV 162030Z 09010KT 1300 0800E R26/1600U BR BCFG OVC001 01/01 Q1004",
      "taf": "TAF LRCV 162000Z 1621/1706 09012KT 0800 FG OVC001"
    },
    {
      "icao": "LRIA",
      "alert": "OK",
      "vis_m": 9999,
      "fzfg": false,
      "metar_trigger": false,
      "taf_trigger": false,
      "metar": "METAR LRIA 162030Z 08006KT 9999 OVC020 M04/M07 Q1007",
      "taf": "TAF LRIA 162000Z 1621/1706 VRB04KT 9999 OVC020"
    },
    {
      "icao": "LROP",
      "alert": "OK",
      "vis_m": 6000,
      "fzfg": false,
      "metar_trigger": false,
      "taf_trigger": false,
      "metar": "METAR LROP 162030Z 03006KT 6000 OVC005 02/02 Q1005 NOSIG",
      "taf": "TAF LROP 161700Z 1618/1718 04006KT 5000 BR BKN003"
    },
    {
      "icao": "LRSB",
      "alert": "OK",
      "vis_m": 9999,
      "fzfg": false,
      "metar_trigger": false,
      "taf_trigger": false,
      "metar": "METAR LRSB 162030Z 29003KT 9999 FEW060 M01/M02 Q1001",
      "taf": "TAF LRSB 161700Z 1618/1718 VRB04KT CAVOK"
    },
    {
      "icao": "LRSM",
      "alert": "OK",
      "vis_m": 9999,
      "fzfg": false,
      "metar_trigger": false,
      "taf_trigger": false,
      "metar": "METAR LRSM 162030Z AUTO 00000KT 9999 BKN050/// M00/M03 Q1003",
      "taf": "TAF LRSM 161400Z 1615/1624 21008KT 9999 BKN045"
    },
    {
      "icao": "LRSV",
      "alert": "OK",
      "vis_m": 8000,
      "fzfg": false,
      "metar_trigger": false,
      "taf_trigger": false,
      "metar": "METAR LRSV 162030Z COR 07006KT 8000 OVC009 M05/M06 Q1003",
      "taf": "TAF LRSV 162000Z 1621/1706 07006KT 7000 OVC010"
    },
    {
      "icao": "LRTM",
      "alert": "OK",
      "vis_m": 6000,
      "fzfg": false,
      "metar_trigger": false,
      "taf_trigger": false,
      "metar": "METAR LRTM 162030Z AUTO 08004KT 6000 NCD M00/M02 Q1003",
      "taf": "TAF LRTM 162000Z 1621/1706 VRB04KT CAVOK"
    },
    {
      "icao": "LRTR",
      "alert": "OK",
      "vis_m": 9999,
      "fzfg": false,
      "metar_trigger": false,
      "taf_trigger": false,
      "metar": "METAR LRTR 162030Z 09007KT 9999 -RA BKN034 02/02 Q1002",
      "taf": "TAF LRTR 161700Z 1618/1718 11006KT 9999 BKN045"
    },
    {
      "icao": "LTAC",
      "alert": "OK",
      "vis_m": 9999,
      "fzfg": false,
      "metar_trigger": false,
      "taf_trigger": false,
      "metar": "METAR LTAC 162020Z 22010KT 9999 FEW040 BKN100 12/01 Q1007 NOSIG RMK RWY21C 21013KT RWY03L 21010KT RWY21R 20012KT RWY03R 22009KT RWY21L 22011KT",
      "taf": "TAF LTAC 161640Z 1618/1718 21009KT 9999 SCT035 BKN100"
    },
    {
      "icao": "LTFM",
      "alert": "OK",
      "vis_m": 6000,
      "fzfg": false,
      "metar_trigger": false,
      "taf_trigger": false,
      "metar": "METAR LTFM 162020Z COR 32003KT 280V340 6000 0900NW R35R/1500N R17L/1500U R34L/1500U R16R/1200D -SHRA PRFG FEW002 SCT032 BKN080 09/08 Q1004 NOSIG RMK RWY17L 29007KT RWY34L VRB02KT RWY16R 29005KT RWY36 34004KT RWY18 31004KT",
      "taf": "TAF LTFM 161640Z 1618/1724 18008KT 9999 SCT032 BKN080"
    },
    {
      "icao": "LUKK",
      "alert": "OK",
      "vis_m": 9999,
      "fzfg": false,
      "metar_trigger": false,
      "taf_trigger": false,
      "metar": "METAR LUKK 162030Z 09007KT 9999 OVC048 M04/M06 Q1007 NOSIG",
      "taf": "TAF LUKK 161713Z 1618/1718 VRB05KT 9999 BKN020"
    },
    {
      "icao": "LWOH",
      "alert": "OK",
      "vis_m": 9999,
      "fzfg": false,
      "metar_trigger": false,
      "taf_trigger": false,
      "metar": "METAR LWOH 161950Z 15011KT 9999 BKN035 07/04 Q1003",
      "taf": "TAF LWOH 162010Z 1621/1721 16012KT 9999 BKN035"
    },
    {
      "icao": "LWSK",
      "alert": "OK",
      "vis_m": 9999,
      "fzfg": false,
      "metar_trigger": false,
      "taf_trigger": false,
      "metar": "METAR LWSK 162030Z 00000KT CAVOK 03/01 Q1002 NOSIG",
      "taf": "TAF LWSK 162010Z 1621/1721 VRB02KT CAVOK"
    },
    {
      "icao": "LYBE",
      "alert": "OK",
      "vis_m": 9999,
      "fzfg": false,
      "metar_trigger": false,
      "taf_trigger": false,
      "metar": "METAR LYBE 162030Z 00000KT CAVOK 04/03 Q1001 NOSIG",
      "taf": "TAF LYBE 161700Z 1618/1718 05007KT 9999 SCT040 TX05/1714Z TN01/1709Z"
    },
    {
      "icao": "LYNI",
      "alert": "OK",
      "vis_m": 9999,
      "fzfg": false,
      "metar_trigger": false,
      "taf_trigger": false,
      "metar": "METAR LYNI 162030Z 08003KT 020V090 9999 FEW060 06/03 Q1001 NOSIG",
      "taf": "TAF LYNI 161700Z 1618/1718 33004KT 9999 SCT060 TX06/1618Z TN01/1718Z"
    },
    {
      "icao": "LYPG",
      "alert": "OK",
      "vis_m": 9999,
      "fzfg": false,
      "metar_trigger": false,
      "taf_trigger": false,
      "metar": "METAR LYPG 162030Z 12003KT 080V160 9999 SCT030 OVC070 10/07 Q1001 NOSIG",
      "taf": "TAF LYPG 161700Z 1618/1718 14005KT 8000 SCT030 BKN060 TX11/1712Z TN08/1706Z"
    },
    {
      "icao": "LZIB",
      "alert": "OK",
      "vis_m": 7000,
      "fzfg": false,
      "metar_trigger": false,
      "taf_trigger": false,
      "metar": "METAR LZIB 162030Z 07007KT 7000 FEW006 OVC007 M02/M03 Q1001 TEMPO 4000 SN BKN005",
      "taf": "TAF LZIB 161715Z 1618/1718 13008KT 9999 SCT018 BKN030"
    },
    {
      "icao": "LZKZ",
      "alert": "OK",
      "vis_m": 3200,
      "fzfg": false,
      "metar_trigger": false,
      "taf_trigger": false,
      "metar": "METAR LZKZ 162030Z 17003KT 3200 SN FEW009 OVC014 M03/M04 Q1002 TEMPO -SN",
      "taf": ""
    },
    {
      "icao": "LZTT",
      "alert": "OK",
      "vis_m": 9999,
      "fzfg": false,
      "metar_trigger": false,
      "taf_trigger": false,
      "metar": "METAR LZTT 162030Z 36004KT 330V030 9999 FEW016 OVC028 M06/M08 Q0998",
      "taf": "TAF LZTT 161715Z 1618/1718 24005KT 9999 FEW012 SCT030"
    },
    {
      "icao": "OEJN",
      "alert": "OK",
      "vis_m": 9999,
      "fzfg": false,
      "metar_trigger": false,
      "taf_trigger": false,
      "metar": "METAR OEJN 162000Z 34003KT CAVOK 25/19 Q1012 NOSIG",
      "taf": "TAF OEJN 161700Z 1618/1724 VRB03KT CAVOK"
    },
    {
      "icao": "OEMA",
      "alert": "OK",
      "vis_m": 9999,
      "fzfg": false,
      "metar_trigger": false,
      "taf_trigger": false,
      "metar": "METAR OEMA 162000Z 11008KT CAVOK 27/M03 Q1017 NOSIG",
      "taf": "TAF OEMA 161700Z 1618/1724 09006KT CAVOK"
    },
    {
      "icao": "OJAI",
      "alert": "OK",
      "vis_m": 3500,
      "fzfg": false,
      "metar_trigger": false,
      "taf_trigger": false,
      "metar": "METAR OJAI 162000Z 12011KT 3500 DU NSC 17/M00 Q1015 NOSIG",
      "taf": "TAF OJAI 161643Z 1618/1724 09010KT 3000 DU NSC"
    },
    {
      "icao": "OMAA",
      "alert": "OK",
      "vis_m": 9999,
      "fzfg": false,
      "metar_trigger": false,
      "taf_trigger": false,
      "metar": "METAR OMAA 162030Z 30007KT 280V340 CAVOK 21/19 Q1013 NOSIG",
      "taf": "TAF OMAA 161700Z 1618/1800 31007KT 8000 NSC"
    },
    {
      "icao": "OMDB",
      "alert": "OK",
      "vis_m": 9999,
      "fzfg": false,
      "metar_trigger": false,
      "taf_trigger": false,
      "metar": "METAR OMDB 162030Z 33006KT 290V350 CAVOK 24/17 Q1013 NOSIG",
      "taf": "TAF OMDB 161700Z 1618/1800 30010KT 8000 NSC"
    },
    {
      "icao": "UAAA",
      "alert": "OK",
      "vis_m": 2300,
      "fzfg": false,
      "metar_trigger": false,
      "taf_trigger": false,
      "metar": "METAR UAAA 162030Z VRB01MPS 2300 -SHRA BR SCT038CB OVC100 04/02 Q1020 NOSIG",
      "taf": "TAF UAAA 161703Z 1618/1718 22003MPS 3100 -SHRA BR BKN011CB OVC050 TX07/1709Z TNM00/1702Z"
    },
    {
      "icao": "UBBB",
      "alert": "OK",
      "vis_m": 9999,
      "fzfg": false,
      "metar_trigger": false,
      "taf_trigger": false,
      "metar": "METAR UBBB 162030Z 19020G30KT CAVOK 10/07 Q1011 NOSIG",
      "taf": "TAF UBBB 161706Z 1618/1718 18020G30KT CAVOK TX16/1710Z TN07/1701Z"
    },
    {
      "icao": "UDSG",
      "alert": "OK",
      "vis_m": 5000,
      "fzfg": false,
      "metar_trigger": false,
      "taf_trigger": false,
      "metar": "METAR UDSG 162030Z 04001KT 5000 BR NSC M03/M03 Q1022 NOSIG",
      "taf": "TAF UDSG 161658Z 1618/1718 VRB06KT 5000 BR SCT040"
    },
    {
      "icao": "UDYZ",
      "alert": "OK",
      "vis_m": 7000,
      "fzfg": false,
      "metar_trigger": false,
      "taf_trigger": false,
      "metar": "METAR UDYZ 162030Z VRB01KT 7000 NSC 03/01 Q1020 NOSIG",
      "taf": "TAF UDYZ 161700Z 1618/1718 03006KT 9999 NSC"
    },
    {
      "icao": "UGKO",
      "alert": "OK",
      "vis_m": 9999,
      "fzfg": false,
      "metar_trigger": false,
      "taf_trigger": false,
      "metar": "METAR UGKO 162030Z 09018G28KT CAVOK 20/01 Q1007 NOSIG",
      "taf": "TAF UGKO 161700Z 1618/1718 08017KT CAVOK TX21/1711Z TN13/1703Z"
    }
  ]
}