{
  "ts_utc": "2026-04-02T22:40:27Z",
  "threshold_m": 150,
  "source": "stations_override.txt (ICAO list) + aviationweather.gov (METAR/TAF raw)",
  "station_count": 159,
  "stations": [
    {
      "icao": "BIKF",
      "alert": "OK",
      "vis_m": 9999,
      "fzfg": false,
      "metar_trigger": false,
      "taf_trigger": false,
      "metar": "METAR BIKF 022230Z 10010KT 9999 -SHSN FEW027TCU SCT041 BKN100 M02/M03 Q0993",
      "taf": "TAF BIKF 021958Z 0221/0321 13012KT 9999 FEW015 BKN030 TX02/0316Z TNM05/0223Z"
    },
    {
      "icao": "BKPR",
      "alert": "OK",
      "vis_m": 9999,
      "fzfg": false,
      "metar_trigger": false,
      "taf_trigger": false,
      "metar": "METAR BKPR 022230Z 32006KT 9999 -RA SCT013 BKN020 05/05 Q1001 NOSIG",
      "taf": "TAF BKPR 021730Z 0218/0318 36009KT 9999 SCT012 BKN030"
    },
    {
      "icao": "EBCI",
      "alert": "OK",
      "vis_m": 9999,
      "fzfg": false,
      "metar_trigger": false,
      "taf_trigger": false,
      "metar": "METAR EBCI 022220Z 31003KT 9999 BKN034 05/02 Q1019 NOSIG",
      "taf": "TAF EBCI 021702Z 0218/0324 33008KT 9999 BKN030"
    },
    {
      "icao": "EDDB",
      "alert": "OK",
      "vis_m": 9999,
      "fzfg": false,
      "metar_trigger": false,
      "taf_trigger": false,
      "metar": "METAR EDDB 022220Z AUTO 23007KT CAVOK 08/02 Q1013 NOSIG",
      "taf": "TAF EDDB 021700Z 0218/0318 30005KT CAVOK"
    },
    {
      "icao": "EDDH",
      "alert": "OK",
      "vis_m": 9999,
      "fzfg": false,
      "metar_trigger": false,
      "taf_trigger": false,
      "metar": "METAR EDDH 022220Z AUTO 29005KT CAVOK 03/00 Q1016 NOSIG",
      "taf": "TAF EDDH 021700Z 0218/0324 30007KT 9999 BKN012"
    },
    {
      "icao": "EDDK",
      "alert": "OK",
      "vis_m": 9999,
      "fzfg": false,
      "metar_trigger": false,
      "taf_trigger": false,
      "metar": "METAR EDDK 022220Z AUTO 33005KT 290V350 9999 FEW012 BKN030 OVC041 06/05 Q1018 NOSIG",
      "taf": "TAF EDDK 021700Z 0218/0324 29007KT 9999 SCT015 BKN030"
    },
    {
      "icao": "EDDN",
      "alert": "OK",
      "vis_m": 9999,
      "fzfg": false,
      "metar_trigger": false,
      "taf_trigger": false,
      "metar": "METAR EDDN 022220Z AUTO 11005KT CAVOK 03/M02 Q1016",
      "taf": "TAF EDDN 021700Z 0218/0318 29005KT CAVOK"
    },
    {
      "icao": "EDDS",
      "alert": "OK",
      "vis_m": 9999,
      "fzfg": false,
      "metar_trigger": false,
      "taf_trigger": false,
      "metar": "METAR EDDS 022220Z AUTO VRB01KT CAVOK 03/M02 Q1016",
      "taf": "TAF EDDS 021700Z 0218/0318 30005KT CAVOK"
    },
    {
      "icao": "EDFH",
      "alert": "OK",
      "vis_m": 9999,
      "fzfg": false,
      "metar_trigger": false,
      "taf_trigger": false,
      "metar": "METAR EDFH 022220Z 32006KT 300V010 9999 SCT011 OVC013 06/04 Q1017",
      "taf": "TAF EDFH 021700Z 0218/0318 29006KT 9999 BKN035"
    },
    {
      "icao": "EDJA",
      "alert": "OK",
      "vis_m": 9999,
      "fzfg": false,
      "metar_trigger": false,
      "taf_trigger": false,
      "metar": "METAR EDJA 022220Z AUTO 19003KT 9999 // NCD 01/M01 Q1017",
      "taf": "TAF EDJA 021700Z 0218/0303 19003KT 9999 FEW040"
    },
    {
      "icao": "EDLW",
      "alert": "OK",
      "vis_m": 9999,
      "fzfg": false,
      "metar_trigger": false,
      "taf_trigger": false,
      "metar": "METAR EDLW 022220Z AUTO 27003KT 230V310 9999 // FEW014/// BKN025/// BKN050/// 06/04 Q1018",
      "taf": "TAF EDLW 021700Z 0218/0318 30006KT 9999 SCT020 BKN030"
    },
    {
      "icao": "EDNY",
      "alert": "OK",
      "vis_m": 9999,
      "fzfg": false,
      "metar_trigger": false,
      "taf_trigger": false,
      "metar": "METAR EDNY 022220Z AUTO 07002KT 9999 // BKN068/// 02/01 Q1018",
      "taf": "TAF EDNY 021700Z 0218/0303 VRB02KT 9999 FEW050"
    },
    {
      "icao": "EDSB",
      "alert": "OK",
      "vis_m": 9999,
      "fzfg": false,
      "metar_trigger": false,
      "taf_trigger": false,
      "metar": "METAR EDSB 022220Z AUTO 21004KT 9999 // OVC095/// 07/02 Q1017",
      "taf": "TAF EDSB 021700Z 0218/0318 VRB03KT CAVOK"
    },
    {
      "icao": "EETN",
      "alert": "OK",
      "vis_m": 9999,
      "fzfg": false,
      "metar_trigger": false,
      "taf_trigger": false,
      "metar": "METAR EETN 022220Z 22006KT 9999 FEW044 04/03 Q1009",
      "taf": "TAF EETN 021730Z 0218/0318 20008KT 9999 BKN020"
    },
    {
      "icao": "EFTU",
      "alert": "OK",
      "vis_m": 9999,
      "fzfg": false,
      "metar_trigger": false,
      "taf_trigger": false,
      "metar": "METAR EFTU 022220Z AUTO 30004KT 9999 OVC003 02/02 Q1008",
      "taf": ""
    },
    {
      "icao": "EGBB",
      "alert": "OK",
      "vis_m": 9999,
      "fzfg": false,
      "metar_trigger": false,
      "taf_trigger": false,
      "metar": "METAR EGBB 022220Z 22006KT 180V240 CAVOK 08/02 Q1016",
      "taf": "TAF EGBB 021659Z 0218/0318 19008KT 9999 FEW040"
    },
    {
      "icao": "EGGP",
      "alert": "OK",
      "vis_m": 9999,
      "fzfg": false,
      "metar_trigger": false,
      "taf_trigger": false,
      "metar": "METAR EGGP 022220Z 17009KT 9999 BKN046 06/03 Q1013",
      "taf": "TAF EGGP 021656Z 0218/0318 27009KT 9999 SCT040"
    },
    {
      "icao": "EGGW",
      "alert": "OK",
      "vis_m": 9999,
      "fzfg": false,
      "metar_trigger": false,
      "taf_trigger": false,
      "metar": "METAR EGGW 022220Z AUTO 20007KT 160V220 9999 NCD 08/03 Q1017",
      "taf": "TAF EGGW 021655Z 0218/0318 23003KT 9999 SCT030"
    },
    {
      "icao": "EGKK",
      "alert": "OK",
      "vis_m": 9999,
      "fzfg": false,
      "metar_trigger": false,
      "taf_trigger": false,
      "metar": "METAR EGKK 022220Z 20006KT CAVOK 08/05 Q1018",
      "taf": "TAF EGKK 021707Z 0218/0324 35006KT 9999 SCT035"
    },
    {
      "icao": "EGNM",
      "alert": "OK",
      "vis_m": 9999,
      "fzfg": false,
      "metar_trigger": false,
      "taf_trigger": false,
      "metar": "METAR EGNM 022220Z 21012KT 9999 -RA FEW014 BKN024 05/03 Q1013",
      "taf": "TAF EGNM 021700Z 0218/0318 22009KT 9999 FEW015 SCT030"
    },
    {
      "icao": "EGPD",
      "alert": "OK",
      "vis_m": 9999,
      "fzfg": false,
      "metar_trigger": false,
      "taf_trigger": false,
      "metar": "METAR EGPD 022220Z AUTO 18013KT 9999 -RA OVC034 05/01 Q1008 TEMPO RA",
      "taf": "TAF EGPD 021654Z 0218/0318 16012KT 9999 FEW040"
    },
    {
      "icao": "EGPF",
      "alert": "OK",
      "vis_m": 9999,
      "fzfg": false,
      "metar_trigger": false,
      "taf_trigger": false,
      "metar": "METAR EGPF 022220Z AUTO 12005KT 090V160 9999 -RA FEW017/// BKN029/// BKN033/// //////TCU 06/04 Q1006",
      "taf": "TAF EGPF 021655Z 0218/0318 19014KT 9999 FEW040"
    },
    {
      "icao": "EHBK",
      "alert": "OK",
      "vis_m": 9999,
      "fzfg": false,
      "metar_trigger": false,
      "taf_trigger": false,
      "metar": "METAR EHBK 022225Z AUTO 32004KT 9999 OVC034 06/03 Q1019",
      "taf": "TAF EHBK 021703Z 0218/0324 32005KT 9999 BKN030"
    },
    {
      "icao": "EHEH",
      "alert": "OK",
      "vis_m": 9999,
      "fzfg": false,
      "metar_trigger": false,
      "taf_trigger": false,
      "metar": "METAR EHEH 022225Z AUTO VRB02KT 9999 OVC035 06/02 Q1019 BLU",
      "taf": "TAF EHEH 021730Z 0218/0324 31006KT 9999 BKN028"
    },
    {
      "icao": "EKBI",
      "alert": "OK",
      "vis_m": 9999,
      "fzfg": false,
      "metar_trigger": false,
      "taf_trigger": false,
      "metar": "METAR EKBI 022220Z AUTO 27015KT 9999 OVC035/// 04/M03 Q1013",
      "taf": "TAF EKBI 022027Z 0221/0321 27010KT 9999 BKN025"
    },
    {
      "icao": "EKCH",
      "alert": "OK",
      "vis_m": 9999,
      "fzfg": false,
      "metar_trigger": false,
      "taf_trigger": false,
      "metar": "METAR EKCH 022220Z AUTO 29006KT 250V330 9999 FEW031/// 04/M01 Q1012 NOSIG",
      "taf": "TAF EKCH 022027Z 0221/0321 27012KT 9999 BKN020"
    },
    {
      "icao": "ENAL",
      "alert": "OK",
      "vis_m": 9999,
      "fzfg": false,
      "metar_trigger": false,
      "taf_trigger": false,
      "metar": "METAR ENAL 022220Z AUTO 08012KT 9999 NCD 02/M00 Q1012",
      "taf": "TAF ENAL 022000Z 0221/0306 05008KT 9999 FEW015"
    },
    {
      "icao": "ENBR",
      "alert": "OK",
      "vis_m": 9999,
      "fzfg": false,
      "metar_trigger": false,
      "taf_trigger": false,
      "metar": "METAR ENBR 022220Z 00000KT CAVOK 01/M05 Q1009 RMK WIND 1200FT 12009KT",
      "taf": "TAF ENBR 021700Z 0218/0318 34007KT 9999 FEW040"
    },
    {
      "icao": "ENGM",
      "alert": "OK",
      "vis_m": 2500,
      "fzfg": false,
      "metar_trigger": false,
      "taf_trigger": false,
      "metar": "METAR ENGM 022220Z 01010KT 2500 -SN SCT007 BKN016 00/M01 Q1010",
      "taf": "TAF ENGM 021700Z 0218/0318 01012KT 9999 -SNRA FEW010 BKN025"
    },
    {
      "icao": "ENHD",
      "alert": "OK",
      "vis_m": 9999,
      "fzfg": false,
      "metar_trigger": false,
      "taf_trigger": false,
      "metar": "METAR ENHD 022220Z AUTO 14004KT 9999 NCD M01/M03 Q1010",
      "taf": "TAF ENHD 021400Z 0215/0222 34025KT 9999 FEW040"
    },
    {
      "icao": "ENTC",
      "alert": "OK",
      "vis_m": 9999,
      "fzfg": false,
      "metar_trigger": false,
      "taf_trigger": false,
      "metar": "METAR ENTC 022220Z 26003KT 220V300 9999 FEW025 SCT051 02/M01 Q1004 RMK WIND 2600FT 35019KT",
      "taf": "TAF ENTC 021700Z 0218/0318 25008KT 9999 -SHRASN SCT010 BKN025"
    },
    {
      "icao": "ENTO",
      "alert": "OK",
      "vis_m": 6000,
      "fzfg": false,
      "metar_trigger": false,
      "taf_trigger": false,
      "metar": "METAR ENTO 022220Z 36012KT 6000 -SN SCT002 00/00 Q1008",
      "taf": "TAF ENTO 021700Z 0218/0318 01014KT 9999 -RASN BKN016"
    },
    {
      "icao": "ENVA",
      "alert": "OK",
      "vis_m": 9999,
      "fzfg": false,
      "metar_trigger": false,
      "taf_trigger": false,
      "metar": "METAR ENVA 022220Z 12005KT 9999 BKN050 M01/M02 Q1013 RMK WIND 670FT 17001KT",
      "taf": "TAF ENVA 021700Z 0218/0318 10005KT 9999 FEW050"
    },
    {
      "icao": "ENZV",
      "alert": "OK",
      "vis_m": 9999,
      "fzfg": false,
      "metar_trigger": false,
      "taf_trigger": false,
      "metar": "METAR ENZV 022220Z 25003KT 9999 FEW042 04/00 Q1010",
      "taf": "TAF ENZV 021700Z 0218/0318 33017KT 9999 SCT040"
    },
    {
      "icao": "EPGD",
      "alert": "OK",
      "vis_m": 9999,
      "fzfg": false,
      "metar_trigger": false,
      "taf_trigger": false,
      "metar": "METAR EPGD 022230Z 28002KT CAVOK 00/M01 Q1012",
      "taf": "TAF EPGD 021730Z 0218/0318 VRB05KT CAVOK"
    },
    {
      "icao": "EPKK",
      "alert": "OK",
      "vis_m": 9999,
      "fzfg": false,
      "metar_trigger": false,
      "taf_trigger": false,
      "metar": "METAR EPKK 022230Z 22003KT 9999 -RA BKN040 08/02 Q1012",
      "taf": "TAF EPKK 022030Z 0221/0321 26004KT 9999 BKN045"
    },
    {
      "icao": "EPKT",
      "alert": "OK",
      "vis_m": 9999,
      "fzfg": false,
      "metar_trigger": false,
      "taf_trigger": false,
      "metar": "METAR EPKT 022230Z 27001KT CAVOK 03/M01 Q1012",
      "taf": "TAF EPKT 021730Z 0218/0318 02004KT CAVOK"
    },
    {
      "icao": "EPLB",
      "alert": "OK",
      "vis_m": 9999,
      "fzfg": false,
      "metar_trigger": false,
      "taf_trigger": false,
      "metar": "METAR EPLB 022230Z 34007KT CAVOK 09/M00 Q1010",
      "taf": "TAF EPLB 021730Z 0218/0318 02005KT CAVOK"
    },
    {
      "icao": "EPMO",
      "alert": "OK",
      "vis_m": 9999,
      "fzfg": false,
      "metar_trigger": false,
      "taf_trigger": false,
      "metar": "METAR EPMO 022230Z 35004KT CAVOK 03/M05 Q1012",
      "taf": "TAF EPMO 021730Z 0218/0318 03005KT CAVOK"
    },
    {
      "icao": "EPPO",
      "alert": "OK",
      "vis_m": 9999,
      "fzfg": false,
      "metar_trigger": false,
      "taf_trigger": false,
      "metar": "METAR EPPO 022230Z 32005KT CAVOK 06/M01 Q1013",
      "taf": "TAF EPPO 021730Z 0218/0318 VRB02KT CAVOK"
    },
    {
      "icao": "EPRA",
      "alert": "OK",
      "vis_m": 9999,
      "fzfg": false,
      "metar_trigger": false,
      "taf_trigger": false,
      "metar": "METAR EPRA 022230Z 33004KT CAVOK 08/M04 Q1011",
      "taf": "TAF EPRA 022030Z 0221/0306 34005KT CAVOK"
    },
    {
      "icao": "EPRZ",
      "alert": "OK",
      "vis_m": 9999,
      "fzfg": false,
      "metar_trigger": false,
      "taf_trigger": false,
      "metar": "METAR EPRZ 022230Z 32004KT 280V350 CAVOK 08/02 Q1010",
      "taf": "TAF EPRZ 021730Z 0218/0318 35006KT CAVOK"
    },
    {
      "icao": "EPSC",
      "alert": "OK",
      "vis_m": 9999,
      "fzfg": false,
      "metar_trigger": false,
      "taf_trigger": false,
      "metar": "METAR EPSC 022230Z 15005KT CAVOK 07/01 Q1012",
      "taf": "TAF EPSC 021730Z 0218/0318 24006KT CAVOK"
    },
    {
      "icao": "EPSY",
      "alert": "OK",
      "vis_m": 9999,
      "fzfg": false,
      "metar_trigger": false,
      "taf_trigger": false,
      "metar": "METAR EPSY 022230Z 00000KT CAVOK M01/M05 Q1012",
      "taf": "TAF EPSY 022030Z 0221/0306 36005KT CAVOK"
    },
    {
      "icao": "EPWA",
      "alert": "OK",
      "vis_m": 9999,
      "fzfg": false,
      "metar_trigger": false,
      "taf_trigger": false,
      "metar": "METAR EPWA 022230Z 33007KT CAVOK 06/M05 Q1011 NOSIG",
      "taf": "TAF EPWA 022030Z 0221/0321 34004KT CAVOK"
    },
    {
      "icao": "EPWR",
      "alert": "OK",
      "vis_m": 9999,
      "fzfg": false,
      "metar_trigger": false,
      "taf_trigger": false,
      "metar": "METAR EPWR 022230Z 28004KT CAVOK 02/M01 Q1014",
      "taf": "TAF EPWR 022030Z 0221/0321 VRB02KT CAVOK"
    },
    {
      "icao": "ESGG",
      "alert": "OK",
      "vis_m": 9999,
      "fzfg": false,
      "metar_trigger": false,
      "taf_trigger": false,
      "metar": "METAR ESGG 022220Z 19008KT 9999 FEW025 01/M01 Q1008",
      "taf": "TAF ESGG 022030Z 0221/0321 24006KT 9999 BKN025"
    },
    {
      "icao": "ESKN",
      "alert": "OK",
      "vis_m": 9999,
      "fzfg": false,
      "metar_trigger": false,
      "taf_trigger": false,
      "metar": "METAR ESKN 022220Z VRB02KT 9999 -RA BKN032 06/06 Q1008",
      "taf": ""
    },
    {
      "icao": "ESMS",
      "alert": "OK",
      "vis_m": 9999,
      "fzfg": false,
      "metar_trigger": false,
      "taf_trigger": false,
      "metar": "METAR ESMS 022220Z 30009KT 9999 FEW018 OVC026 05/03 Q1011",
      "taf": "TAF ESMS 022027Z 0221/0321 21005KT 9999 BKN025"
    },
    {
      "icao": "ESSA",
      "alert": "OK",
      "vis_m": 9999,
      "fzfg": false,
      "metar_trigger": false,
      "taf_trigger": false,
      "metar": "METAR ESSA 022220Z 05011KT 9999 -RA BKN006 02/01 Q1009 NOSIG",
      "taf": "TAF ESSA 022030Z 0221/0321 02007KT 9999 BKN008"
    },
    {
      "icao": "EYKA",
      "alert": "OK",
      "vis_m": 9999,
      "fzfg": false,
      "metar_trigger": false,
      "taf_trigger": false,
      "metar": "METAR EYKA 022220Z AUTO 31004KT 9999 NCD 05/M04 Q1011",
      "taf": "TAF EYKA 021700Z 0218/0318 VRB03KT 7000 NSC"
    },
    {
      "icao": "EYPA",
      "alert": "OK",
      "vis_m": 9999,
      "fzfg": false,
      "metar_trigger": false,
      "taf_trigger": false,
      "metar": "METAR EYPA 022220Z AUTO 15002KT 9999 NCD M03/M03 Q1012",
      "taf": ""
    },
    {
      "icao": "EYVI",
      "alert": "OK",
      "vis_m": 9999,
      "fzfg": false,
      "metar_trigger": false,
      "taf_trigger": false,
      "metar": "METAR EYVI 022220Z VRB01KT CAVOK 01/M04 Q1010 NOSIG",
      "taf": "TAF EYVI 021700Z 0218/0318 VRB03KT 7000 NSC"
    },
    {
      "icao": "GCFV",
      "alert": "OK",
      "vis_m": 9999,
      "fzfg": false,
      "metar_trigger": false,
      "taf_trigger": false,
      "metar": "METAR GCFV 022230Z AUTO 34010KT CAVOK 18/11 Q1019",
      "taf": "TAF GCFV 022000Z 0221/0321 34009KT CAVOK TX24/0314Z TN16/0306Z"
    },
    {
      "icao": "GCLP",
      "alert": "OK",
      "vis_m": 9999,
      "fzfg": false,
      "metar_trigger": false,
      "taf_trigger": false,
      "metar": "METAR GCLP 022230Z 35009KT 330V040 CAVOK 19/05 Q1020 NOSIG",
      "taf": "TAF GCLP 022000Z 0221/0321 36012KT 9999 FEW020 TX23/0314Z TN16/0306Z"
    },
    {
      "icao": "GCTS",
      "alert": "OK",
      "vis_m": 9999,
      "fzfg": false,
      "metar_trigger": false,
      "taf_trigger": false,
      "metar": "METAR GCTS 022230Z 05010KT CAVOK 19/09 Q1020 NOSIG",
      "taf": "TAF GCTS 022000Z 0221/0321 07015KT CAVOK TX24/0314Z TN16/0306Z"
    },
    {
      "icao": "GMAD",
      "alert": "OK",
      "vis_m": 8000,
      "fzfg": false,
      "metar_trigger": false,
      "taf_trigger": false,
      "metar": "METAR GMAD 022230Z 09005KT 8000 NSC 14/13 Q1015 NOSIG",
      "taf": ""
    },
    {
      "icao": "GMMN",
      "alert": "OK",
      "vis_m": 4000,
      "fzfg": false,
      "metar_trigger": false,
      "taf_trigger": false,
      "metar": "METAR GMMN 022230Z 06005KT 030V120 4000 BR SCT004 14/12 Q1020 NOSIG",
      "taf": "TAF GMMN 021700Z 0218/0324 36010KT CAVOK"
    },
    {
      "icao": "GMMX",
      "alert": "OK",
      "vis_m": 9999,
      "fzfg": false,
      "metar_trigger": false,
      "taf_trigger": false,
      "metar": "METAR GMMX 022230Z 07006KT CAVOK 17/08 Q1019 NOSIG",
      "taf": "TAF GMMX 021700Z 0218/0324 09006KT CAVOK"
    },
    {
      "icao": "HEGN",
      "alert": "OK",
      "vis_m": 1500,
      "fzfg": false,
      "metar_trigger": false,
      "taf_trigger": false,
      "metar": "METAR HEGN 022200Z 34014KT 1500 R34L/1500 R16R/1500 SA FEW025 BKN100 23/16 Q1012 NOSIG",
      "taf": "TAF HEGN 021700Z 0218/0324 34008G20KT 6000 BKN020"
    },
    {
      "icao": "HEMA",
      "alert": "OK",
      "vis_m": 9999,
      "fzfg": false,
      "metar_trigger": false,
      "taf_trigger": false,
      "metar": "METAR HEMA 022200Z 14005KT CAVOK 25/15 Q1010 NOSIG",
      "taf": "TAF HEMA 021700Z 0218/0324 34008G22KT 6000 BKN020"
    },
    {
      "icao": "HESH",
      "alert": "OK",
      "vis_m": 9999,
      "fzfg": false,
      "metar_trigger": false,
      "taf_trigger": false,
      "metar": "METAR HESH 022200Z 06004KT CAVOK 24/21 Q1011 NOSIG",
      "taf": "TAF HESH 021700Z 0218/0324 35006G18KT 6000 BKN020"
    },
    {
      "icao": "HESX",
      "alert": "OK",
      "vis_m": 9999,
      "fzfg": false,
      "metar_trigger": false,
      "taf_trigger": false,
      "metar": "METAR HESX 022200Z 08005KT CAVOK 14/05 Q1015 NOSIG",
      "taf": "TAF HESX 021700Z 0218/0324 30008KT 6000 NSC"
    },
    {
      "icao": "LATI",
      "alert": "OK",
      "vis_m": 9999,
      "fzfg": false,
      "metar_trigger": false,
      "taf_trigger": false,
      "metar": "METAR LATI 022220Z VRB02KT 9999 FEW094 BKN110 09/07 Q0998 NOSIG",
      "taf": "TAF LATI 021700Z 0218/0318 VRB05KT 9999 RA SCT030 OVC060 TX17/0312Z TN06/0304Z"
    },
    {
      "icao": "LBPD",
      "alert": "OK",
      "vis_m": 9999,
      "fzfg": false,
      "metar_trigger": false,
      "taf_trigger": false,
      "metar": "METAR LBPD 022230Z AUTO 15004KT 9999 OVC061/// 09/09 Q0999",
      "taf": "TAF LBPD 021700Z 0218/0318 VRB04KT 9999 BKN015 OVC025"
    },
    {
      "icao": "LBSF",
      "alert": "OK",
      "vis_m": 9999,
      "fzfg": false,
      "metar_trigger": false,
      "taf_trigger": false,
      "metar": "METAR LBSF 022230Z AUTO 29004KT 9999 -RA BKN029/// OVC033/// 07/06 Q0999 NOSIG",
      "taf": "TAF LBSF 021700Z 0218/0318 01010KT 9999 SCT015 BKN020 OVC035"
    },
    {
      "icao": "LBWN",
      "alert": "OK",
      "vis_m": 550,
      "fzfg": false,
      "metar_trigger": false,
      "taf_trigger": false,
      "metar": "METAR LBWN 022230Z AUTO 11008KT 0550 0500E R09/0900D -RA FG VV002 09/09 Q1003 TEMPO 0500 FG OVC002",
      "taf": "TAF LBWN 021700Z 0218/0318 09010KT 8000 SCT004 BKN007 OVC015"
    },
    {
      "icao": "LCLK",
      "alert": "OK",
      "vis_m": 9999,
      "fzfg": false,
      "metar_trigger": false,
      "taf_trigger": false,
      "metar": "METAR LCLK 022230Z 23007KT 9999 SCT050 16/12 Q1012 NOSIG",
      "taf": "TAF LCLK 021730Z 0218/0318 25007KT 8000 SCT022 SCT050"
    },
    {
      "icao": "LCPH",
      "alert": "OK",
      "vis_m": 9999,
      "fzfg": false,
      "metar_trigger": false,
      "taf_trigger": false,
      "metar": "METAR LCPH 022230Z AUTO 26010KT 250V310 9999 NCD 16/11 Q1012 BECMG 5000 DU",
      "taf": "TAF LCPH 021730Z 0218/0318 35007KT 8000 FEW020 BKN050"
    },
    {
      "icao": "LEAL",
      "alert": "OK",
      "vis_m": 9999,
      "fzfg": false,
      "metar_trigger": false,
      "taf_trigger": false,
      "metar": "METAR LEAL 022230Z 34002KT CAVOK 13/09 Q1018 NOSIG",
      "taf": "TAF LEAL 021700Z 0218/0318 17009KT CAVOK TX19/0312Z TN09/0305Z"
    },
    {
      "icao": "LEBB",
      "alert": "OK",
      "vis_m": 9999,
      "fzfg": false,
      "metar_trigger": false,
      "taf_trigger": false,
      "metar": "METAR LEBB 022230Z AUTO 30005KT 9999 SCT026 BKN035 OVC042 12/08 Q1026",
      "taf": "TAF LEBB 021700Z 0218/0318 32009KT 9999 SCT015 BKN030 TX16/0312Z TN07/0306Z"
    },
    {
      "icao": "LEBL",
      "alert": "OK",
      "vis_m": 9999,
      "fzfg": false,
      "metar_trigger": false,
      "taf_trigger": false,
      "metar": "METAR LEBL 022230Z 32004KT 9999 FEW025 11/08 Q1016 NOSIG",
      "taf": "TAF LEBL 021700Z 0218/0318 06010KT 9999 FEW020 SCT030 TX20/0312Z TN11/0306Z"
    },
    {
      "icao": "LECH",
      "alert": "OK",
      "vis_m": 9999,
      "fzfg": false,
      "metar_trigger": false,
      "taf_trigger": false,
      "metar": "METAR LECH 022230Z AUTO 33006G19KT CAVOK 12/00 Q1017",
      "taf": ""
    },
    {
      "icao": "LEMD",
      "alert": "OK",
      "vis_m": 9999,
      "fzfg": false,
      "metar_trigger": false,
      "taf_trigger": false,
      "metar": "METAR LEMD 022230Z 09001KT CAVOK 10/M01 Q1022 NOSIG",
      "taf": "TAF LEMD 021700Z 0218/0324 01016KT CAVOK TX22/0315Z TN03/0306Z"
    },
    {
      "icao": "LEMG",
      "alert": "OK",
      "vis_m": 9999,
      "fzfg": false,
      "metar_trigger": false,
      "taf_trigger": false,
      "metar": "METAR LEMG 022230Z 15005KT 110V200 9999 BKN005 15/14 Q1019 NOSIG",
      "taf": ""
    },
    {
      "icao": "LEVC",
      "alert": "OK",
      "vis_m": 9999,
      "fzfg": false,
      "metar_trigger": false,
      "taf_trigger": false,
      "metar": "METAR LEVC 022230Z 33016KT CAVOK 15/01 Q1018 NOSIG",
      "taf": ""
    },
    {
      "icao": "LEXJ",
      "alert": "OK",
      "vis_m": 9999,
      "fzfg": false,
      "metar_trigger": false,
      "taf_trigger": false,
      "metar": "METAR LEXJ 022230Z AUTO 31006KT 280V360 9999 BKN031 BKN043 11/07 Q1026",
      "taf": "TAF LEXJ 022000Z 0221/0321 30009KT 9999 SCT015 BKN025 TX16/0314Z TN10/0306Z"
    },
    {
      "icao": "LEZG",
      "alert": "OK",
      "vis_m": 9999,
      "fzfg": false,
      "metar_trigger": false,
      "taf_trigger": false,
      "metar": "METAR LEZG 022230Z 28020KT 9999 SCT050 11/06 Q1022 NOSIG",
      "taf": "TAF LEZG 021700Z 0218/0318 31015KT 9999 SCT045 TX20/0314Z TN09/0305Z"
    },
    {
      "icao": "LEZL",
      "alert": "OK",
      "vis_m": 9999,
      "fzfg": false,
      "metar_trigger": false,
      "taf_trigger": false,
      "metar": "METAR LEZL 022230Z VRB01KT CAVOK 15/08 Q1019 NOSIG",
      "taf": "TAF LEZL 022000Z 0221/0321 04008KT CAVOK TX26/0315Z TN10/0307Z"
    },
    {
      "icao": "LFBD",
      "alert": "OK",
      "vis_m": 9999,
      "fzfg": false,
      "metar_trigger": false,
      "taf_trigger": false,
      "metar": "METAR LFBD 022230Z AUTO 27004KT CAVOK 08/07 Q1024 NOSIG",
      "taf": "TAF LFBD 021700Z 0218/0324 30010KT 9999 BKN030 TX18/0314Z TN07/0305Z"
    },
    {
      "icao": "LFLL",
      "alert": "OK",
      "vis_m": 9999,
      "fzfg": false,
      "metar_trigger": false,
      "taf_trigger": false,
      "metar": "METAR LFLL 022230Z 36010KT CAVOK 09/01 Q1018 NOSIG",
      "taf": "TAF LFLL 021700Z 0218/0324 35020KT CAVOK"
    },
    {
      "icao": "LFLS",
      "alert": "OK",
      "vis_m": 9999,
      "fzfg": false,
      "metar_trigger": false,
      "taf_trigger": false,
      "metar": "METAR LFLS 022230Z AUTO 34014KT CAVOK 07/M00 Q1016",
      "taf": "TAF LFLS 021400Z 0215/0315 36017G27KT 9999 BKN045"
    },
    {
      "icao": "LFMN",
      "alert": "OK",
      "vis_m": 9999,
      "fzfg": false,
      "metar_trigger": false,
      "taf_trigger": false,
      "metar": "METAR LFMN 022230Z 33007KT CAVOK 12/03 Q1008 NOSIG",
      "taf": "TAF LFMN 022000Z 0221/0403 33010KT CAVOK"
    },
    {
      "icao": "LFOB",
      "alert": "OK",
      "vis_m": 9999,
      "fzfg": false,
      "metar_trigger": false,
      "taf_trigger": false,
      "metar": "METAR LFOB 022230Z AUTO 33003KT CAVOK 01/01 Q1020 NOSIG",
      "taf": "TAF LFOB 021700Z 0218/0318 35010KT 9999 BKN035"
    },
    {
      "icao": "LFPO",
      "alert": "OK",
      "vis_m": 9999,
      "fzfg": false,
      "metar_trigger": false,
      "taf_trigger": false,
      "metar": "METAR LFPO 022230Z 32006KT CAVOK 06/03 Q1021 NOSIG",
      "taf": "TAF LFPO 021700Z 0218/0324 33007KT 9999 BKN030"
    },
    {
      "icao": "LFSB",
      "alert": "OK",
      "vis_m": 9999,
      "fzfg": false,
      "metar_trigger": false,
      "taf_trigger": false,
      "metar": "METAR LFSB 022230Z AUTO 18003KT CAVOK 04/01 Q1018 NOSIG",
      "taf": "TAF LFSB 021700Z 0218/0318 33005KT 9999 FEW050"
    },
    {
      "icao": "LGAV",
      "alert": "OK",
      "vis_m": 9999,
      "fzfg": false,
      "metar_trigger": false,
      "taf_trigger": false,
      "metar": "METAR LGAV 022220Z 19005KT 150V230 9999 FEW020 SCT060 14/09 Q1000 NOSIG",
      "taf": "TAF LGAV 021700Z 0218/0318 22012KT 9999 SCT025"
    },
    {
      "icao": "LGTS",
      "alert": "OK",
      "vis_m": 9999,
      "fzfg": false,
      "metar_trigger": false,
      "taf_trigger": false,
      "metar": "METAR LGTS 022220Z VRB02KT 9999 FEW015 SCT040 10/10 Q0999 NOSIG",
      "taf": "TAF LGTS 021700Z 0218/0318 33005KT 9999 FEW008 SCT030"
    },
    {
      "icao": "LHBP",
      "alert": "OK",
      "vis_m": 9999,
      "fzfg": false,
      "metar_trigger": false,
      "taf_trigger": false,
      "metar": "METAR LHBP 022230Z 35009KT CAVOK 11/04 Q1007 NOSIG",
      "taf": "TAF LHBP 021715Z 0218/0318 04009KT CAVOK"
    },
    {
      "icao": "LHDC",
      "alert": "OK",
      "vis_m": 9999,
      "fzfg": false,
      "metar_trigger": false,
      "taf_trigger": false,
      "metar": "METAR LHDC 022215Z AUTO 03014KT 360V060 CAVOK 11/06 Q1005",
      "taf": "TAF LHDC 021715Z 0218/0303 03011KT CAVOK"
    },
    {
      "icao": "LIBD",
      "alert": "OK",
      "vis_m": 9999,
      "fzfg": false,
      "metar_trigger": false,
      "taf_trigger": false,
      "metar": "METAR LIBD 022220Z 28005KT 9999 -RA BKN030 10/10 Q1000",
      "taf": "TAF LIBD 021700Z 0218/0318 30012KT 7000 BKN030"
    },
    {
      "icao": "LIBG",
      "alert": "OK",
      "vis_m": null,
      "fzfg": false,
      "metar_trigger": false,
      "taf_trigger": false,
      "metar": "",
      "taf": "TAF LIBG 021400Z 0215/0224 04012KT 7000 RA BKN030"
    },
    {
      "icao": "LIBP",
      "alert": "OK",
      "vis_m": 9999,
      "fzfg": false,
      "metar_trigger": false,
      "taf_trigger": false,
      "metar": "METAR LIBP 022220Z AUTO 22003KT 190V330 9999 OVC031/// 10/08 Q1005",
      "taf": "TAF LIBP 021700Z 0218/0318 32015KT 7000 RA OVC030"
    },
    {
      "icao": "LIBR",
      "alert": "OK",
      "vis_m": 6000,
      "fzfg": false,
      "metar_trigger": false,
      "taf_trigger": false,
      "metar": "METAR LIBR 022220Z 05010KT 6000 -RA SCT010 12/10 Q0998",
      "taf": "TAF LIBR 021700Z 0218/0318 04012KT 6000 OVC030"
    },
    {
      "icao": "LICA",
      "alert": "OK",
      "vis_m": 9999,
      "fzfg": false,
      "metar_trigger": false,
      "taf_trigger": false,
      "metar": "METAR LICA 022220Z AUTO 19004KT 130V220 9999 -DZRA BKN084/// 12/11 Q0998",
      "taf": "TAF LICA 021700Z 0218/0318 29012KT 9999 BKN030"
    },
    {
      "icao": "LICC",
      "alert": "OK",
      "vis_m": 9999,
      "fzfg": false,
      "metar_trigger": false,
      "taf_trigger": false,
      "metar": "METAR LICC 022220Z 29006KT 250V340 9999 SCT100 13/10 Q0999",
      "taf": "TAF LICC 021700Z 0218/0318 28013KT 9999 BKN025"
    },
    {
      "icao": "LICJ",
      "alert": "OK",
      "vis_m": 9999,
      "fzfg": false,
      "metar_trigger": false,
      "taf_trigger": false,
      "metar": "METAR LICJ 022220Z 05009KT 9999 -RA SCT020 12/09 Q1002",
      "taf": "TAF LICJ 021700Z 0218/0318 34013KT 8000 BKN025"
    },
    {
      "icao": "LIMC",
      "alert": "OK",
      "vis_m": 9999,
      "fzfg": false,
      "metar_trigger": false,
      "taf_trigger": false,
      "metar": "METAR LIMC 022220Z 36005KT 290V040 CAVOK 14/M06 Q1009 NOSIG",
      "taf": "TAF LIMC 021700Z 0218/0324 VRB05KT CAVOK"
    },
    {
      "icao": "LIME",
      "alert": "OK",
      "vis_m": 9999,
      "fzfg": false,
      "metar_trigger": false,
      "taf_trigger": false,
      "metar": "METAR LIME 022220Z 36005KT CAVOK 09/01 Q1009 NOSIG",
      "taf": "TAF LIME 021700Z 0218/0318 VRB05KT CAVOK"
    },
    {
      "icao": "LIMF",
      "alert": "OK",
      "vis_m": 9999,
      "fzfg": false,
      "metar_trigger": false,
      "taf_trigger": false,
      "metar": "METAR LIMF 022220Z 25003KT CAVOK 10/M01 Q1009",
      "taf": "TAF LIMF 021700Z 0218/0318 VRB05KT CAVOK"
    },
    {
      "icao": "LIMJ",
      "alert": "OK",
      "vis_m": 9999,
      "fzfg": false,
      "metar_trigger": false,
      "taf_trigger": false,
      "metar": "METAR LIMJ 022220Z 09007KT CAVOK 15/M00 Q1008",
      "taf": "TAF LIMJ 021700Z 0218/0318 01012KT CAVOK"
    },
    {
      "icao": "LIPE",
      "alert": "OK",
      "vis_m": 9999,
      "fzfg": false,
      "metar_trigger": false,
      "taf_trigger": false,
      "metar": "METAR LIPE 022220Z VRB01KT CAVOK 10/M03 Q1009",
      "taf": "TAF LIPE 021700Z 0218/0318 VRB05KT 9999 SCT060"
    },
    {
      "icao": "LIPH",
      "alert": "OK",
      "vis_m": 9999,
      "fzfg": false,
      "metar_trigger": false,
      "taf_trigger": false,
      "metar": "METAR LIPH 022220Z AUTO VRB04KT 9999 BKN170/// 10/05 Q1009",
      "taf": "TAF LIPH 021700Z 0218/0318 VRB05KT 9999 FEW060"
    },
    {
      "icao": "LIPQ",
      "alert": "OK",
      "vis_m": 9999,
      "fzfg": false,
      "metar_trigger": false,
      "taf_trigger": false,
      "metar": "METAR LIPQ 022220Z AUTO VRB02KT 9999 BKN200/// 10/01 Q1008",
      "taf": "TAF LIPQ 021700Z 0218/0318 08015KT 9999 FEW060"
    },
    {
      "icao": "LIPR",
      "alert": "OK",
      "vis_m": 9999,
      "fzfg": false,
      "metar_trigger": false,
      "taf_trigger": false,
      "metar": "METAR LIPR 022220Z 31006KT 9999 FEW060 10/05 Q1007",
      "taf": "TAF LIPR 021700Z 0218/0318 VRB05KT 9999 SCT050"
    },
    {
      "icao": "LIPX",
      "alert": "OK",
      "vis_m": 9999,
      "fzfg": false,
      "metar_trigger": false,
      "taf_trigger": false,
      "metar": "METAR LIPX 022220Z 01004KT CAVOK 10/01 Q1008",
      "taf": "TAF LIPX 021700Z 0218/0318 VRB05KT CAVOK"
    },
    {
      "icao": "LIPY",
      "alert": "OK",
      "vis_m": 9999,
      "fzfg": false,
      "metar_trigger": false,
      "taf_trigger": false,
      "metar": "METAR LIPY 022220Z AUTO 01005KT 350V050 9999 OVC140/// 12/08 Q1006",
      "taf": "TAF LIPY 021700Z 0218/0318 VRB05KT 9999 BKN060"
    },
    {
      "icao": "LIPZ",
      "alert": "OK",
      "vis_m": 9999,
      "fzfg": false,
      "metar_trigger": false,
      "taf_trigger": false,
      "metar": "METAR LIPZ 022220Z VRB02KT CAVOK 12/06 Q1008 NOSIG",
      "taf": "TAF LIPZ 021700Z 0218/0324 VRB05KT CAVOK"
    },
    {
      "icao": "LIRF",
      "alert": "OK",
      "vis_m": 9999,
      "fzfg": false,
      "metar_trigger": false,
      "taf_trigger": false,
      "metar": "METAR LIRF 022220Z 01014KT 9999 -SHRA NSC 12/05 Q1003 NOSIG",
      "taf": "TAF LIRF 021700Z 0218/0324 02016KT CAVOK"
    },
    {
      "icao": "LIRN",
      "alert": "OK",
      "vis_m": 9999,
      "fzfg": false,
      "metar_trigger": false,
      "taf_trigger": false,
      "metar": "METAR LIRN 022220Z 02008KT CAVOK 12/05 Q1001 NOSIG",
      "taf": "TAF LIRN 021700Z 0218/0318 03012KT 9999 BKN050"
    },
    {
      "icao": "LIRP",
      "alert": "OK",
      "vis_m": 9999,
      "fzfg": false,
      "metar_trigger": false,
      "taf_trigger": false,
      "metar": "METAR LIRP 022215Z 14007KT CAVOK 09/06 Q1007 NOSIG",
      "taf": "TAF LIRP 021700Z 0218/0318 25005KT CAVOK"
    },
    {
      "icao": "LIRZ",
      "alert": "OK",
      "vis_m": 9999,
      "fzfg": false,
      "metar_trigger": false,
      "taf_trigger": false,
      "metar": "METAR LIRZ 022220Z AUTO 34005KT 9999 FEW044/// BKN150/// 09/05 Q1006",
      "taf": "TAF LIRZ 021700Z 0218/0318 02012KT 9999 BKN030"
    },
    {
      "icao": "LJLJ",
      "alert": "OK",
      "vis_m": 9999,
      "fzfg": false,
      "metar_trigger": false,
      "taf_trigger": false,
      "metar": "METAR LJLJ 022230Z 33003KT 300V030 9999 FEW055 SCT090 BKN200 07/01 Q1009 NOSIG",
      "taf": "TAF LJLJ 021700Z 0218/0318 32006KT 9999 FEW055"
    },
    {
      "icao": "LKMT",
      "alert": "OK",
      "vis_m": 9999,
      "fzfg": false,
      "metar_trigger": false,
      "taf_trigger": false,
      "metar": "METAR LKMT 022230Z 04001KT CAVOK 08/M00 Q1012 NOSIG",
      "taf": "TAF LKMT 021700Z 0218/0318 03008KT CAVOK"
    },
    {
      "icao": "LKPR",
      "alert": "OK",
      "vis_m": 9999,
      "fzfg": false,
      "metar_trigger": false,
      "taf_trigger": false,
      "metar": "METAR LKPR 022230Z 28005KT CAVOK 03/M02 Q1014 NOSIG",
      "taf": "TAF LKPR 022000Z 0221/0403 32005KT CAVOK"
    },
    {
      "icao": "LLBG",
      "alert": "OK",
      "vis_m": 8000,
      "fzfg": false,
      "metar_trigger": false,
      "taf_trigger": false,
      "metar": "METAR LLBG 022220Z 27005KT 8000 FEW015 18/16 Q1014 NOSIG",
      "taf": ""
    },
    {
      "icao": "LMML",
      "alert": "OK",
      "vis_m": 9999,
      "fzfg": false,
      "metar_trigger": false,
      "taf_trigger": false,
      "metar": "METAR LMML 022215Z 26018KT 9999 SCT019TCU 12/10 Q1003 TEMPO 8000 SHRA",
      "taf": "TAF LMML 021700Z 0218/0318 28020G30KT 9999 FEW020 SCT045"
    },
    {
      "icao": "LOWW",
      "alert": "OK",
      "vis_m": 9999,
      "fzfg": false,
      "metar_trigger": false,
      "taf_trigger": false,
      "metar": "METAR LOWW 022220Z 30016KT 9999 SCT050 08/02 Q1013 NOSIG",
      "taf": "TAF LOWW 022015Z 0221/0403 30015G25KT CAVOK TX15/0313Z TN05/0304Z"
    },
    {
      "icao": "LPFR",
      "alert": "OK",
      "vis_m": 9999,
      "fzfg": false,
      "metar_trigger": false,
      "taf_trigger": false,
      "metar": "METAR LPFR 022230Z 30006KT CAVOK 18/11 Q1019",
      "taf": "TAF LPFR 021700Z 0218/0318 25007KT CAVOK"
    },
    {
      "icao": "LPMA",
      "alert": "OK",
      "vis_m": 9999,
      "fzfg": false,
      "metar_trigger": false,
      "taf_trigger": false,
      "metar": "METAR LPMA 022230Z 02019KT 9999 FEW016 18/07 Q1023",
      "taf": "TAF LPMA 021700Z 0218/0318 01015KT 9999 SCT015"
    },
    {
      "icao": "LPPR",
      "alert": "OK",
      "vis_m": 9999,
      "fzfg": false,
      "metar_trigger": false,
      "taf_trigger": false,
      "metar": "METAR LPPR 022230Z 03003KT 310V110 CAVOK 12/08 Q1022",
      "taf": "TAF LPPR 021700Z 0218/0318 34012KT CAVOK"
    },
    {
      "icao": "LPPS",
      "alert": "OK",
      "vis_m": 9999,
      "fzfg": false,
      "metar_trigger": false,
      "taf_trigger": false,
      "metar": "METAR LPPS 022230Z 04007KT 350V090 9999 FEW012 15/12 Q1024",
      "taf": "TAF LPPS 021700Z 0218/0324 03013KT 9999 SCT013"
    },
    {
      "icao": "LPPT",
      "alert": "OK",
      "vis_m": 9999,
      "fzfg": false,
      "metar_trigger": false,
      "taf_trigger": false,
      "metar": "METAR LPPT 022230Z 34010KT 310V010 CAVOK 14/09 Q1022",
      "taf": "TAF LPPT 021700Z 0218/0324 34013KT CAVOK"
    },
    {
      "icao": "LQBK",
      "alert": "OK",
      "vis_m": 9999,
      "fzfg": false,
      "metar_trigger": false,
      "taf_trigger": false,
      "metar": "METAR LQBK 022230Z 31007KT 270V340 9999 BKN040 10/02 Q1006 NOSIG",
      "taf": "TAF LQBK 021700Z 0218/0318 29007KT 9999 SCT030 BKN045 TX12/0313Z TN06/0305Z"
    },
    {
      "icao": "LQSA",
      "alert": "OK",
      "vis_m": 5000,
      "fzfg": false,
      "metar_trigger": false,
      "taf_trigger": false,
      "metar": "METAR LQSA 022230Z 12002KT 5000 -RA BR SCT005 BKN025 05/05 Q1003",
      "taf": "TAF LQSA 021700Z 0218/0318 30008KT 9999 -RA SCT018 BKN030 TX07/0313Z TN04/0305Z"
    },
    {
      "icao": "LQTZ",
      "alert": "OK",
      "vis_m": 450,
      "fzfg": false,
      "metar_trigger": false,
      "taf_trigger": false,
      "metar": "METAR LQTZ 022230Z VRB01KT 0450 R09/0600N -RA FG BKN002 OVC007 03/03 Q1004",
      "taf": "TAF LQTZ 021700Z 0218/0318 29005KT 3000 RA BR BKN012 OVC020 TX06/0313Z TN03/0305Z"
    },
    {
      "icao": "LRBC",
      "alert": "OK",
      "vis_m": 5000,
      "fzfg": false,
      "metar_trigger": false,
      "taf_trigger": false,
      "metar": "METAR LRBC 022230Z 33003KT 5000 -DZ BR OVC007 09/08 Q1004 REDZ",
      "taf": "TAF LRBC 022000Z 0221/0306 VRB04KT 5000 -RA BR BKN015 OVC025"
    },
    {
      "icao": "LRBS",
      "alert": "OK",
      "vis_m": 9999,
      "fzfg": false,
      "metar_trigger": false,
      "taf_trigger": false,
      "metar": "METAR LRBS 022230Z 06011KT 9999 OVC005 09/08 Q1003 NOSIG",
      "taf": ""
    },
    {
      "icao": "LRBV",
      "alert": "OK",
      "vis_m": 6000,
      "fzfg": false,
      "metar_trigger": false,
      "taf_trigger": false,
      "metar": "METAR LRBV 022230Z AUTO 00000KT 6000 BKN042/// OVC061/// 06/06 Q1003",
      "taf": "TAF LRBV 021700Z 0218/0303 08010KT 5000 -RA BR SCT020 BKN035"
    },
    {
      "icao": "LRCL",
      "alert": "OK",
      "vis_m": 9999,
      "fzfg": false,
      "metar_trigger": false,
      "taf_trigger": false,
      "metar": "METAR LRCL 022230Z 26004KT 9999 BKN054 09/06 Q1004",
      "taf": "TAF LRCL 022000Z 0221/0306 VRB04KT 9999 BKN045"
    },
    {
      "icao": "LRCV",
      "alert": "OK",
      "vis_m": 9999,
      "fzfg": false,
      "metar_trigger": false,
      "taf_trigger": false,
      "metar": "METAR LRCV 022230Z 08014KT 9999 -RA OVC008 09/08 Q1001",
      "taf": "TAF LRCV 022000Z 0221/0306 07014KT 5000 -RA BR BKN005 OVC015"
    },
    {
      "icao": "LRIA",
      "alert": "OK",
      "vis_m": 2800,
      "fzfg": false,
      "metar_trigger": false,
      "taf_trigger": false,
      "metar": "METAR LRIA 022230Z 26003KT 220V300 2800 -RA BR SCT006 OVC040 10/09 Q1004",
      "taf": "TAF LRIA 022000Z 0221/0306 VRB04KT 7000 BKN015 OVC025"
    },
    {
      "icao": "LROP",
      "alert": "OK",
      "vis_m": 9999,
      "fzfg": false,
      "metar_trigger": false,
      "taf_trigger": false,
      "metar": "METAR LROP 022230Z 07012KT 9999 SCT005 BKN006 OVC008 09/09 Q1003 NOSIG",
      "taf": ""
    },
    {
      "icao": "LRSB",
      "alert": "OK",
      "vis_m": 8000,
      "fzfg": false,
      "metar_trigger": false,
      "taf_trigger": false,
      "metar": "METAR LRSB 022230Z 32004KT 8000 -RA SCT010 BKN014 OVC022 08/07 Q1003",
      "taf": "TAF LRSB 021700Z 0218/0318 VRB04KT 5000 -RA BR SCT015 BKN030"
    },
    {
      "icao": "LRSM",
      "alert": "OK",
      "vis_m": null,
      "fzfg": false,
      "metar_trigger": false,
      "taf_trigger": false,
      "metar": "",
      "taf": "TAF LRSM 021400Z 0215/0224 06015KT CAVOK"
    },
    {
      "icao": "LRSV",
      "alert": "OK",
      "vis_m": 6000,
      "fzfg": false,
      "metar_trigger": false,
      "taf_trigger": false,
      "metar": "METAR LRSV 022230Z 32011KT 6000 BKN027 BKN048 09/08 Q1004",
      "taf": "TAF LRSV 022000Z 0221/0306 32012KT 6000 -RA BKN020 OVC025"
    },
    {
      "icao": "LRTM",
      "alert": "OK",
      "vis_m": 6000,
      "fzfg": false,
      "metar_trigger": false,
      "taf_trigger": false,
      "metar": "METAR LRTM 022230Z 22005KT 6000 -RA BKN047 09/08 Q1003",
      "taf": "TAF LRTM 022000Z 0221/0306 VRB04KT 9999 BKN045"
    },
    {
      "icao": "LRTR",
      "alert": "OK",
      "vis_m": 9999,
      "fzfg": false,
      "metar_trigger": false,
      "taf_trigger": false,
      "metar": "METAR LRTR 022230Z 35003KT 320V020 9999 -RA FEW035 OVC048 10/10 Q1003",
      "taf": ""
    },
    {
      "icao": "LTAC",
      "alert": "OK",
      "vis_m": 9999,
      "fzfg": false,
      "metar_trigger": false,
      "taf_trigger": false,
      "metar": "METAR LTAC 022220Z 22009KT 9999 SCT040 SCT100 11/04 Q1005 NOSIG RMK RWY21C 23007KT RWY03L 22008KT RWY21R 24005KT RWY03R 22008KT RWY21L 22011KT",
      "taf": "TAF LTAC 021640Z 0218/0318 VRB02KT 9999 SCT040 SCT100"
    },
    {
      "icao": "LTFM",
      "alert": "OK",
      "vis_m": 6000,
      "fzfg": false,
      "metar_trigger": false,
      "taf_trigger": false,
      "metar": "METAR LTFM 022220Z 18007KT 6000 SCT004 BKN040 09/08 Q1002 NOSIG RMK RWY17L 19009KT RWY34L 19006KT RWY16R 19006KT 150V220 RWY36 18007KT RWY18 19008KT",
      "taf": ""
    },
    {
      "icao": "LUKK",
      "alert": "OK",
      "vis_m": 9999,
      "fzfg": false,
      "metar_trigger": false,
      "taf_trigger": false,
      "metar": "METAR LUKK 022230Z 29008KT CAVOK 10/09 Q1003 NOSIG",
      "taf": "TAF LUKK 021703Z 0218/0318 VRB04KT 9999 BKN020"
    },
    {
      "icao": "LWOH",
      "alert": "OK",
      "vis_m": null,
      "fzfg": false,
      "metar_trigger": false,
      "taf_trigger": false,
      "metar": "",
      "taf": "TAF LWOH 022030Z 0221/0321 34008KT 9999 SCT020 OVC035"
    },
    {
      "icao": "LWSK",
      "alert": "OK",
      "vis_m": 9999,
      "fzfg": false,
      "metar_trigger": false,
      "taf_trigger": false,
      "metar": "METAR LWSK 022220Z 28003KT 240V330 9999 FEW026 BKN036 08/05 Q1001 NOSIG",
      "taf": "TAF LWSK 022030Z 0221/0321 VRB02KT 9999 OVC035"
    },
    {
      "icao": "LYBE",
      "alert": "OK",
      "vis_m": 3000,
      "fzfg": false,
      "metar_trigger": false,
      "taf_trigger": false,
      "metar": "METAR LYBE 022230Z 31003KT 3000 -RA BR BKN026 08/08 Q1004 NOSIG",
      "taf": "TAF LYBE 021700Z 0218/0318 22008KT 7000 SCT015 BKN030 TX10/0313Z TN06/0306Z"
    },
    {
      "icao": "LYNI",
      "alert": "OK",
      "vis_m": 9999,
      "fzfg": false,
      "metar_trigger": false,
      "taf_trigger": false,
      "metar": "METAR LYNI 022230Z 34008KT 9999 FEW015 SCT025 BKN037 08/08 Q1001 NOSIG",
      "taf": "TAF LYNI 021700Z 0218/0318 33013KT 9999 SCT010 BKN027 TX11/0313Z TN06/0305Z"
    },
    {
      "icao": "LYPG",
      "alert": "OK",
      "vis_m": 9999,
      "fzfg": false,
      "metar_trigger": false,
      "taf_trigger": false,
      "metar": "METAR LYPG 022230Z 07005KT 9999 FEW040 13/01 Q0999 NOSIG",
      "taf": "TAF LYPG 021700Z 0218/0318 36014KT 9999 SCT040 OVC080 TX18/0313Z TN07/0304Z"
    },
    {
      "icao": "LZIB",
      "alert": "OK",
      "vis_m": 9999,
      "fzfg": false,
      "metar_trigger": false,
      "taf_trigger": false,
      "metar": "METAR LZIB 022230Z 27011KT 9999 -RA NSC 09/04 Q1011 NOSIG",
      "taf": "TAF LZIB 021715Z 0218/0318 32013KT CAVOK"
    },
    {
      "icao": "LZKZ",
      "alert": "OK",
      "vis_m": 9999,
      "fzfg": false,
      "metar_trigger": false,
      "taf_trigger": false,
      "metar": "METAR LZKZ 022230Z 36019KT CAVOK 11/04 Q1008 NOSIG",
      "taf": "TAF LZKZ 021715Z 0218/0318 01017KT CAVOK"
    },
    {
      "icao": "LZTT",
      "alert": "OK",
      "vis_m": 9999,
      "fzfg": false,
      "metar_trigger": false,
      "taf_trigger": false,
      "metar": "METAR LZTT 022230Z 31003KT 260V070 9999 BKN050 04/03 Q1010",
      "taf": "TAF LZTT 021715Z 0218/0318 12006KT 9999 FEW015 BKN030 BKN060"
    },
    {
      "icao": "OEJN",
      "alert": "OK",
      "vis_m": 9999,
      "fzfg": false,
      "metar_trigger": false,
      "taf_trigger": false,
      "metar": "METAR OEJN 022200Z 35002KT CAVOK 29/17 Q1008 NOSIG",
      "taf": "TAF OEJN 021700Z 0218/0324 VRB03KT 7000 NSC"
    },
    {
      "icao": "OEMA",
      "alert": "OK",
      "vis_m": 9999,
      "fzfg": false,
      "metar_trigger": false,
      "taf_trigger": false,
      "metar": "METAR OEMA 022200Z 35006KT CAVOK 31/04 Q1014 NOSIG",
      "taf": "TAF OEMA 021700Z 0218/0324 VRB03KT 9999 SCT045"
    },
    {
      "icao": "OJAI",
      "alert": "OK",
      "vis_m": 1100,
      "fzfg": false,
      "metar_trigger": false,
      "taf_trigger": false,
      "metar": "METAR OJAI 022200Z 28008KT 1100 BR SCT010 BKN025 15/15 Q1014 NOSIG",
      "taf": ""
    },
    {
      "icao": "OMAA",
      "alert": "OK",
      "vis_m": null,
      "fzfg": false,
      "metar_trigger": false,
      "taf_trigger": false,
      "metar": "",
      "taf": ""
    },
    {
      "icao": "OMDB",
      "alert": "OK",
      "vis_m": null,
      "fzfg": false,
      "metar_trigger": false,
      "taf_trigger": false,
      "metar": "",
      "taf": ""
    },
    {
      "icao": "UAAA",
      "alert": "OK",
      "vis_m": 9999,
      "fzfg": false,
      "metar_trigger": false,
      "taf_trigger": false,
      "metar": "METAR UAAA 022230Z VRB01MPS 9999 SCT200 10/04 Q1012 NOSIG",
      "taf": "TAF UAAA 021703Z 0218/0318 17002MPS 9999 SCT100 TX26/0310Z TN09/0301Z"
    },
    {
      "icao": "UBBB",
      "alert": "OK",
      "vis_m": 9999,
      "fzfg": false,
      "metar_trigger": false,
      "taf_trigger": false,
      "metar": "METAR UBBB 022230Z 14008KT 9999 FEW004 12/11 Q1008 NOSIG",
      "taf": "TAF UBBB 021700Z 0218/0318 15008KT 9999 SCT030 TX17/0310Z TN08/0301Z"
    },
    {
      "icao": "UDSG",
      "alert": "OK",
      "vis_m": 9000,
      "fzfg": false,
      "metar_trigger": false,
      "taf_trigger": false,
      "metar": "METAR UDSG 022230Z 30005KT 9000 -SHRA BKN016CB OVC033 04/04 Q1014 NOSIG",
      "taf": "TAF UDSG 021700Z 0218/0318 21006KT 9999 BKN040"
    },
    {
      "icao": "UDYZ",
      "alert": "OK",
      "vis_m": 9999,
      "fzfg": false,
      "metar_trigger": false,
      "taf_trigger": false,
      "metar": "METAR UDYZ 022230Z 00000KT 9999 -SHRA BKN043CB 10/08 Q1013 NOSIG",
      "taf": "TAF UDYZ 021700Z 0218/0318 06004KT 9999 SCT040"
    },
    {
      "icao": "UGKO",
      "alert": "OK",
      "vis_m": 9999,
      "fzfg": false,
      "metar_trigger": false,
      "taf_trigger": false,
      "metar": "METAR UGKO 022230Z 09015KT 9999 BKN097 19/06 Q1004 NOSIG",
      "taf": "TAF UGKO 021700Z 0218/0318 08010KT CAVOK TX25/0311Z TN13/0303Z"
    }
  ]
}