{
  "ts_utc": "2026-06-18T00:20:13Z",
  "threshold_m": 150,
  "source": "stations_override.txt (ICAO list) + aviationweather.gov (METAR/TAF raw)",
  "station_count": 159,
  "stations": [
    {
      "icao": "BIKF",
      "alert": "OK",
      "vis_m": 9999,
      "fzfg": false,
      "metar_trigger": false,
      "taf_trigger": false,
      "metar": "METAR BIKF 180000Z 05007KT 9999 FEW042 BKN075 11/03 Q1003",
      "taf": "TAF BIKF 172254Z 1800/1900 02012KT 9999 FEW040 TX14/1815Z TN09/1806Z"
    },
    {
      "icao": "BKPR",
      "alert": "OK",
      "vis_m": 9999,
      "fzfg": false,
      "metar_trigger": false,
      "taf_trigger": false,
      "metar": "METAR BKPR 180000Z 35004KT CAVOK 15/11 Q1021 NOSIG",
      "taf": "TAF BKPR 172330Z 1800/1824 34008KT 9999 FEW080"
    },
    {
      "icao": "EBCI",
      "alert": "OK",
      "vis_m": 9999,
      "fzfg": false,
      "metar_trigger": false,
      "taf_trigger": false,
      "metar": "METAR EBCI 172350Z 27004KT CAVOK 20/16 Q1020 NOSIG",
      "taf": "TAF EBCI 172320Z 1800/1906 20004KT 9999 FEW045"
    },
    {
      "icao": "EDDB",
      "alert": "OK",
      "vis_m": 9999,
      "fzfg": false,
      "metar_trigger": false,
      "taf_trigger": false,
      "metar": "METAR EDDB 172350Z AUTO 25005KT CAVOK 20/15 Q1019 NOSIG",
      "taf": "TAF EDDB 172300Z 1800/1824 23004KT CAVOK"
    },
    {
      "icao": "EDDH",
      "alert": "OK",
      "vis_m": 7000,
      "fzfg": false,
      "metar_trigger": false,
      "taf_trigger": false,
      "metar": "METAR EDDH 172350Z AUTO 28003KT 230V310 7000 FEW005 BKN019 BKN030 17/17 Q1018 TEMPO 4000 BR BKN005",
      "taf": "TAF EDDH 172300Z 1800/1906 24004KT 9999 SCT020 BKN030"
    },
    {
      "icao": "EDDK",
      "alert": "OK",
      "vis_m": 9999,
      "fzfg": false,
      "metar_trigger": false,
      "taf_trigger": false,
      "metar": "METAR EDDK 172350Z AUTO VRB01KT CAVOK 18/16 Q1020 NOSIG",
      "taf": "TAF EDDK 172300Z 1800/1906 VRB03KT CAVOK"
    },
    {
      "icao": "EDDN",
      "alert": "OK",
      "vis_m": 9999,
      "fzfg": false,
      "metar_trigger": false,
      "taf_trigger": false,
      "metar": "METAR EDDN 172350Z AUTO 11005KT CAVOK 18/14 Q1021",
      "taf": "TAF EDDN 172300Z 1800/1824 10004KT CAVOK"
    },
    {
      "icao": "EDDS",
      "alert": "OK",
      "vis_m": 9999,
      "fzfg": false,
      "metar_trigger": false,
      "taf_trigger": false,
      "metar": "METAR EDDS 172350Z AUTO VRB01KT CAVOK 17/13 Q1021",
      "taf": "TAF EDDS 172300Z 1800/1824 VRB03KT CAVOK"
    },
    {
      "icao": "EDFH",
      "alert": "OK",
      "vis_m": 9999,
      "fzfg": false,
      "metar_trigger": false,
      "taf_trigger": false,
      "metar": "METAR EDFH 172350Z COR 16003KT 120V190 CAVOK 18/14 Q1021",
      "taf": "TAF EDFH 172300Z 1800/1824 19004KT CAVOK"
    },
    {
      "icao": "EDJA",
      "alert": "OK",
      "vis_m": 9999,
      "fzfg": false,
      "metar_trigger": false,
      "taf_trigger": false,
      "metar": "METAR EDJA 172350Z AUTO VRB02KT 9999 // FEW160/// 16/14 Q1023",
      "taf": "TAF EDJA 171700Z 1718/1803 VRB03KT CAVOK"
    },
    {
      "icao": "EDLW",
      "alert": "OK",
      "vis_m": 9999,
      "fzfg": false,
      "metar_trigger": false,
      "taf_trigger": false,
      "metar": "METAR EDLW 172350Z AUTO 17007KT 9999 // FEW051/// SCT068/// BKN078/// 20/16 Q1019",
      "taf": "TAF EDLW 171700Z 1718/1818 24007KT 9999 FEW045"
    },
    {
      "icao": "EDNY",
      "alert": "OK",
      "vis_m": 9999,
      "fzfg": false,
      "metar_trigger": false,
      "taf_trigger": false,
      "metar": "METAR EDNY 172350Z AUTO 04004KT 010V070 9999 // NCD 18/15 Q1022",
      "taf": "TAF EDNY 171700Z 1718/1803 VRB03KT CAVOK"
    },
    {
      "icao": "EDSB",
      "alert": "OK",
      "vis_m": 9999,
      "fzfg": false,
      "metar_trigger": false,
      "taf_trigger": false,
      "metar": "METAR EDSB 172350Z AUTO 00000KT 9999 // FEW140/// 18/17 Q1020",
      "taf": "TAF EDSB 172300Z 1800/1824 VRB03KT CAVOK"
    },
    {
      "icao": "EETN",
      "alert": "OK",
      "vis_m": 9999,
      "fzfg": false,
      "metar_trigger": false,
      "taf_trigger": false,
      "metar": "METAR EETN 172350Z 30008KT CAVOK 13/10 Q1007",
      "taf": "TAF EETN 172330Z 1800/1824 29010KT 9999 SCT040"
    },
    {
      "icao": "EFTU",
      "alert": "OK",
      "vis_m": 9999,
      "fzfg": false,
      "metar_trigger": false,
      "taf_trigger": false,
      "metar": "METAR EFTU 172350Z AUTO 27003KT CAVOK 09/08 Q1008",
      "taf": "TAF EFTU 172330Z 1800/1824 27004KT CAVOK"
    },
    {
      "icao": "EGBB",
      "alert": "OK",
      "vis_m": 9999,
      "fzfg": false,
      "metar_trigger": false,
      "taf_trigger": false,
      "metar": "METAR EGBB 172350Z 19003KT 160V270 9999 SCT020 BKN030 17/15 Q1017",
      "taf": "TAF EGBB 172255Z 1800/1824 22008KT 9999 FEW025"
    },
    {
      "icao": "EGGP",
      "alert": "OK",
      "vis_m": 9999,
      "fzfg": false,
      "metar_trigger": false,
      "taf_trigger": false,
      "metar": "METAR EGGP 172350Z 21006KT 180V240 CAVOK 16/10 Q1016",
      "taf": "TAF EGGP 172253Z 1800/1824 25005KT 9999 FEW040"
    },
    {
      "icao": "EGGW",
      "alert": "OK",
      "vis_m": 9999,
      "fzfg": false,
      "metar_trigger": false,
      "taf_trigger": false,
      "metar": "METAR EGGW 172350Z AUTO 20004KT 9999 NCD 16/15 Q1018",
      "taf": "TAF EGGW 172253Z 1800/1824 21005KT 9999 SCT018"
    },
    {
      "icao": "EGKK",
      "alert": "OK",
      "vis_m": 9999,
      "fzfg": false,
      "metar_trigger": false,
      "taf_trigger": false,
      "metar": "METAR EGKK 172350Z 23003KT 190V270 9999 BKN005 17/16 Q1019",
      "taf": "TAF EGKK 172302Z 1800/1906 22005KT 9999 BKN007"
    },
    {
      "icao": "EGNM",
      "alert": "OK",
      "vis_m": 9999,
      "fzfg": false,
      "metar_trigger": false,
      "taf_trigger": false,
      "metar": "METAR EGNM 172350Z 26005KT 9999 SCT045 13/11 Q1016",
      "taf": "TAF EGNM 172255Z 1800/1824 26004KT 9999 FEW040"
    },
    {
      "icao": "EGPD",
      "alert": "OK",
      "vis_m": 9999,
      "fzfg": false,
      "metar_trigger": false,
      "taf_trigger": false,
      "metar": "METAR EGPD 172350Z AUTO 22008KT 9999 NCD 15/11 Q1011",
      "taf": "TAF EGPD 172253Z 1800/1824 23009KT 9999 FEW018"
    },
    {
      "icao": "EGPF",
      "alert": "OK",
      "vis_m": 9999,
      "fzfg": false,
      "metar_trigger": false,
      "taf_trigger": false,
      "metar": "METAR EGPF 172350Z AUTO 21008KT 9999 BKN049 14/13 Q1012",
      "taf": "TAF EGPF 172253Z 1800/1824 18008KT 9999 SCT010 BKN025"
    },
    {
      "icao": "EHBK",
      "alert": "OK",
      "vis_m": 9999,
      "fzfg": false,
      "metar_trigger": false,
      "taf_trigger": false,
      "metar": "METAR EHBK 172355Z AUTO 16004KT 9999 NSC 19/17 Q1019",
      "taf": "TAF EHBK 172316Z 1800/1906 15003KT CAVOK"
    },
    {
      "icao": "EHEH",
      "alert": "OK",
      "vis_m": 9999,
      "fzfg": false,
      "metar_trigger": false,
      "taf_trigger": false,
      "metar": "METAR EHEH 172325Z AUTO 00000KT 9999 BKN053 BKN060 BKN066 17/17 Q1019 BLU",
      "taf": "TAF EHEH 172342Z 1800/1906 VRB02KT CAVOK"
    },
    {
      "icao": "EKBI",
      "alert": "OK",
      "vis_m": 9000,
      "fzfg": false,
      "metar_trigger": false,
      "taf_trigger": false,
      "metar": "METAR EKBI 172350Z AUTO 24007KT 9000 OVC005/// 14/14 Q1016",
      "taf": ""
    },
    {
      "icao": "EKCH",
      "alert": "OK",
      "vis_m": 9999,
      "fzfg": false,
      "metar_trigger": false,
      "taf_trigger": false,
      "metar": "METAR EKCH 172350Z 21008KT 9999 BKN014 15/12 Q1015 BECMG BKN007",
      "taf": "TAF EKCH 172327Z 1800/1824 20008KT 9999 OVC020"
    },
    {
      "icao": "ENAL",
      "alert": "OK",
      "vis_m": 9999,
      "fzfg": false,
      "metar_trigger": false,
      "taf_trigger": false,
      "metar": "METAR ENAL 172350Z AUTO 18002KT 9999 -RA BKN051/// 11/10 Q1009",
      "taf": "TAF ENAL 172300Z 1800/1809 VRB05KT 9999 FEW012 BKN040"
    },
    {
      "icao": "ENBR",
      "alert": "OK",
      "vis_m": 200,
      "fzfg": false,
      "metar_trigger": false,
      "taf_trigger": false,
      "metar": "METAR ENBR 172350Z 22008KT 0200 R17/0900N R35/P2000N +SHRA VV002 11/11 Q1010 RERA RMK WIND 1200FT 24012KT",
      "taf": "TAF ENBR 172300Z 1800/1824 18008KT 0100 FG VV001"
    },
    {
      "icao": "ENGM",
      "alert": "OK",
      "vis_m": 9999,
      "fzfg": false,
      "metar_trigger": false,
      "taf_trigger": false,
      "metar": "METAR ENGM 172350Z 20007KT 9999 OVC009 12/10 Q1009",
      "taf": "TAF ENGM 172300Z 1800/1824 22008KT 9999 BKN008"
    },
    {
      "icao": "ENHD",
      "alert": "OK",
      "vis_m": 200,
      "fzfg": false,
      "metar_trigger": false,
      "taf_trigger": false,
      "metar": "METAR ENHD 172350Z AUTO 22004KT 0200 R13/0650N R31/P2000N FG VV001 12/11 Q1011",
      "taf": "TAF ENHD 171400Z 1715/1722 13010KT 9000 -RA FEW008 BKN012"
    },
    {
      "icao": "ENTC",
      "alert": "OK",
      "vis_m": 9999,
      "fzfg": false,
      "metar_trigger": false,
      "taf_trigger": false,
      "metar": "METAR ENTC 172350Z AUTO 19003KT 160V220 9999 -RA FEW018/// SCT023/// BKN030/// 06/03 Q1013 RMK WIND 2600FT 33010KT",
      "taf": "TAF ENTC 172300Z 1800/1824 35008KT 9999 FEW012 BKN025"
    },
    {
      "icao": "ENTO",
      "alert": "OK",
      "vis_m": 3000,
      "fzfg": false,
      "metar_trigger": false,
      "taf_trigger": false,
      "metar": "METAR ENTO 172350Z AUTO 23006KT 3000 // BKN004/// BKN006/// 13/13 Q1010 REDZ RERA",
      "taf": "TAF ENTO 172300Z 1800/1824 20008KT 6000 -DZ BKN008"
    },
    {
      "icao": "ENVA",
      "alert": "OK",
      "vis_m": 9999,
      "fzfg": false,
      "metar_trigger": false,
      "taf_trigger": false,
      "metar": "METAR ENVA 172350Z AUTO 07002KT 9999 NCD 13/09 Q1008 RMK WIND 670FT VRB02KT",
      "taf": "TAF ENVA 172300Z 1800/1824 26008KT 9999 -SHRA FEW025 BKN050"
    },
    {
      "icao": "ENZV",
      "alert": "OK",
      "vis_m": 2800,
      "fzfg": false,
      "metar_trigger": false,
      "taf_trigger": false,
      "metar": "METAR ENZV 172350Z 20005KT 2800 BR VV003 12/12 Q1012",
      "taf": "TAF ENZV 172300Z 1800/1824 18008KT 9999 BKN008"
    },
    {
      "icao": "EPGD",
      "alert": "OK",
      "vis_m": 9999,
      "fzfg": false,
      "metar_trigger": false,
      "taf_trigger": false,
      "metar": "METAR EPGD 180000Z 25004KT CAVOK 13/10 Q1017",
      "taf": "TAF EPGD 172330Z 1800/1824 25005KT CAVOK"
    },
    {
      "icao": "EPKK",
      "alert": "OK",
      "vis_m": 9999,
      "fzfg": false,
      "metar_trigger": false,
      "taf_trigger": false,
      "metar": "METAR EPKK 180000Z 02002KT CAVOK 11/09 Q1020",
      "taf": "TAF EPKK 172330Z 1800/1824 VRB02KT CAVOK"
    },
    {
      "icao": "EPKT",
      "alert": "OK",
      "vis_m": 9999,
      "fzfg": false,
      "metar_trigger": false,
      "taf_trigger": false,
      "metar": "METAR EPKT 180000Z 36002KT CAVOK 09/09 Q1020",
      "taf": "TAF EPKT 172330Z 1800/1824 VRB02KT CAVOK"
    },
    {
      "icao": "EPLB",
      "alert": "OK",
      "vis_m": 9999,
      "fzfg": false,
      "metar_trigger": false,
      "taf_trigger": false,
      "metar": "METAR EPLB 180000Z 29004KT CAVOK 10/09 Q1019",
      "taf": "TAF EPLB 172330Z 1800/1824 27004KT CAVOK"
    },
    {
      "icao": "EPMO",
      "alert": "OK",
      "vis_m": 9999,
      "fzfg": false,
      "metar_trigger": false,
      "taf_trigger": false,
      "metar": "METAR EPMO 180000Z 21003KT CAVOK 12/10 Q1018",
      "taf": "TAF EPMO 172330Z 1800/1824 23004KT CAVOK"
    },
    {
      "icao": "EPPO",
      "alert": "OK",
      "vis_m": 9999,
      "fzfg": false,
      "metar_trigger": false,
      "taf_trigger": false,
      "metar": "METAR EPPO 180000Z VRB01KT CAVOK 15/10 Q1019",
      "taf": "TAF EPPO 172330Z 1800/1824 VRB02KT CAVOK"
    },
    {
      "icao": "EPRA",
      "alert": "OK",
      "vis_m": 9999,
      "fzfg": false,
      "metar_trigger": false,
      "taf_trigger": false,
      "metar": "METAR EPRA 180000Z 24003KT CAVOK 10/07 Q1019",
      "taf": "TAF EPRA 172330Z 1800/1809 25005KT CAVOK"
    },
    {
      "icao": "EPRZ",
      "alert": "OK",
      "vis_m": 9999,
      "fzfg": false,
      "metar_trigger": false,
      "taf_trigger": false,
      "metar": "METAR EPRZ 180000Z 23002KT CAVOK 12/09 Q1020",
      "taf": "TAF EPRZ 172330Z 1800/1824 VRB02KT CAVOK"
    },
    {
      "icao": "EPSC",
      "alert": "OK",
      "vis_m": 9999,
      "fzfg": false,
      "metar_trigger": false,
      "taf_trigger": false,
      "metar": "METAR EPSC 180000Z 13003KT CAVOK 14/12 Q1018",
      "taf": "TAF EPSC 172330Z 1800/1824 VRB03KT 9999 SCT040"
    },
    {
      "icao": "EPSY",
      "alert": "OK",
      "vis_m": 9999,
      "fzfg": false,
      "metar_trigger": false,
      "taf_trigger": false,
      "metar": "METAR EPSY 180000Z 00000KT CAVOK 09/09 Q1018",
      "taf": "TAF EPSY 172330Z 1800/1809 VRB02KT CAVOK"
    },
    {
      "icao": "EPWA",
      "alert": "OK",
      "vis_m": 9999,
      "fzfg": false,
      "metar_trigger": false,
      "taf_trigger": false,
      "metar": "METAR EPWA 180000Z 00000KT CAVOK 11/10 Q1018 NOSIG",
      "taf": "TAF EPWA 172330Z 1800/1824 26004KT CAVOK"
    },
    {
      "icao": "EPWR",
      "alert": "OK",
      "vis_m": 9999,
      "fzfg": false,
      "metar_trigger": false,
      "taf_trigger": false,
      "metar": "METAR EPWR 180000Z 25003KT CAVOK 16/14 Q1019",
      "taf": "TAF EPWR 172330Z 1800/1824 VRB02KT CAVOK"
    },
    {
      "icao": "ESGG",
      "alert": "OK",
      "vis_m": 4500,
      "fzfg": false,
      "metar_trigger": false,
      "taf_trigger": false,
      "metar": "METAR ESGG 172350Z 18008KT 4500 BR VV004 13/12 Q1012",
      "taf": "TAF ESGG 172330Z 1800/1824 19006KT 6000 -RA BKN003"
    },
    {
      "icao": "ESKN",
      "alert": "OK",
      "vis_m": 9999,
      "fzfg": false,
      "metar_trigger": false,
      "taf_trigger": false,
      "metar": "METAR ESKN 172350Z 26008KT CAVOK 15/11 Q1011",
      "taf": "TAF ESKN 172330Z 1800/1824 27007KT CAVOK"
    },
    {
      "icao": "ESMS",
      "alert": "OK",
      "vis_m": 9999,
      "fzfg": false,
      "metar_trigger": false,
      "taf_trigger": false,
      "metar": "METAR ESMS 172350Z 20007KT 9999 SCT020 BKN026 15/10 Q1015",
      "taf": "TAF ESMS 172327Z 1800/1824 22006KT 9999 BKN020"
    },
    {
      "icao": "ESSA",
      "alert": "OK",
      "vis_m": 9999,
      "fzfg": false,
      "metar_trigger": false,
      "taf_trigger": false,
      "metar": "METAR ESSA 172350Z 26008KT CAVOK 13/08 Q1009 NOSIG",
      "taf": "TAF ESSA 172330Z 1800/1824 25007KT CAVOK"
    },
    {
      "icao": "EYKA",
      "alert": "OK",
      "vis_m": 9999,
      "fzfg": false,
      "metar_trigger": false,
      "taf_trigger": false,
      "metar": "METAR EYKA 172350Z AUTO 28008KT 9999 FEW007/// 11/10 Q1015",
      "taf": "TAF EYKA 172304Z 1800/1824 26008KT 5000 BR BKN005"
    },
    {
      "icao": "EYPA",
      "alert": "OK",
      "vis_m": 9999,
      "fzfg": false,
      "metar_trigger": false,
      "taf_trigger": false,
      "metar": "METAR EYPA 172350Z 26004KT 140V310 9999 BKN015 13/11 Q1015",
      "taf": "TAF EYPA 172304Z 1800/1824 VRB03KT 9000 BKN015"
    },
    {
      "icao": "EYVI",
      "alert": "OK",
      "vis_m": 9999,
      "fzfg": false,
      "metar_trigger": false,
      "taf_trigger": false,
      "metar": "METAR EYVI 172350Z 28008KT 250V310 9999 BKN009 12/11 Q1015 TEMPO BKN005",
      "taf": "TAF EYVI 172303Z 1800/1824 27008KT 5000 BR BKN005"
    },
    {
      "icao": "GCFV",
      "alert": "OK",
      "vis_m": 9999,
      "fzfg": false,
      "metar_trigger": false,
      "taf_trigger": false,
      "metar": "METAR GCFV 180000Z AUTO 36011KT 9999 BKN034 21/15 Q1019",
      "taf": "TAF GCFV 172000Z 1721/1821 01012KT 9999 SCT025 TX27/1814Z TN20/1806Z"
    },
    {
      "icao": "GCLP",
      "alert": "OK",
      "vis_m": 9999,
      "fzfg": false,
      "metar_trigger": false,
      "taf_trigger": false,
      "metar": "METAR GCLP 180000Z 36017KT 9999 BKN030 22/16 Q1019 NOSIG",
      "taf": "TAF GCLP 172000Z 1721/1821 36020KT 9999 SCT030 TX26/1814Z TN20/1806Z"
    },
    {
      "icao": "GCTS",
      "alert": "OK",
      "vis_m": 9999,
      "fzfg": false,
      "metar_trigger": false,
      "taf_trigger": false,
      "metar": "METAR GCTS 180000Z 10007KT 9999 BKN030 22/16 Q1020 NOSIG",
      "taf": "TAF GCTS 172000Z 1721/1821 VRB05KT 9999 BKN025 TX25/1814Z TN20/1806Z"
    },
    {
      "icao": "GMAD",
      "alert": "OK",
      "vis_m": 8000,
      "fzfg": false,
      "metar_trigger": false,
      "taf_trigger": false,
      "metar": "METAR GMAD 180000Z 26003KT 8000 SCT010 BKN023 20/17 Q1017 NOSIG",
      "taf": "TAF GMAD 172300Z 1800/1906 12004KT 6000 BKN008 BKN016"
    },
    {
      "icao": "GMMN",
      "alert": "OK",
      "vis_m": 9999,
      "fzfg": false,
      "metar_trigger": false,
      "taf_trigger": false,
      "metar": "METAR GMMN 180000Z 26006KT 220V300 9999 BKN012 21/17 Q1016 NOSIG",
      "taf": "TAF GMMN 172300Z 1800/1906 22006KT 9999 BKN012"
    },
    {
      "icao": "GMMX",
      "alert": "OK",
      "vis_m": 9999,
      "fzfg": false,
      "metar_trigger": false,
      "taf_trigger": false,
      "metar": "METAR GMMX 180000Z 26007KT 9999 FEW026 19/15 Q1017 NOSIG",
      "taf": "TAF GMMX 172300Z 1800/1906 26006KT 8000 SCT026"
    },
    {
      "icao": "HEGN",
      "alert": "OK",
      "vis_m": 9999,
      "fzfg": false,
      "metar_trigger": false,
      "taf_trigger": false,
      "metar": "METAR HEGN 172300Z 31008KT CAVOK 29/06 Q1009 NOSIG",
      "taf": "TAF HEGN 172300Z 1800/1906 30012KT CAVOK"
    },
    {
      "icao": "HEMA",
      "alert": "OK",
      "vis_m": 9999,
      "fzfg": false,
      "metar_trigger": false,
      "taf_trigger": false,
      "metar": "METAR HEMA 172300Z 24004KT CAVOK 27/11 Q1009 NOSIG",
      "taf": "TAF HEMA 172300Z 1800/1906 26015KT CAVOK"
    },
    {
      "icao": "HESH",
      "alert": "OK",
      "vis_m": 9999,
      "fzfg": false,
      "metar_trigger": false,
      "taf_trigger": false,
      "metar": "METAR HESH 172300Z 00000KT CAVOK 30/10 Q1008 NOSIG",
      "taf": "TAF HESH 172300Z 1800/1906 33010KT CAVOK"
    },
    {
      "icao": "HESX",
      "alert": "OK",
      "vis_m": 9999,
      "fzfg": false,
      "metar_trigger": false,
      "taf_trigger": false,
      "metar": "METAR HESX 172300Z 34008KT CAVOK 22/16 Q1014 NOSIG",
      "taf": "TAF HESX 172300Z 1800/1906 34009KT CAVOK"
    },
    {
      "icao": "LATI",
      "alert": "OK",
      "vis_m": null,
      "fzfg": false,
      "metar_trigger": false,
      "taf_trigger": false,
      "metar": "",
      "taf": "TAF LATI 172300Z 1800/1824 VRB05KT CAVOK TX32/1812Z TN16/1804Z"
    },
    {
      "icao": "LBPD",
      "alert": "OK",
      "vis_m": 9999,
      "fzfg": false,
      "metar_trigger": false,
      "taf_trigger": false,
      "metar": "METAR LBPD 180000Z AUTO 00000KT 9999 NCD 16/12 Q1017",
      "taf": "TAF LBPD 172300Z 1800/1824 VRB03KT 9999 SCT070"
    },
    {
      "icao": "LBSF",
      "alert": "OK",
      "vis_m": 9999,
      "fzfg": false,
      "metar_trigger": false,
      "taf_trigger": false,
      "metar": "METAR LBSF 180000Z AUTO 00000KT 9999 NCD 13/11 Q1020 NOSIG",
      "taf": "TAF LBSF 172300Z 1800/1824 VRB03KT 9999 SCT070"
    },
    {
      "icao": "LBWN",
      "alert": "OK",
      "vis_m": 9999,
      "fzfg": false,
      "metar_trigger": false,
      "taf_trigger": false,
      "metar": "METAR LBWN 180000Z AUTO 32003KT 9999 NCD 15/15 Q1016 NOSIG",
      "taf": "TAF LBWN 172300Z 1800/1824 VRB04KT 9999 SCT045"
    },
    {
      "icao": "LCLK",
      "alert": "OK",
      "vis_m": 9999,
      "fzfg": false,
      "metar_trigger": false,
      "taf_trigger": false,
      "metar": "METAR LCLK 180000Z 24007KT CAVOK 25/21 Q1009 NOSIG",
      "taf": "TAF LCLK 172330Z 1800/1900 26007KT CAVOK"
    },
    {
      "icao": "LCPH",
      "alert": "OK",
      "vis_m": 9999,
      "fzfg": false,
      "metar_trigger": false,
      "taf_trigger": false,
      "metar": "METAR LCPH 180000Z 36005KT CAVOK 21/17 Q1010 NOSIG",
      "taf": "TAF LCPH 172330Z 1800/1900 01006KT CAVOK"
    },
    {
      "icao": "LEAL",
      "alert": "OK",
      "vis_m": 9999,
      "fzfg": false,
      "metar_trigger": false,
      "taf_trigger": false,
      "metar": "METAR LEAL 180000Z 04003KT 010V070 CAVOK 25/18 Q1018 NOSIG",
      "taf": "TAF LEAL 172300Z 1800/1824 VRB04KT CAVOK TX30/1812Z TN21/1805Z"
    },
    {
      "icao": "LEBB",
      "alert": "OK",
      "vis_m": 9999,
      "fzfg": false,
      "metar_trigger": false,
      "taf_trigger": false,
      "metar": "METAR LEBB 180000Z AUTO 08003KT 030V140 9999 OVC011 21/19 Q1021",
      "taf": "TAF LEBB 172300Z 1800/1824 12007KT 9999 FEW005 TX26/1813Z TN18/1805Z"
    },
    {
      "icao": "LEBL",
      "alert": "OK",
      "vis_m": 9999,
      "fzfg": false,
      "metar_trigger": false,
      "taf_trigger": false,
      "metar": "METAR LEBL 180000Z VRB02KT CAVOK 23/22 Q1020 NOSIG",
      "taf": "TAF LEBL 172300Z 1800/1824 VRB04KT 9999 FEW010 TX27/1812Z TN21/1806Z"
    },
    {
      "icao": "LECH",
      "alert": "OK",
      "vis_m": 9999,
      "fzfg": false,
      "metar_trigger": false,
      "taf_trigger": false,
      "metar": "METAR LECH 180000Z AUTO 08003KT CAVOK 19/16 Q1021",
      "taf": "TAF LECH 172300Z 1800/1824 VRB03KT CAVOK TX32/1812Z TN17/1805Z"
    },
    {
      "icao": "LEMD",
      "alert": "OK",
      "vis_m": 9999,
      "fzfg": false,
      "metar_trigger": false,
      "taf_trigger": false,
      "metar": "METAR LEMD 180000Z 13008KT 100V170 CAVOK 25/04 Q1020 NOSIG",
      "taf": "TAF LEMD 172300Z 1800/1906 VRB04KT CAVOK TX36/1816Z TN19/1805Z"
    },
    {
      "icao": "LEMG",
      "alert": "OK",
      "vis_m": 9999,
      "fzfg": false,
      "metar_trigger": false,
      "taf_trigger": false,
      "metar": "METAR LEMG 180000Z 30004KT CAVOK 23/11 Q1017 NOSIG",
      "taf": "TAF LEMG 172300Z 1800/1824 29006KT CAVOK TX32/1814Z TN20/1806Z"
    },
    {
      "icao": "LEVC",
      "alert": "OK",
      "vis_m": 9999,
      "fzfg": false,
      "metar_trigger": false,
      "taf_trigger": false,
      "metar": "METAR LEVC 180000Z 31004KT CAVOK 22/17 Q1019 NOSIG",
      "taf": "TAF LEVC 172300Z 1800/1824 VRB03KT CAVOK TX32/1812Z TN20/1805Z"
    },
    {
      "icao": "LEXJ",
      "alert": "OK",
      "vis_m": 8000,
      "fzfg": false,
      "metar_trigger": false,
      "taf_trigger": false,
      "metar": "METAR LEXJ 180000Z AUTO 11004KT 080V150 8000 BKN010 19/19 Q1019",
      "taf": ""
    },
    {
      "icao": "LEZG",
      "alert": "OK",
      "vis_m": 9999,
      "fzfg": false,
      "metar_trigger": false,
      "taf_trigger": false,
      "metar": "METAR LEZG 180000Z 08003KT 030V110 CAVOK 25/11 Q1019 NOSIG",
      "taf": "TAF LEZG 172300Z 1800/1824 12008KT CAVOK TX38/1815Z TN21/1805Z"
    },
    {
      "icao": "LEZL",
      "alert": "OK",
      "vis_m": 9999,
      "fzfg": false,
      "metar_trigger": false,
      "taf_trigger": false,
      "metar": "METAR LEZL 180000Z AUTO 21006KT 170V240 CAVOK 27/14 Q1015",
      "taf": "TAF LEZL 172000Z 1721/1821 22010KT CAVOK TX39/1815Z TN22/1806Z"
    },
    {
      "icao": "LFBD",
      "alert": "OK",
      "vis_m": 9999,
      "fzfg": false,
      "metar_trigger": false,
      "taf_trigger": false,
      "metar": "METAR LFBD 180000Z AUTO 03003KT CAVOK 23/16 Q1017 NOSIG",
      "taf": "TAF LFBD 172300Z 1800/1906 03005KT CAVOK TX38/1815Z TN20/1805Z"
    },
    {
      "icao": "LFLL",
      "alert": "OK",
      "vis_m": 9999,
      "fzfg": false,
      "metar_trigger": false,
      "taf_trigger": false,
      "metar": "METAR LFLL 180000Z VRB01KT CAVOK 23/14 Q1020 NOSIG",
      "taf": "TAF LFLL 172300Z 1800/1906 16006KT CAVOK"
    },
    {
      "icao": "LFLS",
      "alert": "OK",
      "vis_m": 9999,
      "fzfg": false,
      "metar_trigger": false,
      "taf_trigger": false,
      "metar": "METAR LFLS 180000Z AUTO 04006KT 020V080 CAVOK 17/15 Q1021",
      "taf": "TAF LFLS 171400Z 1715/1815 VRB03KT CAVOK"
    },
    {
      "icao": "LFMN",
      "alert": "OK",
      "vis_m": 9999,
      "fzfg": false,
      "metar_trigger": false,
      "taf_trigger": false,
      "metar": "METAR LFMN 180000Z 07006KT CAVOK 23/20 Q1019 NOSIG",
      "taf": "TAF LFMN 172000Z 1721/1903 VRB05KT CAVOK"
    },
    {
      "icao": "LFOB",
      "alert": "OK",
      "vis_m": 9999,
      "fzfg": false,
      "metar_trigger": false,
      "taf_trigger": false,
      "metar": "METAR LFOB 180000Z AUTO 33003KT CAVOK 15/14 Q1020 NOSIG",
      "taf": "TAF LFOB 172300Z 1800/1824 VRB04KT CAVOK"
    },
    {
      "icao": "LFPO",
      "alert": "OK",
      "vis_m": 9999,
      "fzfg": false,
      "metar_trigger": false,
      "taf_trigger": false,
      "metar": "METAR LFPO 180000Z AUTO 01007KT CAVOK 22/16 Q1019 NOSIG",
      "taf": "TAF LFPO 172300Z 1800/1906 34010KT CAVOK"
    },
    {
      "icao": "LFSB",
      "alert": "OK",
      "vis_m": 9999,
      "fzfg": false,
      "metar_trigger": false,
      "taf_trigger": false,
      "metar": "METAR LFSB 180000Z AUTO 00000KT CAVOK 17/15 Q1021 NOSIG",
      "taf": "TAF LFSB 172300Z 1800/1824 VRB03KT CAVOK"
    },
    {
      "icao": "LGAV",
      "alert": "OK",
      "vis_m": 9999,
      "fzfg": false,
      "metar_trigger": false,
      "taf_trigger": false,
      "metar": "METAR LGAV 172350Z VRB02KT 9999 FEW030 23/13 Q1015 NOSIG",
      "taf": "TAF LGAV 172300Z 1800/1824 VRB05KT 9999 FEW025 SCT070"
    },
    {
      "icao": "LGTS",
      "alert": "OK",
      "vis_m": 9999,
      "fzfg": false,
      "metar_trigger": false,
      "taf_trigger": false,
      "metar": "METAR LGTS 172350Z VRB03KT 9999 FEW025 17/17 Q1017 NOSIG",
      "taf": "TAF LGTS 172300Z 1800/1824 34013KT 9999 FEW030"
    },
    {
      "icao": "LHBP",
      "alert": "OK",
      "vis_m": 9999,
      "fzfg": false,
      "metar_trigger": false,
      "taf_trigger": false,
      "metar": "METAR LHBP 180000Z VRB02KT CAVOK 17/14 Q1019 NOSIG",
      "taf": "TAF LHBP 172315Z 1800/1824 VRB03KT CAVOK"
    },
    {
      "icao": "LHDC",
      "alert": "OK",
      "vis_m": 9999,
      "fzfg": false,
      "metar_trigger": false,
      "taf_trigger": false,
      "metar": "METAR LHDC 172345Z AUTO 04002KT CAVOK 16/15 Q1019",
      "taf": "TAF LHDC 171415Z 1715/1724 30008KT CAVOK"
    },
    {
      "icao": "LIBD",
      "alert": "OK",
      "vis_m": 9999,
      "fzfg": false,
      "metar_trigger": false,
      "taf_trigger": false,
      "metar": "METAR LIBD 172350Z 25007KT CAVOK 21/14 Q1018",
      "taf": "TAF LIBD 172300Z 1800/1824 33012KT CAVOK"
    },
    {
      "icao": "LIBG",
      "alert": "OK",
      "vis_m": 9999,
      "fzfg": false,
      "metar_trigger": false,
      "taf_trigger": false,
      "metar": "METAR LIBG 172350Z AUTO 36005KT 9999 NCD 21/13 Q1018",
      "taf": "TAF LIBG 172300Z 1800/1824 VRB05KT CAVOK"
    },
    {
      "icao": "LIBP",
      "alert": "OK",
      "vis_m": 9999,
      "fzfg": false,
      "metar_trigger": false,
      "taf_trigger": false,
      "metar": "METAR LIBP 172350Z AUTO 21005KT 9999 NCD 19/16 Q1019",
      "taf": "TAF LIBP 172300Z 1800/1824 VRB04KT 9999 FEW030"
    },
    {
      "icao": "LIBR",
      "alert": "OK",
      "vis_m": 9999,
      "fzfg": false,
      "metar_trigger": false,
      "taf_trigger": false,
      "metar": "METAR LIBR 172350Z 29006KT CAVOK 21/16 Q1017",
      "taf": "TAF LIBR 172300Z 1800/1824 35012KT CAVOK"
    },
    {
      "icao": "LICA",
      "alert": "OK",
      "vis_m": 9999,
      "fzfg": false,
      "metar_trigger": false,
      "taf_trigger": false,
      "metar": "METAR LICA 172350Z AUTO 19003KT 9999 BKN023/// 23/20 Q1019",
      "taf": "TAF LICA 172300Z 1800/1824 25007KT 9999 SCT015"
    },
    {
      "icao": "LICC",
      "alert": "OK",
      "vis_m": 9999,
      "fzfg": false,
      "metar_trigger": false,
      "taf_trigger": false,
      "metar": "METAR LICC 172350Z 25011KT CAVOK 23/17 Q1019",
      "taf": "TAF LICC 172300Z 1800/1824 VRB05KT CAVOK"
    },
    {
      "icao": "LICJ",
      "alert": "OK",
      "vis_m": 9999,
      "fzfg": false,
      "metar_trigger": false,
      "taf_trigger": false,
      "metar": "METAR LICJ 172350Z AUTO VRB01KT 9999 NCD 22/20 Q1019",
      "taf": "TAF LICJ 172300Z 1800/1824 VRB04KT CAVOK"
    },
    {
      "icao": "LIMC",
      "alert": "OK",
      "vis_m": 9999,
      "fzfg": false,
      "metar_trigger": false,
      "taf_trigger": false,
      "metar": "METAR LIMC 172350Z 01004KT CAVOK 22/18 Q1019 NOSIG",
      "taf": "TAF LIMC 172300Z 1800/1906 VRB05KT CAVOK"
    },
    {
      "icao": "LIME",
      "alert": "OK",
      "vis_m": 9999,
      "fzfg": false,
      "metar_trigger": false,
      "taf_trigger": false,
      "metar": "METAR LIME 172350Z 02005KT CAVOK 24/16 Q1020 NOSIG",
      "taf": "TAF LIME 172300Z 1800/1824 VRB05KT CAVOK"
    },
    {
      "icao": "LIMF",
      "alert": "OK",
      "vis_m": 9999,
      "fzfg": false,
      "metar_trigger": false,
      "taf_trigger": false,
      "metar": "METAR LIMF 172350Z 28003KT CAVOK 24/16 Q1019",
      "taf": "TAF LIMF 172300Z 1800/1824 VRB05KT CAVOK"
    },
    {
      "icao": "LIMJ",
      "alert": "OK",
      "vis_m": 9999,
      "fzfg": false,
      "metar_trigger": false,
      "taf_trigger": false,
      "metar": "METAR LIMJ 172350Z VRB02KT CAVOK 21/16 Q1019",
      "taf": "TAF LIMJ 172300Z 1800/1824 VRB05KT CAVOK"
    },
    {
      "icao": "LIPE",
      "alert": "OK",
      "vis_m": 9999,
      "fzfg": false,
      "metar_trigger": false,
      "taf_trigger": false,
      "metar": "METAR LIPE 172350Z 20007KT CAVOK 25/16 Q1018",
      "taf": "TAF LIPE 172300Z 1800/1824 VRB04KT CAVOK"
    },
    {
      "icao": "LIPH",
      "alert": "OK",
      "vis_m": 9999,
      "fzfg": false,
      "metar_trigger": false,
      "taf_trigger": false,
      "metar": "METAR LIPH 172350Z AUTO VRB01KT 9999 NCD 22/19 Q1019",
      "taf": "TAF LIPH 172300Z 1800/1824 VRB05KT CAVOK"
    },
    {
      "icao": "LIPQ",
      "alert": "OK",
      "vis_m": null,
      "fzfg": false,
      "metar_trigger": false,
      "taf_trigger": false,
      "metar": "METAR LIPQ 172350Z AUTO VRB01KT //// // BKN130/// 21/18 Q1019",
      "taf": "TAF LIPQ 172300Z 1800/1824 VRB05KT 9999 FEW050"
    },
    {
      "icao": "LIPR",
      "alert": "OK",
      "vis_m": 9999,
      "fzfg": false,
      "metar_trigger": false,
      "taf_trigger": false,
      "metar": "METAR LIPR 172350Z AUTO 24003KT 9999 NCD 21/17 Q1018",
      "taf": "TAF LIPR 172300Z 1800/1824 VRB05KT CAVOK"
    },
    {
      "icao": "LIPX",
      "alert": "OK",
      "vis_m": 9999,
      "fzfg": false,
      "metar_trigger": false,
      "taf_trigger": false,
      "metar": "METAR LIPX 172350Z 08002KT CAVOK 22/19 Q1019",
      "taf": "TAF LIPX 172300Z 1800/1824 VRB05KT CAVOK"
    },
    {
      "icao": "LIPY",
      "alert": "OK",
      "vis_m": 9999,
      "fzfg": false,
      "metar_trigger": false,
      "taf_trigger": false,
      "metar": "METAR LIPY 172350Z AUTO 20004KT 9999 NCD 21/15 Q1019",
      "taf": "TAF LIPY 172300Z 1800/1824 VRB05KT CAVOK"
    },
    {
      "icao": "LIPZ",
      "alert": "OK",
      "vis_m": 9999,
      "fzfg": false,
      "metar_trigger": false,
      "taf_trigger": false,
      "metar": "METAR LIPZ 172350Z 36003KT CAVOK 23/20 Q1019 NOSIG",
      "taf": "TAF LIPZ 172300Z 1800/1906 VRB04KT CAVOK"
    },
    {
      "icao": "LIRF",
      "alert": "OK",
      "vis_m": 9999,
      "fzfg": false,
      "metar_trigger": false,
      "taf_trigger": false,
      "metar": "METAR LIRF 172350Z 02001KT CAVOK 20/19 Q1019 NOSIG",
      "taf": "TAF LIRF 172300Z 1800/1906 VRB04KT CAVOK"
    },
    {
      "icao": "LIRN",
      "alert": "OK",
      "vis_m": 9999,
      "fzfg": false,
      "metar_trigger": false,
      "taf_trigger": false,
      "metar": "METAR LIRN 172350Z 02003KT CAVOK 23/18 Q1020 NOSIG",
      "taf": "TAF LIRN 172300Z 1800/1824 VRB04KT CAVOK"
    },
    {
      "icao": "LIRP",
      "alert": "OK",
      "vis_m": 9999,
      "fzfg": false,
      "metar_trigger": false,
      "taf_trigger": false,
      "metar": "METAR LIRP 172345Z 15006KT CAVOK 18/17 Q1020 NOSIG",
      "taf": "TAF LIRP 172300Z 1800/1824 VRB03KT CAVOK"
    },
    {
      "icao": "LIRZ",
      "alert": "OK",
      "vis_m": 9999,
      "fzfg": false,
      "metar_trigger": false,
      "taf_trigger": false,
      "metar": "METAR LIRZ 172350Z AUTO 03007KT 9999 NCD 20/16 Q1020",
      "taf": "TAF LIRZ 172300Z 1800/1824 VRB05KT CAVOK"
    },
    {
      "icao": "LJLJ",
      "alert": "OK",
      "vis_m": 9999,
      "fzfg": false,
      "metar_trigger": false,
      "taf_trigger": false,
      "metar": "METAR LJLJ 180000Z 32005KT 9999 SCT093 18/17 Q1021 NOSIG",
      "taf": "TAF LJLJ 172300Z 1800/1900 03005KT CAVOK"
    },
    {
      "icao": "LKMT",
      "alert": "OK",
      "vis_m": 9999,
      "fzfg": false,
      "metar_trigger": false,
      "taf_trigger": false,
      "metar": "METAR LKMT 180000Z 19003KT CAVOK 15/14 Q1020 NOSIG",
      "taf": "TAF LKMT 172300Z 1800/1824 VRB02KT CAVOK"
    },
    {
      "icao": "LKPR",
      "alert": "OK",
      "vis_m": 9999,
      "fzfg": false,
      "metar_trigger": false,
      "taf_trigger": false,
      "metar": "METAR LKPR 180000Z 23004KT CAVOK 18/15 Q1021 NOSIG",
      "taf": "TAF LKPR 172300Z 1800/1906 28004KT CAVOK"
    },
    {
      "icao": "LLBG",
      "alert": "OK",
      "vis_m": 9999,
      "fzfg": false,
      "metar_trigger": false,
      "taf_trigger": false,
      "metar": "METAR LLBG 172350Z 15004KT 9999 SCT017 24/20 Q1011 NOSIG",
      "taf": "TAF LLBG 172302Z 1800/1824 VRB04KT 9999 SCT020 TX30/1811Z TN22/1803Z"
    },
    {
      "icao": "LMML",
      "alert": "OK",
      "vis_m": 9999,
      "fzfg": false,
      "metar_trigger": false,
      "taf_trigger": false,
      "metar": "METAR LMML 172345Z 24003KT CAVOK 22/19 Q1019 NOSIG",
      "taf": "TAF LMML 172300Z 1800/1824 VRB07KT CAVOK"
    },
    {
      "icao": "LOWW",
      "alert": "OK",
      "vis_m": 9999,
      "fzfg": false,
      "metar_trigger": false,
      "taf_trigger": false,
      "metar": "METAR LOWW 172350Z VRB02KT CAVOK 20/15 Q1020 NOSIG",
      "taf": "TAF LOWW 172315Z 1800/1906 30008KT 9999 FEW050 TX30/1815Z TN18/1903Z"
    },
    {
      "icao": "LPFR",
      "alert": "OK",
      "vis_m": 9999,
      "fzfg": false,
      "metar_trigger": false,
      "taf_trigger": false,
      "metar": "METAR LPFR 180000Z VRB03KT CAVOK 25/14 Q1015",
      "taf": "TAF LPFR 172300Z 1800/1824 VRB02KT CAVOK"
    },
    {
      "icao": "LPMA",
      "alert": "OK",
      "vis_m": 9999,
      "fzfg": false,
      "metar_trigger": false,
      "taf_trigger": false,
      "metar": "METAR LPMA 180000Z 16004KT 120V200 9999 FEW015 20/16 Q1021",
      "taf": "TAF LPMA 172300Z 1800/1824 VRB05KT 9999 SCT015"
    },
    {
      "icao": "LPPR",
      "alert": "OK",
      "vis_m": 9999,
      "fzfg": false,
      "metar_trigger": false,
      "taf_trigger": false,
      "metar": "METAR LPPR 180000Z 29003KT 200V350 9999 BKN005 16/15 Q1018",
      "taf": "TAF LPPR 172300Z 1800/1824 VRB02KT 9999 SCT005"
    },
    {
      "icao": "LPPS",
      "alert": "OK",
      "vis_m": 9999,
      "fzfg": false,
      "metar_trigger": false,
      "taf_trigger": false,
      "metar": "METAR LPPS 180000Z 01008KT 9999 BKN012 20/17 Q1021",
      "taf": "TAF LPPS 172300Z 1800/1906 35010KT 9999 SCT015"
    },
    {
      "icao": "LPPT",
      "alert": "OK",
      "vis_m": 9999,
      "fzfg": false,
      "metar_trigger": false,
      "taf_trigger": false,
      "metar": "METAR LPPT 180000Z 31007KT 280V340 CAVOK 19/13 Q1017",
      "taf": "TAF LPPT 172300Z 1800/1906 32008KT 9999 FEW015"
    },
    {
      "icao": "LQBK",
      "alert": "OK",
      "vis_m": 9000,
      "fzfg": false,
      "metar_trigger": false,
      "taf_trigger": false,
      "metar": "METAR LQBK 180000Z 29004KT 230V320 9000 RA BKN047 19/17 Q1020 BECMG NSW",
      "taf": "TAF LQBK 172300Z 1800/1824 32005KT CAVOK TX29/1814Z TN16/1803Z"
    },
    {
      "icao": "LQSA",
      "alert": "OK",
      "vis_m": 9999,
      "fzfg": false,
      "metar_trigger": false,
      "taf_trigger": false,
      "metar": "METAR LQSA 180000Z VRB02KT CAVOK 14/11 Q1022 NOSIG",
      "taf": "TAF LQSA 172300Z 1800/1824 VRB02KT CAVOK TX28/1814Z TN13/1803Z"
    },
    {
      "icao": "LQTZ",
      "alert": "OK",
      "vis_m": 9999,
      "fzfg": false,
      "metar_trigger": false,
      "taf_trigger": false,
      "metar": "METAR LQTZ 180000Z VRB01KT CAVOK 14/14 Q1021",
      "taf": "TAF LQTZ 172300Z 1800/1824 32005KT CAVOK TX29/1813Z TN12/1803Z"
    },
    {
      "icao": "LRBC",
      "alert": "OK",
      "vis_m": 9999,
      "fzfg": false,
      "metar_trigger": false,
      "taf_trigger": false,
      "metar": "METAR LRBC 180000Z 35004KT CAVOK 15/14 Q1018",
      "taf": "TAF LRBC 172300Z 1800/1809 34008KT 9999 SCT050"
    },
    {
      "icao": "LRBS",
      "alert": "OK",
      "vis_m": 9999,
      "fzfg": false,
      "metar_trigger": false,
      "taf_trigger": false,
      "metar": "METAR LRBS 180000Z 00000KT CAVOK 17/14 Q1016 NOSIG",
      "taf": "TAF LRBS 172300Z 1800/1824 VRB04KT CAVOK"
    },
    {
      "icao": "LRBV",
      "alert": "OK",
      "vis_m": 9999,
      "fzfg": false,
      "metar_trigger": false,
      "taf_trigger": false,
      "metar": "METAR LRBV 180000Z AUTO 22005KT 9999 OVC053/// 14/13 Q1020",
      "taf": "TAF LRBV 171700Z 1718/1803 29008KT 9999 SCT045"
    },
    {
      "icao": "LRCL",
      "alert": "OK",
      "vis_m": 9999,
      "fzfg": false,
      "metar_trigger": false,
      "taf_trigger": false,
      "metar": "METAR LRCL 180000Z 00000KT CAVOK 14/13 Q1019",
      "taf": "TAF LRCL 172300Z 1800/1809 VRB04KT 9999 SCT035"
    },
    {
      "icao": "LRCV",
      "alert": "OK",
      "vis_m": 9999,
      "fzfg": false,
      "metar_trigger": false,
      "taf_trigger": false,
      "metar": "METAR LRCV 180000Z COR 34003KT CAVOK 17/13 Q1017",
      "taf": "TAF LRCV 172300Z 1800/1809 VRB04KT CAVOK"
    },
    {
      "icao": "LRIA",
      "alert": "OK",
      "vis_m": 9999,
      "fzfg": false,
      "metar_trigger": false,
      "taf_trigger": false,
      "metar": "METAR LRIA 180000Z 27004KT 240V320 CAVOK 16/14 Q1018",
      "taf": "TAF LRIA 172300Z 1800/1809 29006KT 9999 SCT050"
    },
    {
      "icao": "LROP",
      "alert": "OK",
      "vis_m": 9999,
      "fzfg": false,
      "metar_trigger": false,
      "taf_trigger": false,
      "metar": "METAR LROP 180000Z 00000KT CAVOK 17/15 Q1016 NOSIG",
      "taf": "TAF LROP 172300Z 1800/1824 VRB04KT CAVOK"
    },
    {
      "icao": "LRSB",
      "alert": "OK",
      "vis_m": 9999,
      "fzfg": false,
      "metar_trigger": false,
      "taf_trigger": false,
      "metar": "METAR LRSB 180000Z 22004KT CAVOK 14/14 Q1019",
      "taf": "TAF LRSB 172300Z 1800/1824 VRB04KT 9999 BKN055"
    },
    {
      "icao": "LRSM",
      "alert": "OK",
      "vis_m": 600,
      "fzfg": false,
      "metar_trigger": false,
      "taf_trigger": false,
      "metar": "METAR LRSM 180000Z AUTO 05003KT 340V080 0600 R19/0650N FG SCT001/// 13/12 Q1019",
      "taf": "TAF LRSM 171400Z 1715/1724 21008KT 9999 SCT045CB"
    },
    {
      "icao": "LRSV",
      "alert": "OK",
      "vis_m": 9999,
      "fzfg": false,
      "metar_trigger": false,
      "taf_trigger": false,
      "metar": "METAR LRSV 180000Z 29009KT CAVOK 14/11 Q1019",
      "taf": "TAF LRSV 172300Z 1800/1809 29007KT 9999 SCT045"
    },
    {
      "icao": "LRTM",
      "alert": "OK",
      "vis_m": 9999,
      "fzfg": false,
      "metar_trigger": false,
      "taf_trigger": false,
      "metar": "METAR LRTM 180000Z 23003KT 9999 3000N R07/1300D FU FEW038 13/13 Q1019",
      "taf": "TAF LRTM 172300Z 1800/1809 VRB04KT 9999 SCT035"
    },
    {
      "icao": "LRTR",
      "alert": "OK",
      "vis_m": 9999,
      "fzfg": false,
      "metar_trigger": false,
      "taf_trigger": false,
      "metar": "METAR LRTR 180000Z 10004KT CAVOK 15/14 Q1018",
      "taf": "TAF LRTR 172300Z 1800/1824 VRB04KT CAVOK"
    },
    {
      "icao": "LTAC",
      "alert": "OK",
      "vis_m": 9999,
      "fzfg": false,
      "metar_trigger": false,
      "taf_trigger": false,
      "metar": "METAR LTAC 172350Z 04006KT CAVOK 16/11 Q1016 NOSIG RMK RWY21C 02006KT RWY03L 03006KT RWY21R 36006KT RWY03R 21004KT 180V270 RWY21L 03007KT",
      "taf": "TAF LTAC 172240Z 1800/1824 VRB02KT CAVOK"
    },
    {
      "icao": "LTFM",
      "alert": "OK",
      "vis_m": 9999,
      "fzfg": false,
      "metar_trigger": false,
      "taf_trigger": false,
      "metar": "METAR LTFM 172350Z 03007KT 9999 SCT016 20/17 Q1016 NOSIG RMK RWY17L 04006KT RWY34L 03008KT RWY16R 03006KT RWY36 03008KT RWY18 04006KT",
      "taf": "TAF LTFM 172240Z 1800/1906 03005KT CAVOK"
    },
    {
      "icao": "LUKK",
      "alert": "OK",
      "vis_m": 9999,
      "fzfg": false,
      "metar_trigger": false,
      "taf_trigger": false,
      "metar": "METAR LUKK 180000Z 30008KT 9999 -SHRA FEW049CB 16/15 Q1017 TEMPO SCT040CB",
      "taf": "TAF LUKK 172317Z 1800/1824 34009KT 9999 SCT045"
    },
    {
      "icao": "LWOH",
      "alert": "OK",
      "vis_m": null,
      "fzfg": false,
      "metar_trigger": false,
      "taf_trigger": false,
      "metar": "",
      "taf": "TAF LWOH 172325Z 1800/1824 34006KT 9999 FEW050"
    },
    {
      "icao": "LWSK",
      "alert": "OK",
      "vis_m": 9999,
      "fzfg": false,
      "metar_trigger": false,
      "taf_trigger": false,
      "metar": "METAR LWSK 172350Z VRB01KT CAVOK 14/12 Q1019 NOSIG",
      "taf": "TAF LWSK 172325Z 1800/1824 VRB02KT CAVOK"
    },
    {
      "icao": "LYBE",
      "alert": "OK",
      "vis_m": 9999,
      "fzfg": false,
      "metar_trigger": false,
      "taf_trigger": false,
      "metar": "METAR LYBE 180000Z 24005KT CAVOK 20/15 Q1019 NOSIG",
      "taf": "TAF LYBE 172300Z 1800/1824 25005KT CAVOK TX31/1813Z TN15/1804Z"
    },
    {
      "icao": "LYNI",
      "alert": "OK",
      "vis_m": 9999,
      "fzfg": false,
      "metar_trigger": false,
      "taf_trigger": false,
      "metar": "METAR LYNI 180000Z 00000KT CAVOK 15/11 Q1019 NOSIG",
      "taf": "TAF LYNI 172300Z 1800/1824 06004KT CAVOK TX31/1814Z TN13/1803Z"
    },
    {
      "icao": "LYPG",
      "alert": "OK",
      "vis_m": 9999,
      "fzfg": false,
      "metar_trigger": false,
      "taf_trigger": false,
      "metar": "METAR LYPG 180000Z 32004KT CAVOK 21/15 Q1017 NOSIG",
      "taf": "TAF LYPG 172300Z 1800/1824 36007KT CAVOK TX32/1814Z TN20/1803Z"
    },
    {
      "icao": "LZIB",
      "alert": "OK",
      "vis_m": 9999,
      "fzfg": false,
      "metar_trigger": false,
      "taf_trigger": false,
      "metar": "METAR LZIB 180000Z 00000KT CAVOK 20/15 Q1019 NOSIG",
      "taf": "TAF LZIB 172315Z 1800/1900 VRB02KT CAVOK"
    },
    {
      "icao": "LZKZ",
      "alert": "OK",
      "vis_m": 9999,
      "fzfg": false,
      "metar_trigger": false,
      "taf_trigger": false,
      "metar": "METAR LZKZ 180000Z 02004KT 9999 BCFG NSC 13/13 Q1020 NOSIG",
      "taf": "TAF LZKZ 172315Z 1800/1900 VRB02KT CAVOK"
    },
    {
      "icao": "LZTT",
      "alert": "OK",
      "vis_m": 9999,
      "fzfg": false,
      "metar_trigger": false,
      "taf_trigger": false,
      "metar": "METAR LZTT 180000Z VRB01KT CAVOK 09/08 Q1021",
      "taf": "TAF LZTT 172315Z 1800/1900 VRB02KT 9999 FEW050"
    },
    {
      "icao": "OEJN",
      "alert": "OK",
      "vis_m": 9999,
      "fzfg": false,
      "metar_trigger": false,
      "taf_trigger": false,
      "metar": "METAR OEJN 180000Z 33010KT CAVOK 31/18 Q1004 NOSIG",
      "taf": "TAF OEJN 172300Z 1800/1906 02005KT CAVOK"
    },
    {
      "icao": "OEMA",
      "alert": "OK",
      "vis_m": 9999,
      "fzfg": false,
      "metar_trigger": false,
      "taf_trigger": false,
      "metar": "METAR OEMA 180000Z 34006KT CAVOK 34/M04 Q1011 NOSIG",
      "taf": "TAF OEMA 172300Z 1800/1906 VRB03KT CAVOK"
    },
    {
      "icao": "OJAI",
      "alert": "OK",
      "vis_m": 5000,
      "fzfg": false,
      "metar_trigger": false,
      "taf_trigger": false,
      "metar": "METAR OJAI 180000Z 27004KT 5000 HZ NSC 16/08 Q1015 NOSIG",
      "taf": "TAF OJAI 172300Z 1800/1906 28010KT 5000 HZ NSC"
    },
    {
      "icao": "OMAA",
      "alert": "OK",
      "vis_m": 9999,
      "fzfg": false,
      "metar_trigger": false,
      "taf_trigger": false,
      "metar": "METAR OMAA 180000Z 05003KT 020V090 CAVOK 31/23 Q1001 NOSIG",
      "taf": "TAF OMAA 172300Z 1800/1906 VRB02KT 8000 NSC"
    },
    {
      "icao": "OMDB",
      "alert": "OK",
      "vis_m": 9999,
      "fzfg": false,
      "metar_trigger": false,
      "taf_trigger": false,
      "metar": "METAR OMDB 180000Z 09004KT 360V170 CAVOK 33/23 Q1001 NOSIG",
      "taf": "TAF OMDB 172300Z 1800/1906 VRB02KT 8000 NSC"
    },
    {
      "icao": "UAAA",
      "alert": "OK",
      "vis_m": 9999,
      "fzfg": false,
      "metar_trigger": false,
      "taf_trigger": false,
      "metar": "METAR UAAA 180000Z 16003MPS 9999 FEW100 SCT200 21/11 Q1012 NOSIG",
      "taf": "TAF UAAA 172303Z 1800/1824 32003G08MPS 9999 SCT050CB BKN100 TX32/1810Z TN18/1801Z"
    },
    {
      "icao": "UBBB",
      "alert": "OK",
      "vis_m": 9999,
      "fzfg": false,
      "metar_trigger": false,
      "taf_trigger": false,
      "metar": "METAR UBBB 180000Z 00000KT CAVOK 21/19 Q1016 NOSIG",
      "taf": "TAF UBBB 172303Z 1800/1824 VRB04KT 9999 SCT030 TX31/1810Z TN19/1801Z"
    },
    {
      "icao": "UDSG",
      "alert": "OK",
      "vis_m": 9999,
      "fzfg": false,
      "metar_trigger": false,
      "taf_trigger": false,
      "metar": "METAR UDSG 180000Z 06008KT 9999 FEW049 17/12 Q1021 NOSIG",
      "taf": "TAF UDSG 172300Z 1800/1824 06006KT 9999 FEW050"
    },
    {
      "icao": "UDYZ",
      "alert": "OK",
      "vis_m": 9999,
      "fzfg": false,
      "metar_trigger": false,
      "taf_trigger": false,
      "metar": "METAR UDYZ 180000Z 06007KT 9999 FEW046 23/12 Q1015 NOSIG",
      "taf": "TAF UDYZ 172300Z 1800/1824 16004KT 9999 FEW040"
    },
    {
      "icao": "UGKO",
      "alert": "OK",
      "vis_m": 9999,
      "fzfg": false,
      "metar_trigger": false,
      "taf_trigger": false,
      "metar": "METAR UGKO 180000Z 07004KT CAVOK 17/16 Q1014 NOSIG",
      "taf": "TAF UGKO 172300Z 1800/1824 08007KT CAVOK TX31/1810Z TN16/1802Z"
    }
  ]
}