{
  "ts_utc": "2026-03-23T09:14:54Z",
  "threshold_m": 150,
  "source": "stations_override.txt (ICAO list) + aviationweather.gov (METAR/TAF raw)",
  "station_count": 159,
  "stations": [
    {
      "icao": "BIKF",
      "alert": "OK",
      "vis_m": 9999,
      "fzfg": false,
      "metar_trigger": false,
      "taf_trigger": false,
      "metar": "METAR BIKF 230900Z 09018KT 9999 -SN SCT010 OVC019 M02/M02 Q0988",
      "taf": "TAF BIKF 230751Z 2309/2409 07018G30KT 7000 -SN SCT010 BKN020 OVC030 TX01/2315Z TNM02/2406Z"
    },
    {
      "icao": "BKPR",
      "alert": "OK",
      "vis_m": 9999,
      "fzfg": false,
      "metar_trigger": false,
      "taf_trigger": false,
      "metar": "METAR BKPR 230900Z VRB01KT 9999 FEW040 SCT070 09/02 Q1014 NOSIG",
      "taf": "TAF BKPR 230530Z 2306/2406 02008KT 9999 SCT040 BKN080"
    },
    {
      "icao": "EBCI",
      "alert": "OK",
      "vis_m": 9999,
      "fzfg": false,
      "metar_trigger": false,
      "taf_trigger": false,
      "metar": "METAR EBCI 230850Z VRB02KT CAVOK 10/05 Q1019 NOSIG",
      "taf": "TAF EBCI 230500Z 2306/2412 34003KT CAVOK"
    },
    {
      "icao": "EDDB",
      "alert": "OK",
      "vis_m": 9999,
      "fzfg": false,
      "metar_trigger": false,
      "taf_trigger": false,
      "metar": "METAR EDDB 230850Z AUTO VRB02KT CAVOK 11/02 Q1018 NOSIG",
      "taf": "TAF EDDB 230500Z 2306/2406 VRB03KT CAVOK"
    },
    {
      "icao": "EDDH",
      "alert": "OK",
      "vis_m": 9999,
      "fzfg": false,
      "metar_trigger": false,
      "taf_trigger": false,
      "metar": "METAR EDDH 230850Z AUTO VRB01KT CAVOK 12/03 Q1018 NOSIG",
      "taf": "TAF EDDH 230500Z 2306/2412 26004KT CAVOK"
    },
    {
      "icao": "EDDK",
      "alert": "OK",
      "vis_m": 9999,
      "fzfg": false,
      "metar_trigger": false,
      "taf_trigger": false,
      "metar": "METAR EDDK 230850Z AUTO 15003KT 100V240 CAVOK 11/02 Q1018 NOSIG",
      "taf": "TAF EDDK 230500Z 2306/2412 VRB01KT CAVOK"
    },
    {
      "icao": "EDDN",
      "alert": "OK",
      "vis_m": 9999,
      "fzfg": false,
      "metar_trigger": false,
      "taf_trigger": false,
      "metar": "METAR EDDN 230850Z AUTO 27003KT 230V320 CAVOK 08/01 Q1017 NOSIG",
      "taf": "TAF EDDN 230500Z 2306/2406 VRB02KT CAVOK"
    },
    {
      "icao": "EDDS",
      "alert": "OK",
      "vis_m": 9999,
      "fzfg": false,
      "metar_trigger": false,
      "taf_trigger": false,
      "metar": "METAR EDDS 230850Z AUTO VRB02KT CAVOK 06/02 Q1017 NOSIG",
      "taf": "TAF EDDS 230500Z 2306/2406 VRB02KT CAVOK"
    },
    {
      "icao": "EDFH",
      "alert": "OK",
      "vis_m": 9999,
      "fzfg": false,
      "metar_trigger": false,
      "taf_trigger": false,
      "metar": "METAR EDFH 230850Z VRB03KT CAVOK 10/01 Q1018",
      "taf": "TAF EDFH 230500Z 2306/2406 08004KT CAVOK"
    },
    {
      "icao": "EDJA",
      "alert": "OK",
      "vis_m": 9999,
      "fzfg": false,
      "metar_trigger": false,
      "taf_trigger": false,
      "metar": "METAR EDJA 230850Z 22006KT CAVOK 06/01 Q1016",
      "taf": "TAF EDJA 230800Z 2309/2318 23004KT 9999 SCT060"
    },
    {
      "icao": "EDLW",
      "alert": "OK",
      "vis_m": 9999,
      "fzfg": false,
      "metar_trigger": false,
      "taf_trigger": false,
      "metar": "METAR EDLW 230850Z 17004KT CAVOK 12/02 Q1018",
      "taf": "TAF EDLW 230500Z 2306/2406 16005KT CAVOK"
    },
    {
      "icao": "EDNY",
      "alert": "OK",
      "vis_m": 9999,
      "fzfg": false,
      "metar_trigger": false,
      "taf_trigger": false,
      "metar": "METAR EDNY 230850Z 00000KT CAVOK 06/03 Q1018",
      "taf": "TAF EDNY 230800Z 2309/2318 21004KT CAVOK"
    },
    {
      "icao": "EDSB",
      "alert": "OK",
      "vis_m": 9999,
      "fzfg": false,
      "metar_trigger": false,
      "taf_trigger": false,
      "metar": "METAR EDSB 230850Z 22004KT 160V270 CAVOK 07/04 Q1018",
      "taf": "TAF EDSB 230500Z 2306/2406 VRB03KT CAVOK"
    },
    {
      "icao": "EETN",
      "alert": "OK",
      "vis_m": 9999,
      "fzfg": false,
      "metar_trigger": false,
      "taf_trigger": false,
      "metar": "METAR EETN 230850Z 22012KT CAVOK 07/M00 Q1013 NOSIG",
      "taf": "TAF EETN 230530Z 2306/2406 21012KT CAVOK"
    },
    {
      "icao": "EFTU",
      "alert": "OK",
      "vis_m": 9999,
      "fzfg": false,
      "metar_trigger": false,
      "taf_trigger": false,
      "metar": "METAR EFTU 230850Z AUTO 24016KT 9999 FEW023 06/M00 Q1009",
      "taf": "TAF EFTU 230833Z 2309/2409 24016KT 9999 BKN023"
    },
    {
      "icao": "EGBB",
      "alert": "OK",
      "vis_m": 9999,
      "fzfg": false,
      "metar_trigger": false,
      "taf_trigger": false,
      "metar": "METAR EGBB 230850Z VRB01KT 9999 BKN036 08/04 Q1021",
      "taf": "TAF EGBB 230455Z 2306/2406 32006KT 9999 SCT025"
    },
    {
      "icao": "EGGP",
      "alert": "OK",
      "vis_m": 9999,
      "fzfg": false,
      "metar_trigger": false,
      "taf_trigger": false,
      "metar": "METAR EGGP 230850Z 17003KT 110V230 CAVOK 07/05 Q1021",
      "taf": "TAF EGGP 230455Z 2306/2406 33008KT 9999 FEW020"
    },
    {
      "icao": "EGGW",
      "alert": "OK",
      "vis_m": 3900,
      "fzfg": false,
      "metar_trigger": false,
      "taf_trigger": false,
      "metar": "METAR EGGW 230850Z 02004KT 330V070 3900 BR BKN003 08/07 Q1020",
      "taf": ""
    },
    {
      "icao": "EGKK",
      "alert": "OK",
      "vis_m": 8000,
      "fzfg": false,
      "metar_trigger": false,
      "taf_trigger": false,
      "metar": "METAR EGKK 230850Z VRB02KT 8000 NSC 07/04 Q1021",
      "taf": "TAF EGKK 230454Z 2306/2412 VRB04KT 7000 FEW030"
    },
    {
      "icao": "EGNM",
      "alert": "OK",
      "vis_m": 9999,
      "fzfg": false,
      "metar_trigger": false,
      "taf_trigger": false,
      "metar": "METAR EGNM 230850Z 25003KT 210V280 CAVOK 06/02 Q1020",
      "taf": "TAF EGNM 230539Z 2306/2406 VRB02KT 9999 FEW045"
    },
    {
      "icao": "EGPD",
      "alert": "OK",
      "vis_m": 9999,
      "fzfg": false,
      "metar_trigger": false,
      "taf_trigger": false,
      "metar": "METAR EGPD 230850Z COR AUTO VRB02KT 9999 NCD 07/M01 Q1017 NOSIG",
      "taf": "TAF EGPD 230458Z 2306/2406 26006KT 9999 FEW040"
    },
    {
      "icao": "EGPF",
      "alert": "OK",
      "vis_m": 9999,
      "fzfg": false,
      "metar_trigger": false,
      "taf_trigger": false,
      "metar": "METAR EGPF 230850Z AUTO VRB02KT 9999 BKN046 05/03 Q1018",
      "taf": "TAF EGPF 230458Z 2306/2406 VRB02KT 9999 FEW030"
    },
    {
      "icao": "EHBK",
      "alert": "OK",
      "vis_m": 9999,
      "fzfg": false,
      "metar_trigger": false,
      "taf_trigger": false,
      "metar": "METAR EHBK 230855Z AUTO 25005KT 200V300 9999 NSC 08/04 Q1019 NOSIG",
      "taf": "TAF EHBK 230526Z 2306/2412 20005KT CAVOK"
    },
    {
      "icao": "EHEH",
      "alert": "OK",
      "vis_m": 8000,
      "fzfg": false,
      "metar_trigger": false,
      "taf_trigger": false,
      "metar": "METAR EHEH 230855Z AUTO 31003KT 230V360 8000 HZ NCD 11/05 Q1019 BLU NOSIG RMK TREND REMOTE BY EHWX",
      "taf": "TAF EHEH 230516Z 2306/2412 33003KT 4000 BR NSC"
    },
    {
      "icao": "EKBI",
      "alert": "OK",
      "vis_m": 6000,
      "fzfg": false,
      "metar_trigger": false,
      "taf_trigger": false,
      "metar": "METAR EKBI 230850Z AUTO 31004KT 260V330 6000 OVC010/// 06/05 Q1018",
      "taf": "TAF EKBI 230843Z 2309/2409 33005KT 9999 SCT020"
    },
    {
      "icao": "EKCH",
      "alert": "OK",
      "vis_m": 9999,
      "fzfg": false,
      "metar_trigger": false,
      "taf_trigger": false,
      "metar": "METAR EKCH 230850Z 28003KT CAVOK 07/02 Q1017 NOSIG",
      "taf": "TAF EKCH 230827Z 2309/2409 28005KT CAVOK"
    },
    {
      "icao": "ENAL",
      "alert": "OK",
      "vis_m": 9999,
      "fzfg": false,
      "metar_trigger": false,
      "taf_trigger": false,
      "metar": "METAR ENAL 230850Z 23022KT 9999 FEW021CB SCT040 BKN054 04/M01 Q1007",
      "taf": "TAF ENAL 230800Z 2309/2318 25018KT 9999 -SHRASN FEW015TCU BKN030"
    },
    {
      "icao": "ENBR",
      "alert": "OK",
      "vis_m": 9999,
      "fzfg": false,
      "metar_trigger": false,
      "taf_trigger": false,
      "metar": "METAR ENBR 230850Z 36006KT 320V020 9999 VCTS SCT028CB BKN041 03/00 Q1013 TEMPO SHRAGS RMK WIND 1200FT 27016KT",
      "taf": ""
    },
    {
      "icao": "ENGM",
      "alert": "OK",
      "vis_m": 9999,
      "fzfg": false,
      "metar_trigger": false,
      "taf_trigger": false,
      "metar": "METAR ENGM 230850Z 24010KT 210V270 CAVOK 06/M07 Q1009 NOSIG",
      "taf": "TAF ENGM 230500Z 2306/2406 22008KT CAVOK"
    },
    {
      "icao": "ENHD",
      "alert": "OK",
      "vis_m": 9999,
      "fzfg": false,
      "metar_trigger": false,
      "taf_trigger": false,
      "metar": "METAR ENHD 230850Z 26012KT 9999 FEW035 05/02 Q1015",
      "taf": "TAF ENHD 230800Z 2309/2318 27010KT 9999 SCT030"
    },
    {
      "icao": "ENTC",
      "alert": "OK",
      "vis_m": 9999,
      "fzfg": false,
      "metar_trigger": false,
      "taf_trigger": false,
      "metar": "METAR ENTC 230850Z 19023KT 9999 FEW036 SCT047 04/M04 Q0975 TEMPO 20023G33KT SHRA RMK WIND 2600FT 18044KT",
      "taf": "TAF ENTC 230500Z 2306/2406 18018KT 9999 SCT020 BKN040"
    },
    {
      "icao": "ENTO",
      "alert": "OK",
      "vis_m": 9999,
      "fzfg": false,
      "metar_trigger": false,
      "taf_trigger": false,
      "metar": "METAR ENTO 230850Z 30005KT 240V040 CAVOK 06/M02 Q1012 NOSIG",
      "taf": "TAF ENTO 230500Z 2306/2406 26010KT CAVOK"
    },
    {
      "icao": "ENVA",
      "alert": "OK",
      "vis_m": 5000,
      "fzfg": false,
      "metar_trigger": false,
      "taf_trigger": false,
      "metar": "METAR ENVA 230850Z 22018KT 5000 -SHSN OVC015CB 03/M00 Q1004 TEMPO 26025G35KT 2500 SHSNGS BKN012CB RMK WIND 670FT 22020KT",
      "taf": ""
    },
    {
      "icao": "ENZV",
      "alert": "OK",
      "vis_m": 9999,
      "fzfg": false,
      "metar_trigger": false,
      "taf_trigger": false,
      "metar": "METAR ENZV 230850Z 31011KT 9999 VCSH FEW022 BKN032TCU 05/02 Q1016 NOSIG",
      "taf": "TAF ENZV 230500Z 2306/2406 28012KT 9999 SCT030"
    },
    {
      "icao": "EPGD",
      "alert": "OK",
      "vis_m": 9999,
      "fzfg": false,
      "metar_trigger": false,
      "taf_trigger": false,
      "metar": "METAR EPGD 230900Z 20006KT 170V230 CAVOK 10/02 Q1017",
      "taf": "TAF EPGD 230530Z 2306/2406 VRB02KT CAVOK"
    },
    {
      "icao": "EPKK",
      "alert": "OK",
      "vis_m": 9999,
      "fzfg": false,
      "metar_trigger": false,
      "taf_trigger": false,
      "metar": "METAR EPKK 230900Z VRB03KT CAVOK 10/M02 Q1017",
      "taf": "TAF EPKK 230830Z 2309/2409 VRB05KT CAVOK"
    },
    {
      "icao": "EPKT",
      "alert": "OK",
      "vis_m": 9999,
      "fzfg": false,
      "metar_trigger": false,
      "taf_trigger": false,
      "metar": "METAR EPKT 230900Z VRB03KT CAVOK 12/M02 Q1017",
      "taf": "TAF EPKT 230530Z 2306/2406 VRB02KT CAVOK"
    },
    {
      "icao": "EPLB",
      "alert": "OK",
      "vis_m": 9999,
      "fzfg": false,
      "metar_trigger": false,
      "taf_trigger": false,
      "metar": "METAR EPLB 230900Z VRB02KT 9999 FEW046 12/01 Q1018",
      "taf": "TAF EPLB 230530Z 2306/2406 VRB03KT CAVOK"
    },
    {
      "icao": "EPMO",
      "alert": "OK",
      "vis_m": 9999,
      "fzfg": false,
      "metar_trigger": false,
      "taf_trigger": false,
      "metar": "METAR EPMO 230900Z 12004KT 080V200 CAVOK 12/01 Q1018",
      "taf": "TAF EPMO 230530Z 2306/2406 VRB04KT CAVOK"
    },
    {
      "icao": "EPPO",
      "alert": "OK",
      "vis_m": 9999,
      "fzfg": false,
      "metar_trigger": false,
      "taf_trigger": false,
      "metar": "METAR EPPO 230900Z 19003KT CAVOK 12/03 Q1017",
      "taf": "TAF EPPO 230530Z 2306/2406 VRB02KT CAVOK"
    },
    {
      "icao": "EPRA",
      "alert": "OK",
      "vis_m": 9999,
      "fzfg": false,
      "metar_trigger": false,
      "taf_trigger": false,
      "metar": "METAR EPRA 230900Z 11006KT 070V170 CAVOK 11/M02 Q1018",
      "taf": "TAF EPRA 230830Z 2309/2318 15006KT CAVOK"
    },
    {
      "icao": "EPRZ",
      "alert": "OK",
      "vis_m": 9999,
      "fzfg": false,
      "metar_trigger": false,
      "taf_trigger": false,
      "metar": "METAR EPRZ 230900Z 08006KT 070V130 CAVOK 10/M00 Q1017",
      "taf": "TAF EPRZ 230530Z 2306/2406 10004KT CAVOK"
    },
    {
      "icao": "EPSC",
      "alert": "OK",
      "vis_m": 9999,
      "fzfg": false,
      "metar_trigger": false,
      "taf_trigger": false,
      "metar": "METAR EPSC 230900Z VRB02KT CAVOK 13/01 Q1017",
      "taf": "TAF EPSC 230530Z 2306/2406 VRB02KT CAVOK"
    },
    {
      "icao": "EPSY",
      "alert": "OK",
      "vis_m": 9999,
      "fzfg": false,
      "metar_trigger": false,
      "taf_trigger": false,
      "metar": "METAR EPSY 230900Z 20007KT 150V220 CAVOK 11/M02 Q1019",
      "taf": "TAF EPSY 230830Z 2309/2318 18005KT CAVOK"
    },
    {
      "icao": "EPWA",
      "alert": "OK",
      "vis_m": 9999,
      "fzfg": false,
      "metar_trigger": false,
      "taf_trigger": false,
      "metar": "METAR EPWA 230900Z 15006KT 9999 FEW045 12/M02 Q1018 NOSIG",
      "taf": "TAF EPWA 230830Z 2309/2409 14005KT CAVOK"
    },
    {
      "icao": "EPWR",
      "alert": "OK",
      "vis_m": 9999,
      "fzfg": false,
      "metar_trigger": false,
      "taf_trigger": false,
      "metar": "METAR EPWR 230900Z VRB02KT CAVOK 13/01 Q1017",
      "taf": "TAF EPWR 230830Z 2309/2409 VRB02KT CAVOK"
    },
    {
      "icao": "ESGG",
      "alert": "OK",
      "vis_m": 9999,
      "fzfg": false,
      "metar_trigger": false,
      "taf_trigger": false,
      "metar": "METAR ESGG 230850Z 26009KT 9999 FEW006 SCT014 06/04 Q1014",
      "taf": "TAF ESGG 230830Z 2309/2409 25007KT 9999 BKN004"
    },
    {
      "icao": "ESKN",
      "alert": "OK",
      "vis_m": 9999,
      "fzfg": false,
      "metar_trigger": false,
      "taf_trigger": false,
      "metar": "METAR ESKN 230850Z 25010KT 9999 BKN019 06/01 Q1012",
      "taf": "TAF ESKN 230830Z 2309/2409 25012KT 9999 SCT020"
    },
    {
      "icao": "ESMS",
      "alert": "OK",
      "vis_m": 9999,
      "fzfg": false,
      "metar_trigger": false,
      "taf_trigger": false,
      "metar": "METAR ESMS 230850Z 21005KT CAVOK 09/02 Q1016",
      "taf": "TAF ESMS 230827Z 2309/2409 24005KT CAVOK"
    },
    {
      "icao": "ESSA",
      "alert": "OK",
      "vis_m": 9999,
      "fzfg": false,
      "metar_trigger": false,
      "taf_trigger": false,
      "metar": "METAR ESSA 230850Z 25014KT 9999 BKN013 04/01 Q1010 BECMG SCT015",
      "taf": ""
    },
    {
      "icao": "EYKA",
      "alert": "OK",
      "vis_m": 9999,
      "fzfg": false,
      "metar_trigger": false,
      "taf_trigger": false,
      "metar": "METAR EYKA 230850Z 20004KT 140V240 CAVOK 09/01 Q1019",
      "taf": "TAF EYKA 230500Z 2306/2406 VRB04KT 8000 SCT045"
    },
    {
      "icao": "EYPA",
      "alert": "OK",
      "vis_m": 9999,
      "fzfg": false,
      "metar_trigger": false,
      "taf_trigger": false,
      "metar": "METAR EYPA 230850Z 18005KT 150V210 CAVOK 07/02 Q1018",
      "taf": "TAF EYPA 230500Z 2306/2406 VRB04KT 8000 SCT035"
    },
    {
      "icao": "EYVI",
      "alert": "OK",
      "vis_m": 9999,
      "fzfg": false,
      "metar_trigger": false,
      "taf_trigger": false,
      "metar": "METAR EYVI 230850Z 20004KT 160V220 CAVOK 11/M00 Q1019 NOSIG",
      "taf": "TAF EYVI 230502Z 2306/2406 21006KT 9000 NSC"
    },
    {
      "icao": "GCFV",
      "alert": "OK",
      "vis_m": 9999,
      "fzfg": false,
      "metar_trigger": false,
      "taf_trigger": false,
      "metar": "METAR GCFV 230900Z 16008KT 9999 SCT010TCU BKN031 18/15 Q1008",
      "taf": "TAF GCFV 230800Z 2309/2409 17016KT 9999 BKN020 TX21/2314Z TN16/2406Z"
    },
    {
      "icao": "GCLP",
      "alert": "OK",
      "vis_m": 9999,
      "fzfg": false,
      "metar_trigger": false,
      "taf_trigger": false,
      "metar": "METAR GCLP 230900Z VRB03KT 9999 FEW025 19/14 Q1005 NOSIG",
      "taf": "TAF GCLP 230800Z 2309/2409 20017KT 9999 FEW025 SCT050 TX21/2314Z TN15/2406Z"
    },
    {
      "icao": "GCTS",
      "alert": "OK",
      "vis_m": 9999,
      "fzfg": false,
      "metar_trigger": false,
      "taf_trigger": false,
      "metar": "METAR GCTS 230900Z 09003KT 060V140 9999 SCT030 17/13 Q1006 NOSIG",
      "taf": "TAF GCTS 230800Z 2309/2409 20006KT 9999 SCT030 TX20/2314Z TN15/2406Z"
    },
    {
      "icao": "GMAD",
      "alert": "OK",
      "vis_m": 9999,
      "fzfg": false,
      "metar_trigger": false,
      "taf_trigger": false,
      "metar": "METAR GMAD 230900Z 04009KT 9999 FEW020 18/15 Q1010 NOSIG",
      "taf": "TAF GMAD 230500Z 2306/2412 07006KT 8000 SCT020 SCT080"
    },
    {
      "icao": "GMMN",
      "alert": "OK",
      "vis_m": 9999,
      "fzfg": false,
      "metar_trigger": false,
      "taf_trigger": false,
      "metar": "METAR GMMN 230900Z 27005KT 220V300 9999 BKN050 15/13 Q1012 NOSIG",
      "taf": "TAF GMMN 230500Z 2306/2412 14004KT 9999 FEW040 SCT100"
    },
    {
      "icao": "GMMX",
      "alert": "OK",
      "vis_m": 8000,
      "fzfg": false,
      "metar_trigger": false,
      "taf_trigger": false,
      "metar": "METAR GMMX 230900Z 10007KT 060V130 8000 SCT016 SCT026 16/13 Q1012 NOSIG",
      "taf": "TAF GMMX 230500Z 2306/2412 24008KT 3000 TSRA BKN023 FEW030CB"
    },
    {
      "icao": "HEGN",
      "alert": "OK",
      "vis_m": 9999,
      "fzfg": false,
      "metar_trigger": false,
      "taf_trigger": false,
      "metar": "METAR HEGN 230800Z 36008KT CAVOK 22/10 Q1010 NOSIG",
      "taf": "TAF HEGN 230500Z 2306/2412 11012KT 9999 SCT025"
    },
    {
      "icao": "HEMA",
      "alert": "OK",
      "vis_m": 9999,
      "fzfg": false,
      "metar_trigger": false,
      "taf_trigger": false,
      "metar": "METAR HEMA 230800Z 01006KT 9999 SCT020 BKN100 23/16 Q1010 NOSIG",
      "taf": "TAF HEMA 230500Z 2306/2412 07012KT 9999 SCT025"
    },
    {
      "icao": "HESH",
      "alert": "OK",
      "vis_m": 9999,
      "fzfg": false,
      "metar_trigger": false,
      "taf_trigger": false,
      "metar": "METAR HESH 230800Z 02007KT CAVOK 23/08 Q1010 NOSIG",
      "taf": "TAF HESH 230500Z 2306/2412 18010KT 9999 SCT025"
    },
    {
      "icao": "HESX",
      "alert": "OK",
      "vis_m": 9999,
      "fzfg": false,
      "metar_trigger": false,
      "taf_trigger": false,
      "metar": "METAR HESX 230800Z 21006KT 9999 SCT030 18/04 Q1011 NOSIG",
      "taf": "TAF HESX 230500Z 2306/2412 08006KT CAVOK"
    },
    {
      "icao": "LATI",
      "alert": "OK",
      "vis_m": 9999,
      "fzfg": false,
      "metar_trigger": false,
      "taf_trigger": false,
      "metar": "METAR LATI 230850Z 00000KT 9999 FEW055 SCT100 15/02 Q1012 NOSIG",
      "taf": "TAF LATI 230500Z 2306/2406 VRB05KT 9999 FEW050 BKN080 TX18/2312Z TN07/2405Z"
    },
    {
      "icao": "LBPD",
      "alert": "OK",
      "vis_m": 9999,
      "fzfg": false,
      "metar_trigger": false,
      "taf_trigger": false,
      "metar": "METAR LBPD 230900Z AUTO 34006KT 300V030 9999 BKN050/// OVC070/// 10/05 Q1014 NOSIG",
      "taf": "TAF LBPD 230500Z 2306/2406 VRB03KT 9999 SCT030 BKN050"
    },
    {
      "icao": "LBSF",
      "alert": "OK",
      "vis_m": 9999,
      "fzfg": false,
      "metar_trigger": false,
      "taf_trigger": false,
      "metar": "METAR LBSF 230900Z 09004KT 040V140 9999 BKN028 BKN033 07/01 Q1014 NOSIG",
      "taf": "TAF LBSF 230500Z 2306/2406 VRB03KT 9999 SCT030 BKN050"
    },
    {
      "icao": "LBWN",
      "alert": "OK",
      "vis_m": 9999,
      "fzfg": false,
      "metar_trigger": false,
      "taf_trigger": false,
      "metar": "METAR LBWN 230900Z 35008KT 320V020 9999 -RA OVC014 08/06 Q1014 TEMPO RA",
      "taf": "TAF LBWN 230500Z 2306/2406 31010KT 9999 BKN020 OVC040"
    },
    {
      "icao": "LCLK",
      "alert": "OK",
      "vis_m": 9999,
      "fzfg": false,
      "metar_trigger": false,
      "taf_trigger": false,
      "metar": "METAR LCLK 230900Z 16008KT 9999 FEW020TCU FEW025CB SCT040 18/13 Q1009 NOSIG",
      "taf": "TAF LCLK 230530Z 2306/2406 28006KT 9999 FEW030"
    },
    {
      "icao": "LCPH",
      "alert": "OK",
      "vis_m": 9999,
      "fzfg": false,
      "metar_trigger": false,
      "taf_trigger": false,
      "metar": "METAR LCPH 230900Z 20004KT 170V260 9999 FEW028 FEW035TCU 18/12 Q1009 NOSIG",
      "taf": "TAF LCPH 230530Z 2306/2406 03008KT 9999 FEW020 SCT040"
    },
    {
      "icao": "LEAL",
      "alert": "OK",
      "vis_m": 9999,
      "fzfg": false,
      "metar_trigger": false,
      "taf_trigger": false,
      "metar": "METAR LEAL 230900Z 04003KT 330V100 CAVOK 15/11 Q1014 NOSIG",
      "taf": "TAF LEAL 230500Z 2306/2406 VRB04KT CAVOK TX18/2312Z TN07/2306Z"
    },
    {
      "icao": "LEBB",
      "alert": "OK",
      "vis_m": 9999,
      "fzfg": false,
      "metar_trigger": false,
      "taf_trigger": false,
      "metar": "METAR LEBB 230900Z 27003KT 210V320 9999 FEW027 13/08 Q1019 NOSIG",
      "taf": "TAF LEBB 230500Z 2306/2406 32008KT 9999 FEW020 SCT030 TX16/2315Z TN04/2406Z"
    },
    {
      "icao": "LEBL",
      "alert": "OK",
      "vis_m": 9999,
      "fzfg": false,
      "metar_trigger": false,
      "taf_trigger": false,
      "metar": "METAR LEBL 230900Z 08009KT 040V100 9999 FEW020 13/09 Q1016 NOSIG",
      "taf": "TAF LEBL 230500Z 2306/2406 07010KT 9999 FEW020 TX17/2312Z TN10/2306Z"
    },
    {
      "icao": "LECH",
      "alert": "OK",
      "vis_m": 9000,
      "fzfg": false,
      "metar_trigger": false,
      "taf_trigger": false,
      "metar": "METAR LECH 230900Z AUTO 03010KT 360V070 9000 OVC033 12/03 Q1016",
      "taf": "TAF LECH 230500Z 2306/2406 01010KT 9999 FEW030 TX16/2312Z TN05/2306Z"
    },
    {
      "icao": "LEMD",
      "alert": "OK",
      "vis_m": 9999,
      "fzfg": false,
      "metar_trigger": false,
      "taf_trigger": false,
      "metar": "METAR LEMD 230900Z 04004KT 320V100 CAVOK 10/02 Q1015 NOSIG",
      "taf": "TAF LEMD 230500Z 2306/2412 VRB04KT CAVOK TX17/2316Z TN02/2406Z"
    },
    {
      "icao": "LEMG",
      "alert": "OK",
      "vis_m": 9999,
      "fzfg": false,
      "metar_trigger": false,
      "taf_trigger": false,
      "metar": "METAR LEMG 230900Z 29005KT 270V330 CAVOK 13/10 Q1013 NOSIG",
      "taf": "TAF LEMG 230500Z 2306/2406 31005KT CAVOK TX19/2313Z TN11/2306Z"
    },
    {
      "icao": "LEVC",
      "alert": "OK",
      "vis_m": 9999,
      "fzfg": false,
      "metar_trigger": false,
      "taf_trigger": false,
      "metar": "METAR LEVC 230900Z 13002KT CAVOK 14/04 Q1015 NOSIG",
      "taf": "TAF LEVC 230500Z 2306/2406 VRB03KT CAVOK TX18/2312Z TN06/2306Z"
    },
    {
      "icao": "LEXJ",
      "alert": "OK",
      "vis_m": 7000,
      "fzfg": false,
      "metar_trigger": false,
      "taf_trigger": false,
      "metar": "METAR LEXJ 230900Z 24004KT 7000 SCT022 BKN033 BKN046 10/05 Q1020",
      "taf": "TAF LEXJ 230800Z 2309/2409 31009KT 9999 SCT020 BKN040 TX16/2314Z TN04/2406Z"
    },
    {
      "icao": "LEZG",
      "alert": "OK",
      "vis_m": 9999,
      "fzfg": false,
      "metar_trigger": false,
      "taf_trigger": false,
      "metar": "METAR LEZG 230900Z 31013KT CAVOK 11/03 Q1017 NOSIG",
      "taf": "TAF LEZG 230500Z 2306/2406 30011KT CAVOK TX18/2314Z TN08/2306Z"
    },
    {
      "icao": "LEZL",
      "alert": "OK",
      "vis_m": 9999,
      "fzfg": false,
      "metar_trigger": false,
      "taf_trigger": false,
      "metar": "METAR LEZL 230900Z 03005KT 320V060 CAVOK 15/12 Q1013 NOSIG",
      "taf": "TAF LEZL 230800Z 2309/2409 06005KT CAVOK TX25/2315Z TN12/2407Z"
    },
    {
      "icao": "LFBD",
      "alert": "OK",
      "vis_m": 9999,
      "fzfg": false,
      "metar_trigger": false,
      "taf_trigger": false,
      "metar": "METAR LFBD 230900Z AUTO 05005KT 010V080 CAVOK 12/04 Q1019 NOSIG",
      "taf": "TAF LFBD 230500Z 2306/2412 03005KT CAVOK TX18/2314Z TN05/2306Z"
    },
    {
      "icao": "LFLL",
      "alert": "OK",
      "vis_m": 3000,
      "fzfg": false,
      "metar_trigger": false,
      "taf_trigger": false,
      "metar": "METAR LFLL 230900Z 19004KT 130V240 3000 BR BKN002 05/04 Q1019 BECMG 7000 NSW",
      "taf": ""
    },
    {
      "icao": "LFLS",
      "alert": "OK",
      "vis_m": 9999,
      "fzfg": false,
      "metar_trigger": false,
      "taf_trigger": false,
      "metar": "METAR LFLS 230900Z AUTO 09007KT 060V130 CAVOK 08/05 Q1018 NOSIG",
      "taf": "TAF LFLS 230800Z 2309/2409 09006KT CAVOK"
    },
    {
      "icao": "LFMN",
      "alert": "OK",
      "vis_m": 9999,
      "fzfg": false,
      "metar_trigger": false,
      "taf_trigger": false,
      "metar": "METAR LFMN 230900Z 33009KT CAVOK 13/03 Q1016 BECMG 11010KT",
      "taf": "TAF LFMN 230800Z 2309/2415 34005KT CAVOK"
    },
    {
      "icao": "LFOB",
      "alert": "OK",
      "vis_m": 9999,
      "fzfg": false,
      "metar_trigger": false,
      "taf_trigger": false,
      "metar": "METAR LFOB 230900Z AUTO 27003KT 210V320 1600 BR BKN002 07/07 Q1020 BECMG CAVOK",
      "taf": ""
    },
    {
      "icao": "LFPO",
      "alert": "OK",
      "vis_m": 8000,
      "fzfg": false,
      "metar_trigger": false,
      "taf_trigger": false,
      "metar": "METAR LFPO 230900Z 01004KT 330V050 8000 NSC 11/05 Q1020 NOSIG",
      "taf": "TAF LFPO 230500Z 2306/2412 33006KT CAVOK"
    },
    {
      "icao": "LFSB",
      "alert": "OK",
      "vis_m": 9999,
      "fzfg": false,
      "metar_trigger": false,
      "taf_trigger": false,
      "metar": "METAR LFSB 230900Z AUTO VRB02KT 9999 FEW052 11/05 Q1018 TEMPO FEW035TCU",
      "taf": "TAF LFSB 230500Z 2306/2406 VRB03KT 9999 FEW050"
    },
    {
      "icao": "LGAV",
      "alert": "OK",
      "vis_m": 9999,
      "fzfg": false,
      "metar_trigger": false,
      "taf_trigger": false,
      "metar": "METAR LGAV 230850Z 04013KT 9999 FEW025 SCT035 14/05 Q1013 NOSIG",
      "taf": "TAF LGAV 230500Z 2306/2406 01013KT 9999 SCT020 SCT070"
    },
    {
      "icao": "LGTS",
      "alert": "OK",
      "vis_m": 9999,
      "fzfg": false,
      "metar_trigger": false,
      "taf_trigger": false,
      "metar": "METAR LGTS 230850Z VRB03KT 9999 SCT025 12/08 Q1014 NOSIG",
      "taf": "TAF LGTS 230500Z 2306/2406 VRB03KT 9999 SCT025"
    },
    {
      "icao": "LHBP",
      "alert": "OK",
      "vis_m": 9999,
      "fzfg": false,
      "metar_trigger": false,
      "taf_trigger": false,
      "metar": "METAR LHBP 230900Z 09006KT 050V140 CAVOK 13/M00 Q1017 NOSIG",
      "taf": "TAF LHBP 230515Z 2306/2406 VRB03KT CAVOK"
    },
    {
      "icao": "LHDC",
      "alert": "OK",
      "vis_m": 9999,
      "fzfg": false,
      "metar_trigger": false,
      "taf_trigger": false,
      "metar": "METAR LHDC 230845Z AUTO 23010KT 200V270 CAVOK 13/04 Q1017 NOSIG",
      "taf": "TAF LHDC 230815Z 2309/2318 24012KT CAVOK"
    },
    {
      "icao": "LIBD",
      "alert": "OK",
      "vis_m": 9999,
      "fzfg": false,
      "metar_trigger": false,
      "taf_trigger": false,
      "metar": "METAR LIBD 230850Z 32006KT 9999 SCT035 13/09 Q1013",
      "taf": "TAF LIBD 230500Z 2306/2406 22005KT 9999 FEW050"
    },
    {
      "icao": "LIBG",
      "alert": "OK",
      "vis_m": 9999,
      "fzfg": false,
      "metar_trigger": false,
      "taf_trigger": false,
      "metar": "METAR LIBG 230850Z 04007KT 9999 SCT040 15/06 Q1012",
      "taf": "TAF LIBG 230800Z 2309/2318 03008KT 9999 SCT040"
    },
    {
      "icao": "LIBP",
      "alert": "OK",
      "vis_m": 9999,
      "fzfg": false,
      "metar_trigger": false,
      "taf_trigger": false,
      "metar": "METAR LIBP 230850Z AUTO 32003KT 240V030 9999 OVC059/// 12/05 Q1015",
      "taf": "TAF LIBP 230500Z 2306/2406 24005KT 9999 SCT060"
    },
    {
      "icao": "LIBR",
      "alert": "OK",
      "vis_m": 9999,
      "fzfg": false,
      "metar_trigger": false,
      "taf_trigger": false,
      "metar": "METAR LIBR 230850Z 16005KT 120V190 9999 FEW040 13/08 Q1013",
      "taf": "TAF LIBR 230500Z 2306/2406 VRB05KT 9999 FEW050"
    },
    {
      "icao": "LICA",
      "alert": "OK",
      "vis_m": 9999,
      "fzfg": false,
      "metar_trigger": false,
      "taf_trigger": false,
      "metar": "METAR LICA 230850Z AUTO VRB02KT 9999 NCD 15/08 Q1012",
      "taf": "TAF LICA 230500Z 2306/2406 VRB06KT 9999 SCT030"
    },
    {
      "icao": "LICC",
      "alert": "OK",
      "vis_m": 9999,
      "fzfg": false,
      "metar_trigger": false,
      "taf_trigger": false,
      "metar": "METAR LICC 230850Z VRB02KT 9999 FEW020 BKN060 15/12 Q1012",
      "taf": "TAF LICC 230500Z 2306/2406 VRB05KT 9999 SCT020"
    },
    {
      "icao": "LICJ",
      "alert": "OK",
      "vis_m": 9999,
      "fzfg": false,
      "metar_trigger": false,
      "taf_trigger": false,
      "metar": "METAR LICJ 230850Z 25004KT 9999 FEW030 14/09 Q1013",
      "taf": "TAF LICJ 230500Z 2306/2406 VRB05KT 9999 SCT030"
    },
    {
      "icao": "LIMC",
      "alert": "OK",
      "vis_m": 9999,
      "fzfg": false,
      "metar_trigger": false,
      "taf_trigger": false,
      "metar": "METAR LIMC 230850Z 31005KT 270V340 CAVOK 11/02 Q1016 NOSIG",
      "taf": "TAF LIMC 230500Z 2306/2412 VRB05KT CAVOK"
    },
    {
      "icao": "LIME",
      "alert": "OK",
      "vis_m": 9999,
      "fzfg": false,
      "metar_trigger": false,
      "taf_trigger": false,
      "metar": "METAR LIME 230850Z VRB02KT CAVOK 12/00 Q1016 NOSIG",
      "taf": "TAF LIME 230500Z 2306/2406 VRB05KT CAVOK"
    },
    {
      "icao": "LIMF",
      "alert": "OK",
      "vis_m": 9999,
      "fzfg": false,
      "metar_trigger": false,
      "taf_trigger": false,
      "metar": "METAR LIMF 230850Z VRB02KT CAVOK 10/01 Q1016",
      "taf": "TAF LIMF 230500Z 2306/2406 VRB05KT CAVOK"
    },
    {
      "icao": "LIMJ",
      "alert": "OK",
      "vis_m": 9999,
      "fzfg": false,
      "metar_trigger": false,
      "taf_trigger": false,
      "metar": "METAR LIMJ 230850Z 05007KT 320V090 CAVOK 14/02 Q1015",
      "taf": "TAF LIMJ 230500Z 2306/2406 04013KT CAVOK"
    },
    {
      "icao": "LIPE",
      "alert": "OK",
      "vis_m": 9999,
      "fzfg": false,
      "metar_trigger": false,
      "taf_trigger": false,
      "metar": "METAR LIPE 230850Z 28009KT 240V320 CAVOK 11/04 Q1016",
      "taf": "TAF LIPE 230500Z 2306/2406 VRB05KT 9999 FEW050"
    },
    {
      "icao": "LIPH",
      "alert": "OK",
      "vis_m": 9999,
      "fzfg": false,
      "metar_trigger": false,
      "taf_trigger": false,
      "metar": "METAR LIPH 230850Z VRB02KT CAVOK 14/00 Q1015",
      "taf": "TAF LIPH 230500Z 2306/2406 VRB05KT 9999 SCT060"
    },
    {
      "icao": "LIPQ",
      "alert": "OK",
      "vis_m": 9999,
      "fzfg": false,
      "metar_trigger": false,
      "taf_trigger": false,
      "metar": "METAR LIPQ 230850Z AUTO 30004KT 270V350 9999 NCD 14/03 Q1015",
      "taf": "TAF LIPQ 230500Z 2306/2406 03005KT 9999 FEW060"
    },
    {
      "icao": "LIPR",
      "alert": "OK",
      "vis_m": 9999,
      "fzfg": false,
      "metar_trigger": false,
      "taf_trigger": false,
      "metar": "METAR LIPR 230850Z 30011KT 9999 SCT060 11/05 Q1015",
      "taf": "TAF LIPR 230500Z 2306/2406 VRB05KT 9999 FEW060"
    },
    {
      "icao": "LIPX",
      "alert": "OK",
      "vis_m": 9999,
      "fzfg": false,
      "metar_trigger": false,
      "taf_trigger": false,
      "metar": "METAR LIPX 230850Z VRB02KT CAVOK 13/02 Q1016",
      "taf": "TAF LIPX 230500Z 2306/2406 VRB05KT CAVOK"
    },
    {
      "icao": "LIPY",
      "alert": "OK",
      "vis_m": 9999,
      "fzfg": false,
      "metar_trigger": false,
      "taf_trigger": false,
      "metar": "METAR LIPY 230850Z AUTO 30003KT 250V350 9999 BKN036/// BKN082/// 12/08 Q1015",
      "taf": "TAF LIPY 230500Z 2306/2406 VRB05KT 9999 SCT060"
    },
    {
      "icao": "LIPZ",
      "alert": "OK",
      "vis_m": 9999,
      "fzfg": false,
      "metar_trigger": false,
      "taf_trigger": false,
      "metar": "METAR LIPZ 230850Z 01004KT 340V050 CAVOK 13/01 Q1015 NOSIG",
      "taf": "TAF LIPZ 230500Z 2306/2412 03006KT 9999 SCT060"
    },
    {
      "icao": "LIRF",
      "alert": "OK",
      "vis_m": 9999,
      "fzfg": false,
      "metar_trigger": false,
      "taf_trigger": false,
      "metar": "METAR LIRF 230850Z 06006KT 020V090 CAVOK 13/06 Q1013 NOSIG",
      "taf": "TAF LIRF 230500Z 2306/2412 04008KT 9999 SCT030"
    },
    {
      "icao": "LIRN",
      "alert": "OK",
      "vis_m": 9999,
      "fzfg": false,
      "metar_trigger": false,
      "taf_trigger": false,
      "metar": "METAR LIRN 230850Z VRB04KT 9999 FEW040 13/05 Q1013 NOSIG",
      "taf": "TAF LIRN 230500Z 2306/2406 VRB05KT 9999 SCT030"
    },
    {
      "icao": "LIRP",
      "alert": "OK",
      "vis_m": 9999,
      "fzfg": false,
      "metar_trigger": false,
      "taf_trigger": false,
      "metar": "METAR LIRP 230845Z 13005KT 9999 FEW070 11/04 Q1015 NOSIG",
      "taf": "TAF LIRP 230500Z 2306/2406 08005KT 9999 FEW070"
    },
    {
      "icao": "LIRZ",
      "alert": "OK",
      "vis_m": 9999,
      "fzfg": false,
      "metar_trigger": false,
      "taf_trigger": false,
      "metar": "METAR LIRZ 230850Z AUTO 04012KT 9999 FEW045/// BKN076/// 10/04 Q1014",
      "taf": "TAF LIRZ 230500Z 2306/2406 VRB06KT 9999 SCT020"
    },
    {
      "icao": "LJLJ",
      "alert": "OK",
      "vis_m": 9999,
      "fzfg": false,
      "metar_trigger": false,
      "taf_trigger": false,
      "metar": "METAR LJLJ 230900Z 00000KT 9999 FEW050 SCT100 09/02 Q1016 NOSIG",
      "taf": "TAF LJLJ 230500Z 2306/2406 VRB02KT 9999 SCT055"
    },
    {
      "icao": "LKMT",
      "alert": "OK",
      "vis_m": 9999,
      "fzfg": false,
      "metar_trigger": false,
      "taf_trigger": false,
      "metar": "METAR LKMT 230900Z VRB02KT CAVOK 10/02 Q1017 NOSIG",
      "taf": "TAF LKMT 230500Z 2306/2406 VRB02KT CAVOK"
    },
    {
      "icao": "LKPR",
      "alert": "OK",
      "vis_m": 9999,
      "fzfg": false,
      "metar_trigger": false,
      "taf_trigger": false,
      "metar": "METAR LKPR 230900Z 04004KT 340V100 CAVOK 09/M00 Q1017 NOSIG",
      "taf": "TAF LKPR 230800Z 2309/2415 02004KT CAVOK"
    },
    {
      "icao": "LLBG",
      "alert": "OK",
      "vis_m": 9999,
      "fzfg": false,
      "metar_trigger": false,
      "taf_trigger": false,
      "metar": "METAR LLBG 230850Z 20005KT 160V230 CAVOK 20/05 Q1011 NOSIG RMK SCT080",
      "taf": "TAF LLBG 230501Z 2306/2406 VRB04KT 9999 FEW040 TX21/2312Z TN08/2404Z"
    },
    {
      "icao": "LMML",
      "alert": "OK",
      "vis_m": 9999,
      "fzfg": false,
      "metar_trigger": false,
      "taf_trigger": false,
      "metar": "METAR LMML 230845Z VRB01KT 9999 -RA FEW024 BKN049 15/09 Q1012 NOSIG",
      "taf": "TAF LMML 230500Z 2306/2406 VRB05KT 9999 SCT018"
    },
    {
      "icao": "LOWW",
      "alert": "OK",
      "vis_m": 9999,
      "fzfg": false,
      "metar_trigger": false,
      "taf_trigger": false,
      "metar": "METAR LOWW 230850Z VRB03KT CAVOK 11/00 Q1017 NOSIG",
      "taf": "TAF LOWW 230815Z 2309/2415 VRB04KT 9999 FEW050 TX16/2413Z TN05/2404Z"
    },
    {
      "icao": "LPFR",
      "alert": "OK",
      "vis_m": 9999,
      "fzfg": false,
      "metar_trigger": false,
      "taf_trigger": false,
      "metar": "METAR LPFR 230900Z VRB02KT CAVOK 17/13 Q1012",
      "taf": "TAF LPFR 230500Z 2306/2406 01005KT 9999 FEW030"
    },
    {
      "icao": "LPMA",
      "alert": "OK",
      "vis_m": 9999,
      "fzfg": false,
      "metar_trigger": false,
      "taf_trigger": false,
      "metar": "METAR LPMA 230900Z 02016KT 340V040 9999 SCT013 FEW018CB 17/14 Q1010",
      "taf": "TAF LPMA 230500Z 2306/2406 02015KT 9999 SCT015"
    },
    {
      "icao": "LPPR",
      "alert": "OK",
      "vis_m": 9999,
      "fzfg": false,
      "metar_trigger": false,
      "taf_trigger": false,
      "metar": "METAR LPPR 230900Z 11006KT 070V150 CAVOK 15/07 Q1014",
      "taf": "TAF LPPR 230500Z 2306/2406 VRB02KT CAVOK"
    },
    {
      "icao": "LPPS",
      "alert": "OK",
      "vis_m": 9999,
      "fzfg": false,
      "metar_trigger": false,
      "taf_trigger": false,
      "metar": "METAR LPPS 230900Z 07016G27KT 040V100 9999 SCT012 FEW018CB 16/15 Q1010",
      "taf": "TAF LPPS 230500Z 2306/2412 06018KT 9999 SCT013"
    },
    {
      "icao": "LPPT",
      "alert": "OK",
      "vis_m": 9999,
      "fzfg": false,
      "metar_trigger": false,
      "taf_trigger": false,
      "metar": "METAR LPPT 230900Z 09003G15KT 030V130 9999 FEW015 15/12 Q1013",
      "taf": "TAF LPPT 230500Z 2306/2412 33007KT 9999 FEW018"
    },
    {
      "icao": "LQBK",
      "alert": "OK",
      "vis_m": 9999,
      "fzfg": false,
      "metar_trigger": false,
      "taf_trigger": false,
      "metar": "METAR LQBK 230900Z 33004KT 290V350 CAVOK 10/03 Q1015 NOSIG",
      "taf": "TAF LQBK 230500Z 2306/2406 34005KT CAVOK TX15/2313Z TN01/2306Z"
    },
    {
      "icao": "LQSA",
      "alert": "OK",
      "vis_m": 9999,
      "fzfg": false,
      "metar_trigger": false,
      "taf_trigger": false,
      "metar": "METAR LQSA 230900Z VRB03KT 9999 FEW060 10/00 Q1013 NOSIG",
      "taf": "TAF LQSA 230500Z 2306/2406 VRB02KT 9999 SCT055 TX11/2314Z TN04/2405Z"
    },
    {
      "icao": "LQTZ",
      "alert": "OK",
      "vis_m": 9999,
      "fzfg": false,
      "metar_trigger": false,
      "taf_trigger": false,
      "metar": "METAR LQTZ 230900Z VRB01KT CAVOK 11/04 Q1014",
      "taf": "TAF LQTZ 230500Z 2306/2406 02005KT 9999 SCT060 TX14/2313Z TN01/2306Z"
    },
    {
      "icao": "LRBC",
      "alert": "OK",
      "vis_m": 9999,
      "fzfg": false,
      "metar_trigger": false,
      "taf_trigger": false,
      "metar": "METAR LRBC 230900Z 35009KT 330V030 9999 BKN056 11/00 Q1018",
      "taf": "TAF LRBC 230800Z 2309/2318 34010KT CAVOK"
    },
    {
      "icao": "LRBS",
      "alert": "OK",
      "vis_m": 9999,
      "fzfg": false,
      "metar_trigger": false,
      "taf_trigger": false,
      "metar": "METAR LRBS 230900Z 05011KT 020V080 9999 BKN043 OVC048 10/03 Q1017 NOSIG",
      "taf": "TAF LRBS 230500Z 2306/2406 VRB04KT 9999 BKN045"
    },
    {
      "icao": "LRBV",
      "alert": "OK",
      "vis_m": 9999,
      "fzfg": false,
      "metar_trigger": false,
      "taf_trigger": false,
      "metar": "METAR LRBV 230900Z 10004KT 060V150 9999 BKN082 07/M00 Q1016",
      "taf": "TAF LRBV 230800Z 2309/2318 VRB04KT 9999 BKN060"
    },
    {
      "icao": "LRCL",
      "alert": "OK",
      "vis_m": 9999,
      "fzfg": false,
      "metar_trigger": false,
      "taf_trigger": false,
      "metar": "METAR LRCL 230900Z 08003KT 020V120 CAVOK 09/M01 Q1017",
      "taf": "TAF LRCL 230800Z 2309/2318 VRB04KT CAVOK"
    },
    {
      "icao": "LRCV",
      "alert": "OK",
      "vis_m": 9999,
      "fzfg": false,
      "metar_trigger": false,
      "taf_trigger": false,
      "metar": "METAR LRCV 230900Z 06008KT 9999 -RA FEW013 BKN039 OVC045 09/05 Q1017",
      "taf": "TAF LRCV 230800Z 2309/2318 07008KT 9999 BKN040"
    },
    {
      "icao": "LRIA",
      "alert": "OK",
      "vis_m": 9999,
      "fzfg": false,
      "metar_trigger": false,
      "taf_trigger": false,
      "metar": "METAR LRIA 230900Z 36003KT 310V060 CAVOK 10/01 Q1018",
      "taf": "TAF LRIA 230800Z 2309/2318 VRB04KT CAVOK"
    },
    {
      "icao": "LROP",
      "alert": "OK",
      "vis_m": 9999,
      "fzfg": false,
      "metar_trigger": false,
      "taf_trigger": false,
      "metar": "METAR LROP 230900Z 06011KT 9999 OVC048 10/M00 Q1017 NOSIG",
      "taf": "TAF LROP 230500Z 2306/2406 VRB04KT 9999 BKN045"
    },
    {
      "icao": "LRSB",
      "alert": "OK",
      "vis_m": 9999,
      "fzfg": false,
      "metar_trigger": false,
      "taf_trigger": false,
      "metar": "METAR LRSB 230900Z VRB01KT 9999 FEW060 08/01 Q1016",
      "taf": "TAF LRSB 230500Z 2306/2406 VRB04KT CAVOK"
    },
    {
      "icao": "LRSM",
      "alert": "OK",
      "vis_m": 9999,
      "fzfg": false,
      "metar_trigger": false,
      "taf_trigger": false,
      "metar": "METAR LRSM 230900Z 19005KT 150V220 CAVOK 13/M01 Q1017",
      "taf": "TAF LRSM 230800Z 2309/2318 VRB04KT CAVOK"
    },
    {
      "icao": "LRSV",
      "alert": "OK",
      "vis_m": 9999,
      "fzfg": false,
      "metar_trigger": false,
      "taf_trigger": false,
      "metar": "METAR LRSV 230900Z 03005KT 340V070 9999 FEW049 09/00 Q1018",
      "taf": "TAF LRSV 230800Z 2309/2318 VRB04KT CAVOK"
    },
    {
      "icao": "LRTM",
      "alert": "OK",
      "vis_m": 9999,
      "fzfg": false,
      "metar_trigger": false,
      "taf_trigger": false,
      "metar": "METAR LRTM 230900Z 08004KT 350V130 9999 FEW032 11/M01 Q1017",
      "taf": "TAF LRTM 230800Z 2309/2318 VRB04KT CAVOK"
    },
    {
      "icao": "LRTR",
      "alert": "OK",
      "vis_m": 9999,
      "fzfg": false,
      "metar_trigger": false,
      "taf_trigger": false,
      "metar": "METAR LRTR 230900Z 10006KT 050V170 CAVOK 12/02 Q1016 NOSIG",
      "taf": "TAF LRTR 230500Z 2306/2406 09006KT CAVOK"
    },
    {
      "icao": "LTAC",
      "alert": "OK",
      "vis_m": 9999,
      "fzfg": false,
      "metar_trigger": false,
      "taf_trigger": false,
      "metar": "METAR LTAC 230850Z 26005KT 160V310 9999 FEW017 SCT023 BKN100 11/04 Q1009 NOSIG RMK RWY21C 25003KT 150V320 RWY03L 25003KT 200V320 RWY21R 19003KT 130V270 RWY03R 25004KT 190V290 RWY21L VRB02KT",
      "taf": "TAF LTAC 230440Z 2306/2406 VRB02KT 4000 BR SCT040 BKN100"
    },
    {
      "icao": "LTFM",
      "alert": "OK",
      "vis_m": 2100,
      "fzfg": false,
      "metar_trigger": false,
      "taf_trigger": false,
      "metar": "METAR LTFM 230850Z 33013G23KT 2100 1100S R35R/P1500N R17L/P1500N R34L/1400N R36/P1500N -RA BR BKN002 BKN018 07/06 Q1013 NOSIG RMK RWY17L 33012KT 300V050 RWY34L 32012KT RWY16R 32011KT RWY36 33013KT RWY18 33013KT",
      "taf": "TAF LTFM 230440Z 2306/2412 33013KT 2000 -RA BR BKN002 BKN018"
    },
    {
      "icao": "LUKK",
      "alert": "OK",
      "vis_m": 9999,
      "fzfg": false,
      "metar_trigger": false,
      "taf_trigger": false,
      "metar": "METAR LUKK 230900Z 03007KT 340V100 CAVOK 11/00 Q1018 NOSIG",
      "taf": "TAF LUKK 230508Z 2306/2406 03008KT CAVOK"
    },
    {
      "icao": "LWOH",
      "alert": "OK",
      "vis_m": 9999,
      "fzfg": false,
      "metar_trigger": false,
      "taf_trigger": false,
      "metar": "METAR LWOH 230850Z 17007KT 130V210 9999 FEW040 SCT050 09/04 Q1012",
      "taf": "TAF LWOH 230830Z 2309/2409 16006KT 9999 SCT040"
    },
    {
      "icao": "LWSK",
      "alert": "OK",
      "vis_m": 9999,
      "fzfg": false,
      "metar_trigger": false,
      "taf_trigger": false,
      "metar": "METAR LWSK 230850Z VRB03KT 9999 FEW020 SCT035 BKN080 12/05 Q1014 NOSIG",
      "taf": "TAF LWSK 230830Z 2309/2409 VRB02KT 9999 SCT040 BKN080"
    },
    {
      "icao": "LYBE",
      "alert": "OK",
      "vis_m": 9999,
      "fzfg": false,
      "metar_trigger": false,
      "taf_trigger": false,
      "metar": "METAR LYBE 230900Z 11008KT 080V140 CAVOK 12/03 Q1016 NOSIG",
      "taf": "TAF LYBE 230500Z 2306/2406 10010KT CAVOK TX15/2313Z TN06/2405Z"
    },
    {
      "icao": "LYNI",
      "alert": "OK",
      "vis_m": 9999,
      "fzfg": false,
      "metar_trigger": false,
      "taf_trigger": false,
      "metar": "METAR LYNI 230900Z 06004KT 320V110 9999 FEW033 12/01 Q1014 NOSIG",
      "taf": "TAF LYNI 230500Z 2306/2406 05004KT 9999 SCT040 TX14/2313Z TN04/2405Z"
    },
    {
      "icao": "LYPG",
      "alert": "OK",
      "vis_m": 9999,
      "fzfg": false,
      "metar_trigger": false,
      "taf_trigger": false,
      "metar": "METAR LYPG 230900Z 22005KT 190V250 9999 FEW070 BKN090 15/04 Q1013 NOSIG",
      "taf": "TAF LYPG 230500Z 2306/2406 18006KT 9999 FEW040 BKN080 TX16/2313Z TN08/2400Z"
    },
    {
      "icao": "LZIB",
      "alert": "OK",
      "vis_m": 9999,
      "fzfg": false,
      "metar_trigger": false,
      "taf_trigger": false,
      "metar": "METAR LZIB 230900Z 04004KT CAVOK 11/01 Q1017 NOSIG",
      "taf": "TAF LZIB 230515Z 2306/2406 05005KT CAVOK"
    },
    {
      "icao": "LZKZ",
      "alert": "OK",
      "vis_m": 9999,
      "fzfg": false,
      "metar_trigger": false,
      "taf_trigger": false,
      "metar": "METAR LZKZ 230900Z 05007KT CAVOK 11/M03 Q1017 NOSIG",
      "taf": "TAF LZKZ 230515Z 2306/2406 01008KT CAVOK"
    },
    {
      "icao": "LZTT",
      "alert": "OK",
      "vis_m": 9999,
      "fzfg": false,
      "metar_trigger": false,
      "taf_trigger": false,
      "metar": "METAR LZTT 230900Z 15004KT 080V220 9999 FEW050 10/M01 Q1016 NOSIG",
      "taf": "TAF LZTT 230515Z 2306/2406 26005KT 9999 FEW070"
    },
    {
      "icao": "OEJN",
      "alert": "OK",
      "vis_m": 4000,
      "fzfg": false,
      "metar_trigger": false,
      "taf_trigger": false,
      "metar": "METAR OEJN 230900Z 17008KT 4000 DU NSC 33/15 Q1008 NOSIG",
      "taf": "TAF OEJN 230500Z 2306/2412 22013KT 7000 FEW040"
    },
    {
      "icao": "OEMA",
      "alert": "OK",
      "vis_m": 9999,
      "fzfg": false,
      "metar_trigger": false,
      "taf_trigger": false,
      "metar": "METAR OEMA 230900Z 20006KT 9999 FEW045 28/M05 Q1012 NOSIG",
      "taf": "TAF OEMA 230500Z 2306/2412 20012KT 8000 FEW040"
    },
    {
      "icao": "OJAI",
      "alert": "OK",
      "vis_m": 5000,
      "fzfg": false,
      "metar_trigger": false,
      "taf_trigger": false,
      "metar": "METAR OJAI 230900Z 12005KT 5000 HZ FEW030 SCT030 13/05 Q1013 NOSIG",
      "taf": "TAF OJAI 230500Z 2306/2412 24012KT 4000 BR FEW025TCU SCT030"
    },
    {
      "icao": "OMAA",
      "alert": "OK",
      "vis_m": null,
      "fzfg": false,
      "metar_trigger": false,
      "taf_trigger": false,
      "metar": "",
      "taf": ""
    },
    {
      "icao": "OMDB",
      "alert": "OK",
      "vis_m": null,
      "fzfg": false,
      "metar_trigger": false,
      "taf_trigger": false,
      "metar": "",
      "taf": ""
    },
    {
      "icao": "UAAA",
      "alert": "OK",
      "vis_m": 9999,
      "fzfg": false,
      "metar_trigger": false,
      "taf_trigger": false,
      "metar": "METAR UAAA 230900Z 25003MPS 160V330 9999 SCT050CB BKN100 19/04 Q1016 NOSIG",
      "taf": "TAF UAAA 230505Z 2306/2406 28003G08MPS 9999 SCT050CB BKN100 TX18/2309Z TN06/2401Z"
    },
    {
      "icao": "UBBB",
      "alert": "OK",
      "vis_m": 9999,
      "fzfg": false,
      "metar_trigger": false,
      "taf_trigger": false,
      "metar": "METAR UBBB 230900Z 32008KT 290V360 9999 FEW060CB 14/07 Q1011 NOSIG",
      "taf": "TAF UBBB 230501Z 2306/2406 34010KT 9999 SCT040 TX15/2310Z TN07/2400Z"
    },
    {
      "icao": "UDSG",
      "alert": "OK",
      "vis_m": 9999,
      "fzfg": false,
      "metar_trigger": false,
      "taf_trigger": false,
      "metar": "METAR UDSG 230900Z 20007KT 150V230 9999 FEW036CB BKN043 10/01 Q1013 NOSIG",
      "taf": "TAF UDSG 230458Z 2306/2406 24006KT 9999 SCT040"
    },
    {
      "icao": "UDYZ",
      "alert": "OK",
      "vis_m": 9999,
      "fzfg": false,
      "metar_trigger": false,
      "taf_trigger": false,
      "metar": "METAR UDYZ 230900Z 32003KT 270V010 9999 SCT036CB 15/05 Q1012 NOSIG",
      "taf": "TAF UDYZ 230500Z 2306/2406 22006KT 9999 SCT040"
    },
    {
      "icao": "UGKO",
      "alert": "OK",
      "vis_m": 9999,
      "fzfg": false,
      "metar_trigger": false,
      "taf_trigger": false,
      "metar": "METAR UGKO 230900Z VRB02KT 9999 BKN013 OVC023 12/09 Q1011 NOSIG",
      "taf": "TAF UGKO 230500Z 2306/2406 26007KT 9999 SCT010 BKN040 TX16/2311Z TN06/2403Z"
    }
  ]
}