{
  "ts_utc": "2025-12-27T15:43:36Z",
  "threshold_m": 150,
  "source": "stations_override.txt (ICAO list) + aviationweather.gov (METAR/TAF raw)",
  "station_count": 159,
  "stations": [
    {
      "icao": "BIKF",
      "alert": "OK",
      "vis_m": 9999,
      "fzfg": false,
      "metar_trigger": false,
      "taf_trigger": false,
      "metar": "METAR BIKF 271530Z 17011KT 9999 SCT015 BKN023 05/04 Q1040",
      "taf": "TAF BIKF 271330Z 2715/2815 18015KT 9999 SCT015 OVC024 TX07/2721Z TN06/2815Z"
    },
    {
      "icao": "BKPR",
      "alert": "OK",
      "vis_m": 9999,
      "fzfg": false,
      "metar_trigger": false,
      "taf_trigger": false,
      "metar": "METAR BKPR 271530Z 34008KT CAVOK 02/M00 Q1023 NOSIG",
      "taf": "TAF BKPR 271130Z 2712/2812 35008KT 9999 FEW030"
    },
    {
      "icao": "EBCI",
      "alert": "OK",
      "vis_m": 9999,
      "fzfg": false,
      "metar_trigger": false,
      "taf_trigger": false,
      "metar": "METAR EBCI 271520Z 04008KT CAVOK 01/M06 Q1030 NOSIG",
      "taf": "TAF EBCI 271100Z 2712/2818 05008KT CAVOK"
    },
    {
      "icao": "EDDB",
      "alert": "OK",
      "vis_m": 4000,
      "fzfg": false,
      "metar_trigger": false,
      "taf_trigger": false,
      "metar": "METAR EDDB 271520Z AUTO 27009KT 4000 BR OVC002 01/01 Q1025 REDZ TEMPO 2500 BR",
      "taf": "TAF EDDB 271100Z 2712/2812 26010KT 5000 BR BKN005"
    },
    {
      "icao": "EDDH",
      "alert": "OK",
      "vis_m": 9999,
      "fzfg": false,
      "metar_trigger": false,
      "taf_trigger": false,
      "metar": "METAR EDDH 271520Z AUTO 30008KT 9999 BKN019 06/04 Q1028 NOSIG",
      "taf": "TAF EDDH 271100Z 2712/2818 27004KT 8000 OVC008"
    },
    {
      "icao": "EDDK",
      "alert": "OK",
      "vis_m": 9999,
      "fzfg": false,
      "metar_trigger": false,
      "taf_trigger": false,
      "metar": "METAR EDDK 271520Z AUTO VRB01KT CAVOK 01/M02 Q1031 NOSIG",
      "taf": "TAF EDDK 271100Z 2712/2818 VRB03KT CAVOK"
    },
    {
      "icao": "EDDN",
      "alert": "OK",
      "vis_m": 9999,
      "fzfg": false,
      "metar_trigger": false,
      "taf_trigger": false,
      "metar": "METAR EDDN 271520Z AUTO 23002KT CAVOK 04/M05 Q1028 NOSIG",
      "taf": "TAF EDDN 271100Z 2712/2812 VRB02KT CAVOK"
    },
    {
      "icao": "EDDS",
      "alert": "OK",
      "vis_m": 9999,
      "fzfg": false,
      "metar_trigger": false,
      "taf_trigger": false,
      "metar": "METAR EDDS 271520Z AUTO VRB02KT CAVOK 01/M02 Q1027 NOSIG",
      "taf": "TAF EDDS 271100Z 2712/2812 04003KT CAVOK"
    },
    {
      "icao": "EDFH",
      "alert": "OK",
      "vis_m": 9999,
      "fzfg": false,
      "metar_trigger": false,
      "taf_trigger": false,
      "metar": "METAR EDFH 271520Z 04004KT CAVOK 03/M08 Q1029",
      "taf": "TAF EDFH 271100Z 2712/2812 07007KT CAVOK"
    },
    {
      "icao": "EDJA",
      "alert": "OK",
      "vis_m": 2600,
      "fzfg": false,
      "metar_trigger": false,
      "taf_trigger": false,
      "metar": "METAR EDJA 271520Z VRB01KT 2600 BR SCT002 OVC005 M03/M04 Q1027",
      "taf": "TAF EDJA 271400Z 2715/2724 VRB03KT 3500 BR OVC002"
    },
    {
      "icao": "EDLW",
      "alert": "OK",
      "vis_m": 5000,
      "fzfg": false,
      "metar_trigger": false,
      "taf_trigger": false,
      "metar": "METAR EDLW 271520Z 11003KT 5000 OVC006 01/M01 Q1032",
      "taf": "TAF EDLW 271100Z 2712/2812 VRB03KT CAVOK"
    },
    {
      "icao": "EDNY",
      "alert": "OK",
      "vis_m": 9999,
      "fzfg": false,
      "metar_trigger": false,
      "taf_trigger": false,
      "metar": "METAR EDNY 271520Z VRB02KT 9999 OVC010 M01/M03 Q1029",
      "taf": "TAF EDNY 271400Z 2715/2724 05003KT 9999 OVC010"
    },
    {
      "icao": "EDSB",
      "alert": "OK",
      "vis_m": 9999,
      "fzfg": false,
      "metar_trigger": false,
      "taf_trigger": false,
      "metar": "METAR EDSB 271520Z 21004KT CAVOK 01/M02 Q1029",
      "taf": "TAF EDSB 271100Z 2712/2812 VRB03KT 9000 FEW010"
    },
    {
      "icao": "EETN",
      "alert": "OK",
      "vis_m": 9999,
      "fzfg": false,
      "metar_trigger": false,
      "taf_trigger": false,
      "metar": "METAR EETN 271520Z 31016G30KT 9999 -SNRA OVC030 03/M01 Q0996 TEMPO 30020G32KT",
      "taf": "TAF EETN 271130Z 2712/2812 30016G28KT 9999 SCT025"
    },
    {
      "icao": "EFTU",
      "alert": "OK",
      "vis_m": 9999,
      "fzfg": false,
      "metar_trigger": false,
      "taf_trigger": false,
      "metar": "METAR EFTU 271520Z AUTO 33014G28KT 300V020 9999 -SHRA OVC031 03/M00 Q0998",
      "taf": "TAF EFTU 271447Z 2715/2815 31020G40KT 9999 BKN015"
    },
    {
      "icao": "EGBB",
      "alert": "OK",
      "vis_m": 9999,
      "fzfg": false,
      "metar_trigger": false,
      "taf_trigger": false,
      "metar": "METAR EGBB 271520Z 05012KT 9999 BKN012 06/04 Q1036",
      "taf": ""
    },
    {
      "icao": "EGGP",
      "alert": "OK",
      "vis_m": 9999,
      "fzfg": false,
      "metar_trigger": false,
      "taf_trigger": false,
      "metar": "METAR EGGP 271520Z 05010KT 9999 FEW021 BKN024 06/02 Q1038",
      "taf": "TAF EGGP 271100Z 2712/2812 04008KT 9999 SCT018"
    },
    {
      "icao": "EGGW",
      "alert": "OK",
      "vis_m": 9999,
      "fzfg": false,
      "metar_trigger": false,
      "taf_trigger": false,
      "metar": "METAR EGGW 271520Z AUTO 05011KT 9999 OVC014 05/04 Q1034",
      "taf": ""
    },
    {
      "icao": "EGKK",
      "alert": "OK",
      "vis_m": 9999,
      "fzfg": false,
      "metar_trigger": false,
      "taf_trigger": false,
      "metar": "METAR EGKK 271520Z 06013KT 9999 BKN020 08/05 Q1032",
      "taf": "TAF EGKK 271055Z 2712/2818 05012KT 9999 SCT018"
    },
    {
      "icao": "EGNM",
      "alert": "OK",
      "vis_m": 9999,
      "fzfg": false,
      "metar_trigger": false,
      "taf_trigger": false,
      "metar": "METAR EGNM 271520Z 03008KT 360V070 9999 FEW008 BKN016 06/04 Q1038",
      "taf": "TAF EGNM 271100Z 2712/2812 04008KT 9999 BKN018"
    },
    {
      "icao": "EGPD",
      "alert": "OK",
      "vis_m": 9999,
      "fzfg": false,
      "metar_trigger": false,
      "taf_trigger": false,
      "metar": "METAR EGPD 271520Z COR AUTO 01005KT 9999 OVC028 06/03 Q1042 NOSIG",
      "taf": "TAF EGPD 271056Z 2712/2812 33006KT 9999 SCT015"
    },
    {
      "icao": "EGPF",
      "alert": "OK",
      "vis_m": 9999,
      "fzfg": false,
      "metar_trigger": false,
      "taf_trigger": false,
      "metar": "METAR EGPF 271520Z AUTO 07004KT 030V100 9999 OVC024 06/04 Q1041",
      "taf": "TAF EGPF 271055Z 2712/2812 06006KT 9999 SCT025"
    },
    {
      "icao": "EHBK",
      "alert": "OK",
      "vis_m": 9999,
      "fzfg": false,
      "metar_trigger": false,
      "taf_trigger": false,
      "metar": "METAR EHBK 271525Z AUTO 03007KT 9999 NSC 01/M06 Q1031 NOSIG",
      "taf": ""
    },
    {
      "icao": "EHEH",
      "alert": "OK",
      "vis_m": 4000,
      "fzfg": false,
      "metar_trigger": false,
      "taf_trigger": false,
      "metar": "METAR EHEH 271525Z AUTO 02005KT 320V040 4000 BR FEW002 BKN003 BKN004 03/02 Q1033 YLO BECMG 5000 SCT003 BKN005 RMK TREND REMOTE BY EHWX",
      "taf": "TAF EHEH 271129Z 2712/2818 05007KT CAVOK"
    },
    {
      "icao": "EKBI",
      "alert": "OK",
      "vis_m": 9999,
      "fzfg": false,
      "metar_trigger": false,
      "taf_trigger": false,
      "metar": "METAR EKBI 271520Z AUTO 31005KT 9999 NCD 04/02 Q1029",
      "taf": "TAF EKBI 271427Z 2715/2815 31008KT CAVOK"
    },
    {
      "icao": "EKCH",
      "alert": "OK",
      "vis_m": 9999,
      "fzfg": false,
      "metar_trigger": false,
      "taf_trigger": false,
      "metar": "METAR EKCH 271520Z AUTO 34013KT 9999 NCD 07/M04 Q1025 NOSIG",
      "taf": "TAF EKCH 271427Z 2715/2815 34015KT CAVOK"
    },
    {
      "icao": "ENAL",
      "alert": "OK",
      "vis_m": 9999,
      "fzfg": false,
      "metar_trigger": false,
      "taf_trigger": false,
      "metar": "METAR ENAL 271520Z 36010G20KT 320V040 9999 VCSH FEW015 SCT032 BKN045 04/M03 Q1039",
      "taf": "TAF ENAL 271400Z 2715/2724 36012KT 9999 FEW018 BKN035"
    },
    {
      "icao": "ENBR",
      "alert": "OK",
      "vis_m": 9999,
      "fzfg": false,
      "metar_trigger": false,
      "taf_trigger": false,
      "metar": "METAR ENBR 271520Z 34015KT 9999 BKN039 04/M02 Q1035 TEMPO 33018G28KT RMK WIND 1200FT 34024G34KT",
      "taf": "TAF ENBR 271100Z 2712/2812 34018KT 9999 FEW040"
    },
    {
      "icao": "ENGM",
      "alert": "OK",
      "vis_m": 9999,
      "fzfg": false,
      "metar_trigger": false,
      "taf_trigger": false,
      "metar": "METAR ENGM 271520Z 31006KT 250V360 CAVOK 02/M09 Q1026 NOSIG",
      "taf": "TAF ENGM 271100Z 2712/2812 34015G28KT CAVOK"
    },
    {
      "icao": "ENHD",
      "alert": "OK",
      "vis_m": 9999,
      "fzfg": false,
      "metar_trigger": false,
      "taf_trigger": false,
      "metar": "METAR ENHD 271520Z 35029KT 9999 BKN037 06/M02 Q1035",
      "taf": "TAF ENHD 271400Z 2715/2723 01028G38KT 9999 SCT035"
    },
    {
      "icao": "ENTC",
      "alert": "OK",
      "vis_m": 8000,
      "fzfg": false,
      "metar_trigger": false,
      "taf_trigger": false,
      "metar": "METAR ENTC 271520Z 34020KT 8000 -SHSN FEW009 SCT037 BKN057 M02/M07 Q1014 BECMG 24015KT TEMPO 0500 +SHSN VV004 RMK WIND 2600FT 35044G62KT",
      "taf": "TAF ENTC 271100Z 2712/2812 36018KT 9999 SCT018CB BKN025"
    },
    {
      "icao": "ENTO",
      "alert": "OK",
      "vis_m": 9999,
      "fzfg": false,
      "metar_trigger": false,
      "taf_trigger": false,
      "metar": "METAR ENTO 271520Z 26004KT CAVOK 03/M05 Q1027 NOSIG",
      "taf": "TAF ENTO 271100Z 2712/2812 32008KT CAVOK"
    },
    {
      "icao": "ENVA",
      "alert": "OK",
      "vis_m": 9999,
      "fzfg": false,
      "metar_trigger": false,
      "taf_trigger": false,
      "metar": "METAR ENVA 271520Z 30025KT 9999 VCSH SCT026CB 02/M01 Q1030 RMK WIND 670FT 31043KT",
      "taf": ""
    },
    {
      "icao": "ENZV",
      "alert": "OK",
      "vis_m": 9999,
      "fzfg": false,
      "metar_trigger": false,
      "taf_trigger": false,
      "metar": "METAR ENZV 271520Z 35014KT CAVOK 05/M02 Q1035 NOSIG",
      "taf": "TAF ENZV 271100Z 2712/2812 34025KT 9999 FEW008"
    },
    {
      "icao": "EPGD",
      "alert": "OK",
      "vis_m": 9999,
      "fzfg": false,
      "metar_trigger": false,
      "taf_trigger": false,
      "metar": "METAR EPGD 271530Z 31014KT 9999 FEW030 03/02 Q1015",
      "taf": ""
    },
    {
      "icao": "EPKK",
      "alert": "OK",
      "vis_m": 4000,
      "fzfg": false,
      "metar_trigger": false,
      "taf_trigger": false,
      "metar": "METAR EPKK 271530Z 25011KT 4000 BR OVC003 M01/M02 Q1019",
      "taf": "TAF EPKK 271430Z 2715/2815 25015KT 2000 BR OVC003"
    },
    {
      "icao": "EPKT",
      "alert": "OK",
      "vis_m": 3000,
      "fzfg": false,
      "metar_trigger": false,
      "taf_trigger": false,
      "metar": "METAR EPKT 271530Z 25012KT 3000 BR OVC003 M01/M02 Q1019",
      "taf": ""
    },
    {
      "icao": "EPLB",
      "alert": "OK",
      "vis_m": 2300,
      "fzfg": false,
      "metar_trigger": false,
      "taf_trigger": false,
      "metar": "METAR EPLB 271530Z 27018KT 2300 -FZDZ BR OVC002 M01/M01 Q1012",
      "taf": "TAF EPLB 271130Z 2712/2812 28013KT 3000 -DZ BR OVC003"
    },
    {
      "icao": "EPMO",
      "alert": "OK",
      "vis_m": 3500,
      "fzfg": false,
      "metar_trigger": false,
      "taf_trigger": false,
      "metar": "METAR EPMO 271530Z 26017KT 3500 -FZDZ BR OVC005 M00/M00 Q1014",
      "taf": "TAF EPMO 271130Z 2712/2812 27015KT 2000 -DZ BR OVC002"
    },
    {
      "icao": "EPPO",
      "alert": "OK",
      "vis_m": 2900,
      "fzfg": false,
      "metar_trigger": false,
      "taf_trigger": false,
      "metar": "METAR EPPO 271530Z 29013KT 2900 -FZDZ BR OVC002 M00/M01 Q1021",
      "taf": ""
    },
    {
      "icao": "EPRA",
      "alert": "OK",
      "vis_m": 4000,
      "fzfg": false,
      "metar_trigger": false,
      "taf_trigger": false,
      "metar": "METAR EPRA 271530Z 29012KT 260V320 4000 BR OVC003 M01/M01 Q1014",
      "taf": "TAF EPRA 271430Z 2715/2724 27014KT 4000 BR OVC003"
    },
    {
      "icao": "EPRZ",
      "alert": "OK",
      "vis_m": 1500,
      "fzfg": false,
      "metar_trigger": false,
      "taf_trigger": false,
      "metar": "METAR EPRZ 271530Z 26018KT 1500 BR OVC002 M01/M01 Q1016",
      "taf": ""
    },
    {
      "icao": "EPSC",
      "alert": "OK",
      "vis_m": 9999,
      "fzfg": false,
      "metar_trigger": false,
      "taf_trigger": false,
      "metar": "METAR EPSC 271530Z 29009KT 9999 FEW002 BKN003 04/04 Q1021",
      "taf": ""
    },
    {
      "icao": "EPSY",
      "alert": "OK",
      "vis_m": 9999,
      "fzfg": false,
      "metar_trigger": false,
      "taf_trigger": false,
      "metar": "METAR EPSY 271530Z 29009G22KT 230V320 9999 BKN007 02/02 Q1011",
      "taf": "TAF EPSY 271430Z 2715/2724 31012KT 8000 BKN007"
    },
    {
      "icao": "EPWA",
      "alert": "OK",
      "vis_m": 3600,
      "fzfg": false,
      "metar_trigger": false,
      "taf_trigger": false,
      "metar": "METAR EPWA 271530Z 28016KT 3600 -FZDZ BR OVC002 M00/M00 Q1014 BECMG BKN004",
      "taf": "TAF EPWA 271430Z 2715/2815 26015KT 2000 BR OVC002"
    },
    {
      "icao": "EPWR",
      "alert": "OK",
      "vis_m": 9999,
      "fzfg": false,
      "metar_trigger": false,
      "taf_trigger": false,
      "metar": "METAR EPWR 271530Z 29016KT CAVOK 00/M03 Q1021",
      "taf": "TAF EPWR 271430Z 2715/2815 29015KT CAVOK"
    },
    {
      "icao": "ESGG",
      "alert": "OK",
      "vis_m": 9999,
      "fzfg": false,
      "metar_trigger": false,
      "taf_trigger": false,
      "metar": "METAR ESGG 271520Z 33009KT CAVOK 02/M04 Q1025",
      "taf": "TAF ESGG 271430Z 2715/2815 36012KT CAVOK"
    },
    {
      "icao": "ESKN",
      "alert": "OK",
      "vis_m": 9999,
      "fzfg": false,
      "metar_trigger": false,
      "taf_trigger": false,
      "metar": "METAR ESKN 271520Z 28017KT CAVOK 02/M05 Q1015",
      "taf": "TAF ESKN 271430Z 2715/2815 33018G32KT CAVOK"
    },
    {
      "icao": "ESMS",
      "alert": "OK",
      "vis_m": 9999,
      "fzfg": false,
      "metar_trigger": false,
      "taf_trigger": false,
      "metar": "METAR ESMS 271520Z 35013KT CAVOK 05/M03 Q1023",
      "taf": "TAF ESMS 271427Z 2715/2815 33012KT CAVOK"
    },
    {
      "icao": "ESSA",
      "alert": "OK",
      "vis_m": 9999,
      "fzfg": false,
      "metar_trigger": false,
      "taf_trigger": false,
      "metar": "METAR ESSA 271520Z 31020KT CAVOK 03/M09 Q1011 NOSIG",
      "taf": "TAF ESSA 271430Z 2715/2815 33015G25KT CAVOK"
    },
    {
      "icao": "EYKA",
      "alert": "OK",
      "vis_m": 9999,
      "fzfg": false,
      "metar_trigger": false,
      "taf_trigger": false,
      "metar": "METAR EYKA 271520Z 30008KT 250V020 9999 BKN031 05/01 Q1004",
      "taf": "TAF EYKA 271114Z 2712/2812 30015KT 9000 BKN030"
    },
    {
      "icao": "EYPA",
      "alert": "OK",
      "vis_m": 9999,
      "fzfg": false,
      "metar_trigger": false,
      "taf_trigger": false,
      "metar": "METAR EYPA 271520Z 35012G23KT 300V050 9999 FEW046 06/M03 Q1009",
      "taf": "TAF EYPA 271106Z 2712/2812 33012G23KT 9000 SCT030"
    },
    {
      "icao": "EYVI",
      "alert": "OK",
      "vis_m": 9999,
      "fzfg": false,
      "metar_trigger": false,
      "taf_trigger": false,
      "metar": "METAR EYVI 271520Z 31012KT 9999 -RA BKN008 04/02 Q1001 BECMG BKN015",
      "taf": "TAF EYVI 271110Z 2712/2812 26016G26KT 9000 OVC002"
    },
    {
      "icao": "GCFV",
      "alert": "OK",
      "vis_m": 9999,
      "fzfg": false,
      "metar_trigger": false,
      "taf_trigger": false,
      "metar": "METAR GCFV 271530Z 27016KT 230V310 9999 SCT035 22/11 Q1017",
      "taf": "TAF GCFV 271400Z 2715/2815 28015KT 9999 SCT040 TX22/2814Z TN13/2806Z"
    },
    {
      "icao": "GCLP",
      "alert": "OK",
      "vis_m": 9999,
      "fzfg": false,
      "metar_trigger": false,
      "taf_trigger": false,
      "metar": "METAR GCLP 271530Z 08009KT 9999 BKN050 21/12 Q1017 NOSIG",
      "taf": ""
    },
    {
      "icao": "GCTS",
      "alert": "OK",
      "vis_m": 9999,
      "fzfg": false,
      "metar_trigger": false,
      "taf_trigger": false,
      "metar": "METAR GCTS 271530Z VRB07G17KT 9999 SCT045 24/10 Q1017 WS R07 NOSIG",
      "taf": "TAF GCTS 271400Z 2715/2815 VRB07KT 9999 FEW040 TX24/2814Z TN14/2806Z"
    },
    {
      "icao": "GMAD",
      "alert": "OK",
      "vis_m": 6000,
      "fzfg": false,
      "metar_trigger": false,
      "taf_trigger": false,
      "metar": "METAR GMAD 271530Z 10006KT 6000 BKN020TCU BKN080 14/14 Q1015 NOSIG",
      "taf": "TAF GMAD 271100Z 2712/2818 05004KT 6000 BKN020TCU BKN080"
    },
    {
      "icao": "GMMN",
      "alert": "OK",
      "vis_m": 9999,
      "fzfg": false,
      "metar_trigger": false,
      "taf_trigger": false,
      "metar": "SPECI GMMN 271540Z 26013KT 230V290 9999 TSRA SCT008 BKN016TCU SCT023CB 13/10 Q1011 NOSIG",
      "taf": "TAF GMMN 271100Z 2712/2818 20018KT 9999 SCT008 SCT013TCU BKN020"
    },
    {
      "icao": "GMMX",
      "alert": "OK",
      "vis_m": 4000,
      "fzfg": false,
      "metar_trigger": false,
      "taf_trigger": false,
      "metar": "METAR GMMX 271530Z 26006KT 4000 -RA SCT010 BKN016 12/11 Q1013 TEMPO 1200 RA",
      "taf": ""
    },
    {
      "icao": "HEGN",
      "alert": "OK",
      "vis_m": 9999,
      "fzfg": false,
      "metar_trigger": false,
      "taf_trigger": false,
      "metar": "METAR HEGN 271500Z 34017KT CAVOK 21/07 Q1011 NOSIG",
      "taf": "TAF HEGN 271100Z 2712/2818 34016KT CAVOK"
    },
    {
      "icao": "HEMA",
      "alert": "OK",
      "vis_m": 9999,
      "fzfg": false,
      "metar_trigger": false,
      "taf_trigger": false,
      "metar": "METAR HEMA 271500Z 35007KT CAVOK 22/10 Q1011 NOSIG",
      "taf": "TAF HEMA 271100Z 2712/2818 35016KT CAVOK"
    },
    {
      "icao": "HESH",
      "alert": "OK",
      "vis_m": 9999,
      "fzfg": false,
      "metar_trigger": false,
      "taf_trigger": false,
      "metar": "METAR HESH 271500Z 01006KT CAVOK 22/08 Q1010 NOSIG",
      "taf": "TAF HESH 271100Z 2712/2818 36014KT CAVOK"
    },
    {
      "icao": "HESX",
      "alert": "OK",
      "vis_m": 9999,
      "fzfg": false,
      "metar_trigger": false,
      "taf_trigger": false,
      "metar": "METAR HESX 271500Z 30011KT 9999 SCT020 19/09 Q1012 NOSIG",
      "taf": "TAF HESX 271103Z 2712/2818 28012KT 9999 FEW025"
    },
    {
      "icao": "LATI",
      "alert": "OK",
      "vis_m": 9999,
      "fzfg": false,
      "metar_trigger": false,
      "taf_trigger": false,
      "metar": "METAR LATI 271520Z VRB02KT CAVOK 12/M03 Q1019 NOSIG",
      "taf": "TAF LATI 271100Z 2712/2812 VRB05KT CAVOK TX16/2712Z TNM01/2805Z"
    },
    {
      "icao": "LBPD",
      "alert": "OK",
      "vis_m": 9999,
      "fzfg": false,
      "metar_trigger": false,
      "taf_trigger": false,
      "metar": "METAR LBPD 271530Z AUTO 30019KT 9999 NCD 04/M02 Q1019 NOSIG",
      "taf": "TAF LBPD 271100Z 2712/2812 29018KT 9999 SCT020"
    },
    {
      "icao": "LBSF",
      "alert": "OK",
      "vis_m": 9999,
      "fzfg": false,
      "metar_trigger": false,
      "taf_trigger": false,
      "metar": "METAR LBSF 271530Z 28010KT 9999 OVC018 00/M03 Q1022 NOSIG",
      "taf": "TAF LBSF 271100Z 2712/2812 29018KT 9999 BKN015"
    },
    {
      "icao": "LBWN",
      "alert": "OK",
      "vis_m": 9999,
      "fzfg": false,
      "metar_trigger": false,
      "taf_trigger": false,
      "metar": "METAR LBWN 271530Z AUTO 31005KT 9999 NCD 00/M02 Q1019 NOSIG",
      "taf": "TAF LBWN 271100Z 2712/2812 32012KT 9999 SCT030"
    },
    {
      "icao": "LCLK",
      "alert": "OK",
      "vis_m": 9999,
      "fzfg": false,
      "metar_trigger": false,
      "taf_trigger": false,
      "metar": "METAR LCLK 271530Z 36011KT 9999 FEW020 FEW030TCU SCT060 15/07 Q1005 NOSIG",
      "taf": "TAF LCLK 271130Z 2712/2812 31009KT 9999 FEW025"
    },
    {
      "icao": "LCPH",
      "alert": "OK",
      "vis_m": 9999,
      "fzfg": false,
      "metar_trigger": false,
      "taf_trigger": false,
      "metar": "METAR LCPH 271530Z 35006KT 9999 FEW030 SCT060 15/06 Q1006 NOSIG",
      "taf": "TAF LCPH 271130Z 2712/2812 30014KT 9999 FEW020 SCT035"
    },
    {
      "icao": "LEAL",
      "alert": "OK",
      "vis_m": 9999,
      "fzfg": false,
      "metar_trigger": false,
      "taf_trigger": false,
      "metar": "METAR LEAL 271530Z 09007KT 9999 FEW020 15/10 Q1015 NOSIG",
      "taf": "TAF LEAL 271100Z 2712/2812 31005KT 9999 SCT030 TX15/2713Z TN11/2806Z"
    },
    {
      "icao": "LEBB",
      "alert": "OK",
      "vis_m": 9999,
      "fzfg": false,
      "metar_trigger": false,
      "taf_trigger": false,
      "metar": "METAR LEBB 271530Z 13003KT 080V160 CAVOK 13/10 Q1017 NOSIG",
      "taf": "TAF LEBB 271100Z 2712/2812 11005KT 9999 FEW040 TX14/2715Z TN04/2806Z"
    },
    {
      "icao": "LEBL",
      "alert": "OK",
      "vis_m": 4000,
      "fzfg": false,
      "metar_trigger": false,
      "taf_trigger": false,
      "metar": "METAR LEBL 271530Z 08015KT 4000 R24R/1300U R06L/1800N R06R/P2000 R24L/P2000 RA BKN012 BKN023 BKN048 12/12 Q1018 BECMG NSW",
      "taf": "TAF LEBL 271100Z 2712/2812 07012KT 9999 SCT014 TX14/2712Z TN11/2807Z"
    },
    {
      "icao": "LECH",
      "alert": "OK",
      "vis_m": 9999,
      "fzfg": false,
      "metar_trigger": false,
      "taf_trigger": false,
      "metar": "METAR LECH 271530Z AUTO 02008KT 350V070 9999 -RA FEW043 BKN050 09/09 Q1016",
      "taf": ""
    },
    {
      "icao": "LEMD",
      "alert": "OK",
      "vis_m": 9999,
      "fzfg": false,
      "metar_trigger": false,
      "taf_trigger": false,
      "metar": "METAR LEMD 271530Z VRB01KT 9999 -RA SCT039 BKN050 11/04 Q1014 NOSIG",
      "taf": "TAF LEMD 271100Z 2712/2818 VRB03KT CAVOK TX12/2715Z TN00/2806Z"
    },
    {
      "icao": "LEMG",
      "alert": "OK",
      "vis_m": 9999,
      "fzfg": false,
      "metar_trigger": false,
      "taf_trigger": false,
      "metar": "METAR LEMG 271530Z 09023KT 060V120 9999 SCT017 OVC060 14/11 Q1009 NOSIG",
      "taf": "TAF LEMG 271100Z 2712/2812 11020KT 9999 FEW045 TX15/2714Z TN12/2806Z"
    },
    {
      "icao": "LEVC",
      "alert": "OK",
      "vis_m": 9999,
      "fzfg": false,
      "metar_trigger": false,
      "taf_trigger": false,
      "metar": "METAR LEVC 271530Z 04008KT 010V080 9999 FEW015 BKN020 14/09 Q1015 NOSIG",
      "taf": "TAF LEVC 271100Z 2712/2812 30005KT 9999 FEW015 BKN030 TX14/2713Z TN09/2806Z"
    },
    {
      "icao": "LEXJ",
      "alert": "OK",
      "vis_m": 9999,
      "fzfg": false,
      "metar_trigger": false,
      "taf_trigger": false,
      "metar": "METAR LEXJ 271530Z 07006KT 020V110 CAVOK 14/09 Q1016",
      "taf": "TAF LEXJ 271400Z 2715/2815 10009KT 9999 FEW060 TX15/2814Z TN07/2809Z"
    },
    {
      "icao": "LEZG",
      "alert": "OK",
      "vis_m": 9999,
      "fzfg": false,
      "metar_trigger": false,
      "taf_trigger": false,
      "metar": "METAR LEZG 271530Z 00000KT 9999 2000SW SCT025 BKN040 10/09 Q1018 NOSIG",
      "taf": "TAF LEZG 271100Z 2712/2812 VRB05KT 9999 FEW010 BKN015 TX11/2714Z TN05/2806Z"
    },
    {
      "icao": "LEZL",
      "alert": "OK",
      "vis_m": 9000,
      "fzfg": false,
      "metar_trigger": false,
      "taf_trigger": false,
      "metar": "METAR LEZL 271530Z 05004KT 9000 -RA NSC 11/10 Q1009 NOSIG",
      "taf": "TAF LEZL 271400Z 2715/2815 09008KT CAVOK TX16/2715Z TN08/2806Z"
    },
    {
      "icao": "LFBD",
      "alert": "OK",
      "vis_m": 9999,
      "fzfg": false,
      "metar_trigger": false,
      "taf_trigger": false,
      "metar": "METAR LFBD 271530Z AUTO 08005KT 050V110 CAVOK 11/05 Q1021 NOSIG",
      "taf": "TAF LFBD 271100Z 2712/2818 06010KT CAVOK TX13/2714Z TN03/2805Z"
    },
    {
      "icao": "LFLL",
      "alert": "OK",
      "vis_m": 5000,
      "fzfg": false,
      "metar_trigger": false,
      "taf_trigger": false,
      "metar": "METAR LFLL 271530Z 02006KT 5000 BR FEW004 OVC006 02/01 Q1027 NOSIG",
      "taf": "TAF LFLL 271100Z 2712/2818 36004KT 7000 BKN007"
    },
    {
      "icao": "LFLS",
      "alert": "OK",
      "vis_m": 9999,
      "fzfg": false,
      "metar_trigger": false,
      "taf_trigger": false,
      "metar": "METAR LFLS 271530Z AUTO 11005KT 080V140 CAVOK 04/01 Q1025 NOSIG",
      "taf": "TAF LFLS 271400Z 2715/2815 VRB02KT CAVOK"
    },
    {
      "icao": "LFMN",
      "alert": "OK",
      "vis_m": 9999,
      "fzfg": false,
      "metar_trigger": false,
      "taf_trigger": false,
      "metar": "METAR LFMN 271530Z 32008KT CAVOK 14/03 Q1023 NOSIG",
      "taf": "TAF LFMN 271400Z 2715/2821 25005KT CAVOK"
    },
    {
      "icao": "LFOB",
      "alert": "OK",
      "vis_m": 9999,
      "fzfg": false,
      "metar_trigger": false,
      "taf_trigger": false,
      "metar": "METAR LFOB 271530Z AUTO 03005KT CAVOK 02/M01 Q1029 NOSIG",
      "taf": "TAF LFOB 271100Z 2712/2812 01006KT 8000 NSC"
    },
    {
      "icao": "LFPO",
      "alert": "OK",
      "vis_m": 9999,
      "fzfg": false,
      "metar_trigger": false,
      "taf_trigger": false,
      "metar": "METAR LFPO 271530Z AUTO 10002KT CAVOK 01/M01 Q1029",
      "taf": "TAF LFPO 270500Z 2706/2812 03008KT CAVOK"
    },
    {
      "icao": "LFSB",
      "alert": "OK",
      "vis_m": 9999,
      "fzfg": false,
      "metar_trigger": false,
      "taf_trigger": false,
      "metar": "METAR LFSB 271530Z AUTO 10006KT CAVOK 02/M02 Q1028 NOSIG",
      "taf": "TAF LFSB 271100Z 2712/2812 11008KT 9999 FEW016"
    },
    {
      "icao": "LGAV",
      "alert": "OK",
      "vis_m": 9999,
      "fzfg": false,
      "metar_trigger": false,
      "taf_trigger": false,
      "metar": "METAR LGAV 271520Z 34006KT 9999 FEW020 BKN035 09/07 Q1020 NOSIG",
      "taf": "TAF LGAV 271100Z 2712/2812 02013KT 9999 FEW020 BKN030"
    },
    {
      "icao": "LGTS",
      "alert": "OK",
      "vis_m": 9999,
      "fzfg": false,
      "metar_trigger": false,
      "taf_trigger": false,
      "metar": "METAR LGTS 271520Z 32012KT CAVOK 10/01 Q1021 NOSIG",
      "taf": "TAF LGTS 271100Z 2712/2812 33015KT 9999 FEW025"
    },
    {
      "icao": "LHBP",
      "alert": "OK",
      "vis_m": 9999,
      "fzfg": false,
      "metar_trigger": false,
      "taf_trigger": false,
      "metar": "METAR LHBP 271530Z 25008KT CAVOK 01/M03 Q1021 NOSIG",
      "taf": "TAF LHBP 271115Z 2712/2812 24007KT CAVOK"
    },
    {
      "icao": "LHDC",
      "alert": "OK",
      "vis_m": 9999,
      "fzfg": false,
      "metar_trigger": false,
      "taf_trigger": false,
      "metar": "METAR LHDC 271515Z AUTO 21011KT CAVOK 01/M01 Q1022",
      "taf": "TAF LHDC 270815Z 2709/2718 22005KT CAVOK"
    },
    {
      "icao": "LIBD",
      "alert": "OK",
      "vis_m": 9999,
      "fzfg": false,
      "metar_trigger": false,
      "taf_trigger": false,
      "metar": "METAR LIBD 271520Z 33010KT 310V020 9999 SCT025 13/07 Q1022",
      "taf": "TAF LIBD 271100Z 2712/2812 32013KT 9999 SCT020"
    },
    {
      "icao": "LIBG",
      "alert": "OK",
      "vis_m": 9999,
      "fzfg": false,
      "metar_trigger": false,
      "taf_trigger": false,
      "metar": "METAR LIBG 271450Z 35017KT CAVOK 13/09 Q1020",
      "taf": "TAF LIBG 271400Z 2715/2724 35016KT 9999 FEW025"
    },
    {
      "icao": "LIBP",
      "alert": "OK",
      "vis_m": 9999,
      "fzfg": false,
      "metar_trigger": false,
      "taf_trigger": false,
      "metar": "METAR LIBP 271520Z AUTO 34004KT 310V030 9999 BKN028/// 09/04 Q1025",
      "taf": "TAF LIBP 271100Z 2712/2812 VRB05KT 9999 BKN030"
    },
    {
      "icao": "LIBR",
      "alert": "OK",
      "vis_m": 9999,
      "fzfg": false,
      "metar_trigger": false,
      "taf_trigger": false,
      "metar": "METAR LIBR 271520Z 34015KT 310V010 CAVOK 13/05 Q1020",
      "taf": "TAF LIBR 271100Z 2712/2812 35015KT 9999 SCT030"
    },
    {
      "icao": "LICA",
      "alert": "OK",
      "vis_m": 9999,
      "fzfg": false,
      "metar_trigger": false,
      "taf_trigger": false,
      "metar": "METAR LICA 271520Z AUTO VRB01KT 9999 NCD 16/08 Q1019",
      "taf": "TAF LICA 271100Z 2712/2812 04010KT CAVOK"
    },
    {
      "icao": "LICC",
      "alert": "OK",
      "vis_m": 9999,
      "fzfg": false,
      "metar_trigger": false,
      "taf_trigger": false,
      "metar": "METAR LICC 271520Z 08011KT 9999 FEW025 BKN070 15/12 Q1020",
      "taf": "TAF LICC 271100Z 2712/2812 07016KT 9999 SCT040"
    },
    {
      "icao": "LICJ",
      "alert": "OK",
      "vis_m": 9999,
      "fzfg": false,
      "metar_trigger": false,
      "taf_trigger": false,
      "metar": "METAR LICJ 271520Z 06012KT CAVOK 16/11 Q1019",
      "taf": "TAF LICJ 271100Z 2712/2812 05012KT 9999 FEW040"
    },
    {
      "icao": "LIMC",
      "alert": "OK",
      "vis_m": 9999,
      "fzfg": false,
      "metar_trigger": false,
      "taf_trigger": false,
      "metar": "METAR LIMC 271520Z 21003KT CAVOK 09/04 Q1025 NOSIG",
      "taf": "TAF LIMC 271100Z 2712/2818 VRB05KT CAVOK"
    },
    {
      "icao": "LIME",
      "alert": "OK",
      "vis_m": 9999,
      "fzfg": false,
      "metar_trigger": false,
      "taf_trigger": false,
      "metar": "METAR LIME 271520Z AUTO 26007KT 9999 NCD 09/03 Q1025",
      "taf": "TAF LIME 271100Z 2712/2812 VRB05KT CAVOK"
    },
    {
      "icao": "LIMF",
      "alert": "OK",
      "vis_m": 9999,
      "fzfg": false,
      "metar_trigger": false,
      "taf_trigger": false,
      "metar": "METAR LIMF 271520Z VRB01KT CAVOK 11/02 Q1025",
      "taf": "TAF LIMF 271100Z 2712/2812 VRB06KT CAVOK"
    },
    {
      "icao": "LIMJ",
      "alert": "OK",
      "vis_m": 9999,
      "fzfg": false,
      "metar_trigger": false,
      "taf_trigger": false,
      "metar": "METAR LIMJ 271520Z 04017KT CAVOK 13/M00 Q1023",
      "taf": "TAF LIMJ 271100Z 2712/2812 03015KT CAVOK"
    },
    {
      "icao": "LIPE",
      "alert": "OK",
      "vis_m": 9999,
      "fzfg": false,
      "metar_trigger": false,
      "taf_trigger": false,
      "metar": "METAR LIPE 271520Z 27006KT CAVOK 09/04 Q1025",
      "taf": "TAF LIPE 271100Z 2712/2812 27010KT CAVOK"
    },
    {
      "icao": "LIPH",
      "alert": "OK",
      "vis_m": 9999,
      "fzfg": false,
      "metar_trigger": false,
      "taf_trigger": false,
      "metar": "METAR LIPH 271520Z 24006KT CAVOK 09/03 Q1024",
      "taf": "TAF LIPH 271100Z 2712/2812 VRB03KT CAVOK"
    },
    {
      "icao": "LIPQ",
      "alert": "OK",
      "vis_m": 9999,
      "fzfg": false,
      "metar_trigger": false,
      "taf_trigger": false,
      "metar": "METAR LIPQ 271520Z AUTO 28005KT 9999 NCD 10/02 Q1023",
      "taf": "TAF LIPQ 271100Z 2712/2812 VRB04KT CAVOK"
    },
    {
      "icao": "LIPR",
      "alert": "OK",
      "vis_m": 9999,
      "fzfg": false,
      "metar_trigger": false,
      "taf_trigger": false,
      "metar": "METAR LIPR 271520Z 31009KT CAVOK 09/02 Q1025",
      "taf": "TAF LIPR 271100Z 2712/2812 31012KT CAVOK"
    },
    {
      "icao": "LIPX",
      "alert": "OK",
      "vis_m": 9999,
      "fzfg": false,
      "metar_trigger": false,
      "taf_trigger": false,
      "metar": "METAR LIPX 271520Z 27007KT CAVOK 09/04 Q1025",
      "taf": "TAF LIPX 271100Z 2712/2812 VRB06KT CAVOK"
    },
    {
      "icao": "LIPY",
      "alert": "OK",
      "vis_m": 9999,
      "fzfg": false,
      "metar_trigger": false,
      "taf_trigger": false,
      "metar": "METAR LIPY 271520Z AUTO 31005KT 9999 NCD 09/04 Q1025",
      "taf": "TAF LIPY 271100Z 2712/2812 31010KT 9999 SCT030"
    },
    {
      "icao": "LIPZ",
      "alert": "OK",
      "vis_m": 9999,
      "fzfg": false,
      "metar_trigger": false,
      "taf_trigger": false,
      "metar": "METAR LIPZ 271520Z 24006KT CAVOK 08/04 Q1024 NOSIG",
      "taf": "TAF LIPZ 271100Z 2712/2818 VRB05KT CAVOK"
    },
    {
      "icao": "LIRF",
      "alert": "OK",
      "vis_m": 9999,
      "fzfg": false,
      "metar_trigger": false,
      "taf_trigger": false,
      "metar": "METAR LIRF 271520Z 31005KT CAVOK 13/06 Q1022 NOSIG",
      "taf": "TAF LIRF 271100Z 2712/2818 05010KT CAVOK"
    },
    {
      "icao": "LIRN",
      "alert": "OK",
      "vis_m": 9999,
      "fzfg": false,
      "metar_trigger": false,
      "taf_trigger": false,
      "metar": "METAR LIRN 271520Z 07005KT 040V100 CAVOK 13/03 Q1021 NOSIG",
      "taf": "TAF LIRN 271100Z 2712/2812 03011KT CAVOK"
    },
    {
      "icao": "LIRP",
      "alert": "OK",
      "vis_m": 9999,
      "fzfg": false,
      "metar_trigger": false,
      "taf_trigger": false,
      "metar": "METAR LIRP 271515Z VRB02KT CAVOK 12/02 Q1023 NOSIG",
      "taf": "TAF LIRP 271100Z 2712/2812 09008KT CAVOK"
    },
    {
      "icao": "LIRZ",
      "alert": "OK",
      "vis_m": 9999,
      "fzfg": false,
      "metar_trigger": false,
      "taf_trigger": false,
      "metar": "METAR LIRZ 271520Z AUTO 02008KT 9999 NCD 10/02 Q1022",
      "taf": "TAF LIRZ 271100Z 2712/2812 01010KT 9999 FEW030"
    },
    {
      "icao": "LJLJ",
      "alert": "OK",
      "vis_m": 400,
      "fzfg": true,
      "metar_trigger": false,
      "taf_trigger": false,
      "metar": "METAR LJLJ 271530Z VRB01KT 0400 R30/0500N FZFG VV002 M01/M02 Q1025 NOSIG",
      "taf": "TAF LJLJ 271100Z 2712/2812 30002KT 0400 FZFG VV002"
    },
    {
      "icao": "LKMT",
      "alert": "OK",
      "vis_m": 9999,
      "fzfg": false,
      "metar_trigger": false,
      "taf_trigger": false,
      "metar": "METAR LKMT 271530Z 22009KT CAVOK M01/M03 Q1021 NOSIG",
      "taf": "TAF LKMT 271100Z 2712/2812 23008KT 6000 OVC007"
    },
    {
      "icao": "LKPR",
      "alert": "OK",
      "vis_m": 9999,
      "fzfg": false,
      "metar_trigger": false,
      "taf_trigger": false,
      "metar": "METAR LKPR 271530Z 22008KT CAVOK 02/M03 Q1024 NOSIG",
      "taf": "TAF LKPR 271400Z 2715/2821 23010KT CAVOK"
    },
    {
      "icao": "LLBG",
      "alert": "OK",
      "vis_m": 9999,
      "fzfg": false,
      "metar_trigger": false,
      "taf_trigger": false,
      "metar": "METAR LLBG 271520Z COR 17006KT 150V210 9999 FEW015 FEW018TCU BKN020 15/14 Q1009 RESHRA TEMPO 5000 TSRA FEW025CB",
      "taf": "TAF LLBG 271111Z 2712/2812 22012KT 9999 SCT030 BKN040"
    },
    {
      "icao": "LMML",
      "alert": "OK",
      "vis_m": 9999,
      "fzfg": false,
      "metar_trigger": false,
      "taf_trigger": false,
      "metar": "METAR LMML 271515Z 07016KT 9999 VCSH SCT015 16/13 Q1018 NOSIG",
      "taf": "TAF LMML 271100Z 2712/2812 07017KT 9999 SCT020"
    },
    {
      "icao": "LOWW",
      "alert": "OK",
      "vis_m": 9999,
      "fzfg": false,
      "metar_trigger": false,
      "taf_trigger": false,
      "metar": "METAR LOWW 271520Z 35002KT CAVOK 02/M03 Q1024 BECMG FM1700 31012KT",
      "taf": "TAF LOWW 271415Z 2715/2821 35007KT CAVOK TX04/2812Z TN00/2821Z"
    },
    {
      "icao": "LPFR",
      "alert": "OK",
      "vis_m": 9999,
      "fzfg": false,
      "metar_trigger": false,
      "taf_trigger": false,
      "metar": "METAR LPFR 271530Z 04011KT 9999 FEW014 FEW020CB BKN025 12/11 Q1004",
      "taf": "TAF LPFR 271100Z 2712/2812 09017KT 9999 SCT015 BKN030"
    },
    {
      "icao": "LPMA",
      "alert": "OK",
      "vis_m": 9999,
      "fzfg": false,
      "metar_trigger": false,
      "taf_trigger": false,
      "metar": "METAR LPMA 271530Z 36013KT 9999 -SHRA SCT016 FEW018TCU 18/08 Q1015",
      "taf": "TAF LPMA 271100Z 2712/2812 32010KT 9999 SCT015"
    },
    {
      "icao": "LPPR",
      "alert": "OK",
      "vis_m": 9999,
      "fzfg": false,
      "metar_trigger": false,
      "taf_trigger": false,
      "metar": "METAR LPPR 271530Z 10009KT CAVOK 14/02 Q1011",
      "taf": "TAF LPPR 271100Z 2712/2812 08010KT CAVOK"
    },
    {
      "icao": "LPPS",
      "alert": "OK",
      "vis_m": 9999,
      "fzfg": false,
      "metar_trigger": false,
      "taf_trigger": false,
      "metar": "METAR LPPS 271530Z 32015KT 9999 FEW015 FEW018TCU 16/09 Q1014",
      "taf": "TAF LPPS 271100Z 2712/2818 30017KT 9999 SCT015"
    },
    {
      "icao": "LPPT",
      "alert": "OK",
      "vis_m": 9999,
      "fzfg": false,
      "metar_trigger": false,
      "taf_trigger": false,
      "metar": "METAR LPPT 271530Z 05012KT 9999 FEW020 BKN030 09/07 Q1007",
      "taf": "TAF LPPT 271100Z 2712/2818 05013KT 9999 FEW030"
    },
    {
      "icao": "LQBK",
      "alert": "OK",
      "vis_m": 9999,
      "fzfg": false,
      "metar_trigger": false,
      "taf_trigger": false,
      "metar": "METAR LQBK 271530Z VRB01KT CAVOK 04/01 Q1025 NOSIG",
      "taf": "TAF LQBK 271100Z 2712/2812 VRB03KT CAVOK TX08/2713Z TNM03/2805Z"
    },
    {
      "icao": "LQSA",
      "alert": "OK",
      "vis_m": 9999,
      "fzfg": false,
      "metar_trigger": false,
      "taf_trigger": false,
      "metar": "METAR LQSA 271530Z VRB02KT 9999 FEW020 BKN035 01/M02 Q1025 NOSIG",
      "taf": "TAF LQSA 271100Z 2712/2812 VRB02KT 9999 FEW025 BKN030 TX04/2713Z TNM04/2805Z"
    },
    {
      "icao": "LQTZ",
      "alert": "OK",
      "vis_m": 9999,
      "fzfg": false,
      "metar_trigger": false,
      "taf_trigger": false,
      "metar": "METAR LQTZ 271530Z VRB01KT CAVOK 04/M01 Q1024",
      "taf": "TAF LQTZ 271100Z 2712/2812 30005KT CAVOK TX06/2713Z TNM04/2805Z"
    },
    {
      "icao": "LRBC",
      "alert": "OK",
      "vis_m": 9999,
      "fzfg": false,
      "metar_trigger": false,
      "taf_trigger": false,
      "metar": "METAR LRBC 271530Z 19004KT 9999 BKN056 00/M01 Q1015",
      "taf": "TAF LRBC 271400Z 2715/2724 VRB04KT 9999 SCT025"
    },
    {
      "icao": "LRBS",
      "alert": "OK",
      "vis_m": 400,
      "fzfg": true,
      "metar_trigger": false,
      "taf_trigger": false,
      "metar": "METAR LRBS 271530Z 24006KT 210V270 0400 R07/1000U FZFG OVC001 M02/M02 Q1019 NOSIG",
      "taf": "TAF LRBS 271100Z 2712/2812 25008KT 0800 FZFG OVC002"
    },
    {
      "icao": "LRBV",
      "alert": "OK",
      "vis_m": 9999,
      "fzfg": false,
      "metar_trigger": false,
      "taf_trigger": false,
      "metar": "METAR LRBV 271530Z 27003KT 220V310 9999 SCT019 BKN027 00/M04 Q1019",
      "taf": "TAF LRBV 271400Z 2715/2724 28009KT 9999 BKN020"
    },
    {
      "icao": "LRCL",
      "alert": "OK",
      "vis_m": 9999,
      "fzfg": false,
      "metar_trigger": false,
      "taf_trigger": false,
      "metar": "METAR LRCL 271530Z 09003KT CAVOK 01/M03 Q1020",
      "taf": "TAF LRCL 271400Z 2715/2724 30008KT 9999 SCT030"
    },
    {
      "icao": "LRCV",
      "alert": "OK",
      "vis_m": 9999,
      "fzfg": false,
      "metar_trigger": false,
      "taf_trigger": false,
      "metar": "METAR LRCV 271530Z 27014KT CAVOK 01/M01 Q1019",
      "taf": "TAF LRCV 271400Z 2715/2724 26010KT CAVOK"
    },
    {
      "icao": "LRIA",
      "alert": "OK",
      "vis_m": 9999,
      "fzfg": false,
      "metar_trigger": false,
      "taf_trigger": false,
      "metar": "METAR LRIA 271530Z 28005KT 9999 OVC011 01/M01 Q1015",
      "taf": "TAF LRIA 271400Z 2715/2724 32012KT 9999 BKN015"
    },
    {
      "icao": "LROP",
      "alert": "OK",
      "vis_m": 500,
      "fzfg": true,
      "metar_trigger": false,
      "taf_trigger": false,
      "metar": "METAR LROP 271530Z 23006KT 0500 R08R/1300N R08L/1700D FZFG OVC001 M02/M02 Q1019 NOSIG",
      "taf": "TAF LROP 271100Z 2712/2812 25008KT 0600 FZFG OVC002"
    },
    {
      "icao": "LRSB",
      "alert": "OK",
      "vis_m": 9999,
      "fzfg": false,
      "metar_trigger": false,
      "taf_trigger": false,
      "metar": "METAR LRSB 271530Z VRB02KT 9999 SCT017 M01/M03 Q1020",
      "taf": "TAF LRSB 271100Z 2712/2812 VRB04KT 9999 SCT020"
    },
    {
      "icao": "LRSM",
      "alert": "OK",
      "vis_m": 9999,
      "fzfg": false,
      "metar_trigger": false,
      "taf_trigger": false,
      "metar": "METAR LRSM 271530Z AUTO 24007KT 9999 NCD 01/M01 Q1021",
      "taf": ""
    },
    {
      "icao": "LRSV",
      "alert": "OK",
      "vis_m": 9999,
      "fzfg": false,
      "metar_trigger": false,
      "taf_trigger": false,
      "metar": "METAR LRSV 271530Z 28007KT CAVOK M01/M02 Q1012",
      "taf": "TAF LRSV 271400Z 2715/2724 VRB03KT CAVOK"
    },
    {
      "icao": "LRTM",
      "alert": "OK",
      "vis_m": 9999,
      "fzfg": false,
      "metar_trigger": false,
      "taf_trigger": false,
      "metar": "METAR LRTM 271530Z 05005KT 9999 SCT024 BKN035 00/M03 Q1021",
      "taf": "TAF LRTM 271400Z 2715/2724 31006KT 9999 SCT020 BKN035"
    },
    {
      "icao": "LRTR",
      "alert": "OK",
      "vis_m": 9999,
      "fzfg": false,
      "metar_trigger": false,
      "taf_trigger": false,
      "metar": "METAR LRTR 271530Z 22005KT 9999 OVC011 02/M01 Q1024",
      "taf": "TAF LRTR 271100Z 2712/2812 30006KT 9999 BKN010"
    },
    {
      "icao": "LTAC",
      "alert": "OK",
      "vis_m": 9999,
      "fzfg": false,
      "metar_trigger": false,
      "taf_trigger": false,
      "metar": "METAR LTAC 271520Z 31005KT 9999 SCT040 BKN100 M01/M06 Q1010 NOSIG RMK RWY21C 30004KT 260V320 RWY03L 29004KT 250V320 RWY21R 28004KT 240V310 RWY03R 32007KT RWY21L 31006KT",
      "taf": "TAF LTAC 271040Z 2712/2812 32012KT 9999 SCT040 BKN100"
    },
    {
      "icao": "LTFM",
      "alert": "OK",
      "vis_m": 9999,
      "fzfg": false,
      "metar_trigger": false,
      "taf_trigger": false,
      "metar": "METAR LTFM 271520Z 33019KT 9999 BKN025 05/M03 Q1019 NOSIG RMK RWY17L 34018KT RWY34L 33017KT RWY16R 33016KT RWY36 34017KT RWY18 35018KT",
      "taf": "TAF LTFM 271040Z 2712/2818 35020G30KT 9999 BKN025"
    },
    {
      "icao": "LUKK",
      "alert": "OK",
      "vis_m": 9999,
      "fzfg": false,
      "metar_trigger": false,
      "taf_trigger": false,
      "metar": "METAR LUKK 271530Z 31009KT 9999 OVC023 02/M02 Q1014 NOSIG",
      "taf": "TAF LUKK 271109Z 2712/2812 33014KT 9999 SCT015 OVC020"
    },
    {
      "icao": "LWOH",
      "alert": "OK",
      "vis_m": 9999,
      "fzfg": false,
      "metar_trigger": false,
      "taf_trigger": false,
      "metar": "METAR LWOH 271520Z VRB03KT CAVOK 07/M03 Q1020",
      "taf": "TAF LWOH 271438Z 2715/2815 32008KT CAVOK"
    },
    {
      "icao": "LWSK",
      "alert": "OK",
      "vis_m": 9999,
      "fzfg": false,
      "metar_trigger": false,
      "taf_trigger": false,
      "metar": "METAR LWSK 271520Z 02009KT CAVOK 04/M01 Q1023 NOSIG",
      "taf": "TAF LWSK 271438Z 2715/2815 02012KT CAVOK"
    },
    {
      "icao": "LYBE",
      "alert": "OK",
      "vis_m": 9999,
      "fzfg": false,
      "metar_trigger": false,
      "taf_trigger": false,
      "metar": "METAR LYBE 271530Z 23005KT CAVOK 03/M00 Q1025 NOSIG",
      "taf": "TAF LYBE 271100Z 2712/2812 30008KT 9999 BKN015 TX04/2812Z TNM01/2803Z"
    },
    {
      "icao": "LYNI",
      "alert": "OK",
      "vis_m": 9999,
      "fzfg": false,
      "metar_trigger": false,
      "taf_trigger": false,
      "metar": "METAR LYNI 271530Z 32003KT 240V010 9999 BKN017 02/M01 Q1025 NOSIG",
      "taf": "TAF LYNI 271100Z 2712/2812 31008KT 9999 BKN012 TX02/2712Z TNM01/2802Z"
    },
    {
      "icao": "LYPG",
      "alert": "OK",
      "vis_m": 9999,
      "fzfg": false,
      "metar_trigger": false,
      "taf_trigger": false,
      "metar": "METAR LYPG 271530Z VRB01KT CAVOK 09/00 Q1020 NOSIG",
      "taf": "TAF LYPG 271100Z 2712/2812 16007KT CAVOK TX15/2713Z TN02/2801Z"
    },
    {
      "icao": "LZIB",
      "alert": "OK",
      "vis_m": 9999,
      "fzfg": false,
      "metar_trigger": false,
      "taf_trigger": false,
      "metar": "METAR LZIB 271530Z 24005KT 190V280 CAVOK 02/M04 Q1023 NOSIG",
      "taf": "TAF LZIB 271115Z 2712/2812 30011KT CAVOK"
    },
    {
      "icao": "LZKZ",
      "alert": "OK",
      "vis_m": 9999,
      "fzfg": false,
      "metar_trigger": false,
      "taf_trigger": false,
      "metar": "METAR LZKZ 271530Z 18004KT CAVOK M01/M02 Q1019 NOSIG",
      "taf": "TAF LZKZ 271115Z 2712/2812 VRB02KT CAVOK"
    },
    {
      "icao": "LZTT",
      "alert": "OK",
      "vis_m": 9999,
      "fzfg": false,
      "metar_trigger": false,
      "taf_trigger": false,
      "metar": "METAR LZTT 271530Z VRB02KT CAVOK 02/M05 Q1016 NOSIG",
      "taf": "TAF LZTT 271115Z 2712/2812 26010KT CAVOK"
    },
    {
      "icao": "OEJN",
      "alert": "OK",
      "vis_m": 9999,
      "fzfg": false,
      "metar_trigger": false,
      "taf_trigger": false,
      "metar": "METAR OEJN 271500Z 31010KT CAVOK 26/20 Q1010 NOSIG",
      "taf": "TAF OEJN 271100Z 2712/2818 30010KT 9999 SCT040"
    },
    {
      "icao": "OEMA",
      "alert": "OK",
      "vis_m": 9999,
      "fzfg": false,
      "metar_trigger": false,
      "taf_trigger": false,
      "metar": "METAR OEMA 271500Z 22011KT CAVOK 24/03 Q1012 NOSIG",
      "taf": "TAF OEMA 271100Z 2712/2818 27014KT 7000 SCT045"
    },
    {
      "icao": "OJAI",
      "alert": "OK",
      "vis_m": 4000,
      "fzfg": false,
      "metar_trigger": false,
      "taf_trigger": false,
      "metar": "METAR OJAI 271500Z 23015KT 4000 BLDU SCT025 FEW030 11/08 Q1010 NOSIG",
      "taf": "TAF OJAI 271100Z 2712/2818 25018KT 3000 RA BR SCT025TCU BKN030"
    },
    {
      "icao": "OMAA",
      "alert": "OK",
      "vis_m": 9999,
      "fzfg": false,
      "metar_trigger": false,
      "taf_trigger": false,
      "metar": "METAR OMAA 271500Z 34007KT CAVOK 23/16 Q1014 NOSIG",
      "taf": "TAF OMAA 271100Z 2712/2818 34008KT 8000 FEW040"
    },
    {
      "icao": "OMDB",
      "alert": "OK",
      "vis_m": 9000,
      "fzfg": false,
      "metar_trigger": false,
      "taf_trigger": false,
      "metar": "METAR OMDB 271530Z 35005KT 320V070 9000 NSC 24/16 Q1014 NOSIG",
      "taf": "TAF OMDB 271100Z 2712/2818 32010KT 8000 FEW040"
    },
    {
      "icao": "UAAA",
      "alert": "OK",
      "vis_m": 2400,
      "fzfg": false,
      "metar_trigger": false,
      "taf_trigger": false,
      "metar": "METAR UAAA 271530Z VRB01MPS 2400 BR BKN007 OVC100 M01/M02 Q1019 NOSIG",
      "taf": "TAF UAAA 271102Z 2712/2812 20003MPS 1500 BR FU BKN011 OVC030 TX00/2809Z TNM05/2801Z"
    },
    {
      "icao": "UBBB",
      "alert": "OK",
      "vis_m": 9999,
      "fzfg": false,
      "metar_trigger": false,
      "taf_trigger": false,
      "metar": "METAR UBBB 271530Z 15006KT 9999 BKN017 08/07 Q1002 NOSIG",
      "taf": "TAF UBBB 271036Z 2712/2812 20020G30KT 9999 SCT025 TX09/2711Z TN04/2802Z"
    },
    {
      "icao": "UDSG",
      "alert": "OK",
      "vis_m": 1400,
      "fzfg": false,
      "metar_trigger": false,
      "taf_trigger": false,
      "metar": "METAR UDSG 271530Z 02009KT 1400 R02/P2000U SN BR OVC010 M03/M04 Q1002 NOSIG",
      "taf": "TAF UDSG 271100Z 2712/2812 VRB06KT 3000 BR BKN020"
    },
    {
      "icao": "UDYZ",
      "alert": "OK",
      "vis_m": 4200,
      "fzfg": false,
      "metar_trigger": false,
      "taf_trigger": false,
      "metar": "METAR UDYZ 271530Z 24002KT 4200 BR BKN046 04/M00 Q1000 NOSIG",
      "taf": "TAF UDYZ 271100Z 2712/2812 VRB06KT 3500 BR SCT040"
    },
    {
      "icao": "UGKO",
      "alert": "OK",
      "vis_m": 9999,
      "fzfg": false,
      "metar_trigger": false,
      "taf_trigger": false,
      "metar": "METAR UGKO 271530Z VRB02KT 9999 SCT011 OVC025 02/02 Q1009 NOSIG",
      "taf": "TAF UGKO 271100Z 2712/2812 24007KT 9999 SCT015 OVC050 TX04/2811Z TNM01/2804Z"
    }
  ]
}