{
  "ts_utc": "2026-04-26T14:46:37Z",
  "threshold_m": 150,
  "source": "stations_override.txt (ICAO list) + aviationweather.gov (METAR/TAF raw)",
  "station_count": 159,
  "stations": [
    {
      "icao": "BIKF",
      "alert": "OK",
      "vis_m": 9999,
      "fzfg": false,
      "metar_trigger": false,
      "taf_trigger": false,
      "metar": "METAR BIKF 261430Z 12020KT 9999 BKN014 09/06 Q1011",
      "taf": "TAF BIKF 261348Z 2615/2715 14022G32KT 9999 BKN020 TX08/2615Z TN07/2705Z"
    },
    {
      "icao": "BKPR",
      "alert": "OK",
      "vis_m": 9999,
      "fzfg": false,
      "metar_trigger": false,
      "taf_trigger": false,
      "metar": "METAR BKPR 261430Z 03012KT CAVOK 23/04 Q1016 NOSIG",
      "taf": "TAF BKPR 261130Z 2612/2712 03007KT CAVOK"
    },
    {
      "icao": "EBCI",
      "alert": "OK",
      "vis_m": 9999,
      "fzfg": false,
      "metar_trigger": false,
      "taf_trigger": false,
      "metar": "METAR EBCI 261420Z 05006KT 340V090 CAVOK 17/04 Q1024 NOSIG",
      "taf": "TAF EBCI 261110Z 2612/2718 05007KT CAVOK"
    },
    {
      "icao": "EDDB",
      "alert": "OK",
      "vis_m": 9999,
      "fzfg": false,
      "metar_trigger": false,
      "taf_trigger": false,
      "metar": "METAR EDDB 261420Z AUTO 33006KT 270V060 CAVOK 14/M05 Q1024 NOSIG",
      "taf": "TAF EDDB 261100Z 2612/2712 33008KT CAVOK"
    },
    {
      "icao": "EDDH",
      "alert": "OK",
      "vis_m": 9999,
      "fzfg": false,
      "metar_trigger": false,
      "taf_trigger": false,
      "metar": "METAR EDDH 261420Z AUTO VRB06KT CAVOK 15/M01 Q1024 BECMG 31009KT",
      "taf": "TAF EDDH 261100Z 2612/2718 VRB03KT CAVOK"
    },
    {
      "icao": "EDDK",
      "alert": "OK",
      "vis_m": 9999,
      "fzfg": false,
      "metar_trigger": false,
      "taf_trigger": false,
      "metar": "METAR EDDK 261420Z AUTO 31007KT 250V010 CAVOK 18/04 Q1023 NOSIG",
      "taf": "TAF EDDK 261100Z 2612/2718 VRB03KT CAVOK"
    },
    {
      "icao": "EDDN",
      "alert": "OK",
      "vis_m": 9999,
      "fzfg": false,
      "metar_trigger": false,
      "taf_trigger": false,
      "metar": "METAR EDDN 261420Z AUTO 01008KT 340V040 CAVOK 16/M01 Q1022 NOSIG",
      "taf": "TAF EDDN 261100Z 2612/2712 35006KT CAVOK"
    },
    {
      "icao": "EDDS",
      "alert": "OK",
      "vis_m": 9999,
      "fzfg": false,
      "metar_trigger": false,
      "taf_trigger": false,
      "metar": "METAR EDDS 261420Z AUTO 01006KT 340V060 CAVOK 19/01 Q1021 NOSIG",
      "taf": "TAF EDDS 261100Z 2612/2712 02006KT CAVOK"
    },
    {
      "icao": "EDFH",
      "alert": "OK",
      "vis_m": 9999,
      "fzfg": false,
      "metar_trigger": false,
      "taf_trigger": false,
      "metar": "METAR EDFH 261420Z VRB04KT CAVOK 17/M00 Q1022",
      "taf": "TAF EDFH 261100Z 2612/2712 04006KT CAVOK"
    },
    {
      "icao": "EDJA",
      "alert": "OK",
      "vis_m": 9999,
      "fzfg": false,
      "metar_trigger": false,
      "taf_trigger": false,
      "metar": "METAR EDJA 261420Z 02008KT CAVOK 17/01 Q1021",
      "taf": "TAF EDJA 261400Z 2615/2624 03006KT CAVOK"
    },
    {
      "icao": "EDLW",
      "alert": "OK",
      "vis_m": 9999,
      "fzfg": false,
      "metar_trigger": false,
      "taf_trigger": false,
      "metar": "METAR EDLW 261420Z VRB02KT CAVOK 15/01 Q1024",
      "taf": "TAF EDLW 261100Z 2612/2712 VRB03KT CAVOK"
    },
    {
      "icao": "EDNY",
      "alert": "OK",
      "vis_m": 9999,
      "fzfg": false,
      "metar_trigger": false,
      "taf_trigger": false,
      "metar": "METAR EDNY 261420Z 01008KT 330V050 CAVOK 20/M02 Q1020",
      "taf": "TAF EDNY 261400Z 2615/2624 02009KT CAVOK"
    },
    {
      "icao": "EDSB",
      "alert": "OK",
      "vis_m": 9999,
      "fzfg": false,
      "metar_trigger": false,
      "taf_trigger": false,
      "metar": "METAR EDSB 261420Z 02010KT 350V050 CAVOK 20/04 Q1021",
      "taf": "TAF EDSB 261100Z 2612/2712 02009KT CAVOK"
    },
    {
      "icao": "EETN",
      "alert": "OK",
      "vis_m": 9999,
      "fzfg": false,
      "metar_trigger": false,
      "taf_trigger": false,
      "metar": "METAR EETN 261420Z 33012KT CAVOK 06/M07 Q1007 NOSIG",
      "taf": "TAF EETN 261130Z 2612/2712 33016G26KT 9999 SCT040"
    },
    {
      "icao": "EFTU",
      "alert": "OK",
      "vis_m": 9999,
      "fzfg": false,
      "metar_trigger": false,
      "taf_trigger": false,
      "metar": "METAR EFTU 261420Z AUTO 33015G27KT 300V010 CAVOK 07/M07 Q1010",
      "taf": "TAF EFTU 261437Z 2615/2715 33013KT CAVOK"
    },
    {
      "icao": "EGBB",
      "alert": "OK",
      "vis_m": 9999,
      "fzfg": false,
      "metar_trigger": false,
      "taf_trigger": false,
      "metar": "METAR EGBB 261420Z 16008KT 140V200 CAVOK 18/03 Q1024",
      "taf": "TAF EGBB 261105Z 2612/2712 14006KT CAVOK"
    },
    {
      "icao": "EGGP",
      "alert": "OK",
      "vis_m": 9999,
      "fzfg": false,
      "metar_trigger": false,
      "taf_trigger": false,
      "metar": "METAR EGGP 261420Z 16006KT 130V200 CAVOK 17/06 Q1023",
      "taf": "TAF EGGP 261057Z 2612/2712 17010KT CAVOK"
    },
    {
      "icao": "EGGW",
      "alert": "OK",
      "vis_m": 9999,
      "fzfg": false,
      "metar_trigger": false,
      "taf_trigger": false,
      "metar": "METAR EGGW 261420Z AUTO 12005KT 050V200 9999 NCD 18/06 Q1024",
      "taf": "TAF EGGW 261057Z 2612/2712 12008KT CAVOK"
    },
    {
      "icao": "EGKK",
      "alert": "OK",
      "vis_m": 9999,
      "fzfg": false,
      "metar_trigger": false,
      "taf_trigger": false,
      "metar": "METAR EGKK 261420Z 05006KT 340V100 CAVOK 19/04 Q1024",
      "taf": "TAF EGKK 261059Z 2612/2718 11006KT CAVOK"
    },
    {
      "icao": "EGNM",
      "alert": "OK",
      "vis_m": 9999,
      "fzfg": false,
      "metar_trigger": false,
      "taf_trigger": false,
      "metar": "METAR EGNM 261420Z 17005KT 130V230 CAVOK 16/07 Q1024",
      "taf": "TAF EGNM 261058Z 2612/2712 15010KT CAVOK"
    },
    {
      "icao": "EGPD",
      "alert": "OK",
      "vis_m": 9999,
      "fzfg": false,
      "metar_trigger": false,
      "taf_trigger": false,
      "metar": "METAR EGPD 261420Z COR AUTO 16013KT 9999 NCD 13/07 Q1022 NOSIG",
      "taf": "TAF EGPD 261058Z 2612/2712 17010KT 9999 FEW020"
    },
    {
      "icao": "EGPF",
      "alert": "OK",
      "vis_m": 9999,
      "fzfg": false,
      "metar_trigger": false,
      "taf_trigger": false,
      "metar": "METAR EGPF 261420Z AUTO 28004KT 210V020 9999 NCD 17/07 Q1023",
      "taf": "TAF EGPF 261103Z 2612/2712 VRB03KT 9999 FEW024"
    },
    {
      "icao": "EHBK",
      "alert": "OK",
      "vis_m": 9999,
      "fzfg": false,
      "metar_trigger": false,
      "taf_trigger": false,
      "metar": "METAR EHBK 261425Z AUTO 07006KT 360V100 9999 NSC 16/03 Q1024 NOSIG",
      "taf": "TAF EHBK 261044Z 2612/2718 04006KT CAVOK"
    },
    {
      "icao": "EHEH",
      "alert": "OK",
      "vis_m": 9999,
      "fzfg": false,
      "metar_trigger": false,
      "taf_trigger": false,
      "metar": "METAR EHEH 261425Z AUTO 06006KT 340V130 9999 OVC330 17/02 Q1024 BLU NOSIG RMK TREND REMOTE BY EHWX",
      "taf": "TAF EHEH 261151Z 2612/2718 05007KT CAVOK"
    },
    {
      "icao": "EKBI",
      "alert": "OK",
      "vis_m": 9999,
      "fzfg": false,
      "metar_trigger": false,
      "taf_trigger": false,
      "metar": "METAR EKBI 261420Z AUTO 26012KT 230V290 9999 FEW053/// 12/M02 Q1024",
      "taf": "TAF EKBI 261427Z 2615/2715 29010KT 9999 FEW045"
    },
    {
      "icao": "EKCH",
      "alert": "OK",
      "vis_m": 9999,
      "fzfg": false,
      "metar_trigger": false,
      "taf_trigger": false,
      "metar": "METAR EKCH 261420Z AUTO 29011KT 260V320 9999 NCD 11/M07 Q1024 NOSIG",
      "taf": "TAF EKCH 261427Z 2615/2715 35010KT CAVOK"
    },
    {
      "icao": "ENAL",
      "alert": "OK",
      "vis_m": 9999,
      "fzfg": false,
      "metar_trigger": false,
      "taf_trigger": false,
      "metar": "METAR ENAL 261420Z VRB03KT 9999 SCT032 05/M02 Q1026",
      "taf": "TAF ENAL 261400Z 2615/2624 VRB04KT 9999 FEW025 SCT040"
    },
    {
      "icao": "ENBR",
      "alert": "OK",
      "vis_m": 9999,
      "fzfg": false,
      "metar_trigger": false,
      "taf_trigger": false,
      "metar": "METAR ENBR 261420Z 31010KT 9999 NSC 07/M03 Q1025 NOSIG RMK WIND 1200FT 33013KT",
      "taf": "TAF ENBR 261100Z 2612/2712 35012KT CAVOK"
    },
    {
      "icao": "ENGM",
      "alert": "OK",
      "vis_m": 9999,
      "fzfg": false,
      "metar_trigger": false,
      "taf_trigger": false,
      "metar": "METAR ENGM 261420Z 04009KT 020V080 CAVOK 10/M10 Q1020 NOSIG",
      "taf": "TAF ENGM 261100Z 2612/2712 36008KT CAVOK"
    },
    {
      "icao": "ENHD",
      "alert": "OK",
      "vis_m": 9999,
      "fzfg": false,
      "metar_trigger": false,
      "taf_trigger": false,
      "metar": "METAR ENHD 261420Z 33014KT CAVOK 07/M03 Q1025",
      "taf": "TAF ENHD 261400Z 2615/2622 33015KT CAVOK"
    },
    {
      "icao": "ENTC",
      "alert": "OK",
      "vis_m": 9999,
      "fzfg": false,
      "metar_trigger": false,
      "taf_trigger": false,
      "metar": "METAR ENTC 261420Z 32012KT 9999 -SN FEW014 SCT037 BKN063 02/M03 Q1014 TEMPO 1000 SHSN VV009 RMK WIND 2600FT 33027KT",
      "taf": "TAF ENTC 261100Z 2612/2712 30008KT 9999 -SHSN FEW012 BKN030"
    },
    {
      "icao": "ENTO",
      "alert": "OK",
      "vis_m": 9999,
      "fzfg": false,
      "metar_trigger": false,
      "taf_trigger": false,
      "metar": "METAR ENTO 261420Z 23013KT 200V260 CAVOK 09/M06 Q1021 NOSIG",
      "taf": "TAF ENTO 261100Z 2612/2712 20012KT CAVOK"
    },
    {
      "icao": "ENVA",
      "alert": "OK",
      "vis_m": 9999,
      "fzfg": false,
      "metar_trigger": false,
      "taf_trigger": false,
      "metar": "METAR ENVA 261420Z 25013KT 9999 VCSH SCT017 BKN030CB 03/01 Q1024 RMK WIND 670FT 27015KT",
      "taf": "TAF ENVA 261100Z 2612/2712 28012KT 9999 FEW020 BKN030"
    },
    {
      "icao": "ENZV",
      "alert": "OK",
      "vis_m": 9999,
      "fzfg": false,
      "metar_trigger": false,
      "taf_trigger": false,
      "metar": "METAR ENZV 261420Z 32017KT CAVOK 08/M02 Q1025 NOSIG",
      "taf": "TAF ENZV 261100Z 2612/2712 35012KT CAVOK"
    },
    {
      "icao": "EPGD",
      "alert": "OK",
      "vis_m": 9999,
      "fzfg": false,
      "metar_trigger": false,
      "taf_trigger": false,
      "metar": "METAR EPGD 261430Z 33017KT CAVOK 08/M11 Q1022",
      "taf": "TAF EPGD 261130Z 2612/2712 32015KT 9999 SCT023"
    },
    {
      "icao": "EPKK",
      "alert": "OK",
      "vis_m": 9999,
      "fzfg": false,
      "metar_trigger": false,
      "taf_trigger": false,
      "metar": "METAR EPKK 261430Z 29017KT 270V350 CAVOK 12/M07 Q1021",
      "taf": "TAF EPKK 261430Z 2615/2715 31012KT CAVOK"
    },
    {
      "icao": "EPKT",
      "alert": "OK",
      "vis_m": 9999,
      "fzfg": false,
      "metar_trigger": false,
      "taf_trigger": false,
      "metar": "METAR EPKT 261430Z 33013KT CAVOK 11/M06 Q1021",
      "taf": "TAF EPKT 261130Z 2612/2712 31014KT CAVOK"
    },
    {
      "icao": "EPLB",
      "alert": "OK",
      "vis_m": 9999,
      "fzfg": false,
      "metar_trigger": false,
      "taf_trigger": false,
      "metar": "METAR EPLB 261430Z 31022G32KT CAVOK 08/M08 Q1018",
      "taf": "TAF EPLB 261130Z 2612/2712 30018G32KT 9999 SCT040"
    },
    {
      "icao": "EPMO",
      "alert": "OK",
      "vis_m": 9999,
      "fzfg": false,
      "metar_trigger": false,
      "taf_trigger": false,
      "metar": "METAR EPMO 261430Z 31017G29KT 270V350 CAVOK 11/M11 Q1019",
      "taf": "TAF EPMO 261130Z 2612/2712 30012KT 9999 SCT025"
    },
    {
      "icao": "EPPO",
      "alert": "OK",
      "vis_m": 9999,
      "fzfg": false,
      "metar_trigger": false,
      "taf_trigger": false,
      "metar": "METAR EPPO 261430Z 34010KT 290V350 CAVOK 13/M10 Q1023",
      "taf": "TAF EPPO 261130Z 2612/2712 32012KT CAVOK"
    },
    {
      "icao": "EPRA",
      "alert": "OK",
      "vis_m": 9999,
      "fzfg": false,
      "metar_trigger": false,
      "taf_trigger": false,
      "metar": "METAR EPRA 261430Z 33017G29KT 310V010 CAVOK 10/M10 Q1019",
      "taf": "TAF EPRA 261430Z 2615/2624 32015KT CAVOK"
    },
    {
      "icao": "EPRZ",
      "alert": "OK",
      "vis_m": 9999,
      "fzfg": false,
      "metar_trigger": false,
      "taf_trigger": false,
      "metar": "METAR EPRZ 261430Z 32017G30KT 9999 FEW024CB 10/M05 Q1019",
      "taf": "TAF EPRZ 261130Z 2612/2712 31014KT 9999 SCT040"
    },
    {
      "icao": "EPSC",
      "alert": "OK",
      "vis_m": 9999,
      "fzfg": false,
      "metar_trigger": false,
      "taf_trigger": false,
      "metar": "METAR EPSC 261430Z 31013KT CAVOK 11/M09 Q1024",
      "taf": "TAF EPSC 261130Z 2612/2712 32010KT CAVOK"
    },
    {
      "icao": "EPSY",
      "alert": "OK",
      "vis_m": 9999,
      "fzfg": false,
      "metar_trigger": false,
      "taf_trigger": false,
      "metar": "METAR EPSY 261430Z 33018G30KT 290V010 CAVOK 06/M07 Q1019",
      "taf": "TAF EPSY 261430Z 2615/2624 33014KT CAVOK"
    },
    {
      "icao": "EPWA",
      "alert": "OK",
      "vis_m": 9999,
      "fzfg": false,
      "metar_trigger": false,
      "taf_trigger": false,
      "metar": "METAR EPWA 261430Z 31021KT CAVOK 11/M13 Q1019 NOSIG",
      "taf": "TAF EPWA 261430Z 2615/2715 30015KT CAVOK"
    },
    {
      "icao": "EPWR",
      "alert": "OK",
      "vis_m": 9999,
      "fzfg": false,
      "metar_trigger": false,
      "taf_trigger": false,
      "metar": "METAR EPWR 261430Z 31015G26KT CAVOK 14/M07 Q1023",
      "taf": "TAF EPWR 261430Z 2615/2715 31015KT CAVOK"
    },
    {
      "icao": "ESGG",
      "alert": "OK",
      "vis_m": 9999,
      "fzfg": false,
      "metar_trigger": false,
      "taf_trigger": false,
      "metar": "METAR ESGG 261420Z 28011KT 240V330 CAVOK 08/M09 Q1023",
      "taf": "TAF ESGG 261430Z 2615/2715 29011KT CAVOK"
    },
    {
      "icao": "ESKN",
      "alert": "OK",
      "vis_m": 9999,
      "fzfg": false,
      "metar_trigger": false,
      "taf_trigger": false,
      "metar": "METAR ESKN 261420Z 29015KT 260V320 CAVOK 11/M08 Q1017",
      "taf": "TAF ESKN 261430Z 2615/2715 31015G25KT CAVOK"
    },
    {
      "icao": "ESMS",
      "alert": "OK",
      "vis_m": 9999,
      "fzfg": false,
      "metar_trigger": false,
      "taf_trigger": false,
      "metar": "METAR ESMS 261420Z 32015KT CAVOK 10/M04 Q1023",
      "taf": "TAF ESMS 261427Z 2615/2715 32012KT CAVOK"
    },
    {
      "icao": "ESSA",
      "alert": "OK",
      "vis_m": 9999,
      "fzfg": false,
      "metar_trigger": false,
      "taf_trigger": false,
      "metar": "METAR ESSA 261420Z 32012G23KT 9999 SCT078TCU BKN098 08/M09 Q1015 NOSIG",
      "taf": "TAF ESSA 261430Z 2615/2715 33014KT 9999 SCT040"
    },
    {
      "icao": "EYKA",
      "alert": "OK",
      "vis_m": 9999,
      "fzfg": false,
      "metar_trigger": false,
      "taf_trigger": false,
      "metar": "METAR EYKA 261420Z 34007KT 250V050 9999 FEW039CB 04/M03 Q1013",
      "taf": "TAF EYKA 261100Z 2612/2712 31015G25KT 9000 BKN025"
    },
    {
      "icao": "EYPA",
      "alert": "OK",
      "vis_m": 9999,
      "fzfg": false,
      "metar_trigger": false,
      "taf_trigger": false,
      "metar": "METAR EYPA 261420Z 33009G19KT 260V020 CAVOK 06/M02 Q1018",
      "taf": "TAF EYPA 261100Z 2612/2712 34015G25KT 9000 SCT030"
    },
    {
      "icao": "EYVI",
      "alert": "OK",
      "vis_m": 9999,
      "fzfg": false,
      "metar_trigger": false,
      "taf_trigger": false,
      "metar": "METAR EYVI 261420Z 31014KT 280V340 9999 FEW026 05/M05 Q1010 WS R01 TEMPO 1500 SHRASN BKN020CB",
      "taf": "TAF EYVI 261101Z 2612/2712 33020G35KT 9000 BKN040"
    },
    {
      "icao": "GCFV",
      "alert": "OK",
      "vis_m": 9999,
      "fzfg": false,
      "metar_trigger": false,
      "taf_trigger": false,
      "metar": "METAR GCFV 261430Z 36013KT 320V040 9999 FEW030 BKN040 24/12 Q1013",
      "taf": "TAF GCFV 261400Z 2615/2715 02014KT 9999 SCT030 TX23/2714Z TN18/2706Z"
    },
    {
      "icao": "GCLP",
      "alert": "OK",
      "vis_m": 9999,
      "fzfg": false,
      "metar_trigger": false,
      "taf_trigger": false,
      "metar": "METAR GCLP 261430Z 03024KT 350V050 9999 FEW035 23/12 Q1014 NOSIG",
      "taf": "TAF GCLP 261400Z 2615/2715 01018KT 9999 SCT030 TX24/2714Z TN17/2706Z"
    },
    {
      "icao": "GCTS",
      "alert": "OK",
      "vis_m": 9999,
      "fzfg": false,
      "metar_trigger": false,
      "taf_trigger": false,
      "metar": "METAR GCTS 261430Z 10016KT 080V140 9999 FEW045 22/12 Q1014 NOSIG",
      "taf": "TAF GCTS 261400Z 2615/2715 10014KT 9999 FEW035 BKN040 TX23/2714Z TN16/2706Z"
    },
    {
      "icao": "GMAD",
      "alert": "OK",
      "vis_m": 8000,
      "fzfg": false,
      "metar_trigger": false,
      "taf_trigger": false,
      "metar": "METAR GMAD 261430Z 26013KT 230V290 8000 NSC 24/14 Q1008 NOSIG",
      "taf": "TAF GMAD 261100Z 2612/2718 28012KT 8000 NSC"
    },
    {
      "icao": "GMMN",
      "alert": "OK",
      "vis_m": 9999,
      "fzfg": false,
      "metar_trigger": false,
      "taf_trigger": false,
      "metar": "METAR GMMN 261430Z 01011KT 330V050 CAVOK 25/17 Q1010 NOSIG",
      "taf": "TAF GMMN 261100Z 2612/2718 01013KT CAVOK"
    },
    {
      "icao": "GMMX",
      "alert": "OK",
      "vis_m": 8000,
      "fzfg": false,
      "metar_trigger": false,
      "taf_trigger": false,
      "metar": "METAR GMMX 261430Z VRB05KT 8000 FEW026 SCT200 29/14 Q1009 NOSIG",
      "taf": "TAF GMMX 261100Z 2612/2718 06006KT 8000 SCT026"
    },
    {
      "icao": "HEGN",
      "alert": "OK",
      "vis_m": 9999,
      "fzfg": false,
      "metar_trigger": false,
      "taf_trigger": false,
      "metar": "METAR HEGN 261400Z 36006KT CAVOK 31/11 Q1009 NOSIG",
      "taf": "TAF HEGN 261100Z 2612/2718 13010KT CAVOK"
    },
    {
      "icao": "HEMA",
      "alert": "OK",
      "vis_m": 9999,
      "fzfg": false,
      "metar_trigger": false,
      "taf_trigger": false,
      "metar": "METAR HEMA 261400Z 12012KT CAVOK 32/03 Q1008 NOSIG",
      "taf": "TAF HEMA 261100Z 2612/2718 15010KT CAVOK"
    },
    {
      "icao": "HESH",
      "alert": "OK",
      "vis_m": 9999,
      "fzfg": false,
      "metar_trigger": false,
      "taf_trigger": false,
      "metar": "METAR HESH 261400Z 12013KT CAVOK 30/07 Q1009 NOSIG",
      "taf": "TAF HESH 261100Z 2612/2718 19010KT CAVOK"
    },
    {
      "icao": "HESX",
      "alert": "OK",
      "vis_m": 9999,
      "fzfg": false,
      "metar_trigger": false,
      "taf_trigger": false,
      "metar": "METAR HESX 261400Z 24013KT CAVOK 26/04 Q1011 NOSIG",
      "taf": ""
    },
    {
      "icao": "LATI",
      "alert": "OK",
      "vis_m": null,
      "fzfg": false,
      "metar_trigger": false,
      "taf_trigger": false,
      "metar": "",
      "taf": "TAF LATI 261100Z 2612/2712 32012KT CAVOK TX28/2712Z TN08/2704Z"
    },
    {
      "icao": "LBPD",
      "alert": "OK",
      "vis_m": 9999,
      "fzfg": false,
      "metar_trigger": false,
      "taf_trigger": false,
      "metar": "METAR LBPD 261430Z AUTO 28010KT 250V310 9999 NCD 27/03 Q1011 NOSIG",
      "taf": "TAF LBPD 261100Z 2612/2712 29015KT CAVOK"
    },
    {
      "icao": "LBSF",
      "alert": "OK",
      "vis_m": 9999,
      "fzfg": false,
      "metar_trigger": false,
      "taf_trigger": false,
      "metar": "METAR LBSF 261430Z 30014KT 270V330 CAVOK 23/02 Q1014 NOSIG",
      "taf": "TAF LBSF 261100Z 2612/2712 31014KT CAVOK"
    },
    {
      "icao": "LBWN",
      "alert": "OK",
      "vis_m": 9999,
      "fzfg": false,
      "metar_trigger": false,
      "taf_trigger": false,
      "metar": "METAR LBWN 261430Z AUTO 28019KT 9999 NCD 25/05 Q1008 NOSIG",
      "taf": "TAF LBWN 261100Z 2612/2712 27016KT 9999 SCT045"
    },
    {
      "icao": "LCLK",
      "alert": "OK",
      "vis_m": 9999,
      "fzfg": false,
      "metar_trigger": false,
      "taf_trigger": false,
      "metar": "METAR LCLK 261430Z 09006KT 9999 FEW030 24/18 Q1009 NOSIG",
      "taf": "TAF LCLK 261130Z 2612/2712 07013KT 9999 FEW030"
    },
    {
      "icao": "LCPH",
      "alert": "OK",
      "vis_m": 9999,
      "fzfg": false,
      "metar_trigger": false,
      "taf_trigger": false,
      "metar": "METAR LCPH 261430Z 31009KT 9999 FEW030 21/18 Q1010 NOSIG",
      "taf": "TAF LCPH 261130Z 2612/2712 26010KT 9999 FEW020"
    },
    {
      "icao": "LEAL",
      "alert": "OK",
      "vis_m": 9999,
      "fzfg": false,
      "metar_trigger": false,
      "taf_trigger": false,
      "metar": "METAR LEAL 261430Z 09009KT 040V140 CAVOK 20/12 Q1019 NOSIG",
      "taf": "TAF LEAL 261100Z 2612/2712 08010KT 9999 FEW020 TX21/2612Z TN10/2706Z"
    },
    {
      "icao": "LEBB",
      "alert": "OK",
      "vis_m": 9999,
      "fzfg": false,
      "metar_trigger": false,
      "taf_trigger": false,
      "metar": "METAR LEBB 261430Z 28011KT 240V310 CAVOK 20/14 Q1019 NOSIG",
      "taf": "TAF LEBB 261100Z 2612/2712 VRB03KT 9999 FEW030 TX21/2612Z TN13/2706Z"
    },
    {
      "icao": "LEBL",
      "alert": "OK",
      "vis_m": 9999,
      "fzfg": false,
      "metar_trigger": false,
      "taf_trigger": false,
      "metar": "METAR LEBL 261430Z 20008KT 170V230 9999 FEW020 21/15 Q1018 NOSIG",
      "taf": "TAF LEBL 261100Z 2612/2712 22005KT 9999 FEW020 TX22/2612Z TN14/2705Z"
    },
    {
      "icao": "LECH",
      "alert": "OK",
      "vis_m": 9999,
      "fzfg": false,
      "metar_trigger": false,
      "taf_trigger": false,
      "metar": "METAR LECH 261430Z AUTO 10008KT 070V160 CAVOK 21/06 Q1019",
      "taf": "TAF LECH 261100Z 2612/2712 VRB03KT CAVOK TX25/2613Z TN10/2706Z"
    },
    {
      "icao": "LEMD",
      "alert": "OK",
      "vis_m": 9999,
      "fzfg": false,
      "metar_trigger": false,
      "taf_trigger": false,
      "metar": "METAR LEMD 261430Z 20007KT 150V300 9999 FEW075 25/08 Q1017 NOSIG",
      "taf": "TAF LEMD 261100Z 2612/2718 VRB04KT CAVOK TX28/2715Z TN11/2706Z"
    },
    {
      "icao": "LEMG",
      "alert": "OK",
      "vis_m": 9999,
      "fzfg": false,
      "metar_trigger": false,
      "taf_trigger": false,
      "metar": "METAR LEMG 261430Z 12011KT 9999 SCT020 19/13 Q1017 NOSIG",
      "taf": "TAF LEMG 261100Z 2612/2712 11010KT 9999 FEW020 BKN050 TX20/2615Z TN14/2706Z"
    },
    {
      "icao": "LEVC",
      "alert": "OK",
      "vis_m": 9999,
      "fzfg": false,
      "metar_trigger": false,
      "taf_trigger": false,
      "metar": "METAR LEVC 261430Z 11009KT 060V160 CAVOK 23/09 Q1018 NOSIG",
      "taf": "TAF LEVC 261100Z 2612/2712 11012KT CAVOK TX24/2612Z TN10/2706Z"
    },
    {
      "icao": "LEXJ",
      "alert": "OK",
      "vis_m": 9999,
      "fzfg": false,
      "metar_trigger": false,
      "taf_trigger": false,
      "metar": "METAR LEXJ 261430Z 05006KT 350V140 9999 BKN022 16/12 Q1020",
      "taf": "TAF LEXJ 261400Z 2615/2715 VRB03KT 9999 SCT025 TX16/2713Z TN13/2707Z"
    },
    {
      "icao": "LEZG",
      "alert": "OK",
      "vis_m": 9999,
      "fzfg": false,
      "metar_trigger": false,
      "taf_trigger": false,
      "metar": "METAR LEZG 261430Z 26002KT 9999 FEW050 27/08 Q1016 NOSIG",
      "taf": "TAF LEZG 261100Z 2612/2712 VRB04KT CAVOK TX28/2615Z TN14/2706Z"
    },
    {
      "icao": "LEZL",
      "alert": "OK",
      "vis_m": 9999,
      "fzfg": false,
      "metar_trigger": false,
      "taf_trigger": false,
      "metar": "METAR LEZL 261430Z 11013KT 080V140 CAVOK 27/12 Q1014 WS ALL RWY NOSIG",
      "taf": "TAF LEZL 261400Z 2615/2715 11010KT 9999 FEW040 TX27/2615Z TN16/2706Z"
    },
    {
      "icao": "LFBD",
      "alert": "OK",
      "vis_m": 9999,
      "fzfg": false,
      "metar_trigger": false,
      "taf_trigger": false,
      "metar": "METAR LFBD 261430Z AUTO VRB05KT 9999 SCT038 24/12 Q1019 NOSIG",
      "taf": "TAF LFBD 261100Z 2612/2718 VRB03KT 9999 BKN025 TX24/2714Z TN14/2706Z"
    },
    {
      "icao": "LFLL",
      "alert": "OK",
      "vis_m": 9999,
      "fzfg": false,
      "metar_trigger": false,
      "taf_trigger": false,
      "metar": "METAR LFLL 261430Z 35009KT 320V020 CAVOK 23/02 Q1018 NOSIG",
      "taf": "TAF LFLL 261100Z 2612/2718 35008KT CAVOK"
    },
    {
      "icao": "LFLS",
      "alert": "OK",
      "vis_m": 9999,
      "fzfg": false,
      "metar_trigger": false,
      "taf_trigger": false,
      "metar": "METAR LFLS 261430Z AUTO 34007KT 300V010 CAVOK 22/05 Q1018 NOSIG",
      "taf": "TAF LFLS 261400Z 2615/2715 36007KT CAVOK"
    },
    {
      "icao": "LFMN",
      "alert": "OK",
      "vis_m": 9999,
      "fzfg": false,
      "metar_trigger": false,
      "taf_trigger": false,
      "metar": "METAR LFMN 261430Z VRB03KT 9999 OVC028 18/13 Q1019 NOSIG",
      "taf": "TAF LFMN 261400Z 2615/2721 14003KT 9999 BKN025"
    },
    {
      "icao": "LFOB",
      "alert": "OK",
      "vis_m": 9999,
      "fzfg": false,
      "metar_trigger": false,
      "taf_trigger": false,
      "metar": "METAR LFOB 261430Z AUTO 08006KT 010V130 CAVOK 21/02 Q1022 NOSIG",
      "taf": "TAF LFOB 261100Z 2612/2712 05006KT CAVOK"
    },
    {
      "icao": "LFPO",
      "alert": "OK",
      "vis_m": 9999,
      "fzfg": false,
      "metar_trigger": false,
      "taf_trigger": false,
      "metar": "METAR LFPO 261430Z 06004KT 010V090 CAVOK 22/00 Q1021 NOSIG",
      "taf": "TAF LFPO 261100Z 2612/2718 04007KT CAVOK"
    },
    {
      "icao": "LFSB",
      "alert": "OK",
      "vis_m": 9999,
      "fzfg": false,
      "metar_trigger": false,
      "taf_trigger": false,
      "metar": "METAR LFSB 261430Z AUTO 35007KT 320V040 CAVOK 22/05 Q1019 NOSIG",
      "taf": "TAF LFSB 261100Z 2612/2712 01005KT CAVOK"
    },
    {
      "icao": "LGAV",
      "alert": "OK",
      "vis_m": 9999,
      "fzfg": false,
      "metar_trigger": false,
      "taf_trigger": false,
      "metar": "METAR LGAV 261420Z 08006KT 050V110 CAVOK 24/03 Q1014 NOSIG",
      "taf": "TAF LGAV 261100Z 2612/2712 VRB03KT 9999 FEW030"
    },
    {
      "icao": "LGTS",
      "alert": "OK",
      "vis_m": 9999,
      "fzfg": false,
      "metar_trigger": false,
      "taf_trigger": false,
      "metar": "METAR LGTS 261420Z 22008KT 9999 FEW030 25/09 Q1012 NOSIG",
      "taf": "TAF LGTS 261100Z 2612/2712 VRB03KT 9999 FEW035"
    },
    {
      "icao": "LHBP",
      "alert": "OK",
      "vis_m": 9999,
      "fzfg": false,
      "metar_trigger": false,
      "taf_trigger": false,
      "metar": "METAR LHBP 261430Z 33014G25KT 300V360 CAVOK 17/M03 Q1019 NOSIG",
      "taf": "TAF LHBP 261115Z 2612/2712 33015G27KT CAVOK"
    },
    {
      "icao": "LHDC",
      "alert": "OK",
      "vis_m": 9999,
      "fzfg": false,
      "metar_trigger": false,
      "taf_trigger": false,
      "metar": "METAR LHDC 261415Z AUTO 04015KT 360V070 CAVOK 16/M05 Q1018 NOSIG",
      "taf": "TAF LHDC 261415Z 2615/2624 02014G24KT CAVOK"
    },
    {
      "icao": "LIBD",
      "alert": "OK",
      "vis_m": 9999,
      "fzfg": false,
      "metar_trigger": false,
      "taf_trigger": false,
      "metar": "METAR LIBD 261420Z 01006KT 340V040 CAVOK 22/04 Q1017",
      "taf": "TAF LIBD 261100Z 2612/2712 34012KT CAVOK"
    },
    {
      "icao": "LIBG",
      "alert": "OK",
      "vis_m": 9999,
      "fzfg": false,
      "metar_trigger": false,
      "taf_trigger": false,
      "metar": "METAR LIBG 261350Z 22008KT CAVOK 26/07 Q1016",
      "taf": "TAF LIBG 261400Z 2615/2624 VRB05KT CAVOK"
    },
    {
      "icao": "LIBP",
      "alert": "OK",
      "vis_m": 9999,
      "fzfg": false,
      "metar_trigger": false,
      "taf_trigger": false,
      "metar": "METAR LIBP 261420Z AUTO 04006KT 9999 NCD 22/07 Q1017",
      "taf": "TAF LIBP 261100Z 2612/2712 06010KT CAVOK"
    },
    {
      "icao": "LIBR",
      "alert": "OK",
      "vis_m": 9999,
      "fzfg": false,
      "metar_trigger": false,
      "taf_trigger": false,
      "metar": "METAR LIBR 261420Z 34009KT 310V010 CAVOK 20/11 Q1016",
      "taf": "TAF LIBR 261100Z 2612/2712 33012KT CAVOK"
    },
    {
      "icao": "LICA",
      "alert": "OK",
      "vis_m": 9999,
      "fzfg": false,
      "metar_trigger": false,
      "taf_trigger": false,
      "metar": "METAR LICA 261420Z AUTO 25012KT 220V280 9999 NCD 19/14 Q1019",
      "taf": "TAF LICA 261100Z 2612/2712 27012KT 9999 FEW040"
    },
    {
      "icao": "LICC",
      "alert": "OK",
      "vis_m": 9999,
      "fzfg": false,
      "metar_trigger": false,
      "taf_trigger": false,
      "metar": "METAR LICC 261420Z 08010KT CAVOK 20/15 Q1017",
      "taf": ""
    },
    {
      "icao": "LICJ",
      "alert": "OK",
      "vis_m": 9999,
      "fzfg": false,
      "metar_trigger": false,
      "taf_trigger": false,
      "metar": "METAR LICJ 261420Z 05017KT CAVOK 20/10 Q1018",
      "taf": ""
    },
    {
      "icao": "LIMC",
      "alert": "OK",
      "vis_m": 9999,
      "fzfg": false,
      "metar_trigger": false,
      "taf_trigger": false,
      "metar": "METAR LIMC 261420Z 11005KT 070V140 CAVOK 25/07 Q1016 NOSIG",
      "taf": "TAF LIMC 261100Z 2612/2718 VRB05KT CAVOK"
    },
    {
      "icao": "LIME",
      "alert": "OK",
      "vis_m": 9999,
      "fzfg": false,
      "metar_trigger": false,
      "taf_trigger": false,
      "metar": "METAR LIME 261420Z VRB05KT CAVOK 25/08 Q1016 NOSIG",
      "taf": "TAF LIME 261100Z 2612/2712 19010KT CAVOK"
    },
    {
      "icao": "LIMF",
      "alert": "OK",
      "vis_m": 9999,
      "fzfg": false,
      "metar_trigger": false,
      "taf_trigger": false,
      "metar": "METAR LIMF 261420Z 06003KT 010V130 CAVOK 25/10 Q1016",
      "taf": "TAF LIMF 261100Z 2612/2712 VRB05KT CAVOK"
    },
    {
      "icao": "LIMJ",
      "alert": "OK",
      "vis_m": 9999,
      "fzfg": false,
      "metar_trigger": false,
      "taf_trigger": false,
      "metar": "METAR LIMJ 261420Z 20003KT 9999 SCT020 BKN032 17/13 Q1019",
      "taf": "TAF LIMJ 261100Z 2612/2712 20010KT 9999 FEW015 BKN025"
    },
    {
      "icao": "LIPE",
      "alert": "OK",
      "vis_m": 9999,
      "fzfg": false,
      "metar_trigger": false,
      "taf_trigger": false,
      "metar": "METAR LIPE 261420Z VRB05KT CAVOK 25/10 Q1016",
      "taf": "TAF LIPE 261100Z 2612/2712 VRB05KT CAVOK"
    },
    {
      "icao": "LIPH",
      "alert": "OK",
      "vis_m": 9999,
      "fzfg": false,
      "metar_trigger": false,
      "taf_trigger": false,
      "metar": "METAR LIPH 261420Z 14005KT 100V210 CAVOK 25/08 Q1016",
      "taf": "TAF LIPH 261100Z 2612/2712 VRB05KT CAVOK"
    },
    {
      "icao": "LIPQ",
      "alert": "OK",
      "vis_m": 9999,
      "fzfg": false,
      "metar_trigger": false,
      "taf_trigger": false,
      "metar": "METAR LIPQ 261420Z AUTO 21007KT 170V240 9999 NCD 24/08 Q1016",
      "taf": "TAF LIPQ 261100Z 2612/2712 22010KT CAVOK"
    },
    {
      "icao": "LIPR",
      "alert": "OK",
      "vis_m": 9999,
      "fzfg": false,
      "metar_trigger": false,
      "taf_trigger": false,
      "metar": "METAR LIPR 261420Z 08006KT 040V110 CAVOK 20/13 Q1017",
      "taf": "TAF LIPR 261100Z 2612/2712 08010KT CAVOK"
    },
    {
      "icao": "LIPX",
      "alert": "OK",
      "vis_m": 9999,
      "fzfg": false,
      "metar_trigger": false,
      "taf_trigger": false,
      "metar": "METAR LIPX 261420Z 12006KT 070V200 CAVOK 26/10 Q1016",
      "taf": "TAF LIPX 261100Z 2612/2712 VRB05KT CAVOK"
    },
    {
      "icao": "LIPY",
      "alert": "OK",
      "vis_m": 9999,
      "fzfg": false,
      "metar_trigger": false,
      "taf_trigger": false,
      "metar": "METAR LIPY 261420Z AUTO 05008KT 9999 NCD 21/11 Q1017",
      "taf": "TAF LIPY 261100Z 2612/2712 05010KT CAVOK"
    },
    {
      "icao": "LIPZ",
      "alert": "OK",
      "vis_m": 9999,
      "fzfg": false,
      "metar_trigger": false,
      "taf_trigger": false,
      "metar": "METAR LIPZ 261420Z 15005KT 120V180 CAVOK 21/13 Q1017 NOSIG",
      "taf": "TAF LIPZ 261100Z 2612/2718 VRB05KT CAVOK"
    },
    {
      "icao": "LIRF",
      "alert": "OK",
      "vis_m": 9999,
      "fzfg": false,
      "metar_trigger": false,
      "taf_trigger": false,
      "metar": "METAR LIRF 261420Z AUTO 27009KT 240V300 9999 NCD 20/13 Q1018",
      "taf": "TAF LIRF 261100Z 2612/2718 27012KT CAVOK"
    },
    {
      "icao": "LIRN",
      "alert": "OK",
      "vis_m": 9999,
      "fzfg": false,
      "metar_trigger": false,
      "taf_trigger": false,
      "metar": "METAR LIRN 261420Z AUTO 19008KT 150V230 9999 NCD 20/14 Q1018",
      "taf": "TAF LIRN 261100Z 2612/2712 20010KT CAVOK"
    },
    {
      "icao": "LIRP",
      "alert": "OK",
      "vis_m": 9999,
      "fzfg": false,
      "metar_trigger": false,
      "taf_trigger": false,
      "metar": "METAR LIRP 261415Z 28009KT CAVOK 20/08 Q1019 NOSIG",
      "taf": "TAF LIRP 261100Z 2612/2712 27010KT 9999 FEW020"
    },
    {
      "icao": "LIRZ",
      "alert": "OK",
      "vis_m": 9999,
      "fzfg": false,
      "metar_trigger": false,
      "taf_trigger": false,
      "metar": "METAR LIRZ 261420Z AUTO 25007KT 190V300 9999 NCD 24/06 Q1017",
      "taf": "TAF LIRZ 261100Z 2612/2712 VRB05KT CAVOK"
    },
    {
      "icao": "LJLJ",
      "alert": "OK",
      "vis_m": 9999,
      "fzfg": false,
      "metar_trigger": false,
      "taf_trigger": false,
      "metar": "METAR LJLJ 261430Z 13005KT 080V170 9999 FEW070 25/M00 Q1016 NOSIG",
      "taf": "TAF LJLJ 261100Z 2612/2712 12006KT 9999 FEW060"
    },
    {
      "icao": "LKMT",
      "alert": "OK",
      "vis_m": 9999,
      "fzfg": false,
      "metar_trigger": false,
      "taf_trigger": false,
      "metar": "METAR LKMT 261430Z 34011KT 310V020 CAVOK 12/M02 Q1022 NOSIG",
      "taf": "TAF LKMT 261100Z 2612/2712 35014KT CAVOK"
    },
    {
      "icao": "LKPR",
      "alert": "OK",
      "vis_m": 9999,
      "fzfg": false,
      "metar_trigger": false,
      "taf_trigger": false,
      "metar": "METAR LKPR 261430Z 36006KT 290V050 CAVOK 13/M05 Q1023 NOSIG",
      "taf": "TAF LKPR 261400Z 2615/2721 02010KT CAVOK"
    },
    {
      "icao": "LLBG",
      "alert": "OK",
      "vis_m": 9999,
      "fzfg": false,
      "metar_trigger": false,
      "taf_trigger": false,
      "metar": "METAR LLBG 261420Z 26013KT 9999 SCT018 22/16 Q1012 BECMG BKN015",
      "taf": "TAF LLBG 261101Z 2612/2712 27010KT CAVOK TX27/2612Z TN16/2703Z"
    },
    {
      "icao": "LMML",
      "alert": "OK",
      "vis_m": 9999,
      "fzfg": false,
      "metar_trigger": false,
      "taf_trigger": false,
      "metar": "METAR LMML 261445Z 21008KT 170V260 CAVOK 22/07 Q1019 NOSIG",
      "taf": "TAF LMML 261100Z 2612/2712 28006KT CAVOK"
    },
    {
      "icao": "LOWW",
      "alert": "OK",
      "vis_m": 9999,
      "fzfg": false,
      "metar_trigger": false,
      "taf_trigger": false,
      "metar": "METAR LOWW 261420Z 36014KT CAVOK 16/M02 Q1021 NOSIG",
      "taf": "TAF LOWW 261415Z 2615/2721 34013KT CAVOK TX19/2714Z TN05/2704Z"
    },
    {
      "icao": "LPFR",
      "alert": "OK",
      "vis_m": 9999,
      "fzfg": false,
      "metar_trigger": false,
      "taf_trigger": false,
      "metar": "METAR LPFR 261430Z 23008KT 190V260 9999 FEW025 21/16 Q1015",
      "taf": "TAF LPFR 261100Z 2612/2712 12010KT 9999 FEW030"
    },
    {
      "icao": "LPMA",
      "alert": "OK",
      "vis_m": 9999,
      "fzfg": false,
      "metar_trigger": false,
      "taf_trigger": false,
      "metar": "METAR LPMA 261430Z 01012KT 320V040 9999 FEW016 20/11 Q1018",
      "taf": "TAF LPMA 261100Z 2612/2712 01013KT 9999 SCT015"
    },
    {
      "icao": "LPPR",
      "alert": "OK",
      "vis_m": 9999,
      "fzfg": false,
      "metar_trigger": false,
      "taf_trigger": false,
      "metar": "METAR LPPR 261430Z 32008KT 9999 FEW023 20/15 Q1017",
      "taf": "TAF LPPR 261100Z 2612/2712 26005KT 9999 SCT004"
    },
    {
      "icao": "LPPS",
      "alert": "OK",
      "vis_m": 9999,
      "fzfg": false,
      "metar_trigger": false,
      "taf_trigger": false,
      "metar": "METAR LPPS 261430Z 02012KT 9999 SCT015 SCT030 19/13 Q1018",
      "taf": "TAF LPPS 261100Z 2612/2718 02012KT 9999 SCT015"
    },
    {
      "icao": "LPPT",
      "alert": "OK",
      "vis_m": 9999,
      "fzfg": false,
      "metar_trigger": false,
      "taf_trigger": false,
      "metar": "METAR LPPT 261430Z VRB09G19KT 9999 FEW045 FEW048TCU 27/12 Q1015",
      "taf": "TAF LPPT 261100Z 2612/2718 06005KT 9999 FEW030"
    },
    {
      "icao": "LQBK",
      "alert": "OK",
      "vis_m": 9999,
      "fzfg": false,
      "metar_trigger": false,
      "taf_trigger": false,
      "metar": "METAR LQBK 261430Z 25003KT 170V320 CAVOK 24/04 Q1017 NOSIG",
      "taf": "TAF LQBK 261100Z 2612/2712 35005KT CAVOK TX25/2613Z TN06/2704Z"
    },
    {
      "icao": "LQSA",
      "alert": "OK",
      "vis_m": 9999,
      "fzfg": false,
      "metar_trigger": false,
      "taf_trigger": false,
      "metar": "METAR LQSA 261430Z 34009KT 290V020 CAVOK 23/02 Q1016 NOSIG",
      "taf": "TAF LQSA 261100Z 2612/2712 32005KT CAVOK TX24/2614Z TN02/2704Z"
    },
    {
      "icao": "LQTZ",
      "alert": "OK",
      "vis_m": 9999,
      "fzfg": false,
      "metar_trigger": false,
      "taf_trigger": false,
      "metar": "METAR LQTZ 261430Z 03007KT 330V070 CAVOK 23/02 Q1018",
      "taf": "TAF LQTZ 261100Z 2612/2712 10005KT CAVOK TX23/2613Z TN02/2704Z"
    },
    {
      "icao": "LRBC",
      "alert": "OK",
      "vis_m": 9999,
      "fzfg": false,
      "metar_trigger": false,
      "taf_trigger": false,
      "metar": "METAR LRBC 261430Z 36015KT 340V040 CAVOK 14/M04 Q1013",
      "taf": "TAF LRBC 261400Z 2615/2624 36016KT CAVOK"
    },
    {
      "icao": "LRBS",
      "alert": "OK",
      "vis_m": 9999,
      "fzfg": false,
      "metar_trigger": false,
      "taf_trigger": false,
      "metar": "METAR LRBS 261430Z 26017G27KT 240V310 CAVOK 27/03 Q1008 BECMG 04018KT",
      "taf": "TAF LRBS 261100Z 2612/2712 26016KT CAVOK"
    },
    {
      "icao": "LRBV",
      "alert": "OK",
      "vis_m": 9999,
      "fzfg": false,
      "metar_trigger": false,
      "taf_trigger": false,
      "metar": "METAR LRBV 261430Z 31013KT 270V330 9999 FEW063 16/03 Q1012",
      "taf": "TAF LRBV 261400Z 2615/2624 30014KT CAVOK"
    },
    {
      "icao": "LRCL",
      "alert": "OK",
      "vis_m": 9999,
      "fzfg": false,
      "metar_trigger": false,
      "taf_trigger": false,
      "metar": "METAR LRCL 261430Z 30018KT CAVOK 14/M05 Q1016",
      "taf": "TAF LRCL 261400Z 2615/2624 33016KT CAVOK"
    },
    {
      "icao": "LRCV",
      "alert": "OK",
      "vis_m": 9999,
      "fzfg": false,
      "metar_trigger": false,
      "taf_trigger": false,
      "metar": "METAR LRCV 261430Z 29022KT CAVOK 24/02 Q1011",
      "taf": "TAF LRCV 261400Z 2615/2624 30020KT CAVOK"
    },
    {
      "icao": "LRIA",
      "alert": "OK",
      "vis_m": 9999,
      "fzfg": false,
      "metar_trigger": false,
      "taf_trigger": false,
      "metar": "METAR LRIA 261430Z 33023KT CAVOK 12/M07 Q1013",
      "taf": "TAF LRIA 261400Z 2615/2624 33020G30KT CAVOK"
    },
    {
      "icao": "LROP",
      "alert": "OK",
      "vis_m": 9999,
      "fzfg": false,
      "metar_trigger": false,
      "taf_trigger": false,
      "metar": "METAR LROP 261430Z 25018KT CAVOK 27/03 Q1008 BECMG 04018KT",
      "taf": "TAF LROP 261100Z 2612/2712 26016KT CAVOK"
    },
    {
      "icao": "LRSB",
      "alert": "OK",
      "vis_m": 9999,
      "fzfg": false,
      "metar_trigger": false,
      "taf_trigger": false,
      "metar": "METAR LRSB 261430Z 36014KT CAVOK 17/00 Q1014",
      "taf": "TAF LRSB 261100Z 2612/2712 30020KT CAVOK"
    },
    {
      "icao": "LRSM",
      "alert": "OK",
      "vis_m": 9999,
      "fzfg": false,
      "metar_trigger": false,
      "taf_trigger": false,
      "metar": "METAR LRSM 261430Z AUTO 35021KT 9999 NCD 15/M06 Q1018",
      "taf": ""
    },
    {
      "icao": "LRSV",
      "alert": "OK",
      "vis_m": 9999,
      "fzfg": false,
      "metar_trigger": false,
      "taf_trigger": false,
      "metar": "METAR LRSV 261430Z 33025G35KT CAVOK 10/M06 Q1013",
      "taf": "TAF LRSV 261400Z 2615/2624 32025G35KT CAVOK"
    },
    {
      "icao": "LRTM",
      "alert": "OK",
      "vis_m": 9999,
      "fzfg": false,
      "metar_trigger": false,
      "taf_trigger": false,
      "metar": "METAR LRTM 261430Z 31019G29KT 260V340 CAVOK 16/M02 Q1014",
      "taf": "TAF LRTM 261400Z 2615/2624 30018KT CAVOK"
    },
    {
      "icao": "LRTR",
      "alert": "OK",
      "vis_m": 9999,
      "fzfg": false,
      "metar_trigger": false,
      "taf_trigger": false,
      "metar": "METAR LRTR 261430Z 31016KT CAVOK 20/M00 Q1016",
      "taf": "TAF LRTR 261100Z 2612/2712 32016KT CAVOK"
    },
    {
      "icao": "LTAC",
      "alert": "OK",
      "vis_m": 9999,
      "fzfg": false,
      "metar_trigger": false,
      "taf_trigger": false,
      "metar": "METAR LTAC 261420Z 27009KT 230V300 9999 FEW040 SCT100 20/06 Q1013 NOSIG RMK RWY21C 25008KT 220V280 RWY03L 26009KT 210V290 RWY21R 26008KT 220V320 RWY03R 23010KT RWY21L 24007KT 200V280",
      "taf": "TAF LTAC 261040Z 2612/2712 VRB02KT 9999 FEW040 SCT100"
    },
    {
      "icao": "LTFM",
      "alert": "OK",
      "vis_m": 9999,
      "fzfg": false,
      "metar_trigger": false,
      "taf_trigger": false,
      "metar": "METAR LTFM 261420Z 22014KT CAVOK 23/05 Q1011 NOSIG RMK RWY17L 22014KT 130V230 RWY34L 22012KT RWY16R 22013KT RWY36 22014KT RWY18 23015KT",
      "taf": "TAF LTFM 261040Z 2612/2718 22012KT CAVOK"
    },
    {
      "icao": "LUKK",
      "alert": "OK",
      "vis_m": 9999,
      "fzfg": false,
      "metar_trigger": false,
      "taf_trigger": false,
      "metar": "METAR LUKK 261430Z 35024G39KT CAVOK 12/M07 Q1012 NOSIG",
      "taf": "TAF LUKK 261100Z 2612/2712 32020G30KT CAVOK"
    },
    {
      "icao": "LWOH",
      "alert": "OK",
      "vis_m": 9999,
      "fzfg": false,
      "metar_trigger": false,
      "taf_trigger": false,
      "metar": "METAR LWOH 261420Z 14007KT 9999 FEW045 20/08 Q1015",
      "taf": "TAF LWOH 261430Z 2615/2715 15010KT 9999 FEW045"
    },
    {
      "icao": "LWSK",
      "alert": "OK",
      "vis_m": null,
      "fzfg": false,
      "metar_trigger": false,
      "taf_trigger": false,
      "metar": "",
      "taf": "TAF LWSK 261430Z 2615/2715 01010KT CAVOK"
    },
    {
      "icao": "LYBE",
      "alert": "OK",
      "vis_m": 9999,
      "fzfg": false,
      "metar_trigger": false,
      "taf_trigger": false,
      "metar": "METAR LYBE 261430Z 34017KT CAVOK 22/M01 Q1018 NOSIG",
      "taf": "TAF LYBE 261100Z 2612/2712 33015KT CAVOK TX24/2613Z TN05/2704Z"
    },
    {
      "icao": "LYNI",
      "alert": "OK",
      "vis_m": 9999,
      "fzfg": false,
      "metar_trigger": false,
      "taf_trigger": false,
      "metar": "METAR LYNI 261430Z 33015KT 290V360 CAVOK 24/M02 Q1015 NOSIG",
      "taf": "TAF LYNI 261100Z 2612/2712 33016KT CAVOK TX24/2613Z TN04/2704Z"
    },
    {
      "icao": "LYPG",
      "alert": "OK",
      "vis_m": 9999,
      "fzfg": false,
      "metar_trigger": false,
      "taf_trigger": false,
      "metar": "METAR LYPG 261430Z 14007KT CAVOK 25/12 Q1014 NOSIG",
      "taf": "TAF LYPG 261100Z 2612/2712 16006KT CAVOK TX24/2613Z TN11/2706Z"
    },
    {
      "icao": "LZIB",
      "alert": "OK",
      "vis_m": 9999,
      "fzfg": false,
      "metar_trigger": false,
      "taf_trigger": false,
      "metar": "METAR LZIB 261430Z 34016KT 310V010 CAVOK 16/M03 Q1021 NOSIG",
      "taf": "TAF LZIB 261115Z 2612/2712 33018KT CAVOK"
    },
    {
      "icao": "LZKZ",
      "alert": "OK",
      "vis_m": 9999,
      "fzfg": false,
      "metar_trigger": false,
      "taf_trigger": false,
      "metar": "METAR LZKZ 261430Z 34016KT 300V010 CAVOK 14/M06 Q1019 NOSIG",
      "taf": "TAF LZKZ 261115Z 2612/2712 01020KT CAVOK"
    },
    {
      "icao": "LZTT",
      "alert": "OK",
      "vis_m": 9999,
      "fzfg": false,
      "metar_trigger": false,
      "taf_trigger": false,
      "metar": "METAR LZTT 261430Z 34012KT 9999 SCT060 10/M06 Q1019 NOSIG",
      "taf": "TAF LZTT 261115Z 2612/2712 33015KT 9999 FEW050"
    },
    {
      "icao": "OEJN",
      "alert": "OK",
      "vis_m": 9999,
      "fzfg": false,
      "metar_trigger": false,
      "taf_trigger": false,
      "metar": "METAR OEJN 261400Z 30006KT 9999 SCT040 30/19 Q1008 NOSIG",
      "taf": "TAF OEJN 261100Z 2612/2718 32010KT 9999 SCT040"
    },
    {
      "icao": "OEMA",
      "alert": "OK",
      "vis_m": 9999,
      "fzfg": false,
      "metar_trigger": false,
      "taf_trigger": false,
      "metar": "METAR OEMA 261400Z 22010KT CAVOK 37/M06 Q1011 NOSIG",
      "taf": "TAF OEMA 261100Z 2612/2718 33010KT 9999 SCT045"
    },
    {
      "icao": "OJAI",
      "alert": "OK",
      "vis_m": 5000,
      "fzfg": false,
      "metar_trigger": false,
      "taf_trigger": false,
      "metar": "METAR OJAI 261400Z 28011KT 5000 HZ SCT030 28/03 Q1012 NOSIG",
      "taf": "TAF OJAI 261100Z 2612/2718 28012KT 5000 HZ FEW030"
    },
    {
      "icao": "OMAA",
      "alert": "OK",
      "vis_m": 9999,
      "fzfg": false,
      "metar_trigger": false,
      "taf_trigger": false,
      "metar": "METAR OMAA 261430Z 33011KT CAVOK 33/16 Q1008 NOSIG",
      "taf": "TAF OMAA 261100Z 2612/2718 33012KT 8000 NSC"
    },
    {
      "icao": "OMDB",
      "alert": "OK",
      "vis_m": 9999,
      "fzfg": false,
      "metar_trigger": false,
      "taf_trigger": false,
      "metar": "METAR OMDB 261430Z 29009KT 250V310 CAVOK 35/15 Q1008 NOSIG",
      "taf": "TAF OMDB 261100Z 2612/2718 29012KT CAVOK"
    },
    {
      "icao": "UAAA",
      "alert": "OK",
      "vis_m": 9999,
      "fzfg": false,
      "metar_trigger": false,
      "taf_trigger": false,
      "metar": "METAR UAAA 261430Z 20002MPS 9999 FEW050CB BKN100 20/07 Q1017 NOSIG",
      "taf": "TAF UAAA 261100Z 2612/2712 03003MPS 9999 NSC TX22/2709Z TN12/2701Z"
    },
    {
      "icao": "UBBB",
      "alert": "OK",
      "vis_m": 9999,
      "fzfg": false,
      "metar_trigger": false,
      "taf_trigger": false,
      "metar": "METAR UBBB 261430Z 16016KT CAVOK 14/11 Q1015 NOSIG",
      "taf": "TAF UBBB 261109Z 2612/2712 15014KT 9999 SCT020 TX15/2612Z TN10/2701Z"
    },
    {
      "icao": "UDSG",
      "alert": "OK",
      "vis_m": 9999,
      "fzfg": false,
      "metar_trigger": false,
      "taf_trigger": false,
      "metar": "METAR UDSG 261430Z 01004KT 9999 BKN049CB 14/05 Q1017 NOSIG",
      "taf": "TAF UDSG 261100Z 2612/2712 35006KT 9999 SCT040"
    },
    {
      "icao": "UDYZ",
      "alert": "OK",
      "vis_m": 9999,
      "fzfg": false,
      "metar_trigger": false,
      "taf_trigger": false,
      "metar": "METAR UDYZ 261430Z 34002KT 9999 SCT043CB 20/08 Q1014 NOSIG",
      "taf": "TAF UDYZ 261100Z 2612/2712 26006KT 9999 SCT040"
    },
    {
      "icao": "UGKO",
      "alert": "OK",
      "vis_m": 9999,
      "fzfg": false,
      "metar_trigger": false,
      "taf_trigger": false,
      "metar": "METAR UGKO 261430Z 10009KT CAVOK 24/08 Q1009 NOSIG",
      "taf": "TAF UGKO 261100Z 2612/2712 08007KT CAVOK TX24/2612Z TN12/2702Z"
    }
  ]
}