{
  "ts_utc": "2026-01-10T12:15:22Z",
  "threshold_m": 150,
  "source": "stations_override.txt (ICAO list) + aviationweather.gov (METAR/TAF raw)",
  "station_count": 159,
  "stations": [
    {
      "icao": "BIKF",
      "alert": "OK",
      "vis_m": 9999,
      "fzfg": false,
      "metar_trigger": false,
      "taf_trigger": false,
      "metar": "METAR BIKF 101200Z 04002KT 9999 FEW030 M04/M08 Q1010",
      "taf": "TAF BIKF 101043Z 1012/1112 04005KT 9999 FEW040 TXM01/1112Z TNM06/1012Z"
    },
    {
      "icao": "BKPR",
      "alert": "OK",
      "vis_m": 7000,
      "fzfg": false,
      "metar_trigger": false,
      "taf_trigger": false,
      "metar": "METAR BKPR 101200Z 20005KT 7000 -RA SCT010 BKN035 02/02 Q0995 TEMPO 4000 RA",
      "taf": "TAF BKPR 101130Z 1012/1112 17008KT 8000 SCT015 BKN030"
    },
    {
      "icao": "EBCI",
      "alert": "OK",
      "vis_m": 2000,
      "fzfg": false,
      "metar_trigger": false,
      "taf_trigger": false,
      "metar": "METAR EBCI 101150Z 33006KT 290V360 2000 -SN SCT003 BKN006 BKN008 M03/M03 Q1009 BECMG 6000 NSW",
      "taf": "TAF EBCI 101100Z 1012/1118 35008KT 8000 BKN006"
    },
    {
      "icao": "EDDB",
      "alert": "OK",
      "vis_m": 9999,
      "fzfg": false,
      "metar_trigger": false,
      "taf_trigger": false,
      "metar": "METAR EDDB 101150Z AUTO 25004KT 9999 FEW045 M06/M10 Q1011 NOSIG",
      "taf": "TAF EDDB 101100Z 1012/1112 34005KT CAVOK"
    },
    {
      "icao": "EDDH",
      "alert": "OK",
      "vis_m": 9999,
      "fzfg": false,
      "metar_trigger": false,
      "taf_trigger": false,
      "metar": "METAR EDDH 101150Z AUTO 04004KT 360V070 9999 OVC042 M01/M06 Q1014 NOSIG",
      "taf": "TAF EDDH 101100Z 1012/1118 03006KT 9999 SCT040"
    },
    {
      "icao": "EDDK",
      "alert": "OK",
      "vis_m": 9999,
      "fzfg": false,
      "metar_trigger": false,
      "taf_trigger": false,
      "metar": "METAR EDDK 101150Z AUTO 31009KT 9999 -SN BKN008 OVC012 M02/M03 Q1007 TEMPO BKN013",
      "taf": "TAF EDDK 101100Z 1012/1118 34007KT 8000 OVC012"
    },
    {
      "icao": "EDDN",
      "alert": "OK",
      "vis_m": 9999,
      "fzfg": false,
      "metar_trigger": false,
      "taf_trigger": false,
      "metar": "METAR EDDN 101150Z AUTO 28006KT 9999 -SN BKN007 01/00 Q1003 NOSIG",
      "taf": ""
    },
    {
      "icao": "EDDS",
      "alert": "OK",
      "vis_m": 9999,
      "fzfg": false,
      "metar_trigger": false,
      "taf_trigger": false,
      "metar": "METAR EDDS 101150Z AUTO 23005KT 160V280 9999 FEW015 BKN030 BKN044 02/M00 Q1003",
      "taf": "TAF EDDS 101100Z 1012/1112 26007KT 9999 SCT014 BKN030"
    },
    {
      "icao": "EDFH",
      "alert": "OK",
      "vis_m": 3900,
      "fzfg": false,
      "metar_trigger": false,
      "taf_trigger": false,
      "metar": "METAR EDFH 101150Z 33007KT 300V010 3900 -SN BKN004 BKN007 OVC012 M03/M04 Q1004",
      "taf": "TAF EDFH 101100Z 1012/1112 33008KT 8000 BKN005"
    },
    {
      "icao": "EDJA",
      "alert": "OK",
      "vis_m": 8000,
      "fzfg": false,
      "metar_trigger": false,
      "taf_trigger": false,
      "metar": "METAR EDJA 101150Z 24016G27KT 8000 FEW013 SCT016 OVC037 00/M02 Q1004",
      "taf": "TAF EDJA 101100Z 1012/1021 25020G35KT 7000 BKN015"
    },
    {
      "icao": "EDLW",
      "alert": "OK",
      "vis_m": 9999,
      "fzfg": false,
      "metar_trigger": false,
      "taf_trigger": false,
      "metar": "METAR EDLW 101150Z COR 03013KT 360V060 9999 BKN015 M04/M07 Q1008",
      "taf": "TAF EDLW 101100Z 1012/1112 05010KT 6000 SCT004 BKN007"
    },
    {
      "icao": "EDNY",
      "alert": "OK",
      "vis_m": 9999,
      "fzfg": false,
      "metar_trigger": false,
      "taf_trigger": false,
      "metar": "METAR EDNY 101150Z 25010KT 9999 SCT013 OVC053 02/M00 Q1006",
      "taf": "TAF EDNY 101100Z 1012/1021 25015G25KT 7000 BKN015"
    },
    {
      "icao": "EDSB",
      "alert": "OK",
      "vis_m": 8000,
      "fzfg": false,
      "metar_trigger": false,
      "taf_trigger": false,
      "metar": "METAR EDSB 101150Z 21010KT 8000 -RASN BKN006 OVC013 02/01 Q1006",
      "taf": "TAF EDSB 101100Z 1012/1112 23008KT 8000 BKN010"
    },
    {
      "icao": "EETN",
      "alert": "OK",
      "vis_m": 1200,
      "fzfg": false,
      "metar_trigger": false,
      "taf_trigger": false,
      "metar": "METAR EETN 101150Z 03018G28KT 1200 R08/1700N SN BLSN VV012 M07/M09 Q1006 TEMPO 0800 +SN",
      "taf": "TAF EETN 101130Z 1012/1112 04015G25KT 2500 SN BLSN BKN012 OVC020"
    },
    {
      "icao": "EFTU",
      "alert": "OK",
      "vis_m": 9999,
      "fzfg": false,
      "metar_trigger": false,
      "taf_trigger": false,
      "metar": "METAR EFTU 101150Z AUTO 02009KT 350V060 CAVOK M09/M13 Q1013",
      "taf": "TAF EFTU 101122Z 1012/1112 02011KT CAVOK"
    },
    {
      "icao": "EGBB",
      "alert": "OK",
      "vis_m": 9999,
      "fzfg": false,
      "metar_trigger": false,
      "taf_trigger": false,
      "metar": "METAR EGBB 101150Z VRB02KT CAVOK 03/M01 Q1017",
      "taf": "TAF EGBB 101055Z 1012/1112 32006KT 9999 FEW025"
    },
    {
      "icao": "EGGP",
      "alert": "OK",
      "vis_m": 9999,
      "fzfg": false,
      "metar_trigger": false,
      "taf_trigger": false,
      "metar": "METAR EGGP 101150Z 15003KT 100V180 9999 FEW048 03/01 Q1017",
      "taf": "TAF EGGP 101057Z 1012/1112 15005KT 9999 SCT040"
    },
    {
      "icao": "EGGW",
      "alert": "OK",
      "vis_m": 9999,
      "fzfg": false,
      "metar_trigger": false,
      "taf_trigger": false,
      "metar": "METAR EGGW 101150Z AUTO 31009KT 9999 BKN009 OVC015 01/M00 Q1016",
      "taf": "TAF EGGW 101101Z 1012/1112 33009KT 9999 BKN007"
    },
    {
      "icao": "EGKK",
      "alert": "OK",
      "vis_m": 9999,
      "fzfg": false,
      "metar_trigger": false,
      "taf_trigger": false,
      "metar": "METAR EGKK 101150Z 32009KT 9999 BKN012 02/M00 Q1017",
      "taf": "TAF EGKK 101054Z 1012/1118 33010KT 9999 SCT015"
    },
    {
      "icao": "EGNM",
      "alert": "OK",
      "vis_m": 9999,
      "fzfg": false,
      "metar_trigger": false,
      "taf_trigger": false,
      "metar": "METAR EGNM 101150Z 27004KT CAVOK 02/M02 Q1016",
      "taf": "TAF EGNM 101057Z 1012/1112 27005KT 9999 FEW040"
    },
    {
      "icao": "EGPD",
      "alert": "OK",
      "vis_m": 9999,
      "fzfg": false,
      "metar_trigger": false,
      "taf_trigger": false,
      "metar": "METAR EGPD 101150Z AUTO 16008KT 9999 BKN017/// BKN043/// //////TCU 02/00 Q1014 RERA TEMPO SHRA BKN009",
      "taf": "TAF EGPD 101055Z 1012/1112 17008KT 9999 FEW015 SCT025"
    },
    {
      "icao": "EGPF",
      "alert": "OK",
      "vis_m": 9999,
      "fzfg": false,
      "metar_trigger": false,
      "taf_trigger": false,
      "metar": "METAR EGPF 101150Z AUTO 06004KT 030V100 9999 -RA BKN016 OVC023 03/02 Q1014",
      "taf": "TAF EGPF 101104Z 1012/1112 VRB04KT 9999 FEW015 SCT030"
    },
    {
      "icao": "EHBK",
      "alert": "OK",
      "vis_m": 5000,
      "fzfg": false,
      "metar_trigger": false,
      "taf_trigger": false,
      "metar": "METAR EHBK 101155Z AUTO 34006KT 310V020 5000 BR SCT006 BKN007 BKN009 M03/M04 Q1009 TEMPO 6000 NSW BKN012",
      "taf": "TAF EHBK 101119Z 1012/1118 35007KT 9999 BKN012"
    },
    {
      "icao": "EHEH",
      "alert": "OK",
      "vis_m": 9999,
      "fzfg": false,
      "metar_trigger": false,
      "taf_trigger": false,
      "metar": "METAR EHEH 101155Z AUTO 02008KT 340V050 9999 BKN013 OVC016 M02/M05 Q1011 GRN BECMG SCT014 BKN018",
      "taf": "TAF EHEH 101133Z 1012/1118 02009KT 9999 FEW012 BKN018"
    },
    {
      "icao": "EKBI",
      "alert": "OK",
      "vis_m": 9999,
      "fzfg": false,
      "metar_trigger": false,
      "taf_trigger": false,
      "metar": "METAR EKBI 101150Z AUTO 05011KT 030V090 9999 NCD M01/M07 Q1018",
      "taf": "TAF EKBI 101127Z 1012/1112 05010KT CAVOK"
    },
    {
      "icao": "EKCH",
      "alert": "OK",
      "vis_m": 9999,
      "fzfg": false,
      "metar_trigger": false,
      "taf_trigger": false,
      "metar": "METAR EKCH 101150Z AUTO 01016KT 9999 NCD M03/M09 Q1017 NOSIG",
      "taf": "TAF EKCH 101127Z 1012/1112 02015KT CAVOK"
    },
    {
      "icao": "ENAL",
      "alert": "OK",
      "vis_m": 9999,
      "fzfg": false,
      "metar_trigger": false,
      "taf_trigger": false,
      "metar": "METAR ENAL 101150Z 19009KT CAVOK 00/M07 Q1021",
      "taf": "TAF ENAL 101100Z 1012/1021 19012KT CAVOK"
    },
    {
      "icao": "ENBR",
      "alert": "OK",
      "vis_m": 9999,
      "fzfg": false,
      "metar_trigger": false,
      "taf_trigger": false,
      "metar": "METAR ENBR 101150Z 11007KT CAVOK M03/M10 Q1023 NOSIG RMK WIND 1200FT 14010KT",
      "taf": "TAF ENBR 101100Z 1012/1112 12005KT CAVOK"
    },
    {
      "icao": "ENGM",
      "alert": "OK",
      "vis_m": 9999,
      "fzfg": false,
      "metar_trigger": false,
      "taf_trigger": false,
      "metar": "METAR ENGM 101150Z 35004KT CAVOK M12/M14 Q1023 NOSIG",
      "taf": "TAF ENGM 101100Z 1012/1112 35005KT CAVOK"
    },
    {
      "icao": "ENHD",
      "alert": "OK",
      "vis_m": 9999,
      "fzfg": false,
      "metar_trigger": false,
      "taf_trigger": false,
      "metar": "METAR ENHD 101150Z 12015KT CAVOK M02/M10 Q1023",
      "taf": "TAF ENHD 101100Z 1012/1021 13012KT 9999 FEW040"
    },
    {
      "icao": "ENTC",
      "alert": "OK",
      "vis_m": 9999,
      "fzfg": false,
      "metar_trigger": false,
      "taf_trigger": false,
      "metar": "METAR ENTC 101150Z 00000KT CAVOK M13/M15 Q1020 NOSIG RMK WIND 2600FT 15010KT",
      "taf": "TAF ENTC 101100Z 1012/1112 20005KT CAVOK"
    },
    {
      "icao": "ENTO",
      "alert": "OK",
      "vis_m": 9999,
      "fzfg": false,
      "metar_trigger": false,
      "taf_trigger": false,
      "metar": "METAR ENTO 101150Z 36008KT CAVOK M07/M11 Q1023 NOSIG",
      "taf": "TAF ENTO 101100Z 1012/1112 36005KT CAVOK"
    },
    {
      "icao": "ENVA",
      "alert": "OK",
      "vis_m": 9999,
      "fzfg": false,
      "metar_trigger": false,
      "taf_trigger": false,
      "metar": "METAR ENVA 101150Z 12004KT CAVOK M06/M11 Q1021 NOSIG RMK WIND 670FT 11005KT",
      "taf": "TAF ENVA 101100Z 1012/1112 10006KT CAVOK"
    },
    {
      "icao": "ENZV",
      "alert": "OK",
      "vis_m": 9999,
      "fzfg": false,
      "metar_trigger": false,
      "taf_trigger": false,
      "metar": "METAR ENZV 101150Z 07014KT 9999 BKN041 M03/M11 Q1023 NOSIG",
      "taf": "TAF ENZV 101100Z 1012/1112 10012KT 9999 SCT040"
    },
    {
      "icao": "EPGD",
      "alert": "OK",
      "vis_m": 9999,
      "fzfg": false,
      "metar_trigger": false,
      "taf_trigger": false,
      "metar": "METAR EPGD 101200Z 01011KT 340V050 9999 -SHSN SCT015TCU BKN021 M01/M06 Q1005",
      "taf": "TAF EPGD 101130Z 1012/1112 36012KT 9999 -SHSN SCT020TCU"
    },
    {
      "icao": "EPKK",
      "alert": "OK",
      "vis_m": 9999,
      "fzfg": false,
      "metar_trigger": false,
      "taf_trigger": false,
      "metar": "METAR EPKK 101200Z 23004KT 9999 SCT020 M09/M13 Q1004",
      "taf": "TAF EPKK 101130Z 1012/1112 25005KT 9999 SCT020"
    },
    {
      "icao": "EPKT",
      "alert": "OK",
      "vis_m": 9999,
      "fzfg": false,
      "metar_trigger": false,
      "taf_trigger": false,
      "metar": "METAR EPKT 101200Z 35008KT 9999 FEW020 M08/M13 Q1004",
      "taf": "TAF EPKT 101130Z 1012/1112 34005KT 9999 SCT030"
    },
    {
      "icao": "EPLB",
      "alert": "OK",
      "vis_m": 8000,
      "fzfg": false,
      "metar_trigger": false,
      "taf_trigger": false,
      "metar": "METAR EPLB 101200Z 28008KT 8000 -SN FEW011 OVC021 M11/M13 Q1001",
      "taf": "TAF EPLB 101130Z 1012/1112 27010KT 9999 SCT010 BKN015"
    },
    {
      "icao": "EPMO",
      "alert": "OK",
      "vis_m": 4100,
      "fzfg": false,
      "metar_trigger": false,
      "taf_trigger": false,
      "metar": "METAR EPMO 101200Z 28009KT 4100 -SN BR FEW006 SCT033 M08/M09 Q1003",
      "taf": "TAF EPMO 101130Z 1012/1112 29008KT 5000 -SN BR BKN030"
    },
    {
      "icao": "EPPO",
      "alert": "OK",
      "vis_m": 9999,
      "fzfg": false,
      "metar_trigger": false,
      "taf_trigger": false,
      "metar": "METAR EPPO 101200Z 28010KT 9999 FEW020 M06/M11 Q1008",
      "taf": "TAF EPPO 101130Z 1012/1112 33010KT 9999 BKN035"
    },
    {
      "icao": "EPRA",
      "alert": "OK",
      "vis_m": 9999,
      "fzfg": false,
      "metar_trigger": false,
      "taf_trigger": false,
      "metar": "METAR EPRA 101200Z 31010KT 9999 BKN011 M10/M13 Q1003",
      "taf": "TAF EPRA 101130Z 1012/1021 28008KT 9999 SCT010 BKN020"
    },
    {
      "icao": "EPRZ",
      "alert": "OK",
      "vis_m": 9999,
      "fzfg": false,
      "metar_trigger": false,
      "taf_trigger": false,
      "metar": "METAR EPRZ 101200Z 28010KT 9999 -SN OVC013 M10/M13 Q1003",
      "taf": "TAF EPRZ 101130Z 1012/1112 27008KT 9999 BKN013"
    },
    {
      "icao": "EPSC",
      "alert": "OK",
      "vis_m": 9999,
      "fzfg": false,
      "metar_trigger": false,
      "taf_trigger": false,
      "metar": "METAR EPSC 101200Z 35005KT 310V020 9999 FEW047 00/M04 Q1010",
      "taf": "TAF EPSC 101130Z 1012/1112 32008KT 9999 BKN040"
    },
    {
      "icao": "EPSY",
      "alert": "OK",
      "vis_m": 2200,
      "fzfg": false,
      "metar_trigger": false,
      "taf_trigger": false,
      "metar": "METAR EPSY 101200Z 31004KT 280V340 2200 -SN BKN006 OVC021 M07/M08 Q1002",
      "taf": "TAF EPSY 101130Z 1012/1021 33008KT 9999 BKN025"
    },
    {
      "icao": "EPWA",
      "alert": "OK",
      "vis_m": 7000,
      "fzfg": false,
      "metar_trigger": false,
      "taf_trigger": false,
      "metar": "METAR EPWA 101200Z 29009KT 7000 -SN FEW015 M09/M11 Q1003 NOSIG",
      "taf": "TAF EPWA 101130Z 1012/1112 29008KT 5000 -SN BR BKN030"
    },
    {
      "icao": "EPWR",
      "alert": "OK",
      "vis_m": 9999,
      "fzfg": false,
      "metar_trigger": false,
      "taf_trigger": false,
      "metar": "METAR EPWR 101200Z 29006KT CAVOK M07/M12 Q1008",
      "taf": "TAF EPWR 101130Z 1012/1112 34007KT CAVOK"
    },
    {
      "icao": "ESGG",
      "alert": "OK",
      "vis_m": 9999,
      "fzfg": false,
      "metar_trigger": false,
      "taf_trigger": false,
      "metar": "METAR ESGG 101150Z 03010KT CAVOK M08/M10 Q1019",
      "taf": "TAF ESGG 101130Z 1012/1112 02009KT CAVOK"
    },
    {
      "icao": "ESKN",
      "alert": "OK",
      "vis_m": 9999,
      "fzfg": false,
      "metar_trigger": false,
      "taf_trigger": false,
      "metar": "METAR ESKN 101150Z 34013KT 320V020 CAVOK M05/M08 Q1017",
      "taf": "TAF ESKN 101130Z 1012/1112 35012KT CAVOK"
    },
    {
      "icao": "ESMS",
      "alert": "OK",
      "vis_m": 9999,
      "fzfg": false,
      "metar_trigger": false,
      "taf_trigger": false,
      "metar": "METAR ESMS 101150Z 35014KT CAVOK M05/M10 Q1015",
      "taf": "TAF ESMS 101127Z 1012/1112 36010KT CAVOK"
    },
    {
      "icao": "ESSA",
      "alert": "OK",
      "vis_m": 9999,
      "fzfg": false,
      "metar_trigger": false,
      "taf_trigger": false,
      "metar": "METAR ESSA 101150Z 34011KT CAVOK M07/M09 Q1017 NOSIG",
      "taf": "TAF ESSA 101130Z 1012/1112 35012G22KT CAVOK"
    },
    {
      "icao": "EYKA",
      "alert": "OK",
      "vis_m": 9999,
      "fzfg": false,
      "metar_trigger": false,
      "taf_trigger": false,
      "metar": "METAR EYKA 101150Z 35008KT 320V030 9999 -SN SCT017 BKN025 OVC049 M09/M12 Q1000",
      "taf": "TAF EYKA 101100Z 1012/1112 VRB04KT 5000 SN SCT010 BKN015"
    },
    {
      "icao": "EYPA",
      "alert": "OK",
      "vis_m": 5000,
      "fzfg": false,
      "metar_trigger": false,
      "taf_trigger": false,
      "metar": "METAR EYPA 101150Z 01010KT 330V040 5000 -SN FEW020 M05/M07 Q1004",
      "taf": "TAF EYPA 101100Z 1012/1112 36008KT 8000 SCT025"
    },
    {
      "icao": "EYVI",
      "alert": "OK",
      "vis_m": 9999,
      "fzfg": false,
      "metar_trigger": false,
      "taf_trigger": false,
      "metar": "METAR EYVI 101150Z 35008KT 9999 -SN BKN015 M10/M13 Q0997 NOSIG",
      "taf": "TAF EYVI 101107Z 1012/1112 35007KT 5000 SN BKN025"
    },
    {
      "icao": "GCFV",
      "alert": "OK",
      "vis_m": 9999,
      "fzfg": false,
      "metar_trigger": false,
      "taf_trigger": false,
      "metar": "METAR GCFV 101200Z 02013KT 350V050 9999 SCT025 BKN033 19/11 Q1028",
      "taf": "TAF GCFV 100800Z 1009/1109 05015KT 9999 SCT025 TX20/1014Z TN15/1106Z"
    },
    {
      "icao": "GCLP",
      "alert": "OK",
      "vis_m": 9999,
      "fzfg": false,
      "metar_trigger": false,
      "taf_trigger": false,
      "metar": "METAR GCLP 101200Z 03017KT 9999 SCT035 BKN055 20/10 Q1028 NOSIG",
      "taf": "TAF GCLP 100800Z 1009/1109 03013KT 9999 SCT030 TX19/1014Z TN15/1106Z"
    },
    {
      "icao": "GCTS",
      "alert": "OK",
      "vis_m": 9999,
      "fzfg": false,
      "metar_trigger": false,
      "taf_trigger": false,
      "metar": "METAR GCTS 101200Z 09015KT 050V120 9999 SCT045 20/07 Q1029 NOSIG",
      "taf": "TAF GCTS 100800Z 1009/1109 09017KT 9999 FEW030 TX23/1014Z TN16/1106Z"
    },
    {
      "icao": "GMAD",
      "alert": "OK",
      "vis_m": 9999,
      "fzfg": false,
      "metar_trigger": false,
      "taf_trigger": false,
      "metar": "METAR GMAD 101200Z 22003KT 170V270 CAVOK 16/10 Q1026 NOSIG",
      "taf": "TAF GMAD 101100Z 1012/1118 28008KT CAVOK"
    },
    {
      "icao": "GMMN",
      "alert": "OK",
      "vis_m": 9999,
      "fzfg": false,
      "metar_trigger": false,
      "taf_trigger": false,
      "metar": "METAR GMMN 101200Z 02006KT 360V060 9999 BKN016 14/10 Q1030 NOSIG",
      "taf": "TAF GMMN 101100Z 1012/1118 02010KT 9999 BKN016"
    },
    {
      "icao": "GMMX",
      "alert": "OK",
      "vis_m": 9999,
      "fzfg": false,
      "metar_trigger": false,
      "taf_trigger": false,
      "metar": "METAR GMMX 101200Z 05005KT 010V090 CAVOK 14/07 Q1028 NOSIG",
      "taf": "TAF GMMX 101100Z 1012/1118 06008KT 8000 NSC"
    },
    {
      "icao": "HEGN",
      "alert": "OK",
      "vis_m": 9999,
      "fzfg": false,
      "metar_trigger": false,
      "taf_trigger": false,
      "metar": "METAR HEGN 101100Z 36012KT CAVOK 21/07 Q1019 NOSIG",
      "taf": "TAF HEGN 101100Z 1012/1118 36010G20KT CAVOK"
    },
    {
      "icao": "HEMA",
      "alert": "OK",
      "vis_m": 9999,
      "fzfg": false,
      "metar_trigger": false,
      "taf_trigger": false,
      "metar": "METAR HEMA 101100Z 33018KT 9999 SCT025 21/12 Q1021 NOSIG",
      "taf": "TAF HEMA 101100Z 1012/1118 35012G26KT 6000 SCT020"
    },
    {
      "icao": "HESH",
      "alert": "OK",
      "vis_m": 9999,
      "fzfg": false,
      "metar_trigger": false,
      "taf_trigger": false,
      "metar": "METAR HESH 101100Z 35010KT CAVOK 22/05 Q1020 NOSIG",
      "taf": "TAF HESH 101100Z 1012/1118 01016KT CAVOK"
    },
    {
      "icao": "HESX",
      "alert": "OK",
      "vis_m": 9999,
      "fzfg": false,
      "metar_trigger": false,
      "taf_trigger": false,
      "metar": "METAR HESX 101100Z 24008KT CAVOK 18/08 Q1021 NOSIG",
      "taf": ""
    },
    {
      "icao": "LATI",
      "alert": "OK",
      "vis_m": 9999,
      "fzfg": false,
      "metar_trigger": false,
      "taf_trigger": false,
      "metar": "METAR LATI 101150Z 23006KT 190V280 9999 -RA FEW030CB FEW040 BKN070 13/05 Q0997 TEMPO 18012G25KT SCT025CB",
      "taf": ""
    },
    {
      "icao": "LBPD",
      "alert": "OK",
      "vis_m": 9999,
      "fzfg": false,
      "metar_trigger": false,
      "taf_trigger": false,
      "metar": "METAR LBPD 101200Z AUTO 25002KT 9999 -RA BKN053/// OVC060/// 05/01 Q0999 NOSIG",
      "taf": "TAF LBPD 101100Z 1012/1112 VRB03KT 9999 SCT050"
    },
    {
      "icao": "LBSF",
      "alert": "OK",
      "vis_m": 4100,
      "fzfg": false,
      "metar_trigger": false,
      "taf_trigger": false,
      "metar": "METAR LBSF 101200Z 10004KT 080V140 4100 RA FEW012 OVC038 03/03 Q0998 NOSIG",
      "taf": "TAF LBSF 101100Z 1012/1112 08010KT 9999 SCT030 BKN050"
    },
    {
      "icao": "LBWN",
      "alert": "OK",
      "vis_m": 9999,
      "fzfg": false,
      "metar_trigger": false,
      "taf_trigger": false,
      "metar": "METAR LBWN 101200Z VRB02KT 9999 BKN045 08/04 Q0998 NOSIG",
      "taf": "TAF LBWN 101100Z 1012/1112 06008KT 9999 BKN040"
    },
    {
      "icao": "LCLK",
      "alert": "OK",
      "vis_m": 9999,
      "fzfg": false,
      "metar_trigger": false,
      "taf_trigger": false,
      "metar": "METAR LCLK 101200Z 22019KT 9999 FEW030 FEW032TCU 19/13 Q1015 NOSIG",
      "taf": "TAF LCLK 101130Z 1012/1112 22018KT 9999 FEW030"
    },
    {
      "icao": "LCPH",
      "alert": "OK",
      "vis_m": 9999,
      "fzfg": false,
      "metar_trigger": false,
      "taf_trigger": false,
      "metar": "METAR LCPH 101200Z 24011KT 9999 FEW014 SCT030 FEW035TCU BKN060 18/14 Q1015 NOSIG",
      "taf": "TAF LCPH 101130Z 1012/1112 24016KT 9999 SCT030 SCT050"
    },
    {
      "icao": "LEAL",
      "alert": "OK",
      "vis_m": 9999,
      "fzfg": false,
      "metar_trigger": false,
      "taf_trigger": false,
      "metar": "METAR LEAL 101200Z 31024G34KT 280V340 9999 FEW020 15/02 Q1024 NOSIG",
      "taf": "TAF LEAL 101100Z 1012/1112 29017KT CAVOK TX16/1014Z TN07/1106Z"
    },
    {
      "icao": "LEBB",
      "alert": "OK",
      "vis_m": 9999,
      "fzfg": false,
      "metar_trigger": false,
      "taf_trigger": false,
      "metar": "METAR LEBB 101200Z 27006KT 210V300 9999 -SHRA FEW020TCU SCT025 BKN031 10/07 Q1026 TEMPO SHRA",
      "taf": "TAF LEBB 101100Z 1012/1112 27010KT 9999 FEW020 BKN040 TX13/1112Z TN04/1105Z"
    },
    {
      "icao": "LEBL",
      "alert": "OK",
      "vis_m": 9999,
      "fzfg": false,
      "metar_trigger": false,
      "taf_trigger": false,
      "metar": "METAR LEBL 101200Z 31015G27KT 280V340 9999 FEW027 13/02 Q1019 NOSIG",
      "taf": "TAF LEBL 101100Z 1012/1112 30010KT 9999 FEW020 TX15/1013Z TN05/1106Z"
    },
    {
      "icao": "LECH",
      "alert": "OK",
      "vis_m": 9000,
      "fzfg": false,
      "metar_trigger": false,
      "taf_trigger": false,
      "metar": "METAR LECH 101200Z AUTO 30012G23KT 250V330 9000 FEW069 13/M03 Q1022",
      "taf": ""
    },
    {
      "icao": "LEMD",
      "alert": "OK",
      "vis_m": 9999,
      "fzfg": false,
      "metar_trigger": false,
      "taf_trigger": false,
      "metar": "METAR LEMD 101200Z 13002KT CAVOK 08/M01 Q1026 NOSIG",
      "taf": "TAF LEMD 101100Z 1012/1118 VRB03KT CAVOK TX10/1014Z TNM03/1106Z"
    },
    {
      "icao": "LEMG",
      "alert": "OK",
      "vis_m": 9999,
      "fzfg": false,
      "metar_trigger": false,
      "taf_trigger": false,
      "metar": "METAR LEMG 101200Z 30018G28KT CAVOK 14/05 Q1027 NOSIG",
      "taf": "TAF LEMG 101100Z 1012/1112 29014KT CAVOK TX16/1014Z TN06/1107Z"
    },
    {
      "icao": "LEVC",
      "alert": "OK",
      "vis_m": 9999,
      "fzfg": false,
      "metar_trigger": false,
      "taf_trigger": false,
      "metar": "METAR LEVC 101200Z 30014KT CAVOK 15/M02 Q1024 NOSIG",
      "taf": "TAF LEVC 101100Z 1012/1112 29008KT CAVOK TX16/1014Z TN04/1106Z"
    },
    {
      "icao": "LEXJ",
      "alert": "OK",
      "vis_m": 9999,
      "fzfg": false,
      "metar_trigger": false,
      "taf_trigger": false,
      "metar": "METAR LEXJ 101200Z 30015KT 270V330 9999 BKN032 BKN060 11/06 Q1026",
      "taf": "TAF LEXJ 100800Z 1009/1109 27011KT 9999 BKN035 TX12/1015Z TN07/1101Z"
    },
    {
      "icao": "LEZG",
      "alert": "OK",
      "vis_m": 9999,
      "fzfg": false,
      "metar_trigger": false,
      "taf_trigger": false,
      "metar": "METAR LEZG 101200Z 31018KT 9999 SCT060 BKN070 12/01 Q1024 NOSIG",
      "taf": "TAF LEZG 101100Z 1012/1112 28012KT 9999 FEW040 TX12/1015Z TN03/1106Z"
    },
    {
      "icao": "LEZL",
      "alert": "OK",
      "vis_m": 9999,
      "fzfg": false,
      "metar_trigger": false,
      "taf_trigger": false,
      "metar": "METAR LEZL 101200Z 03005KT 340V060 CAVOK 13/06 Q1030 NOSIG",
      "taf": "TAF LEZL 100800Z 1009/1109 01003KT CAVOK TX15/1015Z TN04/1107Z"
    },
    {
      "icao": "LFBD",
      "alert": "OK",
      "vis_m": 9999,
      "fzfg": false,
      "metar_trigger": false,
      "taf_trigger": false,
      "metar": "METAR LFBD 101200Z AUTO 33013KT 9999 FEW022/// SCT032/// BKN100/// ///CB 10/05 Q1021 TEMPO VRB15G30KT 2000 SHRA",
      "taf": "TAF LFBD 101100Z 1012/1118 30005KT 9999 SCT030 TX09/1013Z TN02/1022Z"
    },
    {
      "icao": "LFLL",
      "alert": "OK",
      "vis_m": 9999,
      "fzfg": false,
      "metar_trigger": false,
      "taf_trigger": false,
      "metar": "METAR LFLL 101200Z 32004KT 260V020 9999 SCT033 BKN046 06/M01 Q1014 NOSIG",
      "taf": "TAF LFLL 101100Z 1012/1118 31010KT 9999 BKN035"
    },
    {
      "icao": "LFLS",
      "alert": "OK",
      "vis_m": 9999,
      "fzfg": false,
      "metar_trigger": false,
      "taf_trigger": false,
      "metar": "METAR LFLS 101200Z AUTO 11005KT 070V210 9999 SCT034 BKN041 OVC049 05/M01 Q1014 TEMPO 1200 -SHSN BKN008 BKN020TCU",
      "taf": ""
    },
    {
      "icao": "LFMN",
      "alert": "OK",
      "vis_m": 9999,
      "fzfg": false,
      "metar_trigger": false,
      "taf_trigger": false,
      "metar": "METAR LFMN 101200Z 36010KT 320V030 CAVOK 15/M10 Q1004 NOSIG",
      "taf": "TAF LFMN 100800Z 1009/1115 33013KT CAVOK"
    },
    {
      "icao": "LFOB",
      "alert": "OK",
      "vis_m": 9999,
      "fzfg": false,
      "metar_trigger": false,
      "taf_trigger": false,
      "metar": "METAR LFOB 101200Z AUTO 32016KT 9999 BKN021 BKN042 OVC130 04/01 Q1013",
      "taf": ""
    },
    {
      "icao": "LFPO",
      "alert": "OK",
      "vis_m": 9999,
      "fzfg": false,
      "metar_trigger": false,
      "taf_trigger": false,
      "metar": "METAR LFPO 101200Z 32017KT 9999 BKN029 BKN036 04/M01 Q1013 NOSIG",
      "taf": "TAF LFPO 101100Z 1012/1118 31010G25KT 9999 SCT025"
    },
    {
      "icao": "LFSB",
      "alert": "OK",
      "vis_m": 9999,
      "fzfg": false,
      "metar_trigger": false,
      "taf_trigger": false,
      "metar": "METAR LFSB 101200Z AUTO 24012KT 210V270 9999 BKN016 BKN021 OVC062 02/M00 Q1008 NOSIG",
      "taf": "TAF LFSB 101100Z 1012/1112 25015KT 9999 SCT025 BKN040"
    },
    {
      "icao": "LGAV",
      "alert": "OK",
      "vis_m": 9999,
      "fzfg": false,
      "metar_trigger": false,
      "taf_trigger": false,
      "metar": "METAR LGAV 101150Z 23026G39KT 9999 SCT025 20/05 Q1002 NOSIG",
      "taf": "TAF LGAV 101100Z 1012/1112 24020KT 9999 SCT025 SCT080"
    },
    {
      "icao": "LGTS",
      "alert": "OK",
      "vis_m": 9999,
      "fzfg": false,
      "metar_trigger": false,
      "taf_trigger": false,
      "metar": "METAR LGTS 101150Z 29004KT 9999 FEW018 SCT030 09/06 Q0999 NOSIG",
      "taf": "TAF LGTS 101100Z 1012/1112 22010KT 9999 SCT030"
    },
    {
      "icao": "LHBP",
      "alert": "OK",
      "vis_m": 4900,
      "fzfg": false,
      "metar_trigger": false,
      "taf_trigger": false,
      "metar": "METAR LHBP 101200Z 15003KT 4900 BR FEW008 BKN018 OVC060 M03/M05 Q1001 TEMPO BKN008 BKN025",
      "taf": "TAF LHBP 101115Z 1012/1112 VRB02KT 6000 SCT008 BKN025"
    },
    {
      "icao": "LHDC",
      "alert": "OK",
      "vis_m": 6000,
      "fzfg": false,
      "metar_trigger": false,
      "taf_trigger": false,
      "metar": "METAR LHDC 101145Z AUTO 03005KT 360V060 6000 OVC025 M02/M05 Q1001 NOSIG",
      "taf": "TAF LHDC 101115Z 1012/1021 04005KT 7000 BKN025 BKN060"
    },
    {
      "icao": "LIBD",
      "alert": "OK",
      "vis_m": 9999,
      "fzfg": false,
      "metar_trigger": false,
      "taf_trigger": false,
      "metar": "METAR LIBD 101150Z 24019KT CAVOK 10/03 Q0996",
      "taf": "TAF LIBD 101100Z 1012/1112 28018G30KT 9999 SCT040"
    },
    {
      "icao": "LIBG",
      "alert": "OK",
      "vis_m": 9999,
      "fzfg": false,
      "metar_trigger": false,
      "taf_trigger": false,
      "metar": "METAR LIBG 101150Z 22010KT 9999 FEW040 12/07 Q0998",
      "taf": "TAF LIBG 101100Z 1012/1021 23013KT 9999 SCT040"
    },
    {
      "icao": "LIBP",
      "alert": "OK",
      "vis_m": 9999,
      "fzfg": false,
      "metar_trigger": false,
      "taf_trigger": false,
      "metar": "METAR LIBP 101150Z AUTO 04003KT 360V070 9999 -RA OVC042/// 08/05 Q1000",
      "taf": "TAF LIBP 101100Z 1012/1112 33012KT 9999 SCT040"
    },
    {
      "icao": "LIBR",
      "alert": "OK",
      "vis_m": 9999,
      "fzfg": false,
      "metar_trigger": false,
      "taf_trigger": false,
      "metar": "METAR LIBR 101150Z 24014KT CAVOK 12/04 Q0998",
      "taf": "TAF LIBR 101100Z 1012/1112 26015KT 9999 SCT040"
    },
    {
      "icao": "LICA",
      "alert": "OK",
      "vis_m": 9999,
      "fzfg": false,
      "metar_trigger": false,
      "taf_trigger": false,
      "metar": "METAR LICA 101150Z AUTO 25020G30KT 9999 FEW031/// 11/08 Q1003 RETSRA",
      "taf": "TAF LICA 101100Z 1012/1112 25025G37KT 9999 SCT020"
    },
    {
      "icao": "LICC",
      "alert": "OK",
      "vis_m": 9999,
      "fzfg": false,
      "metar_trigger": false,
      "taf_trigger": false,
      "metar": "METAR LICC 101150Z 27020G31KT 9999 SCT040 16/11 Q1007",
      "taf": "TAF LICC 101100Z 1012/1112 26018G30KT 9999 FEW050"
    },
    {
      "icao": "LICJ",
      "alert": "OK",
      "vis_m": 9999,
      "fzfg": false,
      "metar_trigger": false,
      "taf_trigger": false,
      "metar": "METAR LICJ 101150Z 27029KT 9999 SCT040 14/06 Q1008",
      "taf": "TAF LICJ 101100Z 1012/1112 29030G40KT 9999 SCT030"
    },
    {
      "icao": "LIMC",
      "alert": "OK",
      "vis_m": 9999,
      "fzfg": false,
      "metar_trigger": false,
      "taf_trigger": false,
      "metar": "METAR LIMC 101150Z VRB01KT CAVOK 05/01 Q1003 NOSIG",
      "taf": "TAF LIMC 101100Z 1012/1118 VRB04KT 7000 NSC"
    },
    {
      "icao": "LIME",
      "alert": "OK",
      "vis_m": 9999,
      "fzfg": false,
      "metar_trigger": false,
      "taf_trigger": false,
      "metar": "METAR LIME 101150Z 27003KT 250V320 9999 FEW045 05/M02 Q1003 NOSIG",
      "taf": "TAF LIME 101100Z 1012/1112 VRB04KT 8000 NSC"
    },
    {
      "icao": "LIMF",
      "alert": "OK",
      "vis_m": 9999,
      "fzfg": false,
      "metar_trigger": false,
      "taf_trigger": false,
      "metar": "METAR LIMF 101150Z 30013KT 260V320 CAVOK 10/M12 Q1003",
      "taf": "TAF LIMF 101100Z 1012/1112 30010KT 8000 NSC"
    },
    {
      "icao": "LIMJ",
      "alert": "OK",
      "vis_m": 9999,
      "fzfg": false,
      "metar_trigger": false,
      "taf_trigger": false,
      "metar": "METAR LIMJ 101150Z 29011KT CAVOK 13/M09 Q1003",
      "taf": "TAF LIMJ 101100Z 1012/1112 04013KT CAVOK"
    },
    {
      "icao": "LIPE",
      "alert": "OK",
      "vis_m": 8000,
      "fzfg": false,
      "metar_trigger": false,
      "taf_trigger": false,
      "metar": "METAR LIPE 101150Z 28009KT 8000 NSC 05/M00 Q1003",
      "taf": "TAF LIPE 101100Z 1012/1112 28006KT 7000 NSC"
    },
    {
      "icao": "LIPH",
      "alert": "OK",
      "vis_m": 9999,
      "fzfg": false,
      "metar_trigger": false,
      "taf_trigger": false,
      "metar": "METAR LIPH 101150Z 23005KT 210V270 CAVOK 10/00 Q1001",
      "taf": "TAF LIPH 101100Z 1012/1112 VRB05KT 9999 SCT040"
    },
    {
      "icao": "LIPQ",
      "alert": "OK",
      "vis_m": 9999,
      "fzfg": false,
      "metar_trigger": false,
      "taf_trigger": false,
      "metar": "METAR LIPQ 101150Z AUTO 35003KT 310V040 9999 NCD 10/01 Q1001",
      "taf": "TAF LIPQ 101100Z 1012/1112 VRB05KT 9999 BKN030"
    },
    {
      "icao": "LIPR",
      "alert": "OK",
      "vis_m": 9999,
      "fzfg": false,
      "metar_trigger": false,
      "taf_trigger": false,
      "metar": "METAR LIPR 101150Z 30012KT 9999 FEW035 06/01 Q1002",
      "taf": "TAF LIPR 101100Z 1012/1112 30010KT 6000 SCT040"
    },
    {
      "icao": "LIPX",
      "alert": "OK",
      "vis_m": 9999,
      "fzfg": false,
      "metar_trigger": false,
      "taf_trigger": false,
      "metar": "METAR LIPX 101150Z 27010KT CAVOK 08/M00 Q1002",
      "taf": "TAF LIPX 101100Z 1012/1112 VRB05KT 8000 NSC"
    },
    {
      "icao": "LIPY",
      "alert": "OK",
      "vis_m": 9999,
      "fzfg": false,
      "metar_trigger": false,
      "taf_trigger": false,
      "metar": "METAR LIPY 101150Z AUTO 31010KT 9999 BKN021/// 06/01 Q1001",
      "taf": "TAF LIPY 101100Z 1012/1112 30012KT 9999 SCT050"
    },
    {
      "icao": "LIPZ",
      "alert": "OK",
      "vis_m": 9999,
      "fzfg": false,
      "metar_trigger": false,
      "taf_trigger": false,
      "metar": "METAR LIPZ 101150Z 22005KT 200V270 CAVOK 08/00 Q1002 NOSIG",
      "taf": "TAF LIPZ 101100Z 1012/1118 VRB05KT CAVOK"
    },
    {
      "icao": "LIRF",
      "alert": "OK",
      "vis_m": 9999,
      "fzfg": false,
      "metar_trigger": false,
      "taf_trigger": false,
      "metar": "METAR LIRF 101150Z 34005KT 9999 FEW035 SCT055 09/04 Q1002 NOSIG",
      "taf": ""
    },
    {
      "icao": "LIRN",
      "alert": "OK",
      "vis_m": 8000,
      "fzfg": false,
      "metar_trigger": false,
      "taf_trigger": false,
      "metar": "METAR LIRN 101150Z 26015KT 230V300 8000 RA FEW020 BKN050 10/05 Q0999 NOSIG",
      "taf": "TAF LIRN 101100Z 1012/1112 34016KT 9999 SCT030"
    },
    {
      "icao": "LIRP",
      "alert": "OK",
      "vis_m": 9999,
      "fzfg": false,
      "metar_trigger": false,
      "taf_trigger": false,
      "metar": "METAR LIRP 101145Z 34005KT CAVOK 10/01 Q1001 NOSIG",
      "taf": "TAF LIRP 101100Z 1012/1112 34005KT CAVOK"
    },
    {
      "icao": "LIRZ",
      "alert": "OK",
      "vis_m": 9999,
      "fzfg": false,
      "metar_trigger": false,
      "taf_trigger": false,
      "metar": "METAR LIRZ 101150Z AUTO 24005KT 9999 SCT019/// BKN023/// 08/04 Q1001",
      "taf": "TAF LIRZ 101100Z 1012/1112 35011KT 9999 BKN040"
    },
    {
      "icao": "LJLJ",
      "alert": "OK",
      "vis_m": 150,
      "fzfg": false,
      "metar_trigger": false,
      "taf_trigger": false,
      "metar": "METAR LJLJ 101200Z VRB01KT 0150 R30/0250N FG VV001 00/M00 Q1001 NOSIG",
      "taf": "TAF LJLJ 101100Z 1012/1112 VRB02KT 0200 FG VV001"
    },
    {
      "icao": "LKMT",
      "alert": "OK",
      "vis_m": 6000,
      "fzfg": false,
      "metar_trigger": false,
      "taf_trigger": false,
      "metar": "METAR LKMT 101200Z 02009KT 6000 -SN BKN014 M09/M12 Q1005 NOSIG",
      "taf": "TAF LKMT 101100Z 1012/1112 36012KT 6000 -SN OVC013"
    },
    {
      "icao": "LKPR",
      "alert": "OK",
      "vis_m": 3500,
      "fzfg": false,
      "metar_trigger": false,
      "taf_trigger": false,
      "metar": "METAR LKPR 101200Z 05007KT 3500 -SN BR FEW006 BKN010 OVC022 M06/M08 Q1004 NOSIG",
      "taf": "TAF LKPR 101100Z 1012/1118 01006KT 2500 -SN BR SCT003 OVC006"
    },
    {
      "icao": "LLBG",
      "alert": "OK",
      "vis_m": 9999,
      "fzfg": false,
      "metar_trigger": false,
      "taf_trigger": false,
      "metar": "METAR LLBG 101150Z 17010KT 9999 -RA FEW025 SCT035 17/12 Q1019 NOSIG",
      "taf": "TAF LLBG 101102Z 1012/1112 21012KT 9999 SCT030"
    },
    {
      "icao": "LMML",
      "alert": "OK",
      "vis_m": 9999,
      "fzfg": false,
      "metar_trigger": false,
      "taf_trigger": false,
      "metar": "METAR LMML 101145Z 27019G29KT 230V290 9999 -RA FEW019 BKN045 14/09 Q1012 NOSIG",
      "taf": "TAF LMML 101100Z 1012/1112 29026G36KT 9999 FEW020 SCT045"
    },
    {
      "icao": "LOWW",
      "alert": "OK",
      "vis_m": 5000,
      "fzfg": false,
      "metar_trigger": false,
      "taf_trigger": false,
      "metar": "METAR LOWW 101150Z 04008KT 5000 BR FEW007 SCT020 BKN042 M03/M05 Q1002 NOSIG",
      "taf": ""
    },
    {
      "icao": "LPFR",
      "alert": "OK",
      "vis_m": 9999,
      "fzfg": false,
      "metar_trigger": false,
      "taf_trigger": false,
      "metar": "METAR LPFR 101200Z 35005KT 310V020 9999 FEW014 15/08 Q1030",
      "taf": "TAF LPFR 101100Z 1012/1112 34005KT 9999 FEW025"
    },
    {
      "icao": "LPMA",
      "alert": "OK",
      "vis_m": 9999,
      "fzfg": false,
      "metar_trigger": false,
      "taf_trigger": false,
      "metar": "METAR LPMA 101200Z 04006KT 350V090 9999 SCT014 18/12 Q1032",
      "taf": "TAF LPMA 101100Z 1012/1112 01007KT 9999 SCT015"
    },
    {
      "icao": "LPPR",
      "alert": "OK",
      "vis_m": 9999,
      "fzfg": false,
      "metar_trigger": false,
      "taf_trigger": false,
      "metar": "METAR LPPR 101200Z 15004KT 120V180 9999 FEW015 SCT044 11/08 Q1030",
      "taf": "TAF LPPR 101100Z 1012/1112 19010KT 9999 FEW020 BKN035"
    },
    {
      "icao": "LPPS",
      "alert": "OK",
      "vis_m": 9999,
      "fzfg": false,
      "metar_trigger": false,
      "taf_trigger": false,
      "metar": "METAR LPPS 101200Z 09007KT 9999 SCT015 17/12 Q1032",
      "taf": "TAF LPPS 101100Z 1012/1118 02008KT 9999 SCT015 SCT030"
    },
    {
      "icao": "LPPT",
      "alert": "OK",
      "vis_m": 9999,
      "fzfg": false,
      "metar_trigger": false,
      "taf_trigger": false,
      "metar": "METAR LPPT 101200Z 03003KT 340V070 9999 FEW028 BKN036 13/09 Q1031",
      "taf": "TAF LPPT 101100Z 1012/1118 29005KT 9999 FEW020 BKN035"
    },
    {
      "icao": "LQBK",
      "alert": "OK",
      "vis_m": 450,
      "fzfg": false,
      "metar_trigger": false,
      "taf_trigger": false,
      "metar": "METAR LQBK 101200Z 34004KT 0450 R16/1500U -SN BCFG BKN002 OVC005 01/01 Q1001 TEMPO 0700",
      "taf": "TAF LQBK 101100Z 1012/1112 30005KT 7000 SCT010 BKN030 TX01/1012Z TNM07/1105Z"
    },
    {
      "icao": "LQSA",
      "alert": "OK",
      "vis_m": 1000,
      "fzfg": false,
      "metar_trigger": false,
      "taf_trigger": false,
      "metar": "METAR LQSA 101200Z 00000KT 1000 R11/P2000N -SN BR FEW004 BKN008 OVC030 01/01 Q0996 NOSIG",
      "taf": "TAF LQSA 101100Z 1012/1112 29006KT 1000 SN BR BKN008 OVC020 TX00/1012Z TNM07/1107Z"
    },
    {
      "icao": "LQTZ",
      "alert": "OK",
      "vis_m": 350,
      "fzfg": false,
      "metar_trigger": false,
      "taf_trigger": false,
      "metar": "METAR LQTZ 101200Z 28002KT 0350 R09/0450N -RASN FG BKN001 OVC005 01/01 Q0999",
      "taf": "TAF LQTZ 101100Z 1012/1112 27006KT 3000 BR BKN005 OVC012 TX02/1013Z TNM06/1106Z"
    },
    {
      "icao": "LRBC",
      "alert": "OK",
      "vis_m": 9999,
      "fzfg": false,
      "metar_trigger": false,
      "taf_trigger": false,
      "metar": "METAR LRBC 101200Z 32004KT 9999 BKN047 M01/M06 Q1000",
      "taf": "TAF LRBC 101100Z 1012/1021 VRB04KT 9999 BKN050"
    },
    {
      "icao": "LRBS",
      "alert": "OK",
      "vis_m": 9999,
      "fzfg": false,
      "metar_trigger": false,
      "taf_trigger": false,
      "metar": "METAR LRBS 101200Z 24004KT 200V290 9999 FEW020 04/00 Q0999 NOSIG",
      "taf": "TAF LRBS 101100Z 1012/1112 VRB04KT 9999 BKN020"
    },
    {
      "icao": "LRBV",
      "alert": "OK",
      "vis_m": 6000,
      "fzfg": false,
      "metar_trigger": false,
      "taf_trigger": false,
      "metar": "METAR LRBV 101200Z 00000KT 6000 FEW008 OVC023 M02/M04 Q0998",
      "taf": "TAF LRBV 101100Z 1012/1021 VRB04KT 5000 BR OVC025"
    },
    {
      "icao": "LRCL",
      "alert": "OK",
      "vis_m": 9999,
      "fzfg": false,
      "metar_trigger": false,
      "taf_trigger": false,
      "metar": "METAR LRCL 101200Z 05005KT 9999 OVC021 M03/M06 Q1000",
      "taf": "TAF LRCL 101100Z 1012/1021 VRB04KT 9999 OVC025"
    },
    {
      "icao": "LRCV",
      "alert": "OK",
      "vis_m": 9000,
      "fzfg": false,
      "metar_trigger": false,
      "taf_trigger": false,
      "metar": "METAR LRCV 101200Z VRB01KT 9000 3000S SCT007 BKN009 01/M00 Q0998",
      "taf": "TAF LRCV 101100Z 1012/1021 VRB04KT 9999 SCT035"
    },
    {
      "icao": "LRIA",
      "alert": "OK",
      "vis_m": 9999,
      "fzfg": false,
      "metar_trigger": false,
      "taf_trigger": false,
      "metar": "METAR LRIA 101200Z 32004KT 260V030 CAVOK M01/M06 Q1000",
      "taf": "TAF LRIA 101100Z 1012/1021 VRB04KT CAVOK"
    },
    {
      "icao": "LROP",
      "alert": "OK",
      "vis_m": 9999,
      "fzfg": false,
      "metar_trigger": false,
      "taf_trigger": false,
      "metar": "METAR LROP 101200Z 25004KT 220V280 9999 SCT013 04/M00 Q0999 NOSIG",
      "taf": "TAF LROP 101100Z 1012/1112 VRB04KT 9999 BKN020"
    },
    {
      "icao": "LRSB",
      "alert": "OK",
      "vis_m": 9000,
      "fzfg": false,
      "metar_trigger": false,
      "taf_trigger": false,
      "metar": "METAR LRSB 101200Z 35001KT 9000 OVC014 M00/M03 Q0998",
      "taf": "TAF LRSB 101100Z 1012/1112 VRB04KT 9999 BKN020"
    },
    {
      "icao": "LRSM",
      "alert": "OK",
      "vis_m": 9999,
      "fzfg": false,
      "metar_trigger": false,
      "taf_trigger": false,
      "metar": "METAR LRSM 101200Z AUTO VRB01KT 9999 OVC034/// M01/M05 Q1001",
      "taf": ""
    },
    {
      "icao": "LRSV",
      "alert": "OK",
      "vis_m": 9999,
      "fzfg": false,
      "metar_trigger": false,
      "taf_trigger": false,
      "metar": "METAR LRSV 101200Z 03007KT CAVOK M05/M10 Q0998",
      "taf": "TAF LRSV 101100Z 1012/1021 03008KT CAVOK"
    },
    {
      "icao": "LRTM",
      "alert": "OK",
      "vis_m": 8000,
      "fzfg": false,
      "metar_trigger": false,
      "taf_trigger": false,
      "metar": "METAR LRTM 101200Z VRB02KT 8000 FEW022 OVC028 M03/M06 Q1000",
      "taf": "TAF LRTM 101100Z 1012/1021 VRB04KT 9999 SCT020 BKN030"
    },
    {
      "icao": "LRTR",
      "alert": "OK",
      "vis_m": 1500,
      "fzfg": false,
      "metar_trigger": false,
      "taf_trigger": false,
      "metar": "METAR LRTR 101200Z 36008KT 1500 BR SCT001 BKN002 OVC003 00/00 Q1000",
      "taf": "TAF LRTR 101100Z 1012/1112 VRB04KT 1500 BR BKN002"
    },
    {
      "icao": "LTAC",
      "alert": "OK",
      "vis_m": 4000,
      "fzfg": false,
      "metar_trigger": false,
      "taf_trigger": false,
      "metar": "SPECI LTAC 101209Z 02004KT 4000 -RASN BR FEW010 BKN023 BKN090 01/M02 Q1009 NOSIG",
      "taf": ""
    },
    {
      "icao": "LTFM",
      "alert": "OK",
      "vis_m": 9999,
      "fzfg": false,
      "metar_trigger": false,
      "taf_trigger": false,
      "metar": "METAR LTFM 101150Z 21026KT 9999 SCT035 BKN090 15/09 Q0999 NOSIG RMK RWY17L 21024KT RWY34L 20025KT RWY16R 21021G31KT RWY36 21024G34KT RWY18 21023KT",
      "taf": ""
    },
    {
      "icao": "LUKK",
      "alert": "OK",
      "vis_m": 9000,
      "fzfg": false,
      "metar_trigger": false,
      "taf_trigger": false,
      "metar": "METAR LUKK 101200Z 08002KT 9000 NSC M03/M05 Q1000 NOSIG",
      "taf": "TAF LUKK 101105Z 1012/1112 VRB05KT CAVOK"
    },
    {
      "icao": "LWOH",
      "alert": "OK",
      "vis_m": 9999,
      "fzfg": false,
      "metar_trigger": false,
      "taf_trigger": false,
      "metar": "METAR LWOH 101150Z 18008KT 140V210 9999 -RA SCT010 OVC035 06/04 Q0996",
      "taf": "TAF LWOH 101125Z 1012/1112 15015KT 9999 -RA SCT010 OVC035"
    },
    {
      "icao": "LWSK",
      "alert": "OK",
      "vis_m": 9999,
      "fzfg": false,
      "metar_trigger": false,
      "taf_trigger": false,
      "metar": "METAR LWSK 101150Z VRB02KT 9999 FEW020 SCT046 OVC080 02/M00 Q0997 NOSIG",
      "taf": "TAF LWSK 101125Z 1012/1112 VRB02KT 9999 FEW030 SCT045"
    },
    {
      "icao": "LYBE",
      "alert": "OK",
      "vis_m": 200,
      "fzfg": false,
      "metar_trigger": false,
      "taf_trigger": false,
      "metar": "METAR LYBE 101200Z 36007KT 0200 R12L/0200N R30R/0225N FG VV001 00/00 Q1000 NOSIG",
      "taf": "TAF LYBE 101100Z 1012/1112 36007KT 0300 FG VV001 TX01/1013Z TNM04/1106Z"
    },
    {
      "icao": "LYNI",
      "alert": "OK",
      "vis_m": 200,
      "fzfg": false,
      "metar_trigger": false,
      "taf_trigger": false,
      "metar": "METAR LYNI 101200Z 33003KT 290V350 0200 R29/0225N R11/P2000N FG -RA FEW003 SCT007 OVC023 02/02 Q0997 TEMPO 0800",
      "taf": "TAF LYNI 101100Z 1012/1112 07004KT 4000 BR SCT015 BKN030 TX02/1012Z TNM03/1106Z"
    },
    {
      "icao": "LYPG",
      "alert": "OK",
      "vis_m": 8000,
      "fzfg": false,
      "metar_trigger": false,
      "taf_trigger": false,
      "metar": "METAR LYPG 101200Z 10007KT 8000 -SHRA FEW006 SCT030TCU BKN053 08/06 Q0995 TEMPO 20020KT 2000 SHRA",
      "taf": "TAF LYPG 101100Z 1012/1112 16005KT 7000 RA FEW010 SCT030 OVC070 TX08/1012Z TN04/1105Z"
    },
    {
      "icao": "LZIB",
      "alert": "OK",
      "vis_m": 7000,
      "fzfg": false,
      "metar_trigger": false,
      "taf_trigger": false,
      "metar": "METAR LZIB 101200Z VRB02KT 7000 FEW007 SCT018 BKN030 M02/M05 Q1002 NOSIG",
      "taf": "TAF LZIB 101115Z 1012/1112 06004KT 9999 SCT010 BKN035"
    },
    {
      "icao": "LZKZ",
      "alert": "OK",
      "vis_m": 7000,
      "fzfg": false,
      "metar_trigger": false,
      "taf_trigger": false,
      "metar": "METAR LZKZ 101200Z 09004KT 7000 BKN030 OVC040 M05/M08 Q1001 NOSIG",
      "taf": "TAF LZKZ 101115Z 1012/1112 03006KT 9999 SCT010 BKN030"
    },
    {
      "icao": "LZTT",
      "alert": "OK",
      "vis_m": 9999,
      "fzfg": false,
      "metar_trigger": false,
      "taf_trigger": false,
      "metar": "METAR LZTT 101200Z 07003KT 9999 -SN BKN023 M06/M09 Q0997 NOSIG",
      "taf": "TAF LZTT 101115Z 1012/1112 07005KT 9999 SCT015 BKN045"
    },
    {
      "icao": "OEJN",
      "alert": "OK",
      "vis_m": 9999,
      "fzfg": false,
      "metar_trigger": false,
      "taf_trigger": false,
      "metar": "METAR OEJN 101200Z 30010KT 9999 SCT040 29/15 Q1013 NOSIG",
      "taf": "TAF OEJN 101100Z 1012/1118 32010KT 9999 SCT040"
    },
    {
      "icao": "OEMA",
      "alert": "OK",
      "vis_m": 9999,
      "fzfg": false,
      "metar_trigger": false,
      "taf_trigger": false,
      "metar": "METAR OEMA 101200Z 32003KT CAVOK 24/02 Q1019 NOSIG",
      "taf": "TAF OEMA 101100Z 1012/1118 07010KT 7000 NSC"
    },
    {
      "icao": "OJAI",
      "alert": "OK",
      "vis_m": 4000,
      "fzfg": false,
      "metar_trigger": false,
      "taf_trigger": false,
      "metar": "METAR OJAI 101200Z 24012KT 4000 HZ BKN030 12/06 Q1021 NOSIG",
      "taf": "TAF OJAI 101100Z 1012/1118 26012KT 5000 HZ SCT030"
    },
    {
      "icao": "OMAA",
      "alert": "OK",
      "vis_m": 9999,
      "fzfg": false,
      "metar_trigger": false,
      "taf_trigger": false,
      "metar": "METAR OMAA 101200Z 31008KT 270V340 CAVOK 25/09 Q1017 NOSIG",
      "taf": "TAF OMAA 101100Z 1012/1118 VRB02KT 8000 FEW045"
    },
    {
      "icao": "OMDB",
      "alert": "OK",
      "vis_m": 9999,
      "fzfg": false,
      "metar_trigger": false,
      "taf_trigger": false,
      "metar": "METAR OMDB 101200Z 30007KT 250V340 CAVOK 24/13 Q1017 NOSIG",
      "taf": "TAF OMDB 101100Z 1012/1118 31010KT 8000 NSC"
    },
    {
      "icao": "UAAA",
      "alert": "OK",
      "vis_m": 2600,
      "fzfg": false,
      "metar_trigger": false,
      "taf_trigger": false,
      "metar": "METAR UAAA 101200Z 08001MPS 2600 BR FU NSC 00/M04 Q1017 NOSIG",
      "taf": "TAF UAAA 101104Z 1012/1112 24003MPS 1600 BR FU SCT011 BKN100 TX05/1109Z TNM05/1101Z"
    },
    {
      "icao": "UBBB",
      "alert": "OK",
      "vis_m": 9999,
      "fzfg": false,
      "metar_trigger": false,
      "taf_trigger": false,
      "metar": "METAR UBBB 101200Z 35016KT 9999 FEW013 FEW058CB OVC058 09/05 Q1011 NOSIG",
      "taf": "TAF UBBB 101055Z 1012/1112 33018KT 9999 SCT017 BKN030 TX09/1012Z TN04/1102Z"
    },
    {
      "icao": "UDSG",
      "alert": "OK",
      "vis_m": 9999,
      "fzfg": false,
      "metar_trigger": false,
      "taf_trigger": false,
      "metar": "METAR UDSG 101200Z 13002KT 9999 SCT040 M01/M06 Q1011 NOSIG",
      "taf": "TAF UDSG 101058Z 1012/1112 VRB06KT 5000 BR SCT030"
    },
    {
      "icao": "UDYZ",
      "alert": "OK",
      "vis_m": 2200,
      "fzfg": false,
      "metar_trigger": false,
      "taf_trigger": false,
      "metar": "METAR UDYZ 101200Z 15002KT 2200 R08/2000U BR SCT046 04/00 Q1011 NOSIG",
      "taf": "TAF UDYZ 101100Z 1012/1112 VRB04KT 1500 BR SCT030"
    },
    {
      "icao": "UGKO",
      "alert": "OK",
      "vis_m": 9999,
      "fzfg": false,
      "metar_trigger": false,
      "taf_trigger": false,
      "metar": "METAR UGKO 101200Z VRB01KT 9999 SCT080 09/02 Q1015 NOSIG",
      "taf": "TAF UGKO 101100Z 1012/1112 08010KT CAVOK TX15/1111Z TN03/1022Z"
    }
  ]
}