{
  "ts_utc": "2026-06-20T16:04:27Z",
  "threshold_m": 150,
  "source": "stations_override.txt (ICAO list) + aviationweather.gov (METAR/TAF raw)",
  "station_count": 159,
  "stations": [
    {
      "icao": "BIKF",
      "alert": "OK",
      "vis_m": 9999,
      "fzfg": false,
      "metar_trigger": false,
      "taf_trigger": false,
      "metar": "METAR BIKF 201600Z 02013KT CAVOK 14/04 Q1003",
      "taf": "TAF BIKF 201359Z 2015/2115 01014KT 9999 SCT035 TX13/2015Z TN06/2103Z"
    },
    {
      "icao": "BKPR",
      "alert": "OK",
      "vis_m": 9999,
      "fzfg": false,
      "metar_trigger": false,
      "taf_trigger": false,
      "metar": "METAR BKPR 201600Z 01008KT 9999 FEW080 30/11 Q1023 NOSIG",
      "taf": "TAF BKPR 201130Z 2012/2112 02008KT 9999 FEW050"
    },
    {
      "icao": "EBCI",
      "alert": "OK",
      "vis_m": 9999,
      "fzfg": false,
      "metar_trigger": false,
      "taf_trigger": false,
      "metar": "METAR EBCI 201550Z 28006KT 240V320 9999 FEW045 30/19 Q1021 NOSIG",
      "taf": "TAF EBCI 201114Z 2012/2118 29006KT CAVOK"
    },
    {
      "icao": "EDDB",
      "alert": "OK",
      "vis_m": 9999,
      "fzfg": false,
      "metar_trigger": false,
      "taf_trigger": false,
      "metar": "METAR EDDB 201550Z AUTO 28003KT 170V310 9999 SHRA FEW///TCU 24/21 Q1020 BECMG NSW",
      "taf": "TAF EDDB 201100Z 2012/2112 36010KT CAVOK"
    },
    {
      "icao": "EDDH",
      "alert": "OK",
      "vis_m": 9999,
      "fzfg": false,
      "metar_trigger": false,
      "taf_trigger": false,
      "metar": "METAR EDDH 201550Z AUTO 24005KT 210V280 CAVOK 31/18 Q1018 BECMG 31004KT",
      "taf": "TAF EDDH 201100Z 2012/2118 22006KT CAVOK"
    },
    {
      "icao": "EDDK",
      "alert": "OK",
      "vis_m": 9999,
      "fzfg": false,
      "metar_trigger": false,
      "taf_trigger": false,
      "metar": "METAR EDDK 201550Z AUTO 32007KT 290V360 CAVOK 32/21 Q1019 NOSIG",
      "taf": "TAF EDDK 201100Z 2012/2118 12005KT CAVOK"
    },
    {
      "icao": "EDDN",
      "alert": "OK",
      "vis_m": 9999,
      "fzfg": false,
      "metar_trigger": false,
      "taf_trigger": false,
      "metar": "METAR EDDN 201550Z AUTO VRB05KT CAVOK 35/13 Q1020 NOSIG",
      "taf": "TAF EDDN 201100Z 2012/2112 VRB03KT CAVOK"
    },
    {
      "icao": "EDDS",
      "alert": "OK",
      "vis_m": 9999,
      "fzfg": false,
      "metar_trigger": false,
      "taf_trigger": false,
      "metar": "METAR EDDS 201550Z AUTO VRB04KT CAVOK 34/12 Q1021 NOSIG",
      "taf": "TAF EDDS 201100Z 2012/2112 28006KT CAVOK"
    },
    {
      "icao": "EDFH",
      "alert": "OK",
      "vis_m": 9999,
      "fzfg": false,
      "metar_trigger": false,
      "taf_trigger": false,
      "metar": "METAR EDFH 201550Z 26009KT 230V300 CAVOK 31/10 Q1022",
      "taf": "TAF EDFH 201100Z 2012/2112 28007KT CAVOK"
    },
    {
      "icao": "EDJA",
      "alert": "OK",
      "vis_m": 9999,
      "fzfg": false,
      "metar_trigger": false,
      "taf_trigger": false,
      "metar": "METAR EDJA 201550Z 25006KT 200V290 CAVOK 31/12 Q1023",
      "taf": "TAF EDJA 201400Z 2015/2024 28010KT CAVOK"
    },
    {
      "icao": "EDLW",
      "alert": "OK",
      "vis_m": 9999,
      "fzfg": false,
      "metar_trigger": false,
      "taf_trigger": false,
      "metar": "METAR EDLW 201550Z 29003KT 220V030 CAVOK 30/22 Q1019",
      "taf": "TAF EDLW 201100Z 2012/2112 20008KT CAVOK"
    },
    {
      "icao": "EDNY",
      "alert": "OK",
      "vis_m": 9999,
      "fzfg": false,
      "metar_trigger": false,
      "taf_trigger": false,
      "metar": "METAR EDNY 201550Z 25005KT 210V290 CAVOK 32/15 Q1022",
      "taf": "TAF EDNY 201400Z 2015/2024 24006KT CAVOK"
    },
    {
      "icao": "EDSB",
      "alert": "OK",
      "vis_m": 9999,
      "fzfg": false,
      "metar_trigger": false,
      "taf_trigger": false,
      "metar": "METAR EDSB 201550Z 26003KT 180V320 CAVOK 35/14 Q1019",
      "taf": "TAF EDSB 201100Z 2012/2112 26006KT CAVOK"
    },
    {
      "icao": "EETN",
      "alert": "OK",
      "vis_m": 9999,
      "fzfg": false,
      "metar_trigger": false,
      "taf_trigger": false,
      "metar": "METAR EETN 201550Z 23010KT 190V260 9999 BKN040 25/17 Q1019 NOSIG",
      "taf": ""
    },
    {
      "icao": "EFTU",
      "alert": "OK",
      "vis_m": 9999,
      "fzfg": false,
      "metar_trigger": false,
      "taf_trigger": false,
      "metar": "METAR EFTU 201550Z AUTO 22013KT CAVOK 22/16 Q1017",
      "taf": "TAF EFTU 201430Z 2015/2115 20009KT CAVOK"
    },
    {
      "icao": "EGBB",
      "alert": "OK",
      "vis_m": 9999,
      "fzfg": false,
      "metar_trigger": false,
      "taf_trigger": false,
      "metar": "METAR EGBB 201550Z VRB03KT 9999 BKN048 22/13 Q1020",
      "taf": "TAF EGBB 201058Z 2012/2112 25006KT 9999 SCT040"
    },
    {
      "icao": "EGGP",
      "alert": "OK",
      "vis_m": 9999,
      "fzfg": false,
      "metar_trigger": false,
      "taf_trigger": false,
      "metar": "METAR EGGP 201550Z 30011KT CAVOK 19/09 Q1021",
      "taf": "TAF EGGP 201054Z 2012/2112 29010KT 9999 FEW040"
    },
    {
      "icao": "EGGW",
      "alert": "OK",
      "vis_m": 9999,
      "fzfg": false,
      "metar_trigger": false,
      "taf_trigger": false,
      "metar": "METAR EGGW 201550Z AUTO 26009KT 9999 SCT028 BKN036 BKN046 23/17 Q1020",
      "taf": "TAF EGGW 201057Z 2012/2112 23010KT 9999 SCT030"
    },
    {
      "icao": "EGKK",
      "alert": "OK",
      "vis_m": 9999,
      "fzfg": false,
      "metar_trigger": false,
      "taf_trigger": false,
      "metar": "METAR EGKK 201550Z 24006KT 9999 FEW021 SCT025 22/18 Q1021",
      "taf": "TAF EGKK 201053Z 2012/2118 22010KT 9999 SCT025"
    },
    {
      "icao": "EGNM",
      "alert": "OK",
      "vis_m": 9999,
      "fzfg": false,
      "metar_trigger": false,
      "taf_trigger": false,
      "metar": "METAR EGNM 201550Z 26009KT 230V300 9999 FEW046 20/09 Q1021",
      "taf": "TAF EGNM 201056Z 2012/2112 27008KT 9999 FEW035"
    },
    {
      "icao": "EGPD",
      "alert": "OK",
      "vis_m": 9999,
      "fzfg": false,
      "metar_trigger": false,
      "taf_trigger": false,
      "metar": "METAR EGPD 201550Z AUTO 31008KT 280V350 9999 NCD 19/06 Q1018",
      "taf": "TAF EGPD 201057Z 2012/2112 27008KT 9999 FEW045"
    },
    {
      "icao": "EGPF",
      "alert": "OK",
      "vis_m": 9999,
      "fzfg": false,
      "metar_trigger": false,
      "taf_trigger": false,
      "metar": "METAR EGPF 201550Z AUTO 26010KT 9999 BKN044 18/09 Q1020",
      "taf": "TAF EGPF 201054Z 2012/2112 27010KT 9999 SCT030"
    },
    {
      "icao": "EHBK",
      "alert": "OK",
      "vis_m": 9999,
      "fzfg": false,
      "metar_trigger": false,
      "taf_trigger": false,
      "metar": "METAR EHBK 201555Z AUTO 26006KT 200V330 9999 NSC 31/19 Q1020 NOSIG",
      "taf": "TAF EHBK 201112Z 2012/2118 25006KT CAVOK"
    },
    {
      "icao": "EHEH",
      "alert": "OK",
      "vis_m": 9999,
      "fzfg": false,
      "metar_trigger": false,
      "taf_trigger": false,
      "metar": "METAR EHEH 201555Z AUTO 29007KT 230V360 9999 NCD 29/19 Q1020 BLU BECMG 33008KT",
      "taf": "TAF EHEH 201113Z 2012/2118 27007KT CAVOK"
    },
    {
      "icao": "EKBI",
      "alert": "OK",
      "vis_m": 9999,
      "fzfg": false,
      "metar_trigger": false,
      "taf_trigger": false,
      "metar": "METAR EKBI 201551Z 29012KT 9999 FEW026 25/19 Q1018",
      "taf": "TAF EKBI 201427Z 2015/2115 23012KT 9999 SCT025"
    },
    {
      "icao": "EKCH",
      "alert": "OK",
      "vis_m": 9999,
      "fzfg": false,
      "metar_trigger": false,
      "taf_trigger": false,
      "metar": "METAR EKCH 201550Z AUTO 18009KT 9999 NCD 23/18 Q1019 NOSIG",
      "taf": "TAF EKCH 201427Z 2015/2115 18012KT 9999 FEW040"
    },
    {
      "icao": "ENAL",
      "alert": "OK",
      "vis_m": 9999,
      "fzfg": false,
      "metar_trigger": false,
      "taf_trigger": false,
      "metar": "METAR ENAL 201550Z 25012KT 9999 FEW028 SCT056 14/11 Q1012",
      "taf": "TAF ENAL 201400Z 2015/2024 24015KT 9999 FEW010 BKN040"
    },
    {
      "icao": "ENBR",
      "alert": "OK",
      "vis_m": 9999,
      "fzfg": false,
      "metar_trigger": false,
      "taf_trigger": false,
      "metar": "METAR ENBR 201550Z 24004KT 210V270 9999 BKN008 13/12 Q1016 BECMG SCT008 BKN020 RMK WIND 1200FT 27009KT",
      "taf": ""
    },
    {
      "icao": "ENGM",
      "alert": "OK",
      "vis_m": 9999,
      "fzfg": false,
      "metar_trigger": false,
      "taf_trigger": false,
      "metar": "METAR ENGM 201550Z 20017KT 9999 SCT023 22/16 Q1011 TEMPO 4000 SHRA SCT030CB",
      "taf": "TAF ENGM 201100Z 2012/2112 20010KT 9999 FEW010 BKN020"
    },
    {
      "icao": "ENHD",
      "alert": "OK",
      "vis_m": 8000,
      "fzfg": false,
      "metar_trigger": false,
      "taf_trigger": false,
      "metar": "METAR ENHD 201550Z 25008KT 8000 OVC002 13/12 Q1017",
      "taf": "TAF ENHD 201400Z 2015/2022 26008KT 8000 FEW003 SCT010"
    },
    {
      "icao": "ENTC",
      "alert": "OK",
      "vis_m": 9999,
      "fzfg": false,
      "metar_trigger": false,
      "taf_trigger": false,
      "metar": "METAR ENTC 201550Z 28010KT 9999 FEW019 OVC030 12/10 Q1006 NOSIG RMK WIND 2600FT 23012KT",
      "taf": ""
    },
    {
      "icao": "ENTO",
      "alert": "OK",
      "vis_m": 9999,
      "fzfg": false,
      "metar_trigger": false,
      "taf_trigger": false,
      "metar": "METAR ENTO 201550Z 21016KT 9999 FEW023 21/16 Q1013 NOSIG",
      "taf": "TAF ENTO 201100Z 2012/2112 18007KT 9999 SCT009"
    },
    {
      "icao": "ENVA",
      "alert": "OK",
      "vis_m": 9999,
      "fzfg": false,
      "metar_trigger": false,
      "taf_trigger": false,
      "metar": "METAR ENVA 201550Z 27006KT 9999 -RA FEW010 SCT022CB BKN031 13/12 Q1012 RMK WIND 670FT 28010KT",
      "taf": "TAF ENVA 201100Z 2012/2112 27012KT 9999 BKN055"
    },
    {
      "icao": "ENZV",
      "alert": "OK",
      "vis_m": 2900,
      "fzfg": false,
      "metar_trigger": false,
      "taf_trigger": false,
      "metar": "METAR ENZV 201550Z 26006KT 2900 BR VV003 14/13 Q1017 REDZ BECMG 9999 NSW SCT003 BKN015",
      "taf": ""
    },
    {
      "icao": "EPGD",
      "alert": "OK",
      "vis_m": 9999,
      "fzfg": false,
      "metar_trigger": false,
      "taf_trigger": false,
      "metar": "METAR EPGD 201600Z 15008KT CAVOK 29/19 Q1020",
      "taf": "TAF EPGD 201130Z 2012/2112 17010KT CAVOK"
    },
    {
      "icao": "EPKK",
      "alert": "OK",
      "vis_m": 9999,
      "fzfg": false,
      "metar_trigger": false,
      "taf_trigger": false,
      "metar": "METAR EPKK 201600Z 15004KT CAVOK 29/16 Q1021",
      "taf": "TAF EPKK 201430Z 2015/2115 14005KT CAVOK"
    },
    {
      "icao": "EPKT",
      "alert": "OK",
      "vis_m": 9999,
      "fzfg": false,
      "metar_trigger": false,
      "taf_trigger": false,
      "metar": "METAR EPKT 201600Z 11004KT CAVOK 30/18 Q1021",
      "taf": "TAF EPKT 201130Z 2012/2112 14010KT CAVOK"
    },
    {
      "icao": "EPLB",
      "alert": "OK",
      "vis_m": 9999,
      "fzfg": false,
      "metar_trigger": false,
      "taf_trigger": false,
      "metar": "METAR EPLB 201600Z 15004KT CAVOK 30/13 Q1022",
      "taf": "TAF EPLB 201130Z 2012/2112 12005KT CAVOK"
    },
    {
      "icao": "EPMO",
      "alert": "OK",
      "vis_m": 9999,
      "fzfg": false,
      "metar_trigger": false,
      "taf_trigger": false,
      "metar": "METAR EPMO 201600Z 18004KT 110V220 CAVOK 30/16 Q1020",
      "taf": "TAF EPMO 201130Z 2012/2112 14008KT CAVOK"
    },
    {
      "icao": "EPPO",
      "alert": "OK",
      "vis_m": 9999,
      "fzfg": false,
      "metar_trigger": false,
      "taf_trigger": false,
      "metar": "METAR EPPO 201600Z 25004KT CAVOK 30/20 Q1020",
      "taf": "TAF EPPO 201130Z 2012/2112 VRB05KT CAVOK"
    },
    {
      "icao": "EPRA",
      "alert": "OK",
      "vis_m": 9999,
      "fzfg": false,
      "metar_trigger": false,
      "taf_trigger": false,
      "metar": "METAR EPRA 201600Z 14007KT 150V210 CAVOK 30/15 Q1021",
      "taf": "TAF EPRA 201430Z 2015/2024 12006KT CAVOK"
    },
    {
      "icao": "EPRZ",
      "alert": "OK",
      "vis_m": 9999,
      "fzfg": false,
      "metar_trigger": false,
      "taf_trigger": false,
      "metar": "METAR EPRZ 201600Z 11005KT 070V140 CAVOK 29/15 Q1021",
      "taf": "TAF EPRZ 201130Z 2012/2112 VRB04KT CAVOK"
    },
    {
      "icao": "EPSC",
      "alert": "OK",
      "vis_m": 9999,
      "fzfg": false,
      "metar_trigger": false,
      "taf_trigger": false,
      "metar": "METAR EPSC 201600Z 26005KT 9999 FEW038TCU 27/20 Q1020",
      "taf": "TAF EPSC 201130Z 2012/2112 18005KT CAVOK"
    },
    {
      "icao": "EPSY",
      "alert": "OK",
      "vis_m": 9999,
      "fzfg": false,
      "metar_trigger": false,
      "taf_trigger": false,
      "metar": "METAR EPSY 201600Z 18006KT 140V210 CAVOK 29/14 Q1021",
      "taf": "TAF EPSY 201430Z 2015/2024 17006KT CAVOK"
    },
    {
      "icao": "EPWA",
      "alert": "OK",
      "vis_m": 9999,
      "fzfg": false,
      "metar_trigger": false,
      "taf_trigger": false,
      "metar": "METAR EPWA 201600Z 13005KT 080V190 CAVOK 30/15 Q1020 NOSIG",
      "taf": "TAF EPWA 201430Z 2015/2115 12005KT CAVOK"
    },
    {
      "icao": "EPWR",
      "alert": "OK",
      "vis_m": 9999,
      "fzfg": false,
      "metar_trigger": false,
      "taf_trigger": false,
      "metar": "METAR EPWR 201600Z 32016G31KT 9999 TS BKN046CB 29/19 Q1019",
      "taf": "TAF EPWR 201430Z 2015/2115 VRB05KT CAVOK"
    },
    {
      "icao": "ESGG",
      "alert": "OK",
      "vis_m": 9999,
      "fzfg": false,
      "metar_trigger": false,
      "taf_trigger": false,
      "metar": "METAR ESGG 201550Z 20013KT 9999 BKN037 21/17 Q1017",
      "taf": "TAF ESGG 201430Z 2015/2115 20012KT 9999 SCT020"
    },
    {
      "icao": "ESKN",
      "alert": "OK",
      "vis_m": 9999,
      "fzfg": false,
      "metar_trigger": false,
      "taf_trigger": false,
      "metar": "METAR ESKN 201550Z COR 17005KT 9999 FEW006 BKN120 20/20 Q1016",
      "taf": "TAF ESKN 201430Z 2015/2115 17012KT CAVOK"
    },
    {
      "icao": "ESMS",
      "alert": "OK",
      "vis_m": 9999,
      "fzfg": false,
      "metar_trigger": false,
      "taf_trigger": false,
      "metar": "METAR ESMS 201550Z 21009KT 180V240 CAVOK 25/18 Q1019",
      "taf": "TAF ESMS 201427Z 2015/2115 22010KT 9999 FEW040"
    },
    {
      "icao": "ESSA",
      "alert": "OK",
      "vis_m": 9999,
      "fzfg": false,
      "metar_trigger": false,
      "taf_trigger": false,
      "metar": "METAR ESSA 201550Z 19009KT 9999 SCT035CB 19/17 Q1015 NOSIG",
      "taf": "TAF ESSA 201430Z 2015/2115 20012KT 9999 SCT045"
    },
    {
      "icao": "EYKA",
      "alert": "OK",
      "vis_m": 9999,
      "fzfg": false,
      "metar_trigger": false,
      "taf_trigger": false,
      "metar": "METAR EYKA 201550Z 25003KT 170V300 CAVOK 27/14 Q1022",
      "taf": "TAF EYKA 201100Z 2012/2112 VRB03KT CAVOK"
    },
    {
      "icao": "EYPA",
      "alert": "OK",
      "vis_m": 9999,
      "fzfg": false,
      "metar_trigger": false,
      "taf_trigger": false,
      "metar": "METAR EYPA 201550Z 19009KT 170V240 CAVOK 27/15 Q1021",
      "taf": "TAF EYPA 201100Z 2012/2112 VRB03KT CAVOK"
    },
    {
      "icao": "EYVI",
      "alert": "OK",
      "vis_m": 9999,
      "fzfg": false,
      "metar_trigger": false,
      "taf_trigger": false,
      "metar": "METAR EYVI 201550Z VRB04KT CAVOK 27/14 Q1023 NOSIG",
      "taf": "TAF EYVI 201100Z 2012/2112 VRB05KT CAVOK"
    },
    {
      "icao": "GCFV",
      "alert": "OK",
      "vis_m": 9999,
      "fzfg": false,
      "metar_trigger": false,
      "taf_trigger": false,
      "metar": "METAR GCFV 201530Z 05014KT 9999 FEW027 23/17 Q1016",
      "taf": "TAF GCFV 201400Z 2015/2115 06012KT 9999 FEW020 TX26/2114Z TN20/2106Z"
    },
    {
      "icao": "GCLP",
      "alert": "OK",
      "vis_m": 9999,
      "fzfg": false,
      "metar_trigger": false,
      "taf_trigger": false,
      "metar": "METAR GCLP 201530Z 03023KT 9999 FEW035 24/16 Q1017 NOSIG",
      "taf": "TAF GCLP 201400Z 2015/2115 02020KT 9999 FEW020 TX26/2114Z TN20/2106Z"
    },
    {
      "icao": "GCTS",
      "alert": "OK",
      "vis_m": 9999,
      "fzfg": false,
      "metar_trigger": false,
      "taf_trigger": false,
      "metar": "METAR GCTS 201530Z 10016KT 070V130 9999 FEW020 25/17 Q1017 NOSIG",
      "taf": "TAF GCTS 201400Z 2015/2115 09015KT 9999 FEW020 TX26/2114Z TN19/2106Z"
    },
    {
      "icao": "GMAD",
      "alert": "OK",
      "vis_m": 8000,
      "fzfg": false,
      "metar_trigger": false,
      "taf_trigger": false,
      "metar": "METAR GMAD 201600Z 23013KT 8000 FEW026 26/17 Q1013 NOSIG",
      "taf": "TAF GMAD 201100Z 2012/2118 28012KT 8000 SCT016"
    },
    {
      "icao": "GMMN",
      "alert": "OK",
      "vis_m": 9999,
      "fzfg": false,
      "metar_trigger": false,
      "taf_trigger": false,
      "metar": "METAR GMMN 201600Z 31010KT 280V360 9999 SCT023 27/20 Q1013 NOSIG",
      "taf": "TAF GMMN 200500Z 2006/2112 24006KT 9999 BKN016"
    },
    {
      "icao": "GMMX",
      "alert": "OK",
      "vis_m": 9999,
      "fzfg": false,
      "metar_trigger": false,
      "taf_trigger": false,
      "metar": "METAR GMMX 201600Z 27006KT 190V330 CAVOK 33/18 Q1013 NOSIG",
      "taf": "TAF GMMX 201100Z 2012/2118 06006KT 8000 NSC"
    },
    {
      "icao": "HEGN",
      "alert": "OK",
      "vis_m": 9999,
      "fzfg": false,
      "metar_trigger": false,
      "taf_trigger": false,
      "metar": "METAR HEGN 201500Z 35014KT CAVOK 33/14 Q1008 NOSIG",
      "taf": ""
    },
    {
      "icao": "HEMA",
      "alert": "OK",
      "vis_m": 9999,
      "fzfg": false,
      "metar_trigger": false,
      "taf_trigger": false,
      "metar": "METAR HEMA 201500Z 35012KT CAVOK 34/13 Q1007 NOSIG",
      "taf": ""
    },
    {
      "icao": "HESH",
      "alert": "OK",
      "vis_m": 9999,
      "fzfg": false,
      "metar_trigger": false,
      "taf_trigger": false,
      "metar": "METAR HESH 201500Z 07005KT CAVOK 37/15 Q1007 NOSIG",
      "taf": ""
    },
    {
      "icao": "HESX",
      "alert": "OK",
      "vis_m": 9999,
      "fzfg": false,
      "metar_trigger": false,
      "taf_trigger": false,
      "metar": "METAR HESX 201500Z 02007KT CAVOK 32/13 Q1012 NOSIG",
      "taf": ""
    },
    {
      "icao": "LATI",
      "alert": "OK",
      "vis_m": 9999,
      "fzfg": false,
      "metar_trigger": false,
      "taf_trigger": false,
      "metar": "METAR LATI 201550Z 34009KT 310V010 9999 FEW110 30/16 Q1019 NOSIG",
      "taf": "TAF LATI 201100Z 2012/2112 32012KT CAVOK TX35/2112Z TN19/2104Z"
    },
    {
      "icao": "LBPD",
      "alert": "OK",
      "vis_m": 9999,
      "fzfg": false,
      "metar_trigger": false,
      "taf_trigger": false,
      "metar": "METAR LBPD 201600Z AUTO 07007KT 010V090 9999 FEW099/// 30/09 Q1021 NOSIG",
      "taf": "TAF LBPD 201100Z 2012/2112 08010KT 9999 SCT070"
    },
    {
      "icao": "LBSF",
      "alert": "OK",
      "vis_m": 9999,
      "fzfg": false,
      "metar_trigger": false,
      "taf_trigger": false,
      "metar": "METAR LBSF 201600Z AUTO 05009KT 020V080 9999 FEW011/// 27/13 Q1023 NOSIG",
      "taf": "TAF LBSF 201100Z 2012/2112 05010KT 9999 SCT070"
    },
    {
      "icao": "LBWN",
      "alert": "OK",
      "vis_m": 9999,
      "fzfg": false,
      "metar_trigger": false,
      "taf_trigger": false,
      "metar": "METAR LBWN 201600Z AUTO 13004KT 9999 NSC 25/12 Q1021 NOSIG",
      "taf": "TAF LBWN 201100Z 2012/2112 13010KT 9999 SCT045"
    },
    {
      "icao": "LCLK",
      "alert": "OK",
      "vis_m": 9999,
      "fzfg": false,
      "metar_trigger": false,
      "taf_trigger": false,
      "metar": "METAR LCLK 201600Z 21011KT 9999 FEW040 27/21 Q1012 NOSIG",
      "taf": "TAF LCLK 201130Z 2012/2112 19014KT 9999 FEW025"
    },
    {
      "icao": "LCPH",
      "alert": "OK",
      "vis_m": 9999,
      "fzfg": false,
      "metar_trigger": false,
      "taf_trigger": false,
      "metar": "METAR LCPH 201600Z 31009KT 250V320 9999 FEW020 27/20 Q1013 NOSIG",
      "taf": "TAF LCPH 201130Z 2012/2112 25008KT 9999 FEW020"
    },
    {
      "icao": "LEAL",
      "alert": "OK",
      "vis_m": 9999,
      "fzfg": false,
      "metar_trigger": false,
      "taf_trigger": false,
      "metar": "METAR LEAL 201530Z 08018KT CAVOK 31/20 Q1016 NOSIG",
      "taf": "TAF LEAL 201100Z 2012/2112 08014KT 9999 FEW049 TX32/2012Z TN23/2106Z"
    },
    {
      "icao": "LEBB",
      "alert": "OK",
      "vis_m": 9999,
      "fzfg": false,
      "metar_trigger": false,
      "taf_trigger": false,
      "metar": "METAR LEBB 201530Z 29012KT 250V320 CAVOK 26/21 Q1018 NOSIG",
      "taf": ""
    },
    {
      "icao": "LEBL",
      "alert": "OK",
      "vis_m": 9999,
      "fzfg": false,
      "metar_trigger": false,
      "taf_trigger": false,
      "metar": "METAR LEBL 201530Z 08010KT 060V120 CAVOK 30/15 Q1021 NOSIG",
      "taf": "TAF LEBL 201100Z 2012/2112 09009KT CAVOK TX31/2012Z TN23/2105Z"
    },
    {
      "icao": "LECH",
      "alert": "OK",
      "vis_m": 9999,
      "fzfg": false,
      "metar_trigger": false,
      "taf_trigger": false,
      "metar": "METAR LECH 201530Z AUTO 10006KT 060V140 CAVOK 31/08 Q1022",
      "taf": "TAF LECH 201100Z 2012/2112 10010KT CAVOK TX34/2012Z TN19/2106Z"
    },
    {
      "icao": "LEMD",
      "alert": "OK",
      "vis_m": 9999,
      "fzfg": false,
      "metar_trigger": false,
      "taf_trigger": false,
      "metar": "METAR LEMD 201530Z 16013G27KT 130V210 CAVOK 37/10 Q1016 NOSIG",
      "taf": ""
    },
    {
      "icao": "LEMG",
      "alert": "OK",
      "vis_m": 9999,
      "fzfg": false,
      "metar_trigger": false,
      "taf_trigger": false,
      "metar": "METAR LEMG 201530Z 13010KT CAVOK 29/18 Q1014 NOSIG",
      "taf": "TAF LEMG 201100Z 2012/2112 14010KT CAVOK TX31/2014Z TN24/2106Z"
    },
    {
      "icao": "LEVC",
      "alert": "OK",
      "vis_m": 9999,
      "fzfg": false,
      "metar_trigger": false,
      "taf_trigger": false,
      "metar": "METAR LEVC 201530Z 09011KT 050V120 CAVOK 31/14 Q1019 NOSIG",
      "taf": "TAF LEVC 201100Z 2012/2112 08012KT CAVOK TX32/2012Z TN21/2106Z"
    },
    {
      "icao": "LEXJ",
      "alert": "OK",
      "vis_m": 9999,
      "fzfg": false,
      "metar_trigger": false,
      "taf_trigger": false,
      "metar": "METAR LEXJ 201530Z 04005KT 9999 SCT016 BKN025 22/20 Q1018",
      "taf": "TAF LEXJ 201400Z 2015/2115 06009KT 9999 SCT016 TX35/2112Z TN19/2105Z"
    },
    {
      "icao": "LEZG",
      "alert": "OK",
      "vis_m": 9999,
      "fzfg": false,
      "metar_trigger": false,
      "taf_trigger": false,
      "metar": "METAR LEZG 201530Z 10016KT 080V140 CAVOK 37/10 Q1017 TEMPO 3000 TSRA FEW070CB",
      "taf": "TAF LEZG 201100Z 2012/2112 11012KT 9999 FEW070 TX38/2015Z TN23/2106Z"
    },
    {
      "icao": "LEZL",
      "alert": "OK",
      "vis_m": 9999,
      "fzfg": false,
      "metar_trigger": false,
      "taf_trigger": false,
      "metar": "METAR LEZL 201530Z 22010KT 160V270 CAVOK 37/19 Q1011 NOSIG",
      "taf": "TAF LEZL 201400Z 2015/2115 VRB03KT CAVOK TX38/2015Z TN23/2106Z"
    },
    {
      "icao": "LFBD",
      "alert": "OK",
      "vis_m": 9999,
      "fzfg": false,
      "metar_trigger": false,
      "taf_trigger": false,
      "metar": "METAR LFBD 201600Z AUTO 32007KT 280V020 CAVOK 35/17 Q1017 NOSIG",
      "taf": "TAF LFBD 201100Z 2012/2118 VRB03KT CAVOK TX41/2116Z TN23/2104Z"
    },
    {
      "icao": "LFLL",
      "alert": "OK",
      "vis_m": 9999,
      "fzfg": false,
      "metar_trigger": false,
      "taf_trigger": false,
      "metar": "METAR LFLL 201600Z 20007KT 160V230 CAVOK 35/10 Q1020 NOSIG",
      "taf": "TAF LFLL 201100Z 2012/2118 17009KT CAVOK"
    },
    {
      "icao": "LFLS",
      "alert": "OK",
      "vis_m": 9999,
      "fzfg": false,
      "metar_trigger": false,
      "taf_trigger": false,
      "metar": "METAR LFLS 201600Z AUTO 22009KT 180V250 CAVOK 34/10 Q1022 NOSIG",
      "taf": "TAF LFLS 201400Z 2015/2115 08005KT CAVOK"
    },
    {
      "icao": "LFMN",
      "alert": "OK",
      "vis_m": 9999,
      "fzfg": false,
      "metar_trigger": false,
      "taf_trigger": false,
      "metar": "METAR LFMN 201600Z 12005KT CAVOK 28/23 Q1021 NOSIG",
      "taf": "TAF LFMN 201400Z 2015/2121 14004KT CAVOK"
    },
    {
      "icao": "LFOB",
      "alert": "OK",
      "vis_m": 9999,
      "fzfg": false,
      "metar_trigger": false,
      "taf_trigger": false,
      "metar": "METAR LFOB 201600Z AUTO 22009KT 190V260 CAVOK 34/17 Q1018 TEMPO VRB15G25KT 2000 -TSRA SCT015 BKN020CB",
      "taf": "TAF LFOB 201100Z 2012/2112 33006KT CAVOK"
    },
    {
      "icao": "LFPO",
      "alert": "OK",
      "vis_m": 9999,
      "fzfg": false,
      "metar_trigger": false,
      "taf_trigger": false,
      "metar": "METAR LFPO 201600Z 23010KT 9999 FEW080 FEW083CB 36/13 Q1018 TEMPO VRB15G30KT -TSRA SCT090CB",
      "taf": "TAF LFPO 201100Z 2012/2118 21006KT CAVOK"
    },
    {
      "icao": "LFSB",
      "alert": "OK",
      "vis_m": 9999,
      "fzfg": false,
      "metar_trigger": false,
      "taf_trigger": false,
      "metar": "METAR LFSB 201600Z AUTO 29003KT 250V040 CAVOK 36/12 Q1020 TEMPO FEW090CB",
      "taf": "TAF LFSB 201100Z 2012/2112 25005KT CAVOK"
    },
    {
      "icao": "LGAV",
      "alert": "OK",
      "vis_m": 9999,
      "fzfg": false,
      "metar_trigger": false,
      "taf_trigger": false,
      "metar": "METAR LGAV 201550Z 04016KT 9999 FEW020 28/08 Q1019 NOSIG",
      "taf": "TAF LGAV 201100Z 2012/2112 02020G30KT 9999 FEW025"
    },
    {
      "icao": "LGTS",
      "alert": "OK",
      "vis_m": 9999,
      "fzfg": false,
      "metar_trigger": false,
      "taf_trigger": false,
      "metar": "METAR LGTS 201550Z 17010KT 9999 FEW025 30/13 Q1019 NOSIG",
      "taf": "TAF LGTS 201100Z 2012/2112 19013KT 9999 FEW030"
    },
    {
      "icao": "LHBP",
      "alert": "OK",
      "vis_m": 9999,
      "fzfg": false,
      "metar_trigger": false,
      "taf_trigger": false,
      "metar": "METAR LHBP 201600Z 10010KT 050V120 9999 FEW055CB BKN090 31/16 Q1020 TEMPO -TSRA",
      "taf": "TAF LHBP 201115Z 2012/2112 20007KT CAVOK"
    },
    {
      "icao": "LHDC",
      "alert": "OK",
      "vis_m": 9999,
      "fzfg": false,
      "metar_trigger": false,
      "taf_trigger": false,
      "metar": "METAR LHDC 201545Z AUTO 34006KT 9999 //////TCU 29/15 Q1021 NOSIG",
      "taf": "TAF LHDC 201415Z 2015/2024 VRB04KT CAVOK"
    },
    {
      "icao": "LIBD",
      "alert": "OK",
      "vis_m": 9999,
      "fzfg": false,
      "metar_trigger": false,
      "taf_trigger": false,
      "metar": "METAR LIBD 201550Z 05005KT 360V110 CAVOK 29/19 Q1020",
      "taf": "TAF LIBD 201100Z 2012/2112 05010KT CAVOK"
    },
    {
      "icao": "LIBG",
      "alert": "OK",
      "vis_m": 9999,
      "fzfg": false,
      "metar_trigger": false,
      "taf_trigger": false,
      "metar": "METAR LIBG 201550Z AUTO VRB04KT 9999 BKN078/// 34/13 Q1019",
      "taf": "TAF LIBG 201100Z 2012/2112 03010KT 9999 SCT030"
    },
    {
      "icao": "LIBP",
      "alert": "OK",
      "vis_m": 9999,
      "fzfg": false,
      "metar_trigger": false,
      "taf_trigger": false,
      "metar": "METAR LIBP 201550Z AUTO 05007KT 030V090 9999 NCD 31/16 Q1020",
      "taf": "TAF LIBP 201100Z 2012/2112 07010KT CAVOK"
    },
    {
      "icao": "LIBR",
      "alert": "OK",
      "vis_m": 9999,
      "fzfg": false,
      "metar_trigger": false,
      "taf_trigger": false,
      "metar": "METAR LIBR 201550Z 04005KT CAVOK 26/22 Q1019",
      "taf": "TAF LIBR 201100Z 2012/2112 35012KT CAVOK"
    },
    {
      "icao": "LICA",
      "alert": "OK",
      "vis_m": 9999,
      "fzfg": false,
      "metar_trigger": false,
      "taf_trigger": false,
      "metar": "METAR LICA 201550Z AUTO 24006KT 9999 FEW096/// 29/20 Q1020",
      "taf": "TAF LICA 201100Z 2012/2112 30010KT 9999 SCT015"
    },
    {
      "icao": "LICC",
      "alert": "OK",
      "vis_m": 9999,
      "fzfg": false,
      "metar_trigger": false,
      "taf_trigger": false,
      "metar": "METAR LICC 201550Z 06010KT 9999 SCT090 28/19 Q1020",
      "taf": "TAF LICC 201100Z 2012/2112 08014KT 9999 FEW040"
    },
    {
      "icao": "LICJ",
      "alert": "OK",
      "vis_m": 9999,
      "fzfg": false,
      "metar_trigger": false,
      "taf_trigger": false,
      "metar": "METAR LICJ 201550Z 05014KT CAVOK 30/17 Q1020",
      "taf": "TAF LICJ 201100Z 2012/2112 05014KT CAVOK"
    },
    {
      "icao": "LIMC",
      "alert": "OK",
      "vis_m": 9999,
      "fzfg": false,
      "metar_trigger": false,
      "taf_trigger": false,
      "metar": "METAR LIMC 201550Z 24006KT 210V270 CAVOK 33/18 Q1020 NOSIG",
      "taf": "TAF LIMC 201100Z 2012/2118 VRB05KT 9999 FEW050"
    },
    {
      "icao": "LIME",
      "alert": "OK",
      "vis_m": 9999,
      "fzfg": false,
      "metar_trigger": false,
      "taf_trigger": false,
      "metar": "METAR LIME 201550Z 20007KT 160V230 9999 SCT050 33/19 Q1020 NOSIG",
      "taf": "TAF LIME 201100Z 2012/2112 VRB05KT 9999 FEW060"
    },
    {
      "icao": "LIMF",
      "alert": "OK",
      "vis_m": 9999,
      "fzfg": false,
      "metar_trigger": false,
      "taf_trigger": false,
      "metar": "METAR LIMF 201550Z 31012KT 9999 FEW140 33/19 Q1021",
      "taf": "TAF LIMF 201100Z 2012/2112 VRB05KT 9999 FEW060"
    },
    {
      "icao": "LIMJ",
      "alert": "OK",
      "vis_m": 9999,
      "fzfg": false,
      "metar_trigger": false,
      "taf_trigger": false,
      "metar": "METAR LIMJ 201550Z 19004KT CAVOK 27/20 Q1020",
      "taf": "TAF LIMJ 201100Z 2012/2112 VRB05KT CAVOK"
    },
    {
      "icao": "LIPE",
      "alert": "OK",
      "vis_m": 9999,
      "fzfg": false,
      "metar_trigger": false,
      "taf_trigger": false,
      "metar": "METAR LIPE 201550Z 10007KT CAVOK 35/17 Q1018",
      "taf": "TAF LIPE 201100Z 2012/2112 VRB05KT 9999 FEW030"
    },
    {
      "icao": "LIPH",
      "alert": "OK",
      "vis_m": 9999,
      "fzfg": false,
      "metar_trigger": false,
      "taf_trigger": false,
      "metar": "METAR LIPH 201550Z 13008KT 110V170 CAVOK 33/20 Q1019",
      "taf": "TAF LIPH 201100Z 2012/2112 VRB05KT 9999 SCT030"
    },
    {
      "icao": "LIPQ",
      "alert": "OK",
      "vis_m": 9999,
      "fzfg": false,
      "metar_trigger": false,
      "taf_trigger": false,
      "metar": "METAR LIPQ 201550Z AUTO 27004KT 9999 NCD 33/16 Q1020",
      "taf": "TAF LIPQ 201100Z 2012/2112 20010KT CAVOK"
    },
    {
      "icao": "LIPR",
      "alert": "OK",
      "vis_m": 9999,
      "fzfg": false,
      "metar_trigger": false,
      "taf_trigger": false,
      "metar": "METAR LIPR 201550Z 11009KT CAVOK 29/20 Q1019",
      "taf": "TAF LIPR 201100Z 2012/2112 06010KT 9999 FEW030"
    },
    {
      "icao": "LIPX",
      "alert": "OK",
      "vis_m": 9999,
      "fzfg": false,
      "metar_trigger": false,
      "taf_trigger": false,
      "metar": "METAR LIPX 201550Z 22006KT 150V260 CAVOK 36/18 Q1019",
      "taf": "TAF LIPX 201100Z 2012/2112 VRB05KT CAVOK"
    },
    {
      "icao": "LIPY",
      "alert": "OK",
      "vis_m": 9999,
      "fzfg": false,
      "metar_trigger": false,
      "taf_trigger": false,
      "metar": "METAR LIPY 201550Z AUTO 07007KT 040V100 9999 NCD 32/18 Q1020",
      "taf": "TAF LIPY 201100Z 2012/2112 08010KT CAVOK"
    },
    {
      "icao": "LIPZ",
      "alert": "OK",
      "vis_m": 9999,
      "fzfg": false,
      "metar_trigger": false,
      "taf_trigger": false,
      "metar": "METAR LIPZ 201550Z 15008KT CAVOK 30/22 Q1019 NOSIG",
      "taf": "TAF LIPZ 201100Z 2012/2118 16010KT CAVOK"
    },
    {
      "icao": "LIRF",
      "alert": "OK",
      "vis_m": 9999,
      "fzfg": false,
      "metar_trigger": false,
      "taf_trigger": false,
      "metar": "METAR LIRF 201550Z 25008KT CAVOK 30/22 Q1020 NOSIG",
      "taf": "TAF LIRF 201100Z 2012/2118 26010KT CAVOK"
    },
    {
      "icao": "LIRN",
      "alert": "OK",
      "vis_m": 9999,
      "fzfg": false,
      "metar_trigger": false,
      "taf_trigger": false,
      "metar": "METAR LIRN 201550Z 20004KT 120V260 CAVOK 31/19 Q1020 NOSIG",
      "taf": "TAF LIRN 201100Z 2012/2112 24010KT CAVOK"
    },
    {
      "icao": "LIRP",
      "alert": "OK",
      "vis_m": 9999,
      "fzfg": false,
      "metar_trigger": false,
      "taf_trigger": false,
      "metar": "METAR LIRP 201545Z 29008KT CAVOK 31/12 Q1020 NOSIG",
      "taf": "TAF LIRP 201100Z 2012/2112 28010KT CAVOK"
    },
    {
      "icao": "LIRZ",
      "alert": "OK",
      "vis_m": 9999,
      "fzfg": false,
      "metar_trigger": false,
      "taf_trigger": false,
      "metar": "METAR LIRZ 201550Z AUTO 35006KT 310V060 9999 SCT100/// SCT110/// 37/12 Q1019",
      "taf": "TAF LIRZ 201100Z 2012/2112 28010KT 9999 FEW035"
    },
    {
      "icao": "LJLJ",
      "alert": "OK",
      "vis_m": 9999,
      "fzfg": false,
      "metar_trigger": false,
      "taf_trigger": false,
      "metar": "METAR LJLJ 201530Z 09005KT 070V140 9999 FEW050CB FEW060 SCT095 31/16 Q1021 NOSIG",
      "taf": "TAF LJLJ 201100Z 2012/2112 05008KT 9999 FEW060"
    },
    {
      "icao": "LKMT",
      "alert": "OK",
      "vis_m": 9999,
      "fzfg": false,
      "metar_trigger": false,
      "taf_trigger": false,
      "metar": "METAR LKMT 201600Z 25007KT CAVOK 31/17 Q1020 NOSIG",
      "taf": "TAF LKMT 201100Z 2012/2112 25008KT CAVOK"
    },
    {
      "icao": "LKPR",
      "alert": "OK",
      "vis_m": 9999,
      "fzfg": false,
      "metar_trigger": false,
      "taf_trigger": false,
      "metar": "METAR LKPR 201600Z 31008KT 280V360 CAVOK 30/17 Q1021 NOSIG",
      "taf": "TAF LKPR 201400Z 2015/2121 01006KT 9999 SCT049"
    },
    {
      "icao": "LLBG",
      "alert": "OK",
      "vis_m": 9999,
      "fzfg": false,
      "metar_trigger": false,
      "taf_trigger": false,
      "metar": "METAR LLBG 201550Z 34009KT CAVOK 28/20 Q1012 NOSIG",
      "taf": "TAF LLBG 201104Z 2012/2112 31010KT CAVOK TX31/2012Z TN21/2103Z"
    },
    {
      "icao": "LMML",
      "alert": "OK",
      "vis_m": 9999,
      "fzfg": false,
      "metar_trigger": false,
      "taf_trigger": false,
      "metar": "METAR LMML 201545Z 03008KT 360V060 CAVOK 29/18 Q1020 NOSIG",
      "taf": "TAF LMML 201100Z 2012/2112 28007KT CAVOK"
    },
    {
      "icao": "LOWW",
      "alert": "OK",
      "vis_m": 9999,
      "fzfg": false,
      "metar_trigger": false,
      "taf_trigger": false,
      "metar": "METAR LOWW 201550Z 22013KT CAVOK 31/14 Q1020 NOSIG",
      "taf": "TAF LOWW 201415Z 2015/2121 VRB05KT CAVOK TX32/2112Z TN21/2103Z"
    },
    {
      "icao": "LPFR",
      "alert": "OK",
      "vis_m": 9999,
      "fzfg": false,
      "metar_trigger": false,
      "taf_trigger": false,
      "metar": "METAR LPFR 201530Z 23007KT CAVOK 27/18 Q1013",
      "taf": "TAF LPFR 201100Z 2012/2112 11007KT CAVOK"
    },
    {
      "icao": "LPMA",
      "alert": "OK",
      "vis_m": 9999,
      "fzfg": false,
      "metar_trigger": false,
      "taf_trigger": false,
      "metar": "METAR LPMA 201530Z 20011KT 9999 FEW015 24/19 Q1018",
      "taf": "TAF LPMA 201100Z 2012/2112 20008KT 9999 SCT015"
    },
    {
      "icao": "LPPR",
      "alert": "OK",
      "vis_m": 9999,
      "fzfg": false,
      "metar_trigger": false,
      "taf_trigger": false,
      "metar": "METAR LPPR 201530Z 32011KT CAVOK 23/17 Q1016",
      "taf": "TAF LPPR 201100Z 2012/2112 32010KT CAVOK"
    },
    {
      "icao": "LPPS",
      "alert": "OK",
      "vis_m": 9999,
      "fzfg": false,
      "metar_trigger": false,
      "taf_trigger": false,
      "metar": "METAR LPPS 201530Z 17009KT 9999 FEW015 23/17 Q1018",
      "taf": "TAF LPPS 201100Z 2012/2118 18008KT 9999 SCT014"
    },
    {
      "icao": "LPPT",
      "alert": "OK",
      "vis_m": 9999,
      "fzfg": false,
      "metar_trigger": false,
      "taf_trigger": false,
      "metar": "METAR LPPT 201530Z 31011KT 290V350 CAVOK 30/15 Q1014",
      "taf": "TAF LPPT 201100Z 2012/2118 33012KT CAVOK"
    },
    {
      "icao": "LQBK",
      "alert": "OK",
      "vis_m": 9999,
      "fzfg": false,
      "metar_trigger": false,
      "taf_trigger": false,
      "metar": "METAR LQBK 201600Z 05006KT 020V080 CAVOK 32/14 Q1021 NOSIG",
      "taf": "TAF LQBK 201100Z 2012/2112 01005KT CAVOK TX34/2014Z TN17/2103Z"
    },
    {
      "icao": "LQSA",
      "alert": "OK",
      "vis_m": 9999,
      "fzfg": false,
      "metar_trigger": false,
      "taf_trigger": false,
      "metar": "METAR LQSA 201600Z 32006KT 290V350 CAVOK 30/15 Q1022 NOSIG",
      "taf": "TAF LQSA 201100Z 2012/2112 VRB02KT CAVOK TX31/2014Z TN15/2103Z"
    },
    {
      "icao": "LQTZ",
      "alert": "OK",
      "vis_m": 9999,
      "fzfg": false,
      "metar_trigger": false,
      "taf_trigger": false,
      "metar": "METAR LQTZ 201600Z 11007KT CAVOK 30/15 Q1021",
      "taf": "TAF LQTZ 201100Z 2012/2112 05005KT CAVOK TX32/2014Z TN15/2103Z"
    },
    {
      "icao": "LRBC",
      "alert": "OK",
      "vis_m": 9999,
      "fzfg": false,
      "metar_trigger": false,
      "taf_trigger": false,
      "metar": "METAR LRBC 201530Z 03005KT 360V080 CAVOK 29/16 Q1021",
      "taf": "TAF LRBC 201400Z 2015/2024 VRB04KT CAVOK"
    },
    {
      "icao": "LRBS",
      "alert": "OK",
      "vis_m": 9999,
      "fzfg": false,
      "metar_trigger": false,
      "taf_trigger": false,
      "metar": "METAR LRBS 201530Z 03003KT 350V080 CAVOK 30/14 Q1021 NOSIG",
      "taf": "TAF LRBS 201100Z 2012/2112 VRB04KT CAVOK"
    },
    {
      "icao": "LRBV",
      "alert": "OK",
      "vis_m": 9999,
      "fzfg": false,
      "metar_trigger": false,
      "taf_trigger": false,
      "metar": "METAR LRBV 201530Z 30006KT 250V330 9999 FEW062 27/15 Q1023",
      "taf": "TAF LRBV 201400Z 2015/2024 VRB04KT 9999 SCT050"
    },
    {
      "icao": "LRCL",
      "alert": "OK",
      "vis_m": 9999,
      "fzfg": false,
      "metar_trigger": false,
      "taf_trigger": false,
      "metar": "METAR LRCL 201530Z 36003KT 260V050 9999 FEW060 30/13 Q1021",
      "taf": "TAF LRCL 201400Z 2015/2024 VRB04KT CAVOK"
    },
    {
      "icao": "LRCV",
      "alert": "OK",
      "vis_m": 9999,
      "fzfg": false,
      "metar_trigger": false,
      "taf_trigger": false,
      "metar": "METAR LRCV 201530Z 10007KT CAVOK 29/16 Q1021",
      "taf": "TAF LRCV 201400Z 2015/2024 VRB04KT 9999 SCT040"
    },
    {
      "icao": "LRIA",
      "alert": "OK",
      "vis_m": 9999,
      "fzfg": false,
      "metar_trigger": false,
      "taf_trigger": false,
      "metar": "METAR LRIA 201530Z 33009KT 290V360 CAVOK 28/15 Q1021",
      "taf": "TAF LRIA 201400Z 2015/2024 VRB04KT CAVOK"
    },
    {
      "icao": "LROP",
      "alert": "OK",
      "vis_m": 9999,
      "fzfg": false,
      "metar_trigger": false,
      "taf_trigger": false,
      "metar": "METAR LROP 201530Z 07005KT 040V110 CAVOK 30/12 Q1021 NOSIG",
      "taf": "TAF LROP 201100Z 2012/2112 VRB04KT CAVOK"
    },
    {
      "icao": "LRSB",
      "alert": "OK",
      "vis_m": 9999,
      "fzfg": false,
      "metar_trigger": false,
      "taf_trigger": false,
      "metar": "METAR LRSB 201530Z 36004KT 290V050 9999 FEW055 29/13 Q1022",
      "taf": "TAF LRSB 201100Z 2012/2112 VRB04KT 9999 SCT050"
    },
    {
      "icao": "LRSM",
      "alert": "OK",
      "vis_m": 9999,
      "fzfg": false,
      "metar_trigger": false,
      "taf_trigger": false,
      "metar": "METAR LRSM 201530Z 33005KT 300V360 CAVOK 31/18 Q1021",
      "taf": "TAF LRSM 201400Z 2015/2024 VRB04KT CAVOK"
    },
    {
      "icao": "LRSV",
      "alert": "OK",
      "vis_m": 9999,
      "fzfg": false,
      "metar_trigger": false,
      "taf_trigger": false,
      "metar": "METAR LRSV 201530Z 33009KT CAVOK 26/15 Q1022",
      "taf": "TAF LRSV 201400Z 2015/2024 30008KT CAVOK"
    },
    {
      "icao": "LRTM",
      "alert": "OK",
      "vis_m": 9999,
      "fzfg": false,
      "metar_trigger": false,
      "taf_trigger": false,
      "metar": "METAR LRTM 201530Z 31004KT 240V020 CAVOK 30/19 Q1021",
      "taf": "TAF LRTM 201400Z 2015/2024 VRB04KT CAVOK"
    },
    {
      "icao": "LRTR",
      "alert": "OK",
      "vis_m": 9999,
      "fzfg": false,
      "metar_trigger": false,
      "taf_trigger": false,
      "metar": "METAR LRTR 201530Z 06007KT 010V130 CAVOK 33/13 Q1020",
      "taf": "TAF LRTR 201100Z 2012/2112 03008KT CAVOK"
    },
    {
      "icao": "LTAC",
      "alert": "OK",
      "vis_m": 9999,
      "fzfg": false,
      "metar_trigger": false,
      "taf_trigger": false,
      "metar": "METAR LTAC 201550Z 06008KT 020V110 9999 SCT040 SCT080 23/09 Q1020 NOSIG RMK RWY21C 05010KT RWY03L 05008KT RWY21R 06009KT RWY03R 04008KT RWY21L 06007KT",
      "taf": "TAF LTAC 201040Z 2012/2112 03009KT 9999 SCT040 SCT100"
    },
    {
      "icao": "LTFM",
      "alert": "OK",
      "vis_m": 9999,
      "fzfg": false,
      "metar_trigger": false,
      "taf_trigger": false,
      "metar": "METAR LTFM 201550Z 01012KT 9999 FEW025 23/16 Q1021 NOSIG RMK RWY17L 01011KT RWY34L 01011KT RWY16R 01010KT RWY36 01012KT RWY18 01011KT",
      "taf": "TAF LTFM 201040Z 2012/2118 04014KT 9999 SCT025"
    },
    {
      "icao": "LUKK",
      "alert": "OK",
      "vis_m": 9999,
      "fzfg": false,
      "metar_trigger": false,
      "taf_trigger": false,
      "metar": "METAR LUKK 201600Z 36006KT 320V050 CAVOK 28/15 Q1020 NOSIG",
      "taf": "TAF LUKK 201057Z 2012/2112 VRB06KT CAVOK"
    },
    {
      "icao": "LWOH",
      "alert": "OK",
      "vis_m": 9999,
      "fzfg": false,
      "metar_trigger": false,
      "taf_trigger": false,
      "metar": "METAR LWOH 201550Z VRB02KT 9999 SCT050 25/15 Q1023",
      "taf": "TAF LWOH 201425Z 2015/2115 18006KT 9999 SCT050"
    },
    {
      "icao": "LWSK",
      "alert": "OK",
      "vis_m": 9999,
      "fzfg": false,
      "metar_trigger": false,
      "taf_trigger": false,
      "metar": "METAR LWSK 201550Z 34007KT 280V020 9999 FEW050 BKN088 33/13 Q1020 NOSIG",
      "taf": "TAF LWSK 201425Z 2015/2115 32008KT 9999 SCT050 BKN090"
    },
    {
      "icao": "LYBE",
      "alert": "OK",
      "vis_m": 9999,
      "fzfg": false,
      "metar_trigger": false,
      "taf_trigger": false,
      "metar": "METAR LYBE 201600Z VRB03KT CAVOK 32/14 Q1021 NOSIG",
      "taf": "TAF LYBE 201100Z 2012/2112 02006KT CAVOK TX33/2014Z TN20/2103Z"
    },
    {
      "icao": "LYNI",
      "alert": "OK",
      "vis_m": 9999,
      "fzfg": false,
      "metar_trigger": false,
      "taf_trigger": false,
      "metar": "METAR LYNI 201600Z 31008KT 290V350 9999 FEW040 31/13 Q1021 NOSIG",
      "taf": "TAF LYNI 201100Z 2012/2112 05005KT CAVOK TX32/2014Z TN15/2103Z"
    },
    {
      "icao": "LYPG",
      "alert": "OK",
      "vis_m": 9999,
      "fzfg": false,
      "metar_trigger": false,
      "taf_trigger": false,
      "metar": "METAR LYPG 201600Z 22008KT 190V250 9999 FEW050 34/12 Q1019 NOSIG",
      "taf": "TAF LYPG 201100Z 2012/2112 18008KT 9999 FEW050 TX35/2014Z TN21/2103Z"
    },
    {
      "icao": "LZIB",
      "alert": "OK",
      "vis_m": 9999,
      "fzfg": false,
      "metar_trigger": false,
      "taf_trigger": false,
      "metar": "METAR LZIB 201600Z 21013KT CAVOK 32/18 Q1020 NOSIG",
      "taf": "TAF LZIB 201115Z 2012/2112 18008KT CAVOK"
    },
    {
      "icao": "LZKZ",
      "alert": "OK",
      "vis_m": 9999,
      "fzfg": false,
      "metar_trigger": false,
      "taf_trigger": false,
      "metar": "METAR LZKZ 201600Z 00000KT CAVOK 26/20 Q1022 NOSIG",
      "taf": "TAF LZKZ 201115Z 2012/2112 VRB02KT CAVOK"
    },
    {
      "icao": "LZTT",
      "alert": "OK",
      "vis_m": 9999,
      "fzfg": false,
      "metar_trigger": false,
      "taf_trigger": false,
      "metar": "METAR LZTT 201600Z VRB02KT 9999 FEW053 24/17 Q1024 NOSIG",
      "taf": "TAF LZTT 201115Z 2012/2112 07008KT CAVOK"
    },
    {
      "icao": "OEJN",
      "alert": "OK",
      "vis_m": 9999,
      "fzfg": false,
      "metar_trigger": false,
      "taf_trigger": false,
      "metar": "METAR OEJN 201600Z 34012KT CAVOK 35/17 Q1005 NOSIG",
      "taf": "TAF OEJN 201100Z 2012/2118 34018KT 7000 NSC"
    },
    {
      "icao": "OEMA",
      "alert": "OK",
      "vis_m": 9999,
      "fzfg": false,
      "metar_trigger": false,
      "taf_trigger": false,
      "metar": "METAR OEMA 201600Z 27007KT CAVOK 44/M07 Q1009 NOSIG",
      "taf": "TAF OEMA 201100Z 2012/2118 33010KT CAVOK"
    },
    {
      "icao": "OJAI",
      "alert": "OK",
      "vis_m": 5000,
      "fzfg": false,
      "metar_trigger": false,
      "taf_trigger": false,
      "metar": "METAR OJAI 201500Z 28010KT 5000 HZ NSC 30/09 Q1015 NOSIG",
      "taf": "TAF OJAI 201100Z 2012/2118 31006KT 5000 HZ NSC"
    },
    {
      "icao": "OMAA",
      "alert": "OK",
      "vis_m": 9999,
      "fzfg": false,
      "metar_trigger": false,
      "taf_trigger": false,
      "metar": "METAR OMAA 201600Z 32007KT CAVOK 35/23 Q1003 NOSIG",
      "taf": "TAF OMAA 201100Z 2012/2118 33013KT 8000 NSC"
    },
    {
      "icao": "OMDB",
      "alert": "OK",
      "vis_m": 9000,
      "fzfg": false,
      "metar_trigger": false,
      "taf_trigger": false,
      "metar": "METAR OMDB 201600Z 26008KT 9000 NSC 37/20 Q1002 NOSIG",
      "taf": "TAF OMDB 201100Z 2012/2118 30012KT CAVOK"
    },
    {
      "icao": "UAAA",
      "alert": "OK",
      "vis_m": 9999,
      "fzfg": false,
      "metar_trigger": false,
      "taf_trigger": false,
      "metar": "METAR UAAA 201530Z 19002MPS 9999 SCT050CB OVC100 26/12 Q1013 NOSIG",
      "taf": "TAF UAAA 201102Z 2012/2112 22002MPS 9999 SCT050CB BKN100 TX32/2110Z TN18/2101Z"
    },
    {
      "icao": "UBBB",
      "alert": "OK",
      "vis_m": 9999,
      "fzfg": false,
      "metar_trigger": false,
      "taf_trigger": false,
      "metar": "METAR UBBB 201600Z 09004KT CAVOK 29/15 Q1009 NOSIG",
      "taf": "TAF UBBB 201055Z 2012/2112 36005KT 9999 SCT040 TX30/2012Z TN20/2101Z"
    },
    {
      "icao": "UDSG",
      "alert": "OK",
      "vis_m": 9999,
      "fzfg": false,
      "metar_trigger": false,
      "taf_trigger": false,
      "metar": "METAR UDSG 201530Z 26006KT 9999 FEW049CB 26/10 Q1019 NOSIG",
      "taf": "TAF UDSG 201058Z 2012/2112 24006KT 9999 SCT050"
    },
    {
      "icao": "UDYZ",
      "alert": "OK",
      "vis_m": 9999,
      "fzfg": false,
      "metar_trigger": false,
      "taf_trigger": false,
      "metar": "METAR UDYZ 201530Z 26008KT 9999 FEW046 36/06 Q1011 NOSIG",
      "taf": "TAF UDYZ 201100Z 2012/2112 04006KT 9999 FEW040"
    },
    {
      "icao": "UGKO",
      "alert": "OK",
      "vis_m": 9999,
      "fzfg": false,
      "metar_trigger": false,
      "taf_trigger": false,
      "metar": "METAR UGKO 201530Z 26010KT 9999 SCT026 BKN036 21/18 Q1017 NOSIG",
      "taf": "TAF UGKO 201100Z 2012/2112 25007KT 9999 SCT030 OVC050 TX25/2111Z TN19/2102Z"
    }
  ]
}