{
  "ts_utc": "2026-02-28T08:52:15Z",
  "threshold_m": 150,
  "source": "stations_override.txt (ICAO list) + aviationweather.gov (METAR/TAF raw)",
  "station_count": 159,
  "stations": [
    {
      "icao": "BIKF",
      "alert": "OK",
      "vis_m": 9999,
      "fzfg": false,
      "metar_trigger": false,
      "taf_trigger": false,
      "metar": "METAR BIKF 280830Z 15008KT 9999 VCSH FEW014 BKN033 BKN057 M02/M07 Q1000",
      "taf": "TAF BIKF 280751Z 2809/0109 19008KT 9999 FEW020 BKN040 TX02/2814Z TNM03/2809Z"
    },
    {
      "icao": "BKPR",
      "alert": "OK",
      "vis_m": 9999,
      "fzfg": false,
      "metar_trigger": false,
      "taf_trigger": false,
      "metar": "METAR BKPR 280830Z 18007KT 9999 FEW010 05/02 Q1026 NOSIG",
      "taf": "TAF BKPR 280530Z 2806/0106 VRB05KT CAVOK"
    },
    {
      "icao": "EBCI",
      "alert": "OK",
      "vis_m": 9999,
      "fzfg": false,
      "metar_trigger": false,
      "taf_trigger": false,
      "metar": "METAR EBCI 280820Z 21017KT 9999 BKN022 09/05 Q1016 TEMPO 21015G25KT",
      "taf": "TAF EBCI 280515Z 2806/0112 21012KT 9999 SCT016 BKN025"
    },
    {
      "icao": "EDDB",
      "alert": "OK",
      "vis_m": 9999,
      "fzfg": false,
      "metar_trigger": false,
      "taf_trigger": false,
      "metar": "METAR EDDB 280820Z AUTO 19006KT CAVOK 12/06 Q1018 NOSIG",
      "taf": "TAF EDDB 280500Z 2806/0106 17005KT CAVOK"
    },
    {
      "icao": "EDDH",
      "alert": "OK",
      "vis_m": 2400,
      "fzfg": false,
      "metar_trigger": false,
      "taf_trigger": false,
      "metar": "METAR EDDH 280820Z AUTO 21011KT 2400 SHRA BR BKN009 BKN019 FEW///TCU 11/11 Q1014 BECMG 9999 NSW SCT009",
      "taf": "TAF EDDH 280500Z 2806/0112 20006KT 9999 BKN020"
    },
    {
      "icao": "EDDK",
      "alert": "OK",
      "vis_m": 9999,
      "fzfg": false,
      "metar_trigger": false,
      "taf_trigger": false,
      "metar": "METAR EDDK 280820Z AUTO 20009KT 180V240 9999 BKN041 12/05 Q1018 BECMG 23014KT",
      "taf": "TAF EDDK 280500Z 2806/0112 17007KT 9999 FEW045"
    },
    {
      "icao": "EDDN",
      "alert": "OK",
      "vis_m": 9999,
      "fzfg": false,
      "metar_trigger": false,
      "taf_trigger": false,
      "metar": "METAR EDDN 280820Z AUTO 13006KT CAVOK 08/05 Q1021 NOSIG",
      "taf": "TAF EDDN 280500Z 2806/0106 13006KT CAVOK"
    },
    {
      "icao": "EDDS",
      "alert": "OK",
      "vis_m": 9999,
      "fzfg": false,
      "metar_trigger": false,
      "taf_trigger": false,
      "metar": "METAR EDDS 280820Z AUTO VRB02KT CAVOK 08/05 Q1021 NOSIG",
      "taf": "TAF EDDS 280500Z 2806/0106 VRB03KT CAVOK"
    },
    {
      "icao": "EDFH",
      "alert": "OK",
      "vis_m": 9999,
      "fzfg": false,
      "metar_trigger": false,
      "taf_trigger": false,
      "metar": "METAR EDFH 280820Z 22009KT 190V260 9999 SCT021 09/05 Q1019",
      "taf": "TAF EDFH 280500Z 2806/0106 22009KT 9999 SCT015"
    },
    {
      "icao": "EDJA",
      "alert": "OK",
      "vis_m": 9999,
      "fzfg": false,
      "metar_trigger": false,
      "taf_trigger": false,
      "metar": "METAR EDJA 280820Z 23009KT CAVOK 08/04 Q1022",
      "taf": "TAF EDJA 280800Z 2809/2818 23009KT 9999 FEW030"
    },
    {
      "icao": "EDLW",
      "alert": "OK",
      "vis_m": 9999,
      "fzfg": false,
      "metar_trigger": false,
      "taf_trigger": false,
      "metar": "METAR EDLW 280820Z 23010KT 9999 FEW029 SCT047 12/07 Q1016",
      "taf": "TAF EDLW 280500Z 2806/0106 19010KT 9999 BKN035"
    },
    {
      "icao": "EDNY",
      "alert": "OK",
      "vis_m": 9999,
      "fzfg": false,
      "metar_trigger": false,
      "taf_trigger": false,
      "metar": "METAR EDNY 280820Z VRB02KT 9999 FEW057 06/04 Q1023",
      "taf": "TAF EDNY 280800Z 2809/2818 VRB02KT CAVOK"
    },
    {
      "icao": "EDSB",
      "alert": "OK",
      "vis_m": 9999,
      "fzfg": false,
      "metar_trigger": false,
      "taf_trigger": false,
      "metar": "METAR EDSB 280820Z 21010KT 9999 FEW044 12/07 Q1021",
      "taf": "TAF EDSB 280500Z 2806/0106 22005KT 9999 SCT030"
    },
    {
      "icao": "EETN",
      "alert": "OK",
      "vis_m": 500,
      "fzfg": false,
      "metar_trigger": false,
      "taf_trigger": false,
      "metar": "METAR EETN 280850Z 25006KT 0500 R26/0900U FG VV002 02/02 Q1014 NOSIG",
      "taf": ""
    },
    {
      "icao": "EFTU",
      "alert": "OK",
      "vis_m": 9000,
      "fzfg": false,
      "metar_trigger": false,
      "taf_trigger": false,
      "metar": "METAR EFTU 280820Z AUTO 26006KT 9000 OVC003 02/02 Q1013",
      "taf": "TAF EFTU 280828Z 2809/0109 26006KT 9000 OVC003"
    },
    {
      "icao": "EGBB",
      "alert": "OK",
      "vis_m": 9999,
      "fzfg": false,
      "metar_trigger": false,
      "taf_trigger": false,
      "metar": "METAR EGBB 280820Z 30010KT 9999 BKN024 06/05 Q1014",
      "taf": ""
    },
    {
      "icao": "EGGP",
      "alert": "OK",
      "vis_m": 9999,
      "fzfg": false,
      "metar_trigger": false,
      "taf_trigger": false,
      "metar": "METAR EGGP 280820Z 28011KT 9999 FEW018 BKN038 06/05 Q1015",
      "taf": "TAF EGGP 280457Z 2806/0106 29003KT 9999 FEW020"
    },
    {
      "icao": "EGGW",
      "alert": "OK",
      "vis_m": 9999,
      "fzfg": false,
      "metar_trigger": false,
      "taf_trigger": false,
      "metar": "METAR EGGW 280820Z AUTO 31015KT 9999 -RA FEW011 SCT025 OVC042 05/04 Q1012",
      "taf": ""
    },
    {
      "icao": "EGKK",
      "alert": "OK",
      "vis_m": 9999,
      "fzfg": false,
      "metar_trigger": false,
      "taf_trigger": false,
      "metar": "METAR EGKK 280820Z 30017KT 9999 BKN015 07/05 Q1013",
      "taf": "TAF EGKK 280459Z 2806/0112 29012KT 9999 SCT007 BKN020"
    },
    {
      "icao": "EGNM",
      "alert": "OK",
      "vis_m": 9999,
      "fzfg": false,
      "metar_trigger": false,
      "taf_trigger": false,
      "metar": "METAR EGNM 280820Z 36010KT 9999 -RA SCT007 SCT018 05/03 Q1013",
      "taf": "TAF EGNM 280526Z 2806/0106 02012KT 9999 FEW008 SCT012"
    },
    {
      "icao": "EGPD",
      "alert": "OK",
      "vis_m": 9999,
      "fzfg": false,
      "metar_trigger": false,
      "taf_trigger": false,
      "metar": "METAR EGPD 280820Z COR AUTO VRB02KT 9999 NCD M02/M03 Q1015 NOSIG",
      "taf": "TAF EGPD 280458Z 2806/0106 VRB03KT 9999 FEW040"
    },
    {
      "icao": "EGPF",
      "alert": "OK",
      "vis_m": 9999,
      "fzfg": false,
      "metar_trigger": false,
      "taf_trigger": false,
      "metar": "METAR EGPF 280820Z AUTO 03004KT 9999 OVC033 04/02 Q1016",
      "taf": "TAF EGPF 280456Z 2806/0106 30005KT 9999 FEW020 SCT035"
    },
    {
      "icao": "EHBK",
      "alert": "OK",
      "vis_m": 9999,
      "fzfg": false,
      "metar_trigger": false,
      "taf_trigger": false,
      "metar": "METAR EHBK 280825Z AUTO 20019KT 170V230 9999 FEW033/// BKN043/// OVC048/// 11/05 Q1016 TEMPO 7000 -SHRA FEW018TCU",
      "taf": "TAF EHBK 280459Z 2806/0112 21012KT CAVOK"
    },
    {
      "icao": "EHEH",
      "alert": "OK",
      "vis_m": 9999,
      "fzfg": false,
      "metar_trigger": false,
      "taf_trigger": false,
      "metar": "SPECI EHEH 280836Z AUTO 19015KT 9999 FEW034 SCT039 OVC043 11/07 Q1014 BLU TEMPO 22010G25KT RMK TREND REMOTE BY EHWX",
      "taf": "TAF EHEH 280535Z 2806/0112 20011KT 9999 SCT045"
    },
    {
      "icao": "EKBI",
      "alert": "OK",
      "vis_m": 900,
      "fzfg": false,
      "metar_trigger": false,
      "taf_trigger": false,
      "metar": "METAR EKBI 280820Z AUTO 16005KT 0900 R09/P1500D R27/1300D -RA FG OVC002/// 09/09 Q1012",
      "taf": "TAF EKBI 280827Z 2809/0109 20012KT 4000 -RADZ BR BKN002"
    },
    {
      "icao": "EKCH",
      "alert": "OK",
      "vis_m": 1200,
      "fzfg": false,
      "metar_trigger": false,
      "taf_trigger": false,
      "metar": "METAR EKCH 280820Z 19003KT 1200 R22L/P1500N R04L/P1500D R12/P1500N BR BKN004 06/06 Q1014 TEMPO 2000",
      "taf": ""
    },
    {
      "icao": "ENAL",
      "alert": "OK",
      "vis_m": 9999,
      "fzfg": false,
      "metar_trigger": false,
      "taf_trigger": false,
      "metar": "METAR ENAL 280820Z 19010KT 9999 FEW020TCU 05/01 Q1013",
      "taf": "TAF ENAL 280800Z 2809/2818 21012KT 9999 SCT030"
    },
    {
      "icao": "ENBR",
      "alert": "OK",
      "vis_m": 9999,
      "fzfg": false,
      "metar_trigger": false,
      "taf_trigger": false,
      "metar": "METAR ENBR 280820Z VRB02KT CAVOK 00/00 Q1014 NOSIG RMK WIND 1200FT 10004KT",
      "taf": "TAF ENBR 280500Z 2806/0106 VRB03KT 9999 FEW025"
    },
    {
      "icao": "ENGM",
      "alert": "OK",
      "vis_m": 400,
      "fzfg": true,
      "metar_trigger": false,
      "taf_trigger": false,
      "metar": "METAR ENGM 280820Z VRB02KT 0400 0250SW R19R/0700N R01R/0550U R19L/0450N R01L/0275N FZFG VV002 M02/M03 Q1014 TEMPO 1200 BCFG",
      "taf": "TAF ENGM 280500Z 2806/0106 VRB03KT 0300 FZFG VV002"
    },
    {
      "icao": "ENHD",
      "alert": "OK",
      "vis_m": 9999,
      "fzfg": false,
      "metar_trigger": false,
      "taf_trigger": false,
      "metar": "METAR ENHD 280820Z 01004KT 9999 FEW025 M02/M02 Q1014",
      "taf": "TAF ENHD 280800Z 2809/2818 09005KT CAVOK"
    },
    {
      "icao": "ENTC",
      "alert": "OK",
      "vis_m": 9999,
      "fzfg": false,
      "metar_trigger": false,
      "taf_trigger": false,
      "metar": "METAR ENTC 280820Z 19016KT 9999 SCT047 BKN060 02/M03 Q1000 NOSIG RMK WIND 2600FT 21030KT",
      "taf": "TAF ENTC 280500Z 2806/0106 18014KT 9999 SCT025 BKN035"
    },
    {
      "icao": "ENTO",
      "alert": "WARNING",
      "vis_m": 150,
      "fzfg": true,
      "metar_trigger": false,
      "taf_trigger": true,
      "metar": "METAR ENTO 280820Z 04003KT 360V110 0150 R18/0375N R36/0600N FZFG VV002 M02/M02 Q1014 TEMPO 1200 BCFG",
      "taf": "TAF ENTO 280500Z 2806/0106 02005KT 0100 FZFG VV001"
    },
    {
      "icao": "ENVA",
      "alert": "OK",
      "vis_m": 9999,
      "fzfg": false,
      "metar_trigger": false,
      "taf_trigger": false,
      "metar": "METAR ENVA 280820Z 03003KT 360V090 CAVOK 02/M04 Q1012 NOSIG RMK WIND 670FT 21013KT",
      "taf": "TAF ENVA 280500Z 2806/0106 24008KT 9999 SCT040"
    },
    {
      "icao": "ENZV",
      "alert": "OK",
      "vis_m": 250,
      "fzfg": false,
      "metar_trigger": false,
      "taf_trigger": false,
      "metar": "METAR ENZV 280820Z 02003KT 0250 R18/0900D R36/0900N R10/0650U FG VV002 02/02 Q1014 BECMG 1200 BCFG BKN003",
      "taf": "TAF ENZV 280500Z 2806/0106 VRB03KT 0400 FG VV002"
    },
    {
      "icao": "EPGD",
      "alert": "OK",
      "vis_m": 9999,
      "fzfg": false,
      "metar_trigger": false,
      "taf_trigger": false,
      "metar": "METAR EPGD 280830Z 25004KT CAVOK 08/05 Q1017",
      "taf": "TAF EPGD 280530Z 2806/0106 22006KT CAVOK"
    },
    {
      "icao": "EPKK",
      "alert": "OK",
      "vis_m": 9999,
      "fzfg": false,
      "metar_trigger": false,
      "taf_trigger": false,
      "metar": "METAR EPKK 280830Z VRB02KT CAVOK 08/02 Q1023",
      "taf": "TAF EPKK 280830Z 2809/0109 VRB02KT CAVOK"
    },
    {
      "icao": "EPKT",
      "alert": "OK",
      "vis_m": 9999,
      "fzfg": false,
      "metar_trigger": false,
      "taf_trigger": false,
      "metar": "METAR EPKT 280830Z 21007KT CAVOK 08/02 Q1023",
      "taf": "TAF EPKT 280530Z 2806/0106 18004KT CAVOK"
    },
    {
      "icao": "EPLB",
      "alert": "OK",
      "vis_m": 9999,
      "fzfg": false,
      "metar_trigger": false,
      "taf_trigger": false,
      "metar": "METAR EPLB 280830Z 22008KT CAVOK 06/00 Q1024",
      "taf": "TAF EPLB 280530Z 2806/0106 20010KT CAVOK"
    },
    {
      "icao": "EPMO",
      "alert": "OK",
      "vis_m": 9999,
      "fzfg": false,
      "metar_trigger": false,
      "taf_trigger": false,
      "metar": "METAR EPMO 280830Z 18006KT CAVOK 07/04 Q1021",
      "taf": "TAF EPMO 280530Z 2806/0106 15004KT CAVOK"
    },
    {
      "icao": "EPPO",
      "alert": "OK",
      "vis_m": 9999,
      "fzfg": false,
      "metar_trigger": false,
      "taf_trigger": false,
      "metar": "METAR EPPO 280830Z 18006KT CAVOK 10/05 Q1019",
      "taf": "TAF EPPO 280530Z 2806/0106 16003KT 5000 BR NSC"
    },
    {
      "icao": "EPRA",
      "alert": "OK",
      "vis_m": 9999,
      "fzfg": false,
      "metar_trigger": false,
      "taf_trigger": false,
      "metar": "METAR EPRA 280830Z 19007KT CAVOK 09/02 Q1023",
      "taf": "TAF EPRA 280830Z 2809/2818 19008KT CAVOK"
    },
    {
      "icao": "EPRZ",
      "alert": "OK",
      "vis_m": 9999,
      "fzfg": false,
      "metar_trigger": false,
      "taf_trigger": false,
      "metar": "METAR EPRZ 280830Z 19009KT CAVOK 08/M02 Q1025",
      "taf": "TAF EPRZ 280530Z 2806/0106 VRB02KT CAVOK"
    },
    {
      "icao": "EPSC",
      "alert": "OK",
      "vis_m": 9999,
      "fzfg": false,
      "metar_trigger": false,
      "taf_trigger": false,
      "metar": "METAR EPSC 280830Z 15007KT CAVOK 09/05 Q1017",
      "taf": "TAF EPSC 280530Z 2806/0106 16007KT CAVOK"
    },
    {
      "icao": "EPSY",
      "alert": "OK",
      "vis_m": 8000,
      "fzfg": false,
      "metar_trigger": false,
      "taf_trigger": false,
      "metar": "METAR EPSY 280830Z 18006KT 8000 NSC 06/03 Q1020",
      "taf": "TAF EPSY 280830Z 2809/2818 19006KT CAVOK"
    },
    {
      "icao": "EPWA",
      "alert": "OK",
      "vis_m": 9999,
      "fzfg": false,
      "metar_trigger": false,
      "taf_trigger": false,
      "metar": "METAR EPWA 280830Z 17005KT 140V210 CAVOK 08/03 Q1022 NOSIG",
      "taf": "TAF EPWA 280830Z 2809/0109 17007KT CAVOK"
    },
    {
      "icao": "EPWR",
      "alert": "OK",
      "vis_m": 9999,
      "fzfg": false,
      "metar_trigger": false,
      "taf_trigger": false,
      "metar": "METAR EPWR 280830Z 15007KT CAVOK 11/05 Q1021",
      "taf": "TAF EPWR 280830Z 2809/0109 16006KT CAVOK"
    },
    {
      "icao": "ESGG",
      "alert": "OK",
      "vis_m": 400,
      "fzfg": false,
      "metar_trigger": false,
      "taf_trigger": false,
      "metar": "METAR ESGG 280820Z 10004KT 0400 R03/0800N R21/0800N FG VV002 05/05 Q1012",
      "taf": "TAF ESGG 280830Z 2809/0109 15004KT 0400 FG VV002"
    },
    {
      "icao": "ESKN",
      "alert": "OK",
      "vis_m": 9999,
      "fzfg": false,
      "metar_trigger": false,
      "taf_trigger": false,
      "metar": "METAR ESKN 280820Z 25008KT 9999 BKN007 05/04 Q1014",
      "taf": "TAF ESKN 280830Z 2809/0109 25007KT 9999 BKN007"
    },
    {
      "icao": "ESMS",
      "alert": "OK",
      "vis_m": 3000,
      "fzfg": false,
      "metar_trigger": false,
      "taf_trigger": false,
      "metar": "METAR ESMS 280820Z 19005KT 3000 BR FEW008 BKN034 07/07 Q1014",
      "taf": "TAF ESMS 280827Z 2809/0109 16005KT 3000 -RADZ BKN030"
    },
    {
      "icao": "ESSA",
      "alert": "OK",
      "vis_m": 7000,
      "fzfg": false,
      "metar_trigger": false,
      "taf_trigger": false,
      "metar": "METAR ESSA 280820Z 27007KT 7000 OVC002 02/01 Q1014 NOSIG",
      "taf": "TAF ESSA 280830Z 2809/0109 26007KT 9999 BKN004"
    },
    {
      "icao": "EYKA",
      "alert": "OK",
      "vis_m": 9999,
      "fzfg": false,
      "metar_trigger": false,
      "taf_trigger": false,
      "metar": "METAR EYKA 280850Z 18006KT 140V230 CAVOK 05/01 Q1019",
      "taf": "TAF EYKA 280502Z 2806/0106 VRB04KT 8000 NSC"
    },
    {
      "icao": "EYPA",
      "alert": "OK",
      "vis_m": 6000,
      "fzfg": false,
      "metar_trigger": false,
      "taf_trigger": false,
      "metar": "METAR EYPA 280850Z 18007KT 6000 NSC 05/02 Q1017",
      "taf": "TAF EYPA 280506Z 2806/0106 VRB04KT 5000 BR SCT005 SCT025"
    },
    {
      "icao": "EYVI",
      "alert": "OK",
      "vis_m": 9999,
      "fzfg": false,
      "metar_trigger": false,
      "taf_trigger": false,
      "metar": "METAR EYVI 280820Z 17007KT CAVOK 03/M00 Q1020 NOSIG",
      "taf": "TAF EYVI 280500Z 2806/0106 VRB04KT 8000 NSC"
    },
    {
      "icao": "GCFV",
      "alert": "OK",
      "vis_m": 9999,
      "fzfg": false,
      "metar_trigger": false,
      "taf_trigger": false,
      "metar": "METAR GCFV 280830Z 35021KT 9999 FEW020 18/12 Q1020",
      "taf": "TAF GCFV 280800Z 2809/0109 02022KT 9999 FEW025 TX22/2814Z TN15/0106Z"
    },
    {
      "icao": "GCLP",
      "alert": "OK",
      "vis_m": 9999,
      "fzfg": false,
      "metar_trigger": false,
      "taf_trigger": false,
      "metar": "METAR GCLP 280830Z 36022G34KT 9999 FEW020 18/13 Q1021 NOSIG",
      "taf": "TAF GCLP 280800Z 2809/0109 01025KT 9999 SCT020 TX21/2814Z TN16/0106Z"
    },
    {
      "icao": "GCTS",
      "alert": "OK",
      "vis_m": 9999,
      "fzfg": false,
      "metar_trigger": false,
      "taf_trigger": false,
      "metar": "METAR GCTS 280830Z 04005KT 010V080 CAVOK 18/08 Q1020 BECMG 08025G37KT",
      "taf": "TAF GCTS 280800Z 2809/0109 08025G37KT CAVOK TX24/2814Z TN17/0106Z"
    },
    {
      "icao": "GMAD",
      "alert": "OK",
      "vis_m": 4000,
      "fzfg": false,
      "metar_trigger": false,
      "taf_trigger": false,
      "metar": "METAR GMAD 280830Z 00000KT 4000 1100W R27/1900N BR NSC 11/11 Q1015 NOSIG",
      "taf": "TAF GMAD 280500Z 2806/0112 03004KT 6000 NSC"
    },
    {
      "icao": "GMMN",
      "alert": "OK",
      "vis_m": 1200,
      "fzfg": false,
      "metar_trigger": false,
      "taf_trigger": false,
      "metar": "METAR GMMN 280830Z 11003KT 1200 R35L/1400V1800U BR BKN002 SCT016 13/12 Q1022 NOSIG",
      "taf": "TAF GMMN 280500Z 2806/0112 14003KT 0300 FG BKN001 SCT016"
    },
    {
      "icao": "GMMX",
      "alert": "OK",
      "vis_m": 6000,
      "fzfg": false,
      "metar_trigger": false,
      "taf_trigger": false,
      "metar": "METAR GMMX 280830Z 06003KT 010V100 6000 BKN006 12/11 Q1021 TEMPO 2500 BR",
      "taf": "TAF GMMX 280500Z 2806/0112 02006KT 8000 BKN013"
    },
    {
      "icao": "HEGN",
      "alert": "OK",
      "vis_m": 9999,
      "fzfg": false,
      "metar_trigger": false,
      "taf_trigger": false,
      "metar": "METAR HEGN 280800Z 33016KT CAVOK 17/02 Q1016 NOSIG",
      "taf": "TAF HEGN 280500Z 2806/0112 34018G28KT CAVOK"
    },
    {
      "icao": "HEMA",
      "alert": "OK",
      "vis_m": 9999,
      "fzfg": false,
      "metar_trigger": false,
      "taf_trigger": false,
      "metar": "METAR HEMA 280800Z 31015KT CAVOK 18/03 Q1015 NOSIG",
      "taf": "TAF HEMA 280500Z 2806/0112 36018KT CAVOK"
    },
    {
      "icao": "HESH",
      "alert": "OK",
      "vis_m": 9999,
      "fzfg": false,
      "metar_trigger": false,
      "taf_trigger": false,
      "metar": "METAR HESH 280800Z 35014KT CAVOK 18/01 Q1015 NOSIG",
      "taf": "TAF HESH 280500Z 2806/0112 03015KT CAVOK"
    },
    {
      "icao": "HESX",
      "alert": "OK",
      "vis_m": 9999,
      "fzfg": false,
      "metar_trigger": false,
      "taf_trigger": false,
      "metar": "METAR HESX 280800Z 33006KT CAVOK 13/05 Q1019 NOSIG",
      "taf": "TAF HESX 280500Z 2806/0112 VRB04KT CAVOK"
    },
    {
      "icao": "LATI",
      "alert": "OK",
      "vis_m": 9999,
      "fzfg": false,
      "metar_trigger": false,
      "taf_trigger": false,
      "metar": "METAR LATI 280850Z VRB02KT CAVOK 14/06 Q1025 NOSIG",
      "taf": "TAF LATI 280500Z 2806/0106 VRB03KT CAVOK TX18/2812Z TN06/0104Z"
    },
    {
      "icao": "LBPD",
      "alert": "OK",
      "vis_m": 6000,
      "fzfg": false,
      "metar_trigger": false,
      "taf_trigger": false,
      "metar": "METAR LBPD 280830Z AUTO VRB01KT 6000 OVC007/// 01/01 Q1030 NOSIG",
      "taf": "TAF LBPD 280500Z 2806/0106 VRB04KT 3000 BR BKN007"
    },
    {
      "icao": "LBSF",
      "alert": "OK",
      "vis_m": 9999,
      "fzfg": false,
      "metar_trigger": false,
      "taf_trigger": false,
      "metar": "METAR LBSF 280830Z 12003KT 080V170 CAVOK 04/M01 Q1027 NOSIG",
      "taf": "TAF LBSF 280500Z 2806/0106 VRB04KT CAVOK"
    },
    {
      "icao": "LBWN",
      "alert": "OK",
      "vis_m": 9999,
      "fzfg": false,
      "metar_trigger": false,
      "taf_trigger": false,
      "metar": "METAR LBWN 280830Z 31003KT 230V020 9999 OVC018 02/M02 Q1031 NOSIG",
      "taf": "TAF LBWN 280500Z 2806/0106 VRB04KT 9999 OVC012"
    },
    {
      "icao": "LCLK",
      "alert": "OK",
      "vis_m": 9999,
      "fzfg": false,
      "metar_trigger": false,
      "taf_trigger": false,
      "metar": "METAR LCLK 280830Z 35008KT 330V040 9999 FEW025 16/03 Q1018 NOSIG",
      "taf": "TAF LCLK 280530Z 2806/0106 33009KT 9999 FEW030"
    },
    {
      "icao": "LCPH",
      "alert": "OK",
      "vis_m": 9999,
      "fzfg": false,
      "metar_trigger": false,
      "taf_trigger": false,
      "metar": "METAR LCPH 280830Z VRB03KT 9999 FEW025 16/M01 Q1018 NOSIG",
      "taf": "TAF LCPH 280530Z 2806/0106 05009KT 9999 FEW040"
    },
    {
      "icao": "LEAL",
      "alert": "OK",
      "vis_m": 9999,
      "fzfg": false,
      "metar_trigger": false,
      "taf_trigger": false,
      "metar": "METAR LEAL 280830Z 26005KT 9999 FEW021 14/09 Q1023 NOSIG",
      "taf": ""
    },
    {
      "icao": "LEBB",
      "alert": "OK",
      "vis_m": 9999,
      "fzfg": false,
      "metar_trigger": false,
      "taf_trigger": false,
      "metar": "METAR LEBB 280830Z 00000KT 9999 FEW027 SCT050 10/08 Q1028 NOSIG",
      "taf": "TAF LEBB 280500Z 2806/0106 31009KT 9999 SCT015 BKN030 TX13/2814Z TN04/0106Z"
    },
    {
      "icao": "LEBL",
      "alert": "OK",
      "vis_m": 9999,
      "fzfg": false,
      "metar_trigger": false,
      "taf_trigger": false,
      "metar": "METAR LEBL 280830Z 10007KT 030V120 9999 FEW020 BKN025 14/09 Q1025 NOSIG",
      "taf": ""
    },
    {
      "icao": "LECH",
      "alert": "OK",
      "vis_m": 6000,
      "fzfg": false,
      "metar_trigger": false,
      "taf_trigger": false,
      "metar": "METAR LECH 280830Z AUTO 01007KT 340V050 6000 BKN029 10/08 Q1024",
      "taf": ""
    },
    {
      "icao": "LEMD",
      "alert": "OK",
      "vis_m": 9999,
      "fzfg": false,
      "metar_trigger": false,
      "taf_trigger": false,
      "metar": "METAR LEMD 280830Z 33005KT CAVOK 07/05 Q1023 NOSIG",
      "taf": "TAF LEMD 280500Z 2806/0112 02006KT CAVOK TX18/2815Z TN03/0107Z"
    },
    {
      "icao": "LEMG",
      "alert": "OK",
      "vis_m": 6000,
      "fzfg": false,
      "metar_trigger": false,
      "taf_trigger": false,
      "metar": "METAR LEMG 280830Z 31003KT 6000 BKN020 12/11 Q1022 NOSIG",
      "taf": "TAF LEMG 280500Z 2806/0106 29005KT 9999 SCT025 TX19/2814Z TN07/2807Z"
    },
    {
      "icao": "LEVC",
      "alert": "OK",
      "vis_m": 8000,
      "fzfg": false,
      "metar_trigger": false,
      "taf_trigger": false,
      "metar": "METAR LEVC 280830Z 03003KT 340V080 8000 FEW025 BKN035 13/09 Q1024 NOSIG",
      "taf": ""
    },
    {
      "icao": "LEXJ",
      "alert": "OK",
      "vis_m": 9999,
      "fzfg": false,
      "metar_trigger": false,
      "taf_trigger": false,
      "metar": "METAR LEXJ 280830Z 23006KT 9999 FEW028 SCT050 09/04 Q1028",
      "taf": "TAF LEXJ 280800Z 2809/0109 24009KT 9999 SCT030 TX13/2815Z TN06/0106Z"
    },
    {
      "icao": "LEZG",
      "alert": "OK",
      "vis_m": 9999,
      "fzfg": false,
      "metar_trigger": false,
      "taf_trigger": false,
      "metar": "METAR LEZG 280830Z 30014KT 9999 OVC060 11/06 Q1025 NOSIG",
      "taf": "TAF LEZG 280500Z 2806/0106 31014KT CAVOK TX17/2815Z TN06/2806Z"
    },
    {
      "icao": "LEZL",
      "alert": "OK",
      "vis_m": 9999,
      "fzfg": false,
      "metar_trigger": false,
      "taf_trigger": false,
      "metar": "METAR LEZL 280830Z 04003KT 340V080 CAVOK 13/11 Q1022 NOSIG",
      "taf": "TAF LEZL 280800Z 2809/0109 03005KT CAVOK TX22/2815Z TN09/0107Z"
    },
    {
      "icao": "LFBD",
      "alert": "OK",
      "vis_m": 9999,
      "fzfg": false,
      "metar_trigger": false,
      "taf_trigger": false,
      "metar": "METAR LFBD 280830Z AUTO 22005KT CAVOK 09/08 Q1026 TEMPO 4000 -SHRA BKN030TCU",
      "taf": "TAF LFBD 280500Z 2806/0112 24005KT 9999 SCT035 TX15/2814Z TN02/0106Z"
    },
    {
      "icao": "LFLL",
      "alert": "OK",
      "vis_m": 9999,
      "fzfg": false,
      "metar_trigger": false,
      "taf_trigger": false,
      "metar": "METAR LFLL 280830Z VRB02KT 9999 OVC045 11/07 Q1024 NOSIG",
      "taf": "TAF LFLL 280500Z 2806/0112 VRB05KT 9999 BKN045"
    },
    {
      "icao": "LFLS",
      "alert": "OK",
      "vis_m": 9999,
      "fzfg": false,
      "metar_trigger": false,
      "taf_trigger": false,
      "metar": "METAR LFLS 280830Z AUTO 07007KT 9999 FEW037 BKN052 OVC076 10/08 Q1024 NOSIG",
      "taf": "TAF LFLS 280800Z 2809/0109 VRB03KT 9999 FEW025 BKN045"
    },
    {
      "icao": "LFMN",
      "alert": "OK",
      "vis_m": 9999,
      "fzfg": false,
      "metar_trigger": false,
      "taf_trigger": false,
      "metar": "METAR LFMN 280830Z 33006KT 9999 FEW020 BKN040 13/08 Q1025 NOSIG",
      "taf": "TAF LFMN 280800Z 2809/0115 33005KT 9999 FEW020 BKN040"
    },
    {
      "icao": "LFOB",
      "alert": "OK",
      "vis_m": 9999,
      "fzfg": false,
      "metar_trigger": false,
      "taf_trigger": false,
      "metar": "METAR LFOB 280830Z AUTO 22017G28KT 9999 SCT024 BKN030 OVC039 10/05 Q1017 TEMPO 3000 SHRA BKN013TCU",
      "taf": "TAF LFOB 280500Z 2806/0106 20013KT 9999 SCT017 BKN030 OVC040"
    },
    {
      "icao": "LFPO",
      "alert": "OK",
      "vis_m": 9999,
      "fzfg": false,
      "metar_trigger": false,
      "taf_trigger": false,
      "metar": "METAR LFPO 280830Z 23012KT 9999 BKN019 BKN031 09/06 Q1020 NOSIG",
      "taf": "TAF LFPO 280500Z 2806/0112 22010KT 9999 BKN025"
    },
    {
      "icao": "LFSB",
      "alert": "OK",
      "vis_m": 9999,
      "fzfg": false,
      "metar_trigger": false,
      "taf_trigger": false,
      "metar": "METAR LFSB 280830Z AUTO 16004KT 9999 BKN037 BKN062 BKN076 10/06 Q1023 BECMG 27010KT",
      "taf": "TAF LFSB 280500Z 2806/0106 VRB03KT CAVOK"
    },
    {
      "icao": "LGAV",
      "alert": "OK",
      "vis_m": 9999,
      "fzfg": false,
      "metar_trigger": false,
      "taf_trigger": false,
      "metar": "METAR LGAV 280820Z 04016KT 9999 BKN030 11/02 Q1027 NOSIG",
      "taf": "TAF LGAV 280500Z 2806/0106 01013KT 9999 SCT020"
    },
    {
      "icao": "LGTS",
      "alert": "OK",
      "vis_m": 9999,
      "fzfg": false,
      "metar_trigger": false,
      "taf_trigger": false,
      "metar": "METAR LGTS 280820Z 09002KT 9999 BKN030 11/06 Q1028 NOSIG",
      "taf": "TAF LGTS 280500Z 2806/0106 VRB03KT 9999 BKN030"
    },
    {
      "icao": "LHBP",
      "alert": "OK",
      "vis_m": 9999,
      "fzfg": false,
      "metar_trigger": false,
      "taf_trigger": false,
      "metar": "METAR LHBP 280830Z 14007KT CAVOK 06/M01 Q1027 NOSIG",
      "taf": "TAF LHBP 280515Z 2806/0106 08006KT CAVOK"
    },
    {
      "icao": "LHDC",
      "alert": "OK",
      "vis_m": 9999,
      "fzfg": false,
      "metar_trigger": false,
      "taf_trigger": false,
      "metar": "METAR LHDC 280815Z AUTO VRB03KT CAVOK 04/M00 Q1027 NOSIG",
      "taf": "TAF LHDC 280815Z 2809/2818 VRB03KT CAVOK"
    },
    {
      "icao": "LIBD",
      "alert": "OK",
      "vis_m": 7000,
      "fzfg": false,
      "metar_trigger": false,
      "taf_trigger": false,
      "metar": "METAR LIBD 280820Z 24003KT 7000 FEW015 SCT025 13/11 Q1025",
      "taf": "TAF LIBD 280500Z 2806/0106 VRB05KT 4000 BR NSC"
    },
    {
      "icao": "LIBG",
      "alert": "OK",
      "vis_m": 9999,
      "fzfg": false,
      "metar_trigger": false,
      "taf_trigger": false,
      "metar": "METAR LIBG 280750Z VRB01KT CAVOK 12/11 Q1024",
      "taf": "TAF LIBG 280800Z 2809/2818 VRB05KT CAVOK"
    },
    {
      "icao": "LIBP",
      "alert": "OK",
      "vis_m": 600,
      "fzfg": false,
      "metar_trigger": false,
      "taf_trigger": false,
      "metar": "METAR LIBP 280820Z 27003KT 240V300 0600 R22/1100N FG OVC015 09/09 Q1025",
      "taf": "TAF LIBP 280500Z 2806/0106 VRB05KT 0600 FG OVC010"
    },
    {
      "icao": "LIBR",
      "alert": "OK",
      "vis_m": 7000,
      "fzfg": false,
      "metar_trigger": false,
      "taf_trigger": false,
      "metar": "METAR LIBR 280820Z VRB02KT 7000 BKN025 13/12 Q1025",
      "taf": "TAF LIBR 280500Z 2806/0106 VRB05KT CAVOK"
    },
    {
      "icao": "LICA",
      "alert": "OK",
      "vis_m": 9999,
      "fzfg": false,
      "metar_trigger": false,
      "taf_trigger": false,
      "metar": "METAR LICA 280820Z 20004KT 140V230 9999 FEW020 15/10 Q1025",
      "taf": "TAF LICA 280500Z 2806/0106 VRB05KT 9999 SCT020"
    },
    {
      "icao": "LICC",
      "alert": "OK",
      "vis_m": 4000,
      "fzfg": false,
      "metar_trigger": false,
      "taf_trigger": false,
      "metar": "METAR LICC 280820Z 25004KT 4000 BR FEW010 BKN018 14/12 Q1025",
      "taf": "TAF LICC 280500Z 2806/0106 VRB05KT 6000 SCT030"
    },
    {
      "icao": "LICJ",
      "alert": "OK",
      "vis_m": 9999,
      "fzfg": false,
      "metar_trigger": false,
      "taf_trigger": false,
      "metar": "METAR LICJ 280820Z 24002KT CAVOK 13/09 Q1024",
      "taf": "TAF LICJ 280500Z 2806/0106 VRB05KT 9999 SCT015"
    },
    {
      "icao": "LIMC",
      "alert": "OK",
      "vis_m": 4000,
      "fzfg": false,
      "metar_trigger": false,
      "taf_trigger": false,
      "metar": "METAR LIMC 280820Z 01004KT 4000 BR BKN030 09/08 Q1024 NOSIG",
      "taf": "TAF LIMC 280500Z 2806/0112 VRB04KT 3000 BR BKN030"
    },
    {
      "icao": "LIME",
      "alert": "OK",
      "vis_m": 6000,
      "fzfg": false,
      "metar_trigger": false,
      "taf_trigger": false,
      "metar": "METAR LIME 280820Z VRB02KT 6000 BKN045 10/07 Q1024 NOSIG",
      "taf": "TAF LIME 280500Z 2806/0106 VRB05KT 9000 SCT030"
    },
    {
      "icao": "LIMF",
      "alert": "OK",
      "vis_m": 7000,
      "fzfg": false,
      "metar_trigger": false,
      "taf_trigger": false,
      "metar": "METAR LIMF 280820Z VRB02KT 7000 BKN040 09/06 Q1024",
      "taf": "TAF LIMF 280500Z 2806/0106 VRB04KT CAVOK"
    },
    {
      "icao": "LIMJ",
      "alert": "OK",
      "vis_m": 9999,
      "fzfg": false,
      "metar_trigger": false,
      "taf_trigger": false,
      "metar": "METAR LIMJ 280820Z 07003KT 9999 FEW020 BKN040 14/08 Q1025",
      "taf": "TAF LIMJ 280500Z 2806/0106 VRB05KT 9999 FEW010 BKN030"
    },
    {
      "icao": "LIPE",
      "alert": "OK",
      "vis_m": 9999,
      "fzfg": false,
      "metar_trigger": false,
      "taf_trigger": false,
      "metar": "METAR LIPE 280820Z 20003KT 9999 BKN041 12/08 Q1025",
      "taf": "TAF LIPE 280500Z 2806/0106 VRB04KT 7000 FEW020"
    },
    {
      "icao": "LIPH",
      "alert": "OK",
      "vis_m": 200,
      "fzfg": false,
      "metar_trigger": false,
      "taf_trigger": false,
      "metar": "METAR LIPH 280820Z VRB02KT 0200 R07/1100U FG VV002 07/07 Q1025",
      "taf": ""
    },
    {
      "icao": "LIPQ",
      "alert": "OK",
      "vis_m": 4000,
      "fzfg": false,
      "metar_trigger": false,
      "taf_trigger": false,
      "metar": "METAR LIPQ 280820Z VRB01KT 4000 BR NSC 06/06 Q1025",
      "taf": "TAF LIPQ 280500Z 2806/0106 VRB04KT 0200 FG OVC002"
    },
    {
      "icao": "LIPR",
      "alert": "OK",
      "vis_m": 2500,
      "fzfg": false,
      "metar_trigger": false,
      "taf_trigger": false,
      "metar": "METAR LIPR 280820Z VRB01KT 2500 BR FEW003 BKN050 10/10 Q1025",
      "taf": "TAF LIPR 280500Z 2806/0106 VRB04KT 2000 BR SCT010"
    },
    {
      "icao": "LIPX",
      "alert": "OK",
      "vis_m": 3000,
      "fzfg": false,
      "metar_trigger": false,
      "taf_trigger": false,
      "metar": "METAR LIPX 280820Z VRB02KT 3000 BR BKN040 11/09 Q1025",
      "taf": "TAF LIPX 280500Z 2806/0106 VRB05KT 2000 BR NSC"
    },
    {
      "icao": "LIPY",
      "alert": "OK",
      "vis_m": 3000,
      "fzfg": false,
      "metar_trigger": false,
      "taf_trigger": false,
      "metar": "METAR LIPY 280820Z 05005KT 3000 R22/1400N BR SCT040 11/10 Q1025",
      "taf": "TAF LIPY 280500Z 2806/0106 VRB04KT 2500 BCFG OVC003"
    },
    {
      "icao": "LIPZ",
      "alert": "OK",
      "vis_m": 100,
      "fzfg": false,
      "metar_trigger": false,
      "taf_trigger": false,
      "metar": "METAR LIPZ 280820Z 02003KT 340V050 0100 R04R/0400N FG VV001 07/07 Q1025 NOSIG",
      "taf": "TAF LIPZ 280500Z 2806/0112 VRB04KT 0100 FG OVC001"
    },
    {
      "icao": "LIRF",
      "alert": "OK",
      "vis_m": 9999,
      "fzfg": false,
      "metar_trigger": false,
      "taf_trigger": false,
      "metar": "METAR LIRF 280820Z VRB01KT 9999 BKN045 14/09 Q1025 NOSIG",
      "taf": "TAF LIRF 280500Z 2806/0112 VRB05KT 8000 SCT030"
    },
    {
      "icao": "LIRN",
      "alert": "OK",
      "vis_m": 6000,
      "fzfg": false,
      "metar_trigger": false,
      "taf_trigger": false,
      "metar": "METAR LIRN 280820Z 03004KT 6000 FEW030 BKN060 13/08 Q1025 NOSIG",
      "taf": "TAF LIRN 280500Z 2806/0106 VRB05KT 7000 BKN025"
    },
    {
      "icao": "LIRP",
      "alert": "OK",
      "vis_m": 9999,
      "fzfg": false,
      "metar_trigger": false,
      "taf_trigger": false,
      "metar": "METAR LIRP 280815Z 11006KT 9999 FEW030 BKN040 11/11 Q1026 NOSIG",
      "taf": "TAF LIRP 280500Z 2806/0106 10004KT 9999 SCT040"
    },
    {
      "icao": "LIRZ",
      "alert": "OK",
      "vis_m": 9999,
      "fzfg": false,
      "metar_trigger": false,
      "taf_trigger": false,
      "metar": "METAR LIRZ 280820Z 33002KT 9999 BKN040 11/09 Q1025",
      "taf": ""
    },
    {
      "icao": "LJLJ",
      "alert": "OK",
      "vis_m": 9999,
      "fzfg": false,
      "metar_trigger": false,
      "taf_trigger": false,
      "metar": "METAR LJLJ 280830Z VRB01KT CAVOK 07/04 Q1024 NOSIG",
      "taf": "TAF LJLJ 280500Z 2806/0106 VRB02KT CAVOK"
    },
    {
      "icao": "LKMT",
      "alert": "OK",
      "vis_m": 9999,
      "fzfg": false,
      "metar_trigger": false,
      "taf_trigger": false,
      "metar": "METAR LKMT 280830Z 24013KT CAVOK 08/03 Q1023 NOSIG",
      "taf": "TAF LKMT 280500Z 2806/0106 24013KT CAVOK"
    },
    {
      "icao": "LKPR",
      "alert": "OK",
      "vis_m": 450,
      "fzfg": false,
      "metar_trigger": false,
      "taf_trigger": false,
      "metar": "METAR LKPR 280830Z 28003KT 240V360 0450 R24/0800U R30/0600U FG VV002 02/02 Q1022 BECMG 6000 NSC",
      "taf": "TAF LKPR 280800Z 2809/0115 33003KT 0250 FG VV002"
    },
    {
      "icao": "LLBG",
      "alert": "OK",
      "vis_m": 9999,
      "fzfg": false,
      "metar_trigger": false,
      "taf_trigger": false,
      "metar": "METAR LLBG 280820Z VRB03KT CAVOK 14/01 Q1018 NOSIG RMK SCT060 SCT090",
      "taf": "TAF LLBG 280504Z 2806/0106 VRB04KT 9999 FEW050 TX16/2811Z TN07/0104Z"
    },
    {
      "icao": "LMML",
      "alert": "OK",
      "vis_m": 9999,
      "fzfg": false,
      "metar_trigger": false,
      "taf_trigger": false,
      "metar": "METAR LMML 280845Z 18005KT 130V220 9999 FEW016 SCT020 17/12 Q1025 NOSIG",
      "taf": "TAF LMML 280500Z 2806/0106 24006KT 9999 FEW018"
    },
    {
      "icao": "LOWW",
      "alert": "OK",
      "vis_m": 9999,
      "fzfg": false,
      "metar_trigger": false,
      "taf_trigger": false,
      "metar": "METAR LOWW 280820Z 12011KT 100V160 CAVOK 06/00 Q1024 NOSIG",
      "taf": "TAF LOWW 280815Z 2809/0115 13012KT CAVOK TX13/2814Z TN02/0105Z"
    },
    {
      "icao": "LPFR",
      "alert": "OK",
      "vis_m": 9999,
      "fzfg": false,
      "metar_trigger": false,
      "taf_trigger": false,
      "metar": "METAR LPFR 280830Z 36004KT 310V030 CAVOK 12/07 Q1023",
      "taf": "TAF LPFR 280500Z 2806/0106 35007KT CAVOK"
    },
    {
      "icao": "LPMA",
      "alert": "OK",
      "vis_m": 9999,
      "fzfg": false,
      "metar_trigger": false,
      "taf_trigger": false,
      "metar": "METAR LPMA 280830Z 01016KT 320V030 9999 BKN014 15/07 Q1027",
      "taf": "TAF LPMA 280500Z 2806/0106 01015KT 9999 SCT015"
    },
    {
      "icao": "LPPR",
      "alert": "OK",
      "vis_m": 9999,
      "fzfg": false,
      "metar_trigger": false,
      "taf_trigger": false,
      "metar": "METAR LPPR 280830Z 06005KT 320V070 CAVOK 06/05 Q1027",
      "taf": "TAF LPPR 280500Z 2806/0106 02005KT CAVOK"
    },
    {
      "icao": "LPPS",
      "alert": "OK",
      "vis_m": 9999,
      "fzfg": false,
      "metar_trigger": false,
      "taf_trigger": false,
      "metar": "METAR LPPS 280830Z 02014KT 9999 SCT015 BKN030 14/08 Q1027",
      "taf": "TAF LPPS 280500Z 2806/0112 02015KT 9999 SCT012 BKN030"
    },
    {
      "icao": "LPPT",
      "alert": "OK",
      "vis_m": 9999,
      "fzfg": false,
      "metar_trigger": false,
      "taf_trigger": false,
      "metar": "METAR LPPT 280830Z 35013KT 9999 FEW025 10/07 Q1026",
      "taf": "TAF LPPT 280500Z 2806/0112 35015KT CAVOK"
    },
    {
      "icao": "LQBK",
      "alert": "OK",
      "vis_m": 9999,
      "fzfg": false,
      "metar_trigger": false,
      "taf_trigger": false,
      "metar": "METAR LQBK 280830Z 11004KT 080V140 CAVOK 08/03 Q1025 NOSIG",
      "taf": ""
    },
    {
      "icao": "LQSA",
      "alert": "OK",
      "vis_m": 9999,
      "fzfg": false,
      "metar_trigger": false,
      "taf_trigger": false,
      "metar": "METAR LQSA 280830Z VRB01KT CAVOK 05/01 Q1025 NOSIG",
      "taf": ""
    },
    {
      "icao": "LQTZ",
      "alert": "OK",
      "vis_m": 9999,
      "fzfg": false,
      "metar_trigger": false,
      "taf_trigger": false,
      "metar": "METAR LQTZ 280830Z VRB03KT CAVOK 07/02 Q1025",
      "taf": ""
    },
    {
      "icao": "LRBC",
      "alert": "OK",
      "vis_m": 5000,
      "fzfg": false,
      "metar_trigger": false,
      "taf_trigger": false,
      "metar": "METAR LRBC 280830Z AUTO 15008KT 5000 BR OVC002/// M02/M02 Q1030",
      "taf": "TAF LRBC 280800Z 2809/2818 17010KT 1500 BR OVC002"
    },
    {
      "icao": "LRBS",
      "alert": "OK",
      "vis_m": 1800,
      "fzfg": false,
      "metar_trigger": false,
      "taf_trigger": false,
      "metar": "METAR LRBS 280830Z VRB01KT 1800 BR OVC002 M02/M02 Q1032 BECMG 3000",
      "taf": "TAF LRBS 280500Z 2806/0106 VRB04KT 1500 BR OVC002"
    },
    {
      "icao": "LRBV",
      "alert": "OK",
      "vis_m": 9999,
      "fzfg": false,
      "metar_trigger": false,
      "taf_trigger": false,
      "metar": "METAR LRBV 280830Z 15001KT CAVOK 01/M03 Q1027",
      "taf": "TAF LRBV 280800Z 2809/2818 VRB04KT CAVOK"
    },
    {
      "icao": "LRCL",
      "alert": "OK",
      "vis_m": 9999,
      "fzfg": false,
      "metar_trigger": false,
      "taf_trigger": false,
      "metar": "METAR LRCL 280830Z 08003KT 020V120 CAVOK 02/M02 Q1028",
      "taf": "TAF LRCL 280800Z 2809/2818 VRB04KT CAVOK"
    },
    {
      "icao": "LRCV",
      "alert": "OK",
      "vis_m": 200,
      "fzfg": true,
      "metar_trigger": false,
      "taf_trigger": false,
      "metar": "METAR LRCV 280830Z 10004KT 070V160 0200 R26/0225N FZFG VV002 M02/M02 Q1031",
      "taf": "TAF LRCV 280800Z 2809/2818 09006KT 0200 FZFG OVC001"
    },
    {
      "icao": "LRIA",
      "alert": "OK",
      "vis_m": 9999,
      "fzfg": false,
      "metar_trigger": false,
      "taf_trigger": false,
      "metar": "METAR LRIA 280830Z 15003KT 080V220 9999 OVC004 M02/M03 Q1030",
      "taf": "TAF LRIA 280800Z 2809/2818 11005KT 9999 OVC005"
    },
    {
      "icao": "LROP",
      "alert": "OK",
      "vis_m": 800,
      "fzfg": true,
      "metar_trigger": false,
      "taf_trigger": false,
      "metar": "METAR LROP 280830Z VRB02KT 0800 R08R/1200N R08L/1300U FZFG OVC002 M02/M02 Q1031 BECMG 1500 BR",
      "taf": "TAF LROP 280500Z 2806/0106 VRB04KT 0600 FZFG OVC001"
    },
    {
      "icao": "LRSB",
      "alert": "OK",
      "vis_m": 9999,
      "fzfg": false,
      "metar_trigger": false,
      "taf_trigger": false,
      "metar": "METAR LRSB 280830Z VRB02KT CAVOK 04/M02 Q1027 NOSIG",
      "taf": "TAF LRSB 280500Z 2806/0106 VRB04KT CAVOK"
    },
    {
      "icao": "LRSM",
      "alert": "OK",
      "vis_m": 9999,
      "fzfg": false,
      "metar_trigger": false,
      "taf_trigger": false,
      "metar": "METAR LRSM 280830Z AUTO VRB01KT 9999 NCD 06/M01 Q1027",
      "taf": ""
    },
    {
      "icao": "LRSV",
      "alert": "CRITICAL",
      "vis_m": 100,
      "fzfg": true,
      "metar_trigger": true,
      "taf_trigger": true,
      "metar": "METAR LRSV 280830Z 11004KT 080V140 0100 R34/0250N FZFG VV001 M03/M03 Q1027",
      "taf": "TAF LRSV 280800Z 2809/2818 14007KT 0100 FZFG VV001"
    },
    {
      "icao": "LRTM",
      "alert": "OK",
      "vis_m": 9999,
      "fzfg": false,
      "metar_trigger": false,
      "taf_trigger": false,
      "metar": "METAR LRTM 280830Z 07003KT 010V120 CAVOK 03/M02 Q1028",
      "taf": "TAF LRTM 280800Z 2809/2818 VRB04KT CAVOK"
    },
    {
      "icao": "LRTR",
      "alert": "OK",
      "vis_m": 9999,
      "fzfg": false,
      "metar_trigger": false,
      "taf_trigger": false,
      "metar": "METAR LRTR 280830Z 11007KT CAVOK 06/02 Q1027",
      "taf": "TAF LRTR 280500Z 2806/0106 10007KT CAVOK"
    },
    {
      "icao": "LTAC",
      "alert": "OK",
      "vis_m": 9999,
      "fzfg": false,
      "metar_trigger": false,
      "taf_trigger": false,
      "metar": "METAR LTAC 280820Z 11004KT 040V190 9999 FEW040 SCT100 03/M05 Q1021 NOSIG RMK RWY21C VRB02KT RWY03L 10004KT 040V130 RWY21R VRB02KT RWY03R 05005KT 340V070 RWY21L VRB01KT",
      "taf": "TAF LTAC 280440Z 2806/0106 VRB02KT 9999 SCT040 SCT100"
    },
    {
      "icao": "LTFM",
      "alert": "OK",
      "vis_m": 9999,
      "fzfg": false,
      "metar_trigger": false,
      "taf_trigger": false,
      "metar": "METAR LTFM 280820Z 33016KT 9999 SCT012 BKN026 05/03 Q1029 NOSIG RMK RWY17L 34012KT RWY34L 33015KT RWY16R 33011KT RWY36 01013KT RWY18 02012KT",
      "taf": "TAF LTFM 280440Z 2806/0112 01013KT 9999 SCT016 BKN025"
    },
    {
      "icao": "LUKK",
      "alert": "OK",
      "vis_m": 1200,
      "fzfg": true,
      "metar_trigger": false,
      "taf_trigger": false,
      "metar": "METAR LUKK 280830Z VRB01KT 1200 0600SW R08/0650D BR PRFG OVC002 M03/M03 Q1031 BECMG 5000 BR BKN007",
      "taf": "TAF LUKK 280516Z 2806/0106 VRB04KT 0600 FZFG VV002"
    },
    {
      "icao": "LWOH",
      "alert": "OK",
      "vis_m": 9999,
      "fzfg": false,
      "metar_trigger": false,
      "taf_trigger": false,
      "metar": "METAR LWOH 280820Z 16004KT 130V200 9999 FEW025 08/03 Q1025",
      "taf": "TAF LWOH 280820Z 2809/0109 16008KT CAVOK"
    },
    {
      "icao": "LWSK",
      "alert": "OK",
      "vis_m": 9999,
      "fzfg": false,
      "metar_trigger": false,
      "taf_trigger": false,
      "metar": "METAR LWSK 280850Z VRB01KT 9999 OVC018 06/03 Q1028 NOSIG",
      "taf": "TAF LWSK 280820Z 2809/0109 VRB02KT 9999 BKN020"
    },
    {
      "icao": "LYBE",
      "alert": "OK",
      "vis_m": 9999,
      "fzfg": false,
      "metar_trigger": false,
      "taf_trigger": false,
      "metar": "METAR LYBE 280830Z 13010KT CAVOK 09/M01 Q1026 NOSIG",
      "taf": "TAF LYBE 280500Z 2806/0106 06004KT CAVOK TX15/2813Z TN01/0106Z"
    },
    {
      "icao": "LYNI",
      "alert": "OK",
      "vis_m": 9999,
      "fzfg": false,
      "metar_trigger": false,
      "taf_trigger": false,
      "metar": "METAR LYNI 280830Z 21003KT 140V300 CAVOK 04/00 Q1028 NOSIG",
      "taf": "TAF LYNI 280500Z 2806/0106 06008KT CAVOK TX15/2813Z TNM02/2806Z"
    },
    {
      "icao": "LYPG",
      "alert": "OK",
      "vis_m": 9999,
      "fzfg": false,
      "metar_trigger": false,
      "taf_trigger": false,
      "metar": "METAR LYPG 280830Z VRB02KT CAVOK 12/04 Q1025 NOSIG",
      "taf": "TAF LYPG 280500Z 2806/0106 18005KT CAVOK TX19/2812Z TN04/0105Z"
    },
    {
      "icao": "LZIB",
      "alert": "OK",
      "vis_m": 9999,
      "fzfg": false,
      "metar_trigger": false,
      "taf_trigger": false,
      "metar": "METAR LZIB 280830Z 06008KT CAVOK 06/01 Q1025 NOSIG",
      "taf": "TAF LZIB 280515Z 2806/0106 05009KT CAVOK"
    },
    {
      "icao": "LZKZ",
      "alert": "OK",
      "vis_m": 9999,
      "fzfg": false,
      "metar_trigger": false,
      "taf_trigger": false,
      "metar": "METAR LZKZ 280830Z VRB01KT CAVOK 06/01 Q1027 NOSIG",
      "taf": "TAF LZKZ 280515Z 2806/0106 VRB02KT CAVOK"
    },
    {
      "icao": "LZTT",
      "alert": "OK",
      "vis_m": 9999,
      "fzfg": false,
      "metar_trigger": false,
      "taf_trigger": false,
      "metar": "METAR LZTT 280830Z VRB02KT CAVOK 03/M00 Q1024 NOSIG",
      "taf": "TAF LZTT 280515Z 2806/0106 28005KT CAVOK"
    },
    {
      "icao": "OEJN",
      "alert": "OK",
      "vis_m": 9999,
      "fzfg": false,
      "metar_trigger": false,
      "taf_trigger": false,
      "metar": "METAR OEJN 280800Z 36012KT CAVOK 27/09 Q1011 NOSIG",
      "taf": "TAF OEJN 280500Z 2806/0112 30012KT 9999 FEW040"
    },
    {
      "icao": "OEMA",
      "alert": "OK",
      "vis_m": 9999,
      "fzfg": false,
      "metar_trigger": false,
      "taf_trigger": false,
      "metar": "METAR OEMA 280800Z VRB03KT CAVOK 21/M02 Q1014 NOSIG",
      "taf": "TAF OEMA 280500Z 2806/0112 28012KT CAVOK"
    },
    {
      "icao": "OJAI",
      "alert": "OK",
      "vis_m": 4000,
      "fzfg": false,
      "metar_trigger": false,
      "taf_trigger": false,
      "metar": "METAR OJAI 280800Z 15004KT 4000 HZ NSC 08/M02 Q1018 NOSIG",
      "taf": "TAF OJAI 280439Z 2806/0112 VRB02KT 4000 BR FEW040"
    },
    {
      "icao": "OMAA",
      "alert": "OK",
      "vis_m": 9999,
      "fzfg": false,
      "metar_trigger": false,
      "taf_trigger": false,
      "metar": "METAR OMAA 280830Z VRB04KT CAVOK 28/07 Q1010 NOSIG",
      "taf": "TAF OMAA 280500Z 2806/0112 VRB02KT 8000 NSC"
    },
    {
      "icao": "OMDB",
      "alert": "OK",
      "vis_m": 9999,
      "fzfg": false,
      "metar_trigger": false,
      "taf_trigger": false,
      "metar": "METAR OMDB 280830Z 31006KT 260V020 CAVOK 28/11 Q1011 NOSIG",
      "taf": "TAF OMDB 280500Z 2806/0112 18005KT 8000 NSC"
    },
    {
      "icao": "UAAA",
      "alert": "OK",
      "vis_m": 3500,
      "fzfg": false,
      "metar_trigger": false,
      "taf_trigger": false,
      "metar": "METAR UAAA 280830Z 34003MPS 300V010 3500 -SN BR OVC033 M08/M11 Q1024 NOSIG",
      "taf": "TAF UAAA 280505Z 2806/0106 32003MPS 5000 -SN BR BKN020 OVC050 TXM06/2808Z TNM14/0102Z"
    },
    {
      "icao": "UBBB",
      "alert": "OK",
      "vis_m": 9999,
      "fzfg": false,
      "metar_trigger": false,
      "taf_trigger": false,
      "metar": "METAR UBBB 280830Z 35016KT 9999 SCT015 BKN025 05/01 Q1018 NOSIG",
      "taf": "TAF UBBB 280458Z 2806/0106 35018G28KT 9999 BKN012 OVC020 TX06/2810Z TN03/0102Z"
    },
    {
      "icao": "UDSG",
      "alert": "OK",
      "vis_m": 9999,
      "fzfg": false,
      "metar_trigger": false,
      "taf_trigger": false,
      "metar": "METAR UDSG 280830Z 15002KT 9999 BKN036 M01/M04 Q1013 NOSIG",
      "taf": "TAF UDSG 280458Z 2806/0106 18006KT 3000 BR BKN030"
    },
    {
      "icao": "UDYZ",
      "alert": "OK",
      "vis_m": 9999,
      "fzfg": false,
      "metar_trigger": false,
      "taf_trigger": false,
      "metar": "METAR UDYZ 280830Z 25006KT 9999 SCT015 BKN043 05/M02 Q1014 NOSIG",
      "taf": "TAF UDYZ 280500Z 2806/0106 22006KT 6000 SCT040"
    },
    {
      "icao": "UGKO",
      "alert": "OK",
      "vis_m": 9999,
      "fzfg": false,
      "metar_trigger": false,
      "taf_trigger": false,
      "metar": "METAR UGKO 280830Z 09007KT 9999 SCT020 OVC045 04/03 Q1019 NOSIG",
      "taf": "TAF UGKO 280500Z 2806/0106 09006KT 8000 SCT020 OVC030 TX06/2811Z TN03/2806Z"
    }
  ]
}