{
  "ts_utc": "2026-01-12T19:34:52Z",
  "threshold_m": 150,
  "source": "stations_override.txt (ICAO list) + aviationweather.gov (METAR/TAF raw)",
  "station_count": 159,
  "stations": [
    {
      "icao": "BIKF",
      "alert": "OK",
      "vis_m": 9999,
      "fzfg": false,
      "metar_trigger": false,
      "taf_trigger": false,
      "metar": "METAR BIKF 121930Z 35027KT 9999 BKN026 BKN035 M01/M07 Q0996",
      "taf": "TAF BIKF 121929Z 1221/1321 01027G37KT 9999 BKN025 TXM02/1221Z TNM03/1316Z"
    },
    {
      "icao": "BKPR",
      "alert": "OK",
      "vis_m": null,
      "fzfg": false,
      "metar_trigger": false,
      "taf_trigger": false,
      "metar": "",
      "taf": "TAF BKPR 121730Z 1218/1318 28007KT CAVOK"
    },
    {
      "icao": "EBCI",
      "alert": "OK",
      "vis_m": 9999,
      "fzfg": false,
      "metar_trigger": false,
      "taf_trigger": false,
      "metar": "METAR EBCI 121920Z 21013KT 9999 SCT011 BKN020 09/07 Q1008 TEMPO 21015G25KT",
      "taf": "TAF EBCI 121714Z 1218/1324 21011KT 9999 SCT004 BKN008"
    },
    {
      "icao": "EDDB",
      "alert": "OK",
      "vis_m": 9999,
      "fzfg": false,
      "metar_trigger": false,
      "taf_trigger": false,
      "metar": "METAR EDDB 121920Z AUTO 14008KT 9999 FEW005 OVC015 OVC024 M03/M04 Q1011 TEMPO 4000 BR BKN004",
      "taf": "TAF EDDB 121700Z 1218/1318 14007KT 8000 BKN015"
    },
    {
      "icao": "EDDH",
      "alert": "OK",
      "vis_m": 3300,
      "fzfg": false,
      "metar_trigger": false,
      "taf_trigger": false,
      "metar": "METAR EDDH 121920Z AUTO 15008KT 3300 BR OVC002 00/00 Q1007 TEMPO 1200 BR OVC001",
      "taf": "TAF EDDH 121700Z 1218/1324 15009KT 4500 BR OVC003"
    },
    {
      "icao": "EDDK",
      "alert": "OK",
      "vis_m": 9999,
      "fzfg": false,
      "metar_trigger": false,
      "taf_trigger": false,
      "metar": "METAR EDDK 121920Z AUTO 16008KT 9999 -SHRA BKN033 FEW///TCU 07/06 Q1008 RESHRA TEMPO RA",
      "taf": "TAF EDDK 121700Z 1218/1324 14007KT 9999 BKN020"
    },
    {
      "icao": "EDDN",
      "alert": "OK",
      "vis_m": 4000,
      "fzfg": false,
      "metar_trigger": false,
      "taf_trigger": false,
      "metar": "METAR EDDN 121920Z AUTO 12006KT 4000 -RADZ BR BKN004 BKN011 BKN048 01/01 Q1013 TEMPO 2500 RADZ SCT004 BKN007",
      "taf": ""
    },
    {
      "icao": "EDDS",
      "alert": "OK",
      "vis_m": 9999,
      "fzfg": false,
      "metar_trigger": false,
      "taf_trigger": false,
      "metar": "METAR EDDS 121920Z AUTO 21005KT 160V260 CAVOK 07/05 Q1012 NOSIG",
      "taf": "TAF EDDS 121700Z 1218/1318 23008KT 9999 BKN040"
    },
    {
      "icao": "EDFH",
      "alert": "OK",
      "vis_m": 9999,
      "fzfg": false,
      "metar_trigger": false,
      "taf_trigger": false,
      "metar": "METAR EDFH 121920Z 21013KT 9999 SCT016 BKN040 06/05 Q1010",
      "taf": "TAF EDFH 121700Z 1218/1318 23010KT 9999 BKN010"
    },
    {
      "icao": "EDJA",
      "alert": "OK",
      "vis_m": 9999,
      "fzfg": false,
      "metar_trigger": false,
      "taf_trigger": false,
      "metar": "METAR EDJA 121920Z 21010KT 9999 OVC050 04/03 Q1016",
      "taf": "TAF EDJA 121700Z 1218/1303 22011KT 9999 FEW020 OVC035"
    },
    {
      "icao": "EDLW",
      "alert": "OK",
      "vis_m": 9999,
      "fzfg": false,
      "metar_trigger": false,
      "taf_trigger": false,
      "metar": "METAR EDLW 121920Z 18012KT 9999 -RA SCT020 OVC025 06/05 Q1006",
      "taf": "TAF EDLW 121700Z 1218/1318 19010KT 9999 BKN020"
    },
    {
      "icao": "EDNY",
      "alert": "OK",
      "vis_m": 9999,
      "fzfg": false,
      "metar_trigger": false,
      "taf_trigger": false,
      "metar": "METAR EDNY 121920Z 00000KT 9999 SCT047 BKN053 02/02 Q1017",
      "taf": "TAF EDNY 121700Z 1218/1303 VRB03KT 9999 OVC035"
    },
    {
      "icao": "EDSB",
      "alert": "OK",
      "vis_m": 9999,
      "fzfg": false,
      "metar_trigger": false,
      "taf_trigger": false,
      "metar": "METAR EDSB 121920Z 23007KT CAVOK 08/06 Q1013",
      "taf": "TAF EDSB 121700Z 1218/1318 20010KT 9999 BKN040"
    },
    {
      "icao": "EETN",
      "alert": "OK",
      "vis_m": 9999,
      "fzfg": false,
      "metar_trigger": false,
      "taf_trigger": false,
      "metar": "METAR EETN 121920Z 08006KT 9999 -SN OVC011 M03/M05 Q1018 TEMPO 5000 SN",
      "taf": "TAF EETN 121730Z 1218/1318 09008KT 9999 SCT015 BKN025"
    },
    {
      "icao": "EFTU",
      "alert": "OK",
      "vis_m": 9999,
      "fzfg": false,
      "metar_trigger": false,
      "taf_trigger": false,
      "metar": "METAR EFTU 121920Z AUTO 08006KT CAVOK M11/M12 Q1019",
      "taf": "TAF EFTU 121730Z 1218/1318 08007KT CAVOK"
    },
    {
      "icao": "EGBB",
      "alert": "OK",
      "vis_m": 9999,
      "fzfg": false,
      "metar_trigger": false,
      "taf_trigger": false,
      "metar": "METAR EGBB 121920Z 19006KT 160V240 9999 BKN041 09/07 Q1000",
      "taf": "TAF EGBB 121659Z 1218/1318 18008KT 9999 SCT040"
    },
    {
      "icao": "EGGP",
      "alert": "OK",
      "vis_m": 9999,
      "fzfg": false,
      "metar_trigger": false,
      "taf_trigger": false,
      "metar": "METAR EGGP 121920Z VRB02KT 9999 FEW031 SCT042 08/05 Q0997",
      "taf": "TAF EGGP 121700Z 1218/1318 17009KT 9999 SCT030"
    },
    {
      "icao": "EGGW",
      "alert": "OK",
      "vis_m": 9999,
      "fzfg": false,
      "metar_trigger": false,
      "taf_trigger": false,
      "metar": "METAR EGGW 121920Z AUTO 20009KT 170V230 9999 FEW017 SCT022 09/08 Q1002",
      "taf": "TAF EGGW 121656Z 1218/1318 20010KT 9999 SCT012"
    },
    {
      "icao": "EGKK",
      "alert": "OK",
      "vis_m": 9999,
      "fzfg": false,
      "metar_trigger": false,
      "taf_trigger": false,
      "metar": "METAR EGKK 121920Z 22009KT 9999 -RA BKN007 10/10 Q1004",
      "taf": "TAF EGKK 121656Z 1218/1324 21001KT 9999 SCT010"
    },
    {
      "icao": "EGNM",
      "alert": "OK",
      "vis_m": 9999,
      "fzfg": false,
      "metar_trigger": false,
      "taf_trigger": false,
      "metar": "METAR EGNM 121920Z 22013KT 9999 FEW040 08/06 Q0996",
      "taf": "TAF EGNM 121702Z 1218/1318 21009KT 9999 SCT025"
    },
    {
      "icao": "EGPD",
      "alert": "OK",
      "vis_m": 9999,
      "fzfg": false,
      "metar_trigger": false,
      "taf_trigger": false,
      "metar": "METAR EGPD 121920Z COR AUTO 20009KT 9999 SCT022 07/04 Q0990 NOSIG",
      "taf": "TAF EGPD 121659Z 1218/1318 19010KT 9999 FEW035"
    },
    {
      "icao": "EGPF",
      "alert": "OK",
      "vis_m": 9999,
      "fzfg": false,
      "metar_trigger": false,
      "taf_trigger": false,
      "metar": "METAR EGPF 121920Z AUTO 22008KT 9999 -RA SCT014/// BKN035/// BKN048/// //////TCU 08/07 Q0991",
      "taf": "TAF EGPF 121655Z 1218/1318 21012KT 9999 SCT025"
    },
    {
      "icao": "EHBK",
      "alert": "OK",
      "vis_m": 9999,
      "fzfg": false,
      "metar_trigger": false,
      "taf_trigger": false,
      "metar": "METAR EHBK 121925Z AUTO 22015KT 180V240 9999 BKN017 OVC020 09/08 Q1007 TEMPO BKN012",
      "taf": "TAF EHBK 121704Z 1218/1324 20018KT 9999 -RA BKN018"
    },
    {
      "icao": "EHEH",
      "alert": "OK",
      "vis_m": 9999,
      "fzfg": false,
      "metar_trigger": false,
      "taf_trigger": false,
      "metar": "METAR EHEH 121925Z AUTO 22011KT 200V260 9999 SCT004 BKN005 BKN010 09/09 Q1006 YLO TEMPO 3000 RA SCT003 BKN005",
      "taf": "TAF EHEH 121753Z 1218/1324 20004KT 9000 SCT004 BKN008"
    },
    {
      "icao": "EKBI",
      "alert": "OK",
      "vis_m": 3500,
      "fzfg": false,
      "metar_trigger": false,
      "taf_trigger": false,
      "metar": "METAR EKBI 121920Z 13008KT 3500 BR -FZDZ OVC003 M00/M00 Q1005",
      "taf": "TAF EKBI 121727Z 1218/1318 14011KT 7000 -SN OVC003"
    },
    {
      "icao": "EKCH",
      "alert": "OK",
      "vis_m": 9999,
      "fzfg": false,
      "metar_trigger": false,
      "taf_trigger": false,
      "metar": "METAR EKCH 121920Z AUTO 13019KT 9999 -SN OVC020/// 00/M02 Q1010 TEMPO 4000 SN BKN010",
      "taf": ""
    },
    {
      "icao": "ENAL",
      "alert": "OK",
      "vis_m": 9999,
      "fzfg": false,
      "metar_trigger": false,
      "taf_trigger": false,
      "metar": "METAR ENAL 121920Z 13019KT 9999 FEW059 06/M03 Q0994",
      "taf": "TAF ENAL 121700Z 1218/1303 13015KT 9999 SCT060"
    },
    {
      "icao": "ENBR",
      "alert": "OK",
      "vis_m": 9999,
      "fzfg": false,
      "metar_trigger": false,
      "taf_trigger": false,
      "metar": "METAR ENBR 121920Z 12016KT 9999 FEW027 BKN039 05/M04 Q0996 TEMPO 13020G32KT RMK WIND 1200FT 13035G45KT",
      "taf": "TAF ENBR 121700Z 1218/1318 13015KT 9999 BKN040"
    },
    {
      "icao": "ENGM",
      "alert": "OK",
      "vis_m": 9999,
      "fzfg": false,
      "metar_trigger": false,
      "taf_trigger": false,
      "metar": "METAR ENGM 121920Z 01003KT 9999 OVC015 M08/M10 Q1013 TEMPO OVC012",
      "taf": ""
    },
    {
      "icao": "ENHD",
      "alert": "OK",
      "vis_m": 9999,
      "fzfg": false,
      "metar_trigger": false,
      "taf_trigger": false,
      "metar": "METAR ENHD 121920Z 11029KT 9999 BKN038 04/M04 Q0998",
      "taf": "TAF ENHD 121400Z 1215/1223 13025KT 9999 BKN040"
    },
    {
      "icao": "ENTC",
      "alert": "OK",
      "vis_m": 9999,
      "fzfg": false,
      "metar_trigger": false,
      "taf_trigger": false,
      "metar": "METAR ENTC 121920Z 13003KT CAVOK M04/M11 Q1013 TEMPO 19015KT RMK WIND 2600FT 17029KT",
      "taf": ""
    },
    {
      "icao": "ENTO",
      "alert": "OK",
      "vis_m": 9999,
      "fzfg": false,
      "metar_trigger": false,
      "taf_trigger": false,
      "metar": "METAR ENTO 121920Z 06005KT 020V090 9999 FEW010 BKN018 M04/M06 Q1011 TEMPO 4000-SN BKN012",
      "taf": ""
    },
    {
      "icao": "ENVA",
      "alert": "OK",
      "vis_m": 9999,
      "fzfg": false,
      "metar_trigger": false,
      "taf_trigger": false,
      "metar": "METAR ENVA 121920Z 14018KT 110V170 9999 FEW045 BKN060 M01/M09 Q1004 TEMPO 15022G35KT RMK WIND 670FT 16036G49KT",
      "taf": "TAF ENVA 121700Z 1218/1318 13015KT CAVOK"
    },
    {
      "icao": "ENZV",
      "alert": "OK",
      "vis_m": 9999,
      "fzfg": false,
      "metar_trigger": false,
      "taf_trigger": false,
      "metar": "METAR ENZV 121920Z 12018KT 9999 BKN041 03/M04 Q0999 NOSIG",
      "taf": "TAF ENZV 121700Z 1218/1318 13025G35KT 9999 SCT040"
    },
    {
      "icao": "EPGD",
      "alert": "OK",
      "vis_m": 9999,
      "fzfg": false,
      "metar_trigger": false,
      "taf_trigger": false,
      "metar": "METAR EPGD 121930Z 21006KT 9999 BKN036 M03/M05 Q1015",
      "taf": "TAF EPGD 121730Z 1218/1318 VRB02KT 9999 BKN030"
    },
    {
      "icao": "EPKK",
      "alert": "OK",
      "vis_m": 7000,
      "fzfg": false,
      "metar_trigger": false,
      "taf_trigger": false,
      "metar": "METAR EPKK 121930Z 03003KT 7000 NSC M10/M12 Q1017",
      "taf": "TAF EPKK 121730Z 1218/1318 06004KT CAVOK"
    },
    {
      "icao": "EPKT",
      "alert": "OK",
      "vis_m": 7000,
      "fzfg": false,
      "metar_trigger": false,
      "taf_trigger": false,
      "metar": "METAR EPKT 121930Z 13005KT 7000 NSC M08/M12 Q1016",
      "taf": "TAF EPKT 121730Z 1218/1318 18010KT CAVOK"
    },
    {
      "icao": "EPLB",
      "alert": "OK",
      "vis_m": 5000,
      "fzfg": false,
      "metar_trigger": false,
      "taf_trigger": false,
      "metar": "METAR EPLB 121930Z 28003KT 5000 -SN BR SCT018 OVC028 M08/M09 Q1017",
      "taf": "TAF EPLB 121730Z 1218/1318 VRB02KT 4000 BR SCT031"
    },
    {
      "icao": "EPMO",
      "alert": "OK",
      "vis_m": 6000,
      "fzfg": false,
      "metar_trigger": false,
      "taf_trigger": false,
      "metar": "METAR EPMO 121930Z 23005KT 6000 BKN040 M05/M06 Q1017",
      "taf": "TAF EPMO 121730Z 1218/1318 VRB02KT 6000 BKN043"
    },
    {
      "icao": "EPPO",
      "alert": "OK",
      "vis_m": 9999,
      "fzfg": false,
      "metar_trigger": false,
      "taf_trigger": false,
      "metar": "METAR EPPO 121930Z 14007KT CAVOK M05/M08 Q1015",
      "taf": "TAF EPPO 121730Z 1218/1318 14010KT CAVOK"
    },
    {
      "icao": "EPRA",
      "alert": "OK",
      "vis_m": 7000,
      "fzfg": false,
      "metar_trigger": false,
      "taf_trigger": false,
      "metar": "METAR EPRA 121930Z 25006KT 7000 SCT027 M07/M08 Q1017",
      "taf": "TAF EPRA 121730Z 1218/1303 24006KT 9999 BKN025"
    },
    {
      "icao": "EPRZ",
      "alert": "OK",
      "vis_m": 9999,
      "fzfg": false,
      "metar_trigger": false,
      "taf_trigger": false,
      "metar": "METAR EPRZ 121930Z 23003KT 9999 OVC030 M05/M07 Q1018",
      "taf": "TAF EPRZ 121730Z 1218/1318 27008KT 9999 BKN013"
    },
    {
      "icao": "EPSC",
      "alert": "OK",
      "vis_m": 9999,
      "fzfg": false,
      "metar_trigger": false,
      "taf_trigger": false,
      "metar": "METAR EPSC 121930Z 13011KT 9999 OVC023 M03/M09 Q1013",
      "taf": "TAF EPSC 121730Z 1218/1318 13010KT CAVOK"
    },
    {
      "icao": "EPSY",
      "alert": "OK",
      "vis_m": 7000,
      "fzfg": false,
      "metar_trigger": false,
      "taf_trigger": false,
      "metar": "METAR EPSY 121930Z 00000KT 7000 MIFG NSC M13/M15 Q1016",
      "taf": "TAF EPSY 121730Z 1218/1303 20005KT 9999 SCT040"
    },
    {
      "icao": "EPWA",
      "alert": "OK",
      "vis_m": 4000,
      "fzfg": false,
      "metar_trigger": false,
      "taf_trigger": false,
      "metar": "METAR EPWA 121930Z 15004KT 4000 BR FEW024 SCT043 M08/M08 Q1017 TEMPO 1200 BR",
      "taf": ""
    },
    {
      "icao": "EPWR",
      "alert": "OK",
      "vis_m": 9999,
      "fzfg": false,
      "metar_trigger": false,
      "taf_trigger": false,
      "metar": "METAR EPWR 121930Z 12010KT CAVOK M03/M09 Q1015",
      "taf": "TAF EPWR 121730Z 1218/1318 12010KT CAVOK"
    },
    {
      "icao": "ESGG",
      "alert": "OK",
      "vis_m": 9999,
      "fzfg": false,
      "metar_trigger": false,
      "taf_trigger": false,
      "metar": "METAR ESGG 121920Z 11011KT 9999 -SN FEW018 M05/M08 Q1010",
      "taf": "TAF ESGG 121730Z 1218/1318 11010KT 9999 -SN BKN040"
    },
    {
      "icao": "ESKN",
      "alert": "OK",
      "vis_m": 9999,
      "fzfg": false,
      "metar_trigger": false,
      "taf_trigger": false,
      "metar": "METAR ESKN 121920Z 05004KT 9999 -SN OVC039 M05/M05 Q1015",
      "taf": "TAF ESKN 121730Z 1218/1318 04005KT 7000 -SN SCT007 BKN015"
    },
    {
      "icao": "ESMS",
      "alert": "OK",
      "vis_m": 9999,
      "fzfg": false,
      "metar_trigger": false,
      "taf_trigger": false,
      "metar": "METAR ESMS 121920Z 13011KT 9999 BKN041 00/M08 Q1010",
      "taf": "TAF ESMS 121727Z 1218/1318 13011KT 9999 OVC020"
    },
    {
      "icao": "ESSA",
      "alert": "OK",
      "vis_m": 9999,
      "fzfg": false,
      "metar_trigger": false,
      "taf_trigger": false,
      "metar": "METAR ESSA 121920Z 07006KT 9999 SCT029 M05/M07 Q1017 NOSIG",
      "taf": "TAF ESSA 121730Z 1218/1318 07007KT 9999 BKN020"
    },
    {
      "icao": "EYKA",
      "alert": "OK",
      "vis_m": 5000,
      "fzfg": false,
      "metar_trigger": false,
      "taf_trigger": false,
      "metar": "METAR EYKA 121920Z VRB01KT 5000 BR OVC002 M18/M21 Q1017",
      "taf": "TAF EYKA 121704Z 1218/1318 VRB03KT 3000 BR SCT005"
    },
    {
      "icao": "EYPA",
      "alert": "OK",
      "vis_m": 9999,
      "fzfg": false,
      "metar_trigger": false,
      "taf_trigger": false,
      "metar": "METAR EYPA 121920Z VRB02KT CAVOK M11/M13 Q1018",
      "taf": "TAF EYPA 121704Z 1218/1318 VRB05KT 6000 SCT010 BKN030"
    },
    {
      "icao": "EYVI",
      "alert": "OK",
      "vis_m": 7000,
      "fzfg": false,
      "metar_trigger": false,
      "taf_trigger": false,
      "metar": "METAR EYVI 121920Z 33006KT 7000 -SN OVC004 M12/M13 Q1015 NOSIG",
      "taf": "TAF EYVI 121704Z 1218/1318 VRB05KT 5000 BR BKN005"
    },
    {
      "icao": "GCFV",
      "alert": "OK",
      "vis_m": 9999,
      "fzfg": false,
      "metar_trigger": false,
      "taf_trigger": false,
      "metar": "METAR GCFV 121900Z VRB02KT 9999 FEW025 18/12 Q1020",
      "taf": "TAF GCFV 121400Z 1215/1315 09007KT 9999 FEW025 TX21/1314Z TN12/1306Z"
    },
    {
      "icao": "GCLP",
      "alert": "OK",
      "vis_m": 9999,
      "fzfg": false,
      "metar_trigger": false,
      "taf_trigger": false,
      "metar": "METAR GCLP 121900Z 02008KT 9999 FEW030 18/13 Q1020 NOSIG",
      "taf": "TAF GCLP 121400Z 1215/1315 07007KT 9999 FEW025 TX21/1314Z TN14/1306Z"
    },
    {
      "icao": "GCTS",
      "alert": "OK",
      "vis_m": 9999,
      "fzfg": false,
      "metar_trigger": false,
      "taf_trigger": false,
      "metar": "METAR GCTS 121900Z 10005KT 9999 FEW030 18/12 Q1020 NOSIG",
      "taf": "TAF GCTS 121400Z 1215/1315 20006KT 9999 FEW030 TX23/1314Z TN14/1306Z"
    },
    {
      "icao": "GMAD",
      "alert": "OK",
      "vis_m": 9999,
      "fzfg": false,
      "metar_trigger": false,
      "taf_trigger": false,
      "metar": "METAR GMAD 121930Z 15006KT 120V190 CAVOK 14/06 Q1020 NOSIG",
      "taf": "TAF GMAD 121700Z 1218/1324 18006KT CAVOK"
    },
    {
      "icao": "GMMN",
      "alert": "OK",
      "vis_m": 9999,
      "fzfg": false,
      "metar_trigger": false,
      "taf_trigger": false,
      "metar": "METAR GMMN 121930Z 20006KT CAVOK 10/07 Q1020 NOSIG",
      "taf": "TAF GMMN 121700Z 1218/1324 20006KT CAVOK"
    },
    {
      "icao": "GMMX",
      "alert": "OK",
      "vis_m": 9999,
      "fzfg": false,
      "metar_trigger": false,
      "taf_trigger": false,
      "metar": "METAR GMMX 121930Z VRB01KT CAVOK 15/05 Q1021 NOSIG",
      "taf": "TAF GMMX 121700Z 1218/1324 14006KT 8000 NSC"
    },
    {
      "icao": "HEGN",
      "alert": "OK",
      "vis_m": 9999,
      "fzfg": false,
      "metar_trigger": false,
      "taf_trigger": false,
      "metar": "METAR HEGN 121900Z 31014KT CAVOK 18/03 Q1018 NOSIG",
      "taf": "TAF HEGN 121700Z 1218/1324 30010G20KT 6000 SCT025"
    },
    {
      "icao": "HEMA",
      "alert": "OK",
      "vis_m": 9999,
      "fzfg": false,
      "metar_trigger": false,
      "taf_trigger": false,
      "metar": "METAR HEMA 121900Z 28005KT CAVOK 19/11 Q1017 NOSIG",
      "taf": "TAF HEMA 121700Z 1218/1324 29010G20KT 9999 FEW025"
    },
    {
      "icao": "HESH",
      "alert": "OK",
      "vis_m": 9999,
      "fzfg": false,
      "metar_trigger": false,
      "taf_trigger": false,
      "metar": "METAR HESH 121900Z 26010KT CAVOK 20/M01 Q1015 NOSIG",
      "taf": "TAF HESH 121700Z 1218/1324 36010G20KT 9999 SCT025"
    },
    {
      "icao": "HESX",
      "alert": "OK",
      "vis_m": 3000,
      "fzfg": false,
      "metar_trigger": false,
      "taf_trigger": false,
      "metar": "METAR HESX 121900Z 27011KT 3000 SA NSC 14/02 Q1017 NOSIG",
      "taf": "TAF HESX 121700Z 1218/1324 24012G22KT 6000 NSC"
    },
    {
      "icao": "LATI",
      "alert": "OK",
      "vis_m": 9999,
      "fzfg": false,
      "metar_trigger": false,
      "taf_trigger": false,
      "metar": "METAR LATI 121920Z 16004KT 110V200 CAVOK M00/M06 Q1026 NOSIG",
      "taf": "TAF LATI 121700Z 1218/1318 VRB05KT CAVOK TX10/1312Z TNM03/1223Z"
    },
    {
      "icao": "LBPD",
      "alert": "OK",
      "vis_m": 9999,
      "fzfg": false,
      "metar_trigger": false,
      "taf_trigger": false,
      "metar": "METAR LBPD 121930Z AUTO 29016KT 9999 NCD M02/M11 Q1021 NOSIG",
      "taf": "TAF LBPD 121700Z 1218/1318 29016KT 9999 SCT050"
    },
    {
      "icao": "LBSF",
      "alert": "OK",
      "vis_m": 9999,
      "fzfg": false,
      "metar_trigger": false,
      "taf_trigger": false,
      "metar": "METAR LBSF 121930Z AUTO 33007KT 9999 NCD M05/M12 Q1021 NOSIG",
      "taf": "TAF LBSF 121700Z 1218/1318 30010KT 9999 SCT030"
    },
    {
      "icao": "LBWN",
      "alert": "OK",
      "vis_m": 9999,
      "fzfg": false,
      "metar_trigger": false,
      "taf_trigger": false,
      "metar": "METAR LBWN 121930Z AUTO 29013KT 9999 NSC M03/M08 Q1020 NOSIG",
      "taf": "TAF LBWN 121700Z 1218/1318 29010KT 9999 SCT050"
    },
    {
      "icao": "LCLK",
      "alert": "OK",
      "vis_m": 9999,
      "fzfg": false,
      "metar_trigger": false,
      "taf_trigger": false,
      "metar": "METAR LCLK 121930Z 32010KT 9999 FEW020CB 12/07 Q1007 NOSIG RMK CB TO N",
      "taf": "TAF LCLK 121730Z 1218/1318 25008KT 9999 FEW020CB SCT025"
    },
    {
      "icao": "LCPH",
      "alert": "OK",
      "vis_m": 9999,
      "fzfg": false,
      "metar_trigger": false,
      "taf_trigger": false,
      "metar": "METAR LCPH 121930Z 31024KT 9999 FEW035 SCT055 15/06 Q1008 NOSIG",
      "taf": "TAF LCPH 121730Z 1218/1318 30023KT 9999 -SHRA FEW025CB SCT040"
    },
    {
      "icao": "LEAL",
      "alert": "OK",
      "vis_m": 9999,
      "fzfg": false,
      "metar_trigger": false,
      "taf_trigger": false,
      "metar": "METAR LEAL 121900Z 00000KT CAVOK 11/11 Q1021 NOSIG",
      "taf": "TAF LEAL 121700Z 1218/1318 20006KT CAVOK TX16/1313Z TN06/1306Z"
    },
    {
      "icao": "LEBB",
      "alert": "OK",
      "vis_m": 9999,
      "fzfg": false,
      "metar_trigger": false,
      "taf_trigger": false,
      "metar": "METAR LEBB 121900Z 18008G18KT 140V260 CAVOK 18/06 Q1013 WS ALL RWY NOSIG",
      "taf": "TAF LEBB 121700Z 1218/1318 17009KT 9999 FEW040 TX17/1218Z TN11/1306Z"
    },
    {
      "icao": "LEBL",
      "alert": "OK",
      "vis_m": 9999,
      "fzfg": false,
      "metar_trigger": false,
      "taf_trigger": false,
      "metar": "METAR LEBL 121900Z 25006KT 230V300 9999 FEW017 11/10 Q1020 NOSIG",
      "taf": "TAF LEBL 121700Z 1218/1318 22007KT 9999 FEW020 TX16/1312Z TN07/1306Z"
    },
    {
      "icao": "LECH",
      "alert": "OK",
      "vis_m": 9000,
      "fzfg": false,
      "metar_trigger": false,
      "taf_trigger": false,
      "metar": "METAR LECH 121900Z AUTO 00000KT 9000 NCD 08/06 Q1019",
      "taf": ""
    },
    {
      "icao": "LEMD",
      "alert": "OK",
      "vis_m": 9999,
      "fzfg": false,
      "metar_trigger": false,
      "taf_trigger": false,
      "metar": "METAR LEMD 121900Z VRB02KT CAVOK 05/04 Q1019 NOSIG",
      "taf": "TAF LEMD 121700Z 1218/1324 VRB03KT 9999 FEW020 TX12/1314Z TN01/1306Z"
    },
    {
      "icao": "LEMG",
      "alert": "OK",
      "vis_m": 9999,
      "fzfg": false,
      "metar_trigger": false,
      "taf_trigger": false,
      "metar": "METAR LEMG 121900Z 14003KT CAVOK 11/09 Q1020 NOSIG",
      "taf": "TAF LEMG 121700Z 1218/1318 14010KT CAVOK TX16/1314Z TN06/1307Z"
    },
    {
      "icao": "LEVC",
      "alert": "OK",
      "vis_m": 9999,
      "fzfg": false,
      "metar_trigger": false,
      "taf_trigger": false,
      "metar": "METAR LEVC 121900Z 32003KT 290V360 CAVOK 10/08 Q1019 NOSIG",
      "taf": "TAF LEVC 121700Z 1218/1318 09005KT CAVOK TX17/1314Z TN04/1306Z"
    },
    {
      "icao": "LEXJ",
      "alert": "OK",
      "vis_m": 9000,
      "fzfg": false,
      "metar_trigger": false,
      "taf_trigger": false,
      "metar": "METAR LEXJ 121900Z 22016G31KT 170V250 9000 NSC 17/06 Q1010",
      "taf": "TAF LEXJ 121400Z 1215/1315 22009KT 9999 FEW060 TX17/1215Z TN13/1308Z"
    },
    {
      "icao": "LEZG",
      "alert": "OK",
      "vis_m": 9999,
      "fzfg": false,
      "metar_trigger": false,
      "taf_trigger": false,
      "metar": "METAR LEZG 121900Z 07004KT CAVOK 09/04 Q1018 NOSIG",
      "taf": "TAF LEZG 121700Z 1218/1318 VRB04KT CAVOK TX13/1315Z TN05/1306Z"
    },
    {
      "icao": "LEZL",
      "alert": "OK",
      "vis_m": 9999,
      "fzfg": false,
      "metar_trigger": false,
      "taf_trigger": false,
      "metar": "METAR LEZL 121900Z 20003KT 160V260 9999 BKN020 13/12 Q1019 NOSIG",
      "taf": "TAF LEZL 121400Z 1215/1315 23006KT 9999 FEW025 TX18/1315Z TN10/1307Z"
    },
    {
      "icao": "LFBD",
      "alert": "OK",
      "vis_m": 9999,
      "fzfg": false,
      "metar_trigger": false,
      "taf_trigger": false,
      "metar": "METAR LFBD 121930Z AUTO 15008KT CAVOK 09/07 Q1014 NOSIG",
      "taf": ""
    },
    {
      "icao": "LFLL",
      "alert": "OK",
      "vis_m": 9999,
      "fzfg": false,
      "metar_trigger": false,
      "taf_trigger": false,
      "metar": "METAR LFLL 121930Z 16014KT 130V190 CAVOK 10/05 Q1017 TEMPO 18015G27KT",
      "taf": "TAF LFLL 121700Z 1219/1324 17015KT CAVOK"
    },
    {
      "icao": "LFLS",
      "alert": "OK",
      "vis_m": 9999,
      "fzfg": false,
      "metar_trigger": false,
      "taf_trigger": false,
      "metar": "METAR LFLS 121930Z AUTO VRB02KT CAVOK 04/01 Q1019",
      "taf": "TAF LFLS 121925Z 1219/1315 VRB03KT CAVOK"
    },
    {
      "icao": "LFMN",
      "alert": "OK",
      "vis_m": 9999,
      "fzfg": false,
      "metar_trigger": false,
      "taf_trigger": false,
      "metar": "METAR LFMN 121930Z 33010KT 9999 FEW033 BKN250 08/M01 Q1022 NOSIG",
      "taf": "TAF LFMN 121400Z 1215/1321 24007KT CAVOK"
    },
    {
      "icao": "LFOB",
      "alert": "OK",
      "vis_m": 9999,
      "fzfg": false,
      "metar_trigger": false,
      "taf_trigger": false,
      "metar": "METAR LFOB 121930Z AUTO 21009KT 180V250 9999 BKN012 BKN017 BKN052 11/09 Q1009 TEMPO 4000 SHRA BKN009 BKN013TCU OVC020",
      "taf": "TAF LFOB 121700Z 1218/1318 20011KT 9999 BKN025"
    },
    {
      "icao": "LFPO",
      "alert": "OK",
      "vis_m": 9999,
      "fzfg": false,
      "metar_trigger": false,
      "taf_trigger": false,
      "metar": "METAR LFPO 121930Z 22011KT 9999 BKN033 OVC100 12/06 Q1011 TEMPO 4000 -RA BKN014",
      "taf": "TAF LFPO 121700Z 1218/1324 21012KT CAVOK"
    },
    {
      "icao": "LFSB",
      "alert": "OK",
      "vis_m": 9999,
      "fzfg": false,
      "metar_trigger": false,
      "taf_trigger": false,
      "metar": "METAR LFSB 121930Z AUTO 18006KT CAVOK 04/02 Q1015 TEMPO 4500 BR",
      "taf": "TAF LFSB 121700Z 1218/1318 19004KT 9999 SCT045 BKN100"
    },
    {
      "icao": "LGAV",
      "alert": "OK",
      "vis_m": 9999,
      "fzfg": false,
      "metar_trigger": false,
      "taf_trigger": false,
      "metar": "METAR LGAV 121920Z 36009KT 9999 FEW030 04/M06 Q1021 NOSIG",
      "taf": "TAF LGAV 121700Z 1218/1318 35015KT 9999 FEW020"
    },
    {
      "icao": "LGTS",
      "alert": "OK",
      "vis_m": 9999,
      "fzfg": false,
      "metar_trigger": false,
      "taf_trigger": false,
      "metar": "METAR LGTS 121920Z COR 32022G32KT CAVOK 03/M08 Q1023 NOSIG",
      "taf": "TAF LGTS 121700Z 1218/1318 34015G30KT 9999 FEW025"
    },
    {
      "icao": "LHBP",
      "alert": "OK",
      "vis_m": 9999,
      "fzfg": false,
      "metar_trigger": false,
      "taf_trigger": false,
      "metar": "METAR LHBP 121930Z 15002KT CAVOK M05/M11 Q1020 NOSIG",
      "taf": "TAF LHBP 121715Z 1218/1318 VRB03KT CAVOK"
    },
    {
      "icao": "LHDC",
      "alert": "OK",
      "vis_m": 9999,
      "fzfg": false,
      "metar_trigger": false,
      "taf_trigger": false,
      "metar": "METAR LHDC 121915Z AUTO 17006KT 140V200 CAVOK M10/M14 Q1022",
      "taf": "TAF LHDC 121115Z 1212/1221 19009KT CAVOK"
    },
    {
      "icao": "LIBD",
      "alert": "OK",
      "vis_m": 9999,
      "fzfg": false,
      "metar_trigger": false,
      "taf_trigger": false,
      "metar": "METAR LIBD 121920Z 22007KT CAVOK 02/M03 Q1025",
      "taf": "TAF LIBD 121700Z 1218/1318 VRB05KT 9999 FEW035"
    },
    {
      "icao": "LIBG",
      "alert": "OK",
      "vis_m": 9999,
      "fzfg": false,
      "metar_trigger": false,
      "taf_trigger": false,
      "metar": "METAR LIBG 121850Z 16002KT CAVOK 01/00 Q1026",
      "taf": "TAF LIBG 121700Z 1218/1303 VRB05KT 9999 FEW040"
    },
    {
      "icao": "LIBP",
      "alert": "OK",
      "vis_m": 9999,
      "fzfg": false,
      "metar_trigger": false,
      "taf_trigger": false,
      "metar": "METAR LIBP 121920Z AUTO 25005KT 9999 NCD 06/M02 Q1024",
      "taf": "TAF LIBP 121700Z 1218/1318 VRB05KT CAVOK"
    },
    {
      "icao": "LIBR",
      "alert": "OK",
      "vis_m": 9999,
      "fzfg": false,
      "metar_trigger": false,
      "taf_trigger": false,
      "metar": "METAR LIBR 121920Z 27008KT CAVOK 04/M02 Q1025",
      "taf": "TAF LIBR 121700Z 1218/1318 35016KT 9999 FEW035"
    },
    {
      "icao": "LICA",
      "alert": "OK",
      "vis_m": 9999,
      "fzfg": false,
      "metar_trigger": false,
      "taf_trigger": false,
      "metar": "METAR LICA 121920Z AUTO 23004KT 190V280 9999 NCD 06/M00 Q1028",
      "taf": "TAF LICA 121700Z 1218/1318 28010KT CAVOK"
    },
    {
      "icao": "LICC",
      "alert": "OK",
      "vis_m": 9999,
      "fzfg": false,
      "metar_trigger": false,
      "taf_trigger": false,
      "metar": "METAR LICC 121920Z 27007KT CAVOK 05/00 Q1028",
      "taf": "TAF LICC 121700Z 1218/1318 VRB05KT CAVOK"
    },
    {
      "icao": "LICJ",
      "alert": "OK",
      "vis_m": 9999,
      "fzfg": false,
      "metar_trigger": false,
      "taf_trigger": false,
      "metar": "METAR LICJ 121920Z 15007KT CAVOK 08/03 Q1028",
      "taf": "TAF LICJ 121700Z 1218/1318 19010KT CAVOK"
    },
    {
      "icao": "LIMC",
      "alert": "OK",
      "vis_m": 9999,
      "fzfg": false,
      "metar_trigger": false,
      "taf_trigger": false,
      "metar": "METAR LIMC 121920Z VRB02KT CAVOK 03/M03 Q1021 NOSIG",
      "taf": "TAF LIMC 121700Z 1218/1324 VRB05KT CAVOK"
    },
    {
      "icao": "LIME",
      "alert": "OK",
      "vis_m": 9999,
      "fzfg": false,
      "metar_trigger": false,
      "taf_trigger": false,
      "metar": "METAR LIME 121920Z AUTO VRB02KT 9999 FEW170/// 04/M03 Q1021",
      "taf": "TAF LIME 121700Z 1218/1318 VRB05KT CAVOK"
    },
    {
      "icao": "LIMF",
      "alert": "OK",
      "vis_m": 9999,
      "fzfg": false,
      "metar_trigger": false,
      "taf_trigger": false,
      "metar": "METAR LIMF 121920Z 29003KT CAVOK 03/M07 Q1021",
      "taf": "TAF LIMF 121700Z 1218/1318 VRB05KT CAVOK"
    },
    {
      "icao": "LIMJ",
      "alert": "OK",
      "vis_m": 9999,
      "fzfg": false,
      "metar_trigger": false,
      "taf_trigger": false,
      "metar": "METAR LIMJ 121920Z 13019KT 9999 SCT010 SCT028 12/10 Q1022",
      "taf": "TAF LIMJ 121700Z 1218/1318 16014KT 9999 BKN030"
    },
    {
      "icao": "LIPE",
      "alert": "OK",
      "vis_m": 9999,
      "fzfg": false,
      "metar_trigger": false,
      "taf_trigger": false,
      "metar": "METAR LIPE 121920Z 20005KT CAVOK 02/M02 Q1022",
      "taf": "TAF LIPE 121700Z 1218/1318 VRB04KT 9999 FEW035"
    },
    {
      "icao": "LIPH",
      "alert": "OK",
      "vis_m": 9999,
      "fzfg": false,
      "metar_trigger": false,
      "taf_trigger": false,
      "metar": "METAR LIPH 121920Z 31004KT CAVOK 02/M02 Q1022",
      "taf": "TAF LIPH 121700Z 1218/1318 VRB05KT 9999 FEW025"
    },
    {
      "icao": "LIPQ",
      "alert": "OK",
      "vis_m": 9999,
      "fzfg": false,
      "metar_trigger": false,
      "taf_trigger": false,
      "metar": "METAR LIPQ 121920Z AUTO VRB01KT 9999 NCD 00/M01 Q1022",
      "taf": "TAF LIPQ 121700Z 1218/1318 VRB04KT 9999 SCT025"
    },
    {
      "icao": "LIPR",
      "alert": "OK",
      "vis_m": 9999,
      "fzfg": false,
      "metar_trigger": false,
      "taf_trigger": false,
      "metar": "METAR LIPR 121920Z VRB02KT CAVOK 00/M00 Q1022",
      "taf": "TAF LIPR 121700Z 1218/1318 VRB05KT 9999 FEW035"
    },
    {
      "icao": "LIPX",
      "alert": "OK",
      "vis_m": 9999,
      "fzfg": false,
      "metar_trigger": false,
      "taf_trigger": false,
      "metar": "METAR LIPX 121920Z VRB01KT CAVOK M01/M03 Q1022",
      "taf": "TAF LIPX 121700Z 1218/1318 VRB05KT 9999 SCT080"
    },
    {
      "icao": "LIPY",
      "alert": "OK",
      "vis_m": 9999,
      "fzfg": false,
      "metar_trigger": false,
      "taf_trigger": false,
      "metar": "METAR LIPY 121920Z AUTO VRB02KT 9999 NCD 04/00 Q1023",
      "taf": "TAF LIPY 121700Z 1218/1318 19007KT 9999 FEW045"
    },
    {
      "icao": "LIPZ",
      "alert": "OK",
      "vis_m": 9999,
      "fzfg": false,
      "metar_trigger": false,
      "taf_trigger": false,
      "metar": "METAR LIPZ 121920Z 27004KT 210V290 CAVOK 02/M01 Q1022 NOSIG",
      "taf": "TAF LIPZ 121700Z 1218/1324 VRB04KT 9999 FEW025"
    },
    {
      "icao": "LIRF",
      "alert": "OK",
      "vis_m": 9999,
      "fzfg": false,
      "metar_trigger": false,
      "taf_trigger": false,
      "metar": "METAR LIRF 121920Z 10006KT 9999 FEW050 05/M01 Q1026 NOSIG",
      "taf": "TAF LIRF 121700Z 1218/1324 09008KT 9999 SCT050"
    },
    {
      "icao": "LIRN",
      "alert": "OK",
      "vis_m": 9999,
      "fzfg": false,
      "metar_trigger": false,
      "taf_trigger": false,
      "metar": "METAR LIRN 121920Z VRB02KT CAVOK 06/M00 Q1027 NOSIG",
      "taf": "TAF LIRN 121700Z 1218/1318 VRB05KT 9999 FEW040"
    },
    {
      "icao": "LIRP",
      "alert": "OK",
      "vis_m": 9999,
      "fzfg": false,
      "metar_trigger": false,
      "taf_trigger": false,
      "metar": "METAR LIRP 121915Z VRB02KT 9999 SCT030 BKN040 06/05 Q1024 NOSIG",
      "taf": "TAF LIRP 121700Z 1218/1318 14005KT 9999 SCT030 BKN050"
    },
    {
      "icao": "LIRZ",
      "alert": "OK",
      "vis_m": 9999,
      "fzfg": false,
      "metar_trigger": false,
      "taf_trigger": false,
      "metar": "METAR LIRZ 121920Z AUTO 34003KT 9999 BKN044/// 05/03 Q1025",
      "taf": "TAF LIRZ 121700Z 1218/1318 VRB04KT 9999 SCT050"
    },
    {
      "icao": "LJLJ",
      "alert": "OK",
      "vis_m": 8000,
      "fzfg": false,
      "metar_trigger": false,
      "taf_trigger": false,
      "metar": "METAR LJLJ 121900Z 00000KT 8000 BKN090 M05/M06 Q1019 NOSIG",
      "taf": "TAF LJLJ 121700Z 1218/1318 VRB02KT 9999 FEW070"
    },
    {
      "icao": "LKMT",
      "alert": "OK",
      "vis_m": 9999,
      "fzfg": false,
      "metar_trigger": false,
      "taf_trigger": false,
      "metar": "METAR LKMT 121930Z 24008KT CAVOK M07/M11 Q1017 NOSIG",
      "taf": "TAF LKMT 121700Z 1218/1318 23010KT CAVOK"
    },
    {
      "icao": "LKPR",
      "alert": "OK",
      "vis_m": 3100,
      "fzfg": false,
      "metar_trigger": false,
      "taf_trigger": false,
      "metar": "METAR LKPR 121930Z 34004KT 250V360 3100 -FZDZ BR SCT002 OVC003 M05/M06 Q1014 TEMPO 2500 BR",
      "taf": "TAF LKPR 121700Z 1218/1324 14006KT 7000 SCT012 BKN020"
    },
    {
      "icao": "LLBG",
      "alert": "OK",
      "vis_m": 7000,
      "fzfg": false,
      "metar_trigger": false,
      "taf_trigger": false,
      "metar": "METAR LLBG 121920Z 25025G36KT 7000 RA SCT025 BKN050 13/09 Q1013 TEMPO 25030G45KT 5000 TSRA FEW025CB",
      "taf": "TAF LLBG 121710Z 1218/1318 23020G30KT 9999 SCT030 BKN040"
    },
    {
      "icao": "LMML",
      "alert": "OK",
      "vis_m": 9999,
      "fzfg": false,
      "metar_trigger": false,
      "taf_trigger": false,
      "metar": "METAR LMML 121915Z 27004KT CAVOK 08/03 Q1028 NOSIG",
      "taf": "TAF LMML 121700Z 1218/1318 VRB04KT 9999 FEW027"
    },
    {
      "icao": "LOWW",
      "alert": "OK",
      "vis_m": 6000,
      "fzfg": false,
      "metar_trigger": false,
      "taf_trigger": false,
      "metar": "METAR LOWW 121920Z 15005KT 6000 -SN FEW015 BKN040 M04/M06 Q1018 TEMPO 2000 SN BKN013",
      "taf": ""
    },
    {
      "icao": "LPFR",
      "alert": "OK",
      "vis_m": 9999,
      "fzfg": false,
      "metar_trigger": false,
      "taf_trigger": false,
      "metar": "METAR LPFR 121900Z 17009KT 9999 FEW025 BKN038 15/10 Q1018",
      "taf": "TAF LPFR 121700Z 1218/1318 12008KT 9999 BKN025"
    },
    {
      "icao": "LPMA",
      "alert": "OK",
      "vis_m": 9999,
      "fzfg": false,
      "metar_trigger": false,
      "taf_trigger": false,
      "metar": "METAR LPMA 121900Z 21015KT 9999 -SHRA BKN015 16/14 Q1015",
      "taf": "TAF LPMA 121700Z 1218/1318 22018KT 9999 SCT015 SCT030"
    },
    {
      "icao": "LPPR",
      "alert": "OK",
      "vis_m": 9999,
      "fzfg": false,
      "metar_trigger": false,
      "taf_trigger": false,
      "metar": "METAR LPPR 121900Z 16017KT 9999 BKN026 14/09 Q1011",
      "taf": "TAF LPPR 121700Z 1218/1318 17018KT 9999 BKN030"
    },
    {
      "icao": "LPPS",
      "alert": "OK",
      "vis_m": 9999,
      "fzfg": false,
      "metar_trigger": false,
      "taf_trigger": false,
      "metar": "METAR LPPS 121900Z 22018KT 9999 FEW015 18/13 Q1015",
      "taf": "TAF LPPS 121700Z 1218/1324 22012KT 9999 SCT012 SCT030"
    },
    {
      "icao": "LPPT",
      "alert": "OK",
      "vis_m": 9999,
      "fzfg": false,
      "metar_trigger": false,
      "taf_trigger": false,
      "metar": "METAR LPPT 121900Z 17014KT 9999 FEW016 BKN030 14/10 Q1013",
      "taf": "TAF LPPT 121700Z 1218/1324 18015KT 9999 SCT020 BKN035"
    },
    {
      "icao": "LQBK",
      "alert": "OK",
      "vis_m": 9999,
      "fzfg": false,
      "metar_trigger": false,
      "taf_trigger": false,
      "metar": "METAR LQBK 121930Z VRB02KT CAVOK M01/M05 Q1020 NOSIG",
      "taf": "TAF LQBK 121700Z 1218/1318 20006KT CAVOK TX06/1313Z TNM04/1306Z"
    },
    {
      "icao": "LQSA",
      "alert": "OK",
      "vis_m": 6000,
      "fzfg": false,
      "metar_trigger": false,
      "taf_trigger": false,
      "metar": "METAR LQSA 121930Z 12004KT 6000 NSC M09/M09 Q1022 NOSIG",
      "taf": "TAF LQSA 121700Z 1218/1318 VRB02KT 6000 NSC TX01/1312Z TNM06/1306Z"
    },
    {
      "icao": "LQTZ",
      "alert": "OK",
      "vis_m": 2900,
      "fzfg": false,
      "metar_trigger": false,
      "taf_trigger": false,
      "metar": "METAR LQTZ 121930Z 11002KT 2900 BR NSC M06/M07 Q1021",
      "taf": "TAF LQTZ 121700Z 1218/1318 09005KT CAVOK TX05/1313Z TNM07/1223Z"
    },
    {
      "icao": "LRBC",
      "alert": "OK",
      "vis_m": 9999,
      "fzfg": false,
      "metar_trigger": false,
      "taf_trigger": false,
      "metar": "METAR LRBC 121900Z 03003KT 350V050 9999 BKN050 M04/M11 Q1018",
      "taf": "TAF LRBC 121700Z 1218/1303 25010KT 9999 BKN045"
    },
    {
      "icao": "LRBS",
      "alert": "OK",
      "vis_m": 9999,
      "fzfg": false,
      "metar_trigger": false,
      "taf_trigger": false,
      "metar": "METAR LRBS 121900Z 28003KT CAVOK M07/M09 Q1020 NOSIG",
      "taf": "TAF LRBS 121700Z 1218/1318 25006KT CAVOK"
    },
    {
      "icao": "LRBV",
      "alert": "OK",
      "vis_m": 9000,
      "fzfg": false,
      "metar_trigger": false,
      "taf_trigger": false,
      "metar": "METAR LRBV 121900Z 30006KT 260V330 9000 -SG SCT008 BKN038 OVC057 M07/M11 Q1018",
      "taf": "TAF LRBV 121700Z 1218/1303 26006KT 9999 SCT015 BKN035"
    },
    {
      "icao": "LRCL",
      "alert": "OK",
      "vis_m": 8000,
      "fzfg": false,
      "metar_trigger": false,
      "taf_trigger": false,
      "metar": "METAR LRCL 121900Z 11001KT 8000 OVC071 M07/M10 Q1020",
      "taf": "TAF LRCL 121700Z 1218/1303 VRB02KT CAVOK"
    },
    {
      "icao": "LRCV",
      "alert": "OK",
      "vis_m": 9999,
      "fzfg": false,
      "metar_trigger": false,
      "taf_trigger": false,
      "metar": "METAR LRCV 121900Z 30009KT CAVOK M06/M10 Q1020",
      "taf": "TAF LRCV 121700Z 1218/1303 29012KT CAVOK"
    },
    {
      "icao": "LRIA",
      "alert": "OK",
      "vis_m": 8000,
      "fzfg": false,
      "metar_trigger": false,
      "taf_trigger": false,
      "metar": "METAR LRIA 121900Z 29007KT 250V320 8000 -SN FEW010 OVC040 M04/M06 Q1019",
      "taf": "TAF LRIA 121700Z 1218/1303 32008KT 9999 BKN040"
    },
    {
      "icao": "LROP",
      "alert": "OK",
      "vis_m": 8000,
      "fzfg": false,
      "metar_trigger": false,
      "taf_trigger": false,
      "metar": "METAR LROP 121900Z 27004KT 8000 NSC M09/M11 Q1020 NOSIG",
      "taf": "TAF LROP 121700Z 1218/1318 25006KT CAVOK"
    },
    {
      "icao": "LRSB",
      "alert": "OK",
      "vis_m": 9999,
      "fzfg": false,
      "metar_trigger": false,
      "taf_trigger": false,
      "metar": "METAR LRSB 121900Z 23004KT CAVOK M10/M11 Q1020",
      "taf": "TAF LRSB 121700Z 1218/1318 VRB04KT CAVOK"
    },
    {
      "icao": "LRSM",
      "alert": "OK",
      "vis_m": 9999,
      "fzfg": false,
      "metar_trigger": false,
      "taf_trigger": false,
      "metar": "METAR LRSM 121900Z AUTO 15001KT 9999 OVC075/// M09/M12 Q1022",
      "taf": "TAF LRSM 121400Z 1215/1224 25007KT 9999 SCT045"
    },
    {
      "icao": "LRSV",
      "alert": "OK",
      "vis_m": 9999,
      "fzfg": false,
      "metar_trigger": false,
      "taf_trigger": false,
      "metar": "METAR LRSV 121900Z 35010KT 9999 -SN BKN045 M07/M09 Q1016",
      "taf": "TAF LRSV 121700Z 1218/1303 33012KT 9999 BKN040"
    },
    {
      "icao": "LRTM",
      "alert": "OK",
      "vis_m": 9999,
      "fzfg": false,
      "metar_trigger": false,
      "taf_trigger": false,
      "metar": "METAR LRTM 121900Z AUTO VRB02KT 9999 OVC085/// M08/M11 Q1020",
      "taf": "TAF LRTM 121400Z 1215/1224 VRB04KT 9999 BKN040"
    },
    {
      "icao": "LRTR",
      "alert": "OK",
      "vis_m": 9999,
      "fzfg": false,
      "metar_trigger": false,
      "taf_trigger": false,
      "metar": "METAR LRTR 121900Z 10006KT CAVOK M13/M14 Q1022",
      "taf": "TAF LRTR 121700Z 1218/1318 VRB04KT CAVOK"
    },
    {
      "icao": "LTAC",
      "alert": "OK",
      "vis_m": 9999,
      "fzfg": false,
      "metar_trigger": false,
      "taf_trigger": false,
      "metar": "METAR LTAC 121920Z 02007KT 9999 SCT040 BKN100 M01/M05 Q1010 NOSIG",
      "taf": "TAF LTAC 121640Z 1218/1318 02008KT 9999 SCT040 BKN100"
    },
    {
      "icao": "LTFM",
      "alert": "OK",
      "vis_m": 7000,
      "fzfg": false,
      "metar_trigger": false,
      "taf_trigger": false,
      "metar": "METAR LTFM 121920Z 36010KT 7000 -SHSN BKN025 BKN070 01/M01 Q1020 NOSIG",
      "taf": "TAF LTFM 121640Z 1218/1324 36012KT 9999 -SHSN BKN028 BKN080"
    },
    {
      "icao": "LUKK",
      "alert": "OK",
      "vis_m": 9999,
      "fzfg": false,
      "metar_trigger": false,
      "taf_trigger": false,
      "metar": "METAR LUKK 121930Z 30009KT 270V340 9999 OVC037 M04/M08 Q1018 NOSIG",
      "taf": "TAF LUKK 121717Z 1218/1318 33006KT 9999 SCT030"
    },
    {
      "icao": "LWOH",
      "alert": "OK",
      "vis_m": 9999,
      "fzfg": false,
      "metar_trigger": false,
      "taf_trigger": false,
      "metar": "METAR LWOH 121920Z 31004KT 280V360 CAVOK M06/M09 Q1022",
      "taf": "TAF LWOH 121750Z 1218/1318 33005KT 9999 FEW035"
    },
    {
      "icao": "LWSK",
      "alert": "OK",
      "vis_m": 9999,
      "fzfg": false,
      "metar_trigger": false,
      "taf_trigger": false,
      "metar": "METAR LWSK 121920Z 06002KT CAVOK M06/M09 Q1025 NOSIG",
      "taf": "TAF LWSK 121750Z 1218/1318 VRB02KT 9999 FEW060"
    },
    {
      "icao": "LYBE",
      "alert": "OK",
      "vis_m": 9999,
      "fzfg": false,
      "metar_trigger": false,
      "taf_trigger": false,
      "metar": "METAR LYBE 121930Z 11005KT CAVOK M04/M10 Q1022 NOSIG",
      "taf": "TAF LYBE 121700Z 1218/1318 12005KT CAVOK TX03/1313Z TNM06/1222Z"
    },
    {
      "icao": "LYNI",
      "alert": "OK",
      "vis_m": 9999,
      "fzfg": false,
      "metar_trigger": false,
      "taf_trigger": false,
      "metar": "METAR LYNI 121930Z 09001KT CAVOK M07/M08 Q1024 NOSIG",
      "taf": "TAF LYNI 121700Z 1218/1318 VRB02KT CAVOK TX00/1312Z TNM09/1301Z"
    },
    {
      "icao": "LYPG",
      "alert": "OK",
      "vis_m": 9999,
      "fzfg": false,
      "metar_trigger": false,
      "taf_trigger": false,
      "metar": "METAR LYPG 121930Z VRB02KT CAVOK M00/M09 Q1025 NOSIG",
      "taf": "TAF LYPG 121700Z 1218/1318 36005KT 9999 FEW050 SCT080 TX05/1313Z TNM04/1301Z"
    },
    {
      "icao": "LZIB",
      "alert": "OK",
      "vis_m": 7000,
      "fzfg": false,
      "metar_trigger": false,
      "taf_trigger": false,
      "metar": "METAR LZIB 121930Z VRB02KT 7000 -SN FEW005 SCT017 BKN027 M03/M06 Q1019 TEMPO 2000 SN",
      "taf": "TAF LZIB 121715Z 1218/1318 09006KT CAVOK"
    },
    {
      "icao": "LZKZ",
      "alert": "OK",
      "vis_m": 9999,
      "fzfg": false,
      "metar_trigger": false,
      "taf_trigger": false,
      "metar": "METAR LZKZ 121930Z 14002KT CAVOK M14/M15 Q1020 NOSIG",
      "taf": "TAF LZKZ 121715Z 1218/1318 23005KT CAVOK"
    },
    {
      "icao": "LZTT",
      "alert": "OK",
      "vis_m": 9999,
      "fzfg": false,
      "metar_trigger": false,
      "taf_trigger": false,
      "metar": "METAR LZTT 121930Z 28005KT CAVOK M12/M15 Q1015",
      "taf": "TAF LZTT 121715Z 1218/1318 25008KT 9999 FEW020 SCT050"
    },
    {
      "icao": "OEJN",
      "alert": "OK",
      "vis_m": 9999,
      "fzfg": false,
      "metar_trigger": false,
      "taf_trigger": false,
      "metar": "METAR OEJN 121900Z 35003KT CAVOK 25/18 Q1015 NOSIG",
      "taf": "TAF OEJN 121700Z 1218/1324 36005KT 7000 SCT040"
    },
    {
      "icao": "OEMA",
      "alert": "OK",
      "vis_m": 9999,
      "fzfg": false,
      "metar_trigger": false,
      "taf_trigger": false,
      "metar": "METAR OEMA 121900Z 26009KT CAVOK 23/12 Q1018 NOSIG",
      "taf": "TAF OEMA 121700Z 1218/1324 27012KT 7000 FEW045"
    },
    {
      "icao": "OJAI",
      "alert": "OK",
      "vis_m": 3000,
      "fzfg": false,
      "metar_trigger": false,
      "taf_trigger": false,
      "metar": "METAR OJAI 121900Z 25017KT 3000 BLDU NSC 09/03 Q1013 NOSIG",
      "taf": "TAF OJAI 121650Z 1218/1324 25014KT 4000 HZ SCT035"
    },
    {
      "icao": "OMAA",
      "alert": "OK",
      "vis_m": 8000,
      "fzfg": false,
      "metar_trigger": false,
      "taf_trigger": false,
      "metar": "METAR OMAA 121900Z 34002KT 8000 NSC 20/15 Q1021 NOSIG",
      "taf": "TAF OMAA 121700Z 1218/1400 35004KT 8000 NSC"
    },
    {
      "icao": "OMDB",
      "alert": "OK",
      "vis_m": 9000,
      "fzfg": false,
      "metar_trigger": false,
      "taf_trigger": false,
      "metar": "METAR OMDB 121930Z 17003KT 130V200 9000 NSC 21/15 Q1021 NOSIG",
      "taf": "TAF OMDB 121700Z 1218/1400 12005KT 8000 NSC"
    },
    {
      "icao": "UAAA",
      "alert": "OK",
      "vis_m": 9999,
      "fzfg": false,
      "metar_trigger": false,
      "taf_trigger": false,
      "metar": "METAR UAAA 121900Z 14003MPS 9999 SCT100 03/M01 Q1029 NOSIG",
      "taf": "TAF UAAA 121703Z 1218/1318 05003MPS 9999 SCT050CB BKN100 TX06/1309Z TNM02/1301Z"
    },
    {
      "icao": "UBBB",
      "alert": "OK",
      "vis_m": 9999,
      "fzfg": false,
      "metar_trigger": false,
      "taf_trigger": false,
      "metar": "METAR UBBB 121930Z 32006KT CAVOK 06/05 Q1009 NOSIG",
      "taf": "TAF UBBB 121703Z 1218/1318 20010KT 9999 SCT020 TX14/1212Z TN07/1302Z"
    },
    {
      "icao": "UDSG",
      "alert": "OK",
      "vis_m": 9999,
      "fzfg": false,
      "metar_trigger": false,
      "taf_trigger": false,
      "metar": "METAR UDSG 121900Z 10002KT 9999 SCT049 M04/M06 Q1012 NOSIG",
      "taf": "TAF UDSG 121700Z 1218/1318 VRB06KT 5000 BR BKN030"
    },
    {
      "icao": "UDYZ",
      "alert": "OK",
      "vis_m": 3000,
      "fzfg": false,
      "metar_trigger": false,
      "taf_trigger": false,
      "metar": "METAR UDYZ 121900Z VRB02KT 3000 BR FEW046 01/M01 Q1012 NOSIG",
      "taf": "TAF UDYZ 121700Z 1218/1318 30004KT 1200 BR FEW040"
    },
    {
      "icao": "UGKO",
      "alert": "OK",
      "vis_m": 9999,
      "fzfg": false,
      "metar_trigger": false,
      "taf_trigger": false,
      "metar": "METAR UGKO 121900Z VRB02KT 9999 SCT015 OVC040 09/07 Q1011 NOSIG",
      "taf": "TAF UGKO 121700Z 1218/1318 VRB02KT 9999 SCT019 OVC050 TX08/1218Z TN05/1303Z"
    }
  ]
}