{
  "ts_utc": "2026-01-27T13:31:17Z",
  "threshold_m": 150,
  "source": "stations_override.txt (ICAO list) + aviationweather.gov (METAR/TAF raw)",
  "station_count": 159,
  "stations": [
    {
      "icao": "BIKF",
      "alert": "OK",
      "vis_m": 9999,
      "fzfg": false,
      "metar_trigger": false,
      "taf_trigger": false,
      "metar": "METAR BIKF 271300Z 08023G34KT 9999 -DZ BKN019 BKN028 03/01 Q0997",
      "taf": "TAF BIKF 271031Z 2712/2812 08020G30KT 9999 SCT030 BKN045 TX06/2715Z TN01/2807Z"
    },
    {
      "icao": "BKPR",
      "alert": "OK",
      "vis_m": 9999,
      "fzfg": false,
      "metar_trigger": false,
      "taf_trigger": false,
      "metar": "METAR BKPR 271330Z 36007KT 9999 SCT065 09/02 Q1004 NOSIG",
      "taf": "TAF BKPR 271130Z 2712/2812 33012KT 9999 BKN050"
    },
    {
      "icao": "EBCI",
      "alert": "OK",
      "vis_m": 6000,
      "fzfg": false,
      "metar_trigger": false,
      "taf_trigger": false,
      "metar": "METAR EBCI 271320Z 16009KT 140V200 6000 -RADZ SCT010 BKN018 04/03 Q0990 TEMPO 3500 RADZ BECMG OVC012",
      "taf": "TAF EBCI 271110Z 2712/2818 15010KT 7000 SCT007 BKN020"
    },
    {
      "icao": "EDDB",
      "alert": "OK",
      "vis_m": 9000,
      "fzfg": false,
      "metar_trigger": false,
      "taf_trigger": false,
      "metar": "METAR EDDB 271320Z AUTO VRB02KT 9000 FEW008 SCT015 OVC023 00/M02 Q1002 TEMPO BKN012",
      "taf": "TAF EDDB 271100Z 2712/2812 VRB02KT 8000 SCT012 BKN020"
    },
    {
      "icao": "EDDH",
      "alert": "OK",
      "vis_m": 9999,
      "fzfg": false,
      "metar_trigger": false,
      "taf_trigger": false,
      "metar": "METAR EDDH 271320Z AUTO 10007KT 9999 SCT012 OVC040 01/M01 Q1001 TEMPO BKN012",
      "taf": "TAF EDDH 271100Z 2712/2818 10007KT 9000 OVC007"
    },
    {
      "icao": "EDDK",
      "alert": "OK",
      "vis_m": 9999,
      "fzfg": false,
      "metar_trigger": false,
      "taf_trigger": false,
      "metar": "METAR EDDK 271320Z AUTO 12011KT 090V150 CAVOK 05/01 Q0994 TEMPO RA",
      "taf": "TAF EDDK 271100Z 2712/2818 12010KT 9999 SCT030"
    },
    {
      "icao": "EDDN",
      "alert": "OK",
      "vis_m": 9999,
      "fzfg": false,
      "metar_trigger": false,
      "taf_trigger": false,
      "metar": "METAR EDDN 271320Z AUTO 15008KT 9999 BKN006 01/M00 Q0998 TEMPO SCT007",
      "taf": "TAF EDDN 271100Z 2712/2812 10005KT 6000 FEW025"
    },
    {
      "icao": "EDDS",
      "alert": "OK",
      "vis_m": 9999,
      "fzfg": false,
      "metar_trigger": false,
      "taf_trigger": false,
      "metar": "METAR EDDS 271320Z AUTO VRB01KT CAVOK 06/M00 Q0995 NOSIG",
      "taf": "TAF EDDS 271100Z 2712/2812 VRB03KT CAVOK"
    },
    {
      "icao": "EDFH",
      "alert": "OK",
      "vis_m": 9999,
      "fzfg": false,
      "metar_trigger": false,
      "taf_trigger": false,
      "metar": "METAR EDFH 271320Z 14013KT 9999 -RA SCT002 01/00 Q0993",
      "taf": "TAF EDFH 271100Z 2712/2812 13012KT 9999 BKN020"
    },
    {
      "icao": "EDJA",
      "alert": "OK",
      "vis_m": 9999,
      "fzfg": false,
      "metar_trigger": false,
      "taf_trigger": false,
      "metar": "METAR EDJA 271320Z 07003KT 030V110 CAVOK 06/M02 Q0996",
      "taf": "TAF EDJA 271100Z 2712/2721 06004KT CAVOK"
    },
    {
      "icao": "EDLW",
      "alert": "OK",
      "vis_m": 9999,
      "fzfg": false,
      "metar_trigger": false,
      "taf_trigger": false,
      "metar": "METAR EDLW 271320Z 05009KT CAVOK 02/M00 Q0994",
      "taf": "TAF EDLW 271100Z 2712/2812 09007KT CAVOK"
    },
    {
      "icao": "EDNY",
      "alert": "OK",
      "vis_m": 9999,
      "fzfg": false,
      "metar_trigger": false,
      "taf_trigger": false,
      "metar": "METAR EDNY 271320Z 23006KT CAVOK 03/01 Q0997",
      "taf": "TAF EDNY 271100Z 2712/2721 VRB02KT CAVOK"
    },
    {
      "icao": "EDSB",
      "alert": "OK",
      "vis_m": 9999,
      "fzfg": false,
      "metar_trigger": false,
      "taf_trigger": false,
      "metar": "METAR EDSB 271320Z VRB02KT CAVOK 05/02 Q0996",
      "taf": "TAF EDSB 271100Z 2712/2812 VRB03KT 9999 SCT030"
    },
    {
      "icao": "EETN",
      "alert": "OK",
      "vis_m": 9999,
      "fzfg": false,
      "metar_trigger": false,
      "taf_trigger": false,
      "metar": "METAR EETN 271320Z 08007KT 050V110 9999 OVC007 M07/M08 Q1014 NOSIG",
      "taf": "TAF EETN 271130Z 2712/2812 10010KT 9999 OVC009"
    },
    {
      "icao": "EFTU",
      "alert": "OK",
      "vis_m": 9999,
      "fzfg": false,
      "metar_trigger": false,
      "taf_trigger": false,
      "metar": "METAR EFTU 271320Z AUTO 09007KT 9999 OVC005 M09/M10 Q1015",
      "taf": "TAF EFTU 271132Z 2712/2812 06005KT 9999 OVC006"
    },
    {
      "icao": "EGBB",
      "alert": "OK",
      "vis_m": 9999,
      "fzfg": false,
      "metar_trigger": false,
      "taf_trigger": false,
      "metar": "METAR EGBB 271320Z 12013KT 9999 -RA SCT009 BKN014 07/06 Q0980 RERA",
      "taf": "TAF EGBB 271056Z 2712/2812 15015G25KT 9999 BKN008"
    },
    {
      "icao": "EGGP",
      "alert": "OK",
      "vis_m": 9999,
      "fzfg": false,
      "metar_trigger": false,
      "taf_trigger": false,
      "metar": "METAR EGGP 271320Z 12019KT 9999 SCT014 SCT030 07/05 Q0977",
      "taf": "TAF EGGP 271057Z 2712/2812 12015KT 9999 SCT020"
    },
    {
      "icao": "EGGW",
      "alert": "OK",
      "vis_m": 9999,
      "fzfg": false,
      "metar_trigger": false,
      "taf_trigger": false,
      "metar": "METAR EGGW 271320Z AUTO 14012KT 9999 OVC003 06/06 Q0983",
      "taf": "TAF EGGW 271059Z 2712/2812 14012KT 9999 SCT020"
    },
    {
      "icao": "EGKK",
      "alert": "OK",
      "vis_m": 9999,
      "fzfg": false,
      "metar_trigger": false,
      "taf_trigger": false,
      "metar": "METAR EGKK 271320Z 17006KT 140V210 9999 BKN010 10/09 Q0984",
      "taf": "TAF EGKK 271057Z 2712/2818 13010KT 9999 SCT015"
    },
    {
      "icao": "EGNM",
      "alert": "OK",
      "vis_m": 2500,
      "fzfg": false,
      "metar_trigger": false,
      "taf_trigger": false,
      "metar": "METAR EGNM 271320Z 11021G33KT 2500 -RA BR SCT003 OVC004 04/04 Q0981",
      "taf": "TAF EGNM 271058Z 2712/2812 11015G26KT 6000 BKN008"
    },
    {
      "icao": "EGPD",
      "alert": "OK",
      "vis_m": 5000,
      "fzfg": false,
      "metar_trigger": false,
      "taf_trigger": false,
      "metar": "METAR EGPD 271320Z COR AUTO 13024G40KT 5000 -DZ BKN011 OVC016 05/03 Q0991 NOSIG",
      "taf": ""
    },
    {
      "icao": "EGPF",
      "alert": "OK",
      "vis_m": 9999,
      "fzfg": false,
      "metar_trigger": false,
      "taf_trigger": false,
      "metar": "METAR EGPF 271320Z AUTO 08019KT 9999 -RA BKN016 OVC021 04/02 Q0980",
      "taf": "TAF EGPF 271101Z 2712/2812 08020G35KT 9999 BKN018"
    },
    {
      "icao": "EHBK",
      "alert": "OK",
      "vis_m": 9999,
      "fzfg": false,
      "metar_trigger": false,
      "taf_trigger": false,
      "metar": "METAR EHBK 271325Z AUTO 16007KT 130V190 9999 -DZ FEW041/// BKN048/// 06/03 Q0992 NOSIG",
      "taf": "TAF EHBK 271121Z 2712/2818 11006KT 9999 -RADZ BKN030"
    },
    {
      "icao": "EHEH",
      "alert": "OK",
      "vis_m": null,
      "fzfg": false,
      "metar_trigger": false,
      "taf_trigger": false,
      "metar": "",
      "taf": "TAF EHEH 271127Z 2712/2818 09010KT 8000 NSC"
    },
    {
      "icao": "EKBI",
      "alert": "OK",
      "vis_m": 9999,
      "fzfg": false,
      "metar_trigger": false,
      "taf_trigger": false,
      "metar": "METAR EKBI 271320Z AUTO 09012KT 9999 OVC013/// M00/M03 Q1004",
      "taf": "TAF EKBI 271127Z 2712/2812 09014KT 9999 BKN015"
    },
    {
      "icao": "EKCH",
      "alert": "OK",
      "vis_m": 9999,
      "fzfg": false,
      "metar_trigger": false,
      "taf_trigger": false,
      "metar": "METAR EKCH 271320Z AUTO 06015KT 9999 OVC017/// M00/M03 Q1005 NOSIG",
      "taf": "TAF EKCH 271127Z 2712/2812 05012KT 9999 BKN016"
    },
    {
      "icao": "ENAL",
      "alert": "OK",
      "vis_m": 9999,
      "fzfg": false,
      "metar_trigger": false,
      "taf_trigger": false,
      "metar": "METAR ENAL 271320Z 07012KT CAVOK M01/M07 Q1008",
      "taf": "TAF ENAL 271100Z 2712/2721 07009KT CAVOK"
    },
    {
      "icao": "ENBR",
      "alert": "OK",
      "vis_m": 9999,
      "fzfg": false,
      "metar_trigger": false,
      "taf_trigger": false,
      "metar": "METAR ENBR 271320Z 00000KT CAVOK M00/M09 Q1007 NOSIG RMK WIND 1200FT 03003KT",
      "taf": "TAF ENBR 271100Z 2712/2812 04005KT CAVOK"
    },
    {
      "icao": "ENGM",
      "alert": "OK",
      "vis_m": 9999,
      "fzfg": false,
      "metar_trigger": false,
      "taf_trigger": false,
      "metar": "METAR ENGM 271320Z 11004KT 9999 4000NW -SHSN SCT015 BKN020 M08/M11 Q1013 TEMPO 4000 -SN BKN008",
      "taf": "TAF ENGM 271100Z 2712/2812 02005KT 9000 SCT005 BKN015"
    },
    {
      "icao": "ENHD",
      "alert": "OK",
      "vis_m": 9999,
      "fzfg": false,
      "metar_trigger": false,
      "taf_trigger": false,
      "metar": "METAR ENHD 271320Z /////KT CAVOK 00/M11 Q1007 RMK WIND RWY 31 00000KT",
      "taf": "TAF ENHD 271100Z 2712/2721 08005KT CAVOK"
    },
    {
      "icao": "ENTC",
      "alert": "OK",
      "vis_m": 9999,
      "fzfg": false,
      "metar_trigger": false,
      "taf_trigger": false,
      "metar": "METAR ENTC 271320Z 09003KT CAVOK M09/M11 Q1012 NOSIG RMK WIND 2600FT 17012KT",
      "taf": "TAF ENTC 271100Z 2712/2812 18008KT 9999 FEW012 SCT025"
    },
    {
      "icao": "ENTO",
      "alert": "OK",
      "vis_m": 9999,
      "fzfg": false,
      "metar_trigger": false,
      "taf_trigger": false,
      "metar": "METAR ENTO 271320Z 03008KT 9999 OVC021 M05/M08 Q1012 NOSIG",
      "taf": "TAF ENTO 271100Z 2712/2812 02010KT 9999 -SN BKN018"
    },
    {
      "icao": "ENVA",
      "alert": "OK",
      "vis_m": 9999,
      "fzfg": false,
      "metar_trigger": false,
      "taf_trigger": false,
      "metar": "METAR ENVA 271320Z 08003KT CAVOK M10/M14 Q1012 NOSIG RMK WIND 670FT 08004KT",
      "taf": "TAF ENVA 271100Z 2712/2812 11008KT CAVOK"
    },
    {
      "icao": "ENZV",
      "alert": "OK",
      "vis_m": 9999,
      "fzfg": false,
      "metar_trigger": false,
      "taf_trigger": false,
      "metar": "METAR ENZV 271320Z 00000KT CAVOK 01/M09 Q1007 NOSIG",
      "taf": "TAF ENZV 271100Z 2712/2812 10005KT CAVOK"
    },
    {
      "icao": "EPGD",
      "alert": "OK",
      "vis_m": 600,
      "fzfg": true,
      "metar_trigger": false,
      "taf_trigger": false,
      "metar": "METAR EPGD 271300Z 07007KT 0600 R29/0800U FZFG OVC001 M01/M01 Q1002",
      "taf": ""
    },
    {
      "icao": "EPKK",
      "alert": "OK",
      "vis_m": 9999,
      "fzfg": false,
      "metar_trigger": false,
      "taf_trigger": false,
      "metar": "METAR EPKK 271300Z 19004KT 160V230 9999 BKN036 03/M01 Q1002",
      "taf": "TAF EPKK 271130Z 2712/2812 VRB02KT 6000 BKN037"
    },
    {
      "icao": "EPKT",
      "alert": "OK",
      "vis_m": 9999,
      "fzfg": false,
      "metar_trigger": false,
      "taf_trigger": false,
      "metar": "METAR EPKT 271300Z 26003KT 9999 FEW025 02/M02 Q1001",
      "taf": "TAF EPKT 271130Z 2712/2812 VRB02KT 6000 BKN021"
    },
    {
      "icao": "EPLB",
      "alert": "OK",
      "vis_m": 2700,
      "fzfg": false,
      "metar_trigger": false,
      "taf_trigger": false,
      "metar": "METAR EPLB 271300Z 25005KT 2700 BR BKN005 OVC016 02/02 Q1002",
      "taf": "TAF EPLB 271130Z 2712/2812 VRB03KT 2000 BR BKN003"
    },
    {
      "icao": "EPMO",
      "alert": "OK",
      "vis_m": 1400,
      "fzfg": false,
      "metar_trigger": false,
      "taf_trigger": false,
      "metar": "METAR EPMO 271300Z 23006KT 1400 R08/1200N BR BKN002 M00/M00 Q1002",
      "taf": "TAF EPMO 271130Z 2712/2812 VRB02KT 2000 BR OVC003"
    },
    {
      "icao": "EPPO",
      "alert": "OK",
      "vis_m": 4800,
      "fzfg": false,
      "metar_trigger": false,
      "taf_trigger": false,
      "metar": "METAR EPPO 271300Z 23003KT 4800 BR BKN005 M00/M02 Q1002",
      "taf": "TAF EPPO 271130Z 2712/2812 VRB02KT 5000 BR BKN006"
    },
    {
      "icao": "EPRA",
      "alert": "OK",
      "vis_m": 9999,
      "fzfg": false,
      "metar_trigger": false,
      "taf_trigger": false,
      "metar": "METAR EPRA 271300Z 28005KT 260V330 9999 SCT014 03/M01 Q1002",
      "taf": "TAF EPRA 271130Z 2712/2721 19005KT 8000 BKN014"
    },
    {
      "icao": "EPRZ",
      "alert": "OK",
      "vis_m": 9999,
      "fzfg": false,
      "metar_trigger": false,
      "taf_trigger": false,
      "metar": "METAR EPRZ 271300Z 27010KT 250V310 9999 SCT026 05/M00 Q1002",
      "taf": "TAF EPRZ 271130Z 2712/2812 25006KT 9999 OVC043"
    },
    {
      "icao": "EPSC",
      "alert": "OK",
      "vis_m": 2900,
      "fzfg": false,
      "metar_trigger": false,
      "taf_trigger": false,
      "metar": "METAR EPSC 271300Z 34005KT 2900 -SN BR OVC004 M00/M01 Q1002",
      "taf": "TAF EPSC 271130Z 2712/2812 VRB04KT 3000 -SN BR OVC005"
    },
    {
      "icao": "EPSY",
      "alert": "OK",
      "vis_m": 400,
      "fzfg": false,
      "metar_trigger": false,
      "taf_trigger": false,
      "metar": "METAR EPSY 271300Z 02004KT 0400 R01/0600N FG OVC001 00/00 Q1002",
      "taf": ""
    },
    {
      "icao": "EPWA",
      "alert": "OK",
      "vis_m": 3100,
      "fzfg": false,
      "metar_trigger": false,
      "taf_trigger": false,
      "metar": "METAR EPWA 271300Z 26006KT 3100 BR SCT006 BKN028 01/M00 Q1002 TEMPO 2500 BR BKN006",
      "taf": ""
    },
    {
      "icao": "EPWR",
      "alert": "OK",
      "vis_m": 9999,
      "fzfg": false,
      "metar_trigger": false,
      "taf_trigger": false,
      "metar": "METAR EPWR 271300Z VRB02KT 9999 -SN FEW025 BKN048 02/M02 Q1002",
      "taf": "TAF EPWR 271130Z 2712/2812 VRB02KT 9000 BKN040"
    },
    {
      "icao": "ESGG",
      "alert": "OK",
      "vis_m": 9999,
      "fzfg": false,
      "metar_trigger": false,
      "taf_trigger": false,
      "metar": "METAR ESGG 271320Z 07014KT 040V100 9999 SCT025 M02/M08 Q1007",
      "taf": "TAF ESGG 271130Z 2712/2812 05012KT 9999 BKN025"
    },
    {
      "icao": "ESKN",
      "alert": "OK",
      "vis_m": 9999,
      "fzfg": false,
      "metar_trigger": false,
      "taf_trigger": false,
      "metar": "METAR ESKN 271320Z 01007KT 340V050 9999 BKN025 M04/M07 Q1012",
      "taf": "TAF ESKN 271130Z 2712/2812 02008KT 9999 BKN025"
    },
    {
      "icao": "ESMS",
      "alert": "OK",
      "vis_m": 9999,
      "fzfg": false,
      "metar_trigger": false,
      "taf_trigger": false,
      "metar": "METAR ESMS 271320Z 05012KT 9999 OVC010 M01/M02 Q1004",
      "taf": "TAF ESMS 271127Z 2712/2812 04010KT 9999 BKN008"
    },
    {
      "icao": "ESSA",
      "alert": "OK",
      "vis_m": 9999,
      "fzfg": false,
      "metar_trigger": false,
      "taf_trigger": false,
      "metar": "METAR ESSA 271320Z 03008KT 9999 BKN020 M05/M09 Q1014 NOSIG",
      "taf": "TAF ESSA 271130Z 2712/2812 05003KT 9999 BKN016"
    },
    {
      "icao": "EYKA",
      "alert": "OK",
      "vis_m": 4100,
      "fzfg": false,
      "metar_trigger": false,
      "taf_trigger": false,
      "metar": "METAR EYKA 271320Z 04005KT 010V070 4100 -SN BR FEW008 SCT015 OVC034 M03/M04 Q1004",
      "taf": ""
    },
    {
      "icao": "EYPA",
      "alert": "OK",
      "vis_m": 3200,
      "fzfg": false,
      "metar_trigger": false,
      "taf_trigger": false,
      "metar": "METAR EYPA 271320Z 07011KT 3200 -SN BR FEW038 OVC047 M06/M09 Q1006",
      "taf": "TAF EYPA 271100Z 2712/2812 08012KT 3000 SN SCT010 OVC020"
    },
    {
      "icao": "EYVI",
      "alert": "OK",
      "vis_m": 9000,
      "fzfg": false,
      "metar_trigger": false,
      "taf_trigger": false,
      "metar": "METAR EYVI 271320Z 09006KT 9000 OVC004 M01/M02 Q1003 NOSIG",
      "taf": "TAF EYVI 271100Z 2712/2812 09010KT 5000 BR OVC005"
    },
    {
      "icao": "GCFV",
      "alert": "OK",
      "vis_m": 9999,
      "fzfg": false,
      "metar_trigger": false,
      "taf_trigger": false,
      "metar": "METAR GCFV 271300Z 14011KT 9999 FEW033 20/12 Q1022",
      "taf": "TAF GCFV 270800Z 2709/2809 30005KT 9999 FEW035 TX22/2714Z TN14/2806Z"
    },
    {
      "icao": "GCLP",
      "alert": "OK",
      "vis_m": 9999,
      "fzfg": false,
      "metar_trigger": false,
      "taf_trigger": false,
      "metar": "METAR GCLP 271300Z 16009KT 120V180 9999 FEW030 20/13 Q1022 NOSIG",
      "taf": "TAF GCLP 270800Z 2709/2809 19010KT 9999 FEW035 TX22/2714Z TN15/2806Z"
    },
    {
      "icao": "GCTS",
      "alert": "OK",
      "vis_m": 9999,
      "fzfg": false,
      "metar_trigger": false,
      "taf_trigger": false,
      "metar": "METAR GCTS 271300Z 19005KT 130V250 9999 FEW030 20/12 Q1023 NOSIG",
      "taf": "TAF GCTS 270800Z 2709/2809 17006KT 9999 FEW035 TX22/2714Z TN16/2806Z"
    },
    {
      "icao": "GMAD",
      "alert": "OK",
      "vis_m": 8000,
      "fzfg": false,
      "metar_trigger": false,
      "taf_trigger": false,
      "metar": "METAR GMAD 271300Z 21004KT 160V240 8000 FEW020 BKN083 17/14 Q1022 NOSIG",
      "taf": ""
    },
    {
      "icao": "GMMN",
      "alert": "OK",
      "vis_m": 9999,
      "fzfg": false,
      "metar_trigger": false,
      "taf_trigger": false,
      "metar": "SPECI GMMN 271326Z 22030G43KT 9999 SCT013 BKN020 16/12 Q1015 NOSIG",
      "taf": ""
    },
    {
      "icao": "GMMX",
      "alert": "OK",
      "vis_m": 8000,
      "fzfg": false,
      "metar_trigger": false,
      "taf_trigger": false,
      "metar": "METAR GMMX 271300Z 27005KT 230V310 8000 SCT080 17/10 Q1019 NOSIG",
      "taf": ""
    },
    {
      "icao": "HEGN",
      "alert": "OK",
      "vis_m": 4000,
      "fzfg": false,
      "metar_trigger": false,
      "taf_trigger": false,
      "metar": "METAR HEGN 271300Z 01014KT 4000 SA NSC 23/08 Q1013 NOSIG",
      "taf": "TAF HEGN 271100Z 2712/2818 34018KT 6000 NSC"
    },
    {
      "icao": "HEMA",
      "alert": "OK",
      "vis_m": 6000,
      "fzfg": false,
      "metar_trigger": false,
      "taf_trigger": false,
      "metar": "METAR HEMA 271300Z 03007KT 6000 NSC 24/11 Q1013 NOSIG",
      "taf": "TAF HEMA 271100Z 2712/2818 36018KT 6000 NSC"
    },
    {
      "icao": "HESH",
      "alert": "OK",
      "vis_m": 9999,
      "fzfg": false,
      "metar_trigger": false,
      "taf_trigger": false,
      "metar": "METAR HESH 271300Z 11008KT CAVOK 26/08 Q1011 NOSIG",
      "taf": "TAF HESH 271100Z 2712/2818 35008KT CAVOK"
    },
    {
      "icao": "HESX",
      "alert": "OK",
      "vis_m": 9999,
      "fzfg": false,
      "metar_trigger": false,
      "taf_trigger": false,
      "metar": "METAR HESX 271300Z 22010KT CAVOK 19/M06 Q1012 NOSIG",
      "taf": "TAF HESX 271100Z 2712/2818 23015G25KT 6000 NSC"
    },
    {
      "icao": "LATI",
      "alert": "OK",
      "vis_m": 9999,
      "fzfg": false,
      "metar_trigger": false,
      "taf_trigger": false,
      "metar": "METAR LATI 271320Z 34004KT 290V020 9999 FEW030 14/05 Q1005 NOSIG",
      "taf": "TAF LATI 271100Z 2712/2812 VRB04KT 9999 SCT030 TX15/2811Z TN06/2805Z"
    },
    {
      "icao": "LBPD",
      "alert": "OK",
      "vis_m": 9999,
      "fzfg": false,
      "metar_trigger": false,
      "taf_trigger": false,
      "metar": "METAR LBPD 271330Z AUTO 29015KT 9999 BKN054/// OVC063/// 11/04 Q1001 NOSIG",
      "taf": "TAF LBPD 271100Z 2712/2812 28015G25KT 9999 BKN015 OVC030"
    },
    {
      "icao": "LBSF",
      "alert": "OK",
      "vis_m": 9999,
      "fzfg": false,
      "metar_trigger": false,
      "taf_trigger": false,
      "metar": "METAR LBSF 271330Z 29013KT 9999 FEW013 SCT031 OVC036 04/01 Q1003 NOSIG",
      "taf": "TAF LBSF 271100Z 2712/2812 28014KT 9999 BKN015 OVC030"
    },
    {
      "icao": "LBWN",
      "alert": "OK",
      "vis_m": 9999,
      "fzfg": false,
      "metar_trigger": false,
      "taf_trigger": false,
      "metar": "METAR LBWN 271330Z 10005KT 9999 -RA SCT033 OVC045 10/10 Q1001 TEMPO 5000 RA BKN015",
      "taf": "TAF LBWN 271100Z 2712/2812 11008KT 9999 SCT015 BKN030"
    },
    {
      "icao": "LCLK",
      "alert": "OK",
      "vis_m": 5000,
      "fzfg": false,
      "metar_trigger": false,
      "taf_trigger": false,
      "metar": "METAR LCLK 271300Z 20007KT 170V280 5000 -SHRA DU FEW030 SCT045 16/11 Q1011 TEMPO 3000 DU SHRA",
      "taf": "TAF LCLK 271130Z 2712/2812 21017KT 5000 DU FEW025 FEW030TCU SCT040"
    },
    {
      "icao": "LCPH",
      "alert": "OK",
      "vis_m": 5000,
      "fzfg": false,
      "metar_trigger": false,
      "taf_trigger": false,
      "metar": "METAR LCPH 271300Z 17013KT 170V240 5000 DU FEW025 FEW030CB SCT035 17/10 Q1010 TEMPO 3000 DU SHRA",
      "taf": "TAF LCPH 271130Z 2712/2812 19018KT 5000 DU FEW025TCU FEW030CB SCT035"
    },
    {
      "icao": "LEAL",
      "alert": "OK",
      "vis_m": 9999,
      "fzfg": false,
      "metar_trigger": false,
      "taf_trigger": false,
      "metar": "METAR LEAL 271300Z 22014KT 170V260 9999 SCT055 22/10 Q1000 NOSIG",
      "taf": "TAF LEAL 271100Z 2712/2812 20012KT 9999 SCT040 TX20/2713Z TN10/2807Z"
    },
    {
      "icao": "LEBB",
      "alert": "OK",
      "vis_m": 9999,
      "fzfg": false,
      "metar_trigger": false,
      "taf_trigger": false,
      "metar": "METAR LEBB 271300Z 11005KT 080V140 9999 FEW022 SCT060 12/09 Q0994 TEMPO 3000 SHRA SCT020TCU",
      "taf": ""
    },
    {
      "icao": "LEBL",
      "alert": "OK",
      "vis_m": 9999,
      "fzfg": false,
      "metar_trigger": false,
      "taf_trigger": false,
      "metar": "METAR LEBL 271300Z 24014KT 9999 -RA FEW032 BKN047 14/12 Q0996 NOSIG",
      "taf": "TAF LEBL 271100Z 2712/2812 27012KT 9999 FEW015 TX15/2712Z TN07/2806Z"
    },
    {
      "icao": "LECH",
      "alert": "OK",
      "vis_m": 9999,
      "fzfg": false,
      "metar_trigger": false,
      "taf_trigger": false,
      "metar": "METAR LECH 271300Z AUTO 23026G37KT 9999 FEW057 17/07 Q0996",
      "taf": ""
    },
    {
      "icao": "LEMD",
      "alert": "OK",
      "vis_m": 9999,
      "fzfg": false,
      "metar_trigger": false,
      "taf_trigger": false,
      "metar": "METAR LEMD 271300Z 22015G25KT 9999 -DZ SCT020 SCT030 BKN055 10/07 Q0997 NOSIG",
      "taf": ""
    },
    {
      "icao": "LEMG",
      "alert": "OK",
      "vis_m": 6000,
      "fzfg": false,
      "metar_trigger": false,
      "taf_trigger": false,
      "metar": "METAR LEMG 271300Z 22007KT 170V260 6000 -RA SCT025 BKN035 16/12 Q1005 NOSIG",
      "taf": "TAF LEMG 271100Z 2712/2812 23012KT 9999 SCT025 TX19/2714Z TN14/2807Z"
    },
    {
      "icao": "LEVC",
      "alert": "OK",
      "vis_m": 9999,
      "fzfg": false,
      "metar_trigger": false,
      "taf_trigger": false,
      "metar": "METAR LEVC 271300Z 27010KT 9999 -RA OVC053 17/10 Q0999 NOSIG",
      "taf": "TAF LEVC 271100Z 2712/2812 24012KT 9999 SCT040 TX21/2713Z TN09/2807Z"
    },
    {
      "icao": "LEXJ",
      "alert": "OK",
      "vis_m": 9000,
      "fzfg": false,
      "metar_trigger": false,
      "taf_trigger": false,
      "metar": "METAR LEXJ 271300Z 10005KT 070V140 9000 BKN050 OVC070 12/07 Q0993",
      "taf": ""
    },
    {
      "icao": "LEZG",
      "alert": "OK",
      "vis_m": 9999,
      "fzfg": false,
      "metar_trigger": false,
      "taf_trigger": false,
      "metar": "METAR LEZG 271300Z COR 09003KT 030V160 9999 -RA SCT040 BKN060 BKN070 10/10 Q0995 NOSIG",
      "taf": "TAF LEZG 271100Z 2712/2812 VRB04KT 9999 SCT040 TX14/2714Z TN03/2807Z"
    },
    {
      "icao": "LEZL",
      "alert": "OK",
      "vis_m": 9999,
      "fzfg": false,
      "metar_trigger": false,
      "taf_trigger": false,
      "metar": "METAR LEZL 271300Z 27016G26KT 230V300 9999 FEW032 16/11 Q1004 NOSIG",
      "taf": "TAF LEZL 270800Z 2709/2809 24020KT 9999 FEW015 SCT030 TX17/2715Z TN10/2807Z"
    },
    {
      "icao": "LFBD",
      "alert": "OK",
      "vis_m": 9999,
      "fzfg": false,
      "metar_trigger": false,
      "taf_trigger": false,
      "metar": "METAR LFBD 271300Z AUTO 15005KT 120V190 CAVOK 09/08 Q0993 TEMPO 4000 SHRA BKN010 BKN020 BKN030TCU",
      "taf": "TAF LFBD 271100Z 2712/2818 27005KT 9999 BKN045 TX11/2713Z TN05/2806Z"
    },
    {
      "icao": "LFLL",
      "alert": "OK",
      "vis_m": 9999,
      "fzfg": false,
      "metar_trigger": false,
      "taf_trigger": false,
      "metar": "METAR LFLL 271300Z 09005KT 9999 -RA SCT048 BKN066 06/03 Q0995 NOSIG",
      "taf": "TAF LFLL 271100Z 2712/2818 10006KT 9999 -RA FEW050 OVC070"
    },
    {
      "icao": "LFLS",
      "alert": "OK",
      "vis_m": 9999,
      "fzfg": false,
      "metar_trigger": false,
      "taf_trigger": false,
      "metar": "METAR LFLS 271300Z AUTO 09006KT 9999 BKN054/// OVC068/// ///TCU 05/02 Q0995 TEMPO OVC060",
      "taf": "TAF LFLS 270800Z 2709/2809 VRB05KT CAVOK"
    },
    {
      "icao": "LFMN",
      "alert": "OK",
      "vis_m": 4000,
      "fzfg": false,
      "metar_trigger": false,
      "taf_trigger": false,
      "metar": "METAR LFMN 271300Z 01016KT 4000 -RA FEW018 OVC023 08/05 Q1003 NOSIG",
      "taf": "TAF LFMN 270800Z 2709/2815 34012KT 9999 FEW030 OVC060"
    },
    {
      "icao": "LFOB",
      "alert": "OK",
      "vis_m": 9999,
      "fzfg": false,
      "metar_trigger": false,
      "taf_trigger": false,
      "metar": "METAR LFOB 271300Z AUTO 17007KT 140V200 9999 OVC006/// ///TCU 08/07 Q0988 TEMPO 3500 RA BKN008",
      "taf": "TAF LFOB 271100Z 2712/2812 14010G20KT 7000 -RA SCT045 OVC080"
    },
    {
      "icao": "LFPO",
      "alert": "OK",
      "vis_m": 4000,
      "fzfg": false,
      "metar_trigger": false,
      "taf_trigger": false,
      "metar": "METAR LFPO 271300Z 20009KT 170V230 4000 -RA OVC007 08/08 Q0990 NOSIG",
      "taf": ""
    },
    {
      "icao": "LFSB",
      "alert": "OK",
      "vis_m": 9999,
      "fzfg": false,
      "metar_trigger": false,
      "taf_trigger": false,
      "metar": "METAR LFSB 271300Z AUTO 08004KT 350V160 9999 -RA BKN050/// BKN062/// BKN072/// ///TCU 06/00 Q0997 TEMPO RA",
      "taf": ""
    },
    {
      "icao": "LGAV",
      "alert": "OK",
      "vis_m": 9999,
      "fzfg": false,
      "metar_trigger": false,
      "taf_trigger": false,
      "metar": "METAR LGAV 271320Z 02005KT 330V070 9999 FEW018 BKN025 16/06 Q1002 NOSIG",
      "taf": "TAF LGAV 271100Z 2712/2812 28008KT 9999 FEW020 SCT070"
    },
    {
      "icao": "LGTS",
      "alert": "OK",
      "vis_m": 9999,
      "fzfg": false,
      "metar_trigger": false,
      "taf_trigger": false,
      "metar": "METAR LGTS 271320Z 32013G23KT 9999 FEW020 11/05 Q1002 NOSIG",
      "taf": "TAF LGTS 271100Z 2712/2812 34015KT 9999 FEW012 SCT025"
    },
    {
      "icao": "LHBP",
      "alert": "OK",
      "vis_m": 9999,
      "fzfg": false,
      "metar_trigger": false,
      "taf_trigger": false,
      "metar": "METAR LHBP 271300Z 20006KT 160V230 9999 FEW030 09/02 Q1004 NOSIG",
      "taf": "TAF LHBP 271115Z 2712/2812 22005KT CAVOK"
    },
    {
      "icao": "LHDC",
      "alert": "OK",
      "vis_m": 9999,
      "fzfg": false,
      "metar_trigger": false,
      "taf_trigger": false,
      "metar": "METAR LHDC 271245Z AUTO 19004KT 150V230 9999 FEW023 07/04 Q1003 NOSIG",
      "taf": "TAF LHDC 271115Z 2712/2721 26005KT 8000 SCT025"
    },
    {
      "icao": "LIBD",
      "alert": "OK",
      "vis_m": 9999,
      "fzfg": false,
      "metar_trigger": false,
      "taf_trigger": false,
      "metar": "METAR LIBD 271320Z 34006KT 300V010 CAVOK 13/06 Q1007",
      "taf": "TAF LIBD 271100Z 2712/2812 28012KT CAVOK"
    },
    {
      "icao": "LIBG",
      "alert": "OK",
      "vis_m": 9999,
      "fzfg": false,
      "metar_trigger": false,
      "taf_trigger": false,
      "metar": "METAR LIBG 271250Z 30007KT 260V330 CAVOK 15/04 Q1007",
      "taf": "TAF LIBG 271100Z 2712/2721 30010KT CAVOK"
    },
    {
      "icao": "LIBP",
      "alert": "OK",
      "vis_m": 9999,
      "fzfg": false,
      "metar_trigger": false,
      "taf_trigger": false,
      "metar": "METAR LIBP 271320Z AUTO 07008KT 9999 NCD 12/03 Q1006",
      "taf": "TAF LIBP 271100Z 2712/2812 VRB05KT CAVOK"
    },
    {
      "icao": "LIBR",
      "alert": "OK",
      "vis_m": 9999,
      "fzfg": false,
      "metar_trigger": false,
      "taf_trigger": false,
      "metar": "METAR LIBR 271320Z 33015KT CAVOK 13/07 Q1007",
      "taf": "TAF LIBR 271100Z 2712/2812 31018KT 9999 FEW030"
    },
    {
      "icao": "LICA",
      "alert": "OK",
      "vis_m": 9999,
      "fzfg": false,
      "metar_trigger": false,
      "taf_trigger": false,
      "metar": "METAR LICA 271320Z AUTO 28016KT 9999 FEW058/// 15/10 Q1009",
      "taf": "TAF LICA 271100Z 2712/2812 27015KT 9999 SCT040"
    },
    {
      "icao": "LICC",
      "alert": "OK",
      "vis_m": 9999,
      "fzfg": false,
      "metar_trigger": false,
      "taf_trigger": false,
      "metar": "METAR LICC 271320Z 27012KT 240V300 9999 FEW050 18/15 Q1009",
      "taf": "TAF LICC 271100Z 2712/2812 26010KT 9999 FEW060"
    },
    {
      "icao": "LICJ",
      "alert": "OK",
      "vis_m": 9999,
      "fzfg": false,
      "metar_trigger": false,
      "taf_trigger": false,
      "metar": "METAR LICJ 271320Z 28010KT 9999 FEW030 15/09 Q1010",
      "taf": "TAF LICJ 271100Z 2712/2812 26012KT 9999 FEW040"
    },
    {
      "icao": "LIMC",
      "alert": "OK",
      "vis_m": 9999,
      "fzfg": false,
      "metar_trigger": false,
      "taf_trigger": false,
      "metar": "METAR LIMC 271320Z VRB02KT 9999 SCT040 BKN060 07/03 Q1004 NOSIG",
      "taf": "TAF LIMC 271100Z 2712/2818 VRB04KT 8000 SCT040"
    },
    {
      "icao": "LIME",
      "alert": "OK",
      "vis_m": 9999,
      "fzfg": false,
      "metar_trigger": false,
      "taf_trigger": false,
      "metar": "METAR LIME 271320Z 25004KT 200V340 9999 SCT060 08/01 Q1004",
      "taf": "TAF LIME 271100Z 2712/2812 VRB04KT 8000 FEW040"
    },
    {
      "icao": "LIMF",
      "alert": "OK",
      "vis_m": 9999,
      "fzfg": false,
      "metar_trigger": false,
      "taf_trigger": false,
      "metar": "METAR LIMF 271320Z 08003KT 050V110 9999 SCT140 07/M01 Q1004",
      "taf": "TAF LIMF 271100Z 2712/2812 VRB04KT 8000 SCT040"
    },
    {
      "icao": "LIMJ",
      "alert": "OK",
      "vis_m": 9999,
      "fzfg": false,
      "metar_trigger": false,
      "taf_trigger": false,
      "metar": "METAR LIMJ 271320Z 01003KT 320V060 9999 -DZ BKN018 OVC035 11/09 Q1004",
      "taf": "TAF LIMJ 271100Z 2712/2812 18015KT 9999 BKN025"
    },
    {
      "icao": "LIPE",
      "alert": "OK",
      "vis_m": 9999,
      "fzfg": false,
      "metar_trigger": false,
      "taf_trigger": false,
      "metar": "METAR LIPE 271320Z 05006KT CAVOK 11/04 Q1004",
      "taf": "TAF LIPE 271100Z 2712/2812 VRB05KT 9999 FEW040"
    },
    {
      "icao": "LIPH",
      "alert": "OK",
      "vis_m": 9999,
      "fzfg": false,
      "metar_trigger": false,
      "taf_trigger": false,
      "metar": "METAR LIPH 271320Z VRB02KT CAVOK 10/04 Q1005",
      "taf": "TAF LIPH 271100Z 2712/2812 VRB05KT 7000 FEW020"
    },
    {
      "icao": "LIPQ",
      "alert": "OK",
      "vis_m": 9999,
      "fzfg": false,
      "metar_trigger": false,
      "taf_trigger": false,
      "metar": "METAR LIPQ 271320Z AUTO 17003KT 140V200 9999 BKN018/// BKN026/// 09/06 Q1005",
      "taf": "TAF LIPQ 271100Z 2712/2812 VRB04KT 9999 SCT020"
    },
    {
      "icao": "LIPR",
      "alert": "OK",
      "vis_m": 9999,
      "fzfg": false,
      "metar_trigger": false,
      "taf_trigger": false,
      "metar": "METAR LIPR 271320Z 11006KT CAVOK 10/03 Q1005",
      "taf": "TAF LIPR 271100Z 2712/2812 VRB05KT 9999 FEW030"
    },
    {
      "icao": "LIPX",
      "alert": "OK",
      "vis_m": 9999,
      "fzfg": false,
      "metar_trigger": false,
      "taf_trigger": false,
      "metar": "METAR LIPX 271250Z 15003KT 100V200 CAVOK 08/04 Q1005",
      "taf": "TAF LIPX 271100Z 2712/2812 VRB04KT 8000 FEW040"
    },
    {
      "icao": "LIPY",
      "alert": "OK",
      "vis_m": 9999,
      "fzfg": false,
      "metar_trigger": false,
      "taf_trigger": false,
      "metar": "METAR LIPY 271320Z AUTO 07007KT 040V100 9999 NCD 11/02 Q1006",
      "taf": "TAF LIPY 271100Z 2712/2812 VRB05KT 9999 FEW040"
    },
    {
      "icao": "LIPZ",
      "alert": "OK",
      "vis_m": 7000,
      "fzfg": false,
      "metar_trigger": false,
      "taf_trigger": false,
      "metar": "METAR LIPZ 271320Z 14004KT 110V170 7000 NSC 07/05 Q1005 NOSIG",
      "taf": "TAF LIPZ 271100Z 2712/2818 VRB05KT 8000 FEW020"
    },
    {
      "icao": "LIRF",
      "alert": "OK",
      "vis_m": 9999,
      "fzfg": false,
      "metar_trigger": false,
      "taf_trigger": false,
      "metar": "METAR LIRF 271320Z VRB02KT CAVOK 14/06 Q1007 NOSIG",
      "taf": "TAF LIRF 271100Z 2712/2818 07005KT 9999 FEW030"
    },
    {
      "icao": "LIRN",
      "alert": "OK",
      "vis_m": 9999,
      "fzfg": false,
      "metar_trigger": false,
      "taf_trigger": false,
      "metar": "METAR LIRN 271320Z 24007KT 210V270 CAVOK 14/04 Q1008 NOSIG",
      "taf": "TAF LIRN 271100Z 2712/2812 24010KT 9999 FEW040"
    },
    {
      "icao": "LIRP",
      "alert": "OK",
      "vis_m": 9999,
      "fzfg": false,
      "metar_trigger": false,
      "taf_trigger": false,
      "metar": "METAR LIRP 271315Z 14005KT 9999 FEW040 BKN080 11/09 Q1006 NOSIG",
      "taf": "TAF LIRP 271100Z 2712/2812 12010KT 9999 SCT030"
    },
    {
      "icao": "LIRZ",
      "alert": "OK",
      "vis_m": 9999,
      "fzfg": false,
      "metar_trigger": false,
      "taf_trigger": false,
      "metar": "METAR LIRZ 271320Z AUTO VRB01KT 9999 NCD 10/04 Q1007",
      "taf": "TAF LIRZ 271100Z 2712/2812 VRB04KT 9999 FEW040"
    },
    {
      "icao": "LJLJ",
      "alert": "OK",
      "vis_m": 1500,
      "fzfg": false,
      "metar_trigger": false,
      "taf_trigger": false,
      "metar": "METAR LJLJ 271300Z 00000KT 1500 0800NW BCFG BR OVC002 00/M00 Q1004 NOSIG",
      "taf": "TAF LJLJ 271100Z 2712/2812 VRB02KT 4000 BR OVC003"
    },
    {
      "icao": "LKMT",
      "alert": "OK",
      "vis_m": 9999,
      "fzfg": false,
      "metar_trigger": false,
      "taf_trigger": false,
      "metar": "METAR LKMT 271300Z 22011KT 9999 BKN040 04/M00 Q1002 NOSIG",
      "taf": "TAF LKMT 271100Z 2712/2812 23008KT CAVOK"
    },
    {
      "icao": "LKPR",
      "alert": "OK",
      "vis_m": 9999,
      "fzfg": false,
      "metar_trigger": false,
      "taf_trigger": false,
      "metar": "METAR LKPR 271300Z 19004KT 9999 FEW015 OVC020 01/M01 Q1000 NOSIG",
      "taf": "TAF LKPR 271100Z 2712/2818 20006KT 9999 SCT012 BKN025"
    },
    {
      "icao": "LLBG",
      "alert": "OK",
      "vis_m": 9999,
      "fzfg": false,
      "metar_trigger": false,
      "taf_trigger": false,
      "metar": "METAR LLBG 271320Z 26012KT 9999 FEW035 19/10 Q1013 NOSIG",
      "taf": "TAF LLBG 271110Z 2712/2812 25010KT 9999 SCT035"
    },
    {
      "icao": "LMML",
      "alert": "OK",
      "vis_m": 9999,
      "fzfg": false,
      "metar_trigger": false,
      "taf_trigger": false,
      "metar": "METAR LMML 271315Z 27019KT 9999 FEW027 15/09 Q1011 NOSIG",
      "taf": "TAF LMML 271100Z 2712/2812 30018KT 9999 FEW020"
    },
    {
      "icao": "LOWW",
      "alert": "OK",
      "vis_m": 1400,
      "fzfg": false,
      "metar_trigger": false,
      "taf_trigger": false,
      "metar": "METAR LOWW 271320Z 12010KT 1400 0650S R11/P1500D R16/P1500D BCFG FEW000 BKN002 M00/M01 Q1002 TEMPO 0400 FG VV001",
      "taf": ""
    },
    {
      "icao": "LPFR",
      "alert": "OK",
      "vis_m": 9999,
      "fzfg": false,
      "metar_trigger": false,
      "taf_trigger": false,
      "metar": "METAR LPFR 271300Z 26022G32KT 9999 SCT012 SCT030 15/11 Q1006",
      "taf": "TAF LPFR 271100Z 2712/2812 26020KT 9999 SCT035"
    },
    {
      "icao": "LPMA",
      "alert": "OK",
      "vis_m": 9999,
      "fzfg": false,
      "metar_trigger": false,
      "taf_trigger": false,
      "metar": "METAR LPMA 271300Z 09007KT 040V120 9999 SCT014 19/12 Q1017",
      "taf": "TAF LPMA 271100Z 2712/2812 VRB05KT 9999 SCT015"
    },
    {
      "icao": "LPPR",
      "alert": "OK",
      "vis_m": 9999,
      "fzfg": false,
      "metar_trigger": false,
      "taf_trigger": false,
      "metar": "METAR LPPR 271300Z 27014G29KT 220V330 9999 -SHRA FEW012 FEW020CB BKN030 10/06 Q0998",
      "taf": "TAF LPPR 271100Z 2712/2812 26013KT 9999 SCT020"
    },
    {
      "icao": "LPPS",
      "alert": "OK",
      "vis_m": 9999,
      "fzfg": false,
      "metar_trigger": false,
      "taf_trigger": false,
      "metar": "METAR LPPS 271300Z 28017KT 9999 VCSH FEW008 SCT012 BKN030 16/14 Q1017",
      "taf": "TAF LPPS 271100Z 2712/2818 27018KT 9999 SCT015 SCT030"
    },
    {
      "icao": "LPPT",
      "alert": "OK",
      "vis_m": 9999,
      "fzfg": false,
      "metar_trigger": false,
      "taf_trigger": false,
      "metar": "METAR LPPT 271300Z 26016G27KT 240V300 9999 SCT030 13/08 Q1003",
      "taf": "TAF LPPT 271100Z 2712/2818 26013KT 9999 SCT020"
    },
    {
      "icao": "LQBK",
      "alert": "OK",
      "vis_m": 2000,
      "fzfg": false,
      "metar_trigger": false,
      "taf_trigger": false,
      "metar": "METAR LQBK 271300Z 32003KT 280V350 2000 BR BKN003 04/03 Q1005 NOSIG",
      "taf": ""
    },
    {
      "icao": "LQSA",
      "alert": "OK",
      "vis_m": 9999,
      "fzfg": false,
      "metar_trigger": false,
      "taf_trigger": false,
      "metar": "METAR LQSA 271300Z 24004KT 150V300 CAVOK 10/M02 Q1004 NOSIG",
      "taf": "TAF LQSA 271100Z 2712/2812 VRB02KT CAVOK TX10/2714Z TNM02/2801Z"
    },
    {
      "icao": "LQTZ",
      "alert": "OK",
      "vis_m": 9999,
      "fzfg": false,
      "metar_trigger": false,
      "taf_trigger": false,
      "metar": "METAR LQTZ 271300Z 11009KT CAVOK 11/02 Q1005",
      "taf": "TAF LQTZ 271100Z 2712/2812 12005KT CAVOK TX11/2713Z TNM01/2800Z"
    },
    {
      "icao": "LRBC",
      "alert": "OK",
      "vis_m": 9999,
      "fzfg": false,
      "metar_trigger": false,
      "taf_trigger": false,
      "metar": "METAR LRBC 271300Z 17008KT 9999 OVC005 02/02 Q1003",
      "taf": "TAF LRBC 271100Z 2712/2721 17007KT 5000 BR BKN005 BKN040"
    },
    {
      "icao": "LRBS",
      "alert": "OK",
      "vis_m": 1500,
      "fzfg": false,
      "metar_trigger": false,
      "taf_trigger": false,
      "metar": "METAR LRBS 271300Z 04004KT 340V090 1500 BR OVC002 03/03 Q1003 NOSIG",
      "taf": "TAF LRBS 271100Z 2712/2812 07014KT 1500 BR OVC003"
    },
    {
      "icao": "LRBV",
      "alert": "OK",
      "vis_m": 6000,
      "fzfg": false,
      "metar_trigger": false,
      "taf_trigger": false,
      "metar": "METAR LRBV 271300Z 32008KT 290V350 6000 -RA FEW004 BKN007 OVC011 04/04 Q1001",
      "taf": "TAF LRBV 271100Z 2712/2721 31008KT 5000 -RADZ BR BKN005 OVC015"
    },
    {
      "icao": "LRCL",
      "alert": "OK",
      "vis_m": 9999,
      "fzfg": false,
      "metar_trigger": false,
      "taf_trigger": false,
      "metar": "METAR LRCL 271300Z 28005KT 9999 -RA SCT009 OVC025 06/04 Q1002",
      "taf": "TAF LRCL 271100Z 2712/2721 VRB04KT 9999 SCT010 BKN030"
    },
    {
      "icao": "LRCV",
      "alert": "OK",
      "vis_m": 9999,
      "fzfg": false,
      "metar_trigger": false,
      "taf_trigger": false,
      "metar": "METAR LRCV 271300Z 16002KT 9999 OVC006 06/06 Q1003",
      "taf": "TAF LRCV 271100Z 2712/2721 VRB04KT 5000 -RADZ BR BKN002 OVC010"
    },
    {
      "icao": "LRIA",
      "alert": "OK",
      "vis_m": 5000,
      "fzfg": false,
      "metar_trigger": false,
      "taf_trigger": false,
      "metar": "METAR LRIA 271300Z 11010KT 5000 BR OVC003 01/00 Q1004",
      "taf": "TAF LRIA 271100Z 2712/2721 10010KT 1500 BR OVC001"
    },
    {
      "icao": "LROP",
      "alert": "OK",
      "vis_m": 1100,
      "fzfg": false,
      "metar_trigger": false,
      "taf_trigger": false,
      "metar": "METAR LROP 271300Z 06007KT 1100 R08R/1800D R08L/1900D -DZ BR BKN001 OVC002 03/03 Q1003 NOSIG",
      "taf": "TAF LROP 271100Z 2712/2812 07014KT 1500 BR OVC003"
    },
    {
      "icao": "LRSB",
      "alert": "OK",
      "vis_m": 1500,
      "fzfg": false,
      "metar_trigger": false,
      "taf_trigger": false,
      "metar": "METAR LRSB 271300Z 23003KT 1500 -RA BR BKN005 BKN008 OVC017 05/05 Q1002 NOSIG",
      "taf": "TAF LRSB 271100Z 2712/2812 VRB04KT 5000 BR BKN010 BKN030"
    },
    {
      "icao": "LRSM",
      "alert": "OK",
      "vis_m": 4000,
      "fzfg": false,
      "metar_trigger": false,
      "taf_trigger": false,
      "metar": "METAR LRSM 271300Z 25006KT 4000 BR BKN005 05/04 Q1003",
      "taf": "TAF LRSM 271100Z 2712/2721 VRB04KT 1500 BR OVC005"
    },
    {
      "icao": "LRSV",
      "alert": "OK",
      "vis_m": 150,
      "fzfg": false,
      "metar_trigger": false,
      "taf_trigger": false,
      "metar": "METAR LRSV 271300Z 08003KT 0150 R34/0275N -RA FG VV002 01/01 Q1001",
      "taf": "TAF LRSV 271100Z 2712/2721 08008KT 0150 FG VV001"
    },
    {
      "icao": "LRTM",
      "alert": "OK",
      "vis_m": 1700,
      "fzfg": false,
      "metar_trigger": false,
      "taf_trigger": false,
      "metar": "METAR LRTM 271300Z 25006KT 1700 -RA BR SCT006 BKN008 OVC025 02/02 Q1002",
      "taf": "TAF LRTM 271100Z 2712/2721 VRB04KT 0800 -DZ FG BKN002 OVC025"
    },
    {
      "icao": "LRTR",
      "alert": "OK",
      "vis_m": 9999,
      "fzfg": false,
      "metar_trigger": false,
      "taf_trigger": false,
      "metar": "METAR LRTR 271300Z 24005KT 9999 SCT007 BKN010 05/05 Q1005",
      "taf": "TAF LRTR 271100Z 2712/2812 30009KT 7000 BKN005 BKN020"
    },
    {
      "icao": "LTAC",
      "alert": "OK",
      "vis_m": 9999,
      "fzfg": false,
      "metar_trigger": false,
      "taf_trigger": false,
      "metar": "METAR LTAC 271320Z 21011KT 9999 SCT040 BKN100 11/01 Q1007 NOSIG",
      "taf": "TAF LTAC 271040Z 2712/2812 21012KT 9999 SCT035 BKN090"
    },
    {
      "icao": "LTFM",
      "alert": "OK",
      "vis_m": 9999,
      "fzfg": false,
      "metar_trigger": false,
      "taf_trigger": false,
      "metar": "METAR LTFM 271320Z 20012KT 9999 SCT040 BKN100 14/07 Q1002 NOSIG",
      "taf": "TAF LTFM 271040Z 2712/2818 20017G27KT 9999 SCT040 BKN100"
    },
    {
      "icao": "LUKK",
      "alert": "OK",
      "vis_m": 5000,
      "fzfg": false,
      "metar_trigger": false,
      "taf_trigger": false,
      "metar": "METAR LUKK 271300Z 10007KT 5000 -FZDZ BR OVC004 M01/M01 Q1005 NOSIG",
      "taf": "TAF LUKK 271118Z 2712/2812 10008KT 5000 BR OVC005"
    },
    {
      "icao": "LWOH",
      "alert": "OK",
      "vis_m": 9999,
      "fzfg": false,
      "metar_trigger": false,
      "taf_trigger": false,
      "metar": "METAR LWOH 271320Z 17007KT 140V200 9999 SCT035 09/04 Q1004",
      "taf": "TAF LWOH 271130Z 2712/2812 32012KT 9999 SCT035"
    },
    {
      "icao": "LWSK",
      "alert": "OK",
      "vis_m": 9999,
      "fzfg": false,
      "metar_trigger": false,
      "taf_trigger": false,
      "metar": "METAR LWSK 271320Z 02010KT 9999 FEW033 BKN060 09/05 Q1004 NOSIG",
      "taf": "TAF LWSK 271130Z 2712/2812 36010KT 9999 FEW030 BKN050"
    },
    {
      "icao": "LYBE",
      "alert": "OK",
      "vis_m": 9999,
      "fzfg": false,
      "metar_trigger": false,
      "taf_trigger": false,
      "metar": "METAR LYBE 271300Z 27006KT 9999 FEW015 08/03 Q1006 NOSIG",
      "taf": "TAF LYBE 271100Z 2712/2812 25005KT 9999 SCT015 TX10/2812Z TN02/2803Z"
    },
    {
      "icao": "LYNI",
      "alert": "OK",
      "vis_m": 8000,
      "fzfg": false,
      "metar_trigger": false,
      "taf_trigger": false,
      "metar": "METAR LYNI 271300Z 33006KT 8000 BKN007 OVC013 04/04 Q1005 NOSIG",
      "taf": ""
    },
    {
      "icao": "LYPG",
      "alert": "OK",
      "vis_m": 9999,
      "fzfg": false,
      "metar_trigger": false,
      "taf_trigger": false,
      "metar": "METAR LYPG 271300Z 17005KT 120V210 9999 FEW030 15/03 Q1004 NOSIG",
      "taf": "TAF LYPG 271100Z 2712/2812 16005KT 9999 FEW030 TX15/2713Z TN04/2801Z"
    },
    {
      "icao": "LZIB",
      "alert": "OK",
      "vis_m": 400,
      "fzfg": true,
      "metar_trigger": false,
      "taf_trigger": false,
      "metar": "METAR LZIB 271300Z 04006KT 0400 R31/0650N R22/0700N FZFG VV002 M02/M02 Q1003 TEMPO 0600 FZFG",
      "taf": "TAF LZIB 271115Z 2712/2812 14006KT 0800 FZFG BKN003"
    },
    {
      "icao": "LZKZ",
      "alert": "OK",
      "vis_m": 600,
      "fzfg": false,
      "metar_trigger": false,
      "taf_trigger": false,
      "metar": "METAR LZKZ 271300Z 23005KT 0600 R01/1100U FG BKN001 03/03 Q1002 TEMPO 0900 FG",
      "taf": ""
    },
    {
      "icao": "LZTT",
      "alert": "OK",
      "vis_m": 9999,
      "fzfg": false,
      "metar_trigger": false,
      "taf_trigger": false,
      "metar": "METAR LZTT 271300Z 26011KT 9999 SCT030 04/M02 Q1000 NOSIG",
      "taf": "TAF LZTT 271115Z 2712/2812 28011KT 9999 FEW010"
    },
    {
      "icao": "OEJN",
      "alert": "OK",
      "vis_m": 9999,
      "fzfg": false,
      "metar_trigger": false,
      "taf_trigger": false,
      "metar": "METAR OEJN 271300Z 26008KT CAVOK 29/19 Q1012 NOSIG",
      "taf": "TAF OEJN 271100Z 2712/2818 25012KT 7000 FEW040"
    },
    {
      "icao": "OEMA",
      "alert": "OK",
      "vis_m": 8000,
      "fzfg": false,
      "metar_trigger": false,
      "taf_trigger": false,
      "metar": "METAR OEMA 271300Z 23007KT 8000 NSC 28/05 Q1015 NOSIG",
      "taf": "TAF OEMA 271100Z 2712/2818 26012KT 9999 SCT040"
    },
    {
      "icao": "OJAI",
      "alert": "OK",
      "vis_m": 3500,
      "fzfg": false,
      "metar_trigger": false,
      "taf_trigger": false,
      "metar": "METAR OJAI 271300Z 21008KT 3500 HZ NSC 16/01 Q1014 NOSIG",
      "taf": "TAF OJAI 271100Z 2712/2818 26012KT 4000 HZ FEW030"
    },
    {
      "icao": "OMAA",
      "alert": "OK",
      "vis_m": 9999,
      "fzfg": false,
      "metar_trigger": false,
      "taf_trigger": false,
      "metar": "METAR OMAA 271330Z 35013KT 320V020 CAVOK 22/11 Q1019 NOSIG",
      "taf": "TAF OMAA 271100Z 2712/2818 34011KT 8000 NSC"
    },
    {
      "icao": "OMDB",
      "alert": "OK",
      "vis_m": 9999,
      "fzfg": false,
      "metar_trigger": false,
      "taf_trigger": false,
      "metar": "METAR OMDB 271330Z 36012KT CAVOK 22/11 Q1019 NOSIG",
      "taf": "TAF OMDB 271100Z 2712/2818 35012KT 8000 NSC"
    },
    {
      "icao": "UAAA",
      "alert": "OK",
      "vis_m": 5000,
      "fzfg": false,
      "metar_trigger": false,
      "taf_trigger": false,
      "metar": "METAR UAAA 271300Z 35002MPS 330V040 5000 FU SCT100 BKN200 M01/M06 Q1019 NOSIG",
      "taf": "TAF UAAA 271102Z 2712/2812 22003MPS 3100 BR FU SCT030CB BKN100 TX01/2808Z TNM07/2802Z"
    },
    {
      "icao": "UBBB",
      "alert": "OK",
      "vis_m": 9999,
      "fzfg": false,
      "metar_trigger": false,
      "taf_trigger": false,
      "metar": "METAR UBBB 271300Z 10010KT 9999 OVC020 03/M01 Q1025 NOSIG",
      "taf": "TAF UBBB 271055Z 2712/2812 12005KT 9999 BKN012 BKN020 TX03/2712Z TN01/2800Z"
    },
    {
      "icao": "UDSG",
      "alert": "OK",
      "vis_m": 3600,
      "fzfg": false,
      "metar_trigger": false,
      "taf_trigger": false,
      "metar": "METAR UDSG 271300Z 26001KT 3600 BR SCT040 M08/M09 Q1020 NOSIG",
      "taf": "TAF UDSG 271058Z 2712/2812 VRB06KT 2000 BR BKN020"
    },
    {
      "icao": "UDYZ",
      "alert": "OK",
      "vis_m": 6000,
      "fzfg": false,
      "metar_trigger": false,
      "taf_trigger": false,
      "metar": "METAR UDYZ 271300Z 21003KT 6000 BKN012 M04/M07 Q1024 NOSIG",
      "taf": "TAF UDYZ 271100Z 2712/2812 VRB04KT 2300 BR BKN009"
    },
    {
      "icao": "UGKO",
      "alert": "OK",
      "vis_m": 9999,
      "fzfg": false,
      "metar_trigger": false,
      "taf_trigger": false,
      "metar": "METAR UGKO 271300Z 08030G41KT CAVOK 12/00 Q1013 NOSIG",
      "taf": "TAF UGKO 271100Z 2712/2812 08029G45KT CAVOK TX15/2812Z TN06/2802Z"
    }
  ]
}