{
  "ts_utc": "2026-01-01T11:48:13Z",
  "threshold_m": 150,
  "source": "stations_override.txt (ICAO list) + aviationweather.gov (METAR/TAF raw)",
  "station_count": 159,
  "stations": [
    {
      "icao": "BIKF",
      "alert": "OK",
      "vis_m": 9999,
      "fzfg": false,
      "metar_trigger": false,
      "taf_trigger": false,
      "metar": "METAR BIKF 011130Z 02003KT 9999 SCT020 BKN320 04/02 Q1020",
      "taf": "TAF BIKF 011030Z 0112/0212 06006KT 9999 SCT020 TX04/0112Z TNM05/0206Z"
    },
    {
      "icao": "BKPR",
      "alert": "OK",
      "vis_m": 9999,
      "fzfg": false,
      "metar_trigger": false,
      "taf_trigger": false,
      "metar": "METAR BKPR 011130Z 13004KT 100V160 CAVOK M00/M11 Q1019 NOSIG",
      "taf": "TAF BKPR 011130Z 0112/0212 19009KT CAVOK"
    },
    {
      "icao": "EBCI",
      "alert": "OK",
      "vis_m": 7000,
      "fzfg": false,
      "metar_trigger": false,
      "taf_trigger": false,
      "metar": "METAR EBCI 011120Z 22016KT 7000 -RADZ SCT009 BKN011 02/00 Q1008 TEMPO 23015G25KT",
      "taf": "TAF EBCI 011100Z 0112/0218 25012KT 9999 SCT012 BKN020"
    },
    {
      "icao": "EDDB",
      "alert": "OK",
      "vis_m": 9999,
      "fzfg": false,
      "metar_trigger": false,
      "taf_trigger": false,
      "metar": "METAR EDDB 011120Z AUTO 24020KT 9999 BKN027 02/M01 Q0997 TEMPO 23020G30KT",
      "taf": "TAF EDDB 011100Z 0112/0212 23020G30KT 9999 BKN025"
    },
    {
      "icao": "EDDH",
      "alert": "OK",
      "vis_m": 9999,
      "fzfg": false,
      "metar_trigger": false,
      "taf_trigger": false,
      "metar": "METAR EDDH 011120Z AUTO 24019KT 210V270 9999 -SHRA BKN010 FEW///TCU 03/02 Q0991 RESHRA TEMPO 24020G35KT 3000 SHGSRA BKN007CB",
      "taf": "TAF EDDH 011100Z 0112/0218 24020G35KT 9999 SCT020TCU"
    },
    {
      "icao": "EDDK",
      "alert": "OK",
      "vis_m": 9999,
      "fzfg": false,
      "metar_trigger": false,
      "taf_trigger": false,
      "metar": "METAR EDDK 011120Z AUTO 25019KT 9999 BKN021 BKN027 BKN035 03/M00 Q1006 TEMPO 25015G25KT",
      "taf": "TAF EDDK 011100Z 0112/0218 25011KT 9999 BKN025"
    },
    {
      "icao": "EDDN",
      "alert": "OK",
      "vis_m": 9999,
      "fzfg": false,
      "metar_trigger": false,
      "taf_trigger": false,
      "metar": "METAR EDDN 011120Z AUTO 27014KT 9999 BKN019 M00/M04 Q1008 NOSIG",
      "taf": "TAF EDDN 011100Z 0112/0212 25015KT 9999 BKN020"
    },
    {
      "icao": "EDDS",
      "alert": "OK",
      "vis_m": 9999,
      "fzfg": false,
      "metar_trigger": false,
      "taf_trigger": false,
      "metar": "METAR EDDS 011120Z AUTO 21005KT 160V260 CAVOK 02/M07 Q1009 NOSIG",
      "taf": "TAF EDDS 011100Z 0112/0212 23007KT CAVOK"
    },
    {
      "icao": "EDFH",
      "alert": "OK",
      "vis_m": 9999,
      "fzfg": false,
      "metar_trigger": false,
      "taf_trigger": false,
      "metar": "METAR EDFH 011120Z 25016KT 220V280 9999 -SN SCT007 OVC009 M01/M02 Q1007",
      "taf": "TAF EDFH 011100Z 0112/0212 26015G25KT 9999 OVC007"
    },
    {
      "icao": "EDJA",
      "alert": "OK",
      "vis_m": 9999,
      "fzfg": false,
      "metar_trigger": false,
      "taf_trigger": false,
      "metar": "METAR EDJA 011120Z 23011KT CAVOK M01/M07 Q1009",
      "taf": "TAF EDJA 011100Z 0112/0121 23020G30KT CAVOK"
    },
    {
      "icao": "EDLW",
      "alert": "OK",
      "vis_m": 9999,
      "fzfg": false,
      "metar_trigger": false,
      "taf_trigger": false,
      "metar": "METAR EDLW 011120Z COR 23021KT 9999 -SHRASN OVC021 03/M01 Q1002",
      "taf": "TAF EDLW 011100Z 0112/0212 24015G25KT 9999 BKN020"
    },
    {
      "icao": "EDNY",
      "alert": "OK",
      "vis_m": 9999,
      "fzfg": false,
      "metar_trigger": false,
      "taf_trigger": false,
      "metar": "METAR EDNY 011120Z AUTO 24006KT 9999 // NCD M01/M06 Q1012",
      "taf": "TAF EDNY 010800Z 0109/0118 VRB03KT CAVOK"
    },
    {
      "icao": "EDSB",
      "alert": "OK",
      "vis_m": 9999,
      "fzfg": false,
      "metar_trigger": false,
      "taf_trigger": false,
      "metar": "METAR EDSB 011120Z 22013KT CAVOK M00/M07 Q1012",
      "taf": "TAF EDSB 011100Z 0112/0212 22012KT 9999 BKN025"
    },
    {
      "icao": "EETN",
      "alert": "OK",
      "vis_m": 9999,
      "fzfg": false,
      "metar_trigger": false,
      "taf_trigger": false,
      "metar": "METAR EETN 011120Z 12008KT CAVOK M09/M12 Q0994 NOSIG",
      "taf": "TAF EETN 011130Z 0112/0212 13008KT 9999 SCT025"
    },
    {
      "icao": "EFTU",
      "alert": "OK",
      "vis_m": 9999,
      "fzfg": false,
      "metar_trigger": false,
      "taf_trigger": false,
      "metar": "METAR EFTU 011120Z AUTO 11012KT CAVOK M08/M11 Q0991",
      "taf": "TAF EFTU 011136Z 0112/0212 11014KT 9999 FEW015"
    },
    {
      "icao": "EGBB",
      "alert": "OK",
      "vis_m": 9999,
      "fzfg": false,
      "metar_trigger": false,
      "taf_trigger": false,
      "metar": "METAR EGBB 011120Z 29011KT 9999 FEW022 05/02 Q1009",
      "taf": "TAF EGBB 011057Z 0112/0212 28012KT 9999 SCT030"
    },
    {
      "icao": "EGGP",
      "alert": "OK",
      "vis_m": 9999,
      "fzfg": false,
      "metar_trigger": false,
      "taf_trigger": false,
      "metar": "METAR EGGP 011120Z 31019KT 9999 SCT032 06/00 Q1009",
      "taf": "TAF EGGP 011057Z 0112/0212 32012KT 9999 SCT035"
    },
    {
      "icao": "EGGW",
      "alert": "OK",
      "vis_m": 9999,
      "fzfg": false,
      "metar_trigger": false,
      "taf_trigger": false,
      "metar": "METAR EGGW 011120Z AUTO 27016KT 9999 FEW014 04/01 Q1008",
      "taf": "TAF EGGW 011100Z 0112/0212 27014KT 9999 SCT030"
    },
    {
      "icao": "EGKK",
      "alert": "OK",
      "vis_m": 9999,
      "fzfg": false,
      "metar_trigger": false,
      "taf_trigger": false,
      "metar": "METAR EGKK 011120Z 27014KT CAVOK 04/02 Q1010",
      "taf": "TAF EGKK 011054Z 0112/0218 26012KT 9999 SCT030"
    },
    {
      "icao": "EGNM",
      "alert": "OK",
      "vis_m": 9999,
      "fzfg": false,
      "metar_trigger": false,
      "taf_trigger": false,
      "metar": "METAR EGNM 011120Z 29019KT 9999 FEW020 03/M00 Q1005",
      "taf": "TAF EGNM 011101Z 0112/0212 29015KT 9999 SCT030"
    },
    {
      "icao": "EGPD",
      "alert": "OK",
      "vis_m": 9999,
      "fzfg": false,
      "metar_trigger": false,
      "taf_trigger": false,
      "metar": "METAR EGPD 011120Z AUTO 31018KT 9999 -RASN SCT010/// BKN020/// BKN032/// //////CB 01/M00 Q1001 TEMPO 1500 SHSN BKN010",
      "taf": "TAF EGPD 011053Z 0112/0212 30015KT 9999 SCT012"
    },
    {
      "icao": "EGPF",
      "alert": "OK",
      "vis_m": 9999,
      "fzfg": false,
      "metar_trigger": false,
      "taf_trigger": false,
      "metar": "METAR EGPF 011120Z AUTO 29014G24KT 9999 NCD 05/M00 Q1007",
      "taf": "TAF EGPF 011056Z 0112/0212 29012KT 9999 FEW035"
    },
    {
      "icao": "EHBK",
      "alert": "OK",
      "vis_m": 9999,
      "fzfg": false,
      "metar_trigger": false,
      "taf_trigger": false,
      "metar": "METAR EHBK 011125Z AUTO 23020KT 200V260 9999 SCT014 OVC017 03/00 Q1006 BECMG 7000 -RADZ BKN012",
      "taf": "TAF EHBK 011119Z 0112/0218 24015G25KT 9999 BKN018"
    },
    {
      "icao": "EHEH",
      "alert": "OK",
      "vis_m": 9999,
      "fzfg": false,
      "metar_trigger": false,
      "taf_trigger": false,
      "metar": "METAR EHEH 011125Z AUTO 24016G26KT 210V280 9999 -DZ OVC018 04/00 Q1004 WHT TEMPO 4500 -DZRA SCT007 BKN012",
      "taf": "TAF EHEH 010604Z 0106/0212 24015G28KT 9999 OVC025"
    },
    {
      "icao": "EKBI",
      "alert": "OK",
      "vis_m": 9999,
      "fzfg": false,
      "metar_trigger": false,
      "taf_trigger": false,
      "metar": "METAR EKBI 011120Z 26015G26KT 9999 BKN017 SCT020CB 04/02 Q0983",
      "taf": "TAF EKBI 011127Z 0112/0212 25013KT 9999 BKN015"
    },
    {
      "icao": "EKCH",
      "alert": "OK",
      "vis_m": 9999,
      "fzfg": false,
      "metar_trigger": false,
      "taf_trigger": false,
      "metar": "METAR EKCH 011120Z 23019KT 9999 -RA BKN011 04/02 Q0983 TEMPO SCT015CB",
      "taf": "TAF EKCH 011127Z 0112/0212 25016KT 9999 BKN015"
    },
    {
      "icao": "ENAL",
      "alert": "OK",
      "vis_m": 9999,
      "fzfg": false,
      "metar_trigger": false,
      "taf_trigger": false,
      "metar": "METAR ENAL 011120Z 04021G31KT 9999 VCSH FEW010 BKN020 02/M01 Q0981",
      "taf": "TAF ENAL 011100Z 0112/0121 04025KT 9999 FEW015 SCT035"
    },
    {
      "icao": "ENBR",
      "alert": "OK",
      "vis_m": 9999,
      "fzfg": false,
      "metar_trigger": false,
      "taf_trigger": false,
      "metar": "METAR ENBR 011120Z 13002KT 9999 -RA FEW012CB SCT020 BKN030 01/00 Q0974 TEMPO 34015G25KT RMK WIND 1200FT 35010KT",
      "taf": "TAF ENBR 011100Z 0112/0212 VRB05KT 9999 -SHSNRA BKN009 SCT020CB"
    },
    {
      "icao": "ENGM",
      "alert": "OK",
      "vis_m": 9999,
      "fzfg": false,
      "metar_trigger": false,
      "taf_trigger": false,
      "metar": "METAR ENGM 011120Z 36007KT 9999 SCT015 OVC019 M02/M04 Q0974 NOSIG",
      "taf": "TAF ENGM 011100Z 0112/0212 36012KT 9999 -SN BKN020"
    },
    {
      "icao": "ENHD",
      "alert": "OK",
      "vis_m": 9999,
      "fzfg": false,
      "metar_trigger": false,
      "taf_trigger": false,
      "metar": "METAR ENHD 011120Z 29028KT 9999 -SHRA FEW018CB BKN025 06/03 Q0976",
      "taf": "TAF ENHD 011100Z 0112/0121 34020KT 9999 FEW015CB SCT030"
    },
    {
      "icao": "ENTC",
      "alert": "OK",
      "vis_m": 9999,
      "fzfg": false,
      "metar_trigger": false,
      "taf_trigger": false,
      "metar": "METAR ENTC 011120Z 21006KT 140V240 CAVOK M11/M15 Q0999 NOSIG RMK WIND 2600FT 17014KT",
      "taf": "TAF ENTC 011100Z 0112/0212 24006KT CAVOK"
    },
    {
      "icao": "ENTO",
      "alert": "OK",
      "vis_m": 9999,
      "fzfg": false,
      "metar_trigger": false,
      "taf_trigger": false,
      "metar": "METAR ENTO 011120Z 35003KT CAVOK 01/M01 Q0974 NOSIG",
      "taf": "TAF ENTO 011100Z 0112/0212 35008KT CAVOK"
    },
    {
      "icao": "ENVA",
      "alert": "OK",
      "vis_m": 9999,
      "fzfg": false,
      "metar_trigger": false,
      "taf_trigger": false,
      "metar": "METAR ENVA 011120Z 06006KT 020V090 9999 FEW044 M03/M08 Q0982 NOSIG RMK WIND 670FT 07011KT",
      "taf": "TAF ENVA 011100Z 0112/0212 09008KT 9999 -SN FEW020 BKN035"
    },
    {
      "icao": "ENZV",
      "alert": "OK",
      "vis_m": 9999,
      "fzfg": false,
      "metar_trigger": false,
      "taf_trigger": false,
      "metar": "METAR ENZV 011120Z 31026KT 9999 VCSH FEW017CB BKN024 BKN032 06/02 Q0978 TEMPO 33028G40KT 2000 SHSNRAGS VV007",
      "taf": "TAF ENZV 011100Z 0112/0212 34018KT 9999 -SHRA FEW015CB BKN035"
    },
    {
      "icao": "EPGD",
      "alert": "OK",
      "vis_m": 8000,
      "fzfg": false,
      "metar_trigger": false,
      "taf_trigger": false,
      "metar": "METAR EPGD 011130Z 22013KT 8000 -SN BKN009 01/00 Q0990",
      "taf": "TAF EPGD 011130Z 0112/0212 22014KT 9999 BKN012"
    },
    {
      "icao": "EPKK",
      "alert": "OK",
      "vis_m": 9999,
      "fzfg": false,
      "metar_trigger": false,
      "taf_trigger": false,
      "metar": "METAR EPKK 011130Z 22006KT 9999 BKN023 02/M01 Q1004",
      "taf": "TAF EPKK 011130Z 0112/0212 24008KT 8000 BKN035"
    },
    {
      "icao": "EPKT",
      "alert": "OK",
      "vis_m": 9999,
      "fzfg": false,
      "metar_trigger": false,
      "taf_trigger": false,
      "metar": "METAR EPKT 011130Z 22020KT 9999 BKN015 01/M02 Q1002",
      "taf": "TAF EPKT 011130Z 0112/0212 24007KT 8000 BKN025"
    },
    {
      "icao": "EPLB",
      "alert": "OK",
      "vis_m": 6000,
      "fzfg": false,
      "metar_trigger": false,
      "taf_trigger": false,
      "metar": "METAR EPLB 011130Z 20009KT 6000 -SN SCT010 OVC020 M01/M03 Q1003",
      "taf": "TAF EPLB 011130Z 0112/0212 18008KT 6000 -SN BKN010 BKN015"
    },
    {
      "icao": "EPMO",
      "alert": "OK",
      "vis_m": 1000,
      "fzfg": false,
      "metar_trigger": false,
      "taf_trigger": false,
      "metar": "METAR EPMO 011130Z 21012KT 1000 R08/1000U SN BR BKN004 00/00 Q0998",
      "taf": "TAF EPMO 011130Z 0112/0212 21012KT 4000 -SN BR BKN010"
    },
    {
      "icao": "EPPO",
      "alert": "OK",
      "vis_m": 9999,
      "fzfg": false,
      "metar_trigger": false,
      "taf_trigger": false,
      "metar": "METAR EPPO 011130Z 24014KT 9999 BKN015 02/M01 Q0997",
      "taf": "TAF EPPO 011130Z 0112/0212 24015G25KT 9999 BKN015"
    },
    {
      "icao": "EPRA",
      "alert": "OK",
      "vis_m": 8000,
      "fzfg": false,
      "metar_trigger": false,
      "taf_trigger": false,
      "metar": "METAR EPRA 011130Z 23010KT 8000 -SN BKN011 OVC020 00/M01 Q1001",
      "taf": "TAF EPRA 011130Z 0112/0121 24012KT 9999 BKN010"
    },
    {
      "icao": "EPRZ",
      "alert": "OK",
      "vis_m": 9999,
      "fzfg": false,
      "metar_trigger": false,
      "taf_trigger": false,
      "metar": "METAR EPRZ 011130Z 21015KT 9999 -SN OVC026 M01/M06 Q1005",
      "taf": "TAF EPRZ 011130Z 0112/0212 21010KT 9999 OVC020"
    },
    {
      "icao": "EPSC",
      "alert": "OK",
      "vis_m": 9999,
      "fzfg": false,
      "metar_trigger": false,
      "taf_trigger": false,
      "metar": "METAR EPSC 011130Z 20013KT 9999 -RA SCT014 BKN016 02/M00 Q0992",
      "taf": "TAF EPSC 011130Z 0112/0212 22015KT 9999 BKN018"
    },
    {
      "icao": "EPSY",
      "alert": "OK",
      "vis_m": 1300,
      "fzfg": false,
      "metar_trigger": false,
      "taf_trigger": false,
      "metar": "METAR EPSY 011130Z 19011KT 1300 R01/1700N SN BR BKN002 OVC004 M01/M01 Q0995",
      "taf": "TAF EPSY 011130Z 0112/0121 23014KT 2000 -SNRA BR OVC005"
    },
    {
      "icao": "EPWA",
      "alert": "OK",
      "vis_m": 2500,
      "fzfg": false,
      "metar_trigger": false,
      "taf_trigger": false,
      "metar": "METAR EPWA 011130Z 21008KT 2500 -SN BR BKN007 BKN014 01/M00 Q0999 TEMPO 1400 SNRA BKN004",
      "taf": "TAF EPWA 011130Z 0112/0212 22012KT 3000 -SN BKN007"
    },
    {
      "icao": "EPWR",
      "alert": "OK",
      "vis_m": 9999,
      "fzfg": false,
      "metar_trigger": false,
      "taf_trigger": false,
      "metar": "METAR EPWR 011130Z 24009KT 210V270 9999 -SNRA SCT026 OVC031 02/M01 Q1002",
      "taf": "TAF EPWR 011130Z 0112/0212 25010KT 9999 -RASN BKN020"
    },
    {
      "icao": "ESGG",
      "alert": "OK",
      "vis_m": 7000,
      "fzfg": false,
      "metar_trigger": false,
      "taf_trigger": false,
      "metar": "METAR ESGG 011120Z 22015KT 7000 -RASN BKN007 OVC013 02/01 Q0975",
      "taf": "TAF ESGG 011130Z 0112/0212 23013G23KT 9999 BKN008"
    },
    {
      "icao": "ESKN",
      "alert": "OK",
      "vis_m": 9999,
      "fzfg": false,
      "metar_trigger": false,
      "taf_trigger": false,
      "metar": "METAR ESKN 011120Z 19006KT 9999 BKN005 BKN043 00/00 Q0976",
      "taf": "TAF ESKN 011130Z 0112/0212 18006KT 9999 SCT004 BKN020"
    },
    {
      "icao": "ESMS",
      "alert": "OK",
      "vis_m": 6000,
      "fzfg": false,
      "metar_trigger": false,
      "taf_trigger": false,
      "metar": "METAR ESMS 011120Z 24019KT 6000 RA BKN008 03/03 Q0983",
      "taf": "TAF ESMS 011127Z 0112/0212 24016KT 9999 SCT008 BKN015"
    },
    {
      "icao": "ESSA",
      "alert": "OK",
      "vis_m": 900,
      "fzfg": false,
      "metar_trigger": false,
      "taf_trigger": false,
      "metar": "METAR ESSA 011050Z 12016KT 0900 R01L/1800D R19R/P2000D R01R/1800N R19L/1800D -SN VV008 M00/M01 Q0978 NOSIG",
      "taf": "TAF ESSA 011130Z 0112/0212 12018G28KT 5000 -SN VV006"
    },
    {
      "icao": "EYKA",
      "alert": "OK",
      "vis_m": 9999,
      "fzfg": false,
      "metar_trigger": false,
      "taf_trigger": false,
      "metar": "METAR EYKA 011120Z 16012KT 120V200 9999 OVC013 M05/M09 Q0997",
      "taf": "TAF EYKA 011105Z 0112/0212 18015G25KT 1500 SN BLSN BKN005 OVC010"
    },
    {
      "icao": "EYPA",
      "alert": "OK",
      "vis_m": 900,
      "fzfg": false,
      "metar_trigger": false,
      "taf_trigger": false,
      "metar": "METAR EYPA 011120Z 16018KT 0900 R19/1100N +SN OVC011 M04/M05 Q0988",
      "taf": "TAF EYPA 011104Z 0112/0212 17015G30KT 0600 +SN BLSN BKN005 OVC012"
    },
    {
      "icao": "EYVI",
      "alert": "OK",
      "vis_m": 9999,
      "fzfg": false,
      "metar_trigger": false,
      "taf_trigger": false,
      "metar": "METAR EYVI 011120Z 18014KT CAVOK M09/M15 Q0999 NOSIG",
      "taf": "TAF EYVI 011101Z 0112/0212 17014KT 9000 BKN020"
    },
    {
      "icao": "GCFV",
      "alert": "OK",
      "vis_m": 9999,
      "fzfg": false,
      "metar_trigger": false,
      "taf_trigger": false,
      "metar": "METAR GCFV 011130Z 19017KT CAVOK 23/08 Q1012",
      "taf": "TAF GCFV 010800Z 0109/0209 21015KT 9999 FEW025 TX21/0114Z TN16/0206Z"
    },
    {
      "icao": "GCLP",
      "alert": "OK",
      "vis_m": 9999,
      "fzfg": false,
      "metar_trigger": false,
      "taf_trigger": false,
      "metar": "METAR GCLP 011130Z 21025KT 9999 FEW025 22/13 Q1010 NOSIG",
      "taf": "TAF GCLP 010800Z 0109/0209 21022KT 9999 SCT025 TX21/0114Z TN15/0206Z"
    },
    {
      "icao": "GCTS",
      "alert": "OK",
      "vis_m": 9999,
      "fzfg": false,
      "metar_trigger": false,
      "taf_trigger": false,
      "metar": "METAR GCTS 011130Z 25013KT 9999 SCT025 BKN040 20/15 Q1012 NOSIG",
      "taf": "TAF GCTS 010800Z 0109/0209 24016KT 9999 FEW020 TX22/0114Z TN17/0206Z"
    },
    {
      "icao": "GMAD",
      "alert": "OK",
      "vis_m": 9999,
      "fzfg": false,
      "metar_trigger": false,
      "taf_trigger": false,
      "metar": "METAR GMAD 011130Z 03009KT CAVOK 21/14 Q1015 NOSIG",
      "taf": "TAF GMAD 011100Z 0112/0218 04005KT CAVOK"
    },
    {
      "icao": "GMMN",
      "alert": "OK",
      "vis_m": 9999,
      "fzfg": false,
      "metar_trigger": false,
      "taf_trigger": false,
      "metar": "METAR GMMN 011130Z 16007KT CAVOK 19/15 Q1014 NOSIG",
      "taf": "TAF GMMN 011100Z 0112/0218 16008KT CAVOK"
    },
    {
      "icao": "GMMX",
      "alert": "OK",
      "vis_m": 8000,
      "fzfg": false,
      "metar_trigger": false,
      "taf_trigger": false,
      "metar": "METAR GMMX 011130Z 08006KT 040V100 8000 NSC 18/11 Q1014 NOSIG",
      "taf": "TAF GMMX 011100Z 0112/0218 24008KT 8000 NSC"
    },
    {
      "icao": "HEGN",
      "alert": "OK",
      "vis_m": 9999,
      "fzfg": false,
      "metar_trigger": false,
      "taf_trigger": false,
      "metar": "METAR HEGN 011100Z 02008KT CAVOK 24/02 Q1016 NOSIG",
      "taf": "TAF HEGN 011100Z 0112/0218 31008KT CAVOK"
    },
    {
      "icao": "HEMA",
      "alert": "OK",
      "vis_m": 9999,
      "fzfg": false,
      "metar_trigger": false,
      "taf_trigger": false,
      "metar": "METAR HEMA 011100Z 10010KT CAVOK 26/07 Q1015 NOSIG",
      "taf": "TAF HEMA 011100Z 0112/0218 30010KT CAVOK"
    },
    {
      "icao": "HESH",
      "alert": "OK",
      "vis_m": 9999,
      "fzfg": false,
      "metar_trigger": false,
      "taf_trigger": false,
      "metar": "METAR HESH 011100Z 24010KT CAVOK 26/05 Q1014 NOSIG",
      "taf": "TAF HESH 011100Z 0112/0218 23008KT CAVOK"
    },
    {
      "icao": "HESX",
      "alert": "OK",
      "vis_m": 9999,
      "fzfg": false,
      "metar_trigger": false,
      "taf_trigger": false,
      "metar": "METAR HESX 011100Z 24012KT CAVOK 19/04 Q1015 NOSIG",
      "taf": "TAF HESX 011101Z 0112/0218 26010KT 6000 FEW025 SCT070"
    },
    {
      "icao": "LATI",
      "alert": "OK",
      "vis_m": null,
      "fzfg": false,
      "metar_trigger": false,
      "taf_trigger": false,
      "metar": "",
      "taf": "TAF LATI 011100Z 0112/0212 VRB05KT CAVOK TX10/0212Z TN00/0205Z"
    },
    {
      "icao": "LBPD",
      "alert": "OK",
      "vis_m": 9999,
      "fzfg": false,
      "metar_trigger": false,
      "taf_trigger": false,
      "metar": "METAR LBPD 011130Z AUTO 30010KT 9999 NCD 03/M13 Q1019 NOSIG",
      "taf": "TAF LBPD 011100Z 0112/0212 28014KT CAVOK"
    },
    {
      "icao": "LBSF",
      "alert": "OK",
      "vis_m": 9999,
      "fzfg": false,
      "metar_trigger": false,
      "taf_trigger": false,
      "metar": "METAR LBSF 011130Z 19003KT 130V240 9999 FEW047 BKN071 M02/M09 Q1019 NOSIG",
      "taf": "TAF LBSF 011100Z 0112/0212 28010KT 9999 SCT070"
    },
    {
      "icao": "LBWN",
      "alert": "OK",
      "vis_m": 9999,
      "fzfg": false,
      "metar_trigger": false,
      "taf_trigger": false,
      "metar": "METAR LBWN 011130Z AUTO 29014KT 9999 NCD 02/M12 Q1018 NOSIG",
      "taf": "TAF LBWN 011100Z 0112/0212 27014KT CAVOK"
    },
    {
      "icao": "LCLK",
      "alert": "OK",
      "vis_m": 9999,
      "fzfg": false,
      "metar_trigger": false,
      "taf_trigger": false,
      "metar": "METAR LCLK 011130Z 27012KT 220V310 9999 FEW025 19/07 Q1008 NOSIG",
      "taf": "TAF LCLK 011130Z 0112/0212 29018KT 9999 FEW025 SCT050"
    },
    {
      "icao": "LCPH",
      "alert": "OK",
      "vis_m": 9999,
      "fzfg": false,
      "metar_trigger": false,
      "taf_trigger": false,
      "metar": "METAR LCPH 011130Z 32022KT 9999 FEW020 BKN040 15/06 Q1011 NOSIG",
      "taf": "TAF LCPH 011130Z 0112/0212 31020G30KT 9999 FEW025 SCT040"
    },
    {
      "icao": "LEAL",
      "alert": "OK",
      "vis_m": 9999,
      "fzfg": false,
      "metar_trigger": false,
      "taf_trigger": false,
      "metar": "METAR LEAL 011130Z 11003KT 060V180 9999 FEW030 15/08 Q1019 NOSIG",
      "taf": "TAF LEAL 011100Z 0112/0212 16004KT 9999 FEW030 TX15/0114Z TN07/0206Z"
    },
    {
      "icao": "LEBB",
      "alert": "OK",
      "vis_m": 9999,
      "fzfg": false,
      "metar_trigger": false,
      "taf_trigger": false,
      "metar": "METAR LEBB 011130Z 16008KT 120V210 CAVOK 10/03 Q1016 NOSIG",
      "taf": "TAF LEBB 011100Z 0112/0212 14006KT CAVOK TX12/0114Z TN03/0122Z"
    },
    {
      "icao": "LEBL",
      "alert": "OK",
      "vis_m": 9999,
      "fzfg": false,
      "metar_trigger": false,
      "taf_trigger": false,
      "metar": "METAR LEBL 011130Z 31004KT 260V340 9999 FEW020 SCT033 10/05 Q1018 NOSIG",
      "taf": "TAF LEBL 011100Z 0112/0212 24012KT 9999 FEW020 TX13/0112Z TN05/0206Z"
    },
    {
      "icao": "LECH",
      "alert": "OK",
      "vis_m": 9000,
      "fzfg": false,
      "metar_trigger": false,
      "taf_trigger": false,
      "metar": "METAR LECH 011130Z AUTO 22004KT 190V300 9000 NCD 10/04 Q1018",
      "taf": ""
    },
    {
      "icao": "LEMD",
      "alert": "OK",
      "vis_m": 9999,
      "fzfg": false,
      "metar_trigger": false,
      "taf_trigger": false,
      "metar": "METAR LEMD 011130Z 13003KT 080V170 9999 SCT036 03/M00 Q1018 NOSIG",
      "taf": "TAF LEMD 011100Z 0112/0218 VRB03KT 9999 SCT040 TX06/0115Z TN04/0208Z"
    },
    {
      "icao": "LEMG",
      "alert": "OK",
      "vis_m": 9999,
      "fzfg": false,
      "metar_trigger": false,
      "taf_trigger": false,
      "metar": "METAR LEMG 011130Z 10008KT 060V130 9999 BKN025 OVC035 14/10 Q1018 NOSIG",
      "taf": "TAF LEMG 011100Z 0112/0212 11006KT 9999 BKN020 TX17/0114Z TN09/0207Z"
    },
    {
      "icao": "LEVC",
      "alert": "OK",
      "vis_m": 9999,
      "fzfg": false,
      "metar_trigger": false,
      "taf_trigger": false,
      "metar": "METAR LEVC 011130Z VRB02KT CAVOK 12/06 Q1019 NOSIG",
      "taf": "TAF LEVC 011100Z 0112/0212 26004KT 9999 FEW035 TX15/0114Z TN04/0206Z"
    },
    {
      "icao": "LEXJ",
      "alert": "OK",
      "vis_m": 9999,
      "fzfg": false,
      "metar_trigger": false,
      "taf_trigger": false,
      "metar": "METAR LEXJ 011130Z VRB02KT CAVOK 09/04 Q1015",
      "taf": "TAF LEXJ 010800Z 0109/0209 VRB03KT CAVOK TX10/0114Z TN01/0109Z"
    },
    {
      "icao": "LEZG",
      "alert": "OK",
      "vis_m": 3000,
      "fzfg": false,
      "metar_trigger": false,
      "taf_trigger": false,
      "metar": "METAR LEZG 011130Z 10006KT 070V140 3000 BR OVC004 03/03 Q1018 NOSIG",
      "taf": ""
    },
    {
      "icao": "LEZL",
      "alert": "OK",
      "vis_m": 9999,
      "fzfg": false,
      "metar_trigger": false,
      "taf_trigger": false,
      "metar": "METAR LEZL 011130Z 04006KT 9999 OVC035 11/09 Q1016 NOSIG",
      "taf": "TAF LEZL 010800Z 0109/0209 04007KT 9999 BKN040 TX18/0114Z TN09/0207Z"
    },
    {
      "icao": "LFBD",
      "alert": "OK",
      "vis_m": 1500,
      "fzfg": false,
      "metar_trigger": false,
      "taf_trigger": false,
      "metar": "METAR LFBD 011130Z AUTO 16006KT 1500 1400 R23/1900D R05/1600U R29/1700D BR OVC002 M01/M01 Q1017 BECMG 9999 NSW BKN010",
      "taf": "TAF LFBD 011100Z 0112/0218 13005KT 1200 BR BKN002"
    },
    {
      "icao": "LFLL",
      "alert": "OK",
      "vis_m": 9999,
      "fzfg": false,
      "metar_trigger": false,
      "taf_trigger": false,
      "metar": "METAR LFLL 011130Z 18004KT 140V220 CAVOK 02/M04 Q1016 NOSIG",
      "taf": "TAF LFLL 011100Z 0112/0218 VRB03KT CAVOK"
    },
    {
      "icao": "LFLS",
      "alert": "OK",
      "vis_m": 9999,
      "fzfg": false,
      "metar_trigger": false,
      "taf_trigger": false,
      "metar": "METAR LFLS 011130Z AUTO 09009KT CAVOK 02/M03 Q1015 NOSIG",
      "taf": "TAF LFLS 010800Z 0109/0209 VRB03KT CAVOK"
    },
    {
      "icao": "LFMN",
      "alert": "OK",
      "vis_m": 9999,
      "fzfg": false,
      "metar_trigger": false,
      "taf_trigger": false,
      "metar": "METAR LFMN 011130Z 32005KT 280V360 9999 FEW060 11/01 Q1015 BECMG 26015KT",
      "taf": "TAF LFMN 010800Z 0109/0215 26008KT 9999 FEW040 SCT060"
    },
    {
      "icao": "LFOB",
      "alert": "OK",
      "vis_m": 9999,
      "fzfg": false,
      "metar_trigger": false,
      "taf_trigger": false,
      "metar": "METAR LFOB 011130Z AUTO 23011KT 200V260 9999 OVC044 03/00 Q1012 NOSIG",
      "taf": "TAF LFOB 011100Z 0112/0212 24009KT 9999 BKN020"
    },
    {
      "icao": "LFPO",
      "alert": "OK",
      "vis_m": 9999,
      "fzfg": false,
      "metar_trigger": false,
      "taf_trigger": false,
      "metar": "METAR LFPO 011130Z AUTO 25007KT 9999 FEW028 OVC036 03/M01 Q1014",
      "taf": ""
    },
    {
      "icao": "LFSB",
      "alert": "OK",
      "vis_m": 9999,
      "fzfg": false,
      "metar_trigger": false,
      "taf_trigger": false,
      "metar": "METAR LFSB 011130Z AUTO 16005KT CAVOK 01/M09 Q1013 NOSIG",
      "taf": "TAF LFSB 011101Z 0112/0212 16005KT CAVOK"
    },
    {
      "icao": "LGAV",
      "alert": "OK",
      "vis_m": 9999,
      "fzfg": false,
      "metar_trigger": false,
      "taf_trigger": false,
      "metar": "METAR LGAV 011120Z 01011KT 330V050 9999 FEW025 07/M05 Q1022 NOSIG",
      "taf": "TAF LGAV 011100Z 0112/0212 36012KT 9999 FEW020"
    },
    {
      "icao": "LGTS",
      "alert": "OK",
      "vis_m": 9999,
      "fzfg": false,
      "metar_trigger": false,
      "taf_trigger": false,
      "metar": "METAR LGTS 011120Z 30008KT CAVOK 05/M09 Q1023 NOSIG",
      "taf": "TAF LGTS 011100Z 0112/0212 VRB03KT 9999 FEW030"
    },
    {
      "icao": "LHBP",
      "alert": "OK",
      "vis_m": 9999,
      "fzfg": false,
      "metar_trigger": false,
      "taf_trigger": false,
      "metar": "METAR LHBP 011130Z 23009KT 9999 SCT013 03/M01 Q1012 NOSIG",
      "taf": "TAF LHBP 011115Z 0112/0212 19006KT CAVOK"
    },
    {
      "icao": "LHDC",
      "alert": "OK",
      "vis_m": 8000,
      "fzfg": false,
      "metar_trigger": false,
      "taf_trigger": false,
      "metar": "METAR LHDC 011115Z AUTO 18013KT 150V210 8000 -SN FEW008 BKN015 M01/M02 Q1013 NOSIG",
      "taf": "TAF LHDC 011115Z 0112/0121 18014KT 9999 BKN025"
    },
    {
      "icao": "LIBD",
      "alert": "OK",
      "vis_m": 9999,
      "fzfg": false,
      "metar_trigger": false,
      "taf_trigger": false,
      "metar": "METAR LIBD 011120Z 15008KT 130V200 CAVOK 09/M03 Q1021",
      "taf": "TAF LIBD 011100Z 0112/0212 17010KT 9999 FEW050"
    },
    {
      "icao": "LIBG",
      "alert": "OK",
      "vis_m": 9999,
      "fzfg": false,
      "metar_trigger": false,
      "taf_trigger": false,
      "metar": "METAR LIBG 011050Z 19004KT 150V280 CAVOK 09/M01 Q1022",
      "taf": "TAF LIBG 011100Z 0112/0121 VRB05KT CAVOK"
    },
    {
      "icao": "LIBP",
      "alert": "OK",
      "vis_m": 9999,
      "fzfg": false,
      "metar_trigger": false,
      "taf_trigger": false,
      "metar": "METAR LIBP 011120Z AUTO 05007KT 9999 NCD 08/M03 Q1019",
      "taf": "TAF LIBP 011100Z 0112/0212 VRB05KT CAVOK"
    },
    {
      "icao": "LIBR",
      "alert": "OK",
      "vis_m": 9999,
      "fzfg": false,
      "metar_trigger": false,
      "taf_trigger": false,
      "metar": "METAR LIBR 011120Z 07003KT 360V140 CAVOK 09/M03 Q1021",
      "taf": "TAF LIBR 011100Z 0112/0212 VRB05KT 9999 FEW030"
    },
    {
      "icao": "LICA",
      "alert": "OK",
      "vis_m": 9999,
      "fzfg": false,
      "metar_trigger": false,
      "taf_trigger": false,
      "metar": "METAR LICA 011120Z AUTO 07016KT 9999 FEW043/// SCT052/// 10/M01 Q1021",
      "taf": "TAF LICA 011100Z 0112/0212 07015KT CAVOK"
    },
    {
      "icao": "LICC",
      "alert": "OK",
      "vis_m": 9999,
      "fzfg": false,
      "metar_trigger": false,
      "taf_trigger": false,
      "metar": "METAR LICC 011120Z 05006KT 9999 FEW020 SCT025 11/09 Q1022",
      "taf": "TAF LICC 011100Z 0112/0212 VRB05KT 9999 SCT030"
    },
    {
      "icao": "LICJ",
      "alert": "OK",
      "vis_m": 9999,
      "fzfg": false,
      "metar_trigger": false,
      "taf_trigger": false,
      "metar": "METAR LICJ 011120Z VRB03KT 9999 FEW040 15/07 Q1020",
      "taf": "TAF LICJ 011100Z 0112/0212 VRB06KT CAVOK"
    },
    {
      "icao": "LIMC",
      "alert": "OK",
      "vis_m": 8000,
      "fzfg": false,
      "metar_trigger": false,
      "taf_trigger": false,
      "metar": "METAR LIMC 011120Z VRB01KT 8000 3500SW VCFG SCT037 05/01 Q1016 NOSIG",
      "taf": "TAF LIMC 011100Z 0112/0218 VRB04KT 8000 BKN030"
    },
    {
      "icao": "LIME",
      "alert": "OK",
      "vis_m": 9999,
      "fzfg": false,
      "metar_trigger": false,
      "taf_trigger": false,
      "metar": "METAR LIME 011120Z 14003KT 090V210 9999 BKN045 03/M02 Q1017 NOSIG",
      "taf": "TAF LIME 011100Z 0112/0212 VRB04KT 9999 SCT040"
    },
    {
      "icao": "LIMF",
      "alert": "OK",
      "vis_m": 6000,
      "fzfg": false,
      "metar_trigger": false,
      "taf_trigger": false,
      "metar": "METAR LIMF 011120Z VRB02KT 6000 NSC 04/M01 Q1016",
      "taf": "TAF LIMF 011100Z 0112/0212 VRB04KT 8000 BKN040"
    },
    {
      "icao": "LIMJ",
      "alert": "OK",
      "vis_m": 9999,
      "fzfg": false,
      "metar_trigger": false,
      "taf_trigger": false,
      "metar": "METAR LIMJ 011120Z 14018KT 9999 -RA FEW028 BKN035 11/05 Q1016",
      "taf": "TAF LIMJ 011100Z 0112/0212 14014KT 9999 BKN030"
    },
    {
      "icao": "LIPE",
      "alert": "OK",
      "vis_m": 9999,
      "fzfg": false,
      "metar_trigger": false,
      "taf_trigger": false,
      "metar": "METAR LIPE 011120Z 12003KT 050V170 CAVOK 05/M00 Q1017",
      "taf": "TAF LIPE 011100Z 0112/0212 VRB05KT CAVOK"
    },
    {
      "icao": "LIPH",
      "alert": "OK",
      "vis_m": 8000,
      "fzfg": false,
      "metar_trigger": false,
      "taf_trigger": false,
      "metar": "METAR LIPH 011120Z 00000KT 8000 BKN030 03/M03 Q1018",
      "taf": "TAF LIPH 011100Z 0112/0212 VRB04KT CAVOK"
    },
    {
      "icao": "LIPQ",
      "alert": "OK",
      "vis_m": 9999,
      "fzfg": false,
      "metar_trigger": false,
      "taf_trigger": false,
      "metar": "METAR LIPQ 011120Z AUTO 04003KT 010V070 9999 BKN060/// 07/M01 Q1017",
      "taf": "TAF LIPQ 011100Z 0112/0212 VRB05KT 9999 BKN060"
    },
    {
      "icao": "LIPR",
      "alert": "OK",
      "vis_m": 9999,
      "fzfg": false,
      "metar_trigger": false,
      "taf_trigger": false,
      "metar": "METAR LIPR 011120Z 05004KT 020V080 9999 FEW060 06/M02 Q1018",
      "taf": "TAF LIPR 011100Z 0112/0212 VRB05KT CAVOK"
    },
    {
      "icao": "LIPX",
      "alert": "OK",
      "vis_m": 9999,
      "fzfg": false,
      "metar_trigger": false,
      "taf_trigger": false,
      "metar": "METAR LIPX 011120Z 07003KT 030V110 9999 BKN050 03/M01 Q1018",
      "taf": "TAF LIPX 011100Z 0112/0212 VRB04KT 9999 BKN040"
    },
    {
      "icao": "LIPY",
      "alert": "OK",
      "vis_m": 9999,
      "fzfg": false,
      "metar_trigger": false,
      "taf_trigger": false,
      "metar": "METAR LIPY 011120Z AUTO 17004KT 120V210 9999 NCD 10/M05 Q1018",
      "taf": "TAF LIPY 011100Z 0112/0212 VRB05KT CAVOK"
    },
    {
      "icao": "LIPZ",
      "alert": "OK",
      "vis_m": 9999,
      "fzfg": false,
      "metar_trigger": false,
      "taf_trigger": false,
      "metar": "METAR LIPZ 011120Z 03003KT 340V060 9999 BKN050 03/M02 Q1018 NOSIG",
      "taf": "TAF LIPZ 011100Z 0112/0218 VRB05KT CAVOK"
    },
    {
      "icao": "LIRF",
      "alert": "OK",
      "vis_m": 9999,
      "fzfg": false,
      "metar_trigger": false,
      "taf_trigger": false,
      "metar": "METAR LIRF 011120Z 14009KT 9999 SCT040 11/02 Q1019 NOSIG",
      "taf": "TAF LIRF 011100Z 0112/0218 15015KT 9999 FEW040"
    },
    {
      "icao": "LIRN",
      "alert": "OK",
      "vis_m": 9999,
      "fzfg": false,
      "metar_trigger": false,
      "taf_trigger": false,
      "metar": "METAR LIRN 011120Z VRB02KT CAVOK 09/M09 Q1021 NOSIG",
      "taf": "TAF LIRN 011100Z 0112/0212 VRB06KT CAVOK"
    },
    {
      "icao": "LIRP",
      "alert": "OK",
      "vis_m": 9999,
      "fzfg": false,
      "metar_trigger": false,
      "taf_trigger": false,
      "metar": "METAR LIRP 011115Z 11010KT 9999 FEW040 BKN050 08/M01 Q1018 NOSIG",
      "taf": "TAF LIRP 011100Z 0112/0212 12006KT 9999 BKN050"
    },
    {
      "icao": "LIRZ",
      "alert": "OK",
      "vis_m": 9999,
      "fzfg": false,
      "metar_trigger": false,
      "taf_trigger": false,
      "metar": "METAR LIRZ 011120Z AUTO VRB02KT 9999 OVC024/// M00/M03 Q1019",
      "taf": "TAF LIRZ 011100Z 0112/0212 VRB03KT 9999 FEW035"
    },
    {
      "icao": "LJLJ",
      "alert": "OK",
      "vis_m": 9999,
      "fzfg": false,
      "metar_trigger": false,
      "taf_trigger": false,
      "metar": "METAR LJLJ 011130Z VRB02KT 9999 FEW038 BKN047 M00/M02 Q1014 NOSIG",
      "taf": "TAF LJLJ 011100Z 0112/0212 VRB02KT 9999 BKN045"
    },
    {
      "icao": "LKMT",
      "alert": "OK",
      "vis_m": 9999,
      "fzfg": false,
      "metar_trigger": false,
      "taf_trigger": false,
      "metar": "METAR LKMT 011130Z 20019KT 9999 OVC026 00/M02 Q1005 NOSIG",
      "taf": "TAF LKMT 011100Z 0112/0212 22020KT 9999 BKN018"
    },
    {
      "icao": "LKPR",
      "alert": "OK",
      "vis_m": 9999,
      "fzfg": false,
      "metar_trigger": false,
      "taf_trigger": false,
      "metar": "METAR LKPR 011130Z 21019KT 9999 FEW026 00/M04 Q1004 NOSIG",
      "taf": "TAF LKPR 011100Z 0112/0218 22018KT 9999 BKN023"
    },
    {
      "icao": "LLBG",
      "alert": "OK",
      "vis_m": 9999,
      "fzfg": false,
      "metar_trigger": false,
      "taf_trigger": false,
      "metar": "METAR LLBG 011120Z 22017KT 9999 SCT030 19/12 Q1012 TEMPO 5000 TSRA FEW025CB RMK BKN090",
      "taf": "TAF LLBG 011111Z 0112/0212 22012KT 9999 SCT030 BKN040"
    },
    {
      "icao": "LMML",
      "alert": "OK",
      "vis_m": 9999,
      "fzfg": false,
      "metar_trigger": false,
      "taf_trigger": false,
      "metar": "METAR LMML 011145Z 10010KT 9999 SCT016 14/10 Q1020 TEMPO 8000 SHRA BKN015TCU",
      "taf": "TAF LMML 011100Z 0112/0212 10015KT 9999 BKN023"
    },
    {
      "icao": "LOWW",
      "alert": "OK",
      "vis_m": 9999,
      "fzfg": false,
      "metar_trigger": false,
      "taf_trigger": false,
      "metar": "METAR LOWW 011120Z 15007KT 120V180 CAVOK 05/M07 Q1010 NOSIG",
      "taf": "TAF LOWW 011115Z 0112/0218 17006KT CAVOK TX05/0112Z TNM01/0122Z"
    },
    {
      "icao": "LPFR",
      "alert": "OK",
      "vis_m": 9999,
      "fzfg": false,
      "metar_trigger": false,
      "taf_trigger": false,
      "metar": "METAR LPFR 011130Z 09007KT 9999 FEW008 SCT020 BKN040 16/14 Q1013",
      "taf": "TAF LPFR 011100Z 0112/0212 07012KT 9999 BKN020"
    },
    {
      "icao": "LPMA",
      "alert": "OK",
      "vis_m": 9999,
      "fzfg": false,
      "metar_trigger": false,
      "taf_trigger": false,
      "metar": "METAR LPMA 011130Z 21022KT 9999 -SHRA FEW010 FEW015CB BKN033 18/15 Q1003",
      "taf": "TAF LPMA 011100Z 0112/0212 22018KT 9999 SCT015 SCT030"
    },
    {
      "icao": "LPPR",
      "alert": "OK",
      "vis_m": 9999,
      "fzfg": false,
      "metar_trigger": false,
      "taf_trigger": false,
      "metar": "METAR LPPR 011130Z 11014KT 9999 -RA FEW025 SCT035 08/06 Q1012",
      "taf": "TAF LPPR 011100Z 0112/0212 11015KT CAVOK"
    },
    {
      "icao": "LPPS",
      "alert": "OK",
      "vis_m": 9999,
      "fzfg": false,
      "metar_trigger": false,
      "taf_trigger": false,
      "metar": "METAR LPPS 011130Z 20022KT 9999 SCT012 18/16 Q1003",
      "taf": "TAF LPPS 011100Z 0112/0218 21017KT 9999 SCT012 SCT030"
    },
    {
      "icao": "LPPT",
      "alert": "OK",
      "vis_m": 9999,
      "fzfg": false,
      "metar_trigger": false,
      "taf_trigger": false,
      "metar": "METAR LPPT 011130Z 07007KT 9999 -RADZ BKN007 09/08 Q1012",
      "taf": "TAF LPPT 011100Z 0112/0218 09008KT 9999 BKN030"
    },
    {
      "icao": "LQBK",
      "alert": "OK",
      "vis_m": 9999,
      "fzfg": false,
      "metar_trigger": false,
      "taf_trigger": false,
      "metar": "METAR LQBK 011130Z 19009KT CAVOK 08/M07 Q1015 NOSIG",
      "taf": "TAF LQBK 011100Z 0112/0212 15005KT CAVOK TX11/0211Z TN00/0123Z"
    },
    {
      "icao": "LQSA",
      "alert": "OK",
      "vis_m": 9999,
      "fzfg": false,
      "metar_trigger": false,
      "taf_trigger": false,
      "metar": "METAR LQSA 011130Z VRB02KT CAVOK M00/M10 Q1017 NOSIG",
      "taf": "TAF LQSA 011100Z 0112/0212 VRB02KT CAVOK TX06/0212Z TNM01/0112Z"
    },
    {
      "icao": "LQTZ",
      "alert": "OK",
      "vis_m": 9999,
      "fzfg": false,
      "metar_trigger": false,
      "taf_trigger": false,
      "metar": "METAR LQTZ 011130Z 12004KT 110V180 CAVOK 05/M07 Q1016",
      "taf": "TAF LQTZ 011100Z 0112/0212 14005KT CAVOK TX10/0212Z TNM04/0121Z"
    },
    {
      "icao": "LRBC",
      "alert": "OK",
      "vis_m": 9999,
      "fzfg": false,
      "metar_trigger": false,
      "taf_trigger": false,
      "metar": "METAR LRBC 011130Z 22011KT CAVOK 02/M13 Q1012",
      "taf": "TAF LRBC 011100Z 0112/0121 23010KT CAVOK"
    },
    {
      "icao": "LRBS",
      "alert": "OK",
      "vis_m": 9999,
      "fzfg": false,
      "metar_trigger": false,
      "taf_trigger": false,
      "metar": "METAR LRBS 011130Z 26013KT CAVOK 01/M08 Q1018 NOSIG",
      "taf": "TAF LRBS 011100Z 0112/0212 25012KT CAVOK"
    },
    {
      "icao": "LRBV",
      "alert": "OK",
      "vis_m": 9999,
      "fzfg": false,
      "metar_trigger": false,
      "taf_trigger": false,
      "metar": "METAR LRBV 011130Z VRB02KT 9999 OVC028 M06/M10 Q1014",
      "taf": "TAF LRBV 011100Z 0112/0121 VRB04KT 9999 SCT025 BKN050"
    },
    {
      "icao": "LRCL",
      "alert": "OK",
      "vis_m": 9999,
      "fzfg": false,
      "metar_trigger": false,
      "taf_trigger": false,
      "metar": "METAR LRCL 011130Z 06004KT 020V090 9999 BKN042 BKN064 M02/M07 Q1013",
      "taf": "TAF LRCL 011100Z 0112/0121 VRB04KT 9999 BKN040"
    },
    {
      "icao": "LRCV",
      "alert": "OK",
      "vis_m": 9999,
      "fzfg": false,
      "metar_trigger": false,
      "taf_trigger": false,
      "metar": "METAR LRCV 011130Z 26009KT 9999 FEW045 01/M08 Q1017",
      "taf": "TAF LRCV 011100Z 0112/0121 28008KT 9999 SCT045"
    },
    {
      "icao": "LRIA",
      "alert": "OK",
      "vis_m": 9999,
      "fzfg": false,
      "metar_trigger": false,
      "taf_trigger": false,
      "metar": "METAR LRIA 011130Z 25008KT 210V300 CAVOK 02/M11 Q1012",
      "taf": "TAF LRIA 011100Z 0112/0121 23008KT CAVOK"
    },
    {
      "icao": "LROP",
      "alert": "OK",
      "vis_m": 9999,
      "fzfg": false,
      "metar_trigger": false,
      "taf_trigger": false,
      "metar": "METAR LROP 011130Z 25012KT CAVOK 02/M12 Q1017 NOSIG",
      "taf": "TAF LROP 011100Z 0112/0212 25012KT CAVOK"
    },
    {
      "icao": "LRSB",
      "alert": "OK",
      "vis_m": 9999,
      "fzfg": false,
      "metar_trigger": false,
      "taf_trigger": false,
      "metar": "METAR LRSB 011130Z VRB01KT 9999 FEW030 SCT060 M02/M09 Q1014 NOSIG",
      "taf": "TAF LRSB 011100Z 0112/0212 VRB04KT 9999 BKN045"
    },
    {
      "icao": "LRSM",
      "alert": "OK",
      "vis_m": 9999,
      "fzfg": false,
      "metar_trigger": false,
      "taf_trigger": false,
      "metar": "METAR LRSM 011130Z AUTO 16006KT 9999 BKN013/// OVC016/// M01/M04 Q1013",
      "taf": ""
    },
    {
      "icao": "LRSV",
      "alert": "OK",
      "vis_m": 9999,
      "fzfg": false,
      "metar_trigger": false,
      "taf_trigger": false,
      "metar": "METAR LRSV 011130Z 25011KT CAVOK M02/M10 Q1009",
      "taf": "TAF LRSV 011100Z 0112/0121 25010KT CAVOK"
    },
    {
      "icao": "LRTM",
      "alert": "OK",
      "vis_m": 9999,
      "fzfg": false,
      "metar_trigger": false,
      "taf_trigger": false,
      "metar": "METAR LRTM 011130Z 23007KT 9999 BKN029 BKN049 M00/M06 Q1014",
      "taf": "TAF LRTM 011100Z 0112/0121 06005KT 9999 BKN035"
    },
    {
      "icao": "LRTR",
      "alert": "OK",
      "vis_m": 9999,
      "fzfg": false,
      "metar_trigger": false,
      "taf_trigger": false,
      "metar": "METAR LRTR 011130Z COR 17010KT 9999 FEW020 SCT033 BKN043 M00/M05 Q1016",
      "taf": "TAF LRTR 011100Z 0112/0212 19012KT 9999 BKN030"
    },
    {
      "icao": "LTAC",
      "alert": "OK",
      "vis_m": 9999,
      "fzfg": false,
      "metar_trigger": false,
      "taf_trigger": false,
      "metar": "METAR LTAC 011120Z 28010KT 9999 SCT040 SCT100 M04/M09 Q1011 NOSIG RMK RWY21C 26012KT RWY03L 28009KT RWY21R 25012KT RWY03R 26009KT 230V290 RWY21L 27010KT",
      "taf": "TAF LTAC 011040Z 0112/0212 29012KT 9999 SCT035 SCT100"
    },
    {
      "icao": "LTFM",
      "alert": "OK",
      "vis_m": 9999,
      "fzfg": false,
      "metar_trigger": false,
      "taf_trigger": false,
      "metar": "METAR LTFM 011120Z 32014G27KT 280V340 9999 FEW018TCU BKN025 02/M06 Q1020 NOSIG RMK RWY17L 33013KT RWY34L 32014KT RWY16R 32013KT 280V340 RWY36 33015KT RWY18 32014KT",
      "taf": "TAF LTFM 011040Z 0112/0218 31015G25KT 9999 BKN025"
    },
    {
      "icao": "LUKK",
      "alert": "OK",
      "vis_m": 9999,
      "fzfg": false,
      "metar_trigger": false,
      "taf_trigger": false,
      "metar": "METAR LUKK 011130Z 26011KT CAVOK M00/M11 Q1013 NOSIG",
      "taf": "TAF LUKK 011109Z 0112/0212 25012KT CAVOK"
    },
    {
      "icao": "LWOH",
      "alert": "OK",
      "vis_m": null,
      "fzfg": false,
      "metar_trigger": false,
      "taf_trigger": false,
      "metar": "",
      "taf": "TAF LWOH 011125Z 0112/0212 17005KT CAVOK"
    },
    {
      "icao": "LWSK",
      "alert": "OK",
      "vis_m": null,
      "fzfg": false,
      "metar_trigger": false,
      "taf_trigger": false,
      "metar": "",
      "taf": "TAF LWSK 011125Z 0112/0212 VRB02KT CAVOK"
    },
    {
      "icao": "LYBE",
      "alert": "OK",
      "vis_m": 9999,
      "fzfg": false,
      "metar_trigger": false,
      "taf_trigger": false,
      "metar": "METAR LYBE 011130Z 20010KT CAVOK 05/M07 Q1017 NOSIG",
      "taf": "TAF LYBE 011100Z 0112/0212 19008KT CAVOK TX11/0212Z TN00/0118Z"
    },
    {
      "icao": "LYNI",
      "alert": "OK",
      "vis_m": 9999,
      "fzfg": false,
      "metar_trigger": false,
      "taf_trigger": false,
      "metar": "METAR LYNI 011130Z VRB03KT 9999 FEW040 BKN090 02/M10 Q1020 NOSIG",
      "taf": "TAF LYNI 011100Z 0112/0212 18005KT 9999 SCT040 TX08/0212Z TNM02/0122Z"
    },
    {
      "icao": "LYPG",
      "alert": "OK",
      "vis_m": 9999,
      "fzfg": false,
      "metar_trigger": false,
      "taf_trigger": false,
      "metar": "METAR LYPG 011130Z VRB02KT CAVOK 05/M13 Q1022 NOSIG",
      "taf": "TAF LYPG 011100Z 0112/0212 18005KT CAVOK TX07/0113Z TNM02/0121Z"
    },
    {
      "icao": "LZIB",
      "alert": "OK",
      "vis_m": 9999,
      "fzfg": false,
      "metar_trigger": false,
      "taf_trigger": false,
      "metar": "METAR LZIB 011130Z 21010KT CAVOK 04/M04 Q1010 NOSIG",
      "taf": "TAF LZIB 011115Z 0112/0212 26008KT CAVOK"
    },
    {
      "icao": "LZKZ",
      "alert": "OK",
      "vis_m": 8000,
      "fzfg": false,
      "metar_trigger": false,
      "taf_trigger": false,
      "metar": "METAR LZKZ 011130Z 20012KT 8000 -SN OVC004 M02/M03 Q1010 NOSIG",
      "taf": "TAF LZKZ 011115Z 0112/0212 22009KT 9999 BKN009"
    },
    {
      "icao": "LZTT",
      "alert": "OK",
      "vis_m": 9999,
      "fzfg": false,
      "metar_trigger": false,
      "taf_trigger": false,
      "metar": "METAR LZTT 011130Z 24008KT 9999 -SN BKN020 M01/M04 Q1004 NOSIG",
      "taf": "TAF LZTT 011115Z 0112/0212 20008KT 9999 -SN BKN035"
    },
    {
      "icao": "OEJN",
      "alert": "OK",
      "vis_m": 9999,
      "fzfg": false,
      "metar_trigger": false,
      "taf_trigger": false,
      "metar": "METAR OEJN 011100Z 26007KT CAVOK 28/14 Q1014 NOSIG",
      "taf": "TAF OEJN 011100Z 0112/0218 33010KT CAVOK"
    },
    {
      "icao": "OEMA",
      "alert": "OK",
      "vis_m": 9999,
      "fzfg": false,
      "metar_trigger": false,
      "taf_trigger": false,
      "metar": "METAR OEMA 011100Z 25005KT CAVOK 25/M05 Q1017 NOSIG",
      "taf": "TAF OEMA 011100Z 0112/0218 30008KT CAVOK"
    },
    {
      "icao": "OJAI",
      "alert": "OK",
      "vis_m": 4000,
      "fzfg": false,
      "metar_trigger": false,
      "taf_trigger": false,
      "metar": "METAR OJAI 011100Z 24022KT 4000 BLDU NSC 14/03 Q1013 NOSIG",
      "taf": ""
    },
    {
      "icao": "OMAA",
      "alert": "OK",
      "vis_m": 9999,
      "fzfg": false,
      "metar_trigger": false,
      "taf_trigger": false,
      "metar": "METAR OMAA 011100Z 33011KT CAVOK 23/11 Q1016 NOSIG",
      "taf": "TAF OMAA 011100Z 0112/0218 31011KT 8000 FEW040"
    },
    {
      "icao": "OMDB",
      "alert": "OK",
      "vis_m": 9999,
      "fzfg": false,
      "metar_trigger": false,
      "taf_trigger": false,
      "metar": "METAR OMDB 011130Z 31006KT 270V020 CAVOK 23/09 Q1016 NOSIG",
      "taf": "TAF OMDB 011100Z 0112/0218 28010KT 8000 NSC"
    },
    {
      "icao": "UAAA",
      "alert": "OK",
      "vis_m": 5000,
      "fzfg": false,
      "metar_trigger": false,
      "taf_trigger": false,
      "metar": "METAR UAAA 011130Z 36002MPS 340V070 5000 BR OVC005 00/M00 Q1021 NOSIG RMK QBB170",
      "taf": "TAF UAAA 011106Z 0112/0212 02003MPS 1200 BR BKN004 OVC011 TX02/0209Z TNM03/0202Z"
    },
    {
      "icao": "UBBB",
      "alert": "OK",
      "vis_m": 9999,
      "fzfg": false,
      "metar_trigger": false,
      "taf_trigger": false,
      "metar": "METAR UBBB 011130Z 33018KT 9999 BKN013 OVC025 06/02 Q1011 NOSIG",
      "taf": "TAF UBBB 011045Z 0112/0212 35018KT 9999 BKN025 TX05/0112Z TN04/0203Z"
    },
    {
      "icao": "UDSG",
      "alert": "OK",
      "vis_m": 1500,
      "fzfg": false,
      "metar_trigger": false,
      "taf_trigger": false,
      "metar": "METAR UDSG 011130Z 06001KT 1500 R02/1500U SN BR OVC020 M03/M03 Q1004 NOSIG",
      "taf": ""
    },
    {
      "icao": "UDYZ",
      "alert": "OK",
      "vis_m": 4700,
      "fzfg": false,
      "metar_trigger": false,
      "taf_trigger": false,
      "metar": "METAR UDYZ 011130Z 25003KT 4700 BR BKN036 M01/M02 Q1006 NOSIG",
      "taf": "TAF UDYZ 011100Z 0112/0212 24006KT 3500 BR BKN020"
    },
    {
      "icao": "UGKO",
      "alert": "OK",
      "vis_m": 9999,
      "fzfg": false,
      "metar_trigger": false,
      "taf_trigger": false,
      "metar": "METAR UGKO 011130Z 30009KT 9999 SCT007 BKN046 03/01 Q1006 NOSIG",
      "taf": "TAF UGKO 011100Z 0112/0212 26007KT 9999 BKN050 TX03/0211Z TNM03/0204Z"
    }
  ]
}