{
  "ts_utc": "2026-07-14T13:08:49Z",
  "threshold_m": 150,
  "source": "stations_override.txt (ICAO list) + aviationweather.gov (METAR/TAF raw)",
  "station_count": 159,
  "stations": [
    {
      "icao": "BIKF",
      "alert": "OK",
      "vis_m": 1000,
      "fzfg": false,
      "metar_trigger": false,
      "taf_trigger": false,
      "metar": "METAR BIKF 141300Z 15020KT 1000 R19/P1500D DZRA FG OVC003 11/11 Q1018",
      "taf": "TAF BIKF 141036Z 1412/1512 16018KT 4000 RADZ BKN005 OVC010 TX11/1415Z TN10/1503Z"
    },
    {
      "icao": "BKPR",
      "alert": "OK",
      "vis_m": 9999,
      "fzfg": false,
      "metar_trigger": false,
      "taf_trigger": false,
      "metar": "METAR BKPR 141300Z VRB03KT 9999 FEW050 28/13 Q1019 NOSIG",
      "taf": "TAF BKPR 141130Z 1412/1512 34008KT 9999 FEW050"
    },
    {
      "icao": "EBCI",
      "alert": "OK",
      "vis_m": 9999,
      "fzfg": false,
      "metar_trigger": false,
      "taf_trigger": false,
      "metar": "METAR EBCI 141250Z 03012KT 360V060 CAVOK 30/15 Q1018 NOSIG",
      "taf": "TAF EBCI 141100Z 1412/1518 04010KT CAVOK"
    },
    {
      "icao": "EDDB",
      "alert": "OK",
      "vis_m": 9999,
      "fzfg": false,
      "metar_trigger": false,
      "taf_trigger": false,
      "metar": "METAR EDDB 141250Z AUTO 11005KT 070V150 CAVOK 22/14 Q1020 NOSIG",
      "taf": "TAF EDDB 141100Z 1412/1512 06010KT 9999 SCT030"
    },
    {
      "icao": "EDDH",
      "alert": "OK",
      "vis_m": 9999,
      "fzfg": false,
      "metar_trigger": false,
      "taf_trigger": false,
      "metar": "METAR EDDH 141250Z AUTO 07009KT 010V100 CAVOK 27/12 Q1021 NOSIG",
      "taf": "TAF EDDH 141100Z 1412/1518 03010KT CAVOK"
    },
    {
      "icao": "EDDK",
      "alert": "OK",
      "vis_m": 9999,
      "fzfg": false,
      "metar_trigger": false,
      "taf_trigger": false,
      "metar": "METAR EDDK 141250Z AUTO 35007KT 300V040 CAVOK 32/13 Q1016 NOSIG",
      "taf": "TAF EDDK 141100Z 1412/1518 04008KT CAVOK"
    },
    {
      "icao": "EDDN",
      "alert": "OK",
      "vis_m": 9999,
      "fzfg": false,
      "metar_trigger": false,
      "taf_trigger": false,
      "metar": "METAR EDDN 141250Z AUTO VRB04KT CAVOK 32/13 Q1016 NOSIG",
      "taf": "TAF EDDN 141100Z 1412/1512 20004KT CAVOK"
    },
    {
      "icao": "EDDS",
      "alert": "OK",
      "vis_m": 9999,
      "fzfg": false,
      "metar_trigger": false,
      "taf_trigger": false,
      "metar": "METAR EDDS 141250Z AUTO VRB03KT CAVOK 30/15 Q1016 NOSIG",
      "taf": "TAF EDDS 141100Z 1412/1512 30008KT CAVOK"
    },
    {
      "icao": "EDFH",
      "alert": "OK",
      "vis_m": 9999,
      "fzfg": false,
      "metar_trigger": false,
      "taf_trigger": false,
      "metar": "METAR EDFH 141250Z 09005KT 020V140 CAVOK 30/11 Q1018",
      "taf": "TAF EDFH 141100Z 1412/1512 05010KT CAVOK"
    },
    {
      "icao": "EDJA",
      "alert": "OK",
      "vis_m": 9999,
      "fzfg": false,
      "metar_trigger": false,
      "taf_trigger": false,
      "metar": "METAR EDJA 141250Z 26007KT 220V300 CAVOK 27/16 Q1018",
      "taf": "TAF EDJA 141100Z 1412/1421 VRB03KT CAVOK"
    },
    {
      "icao": "EDLW",
      "alert": "OK",
      "vis_m": 9999,
      "fzfg": false,
      "metar_trigger": false,
      "taf_trigger": false,
      "metar": "METAR EDLW 141250Z 06009KT 360V100 CAVOK 28/14 Q1018",
      "taf": "TAF EDLW 141100Z 1412/1512 06009KT CAVOK"
    },
    {
      "icao": "EDNY",
      "alert": "OK",
      "vis_m": 9999,
      "fzfg": false,
      "metar_trigger": false,
      "taf_trigger": false,
      "metar": "METAR EDNY 141250Z 24005KT 190V330 CAVOK 29/16 Q1017",
      "taf": "TAF EDNY 141100Z 1412/1421 05004KT CAVOK"
    },
    {
      "icao": "EDSB",
      "alert": "OK",
      "vis_m": 9999,
      "fzfg": false,
      "metar_trigger": false,
      "taf_trigger": false,
      "metar": "METAR EDSB 141250Z VRB03KT CAVOK 31/15 Q1015",
      "taf": "TAF EDSB 141100Z 1412/1512 33005KT 9999 FEW030"
    },
    {
      "icao": "EETN",
      "alert": "OK",
      "vis_m": 9999,
      "fzfg": false,
      "metar_trigger": false,
      "taf_trigger": false,
      "metar": "METAR EETN 141250Z 32007KT 9999 FEW027 20/14 Q1020 NOSIG",
      "taf": "TAF EETN 141130Z 1412/1512 01010KT 9999 BKN025"
    },
    {
      "icao": "EFTU",
      "alert": "OK",
      "vis_m": 9999,
      "fzfg": false,
      "metar_trigger": false,
      "taf_trigger": false,
      "metar": "METAR EFTU 141250Z AUTO 01006KT 310V090 CAVOK 24/10 Q1020",
      "taf": "TAF EFTU 141125Z 1412/1512 35008KT CAVOK"
    },
    {
      "icao": "EGBB",
      "alert": "OK",
      "vis_m": 9999,
      "fzfg": false,
      "metar_trigger": false,
      "taf_trigger": false,
      "metar": "METAR EGBB 141250Z 06010KT 020V090 9999 FEW037 24/14 Q1024",
      "taf": "TAF EGBB 141054Z 1412/1512 04010KT 9999 SCT020"
    },
    {
      "icao": "EGGP",
      "alert": "OK",
      "vis_m": 8000,
      "fzfg": false,
      "metar_trigger": false,
      "taf_trigger": false,
      "metar": "METAR EGGP 141250Z 08010KT 8000 FEW023 25/12 Q1024",
      "taf": ""
    },
    {
      "icao": "EGGW",
      "alert": "OK",
      "vis_m": 9999,
      "fzfg": false,
      "metar_trigger": false,
      "taf_trigger": false,
      "metar": "METAR EGGW 141250Z AUTO 02012KT 340V050 9999 BKN014 OVC018 21/16 Q1023",
      "taf": "TAF EGGW 141102Z 1412/1512 04012KT 6000 BKN008"
    },
    {
      "icao": "EGKK",
      "alert": "OK",
      "vis_m": 9999,
      "fzfg": false,
      "metar_trigger": false,
      "taf_trigger": false,
      "metar": "METAR EGKK 141250Z 04012KT 010V080 9999 FEW038 27/16 Q1020",
      "taf": "TAF EGKK 141055Z 1412/1518 05012KT 9999 FEW035"
    },
    {
      "icao": "EGNM",
      "alert": "OK",
      "vis_m": 9999,
      "fzfg": false,
      "metar_trigger": false,
      "taf_trigger": false,
      "metar": "METAR EGNM 141250Z 07010KT 030V090 9999 FEW036 22/13 Q1026",
      "taf": "TAF EGNM 141057Z 1412/1512 04012KT 9999 FEW035"
    },
    {
      "icao": "EGPD",
      "alert": "OK",
      "vis_m": 9999,
      "fzfg": false,
      "metar_trigger": false,
      "taf_trigger": false,
      "metar": "METAR EGPD 141250Z 09007KT 050V130 9999 BKN015 17/12 Q1029",
      "taf": "TAF EGPD 141102Z 1412/1512 09010KT 9999 OVC009"
    },
    {
      "icao": "EGPF",
      "alert": "OK",
      "vis_m": 9999,
      "fzfg": false,
      "metar_trigger": false,
      "taf_trigger": false,
      "metar": "METAR EGPF 141250Z AUTO 08011KT 040V110 9999 NCD 19/12 Q1028",
      "taf": "TAF EGPF 141111Z 1412/1512 09008KT 9999 BKN025"
    },
    {
      "icao": "EHBK",
      "alert": "OK",
      "vis_m": 9999,
      "fzfg": false,
      "metar_trigger": false,
      "taf_trigger": false,
      "metar": "METAR EHBK 141255Z AUTO 04010KT 350V090 9999 NSC 29/14 Q1017 NOSIG",
      "taf": "TAF EHBK 141030Z 1412/1518 05010KT CAVOK"
    },
    {
      "icao": "EHEH",
      "alert": "OK",
      "vis_m": 9999,
      "fzfg": false,
      "metar_trigger": false,
      "taf_trigger": false,
      "metar": "METAR EHEH 141255Z AUTO 03012KT 340V070 9999 NCD 30/12 Q1018 BLU NOSIG RMK TREND REMOTE BY EHWX",
      "taf": "TAF EHEH 141106Z 1412/1518 06011KT CAVOK"
    },
    {
      "icao": "EKBI",
      "alert": "OK",
      "vis_m": 9999,
      "fzfg": false,
      "metar_trigger": false,
      "taf_trigger": false,
      "metar": "METAR EKBI 141250Z AUTO 02005KT 340V070 9999 SCT062/// 26/11 Q1023",
      "taf": "TAF EKBI 141127Z 1412/1512 03008KT 9999 FEW045"
    },
    {
      "icao": "EKCH",
      "alert": "OK",
      "vis_m": 9999,
      "fzfg": false,
      "metar_trigger": false,
      "taf_trigger": false,
      "metar": "METAR EKCH 141250Z AUTO 13004KT 100V180 9999 NCD 25/14 Q1022 NOSIG",
      "taf": "TAF EKCH 141127Z 1412/1512 13006KT CAVOK"
    },
    {
      "icao": "ENAL",
      "alert": "OK",
      "vis_m": 9999,
      "fzfg": false,
      "metar_trigger": false,
      "taf_trigger": false,
      "metar": "METAR ENAL 141250Z 05007KT 010V080 9999 BKN010 16/12 Q1028",
      "taf": "TAF ENAL 141100Z 1412/1421 04009KT 9999 SCT006"
    },
    {
      "icao": "ENBR",
      "alert": "OK",
      "vis_m": 9999,
      "fzfg": false,
      "metar_trigger": false,
      "taf_trigger": false,
      "metar": "METAR ENBR 141250Z 32007KT CAVOK 21/13 Q1025 NOSIG RMK WIND 1200FT 28003KT",
      "taf": "TAF ENBR 141100Z 1412/1512 33008KT CAVOK"
    },
    {
      "icao": "ENGM",
      "alert": "OK",
      "vis_m": 9999,
      "fzfg": false,
      "metar_trigger": false,
      "taf_trigger": false,
      "metar": "METAR ENGM 141250Z 06006KT 030V100 CAVOK 26/08 Q1024 NOSIG",
      "taf": "TAF ENGM 141100Z 1412/1512 02005KT CAVOK"
    },
    {
      "icao": "ENHD",
      "alert": "OK",
      "vis_m": 9999,
      "fzfg": false,
      "metar_trigger": false,
      "taf_trigger": false,
      "metar": "METAR ENHD 141250Z 34011KT CAVOK 16/12 Q1025",
      "taf": "TAF ENHD 141100Z 1412/1421 34012KT 9999 FEW003"
    },
    {
      "icao": "ENTC",
      "alert": "OK",
      "vis_m": 9999,
      "fzfg": false,
      "metar_trigger": false,
      "taf_trigger": false,
      "metar": "METAR ENTC 141250Z 28014KT 9999 -DZ FEW021 BKN028 OVC038 11/08 Q1020 NOSIG RMK WIND 2600FT 26023KT",
      "taf": "TAF ENTC 141100Z 1412/1512 25010KT 9999 -DZ SCT010 BKN020"
    },
    {
      "icao": "ENTO",
      "alert": "OK",
      "vis_m": 9999,
      "fzfg": false,
      "metar_trigger": false,
      "taf_trigger": false,
      "metar": "METAR ENTO 141250Z 07004KT 030V100 CAVOK 26/13 Q1024 NOSIG",
      "taf": "TAF ENTO 141100Z 1412/1512 02005KT CAVOK"
    },
    {
      "icao": "ENVA",
      "alert": "OK",
      "vis_m": 9999,
      "fzfg": false,
      "metar_trigger": false,
      "taf_trigger": false,
      "metar": "METAR ENVA 141250Z 23007KT CAVOK 19/11 Q1027 NOSIG RMK WIND 670FT 30007KT",
      "taf": "TAF ENVA 141100Z 1412/1512 27009KT 9999 FEW020"
    },
    {
      "icao": "ENZV",
      "alert": "OK",
      "vis_m": 9999,
      "fzfg": false,
      "metar_trigger": false,
      "taf_trigger": false,
      "metar": "METAR ENZV 141250Z 28007KT CAVOK 19/14 Q1025 NOSIG",
      "taf": "TAF ENZV 141100Z 1412/1512 30008KT CAVOK"
    },
    {
      "icao": "EPGD",
      "alert": "OK",
      "vis_m": 9999,
      "fzfg": false,
      "metar_trigger": false,
      "taf_trigger": false,
      "metar": "METAR EPGD 141300Z 02011KT CAVOK 20/12 Q1022",
      "taf": "TAF EPGD 141130Z 1412/1512 02013KT CAVOK"
    },
    {
      "icao": "EPKK",
      "alert": "OK",
      "vis_m": 9999,
      "fzfg": false,
      "metar_trigger": false,
      "taf_trigger": false,
      "metar": "METAR EPKK 141300Z 03008KT 9999 FEW040CB 24/18 Q1018",
      "taf": "TAF EPKK 141130Z 1412/1512 10005KT CAVOK"
    },
    {
      "icao": "EPKT",
      "alert": "OK",
      "vis_m": 9999,
      "fzfg": false,
      "metar_trigger": false,
      "taf_trigger": false,
      "metar": "METAR EPKT 141300Z 01007KT 330V050 9999 VCTS FEW035CB 26/18 Q1018",
      "taf": "TAF EPKT 141130Z 1412/1512 36005KT CAVOK"
    },
    {
      "icao": "EPLB",
      "alert": "OK",
      "vis_m": 9999,
      "fzfg": false,
      "metar_trigger": false,
      "taf_trigger": false,
      "metar": "METAR EPLB 141300Z 33007KT 9999 FEW037 27/18 Q1017",
      "taf": "TAF EPLB 141130Z 1412/1512 33008KT CAVOK"
    },
    {
      "icao": "EPMO",
      "alert": "OK",
      "vis_m": 9999,
      "fzfg": false,
      "metar_trigger": false,
      "taf_trigger": false,
      "metar": "METAR EPMO 141300Z 32007KT 270V030 CAVOK 26/14 Q1018",
      "taf": "TAF EPMO 141130Z 1412/1512 VRB06KT CAVOK"
    },
    {
      "icao": "EPPO",
      "alert": "OK",
      "vis_m": 9999,
      "fzfg": false,
      "metar_trigger": false,
      "taf_trigger": false,
      "metar": "METAR EPPO 141300Z 03008KT 340V050 CAVOK 26/09 Q1020",
      "taf": "TAF EPPO 141130Z 1412/1512 06007KT CAVOK"
    },
    {
      "icao": "EPRA",
      "alert": "OK",
      "vis_m": 9999,
      "fzfg": false,
      "metar_trigger": false,
      "taf_trigger": false,
      "metar": "METAR EPRA 141300Z 02004KT CAVOK 27/16 Q1018",
      "taf": "TAF EPRA 141130Z 1412/1421 36005KT CAVOK"
    },
    {
      "icao": "EPRZ",
      "alert": "OK",
      "vis_m": 9999,
      "fzfg": false,
      "metar_trigger": false,
      "taf_trigger": false,
      "metar": "METAR EPRZ 141300Z 12014KT 9999 -TSRA BKN040CB 22/16 Q1018",
      "taf": "TAF EPRZ 141130Z 1412/1512 34005KT CAVOK"
    },
    {
      "icao": "EPSC",
      "alert": "OK",
      "vis_m": 9999,
      "fzfg": false,
      "metar_trigger": false,
      "taf_trigger": false,
      "metar": "METAR EPSC 141300Z 02007KT 350V070 CAVOK 23/11 Q1021",
      "taf": "TAF EPSC 141130Z 1412/1512 05010KT CAVOK"
    },
    {
      "icao": "EPSY",
      "alert": "OK",
      "vis_m": 9999,
      "fzfg": false,
      "metar_trigger": false,
      "taf_trigger": false,
      "metar": "METAR EPSY 141300Z 33009KT 290V030 CAVOK 22/13 Q1019",
      "taf": "TAF EPSY 141130Z 1412/1421 36008KT CAVOK"
    },
    {
      "icao": "EPWA",
      "alert": "OK",
      "vis_m": 9999,
      "fzfg": false,
      "metar_trigger": false,
      "taf_trigger": false,
      "metar": "METAR EPWA 141300Z 33005KT 260V010 9999 FEW043 26/15 Q1018 NOSIG",
      "taf": "TAF EPWA 141130Z 1412/1512 VRB06KT CAVOK"
    },
    {
      "icao": "EPWR",
      "alert": "OK",
      "vis_m": 9999,
      "fzfg": false,
      "metar_trigger": false,
      "taf_trigger": false,
      "metar": "METAR EPWR 141300Z 34007KT 9999 FEW036CB SCT044 26/17 Q1019",
      "taf": "TAF EPWR 141130Z 1412/1512 05004KT CAVOK"
    },
    {
      "icao": "ESGG",
      "alert": "OK",
      "vis_m": 9999,
      "fzfg": false,
      "metar_trigger": false,
      "taf_trigger": false,
      "metar": "METAR ESGG 141250Z 34009KT 300V030 CAVOK 27/10 Q1023",
      "taf": "TAF ESGG 141130Z 1412/1512 36007KT CAVOK"
    },
    {
      "icao": "ESKN",
      "alert": "OK",
      "vis_m": 9999,
      "fzfg": false,
      "metar_trigger": false,
      "taf_trigger": false,
      "metar": "METAR ESKN 141250Z VRB03KT CAVOK 26/10 Q1022",
      "taf": "TAF ESKN 141130Z 1412/1512 02006KT CAVOK"
    },
    {
      "icao": "ESMS",
      "alert": "OK",
      "vis_m": 9999,
      "fzfg": false,
      "metar_trigger": false,
      "taf_trigger": false,
      "metar": "METAR ESMS 141250Z 32007KT 280V360 CAVOK 25/14 Q1022",
      "taf": "TAF ESMS 141127Z 1412/1512 32010KT CAVOK"
    },
    {
      "icao": "ESSA",
      "alert": "OK",
      "vis_m": 9999,
      "fzfg": false,
      "metar_trigger": false,
      "taf_trigger": false,
      "metar": "METAR ESSA 141250Z 05007KT 010V100 CAVOK 24/08 Q1022 NOSIG",
      "taf": "TAF ESSA 141130Z 1412/1512 02009KT CAVOK"
    },
    {
      "icao": "EYKA",
      "alert": "OK",
      "vis_m": 9999,
      "fzfg": false,
      "metar_trigger": false,
      "taf_trigger": false,
      "metar": "METAR EYKA 141250Z 34003KT 290V050 9999 FEW036 BKN043 24/16 Q1018",
      "taf": "TAF EYKA 141100Z 1412/1512 VRB03KT 9000 SCT020 BKN035"
    },
    {
      "icao": "EYPA",
      "alert": "OK",
      "vis_m": 9999,
      "fzfg": false,
      "metar_trigger": false,
      "taf_trigger": false,
      "metar": "METAR EYPA 141250Z 34007KT 280V030 CAVOK 19/16 Q1020",
      "taf": "TAF EYPA 141100Z 1412/1512 VRB03KT 9000 SCT030"
    },
    {
      "icao": "EYVI",
      "alert": "OK",
      "vis_m": 9999,
      "fzfg": false,
      "metar_trigger": false,
      "taf_trigger": false,
      "metar": "METAR EYVI 141250Z 34005KT 300V010 9999 SCT009 BKN016 20/17 Q1018 NOSIG",
      "taf": ""
    },
    {
      "icao": "GCFV",
      "alert": "OK",
      "vis_m": 9999,
      "fzfg": false,
      "metar_trigger": false,
      "taf_trigger": false,
      "metar": "METAR GCFV 141300Z 05010KT 020V080 9999 FEW022 25/19 Q1017",
      "taf": "TAF GCFV 140800Z 1409/1509 05011KT 9999 SCT025 TX26/1414Z TN21/1506Z"
    },
    {
      "icao": "GCLP",
      "alert": "OK",
      "vis_m": 9999,
      "fzfg": false,
      "metar_trigger": false,
      "taf_trigger": false,
      "metar": "METAR GCLP 141300Z 02016KT 350V050 9999 FEW020 26/18 Q1017 NOSIG",
      "taf": "TAF GCLP 140800Z 1409/1509 02017KT 9999 SCT020 TX27/1414Z TN21/1506Z"
    },
    {
      "icao": "GCTS",
      "alert": "OK",
      "vis_m": 9999,
      "fzfg": false,
      "metar_trigger": false,
      "taf_trigger": false,
      "metar": "METAR GCTS 141300Z 11017KT 9999 FEW030 27/18 Q1017 NOSIG",
      "taf": "TAF GCTS 140800Z 1409/1509 09015KT 9999 FEW030 TX27/1414Z TN20/1506Z"
    },
    {
      "icao": "GMAD",
      "alert": "OK",
      "vis_m": 9999,
      "fzfg": false,
      "metar_trigger": false,
      "taf_trigger": false,
      "metar": "METAR GMAD 141300Z 28011KT CAVOK 31/19 Q1015 NOSIG",
      "taf": "TAF GMAD 141100Z 1412/1518 33005KT CAVOK"
    },
    {
      "icao": "GMMN",
      "alert": "OK",
      "vis_m": 9999,
      "fzfg": false,
      "metar_trigger": false,
      "taf_trigger": false,
      "metar": "METAR GMMN 141300Z 02008KT 330V070 CAVOK 30/20 Q1017 NOSIG",
      "taf": "TAF GMMN 141100Z 1412/1518 36012KT CAVOK"
    },
    {
      "icao": "GMMX",
      "alert": "OK",
      "vis_m": 9999,
      "fzfg": false,
      "metar_trigger": false,
      "taf_trigger": false,
      "metar": "METAR GMMX 141300Z VRB03KT 9999 FEW033 34/18 Q1017 NOSIG",
      "taf": "TAF GMMX 141100Z 1412/1518 30006KT CAVOK"
    },
    {
      "icao": "HEGN",
      "alert": "OK",
      "vis_m": 9999,
      "fzfg": false,
      "metar_trigger": false,
      "taf_trigger": false,
      "metar": "METAR HEGN 141200Z 36018KT CAVOK 36/07 Q1004 NOSIG",
      "taf": "TAF HEGN 141100Z 1412/1518 02018KT CAVOK"
    },
    {
      "icao": "HEMA",
      "alert": "OK",
      "vis_m": 9999,
      "fzfg": false,
      "metar_trigger": false,
      "taf_trigger": false,
      "metar": "METAR HEMA 141200Z 36019KT CAVOK 35/11 Q1004 NOSIG",
      "taf": "TAF HEMA 141100Z 1412/1518 36018KT CAVOK"
    },
    {
      "icao": "HESH",
      "alert": "OK",
      "vis_m": 9999,
      "fzfg": false,
      "metar_trigger": false,
      "taf_trigger": false,
      "metar": "METAR HESH 141200Z 03011KT CAVOK 38/14 Q1004 NOSIG",
      "taf": "TAF HESH 141100Z 1412/1518 02015KT CAVOK"
    },
    {
      "icao": "HESX",
      "alert": "OK",
      "vis_m": 9999,
      "fzfg": false,
      "metar_trigger": false,
      "taf_trigger": false,
      "metar": "METAR HESX 141200Z 01009KT CAVOK 35/17 Q1008 NOSIG",
      "taf": "TAF HESX 141100Z 1412/1518 32012KT CAVOK"
    },
    {
      "icao": "LATI",
      "alert": "OK",
      "vis_m": 9999,
      "fzfg": false,
      "metar_trigger": false,
      "taf_trigger": false,
      "metar": "METAR LATI 141250Z 29010KT 250V340 CAVOK 33/15 Q1016 NOSIG",
      "taf": "TAF LATI 141100Z 1412/1512 34012KT CAVOK TX37/1512Z TN19/1504Z"
    },
    {
      "icao": "LBPD",
      "alert": "OK",
      "vis_m": 9999,
      "fzfg": false,
      "metar_trigger": false,
      "taf_trigger": false,
      "metar": "METAR LBPD 141300Z AUTO 26004KT 180V350 9999 NCD 31/11 Q1015 NOSIG",
      "taf": "TAF LBPD 141100Z 1412/1512 31010KT CAVOK"
    },
    {
      "icao": "LBSF",
      "alert": "OK",
      "vis_m": 9999,
      "fzfg": false,
      "metar_trigger": false,
      "taf_trigger": false,
      "metar": "METAR LBSF 141300Z 32005KT 270V030 9999 BKN071 28/11 Q1018 NOSIG",
      "taf": "TAF LBSF 141100Z 1412/1512 31010KT CAVOK"
    },
    {
      "icao": "LBWN",
      "alert": "OK",
      "vis_m": 9999,
      "fzfg": false,
      "metar_trigger": false,
      "taf_trigger": false,
      "metar": "METAR LBWN 141300Z 35009KT 300V020 9999 SCT030 28/15 Q1014 NOSIG",
      "taf": "TAF LBWN 141100Z 1412/1512 35008KT 9999 SCT050"
    },
    {
      "icao": "LCLK",
      "alert": "OK",
      "vis_m": 9999,
      "fzfg": false,
      "metar_trigger": false,
      "taf_trigger": false,
      "metar": "METAR LCLK 141300Z 22019KT 9999 FEW025 32/25 Q1005 NOSIG",
      "taf": "TAF LCLK 141130Z 1412/1512 21020KT 9999 FEW025"
    },
    {
      "icao": "LCPH",
      "alert": "OK",
      "vis_m": 9999,
      "fzfg": false,
      "metar_trigger": false,
      "taf_trigger": false,
      "metar": "METAR LCPH 141300Z 24006KT 9999 FEW025 31/24 Q1006 NOSIG",
      "taf": "TAF LCPH 141130Z 1412/1512 25010KT 9999 FEW025"
    },
    {
      "icao": "LEAL",
      "alert": "OK",
      "vis_m": 9999,
      "fzfg": false,
      "metar_trigger": false,
      "taf_trigger": false,
      "metar": "METAR LEAL 141300Z 10007KT 060V160 CAVOK 31/22 Q1016 NOSIG",
      "taf": "TAF LEAL 141100Z 1412/1512 11010KT CAVOK TX34/1414Z TN25/1505Z"
    },
    {
      "icao": "LEBB",
      "alert": "OK",
      "vis_m": 9999,
      "fzfg": false,
      "metar_trigger": false,
      "taf_trigger": false,
      "metar": "METAR LEBB 141300Z 32008G18KT 270V360 CAVOK 33/23 Q1014 NOSIG",
      "taf": "TAF LEBB 141100Z 1412/1512 32008KT 9999 FEW020 TX31/1414Z TN21/1505Z"
    },
    {
      "icao": "LEBL",
      "alert": "OK",
      "vis_m": 9999,
      "fzfg": false,
      "metar_trigger": false,
      "taf_trigger": false,
      "metar": "METAR LEBL 141300Z 15008KT 100V190 9999 R06R///// SCT010 29/24 Q1016 NOSIG",
      "taf": "TAF LEBL 141100Z 1412/1512 14006KT 9999 FEW020 TX31/1412Z TN25/1506Z"
    },
    {
      "icao": "LECH",
      "alert": "OK",
      "vis_m": 9999,
      "fzfg": false,
      "metar_trigger": false,
      "taf_trigger": false,
      "metar": "METAR LECH 141300Z AUTO 12010KT 080V170 9999 SCT025 29/22 Q1018",
      "taf": "TAF LECH 141100Z 1412/1512 13009KT 9999 FEW010 TX34/1414Z TN22/1505Z"
    },
    {
      "icao": "LEMD",
      "alert": "OK",
      "vis_m": 9999,
      "fzfg": false,
      "metar_trigger": false,
      "taf_trigger": false,
      "metar": "METAR LEMD 141300Z 20009KT 150V260 CAVOK 35/07 Q1016 NOSIG",
      "taf": "TAF LEMD 141100Z 1412/1518 20010KT CAVOK TX37/1416Z TN20/1505Z"
    },
    {
      "icao": "LEMG",
      "alert": "OK",
      "vis_m": 9999,
      "fzfg": false,
      "metar_trigger": false,
      "taf_trigger": false,
      "metar": "METAR LEMG 141300Z 11008KT 070V220 CAVOK 32/16 Q1014 NOSIG",
      "taf": "TAF LEMG 141100Z 1412/1512 14010KT CAVOK TX35/1414Z TN22/1505Z"
    },
    {
      "icao": "LEVC",
      "alert": "OK",
      "vis_m": 9999,
      "fzfg": false,
      "metar_trigger": false,
      "taf_trigger": false,
      "metar": "METAR LEVC 141300Z 09011KT 060V120 9999 FEW060 32/23 Q1015 NOSIG",
      "taf": "TAF LEVC 141100Z 1412/1512 09010KT 9999 FEW020 TX33/1414Z TN24/1505Z"
    },
    {
      "icao": "LEXJ",
      "alert": "OK",
      "vis_m": 9999,
      "fzfg": false,
      "metar_trigger": false,
      "taf_trigger": false,
      "metar": "METAR LEXJ 141300Z 05006KT 340V140 9999 SCT027 25/22 Q1015",
      "taf": "TAF LEXJ 140800Z 1409/1509 VRB03KT 9999 FEW020 TX27/1412Z TN21/1503Z"
    },
    {
      "icao": "LEZG",
      "alert": "OK",
      "vis_m": 9999,
      "fzfg": false,
      "metar_trigger": false,
      "taf_trigger": false,
      "metar": "METAR LEZG 141300Z 10007KT 040V150 CAVOK 37/16 Q1014 NOSIG",
      "taf": "TAF LEZG 141100Z 1412/1512 VRB04KT CAVOK TX40/1415Z TN24/1505Z"
    },
    {
      "icao": "LEZL",
      "alert": "OK",
      "vis_m": 9999,
      "fzfg": false,
      "metar_trigger": false,
      "taf_trigger": false,
      "metar": "METAR LEZL 141300Z 23009KT 200V270 CAVOK 30/15 Q1016 NOSIG",
      "taf": "TAF LEZL 140800Z 1409/1509 VRB03KT CAVOK TX34/1415Z TN18/1505Z"
    },
    {
      "icao": "LFBD",
      "alert": "OK",
      "vis_m": 9999,
      "fzfg": false,
      "metar_trigger": false,
      "taf_trigger": false,
      "metar": "METAR LFBD 141300Z AUTO VRB05KT CAVOK 35/18 Q1015 NOSIG",
      "taf": "TAF LFBD 141100Z 1412/1518 06005KT CAVOK TX37/1415Z TN21/1502Z"
    },
    {
      "icao": "LFLL",
      "alert": "OK",
      "vis_m": 9999,
      "fzfg": false,
      "metar_trigger": false,
      "taf_trigger": false,
      "metar": "METAR LFLL 141300Z 20005KT 120V290 CAVOK 36/10 Q1016 NOSIG",
      "taf": "TAF LFLL 141100Z 1412/1518 34005KT CAVOK"
    },
    {
      "icao": "LFLS",
      "alert": "OK",
      "vis_m": 9999,
      "fzfg": false,
      "metar_trigger": false,
      "taf_trigger": false,
      "metar": "METAR LFLS 141300Z AUTO 27006KT 230V310 CAVOK 34/14 Q1017 NOSIG",
      "taf": "TAF LFLS 140800Z 1409/1509 20006KT CAVOK"
    },
    {
      "icao": "LFMN",
      "alert": "OK",
      "vis_m": 9999,
      "fzfg": false,
      "metar_trigger": false,
      "taf_trigger": false,
      "metar": "METAR LFMN 141300Z 15006KT 9999 FEW014 30/24 Q1015 NOSIG",
      "taf": "TAF LFMN 140800Z 1409/1515 10008KT 9999 FEW022"
    },
    {
      "icao": "LFOB",
      "alert": "OK",
      "vis_m": 9999,
      "fzfg": false,
      "metar_trigger": false,
      "taf_trigger": false,
      "metar": "METAR LFOB 141300Z AUTO 03010KT 330V070 CAVOK 32/17 Q1016 NOSIG",
      "taf": "TAF LFOB 141100Z 1412/1512 02008KT CAVOK"
    },
    {
      "icao": "LFPO",
      "alert": "OK",
      "vis_m": 9999,
      "fzfg": false,
      "metar_trigger": false,
      "taf_trigger": false,
      "metar": "METAR LFPO 141300Z 04008G20KT 340V110 CAVOK 33/15 Q1016 NOSIG",
      "taf": "TAF LFPO 141100Z 1412/1518 02007KT CAVOK"
    },
    {
      "icao": "LFSB",
      "alert": "OK",
      "vis_m": 9999,
      "fzfg": false,
      "metar_trigger": false,
      "taf_trigger": false,
      "metar": "METAR LFSB 141300Z AUTO 26007KT 220V330 9999 FEW010 35/14 Q1015 TEMPO FEW080CB",
      "taf": "TAF LFSB 141100Z 1412/1512 32005KT CAVOK"
    },
    {
      "icao": "LGAV",
      "alert": "OK",
      "vis_m": 9999,
      "fzfg": false,
      "metar_trigger": false,
      "taf_trigger": false,
      "metar": "METAR LGAV 141250Z 05014KT 9999 FEW025 30/15 Q1015 NOSIG",
      "taf": "TAF LGAV 141100Z 1412/1512 04012KT 9999 FEW025"
    },
    {
      "icao": "LGTS",
      "alert": "OK",
      "vis_m": 9999,
      "fzfg": false,
      "metar_trigger": false,
      "taf_trigger": false,
      "metar": "METAR LGTS 141250Z 28013KT 9999 FEW025 32/15 Q1014 NOSIG",
      "taf": "TAF LGTS 141100Z 1412/1512 33015KT 9999 FEW030"
    },
    {
      "icao": "LHBP",
      "alert": "OK",
      "vis_m": 9999,
      "fzfg": false,
      "metar_trigger": false,
      "taf_trigger": false,
      "metar": "METAR LHBP 141300Z 18005KT 120V240 CAVOK 31/12 Q1016 NOSIG",
      "taf": "TAF LHBP 141115Z 1412/1512 20007KT CAVOK"
    },
    {
      "icao": "LHDC",
      "alert": "OK",
      "vis_m": 9999,
      "fzfg": false,
      "metar_trigger": false,
      "taf_trigger": false,
      "metar": "METAR LHDC 141245Z AUTO VRB07G18KT CAVOK 31/14 Q1016 NOSIG",
      "taf": "TAF LHDC 141115Z 1412/1421 33005KT CAVOK"
    },
    {
      "icao": "LIBD",
      "alert": "OK",
      "vis_m": 9999,
      "fzfg": false,
      "metar_trigger": false,
      "taf_trigger": false,
      "metar": "METAR LIBD 141250Z 05005KT 340V090 CAVOK 33/14 Q1017",
      "taf": "TAF LIBD 141100Z 1412/1512 02007KT CAVOK"
    },
    {
      "icao": "LIBG",
      "alert": "OK",
      "vis_m": 9999,
      "fzfg": false,
      "metar_trigger": false,
      "taf_trigger": false,
      "metar": "METAR LIBG 141250Z AUTO 02009KT 330V050 9999 NCD 35/11 Q1016",
      "taf": "TAF LIBG 141100Z 1412/1512 03010KT 9999 FEW030"
    },
    {
      "icao": "LIBP",
      "alert": "OK",
      "vis_m": 9999,
      "fzfg": false,
      "metar_trigger": false,
      "taf_trigger": false,
      "metar": "METAR LIBP 141250Z AUTO 10009KT 9999 NCD 36/17 Q1015",
      "taf": "TAF LIBP 141100Z 1412/1512 10013KT 9999 FEW050"
    },
    {
      "icao": "LIBR",
      "alert": "OK",
      "vis_m": 9999,
      "fzfg": false,
      "metar_trigger": false,
      "taf_trigger": false,
      "metar": "METAR LIBR 141250Z 02009KT CAVOK 29/21 Q1017",
      "taf": "TAF LIBR 141100Z 1412/1512 34012KT CAVOK"
    },
    {
      "icao": "LICA",
      "alert": "OK",
      "vis_m": 9999,
      "fzfg": false,
      "metar_trigger": false,
      "taf_trigger": false,
      "metar": "METAR LICA 141250Z AUTO 23013KT 9999 NCD 30/25 Q1019",
      "taf": "TAF LICA 141100Z 1412/1512 27013KT 9999 FEW020"
    },
    {
      "icao": "LICC",
      "alert": "OK",
      "vis_m": 9999,
      "fzfg": false,
      "metar_trigger": false,
      "taf_trigger": false,
      "metar": "METAR LICC 141250Z 08010KT CAVOK 32/22 Q1018",
      "taf": "TAF LICC 141100Z 1412/1512 09012KT CAVOK"
    },
    {
      "icao": "LICJ",
      "alert": "OK",
      "vis_m": 9999,
      "fzfg": false,
      "metar_trigger": false,
      "taf_trigger": false,
      "metar": "METAR LICJ 141250Z AUTO 04016KT 9999 NCD 30/24 Q1019",
      "taf": "TAF LICJ 141100Z 1412/1512 04013KT CAVOK"
    },
    {
      "icao": "LIMC",
      "alert": "OK",
      "vis_m": 9999,
      "fzfg": false,
      "metar_trigger": false,
      "taf_trigger": false,
      "metar": "METAR LIMC 141250Z 25008KT 200V280 CAVOK 33/17 Q1015 NOSIG",
      "taf": "TAF LIMC 141100Z 1412/1518 VRB05KT 9999 FEW060"
    },
    {
      "icao": "LIME",
      "alert": "OK",
      "vis_m": 9999,
      "fzfg": false,
      "metar_trigger": false,
      "taf_trigger": false,
      "metar": "METAR LIME 141250Z VRB05KT 9999 FEW065 33/17 Q1015 NOSIG",
      "taf": "TAF LIME 141100Z 1412/1512 21010KT 9999 FEW060"
    },
    {
      "icao": "LIMF",
      "alert": "OK",
      "vis_m": 9999,
      "fzfg": false,
      "metar_trigger": false,
      "taf_trigger": false,
      "metar": "METAR LIMF 141250Z VRB03KT CAVOK 34/18 Q1016",
      "taf": "TAF LIMF 141100Z 1412/1512 VRB05KT 9999 SCT060"
    },
    {
      "icao": "LIMJ",
      "alert": "OK",
      "vis_m": 9999,
      "fzfg": false,
      "metar_trigger": false,
      "taf_trigger": false,
      "metar": "METAR LIMJ 141250Z 15006KT 9999 SCT014 28/25 Q1016",
      "taf": "TAF LIMJ 141100Z 1412/1512 15010KT 9999 FEW020"
    },
    {
      "icao": "LIPE",
      "alert": "OK",
      "vis_m": 9999,
      "fzfg": false,
      "metar_trigger": false,
      "taf_trigger": false,
      "metar": "METAR LIPE 141250Z VRB04KT CAVOK 35/18 Q1013",
      "taf": "TAF LIPE 141100Z 1412/1512 VRB06KT CAVOK"
    },
    {
      "icao": "LIPH",
      "alert": "OK",
      "vis_m": 9999,
      "fzfg": false,
      "metar_trigger": false,
      "taf_trigger": false,
      "metar": "METAR LIPH 141250Z 14007KT 090V160 CAVOK 32/17 Q1014",
      "taf": "TAF LIPH 141100Z 1412/1512 16010KT 9999 SCT030"
    },
    {
      "icao": "LIPQ",
      "alert": "OK",
      "vis_m": 9999,
      "fzfg": false,
      "metar_trigger": false,
      "taf_trigger": false,
      "metar": "METAR LIPQ 141250Z AUTO 23007KT 200V270 9999 NCD 31/13 Q1014",
      "taf": "TAF LIPQ 141100Z 1412/1512 18010KT 9999 SCT040"
    },
    {
      "icao": "LIPR",
      "alert": "OK",
      "vis_m": 9999,
      "fzfg": false,
      "metar_trigger": false,
      "taf_trigger": false,
      "metar": "METAR LIPR 141250Z 09009KT 060V130 CAVOK 30/22 Q1014",
      "taf": "TAF LIPR 141100Z 1412/1512 10010KT CAVOK"
    },
    {
      "icao": "LIPX",
      "alert": "OK",
      "vis_m": 9999,
      "fzfg": false,
      "metar_trigger": false,
      "taf_trigger": false,
      "metar": "METAR LIPX 141250Z 20006KT 140V240 CAVOK 34/18 Q1014",
      "taf": "TAF LIPX 141100Z 1412/1512 VRB05KT 9999 FEW060"
    },
    {
      "icao": "LIPY",
      "alert": "OK",
      "vis_m": 9999,
      "fzfg": false,
      "metar_trigger": false,
      "taf_trigger": false,
      "metar": "METAR LIPY 141250Z AUTO 12009KT 060V180 9999 NCD 36/17 Q1013",
      "taf": "TAF LIPY 141100Z 1412/1512 12013KT 9999 FEW050"
    },
    {
      "icao": "LIPZ",
      "alert": "OK",
      "vis_m": 9999,
      "fzfg": false,
      "metar_trigger": false,
      "taf_trigger": false,
      "metar": "METAR LIPZ 141250Z 15006KT CAVOK 30/21 Q1015 NOSIG",
      "taf": "TAF LIPZ 141100Z 1412/1518 14011KT CAVOK"
    },
    {
      "icao": "LIRF",
      "alert": "OK",
      "vis_m": 9999,
      "fzfg": false,
      "metar_trigger": false,
      "taf_trigger": false,
      "metar": "METAR LIRF 141250Z 19009KT 150V230 CAVOK 34/19 Q1017 NOSIG",
      "taf": "TAF LIRF 141100Z 1412/1518 19012KT CAVOK"
    },
    {
      "icao": "LIRN",
      "alert": "OK",
      "vis_m": 9999,
      "fzfg": false,
      "metar_trigger": false,
      "taf_trigger": false,
      "metar": "METAR LIRN 141250Z VRB10KT CAVOK 32/23 Q1018 NOSIG",
      "taf": "TAF LIRN 141100Z 1412/1512 24010KT CAVOK"
    },
    {
      "icao": "LIRP",
      "alert": "OK",
      "vis_m": 9999,
      "fzfg": false,
      "metar_trigger": false,
      "taf_trigger": false,
      "metar": "METAR LIRP 141245Z 26009KT CAVOK 33/20 Q1016 NOSIG",
      "taf": "TAF LIRP 141100Z 1412/1512 27010KT CAVOK"
    },
    {
      "icao": "LIRZ",
      "alert": "OK",
      "vis_m": 9999,
      "fzfg": false,
      "metar_trigger": false,
      "taf_trigger": false,
      "metar": "METAR LIRZ 141250Z AUTO 23013KT 200V260 9999 NCD 36/15 Q1016",
      "taf": "TAF LIRZ 141100Z 1412/1512 22012KT CAVOK"
    },
    {
      "icao": "LJLJ",
      "alert": "OK",
      "vis_m": 9999,
      "fzfg": false,
      "metar_trigger": false,
      "taf_trigger": false,
      "metar": "METAR LJLJ 141300Z 24006KT 200V290 9999 FEW055 BKN200 30/16 Q1016 NOSIG",
      "taf": "TAF LJLJ 141100Z 1412/1512 VRB02KT 9999 SCT055"
    },
    {
      "icao": "LKMT",
      "alert": "OK",
      "vis_m": 9999,
      "fzfg": false,
      "metar_trigger": false,
      "taf_trigger": false,
      "metar": "METAR LKMT 141300Z 04005KT 310V090 CAVOK 29/16 Q1017 NOSIG",
      "taf": "TAF LKMT 141100Z 1412/1512 02008KT 9999 SCT040"
    },
    {
      "icao": "LKPR",
      "alert": "OK",
      "vis_m": 9999,
      "fzfg": false,
      "metar_trigger": false,
      "taf_trigger": false,
      "metar": "METAR LKPR 141300Z 36013KT CAVOK 28/14 Q1018 NOSIG",
      "taf": "TAF LKPR 141100Z 1412/1518 01006KT CAVOK"
    },
    {
      "icao": "LLBG",
      "alert": "OK",
      "vis_m": 9999,
      "fzfg": false,
      "metar_trigger": false,
      "taf_trigger": false,
      "metar": "METAR LLBG 141250Z 28010KT CAVOK 31/20 Q1007 NOSIG",
      "taf": "TAF LLBG 141101Z 1412/1512 28010KT CAVOK TX31/1412Z TN23/1503Z"
    },
    {
      "icao": "LMML",
      "alert": "OK",
      "vis_m": 9999,
      "fzfg": false,
      "metar_trigger": false,
      "taf_trigger": false,
      "metar": "METAR LMML 141245Z 33008KT 260V010 CAVOK 35/18 Q1019 NOSIG",
      "taf": "TAF LMML 141100Z 1412/1512 29008KT 9999 FEW015"
    },
    {
      "icao": "LOWW",
      "alert": "OK",
      "vis_m": 9999,
      "fzfg": false,
      "metar_trigger": false,
      "taf_trigger": false,
      "metar": "METAR LOWW 141250Z VRB04KT CAVOK 31/12 Q1015 NOSIG",
      "taf": "TAF LOWW 141115Z 1412/1518 11010KT CAVOK TX31/1413Z TN19/1504Z"
    },
    {
      "icao": "LPFR",
      "alert": "OK",
      "vis_m": 9999,
      "fzfg": false,
      "metar_trigger": false,
      "taf_trigger": false,
      "metar": "METAR LPFR 141300Z 24013KT 9999 FEW035 25/19 Q1017",
      "taf": "TAF LPFR 141100Z 1412/1512 24013KT CAVOK"
    },
    {
      "icao": "LPMA",
      "alert": "OK",
      "vis_m": 9999,
      "fzfg": false,
      "metar_trigger": false,
      "taf_trigger": false,
      "metar": "METAR LPMA 141300Z 20008KT 9999 SCT015 BKN033 23/20 Q1018",
      "taf": "TAF LPMA 141100Z 1412/1512 19010KT 9999 SCT015"
    },
    {
      "icao": "LPPR",
      "alert": "OK",
      "vis_m": 9999,
      "fzfg": false,
      "metar_trigger": false,
      "taf_trigger": false,
      "metar": "METAR LPPR 141300Z 27006KT 230V320 9999 FEW014 23/17 Q1017",
      "taf": "TAF LPPR 141100Z 1412/1512 29010KT 9999 SCT020"
    },
    {
      "icao": "LPPS",
      "alert": "OK",
      "vis_m": 9999,
      "fzfg": false,
      "metar_trigger": false,
      "taf_trigger": false,
      "metar": "METAR LPPS 141300Z 17008KT 120V200 9999 FEW015 25/18 Q1018",
      "taf": "TAF LPPS 141100Z 1412/1518 18010KT 9999 SCT015"
    },
    {
      "icao": "LPPT",
      "alert": "OK",
      "vis_m": 9999,
      "fzfg": false,
      "metar_trigger": false,
      "taf_trigger": false,
      "metar": "METAR LPPT 141300Z 31005KT 280V360 9999 SCT038 26/16 Q1017 NOSIG",
      "taf": "TAF LPPT 141100Z 1412/1518 VRB05KT 9999 FEW030"
    },
    {
      "icao": "LQBK",
      "alert": "OK",
      "vis_m": 9999,
      "fzfg": false,
      "metar_trigger": false,
      "taf_trigger": false,
      "metar": "METAR LQBK 141300Z 08005KT 040V140 9999 FEW045 33/14 Q1015 NOSIG",
      "taf": "TAF LQBK 141100Z 1412/1512 14005KT CAVOK TX34/1414Z TN18/1503Z"
    },
    {
      "icao": "LQSA",
      "alert": "OK",
      "vis_m": 9999,
      "fzfg": false,
      "metar_trigger": false,
      "taf_trigger": false,
      "metar": "METAR LQSA 141300Z VRB04KT CAVOK 30/12 Q1019 NOSIG",
      "taf": "TAF LQSA 141100Z 1412/1512 VRB02KT CAVOK TX32/1512Z TN15/1504Z"
    },
    {
      "icao": "LQTZ",
      "alert": "OK",
      "vis_m": 9999,
      "fzfg": false,
      "metar_trigger": false,
      "taf_trigger": false,
      "metar": "METAR LQTZ 141300Z VRB04KT CAVOK 32/14 Q1017",
      "taf": "TAF LQTZ 141100Z 1412/1512 VRB02KT CAVOK TX32/1414Z TN16/1503Z"
    },
    {
      "icao": "LRBC",
      "alert": "OK",
      "vis_m": 8000,
      "fzfg": false,
      "metar_trigger": false,
      "taf_trigger": false,
      "metar": "METAR LRBC 141300Z 32016KT 8000 TSRA BKN036CB BKN065 21/17 Q1015",
      "taf": "TAF LRBC 141100Z 1412/1421 34012KT 9999 BKN035"
    },
    {
      "icao": "LRBS",
      "alert": "OK",
      "vis_m": 9999,
      "fzfg": false,
      "metar_trigger": false,
      "taf_trigger": false,
      "metar": "METAR LRBS 141300Z VRB05KT CAVOK 29/15 Q1015 NOSIG",
      "taf": "TAF LRBS 141100Z 1412/1512 VRB04KT CAVOK"
    },
    {
      "icao": "LRBV",
      "alert": "OK",
      "vis_m": 9999,
      "fzfg": false,
      "metar_trigger": false,
      "taf_trigger": false,
      "metar": "METAR LRBV 141300Z 28009KT 240V310 9999 SCT040 SCT045CB 25/15 Q1017",
      "taf": "TAF LRBV 141100Z 1412/1421 29010KT 9999 BKN045"
    },
    {
      "icao": "LRCL",
      "alert": "OK",
      "vis_m": 9999,
      "fzfg": false,
      "metar_trigger": false,
      "taf_trigger": false,
      "metar": "METAR LRCL 141300Z 34008KT 300V020 9999 FEW051 29/14 Q1016",
      "taf": "TAF LRCL 141100Z 1412/1421 32008KT 9999 SCT040"
    },
    {
      "icao": "LRCV",
      "alert": "OK",
      "vis_m": 9999,
      "fzfg": false,
      "metar_trigger": false,
      "taf_trigger": false,
      "metar": "METAR LRCV 141300Z 27004KT CAVOK 31/14 Q1015",
      "taf": "TAF LRCV 141100Z 1412/1421 29007KT CAVOK"
    },
    {
      "icao": "LRIA",
      "alert": "OK",
      "vis_m": 9999,
      "fzfg": false,
      "metar_trigger": false,
      "taf_trigger": false,
      "metar": "METAR LRIA 141300Z 31006KT 280V360 9999 FEW035 28/17 Q1014",
      "taf": "TAF LRIA 141100Z 1412/1421 33012KT 9999 SCT035"
    },
    {
      "icao": "LROP",
      "alert": "OK",
      "vis_m": 9999,
      "fzfg": false,
      "metar_trigger": false,
      "taf_trigger": false,
      "metar": "METAR LROP 141300Z 30007KT 260V320 CAVOK 28/15 Q1015 NOSIG",
      "taf": "TAF LROP 141100Z 1412/1512 VRB04KT CAVOK"
    },
    {
      "icao": "LRSB",
      "alert": "OK",
      "vis_m": 9999,
      "fzfg": false,
      "metar_trigger": false,
      "taf_trigger": false,
      "metar": "METAR LRSB 141300Z VRB04KT 9999 FEW040TCU 27/15 Q1017",
      "taf": "TAF LRSB 141100Z 1412/1512 VRB04KT 9999 SCT050"
    },
    {
      "icao": "LRSM",
      "alert": "OK",
      "vis_m": 9999,
      "fzfg": false,
      "metar_trigger": false,
      "taf_trigger": false,
      "metar": "METAR LRSM 141300Z 35007KT 310V010 9999 FEW045CB 29/16 Q1016",
      "taf": "TAF LRSM 141100Z 1412/1421 34006KT 9999 SCT045"
    },
    {
      "icao": "LRSV",
      "alert": "OK",
      "vis_m": 9999,
      "fzfg": false,
      "metar_trigger": false,
      "taf_trigger": false,
      "metar": "METAR LRSV 141300Z AUTO 33019KT 9999 FEW030CB 22/14 Q1016",
      "taf": "TAF LRSV 141100Z 1412/1421 32014KT 9999 SCT040"
    },
    {
      "icao": "LRTM",
      "alert": "OK",
      "vis_m": 9999,
      "fzfg": false,
      "metar_trigger": false,
      "taf_trigger": false,
      "metar": "METAR LRTM 141300Z 28009KT 250V320 9999 FEW046 FEW047TCU 29/19 Q1016",
      "taf": "TAF LRTM 141100Z 1412/1421 30008KT 9999 SCT040"
    },
    {
      "icao": "LRTR",
      "alert": "OK",
      "vis_m": 9999,
      "fzfg": false,
      "metar_trigger": false,
      "taf_trigger": false,
      "metar": "METAR LRTR 141300Z VRB05KT CAVOK 31/14 Q1016",
      "taf": "TAF LRTR 141100Z 1412/1512 31006KT 9999 SCT045"
    },
    {
      "icao": "LTAC",
      "alert": "OK",
      "vis_m": 9999,
      "fzfg": false,
      "metar_trigger": false,
      "taf_trigger": false,
      "metar": "METAR LTAC 141250Z 30009KT 9999 SCT040 SCT100 27/08 Q1013 NOSIG RMK RWY21C 29011KT 240V310 RWY03L 27009KT 220V310 RWY21R 27010KT 230V310 RWY03R 29009KT 250V330 RWY21L 27009KT 210V300",
      "taf": "TAF LTAC 141040Z 1412/1512 VRB02KT 9999 SCT040 SCT100"
    },
    {
      "icao": "LTFM",
      "alert": "OK",
      "vis_m": 9999,
      "fzfg": false,
      "metar_trigger": false,
      "taf_trigger": false,
      "metar": "METAR LTFM 141250Z 36014KT 9999 SCT025 25/16 Q1016 NOSIG RMK RWY17L 35013KT RWY34L 35015KT RWY16R 35013KT 310V010 RWY36 01014KT 310V020 RWY18 35013KT 320V020",
      "taf": "TAF LTFM 141040Z 1412/1518 35015KT 9999 SCT025"
    },
    {
      "icao": "LUKK",
      "alert": "OK",
      "vis_m": 9999,
      "fzfg": false,
      "metar_trigger": false,
      "taf_trigger": false,
      "metar": "METAR LUKK 141300Z 33008KT 300V030 9999 FEW044 29/18 Q1012 TEMPO SCT035CB",
      "taf": "TAF LUKK 141054Z 1412/1512 33009KT 9999 SCT040"
    },
    {
      "icao": "LWOH",
      "alert": "OK",
      "vis_m": 9999,
      "fzfg": false,
      "metar_trigger": false,
      "taf_trigger": false,
      "metar": "METAR LWOH 141250Z 17007KT 130V200 9999 FEW040 26/17 Q1019",
      "taf": "TAF LWOH 141125Z 1412/1512 16008KT 9999 FEW040"
    },
    {
      "icao": "LWSK",
      "alert": "OK",
      "vis_m": 9999,
      "fzfg": false,
      "metar_trigger": false,
      "taf_trigger": false,
      "metar": "METAR LWSK 141250Z VRB05KT 9999 FEW060 31/15 Q1017 NOSIG",
      "taf": "TAF LWSK 141125Z 1412/1512 26006KT 9999 SCT050"
    },
    {
      "icao": "LYBE",
      "alert": "OK",
      "vis_m": 9999,
      "fzfg": false,
      "metar_trigger": false,
      "taf_trigger": false,
      "metar": "METAR LYBE 141300Z 06007KT 340V140 CAVOK 30/15 Q1017 NOSIG",
      "taf": "TAF LYBE 141100Z 1412/1512 03006KT CAVOK TX31/1414Z TN21/1503Z"
    },
    {
      "icao": "LYNI",
      "alert": "OK",
      "vis_m": 9999,
      "fzfg": false,
      "metar_trigger": false,
      "taf_trigger": false,
      "metar": "METAR LYNI 141300Z 32009KT 250V360 9999 FEW040 31/13 Q1017 NOSIG",
      "taf": "TAF LYNI 141100Z 1412/1512 33012KT CAVOK TX32/1512Z TN15/1503Z"
    },
    {
      "icao": "LYPG",
      "alert": "OK",
      "vis_m": 9999,
      "fzfg": false,
      "metar_trigger": false,
      "taf_trigger": false,
      "metar": "METAR LYPG 141300Z 19007KT 150V250 9999 FEW050 34/13 Q1015 NOSIG",
      "taf": "TAF LYPG 141100Z 1412/1512 18010KT 9999 FEW050 TX35/1413Z TN23/1503Z"
    },
    {
      "icao": "LZIB",
      "alert": "OK",
      "vis_m": 9999,
      "fzfg": false,
      "metar_trigger": false,
      "taf_trigger": false,
      "metar": "METAR LZIB 141300Z 07006KT 020V160 CAVOK 32/13 Q1015 NOSIG",
      "taf": ""
    },
    {
      "icao": "LZKZ",
      "alert": "OK",
      "vis_m": 9999,
      "fzfg": false,
      "metar_trigger": false,
      "taf_trigger": false,
      "metar": "METAR LZKZ 141300Z 33007KT 300V020 9999 FEW040 SCT048 28/15 Q1017 NOSIG",
      "taf": "TAF LZKZ 141115Z 1412/1512 01008KT CAVOK"
    },
    {
      "icao": "LZTT",
      "alert": "OK",
      "vis_m": 9999,
      "fzfg": false,
      "metar_trigger": false,
      "taf_trigger": false,
      "metar": "METAR LZTT 141300Z 08004KT 020V160 9999 FEW036CB SCT050 25/14 Q1019 NOSIG",
      "taf": "TAF LZTT 141115Z 1412/1512 VRB02KT 9999 FEW060"
    },
    {
      "icao": "OEJN",
      "alert": "OK",
      "vis_m": 9999,
      "fzfg": false,
      "metar_trigger": false,
      "taf_trigger": false,
      "metar": "METAR OEJN 141300Z 28009KT CAVOK 35/21 Q1003 NOSIG",
      "taf": "TAF OEJN 141100Z 1412/1518 30012KT 9999 FEW040"
    },
    {
      "icao": "OEMA",
      "alert": "OK",
      "vis_m": 9999,
      "fzfg": false,
      "metar_trigger": false,
      "taf_trigger": false,
      "metar": "METAR OEMA 141300Z 11006KT CAVOK 45/M06 Q1006 NOSIG",
      "taf": "TAF OEMA 141100Z 1412/1518 30010KT CAVOK"
    },
    {
      "icao": "OJAI",
      "alert": "OK",
      "vis_m": 5000,
      "fzfg": false,
      "metar_trigger": false,
      "taf_trigger": false,
      "metar": "METAR OJAI 141200Z 27012KT 5000 HZ NSC 34/03 Q1011 NOSIG",
      "taf": "TAF OJAI 140943Z 1412/1518 30008KT 5000 HZ NSC"
    },
    {
      "icao": "OMAA",
      "alert": "OK",
      "vis_m": 9999,
      "fzfg": false,
      "metar_trigger": false,
      "taf_trigger": false,
      "metar": "METAR OMAA 141300Z 33008KT CAVOK 40/21 Q0995 NOSIG",
      "taf": "TAF OMAA 141100Z 1412/1518 30010KT 8000 NSC"
    },
    {
      "icao": "OMDB",
      "alert": "OK",
      "vis_m": 8000,
      "fzfg": false,
      "metar_trigger": false,
      "taf_trigger": false,
      "metar": "METAR OMDB 141300Z 33007KT 310V010 8000 NSC 39/25 Q0995 NOSIG",
      "taf": "TAF OMDB 141100Z 1412/1518 34010KT 8000 NSC"
    },
    {
      "icao": "UAAA",
      "alert": "OK",
      "vis_m": 9999,
      "fzfg": false,
      "metar_trigger": false,
      "taf_trigger": false,
      "metar": "METAR UAAA 141300Z 10003MPS 9999 FEW050CB SCT100 BKN200 32/11 Q1009 NOSIG",
      "taf": "TAF UAAA 141102Z 1412/1512 15003MPS 9999 FEW050CB SCT100 TX35/1510Z TN20/1501Z"
    },
    {
      "icao": "UBBB",
      "alert": "OK",
      "vis_m": 9999,
      "fzfg": false,
      "metar_trigger": false,
      "taf_trigger": false,
      "metar": "METAR UBBB 141300Z 05008KT CAVOK 30/19 Q1005 NOSIG",
      "taf": "TAF UBBB 141048Z 1412/1512 02008KT CAVOK TX32/1412Z TN24/1501Z"
    },
    {
      "icao": "UDSG",
      "alert": "OK",
      "vis_m": 9999,
      "fzfg": false,
      "metar_trigger": false,
      "taf_trigger": false,
      "metar": "METAR UDSG 141300Z 07015KT 9999 FEW049 28/17 Q1013 NOSIG",
      "taf": "TAF UDSG 141058Z 1412/1512 36008KT 9999 FEW050"
    },
    {
      "icao": "UDYZ",
      "alert": "OK",
      "vis_m": 9999,
      "fzfg": false,
      "metar_trigger": false,
      "taf_trigger": false,
      "metar": "METAR UDYZ 141300Z VRB04KT 9999 FEW046 37/14 Q1005 NOSIG",
      "taf": "TAF UDYZ 141100Z 1412/1512 22006KT 9999 FEW040"
    },
    {
      "icao": "UGKO",
      "alert": "OK",
      "vis_m": 9999,
      "fzfg": false,
      "metar_trigger": false,
      "taf_trigger": false,
      "metar": "METAR UGKO 141300Z 26008KT 240V300 9999 SCT021 OVC040 23/20 Q1009 NOSIG",
      "taf": "TAF UGKO 141100Z 1412/1512 25007KT 9999 SCT015 OVC030 TX26/1511Z TN20/1502Z"
    }
  ]
}