{
  "ts_utc": "2026-02-08T16:28:22Z",
  "threshold_m": 150,
  "source": "stations_override.txt (ICAO list) + aviationweather.gov (METAR/TAF raw)",
  "station_count": 159,
  "stations": [
    {
      "icao": "BIKF",
      "alert": "OK",
      "vis_m": 9999,
      "fzfg": false,
      "metar_trigger": false,
      "taf_trigger": false,
      "metar": "METAR BIKF 081601Z 07008KT CAVOK 02/M04 Q1009",
      "taf": "TAF BIKF 081314Z 0815/0915 05008KT 9999 FEW034 TX03/0913Z TNM01/0909Z"
    },
    {
      "icao": "BKPR",
      "alert": "OK",
      "vis_m": null,
      "fzfg": false,
      "metar_trigger": false,
      "taf_trigger": false,
      "metar": "",
      "taf": "TAF BKPR 081130Z 0812/0912 35007KT 9999 BKN040"
    },
    {
      "icao": "EBCI",
      "alert": "OK",
      "vis_m": 9999,
      "fzfg": false,
      "metar_trigger": false,
      "taf_trigger": false,
      "metar": "METAR EBCI 081620Z 09005KT 9999 FEW030 11/04 Q1006 NOSIG",
      "taf": "TAF EBCI 081112Z 0812/0918 14004KT 9999 SCT025"
    },
    {
      "icao": "EDDB",
      "alert": "OK",
      "vis_m": 7000,
      "fzfg": false,
      "metar_trigger": false,
      "taf_trigger": false,
      "metar": "METAR EDDB 081620Z AUTO 05005KT 7000 BKN008 00/M01 Q1013 NOSIG",
      "taf": ""
    },
    {
      "icao": "EDDH",
      "alert": "OK",
      "vis_m": 9999,
      "fzfg": false,
      "metar_trigger": false,
      "taf_trigger": false,
      "metar": "METAR EDDH 081620Z AUTO 08007KT 060V120 9999 OVC012 01/M01 Q1013 TEMPO BKN009",
      "taf": "TAF EDDH 081100Z 0812/0918 10008KT 9999 BKN008"
    },
    {
      "icao": "EDDK",
      "alert": "OK",
      "vis_m": 9999,
      "fzfg": false,
      "metar_trigger": false,
      "taf_trigger": false,
      "metar": "METAR EDDK 081620Z AUTO 13005KT 9999 FEW012 05/03 Q1009 NOSIG",
      "taf": "TAF EDDK 081100Z 0812/0918 12008KT 9999 OVC010"
    },
    {
      "icao": "EDDN",
      "alert": "OK",
      "vis_m": 9999,
      "fzfg": false,
      "metar_trigger": false,
      "taf_trigger": false,
      "metar": "METAR EDDN 081620Z AUTO 01005KT 9999 BKN032 05/04 Q1008 NOSIG",
      "taf": ""
    },
    {
      "icao": "EDDS",
      "alert": "OK",
      "vis_m": 9999,
      "fzfg": false,
      "metar_trigger": false,
      "taf_trigger": false,
      "metar": "METAR EDDS 081620Z AUTO 15003KT CAVOK 05/02 Q1006 NOSIG",
      "taf": "TAF EDDS 081100Z 0812/0912 07004KT 9000 SCT012"
    },
    {
      "icao": "EDFH",
      "alert": "OK",
      "vis_m": 9999,
      "fzfg": false,
      "metar_trigger": false,
      "taf_trigger": false,
      "metar": "METAR EDFH 081620Z 11007KT 080V140 9999 OVC002 03/03 Q1007",
      "taf": ""
    },
    {
      "icao": "EDJA",
      "alert": "OK",
      "vis_m": 9999,
      "fzfg": false,
      "metar_trigger": false,
      "taf_trigger": false,
      "metar": "METAR EDJA 081620Z 04008KT 9999 BKN013 OVC018 05/03 Q1006",
      "taf": ""
    },
    {
      "icao": "EDLW",
      "alert": "OK",
      "vis_m": 9999,
      "fzfg": false,
      "metar_trigger": false,
      "taf_trigger": false,
      "metar": "METAR EDLW 081620Z 03006KT CAVOK 07/04 Q1008",
      "taf": "TAF EDLW 081100Z 0812/0912 09005KT CAVOK"
    },
    {
      "icao": "EDNY",
      "alert": "OK",
      "vis_m": 9999,
      "fzfg": false,
      "metar_trigger": false,
      "taf_trigger": false,
      "metar": "METAR EDNY 081620Z 01004KT 310V070 CAVOK 06/03 Q1005",
      "taf": "TAF EDNY 081400Z 0815/0824 05003KT 9999 FEW012"
    },
    {
      "icao": "EDSB",
      "alert": "OK",
      "vis_m": 9999,
      "fzfg": false,
      "metar_trigger": false,
      "taf_trigger": false,
      "metar": "METAR EDSB 081620Z 01006KT CAVOK 05/04 Q1007",
      "taf": ""
    },
    {
      "icao": "EETN",
      "alert": "OK",
      "vis_m": 9999,
      "fzfg": false,
      "metar_trigger": false,
      "taf_trigger": false,
      "metar": "METAR EETN 081620Z 19003KT 130V230 9999 OVC004 M09/M10 Q1024 TEMPO OVC003",
      "taf": "TAF EETN 081130Z 0812/0912 34004KT 9999 BKN006 OVC012"
    },
    {
      "icao": "EFTU",
      "alert": "OK",
      "vis_m": 9999,
      "fzfg": false,
      "metar_trigger": false,
      "taf_trigger": false,
      "metar": "METAR EFTU 081620Z AUTO VRB01KT 9999 OVC005 M11/M12 Q1024",
      "taf": "TAF EFTU 081426Z 0815/0915 27006KT 9999 BKN007"
    },
    {
      "icao": "EGBB",
      "alert": "OK",
      "vis_m": 9999,
      "fzfg": false,
      "metar_trigger": false,
      "taf_trigger": false,
      "metar": "METAR EGBB 081620Z 15008KT 9999 6000E -RA BKN045 08/07 Q1002",
      "taf": "TAF EGBB 081103Z 0812/0912 17008KT 9999 SCT025"
    },
    {
      "icao": "EGGP",
      "alert": "OK",
      "vis_m": 9999,
      "fzfg": false,
      "metar_trigger": false,
      "taf_trigger": false,
      "metar": "METAR EGGP 081620Z 14009KT 9999 VCSH FEW024 BKN040 09/06 Q1001",
      "taf": "TAF EGGP 081104Z 0812/0912 16008KT 9999 FEW012 SCT030"
    },
    {
      "icao": "EGGW",
      "alert": "OK",
      "vis_m": 9999,
      "fzfg": false,
      "metar_trigger": false,
      "taf_trigger": false,
      "metar": "METAR EGGW 081620Z AUTO 17007KT 140V200 9999 FEW013 BKN021 09/07 Q1003",
      "taf": "TAF EGGW 081102Z 0812/0912 18008KT 9999 SCT004"
    },
    {
      "icao": "EGKK",
      "alert": "OK",
      "vis_m": 9999,
      "fzfg": false,
      "metar_trigger": false,
      "taf_trigger": false,
      "metar": "METAR EGKK 081620Z 14006KT 100V180 9999 FEW012 BKN014 09/08 Q1004",
      "taf": ""
    },
    {
      "icao": "EGNM",
      "alert": "OK",
      "vis_m": 9999,
      "fzfg": false,
      "metar_trigger": false,
      "taf_trigger": false,
      "metar": "METAR EGNM 081620Z 14007KT 9999 VCSH SCT008 SCT015 08/07 Q1002",
      "taf": "TAF EGNM 081105Z 0812/0912 16008KT 9999 FEW012 SCT020"
    },
    {
      "icao": "EGPD",
      "alert": "OK",
      "vis_m": 9999,
      "fzfg": false,
      "metar_trigger": false,
      "taf_trigger": false,
      "metar": "METAR EGPD 081620Z AUTO 16015KT 9999 BKN006 OVC037 08/06 Q1001 TEMPO RA",
      "taf": ""
    },
    {
      "icao": "EGPF",
      "alert": "OK",
      "vis_m": 9999,
      "fzfg": false,
      "metar_trigger": false,
      "taf_trigger": false,
      "metar": "METAR EGPF 081620Z AUTO 14005KT 110V170 9999 BKN033 OVC049 08/06 Q1000",
      "taf": "TAF EGPF 081100Z 0812/0912 VRB03KT 9999 BKN030"
    },
    {
      "icao": "EHBK",
      "alert": "OK",
      "vis_m": 9999,
      "fzfg": false,
      "metar_trigger": false,
      "taf_trigger": false,
      "metar": "METAR EHBK 081555Z AUTO 07009KT 9999 NSC 08/05 Q1007 NOSIG",
      "taf": "TAF EHBK 081120Z 0812/0918 07007KT CAVOK"
    },
    {
      "icao": "EHEH",
      "alert": "OK",
      "vis_m": 3000,
      "fzfg": false,
      "metar_trigger": false,
      "taf_trigger": false,
      "metar": "METAR EHEH 081555Z AUTO 10004KT 040V150 3000 R21/P3000U BR OVC005 06/05 Q1008 YLO NOSIG RMK TREND REMOTE BY EHWX",
      "taf": "TAF EHEH 081148Z 0812/0918 13007KT 2000 BR BKN002"
    },
    {
      "icao": "EKBI",
      "alert": "OK",
      "vis_m": 9999,
      "fzfg": false,
      "metar_trigger": false,
      "taf_trigger": false,
      "metar": "METAR EKBI 081620Z AUTO 08013KT 9999 OVC010/// M01/M02 Q1015",
      "taf": "TAF EKBI 081427Z 0815/0915 09013KT 9999 BKN008"
    },
    {
      "icao": "EKCH",
      "alert": "OK",
      "vis_m": 9999,
      "fzfg": false,
      "metar_trigger": false,
      "taf_trigger": false,
      "metar": "METAR EKCH 081620Z AUTO 08015KT 9999 OVC018/// 00/M03 Q1018 TEMPO BKN012",
      "taf": "TAF EKCH 081427Z 0815/0915 09014KT 9999 BKN015"
    },
    {
      "icao": "ENAL",
      "alert": "OK",
      "vis_m": 9999,
      "fzfg": false,
      "metar_trigger": false,
      "taf_trigger": false,
      "metar": "METAR ENAL 081620Z 13010KT CAVOK 03/M07 Q1015",
      "taf": "TAF ENAL 081400Z 0815/0824 15005KT CAVOK"
    },
    {
      "icao": "ENBR",
      "alert": "OK",
      "vis_m": 9999,
      "fzfg": false,
      "metar_trigger": false,
      "taf_trigger": false,
      "metar": "METAR ENBR 081620Z 00000KT CAVOK 02/M06 Q1015 NOSIG RMK WIND 1200FT 17003KT",
      "taf": "TAF ENBR 081100Z 0812/0912 VRB03KT CAVOK"
    },
    {
      "icao": "ENGM",
      "alert": "OK",
      "vis_m": 9999,
      "fzfg": false,
      "metar_trigger": false,
      "taf_trigger": false,
      "metar": "METAR ENGM 081620Z 36003KT 9999 -SN BKN009 M10/M12 Q1023 TEMPO BKN010",
      "taf": "TAF ENGM 081100Z 0812/0912 01005KT 9999 -SN BKN012"
    },
    {
      "icao": "ENHD",
      "alert": "OK",
      "vis_m": 9999,
      "fzfg": false,
      "metar_trigger": false,
      "taf_trigger": false,
      "metar": "METAR ENHD 081620Z 15007KT CAVOK 01/M10 Q1015",
      "taf": "TAF ENHD 081400Z 0815/0823 12012KT CAVOK"
    },
    {
      "icao": "ENTC",
      "alert": "OK",
      "vis_m": 9999,
      "fzfg": false,
      "metar_trigger": false,
      "taf_trigger": false,
      "metar": "METAR ENTC 081620Z 20016KT 9999 SCT034 BKN060 M02/M06 Q1013 NOSIG RMK WIND 2600FT 24012KT",
      "taf": ""
    },
    {
      "icao": "ENTO",
      "alert": "OK",
      "vis_m": 9999,
      "fzfg": false,
      "metar_trigger": false,
      "taf_trigger": false,
      "metar": "METAR ENTO 081620Z 36011KT 9999 FEW013 SCT016 OVC020 M08/M10 Q1023 NOSIG",
      "taf": "TAF ENTO 081100Z 0812/0912 01010KT 9999 -SN BKN012"
    },
    {
      "icao": "ENVA",
      "alert": "OK",
      "vis_m": 9999,
      "fzfg": false,
      "metar_trigger": false,
      "taf_trigger": false,
      "metar": "METAR ENVA 081620Z 09003KT CAVOK M07/M14 Q1017 RMK WIND 670FT 15008KT",
      "taf": "TAF ENVA 081100Z 0812/0912 10008KT CAVOK"
    },
    {
      "icao": "ENZV",
      "alert": "OK",
      "vis_m": 9999,
      "fzfg": false,
      "metar_trigger": false,
      "taf_trigger": false,
      "metar": "METAR ENZV 081620Z 14010KT CAVOK 00/M13 Q1016 NOSIG",
      "taf": "TAF ENZV 081100Z 0812/0912 09008KT CAVOK"
    },
    {
      "icao": "EPGD",
      "alert": "OK",
      "vis_m": 9999,
      "fzfg": false,
      "metar_trigger": false,
      "taf_trigger": false,
      "metar": "METAR EPGD 081600Z 08012KT 9999 OVC004 M04/M04 Q1016",
      "taf": ""
    },
    {
      "icao": "EPKK",
      "alert": "OK",
      "vis_m": 9000,
      "fzfg": false,
      "metar_trigger": false,
      "taf_trigger": false,
      "metar": "METAR EPKK 081600Z 07008KT 9000 SCT005 BKN006 BKN010 01/M01 Q1010",
      "taf": "TAF EPKK 081430Z 0815/0915 06010KT 9999 SCT008 BKN010"
    },
    {
      "icao": "EPKT",
      "alert": "OK",
      "vis_m": 7000,
      "fzfg": false,
      "metar_trigger": false,
      "taf_trigger": false,
      "metar": "METAR EPKT 081600Z 04004KT 7000 -SN FEW005 OVC021 00/M00 Q1010",
      "taf": ""
    },
    {
      "icao": "EPLB",
      "alert": "OK",
      "vis_m": 3000,
      "fzfg": false,
      "metar_trigger": false,
      "taf_trigger": false,
      "metar": "METAR EPLB 081600Z 07007KT 3000 -SN BR FEW012 BKN025 M04/M04 Q1013",
      "taf": ""
    },
    {
      "icao": "EPMO",
      "alert": "OK",
      "vis_m": 9000,
      "fzfg": false,
      "metar_trigger": false,
      "taf_trigger": false,
      "metar": "METAR EPMO 081600Z 06013KT 9000 -SN BKN017 M02/M03 Q1014",
      "taf": "TAF EPMO 081130Z 0812/0912 07010KT 6000 -SN BKN012 BKN029"
    },
    {
      "icao": "EPPO",
      "alert": "OK",
      "vis_m": 2400,
      "fzfg": false,
      "metar_trigger": false,
      "taf_trigger": false,
      "metar": "METAR EPPO 081600Z 08008KT 2400 -SN BR OVC008 M01/M02 Q1013",
      "taf": "TAF EPPO 081130Z 0812/0912 06008KT 5000 BR BKN010"
    },
    {
      "icao": "EPRA",
      "alert": "OK",
      "vis_m": 8000,
      "fzfg": false,
      "metar_trigger": false,
      "taf_trigger": false,
      "metar": "METAR EPRA 081600Z 09009KT 8000 -SN BKN014 OVC039 M03/M05 Q1013",
      "taf": "TAF EPRA 081430Z 0815/0824 09008KT 8000 BKN018"
    },
    {
      "icao": "EPRZ",
      "alert": "OK",
      "vis_m": 8000,
      "fzfg": false,
      "metar_trigger": false,
      "taf_trigger": false,
      "metar": "METAR EPRZ 081600Z 06008KT 8000 -SN SCT008 OVC015 M01/M03 Q1011",
      "taf": ""
    },
    {
      "icao": "EPSC",
      "alert": "OK",
      "vis_m": 9999,
      "fzfg": false,
      "metar_trigger": false,
      "taf_trigger": false,
      "metar": "METAR EPSC 081600Z 07008KT 040V100 9999 FEW016 OVC019 00/M03 Q1014",
      "taf": "TAF EPSC 081130Z 0812/0912 07008KT 9999 SCT013 BKN020"
    },
    {
      "icao": "EPSY",
      "alert": "OK",
      "vis_m": 9999,
      "fzfg": false,
      "metar_trigger": false,
      "taf_trigger": false,
      "metar": "METAR EPSY 081600Z 05008KT 020V080 9999 OVC009 M03/M04 Q1016",
      "taf": "TAF EPSY 081430Z 0815/0824 07006KT 9999 OVC010"
    },
    {
      "icao": "EPWA",
      "alert": "OK",
      "vis_m": 5000,
      "fzfg": false,
      "metar_trigger": false,
      "taf_trigger": false,
      "metar": "METAR EPWA 081600Z 07009KT 5000 -SN BR BKN011 M02/M03 Q1014 NOSIG",
      "taf": "TAF EPWA 081430Z 0815/0915 06008KT 8000 -SN BKN012 BKN030"
    },
    {
      "icao": "EPWR",
      "alert": "OK",
      "vis_m": 2500,
      "fzfg": false,
      "metar_trigger": false,
      "taf_trigger": false,
      "metar": "METAR EPWR 081600Z 35004KT 2500 -SN BR SCT003 BKN005 00/00 Q1011",
      "taf": "TAF EPWR 081430Z 0815/0915 01006KT 4000 BR BKN008"
    },
    {
      "icao": "ESGG",
      "alert": "OK",
      "vis_m": 9999,
      "fzfg": false,
      "metar_trigger": false,
      "taf_trigger": false,
      "metar": "METAR ESGG 081620Z 09007KT CAVOK M03/M08 Q1019",
      "taf": "TAF ESGG 081430Z 0815/0915 08010KT CAVOK"
    },
    {
      "icao": "ESKN",
      "alert": "OK",
      "vis_m": 9999,
      "fzfg": false,
      "metar_trigger": false,
      "taf_trigger": false,
      "metar": "METAR ESKN 081620Z 01004KT 9999 SCT021 M06/M07 Q1023",
      "taf": "TAF ESKN 081430Z 0815/0915 03008KT 9999 BKN025"
    },
    {
      "icao": "ESMS",
      "alert": "OK",
      "vis_m": 9999,
      "fzfg": false,
      "metar_trigger": false,
      "taf_trigger": false,
      "metar": "METAR ESMS 081620Z 08017KT 9999 BKN013 M00/M03 Q1017",
      "taf": "TAF ESMS 081427Z 0815/0915 09015KT 9999 BKN008"
    },
    {
      "icao": "ESSA",
      "alert": "OK",
      "vis_m": 9999,
      "fzfg": false,
      "metar_trigger": false,
      "taf_trigger": false,
      "metar": "METAR ESSA 081620Z 31002KT 9999 SCT019 M07/M09 Q1024 NOSIG",
      "taf": "TAF ESSA 081430Z 0815/0915 33004KT 9999 BKN007"
    },
    {
      "icao": "EYKA",
      "alert": "OK",
      "vis_m": 9999,
      "fzfg": false,
      "metar_trigger": false,
      "taf_trigger": false,
      "metar": "METAR EYKA 081620Z 03005KT 350V060 CAVOK M10/M13 Q1021",
      "taf": "TAF EYKA 081100Z 0812/0912 VRB04KT 9000 NSC"
    },
    {
      "icao": "EYPA",
      "alert": "OK",
      "vis_m": 9999,
      "fzfg": false,
      "metar_trigger": false,
      "taf_trigger": false,
      "metar": "METAR EYPA 081620Z 08007KT CAVOK M10/M14 Q1022",
      "taf": "TAF EYPA 081100Z 0812/0912 07012KT 9000 NSC"
    },
    {
      "icao": "EYVI",
      "alert": "OK",
      "vis_m": 9999,
      "fzfg": false,
      "metar_trigger": false,
      "taf_trigger": false,
      "metar": "METAR EYVI 081620Z 05008KT 9999 BKN014 M11/M14 Q1019 NOSIG",
      "taf": "TAF EYVI 081100Z 0812/0912 04012KT 9000 SCT010"
    },
    {
      "icao": "GCFV",
      "alert": "OK",
      "vis_m": 9999,
      "fzfg": false,
      "metar_trigger": false,
      "taf_trigger": false,
      "metar": "METAR GCFV 081600Z 32008KT 260V030 9999 SCT035 22/12 Q1023",
      "taf": "TAF GCFV 081400Z 0815/0915 34008KT 9999 SCT035 TX22/0914Z TN16/0906Z"
    },
    {
      "icao": "GCLP",
      "alert": "OK",
      "vis_m": 9999,
      "fzfg": false,
      "metar_trigger": false,
      "taf_trigger": false,
      "metar": "METAR GCLP 081600Z 03017KT 9999 SCT030 21/12 Q1024 NOSIG",
      "taf": "TAF GCLP 081400Z 0815/0915 04016KT 9999 SCT035 TX22/0914Z TN16/0906Z"
    },
    {
      "icao": "GCTS",
      "alert": "OK",
      "vis_m": 9999,
      "fzfg": false,
      "metar_trigger": false,
      "taf_trigger": false,
      "metar": "METAR GCTS 081600Z 20005KT 140V240 9999 SCT035 20/12 Q1025 NOSIG",
      "taf": "TAF GCTS 081400Z 0815/0915 13007KT 9999 SCT030 TX22/0914Z TN14/0906Z"
    },
    {
      "icao": "GMAD",
      "alert": "OK",
      "vis_m": 8000,
      "fzfg": false,
      "metar_trigger": false,
      "taf_trigger": false,
      "metar": "METAR GMAD 081600Z 27021KT 8000 FEW013 19/17 Q1019 NOSIG",
      "taf": "TAF GMAD 081100Z 0812/0918 26012KT 8000 SCT016 BKN080"
    },
    {
      "icao": "GMMN",
      "alert": "OK",
      "vis_m": 9999,
      "fzfg": false,
      "metar_trigger": false,
      "taf_trigger": false,
      "metar": "METAR GMMN 081600Z 25010KT 220V280 9999 SCT023 BKN080 17/13 Q1021 NOSIG",
      "taf": "TAF GMMN 081100Z 0812/0918 26010KT 9999 BKN020"
    },
    {
      "icao": "GMMX",
      "alert": "OK",
      "vis_m": 9999,
      "fzfg": false,
      "metar_trigger": false,
      "taf_trigger": false,
      "metar": "METAR GMMX 081600Z 28006KT 240V330 9999 SCT023 BKN200 18/11 Q1021 NOSIG",
      "taf": "TAF GMMX 081100Z 0812/0918 24012KT 9999 SCT026 SCT080"
    },
    {
      "icao": "HEGN",
      "alert": "OK",
      "vis_m": 9999,
      "fzfg": false,
      "metar_trigger": false,
      "taf_trigger": false,
      "metar": "METAR HEGN 081500Z 13005KT CAVOK 25/17 Q1013 NOSIG",
      "taf": "TAF HEGN 081100Z 0812/0918 12008KT CAVOK"
    },
    {
      "icao": "HEMA",
      "alert": "OK",
      "vis_m": 9999,
      "fzfg": false,
      "metar_trigger": false,
      "taf_trigger": false,
      "metar": "METAR HEMA 081500Z 12005KT CAVOK 26/10 Q1013 NOSIG",
      "taf": "TAF HEMA 081100Z 0812/0918 09008KT CAVOK"
    },
    {
      "icao": "HESH",
      "alert": "OK",
      "vis_m": 9999,
      "fzfg": false,
      "metar_trigger": false,
      "taf_trigger": false,
      "metar": "METAR HESH 081500Z 15008KT CAVOK 24/18 Q1014 NOSIG",
      "taf": "TAF HESH 081100Z 0812/0918 16008KT CAVOK"
    },
    {
      "icao": "HESX",
      "alert": "OK",
      "vis_m": 9999,
      "fzfg": false,
      "metar_trigger": false,
      "taf_trigger": false,
      "metar": "METAR HESX 081500Z 20017KT CAVOK 29/02 Q1009 NOSIG",
      "taf": ""
    },
    {
      "icao": "LATI",
      "alert": "OK",
      "vis_m": 9999,
      "fzfg": false,
      "metar_trigger": false,
      "taf_trigger": false,
      "metar": "METAR LATI 081620Z 15004KT 9999 FEW027 SCT062 12/08 Q1009 NOSIG",
      "taf": "TAF LATI 081100Z 0812/0912 VRB05KT 9999 FEW018 BKN040 OVC060 TX14/0905Z TN09/0905Z"
    },
    {
      "icao": "LBPD",
      "alert": "OK",
      "vis_m": 9999,
      "fzfg": false,
      "metar_trigger": false,
      "taf_trigger": false,
      "metar": "METAR LBPD 081600Z AUTO 15003KT 9999 SCT059/// BKN071/// 11/08 Q1006 NOSIG",
      "taf": "TAF LBPD 081100Z 0812/0912 VRB03KT 9999 SCT010 BKN040"
    },
    {
      "icao": "LBSF",
      "alert": "OK",
      "vis_m": 9999,
      "fzfg": false,
      "metar_trigger": false,
      "taf_trigger": false,
      "metar": "METAR LBSF 081600Z AUTO 27007KT 9999 OVC049/// 09/03 Q1007 NOSIG",
      "taf": "TAF LBSF 081100Z 0812/0912 29010KT 9999 SCT050"
    },
    {
      "icao": "LBWN",
      "alert": "OK",
      "vis_m": 9000,
      "fzfg": false,
      "metar_trigger": false,
      "taf_trigger": false,
      "metar": "METAR LBWN 081600Z 11007KT 9000 FEW004 BKN039 07/07 Q1006 TEMPO 5000 BR",
      "taf": "TAF LBWN 081100Z 0812/0912 11010KT 9999 BKN020 OVC030"
    },
    {
      "icao": "LCLK",
      "alert": "OK",
      "vis_m": 9999,
      "fzfg": false,
      "metar_trigger": false,
      "taf_trigger": false,
      "metar": "METAR LCLK 081600Z 24008KT 9999 FEW050 18/15 Q1006 NOSIG",
      "taf": "TAF LCLK 081130Z 0812/0912 21018KT 9999 FEW012"
    },
    {
      "icao": "LCPH",
      "alert": "OK",
      "vis_m": 9999,
      "fzfg": false,
      "metar_trigger": false,
      "taf_trigger": false,
      "metar": "METAR LCPH 081600Z 25003KT CAVOK 17/15 Q1007 NOSIG",
      "taf": "TAF LCPH 081130Z 0812/0912 15010KT 9999 FEW012"
    },
    {
      "icao": "LEAL",
      "alert": "OK",
      "vis_m": 9999,
      "fzfg": false,
      "metar_trigger": false,
      "taf_trigger": false,
      "metar": "METAR LEAL 081600Z 26012G23KT 230V290 9999 FEW012 BKN055 17/03 Q1009 NOSIG",
      "taf": "TAF LEAL 081100Z 0812/0912 28018KT 9999 FEW040 TX17/0814Z TN06/0906Z"
    },
    {
      "icao": "LEBB",
      "alert": "OK",
      "vis_m": 9999,
      "fzfg": false,
      "metar_trigger": false,
      "taf_trigger": false,
      "metar": "METAR LEBB 081600Z 27003KT 230V300 9999 FEW050 SCT060 11/08 Q1009 NOSIG",
      "taf": "TAF LEBB 081100Z 0812/0912 29012KT 9999 SCT030 TX13/0912Z TN05/0823Z"
    },
    {
      "icao": "LEBL",
      "alert": "OK",
      "vis_m": 9999,
      "fzfg": false,
      "metar_trigger": false,
      "taf_trigger": false,
      "metar": "METAR LEBL 081600Z 10007KT 9999 FEW035 16/07 Q1003 NOSIG",
      "taf": "TAF LEBL 081100Z 0812/0912 34009KT 9999 FEW025 TX16/0813Z TN06/0906Z"
    },
    {
      "icao": "LECH",
      "alert": "OK",
      "vis_m": 9999,
      "fzfg": false,
      "metar_trigger": false,
      "taf_trigger": false,
      "metar": "METAR LECH 081600Z AUTO 29010KT 240V320 CAVOK 15/01 Q1006",
      "taf": ""
    },
    {
      "icao": "LEMD",
      "alert": "OK",
      "vis_m": 9999,
      "fzfg": false,
      "metar_trigger": false,
      "taf_trigger": false,
      "metar": "METAR LEMD 081600Z 27012KT 240V310 9999 FEW050 10/M00 Q1011 NOSIG",
      "taf": "TAF LEMD 081100Z 0812/0918 28012KT 9999 FEW040 TX11/0815Z TN05/0907Z"
    },
    {
      "icao": "LEMG",
      "alert": "OK",
      "vis_m": 9999,
      "fzfg": false,
      "metar_trigger": false,
      "taf_trigger": false,
      "metar": "METAR LEMG 081600Z 31010KT 9999 FEW045 15/07 Q1015 NOSIG",
      "taf": "TAF LEMG 081100Z 0812/0912 29012KT 9999 FEW040 TX17/0814Z TN13/0907Z"
    },
    {
      "icao": "LEVC",
      "alert": "OK",
      "vis_m": 9999,
      "fzfg": false,
      "metar_trigger": false,
      "taf_trigger": false,
      "metar": "METAR LEVC 081600Z 28015KT 9999 FEW065 17/03 Q1006 NOSIG",
      "taf": "TAF LEVC 081100Z 0812/0912 27010KT 9999 FEW040 TX19/0814Z TN07/0906Z"
    },
    {
      "icao": "LEXJ",
      "alert": "OK",
      "vis_m": 9999,
      "fzfg": false,
      "metar_trigger": false,
      "taf_trigger": false,
      "metar": "METAR LEXJ 081600Z 31010KT 280V350 9999 FEW050 13/07 Q1009",
      "taf": "TAF LEXJ 081400Z 0815/0915 29013KT 9999 FEW030 SCT060 TX15/0913Z TN07/0820Z"
    },
    {
      "icao": "LEZG",
      "alert": "OK",
      "vis_m": 9999,
      "fzfg": false,
      "metar_trigger": false,
      "taf_trigger": false,
      "metar": "METAR LEZG 081600Z 31016KT CAVOK 12/05 Q1007 NOSIG",
      "taf": "TAF LEZG 081100Z 0812/0912 30008KT 9999 FEW020 TX13/0815Z TN05/0906Z"
    },
    {
      "icao": "LEZL",
      "alert": "OK",
      "vis_m": 9999,
      "fzfg": false,
      "metar_trigger": false,
      "taf_trigger": false,
      "metar": "METAR LEZL 081600Z 22010KT 9999 FEW040 15/09 Q1017 NOSIG",
      "taf": "TAF LEZL 081400Z 0815/0915 24010KT 9999 FEW030 TX16/0815Z TN12/0907Z"
    },
    {
      "icao": "LFBD",
      "alert": "OK",
      "vis_m": 9999,
      "fzfg": false,
      "metar_trigger": false,
      "taf_trigger": false,
      "metar": "METAR LFBD 081600Z AUTO 30007KT 280V340 9999 ///TCU 12/08 Q1005 TEMPO BKN014",
      "taf": "TAF LFBD 081100Z 0812/0918 VRB03KT 9999 BKN040 TX14/0814Z TN06/0902Z"
    },
    {
      "icao": "LFLL",
      "alert": "OK",
      "vis_m": 9999,
      "fzfg": false,
      "metar_trigger": false,
      "taf_trigger": false,
      "metar": "METAR LFLL 081600Z 36005KT 9999 FEW026 OVC260 11/06 Q1005 NOSIG",
      "taf": "TAF LFLL 081100Z 0812/0918 VRB03KT 9999 SCT010"
    },
    {
      "icao": "LFLS",
      "alert": "OK",
      "vis_m": 9999,
      "fzfg": false,
      "metar_trigger": false,
      "taf_trigger": false,
      "metar": "METAR LFLS 081600Z AUTO 02006KT CAVOK 11/05 Q1004 NOSIG",
      "taf": "TAF LFLS 081400Z 0815/0915 02008KT CAVOK"
    },
    {
      "icao": "LFMN",
      "alert": "OK",
      "vis_m": 9999,
      "fzfg": false,
      "metar_trigger": false,
      "taf_trigger": false,
      "metar": "METAR LFMN 081600Z 09025KT 9999 -SHRA FEW020 BKN060 13/08 Q1003 TEMPO 4000 SHRA SCT040TCU",
      "taf": "TAF LFMN 081400Z 0815/0921 08020KT 9999 FEW020 BKN100"
    },
    {
      "icao": "LFOB",
      "alert": "OK",
      "vis_m": 9999,
      "fzfg": false,
      "metar_trigger": false,
      "taf_trigger": false,
      "metar": "METAR LFOB 081600Z AUTO 16003KT CAVOK 11/06 Q1005 NOSIG",
      "taf": "TAF LFOB 081100Z 0812/0912 13006KT 9999 SCT040"
    },
    {
      "icao": "LFPO",
      "alert": "OK",
      "vis_m": 9999,
      "fzfg": false,
      "metar_trigger": false,
      "taf_trigger": false,
      "metar": "METAR LFPO 081600Z AUTO 09005KT CAVOK 12/05 Q1005 NOSIG",
      "taf": "TAF LFPO 081100Z 0812/0918 11004KT CAVOK"
    },
    {
      "icao": "LFSB",
      "alert": "OK",
      "vis_m": 4600,
      "fzfg": false,
      "metar_trigger": false,
      "taf_trigger": false,
      "metar": "METAR LFSB 081600Z AUTO 36007KT 4600 BR OVC002 04/03 Q1007 BECMG 0300 FG VV///",
      "taf": ""
    },
    {
      "icao": "LGAV",
      "alert": "OK",
      "vis_m": 9999,
      "fzfg": false,
      "metar_trigger": false,
      "taf_trigger": false,
      "metar": "METAR LGAV 081620Z 27006KT 220V320 9999 FEW020 16/05 Q1007 NOSIG",
      "taf": ""
    },
    {
      "icao": "LGTS",
      "alert": "OK",
      "vis_m": 9999,
      "fzfg": false,
      "metar_trigger": false,
      "taf_trigger": false,
      "metar": "METAR LGTS 081620Z VRB02KT 9999 FEW025 15/08 Q1006 NOSIG",
      "taf": "TAF LGTS 081100Z 0812/0912 33010KT 9999 FEW025"
    },
    {
      "icao": "LHBP",
      "alert": "OK",
      "vis_m": 9999,
      "fzfg": false,
      "metar_trigger": false,
      "taf_trigger": false,
      "metar": "METAR LHBP 081600Z 01005KT 330V030 9999 SCT029 BKN060 08/04 Q1007 NOSIG",
      "taf": "TAF LHBP 081115Z 0812/0912 33007KT 9999 SCT026"
    },
    {
      "icao": "LHDC",
      "alert": "OK",
      "vis_m": 4800,
      "fzfg": false,
      "metar_trigger": false,
      "taf_trigger": false,
      "metar": "METAR LHDC 081545Z AUTO 05004KT 4800 BR OVC029 07/05 Q1008 NOSIG",
      "taf": "TAF LHDC 081415Z 0815/0824 VRB03KT 6000 OVC030"
    },
    {
      "icao": "LIBD",
      "alert": "OK",
      "vis_m": 9999,
      "fzfg": false,
      "metar_trigger": false,
      "taf_trigger": false,
      "metar": "METAR LIBD 081620Z 10005KT 9999 -RA SCT045 12/08 Q1008",
      "taf": "TAF LIBD 081100Z 0812/0912 30010KT 9999 SCT040"
    },
    {
      "icao": "LIBG",
      "alert": "OK",
      "vis_m": 9999,
      "fzfg": false,
      "metar_trigger": false,
      "taf_trigger": false,
      "metar": "METAR LIBG 081550Z 17002KT CAVOK 14/08 Q1008",
      "taf": "TAF LIBG 081400Z 0815/0824 23010KT 9999 SCT040"
    },
    {
      "icao": "LIBP",
      "alert": "OK",
      "vis_m": 9999,
      "fzfg": false,
      "metar_trigger": false,
      "taf_trigger": false,
      "metar": "METAR LIBP 081620Z AUTO 08003KT 9999 BKN092/// BKN150/// 12/08 Q1007",
      "taf": "TAF LIBP 081100Z 0812/0912 VRB05KT 9999 FEW040"
    },
    {
      "icao": "LIBR",
      "alert": "OK",
      "vis_m": 9999,
      "fzfg": false,
      "metar_trigger": false,
      "taf_trigger": false,
      "metar": "METAR LIBR 081620Z VRB01KT CAVOK 13/09 Q1008",
      "taf": "TAF LIBR 081100Z 0812/0912 32010KT 9999 SCT040"
    },
    {
      "icao": "LICA",
      "alert": "OK",
      "vis_m": 9999,
      "fzfg": false,
      "metar_trigger": false,
      "taf_trigger": false,
      "metar": "METAR LICA 081620Z AUTO 25007KT 9999 BKN120/// BKN150/// 13/09 Q1010",
      "taf": "TAF LICA 081100Z 0812/0912 28015KT 9999 SCT040"
    },
    {
      "icao": "LICC",
      "alert": "OK",
      "vis_m": 9999,
      "fzfg": false,
      "metar_trigger": false,
      "taf_trigger": false,
      "metar": "METAR LICC 081620Z 25012KT CAVOK 15/10 Q1010",
      "taf": "TAF LICC 081100Z 0812/0912 26013KT 9999 SCT040"
    },
    {
      "icao": "LICJ",
      "alert": "OK",
      "vis_m": 9999,
      "fzfg": false,
      "metar_trigger": false,
      "taf_trigger": false,
      "metar": "METAR LICJ 081620Z 20017KT 9999 FEW020 15/07 Q1008",
      "taf": "TAF LICJ 081100Z 0812/0912 20016KT 9999 SCT040"
    },
    {
      "icao": "LIMC",
      "alert": "OK",
      "vis_m": 7000,
      "fzfg": false,
      "metar_trigger": false,
      "taf_trigger": false,
      "metar": "METAR LIMC 081620Z VRB01KT 7000 BKN090 11/08 Q1006 NOSIG",
      "taf": "TAF LIMC 081100Z 0812/0918 VRB04KT 7000 BKN030"
    },
    {
      "icao": "LIME",
      "alert": "OK",
      "vis_m": 4000,
      "fzfg": false,
      "metar_trigger": false,
      "taf_trigger": false,
      "metar": "METAR LIME 081620Z 21004KT 4000 BR SCT006 SCT013TCU 10/08 Q1006 NOSIG",
      "taf": "TAF LIME 081100Z 0812/0912 VRB04KT 7000 BKN030"
    },
    {
      "icao": "LIMF",
      "alert": "OK",
      "vis_m": 9999,
      "fzfg": false,
      "metar_trigger": false,
      "taf_trigger": false,
      "metar": "METAR LIMF 081620Z 08004KT 9999 FEW050 SCT100 10/05 Q1006",
      "taf": "TAF LIMF 081100Z 0812/0912 VRB04KT 8000 BKN040"
    },
    {
      "icao": "LIMJ",
      "alert": "OK",
      "vis_m": 9999,
      "fzfg": false,
      "metar_trigger": false,
      "taf_trigger": false,
      "metar": "METAR LIMJ 081620Z 10004KT 9999 -RA FEW020 SCT030 BKN045 12/09 Q1005",
      "taf": "TAF LIMJ 081100Z 0812/0912 02010KT 9999 SCT025"
    },
    {
      "icao": "LIPE",
      "alert": "OK",
      "vis_m": 7000,
      "fzfg": false,
      "metar_trigger": false,
      "taf_trigger": false,
      "metar": "METAR LIPE 081620Z 08005KT 7000 SCT010 BKN070 10/09 Q1006",
      "taf": "TAF LIPE 081100Z 0812/0912 VRB05KT 7000 SCT010"
    },
    {
      "icao": "LIPH",
      "alert": "OK",
      "vis_m": 9999,
      "fzfg": false,
      "metar_trigger": false,
      "taf_trigger": false,
      "metar": "METAR LIPH 081620Z VRB02KT 9999 BKN070 12/07 Q1006",
      "taf": "TAF LIPH 081100Z 0812/0912 VRB05KT 7000 SCT060"
    },
    {
      "icao": "LIPQ",
      "alert": "OK",
      "vis_m": 9999,
      "fzfg": false,
      "metar_trigger": false,
      "taf_trigger": false,
      "metar": "METAR LIPQ 081620Z AUTO 20002KT 9999 FEW054/// OVC072/// 12/08 Q1007",
      "taf": "TAF LIPQ 081100Z 0812/0912 VRB05KT 9999 BKN050"
    },
    {
      "icao": "LIPR",
      "alert": "OK",
      "vis_m": 6000,
      "fzfg": false,
      "metar_trigger": false,
      "taf_trigger": false,
      "metar": "METAR LIPR 081620Z VRB01KT 6000 FEW010 BKN070 09/08 Q1007",
      "taf": "TAF LIPR 081100Z 0812/0912 VRB05KT 7000 SCT060"
    },
    {
      "icao": "LIPX",
      "alert": "OK",
      "vis_m": 600,
      "fzfg": false,
      "metar_trigger": false,
      "taf_trigger": false,
      "metar": "METAR LIPX 081620Z 24005KT 0600 R04/1600N FG BKN002 08/07 Q1007",
      "taf": ""
    },
    {
      "icao": "LIPY",
      "alert": "OK",
      "vis_m": 9999,
      "fzfg": false,
      "metar_trigger": false,
      "taf_trigger": false,
      "metar": "METAR LIPY 081620Z AUTO 30004KT 280V340 9999 BKN051/// 11/10 Q1007",
      "taf": "TAF LIPY 081100Z 0812/0912 VRB05KT 9999 SCT060"
    },
    {
      "icao": "LIPZ",
      "alert": "OK",
      "vis_m": 9999,
      "fzfg": false,
      "metar_trigger": false,
      "taf_trigger": false,
      "metar": "METAR LIPZ 081620Z 06004KT 9999 BKN070 11/07 Q1007 NOSIG",
      "taf": "TAF LIPZ 081100Z 0812/0918 VRB05KT 9999 SCT060"
    },
    {
      "icao": "LIRF",
      "alert": "OK",
      "vis_m": 9999,
      "fzfg": false,
      "metar_trigger": false,
      "taf_trigger": false,
      "metar": "METAR LIRF 081620Z 13007KT 9999 FEW030 13/08 Q1006 TEMPO RA",
      "taf": ""
    },
    {
      "icao": "LIRN",
      "alert": "OK",
      "vis_m": 9999,
      "fzfg": false,
      "metar_trigger": false,
      "taf_trigger": false,
      "metar": "METAR LIRN 081620Z 22008KT 190V260 9999 -RA BKN025 13/08 Q1008 NOSIG",
      "taf": "TAF LIRN 081100Z 0812/0912 22010KT 9999 SCT020 SCT045"
    },
    {
      "icao": "LIRP",
      "alert": "OK",
      "vis_m": 9999,
      "fzfg": false,
      "metar_trigger": false,
      "taf_trigger": false,
      "metar": "METAR LIRP 081615Z 09004KT 9999 SCT060 12/09 Q1006 NOSIG",
      "taf": "TAF LIRP 081100Z 0812/0912 11005KT 9999 FEW020 SCT050"
    },
    {
      "icao": "LIRZ",
      "alert": "OK",
      "vis_m": 9999,
      "fzfg": false,
      "metar_trigger": false,
      "taf_trigger": false,
      "metar": "METAR LIRZ 081620Z AUTO 15006KT 9999 -RA BKN043/// 11/07 Q1007",
      "taf": "TAF LIRZ 081100Z 0812/0912 VRB05KT 9999 BKN020"
    },
    {
      "icao": "LJLJ",
      "alert": "OK",
      "vis_m": 9999,
      "fzfg": false,
      "metar_trigger": false,
      "taf_trigger": false,
      "metar": "METAR LJLJ 081600Z VRB01KT 9999 FEW010 SCT050 06/05 Q1007 NOSIG",
      "taf": "TAF LJLJ 081100Z 0812/0912 VRB02KT 9999 BKN005 BKN055"
    },
    {
      "icao": "LKMT",
      "alert": "OK",
      "vis_m": 1500,
      "fzfg": false,
      "metar_trigger": false,
      "taf_trigger": false,
      "metar": "METAR LKMT 081600Z 02003KT 1500 -SN BR BKN006 OVC009 00/00 Q1010 NOSIG",
      "taf": "TAF LKMT 081100Z 0812/0912 02005KT 3500 BR BKN006 OVC012"
    },
    {
      "icao": "LKPR",
      "alert": "OK",
      "vis_m": 9999,
      "fzfg": false,
      "metar_trigger": false,
      "taf_trigger": false,
      "metar": "METAR LKPR 081600Z 04006KT 9999 FEW006 BKN009 OVC012 02/02 Q1009 NOSIG",
      "taf": "TAF LKPR 081400Z 0815/0921 35005KT 8000 BKN006"
    },
    {
      "icao": "LLBG",
      "alert": "OK",
      "vis_m": 9999,
      "fzfg": false,
      "metar_trigger": false,
      "taf_trigger": false,
      "metar": "METAR LLBG 081620Z 16006KT CAVOK 24/08 Q1009 NOSIG",
      "taf": "TAF LLBG 081118Z 0812/0912 23012KT CAVOK"
    },
    {
      "icao": "LMML",
      "alert": "OK",
      "vis_m": 9999,
      "fzfg": false,
      "metar_trigger": false,
      "taf_trigger": false,
      "metar": "METAR LMML 081615Z 20009KT 170V230 9999 FEW022 14/11 Q1011 NOSIG",
      "taf": "TAF LMML 081100Z 0812/0912 26014KT 9999 FEW017"
    },
    {
      "icao": "LOWW",
      "alert": "OK",
      "vis_m": 9999,
      "fzfg": false,
      "metar_trigger": false,
      "taf_trigger": false,
      "metar": "METAR LOWW 081620Z 02005KT 9999 FEW038 BKN040 05/04 Q1008 NOSIG",
      "taf": "TAF LOWW 081415Z 0815/0921 01008KT 9999 FEW014 BKN020 TX07/0815Z TN01/0906Z"
    },
    {
      "icao": "LPFR",
      "alert": "OK",
      "vis_m": 9999,
      "fzfg": false,
      "metar_trigger": false,
      "taf_trigger": false,
      "metar": "METAR LPFR 081600Z 24006KT 9999 -RA FEW025 SCT038 15/11 Q1017",
      "taf": "TAF LPFR 081110Z 0812/0912 24012KT 9999 SCT025"
    },
    {
      "icao": "LPMA",
      "alert": "OK",
      "vis_m": 9999,
      "fzfg": false,
      "metar_trigger": false,
      "taf_trigger": false,
      "metar": "METAR LPMA 081600Z 04007KT 9999 FEW015 SCT070 20/14 Q1022",
      "taf": "TAF LPMA 081110Z 0812/0912 VRB05KT 9999 SCT015"
    },
    {
      "icao": "LPPR",
      "alert": "OK",
      "vis_m": 5000,
      "fzfg": false,
      "metar_trigger": false,
      "taf_trigger": false,
      "metar": "METAR LPPR 081600Z 19014KT 170V230 5000 -RA BR FEW025 BKN030 13/08 Q1011",
      "taf": "TAF LPPR 081110Z 0812/0912 21010KT 9999 SCT025"
    },
    {
      "icao": "LPPS",
      "alert": "OK",
      "vis_m": 9999,
      "fzfg": false,
      "metar_trigger": false,
      "taf_trigger": false,
      "metar": "METAR LPPS 081600Z 29018KT 9999 FEW011 19/16 Q1023",
      "taf": "TAF LPPS 081100Z 0812/0918 27015KT 9999 SCT012 SCT030"
    },
    {
      "icao": "LPPT",
      "alert": "OK",
      "vis_m": 3000,
      "fzfg": false,
      "metar_trigger": false,
      "taf_trigger": false,
      "metar": "METAR LPPT 081600Z 20013KT 3000 -RADZ BR FEW006 SCT018 BKN030 11/10 Q1013 WS R20",
      "taf": "TAF LPPT 081100Z 0812/0918 23007KT 9999 SCT025"
    },
    {
      "icao": "LQBK",
      "alert": "OK",
      "vis_m": 9999,
      "fzfg": false,
      "metar_trigger": false,
      "taf_trigger": false,
      "metar": "METAR LQBK 081600Z 31004KT 9999 FEW027 10/07 Q1007 NOSIG",
      "taf": "TAF LQBK 081100Z 0812/0912 30005KT 8000 FEW007 TX11/0814Z TN05/0906Z"
    },
    {
      "icao": "LQSA",
      "alert": "OK",
      "vis_m": 9999,
      "fzfg": false,
      "metar_trigger": false,
      "taf_trigger": false,
      "metar": "METAR LQSA 081600Z 31002KT 9999 FEW035TCU BKN055 08/06 Q1007 TEMPO SHRA",
      "taf": "TAF LQSA 081100Z 0812/0912 VRB02KT 9999 SCT018 BKN045 TX11/0813Z TN02/0905Z"
    },
    {
      "icao": "LQTZ",
      "alert": "OK",
      "vis_m": 9999,
      "fzfg": false,
      "metar_trigger": false,
      "taf_trigger": false,
      "metar": "METAR LQTZ 081600Z VRB03KT 9999 FEW045 SCT055 11/07 Q1007",
      "taf": "TAF LQTZ 081100Z 0812/0912 06005KT 8000 SCT020 SCT045 TX10/0813Z TN04/0906Z"
    },
    {
      "icao": "LRBC",
      "alert": "OK",
      "vis_m": 4000,
      "fzfg": false,
      "metar_trigger": false,
      "taf_trigger": false,
      "metar": "METAR LRBC 081600Z 34008KT 4000 BR BKN006 OVC037 01/00 Q1009",
      "taf": "TAF LRBC 081400Z 0815/0824 35008KT 5000 BR BKN010 OVC020"
    },
    {
      "icao": "LRBS",
      "alert": "OK",
      "vis_m": 5000,
      "fzfg": false,
      "metar_trigger": false,
      "taf_trigger": false,
      "metar": "METAR LRBS 081600Z 05006KT 020V080 5000 BR OVC005 05/04 Q1007 TEMPO 3000 BR OVC005",
      "taf": ""
    },
    {
      "icao": "LRBV",
      "alert": "OK",
      "vis_m": 9999,
      "fzfg": false,
      "metar_trigger": false,
      "taf_trigger": false,
      "metar": "METAR LRBV 081600Z 30005KT 270V330 9999 FEW015 SCT020 BKN030 05/03 Q1006",
      "taf": "TAF LRBV 081400Z 0815/0824 31008KT 9999 SCT015 BKN035"
    },
    {
      "icao": "LRCL",
      "alert": "OK",
      "vis_m": 9999,
      "fzfg": false,
      "metar_trigger": false,
      "taf_trigger": false,
      "metar": "METAR LRCL 081600Z 33005KT 9999 OVC012 06/04 Q1007",
      "taf": "TAF LRCL 081400Z 0815/0824 30006KT 9999 SCT015 BKN035"
    },
    {
      "icao": "LRCV",
      "alert": "OK",
      "vis_m": 9999,
      "fzfg": false,
      "metar_trigger": false,
      "taf_trigger": false,
      "metar": "METAR LRCV 081600Z 22003KT CAVOK 09/05 Q1005",
      "taf": "TAF LRCV 081400Z 0815/0824 28006KT CAVOK"
    },
    {
      "icao": "LRIA",
      "alert": "OK",
      "vis_m": 6000,
      "fzfg": false,
      "metar_trigger": false,
      "taf_trigger": false,
      "metar": "METAR LRIA 081600Z 33009KT 6000 -SN BKN012 M01/M02 Q1009",
      "taf": "TAF LRIA 081400Z 0815/0824 34008KT 9999 OVC010"
    },
    {
      "icao": "LROP",
      "alert": "OK",
      "vis_m": 2500,
      "fzfg": false,
      "metar_trigger": false,
      "taf_trigger": false,
      "metar": "METAR LROP 081600Z 07010KT 2500 BR BKN001 BKN002 OVC003 05/05 Q1007 BECMG 1500 BR",
      "taf": ""
    },
    {
      "icao": "LRSB",
      "alert": "OK",
      "vis_m": 9999,
      "fzfg": false,
      "metar_trigger": false,
      "taf_trigger": false,
      "metar": "METAR LRSB 081600Z 03006KT 9999 FEW036 BKN055 07/04 Q1006 NOSIG",
      "taf": "TAF LRSB 081100Z 0812/0912 VRB04KT 9999 SCT020 BKN050"
    },
    {
      "icao": "LRSM",
      "alert": "OK",
      "vis_m": 6000,
      "fzfg": false,
      "metar_trigger": false,
      "taf_trigger": false,
      "metar": "METAR LRSM 081600Z 28005KT 6000 FEW015 BKN025 06/04 Q1008",
      "taf": "TAF LRSM 081400Z 0815/0824 VRB04KT 5000 BR OVC030"
    },
    {
      "icao": "LRSV",
      "alert": "OK",
      "vis_m": 1700,
      "fzfg": false,
      "metar_trigger": false,
      "taf_trigger": false,
      "metar": "METAR LRSV 081600Z 36007KT 1700 -SN BR OVC003 M02/M02 Q1008",
      "taf": "TAF LRSV 081400Z 0815/0824 36008KT 3000 BR BKN005 OVC015"
    },
    {
      "icao": "LRTM",
      "alert": "OK",
      "vis_m": 9999,
      "fzfg": false,
      "metar_trigger": false,
      "taf_trigger": false,
      "metar": "METAR LRTM 081600Z 24006KT 9999 SCT020 SCT031 OVC040 05/04 Q1007",
      "taf": "TAF LRTM 081400Z 0815/0824 28006KT 9999 SCT015 BKN030"
    },
    {
      "icao": "LRTR",
      "alert": "OK",
      "vis_m": 9999,
      "fzfg": false,
      "metar_trigger": false,
      "taf_trigger": false,
      "metar": "METAR LRTR 081600Z 04001KT 9999 SCT020 08/06 Q1008",
      "taf": "TAF LRTR 081100Z 0812/0912 VRB04KT 9999 BKN005 BKN030"
    },
    {
      "icao": "LTAC",
      "alert": "OK",
      "vis_m": 9000,
      "fzfg": false,
      "metar_trigger": false,
      "taf_trigger": false,
      "metar": "METAR LTAC 081620Z 20004KT 9000 -SHRA FEW015 BKN025 BKN080 06/05 Q1005 NOSIG",
      "taf": "TAF LTAC 081040Z 0812/0912 25009KT 9999 SCT035 BKN080"
    },
    {
      "icao": "LTFM",
      "alert": "OK",
      "vis_m": 650,
      "fzfg": false,
      "metar_trigger": false,
      "taf_trigger": false,
      "metar": "METAR LTFM 081620Z 03004KT 0650 R35R/0700U R17L/0750N R34L/0700N R36/0900D FG VV002 08/07 Q1007 NOSIG",
      "taf": "TAF LTFM 081040Z 0812/0918 34008KT 1200 BCFG BKN002 BKN022"
    },
    {
      "icao": "LUKK",
      "alert": "OK",
      "vis_m": 9999,
      "fzfg": false,
      "metar_trigger": false,
      "taf_trigger": false,
      "metar": "METAR LUKK 081600Z 01007KT 9999 BKN013 M01/M03 Q1008 NOSIG",
      "taf": "TAF LUKK 081119Z 0812/0912 35008KT 9999 BKN008"
    },
    {
      "icao": "LWOH",
      "alert": "OK",
      "vis_m": 9999,
      "fzfg": false,
      "metar_trigger": false,
      "taf_trigger": false,
      "metar": "METAR LWOH 081620Z VRB01KT 9999 -RA SCT020 BKN040 08/07 Q1008",
      "taf": "TAF LWOH 081440Z 0815/0915 VRB02KT 9999 FEW020 BKN050"
    },
    {
      "icao": "LWSK",
      "alert": "OK",
      "vis_m": 9999,
      "fzfg": false,
      "metar_trigger": false,
      "taf_trigger": false,
      "metar": "METAR LWSK 081620Z VRB01KT 9999 SCT065 10/07 Q1008 NOSIG",
      "taf": "TAF LWSK 081440Z 0815/0915 VRB02KT 9999 BKN060"
    },
    {
      "icao": "LYBE",
      "alert": "OK",
      "vis_m": 9999,
      "fzfg": false,
      "metar_trigger": false,
      "taf_trigger": false,
      "metar": "METAR LYBE 081600Z 05004KT 020V080 CAVOK 10/07 Q1008 NOSIG",
      "taf": "TAF LYBE 081100Z 0812/0912 05004KT 8000 BKN013 TX11/0813Z TN03/0906Z"
    },
    {
      "icao": "LYNI",
      "alert": "OK",
      "vis_m": 9999,
      "fzfg": false,
      "metar_trigger": false,
      "taf_trigger": false,
      "metar": "METAR LYNI 081600Z 28003KT 9999 FEW040 09/05 Q1007 NOSIG",
      "taf": "TAF LYNI 081100Z 0812/0912 32004KT 9999 SCT030 TX12/0813Z TN03/0905Z"
    },
    {
      "icao": "LYPG",
      "alert": "OK",
      "vis_m": 9999,
      "fzfg": false,
      "metar_trigger": false,
      "taf_trigger": false,
      "metar": "METAR LYPG 081600Z 22003KT 9999 FEW040 BKN080 12/08 Q1008 NOSIG",
      "taf": "TAF LYPG 081100Z 0812/0912 36005KT 9999 SCT030 TX15/0813Z TN07/0823Z"
    },
    {
      "icao": "LZIB",
      "alert": "OK",
      "vis_m": 9999,
      "fzfg": false,
      "metar_trigger": false,
      "taf_trigger": false,
      "metar": "METAR LZIB 081600Z 32007KT 9999 FEW023 BKN040 07/03 Q1008 NOSIG",
      "taf": "TAF LZIB 081115Z 0812/0912 30010KT 9999 FEW012 BKN020"
    },
    {
      "icao": "LZKZ",
      "alert": "OK",
      "vis_m": 9999,
      "fzfg": false,
      "metar_trigger": false,
      "taf_trigger": false,
      "metar": "METAR LZKZ 081600Z 01013KT 9999 BKN029 04/01 Q1008 NOSIG",
      "taf": "TAF LZKZ 081115Z 0812/0912 02012KT 9999 SCT025 BKN045"
    },
    {
      "icao": "LZTT",
      "alert": "OK",
      "vis_m": 9999,
      "fzfg": false,
      "metar_trigger": false,
      "taf_trigger": false,
      "metar": "METAR LZTT 081600Z 06006KT 9999 OVC005 01/01 Q1006 NOSIG",
      "taf": ""
    },
    {
      "icao": "OEJN",
      "alert": "OK",
      "vis_m": 9999,
      "fzfg": false,
      "metar_trigger": false,
      "taf_trigger": false,
      "metar": "METAR OEJN 081600Z 33011KT CAVOK 28/07 Q1013 NOSIG",
      "taf": "TAF OEJN 081100Z 0812/0918 30012KT CAVOK"
    },
    {
      "icao": "OEMA",
      "alert": "OK",
      "vis_m": 9999,
      "fzfg": false,
      "metar_trigger": false,
      "taf_trigger": false,
      "metar": "METAR OEMA 081600Z 26003KT CAVOK 27/M07 Q1016 NOSIG",
      "taf": "TAF OEMA 081100Z 0812/0918 30009KT CAVOK"
    },
    {
      "icao": "OJAI",
      "alert": "OK",
      "vis_m": 3500,
      "fzfg": false,
      "metar_trigger": false,
      "taf_trigger": false,
      "metar": "METAR OJAI 081600Z 23008KT 3500 DU NSC 16/05 Q1014 NOSIG",
      "taf": "TAF OJAI 081033Z 0812/0918 22012KT 5000 HZ NSC"
    },
    {
      "icao": "OMAA",
      "alert": "OK",
      "vis_m": 9999,
      "fzfg": false,
      "metar_trigger": false,
      "taf_trigger": false,
      "metar": "METAR OMAA 081600Z 34007KT CAVOK 24/16 Q1013 NOSIG",
      "taf": "TAF OMAA 081100Z 0812/0918 32011KT 8000 NSC"
    },
    {
      "icao": "OMDB",
      "alert": "OK",
      "vis_m": 9999,
      "fzfg": false,
      "metar_trigger": false,
      "taf_trigger": false,
      "metar": "METAR OMDB 081600Z 34003KT 290V030 CAVOK 25/13 Q1014 NOSIG",
      "taf": "TAF OMDB 081100Z 0812/0918 31011KT CAVOK"
    },
    {
      "icao": "UAAA",
      "alert": "OK",
      "vis_m": 9999,
      "fzfg": false,
      "metar_trigger": false,
      "taf_trigger": false,
      "metar": "METAR UAAA 081600Z 09003MPS 040V120 9999 SCT100 M01/M04 Q1013 NOSIG",
      "taf": "TAF UAAA 081109Z 0812/0912 03003G08MPS 3100 BR FU SCT011 BKN030 TX04/0909Z TNM05/0902Z"
    },
    {
      "icao": "UBBB",
      "alert": "OK",
      "vis_m": 9999,
      "fzfg": false,
      "metar_trigger": false,
      "taf_trigger": false,
      "metar": "METAR UBBB 081600Z 32006KT 9999 BKN013 06/04 Q1001 NOSIG",
      "taf": "TAF UBBB 081053Z 0812/0912 36005KT 9999 SCT020 TX07/0812Z TN03/0902Z"
    },
    {
      "icao": "UDSG",
      "alert": "OK",
      "vis_m": 2300,
      "fzfg": false,
      "metar_trigger": false,
      "taf_trigger": false,
      "metar": "METAR UDSG 081600Z 21001KT 2300 BR BKN040 00/00 Q1006 NOSIG",
      "taf": "TAF UDSG 081058Z 0812/0912 VRB06KT 3000 BR BKN030"
    },
    {
      "icao": "UDYZ",
      "alert": "OK",
      "vis_m": 3400,
      "fzfg": false,
      "metar_trigger": false,
      "taf_trigger": false,
      "metar": "METAR UDYZ 081600Z 35002KT 3400 BR SCT046 04/03 Q1006 NOSIG",
      "taf": "TAF UDYZ 081100Z 0812/0912 VRB06KT 6000 BKN020"
    },
    {
      "icao": "UGKO",
      "alert": "OK",
      "vis_m": 9999,
      "fzfg": false,
      "metar_trigger": false,
      "taf_trigger": false,
      "metar": "METAR UGKO 081600Z VRB02KT 9999 -RA BKN012 OVC025 08/07 Q1006 NOSIG",
      "taf": "TAF UGKO 081100Z 0812/0912 25007KT 9999 SCT030 OVC050 TX09/0812Z TN07/0903Z"
    }
  ]
}