{
  "ts_utc": "2025-12-21T03:47:56Z",
  "threshold_m": 150,
  "source": "stations_override.txt (ICAO list) + aviationweather.gov (METAR/TAF raw)",
  "station_count": 114,
  "stations": [
    {
      "icao": "BIKF",
      "alert": "OK",
      "vis_m": 9999,
      "fzfg": false,
      "metar_trigger": false,
      "taf_trigger": false,
      "metar": "METAR BIKF 210330Z 11010KT 080V140 9999 OVC014 09/07 Q1006",
      "taf": "TAF BIKF 210148Z 2103/2203 06008KT 9999 BKN025 TX08/2106Z TN05/2103Z"
    },
    {
      "icao": "BKPR",
      "alert": "OK",
      "vis_m": 200,
      "fzfg": true,
      "metar_trigger": false,
      "taf_trigger": false,
      "metar": "METAR BKPR 210330Z 12004KT 0200 R17/0750N R35/0275N FZFG BKN002 M01/M01 Q1018 NOSIG",
      "taf": "TAF BKPR 202330Z 2100/2124 VRB03KT 0150 FZFG BKN002"
    },
    {
      "icao": "EBBR",
      "alert": "OK",
      "vis_m": 7000,
      "fzfg": false,
      "metar_trigger": false,
      "taf_trigger": false,
      "metar": "METAR EBBR 210320Z 10004KT 7000 FEW013 07/07 Q1010 TEMPO 4000 BR BKN012",
      "taf": ""
    },
    {
      "icao": "EBCI",
      "alert": "OK",
      "vis_m": 7000,
      "fzfg": false,
      "metar_trigger": false,
      "taf_trigger": false,
      "metar": "METAR EBCI 210320Z 16005KT 7000 SCT009 BKN011 10/09 Q1010 NOSIG",
      "taf": ""
    },
    {
      "icao": "EDDB",
      "alert": "OK",
      "vis_m": 900,
      "fzfg": false,
      "metar_trigger": false,
      "taf_trigger": false,
      "metar": "METAR EDDB 210320Z AUTO 09006KT 0900 0750 R06L/1000N R06R/1700D FG OVC001 06/06 Q1018 TEMPO 0600 VV002",
      "taf": ""
    },
    {
      "icao": "EDDH",
      "alert": "OK",
      "vis_m": 9999,
      "fzfg": false,
      "metar_trigger": false,
      "taf_trigger": false,
      "metar": "METAR EDDH 210320Z AUTO 09009KT 9999 -DZ FEW005 BKN026 OVC033 05/04 Q1017 TEMPO 7000 BKN005",
      "taf": "TAF EDDH 202300Z 2100/2206 09010KT 9000 OVC003"
    },
    {
      "icao": "EDDK",
      "alert": "OK",
      "vis_m": 9999,
      "fzfg": false,
      "metar_trigger": false,
      "taf_trigger": false,
      "metar": "METAR EDDK 210320Z AUTO 09004KT 050V130 9999 FEW026 09/06 Q1013 NOSIG",
      "taf": "TAF EDDK 202300Z 2100/2206 11007KT 9999 BKN025"
    },
    {
      "icao": "EDDN",
      "alert": "OK",
      "vis_m": 9999,
      "fzfg": false,
      "metar_trigger": false,
      "taf_trigger": false,
      "metar": "METAR EDDN 210320Z AUTO 11004KT CAVOK M00/M01 Q1015",
      "taf": "TAF EDDN 202300Z 2100/2124 11005KT CAVOK"
    },
    {
      "icao": "EDFH",
      "alert": "OK",
      "vis_m": 900,
      "fzfg": false,
      "metar_trigger": false,
      "taf_trigger": false,
      "metar": "METAR EDFH 210320Z 14012KT 0900 R21/1100U FG NSC 05/05 Q1013",
      "taf": "TAF EDFH 202300Z 2100/2124 13012KT 0300 FG VV001"
    },
    {
      "icao": "EDJA",
      "alert": "OK",
      "vis_m": 450,
      "fzfg": true,
      "metar_trigger": false,
      "taf_trigger": false,
      "metar": "METAR EDJA 210320Z AUTO VRB02KT 0450 0400 R24/0450N // VV/// M03/M04 Q1013",
      "taf": "TAF EDJA 210200Z 2103/2112 VRB03KT 0800 FZFG VV001"
    },
    {
      "icao": "EDLW",
      "alert": "OK",
      "vis_m": null,
      "fzfg": false,
      "metar_trigger": false,
      "taf_trigger": false,
      "metar": "",
      "taf": "TAF EDLW 201700Z 2018/2118 04005KT 9999 BKN030"
    },
    {
      "icao": "EDSB",
      "alert": "OK",
      "vis_m": 400,
      "fzfg": false,
      "metar_trigger": false,
      "taf_trigger": false,
      "metar": "METAR EDSB 210320Z AUTO 01002KT 0400 R21/0500D VV/// 04/04 Q1013",
      "taf": "TAF EDSB 202300Z 2100/2124 03003KT 0300 FG VV002"
    },
    {
      "icao": "EETN",
      "alert": "OK",
      "vis_m": 9999,
      "fzfg": false,
      "metar_trigger": false,
      "taf_trigger": false,
      "metar": "METAR EETN 210320Z 28013KT 9999 SCT014 OVC028 06/04 Q1006",
      "taf": "TAF EETN 202330Z 2100/2124 26014KT 9999 BKN015 BKN025"
    },
    {
      "icao": "EFHK",
      "alert": "OK",
      "vis_m": 9000,
      "fzfg": false,
      "metar_trigger": false,
      "taf_trigger": false,
      "metar": "METAR EFHK 210320Z 28009KT 9000 -RADZ FEW008 BKN012 05/03 Q1005 TEMPO 7000 BKN008",
      "taf": "TAF EFHK 210226Z 2103/2203 26010KT 9999 SCT012 BKN020"
    },
    {
      "icao": "EFTU",
      "alert": "OK",
      "vis_m": 9999,
      "fzfg": false,
      "metar_trigger": false,
      "taf_trigger": false,
      "metar": "METAR EFTU 210320Z AUTO 32008KT 280V010 9999 OVC016 05/02 Q1008",
      "taf": "TAF EFTU 210226Z 2103/2203 31009KT 9999 OVC017"
    },
    {
      "icao": "EGGW",
      "alert": "OK",
      "vis_m": 300,
      "fzfg": false,
      "metar_trigger": false,
      "taf_trigger": false,
      "metar": "METAR EGGW 210320Z AUTO 10006KT 0300 R07/0800D FG OVC002 07/07 Q1007",
      "taf": "TAF EGGW 202258Z 2100/2124 12007KT 6000 BKN005"
    },
    {
      "icao": "EGKK",
      "alert": "OK",
      "vis_m": 5000,
      "fzfg": false,
      "metar_trigger": false,
      "taf_trigger": false,
      "metar": "METAR EGKK 210320Z 04003KT 020V090 5000 2000W R08R/1000D PRFG SCT007 07/07 Q1007",
      "taf": ""
    },
    {
      "icao": "EHEH",
      "alert": "OK",
      "vis_m": 4000,
      "fzfg": false,
      "metar_trigger": false,
      "taf_trigger": false,
      "metar": "METAR EHEH 210325Z AUTO 11004KT 080V150 4000 BR FEW028 OVC260 08/07 Q1011 GRN",
      "taf": "TAF EHEH 202335Z 2100/2206 11005KT 6000 SCT022"
    },
    {
      "icao": "EKBI",
      "alert": "OK",
      "vis_m": 9000,
      "fzfg": false,
      "metar_trigger": false,
      "taf_trigger": false,
      "metar": "METAR EKBI 210320Z AUTO 08007KT 9000 OVC006/// 05/04 Q1019",
      "taf": "TAF EKBI 210227Z 2103/2203 10008KT 3000 BR BKN003"
    },
    {
      "icao": "EKCH",
      "alert": "OK",
      "vis_m": 5000,
      "fzfg": false,
      "metar_trigger": false,
      "taf_trigger": false,
      "metar": "METAR EKCH 210320Z 01001KT 5000 OVC009 05/04 Q1021 NOSIG",
      "taf": "TAF EKCH 210227Z 2103/2203 16004KT 8000 BKN006"
    },
    {
      "icao": "ENTO",
      "alert": "OK",
      "vis_m": 9999,
      "fzfg": false,
      "metar_trigger": false,
      "taf_trigger": false,
      "metar": "METAR ENTO 210320Z AUTO 36004KT 9999 NCD M00/M02 Q1020",
      "taf": "TAF ENTO 202300Z 2100/2124 35007KT CAVOK"
    },
    {
      "icao": "EPGD",
      "alert": "OK",
      "vis_m": 9999,
      "fzfg": false,
      "metar_trigger": false,
      "taf_trigger": false,
      "metar": "METAR EPGD 210330Z 28004KT 9999 OVC019 05/02 Q1020",
      "taf": "TAF EPGD 202330Z 2100/2124 25005KT 9999 BKN020"
    },
    {
      "icao": "EPKK",
      "alert": "OK",
      "vis_m": 2400,
      "fzfg": false,
      "metar_trigger": false,
      "taf_trigger": false,
      "metar": "METAR EPKK 210330Z 22001KT 2400 -RA BR FEW003 BKN048 03/02 Q1019",
      "taf": "TAF EPKK 210230Z 2103/2203 VRB02KT 4000 BR BKN012"
    },
    {
      "icao": "EPKT",
      "alert": "OK",
      "vis_m": 400,
      "fzfg": false,
      "metar_trigger": false,
      "taf_trigger": false,
      "metar": "METAR EPKT 210330Z 08001KT 0400 R26/1500N -DZ FG OVC005 04/04 Q1019",
      "taf": "TAF EPKT 202330Z 2100/2124 VRB02KT 1500 BR OVC012"
    },
    {
      "icao": "EPWA",
      "alert": "OK",
      "vis_m": 7000,
      "fzfg": false,
      "metar_trigger": false,
      "taf_trigger": false,
      "metar": "METAR EPWA 210330Z 01003KT 7000 SCT005 BKN015 04/04 Q1020 TEMPO BKN006",
      "taf": "TAF EPWA 210230Z 2103/2203 03004KT 7000 OVC005"
    },
    {
      "icao": "EPWR",
      "alert": "OK",
      "vis_m": 3000,
      "fzfg": false,
      "metar_trigger": false,
      "taf_trigger": false,
      "metar": "METAR EPWR 210330Z 11004KT 3000 BR SCT010 04/03 Q1019",
      "taf": "TAF EPWR 210230Z 2103/2203 VRB02KT 2000 BR NSC"
    },
    {
      "icao": "ESGG",
      "alert": "OK",
      "vis_m": 1200,
      "fzfg": false,
      "metar_trigger": false,
      "taf_trigger": false,
      "metar": "METAR ESGG 210320Z VRB03KT 1200 R03/P2000N R21/P2000N BR OVC002 05/05 Q1019",
      "taf": "TAF ESGG 210230Z 2103/2203 23003KT 5000 BKN005"
    },
    {
      "icao": "ESKN",
      "alert": "OK",
      "vis_m": 9999,
      "fzfg": false,
      "metar_trigger": false,
      "taf_trigger": false,
      "metar": "METAR ESKN 210320Z 29006KT CAVOK 01/M00 Q1017",
      "taf": "TAF ESKN 210230Z 2103/2203 28007KT CAVOK"
    },
    {
      "icao": "ESMX",
      "alert": "OK",
      "vis_m": 9999,
      "fzfg": false,
      "metar_trigger": false,
      "taf_trigger": false,
      "metar": "METAR ESMX 210320Z AUTO 27002KT 9999 FEW007/// SCT009/// BKN016/// 05/05 Q1019",
      "taf": ""
    },
    {
      "icao": "EVRA",
      "alert": "OK",
      "vis_m": 9999,
      "fzfg": false,
      "metar_trigger": false,
      "taf_trigger": false,
      "metar": "METAR EVRA 210320Z 21006KT 9999 FEW020 OVC031 06/05 Q1013 NOSIG",
      "taf": "TAF EVRA 210202Z 2103/2203 21007KT 9999 BKN015"
    },
    {
      "icao": "EYKA",
      "alert": "OK",
      "vis_m": 9999,
      "fzfg": false,
      "metar_trigger": false,
      "taf_trigger": false,
      "metar": "METAR EYKA 210320Z 24006KT 9999 OVC030 05/04 Q1017",
      "taf": "TAF EYKA 202300Z 2100/2124 24008KT 9000 SCT010 OVC015"
    },
    {
      "icao": "EYVI",
      "alert": "OK",
      "vis_m": 9999,
      "fzfg": false,
      "metar_trigger": false,
      "taf_trigger": false,
      "metar": "METAR EYVI 210320Z 25007KT 9999 OVC015 04/03 Q1017 NOSIG",
      "taf": "TAF EYVI 202300Z 2100/2124 VRB04KT 9000 SCT010 OVC015"
    },
    {
      "icao": "GCLP",
      "alert": "OK",
      "vis_m": 9999,
      "fzfg": false,
      "metar_trigger": false,
      "taf_trigger": false,
      "metar": "METAR GCLP 210330Z 01005KT 9999 -RA FEW025 BKN040 15/13 Q1021 NOSIG",
      "taf": "TAF GCLP 210200Z 2103/2203 36013KT 9999 SCT035 TX21/2114Z TN15/2106Z"
    },
    {
      "icao": "GCTS",
      "alert": "OK",
      "vis_m": 9999,
      "fzfg": false,
      "metar_trigger": false,
      "taf_trigger": false,
      "metar": "METAR GCTS 210330Z 05006KT 9999 SCT035 17/09 Q1021 NOSIG",
      "taf": "TAF GCTS 210200Z 2103/2203 05009KT 9999 SCT035 TX22/2114Z TN15/2106Z"
    },
    {
      "icao": "HECA",
      "alert": "OK",
      "vis_m": 9999,
      "fzfg": false,
      "metar_trigger": false,
      "taf_trigger": false,
      "metar": "METAR HECA 210330Z 17008KT CAVOK 14/03 Q1013 NOSIG",
      "taf": "TAF HECA 202300Z 2100/2206 08009KT 9999 FEW025"
    },
    {
      "icao": "HEGN",
      "alert": "OK",
      "vis_m": 9999,
      "fzfg": false,
      "metar_trigger": false,
      "taf_trigger": false,
      "metar": "METAR HEGN 210300Z 00000KT CAVOK 13/09 Q1015 NOSIG",
      "taf": "TAF HEGN 202300Z 2100/2206 25006KT CAVOK"
    },
    {
      "icao": "HESH",
      "alert": "OK",
      "vis_m": null,
      "fzfg": false,
      "metar_trigger": false,
      "taf_trigger": false,
      "metar": "",
      "taf": "TAF HESH 202300Z 2100/2206 32006KT CAVOK"
    },
    {
      "icao": "HESX",
      "alert": "OK",
      "vis_m": 6000,
      "fzfg": false,
      "metar_trigger": false,
      "taf_trigger": false,
      "metar": "METAR HESX 210300Z 18004KT 6000 NSC 14/07 Q1013 NOSIG",
      "taf": "TAF HESX 202300Z 2100/2206 09009KT CAVOK"
    },
    {
      "icao": "LATI",
      "alert": "OK",
      "vis_m": 6000,
      "fzfg": false,
      "metar_trigger": false,
      "taf_trigger": false,
      "metar": "METAR LATI 210320Z 14002KT 6000 NSC 02/M00 Q1015 NOSIG",
      "taf": "TAF LATI 202300Z 2100/2124 VRB03KT 6000 NSC TX17/2112Z TN01/2105Z"
    },
    {
      "icao": "LBSF",
      "alert": "OK",
      "vis_m": 2400,
      "fzfg": true,
      "metar_trigger": false,
      "taf_trigger": false,
      "metar": "METAR LBSF 210330Z AUTO 26003KT 2400 BR SCT029/// 01/00 Q1018 TEMPO 0800 FZFG",
      "taf": ""
    },
    {
      "icao": "LBWN",
      "alert": "OK",
      "vis_m": 7000,
      "fzfg": false,
      "metar_trigger": false,
      "taf_trigger": false,
      "metar": "METAR LBWN 210330Z AUTO 25004KT 7000 -SHRA FEW011/// BKN015/// OVC017/// 06/06 Q1019 NOSIG",
      "taf": "TAF LBWN 202300Z 2100/2124 02010KT 7000 BKN008 OVC015"
    },
    {
      "icao": "LCLK",
      "alert": "OK",
      "vis_m": 9999,
      "fzfg": false,
      "metar_trigger": false,
      "taf_trigger": false,
      "metar": "METAR LCLK 210330Z 30006KT 9999 FEW030 SCT045 15/13 Q1015 NOSIG",
      "taf": "TAF LCLK 202330Z 2100/2200 04007KT 9999 SCT030"
    },
    {
      "icao": "LDDU",
      "alert": "OK",
      "vis_m": 9999,
      "fzfg": false,
      "metar_trigger": false,
      "taf_trigger": false,
      "metar": "METAR LDDU 210330Z 07006KT 9999 FEW071 08/04 Q1015 NOSIG",
      "taf": "TAF LDDU 202325Z 2100/2124 05004KT CAVOK TX15/2112Z TN09/2105Z"
    },
    {
      "icao": "LDSP",
      "alert": "OK",
      "vis_m": 9999,
      "fzfg": false,
      "metar_trigger": false,
      "taf_trigger": false,
      "metar": "METAR LDSP 210330Z AUTO 00000KT CAVOK 06/03 Q1015 NOSIG",
      "taf": "TAF LDSP 202325Z 2100/2124 VRB02KT CAVOK TX16/2113Z TN07/2106Z"
    },
    {
      "icao": "LDZA",
      "alert": "OK",
      "vis_m": 2500,
      "fzfg": false,
      "metar_trigger": false,
      "taf_trigger": false,
      "metar": "METAR LDZA 210330Z VRB01KT 2500 BR OVC003 03/02 Q1020 NOSIG",
      "taf": "TAF LDZA 202325Z 2100/2124 VRB02KT 2000 BR OVC003 TX05/2113Z TN03/2100Z"
    },
    {
      "icao": "LEAL",
      "alert": "OK",
      "vis_m": 9999,
      "fzfg": false,
      "metar_trigger": false,
      "taf_trigger": false,
      "metar": "METAR LEAL 210330Z 23005KT CAVOK 11/06 Q1010 NOSIG",
      "taf": "TAF LEAL 202300Z 2100/2124 31012KT 9999 FEW030 TX15/2112Z TN08/2106Z"
    },
    {
      "icao": "LEBL",
      "alert": "OK",
      "vis_m": 9999,
      "fzfg": false,
      "metar_trigger": false,
      "taf_trigger": false,
      "metar": "METAR LEBL 210330Z 32007KT 9999 FEW015 BKN040 11/10 Q1008 NOSIG",
      "taf": "TAF LEBL 202300Z 2100/2124 33008KT 9999 FEW030 BKN050 TX16/2112Z TN09/2106Z"
    },
    {
      "icao": "LECH",
      "alert": "OK",
      "vis_m": 7000,
      "fzfg": false,
      "metar_trigger": false,
      "taf_trigger": false,
      "metar": "METAR LECH 210330Z AUTO 18003KT 7000 NCD 06/05 Q1008",
      "taf": ""
    },
    {
      "icao": "LEMD",
      "alert": "OK",
      "vis_m": 9999,
      "fzfg": false,
      "metar_trigger": false,
      "taf_trigger": false,
      "metar": "METAR LEMD 210330Z 15011KT 9999 BKN012 BKN020 06/05 Q1006 NOSIG",
      "taf": ""
    },
    {
      "icao": "LEMG",
      "alert": "OK",
      "vis_m": 9999,
      "fzfg": false,
      "metar_trigger": false,
      "taf_trigger": false,
      "metar": "METAR LEMG 210330Z 31005KT 9999 -RA SCT035 BKN045 07/05 Q1013 NOSIG",
      "taf": "TAF LEMG 202300Z 2100/2124 30006KT 9999 FEW030 TX13/2114Z TN05/2106Z"
    },
    {
      "icao": "LERS",
      "alert": "OK",
      "vis_m": 9999,
      "fzfg": false,
      "metar_trigger": false,
      "taf_trigger": false,
      "metar": "METAR LERS 210330Z AUTO 03005KT CAVOK 10/08 Q1008",
      "taf": "TAF LERS 210200Z 2103/2203 36005KT 9999 FEW020 TX15/2112Z TN06/2106Z"
    },
    {
      "icao": "LEVC",
      "alert": "OK",
      "vis_m": 9999,
      "fzfg": false,
      "metar_trigger": false,
      "taf_trigger": false,
      "metar": "METAR LEVC 210330Z 27009KT CAVOK 09/04 Q1010 NOSIG",
      "taf": "TAF LEVC 202300Z 2100/2124 26008KT 9999 FEW040 TX16/2112Z TN06/2107Z"
    },
    {
      "icao": "LFLL",
      "alert": "OK",
      "vis_m": 9999,
      "fzfg": false,
      "metar_trigger": false,
      "taf_trigger": false,
      "metar": "METAR LFLL 210330Z 13007KT CAVOK 08/06 Q1010 NOSIG",
      "taf": "TAF LFLL 202300Z 2100/2206 14006KT CAVOK"
    },
    {
      "icao": "LFMN",
      "alert": "OK",
      "vis_m": 9999,
      "fzfg": false,
      "metar_trigger": false,
      "taf_trigger": false,
      "metar": "METAR LFMN 210330Z 32009KT 9999 BKN060 12/10 Q1012 NOSIG",
      "taf": "TAF LFMN 210200Z 2103/2209 33010KT 9999 BKN050"
    },
    {
      "icao": "LFOB",
      "alert": "OK",
      "vis_m": 4700,
      "fzfg": false,
      "metar_trigger": false,
      "taf_trigger": false,
      "metar": "METAR LFOB 210330Z AUTO 12006KT 4700 BR OVC003 09/09 Q1009 TEMPO 0500 FG VV///",
      "taf": "TAF LFOB 202300Z 2100/2124 13005KT 6000 OVC006"
    },
    {
      "icao": "LFPO",
      "alert": "OK",
      "vis_m": 8000,
      "fzfg": false,
      "metar_trigger": false,
      "taf_trigger": false,
      "metar": "METAR LFPO 210330Z AUTO 00000KT 8000 FEW004 OVC160 09/08 Q1009 TEMPO 4000 BR VV///",
      "taf": "TAF LFPO 202300Z 2100/2206 16005KT 8000 FEW005 BKN093 OVC160"
    },
    {
      "icao": "LFSB",
      "alert": "OK",
      "vis_m": 9999,
      "fzfg": false,
      "metar_trigger": false,
      "taf_trigger": false,
      "metar": "METAR LFSB 210330Z AUTO 20002KT CAVOK 02/01 Q1012 TEMPO 3000 BR",
      "taf": "TAF LFSB 202300Z 2100/2124 VRB02KT CAVOK"
    },
    {
      "icao": "LGAV",
      "alert": "OK",
      "vis_m": 9999,
      "fzfg": false,
      "metar_trigger": false,
      "taf_trigger": false,
      "metar": "METAR LGAV 210320Z 01006KT 9999 FEW025 13/08 Q1015 NOSIG",
      "taf": "TAF LGAV 202300Z 2100/2124 02012KT 9999 SCT025"
    },
    {
      "icao": "LGIR",
      "alert": "OK",
      "vis_m": 9999,
      "fzfg": false,
      "metar_trigger": false,
      "taf_trigger": false,
      "metar": "METAR LGIR 210320Z 18004KT 9999 FEW018 BKN025 BKN080 10/09 Q1013 NOSIG",
      "taf": "TAF LGIR 202300Z 2100/2124 18008KT 9999 SCT020 BKN080"
    },
    {
      "icao": "LGKR",
      "alert": "OK",
      "vis_m": 8000,
      "fzfg": false,
      "metar_trigger": false,
      "taf_trigger": false,
      "metar": "METAR LGKR 210320Z VRB02KT 8000 FEW010 08/07 Q1014 NOSIG",
      "taf": "TAF LGKR 202300Z 2100/2124 VRB05KT 9999 SCT015"
    },
    {
      "icao": "LGRP",
      "alert": "OK",
      "vis_m": 9999,
      "fzfg": false,
      "metar_trigger": false,
      "taf_trigger": false,
      "metar": "METAR LGRP 210320Z VRB03KT 9999 FEW018CB BKN020 17/13 Q1012 RERA NOSIG",
      "taf": "TAF LGRP 202300Z 2100/2124 VRB05KT 9999 FEW018 SCT020"
    },
    {
      "icao": "LGTS",
      "alert": "OK",
      "vis_m": 8000,
      "fzfg": false,
      "metar_trigger": false,
      "taf_trigger": false,
      "metar": "METAR LGTS 210320Z VRB01KT 8000 FEW008 SCT030 07/07 Q1018 NOSIG",
      "taf": "TAF LGTS 202300Z 2100/2124 VRB03KT 8000 FEW010"
    },
    {
      "icao": "LGZA",
      "alert": "OK",
      "vis_m": null,
      "fzfg": false,
      "metar_trigger": false,
      "taf_trigger": false,
      "metar": "",
      "taf": "TAF LGZA 210200Z 2103/2112 VRB05KT 9999 SCT020 BKN070"
    },
    {
      "icao": "LHBP",
      "alert": "OK",
      "vis_m": 7000,
      "fzfg": false,
      "metar_trigger": false,
      "taf_trigger": false,
      "metar": "METAR LHBP 210330Z VRB02KT 7000 OVC007 05/04 Q1020 NOSIG",
      "taf": "TAF LHBP 202315Z 2100/2124 VRB03KT 8000 OVC010"
    },
    {
      "icao": "LHDC",
      "alert": "OK",
      "vis_m": 4600,
      "fzfg": false,
      "metar_trigger": false,
      "taf_trigger": false,
      "metar": "METAR LHDC 210315Z AUTO 20004KT 4600 BR OVC008 05/05 Q1020",
      "taf": ""
    },
    {
      "icao": "LIBD",
      "alert": "OK",
      "vis_m": 9999,
      "fzfg": false,
      "metar_trigger": false,
      "taf_trigger": false,
      "metar": "METAR LIBD 210320Z 25003KT 9999 SCT020 08/08 Q1015",
      "taf": "TAF LIBD 202300Z 2100/2124 VRB04KT 9999 SCT040"
    },
    {
      "icao": "LICC",
      "alert": "OK",
      "vis_m": 9999,
      "fzfg": false,
      "metar_trigger": false,
      "taf_trigger": false,
      "metar": "METAR LICC 210320Z 03009KT 9999 BKN020 15/14 Q1012",
      "taf": "TAF LICC 202300Z 2100/2124 05008KT 9999 SCT020"
    },
    {
      "icao": "LICJ",
      "alert": "OK",
      "vis_m": 9999,
      "fzfg": false,
      "metar_trigger": false,
      "taf_trigger": false,
      "metar": "METAR LICJ 210320Z 06010KT CAVOK 15/10 Q1011",
      "taf": "TAF LICJ 202300Z 2100/2124 VRB06KT 9999 SCT040"
    },
    {
      "icao": "LIEO",
      "alert": "OK",
      "vis_m": 9999,
      "fzfg": false,
      "metar_trigger": false,
      "taf_trigger": false,
      "metar": "METAR LIEO 210320Z VRB01KT 9999 OVC025 10/10 Q1012",
      "taf": "TAF LIEO 202300Z 2100/2124 VRB05KT 9999 BKN020"
    },
    {
      "icao": "LIMC",
      "alert": "OK",
      "vis_m": 5000,
      "fzfg": false,
      "metar_trigger": false,
      "taf_trigger": false,
      "metar": "METAR LIMC 210320Z 02003KT 5000 BR OVC050 07/07 Q1016 NOSIG",
      "taf": "TAF LIMC 202300Z 2100/2206 VRB03KT 2000 BR SCT003 BKN050"
    },
    {
      "icao": "LIME",
      "alert": "OK",
      "vis_m": 9000,
      "fzfg": false,
      "metar_trigger": false,
      "taf_trigger": false,
      "metar": "METAR LIME 210320Z 04002KT 9000 SCT010 BKN050 04/04 Q1016 NOSIG",
      "taf": "TAF LIME 202300Z 2100/2124 VRB03KT 9000 BKN060"
    },
    {
      "icao": "LIPH",
      "alert": "OK",
      "vis_m": 6000,
      "fzfg": false,
      "metar_trigger": false,
      "taf_trigger": false,
      "metar": "METAR LIPH 210320Z AUTO 30001KT 6000 NCD 02/02 Q1017",
      "taf": "TAF LIPH 202300Z 2100/2124 VRB04KT 8000 FEW030"
    },
    {
      "icao": "LIPQ",
      "alert": "OK",
      "vis_m": 6000,
      "fzfg": false,
      "metar_trigger": false,
      "taf_trigger": false,
      "metar": "METAR LIPQ 210320Z AUTO VRB02KT 6000 NCD 01/01 Q1016",
      "taf": "TAF LIPQ 202300Z 2100/2124 VRB04KT CAVOK"
    },
    {
      "icao": "LIPX",
      "alert": "OK",
      "vis_m": 600,
      "fzfg": false,
      "metar_trigger": false,
      "taf_trigger": false,
      "metar": "METAR LIPX 210320Z VRB01KT 0600 R04/0450D FG BKN003 02/02 Q1017",
      "taf": "TAF LIPX 202300Z 2100/2124 VRB03KT 7000 FEW003"
    },
    {
      "icao": "LIPY",
      "alert": "OK",
      "vis_m": 5000,
      "fzfg": false,
      "metar_trigger": false,
      "taf_trigger": false,
      "metar": "METAR LIPY 210320Z AUTO 21003KT 5000 BR BKN011/// 10/10 Q1016",
      "taf": "TAF LIPY 202300Z 2100/2124 VRB05KT 8000 OVC013"
    },
    {
      "icao": "LIPZ",
      "alert": "OK",
      "vis_m": 9999,
      "fzfg": false,
      "metar_trigger": false,
      "taf_trigger": false,
      "metar": "METAR LIPZ 210320Z 35005KT CAVOK 04/03 Q1017 NOSIG",
      "taf": "TAF LIPZ 202300Z 2100/2206 VRB04KT 8000 FEW020"
    },
    {
      "icao": "LIRA",
      "alert": "OK",
      "vis_m": 9999,
      "fzfg": false,
      "metar_trigger": false,
      "taf_trigger": false,
      "metar": "METAR LIRA 210320Z 05002KT CAVOK 06/05 Q1014",
      "taf": "TAF LIRA 202300Z 2100/2124 VRB05KT CAVOK"
    },
    {
      "icao": "LIRN",
      "alert": "OK",
      "vis_m": 9999,
      "fzfg": false,
      "metar_trigger": false,
      "taf_trigger": false,
      "metar": "METAR LIRN 210320Z 01003KT CAVOK 09/07 Q1014 NOSIG",
      "taf": "TAF LIRN 202300Z 2100/2124 05006KT CAVOK"
    },
    {
      "icao": "LLBG",
      "alert": "OK",
      "vis_m": 9999,
      "fzfg": false,
      "metar_trigger": false,
      "taf_trigger": false,
      "metar": "METAR LLBG 210320Z VRB02KT CAVOK 11/08 Q1014 NOSIG",
      "taf": "TAF LLBG 202308Z 2100/2124 VRB04KT CAVOK"
    },
    {
      "icao": "LMML",
      "alert": "OK",
      "vis_m": 9999,
      "fzfg": false,
      "metar_trigger": false,
      "taf_trigger": false,
      "metar": "METAR LMML 210345Z 21003KT 170V250 9999 FEW015 15/14 Q1011 NOSIG",
      "taf": "TAF LMML 202300Z 2100/2124 13007KT 9999 SCT014"
    },
    {
      "icao": "LOWW",
      "alert": "OK",
      "vis_m": 1200,
      "fzfg": false,
      "metar_trigger": false,
      "taf_trigger": false,
      "metar": "METAR LOWW 210320Z 15007KT 1200 R16/P1500N R29/1500D -DZ BR VV002 01/01 Q1019 TEMPO 1500 -DZ BR OVC001",
      "taf": "TAF LOWW 210215Z 2103/2209 14007KT 3000 BR SCT001 OVC002 TX04/2201Z TN01/2106Z"
    },
    {
      "icao": "LPFR",
      "alert": "OK",
      "vis_m": 9999,
      "fzfg": false,
      "metar_trigger": false,
      "taf_trigger": false,
      "metar": "METAR LPFR 210330Z 25019KT 9999 FEW014 FEW018CB 14/11 Q1011",
      "taf": "TAF LPFR 202300Z 2100/2124 VRB05KT 9999 SCT020"
    },
    {
      "icao": "LPPR",
      "alert": "OK",
      "vis_m": 9999,
      "fzfg": false,
      "metar_trigger": false,
      "taf_trigger": false,
      "metar": "METAR LPPR 210330Z VRB02KT 9999 FEW020 BKN035 07/05 Q1006",
      "taf": "TAF LPPR 202300Z 2100/2124 26010KT 9999 SCT018"
    },
    {
      "icao": "LPPT",
      "alert": "OK",
      "vis_m": 9999,
      "fzfg": false,
      "metar_trigger": false,
      "taf_trigger": false,
      "metar": "METAR LPPT 210330Z 26008KT 230V290 9999 FEW025 10/07 Q1009",
      "taf": "TAF LPPT 202300Z 2100/2206 24010KT 9999 SCT025"
    },
    {
      "icao": "LQSA",
      "alert": "OK",
      "vis_m": 6000,
      "fzfg": false,
      "metar_trigger": false,
      "taf_trigger": false,
      "metar": "METAR LQSA 210330Z 11004KT 090V150 6000 BKN004 01/01 Q1018",
      "taf": "TAF LQSA 202300Z 2100/2124 VRB02KT 3000 BR BKN003 TX04/2113Z TNM01/2105Z"
    },
    {
      "icao": "LQTZ",
      "alert": "OK",
      "vis_m": 1200,
      "fzfg": false,
      "metar_trigger": false,
      "taf_trigger": false,
      "metar": "METAR LQTZ 210330Z 15002KT 1200 R09/0900N BR OVC003 03/03 Q1019",
      "taf": ""
    },
    {
      "icao": "LRCL",
      "alert": "OK",
      "vis_m": 8000,
      "fzfg": false,
      "metar_trigger": false,
      "taf_trigger": false,
      "metar": "METAR LRCL 210330Z 08003KT 8000 SCT005 03/02 Q1019",
      "taf": "TAF LRCL 210200Z 2103/2112 VRB04KT 3000 BR NSC"
    },
    {
      "icao": "LRCV",
      "alert": "OK",
      "vis_m": 900,
      "fzfg": false,
      "metar_trigger": false,
      "taf_trigger": false,
      "metar": "METAR LRCV 210330Z COR 03002KT 0900 R26/1900N FG OVC002 03/03 Q1020",
      "taf": "TAF LRCV 210200Z 2103/2112 VRB04KT 0200 FG VV001"
    },
    {
      "icao": "LRIA",
      "alert": "OK",
      "vis_m": 300,
      "fzfg": false,
      "metar_trigger": false,
      "taf_trigger": false,
      "metar": "METAR LRIA 210330Z 11007KT 0300 R14/0650N FG VV001 01/01 Q1020",
      "taf": "TAF LRIA 210200Z 2103/2112 11006KT 0400 FG OVC002"
    },
    {
      "icao": "LROP",
      "alert": "OK",
      "vis_m": 5000,
      "fzfg": false,
      "metar_trigger": false,
      "taf_trigger": false,
      "metar": "METAR LROP 210330Z 31002KT 5000 BR BKN003 02/02 Q1020 TEMPO 1500 BR",
      "taf": ""
    },
    {
      "icao": "LRSB",
      "alert": "OK",
      "vis_m": 250,
      "fzfg": false,
      "metar_trigger": false,
      "taf_trigger": false,
      "metar": "METAR LRSB 210330Z VRB01KT 0250 R27/0400N BCFG FEW003 M03/M03 Q1019",
      "taf": ""
    },
    {
      "icao": "LRTR",
      "alert": "OK",
      "vis_m": 450,
      "fzfg": false,
      "metar_trigger": false,
      "taf_trigger": false,
      "metar": "METAR LRTR 210330Z 01005KT 0450 R29/0900D FG VV002 04/04 Q1020",
      "taf": "TAF LRTR 202300Z 2100/2124 VRB04KT 0200 FG VV001"
    },
    {
      "icao": "LTAF",
      "alert": "OK",
      "vis_m": 9999,
      "fzfg": false,
      "metar_trigger": false,
      "taf_trigger": false,
      "metar": "METAR LTAF 210320Z 03003KT CAVOK 09/05 Q1017 NOSIG RMK RWY23 06005KT 4AC100",
      "taf": "TAF LTAF 202240Z 2100/2124 02008KT CAVOK"
    },
    {
      "icao": "LTAI",
      "alert": "OK",
      "vis_m": 9999,
      "fzfg": false,
      "metar_trigger": false,
      "taf_trigger": false,
      "metar": "METAR LTAI 210320Z 35006KT 9999 VCTS FEW020CB BKN030 13/08 Q1015 TEMPO 4000 TSRA RMK RWY18C 34004KT RWY36R 35005KT RWY18L 01004KT",
      "taf": "TAF LTAI 202240Z 2100/2124 34009KT 9999 BKN025 BKN090"
    },
    {
      "icao": "LTFM",
      "alert": "OK",
      "vis_m": 9999,
      "fzfg": false,
      "metar_trigger": false,
      "taf_trigger": false,
      "metar": "METAR LTFM 210320Z 06004KT 9999 SCT022 BKN026 12/08 Q1017 NOSIG RMK RWY17L 11002KT RWY34L 08003KT RWY16R 11003KT RWY36 09003KT 020V120 RWY18 13002KT",
      "taf": "TAF LTFM 202240Z 2100/2206 05008KT 9999 SCT016 BKN022"
    },
    {
      "icao": "LUBL",
      "alert": "OK",
      "vis_m": null,
      "fzfg": false,
      "metar_trigger": false,
      "taf_trigger": false,
      "metar": "",
      "taf": ""
    },
    {
      "icao": "LUKK",
      "alert": "OK",
      "vis_m": 450,
      "fzfg": true,
      "metar_trigger": false,
      "taf_trigger": false,
      "metar": "METAR LUKK 210330Z VRB02KT 0450 0400SW R08/0450N FZFG VV001 M01/M01 Q1020 NOSIG",
      "taf": "TAF LUKK 202317Z 2100/2124 VRB04KT 0300 FZFG VV001"
    },
    {
      "icao": "LWSK",
      "alert": "OK",
      "vis_m": null,
      "fzfg": true,
      "metar_trigger": false,
      "taf_trigger": false,
      "metar": "",
      "taf": "TAF LWSK 210230Z 2103/2203 VRB02KT 0200 FZFG VV002"
    },
    {
      "icao": "LYBE",
      "alert": "OK",
      "vis_m": 500,
      "fzfg": false,
      "metar_trigger": false,
      "taf_trigger": false,
      "metar": "METAR LYBE 210330Z 30002KT 0500 R12L/P2000N R30R/1000U FG OVC009 04/03 Q1020 NOSIG",
      "taf": "TAF LYBE 202300Z 2100/2124 06004KT 0500 FG VV001 TX05/2113Z TN03/2106Z"
    },
    {
      "icao": "LZIB",
      "alert": "OK",
      "vis_m": 7000,
      "fzfg": false,
      "metar_trigger": false,
      "taf_trigger": false,
      "metar": "METAR LZIB 210330Z 10004KT 7000 -DZ BKN003 OVC004 03/03 Q1020 NOSIG",
      "taf": ""
    },
    {
      "icao": "LZKZ",
      "alert": "OK",
      "vis_m": 9000,
      "fzfg": false,
      "metar_trigger": false,
      "taf_trigger": false,
      "metar": "METAR LZKZ 210330Z VRB02KT 9000 OVC007 03/03 Q1019 NOSIG",
      "taf": "TAF LZKZ 202315Z 2100/2200 VRB02KT 5000 SCT011 BKN030"
    },
    {
      "icao": "LZTT",
      "alert": "OK",
      "vis_m": 9999,
      "fzfg": false,
      "metar_trigger": false,
      "taf_trigger": false,
      "metar": "METAR LZTT 210330Z VRB02KT CAVOK M04/M05 Q1018",
      "taf": ""
    },
    {
      "icao": "OEJN",
      "alert": "OK",
      "vis_m": 9999,
      "fzfg": false,
      "metar_trigger": false,
      "taf_trigger": false,
      "metar": "METAR OEJN 210300Z 10007KT CAVOK 22/00 Q1012 NOSIG",
      "taf": "TAF OEJN 202300Z 2100/2206 06008KT CAVOK"
    },
    {
      "icao": "OEMA",
      "alert": "OK",
      "vis_m": 9999,
      "fzfg": false,
      "metar_trigger": false,
      "taf_trigger": false,
      "metar": "METAR OEMA 210300Z 06006KT CAVOK 11/M07 Q1020 NOSIG",
      "taf": "TAF OEMA 202300Z 2100/2206 09010KT CAVOK"
    },
    {
      "icao": "OERK",
      "alert": "OK",
      "vis_m": 9999,
      "fzfg": false,
      "metar_trigger": false,
      "taf_trigger": false,
      "metar": "METAR OERK 210300Z 28003KT CAVOK 06/01 Q1021 NOSIG",
      "taf": "TAF OERK 202300Z 2100/2206 30008KT 7000 NSC"
    },
    {
      "icao": "OJAI",
      "alert": "OK",
      "vis_m": 5000,
      "fzfg": false,
      "metar_trigger": false,
      "taf_trigger": false,
      "metar": "METAR OJAI 210300Z 12008KT 5000 BR NSC 06/04 Q1019 NOSIG",
      "taf": "TAF OJAI 202300Z 2100/2206 13006KT 4000 BR NSC"
    },
    {
      "icao": "OKBK",
      "alert": "OK",
      "vis_m": null,
      "fzfg": false,
      "metar_trigger": false,
      "taf_trigger": false,
      "metar": "",
      "taf": ""
    },
    {
      "icao": "OMAA",
      "alert": "OK",
      "vis_m": 9999,
      "fzfg": false,
      "metar_trigger": false,
      "taf_trigger": false,
      "metar": "METAR OMAA 210300Z 21004KT CAVOK 13/05 Q1019 NOSIG",
      "taf": "TAF OMAA 202300Z 2100/2206 19006KT 9999 FEW040"
    },
    {
      "icao": "UAAA",
      "alert": "OK",
      "vis_m": 5000,
      "fzfg": false,
      "metar_trigger": false,
      "taf_trigger": false,
      "metar": "METAR UAAA 210330Z 34002MPS 5000 -SHSN BR BKN018CB OVC100 M01/M02 Q1020 NOSIG",
      "taf": "TAF UAAA 202301Z 2100/2124 06003MPS 3100 BR BKN015CB OVC050 TX00/2107Z TNM03/2101Z"
    },
    {
      "icao": "UCFM",
      "alert": "OK",
      "vis_m": 500,
      "fzfg": true,
      "metar_trigger": false,
      "taf_trigger": false,
      "metar": "METAR UCFM 210330Z 35001MPS 0500 0450E R07/0550N -SN FZFG OVC023 M01/M01 Q1020 NOSIG",
      "taf": "TAF UCFM 202251Z 2100/2124 12003MPS 1000 BR FEW004 BKN040CB"
    },
    {
      "icao": "UDYZ",
      "alert": "OK",
      "vis_m": 4100,
      "fzfg": false,
      "metar_trigger": false,
      "taf_trigger": false,
      "metar": "METAR UDYZ 210330Z 00000KT 4100 BR NSC M06/M09 Q1026 NOSIG",
      "taf": "TAF UDYZ 202300Z 2100/2124 VRB04KT 3500 BR NSC"
    },
    {
      "icao": "UGTB",
      "alert": "OK",
      "vis_m": 8000,
      "fzfg": false,
      "metar_trigger": false,
      "taf_trigger": false,
      "metar": "METAR UGTB 210330Z 06003KT 340V100 8000 OVC025 01/M01 Q1026 NOSIG",
      "taf": ""
    },
    {
      "icao": "UKKK",
      "alert": "OK",
      "vis_m": null,
      "fzfg": false,
      "metar_trigger": false,
      "taf_trigger": false,
      "metar": "",
      "taf": ""
    },
    {
      "icao": "UTTT",
      "alert": "OK",
      "vis_m": null,
      "fzfg": false,
      "metar_trigger": false,
      "taf_trigger": false,
      "metar": "",
      "taf": ""
    }
  ]
}