{
  "ts_utc": "2026-01-30T17:35:10Z",
  "threshold_m": 150,
  "source": "stations_override.txt (ICAO list) + aviationweather.gov (METAR/TAF raw)",
  "station_count": 159,
  "stations": [
    {
      "icao": "BIKF",
      "alert": "OK",
      "vis_m": 9999,
      "fzfg": false,
      "metar_trigger": false,
      "taf_trigger": false,
      "metar": "METAR BIKF 301730Z 04002KT CAVOK 02/01 Q0999",
      "taf": "TAF BIKF 301657Z 3018/3118 02008KT 9999 FEW040 TX03/3115Z TNM02/3023Z"
    },
    {
      "icao": "BKPR",
      "alert": "OK",
      "vis_m": 9999,
      "fzfg": false,
      "metar_trigger": false,
      "taf_trigger": false,
      "metar": "METAR BKPR 301730Z 33005KT 9999 SCT020 BKN035 06/06 Q1001 NOSIG",
      "taf": "TAF BKPR 301730Z 3018/3118 VRB05KT 9999 SCT015 BKN030"
    },
    {
      "icao": "EBCI",
      "alert": "OK",
      "vis_m": 9999,
      "fzfg": false,
      "metar_trigger": false,
      "taf_trigger": false,
      "metar": "METAR EBCI 301720Z 15007KT 110V170 9999 BKN008 05/04 Q0994 NOSIG",
      "taf": "TAF EBCI 301720Z 3018/3124 16007KT 9999 BKN008"
    },
    {
      "icao": "EDDB",
      "alert": "OK",
      "vis_m": 7000,
      "fzfg": false,
      "metar_trigger": false,
      "taf_trigger": false,
      "metar": "METAR EDDB 301720Z AUTO 09009KT 7000 OVC010 M02/M03 Q1006 TEMPO 2500 -SN",
      "taf": "TAF EDDB 301100Z 3012/3112 09010KT 5000 -SN OVC010"
    },
    {
      "icao": "EDDH",
      "alert": "OK",
      "vis_m": 9999,
      "fzfg": false,
      "metar_trigger": false,
      "taf_trigger": false,
      "metar": "METAR EDDH 301720Z AUTO 11012KT 080V140 9999 OVC011 M02/M04 Q1004 NOSIG",
      "taf": "TAF EDDH 301700Z 3018/3124 10012KT 9000 OVC012"
    },
    {
      "icao": "EDDK",
      "alert": "OK",
      "vis_m": 9999,
      "fzfg": false,
      "metar_trigger": false,
      "taf_trigger": false,
      "metar": "METAR EDDK 301720Z AUTO 12010KT 090V160 9999 OVC013 03/00 Q0998 NOSIG",
      "taf": "TAF EDDK 301700Z 3018/3124 12009KT 9999 OVC014"
    },
    {
      "icao": "EDDN",
      "alert": "OK",
      "vis_m": 9999,
      "fzfg": false,
      "metar_trigger": false,
      "taf_trigger": false,
      "metar": "METAR EDDN 301720Z AUTO 11008KT 9999 OVC013 01/M01 Q1001 NOSIG",
      "taf": "TAF EDDN 301700Z 3018/3118 13005KT 9999 OVC012"
    },
    {
      "icao": "EDDS",
      "alert": "OK",
      "vis_m": 9999,
      "fzfg": false,
      "metar_trigger": false,
      "taf_trigger": false,
      "metar": "METAR EDDS 301720Z AUTO VRB02KT 9999 -DZ BKN018 OVC022 04/02 Q0999 NOSIG",
      "taf": "TAF EDDS 301700Z 3018/3118 12004KT 9999 BKN015"
    },
    {
      "icao": "EDFH",
      "alert": "OK",
      "vis_m": 300,
      "fzfg": true,
      "metar_trigger": false,
      "taf_trigger": false,
      "metar": "METAR EDFH 301720Z 14012KT 0300 R21/0800U -FZDZ FZFG VV/// 00/00 Q0997",
      "taf": "TAF EDFH 301700Z 3018/3118 14011KT 0600 FG VV002"
    },
    {
      "icao": "EDJA",
      "alert": "OK",
      "vis_m": 9999,
      "fzfg": false,
      "metar_trigger": false,
      "taf_trigger": false,
      "metar": "METAR EDJA 301720Z 20003KT 9999 -RA SCT011 OVC013 01/M00 Q1000",
      "taf": "TAF EDJA 301700Z 3018/3103 17004KT 9999 BKN020"
    },
    {
      "icao": "EDLW",
      "alert": "OK",
      "vis_m": 9999,
      "fzfg": false,
      "metar_trigger": false,
      "taf_trigger": false,
      "metar": "METAR EDLW 301720Z 10005KT CAVOK 02/M01 Q0998",
      "taf": "TAF EDLW 301700Z 3018/3118 11007KT CAVOK"
    },
    {
      "icao": "EDNY",
      "alert": "OK",
      "vis_m": 6000,
      "fzfg": false,
      "metar_trigger": false,
      "taf_trigger": false,
      "metar": "METAR EDNY 301720Z 00000KT 6000 RA OVC020 01/01 Q1001",
      "taf": "TAF EDNY 301700Z 3018/3103 VRB02KT 6000 SCT008 BKN015"
    },
    {
      "icao": "EDSB",
      "alert": "OK",
      "vis_m": 7000,
      "fzfg": false,
      "metar_trigger": false,
      "taf_trigger": false,
      "metar": "METAR EDSB 301720Z 06003KT 020V080 7000 DZ FEW017 BKN026 OVC032 02/02 Q1000",
      "taf": "TAF EDSB 301700Z 3018/3118 30004KT 6000 FEW015 OVC020"
    },
    {
      "icao": "EETN",
      "alert": "OK",
      "vis_m": 9999,
      "fzfg": false,
      "metar_trigger": false,
      "taf_trigger": false,
      "metar": "METAR EETN 301720Z 07001KT CAVOK M17/M19 Q1027 NOSIG",
      "taf": "TAF EETN 301730Z 3018/3118 VRB02KT 9999 SCT003"
    },
    {
      "icao": "EFTU",
      "alert": "OK",
      "vis_m": 9999,
      "fzfg": false,
      "metar_trigger": false,
      "taf_trigger": false,
      "metar": "METAR EFTU 301720Z AUTO 08002KT CAVOK M17/M19 Q1027",
      "taf": "TAF EFTU 301435Z 3015/3115 07005KT CAVOK"
    },
    {
      "icao": "EGBB",
      "alert": "OK",
      "vis_m": 7000,
      "fzfg": false,
      "metar_trigger": false,
      "taf_trigger": false,
      "metar": "METAR EGBB 301720Z 11012KT 7000 -RA SCT026 08/06 Q0984",
      "taf": "TAF EGBB 301704Z 3018/3118 12010KT 9999 SCT025"
    },
    {
      "icao": "EGGP",
      "alert": "OK",
      "vis_m": 9999,
      "fzfg": false,
      "metar_trigger": false,
      "taf_trigger": false,
      "metar": "METAR EGGP 301720Z 07013KT 9999 FEW039 06/04 Q0984",
      "taf": "TAF EGGP 301658Z 3018/3118 10009KT 9999 SCT016"
    },
    {
      "icao": "EGGW",
      "alert": "OK",
      "vis_m": 9999,
      "fzfg": false,
      "metar_trigger": false,
      "taf_trigger": false,
      "metar": "METAR EGGW 301720Z AUTO 13014KT 9999 -RA BKN013 BKN024 08/06 Q0985",
      "taf": "TAF EGGW 301703Z 3018/3118 14012KT 9999 FEW012 SCT025"
    },
    {
      "icao": "EGKK",
      "alert": "OK",
      "vis_m": 6000,
      "fzfg": false,
      "metar_trigger": false,
      "taf_trigger": false,
      "metar": "METAR EGKK 301720Z 13011KT 6000 -RA BKN011 09/08 Q0986",
      "taf": "TAF EGKK 301701Z 3018/3124 14008KT 9999 SCT015"
    },
    {
      "icao": "EGNM",
      "alert": "OK",
      "vis_m": 250,
      "fzfg": false,
      "metar_trigger": false,
      "taf_trigger": false,
      "metar": "METAR EGNM 301720Z 09012KT 0250 R14/0450N -DZ FG VV/// 04/04 Q0987",
      "taf": "TAF EGNM 301701Z 3018/3118 10009KT 6000 BKN003"
    },
    {
      "icao": "EGPD",
      "alert": "OK",
      "vis_m": 5000,
      "fzfg": false,
      "metar_trigger": false,
      "taf_trigger": false,
      "metar": "METAR EGPD 301720Z 14015KT 5000 RA BKN007 04/02 Q0994 RERA REDZ",
      "taf": "TAF EGPD 301659Z 3018/3118 13015G25KT 9999 BKN016"
    },
    {
      "icao": "EGPF",
      "alert": "OK",
      "vis_m": 9999,
      "fzfg": false,
      "metar_trigger": false,
      "taf_trigger": false,
      "metar": "METAR EGPF 301720Z AUTO 05012KT 9999 BKN023 OVC028 05/02 Q0989",
      "taf": "TAF EGPF 301658Z 3018/3118 08012KT 9999 FEW018 SCT030"
    },
    {
      "icao": "EHBK",
      "alert": "OK",
      "vis_m": 9999,
      "fzfg": false,
      "metar_trigger": false,
      "taf_trigger": false,
      "metar": "METAR EHBK 301725Z AUTO 17007KT 9999 -DZ FEW003/// BKN016/// OVC020/// 05/03 Q0996 TEMPO BKN013",
      "taf": "TAF EHBK 301708Z 3018/3124 15007KT 9999 BKN016"
    },
    {
      "icao": "EHEH",
      "alert": "OK",
      "vis_m": null,
      "fzfg": false,
      "metar_trigger": false,
      "taf_trigger": false,
      "metar": "",
      "taf": "TAF EHEH 301153Z 3012/3118 12007KT 9000 SCT008"
    },
    {
      "icao": "EKBI",
      "alert": "OK",
      "vis_m": 9999,
      "fzfg": false,
      "metar_trigger": false,
      "taf_trigger": false,
      "metar": "METAR EKBI 301720Z AUTO 10016G26KT 9999 -SN OVC015/// M00/M02 Q1006",
      "taf": "TAF EKBI 301727Z 3018/3118 10016KT 9999 BKN016"
    },
    {
      "icao": "EKCH",
      "alert": "OK",
      "vis_m": 9999,
      "fzfg": false,
      "metar_trigger": false,
      "taf_trigger": false,
      "metar": "METAR EKCH 301720Z 09018KT 9999 -SN OVC014 M00/M03 Q1011 TEMPO BKN015",
      "taf": "TAF EKCH 301727Z 3018/3118 09018KT 9999 -SN OVC015"
    },
    {
      "icao": "ENAL",
      "alert": "OK",
      "vis_m": 9999,
      "fzfg": false,
      "metar_trigger": false,
      "taf_trigger": false,
      "metar": "METAR ENAL 301720Z 14012KT 9999 FEW040 M01/M13 Q1011",
      "taf": "TAF ENAL 301400Z 3015/3024 14008KT 9999 FEW045"
    },
    {
      "icao": "ENBR",
      "alert": "OK",
      "vis_m": 9999,
      "fzfg": false,
      "metar_trigger": false,
      "taf_trigger": false,
      "metar": "METAR ENBR 301720Z 09005KT CAVOK M04/M13 Q1010 NOSIG RMK WIND 1200FT 12007KT",
      "taf": "TAF ENBR 301100Z 3012/3112 08004KT CAVOK"
    },
    {
      "icao": "ENGM",
      "alert": "OK",
      "vis_m": 9999,
      "fzfg": false,
      "metar_trigger": false,
      "taf_trigger": false,
      "metar": "METAR ENGM 301720Z 02007KT 9999 -SN OVC028 M07/M10 Q1019 NOSIG",
      "taf": "TAF ENGM 301100Z 3012/3112 02008KT 9999 -SN BKN030"
    },
    {
      "icao": "ENHD",
      "alert": "OK",
      "vis_m": 9999,
      "fzfg": false,
      "metar_trigger": false,
      "taf_trigger": false,
      "metar": "METAR ENHD 301720Z 11008KT 9999 FEW043 M02/M12 Q1010",
      "taf": "TAF ENHD 301400Z 3015/3023 10015KT CAVOK"
    },
    {
      "icao": "ENTC",
      "alert": "OK",
      "vis_m": 9999,
      "fzfg": false,
      "metar_trigger": false,
      "taf_trigger": false,
      "metar": "METAR ENTC 301720Z 19015KT CAVOK M05/M13 Q1020 NOSIG RMK WIND 2600FT 17033KT",
      "taf": "TAF ENTC 301100Z 3012/3112 18008KT CAVOK"
    },
    {
      "icao": "ENTO",
      "alert": "OK",
      "vis_m": 9999,
      "fzfg": false,
      "metar_trigger": false,
      "taf_trigger": false,
      "metar": "METAR ENTO 301720Z 09007KT 050V140 9999 OVC033 M03/M10 Q1017 NOSIG",
      "taf": "TAF ENTO 301100Z 3012/3112 02010KT 9999 -SN FEW012 BKN030"
    },
    {
      "icao": "ENVA",
      "alert": "OK",
      "vis_m": 9999,
      "fzfg": false,
      "metar_trigger": false,
      "taf_trigger": false,
      "metar": "METAR ENVA 301720Z 12010KT 060V170 CAVOK M05/M14 Q1016 NOSIG RMK WIND 670FT 16025G37KT",
      "taf": "TAF ENVA 301100Z 3012/3112 13009KT CAVOK"
    },
    {
      "icao": "ENZV",
      "alert": "OK",
      "vis_m": 9999,
      "fzfg": false,
      "metar_trigger": false,
      "taf_trigger": false,
      "metar": "METAR ENZV 301720Z 11009KT 9999 SCT047 M02/M12 Q1010 NOSIG",
      "taf": ""
    },
    {
      "icao": "EPGD",
      "alert": "OK",
      "vis_m": 9999,
      "fzfg": false,
      "metar_trigger": false,
      "taf_trigger": false,
      "metar": "METAR EPGD 301730Z 11006KT CAVOK M12/M14 Q1014",
      "taf": "TAF EPGD 301730Z 3018/3118 10012KT CAVOK"
    },
    {
      "icao": "EPKK",
      "alert": "OK",
      "vis_m": 3000,
      "fzfg": false,
      "metar_trigger": false,
      "taf_trigger": false,
      "metar": "METAR EPKK 301730Z 07016KT 3000 -FZDZ BR BKN005 OVC006 M02/M03 Q1005",
      "taf": "TAF EPKK 301730Z 3018/3118 06014KT 3000 BR BKN005 OVC006"
    },
    {
      "icao": "EPKT",
      "alert": "OK",
      "vis_m": 9000,
      "fzfg": false,
      "metar_trigger": false,
      "taf_trigger": false,
      "metar": "METAR EPKT 301730Z 08013KT 9000 -FZDZ OVC010 M02/M04 Q1005",
      "taf": "TAF EPKT 301730Z 3018/3118 06012KT 9999 OVC010"
    },
    {
      "icao": "EPLB",
      "alert": "OK",
      "vis_m": 9999,
      "fzfg": false,
      "metar_trigger": false,
      "taf_trigger": false,
      "metar": "METAR EPLB 301730Z 06012KT 9999 OVC011 M07/M08 Q1010",
      "taf": "TAF EPLB 301730Z 3018/3118 08011KT 9999 BKN012"
    },
    {
      "icao": "EPMO",
      "alert": "OK",
      "vis_m": 9999,
      "fzfg": false,
      "metar_trigger": false,
      "taf_trigger": false,
      "metar": "METAR EPMO 301730Z 06016KT CAVOK M08/M10 Q1012",
      "taf": "TAF EPMO 301730Z 3018/3118 07013KT 9999 FEW013"
    },
    {
      "icao": "EPPO",
      "alert": "OK",
      "vis_m": 9000,
      "fzfg": false,
      "metar_trigger": false,
      "taf_trigger": false,
      "metar": "METAR EPPO 301730Z 07010KT 9000 SCT012 OVC038 M04/M06 Q1009",
      "taf": "TAF EPPO 301730Z 3018/3118 09010KT 9999 BKN015"
    },
    {
      "icao": "EPRA",
      "alert": "OK",
      "vis_m": 9999,
      "fzfg": false,
      "metar_trigger": false,
      "taf_trigger": false,
      "metar": "METAR EPRA 301730Z 07011KT 9999 OVC011 M06/M08 Q1010",
      "taf": "TAF EPRA 301430Z 3015/3024 08010KT 8000 OVC011"
    },
    {
      "icao": "EPRZ",
      "alert": "OK",
      "vis_m": 8000,
      "fzfg": false,
      "metar_trigger": false,
      "taf_trigger": false,
      "metar": "METAR EPRZ 301730Z 06014KT 8000 OVC005 M03/M04 Q1007",
      "taf": "TAF EPRZ 301730Z 3018/3118 06012KT 8000 OVC006"
    },
    {
      "icao": "EPSC",
      "alert": "OK",
      "vis_m": 8000,
      "fzfg": false,
      "metar_trigger": false,
      "taf_trigger": false,
      "metar": "METAR EPSC 301730Z 08010KT 8000 BKN008 M04/M06 Q1009",
      "taf": "TAF EPSC 301730Z 3018/3118 08012KT 9999 BKN008 BKN012"
    },
    {
      "icao": "EPSY",
      "alert": "OK",
      "vis_m": 9999,
      "fzfg": false,
      "metar_trigger": false,
      "taf_trigger": false,
      "metar": "METAR EPSY 301730Z 07007KT 030V110 CAVOK M11/M14 Q1015",
      "taf": "TAF EPSY 301730Z 3018/3103 07006KT CAVOK"
    },
    {
      "icao": "EPWA",
      "alert": "OK",
      "vis_m": 9999,
      "fzfg": false,
      "metar_trigger": false,
      "taf_trigger": false,
      "metar": "METAR EPWA 301730Z 06013KT 9999 SCT013 M06/M09 Q1012 NOSIG",
      "taf": "TAF EPWA 301730Z 3018/3118 07011KT 9999 OVC013"
    },
    {
      "icao": "EPWR",
      "alert": "OK",
      "vis_m": 8000,
      "fzfg": false,
      "metar_trigger": false,
      "taf_trigger": false,
      "metar": "METAR EPWR 301730Z 08007KT 040V110 8000 BKN020 OVC024 M01/M03 Q1006",
      "taf": "TAF EPWR 301730Z 3018/3118 08010KT 9999 OVC015"
    },
    {
      "icao": "ESGG",
      "alert": "OK",
      "vis_m": 9999,
      "fzfg": false,
      "metar_trigger": false,
      "taf_trigger": false,
      "metar": "METAR ESGG 301720Z 10011KT 9999 BKN030 M04/M10 Q1014",
      "taf": "TAF ESGG 301730Z 3018/3118 10009KT 9999 BKN030"
    },
    {
      "icao": "ESKN",
      "alert": "OK",
      "vis_m": 9999,
      "fzfg": false,
      "metar_trigger": false,
      "taf_trigger": false,
      "metar": "METAR ESKN 301720Z 10015KT 9999 BKN031 M03/M09 Q1021",
      "taf": "TAF ESKN 301730Z 3018/3118 11010KT 9999 BKN030"
    },
    {
      "icao": "ESMS",
      "alert": "OK",
      "vis_m": 9999,
      "fzfg": false,
      "metar_trigger": false,
      "taf_trigger": false,
      "metar": "METAR ESMS 301720Z 09019KT 9999 BKN011 M01/M03 Q1011",
      "taf": "TAF ESMS 301727Z 3018/3118 09018KT 9999 -SN OVC015"
    },
    {
      "icao": "ESSA",
      "alert": "OK",
      "vis_m": 9999,
      "fzfg": false,
      "metar_trigger": false,
      "taf_trigger": false,
      "metar": "METAR ESSA 301720Z 08006KT 9999 FEW032 M06/M11 Q1023 NOSIG",
      "taf": "TAF ESSA 301730Z 3018/3118 10009KT 9999 BKN030"
    },
    {
      "icao": "EYKA",
      "alert": "OK",
      "vis_m": 9999,
      "fzfg": false,
      "metar_trigger": false,
      "taf_trigger": false,
      "metar": "METAR EYKA 301720Z 06008KT CAVOK M13/M16 Q1020",
      "taf": "TAF EYKA 301706Z 3018/3118 05005KT 9000 NSC"
    },
    {
      "icao": "EYPA",
      "alert": "OK",
      "vis_m": 9999,
      "fzfg": false,
      "metar_trigger": false,
      "taf_trigger": false,
      "metar": "METAR EYPA 301720Z 09009KT CAVOK M12/M18 Q1021",
      "taf": "TAF EYPA 301705Z 3018/3118 09008KT 9000 NSC"
    },
    {
      "icao": "EYVI",
      "alert": "OK",
      "vis_m": 9999,
      "fzfg": false,
      "metar_trigger": false,
      "taf_trigger": false,
      "metar": "METAR EYVI 301720Z 06009KT CAVOK M14/M17 Q1019 NOSIG",
      "taf": "TAF EYVI 301706Z 3018/3118 06008KT 9000 NSC"
    },
    {
      "icao": "GCFV",
      "alert": "OK",
      "vis_m": 9999,
      "fzfg": false,
      "metar_trigger": false,
      "taf_trigger": false,
      "metar": "METAR GCFV 301700Z 35016KT 320V020 9999 BKN025 22/14 Q1023",
      "taf": "TAF GCFV 301400Z 3015/3115 01014KT 9999 FEW025 TX23/3114Z TN18/3106Z"
    },
    {
      "icao": "GCLP",
      "alert": "OK",
      "vis_m": 9999,
      "fzfg": false,
      "metar_trigger": false,
      "taf_trigger": false,
      "metar": "METAR GCLP 301700Z 01021KT 9999 FEW025 21/15 Q1023 NOSIG",
      "taf": "TAF GCLP 301400Z 3015/3115 01020KT 9999 FEW025 TX22/3114Z TN17/3106Z"
    },
    {
      "icao": "GCTS",
      "alert": "OK",
      "vis_m": 9999,
      "fzfg": false,
      "metar_trigger": false,
      "taf_trigger": false,
      "metar": "METAR GCTS 301700Z 19004KT 150V250 9999 BKN022 20/15 Q1024 NOSIG",
      "taf": ""
    },
    {
      "icao": "GMAD",
      "alert": "OK",
      "vis_m": 8000,
      "fzfg": false,
      "metar_trigger": false,
      "taf_trigger": false,
      "metar": "METAR GMAD 301730Z 16007KT 130V190 8000 SCT026 SCT200 19/17 Q1021 NOSIG",
      "taf": "TAF GMAD 301700Z 3018/3124 20008KT 8000 SCT016"
    },
    {
      "icao": "GMMN",
      "alert": "OK",
      "vis_m": 8000,
      "fzfg": false,
      "metar_trigger": false,
      "taf_trigger": false,
      "metar": "METAR GMMN 301730Z 24011KT 200V260 8000 BKN016 17/15 Q1022 TEMPO 5000 RA",
      "taf": "TAF GMMN 301700Z 3018/3124 24010KT 9999 BKN016"
    },
    {
      "icao": "GMMX",
      "alert": "OK",
      "vis_m": 9999,
      "fzfg": false,
      "metar_trigger": false,
      "taf_trigger": false,
      "metar": "METAR GMMX 301730Z 29005KT 260V330 9999 BKN020 17/13 Q1023 NOSIG",
      "taf": "TAF GMMX 301700Z 3018/3124 28006KT 9999 BKN020"
    },
    {
      "icao": "HEGN",
      "alert": "OK",
      "vis_m": 9999,
      "fzfg": false,
      "metar_trigger": false,
      "taf_trigger": false,
      "metar": "METAR HEGN 301700Z 15003KT CAVOK 21/13 Q1015 NOSIG",
      "taf": "TAF HEGN 301700Z 3018/3124 13008KT CAVOK"
    },
    {
      "icao": "HEMA",
      "alert": "OK",
      "vis_m": 9999,
      "fzfg": false,
      "metar_trigger": false,
      "taf_trigger": false,
      "metar": "METAR HEMA 301700Z 11004KT CAVOK 20/11 Q1014 NOSIG",
      "taf": "TAF HEMA 301700Z 3018/3124 07008KT CAVOK"
    },
    {
      "icao": "HESH",
      "alert": "OK",
      "vis_m": 9999,
      "fzfg": false,
      "metar_trigger": false,
      "taf_trigger": false,
      "metar": "METAR HESH 301700Z 16010KT CAVOK 21/08 Q1013 NOSIG",
      "taf": "TAF HESH 301700Z 3018/3124 30008KT CAVOK"
    },
    {
      "icao": "HESX",
      "alert": "OK",
      "vis_m": 9999,
      "fzfg": false,
      "metar_trigger": false,
      "taf_trigger": false,
      "metar": "METAR HESX 301700Z 29011KT CAVOK 21/02 Q1012 NOSIG",
      "taf": "TAF HESX 301700Z 3018/3124 28012KT 7000 NSC"
    },
    {
      "icao": "LATI",
      "alert": "OK",
      "vis_m": 9999,
      "fzfg": false,
      "metar_trigger": false,
      "taf_trigger": false,
      "metar": "METAR LATI 301720Z 33007KT 9999 -RA FEW030 SCT038 BKN068 10/05 Q1002 NOSIG",
      "taf": "TAF LATI 301700Z 3018/3118 VRB05KT 9999 RA FEW030CB BKN050 TX14/3112Z TN05/3105Z"
    },
    {
      "icao": "LBPD",
      "alert": "OK",
      "vis_m": 9999,
      "fzfg": false,
      "metar_trigger": false,
      "taf_trigger": false,
      "metar": "METAR LBPD 301730Z AUTO 10006KT 070V130 9999 FEW060/// OVC084/// 08/06 Q1001 NOSIG",
      "taf": "TAF LBPD 301700Z 3018/3118 27010KT 9999 SCT030 BKN050"
    },
    {
      "icao": "LBSF",
      "alert": "OK",
      "vis_m": 9999,
      "fzfg": false,
      "metar_trigger": false,
      "taf_trigger": false,
      "metar": "METAR LBSF 301730Z AUTO 27004KT 9999 NCD 04/02 Q1001 NOSIG",
      "taf": "TAF LBSF 301700Z 3018/3118 28010KT 9999 SCT030 BKN050"
    },
    {
      "icao": "LBWN",
      "alert": "OK",
      "vis_m": 9999,
      "fzfg": false,
      "metar_trigger": false,
      "taf_trigger": false,
      "metar": "METAR LBWN 301730Z AUTO 31011KT 280V360 9999 -SHRA FEW016/// SCT033/// 04/02 Q1001 NOSIG",
      "taf": "TAF LBWN 301700Z 3018/3118 28010KT 9999 BKN020 OVC030"
    },
    {
      "icao": "LCLK",
      "alert": "OK",
      "vis_m": 9999,
      "fzfg": false,
      "metar_trigger": false,
      "taf_trigger": false,
      "metar": "METAR LCLK 301730Z 22011KT CAVOK 17/12 Q1008 NOSIG",
      "taf": "TAF LCLK 301730Z 3018/3118 22009KT 9999 FEW030"
    },
    {
      "icao": "LCPH",
      "alert": "OK",
      "vis_m": 9999,
      "fzfg": false,
      "metar_trigger": false,
      "taf_trigger": false,
      "metar": "METAR LCPH 301730Z 27013KT 250V320 9999 SCT025 BKN031 17/12 Q1009 NOSIG",
      "taf": "TAF LCPH 301730Z 3018/3118 27018KT 9999 FEW025"
    },
    {
      "icao": "LEAL",
      "alert": "OK",
      "vis_m": 9999,
      "fzfg": false,
      "metar_trigger": false,
      "taf_trigger": false,
      "metar": "METAR LEAL 301700Z 28003KT 240V350 CAVOK 16/08 Q1006 NOSIG",
      "taf": "TAF LEAL 301700Z 3018/3118 26009KT CAVOK TX18/3114Z TN11/3106Z"
    },
    {
      "icao": "LEBB",
      "alert": "OK",
      "vis_m": 9999,
      "fzfg": false,
      "metar_trigger": false,
      "taf_trigger": false,
      "metar": "METAR LEBB 301700Z 31010KT 270V330 9999 SCT040 BKN060 12/07 Q0999 NOSIG",
      "taf": "TAF LEBB 301700Z 3018/3118 28009KT 9999 FEW035 TX13/3114Z TN07/3022Z"
    },
    {
      "icao": "LEBL",
      "alert": "OK",
      "vis_m": 9999,
      "fzfg": false,
      "metar_trigger": false,
      "taf_trigger": false,
      "metar": "METAR LEBL 301700Z 25014KT 9999 FEW020 SCT055 13/11 Q1003 NOSIG",
      "taf": "TAF LEBL 301700Z 3018/3118 32009KT 9999 FEW050 TX15/3112Z TN09/3106Z"
    },
    {
      "icao": "LECH",
      "alert": "OK",
      "vis_m": 9000,
      "fzfg": false,
      "metar_trigger": false,
      "taf_trigger": false,
      "metar": "METAR LECH 301730Z AUTO 30003KT 260V340 9000 NSC 13/02 Q1002",
      "taf": ""
    },
    {
      "icao": "LEMD",
      "alert": "OK",
      "vis_m": 9999,
      "fzfg": false,
      "metar_trigger": false,
      "taf_trigger": false,
      "metar": "METAR LEMD 301700Z 19007G17KT 150V240 9999 -RA FEW030TCU SCT040 BKN055 08/08 Q1003 RESHRA TEMPO 4000 SHRA",
      "taf": "TAF LEMD 301700Z 3018/3124 22010KT 9999 SCT020 TX11/3115Z TN04/3106Z"
    },
    {
      "icao": "LEMG",
      "alert": "OK",
      "vis_m": 9999,
      "fzfg": false,
      "metar_trigger": false,
      "taf_trigger": false,
      "metar": "METAR LEMG 301700Z 19004KT 160V240 9999 SCT065 18/11 Q1011 NOSIG",
      "taf": "TAF LEMG 301700Z 3018/3118 VRB02KT 9999 BKN050 TX18/3115Z TN12/3106Z"
    },
    {
      "icao": "LEVC",
      "alert": "OK",
      "vis_m": 9999,
      "fzfg": false,
      "metar_trigger": false,
      "taf_trigger": false,
      "metar": "METAR LEVC 301700Z 27012G26KT 220V300 9999 FEW063 15/03 Q1005 NOSIG",
      "taf": "TAF LEVC 301700Z 3018/3118 26010KT CAVOK TX17/3114Z TN10/3106Z"
    },
    {
      "icao": "LEXJ",
      "alert": "OK",
      "vis_m": 9000,
      "fzfg": false,
      "metar_trigger": false,
      "taf_trigger": false,
      "metar": "METAR LEXJ 301700Z 22003KT 170V290 9000 SCT043 11/06 Q0998",
      "taf": ""
    },
    {
      "icao": "LEZG",
      "alert": "OK",
      "vis_m": 9999,
      "fzfg": false,
      "metar_trigger": false,
      "taf_trigger": false,
      "metar": "METAR LEZG 301700Z 23007KT 200V260 9999 SCT060 BKN080 13/04 Q1002 NOSIG",
      "taf": "TAF LEZG 301700Z 3018/3118 25012KT CAVOK TX14/3113Z TN06/3106Z"
    },
    {
      "icao": "LEZL",
      "alert": "OK",
      "vis_m": 9999,
      "fzfg": false,
      "metar_trigger": false,
      "taf_trigger": false,
      "metar": "METAR LEZL 301700Z 24014KT 200V260 9999 SCT015 SCT020 18/15 Q1012 NOSIG",
      "taf": "TAF LEZL 301400Z 3015/3115 23010KT 9999 BKN020 TX18/3015Z TN10/3107Z"
    },
    {
      "icao": "LFBD",
      "alert": "OK",
      "vis_m": 9999,
      "fzfg": false,
      "metar_trigger": false,
      "taf_trigger": false,
      "metar": "METAR LFBD 301730Z AUTO 23010KT 9999 FEW012/// SCT025/// BKN048/// ///TCU 11/09 Q0997 TEMPO 24015G30KT 3000 SHRA BKN020TCU SCT025CB",
      "taf": "TAF LFBD 301700Z 3018/3124 21010KT 9999 BKN020 TX12/3114Z TN06/3106Z"
    },
    {
      "icao": "LFLL",
      "alert": "OK",
      "vis_m": 9999,
      "fzfg": false,
      "metar_trigger": false,
      "taf_trigger": false,
      "metar": "METAR LFLL 301730Z 13008KT CAVOK 08/04 Q1000 NOSIG",
      "taf": "TAF LFLL 301700Z 3018/3124 16008KT CAVOK"
    },
    {
      "icao": "LFLS",
      "alert": "OK",
      "vis_m": 9999,
      "fzfg": false,
      "metar_trigger": false,
      "taf_trigger": false,
      "metar": "METAR LFLS 301730Z AUTO 08010KT CAVOK 04/03 Q1000 NOSIG",
      "taf": "TAF LFLS 301400Z 3015/3115 09008KT 9999 SCT040"
    },
    {
      "icao": "LFMN",
      "alert": "OK",
      "vis_m": 9999,
      "fzfg": false,
      "metar_trigger": false,
      "taf_trigger": false,
      "metar": "METAR LFMN 301730Z 31004KT 9999 BKN053 11/08 Q1001 NOSIG",
      "taf": "TAF LFMN 301400Z 3015/3121 14005KT 9999 FEW025 BKN050"
    },
    {
      "icao": "LFOB",
      "alert": "OK",
      "vis_m": 9999,
      "fzfg": false,
      "metar_trigger": false,
      "taf_trigger": false,
      "metar": "METAR LFOB 301730Z AUTO 13010KT 9999 SCT024/// BKN030/// BKN048/// ///CB 09/07 Q0991 BECMG BKN020",
      "taf": "TAF LFOB 301100Z 3012/3112 18008KT 9999 BKN020"
    },
    {
      "icao": "LFPO",
      "alert": "OK",
      "vis_m": 9999,
      "fzfg": false,
      "metar_trigger": false,
      "taf_trigger": false,
      "metar": "METAR LFPO 301730Z COR 17012KT 9999 FEW046TCU BKN073 BKN100 10/07 Q0993 TEMPO 19015G30KT 4000 -SHRA BKN014TCU",
      "taf": ""
    },
    {
      "icao": "LFSB",
      "alert": "OK",
      "vis_m": 9999,
      "fzfg": false,
      "metar_trigger": false,
      "taf_trigger": false,
      "metar": "METAR LFSB 301730Z AUTO 15003KT 9999 BKN032 OVC041 04/03 Q1000 TEMPO 4500 BR",
      "taf": "TAF LFSB 301100Z 3012/3112 13007KT 8000 BKN030"
    },
    {
      "icao": "LGAV",
      "alert": "OK",
      "vis_m": 9999,
      "fzfg": false,
      "metar_trigger": false,
      "taf_trigger": false,
      "metar": "METAR LGAV 301720Z VRB02KT 9999 FEW025 12/07 Q1003 NOSIG",
      "taf": "TAF LGAV 301700Z 3018/3118 VRB05KT 9999 FEW020"
    },
    {
      "icao": "LGTS",
      "alert": "OK",
      "vis_m": 9999,
      "fzfg": false,
      "metar_trigger": false,
      "taf_trigger": false,
      "metar": "METAR LGTS 301720Z VRB02KT 9999 FEW025 11/07 Q1001 NOSIG",
      "taf": "TAF LGTS 301700Z 3018/3118 34008KT 9999 SCT025"
    },
    {
      "icao": "LHBP",
      "alert": "OK",
      "vis_m": 5000,
      "fzfg": false,
      "metar_trigger": false,
      "taf_trigger": false,
      "metar": "METAR LHBP 301730Z 34004KT 5000 -RA BR SCT006 OVC012 04/03 Q1002 TEMPO 4000 BKN004",
      "taf": "TAF LHBP 301715Z 3018/3118 33005KT 5000 -RADZ BR SCT004 OVC015"
    },
    {
      "icao": "LHDC",
      "alert": "OK",
      "vis_m": 4500,
      "fzfg": false,
      "metar_trigger": false,
      "taf_trigger": false,
      "metar": "METAR LHDC 301715Z AUTO 04006KT 4500 -DZ BR BKN004 03/03 Q1002 NOSIG",
      "taf": "TAF LHDC 301415Z 3015/3024 03008KT 7000 -DZ OVC012"
    },
    {
      "icao": "LIBD",
      "alert": "OK",
      "vis_m": 9999,
      "fzfg": false,
      "metar_trigger": false,
      "taf_trigger": false,
      "metar": "METAR LIBD 301720Z VRB01KT CAVOK 08/06 Q1001",
      "taf": "TAF LIBD 301700Z 3018/3118 VRB05KT CAVOK"
    },
    {
      "icao": "LIBG",
      "alert": "OK",
      "vis_m": 9999,
      "fzfg": false,
      "metar_trigger": false,
      "taf_trigger": false,
      "metar": "METAR LIBG 301650Z 08005KT 050V130 CAVOK 12/07 Q1001",
      "taf": "TAF LIBG 301700Z 3018/3103 VRB05KT CAVOK"
    },
    {
      "icao": "LIBP",
      "alert": "OK",
      "vis_m": 9999,
      "fzfg": false,
      "metar_trigger": false,
      "taf_trigger": false,
      "metar": "METAR LIBP 301720Z AUTO VRB02KT 9999 BKN051/// 09/07 Q1002",
      "taf": "TAF LIBP 301700Z 3018/3118 VRB05KT 7000 FEW050"
    },
    {
      "icao": "LIBR",
      "alert": "OK",
      "vis_m": 9999,
      "fzfg": false,
      "metar_trigger": false,
      "taf_trigger": false,
      "metar": "METAR LIBR 301720Z 05003KT CAVOK 11/06 Q1001",
      "taf": "TAF LIBR 301700Z 3018/3118 VRB05KT CAVOK"
    },
    {
      "icao": "LICA",
      "alert": "OK",
      "vis_m": 9999,
      "fzfg": false,
      "metar_trigger": false,
      "taf_trigger": false,
      "metar": "METAR LICA 301720Z AUTO 23005KT 9999 SCT018/// BKN047/// 10/09 Q1002",
      "taf": "TAF LICA 301700Z 3018/3118 26010KT 8000 SCT015"
    },
    {
      "icao": "LICC",
      "alert": "OK",
      "vis_m": 9999,
      "fzfg": false,
      "metar_trigger": false,
      "taf_trigger": false,
      "metar": "METAR LICC 301720Z 25010KT CAVOK 14/10 Q1001",
      "taf": "TAF LICC 301100Z 3012/3112 27012KT 9999 SCT020"
    },
    {
      "icao": "LICJ",
      "alert": "OK",
      "vis_m": 9999,
      "fzfg": false,
      "metar_trigger": false,
      "taf_trigger": false,
      "metar": "METAR LICJ 301720Z 27019KT 9999 SCT020 15/11 Q1004",
      "taf": "TAF LICJ 301100Z 3012/3112 27016G26KT 9999 FEW025"
    },
    {
      "icao": "LIMC",
      "alert": "OK",
      "vis_m": 6000,
      "fzfg": false,
      "metar_trigger": false,
      "taf_trigger": false,
      "metar": "METAR LIMC 301720Z 18002KT 6000 SCT010 05/04 Q1001 NOSIG",
      "taf": "TAF LIMC 301700Z 3018/3124 VRB05KT 8000 BKN020"
    },
    {
      "icao": "LIME",
      "alert": "OK",
      "vis_m": 4000,
      "fzfg": false,
      "metar_trigger": false,
      "taf_trigger": false,
      "metar": "METAR LIME 301720Z 23005KT 4000 BR SCT025 06/05 Q1001 NOSIG",
      "taf": "TAF LIME 301700Z 3018/3118 VRB04KT 4000 BR SCT015"
    },
    {
      "icao": "LIMF",
      "alert": "OK",
      "vis_m": 5000,
      "fzfg": false,
      "metar_trigger": false,
      "taf_trigger": false,
      "metar": "METAR LIMF 301720Z 14002KT 5000 BR NSC 05/02 Q1001",
      "taf": "TAF LIMF 301700Z 3018/3118 VRB04KT 4000 BR NSC"
    },
    {
      "icao": "LIMJ",
      "alert": "OK",
      "vis_m": 9999,
      "fzfg": false,
      "metar_trigger": false,
      "taf_trigger": false,
      "metar": "METAR LIMJ 301720Z 04009KT 9999 -RA SCT018 BKN038 10/04 Q1000",
      "taf": "TAF LIMJ 301700Z 3018/3118 04010KT 9999 SCT030"
    },
    {
      "icao": "LIPE",
      "alert": "OK",
      "vis_m": 6000,
      "fzfg": false,
      "metar_trigger": false,
      "taf_trigger": false,
      "metar": "METAR LIPE 301720Z VRB01KT 6000 BKN013 07/05 Q1002",
      "taf": "TAF LIPE 301700Z 3018/3118 VRB04KT 4000 BR BKN012"
    },
    {
      "icao": "LIPH",
      "alert": "OK",
      "vis_m": 5000,
      "fzfg": false,
      "metar_trigger": false,
      "taf_trigger": false,
      "metar": "METAR LIPH 301720Z 23004KT 5000 BR NSC 07/06 Q1001",
      "taf": "TAF LIPH 301700Z 3018/3118 VRB04KT 3000 BR BKN020"
    },
    {
      "icao": "LIPQ",
      "alert": "OK",
      "vis_m": 9999,
      "fzfg": false,
      "metar_trigger": false,
      "taf_trigger": false,
      "metar": "METAR LIPQ 301720Z AUTO 27003KT 9999 BKN088/// 07/06 Q1001",
      "taf": "TAF LIPQ 301700Z 3018/3118 VRB04KT 9999 SCT030"
    },
    {
      "icao": "LIPR",
      "alert": "OK",
      "vis_m": 800,
      "fzfg": false,
      "metar_trigger": false,
      "taf_trigger": false,
      "metar": "METAR LIPR 301720Z 23001KT 0800 R30/1800U FG BKN002 04/04 Q1002",
      "taf": "TAF LIPR 301700Z 3018/3118 VRB05KT 1400 BR BKN012"
    },
    {
      "icao": "LIPX",
      "alert": "OK",
      "vis_m": 300,
      "fzfg": false,
      "metar_trigger": false,
      "taf_trigger": false,
      "metar": "METAR LIPX 301720Z VRB01KT 0300 R04/0700N FG VV001 05/05 Q1001",
      "taf": "TAF LIPX 301700Z 3018/3118 VRB05KT 0300 FG OVC003"
    },
    {
      "icao": "LIPY",
      "alert": "OK",
      "vis_m": 9999,
      "fzfg": false,
      "metar_trigger": false,
      "taf_trigger": false,
      "metar": "METAR LIPY 301720Z AUTO 26004KT 220V280 9999 OVC007/// 07/06 Q1002",
      "taf": "TAF LIPY 301700Z 3018/3118 VRB05KT 4000 BR BKN010"
    },
    {
      "icao": "LIPZ",
      "alert": "OK",
      "vis_m": 5000,
      "fzfg": false,
      "metar_trigger": false,
      "taf_trigger": false,
      "metar": "METAR LIPZ 301720Z 23005KT 5000 BR NSC 06/06 Q1001 NOSIG",
      "taf": "TAF LIPZ 301700Z 3018/3124 VRB04KT 3000 BR BKN020"
    },
    {
      "icao": "LIRF",
      "alert": "OK",
      "vis_m": 9999,
      "fzfg": false,
      "metar_trigger": false,
      "taf_trigger": false,
      "metar": "METAR LIRF 301720Z 08004KT 050V120 9999 FEW020 12/09 Q1001 NOSIG",
      "taf": "TAF LIRF 301700Z 3018/3124 07007KT 9999 FEW020"
    },
    {
      "icao": "LIRN",
      "alert": "OK",
      "vis_m": 8000,
      "fzfg": false,
      "metar_trigger": false,
      "taf_trigger": false,
      "metar": "METAR LIRN 301720Z VRB02KT 8000 BKN040 11/09 Q1001 NOSIG",
      "taf": "TAF LIRN 301700Z 3018/3118 VRB06KT 8000 FEW020"
    },
    {
      "icao": "LIRP",
      "alert": "OK",
      "vis_m": 9999,
      "fzfg": false,
      "metar_trigger": false,
      "taf_trigger": false,
      "metar": "METAR LIRP 301715Z 10008KT 9999 FEW025 BKN040 10/09 Q1000 NOSIG",
      "taf": "TAF LIRP 301700Z 3018/3118 12008KT 9999 FEW015 SCT030 BKN050"
    },
    {
      "icao": "LIRZ",
      "alert": "OK",
      "vis_m": 9999,
      "fzfg": false,
      "metar_trigger": false,
      "taf_trigger": false,
      "metar": "METAR LIRZ 301720Z AUTO 03005KT 9999 BKN088/// 09/06 Q1001",
      "taf": "TAF LIRZ 301700Z 3018/3118 VRB05KT 9999 FEW050"
    },
    {
      "icao": "LJLJ",
      "alert": "OK",
      "vis_m": 9999,
      "fzfg": false,
      "metar_trigger": false,
      "taf_trigger": false,
      "metar": "METAR LJLJ 301700Z 30003KT 9999 FEW015 BKN023 04/03 Q1001 NOSIG",
      "taf": "TAF LJLJ 301700Z 3018/3118 VRB02KT 9999 BKN020"
    },
    {
      "icao": "LKMT",
      "alert": "OK",
      "vis_m": 8000,
      "fzfg": false,
      "metar_trigger": false,
      "taf_trigger": false,
      "metar": "METAR LKMT 301730Z 05006KT 8000 OVC008 00/M01 Q1003 NOSIG",
      "taf": "TAF LKMT 301700Z 3018/3118 02010KT 8000 OVC012"
    },
    {
      "icao": "LKPR",
      "alert": "OK",
      "vis_m": 1800,
      "fzfg": true,
      "metar_trigger": false,
      "taf_trigger": false,
      "metar": "METAR LKPR 301730Z 05004KT 1800 BR VCFG BKN002 OVC003 M01/M01 Q1003 NOSIG",
      "taf": "TAF LKPR 301700Z 3018/3124 05003KT 0700 FZFG VV002"
    },
    {
      "icao": "LLBG",
      "alert": "OK",
      "vis_m": 8000,
      "fzfg": false,
      "metar_trigger": false,
      "taf_trigger": false,
      "metar": "METAR LLBG 301720Z 24005KT 8000 NSC 17/11 Q1013 NOSIG",
      "taf": "TAF LLBG 301702Z 3018/3118 VRB03KT CAVOK"
    },
    {
      "icao": "LMML",
      "alert": "OK",
      "vis_m": 9999,
      "fzfg": false,
      "metar_trigger": false,
      "taf_trigger": false,
      "metar": "METAR LMML 301715Z 28018G29KT 9999 FEW020TCU BKN047 15/11 Q1006 NOSIG",
      "taf": "TAF LMML 301700Z 3018/3118 28018G28KT 9999 FEW015"
    },
    {
      "icao": "LOWW",
      "alert": "OK",
      "vis_m": 8000,
      "fzfg": false,
      "metar_trigger": false,
      "taf_trigger": false,
      "metar": "METAR LOWW 301720Z 36004KT 8000 FEW012 BKN034 01/M01 Q1003 NOSIG",
      "taf": "TAF LOWW 301715Z 3018/3124 35005KT 8000 FEW010 OVC020 TX02/3113Z TNM00/3106Z"
    },
    {
      "icao": "LPFR",
      "alert": "OK",
      "vis_m": 9999,
      "fzfg": false,
      "metar_trigger": false,
      "taf_trigger": false,
      "metar": "METAR LPFR 301700Z 26019KT 9999 FEW010 16/15 Q1014",
      "taf": "TAF LPFR 301700Z 3018/3118 27017KT 9999 SCT012"
    },
    {
      "icao": "LPMA",
      "alert": "OK",
      "vis_m": 9999,
      "fzfg": false,
      "metar_trigger": false,
      "taf_trigger": false,
      "metar": "METAR LPMA 301700Z 04005KT 9999 FEW013 20/16 Q1023",
      "taf": "TAF LPMA 301700Z 3018/3118 VRB05KT 9999 SCT015"
    },
    {
      "icao": "LPPR",
      "alert": "OK",
      "vis_m": 8000,
      "fzfg": false,
      "metar_trigger": false,
      "taf_trigger": false,
      "metar": "METAR LPPR 301700Z 26013G26KT 190V310 8000 -SHRA SCT012 FEW020CB BKN045 12/09 Q1005 RERA",
      "taf": "TAF LPPR 301700Z 3018/3118 27022KT 9999 SCT025"
    },
    {
      "icao": "LPPS",
      "alert": "OK",
      "vis_m": 1000,
      "fzfg": false,
      "metar_trigger": false,
      "taf_trigger": false,
      "metar": "METAR LPPS 301700Z 29015KT 1000 FG SCT004 BKN010 18/17 Q1023",
      "taf": "TAF LPPS 301700Z 3018/3124 30010KT 9999 SCT013 BKN030"
    },
    {
      "icao": "LPPT",
      "alert": "OK",
      "vis_m": 9999,
      "fzfg": false,
      "metar_trigger": false,
      "taf_trigger": false,
      "metar": "METAR LPPT 301700Z 27015KT 240V310 9999 FEW014 SCT024 15/11 Q1011 WS R20",
      "taf": "TAF LPPT 301700Z 3018/3124 26015KT 9999 FEW008 SCT020"
    },
    {
      "icao": "LQBK",
      "alert": "OK",
      "vis_m": 9999,
      "fzfg": false,
      "metar_trigger": false,
      "taf_trigger": false,
      "metar": "METAR LQBK 301730Z 00000KT CAVOK 05/03 Q1002 NOSIG",
      "taf": "TAF LQBK 301700Z 3018/3118 07004KT CAVOK TX08/3113Z TN02/3105Z"
    },
    {
      "icao": "LQSA",
      "alert": "OK",
      "vis_m": 9999,
      "fzfg": false,
      "metar_trigger": false,
      "taf_trigger": false,
      "metar": "METAR LQSA 301730Z 13004KT 9999 FEW025 BKN050 05/05 Q1000 NOSIG",
      "taf": "TAF LQSA 301700Z 3018/3118 VRB02KT 9999 SCT012 BKN040 TX06/3113Z TN01/3106Z"
    },
    {
      "icao": "LQTZ",
      "alert": "OK",
      "vis_m": 9999,
      "fzfg": false,
      "metar_trigger": false,
      "taf_trigger": false,
      "metar": "METAR LQTZ 301730Z 34002KT 9999 OVC027 06/03 Q1002",
      "taf": "TAF LQTZ 301700Z 3018/3118 VRB02KT 9999 BKN030 TX06/3113Z TN02/3105Z"
    },
    {
      "icao": "LRBC",
      "alert": "OK",
      "vis_m": 9999,
      "fzfg": false,
      "metar_trigger": false,
      "taf_trigger": false,
      "metar": "METAR LRBC 301730Z 34015KT 9999 OVC012 00/M02 Q1004",
      "taf": "TAF LRBC 301700Z 3018/3103 35014KT 9999 OVC010"
    },
    {
      "icao": "LRBS",
      "alert": "OK",
      "vis_m": 9999,
      "fzfg": false,
      "metar_trigger": false,
      "taf_trigger": false,
      "metar": "METAR LRBS 301700Z 24005KT 9999 OVC014 06/04 Q1002 NOSIG",
      "taf": "TAF LRBS 301700Z 3018/3118 23006KT 9999 BKN010 OVC030"
    },
    {
      "icao": "LRBV",
      "alert": "OK",
      "vis_m": 9999,
      "fzfg": false,
      "metar_trigger": false,
      "taf_trigger": false,
      "metar": "METAR LRBV 301730Z 07004KT 9999 SCT020 OVC030 03/M01 Q1001",
      "taf": "TAF LRBV 301700Z 3018/3103 VRB04KT 9999 SCT020 OVC035"
    },
    {
      "icao": "LRCL",
      "alert": "OK",
      "vis_m": 8000,
      "fzfg": false,
      "metar_trigger": false,
      "taf_trigger": false,
      "metar": "METAR LRCL 301700Z 03001KT 8000 -RA BKN016 BKN037 03/02 Q1001",
      "taf": "TAF LRCL 301700Z 3018/3103 VRB04KT 7000 -RA BR BKN020 OVC050"
    },
    {
      "icao": "LRCV",
      "alert": "OK",
      "vis_m": 7000,
      "fzfg": false,
      "metar_trigger": false,
      "taf_trigger": false,
      "metar": "METAR LRCV 301730Z 00000KT 7000 FEW048 04/04 Q1001",
      "taf": "TAF LRCV 301700Z 3018/3103 VRB04KT 7000 SCT015"
    },
    {
      "icao": "LRIA",
      "alert": "OK",
      "vis_m": 9999,
      "fzfg": false,
      "metar_trigger": false,
      "taf_trigger": false,
      "metar": "METAR LRIA 301730Z 33015KT 9999 -SG OVC009 M02/M04 Q1004",
      "taf": "TAF LRIA 301700Z 3018/3103 34014KT 9999 OVC010"
    },
    {
      "icao": "LROP",
      "alert": "OK",
      "vis_m": 9999,
      "fzfg": false,
      "metar_trigger": false,
      "taf_trigger": false,
      "metar": "METAR LROP 301700Z 23004KT 9999 OVC011 06/04 Q1002 NOSIG",
      "taf": "TAF LROP 301700Z 3018/3118 23006KT 9999 BKN010 OVC030"
    },
    {
      "icao": "LRSB",
      "alert": "OK",
      "vis_m": 8000,
      "fzfg": false,
      "metar_trigger": false,
      "taf_trigger": false,
      "metar": "METAR LRSB 301700Z 12002KT 8000 -RA SCT011 BKN015 OVC030 04/03 Q1000",
      "taf": "TAF LRSB 301700Z 3018/3118 VRB04KT 7000 -RA BKN015 OVC030"
    },
    {
      "icao": "LRSM",
      "alert": "OK",
      "vis_m": 9999,
      "fzfg": false,
      "metar_trigger": false,
      "taf_trigger": false,
      "metar": "METAR LRSM 301700Z 33003KT 270V010 9999 -RA OVC031 05/03 Q1002",
      "taf": "TAF LRSM 301400Z 3015/3024 VRB04KT 9999 OVC025"
    },
    {
      "icao": "LRSV",
      "alert": "OK",
      "vis_m": 5000,
      "fzfg": false,
      "metar_trigger": false,
      "taf_trigger": false,
      "metar": "METAR LRSV 301730Z 35010KT 5000 -SN BR BKN007 BKN029 M03/M04 Q1004",
      "taf": "TAF LRSV 301700Z 3018/3103 35012KT 7000 -SN BKN005 OVC010"
    },
    {
      "icao": "LRTM",
      "alert": "OK",
      "vis_m": 900,
      "fzfg": false,
      "metar_trigger": false,
      "taf_trigger": false,
      "metar": "METAR LRTM 301700Z 08002KT 0900 R07/1600D -RA FG SCT002 BKN008 OVC018 02/02 Q1001",
      "taf": ""
    },
    {
      "icao": "LRTR",
      "alert": "OK",
      "vis_m": 3000,
      "fzfg": false,
      "metar_trigger": false,
      "taf_trigger": false,
      "metar": "METAR LRTR 301700Z 28005KT 3000 -DZ BR SCT003 BKN005 OVC007 03/03 Q1002 NOSIG",
      "taf": "TAF LRTR 301700Z 3018/3118 VRB04KT 3000 -DZ BR SCT003 OVC005"
    },
    {
      "icao": "LTAC",
      "alert": "OK",
      "vis_m": 9999,
      "fzfg": false,
      "metar_trigger": false,
      "taf_trigger": false,
      "metar": "METAR LTAC 301720Z 25014KT 9999 BKN023 08/04 Q1002 NOSIG",
      "taf": "TAF LTAC 301640Z 3018/3118 VRB02KT 9999 SCT040 SCT100"
    },
    {
      "icao": "LTFM",
      "alert": "OK",
      "vis_m": 6000,
      "fzfg": false,
      "metar_trigger": false,
      "taf_trigger": false,
      "metar": "METAR LTFM 301720Z 34008KT 6000 -SHRA BKN004 BKN025 06/05 Q1002 NOSIG",
      "taf": "TAF LTFM 301640Z 3018/3124 32012KT 9999 BKN012 BKN025"
    },
    {
      "icao": "LUKK",
      "alert": "OK",
      "vis_m": 9999,
      "fzfg": false,
      "metar_trigger": false,
      "taf_trigger": false,
      "metar": "METAR LUKK 301730Z 01017KT 9999 -SN DRSN SCT011 BKN017 OVC021 M02/M04 Q1002 TEMPO 01018G26KT 4000 SN BKN006",
      "taf": "TAF LUKK 301726Z 3018/3118 36014KT 5000 -SN BKN010"
    },
    {
      "icao": "LWOH",
      "alert": "OK",
      "vis_m": 9999,
      "fzfg": false,
      "metar_trigger": false,
      "taf_trigger": false,
      "metar": "METAR LWOH 301720Z 15009KT 9999 BKN035 06/03 Q1001",
      "taf": "TAF LWOH 301415Z 3015/3115 16010KT 9999 FEW015 SCT040"
    },
    {
      "icao": "LWSK",
      "alert": "OK",
      "vis_m": 9999,
      "fzfg": false,
      "metar_trigger": false,
      "taf_trigger": false,
      "metar": "METAR LWSK 301720Z 13003KT 060V180 9999 SCT040 BKN070 08/04 Q1001 NOSIG",
      "taf": "TAF LWSK 301415Z 3015/3115 03006KT 9999 FEW030 SCT080"
    },
    {
      "icao": "LYBE",
      "alert": "OK",
      "vis_m": 9999,
      "fzfg": false,
      "metar_trigger": false,
      "taf_trigger": false,
      "metar": "METAR LYBE 301730Z 32003KT 9999 OVC010 05/04 Q1003 NOSIG",
      "taf": "TAF LYBE 301700Z 3018/3118 04005KT 9999 BKN012 BKN023 TX07/3113Z TN03/3106Z"
    },
    {
      "icao": "LYNI",
      "alert": "OK",
      "vis_m": 9999,
      "fzfg": false,
      "metar_trigger": false,
      "taf_trigger": false,
      "metar": "METAR LYNI 301730Z 34002KT 9999 FEW015 SCT023 BKN050 06/05 Q1002 NOSIG",
      "taf": "TAF LYNI 301700Z 3018/3118 VRB02KT 9999 SCT015 BKN040 TX08/3113Z TN02/3106Z"
    },
    {
      "icao": "LYPG",
      "alert": "OK",
      "vis_m": 7000,
      "fzfg": false,
      "metar_trigger": false,
      "taf_trigger": false,
      "metar": "METAR LYPG 301730Z 00000KT 7000 FEW010 SCT050 08/07 Q1002 NOSIG",
      "taf": "TAF LYPG 301700Z 3018/3118 35005KT 9999 FEW010 SCT050 TX13/3112Z TN05/3106Z"
    },
    {
      "icao": "LZIB",
      "alert": "OK",
      "vis_m": 9999,
      "fzfg": false,
      "metar_trigger": false,
      "taf_trigger": false,
      "metar": "METAR LZIB 301730Z 30004KT 9999 FEW008 02/M00 Q1003 NOSIG",
      "taf": "TAF LZIB 301715Z 3018/3118 30005KT 7000 FEW010 SCT040"
    },
    {
      "icao": "LZKZ",
      "alert": "OK",
      "vis_m": 9999,
      "fzfg": false,
      "metar_trigger": false,
      "taf_trigger": false,
      "metar": "METAR LZKZ 301730Z 36011KT 9999 SCT027 OVC035 02/M01 Q1002 NOSIG",
      "taf": "TAF LZKZ 301715Z 3018/3118 01013KT 9999 FEW020 BKN030"
    },
    {
      "icao": "LZTT",
      "alert": "OK",
      "vis_m": 7000,
      "fzfg": false,
      "metar_trigger": false,
      "taf_trigger": false,
      "metar": "METAR LZTT 301730Z 06008KT 7000 -SN BKN003 OVC016 M02/M02 Q1001 NOSIG",
      "taf": "TAF LZTT 301715Z 3018/3118 06007KT 4000 BR BKN002 OVC004"
    },
    {
      "icao": "OEJN",
      "alert": "OK",
      "vis_m": 9999,
      "fzfg": false,
      "metar_trigger": false,
      "taf_trigger": false,
      "metar": "METAR OEJN 301700Z 34008KT CAVOK 25/16 Q1013 NOSIG",
      "taf": "TAF OEJN 301700Z 3018/3124 36006KT CAVOK"
    },
    {
      "icao": "OEMA",
      "alert": "OK",
      "vis_m": 9999,
      "fzfg": false,
      "metar_trigger": false,
      "taf_trigger": false,
      "metar": "METAR OEMA 301700Z 27011KT CAVOK 26/05 Q1017 NOSIG",
      "taf": "TAF OEMA 301700Z 3018/3124 27006KT CAVOK"
    },
    {
      "icao": "OJAI",
      "alert": "OK",
      "vis_m": 5000,
      "fzfg": false,
      "metar_trigger": false,
      "taf_trigger": false,
      "metar": "METAR OJAI 301700Z 30005KT 5000 HZ NSC 13/05 Q1014 NOSIG",
      "taf": "TAF OJAI 301617Z 3018/3124 23006KT 5000 HZ NSC"
    },
    {
      "icao": "OMAA",
      "alert": "OK",
      "vis_m": 9999,
      "fzfg": false,
      "metar_trigger": false,
      "taf_trigger": false,
      "metar": "METAR OMAA 301730Z 30007KT CAVOK 20/10 Q1018 NOSIG",
      "taf": "TAF OMAA 301700Z 3018/0100 27010KT 8000 FEW030"
    },
    {
      "icao": "OMDB",
      "alert": "OK",
      "vis_m": 9999,
      "fzfg": false,
      "metar_trigger": false,
      "taf_trigger": false,
      "metar": "METAR OMDB 301730Z 27007KT CAVOK 21/12 Q1018 NOSIG",
      "taf": "TAF OMDB 301700Z 3018/0100 28010KT 8000 NSC"
    },
    {
      "icao": "UAAA",
      "alert": "OK",
      "vis_m": 1100,
      "fzfg": false,
      "metar_trigger": false,
      "taf_trigger": false,
      "metar": "SPECI UAAA 301727Z VRB01MPS 1100 R23L/P2000U BR OVC003 M04/M04 Q1019 NOSIG RMK QBB100",
      "taf": "TAF UAAA 301702Z 3018/3118 22003MPS 1000 BR FU OVC004 TX01/3109Z TNM06/3102Z"
    },
    {
      "icao": "UBBB",
      "alert": "OK",
      "vis_m": 3000,
      "fzfg": false,
      "metar_trigger": false,
      "taf_trigger": false,
      "metar": "METAR UBBB 301730Z 16016KT 3000 BR BKN002 07/07 Q1009 BECMG 1200 BR OVC002",
      "taf": "TAF UBBB 301703Z 3018/3118 17014KT 2000 BR SCT005 TX12/3110Z TN04/3101Z"
    },
    {
      "icao": "UDSG",
      "alert": "OK",
      "vis_m": 3800,
      "fzfg": false,
      "metar_trigger": false,
      "taf_trigger": false,
      "metar": "METAR UDSG 301700Z 07001KT 3800 BR BKN016 M07/M07 Q1014 NOSIG",
      "taf": "TAF UDSG 301658Z 3018/3118 VRB06KT 2000 BR OVC020"
    },
    {
      "icao": "UDYZ",
      "alert": "OK",
      "vis_m": 2400,
      "fzfg": false,
      "metar_trigger": false,
      "taf_trigger": false,
      "metar": "METAR UDYZ 301700Z 22003KT 2400 BR BKN014 M02/M04 Q1017 NOSIG",
      "taf": "TAF UDYZ 301700Z 3018/3118 VRB04KT 2300 BR BKN015"
    },
    {
      "icao": "UGKO",
      "alert": "OK",
      "vis_m": 9999,
      "fzfg": false,
      "metar_trigger": false,
      "taf_trigger": false,
      "metar": "METAR UGKO 301700Z 08014KT CAVOK 14/M02 Q1003 NOSIG",
      "taf": "TAF UGKO 301700Z 3018/3118 08007KT CAVOK TX15/3112Z TN10/3118Z"
    }
  ]
}