{
  "ts_utc": "2026-01-18T03:58:37Z",
  "threshold_m": 150,
  "source": "stations_override.txt (ICAO list) + aviationweather.gov (METAR/TAF raw)",
  "station_count": 159,
  "stations": [
    {
      "icao": "BIKF",
      "alert": "OK",
      "vis_m": 9999,
      "fzfg": false,
      "metar_trigger": false,
      "taf_trigger": false,
      "metar": "METAR BIKF 180330Z 14033G44KT 9999 -DZ BKN018 OVC043 07/04 Q0995 RERA",
      "taf": "TAF BIKF 180155Z 1803/1903 13038G54KT 5000 RADZ BKN012 TX07/1803Z TN02/1821Z"
    },
    {
      "icao": "BKPR",
      "alert": "OK",
      "vis_m": null,
      "fzfg": false,
      "metar_trigger": false,
      "taf_trigger": false,
      "metar": "",
      "taf": "TAF BKPR 172330Z 1800/1824 35008KT 9999 SCT012 BKN030"
    },
    {
      "icao": "EBCI",
      "alert": "OK",
      "vis_m": 9999,
      "fzfg": false,
      "metar_trigger": false,
      "taf_trigger": false,
      "metar": "METAR EBCI 180350Z 06004KT CAVOK 06/04 Q1019 NOSIG",
      "taf": "TAF EBCI 172310Z 1800/1906 10004KT CAVOK"
    },
    {
      "icao": "EDDB",
      "alert": "OK",
      "vis_m": 5000,
      "fzfg": false,
      "metar_trigger": false,
      "taf_trigger": false,
      "metar": "METAR EDDB 180350Z AUTO 10008KT 5000 BR BKN004 01/01 Q1027 TEMPO BKN005",
      "taf": "TAF EDDB 172300Z 1800/1824 10009KT 5000 BR BKN005"
    },
    {
      "icao": "EDDH",
      "alert": "OK",
      "vis_m": 9999,
      "fzfg": false,
      "metar_trigger": false,
      "taf_trigger": false,
      "metar": "METAR EDDH 180350Z AUTO 10008KT 9999 FEW011 OVC018 04/02 Q1025 TEMPO BKN011",
      "taf": "TAF EDDH 172300Z 1800/1906 11009KT 9999 OVC012"
    },
    {
      "icao": "EDDK",
      "alert": "OK",
      "vis_m": 9999,
      "fzfg": false,
      "metar_trigger": false,
      "taf_trigger": false,
      "metar": "METAR EDDK 180350Z AUTO 13005KT 9999 FEW007 00/M01 Q1021 BECMG BKN007",
      "taf": "TAF EDDK 172300Z 1800/1906 11007KT CAVOK"
    },
    {
      "icao": "EDDN",
      "alert": "OK",
      "vis_m": 9999,
      "fzfg": false,
      "metar_trigger": false,
      "taf_trigger": false,
      "metar": "METAR EDDN 180350Z AUTO 09005KT 060V130 9999 OVC008 01/M01 Q1022",
      "taf": "TAF EDDN 172300Z 1800/1824 10007KT 9999 OVC009"
    },
    {
      "icao": "EDDS",
      "alert": "OK",
      "vis_m": 9999,
      "fzfg": false,
      "metar_trigger": false,
      "taf_trigger": false,
      "metar": "METAR EDDS 180350Z AUTO 07003KT 9999 OVC007 M02/M03 Q1019",
      "taf": "TAF EDDS 172300Z 1800/1824 VRB03KT CAVOK"
    },
    {
      "icao": "EDFH",
      "alert": "OK",
      "vis_m": 350,
      "fzfg": true,
      "metar_trigger": false,
      "taf_trigger": false,
      "metar": "METAR EDFH 180350Z 13017KT 0350 R21/0400N FZFG VV/// M02/M02 Q1019",
      "taf": "TAF EDFH 172300Z 1800/1824 14013KT 6000 BKN005"
    },
    {
      "icao": "EDJA",
      "alert": "OK",
      "vis_m": 1300,
      "fzfg": true,
      "metar_trigger": false,
      "taf_trigger": false,
      "metar": "METAR EDJA 180350Z AUTO 06008KT 1300 1200 R06/1900N // VV/// M03/M04 Q1019",
      "taf": "TAF EDJA 180200Z 1803/1812 06005KT 0700 FZFG VV000"
    },
    {
      "icao": "EDLW",
      "alert": "OK",
      "vis_m": 9999,
      "fzfg": false,
      "metar_trigger": false,
      "taf_trigger": false,
      "metar": "METAR EDLW 180350Z AUTO 12009KT 9999 // NCD 03/01 Q1020",
      "taf": "TAF EDLW 171700Z 1718/1818 09004KT CAVOK"
    },
    {
      "icao": "EDNY",
      "alert": "OK",
      "vis_m": 9999,
      "fzfg": false,
      "metar_trigger": false,
      "taf_trigger": false,
      "metar": "METAR EDNY 180350Z AUTO 02007KT 9999 // OVC007/// M01/M02 Q1019",
      "taf": "TAF EDNY 180200Z 1803/1812 03007KT 9999 OVC008"
    },
    {
      "icao": "EDSB",
      "alert": "OK",
      "vis_m": 9000,
      "fzfg": false,
      "metar_trigger": false,
      "taf_trigger": false,
      "metar": "METAR EDSB 180350Z 03009KT 9000 BKN012 00/M01 Q1020",
      "taf": ""
    },
    {
      "icao": "EETN",
      "alert": "OK",
      "vis_m": 2200,
      "fzfg": false,
      "metar_trigger": false,
      "taf_trigger": false,
      "metar": "METAR EETN 180350Z 19007KT 2200 -FZDZ BR OVC003 M03/M03 Q1037 NOSIG",
      "taf": "TAF EETN 172330Z 1800/1824 19010KT 8000 BKN005 OVC010"
    },
    {
      "icao": "EFTU",
      "alert": "OK",
      "vis_m": 650,
      "fzfg": false,
      "metar_trigger": false,
      "taf_trigger": false,
      "metar": "METAR EFTU 180350Z AUTO 22003KT 0650 R26/0800 -SHRA VV002 02/02 Q1035",
      "taf": "TAF EFTU 180234Z 1803/1903 22004KT 0700 -DZ FG VV002"
    },
    {
      "icao": "EGBB",
      "alert": "OK",
      "vis_m": 2200,
      "fzfg": false,
      "metar_trigger": false,
      "taf_trigger": false,
      "metar": "METAR EGBB 180350Z 10005KT 2200 BR OVC002 05/05 Q1019",
      "taf": "TAF EGBB 172300Z 1800/1824 13005KT 4000 BR BKN020"
    },
    {
      "icao": "EGGP",
      "alert": "OK",
      "vis_m": 4500,
      "fzfg": false,
      "metar_trigger": false,
      "taf_trigger": false,
      "metar": "METAR EGGP 180350Z AUTO 06005KT 4500 HZ OVC007/// 03/03 Q1019",
      "taf": "TAF EGGP 172257Z 1800/1824 07004KT 9999 SCT045"
    },
    {
      "icao": "EGGW",
      "alert": "OK",
      "vis_m": 300,
      "fzfg": false,
      "metar_trigger": false,
      "taf_trigger": false,
      "metar": "METAR EGGW 180350Z AUTO 04006KT 0300 R25/0600N FG OVC002 06/05 Q1018",
      "taf": "TAF EGGW 172258Z 1800/1824 10006KT 2000 BR BKN002"
    },
    {
      "icao": "EGKK",
      "alert": "OK",
      "vis_m": 2800,
      "fzfg": false,
      "metar_trigger": false,
      "taf_trigger": false,
      "metar": "METAR EGKK 180350Z 03005KT 2800 BR BKN003 07/07 Q1018",
      "taf": "TAF EGKK 172300Z 1800/1906 08006KT 9999 BKN006"
    },
    {
      "icao": "EGNM",
      "alert": "OK",
      "vis_m": null,
      "fzfg": false,
      "metar_trigger": false,
      "taf_trigger": false,
      "metar": "",
      "taf": "TAF EGNM 172257Z 1800/1824 13003KT 0300 FG VV///"
    },
    {
      "icao": "EGPD",
      "alert": "OK",
      "vis_m": 2700,
      "fzfg": false,
      "metar_trigger": false,
      "taf_trigger": false,
      "metar": "METAR EGPD 180350Z AUTO 19002KT 2700 BR OVC008 03/03 Q1020 TEMPO 0900 FG BKN003",
      "taf": "TAF EGPD 172258Z 1800/1824 16004KT 9999 SCT006 BKN015"
    },
    {
      "icao": "EGPF",
      "alert": "OK",
      "vis_m": 3000,
      "fzfg": false,
      "metar_trigger": false,
      "taf_trigger": false,
      "metar": "METAR EGPF 180350Z AUTO 07003KT 3000 BR NCD 04/03 Q1019",
      "taf": "TAF EGPF 172253Z 1800/1824 04003KT 9999 SCT040"
    },
    {
      "icao": "EHBK",
      "alert": "OK",
      "vis_m": 9999,
      "fzfg": false,
      "metar_trigger": false,
      "taf_trigger": false,
      "metar": "METAR EHBK 180355Z AUTO 07005KT 9999 NSC 02/01 Q1019",
      "taf": "TAF EHBK 172319Z 1800/1906 12006KT CAVOK"
    },
    {
      "icao": "EHEH",
      "alert": "OK",
      "vis_m": 6000,
      "fzfg": false,
      "metar_trigger": false,
      "taf_trigger": false,
      "metar": "METAR EHEH 180325Z AUTO 08001KT 6000 BR SCT250 OVC340 01/01 Q1020 WHT",
      "taf": "TAF EHEH 172313Z 1800/1906 09004KT CAVOK"
    },
    {
      "icao": "EKBI",
      "alert": "OK",
      "vis_m": 2300,
      "fzfg": false,
      "metar_trigger": false,
      "taf_trigger": false,
      "metar": "METAR EKBI 180350Z AUTO 10009KT 2300 BR OVC002/// 02/02 Q1026",
      "taf": "TAF EKBI 180227Z 1803/1903 11010KT 4000 BR BKN003"
    },
    {
      "icao": "EKCH",
      "alert": "OK",
      "vis_m": 2000,
      "fzfg": false,
      "metar_trigger": false,
      "taf_trigger": false,
      "metar": "METAR EKCH 180350Z 12009KT 2000 BR OVC003 03/03 Q1030 TEMPO 3000",
      "taf": "TAF EKCH 180227Z 1803/1903 13010KT 5000 BKN003"
    },
    {
      "icao": "ENAL",
      "alert": "OK",
      "vis_m": 9999,
      "fzfg": false,
      "metar_trigger": false,
      "taf_trigger": false,
      "metar": "METAR ENAL 180350Z AUTO 11004KT 9999 NCD 03/M02 Q1027",
      "taf": "TAF ENAL 180200Z 1803/1812 14008KT 9999 FEW060"
    },
    {
      "icao": "ENBR",
      "alert": "OK",
      "vis_m": 9999,
      "fzfg": false,
      "metar_trigger": false,
      "taf_trigger": false,
      "metar": "METAR ENBR 180350Z VRB02KT 9999 -RA BKN032 03/03 Q1026 RMK WIND 1200FT 12012KT",
      "taf": "TAF ENBR 172300Z 1800/1824 VRB05KT 9999 -RA FEW012 BKN025"
    },
    {
      "icao": "ENGM",
      "alert": "OK",
      "vis_m": 6000,
      "fzfg": false,
      "metar_trigger": false,
      "taf_trigger": false,
      "metar": "METAR ENGM 180350Z 04004KT 6000 -SHRASN OVC002 00/M00 Q1031",
      "taf": "TAF ENGM 172300Z 1800/1824 04005KT 9999 BKN005"
    },
    {
      "icao": "ENHD",
      "alert": "OK",
      "vis_m": 9999,
      "fzfg": false,
      "metar_trigger": false,
      "taf_trigger": false,
      "metar": "METAR ENHD 180350Z AUTO 15005KT 9999 -RA BKN017/// OVC030/// 05/05 Q1026",
      "taf": "TAF ENHD 180200Z 1803/1812 VRB05KT 9999 -RA FEW012 BKN020"
    },
    {
      "icao": "ENTC",
      "alert": "OK",
      "vis_m": 9999,
      "fzfg": false,
      "metar_trigger": false,
      "taf_trigger": false,
      "metar": "METAR ENTC 180350Z AUTO 21014KT 9999 -RA OVC026/// 03/01 Q1023 REDZRA RMK WIND 2600FT 21013KT",
      "taf": ""
    },
    {
      "icao": "ENTO",
      "alert": "OK",
      "vis_m": 5000,
      "fzfg": false,
      "metar_trigger": false,
      "taf_trigger": false,
      "metar": "METAR ENTO 180350Z AUTO 02005KT 5000 BR SCT001/// OVC003/// 00/00 Q1031",
      "taf": ""
    },
    {
      "icao": "ENVA",
      "alert": "OK",
      "vis_m": 9999,
      "fzfg": false,
      "metar_trigger": false,
      "taf_trigger": false,
      "metar": "METAR ENVA 180350Z AUTO VRB02KT 9999 NCD M03/M04 Q1029 RMK WIND 670FT 08008KT",
      "taf": "TAF ENVA 172300Z 1800/1824 12008KT 9999 FEW040"
    },
    {
      "icao": "ENZV",
      "alert": "OK",
      "vis_m": 9999,
      "fzfg": false,
      "metar_trigger": false,
      "taf_trigger": false,
      "metar": "METAR ENZV 180350Z VRB01KT 9999 BCFG NSC 03/03 Q1026",
      "taf": ""
    },
    {
      "icao": "EPGD",
      "alert": "OK",
      "vis_m": 9999,
      "fzfg": false,
      "metar_trigger": false,
      "taf_trigger": false,
      "metar": "METAR EPGD 180330Z 13005KT CAVOK M10/M11 Q1034",
      "taf": "TAF EPGD 172330Z 1800/1824 16005KT CAVOK"
    },
    {
      "icao": "EPKK",
      "alert": "OK",
      "vis_m": 9999,
      "fzfg": false,
      "metar_trigger": false,
      "taf_trigger": false,
      "metar": "METAR EPKK 180330Z 06006KT CAVOK M10/M13 Q1033",
      "taf": "TAF EPKK 180230Z 1803/1903 06010KT CAVOK"
    },
    {
      "icao": "EPKT",
      "alert": "OK",
      "vis_m": 9000,
      "fzfg": false,
      "metar_trigger": false,
      "taf_trigger": false,
      "metar": "METAR EPKT 180330Z 09002KT 9000 NSC M08/M09 Q1031",
      "taf": "TAF EPKT 172330Z 1800/1824 10010KT CAVOK"
    },
    {
      "icao": "EPLB",
      "alert": "OK",
      "vis_m": 5000,
      "fzfg": false,
      "metar_trigger": false,
      "taf_trigger": false,
      "metar": "METAR EPLB 180330Z 08006KT 5000 BR NSC M19/M20 Q1037",
      "taf": "TAF EPLB 172330Z 1800/1824 10008KT CAVOK"
    },
    {
      "icao": "EPMO",
      "alert": "OK",
      "vis_m": 8000,
      "fzfg": false,
      "metar_trigger": false,
      "taf_trigger": false,
      "metar": "METAR EPMO 180330Z 08008KT 8000 NSC M13/M14 Q1037",
      "taf": "TAF EPMO 172330Z 1800/1824 10008KT CAVOK"
    },
    {
      "icao": "EPPO",
      "alert": "OK",
      "vis_m": 9999,
      "fzfg": false,
      "metar_trigger": false,
      "taf_trigger": false,
      "metar": "METAR EPPO 180330Z 10007KT CAVOK M03/M06 Q1031",
      "taf": "TAF EPPO 172330Z 1800/1824 12010KT 8000 NSC"
    },
    {
      "icao": "EPRA",
      "alert": "OK",
      "vis_m": 9999,
      "fzfg": false,
      "metar_trigger": false,
      "taf_trigger": false,
      "metar": "METAR EPRA 180330Z 11006KT CAVOK M14/M16 Q1035",
      "taf": "TAF EPRA 180230Z 1803/1812 11008KT CAVOK"
    },
    {
      "icao": "EPRZ",
      "alert": "OK",
      "vis_m": 9999,
      "fzfg": false,
      "metar_trigger": false,
      "taf_trigger": false,
      "metar": "METAR EPRZ 180330Z 08012KT CAVOK M13/M16 Q1035",
      "taf": "TAF EPRZ 172330Z 1800/1824 09012KT CAVOK"
    },
    {
      "icao": "EPSC",
      "alert": "OK",
      "vis_m": 5000,
      "fzfg": false,
      "metar_trigger": false,
      "taf_trigger": false,
      "metar": "METAR EPSC 180330Z 11005KT 5000 BR NSC M01/M02 Q1030",
      "taf": "TAF EPSC 172330Z 1800/1824 11010KT 2000 BR OVC002"
    },
    {
      "icao": "EPSY",
      "alert": "OK",
      "vis_m": 9999,
      "fzfg": false,
      "metar_trigger": false,
      "taf_trigger": false,
      "metar": "METAR EPSY 180330Z 12005KT 070V160 CAVOK M13/M15 Q1037",
      "taf": "TAF EPSY 180230Z 1803/1812 12006KT CAVOK"
    },
    {
      "icao": "EPWA",
      "alert": "OK",
      "vis_m": 9999,
      "fzfg": false,
      "metar_trigger": false,
      "taf_trigger": false,
      "metar": "METAR EPWA 180330Z 11011KT CAVOK M11/M14 Q1036 NOSIG",
      "taf": "TAF EPWA 180230Z 1803/1903 11008KT CAVOK"
    },
    {
      "icao": "EPWR",
      "alert": "OK",
      "vis_m": 800,
      "fzfg": true,
      "metar_trigger": false,
      "taf_trigger": false,
      "metar": "METAR EPWR 180330Z 12011KT 0800 R29/P2000N FZFG BKN001 M02/M02 Q1030",
      "taf": "TAF EPWR 180230Z 1803/1903 12010KT 0800 FZFG NSC"
    },
    {
      "icao": "ESGG",
      "alert": "OK",
      "vis_m": 800,
      "fzfg": false,
      "metar_trigger": false,
      "taf_trigger": false,
      "metar": "METAR ESGG 180350Z 15003KT 0800 R03/P2000N R21/P2000N FG OVC002 00/M00 Q1030",
      "taf": "TAF ESGG 180230Z 1803/1903 12004KT 0300 FG VV002"
    },
    {
      "icao": "ESKN",
      "alert": "OK",
      "vis_m": 350,
      "fzfg": false,
      "metar_trigger": false,
      "taf_trigger": false,
      "metar": "METAR ESKN 180350Z 15005KT 0350 R08/1900N R26/1100N FG VV002 02/02 Q1033",
      "taf": "TAF ESKN 180230Z 1803/1903 14004KT 0300 FG VV002"
    },
    {
      "icao": "ESMS",
      "alert": "OK",
      "vis_m": 300,
      "fzfg": false,
      "metar_trigger": false,
      "taf_trigger": false,
      "metar": "METAR ESMS 180350Z AUTO 10010KT 0300 R17/1300N R35/1100N FG OVC001/// 02/02 Q1029",
      "taf": ""
    },
    {
      "icao": "ESSA",
      "alert": "OK",
      "vis_m": 200,
      "fzfg": false,
      "metar_trigger": false,
      "taf_trigger": false,
      "metar": "METAR ESSA 180350Z 13004KT 0200 R01L/1200U R19R/0700N R01R/1300D R19L/1600U FG VV002 01/01 Q1033 TEMPO 0500",
      "taf": "TAF ESSA 180230Z 1803/1903 17003KT 0300 FG VV002"
    },
    {
      "icao": "EYKA",
      "alert": "OK",
      "vis_m": 8000,
      "fzfg": false,
      "metar_trigger": false,
      "taf_trigger": false,
      "metar": "METAR EYKA 180350Z 15003KT 130V220 8000 NSC M14/M16 Q1041",
      "taf": "TAF EYKA 172304Z 1800/1824 16008KT 8000 NSC"
    },
    {
      "icao": "EYPA",
      "alert": "OK",
      "vis_m": 9999,
      "fzfg": false,
      "metar_trigger": false,
      "taf_trigger": false,
      "metar": "METAR EYPA 180350Z 16010KT CAVOK M08/M12 Q1038",
      "taf": "TAF EYPA 172303Z 1800/1824 16011KT 7000 NSC"
    },
    {
      "icao": "EYVI",
      "alert": "OK",
      "vis_m": 8000,
      "fzfg": false,
      "metar_trigger": false,
      "taf_trigger": false,
      "metar": "METAR EYVI 180350Z 18006KT 8000 NSC M16/M18 Q1041 NOSIG",
      "taf": "TAF EYVI 172311Z 1800/1824 16009KT 6000 NSC"
    },
    {
      "icao": "GCFV",
      "alert": "OK",
      "vis_m": 9999,
      "fzfg": false,
      "metar_trigger": false,
      "taf_trigger": false,
      "metar": "METAR GCFV 180330Z AUTO 28011KT 9999 SCT028 SCT036 16/13 Q1016",
      "taf": "TAF GCFV 180200Z 1803/1903 29008KT 9999 SCT035 TX20/1814Z TN15/1806Z"
    },
    {
      "icao": "GCLP",
      "alert": "OK",
      "vis_m": 9999,
      "fzfg": false,
      "metar_trigger": false,
      "taf_trigger": false,
      "metar": "METAR GCLP 180330Z 29006KT 9999 FEW035 SCT050 15/12 Q1017 NOSIG",
      "taf": "TAF GCLP 180200Z 1803/1903 27007KT 9999 BKN040 TX21/1814Z TN15/1806Z"
    },
    {
      "icao": "GCTS",
      "alert": "OK",
      "vis_m": 9999,
      "fzfg": false,
      "metar_trigger": false,
      "taf_trigger": false,
      "metar": "METAR GCTS 180330Z VRB02KT 9999 FEW030 16/10 Q1017 NOSIG",
      "taf": "TAF GCTS 180200Z 1803/1903 36005KT 9999 BKN050 TX22/1814Z TN14/1806Z"
    },
    {
      "icao": "GMAD",
      "alert": "OK",
      "vis_m": 9999,
      "fzfg": false,
      "metar_trigger": false,
      "taf_trigger": false,
      "metar": "METAR GMAD 180330Z 20007KT 9999 FEW030 BKN090 12/11 Q1011 NOSIG",
      "taf": "TAF GMAD 172300Z 1800/1906 22008KT 8000 SCT020 BKN080"
    },
    {
      "icao": "GMMN",
      "alert": "OK",
      "vis_m": 9999,
      "fzfg": false,
      "metar_trigger": false,
      "taf_trigger": false,
      "metar": "METAR GMMN 180330Z 20010KT 9999 SCT020 SCT040 08/06 Q1008 NOSIG",
      "taf": "TAF GMMN 172300Z 1800/1906 22007KT 9999 SCT020 SCT030"
    },
    {
      "icao": "GMMX",
      "alert": "OK",
      "vis_m": 9999,
      "fzfg": false,
      "metar_trigger": false,
      "taf_trigger": false,
      "metar": "METAR GMMX 180330Z 21007KT 9999 BKN023 09/06 Q1009 NOSIG",
      "taf": "TAF GMMX 172300Z 1800/1906 22007KT 8000 BKN026 SCT080"
    },
    {
      "icao": "HEGN",
      "alert": "OK",
      "vis_m": 9999,
      "fzfg": false,
      "metar_trigger": false,
      "taf_trigger": false,
      "metar": "METAR HEGN 180300Z 28008KT CAVOK 12/06 Q1015 NOSIG",
      "taf": "TAF HEGN 172300Z 1800/1906 28010KT CAVOK"
    },
    {
      "icao": "HEMA",
      "alert": "OK",
      "vis_m": 9999,
      "fzfg": false,
      "metar_trigger": false,
      "taf_trigger": false,
      "metar": "METAR HEMA 180300Z 27009KT CAVOK 13/08 Q1014 NOSIG",
      "taf": "TAF HEMA 172300Z 1800/1906 27010KT CAVOK"
    },
    {
      "icao": "HESH",
      "alert": "OK",
      "vis_m": 9999,
      "fzfg": false,
      "metar_trigger": false,
      "taf_trigger": false,
      "metar": "METAR HESH 180300Z 28008KT CAVOK 14/06 Q1014 NOSIG",
      "taf": "TAF HESH 172300Z 1800/1906 33010KT CAVOK"
    },
    {
      "icao": "HESX",
      "alert": "OK",
      "vis_m": 6000,
      "fzfg": false,
      "metar_trigger": false,
      "taf_trigger": false,
      "metar": "METAR HESX 180300Z 22005KT 6000 NSC 08/06 Q1016 NOSIG",
      "taf": "TAF HESX 172300Z 1800/1906 33009KT CAVOK"
    },
    {
      "icao": "LATI",
      "alert": "OK",
      "vis_m": 9999,
      "fzfg": false,
      "metar_trigger": false,
      "taf_trigger": false,
      "metar": "METAR LATI 180350Z VRB01KT CAVOK 00/M02 Q1023 NOSIG",
      "taf": "TAF LATI 172300Z 1800/1824 VRB05KT CAVOK TX18/1812Z TN01/1805Z"
    },
    {
      "icao": "LBPD",
      "alert": "OK",
      "vis_m": 9999,
      "fzfg": false,
      "metar_trigger": false,
      "taf_trigger": false,
      "metar": "METAR LBPD 180330Z AUTO 11004KT 9999 SCT024/// OVC027/// M03/M06 Q1032",
      "taf": "TAF LBPD 172300Z 1800/1824 VRB04KT 9999 SCT070"
    },
    {
      "icao": "LBSF",
      "alert": "OK",
      "vis_m": 9999,
      "fzfg": false,
      "metar_trigger": false,
      "taf_trigger": false,
      "metar": "METAR LBSF 180330Z AUTO 00000KT 9999 FEW016/// M08/M09 Q1030 NOSIG",
      "taf": "TAF LBSF 172300Z 1800/1824 10010KT 9999 SCT070"
    },
    {
      "icao": "LBWN",
      "alert": "OK",
      "vis_m": 9999,
      "fzfg": false,
      "metar_trigger": false,
      "taf_trigger": false,
      "metar": "METAR LBWN 180330Z AUTO 30009G20KT 240V340 9999 -SN OVC043/// M09/M12 Q1034 NOSIG",
      "taf": "TAF LBWN 172300Z 1800/1824 35018KT 9999 BKN025 OVC040"
    },
    {
      "icao": "LCLK",
      "alert": "OK",
      "vis_m": 9999,
      "fzfg": false,
      "metar_trigger": false,
      "taf_trigger": false,
      "metar": "METAR LCLK 180330Z 35009KT 9999 FEW009 SCT035 BKN050 11/07 Q1015 NOSIG",
      "taf": "TAF LCLK 172330Z 1800/1900 02009KT 9999 SCT025 SCT050"
    },
    {
      "icao": "LCPH",
      "alert": "OK",
      "vis_m": 9999,
      "fzfg": false,
      "metar_trigger": false,
      "taf_trigger": false,
      "metar": "METAR LCPH 180330Z AUTO 07007KT 9999 -RA FEW004 BKN055 11/09 Q1013 TEMPO 3000 TSRA SCT020CB",
      "taf": "TAF LCPH 172330Z 1800/1900 07008KT 9999 SCT025"
    },
    {
      "icao": "LEAL",
      "alert": "OK",
      "vis_m": 9999,
      "fzfg": false,
      "metar_trigger": false,
      "taf_trigger": false,
      "metar": "METAR LEAL 180330Z 30009KT CAVOK 09/03 Q1009 NOSIG",
      "taf": "TAF LEAL 172300Z 1800/1824 31009KT 9999 FEW020 TX15/1812Z TN06/1806Z"
    },
    {
      "icao": "LEBB",
      "alert": "OK",
      "vis_m": 9999,
      "fzfg": false,
      "metar_trigger": false,
      "taf_trigger": false,
      "metar": "METAR LEBB 180330Z AUTO 07001KT 9999 FEW002 OVC015 08/08 Q1011",
      "taf": ""
    },
    {
      "icao": "LEBL",
      "alert": "OK",
      "vis_m": 9999,
      "fzfg": false,
      "metar_trigger": false,
      "taf_trigger": false,
      "metar": "METAR LEBL 180330Z 34005KT 9999 FEW018 SCT059 10/10 Q1009 NOSIG",
      "taf": "TAF LEBL 172300Z 1800/1824 33005KT 9999 SCT020 TX13/1812Z TN10/1806Z"
    },
    {
      "icao": "LECH",
      "alert": "OK",
      "vis_m": 300,
      "fzfg": false,
      "metar_trigger": false,
      "taf_trigger": false,
      "metar": "METAR LECH 180330Z AUTO 22002KT 0300 R06/0225D FG VV/// 05/05 Q1008",
      "taf": ""
    },
    {
      "icao": "LEMD",
      "alert": "OK",
      "vis_m": 9999,
      "fzfg": false,
      "metar_trigger": false,
      "taf_trigger": false,
      "metar": "METAR LEMD 180330Z 00000KT 9999 SCT020 SCT026 OVC040 04/03 Q1009 NOSIG",
      "taf": "TAF LEMD 172300Z 1800/1906 VRB04KT 9999 SCT035 TX09/1814Z TNM00/1808Z"
    },
    {
      "icao": "LEMG",
      "alert": "OK",
      "vis_m": 9999,
      "fzfg": false,
      "metar_trigger": false,
      "taf_trigger": false,
      "metar": "METAR LEMG 180330Z 32008KT CAVOK 04/03 Q1008 NOSIG",
      "taf": "TAF LEMG 172300Z 1800/1824 29005KT 9999 FEW030 TX13/1814Z TN06/1806Z"
    },
    {
      "icao": "LEVC",
      "alert": "OK",
      "vis_m": 9999,
      "fzfg": false,
      "metar_trigger": false,
      "taf_trigger": false,
      "metar": "METAR LEVC 180330Z 25004KT 210V310 CAVOK 06/02 Q1009 NOSIG",
      "taf": "TAF LEVC 172300Z 1800/1824 27007KT 9999 FEW020 TX14/1812Z TN04/1806Z"
    },
    {
      "icao": "LEXJ",
      "alert": "OK",
      "vis_m": 4300,
      "fzfg": false,
      "metar_trigger": false,
      "taf_trigger": false,
      "metar": "METAR LEXJ 180330Z AUTO 23006KT 4300 -RA BR SCT016 BKN029 BKN043 07/06 Q1012",
      "taf": "TAF LEXJ 180200Z 1803/1903 25009KT 9999 SCT015 BKN020 TX11/1814Z TN07/1803Z"
    },
    {
      "icao": "LEZG",
      "alert": "OK",
      "vis_m": 5000,
      "fzfg": false,
      "metar_trigger": false,
      "taf_trigger": false,
      "metar": "METAR LEZG 180330Z 26007KT 5000 -RA OVC007 07/07 Q1009 NOSIG",
      "taf": "TAF LEZG 172300Z 1800/1824 29007KT 6000 SCT005 TX10/1814Z TN05/1806Z"
    },
    {
      "icao": "LEZL",
      "alert": "OK",
      "vis_m": 9000,
      "fzfg": false,
      "metar_trigger": false,
      "taf_trigger": false,
      "metar": "METAR LEZL 180330Z AUTO 08006KT 9000 FEW040 08/07 Q1009",
      "taf": "TAF LEZL 180200Z 1803/1903 05008KT 9999 SCT020 TX14/1815Z TN04/1807Z"
    },
    {
      "icao": "LFBD",
      "alert": "OK",
      "vis_m": 1200,
      "fzfg": false,
      "metar_trigger": false,
      "taf_trigger": false,
      "metar": "METAR LFBD 180330Z AUTO 13005KT 1200 1000 R23/1600U R05/2300U R29/1300U BR VV/// 09/08 Q1010 NOSIG",
      "taf": ""
    },
    {
      "icao": "LFLL",
      "alert": "OK",
      "vis_m": 400,
      "fzfg": false,
      "metar_trigger": false,
      "taf_trigger": false,
      "metar": "METAR LFLL 180330Z 00000KT 0400 R35L/0325D R17R/0450N R35R/0650D R17L/0400N FG VV/// 04/04 Q1015 NOSIG",
      "taf": ""
    },
    {
      "icao": "LFLS",
      "alert": "OK",
      "vis_m": 9999,
      "fzfg": false,
      "metar_trigger": false,
      "taf_trigger": false,
      "metar": "METAR LFLS 180330Z AUTO 07007KT CAVOK 04/03 Q1015 NOSIG",
      "taf": "TAF LFLS 180200Z 1803/1903 09005KT CAVOK"
    },
    {
      "icao": "LFMN",
      "alert": "OK",
      "vis_m": 9999,
      "fzfg": false,
      "metar_trigger": false,
      "taf_trigger": false,
      "metar": "METAR LFMN 180330Z 07016KT 9999 BKN066 BKN100 15/06 Q1017 NOSIG",
      "taf": "TAF LFMN 180200Z 1803/1909 09025KT 9999 BKN060 BKN100"
    },
    {
      "icao": "LFOB",
      "alert": "OK",
      "vis_m": 9999,
      "fzfg": false,
      "metar_trigger": false,
      "taf_trigger": false,
      "metar": "METAR LFOB 180330Z AUTO 09005KT 9999 FEW049 SCT056 BKN130 05/04 Q1017 TEMPO 0900 FG VV///",
      "taf": "TAF LFOB 172300Z 1800/1824 10005KT CAVOK"
    },
    {
      "icao": "LFPO",
      "alert": "OK",
      "vis_m": 9999,
      "fzfg": false,
      "metar_trigger": false,
      "taf_trigger": false,
      "metar": "METAR LFPO 180330Z 08004KT CAVOK 08/06 Q1017 NOSIG",
      "taf": "TAF LFPO 172300Z 1800/1906 09006KT CAVOK"
    },
    {
      "icao": "LFSB",
      "alert": "OK",
      "vis_m": 3300,
      "fzfg": false,
      "metar_trigger": false,
      "taf_trigger": false,
      "metar": "METAR LFSB 180330Z AUTO 35004KT 3300 1500 BR VV/// 01/01 Q1019 TEMPO 0300 FG",
      "taf": "TAF LFSB 172300Z 1800/1824 VRB03KT 5000 BR OVC010"
    },
    {
      "icao": "LGAV",
      "alert": "OK",
      "vis_m": 9999,
      "fzfg": false,
      "metar_trigger": false,
      "taf_trigger": false,
      "metar": "METAR LGAV 180350Z 01016KT 9999 FEW020 06/M01 Q1026 NOSIG",
      "taf": "TAF LGAV 172300Z 1800/1824 03015G25KT 9999 FEW018 SCT030"
    },
    {
      "icao": "LGTS",
      "alert": "OK",
      "vis_m": 9999,
      "fzfg": false,
      "metar_trigger": false,
      "taf_trigger": false,
      "metar": "METAR LGTS 180350Z 12004KT 9999 FEW020 BKN035 04/M00 Q1029 NOSIG",
      "taf": "TAF LGTS 172300Z 1800/1824 09007KT 9999 FEW015 BKN030"
    },
    {
      "icao": "LHBP",
      "alert": "OK",
      "vis_m": 9999,
      "fzfg": false,
      "metar_trigger": false,
      "taf_trigger": false,
      "metar": "METAR LHBP 180330Z 02002KT CAVOK M08/M09 Q1033 NOSIG",
      "taf": "TAF LHBP 172315Z 1800/1824 VRB03KT CAVOK"
    },
    {
      "icao": "LHDC",
      "alert": "OK",
      "vis_m": 8000,
      "fzfg": false,
      "metar_trigger": false,
      "taf_trigger": false,
      "metar": "METAR LHDC 180315Z AUTO VRB01KT 8000 NCD M09/M10 Q1033",
      "taf": ""
    },
    {
      "icao": "LIBD",
      "alert": "OK",
      "vis_m": 8000,
      "fzfg": false,
      "metar_trigger": false,
      "taf_trigger": false,
      "metar": "METAR LIBD 180350Z AUTO 21005KT 8000 BKN004/// 05/05 Q1022",
      "taf": "TAF LIBD 172300Z 1800/1824 VRB05KT 7000 FEW015"
    },
    {
      "icao": "LIBG",
      "alert": "OK",
      "vis_m": null,
      "fzfg": false,
      "metar_trigger": false,
      "taf_trigger": false,
      "metar": "",
      "taf": "TAF LIBG 171700Z 1718/1803 VRB05KT 9999 FEW020"
    },
    {
      "icao": "LIBP",
      "alert": "OK",
      "vis_m": 2200,
      "fzfg": false,
      "metar_trigger": false,
      "taf_trigger": false,
      "metar": "METAR LIBP 180350Z AUTO 21004KT 2200 BR OVC004/// 08/08 Q1023",
      "taf": "TAF LIBP 172300Z 1800/1824 VRB05KT 2000 BR BKN010"
    },
    {
      "icao": "LIBR",
      "alert": "OK",
      "vis_m": 9999,
      "fzfg": false,
      "metar_trigger": false,
      "taf_trigger": false,
      "metar": "METAR LIBR 180350Z 24003KT CAVOK 06/06 Q1022",
      "taf": "TAF LIBR 172300Z 1800/1824 VRB05KT CAVOK"
    },
    {
      "icao": "LICA",
      "alert": "OK",
      "vis_m": 9999,
      "fzfg": false,
      "metar_trigger": false,
      "taf_trigger": false,
      "metar": "METAR LICA 180350Z AUTO 07012KT 9999 NCD 12/10 Q1019",
      "taf": "TAF LICA 172300Z 1800/1824 08018KT 9999 BKN040"
    },
    {
      "icao": "LICC",
      "alert": "OK",
      "vis_m": 9999,
      "fzfg": false,
      "metar_trigger": false,
      "taf_trigger": false,
      "metar": "METAR LICC 180350Z 06012KT 9999 SCT015 SCT030 15/14 Q1018",
      "taf": "TAF LICC 172300Z 1800/1824 08013KT 9999 SCT015 BKN040"
    },
    {
      "icao": "LICJ",
      "alert": "OK",
      "vis_m": 9999,
      "fzfg": false,
      "metar_trigger": false,
      "taf_trigger": false,
      "metar": "METAR LICJ 180350Z VRB02KT CAVOK 11/07 Q1016",
      "taf": "TAF LICJ 172300Z 1800/1824 11008KT 9999 FEW040"
    },
    {
      "icao": "LIMC",
      "alert": "OK",
      "vis_m": 9999,
      "fzfg": false,
      "metar_trigger": false,
      "taf_trigger": false,
      "metar": "METAR LIMC 180350Z 01007KT 9999 BKN060 08/06 Q1023 NOSIG",
      "taf": "TAF LIMC 172300Z 1800/1906 VRB04KT 7000 BKN040"
    },
    {
      "icao": "LIME",
      "alert": "OK",
      "vis_m": 9999,
      "fzfg": false,
      "metar_trigger": false,
      "taf_trigger": false,
      "metar": "METAR LIME 180350Z VRB02KT 9999 BKN070 05/04 Q1023 NOSIG",
      "taf": "TAF LIME 172300Z 1800/1824 VRB03KT 6000 SCT040"
    },
    {
      "icao": "LIMF",
      "alert": "OK",
      "vis_m": 8000,
      "fzfg": false,
      "metar_trigger": false,
      "taf_trigger": false,
      "metar": "METAR LIMF 180350Z 32006KT 8000 OVC033 09/05 Q1023",
      "taf": "TAF LIMF 172300Z 1800/1824 30007KT 4000 -RA BKN035"
    },
    {
      "icao": "LIMJ",
      "alert": "OK",
      "vis_m": 9999,
      "fzfg": false,
      "metar_trigger": false,
      "taf_trigger": false,
      "metar": "METAR LIMJ 180350Z 03013KT CAVOK 09/06 Q1021",
      "taf": "TAF LIMJ 172300Z 1800/1824 02014KT 9999 FEW040"
    },
    {
      "icao": "LIPE",
      "alert": "OK",
      "vis_m": 5000,
      "fzfg": false,
      "metar_trigger": false,
      "taf_trigger": false,
      "metar": "METAR LIPE 180350Z AUTO 03002KT 5000 BR OVC013/// 07/06 Q1023",
      "taf": "TAF LIPE 172300Z 1800/1824 VRB04KT 1400 BR BKN004"
    },
    {
      "icao": "LIPH",
      "alert": "OK",
      "vis_m": 9999,
      "fzfg": false,
      "metar_trigger": false,
      "taf_trigger": false,
      "metar": "METAR LIPH 180350Z AUTO 09006KT 9999 OVC083/// 09/03 Q1024",
      "taf": "TAF LIPH 172300Z 1800/1824 04005KT 9999 SCT060"
    },
    {
      "icao": "LIPQ",
      "alert": "OK",
      "vis_m": 9999,
      "fzfg": false,
      "metar_trigger": false,
      "taf_trigger": false,
      "metar": "METAR LIPQ 180350Z AUTO 09003KT 030V140 9999 OVC088/// 09/01 Q1024",
      "taf": "TAF LIPQ 172300Z 1800/1824 02005KT 9999 FEW070"
    },
    {
      "icao": "LIPR",
      "alert": "OK",
      "vis_m": 1000,
      "fzfg": false,
      "metar_trigger": false,
      "taf_trigger": false,
      "metar": "METAR LIPR 180350Z AUTO 26003KT 1000 R30/P2000N BR OVC003/// 08/08 Q1023",
      "taf": "TAF LIPR 172300Z 1800/1824 VRB05KT 4000 BR BKN005"
    },
    {
      "icao": "LIPX",
      "alert": "OK",
      "vis_m": 7000,
      "fzfg": false,
      "metar_trigger": false,
      "taf_trigger": false,
      "metar": "METAR LIPX 180350Z 12003KT 080V190 7000 NSC 08/03 Q1023",
      "taf": "TAF LIPX 172300Z 1800/1824 VRB04KT 6000 BKN040"
    },
    {
      "icao": "LIPY",
      "alert": "OK",
      "vis_m": 3800,
      "fzfg": false,
      "metar_trigger": false,
      "taf_trigger": false,
      "metar": "METAR LIPY 180350Z AUTO VRB01KT 3800 BR OVC004/// 09/09 Q1023",
      "taf": "TAF LIPY 172300Z 1800/1824 VRB05KT 3000 BR BKN005"
    },
    {
      "icao": "LIPZ",
      "alert": "OK",
      "vis_m": 9999,
      "fzfg": false,
      "metar_trigger": false,
      "taf_trigger": false,
      "metar": "METAR LIPZ 180350Z 06009KT CAVOK 08/03 Q1024 NOSIG",
      "taf": "TAF LIPZ 172300Z 1800/1906 04010KT 9999 SCT060"
    },
    {
      "icao": "LIRF",
      "alert": "OK",
      "vis_m": 9999,
      "fzfg": false,
      "metar_trigger": false,
      "taf_trigger": false,
      "metar": "METAR LIRF 180350Z 05006KT CAVOK 10/05 Q1019 NOSIG",
      "taf": "TAF LIRF 172300Z 1800/1906 05008KT 9999 FEW040"
    },
    {
      "icao": "LIRN",
      "alert": "OK",
      "vis_m": 9999,
      "fzfg": false,
      "metar_trigger": false,
      "taf_trigger": false,
      "metar": "METAR LIRN 180350Z AUTO 02006KT 9999 NCD 10/05 Q1019",
      "taf": "TAF LIRN 172300Z 1800/1824 05008KT 9999 FEW040"
    },
    {
      "icao": "LIRP",
      "alert": "OK",
      "vis_m": 9999,
      "fzfg": false,
      "metar_trigger": false,
      "taf_trigger": false,
      "metar": "METAR LIRP 180345Z 11008KT 9999 SCT060 08/07 Q1020 NOSIG",
      "taf": "TAF LIRP 172300Z 1800/1824 14008KT 9999 SCT070"
    },
    {
      "icao": "LIRZ",
      "alert": "OK",
      "vis_m": 3500,
      "fzfg": false,
      "metar_trigger": false,
      "taf_trigger": false,
      "metar": "METAR LIRZ 180350Z AUTO 11002KT 3500 0250S R01/0600U BR NCD 03/02 Q1020",
      "taf": "TAF LIRZ 172300Z 1800/1824 02008KT CAVOK"
    },
    {
      "icao": "LJLJ",
      "alert": "OK",
      "vis_m": 9000,
      "fzfg": false,
      "metar_trigger": false,
      "taf_trigger": false,
      "metar": "METAR LJLJ 180330Z VRB02KT 9000 OVC013 01/M01 Q1028 NOSIG",
      "taf": "TAF LJLJ 172300Z 1800/1900 12003KT 6000 OVC016"
    },
    {
      "icao": "LKMT",
      "alert": "OK",
      "vis_m": 350,
      "fzfg": true,
      "metar_trigger": false,
      "taf_trigger": false,
      "metar": "METAR LKMT 180330Z 19002KT 0350 R22/0500N R04/0500N FZFG VV002 M05/M05 Q1031 NOSIG",
      "taf": "TAF LKMT 172300Z 1800/1824 VRB02KT 0200 FZFG VV002"
    },
    {
      "icao": "LKPR",
      "alert": "OK",
      "vis_m": 9999,
      "fzfg": false,
      "metar_trigger": false,
      "taf_trigger": false,
      "metar": "METAR LKPR 180330Z 09006KT CAVOK M01/M03 Q1026 NOSIG",
      "taf": "TAF LKPR 180200Z 1803/1909 12012KT CAVOK"
    },
    {
      "icao": "LLBG",
      "alert": "OK",
      "vis_m": 9999,
      "fzfg": false,
      "metar_trigger": false,
      "taf_trigger": false,
      "metar": "METAR LLBG 180350Z 17004KT 9999 FEW030 12/09 Q1014 TEMPO 7000 RA FEW025TCU BKN030",
      "taf": "TAF LLBG 172321Z 1800/1824 15006KT 9999 SCT035"
    },
    {
      "icao": "LMML",
      "alert": "OK",
      "vis_m": 9999,
      "fzfg": false,
      "metar_trigger": false,
      "taf_trigger": false,
      "metar": "METAR LMML 180345Z 12005KT 9999 FEW017 12/10 Q1017 NOSIG",
      "taf": "TAF LMML 172300Z 1800/1824 10008KT 9999 FEW015"
    },
    {
      "icao": "LOWW",
      "alert": "OK",
      "vis_m": 9999,
      "fzfg": false,
      "metar_trigger": false,
      "taf_trigger": false,
      "metar": "METAR LOWW 180350Z 13007KT 9999 FEW028 BKN030 00/M03 Q1030 NOSIG",
      "taf": "TAF LOWW 180215Z 1803/1909 12008KT 9999 FEW030 TXM00/1813Z TNM06/1906Z"
    },
    {
      "icao": "LPFR",
      "alert": "OK",
      "vis_m": 9999,
      "fzfg": false,
      "metar_trigger": false,
      "taf_trigger": false,
      "metar": "METAR LPFR 180330Z 04006KT 9999 SCT040 08/05 Q1008",
      "taf": "TAF LPFR 172300Z 1800/1824 VRB02KT 9999 SCT035"
    },
    {
      "icao": "LPMA",
      "alert": "OK",
      "vis_m": 9999,
      "fzfg": false,
      "metar_trigger": false,
      "taf_trigger": false,
      "metar": "METAR LPMA 180330Z 35020G38KT 280V020 9999 BKN015 FEW018TCU 18/12 Q1013",
      "taf": ""
    },
    {
      "icao": "LPPR",
      "alert": "OK",
      "vis_m": 8000,
      "fzfg": false,
      "metar_trigger": false,
      "taf_trigger": false,
      "metar": "METAR LPPR 180330Z VRB01KT 8000 FEW003 03/02 Q1011",
      "taf": "TAF LPPR 172300Z 1800/1824 05005KT CAVOK"
    },
    {
      "icao": "LPPS",
      "alert": "OK",
      "vis_m": 9999,
      "fzfg": false,
      "metar_trigger": false,
      "taf_trigger": false,
      "metar": "METAR LPPS 180330Z 34026KT 9999 SCT010 BKN030 16/14 Q1013",
      "taf": "TAF LPPS 172300Z 1800/1906 31018KT 9999 SCT012 BKN030"
    },
    {
      "icao": "LPPT",
      "alert": "OK",
      "vis_m": 9999,
      "fzfg": false,
      "metar_trigger": false,
      "taf_trigger": false,
      "metar": "METAR LPPT 180330Z 34006KT CAVOK 04/04 Q1009",
      "taf": "TAF LPPT 172300Z 1800/1906 VRB02KT 9999 SCT030"
    },
    {
      "icao": "LQBK",
      "alert": "OK",
      "vis_m": 9999,
      "fzfg": false,
      "metar_trigger": false,
      "taf_trigger": false,
      "metar": "METAR LQBK 180330Z 34003KT 9999 OVC025 M01/M02 Q1031 NOSIG",
      "taf": "TAF LQBK 172300Z 1800/1824 34006KT 9999 BKN018 TX00/1812Z TNM04/1824Z"
    },
    {
      "icao": "LQSA",
      "alert": "OK",
      "vis_m": 1500,
      "fzfg": true,
      "metar_trigger": false,
      "taf_trigger": false,
      "metar": "METAR LQSA 180330Z 14001KT 1500 BR OVC003 M01/M01 Q1027",
      "taf": "TAF LQSA 172300Z 1800/1824 VRB02KT 0300 FZFG BKN003 TX02/1813Z TNM02/1800Z"
    },
    {
      "icao": "LQTZ",
      "alert": "OK",
      "vis_m": 9999,
      "fzfg": false,
      "metar_trigger": false,
      "taf_trigger": false,
      "metar": "METAR LQTZ 180330Z 27002KT 9999 OVC022 M01/M02 Q1029",
      "taf": "TAF LQTZ 172300Z 1800/1824 10006KT 6000 BKN015 TX01/1813Z TNM05/1824Z"
    },
    {
      "icao": "LRBC",
      "alert": "OK",
      "vis_m": 8000,
      "fzfg": false,
      "metar_trigger": false,
      "taf_trigger": false,
      "metar": "METAR LRBC 180330Z 36009KT 8000 BKN008 OVC037 M12/M16 Q1039",
      "taf": "TAF LRBC 180200Z 1803/1812 01008KT 9999 BKN015"
    },
    {
      "icao": "LRBS",
      "alert": "OK",
      "vis_m": 9999,
      "fzfg": false,
      "metar_trigger": false,
      "taf_trigger": false,
      "metar": "METAR LRBS 180330Z 06009KT 030V090 9999 BKN021 OVC040 M09/M13 Q1038 NOSIG",
      "taf": "TAF LRBS 172300Z 1800/1824 07011KT 9999 SCT015 BKN025"
    },
    {
      "icao": "LRBV",
      "alert": "OK",
      "vis_m": 9999,
      "fzfg": false,
      "metar_trigger": false,
      "taf_trigger": false,
      "metar": "METAR LRBV 180330Z AUTO 10006KT 9999 NCD M11/M13 Q1032",
      "taf": "TAF LRBV 180200Z 1803/1812 VRB04KT CAVOK"
    },
    {
      "icao": "LRCL",
      "alert": "OK",
      "vis_m": 7000,
      "fzfg": false,
      "metar_trigger": false,
      "taf_trigger": false,
      "metar": "METAR LRCL 180330Z 00000KT 7000 NSC M14/M16 Q1033",
      "taf": "TAF LRCL 180200Z 1803/1812 VRB04KT 5000 BR NSC"
    },
    {
      "icao": "LRCV",
      "alert": "OK",
      "vis_m": 9999,
      "fzfg": false,
      "metar_trigger": false,
      "taf_trigger": false,
      "metar": "METAR LRCV 180330Z 13008KT 9999 FEW010 BKN030 M08/M10 Q1036",
      "taf": "TAF LRCV 180200Z 1803/1812 11010KT 9999 BKN015"
    },
    {
      "icao": "LRIA",
      "alert": "OK",
      "vis_m": 9000,
      "fzfg": false,
      "metar_trigger": false,
      "taf_trigger": false,
      "metar": "METAR LRIA 180330Z 29005KT 9000 NSC M16/M18 Q1040",
      "taf": "TAF LRIA 180200Z 1803/1812 30005KT 9999 SCT015"
    },
    {
      "icao": "LROP",
      "alert": "OK",
      "vis_m": 8000,
      "fzfg": false,
      "metar_trigger": false,
      "taf_trigger": false,
      "metar": "METAR LROP 180330Z 07012KT 8000 OVC020 M09/M14 Q1038 NOSIG",
      "taf": "TAF LROP 172300Z 1800/1824 07011KT 9999 SCT015 BKN025"
    },
    {
      "icao": "LRSB",
      "alert": "OK",
      "vis_m": 9999,
      "fzfg": false,
      "metar_trigger": false,
      "taf_trigger": false,
      "metar": "METAR LRSB 180330Z VRB01KT CAVOK M09/M10 Q1032",
      "taf": "TAF LRSB 172300Z 1800/1824 VRB04KT CAVOK"
    },
    {
      "icao": "LRSM",
      "alert": "OK",
      "vis_m": 9999,
      "fzfg": false,
      "metar_trigger": false,
      "taf_trigger": false,
      "metar": "METAR LRSM 180330Z AUTO 08007KT 9999 NCD ///// Q1033",
      "taf": "TAF LRSM 180200Z 1803/1812 VRB04KT CAVOK"
    },
    {
      "icao": "LRSV",
      "alert": "OK",
      "vis_m": 5000,
      "fzfg": true,
      "metar_trigger": false,
      "taf_trigger": false,
      "metar": "METAR LRSV 180330Z 05004KT 5000 BR SCT002 OVC032 M13/M15 Q1037",
      "taf": "TAF LRSV 180200Z 1803/1812 36005KT 0800 FZFG OVC002"
    },
    {
      "icao": "LRTM",
      "alert": "OK",
      "vis_m": 5000,
      "fzfg": false,
      "metar_trigger": false,
      "taf_trigger": false,
      "metar": "METAR LRTM 180330Z AUTO 04001KT 5000 BR NCD M16/M18 Q1034",
      "taf": "TAF LRTM 180200Z 1803/1812 VRB04KT 5000 BR NSC"
    },
    {
      "icao": "LRTR",
      "alert": "OK",
      "vis_m": 8000,
      "fzfg": false,
      "metar_trigger": false,
      "taf_trigger": false,
      "metar": "METAR LRTR 180330Z 07003KT 8000 NSC M07/M07 Q1033",
      "taf": "TAF LRTR 172300Z 1800/1824 VRB04KT CAVOK"
    },
    {
      "icao": "LTAC",
      "alert": "OK",
      "vis_m": 9999,
      "fzfg": false,
      "metar_trigger": false,
      "taf_trigger": false,
      "metar": "METAR LTAC 180350Z VRB01KT 9999 FEW020 SCT040 BKN080 M04/M07 Q1019 NOSIG",
      "taf": "TAF LTAC 172240Z 1800/1824 VRB02KT 9999 SCT040 SCT100"
    },
    {
      "icao": "LTFM",
      "alert": "OK",
      "vis_m": 6000,
      "fzfg": false,
      "metar_trigger": false,
      "taf_trigger": false,
      "metar": "METAR LTFM 180350Z 01020KT 6000 -SHSNRA BKN009 BKN028 02/M01 Q1028 NOSIG",
      "taf": "TAF LTFM 172240Z 1800/1906 03018KT 9999 -SHSNRA SCT016 BKN028"
    },
    {
      "icao": "LUKK",
      "alert": "OK",
      "vis_m": 9999,
      "fzfg": false,
      "metar_trigger": false,
      "taf_trigger": false,
      "metar": "METAR LUKK 180330Z 35009KT CAVOK M14/M16 Q1039 NOSIG",
      "taf": "TAF LUKK 172324Z 1800/1824 01009KT 9999 SCT020"
    },
    {
      "icao": "LWOH",
      "alert": "OK",
      "vis_m": null,
      "fzfg": false,
      "metar_trigger": false,
      "taf_trigger": false,
      "metar": "",
      "taf": "TAF LWOH 180345Z 1803/1903 VRB02KT 9999 BKN040"
    },
    {
      "icao": "LWSK",
      "alert": "OK",
      "vis_m": 9999,
      "fzfg": false,
      "metar_trigger": false,
      "taf_trigger": false,
      "metar": "METAR LWSK 180350Z 03006KT 9999 OVC035 02/M00 Q1028 NOSIG",
      "taf": "TAF LWSK 180345Z 1803/1903 VRB02KT 9999 SCT020 OVC050"
    },
    {
      "icao": "LYBE",
      "alert": "OK",
      "vis_m": 9999,
      "fzfg": false,
      "metar_trigger": false,
      "taf_trigger": false,
      "metar": "METAR LYBE 180330Z 12009KT CAVOK M04/M07 Q1032 NOSIG",
      "taf": "TAF LYBE 172300Z 1800/1824 11012KT CAVOK TX01/1813Z TNM05/1806Z"
    },
    {
      "icao": "LYNI",
      "alert": "OK",
      "vis_m": 9999,
      "fzfg": false,
      "metar_trigger": false,
      "taf_trigger": false,
      "metar": "METAR LYNI 180330Z 01004KT CAVOK M04/M07 Q1031 NOSIG",
      "taf": "TAF LYNI 172300Z 1800/1824 04006KT 9999 SCT040 TX02/1813Z TNM06/1806Z"
    },
    {
      "icao": "LYPG",
      "alert": "OK",
      "vis_m": 9999,
      "fzfg": false,
      "metar_trigger": false,
      "taf_trigger": false,
      "metar": "METAR LYPG 180330Z 33006KT CAVOK 02/01 Q1025 NOSIG",
      "taf": "TAF LYPG 172300Z 1800/1824 36004KT CAVOK TX11/1813Z TN00/1805Z"
    },
    {
      "icao": "LZIB",
      "alert": "OK",
      "vis_m": 9999,
      "fzfg": false,
      "metar_trigger": false,
      "taf_trigger": false,
      "metar": "METAR LZIB 180330Z 09006KT 9999 SCT026 BKN032 M01/M03 Q1032 NOSIG",
      "taf": "TAF LZIB 172315Z 1800/1900 05005KT 4500 BR SCT006"
    },
    {
      "icao": "LZKZ",
      "alert": "OK",
      "vis_m": 9999,
      "fzfg": false,
      "metar_trigger": false,
      "taf_trigger": false,
      "metar": "METAR LZKZ 180330Z 21002KT CAVOK M09/M12 Q1032 NOSIG",
      "taf": "TAF LZKZ 172315Z 1800/1900 VRB02KT CAVOK"
    },
    {
      "icao": "LZTT",
      "alert": "OK",
      "vis_m": 9999,
      "fzfg": false,
      "metar_trigger": false,
      "taf_trigger": false,
      "metar": "METAR LZTT 180330Z VRB02KT CAVOK M13/M14 Q1030",
      "taf": "TAF LZTT 172315Z 1800/1900 28005KT CAVOK"
    },
    {
      "icao": "OEJN",
      "alert": "OK",
      "vis_m": 9999,
      "fzfg": false,
      "metar_trigger": false,
      "taf_trigger": false,
      "metar": "METAR OEJN 180300Z 34003KT CAVOK 23/16 Q1012 NOSIG",
      "taf": "TAF OEJN 172300Z 1800/1906 VRB03KT 7000 FEW040"
    },
    {
      "icao": "OEMA",
      "alert": "OK",
      "vis_m": 9000,
      "fzfg": false,
      "metar_trigger": false,
      "taf_trigger": false,
      "metar": "METAR OEMA 180300Z VRB02KT 9000 FEW045 15/06 Q1015 NOSIG",
      "taf": "TAF OEMA 172300Z 1800/1906 VRB03KT 7000 FEW045"
    },
    {
      "icao": "OJAI",
      "alert": "OK",
      "vis_m": 3000,
      "fzfg": false,
      "metar_trigger": false,
      "taf_trigger": false,
      "metar": "METAR OJAI 180300Z 30002KT 3000 BR NSC 04/02 Q1016 NOSIG",
      "taf": "TAF OJAI 172300Z 1800/1906 25010KT 4000 BR FEW020 SCT025"
    },
    {
      "icao": "OMAA",
      "alert": "OK",
      "vis_m": 9999,
      "fzfg": false,
      "metar_trigger": false,
      "taf_trigger": false,
      "metar": "METAR OMAA 180300Z 18005KT 9999 FEW035 15/11 Q1017 WS ALL RWY NOSIG",
      "taf": "TAF OMAA 172300Z 1800/1906 21004KT 9999 FEW040"
    },
    {
      "icao": "OMDB",
      "alert": "OK",
      "vis_m": 9999,
      "fzfg": false,
      "metar_trigger": false,
      "taf_trigger": false,
      "metar": "METAR OMDB 180330Z 18004KT 150V210 9999 SCT040 15/11 Q1017 NOSIG",
      "taf": "TAF OMDB 172300Z 1800/1906 20006KT 8000 FEW030"
    },
    {
      "icao": "UAAA",
      "alert": "OK",
      "vis_m": 9999,
      "fzfg": false,
      "metar_trigger": false,
      "taf_trigger": false,
      "metar": "METAR UAAA 180330Z VRB01MPS 9999 SCT033 BKN100 M18/M21 Q1031 NOSIG",
      "taf": "TAF UAAA 172300Z 1800/1824 33003MPS 6000 BKN015CB OVC050 TXM15/1808Z TNM22/1803Z"
    },
    {
      "icao": "UBBB",
      "alert": "OK",
      "vis_m": 9999,
      "fzfg": false,
      "metar_trigger": false,
      "taf_trigger": false,
      "metar": "METAR UBBB 180330Z 32014KT 9999 -RA BKN007 OVC022 04/03 Q1027 NOSIG",
      "taf": "TAF UBBB 172302Z 1800/1824 31014KT 8000 BKN007 OVC025 TX06/1810Z TN02/1801Z"
    },
    {
      "icao": "UDSG",
      "alert": "OK",
      "vis_m": 2100,
      "fzfg": false,
      "metar_trigger": false,
      "taf_trigger": false,
      "metar": "METAR UDSG 180330Z 22001KT 2100 -SN BR OVC030 M09/M09 Q1017 NOSIG",
      "taf": "TAF UDSG 172300Z 1800/1824 VRB06KT 2000 BR OVC020"
    },
    {
      "icao": "UDYZ",
      "alert": "OK",
      "vis_m": 5000,
      "fzfg": false,
      "metar_trigger": false,
      "taf_trigger": false,
      "metar": "METAR UDYZ 180330Z 09001KT 5000 BR BKN043 M03/M04 Q1020 NOSIG",
      "taf": "TAF UDYZ 172300Z 1800/1824 14006KT 3500 BR BKN040"
    },
    {
      "icao": "UGKO",
      "alert": "OK",
      "vis_m": 9999,
      "fzfg": false,
      "metar_trigger": false,
      "taf_trigger": false,
      "metar": "METAR UGKO 180330Z 06002KT 9999 SCT025 M00/M00 Q1024 NOSIG",
      "taf": "TAF UGKO 172300Z 1800/1824 08007KT 9999 SCT020 BKN050 TX06/1811Z TN00/1803Z"
    }
  ]
}