{
  "ts_utc": "2026-03-18T17:15:22Z",
  "threshold_m": 150,
  "source": "stations_override.txt (ICAO list) + aviationweather.gov (METAR/TAF raw)",
  "station_count": 159,
  "stations": [
    {
      "icao": "BIKF",
      "alert": "OK",
      "vis_m": 9999,
      "fzfg": false,
      "metar_trigger": false,
      "taf_trigger": false,
      "metar": "METAR BIKF 181700Z 18003KT 9999 FEW025 SCT130 BKN190 02/M04 Q1015",
      "taf": "TAF BIKF 181659Z 1818/1918 17008KT 9999 FEW020 BKN035 TX07/1912Z TN01/1918Z"
    },
    {
      "icao": "BKPR",
      "alert": "OK",
      "vis_m": 9999,
      "fzfg": false,
      "metar_trigger": false,
      "taf_trigger": false,
      "metar": "METAR BKPR 181700Z 05007KT 9999 BKN050 08/M00 Q1015 NOSIG",
      "taf": ""
    },
    {
      "icao": "EBCI",
      "alert": "OK",
      "vis_m": 9999,
      "fzfg": false,
      "metar_trigger": false,
      "taf_trigger": false,
      "metar": "METAR EBCI 181650Z 06014KT CAVOK 13/03 Q1022 NOSIG",
      "taf": "TAF EBCI 181120Z 1812/1918 11010KT CAVOK"
    },
    {
      "icao": "EDDB",
      "alert": "OK",
      "vis_m": 9999,
      "fzfg": false,
      "metar_trigger": false,
      "taf_trigger": false,
      "metar": "METAR EDDB 181650Z AUTO 07007KT CAVOK 12/03 Q1029 NOSIG",
      "taf": "TAF EDDB 181100Z 1812/1912 09008KT CAVOK"
    },
    {
      "icao": "EDDH",
      "alert": "OK",
      "vis_m": 9999,
      "fzfg": false,
      "metar_trigger": false,
      "taf_trigger": false,
      "metar": "METAR EDDH 181650Z AUTO 15008KT CAVOK 12/01 Q1029 NOSIG",
      "taf": "TAF EDDH 181100Z 1812/1918 15009KT CAVOK"
    },
    {
      "icao": "EDDK",
      "alert": "OK",
      "vis_m": 9999,
      "fzfg": false,
      "metar_trigger": false,
      "taf_trigger": false,
      "metar": "METAR EDDK 181650Z AUTO 09006KT 040V150 CAVOK 15/01 Q1024 NOSIG",
      "taf": "TAF EDDK 181100Z 1812/1918 11011KT CAVOK"
    },
    {
      "icao": "EDDN",
      "alert": "OK",
      "vis_m": 9999,
      "fzfg": false,
      "metar_trigger": false,
      "taf_trigger": false,
      "metar": "METAR EDDN 181650Z AUTO 10011KT CAVOK 12/02 Q1024 NOSIG",
      "taf": "TAF EDDN 181100Z 1812/1912 11012KT CAVOK"
    },
    {
      "icao": "EDDS",
      "alert": "OK",
      "vis_m": 9999,
      "fzfg": false,
      "metar_trigger": false,
      "taf_trigger": false,
      "metar": "METAR EDDS 181650Z AUTO 09014KT 060V140 CAVOK 11/02 Q1021 TEMPO 09015G25KT",
      "taf": "TAF EDDS 181100Z 1812/1912 08013KT 9999 FEW040"
    },
    {
      "icao": "EDFH",
      "alert": "OK",
      "vis_m": 9999,
      "fzfg": false,
      "metar_trigger": false,
      "taf_trigger": false,
      "metar": "METAR EDFH 181650Z 08008KT 040V150 CAVOK 10/00 Q1023",
      "taf": "TAF EDFH 181100Z 1812/1912 09010KT CAVOK"
    },
    {
      "icao": "EDJA",
      "alert": "OK",
      "vis_m": 9999,
      "fzfg": false,
      "metar_trigger": false,
      "taf_trigger": false,
      "metar": "METAR EDJA 181650Z 07011KT 040V100 CAVOK 07/02 Q1020",
      "taf": "TAF EDJA 181400Z 1815/1824 06020G30KT 9999 FEW025"
    },
    {
      "icao": "EDLW",
      "alert": "OK",
      "vis_m": 9999,
      "fzfg": false,
      "metar_trigger": false,
      "taf_trigger": false,
      "metar": "METAR EDLW 181650Z 07010KT CAVOK 13/03 Q1025",
      "taf": "TAF EDLW 181100Z 1812/1912 09010KT CAVOK"
    },
    {
      "icao": "EDNY",
      "alert": "OK",
      "vis_m": 9999,
      "fzfg": false,
      "metar_trigger": false,
      "taf_trigger": false,
      "metar": "METAR EDNY 181650Z 06017KT CAVOK 10/01 Q1019",
      "taf": "TAF EDNY 181400Z 1815/1824 04015G25KT CAVOK"
    },
    {
      "icao": "EDSB",
      "alert": "OK",
      "vis_m": 9999,
      "fzfg": false,
      "metar_trigger": false,
      "taf_trigger": false,
      "metar": "METAR EDSB 181650Z 05013KT CAVOK 14/02 Q1021",
      "taf": "TAF EDSB 181100Z 1812/1912 04015KT CAVOK"
    },
    {
      "icao": "EETN",
      "alert": "OK",
      "vis_m": 9999,
      "fzfg": false,
      "metar_trigger": false,
      "taf_trigger": false,
      "metar": "METAR EETN 181650Z 20009KT CAVOK 02/01 Q1028 TEMPO BKN007",
      "taf": "TAF EETN 181130Z 1812/1912 20010KT 9999 BKN008"
    },
    {
      "icao": "EFTU",
      "alert": "OK",
      "vis_m": 6000,
      "fzfg": false,
      "metar_trigger": false,
      "taf_trigger": false,
      "metar": "METAR EFTU 181650Z AUTO 21011KT 6000 OVC002 01/01 Q1024",
      "taf": ""
    },
    {
      "icao": "EGBB",
      "alert": "OK",
      "vis_m": 9999,
      "fzfg": false,
      "metar_trigger": false,
      "taf_trigger": false,
      "metar": "METAR EGBB 181650Z 11006KT CAVOK 18/08 Q1021",
      "taf": "TAF EGBB 181655Z 1818/1918 11006KT CAVOK"
    },
    {
      "icao": "EGGP",
      "alert": "OK",
      "vis_m": 9999,
      "fzfg": false,
      "metar_trigger": false,
      "taf_trigger": false,
      "metar": "METAR EGGP 181650Z VRB01KT CAVOK 17/08 Q1021",
      "taf": "TAF EGGP 181657Z 1818/1918 16004KT 9999 FEW030"
    },
    {
      "icao": "EGGW",
      "alert": "OK",
      "vis_m": 9999,
      "fzfg": false,
      "metar_trigger": false,
      "taf_trigger": false,
      "metar": "METAR EGGW 181650Z AUTO 09008KT 9999 NCD 15/08 Q1022",
      "taf": "TAF EGGW 181655Z 1818/1918 09010KT CAVOK"
    },
    {
      "icao": "EGKK",
      "alert": "OK",
      "vis_m": 9999,
      "fzfg": false,
      "metar_trigger": false,
      "taf_trigger": false,
      "metar": "METAR EGKK 181650Z 08010KT CAVOK 15/M00 Q1021",
      "taf": "TAF EGKK 181651Z 1818/1924 08008KT CAVOK"
    },
    {
      "icao": "EGNM",
      "alert": "OK",
      "vis_m": 9999,
      "fzfg": false,
      "metar_trigger": false,
      "taf_trigger": false,
      "metar": "METAR EGNM 181650Z 10005KT CAVOK 14/08 Q1022",
      "taf": "TAF EGNM 181657Z 1818/1918 VRB03KT 9999 FEW030"
    },
    {
      "icao": "EGPD",
      "alert": "OK",
      "vis_m": 9999,
      "fzfg": false,
      "metar_trigger": false,
      "taf_trigger": false,
      "metar": "METAR EGPD 181650Z COR AUTO 09006KT 9999 NCD 12/03 Q1023 NOSIG",
      "taf": "TAF EGPD 181656Z 1818/1918 VRB03KT 9999 FEW040"
    },
    {
      "icao": "EGPF",
      "alert": "OK",
      "vis_m": 9999,
      "fzfg": false,
      "metar_trigger": false,
      "taf_trigger": false,
      "metar": "METAR EGPF 181650Z AUTO 30006KT 9999 NCD 13/04 Q1024",
      "taf": "TAF EGPF 181656Z 1818/1918 31007KT 9999 FEW040"
    },
    {
      "icao": "EHBK",
      "alert": "OK",
      "vis_m": 9999,
      "fzfg": false,
      "metar_trigger": false,
      "taf_trigger": false,
      "metar": "METAR EHBK 181655Z AUTO 10011KT 9999 NSC 13/01 Q1023 NOSIG",
      "taf": "TAF EHBK 181052Z 1812/1918 09010KT CAVOK"
    },
    {
      "icao": "EHEH",
      "alert": "OK",
      "vis_m": 9999,
      "fzfg": false,
      "metar_trigger": false,
      "taf_trigger": false,
      "metar": "METAR EHEH 181655Z AUTO 09006KT 050V130 9999 OVC350/// 14/00 Q1024 BLU NOSIG",
      "taf": ""
    },
    {
      "icao": "EKBI",
      "alert": "OK",
      "vis_m": 9999,
      "fzfg": false,
      "metar_trigger": false,
      "taf_trigger": false,
      "metar": "METAR EKBI 181650Z AUTO 22007KT 9999 NCD 11/02 Q1029",
      "taf": "TAF EKBI 181427Z 1815/1915 21010KT 9999 SCT040"
    },
    {
      "icao": "EKCH",
      "alert": "OK",
      "vis_m": 9999,
      "fzfg": false,
      "metar_trigger": false,
      "taf_trigger": false,
      "metar": "METAR EKCH 181650Z AUTO 16010KT 9999 NCD 06/00 Q1030 NOSIG",
      "taf": "TAF EKCH 181427Z 1815/1915 17010KT CAVOK"
    },
    {
      "icao": "ENAL",
      "alert": "OK",
      "vis_m": 9999,
      "fzfg": false,
      "metar_trigger": false,
      "taf_trigger": false,
      "metar": "METAR ENAL 181650Z 23024KT 9999 -SHRA FEW012 SCT021 BKN034 09/05 Q1017",
      "taf": "TAF ENAL 181400Z 1815/1824 22025KT 9999 FEW015 BKN030"
    },
    {
      "icao": "ENBR",
      "alert": "OK",
      "vis_m": 9999,
      "fzfg": false,
      "metar_trigger": false,
      "taf_trigger": false,
      "metar": "METAR ENBR 181650Z 16008KT 9999 FEW006 SCT015 07/05 Q1023 TEMPO BKN008 RMK WIND 1200FT 19009KT",
      "taf": "TAF ENBR 181100Z 1812/1912 18008KT 8000 -RADZ BKN006"
    },
    {
      "icao": "ENGM",
      "alert": "OK",
      "vis_m": 5000,
      "fzfg": false,
      "metar_trigger": false,
      "taf_trigger": false,
      "metar": "METAR ENGM 181650Z 21008KT 5000 BR OVC003 05/04 Q1022 TEMPO 4000 BR",
      "taf": "TAF ENGM 181100Z 1812/1912 19012KT 7000 OVC002"
    },
    {
      "icao": "ENHD",
      "alert": "OK",
      "vis_m": 5000,
      "fzfg": false,
      "metar_trigger": false,
      "taf_trigger": false,
      "metar": "METAR ENHD 181650Z 19008KT 5000 BR BKN006 07/06 Q1024",
      "taf": "TAF ENHD 181400Z 1815/1823 18009KT 6000 SCT004 BKN006"
    },
    {
      "icao": "ENTC",
      "alert": "OK",
      "vis_m": 9999,
      "fzfg": false,
      "metar_trigger": false,
      "taf_trigger": false,
      "metar": "METAR ENTC 181620Z 19016KT 9999 BKN040 06/M01 Q0994 TEMPO SHRA SCT025CB RMK WIND 2600FT 18028KT",
      "taf": ""
    },
    {
      "icao": "ENTO",
      "alert": "OK",
      "vis_m": 3000,
      "fzfg": false,
      "metar_trigger": false,
      "taf_trigger": false,
      "metar": "METAR ENTO 181650Z 21009KT 3000 BR OVC002 05/05 Q1024 TEMPO 2000 BR",
      "taf": "TAF ENTO 181100Z 1812/1912 21015KT 5000 -DZ BR OVC004"
    },
    {
      "icao": "ENVA",
      "alert": "OK",
      "vis_m": 9999,
      "fzfg": false,
      "metar_trigger": false,
      "taf_trigger": false,
      "metar": "METAR ENVA 181650Z 29014KT CAVOK 11/02 Q1012 BECMG 26022G32KT RMK WIND 670FT 28013KT",
      "taf": "TAF ENVA 181100Z 1812/1912 22008KT 9999 BKN040"
    },
    {
      "icao": "ENZV",
      "alert": "OK",
      "vis_m": 6000,
      "fzfg": false,
      "metar_trigger": false,
      "taf_trigger": false,
      "metar": "METAR ENZV 181650Z 22007KT 6000 FEW003 09/07 Q1024 TEMPO BKN012",
      "taf": "TAF ENZV 181100Z 1812/1912 16012KT 9999 SCT006 BKN020"
    },
    {
      "icao": "EPGD",
      "alert": "OK",
      "vis_m": 9999,
      "fzfg": false,
      "metar_trigger": false,
      "taf_trigger": false,
      "metar": "METAR EPGD 181700Z 04004KT CAVOK 05/M00 Q1032",
      "taf": "TAF EPGD 181130Z 1812/1912 VRB02KT CAVOK"
    },
    {
      "icao": "EPKK",
      "alert": "OK",
      "vis_m": 9999,
      "fzfg": false,
      "metar_trigger": false,
      "taf_trigger": false,
      "metar": "METAR EPKK 181700Z 06009KT 020V080 CAVOK 10/M05 Q1027",
      "taf": "TAF EPKK 181430Z 1815/1915 07012KT CAVOK"
    },
    {
      "icao": "EPKT",
      "alert": "OK",
      "vis_m": 9999,
      "fzfg": false,
      "metar_trigger": false,
      "taf_trigger": false,
      "metar": "METAR EPKT 181700Z 04006KT CAVOK 10/M01 Q1027",
      "taf": "TAF EPKT 181130Z 1812/1912 08015KT CAVOK"
    },
    {
      "icao": "EPLB",
      "alert": "OK",
      "vis_m": 9999,
      "fzfg": false,
      "metar_trigger": false,
      "taf_trigger": false,
      "metar": "METAR EPLB 181700Z 03005KT CAVOK 09/M01 Q1028",
      "taf": "TAF EPLB 181130Z 1812/1912 04010KT CAVOK"
    },
    {
      "icao": "EPMO",
      "alert": "OK",
      "vis_m": 9999,
      "fzfg": false,
      "metar_trigger": false,
      "taf_trigger": false,
      "metar": "METAR EPMO 181700Z 01004KT CAVOK 10/04 Q1029",
      "taf": "TAF EPMO 181130Z 1812/1912 03007KT CAVOK"
    },
    {
      "icao": "EPPO",
      "alert": "OK",
      "vis_m": 9999,
      "fzfg": false,
      "metar_trigger": false,
      "taf_trigger": false,
      "metar": "METAR EPPO 181700Z 06004KT CAVOK 09/01 Q1030",
      "taf": "TAF EPPO 181130Z 1812/1912 09008KT CAVOK"
    },
    {
      "icao": "EPRA",
      "alert": "OK",
      "vis_m": 9999,
      "fzfg": false,
      "metar_trigger": false,
      "taf_trigger": false,
      "metar": "METAR EPRA 181700Z 04005KT CAVOK 10/M00 Q1028",
      "taf": "TAF EPRA 181430Z 1815/1824 05008KT CAVOK"
    },
    {
      "icao": "EPRZ",
      "alert": "OK",
      "vis_m": 9999,
      "fzfg": false,
      "metar_trigger": false,
      "taf_trigger": false,
      "metar": "METAR EPRZ 181700Z 06007KT CAVOK 10/M02 Q1027",
      "taf": "TAF EPRZ 181130Z 1812/1912 06011KT CAVOK"
    },
    {
      "icao": "EPSC",
      "alert": "OK",
      "vis_m": 9999,
      "fzfg": false,
      "metar_trigger": false,
      "taf_trigger": false,
      "metar": "METAR EPSC 181700Z VRB02KT CAVOK 11/00 Q1030",
      "taf": "TAF EPSC 181130Z 1812/1912 12005KT CAVOK"
    },
    {
      "icao": "EPSY",
      "alert": "OK",
      "vis_m": 9999,
      "fzfg": false,
      "metar_trigger": false,
      "taf_trigger": false,
      "metar": "METAR EPSY 181700Z 35006KT CAVOK 05/M00 Q1030",
      "taf": "TAF EPSY 181430Z 1815/1824 01006KT CAVOK"
    },
    {
      "icao": "EPWA",
      "alert": "OK",
      "vis_m": 9999,
      "fzfg": false,
      "metar_trigger": false,
      "taf_trigger": false,
      "metar": "METAR EPWA 181700Z 03006KT 350V050 CAVOK 12/02 Q1029 NOSIG",
      "taf": "TAF EPWA 181430Z 1815/1915 03006KT CAVOK"
    },
    {
      "icao": "EPWR",
      "alert": "OK",
      "vis_m": 9999,
      "fzfg": false,
      "metar_trigger": false,
      "taf_trigger": false,
      "metar": "METAR EPWR 181700Z 04005KT 010V070 CAVOK 12/03 Q1028",
      "taf": "TAF EPWR 181430Z 1815/1915 07008KT CAVOK"
    },
    {
      "icao": "ESGG",
      "alert": "OK",
      "vis_m": 9999,
      "fzfg": false,
      "metar_trigger": false,
      "taf_trigger": false,
      "metar": "METAR ESGG 181650Z 20013KT 9999 BKN029 07/00 Q1027",
      "taf": "TAF ESGG 181430Z 1815/1915 19014KT 9999 BKN020"
    },
    {
      "icao": "ESKN",
      "alert": "OK",
      "vis_m": 9999,
      "fzfg": false,
      "metar_trigger": false,
      "taf_trigger": false,
      "metar": "METAR ESKN 181650Z 23010KT 9999 BKN036 11/02 Q1026",
      "taf": "TAF ESKN 181430Z 1815/1915 21012KT 9999 BKN040"
    },
    {
      "icao": "ESMS",
      "alert": "OK",
      "vis_m": 9999,
      "fzfg": false,
      "metar_trigger": false,
      "taf_trigger": false,
      "metar": "METAR ESMS 181650Z 18007KT CAVOK 06/01 Q1030",
      "taf": "TAF ESMS 181427Z 1815/1915 18010KT CAVOK"
    },
    {
      "icao": "ESSA",
      "alert": "OK",
      "vis_m": 9999,
      "fzfg": false,
      "metar_trigger": false,
      "taf_trigger": false,
      "metar": "METAR ESSA 181650Z 23010KT 9999 BKN037 09/02 Q1024 NOSIG",
      "taf": "TAF ESSA 181430Z 1815/1915 22012KT 9999 BKN035"
    },
    {
      "icao": "EYKA",
      "alert": "OK",
      "vis_m": 9999,
      "fzfg": false,
      "metar_trigger": false,
      "taf_trigger": false,
      "metar": "METAR EYKA 181650Z 30006KT 270V340 CAVOK 07/03 Q1030",
      "taf": "TAF EYKA 181700Z 1818/1918 VRB03KT 8000 NSC"
    },
    {
      "icao": "EYPA",
      "alert": "OK",
      "vis_m": 550,
      "fzfg": true,
      "metar_trigger": false,
      "taf_trigger": false,
      "metar": "METAR EYPA 181650Z VRB01KT 0550 R19/0650N FZFG VV002 M00/M00 Q1032",
      "taf": "TAF EYPA 181700Z 1818/1918 VRB03KT 0350 FZFG VV002"
    },
    {
      "icao": "EYVI",
      "alert": "OK",
      "vis_m": 9999,
      "fzfg": false,
      "metar_trigger": false,
      "taf_trigger": false,
      "metar": "METAR EYVI 181650Z VRB01KT 9999 BKN035 09/02 Q1029 NOSIG",
      "taf": "TAF EYVI 181700Z 1818/1918 VRB03KT 8000 SCT035"
    },
    {
      "icao": "GCFV",
      "alert": "OK",
      "vis_m": 9999,
      "fzfg": false,
      "metar_trigger": false,
      "taf_trigger": false,
      "metar": "METAR GCFV 181700Z 24011KT 210V280 9999 VCSH SCT015 SCT025TCU BKN035 19/15 Q1002 RESHRA",
      "taf": "TAF GCFV 181400Z 1815/1915 23018KT 9999 SCT025 TX22/1914Z TN15/1906Z"
    },
    {
      "icao": "GCLP",
      "alert": "OK",
      "vis_m": 9999,
      "fzfg": false,
      "metar_trigger": false,
      "taf_trigger": false,
      "metar": "METAR GCLP 181700Z 28006G16KT 240V310 9999 FEW025 BKN045 22/11 Q1002 WS ALL RWY NOSIG",
      "taf": ""
    },
    {
      "icao": "GCTS",
      "alert": "OK",
      "vis_m": 9999,
      "fzfg": false,
      "metar_trigger": false,
      "taf_trigger": false,
      "metar": "METAR GCTS 181700Z 29025G37KT 9999 FEW040 20/09 Q1003 NOSIG",
      "taf": "TAF GCTS 181400Z 1815/1915 28023KT 9999 SCT025 TX23/1914Z TN15/1906Z"
    },
    {
      "icao": "GMAD",
      "alert": "OK",
      "vis_m": 8000,
      "fzfg": false,
      "metar_trigger": false,
      "taf_trigger": false,
      "metar": "METAR GMAD 181700Z 28006KT 210V330 8000 FEW026 23/12 Q1003 NOSIG",
      "taf": "TAF GMAD 181100Z 1812/1918 26010KT 9999 SCT020 SCT080"
    },
    {
      "icao": "GMMN",
      "alert": "OK",
      "vis_m": 9999,
      "fzfg": false,
      "metar_trigger": false,
      "taf_trigger": false,
      "metar": "METAR GMMN 181700Z 32013KT 9999 SCT040 19/14 Q1003 NOSIG",
      "taf": "TAF GMMN 181100Z 1812/1918 20008KT CAVOK"
    },
    {
      "icao": "GMMX",
      "alert": "OK",
      "vis_m": 8000,
      "fzfg": false,
      "metar_trigger": false,
      "taf_trigger": false,
      "metar": "METAR GMMX 181700Z 09005KT 040V150 8000 FEW023 25/05 Q1001 NOSIG",
      "taf": "TAF GMMX 181100Z 1812/1918 06006KT 8000 NSC"
    },
    {
      "icao": "HEGN",
      "alert": "OK",
      "vis_m": 6000,
      "fzfg": false,
      "metar_trigger": false,
      "taf_trigger": false,
      "metar": "METAR HEGN 181600Z 35004KT 6000 SCT020 BKN025 23/18 Q1000 NOSIG",
      "taf": "TAF HEGN 181700Z 1818/1924 12016KT 9999 SCT020"
    },
    {
      "icao": "HEMA",
      "alert": "OK",
      "vis_m": 3000,
      "fzfg": false,
      "metar_trigger": false,
      "taf_trigger": false,
      "metar": "METAR HEMA 181600Z 14020KT 3000 SA FEW020 BKN090 29/14 Q0997 NOSIG",
      "taf": "TAF HEMA 181700Z 1818/1924 13018KT 9999 SCT025"
    },
    {
      "icao": "HESH",
      "alert": "OK",
      "vis_m": 9999,
      "fzfg": false,
      "metar_trigger": false,
      "taf_trigger": false,
      "metar": "METAR HESH 181600Z 02004KT CAVOK 26/02 Q1001 NOSIG",
      "taf": "TAF HESH 181700Z 1818/1924 32014KT 9999 SCT025"
    },
    {
      "icao": "HESX",
      "alert": "OK",
      "vis_m": 9999,
      "fzfg": false,
      "metar_trigger": false,
      "taf_trigger": false,
      "metar": "METAR HESX 181600Z 02004KT 9999 SCT020 SCT025 23/06 Q999 NOSIG",
      "taf": "TAF HESX 181700Z 1818/1924 23015G25KT 9999 SCT025 BKN070"
    },
    {
      "icao": "LATI",
      "alert": "OK",
      "vis_m": 9999,
      "fzfg": false,
      "metar_trigger": false,
      "taf_trigger": false,
      "metar": "METAR LATI 181650Z 31003KT 9999 -RA SCT041 OVC076 12/06 Q1011 NOSIG",
      "taf": "TAF LATI 181700Z 1818/1918 VRB03KT 9999 FEW050 BKN070 TX16/1912Z TN07/1905Z"
    },
    {
      "icao": "LBPD",
      "alert": "OK",
      "vis_m": 9999,
      "fzfg": false,
      "metar_trigger": false,
      "taf_trigger": false,
      "metar": "METAR LBPD 181700Z AUTO 26005KT 9999 BKN031/// OVC054/// 06/06 Q1019 NOSIG",
      "taf": "TAF LBPD 181100Z 1812/1912 16010KT 8000 -RA SCT020 OVC030"
    },
    {
      "icao": "LBSF",
      "alert": "OK",
      "vis_m": 9999,
      "fzfg": false,
      "metar_trigger": false,
      "taf_trigger": false,
      "metar": "METAR LBSF 181700Z AUTO 11009KT 9999 OVC048/// 06/00 Q1018 NOSIG",
      "taf": "TAF LBSF 181100Z 1812/1912 12016KT 9999 SCT030 OVC040"
    },
    {
      "icao": "LBWN",
      "alert": "OK",
      "vis_m": 9999,
      "fzfg": false,
      "metar_trigger": false,
      "taf_trigger": false,
      "metar": "METAR LBWN 181700Z AUTO 06011KT 9999 FEW022/// 08/04 Q1020 NOSIG",
      "taf": "TAF LBWN 181100Z 1812/1912 04014KT 9999 SCT040"
    },
    {
      "icao": "LCLK",
      "alert": "OK",
      "vis_m": 8000,
      "fzfg": false,
      "metar_trigger": false,
      "taf_trigger": false,
      "metar": "METAR LCLK 181700Z 01014KT 8000 NSC 19/15 Q1002 NOSIG",
      "taf": "TAF LCLK 181130Z 1812/1912 04016KT CAVOK"
    },
    {
      "icao": "LCPH",
      "alert": "OK",
      "vis_m": 9999,
      "fzfg": false,
      "metar_trigger": false,
      "taf_trigger": false,
      "metar": "METAR LCPH 181700Z 07007KT 040V100 9999 FEW030 21/05 Q1001 NOSIG",
      "taf": "TAF LCPH 181130Z 1812/1912 13013KT CAVOK"
    },
    {
      "icao": "LEAL",
      "alert": "OK",
      "vis_m": 9999,
      "fzfg": false,
      "metar_trigger": false,
      "taf_trigger": false,
      "metar": "METAR LEAL 181700Z 06009KT CAVOK 16/13 Q1008 NOSIG",
      "taf": "TAF LEAL 181100Z 1812/1912 07010KT CAVOK TX20/1812Z TN11/1907Z"
    },
    {
      "icao": "LEBB",
      "alert": "OK",
      "vis_m": 9999,
      "fzfg": false,
      "metar_trigger": false,
      "taf_trigger": false,
      "metar": "METAR LEBB 181700Z 28007KT 250V310 CAVOK 18/10 Q1006 NOSIG",
      "taf": ""
    },
    {
      "icao": "LEBL",
      "alert": "OK",
      "vis_m": 9999,
      "fzfg": false,
      "metar_trigger": false,
      "taf_trigger": false,
      "metar": "METAR LEBL 181700Z 07017KT 9999 FEW015 15/11 Q1012 NOSIG",
      "taf": "TAF LEBL 181100Z 1812/1912 10009KT 9999 FEW010 TX16/1812Z TN10/1906Z"
    },
    {
      "icao": "LECH",
      "alert": "OK",
      "vis_m": 9000,
      "fzfg": false,
      "metar_trigger": false,
      "taf_trigger": false,
      "metar": "METAR LECH 181700Z AUTO 10009KT 9000 NCD 13/10 Q1009",
      "taf": ""
    },
    {
      "icao": "LEMD",
      "alert": "OK",
      "vis_m": 9999,
      "fzfg": false,
      "metar_trigger": false,
      "taf_trigger": false,
      "metar": "METAR LEMD 181700Z 19005KT CAVOK 18/M00 Q1007 NOSIG",
      "taf": "TAF LEMD 181100Z 1812/1918 VRB04KT CAVOK TX20/1815Z TN04/1906Z"
    },
    {
      "icao": "LEMG",
      "alert": "OK",
      "vis_m": 9999,
      "fzfg": false,
      "metar_trigger": false,
      "taf_trigger": false,
      "metar": "METAR LEMG 181700Z 13006KT CAVOK 18/10 Q1006 NOSIG",
      "taf": "TAF LEMG 181100Z 1812/1912 13010KT CAVOK TX20/1813Z TN10/1906Z"
    },
    {
      "icao": "LEVC",
      "alert": "OK",
      "vis_m": 9999,
      "fzfg": false,
      "metar_trigger": false,
      "taf_trigger": false,
      "metar": "METAR LEVC 181700Z 08006KT 030V140 CAVOK 15/10 Q1008 NOSIG",
      "taf": "TAF LEVC 181100Z 1812/1912 09008KT CAVOK TX20/1812Z TN10/1907Z"
    },
    {
      "icao": "LEXJ",
      "alert": "OK",
      "vis_m": 9999,
      "fzfg": false,
      "metar_trigger": false,
      "taf_trigger": false,
      "metar": "METAR LEXJ 181700Z 31005KT CAVOK 14/09 Q1006",
      "taf": "TAF LEXJ 181400Z 1815/1915 33008KT CAVOK TX21/1912Z TN09/1907Z"
    },
    {
      "icao": "LEZG",
      "alert": "OK",
      "vis_m": 9999,
      "fzfg": false,
      "metar_trigger": false,
      "taf_trigger": false,
      "metar": "METAR LEZG 181700Z 15007KT CAVOK 21/07 Q1006 NOSIG",
      "taf": "TAF LEZG 181100Z 1812/1912 10008KT CAVOK TX22/1814Z TN08/1907Z"
    },
    {
      "icao": "LEZL",
      "alert": "OK",
      "vis_m": 9999,
      "fzfg": false,
      "metar_trigger": false,
      "taf_trigger": false,
      "metar": "METAR LEZL 181700Z 24007KT 210V270 9999 FEW045 21/11 Q1005 NOSIG",
      "taf": "TAF LEZL 181400Z 1815/1915 20010KT 9999 FEW030 TX25/1915Z TN12/1907Z"
    },
    {
      "icao": "LFBD",
      "alert": "OK",
      "vis_m": 9999,
      "fzfg": false,
      "metar_trigger": false,
      "taf_trigger": false,
      "metar": "METAR LFBD 181700Z AUTO 04008KT CAVOK 23/05 Q1006 BECMG 10010KT",
      "taf": "TAF LFBD 181100Z 1812/1918 10010KT CAVOK TX22/1815Z TN09/1905Z"
    },
    {
      "icao": "LFLL",
      "alert": "OK",
      "vis_m": 9999,
      "fzfg": false,
      "metar_trigger": false,
      "taf_trigger": false,
      "metar": "METAR LFLL 181700Z 11009G19KT 080V140 CAVOK 14/03 Q1014 NOSIG",
      "taf": ""
    },
    {
      "icao": "LFLS",
      "alert": "OK",
      "vis_m": 9999,
      "fzfg": false,
      "metar_trigger": false,
      "taf_trigger": false,
      "metar": "METAR LFLS 181700Z AUTO 06006KT 350V130 9999 -RA FEW034/// SCT062/// OVC090/// ///TCU 10/05 Q1014 BECMG NSC",
      "taf": "TAF LFLS 181400Z 1815/1915 VRB03KT CAVOK"
    },
    {
      "icao": "LFMN",
      "alert": "OK",
      "vis_m": 9999,
      "fzfg": false,
      "metar_trigger": false,
      "taf_trigger": false,
      "metar": "METAR LFMN 181700Z 33008KT CAVOK 16/01 Q1014 NOSIG",
      "taf": "TAF LFMN 181400Z 1815/1921 VRB02KT CAVOK"
    },
    {
      "icao": "LFOB",
      "alert": "OK",
      "vis_m": 9999,
      "fzfg": false,
      "metar_trigger": false,
      "taf_trigger": false,
      "metar": "METAR LFOB 181700Z AUTO 07011KT CAVOK 14/02 Q1019 NOSIG",
      "taf": "TAF LFOB 181100Z 1812/1912 08008KT CAVOK"
    },
    {
      "icao": "LFPO",
      "alert": "OK",
      "vis_m": 9999,
      "fzfg": false,
      "metar_trigger": false,
      "taf_trigger": false,
      "metar": "METAR LFPO 181700Z 08017KT 040V100 CAVOK 15/M00 Q1017 NOSIG",
      "taf": "TAF LFPO 181100Z 1812/1918 07008KT CAVOK"
    },
    {
      "icao": "LFSB",
      "alert": "OK",
      "vis_m": 9999,
      "fzfg": false,
      "metar_trigger": false,
      "taf_trigger": false,
      "metar": "METAR LFSB 181700Z AUTO 10012KT 060V120 CAVOK 13/01 Q1018 NOSIG",
      "taf": "TAF LFSB 181100Z 1812/1912 10010KT CAVOK"
    },
    {
      "icao": "LGAV",
      "alert": "OK",
      "vis_m": 9999,
      "fzfg": false,
      "metar_trigger": false,
      "taf_trigger": false,
      "metar": "METAR LGAV 181650Z 02015G25KT 9999 FEW018 SCT030 BKN070 12/07 Q1010 NOSIG",
      "taf": "TAF LGAV 181100Z 1812/1912 03015KT 9999 FEW020 SCT035 BKN070"
    },
    {
      "icao": "LGTS",
      "alert": "OK",
      "vis_m": 9999,
      "fzfg": false,
      "metar_trigger": false,
      "taf_trigger": false,
      "metar": "METAR LGTS 181650Z 22004KT 9999 SCT030 12/03 Q1015 NOSIG",
      "taf": "TAF LGTS 181100Z 1812/1912 14013KT 9999 BKN025"
    },
    {
      "icao": "LHBP",
      "alert": "OK",
      "vis_m": 9999,
      "fzfg": false,
      "metar_trigger": false,
      "taf_trigger": false,
      "metar": "METAR LHBP 181700Z 08005KT CAVOK 13/M03 Q1021 NOSIG",
      "taf": "TAF LHBP 181115Z 1812/1912 07015G26KT CAVOK"
    },
    {
      "icao": "LHDC",
      "alert": "OK",
      "vis_m": 9999,
      "fzfg": false,
      "metar_trigger": false,
      "taf_trigger": false,
      "metar": "METAR LHDC 181645Z AUTO 04015KT CAVOK 14/M04 Q1021 NOSIG",
      "taf": "TAF LHDC 181415Z 1815/1824 07014KT CAVOK"
    },
    {
      "icao": "LIBD",
      "alert": "OK",
      "vis_m": 9999,
      "fzfg": false,
      "metar_trigger": false,
      "taf_trigger": false,
      "metar": "METAR LIBD 181650Z 08009KT 9999 SCT025 10/05 Q1010",
      "taf": "TAF LIBD 181100Z 1812/1912 02008KT 9999 SCT030"
    },
    {
      "icao": "LIBG",
      "alert": "OK",
      "vis_m": 9999,
      "fzfg": false,
      "metar_trigger": false,
      "taf_trigger": false,
      "metar": "METAR LIBG 181650Z 08008KT 9999 VCSH FEW020TCU 11/07 Q1009",
      "taf": "TAF LIBG 181400Z 1815/1824 VRB06KT 9999 SCT025"
    },
    {
      "icao": "LIBP",
      "alert": "OK",
      "vis_m": 9999,
      "fzfg": false,
      "metar_trigger": false,
      "taf_trigger": false,
      "metar": "METAR LIBP 181650Z AUTO 22007KT 9999 -RA OVC016/// 07/07 Q1011",
      "taf": "TAF LIBP 181100Z 1812/1912 28010KT 9999 BKN020"
    },
    {
      "icao": "LIBR",
      "alert": "OK",
      "vis_m": 9999,
      "fzfg": false,
      "metar_trigger": false,
      "taf_trigger": false,
      "metar": "METAR LIBR 181650Z 10003KT 9999 SCT015 11/08 Q1009",
      "taf": "TAF LIBR 181100Z 1812/1912 02008KT 9999 BKN030"
    },
    {
      "icao": "LICA",
      "alert": "OK",
      "vis_m": 9999,
      "fzfg": false,
      "metar_trigger": false,
      "taf_trigger": false,
      "metar": "METAR LICA 181650Z AUTO 07006KT 9999 FEW064/// OVC084/// 09/07 Q1009",
      "taf": "TAF LICA 181100Z 1812/1912 29012KT 9999 SCT040"
    },
    {
      "icao": "LICC",
      "alert": "OK",
      "vis_m": 9999,
      "fzfg": false,
      "metar_trigger": false,
      "taf_trigger": false,
      "metar": "METAR LICC 181650Z 10003KT 030V160 9999 SCT020TCU BKN100 13/11 Q1009",
      "taf": "TAF LICC 181100Z 1812/1912 09010KT 9999 BKN030"
    },
    {
      "icao": "LICJ",
      "alert": "OK",
      "vis_m": 9999,
      "fzfg": false,
      "metar_trigger": false,
      "taf_trigger": false,
      "metar": "METAR LICJ 181650Z 34006KT 9999 FEW035 13/05 Q1010",
      "taf": "TAF LICJ 181100Z 1812/1912 32014KT 9999 SCT020"
    },
    {
      "icao": "LIMC",
      "alert": "OK",
      "vis_m": 9999,
      "fzfg": false,
      "metar_trigger": false,
      "taf_trigger": false,
      "metar": "METAR LIMC 181650Z 22007KT 190V280 CAVOK 13/01 Q1018 NOSIG",
      "taf": "TAF LIMC 181100Z 1812/1918 VRB06KT 9999 SCT050"
    },
    {
      "icao": "LIME",
      "alert": "OK",
      "vis_m": 9999,
      "fzfg": false,
      "metar_trigger": false,
      "taf_trigger": false,
      "metar": "METAR LIME 181650Z 26008KT 9999 FEW090 13/M00 Q1017 NOSIG",
      "taf": "TAF LIME 181100Z 1812/1912 14010KT 9999 SCT050"
    },
    {
      "icao": "LIMF",
      "alert": "OK",
      "vis_m": 9999,
      "fzfg": false,
      "metar_trigger": false,
      "taf_trigger": false,
      "metar": "METAR LIMF 181650Z 23006KT 9999 SCT070 11/01 Q1019",
      "taf": "TAF LIMF 181100Z 1812/1912 32010KT 9999 BKN040"
    },
    {
      "icao": "LIMJ",
      "alert": "OK",
      "vis_m": 9999,
      "fzfg": false,
      "metar_trigger": false,
      "taf_trigger": false,
      "metar": "METAR LIMJ 181650Z 19004KT 9999 FEW032 BKN065 14/01 Q1016",
      "taf": "TAF LIMJ 181100Z 1812/1912 03018G28KT 9999 SCT020"
    },
    {
      "icao": "LIPE",
      "alert": "OK",
      "vis_m": 9999,
      "fzfg": false,
      "metar_trigger": false,
      "taf_trigger": false,
      "metar": "METAR LIPE 181650Z 05006KT 020V080 CAVOK 12/03 Q1017",
      "taf": "TAF LIPE 181100Z 1812/1912 04013KT 9999 BKN050"
    },
    {
      "icao": "LIPH",
      "alert": "OK",
      "vis_m": 9999,
      "fzfg": false,
      "metar_trigger": false,
      "taf_trigger": false,
      "metar": "METAR LIPH 181650Z 10006KT CAVOK 14/01 Q1017",
      "taf": "TAF LIPH 181100Z 1812/1912 07013KT 9999 SCT060"
    },
    {
      "icao": "LIPQ",
      "alert": "OK",
      "vis_m": 9999,
      "fzfg": false,
      "metar_trigger": false,
      "taf_trigger": false,
      "metar": "METAR LIPQ 181650Z AUTO 08005KT 9999 BKN140/// 14/M01 Q1017",
      "taf": "TAF LIPQ 181100Z 1812/1912 05015KT 9999 FEW060 SCT090"
    },
    {
      "icao": "LIPR",
      "alert": "OK",
      "vis_m": 9999,
      "fzfg": false,
      "metar_trigger": false,
      "taf_trigger": false,
      "metar": "METAR LIPR 181650Z 06013KT 9999 BKN070 12/06 Q1015",
      "taf": "TAF LIPR 181100Z 1812/1912 04015G25KT 9999 BKN040"
    },
    {
      "icao": "LIPX",
      "alert": "OK",
      "vis_m": 9999,
      "fzfg": false,
      "metar_trigger": false,
      "taf_trigger": false,
      "metar": "METAR LIPX 181650Z 08007KT 9999 SCT090 15/M01 Q1017",
      "taf": "TAF LIPX 181100Z 1812/1912 08015KT 9999 SCT030"
    },
    {
      "icao": "LIPY",
      "alert": "OK",
      "vis_m": 9999,
      "fzfg": false,
      "metar_trigger": false,
      "taf_trigger": false,
      "metar": "METAR LIPY 181650Z AUTO 05012KT 9999 OVC063/// 13/05 Q1013",
      "taf": "TAF LIPY 181100Z 1812/1912 03014KT 9999 BKN040"
    },
    {
      "icao": "LIPZ",
      "alert": "OK",
      "vis_m": 9999,
      "fzfg": false,
      "metar_trigger": false,
      "taf_trigger": false,
      "metar": "METAR LIPZ 181650Z 08007KT CAVOK 13/05 Q1017 NOSIG",
      "taf": "TAF LIPZ 181100Z 1812/1918 06017KT 9999 SCT060"
    },
    {
      "icao": "LIRF",
      "alert": "OK",
      "vis_m": 9999,
      "fzfg": false,
      "metar_trigger": false,
      "taf_trigger": false,
      "metar": "METAR LIRF 181650Z 36014KT CAVOK 14/04 Q1008 NOSIG",
      "taf": "TAF LIRF 181100Z 1812/1918 01014KT 9999 FEW050"
    },
    {
      "icao": "LIRN",
      "alert": "OK",
      "vis_m": 8000,
      "fzfg": false,
      "metar_trigger": false,
      "taf_trigger": false,
      "metar": "METAR LIRN 181650Z VRB03KT 8000 -RA BKN040 07/05 Q1009 NOSIG",
      "taf": "TAF LIRN 181100Z 1812/1912 03008KT 9999 SCT040"
    },
    {
      "icao": "LIRP",
      "alert": "OK",
      "vis_m": 9999,
      "fzfg": false,
      "metar_trigger": false,
      "taf_trigger": false,
      "metar": "METAR LIRP 181645Z 04014KT 9999 FEW040 SCT050 13/03 Q1014 TEMPO 05017G30KT",
      "taf": "TAF LIRP 181100Z 1812/1912 05013KT 9999 FEW040"
    },
    {
      "icao": "LIRZ",
      "alert": "OK",
      "vis_m": 9999,
      "fzfg": false,
      "metar_trigger": false,
      "taf_trigger": false,
      "metar": "METAR LIRZ 181650Z AUTO 01011KT 9999 BKN030/// BKN046/// 09/05 Q1011",
      "taf": "TAF LIRZ 181100Z 1812/1912 02014KT 9999 FEW030"
    },
    {
      "icao": "LJLJ",
      "alert": "OK",
      "vis_m": 9999,
      "fzfg": false,
      "metar_trigger": false,
      "taf_trigger": false,
      "metar": "METAR LJLJ 181700Z 07013KT 030V110 9999 SCT050 BKN110 11/M01 Q1019 NOSIG",
      "taf": "TAF LJLJ 181700Z 1818/1918 06010KT 9999 SCT050"
    },
    {
      "icao": "LKMT",
      "alert": "OK",
      "vis_m": 9999,
      "fzfg": false,
      "metar_trigger": false,
      "taf_trigger": false,
      "metar": "METAR LKMT 181700Z 07009KT CAVOK 11/M01 Q1026 NOSIG",
      "taf": "TAF LKMT 181100Z 1812/1912 05010KT CAVOK"
    },
    {
      "icao": "LKPR",
      "alert": "OK",
      "vis_m": 9999,
      "fzfg": false,
      "metar_trigger": false,
      "taf_trigger": false,
      "metar": "METAR LKPR 181700Z 08014KT CAVOK 10/M00 Q1026 NOSIG",
      "taf": "TAF LKPR 181400Z 1815/1921 08012KT CAVOK"
    },
    {
      "icao": "LLBG",
      "alert": "OK",
      "vis_m": 9999,
      "fzfg": false,
      "metar_trigger": false,
      "taf_trigger": false,
      "metar": "METAR LLBG 181650Z 16016KT 9999 -RA FEW050 21/12 Q1003 NOSIG RMK BKN090",
      "taf": "TAF LLBG 181105Z 1812/1912 14008KT CAVOK TX29/1812Z TN12/1903Z"
    },
    {
      "icao": "LMML",
      "alert": "OK",
      "vis_m": 9999,
      "fzfg": false,
      "metar_trigger": false,
      "taf_trigger": false,
      "metar": "METAR LMML 181645Z 27010KT 9999 FEW025 15/09 Q1009 NOSIG",
      "taf": "TAF LMML 181700Z 1818/1918 28010KT 9999 FEW020"
    },
    {
      "icao": "LOWW",
      "alert": "OK",
      "vis_m": 9999,
      "fzfg": false,
      "metar_trigger": false,
      "taf_trigger": false,
      "metar": "METAR LOWW 181650Z 36007KT 340V040 CAVOK 13/03 Q1023 NOSIG",
      "taf": "TAF LOWW 181415Z 1815/1921 06010KT CAVOK TX16/1815Z TN02/1904Z"
    },
    {
      "icao": "LPFR",
      "alert": "OK",
      "vis_m": 9999,
      "fzfg": false,
      "metar_trigger": false,
      "taf_trigger": false,
      "metar": "METAR LPFR 181700Z 13011KT 9999 FEW020 17/14 Q1003",
      "taf": "TAF LPFR 181100Z 1812/1912 17015KT 9999 SCT015 SCT030"
    },
    {
      "icao": "LPMA",
      "alert": "OK",
      "vis_m": 9999,
      "fzfg": false,
      "metar_trigger": false,
      "taf_trigger": false,
      "metar": "METAR LPMA 181700Z 20009KT 150V230 9999 SCT013 FEW018CB 15/05 Q0997",
      "taf": "TAF LPMA 181100Z 1812/1912 34010KT 9999 SCT015"
    },
    {
      "icao": "LPPR",
      "alert": "OK",
      "vis_m": 9999,
      "fzfg": false,
      "metar_trigger": false,
      "taf_trigger": false,
      "metar": "METAR LPPR 181700Z 13008KT 9999 FEW018 SCT045 20/09 Q1003",
      "taf": "TAF LPPR 181100Z 1812/1912 14012KT 9999 FEW018 SCT040"
    },
    {
      "icao": "LPPS",
      "alert": "OK",
      "vis_m": 9999,
      "fzfg": false,
      "metar_trigger": false,
      "taf_trigger": false,
      "metar": "METAR LPPS 181700Z 24013KT 210V280 9999 SCT014 FEW018CB SCT030 13/07 Q0997",
      "taf": "TAF LPPS 181100Z 1812/1918 27018KT 9999 SCT015 SCT030"
    },
    {
      "icao": "LPPT",
      "alert": "OK",
      "vis_m": 9999,
      "fzfg": false,
      "metar_trigger": false,
      "taf_trigger": false,
      "metar": "METAR LPPT 181700Z 16013G24KT 9999 SCT030 FEW035CB 17/12 Q1001",
      "taf": "TAF LPPT 181100Z 1812/1918 14012KT 9999 SCT015 SCT035"
    },
    {
      "icao": "LQBK",
      "alert": "OK",
      "vis_m": 9999,
      "fzfg": false,
      "metar_trigger": false,
      "taf_trigger": false,
      "metar": "METAR LQBK 181700Z 02007KT CAVOK 11/M01 Q1018 NOSIG",
      "taf": "TAF LQBK 181700Z 1818/1918 36006KT CAVOK TX13/1913Z TN02/1905Z"
    },
    {
      "icao": "LQSA",
      "alert": "OK",
      "vis_m": 9999,
      "fzfg": false,
      "metar_trigger": false,
      "taf_trigger": false,
      "metar": "METAR LQSA 181700Z VRB02KT 9999 BKN050 06/00 Q1016 NOSIG",
      "taf": "TAF LQSA 181700Z 1818/1918 27005KT 9999 FEW030 BKN050 TX08/1914Z TNM02/1905Z"
    },
    {
      "icao": "LQTZ",
      "alert": "OK",
      "vis_m": 9999,
      "fzfg": false,
      "metar_trigger": false,
      "taf_trigger": false,
      "metar": "METAR LQTZ 181700Z 09012KT 9999 SCT067 11/M02 Q1017",
      "taf": "TAF LQTZ 181700Z 1818/1918 09005KT 9999 SCT070 TX12/1913Z TN00/1905Z"
    },
    {
      "icao": "LRBC",
      "alert": "OK",
      "vis_m": 9999,
      "fzfg": false,
      "metar_trigger": false,
      "taf_trigger": false,
      "metar": "METAR LRBC 181700Z 36009KT CAVOK 08/M01 Q1024",
      "taf": "TAF LRBC 181400Z 1815/1824 36010KT 9999 BKN060"
    },
    {
      "icao": "LRBS",
      "alert": "OK",
      "vis_m": 9999,
      "fzfg": false,
      "metar_trigger": false,
      "taf_trigger": false,
      "metar": "METAR LRBS 181700Z 06014KT CAVOK 09/M00 Q1022 NOSIG",
      "taf": "TAF LRBS 181100Z 1812/1912 06018KT CAVOK"
    },
    {
      "icao": "LRBV",
      "alert": "OK",
      "vis_m": 9999,
      "fzfg": false,
      "metar_trigger": false,
      "taf_trigger": false,
      "metar": "METAR LRBV 181700Z 07011KT 9999 SCT063 06/M04 Q1022",
      "taf": "TAF LRBV 181400Z 1815/1824 07017KT CAVOK"
    },
    {
      "icao": "LRCL",
      "alert": "OK",
      "vis_m": 9999,
      "fzfg": false,
      "metar_trigger": false,
      "taf_trigger": false,
      "metar": "METAR LRCL 181700Z 07008KT 9999 SCT064 11/M04 Q1020",
      "taf": "TAF LRCL 181400Z 1815/1824 VRB04KT CAVOK"
    },
    {
      "icao": "LRCV",
      "alert": "OK",
      "vis_m": 9999,
      "fzfg": false,
      "metar_trigger": false,
      "taf_trigger": false,
      "metar": "METAR LRCV 181700Z 09007KT CAVOK 08/01 Q1021",
      "taf": "TAF LRCV 181400Z 1815/1824 08016KT CAVOK"
    },
    {
      "icao": "LRIA",
      "alert": "OK",
      "vis_m": 9999,
      "fzfg": false,
      "metar_trigger": false,
      "taf_trigger": false,
      "metar": "METAR LRIA 181700Z 01008KT 340V040 CAVOK 08/M01 Q1024",
      "taf": "TAF LRIA 181400Z 1815/1824 01008KT 9999 SCT045"
    },
    {
      "icao": "LROP",
      "alert": "OK",
      "vis_m": 9999,
      "fzfg": false,
      "metar_trigger": false,
      "taf_trigger": false,
      "metar": "METAR LROP 181700Z 08014KT CAVOK 09/M04 Q1022 NOSIG",
      "taf": "TAF LROP 181100Z 1812/1912 06018KT CAVOK"
    },
    {
      "icao": "LRSB",
      "alert": "OK",
      "vis_m": 9999,
      "fzfg": false,
      "metar_trigger": false,
      "taf_trigger": false,
      "metar": "METAR LRSB 181700Z 11008KT CAVOK 10/M03 Q1020",
      "taf": "TAF LRSB 181100Z 1812/1912 12015KT CAVOK"
    },
    {
      "icao": "LRSM",
      "alert": "OK",
      "vis_m": 9999,
      "fzfg": false,
      "metar_trigger": false,
      "taf_trigger": false,
      "metar": "METAR LRSM 181700Z 07010KT CAVOK 10/M02 Q1022",
      "taf": "TAF LRSM 181400Z 1815/1824 05011KT CAVOK"
    },
    {
      "icao": "LRSV",
      "alert": "OK",
      "vis_m": 9999,
      "fzfg": false,
      "metar_trigger": false,
      "taf_trigger": false,
      "metar": "METAR LRSV 181700Z 35009KT CAVOK 06/M02 Q1024",
      "taf": "TAF LRSV 181400Z 1815/1824 35010KT 9999 SCT040"
    },
    {
      "icao": "LRTM",
      "alert": "OK",
      "vis_m": 9999,
      "fzfg": false,
      "metar_trigger": false,
      "taf_trigger": false,
      "metar": "METAR LRTM 181700Z 11012KT 9999 FEW038 SCT048 12/M03 Q1021",
      "taf": "TAF LRTM 181400Z 1815/1824 VRB04KT CAVOK"
    },
    {
      "icao": "LRTR",
      "alert": "OK",
      "vis_m": 9999,
      "fzfg": false,
      "metar_trigger": false,
      "taf_trigger": false,
      "metar": "METAR LRTR 181700Z 24002KT CAVOK 11/M00 Q1019",
      "taf": "TAF LRTR 181100Z 1812/1912 08010KT CAVOK"
    },
    {
      "icao": "LTAC",
      "alert": "OK",
      "vis_m": 9999,
      "fzfg": false,
      "metar_trigger": false,
      "taf_trigger": false,
      "metar": "METAR LTAC 181650Z 08006KT 9999 SCT040 BKN080 11/02 Q1010 NOSIG RMK RWY21C 07009KT RWY03L 04005KT RWY21R 06010KT RWY03R 07005KT 030V090 RWY21L 08010KT",
      "taf": "TAF LTAC 181640Z 1818/1918 03007KT 9999 SCT040 BKN080"
    },
    {
      "icao": "LTFM",
      "alert": "OK",
      "vis_m": 9999,
      "fzfg": false,
      "metar_trigger": false,
      "taf_trigger": false,
      "metar": "METAR LTFM 181650Z 04019KT 9999 SCT013 BKN023 08/06 Q1017 NOSIG RMK RWY17L 04018KT RWY34L 03016KT RWY16R 04018KT RWY36 04017KT RWY18 05016KT",
      "taf": "TAF LTFM 181640Z 1818/1924 04018G28KT 9999 SCT012 BKN025"
    },
    {
      "icao": "LUKK",
      "alert": "OK",
      "vis_m": 9999,
      "fzfg": false,
      "metar_trigger": false,
      "taf_trigger": false,
      "metar": "METAR LUKK 181700Z 05011KT 9999 BKN038 08/00 Q1024 NOSIG",
      "taf": "TAF LUKK 181117Z 1812/1912 02010KT 9999 BKN030"
    },
    {
      "icao": "LWOH",
      "alert": "OK",
      "vis_m": 9999,
      "fzfg": false,
      "metar_trigger": false,
      "taf_trigger": false,
      "metar": "METAR LWOH 181650Z 35004KT 280V070 9999 OVC043 07/01 Q1013",
      "taf": "TAF LWOH 181440Z 1815/1915 04010KT 9999 FEW020 BKN040 BKN090"
    },
    {
      "icao": "LWSK",
      "alert": "OK",
      "vis_m": 9999,
      "fzfg": false,
      "metar_trigger": false,
      "taf_trigger": false,
      "metar": "METAR LWSK 181650Z 01005KT 350V050 9999 BKN050 OVC085 11/02 Q1015 NOSIG",
      "taf": "TAF LWSK 181440Z 1815/1915 09006KT 9999 SCT055 BKN080"
    },
    {
      "icao": "LYBE",
      "alert": "OK",
      "vis_m": 9999,
      "fzfg": false,
      "metar_trigger": false,
      "taf_trigger": false,
      "metar": "METAR LYBE 181700Z 10014KT CAVOK 12/M03 Q1019 NOSIG",
      "taf": "TAF LYBE 181100Z 1812/1912 10016KT CAVOK TX14/1813Z TN03/1905Z"
    },
    {
      "icao": "LYNI",
      "alert": "OK",
      "vis_m": 9999,
      "fzfg": false,
      "metar_trigger": false,
      "taf_trigger": false,
      "metar": "METAR LYNI 181700Z 06011KT 9999 FEW080 11/M03 Q1017 NOSIG",
      "taf": "TAF LYNI 181100Z 1812/1912 11012KT 9999 BKN080 TX13/1814Z TN04/1905Z"
    },
    {
      "icao": "LYPG",
      "alert": "OK",
      "vis_m": 9999,
      "fzfg": false,
      "metar_trigger": false,
      "taf_trigger": false,
      "metar": "METAR LYPG 181700Z 01008KT 340V050 9999 SCT050 OVC080 13/00 Q1011 NOSIG",
      "taf": "TAF LYPG 181100Z 1812/1912 21006KT 9999 FEW040 BKN090 TX15/1813Z TN05/1904Z"
    },
    {
      "icao": "LZIB",
      "alert": "OK",
      "vis_m": 9999,
      "fzfg": false,
      "metar_trigger": false,
      "taf_trigger": false,
      "metar": "METAR LZIB 181700Z 03006KT CAVOK 14/M02 Q1022 NOSIG",
      "taf": "TAF LZIB 181115Z 1812/1912 07010KT CAVOK"
    },
    {
      "icao": "LZKZ",
      "alert": "OK",
      "vis_m": 9999,
      "fzfg": false,
      "metar_trigger": false,
      "taf_trigger": false,
      "metar": "METAR LZKZ 181700Z 04013KT CAVOK 11/M04 Q1024 NOSIG",
      "taf": "TAF LZKZ 181115Z 1812/1912 01015KT CAVOK"
    },
    {
      "icao": "LZTT",
      "alert": "OK",
      "vis_m": 9999,
      "fzfg": false,
      "metar_trigger": false,
      "taf_trigger": false,
      "metar": "METAR LZTT 181700Z 04011KT 9999 FEW043 06/M03 Q1024 NOSIG",
      "taf": "TAF LZTT 181115Z 1812/1912 07015KT 9999 FEW040"
    },
    {
      "icao": "OEJN",
      "alert": "OK",
      "vis_m": 9999,
      "fzfg": false,
      "metar_trigger": false,
      "taf_trigger": false,
      "metar": "METAR OEJN 181700Z 19003KT 9999 SCT040 29/20 Q1004 NOSIG",
      "taf": "TAF OEJN 181700Z 1818/1924 19010KT 7000 SCT040"
    },
    {
      "icao": "OEMA",
      "alert": "OK",
      "vis_m": 9999,
      "fzfg": false,
      "metar_trigger": false,
      "taf_trigger": false,
      "metar": "METAR OEMA 181700Z 36006KT 9999 SCT040 29/05 Q1010 NOSIG",
      "taf": "TAF OEMA 181700Z 1818/1924 09012KT 9999 BKN045"
    },
    {
      "icao": "OJAI",
      "alert": "OK",
      "vis_m": 4000,
      "fzfg": false,
      "metar_trigger": false,
      "taf_trigger": false,
      "metar": "METAR OJAI 181600Z 17015KT 4000 -RA FEW030 SCT100 18/09 Q1006 TEMPO 14020G32KT 1500 TSRA SCT025CB",
      "taf": "TAF OJAI 181100Z 1812/1918 13018KT 4000 BLDU NSC"
    },
    {
      "icao": "OMAA",
      "alert": "OK",
      "vis_m": null,
      "fzfg": false,
      "metar_trigger": false,
      "taf_trigger": false,
      "metar": "",
      "taf": ""
    },
    {
      "icao": "OMDB",
      "alert": "OK",
      "vis_m": null,
      "fzfg": false,
      "metar_trigger": false,
      "taf_trigger": false,
      "metar": "",
      "taf": ""
    },
    {
      "icao": "UAAA",
      "alert": "OK",
      "vis_m": 5000,
      "fzfg": false,
      "metar_trigger": false,
      "taf_trigger": false,
      "metar": "METAR UAAA 181630Z 07001MPS 5000 BR FU NSC 03/M01 Q1018 NOSIG",
      "taf": "TAF UAAA 181103Z 1812/1912 18003MPS 9999 SCT100 TX14/1909Z TNM00/1901Z"
    },
    {
      "icao": "UBBB",
      "alert": "OK",
      "vis_m": 9999,
      "fzfg": false,
      "metar_trigger": false,
      "taf_trigger": false,
      "metar": "METAR UBBB 181700Z 31006KT 9999 OVC038 09/05 Q1021 NOSIG",
      "taf": "TAF UBBB 181052Z 1812/1912 34012KT CAVOK TX13/1812Z TN05/1901Z"
    },
    {
      "icao": "UDSG",
      "alert": "OK",
      "vis_m": 9999,
      "fzfg": false,
      "metar_trigger": false,
      "taf_trigger": false,
      "metar": "METAR UDSG 181630Z 16003KT 9999 NSC 01/M02 Q1019 NOSIG",
      "taf": "TAF UDSG 181100Z 1812/1912 VRB06KT 9999 FEW050"
    },
    {
      "icao": "UDYZ",
      "alert": "OK",
      "vis_m": 9999,
      "fzfg": false,
      "metar_trigger": false,
      "taf_trigger": false,
      "metar": "METAR UDYZ 181630Z 27004KT 9999 NSC 10/00 Q1016 NOSIG",
      "taf": "TAF UDYZ 181100Z 1812/1912 24006KT 9999 FEW040"
    },
    {
      "icao": "UGKO",
      "alert": "OK",
      "vis_m": 9999,
      "fzfg": false,
      "metar_trigger": false,
      "taf_trigger": false,
      "metar": "METAR UGKO 181700Z 15003KT CAVOK 12/03 Q1014 NOSIG",
      "taf": "TAF UGKO 181700Z 1818/1918 09007KT CAVOK TX21/1911Z TN12/1818Z"
    }
  ]
}