{
  "ts_utc": "2026-06-13T12:04:39Z",
  "threshold_m": 150,
  "source": "stations_override.txt (ICAO list) + aviationweather.gov (METAR/TAF raw)",
  "station_count": 159,
  "stations": [
    {
      "icao": "BIKF",
      "alert": "OK",
      "vis_m": 9999,
      "fzfg": false,
      "metar_trigger": false,
      "taf_trigger": false,
      "metar": "METAR BIKF 131130Z 14020KT 9999 BKN014 13/09 Q1020",
      "taf": "TAF BIKF 131036Z 1312/1412 14020G30KT 9999 SCT020 TX14/1314Z TN06/1404Z"
    },
    {
      "icao": "BKPR",
      "alert": "OK",
      "vis_m": 9999,
      "fzfg": false,
      "metar_trigger": false,
      "taf_trigger": false,
      "metar": "METAR BKPR 131200Z 36011KT 330V030 9999 FEW050 22/07 Q1020 NOSIG",
      "taf": "TAF BKPR 131130Z 1312/1412 02009KT 9999 FEW050"
    },
    {
      "icao": "EBCI",
      "alert": "OK",
      "vis_m": 9999,
      "fzfg": false,
      "metar_trigger": false,
      "taf_trigger": false,
      "metar": "METAR EBCI 131150Z 26012KT 220V300 9999 FEW033 BKN045 19/11 Q1022 NOSIG",
      "taf": "TAF EBCI 131120Z 1312/1418 27013KT 9999 SCT030"
    },
    {
      "icao": "EDDB",
      "alert": "OK",
      "vis_m": 9999,
      "fzfg": false,
      "metar_trigger": false,
      "taf_trigger": false,
      "metar": "METAR EDDB 131150Z AUTO 29014G24KT 9999 VCSH SCT043 FEW///TCU 20/10 Q1012 TEMPO 27015G25KT SHRA",
      "taf": "TAF EDDB 131100Z 1312/1412 28015G30KT 9999 SCT035"
    },
    {
      "icao": "EDDH",
      "alert": "OK",
      "vis_m": 9999,
      "fzfg": false,
      "metar_trigger": false,
      "taf_trigger": false,
      "metar": "METAR EDDH 131150Z AUTO 28015KT 250V310 9999 SHRA FEW017 BKN042 BKN049 FEW///TCU 12/10 Q1013 TEMPO 27020G35KT NSW",
      "taf": "TAF EDDH 131100Z 1312/1418 25015G25KT 9999 SCT030"
    },
    {
      "icao": "EDDK",
      "alert": "OK",
      "vis_m": 9999,
      "fzfg": false,
      "metar_trigger": false,
      "taf_trigger": false,
      "metar": "METAR EDDK 131150Z AUTO 27016KT 240V300 9999 SCT043 19/10 Q1020 NOSIG",
      "taf": "TAF EDDK 131100Z 1312/1418 28015G25KT 9999 SCT040"
    },
    {
      "icao": "EDDN",
      "alert": "OK",
      "vis_m": 9999,
      "fzfg": false,
      "metar_trigger": false,
      "taf_trigger": false,
      "metar": "METAR EDDN 131150Z AUTO 26016G26KT CAVOK 23/10 Q1018 NOSIG",
      "taf": "TAF EDDN 131100Z 1312/1412 27015G30KT CAVOK"
    },
    {
      "icao": "EDDS",
      "alert": "OK",
      "vis_m": 9999,
      "fzfg": false,
      "metar_trigger": false,
      "taf_trigger": false,
      "metar": "METAR EDDS 131150Z AUTO 26014KT 210V310 CAVOK 25/12 Q1019 NOSIG",
      "taf": "TAF EDDS 131100Z 1312/1412 26015G25KT 9999 SCT040"
    },
    {
      "icao": "EDFH",
      "alert": "OK",
      "vis_m": 9999,
      "fzfg": false,
      "metar_trigger": false,
      "taf_trigger": false,
      "metar": "METAR EDFH 131150Z 26016KT 240V300 CAVOK 19/09 Q1021",
      "taf": "TAF EDFH 131100Z 1312/1412 27014KT 9999 SCT025"
    },
    {
      "icao": "EDJA",
      "alert": "OK",
      "vis_m": 9999,
      "fzfg": false,
      "metar_trigger": false,
      "taf_trigger": false,
      "metar": "METAR EDJA 131150Z 24021G36KT 210V270 9999 FEW048 23/12 Q1022",
      "taf": "TAF EDJA 131100Z 1312/1321 25020G30KT 9999 FEW050"
    },
    {
      "icao": "EDLW",
      "alert": "OK",
      "vis_m": 9999,
      "fzfg": false,
      "metar_trigger": false,
      "taf_trigger": false,
      "metar": "METAR EDLW 131150Z 24016G26KT 9999 BKN036 BKN048 18/11 Q1017",
      "taf": "TAF EDLW 131100Z 1312/1412 26015G25KT 9999 SCT030"
    },
    {
      "icao": "EDNY",
      "alert": "OK",
      "vis_m": 9999,
      "fzfg": false,
      "metar_trigger": false,
      "taf_trigger": false,
      "metar": "METAR EDNY 131150Z 25013KT 220V280 CAVOK 25/14 Q1022",
      "taf": "TAF EDNY 131100Z 1312/1321 25010KT 9999 FEW040"
    },
    {
      "icao": "EDSB",
      "alert": "OK",
      "vis_m": 9999,
      "fzfg": false,
      "metar_trigger": false,
      "taf_trigger": false,
      "metar": "METAR EDSB 131150Z 26009KT 190V300 CAVOK 26/11 Q1020",
      "taf": "TAF EDSB 131100Z 1312/1412 25010KT CAVOK"
    },
    {
      "icao": "EETN",
      "alert": "OK",
      "vis_m": 9999,
      "fzfg": false,
      "metar_trigger": false,
      "taf_trigger": false,
      "metar": "METAR EETN 131150Z 34004KT 300V020 9999 -RA OVC047 13/08 Q1010 TEMPO FEW030CB",
      "taf": "TAF EETN 131130Z 1312/1412 34008KT 9999 BKN045"
    },
    {
      "icao": "EFTU",
      "alert": "OK",
      "vis_m": 9999,
      "fzfg": false,
      "metar_trigger": false,
      "taf_trigger": false,
      "metar": "METAR EFTU 131150Z AUTO 10005KT 050V180 CAVOK 18/05 Q1009",
      "taf": "TAF EFTU 131126Z 1312/1412 16005KT CAVOK"
    },
    {
      "icao": "EGBB",
      "alert": "OK",
      "vis_m": 9999,
      "fzfg": false,
      "metar_trigger": false,
      "taf_trigger": false,
      "metar": "METAR EGBB 131150Z 30013KT 9999 BKN044 17/07 Q1022",
      "taf": "TAF EGBB 131056Z 1312/1412 30012KT 9999 SCT045"
    },
    {
      "icao": "EGGP",
      "alert": "OK",
      "vis_m": 9999,
      "fzfg": false,
      "metar_trigger": false,
      "taf_trigger": false,
      "metar": "METAR EGGP 131150Z 28020KT 9999 SCT028 BKN032 15/07 Q1022",
      "taf": "TAF EGGP 131101Z 1312/1412 28020G30KT 9999 SCT025"
    },
    {
      "icao": "EGGW",
      "alert": "OK",
      "vis_m": 9999,
      "fzfg": false,
      "metar_trigger": false,
      "taf_trigger": false,
      "metar": "METAR EGGW 131150Z AUTO 28015KT 240V310 9999 BKN039 18/08 Q1021",
      "taf": "TAF EGGW 131058Z 1312/1412 26014KT 9999 FEW032"
    },
    {
      "icao": "EGKK",
      "alert": "OK",
      "vis_m": 9999,
      "fzfg": false,
      "metar_trigger": false,
      "taf_trigger": false,
      "metar": "METAR EGKK 131150Z 27011KT 230V310 9999 FEW038 20/09 Q1022",
      "taf": "TAF EGKK 131053Z 1312/1418 29014KT 9999 FEW035"
    },
    {
      "icao": "EGNM",
      "alert": "OK",
      "vis_m": 9999,
      "fzfg": false,
      "metar_trigger": false,
      "taf_trigger": false,
      "metar": "METAR EGNM 131150Z 27024KT 9999 SCT024 SCT039 14/08 Q1018",
      "taf": "TAF EGNM 131059Z 1312/1412 27015G25KT 9999 SCT025"
    },
    {
      "icao": "EGPD",
      "alert": "OK",
      "vis_m": 9999,
      "fzfg": false,
      "metar_trigger": false,
      "taf_trigger": false,
      "metar": "METAR EGPD 131150Z 27016KT 9999 BKN043 15/07 Q1011 TEMPO SHRA",
      "taf": "TAF EGPD 131056Z 1312/1412 28010KT 9999 FEW020 SCT035"
    },
    {
      "icao": "EGPF",
      "alert": "OK",
      "vis_m": 9999,
      "fzfg": false,
      "metar_trigger": false,
      "taf_trigger": false,
      "metar": "METAR EGPF 131150Z AUTO 25011G21KT 9999 BKN031 OVC042 13/08 Q1017",
      "taf": "TAF EGPF 131102Z 1312/1412 25012KT 9999 BKN030"
    },
    {
      "icao": "EHBK",
      "alert": "OK",
      "vis_m": 9999,
      "fzfg": false,
      "metar_trigger": false,
      "taf_trigger": false,
      "metar": "METAR EHBK 131155Z AUTO 27011KT 210V340 9999 SCT036/// BKN041/// BKN047/// 18/10 Q1020 NOSIG",
      "taf": "TAF EHBK 131117Z 1312/1418 25012KT 9999 BKN030"
    },
    {
      "icao": "EHEH",
      "alert": "OK",
      "vis_m": 9999,
      "fzfg": false,
      "metar_trigger": false,
      "taf_trigger": false,
      "metar": "METAR EHEH 131155Z AUTO 27010G26KT 230V320 9999 FEW035 19/10 Q1020 BLU BECMG 28012G25KT",
      "taf": "TAF EHEH 130508Z 1306/1412 25007KT 9999 BKN014"
    },
    {
      "icao": "EKBI",
      "alert": "OK",
      "vis_m": 9999,
      "fzfg": false,
      "metar_trigger": false,
      "taf_trigger": false,
      "metar": "METAR EKBI 131150Z 26017KT 9999 FEW013 FEW048 FEW059 14/11 Q1007",
      "taf": "TAF EKBI 131127Z 1312/1412 27012KT 9999 SCT020"
    },
    {
      "icao": "EKCH",
      "alert": "OK",
      "vis_m": 9999,
      "fzfg": false,
      "metar_trigger": false,
      "taf_trigger": false,
      "metar": "METAR EKCH 131150Z 23012KT 9999 FEW025CB BKN090 15/11 Q1007 TEMPO 26015G25KT 4000 SHRA",
      "taf": "TAF EKCH 131127Z 1312/1412 26012KT 9999 BKN020"
    },
    {
      "icao": "ENAL",
      "alert": "OK",
      "vis_m": 9999,
      "fzfg": false,
      "metar_trigger": false,
      "taf_trigger": false,
      "metar": "METAR ENAL 131150Z 01008KT 340V040 9999 FEW020 SCT053 15/09 Q1008",
      "taf": "TAF ENAL 131100Z 1312/1321 04009KT 9999 FEW030 BKN040"
    },
    {
      "icao": "ENBR",
      "alert": "OK",
      "vis_m": 9999,
      "fzfg": false,
      "metar_trigger": false,
      "taf_trigger": false,
      "metar": "METAR ENBR 131150Z 33010KT 9999 FEW025TCU SCT035 BKN050 14/09 Q1006 NOSIG RMK WIND 1200FT 31013KT",
      "taf": "TAF ENBR 131100Z 1312/1412 31012KT 9999 -SHRA FEW015 SCT030"
    },
    {
      "icao": "ENGM",
      "alert": "OK",
      "vis_m": 9999,
      "fzfg": false,
      "metar_trigger": false,
      "taf_trigger": false,
      "metar": "METAR ENGM 131150Z 16010KT 130V190 9999 -SHRA FEW008 SCT010CB BKN020 12/10 Q1004 TEMPO 4000 SHRA BKN012",
      "taf": "TAF ENGM 131100Z 1312/1412 18008KT 9999 SCT008 BKN020"
    },
    {
      "icao": "ENHD",
      "alert": "OK",
      "vis_m": 9999,
      "fzfg": false,
      "metar_trigger": false,
      "taf_trigger": false,
      "metar": "METAR ENHD 131150Z 30010KT 280V340 9999 BKN011 14/10 Q1006",
      "taf": "TAF ENHD 131100Z 1312/1321 34012KT 9999 -SHRA FEW012 SCT030"
    },
    {
      "icao": "ENTC",
      "alert": "OK",
      "vis_m": 9999,
      "fzfg": false,
      "metar_trigger": false,
      "taf_trigger": false,
      "metar": "METAR ENTC 131150Z 28012KT 9999 SCT024 BKN042 11/06 Q1010 NOSIG RMK WIND 2600FT 23012KT",
      "taf": "TAF ENTC 131100Z 1312/1412 27009KT 9999 FEW025 BKN040"
    },
    {
      "icao": "ENTO",
      "alert": "OK",
      "vis_m": 9999,
      "fzfg": false,
      "metar_trigger": false,
      "taf_trigger": false,
      "metar": "METAR ENTO 131150Z 20010KT 9999 BKN015 13/11 Q1003 NOSIG",
      "taf": ""
    },
    {
      "icao": "ENVA",
      "alert": "OK",
      "vis_m": 9999,
      "fzfg": false,
      "metar_trigger": false,
      "taf_trigger": false,
      "metar": "METAR ENVA 131150Z 25008KT 9999 FEW055TCU 16/09 Q1007 NOSIG RMK WIND 670FT 30003KT",
      "taf": "TAF ENVA 131100Z 1312/1412 24008KT 9999 FEW045"
    },
    {
      "icao": "ENZV",
      "alert": "OK",
      "vis_m": 9999,
      "fzfg": false,
      "metar_trigger": false,
      "taf_trigger": false,
      "metar": "METAR ENZV 131150Z 30010KT CAVOK 14/08 Q1006 NOSIG",
      "taf": "TAF ENZV 131100Z 1312/1412 34009KT 9999 FEW012 BKN030"
    },
    {
      "icao": "EPGD",
      "alert": "OK",
      "vis_m": 9999,
      "fzfg": false,
      "metar_trigger": false,
      "taf_trigger": false,
      "metar": "METAR EPGD 131200Z 28010KT 9999 SCT028 16/11 Q1009",
      "taf": "TAF EPGD 131130Z 1312/1412 26010KT 9999 BKN025"
    },
    {
      "icao": "EPKK",
      "alert": "OK",
      "vis_m": 9999,
      "fzfg": false,
      "metar_trigger": false,
      "taf_trigger": false,
      "metar": "METAR EPKK 131200Z 27016KT 9999 FEW043 21/11 Q1014",
      "taf": "TAF EPKK 131130Z 1312/1412 28013KT 9999 FEW040"
    },
    {
      "icao": "EPKT",
      "alert": "OK",
      "vis_m": 9999,
      "fzfg": false,
      "metar_trigger": false,
      "taf_trigger": false,
      "metar": "METAR EPKT 131200Z 26011KT 9999 BKN037 19/11 Q1014",
      "taf": "TAF EPKT 131130Z 1312/1412 27010KT 9999 BKN040"
    },
    {
      "icao": "EPLB",
      "alert": "OK",
      "vis_m": 9999,
      "fzfg": false,
      "metar_trigger": false,
      "taf_trigger": false,
      "metar": "METAR EPLB 131200Z 25009KT 220V280 9999 BKN023TCU 19/13 Q1012",
      "taf": "TAF EPLB 131130Z 1312/1412 26012KT 9999 SCT035"
    },
    {
      "icao": "EPMO",
      "alert": "OK",
      "vis_m": 9999,
      "fzfg": false,
      "metar_trigger": false,
      "taf_trigger": false,
      "metar": "METAR EPMO 131200Z 24014KT 9999 BKN034 19/12 Q1011",
      "taf": "TAF EPMO 131130Z 1312/1412 27014KT 9999 BKN040"
    },
    {
      "icao": "EPPO",
      "alert": "OK",
      "vis_m": 9999,
      "fzfg": false,
      "metar_trigger": false,
      "taf_trigger": false,
      "metar": "METAR EPPO 131200Z 28011KT 9999 SCT034 21/12 Q1011",
      "taf": "TAF EPPO 131130Z 1312/1412 27010KT 9999 BKN030"
    },
    {
      "icao": "EPRA",
      "alert": "OK",
      "vis_m": 9999,
      "fzfg": false,
      "metar_trigger": false,
      "taf_trigger": false,
      "metar": "METAR EPRA 131200Z 27016KT 9999 SCT035 21/09 Q1012",
      "taf": "TAF EPRA 131130Z 1312/1321 27010KT 9999 SCT035"
    },
    {
      "icao": "EPRZ",
      "alert": "OK",
      "vis_m": 9999,
      "fzfg": false,
      "metar_trigger": false,
      "taf_trigger": false,
      "metar": "METAR EPRZ 131200Z 29006KT 9999 FEW026CB 20/14 Q1014",
      "taf": "TAF EPRZ 131130Z 1312/1412 24010KT 9999 BKN030"
    },
    {
      "icao": "EPSC",
      "alert": "OK",
      "vis_m": 9999,
      "fzfg": false,
      "metar_trigger": false,
      "taf_trigger": false,
      "metar": "METAR EPSC 131200Z 19003KT 160V220 9999 SCT045CB 15/13 Q1010",
      "taf": "TAF EPSC 131130Z 1312/1412 27012KT 9999 BKN030"
    },
    {
      "icao": "EPSY",
      "alert": "OK",
      "vis_m": 9999,
      "fzfg": false,
      "metar_trigger": false,
      "taf_trigger": false,
      "metar": "METAR EPSY 131200Z 23008KT 200V280 9999 SCT019 BKN039CB 17/12 Q1009",
      "taf": "TAF EPSY 131130Z 1312/1321 20010KT 9999 BKN030"
    },
    {
      "icao": "EPWA",
      "alert": "OK",
      "vis_m": 9999,
      "fzfg": false,
      "metar_trigger": false,
      "taf_trigger": false,
      "metar": "METAR EPWA 131200Z 25016KT 9999 SCT040 20/12 Q1011 NOSIG",
      "taf": "TAF EPWA 131130Z 1312/1412 27015KT 9999 BKN040"
    },
    {
      "icao": "EPWR",
      "alert": "OK",
      "vis_m": 9999,
      "fzfg": false,
      "metar_trigger": false,
      "taf_trigger": false,
      "metar": "METAR EPWR 131200Z 24011KT 9999 SCT041 21/11 Q1013",
      "taf": "TAF EPWR 131130Z 1312/1412 26012KT 9999 BKN035"
    },
    {
      "icao": "ESGG",
      "alert": "OK",
      "vis_m": 9999,
      "fzfg": false,
      "metar_trigger": false,
      "taf_trigger": false,
      "metar": "METAR ESGG 131150Z 21011KT 9999 VCSH SCT024CB 13/09 Q1005",
      "taf": "TAF ESGG 131130Z 1312/1412 21009KT 9999 SCT020"
    },
    {
      "icao": "ESKN",
      "alert": "OK",
      "vis_m": 9999,
      "fzfg": false,
      "metar_trigger": false,
      "taf_trigger": false,
      "metar": "METAR ESKN 131150Z 11013KT 9999 FEW026CB BKN039 16/12 Q1006",
      "taf": "TAF ESKN 131130Z 1312/1412 11012KT 9999 BKN020"
    },
    {
      "icao": "ESMS",
      "alert": "OK",
      "vis_m": 9999,
      "fzfg": false,
      "metar_trigger": false,
      "taf_trigger": false,
      "metar": "METAR ESMS 131150Z 24014KT 9999 VCSH SCT049 14/09 Q1007",
      "taf": "TAF ESMS 131127Z 1312/1412 25008KT 9999 BKN020"
    },
    {
      "icao": "ESSA",
      "alert": "OK",
      "vis_m": 9999,
      "fzfg": false,
      "metar_trigger": false,
      "taf_trigger": false,
      "metar": "METAR ESSA 131150Z 17013KT CAVOK 19/04 Q1007 NOSIG",
      "taf": "TAF ESSA 131130Z 1312/1412 14012KT CAVOK"
    },
    {
      "icao": "EYKA",
      "alert": "OK",
      "vis_m": 6000,
      "fzfg": false,
      "metar_trigger": false,
      "taf_trigger": false,
      "metar": "METAR EYKA 131150Z 25011KT 220V280 6000 +TSRA FEW036 BKN046CB 13/10 Q1010",
      "taf": "TAF EYKA 131103Z 1312/1412 VRB03KT 9000 BKN020"
    },
    {
      "icao": "EYPA",
      "alert": "OK",
      "vis_m": 9999,
      "fzfg": false,
      "metar_trigger": false,
      "taf_trigger": false,
      "metar": "METAR EYPA 131150Z 17009KT 140V210 9999 FEW031CB 18/10 Q1008",
      "taf": "TAF EYPA 131103Z 1312/1412 VRB03KT 9000 BKN020"
    },
    {
      "icao": "EYVI",
      "alert": "OK",
      "vis_m": 9999,
      "fzfg": false,
      "metar_trigger": false,
      "taf_trigger": false,
      "metar": "METAR EYVI 131150Z 23006KT 180V330 9999 SCT048CB 19/07 Q1010 TEMPO VRB15G25KT 1500 TSRA BKN045CB",
      "taf": "TAF EYVI 131100Z 1312/1412 VRB03KT 8000 BKN030"
    },
    {
      "icao": "GCFV",
      "alert": "OK",
      "vis_m": 9999,
      "fzfg": false,
      "metar_trigger": false,
      "taf_trigger": false,
      "metar": "METAR GCFV 131130Z 06014KT 9999 FEW020 24/18 Q1020",
      "taf": "TAF GCFV 130800Z 1309/1409 05013KT 9999 FEW025 TX26/1314Z TN19/1406Z"
    },
    {
      "icao": "GCLP",
      "alert": "OK",
      "vis_m": 9999,
      "fzfg": false,
      "metar_trigger": false,
      "taf_trigger": false,
      "metar": "METAR GCLP 131130Z 03024KT 9999 FEW030 23/16 Q1020 NOSIG",
      "taf": "TAF GCLP 130800Z 1309/1409 02022KT 9999 FEW020 TX26/1314Z TN20/1406Z"
    },
    {
      "icao": "GCTS",
      "alert": "OK",
      "vis_m": 9999,
      "fzfg": false,
      "metar_trigger": false,
      "taf_trigger": false,
      "metar": "METAR GCTS 131130Z 21007KT 160V280 9999 FEW020 22/16 Q1020 BECMG 11013KT",
      "taf": "TAF GCTS 130800Z 1309/1409 20005KT 9999 FEW025 TX27/1314Z TN19/1406Z"
    },
    {
      "icao": "GMAD",
      "alert": "OK",
      "vis_m": 8000,
      "fzfg": false,
      "metar_trigger": false,
      "taf_trigger": false,
      "metar": "METAR GMAD 131130Z 23011KT 200V260 8000 NSC 26/16 Q1016 NOSIG",
      "taf": "TAF GMAD 131100Z 1312/1418 26010KT 8000 NSC"
    },
    {
      "icao": "GMMN",
      "alert": "OK",
      "vis_m": 9999,
      "fzfg": false,
      "metar_trigger": false,
      "taf_trigger": false,
      "metar": "METAR GMMN 131130Z 02005KT 300V110 CAVOK 28/19 Q1017 NOSIG",
      "taf": "TAF GMMN 131100Z 1312/1418 36004KT CAVOK"
    },
    {
      "icao": "GMMX",
      "alert": "OK",
      "vis_m": 9999,
      "fzfg": false,
      "metar_trigger": false,
      "taf_trigger": false,
      "metar": "METAR GMMX 131130Z VRB05KT 9999 FEW090 SCT200 33/18 Q1017 NOSIG",
      "taf": "TAF GMMX 131100Z 1312/1418 28006KT 8000 SCT090 SCT200"
    },
    {
      "icao": "HEGN",
      "alert": "OK",
      "vis_m": 9999,
      "fzfg": false,
      "metar_trigger": false,
      "taf_trigger": false,
      "metar": "METAR HEGN 131100Z 01015KT CAVOK 35/11 Q1010 NOSIG",
      "taf": "TAF HEGN 131100Z 1312/1418 35012G22KT CAVOK"
    },
    {
      "icao": "HEMA",
      "alert": "OK",
      "vis_m": 9999,
      "fzfg": false,
      "metar_trigger": false,
      "taf_trigger": false,
      "metar": "METAR HEMA 131100Z 33019KT CAVOK 33/16 Q1009 NOSIG",
      "taf": "TAF HEMA 131100Z 1312/1418 01012G25KT CAVOK"
    },
    {
      "icao": "HESH",
      "alert": "OK",
      "vis_m": 9999,
      "fzfg": false,
      "metar_trigger": false,
      "taf_trigger": false,
      "metar": "METAR HESH 131100Z 35011KT CAVOK 36/12 Q1009 NOSIG",
      "taf": "TAF HESH 131100Z 1312/1418 01015KT CAVOK"
    },
    {
      "icao": "HESX",
      "alert": "OK",
      "vis_m": 9999,
      "fzfg": false,
      "metar_trigger": false,
      "taf_trigger": false,
      "metar": "METAR HESX 131100Z 29004KT CAVOK 34/08 Q1012 NOSIG",
      "taf": "TAF HESX 131100Z 1312/1418 30008KT CAVOK"
    },
    {
      "icao": "LATI",
      "alert": "OK",
      "vis_m": 9999,
      "fzfg": false,
      "metar_trigger": false,
      "taf_trigger": false,
      "metar": "METAR LATI 131150Z 30006KT 240V360 CAVOK 28/09 Q1016 NOSIG",
      "taf": "TAF LATI 131100Z 1312/1412 34014KT CAVOK TX31/1412Z TN13/1404Z"
    },
    {
      "icao": "LBPD",
      "alert": "OK",
      "vis_m": 9999,
      "fzfg": false,
      "metar_trigger": false,
      "taf_trigger": false,
      "metar": "METAR LBPD 131200Z AUTO VRB03KT 9999 FEW059/// BKN100/// 23/09 Q1017 NOSIG",
      "taf": "TAF LBPD 131100Z 1312/1412 10010KT 9999 SCT060"
    },
    {
      "icao": "LBSF",
      "alert": "OK",
      "vis_m": 9999,
      "fzfg": false,
      "metar_trigger": false,
      "taf_trigger": false,
      "metar": "METAR LBSF 131200Z 33005KT 280V030 9999 SCT052 SCT066 BKN085 20/08 Q1019 NOSIG",
      "taf": "TAF LBSF 131100Z 1312/1412 35010KT 9999 SCT060"
    },
    {
      "icao": "LBWN",
      "alert": "OK",
      "vis_m": 9999,
      "fzfg": false,
      "metar_trigger": false,
      "taf_trigger": false,
      "metar": "METAR LBWN 131200Z 31008KT 260V340 9999 BKN045 21/12 Q1016 NOSIG",
      "taf": "TAF LBWN 131100Z 1312/1412 35010KT 9999 BKN045"
    },
    {
      "icao": "LCLK",
      "alert": "OK",
      "vis_m": 9999,
      "fzfg": false,
      "metar_trigger": false,
      "taf_trigger": false,
      "metar": "METAR LCLK 131200Z 21024KT 9999 FEW025 FEW035CB 30/22 Q1008 NOSIG RMK CB TO NE",
      "taf": "TAF LCLK 131130Z 1312/1412 22020KT 9999 FEW020"
    },
    {
      "icao": "LCPH",
      "alert": "OK",
      "vis_m": 9999,
      "fzfg": false,
      "metar_trigger": false,
      "taf_trigger": false,
      "metar": "METAR LCPH 131200Z 29011KT 250V320 9999 SCT014 27/21 Q1010 TEMPO BKN014",
      "taf": "TAF LCPH 131130Z 1312/1412 27013KT 9999 SCT016"
    },
    {
      "icao": "LEAL",
      "alert": "OK",
      "vis_m": 9999,
      "fzfg": false,
      "metar_trigger": false,
      "taf_trigger": false,
      "metar": "METAR LEAL 131130Z 09007KT 040V120 CAVOK 29/12 Q1022 NOSIG",
      "taf": "TAF LEAL 131100Z 1312/1412 08010KT CAVOK TX29/1312Z TN19/1406Z"
    },
    {
      "icao": "LEBB",
      "alert": "OK",
      "vis_m": 9999,
      "fzfg": false,
      "metar_trigger": false,
      "taf_trigger": false,
      "metar": "METAR LEBB 131130Z 10006KT 030V160 CAVOK 33/17 Q1019 NOSIG",
      "taf": "TAF LEBB 131100Z 1312/1412 09005KT CAVOK TX34/1313Z TN18/1405Z"
    },
    {
      "icao": "LEBL",
      "alert": "OK",
      "vis_m": 9999,
      "fzfg": false,
      "metar_trigger": false,
      "taf_trigger": false,
      "metar": "METAR LEBL 131130Z 21009KT 180V240 CAVOK 28/14 Q1022 NOSIG",
      "taf": "TAF LEBL 131100Z 1312/1412 21012KT 9999 FEW020 TX30/1312Z TN21/1406Z"
    },
    {
      "icao": "LECH",
      "alert": "OK",
      "vis_m": 9999,
      "fzfg": false,
      "metar_trigger": false,
      "taf_trigger": false,
      "metar": "METAR LECH 131130Z AUTO 14008KT 090V180 CAVOK 29/08 Q1024",
      "taf": "TAF LECH 131100Z 1312/1412 13010KT CAVOK TX33/1313Z TN16/1406Z"
    },
    {
      "icao": "LEMD",
      "alert": "OK",
      "vis_m": 9999,
      "fzfg": false,
      "metar_trigger": false,
      "taf_trigger": false,
      "metar": "METAR LEMD 131130Z 13007KT 040V200 CAVOK 30/03 Q1023 NOSIG",
      "taf": "TAF LEMD 131100Z 1312/1418 VRB04KT CAVOK TX35/1316Z TN18/1405Z"
    },
    {
      "icao": "LEMG",
      "alert": "OK",
      "vis_m": 9999,
      "fzfg": false,
      "metar_trigger": false,
      "taf_trigger": false,
      "metar": "METAR LEMG 131130Z 13006KT 040V190 CAVOK 26/15 Q1021 NOSIG",
      "taf": "TAF LEMG 131100Z 1312/1412 14010KT CAVOK TX26/1314Z TN19/1406Z"
    },
    {
      "icao": "LEVC",
      "alert": "OK",
      "vis_m": 9999,
      "fzfg": false,
      "metar_trigger": false,
      "taf_trigger": false,
      "metar": "METAR LEVC 131130Z 11008KT 050V150 CAVOK 30/08 Q1022 NOSIG",
      "taf": "TAF LEVC 131100Z 1312/1412 12010KT CAVOK TX32/1312Z TN19/1406Z"
    },
    {
      "icao": "LEXJ",
      "alert": "OK",
      "vis_m": 9999,
      "fzfg": false,
      "metar_trigger": false,
      "taf_trigger": false,
      "metar": "METAR LEXJ 131130Z 05005KT CAVOK 26/18 Q1018",
      "taf": "TAF LEXJ 130800Z 1309/1409 07009KT CAVOK TX33/1312Z TN20/1405Z"
    },
    {
      "icao": "LEZG",
      "alert": "OK",
      "vis_m": 9999,
      "fzfg": false,
      "metar_trigger": false,
      "taf_trigger": false,
      "metar": "METAR LEZG 131130Z VRB04KT CAVOK 31/09 Q1022 NOSIG",
      "taf": "TAF LEZG 131100Z 1312/1412 11005KT CAVOK TX36/1315Z TN20/1406Z"
    },
    {
      "icao": "LEZL",
      "alert": "OK",
      "vis_m": 9999,
      "fzfg": false,
      "metar_trigger": false,
      "taf_trigger": false,
      "metar": "METAR LEZL 131130Z 11009KT 070V160 CAVOK 33/08 Q1017 NOSIG",
      "taf": "TAF LEZL 130800Z 1309/1409 10010KT CAVOK TX38/1315Z TN18/1406Z"
    },
    {
      "icao": "LFBD",
      "alert": "OK",
      "vis_m": 9999,
      "fzfg": false,
      "metar_trigger": false,
      "taf_trigger": false,
      "metar": "METAR LFBD 131200Z AUTO 09010KT 020V140 CAVOK 32/11 Q1022 NOSIG",
      "taf": "TAF LFBD 131100Z 1312/1418 09010KT CAVOK TX34/1315Z TN19/1404Z"
    },
    {
      "icao": "LFLL",
      "alert": "OK",
      "vis_m": 9999,
      "fzfg": false,
      "metar_trigger": false,
      "taf_trigger": false,
      "metar": "METAR LFLL 131200Z 36006KT 320V040 CAVOK 27/13 Q1024 NOSIG",
      "taf": "TAF LFLL 131100Z 1312/1418 36008KT CAVOK"
    },
    {
      "icao": "LFLS",
      "alert": "OK",
      "vis_m": 9999,
      "fzfg": false,
      "metar_trigger": false,
      "taf_trigger": false,
      "metar": "METAR LFLS 131200Z AUTO 36009KT 330V030 CAVOK 27/13 Q1024 NOSIG",
      "taf": "TAF LFLS 130800Z 1309/1409 36008KT CAVOK"
    },
    {
      "icao": "LFMN",
      "alert": "OK",
      "vis_m": 9999,
      "fzfg": false,
      "metar_trigger": false,
      "taf_trigger": false,
      "metar": "METAR LFMN 131200Z 11005KT CAVOK 24/18 Q1021 NOSIG",
      "taf": "TAF LFMN 130800Z 1309/1415 22008KT CAVOK"
    },
    {
      "icao": "LFOB",
      "alert": "OK",
      "vis_m": 9999,
      "fzfg": false,
      "metar_trigger": false,
      "taf_trigger": false,
      "metar": "METAR LFOB 131200Z AUTO 28013KT 250V310 CAVOK 23/10 Q1023 NOSIG",
      "taf": "TAF LFOB 131100Z 1312/1412 28010KT CAVOK"
    },
    {
      "icao": "LFPO",
      "alert": "OK",
      "vis_m": 9999,
      "fzfg": false,
      "metar_trigger": false,
      "taf_trigger": false,
      "metar": "METAR LFPO 131200Z 29008KT 260V320 CAVOK 26/12 Q1023 NOSIG",
      "taf": "TAF LFPO 131100Z 1312/1418 28008KT CAVOK"
    },
    {
      "icao": "LFSB",
      "alert": "OK",
      "vis_m": 9999,
      "fzfg": false,
      "metar_trigger": false,
      "taf_trigger": false,
      "metar": "METAR LFSB 131200Z AUTO 27012KT 240V300 9999 FEW050 28/15 Q1022 NOSIG",
      "taf": "TAF LFSB 131100Z 1312/1412 26011KT 9999 FEW050"
    },
    {
      "icao": "LGAV",
      "alert": "OK",
      "vis_m": 9999,
      "fzfg": false,
      "metar_trigger": false,
      "taf_trigger": false,
      "metar": "METAR LGAV 131150Z 35011KT 320V020 9999 FEW018 BKN040 22/15 Q1016 NOSIG",
      "taf": "TAF LGAV 131100Z 1312/1412 02014KT 9999 FEW018 SCT050"
    },
    {
      "icao": "LGTS",
      "alert": "OK",
      "vis_m": 9999,
      "fzfg": false,
      "metar_trigger": false,
      "taf_trigger": false,
      "metar": "METAR LGTS 131150Z 26009KT 9999 FEW025 27/09 Q1016 NOSIG",
      "taf": "TAF LGTS 131100Z 1312/1412 VRB03KT 9999 FEW025"
    },
    {
      "icao": "LHBP",
      "alert": "OK",
      "vis_m": 9999,
      "fzfg": false,
      "metar_trigger": false,
      "taf_trigger": false,
      "metar": "METAR LHBP 131200Z 27011KT 9999 BKN042 24/13 Q1017 NOSIG",
      "taf": "TAF LHBP 131115Z 1312/1412 28012G22KT 9999 BKN030"
    },
    {
      "icao": "LHDC",
      "alert": "OK",
      "vis_m": 9999,
      "fzfg": false,
      "metar_trigger": false,
      "taf_trigger": false,
      "metar": "METAR LHDC 131145Z AUTO 23012KT 9999 BKN033 BKN050 //////CB 20/13 Q1017 TEMPO VRB15G25KT 4000 TSRA SHRA",
      "taf": "TAF LHDC 131115Z 1312/1321 25009KT 9999 BKN033 BKN090"
    },
    {
      "icao": "LIBD",
      "alert": "OK",
      "vis_m": 9999,
      "fzfg": false,
      "metar_trigger": false,
      "taf_trigger": false,
      "metar": "METAR LIBD 131150Z 33009KT 290V020 CAVOK 24/12 Q1020",
      "taf": "TAF LIBD 131100Z 1312/1412 34010KT CAVOK"
    },
    {
      "icao": "LIBG",
      "alert": "OK",
      "vis_m": 9999,
      "fzfg": false,
      "metar_trigger": false,
      "taf_trigger": false,
      "metar": "METAR LIBG 131150Z AUTO 01014KT 9999 NCD 27/10 Q1018",
      "taf": "TAF LIBG 131100Z 1312/1412 36014KT CAVOK"
    },
    {
      "icao": "LIBP",
      "alert": "OK",
      "vis_m": 9999,
      "fzfg": false,
      "metar_trigger": false,
      "taf_trigger": false,
      "metar": "METAR LIBP 131150Z AUTO 07008KT 040V120 9999 NCD 27/11 Q1020",
      "taf": "TAF LIBP 131100Z 1312/1412 09010KT CAVOK"
    },
    {
      "icao": "LIBR",
      "alert": "OK",
      "vis_m": 9999,
      "fzfg": false,
      "metar_trigger": false,
      "taf_trigger": false,
      "metar": "METAR LIBR 131150Z 01011KT CAVOK 25/14 Q1019",
      "taf": "TAF LIBR 131100Z 1312/1412 35013KT CAVOK"
    },
    {
      "icao": "LICA",
      "alert": "OK",
      "vis_m": 9999,
      "fzfg": false,
      "metar_trigger": false,
      "taf_trigger": false,
      "metar": "METAR LICA 131150Z AUTO 23014KT 9999 NCD 27/14 Q1019",
      "taf": "TAF LICA 131100Z 1312/1412 26014KT CAVOK"
    },
    {
      "icao": "LICC",
      "alert": "OK",
      "vis_m": 9999,
      "fzfg": false,
      "metar_trigger": false,
      "taf_trigger": false,
      "metar": "METAR LICC 131150Z 08012KT CAVOK 27/20 Q1019",
      "taf": "TAF LICC 131100Z 1312/1412 07013KT CAVOK"
    },
    {
      "icao": "LICJ",
      "alert": "OK",
      "vis_m": 9999,
      "fzfg": false,
      "metar_trigger": false,
      "taf_trigger": false,
      "metar": "METAR LICJ 131150Z 32006KT CAVOK 25/20 Q1021",
      "taf": "TAF LICJ 131100Z 1312/1412 04013KT CAVOK"
    },
    {
      "icao": "LIMC",
      "alert": "OK",
      "vis_m": 9999,
      "fzfg": false,
      "metar_trigger": false,
      "taf_trigger": false,
      "metar": "METAR LIMC 131150Z VRB04KT CAVOK 29/12 Q1020 NOSIG",
      "taf": "TAF LIMC 131100Z 1312/1418 VRB05KT CAVOK"
    },
    {
      "icao": "LIME",
      "alert": "OK",
      "vis_m": 9999,
      "fzfg": false,
      "metar_trigger": false,
      "taf_trigger": false,
      "metar": "METAR LIME 131150Z 20007KT 160V250 CAVOK 29/15 Q1019 NOSIG",
      "taf": "TAF LIME 131100Z 1312/1412 VRB05KT CAVOK"
    },
    {
      "icao": "LIMF",
      "alert": "OK",
      "vis_m": 9999,
      "fzfg": false,
      "metar_trigger": false,
      "taf_trigger": false,
      "metar": "METAR LIMF 131150Z 12003KT 060V190 CAVOK 29/12 Q1020",
      "taf": "TAF LIMF 131100Z 1312/1412 VRB05KT CAVOK"
    },
    {
      "icao": "LIMJ",
      "alert": "OK",
      "vis_m": 9999,
      "fzfg": false,
      "metar_trigger": false,
      "taf_trigger": false,
      "metar": "METAR LIMJ 131150Z 18004KT CAVOK 23/18 Q1021",
      "taf": "TAF LIMJ 131100Z 1312/1412 VRB05KT CAVOK"
    },
    {
      "icao": "LIPE",
      "alert": "OK",
      "vis_m": 9999,
      "fzfg": false,
      "metar_trigger": false,
      "taf_trigger": false,
      "metar": "METAR LIPE 131150Z VRB06KT CAVOK 31/12 Q1019",
      "taf": "TAF LIPE 131100Z 1312/1412 VRB05KT CAVOK"
    },
    {
      "icao": "LIPH",
      "alert": "OK",
      "vis_m": 9999,
      "fzfg": false,
      "metar_trigger": false,
      "taf_trigger": false,
      "metar": "METAR LIPH 131150Z VRB03KT CAVOK 25/18 Q1019",
      "taf": "TAF LIPH 131100Z 1312/1412 VRB05KT 9999 FEW050"
    },
    {
      "icao": "LIPQ",
      "alert": "OK",
      "vis_m": 9999,
      "fzfg": false,
      "metar_trigger": false,
      "taf_trigger": false,
      "metar": "METAR LIPQ 131150Z VRB03KT CAVOK 25/13 Q1020",
      "taf": "TAF LIPQ 131100Z 1312/1412 21010KT 9999 FEW060"
    },
    {
      "icao": "LIPR",
      "alert": "OK",
      "vis_m": 9999,
      "fzfg": false,
      "metar_trigger": false,
      "taf_trigger": false,
      "metar": "METAR LIPR 131150Z 10010KT CAVOK 26/16 Q1019",
      "taf": "TAF LIPR 131100Z 1312/1412 09012KT CAVOK"
    },
    {
      "icao": "LIPX",
      "alert": "OK",
      "vis_m": 9999,
      "fzfg": false,
      "metar_trigger": false,
      "taf_trigger": false,
      "metar": "METAR LIPX 131150Z VRB03KT CAVOK 27/12 Q1019",
      "taf": "TAF LIPX 131100Z 1312/1412 VRB05KT CAVOK"
    },
    {
      "icao": "LIPY",
      "alert": "OK",
      "vis_m": 9999,
      "fzfg": false,
      "metar_trigger": false,
      "taf_trigger": false,
      "metar": "METAR LIPY 131150Z AUTO 07008KT 040V100 9999 FEW220/// 26/12 Q1020",
      "taf": "TAF LIPY 131100Z 1312/1412 08010KT CAVOK"
    },
    {
      "icao": "LIPZ",
      "alert": "OK",
      "vis_m": 9999,
      "fzfg": false,
      "metar_trigger": false,
      "taf_trigger": false,
      "metar": "METAR LIPZ 131150Z 12007KT 090V150 9999 FEW025 24/18 Q1020 NOSIG",
      "taf": "TAF LIPZ 131100Z 1312/1418 15010KT CAVOK"
    },
    {
      "icao": "LIRF",
      "alert": "OK",
      "vis_m": 9999,
      "fzfg": false,
      "metar_trigger": false,
      "taf_trigger": false,
      "metar": "METAR LIRF 131150Z 25011KT CAVOK 27/17 Q1020 NOSIG",
      "taf": "TAF LIRF 131100Z 1312/1418 24012KT CAVOK"
    },
    {
      "icao": "LIRN",
      "alert": "OK",
      "vis_m": 9999,
      "fzfg": false,
      "metar_trigger": false,
      "taf_trigger": false,
      "metar": "METAR LIRN 131150Z VRB05KT CAVOK 31/07 Q1019 NOSIG",
      "taf": "TAF LIRN 131100Z 1312/1412 25012KT CAVOK"
    },
    {
      "icao": "LIRP",
      "alert": "OK",
      "vis_m": 9999,
      "fzfg": false,
      "metar_trigger": false,
      "taf_trigger": false,
      "metar": "METAR LIRP 131145Z 27010KT CAVOK 27/09 Q1021 NOSIG",
      "taf": "TAF LIRP 131100Z 1312/1412 29008KT CAVOK"
    },
    {
      "icao": "LIRZ",
      "alert": "OK",
      "vis_m": 9999,
      "fzfg": false,
      "metar_trigger": false,
      "taf_trigger": false,
      "metar": "METAR LIRZ 131150Z AUTO VRB05KT 9999 NCD 29/12 Q1020",
      "taf": "TAF LIRZ 131100Z 1312/1412 VRB05KT CAVOK"
    },
    {
      "icao": "LJLJ",
      "alert": "OK",
      "vis_m": 9999,
      "fzfg": false,
      "metar_trigger": false,
      "taf_trigger": false,
      "metar": "METAR LJLJ 131130Z 05008KT 9999 FEW045 BKN250 23/15 Q1020 NOSIG",
      "taf": "TAF LJLJ 131100Z 1312/1412 05008KT 9999 FEW065"
    },
    {
      "icao": "LKMT",
      "alert": "OK",
      "vis_m": 9999,
      "fzfg": false,
      "metar_trigger": false,
      "taf_trigger": false,
      "metar": "METAR LKMT 131200Z 24014KT 210V280 9999 SCT040 21/14 Q1015 NOSIG",
      "taf": "TAF LKMT 131100Z 1312/1412 22008KT CAVOK"
    },
    {
      "icao": "LKPR",
      "alert": "OK",
      "vis_m": 9999,
      "fzfg": false,
      "metar_trigger": false,
      "taf_trigger": false,
      "metar": "METAR LKPR 131200Z 26016KT CAVOK 22/09 Q1016 NOSIG",
      "taf": "TAF LKPR 131100Z 1312/1418 26007KT CAVOK"
    },
    {
      "icao": "LLBG",
      "alert": "OK",
      "vis_m": 9999,
      "fzfg": false,
      "metar_trigger": false,
      "taf_trigger": false,
      "metar": "METAR LLBG 131150Z 28011KT 250V310 9999 FEW035 29/16 Q1011 NOSIG",
      "taf": "TAF LLBG 131109Z 1312/1412 28010KT 9999 FEW035 TX29/1312Z TN19/1403Z"
    },
    {
      "icao": "LMML",
      "alert": "OK",
      "vis_m": 9999,
      "fzfg": false,
      "metar_trigger": false,
      "taf_trigger": false,
      "metar": "METAR LMML 131145Z 15010KT 9999 FEW032 27/16 Q1020 NOSIG",
      "taf": "TAF LMML 131100Z 1312/1412 23005KT 9999 FEW020"
    },
    {
      "icao": "LOWW",
      "alert": "OK",
      "vis_m": 9999,
      "fzfg": false,
      "metar_trigger": false,
      "taf_trigger": false,
      "metar": "METAR LOWW 131150Z 35006KT 9999 -SHRA FEW015 SCT042 BKN050 20/16 Q1018 RESHRA NOSIG",
      "taf": "TAF LOWW 131115Z 1312/1418 29012KT 9999 FEW020 BKN040 TX24/1315Z TN16/1403Z"
    },
    {
      "icao": "LPFR",
      "alert": "OK",
      "vis_m": 9999,
      "fzfg": false,
      "metar_trigger": false,
      "taf_trigger": false,
      "metar": "METAR LPFR 131130Z 11017KT CAVOK 24/17 Q1018",
      "taf": "TAF LPFR 131100Z 1312/1412 12015KT 9999 FEW015"
    },
    {
      "icao": "LPMA",
      "alert": "OK",
      "vis_m": 9999,
      "fzfg": false,
      "metar_trigger": false,
      "taf_trigger": false,
      "metar": "METAR LPMA 131130Z 15005KT 110V180 9999 FEW015 SCT030 22/16 Q1021",
      "taf": "TAF LPMA 131100Z 1312/1412 19007KT 9999 FEW015 BKN030"
    },
    {
      "icao": "LPPR",
      "alert": "OK",
      "vis_m": 9999,
      "fzfg": false,
      "metar_trigger": false,
      "taf_trigger": false,
      "metar": "METAR LPPR 131130Z 23007KT 190V260 9999 FEW055CB 27/15 Q1018",
      "taf": "TAF LPPR 131100Z 1312/1412 20010KT 9999 SCT045"
    },
    {
      "icao": "LPPS",
      "alert": "OK",
      "vis_m": 9999,
      "fzfg": false,
      "metar_trigger": false,
      "taf_trigger": false,
      "metar": "METAR LPPS 131130Z 36012KT 9999 FEW015 BKN030 21/15 Q1021",
      "taf": "TAF LPPS 131100Z 1312/1418 35013KT 9999 SCT015 BKN030"
    },
    {
      "icao": "LPPT",
      "alert": "OK",
      "vis_m": 9999,
      "fzfg": false,
      "metar_trigger": false,
      "taf_trigger": false,
      "metar": "METAR LPPT 131130Z 10007G22KT 050V140 CAVOK 30/10 Q1018",
      "taf": "TAF LPPT 131100Z 1312/1418 13008KT CAVOK"
    },
    {
      "icao": "LQBK",
      "alert": "OK",
      "vis_m": 9999,
      "fzfg": false,
      "metar_trigger": false,
      "taf_trigger": false,
      "metar": "METAR LQBK 131130Z VRB03KT 9999 FEW045 26/10 Q1019 NOSIG",
      "taf": "TAF LQBK 131100Z 1312/1412 28005KT CAVOK TX28/1313Z TN13/1403Z"
    },
    {
      "icao": "LQSA",
      "alert": "OK",
      "vis_m": 9999,
      "fzfg": false,
      "metar_trigger": false,
      "taf_trigger": false,
      "metar": "METAR LQSA 131130Z VRB05KT CAVOK 22/09 Q1021 NOSIG",
      "taf": "TAF LQSA 131100Z 1312/1412 VRB02KT CAVOK TX27/1412Z TN11/1404Z"
    },
    {
      "icao": "LQTZ",
      "alert": "OK",
      "vis_m": 9999,
      "fzfg": false,
      "metar_trigger": false,
      "taf_trigger": false,
      "metar": "METAR LQTZ 131130Z 01004KT 320V110 9999 FEW050 24/11 Q1020",
      "taf": "TAF LQTZ 131100Z 1312/1412 30005KT CAVOK TX30/1412Z TN12/1403Z"
    },
    {
      "icao": "LRBC",
      "alert": "OK",
      "vis_m": 9999,
      "fzfg": false,
      "metar_trigger": false,
      "taf_trigger": false,
      "metar": "METAR LRBC 131130Z 08006KT 040V120 9999 FEW045 22/11 Q1016",
      "taf": "TAF LRBC 131100Z 1312/1321 VRB04KT 9999 SCT040"
    },
    {
      "icao": "LRBS",
      "alert": "OK",
      "vis_m": 9999,
      "fzfg": false,
      "metar_trigger": false,
      "taf_trigger": false,
      "metar": "METAR LRBS 131130Z 29008KT 240V050 9999 SCT043 23/12 Q1017 NOSIG",
      "taf": "TAF LRBS 131100Z 1312/1412 27010KT CAVOK"
    },
    {
      "icao": "LRBV",
      "alert": "OK",
      "vis_m": 9999,
      "fzfg": false,
      "metar_trigger": false,
      "taf_trigger": false,
      "metar": "METAR LRBV 131130Z 31010KT 260V350 9999 FEW046 19/10 Q1018",
      "taf": "TAF LRBV 131100Z 1312/1321 29010KT 9999 SCT045"
    },
    {
      "icao": "LRCL",
      "alert": "OK",
      "vis_m": 9999,
      "fzfg": false,
      "metar_trigger": false,
      "taf_trigger": false,
      "metar": "METAR LRCL 131130Z 16005KT 100V220 9999 FEW047 BKN053 22/09 Q1017",
      "taf": "TAF LRCL 131100Z 1312/1321 VRB04KT 9999 SCT045"
    },
    {
      "icao": "LRCV",
      "alert": "OK",
      "vis_m": 9999,
      "fzfg": false,
      "metar_trigger": false,
      "taf_trigger": false,
      "metar": "METAR LRCV 131130Z 29009KT 9999 FEW042 23/10 Q1018",
      "taf": "TAF LRCV 131100Z 1312/1321 30010KT 9999 SCT035"
    },
    {
      "icao": "LRIA",
      "alert": "OK",
      "vis_m": 9999,
      "fzfg": false,
      "metar_trigger": false,
      "taf_trigger": false,
      "metar": "METAR LRIA 131130Z VRB06KT 9999 FEW045 21/10 Q1016",
      "taf": "TAF LRIA 131100Z 1312/1321 30007KT 9999 SCT040"
    },
    {
      "icao": "LROP",
      "alert": "OK",
      "vis_m": 9999,
      "fzfg": false,
      "metar_trigger": false,
      "taf_trigger": false,
      "metar": "METAR LROP 131130Z 27008KT 9999 SCT045 24/13 Q1017 NOSIG",
      "taf": "TAF LROP 131100Z 1312/1412 27010KT CAVOK"
    },
    {
      "icao": "LRSB",
      "alert": "OK",
      "vis_m": 9999,
      "fzfg": false,
      "metar_trigger": false,
      "taf_trigger": false,
      "metar": "METAR LRSB 131130Z 32009KT 290V350 9999 SCT050 22/09 Q1018",
      "taf": "TAF LRSB 131100Z 1312/1412 32010KT 9999 SCT045"
    },
    {
      "icao": "LRSM",
      "alert": "OK",
      "vis_m": 9999,
      "fzfg": false,
      "metar_trigger": false,
      "taf_trigger": false,
      "metar": "METAR LRSM 131130Z 26012KT 9999 BKN045 22/11 Q1017",
      "taf": "TAF LRSM 131100Z 1312/1321 25012KT 9999 SCT045"
    },
    {
      "icao": "LRSV",
      "alert": "OK",
      "vis_m": 9999,
      "fzfg": false,
      "metar_trigger": false,
      "taf_trigger": false,
      "metar": "METAR LRSV 131130Z VRB03KT 9999 FEW047 20/10 Q1016",
      "taf": "TAF LRSV 131100Z 1312/1321 VRB04KT 9999 SCT040"
    },
    {
      "icao": "LRTM",
      "alert": "OK",
      "vis_m": 9999,
      "fzfg": false,
      "metar_trigger": false,
      "taf_trigger": false,
      "metar": "METAR LRTM 131130Z 26007KT 220V290 9999 SCT048 22/12 Q1017",
      "taf": "TAF LRTM 131100Z 1312/1321 VRB04KT 9999 SCT040"
    },
    {
      "icao": "LRTR",
      "alert": "OK",
      "vis_m": 9999,
      "fzfg": false,
      "metar_trigger": false,
      "taf_trigger": false,
      "metar": "METAR LRTR 131130Z 26008KT 230V290 9999 SCT035 FEW040CB OVC043 21/13 Q1019",
      "taf": "TAF LRTR 131100Z 1312/1412 27009KT 9999 BKN040"
    },
    {
      "icao": "LTAC",
      "alert": "OK",
      "vis_m": 9999,
      "fzfg": false,
      "metar_trigger": false,
      "taf_trigger": false,
      "metar": "METAR LTAC 131150Z 34020KT 9999 -TSRA FEW030CB BKN035 18/08 Q1012 RETS BECMG TL1300 VRB02KT NSW RMK RWY21C 33021KT RWY03L 33017G29KT 300V360 RWY21R 33016KT RWY03R 33019G32KT RWY21L 34021KT",
      "taf": "TAF LTAC 131040Z 1312/1412 VRB02KT 9999 SCT040 SCT100"
    },
    {
      "icao": "LTFM",
      "alert": "OK",
      "vis_m": 9999,
      "fzfg": false,
      "metar_trigger": false,
      "taf_trigger": false,
      "metar": "METAR LTFM 131150Z 36024KT 9999 SCT013 BKN025 18/13 Q1016 NOSIG RMK RWY17L 35019KT RWY34L 35021KT RWY16R 35018KT RWY36 36022KT RWY18 36022KT",
      "taf": "TAF LTFM 131040Z 1312/1418 36020KT 9999 SCT013 BKN028"
    },
    {
      "icao": "LUKK",
      "alert": "OK",
      "vis_m": 9999,
      "fzfg": false,
      "metar_trigger": false,
      "taf_trigger": false,
      "metar": "METAR LUKK 131130Z 35007KT 300V030 9999 FEW048 21/10 Q1016 NOSIG",
      "taf": "TAF LUKK 131104Z 1312/1412 33010KT CAVOK"
    },
    {
      "icao": "LWOH",
      "alert": "OK",
      "vis_m": 9999,
      "fzfg": false,
      "metar_trigger": false,
      "taf_trigger": false,
      "metar": "METAR LWOH 131150Z VRB06KT 9999 FEW040 23/09 Q1019",
      "taf": "TAF LWOH 131110Z 1312/1412 34008KT 9999 FEW040"
    },
    {
      "icao": "LWSK",
      "alert": "OK",
      "vis_m": 9999,
      "fzfg": false,
      "metar_trigger": false,
      "taf_trigger": false,
      "metar": "METAR LWSK 131150Z 36011KT 330V030 9999 FEW060 26/08 Q1018 NOSIG",
      "taf": "TAF LWSK 131110Z 1312/1412 34008KT CAVOK"
    },
    {
      "icao": "LYBE",
      "alert": "OK",
      "vis_m": 9999,
      "fzfg": false,
      "metar_trigger": false,
      "taf_trigger": false,
      "metar": "METAR LYBE 131130Z 28007KT 250V340 CAVOK 23/11 Q1020 NOSIG",
      "taf": "TAF LYBE 131100Z 1312/1412 29008KT CAVOK TX29/1412Z TN14/1403Z"
    },
    {
      "icao": "LYNI",
      "alert": "OK",
      "vis_m": 9999,
      "fzfg": false,
      "metar_trigger": false,
      "taf_trigger": false,
      "metar": "METAR LYNI 131130Z 31009KT 260V020 9999 FEW050 SCT060 24/09 Q1020 NOSIG",
      "taf": "TAF LYNI 131100Z 1312/1412 32010KT 9999 SCT060 TX28/1412Z TN10/1404Z"
    },
    {
      "icao": "LYPG",
      "alert": "OK",
      "vis_m": 9999,
      "fzfg": false,
      "metar_trigger": false,
      "taf_trigger": false,
      "metar": "METAR LYPG 131130Z 15007KT 110V210 CAVOK 26/09 Q1017 NOSIG",
      "taf": "TAF LYPG 131100Z 1312/1412 17007KT 9999 FEW040 TX29/1314Z TN17/1403Z"
    },
    {
      "icao": "LZIB",
      "alert": "OK",
      "vis_m": 9999,
      "fzfg": false,
      "metar_trigger": false,
      "taf_trigger": false,
      "metar": "METAR LZIB 131200Z 26008KT 200V310 9999 FEW028 22/15 Q1017 NOSIG",
      "taf": "TAF LZIB 131115Z 1312/1412 28008KT 9999 FEW030"
    },
    {
      "icao": "LZKZ",
      "alert": "OK",
      "vis_m": 9999,
      "fzfg": false,
      "metar_trigger": false,
      "taf_trigger": false,
      "metar": "METAR LZKZ 131200Z 18008KT 150V210 9999 -SHRA FEW034TCU BKN042 20/13 Q1015 TEMPO SHRA",
      "taf": ""
    },
    {
      "icao": "LZTT",
      "alert": "OK",
      "vis_m": 9999,
      "fzfg": false,
      "metar_trigger": false,
      "taf_trigger": false,
      "metar": "METAR LZTT 131200Z 28016KT 9999 FEW020 SCT036 19/10 Q1016 NOSIG",
      "taf": "TAF LZTT 131115Z 1312/1412 27014KT 9999 FEW025 SCT050"
    },
    {
      "icao": "OEJN",
      "alert": "OK",
      "vis_m": 9999,
      "fzfg": false,
      "metar_trigger": false,
      "taf_trigger": false,
      "metar": "METAR OEJN 131200Z 28011KT CAVOK 34/24 Q1004 NOSIG",
      "taf": "TAF OEJN 131100Z 1312/1418 34014KT CAVOK"
    },
    {
      "icao": "OEMA",
      "alert": "OK",
      "vis_m": 9999,
      "fzfg": false,
      "metar_trigger": false,
      "taf_trigger": false,
      "metar": "METAR OEMA 131200Z 25009G20KT CAVOK 43/M04 Q1010 NOSIG",
      "taf": "TAF OEMA 131100Z 1312/1418 32010KT CAVOK"
    },
    {
      "icao": "OJAI",
      "alert": "OK",
      "vis_m": 5000,
      "fzfg": false,
      "metar_trigger": false,
      "taf_trigger": false,
      "metar": "METAR OJAI 131100Z 29012KT 5000 HZ NSC 29/11 Q1015 NOSIG",
      "taf": "TAF OJAI 131044Z 1312/1418 32010KT 5000 HZ NSC"
    },
    {
      "icao": "OMAA",
      "alert": "OK",
      "vis_m": 9999,
      "fzfg": false,
      "metar_trigger": false,
      "taf_trigger": false,
      "metar": "METAR OMAA 131200Z 31009KT 280V340 CAVOK 39/24 Q1000 NOSIG",
      "taf": "TAF OMAA 131100Z 1312/1418 33011KT 8000 NSC"
    },
    {
      "icao": "OMDB",
      "alert": "OK",
      "vis_m": 9999,
      "fzfg": false,
      "metar_trigger": false,
      "taf_trigger": false,
      "metar": "METAR OMDB 131200Z 34012KT CAVOK 37/25 Q1000 NOSIG",
      "taf": "TAF OMDB 131100Z 1312/1418 32012KT 8000 NSC"
    },
    {
      "icao": "UAAA",
      "alert": "OK",
      "vis_m": 9999,
      "fzfg": false,
      "metar_trigger": false,
      "taf_trigger": false,
      "metar": "METAR UAAA 131130Z 36002MPS 330V040 9999 SCT050CB BKN100 31/11 Q1008 NOSIG",
      "taf": "TAF UAAA 131101Z 1312/1412 19003MPS 9999 SCT050CB BKN100 TX32/1410Z TN17/1401Z"
    },
    {
      "icao": "UBBB",
      "alert": "OK",
      "vis_m": 9999,
      "fzfg": false,
      "metar_trigger": false,
      "taf_trigger": false,
      "metar": "METAR UBBB 131200Z 33014KT CAVOK 27/17 Q1007 NOSIG",
      "taf": "TAF UBBB 131050Z 1312/1412 33014KT CAVOK TX27/1312Z TN19/1400Z"
    },
    {
      "icao": "UDSG",
      "alert": "OK",
      "vis_m": 9999,
      "fzfg": false,
      "metar_trigger": false,
      "taf_trigger": false,
      "metar": "METAR UDSG 131130Z 26002KT 9999 NSC 22/07 Q1015 NOSIG",
      "taf": "TAF UDSG 131100Z 1312/1412 24006KT 9999 FEW050"
    },
    {
      "icao": "UDYZ",
      "alert": "OK",
      "vis_m": 9999,
      "fzfg": false,
      "metar_trigger": false,
      "taf_trigger": false,
      "metar": "METAR UDYZ 131130Z VRB03KT 9999 FEW046 30/07 Q1009 NOSIG",
      "taf": "TAF UDYZ 131100Z 1312/1412 06006KT 9999 FEW040"
    },
    {
      "icao": "UGKO",
      "alert": "OK",
      "vis_m": 9999,
      "fzfg": false,
      "metar_trigger": false,
      "taf_trigger": false,
      "metar": "METAR UGKO 131130Z 28008KT 250V330 CAVOK 27/13 Q1010 NOSIG",
      "taf": "TAF UGKO 131100Z 1312/1412 26007KT CAVOK TX28/1312Z TN16/1401Z"
    }
  ]
}