{
  "ts_utc": "2026-02-12T17:40:33Z",
  "threshold_m": 150,
  "source": "stations_override.txt (ICAO list) + aviationweather.gov (METAR/TAF raw)",
  "station_count": 159,
  "stations": [
    {
      "icao": "BIKF",
      "alert": "OK",
      "vis_m": 9999,
      "fzfg": false,
      "metar_trigger": false,
      "taf_trigger": false,
      "metar": "METAR BIKF 121730Z 02009KT 9999 FEW027 SCT250 M05/M12 Q1006",
      "taf": "TAF BIKF 121635Z 1218/1318 02010KT CAVOK TXM01/1315Z TNM10/1306Z"
    },
    {
      "icao": "BKPR",
      "alert": "OK",
      "vis_m": 9999,
      "fzfg": false,
      "metar_trigger": false,
      "taf_trigger": false,
      "metar": "METAR BKPR 121730Z 16006KT 9999 SCT060 09/06 Q0989 NOSIG",
      "taf": "TAF BKPR 121730Z 1218/1318 16008KT 9999 BKN050"
    },
    {
      "icao": "EBCI",
      "alert": "OK",
      "vis_m": 9000,
      "fzfg": false,
      "metar_trigger": false,
      "taf_trigger": false,
      "metar": "METAR EBCI 121720Z 25008KT 9000 -SHRA SCT018 BKN025 08/06 Q0987 NOSIG",
      "taf": "TAF EBCI 121715Z 1218/1324 26012KT 9999 FEW012 BKN018"
    },
    {
      "icao": "EDDB",
      "alert": "OK",
      "vis_m": 5000,
      "fzfg": false,
      "metar_trigger": false,
      "taf_trigger": false,
      "metar": "METAR EDDB 121720Z AUTO 14007KT 5000 -SHRA BR FEW006 BKN023 BKN030 FEW///TCU 07/07 Q0978 TEMPO 4000 -RA BKN005",
      "taf": "TAF EDDB 121700Z 1218/1318 16007KT 8000 FEW006 BKN015"
    },
    {
      "icao": "EDDH",
      "alert": "OK",
      "vis_m": 9999,
      "fzfg": false,
      "metar_trigger": false,
      "taf_trigger": false,
      "metar": "METAR EDDH 121720Z AUTO 02005KT 340V050 9999 -SHRA OVC006 FEW///TCU 01/01 Q0982 TEMPO 3500 RASN OVC004",
      "taf": "TAF EDDH 121700Z 1218/1324 07008KT 9999 OVC007"
    },
    {
      "icao": "EDDK",
      "alert": "OK",
      "vis_m": 9999,
      "fzfg": false,
      "metar_trigger": false,
      "taf_trigger": false,
      "metar": "METAR EDDK 121720Z COR AUTO 25009KT 9999 VCSH SCT017 BKN032 BKN041 FEW///TCU 09/07 Q0985 RESHRA TEMPO SHRA BKN015TCU",
      "taf": "TAF EDDK 121700Z 1218/1324 27008KT 9999 SCT015 BKN025"
    },
    {
      "icao": "EDDN",
      "alert": "OK",
      "vis_m": 9999,
      "fzfg": false,
      "metar_trigger": false,
      "taf_trigger": false,
      "metar": "METAR EDDN 121720Z AUTO 27012KT 9999 BKN046 08/05 Q0985 NOSIG",
      "taf": "TAF EDDN 121700Z 1218/1318 26010KT 9999 BKN025"
    },
    {
      "icao": "EDDS",
      "alert": "OK",
      "vis_m": 9999,
      "fzfg": false,
      "metar_trigger": false,
      "taf_trigger": false,
      "metar": "METAR EDDS 121720Z AUTO 23007KT 180V270 9999 -SHRA SCT032 BKN042 SCT///CB 07/06 Q0988 RESHRA TEMPO SHRA",
      "taf": "TAF EDDS 121700Z 1218/1318 24012KT 9999 BKN030"
    },
    {
      "icao": "EDFH",
      "alert": "OK",
      "vis_m": 9999,
      "fzfg": false,
      "metar_trigger": false,
      "taf_trigger": false,
      "metar": "METAR EDFH 121720Z 25010KT 9999 FEW013 BKN017 OVC023 06/04 Q0986",
      "taf": "TAF EDFH 121700Z 1218/1318 26012KT 9999 SCT012 BKN020"
    },
    {
      "icao": "EDJA",
      "alert": "OK",
      "vis_m": 9999,
      "fzfg": false,
      "metar_trigger": false,
      "taf_trigger": false,
      "metar": "METAR EDJA 121720Z 24022G35KT 9999 BKN012 BKN014 OVC019 06/04 Q0989",
      "taf": "TAF EDJA 121700Z 1218/1303 24015G25KT 9999 SCT015 BKN035"
    },
    {
      "icao": "EDLW",
      "alert": "OK",
      "vis_m": 9999,
      "fzfg": false,
      "metar_trigger": false,
      "taf_trigger": false,
      "metar": "METAR EDLW 121720Z 23011KT 9999 R24///// SCT010 BKN014 OVC018 08/07 Q0983",
      "taf": "TAF EDLW 121700Z 1218/1318 25006KT 9999 SCT010 BKN020"
    },
    {
      "icao": "EDNY",
      "alert": "OK",
      "vis_m": 9999,
      "fzfg": false,
      "metar_trigger": false,
      "taf_trigger": false,
      "metar": "METAR EDNY 121720Z 24013KT 9999 FEW025 BKN038 07/05 Q0991",
      "taf": "TAF EDNY 121700Z 1218/1303 25015G25KT 9999 FEW030"
    },
    {
      "icao": "EDSB",
      "alert": "OK",
      "vis_m": 8000,
      "fzfg": false,
      "metar_trigger": false,
      "taf_trigger": false,
      "metar": "METAR EDSB 121720Z 22010KT 200V260 8000 RA BKN029 OVC044 09/07 Q0989",
      "taf": "TAF EDSB 121700Z 1218/1318 22010KT 9999 BKN025"
    },
    {
      "icao": "EETN",
      "alert": "OK",
      "vis_m": 9999,
      "fzfg": false,
      "metar_trigger": false,
      "taf_trigger": false,
      "metar": "METAR EETN 121720Z 08007KT CAVOK M08/M10 Q0995 NOSIG",
      "taf": "TAF EETN 121730Z 1218/1318 07006KT 9999 BKN045"
    },
    {
      "icao": "EFTU",
      "alert": "OK",
      "vis_m": 9999,
      "fzfg": false,
      "metar_trigger": false,
      "taf_trigger": false,
      "metar": "METAR EFTU 121720Z AUTO 05005KT 9999 FEW034 M13/M15 Q0997",
      "taf": "TAF EFTU 121723Z 1218/1318 05006KT 9999 FEW020"
    },
    {
      "icao": "EGBB",
      "alert": "OK",
      "vis_m": 9999,
      "fzfg": false,
      "metar_trigger": false,
      "taf_trigger": false,
      "metar": "METAR EGBB 121720Z 06006KT 010V090 9999 BKN014 05/04 Q0988",
      "taf": "TAF EGBB 121654Z 1218/1318 02006KT 9999 BKN012"
    },
    {
      "icao": "EGGP",
      "alert": "OK",
      "vis_m": 7000,
      "fzfg": false,
      "metar_trigger": false,
      "taf_trigger": false,
      "metar": "METAR EGGP 121720Z 08006KT 7000 -RADZ BKN011 BKN018 OVC023 04/03 Q0988",
      "taf": "TAF EGGP 121701Z 1218/1318 05006KT 9999 SCT014 BKN030"
    },
    {
      "icao": "EGGW",
      "alert": "OK",
      "vis_m": 6000,
      "fzfg": false,
      "metar_trigger": false,
      "taf_trigger": false,
      "metar": "METAR EGGW 121720Z AUTO 36006KT 6000 -RA BKN005/// OVC010/// //////TCU 05/05 Q0988",
      "taf": "TAF EGGW 121655Z 1218/1318 34005KT 9999 SCT020"
    },
    {
      "icao": "EGKK",
      "alert": "OK",
      "vis_m": 9999,
      "fzfg": false,
      "metar_trigger": false,
      "taf_trigger": false,
      "metar": "METAR EGKK 121720Z 26013KT 9999 SCT029 09/06 Q0988",
      "taf": "TAF EGKK 121657Z 1218/1324 26010KT 9999 SCT030"
    },
    {
      "icao": "EGNM",
      "alert": "OK",
      "vis_m": 9000,
      "fzfg": false,
      "metar_trigger": false,
      "taf_trigger": false,
      "metar": "METAR EGNM 121720Z 04005KT 020V090 9000 -RA SCT004 BKN008 03/02 Q0988",
      "taf": "TAF EGNM 121700Z 1218/1318 05011KT 9999 SCT007 BKN020"
    },
    {
      "icao": "EGPD",
      "alert": "OK",
      "vis_m": 9999,
      "fzfg": false,
      "metar_trigger": false,
      "taf_trigger": false,
      "metar": "METAR EGPD 121720Z COR AUTO 35004KT 9999 OVC046 03/M02 Q0994 NOSIG",
      "taf": "TAF EGPD 121653Z 1218/1318 30005KT 9999 BKN025"
    },
    {
      "icao": "EGPF",
      "alert": "OK",
      "vis_m": 9999,
      "fzfg": false,
      "metar_trigger": false,
      "taf_trigger": false,
      "metar": "METAR EGPF 121720Z AUTO 05012KT 9999 OVC045 04/M01 Q0992",
      "taf": "TAF EGPF 121655Z 1218/1318 06010KT 9999 BKN020"
    },
    {
      "icao": "EHBK",
      "alert": "OK",
      "vis_m": 9999,
      "fzfg": false,
      "metar_trigger": false,
      "taf_trigger": false,
      "metar": "METAR EHBK 121725Z AUTO 24007KT 210V280 9999 FEW015CB BKN045 BKN049 08/07 Q0986 NOSIG",
      "taf": "TAF EHBK 121720Z 1218/1324 26010KT 9999 BKN040"
    },
    {
      "icao": "EHEH",
      "alert": "OK",
      "vis_m": 9999,
      "fzfg": false,
      "metar_trigger": false,
      "taf_trigger": false,
      "metar": "METAR EHEH 121725Z AUTO 26009KT 210V300 9999 FEW007 BKN008 BKN009 08/07 Q0985 REDZ GRN TEMPO 4500 -RADZ SCT005 OVC010",
      "taf": "TAF EHEH 121123Z 1212/1318 27008KT 9999 FEW007 BKN012"
    },
    {
      "icao": "EKBI",
      "alert": "OK",
      "vis_m": 9999,
      "fzfg": false,
      "metar_trigger": false,
      "taf_trigger": false,
      "metar": "METAR EKBI 121720Z AUTO 03011KT 9999 -SN BKN010/// OVC027/// M01/M02 Q0988",
      "taf": "TAF EKBI 121727Z 1218/1318 04012KT 9000 DRSN BKN009"
    },
    {
      "icao": "EKCH",
      "alert": "OK",
      "vis_m": 5000,
      "fzfg": false,
      "metar_trigger": false,
      "taf_trigger": false,
      "metar": "METAR EKCH 121720Z 05013KT 5000 -SN FEW010 BKN015 M00/M02 Q0987 TEMPO 3000 BKN010",
      "taf": "TAF EKCH 121727Z 1218/1318 04016KT 3000 -SN BKN008"
    },
    {
      "icao": "ENAL",
      "alert": "OK",
      "vis_m": 9999,
      "fzfg": false,
      "metar_trigger": false,
      "taf_trigger": false,
      "metar": "METAR ENAL 121720Z 14011KT 9999 FEW033 BKN049 M00/M08 Q0992",
      "taf": "TAF ENAL 121700Z 1218/1303 18008KT 9999 FEW012 BKN030"
    },
    {
      "icao": "ENBR",
      "alert": "OK",
      "vis_m": 9999,
      "fzfg": false,
      "metar_trigger": false,
      "taf_trigger": false,
      "metar": "METAR ENBR 121720Z 12005KT 9999 FEW035CB M02/M12 Q0993 NOSIG RMK WIND 1200FT 14011KT",
      "taf": "TAF ENBR 121700Z 1218/1318 15008KT 9999 FEW020 BKN035"
    },
    {
      "icao": "ENGM",
      "alert": "OK",
      "vis_m": 9999,
      "fzfg": false,
      "metar_trigger": false,
      "taf_trigger": false,
      "metar": "METAR ENGM 121720Z 01005KT 9999 -SN FEW030 BKN035 M08/M11 Q0995 NOSIG",
      "taf": "TAF ENGM 121700Z 1218/1318 01008KT 9999 FEW025 BKN035"
    },
    {
      "icao": "ENHD",
      "alert": "OK",
      "vis_m": 9999,
      "fzfg": false,
      "metar_trigger": false,
      "taf_trigger": false,
      "metar": "METAR ENHD 121720Z 16005KT CAVOK M03/M11 Q0994",
      "taf": "TAF ENHD 121400Z 1215/1223 11006KT 9999 SCT040"
    },
    {
      "icao": "ENTC",
      "alert": "OK",
      "vis_m": 9999,
      "fzfg": false,
      "metar_trigger": false,
      "taf_trigger": false,
      "metar": "METAR ENTC 121720Z 21011KT 9999 FEW006 M07/M10 Q0994 RESN TEMPO 2500 -SHSN VV010 RMK WIND 2600FT 35004KT",
      "taf": "TAF ENTC 121700Z 1218/1318 21012KT 9999 FEW020 BKN035"
    },
    {
      "icao": "ENTO",
      "alert": "OK",
      "vis_m": 9999,
      "fzfg": false,
      "metar_trigger": false,
      "taf_trigger": false,
      "metar": "METAR ENTO 121720Z 04007KT 010V070 9999 OVC039 M07/M11 Q0996 NOSIG",
      "taf": "TAF ENTO 121700Z 1218/1318 03008KT 9999 BKN035"
    },
    {
      "icao": "ENVA",
      "alert": "OK",
      "vis_m": 9999,
      "fzfg": false,
      "metar_trigger": false,
      "taf_trigger": false,
      "metar": "METAR ENVA 121720Z 13005KT 090V150 9999 FEW051 M06/M15 Q0995 NOSIG RMK WIND 670FT 13011KT",
      "taf": "TAF ENVA 121700Z 1218/1318 10008KT 9999 FEW050"
    },
    {
      "icao": "ENZV",
      "alert": "OK",
      "vis_m": 9999,
      "fzfg": false,
      "metar_trigger": false,
      "taf_trigger": false,
      "metar": "METAR ENZV 121720Z 18004KT CAVOK M04/M12 Q0994 NOSIG",
      "taf": "TAF ENZV 121700Z 1218/1318 15005KT CAVOK"
    },
    {
      "icao": "EPGD",
      "alert": "OK",
      "vis_m": 2100,
      "fzfg": false,
      "metar_trigger": false,
      "taf_trigger": false,
      "metar": "METAR EPGD 121730Z 06007KT 2100 -SN BR OVC001 M00/M00 Q0984",
      "taf": "TAF EPGD 121730Z 1218/1318 06008KT 3000 -SNRA BR OVC002"
    },
    {
      "icao": "EPKK",
      "alert": "OK",
      "vis_m": 9999,
      "fzfg": false,
      "metar_trigger": false,
      "taf_trigger": false,
      "metar": "METAR EPKK 121730Z VRB02KT 9999 BKN058 09/03 Q0984",
      "taf": "TAF EPKK 121730Z 1218/1318 VRB02KT 9999 BKN045"
    },
    {
      "icao": "EPKT",
      "alert": "OK",
      "vis_m": 9999,
      "fzfg": false,
      "metar_trigger": false,
      "taf_trigger": false,
      "metar": "METAR EPKT 121730Z 20008KT 9999 FEW038 BKN046 09/04 Q0984",
      "taf": "TAF EPKT 121730Z 1218/1318 20008KT 9999 BKN040"
    },
    {
      "icao": "EPLB",
      "alert": "OK",
      "vis_m": 8000,
      "fzfg": false,
      "metar_trigger": false,
      "taf_trigger": false,
      "metar": "METAR EPLB 121730Z VRB02KT 8000 BKN041 03/03 Q0986",
      "taf": "TAF EPLB 121730Z 1218/1318 14005KT 7000 BKN039"
    },
    {
      "icao": "EPMO",
      "alert": "OK",
      "vis_m": 400,
      "fzfg": false,
      "metar_trigger": false,
      "taf_trigger": false,
      "metar": "METAR EPMO 121730Z 11007KT 0400 R08/0400N FG BKN000 03/03 Q0984",
      "taf": "TAF EPMO 121730Z 1218/1318 14005KT 0500 FG OVC002"
    },
    {
      "icao": "EPPO",
      "alert": "OK",
      "vis_m": 4600,
      "fzfg": false,
      "metar_trigger": false,
      "taf_trigger": false,
      "metar": "METAR EPPO 121730Z 12004KT 4600 -RA BR BKN041 06/05 Q0981",
      "taf": "TAF EPPO 121730Z 1218/1318 12005KT 7000 -RA OVC044"
    },
    {
      "icao": "EPRA",
      "alert": "OK",
      "vis_m": 9999,
      "fzfg": false,
      "metar_trigger": false,
      "taf_trigger": false,
      "metar": "METAR EPRA 121730Z 16006KT CAVOK 05/03 Q0985",
      "taf": "TAF EPRA 121730Z 1218/1303 16005KT CAVOK"
    },
    {
      "icao": "EPRZ",
      "alert": "OK",
      "vis_m": 9999,
      "fzfg": false,
      "metar_trigger": false,
      "taf_trigger": false,
      "metar": "METAR EPRZ 121730Z 18006KT CAVOK 07/04 Q0986",
      "taf": "TAF EPRZ 121730Z 1218/1318 18007KT CAVOK"
    },
    {
      "icao": "EPSC",
      "alert": "OK",
      "vis_m": 2900,
      "fzfg": false,
      "metar_trigger": false,
      "taf_trigger": false,
      "metar": "METAR EPSC 121730Z 04003KT 360V060 2900 -RA BR OVC002 03/03 Q0980",
      "taf": "TAF EPSC 121730Z 1218/1318 06004KT 3000 -RA BR OVC002"
    },
    {
      "icao": "EPSY",
      "alert": "OK",
      "vis_m": 7000,
      "fzfg": false,
      "metar_trigger": false,
      "taf_trigger": false,
      "metar": "METAR EPSY 121730Z 12003KT 070V160 7000 OVC009 03/01 Q0984",
      "taf": "TAF EPSY 121730Z 1218/1303 12005KT 5000 BR OVC007"
    },
    {
      "icao": "EPWA",
      "alert": "OK",
      "vis_m": 900,
      "fzfg": false,
      "metar_trigger": false,
      "taf_trigger": false,
      "metar": "METAR EPWA 121730Z 12005KT 0900 0400W R11/0450N FG BKN001 BKN015 04/04 Q0984 TEMPO 0400 FG",
      "taf": "TAF EPWA 121730Z 1218/1318 15005KT 0800 FG OVC002"
    },
    {
      "icao": "EPWR",
      "alert": "OK",
      "vis_m": 9999,
      "fzfg": false,
      "metar_trigger": false,
      "taf_trigger": false,
      "metar": "METAR EPWR 121730Z 17010KT CAVOK 08/05 Q0982",
      "taf": "TAF EPWR 121730Z 1218/1318 17008KT CAVOK"
    },
    {
      "icao": "ESGG",
      "alert": "OK",
      "vis_m": 9999,
      "fzfg": false,
      "metar_trigger": false,
      "taf_trigger": false,
      "metar": "METAR ESGG 121720Z 05010KT 9999 OVC041 M05/M08 Q0991",
      "taf": "TAF ESGG 121730Z 1218/1318 04011KT 9999 BKN040"
    },
    {
      "icao": "ESKN",
      "alert": "OK",
      "vis_m": 9999,
      "fzfg": false,
      "metar_trigger": false,
      "taf_trigger": false,
      "metar": "METAR ESKN 121720Z 04009KT 9999 BKN019 M05/M09 Q0995",
      "taf": "TAF ESKN 121730Z 1218/1318 06010KT 9999 BKN020"
    },
    {
      "icao": "ESMS",
      "alert": "OK",
      "vis_m": 2000,
      "fzfg": false,
      "metar_trigger": false,
      "taf_trigger": false,
      "metar": "METAR ESMS 121720Z 06017KT 2000 -SN VV013 M01/M02 Q0986",
      "taf": "TAF ESMS 121731Z 1218/1318 05015KT 4000 -SN BKN008"
    },
    {
      "icao": "ESSA",
      "alert": "OK",
      "vis_m": 9999,
      "fzfg": false,
      "metar_trigger": false,
      "taf_trigger": false,
      "metar": "METAR ESSA 121720Z 02009KT CAVOK M08/M12 Q0996 NOSIG",
      "taf": "TAF ESSA 121730Z 1218/1318 03012KT CAVOK"
    },
    {
      "icao": "EYKA",
      "alert": "OK",
      "vis_m": 1700,
      "fzfg": false,
      "metar_trigger": false,
      "taf_trigger": false,
      "metar": "METAR EYKA 121720Z 02003KT 330V070 1700 -SN -FZDZ BR OVC002 M01/M01 Q0987",
      "taf": "TAF EYKA 121710Z 1218/1318 VRB03KT 1500 BR OVC002"
    },
    {
      "icao": "EYPA",
      "alert": "OK",
      "vis_m": 4300,
      "fzfg": false,
      "metar_trigger": false,
      "taf_trigger": false,
      "metar": "METAR EYPA 121720Z 07011KT 4300 -SN OVC034 M05/M07 Q0988",
      "taf": "TAF EYPA 121710Z 1218/1318 07012KT 3000 SN SCT005 OVC015"
    },
    {
      "icao": "EYVI",
      "alert": "OK",
      "vis_m": 3600,
      "fzfg": false,
      "metar_trigger": false,
      "taf_trigger": false,
      "metar": "METAR EYVI 121720Z COR 00000KT 3600 BR OVC005 01/M00 Q0986 NOSIG",
      "taf": ""
    },
    {
      "icao": "GCFV",
      "alert": "OK",
      "vis_m": 9999,
      "fzfg": false,
      "metar_trigger": false,
      "taf_trigger": false,
      "metar": "METAR GCFV 121730Z 03009KT 9999 FEW015 19/15 Q1022",
      "taf": "TAF GCFV 121400Z 1215/1315 04008KT 9999 SCT015 TX23/1314Z TN17/1306Z"
    },
    {
      "icao": "GCLP",
      "alert": "OK",
      "vis_m": 9999,
      "fzfg": false,
      "metar_trigger": false,
      "taf_trigger": false,
      "metar": "METAR GCLP 121730Z 02019KT 9999 FEW015 SCT020 20/15 Q1022 NOSIG",
      "taf": "TAF GCLP 121400Z 1215/1315 04005KT 9999 SCT020 TX23/1314Z TN16/1306Z"
    },
    {
      "icao": "GCTS",
      "alert": "OK",
      "vis_m": 9999,
      "fzfg": false,
      "metar_trigger": false,
      "taf_trigger": false,
      "metar": "METAR GCTS 121730Z 11010KT 070V140 9999 FEW020 20/15 Q1023 NOSIG",
      "taf": ""
    },
    {
      "icao": "GMAD",
      "alert": "OK",
      "vis_m": 5000,
      "fzfg": false,
      "metar_trigger": false,
      "taf_trigger": false,
      "metar": "METAR GMAD 121730Z 23003KT 5000 BKN016 18/17 Q1020 NOSIG",
      "taf": ""
    },
    {
      "icao": "GMMN",
      "alert": "OK",
      "vis_m": 9999,
      "fzfg": false,
      "metar_trigger": false,
      "taf_trigger": false,
      "metar": "METAR GMMN 121730Z 01006KT CAVOK 17/14 Q1020 NOSIG",
      "taf": "TAF GMMN 121700Z 1218/1324 34006KT CAVOK"
    },
    {
      "icao": "GMMX",
      "alert": "OK",
      "vis_m": 9999,
      "fzfg": false,
      "metar_trigger": false,
      "taf_trigger": false,
      "metar": "METAR GMMX 121730Z VRB02KT CAVOK 25/12 Q1019 NOSIG",
      "taf": "TAF GMMX 121700Z 1218/1324 08006KT 8000 NSC"
    },
    {
      "icao": "HEGN",
      "alert": "OK",
      "vis_m": 9999,
      "fzfg": false,
      "metar_trigger": false,
      "taf_trigger": false,
      "metar": "METAR HEGN 121700Z 09006KT CAVOK 23/08 Q1015 NOSIG",
      "taf": "TAF HEGN 121700Z 1218/1324 12008KT CAVOK"
    },
    {
      "icao": "HEMA",
      "alert": "OK",
      "vis_m": 9999,
      "fzfg": false,
      "metar_trigger": false,
      "taf_trigger": false,
      "metar": "METAR HEMA 121700Z 36002KT CAVOK 22/10 Q1014 NOSIG",
      "taf": "TAF HEMA 121700Z 1218/1324 02008KT CAVOK"
    },
    {
      "icao": "HESH",
      "alert": "OK",
      "vis_m": 9999,
      "fzfg": false,
      "metar_trigger": false,
      "taf_trigger": false,
      "metar": "METAR HESH 121700Z 17006KT CAVOK 25/10 Q1013 NOSIG",
      "taf": "TAF HESH 121700Z 1218/1324 15008KT CAVOK"
    },
    {
      "icao": "HESX",
      "alert": "OK",
      "vis_m": 9999,
      "fzfg": false,
      "metar_trigger": false,
      "taf_trigger": false,
      "metar": "METAR HESX 121700Z 23015KT CAVOK 20/01 Q1011 NOSIG",
      "taf": "TAF HESX 121700Z 1218/1324 20015KT 6000 NSC"
    },
    {
      "icao": "LATI",
      "alert": "OK",
      "vis_m": 9999,
      "fzfg": false,
      "metar_trigger": false,
      "taf_trigger": false,
      "metar": "METAR LATI 121720Z 08005KT 9999 -RA FEW038 SCT050 BKN074 11/09 Q0987 NOSIG",
      "taf": "TAF LATI 121700Z 1218/1318 VRB05KT 9999 -RA FEW030 SCT050 BKN070 TX14/1312Z TN09/1305Z"
    },
    {
      "icao": "LBPD",
      "alert": "OK",
      "vis_m": 9999,
      "fzfg": false,
      "metar_trigger": false,
      "taf_trigger": false,
      "metar": "METAR LBPD 121730Z AUTO 16002KT 9999 OVC023/// 06/05 Q0992 NOSIG",
      "taf": "TAF LBPD 121700Z 1218/1318 VRB03KT 9999 BKN013 OVC020"
    },
    {
      "icao": "LBSF",
      "alert": "OK",
      "vis_m": 9999,
      "fzfg": false,
      "metar_trigger": false,
      "taf_trigger": false,
      "metar": "METAR LBSF 121730Z AUTO 11006KT 9999 SCT057/// 05/04 Q0991 NOSIG",
      "taf": "TAF LBSF 121700Z 1218/1318 10008KT 9999 SCT020 BKN050"
    },
    {
      "icao": "LBWN",
      "alert": "OK",
      "vis_m": 4000,
      "fzfg": false,
      "metar_trigger": false,
      "taf_trigger": false,
      "metar": "METAR LBWN 121730Z AUTO 13003KT 4000 -SHRA BR BKN004/// BKN010/// OVC012/// 07/07 Q0992 TEMPO 3000 RA BR SCT002",
      "taf": "TAF LBWN 121700Z 1218/1318 VRB04KT 3000 BR BKN005"
    },
    {
      "icao": "LCLK",
      "alert": "OK",
      "vis_m": 8000,
      "fzfg": false,
      "metar_trigger": false,
      "taf_trigger": false,
      "metar": "METAR LCLK 121730Z 24007KT 8000 -SHRA FEW025 BKN060 17/16 Q1009 NOSIG",
      "taf": "TAF LCLK 121730Z 1218/1318 22012KT 9999 FEW025 SCT055"
    },
    {
      "icao": "LCPH",
      "alert": "OK",
      "vis_m": 9999,
      "fzfg": false,
      "metar_trigger": false,
      "taf_trigger": false,
      "metar": "METAR LCPH 121730Z 23009KT 170V250 9999 FEW030 BKN060 18/15 Q1008 NOSIG",
      "taf": "TAF LCPH 121730Z 1218/1318 22013KT 9999 FEW025 SCT055"
    },
    {
      "icao": "LEAL",
      "alert": "OK",
      "vis_m": 9999,
      "fzfg": false,
      "metar_trigger": false,
      "taf_trigger": false,
      "metar": "METAR LEAL 121730Z 33007KT 300V360 9999 FEW012 SCT060 21/03 Q1012 NOSIG",
      "taf": "TAF LEAL 121700Z 1218/1318 29010KT 9999 FEW030 TX22/1313Z TN09/1306Z"
    },
    {
      "icao": "LEBB",
      "alert": "OK",
      "vis_m": 9999,
      "fzfg": false,
      "metar_trigger": false,
      "taf_trigger": false,
      "metar": "METAR LEBB 121730Z VRB04KT CAVOK 15/06 Q1009 NOSIG",
      "taf": "TAF LEBB 121700Z 1218/1318 20009KT 9999 SCT060 TX15/1218Z TN09/1309Z"
    },
    {
      "icao": "LEBL",
      "alert": "OK",
      "vis_m": 9999,
      "fzfg": false,
      "metar_trigger": false,
      "taf_trigger": false,
      "metar": "METAR LEBL 121730Z 29020KT 270V340 9999 FEW020 17/02 Q1006 NOSIG",
      "taf": "TAF LEBL 121700Z 1218/1318 29020KT 9999 FEW020 TX15/1312Z TN10/1306Z"
    },
    {
      "icao": "LECH",
      "alert": "OK",
      "vis_m": 9999,
      "fzfg": false,
      "metar_trigger": false,
      "taf_trigger": false,
      "metar": "METAR LECH 121730Z AUTO 28017KT 240V320 CAVOK 16/M02 Q1010",
      "taf": ""
    },
    {
      "icao": "LEMD",
      "alert": "OK",
      "vis_m": 9999,
      "fzfg": false,
      "metar_trigger": false,
      "taf_trigger": false,
      "metar": "METAR LEMD 121730Z 23013KT 9999 FEW035 11/05 Q1014 NOSIG",
      "taf": "TAF LEMD 121700Z 1218/1324 23012KT 9999 SCT035 TX12/1315Z TN06/1324Z"
    },
    {
      "icao": "LEMG",
      "alert": "OK",
      "vis_m": 9999,
      "fzfg": false,
      "metar_trigger": false,
      "taf_trigger": false,
      "metar": "METAR LEMG 121730Z 32005KT 270V350 CAVOK 18/10 Q1017 NOSIG",
      "taf": "TAF LEMG 121700Z 1218/1318 30012KT 9999 FEW030 TX23/1314Z TN14/1307Z"
    },
    {
      "icao": "LEVC",
      "alert": "OK",
      "vis_m": 9999,
      "fzfg": false,
      "metar_trigger": false,
      "taf_trigger": false,
      "metar": "METAR LEVC 121730Z 29017KT CAVOK 17/02 Q1011 NOSIG",
      "taf": "TAF LEVC 121700Z 1218/1318 29015KT 9999 FEW040 TX21/1314Z TN12/1306Z"
    },
    {
      "icao": "LEXJ",
      "alert": "OK",
      "vis_m": 9999,
      "fzfg": false,
      "metar_trigger": false,
      "taf_trigger": false,
      "metar": "METAR LEXJ 121730Z VRB02KT 9999 FEW080 14/07 Q1009",
      "taf": "TAF LEXJ 121400Z 1215/1315 28015KT 9999 FEW060 TX17/1215Z TN10/1309Z"
    },
    {
      "icao": "LEZG",
      "alert": "OK",
      "vis_m": 9999,
      "fzfg": false,
      "metar_trigger": false,
      "taf_trigger": false,
      "metar": "METAR LEZG 121730Z 25012KT CAVOK 15/03 Q1010 NOSIG",
      "taf": "TAF LEZG 121700Z 1218/1318 24015KT 9999 FEW030 TX12/1312Z TN08/1306Z"
    },
    {
      "icao": "LEZL",
      "alert": "OK",
      "vis_m": 9999,
      "fzfg": false,
      "metar_trigger": false,
      "taf_trigger": false,
      "metar": "METAR LEZL 121730Z 22013KT CAVOK 17/14 Q1018 NOSIG",
      "taf": "TAF LEZL 121400Z 1215/1315 24010KT CAVOK TX20/1215Z TN12/1307Z"
    },
    {
      "icao": "LFBD",
      "alert": "OK",
      "vis_m": 9999,
      "fzfg": false,
      "metar_trigger": false,
      "taf_trigger": false,
      "metar": "METAR LFBD 121730Z AUTO 28019G29KT 9999 FEW023/// BKN028/// BKN034/// ///CB 12/09 Q1005 TEMPO 4000 -SHRA",
      "taf": "TAF LFBD 121700Z 1218/1324 28015G30KT 9999 BKN030 TX12/1219Z TN08/1305Z"
    },
    {
      "icao": "LFLL",
      "alert": "OK",
      "vis_m": 9999,
      "fzfg": false,
      "metar_trigger": false,
      "taf_trigger": false,
      "metar": "METAR LFLL 121730Z 26007KT 9999 BKN040 BKN060 09/06 Q0999 NOSIG",
      "taf": "TAF LFLL 121700Z 1218/1324 26010KT 9999 BKN040"
    },
    {
      "icao": "LFLS",
      "alert": "OK",
      "vis_m": 9999,
      "fzfg": false,
      "metar_trigger": false,
      "taf_trigger": false,
      "metar": "METAR LFLS 121730Z AUTO 08009KT 9999 SCT041 BKN047 BKN058 06/05 Q1000 TEMPO FEW035TCU BKN040 BECMG 20012KT",
      "taf": "TAF LFLS 121400Z 1215/1315 20012KT 9999 BKN045"
    },
    {
      "icao": "LFMN",
      "alert": "OK",
      "vis_m": 9999,
      "fzfg": false,
      "metar_trigger": false,
      "taf_trigger": false,
      "metar": "METAR LFMN 121730Z COR 27028KT 9999 FEW066 SCT230 16/03 Q0990 NOSIG",
      "taf": ""
    },
    {
      "icao": "LFOB",
      "alert": "OK",
      "vis_m": 9999,
      "fzfg": false,
      "metar_trigger": false,
      "taf_trigger": false,
      "metar": "METAR LFOB 121730Z AUTO 27016KT 9999 FEW027 SCT034 BKN041 10/06 Q0991 BECMG 28010G20KT",
      "taf": "TAF LFOB 121700Z 1218/1318 24010KT 9999 BKN020"
    },
    {
      "icao": "LFPO",
      "alert": "OK",
      "vis_m": 9999,
      "fzfg": false,
      "metar_trigger": false,
      "taf_trigger": false,
      "metar": "METAR LFPO 121730Z 27013KT CAVOK 10/06 Q0993 NOSIG",
      "taf": "TAF LFPO 121700Z 1218/1324 26013KT CAVOK"
    },
    {
      "icao": "LFSB",
      "alert": "OK",
      "vis_m": 9999,
      "fzfg": false,
      "metar_trigger": false,
      "taf_trigger": false,
      "metar": "METAR LFSB 121730Z AUTO 23013KT 9999 FEW033/// BKN040/// BKN048/// ///TCU 09/05 Q0993 TEMPO 26020G35KT SHRA",
      "taf": "TAF LFSB 121700Z 1218/1318 25012KT 9999 SCT025 BKN040"
    },
    {
      "icao": "LGAV",
      "alert": "OK",
      "vis_m": 9999,
      "fzfg": false,
      "metar_trigger": false,
      "taf_trigger": false,
      "metar": "METAR LGAV 121720Z 22006KT 9999 -RA SCT025 BKN070 14/12 Q0993 NOSIG",
      "taf": "TAF LGAV 121700Z 1218/1318 25011KT 9999 SCT025 SCT070"
    },
    {
      "icao": "LGTS",
      "alert": "OK",
      "vis_m": 9999,
      "fzfg": false,
      "metar_trigger": false,
      "taf_trigger": false,
      "metar": "METAR LGTS 121720Z 15003KT 9999 FEW020 13/09 Q0991 NOSIG",
      "taf": "TAF LGTS 121700Z 1218/1318 VRB03KT 9999 BKN030"
    },
    {
      "icao": "LHBP",
      "alert": "OK",
      "vis_m": 9999,
      "fzfg": false,
      "metar_trigger": false,
      "taf_trigger": false,
      "metar": "METAR LHBP 121730Z 10006KT 9999 BKN048 OVC070 11/07 Q0986 TEMPO 4500 SHRA",
      "taf": "TAF LHBP 121715Z 1218/1318 13006KT 9999 SCT040 BKN070"
    },
    {
      "icao": "LHDC",
      "alert": "OK",
      "vis_m": 9999,
      "fzfg": false,
      "metar_trigger": false,
      "taf_trigger": false,
      "metar": "METAR LHDC 121715Z AUTO 13004KT CAVOK 12/07 Q0988 NOSIG",
      "taf": ""
    },
    {
      "icao": "LIBD",
      "alert": "OK",
      "vis_m": 9999,
      "fzfg": false,
      "metar_trigger": false,
      "taf_trigger": false,
      "metar": "METAR LIBD 121720Z 23009KT 9999 BKN045 12/09 Q0984",
      "taf": "TAF LIBD 121700Z 1218/1318 20010KT 9999 SCT040"
    },
    {
      "icao": "LIBG",
      "alert": "OK",
      "vis_m": 9999,
      "fzfg": false,
      "metar_trigger": false,
      "taf_trigger": false,
      "metar": "METAR LIBG 121650Z VRB01KT 9999 SCT030 12/11 Q0985",
      "taf": "TAF LIBG 121700Z 1218/1303 VRB05KT 9999 BKN020"
    },
    {
      "icao": "LIBP",
      "alert": "OK",
      "vis_m": 9999,
      "fzfg": false,
      "metar_trigger": false,
      "taf_trigger": false,
      "metar": "METAR LIBP 121720Z AUTO 26003KT 9999 BKN064/// BKN110/// 10/09 Q0987",
      "taf": "TAF LIBP 121700Z 1218/1318 VRB05KT 9999 BKN050"
    },
    {
      "icao": "LIBR",
      "alert": "OK",
      "vis_m": 6000,
      "fzfg": false,
      "metar_trigger": false,
      "taf_trigger": false,
      "metar": "METAR LIBR 121720Z 19007KT 6000 SCT010 12/11 Q0985",
      "taf": "TAF LIBR 121700Z 1218/1318 18013KT 9999 SCT050"
    },
    {
      "icao": "LICA",
      "alert": "OK",
      "vis_m": 1600,
      "fzfg": false,
      "metar_trigger": false,
      "taf_trigger": false,
      "metar": "METAR LICA 121720Z AUTO 29025KT 1600 R28/0700D RA BR SCT009/// OVC040/// 11/10 Q0990",
      "taf": "TAF LICA 121700Z 1218/1318 26025G40KT 9999 RA BKN020"
    },
    {
      "icao": "LICC",
      "alert": "OK",
      "vis_m": 9999,
      "fzfg": false,
      "metar_trigger": false,
      "taf_trigger": false,
      "metar": "METAR LICC 121720Z 25015KT 210V270 9999 -RA BKN060 14/10 Q0994",
      "taf": "TAF LICC 121700Z 1218/1318 28025G35KT 9999 SCT060"
    },
    {
      "icao": "LICJ",
      "alert": "OK",
      "vis_m": 8000,
      "fzfg": false,
      "metar_trigger": false,
      "taf_trigger": false,
      "metar": "METAR LICJ 121720Z 27028KT 8000 SCT025 16/10 Q0996",
      "taf": "TAF LICJ 121700Z 1218/1318 25025G40KT 7000 SCT030"
    },
    {
      "icao": "LIMC",
      "alert": "OK",
      "vis_m": 9999,
      "fzfg": false,
      "metar_trigger": false,
      "taf_trigger": false,
      "metar": "METAR LIMC 121720Z 26005KT 230V290 CAVOK 10/06 Q0989 NOSIG",
      "taf": "TAF LIMC 121700Z 1218/1324 VRB05KT 8000 NSC"
    },
    {
      "icao": "LIME",
      "alert": "OK",
      "vis_m": 4500,
      "fzfg": false,
      "metar_trigger": false,
      "taf_trigger": false,
      "metar": "METAR LIME 121720Z 23006KT 4500 BR SCT006 SCT020 09/08 Q0989 TEMPO 2000 BCFG",
      "taf": "TAF LIME 121700Z 1218/1318 VRB06KT 4000 BR SCT020"
    },
    {
      "icao": "LIMF",
      "alert": "OK",
      "vis_m": 8000,
      "fzfg": false,
      "metar_trigger": false,
      "taf_trigger": false,
      "metar": "METAR LIMF 121720Z 09003KT 060V120 8000 SCT030 09/06 Q0989",
      "taf": "TAF LIMF 121700Z 1218/1318 VRB05KT 8000 FEW030"
    },
    {
      "icao": "LIMJ",
      "alert": "OK",
      "vis_m": 9999,
      "fzfg": false,
      "metar_trigger": false,
      "taf_trigger": false,
      "metar": "METAR LIMJ 121720Z 07003KT 030V130 CAVOK 12/05 Q0989",
      "taf": "TAF LIMJ 121700Z 1218/1318 03006KT CAVOK"
    },
    {
      "icao": "LIPE",
      "alert": "OK",
      "vis_m": 9999,
      "fzfg": false,
      "metar_trigger": false,
      "taf_trigger": false,
      "metar": "METAR LIPE 121720Z 24004KT 9999 FEW020 08/08 Q0989",
      "taf": "TAF LIPE 121700Z 1218/1318 VRB05KT 7000 SCT015"
    },
    {
      "icao": "LIPH",
      "alert": "OK",
      "vis_m": 9999,
      "fzfg": false,
      "metar_trigger": false,
      "taf_trigger": false,
      "metar": "METAR LIPH 121720Z 21003KT 180V240 CAVOK 10/08 Q0987",
      "taf": "TAF LIPH 121700Z 1218/1318 VRB05KT 6000 BKN020"
    },
    {
      "icao": "LIPQ",
      "alert": "OK",
      "vis_m": 9999,
      "fzfg": false,
      "metar_trigger": false,
      "taf_trigger": false,
      "metar": "METAR LIPQ 121720Z AUTO 13006KT 9999 FEW038/// OVC180/// 10/10 Q0987",
      "taf": "TAF LIPQ 121700Z 1218/1318 VRB05KT 8000 BKN012"
    },
    {
      "icao": "LIPR",
      "alert": "OK",
      "vis_m": 7000,
      "fzfg": false,
      "metar_trigger": false,
      "taf_trigger": false,
      "metar": "METAR LIPR 121720Z 29008KT 270V340 7000 SCT006 BKN030 10/09 Q0988",
      "taf": "TAF LIPR 121700Z 1218/1318 30011KT 9999 BKN040"
    },
    {
      "icao": "LIPX",
      "alert": "OK",
      "vis_m": 9999,
      "fzfg": false,
      "metar_trigger": false,
      "taf_trigger": false,
      "metar": "METAR LIPX 121720Z 25007KT 230V290 9999 FEW015 SCT040 08/07 Q0988",
      "taf": "TAF LIPX 121700Z 1218/1318 VRB05KT 8000 SCT020"
    },
    {
      "icao": "LIPY",
      "alert": "OK",
      "vis_m": 9999,
      "fzfg": false,
      "metar_trigger": false,
      "taf_trigger": false,
      "metar": "METAR LIPY 121720Z AUTO 32010KT 9999 OVC005/// 11/10 Q0988",
      "taf": "TAF LIPY 121700Z 1218/1318 31010KT 9999 BKN060"
    },
    {
      "icao": "LIPZ",
      "alert": "OK",
      "vis_m": 9999,
      "fzfg": false,
      "metar_trigger": false,
      "taf_trigger": false,
      "metar": "METAR LIPZ 121720Z 25005KT 9999 FEW020 10/08 Q0988 NOSIG",
      "taf": "TAF LIPZ 121700Z 1218/1324 VRB05KT 6000 BKN015"
    },
    {
      "icao": "LIRF",
      "alert": "OK",
      "vis_m": 9999,
      "fzfg": false,
      "metar_trigger": false,
      "taf_trigger": false,
      "metar": "METAR LIRF 121720Z 30016KT CAVOK 14/09 Q0988 NOSIG",
      "taf": "TAF LIRF 121700Z 1218/1324 30015KT 9999 FEW020 BKN050"
    },
    {
      "icao": "LIRN",
      "alert": "OK",
      "vis_m": 9999,
      "fzfg": false,
      "metar_trigger": false,
      "taf_trigger": false,
      "metar": "METAR LIRN 121720Z 27008KT 9999 SCT030 13/10 Q0987 NOSIG",
      "taf": "TAF LIRN 121700Z 1218/1318 27016KT 9999 FEW030 SCT060"
    },
    {
      "icao": "LIRP",
      "alert": "OK",
      "vis_m": 9999,
      "fzfg": false,
      "metar_trigger": false,
      "taf_trigger": false,
      "metar": "METAR LIRP 121715Z 29012KT CAVOK 12/09 Q0988 NOSIG",
      "taf": "TAF LIRP 121700Z 1218/1318 30010KT 9999 FEW020"
    },
    {
      "icao": "LIRZ",
      "alert": "OK",
      "vis_m": 9999,
      "fzfg": false,
      "metar_trigger": false,
      "taf_trigger": false,
      "metar": "METAR LIRZ 121720Z AUTO 14003KT 9999 FEW019/// BKN060/// 10/09 Q0988",
      "taf": "TAF LIRZ 121700Z 1218/1318 VRB05KT 9999 BKN030"
    },
    {
      "icao": "LJLJ",
      "alert": "OK",
      "vis_m": 8000,
      "fzfg": false,
      "metar_trigger": false,
      "taf_trigger": false,
      "metar": "METAR LJLJ 121730Z 23002KT 8000 MIFG FEW003 BKN030 07/06 Q0987 TEMPO 0600 FG",
      "taf": "TAF LJLJ 121700Z 1218/1318 VRB02KT 9999 FEW003 BKN030"
    },
    {
      "icao": "LKMT",
      "alert": "OK",
      "vis_m": 9999,
      "fzfg": false,
      "metar_trigger": false,
      "taf_trigger": false,
      "metar": "METAR LKMT 121730Z 21006KT 9999 BKN045 07/05 Q0985 NOSIG",
      "taf": "TAF LKMT 121700Z 1218/1318 22010KT 9999 SCT025 BKN040"
    },
    {
      "icao": "LKPR",
      "alert": "OK",
      "vis_m": 9999,
      "fzfg": false,
      "metar_trigger": false,
      "taf_trigger": false,
      "metar": "METAR LKPR 121730Z 19009KT 9999 -RA FEW012 BKN018 OVC040 07/06 Q0982 NOSIG",
      "taf": "TAF LKPR 121700Z 1218/1324 23016KT 9999 BKN030"
    },
    {
      "icao": "LLBG",
      "alert": "OK",
      "vis_m": 9999,
      "fzfg": false,
      "metar_trigger": false,
      "taf_trigger": false,
      "metar": "METAR LLBG 121720Z VRB03KT CAVOK 19/09 Q1013 NOSIG",
      "taf": "TAF LLBG 121703Z 1218/1318 14005KT CAVOK"
    },
    {
      "icao": "LMML",
      "alert": "OK",
      "vis_m": 9999,
      "fzfg": false,
      "metar_trigger": false,
      "taf_trigger": false,
      "metar": "METAR LMML 121715Z 28027G40KT 9999 FEW022TCU 16/09 Q1000 TEMPO 8000 SHRA",
      "taf": "TAF LMML 121700Z 1218/1318 28034G48KT 9999 FEW020"
    },
    {
      "icao": "LOWW",
      "alert": "OK",
      "vis_m": 9999,
      "fzfg": false,
      "metar_trigger": false,
      "taf_trigger": false,
      "metar": "METAR LOWW 121720Z 33004KT CAVOK 08/07 Q0985 TEMPO FM1815 27025G35KT 4000 SHRA",
      "taf": "TAF LOWW 121717Z 1218/1324 27008KT 9999 FEW050 TX12/1314Z TN03/1324Z"
    },
    {
      "icao": "LPFR",
      "alert": "OK",
      "vis_m": 1500,
      "fzfg": false,
      "metar_trigger": false,
      "taf_trigger": false,
      "metar": "METAR LPFR 121730Z 23005KT 1500 BR BKN002 BKN004 15/15 Q1018",
      "taf": "TAF LPFR 121700Z 1218/1318 23013KT 6000 SCT004 BKN008"
    },
    {
      "icao": "LPMA",
      "alert": "OK",
      "vis_m": 9999,
      "fzfg": false,
      "metar_trigger": false,
      "taf_trigger": false,
      "metar": "METAR LPMA 121730Z 02007KT 340V060 9999 SCT016 18/11 Q1022",
      "taf": "TAF LPMA 121700Z 1218/1318 VRB05KT 9999 SCT015 SCT030"
    },
    {
      "icao": "LPPR",
      "alert": "OK",
      "vis_m": 4500,
      "fzfg": false,
      "metar_trigger": false,
      "taf_trigger": false,
      "metar": "METAR LPPR 121730Z 19013KT 4500 -RADZ BR SCT005 BKN008 FEW015TCU 13/12 Q1013",
      "taf": "TAF LPPR 121700Z 1218/1318 19015KT 5000 -RADZ SCT003 BKN006"
    },
    {
      "icao": "LPPS",
      "alert": "OK",
      "vis_m": 9999,
      "fzfg": false,
      "metar_trigger": false,
      "taf_trigger": false,
      "metar": "METAR LPPS 121730Z 23008KT 200V280 9999 SCT015 SCT030 18/11 Q1022",
      "taf": "TAF LPPS 121700Z 1218/1324 27015KT 9999 SCT015 SCT030"
    },
    {
      "icao": "LPPT",
      "alert": "OK",
      "vis_m": 9999,
      "fzfg": false,
      "metar_trigger": false,
      "taf_trigger": false,
      "metar": "METAR LPPT 121730Z 20010KT 9999 SCT010 BKN020 14/12 Q1016",
      "taf": "TAF LPPT 121700Z 1218/1324 22013KT 9999 SCT012"
    },
    {
      "icao": "LQBK",
      "alert": "OK",
      "vis_m": 9999,
      "fzfg": false,
      "metar_trigger": false,
      "taf_trigger": false,
      "metar": "METAR LQBK 121730Z 00000KT CAVOK 12/07 Q0986 NOSIG",
      "taf": "TAF LQBK 121700Z 1218/1318 29005KT 9999 SCT045 TX12/1313Z TN05/1306Z"
    },
    {
      "icao": "LQSA",
      "alert": "OK",
      "vis_m": 9999,
      "fzfg": false,
      "metar_trigger": false,
      "taf_trigger": false,
      "metar": "METAR LQSA 121730Z 15007KT 9999 BKN050 10/04 Q0987 NOSIG",
      "taf": ""
    },
    {
      "icao": "LQTZ",
      "alert": "OK",
      "vis_m": 9999,
      "fzfg": false,
      "metar_trigger": false,
      "taf_trigger": false,
      "metar": "METAR LQTZ 121730Z VRB01KT CAVOK 12/04 Q0987",
      "taf": "TAF LQTZ 121700Z 1218/1318 10005KT 9999 SCT055 TX11/1314Z TN05/1306Z"
    },
    {
      "icao": "LRBC",
      "alert": "OK",
      "vis_m": 5000,
      "fzfg": false,
      "metar_trigger": false,
      "taf_trigger": false,
      "metar": "METAR LRBC 121730Z 18006KT 5000 BR BKN009 03/02 Q0992",
      "taf": "TAF LRBC 121700Z 1218/1303 17008KT 3000 BR BKN005"
    },
    {
      "icao": "LRBS",
      "alert": "OK",
      "vis_m": 3000,
      "fzfg": false,
      "metar_trigger": false,
      "taf_trigger": false,
      "metar": "METAR LRBS 121730Z COR 00000KT 3000 BR OVC049 06/05 Q0992 NOSIG",
      "taf": "TAF LRBS 121700Z 1218/1318 VRB04KT 3000 BR NSC"
    },
    {
      "icao": "LRBV",
      "alert": "OK",
      "vis_m": 9999,
      "fzfg": false,
      "metar_trigger": false,
      "taf_trigger": false,
      "metar": "METAR LRBV 121730Z 20011KT CAVOK 07/01 Q0990",
      "taf": "TAF LRBV 121700Z 1218/1303 19010KT CAVOK"
    },
    {
      "icao": "LRCL",
      "alert": "OK",
      "vis_m": 9999,
      "fzfg": false,
      "metar_trigger": false,
      "taf_trigger": false,
      "metar": "METAR LRCL 121730Z 08005KT CAVOK 08/02 Q0989",
      "taf": "TAF LRCL 121700Z 1218/1303 VRB04KT CAVOK"
    },
    {
      "icao": "LRCV",
      "alert": "OK",
      "vis_m": 2500,
      "fzfg": false,
      "metar_trigger": false,
      "taf_trigger": false,
      "metar": "METAR LRCV 121730Z 25005KT 2500 BR OVC003 02/02 Q0992",
      "taf": "TAF LRCV 121700Z 1218/1303 VRB04KT 1500 BR OVC005"
    },
    {
      "icao": "LRIA",
      "alert": "OK",
      "vis_m": 9999,
      "fzfg": false,
      "metar_trigger": false,
      "taf_trigger": false,
      "metar": "METAR LRIA 121730Z VRB02KT CAVOK 07/04 Q0992",
      "taf": "TAF LRIA 121700Z 1218/1303 10006KT CAVOK"
    },
    {
      "icao": "LROP",
      "alert": "OK",
      "vis_m": 3000,
      "fzfg": false,
      "metar_trigger": false,
      "taf_trigger": false,
      "metar": "METAR LROP 121730Z 12003KT 3000 BR NSC 06/06 Q0992 NOSIG",
      "taf": "TAF LROP 121700Z 1218/1318 VRB04KT 3000 BR NSC"
    },
    {
      "icao": "LRSB",
      "alert": "OK",
      "vis_m": 9999,
      "fzfg": false,
      "metar_trigger": false,
      "taf_trigger": false,
      "metar": "METAR LRSB 121730Z 14004KT 100V170 9999 FEW086 09/01 Q0989",
      "taf": "TAF LRSB 121700Z 1218/1318 VRB04KT CAVOK"
    },
    {
      "icao": "LRSM",
      "alert": "OK",
      "vis_m": 9999,
      "fzfg": false,
      "metar_trigger": false,
      "taf_trigger": false,
      "metar": "METAR LRSM 121730Z AUTO 10005KT 9999 BKN050/// BKN065/// 10/07 Q0989 REDZ",
      "taf": "TAF LRSM 121400Z 1215/1224 15006KT CAVOK"
    },
    {
      "icao": "LRSV",
      "alert": "OK",
      "vis_m": 9999,
      "fzfg": false,
      "metar_trigger": false,
      "taf_trigger": false,
      "metar": "METAR LRSV 121730Z 20004KT CAVOK 03/01 Q0989",
      "taf": "TAF LRSV 121700Z 1218/1303 VRB04KT CAVOK"
    },
    {
      "icao": "LRTM",
      "alert": "OK",
      "vis_m": 9999,
      "fzfg": false,
      "metar_trigger": false,
      "taf_trigger": false,
      "metar": "METAR LRTM 121730Z AUTO 17003KT 9999 NCD 09/04 Q0989",
      "taf": "TAF LRTM 121700Z 1218/1303 VRB04KT 9999 SCT035"
    },
    {
      "icao": "LRTR",
      "alert": "OK",
      "vis_m": 9999,
      "fzfg": false,
      "metar_trigger": false,
      "taf_trigger": false,
      "metar": "METAR LRTR 121730Z 18004KT CAVOK 09/04 Q0988",
      "taf": "TAF LRTR 121700Z 1218/1318 18006KT CAVOK"
    },
    {
      "icao": "LTAC",
      "alert": "OK",
      "vis_m": 9999,
      "fzfg": false,
      "metar_trigger": false,
      "taf_trigger": false,
      "metar": "METAR LTAC 121720Z 18007KT 140V210 9999 SCT030 BKN080 09/04 Q1000 NOSIG RMK RWY21C 18011KT RWY03L 17006KT RWY21R 18011KT RWY03R 18008KT 150V210 RWY21L 19011KT",
      "taf": "TAF LTAC 121640Z 1218/1318 VRB02KT 9999 SCT040 BKN100"
    },
    {
      "icao": "LTFM",
      "alert": "OK",
      "vis_m": 9999,
      "fzfg": false,
      "metar_trigger": false,
      "taf_trigger": false,
      "metar": "METAR LTFM 121720Z 19017G27KT 9999 -SHRA BKN029 BKN090 12/10 Q0992 NOSIG RMK RWY17L 20015KT RWY34L 19016KT RWY16R 20013KT RWY36 19017KT RWY18 20018KT",
      "taf": "TAF LTFM 121640Z 1218/1324 21018G28KT 9999 SCT032 BKN080"
    },
    {
      "icao": "LUKK",
      "alert": "OK",
      "vis_m": 9000,
      "fzfg": false,
      "metar_trigger": false,
      "taf_trigger": false,
      "metar": "METAR LUKK 121730Z 15005KT 9000 NSC 05/04 Q0993 NOSIG",
      "taf": "TAF LUKK 121719Z 1218/1318 14006KT 5000 BR NSC"
    },
    {
      "icao": "LWOH",
      "alert": "OK",
      "vis_m": 9999,
      "fzfg": false,
      "metar_trigger": false,
      "taf_trigger": false,
      "metar": "METAR LWOH 121720Z 35002KT 9999 -RA SCT020 OVC035 08/07 Q0989",
      "taf": "TAF LWOH 121700Z 1218/1318 33006KT 9999 RA SCT020 OVC035"
    },
    {
      "icao": "LWSK",
      "alert": "OK",
      "vis_m": 9999,
      "fzfg": false,
      "metar_trigger": false,
      "taf_trigger": false,
      "metar": "METAR LWSK 121720Z VRB01KT 9999 SCT068 09/07 Q0990 NOSIG",
      "taf": "TAF LWSK 121700Z 1218/1318 VRB02KT 9999 SCT030 BKN060"
    },
    {
      "icao": "LYBE",
      "alert": "OK",
      "vis_m": 9999,
      "fzfg": false,
      "metar_trigger": false,
      "taf_trigger": false,
      "metar": "METAR LYBE 121730Z 10008KT CAVOK 11/05 Q0987 NOSIG",
      "taf": "TAF LYBE 121700Z 1218/1318 10010KT CAVOK TX13/1313Z TN04/1306Z"
    },
    {
      "icao": "LYNI",
      "alert": "OK",
      "vis_m": 9999,
      "fzfg": false,
      "metar_trigger": false,
      "taf_trigger": false,
      "metar": "METAR LYNI 121730Z 08003KT 9999 SCT067 11/06 Q0989 NOSIG",
      "taf": "TAF LYNI 121700Z 1218/1318 05005KT 9999 BKN060 TX11/1313Z TN05/1306Z"
    },
    {
      "icao": "LYPG",
      "alert": "OK",
      "vis_m": 7000,
      "fzfg": false,
      "metar_trigger": false,
      "taf_trigger": false,
      "metar": "METAR LYPG 121730Z 34003KT 7000 -RA FEW010 BKN040 OVC070 11/10 Q0988 TEMPO 5000 RA",
      "taf": "TAF LYPG 121700Z 1218/1318 VRB02KT 8000 FEW010 BKN030 OVC070 TX14/1312Z TN07/1305Z"
    },
    {
      "icao": "LZIB",
      "alert": "OK",
      "vis_m": 9999,
      "fzfg": false,
      "metar_trigger": false,
      "taf_trigger": false,
      "metar": "METAR LZIB 121730Z 36004KT CAVOK 08/07 Q0985 NOSIG",
      "taf": "TAF LZIB 121715Z 1218/1318 36005KT CAVOK"
    },
    {
      "icao": "LZKZ",
      "alert": "OK",
      "vis_m": 4500,
      "fzfg": false,
      "metar_trigger": false,
      "taf_trigger": false,
      "metar": "METAR LZKZ 121730Z 01003KT 4500 BR BKN024 OVC035 06/06 Q0988 NOSIG",
      "taf": "TAF LZKZ 121715Z 1218/1318 VRB02KT 5000 BR OVC016"
    },
    {
      "icao": "LZTT",
      "alert": "OK",
      "vis_m": 9999,
      "fzfg": false,
      "metar_trigger": false,
      "taf_trigger": false,
      "metar": "METAR LZTT 121730Z 18007KT 9999 BKN026 05/03 Q0986 NOSIG",
      "taf": "TAF LZTT 121715Z 1218/1318 19005KT 9999 BKN020"
    },
    {
      "icao": "OEJN",
      "alert": "OK",
      "vis_m": 9999,
      "fzfg": false,
      "metar_trigger": false,
      "taf_trigger": false,
      "metar": "METAR OEJN 121700Z 32007KT CAVOK 26/18 Q1013 NOSIG",
      "taf": "TAF OEJN 121700Z 1218/1324 02006KT 7000 NSC"
    },
    {
      "icao": "OEMA",
      "alert": "OK",
      "vis_m": 9999,
      "fzfg": false,
      "metar_trigger": false,
      "taf_trigger": false,
      "metar": "METAR OEMA 121700Z 22007KT CAVOK 29/04 Q1016 NOSIG",
      "taf": "TAF OEMA 121700Z 1218/1324 29008KT 9999 FEW045"
    },
    {
      "icao": "OJAI",
      "alert": "OK",
      "vis_m": 4000,
      "fzfg": false,
      "metar_trigger": false,
      "taf_trigger": false,
      "metar": "METAR OJAI 121700Z 30003KT 4000 HZ NSC 15/04 Q1015 NOSIG",
      "taf": "TAF OJAI 121638Z 1218/1324 26008KT 4000 HZ FEW035"
    },
    {
      "icao": "OMAA",
      "alert": "OK",
      "vis_m": 9999,
      "fzfg": false,
      "metar_trigger": false,
      "taf_trigger": false,
      "metar": "METAR OMAA 121730Z 04007KT 010V070 CAVOK 23/18 Q1017 NOSIG",
      "taf": "TAF OMAA 121700Z 1218/1400 14008KT 8000 NSC"
    },
    {
      "icao": "OMDB",
      "alert": "OK",
      "vis_m": 9999,
      "fzfg": false,
      "metar_trigger": false,
      "taf_trigger": false,
      "metar": "METAR OMDB 121730Z 02007KT 360V070 CAVOK 25/16 Q1017 NOSIG",
      "taf": "TAF OMDB 121700Z 1218/1400 10005KT 8000 NSC"
    },
    {
      "icao": "UAAA",
      "alert": "OK",
      "vis_m": 5000,
      "fzfg": false,
      "metar_trigger": false,
      "taf_trigger": false,
      "metar": "METAR UAAA 121730Z 24004MPS 5000 BR BKN020CB OVC100 M05/M06 Q1020 NOSIG",
      "taf": "TAF UAAA 121706Z 1218/1318 26003G08MPS 1500 BR BKN011CB OVC020 TX00/1309Z TNM05/1303Z"
    },
    {
      "icao": "UBBB",
      "alert": "OK",
      "vis_m": 9999,
      "fzfg": false,
      "metar_trigger": false,
      "taf_trigger": false,
      "metar": "METAR UBBB 121730Z 12008KT 080V160 CAVOK 05/02 Q1013 NOSIG",
      "taf": "TAF UBBB 121700Z 1218/1318 18016KT 9999 SCT030 TX12/1310Z TN04/1301Z"
    },
    {
      "icao": "UDSG",
      "alert": "OK",
      "vis_m": 150,
      "fzfg": true,
      "metar_trigger": false,
      "taf_trigger": false,
      "metar": "METAR UDSG 121730Z 20004KT 0150 R02/0550N FZFG VV002 M00/M00 Q1014 NOSIG",
      "taf": "TAF UDSG 121658Z 1218/1318 VRB06KT 1500 BR OVC010"
    },
    {
      "icao": "UDYZ",
      "alert": "OK",
      "vis_m": 4700,
      "fzfg": false,
      "metar_trigger": false,
      "taf_trigger": false,
      "metar": "METAR UDYZ 121730Z VRB01KT 4700 BR BKN016 04/03 Q1015 NOSIG",
      "taf": "TAF UDYZ 121700Z 1218/1318 VRB06KT 2000 BR BKN010"
    },
    {
      "icao": "UGKO",
      "alert": "OK",
      "vis_m": 9999,
      "fzfg": false,
      "metar_trigger": false,
      "taf_trigger": false,
      "metar": "METAR UGKO 121730Z 08022G32KT CAVOK 12/01 Q1006 NOSIG",
      "taf": "TAF UGKO 121700Z 1218/1318 08020KT CAVOK TX19/1311Z TN10/1302Z"
    }
  ]
}