{
  "ts_utc": "2026-01-30T08:33:02Z",
  "threshold_m": 150,
  "source": "stations_override.txt (ICAO list) + aviationweather.gov (METAR/TAF raw)",
  "station_count": 159,
  "stations": [
    {
      "icao": "BIKF",
      "alert": "OK",
      "vis_m": 9999,
      "fzfg": false,
      "metar_trigger": false,
      "taf_trigger": false,
      "metar": "METAR BIKF 300800Z 36006KT CAVOK 02/01 Q0997",
      "taf": "TAF BIKF 300733Z 3009/3109 36007KT 9999 FEW040 TX03/3014Z TNM02/3022Z"
    },
    {
      "icao": "BKPR",
      "alert": "OK",
      "vis_m": 9999,
      "fzfg": false,
      "metar_trigger": false,
      "taf_trigger": false,
      "metar": "METAR BKPR 300830Z 01003KT 9999 -RA SCT015 BKN030 06/05 Q1000 NOSIG",
      "taf": "TAF BKPR 300530Z 3006/3106 31006KT 9999 SCT015 BKN030"
    },
    {
      "icao": "EBCI",
      "alert": "OK",
      "vis_m": 9999,
      "fzfg": false,
      "metar_trigger": false,
      "taf_trigger": false,
      "metar": "METAR EBCI 300820Z 14006KT CAVOK 02/01 Q0995 NOSIG",
      "taf": "TAF EBCI 300515Z 3006/3112 13006KT 9999 FEW015"
    },
    {
      "icao": "EDDB",
      "alert": "OK",
      "vis_m": 3100,
      "fzfg": false,
      "metar_trigger": false,
      "taf_trigger": false,
      "metar": "METAR EDDB 300820Z AUTO 08009KT 3100 -SN BR FEW008 M04/M05 Q1005 TEMPO 4000 -SN BKN008",
      "taf": "TAF EDDB 300500Z 3006/3106 07011KT 6000 OVC007"
    },
    {
      "icao": "EDDH",
      "alert": "OK",
      "vis_m": 9000,
      "fzfg": false,
      "metar_trigger": false,
      "taf_trigger": false,
      "metar": "METAR EDDH 300820Z AUTO 10010KT 070V130 9000 -SN OVC012 M02/M04 Q1004 TEMPO 4000 OVC009",
      "taf": "TAF EDDH 300500Z 3006/3112 09010KT 6000 OVC012"
    },
    {
      "icao": "EDDK",
      "alert": "OK",
      "vis_m": 9999,
      "fzfg": false,
      "metar_trigger": false,
      "taf_trigger": false,
      "metar": "METAR EDDK 300820Z AUTO 11009KT 080V150 9999 OVC008 01/M01 Q0998 NOSIG",
      "taf": "TAF EDDK 300500Z 3006/3112 11005KT 9999 SCT009"
    },
    {
      "icao": "EDDN",
      "alert": "OK",
      "vis_m": 900,
      "fzfg": true,
      "metar_trigger": false,
      "taf_trigger": false,
      "metar": "METAR EDDN 300820Z AUTO 21004KT 0900 0400 R28/1600D FZFG FEW000 BKN004 BKN034 M01/M01 Q1000 BECMG 0500 FZFG VV001",
      "taf": ""
    },
    {
      "icao": "EDDS",
      "alert": "OK",
      "vis_m": 500,
      "fzfg": true,
      "metar_trigger": false,
      "taf_trigger": false,
      "metar": "METAR EDDS 300820Z AUTO VRB01KT 0500 0250 R07/P2000N FZFG VV003 M03/M03 Q0998 TEMPO 0600",
      "taf": "TAF EDDS 300500Z 3006/3106 VRB03KT 0600 FZFG VV002"
    },
    {
      "icao": "EDFH",
      "alert": "OK",
      "vis_m": 350,
      "fzfg": true,
      "metar_trigger": false,
      "taf_trigger": false,
      "metar": "METAR EDFH 300820Z 14014KT 0350 R21/0450N FZFG VV/// M01/M01 Q0997",
      "taf": "TAF EDFH 300500Z 3006/3106 14012KT 0600 FZFG VV002"
    },
    {
      "icao": "EDJA",
      "alert": "OK",
      "vis_m": null,
      "fzfg": false,
      "metar_trigger": false,
      "taf_trigger": false,
      "metar": "METAR EDJA 300820Z VRB02KT 99999 R24/P2000N NSC M03/M04 Q0999",
      "taf": "TAF EDJA 300800Z 3009/3018 VRB03KT 9000 NSC"
    },
    {
      "icao": "EDLW",
      "alert": "OK",
      "vis_m": 9000,
      "fzfg": false,
      "metar_trigger": false,
      "taf_trigger": false,
      "metar": "METAR EDLW 300820Z COR 04005KT 9000 NSC M01/M03 Q0998",
      "taf": "TAF EDLW 300500Z 3006/3106 11007KT 9999 FEW035"
    },
    {
      "icao": "EDNY",
      "alert": "OK",
      "vis_m": 900,
      "fzfg": true,
      "metar_trigger": false,
      "taf_trigger": false,
      "metar": "METAR EDNY 300820Z 00000KT 0900 R24/0900U FZFG BKN002 OVC005 M00/M00 Q1000",
      "taf": "TAF EDNY 300800Z 3009/3018 VRB03KT 0600 FZFG BKN001"
    },
    {
      "icao": "EDSB",
      "alert": "OK",
      "vis_m": 450,
      "fzfg": true,
      "metar_trigger": false,
      "taf_trigger": false,
      "metar": "METAR EDSB 300820Z COR 11006KT 0450 R21/0650U FZFG VV/// M01/M01 Q0999",
      "taf": "TAF EDSB 300500Z 3006/3106 VRB03KT 0600 FZFG VV002"
    },
    {
      "icao": "EETN",
      "alert": "OK",
      "vis_m": 9999,
      "fzfg": false,
      "metar_trigger": false,
      "taf_trigger": false,
      "metar": "METAR EETN 300820Z 09003KT 9999 BKN003 M15/M16 Q1026 NOSIG",
      "taf": ""
    },
    {
      "icao": "EFTU",
      "alert": "OK",
      "vis_m": 9999,
      "fzfg": false,
      "metar_trigger": false,
      "taf_trigger": false,
      "metar": "METAR EFTU 300820Z AUTO 09003KT CAVOK M19/M21 Q1026",
      "taf": "TAF EFTU 300524Z 3006/3106 08003KT CAVOK"
    },
    {
      "icao": "EGBB",
      "alert": "OK",
      "vis_m": 4000,
      "fzfg": false,
      "metar_trigger": false,
      "taf_trigger": false,
      "metar": "METAR EGBB 300820Z 13008KT 4000 -DZ OVC003 04/04 Q0987",
      "taf": "TAF EGBB 300454Z 3006/3106 11012KT 9999 BKN006"
    },
    {
      "icao": "EGGP",
      "alert": "OK",
      "vis_m": 9999,
      "fzfg": false,
      "metar_trigger": false,
      "taf_trigger": false,
      "metar": "METAR EGGP 300820Z 11012KT 9999 -RA BKN011 OVC016 03/01 Q0987",
      "taf": "TAF EGGP 300506Z 3006/3106 10014KT 9999 BKN020"
    },
    {
      "icao": "EGGW",
      "alert": "OK",
      "vis_m": 4900,
      "fzfg": false,
      "metar_trigger": false,
      "taf_trigger": false,
      "metar": "METAR EGGW 300820Z AUTO 13009KT 4900 BR OVC002/// //////TCU 05/04 Q0989",
      "taf": ""
    },
    {
      "icao": "EGKK",
      "alert": "OK",
      "vis_m": 9999,
      "fzfg": false,
      "metar_trigger": false,
      "taf_trigger": false,
      "metar": "METAR EGKK 300820Z 16003KT 9999 FEW007 SCT010 BKN018 07/07 Q0990",
      "taf": ""
    },
    {
      "icao": "EGNM",
      "alert": "OK",
      "vis_m": 1600,
      "fzfg": false,
      "metar_trigger": false,
      "taf_trigger": false,
      "metar": "METAR EGNM 300820Z 08009KT 1600 -SNRA BR SCT002 BKN004 00/00 Q0989",
      "taf": "TAF EGNM 300507Z 3006/3106 10009KT 6000 BKN008"
    },
    {
      "icao": "EGPD",
      "alert": "OK",
      "vis_m": 9999,
      "fzfg": false,
      "metar_trigger": false,
      "taf_trigger": false,
      "metar": "METAR EGPD 300820Z AUTO 13013G23KT 9999 SCT018 SCT028 OVC047 03/00 Q0995 TEMPO SHRA BKN014",
      "taf": "TAF EGPD 300500Z 3006/3106 13015G25KT 9999 SCT018 BKN030"
    },
    {
      "icao": "EGPF",
      "alert": "OK",
      "vis_m": 9999,
      "fzfg": false,
      "metar_trigger": false,
      "taf_trigger": false,
      "metar": "METAR EGPF 300820Z AUTO 09017KT 9999 OVC024 04/M01 Q0989",
      "taf": "TAF EGPF 300501Z 3006/3106 09016G26KT 9999 FEW018 SCT030"
    },
    {
      "icao": "EHBK",
      "alert": "OK",
      "vis_m": 9999,
      "fzfg": false,
      "metar_trigger": false,
      "taf_trigger": false,
      "metar": "METAR EHBK 300825Z AUTO 09006KT 9999 NCD M01/M01 Q0997 NOSIG",
      "taf": "TAF EHBK 300515Z 3006/3112 11005KT 1200 BR FEW035"
    },
    {
      "icao": "EHEH",
      "alert": "OK",
      "vis_m": null,
      "fzfg": false,
      "metar_trigger": false,
      "taf_trigger": false,
      "metar": "",
      "taf": "TAF EHEH 300537Z 3006/3112 10006KT 2000 BR BKN003"
    },
    {
      "icao": "EKBI",
      "alert": "OK",
      "vis_m": 9999,
      "fzfg": false,
      "metar_trigger": false,
      "taf_trigger": false,
      "metar": "METAR EKBI 300820Z AUTO 10014KT 9999 -SN OVC019/// M01/M04 Q1006",
      "taf": "TAF EKBI 300827Z 3009/3109 10015KT 9999 OVC016"
    },
    {
      "icao": "EKCH",
      "alert": "OK",
      "vis_m": 6000,
      "fzfg": false,
      "metar_trigger": false,
      "taf_trigger": false,
      "metar": "METAR EKCH 300820Z 09016KT 6000 -SN OVC018 M01/M04 Q1011 TEMPO 4000",
      "taf": "TAF EKCH 300827Z 3009/3109 09018KT 9999 -SN OVC020"
    },
    {
      "icao": "ENAL",
      "alert": "OK",
      "vis_m": 9999,
      "fzfg": false,
      "metar_trigger": false,
      "taf_trigger": false,
      "metar": "METAR ENAL 300820Z 14016KT 9999 BKN041 M02/M10 Q1011",
      "taf": "TAF ENAL 300500Z 3006/3015 14012KT 9999 FEW025 BKN035"
    },
    {
      "icao": "ENBR",
      "alert": "OK",
      "vis_m": 9999,
      "fzfg": false,
      "metar_trigger": false,
      "taf_trigger": false,
      "metar": "METAR ENBR 300820Z 04004KT CAVOK M06/M14 Q1010 NOSIG RMK WIND 1200FT 12003KT",
      "taf": "TAF ENBR 300500Z 3006/3106 09005KT CAVOK"
    },
    {
      "icao": "ENGM",
      "alert": "OK",
      "vis_m": 9000,
      "fzfg": false,
      "metar_trigger": false,
      "taf_trigger": false,
      "metar": "METAR ENGM 300820Z 03008KT 9000 4200NE -SN OVC028 M09/M11 Q1019 TEMPO 4000 -SN",
      "taf": ""
    },
    {
      "icao": "ENHD",
      "alert": "OK",
      "vis_m": 9999,
      "fzfg": false,
      "metar_trigger": false,
      "taf_trigger": false,
      "metar": "METAR ENHD 300820Z 09007KT CAVOK M04/M13 Q1010",
      "taf": "TAF ENHD 300500Z 3006/3015 10008KT CAVOK"
    },
    {
      "icao": "ENTC",
      "alert": "OK",
      "vis_m": 9999,
      "fzfg": false,
      "metar_trigger": false,
      "taf_trigger": false,
      "metar": "METAR ENTC 300820Z 19001KT CAVOK M11/M12 Q1022 NOSIG RMK WIND 2600FT 18024KT",
      "taf": "TAF ENTC 300500Z 3006/3106 18008KT 9999 FEW020"
    },
    {
      "icao": "ENTO",
      "alert": "OK",
      "vis_m": 9999,
      "fzfg": false,
      "metar_trigger": false,
      "taf_trigger": false,
      "metar": "METAR ENTO 300820Z 01010KT 9999 -SN OVC032 M07/M09 Q1017 NOSIG",
      "taf": "TAF ENTO 300500Z 3006/3106 02010KT 9999 -SN FEW012 BKN030"
    },
    {
      "icao": "ENVA",
      "alert": "OK",
      "vis_m": 9999,
      "fzfg": false,
      "metar_trigger": false,
      "taf_trigger": false,
      "metar": "METAR ENVA 300820Z 10010KT CAVOK M07/M15 Q1015 NOSIG RMK WIND 670FT 15016KT",
      "taf": "TAF ENVA 300500Z 3006/3106 12009KT CAVOK"
    },
    {
      "icao": "ENZV",
      "alert": "OK",
      "vis_m": 9999,
      "fzfg": false,
      "metar_trigger": false,
      "taf_trigger": false,
      "metar": "METAR ENZV 300820Z 10009KT 9999 SCT042 M02/M11 Q1010 NOSIG",
      "taf": "TAF ENZV 300500Z 3006/3106 09005KT 9999 SCT040"
    },
    {
      "icao": "EPGD",
      "alert": "OK",
      "vis_m": 8000,
      "fzfg": false,
      "metar_trigger": false,
      "taf_trigger": false,
      "metar": "METAR EPGD 300800Z 08007KT 8000 OVC005 M08/M09 Q1012",
      "taf": "TAF EPGD 300530Z 3006/3106 09012KT 9999 OVC007"
    },
    {
      "icao": "EPKK",
      "alert": "OK",
      "vis_m": 9999,
      "fzfg": false,
      "metar_trigger": false,
      "taf_trigger": false,
      "metar": "METAR EPKK 300800Z 07012KT 9999 BKN009 M00/M02 Q1004",
      "taf": "TAF EPKK 300830Z 3009/3109 07012KT 9999 BKN010"
    },
    {
      "icao": "EPKT",
      "alert": "OK",
      "vis_m": 9999,
      "fzfg": false,
      "metar_trigger": false,
      "taf_trigger": false,
      "metar": "METAR EPKT 300800Z 07009KT 9999 SCT015 OVC018 M01/M03 Q1003",
      "taf": "TAF EPKT 300530Z 3006/3106 09012KT 9999 -SN OVC011"
    },
    {
      "icao": "EPLB",
      "alert": "OK",
      "vis_m": 3800,
      "fzfg": false,
      "metar_trigger": false,
      "taf_trigger": false,
      "metar": "METAR EPLB 300800Z 06011KT 3800 BR OVC004 M05/M05 Q1008",
      "taf": "TAF EPLB 300530Z 3006/3106 07010KT 8000 OVC010"
    },
    {
      "icao": "EPMO",
      "alert": "OK",
      "vis_m": 8000,
      "fzfg": false,
      "metar_trigger": false,
      "taf_trigger": false,
      "metar": "METAR EPMO 300800Z 06013KT 8000 BKN011 M06/M08 Q1010",
      "taf": "TAF EPMO 300530Z 3006/3106 07012KT 8000 OVC010"
    },
    {
      "icao": "EPPO",
      "alert": "OK",
      "vis_m": 5000,
      "fzfg": false,
      "metar_trigger": false,
      "taf_trigger": false,
      "metar": "METAR EPPO 300800Z 08011KT 5000 BR BKN006 OVC020 M04/M06 Q1008",
      "taf": "TAF EPPO 300530Z 3006/3106 06008KT 9999 OVC008"
    },
    {
      "icao": "EPRA",
      "alert": "OK",
      "vis_m": 5000,
      "fzfg": false,
      "metar_trigger": false,
      "taf_trigger": false,
      "metar": "METAR EPRA 300800Z 07012KT 5000 BR OVC006 M04/M05 Q1008",
      "taf": "TAF EPRA 300830Z 3009/3018 08010KT 7000 OVC007"
    },
    {
      "icao": "EPRZ",
      "alert": "OK",
      "vis_m": 9999,
      "fzfg": false,
      "metar_trigger": false,
      "taf_trigger": false,
      "metar": "METAR EPRZ 300800Z 06011KT 9999 OVC009 00/M02 Q1005",
      "taf": "TAF EPRZ 300530Z 3006/3106 06012KT 9999 OVC012"
    },
    {
      "icao": "EPSC",
      "alert": "OK",
      "vis_m": 9999,
      "fzfg": false,
      "metar_trigger": false,
      "taf_trigger": false,
      "metar": "METAR EPSC 300800Z 09008KT 9999 BKN008 M05/M07 Q1008",
      "taf": "TAF EPSC 300530Z 3006/3106 08012KT 9999 SCT008 OVC020"
    },
    {
      "icao": "EPSY",
      "alert": "OK",
      "vis_m": 9999,
      "fzfg": false,
      "metar_trigger": false,
      "taf_trigger": false,
      "metar": "METAR EPSY 300800Z 06007KT 030V100 9999 BKN008 OVC039 M09/M11 Q1012",
      "taf": "TAF EPSY 300830Z 3009/3018 07010KT 9999 BKN040"
    },
    {
      "icao": "EPWA",
      "alert": "OK",
      "vis_m": 8000,
      "fzfg": false,
      "metar_trigger": false,
      "taf_trigger": false,
      "metar": "METAR EPWA 300800Z 06009KT 8000 BKN009 M05/M07 Q1010 BECMG BKN010",
      "taf": "TAF EPWA 300830Z 3009/3109 07012KT 8000 OVC008"
    },
    {
      "icao": "EPWR",
      "alert": "OK",
      "vis_m": 7000,
      "fzfg": false,
      "metar_trigger": false,
      "taf_trigger": false,
      "metar": "METAR EPWR 300800Z 08009KT 050V110 7000 OVC010 M01/M03 Q1005",
      "taf": "TAF EPWR 300830Z 3009/3109 08010KT 9999 OVC010"
    },
    {
      "icao": "ESGG",
      "alert": "OK",
      "vis_m": 9999,
      "fzfg": false,
      "metar_trigger": false,
      "taf_trigger": false,
      "metar": "METAR ESGG 300820Z 10013KT 9999 BKN029 M04/M10 Q1014",
      "taf": "TAF ESGG 300830Z 3009/3109 10010KT 9999 BKN030"
    },
    {
      "icao": "ESKN",
      "alert": "OK",
      "vis_m": 9999,
      "fzfg": false,
      "metar_trigger": false,
      "taf_trigger": false,
      "metar": "METAR ESKN 300820Z 11016KT 080V140 9999 BKN030 M03/M10 Q1020",
      "taf": "TAF ESKN 300830Z 3009/3109 10010KT 9999 -SN BKN030"
    },
    {
      "icao": "ESMS",
      "alert": "OK",
      "vis_m": 3900,
      "fzfg": false,
      "metar_trigger": false,
      "taf_trigger": false,
      "metar": "METAR ESMS 300820Z 09015KT 3900 -SN BKN023 M02/M04 Q1010 RESG",
      "taf": "TAF ESMS 300827Z 3009/3109 09018KT 9999 -SN OVC018"
    },
    {
      "icao": "ESSA",
      "alert": "OK",
      "vis_m": 9999,
      "fzfg": false,
      "metar_trigger": false,
      "taf_trigger": false,
      "metar": "METAR ESSA 300820Z 07006KT 9999 BKN033 M07/M11 Q1022 NOSIG",
      "taf": "TAF ESSA 300830Z 3009/3109 07007KT 9999 BKN035"
    },
    {
      "icao": "EYKA",
      "alert": "OK",
      "vis_m": 9999,
      "fzfg": false,
      "metar_trigger": false,
      "taf_trigger": false,
      "metar": "METAR EYKA 300820Z 06008KT 030V100 CAVOK M16/M19 Q1018",
      "taf": "TAF EYKA 300500Z 3006/3106 06008KT 7000 NSC"
    },
    {
      "icao": "EYPA",
      "alert": "OK",
      "vis_m": 9999,
      "fzfg": false,
      "metar_trigger": false,
      "taf_trigger": false,
      "metar": "METAR EYPA 300820Z 08007KT 050V110 CAVOK M15/M19 Q1019",
      "taf": "TAF EYPA 300500Z 3006/3106 08008KT 9000 NSC"
    },
    {
      "icao": "EYVI",
      "alert": "OK",
      "vis_m": 9999,
      "fzfg": false,
      "metar_trigger": false,
      "taf_trigger": false,
      "metar": "METAR EYVI 300820Z 07009KT CAVOK M16/M18 Q1017 NOSIG",
      "taf": "TAF EYVI 300500Z 3006/3106 06010KT 9000 NSC"
    },
    {
      "icao": "GCFV",
      "alert": "OK",
      "vis_m": 9999,
      "fzfg": false,
      "metar_trigger": false,
      "taf_trigger": false,
      "metar": "METAR GCFV 300800Z 34008KT 9999 OVC025 19/14 Q1023",
      "taf": "TAF GCFV 300800Z 3009/3109 01014KT 9999 BKN025 TX23/3014Z TN16/3106Z"
    },
    {
      "icao": "GCLP",
      "alert": "OK",
      "vis_m": 9999,
      "fzfg": false,
      "metar_trigger": false,
      "taf_trigger": false,
      "metar": "METAR GCLP 300800Z 36010KT 9999 BKN023 19/14 Q1023 NOSIG",
      "taf": "TAF GCLP 300800Z 3009/3109 36009KT 9999 SCT025 TX23/3014Z TN17/3106Z"
    },
    {
      "icao": "GCTS",
      "alert": "OK",
      "vis_m": 9999,
      "fzfg": false,
      "metar_trigger": false,
      "taf_trigger": false,
      "metar": "METAR GCTS 300800Z 01005KT 340V050 9999 SCT025 15/11 Q1024 NOSIG",
      "taf": "TAF GCTS 300800Z 3009/3109 VRB05KT 9999 SCT020 TX24/3014Z TN16/3106Z"
    },
    {
      "icao": "GMAD",
      "alert": "OK",
      "vis_m": 8000,
      "fzfg": false,
      "metar_trigger": false,
      "taf_trigger": false,
      "metar": "METAR GMAD 300800Z 32003KT 8000 SCT010 BKN016 15/15 Q1021 NOSIG",
      "taf": "TAF GMAD 300500Z 3006/3112 24003KT 8000 BKN015"
    },
    {
      "icao": "GMMN",
      "alert": "OK",
      "vis_m": 9999,
      "fzfg": false,
      "metar_trigger": false,
      "taf_trigger": false,
      "metar": "METAR GMMN 300800Z 22007KT 9999 BKN020 15/13 Q1022 NOSIG",
      "taf": "TAF GMMN 300500Z 3006/3112 23008KT 8000 BKN020"
    },
    {
      "icao": "GMMX",
      "alert": "OK",
      "vis_m": 6000,
      "fzfg": false,
      "metar_trigger": false,
      "taf_trigger": false,
      "metar": "METAR GMMX 300800Z VRB02KT 6000 SCT006 SCT020 13/13 Q1022 TEMPO 8000",
      "taf": "TAF GMMX 300500Z 3006/3112 26006KT 8000 SCT023 SCT080"
    },
    {
      "icao": "HEGN",
      "alert": "OK",
      "vis_m": 9999,
      "fzfg": false,
      "metar_trigger": false,
      "taf_trigger": false,
      "metar": "METAR HEGN 300800Z 30005KT CAVOK 21/09 Q1017 NOSIG",
      "taf": "TAF HEGN 300500Z 3006/3112 24008KT CAVOK"
    },
    {
      "icao": "HEMA",
      "alert": "OK",
      "vis_m": 9999,
      "fzfg": false,
      "metar_trigger": false,
      "taf_trigger": false,
      "metar": "METAR HEMA 300800Z 25005KT CAVOK 20/07 Q1017 NOSIG",
      "taf": "TAF HEMA 300500Z 3006/3112 24008KT CAVOK"
    },
    {
      "icao": "HESH",
      "alert": "OK",
      "vis_m": 9999,
      "fzfg": false,
      "metar_trigger": false,
      "taf_trigger": false,
      "metar": "METAR HESH 300800Z 35008KT CAVOK 20/11 Q1016 NOSIG",
      "taf": "TAF HESH 300500Z 3006/3112 25008KT CAVOK"
    },
    {
      "icao": "HESX",
      "alert": "OK",
      "vis_m": 9999,
      "fzfg": false,
      "metar_trigger": false,
      "taf_trigger": false,
      "metar": "METAR HESX 300800Z 21018KT CAVOK 17/02 Q1013 NOSIG",
      "taf": "TAF HESX 300500Z 3006/3112 20020G30KT 8000 NSC"
    },
    {
      "icao": "LATI",
      "alert": "OK",
      "vis_m": 9999,
      "fzfg": false,
      "metar_trigger": false,
      "taf_trigger": false,
      "metar": "METAR LATI 300820Z 16007KT 9999 SCT045 BKN075 10/07 Q1001 NOSIG",
      "taf": "TAF LATI 300500Z 3006/3106 VRB05KT 9999 SCT025 BKN060 TX13/3012Z TN05/3105Z"
    },
    {
      "icao": "LBPD",
      "alert": "OK",
      "vis_m": 9999,
      "fzfg": false,
      "metar_trigger": false,
      "taf_trigger": false,
      "metar": "METAR LBPD 300830Z AUTO 27015KT 9999 BKN066/// OVC089/// 10/05 Q0997 NOSIG",
      "taf": "TAF LBPD 300500Z 3006/3106 27016KT 7000 RA SCT020 OVC040"
    },
    {
      "icao": "LBSF",
      "alert": "OK",
      "vis_m": 9999,
      "fzfg": false,
      "metar_trigger": false,
      "taf_trigger": false,
      "metar": "METAR LBSF 300830Z 29006KT 9999 SCT012 BKN032 OVC039 06/03 Q0999 NOSIG",
      "taf": "TAF LBSF 300500Z 3006/3106 28010KT 9999 SCT030 BKN050"
    },
    {
      "icao": "LBWN",
      "alert": "OK",
      "vis_m": 9999,
      "fzfg": false,
      "metar_trigger": false,
      "taf_trigger": false,
      "metar": "METAR LBWN 300830Z 33013KT 290V350 9999 FEW012 OVC023 05/05 Q0996 NOSIG",
      "taf": "TAF LBWN 300500Z 3006/3106 34014KT 7000 RA BKN010 OVC020"
    },
    {
      "icao": "LCLK",
      "alert": "OK",
      "vis_m": 8000,
      "fzfg": false,
      "metar_trigger": false,
      "taf_trigger": false,
      "metar": "METAR LCLK 300800Z 20021KT 8000 FEW030 SCT045 20/15 Q1007 NOSIG",
      "taf": ""
    },
    {
      "icao": "LCPH",
      "alert": "OK",
      "vis_m": 2000,
      "fzfg": false,
      "metar_trigger": false,
      "taf_trigger": false,
      "metar": "METAR LCPH 300800Z 27010KT 250V320 2000 DU FEW020 18/14 Q1007 NOSIG",
      "taf": ""
    },
    {
      "icao": "LEAL",
      "alert": "OK",
      "vis_m": 9999,
      "fzfg": false,
      "metar_trigger": false,
      "taf_trigger": false,
      "metar": "METAR LEAL 300800Z VRB02KT CAVOK 12/05 Q1012 NOSIG",
      "taf": "TAF LEAL 300500Z 3006/3106 27009KT CAVOK TX20/3014Z TN11/3006Z"
    },
    {
      "icao": "LEBB",
      "alert": "OK",
      "vis_m": 9999,
      "fzfg": false,
      "metar_trigger": false,
      "taf_trigger": false,
      "metar": "METAR LEBB 300800Z 18007KT 130V240 9999 FEW030 10/03 Q1004 NOSIG",
      "taf": "TAF LEBB 300500Z 3006/3106 22009KT 9999 SCT025 BKN040 TX14/3012Z TN06/3024Z"
    },
    {
      "icao": "LEBL",
      "alert": "OK",
      "vis_m": 9999,
      "fzfg": false,
      "metar_trigger": false,
      "taf_trigger": false,
      "metar": "METAR LEBL 300800Z 23007KT 200V290 9999 FEW025 12/04 Q1006 NOSIG",
      "taf": "TAF LEBL 300500Z 3006/3106 28010KT 9999 FEW050 TX16/3012Z TN09/3006Z"
    },
    {
      "icao": "LECH",
      "alert": "OK",
      "vis_m": 9999,
      "fzfg": false,
      "metar_trigger": false,
      "taf_trigger": false,
      "metar": "METAR LECH 300800Z AUTO 25005KT 210V300 CAVOK 12/00 Q1007",
      "taf": ""
    },
    {
      "icao": "LEMD",
      "alert": "OK",
      "vis_m": 9999,
      "fzfg": false,
      "metar_trigger": false,
      "taf_trigger": false,
      "metar": "METAR LEMD 300800Z 21010G21KT 100V240 9999 SCT012 07/06 Q1011 NOSIG",
      "taf": ""
    },
    {
      "icao": "LEMG",
      "alert": "OK",
      "vis_m": 9999,
      "fzfg": false,
      "metar_trigger": false,
      "taf_trigger": false,
      "metar": "METAR LEMG 300800Z VRB02KT 9999 SCT070 13/11 Q1014 NOSIG",
      "taf": "TAF LEMG 300500Z 3006/3106 29010KT 9999 FEW035 TX21/3015Z TN12/3006Z"
    },
    {
      "icao": "LEVC",
      "alert": "OK",
      "vis_m": 9999,
      "fzfg": false,
      "metar_trigger": false,
      "taf_trigger": false,
      "metar": "METAR LEVC 300800Z 28017KT CAVOK 14/05 Q1009 NOSIG",
      "taf": "TAF LEVC 300500Z 3006/3106 27010KT CAVOK TX18/3014Z TN12/3006Z"
    },
    {
      "icao": "LEXJ",
      "alert": "OK",
      "vis_m": 9999,
      "fzfg": false,
      "metar_trigger": false,
      "taf_trigger": false,
      "metar": "METAR LEXJ 300800Z 22011G21KT 170V250 9999 FEW030 12/03 Q1002",
      "taf": "TAF LEXJ 300800Z 3009/3109 22009KT 9999 FEW035 TX15/3012Z TN07/3021Z"
    },
    {
      "icao": "LEZG",
      "alert": "OK",
      "vis_m": 9999,
      "fzfg": false,
      "metar_trigger": false,
      "taf_trigger": false,
      "metar": "METAR LEZG 300800Z 13003KT 080V170 CAVOK 06/04 Q1008 NOSIG",
      "taf": "TAF LEZG 300500Z 3006/3106 25012KT CAVOK TX14/3013Z TN08/3006Z"
    },
    {
      "icao": "LEZL",
      "alert": "OK",
      "vis_m": 9999,
      "fzfg": false,
      "metar_trigger": false,
      "taf_trigger": false,
      "metar": "METAR LEZL 300800Z 23005KT 9999 SCT035 12/12 Q1016 NOSIG",
      "taf": "TAF LEZL 300800Z 3009/3109 VRB04KT 9999 FEW030 TX18/3015Z TN10/3107Z"
    },
    {
      "icao": "LFBD",
      "alert": "OK",
      "vis_m": 9999,
      "fzfg": false,
      "metar_trigger": false,
      "taf_trigger": false,
      "metar": "METAR LFBD 300800Z AUTO 23009KT 9999 FEW023 BKN032 BKN050 10/08 Q1002 TEMPO 27015G25KT 4000 SHRA BKN015 FEW025CB BKN030TCU",
      "taf": "TAF LFBD 300500Z 3006/3112 27010KT 9999 BKN040 TX13/3011Z TN06/3106Z"
    },
    {
      "icao": "LFLL",
      "alert": "OK",
      "vis_m": 9999,
      "fzfg": false,
      "metar_trigger": false,
      "taf_trigger": false,
      "metar": "METAR LFLL 300800Z 20007KT 9999 -RA SCT038 BKN046 06/05 Q1000 NOSIG",
      "taf": "TAF LFLL 300500Z 3006/3112 18010KT 9999 BKN045"
    },
    {
      "icao": "LFLS",
      "alert": "OK",
      "vis_m": 9999,
      "fzfg": false,
      "metar_trigger": false,
      "taf_trigger": false,
      "metar": "METAR LFLS 300800Z AUTO 07004KT 9999 -RA BKN013/// OVC025/// ///TCU 04/04 Q1001 TEMPO 4000 RA BR BKN012 OVC025",
      "taf": ""
    },
    {
      "icao": "LFMN",
      "alert": "OK",
      "vis_m": 9999,
      "fzfg": false,
      "metar_trigger": false,
      "taf_trigger": false,
      "metar": "METAR LFMN 300800Z 34009KT 9999 FEW026 BKN170 BKN200 07/02 Q0999 NOSIG",
      "taf": "TAF LFMN 300800Z 3009/3115 33010KT 9999 FEW025 BKN200"
    },
    {
      "icao": "LFOB",
      "alert": "OK",
      "vis_m": 5000,
      "fzfg": false,
      "metar_trigger": false,
      "taf_trigger": false,
      "metar": "METAR LFOB 300800Z AUTO 11004KT 5000 BR OVC006 04/04 Q0993 BECMG 22010KT BKN020",
      "taf": "TAF LFOB 300500Z 3006/3106 14010KT 9999 BKN012"
    },
    {
      "icao": "LFPO",
      "alert": "OK",
      "vis_m": 6000,
      "fzfg": false,
      "metar_trigger": false,
      "taf_trigger": false,
      "metar": "METAR LFPO 300800Z 20004KT 6000 FEW020 SCT200 05/05 Q0995 NOSIG",
      "taf": ""
    },
    {
      "icao": "LFSB",
      "alert": "OK",
      "vis_m": 7000,
      "fzfg": false,
      "metar_trigger": false,
      "taf_trigger": false,
      "metar": "METAR LFSB 300800Z AUTO 16005KT 7000 -RA SCT035/// BKN047/// BKN060/// ///TCU 01/01 Q0999 BECMG BKN025",
      "taf": ""
    },
    {
      "icao": "LGAV",
      "alert": "OK",
      "vis_m": 9999,
      "fzfg": false,
      "metar_trigger": false,
      "taf_trigger": false,
      "metar": "METAR LGAV 300820Z 23014KT 9999 FEW025 15/06 Q1002 NOSIG",
      "taf": "TAF LGAV 300500Z 3006/3106 26015KT 9999 SCT020"
    },
    {
      "icao": "LGTS",
      "alert": "OK",
      "vis_m": 9999,
      "fzfg": false,
      "metar_trigger": false,
      "taf_trigger": false,
      "metar": "METAR LGTS 300820Z 31005KT 9999 FEW025 12/07 Q0999 NOSIG",
      "taf": ""
    },
    {
      "icao": "LHBP",
      "alert": "OK",
      "vis_m": 3500,
      "fzfg": false,
      "metar_trigger": false,
      "taf_trigger": false,
      "metar": "METAR LHBP 300830Z 32004KT 3500 -RA BR BKN004 OVC020 04/04 Q1001 NOSIG",
      "taf": "TAF LHBP 300515Z 3006/3106 VRB03KT 6000 -RA SCT006 OVC025"
    },
    {
      "icao": "LHDC",
      "alert": "OK",
      "vis_m": 9999,
      "fzfg": false,
      "metar_trigger": false,
      "taf_trigger": false,
      "metar": "METAR LHDC 300745Z AUTO 03008KT 360V060 9999 OVC027 03/00 Q1000 NOSIG",
      "taf": "TAF LHDC 300815Z 3009/3018 03008KT 9999 OVC025"
    },
    {
      "icao": "LIBD",
      "alert": "OK",
      "vis_m": 9999,
      "fzfg": false,
      "metar_trigger": false,
      "taf_trigger": false,
      "metar": "METAR LIBD 300820Z 25005KT 230V290 CAVOK 11/05 Q1001",
      "taf": "TAF LIBD 300500Z 3006/3106 26010KT 9999 FEW040"
    },
    {
      "icao": "LIBG",
      "alert": "OK",
      "vis_m": 9999,
      "fzfg": false,
      "metar_trigger": false,
      "taf_trigger": false,
      "metar": "METAR LIBG 300750Z 12003KT CAVOK 07/06 Q1002",
      "taf": "TAF LIBG 300800Z 3009/3018 VRB05KT CAVOK"
    },
    {
      "icao": "LIBP",
      "alert": "OK",
      "vis_m": 9999,
      "fzfg": false,
      "metar_trigger": false,
      "taf_trigger": false,
      "metar": "METAR LIBP 300820Z AUTO 22004KT 9999 NCD 07/04 Q1001",
      "taf": "TAF LIBP 300500Z 3006/3106 VRB05KT 6000 SCT030"
    },
    {
      "icao": "LIBR",
      "alert": "OK",
      "vis_m": 9999,
      "fzfg": false,
      "metar_trigger": false,
      "taf_trigger": false,
      "metar": "METAR LIBR 300820Z 24008KT CAVOK 10/05 Q1002",
      "taf": "TAF LIBR 300500Z 3006/3106 26010KT 9999 FEW020"
    },
    {
      "icao": "LICA",
      "alert": "OK",
      "vis_m": 9999,
      "fzfg": false,
      "metar_trigger": false,
      "taf_trigger": false,
      "metar": "METAR LICA 300820Z AUTO 08004KT 050V120 9999 BKN047/// BKN060/// 12/11 Q1003",
      "taf": "TAF LICA 300500Z 3006/3106 28011KT 9999 SCT025"
    },
    {
      "icao": "LICC",
      "alert": "OK",
      "vis_m": 9999,
      "fzfg": false,
      "metar_trigger": false,
      "taf_trigger": false,
      "metar": "METAR LICC 300820Z 23007KT 9999 -DZ SCT030 BKN070 12/08 Q1003",
      "taf": "TAF LICC 300500Z 3006/3106 26012KT 9999 FEW020"
    },
    {
      "icao": "LICJ",
      "alert": "OK",
      "vis_m": 7000,
      "fzfg": false,
      "metar_trigger": false,
      "taf_trigger": false,
      "metar": "METAR LICJ 300820Z 27017KT 7000 SHRA SCT010 BKN030 15/13 Q1003",
      "taf": "TAF LICJ 300500Z 3006/3106 20013KT 9999 FEW035"
    },
    {
      "icao": "LIMC",
      "alert": "OK",
      "vis_m": 4000,
      "fzfg": false,
      "metar_trigger": false,
      "taf_trigger": false,
      "metar": "METAR LIMC 300820Z 01005KT 4000 BR NSC 03/03 Q1001 NOSIG",
      "taf": ""
    },
    {
      "icao": "LIME",
      "alert": "OK",
      "vis_m": 9999,
      "fzfg": false,
      "metar_trigger": false,
      "taf_trigger": false,
      "metar": "METAR LIME 300820Z 03002KT 9999 SCT070 04/02 Q1001 NOSIG",
      "taf": "TAF LIME 300500Z 3006/3106 VRB04KT 3000 BR SCT015"
    },
    {
      "icao": "LIMF",
      "alert": "OK",
      "vis_m": 400,
      "fzfg": false,
      "metar_trigger": false,
      "taf_trigger": false,
      "metar": "METAR LIMF 300820Z 30007KT 0400 R36/0800U FG VV002 01/00 Q1001",
      "taf": "TAF LIMF 300500Z 3006/3106 VRB04KT 0200 FG BKN004"
    },
    {
      "icao": "LIMJ",
      "alert": "OK",
      "vis_m": 9999,
      "fzfg": false,
      "metar_trigger": false,
      "taf_trigger": false,
      "metar": "METAR LIMJ 300820Z 05004KT 330V090 9999 SCT032 SCT080 10/04 Q1000",
      "taf": "TAF LIMJ 300500Z 3006/3106 04010KT 9999 SCT020"
    },
    {
      "icao": "LIPE",
      "alert": "OK",
      "vis_m": 4000,
      "fzfg": false,
      "metar_trigger": false,
      "taf_trigger": false,
      "metar": "METAR LIPE 300820Z 31004KT 270V340 4000 BR BKN009 01/01 Q1002",
      "taf": ""
    },
    {
      "icao": "LIPH",
      "alert": "OK",
      "vis_m": 4000,
      "fzfg": false,
      "metar_trigger": false,
      "taf_trigger": false,
      "metar": "METAR LIPH 300820Z 25002KT 4000 BR SCT002 SCT006 04/04 Q1001",
      "taf": "TAF LIPH 300500Z 3006/3106 VRB04KT 0400 FG OVC001"
    },
    {
      "icao": "LIPQ",
      "alert": "OK",
      "vis_m": 9999,
      "fzfg": false,
      "metar_trigger": false,
      "taf_trigger": false,
      "metar": "METAR LIPQ 300820Z AUTO 12004KT 9999 BKN089/// 06/05 Q1001",
      "taf": "TAF LIPQ 300500Z 3006/3106 VRB04KT 9999 SCT040"
    },
    {
      "icao": "LIPR",
      "alert": "OK",
      "vis_m": 100,
      "fzfg": false,
      "metar_trigger": false,
      "taf_trigger": false,
      "metar": "METAR LIPR 300820Z 31005KT 0100 R30/0325N FG VV001 04/04 Q1001",
      "taf": "TAF LIPR 300500Z 3006/3106 VRB05KT 0500 FG OVC001"
    },
    {
      "icao": "LIPX",
      "alert": "OK",
      "vis_m": 150,
      "fzfg": false,
      "metar_trigger": false,
      "taf_trigger": false,
      "metar": "METAR LIPX 300820Z VRB02KT 0150 R04/0250N FG VV001 02/02 Q1001",
      "taf": "TAF LIPX 300500Z 3006/3106 VRB05KT 0300 FG OVC004"
    },
    {
      "icao": "LIPY",
      "alert": "OK",
      "vis_m": 9999,
      "fzfg": false,
      "metar_trigger": false,
      "taf_trigger": false,
      "metar": "METAR LIPY 300820Z AUTO VRB02KT 9999 NCD 05/05 Q1001",
      "taf": "TAF LIPY 300500Z 3006/3106 VRB05KT 6000 SCT020"
    },
    {
      "icao": "LIPZ",
      "alert": "OK",
      "vis_m": 2000,
      "fzfg": false,
      "metar_trigger": false,
      "taf_trigger": false,
      "metar": "METAR LIPZ 300820Z VRB01KT 2000 BR BKN005 05/04 Q1001 BECMG 4000 BR BKN010",
      "taf": ""
    },
    {
      "icao": "LIRF",
      "alert": "OK",
      "vis_m": 9999,
      "fzfg": false,
      "metar_trigger": false,
      "taf_trigger": false,
      "metar": "METAR LIRF 300820Z 07006KT 9999 SCT040 08/07 Q1000 NOSIG",
      "taf": "TAF LIRF 300500Z 3006/3112 08010KT 9999 FEW040"
    },
    {
      "icao": "LIRN",
      "alert": "OK",
      "vis_m": 9999,
      "fzfg": false,
      "metar_trigger": false,
      "taf_trigger": false,
      "metar": "METAR LIRN 300820Z VRB01KT CAVOK 09/06 Q1001 NOSIG",
      "taf": "TAF LIRN 300500Z 3006/3106 VRB05KT 8000 SCT020"
    },
    {
      "icao": "LIRP",
      "alert": "OK",
      "vis_m": 9999,
      "fzfg": false,
      "metar_trigger": false,
      "taf_trigger": false,
      "metar": "METAR LIRP 300815Z 09005KT 9999 -RA FEW020 BKN040 07/07 Q1000 TEMPO 5000 RA",
      "taf": "TAF LIRP 300500Z 3006/3106 12005KT 9999 SCT030 BKN050"
    },
    {
      "icao": "LIRZ",
      "alert": "OK",
      "vis_m": 8000,
      "fzfg": false,
      "metar_trigger": false,
      "taf_trigger": false,
      "metar": "METAR LIRZ 300820Z AUTO VRB02KT 8000 BKN002/// BKN063/// 06/06 Q1001",
      "taf": "TAF LIRZ 300500Z 3006/3106 VRB03KT 2500 BR BKN030"
    },
    {
      "icao": "LJLJ",
      "alert": "OK",
      "vis_m": 9999,
      "fzfg": false,
      "metar_trigger": false,
      "taf_trigger": false,
      "metar": "METAR LJLJ 300800Z 11002KT 9999 FEW007 SCT025 BKN048 03/03 Q1001 NOSIG",
      "taf": "TAF LJLJ 300500Z 3006/3106 VRB02KT 6000 FEW003 BKN020 BKN040"
    },
    {
      "icao": "LKMT",
      "alert": "OK",
      "vis_m": 8000,
      "fzfg": false,
      "metar_trigger": false,
      "taf_trigger": false,
      "metar": "METAR LKMT 300800Z 05011KT 8000 OVC009 M00/M01 Q1002 NOSIG",
      "taf": "TAF LKMT 300500Z 3006/3106 01010KT 9999 BKN030"
    },
    {
      "icao": "LKPR",
      "alert": "OK",
      "vis_m": 400,
      "fzfg": true,
      "metar_trigger": false,
      "taf_trigger": false,
      "metar": "METAR LKPR 300800Z 05003KT 0400 R24/1300U R30/0400D FZFG VV002 M01/M01 Q1001 NOSIG",
      "taf": "TAF LKPR 300800Z 3009/3115 05003KT 0500 FZFG VV002"
    },
    {
      "icao": "LLBG",
      "alert": "OK",
      "vis_m": 9999,
      "fzfg": false,
      "metar_trigger": false,
      "taf_trigger": false,
      "metar": "METAR LLBG 300820Z 19014KT CAVOK 21/04 Q1012 NOSIG RMK FEW120",
      "taf": "TAF LLBG 300503Z 3006/3106 17008KT CAVOK"
    },
    {
      "icao": "LMML",
      "alert": "OK",
      "vis_m": 6000,
      "fzfg": false,
      "metar_trigger": false,
      "taf_trigger": false,
      "metar": "METAR LMML 300815Z 24007KT 200V270 6000 -RA BKN008 15/14 Q1005 BECMG 9000",
      "taf": "TAF LMML 300500Z 3006/3106 26008KT 9999 FEW015"
    },
    {
      "icao": "LOWW",
      "alert": "OK",
      "vis_m": 6000,
      "fzfg": false,
      "metar_trigger": false,
      "taf_trigger": false,
      "metar": "METAR LOWW 300820Z 34005KT 6000 FEW007 BKN040 00/M01 Q1002 NOSIG",
      "taf": "TAF LOWW 300815Z 3009/3115 35007KT 9000 SCT012 BKN030 TX03/3013Z TN00/3106Z"
    },
    {
      "icao": "LPFR",
      "alert": "OK",
      "vis_m": 9000,
      "fzfg": false,
      "metar_trigger": false,
      "taf_trigger": false,
      "metar": "METAR LPFR 300800Z VRB02KT 9000 SCT005 SCT014 13/12 Q1016",
      "taf": "TAF LPFR 300500Z 3006/3106 26007KT 9999 SCT012"
    },
    {
      "icao": "LPMA",
      "alert": "OK",
      "vis_m": 9999,
      "fzfg": false,
      "metar_trigger": false,
      "taf_trigger": false,
      "metar": "METAR LPMA 300800Z 26004KT 9999 FEW013 17/14 Q1022",
      "taf": "TAF LPMA 300500Z 3006/3106 VRB05KT 9999 SCT015"
    },
    {
      "icao": "LPPR",
      "alert": "OK",
      "vis_m": 6000,
      "fzfg": false,
      "metar_trigger": false,
      "taf_trigger": false,
      "metar": "METAR LPPR 300800Z 19013KT 6000 -SHRA FEW014 SCT025 BKN036 13/11 Q1008",
      "taf": "TAF LPPR 300500Z 3006/3106 21010KT 9999 SCT025"
    },
    {
      "icao": "LPPS",
      "alert": "OK",
      "vis_m": 9999,
      "fzfg": false,
      "metar_trigger": false,
      "taf_trigger": false,
      "metar": "METAR LPPS 300800Z 28013KT 9999 SCT011 BKN030 18/16 Q1023",
      "taf": "TAF LPPS 300500Z 3006/3112 27013KT 9999 SCT013"
    },
    {
      "icao": "LPPT",
      "alert": "OK",
      "vis_m": 8000,
      "fzfg": false,
      "metar_trigger": false,
      "taf_trigger": false,
      "metar": "METAR LPPT 300800Z 21007KT 8000 FEW009 SCT012 13/12 Q1013",
      "taf": "TAF LPPT 300500Z 3006/3112 21005KT 9999 SCT015"
    },
    {
      "icao": "LQBK",
      "alert": "OK",
      "vis_m": 9999,
      "fzfg": false,
      "metar_trigger": false,
      "taf_trigger": false,
      "metar": "METAR LQBK 300800Z VRB01KT 9999 FEW037 04/02 Q1002 NOSIG",
      "taf": "TAF LQBK 300500Z 3006/3106 33005KT CAVOK TX08/3013Z TN02/3105Z"
    },
    {
      "icao": "LQSA",
      "alert": "OK",
      "vis_m": 4000,
      "fzfg": false,
      "metar_trigger": false,
      "taf_trigger": false,
      "metar": "METAR LQSA 300800Z 27002KT 4000 -DZ BR SCT003 BKN015 OVC025 05/05 Q1000 NOSIG",
      "taf": "TAF LQSA 300500Z 3006/3106 VRB02KT 9999 SCT012 BKN030 TX07/3013Z TN01/3106Z"
    },
    {
      "icao": "LQTZ",
      "alert": "OK",
      "vis_m": 9999,
      "fzfg": false,
      "metar_trigger": false,
      "taf_trigger": false,
      "metar": "METAR LQTZ 300800Z VRB03KT 9999 OVC015 05/03 Q1002",
      "taf": "TAF LQTZ 300500Z 3006/3106 27005KT 9999 FEW014 SCT040 TX09/3013Z TN02/3105Z"
    },
    {
      "icao": "LRBC",
      "alert": "OK",
      "vis_m": 8000,
      "fzfg": false,
      "metar_trigger": false,
      "taf_trigger": false,
      "metar": "METAR LRBC 300800Z 35014KT 8000 OVC008 02/01 Q1002",
      "taf": "TAF LRBC 300800Z 3009/3018 35014KT 9999 BKN010 OVC015"
    },
    {
      "icao": "LRBS",
      "alert": "OK",
      "vis_m": 9999,
      "fzfg": false,
      "metar_trigger": false,
      "taf_trigger": false,
      "metar": "METAR LRBS 300800Z 25006KT 220V300 9999 SCT015 04/03 Q1000 NOSIG",
      "taf": "TAF LRBS 300500Z 3006/3106 VRB04KT 9999 BKN045"
    },
    {
      "icao": "LRBV",
      "alert": "OK",
      "vis_m": 9999,
      "fzfg": false,
      "metar_trigger": false,
      "taf_trigger": false,
      "metar": "METAR LRBV 300800Z 00000KT 9999 FEW025 SCT062 02/00 Q0999",
      "taf": "TAF LRBV 300800Z 3009/3018 VRB04KT 9999 SCT025 SCT060"
    },
    {
      "icao": "LRCL",
      "alert": "OK",
      "vis_m": 1300,
      "fzfg": false,
      "metar_trigger": false,
      "taf_trigger": false,
      "metar": "METAR LRCL 300800Z 09003KT 060V120 1300 R25/1900N -RA BR OVC010 02/02 Q0999",
      "taf": "TAF LRCL 300800Z 3009/3018 VRB04KT 1500 -RA BR BKN010 OVC025"
    },
    {
      "icao": "LRCV",
      "alert": "OK",
      "vis_m": 9999,
      "fzfg": false,
      "metar_trigger": false,
      "taf_trigger": false,
      "metar": "METAR LRCV 300800Z 19006KT 9999 FEW006 OVC025 04/04 Q1000",
      "taf": "TAF LRCV 300800Z 3009/3018 19006KT 5000 BR OVC025"
    },
    {
      "icao": "LRIA",
      "alert": "OK",
      "vis_m": 9999,
      "fzfg": false,
      "metar_trigger": false,
      "taf_trigger": false,
      "metar": "METAR LRIA 300800Z 34010KT 9999 OVC005 01/00 Q1002",
      "taf": "TAF LRIA 300800Z 3009/3018 34011KT 9999 OVC005"
    },
    {
      "icao": "LROP",
      "alert": "OK",
      "vis_m": 9999,
      "fzfg": false,
      "metar_trigger": false,
      "taf_trigger": false,
      "metar": "METAR LROP 300800Z 25006KT 9999 BKN010 OVC014 05/03 Q0999 NOSIG",
      "taf": "TAF LROP 300500Z 3006/3106 VRB04KT 9999 BKN045"
    },
    {
      "icao": "LRSB",
      "alert": "OK",
      "vis_m": 8000,
      "fzfg": false,
      "metar_trigger": false,
      "taf_trigger": false,
      "metar": "METAR LRSB 300800Z 12003KT 8000 BKN010 03/02 Q0999",
      "taf": "TAF LRSB 300500Z 3006/3106 VRB04KT 5000 BR BKN040"
    },
    {
      "icao": "LRSM",
      "alert": "OK",
      "vis_m": 9999,
      "fzfg": false,
      "metar_trigger": false,
      "taf_trigger": false,
      "metar": "METAR LRSM 300800Z 34001KT 9999 OVC036 04/02 Q1000",
      "taf": "TAF LRSM 300800Z 3009/3018 VRB04KT 9999 OVC040"
    },
    {
      "icao": "LRSV",
      "alert": "OK",
      "vis_m": 4000,
      "fzfg": false,
      "metar_trigger": false,
      "taf_trigger": false,
      "metar": "METAR LRSV 300800Z 36014KT 4000 BR BKN002 M01/M01 Q1002",
      "taf": "TAF LRSV 300800Z 3009/3018 36012KT 5000 BR BKN002 BKN010"
    },
    {
      "icao": "LRTM",
      "alert": "OK",
      "vis_m": 1600,
      "fzfg": false,
      "metar_trigger": false,
      "taf_trigger": false,
      "metar": "METAR LRTM 300800Z VRB02KT 1600 -RA BR FEW002 SCT006 BKN027 02/01 Q0999",
      "taf": "TAF LRTM 300800Z 3009/3018 VRB04KT 1500 -RA BR SCT005 OVC040"
    },
    {
      "icao": "LRTR",
      "alert": "OK",
      "vis_m": 300,
      "fzfg": false,
      "metar_trigger": false,
      "taf_trigger": false,
      "metar": "METAR LRTR 300800Z 27005KT 0300 R29/1500D FG VV001 05/05 Q1000 TEMPO 0150 FG",
      "taf": ""
    },
    {
      "icao": "LTAC",
      "alert": "OK",
      "vis_m": 9999,
      "fzfg": false,
      "metar_trigger": false,
      "taf_trigger": false,
      "metar": "METAR LTAC 300820Z 19007KT 150V220 9999 BKN029 BKN080 09/05 Q1000 NOSIG RMK RWY21C 18013KT RWY03L 19006KT 160V230 RWY21R 18012KT RWY03R 19006KT 160V220 RWY21L 20011KT 160V220",
      "taf": "TAF LTAC 300440Z 3006/3106 19013KT 9999 SCT040 BKN100"
    },
    {
      "icao": "LTFM",
      "alert": "OK",
      "vis_m": 9999,
      "fzfg": false,
      "metar_trigger": false,
      "taf_trigger": false,
      "metar": "METAR LTFM 300820Z 19014KT 9999 FEW008 BKN033 BKN090 12/10 Q0995 NOSIG RMK RWY17L 19012KT RWY34L 18012KT RWY16R 19010KT RWY36 19017KT RWY18 21015KT",
      "taf": "TAF LTFM 300440Z 3006/3112 20012KT 9999 -SHRA BKN035 BKN080"
    },
    {
      "icao": "LUKK",
      "alert": "OK",
      "vis_m": 9999,
      "fzfg": false,
      "metar_trigger": false,
      "taf_trigger": false,
      "metar": "METAR LUKK 300800Z 36014KT 9999 -RA OVC007 01/01 Q0999 NOSIG",
      "taf": "TAF LUKK 300526Z 3006/3106 35012KT 5000 -RA OVC004"
    },
    {
      "icao": "LWOH",
      "alert": "OK",
      "vis_m": 9999,
      "fzfg": false,
      "metar_trigger": false,
      "taf_trigger": false,
      "metar": "METAR LWOH 300820Z VRB01KT 9999 SCT010 BKN035 04/04 Q1001",
      "taf": "TAF LWOH 300820Z 3009/3109 16008KT 9999 SCT015 BKN040"
    },
    {
      "icao": "LWSK",
      "alert": "OK",
      "vis_m": 9999,
      "fzfg": false,
      "metar_trigger": false,
      "taf_trigger": false,
      "metar": "METAR LWSK 300820Z 02006KT 9999 SCT040 BKN080 08/06 Q1000 NOSIG",
      "taf": "TAF LWSK 300820Z 3009/3109 03006KT 9999 BKN045 BKN080"
    },
    {
      "icao": "LYBE",
      "alert": "OK",
      "vis_m": 9999,
      "fzfg": false,
      "metar_trigger": false,
      "taf_trigger": false,
      "metar": "METAR LYBE 300800Z COR 27010KT 9999 SCT005 OVC008 05/04 Q1001 NOSIG",
      "taf": "TAF LYBE 300500Z 3006/3106 27010KT 4000 BR BKN002 BKN022 TX07/3013Z TN03/3106Z"
    },
    {
      "icao": "LYNI",
      "alert": "OK",
      "vis_m": 9999,
      "fzfg": false,
      "metar_trigger": false,
      "taf_trigger": false,
      "metar": "METAR LYNI 300800Z 30008KT 260V320 9999 BKN012 BKN023 07/05 Q1001 NOSIG",
      "taf": "TAF LYNI 300500Z 3006/3106 33006KT 8000 BKN010 BKN020 TX07/3013Z TN04/3006Z"
    },
    {
      "icao": "LYPG",
      "alert": "OK",
      "vis_m": 9999,
      "fzfg": false,
      "metar_trigger": false,
      "taf_trigger": false,
      "metar": "METAR LYPG 300800Z 00000KT 9999 FEW007 SCT034 BKN070 09/09 Q1001 NOSIG",
      "taf": "TAF LYPG 300500Z 3006/3106 36005KT 6000 FEW010 SCT040 BKN070 TX11/3013Z TN05/3106Z"
    },
    {
      "icao": "LZIB",
      "alert": "OK",
      "vis_m": 7000,
      "fzfg": false,
      "metar_trigger": false,
      "taf_trigger": false,
      "metar": "METAR LZIB 300830Z 14004KT 7000 FEW010 BKN038 02/01 Q1002 NOSIG",
      "taf": "TAF LZIB 300516Z 3006/3106 23006KT 9999 SCT007 BKN040"
    },
    {
      "icao": "LZKZ",
      "alert": "OK",
      "vis_m": 9999,
      "fzfg": false,
      "metar_trigger": false,
      "taf_trigger": false,
      "metar": "METAR LZKZ 300830Z 36017KT 9999 FEW018 BKN038 02/M02 Q1001 NOSIG",
      "taf": "TAF LZKZ 300516Z 3006/3106 03015KT 9999 BKN040"
    },
    {
      "icao": "LZTT",
      "alert": "OK",
      "vis_m": 9000,
      "fzfg": false,
      "metar_trigger": false,
      "taf_trigger": false,
      "metar": "METAR LZTT 300830Z 05008KT 9000 SCT002 OVC004 M03/M03 Q1000 NOSIG",
      "taf": "TAF LZTT 300516Z 3006/3106 06009KT 9999 SCT002 BKN009"
    },
    {
      "icao": "OEJN",
      "alert": "OK",
      "vis_m": 9999,
      "fzfg": false,
      "metar_trigger": false,
      "taf_trigger": false,
      "metar": "METAR OEJN 300800Z 35006KT CAVOK 27/13 Q1015 NOSIG",
      "taf": "TAF OEJN 300500Z 3006/3112 33012KT CAVOK"
    },
    {
      "icao": "OEMA",
      "alert": "OK",
      "vis_m": 9999,
      "fzfg": false,
      "metar_trigger": false,
      "taf_trigger": false,
      "metar": "METAR OEMA 300800Z 07006KT CAVOK 20/M06 Q1020 NOSIG",
      "taf": "TAF OEMA 300500Z 3006/3112 09010KT CAVOK"
    },
    {
      "icao": "OJAI",
      "alert": "OK",
      "vis_m": 5000,
      "fzfg": false,
      "metar_trigger": false,
      "taf_trigger": false,
      "metar": "METAR OJAI 300800Z 20003KT 5000 HZ NSC 12/04 Q1015 NOSIG",
      "taf": "TAF OJAI 300500Z 3006/3112 23006KT 5000 HZ NSC"
    },
    {
      "icao": "OMAA",
      "alert": "OK",
      "vis_m": 9999,
      "fzfg": false,
      "metar_trigger": false,
      "taf_trigger": false,
      "metar": "METAR OMAA 300830Z 28010KT 240V310 9999 FEW030 23/12 Q1018 NOSIG",
      "taf": "TAF OMAA 300500Z 3006/3112 30012KT 8000 FEW045"
    },
    {
      "icao": "OMDB",
      "alert": "OK",
      "vis_m": 9999,
      "fzfg": false,
      "metar_trigger": false,
      "taf_trigger": false,
      "metar": "METAR OMDB 300830Z 28006KT 250V320 9999 FEW035 24/14 Q1017 NOSIG",
      "taf": "TAF OMDB 300500Z 3006/3112 27013KT 8000 NSC"
    },
    {
      "icao": "UAAA",
      "alert": "OK",
      "vis_m": 5000,
      "fzfg": false,
      "metar_trigger": false,
      "taf_trigger": false,
      "metar": "METAR UAAA 300730Z VRB01MPS 5000 BR FU BKN015 M01/M05 Q1019 NOSIG",
      "taf": "TAF UAAA 300509Z 3006/3106 01003MPS 3100 BR FU BKN011 OVC015 TXM00/3010Z TNM06/3102Z"
    },
    {
      "icao": "UBBB",
      "alert": "OK",
      "vis_m": 9999,
      "fzfg": false,
      "metar_trigger": false,
      "taf_trigger": false,
      "metar": "METAR UBBB 300800Z 17014KT 9999 BKN009 09/07 Q1011 NOSIG",
      "taf": "TAF UBBB 300502Z 3006/3106 17012KT 8000 BKN009 BKN030 TX09/3010Z TN04/3101Z"
    },
    {
      "icao": "UDSG",
      "alert": "OK",
      "vis_m": 2600,
      "fzfg": false,
      "metar_trigger": false,
      "taf_trigger": false,
      "metar": "METAR UDSG 300730Z 09002KT 2600 BR VV003 M11/M11 Q1017 NOSIG",
      "taf": "TAF UDSG 300458Z 3006/3106 VRB06KT 1000 BR OVC010"
    },
    {
      "icao": "UDYZ",
      "alert": "OK",
      "vis_m": 3500,
      "fzfg": false,
      "metar_trigger": false,
      "taf_trigger": false,
      "metar": "METAR UDYZ 300730Z VRB01KT 3500 BR BKN011 M02/M05 Q1019 NOSIG",
      "taf": "TAF UDYZ 300500Z 3006/3106 20006KT 3000 BR BKN010"
    },
    {
      "icao": "UGKO",
      "alert": "OK",
      "vis_m": 9999,
      "fzfg": false,
      "metar_trigger": false,
      "taf_trigger": false,
      "metar": "METAR UGKO 300800Z 09018KT CAVOK 14/M02 Q1006 NOSIG",
      "taf": "TAF UGKO 300500Z 3006/3106 09010KT CAVOK TX18/3011Z TN07/3106Z"
    }
  ]
}